Category,Real Category,Business Name,Address,City,State,Postal Code,Country,Phone,Email,Website,Latitude,Longitude,Map Link,Details Link
perumahan,perumahan,Nusa Tenggara Bar. 84211,"Kareke, Kec. Dompu, Kabupaten Dompu, Nusa Tenggara Bar.","Kabupaten Dompu, Nusa Tenggara Bar.",NUSA TENGGARA BARAT,,Indonesia,,,,-85.486.112,1.184.717.975,https://maps.google.com/?cid=0x0:0x19504ec7d1952ed4,
perumahan,Komplek perumahan,RUMAH FUAD,"FF6C+R5F, Bada, Kec. Dompu, Kabupaten Dompu, Nusa Tenggara Bar. 84211","Bada, Kec. Dompu, Kabupaten Dompu",NUSA TENGGARA BARAT,84211.0,Indonesia,,,,-85.373.449,1.184.699.914,https://maps.google.com/?cid=0x0:0xd38634e7ba32abda,
perumahan,Komplek perumahan,Rumah radi,"Jl. Gajah Mada No.1, Bada, Kec. Dompu, Kabupaten Dompu, Nusa Tenggara Bar. 84211","Bada, Kec. Dompu, Kabupaten Dompu",NUSA TENGGARA BARAT,84211.0,Indonesia,,,,-85.397.556,1.184.643.751,https://maps.google.com/?cid=0x0:0x269c21428256b6a5,
perumahan,Pembangunan Perumahan,Rumah Lyla,"FF6C+R5F, Bada, Kec. Dompu, Kabupaten Dompu, Nusa Tenggara Bar. 84211","Bada, Kec. Dompu, Kabupaten Dompu",NUSA TENGGARA BARAT,84211.0,Indonesia,,,,-85.375.899,1.184.708.172,https://maps.google.com/?cid=0x0:0xc59c5fec48b9f5b0,
perumahan,Komplek perumahan,Perumahan Pesona Dompu,"Jl. Lintas Mbawi No.88, Kandai Satu, Kec. Dompu, Kabupaten Dompu, Nusa Tenggara Bar. 84219","Kandai Satu, Kec. Dompu, Kabupaten Dompu",NUSA TENGGARA BARAT,84219.0,Indonesia,82141365587,,,-8.548.826,1.184.590.869,https://maps.google.com/?cid=0x0:0x8f33c7b836ed2d5e,
perumahan,Pembangunan Perumahan,Doro ngguni,"CFWG+W6W, Jl. Lintas Lakey, Kareke, Kec. Dompu, Kabupaten Dompu, Nusa Tenggara Bar. 84211","Jl. Lintas Lakey, Kareke, Kec. Dompu, Kabupaten Dompu",NUSA TENGGARA BARAT,84211.0,Indonesia,,,,-8.552.662,118.476.084,https://maps.google.com/?cid=0x0:0xa0b6060d35c3b82c,
perumahan,Komplek perumahan,RATO OMPU,"FF2F+25J, Jl. Lintas Lakey, Kareke, Kec. Dompu, Kabupaten Dompu, Nusa Tenggara Bar.","Kabupaten Dompu, Nusa Tenggara Bar.",NUSA TENGGARA BARAT,,Indonesia,,,,-85.499.108,1.184.728.825,https://maps.google.com/?cid=0x0:0xd5388fa1a806df46,
perumahan,Komplek perumahan,Rumah drh. Vera,"FF69+MQV, Jl. Raya Pelita, Bada, Kec. Dompu, Kabupaten Dompu, Nusa Tenggara Bar. 84211","Jl. Raya Pelita, Bada, Kec. Dompu, Kabupaten Dompu",NUSA TENGGARA BARAT,84211.0,Indonesia,,,,-85.386.824,1.184.693.475,https://maps.google.com/?cid=0x0:0x93efd5751e26ccc3,
perumahan,Komplek perumahan,Doro toi,"FF89+R4X, Jl. Soekarno-Hatta, Dorotangga, Kec. Dompu, Kabupaten Dompu, Nusa Tenggara Bar. 84212","Jl. Soekarno-Hatta, Dorotangga, Kec. Dompu, Kabupaten Dompu",NUSA TENGGARA BARAT,84212.0,Indonesia,,,,-85.302.013,1.184.673.759,https://maps.google.com/?cid=0x0:0xd1bd1a9be8778e6c,
perumahan,Pembangunan Perumahan,BONEK DOMPU,"FF78+H2R, Dorotangga, Kec. Dompu, Kabupaten Dompu, Nusa Tenggara Bar. 84213","Dorotangga, Kec. Dompu, Kabupaten Dompu",NUSA TENGGARA BARAT,84213.0,Indonesia,,,,-85.360.165,1.184.650.126,https://maps.google.com/?cid=0x0:0x71759ea8f22dc085,
perumahan,Pondok,KOS IBU SALMA DOMPU PELITA,"FF69+MQV, Jl. Raya Pelita, Bada, Kec. Dompu, Kabupaten Dompu, Nusa Tenggara Bar. 84211","Jl. Raya Pelita, Bada, Kec. Dompu, Kabupaten Dompu",NUSA TENGGARA BARAT,84211.0,Indonesia,85342812318,,,-85.382.666,1.184.694.251,https://maps.google.com/?cid=0x0:0x1ce3ac2837d3ae7,
perumahan,Komplek perumahan,TEMPAT ACARA,"Jl. Kesehatan No.1, Bada, Kec. Dompu, Kabupaten Dompu, Nusa Tenggara Bar. 84211","Bada, Kec. Dompu, Kabupaten Dompu",NUSA TENGGARA BARAT,84211.0,Indonesia,,,,-85.406.656,1.184.649.095,https://maps.google.com/?cid=0x0:0x405d49c8ca6e9b44,
perumahan,Pembangunan Perumahan,Andra's House,"FF79+C76, Kampo Tolo, Dorotangga, Kec. Dompu, Kabupaten Dompu, Nusa Tenggara Bar. 84213","Kampo Tolo, Dorotangga, Kec. Dompu, Kabupaten Dompu",NUSA TENGGARA BARAT,84213.0,Indonesia,,,,-85.364.729,1.184.681.541,https://maps.google.com/?cid=0x0:0x41152652ec049592,
perumahan,Komplek perumahan,Denny's Farm,"FF6C+RJM, Dorotangga, Kec. Dompu, Kabupaten Dompu, Nusa Tenggara Bar. 84212","Dorotangga, Kec. Dompu, Kabupaten Dompu",NUSA TENGGARA BARAT,84212.0,Indonesia,,,,-85.372.981,1.184.722.609,https://maps.google.com/?cid=0x0:0x490e76e9e277da8d,
perumahan,Komplek perumahan,Burhan,"Jl. Lintas Lakey No.117, Potu, Kec. Dompu, Kabupaten Dompu, Nusa Tenggara Bar. 84211","Potu, Kec. Dompu, Kabupaten Dompu",NUSA TENGGARA BARAT,84211.0,Indonesia,,,,-85.440.521,1.184.654.937,https://maps.google.com/?cid=0x0:0xb7912b2bf6fdabe0,
perumahan,Pembangunan Perumahan,Dae,"CFWG+GFP, Kareke, Kec. Dompu, Kabupaten Dompu, Nusa Tenggara Bar.","Kabupaten Dompu, Nusa Tenggara Bar.",NUSA TENGGARA BARAT,,Indonesia,,,,-85.536.676,1.184.762.007,https://maps.google.com/?cid=0x0:0xd4e0221cc5f0f7e4,
perumahan,Komplek perumahan,YatiHilmiSyakir,"FF7C+936 gang mitra terop doro wila, Jl. Baru Pelita, Bada, Kec. Dompu, Kabupaten Dompu, Nusa Tenggara Bar. 84211","Jl. Baru Pelita, Bada, Kec. Dompu, Kabupaten Dompu",NUSA TENGGARA BARAT,84211.0,Indonesia,,,,-85.365.853,1.184.701.526,https://maps.google.com/?cid=0x0:0xf67f31d1223d5b6f,
perumahan,Komplek perumahan,Rumah ka ian,"Jl. Jend. Ahmad Yani No.23, Dorotangga, Kec. Dompu, Kabupaten Dompu, Nusa Tenggara Bar. 84212","Dorotangga, Kec. Dompu, Kabupaten Dompu",NUSA TENGGARA BARAT,84212.0,Indonesia,,,,-85.358.612,1.184.666.904,https://maps.google.com/?cid=0x0:0x1f1726e0093bd6a2,
perumahan,Komplek perumahan,Rumah pak kamaludin,"FF44+4M5, Kandai Satu, Kec. Dompu, Kabupaten Dompu, Nusa Tenggara Bar. 84217","Kandai Satu, Kec. Dompu, Kabupaten Dompu",NUSA TENGGARA BARAT,84217.0,Indonesia,,,,-85.449.011,1.184.570.588,https://maps.google.com/?cid=0x0:0x18850bb9e64e2c8,
perumahan,Komplek perumahan,Bale egar,"Gang lapangan bola pelita, Bada, Kec. Dompu, Kabupaten Dompu, Nusa Tenggara Bar.","Kabupaten Dompu, Nusa Tenggara Bar.",NUSA TENGGARA BARAT,,Indonesia,,,,-85.373.808,1.184.694.566,https://maps.google.com/?cid=0x0:0xdf2da4047eaa8f4f,
perumahan,Kantor Pemerintah,Dinas Perumahan dan Kawasan Permukiman,"Jl. Mahoni No.32, Dorotangga, Kec. Dompu, Kabupaten Dompu, Nusa Tenggara Bar. 84213","Dorotangga, Kec. Dompu, Kabupaten Dompu",NUSA TENGGARA BARAT,84213.0,Indonesia,3732723287,,,-8.534.153,1.184.659.463,https://maps.google.com/?cid=0x0:0x2988e56ba77e94d8,
perumahan,Perhimpunan Pengembang Perumahan,Wawan Anggarana,"Jl. Jend. Ahmad Yani No.23, Dorotangga, Kec. Dompu, Kabupaten Dompu, Nusa Tenggara Bar. 84212","Dorotangga, Kec. Dompu, Kabupaten Dompu",NUSA TENGGARA BARAT,84212.0,Indonesia,,,,-85.358.421,1.184.666.499,https://maps.google.com/?cid=0x0:0x914bea97a605fb23,
perumahan,Perusahaan investasi properti,BTN Pesona Dompu / C1 47,"FF27+4PR, Kandai Satu, Kec. Dompu, Kabupaten Dompu, Nusa Tenggara Bar.","Kabupaten Dompu, Nusa Tenggara Bar.",NUSA TENGGARA BARAT,,Indonesia,,,,-85.496.466,1.184.642.629,https://maps.google.com/?cid=0x0:0x947ac79e2541a2cb,
perumahan,Kantor Perusahaan,UD. MANDIRI,"CFRJ+24X, Jl. Lintas Lakey, Kareke, Kec. Dompu, Kabupaten Dompu, Nusa Tenggara Bar. 84214","Jl. Lintas Lakey, Kareke, Kec. Dompu, Kabupaten Dompu",NUSA TENGGARA BARAT,84214.0,Indonesia,,,,-85.598.878,1.184.803.442,https://maps.google.com/?cid=0x0:0xf098fe30f63d6f0,
perumahan,Komplek perumahan,Rumah laila,"FFCC+7G8 Belakang sdn 14, Dorotangga, Kec. Dompu, Kabupaten Dompu, Nusa Tenggara Bar.","Kabupaten Dompu, Nusa Tenggara Bar.",NUSA TENGGARA BARAT,,Indonesia,,,,-85.293.396,1.184.713.436,https://maps.google.com/?cid=0x0:0x36d1a9df9062e12c,
perumahan,Komplek perumahan,Cabang,"FF66+6WX, Cabang, Bada, Kec. Dompu, Kabupaten Dompu, Nusa Tenggara Bar.","Kabupaten Dompu, Nusa Tenggara Bar.",NUSA TENGGARA BARAT,,Indonesia,,,,-85.393.859,1.184.623.612,https://maps.google.com/?cid=0x0:0xa4c75d9aa0b95bb,
perumahan,Komplek perumahan,Ustadz abdarab,"Kareke, Kec. Dompu, Kabupaten Dompu, Nusa Tenggara Bar. 84211","Kec. Dompu, Kabupaten Dompu",NUSA TENGGARA BARAT,84211.0,Indonesia,,,,-85.481.725,1.184.714.251,https://maps.google.com/?cid=0x0:0xd90635d8637c4157,
perumahan,perumahan,Nusa Tenggara Bar. 84212,"Kec. Dompu, Kabupaten Dompu, Nusa Tenggara Bar.","Kabupaten Dompu, Nusa Tenggara Bar.",NUSA TENGGARA BARAT,,Indonesia,,,,-85.476.799,1.184.834.766,https://maps.google.com/?cid=0x0:0x6aea138ba2d36218,
perumahan,Komplek perumahan,Doro toi,"FF89+R4X, Jl. Soekarno-Hatta, Dorotangga, Kec. Dompu, Kabupaten Dompu, Nusa Tenggara Bar. 84212","Jl. Soekarno-Hatta, Dorotangga, Kec. Dompu, Kabupaten Dompu",NUSA TENGGARA BARAT,84212.0,Indonesia,,,,-85.302.013,1.184.673.759,https://maps.google.com/?cid=0x0:0xd1bd1a9be8778e6c,
perumahan,Komplek perumahan,Denny's Farm,"FF6C+RJM, Dorotangga, Kec. Dompu, Kabupaten Dompu, Nusa Tenggara Bar. 84212","Dorotangga, Kec. Dompu, Kabupaten Dompu",NUSA TENGGARA BARAT,84212.0,Indonesia,,,,-85.372.981,1.184.722.609,https://maps.google.com/?cid=0x0:0x490e76e9e277da8d,
perumahan,Pembangunan Perumahan,BONEK DOMPU,"FF78+H2R, Dorotangga, Kec. Dompu, Kabupaten Dompu, Nusa Tenggara Bar. 84213","Dorotangga, Kec. Dompu, Kabupaten Dompu",NUSA TENGGARA BARAT,84213.0,Indonesia,,,,-85.360.165,1.184.650.126,https://maps.google.com/?cid=0x0:0x71759ea8f22dc085,
perumahan,Perhimpunan Pengembang Perumahan,Wawan Anggarana,"Jl. Jend. Ahmad Yani No.23, Dorotangga, Kec. Dompu, Kabupaten Dompu, Nusa Tenggara Bar. 84212","Dorotangga, Kec. Dompu, Kabupaten Dompu",NUSA TENGGARA BARAT,84212.0,Indonesia,,,,-85.358.421,1.184.666.499,https://maps.google.com/?cid=0x0:0x914bea97a605fb23,
perumahan,Komplek perumahan,Rumah Betty,"FFC9+V9X, Jl. Syech Moh., Dorotangga, Kec. Dompu, Kabupaten Dompu, Nusa Tenggara Bar. 84212","Jl. Syech Moh., Dorotangga, Kec. Dompu, Kabupaten Dompu",NUSA TENGGARA BARAT,84212.0,Indonesia,,,,-85.278.301,1.184.684.581,https://maps.google.com/?cid=0x0:0x1b5cae8dd953cc46,
perumahan,Komplek perumahan,RUMAH FUAD,"FF6C+R5F, Bada, Kec. Dompu, Kabupaten Dompu, Nusa Tenggara Bar. 84211","Bada, Kec. Dompu, Kabupaten Dompu",NUSA TENGGARA BARAT,84211.0,Indonesia,,,,-85.373.449,1.184.699.914,https://maps.google.com/?cid=0x0:0xd38634e7ba32abda,
perumahan,Perusahaan investasi properti,Perum. PERMATA HIJAU DOMPU,"Lingkungan Sawete Barat, Kelurahan Bali, Satu, Kecematan, Kec. Dompu, Kabupaten Dompu, Nusa Tenggara Bar. 84213","Kelurahan Bali, Satu, Kecematan, Kec. Dompu, Kabupaten Dompu",NUSA TENGGARA BARAT,84213.0,Indonesia,85333134359,,,-85.298.218,1.184.601.175,https://maps.google.com/?cid=0x0:0xd6be57f075534661,
perumahan,Komplek perumahan,BUKIT FANI,"FF9C+VR4, Dorotangga, Kec. Dompu, Kabupaten Dompu, Nusa Tenggara Bar. 84212","Dorotangga, Kec. Dompu, Kabupaten Dompu",NUSA TENGGARA BARAT,84212.0,Indonesia,,,,-85.300.536,118.472.411,https://maps.google.com/?cid=0x0:0x1cb4834dcfef8cd6,
perumahan,Komplek perumahan,Rumah ka ian,"Jl. Jend. Ahmad Yani No.23, Dorotangga, Kec. Dompu, Kabupaten Dompu, Nusa Tenggara Bar. 84212","Dorotangga, Kec. Dompu, Kabupaten Dompu",NUSA TENGGARA BARAT,84212.0,Indonesia,,,,-85.358.612,1.184.666.904,https://maps.google.com/?cid=0x0:0x1f1726e0093bd6a2,
perumahan,Hotel jangka panjang,Rumah/Kos Kuan,"FF8C+W48, Dorotangga, Kec. Dompu, Kabupaten Dompu, Nusa Tenggara Bar. 84212","Dorotangga, Kec. Dompu, Kabupaten Dompu",NUSA TENGGARA BARAT,84212.0,Indonesia,,,,-85.327.058,1.184.703.375,https://maps.google.com/?cid=0x0:0xca23f998cdfdaedc,
perumahan,Pembangunan Perumahan,Rumah Lyla,"FF6C+R5F, Bada, Kec. Dompu, Kabupaten Dompu, Nusa Tenggara Bar. 84211","Bada, Kec. Dompu, Kabupaten Dompu",NUSA TENGGARA BARAT,84211.0,Indonesia,,,,-85.375.899,1.184.708.172,https://maps.google.com/?cid=0x0:0xc59c5fec48b9f5b0,
perumahan,Pembangunan Perumahan,UMA AIRA,"FF8H+QG8, Rasanggaro, Mangge Asi, Kec. Dompu, Kabupaten Dompu, Nusa Tenggara Bar.","Kabupaten Dompu, Nusa Tenggara Bar.",NUSA TENGGARA BARAT,,Indonesia,,,,-85.330.773,1.184.788.239,https://maps.google.com/?cid=0x0:0xa995b536b0245e41,
perumahan,Komplek perumahan,graha sumiyati,"FFC6+5H3, Bali, Kec. Dompu, Kabupaten Dompu, Nusa Tenggara Bar. 84213","Bali, Kec. Dompu, Kabupaten Dompu",NUSA TENGGARA BARAT,84213.0,Indonesia,,,,-85.295.924,1.184.614.059,https://maps.google.com/?cid=0x0:0x82b89bfdc34973ad,
perumahan,Komplek perumahan,Bale egar,"Gang lapangan bola pelita, Bada, Kec. Dompu, Kabupaten Dompu, Nusa Tenggara Bar.","Kabupaten Dompu, Nusa Tenggara Bar.",NUSA TENGGARA BARAT,,Indonesia,,,,-85.373.808,1.184.694.566,https://maps.google.com/?cid=0x0:0xdf2da4047eaa8f4f,
perumahan,Komplek perumahan,Rumah lida,"FF78+GV9, Dorotangga, Kec. Dompu, Kabupaten Dompu, Nusa Tenggara Bar. 84213","Dorotangga, Kec. Dompu, Kabupaten Dompu",NUSA TENGGARA BARAT,84213.0,Indonesia,,,,-85.362.039,1.184.672.457,https://maps.google.com/?cid=0x0:0xce303c60e7e3f04c,
perumahan,Komplek perumahan,Dompu kec. Mangge asi,"FFFC+MP3, Mangge Asi, Kec. Dompu, Kabupaten Dompu, Nusa Tenggara Bar.","Kabupaten Dompu, Nusa Tenggara Bar.",NUSA TENGGARA BARAT,,Indonesia,,,,-85.258.745,1.184.718.026,https://maps.google.com/?cid=0x0:0x22b8f8f9ec1dbfd4,
perumahan,Komplek perumahan,Heryanto,"FFCM+R99 Saka, Mangge Asi, Kec. Dompu, Kabupaten Dompu, Nusa Tenggara Bar.","Kabupaten Dompu, Nusa Tenggara Bar.",NUSA TENGGARA BARAT,,Indonesia,,,,-85.279.638,1.184.834.766,https://maps.google.com/?cid=0x0:0xbeb83ba8b63da468,
perumahan,Komplek perumahan,Rumah radi,"Jl. Gajah Mada No.1, Bada, Kec. Dompu, Kabupaten Dompu, Nusa Tenggara Bar. 84211","Bada, Kec. Dompu, Kabupaten Dompu",NUSA TENGGARA BARAT,84211.0,Indonesia,,,,-85.397.556,1.184.643.751,https://maps.google.com/?cid=0x0:0x269c21428256b6a5,
perumahan,Pondok,KOS IBU SALMA DOMPU PELITA,"FF69+MQV, Jl. Raya Pelita, Bada, Kec. Dompu, Kabupaten Dompu, Nusa Tenggara Bar. 84211","Jl. Raya Pelita, Bada, Kec. Dompu, Kabupaten Dompu",NUSA TENGGARA BARAT,84211.0,Indonesia,85342812318,,,-85.382.666,1.184.694.251,https://maps.google.com/?cid=0x0:0x1ce3ac2837d3ae7,
perumahan,Perhimpunan Pengembang Perumahan,Irwan,"Jl. Lintas Lakey No.117, Potu, Kec. Dompu, Kabupaten Dompu, Nusa Tenggara Bar. 84211","Potu, Kec. Dompu, Kabupaten Dompu",NUSA TENGGARA BARAT,84211.0,Indonesia,85253889741,,,-85.440.521,1.184.654.936,https://maps.google.com/?cid=0x0:0x5452c32b9c5df11c,
perumahan,Komplek perumahan,Rumah mawan,"FF9H+348, Unnamed Road, Mangge Asi, Kec. Dompu, Kabupaten Dompu, Nusa Tenggara Bar. 84219","Unnamed Road, Mangge Asi, Kec. Dompu, Kabupaten Dompu",NUSA TENGGARA BARAT,84219.0,Indonesia,,,,-85.323.402,118.477.829,https://maps.google.com/?cid=0x0:0x52180c73cb842ba8,
perumahan,Kantor Perusahaan,UD. MANDIRI,"CFRJ+24X, Jl. Lintas Lakey, Kareke, Kec. Dompu, Kabupaten Dompu, Nusa Tenggara Bar. 84214","Jl. Lintas Lakey, Kareke, Kec. Dompu, Kabupaten Dompu",NUSA TENGGARA BARAT,84214.0,Indonesia,,,,-85.598.878,1.184.803.442,https://maps.google.com/?cid=0x0:0xf098fe30f63d6f0,
perumahan,Komplek perumahan,Ahmad Dul Rifaid,"FFF9+8RX, Mangge Asi, Kec. Dompu, Kabupaten Dompu, Nusa Tenggara Bar. 84214","Mangge Asi, Kec. Dompu, Kabupaten Dompu",NUSA TENGGARA BARAT,84214.0,Indonesia,,,,-85.266.466,1.184.696.018,https://maps.google.com/?cid=0x0:0x280df87a6f0f74af,
perumahan,Perhimpunan Pengembang Perumahan,BFerro/Farid Anshari,"FFCC+C82, Jl. Ahmad Yani No…, Dorotangga, Kec. Dompu, Kabupaten Dompu, Nusa Tenggara Bar. 84213","Jl. Ahmad Yani No…, Dorotangga, Kec. Dompu, Kabupaten Dompu",NUSA TENGGARA BARAT,84213.0,Indonesia,81246293527,,,-85.289.979,1.184.707.614,https://maps.google.com/?cid=0x0:0x4a18b0a43a5f6db9,
perumahan,Komplek perumahan,Perumahan Pesona Dompu,"Jl. Lintas Mbawi No.88, Kandai Satu, Kec. Dompu, Kabupaten Dompu, Nusa Tenggara Bar. 84219","Kandai Satu, Kec. Dompu, Kabupaten Dompu",NUSA TENGGARA BARAT,84219.0,Indonesia,82141365587,,,-8.548.826,1.184.590.869,https://maps.google.com/?cid=0x0:0x8f33c7b836ed2d5e,
perumahan,perumahan,Nusa Tenggara Bar. 84213,"Kec. Dompu, Kabupaten Dompu, Nusa Tenggara Bar.","Kabupaten Dompu, Nusa Tenggara Bar.",NUSA TENGGARA BARAT,,Indonesia,,,,-85.029.473,1.184.571.974,https://maps.google.com/?cid=0x0:0x36282ed0d4e435d1,
perumahan,Perusahaan investasi properti,Perum. PERMATA HIJAU DOMPU,"Lingkungan Sawete Barat, Kelurahan Bali, Satu, Kecematan, Kec. Dompu, Kabupaten Dompu, Nusa Tenggara Bar. 84213","Kelurahan Bali, Satu, Kecematan, Kec. Dompu, Kabupaten Dompu",NUSA TENGGARA BARAT,84213.0,Indonesia,85333134359,,,-85.298.218,1.184.601.175,https://maps.google.com/?cid=0x0:0xd6be57f075534661,
perumahan,Pembangunan Perumahan,BONEK DOMPU,"FF78+H2R, Dorotangga, Kec. Dompu, Kabupaten Dompu, Nusa Tenggara Bar. 84213","Dorotangga, Kec. Dompu, Kabupaten Dompu",NUSA TENGGARA BARAT,84213.0,Indonesia,,,,-85.360.165,1.184.650.126,https://maps.google.com/?cid=0x0:0x71759ea8f22dc085,
perumahan,Komplek perumahan,graha sumiyati,"FFC6+5H3, Bali, Kec. Dompu, Kabupaten Dompu, Nusa Tenggara Bar. 84213","Bali, Kec. Dompu, Kabupaten Dompu",NUSA TENGGARA BARAT,84213.0,Indonesia,,,,-85.295.924,1.184.614.059,https://maps.google.com/?cid=0x0:0x82b89bfdc34973ad,
perumahan,Perhimpunan Pengembang Perumahan,BTN Puri Ginte Indah,"FC9R+X5J, Dekat Simpasai, BTN Puri Ginte Indah Ling, Kandai Dua, Kec. Woja, Kabupaten Dompu, Nusa Tenggara Bar. 84219","Dekat Simpasai, BTN Puri Ginte Indah Ling, Kandai Dua, Kec. Woja, Kabupaten Dompu",NUSA TENGGARA BARAT,84219.0,Indonesia,,,,-85.300.461,118.440.399,https://maps.google.com/?cid=0x0:0xa9714b4771ff760,
perumahan,Pembangunan Perumahan,Manggelewa,"FC3W+R8F, Kandai Dua, Kec. Woja, Kabupaten Dompu, Nusa Tenggara Bar.","Kabupaten Dompu, Nusa Tenggara Bar.",NUSA TENGGARA BARAT,,Indonesia,,,,-8.545.437,118.445.801,https://maps.google.com/?cid=0x0:0xf95f74563e2bc15f,
perumahan,Komplek perumahan,RUMAH FUAD,"FF6C+R5F, Bada, Kec. Dompu, Kabupaten Dompu, Nusa Tenggara Bar. 84211","Bada, Kec. Dompu, Kabupaten Dompu",NUSA TENGGARA BARAT,84211.0,Indonesia,,,,-85.373.449,1.184.699.914,https://maps.google.com/?cid=0x0:0xd38634e7ba32abda,
perumahan,Komplek perumahan,Rumah radi,"Jl. Gajah Mada No.1, Bada, Kec. Dompu, Kabupaten Dompu, Nusa Tenggara Bar. 84211","Bada, Kec. Dompu, Kabupaten Dompu",NUSA TENGGARA BARAT,84211.0,Indonesia,,,,-85.397.556,1.184.643.751,https://maps.google.com/?cid=0x0:0x269c21428256b6a5,
perumahan,Pondok,KOS IBU SALMA DOMPU PELITA,"FF69+MQV, Jl. Raya Pelita, Bada, Kec. Dompu, Kabupaten Dompu, Nusa Tenggara Bar. 84211","Jl. Raya Pelita, Bada, Kec. Dompu, Kabupaten Dompu",NUSA TENGGARA BARAT,84211.0,Indonesia,85342812318,,,-85.382.666,1.184.694.251,https://maps.google.com/?cid=0x0:0x1ce3ac2837d3ae7,
perumahan,Komplek perumahan,Dompu kec. Mangge asi,"FFFC+MP3, Mangge Asi, Kec. Dompu, Kabupaten Dompu, Nusa Tenggara Bar.","Kabupaten Dompu, Nusa Tenggara Bar.",NUSA TENGGARA BARAT,,Indonesia,,,,-85.258.745,1.184.718.026,https://maps.google.com/?cid=0x0:0x22b8f8f9ec1dbfd4,
perumahan,Komplek perumahan,Doro toi,"FF89+R4X, Jl. Soekarno-Hatta, Dorotangga, Kec. Dompu, Kabupaten Dompu, Nusa Tenggara Bar. 84212","Jl. Soekarno-Hatta, Dorotangga, Kec. Dompu, Kabupaten Dompu",NUSA TENGGARA BARAT,84212.0,Indonesia,,,,-85.302.013,1.184.673.759,https://maps.google.com/?cid=0x0:0xd1bd1a9be8778e6c,
perumahan,Rumah wisata,Swete,"Jl. Lkr. Utara No.1a, Bali, Kec. Dompu, Kabupaten Dompu, Nusa Tenggara Bar. 84213","Bali, Kec. Dompu, Kabupaten Dompu",NUSA TENGGARA BARAT,84213.0,Indonesia,,,,-8.528.724,1.184.609.091,https://maps.google.com/?cid=0x0:0x8c161918b818dfd3,
perumahan,Komplek perumahan,Kampung nasaira Desa sorisakolo,"FFX3+PP6, Persiapan Sorisakolo, Kec. Dompu, Kabupaten Dompu, Nusa Tenggara Bar. 84213","Persiapan Sorisakolo, Kec. Dompu, Kabupaten Dompu",NUSA TENGGARA BARAT,84213.0,Indonesia,,,,-85.007.149,1.184.542.772,https://maps.google.com/?cid=0x0:0x8c5fe976dd81c747,
perumahan,Komplek perumahan,RUMAH Hasbul/Nurul,"FC5X+53F, Simpasai, Kec. Woja, Kabupaten Dompu, Nusa Tenggara Bar. 84216","Simpasai, Kec. Woja, Kabupaten Dompu",NUSA TENGGARA BARAT,84216.0,Indonesia,,,,-85.420.649,118.447.885,https://maps.google.com/?cid=0x0:0xa511472833dc1e0b,
perumahan,Komplek perumahan,Denny's Farm,"FF6C+RJM, Dorotangga, Kec. Dompu, Kabupaten Dompu, Nusa Tenggara Bar. 84212","Dorotangga, Kec. Dompu, Kabupaten Dompu",NUSA TENGGARA BARAT,84212.0,Indonesia,,,,-85.372.981,1.184.722.609,https://maps.google.com/?cid=0x0:0x490e76e9e277da8d,
perumahan,Komplek perumahan,Rumah Enjel,"Jl. Udang No.3, Bali, Kec. Dompu, Kabupaten Dompu, Nusa Tenggara Bar. 84213","Bali, Kec. Dompu, Kabupaten Dompu",NUSA TENGGARA BARAT,84213.0,Indonesia,,,,-85.361.142,1.184.588.017,https://maps.google.com/?cid=0x0:0x26db818ffd75e0e2,
perumahan,Perhimpunan Pengembang Perumahan,BFerro/Farid Anshari,"FFCC+C82, Jl. Ahmad Yani No…, Dorotangga, Kec. Dompu, Kabupaten Dompu, Nusa Tenggara Bar. 84213","Jl. Ahmad Yani No…, Dorotangga, Kec. Dompu, Kabupaten Dompu",NUSA TENGGARA BARAT,84213.0,Indonesia,81246293527,,,-85.289.979,1.184.707.614,https://maps.google.com/?cid=0x0:0x4a18b0a43a5f6db9,
perumahan,Komplek perumahan,Rumah lida,"FF78+GV9, Dorotangga, Kec. Dompu, Kabupaten Dompu, Nusa Tenggara Bar. 84213","Dorotangga, Kec. Dompu, Kabupaten Dompu",NUSA TENGGARA BARAT,84213.0,Indonesia,,,,-85.362.039,1.184.672.457,https://maps.google.com/?cid=0x0:0xce303c60e7e3f04c,
perumahan,Pembangunan Perumahan,Satrya 12,"FF84+232, Jl. Baru Karijawa, Karijawa, Kec. Dompu, Kabupaten Dompu, Nusa Tenggara Bar. 84216","Jl. Baru Karijawa, Karijawa, Kec. Dompu, Kabupaten Dompu",NUSA TENGGARA BARAT,84216.0,Indonesia,,,,-85.349.812,1.184.551.498,https://maps.google.com/?cid=0x0:0x97cea5e78fcc9679,
perumahan,Pembangunan Perumahan,Rumah Lyla,"FF6C+R5F, Bada, Kec. Dompu, Kabupaten Dompu, Nusa Tenggara Bar. 84211","Bada, Kec. Dompu, Kabupaten Dompu",NUSA TENGGARA BARAT,84211.0,Indonesia,,,,-85.375.899,1.184.708.172,https://maps.google.com/?cid=0x0:0xc59c5fec48b9f5b0,
perumahan,Perhimpunan Pengembang Perumahan,Irwan,"Jl. Lintas Lakey No.117, Potu, Kec. Dompu, Kabupaten Dompu, Nusa Tenggara Bar. 84211","Potu, Kec. Dompu, Kabupaten Dompu",NUSA TENGGARA BARAT,84211.0,Indonesia,85253889741,,,-85.440.521,1.184.654.936,https://maps.google.com/?cid=0x0:0x5452c32b9c5df11c,
perumahan,Komplek perumahan,Rumah H Jaya PKB,"Jl. Lele No.006, RT.RW:014, lingkungan sawete timur, Bali, Kec. Dompu, Kabupaten Dompu, Nusa Tenggara Bar. 84213","RT.RW:014, lingkungan sawete timur, Bali, Kec. Dompu, Kabupaten Dompu",NUSA TENGGARA BARAT,84213.0,Indonesia,,,,-85.337.139,1.184.616.748,https://maps.google.com/?cid=0x0:0x1470267ed30550d0,
perumahan,Hotel jangka panjang,Kost Jao,"Jl. Lkr. Utara No.88, Bali, Kec. Dompu, Kabupaten Dompu, Nusa Tenggara Bar. 84213","Bali, Kec. Dompu, Kabupaten Dompu",NUSA TENGGARA BARAT,84213.0,Indonesia,,,,-85.309.879,118.458.903,https://maps.google.com/?cid=0x0:0xcc9c4cd349a614c8,
perumahan,Komplek perumahan,Rumah pak kamaludin,"FF44+4M5, Kandai Satu, Kec. Dompu, Kabupaten Dompu, Nusa Tenggara Bar. 84217","Kandai Satu, Kec. Dompu, Kabupaten Dompu",NUSA TENGGARA BARAT,84217.0,Indonesia,,,,-85.449.011,1.184.570.588,https://maps.google.com/?cid=0x0:0x18850bb9e64e2c8,
perumahan,Komplek perumahan,Ahmad Dul Rifaid,"FFF9+8RX, Mangge Asi, Kec. Dompu, Kabupaten Dompu, Nusa Tenggara Bar. 84214","Mangge Asi, Kec. Dompu, Kabupaten Dompu",NUSA TENGGARA BARAT,84214.0,Indonesia,,,,-85.266.466,1.184.696.018,https://maps.google.com/?cid=0x0:0x280df87a6f0f74af,
perumahan,perumahan,Nusa Tenggara Bar. 84214,"Kec. Dompu, Kabupaten Dompu, Nusa Tenggara Bar.","Kabupaten Dompu, Nusa Tenggara Bar.",NUSA TENGGARA BARAT,,Indonesia,,,,-85.235,1.184.776.372,https://maps.google.com/?cid=0x0:0x55f1573dc2143d57,
perumahan,Komplek perumahan,RUMAH FUAD,"FF6C+R5F, Bada, Kec. Dompu, Kabupaten Dompu, Nusa Tenggara Bar. 84211","Bada, Kec. Dompu, Kabupaten Dompu",NUSA TENGGARA BARAT,84211.0,Indonesia,,,,-85.373.449,1.184.699.914,https://maps.google.com/?cid=0x0:0xd38634e7ba32abda,
perumahan,Pembangunan Perumahan,BONEK DOMPU,"FF78+H2R, Dorotangga, Kec. Dompu, Kabupaten Dompu, Nusa Tenggara Bar. 84213","Dorotangga, Kec. Dompu, Kabupaten Dompu",NUSA TENGGARA BARAT,84213.0,Indonesia,,,,-85.360.165,1.184.650.126,https://maps.google.com/?cid=0x0:0x71759ea8f22dc085,
perumahan,Kantor Perusahaan,UD. MANDIRI,"CFRJ+24X, Jl. Lintas Lakey, Kareke, Kec. Dompu, Kabupaten Dompu, Nusa Tenggara Bar. 84214","Jl. Lintas Lakey, Kareke, Kec. Dompu, Kabupaten Dompu",NUSA TENGGARA BARAT,84214.0,Indonesia,,,,-85.598.878,1.184.803.442,https://maps.google.com/?cid=0x0:0xf098fe30f63d6f0,
perumahan,Komplek perumahan,Doro toi,"FF89+R4X, Jl. Soekarno-Hatta, Dorotangga, Kec. Dompu, Kabupaten Dompu, Nusa Tenggara Bar. 84212","Jl. Soekarno-Hatta, Dorotangga, Kec. Dompu, Kabupaten Dompu",NUSA TENGGARA BARAT,84212.0,Indonesia,,,,-85.302.013,1.184.673.759,https://maps.google.com/?cid=0x0:0xd1bd1a9be8778e6c,
perumahan,Kantor Pemerintah,Dompu,"FFPM+JHX, Jl. Lintas Sumbawa - Bima No.81, OO, Kec. Dompu, Kabupaten Dompu, Nusa Tenggara Bar. 84214","Jl. Lintas Sumbawa - Bima No.81, OO, Kec. Dompu, Kabupaten Dompu",NUSA TENGGARA BARAT,84214.0,Indonesia,,,,-85.145.299,1.184.826.556,https://maps.google.com/?cid=0x0:0x8404f02e6491a161,
perumahan,Komplek perumahan,Rumah radi,"Jl. Gajah Mada No.1, Bada, Kec. Dompu, Kabupaten Dompu, Nusa Tenggara Bar. 84211","Bada, Kec. Dompu, Kabupaten Dompu",NUSA TENGGARA BARAT,84211.0,Indonesia,,,,-85.397.556,1.184.643.751,https://maps.google.com/?cid=0x0:0x269c21428256b6a5,
perumahan,Komplek perumahan,Rumah mawan,"FF9H+348, Unnamed Road, Mangge Asi, Kec. Dompu, Kabupaten Dompu, Nusa Tenggara Bar. 84219","Unnamed Road, Mangge Asi, Kec. Dompu, Kabupaten Dompu",NUSA TENGGARA BARAT,84219.0,Indonesia,,,,-85.323.402,118.477.829,https://maps.google.com/?cid=0x0:0x52180c73cb842ba8,
perumahan,Komplek perumahan,graha sumiyati,"FFC6+5H3, Bali, Kec. Dompu, Kabupaten Dompu, Nusa Tenggara Bar. 84213","Bali, Kec. Dompu, Kabupaten Dompu",NUSA TENGGARA BARAT,84213.0,Indonesia,,,,-85.295.924,1.184.614.059,https://maps.google.com/?cid=0x0:0x82b89bfdc34973ad,
perumahan,Pembangunan Perumahan,Andra's House,"FF79+C76, Kampo Tolo, Dorotangga, Kec. Dompu, Kabupaten Dompu, Nusa Tenggara Bar. 84213","Kampo Tolo, Dorotangga, Kec. Dompu, Kabupaten Dompu",NUSA TENGGARA BARAT,84213.0,Indonesia,,,,-85.364.729,1.184.681.541,https://maps.google.com/?cid=0x0:0x41152652ec049592,
perumahan,Komplek perumahan,Perumahan Pesona Dompu,"Jl. Lintas Mbawi No.88, Kandai Satu, Kec. Dompu, Kabupaten Dompu, Nusa Tenggara Bar. 84219","Kandai Satu, Kec. Dompu, Kabupaten Dompu",NUSA TENGGARA BARAT,84219.0,Indonesia,82141365587,,,-8.548.826,1.184.590.869,https://maps.google.com/?cid=0x0:0x8f33c7b836ed2d5e,
perumahan,Pembangunan Perumahan,KARAMABURA,"GF7J+3P6, Karamabura, Kec. Dompu, Kabupaten Dompu, Nusa Tenggara Bar. 84219","Karamabura, Kec. Dompu, Kabupaten Dompu",NUSA TENGGARA BARAT,84219.0,Indonesia,,,,-84.873.366,1.184.817.642,https://maps.google.com/?cid=0x0:0x84a970c7993e1a12,
perumahan,Komplek perumahan,RATO OMPU,"FF2F+25J, Jl. Lintas Lakey, Kareke, Kec. Dompu, Kabupaten Dompu, Nusa Tenggara Bar.","Kabupaten Dompu, Nusa Tenggara Bar.",NUSA TENGGARA BARAT,,Indonesia,,,,-85.499.108,1.184.728.825,https://maps.google.com/?cid=0x0:0xd5388fa1a806df46,
perumahan,Perusahaan investasi properti,Perum. PERMATA HIJAU DOMPU,"Lingkungan Sawete Barat, Kelurahan Bali, Satu, Kecematan, Kec. Dompu, Kabupaten Dompu, Nusa Tenggara Bar. 84213","Kelurahan Bali, Satu, Kecematan, Kec. Dompu, Kabupaten Dompu",NUSA TENGGARA BARAT,84213.0,Indonesia,85333134359,,,-85.298.218,1.184.601.175,https://maps.google.com/?cid=0x0:0xd6be57f075534661,
perumahan,Pusat Pendidikan,Muezza Artaya Residance,"FF9C+3M2, Dorotangga, Kec. Dompu, Kabupaten Dompu, Nusa Tenggara Bar.","Kabupaten Dompu, Nusa Tenggara Bar.",NUSA TENGGARA BARAT,,Indonesia,,,,-85.334.427,1.184.712.496,https://maps.google.com/?cid=0x0:0x99bdb0b6756c97d0,
perumahan,Pembangunan Perumahan,Rumah Lyla,"FF6C+R5F, Bada, Kec. Dompu, Kabupaten Dompu, Nusa Tenggara Bar. 84211","Bada, Kec. Dompu, Kabupaten Dompu",NUSA TENGGARA BARAT,84211.0,Indonesia,,,,-85.375.899,1.184.708.172,https://maps.google.com/?cid=0x0:0xc59c5fec48b9f5b0,
perumahan,Pembangunan Perumahan,Agus,"FFF9+5JQ, Dorotangga, Kec. Dompu, Kabupaten Dompu, Nusa Tenggara Bar. 84214","Dorotangga, Kec. Dompu, Kabupaten Dompu",NUSA TENGGARA BARAT,84214.0,Indonesia,,,,-8.527.026,1.184.691.213,https://maps.google.com/?cid=0x0:0x28f41c5eda978daf,
perumahan,Komplek perumahan,Bale egar,"Gang lapangan bola pelita, Bada, Kec. Dompu, Kabupaten Dompu, Nusa Tenggara Bar.","Kabupaten Dompu, Nusa Tenggara Bar.",NUSA TENGGARA BARAT,,Indonesia,,,,-85.373.808,1.184.694.566,https://maps.google.com/?cid=0x0:0xdf2da4047eaa8f4f,
perumahan,Perhimpunan Pengembang Perumahan,Wawan Anggarana,"Jl. Jend. Ahmad Yani No.23, Dorotangga, Kec. Dompu, Kabupaten Dompu, Nusa Tenggara Bar. 84212","Dorotangga, Kec. Dompu, Kabupaten Dompu",NUSA TENGGARA BARAT,84212.0,Indonesia,,,,-85.358.421,1.184.666.499,https://maps.google.com/?cid=0x0:0x914bea97a605fb23,
perumahan,Pondok,KOS IBU SALMA DOMPU PELITA,"FF69+MQV, Jl. Raya Pelita, Bada, Kec. Dompu, Kabupaten Dompu, Nusa Tenggara Bar. 84211","Jl. Raya Pelita, Bada, Kec. Dompu, Kabupaten Dompu",NUSA TENGGARA BARAT,84211.0,Indonesia,85342812318,,,-85.382.666,1.184.694.251,https://maps.google.com/?cid=0x0:0x1ce3ac2837d3ae7,
perumahan,Perhimpunan Pengembang Perumahan,BTN Puri Ginte Indah,"FC9R+X5J, Dekat Simpasai, BTN Puri Ginte Indah Ling, Kandai Dua, Kec. Woja, Kabupaten Dompu, Nusa Tenggara Bar. 84219","Dekat Simpasai, BTN Puri Ginte Indah Ling, Kandai Dua, Kec. Woja, Kabupaten Dompu",NUSA TENGGARA BARAT,84219.0,Indonesia,,,,-85.300.461,118.440.399,https://maps.google.com/?cid=0x0:0xa9714b4771ff760,
perumahan,Pembangunan Perumahan,Manggelewa,"FC3W+R8F, Kandai Dua, Kec. Woja, Kabupaten Dompu, Nusa Tenggara Bar.","Kabupaten Dompu, Nusa Tenggara Bar.",NUSA TENGGARA BARAT,,Indonesia,,,,-8.545.437,118.445.801,https://maps.google.com/?cid=0x0:0xf95f74563e2bc15f,
perumahan,Komplek perumahan,RUMAH Hasbul/Nurul,"FC5X+53F, Simpasai, Kec. Woja, Kabupaten Dompu, Nusa Tenggara Bar. 84216","Simpasai, Kec. Woja, Kabupaten Dompu",NUSA TENGGARA BARAT,84216.0,Indonesia,,,,-85.420.649,118.447.885,https://maps.google.com/?cid=0x0:0xa511472833dc1e0b,
perumahan,perumahan,Mega,"FC3W+R8F, Kandai Dua, Kec. Woja, Kabupaten Dompu, Nusa Tenggara Bar.","Kabupaten Dompu, Nusa Tenggara Bar.",NUSA TENGGARA BARAT,,Indonesia,,,,-8.545.437,118.445.801,https://maps.google.com/?cid=0x0:0xac8a2408e0f787c1,
perumahan,Perhimpunan Pengembang Perumahan,Irwan,"Jl. Lintas Lakey No.117, Potu, Kec. Dompu, Kabupaten Dompu, Nusa Tenggara Bar. 84211","Potu, Kec. Dompu, Kabupaten Dompu",NUSA TENGGARA BARAT,84211.0,Indonesia,85253889741,,,-85.440.521,1.184.654.936,https://maps.google.com/?cid=0x0:0x5452c32b9c5df11c,
perumahan,Toko Organik,Blok fatimah,"FFF9+6R2, Dorotangga, Kec. Dompu, Kabupaten Dompu, Nusa Tenggara Bar. 84214","Dorotangga, Kec. Dompu, Kabupaten Dompu",NUSA TENGGARA BARAT,84214.0,Indonesia,,,,-85.269.949,1.184.695.155,https://maps.google.com/?cid=0x0:0x46a599053371c1f9,
perumahan,Pembangunan Perumahan,UMA AIRA,"FF8H+QG8, Rasanggaro, Mangge Asi, Kec. Dompu, Kabupaten Dompu, Nusa Tenggara Bar.","Kabupaten Dompu, Nusa Tenggara Bar.",NUSA TENGGARA BARAT,,Indonesia,,,,-85.330.773,1.184.788.239,https://maps.google.com/?cid=0x0:0xa995b536b0245e41,
perumahan,Dinas Pekerjaan Umum,Desa Katua,"FFRQ+5JV, Katua, Kec. Dompu, Kabupaten Dompu, Nusa Tenggara Bar.","Kabupaten Dompu, Nusa Tenggara Bar.",NUSA TENGGARA BARAT,,Indonesia,,,,-85.095.216,118.489.032,https://maps.google.com/?cid=0x0:0xcb8b6e257ef6ca5,
perumahan,Komplek perumahan,Perumahan Pesona Dompu,"Jl. Lintas Mbawi No.88, Kandai Satu, Kec. Dompu, Kabupaten Dompu, Nusa Tenggara Bar. 84219","Kandai Satu, Kec. Dompu, Kabupaten Dompu",NUSA TENGGARA BARAT,84219.0,Indonesia,82141365587,,,-8.548.826,1.184.590.869,https://maps.google.com/?cid=0x0:0x8f33c7b836ed2d5e,
perumahan,perumahan,Nusa Tenggara Bar. 84217,"Kandai Satu, Kec. Dompu, Kabupaten Dompu, Nusa Tenggara Bar.","Kabupaten Dompu, Nusa Tenggara Bar.",NUSA TENGGARA BARAT,,Indonesia,,,,-85.495.421,1.184.601.175,https://maps.google.com/?cid=0x0:0x5e816e78d5a91ee2,
perumahan,Perhimpunan Pengembang Perumahan,Irwan,"Jl. Lintas Lakey No.117, Potu, Kec. Dompu, Kabupaten Dompu, Nusa Tenggara Bar. 84211","Potu, Kec. Dompu, Kabupaten Dompu",NUSA TENGGARA BARAT,84211.0,Indonesia,85253889741,,,-85.440.521,1.184.654.936,https://maps.google.com/?cid=0x0:0x5452c32b9c5df11c,
perumahan,Perusahaan investasi properti,Perum. PERMATA HIJAU DOMPU,"Lingkungan Sawete Barat, Kelurahan Bali, Satu, Kecematan, Kec. Dompu, Kabupaten Dompu, Nusa Tenggara Bar. 84213","Kelurahan Bali, Satu, Kecematan, Kec. Dompu, Kabupaten Dompu",NUSA TENGGARA BARAT,84213.0,Indonesia,85333134359,,,-85.298.218,1.184.601.175,https://maps.google.com/?cid=0x0:0xd6be57f075534661,
perumahan,Komplek perumahan,Rumah Singgah Masyarakat Pekat,"Kelurahan kota baru, Kec. Dompu, Kabupaten Dompu, Nusa Tenggara Bar.","Kabupaten Dompu, Nusa Tenggara Bar.",NUSA TENGGARA BARAT,,Indonesia,85239687867,,,-85.340.674,1.184.627.957,https://maps.google.com/?cid=0x0:0x2d2a2e8a2b04a79f,
perumahan,Komplek perumahan,Rumah radi,"Jl. Gajah Mada No.1, Bada, Kec. Dompu, Kabupaten Dompu, Nusa Tenggara Bar. 84211","Bada, Kec. Dompu, Kabupaten Dompu",NUSA TENGGARA BARAT,84211.0,Indonesia,,,,-85.397.556,1.184.643.751,https://maps.google.com/?cid=0x0:0x269c21428256b6a5,
perumahan,Pembangunan Perumahan,Satrya 12,"FF84+232, Jl. Baru Karijawa, Karijawa, Kec. Dompu, Kabupaten Dompu, Nusa Tenggara Bar. 84216","Jl. Baru Karijawa, Karijawa, Kec. Dompu, Kabupaten Dompu",NUSA TENGGARA BARAT,84216.0,Indonesia,,,,-85.349.812,1.184.551.498,https://maps.google.com/?cid=0x0:0x97cea5e78fcc9679,
perumahan,Pembangunan Perumahan,RUMAH MAS BEN,"FF44+MRX, Unnamed Road, Kandai Satu, Kec. Dompu, Kabupaten Dompu, Nusa Tenggara Bar. 84217","Unnamed Road, Kandai Satu, Kec. Dompu, Kabupaten Dompu",NUSA TENGGARA BARAT,84217.0,Indonesia,,,,-85.432.642,1.184.571.206,https://maps.google.com/?cid=0x0:0x36f31da85300618f,
perumahan,perumahan,Dorompana,"FF36+GRX, Kandai Satu, Kec. Dompu, Kabupaten Dompu, Nusa Tenggara Bar. 84217","Kandai Satu, Kec. Dompu, Kabupaten Dompu",NUSA TENGGARA BARAT,84217.0,Indonesia,,,,-85.466.676,1.184.626.382,https://maps.google.com/?cid=0x0:0xab8232332b45ae2a,
perumahan,Pembangunan Perumahan,BONEK DOMPU,"FF78+H2R, Dorotangga, Kec. Dompu, Kabupaten Dompu, Nusa Tenggara Bar. 84213","Dorotangga, Kec. Dompu, Kabupaten Dompu",NUSA TENGGARA BARAT,84213.0,Indonesia,,,,-85.360.165,1.184.650.126,https://maps.google.com/?cid=0x0:0x71759ea8f22dc085,
perumahan,Pembangunan Perumahan,RUMAH TYO,"FF45+52H Bukit Doro Bata, Kandai Satu, Kec. Dompu, Kabupaten Dompu, Nusa Tenggara Bar. 84217","Kandai Satu, Kec. Dompu, Kabupaten Dompu",NUSA TENGGARA BARAT,84217.0,Indonesia,,,,-85.445.529,1.184.576.145,https://maps.google.com/?cid=0x0:0xe86ef1676f66d3f4,
perumahan,Kantor Perusahaan,TAUFIK,"Jl.Udang No.8 Bali 1, Kabupaten Dompu","Kabupaten Dompu, Nusa Tenggara Bar.",NUSA TENGGARA BARAT,,Indonesia,,,,-85.328.163,1.184.612.744,https://maps.google.com/?cid=0x0:0xe2e88fd792a981ad,
perumahan,Komplek perumahan,Dimpu,"FF56+MWV, Magenda, Potu, Kec. Dompu, Kabupaten Dompu, Nusa Tenggara Bar.","Kabupaten Dompu, Nusa Tenggara Bar.",NUSA TENGGARA BARAT,,Indonesia,,,,-85.407.656,1.184.623.021,https://maps.google.com/?cid=0x0:0xe02e6961eb88348d,
perumahan,Komplek perumahan,RUMAH SOFY,"FF45+R5W, Kandai Satu, Kec. Dompu, Kabupaten Dompu, Nusa Tenggara Bar. 84217","Kandai Satu, Kec. Dompu, Kabupaten Dompu",NUSA TENGGARA BARAT,84217.0,Indonesia,,,,-85.424.093,1.184.578.822,https://maps.google.com/?cid=0x0:0x176c7be814baf329,
perumahan,Komplek perumahan,RATO OMPU,"FF2F+25J, Jl. Lintas Lakey, Kareke, Kec. Dompu, Kabupaten Dompu, Nusa Tenggara Bar.","Kabupaten Dompu, Nusa Tenggara Bar.",NUSA TENGGARA BARAT,,Indonesia,,,,-85.499.108,1.184.728.825,https://maps.google.com/?cid=0x0:0xd5388fa1a806df46,
perumahan,Komplek perumahan,RUMAH FUAD,"FF6C+R5F, Bada, Kec. Dompu, Kabupaten Dompu, Nusa Tenggara Bar. 84211","Bada, Kec. Dompu, Kabupaten Dompu",NUSA TENGGARA BARAT,84211.0,Indonesia,,,,-85.373.449,1.184.699.914,https://maps.google.com/?cid=0x0:0xd38634e7ba32abda,
perumahan,Komplek perumahan,kartini sekar,"FF79+GMH, Jl. Baru Pelita Jl. Salama, Bada, Kec. Dompu, Kabupaten Dompu, Nusa Tenggara Bar. 84211","Jl. Baru Pelita Jl. Salama, Bada, Kec. Dompu, Kabupaten Dompu",NUSA TENGGARA BARAT,84211.0,Indonesia,,,,-85.334.944,1.184.719.132,https://maps.google.com/?cid=0x0:0x289fb737a28054af,
perumahan,Komplek perumahan,Rumah Enjel,"Jl. Udang No.3, Bali, Kec. Dompu, Kabupaten Dompu, Nusa Tenggara Bar. 84213","Bali, Kec. Dompu, Kabupaten Dompu",NUSA TENGGARA BARAT,84213.0,Indonesia,,,,-85.361.142,1.184.588.017,https://maps.google.com/?cid=0x0:0x26db818ffd75e0e2,
perumahan,Komplek perumahan,Rumah nurwaffiyah ayu,"CFV5+CG7, RT.Rat 13/RW.05, Lingkungan madakimbi, Kandai Satu, Kec. Dompu, Kabupaten Dompu, Nusa Tenggara Bar.","Kabupaten Dompu, Nusa Tenggara Bar.",NUSA TENGGARA BARAT,,Indonesia,,,,-8.556.461,1.184.588.011,https://maps.google.com/?cid=0x0:0xd76460127ee47482,
perumahan,Pembangunan Perumahan,King balukea007,"FF78+CM9, Dorotangga, Kec. Dompu, Kabupaten Dompu, Nusa Tenggara Bar. 84213","Dorotangga, Kec. Dompu, Kabupaten Dompu",NUSA TENGGARA BARAT,84213.0,Indonesia,,,,-85.366.423,1.184.668.392,https://maps.google.com/?cid=0x0:0x5870c1b16cb24bee,
perumahan,Komplek perumahan,graha sumiyati,"FFC6+5H3, Bali, Kec. Dompu, Kabupaten Dompu, Nusa Tenggara Bar. 84213","Bali, Kec. Dompu, Kabupaten Dompu",NUSA TENGGARA BARAT,84213.0,Indonesia,,,,-85.295.924,1.184.614.059,https://maps.google.com/?cid=0x0:0x82b89bfdc34973ad,
perumahan,Pembangunan Perumahan,Lingkungan Rato,"FF64+369, Jl. KH. Ahmad Dahlan, Karijawa, Kec. Dompu, Kabupaten Dompu, Nusa Tenggara Bar. 84217","Jl. KH. Ahmad Dahlan, Karijawa, Kec. Dompu, Kabupaten Dompu",NUSA TENGGARA BARAT,84217.0,Indonesia,,,,-85.398.384,1.184.556.144,https://maps.google.com/?cid=0x0:0x1cd4d16574e8233d,
perumahan,Komplek perumahan,Syahlast family,"FF35+WGF, Kandai Satu, Kec. Dompu, Kabupaten Dompu, Nusa Tenggara Bar. 84217","Kandai Satu, Kec. Dompu, Kabupaten Dompu",NUSA TENGGARA BARAT,84217.0,Indonesia,,,,-85.451.807,1.184.587.815,https://maps.google.com/?cid=0x0:0xab64733874f52c23,
perumahan,Pembangunan Perumahan,Rumah Lyla,"FF6C+R5F, Bada, Kec. Dompu, Kabupaten Dompu, Nusa Tenggara Bar. 84211","Bada, Kec. Dompu, Kabupaten Dompu",NUSA TENGGARA BARAT,84211.0,Indonesia,,,,-85.375.899,1.184.708.172,https://maps.google.com/?cid=0x0:0xc59c5fec48b9f5b0,
perumahan,perumahan,Nusa Tenggara Bar. 84219,"Kabupaten Dompu, Nusa Tenggara Bar.","Kabupaten Dompu, Nusa Tenggara Bar.",NUSA TENGGARA BARAT,,Indonesia,,,,-8.455.389,1.184.980.744,https://maps.google.com/?cid=0x0:0xd1ca28c719867916,
perumahan,Komplek perumahan,Perumahan Pesona Dompu,"Jl. Lintas Mbawi No.88, Kandai Satu, Kec. Dompu, Kabupaten Dompu, Nusa Tenggara Bar. 84219","Kandai Satu, Kec. Dompu, Kabupaten Dompu",NUSA TENGGARA BARAT,84219.0,Indonesia,82141365587,,,-8.548.826,1.184.590.869,https://maps.google.com/?cid=0x0:0x8f33c7b836ed2d5e,
perumahan,Perhimpunan Pengembang Perumahan,BTN Puri Ginte Indah,"FC9R+X5J, Dekat Simpasai, BTN Puri Ginte Indah Ling, Kandai Dua, Kec. Woja, Kabupaten Dompu, Nusa Tenggara Bar. 84219","Dekat Simpasai, BTN Puri Ginte Indah Ling, Kandai Dua, Kec. Woja, Kabupaten Dompu",NUSA TENGGARA BARAT,84219.0,Indonesia,,,,-85.300.461,118.440.399,https://maps.google.com/?cid=0x0:0xa9714b4771ff760,
perumahan,Pembangunan Perumahan,BONEK DOMPU,"FF78+H2R, Dorotangga, Kec. Dompu, Kabupaten Dompu, Nusa Tenggara Bar. 84213","Dorotangga, Kec. Dompu, Kabupaten Dompu",NUSA TENGGARA BARAT,84213.0,Indonesia,,,,-85.360.165,1.184.650.126,https://maps.google.com/?cid=0x0:0x71759ea8f22dc085,
perumahan,Komplek perumahan,Ustad Enggo Dompu,"FC5J+QHG, Jl. Buntu Simpasai Woja, Kandai Dua, Kec. Woja, Kabupaten Dompu, Nusa Tenggara Bar. 84219","Jl. Buntu Simpasai Woja, Kandai Dua, Kec. Woja, Kabupaten Dompu",NUSA TENGGARA BARAT,84219.0,Indonesia,,,,-8.540.574,118.431.461,https://maps.google.com/?cid=0x0:0x8c4fbd2d709d41c8,
perumahan,Komplek perumahan,Rumah mawan,"FF9H+348, Unnamed Road, Mangge Asi, Kec. Dompu, Kabupaten Dompu, Nusa Tenggara Bar. 84219","Unnamed Road, Mangge Asi, Kec. Dompu, Kabupaten Dompu",NUSA TENGGARA BARAT,84219.0,Indonesia,,,,-85.323.402,118.477.829,https://maps.google.com/?cid=0x0:0x52180c73cb842ba8,
perumahan,Komplek perumahan,RUMAH FUAD,"FF6C+R5F, Bada, Kec. Dompu, Kabupaten Dompu, Nusa Tenggara Bar. 84211","Bada, Kec. Dompu, Kabupaten Dompu",NUSA TENGGARA BARAT,84211.0,Indonesia,,,,-85.373.449,1.184.699.914,https://maps.google.com/?cid=0x0:0xd38634e7ba32abda,
perumahan,Pembangunan Perumahan,Manggelewa,"FC3W+R8F, Kandai Dua, Kec. Woja, Kabupaten Dompu, Nusa Tenggara Bar.","Kabupaten Dompu, Nusa Tenggara Bar.",NUSA TENGGARA BARAT,,Indonesia,,,,-8.545.437,118.445.801,https://maps.google.com/?cid=0x0:0xf95f74563e2bc15f,
perumahan,Pusat Pendidikan,Muezza Artaya Residance,"FF9C+3M2, Dorotangga, Kec. Dompu, Kabupaten Dompu, Nusa Tenggara Bar.","Kabupaten Dompu, Nusa Tenggara Bar.",NUSA TENGGARA BARAT,,Indonesia,,,,-85.334.427,1.184.712.496,https://maps.google.com/?cid=0x0:0x99bdb0b6756c97d0,
perumahan,Komplek perumahan,Hendratno,"CFFP+VMJ, Lepadi, Kec. Pajo, Kabupaten Dompu, Nusa Tenggara Bar. 84219","Lepadi, Kec. Pajo, Kabupaten Dompu",NUSA TENGGARA BARAT,84219.0,Indonesia,,,,-85.752.789,1.184.866.426,https://maps.google.com/?cid=0x0:0x11dfce6e4e99d841,
perumahan,perumahan,rumah,"FC4J+JQG, Kandai Dua, Kec. Woja, Kabupaten Dompu, Nusa Tenggara Bar. 84219","Kandai Dua, Kec. Woja, Kabupaten Dompu",NUSA TENGGARA BARAT,84219.0,Indonesia,,,,-85.433.691,1.184.319.745,https://maps.google.com/?cid=0x0:0xcd769834ad66caf7,
perumahan,Komplek perumahan,RUMAH Hasbul/Nurul,"FC5X+53F, Simpasai, Kec. Woja, Kabupaten Dompu, Nusa Tenggara Bar. 84216","Simpasai, Kec. Woja, Kabupaten Dompu",NUSA TENGGARA BARAT,84216.0,Indonesia,,,,-85.420.649,118.447.885,https://maps.google.com/?cid=0x0:0xa511472833dc1e0b,
perumahan,Perhimpunan Pengembang Perumahan,Wawan Anggarana,"Jl. Jend. Ahmad Yani No.23, Dorotangga, Kec. Dompu, Kabupaten Dompu, Nusa Tenggara Bar. 84212","Dorotangga, Kec. Dompu, Kabupaten Dompu",NUSA TENGGARA BARAT,84212.0,Indonesia,,,,-85.358.421,1.184.666.499,https://maps.google.com/?cid=0x0:0x914bea97a605fb23,
perumahan,Komplek perumahan,Doro toi,"FF89+R4X, Jl. Soekarno-Hatta, Dorotangga, Kec. Dompu, Kabupaten Dompu, Nusa Tenggara Bar. 84212","Jl. Soekarno-Hatta, Dorotangga, Kec. Dompu, Kabupaten Dompu",NUSA TENGGARA BARAT,84212.0,Indonesia,,,,-85.302.013,1.184.673.759,https://maps.google.com/?cid=0x0:0xd1bd1a9be8778e6c,
perumahan,Kantor Pemerintah,Dompu,"FFPM+JHX, Jl. Lintas Sumbawa - Bima No.81, OO, Kec. Dompu, Kabupaten Dompu, Nusa Tenggara Bar. 84214","Jl. Lintas Sumbawa - Bima No.81, OO, Kec. Dompu, Kabupaten Dompu",NUSA TENGGARA BARAT,84214.0,Indonesia,,,,-85.145.299,1.184.826.556,https://maps.google.com/?cid=0x0:0x8404f02e6491a161,
perumahan,Pembangunan Perumahan,Andra's House,"FF79+C76, Kampo Tolo, Dorotangga, Kec. Dompu, Kabupaten Dompu, Nusa Tenggara Bar. 84213","Kampo Tolo, Dorotangga, Kec. Dompu, Kabupaten Dompu",NUSA TENGGARA BARAT,84213.0,Indonesia,,,,-85.364.729,1.184.681.541,https://maps.google.com/?cid=0x0:0x41152652ec049592,
perumahan,Komplek perumahan,Rumah sanusi,"GFHH+5C, Karamabura, Kec. Dompu, Kabupaten Dompu, Nusa Tenggara Bar. 84219","Karamabura, Kec. Dompu, Kabupaten Dompu",NUSA TENGGARA BARAT,84219.0,Indonesia,,,,-84.720.944,1.184.784.621,https://maps.google.com/?cid=0x0:0x8e484ee44a6de48,
perumahan,Komplek perumahan,Rumah Betty,"FFC9+V9X, Jl. Syech Moh., Dorotangga, Kec. Dompu, Kabupaten Dompu, Nusa Tenggara Bar. 84212","Jl. Syech Moh., Dorotangga, Kec. Dompu, Kabupaten Dompu",NUSA TENGGARA BARAT,84212.0,Indonesia,,,,-85.278.301,1.184.684.581,https://maps.google.com/?cid=0x0:0x1b5cae8dd953cc46,
perumahan,Komplek perumahan,Rumah nana,"FC9H+89C, Matua, Kec. Woja, Kabupaten Dompu, Nusa Tenggara Bar. 84219","Matua, Kec. Woja, Kabupaten Dompu",NUSA TENGGARA BARAT,84219.0,Indonesia,,,,-85.314.381,1.184.284.252,https://maps.google.com/?cid=0x0:0x193a8a4d76b1148,
perumahan,Komplek perumahan,RATO OMPU,"FF2F+25J, Jl. Lintas Lakey, Kareke, Kec. Dompu, Kabupaten Dompu, Nusa Tenggara Bar.","Kabupaten Dompu, Nusa Tenggara Bar.",NUSA TENGGARA BARAT,,Indonesia,,,,-85.499.108,1.184.728.825,https://maps.google.com/?cid=0x0:0xd5388fa1a806df46,
perumahan,Kantor Pemerintah,Kelurahan Montabaru,"Jl. Lingkungan III, Montabaru, Kec. Woja, Kabupaten Dompu, Nusa Tenggara Bar. 84219","Montabaru, Kec. Woja, Kabupaten Dompu",NUSA TENGGARA BARAT,84219.0,Indonesia,82341727504,,,-85.478.859,1.184.261.443,https://maps.google.com/?cid=0x0:0x234757add8657a63,
perumahan,Pembangunan Perumahan,KARAMABURA,"GF7J+3P6, Karamabura, Kec. Dompu, Kabupaten Dompu, Nusa Tenggara Bar. 84219","Karamabura, Kec. Dompu, Kabupaten Dompu",NUSA TENGGARA BARAT,84219.0,Indonesia,,,,-84.873.366,1.184.817.642,https://maps.google.com/?cid=0x0:0x84a970c7993e1a12,
perumahan,Pembangunan Perumahan,Rumah Lyla,"FF6C+R5F, Bada, Kec. Dompu, Kabupaten Dompu, Nusa Tenggara Bar. 84211","Bada, Kec. Dompu, Kabupaten Dompu",NUSA TENGGARA BARAT,84211.0,Indonesia,,,,-85.375.899,1.184.708.172,https://maps.google.com/?cid=0x0:0xc59c5fec48b9f5b0,
perumahan,Pembangunan Perumahan,UMA AIRA,"FF8H+QG8, Rasanggaro, Mangge Asi, Kec. Dompu, Kabupaten Dompu, Nusa Tenggara Bar.","Kabupaten Dompu, Nusa Tenggara Bar.",NUSA TENGGARA BARAT,,Indonesia,,,,-85.330.773,1.184.788.239,https://maps.google.com/?cid=0x0:0xa995b536b0245e41,
perumahan,Dinas Pekerjaan Umum,Desa Katua,"FFRQ+5JV, Katua, Kec. Dompu, Kabupaten Dompu, Nusa Tenggara Bar.","Kabupaten Dompu, Nusa Tenggara Bar.",NUSA TENGGARA BARAT,,Indonesia,,,,-85.095.216,118.489.032,https://maps.google.com/?cid=0x0:0xcb8b6e257ef6ca5,
perumahan,Perhimpunan Pengembang Perumahan,Irwan,"Jl. Lintas Lakey No.117, Potu, Kec. Dompu, Kabupaten Dompu, Nusa Tenggara Bar. 84211","Potu, Kec. Dompu, Kabupaten Dompu",NUSA TENGGARA BARAT,84211.0,Indonesia,85253889741,,,-85.440.521,1.184.654.936,https://maps.google.com/?cid=0x0:0x5452c32b9c5df11c,
perumahan,Komplek perumahan,Kampung nasaira Desa sorisakolo,"FFX3+PP6, Persiapan Sorisakolo, Kec. Dompu, Kabupaten Dompu, Nusa Tenggara Bar. 84213","Persiapan Sorisakolo, Kec. Dompu, Kabupaten Dompu",NUSA TENGGARA BARAT,84213.0,Indonesia,,,,-85.007.149,1.184.542.772,https://maps.google.com/?cid=0x0:0x8c5fe976dd81c747,
perumahan,Pondok,KOS IBU SALMA DOMPU PELITA,"FF69+MQV, Jl. Raya Pelita, Bada, Kec. Dompu, Kabupaten Dompu, Nusa Tenggara Bar. 84211","Jl. Raya Pelita, Bada, Kec. Dompu, Kabupaten Dompu",NUSA TENGGARA BARAT,84211.0,Indonesia,85342812318,,,-85.382.666,1.184.694.251,https://maps.google.com/?cid=0x0:0x1ce3ac2837d3ae7,
perumahan,Pembangunan Perumahan,UMA MBE'E RIKIN,"GF7J+3P6, Karamabura, Kec. Dompu, Kabupaten Dompu, Nusa Tenggara Bar. 84219","Karamabura, Kec. Dompu, Kabupaten Dompu",NUSA TENGGARA BARAT,84219.0,Indonesia,,,,-84.873.566,1.184.812.606,https://maps.google.com/?cid=0x0:0x87c507ad4314ab6c,
perumahan,perumahan,Nusa Tenggara Bar. 84261,"Kabupaten Dompu, Nusa Tenggara Bar.","Kabupaten Dompu, Nusa Tenggara Bar.",NUSA TENGGARA BARAT,,Indonesia,,,,-83.860.783,1.179.951.862,https://maps.google.com/?cid=0x0:0x9ecbf848dd39c412,
perumahan,Komplek perumahan,Kempo,"F66X+4VJ, Kempo, Kec. Kempo, Kabupaten Dompu, Nusa Tenggara Bar.","Kabupaten Dompu, Nusa Tenggara Bar.",NUSA TENGGARA BARAT,,Indonesia,,,,-85.396.584,1.182.496.493,https://maps.google.com/?cid=0x0:0x25e231fbf33a941b,
perumahan,Sekolah Menengah Umum,SMA N 1 kempo,"FF57+WVX, Bada, Kec. Dompu, Kabupaten Dompu, Nusa Tenggara Bar.","Kabupaten Dompu, Nusa Tenggara Bar.",NUSA TENGGARA BARAT,,Indonesia,,,,-8.540.125,1.184.647.211,https://maps.google.com/?cid=0x0:0x665ff3f758d51504,
perumahan,Komplek perumahan,Karama.. Kempo,"C6VP+J5, Soro, Kec. Kempo, Kabupaten Dompu, Nusa Tenggara Bar. 84261","Soro, Kec. Kempo, Kabupaten Dompu",NUSA TENGGARA BARAT,84261.0,Indonesia,,,,-85.560.082,1.182.354.882,https://maps.google.com/?cid=0x0:0x9c64fc0e00164e51,
perumahan,Komplek perumahan,Dusun nciu,"C6QV+R47, Soro, Kec. Kempo, Kabupaten Dompu, Nusa Tenggara Bar. 84261","Soro, Kec. Kempo, Kabupaten Dompu",NUSA TENGGARA BARAT,84261.0,Indonesia,85338892834,,,-85.603.783,1.182.428.786,https://maps.google.com/?cid=0x0:0x646f6bf6b71987ad,
perumahan,Pura,Kresna Sari,"F58Q+WJ9, Jl. Lintas Calabai, So Nggajah, Kec. Kempo, Kabupaten Dompu, Nusa Tenggara Bar. 84261","Jl. Lintas Calabai, So Nggajah, Kec. Kempo, Kabupaten Dompu",NUSA TENGGARA BARAT,84261.0,Indonesia,,,,-85.327.132,1.181.891.108,https://maps.google.com/?cid=0x0:0x3e6e4484281e179c,
perumahan,Pembangunan Perumahan,Doro Hala,"F7H8+G23, Ta'a, Kec. Kempo, Kabupaten Dompu, Nusa Tenggara Bar. 84261","Ta'a, Kec. Kempo, Kabupaten Dompu",NUSA TENGGARA BARAT,84261.0,Indonesia,,,,-8.521.242,1.182.650.407,https://maps.google.com/?cid=0x0:0x9746f811f1354003,
perumahan,Komplek perumahan,soro ele,"C6QR+RRW, Unnamed Road, Soro, Kec. Kempo, Kabupaten Dompu, Nusa Tenggara Bar. 84261","Unnamed Road, Soro, Kec. Kempo, Kabupaten Dompu",NUSA TENGGARA BARAT,84261.0,Indonesia,,,,-8.559.761,1.182.423.249,https://maps.google.com/?cid=0x0:0x7f3c4fe70cc23b89,
perumahan,Kantor Pemerintah,Desa Dorokobo,"F7HG+7WF, Doro Kobo, Kec. Kempo, Kabupaten Dompu, Nusa Tenggara Bar. 84261","Doro Kobo, Kec. Kempo, Kabupaten Dompu",NUSA TENGGARA BARAT,84261.0,Indonesia,,,,-85.218.129,1.182.773.109,https://maps.google.com/?cid=0x0:0x1ac82107a7c85a7f,
perumahan,Komplek perumahan,Rumah Faris,"F63M+GH7, Jl. Lintas Calabai, Konte, Kec. Kempo, Kabupaten Dompu, Nusa Tenggara Bar. 84261","Jl. Lintas Calabai, Konte, Kec. Kempo, Kabupaten Dompu",NUSA TENGGARA BARAT,84261.0,Indonesia,,,,-85.462.243,118.233.929,https://maps.google.com/?cid=0x0:0x86fe3e2bc488421,
perumahan,Komplek perumahan,Rumah Om Rizal,"F752+X43, Jl. Lintas Calabai, Kempo, Kec. Kempo, Kabupaten Dompu, Nusa Tenggara Bar. 84261","Jl. Lintas Calabai, Kempo, Kec. Kempo, Kabupaten Dompu",NUSA TENGGARA BARAT,84261.0,Indonesia,,,,-85.401.044,1.182.502.887,https://maps.google.com/?cid=0x0:0x19e5f0fb3e08afbd,
perumahan,Pembangunan Perumahan,FADLI,"F752+W8M, Jl. Lintas Calabai, Kempo, Kec. Kempo, Kabupaten Dompu, Nusa Tenggara Bar. 84261","Jl. Lintas Calabai, Kempo, Kec. Kempo, Kabupaten Dompu",NUSA TENGGARA BARAT,84261.0,Indonesia,,,,-85.402.444,1.182.511.329,https://maps.google.com/?cid=0x0:0xe57c7b65e6272cea,
perumahan,Komplek perumahan,Jj House,"F7H8+G23, Ta'a, Kec. Kempo, Kabupaten Dompu, Nusa Tenggara Bar. 84261","Ta'a, Kec. Kempo, Kabupaten Dompu",NUSA TENGGARA BARAT,84261.0,Indonesia,,,,-8.521.243,1.182.646,https://maps.google.com/?cid=0x0:0xc7fb09ed18b737cc,
perumahan,Rumah Sakit,PKM Kempo,"F763+2H2, Ta'a, Kec. Kempo, Kabupaten Dompu, Nusa Tenggara Bar. 84261","Ta'a, Kec. Kempo, Kabupaten Dompu",NUSA TENGGARA BARAT,84261.0,Indonesia,,,,-85.399.915,1.182.538.821,https://maps.google.com/?cid=0x0:0xbab8bb130ee5acf1,
perumahan,Komplek perumahan,Rumah Panji,"F672+9M, So Nggajah, Kec. Kempo, Kabupaten Dompu, Nusa Tenggara Bar.","Kabupaten Dompu, Nusa Tenggara Bar.",NUSA TENGGARA BARAT,,Indonesia,,,,-85.366.691,1.182.008.894,https://maps.google.com/?cid=0x0:0x97765265fe6eb2b4,
perumahan,Komplek perumahan,Uma la dedi,"C6VP+9GR, Kempo, Kec. Kempo, Kabupaten Dompu, Nusa Tenggara Bar.","Kabupaten Dompu, Nusa Tenggara Bar.",NUSA TENGGARA BARAT,,Indonesia,,,,-85.565.206,118.236.256,https://maps.google.com/?cid=0x0:0xc9a372dbe6111bca,
perumahan,Komplek perumahan,Abdul Sahid,"Dusun padamara, RT.06/RW.02, Kempo, Kec. Kempo, Kabupaten Dompu, Nusa Tenggara Bar. 84261","RT.06/RW.02, Kempo, Kec. Kempo, Kabupaten Dompu",NUSA TENGGARA BARAT,84261.0,Indonesia,85338939606,,,-85.398.176,1.182.470.172,https://maps.google.com/?cid=0x0:0x2aca10fd1ba68e99,
perumahan,Perhimpunan Pengembang Perumahan,RUMAH KELUARGA CEMARA,"F7J8+986, Ta'a, Kec. Kempo, Kabupaten Dompu, Nusa Tenggara Bar.","Kabupaten Dompu, Nusa Tenggara Bar.",NUSA TENGGARA BARAT,,Indonesia,,,,-8.519.089,1.182.657.593,https://maps.google.com/?cid=0x0:0xf98706ef540c7b18,
perumahan,Pembangunan Perumahan,DENI SAPUTRA,"C6WM+RFV, Jl. Lintas Calabai, Soro, Kec. Kempo, Kabupaten Dompu, Nusa Tenggara Bar. 84261","Jl. Lintas Calabai, Soro, Kec. Kempo, Kabupaten Dompu",NUSA TENGGARA BARAT,84261.0,Indonesia,,,,-85.528.991,1.182.336.831,https://maps.google.com/?cid=0x0:0xb57d81f2bff96c77,
perumahan,Komplek perumahan,Ila Mantika,"F66X+3P, Kempo, Kec. Kempo, Kabupaten Dompu, Nusa Tenggara Bar. 84261","Kempo, Kec. Kempo, Kabupaten Dompu",NUSA TENGGARA BARAT,84261.0,Indonesia,,,,-85.397.833,1.182.492.674,https://maps.google.com/?cid=0x0:0x376f46602931567,
perumahan,perumahan,Rumah Febi,"C6WV+946, Soro, Kec. Kempo, Kabupaten Dompu, Nusa Tenggara Bar. 84261","Soro, Kec. Kempo, Kabupaten Dompu",NUSA TENGGARA BARAT,84261.0,Indonesia,,,,-85.538.403,1.182.428.968,https://maps.google.com/?cid=0x0:0x1dd151b1fa84ba9d,
perumahan,Pembangunan Perumahan,kempo,"8M6C+XG, Benteng Raja, Kec. Borong, Kabupaten Manggarai Timur, Nusa Tenggara Tim.","Kabupaten Manggarai Timur, Nusa Tenggara Tim.",NUSA TENGGARA BARAT,,Indonesia,,,,-86.875.769,1.206.712.784,https://maps.google.com/?cid=0x0:0x80673d29fe53d9c7,
perumahan,Komplek perumahan,Dodi,"F66X+34Q, Kempo, Kec. Kempo, Kabupaten Dompu, Nusa Tenggara Bar. 84261","Kempo, Kec. Kempo, Kabupaten Dompu",NUSA TENGGARA BARAT,84261.0,Indonesia,,,,-85.397.916,1.182.478.683,https://maps.google.com/?cid=0x0:0x96cd9e5fecfbb062,
perumahan,Komplek perumahan,Teguh,"F742+X4R, Ta'a, Kec. Kempo, Kabupaten Dompu, Nusa Tenggara Bar. 84261","Ta'a, Kec. Kempo, Kabupaten Dompu",NUSA TENGGARA BARAT,84261.0,Indonesia,,,,-85.425.119,1.182.502.619,https://maps.google.com/?cid=0x0:0x699104c75f570bb9,
perumahan,perumahan,Nusa Tenggara Bar. 84271,"Kec. Hu'u, Kabupaten Dompu, Nusa Tenggara Bar.","Kabupaten Dompu, Nusa Tenggara Bar.",NUSA TENGGARA BARAT,,Indonesia,,,,-87.839.226,1.184.630.376,https://maps.google.com/?cid=0x0:0x4669cd9d22c1e9e6,
perumahan,Komplek perumahan,Rumah aney,"7CFG+VPV, Persiapan Jala, Kec. Hu'u, Kabupaten Dompu, Nusa Tenggara Bar. 84271","Persiapan Jala, Kec. Hu'u, Kabupaten Dompu",NUSA TENGGARA BARAT,84271.0,Indonesia,,,,-87.252.549,1.184.268.112,https://maps.google.com/?cid=0x0:0x4b3fb2c2720cf4de,
perumahan,Komplek perumahan,Rumah ferdi,"7FJ4+7JG, Sawe, Kec. Hu'u, Kabupaten Dompu, Nusa Tenggara Bar. 84271","Sawe, Kec. Hu'u, Kabupaten Dompu",NUSA TENGGARA BARAT,84271.0,Indonesia,,,,-8.720.349,118.455.769,https://maps.google.com/?cid=0x0:0x7511e44c5b3f0e0c,
perumahan,Perhimpunan Pengembang Perumahan,Relokasi Huntap Desa Daha Kecamatan Hu'u Kabupaten Dompu,"7C2M+JCH, Daha, Kec. Hu'u, Kabupaten Dompu, Nusa Tenggara Bar. 84271","Daha, Kec. Hu'u, Kabupaten Dompu",NUSA TENGGARA BARAT,84271.0,Indonesia,,,,-87.484.255,1.184.336.218,https://maps.google.com/?cid=0x0:0xf5d54386b0a273d7,
perumahan,Toko Elektronik,Mencari hp itel,"69JW+G95, Jl. Lintas Lakey, Huu, Kec. Hu'u, Kabupaten Dompu, Nusa Tenggara Bar. 84271","Jl. Lintas Lakey, Huu, Kec. Hu'u, Kabupaten Dompu",NUSA TENGGARA BARAT,84271.0,Indonesia,,,,-87.687.575,1.183.960.349,https://maps.google.com/?cid=0x0:0x1991ba9645d79a34,
perumahan,Komplek perumahan,Rumah Rafli,"7FJ4+7JG, Sawe, Kec. Hu'u, Kabupaten Dompu, Nusa Tenggara Bar. 84271","Sawe, Kec. Hu'u, Kabupaten Dompu",NUSA TENGGARA BARAT,84271.0,Indonesia,,,,-87.201.318,1.184.559.494,https://maps.google.com/?cid=0x0:0x57c7bd3dd42632d3,
perumahan,Komplek perumahan,Uma nahu,"7CRV+94, Cempi Jaya, Kec. Hu'u, Kabupaten Dompu, Nusa Tenggara Bar.","Kabupaten Dompu, Nusa Tenggara Bar.",NUSA TENGGARA BARAT,,Indonesia,,,,-87.090.844,1.184.428.465,https://maps.google.com/?cid=0x0:0x787516f184614ee0,
perumahan,Komplek perumahan,Teguh,"7C9W+FWP, Jalan ekonomi tani, Rasabou, Kec. Hu'u, Kabupaten Dompu, Nusa Tenggara Bar. 84271","Jalan ekonomi tani, Rasabou, Kec. Hu'u, Kabupaten Dompu",NUSA TENGGARA BARAT,84271.0,Indonesia,,,,-87.312.959,1.184.473.251,https://maps.google.com/?cid=0x0:0x6fe138f6285480b6,
perumahan,Komplek perumahan,Danakakila camp,"5C9P+3X, Huu, Kec. Hu'u, Kabupaten Dompu, Nusa Tenggara Bar.","Kabupaten Dompu, Nusa Tenggara Bar.",NUSA TENGGARA BARAT,,Indonesia,,,,-88.323.659,1.184.374.535,https://maps.google.com/?cid=0x0:0xe17883d9728c4e5d,
perumahan,Perumahan,Agisyanti,"6CVH+5QC, Daha, Kec. Hu'u, Kabupaten Dompu, Nusa Tenggara Bar. 84271","Daha, Kec. Hu'u, Kabupaten Dompu",NUSA TENGGARA BARAT,84271.0,Indonesia,,,,-87.570.649,1.184.294.026,https://maps.google.com/?cid=0x0:0x590b46f265be1945,
perumahan,Komplek perumahan,Rumah saya Arifin,"69JW+XXV, Jl. Lintas Lakey, Huu, Kec. Hu'u, Kabupaten Dompu, Nusa Tenggara Bar. 84271","Jl. Lintas Lakey, Huu, Kec. Hu'u, Kabupaten Dompu",NUSA TENGGARA BARAT,84271.0,Indonesia,,,,-87.675.271,1.183.974.511,https://maps.google.com/?cid=0x0:0x8517783b04c3234f,
perumahan,Perhimpunan Pengembang Perumahan,Imran,"6CVG+98J, Jl. Lintas Lakey, Daha, Kec. Hu'u, Kabupaten Dompu, Nusa Tenggara Bar. 84271","Jl. Lintas Lakey, Daha, Kec. Hu'u, Kabupaten Dompu",NUSA TENGGARA BARAT,84271.0,Indonesia,,,,-87.565.339,1.184.257.626,https://maps.google.com/?cid=0x0:0x906d46cc35806f35,
perumahan,Layanan Perujuk Teman Kos,Ince Bluzz Desa Marada Kec.Hu'u Dompu,"6CVH+JVP, Jl. Lintas Lakey, Daha, Kec. Hu'u, Kabupaten Dompu, Nusa Tenggara Bar. 84271","Jl. Lintas Lakey, Daha, Kec. Hu'u, Kabupaten Dompu",NUSA TENGGARA BARAT,84271.0,Indonesia,85253886491,,,-87.559.222,1.184.296.903,https://maps.google.com/?cid=0x0:0x41d7705ee199a07f,
perumahan,Komplek perumahan,Rumah Mama Thara,"7FX4+VV8, Cempi Jaya, Kec. Hu'u, Kabupaten Dompu, Nusa Tenggara Bar.","Kabupaten Dompu, Nusa Tenggara Bar.",NUSA TENGGARA BARAT,,Indonesia,,,,-8.700.336,1.184.571.974,https://maps.google.com/?cid=0x0:0x4afc9b0908296a7a,
perumahan,Komplek perumahan,Rumah Sahrul,"69MW+CFC, Jl. Lintas Lakey, Huu, Kec. Hu'u, Kabupaten Dompu, Nusa Tenggara Bar. 84271","Jl. Lintas Lakey, Huu, Kec. Hu'u, Kabupaten Dompu",NUSA TENGGARA BARAT,84271.0,Indonesia,,,,-87.664.331,1.183.961.283,https://maps.google.com/?cid=0x0:0xd6e69b2cb7068fd7,
perumahan,Komplek perumahan,Huu lama,"69MW+CFC, Jl. Lintas Lakey, Huu, Kec. Hu'u, Kabupaten Dompu, Nusa Tenggara Bar. 84271","Jl. Lintas Lakey, Huu, Kec. Hu'u, Kabupaten Dompu",NUSA TENGGARA BARAT,84271.0,Indonesia,,,,-87.793.782,1.183.914.114,https://maps.google.com/?cid=0x0:0x5c6251f34665b435,
perumahan,Komplek perumahan,Rumah febry  izi,"7C7P+2MH, Persiapan Jala, Kec. Hu'u, Kabupaten Dompu, Nusa Tenggara Bar. 84271","Persiapan Jala, Kec. Hu'u, Kabupaten Dompu",NUSA TENGGARA BARAT,84271.0,Indonesia,,,,-87.374.496,1.184.367.291,https://maps.google.com/?cid=0x0:0x4df95761e19c0604,
perumahan,Perhimpunan Pengembang Perumahan,MONE KAMPO GILI,"69JX+P5F, Huu, Kec. Hu'u, Kabupaten Dompu, Nusa Tenggara Bar.","Kabupaten Dompu, Nusa Tenggara Bar.",NUSA TENGGARA BARAT,,Indonesia,,,,-87.681.839,1.183.979.122,https://maps.google.com/?cid=0x0:0x1c719ea318e019bb,
perumahan,Perhimpunan Pengembang Perumahan,Rumah batu,"7F36+52H, Rasabou, Kec. Hu'u, Kabupaten Dompu, Nusa Tenggara Bar. 84271","Rasabou, Kec. Hu'u, Kabupaten Dompu",NUSA TENGGARA BARAT,84271.0,Indonesia,,,,-87.470.625,1.184.601.175,https://maps.google.com/?cid=0x0:0x974e7b17befe4d5b,
perumahan,Pembangunan Perumahan,Afgan Family,"69MW+HVV, Huu, Kec. Hu'u, Kabupaten Dompu, Nusa Tenggara Bar. 84271","Huu, Kec. Hu'u, Kabupaten Dompu",NUSA TENGGARA BARAT,84271.0,Indonesia,,,,-87.660.239,1.183.971.823,https://maps.google.com/?cid=0x0:0xdb2448db6b1ecb0a,
perumahan,Komplek perumahan,Dusun Mamboa,"69JW+JHC, Huu, Kec. Hu'u, Kabupaten Dompu, Nusa Tenggara Bar.","Kabupaten Dompu, Nusa Tenggara Bar.",NUSA TENGGARA BARAT,,Indonesia,,,,-87.686.283,11.839.683,https://maps.google.com/?cid=0x0:0x8b75df5361820d95,
perumahan,Komplek perumahan,Rumah Azham,"7C6Q+GP5 dusun feli gale, Jl lintas lakey, depan terminal, Rasabou, Kec. Hu'u","Kabupaten Dompu, Nusa Tenggara Bar.",NUSA TENGGARA BARAT,,Indonesia,85338708028,,,-87.387.402,1.184.393.549,https://maps.google.com/?cid=0x0:0xa6bc25d74b212bd3,
perumahan,Perhimpunan Pengembang Perumahan,Gili Abu Tua,"698J+JWM, Huu, Kec. Hu'u, Kabupaten Dompu, Nusa Tenggara Bar.","Kabupaten Dompu, Nusa Tenggara Bar.",NUSA TENGGARA BARAT,,Indonesia,,,,-8.783.401,118.382.301,https://maps.google.com/?cid=0x0:0xe64a4cf230e25fc0,
perumahan,perumahan,Kades Hu'u,"69JW+JFV, Huu, Kec. Hu'u, Kabupaten Dompu, Nusa Tenggara Bar. 84271","Huu, Kec. Hu'u, Kabupaten Dompu",NUSA TENGGARA BARAT,84271.0,Indonesia,,,,-87.683.968,1.183.961.674,https://maps.google.com/?cid=0x0:0x3a52fe9da1d24062,
perumahan,Perhimpunan Pengembang Perumahan,Rumah Siswa : Mawar,"69JW+FMX, Dompu - Hu'u, Huu, Kec. Hu'u, Kabupaten Dompu, Nusa Tenggara Bar.","Kabupaten Dompu, Nusa Tenggara Bar.",NUSA TENGGARA BARAT,,Indonesia,,,,-87.687.734,1.183.967.306,https://maps.google.com/?cid=0x0:0xfa5c2957ded91da,
perumahan,Komplek perumahan,Dae Adfen,"Dusun Samakai, Persiapan Jala, Kec. Hu'u, Kabupaten Dompu, Nusa Tenggara Bar. 84271","Persiapan Jala, Kec. Hu'u, Kabupaten Dompu",NUSA TENGGARA BARAT,84271.0,Indonesia,,,,-87.253.893,1.184.262.241,https://maps.google.com/?cid=0x0:0xb5d9c455ee213488,
perumahan,perumahan,Nusa Tenggara Bar. 84252,"Kec. Kilo, Kabupaten Dompu, Nusa Tenggara Bar.","Kabupaten Dompu, Nusa Tenggara Bar.",NUSA TENGGARA BARAT,,Indonesia,,,,-83.661.165,1.183.812.562,https://maps.google.com/?cid=0x0:0xc5fe1ded17f045e9,
perumahan,Perhimpunan Pengembang Perumahan,Dusun Patulah Desa Malaju Kec. Kilo Kab. Dompu Prov. NTB,"MCP2+66Q, Jalur Evakuasi, Malaju, Kec. Kilo, Kabupaten Dompu, Nusa Tenggara Bar. 84252","Jalur Evakuasi, Malaju, Kec. Kilo, Kabupaten Dompu",NUSA TENGGARA BARAT,84252.0,Indonesia,,,,-83.147.371,1.184.005.532,https://maps.google.com/?cid=0x0:0x4838f6be5e070b81,
perumahan,Komplek perumahan,Rumah Bukit Tinggi,"M9QW+5GQ, Malaju, Kec. Kilo, Kabupaten Dompu, Nusa Tenggara Bar. 84252","Malaju, Kec. Kilo, Kabupaten Dompu",NUSA TENGGARA BARAT,84252.0,Indonesia,85237900121,,,-83.120.483,1.183.963.616,https://maps.google.com/?cid=0x0:0x67d42546ae69cac1,
perumahan,Komplek perumahan,Rumah Ade Ismail,"M9QW+3GG, Malaju, Kec. Kilo, Kabupaten Dompu, Nusa Tenggara Bar. 84252","Malaju, Kec. Kilo, Kabupaten Dompu",NUSA TENGGARA BARAT,84252.0,Indonesia,,,,-83.123.051,1.183.963.254,https://maps.google.com/?cid=0x0:0x31decfdc182f3568,
perumahan,Komplek perumahan,Rumah Ramadoan,"M9RR+25Q, Gg. Kerapu, Malaju, Kec. Kilo, Kabupaten Dompu, Nusa Tenggara Bar. 84252","Gg. Kerapu, Malaju, Kec. Kilo, Kabupaten Dompu",NUSA TENGGARA BARAT,84252.0,Indonesia,,,,-83.095.475,1.183.905.732,https://maps.google.com/?cid=0x0:0x455fcd6330b199c,
perumahan,Kantor Pemerintah,Desa Kiwu,"PCFV+7G6, Jl. Lintas Kiwu, Lasi, Kec. Kilo, Kabupaten Dompu, Nusa Tenggara Bar. 84252","Jl. Lintas Kiwu, Lasi, Kec. Kilo, Kabupaten Dompu",NUSA TENGGARA BARAT,84252.0,Indonesia,85338421065,,,-82.768.438,1.184.437.805,https://maps.google.com/?cid=0x0:0x61475308d352bb67,
perumahan,Komplek perumahan,Rumah Fadil,"J8JG+784, Jalan Lintas, Mbuju, Kilo, Dompu Regency, West Nusa Tenggara 84252","Jalan Lintas, Mbuju, Kilo, Dompu Regency",NUSA TENGGARA BARAT,84252.0,Indonesia,,,,-83.693.706,1.183.258.256,https://maps.google.com/?cid=0x0:0x920649aeaa194bc0,
perumahan,Komplek perumahan,Desa lasi,"PC58+PR8, Jl. Lintas Kiwu, Lasi, Kec. Kilo, Kabupaten Dompu, Nusa Tenggara Bar. 84252","Jl. Lintas Kiwu, Lasi, Kec. Kilo, Kabupaten Dompu",NUSA TENGGARA BARAT,84252.0,Indonesia,,,,-82.907.149,1.184.170.783,https://maps.google.com/?cid=0x0:0x5bb6d156b3e2b157,
perumahan,Pembangunan Perumahan,Hamdin yusuf,"PC36+HXQ, Jl. Lintas Kiwu, Lasi, Kec. Kilo, Kabupaten Dompu, Nusa Tenggara Bar. 84252","Jl. Lintas Kiwu, Lasi, Kec. Kilo, Kabupaten Dompu",NUSA TENGGARA BARAT,84252.0,Indonesia,,,,-82.960.497,1.184.124.979,https://maps.google.com/?cid=0x0:0xed009c4a790ef67c,
perumahan,Komplek perumahan,Rumah Fitrah,"M9RR+935, Malaju, Kec. Kilo, Kabupaten Dompu, Nusa Tenggara Bar. 84252","Malaju, Kec. Kilo, Kabupaten Dompu",NUSA TENGGARA BARAT,84252.0,Indonesia,,,,-8.309.089,1.183.901.384,https://maps.google.com/?cid=0x0:0x9189395694d0b964,
perumahan,Kantor Perusahaan,Desa taropo,"H88H+8F3, Taropo, Kec. Kilo, Kabupaten Dompu, Nusa Tenggara Bar. 84252","Taropo, Kec. Kilo, Kabupaten Dompu",NUSA TENGGARA BARAT,84252.0,Indonesia,,,,-84.342.286,1.183.286.614,https://maps.google.com/?cid=0x0:0xd2c0dcff9690fedd,
perumahan,Perhimpunan Pengembang Perumahan,Cikmo,"MCM2+3HC, Jl. Lintas Malaju, Malaju, Kec. Kilo, Kabupaten Dompu, Nusa Tenggara Bar. 84252","Jl. Lintas Malaju, Malaju, Kec. Kilo, Kabupaten Dompu",NUSA TENGGARA BARAT,84252.0,Indonesia,,,,-83.172.716,1.184.013.849,https://maps.google.com/?cid=0x0:0xa4f0cb9fef4fafe,
perumahan,Komplek perumahan,Rumah Ayu,"M9RW+GXC, Jl. Lintas Lasi, Malaju, Kec. Kilo, Kabupaten Dompu, Nusa Tenggara Bar. 84252","Jl. Lintas Lasi, Malaju, Kec. Kilo, Kabupaten Dompu",NUSA TENGGARA BARAT,84252.0,Indonesia,,,,-83.086.913,1.183.973.753,https://maps.google.com/?cid=0x0:0xf86f41c1a0ee59d5,
perumahan,Pembangunan Perumahan,SUKRAN,"H88M+3VM, Taropo, Kec. Kilo, Kabupaten Dompu, Nusa Tenggara Bar. 84252","Taropo, Kec. Kilo, Kabupaten Dompu",NUSA TENGGARA BARAT,84252.0,Indonesia,,,,-84.350.927,1.183.344.004,https://maps.google.com/?cid=0x0:0xbcb022bc0a522276,
perumahan,Komplek perumahan,Rumah Ahmadin,"M9RR+935, Malaju, Kec. Kilo, Kabupaten Dompu, Nusa Tenggara Bar. 84252","Malaju, Kec. Kilo, Kabupaten Dompu",NUSA TENGGARA BARAT,84252.0,Indonesia,,,,-8.309.166,1.183.901.965,https://maps.google.com/?cid=0x0:0x5d73e03fe2fc6eb4,
perumahan,Komplek perumahan,RENGGE OMPU PENDO,"H8V8+5V3, Taropo, Kec. Kilo, Kabupaten Dompu, Nusa Tenggara Bar.","Kabupaten Dompu, Nusa Tenggara Bar.",NUSA TENGGARA BARAT,,Indonesia,,,,-84.071.137,1.183.171.625,https://maps.google.com/?cid=0x0:0xa9c4ffbcbaabcc01,
perumahan,Komplek perumahan,Rumah Inang,"M9PX+W4R, Malaju, Kec. Kilo, Kabupaten Dompu, Nusa Tenggara Bar.","Kabupaten Dompu, Nusa Tenggara Bar.",NUSA TENGGARA BARAT,,Indonesia,,,,-83.126.339,1.183.977.801,https://maps.google.com/?cid=0x0:0xeb8c6ac1f84c7ebd,
perumahan,Pembangunan Perumahan,ZULATIF,"H88M+3VM, Taropo, Kec. Kilo, Kabupaten Dompu, Nusa Tenggara Bar. 84252","Taropo, Kec. Kilo, Kabupaten Dompu",NUSA TENGGARA BARAT,84252.0,Indonesia,,,,-84.344.148,1.183.345.516,https://maps.google.com/?cid=0x0:0xb4561d0bce03bdd1,
perumahan,Komplek perumahan,rumah hanafi mk,"M9RW+G4P, Malaju, Kec. Kilo, Kabupaten Dompu, Nusa Tenggara Bar. 84252","Malaju, Kec. Kilo, Kabupaten Dompu",NUSA TENGGARA BARAT,84252.0,Indonesia,,,,-8.308.037,1.183.950.689,https://maps.google.com/?cid=0x0:0x65ea981bb1a34dac,
perumahan,Komplek perumahan,AMAJID,"H88M+3VM, Taropo, Kec. Kilo, Kabupaten Dompu, Nusa Tenggara Bar. 84252","Taropo, Kec. Kilo, Kabupaten Dompu",NUSA TENGGARA BARAT,84252.0,Indonesia,,,,-8.434.968,1.183.350.907,https://maps.google.com/?cid=0x0:0xe8c64c79895936d,
perumahan,Pembangunan Perumahan,I WAYAN SWADADANA ᬭᬸᬫᬄᬇᬯᬬᬦ᭄ᬲ᭄ᬯᬤᬤᬦ,"H8MW+9C, Taropo, Kec. Kilo, Kabupaten Dompu, Nusa Tenggara Bar.","Kabupaten Dompu, Nusa Tenggara Bar.",NUSA TENGGARA BARAT,,Indonesia,,,,-84.165.833,1.183.460.626,https://maps.google.com/?cid=0x0:0xc7dc4f449525a28a,
perumahan,Pembangunan Perumahan,Fitriani H.Suherman,"H88H+8F3, Taropo, Kec. Kilo, Kabupaten Dompu, Nusa Tenggara Bar.","Kabupaten Dompu, Nusa Tenggara Bar.",NUSA TENGGARA BARAT,,Indonesia,,,,-84.348.669,1.183.292.133,https://maps.google.com/?cid=0x0:0x3d14c7168b144baf,
perumahan,Yayasan,Rumah KEPALA YAYASAN PONDOK PESANTREN HADNURLAILI KILO,"M9FW+2HV, Malaju, Kec. Kilo, Kabupaten Dompu, Nusa Tenggara Bar. 84252","Malaju, Kec. Kilo, Kabupaten Dompu",NUSA TENGGARA BARAT,84252.0,Indonesia,,,,-83.285.843,1.183.966.545,https://maps.google.com/?cid=0x0:0x50640816d34d1fb1,
perumahan,Pembangunan Perumahan,Milux,"J838+6PC, Jalan Lintas Bima, Taloko, Kec. Sanggar, Kabupaten Bima, Nusa Tenggara Bar. 84252","Jalan Lintas Bima, Taloko, Kec. Sanggar, Kabupaten Bima",NUSA TENGGARA BARAT,84252.0,Indonesia,85239171632,,,-83.969.996,1.183.167.789,https://maps.google.com/?cid=0x0:0x7f8a9112b4ba215a,
perumahan,Komplek perumahan,Rumah Nuraini Jamaluddin kalate,"M9RW+GGC, Malaju, Kec. Kilo, Kabupaten Dompu, Nusa Tenggara Bar. 84252","Malaju, Kec. Kilo, Kabupaten Dompu",NUSA TENGGARA BARAT,84252.0,Indonesia,,,,-83.086.875,1.183.962.656,https://maps.google.com/?cid=0x0:0xbcbd3e56fa977a94,
perumahan,Pembangunan Perumahan,RUMAH RAFIK BAZGHEFAN,"J8JG+784, Jalan Lintas, Mbuju, Kec. Kilo, Kabupaten Dompu, Nusa Tenggara Bar. 84252","Jalan Lintas, Mbuju, Kec. Kilo, Kabupaten Dompu",NUSA TENGGARA BARAT,84252.0,Indonesia,,,,-83.697.964,1.183.256.574,https://maps.google.com/?cid=0x0:0xb17c3cffdfdf02f1,
perumahan,perumahan,Nusa Tenggara Bar. 84216,"Kabupaten Dompu, Nusa Tenggara Bar.","Kabupaten Dompu, Nusa Tenggara Bar.",NUSA TENGGARA BARAT,,Indonesia,,,,-85.455.416,1.184.484.367,https://maps.google.com/?cid=0x0:0x588c0621b5331cf5,
perumahan,Komplek perumahan,RUMAH Hasbul/Nurul,"FC5X+53F, Simpasai, Kec. Woja, Kabupaten Dompu, Nusa Tenggara Bar. 84216","Simpasai, Kec. Woja, Kabupaten Dompu",NUSA TENGGARA BARAT,84216.0,Indonesia,,,,-85.420.649,118.447.885,https://maps.google.com/?cid=0x0:0xa511472833dc1e0b,
perumahan,Pembangunan Perumahan,Manggelewa,"FC3W+R8F, Kandai Dua, Kec. Woja, Kabupaten Dompu, Nusa Tenggara Bar.","Kabupaten Dompu, Nusa Tenggara Bar.",NUSA TENGGARA BARAT,,Indonesia,,,,-8.545.437,118.445.801,https://maps.google.com/?cid=0x0:0xf95f74563e2bc15f,
perumahan,perumahan,Mega,"FC3W+R8F, Kandai Dua, Kec. Woja, Kabupaten Dompu, Nusa Tenggara Bar.","Kabupaten Dompu, Nusa Tenggara Bar.",NUSA TENGGARA BARAT,,Indonesia,,,,-8.545.437,118.445.801,https://maps.google.com/?cid=0x0:0xac8a2408e0f787c1,
perumahan,Pembangunan Perumahan,Satrya 12,"FF84+232, Jl. Baru Karijawa, Karijawa, Kec. Dompu, Kabupaten Dompu, Nusa Tenggara Bar. 84216","Jl. Baru Karijawa, Karijawa, Kec. Dompu, Kabupaten Dompu",NUSA TENGGARA BARAT,84216.0,Indonesia,,,,-85.349.812,1.184.551.498,https://maps.google.com/?cid=0x0:0x97cea5e78fcc9679,
perumahan,Pembangunan Perumahan,Tanah nya Fenny,"FF84+232, Jl. Baru Karijawa, Karijawa, Kec. Dompu, Kabupaten Dompu, Nusa Tenggara Bar. 84216","Jl. Baru Karijawa, Karijawa, Kec. Dompu, Kabupaten Dompu",NUSA TENGGARA BARAT,84216.0,Indonesia,,,,-85.345.831,1.184.552.907,https://maps.google.com/?cid=0x0:0x7f42ca63703cb83a,
perumahan,Perhimpunan Pengembang Perumahan,BTN Puri Ginte Indah,"FC9R+X5J, Dekat Simpasai, BTN Puri Ginte Indah Ling, Kandai Dua, Kec. Woja, Kabupaten Dompu, Nusa Tenggara Bar. 84219","Dekat Simpasai, BTN Puri Ginte Indah Ling, Kandai Dua, Kec. Woja, Kabupaten Dompu",NUSA TENGGARA BARAT,84219.0,Indonesia,,,,-85.300.461,118.440.399,https://maps.google.com/?cid=0x0:0xa9714b4771ff760,
perumahan,Perhimpunan Pengembang Perumahan,dore,"FCHX+J9V, Simpasai, Kec. Woja, Kabupaten Dompu, Nusa Tenggara Bar.","Kabupaten Dompu, Nusa Tenggara Bar.",NUSA TENGGARA BARAT,,Indonesia,,,,-85.208.913,1.184.484.367,https://maps.google.com/?cid=0x0:0xfca3af659ca80e7d,
perumahan,Komplek perumahan,graha sumiyati,"FFC6+5H3, Bali, Kec. Dompu, Kabupaten Dompu, Nusa Tenggara Bar. 84213","Bali, Kec. Dompu, Kabupaten Dompu",NUSA TENGGARA BARAT,84213.0,Indonesia,,,,-85.295.924,1.184.614.059,https://maps.google.com/?cid=0x0:0x82b89bfdc34973ad,
perumahan,Toko,Toko husen,"FC3W+R8F, Kandai Dua, Kec. Woja, Kabupaten Dompu, Nusa Tenggara Bar. 84216","Kandai Dua, Kec. Woja, Kabupaten Dompu",NUSA TENGGARA BARAT,84216.0,Indonesia,,,,-8.545.437,118.445.801,https://maps.google.com/?cid=0x0:0xbcfc42bf338d90fa,
perumahan,Rumah wisata,Swete,"Jl. Lkr. Utara No.1a, Bali, Kec. Dompu, Kabupaten Dompu, Nusa Tenggara Bar. 84213","Bali, Kec. Dompu, Kabupaten Dompu",NUSA TENGGARA BARAT,84213.0,Indonesia,,,,-8.528.724,1.184.609.091,https://maps.google.com/?cid=0x0:0x8c161918b818dfd3,
perumahan,Komplek perumahan,Ihsan Ali,"FC7W+JWX, Simpasai, Kec. Woja, Kabupaten Dompu, Nusa Tenggara Bar. 84216","Simpasai, Kec. Woja, Kabupaten Dompu",NUSA TENGGARA BARAT,84216.0,Indonesia,,,,-85.360.229,1.184.478.075,https://maps.google.com/?cid=0x0:0x3ae06ddfce9a96c6,
perumahan,Pembangunan Perumahan,Plawu 2,"FF84+232, Jl. Baru Karijawa, Karijawa, Kec. Dompu, Kabupaten Dompu, Nusa Tenggara Bar. 84216","Jl. Baru Karijawa, Karijawa, Kec. Dompu, Kabupaten Dompu",NUSA TENGGARA BARAT,84216.0,Indonesia,,,,-85.342.292,1.184.545.795,https://maps.google.com/?cid=0x0:0xd9da152a755fddee,
perumahan,Komplek perumahan,Nur Firman,"FC7W+JWX, Simpasai, Kec. Woja, Kabupaten Dompu, Nusa Tenggara Bar. 84216","Simpasai, Kec. Woja, Kabupaten Dompu",NUSA TENGGARA BARAT,84216.0,Indonesia,,,,-85.362.159,1.184.478.035,https://maps.google.com/?cid=0x0:0xf7606adb30c0d093,
perumahan,Komplek perumahan,Saskia Huban,"FF62+647, Jl. Baru Karijawa, Karijawa, Kec. Dompu, Kabupaten Dompu, Nusa Tenggara Bar. 84216","Jl. Baru Karijawa, Karijawa, Kec. Dompu, Kabupaten Dompu",NUSA TENGGARA BARAT,84216.0,Indonesia,,,,-85.394.531,1.184.503.123,https://maps.google.com/?cid=0x0:0x4c7c67aacd329901,
perumahan,Pembangunan Perumahan,Rumah david,"FC8V+3R5, Jl. BTN Pepabri Bukit, Simpasai, Kec. Woja, Kabupaten Dompu, Nusa Tenggara Bar. 84216","Jl. BTN Pepabri Bukit, Simpasai, Kec. Woja, Kabupaten Dompu",NUSA TENGGARA BARAT,84216.0,Indonesia,,,,-85.348.678,118.444.604,https://maps.google.com/?cid=0x0:0x75a1463d1c25143e,
perumahan,Komplek perumahan,dian,"FC6R+9MM, Jl. Buntu Simpasai Woja, Simpasai, Kec. Woja, Kabupaten Dompu, Nusa Tenggara Bar.","Kabupaten Dompu, Nusa Tenggara Bar.",NUSA TENGGARA BARAT,,Indonesia,,,,-85.390.407,1.184.416.853,https://maps.google.com/?cid=0x0:0x973e6d77eb2f7c18,
perumahan,Komplek perumahan,Rumah Angga Arya arysta,"FC4R+V26, Kandai Dua, Kec. Woja, Kabupaten Dompu, Nusa Tenggara Bar. 84218","Kandai Dua, Kec. Woja, Kabupaten Dompu",NUSA TENGGARA BARAT,84218.0,Indonesia,,,,-85.428.481,1.184.400.137,https://maps.google.com/?cid=0x0:0xccb1f43dfe7acc25,
perumahan,Komplek perumahan,Rumah Reza,"FF73+94G, Karijawa, Kec. Dompu, Kabupaten Dompu, Nusa Tenggara Bar.","Kabupaten Dompu, Nusa Tenggara Bar.",NUSA TENGGARA BARAT,,Indonesia,,,,-85.365.646,1.184.528.171,https://maps.google.com/?cid=0x0:0x8309724daa46367f,
perumahan,Perhimpunan Pengembang Perumahan,Ewo acahay,"FF73+WXM, Karijawa, Jln, Baru, Kec. Dompu, Kabupaten Dompu, Nusa Tenggara Bar. 84213","Karijawa, Jln, Baru, Kec. Dompu, Kabupaten Dompu",NUSA TENGGARA BARAT,84213.0,Indonesia,,,,-85.349.288,1.184.547.779,https://maps.google.com/?cid=0x0:0x85b7c27773dba4a4,
perumahan,Pembangunan Perumahan,Rumah Biru,"Jl. Baru Karijawa No.17, Karijawa, Kec. Dompu, Kabupaten Dompu, Nusa Tenggara Bar. 84216","Karijawa, Kec. Dompu, Kabupaten Dompu",NUSA TENGGARA BARAT,84216.0,Indonesia,,,,-85.354.364,1.184.505.065,https://maps.google.com/?cid=0x0:0xd83300b18a2985af,
perumahan,Pembangunan Perumahan,Dika,"Jl. Baru Karijawa, Karijawa, Kec. Dompu, Kabupaten Dompu, Nusa Tenggara Bar. 84216","Karijawa, Kec. Dompu, Kabupaten Dompu",NUSA TENGGARA BARAT,84216.0,Indonesia,,,,-85.354.641,1.184.498.729,https://maps.google.com/?cid=0x0:0xe684f489d1334f69,
perumahan,Komplek perumahan,JAUHAR ARIFN (JA) CENTER,"selatan Jl. Baru Karijawa No.4, Karijawa, Kec. Dompu, Kabupaten Dompu, Nusa Tenggara Bar. 84216","Karijawa, Kec. Dompu, Kabupaten Dompu",NUSA TENGGARA BARAT,84216.0,Indonesia,,,,-85.415.729,1.184.513.954,https://maps.google.com/?cid=0x0:0x16338525c685bc6c,
perumahan,Komplek perumahan,Perumahan Pesona Dompu,"Jl. Lintas Mbawi No.88, Kandai Satu, Kec. Dompu, Kabupaten Dompu, Nusa Tenggara Bar. 84219","Kandai Satu, Kec. Dompu, Kabupaten Dompu",NUSA TENGGARA BARAT,84219.0,Indonesia,82141365587,,,-8.548.826,1.184.590.869,https://maps.google.com/?cid=0x0:0x8f33c7b836ed2d5e,
perumahan,Komplek perumahan,Rumah pak kamaludin,"FF44+4M5, Kandai Satu, Kec. Dompu, Kabupaten Dompu, Nusa Tenggara Bar. 84217","Kandai Satu, Kec. Dompu, Kabupaten Dompu",NUSA TENGGARA BARAT,84217.0,Indonesia,,,,-85.449.011,1.184.570.588,https://maps.google.com/?cid=0x0:0x18850bb9e64e2c8,
perumahan,Komplek perumahan,GRAHA NYOMAN SUDIARSA,"FC5W+JMJ, Simpasai, Kec. Woja, Kabupaten Dompu, Nusa Tenggara Bar. 84216","Simpasai, Kec. Woja, Kabupaten Dompu",NUSA TENGGARA BARAT,84216.0,Indonesia,81933068239,,,-85.409.142,118.446.626,https://maps.google.com/?cid=0x0:0x1bce00ce43422c78,
perumahan,Rumah Duka,siska,"FC5X+C92, Unnamed Road, Simpasai, Kec. Woja, Kabupaten Dompu, Nusa Tenggara Bar. 84216","Unnamed Road, Simpasai, Kec. Woja, Kabupaten Dompu",NUSA TENGGARA BARAT,84216.0,Indonesia,82236757919,,,-85.414.936,118.448.388,https://maps.google.com/?cid=0x0:0xdf0df256c1e950be,
perumahan,Toko Pakaian,Rumah Baju,"Depan PDAM, Jl. Lkr. Utara, Simpasai, Kec. Woja, Kabupaten Dompu, Nusa Tenggara Bar. 84218","Jl. Lkr. Utara, Simpasai, Kec. Woja, Kabupaten Dompu",NUSA TENGGARA BARAT,84218.0,Indonesia,82339513152,,,-8.539.337,1.184.457.432,https://maps.google.com/?cid=0x0:0xbd53de17ee0260c0,
perumahan,Rumah wisata,rumah adam,"Jl, Teuku Umar No.43, Simpasai, Kec. Woja, Kabupaten Dompu, Nusa Tenggara Bar. 84216","Teuku Umar No.43, Simpasai, Kec. Woja, Kabupaten Dompu",NUSA TENGGARA BARAT,84216.0,Indonesia,,,,-8.543.397,118.445.029,https://maps.google.com/?cid=0x0:0x13449de7847dfbd5,
perumahan,perumahan,Nusa Tenggara Bar. 84218,"Kec. Woja, Kabupaten Dompu, Nusa Tenggara Bar.","Kabupaten Dompu, Nusa Tenggara Bar.",NUSA TENGGARA BARAT,,Indonesia,,,,-85.464.715,1.184.367.551,https://maps.google.com/?cid=0x0:0xb59074d297d4d9d7,
perumahan,Komplek perumahan,Rumah nayla,"CCXJ+7V3, Jl. Lintas Wawonduru, Wawonduru, Kec. Woja, Kabupaten Dompu, Nusa Tenggara Bar.","Kabupaten Dompu, Nusa Tenggara Bar.",NUSA TENGGARA BARAT,,Indonesia,,,,-85.518.663,1.184.321.857,https://maps.google.com/?cid=0x0:0x83de7222b6211265,
perumahan,perumahan,Mega,"FC3W+R8F, Kandai Dua, Kec. Woja, Kabupaten Dompu, Nusa Tenggara Bar.","Kabupaten Dompu, Nusa Tenggara Bar.",NUSA TENGGARA BARAT,,Indonesia,,,,-8.545.437,118.445.801,https://maps.google.com/?cid=0x0:0xac8a2408e0f787c1,
perumahan,Komplek perumahan,Rumah Fathir,"FC6F+M9W, Matua, Kec. Woja, Kabupaten Dompu, Nusa Tenggara Bar. 84251","Matua, Kec. Woja, Kabupaten Dompu",NUSA TENGGARA BARAT,84251.0,Indonesia,,,,-85.379.118,1.184.235.057,https://maps.google.com/?cid=0x0:0x6d22cfb5b4db6eae,
perumahan,Komplek perumahan,Rumah aldy,"CCQJ+678, Wawonduru, Kec. Woja, Kabupaten Dompu, Nusa Tenggara Bar.","Kabupaten Dompu, Nusa Tenggara Bar.",NUSA TENGGARA BARAT,,Indonesia,,,,-85.619.615,1.184.307.135,https://maps.google.com/?cid=0x0:0xa6184f246a6960e7,
perumahan,Komplek perumahan,RUMAH Hasbul/Nurul,"FC5X+53F, Simpasai, Kec. Woja, Kabupaten Dompu, Nusa Tenggara Bar. 84216","Simpasai, Kec. Woja, Kabupaten Dompu",NUSA TENGGARA BARAT,84216.0,Indonesia,,,,-85.420.649,118.447.885,https://maps.google.com/?cid=0x0:0xa511472833dc1e0b,
perumahan,perumahan,rumah,"FC4J+JQG, Kandai Dua, Kec. Woja, Kabupaten Dompu, Nusa Tenggara Bar. 84219","Kandai Dua, Kec. Woja, Kabupaten Dompu",NUSA TENGGARA BARAT,84219.0,Indonesia,,,,-85.433.691,1.184.319.745,https://maps.google.com/?cid=0x0:0xcd769834ad66caf7,
perumahan,Komplek perumahan,Ustad Enggo Dompu,"FC5J+QHG, Jl. Buntu Simpasai Woja, Kandai Dua, Kec. Woja, Kabupaten Dompu, Nusa Tenggara Bar. 84219","Jl. Buntu Simpasai Woja, Kandai Dua, Kec. Woja, Kabupaten Dompu",NUSA TENGGARA BARAT,84219.0,Indonesia,,,,-8.540.574,118.431.461,https://maps.google.com/?cid=0x0:0x8c4fbd2d709d41c8,
perumahan,Kantor Perusahaan,Rumah Produksi Raka La Rangga,"Jl. Lintas Doro Tarei, Bali Bunga, RT.06/RW.02, Kandai Dua, Kec. Woja, Kabupaten Dompu, Nusa Tenggara Bar. 84218","Bali Bunga, RT.06/RW.02, Kandai Dua, Kec. Woja, Kabupaten Dompu",NUSA TENGGARA BARAT,84218.0,Indonesia,82359524393,,,-85.389.268,1.184.341.688,https://maps.google.com/?cid=0x0:0xdbfdf6a15440b5e0,
perumahan,Perhimpunan Pengembang Perumahan,Buhari a wahab,"FC8C+XX, Matua, Kec. Woja, Kabupaten Dompu, Nusa Tenggara Bar.","Kabupaten Dompu, Nusa Tenggara Bar.",NUSA TENGGARA BARAT,,Indonesia,,,,-85.325.379,1.184.225.235,https://maps.google.com/?cid=0x0:0xb0f36bc662864403,
perumahan,Pembangunan Perumahan,Manggelewa,"FC3W+R8F, Kandai Dua, Kec. Woja, Kabupaten Dompu, Nusa Tenggara Bar.","Kabupaten Dompu, Nusa Tenggara Bar.",NUSA TENGGARA BARAT,,Indonesia,,,,-8.545.437,118.445.801,https://maps.google.com/?cid=0x0:0xf95f74563e2bc15f,
perumahan,Komplek perumahan,Rumah nana,"FC9H+89C, Matua, Kec. Woja, Kabupaten Dompu, Nusa Tenggara Bar. 84219","Matua, Kec. Woja, Kabupaten Dompu",NUSA TENGGARA BARAT,84219.0,Indonesia,,,,-85.314.381,1.184.284.252,https://maps.google.com/?cid=0x0:0x193a8a4d76b1148,
perumahan,Komplek perumahan,Rumah Bidan Esther Mako Mata,"FC6J+GV2, Jl. Buntu Simpasai Woja, Kandai Dua, Kec. Woja, Kabupaten Dompu, Nusa Tenggara Bar. 84219","Jl. Buntu Simpasai Woja, Kandai Dua, Kec. Woja, Kabupaten Dompu",NUSA TENGGARA BARAT,84219.0,Indonesia,,,,-85.387.444,1.184.321.471,https://maps.google.com/?cid=0x0:0x581728b86671993a,
perumahan,Komplek perumahan,graha sumiyati,"FFC6+5H3, Bali, Kec. Dompu, Kabupaten Dompu, Nusa Tenggara Bar. 84213","Bali, Kec. Dompu, Kabupaten Dompu",NUSA TENGGARA BARAT,84213.0,Indonesia,,,,-85.295.924,1.184.614.059,https://maps.google.com/?cid=0x0:0x82b89bfdc34973ad,
perumahan,Rumah wisata,"Rumah Muh. Fadillah, S.H","FC4Q+CW8, Kandai Dua, Kec. Woja, Kabupaten Dompu, Nusa Tenggara Bar. 84218","Kandai Dua, Kec. Woja, Kabupaten Dompu",NUSA TENGGARA BARAT,84218.0,Indonesia,,,,-85.439.691,1.184.398.286,https://maps.google.com/?cid=0x0:0xb5a7fae186dfd6d2,
perumahan,Komplek perumahan,Kurir ayatnazwa,"FC3P+CP3, Kandai Dua, Kec. Woja, Kabupaten Dompu, Nusa Tenggara Bar. 84218","Kandai Dua, Kec. Woja, Kabupaten Dompu",NUSA TENGGARA BARAT,84218.0,Indonesia,,,,-85.464.761,1.184.368.013,https://maps.google.com/?cid=0x0:0xb62f611254a1371a,
perumahan,Pembangunan Perumahan,Rumah Dewa,"FC3P+RPC, Kandai Dua, Kec. Woja, Kabupaten Dompu, Nusa Tenggara Bar. 84218","Kandai Dua, Kec. Woja, Kabupaten Dompu",NUSA TENGGARA BARAT,84218.0,Indonesia,,,,-85.454.382,1.184.368.212,https://maps.google.com/?cid=0x0:0x462851f5257c96a4,
perumahan,Komplek perumahan,CINTA,"FC7F+CJ8, Jl. Ompu Beko, Matua, Kec. Woja, Kabupaten Dompu, Nusa Tenggara Bar.","Kabupaten Dompu, Nusa Tenggara Bar.",NUSA TENGGARA BARAT,,Indonesia,,,,-85.364.612,118.424.087,https://maps.google.com/?cid=0x0:0x1f0fcf647c0c4840,
perumahan,perumahan,Dusun selaparang jalan ompu beko,"FC8F+GWH, Jl. Ompu Beko, Matua, Kec. Woja, Kabupaten Dompu, Nusa Tenggara Bar. 84251","Jl. Ompu Beko, Matua, Kec. Woja, Kabupaten Dompu",NUSA TENGGARA BARAT,84251.0,Indonesia,,,,-8.533.869,118.424.067,https://maps.google.com/?cid=0x0:0x8e0b1e1397da5a1d,
perumahan,Komplek perumahan,Rumah Angga Arya arysta,"FC4R+V26, Kandai Dua, Kec. Woja, Kabupaten Dompu, Nusa Tenggara Bar. 84218","Kandai Dua, Kec. Woja, Kabupaten Dompu",NUSA TENGGARA BARAT,84218.0,Indonesia,,,,-85.428.481,1.184.400.137,https://maps.google.com/?cid=0x0:0xccb1f43dfe7acc25,
perumahan,Pembangunan Perumahan,Omenh Dompu,"FC4Q+CHW, Kandai Dua, Kec. Woja, Kabupaten Dompu, Nusa Tenggara Bar. 84218","Kandai Dua, Kec. Woja, Kabupaten Dompu",NUSA TENGGARA BARAT,84218.0,Indonesia,,,,-85.438.824,1.184.389.393,https://maps.google.com/?cid=0x0:0x6070d6b978d7a380,
perumahan,Gudang,KANDANG FC,"FC6X+43R, Jl. Imam Bonjol, Simpasai, Kec. Woja, Kabupaten Dompu, Nusa Tenggara Bar. 84218","Jl. Imam Bonjol, Simpasai, Kec. Woja, Kabupaten Dompu",NUSA TENGGARA BARAT,84218.0,Indonesia,,,,-85.464.442,1.184.367.332,https://maps.google.com/?cid=0x0:0x5ad18dc28c0e1a3f,
perumahan,Komplek perumahan,Abubakar Kompleks,"FC3J+JM8, Jl. Buntu Simpasai Woja, Kandai Dua, Kec. Woja, Kabupaten Dompu, Nusa Tenggara Bar. 84219","Jl. Buntu Simpasai Woja, Kandai Dua, Kec. Woja, Kabupaten Dompu",NUSA TENGGARA BARAT,84219.0,Indonesia,,,,-8.545.968,1.184.316.925,https://maps.google.com/?cid=0x0:0x5248ac4dd0f663af,
perumahan,Komplek perumahan,Balian house,"FC3P+RPC, Kandai Dua, Kec. Woja, Kabupaten Dompu, Nusa Tenggara Bar. 84218","Kandai Dua, Kec. Woja, Kabupaten Dompu",NUSA TENGGARA BARAT,84218.0,Indonesia,,,,-85.454.495,1.184.367.686,https://maps.google.com/?cid=0x0:0x25b4c30a22dd024e,
perumahan,Pembangunan Perumahan,Irma House,"FC3P+GMV, Kandai Dua, Kec. Woja, Kabupaten Dompu, Nusa Tenggara Bar. 84218","Kandai Dua, Kec. Woja, Kabupaten Dompu",NUSA TENGGARA BARAT,84218.0,Indonesia,,,,-85.461.619,1.184.366.204,https://maps.google.com/?cid=0x0:0x77c63e70a7392c8f,
perumahan,Toko,OAF Store,"FC4P+VJR, Kandai Dua, Kec. Woja, Kabupaten Dompu, Nusa Tenggara Bar. 84218","Kandai Dua, Kec. Woja, Kabupaten Dompu",NUSA TENGGARA BARAT,84218.0,Indonesia,82226758748,,,-8.542.751,1.184.365.113,https://maps.google.com/?cid=0x0:0x7d89dc180f8ac4fd,
perumahan,Komplek perumahan,Aerodynamic_team,"FC7V+VRR, Jl. BTN Pepabri Bukit, Simpasai, Kec. Woja, Kabupaten Dompu, Nusa Tenggara Bar. 84218","Jl. BTN Pepabri Bukit, Simpasai, Kec. Woja, Kabupaten Dompu",NUSA TENGGARA BARAT,84218.0,Indonesia,,,,-85.352.643,1.184.445.108,https://maps.google.com/?cid=0x0:0xf0ccc722785859b2,
perumahan,Dokter,Klinik Alief Husada,"Kandai Dua, Kec. Woja, Kabupaten Dompu, Nusa Tenggara Bar. 84218","Kec. Woja, Kabupaten Dompu",NUSA TENGGARA BARAT,84218.0,Indonesia,,,,-85.454.295,1.184.320.756,https://maps.google.com/?cid=0x0:0x751f821493bfbecb,
perumahan,Brunch,RUMAH MAKAN MBAK LILIK,"FC3M+74R, Jl. Ke Bima, Kandai Dua, Kec. Woja, Kabupaten Dompu, Nusa Tenggara Bar. 84218","Jl. Ke Bima, Kandai Dua, Kec. Woja, Kabupaten Dompu",NUSA TENGGARA BARAT,84218.0,Indonesia,82268222292,,,-85.468.781,1.184.331.224,https://maps.google.com/?cid=0x0:0x5614434457df8cf1,
perumahan,perumahan,Nusa Tenggara Bar. 84219,"Kabupaten Dompu, Nusa Tenggara Bar.","Kabupaten Dompu, Nusa Tenggara Bar.",NUSA TENGGARA BARAT,,Indonesia,,,,-8.455.389,1.184.980.744,https://maps.google.com/?cid=0x0:0xd1ca28c719867916,
perumahan,Komplek perumahan,Ustad Enggo Dompu,"FC5J+QHG, Jl. Buntu Simpasai Woja, Kandai Dua, Kec. Woja, Kabupaten Dompu, Nusa Tenggara Bar. 84219","Jl. Buntu Simpasai Woja, Kandai Dua, Kec. Woja, Kabupaten Dompu",NUSA TENGGARA BARAT,84219.0,Indonesia,,,,-8.540.574,118.431.461,https://maps.google.com/?cid=0x0:0x8c4fbd2d709d41c8,
perumahan,perumahan,rumah,"FC4J+JQG, Kandai Dua, Kec. Woja, Kabupaten Dompu, Nusa Tenggara Bar. 84219","Kandai Dua, Kec. Woja, Kabupaten Dompu",NUSA TENGGARA BARAT,84219.0,Indonesia,,,,-85.433.691,1.184.319.745,https://maps.google.com/?cid=0x0:0xcd769834ad66caf7,
perumahan,perumahan,Rumah Saya,"CCFF+XW9, Wawonduru, Kec. Woja, Kabupaten Dompu, Nusa Tenggara Bar. 84219","Wawonduru, Kec. Woja, Kabupaten Dompu",NUSA TENGGARA BARAT,84219.0,Indonesia,,,,-85.750.819,1.184.248.559,https://maps.google.com/?cid=0x0:0xbd03b79d2bbc8c8a,
perumahan,Komplek perumahan,Rumah nana,"FC9H+89C, Matua, Kec. Woja, Kabupaten Dompu, Nusa Tenggara Bar. 84219","Matua, Kec. Woja, Kabupaten Dompu",NUSA TENGGARA BARAT,84219.0,Indonesia,,,,-85.314.381,1.184.284.252,https://maps.google.com/?cid=0x0:0x193a8a4d76b1148,
perumahan,Komplek perumahan,Rumah mawan,"FF9H+348, Unnamed Road, Mangge Asi, Kec. Dompu, Kabupaten Dompu, Nusa Tenggara Bar. 84219","Unnamed Road, Mangge Asi, Kec. Dompu, Kabupaten Dompu",NUSA TENGGARA BARAT,84219.0,Indonesia,,,,-85.323.402,118.477.829,https://maps.google.com/?cid=0x0:0x52180c73cb842ba8,
perumahan,Komplek perumahan,Rumah Bidan Esther Mako Mata,"FC6J+GV2, Jl. Buntu Simpasai Woja, Kandai Dua, Kec. Woja, Kabupaten Dompu, Nusa Tenggara Bar. 84219","Jl. Buntu Simpasai Woja, Kandai Dua, Kec. Woja, Kabupaten Dompu",NUSA TENGGARA BARAT,84219.0,Indonesia,,,,-85.387.444,1.184.321.471,https://maps.google.com/?cid=0x0:0x581728b86671993a,
perumahan,Komplek perumahan,Abubakar Kompleks,"FC3J+JM8, Jl. Buntu Simpasai Woja, Kandai Dua, Kec. Woja, Kabupaten Dompu, Nusa Tenggara Bar. 84219","Jl. Buntu Simpasai Woja, Kandai Dua, Kec. Woja, Kabupaten Dompu",NUSA TENGGARA BARAT,84219.0,Indonesia,,,,-8.545.968,1.184.316.925,https://maps.google.com/?cid=0x0:0x5248ac4dd0f663af,
perumahan,Kantor Pemerintah,Kelurahan Montabaru,"Jl. Lingkungan III, Montabaru, Kec. Woja, Kabupaten Dompu, Nusa Tenggara Bar. 84219","Montabaru, Kec. Woja, Kabupaten Dompu",NUSA TENGGARA BARAT,84219.0,Indonesia,82341727504,,,-85.478.859,1.184.261.443,https://maps.google.com/?cid=0x0:0x234757add8657a63,
perumahan,Komplek perumahan,Rumah Dezan  Zaidan,"FC5G+WCR, Matua, Kec. Woja, Kabupaten Dompu, Nusa Tenggara Bar. 84219","Matua, Kec. Woja, Kabupaten Dompu",NUSA TENGGARA BARAT,84219.0,Indonesia,,,,-85.400.658,1.184.259.264,https://maps.google.com/?cid=0x0:0x7ed78e7175eb9823,
perumahan,Komplek perumahan,Rumah Aba Mas'ah,"CCQJ+H34, Wawonduru, Kec. Woja, Kabupaten Dompu, Nusa Tenggara Bar. 84219","Wawonduru, Kec. Woja, Kabupaten Dompu",NUSA TENGGARA BARAT,84219.0,Indonesia,,,,-85.611.078,1.184.301.911,https://maps.google.com/?cid=0x0:0x48c41e22f6b2b27e,
perumahan,Komplek perumahan,RUMAH Hasbul/Nurul,"FC5X+53F, Simpasai, Kec. Woja, Kabupaten Dompu, Nusa Tenggara Bar. 84216","Simpasai, Kec. Woja, Kabupaten Dompu",NUSA TENGGARA BARAT,84216.0,Indonesia,,,,-85.420.649,118.447.885,https://maps.google.com/?cid=0x0:0xa511472833dc1e0b,
perumahan,Pembangunan Perumahan,Ndano na.e,"GGX4+9JH, Desa ndano na.e Kel, mbeca, Kec. Donggo, Kabupaten Bima, Nusa Tenggara Bar. 84219","Desa ndano na.e Kel, mbeca, Kec. Donggo, Kabupaten Bima",NUSA TENGGARA BARAT,84219.0,Indonesia,,,,-84.515.564,1.185.066.227,https://maps.google.com/?cid=0x0:0xfe40ab422bc8e5ad,
perumahan,Pembangunan Perumahan,Rumah Dewa,"FC3P+RPC, Kandai Dua, Kec. Woja, Kabupaten Dompu, Nusa Tenggara Bar. 84218","Kandai Dua, Kec. Woja, Kabupaten Dompu",NUSA TENGGARA BARAT,84218.0,Indonesia,,,,-85.454.382,1.184.368.212,https://maps.google.com/?cid=0x0:0x462851f5257c96a4,
perumahan,Pusat Pendidikan,Muezza Artaya Residance,"FF9C+3M2, Dorotangga, Kec. Dompu, Kabupaten Dompu, Nusa Tenggara Bar.","Kabupaten Dompu, Nusa Tenggara Bar.",NUSA TENGGARA BARAT,,Indonesia,,,,-85.334.427,1.184.712.496,https://maps.google.com/?cid=0x0:0x99bdb0b6756c97d0,
perumahan,Komplek perumahan,Kampung nasaira Desa sorisakolo,"FFX3+PP6, Persiapan Sorisakolo, Kec. Dompu, Kabupaten Dompu, Nusa Tenggara Bar. 84213","Persiapan Sorisakolo, Kec. Dompu, Kabupaten Dompu",NUSA TENGGARA BARAT,84213.0,Indonesia,,,,-85.007.149,1.184.542.772,https://maps.google.com/?cid=0x0:0x8c5fe976dd81c747,
perumahan,Pembangunan Perumahan,UMA AIRA,"FF8H+QG8, Rasanggaro, Mangge Asi, Kec. Dompu, Kabupaten Dompu, Nusa Tenggara Bar.","Kabupaten Dompu, Nusa Tenggara Bar.",NUSA TENGGARA BARAT,,Indonesia,,,,-85.330.773,1.184.788.239,https://maps.google.com/?cid=0x0:0xa995b536b0245e41,
perumahan,Komplek perumahan,Rumah Fathir,"FC6F+M9W, Matua, Kec. Woja, Kabupaten Dompu, Nusa Tenggara Bar. 84251","Matua, Kec. Woja, Kabupaten Dompu",NUSA TENGGARA BARAT,84251.0,Indonesia,,,,-85.379.118,1.184.235.057,https://maps.google.com/?cid=0x0:0x6d22cfb5b4db6eae,
perumahan,Pembangunan Perumahan,Mijwansyah,"FFR5+G5W, Persiapan Sorisakolo, Kec. Dompu, Kabupaten Dompu, Nusa Tenggara Bar.","Kabupaten Dompu, Nusa Tenggara Bar.",NUSA TENGGARA BARAT,,Indonesia,,,,-8.508.637,1.184.579.654,https://maps.google.com/?cid=0x0:0xaa3c835977d96fd3,
perumahan,Komplek perumahan,RUMAH FUAD,"FF6C+R5F, Bada, Kec. Dompu, Kabupaten Dompu, Nusa Tenggara Bar. 84211","Bada, Kec. Dompu, Kabupaten Dompu",NUSA TENGGARA BARAT,84211.0,Indonesia,,,,-85.373.449,1.184.699.914,https://maps.google.com/?cid=0x0:0xd38634e7ba32abda,
perumahan,Kantor Pemerintah,"Desa matua,kec,woja ,kabupaten dompu","FC3C+7MG, Kandai Dua, Kec. Woja, Kabupaten Dompu, Nusa Tenggara Bar.","Kabupaten Dompu, Nusa Tenggara Bar.",NUSA TENGGARA BARAT,,Indonesia,,,,-85.468.008,1.184.217.157,https://maps.google.com/?cid=0x0:0x6cb6e5b7f9b5cc6a,
perumahan,Masjid,Gg. Masjid Syahadah,"CCGG+5C5, Wawonduru, Kec. Woja, Kabupaten Dompu, Nusa Tenggara Bar. 84219","Wawonduru, Kec. Woja, Kabupaten Dompu",NUSA TENGGARA BARAT,84219.0,Indonesia,,,,-85.746.177,1.184.261.129,https://maps.google.com/?cid=0x0:0x717049a06caa8550,
perumahan,Pembangunan Perumahan,KARAMABURA,"GF7J+3P6, Karamabura, Kec. Dompu, Kabupaten Dompu, Nusa Tenggara Bar. 84219","Karamabura, Kec. Dompu, Kabupaten Dompu",NUSA TENGGARA BARAT,84219.0,Indonesia,,,,-84.873.366,1.184.817.642,https://maps.google.com/?cid=0x0:0x84a970c7993e1a12,
perumahan,Komplek perumahan,Rumah Walet Pak. Rudi Pranoto,"FC9P+2J2, Jl. Lintas Saneo Ginte, Kel, Kandai Dua, Kec. Woja, Kabupaten Dompu, Nusa Tenggara Bar. 84219","Jl. Lintas Saneo Ginte, Kel, Kandai Dua, Kec. Woja, Kabupaten Dompu",NUSA TENGGARA BARAT,84219.0,Indonesia,,,,-85.324.911,1.184.365.158,https://maps.google.com/?cid=0x0:0xb896f836c8313056,
perumahan,Pembangunan Perumahan,kadai dua,"FC4M+RPF, Kandai Dua, Kec. Woja, Kabupaten Dompu, Nusa Tenggara Bar. 84219","Kandai Dua, Kec. Woja, Kabupaten Dompu",NUSA TENGGARA BARAT,84219.0,Indonesia,,,,-8.543.419,118.433.923,https://maps.google.com/?cid=0x0:0xc1cc530cfb3b1f66,
perumahan,Komplek perumahan,graha sumiyati,"FFC6+5H3, Bali, Kec. Dompu, Kabupaten Dompu, Nusa Tenggara Bar. 84213","Bali, Kec. Dompu, Kabupaten Dompu",NUSA TENGGARA BARAT,84213.0,Indonesia,,,,-85.295.924,1.184.614.059,https://maps.google.com/?cid=0x0:0x82b89bfdc34973ad,
perumahan,Pembangunan Perumahan,Rumah Lyla,"FF6C+R5F, Bada, Kec. Dompu, Kabupaten Dompu, Nusa Tenggara Bar. 84211","Bada, Kec. Dompu, Kabupaten Dompu",NUSA TENGGARA BARAT,84211.0,Indonesia,,,,-85.375.899,1.184.708.172,https://maps.google.com/?cid=0x0:0xc59c5fec48b9f5b0,
perumahan,Komplek perumahan,ARIPIN HOUSE,"FC5M+55R, Jl. Buntu Simpasai Woja, Kandai Dua, Kec. Woja, Kabupaten Dompu, Nusa Tenggara Bar. 84219","Jl. Buntu Simpasai Woja, Kandai Dua, Kec. Woja, Kabupaten Dompu",NUSA TENGGARA BARAT,84219.0,Indonesia,,,,-85.418.461,1.184.331.798,https://maps.google.com/?cid=0x0:0x79e3b30736f9bd14,
perumahan,Komplek perumahan,Rumah nayla,"CCXJ+7V3, Jl. Lintas Wawonduru, Wawonduru, Kec. Woja, Kabupaten Dompu, Nusa Tenggara Bar.","Kabupaten Dompu, Nusa Tenggara Bar.",NUSA TENGGARA BARAT,,Indonesia,,,,-85.518.663,1.184.321.857,https://maps.google.com/?cid=0x0:0x83de7222b6211265,
perumahan,perumahan,Nusa Tenggara Bar. 84251,"Kec. Woja, Kabupaten Dompu, Nusa Tenggara Bar.","Kabupaten Dompu, Nusa Tenggara Bar.",NUSA TENGGARA BARAT,,Indonesia,,,,-85.434.837,1.183.812.562,https://maps.google.com/?cid=0x0:0xd559d9dfdafacdb4,
perumahan,Komplek perumahan,Rumah Fathir,"FC6F+M9W, Matua, Kec. Woja, Kabupaten Dompu, Nusa Tenggara Bar. 84251","Matua, Kec. Woja, Kabupaten Dompu",NUSA TENGGARA BARAT,84251.0,Indonesia,,,,-85.379.118,1.184.235.057,https://maps.google.com/?cid=0x0:0x6d22cfb5b4db6eae,
perumahan,Perhimpunan Pengembang Perumahan,bima ntb,"FC23+CRM, Jl. Lintas Sumbawa, Bara, Kec. Woja, Kabupaten Dompu, Nusa Tenggara Bar. 84251","Jl. Lintas Sumbawa, Bara, Kec. Woja, Kabupaten Dompu",NUSA TENGGARA BARAT,84251.0,Indonesia,,,,-8.548.908,1.184.045.397,https://maps.google.com/?cid=0x0:0x323b833ccc771444,
perumahan,Komplek perumahan,TAMBAK IRWAN S.Hi,"99WR+RMF, Mumbu, Kec. Woja, Kabupaten Dompu, Nusa Tenggara Bar. 84251","Mumbu, Kec. Woja, Kabupaten Dompu",NUSA TENGGARA BARAT,84251.0,Indonesia,82237940115,,,-86.029.498,118.391.668,https://maps.google.com/?cid=0x0:0xe77cb94b81589bb7,
perumahan,Komplek perumahan,Sissy Aryati,"F92V+732, Jl. Lintas Sumbawa - Bima Dusun Lapangan, RT.006/RW.002, Bara, Kec. Woja, Kabupaten Dompu, Nusa Tenggara Bar. 84251","Jl. Lintas Sumbawa - Bima Dusun Lapangan, RT.006/RW.002, Bara, Kec. Woja, Kabupaten Dompu",NUSA TENGGARA BARAT,84251.0,Indonesia,85253460979,,,-85.493.681,1.183.926.446,https://maps.google.com/?cid=0x0:0x9d864ce97deeab8c,
perumahan,perumahan,Dusun selaparang jalan ompu beko,"FC8F+GWH, Jl. Ompu Beko, Matua, Kec. Woja, Kabupaten Dompu, Nusa Tenggara Bar. 84251","Jl. Ompu Beko, Matua, Kec. Woja, Kabupaten Dompu",NUSA TENGGARA BARAT,84251.0,Indonesia,,,,-8.533.869,118.424.067,https://maps.google.com/?cid=0x0:0x8e0b1e1397da5a1d,
perumahan,Komplek perumahan,Rumah aldy,"CCQJ+678, Wawonduru, Kec. Woja, Kabupaten Dompu, Nusa Tenggara Bar.","Kabupaten Dompu, Nusa Tenggara Bar.",NUSA TENGGARA BARAT,,Indonesia,,,,-85.619.615,1.184.307.135,https://maps.google.com/?cid=0x0:0xa6184f246a6960e7,
perumahan,perumahan,rumah,"FC4J+JQG, Kandai Dua, Kec. Woja, Kabupaten Dompu, Nusa Tenggara Bar. 84219","Kandai Dua, Kec. Woja, Kabupaten Dompu",NUSA TENGGARA BARAT,84219.0,Indonesia,,,,-85.433.691,1.184.319.745,https://maps.google.com/?cid=0x0:0xcd769834ad66caf7,
perumahan,perumahan,Rumah Saya,"CCFF+XW9, Wawonduru, Kec. Woja, Kabupaten Dompu, Nusa Tenggara Bar. 84219","Wawonduru, Kec. Woja, Kabupaten Dompu",NUSA TENGGARA BARAT,84219.0,Indonesia,,,,-85.750.819,1.184.248.559,https://maps.google.com/?cid=0x0:0xbd03b79d2bbc8c8a,
perumahan,Komplek perumahan,Rumah Uari,"FC38+V96, Gg. Masjid, Matua, Kec. Woja, Kabupaten Dompu, Nusa Tenggara Bar. 84251","Gg. Masjid, Matua, Kec. Woja, Kabupaten Dompu",NUSA TENGGARA BARAT,84251.0,Indonesia,,,,-85.460.688,1.184.160.988,https://maps.google.com/?cid=0x0:0xf17445257cd0e2fd,
perumahan,Komplek perumahan,Ustad Enggo Dompu,"FC5J+QHG, Jl. Buntu Simpasai Woja, Kandai Dua, Kec. Woja, Kabupaten Dompu, Nusa Tenggara Bar. 84219","Jl. Buntu Simpasai Woja, Kandai Dua, Kec. Woja, Kabupaten Dompu",NUSA TENGGARA BARAT,84219.0,Indonesia,,,,-8.540.574,118.431.461,https://maps.google.com/?cid=0x0:0x8c4fbd2d709d41c8,
perumahan,Pembangunan Perumahan,Ory Seto,"FC38+V96, Gg. Masjid, Matua, Kec. Woja, Kabupaten Dompu, Nusa Tenggara Bar. 84251","Gg. Masjid, Matua, Kec. Woja, Kabupaten Dompu",NUSA TENGGARA BARAT,84251.0,Indonesia,,,,-85.462.688,1.184.158.467,https://maps.google.com/?cid=0x0:0x13f13667e29431c1,
perumahan,Komplek perumahan,Rumahnya Vend Story,"FC7G+66M, Jl. Ompu Beko, Matua, Kec. Woja, Kabupaten Dompu, Nusa Tenggara Bar.","Kabupaten Dompu, Nusa Tenggara Bar.",NUSA TENGGARA BARAT,,Indonesia,,,,-85.369.217,1.184.255.478,https://maps.google.com/?cid=0x0:0x5b1ce786fa3715d3,
perumahan,Komplek perumahan,Rumanya ekiagustian,"FC39+HX4, Matua, Kec. Woja, Kabupaten Dompu, Nusa Tenggara Bar. 84251","Matua, Kec. Woja, Kabupaten Dompu",NUSA TENGGARA BARAT,84251.0,Indonesia,,,,-85.467.649,1.184.197.706,https://maps.google.com/?cid=0x0:0x75573925448b5af3,
perumahan,Rumah wisata,Rumah,"F87W+CFW, Persiapan Teka Sire, Kec. Manggalewa, Kabupaten Dompu, Nusa Tenggara Bar.","Kabupaten Dompu, Nusa Tenggara Bar.",NUSA TENGGARA BARAT,,Indonesia,,,,-85.363.958,1.183.461.948,https://maps.google.com/?cid=0x0:0x7d78a415d687fad9,
perumahan,Perhimpunan Pengembang Perumahan,Wolorora,"FC3J+6P6, Kampung wolorora, Kec. Woja, Kabupaten Dompu, Nusa Tenggara Bar.","Kabupaten Dompu, Nusa Tenggara Bar.",NUSA TENGGARA BARAT,,Indonesia,,,,-8.546.967,1.184.317.631,https://maps.google.com/?cid=0x0:0x5da1a0a11ef0cf7e,
perumahan,Perhimpunan Pengembang Perumahan,Anjong,"F92W+9H7 Dusun Fo'o mpongi, Jl. Lintas Sumbawa, Bara, Kec. Woja, Kabupaten Dompu, Nusa Tenggara Bar. 84251","Jl. Lintas Sumbawa, Bara, Kec. Woja, Kabupaten Dompu",NUSA TENGGARA BARAT,84251.0,Indonesia,,,,-85.490.806,1.183.964.212,https://maps.google.com/?cid=0x0:0x20e76f0dc0b6028c,
perumahan,Komplek perumahan,Nurdaya house,"Jl. Lintas Sumbawa - Bima No.63, Nowa, Kec. Woja, Kabupaten Dompu, Nusa Tenggara Bar. 84251","Nowa, Kec. Woja, Kabupaten Dompu",NUSA TENGGARA BARAT,84251.0,Indonesia,,,,-85.493.687,1.184.088.927,https://maps.google.com/?cid=0x0:0x56ca4655fe24baa6,
perumahan,Perhimpunan Pengembang Perumahan,Buhari a wahab,"FC8C+XX, Matua, Kec. Woja, Kabupaten Dompu, Nusa Tenggara Bar.","Kabupaten Dompu, Nusa Tenggara Bar.",NUSA TENGGARA BARAT,,Indonesia,,,,-85.325.379,1.184.225.235,https://maps.google.com/?cid=0x0:0xb0f36bc662864403,
perumahan,Komplek perumahan,Rumah Tante Rihanna,"F938+2G8, Madaprama, Kec. Woja, Kabupaten Dompu, Nusa Tenggara Bar. 84251","Madaprama, Kec. Woja, Kabupaten Dompu",NUSA TENGGARA BARAT,84251.0,Indonesia,,,,-85.473.262,1.183.663.476,https://maps.google.com/?cid=0x0:0xd1a05d8df4240bc0,
perumahan,Kantor Pemerintah,"Desa matua,kec,woja ,kabupaten dompu","FC3C+7MG, Kandai Dua, Kec. Woja, Kabupaten Dompu, Nusa Tenggara Bar.","Kabupaten Dompu, Nusa Tenggara Bar.",NUSA TENGGARA BARAT,,Indonesia,,,,-85.468.008,1.184.217.157,https://maps.google.com/?cid=0x0:0x6cb6e5b7f9b5cc6a,
perumahan,Gedung Apartemen,Rumah celine,"C93H+JWJ, Mumbu, Kec. Woja, Kabupaten Dompu, Nusa Tenggara Bar. 84251","Mumbu, Kec. Woja, Kabupaten Dompu",NUSA TENGGARA BARAT,84251.0,Indonesia,,,,-85.958.245,1.183.798.223,https://maps.google.com/?cid=0x0:0xadcacd0d5a80391e,
perumahan,Otoritas Perumahan,Mama Fizah,"CCFG+WC4, Wawonduru, Kec. Woja, Kabupaten Dompu, Nusa Tenggara Bar. 84219","Wawonduru, Kec. Woja, Kabupaten Dompu",NUSA TENGGARA BARAT,84219.0,Indonesia,,,,-85.752.291,1.184.260.924,https://maps.google.com/?cid=0x0:0x2446b50d03ab67af,
perumahan,Komplek perumahan,Rumah king,"CCXJ+7VF, Wawonduru, Kec. Woja, Kabupaten Dompu, Nusa Tenggara Bar.","Kabupaten Dompu, Nusa Tenggara Bar.",NUSA TENGGARA BARAT,,Indonesia,,,,-85.518.224,1.184.321.685,https://maps.google.com/?cid=0x0:0xa433681a94ecf941,
perumahan,Pembangunan Perumahan,Muhammad April,"F92V+F4J, Bara, Kec. Woja, Kabupaten Dompu, Nusa Tenggara Bar. 84251","Bara, Kec. Woja, Kabupaten Dompu",NUSA TENGGARA BARAT,84251.0,Indonesia,,,,-85.489.991,1.183.926.325,https://maps.google.com/?cid=0x0:0x5f2db576e5e219a5,
perumahan,Rumah Kaca,Rumah nanda,"QP68+P8F, Calabai, Kec. Pekat, Kabupaten Dompu, Nusa Tenggara Bar. 1","Kabupaten Dompu, Nusa Tenggara Bar.",NUSA TENGGARA BARAT,,Indonesia,,,,-8.238.184,117.715.797,https://maps.google.com/?cid=0x0:0xa6b044584aa6e741,
perumahan,Rumah Kaca,L.HIDAYAT,"RQV6+V8H, Nangamiro, Kec. Pekat, Kabupaten Dompu, Nusa Tenggara Bar. 84261","Nangamiro, Kec. Pekat, Kabupaten Dompu",NUSA TENGGARA BARAT,84261.0,Indonesia,,,,-81.553.901,1.177.616.224,https://maps.google.com/?cid=0x0:0xaa5ea0e12d2201b7,
perumahan,perumahan,Pekat,"Calabai, Kec. Pekat, Kabupaten Dompu, Nusa Tenggara Bar.","Kabupaten Dompu, Nusa Tenggara Bar.",NUSA TENGGARA BARAT,,Indonesia,,,,-8.238.184,117.715.797,https://maps.google.com/?cid=0x0:0x5890663b56067254,
perumahan,Komplek perumahan,Perumahan cibungbulang town hill (CITOH) BLOK D NO 5,"CM97+7RJ, Unnamed Road, Cibatok 1, Kec. Cibungbulang, Kabupaten Bogor, Jawa Barat 16630","Unnamed Road, Cibatok 1, Kec. Cibungbulang, Kabupaten Bogor",NUSA TENGGARA BARAT,16630.0,Indonesia,,,,-65.817.856,1.066.645.141,https://maps.google.com/?cid=0x0:0xb7604d16dce5c60b,
perumahan,Gedung Apartemen,Cibungbulang town hill,"Perumahan Jl. Citoh Raya, Cimanggu 2, Kec. Cibungbulang, Kabupaten Bogor, Jawa Barat 16630","Cimanggu 2, Kec. Cibungbulang, Kabupaten Bogor",NUSA TENGGARA BARAT,16630.0,Indonesia,85210333398,,,-65.743.299,1.066.657.368,https://maps.google.com/?cid=0x0:0x21555aa9812b6332,
perumahan,perumahan,Nusa Tenggara Bar. 84253,"Kec. Manggalewa, Kabupaten Dompu, Nusa Tenggara Bar.","Kabupaten Dompu, Nusa Tenggara Bar.",NUSA TENGGARA BARAT,,Indonesia,,,,-85.185.083,1.183.228.165,https://maps.google.com/?cid=0x0:0x478db1c8ad8f6b79,
perumahan,Pembangunan Perumahan,Manggelewa,"FC3W+R8F, Kandai Dua, Kec. Woja, Kabupaten Dompu, Nusa Tenggara Bar.","Kabupaten Dompu, Nusa Tenggara Bar.",NUSA TENGGARA BARAT,,Indonesia,,,,-8.545.437,118.445.801,https://maps.google.com/?cid=0x0:0xf95f74563e2bc15f,
perumahan,Kantor Pemerintah,Desa Banggo kec.manggelewa kab.Dompu,"F826+9FJ, Banggo, Kec. Manggalewa, Kabupaten Dompu, Nusa Tenggara Bar.","Kabupaten Dompu, Nusa Tenggara Bar.",NUSA TENGGARA BARAT,,Indonesia,,,,-85.490.438,1.183.111.262,https://maps.google.com/?cid=0x0:0x1e600b58dba5c233,
perumahan,Komplek perumahan,Rumah H Makmun,"G895+56, Nusa Jaya, Kec. Manggalewa, Kabupaten Dompu, Nusa Tenggara Bar. 84253","Nusa Jaya, Kec. Manggalewa, Kabupaten Dompu",NUSA TENGGARA BARAT,84253.0,Indonesia,,,,-84.820.363,118.308.057,https://maps.google.com/?cid=0x0:0x19190daab05d57b2,
perumahan,perumahan,Rumah muli,"G9X2+5R3, Tanju, Kec. Manggalewa, Kabupaten Dompu, Nusa Tenggara Bar. 84253","Tanju, Kec. Manggalewa, Kabupaten Dompu",NUSA TENGGARA BARAT,84253.0,Indonesia,,,,-84.521.077,1.183.520.389,https://maps.google.com/?cid=0x0:0xf9c830c223d4167f,
perumahan,Komplek perumahan,Febri,"G7J5+7CJ, Dusun jambu mente, Suka Damai, Kec. Manggalewa, Kabupaten Dompu, Nusa Tenggara Bar.","Kabupaten Dompu, Nusa Tenggara Bar.",NUSA TENGGARA BARAT,,Indonesia,,,,-84.692.988,1.182.585.096,https://maps.google.com/?cid=0x0:0x180bec957ed4c377,
perumahan,Rumah wisata,Rumah,"F87W+CFW, Persiapan Teka Sire, Kec. Manggalewa, Kabupaten Dompu, Nusa Tenggara Bar.","Kabupaten Dompu, Nusa Tenggara Bar.",NUSA TENGGARA BARAT,,Indonesia,,,,-85.363.958,1.183.461.948,https://maps.google.com/?cid=0x0:0x7d78a415d687fad9,
perumahan,Ladang Angin,Tempat jagung,"G8MV+27V, Lanci Jaya, Kec. Manggalewa, Kabupaten Dompu, Nusa Tenggara Bar. 84253","Lanci Jaya, Kec. Manggalewa, Kabupaten Dompu",NUSA TENGGARA BARAT,84253.0,Indonesia,,,,-84.673.975,1.183.431.841,https://maps.google.com/?cid=0x0:0x9f9eefc90c36110e,
perumahan,Komplek perumahan,Rumah H. Ismail tanju,"G8JV+2MM, Lanci Jaya, Kec. Manggalewa, Kabupaten Dompu, Nusa Tenggara Bar. 84253","Lanci Jaya, Kec. Manggalewa, Kabupaten Dompu",NUSA TENGGARA BARAT,84253.0,Indonesia,,,,-84.699.137,1.183.441.757,https://maps.google.com/?cid=0x0:0x9403a2ec95c7b14a,
perumahan,Perhimpunan Pengembang Perumahan,Dsn samakai desa sukadamai kec. Manggelewa kab. Dompu,"G78J+VC5, Jl. Sukadamai 2, Suka Damai, Kec. Manggalewa, Kabupaten Dompu, Nusa Tenggara Bar. 84383","Jl. Sukadamai 2, Suka Damai, Kec. Manggalewa, Kabupaten Dompu",NUSA TENGGARA BARAT,84383.0,Indonesia,,,,-84.828.593,1.182.811.009,https://maps.google.com/?cid=0x0:0x157f835b24bf259b,
perumahan,Pembangunan Perumahan,Balen inak zen,"G868+76X, Lanci Jaya, Kec. Manggalewa, Kabupaten Dompu, Nusa Tenggara Bar. 84253","Lanci Jaya, Kec. Manggalewa, Kabupaten Dompu",NUSA TENGGARA BARAT,84253.0,Indonesia,,,,-84.892.678,1.183.155.964,https://maps.google.com/?cid=0x0:0x2ade52618b7774e8,
perumahan,Perhimpunan Pengembang Perumahan,Rumah,"G73Q+M52, Suka Damai, Kec. Manggalewa, Kabupaten Dompu, Nusa Tenggara Bar. 84253","Suka Damai, Kec. Manggalewa, Kabupaten Dompu",NUSA TENGGARA BARAT,84253.0,Indonesia,,,,-84.961.734,1.182.872.284,https://maps.google.com/?cid=0x0:0xca0920f096d2f968,
perumahan,Pembangunan Perumahan,Eva juwita,"G886+7XJ, Nusa Jaya, Kec. Manggalewa, Kabupaten Dompu, Nusa Tenggara Bar.","Kabupaten Dompu, Nusa Tenggara Bar.",NUSA TENGGARA BARAT,,Indonesia,,,,-84.842.831,1.183.123.821,https://maps.google.com/?cid=0x0:0xa016c74e98d70545,
perumahan,Perhimpunan Pengembang Perumahan,S.P.A,"G7CP+HJF, Suka Damai, Kec. Manggalewa, Kabupaten Dompu, Nusa Tenggara Bar. 84383","Suka Damai, Kec. Manggalewa, Kabupaten Dompu",NUSA TENGGARA BARAT,84383.0,Indonesia,,,,-8.479.875,118.286.842,https://maps.google.com/?cid=0x0:0xc95bbce2b13bb142,
perumahan,Komplek perumahan,Rumah fatur,"Jl. Lintas Sumbawa - Bima No.501, Soriutu, Kec. Manggalewa, Kabupaten Dompu, Nusa Tenggara Bar. 84253","Soriutu, Kec. Manggalewa, Kabupaten Dompu",NUSA TENGGARA BARAT,84253.0,Indonesia,,,,-85.200.184,1.183.275.771,https://maps.google.com/?cid=0x0:0x9111716344eb727a,
perumahan,Rumah Sakit,Rumah Sakit Pratama Manggelewa,"Jl. Lintas Calabai, Doromelo, Kec. Manggalewa, Kabupaten Dompu, Nusa Tenggara Bar. 84253","Doromelo, Kec. Manggalewa, Kabupaten Dompu",NUSA TENGGARA BARAT,84253.0,Indonesia,,,,-85.186.912,1.183.114.511,https://maps.google.com/?cid=0x0:0xbaa2d9bb1512d8cf,
perumahan,Komplek perumahan,Rumah indra damsud,"G77X+9GP, Lanci Jaya, Kec. Manggalewa, Kabupaten Dompu, Nusa Tenggara Bar. 84253","Lanci Jaya, Kec. Manggalewa, Kabupaten Dompu",NUSA TENGGARA BARAT,84253.0,Indonesia,,,,-84.857.966,1.182.988.776,https://maps.google.com/?cid=0x0:0x2e36c5d4b93d9ef2,
perumahan,Komplek perumahan,Lalu.agus wendi,"G8J3+PWR, Kampas Meci, Kec. Manggalewa, Kabupaten Dompu, Nusa Tenggara Bar. 84253","Kampas Meci, Kec. Manggalewa, Kabupaten Dompu",NUSA TENGGARA BARAT,84253.0,Indonesia,,,,-84.681.441,1.183.047.573,https://maps.google.com/?cid=0x0:0xfbac8d684a6afec6,
perumahan,Perhimpunan Pengembang Perumahan,Rumah Amirudin,"G8GV+C54, Tanju, Kec. Manggalewa, Kabupaten Dompu, Nusa Tenggara Bar. 84253","Tanju, Kec. Manggalewa, Kabupaten Dompu",NUSA TENGGARA BARAT,84253.0,Indonesia,,,,-84.717.263,1.183.441.311,https://maps.google.com/?cid=0x0:0x31dd9a9bfe1241e5,
perumahan,Komplek perumahan,Rumah Abang Daffa (Tiga Bersaudara),"G99M+9M3, Nowa, Kec. Woja, Kabupaten Dompu, Nusa Tenggara Bar.","Kabupaten Dompu, Nusa Tenggara Bar.",NUSA TENGGARA BARAT,,Indonesia,,,,-84.816.142,1.183.841.777,https://maps.google.com/?cid=0x0:0x37f8f83eb983c03e,
perumahan,Pembangunan Perumahan,Lanci 1,"G72X+GMF, Jl. Raya Manggalewa-Kore, Suka Damai, Kec. Manggalewa, Kabupaten Dompu, Nusa Tenggara Bar. 84253","Jl. Raya Manggalewa-Kore, Suka Damai, Kec. Manggalewa, Kabupaten Dompu",NUSA TENGGARA BARAT,84253.0,Indonesia,,,,-84.986.772,1.182.991.725,https://maps.google.com/?cid=0x0:0x94336ad39d350a7d,
perumahan,Perhimpunan Pengembang Perumahan,Rumah Aripin,"G74J+FR2, Jl. Lintas Kilo, Suka Damai, Kec. Manggalewa, Kabupaten Dompu, Nusa Tenggara Bar. 84253","Jl. Lintas Kilo, Suka Damai, Kec. Manggalewa, Kabupaten Dompu",NUSA TENGGARA BARAT,84253.0,Indonesia,,,,-84.938.588,1.182.820.189,https://maps.google.com/?cid=0x0:0xeac280e2bcac1aae,
perumahan,Komplek perumahan,Dusun Rinjani timur,"G877+RV9, Nusa Jaya, Kec. Manggalewa, Kabupaten Dompu, Nusa Tenggara Bar. 84253","Nusa Jaya, Kec. Manggalewa, Kabupaten Dompu",NUSA TENGGARA BARAT,84253.0,Indonesia,,,,-8.484.423,118.316.011,https://maps.google.com/?cid=0x0:0x7b1dd8e6752a0038,
perumahan,Komplek perumahan,AZHARI DM,"G79P+7RX, Suka Damai, Kec. Manggalewa, Kabupaten Dompu, Nusa Tenggara Bar. 84383","Suka Damai, Kec. Manggalewa, Kabupaten Dompu",NUSA TENGGARA BARAT,84383.0,Indonesia,,,,-84.817.626,1.182.871.053,https://maps.google.com/?cid=0x0:0x7e625daabe98f38b,
perumahan,Pembangunan Perumahan,Dompu manggalewa,"F826+9FJ, Cabang, Banggo, Kec. Manggalewa, Kabupaten Dompu, Nusa Tenggara Bar.","Kabupaten Dompu, Nusa Tenggara Bar.",NUSA TENGGARA BARAT,,Indonesia,,,,-85.490.438,1.183.111.262,https://maps.google.com/?cid=0x0:0xdfb46ae2b310907d,
perumahan,Rumah Sakit,UPTB KB Manggelewa,"F8GM+CXQ, Persiapan Teka Sire, Kec. Manggalewa, Kabupaten Dompu, Nusa Tenggara Bar. 84253","Persiapan Teka Sire, Kec. Manggalewa, Kabupaten Dompu",NUSA TENGGARA BARAT,84253.0,Indonesia,,,,-85.239.152,1.183.349.905,https://maps.google.com/?cid=0x0:0xaa80dd126c1a9d70,
perumahan,perumahan,Nusa Tenggara Bar. 84272,"Kec. Pajo, Kabupaten Dompu, Nusa Tenggara Bar.","Kabupaten Dompu, Nusa Tenggara Bar.",NUSA TENGGARA BARAT,,Indonesia,,,,-86.347.113,1.184.747.173,https://maps.google.com/?cid=0x0:0x2f0ce72fb3d1b4f4,
perumahan,Komplek perumahan,Rumah saya,"8FJC+2WQ, Ranggo, Kec. Pajo, Kabupaten Dompu, Nusa Tenggara Bar. 84272","Ranggo, Kec. Pajo, Kabupaten Dompu",NUSA TENGGARA BARAT,84272.0,Indonesia,,,,-86.699.179,1.184.723.628,https://maps.google.com/?cid=0x0:0x8d92759e4d7de48c,
perumahan,Komplek perumahan,RUMAH YANTI USAMAH,"CFFP+MQ4, Lepadi, Kec. Pajo, Kabupaten Dompu, Nusa Tenggara Bar.","Kabupaten Dompu, Nusa Tenggara Bar.",NUSA TENGGARA BARAT,,Indonesia,,,,-85.758.746,118.486.949,https://maps.google.com/?cid=0x0:0xfa0f98d3765ab9da,
perumahan,Pembangunan Perumahan,Abang Senggol,"9F22+RM, Lune, Kec. Pajo, Kabupaten Dompu, Nusa Tenggara Bar. 84272","Lune, Kec. Pajo, Kabupaten Dompu",NUSA TENGGARA BARAT,84272.0,Indonesia,,,,-86.486.771,1.184.512.917,https://maps.google.com/?cid=0x0:0xb4be9cb721ed191b,
perumahan,Komplek perumahan,McComo,"Lepadi, Kec. Pajo, Kabupaten Dompu, Nusa Tenggara Bar.","Kabupaten Dompu, Nusa Tenggara Bar.",NUSA TENGGARA BARAT,,Indonesia,,,,-85.754.572,1.184.879.374,https://maps.google.com/?cid=0x0:0x7874fd4f69482de6,
perumahan,Pembangunan Perumahan,Rumah,"9FRR+92J, Jl. Lintas Lakey, Ranggo, Kec. Pajo, Kabupaten Dompu, Nusa Tenggara Bar. 84272","Jl. Lintas Lakey, Ranggo, Kec. Pajo, Kabupaten Dompu",NUSA TENGGARA BARAT,84272.0,Indonesia,,,,-86.093.899,1.184.901.476,https://maps.google.com/?cid=0x0:0xf0bef3418301abc2,
perumahan,Komplek perumahan,RUMAH Firman,"9FRQ+3J3, Dusun lawiti, Desa tembalae, Kec. Pajo, Kabupaten Dompu, Nusa Tenggara Bar. 84272","Dusun lawiti, Desa tembalae, Kec. Pajo, Kabupaten Dompu",NUSA TENGGARA BARAT,84272.0,Indonesia,,,,-86.097.734,1.184.887.196,https://maps.google.com/?cid=0x0:0xaaf25d4a67a880ff,
perumahan,Komplek perumahan,UMA LA ARON,"CFMM+VC9, Dusun Jati, Lepadi, Kec. Pajo, Kabupaten Dompu, Nusa Tenggara Bar. 84214","Dusun Jati, Lepadi, Kec. Pajo, Kabupaten Dompu",NUSA TENGGARA BARAT,84214.0,Indonesia,,,,-85.652.383,1.184.842.933,https://maps.google.com/?cid=0x0:0x503972f955bf4f29,
perumahan,Komplek perumahan,Rumah zakira,"Ranggo, Kec. Pajo, Kabupaten Dompu, Nusa Tenggara Bar. 84272","Kec. Pajo, Kabupaten Dompu",NUSA TENGGARA BARAT,84272.0,Indonesia,,,,-86.086.321,1.184.906.709,https://maps.google.com/?cid=0x0:0x80580edfc0bd00d8,
perumahan,Pembangunan Perumahan,Ifan Setiawan,"9FQQ+PH3, Ranggo, Kec. Pajo, Kabupaten Dompu, Nusa Tenggara Bar. 84272","Ranggo, Kec. Pajo, Kabupaten Dompu",NUSA TENGGARA BARAT,84272.0,Indonesia,,,,-86.107.242,1.184.891.481,https://maps.google.com/?cid=0x0:0x1672933a82c72844,
perumahan,Pembangunan Perumahan,Rumah din,"8C8M+R2F, Jambu, Kec. Pajo, Kabupaten Dompu, Nusa Tenggara Bar.","Kabupaten Dompu, Nusa Tenggara Bar.",NUSA TENGGARA BARAT,,Indonesia,,,,-86.829.352,1.184.325.361,https://maps.google.com/?cid=0x0:0x55edee1870e18a13,
perumahan,Pembangunan Perumahan,Afgian,"8FRM+33, Upt Woko, Kec. Pajo, Kabupaten Dompu, Nusa Tenggara Bar.","Kabupaten Dompu, Nusa Tenggara Bar.",NUSA TENGGARA BARAT,,Indonesia,,,,-86.598.692,1.184.826.001,https://maps.google.com/?cid=0x0:0x81a0b7240976547c,
perumahan,Komplek perumahan,Halaman rumah,"9C2W+3WC, Jl. Lintas Jambu, Lune, Kec. Pajo, Kabupaten Dompu, Nusa Tenggara Bar. 84272","Jl. Lintas Jambu, Lune, Kec. Pajo, Kabupaten Dompu",NUSA TENGGARA BARAT,84272.0,Indonesia,,,,-86.497.987,11.844.728,https://maps.google.com/?cid=0x0:0x248e2b8426e4c3e,
perumahan,Pembangunan Perumahan,So la tue,"CF2Q+C55, Jl. Lintas Felo Janga, Ranggo, Kec. Pajo, Kabupaten Dompu, Nusa Tenggara Bar. 84272","Jl. Lintas Felo Janga, Ranggo, Kec. Pajo, Kabupaten Dompu",NUSA TENGGARA BARAT,84272.0,Indonesia,,,,-85.989.983,1.184.879.767,https://maps.google.com/?cid=0x0:0xd5aacbe75fc523bc,
perumahan,perumahan,Pache Fishing House,"9FCQ+F3P, Jl. Lintas Lakey, Ranggo, Kec. Pajo, Kabupaten Dompu, Nusa Tenggara Bar. 84272","Jl. Lintas Lakey, Ranggo, Kec. Pajo, Kabupaten Dompu",NUSA TENGGARA BARAT,84272.0,Indonesia,,,,-86.287.898,1.184.877.079,https://maps.google.com/?cid=0x0:0x597b68d02e320afc,
perumahan,Komplek perumahan,Uma la loge Dou manae kai lawiti,"9FQQ+PH3, Ranggo, Kec. Pajo, Kabupaten Dompu, Nusa Tenggara Bar. 84272","Ranggo, Kec. Pajo, Kabupaten Dompu",NUSA TENGGARA BARAT,84272.0,Indonesia,,,,-86.104.805,1.184.894.428,https://maps.google.com/?cid=0x0:0x2113d0cba7cb4541,
perumahan,Pembangunan Perumahan,Uma la Angga (Ubha),"9FQQ+CV9, TembaLae, Kec. Pajo, Kabupaten Dompu, Nusa Tenggara Bar. 84272","TembaLae, Kec. Pajo, Kabupaten Dompu",NUSA TENGGARA BARAT,84272.0,Indonesia,,,,-86.114.163,1.184.897.066,https://maps.google.com/?cid=0x0:0xb95027f549b670f0,
perumahan,Pembangunan Perumahan,Suhadi Saputra,"CFFP+GQC, Lepadi, Kec. Pajo, Kabupaten Dompu, Nusa Tenggara Bar. 84219","Lepadi, Kec. Pajo, Kabupaten Dompu",NUSA TENGGARA BARAT,84219.0,Indonesia,,,,-85.761.793,118.486.885,https://maps.google.com/?cid=0x0:0x69beeb739ef03605,
perumahan,Komplek perumahan,Hendratno,"CFFP+VMJ, Lepadi, Kec. Pajo, Kabupaten Dompu, Nusa Tenggara Bar. 84219","Lepadi, Kec. Pajo, Kabupaten Dompu",NUSA TENGGARA BARAT,84219.0,Indonesia,,,,-85.752.789,1.184.866.426,https://maps.google.com/?cid=0x0:0x11dfce6e4e99d841,
perumahan,Komplek perumahan,Hak Milik M.Yasin Idi,"8CXR+JW, Jambu, Kec. Pajo, Kabupaten Dompu, Nusa Tenggara Bar. 84272","Jambu, Kec. Pajo, Kabupaten Dompu",NUSA TENGGARA BARAT,84272.0,Indonesia,,,,-86.508.995,1.184.423.472,https://maps.google.com/?cid=0x0:0xbaa569c7dba8b08c,
perumahan,Pembangunan Perumahan,Uma la fadli,"8CXP+R5H, Jl. Lintas Jambu, Jambu, Kec. Pajo, Kabupaten Dompu, Nusa Tenggara Bar. 84272","Jl. Lintas Jambu, Jambu, Kec. Pajo, Kabupaten Dompu",NUSA TENGGARA BARAT,84272.0,Indonesia,,,,-86.503.486,1.184.344.646,https://maps.google.com/?cid=0x0:0x9b85846fb2cfbe35,
perumahan,Komplek perumahan,Ainun Qhulbi's House,"9FJR+V66, Temba Lae, Kec. Pajo, Kabupaten Dompu, Nusa Tenggara Bar. 84272","Temba Lae, Kec. Pajo, Kabupaten Dompu",NUSA TENGGARA BARAT,84272.0,Indonesia,,,,-86.178.122,1.184.908.533,https://maps.google.com/?cid=0x0:0x237c27c72da97c12,
perumahan,Komplek perumahan,Ela Ayudiaa's House,"9FPR+CP3, Ranggo, Kec. Pajo, Kabupaten Dompu, Nusa Tenggara Bar. 84272","Ranggo, Kec. Pajo, Kabupaten Dompu",NUSA TENGGARA BARAT,84272.0,Indonesia,,,,-86.139.785,1.184.917.914,https://maps.google.com/?cid=0x0:0x81c2ed40e37d647d,
