Category,Real Category,Business Name,Address,City,State,Postal Code,Country,Phone,Email,Website,Latitude,Longitude,Map Link,Details Link
hotel,hotel,Kec. Wawonii Bar.,"Konawe Kepulauan, Sulawesi Tenggara","Konawe Kepulauan, Sulawesi Tenggara",SULAWESI TENGGARA,,Indonesia,,,,-4.0251097,122.9901229,https://maps.google.com/?cid=0x0:0xbda035363ef97b99,
hotel,hotel,Hotel Wonua Monapa,"WCWW+88X, Jl. Poros Bandara Haluoleo, Ranooha, Kec. Ranomeeto, Kabupaten Konawe Selatan, Sulawesi Tenggara 93871","Jl. Poros Bandara Haluoleo, Ranooha, Kec. Ranomeeto, Kabupaten Konawe Selatan",SULAWESI TENGGARA,93871.0,Indonesia,4013196900.0,,,-4.05582,122.446666,https://maps.google.com/?cid=0x0:0x55056e76d27f6ff9,
hotel,hotel,SAWA BEACH RESORT,"Ds, RW.Pekarooa, Matanggonawe, Kec. Sawa, Kabupaten Konawe Utara, Sulawesi Tenggara 93352","RW.Pekarooa, Matanggonawe, Kec. Sawa, Kabupaten Konawe Utara",SULAWESI TENGGARA,93352.0,Indonesia,8114056864.0,,,-3.783229,122.4511684,https://maps.google.com/?cid=0x0:0x21bbabf4006bce95,
hotel,Pondok,Hotel WAHALA,"XXHV+68C, Unnamed Road, Langara Laut, Kec. Wawonii Bar., Konawe Kepulauan, Sulawesi Tenggara 93393","Unnamed Road, Langara Laut, Kec. Wawonii Bar., Konawe Kepulauan",SULAWESI TENGGARA,93393.0,Indonesia,85212300200.0,,,-4.0219377,122.9932642,https://maps.google.com/?cid=0x0:0x37b198084c4e169d,
hotel,Pondok,Penginapan Aprilia,"XXFQ+236, Unnamed Road, Mata Langara, Wawonii Barat, Konawe Islands Regency, South East Sulawesi 93393","Unnamed Road, Mata Langara, Wawonii Barat, Konawe Islands Regency",SULAWESI TENGGARA,93393.0,Indonesia,85398810246.0,,,-4.0274551,122.9876374,https://maps.google.com/?cid=0x0:0xa85a4564b25f05e2,
hotel,Hotel,Wisma Puncak Permata Biru,"XXHW+3X4, Bar., Langara Indah, Kec. Wawonii Bar., Kabupaten Konawe, Sulawesi Tenggara 93393","Bar., Langara Indah, Kec. Wawonii Bar., Kabupaten Konawe",SULAWESI TENGGARA,93393.0,Indonesia,81341522263.0,,,-4.0223679,122.9974395,https://maps.google.com/?cid=0x0:0x17c70010775b8489,
hotel,Hotel,Hotel Delta Resident,"XXGX+GQ9, Langara Laut, Kec. Wawonii Bar., Konawe Kepulauan, Sulawesi Tenggara 93393","Langara Laut, Kec. Wawonii Bar., Konawe Kepulauan",SULAWESI TENGGARA,93393.0,Indonesia,81245764342.0,,,-4.0237182,122.9994894,https://maps.google.com/?cid=0x0:0xd2b43c8beebf592e,
hotel,Hostel,Riskial Hotel,"XXFQ+PVM, Unnamed Road, Langara Iwawo, Wawonii Barat, Konawe Islands Regency, South East Sulawesi 93393","Unnamed Road, Langara Iwawo, Wawonii Barat, Konawe Islands Regency",SULAWESI TENGGARA,93393.0,Indonesia,,,,-4.0256728,122.9896752,https://maps.google.com/?cid=0x0:0x1bcab6840dcbc520,
hotel,Hotel,Penginapan Lensea,"Mata Langara, Langara Laut, Sulawesi Tenggara 93391",Langara Laut,SULAWESI TENGGARA,93391.0,Indonesia,81245558060.0,,,-4.0288457,122.9884879,https://maps.google.com/?cid=0x0:0x8ef6914880810231,
hotel,Hotel,Hotel Rezky,"XXFR+X25, Desa Lantula, Kec. Wawonii Bar., Konawe Kepulauan, Sulawesi Tenggara","Konawe Kepulauan, Sulawesi Tenggara",SULAWESI TENGGARA,,Indonesia,,,,-4.0251097,122.9901229,https://maps.google.com/?cid=0x0:0x92a8fda9430a5b96,
hotel,Hostel,Penginapan Aulia,"XXCQ+PX5, Bar.,, Lamoluo, Kec. Wawonii Bar., Kabupaten Konawe, Sulawesi Tenggara 93393","Bar.,, Lamoluo, Kec. Wawonii Bar., Kabupaten Konawe",SULAWESI TENGGARA,93393.0,Indonesia,81356589758.0,,,-4.0282484,122.9899912,https://maps.google.com/?cid=0x0:0xc88473c99215b4ee,
hotel,Rumah wisata,Rumah Kost Asmila,"XXJW+892, Langaro Bajo, Kec. Wawonii Bar., Kabupaten Konawe, Sulawesi Tenggara","Kabupaten Konawe, Sulawesi Tenggara",SULAWESI TENGGARA,,Indonesia,,,,-4.0187212,122.9958188,https://maps.google.com/?cid=0x0:0x98b2eb85a7f38520,
hotel,hotel,Kec. Wawonii Sel.,"Konawe Kepulauan, Sulawesi Tenggara","Konawe Kepulauan, Sulawesi Tenggara",SULAWESI TENGGARA,,Indonesia,,,,-4.2028994,123.010426,https://maps.google.com/?cid=0x0:0xb39af7237da21d46,
hotel,Pondok,Hotel WAHALA,"XXHV+68C, Unnamed Road, Langara Laut, Kec. Wawonii Bar., Konawe Kepulauan, Sulawesi Tenggara 93393","Unnamed Road, Langara Laut, Kec. Wawonii Bar., Konawe Kepulauan",SULAWESI TENGGARA,93393.0,Indonesia,85212300200.0,,,-4.0219377,122.9932642,https://maps.google.com/?cid=0x0:0x37b198084c4e169d,
hotel,Hotel,Hotel Delta Resident,"XXGX+GQ9, Langara Laut, Kec. Wawonii Bar., Konawe Kepulauan, Sulawesi Tenggara 93393","Langara Laut, Kec. Wawonii Bar., Konawe Kepulauan",SULAWESI TENGGARA,93393.0,Indonesia,81245764342.0,,,-4.0237182,122.9994894,https://maps.google.com/?cid=0x0:0xd2b43c8beebf592e,
hotel,hotel,Hotel Wonua Monapa,"WCWW+88X, Jl. Poros Bandara Haluoleo, Ranooha, Kec. Ranomeeto, Kabupaten Konawe Selatan, Sulawesi Tenggara 93871","Jl. Poros Bandara Haluoleo, Ranooha, Kec. Ranomeeto, Kabupaten Konawe Selatan",SULAWESI TENGGARA,93871.0,Indonesia,4013196900.0,,,-4.05582,122.446666,https://maps.google.com/?cid=0x0:0x55056e76d27f6ff9,
hotel,hotel,Hotel Qubah 9 Kendari,"Jl. Martandu No.99A, Kambu, Kec. Kambu, Kota Kendari, Sulawesi Tenggara 93231","Kambu, Kec. Kambu, Kota Kendari",SULAWESI TENGGARA,93231.0,Indonesia,4013136047.0,,,-4.0082509,122.5345007,https://maps.google.com/?cid=0x0:0x16da52124c17b9e7,
hotel,hotel,SAWA BEACH RESORT,"Ds, RW.Pekarooa, Matanggonawe, Kec. Sawa, Kabupaten Konawe Utara, Sulawesi Tenggara 93352","RW.Pekarooa, Matanggonawe, Kec. Sawa, Kabupaten Konawe Utara",SULAWESI TENGGARA,93352.0,Indonesia,8114056864.0,,,-3.783229,122.4511684,https://maps.google.com/?cid=0x0:0x21bbabf4006bce95,
hotel,hotel,Hotel Wixel,"Jl. Edi Sabara, Lahundape, Kec. Kendari Bar., Kota Kendari, Sulawesi Tenggara 93121","Lahundape, Kec. Kendari Bar., Kota Kendari",SULAWESI TENGGARA,93121.0,Indonesia,4013367789.0,,,-3.9683395,122.5311781,https://maps.google.com/?cid=0x0:0x44afc4fbdf6300cb,
hotel,Hostel,Penginapan Grand Indah,"XXFR+V4Q, Unnamed Road, Langara Iwawo, Kec. Wawonii Bar., Konawe Kepulauan, Sulawesi Tenggara 93393","Unnamed Road, Langara Iwawo, Kec. Wawonii Bar., Konawe Kepulauan",SULAWESI TENGGARA,93393.0,Indonesia,,,,-4.0252975,122.9903565,https://maps.google.com/?cid=0x0:0xd016faba46fd1831,
hotel,Pondok,Penginapan Aprilia,"XXFQ+236, Unnamed Road, Mata Langara, Wawonii Barat, Konawe Islands Regency, South East Sulawesi 93393","Unnamed Road, Mata Langara, Wawonii Barat, Konawe Islands Regency",SULAWESI TENGGARA,93393.0,Indonesia,85398810246.0,,,-4.0274551,122.9876374,https://maps.google.com/?cid=0x0:0xa85a4564b25f05e2,
hotel,hotel,Kec. Wawonii Tengah,"Konawe Kepulauan, Sulawesi Tenggara","Konawe Kepulauan, Sulawesi Tenggara",SULAWESI TENGGARA,,Indonesia,,,,-4.1312287,122.9691468,https://maps.google.com/?cid=0x0:0x3815a4df92a01d0a,
hotel,Pondok,Hotel WAHALA,"XXHV+68C, Unnamed Road, Langara Laut, Kec. Wawonii Bar., Konawe Kepulauan, Sulawesi Tenggara 93393","Unnamed Road, Langara Laut, Kec. Wawonii Bar., Konawe Kepulauan",SULAWESI TENGGARA,93393.0,Indonesia,85212300200.0,,,-4.0219377,122.9932642,https://maps.google.com/?cid=0x0:0x37b198084c4e169d,
hotel,Hostel,Penginapan Grand Indah,"XXFR+V4Q, Unnamed Road, Langara Iwawo, Kec. Wawonii Bar., Konawe Kepulauan, Sulawesi Tenggara 93393","Unnamed Road, Langara Iwawo, Kec. Wawonii Bar., Konawe Kepulauan",SULAWESI TENGGARA,93393.0,Indonesia,,,,-4.0252975,122.9903565,https://maps.google.com/?cid=0x0:0xd016faba46fd1831,
hotel,Pondok,Penginapan Aprilia,"XXFQ+236, Unnamed Road, Mata Langara, Wawonii Barat, Konawe Islands Regency, South East Sulawesi 93393","Unnamed Road, Mata Langara, Wawonii Barat, Konawe Islands Regency",SULAWESI TENGGARA,93393.0,Indonesia,85398810246.0,,,-4.0274551,122.9876374,https://maps.google.com/?cid=0x0:0xa85a4564b25f05e2,
hotel,hotel,Kec. Wawonii Tenggara,"Konawe Kepulauan, Sulawesi Tenggara","Konawe Kepulauan, Sulawesi Tenggara",SULAWESI TENGGARA,,Indonesia,,,,-4.252093,123.0993267,https://maps.google.com/?cid=0x0:0xe1036d4655923fdc,
hotel,hotel,Hotel Qubah 9 Kendari,"Jl. Martandu No.99A, Kambu, Kec. Kambu, Kota Kendari, Sulawesi Tenggara 93231","Kambu, Kec. Kambu, Kota Kendari",SULAWESI TENGGARA,93231.0,Indonesia,4013136047.0,,,-4.0082509,122.5345007,https://maps.google.com/?cid=0x0:0x16da52124c17b9e7,
hotel,hotel,Horison Hotel Kendari,"Jl. Jend. Ahmad Yani No.3, Bende, Kec. Kadia, Kota Kendari, Sulawesi Tenggara 93117","Bende, Kec. Kadia, Kota Kendari",SULAWESI TENGGARA,93117.0,Indonesia,4013127999.0,,,-3.9778936,122.5125375,https://maps.google.com/?cid=0x0:0xd26cbc730b3c5ecd,
hotel,hotel,SAWA BEACH RESORT,"Ds, RW.Pekarooa, Matanggonawe, Kec. Sawa, Kabupaten Konawe Utara, Sulawesi Tenggara 93352","RW.Pekarooa, Matanggonawe, Kec. Sawa, Kabupaten Konawe Utara",SULAWESI TENGGARA,93352.0,Indonesia,8114056864.0,,,-3.783229,122.4511684,https://maps.google.com/?cid=0x0:0x21bbabf4006bce95,
hotel,hotel,,,,SULAWESI TENGGARA,,Indonesia,,,,,,https://maps.google.com/?cid=0x0:0x8e90cd3d68630781%7C/g/1q6h_32yx%7Cen-ID,
hotel,hotel,CLARO Kendari,"Jl. Edi Sabara No.89, Lahundape, Kec. Kendari Bar., Kota Kendari, Sulawesi Tenggara 93231","Lahundape, Kec. Kendari Bar., Kota Kendari",SULAWESI TENGGARA,93231.0,Indonesia,4013111888.0,,,-3.9701221,122.5282575,https://maps.google.com/?cid=0x0:0x8e90cd3d68630781,
hotel,hotel,Hotel Wonua Monapa,"WCWW+88X, Jl. Poros Bandara Haluoleo, Ranooha, Kec. Ranomeeto, Kabupaten Konawe Selatan, Sulawesi Tenggara 93871","Jl. Poros Bandara Haluoleo, Ranooha, Kec. Ranomeeto, Kabupaten Konawe Selatan",SULAWESI TENGGARA,93871.0,Indonesia,4013196900.0,,,-4.05582,122.446666,https://maps.google.com/?cid=0x0:0x55056e76d27f6ff9,
hotel,hotel,Hotel Anawai Baruga,"XF2J+86M, Baruga, Kec. Baruga, Kota Kendari, Sulawesi Tenggara 93870","Baruga, Kec. Baruga, Kota Kendari",SULAWESI TENGGARA,93870.0,Indonesia,,,,-4.049768,122.4813139,https://maps.google.com/?cid=0x0:0xe577126f84756c02,
hotel,hotel,Hotel Mulia Kendari,"Jl. Saranani No.95, Korumba, Kec. Mandonga, Kota Kendari, Sulawesi Tenggara 93461","Korumba, Kec. Mandonga, Kota Kendari",SULAWESI TENGGARA,93461.0,Indonesia,895417300072.0,,,-3.97062,122.5201697,https://maps.google.com/?cid=0x0:0x969a857d0b649ea9,
hotel,hotel,Hotel Dewa Bintang 2,"Jl. Tebaonunggu No.17, Mandonga, Kec. Kendari, Kota Kendari, Sulawesi Tenggara 93111","Mandonga, Kec. Kendari, Kota Kendari",SULAWESI TENGGARA,93111.0,Indonesia,4013126799.0,,,-3.9651662,122.517495,https://maps.google.com/?cid=0x0:0x6a608f24d97621c5,
hotel,hotel,Hotel Viranza,"Jl. Made Sabara, Korumba, Kec. Mandonga, Kota Kendari, Sulawesi Tenggara 93111","Korumba, Kec. Mandonga, Kota Kendari",SULAWESI TENGGARA,93111.0,Indonesia,,,,-3.9745281,122.519844,https://maps.google.com/?cid=0x0:0xee5821e616c83bbf,
hotel,hotel,Inawa Homestay Syariah,"Kadia, Kec. Kadia, Kota Kendari, Sulawesi Tenggara 93115","Kec. Kadia, Kota Kendari",SULAWESI TENGGARA,93115.0,Indonesia,895417300072.0,,,-3.9834337,122.5007458,https://maps.google.com/?cid=0x0:0x6a616b7de96f2fca,
hotel,hotel,Airy Mandonga Edi Sabara 9 Kendari,"Jl. Edi Sabara No.9, Korumba, Kec. Mandonga, Kota Kendari, Sulawesi Tenggara 93461","Korumba, Kec. Mandonga, Kota Kendari",SULAWESI TENGGARA,93461.0,Indonesia,8041112479.0,,,-3.9703818,122.527997,https://maps.google.com/?cid=0x0:0x8fef183e7aae60e0,
hotel,hotel,,,,SULAWESI TENGGARA,,Indonesia,,,,,,https://maps.google.com/?cid=0x0:0x8fef183e7aae60e0%7C/g/11f7669mtt%7Cen-ID,
hotel,hotel,Sulawesi Tenggara 93393,"Konawe Kepulauan, Sulawesi Tenggara","Konawe Kepulauan, Sulawesi Tenggara",SULAWESI TENGGARA,,Indonesia,,,,-4.0664588,123.1239049,https://maps.google.com/?cid=0x0:0xf20c69a9e2bf97eb,
hotel,Hostel,Penginapan Grand Indah,"XXFR+V4Q, Unnamed Road, Langara Iwawo, Kec. Wawonii Bar., Konawe Kepulauan, Sulawesi Tenggara 93393","Unnamed Road, Langara Iwawo, Kec. Wawonii Bar., Konawe Kepulauan",SULAWESI TENGGARA,93393.0,Indonesia,,,,-4.0252975,122.9903565,https://maps.google.com/?cid=0x0:0xd016faba46fd1831,
hotel,Pondok,Hotel WAHALA,"XXHV+68C, Unnamed Road, Langara Laut, Kec. Wawonii Bar., Konawe Kepulauan, Sulawesi Tenggara 93393","Unnamed Road, Langara Laut, Kec. Wawonii Bar., Konawe Kepulauan",SULAWESI TENGGARA,93393.0,Indonesia,85212300200.0,,,-4.0219377,122.9932642,https://maps.google.com/?cid=0x0:0x37b198084c4e169d,
hotel,Hotel,Wisma Puncak Permata Biru,"XXHW+3X4, Bar., Langara Indah, Kec. Wawonii Bar., Kabupaten Konawe, Sulawesi Tenggara 93393","Bar., Langara Indah, Kec. Wawonii Bar., Kabupaten Konawe",SULAWESI TENGGARA,93393.0,Indonesia,81341522263.0,,,-4.0223679,122.9974395,https://maps.google.com/?cid=0x0:0x17c70010775b8489,
hotel,Hostel,Riskial Hotel,"XXFQ+PVM, Unnamed Road, Langara Iwawo, Wawonii Barat, Konawe Islands Regency, South East Sulawesi 93393","Unnamed Road, Langara Iwawo, Wawonii Barat, Konawe Islands Regency",SULAWESI TENGGARA,93393.0,Indonesia,,,,-4.0256728,122.9896752,https://maps.google.com/?cid=0x0:0x1bcab6840dcbc520,
hotel,Hotel,Penginapan Lensea,"Mata Langara, Langara Laut, Sulawesi Tenggara 93391",Langara Laut,SULAWESI TENGGARA,93391.0,Indonesia,81245558060.0,,,-4.0288457,122.9884879,https://maps.google.com/?cid=0x0:0x8ef6914880810231,
hotel,Motel,Pitri,"R436+8F9, Roko Roko, Kec. Wawonii Tenggara, Konawe Kepulauan, Sulawesi Tenggara","Konawe Kepulauan, Sulawesi Tenggara",SULAWESI TENGGARA,,Indonesia,,,,-4.1967241,123.1112497,https://maps.google.com/?cid=0x0:0x74abf21f951b40d2,
hotel,Hotel,Hotel Delta Resident,"XXGX+GQ9, Langara Laut, Kec. Wawonii Bar., Konawe Kepulauan, Sulawesi Tenggara 93393","Langara Laut, Kec. Wawonii Bar., Konawe Kepulauan",SULAWESI TENGGARA,93393.0,Indonesia,81245764342.0,,,-4.0237182,122.9994894,https://maps.google.com/?cid=0x0:0xd2b43c8beebf592e,
hotel,Hotel,Hotel Rezky,"XXFR+X25, Desa Lantula, Kec. Wawonii Bar., Konawe Kepulauan, Sulawesi Tenggara","Konawe Kepulauan, Sulawesi Tenggara",SULAWESI TENGGARA,,Indonesia,,,,-4.0251097,122.9901229,https://maps.google.com/?cid=0x0:0x92a8fda9430a5b96,
hotel,Rumah wisata,Rumah Kost Asmila,"XXJW+892, Langaro Bajo, Kec. Wawonii Bar., Kabupaten Konawe, Sulawesi Tenggara","Kabupaten Konawe, Sulawesi Tenggara",SULAWESI TENGGARA,,Indonesia,,,,-4.0187212,122.9958188,https://maps.google.com/?cid=0x0:0x98b2eb85a7f38520,
hotel,Pondok,Hotel WAHALA,"XXHV+68C, Unnamed Road, Langara Laut, Kec. Wawonii Bar., Konawe Kepulauan, Sulawesi Tenggara 93393","Unnamed Road, Langara Laut, Kec. Wawonii Bar., Konawe Kepulauan",SULAWESI TENGGARA,93393.0,Indonesia,85212300200.0,,,-4.0219377,122.9932642,https://maps.google.com/?cid=0x0:0x37b198084c4e169d,
hotel,Hostel,Penginapan Aulia,"XXCQ+PX5, Bar.,, Lamoluo, Kec. Wawonii Bar., Kabupaten Konawe, Sulawesi Tenggara 93393","Bar.,, Lamoluo, Kec. Wawonii Bar., Kabupaten Konawe",SULAWESI TENGGARA,93393.0,Indonesia,81356589758.0,,,-4.0282484,122.9899912,https://maps.google.com/?cid=0x0:0xc88473c99215b4ee,
hotel,hotel,Kec. Wawonii Tim.,"Konawe Kepulauan, Sulawesi Tenggara","Konawe Kepulauan, Sulawesi Tenggara",SULAWESI TENGGARA,,Indonesia,,,,-4.0982853,123.250794,https://maps.google.com/?cid=0x0:0xfc2f57f24f39f720,
hotel,hotel,Hotel Wonua Monapa,"WCWW+88X, Jl. Poros Bandara Haluoleo, Ranooha, Kec. Ranomeeto, Kabupaten Konawe Selatan, Sulawesi Tenggara 93871","Jl. Poros Bandara Haluoleo, Ranooha, Kec. Ranomeeto, Kabupaten Konawe Selatan",SULAWESI TENGGARA,93871.0,Indonesia,4013196900.0,,,-4.05582,122.446666,https://maps.google.com/?cid=0x0:0x55056e76d27f6ff9,
hotel,hotel,Hotel Qubah 9 Kendari,"Jl. Martandu No.99A, Kambu, Kec. Kambu, Kota Kendari, Sulawesi Tenggara 93231","Kambu, Kec. Kambu, Kota Kendari",SULAWESI TENGGARA,93231.0,Indonesia,4013136047.0,,,-4.0082509,122.5345007,https://maps.google.com/?cid=0x0:0x16da52124c17b9e7,
hotel,hotel,Hotel Anawai Baruga,"XF2J+86M, Baruga, Kec. Baruga, Kota Kendari, Sulawesi Tenggara 93870","Baruga, Kec. Baruga, Kota Kendari",SULAWESI TENGGARA,93870.0,Indonesia,,,,-4.049768,122.4813139,https://maps.google.com/?cid=0x0:0xe577126f84756c02,
hotel,hotel,SAWA BEACH RESORT,"Ds, RW.Pekarooa, Matanggonawe, Kec. Sawa, Kabupaten Konawe Utara, Sulawesi Tenggara 93352","RW.Pekarooa, Matanggonawe, Kec. Sawa, Kabupaten Konawe Utara",SULAWESI TENGGARA,93352.0,Indonesia,8114056864.0,,,-3.783229,122.4511684,https://maps.google.com/?cid=0x0:0x21bbabf4006bce95,
hotel,hotel,Hotel Mulia Kendari,"Jl. Saranani No.95, Korumba, Kec. Mandonga, Kota Kendari, Sulawesi Tenggara 93461","Korumba, Kec. Mandonga, Kota Kendari",SULAWESI TENGGARA,93461.0,Indonesia,895417300072.0,,,-3.97062,122.5201697,https://maps.google.com/?cid=0x0:0x969a857d0b649ea9,
hotel,hotel,Hotel Dewa Bintang 2,"Jl. Tebaonunggu No.17, Mandonga, Kec. Kendari, Kota Kendari, Sulawesi Tenggara 93111","Mandonga, Kec. Kendari, Kota Kendari",SULAWESI TENGGARA,93111.0,Indonesia,4013126799.0,,,-3.9651662,122.517495,https://maps.google.com/?cid=0x0:0x6a608f24d97621c5,
hotel,hotel,Hotel Viranza,"Jl. Made Sabara, Korumba, Kec. Mandonga, Kota Kendari, Sulawesi Tenggara 93111","Korumba, Kec. Mandonga, Kota Kendari",SULAWESI TENGGARA,93111.0,Indonesia,,,,-3.9745281,122.519844,https://maps.google.com/?cid=0x0:0xee5821e616c83bbf,
hotel,hotel,Hotel Wahyu JS,"XG93+5WV, Lepo-Lepo, Kec. Baruga, Kota Kendari, Sulawesi Tenggara 93116","Lepo-Lepo, Kec. Baruga, Kota Kendari",SULAWESI TENGGARA,93116.0,Indonesia,81217006785.0,,,-4.0320082,122.5048076,https://maps.google.com/?cid=0x0:0x73602cbabc86b744,
hotel,hotel,Inawa Homestay Syariah,"Kadia, Kec. Kadia, Kota Kendari, Sulawesi Tenggara 93115","Kec. Kadia, Kota Kendari",SULAWESI TENGGARA,93115.0,Indonesia,895417300072.0,,,-3.9834337,122.5007458,https://maps.google.com/?cid=0x0:0x6a616b7de96f2fca,
hotel,Pondok,Hotel WAHALA,"XXHV+68C, Unnamed Road, Langara Laut, Kec. Wawonii Bar., Konawe Kepulauan, Sulawesi Tenggara 93393","Unnamed Road, Langara Laut, Kec. Wawonii Bar., Konawe Kepulauan",SULAWESI TENGGARA,93393.0,Indonesia,85212300200.0,,,-4.0219377,122.9932642,https://maps.google.com/?cid=0x0:0x37b198084c4e169d,
hotel,Hostel,Penginapan Aulia,"XXCQ+PX5, Bar.,, Lamoluo, Kec. Wawonii Bar., Kabupaten Konawe, Sulawesi Tenggara 93393","Bar.,, Lamoluo, Kec. Wawonii Bar., Kabupaten Konawe",SULAWESI TENGGARA,93393.0,Indonesia,81356589758.0,,,-4.0282484,122.9899912,https://maps.google.com/?cid=0x0:0xc88473c99215b4ee,
hotel,hotel,Kec. Wawonii Utara,"Konawe Kepulauan, Sulawesi Tenggara","Konawe Kepulauan, Sulawesi Tenggara",SULAWESI TENGGARA,,Indonesia,,,,-4.0224465,123.1012938,https://maps.google.com/?cid=0x0:0xe956c20a678ad47,
hotel,hotel,Hotel Wonua Monapa,"WCWW+88X, Jl. Poros Bandara Haluoleo, Ranooha, Kec. Ranomeeto, Kabupaten Konawe Selatan, Sulawesi Tenggara 93871","Jl. Poros Bandara Haluoleo, Ranooha, Kec. Ranomeeto, Kabupaten Konawe Selatan",SULAWESI TENGGARA,93871.0,Indonesia,4013196900.0,,,-4.05582,122.446666,https://maps.google.com/?cid=0x0:0x55056e76d27f6ff9,
hotel,hotel,Byeropa Resort and cafe,"Jl. Tapak Kuda No.21, Korumba, Kec. Mandonga, Kota Kendari, Sulawesi Tenggara 93231","Korumba, Kec. Mandonga, Kota Kendari",SULAWESI TENGGARA,93231.0,Indonesia,,,,-3.9768026,122.5289414,https://maps.google.com/?cid=0x0:0xde9ad19bba6fd440,
hotel,hotel,Hotel Dewa Bintang 2,"Jl. Tebaonunggu No.17, Mandonga, Kec. Kendari, Kota Kendari, Sulawesi Tenggara 93111","Mandonga, Kec. Kendari, Kota Kendari",SULAWESI TENGGARA,93111.0,Indonesia,4013126799.0,,,-3.9651662,122.517495,https://maps.google.com/?cid=0x0:0x6a608f24d97621c5,
hotel,hotel,Hotel Viranza,"Jl. Made Sabara, Korumba, Kec. Mandonga, Kota Kendari, Sulawesi Tenggara 93111","Korumba, Kec. Mandonga, Kota Kendari",SULAWESI TENGGARA,93111.0,Indonesia,,,,-3.9745281,122.519844,https://maps.google.com/?cid=0x0:0xee5821e616c83bbf,
hotel,hotel,Horison Hotel Kendari,"Jl. Jend. Ahmad Yani No.3, Bende, Kec. Kadia, Kota Kendari, Sulawesi Tenggara 93117","Bende, Kec. Kadia, Kota Kendari",SULAWESI TENGGARA,93117.0,Indonesia,4013127999.0,,,-3.9778936,122.5125375,https://maps.google.com/?cid=0x0:0xd26cbc730b3c5ecd,
hotel,hotel,Hotel Qubah 9 Kendari,"Jl. Martandu No.99A, Kambu, Kec. Kambu, Kota Kendari, Sulawesi Tenggara 93231","Kambu, Kec. Kambu, Kota Kendari",SULAWESI TENGGARA,93231.0,Indonesia,4013136047.0,,,-4.0082509,122.5345007,https://maps.google.com/?cid=0x0:0x16da52124c17b9e7,
hotel,hotel,Hotel Anawai Baruga,"XF2J+86M, Baruga, Kec. Baruga, Kota Kendari, Sulawesi Tenggara 93870","Baruga, Kec. Baruga, Kota Kendari",SULAWESI TENGGARA,93870.0,Indonesia,,,,-4.049768,122.4813139,https://maps.google.com/?cid=0x0:0xe577126f84756c02,
hotel,hotel,Hotel Mulia Kendari,"Jl. Saranani No.95, Korumba, Kec. Mandonga, Kota Kendari, Sulawesi Tenggara 93461","Korumba, Kec. Mandonga, Kota Kendari",SULAWESI TENGGARA,93461.0,Indonesia,895417300072.0,,,-3.97062,122.5201697,https://maps.google.com/?cid=0x0:0x969a857d0b649ea9,
hotel,hotel,Hotel Wixel,"Jl. Edi Sabara, Lahundape, Kec. Kendari Bar., Kota Kendari, Sulawesi Tenggara 93121","Lahundape, Kec. Kendari Bar., Kota Kendari",SULAWESI TENGGARA,93121.0,Indonesia,4013367789.0,,,-3.9683395,122.5311781,https://maps.google.com/?cid=0x0:0x44afc4fbdf6300cb,
hotel,hotel,Hotel Wahyu JS,"XG93+5WV, Lepo-Lepo, Kec. Baruga, Kota Kendari, Sulawesi Tenggara 93116","Lepo-Lepo, Kec. Baruga, Kota Kendari",SULAWESI TENGGARA,93116.0,Indonesia,81217006785.0,,,-4.0320082,122.5048076,https://maps.google.com/?cid=0x0:0x73602cbabc86b744,
hotel,Pondok,Hotel WAHALA,"XXHV+68C, Unnamed Road, Langara Laut, Kec. Wawonii Bar., Konawe Kepulauan, Sulawesi Tenggara 93393","Unnamed Road, Langara Laut, Kec. Wawonii Bar., Konawe Kepulauan",SULAWESI TENGGARA,93393.0,Indonesia,85212300200.0,,,-4.0219377,122.9932642,https://maps.google.com/?cid=0x0:0x37b198084c4e169d,
hotel,hotel,Inawa Homestay Syariah,"Kadia, Kec. Kadia, Kota Kendari, Sulawesi Tenggara 93115","Kec. Kadia, Kota Kendari",SULAWESI TENGGARA,93115.0,Indonesia,895417300072.0,,,-3.9834337,122.5007458,https://maps.google.com/?cid=0x0:0x6a616b7de96f2fca,
hotel,Hostel,Penginapan Grand Indah,"XXFR+V4Q, Unnamed Road, Langara Iwawo, Kec. Wawonii Bar., Konawe Kepulauan, Sulawesi Tenggara 93393","Unnamed Road, Langara Iwawo, Kec. Wawonii Bar., Konawe Kepulauan",SULAWESI TENGGARA,93393.0,Indonesia,,,,-4.0252975,122.9903565,https://maps.google.com/?cid=0x0:0xd016faba46fd1831,
hotel,Hotel,Wisma Puncak Permata Biru,"XXHW+3X4, Bar., Langara Indah, Kec. Wawonii Bar., Kabupaten Konawe, Sulawesi Tenggara 93393","Bar., Langara Indah, Kec. Wawonii Bar., Kabupaten Konawe",SULAWESI TENGGARA,93393.0,Indonesia,81341522263.0,,,-4.0223679,122.9974395,https://maps.google.com/?cid=0x0:0x17c70010775b8489,
hotel,Hotel,Hotel Delta Resident,"XXGX+GQ9, Langara Laut, Kec. Wawonii Bar., Konawe Kepulauan, Sulawesi Tenggara 93393","Langara Laut, Kec. Wawonii Bar., Konawe Kepulauan",SULAWESI TENGGARA,93393.0,Indonesia,81245764342.0,,,-4.0237182,122.9994894,https://maps.google.com/?cid=0x0:0xd2b43c8beebf592e,
hotel,Hostel,Riskial Hotel,"XXFQ+PVM, Unnamed Road, Langara Iwawo, Wawonii Barat, Konawe Islands Regency, South East Sulawesi 93393","Unnamed Road, Langara Iwawo, Wawonii Barat, Konawe Islands Regency",SULAWESI TENGGARA,93393.0,Indonesia,,,,-4.0256728,122.9896752,https://maps.google.com/?cid=0x0:0x1bcab6840dcbc520,
restaurant,restaurant,Kec. Wawonii Bar.,"Konawe Kepulauan, Sulawesi Tenggara","Konawe Kepulauan, Sulawesi Tenggara",SULAWESI TENGGARA,,Indonesia,,,,-4.0251097,122.9901229,https://maps.google.com/?cid=0x0:0xbda035363ef97b99,
restaurant,Rumah Makan,Rm Alsyafi Barokah,"Unnamed Road, Wawonii Bar., 93393, Langara Iwawo, Kec. Wawonii Bar., Konawe Kepulauan, Sulawesi Tenggara","Wawonii Bar.,",SULAWESI TENGGARA,93393.0,Indonesia,85299806714.0,,,-4.0255019,122.989774,https://maps.google.com/?cid=0x0:0x96b31e549ec98c60,
restaurant,Indonesia,Warung Sahabat wawonii,"Poros wawoola Road, Langara Wawonii Bar., 93393, Langara Iwawo, Kec. Wawonii Bar., Konawe Kepulauan, Sulawesi Tenggara 93393","Langara Wawonii Bar.,",SULAWESI TENGGARA,93393.0,Indonesia,82222269291.0,,,-4.0240497,122.9944951,https://maps.google.com/?cid=0x0:0xc7b30a30c92f0cd3,
restaurant,Restoran,Rumah Makan Ogi'e,"XXGR+6CG, Langara Iwawo, Kec. Wawonii Bar., Konawe Kepulauan, Sulawesi Tenggara","Konawe Kepulauan, Sulawesi Tenggara",SULAWESI TENGGARA,,Indonesia,,,,-4.024254,122.9908195,https://maps.google.com/?cid=0x0:0xc3cd9b18d9bd825e,
restaurant,Kafe,Kedai Wawonii Coffee,"XXCQ+4CX, Lamoluo, Kec. Wawonii Bar., Kabupaten Konawe, Sulawesi Tenggara","Kabupaten Konawe, Sulawesi Tenggara",SULAWESI TENGGARA,,Indonesia,82310806203.0,,,-4.0296362,122.9886169,https://maps.google.com/?cid=0x0:0x898692b84136ab12,
restaurant,Rumah Makan,Warung Makan Al-Fazaa,"XXCQ+6R9, Lamoluo, Kec. Wawonii Bar., Kabupaten Konawe, Sulawesi Tenggara","Kabupaten Konawe, Sulawesi Tenggara",SULAWESI TENGGARA,,Indonesia,,,,-4.0294745,122.989621,https://maps.google.com/?cid=0x0:0xa93ad9d5e81bb81a,
restaurant,Sarapan,Rumah Makan Polmas,"XXFQ+VV5, Langara Iwawo, Kec. Wawonii Bar., Konawe Kepulauan, Sulawesi Tenggara","Konawe Kepulauan, Sulawesi Tenggara",SULAWESI TENGGARA,,Indonesia,,,,-4.0253597,122.9897396,https://maps.google.com/?cid=0x0:0x6d8ad5a6bdc20741,
restaurant,Rumah Makan,RM Solcer,"XXFR+W2R, Langara Iwawo, Kec. Wawonii Bar., Konawe Kepulauan, Sulawesi Tenggara 93393","Langara Iwawo, Kec. Wawonii Bar., Konawe Kepulauan",SULAWESI TENGGARA,93393.0,Indonesia,,,,-4.025156,122.9899886,https://maps.google.com/?cid=0x0:0xbe7224dcc8aea523,
restaurant,Restoran,Ruamah makan padang,"XXCR+C3, Lamoluo, Kec. Wawonii Bar., Kabupaten Konawe, Sulawesi Tenggara","Kabupaten Konawe, Sulawesi Tenggara",SULAWESI TENGGARA,,Indonesia,82313344001.0,,,-4.0289457,122.9901292,https://maps.google.com/?cid=0x0:0x3c1b3471f0d4c6db,
restaurant,Sarapan,RM.PA'DAENG,"XXHR+PV8, Langara Laut, Wawonii Bar., Kabupaten Konawe, Sulawesi Tenggara","Kabupaten Konawe, Sulawesi Tenggara",SULAWESI TENGGARA,,Indonesia,82285341345.0,,,-4.0207028,122.9922022,https://maps.google.com/?cid=0x0:0x978de889d93c2886,
restaurant,Petugas Perbatasan,RM Gerbang Langara,"XXGR+VC8, Unnamed Road, Langara Laut, Wawonii Barat, Konawe Islands Regency, South East Sulawesi 93393","Unnamed Road, Langara Laut, Wawonii Barat, Konawe Islands Regency",SULAWESI TENGGARA,93393.0,Indonesia,,,,-4.0228259,122.9910663,https://maps.google.com/?cid=0x0:0xfee35783e0d0e599,
restaurant,Kedai Kopi,WARKOP 12,"XXCR+V2W, Unnamed Road, Lamoluo, Kec. Wawonii Bar., Konawe Kepulauan, Sulawesi Tenggara 93393","Unnamed Road, Lamoluo, Kec. Wawonii Bar., Konawe Kepulauan",SULAWESI TENGGARA,93393.0,Indonesia,85240510365.0,,,-4.0277597,122.9900886,https://maps.google.com/?cid=0x0:0x7afb354abf8cb31e,
restaurant,Restoran,WARUNG MAKAN MAS INTAN,"XXGQ+XXP, Langara Iwawo, Kec. Wawonii Bar., Kabupaten Konawe, Sulawesi Tenggara","Kabupaten Konawe, Sulawesi Tenggara",SULAWESI TENGGARA,,Indonesia,,,,-4.0225711,122.990034,https://maps.google.com/?cid=0x0:0x4a95c6802655a4d1,
restaurant,Dapur Umum,Martabak,"XXFQ+WW8, Langara Iwawo, Kec. Wawonii Bar., Kabupaten Konawe, Sulawesi Tenggara","Kabupaten Konawe, Sulawesi Tenggara",SULAWESI TENGGARA,,Indonesia,82259282755.0,,,-4.025206,122.989836,https://maps.google.com/?cid=0x0:0xdc72249ec0b3a90d,
restaurant,Kedai Kopi,Warung Kopi Simpang DW,"Unnamed Road 93393, Langara Iwawo, Kec. Wawonii Bar., Konawe Kepulauan, Sulawesi Tenggara 93393","Langara Iwawo, Kec. Wawonii Bar., Konawe Kepulauan",SULAWESI TENGGARA,93393.0,Indonesia,,,,-4.0241119,122.9903506,https://maps.google.com/?cid=0x0:0x2717bcff8bc07c2e,
restaurant,Hotel,Penginapan  Kost Rizky,"Desa, Langara Indah, Kec. Wawonii Bar., Konawe Kepulauan, Sulawesi Tenggara","Konawe Kepulauan, Sulawesi Tenggara",SULAWESI TENGGARA,,Indonesia,85241663782.0,,,-4.0220297,122.9954562,https://maps.google.com/?cid=0x0:0x6e9568cb073be441,
restaurant,Brunch,Warung Makan Lampung,"V47F+GHR, Pulau Wowoni, Kec. Wawonii Tenggara, Konawe Kepulauan, Sulawesi Tenggara 93393","Pulau Wowoni, Kec. Wawonii Tenggara, Konawe Kepulauan",SULAWESI TENGGARA,93393.0,Indonesia,81377637274.0,,,-4.1361464,123.123905,https://maps.google.com/?cid=0x0:0x2580e5e1cc5e9200,
restaurant,Dapur Umum,Warung Kita Langara,"XXGR+222, Unnamed Road, Langara Iwawo, Kec. Wawonii Bar., Konawe Kepulauan, Sulawesi Tenggara 93393","Unnamed Road, Langara Iwawo, Kec. Wawonii Bar., Konawe Kepulauan",SULAWESI TENGGARA,93393.0,Indonesia,,,,-4.0249759,122.9900096,https://maps.google.com/?cid=0x0:0xfb4666d9c7e5102b,
restaurant,Rumah Makan,Rm. Barokah Jatim,"XXCQ+J74, Unnamed Road, Mata Langara, Kec. Wawonii Bar., Konawe Kepulauan, Sulawesi Tenggara 93393","Unnamed Road, Mata Langara, Kec. Wawonii Bar., Konawe Kepulauan",SULAWESI TENGGARA,93393.0,Indonesia,,,,-4.0284794,122.988198,https://maps.google.com/?cid=0x0:0xb33351d1a79461fb,
restaurant,Restoran,Kedai Pojok 88 Langara,"XXCQ+FGX Samping Bank Sultra lama, Jalan poros, Langara Laut, Kec. Wawonii Bar., Konawe Kepulauan, Sulawesi Tenggara 93933","Jalan poros, Langara Laut, Kec. Wawonii Bar., Konawe Kepulauan",SULAWESI TENGGARA,93933.0,Indonesia,82188246542.0,,,-4.0287548,122.9888737,https://maps.google.com/?cid=0x0:0xa674f2503baae3ea,
restaurant,Hotel,Wisma Puncak Permata Biru,"XXHW+3X4, Bar., Langara Indah, Kec. Wawonii Bar., Kabupaten Konawe, Sulawesi Tenggara 93393","Bar., Langara Indah, Kec. Wawonii Bar., Kabupaten Konawe",SULAWESI TENGGARA,93393.0,Indonesia,81341522263.0,,,-4.0223679,122.9974395,https://maps.google.com/?cid=0x0:0x17c70010775b8489,
restaurant,Ikan Bakar,JR Resto Tepi Sawah  Pemancingan,"Desa Kasupute, Kec. Wawotobi, Kasupute, Kec. Unaaha, Kabupaten Konawe, Sulawesi Tenggara 93461","Kec. Wawotobi, Kasupute, Kec. Unaaha, Kabupaten Konawe",SULAWESI TENGGARA,93461.0,Indonesia,82348866666.0,,,-3.8775236,122.1242357,https://maps.google.com/?cid=0x0:0xf6e67f29ac38a494,
restaurant,Martabak,Martabak AZ-ZIKRA,"XXHV+FJQ, Langara Indah, Kec. Wawonii Bar., Konawe Kepulauan, Sulawesi Tenggara","Konawe Kepulauan, Sulawesi Tenggara",SULAWESI TENGGARA,,Indonesia,81220162920.0,,,-4.0212841,122.9941162,https://maps.google.com/?cid=0x0:0x2114781e59637b4,
restaurant,restaurant,Sulawesi Tenggara 93393,"Konawe Kepulauan, Sulawesi Tenggara","Konawe Kepulauan, Sulawesi Tenggara",SULAWESI TENGGARA,,Indonesia,,,,-4.0664588,123.1239049,https://maps.google.com/?cid=0x0:0xf20c69a9e2bf97eb,
restaurant,Rumah Makan,Rm Alsyafi Barokah,"Unnamed Road, Wawonii Bar., 93393, Langara Iwawo, Kec. Wawonii Bar., Konawe Kepulauan, Sulawesi Tenggara","Wawonii Bar.,",SULAWESI TENGGARA,93393.0,Indonesia,85299806714.0,,,-4.0255019,122.989774,https://maps.google.com/?cid=0x0:0x96b31e549ec98c60,
restaurant,Sarapan,Rumah Makan Polmas,"XXFQ+VV5, Langara Iwawo, Kec. Wawonii Bar., Konawe Kepulauan, Sulawesi Tenggara","Konawe Kepulauan, Sulawesi Tenggara",SULAWESI TENGGARA,,Indonesia,,,,-4.0253597,122.9897396,https://maps.google.com/?cid=0x0:0x6d8ad5a6bdc20741,
restaurant,Dapur Umum,Warung Ma'yor,"VX99+PMP, Lampeapi, Kec. Wawonii Tengah, Konawe Kepulauan, Sulawesi Tenggara 93393","Lampeapi, Kec. Wawonii Tengah, Konawe Kepulauan",SULAWESI TENGGARA,93393.0,Indonesia,,,,-4.1306725,122.9691965,https://maps.google.com/?cid=0x0:0xbe88c3d316db6f64,
restaurant,Brunch,Warung Makan Lampung,"V47F+GHR, Pulau Wowoni, Kec. Wawonii Tenggara, Konawe Kepulauan, Sulawesi Tenggara 93393","Pulau Wowoni, Kec. Wawonii Tenggara, Konawe Kepulauan",SULAWESI TENGGARA,93393.0,Indonesia,81377637274.0,,,-4.1361464,123.123905,https://maps.google.com/?cid=0x0:0x2580e5e1cc5e9200,
restaurant,Kafe,Warkop Andalan Papa,"VX3M+966, Wungkolo, Kec. Wawonii Sel., Konawe Kepulauan, Sulawesi Tenggara 93393","Wungkolo, Kec. Wawonii Sel., Konawe Kepulauan",SULAWESI TENGGARA,93393.0,Indonesia,,,,-4.146673,122.9829944,https://maps.google.com/?cid=0x0:0x7c19ffbefb234a66,
restaurant,Ikan Bakar,JR Resto Tepi Sawah  Pemancingan,"Desa Kasupute, Kec. Wawotobi, Kasupute, Kec. Unaaha, Kabupaten Konawe, Sulawesi Tenggara 93461","Kec. Wawotobi, Kasupute, Kec. Unaaha, Kabupaten Konawe",SULAWESI TENGGARA,93461.0,Indonesia,82348866666.0,,,-3.8775236,122.1242357,https://maps.google.com/?cid=0x0:0xf6e67f29ac38a494,
restaurant,Bakso,WARUNG BAKSO MOSOLO,"Masolo, Kec. Wawonii Tenggara, Konawe Kepulauan, Sulawesi Tenggara","Konawe Kepulauan, Sulawesi Tenggara",SULAWESI TENGGARA,,Indonesia,87784185828.0,,,-4.2096896,123.1629956,https://maps.google.com/?cid=0x0:0x58cb7ec32a5acce3,
restaurant,Toko Makanan,Warung bakso dan pangsit Amelia,"VXQ5+8FP, Mekar Sari, Kec. Wawonii Tengah, Konawe Kepulauan, Sulawesi Tenggara","Konawe Kepulauan, Sulawesi Tenggara",SULAWESI TENGGARA,,Indonesia,82187613839.0,,,-4.1116715,122.9587014,https://maps.google.com/?cid=0x0:0xbc071e491e9d9784,
restaurant,Taman bermain,GALU RESTO,"44F8+292, Wawotobi, Kec. Wawotobi, Kabupaten Konawe, Sulawesi Tenggara","Kabupaten Konawe, Sulawesi Tenggara",SULAWESI TENGGARA,,Indonesia,,,,-3.8774857,122.1158906,https://maps.google.com/?cid=0x0:0x43e422e211505102,
restaurant,Toko umum,Keday moms april,"Dompo-Dompo Jaya, Kec. Wawonii Tenggara, Konawe Kepulauan, Sulawesi Tenggara 93393","Kec. Wawonii Tenggara, Konawe Kepulauan",SULAWESI TENGGARA,93393.0,Indonesia,852262459201.0,,,-4.2512722,123.0976803,https://maps.google.com/?cid=0x0:0x48b833e056d3284a,
restaurant,restaurant,Nasi Kuning Mama Yuni,"Q4Q6+C63, Dompo-Dompo Jaya, Kec. Wawonii Tenggara, Konawe Kepulauan, Sulawesi Tenggara","Konawe Kepulauan, Sulawesi Tenggara",SULAWESI TENGGARA,,Indonesia,,,,-4.2114932,123.1105465,https://maps.google.com/?cid=0x0:0xbcad81704652fbc3,
restaurant,restaurant,Kedai I  ICE,"R2WG+WPG, Sawapatani, Kec. Wawonii Sel., Konawe Kepulauan, Sulawesi Tenggara","Konawe Kepulauan, Sulawesi Tenggara",SULAWESI TENGGARA,,Indonesia,82235938078.0,,,-4.1526984,123.0268398,https://maps.google.com/?cid=0x0:0xb3fe820cab1053ef,
restaurant,restaurant,Warung Makan Safira,"RX3R+H95, Sawapatani, Kec. Wawonii Sel., Kabupaten Konawe, Sulawesi Tenggara","Kabupaten Konawe, Sulawesi Tenggara",SULAWESI TENGGARA,,Indonesia,,,,-4.1961159,122.9909808,https://maps.google.com/?cid=0x0:0x473408529641ac5a,
restaurant,restaurant,Kec. Wawonii Tengah,"Konawe Kepulauan, Sulawesi Tenggara","Konawe Kepulauan, Sulawesi Tenggara",SULAWESI TENGGARA,,Indonesia,,,,-4.1312287,122.9691468,https://maps.google.com/?cid=0x0:0x3815a4df92a01d0a,
restaurant,Indonesia,Warung Sahabat wawonii,"Poros wawoola Road, Langara Wawonii Bar., 93393, Langara Iwawo, Kec. Wawonii Bar., Konawe Kepulauan, Sulawesi Tenggara 93393","Langara Wawonii Bar.,",SULAWESI TENGGARA,93393.0,Indonesia,82222269291.0,,,-4.0240497,122.9944951,https://maps.google.com/?cid=0x0:0xc7b30a30c92f0cd3,
restaurant,Dapur Umum,Warung Ma'yor,"VX99+PMP, Lampeapi, Kec. Wawonii Tengah, Konawe Kepulauan, Sulawesi Tenggara 93393","Lampeapi, Kec. Wawonii Tengah, Konawe Kepulauan",SULAWESI TENGGARA,93393.0,Indonesia,,,,-4.1306725,122.9691965,https://maps.google.com/?cid=0x0:0xbe88c3d316db6f64,
restaurant,Toko Makanan,Warung bakso dan pangsit Amelia,"VXQ5+8FP, Mekar Sari, Kec. Wawonii Tengah, Konawe Kepulauan, Sulawesi Tenggara","Konawe Kepulauan, Sulawesi Tenggara",SULAWESI TENGGARA,,Indonesia,82187613839.0,,,-4.1116715,122.9587014,https://maps.google.com/?cid=0x0:0xbc071e491e9d9784,
restaurant,Kafe,Kedai Wawonii Coffee,"XXCQ+4CX, Lamoluo, Kec. Wawonii Bar., Kabupaten Konawe, Sulawesi Tenggara","Kabupaten Konawe, Sulawesi Tenggara",SULAWESI TENGGARA,,Indonesia,82310806203.0,,,-4.0296362,122.9886169,https://maps.google.com/?cid=0x0:0x898692b84136ab12,
restaurant,Sarapan,Rumah Makan Polmas,"XXFQ+VV5, Langara Iwawo, Kec. Wawonii Bar., Konawe Kepulauan, Sulawesi Tenggara","Konawe Kepulauan, Sulawesi Tenggara",SULAWESI TENGGARA,,Indonesia,,,,-4.0253597,122.9897396,https://maps.google.com/?cid=0x0:0x6d8ad5a6bdc20741,
restaurant,Ikan Bakar,JR Resto Tepi Sawah  Pemancingan,"Desa Kasupute, Kec. Wawotobi, Kasupute, Kec. Unaaha, Kabupaten Konawe, Sulawesi Tenggara 93461","Kec. Wawotobi, Kasupute, Kec. Unaaha, Kabupaten Konawe",SULAWESI TENGGARA,93461.0,Indonesia,82348866666.0,,,-3.8775236,122.1242357,https://maps.google.com/?cid=0x0:0xf6e67f29ac38a494,
restaurant,Taman bermain,GALU RESTO,"44F8+292, Wawotobi, Kec. Wawotobi, Kabupaten Konawe, Sulawesi Tenggara","Kabupaten Konawe, Sulawesi Tenggara",SULAWESI TENGGARA,,Indonesia,,,,-3.8774857,122.1158906,https://maps.google.com/?cid=0x0:0x43e422e211505102,
restaurant,Kafe,Warkop Andalan Papa,"VX3M+966, Wungkolo, Kec. Wawonii Sel., Konawe Kepulauan, Sulawesi Tenggara 93393","Wungkolo, Kec. Wawonii Sel., Konawe Kepulauan",SULAWESI TENGGARA,93393.0,Indonesia,,,,-4.146673,122.9829944,https://maps.google.com/?cid=0x0:0x7c19ffbefb234a66,
restaurant,Sarapan,Chicken Ikha,"Desa Lantula, Kec. Wawonii Bar., Konawe Kepulauan, Sulawesi Tenggara 93393","Kec. Wawonii Bar., Konawe Kepulauan",SULAWESI TENGGARA,93393.0,Indonesia,,,,-4.023791,122.9933423,https://maps.google.com/?cid=0x0:0x37b619aa8d37630e,
restaurant,restaurant,Sulawesi Tenggara 93393,"Konawe Kepulauan, Sulawesi Tenggara","Konawe Kepulauan, Sulawesi Tenggara",SULAWESI TENGGARA,,Indonesia,,,,-4.0664588,123.1239049,https://maps.google.com/?cid=0x0:0xf20c69a9e2bf97eb,
restaurant,Indonesia,Warung Sahabat wawonii,"Poros wawoola Road, Langara Wawonii Bar., 93393, Langara Iwawo, Kec. Wawonii Bar., Konawe Kepulauan, Sulawesi Tenggara 93393","Langara Wawonii Bar.,",SULAWESI TENGGARA,93393.0,Indonesia,82222269291.0,,,-4.0240497,122.9944951,https://maps.google.com/?cid=0x0:0xc7b30a30c92f0cd3,
restaurant,Rumah Makan,Rm Alsyafi Barokah,"Unnamed Road, Wawonii Bar., 93393, Langara Iwawo, Kec. Wawonii Bar., Konawe Kepulauan, Sulawesi Tenggara","Wawonii Bar.,",SULAWESI TENGGARA,93393.0,Indonesia,85299806714.0,,,-4.0255019,122.989774,https://maps.google.com/?cid=0x0:0x96b31e549ec98c60,
restaurant,Sarapan,Chicken Ikha,"Desa Lantula, Kec. Wawonii Bar., Konawe Kepulauan, Sulawesi Tenggara 93393","Kec. Wawonii Bar., Konawe Kepulauan",SULAWESI TENGGARA,93393.0,Indonesia,,,,-4.023791,122.9933423,https://maps.google.com/?cid=0x0:0x37b619aa8d37630e,
restaurant,Rumah Makan,Warung Makan Al-Fazaa,"XXCQ+6R9, Lamoluo, Kec. Wawonii Bar., Kabupaten Konawe, Sulawesi Tenggara","Kabupaten Konawe, Sulawesi Tenggara",SULAWESI TENGGARA,,Indonesia,,,,-4.0294745,122.989621,https://maps.google.com/?cid=0x0:0xa93ad9d5e81bb81a,
restaurant,Dapur Umum,Warung Ma'yor,"VX99+PMP, Lampeapi, Kec. Wawonii Tengah, Konawe Kepulauan, Sulawesi Tenggara 93393","Lampeapi, Kec. Wawonii Tengah, Konawe Kepulauan",SULAWESI TENGGARA,93393.0,Indonesia,,,,-4.1306725,122.9691965,https://maps.google.com/?cid=0x0:0xbe88c3d316db6f64,
restaurant,Sarapan,Rumah Makan Polmas,"XXFQ+VV5, Langara Iwawo, Kec. Wawonii Bar., Konawe Kepulauan, Sulawesi Tenggara","Konawe Kepulauan, Sulawesi Tenggara",SULAWESI TENGGARA,,Indonesia,,,,-4.0253597,122.9897396,https://maps.google.com/?cid=0x0:0x6d8ad5a6bdc20741,
restaurant,Restoran,Warung makan wonua manu,"X6H5+2M2, Noko, Kec. Wawonii Utara, Konawe Kepulauan, Sulawesi Tenggara 93393","Noko, Kec. Wawonii Utara, Konawe Kepulauan",SULAWESI TENGGARA,93393.0,Indonesia,,,,-4.0224797,123.2091507,https://maps.google.com/?cid=0x0:0x5373cd0204154e2c,
restaurant,Brunch,Warung Makan Lampung,"V47F+GHR, Pulau Wowoni, Kec. Wawonii Tenggara, Konawe Kepulauan, Sulawesi Tenggara 93393","Pulau Wowoni, Kec. Wawonii Tenggara, Konawe Kepulauan",SULAWESI TENGGARA,93393.0,Indonesia,81377637274.0,,,-4.1361464,123.123905,https://maps.google.com/?cid=0x0:0x2580e5e1cc5e9200,
restaurant,Kafe,Kedai Wawonii Coffee,"XXCQ+4CX, Lamoluo, Kec. Wawonii Bar., Kabupaten Konawe, Sulawesi Tenggara","Kabupaten Konawe, Sulawesi Tenggara",SULAWESI TENGGARA,,Indonesia,82310806203.0,,,-4.0296362,122.9886169,https://maps.google.com/?cid=0x0:0x898692b84136ab12,
restaurant,Ikan Bakar,JR Resto Tepi Sawah  Pemancingan,"Desa Kasupute, Kec. Wawotobi, Kasupute, Kec. Unaaha, Kabupaten Konawe, Sulawesi Tenggara 93461","Kec. Wawotobi, Kasupute, Kec. Unaaha, Kabupaten Konawe",SULAWESI TENGGARA,93461.0,Indonesia,82348866666.0,,,-3.8775236,122.1242357,https://maps.google.com/?cid=0x0:0xf6e67f29ac38a494,
restaurant,Sarapan,RM.PA'DAENG,"XXHR+PV8, Langara Laut, Wawonii Bar., Kabupaten Konawe, Sulawesi Tenggara","Kabupaten Konawe, Sulawesi Tenggara",SULAWESI TENGGARA,,Indonesia,82285341345.0,,,-4.0207028,122.9922022,https://maps.google.com/?cid=0x0:0x978de889d93c2886,
restaurant,Rumah Makan,RM Solcer,"XXFR+W2R, Langara Iwawo, Kec. Wawonii Bar., Konawe Kepulauan, Sulawesi Tenggara 93393","Langara Iwawo, Kec. Wawonii Bar., Konawe Kepulauan",SULAWESI TENGGARA,93393.0,Indonesia,,,,-4.025156,122.9899886,https://maps.google.com/?cid=0x0:0xbe7224dcc8aea523,
restaurant,Restoran,Ruamah makan padang,"XXCR+C3, Lamoluo, Kec. Wawonii Bar., Kabupaten Konawe, Sulawesi Tenggara","Kabupaten Konawe, Sulawesi Tenggara",SULAWESI TENGGARA,,Indonesia,82313344001.0,,,-4.0289457,122.9901292,https://maps.google.com/?cid=0x0:0x3c1b3471f0d4c6db,
restaurant,Bakso,WARUNG BAKSO MOSOLO,"Masolo, Kec. Wawonii Tenggara, Konawe Kepulauan, Sulawesi Tenggara","Konawe Kepulauan, Sulawesi Tenggara",SULAWESI TENGGARA,,Indonesia,87784185828.0,,,-4.2096896,123.1629956,https://maps.google.com/?cid=0x0:0x58cb7ec32a5acce3,
restaurant,Restoran,WARUNG MAKAN MAS INTAN,"XXGQ+XXP, Langara Iwawo, Kec. Wawonii Bar., Kabupaten Konawe, Sulawesi Tenggara","Kabupaten Konawe, Sulawesi Tenggara",SULAWESI TENGGARA,,Indonesia,,,,-4.0225711,122.990034,https://maps.google.com/?cid=0x0:0x4a95c6802655a4d1,
restaurant,Petugas Perbatasan,RM Gerbang Langara,"XXGR+VC8, Unnamed Road, Langara Laut, Wawonii Barat, Konawe Islands Regency, South East Sulawesi 93393","Unnamed Road, Langara Laut, Wawonii Barat, Konawe Islands Regency",SULAWESI TENGGARA,93393.0,Indonesia,,,,-4.0228259,122.9910663,https://maps.google.com/?cid=0x0:0xfee35783e0d0e599,
restaurant,Kedai Kopi,WARKOP 12,"XXCR+V2W, Unnamed Road, Lamoluo, Kec. Wawonii Bar., Konawe Kepulauan, Sulawesi Tenggara 93393","Unnamed Road, Lamoluo, Kec. Wawonii Bar., Konawe Kepulauan",SULAWESI TENGGARA,93393.0,Indonesia,85240510365.0,,,-4.0277597,122.9900886,https://maps.google.com/?cid=0x0:0x7afb354abf8cb31e,
restaurant,Toko Makanan,Warung bakso dan pangsit Amelia,"VXQ5+8FP, Mekar Sari, Kec. Wawonii Tengah, Konawe Kepulauan, Sulawesi Tenggara","Konawe Kepulauan, Sulawesi Tenggara",SULAWESI TENGGARA,,Indonesia,82187613839.0,,,-4.1116715,122.9587014,https://maps.google.com/?cid=0x0:0xbc071e491e9d9784,
restaurant,Dapur Umum,Martabak,"XXFQ+WW8, Langara Iwawo, Kec. Wawonii Bar., Kabupaten Konawe, Sulawesi Tenggara","Kabupaten Konawe, Sulawesi Tenggara",SULAWESI TENGGARA,,Indonesia,82259282755.0,,,-4.025206,122.989836,https://maps.google.com/?cid=0x0:0xdc72249ec0b3a90d,
restaurant,restaurant,Kec. Wawonii Tenggara,"Konawe Kepulauan, Sulawesi Tenggara","Konawe Kepulauan, Sulawesi Tenggara",SULAWESI TENGGARA,,Indonesia,,,,-4.252093,123.0993267,https://maps.google.com/?cid=0x0:0xe1036d4655923fdc,
restaurant,restaurant,Nasi Kuning Mama Yuni,"Q4Q6+C63, Dompo-Dompo Jaya, Kec. Wawonii Tenggara, Konawe Kepulauan, Sulawesi Tenggara","Konawe Kepulauan, Sulawesi Tenggara",SULAWESI TENGGARA,,Indonesia,,,,-4.2114932,123.1105465,https://maps.google.com/?cid=0x0:0xbcad81704652fbc3,
restaurant,Toko umum,Keday moms april,"Dompo-Dompo Jaya, Kec. Wawonii Tenggara, Konawe Kepulauan, Sulawesi Tenggara 93393","Kec. Wawonii Tenggara, Konawe Kepulauan",SULAWESI TENGGARA,93393.0,Indonesia,852262459201.0,,,-4.2512722,123.0976803,https://maps.google.com/?cid=0x0:0x48b833e056d3284a,
restaurant,Kedai Kopi,Rumah makan banjar,"P3XX+5Q6, Dompo-Dompo Jaya, Kec. Wawonii Tenggara, Konawe Kepulauan, Sulawesi Tenggara","Konawe Kepulauan, Sulawesi Tenggara",SULAWESI TENGGARA,,Indonesia,,,,-4.2520837,123.0993889,https://maps.google.com/?cid=0x0:0x84b6b241d0dc5d65,
restaurant,Taman bermain,GALU RESTO,"44F8+292, Wawotobi, Kec. Wawotobi, Kabupaten Konawe, Sulawesi Tenggara","Kabupaten Konawe, Sulawesi Tenggara",SULAWESI TENGGARA,,Indonesia,,,,-3.8774857,122.1158906,https://maps.google.com/?cid=0x0:0x43e422e211505102,
restaurant,restaurant,Kec. Wawonii Tim.,"Konawe Kepulauan, Sulawesi Tenggara","Konawe Kepulauan, Sulawesi Tenggara",SULAWESI TENGGARA,,Indonesia,,,,-4.0982853,123.250794,https://maps.google.com/?cid=0x0:0xfc2f57f24f39f720,
restaurant,Rumah Makan,Rm Alsyafi Barokah,"Unnamed Road, Wawonii Bar., 93393, Langara Iwawo, Kec. Wawonii Bar., Konawe Kepulauan, Sulawesi Tenggara","Wawonii Bar.,",SULAWESI TENGGARA,93393.0,Indonesia,85299806714.0,,,-4.0255019,122.989774,https://maps.google.com/?cid=0x0:0x96b31e549ec98c60,
restaurant,Indonesia,Warung Sahabat wawonii,"Poros wawoola Road, Langara Wawonii Bar., 93393, Langara Iwawo, Kec. Wawonii Bar., Konawe Kepulauan, Sulawesi Tenggara 93393","Langara Wawonii Bar.,",SULAWESI TENGGARA,93393.0,Indonesia,82222269291.0,,,-4.0240497,122.9944951,https://maps.google.com/?cid=0x0:0xc7b30a30c92f0cd3,
restaurant,Brunch,Warung Makan Lampung,"V47F+GHR, Pulau Wowoni, Kec. Wawonii Tenggara, Konawe Kepulauan, Sulawesi Tenggara 93393","Pulau Wowoni, Kec. Wawonii Tenggara, Konawe Kepulauan",SULAWESI TENGGARA,93393.0,Indonesia,81377637274.0,,,-4.1361464,123.123905,https://maps.google.com/?cid=0x0:0x2580e5e1cc5e9200,
restaurant,restaurant,Kec. Wawonii Tim. Laut,"Konawe Kepulauan, Sulawesi Tenggara","Konawe Kepulauan, Sulawesi Tenggara",SULAWESI TENGGARA,,Indonesia,,,,-4.0289083,123.2198736,https://maps.google.com/?cid=0x0:0x81f76d50d04c3d1b,
restaurant,Restoran,Warung makan wonua manu,"X6H5+2M2, Noko, Kec. Wawonii Utara, Konawe Kepulauan, Sulawesi Tenggara 93393","Noko, Kec. Wawonii Utara, Konawe Kepulauan",SULAWESI TENGGARA,93393.0,Indonesia,,,,-4.0224797,123.2091507,https://maps.google.com/?cid=0x0:0x5373cd0204154e2c,
restaurant,Ikan Bakar,JR Resto Tepi Sawah  Pemancingan,"Desa Kasupute, Kec. Wawotobi, Kasupute, Kec. Unaaha, Kabupaten Konawe, Sulawesi Tenggara 93461","Kec. Wawotobi, Kasupute, Kec. Unaaha, Kabupaten Konawe",SULAWESI TENGGARA,93461.0,Indonesia,82348866666.0,,,-3.8775236,122.1242357,https://maps.google.com/?cid=0x0:0xf6e67f29ac38a494,
restaurant,restaurant,Bangun Mekar,"X5FV+FMV, desa, Bangun Mekar, Kec. Wawonii Tim. Laut, Konawe Kepulauan, Sulawesi Tenggara 93393","desa, Bangun Mekar, Kec. Wawonii Tim. Laut, Konawe Kepulauan",SULAWESI TENGGARA,93393.0,Indonesia,87879009241.0,,,-4.0262644,123.1941823,https://maps.google.com/?cid=0x0:0x46c8d06adf087181,
restaurant,restaurant,Kec. Wawonii Utara,"Konawe Kepulauan, Sulawesi Tenggara","Konawe Kepulauan, Sulawesi Tenggara",SULAWESI TENGGARA,,Indonesia,,,,-4.0224465,123.1012938,https://maps.google.com/?cid=0x0:0xe956c20a678ad47,
restaurant,Indonesia,Warung Sahabat wawonii,"Poros wawoola Road, Langara Wawonii Bar., 93393, Langara Iwawo, Kec. Wawonii Bar., Konawe Kepulauan, Sulawesi Tenggara 93393","Langara Wawonii Bar.,",SULAWESI TENGGARA,93393.0,Indonesia,82222269291.0,,,-4.0240497,122.9944951,https://maps.google.com/?cid=0x0:0xc7b30a30c92f0cd3,
restaurant,Rumah Makan,Rm Alsyafi Barokah,"Unnamed Road, Wawonii Bar., 93393, Langara Iwawo, Kec. Wawonii Bar., Konawe Kepulauan, Sulawesi Tenggara","Wawonii Bar.,",SULAWESI TENGGARA,93393.0,Indonesia,85299806714.0,,,-4.0255019,122.989774,https://maps.google.com/?cid=0x0:0x96b31e549ec98c60,
restaurant,Restoran,Rumah Makan Ogi'e,"XXGR+6CG, Langara Iwawo, Kec. Wawonii Bar., Konawe Kepulauan, Sulawesi Tenggara","Konawe Kepulauan, Sulawesi Tenggara",SULAWESI TENGGARA,,Indonesia,,,,-4.024254,122.9908195,https://maps.google.com/?cid=0x0:0xc3cd9b18d9bd825e,
restaurant,Brunch,Warung Makan Lampung,"V47F+GHR, Pulau Wowoni, Kec. Wawonii Tenggara, Konawe Kepulauan, Sulawesi Tenggara 93393","Pulau Wowoni, Kec. Wawonii Tenggara, Konawe Kepulauan",SULAWESI TENGGARA,93393.0,Indonesia,81377637274.0,,,-4.1361464,123.123905,https://maps.google.com/?cid=0x0:0x2580e5e1cc5e9200,
restaurant,Sarapan,Rumah Makan Polmas,"XXFQ+VV5, Langara Iwawo, Kec. Wawonii Bar., Konawe Kepulauan, Sulawesi Tenggara","Konawe Kepulauan, Sulawesi Tenggara",SULAWESI TENGGARA,,Indonesia,,,,-4.0253597,122.9897396,https://maps.google.com/?cid=0x0:0x6d8ad5a6bdc20741,
restaurant,Restoran,Warung makan wonua manu,"X6H5+2M2, Noko, Kec. Wawonii Utara, Konawe Kepulauan, Sulawesi Tenggara 93393","Noko, Kec. Wawonii Utara, Konawe Kepulauan",SULAWESI TENGGARA,93393.0,Indonesia,,,,-4.0224797,123.2091507,https://maps.google.com/?cid=0x0:0x5373cd0204154e2c,
restaurant,Rumah Makan,Warung Makan Al-Fazaa,"XXCQ+6R9, Lamoluo, Kec. Wawonii Bar., Kabupaten Konawe, Sulawesi Tenggara","Kabupaten Konawe, Sulawesi Tenggara",SULAWESI TENGGARA,,Indonesia,,,,-4.0294745,122.989621,https://maps.google.com/?cid=0x0:0xa93ad9d5e81bb81a,
restaurant,Kafe,Kedai Wawonii Coffee,"XXCQ+4CX, Lamoluo, Kec. Wawonii Bar., Kabupaten Konawe, Sulawesi Tenggara","Kabupaten Konawe, Sulawesi Tenggara",SULAWESI TENGGARA,,Indonesia,82310806203.0,,,-4.0296362,122.9886169,https://maps.google.com/?cid=0x0:0x898692b84136ab12,
restaurant,restaurant,WARKOP PUTRA LEMO,"Tumburano, Kec. Wawonii Utara, Konawe Kepulauan, Sulawesi Tenggara 93393","Kec. Wawonii Utara, Konawe Kepulauan",SULAWESI TENGGARA,93393.0,Indonesia,,,,-4.0194821,123.1305698,https://maps.google.com/?cid=0x0:0x293aef6f04161625,
restaurant,Kedai Kopi,WARKOP 12,"XXCR+V2W, Unnamed Road, Lamoluo, Kec. Wawonii Bar., Konawe Kepulauan, Sulawesi Tenggara 93393","Unnamed Road, Lamoluo, Kec. Wawonii Bar., Konawe Kepulauan",SULAWESI TENGGARA,93393.0,Indonesia,85240510365.0,,,-4.0277597,122.9900886,https://maps.google.com/?cid=0x0:0x7afb354abf8cb31e,
restaurant,Sarapan,RM.PA'DAENG,"XXHR+PV8, Langara Laut, Wawonii Bar., Kabupaten Konawe, Sulawesi Tenggara","Kabupaten Konawe, Sulawesi Tenggara",SULAWESI TENGGARA,,Indonesia,82285341345.0,,,-4.0207028,122.9922022,https://maps.google.com/?cid=0x0:0x978de889d93c2886,
restaurant,restaurant,ARIKA_NET,"X3HM+6FJ, Waworope, Kec. Wawonii Utara, Konawe Kepulauan, Sulawesi Tenggara 93393","Waworope, Kec. Wawonii Utara, Konawe Kepulauan",SULAWESI TENGGARA,93393.0,Indonesia,,,,-4.0219068,123.08363,https://maps.google.com/?cid=0x0:0xe01942a8d928b839,
restaurant,Rumah Makan,RM Solcer,"XXFR+W2R, Langara Iwawo, Kec. Wawonii Bar., Konawe Kepulauan, Sulawesi Tenggara 93393","Langara Iwawo, Kec. Wawonii Bar., Konawe Kepulauan",SULAWESI TENGGARA,93393.0,Indonesia,,,,-4.025156,122.9899886,https://maps.google.com/?cid=0x0:0xbe7224dcc8aea523,
restaurant,Petugas Perbatasan,RM Gerbang Langara,"XXGR+VC8, Unnamed Road, Langara Laut, Wawonii Barat, Konawe Islands Regency, South East Sulawesi 93393","Unnamed Road, Langara Laut, Wawonii Barat, Konawe Islands Regency",SULAWESI TENGGARA,93393.0,Indonesia,,,,-4.0228259,122.9910663,https://maps.google.com/?cid=0x0:0xfee35783e0d0e599,
restaurant,Kedai Kopi,Wahyu_Net1,"X4HF+H47, Lansilowo, Kec. Wawonii Utara, Konawe Kepulauan, Sulawesi Tenggara","Konawe Kepulauan, Sulawesi Tenggara",SULAWESI TENGGARA,,Indonesia,,,,-4.0210991,123.1228025,https://maps.google.com/?cid=0x0:0x7346259e5b34b81a,
restaurant,Restoran,WARUNG MAKAN MAS INTAN,"XXGQ+XXP, Langara Iwawo, Kec. Wawonii Bar., Kabupaten Konawe, Sulawesi Tenggara","Kabupaten Konawe, Sulawesi Tenggara",SULAWESI TENGGARA,,Indonesia,,,,-4.0225711,122.990034,https://maps.google.com/?cid=0x0:0x4a95c6802655a4d1,
restaurant,Restoran,Ruamah makan padang,"XXCR+C3, Lamoluo, Kec. Wawonii Bar., Kabupaten Konawe, Sulawesi Tenggara","Kabupaten Konawe, Sulawesi Tenggara",SULAWESI TENGGARA,,Indonesia,82313344001.0,,,-4.0289457,122.9901292,https://maps.google.com/?cid=0x0:0x3c1b3471f0d4c6db,
restaurant,Hotel,Penginapan  Kost Rizky,"Desa, Langara Indah, Kec. Wawonii Bar., Konawe Kepulauan, Sulawesi Tenggara","Konawe Kepulauan, Sulawesi Tenggara",SULAWESI TENGGARA,,Indonesia,85241663782.0,,,-4.0220297,122.9954562,https://maps.google.com/?cid=0x0:0x6e9568cb073be441,
restaurant,Taman bermain,GALU RESTO,"44F8+292, Wawotobi, Kec. Wawotobi, Kabupaten Konawe, Sulawesi Tenggara","Kabupaten Konawe, Sulawesi Tenggara",SULAWESI TENGGARA,,Indonesia,,,,-3.8774857,122.1158906,https://maps.google.com/?cid=0x0:0x43e422e211505102,
restaurant,Ikan Bakar,JR Resto Tepi Sawah  Pemancingan,"Desa Kasupute, Kec. Wawotobi, Kasupute, Kec. Unaaha, Kabupaten Konawe, Sulawesi Tenggara 93461","Kec. Wawotobi, Kasupute, Kec. Unaaha, Kabupaten Konawe",SULAWESI TENGGARA,93461.0,Indonesia,82348866666.0,,,-3.8775236,122.1242357,https://maps.google.com/?cid=0x0:0xf6e67f29ac38a494,
restaurant,Kedai Kopi,Warung Kopi Simpang DW,"Unnamed Road 93393, Langara Iwawo, Kec. Wawonii Bar., Konawe Kepulauan, Sulawesi Tenggara 93393","Langara Iwawo, Kec. Wawonii Bar., Konawe Kepulauan",SULAWESI TENGGARA,93393.0,Indonesia,,,,-4.0241119,122.9903506,https://maps.google.com/?cid=0x0:0x2717bcff8bc07c2e,
restaurant,Hotel,Wisma Puncak Permata Biru,"XXHW+3X4, Bar., Langara Indah, Kec. Wawonii Bar., Kabupaten Konawe, Sulawesi Tenggara 93393","Bar., Langara Indah, Kec. Wawonii Bar., Kabupaten Konawe",SULAWESI TENGGARA,93393.0,Indonesia,81341522263.0,,,-4.0223679,122.9974395,https://maps.google.com/?cid=0x0:0x17c70010775b8489,
restaurant,Dapur Umum,Warung Kita Langara,"XXGR+222, Unnamed Road, Langara Iwawo, Kec. Wawonii Bar., Konawe Kepulauan, Sulawesi Tenggara 93393","Unnamed Road, Langara Iwawo, Kec. Wawonii Bar., Konawe Kepulauan",SULAWESI TENGGARA,93393.0,Indonesia,,,,-4.0249759,122.9900096,https://maps.google.com/?cid=0x0:0xfb4666d9c7e5102b,
cafe,cafe,Kec. Wawonii Bar.,"Konawe Kepulauan, Sulawesi Tenggara","Konawe Kepulauan, Sulawesi Tenggara",SULAWESI TENGGARA,,Indonesia,,,,-4.0251097,122.9901229,https://maps.google.com/?cid=0x0:0xbda035363ef97b99,
cafe,Kafe,Kedai Wawonii Coffee,"XXCQ+4CX, Lamoluo, Kec. Wawonii Bar., Kabupaten Konawe, Sulawesi Tenggara","Kabupaten Konawe, Sulawesi Tenggara",SULAWESI TENGGARA,,Indonesia,82310806203.0,,,-4.0296362,122.9886169,https://maps.google.com/?cid=0x0:0x898692b84136ab12,
cafe,Indonesia,Warung Sahabat wawonii,"Poros wawoola Road, Langara Wawonii Bar., 93393, Langara Iwawo, Kec. Wawonii Bar., Konawe Kepulauan, Sulawesi Tenggara 93393","Langara Wawonii Bar.,",SULAWESI TENGGARA,93393.0,Indonesia,82222269291.0,,,-4.0240497,122.9944951,https://maps.google.com/?cid=0x0:0xc7b30a30c92f0cd3,
cafe,Kedai Kopi,Warung Kopi Simpang DW,"Unnamed Road 93393, Langara Iwawo, Kec. Wawonii Bar., Konawe Kepulauan, Sulawesi Tenggara 93393","Langara Iwawo, Kec. Wawonii Bar., Konawe Kepulauan",SULAWESI TENGGARA,93393.0,Indonesia,,,,-4.0241119,122.9903506,https://maps.google.com/?cid=0x0:0x2717bcff8bc07c2e,
cafe,Petugas Perbatasan,RM Gerbang Langara,"XXGR+VC8, Unnamed Road, Langara Laut, Wawonii Barat, Konawe Islands Regency, South East Sulawesi 93393","Unnamed Road, Langara Laut, Wawonii Barat, Konawe Islands Regency",SULAWESI TENGGARA,93393.0,Indonesia,,,,-4.0228259,122.9910663,https://maps.google.com/?cid=0x0:0xfee35783e0d0e599,
cafe,Rumah Makan,Rm Alsyafi Barokah,"Unnamed Road, Wawonii Bar., 93393, Langara Iwawo, Kec. Wawonii Bar., Konawe Kepulauan, Sulawesi Tenggara","Wawonii Bar.,",SULAWESI TENGGARA,93393.0,Indonesia,85299806714.0,,,-4.0255019,122.989774,https://maps.google.com/?cid=0x0:0x96b31e549ec98c60,
cafe,Restoran,Rumah Makan Ogi'e,"XXGR+6CG, Langara Iwawo, Kec. Wawonii Bar., Konawe Kepulauan, Sulawesi Tenggara","Konawe Kepulauan, Sulawesi Tenggara",SULAWESI TENGGARA,,Indonesia,,,,-4.024254,122.9908195,https://maps.google.com/?cid=0x0:0xc3cd9b18d9bd825e,
cafe,Sarapan,Chicken Ikha,"Desa Lantula, Kec. Wawonii Bar., Konawe Kepulauan, Sulawesi Tenggara 93393","Kec. Wawonii Bar., Konawe Kepulauan",SULAWESI TENGGARA,93393.0,Indonesia,,,,-4.023791,122.9933423,https://maps.google.com/?cid=0x0:0x37b619aa8d37630e,
cafe,Rumah Makan,Warung Makan Al-Fazaa,"XXCQ+6R9, Lamoluo, Kec. Wawonii Bar., Kabupaten Konawe, Sulawesi Tenggara","Kabupaten Konawe, Sulawesi Tenggara",SULAWESI TENGGARA,,Indonesia,,,,-4.0294745,122.989621,https://maps.google.com/?cid=0x0:0xa93ad9d5e81bb81a,
cafe,Sarapan,Rumah Makan Polmas,"XXFQ+VV5, Langara Iwawo, Kec. Wawonii Bar., Konawe Kepulauan, Sulawesi Tenggara","Konawe Kepulauan, Sulawesi Tenggara",SULAWESI TENGGARA,,Indonesia,,,,-4.0253597,122.9897396,https://maps.google.com/?cid=0x0:0x6d8ad5a6bdc20741,
cafe,Dapur Umum,Martabak,"XXFQ+WW8, Langara Iwawo, Kec. Wawonii Bar., Kabupaten Konawe, Sulawesi Tenggara","Kabupaten Konawe, Sulawesi Tenggara",SULAWESI TENGGARA,,Indonesia,82259282755.0,,,-4.025206,122.989836,https://maps.google.com/?cid=0x0:0xdc72249ec0b3a90d,
cafe,Kedai Kopi,Kedai LESTARI PINK,"Ex tpi langara, Langara Laut, Wawonii Bar., Konawe Kepulauan, Sulawesi Tenggara 93393","Langara Laut, Wawonii Bar., Konawe Kepulauan",SULAWESI TENGGARA,93393.0,Indonesia,82249586575.0,,,-4.0226862,122.9897751,https://maps.google.com/?cid=0x0:0xef6048e482e908,
cafe,Dapur Umum,Lapak Smoothies Araqueen,"XXJW+42H, Langaro Bajo, Kec. Wawonii Bar., Kabupaten Konawe, Sulawesi Tenggara","Kabupaten Konawe, Sulawesi Tenggara",SULAWESI TENGGARA,,Indonesia,82142668764.0,,,-4.0196941,122.995098,https://maps.google.com/?cid=0x0:0x7e52bbf4f67b758,
cafe,Restoran,Ruamah makan padang,"XXCR+C3, Lamoluo, Kec. Wawonii Bar., Kabupaten Konawe, Sulawesi Tenggara","Kabupaten Konawe, Sulawesi Tenggara",SULAWESI TENGGARA,,Indonesia,82313344001.0,,,-4.0289457,122.9901292,https://maps.google.com/?cid=0x0:0x3c1b3471f0d4c6db,
cafe,Kedai Kopi,LUCKY STUDIO  BUGIS CAFE,"LANGKOWALA, Kec. Wawonii Bar., Konawe Kepulauan, Sulawesi Tenggara 93933","Kec. Wawonii Bar., Konawe Kepulauan",SULAWESI TENGGARA,93933.0,Indonesia,811441032.0,,,-4.0236834,122.9966573,https://maps.google.com/?cid=0x0:0xdf17c7dfe52f95ae,
cafe,Restoran,WARUNG MAKAN MAS INTAN,"XXGQ+XXP, Langara Iwawo, Kec. Wawonii Bar., Kabupaten Konawe, Sulawesi Tenggara","Kabupaten Konawe, Sulawesi Tenggara",SULAWESI TENGGARA,,Indonesia,,,,-4.0225711,122.990034,https://maps.google.com/?cid=0x0:0x4a95c6802655a4d1,
cafe,Warnet,KANTOR SCKOM WAWONII,"XXCQ+757, Mata Langara, Kec. Wawonii Bar., Konawe Kepulauan, Sulawesi Tenggara","Konawe Kepulauan, Sulawesi Tenggara",SULAWESI TENGGARA,,Indonesia,,,,-4.0293411,122.987935,https://maps.google.com/?cid=0x0:0xf7808b33ca0b1e5a,
cafe,Sarapan,RM.PA'DAENG,"XXHR+PV8, Langara Laut, Wawonii Bar., Kabupaten Konawe, Sulawesi Tenggara","Kabupaten Konawe, Sulawesi Tenggara",SULAWESI TENGGARA,,Indonesia,82285341345.0,,,-4.0207028,122.9922022,https://maps.google.com/?cid=0x0:0x978de889d93c2886,
cafe,Dapur Umum,Warung Kita Langara,"XXGR+222, Unnamed Road, Langara Iwawo, Kec. Wawonii Bar., Konawe Kepulauan, Sulawesi Tenggara 93393","Unnamed Road, Langara Iwawo, Kec. Wawonii Bar., Konawe Kepulauan",SULAWESI TENGGARA,93393.0,Indonesia,,,,-4.0249759,122.9900096,https://maps.google.com/?cid=0x0:0xfb4666d9c7e5102b,
cafe,Rumah Makan,RM Solcer,"XXFR+W2R, Langara Iwawo, Kec. Wawonii Bar., Konawe Kepulauan, Sulawesi Tenggara 93393","Langara Iwawo, Kec. Wawonii Bar., Konawe Kepulauan",SULAWESI TENGGARA,93393.0,Indonesia,,,,-4.025156,122.9899886,https://maps.google.com/?cid=0x0:0xbe7224dcc8aea523,
cafe,Martabak,Martabak AZ-ZIKRA,"XXHV+FJQ, Langara Indah, Kec. Wawonii Bar., Konawe Kepulauan, Sulawesi Tenggara","Konawe Kepulauan, Sulawesi Tenggara",SULAWESI TENGGARA,,Indonesia,81220162920.0,,,-4.0212841,122.9941162,https://maps.google.com/?cid=0x0:0x2114781e59637b4,
cafe,cafe,Kec. Wawonii Sel.,"Konawe Kepulauan, Sulawesi Tenggara","Konawe Kepulauan, Sulawesi Tenggara",SULAWESI TENGGARA,,Indonesia,,,,-4.2028994,123.010426,https://maps.google.com/?cid=0x0:0xb39af7237da21d46,
cafe,Kafe,Kedai Wawonii Coffee,"XXCQ+4CX, Lamoluo, Kec. Wawonii Bar., Kabupaten Konawe, Sulawesi Tenggara","Kabupaten Konawe, Sulawesi Tenggara",SULAWESI TENGGARA,,Indonesia,82310806203.0,,,-4.0296362,122.9886169,https://maps.google.com/?cid=0x0:0x898692b84136ab12,
cafe,Kafe,Warkop Andalan Papa,"VX3M+966, Wungkolo, Kec. Wawonii Sel., Konawe Kepulauan, Sulawesi Tenggara 93393","Wungkolo, Kec. Wawonii Sel., Konawe Kepulauan",SULAWESI TENGGARA,93393.0,Indonesia,,,,-4.146673,122.9829944,https://maps.google.com/?cid=0x0:0x7c19ffbefb234a66,
cafe,Dapur Umum,Warung Ma'yor,"VX99+PMP, Lampeapi, Kec. Wawonii Tengah, Konawe Kepulauan, Sulawesi Tenggara 93393","Lampeapi, Kec. Wawonii Tengah, Konawe Kepulauan",SULAWESI TENGGARA,93393.0,Indonesia,,,,-4.1306725,122.9691965,https://maps.google.com/?cid=0x0:0xbe88c3d316db6f64,
cafe,Brunch,Warung Makan Lampung,"V47F+GHR, Pulau Wowoni, Kec. Wawonii Tenggara, Konawe Kepulauan, Sulawesi Tenggara 93393","Pulau Wowoni, Kec. Wawonii Tenggara, Konawe Kepulauan",SULAWESI TENGGARA,93393.0,Indonesia,81377637274.0,,,-4.1361464,123.123905,https://maps.google.com/?cid=0x0:0x2580e5e1cc5e9200,
cafe,cafe,Kedai I  ICE,"R2WG+WPG, Sawapatani, Kec. Wawonii Sel., Konawe Kepulauan, Sulawesi Tenggara","Konawe Kepulauan, Sulawesi Tenggara",SULAWESI TENGGARA,,Indonesia,82235938078.0,,,-4.1526984,123.0268398,https://maps.google.com/?cid=0x0:0xb3fe820cab1053ef,
cafe,cafe,Kopi bang mus,"VXF9+796, Lampeapi Baru, Kec. Wawonii Tengah, Kabupaten Konawe, Sulawesi Tenggara 93393","Lampeapi Baru, Kec. Wawonii Tengah, Kabupaten Konawe",SULAWESI TENGGARA,93393.0,Indonesia,,,,-4.1268355,122.9684019,https://maps.google.com/?cid=0x0:0x2a8283724c155af4,
cafe,Kedai Kopi,Warung Kopi Simpang DW,"Unnamed Road 93393, Langara Iwawo, Kec. Wawonii Bar., Konawe Kepulauan, Sulawesi Tenggara 93393","Langara Iwawo, Kec. Wawonii Bar., Konawe Kepulauan",SULAWESI TENGGARA,93393.0,Indonesia,,,,-4.0241119,122.9903506,https://maps.google.com/?cid=0x0:0x2717bcff8bc07c2e,
cafe,cafe,Kec. Wawonii Tengah,"Konawe Kepulauan, Sulawesi Tenggara","Konawe Kepulauan, Sulawesi Tenggara",SULAWESI TENGGARA,,Indonesia,,,,-4.1312287,122.9691468,https://maps.google.com/?cid=0x0:0x3815a4df92a01d0a,
cafe,Kafe,Kedai Wawonii Coffee,"XXCQ+4CX, Lamoluo, Kec. Wawonii Bar., Kabupaten Konawe, Sulawesi Tenggara","Kabupaten Konawe, Sulawesi Tenggara",SULAWESI TENGGARA,,Indonesia,82310806203.0,,,-4.0296362,122.9886169,https://maps.google.com/?cid=0x0:0x898692b84136ab12,
cafe,Kedai Kopi,WARKOP 12,"XXCR+V2W, Unnamed Road, Lamoluo, Kec. Wawonii Bar., Konawe Kepulauan, Sulawesi Tenggara 93393","Unnamed Road, Lamoluo, Kec. Wawonii Bar., Konawe Kepulauan",SULAWESI TENGGARA,93393.0,Indonesia,85240510365.0,,,-4.0277597,122.9900886,https://maps.google.com/?cid=0x0:0x7afb354abf8cb31e,
cafe,Kafe,Warkop Andalan Papa,"VX3M+966, Wungkolo, Kec. Wawonii Sel., Konawe Kepulauan, Sulawesi Tenggara 93393","Wungkolo, Kec. Wawonii Sel., Konawe Kepulauan",SULAWESI TENGGARA,93393.0,Indonesia,,,,-4.146673,122.9829944,https://maps.google.com/?cid=0x0:0x7c19ffbefb234a66,
cafe,Kedai Kopi,Warung Kopi Simpang DW,"Unnamed Road 93393, Langara Iwawo, Kec. Wawonii Bar., Konawe Kepulauan, Sulawesi Tenggara 93393","Langara Iwawo, Kec. Wawonii Bar., Konawe Kepulauan",SULAWESI TENGGARA,93393.0,Indonesia,,,,-4.0241119,122.9903506,https://maps.google.com/?cid=0x0:0x2717bcff8bc07c2e,
cafe,Toko Makanan,Warung bakso dan pangsit Amelia,"VXQ5+8FP, Mekar Sari, Kec. Wawonii Tengah, Konawe Kepulauan, Sulawesi Tenggara","Konawe Kepulauan, Sulawesi Tenggara",SULAWESI TENGGARA,,Indonesia,82187613839.0,,,-4.1116715,122.9587014,https://maps.google.com/?cid=0x0:0xbc071e491e9d9784,
cafe,Kafe,Banggona Coffee,"Jl. Poros Bungku Sel. - Kendari No.1, Wanggudu, Kec. Asera, Kabupaten Konawe Utara, Sulawesi Tenggara 93353","Wanggudu, Kec. Asera, Kabupaten Konawe Utara",SULAWESI TENGGARA,93353.0,Indonesia,,,,-3.5171497,122.1113591,https://maps.google.com/?cid=0x0:0xf833f394b723675,
cafe,cafe,Kedai I  ICE,"R2WG+WPG, Sawapatani, Kec. Wawonii Sel., Konawe Kepulauan, Sulawesi Tenggara","Konawe Kepulauan, Sulawesi Tenggara",SULAWESI TENGGARA,,Indonesia,82235938078.0,,,-4.1526984,123.0268398,https://maps.google.com/?cid=0x0:0xb3fe820cab1053ef,
cafe,cafe,Kopi bang mus,"VXF9+796, Lampeapi Baru, Kec. Wawonii Tengah, Kabupaten Konawe, Sulawesi Tenggara 93393","Lampeapi Baru, Kec. Wawonii Tengah, Kabupaten Konawe",SULAWESI TENGGARA,93393.0,Indonesia,,,,-4.1268355,122.9684019,https://maps.google.com/?cid=0x0:0x2a8283724c155af4,
cafe,Kedai Kopi,LUCKY STUDIO  BUGIS CAFE,"LANGKOWALA, Kec. Wawonii Bar., Konawe Kepulauan, Sulawesi Tenggara 93933","Kec. Wawonii Bar., Konawe Kepulauan",SULAWESI TENGGARA,93933.0,Indonesia,811441032.0,,,-4.0236834,122.9966573,https://maps.google.com/?cid=0x0:0xdf17c7dfe52f95ae,
cafe,cafe,Sulawesi Tenggara 93393,"Konawe Kepulauan, Sulawesi Tenggara","Konawe Kepulauan, Sulawesi Tenggara",SULAWESI TENGGARA,,Indonesia,,,,-4.0664588,123.1239049,https://maps.google.com/?cid=0x0:0xf20c69a9e2bf97eb,
cafe,Kafe,Kedai Wawonii Coffee,"XXCQ+4CX, Lamoluo, Kec. Wawonii Bar., Kabupaten Konawe, Sulawesi Tenggara","Kabupaten Konawe, Sulawesi Tenggara",SULAWESI TENGGARA,,Indonesia,82310806203.0,,,-4.0296362,122.9886169,https://maps.google.com/?cid=0x0:0x898692b84136ab12,
cafe,Kedai Kopi,WARKOP 12,"XXCR+V2W, Unnamed Road, Lamoluo, Kec. Wawonii Bar., Konawe Kepulauan, Sulawesi Tenggara 93393","Unnamed Road, Lamoluo, Kec. Wawonii Bar., Konawe Kepulauan",SULAWESI TENGGARA,93393.0,Indonesia,85240510365.0,,,-4.0277597,122.9900886,https://maps.google.com/?cid=0x0:0x7afb354abf8cb31e,
cafe,Kafe,Warkop Andalan Papa,"VX3M+966, Wungkolo, Kec. Wawonii Sel., Konawe Kepulauan, Sulawesi Tenggara 93393","Wungkolo, Kec. Wawonii Sel., Konawe Kepulauan",SULAWESI TENGGARA,93393.0,Indonesia,,,,-4.146673,122.9829944,https://maps.google.com/?cid=0x0:0x7c19ffbefb234a66,
cafe,cafe,ARIKA_NET,"X3HM+6FJ, Waworope, Kec. Wawonii Utara, Konawe Kepulauan, Sulawesi Tenggara 93393","Waworope, Kec. Wawonii Utara, Konawe Kepulauan",SULAWESI TENGGARA,93393.0,Indonesia,,,,-4.0219068,123.08363,https://maps.google.com/?cid=0x0:0xe01942a8d928b839,
cafe,Dapur Umum,Warung Ma'yor,"VX99+PMP, Lampeapi, Kec. Wawonii Tengah, Konawe Kepulauan, Sulawesi Tenggara 93393","Lampeapi, Kec. Wawonii Tengah, Konawe Kepulauan",SULAWESI TENGGARA,93393.0,Indonesia,,,,-4.1306725,122.9691965,https://maps.google.com/?cid=0x0:0xbe88c3d316db6f64,
cafe,Brunch,Warung Makan Lampung,"V47F+GHR, Pulau Wowoni, Kec. Wawonii Tenggara, Konawe Kepulauan, Sulawesi Tenggara 93393","Pulau Wowoni, Kec. Wawonii Tenggara, Konawe Kepulauan",SULAWESI TENGGARA,93393.0,Indonesia,81377637274.0,,,-4.1361464,123.123905,https://maps.google.com/?cid=0x0:0x2580e5e1cc5e9200,
cafe,Restoran,Warung makan wonua manu,"X6H5+2M2, Noko, Kec. Wawonii Utara, Konawe Kepulauan, Sulawesi Tenggara 93393","Noko, Kec. Wawonii Utara, Konawe Kepulauan",SULAWESI TENGGARA,93393.0,Indonesia,,,,-4.0224797,123.2091507,https://maps.google.com/?cid=0x0:0x5373cd0204154e2c,
cafe,Kedai Kopi,Rumah makan banjar,"P3XX+5Q6, Dompo-Dompo Jaya, Kec. Wawonii Tenggara, Konawe Kepulauan, Sulawesi Tenggara","Konawe Kepulauan, Sulawesi Tenggara",SULAWESI TENGGARA,,Indonesia,,,,-4.2520837,123.0993889,https://maps.google.com/?cid=0x0:0x84b6b241d0dc5d65,
cafe,Kedai Kopi,Wahyu_Net1,"X4HF+H47, Lansilowo, Kec. Wawonii Utara, Konawe Kepulauan, Sulawesi Tenggara","Konawe Kepulauan, Sulawesi Tenggara",SULAWESI TENGGARA,,Indonesia,,,,-4.0210991,123.1228025,https://maps.google.com/?cid=0x0:0x7346259e5b34b81a,
cafe,Bakso,WARUNG BAKSO MOSOLO,"Masolo, Kec. Wawonii Tenggara, Konawe Kepulauan, Sulawesi Tenggara","Konawe Kepulauan, Sulawesi Tenggara",SULAWESI TENGGARA,,Indonesia,87784185828.0,,,-4.2096896,123.1629956,https://maps.google.com/?cid=0x0:0x58cb7ec32a5acce3,
cafe,cafe,Kedai I  ICE,"R2WG+WPG, Sawapatani, Kec. Wawonii Sel., Konawe Kepulauan, Sulawesi Tenggara","Konawe Kepulauan, Sulawesi Tenggara",SULAWESI TENGGARA,,Indonesia,82235938078.0,,,-4.1526984,123.0268398,https://maps.google.com/?cid=0x0:0xb3fe820cab1053ef,
cafe,Toko Makanan,Warung bakso dan pangsit Amelia,"VXQ5+8FP, Mekar Sari, Kec. Wawonii Tengah, Konawe Kepulauan, Sulawesi Tenggara","Konawe Kepulauan, Sulawesi Tenggara",SULAWESI TENGGARA,,Indonesia,82187613839.0,,,-4.1116715,122.9587014,https://maps.google.com/?cid=0x0:0xbc071e491e9d9784,
cafe,Toko umum,Keday moms april,"Dompo-Dompo Jaya, Kec. Wawonii Tenggara, Konawe Kepulauan, Sulawesi Tenggara 93393","Kec. Wawonii Tenggara, Konawe Kepulauan",SULAWESI TENGGARA,93393.0,Indonesia,852262459201.0,,,-4.2512722,123.0976803,https://maps.google.com/?cid=0x0:0x48b833e056d3284a,
cafe,Toko Makanan,warung bakso simpang tiga,"Q422+45P, Sukarela Jaya, Kec. Wawonii Tenggara, Kabupaten Konawe, Sulawesi Tenggara","Kabupaten Konawe, Sulawesi Tenggara",SULAWESI TENGGARA,,Indonesia,,,,-4.2496702,123.1004511,https://maps.google.com/?cid=0x0:0x9faedbf29802c57f,
cafe,Toko Pakaian,Maian-Shop,"44F7+6QH, Wawotobi, Kec. Wawotobi, Kabupaten Konawe, Sulawesi Tenggara 93461","Wawotobi, Kec. Wawotobi, Kabupaten Konawe",SULAWESI TENGGARA,93461.0,Indonesia,81245572138.0,,,-3.8769291,122.1144904,https://maps.google.com/?cid=0x0:0x8a390cfa0d9935d9,
cafe,cafe,Nasi Kuning Mama Yuni,"Q4Q6+C63, Dompo-Dompo Jaya, Kec. Wawonii Tenggara, Konawe Kepulauan, Sulawesi Tenggara","Konawe Kepulauan, Sulawesi Tenggara",SULAWESI TENGGARA,,Indonesia,,,,-4.2114932,123.1105465,https://maps.google.com/?cid=0x0:0xbcad81704652fbc3,
cafe,cafe,Kec. Wawonii Tenggara,"Konawe Kepulauan, Sulawesi Tenggara","Konawe Kepulauan, Sulawesi Tenggara",SULAWESI TENGGARA,,Indonesia,,,,-4.252093,123.0993267,https://maps.google.com/?cid=0x0:0xe1036d4655923fdc,
cafe,Indonesia,Warung Sahabat wawonii,"Poros wawoola Road, Langara Wawonii Bar., 93393, Langara Iwawo, Kec. Wawonii Bar., Konawe Kepulauan, Sulawesi Tenggara 93393","Langara Wawonii Bar.,",SULAWESI TENGGARA,93393.0,Indonesia,82222269291.0,,,-4.0240497,122.9944951,https://maps.google.com/?cid=0x0:0xc7b30a30c92f0cd3,
cafe,Kedai Kopi,Warung Kopi Simpang DW,"Unnamed Road 93393, Langara Iwawo, Kec. Wawonii Bar., Konawe Kepulauan, Sulawesi Tenggara 93393","Langara Iwawo, Kec. Wawonii Bar., Konawe Kepulauan",SULAWESI TENGGARA,93393.0,Indonesia,,,,-4.0241119,122.9903506,https://maps.google.com/?cid=0x0:0x2717bcff8bc07c2e,
cafe,Petugas Perbatasan,RM Gerbang Langara,"XXGR+VC8, Unnamed Road, Langara Laut, Wawonii Barat, Konawe Islands Regency, South East Sulawesi 93393","Unnamed Road, Langara Laut, Wawonii Barat, Konawe Islands Regency",SULAWESI TENGGARA,93393.0,Indonesia,,,,-4.0228259,122.9910663,https://maps.google.com/?cid=0x0:0xfee35783e0d0e599,
cafe,Rumah Makan,Rm Alsyafi Barokah,"Unnamed Road, Wawonii Bar., 93393, Langara Iwawo, Kec. Wawonii Bar., Konawe Kepulauan, Sulawesi Tenggara","Wawonii Bar.,",SULAWESI TENGGARA,93393.0,Indonesia,85299806714.0,,,-4.0255019,122.989774,https://maps.google.com/?cid=0x0:0x96b31e549ec98c60,
cafe,Sarapan,Chicken Ikha,"Desa Lantula, Kec. Wawonii Bar., Konawe Kepulauan, Sulawesi Tenggara 93393","Kec. Wawonii Bar., Konawe Kepulauan",SULAWESI TENGGARA,93393.0,Indonesia,,,,-4.023791,122.9933423,https://maps.google.com/?cid=0x0:0x37b619aa8d37630e,
cafe,Restoran,Rumah Makan Ogi'e,"XXGR+6CG, Langara Iwawo, Kec. Wawonii Bar., Konawe Kepulauan, Sulawesi Tenggara","Konawe Kepulauan, Sulawesi Tenggara",SULAWESI TENGGARA,,Indonesia,,,,-4.024254,122.9908195,https://maps.google.com/?cid=0x0:0xc3cd9b18d9bd825e,
cafe,Rumah Makan,Warung Makan Al-Fazaa,"XXCQ+6R9, Lamoluo, Kec. Wawonii Bar., Kabupaten Konawe, Sulawesi Tenggara","Kabupaten Konawe, Sulawesi Tenggara",SULAWESI TENGGARA,,Indonesia,,,,-4.0294745,122.989621,https://maps.google.com/?cid=0x0:0xa93ad9d5e81bb81a,
cafe,Sarapan,Rumah Makan Polmas,"XXFQ+VV5, Langara Iwawo, Kec. Wawonii Bar., Konawe Kepulauan, Sulawesi Tenggara","Konawe Kepulauan, Sulawesi Tenggara",SULAWESI TENGGARA,,Indonesia,,,,-4.0253597,122.9897396,https://maps.google.com/?cid=0x0:0x6d8ad5a6bdc20741,
cafe,Dapur Umum,Martabak,"XXFQ+WW8, Langara Iwawo, Kec. Wawonii Bar., Kabupaten Konawe, Sulawesi Tenggara","Kabupaten Konawe, Sulawesi Tenggara",SULAWESI TENGGARA,,Indonesia,82259282755.0,,,-4.025206,122.989836,https://maps.google.com/?cid=0x0:0xdc72249ec0b3a90d,
cafe,Kedai Kopi,Kedai LESTARI PINK,"Ex tpi langara, Langara Laut, Wawonii Bar., Konawe Kepulauan, Sulawesi Tenggara 93393","Langara Laut, Wawonii Bar., Konawe Kepulauan",SULAWESI TENGGARA,93393.0,Indonesia,82249586575.0,,,-4.0226862,122.9897751,https://maps.google.com/?cid=0x0:0xef6048e482e908,
cafe,cafe,Kec. Wawonii Tim.,"Konawe Kepulauan, Sulawesi Tenggara","Konawe Kepulauan, Sulawesi Tenggara",SULAWESI TENGGARA,,Indonesia,,,,-4.0982853,123.250794,https://maps.google.com/?cid=0x0:0xfc2f57f24f39f720,
cafe,Kafe,Kedai Wawonii Coffee,"XXCQ+4CX, Lamoluo, Kec. Wawonii Bar., Kabupaten Konawe, Sulawesi Tenggara","Kabupaten Konawe, Sulawesi Tenggara",SULAWESI TENGGARA,,Indonesia,82310806203.0,,,-4.0296362,122.9886169,https://maps.google.com/?cid=0x0:0x898692b84136ab12,
cafe,Indonesia,Warung Sahabat wawonii,"Poros wawoola Road, Langara Wawonii Bar., 93393, Langara Iwawo, Kec. Wawonii Bar., Konawe Kepulauan, Sulawesi Tenggara 93393","Langara Wawonii Bar.,",SULAWESI TENGGARA,93393.0,Indonesia,82222269291.0,,,-4.0240497,122.9944951,https://maps.google.com/?cid=0x0:0xc7b30a30c92f0cd3,
cafe,Brunch,Warung Makan Lampung,"V47F+GHR, Pulau Wowoni, Kec. Wawonii Tenggara, Konawe Kepulauan, Sulawesi Tenggara 93393","Pulau Wowoni, Kec. Wawonii Tenggara, Konawe Kepulauan",SULAWESI TENGGARA,93393.0,Indonesia,81377637274.0,,,-4.1361464,123.123905,https://maps.google.com/?cid=0x0:0x2580e5e1cc5e9200,
cafe,Kedai Kopi,Warung Kopi Simpang DW,"Unnamed Road 93393, Langara Iwawo, Kec. Wawonii Bar., Konawe Kepulauan, Sulawesi Tenggara 93393","Langara Iwawo, Kec. Wawonii Bar., Konawe Kepulauan",SULAWESI TENGGARA,93393.0,Indonesia,,,,-4.0241119,122.9903506,https://maps.google.com/?cid=0x0:0x2717bcff8bc07c2e,
cafe,Kedai Kopi,LUCKY STUDIO  BUGIS CAFE,"LANGKOWALA, Kec. Wawonii Bar., Konawe Kepulauan, Sulawesi Tenggara 93933","Kec. Wawonii Bar., Konawe Kepulauan",SULAWESI TENGGARA,93933.0,Indonesia,811441032.0,,,-4.0236834,122.9966573,https://maps.google.com/?cid=0x0:0xdf17c7dfe52f95ae,
cafe,cafe,Kec. Wawonii Tim. Laut,"Konawe Kepulauan, Sulawesi Tenggara","Konawe Kepulauan, Sulawesi Tenggara",SULAWESI TENGGARA,,Indonesia,,,,-4.0289083,123.2198736,https://maps.google.com/?cid=0x0:0x81f76d50d04c3d1b,
cafe,Kafe,Kedai Wawonii Coffee,"XXCQ+4CX, Lamoluo, Kec. Wawonii Bar., Kabupaten Konawe, Sulawesi Tenggara","Kabupaten Konawe, Sulawesi Tenggara",SULAWESI TENGGARA,,Indonesia,82310806203.0,,,-4.0296362,122.9886169,https://maps.google.com/?cid=0x0:0x898692b84136ab12,
cafe,Kedai Kopi,WARKOP 12,"XXCR+V2W, Unnamed Road, Lamoluo, Kec. Wawonii Bar., Konawe Kepulauan, Sulawesi Tenggara 93393","Unnamed Road, Lamoluo, Kec. Wawonii Bar., Konawe Kepulauan",SULAWESI TENGGARA,93393.0,Indonesia,85240510365.0,,,-4.0277597,122.9900886,https://maps.google.com/?cid=0x0:0x7afb354abf8cb31e,
cafe,Kedai Kopi,Warung Kopi Simpang DW,"Unnamed Road 93393, Langara Iwawo, Kec. Wawonii Bar., Konawe Kepulauan, Sulawesi Tenggara 93393","Langara Iwawo, Kec. Wawonii Bar., Konawe Kepulauan",SULAWESI TENGGARA,93393.0,Indonesia,,,,-4.0241119,122.9903506,https://maps.google.com/?cid=0x0:0x2717bcff8bc07c2e,
cafe,Restoran,Warung makan wonua manu,"X6H5+2M2, Noko, Kec. Wawonii Utara, Konawe Kepulauan, Sulawesi Tenggara 93393","Noko, Kec. Wawonii Utara, Konawe Kepulauan",SULAWESI TENGGARA,93393.0,Indonesia,,,,-4.0224797,123.2091507,https://maps.google.com/?cid=0x0:0x5373cd0204154e2c,
cafe,cafe,Bangun Mekar,"X5FV+FMV, desa, Bangun Mekar, Kec. Wawonii Tim. Laut, Konawe Kepulauan, Sulawesi Tenggara 93393","desa, Bangun Mekar, Kec. Wawonii Tim. Laut, Konawe Kepulauan",SULAWESI TENGGARA,93393.0,Indonesia,87879009241.0,,,-4.0262644,123.1941823,https://maps.google.com/?cid=0x0:0x46c8d06adf087181,
cafe,Kafe,Lorong ji Coffee,"Jl. Anoa, Tumpas, Kec. Unaaha, Kabupaten Konawe, Sulawesi Tenggara 93415","Tumpas, Kec. Unaaha, Kabupaten Konawe",SULAWESI TENGGARA,93415.0,Indonesia,81245779677.0,,,-3.8628038,122.0442345,https://maps.google.com/?cid=0x0:0x54c9088a1d37a2fa,
cafe,Restoran,AWI Coffee Tuoy,"Jl. Letjen. Dii Panjaitan, Tuoy, Kec. Unaaha, Kabupaten Konawe, Sulawesi Tenggara 93415","Tuoy, Kec. Unaaha, Kabupaten Konawe",SULAWESI TENGGARA,93415.0,Indonesia,82352337847.0,,,-3.8645473,122.0723024,https://maps.google.com/?cid=0x0:0x6ae7d97d7ca8b690,
cafe,Kafe,Warkop Ranomeeto CR7,"Jl. Poros Bandara Haluoleo, Langgea, Kec. Ranomeeto, Kabupaten Konawe Selatan, Sulawesi Tenggara 93563","Langgea, Kec. Ranomeeto, Kabupaten Konawe Selatan",SULAWESI TENGGARA,93563.0,Indonesia,81354673170.0,,,-4.0384556,122.4668242,https://maps.google.com/?cid=0x0:0xfc17addfa3d8b302,
cafe,cafe,Kec. Wawonii Utara,"Konawe Kepulauan, Sulawesi Tenggara","Konawe Kepulauan, Sulawesi Tenggara",SULAWESI TENGGARA,,Indonesia,,,,-4.0224465,123.1012938,https://maps.google.com/?cid=0x0:0xe956c20a678ad47,
cafe,Kafe,Kedai Wawonii Coffee,"XXCQ+4CX, Lamoluo, Kec. Wawonii Bar., Kabupaten Konawe, Sulawesi Tenggara","Kabupaten Konawe, Sulawesi Tenggara",SULAWESI TENGGARA,,Indonesia,82310806203.0,,,-4.0296362,122.9886169,https://maps.google.com/?cid=0x0:0x898692b84136ab12,
cafe,cafe,WARKOP PUTRA LEMO,"Tumburano, Kec. Wawonii Utara, Konawe Kepulauan, Sulawesi Tenggara 93393","Kec. Wawonii Utara, Konawe Kepulauan",SULAWESI TENGGARA,93393.0,Indonesia,,,,-4.0194821,123.1305698,https://maps.google.com/?cid=0x0:0x293aef6f04161625,
cafe,Kedai Kopi,WARKOP 12,"XXCR+V2W, Unnamed Road, Lamoluo, Kec. Wawonii Bar., Konawe Kepulauan, Sulawesi Tenggara 93393","Unnamed Road, Lamoluo, Kec. Wawonii Bar., Konawe Kepulauan",SULAWESI TENGGARA,93393.0,Indonesia,85240510365.0,,,-4.0277597,122.9900886,https://maps.google.com/?cid=0x0:0x7afb354abf8cb31e,
cafe,Indonesia,Warung Sahabat wawonii,"Poros wawoola Road, Langara Wawonii Bar., 93393, Langara Iwawo, Kec. Wawonii Bar., Konawe Kepulauan, Sulawesi Tenggara 93393","Langara Wawonii Bar.,",SULAWESI TENGGARA,93393.0,Indonesia,82222269291.0,,,-4.0240497,122.9944951,https://maps.google.com/?cid=0x0:0xc7b30a30c92f0cd3,
cafe,Kedai Kopi,Wahyu_Net1,"X4HF+H47, Lansilowo, Kec. Wawonii Utara, Konawe Kepulauan, Sulawesi Tenggara","Konawe Kepulauan, Sulawesi Tenggara",SULAWESI TENGGARA,,Indonesia,,,,-4.0210991,123.1228025,https://maps.google.com/?cid=0x0:0x7346259e5b34b81a,
cafe,Kedai Kopi,Warung Kopi Simpang DW,"Unnamed Road 93393, Langara Iwawo, Kec. Wawonii Bar., Konawe Kepulauan, Sulawesi Tenggara 93393","Langara Iwawo, Kec. Wawonii Bar., Konawe Kepulauan",SULAWESI TENGGARA,93393.0,Indonesia,,,,-4.0241119,122.9903506,https://maps.google.com/?cid=0x0:0x2717bcff8bc07c2e,
cafe,Restoran,Warung makan wonua manu,"X6H5+2M2, Noko, Kec. Wawonii Utara, Konawe Kepulauan, Sulawesi Tenggara 93393","Noko, Kec. Wawonii Utara, Konawe Kepulauan",SULAWESI TENGGARA,93393.0,Indonesia,,,,-4.0224797,123.2091507,https://maps.google.com/?cid=0x0:0x5373cd0204154e2c,
cafe,Kedai Kopi,LUCKY STUDIO  BUGIS CAFE,"LANGKOWALA, Kec. Wawonii Bar., Konawe Kepulauan, Sulawesi Tenggara 93933","Kec. Wawonii Bar., Konawe Kepulauan",SULAWESI TENGGARA,93933.0,Indonesia,811441032.0,,,-4.0236834,122.9966573,https://maps.google.com/?cid=0x0:0xdf17c7dfe52f95ae,
cafe,Petugas Perbatasan,RM Gerbang Langara,"XXGR+VC8, Unnamed Road, Langara Laut, Wawonii Barat, Konawe Islands Regency, South East Sulawesi 93393","Unnamed Road, Langara Laut, Wawonii Barat, Konawe Islands Regency",SULAWESI TENGGARA,93393.0,Indonesia,,,,-4.0228259,122.9910663,https://maps.google.com/?cid=0x0:0xfee35783e0d0e599,
cafe,Rumah Makan,Rm Alsyafi Barokah,"Unnamed Road, Wawonii Bar., 93393, Langara Iwawo, Kec. Wawonii Bar., Konawe Kepulauan, Sulawesi Tenggara","Wawonii Bar.,",SULAWESI TENGGARA,93393.0,Indonesia,85299806714.0,,,-4.0255019,122.989774,https://maps.google.com/?cid=0x0:0x96b31e549ec98c60,
