Category,Real Category,Business Name,Address,City,State,Postal Code,Country,Phone,Email,Website,Latitude,Longitude,Map Link,Details Link
mall,mall,Kec. Wawonii Bar.,"Konawe Kepulauan, Sulawesi Tenggara","Konawe Kepulauan, Sulawesi Tenggara",SULAWESI TENGGARA,,Indonesia,,,,-4.0251097,122.9901229,https://maps.google.com/?cid=0x0:0xbda035363ef97b99,
mall,Toko Swalayan,Kios Fauzi,"XXHR+2GJ, Unnamed Road, Langara Laut, Kec. Wawonii Bar., Konawe Kepulauan, Sulawesi Tenggara 93393","Unnamed Road, Langara Laut, Kec. Wawonii Bar., Konawe Kepulauan",SULAWESI TENGGARA,93393.0,Indonesia,82345221113.0,,,-4.0224206,122.9912617,https://maps.google.com/?cid=0x0:0x44d1b4207a49d76e,
mall,Kantor Perusahaan,Foot Copy UD Rahman Karya,"XX9Q+MXH, Unnamed Road, Bukit Permai, Kec. Wawonii Bar., Konawe Kepulauan, Sulawesi Tenggara 93393","Unnamed Road, Bukit Permai, Kec. Wawonii Bar., Konawe Kepulauan",SULAWESI TENGGARA,93393.0,Indonesia,,,,-4.0308213,122.989983,https://maps.google.com/?cid=0x0:0x86c7ae7ac9bea6b7,
mall,Pusat Perbelanjaan,Dito Farm Hidroponik,"Unnamed Road, Lamoluo, Kec. Wawonii Bar., Konawe Kepulauan, Sulawesi Tenggara 93393","Lamoluo, Kec. Wawonii Bar., Konawe Kepulauan",SULAWESI TENGGARA,93393.0,Indonesia,81341261900.0,,,-4.0314049,122.9910054,https://maps.google.com/?cid=0x0:0x2cf92baa27385744,
mall,Minimarket,KIOS WINDY,"XXHR+9QG, Langara Laut, Kec. Wawonii Bar., Konawe Kepulauan, Sulawesi Tenggara","Konawe Kepulauan, Sulawesi Tenggara",SULAWESI TENGGARA,,Indonesia,,,,-4.021538,122.9919424,https://maps.google.com/?cid=0x0:0x26416543d7146eb3,
mall,Seafood,PENJUAL IKAN SEGAR ABG,"XXJW+RHV, desa langara, Tj. Batu Kota, Kec. Wawonii Bar., Kabupaten Konawe, Sulawesi Tenggara","Kabupaten Konawe, Sulawesi Tenggara",SULAWESI TENGGARA,,Indonesia,81341097131.0,,,-4.0178752,122.9964083,https://maps.google.com/?cid=0x0:0xda974accdbb81adb,
mall,Toko,Banana NagetEppe Langara,"XXFQ+JXR, Langara Iwawo, Kec. Wawonii Bar., Kabupaten Konawe, Sulawesi Tenggara 93393","Langara Iwawo, Kec. Wawonii Bar., Kabupaten Konawe",SULAWESI TENGGARA,93393.0,Indonesia,82188565880.0,,,-4.0258869,122.9898872,https://maps.google.com/?cid=0x0:0x1cacbdd9571758b,
mall,mall,Kec. Wawonii Sel.,"Konawe Kepulauan, Sulawesi Tenggara","Konawe Kepulauan, Sulawesi Tenggara",SULAWESI TENGGARA,,Indonesia,,,,-4.2028994,123.010426,https://maps.google.com/?cid=0x0:0xb39af7237da21d46,
mall,Pusat Perbelanjaan,Toko Grosiran Sentral Park,"VX3M+966, Wungkolo, Kec. Wawonii Sel., Konawe Kepulauan, Sulawesi Tenggara 93393","Wungkolo, Kec. Wawonii Sel., Konawe Kepulauan",SULAWESI TENGGARA,93393.0,Indonesia,,,,-4.1470781,122.9837619,https://maps.google.com/?cid=0x0:0xc4fb65ea3427ab51,
mall,Toko Ponsel,Sultan Ponsel Wawonii,"Q4C9+Q8J, Pinggir kali, Sukarela Jaya, Kec. Wawonii Tenggara, Konawe Kepulauan, Sulawesi Tenggara","Konawe Kepulauan, Sulawesi Tenggara",SULAWESI TENGGARA,,Indonesia,82293214142.0,,,-4.228047,123.1182806,https://maps.google.com/?cid=0x0:0xf1a318435f55b330,
mall,Minimarket,KIOS WINDY,"XXHR+9QG, Langara Laut, Kec. Wawonii Bar., Konawe Kepulauan, Sulawesi Tenggara","Konawe Kepulauan, Sulawesi Tenggara",SULAWESI TENGGARA,,Indonesia,,,,-4.021538,122.9919424,https://maps.google.com/?cid=0x0:0x26416543d7146eb3,
mall,Toko Swalayan,Kios Fauzi,"XXHR+2GJ, Unnamed Road, Langara Laut, Kec. Wawonii Bar., Konawe Kepulauan, Sulawesi Tenggara 93393","Unnamed Road, Langara Laut, Kec. Wawonii Bar., Konawe Kepulauan",SULAWESI TENGGARA,93393.0,Indonesia,82345221113.0,,,-4.0224206,122.9912617,https://maps.google.com/?cid=0x0:0x44d1b4207a49d76e,
mall,mall,Kec. Wawonii Tengah,"Konawe Kepulauan, Sulawesi Tenggara","Konawe Kepulauan, Sulawesi Tenggara",SULAWESI TENGGARA,,Indonesia,,,,-4.1312287,122.9691468,https://maps.google.com/?cid=0x0:0x3815a4df92a01d0a,
mall,Pusat Perbelanjaan,Toko Grosiran Sentral Park,"VX3M+966, Wungkolo, Kec. Wawonii Sel., Konawe Kepulauan, Sulawesi Tenggara 93393","Wungkolo, Kec. Wawonii Sel., Konawe Kepulauan",SULAWESI TENGGARA,93393.0,Indonesia,,,,-4.1470781,122.9837619,https://maps.google.com/?cid=0x0:0xc4fb65ea3427ab51,
mall,mall,Depot Air Minum Musa Sumber Wawonii,"VX7C+P37, Lampeapi, Kec. Wawonii Tengah, Kabupaten Konawe, Sulawesi Tenggara 93393","Lampeapi, Kec. Wawonii Tengah, Kabupaten Konawe",SULAWESI TENGGARA,93393.0,Indonesia,,,,-4.1357153,122.970159,https://maps.google.com/?cid=0x0:0x13918422947d67b6,
mall,Toko Swalayan,Kios Fauzi,"XXHR+2GJ, Unnamed Road, Langara Laut, Kec. Wawonii Bar., Konawe Kepulauan, Sulawesi Tenggara 93393","Unnamed Road, Langara Laut, Kec. Wawonii Bar., Konawe Kepulauan",SULAWESI TENGGARA,93393.0,Indonesia,82345221113.0,,,-4.0224206,122.9912617,https://maps.google.com/?cid=0x0:0x44d1b4207a49d76e,
mall,Toko Ponsel,Sultan Ponsel Wawonii,"Q4C9+Q8J, Pinggir kali, Sukarela Jaya, Kec. Wawonii Tenggara, Konawe Kepulauan, Sulawesi Tenggara","Konawe Kepulauan, Sulawesi Tenggara",SULAWESI TENGGARA,,Indonesia,82293214142.0,,,-4.228047,123.1182806,https://maps.google.com/?cid=0x0:0xf1a318435f55b330,
mall,Pusat Perbelanjaan,Dito Farm Hidroponik,"Unnamed Road, Lamoluo, Kec. Wawonii Bar., Konawe Kepulauan, Sulawesi Tenggara 93393","Lamoluo, Kec. Wawonii Bar., Konawe Kepulauan",SULAWESI TENGGARA,93393.0,Indonesia,81341261900.0,,,-4.0314049,122.9910054,https://maps.google.com/?cid=0x0:0x2cf92baa27385744,
mall,Kios,Sinar Aliyah Cell,"XXFR+35F, Langara Iwawo, Kec. Wawonii Bar., Kabupaten Konawe, Sulawesi Tenggara","Kabupaten Konawe, Sulawesi Tenggara",SULAWESI TENGGARA,,Indonesia,85241572841.0,,,-4.0273192,122.9904092,https://maps.google.com/?cid=0x0:0x614e1a3a8e19b67f,
mall,mall,Sulawesi Tenggara 93393,"Konawe Kepulauan, Sulawesi Tenggara","Konawe Kepulauan, Sulawesi Tenggara",SULAWESI TENGGARA,,Indonesia,,,,-4.0664588,123.1239049,https://maps.google.com/?cid=0x0:0xf20c69a9e2bf97eb,
mall,Pusat Perbelanjaan,Toko Grosiran Sentral Park,"VX3M+966, Wungkolo, Kec. Wawonii Sel., Konawe Kepulauan, Sulawesi Tenggara 93393","Wungkolo, Kec. Wawonii Sel., Konawe Kepulauan",SULAWESI TENGGARA,93393.0,Indonesia,,,,-4.1470781,122.9837619,https://maps.google.com/?cid=0x0:0xc4fb65ea3427ab51,
mall,Seafood,PENJUAL IKAN SEGAR ABG,"XXJW+RHV, desa langara, Tj. Batu Kota, Kec. Wawonii Bar., Kabupaten Konawe, Sulawesi Tenggara","Kabupaten Konawe, Sulawesi Tenggara",SULAWESI TENGGARA,,Indonesia,81341097131.0,,,-4.0178752,122.9964083,https://maps.google.com/?cid=0x0:0xda974accdbb81adb,
mall,Toko,Banana NagetEppe Langara,"XXFQ+JXR, Langara Iwawo, Kec. Wawonii Bar., Kabupaten Konawe, Sulawesi Tenggara 93393","Langara Iwawo, Kec. Wawonii Bar., Kabupaten Konawe",SULAWESI TENGGARA,93393.0,Indonesia,82188565880.0,,,-4.0258869,122.9898872,https://maps.google.com/?cid=0x0:0x1cacbdd9571758b,
mall,Kantor Perusahaan,Foot Copy UD Rahman Karya,"XX9Q+MXH, Unnamed Road, Bukit Permai, Kec. Wawonii Bar., Konawe Kepulauan, Sulawesi Tenggara 93393","Unnamed Road, Bukit Permai, Kec. Wawonii Bar., Konawe Kepulauan",SULAWESI TENGGARA,93393.0,Indonesia,,,,-4.0308213,122.989983,https://maps.google.com/?cid=0x0:0x86c7ae7ac9bea6b7,
mall,Minimarket,KIOS WINDY,"XXHR+9QG, Langara Laut, Kec. Wawonii Bar., Konawe Kepulauan, Sulawesi Tenggara","Konawe Kepulauan, Sulawesi Tenggara",SULAWESI TENGGARA,,Indonesia,,,,-4.021538,122.9919424,https://maps.google.com/?cid=0x0:0x26416543d7146eb3,
mall,mall,Pulau Wowoni,"Konawe Kepulauan, Sulawesi Tenggara","Konawe Kepulauan, Sulawesi Tenggara",SULAWESI TENGGARA,,Indonesia,,,,-4.1361465,123.1239049,https://maps.google.com/?cid=0x0:0xad9c1e6435337894,
mall,mall,Kec. Wawonii Tim.,"Konawe Kepulauan, Sulawesi Tenggara","Konawe Kepulauan, Sulawesi Tenggara",SULAWESI TENGGARA,,Indonesia,,,,-4.0982853,123.250794,https://maps.google.com/?cid=0x0:0xfc2f57f24f39f720,
mall,Toko Ponsel,Sultan Ponsel Wawonii,"Q4C9+Q8J, Pinggir kali, Sukarela Jaya, Kec. Wawonii Tenggara, Konawe Kepulauan, Sulawesi Tenggara","Konawe Kepulauan, Sulawesi Tenggara",SULAWESI TENGGARA,,Indonesia,82293214142.0,,,-4.228047,123.1182806,https://maps.google.com/?cid=0x0:0xf1a318435f55b330,
mall,Toko Swalayan,Kios Fauzi,"XXHR+2GJ, Unnamed Road, Langara Laut, Kec. Wawonii Bar., Konawe Kepulauan, Sulawesi Tenggara 93393","Unnamed Road, Langara Laut, Kec. Wawonii Bar., Konawe Kepulauan",SULAWESI TENGGARA,93393.0,Indonesia,82345221113.0,,,-4.0224206,122.9912617,https://maps.google.com/?cid=0x0:0x44d1b4207a49d76e,
mall,Minimarket,KIOS WINDY,"XXHR+9QG, Langara Laut, Kec. Wawonii Bar., Konawe Kepulauan, Sulawesi Tenggara","Konawe Kepulauan, Sulawesi Tenggara",SULAWESI TENGGARA,,Indonesia,,,,-4.021538,122.9919424,https://maps.google.com/?cid=0x0:0x26416543d7146eb3,
mall,mall,Toko Dua putri,"X4HF+QX9, Tambaone Utama, Kec. Wawonii Utara, Kabupaten Konawe, Sulawesi Tenggara 93393","Tambaone Utama, Kec. Wawonii Utara, Kabupaten Konawe",SULAWESI TENGGARA,93393.0,Indonesia,,,,-4.0202955,123.123662,https://maps.google.com/?cid=0x0:0x1260b092d6b8797f,
mall,Minimarket,KIOS WINDY,"XXHR+9QG, Langara Laut, Kec. Wawonii Bar., Konawe Kepulauan, Sulawesi Tenggara","Konawe Kepulauan, Sulawesi Tenggara",SULAWESI TENGGARA,,Indonesia,,,,-4.021538,122.9919424,https://maps.google.com/?cid=0x0:0x26416543d7146eb3,
mall,Kios,KIOS RENDY WIDY,"XXHR+7JJ, Langara Laut, Kec. Wawonii Bar., Konawe Kepulauan, Sulawesi Tenggara 93393","Langara Laut, Kec. Wawonii Bar., Konawe Kepulauan",SULAWESI TENGGARA,93393.0,Indonesia,,,,-4.0217971,122.9915035,https://maps.google.com/?cid=0x0:0x109fffc5fed7f928,
mall,Otoritas Pelabuhan,Pelabuhan Ferry Langara,"XXHR+9QG Pelabuhan Ferry Wawonii - Kendari, Langara Laut, Kec. Wawonii Bar., Konawe Kepulauan, Sulawesi Tenggara 12230","Langara Laut, Kec. Wawonii Bar., Konawe Kepulauan",SULAWESI TENGGARA,12230.0,Indonesia,,,,-4.0198035,122.9904792,https://maps.google.com/?cid=0x0:0xb16195d8c45dc58e,
mall,Toko Swalayan,Kios Fauzi,"XXHR+2GJ, Unnamed Road, Langara Laut, Kec. Wawonii Bar., Konawe Kepulauan, Sulawesi Tenggara 93393","Unnamed Road, Langara Laut, Kec. Wawonii Bar., Konawe Kepulauan",SULAWESI TENGGARA,93393.0,Indonesia,82345221113.0,,,-4.0224206,122.9912617,https://maps.google.com/?cid=0x0:0x44d1b4207a49d76e,
mall,Seafood,PENJUAL IKAN SEGAR ABG,"XXJW+RHV, desa langara, Tj. Batu Kota, Kec. Wawonii Bar., Kabupaten Konawe, Sulawesi Tenggara","Kabupaten Konawe, Sulawesi Tenggara",SULAWESI TENGGARA,,Indonesia,81341097131.0,,,-4.0178752,122.9964083,https://maps.google.com/?cid=0x0:0xda974accdbb81adb,
mall,mall,Kec. Wawonii Tim. Laut,"Konawe Kepulauan, Sulawesi Tenggara","Konawe Kepulauan, Sulawesi Tenggara",SULAWESI TENGGARA,,Indonesia,,,,-4.0289083,123.2198736,https://maps.google.com/?cid=0x0:0x81f76d50d04c3d1b,
mall,mall,Toko Dua putri,"X4HF+QX9, Tambaone Utama, Kec. Wawonii Utara, Kabupaten Konawe, Sulawesi Tenggara 93393","Tambaone Utama, Kec. Wawonii Utara, Kabupaten Konawe",SULAWESI TENGGARA,93393.0,Indonesia,,,,-4.0202955,123.123662,https://maps.google.com/?cid=0x0:0x1260b092d6b8797f,
mall,Minimarket,KIOS WINDY,"XXHR+9QG, Langara Laut, Kec. Wawonii Bar., Konawe Kepulauan, Sulawesi Tenggara","Konawe Kepulauan, Sulawesi Tenggara",SULAWESI TENGGARA,,Indonesia,,,,-4.021538,122.9919424,https://maps.google.com/?cid=0x0:0x26416543d7146eb3,
mall,Otoritas Pelabuhan,Pelabuhan Ferry Langara,"XXHR+9QG Pelabuhan Ferry Wawonii - Kendari, Langara Laut, Kec. Wawonii Bar., Konawe Kepulauan, Sulawesi Tenggara 12230","Langara Laut, Kec. Wawonii Bar., Konawe Kepulauan",SULAWESI TENGGARA,12230.0,Indonesia,,,,-4.0198035,122.9904792,https://maps.google.com/?cid=0x0:0xb16195d8c45dc58e,
mall,Kios,KIOS RENDY WIDY,"XXHR+7JJ, Langara Laut, Kec. Wawonii Bar., Konawe Kepulauan, Sulawesi Tenggara 93393","Langara Laut, Kec. Wawonii Bar., Konawe Kepulauan",SULAWESI TENGGARA,93393.0,Indonesia,,,,-4.0217971,122.9915035,https://maps.google.com/?cid=0x0:0x109fffc5fed7f928,
mall,Toko Swalayan,Kios Fauzi,"XXHR+2GJ, Unnamed Road, Langara Laut, Kec. Wawonii Bar., Konawe Kepulauan, Sulawesi Tenggara 93393","Unnamed Road, Langara Laut, Kec. Wawonii Bar., Konawe Kepulauan",SULAWESI TENGGARA,93393.0,Indonesia,82345221113.0,,,-4.0224206,122.9912617,https://maps.google.com/?cid=0x0:0x44d1b4207a49d76e,
mall,Pusat Perbelanjaan,Dito Farm Hidroponik,"Unnamed Road, Lamoluo, Kec. Wawonii Bar., Konawe Kepulauan, Sulawesi Tenggara 93393","Lamoluo, Kec. Wawonii Bar., Konawe Kepulauan",SULAWESI TENGGARA,93393.0,Indonesia,81341261900.0,,,-4.0314049,122.9910054,https://maps.google.com/?cid=0x0:0x2cf92baa27385744,
mall,Kantor Perusahaan,Foot Copy UD Rahman Karya,"XX9Q+MXH, Unnamed Road, Bukit Permai, Kec. Wawonii Bar., Konawe Kepulauan, Sulawesi Tenggara 93393","Unnamed Road, Bukit Permai, Kec. Wawonii Bar., Konawe Kepulauan",SULAWESI TENGGARA,93393.0,Indonesia,,,,-4.0308213,122.989983,https://maps.google.com/?cid=0x0:0x86c7ae7ac9bea6b7,
mall,Kios,Sinar Aliyah Cell,"XXFR+35F, Langara Iwawo, Kec. Wawonii Bar., Kabupaten Konawe, Sulawesi Tenggara","Kabupaten Konawe, Sulawesi Tenggara",SULAWESI TENGGARA,,Indonesia,85241572841.0,,,-4.0273192,122.9904092,https://maps.google.com/?cid=0x0:0x614e1a3a8e19b67f,
mall,Seafood,PENJUAL IKAN SEGAR ABG,"XXJW+RHV, desa langara, Tj. Batu Kota, Kec. Wawonii Bar., Kabupaten Konawe, Sulawesi Tenggara","Kabupaten Konawe, Sulawesi Tenggara",SULAWESI TENGGARA,,Indonesia,81341097131.0,,,-4.0178752,122.9964083,https://maps.google.com/?cid=0x0:0xda974accdbb81adb,
mall,Toko,Banana NagetEppe Langara,"XXFQ+JXR, Langara Iwawo, Kec. Wawonii Bar., Kabupaten Konawe, Sulawesi Tenggara 93393","Langara Iwawo, Kec. Wawonii Bar., Kabupaten Konawe",SULAWESI TENGGARA,93393.0,Indonesia,82188565880.0,,,-4.0258869,122.9898872,https://maps.google.com/?cid=0x0:0x1cacbdd9571758b,
mall,mall,Toko Dua putri,"X4HF+QX9, Tambaone Utama, Kec. Wawonii Utara, Kabupaten Konawe, Sulawesi Tenggara 93393","Tambaone Utama, Kec. Wawonii Utara, Kabupaten Konawe",SULAWESI TENGGARA,93393.0,Indonesia,,,,-4.0202955,123.123662,https://maps.google.com/?cid=0x0:0x1260b092d6b8797f,
supermarket,supermarket,Kec. Wawonii Bar.,"Konawe Kepulauan, Sulawesi Tenggara","Konawe Kepulauan, Sulawesi Tenggara",SULAWESI TENGGARA,,Indonesia,,,,-4.0251097,122.9901229,https://maps.google.com/?cid=0x0:0xbda035363ef97b99,
supermarket,Toko bahan makanan,NANO MART,"XX9R+H4J, Lamoluo, Kec. Wawonii Bar., Konawe Kepulauan, Sulawesi Tenggara","Konawe Kepulauan, Sulawesi Tenggara",SULAWESI TENGGARA,,Indonesia,,,,-4.031342,122.9902143,https://maps.google.com/?cid=0x0:0x887209bfd39e0086,
supermarket,Toko,Kios Evan,"XXFQ+GRQ, Langara Iwawo, Kec. Wawonii Bar., Kabupaten Konawe, Sulawesi Tenggara","Kabupaten Konawe, Sulawesi Tenggara",SULAWESI TENGGARA,,Indonesia,85146165554.0,,,-4.0261828,122.9896004,https://maps.google.com/?cid=0x0:0x6a3c3232ebe9f138,
supermarket,Pusat Perbelanjaan,Toserba Faiz Cell,"XXHV+FHF, Langara Indah, Kec. Wawonii Bar., Kabupaten Konawe, Sulawesi Tenggara","Kabupaten Konawe, Sulawesi Tenggara",SULAWESI TENGGARA,,Indonesia,,,,-4.0213239,122.9939274,https://maps.google.com/?cid=0x0:0xf35c7350d5f97edc,
supermarket,Toko bahan makanan,KIOS ARSYI LPI,"VX99+F8P, Unnamed Road, Lampeapi Baru, Kec. Wawonii Tengah, Konawe Kepulauan, Sulawesi Tenggara 93393","Unnamed Road, Lampeapi Baru, Kec. Wawonii Tengah, Konawe Kepulauan",SULAWESI TENGGARA,93393.0,Indonesia,82352297876.0,,,-4.1312838,122.9683161,https://maps.google.com/?cid=0x0:0x60fc6ce24a1f143,
supermarket,Toko umum,TOKO PANCA PUTRA,"XXCQ+3X4, Lamoluo, Kec. Wawonii Bar., Kabupaten Konawe, Sulawesi Tenggara 93393","Lamoluo, Kec. Wawonii Bar., Kabupaten Konawe",SULAWESI TENGGARA,93393.0,Indonesia,82259606878.0,,,-4.0298517,122.9899457,https://maps.google.com/?cid=0x0:0x190c6756b00a03c,
supermarket,Toko bahan makanan,Kios Hafizh,"Bobolio, Kec. Wawonii Sel., Konawe Kepulauan, Sulawesi Tenggara 93391","Kec. Wawonii Sel., Konawe Kepulauan",SULAWESI TENGGARA,93391.0,Indonesia,81271122327.0,,,-4.2042677,123.0132625,https://maps.google.com/?cid=0x0:0x72d1be40335fe4dc,
supermarket,Kios,Rama,"X2PV+H7, Wawolaa, Kec. Wawonii Bar., Konawe Kepulauan, Sulawesi Tenggara","Konawe Kepulauan, Sulawesi Tenggara",SULAWESI TENGGARA,,Indonesia,,,,-4.0135288,123.0432285,https://maps.google.com/?cid=0x0:0xdaf77bb1d26d01e3,
supermarket,Toko umum,Kios Alika 02,"XXJW+62Q, Langaro Bajo, Kec. Wawonii Bar., Konawe Kepulauan, Sulawesi Tenggara","Konawe Kepulauan, Sulawesi Tenggara",SULAWESI TENGGARA,,Indonesia,,,,-4.0190062,122.9948664,https://maps.google.com/?cid=0x0:0xd4576ee08dfe5b57,
supermarket,Toko Swalayan,Kios Zulia Vryti,"P3XX+C5C, Dompo-Dompo Jaya, Kec. Wawonii Tenggara, Kabupaten Konawe, Sulawesi Tenggara","Kabupaten Konawe, Sulawesi Tenggara",SULAWESI TENGGARA,,Indonesia,85242525012.0,,,-4.2514399,123.097886,https://maps.google.com/?cid=0x0:0xb81713988c669fc8,
supermarket,Minimarket,Kios Arul,"WW4V+XMW, Tumbu Tumbu Jaya, Kec. Wawonii Tengah, Kabupaten Konawe, Sulawesi Tenggara","Kabupaten Konawe, Sulawesi Tenggara",SULAWESI TENGGARA,,Indonesia,,,,-4.0925235,122.944215,https://maps.google.com/?cid=0x0:0xd5a766815e578746,
supermarket,Toko,KIOS TIGA PUTRI,"R4GJ+VWG, Masolo, Kec. Wawonii Tenggara, Konawe Kepulauan, Sulawesi Tenggara","Konawe Kepulauan, Sulawesi Tenggara",SULAWESI TENGGARA,,Indonesia,,,,-4.172813,123.1323409,https://maps.google.com/?cid=0x0:0x8a8349fe37729f01,
supermarket,Minimarket,ALFAMIDI WAWOTOBI,"44F8+72X, Jl. Poros Kendari - Pohara, Wawotobi, Kec. Wawotobi, Kabupaten Konawe, Sulawesi Tenggara 93461","Jl. Poros Kendari - Pohara, Wawotobi, Kec. Wawotobi, Kabupaten Konawe",SULAWESI TENGGARA,93461.0,Indonesia,,,,-3.8767587,122.1151058,https://maps.google.com/?cid=0x0:0xc64b70a61fa17205,
supermarket,Toko bahan makanan,Swalayan Sammulia Mart 2,"XF29+F4G, Ranomeeto, Kec. Ranomeeto, Kabupaten Konawe Selatan, Sulawesi Tenggara 93870","Ranomeeto, Kec. Ranomeeto, Kabupaten Konawe Selatan",SULAWESI TENGGARA,93870.0,Indonesia,85299717162.0,,,-4.04882,122.4678323,https://maps.google.com/?cid=0x0:0x73d90ec169a838e9,
supermarket,Pasar,Pasar Wawouso,"Q29W+F6X, Wawouso, Kec. Wawonii Sel., Konawe Kepulauan, Sulawesi Tenggara 93393","Wawouso, Kec. Wawonii Sel., Konawe Kepulauan",SULAWESI TENGGARA,93393.0,Indonesia,,,,-4.2312595,123.0455966,https://maps.google.com/?cid=0x0:0x52a2aa51b4335b30,
supermarket,Kios,KIOS FAUZAN,"44Q5+FG3, Kulahi, Kec. Wawotobi, Kabupaten Konawe, Sulawesi Tenggara 93461","Kulahi, Kec. Wawotobi, Kabupaten Konawe",SULAWESI TENGGARA,93461.0,Indonesia,,,,-3.8613611,122.1087821,https://maps.google.com/?cid=0x0:0xc4a889035c58188c,
supermarket,Peralatan Pengolahan Makanan,Batumea,"WWCW+86, Morobea, Kec. Wawonii Tengah, Konawe Kepulauan, Sulawesi Tenggara","Konawe Kepulauan, Sulawesi Tenggara",SULAWESI TENGGARA,,Indonesia,,,,-4.0791283,122.9454736,https://maps.google.com/?cid=0x0:0x4973af6380124e5d,
supermarket,Sekolah menengah,SD Negeri 2 Wawonii Barat,"Wawolaa Jalan Poros Langara, Langara Indah, Kec. Wawonii Bar., Kabupaten Konawe, Sulawesi Tenggara 93393","Langara Indah, Kec. Wawonii Bar., Kabupaten Konawe",SULAWESI TENGGARA,93393.0,Indonesia,,,,-4.0236711,122.9987156,https://maps.google.com/?cid=0x0:0x39e6cc35104b86da,
supermarket,supermarket,Kec. Wawonii Sel.,"Konawe Kepulauan, Sulawesi Tenggara","Konawe Kepulauan, Sulawesi Tenggara",SULAWESI TENGGARA,,Indonesia,,,,-4.2028994,123.010426,https://maps.google.com/?cid=0x0:0xb39af7237da21d46,
supermarket,Toko bahan makanan,KIOS ARSYI LPI,"VX99+F8P, Unnamed Road, Lampeapi Baru, Kec. Wawonii Tengah, Konawe Kepulauan, Sulawesi Tenggara 93393","Unnamed Road, Lampeapi Baru, Kec. Wawonii Tengah, Konawe Kepulauan",SULAWESI TENGGARA,93393.0,Indonesia,82352297876.0,,,-4.1312838,122.9683161,https://maps.google.com/?cid=0x0:0x60fc6ce24a1f143,
supermarket,Toko bahan makanan,Kios Hafizh,"Bobolio, Kec. Wawonii Sel., Konawe Kepulauan, Sulawesi Tenggara 93391","Kec. Wawonii Sel., Konawe Kepulauan",SULAWESI TENGGARA,93391.0,Indonesia,81271122327.0,,,-4.2042677,123.0132625,https://maps.google.com/?cid=0x0:0x72d1be40335fe4dc,
supermarket,supermarket,Kios Zalfa sembako,"Pesue, Kec. Wawonii Tengah, Konawe Kepulauan, Sulawesi Tenggara 93393","Kec. Wawonii Tengah, Konawe Kepulauan",SULAWESI TENGGARA,93393.0,Indonesia,,,,-4.1275585,122.9685954,https://maps.google.com/?cid=0x0:0x441a61431e7143bd,
supermarket,Toko bahan makanan,NANO MART,"XX9R+H4J, Lamoluo, Kec. Wawonii Bar., Konawe Kepulauan, Sulawesi Tenggara","Konawe Kepulauan, Sulawesi Tenggara",SULAWESI TENGGARA,,Indonesia,,,,-4.031342,122.9902143,https://maps.google.com/?cid=0x0:0x887209bfd39e0086,
supermarket,Toko Swalayan,Kios Zulia Vryti,"P3XX+C5C, Dompo-Dompo Jaya, Kec. Wawonii Tenggara, Kabupaten Konawe, Sulawesi Tenggara","Kabupaten Konawe, Sulawesi Tenggara",SULAWESI TENGGARA,,Indonesia,85242525012.0,,,-4.2514399,123.097886,https://maps.google.com/?cid=0x0:0xb81713988c669fc8,
supermarket,Pasar,Pasar Wawouso,"Q29W+F6X, Wawouso, Kec. Wawonii Sel., Konawe Kepulauan, Sulawesi Tenggara 93393","Wawouso, Kec. Wawonii Sel., Konawe Kepulauan",SULAWESI TENGGARA,93393.0,Indonesia,,,,-4.2312595,123.0455966,https://maps.google.com/?cid=0x0:0x52a2aa51b4335b30,
supermarket,Toko,Kios Evan,"XXFQ+GRQ, Langara Iwawo, Kec. Wawonii Bar., Kabupaten Konawe, Sulawesi Tenggara","Kabupaten Konawe, Sulawesi Tenggara",SULAWESI TENGGARA,,Indonesia,85146165554.0,,,-4.0261828,122.9896004,https://maps.google.com/?cid=0x0:0x6a3c3232ebe9f138,
supermarket,Pusat Perbelanjaan,Toserba Faiz Cell,"XXHV+FHF, Langara Indah, Kec. Wawonii Bar., Kabupaten Konawe, Sulawesi Tenggara","Kabupaten Konawe, Sulawesi Tenggara",SULAWESI TENGGARA,,Indonesia,,,,-4.0213239,122.9939274,https://maps.google.com/?cid=0x0:0xf35c7350d5f97edc,
supermarket,Toko bahan makanan,Swalayan Sammulia Mart 2,"XF29+F4G, Ranomeeto, Kec. Ranomeeto, Kabupaten Konawe Selatan, Sulawesi Tenggara 93870","Ranomeeto, Kec. Ranomeeto, Kabupaten Konawe Selatan",SULAWESI TENGGARA,93870.0,Indonesia,85299717162.0,,,-4.04882,122.4678323,https://maps.google.com/?cid=0x0:0x73d90ec169a838e9,
supermarket,Minimarket,ALFAMIDI WAWOTOBI,"44F8+72X, Jl. Poros Kendari - Pohara, Wawotobi, Kec. Wawotobi, Kabupaten Konawe, Sulawesi Tenggara 93461","Jl. Poros Kendari - Pohara, Wawotobi, Kec. Wawotobi, Kabupaten Konawe",SULAWESI TENGGARA,93461.0,Indonesia,,,,-3.8767587,122.1151058,https://maps.google.com/?cid=0x0:0xc64b70a61fa17205,
supermarket,Kios,KIOS FAUZAN,"44Q5+FG3, Kulahi, Kec. Wawotobi, Kabupaten Konawe, Sulawesi Tenggara 93461","Kulahi, Kec. Wawotobi, Kabupaten Konawe",SULAWESI TENGGARA,93461.0,Indonesia,,,,-3.8613611,122.1087821,https://maps.google.com/?cid=0x0:0xc4a889035c58188c,
supermarket,Toko,Toko AIN,"Ranomeeto, Kec. Ranomeeto, Kabupaten Konawe Selatan, Sulawesi Tenggara 93870","Kec. Ranomeeto, Kabupaten Konawe Selatan",SULAWESI TENGGARA,93870.0,Indonesia,81354566133.0,,,-4.0444502,122.4590622,https://maps.google.com/?cid=0x0:0x153b9e59e364d70d,
supermarket,Toko umum,Kios ersa,"Q3VJ+MM, Lawey, Kec. Wawonii Sel., Konawe Kepulauan, Sulawesi Tenggara","Konawe Kepulauan, Sulawesi Tenggara",SULAWESI TENGGARA,,Indonesia,,,,-4.2058125,123.0816875,https://maps.google.com/?cid=0x0:0xd396b1692ad148aa,
supermarket,Toko Swalayan,Kios Azalia,"VX69+WPP, Lampeapi, Kec. Wawonii Tengah, Kabupaten Konawe, Sulawesi Tenggara","Kabupaten Konawe, Sulawesi Tenggara",SULAWESI TENGGARA,,Indonesia,,,,-4.1376611,122.9693139,https://maps.google.com/?cid=0x0:0x37253bca40683a3e,
supermarket,Toko,KIOS TIGA PUTRI,"R4GJ+VWG, Masolo, Kec. Wawonii Tenggara, Konawe Kepulauan, Sulawesi Tenggara","Konawe Kepulauan, Sulawesi Tenggara",SULAWESI TENGGARA,,Indonesia,,,,-4.172813,123.1323409,https://maps.google.com/?cid=0x0:0x8a8349fe37729f01,
supermarket,supermarket,Kec. Wawonii Tengah,"Konawe Kepulauan, Sulawesi Tenggara","Konawe Kepulauan, Sulawesi Tenggara",SULAWESI TENGGARA,,Indonesia,,,,-4.1312287,122.9691468,https://maps.google.com/?cid=0x0:0x3815a4df92a01d0a,
supermarket,Toko bahan makanan,KIOS ARSYI LPI,"VX99+F8P, Unnamed Road, Lampeapi Baru, Kec. Wawonii Tengah, Konawe Kepulauan, Sulawesi Tenggara 93393","Unnamed Road, Lampeapi Baru, Kec. Wawonii Tengah, Konawe Kepulauan",SULAWESI TENGGARA,93393.0,Indonesia,82352297876.0,,,-4.1312838,122.9683161,https://maps.google.com/?cid=0x0:0x60fc6ce24a1f143,
supermarket,supermarket,Kios vinta,"VXC9+XHM, Pesue, Kec. Wawonii Tengah, Kabupaten Konawe, Sulawesi Tenggara 93393","Pesue, Kec. Wawonii Tengah, Kabupaten Konawe",SULAWESI TENGGARA,93393.0,Indonesia,,,,-4.126848,122.968577,https://maps.google.com/?cid=0x0:0xdf3bedd06fd69840,
supermarket,Toko bahan makanan,NANO MART,"XX9R+H4J, Lamoluo, Kec. Wawonii Bar., Konawe Kepulauan, Sulawesi Tenggara","Konawe Kepulauan, Sulawesi Tenggara",SULAWESI TENGGARA,,Indonesia,,,,-4.031342,122.9902143,https://maps.google.com/?cid=0x0:0x887209bfd39e0086,
supermarket,Toko bahan makanan,Kios Hafizh,"Bobolio, Kec. Wawonii Sel., Konawe Kepulauan, Sulawesi Tenggara 93391","Kec. Wawonii Sel., Konawe Kepulauan",SULAWESI TENGGARA,93391.0,Indonesia,81271122327.0,,,-4.2042677,123.0132625,https://maps.google.com/?cid=0x0:0x72d1be40335fe4dc,
supermarket,Toko,Kios Evan,"XXFQ+GRQ, Langara Iwawo, Kec. Wawonii Bar., Kabupaten Konawe, Sulawesi Tenggara","Kabupaten Konawe, Sulawesi Tenggara",SULAWESI TENGGARA,,Indonesia,85146165554.0,,,-4.0261828,122.9896004,https://maps.google.com/?cid=0x0:0x6a3c3232ebe9f138,
supermarket,Minimarket,Kios Arul,"WW4V+XMW, Tumbu Tumbu Jaya, Kec. Wawonii Tengah, Kabupaten Konawe, Sulawesi Tenggara","Kabupaten Konawe, Sulawesi Tenggara",SULAWESI TENGGARA,,Indonesia,,,,-4.0925235,122.944215,https://maps.google.com/?cid=0x0:0xd5a766815e578746,
supermarket,Toko Swalayan,Kios Azalia,"VX69+WPP, Lampeapi, Kec. Wawonii Tengah, Kabupaten Konawe, Sulawesi Tenggara","Kabupaten Konawe, Sulawesi Tenggara",SULAWESI TENGGARA,,Indonesia,,,,-4.1376611,122.9693139,https://maps.google.com/?cid=0x0:0x37253bca40683a3e,
supermarket,Peralatan Pengolahan Makanan,Batumea,"WWCW+86, Morobea, Kec. Wawonii Tengah, Konawe Kepulauan, Sulawesi Tenggara","Konawe Kepulauan, Sulawesi Tenggara",SULAWESI TENGGARA,,Indonesia,,,,-4.0791283,122.9454736,https://maps.google.com/?cid=0x0:0x4973af6380124e5d,
supermarket,supermarket,Sulawesi Tenggara 93393,"Konawe Kepulauan, Sulawesi Tenggara","Konawe Kepulauan, Sulawesi Tenggara",SULAWESI TENGGARA,,Indonesia,,,,-4.0664588,123.1239049,https://maps.google.com/?cid=0x0:0xf20c69a9e2bf97eb,
supermarket,Toko bahan makanan,NANO MART,"XX9R+H4J, Lamoluo, Kec. Wawonii Bar., Konawe Kepulauan, Sulawesi Tenggara","Konawe Kepulauan, Sulawesi Tenggara",SULAWESI TENGGARA,,Indonesia,,,,-4.031342,122.9902143,https://maps.google.com/?cid=0x0:0x887209bfd39e0086,
supermarket,Toko bahan makanan,Kios Hafizh,"Bobolio, Kec. Wawonii Sel., Konawe Kepulauan, Sulawesi Tenggara 93391","Kec. Wawonii Sel., Konawe Kepulauan",SULAWESI TENGGARA,93391.0,Indonesia,81271122327.0,,,-4.2042677,123.0132625,https://maps.google.com/?cid=0x0:0x72d1be40335fe4dc,
supermarket,Toko bahan makanan,KIOS ARSYI LPI,"VX99+F8P, Unnamed Road, Lampeapi Baru, Kec. Wawonii Tengah, Konawe Kepulauan, Sulawesi Tenggara 93393","Unnamed Road, Lampeapi Baru, Kec. Wawonii Tengah, Konawe Kepulauan",SULAWESI TENGGARA,93393.0,Indonesia,82352297876.0,,,-4.1312838,122.9683161,https://maps.google.com/?cid=0x0:0x60fc6ce24a1f143,
supermarket,Toko Swalayan,Kios Zulia Vryti,"P3XX+C5C, Dompo-Dompo Jaya, Kec. Wawonii Tenggara, Kabupaten Konawe, Sulawesi Tenggara","Kabupaten Konawe, Sulawesi Tenggara",SULAWESI TENGGARA,,Indonesia,85242525012.0,,,-4.2514399,123.097886,https://maps.google.com/?cid=0x0:0xb81713988c669fc8,
supermarket,supermarket,Kios Zalfa sembako,"Pesue, Kec. Wawonii Tengah, Konawe Kepulauan, Sulawesi Tenggara 93393","Kec. Wawonii Tengah, Konawe Kepulauan",SULAWESI TENGGARA,93393.0,Indonesia,,,,-4.1275585,122.9685954,https://maps.google.com/?cid=0x0:0x441a61431e7143bd,
supermarket,Toko,Kios Evan,"XXFQ+GRQ, Langara Iwawo, Kec. Wawonii Bar., Kabupaten Konawe, Sulawesi Tenggara","Kabupaten Konawe, Sulawesi Tenggara",SULAWESI TENGGARA,,Indonesia,85146165554.0,,,-4.0261828,122.9896004,https://maps.google.com/?cid=0x0:0x6a3c3232ebe9f138,
supermarket,Pusat Perbelanjaan,Toserba Faiz Cell,"XXHV+FHF, Langara Indah, Kec. Wawonii Bar., Kabupaten Konawe, Sulawesi Tenggara","Kabupaten Konawe, Sulawesi Tenggara",SULAWESI TENGGARA,,Indonesia,,,,-4.0213239,122.9939274,https://maps.google.com/?cid=0x0:0xf35c7350d5f97edc,
supermarket,Pasar,Pasar Wawouso,"Q29W+F6X, Wawouso, Kec. Wawonii Sel., Konawe Kepulauan, Sulawesi Tenggara 93393","Wawouso, Kec. Wawonii Sel., Konawe Kepulauan",SULAWESI TENGGARA,93393.0,Indonesia,,,,-4.2312595,123.0455966,https://maps.google.com/?cid=0x0:0x52a2aa51b4335b30,
supermarket,Toko,KIOS TIGA PUTRI,"R4GJ+VWG, Masolo, Kec. Wawonii Tenggara, Konawe Kepulauan, Sulawesi Tenggara","Konawe Kepulauan, Sulawesi Tenggara",SULAWESI TENGGARA,,Indonesia,,,,-4.172813,123.1323409,https://maps.google.com/?cid=0x0:0x8a8349fe37729f01,
supermarket,supermarket,Kec. Wawonii Tenggara,"Konawe Kepulauan, Sulawesi Tenggara","Konawe Kepulauan, Sulawesi Tenggara",SULAWESI TENGGARA,,Indonesia,,,,-4.252093,123.0993267,https://maps.google.com/?cid=0x0:0xe1036d4655923fdc,
supermarket,Minimarket,REISA STORE,"Q5P6+CGG, Sinaulu Jaya, Kec. Wawonii Tenggara, Kabupaten Konawe, Sulawesi Tenggara","Kabupaten Konawe, Sulawesi Tenggara",SULAWESI TENGGARA,,Indonesia,,,,-4.214565,123.1606888,https://maps.google.com/?cid=0x0:0xe48cbb0ce6f83d16,
supermarket,supermarket,toko ria,"R4GJ+VWG, Masolo, Kec. Wawonii Tenggara, Konawe Kepulauan, Sulawesi Tenggara 93393","Masolo, Kec. Wawonii Tenggara, Konawe Kepulauan",SULAWESI TENGGARA,93393.0,Indonesia,,,,-4.172813,123.1323409,https://maps.google.com/?cid=0x0:0x3897a64b48848ceb,
supermarket,Toko,Kios NURUL,"V66P+RG, Tekonea, Kec. Wawonii Tim., Konawe Kepulauan, Sulawesi Tenggara","Konawe Kepulauan, Sulawesi Tenggara",SULAWESI TENGGARA,,Indonesia,,,,-4.137916,123.236351,https://maps.google.com/?cid=0x0:0xa6d54f47edd611a0,
supermarket,supermarket,Kec. Wawonii Tim.,"Konawe Kepulauan, Sulawesi Tenggara","Konawe Kepulauan, Sulawesi Tenggara",SULAWESI TENGGARA,,Indonesia,,,,-4.0982853,123.250794,https://maps.google.com/?cid=0x0:0xfc2f57f24f39f720,
supermarket,Toko,Kios NURUL,"V66P+RG, Tekonea, Kec. Wawonii Tim., Konawe Kepulauan, Sulawesi Tenggara","Konawe Kepulauan, Sulawesi Tenggara",SULAWESI TENGGARA,,Indonesia,,,,-4.137916,123.236351,https://maps.google.com/?cid=0x0:0xa6d54f47edd611a0,
supermarket,Toko bahan makanan,NANO MART,"XX9R+H4J, Lamoluo, Kec. Wawonii Bar., Konawe Kepulauan, Sulawesi Tenggara","Konawe Kepulauan, Sulawesi Tenggara",SULAWESI TENGGARA,,Indonesia,,,,-4.031342,122.9902143,https://maps.google.com/?cid=0x0:0x887209bfd39e0086,
supermarket,Toko bahan makanan,KIOS ARSYI LPI,"VX99+F8P, Unnamed Road, Lampeapi Baru, Kec. Wawonii Tengah, Konawe Kepulauan, Sulawesi Tenggara 93393","Unnamed Road, Lampeapi Baru, Kec. Wawonii Tengah, Konawe Kepulauan",SULAWESI TENGGARA,93393.0,Indonesia,82352297876.0,,,-4.1312838,122.9683161,https://maps.google.com/?cid=0x0:0x60fc6ce24a1f143,
supermarket,Toko Swalayan,Kios Zulia Vryti,"P3XX+C5C, Dompo-Dompo Jaya, Kec. Wawonii Tenggara, Kabupaten Konawe, Sulawesi Tenggara","Kabupaten Konawe, Sulawesi Tenggara",SULAWESI TENGGARA,,Indonesia,85242525012.0,,,-4.2514399,123.097886,https://maps.google.com/?cid=0x0:0xb81713988c669fc8,
supermarket,Toko,Kios Evan,"XXFQ+GRQ, Langara Iwawo, Kec. Wawonii Bar., Kabupaten Konawe, Sulawesi Tenggara","Kabupaten Konawe, Sulawesi Tenggara",SULAWESI TENGGARA,,Indonesia,85146165554.0,,,-4.0261828,122.9896004,https://maps.google.com/?cid=0x0:0x6a3c3232ebe9f138,
supermarket,Pusat Perbelanjaan,Toserba Faiz Cell,"XXHV+FHF, Langara Indah, Kec. Wawonii Bar., Kabupaten Konawe, Sulawesi Tenggara","Kabupaten Konawe, Sulawesi Tenggara",SULAWESI TENGGARA,,Indonesia,,,,-4.0213239,122.9939274,https://maps.google.com/?cid=0x0:0xf35c7350d5f97edc,
supermarket,Toko,KIOS TIGA PUTRI,"R4GJ+VWG, Masolo, Kec. Wawonii Tenggara, Konawe Kepulauan, Sulawesi Tenggara","Konawe Kepulauan, Sulawesi Tenggara",SULAWESI TENGGARA,,Indonesia,,,,-4.172813,123.1323409,https://maps.google.com/?cid=0x0:0x8a8349fe37729f01,
supermarket,Toko bahan makanan,Swalayan Sammulia Mart 2,"XF29+F4G, Ranomeeto, Kec. Ranomeeto, Kabupaten Konawe Selatan, Sulawesi Tenggara 93870","Ranomeeto, Kec. Ranomeeto, Kabupaten Konawe Selatan",SULAWESI TENGGARA,93870.0,Indonesia,85299717162.0,,,-4.04882,122.4678323,https://maps.google.com/?cid=0x0:0x73d90ec169a838e9,
supermarket,Minimarket,ALFAMIDI WAWOTOBI,"44F8+72X, Jl. Poros Kendari - Pohara, Wawotobi, Kec. Wawotobi, Kabupaten Konawe, Sulawesi Tenggara 93461","Jl. Poros Kendari - Pohara, Wawotobi, Kec. Wawotobi, Kabupaten Konawe",SULAWESI TENGGARA,93461.0,Indonesia,,,,-3.8767587,122.1151058,https://maps.google.com/?cid=0x0:0xc64b70a61fa17205,
supermarket,Kios,KIOS FAUZAN,"44Q5+FG3, Kulahi, Kec. Wawotobi, Kabupaten Konawe, Sulawesi Tenggara 93461","Kulahi, Kec. Wawotobi, Kabupaten Konawe",SULAWESI TENGGARA,93461.0,Indonesia,,,,-3.8613611,122.1087821,https://maps.google.com/?cid=0x0:0xc4a889035c58188c,
supermarket,Toko umum,Kios abria,"X69C+XC, Tangkombuno, Kec. Wawonii Tim. Laut, Kabupaten Konawe, Sulawesi Tenggara","Kabupaten Konawe, Sulawesi Tenggara",SULAWESI TENGGARA,,Indonesia,,,,-4.0300388,123.2211263,https://maps.google.com/?cid=0x0:0x83982ec1fe944ed,
supermarket,Pasar,Pasar Wawouso,"Q29W+F6X, Wawouso, Kec. Wawonii Sel., Konawe Kepulauan, Sulawesi Tenggara 93393","Wawouso, Kec. Wawonii Sel., Konawe Kepulauan",SULAWESI TENGGARA,93393.0,Indonesia,,,,-4.2312595,123.0455966,https://maps.google.com/?cid=0x0:0x52a2aa51b4335b30,
supermarket,Toko bahan makanan,Kios Resky,"44H7+R7P, Inalahi, Kec. Wawotobi, Kabupaten Konawe, Sulawesi Tenggara 93461","Inalahi, Kec. Wawotobi, Kabupaten Konawe",SULAWESI TENGGARA,93461.0,Indonesia,,,,-3.870408,122.113196,https://maps.google.com/?cid=0x0:0xa5bafc2fb074b782,
supermarket,Toko,KIOS WIDYA,"44WG+268, Palarahi, Kec. Wawotobi, Kabupaten Konawe, Sulawesi Tenggara 93461","Palarahi, Kec. Wawotobi, Kabupaten Konawe",SULAWESI TENGGARA,93461.0,Indonesia,,,,-3.8549698,122.1255657,https://maps.google.com/?cid=0x0:0x70251413072fd5d0,
supermarket,Toko Swalayan,ALFAMIDI AHMAD YANI WAWOTOBI,"44F3+CPF, Lalosabila, Kec. Wawotobi, Kabupaten Konawe, Sulawesi Tenggara 93461","Lalosabila, Kec. Wawotobi, Kabupaten Konawe",SULAWESI TENGGARA,93461.0,Indonesia,82111249625.0,,,-3.8764307,122.1043006,https://maps.google.com/?cid=0x0:0xdeb114a978d081e5,
supermarket,Toko umum,Kios ersa,"Q3VJ+MM, Lawey, Kec. Wawonii Sel., Konawe Kepulauan, Sulawesi Tenggara","Konawe Kepulauan, Sulawesi Tenggara",SULAWESI TENGGARA,,Indonesia,,,,-4.2058125,123.0816875,https://maps.google.com/?cid=0x0:0xd396b1692ad148aa,
supermarket,supermarket,toko ria,"R4GJ+VWG, Masolo, Kec. Wawonii Tenggara, Konawe Kepulauan, Sulawesi Tenggara 93393","Masolo, Kec. Wawonii Tenggara, Konawe Kepulauan",SULAWESI TENGGARA,93393.0,Indonesia,,,,-4.172813,123.1323409,https://maps.google.com/?cid=0x0:0x3897a64b48848ceb,
supermarket,supermarket,Kec. Wawonii Tim. Laut,"Konawe Kepulauan, Sulawesi Tenggara","Konawe Kepulauan, Sulawesi Tenggara",SULAWESI TENGGARA,,Indonesia,,,,-4.0289083,123.2198736,https://maps.google.com/?cid=0x0:0x81f76d50d04c3d1b,
supermarket,Toko bahan makanan,NANO MART,"XX9R+H4J, Lamoluo, Kec. Wawonii Bar., Konawe Kepulauan, Sulawesi Tenggara","Konawe Kepulauan, Sulawesi Tenggara",SULAWESI TENGGARA,,Indonesia,,,,-4.031342,122.9902143,https://maps.google.com/?cid=0x0:0x887209bfd39e0086,
supermarket,Toko,Kios Evan,"XXFQ+GRQ, Langara Iwawo, Kec. Wawonii Bar., Kabupaten Konawe, Sulawesi Tenggara","Kabupaten Konawe, Sulawesi Tenggara",SULAWESI TENGGARA,,Indonesia,85146165554.0,,,-4.0261828,122.9896004,https://maps.google.com/?cid=0x0:0x6a3c3232ebe9f138,
supermarket,Toko umum,Kios abria,"X69C+XC, Tangkombuno, Kec. Wawonii Tim. Laut, Kabupaten Konawe, Sulawesi Tenggara","Kabupaten Konawe, Sulawesi Tenggara",SULAWESI TENGGARA,,Indonesia,,,,-4.0300388,123.2211263,https://maps.google.com/?cid=0x0:0x83982ec1fe944ed,
supermarket,supermarket,Sulawesi Tenggara 93393,"Konawe Kepulauan, Sulawesi Tenggara","Konawe Kepulauan, Sulawesi Tenggara",SULAWESI TENGGARA,,Indonesia,,,,-4.0664588,123.1239049,https://maps.google.com/?cid=0x0:0xf20c69a9e2bf97eb,
supermarket,Toko Swalayan,Kios Zulia Vryti,"P3XX+C5C, Dompo-Dompo Jaya, Kec. Wawonii Tenggara, Kabupaten Konawe, Sulawesi Tenggara","Kabupaten Konawe, Sulawesi Tenggara",SULAWESI TENGGARA,,Indonesia,85242525012.0,,,-4.2514399,123.097886,https://maps.google.com/?cid=0x0:0xb81713988c669fc8,
supermarket,supermarket,toko ria,"R4GJ+VWG, Masolo, Kec. Wawonii Tenggara, Konawe Kepulauan, Sulawesi Tenggara 93393","Masolo, Kec. Wawonii Tenggara, Konawe Kepulauan",SULAWESI TENGGARA,93393.0,Indonesia,,,,-4.172813,123.1323409,https://maps.google.com/?cid=0x0:0x3897a64b48848ceb,
supermarket,supermarket,Sulawesi Tenggara 93393,"Konawe Kepulauan, Sulawesi Tenggara","Konawe Kepulauan, Sulawesi Tenggara",SULAWESI TENGGARA,,Indonesia,,,,-4.0664588,123.1239049,https://maps.google.com/?cid=0x0:0xf20c69a9e2bf97eb,
supermarket,Toko bahan makanan,NANO MART,"XX9R+H4J, Lamoluo, Kec. Wawonii Bar., Konawe Kepulauan, Sulawesi Tenggara","Konawe Kepulauan, Sulawesi Tenggara",SULAWESI TENGGARA,,Indonesia,,,,-4.031342,122.9902143,https://maps.google.com/?cid=0x0:0x887209bfd39e0086,
supermarket,Toko bahan makanan,Kios Hafizh,"Bobolio, Kec. Wawonii Sel., Konawe Kepulauan, Sulawesi Tenggara 93391","Kec. Wawonii Sel., Konawe Kepulauan",SULAWESI TENGGARA,93391.0,Indonesia,81271122327.0,,,-4.2042677,123.0132625,https://maps.google.com/?cid=0x0:0x72d1be40335fe4dc,
supermarket,Toko,Kios Evan,"XXFQ+GRQ, Langara Iwawo, Kec. Wawonii Bar., Kabupaten Konawe, Sulawesi Tenggara","Kabupaten Konawe, Sulawesi Tenggara",SULAWESI TENGGARA,,Indonesia,85146165554.0,,,-4.0261828,122.9896004,https://maps.google.com/?cid=0x0:0x6a3c3232ebe9f138,
supermarket,Toko Swalayan,Kios Zulia Vryti,"P3XX+C5C, Dompo-Dompo Jaya, Kec. Wawonii Tenggara, Kabupaten Konawe, Sulawesi Tenggara","Kabupaten Konawe, Sulawesi Tenggara",SULAWESI TENGGARA,,Indonesia,85242525012.0,,,-4.2514399,123.097886,https://maps.google.com/?cid=0x0:0xb81713988c669fc8,
supermarket,Pusat Perbelanjaan,Toserba Faiz Cell,"XXHV+FHF, Langara Indah, Kec. Wawonii Bar., Kabupaten Konawe, Sulawesi Tenggara","Kabupaten Konawe, Sulawesi Tenggara",SULAWESI TENGGARA,,Indonesia,,,,-4.0213239,122.9939274,https://maps.google.com/?cid=0x0:0xf35c7350d5f97edc,
supermarket,Minimarket,ALFAMIDI WAWOTOBI,"44F8+72X, Jl. Poros Kendari - Pohara, Wawotobi, Kec. Wawotobi, Kabupaten Konawe, Sulawesi Tenggara 93461","Jl. Poros Kendari - Pohara, Wawotobi, Kec. Wawotobi, Kabupaten Konawe",SULAWESI TENGGARA,93461.0,Indonesia,,,,-3.8767587,122.1151058,https://maps.google.com/?cid=0x0:0xc64b70a61fa17205,
supermarket,Kios,Rama,"X2PV+H7, Wawolaa, Kec. Wawonii Bar., Konawe Kepulauan, Sulawesi Tenggara","Konawe Kepulauan, Sulawesi Tenggara",SULAWESI TENGGARA,,Indonesia,,,,-4.0135288,123.0432285,https://maps.google.com/?cid=0x0:0xdaf77bb1d26d01e3,
supermarket,Kios,KIOS FAUZAN,"44Q5+FG3, Kulahi, Kec. Wawotobi, Kabupaten Konawe, Sulawesi Tenggara 93461","Kulahi, Kec. Wawotobi, Kabupaten Konawe",SULAWESI TENGGARA,93461.0,Indonesia,,,,-3.8613611,122.1087821,https://maps.google.com/?cid=0x0:0xc4a889035c58188c,
supermarket,Toko bahan makanan,Swalayan Sammulia Mart 2,"XF29+F4G, Ranomeeto, Kec. Ranomeeto, Kabupaten Konawe Selatan, Sulawesi Tenggara 93870","Ranomeeto, Kec. Ranomeeto, Kabupaten Konawe Selatan",SULAWESI TENGGARA,93870.0,Indonesia,85299717162.0,,,-4.04882,122.4678323,https://maps.google.com/?cid=0x0:0x73d90ec169a838e9,
supermarket,Toko Swalayan,ALFAMIDI AHMAD YANI WAWOTOBI,"44F3+CPF, Lalosabila, Kec. Wawotobi, Kabupaten Konawe, Sulawesi Tenggara 93461","Lalosabila, Kec. Wawotobi, Kabupaten Konawe",SULAWESI TENGGARA,93461.0,Indonesia,82111249625.0,,,-3.8764307,122.1043006,https://maps.google.com/?cid=0x0:0xdeb114a978d081e5,
supermarket,Minimarket,REISA STORE,"Q5P6+CGG, Sinaulu Jaya, Kec. Wawonii Tenggara, Kabupaten Konawe, Sulawesi Tenggara","Kabupaten Konawe, Sulawesi Tenggara",SULAWESI TENGGARA,,Indonesia,,,,-4.214565,123.1606888,https://maps.google.com/?cid=0x0:0xe48cbb0ce6f83d16,
supermarket,supermarket,toko ria,"R4GJ+VWG, Masolo, Kec. Wawonii Tenggara, Konawe Kepulauan, Sulawesi Tenggara 93393","Masolo, Kec. Wawonii Tenggara, Konawe Kepulauan",SULAWESI TENGGARA,93393.0,Indonesia,,,,-4.172813,123.1323409,https://maps.google.com/?cid=0x0:0x3897a64b48848ceb,
supermarket,Toko,KIOS TIGA PUTRI,"R4GJ+VWG, Masolo, Kec. Wawonii Tenggara, Konawe Kepulauan, Sulawesi Tenggara","Konawe Kepulauan, Sulawesi Tenggara",SULAWESI TENGGARA,,Indonesia,,,,-4.172813,123.1323409,https://maps.google.com/?cid=0x0:0x8a8349fe37729f01,
supermarket,Pasar,Pasar Wawouso,"Q29W+F6X, Wawouso, Kec. Wawonii Sel., Konawe Kepulauan, Sulawesi Tenggara 93393","Wawouso, Kec. Wawonii Sel., Konawe Kepulauan",SULAWESI TENGGARA,93393.0,Indonesia,,,,-4.2312595,123.0455966,https://maps.google.com/?cid=0x0:0x52a2aa51b4335b30,
supermarket,Toko bahan makanan,Kios Resky,"44H7+R7P, Inalahi, Kec. Wawotobi, Kabupaten Konawe, Sulawesi Tenggara 93461","Inalahi, Kec. Wawotobi, Kabupaten Konawe",SULAWESI TENGGARA,93461.0,Indonesia,,,,-3.870408,122.113196,https://maps.google.com/?cid=0x0:0xa5bafc2fb074b782,
supermarket,Toko umum,Kios Alika 02,"XXJW+62Q, Langaro Bajo, Kec. Wawonii Bar., Konawe Kepulauan, Sulawesi Tenggara","Konawe Kepulauan, Sulawesi Tenggara",SULAWESI TENGGARA,,Indonesia,,,,-4.0190062,122.9948664,https://maps.google.com/?cid=0x0:0xd4576ee08dfe5b57,
supermarket,supermarket,Kec. Wawonii Utara,"Konawe Kepulauan, Sulawesi Tenggara","Konawe Kepulauan, Sulawesi Tenggara",SULAWESI TENGGARA,,Indonesia,,,,-4.0224465,123.1012938,https://maps.google.com/?cid=0x0:0xe956c20a678ad47,
supermarket,Toko,Fotocopy Sirran Jaya  Kios,"Langara Iwawo, Kec. Wawonii Bar., Konawe Kepulauan, Sulawesi Tenggara 93393","Kec. Wawonii Bar., Konawe Kepulauan",SULAWESI TENGGARA,93393.0,Indonesia,82349448682.0,,,-4.0239964,122.9960728,https://maps.google.com/?cid=0x0:0x5e44931a8e60766a,
supermarket,Toko umum,TOKO PANCA PUTRA,"XXCQ+3X4, Lamoluo, Kec. Wawonii Bar., Kabupaten Konawe, Sulawesi Tenggara 93393","Lamoluo, Kec. Wawonii Bar., Kabupaten Konawe",SULAWESI TENGGARA,93393.0,Indonesia,82259606878.0,,,-4.0298517,122.9899457,https://maps.google.com/?cid=0x0:0x190c6756b00a03c,
supermarket,Toko bahan makanan,Kios Kharisma 03,"25QG+CPQ, Unnamed Road, Wawosolo, Kec. Wonggeduku, Kabupaten Konawe, Sulawesi Tenggara 93463","Unnamed Road, Wawosolo, Kec. Wonggeduku, Kabupaten Konawe",SULAWESI TENGGARA,93463.0,Indonesia,82193132212.0,,,-3.961423,122.1768459,https://maps.google.com/?cid=0x0:0x80694602f0a5d6c9,
supermarket,Toko Swalayan,Kios Aurel,"Kukuluri, Kec. Wawotobi, Kabupaten Konawe, Sulawesi Tenggara 93461","Kec. Wawotobi, Kabupaten Konawe",SULAWESI TENGGARA,93461.0,Indonesia,,,,-3.8344248,122.1323416,https://maps.google.com/?cid=0x0:0xa2779b9c45898ddf,
supermarket,Toko bahan makanan,Indomaret Wawotobi,"44C8+VGC, Jl. Poros Unaaha - Pondidaha, Kasupute, Kec. Wawotobi, Kabupaten Konawe, Sulawesi Tenggara 93461","Jl. Poros Unaaha - Pondidaha, Kasupute, Kec. Wawotobi, Kabupaten Konawe",SULAWESI TENGGARA,93461.0,Indonesia,82296414487.0,,,-3.877813,122.116275,https://maps.google.com/?cid=0x0:0x58d0bd74d6ef0aeb,
supermarket,Toko bahan makanan,Indomaret Ahmad Yani Wawotobi,"44VR+76M, Jl. Ahmad Yani, Palarahi, Kec. Wawotobi, Kabupaten Konawe, Sulawesi Tenggara 93461","Jl. Ahmad Yani, Palarahi, Kec. Wawotobi, Kabupaten Konawe",SULAWESI TENGGARA,93461.0,Indonesia,,,,-3.8567892,122.1405413,https://maps.google.com/?cid=0x0:0xfcf567144851d82a,
supermarket,Minimarket,toko 99 ranomeeto,"XF34+6X9, Lorong, Anawai, Ranomeeto, South Konawe Regency, South East Sulawesi 93870","Lorong, Anawai, Ranomeeto, South Konawe Regency",SULAWESI TENGGARA,93870.0,Indonesia,,,,-4.0469734,122.4574702,https://maps.google.com/?cid=0x0:0xe0c9ed224ffc0c61,
supermarket,Toko,KIOS WIDYA,"44WG+268, Palarahi, Kec. Wawotobi, Kabupaten Konawe, Sulawesi Tenggara 93461","Palarahi, Kec. Wawotobi, Kabupaten Konawe",SULAWESI TENGGARA,93461.0,Indonesia,,,,-3.8549698,122.1255657,https://maps.google.com/?cid=0x0:0x70251413072fd5d0,
