Category,Real Category,Business Name,Address,City,State,Postal Code,Country,Phone,Email,Website,Latitude,Longitude,Map Link,Details Link
komplek housing,komplek housing,Kec. Wawonii Bar.,"Konawe Kepulauan, Sulawesi Tenggara","Konawe Kepulauan, Sulawesi Tenggara",SULAWESI TENGGARA,,Indonesia,,,,-4.0251097,122.9901229,https://maps.google.com/?cid=0x0:0xbda035363ef97b99,
komplek housing,Kantor Pemerintah,Kompleks Perumah PU,"XX6W+5M9, Lamoluo, Kec. Wawonii Bar., Konawe Kepulauan, Sulawesi Tenggara","Konawe Kepulauan, Sulawesi Tenggara",SULAWESI TENGGARA,,Indonesia,,,,-4.0395803,122.9967475,https://maps.google.com/?cid=0x0:0x200cf7c5ff8584e6,
komplek housing,Perhimpunan Pengembang Perumahan,Adriana Home,"XXHW+675, Unnamed Road, Langara Indah, Kec. Wawonii Bar., Konawe Kepulauan, Sulawesi Tenggara 93393","Unnamed Road, Langara Indah, Kec. Wawonii Bar., Konawe Kepulauan",SULAWESI TENGGARA,93393.0,Indonesia,,,,-4.0220316,122.9956552,https://maps.google.com/?cid=0x0:0x704deceff24a7043,
komplek housing,Komplek perumahan,Asrul,"XXCR+H4W, Lamoluo, Kec. Wawonii Bar., Kabupaten Konawe, Sulawesi Tenggara","Kabupaten Konawe, Sulawesi Tenggara",SULAWESI TENGGARA,,Indonesia,,,,-4.0285203,122.9903173,https://maps.google.com/?cid=0x0:0xf5b26cc9c088d7ce,
komplek housing,Komplek perumahan,Rizal,"XXJW+955, Langaro Bajo, Kec. Wawonii Bar., Konawe Kepulauan, Sulawesi Tenggara 93393","Langaro Bajo, Kec. Wawonii Bar., Konawe Kepulauan",SULAWESI TENGGARA,93393.0,Indonesia,,,,-4.0191085,122.9954936,https://maps.google.com/?cid=0x0:0x74afcc201467c9a7,
komplek housing,Perhimpunan Pengembang Perumahan,Markas Andespar Family,"XXGQ+QXH Komp. TPI, Langara Laut, Kec. Wawonii Bar., Konawe Kepulauan, Sulawesi Tenggara 93393","Langara Laut, Kec. Wawonii Bar., Konawe Kepulauan",SULAWESI TENGGARA,93393.0,Indonesia,,,,-4.0228472,122.9901944,https://maps.google.com/?cid=0x0:0x845e39647de1ac7d,
komplek housing,Komplek perumahan,Rumah Leni,"XXCQ+HF, Mata Langara, Kec. Wawonii Bar., Kabupaten Konawe, Sulawesi Tenggara","Kabupaten Konawe, Sulawesi Tenggara",SULAWESI TENGGARA,,Indonesia,,,,-4.0279711,122.9886352,https://maps.google.com/?cid=0x0:0xf9e10619dc00aa9e,
komplek housing,Perhimpunan Pengembang Perumahan,Rumah Husna,"XX5X+R6, Lamoluo, Kec. Wawonii Bar., Konawe Kepulauan, Sulawesi Tenggara","Konawe Kepulauan, Sulawesi Tenggara",SULAWESI TENGGARA,,Indonesia,,,,-4.0404396,122.9981195,https://maps.google.com/?cid=0x0:0xe1e728838f9e9869,
komplek housing,Komplek perumahan,Rumah hastutyy,"XXJW+J25, Langaro Bajo, Kec. Wawonii Bar., Konawe Kepulauan, Sulawesi Tenggara","Konawe Kepulauan, Sulawesi Tenggara",SULAWESI TENGGARA,,Indonesia,,,,-4.018587,122.995176,https://maps.google.com/?cid=0x0:0xb9c6e2f8552bf573,
komplek housing,Komplek perumahan,Rumah reni,"X2V4+979, Langaro Bajo, Kec. Wawonii Bar., Konawe Kepulauan, Sulawesi Tenggara","Konawe Kepulauan, Sulawesi Tenggara",SULAWESI TENGGARA,,Indonesia,,,,-4.0065849,123.0057261,https://maps.google.com/?cid=0x0:0x494d3654518e193c,
komplek housing,Komplek perumahan,Rumah ibnu,"XX5R+97, Lamoluo, Kec. Wawonii Bar., Konawe Kepulauan, Sulawesi Tenggara","Konawe Kepulauan, Sulawesi Tenggara",SULAWESI TENGGARA,,Indonesia,,,,-4.0415198,122.9907401,https://maps.google.com/?cid=0x0:0x7216e9704043bd29,
komplek housing,Komplek perumahan,Choko,"XXFQ+3C3, Mata Langara, Kec. Wawonii Bar., Konawe Kepulauan, Sulawesi Tenggara","Konawe Kepulauan, Sulawesi Tenggara",SULAWESI TENGGARA,,Indonesia,,,,-4.0273663,122.988555,https://maps.google.com/?cid=0x0:0x1998895a05d02c2b,
komplek housing,Komplek perumahan,kediaman h.aco,"XXHV+J7Q, Langara Laut, Wawonii Bar., Konawe Kepulauan, Sulawesi Tenggara 93393","Langara Laut, Wawonii Bar., Konawe Kepulauan",SULAWESI TENGGARA,93393.0,Indonesia,,,,-4.0210446,122.9931886,https://maps.google.com/?cid=0x0:0xbaad01f0a6371a52,
komplek housing,Komplek perumahan,Rumah Indah,"XXFR+X25, Desa, Pasir Putih, Kec. Wawonii Bar., Kabupaten Konawe, Sulawesi Tenggara","Kabupaten Konawe, Sulawesi Tenggara",SULAWESI TENGGARA,,Indonesia,,,,-4.0251097,122.9901229,https://maps.google.com/?cid=0x0:0x62243cd2ea8eb0fe,
komplek housing,Komplek perumahan,Rumah yurni,"XX6R+CXC, Lamoluo, Kec. Wawonii Bar., Konawe Kepulauan, Sulawesi Tenggara","Konawe Kepulauan, Sulawesi Tenggara",SULAWESI TENGGARA,,Indonesia,,,,-4.0389409,122.9923993,https://maps.google.com/?cid=0x0:0x7c99b50f175b1275,
komplek housing,Komplek perumahan,Kosnya Ima dengan Yogi,"XXHV+68C, Langara Laut, Kec. Wawonii Bar., Konawe Kepulauan, Sulawesi Tenggara 93393","Langara Laut, Kec. Wawonii Bar., Konawe Kepulauan",SULAWESI TENGGARA,93393.0,Indonesia,,,,-4.0219415,122.9933206,https://maps.google.com/?cid=0x0:0x1ab30f348967f44,
komplek housing,komplek housing,Rumah Naufal Nadya,"XXFR+X25, Desa Lantula, Kec. Wawonii Bar., Konawe Kepulauan, Sulawesi Tenggara","Konawe Kepulauan, Sulawesi Tenggara",SULAWESI TENGGARA,,Indonesia,,,,-4.0251097,122.9901229,https://maps.google.com/?cid=0x0:0x7874e12e5614cc11,
komplek housing,Komplek perumahan,Cape Bay House,"X2V4+97, Langaro Bajo, Kec. Wawonii Bar., Konawe Kepulauan, Sulawesi Tenggara","Konawe Kepulauan, Sulawesi Tenggara",SULAWESI TENGGARA,,Indonesia,,,,-4.0167067,122.9982379,https://maps.google.com/?cid=0x0:0x5cf243a59b02bd95,
komplek housing,Komplek perumahan,Rumah Hesti,"XXJW+J25, Langaro Bajo, Kec. Wawonii Bar., Konawe Kepulauan, Sulawesi Tenggara","Konawe Kepulauan, Sulawesi Tenggara",SULAWESI TENGGARA,,Indonesia,,,,-4.0184759,122.9950943,https://maps.google.com/?cid=0x0:0xf3c9bf36825fbef8,
komplek housing,Komplek perumahan,Rakhmat Musa,"XXFR+G97, Jalan poros, Langara Laut, Kec. Wawonii Bar., Konawe Kepulauan, Sulawesi Tenggara","Konawe Kepulauan, Sulawesi Tenggara",SULAWESI TENGGARA,,Indonesia,,,,-4.0262152,122.9909188,https://maps.google.com/?cid=0x0:0xb014bd767434649e,
komplek housing,Komplek perumahan,Rumah Pak H. Malle,"XXHV+J7Q, Langara Laut, Wawonii Bar., Konawe Kepulauan, Sulawesi Tenggara 93393","Langara Laut, Wawonii Bar., Konawe Kepulauan",SULAWESI TENGGARA,93393.0,Indonesia,,,,-4.0209222,122.9932191,https://maps.google.com/?cid=0x0:0x112397c854e340c,
komplek housing,Komplek perumahan,Beskem tukang,"XX2Q+Q73, Jl. Poros Langara, Bukit Permai, Kec. Wawonii Bar., Konawe Kepulauan, Sulawesi Tenggara 93393","Jl. Poros Langara, Bukit Permai, Kec. Wawonii Bar., Konawe Kepulauan",SULAWESI TENGGARA,93393.0,Indonesia,,,,-4.0479081,122.9884509,https://maps.google.com/?cid=0x0:0xd0c2779e9ef0b354,
komplek housing,Pembangunan Perumahan,Kantor. Cv.Lima mei perdana,"XXCQ+XGJ, Mata Langara, Kec. Wawonii Bar., Konawe Kepulauan, Sulawesi Tenggara 93393","Mata Langara, Kec. Wawonii Bar., Konawe Kepulauan",SULAWESI TENGGARA,93393.0,Indonesia,,,,-4.0275413,122.9887659,https://maps.google.com/?cid=0x0:0xd9d405fc09af11c6,
komplek housing,komplek housing,Kec. Wawonii Sel.,"Konawe Kepulauan, Sulawesi Tenggara","Konawe Kepulauan, Sulawesi Tenggara",SULAWESI TENGGARA,,Indonesia,,,,-4.2028994,123.010426,https://maps.google.com/?cid=0x0:0xb39af7237da21d46,
komplek housing,Komplek perumahan,Rias,"Q2W6+JC, Bobolio, Kec. Wawonii Sel., Kabupaten Konawe, Sulawesi Tenggara 93393","Bobolio, Kec. Wawonii Sel., Kabupaten Konawe",SULAWESI TENGGARA,93393.0,Indonesia,,,,-4.2034182,123.0110816,https://maps.google.com/?cid=0x0:0xaef9f8a491419fc,
komplek housing,Komplek perumahan,neo,"Q29W+F6X, Wawouso, Kec. Wawonii Sel., Konawe Kepulauan, Sulawesi Tenggara 93393","Wawouso, Kec. Wawonii Sel., Konawe Kepulauan",SULAWESI TENGGARA,93393.0,Indonesia,,,,-4.2319679,123.0461785,https://maps.google.com/?cid=0x0:0xaecbf68f3e807e5d,
komplek housing,Komplek perumahan,Dellpiong,"VXC9+XHM, Pesue, Kec. Wawonii Tengah, Kabupaten Konawe, Sulawesi Tenggara 93393","Pesue, Kec. Wawonii Tengah, Kabupaten Konawe",SULAWESI TENGGARA,93393.0,Indonesia,85340213616.0,,,-4.1268386,122.9687013,https://maps.google.com/?cid=0x0:0x2406ebf9e3111932,
komplek housing,Pembangunan Perumahan,Rumahnya Al muarif,"Q365+5J2, Lawey, Kec. Wawonii Sel., Konawe Kepulauan, Sulawesi Tenggara 93393","Lawey, Kec. Wawonii Sel., Konawe Kepulauan",SULAWESI TENGGARA,93393.0,Indonesia,,,,-4.2396252,123.0589353,https://maps.google.com/?cid=0x0:0xe95747ca571c42cd,
komplek housing,komplek housing,Kios Bela,"VXF9+CFH, Pesue, Kec. Wawonii Tengah, Konawe Kepulauan, Sulawesi Tenggara 93393","Pesue, Kec. Wawonii Tengah, Konawe Kepulauan",SULAWESI TENGGARA,93393.0,Indonesia,,,,-4.1264356,122.9687264,https://maps.google.com/?cid=0x0:0x6663441a7c0330f1,
komplek housing,Komplek perumahan,Delpin,"Q364+W5, Puuwatu, Kec. Wawonii Sel., Konawe Kepulauan, Sulawesi Tenggara","Konawe Kepulauan, Sulawesi Tenggara",SULAWESI TENGGARA,,Indonesia,,,,-4.2376167,123.0555268,https://maps.google.com/?cid=0x0:0x30b81ab0a1ae32b3,
komplek housing,komplek housing,Rumah Arhun,"Q2X6+53H, Bobolio, Kec. Wawonii Sel., Konawe Kepulauan, Sulawesi Tenggara 93393","Bobolio, Kec. Wawonii Sel., Konawe Kepulauan",SULAWESI TENGGARA,93393.0,Indonesia,,,,-4.2020722,123.010234,https://maps.google.com/?cid=0x0:0xff8e8addf0dc8dd1,
komplek housing,Komplek perumahan,Rumah Hajul,"Q2X2+GQ6, Jl. Sawaea, Sawaea, Kec. Wawonii Sel., Konawe Kepulauan, Sulawesi Tenggara 93393","Jl. Sawaea, Sawaea, Kec. Wawonii Sel., Konawe Kepulauan",SULAWESI TENGGARA,93393.0,Indonesia,,,,-4.2012061,123.0018984,https://maps.google.com/?cid=0x0:0xf7470fe15980a63a,
komplek housing,Tujuan Wisata,Wungkolo,"VX2P+V85, Wungkolo, Kec. Wawonii Sel., Konawe Kepulauan, Sulawesi Tenggara","Konawe Kepulauan, Sulawesi Tenggara",SULAWESI TENGGARA,,Indonesia,,,,-4.1478564,122.985844,https://maps.google.com/?cid=0x0:0x1cf0fa9c5a518a1c,
komplek housing,Komplek perumahan,Cendekia Sultra,"VX2Q+P2M, Wungkolo, Kec. Wawonii Sel., Konawe Kepulauan, Sulawesi Tenggara 93393","Wungkolo, Kec. Wawonii Sel., Konawe Kepulauan",SULAWESI TENGGARA,93393.0,Indonesia,,,,-4.1481631,122.9875593,https://maps.google.com/?cid=0x0:0xef6de9fc6a8a65fc,
komplek housing,Komplek perumahan,"Rumah Hashif AB,HASRUL","RX5R+6FW, Sawapatani, Kec. Wawonii Sel., Konawe Kepulauan, Sulawesi Tenggara","Konawe Kepulauan, Sulawesi Tenggara",SULAWESI TENGGARA,,Indonesia,,,,-4.191886,122.9911933,https://maps.google.com/?cid=0x0:0x8efe525f2ce0d866,
komplek housing,Komplek perumahan,Rumah,"Q28W+GX, Wawouso, Kec. Wawonii Sel., Konawe Kepulauan, Sulawesi Tenggara","Konawe Kepulauan, Sulawesi Tenggara",SULAWESI TENGGARA,,Indonesia,,,,-4.233711,123.047381,https://maps.google.com/?cid=0x0:0x806b082b45bb3e8d,
komplek housing,Komplek perumahan,Rumah Thiny,"R35G+7XQ, Puuwatu, Kec. Wawonii Sel., Konawe Kepulauan, Sulawesi Tenggara","Konawe Kepulauan, Sulawesi Tenggara",SULAWESI TENGGARA,,Indonesia,,,,-4.19178,123.0774943,https://maps.google.com/?cid=0x0:0x1cbc1116915474ad,
komplek housing,Komplek perumahan,Rumah Roni Wawouso,"Q29V+XM, Wawouso Baru, Kec. Wawonii Sel., Konawe Kepulauan, Sulawesi Tenggara","Konawe Kepulauan, Sulawesi Tenggara",SULAWESI TENGGARA,,Indonesia,,,,-4.2300625,123.0446501,https://maps.google.com/?cid=0x0:0x5a07ac2be7286104,
komplek housing,Komplek perumahan,"Rumah Hashif AB, HASRUL","R2WG+WPG, Sawapatani, Kec. Wawonii Sel., Konawe Kepulauan, Sulawesi Tenggara","Konawe Kepulauan, Sulawesi Tenggara",SULAWESI TENGGARA,,Indonesia,,,,-4.1526984,123.0268398,https://maps.google.com/?cid=0x0:0x8dfb780a43bded90,
komplek housing,Komplek perumahan,Gubuk dahlan,"V47F+GHR, Tondonggito, Kec. Wawonii Tenggara, Konawe Kepulauan, Sulawesi Tenggara","Konawe Kepulauan, Sulawesi Tenggara",SULAWESI TENGGARA,,Indonesia,,,,-4.1361465,123.1239049,https://maps.google.com/?cid=0x0:0xe29bf7571d46720c,
komplek housing,komplek housing,Wawonii Tengah,"VXQ4+P6W, Mekar Sari, Kec. Wawonii Tengah, Konawe Kepulauan, Sulawesi Tenggara","Konawe Kepulauan, Sulawesi Tenggara",SULAWESI TENGGARA,,Indonesia,,,,-4.1106431,122.9555686,https://maps.google.com/?cid=0x0:0x7ad52b058556654b,
komplek housing,komplek housing,Mahseng Gama,"VX7C+Q3C, Jalan poros langara, Lampeapi, Kec. Wawonii Tengah, Konawe Kepulauan, Sulawesi Tenggara 93393","Jalan poros langara, Lampeapi, Kec. Wawonii Tengah, Konawe Kepulauan",SULAWESI TENGGARA,93393.0,Indonesia,,,,-4.1355531,122.9701538,https://maps.google.com/?cid=0x0:0x1ddfe15c9b867db1,
komplek housing,komplek housing,Rumah Ramadhan,"VXC9+XHM, Pesue, Kec. Wawonii Tengah, Kabupaten Konawe, Sulawesi Tenggara 93393","Pesue, Kec. Wawonii Tengah, Kabupaten Konawe",SULAWESI TENGGARA,93393.0,Indonesia,,,,-4.1263537,122.9685438,https://maps.google.com/?cid=0x0:0xe27b88bd0fd6082e,
komplek housing,ATM,Abdi brilink/Adi cell,"VX99+5MM, Jl. Poros Langara, Lampeapi, Kec. Wawonii Tengah, Konawe Kepulauan, Sulawesi Tenggara 93393","Jl. Poros Langara, Lampeapi, Kec. Wawonii Tengah, Konawe Kepulauan",SULAWESI TENGGARA,93393.0,Indonesia,,,,-4.1319555,122.9691663,https://maps.google.com/?cid=0x0:0x4b1c09a27876ede2,
komplek housing,Gedung Apartemen,Rumah KanDa,"VXC8+9QQ, Lampeapi Baru, Kec. Wawonii Tengah, Konawe Kepulauan, Sulawesi Tenggara 93393","Lampeapi Baru, Kec. Wawonii Tengah, Konawe Kepulauan",SULAWESI TENGGARA,93393.0,Indonesia,,,,-4.1294596,122.9678176,https://maps.google.com/?cid=0x0:0x6e7d205421ae9c40,
komplek housing,Rumah Kaca,RUMAH BAYU,"VXH8+37G, Lampeapi Baru, Kec. Wawonii Tengah, Konawe Kepulauan, Sulawesi Tenggara 93393","Lampeapi Baru, Kec. Wawonii Tengah, Konawe Kepulauan",SULAWESI TENGGARA,93393.0,Indonesia,,,,-4.122302,122.965703,https://maps.google.com/?cid=0x0:0x759225ed10c05271,
komplek housing,komplek housing,Rumah MAMA DARNI,"VX99+5MM, Jl. Poros Langara, Lampeapi, Kec. Wawonii Tengah, Konawe Kepulauan, Sulawesi Tenggara 93393","Jl. Poros Langara, Lampeapi, Kec. Wawonii Tengah, Konawe Kepulauan",SULAWESI TENGGARA,93393.0,Indonesia,,,,-4.1320375,122.9691719,https://maps.google.com/?cid=0x0:0x93a796a24deb1b9f,
komplek housing,Rumah Kaca,Rumah mama eca,"VX99+CC3, Lampeapi Baru, Kec. Wawonii Tengah, Konawe Kepulauan, Sulawesi Tenggara 93393","Lampeapi Baru, Kec. Wawonii Tengah, Konawe Kepulauan",SULAWESI TENGGARA,93393.0,Indonesia,,,,-4.1314958,122.968559,https://maps.google.com/?cid=0x0:0x5b2f24343347a2d2,
komplek housing,Kantor Pemerintah,Desa sinaulu jaya,"Q4WV+VCG, Sinaulu Jaya, Kec. Wawonii Tenggara, Konawe Kepulauan, Sulawesi Tenggara 93393","Sinaulu Jaya, Kec. Wawonii Tenggara, Konawe Kepulauan",SULAWESI TENGGARA,93393.0,Indonesia,,,,-4.2028214,123.1435877,https://maps.google.com/?cid=0x0:0x7da143b66effaa33,
komplek housing,Taman Rekreasi Air,Muara Pantai kelapa,"RX5R+4M8, Unnamed Road, Sawapatani, Kec. Wawonii Sel., Konawe Kepulauan, Sulawesi Tenggara 93393","Unnamed Road, Sawapatani, Kec. Wawonii Sel., Konawe Kepulauan",SULAWESI TENGGARA,93393.0,Indonesia,,,,-4.1922003,122.9917124,https://maps.google.com/?cid=0x0:0xf9ca383a885bd866,
komplek housing,komplek housing,Kec. Wawonii Tengah,"Konawe Kepulauan, Sulawesi Tenggara","Konawe Kepulauan, Sulawesi Tenggara",SULAWESI TENGGARA,,Indonesia,,,,-4.1312287,122.9691468,https://maps.google.com/?cid=0x0:0x3815a4df92a01d0a,
komplek housing,Komplek perumahan,Dellpiong,"VXC9+XHM, Pesue, Kec. Wawonii Tengah, Kabupaten Konawe, Sulawesi Tenggara 93393","Pesue, Kec. Wawonii Tengah, Kabupaten Konawe",SULAWESI TENGGARA,93393.0,Indonesia,85340213616.0,,,-4.1268386,122.9687013,https://maps.google.com/?cid=0x0:0x2406ebf9e3111932,
komplek housing,komplek housing,Wawonii Tengah,"VXQ4+P6W, Mekar Sari, Kec. Wawonii Tengah, Konawe Kepulauan, Sulawesi Tenggara","Konawe Kepulauan, Sulawesi Tenggara",SULAWESI TENGGARA,,Indonesia,,,,-4.1106431,122.9555686,https://maps.google.com/?cid=0x0:0x7ad52b058556654b,
komplek housing,Rumah Kaca,RUMAH BAYU,"VXH8+37G, Lampeapi Baru, Kec. Wawonii Tengah, Konawe Kepulauan, Sulawesi Tenggara 93393","Lampeapi Baru, Kec. Wawonii Tengah, Konawe Kepulauan",SULAWESI TENGGARA,93393.0,Indonesia,,,,-4.122302,122.965703,https://maps.google.com/?cid=0x0:0x759225ed10c05271,
komplek housing,komplek housing,Mahseng Gama,"VX7C+Q3C, Jalan poros langara, Lampeapi, Kec. Wawonii Tengah, Konawe Kepulauan, Sulawesi Tenggara 93393","Jalan poros langara, Lampeapi, Kec. Wawonii Tengah, Konawe Kepulauan",SULAWESI TENGGARA,93393.0,Indonesia,,,,-4.1355531,122.9701538,https://maps.google.com/?cid=0x0:0x1ddfe15c9b867db1,
komplek housing,Komplek perumahan,Rmh Dimas,"WWFV+F2F, Batumea, Kec. Wawonii Tengah, Konawe Kepulauan, Sulawesi Tenggara 93393","Batumea, Kec. Wawonii Tengah, Konawe Kepulauan",SULAWESI TENGGARA,93393.0,Indonesia,,,,-4.0763125,122.9425469,https://maps.google.com/?cid=0x0:0xba168ae7228c2987,
komplek housing,Komplek perumahan,Cendekia Sultra,"VX2Q+P2M, Wungkolo, Kec. Wawonii Sel., Konawe Kepulauan, Sulawesi Tenggara 93393","Wungkolo, Kec. Wawonii Sel., Konawe Kepulauan",SULAWESI TENGGARA,93393.0,Indonesia,,,,-4.1481631,122.9875593,https://maps.google.com/?cid=0x0:0xef6de9fc6a8a65fc,
komplek housing,ATM,Abdi brilink/Adi cell,"VX99+5MM, Jl. Poros Langara, Lampeapi, Kec. Wawonii Tengah, Konawe Kepulauan, Sulawesi Tenggara 93393","Jl. Poros Langara, Lampeapi, Kec. Wawonii Tengah, Konawe Kepulauan",SULAWESI TENGGARA,93393.0,Indonesia,,,,-4.1319555,122.9691663,https://maps.google.com/?cid=0x0:0x4b1c09a27876ede2,
komplek housing,komplek housing,Rumah Ramadhan,"VXC9+XHM, Pesue, Kec. Wawonii Tengah, Kabupaten Konawe, Sulawesi Tenggara 93393","Pesue, Kec. Wawonii Tengah, Kabupaten Konawe",SULAWESI TENGGARA,93393.0,Indonesia,,,,-4.1263537,122.9685438,https://maps.google.com/?cid=0x0:0xe27b88bd0fd6082e,
komplek housing,komplek housing,Rumah MAMA DARNI,"VX99+5MM, Jl. Poros Langara, Lampeapi, Kec. Wawonii Tengah, Konawe Kepulauan, Sulawesi Tenggara 93393","Jl. Poros Langara, Lampeapi, Kec. Wawonii Tengah, Konawe Kepulauan",SULAWESI TENGGARA,93393.0,Indonesia,,,,-4.1320375,122.9691719,https://maps.google.com/?cid=0x0:0x93a796a24deb1b9f,
komplek housing,Gedung Apartemen,Rumah KanDa,"VXC8+9QQ, Lampeapi Baru, Kec. Wawonii Tengah, Konawe Kepulauan, Sulawesi Tenggara 93393","Lampeapi Baru, Kec. Wawonii Tengah, Konawe Kepulauan",SULAWESI TENGGARA,93393.0,Indonesia,,,,-4.1294596,122.9678176,https://maps.google.com/?cid=0x0:0x6e7d205421ae9c40,
komplek housing,Tujuan Wisata,Wungkolo,"VX2P+V85, Wungkolo, Kec. Wawonii Sel., Konawe Kepulauan, Sulawesi Tenggara","Konawe Kepulauan, Sulawesi Tenggara",SULAWESI TENGGARA,,Indonesia,,,,-4.1478564,122.985844,https://maps.google.com/?cid=0x0:0x1cf0fa9c5a518a1c,
komplek housing,Rumah Kaca,Rumah mama eca,"VX99+CC3, Lampeapi Baru, Kec. Wawonii Tengah, Konawe Kepulauan, Sulawesi Tenggara 93393","Lampeapi Baru, Kec. Wawonii Tengah, Konawe Kepulauan",SULAWESI TENGGARA,93393.0,Indonesia,,,,-4.1314958,122.968559,https://maps.google.com/?cid=0x0:0x5b2f24343347a2d2,
komplek housing,Komplek perumahan,Beskem tukang,"XX2Q+Q73, Jl. Poros Langara, Bukit Permai, Kec. Wawonii Bar., Konawe Kepulauan, Sulawesi Tenggara 93393","Jl. Poros Langara, Bukit Permai, Kec. Wawonii Bar., Konawe Kepulauan",SULAWESI TENGGARA,93393.0,Indonesia,,,,-4.0479081,122.9884509,https://maps.google.com/?cid=0x0:0xd0c2779e9ef0b354,
komplek housing,Komplek perumahan,Ariyanto,"VX59+W3G, Rw. Indah, Kec. Wawonii Tengah, Konawe Kepulauan, Sulawesi Tenggara","Konawe Kepulauan, Sulawesi Tenggara",SULAWESI TENGGARA,,Indonesia,,,,-4.140188,122.9677101,https://maps.google.com/?cid=0x0:0x7a7c54fd3076f2e1,
komplek housing,Kantor Pemerintah,Kompleks Perumah PU,"XX6W+5M9, Lamoluo, Kec. Wawonii Bar., Konawe Kepulauan, Sulawesi Tenggara","Konawe Kepulauan, Sulawesi Tenggara",SULAWESI TENGGARA,,Indonesia,,,,-4.0395803,122.9967475,https://maps.google.com/?cid=0x0:0x200cf7c5ff8584e6,
komplek housing,Komplek perumahan,"Rumah Hashif AB, HASRUL","R2WG+WPG, Sawapatani, Kec. Wawonii Sel., Konawe Kepulauan, Sulawesi Tenggara","Konawe Kepulauan, Sulawesi Tenggara",SULAWESI TENGGARA,,Indonesia,,,,-4.1526984,123.0268398,https://maps.google.com/?cid=0x0:0x8dfb780a43bded90,
komplek housing,Perhimpunan Pengembang Perumahan,Rumah Husna,"XX5X+R6, Lamoluo, Kec. Wawonii Bar., Konawe Kepulauan, Sulawesi Tenggara","Konawe Kepulauan, Sulawesi Tenggara",SULAWESI TENGGARA,,Indonesia,,,,-4.0404396,122.9981195,https://maps.google.com/?cid=0x0:0xe1e728838f9e9869,
komplek housing,Komplek perumahan,Rumah ibnu,"XX5R+97, Lamoluo, Kec. Wawonii Bar., Konawe Kepulauan, Sulawesi Tenggara","Konawe Kepulauan, Sulawesi Tenggara",SULAWESI TENGGARA,,Indonesia,,,,-4.0415198,122.9907401,https://maps.google.com/?cid=0x0:0x7216e9704043bd29,
komplek housing,Komplek perumahan,Rumah yurni,"XX6R+CXC, Lamoluo, Kec. Wawonii Bar., Konawe Kepulauan, Sulawesi Tenggara","Konawe Kepulauan, Sulawesi Tenggara",SULAWESI TENGGARA,,Indonesia,,,,-4.0389409,122.9923993,https://maps.google.com/?cid=0x0:0x7c99b50f175b1275,
komplek housing,Pembangunan Perumahan,Kantor. Cv.Lima mei perdana,"XXCQ+XGJ, Mata Langara, Kec. Wawonii Bar., Konawe Kepulauan, Sulawesi Tenggara 93393","Mata Langara, Kec. Wawonii Bar., Konawe Kepulauan",SULAWESI TENGGARA,93393.0,Indonesia,,,,-4.0275413,122.9887659,https://maps.google.com/?cid=0x0:0xd9d405fc09af11c6,
komplek housing,komplek housing,Sulawesi Tenggara 93393,"Konawe Kepulauan, Sulawesi Tenggara","Konawe Kepulauan, Sulawesi Tenggara",SULAWESI TENGGARA,,Indonesia,,,,-4.0664588,123.1239049,https://maps.google.com/?cid=0x0:0xf20c69a9e2bf97eb,
komplek housing,Komplek perumahan,neo,"Q29W+F6X, Wawouso, Kec. Wawonii Sel., Konawe Kepulauan, Sulawesi Tenggara 93393","Wawouso, Kec. Wawonii Sel., Konawe Kepulauan",SULAWESI TENGGARA,93393.0,Indonesia,,,,-4.2319679,123.0461785,https://maps.google.com/?cid=0x0:0xaecbf68f3e807e5d,
komplek housing,Komplek perumahan,Mualim,"X68F+4G, Tangkombuno, Kec. Wawonii Tim. Laut, Kabupaten Konawe, Sulawesi Tenggara","Kabupaten Konawe, Sulawesi Tenggara",SULAWESI TENGGARA,,Indonesia,,,,-4.035066,123.223877,https://maps.google.com/?cid=0x0:0x842df53eb2ea9179,
komplek housing,komplek housing,Widya house,"Q2W5+P9G, Bobolio, Kec. Wawonii Sel., Konawe Kepulauan, Sulawesi Tenggara 93393","Bobolio, Kec. Wawonii Sel., Konawe Kepulauan",SULAWESI TENGGARA,93393.0,Indonesia,,,,-4.2021764,123.0088705,https://maps.google.com/?cid=0x0:0x7e7b6f8e8abfaff4,
komplek housing,Komplek perumahan,Rumah geo,"W7G4+R42, Lebo, Kec. Wawonii Tim., Konawe Kepulauan, Sulawesi Tenggara 93393","Lebo, Kec. Wawonii Tim., Konawe Kepulauan",SULAWESI TENGGARA,93393.0,Indonesia,,,,-4.073652,123.255004,https://maps.google.com/?cid=0x0:0xb7e9c8915df8822,
komplek housing,Komplek perumahan,Rias,"Q2W6+JC, Bobolio, Kec. Wawonii Sel., Kabupaten Konawe, Sulawesi Tenggara 93393","Bobolio, Kec. Wawonii Sel., Kabupaten Konawe",SULAWESI TENGGARA,93393.0,Indonesia,,,,-4.2034182,123.0110816,https://maps.google.com/?cid=0x0:0xaef9f8a491419fc,
komplek housing,Komplek perumahan,Dellpiong,"VXC9+XHM, Pesue, Kec. Wawonii Tengah, Kabupaten Konawe, Sulawesi Tenggara 93393","Pesue, Kec. Wawonii Tengah, Kabupaten Konawe",SULAWESI TENGGARA,93393.0,Indonesia,85340213616.0,,,-4.1268386,122.9687013,https://maps.google.com/?cid=0x0:0x2406ebf9e3111932,
komplek housing,Pembangunan Perumahan,Rumahnya Al muarif,"Q365+5J2, Lawey, Kec. Wawonii Sel., Konawe Kepulauan, Sulawesi Tenggara 93393","Lawey, Kec. Wawonii Sel., Konawe Kepulauan",SULAWESI TENGGARA,93393.0,Indonesia,,,,-4.2396252,123.0589353,https://maps.google.com/?cid=0x0:0xe95747ca571c42cd,
komplek housing,komplek housing,Widi,"V66M+5Q, Tekonea, Kec. Wawonii Tim., Kabupaten Konawe, Sulawesi Tenggara","Kabupaten Konawe, Sulawesi Tenggara",SULAWESI TENGGARA,,Indonesia,,,,-4.139733,123.233894,https://maps.google.com/?cid=0x0:0x645570f4bc1875cf,
komplek housing,Komplek perumahan,Mirs,"X63M+MX2, Mata Dimba, Kec. Wawonii Tim. Laut, Konawe Kepulauan, Sulawesi Tenggara 93393","Mata Dimba, Kec. Wawonii Tim. Laut, Konawe Kepulauan",SULAWESI TENGGARA,93393.0,Indonesia,,,,-4.0458615,123.2348808,https://maps.google.com/?cid=0x0:0xabfce00cf5020755,
komplek housing,Kantor Pemerintah,Kompleks Perumah PU,"XX6W+5M9, Lamoluo, Kec. Wawonii Bar., Konawe Kepulauan, Sulawesi Tenggara","Konawe Kepulauan, Sulawesi Tenggara",SULAWESI TENGGARA,,Indonesia,,,,-4.0395803,122.9967475,https://maps.google.com/?cid=0x0:0x200cf7c5ff8584e6,
komplek housing,Perhimpunan Pengembang Perumahan,Adriana Home,"XXHW+675, Unnamed Road, Langara Indah, Kec. Wawonii Bar., Konawe Kepulauan, Sulawesi Tenggara 93393","Unnamed Road, Langara Indah, Kec. Wawonii Bar., Konawe Kepulauan",SULAWESI TENGGARA,93393.0,Indonesia,,,,-4.0220316,122.9956552,https://maps.google.com/?cid=0x0:0x704deceff24a7043,
komplek housing,Perumahan,Rumah Nahel,"P3XR+RG, Teparoko, Kec. Wawonii Tenggara, Konawe Kepulauan, Sulawesi Tenggara","Konawe Kepulauan, Sulawesi Tenggara",SULAWESI TENGGARA,,Indonesia,,,,-4.2498555,123.0911941,https://maps.google.com/?cid=0x0:0xf46878ffd9f4fb87,
komplek housing,Komplek perumahan,Rumah ifbal,"W7F4+99, Lebo, Kec. Wawonii Tim., Konawe Kepulauan, Sulawesi Tenggara","Konawe Kepulauan, Sulawesi Tenggara",SULAWESI TENGGARA,,Indonesia,,,,-4.0754074,123.256085,https://maps.google.com/?cid=0x0:0xaa359c084771596b,
komplek housing,komplek housing,Helwa,"X3HM+GCM, Waworope, Kec. Wawonii Utara, Kabupaten Konawe, Sulawesi Tenggara 93393","Waworope, Kec. Wawonii Utara, Kabupaten Konawe",SULAWESI TENGGARA,93393.0,Indonesia,,,,-4.0207911,123.0832079,https://maps.google.com/?cid=0x0:0xa35027df485b7045,
komplek housing,Komplek perumahan,HOME Nani Pratiwi,"X66F+WMR, Tangkombuno, Kec. Wawonii Tim. Laut, Konawe Kepulauan, Sulawesi Tenggara 93393","Tangkombuno, Kec. Wawonii Tim. Laut, Konawe Kepulauan",SULAWESI TENGGARA,93393.0,Indonesia,,,,-4.0376376,123.2241311,https://maps.google.com/?cid=0x0:0x5498fa750a08047b,
komplek housing,Komplek perumahan,Rumah Hajul,"Q2X2+GQ6, Jl. Sawaea, Sawaea, Kec. Wawonii Sel., Konawe Kepulauan, Sulawesi Tenggara 93393","Jl. Sawaea, Sawaea, Kec. Wawonii Sel., Konawe Kepulauan",SULAWESI TENGGARA,93393.0,Indonesia,,,,-4.2012061,123.0018984,https://maps.google.com/?cid=0x0:0xf7470fe15980a63a,
komplek housing,Kantor Pemerintah,Desa sinaulu jaya,"Q4WV+VCG, Sinaulu Jaya, Kec. Wawonii Tenggara, Konawe Kepulauan, Sulawesi Tenggara 93393","Sinaulu Jaya, Kec. Wawonii Tenggara, Konawe Kepulauan",SULAWESI TENGGARA,93393.0,Indonesia,,,,-4.2028214,123.1435877,https://maps.google.com/?cid=0x0:0x7da143b66effaa33,
komplek housing,Komplek perumahan,HARIYANTO HOME,"X5JJ+79, Mata Buranga, Kec. Wawonii Utara, Konawe Kepulauan, Sulawesi Tenggara","Konawe Kepulauan, Sulawesi Tenggara",SULAWESI TENGGARA,,Indonesia,,,,-4.0189189,123.1808232,https://maps.google.com/?cid=0x0:0xa5b23a7677619ff6,
komplek housing,komplek housing,Rumah Arhun,"Q2X6+53H, Bobolio, Kec. Wawonii Sel., Konawe Kepulauan, Sulawesi Tenggara 93393","Bobolio, Kec. Wawonii Sel., Konawe Kepulauan",SULAWESI TENGGARA,93393.0,Indonesia,,,,-4.2020722,123.010234,https://maps.google.com/?cid=0x0:0xff8e8addf0dc8dd1,
komplek housing,komplek housing,Kec. Wawonii Tenggara,"Konawe Kepulauan, Sulawesi Tenggara","Konawe Kepulauan, Sulawesi Tenggara",SULAWESI TENGGARA,,Indonesia,,,,-4.252093,123.0993267,https://maps.google.com/?cid=0x0:0xe1036d4655923fdc,
komplek housing,Komplek perumahan,Rumah halimudin,"P4XR+W8J, Nambo Jaya, Kec. Wawonii Tenggara, Konawe Kepulauan, Sulawesi Tenggara 93393","Nambo Jaya, Kec. Wawonii Tenggara, Konawe Kepulauan",SULAWESI TENGGARA,93393.0,Indonesia,,,,-4.2497713,123.1406702,https://maps.google.com/?cid=0x0:0x6f59328c74a3c10d,
komplek housing,Komplek perumahan,Rumah Reni,"P4XR+W8J, Nambo Jaya, Kec. Wawonii Tenggara, Konawe Kepulauan, Sulawesi Tenggara 93393","Nambo Jaya, Kec. Wawonii Tenggara, Konawe Kepulauan",SULAWESI TENGGARA,93393.0,Indonesia,,,,-4.2497713,123.1406702,https://maps.google.com/?cid=0x0:0xece407f45dda957b,
komplek housing,Komplek perumahan,Kantor,"P4XR+W8J, Nambo Jaya, Kec. Wawonii Tenggara, Konawe Kepulauan, Sulawesi Tenggara 93393","Nambo Jaya, Kec. Wawonii Tenggara, Konawe Kepulauan",SULAWESI TENGGARA,93393.0,Indonesia,,,,-4.2501625,123.1407656,https://maps.google.com/?cid=0x0:0x509114b2711a64f,
komplek housing,Tujuan Wisata,Desa Mosolo,"Q5Q7+M44, Sinaulu Jaya, Kec. Wawonii Tenggara, Konawe Kepulauan, Sulawesi Tenggara 93393","Sinaulu Jaya, Kec. Wawonii Tenggara, Konawe Kepulauan",SULAWESI TENGGARA,93393.0,Indonesia,,,,-4.2108652,123.1628222,https://maps.google.com/?cid=0x0:0x22059b162fbcaf99,
komplek housing,Komplek perumahan,Polara,"R6J2+VJ9, Polara, Kec. Wawonii Tenggara, Kabupaten Konawe, Sulawesi Tenggara 93393","Polara, Kec. Wawonii Tenggara, Kabupaten Konawe",SULAWESI TENGGARA,93393.0,Indonesia,,,,-4.1674188,123.2007262,https://maps.google.com/?cid=0x0:0x31e9dacd42ba033f,
komplek housing,Komplek perumahan,Sainoa indah,"Q4FR+686, Sainoa Indah, Kec. Wawonii Tenggara, Konawe Kepulauan, Sulawesi Tenggara 93393","Sainoa Indah, Kec. Wawonii Tenggara, Konawe Kepulauan",SULAWESI TENGGARA,93393.0,Indonesia,,,,-4.2269677,123.1407761,https://maps.google.com/?cid=0x0:0xd1ab235c32a5cbce,
komplek housing,Komplek perumahan,Rumdis PKM Waworete,"W62X+4VM, Kel. Munse, Kec. Wawonii Tim., Konawe Kepulauan, Sulawesi Tenggara 93393","Kel. Munse, Kec. Wawonii Tim., Konawe Kepulauan",SULAWESI TENGGARA,93393.0,Indonesia,,,,-4.098764,123.250027,https://maps.google.com/?cid=0x0:0xf6f8131588056176,
komplek housing,komplek housing,Kec. Wawonii Tim.,"Konawe Kepulauan, Sulawesi Tenggara","Konawe Kepulauan, Sulawesi Tenggara",SULAWESI TENGGARA,,Indonesia,,,,-4.0982853,123.250794,https://maps.google.com/?cid=0x0:0xfc2f57f24f39f720,
komplek housing,Komplek perumahan,Rumah geo,"W7G4+R42, Lebo, Kec. Wawonii Tim., Konawe Kepulauan, Sulawesi Tenggara 93393","Lebo, Kec. Wawonii Tim., Konawe Kepulauan",SULAWESI TENGGARA,93393.0,Indonesia,,,,-4.073652,123.255004,https://maps.google.com/?cid=0x0:0xb7e9c8915df8822,
komplek housing,Komplek perumahan,Mualim,"X68F+4G, Tangkombuno, Kec. Wawonii Tim. Laut, Kabupaten Konawe, Sulawesi Tenggara","Kabupaten Konawe, Sulawesi Tenggara",SULAWESI TENGGARA,,Indonesia,,,,-4.035066,123.223877,https://maps.google.com/?cid=0x0:0x842df53eb2ea9179,
komplek housing,Komplek perumahan,Mirs,"X63M+MX2, Mata Dimba, Kec. Wawonii Tim. Laut, Konawe Kepulauan, Sulawesi Tenggara 93393","Mata Dimba, Kec. Wawonii Tim. Laut, Konawe Kepulauan",SULAWESI TENGGARA,93393.0,Indonesia,,,,-4.0458615,123.2348808,https://maps.google.com/?cid=0x0:0xabfce00cf5020755,
komplek housing,Komplek perumahan,Rumah ifbal,"W7F4+99, Lebo, Kec. Wawonii Tim., Konawe Kepulauan, Sulawesi Tenggara","Konawe Kepulauan, Sulawesi Tenggara",SULAWESI TENGGARA,,Indonesia,,,,-4.0754074,123.256085,https://maps.google.com/?cid=0x0:0xaa359c084771596b,
komplek housing,Pembangunan Perumahan,Tekonea,"V66P+967, Tekonea, Kec. Wawonii Tim., Konawe Kepulauan, Sulawesi Tenggara","Konawe Kepulauan, Sulawesi Tenggara",SULAWESI TENGGARA,,Indonesia,,,,-4.1390981,123.2355361,https://maps.google.com/?cid=0x0:0x1461abf89bce05be,
komplek housing,Komplek perumahan,HOME Nani Pratiwi,"X66F+WMR, Tangkombuno, Kec. Wawonii Tim. Laut, Konawe Kepulauan, Sulawesi Tenggara 93393","Tangkombuno, Kec. Wawonii Tim. Laut, Konawe Kepulauan",SULAWESI TENGGARA,93393.0,Indonesia,,,,-4.0376376,123.2241311,https://maps.google.com/?cid=0x0:0x5498fa750a08047b,
komplek housing,Komplek perumahan,Rumah Rinaldi,"W7G4+R42, Lebo, Kec. Wawonii Tim., Konawe Kepulauan, Sulawesi Tenggara 93393","Lebo, Kec. Wawonii Tim., Konawe Kepulauan",SULAWESI TENGGARA,93393.0,Indonesia,87879141209.0,,,-4.0742226,123.2546372,https://maps.google.com/?cid=0x0:0xfd980d9094576cd,
komplek housing,Komplek perumahan,Rumah gro,"W7G4+R42, Lebo, Kec. Wawonii Tim., Konawe Kepulauan, Sulawesi Tenggara 93393","Lebo, Kec. Wawonii Tim., Konawe Kepulauan",SULAWESI TENGGARA,93393.0,Indonesia,,,,-4.0729875,123.2552656,https://maps.google.com/?cid=0x0:0x183bb87d0a1c06b,
komplek housing,Komplek perumahan,Rumh Mutia,"W7C4+PH, Lebo, Kec. Wawonii Tim., Konawe Kepulauan, Sulawesi Tenggara","Konawe Kepulauan, Sulawesi Tenggara",SULAWESI TENGGARA,,Indonesia,,,,-4.0781845,123.25644,https://maps.google.com/?cid=0x0:0x7efaffb1d1ee68d8,
komplek housing,Komplek perumahan,Rumah afan,"W7C4+PH, Lebo, Kec. Wawonii Tim., Konawe Kepulauan, Sulawesi Tenggara","Konawe Kepulauan, Sulawesi Tenggara",SULAWESI TENGGARA,,Indonesia,,,,-4.078218,123.2564521,https://maps.google.com/?cid=0x0:0xc7c313fdc2ac84e0,
komplek housing,Komplek perumahan,Rumdis PKM Waworete,"W62X+4VM, Kel. Munse, Kec. Wawonii Tim., Konawe Kepulauan, Sulawesi Tenggara 93393","Kel. Munse, Kec. Wawonii Tim., Konawe Kepulauan",SULAWESI TENGGARA,93393.0,Indonesia,,,,-4.098764,123.250027,https://maps.google.com/?cid=0x0:0xf6f8131588056176,
komplek housing,Komplek perumahan,home desi amalia kartika putri,"X66F+6RF, Ladianta, Kec. Wawonii Tim. Laut, Konawe Kepulauan, Sulawesi Tenggara 93393","Ladianta, Kec. Wawonii Tim. Laut, Konawe Kepulauan",SULAWESI TENGGARA,93393.0,Indonesia,,,,-4.0390473,123.2250444,https://maps.google.com/?cid=0x0:0x918a939fcc10401,
komplek housing,Komplek perumahan,Gubuk dahlan,"V47F+GHR, Tondonggito, Kec. Wawonii Tenggara, Konawe Kepulauan, Sulawesi Tenggara","Konawe Kepulauan, Sulawesi Tenggara",SULAWESI TENGGARA,,Indonesia,,,,-4.1361465,123.1239049,https://maps.google.com/?cid=0x0:0xe29bf7571d46720c,
komplek housing,Komplek perumahan,Rumah aba,"W7F4+99, Lebo, Kec. Wawonii Tim., Konawe Kepulauan, Sulawesi Tenggara","Konawe Kepulauan, Sulawesi Tenggara",SULAWESI TENGGARA,,Indonesia,,,,-4.0753152,123.2561436,https://maps.google.com/?cid=0x0:0xa017d07d2fdf81ab,
komplek housing,Komplek perumahan,FAHRI,"X6H6+98W, Noko, Kec. Wawonii Tim. Laut, Konawe Kepulauan, Sulawesi Tenggara","Konawe Kepulauan, Sulawesi Tenggara",SULAWESI TENGGARA,,Indonesia,,,,-4.0203911,123.2092362,https://maps.google.com/?cid=0x0:0xe1ea91fe585827d9,
komplek housing,Komplek perumahan,Rumah azmar,"W7C4+PH, Lebo, Kec. Wawonii Tim., Konawe Kepulauan, Sulawesi Tenggara","Konawe Kepulauan, Sulawesi Tenggara",SULAWESI TENGGARA,,Indonesia,,,,-4.0775358,123.2558268,https://maps.google.com/?cid=0x0:0xfc8ca18765de2013,
komplek housing,Komplek perumahan,Asman Syarifuddin usman,"V47F+GHR, Tondonggito, Kec. Wawonii Tenggara, Konawe Kepulauan, Sulawesi Tenggara","Konawe Kepulauan, Sulawesi Tenggara",SULAWESI TENGGARA,,Indonesia,,,,-4.1361465,123.1239049,https://maps.google.com/?cid=0x0:0x5cf548acee3eac78,
komplek housing,Komplek perumahan,ZIKMI HOUSE,"X542+JRJ, Palingi, Kec. Wawonii Utara, Kabupaten Konawe, Sulawesi Tenggara","Kabupaten Konawe, Sulawesi Tenggara",SULAWESI TENGGARA,,Indonesia,,,,-4.0434125,123.1520219,https://maps.google.com/?cid=0x0:0x20feda6feb6129d8,
komplek housing,Komplek perumahan,Rumah Rafil,"X542+JRJ, Palingi, Kec. Wawonii Utara, Konawe Kepulauan, Sulawesi Tenggara","Konawe Kepulauan, Sulawesi Tenggara",SULAWESI TENGGARA,,Indonesia,,,,-4.0434125,123.1520219,https://maps.google.com/?cid=0x0:0x9321fbbc9c944df7,
komplek housing,komplek housing,Kec. Wawonii Tim. Laut,"Konawe Kepulauan, Sulawesi Tenggara","Konawe Kepulauan, Sulawesi Tenggara",SULAWESI TENGGARA,,Indonesia,,,,-4.0289083,123.2198736,https://maps.google.com/?cid=0x0:0x81f76d50d04c3d1b,
komplek housing,Komplek perumahan,Mualim,"X68F+4G, Tangkombuno, Kec. Wawonii Tim. Laut, Kabupaten Konawe, Sulawesi Tenggara","Kabupaten Konawe, Sulawesi Tenggara",SULAWESI TENGGARA,,Indonesia,,,,-4.035066,123.223877,https://maps.google.com/?cid=0x0:0x842df53eb2ea9179,
komplek housing,Komplek perumahan,Mirs,"X63M+MX2, Mata Dimba, Kec. Wawonii Tim. Laut, Konawe Kepulauan, Sulawesi Tenggara 93393","Mata Dimba, Kec. Wawonii Tim. Laut, Konawe Kepulauan",SULAWESI TENGGARA,93393.0,Indonesia,,,,-4.0458615,123.2348808,https://maps.google.com/?cid=0x0:0xabfce00cf5020755,
komplek housing,Komplek perumahan,FAHRI,"X6H6+98W, Noko, Kec. Wawonii Tim. Laut, Konawe Kepulauan, Sulawesi Tenggara","Konawe Kepulauan, Sulawesi Tenggara",SULAWESI TENGGARA,,Indonesia,,,,-4.0203911,123.2092362,https://maps.google.com/?cid=0x0:0xe1ea91fe585827d9,
komplek housing,Komplek perumahan,HOME Nani Pratiwi,"X66F+WMR, Tangkombuno, Kec. Wawonii Tim. Laut, Konawe Kepulauan, Sulawesi Tenggara 93393","Tangkombuno, Kec. Wawonii Tim. Laut, Konawe Kepulauan",SULAWESI TENGGARA,93393.0,Indonesia,,,,-4.0376376,123.2241311,https://maps.google.com/?cid=0x0:0x5498fa750a08047b,
komplek housing,Komplek perumahan,Rumah geo,"W7G4+R42, Lebo, Kec. Wawonii Tim., Konawe Kepulauan, Sulawesi Tenggara 93393","Lebo, Kec. Wawonii Tim., Konawe Kepulauan",SULAWESI TENGGARA,93393.0,Indonesia,,,,-4.073652,123.255004,https://maps.google.com/?cid=0x0:0xb7e9c8915df8822,
komplek housing,Komplek perumahan,home desi amalia kartika putri,"X66F+6RF, Ladianta, Kec. Wawonii Tim. Laut, Konawe Kepulauan, Sulawesi Tenggara 93393","Ladianta, Kec. Wawonii Tim. Laut, Konawe Kepulauan",SULAWESI TENGGARA,93393.0,Indonesia,,,,-4.0390473,123.2250444,https://maps.google.com/?cid=0x0:0x918a939fcc10401,
komplek housing,Komplek perumahan,HARIYANTO HOME,"X5JJ+79, Mata Buranga, Kec. Wawonii Utara, Konawe Kepulauan, Sulawesi Tenggara","Konawe Kepulauan, Sulawesi Tenggara",SULAWESI TENGGARA,,Indonesia,,,,-4.0189189,123.1808232,https://maps.google.com/?cid=0x0:0xa5b23a7677619ff6,
komplek housing,Komplek perumahan,Rumah Via,"X5HF+PV3, Mawa, Kec. Wawonii Utara, Konawe Kepulauan, Sulawesi Tenggara","Konawe Kepulauan, Sulawesi Tenggara",SULAWESI TENGGARA,,Indonesia,,,,-4.0211172,123.1751818,https://maps.google.com/?cid=0x0:0xac1899eac8b256eb,
komplek housing,Komplek perumahan,Rumah Ar,"X5HG+QPX, Mata Buranga, Kec. Wawonii Utara, Konawe Kepulauan, Sulawesi Tenggara 93393","Mata Buranga, Kec. Wawonii Utara, Konawe Kepulauan",SULAWESI TENGGARA,93393.0,Indonesia,,,,-4.020952,123.1768337,https://maps.google.com/?cid=0x0:0x56e37d1afdcff513,
komplek housing,Komplek perumahan,Rumah ifbal,"W7F4+99, Lebo, Kec. Wawonii Tim., Konawe Kepulauan, Sulawesi Tenggara","Konawe Kepulauan, Sulawesi Tenggara",SULAWESI TENGGARA,,Indonesia,,,,-4.0754074,123.256085,https://maps.google.com/?cid=0x0:0xaa359c084771596b,
komplek housing,Komplek perumahan,Rumah gro,"W7G4+R42, Lebo, Kec. Wawonii Tim., Konawe Kepulauan, Sulawesi Tenggara 93393","Lebo, Kec. Wawonii Tim., Konawe Kepulauan",SULAWESI TENGGARA,93393.0,Indonesia,,,,-4.0729875,123.2552656,https://maps.google.com/?cid=0x0:0x183bb87d0a1c06b,
komplek housing,Komplek perumahan,Rumah Rinaldi,"W7G4+R42, Lebo, Kec. Wawonii Tim., Konawe Kepulauan, Sulawesi Tenggara 93393","Lebo, Kec. Wawonii Tim., Konawe Kepulauan",SULAWESI TENGGARA,93393.0,Indonesia,87879141209.0,,,-4.0742226,123.2546372,https://maps.google.com/?cid=0x0:0xfd980d9094576cd,
komplek housing,Pembangunan Perumahan,Wanto,"X68F+4G, Tangkombuno, Kec. Wawonii Tim. Laut, Kabupaten Konawe, Sulawesi Tenggara","Kabupaten Konawe, Sulawesi Tenggara",SULAWESI TENGGARA,,Indonesia,,,,-4.034743,123.2237979,https://maps.google.com/?cid=0x0:0x6bffbd7222f2bf10,
komplek housing,Komplek perumahan,Rumah Adit,"X4MW+V8G, Palingi, Kec. Wawonii Utara, Konawe Kepulauan, Sulawesi Tenggara","Konawe Kepulauan, Sulawesi Tenggara",SULAWESI TENGGARA,,Indonesia,,,,-4.0153135,123.1458154,https://maps.google.com/?cid=0x0:0xe8a3c61dd8230ce1,
komplek housing,Komplek perumahan,Rumh Mutia,"W7C4+PH, Lebo, Kec. Wawonii Tim., Konawe Kepulauan, Sulawesi Tenggara","Konawe Kepulauan, Sulawesi Tenggara",SULAWESI TENGGARA,,Indonesia,,,,-4.0781845,123.25644,https://maps.google.com/?cid=0x0:0x7efaffb1d1ee68d8,
komplek housing,Komplek perumahan,Rumah azmar,"W7C4+PH, Lebo, Kec. Wawonii Tim., Konawe Kepulauan, Sulawesi Tenggara","Konawe Kepulauan, Sulawesi Tenggara",SULAWESI TENGGARA,,Indonesia,,,,-4.0775358,123.2558268,https://maps.google.com/?cid=0x0:0xfc8ca18765de2013,
komplek housing,Komplek perumahan,Rumah afan,"W7C4+PH, Lebo, Kec. Wawonii Tim., Konawe Kepulauan, Sulawesi Tenggara","Konawe Kepulauan, Sulawesi Tenggara",SULAWESI TENGGARA,,Indonesia,,,,-4.078218,123.2564521,https://maps.google.com/?cid=0x0:0xc7c313fdc2ac84e0,
komplek housing,Komplek perumahan,Rumdis PKM Waworete,"W62X+4VM, Kel. Munse, Kec. Wawonii Tim., Konawe Kepulauan, Sulawesi Tenggara 93393","Kel. Munse, Kec. Wawonii Tim., Konawe Kepulauan",SULAWESI TENGGARA,93393.0,Indonesia,,,,-4.098764,123.250027,https://maps.google.com/?cid=0x0:0xf6f8131588056176,
komplek housing,Komplek perumahan,Rumah aba,"W7F4+99, Lebo, Kec. Wawonii Tim., Konawe Kepulauan, Sulawesi Tenggara","Konawe Kepulauan, Sulawesi Tenggara",SULAWESI TENGGARA,,Indonesia,,,,-4.0753152,123.2561436,https://maps.google.com/?cid=0x0:0xa017d07d2fdf81ab,
komplek housing,komplek housing,Rumah Adil,"X5PQ+PQ4, Watuondo, Kec. Wawonii Tim. Laut, Konawe Kepulauan, Sulawesi Tenggara 93393","Watuondo, Kec. Wawonii Tim. Laut, Konawe Kepulauan",SULAWESI TENGGARA,93393.0,Indonesia,,,,-4.0132498,123.1894418,https://maps.google.com/?cid=0x0:0xa3bc9b0ba6e20884,
komplek housing,komplek housing,Kec. Wawonii Utara,"Konawe Kepulauan, Sulawesi Tenggara","Konawe Kepulauan, Sulawesi Tenggara",SULAWESI TENGGARA,,Indonesia,,,,-4.0224465,123.1012938,https://maps.google.com/?cid=0x0:0xe956c20a678ad47,
komplek housing,komplek housing,Helwa,"X3HM+GCM, Waworope, Kec. Wawonii Utara, Kabupaten Konawe, Sulawesi Tenggara 93393","Waworope, Kec. Wawonii Utara, Kabupaten Konawe",SULAWESI TENGGARA,93393.0,Indonesia,,,,-4.0207911,123.0832079,https://maps.google.com/?cid=0x0:0xa35027df485b7045,
komplek housing,Komplek perumahan,Rumah Via,"X5HF+PV3, Mawa, Kec. Wawonii Utara, Konawe Kepulauan, Sulawesi Tenggara","Konawe Kepulauan, Sulawesi Tenggara",SULAWESI TENGGARA,,Indonesia,,,,-4.0211172,123.1751818,https://maps.google.com/?cid=0x0:0xac1899eac8b256eb,
komplek housing,Komplek perumahan,Rumah Adit,"X4MW+V8G, Palingi, Kec. Wawonii Utara, Konawe Kepulauan, Sulawesi Tenggara","Konawe Kepulauan, Sulawesi Tenggara",SULAWESI TENGGARA,,Indonesia,,,,-4.0153135,123.1458154,https://maps.google.com/?cid=0x0:0xe8a3c61dd8230ce1,
komplek housing,Komplek perumahan,Lr samaturu,"X3HM+GCM, Waworope, Kec. Wawonii Utara, Kabupaten Konawe, Sulawesi Tenggara 93393","Waworope, Kec. Wawonii Utara, Kabupaten Konawe",SULAWESI TENGGARA,93393.0,Indonesia,,,,-4.0208533,123.0830171,https://maps.google.com/?cid=0x0:0x6e0440791addceae,
komplek housing,Komplek perumahan,Rumah Ar,"X5HG+QPX, Mata Buranga, Kec. Wawonii Utara, Konawe Kepulauan, Sulawesi Tenggara 93393","Mata Buranga, Kec. Wawonii Utara, Konawe Kepulauan",SULAWESI TENGGARA,93393.0,Indonesia,,,,-4.020952,123.1768337,https://maps.google.com/?cid=0x0:0x56e37d1afdcff513,
komplek housing,Perumahan,Rumah eko,"X4G2+R7C, Wawobeau, Kec. Wawonii Utara, Kabupaten Konawe, Sulawesi Tenggara","Kabupaten Konawe, Sulawesi Tenggara",SULAWESI TENGGARA,,Indonesia,,,,-4.0228911,123.1007103,https://maps.google.com/?cid=0x0:0xf1e25c179b4173fb,
komplek housing,Komplek perumahan,ZIKMI HOUSE,"X542+JRJ, Palingi, Kec. Wawonii Utara, Kabupaten Konawe, Sulawesi Tenggara","Kabupaten Konawe, Sulawesi Tenggara",SULAWESI TENGGARA,,Indonesia,,,,-4.0434125,123.1520219,https://maps.google.com/?cid=0x0:0x20feda6feb6129d8,
komplek housing,komplek housing,Rumah delon,"X4H2+2GF, Wawobeau, Kec. Wawonii Utara, Konawe Kepulauan, Sulawesi Tenggara","Konawe Kepulauan, Sulawesi Tenggara",SULAWESI TENGGARA,,Indonesia,,,,-4.0224465,123.1012938,https://maps.google.com/?cid=0x0:0x64a05702e4a17e74,
komplek housing,Komplek perumahan,Sawah Indah,"X4H2+2GF, Desa, Sawah Indah, Wawonii Utara, Konawe Islands Regency, South East Sulawesi","Konawe Kepulauan, Sulawesi Tenggara",SULAWESI TENGGARA,,Indonesia,,,,-4.0224465,123.1012938,https://maps.google.com/?cid=0x0:0x82c87e888a51ff07,
komplek housing,Komplek perumahan,Rumah Rafil,"X542+JRJ, Palingi, Kec. Wawonii Utara, Konawe Kepulauan, Sulawesi Tenggara","Konawe Kepulauan, Sulawesi Tenggara",SULAWESI TENGGARA,,Indonesia,,,,-4.0434125,123.1520219,https://maps.google.com/?cid=0x0:0x9321fbbc9c944df7,
komplek housing,Perhimpunan Pengembang Perumahan,Adriana Home,"XXHW+675, Unnamed Road, Langara Indah, Kec. Wawonii Bar., Konawe Kepulauan, Sulawesi Tenggara 93393","Unnamed Road, Langara Indah, Kec. Wawonii Bar., Konawe Kepulauan",SULAWESI TENGGARA,93393.0,Indonesia,,,,-4.0220316,122.9956552,https://maps.google.com/?cid=0x0:0x704deceff24a7043,
komplek housing,Komplek perumahan,Gubuk dahlan,"V47F+GHR, Tondonggito, Kec. Wawonii Tenggara, Konawe Kepulauan, Sulawesi Tenggara","Konawe Kepulauan, Sulawesi Tenggara",SULAWESI TENGGARA,,Indonesia,,,,-4.1361465,123.1239049,https://maps.google.com/?cid=0x0:0xe29bf7571d46720c,
komplek housing,Sekolah,Desa labisa,"X4H6+P9, Labisa, Kec. Wawonii Utara, Konawe Kepulauan, Sulawesi Tenggara","Konawe Kepulauan, Sulawesi Tenggara",SULAWESI TENGGARA,,Indonesia,,,,-4.0207198,123.11091,https://maps.google.com/?cid=0x0:0x4dad7b73b4d0bbeb,
komplek housing,Komplek perumahan,FAHRI,"X6H6+98W, Noko, Kec. Wawonii Tim. Laut, Konawe Kepulauan, Sulawesi Tenggara","Konawe Kepulauan, Sulawesi Tenggara",SULAWESI TENGGARA,,Indonesia,,,,-4.0203911,123.2092362,https://maps.google.com/?cid=0x0:0xe1ea91fe585827d9,
komplek housing,Komplek perumahan,Rizal,"XXJW+955, Langaro Bajo, Kec. Wawonii Bar., Konawe Kepulauan, Sulawesi Tenggara 93393","Langaro Bajo, Kec. Wawonii Bar., Konawe Kepulauan",SULAWESI TENGGARA,93393.0,Indonesia,,,,-4.0191085,122.9954936,https://maps.google.com/?cid=0x0:0x74afcc201467c9a7,
komplek housing,Komplek perumahan,Ello-Home,"X2G2+RV7, Langara Indah, Kec. Wawonii Bar., Kabupaten Konawe, Sulawesi Tenggara 93393","Langara Indah, Kec. Wawonii Bar., Kabupaten Konawe",SULAWESI TENGGARA,93393.0,Indonesia,,,,-4.0229983,123.0013439,https://maps.google.com/?cid=0x0:0x5131480428db4483,
komplek housing,Komplek perumahan,Mutia,"X6H6+98W, Noko, Kec. Wawonii Tim. Laut, Konawe Kepulauan, Sulawesi Tenggara","Konawe Kepulauan, Sulawesi Tenggara",SULAWESI TENGGARA,,Indonesia,,,,-4.020733,123.209795,https://maps.google.com/?cid=0x0:0xaa444be36076668a,
komplek housing,Perhimpunan Pengembang Perumahan,Markas Andespar Family,"XXGQ+QXH Komp. TPI, Langara Laut, Kec. Wawonii Bar., Konawe Kepulauan, Sulawesi Tenggara 93393","Langara Laut, Kec. Wawonii Bar., Konawe Kepulauan",SULAWESI TENGGARA,93393.0,Indonesia,,,,-4.0228472,122.9901944,https://maps.google.com/?cid=0x0:0x845e39647de1ac7d,
komplek housing,Komplek perumahan,Rumah reni,"X2V4+979, Langaro Bajo, Kec. Wawonii Bar., Konawe Kepulauan, Sulawesi Tenggara","Konawe Kepulauan, Sulawesi Tenggara",SULAWESI TENGGARA,,Indonesia,,,,-4.0065849,123.0057261,https://maps.google.com/?cid=0x0:0x494d3654518e193c,
komplek housing,Komplek perumahan,kediaman h.aco,"XXHV+J7Q, Langara Laut, Wawonii Bar., Konawe Kepulauan, Sulawesi Tenggara 93393","Langara Laut, Wawonii Bar., Konawe Kepulauan",SULAWESI TENGGARA,93393.0,Indonesia,,,,-4.0210446,122.9931886,https://maps.google.com/?cid=0x0:0xbaad01f0a6371a52,
komplek housing,Komplek perumahan,Rumah Pak H. Malle,"XXHV+J7Q, Langara Laut, Wawonii Bar., Konawe Kepulauan, Sulawesi Tenggara 93393","Langara Laut, Wawonii Bar., Konawe Kepulauan",SULAWESI TENGGARA,93393.0,Indonesia,,,,-4.0209222,122.9932191,https://maps.google.com/?cid=0x0:0x112397c854e340c,
komplek housing,Komplek perumahan,Kosnya Ima dengan Yogi,"XXHV+68C, Langara Laut, Kec. Wawonii Bar., Konawe Kepulauan, Sulawesi Tenggara 93393","Langara Laut, Kec. Wawonii Bar., Konawe Kepulauan",SULAWESI TENGGARA,93393.0,Indonesia,,,,-4.0219415,122.9933206,https://maps.google.com/?cid=0x0:0x1ab30f348967f44,
perumahan,perumahan,Kec. Wawonii Bar.,"Konawe Kepulauan, Sulawesi Tenggara","Konawe Kepulauan, Sulawesi Tenggara",SULAWESI TENGGARA,,Indonesia,,,,-4.0251097,122.9901229,https://maps.google.com/?cid=0x0:0xbda035363ef97b99,
perumahan,Petugas Perbatasan,Tempat Print Terdekat,"X2G2+W2X, Langara Indah, Kec. Wawonii Bar., Konawe Kepulauan, Sulawesi Tenggara 93393","Langara Indah, Kec. Wawonii Bar., Konawe Kepulauan",SULAWESI TENGGARA,93393.0,Indonesia,,,,-4.0226447,123.0001134,https://maps.google.com/?cid=0x0:0x39a9ab5cb5ad0069,
perumahan,Taman,STO WAWONII,"XXFR+MCG, Jl.Tower Telkomsel, Langara Iwawo, Kec. Wawonii Bar., Konawe Kepulauan, Sulawesi Tenggara","Konawe Kepulauan, Sulawesi Tenggara",SULAWESI TENGGARA,,Indonesia,,,,-4.0258029,122.9910716,https://maps.google.com/?cid=0x0:0xc1c5a6cd4ccbcadc,
perumahan,Inspektur Tempat Tinggal,Perumahan Nelayan Pasir Putih,"XX5J+W96, Bukit Permai, Kec. Wawonii Bar., Kabupaten Konawe, Sulawesi Tenggara","Kabupaten Konawe, Sulawesi Tenggara",SULAWESI TENGGARA,,Indonesia,,,,-4.0402212,122.9809007,https://maps.google.com/?cid=0x0:0x999c7033d83c4b1e,
perumahan,Perhimpunan Pengembang Perumahan,Adriana Home,"XXHW+675, Unnamed Road, Langara Indah, Kec. Wawonii Bar., Konawe Kepulauan, Sulawesi Tenggara 93393","Unnamed Road, Langara Indah, Kec. Wawonii Bar., Konawe Kepulauan",SULAWESI TENGGARA,93393.0,Indonesia,,,,-4.0220316,122.9956552,https://maps.google.com/?cid=0x0:0x704deceff24a7043,
perumahan,Perhimpunan Pengembang Perumahan,Lanowatu,"XX7R+7PH, Lamoluo, Kec. Wawonii Bar., Kabupaten Konawe, Sulawesi Tenggara 93393","Lamoluo, Kec. Wawonii Bar., Kabupaten Konawe",SULAWESI TENGGARA,93393.0,Indonesia,,,,-4.0368079,122.9918658,https://maps.google.com/?cid=0x0:0x94d0ff014620a394,
perumahan,Komplek perumahan,Rizal,"XXJW+955, Langaro Bajo, Kec. Wawonii Bar., Konawe Kepulauan, Sulawesi Tenggara 93393","Langaro Bajo, Kec. Wawonii Bar., Konawe Kepulauan",SULAWESI TENGGARA,93393.0,Indonesia,,,,-4.0191085,122.9954936,https://maps.google.com/?cid=0x0:0x74afcc201467c9a7,
perumahan,Komplek perumahan,Asrul,"XXCR+H4W, Lamoluo, Kec. Wawonii Bar., Kabupaten Konawe, Sulawesi Tenggara","Kabupaten Konawe, Sulawesi Tenggara",SULAWESI TENGGARA,,Indonesia,,,,-4.0285203,122.9903173,https://maps.google.com/?cid=0x0:0xf5b26cc9c088d7ce,
perumahan,Perhimpunan Pengembang Perumahan,Desa wawolaa rumah iyan,"X2PV+6VM, Wawolaa, Kec. Wawonii Bar., Kabupaten Konawe, Sulawesi Tenggara 93393","Wawolaa, Kec. Wawonii Bar., Kabupaten Konawe",SULAWESI TENGGARA,93393.0,Indonesia,,,,-4.0145165,123.044746,https://maps.google.com/?cid=0x0:0xddba64d387c116b7,
perumahan,Perhimpunan Pengembang Perumahan,Markas Andespar Family,"XXGQ+QXH Komp. TPI, Langara Laut, Kec. Wawonii Bar., Konawe Kepulauan, Sulawesi Tenggara 93393","Langara Laut, Kec. Wawonii Bar., Konawe Kepulauan",SULAWESI TENGGARA,93393.0,Indonesia,,,,-4.0228472,122.9901944,https://maps.google.com/?cid=0x0:0x845e39647de1ac7d,
perumahan,Komplek perumahan,Rumah reni,"X2V4+979, Langaro Bajo, Kec. Wawonii Bar., Konawe Kepulauan, Sulawesi Tenggara","Konawe Kepulauan, Sulawesi Tenggara",SULAWESI TENGGARA,,Indonesia,,,,-4.0065849,123.0057261,https://maps.google.com/?cid=0x0:0x494d3654518e193c,
perumahan,Pembangunan Perumahan,tiang PJU 1,"X2M8+XG8, Wawobili, Kec. Wawonii Bar., Konawe Kepulauan, Sulawesi Tenggara 93393","Wawobili, Kec. Wawonii Bar., Konawe Kepulauan",SULAWESI TENGGARA,93393.0,Indonesia,,,,-4.0150945,123.0163179,https://maps.google.com/?cid=0x0:0x4af6205fdd40468d,
perumahan,Kantor Pemerintah,Kompleks Perumah PU,"XX6W+5M9, Lamoluo, Kec. Wawonii Bar., Konawe Kepulauan, Sulawesi Tenggara","Konawe Kepulauan, Sulawesi Tenggara",SULAWESI TENGGARA,,Indonesia,,,,-4.0395803,122.9967475,https://maps.google.com/?cid=0x0:0x200cf7c5ff8584e6,
perumahan,Komplek perumahan,Rumah yurni,"XX6R+CXC, Lamoluo, Kec. Wawonii Bar., Konawe Kepulauan, Sulawesi Tenggara","Konawe Kepulauan, Sulawesi Tenggara",SULAWESI TENGGARA,,Indonesia,,,,-4.0389409,122.9923993,https://maps.google.com/?cid=0x0:0x7c99b50f175b1275,
perumahan,Komplek perumahan,Rumah afri,"XXHW+65Q, Langara Indah, Kec. Wawonii Bar., Konawe Kepulauan, Sulawesi Tenggara 93393","Langara Indah, Kec. Wawonii Bar., Konawe Kepulauan",SULAWESI TENGGARA,93393.0,Indonesia,,,,-4.0219074,122.9954763,https://maps.google.com/?cid=0x0:0x2e16ae4dc8458066,
perumahan,Komplek perumahan,Rumah Indah,"XXFR+X25, Desa, Pasir Putih, Kec. Wawonii Bar., Kabupaten Konawe, Sulawesi Tenggara","Kabupaten Konawe, Sulawesi Tenggara",SULAWESI TENGGARA,,Indonesia,,,,-4.0251097,122.9901229,https://maps.google.com/?cid=0x0:0x62243cd2ea8eb0fe,
perumahan,Komplek perumahan,Rumah Leni,"XXCQ+HF, Mata Langara, Kec. Wawonii Bar., Kabupaten Konawe, Sulawesi Tenggara","Kabupaten Konawe, Sulawesi Tenggara",SULAWESI TENGGARA,,Indonesia,,,,-4.0279711,122.9886352,https://maps.google.com/?cid=0x0:0xf9e10619dc00aa9e,
perumahan,Komplek perumahan,Rumah ibnu,"XX5R+97, Lamoluo, Kec. Wawonii Bar., Konawe Kepulauan, Sulawesi Tenggara","Konawe Kepulauan, Sulawesi Tenggara",SULAWESI TENGGARA,,Indonesia,,,,-4.0415198,122.9907401,https://maps.google.com/?cid=0x0:0x7216e9704043bd29,
perumahan,Komplek perumahan,Rumah hastutyy,"XXJW+J25, Langaro Bajo, Kec. Wawonii Bar., Konawe Kepulauan, Sulawesi Tenggara","Konawe Kepulauan, Sulawesi Tenggara",SULAWESI TENGGARA,,Indonesia,,,,-4.018587,122.995176,https://maps.google.com/?cid=0x0:0xb9c6e2f8552bf573,
perumahan,Komplek perumahan,Ello-Home,"X2G2+RV7, Langara Indah, Kec. Wawonii Bar., Kabupaten Konawe, Sulawesi Tenggara 93393","Langara Indah, Kec. Wawonii Bar., Kabupaten Konawe",SULAWESI TENGGARA,93393.0,Indonesia,,,,-4.0229983,123.0013439,https://maps.google.com/?cid=0x0:0x5131480428db4483,
perumahan,Area Mendaki,Kepala desa Matabaho,"X279+2Q5, Wawobili, Kec. Wawonii Bar., Konawe Kepulauan, Sulawesi Tenggara 93393","Wawobili, Kec. Wawonii Bar., Konawe Kepulauan",SULAWESI TENGGARA,93393.0,Indonesia,,,,-4.0374939,123.0194956,https://maps.google.com/?cid=0x0:0xd568e36ce0c6f01d,
perumahan,Perhimpunan Pengembang Perumahan,Rumah Husna,"XX5X+R6, Lamoluo, Kec. Wawonii Bar., Konawe Kepulauan, Sulawesi Tenggara","Konawe Kepulauan, Sulawesi Tenggara",SULAWESI TENGGARA,,Indonesia,,,,-4.0404396,122.9981195,https://maps.google.com/?cid=0x0:0xe1e728838f9e9869,
perumahan,Komplek perumahan,Wawonii,"336M+QFQ, Wonuahoa, Kec. Lambuya, Kabupaten Konawe, Sulawesi Tenggara","Kabupaten Konawe, Sulawesi Tenggara",SULAWESI TENGGARA,,Indonesia,,,,-3.9380432,122.0837445,https://maps.google.com/?cid=0x0:0x9403d7ef72a8e39,
perumahan,Perhimpunan Pengembang Perumahan,Wonua hoa,"334H+W6P, Wonuahoa, Kec. Lambuya, Kabupaten Konawe, Sulawesi Tenggara","Kabupaten Konawe, Sulawesi Tenggara",SULAWESI TENGGARA,,Indonesia,,,,-3.9426728,122.0780632,https://maps.google.com/?cid=0x0:0x9a7687ff2746d9a1,
perumahan,perumahan,Sulawesi Tenggara 93393,"Konawe Kepulauan, Sulawesi Tenggara","Konawe Kepulauan, Sulawesi Tenggara",SULAWESI TENGGARA,,Indonesia,,,,-4.0664588,123.1239049,https://maps.google.com/?cid=0x0:0xf20c69a9e2bf97eb,
perumahan,Komplek perumahan,neo,"Q29W+F6X, Wawouso, Kec. Wawonii Sel., Konawe Kepulauan, Sulawesi Tenggara 93393","Wawouso, Kec. Wawonii Sel., Konawe Kepulauan",SULAWESI TENGGARA,93393.0,Indonesia,,,,-4.2319679,123.0461785,https://maps.google.com/?cid=0x0:0xaecbf68f3e807e5d,
perumahan,Komplek perumahan,Cendekia Sultra,"VX2Q+P2M, Wungkolo, Kec. Wawonii Sel., Konawe Kepulauan, Sulawesi Tenggara 93393","Wungkolo, Kec. Wawonii Sel., Konawe Kepulauan",SULAWESI TENGGARA,93393.0,Indonesia,,,,-4.1481631,122.9875593,https://maps.google.com/?cid=0x0:0xef6de9fc6a8a65fc,
perumahan,Komplek perumahan,Rumah Neng,"Q2W6+JC, Bobolio, Kec. Wawonii Sel., Kabupaten Konawe, Sulawesi Tenggara 93393","Bobolio, Kec. Wawonii Sel., Kabupaten Konawe",SULAWESI TENGGARA,93393.0,Indonesia,,,,-4.2033903,123.0111232,https://maps.google.com/?cid=0x0:0x43482a3fe145bc7f,
perumahan,Tujuan Wisata,Wungkolo,"VX2P+V85, Wungkolo, Kec. Wawonii Sel., Konawe Kepulauan, Sulawesi Tenggara","Konawe Kepulauan, Sulawesi Tenggara",SULAWESI TENGGARA,,Indonesia,,,,-4.1478564,122.985844,https://maps.google.com/?cid=0x0:0x1cf0fa9c5a518a1c,
perumahan,Pembangunan Perumahan,Rumahnya Al muarif,"Q365+5J2, Lawey, Kec. Wawonii Sel., Konawe Kepulauan, Sulawesi Tenggara 93393","Lawey, Kec. Wawonii Sel., Konawe Kepulauan",SULAWESI TENGGARA,93393.0,Indonesia,,,,-4.2396252,123.0589353,https://maps.google.com/?cid=0x0:0xe95747ca571c42cd,
perumahan,Komplek perumahan,Rumah H. La Ode Moro,"Q2X2+GQ6, Jl. Sawaea, Sawaea, Kec. Wawonii Sel., Konawe Kepulauan, Sulawesi Tenggara 93393","Jl. Sawaea, Sawaea, Kec. Wawonii Sel., Konawe Kepulauan",SULAWESI TENGGARA,93393.0,Indonesia,,,,-4.2015224,123.0025203,https://maps.google.com/?cid=0x0:0xb1e243b98fd42476,
perumahan,Komplek perumahan,Delpin,"Q364+W5, Puuwatu, Kec. Wawonii Sel., Konawe Kepulauan, Sulawesi Tenggara","Konawe Kepulauan, Sulawesi Tenggara",SULAWESI TENGGARA,,Indonesia,,,,-4.2376167,123.0555268,https://maps.google.com/?cid=0x0:0x30b81ab0a1ae32b3,
perumahan,Komplek perumahan,Rumah Khanza,"R234+MG7, Sawaea, Kec. Wawonii Sel., Kabupaten Konawe, Sulawesi Tenggara 93393","Sawaea, Kec. Wawonii Sel., Kabupaten Konawe",SULAWESI TENGGARA,93393.0,Indonesia,,,,-4.1958765,123.0076859,https://maps.google.com/?cid=0x0:0xf2f682d05ab444e9,
perumahan,Komplek perumahan,Rumah Roni Wawouso,"Q29V+XM, Wawouso Baru, Kec. Wawonii Sel., Konawe Kepulauan, Sulawesi Tenggara","Konawe Kepulauan, Sulawesi Tenggara",SULAWESI TENGGARA,,Indonesia,,,,-4.2300625,123.0446501,https://maps.google.com/?cid=0x0:0x5a07ac2be7286104,
perumahan,Komplek perumahan,Rumah Hajul,"Q2X2+GQ6, Jl. Sawaea, Sawaea, Kec. Wawonii Sel., Konawe Kepulauan, Sulawesi Tenggara 93393","Jl. Sawaea, Sawaea, Kec. Wawonii Sel., Konawe Kepulauan",SULAWESI TENGGARA,93393.0,Indonesia,,,,-4.2012061,123.0018984,https://maps.google.com/?cid=0x0:0xf7470fe15980a63a,
perumahan,perumahan,Widya house,"R3Q2+C8R, Jalan poros, Bobolio, Kec. Wawonii Sel., Konawe Kepulauan, Sulawesi Tenggara 93393","Jalan poros, Bobolio, Kec. Wawonii Sel., Konawe Kepulauan",SULAWESI TENGGARA,93393.0,Indonesia,,,,-4.1613941,123.0507632,https://maps.google.com/?cid=0x0:0xcd6dfdc3418e5804,
perumahan,perumahan,Rumah Arhun,"Q2X6+53H, Bobolio, Kec. Wawonii Sel., Konawe Kepulauan, Sulawesi Tenggara 93393","Bobolio, Kec. Wawonii Sel., Konawe Kepulauan",SULAWESI TENGGARA,93393.0,Indonesia,,,,-4.2020722,123.010234,https://maps.google.com/?cid=0x0:0xff8e8addf0dc8dd1,
perumahan,Komplek perumahan,Rumah Thiny,"R35G+7XQ, Puuwatu, Kec. Wawonii Sel., Konawe Kepulauan, Sulawesi Tenggara","Konawe Kepulauan, Sulawesi Tenggara",SULAWESI TENGGARA,,Indonesia,,,,-4.19178,123.0774943,https://maps.google.com/?cid=0x0:0x1cbc1116915474ad,
perumahan,perumahan,Wawouso,"Kec. Wawonii Sel., Konawe Kepulauan, Sulawesi Tenggara","Konawe Kepulauan, Sulawesi Tenggara",SULAWESI TENGGARA,,Indonesia,,,,-4.1965477,123.0690537,https://maps.google.com/?cid=0x0:0x9886441ff23fd2b0,
perumahan,Komplek perumahan,Rumah,"Q28W+GX, Wawouso, Kec. Wawonii Sel., Konawe Kepulauan, Sulawesi Tenggara","Konawe Kepulauan, Sulawesi Tenggara",SULAWESI TENGGARA,,Indonesia,,,,-4.233711,123.047381,https://maps.google.com/?cid=0x0:0x806b082b45bb3e8d,
perumahan,Komplek perumahan,Lawey,"Q365+5J2, Lawey, Kec. Wawonii Sel., Konawe Kepulauan, Sulawesi Tenggara 93393","Lawey, Kec. Wawonii Sel., Konawe Kepulauan",SULAWESI TENGGARA,93393.0,Indonesia,,,,-4.2395465,123.0589767,https://maps.google.com/?cid=0x0:0xc2aa0341263950f5,
perumahan,perumahan,Widya house,"Jl. Sawaea, Sawaea, Kec. Wawonii Sel., Konawe Kepulauan, Sulawesi Tenggara","Konawe Kepulauan, Sulawesi Tenggara",SULAWESI TENGGARA,,Indonesia,,,,-4.2012147,123.0012386,https://maps.google.com/?cid=0x0:0xf90c3570e72ec5ad,
perumahan,perumahan,Widya house,"Q2W5+P9G, Bobolio, Kec. Wawonii Sel., Konawe Kepulauan, Sulawesi Tenggara 93393","Bobolio, Kec. Wawonii Sel., Konawe Kepulauan",SULAWESI TENGGARA,93393.0,Indonesia,,,,-4.2021764,123.0088705,https://maps.google.com/?cid=0x0:0x7e7b6f8e8abfaff4,
perumahan,Kompleks Apartemen,Mamat,"Q2W6+Q64, Bobolio, Kec. Wawonii Sel., Kabupaten Konawe, Sulawesi Tenggara","Kabupaten Konawe, Sulawesi Tenggara",SULAWESI TENGGARA,,Indonesia,,,,-4.2031124,123.0105814,https://maps.google.com/?cid=0x0:0x4c654cb853d0d9,
perumahan,perumahan,Kec. Wawonii Sel.,"Konawe Kepulauan, Sulawesi Tenggara","Konawe Kepulauan, Sulawesi Tenggara",SULAWESI TENGGARA,,Indonesia,,,,-4.2028994,123.010426,https://maps.google.com/?cid=0x0:0xb39af7237da21d46,
perumahan,Komplek perumahan,Dellpiong,"VXC9+XHM, Pesue, Kec. Wawonii Tengah, Kabupaten Konawe, Sulawesi Tenggara 93393","Pesue, Kec. Wawonii Tengah, Kabupaten Konawe",SULAWESI TENGGARA,93393.0,Indonesia,85340213616.0,,,-4.1268386,122.9687013,https://maps.google.com/?cid=0x0:0x2406ebf9e3111932,
perumahan,perumahan,Kios Bela,"VXF9+CFH, Pesue, Kec. Wawonii Tengah, Konawe Kepulauan, Sulawesi Tenggara 93393","Pesue, Kec. Wawonii Tengah, Konawe Kepulauan",SULAWESI TENGGARA,93393.0,Indonesia,,,,-4.1264356,122.9687264,https://maps.google.com/?cid=0x0:0x6663441a7c0330f1,
perumahan,Komplek perumahan,RUMAH SANSA,"VXC9+6F3 Aulia motor lpi, Lampeapi Baru, Kec. Wawonii Tengah, Konawe Kepulauan, Sulawesi Tenggara 93393","Lampeapi Baru, Kec. Wawonii Tengah, Konawe Kepulauan",SULAWESI TENGGARA,93393.0,Indonesia,,,,-4.1294934,122.9686846,https://maps.google.com/?cid=0x0:0xbdc03d4866a36511,
perumahan,perumahan,Rumah Ramadhan,"VXC9+XHM, Pesue, Kec. Wawonii Tengah, Kabupaten Konawe, Sulawesi Tenggara 93393","Pesue, Kec. Wawonii Tengah, Kabupaten Konawe",SULAWESI TENGGARA,93393.0,Indonesia,,,,-4.1263537,122.9685438,https://maps.google.com/?cid=0x0:0xe27b88bd0fd6082e,
perumahan,Pembangunan Perumahan,Cikka,"VXC9+XHM, Pesue, Kec. Wawonii Tengah, Kabupaten Konawe, Sulawesi Tenggara 93393","Pesue, Kec. Wawonii Tengah, Kabupaten Konawe",SULAWESI TENGGARA,93393.0,Indonesia,,,,-4.127158,122.969376,https://maps.google.com/?cid=0x0:0xc3ab046cdc94ddba,
perumahan,Pembangunan Perumahan,PAPA ABGGUN,"VX99+JGV, Lampeapi Baru, Kec. Wawonii Tengah, Konawe Kepulauan, Sulawesi Tenggara 93393","Lampeapi Baru, Kec. Wawonii Tengah, Konawe Kepulauan",SULAWESI TENGGARA,93393.0,Indonesia,,,,-4.1308796,122.9687443,https://maps.google.com/?cid=0x0:0xa1b3fa79245b403b,
perumahan,perumahan,Kec. Wawonii Tengah,"Konawe Kepulauan, Sulawesi Tenggara","Konawe Kepulauan, Sulawesi Tenggara",SULAWESI TENGGARA,,Indonesia,,,,-4.1312287,122.9691468,https://maps.google.com/?cid=0x0:0x3815a4df92a01d0a,
perumahan,perumahan,Wawonii Tengah,"VXQ4+P6W, Mekar Sari, Kec. Wawonii Tengah, Konawe Kepulauan, Sulawesi Tenggara","Konawe Kepulauan, Sulawesi Tenggara",SULAWESI TENGGARA,,Indonesia,,,,-4.1106431,122.9555686,https://maps.google.com/?cid=0x0:0x7ad52b058556654b,
perumahan,Komplek perumahan,Dellpiong,"VXC9+XHM, Pesue, Kec. Wawonii Tengah, Kabupaten Konawe, Sulawesi Tenggara 93393","Pesue, Kec. Wawonii Tengah, Kabupaten Konawe",SULAWESI TENGGARA,93393.0,Indonesia,85340213616.0,,,-4.1268386,122.9687013,https://maps.google.com/?cid=0x0:0x2406ebf9e3111932,
perumahan,perumahan,Kios Bela,"VXF9+CFH, Pesue, Kec. Wawonii Tengah, Konawe Kepulauan, Sulawesi Tenggara 93393","Pesue, Kec. Wawonii Tengah, Konawe Kepulauan",SULAWESI TENGGARA,93393.0,Indonesia,,,,-4.1264356,122.9687264,https://maps.google.com/?cid=0x0:0x6663441a7c0330f1,
perumahan,Pembangunan Perumahan,Cikka,"VXC9+XHM, Pesue, Kec. Wawonii Tengah, Kabupaten Konawe, Sulawesi Tenggara 93393","Pesue, Kec. Wawonii Tengah, Kabupaten Konawe",SULAWESI TENGGARA,93393.0,Indonesia,,,,-4.127158,122.969376,https://maps.google.com/?cid=0x0:0xc3ab046cdc94ddba,
perumahan,Rumah Kaca,RUMAH BAYU,"VXH8+37G, Lampeapi Baru, Kec. Wawonii Tengah, Konawe Kepulauan, Sulawesi Tenggara 93393","Lampeapi Baru, Kec. Wawonii Tengah, Konawe Kepulauan",SULAWESI TENGGARA,93393.0,Indonesia,,,,-4.122302,122.965703,https://maps.google.com/?cid=0x0:0x759225ed10c05271,
perumahan,perumahan,Rumah Ramadhan,"VXC9+XHM, Pesue, Kec. Wawonii Tengah, Kabupaten Konawe, Sulawesi Tenggara 93393","Pesue, Kec. Wawonii Tengah, Kabupaten Konawe",SULAWESI TENGGARA,93393.0,Indonesia,,,,-4.1263537,122.9685438,https://maps.google.com/?cid=0x0:0xe27b88bd0fd6082e,
perumahan,Komplek perumahan,Ariyanto,"VX59+W3G, Rw. Indah, Kec. Wawonii Tengah, Konawe Kepulauan, Sulawesi Tenggara","Konawe Kepulauan, Sulawesi Tenggara",SULAWESI TENGGARA,,Indonesia,,,,-4.140188,122.9677101,https://maps.google.com/?cid=0x0:0x7a7c54fd3076f2e1,
perumahan,Pembangunan Perumahan,PAPA ABGGUN,"VX99+JGV, Lampeapi Baru, Kec. Wawonii Tengah, Konawe Kepulauan, Sulawesi Tenggara 93393","Lampeapi Baru, Kec. Wawonii Tengah, Konawe Kepulauan",SULAWESI TENGGARA,93393.0,Indonesia,,,,-4.1308796,122.9687443,https://maps.google.com/?cid=0x0:0xa1b3fa79245b403b,
perumahan,perumahan,Rumah MAMA DARNI,"VX99+5MM, Jl. Poros Langara, Lampeapi, Kec. Wawonii Tengah, Konawe Kepulauan, Sulawesi Tenggara 93393","Jl. Poros Langara, Lampeapi, Kec. Wawonii Tengah, Konawe Kepulauan",SULAWESI TENGGARA,93393.0,Indonesia,,,,-4.1320375,122.9691719,https://maps.google.com/?cid=0x0:0x93a796a24deb1b9f,
perumahan,ATM,Abdi brilink/Adi cell,"VX99+5MM, Jl. Poros Langara, Lampeapi, Kec. Wawonii Tengah, Konawe Kepulauan, Sulawesi Tenggara 93393","Jl. Poros Langara, Lampeapi, Kec. Wawonii Tengah, Konawe Kepulauan",SULAWESI TENGGARA,93393.0,Indonesia,,,,-4.1319555,122.9691663,https://maps.google.com/?cid=0x0:0x4b1c09a27876ede2,
perumahan,Inspektur Tempat Tinggal,Perumahan Nelayan Pasir Putih,"XX5J+W96, Bukit Permai, Kec. Wawonii Bar., Kabupaten Konawe, Sulawesi Tenggara","Kabupaten Konawe, Sulawesi Tenggara",SULAWESI TENGGARA,,Indonesia,,,,-4.0402212,122.9809007,https://maps.google.com/?cid=0x0:0x999c7033d83c4b1e,
perumahan,Komplek perumahan,Budi mulyono,"VX75+WF, Lamongupa, Kec. Wawonii Tengah, Kabupaten Konawe, Sulawesi Tenggara","Kabupaten Konawe, Sulawesi Tenggara",SULAWESI TENGGARA,,Indonesia,,,,-4.1352492,122.958627,https://maps.google.com/?cid=0x0:0xae50365b6e0123ab,
perumahan,Pembangunan Perumahan,Rumah man,"VWWW+JP, Tumbu Tumbu Jaya, Kec. Wawonii Tengah, Konawe Kepulauan, Sulawesi Tenggara","Konawe Kepulauan, Sulawesi Tenggara",SULAWESI TENGGARA,,Indonesia,,,,-4.1034104,122.946798,https://maps.google.com/?cid=0x0:0xe3972ab463fd5bb0,
perumahan,Rumah Kaca,Rumah mama eca,"VX99+CC3, Lampeapi Baru, Kec. Wawonii Tengah, Konawe Kepulauan, Sulawesi Tenggara 93393","Lampeapi Baru, Kec. Wawonii Tengah, Konawe Kepulauan",SULAWESI TENGGARA,93393.0,Indonesia,,,,-4.1314958,122.968559,https://maps.google.com/?cid=0x0:0x5b2f24343347a2d2,
perumahan,Tujuan Wisata,Wungkolo,"VX2P+V85, Wungkolo, Kec. Wawonii Sel., Konawe Kepulauan, Sulawesi Tenggara","Konawe Kepulauan, Sulawesi Tenggara",SULAWESI TENGGARA,,Indonesia,,,,-4.1478564,122.985844,https://maps.google.com/?cid=0x0:0x1cf0fa9c5a518a1c,
perumahan,perumahan,Mahseng Gama,"VX7C+Q3C, Jalan poros langara, Lampeapi, Kec. Wawonii Tengah, Konawe Kepulauan, Sulawesi Tenggara 93393","Jalan poros langara, Lampeapi, Kec. Wawonii Tengah, Konawe Kepulauan",SULAWESI TENGGARA,93393.0,Indonesia,,,,-4.1355531,122.9701538,https://maps.google.com/?cid=0x0:0x1ddfe15c9b867db1,
perumahan,Gedung Apartemen,Rumah KanDa,"VXC8+9QQ, Lampeapi Baru, Kec. Wawonii Tengah, Konawe Kepulauan, Sulawesi Tenggara 93393","Lampeapi Baru, Kec. Wawonii Tengah, Konawe Kepulauan",SULAWESI TENGGARA,93393.0,Indonesia,,,,-4.1294596,122.9678176,https://maps.google.com/?cid=0x0:0x6e7d205421ae9c40,
perumahan,Komplek perumahan,Cendekia Sultra,"VX2Q+P2M, Wungkolo, Kec. Wawonii Sel., Konawe Kepulauan, Sulawesi Tenggara 93393","Wungkolo, Kec. Wawonii Sel., Konawe Kepulauan",SULAWESI TENGGARA,93393.0,Indonesia,,,,-4.1481631,122.9875593,https://maps.google.com/?cid=0x0:0xef6de9fc6a8a65fc,
perumahan,Komplek perumahan,Rmh Dimas,"WWFV+F2F, Batumea, Kec. Wawonii Tengah, Konawe Kepulauan, Sulawesi Tenggara 93393","Batumea, Kec. Wawonii Tengah, Konawe Kepulauan",SULAWESI TENGGARA,93393.0,Indonesia,,,,-4.0763125,122.9425469,https://maps.google.com/?cid=0x0:0xba168ae7228c2987,
perumahan,Komplek perumahan,Secret Hippmawura,"VX2P+PQQ, Wungkolo, Kec. Wawonii Sel., Kabupaten Konawe, Sulawesi Tenggara","Kabupaten Konawe, Sulawesi Tenggara",SULAWESI TENGGARA,,Indonesia,,,,-4.1481604,122.9869977,https://maps.google.com/?cid=0x0:0xea457ed9d57e06a1,
perumahan,perumahan,Sulawesi Tenggara 93393,"Konawe Kepulauan, Sulawesi Tenggara","Konawe Kepulauan, Sulawesi Tenggara",SULAWESI TENGGARA,,Indonesia,,,,-4.0664588,123.1239049,https://maps.google.com/?cid=0x0:0xf20c69a9e2bf97eb,
perumahan,Komplek perumahan,neo,"Q29W+F6X, Wawouso, Kec. Wawonii Sel., Konawe Kepulauan, Sulawesi Tenggara 93393","Wawouso, Kec. Wawonii Sel., Konawe Kepulauan",SULAWESI TENGGARA,93393.0,Indonesia,,,,-4.2319679,123.0461785,https://maps.google.com/?cid=0x0:0xaecbf68f3e807e5d,
perumahan,Petugas Perbatasan,Tempat Print Terdekat,"X2G2+W2X, Langara Indah, Kec. Wawonii Bar., Konawe Kepulauan, Sulawesi Tenggara 93393","Langara Indah, Kec. Wawonii Bar., Konawe Kepulauan",SULAWESI TENGGARA,93393.0,Indonesia,,,,-4.0226447,123.0001134,https://maps.google.com/?cid=0x0:0x39a9ab5cb5ad0069,
perumahan,Komplek perumahan,Rias,"Q2W6+JC, Bobolio, Kec. Wawonii Sel., Kabupaten Konawe, Sulawesi Tenggara 93393","Bobolio, Kec. Wawonii Sel., Kabupaten Konawe",SULAWESI TENGGARA,93393.0,Indonesia,,,,-4.2034182,123.0110816,https://maps.google.com/?cid=0x0:0xaef9f8a491419fc,
perumahan,Komplek perumahan,Rumah geo,"W7G4+R42, Lebo, Kec. Wawonii Tim., Konawe Kepulauan, Sulawesi Tenggara 93393","Lebo, Kec. Wawonii Tim., Konawe Kepulauan",SULAWESI TENGGARA,93393.0,Indonesia,,,,-4.073652,123.255004,https://maps.google.com/?cid=0x0:0xb7e9c8915df8822,
perumahan,Taman,STO WAWONII,"XXFR+MCG, Jl.Tower Telkomsel, Langara Iwawo, Kec. Wawonii Bar., Konawe Kepulauan, Sulawesi Tenggara","Konawe Kepulauan, Sulawesi Tenggara",SULAWESI TENGGARA,,Indonesia,,,,-4.0258029,122.9910716,https://maps.google.com/?cid=0x0:0xc1c5a6cd4ccbcadc,
perumahan,Komplek perumahan,Mualim,"X68F+4G, Tangkombuno, Kec. Wawonii Tim. Laut, Kabupaten Konawe, Sulawesi Tenggara","Kabupaten Konawe, Sulawesi Tenggara",SULAWESI TENGGARA,,Indonesia,,,,-4.035066,123.223877,https://maps.google.com/?cid=0x0:0x842df53eb2ea9179,
perumahan,Pembangunan Perumahan,Teporoko Jaya,"Q32R+HP4, Teparoko, Kec. Wawonii Tenggara, Kabupaten Konawe, Sulawesi Tenggara","Kabupaten Konawe, Sulawesi Tenggara",SULAWESI TENGGARA,,Indonesia,,,,-4.2498108,123.092292,https://maps.google.com/?cid=0x0:0xf54acc0502a8de4c,
perumahan,Pembangunan Perumahan,Rumahnya Al muarif,"Q365+5J2, Lawey, Kec. Wawonii Sel., Konawe Kepulauan, Sulawesi Tenggara 93393","Lawey, Kec. Wawonii Sel., Konawe Kepulauan",SULAWESI TENGGARA,93393.0,Indonesia,,,,-4.2396252,123.0589353,https://maps.google.com/?cid=0x0:0xe95747ca571c42cd,
perumahan,Inspektur Tempat Tinggal,Perumahan Nelayan Pasir Putih,"XX5J+W96, Bukit Permai, Kec. Wawonii Bar., Kabupaten Konawe, Sulawesi Tenggara","Kabupaten Konawe, Sulawesi Tenggara",SULAWESI TENGGARA,,Indonesia,,,,-4.0402212,122.9809007,https://maps.google.com/?cid=0x0:0x999c7033d83c4b1e,
perumahan,Perhimpunan Pengembang Perumahan,Wawoea,"X34Q+CH, Dongkalaea, Kec. Wawonii Utara, Konawe Kepulauan, Sulawesi Tenggara","Konawe Kepulauan, Sulawesi Tenggara",SULAWESI TENGGARA,,Indonesia,,,,-4.0439714,123.0889167,https://maps.google.com/?cid=0x0:0x1583442c07a3900d,
perumahan,Tujuan Wisata,Wungkolo,"VX2P+V85, Wungkolo, Kec. Wawonii Sel., Konawe Kepulauan, Sulawesi Tenggara","Konawe Kepulauan, Sulawesi Tenggara",SULAWESI TENGGARA,,Indonesia,,,,-4.1478564,122.985844,https://maps.google.com/?cid=0x0:0x1cf0fa9c5a518a1c,
perumahan,Komplek perumahan,Rumah Neng,"Q2W6+JC, Bobolio, Kec. Wawonii Sel., Kabupaten Konawe, Sulawesi Tenggara 93393","Bobolio, Kec. Wawonii Sel., Kabupaten Konawe",SULAWESI TENGGARA,93393.0,Indonesia,,,,-4.2033903,123.0111232,https://maps.google.com/?cid=0x0:0x43482a3fe145bc7f,
perumahan,Penginapan,Kos Binongko (Sandy),"P4X2+983, Sukarela Jaya, Kec. Wawonii Tenggara, Kabupaten Konawe, Sulawesi Tenggara","Kabupaten Konawe, Sulawesi Tenggara",SULAWESI TENGGARA,,Indonesia,,,,-4.2511695,123.1002909,https://maps.google.com/?cid=0x0:0x87267a806d70a72c,
perumahan,Komplek perumahan,Rumah H. La Ode Moro,"Q2X2+GQ6, Jl. Sawaea, Sawaea, Kec. Wawonii Sel., Konawe Kepulauan, Sulawesi Tenggara 93393","Jl. Sawaea, Sawaea, Kec. Wawonii Sel., Konawe Kepulauan",SULAWESI TENGGARA,93393.0,Indonesia,,,,-4.2015224,123.0025203,https://maps.google.com/?cid=0x0:0xb1e243b98fd42476,
perumahan,Kantor Pemerintah,Desa sinaulu jaya,"Q4WV+VCG, Sinaulu Jaya, Kec. Wawonii Tenggara, Konawe Kepulauan, Sulawesi Tenggara 93393","Sinaulu Jaya, Kec. Wawonii Tenggara, Konawe Kepulauan",SULAWESI TENGGARA,93393.0,Indonesia,,,,-4.2028214,123.1435877,https://maps.google.com/?cid=0x0:0x7da143b66effaa33,
perumahan,Komplek perumahan,Rumah Reni,"P4XR+W8J, Nambo Jaya, Kec. Wawonii Tenggara, Konawe Kepulauan, Sulawesi Tenggara 93393","Nambo Jaya, Kec. Wawonii Tenggara, Konawe Kepulauan",SULAWESI TENGGARA,93393.0,Indonesia,,,,-4.2497713,123.1406702,https://maps.google.com/?cid=0x0:0xece407f45dda957b,
perumahan,Komplek perumahan,Rumah ifbal,"W7F4+99, Lebo, Kec. Wawonii Tim., Konawe Kepulauan, Sulawesi Tenggara","Konawe Kepulauan, Sulawesi Tenggara",SULAWESI TENGGARA,,Indonesia,,,,-4.0754074,123.256085,https://maps.google.com/?cid=0x0:0xaa359c084771596b,
perumahan,Komplek perumahan,Lr samaturu,"X3HM+GCM, Waworope, Kec. Wawonii Utara, Kabupaten Konawe, Sulawesi Tenggara 93393","Waworope, Kec. Wawonii Utara, Kabupaten Konawe",SULAWESI TENGGARA,93393.0,Indonesia,,,,-4.0208533,123.0830171,https://maps.google.com/?cid=0x0:0x6e0440791addceae,
perumahan,Pembangunan Perumahan,Randy Alfandy,"P4X2+983, Sukarela Jaya, Kec. Wawonii Tenggara, Kabupaten Konawe, Sulawesi Tenggara","Kabupaten Konawe, Sulawesi Tenggara",SULAWESI TENGGARA,,Indonesia,,,,-4.2516089,123.1007954,https://maps.google.com/?cid=0x0:0xbf9466e4b8ad1294,
perumahan,Pembangunan Perumahan,Desa Noko,"X6H6+98W, Noko, Kec. Wawonii Tim. Laut, Konawe Kepulauan, Sulawesi Tenggara","Konawe Kepulauan, Sulawesi Tenggara",SULAWESI TENGGARA,,Indonesia,,,,-4.0215097,123.2108397,https://maps.google.com/?cid=0x0:0x952be570988974db,
perumahan,Komplek perumahan,Dellpiong,"VXC9+XHM, Pesue, Kec. Wawonii Tengah, Kabupaten Konawe, Sulawesi Tenggara 93393","Pesue, Kec. Wawonii Tengah, Kabupaten Konawe",SULAWESI TENGGARA,93393.0,Indonesia,85340213616.0,,,-4.1268386,122.9687013,https://maps.google.com/?cid=0x0:0x2406ebf9e3111932,
perumahan,Komplek perumahan,Mirs,"X63M+MX2, Mata Dimba, Kec. Wawonii Tim. Laut, Konawe Kepulauan, Sulawesi Tenggara 93393","Mata Dimba, Kec. Wawonii Tim. Laut, Konawe Kepulauan",SULAWESI TENGGARA,93393.0,Indonesia,,,,-4.0458615,123.2348808,https://maps.google.com/?cid=0x0:0xabfce00cf5020755,
perumahan,Komplek perumahan,Cendekia Sultra,"VX2Q+P2M, Wungkolo, Kec. Wawonii Sel., Konawe Kepulauan, Sulawesi Tenggara 93393","Wungkolo, Kec. Wawonii Sel., Konawe Kepulauan",SULAWESI TENGGARA,93393.0,Indonesia,,,,-4.1481631,122.9875593,https://maps.google.com/?cid=0x0:0xef6de9fc6a8a65fc,
perumahan,Komplek perumahan,Delpin,"Q364+W5, Puuwatu, Kec. Wawonii Sel., Konawe Kepulauan, Sulawesi Tenggara","Konawe Kepulauan, Sulawesi Tenggara",SULAWESI TENGGARA,,Indonesia,,,,-4.2376167,123.0555268,https://maps.google.com/?cid=0x0:0x30b81ab0a1ae32b3,
perumahan,perumahan,Kec. Wawonii Tim.,"Konawe Kepulauan, Sulawesi Tenggara","Konawe Kepulauan, Sulawesi Tenggara",SULAWESI TENGGARA,,Indonesia,,,,-4.0982853,123.250794,https://maps.google.com/?cid=0x0:0xfc2f57f24f39f720,
perumahan,Komplek perumahan,Rumah geo,"W7G4+R42, Lebo, Kec. Wawonii Tim., Konawe Kepulauan, Sulawesi Tenggara 93393","Lebo, Kec. Wawonii Tim., Konawe Kepulauan",SULAWESI TENGGARA,93393.0,Indonesia,,,,-4.073652,123.255004,https://maps.google.com/?cid=0x0:0xb7e9c8915df8822,
perumahan,Komplek perumahan,Mirs,"X63M+MX2, Mata Dimba, Kec. Wawonii Tim. Laut, Konawe Kepulauan, Sulawesi Tenggara 93393","Mata Dimba, Kec. Wawonii Tim. Laut, Konawe Kepulauan",SULAWESI TENGGARA,93393.0,Indonesia,,,,-4.0458615,123.2348808,https://maps.google.com/?cid=0x0:0xabfce00cf5020755,
perumahan,Komplek perumahan,Mualim,"X68F+4G, Tangkombuno, Kec. Wawonii Tim. Laut, Kabupaten Konawe, Sulawesi Tenggara","Kabupaten Konawe, Sulawesi Tenggara",SULAWESI TENGGARA,,Indonesia,,,,-4.035066,123.223877,https://maps.google.com/?cid=0x0:0x842df53eb2ea9179,
perumahan,Komplek perumahan,Rumah ifbal,"W7F4+99, Lebo, Kec. Wawonii Tim., Konawe Kepulauan, Sulawesi Tenggara","Konawe Kepulauan, Sulawesi Tenggara",SULAWESI TENGGARA,,Indonesia,,,,-4.0754074,123.256085,https://maps.google.com/?cid=0x0:0xaa359c084771596b,
perumahan,Komplek perumahan,Rumah gro,"W7G4+R42, Lebo, Kec. Wawonii Tim., Konawe Kepulauan, Sulawesi Tenggara 93393","Lebo, Kec. Wawonii Tim., Konawe Kepulauan",SULAWESI TENGGARA,93393.0,Indonesia,,,,-4.0729875,123.2552656,https://maps.google.com/?cid=0x0:0x183bb87d0a1c06b,
perumahan,Komplek perumahan,Rumah afan,"W7C4+PH, Lebo, Kec. Wawonii Tim., Konawe Kepulauan, Sulawesi Tenggara","Konawe Kepulauan, Sulawesi Tenggara",SULAWESI TENGGARA,,Indonesia,,,,-4.078218,123.2564521,https://maps.google.com/?cid=0x0:0xc7c313fdc2ac84e0,
perumahan,perumahan,Widi,"V66M+5Q, Tekonea, Kec. Wawonii Tim., Kabupaten Konawe, Sulawesi Tenggara","Kabupaten Konawe, Sulawesi Tenggara",SULAWESI TENGGARA,,Indonesia,,,,-4.139733,123.233894,https://maps.google.com/?cid=0x0:0x645570f4bc1875cf,
perumahan,Komplek perumahan,Rumdis PKM Waworete,"W62X+4VM, Kel. Munse, Kec. Wawonii Tim., Konawe Kepulauan, Sulawesi Tenggara 93393","Kel. Munse, Kec. Wawonii Tim., Konawe Kepulauan",SULAWESI TENGGARA,93393.0,Indonesia,,,,-4.098764,123.250027,https://maps.google.com/?cid=0x0:0xf6f8131588056176,
perumahan,Pembangunan Perumahan,Tekonea,"V66P+967, Tekonea, Kec. Wawonii Tim., Konawe Kepulauan, Sulawesi Tenggara","Konawe Kepulauan, Sulawesi Tenggara",SULAWESI TENGGARA,,Indonesia,,,,-4.1390981,123.2355361,https://maps.google.com/?cid=0x0:0x1461abf89bce05be,
perumahan,Masjid,Desa Puurau,"X63P+285, Mata Dimba, Kec. Wawonii Tim. Laut, Kabupaten Konawe, Sulawesi Tenggara","Kabupaten Konawe, Sulawesi Tenggara",SULAWESI TENGGARA,,Indonesia,,,,-4.0474761,123.2358705,https://maps.google.com/?cid=0x0:0x69d19fa5f02e2174,
perumahan,Gedung Apartemen,ahsan jais,"Lebo, Kec. Wawonii Tim., Konawe Kepulauan, Sulawesi Tenggara 93393","Kec. Wawonii Tim., Konawe Kepulauan",SULAWESI TENGGARA,93393.0,Indonesia,,,,-4.0740553,123.2545848,https://maps.google.com/?cid=0x0:0xa981c4bd0e239c3a,
perumahan,Pembangunan Perumahan,Desa Mata Dimba,"X63M+WMP, Dimba, Kec. Wawonii Tim. Laut, Konawe Kepulauan, Sulawesi Tenggara 93393","Dimba, Kec. Wawonii Tim. Laut, Konawe Kepulauan",SULAWESI TENGGARA,93393.0,Indonesia,,,,-4.0451625,123.2342109,https://maps.google.com/?cid=0x0:0x4837290873806154,
perumahan,Taman,STO WAWONII,"XXFR+MCG, Jl.Tower Telkomsel, Langara Iwawo, Kec. Wawonii Bar., Konawe Kepulauan, Sulawesi Tenggara","Konawe Kepulauan, Sulawesi Tenggara",SULAWESI TENGGARA,,Indonesia,,,,-4.0258029,122.9910716,https://maps.google.com/?cid=0x0:0xc1c5a6cd4ccbcadc,
perumahan,Komplek perumahan,Rumh Mutia,"W7C4+PH, Lebo, Kec. Wawonii Tim., Konawe Kepulauan, Sulawesi Tenggara","Konawe Kepulauan, Sulawesi Tenggara",SULAWESI TENGGARA,,Indonesia,,,,-4.0781845,123.25644,https://maps.google.com/?cid=0x0:0x7efaffb1d1ee68d8,
perumahan,Komplek perumahan,Gubuk dahlan,"V47F+GHR, Tondonggito, Kec. Wawonii Tenggara, Konawe Kepulauan, Sulawesi Tenggara","Konawe Kepulauan, Sulawesi Tenggara",SULAWESI TENGGARA,,Indonesia,,,,-4.1361465,123.1239049,https://maps.google.com/?cid=0x0:0xe29bf7571d46720c,
perumahan,Komplek perumahan,HOME Nani Pratiwi,"X66F+WMR, Tangkombuno, Kec. Wawonii Tim. Laut, Konawe Kepulauan, Sulawesi Tenggara 93393","Tangkombuno, Kec. Wawonii Tim. Laut, Konawe Kepulauan",SULAWESI TENGGARA,93393.0,Indonesia,,,,-4.0376376,123.2241311,https://maps.google.com/?cid=0x0:0x5498fa750a08047b,
perumahan,Komplek perumahan,Rumah azmar,"W7C4+PH, Lebo, Kec. Wawonii Tim., Konawe Kepulauan, Sulawesi Tenggara","Konawe Kepulauan, Sulawesi Tenggara",SULAWESI TENGGARA,,Indonesia,,,,-4.0775358,123.2558268,https://maps.google.com/?cid=0x0:0xfc8ca18765de2013,
perumahan,Komplek perumahan,Rumah aba,"W7F4+99, Lebo, Kec. Wawonii Tim., Konawe Kepulauan, Sulawesi Tenggara","Konawe Kepulauan, Sulawesi Tenggara",SULAWESI TENGGARA,,Indonesia,,,,-4.0753152,123.2561436,https://maps.google.com/?cid=0x0:0xa017d07d2fdf81ab,
perumahan,Perhimpunan Pengembang Perumahan,Wawoea,"X34Q+CH, Dongkalaea, Kec. Wawonii Utara, Konawe Kepulauan, Sulawesi Tenggara","Konawe Kepulauan, Sulawesi Tenggara",SULAWESI TENGGARA,,Indonesia,,,,-4.0439714,123.0889167,https://maps.google.com/?cid=0x0:0x1583442c07a3900d,
perumahan,Pembangunan Perumahan,Desa Dimba,"X64J+MVH, Dimba, Kec. Wawonii Tim. Laut, Konawe Kepulauan, Sulawesi Tenggara 93393","Dimba, Kec. Wawonii Tim. Laut, Konawe Kepulauan",SULAWESI TENGGARA,93393.0,Indonesia,,,,-4.0433217,123.2322368,https://maps.google.com/?cid=0x0:0xfcca657d9ef5e9d0,
perumahan,Pembangunan Perumahan,Laywo Jaya,"W732+49W, Laywo Jaya, Kec. Wawonii Tim., Kabupaten Konawe, Sulawesi Tenggara","Kabupaten Konawe, Sulawesi Tenggara",SULAWESI TENGGARA,,Indonesia,,,,-4.0971291,123.2509416,https://maps.google.com/?cid=0x0:0x8ee16c3bd497d6d3,
perumahan,Komplek perumahan,home desi amalia kartika putri,"X66F+6RF, Ladianta, Kec. Wawonii Tim. Laut, Konawe Kepulauan, Sulawesi Tenggara 93393","Ladianta, Kec. Wawonii Tim. Laut, Konawe Kepulauan",SULAWESI TENGGARA,93393.0,Indonesia,,,,-4.0390473,123.2250444,https://maps.google.com/?cid=0x0:0x918a939fcc10401,
perumahan,perumahan,Kec. Wawonii Tim. Laut,"Konawe Kepulauan, Sulawesi Tenggara","Konawe Kepulauan, Sulawesi Tenggara",SULAWESI TENGGARA,,Indonesia,,,,-4.0289083,123.2198736,https://maps.google.com/?cid=0x0:0x81f76d50d04c3d1b,
perumahan,Komplek perumahan,Mualim,"X68F+4G, Tangkombuno, Kec. Wawonii Tim. Laut, Kabupaten Konawe, Sulawesi Tenggara","Kabupaten Konawe, Sulawesi Tenggara",SULAWESI TENGGARA,,Indonesia,,,,-4.035066,123.223877,https://maps.google.com/?cid=0x0:0x842df53eb2ea9179,
perumahan,Komplek perumahan,Mirs,"X63M+MX2, Mata Dimba, Kec. Wawonii Tim. Laut, Konawe Kepulauan, Sulawesi Tenggara 93393","Mata Dimba, Kec. Wawonii Tim. Laut, Konawe Kepulauan",SULAWESI TENGGARA,93393.0,Indonesia,,,,-4.0458615,123.2348808,https://maps.google.com/?cid=0x0:0xabfce00cf5020755,
perumahan,Komplek perumahan,Mutia,"X6H6+98W, Noko, Kec. Wawonii Tim. Laut, Konawe Kepulauan, Sulawesi Tenggara","Konawe Kepulauan, Sulawesi Tenggara",SULAWESI TENGGARA,,Indonesia,,,,-4.020733,123.209795,https://maps.google.com/?cid=0x0:0xaa444be36076668a,
perumahan,Masjid,Desa Puurau,"X63P+285, Mata Dimba, Kec. Wawonii Tim. Laut, Kabupaten Konawe, Sulawesi Tenggara","Kabupaten Konawe, Sulawesi Tenggara",SULAWESI TENGGARA,,Indonesia,,,,-4.0474761,123.2358705,https://maps.google.com/?cid=0x0:0x69d19fa5f02e2174,
perumahan,Komplek perumahan,Rumah geo,"W7G4+R42, Lebo, Kec. Wawonii Tim., Konawe Kepulauan, Sulawesi Tenggara 93393","Lebo, Kec. Wawonii Tim., Konawe Kepulauan",SULAWESI TENGGARA,93393.0,Indonesia,,,,-4.073652,123.255004,https://maps.google.com/?cid=0x0:0xb7e9c8915df8822,
perumahan,Perhimpunan Pengembang Perumahan,Rumah Man,"X5PQ+PQ4, Watuondo, Kec. Wawonii Tim. Laut, Konawe Kepulauan, Sulawesi Tenggara 93393","Watuondo, Kec. Wawonii Tim. Laut, Konawe Kepulauan",SULAWESI TENGGARA,93393.0,Indonesia,,,,-4.0135703,123.1883149,https://maps.google.com/?cid=0x0:0xf3a35166dac2cb7,
perumahan,Komplek perumahan,FAHRI,"X6H6+98W, Noko, Kec. Wawonii Tim. Laut, Konawe Kepulauan, Sulawesi Tenggara","Konawe Kepulauan, Sulawesi Tenggara",SULAWESI TENGGARA,,Indonesia,,,,-4.0203911,123.2092362,https://maps.google.com/?cid=0x0:0xe1ea91fe585827d9,
perumahan,Komplek perumahan,Rumah Rinaldi,"W7G4+R42, Lebo, Kec. Wawonii Tim., Konawe Kepulauan, Sulawesi Tenggara 93393","Lebo, Kec. Wawonii Tim., Konawe Kepulauan",SULAWESI TENGGARA,93393.0,Indonesia,87879141209.0,,,-4.0742226,123.2546372,https://maps.google.com/?cid=0x0:0xfd980d9094576cd,
perumahan,,Desa Watuondo,"X5QQ+2MP, Watuondo, Kec. Wawonii Tim. Laut, Konawe Kepulauan, Sulawesi Tenggara","Konawe Kepulauan, Sulawesi Tenggara",SULAWESI TENGGARA,,Indonesia,,,,-4.0124185,123.1892097,https://maps.google.com/?cid=0x0:0xb1130eb1926a86f,
perumahan,Komplek perumahan,Rumah Ar,"X5HG+QPX, Mata Buranga, Kec. Wawonii Utara, Konawe Kepulauan, Sulawesi Tenggara 93393","Mata Buranga, Kec. Wawonii Utara, Konawe Kepulauan",SULAWESI TENGGARA,93393.0,Indonesia,,,,-4.020952,123.1768337,https://maps.google.com/?cid=0x0:0x56e37d1afdcff513,
perumahan,Pembangunan Perumahan,Desa Mata Dimba,"X63M+WMP, Dimba, Kec. Wawonii Tim. Laut, Konawe Kepulauan, Sulawesi Tenggara 93393","Dimba, Kec. Wawonii Tim. Laut, Konawe Kepulauan",SULAWESI TENGGARA,93393.0,Indonesia,,,,-4.0451625,123.2342109,https://maps.google.com/?cid=0x0:0x4837290873806154,
perumahan,Komplek perumahan,Rumah ifbal,"W7F4+99, Lebo, Kec. Wawonii Tim., Konawe Kepulauan, Sulawesi Tenggara","Konawe Kepulauan, Sulawesi Tenggara",SULAWESI TENGGARA,,Indonesia,,,,-4.0754074,123.256085,https://maps.google.com/?cid=0x0:0xaa359c084771596b,
perumahan,Komplek perumahan,Rumah gro,"W7G4+R42, Lebo, Kec. Wawonii Tim., Konawe Kepulauan, Sulawesi Tenggara 93393","Lebo, Kec. Wawonii Tim., Konawe Kepulauan",SULAWESI TENGGARA,93393.0,Indonesia,,,,-4.0729875,123.2552656,https://maps.google.com/?cid=0x0:0x183bb87d0a1c06b,
perumahan,Pembangunan Perumahan,Wanto,"X68F+4G, Tangkombuno, Kec. Wawonii Tim. Laut, Kabupaten Konawe, Sulawesi Tenggara","Kabupaten Konawe, Sulawesi Tenggara",SULAWESI TENGGARA,,Indonesia,,,,-4.034743,123.2237979,https://maps.google.com/?cid=0x0:0x6bffbd7222f2bf10,
perumahan,Pembangunan Perumahan,Desa Patande,"X66F+6RF, Ladianta, Kec. Wawonii Tim. Laut, Konawe Kepulauan, Sulawesi Tenggara 93393","Ladianta, Kec. Wawonii Tim. Laut, Konawe Kepulauan",SULAWESI TENGGARA,93393.0,Indonesia,,,,-4.0394261,123.224555,https://maps.google.com/?cid=0x0:0xe50305a965df3235,
perumahan,Komplek perumahan,HOME Nani Pratiwi,"X66F+WMR, Tangkombuno, Kec. Wawonii Tim. Laut, Konawe Kepulauan, Sulawesi Tenggara 93393","Tangkombuno, Kec. Wawonii Tim. Laut, Konawe Kepulauan",SULAWESI TENGGARA,93393.0,Indonesia,,,,-4.0376376,123.2241311,https://maps.google.com/?cid=0x0:0x5498fa750a08047b,
perumahan,Pembangunan Perumahan,Desa Dimba,"X64J+MVH, Dimba, Kec. Wawonii Tim. Laut, Konawe Kepulauan, Sulawesi Tenggara 93393","Dimba, Kec. Wawonii Tim. Laut, Konawe Kepulauan",SULAWESI TENGGARA,93393.0,Indonesia,,,,-4.0433217,123.2322368,https://maps.google.com/?cid=0x0:0xfcca657d9ef5e9d0,
perumahan,Komplek perumahan,Rumah Via,"X5HF+PV3, Mawa, Kec. Wawonii Utara, Konawe Kepulauan, Sulawesi Tenggara","Konawe Kepulauan, Sulawesi Tenggara",SULAWESI TENGGARA,,Indonesia,,,,-4.0211172,123.1751818,https://maps.google.com/?cid=0x0:0xac1899eac8b256eb,
perumahan,perumahan,Sulawesi Tenggara 93393,"Konawe Kepulauan, Sulawesi Tenggara","Konawe Kepulauan, Sulawesi Tenggara",SULAWESI TENGGARA,,Indonesia,,,,-4.0664588,123.1239049,https://maps.google.com/?cid=0x0:0xf20c69a9e2bf97eb,
perumahan,Pembangunan Perumahan,Desa Bahobubu,"X6G7+CG9, Baho Bubu, Kec. Wawonii Tim. Laut, Kabupaten Konawe, Sulawesi Tenggara 93393","Baho Bubu, Kec. Wawonii Tim. Laut, Kabupaten Konawe",SULAWESI TENGGARA,93393.0,Indonesia,,,,-4.0239506,123.2138583,https://maps.google.com/?cid=0x0:0x417de581ebebe419,
perumahan,Perhimpunan Pengembang Perumahan,Markas Andespar Family,"XXGQ+QXH Komp. TPI, Langara Laut, Kec. Wawonii Bar., Konawe Kepulauan, Sulawesi Tenggara 93393","Langara Laut, Kec. Wawonii Bar., Konawe Kepulauan",SULAWESI TENGGARA,93393.0,Indonesia,,,,-4.0228472,122.9901944,https://maps.google.com/?cid=0x0:0x845e39647de1ac7d,
perumahan,Komplek perumahan,home desi amalia kartika putri,"X66F+6RF, Ladianta, Kec. Wawonii Tim. Laut, Konawe Kepulauan, Sulawesi Tenggara 93393","Ladianta, Kec. Wawonii Tim. Laut, Konawe Kepulauan",SULAWESI TENGGARA,93393.0,Indonesia,,,,-4.0390473,123.2250444,https://maps.google.com/?cid=0x0:0x918a939fcc10401,
perumahan,Perhimpunan Pengembang Perumahan,Lanowatu,"XX7R+7PH, Lamoluo, Kec. Wawonii Bar., Kabupaten Konawe, Sulawesi Tenggara 93393","Lamoluo, Kec. Wawonii Bar., Kabupaten Konawe",SULAWESI TENGGARA,93393.0,Indonesia,,,,-4.0368079,122.9918658,https://maps.google.com/?cid=0x0:0x94d0ff014620a394,
perumahan,Komplek perumahan,Rumah Pak H. Malle,"XXHV+J7Q, Langara Laut, Wawonii Bar., Konawe Kepulauan, Sulawesi Tenggara 93393","Langara Laut, Wawonii Bar., Konawe Kepulauan",SULAWESI TENGGARA,93393.0,Indonesia,,,,-4.0209222,122.9932191,https://maps.google.com/?cid=0x0:0x112397c854e340c,
perumahan,Komplek perumahan,kediaman h.aco,"XXHV+J7Q, Langara Laut, Wawonii Bar., Konawe Kepulauan, Sulawesi Tenggara 93393","Langara Laut, Wawonii Bar., Konawe Kepulauan",SULAWESI TENGGARA,93393.0,Indonesia,,,,-4.0210446,122.9931886,https://maps.google.com/?cid=0x0:0xbaad01f0a6371a52,
perumahan,Komplek perumahan,Rakhmat Musa,"XXFR+G97, Jalan poros, Langara Laut, Kec. Wawonii Bar., Konawe Kepulauan, Sulawesi Tenggara","Konawe Kepulauan, Sulawesi Tenggara",SULAWESI TENGGARA,,Indonesia,,,,-4.0262152,122.9909188,https://maps.google.com/?cid=0x0:0xb014bd767434649e,
perumahan,Komplek perumahan,Wawonii,"336M+QFQ, Wonuahoa, Kec. Lambuya, Kabupaten Konawe, Sulawesi Tenggara","Kabupaten Konawe, Sulawesi Tenggara",SULAWESI TENGGARA,,Indonesia,,,,-3.9380432,122.0837445,https://maps.google.com/?cid=0x0:0x9403d7ef72a8e39,
perumahan,Perhimpunan Pengembang Perumahan,Wonua hoa,"334H+W6P, Wonuahoa, Kec. Lambuya, Kabupaten Konawe, Sulawesi Tenggara","Kabupaten Konawe, Sulawesi Tenggara",SULAWESI TENGGARA,,Indonesia,,,,-3.9426728,122.0780632,https://maps.google.com/?cid=0x0:0x9a7687ff2746d9a1,
perumahan,perumahan,Sulawesi Tenggara 93393,"Konawe Kepulauan, Sulawesi Tenggara","Konawe Kepulauan, Sulawesi Tenggara",SULAWESI TENGGARA,,Indonesia,,,,-4.0664588,123.1239049,https://maps.google.com/?cid=0x0:0xf20c69a9e2bf97eb,
perumahan,Perhimpunan Pengembang Perumahan,Wawoea,"X34Q+CH, Dongkalaea, Kec. Wawonii Utara, Konawe Kepulauan, Sulawesi Tenggara","Konawe Kepulauan, Sulawesi Tenggara",SULAWESI TENGGARA,,Indonesia,,,,-4.0439714,123.0889167,https://maps.google.com/?cid=0x0:0x1583442c07a3900d,
perumahan,Komplek perumahan,Rumah Ar,"X5HG+QPX, Mata Buranga, Kec. Wawonii Utara, Konawe Kepulauan, Sulawesi Tenggara 93393","Mata Buranga, Kec. Wawonii Utara, Konawe Kepulauan",SULAWESI TENGGARA,93393.0,Indonesia,,,,-4.020952,123.1768337,https://maps.google.com/?cid=0x0:0x56e37d1afdcff513,
perumahan,Perumahan,Rumah eko,"X4G2+R7C, Wawobeau, Kec. Wawonii Utara, Kabupaten Konawe, Sulawesi Tenggara","Kabupaten Konawe, Sulawesi Tenggara",SULAWESI TENGGARA,,Indonesia,,,,-4.0228911,123.1007103,https://maps.google.com/?cid=0x0:0xf1e25c179b4173fb,
perumahan,Taman,STO WAWONII,"XXFR+MCG, Jl.Tower Telkomsel, Langara Iwawo, Kec. Wawonii Bar., Konawe Kepulauan, Sulawesi Tenggara","Konawe Kepulauan, Sulawesi Tenggara",SULAWESI TENGGARA,,Indonesia,,,,-4.0258029,122.9910716,https://maps.google.com/?cid=0x0:0xc1c5a6cd4ccbcadc,
perumahan,Komplek perumahan,Rumah Adit,"X4MW+V8G, Palingi, Kec. Wawonii Utara, Konawe Kepulauan, Sulawesi Tenggara","Konawe Kepulauan, Sulawesi Tenggara",SULAWESI TENGGARA,,Indonesia,,,,-4.0153135,123.1458154,https://maps.google.com/?cid=0x0:0xe8a3c61dd8230ce1,
perumahan,Komplek perumahan,Riko,"X4H5+C9, Tambaone, Kec. Wawonii Utara, Kabupaten Konawe, Sulawesi Tenggara","Kabupaten Konawe, Sulawesi Tenggara",SULAWESI TENGGARA,,Indonesia,,,,-4.0219253,123.1083536,https://maps.google.com/?cid=0x0:0x1eced9a53ab48a62,
perumahan,Komplek perumahan,Rumah Via,"X5HF+PV3, Mawa, Kec. Wawonii Utara, Konawe Kepulauan, Sulawesi Tenggara","Konawe Kepulauan, Sulawesi Tenggara",SULAWESI TENGGARA,,Indonesia,,,,-4.0211172,123.1751818,https://maps.google.com/?cid=0x0:0xac1899eac8b256eb,
perumahan,Komplek perumahan,Rumah Rafil,"X542+JRJ, Palingi, Kec. Wawonii Utara, Konawe Kepulauan, Sulawesi Tenggara","Konawe Kepulauan, Sulawesi Tenggara",SULAWESI TENGGARA,,Indonesia,,,,-4.0434125,123.1520219,https://maps.google.com/?cid=0x0:0x9321fbbc9c944df7,
perumahan,Komplek perumahan,Rumah Arya,"Palingi, Kec. Wawonii Utara, Konawe Kepulauan, Sulawesi Tenggara","Konawe Kepulauan, Sulawesi Tenggara",SULAWESI TENGGARA,,Indonesia,,,,-4.0434125,123.1520219,https://maps.google.com/?cid=0x0:0xbb6931a96d05adc3,
perumahan,Komplek perumahan,HARIYANTO HOME,"X5JJ+79, Mata Buranga, Kec. Wawonii Utara, Konawe Kepulauan, Sulawesi Tenggara","Konawe Kepulauan, Sulawesi Tenggara",SULAWESI TENGGARA,,Indonesia,,,,-4.0189189,123.1808232,https://maps.google.com/?cid=0x0:0xa5b23a7677619ff6,
perumahan,Kantor Perusahaan,Desa tapumbatu,"X4H3+PX8 Alamat, Tambaone, Kec. Wawonii Utara, Konawe Kepulauan, Sulawesi Tenggara","Konawe Kepulauan, Sulawesi Tenggara",SULAWESI TENGGARA,,Indonesia,,,,-4.0207231,123.104967,https://maps.google.com/?cid=0x0:0x738b0d77e5532de8,
perumahan,Komplek perumahan,"Home Eti,ecy","X5JJ+79, Mata Buranga, Kec. Wawonii Utara, Konawe Kepulauan, Sulawesi Tenggara","Konawe Kepulauan, Sulawesi Tenggara",SULAWESI TENGGARA,,Indonesia,,,,-4.0193356,123.1809016,https://maps.google.com/?cid=0x0:0x2fcfde16177e72db,
perumahan,Rumah Kayu,Rumah Pinnes,"X5HW+M2X, Bangun Mekar, Kec. Wawonii Utara, Konawe Kepulauan, Sulawesi Tenggara 93393","Bangun Mekar, Kec. Wawonii Utara, Konawe Kepulauan",SULAWESI TENGGARA,93393.0,Indonesia,,,,-4.0205858,123.195111,https://maps.google.com/?cid=0x0:0xb4e874b19034c367,
perumahan,perumahan,Helwa,"X3HM+GCM, Waworope, Kec. Wawonii Utara, Kabupaten Konawe, Sulawesi Tenggara 93393","Waworope, Kec. Wawonii Utara, Kabupaten Konawe",SULAWESI TENGGARA,93393.0,Indonesia,,,,-4.0207911,123.0832079,https://maps.google.com/?cid=0x0:0xa35027df485b7045,
perumahan,Komplek perumahan,Sawah Indah,"X4H2+2GF, Desa, Sawah Indah, Wawonii Utara, Konawe Islands Regency, South East Sulawesi","Konawe Kepulauan, Sulawesi Tenggara",SULAWESI TENGGARA,,Indonesia,,,,-4.0224465,123.1012938,https://maps.google.com/?cid=0x0:0x82c87e888a51ff07,
perumahan,perumahan,Rumah delon,"X4H2+2GF, Wawobeau, Kec. Wawonii Utara, Konawe Kepulauan, Sulawesi Tenggara","Konawe Kepulauan, Sulawesi Tenggara",SULAWESI TENGGARA,,Indonesia,,,,-4.0224465,123.1012938,https://maps.google.com/?cid=0x0:0x64a05702e4a17e74,
perumahan,Komplek perumahan,ZIKMI HOUSE,"X542+JRJ, Palingi, Kec. Wawonii Utara, Kabupaten Konawe, Sulawesi Tenggara","Kabupaten Konawe, Sulawesi Tenggara",SULAWESI TENGGARA,,Indonesia,,,,-4.0434125,123.1520219,https://maps.google.com/?cid=0x0:0x20feda6feb6129d8,
perumahan,Pembangunan Perumahan,Pangkalan mata buranga,"X59M+G5W, Mata Buranga, Kec. Wawonii Utara, Kabupaten Konawe, Sulawesi Tenggara","Kabupaten Konawe, Sulawesi Tenggara",SULAWESI TENGGARA,,Indonesia,,,,-4.0311252,123.1829413,https://maps.google.com/?cid=0x0:0xbbdbb77c396095b5,
perumahan,Otoritas Pelabuhan,Pelabuhan Palingi Raya,"X4QW+6G8, Palingi, Kec. Wawonii Utara, Konawe Kepulauan, Sulawesi Tenggara","Konawe Kepulauan, Sulawesi Tenggara",SULAWESI TENGGARA,,Indonesia,,,,-4.011966,123.1463363,https://maps.google.com/?cid=0x0:0xf3ca17b4bd6d2a4c,
perumahan,perumahan,Kec. Wawonii Utara,"Konawe Kepulauan, Sulawesi Tenggara","Konawe Kepulauan, Sulawesi Tenggara",SULAWESI TENGGARA,,Indonesia,,,,-4.0224465,123.1012938,https://maps.google.com/?cid=0x0:0xe956c20a678ad47,
perumahan,Rumah Kayu,RUMAH NURUL,"X3GR+V82, Dongkalaea, Kec. Wawonii Utara, Kabupaten Konawe, Sulawesi Tenggara","Kabupaten Konawe, Sulawesi Tenggara",SULAWESI TENGGARA,,Indonesia,,,,-4.0227343,123.0903325,https://maps.google.com/?cid=0x0:0xb963f6e65aceeed6,
perumahan,Sekolah,Desa labisa,"X4H6+P9, Labisa, Kec. Wawonii Utara, Konawe Kepulauan, Sulawesi Tenggara","Konawe Kepulauan, Sulawesi Tenggara",SULAWESI TENGGARA,,Indonesia,,,,-4.0207198,123.11091,https://maps.google.com/?cid=0x0:0x4dad7b73b4d0bbeb,
perumahan,Perhimpunan Pengembang Perumahan,home amaa,"X4JF+6H3, Lansilowo, Kec. Wawonii Utara, Konawe Kepulauan, Sulawesi Tenggara 93393","Lansilowo, Kec. Wawonii Utara, Konawe Kepulauan",SULAWESI TENGGARA,93393.0,Indonesia,,,,-4.020495,123.123932,https://maps.google.com/?cid=0x0:0xc4b9e6ff0797765e,
