Category,Real Category,Business Name,Address,City,State,Postal Code,Country,Phone,Latitude,Longitude,Map Link
cafe,cafe,Tanimbar Sel.,"Kab. Kepulauan Tanimbar, Maluku","Kab. Kepulauan Tanimbar, Maluku",MALUKU,,Indonesia,,-7.941769,131.2205911,https://maps.google.com/?cid=0x0:0x2fbf1b925d6dba13
cafe,Indonesia,Buritan Cafe,"28G5+W9F, Saumlaki, Tanimbar Sel., Kab. Kepulauan Tanimbar, Maluku","Kab. Kepulauan Tanimbar, Maluku",MALUKU,,Indonesia,,-7.9726794,131.3084082,https://maps.google.com/?cid=0x0:0xd75463b3c2c9a48a
cafe,Kedai Kopi,Guppasa coffee,"28C5+7J7, Olilit, Tanimbar Sel., Kab. Kepulauan Tanimbar, Maluku","Kab. Kepulauan Tanimbar, Maluku",MALUKU,,Indonesia,82399943772.0,-7.9793438,131.3090376,https://maps.google.com/?cid=0x0:0x7956f697e886984
cafe,Kedai Kopi,De lima kafe,"28R5+2GW, Sifnana, Tanimbar Sel., Kab. Kepulauan Tanimbar, Maluku","Kab. Kepulauan Tanimbar, Maluku",MALUKU,,Indonesia,85243152253.0,-7.9598804,131.3088199,https://maps.google.com/?cid=0x0:0x5160a78bf6348e31
cafe,Kafe,Janji jiwa Jilid 1042,"27CX+JV2, Olilit, Tanimbar Sel., Kab. Kepulauan Tanimbar, Maluku","Kab. Kepulauan Tanimbar, Maluku",MALUKU,,Indonesia,,-7.9785635,131.2995758,https://maps.google.com/?cid=0x0:0x4e756864e6841cd5
cafe,Toko Kue,"JJ BAKERY, COFFEE  CAFE","2872+2Q7, Olilit, Tanimbar Sel., Kab. Kepulauan Tanimbar, Maluku","Kab. Kepulauan Tanimbar, Maluku",MALUKU,,Indonesia,82399481818.0,-7.9874411,131.3019775,https://maps.google.com/?cid=0x0:0x39fa32bf1a52eec6
cafe,Indonesia,Nanam Saumlaki,"Ruko Omele Baru Blok B - No.1, Maluku 97471","Kab. Kepulauan Tanimbar, Maluku",MALUKU,,Indonesia,85242622230.0,-7.9583278,131.3103404,https://maps.google.com/?cid=0x0:0x636a50d9d2f344cf
cafe,Kedai Kopi,Coffee Joas,"278V+G38 samping hotel beringin, RW.2, Sifnana, Tanimbar Sel., Kab. Kepulauan Tanimbar, Maluku","Kab. Kepulauan Tanimbar, Maluku",MALUKU,,Indonesia,82194075378.0,-7.9837238,131.2927087,https://maps.google.com/?cid=0x0:0x3c5e38153f215f07
cafe,Restoran,3 KOKI,"Jl. Ir. Soekarno, Olilit, Tanimbar Sel., Kab. Kepulauan Tanimbar, Maluku","Kab. Kepulauan Tanimbar, Maluku",MALUKU,,Indonesia,82198603600.0,-7.9790336,131.3085797,https://maps.google.com/?cid=0x0:0xf4b360d52fb257bb
cafe,Kedai Kopi,Cafe Banteng,"Asrama Yonif 734/SNS, Lauran, Tanimbar Sel., Kab. Kepulauan Tanimbar, Maluku 97471","Lauran, Tanimbar Sel., Kab. Kepulauan Tanimbar",MALUKU,97471.0,Indonesia,,-7.9298328,131.3116085,https://maps.google.com/?cid=0x0:0xfd516d20efafc29e
cafe,Kedai Kopi,Mana Caffe,"28G3+GFH, Unnamed Road, Olilit, Tanimbar Sel., Kab. Kepulauan Tanimbar, Maluku","Kab. Kepulauan Tanimbar, Maluku",MALUKU,,Indonesia,,-7.9736976,131.3037247,https://maps.google.com/?cid=0x0:0x668281f85b95b99e
cafe,Sesuai untuk keluarga,Daeng kuliner saumlaki,"depan JT, Jl, Sifnana, Tanimbar Sel., Kab. Kepulauan Tanimbar, Maluku","Kab. Kepulauan Tanimbar, Maluku",MALUKU,,Indonesia,82237188217.0,-7.9589361,131.3102835,https://maps.google.com/?cid=0x0:0xa3f81a69774b677e
cafe,cafe,OM JOAS CAFE,"28M6+7Q4, Jl. Ir. Soekarno, Saumlaki, Tanimbar Sel., Kab. Kepulauan Tanimbar, Maluku","Kab. Kepulauan Tanimbar, Maluku",MALUKU,,Indonesia,82399904498.0,-7.9668572,131.3119613,https://maps.google.com/?cid=0x0:0x48c948e3b2d4b893
cafe,Hidangan Laut,Dinar Seafood Restaurant,"Jl. Mathilda Batlayeri No.12, Olilit, Tanimbar Sel., Saumlaki, Maluku 97464","Olilit, Tanimbar Sel., Saumlaki",MALUKU,97464.0,Indonesia,,-7.9818828,131.2964362,https://maps.google.com/?cid=0x0:0xd3b0f1f525b112a5
cafe,cafe,Fotocopy GhiselL,"V498+FF, Adaut, Kec. Selaru, Kab. Kepulauan Tanimbar, Maluku","Kab. Kepulauan Tanimbar, Maluku",MALUKU,,Indonesia,,-8.1313522,131.1161523,https://maps.google.com/?cid=0x0:0xc0eb04575d269e09
cafe,cafe,Kec. Selaru,"Kab. Kepulauan Tanimbar, Maluku","Kab. Kepulauan Tanimbar, Maluku",MALUKU,,Indonesia,,-8.1318821,131.1133407,https://maps.google.com/?cid=0x0:0x21fc7f5cc6364753
cafe,Restoran,RUMAH MAKAN DAMAI,"V497+58G, Jl. Lain, Adaut, Kec. Selaru, Kab. Kepulauan Tanimbar, Maluku","Kab. Kepulauan Tanimbar, Maluku",MALUKU,,Indonesia,81247148761.0,-8.132175,131.1132983,https://maps.google.com/?cid=0x0:0x90e5d41d917e9cec
cafe,Restoran,Rumah Makan Anugerah,"V497+V6H, Adaut, Kec. Selaru, Kab. Kepulauan Tanimbar, Maluku","Kab. Kepulauan Tanimbar, Maluku",MALUKU,,Indonesia,,-8.1303034,131.1131145,https://maps.google.com/?cid=0x0:0x4045fb20affba19e
cafe,cafe,Rafello Dimitri,"QW69+V47, Jl. Ketapang 2, Lingat, Kec. Selaru, Kab. Kepulauan Tanimbar, Maluku","Kab. Kepulauan Tanimbar, Maluku",MALUKU,,Indonesia,,-8.2378328,130.9177989,https://maps.google.com/?cid=0x0:0xf53df5f98b45f3c1
cafe,cafe,Irat Saineran,"PVXM+XGM, Jl. Ketapang 2, Lingat, Kec. Selaru, Kab. Kepulauan Tanimbar, Maluku","Kab. Kepulauan Tanimbar, Maluku",MALUKU,,Indonesia,,-8.2500495,130.8837978,https://maps.google.com/?cid=0x0:0xaacc01000b1acbdf
cafe,Indonesia,Buritan Cafe,"28G5+W9F, Saumlaki, Tanimbar Sel., Kab. Kepulauan Tanimbar, Maluku","Kab. Kepulauan Tanimbar, Maluku",MALUKU,,Indonesia,,-7.9726794,131.3084082,https://maps.google.com/?cid=0x0:0xd75463b3c2c9a48a
cafe,Kedai Kopi,Mana Caffe,"28G3+GFH, Unnamed Road, Olilit, Tanimbar Sel., Kab. Kepulauan Tanimbar, Maluku","Kab. Kepulauan Tanimbar, Maluku",MALUKU,,Indonesia,,-7.9736976,131.3037247,https://maps.google.com/?cid=0x0:0x668281f85b95b99e
cafe,cafe,Kec. Wer Maktian,"Kab. Kepulauan Tanimbar, Maluku","Kab. Kepulauan Tanimbar, Maluku",MALUKU,,Indonesia,,-7.6851092,131.1322161,https://maps.google.com/?cid=0x0:0xd6cd550965163a24
cafe,Restoran,warung solo,"Ilngei, Tanimbar Sel., Kab. Kepulauan Tanimbar, Maluku 97471","Tanimbar Sel., Kab. Kepulauan Tanimbar",MALUKU,97471.0,Indonesia,81264837387.0,-7.8574688,131.2832122,https://maps.google.com/?cid=0x0:0xe87d3fa6144f93c9
cafe,Kedai Kopi,Cafe Banteng,"Asrama Yonif 734/SNS, Lauran, Tanimbar Sel., Kab. Kepulauan Tanimbar, Maluku 97471","Lauran, Tanimbar Sel., Kab. Kepulauan Tanimbar",MALUKU,97471.0,Indonesia,,-7.9298328,131.3116085,https://maps.google.com/?cid=0x0:0xfd516d20efafc29e
cafe,Sekolah menengah,SMP NEGERI 1 WERMAKTIAN,"82MM+RQM, Unnamed Road, Rumah Salut, Kec. Wer Maktian, Kab. Kepulauan Tanimbar, Maluku","Kab. Kepulauan Tanimbar, Maluku",MALUKU,,Indonesia,82198283339.0,-7.6654005,131.0344207,https://maps.google.com/?cid=0x0:0x969edc94ba53c8e0
cafe,Komplek perumahan,Basecamp Pakde Fery,"387G+7Q2, Lauran, Tanimbar Sel., Kab. Kepulauan Tanimbar, Maluku","Kab. Kepulauan Tanimbar, Maluku",MALUKU,,Indonesia,,-7.9368746,131.3268863,https://maps.google.com/?cid=0x0:0x9075db1e29ec671d
cafe,cafe,Paul enus,"82MM+R54, Rumah Salut, Kec. Wer Maktian, Kab. Kepulauan Tanimbar, Maluku","Kab. Kepulauan Tanimbar, Maluku",MALUKU,,Indonesia,,-7.6655839,131.0330804,https://maps.google.com/?cid=0x0:0x851b4ee51119d427
cafe,Indonesia,Warung Albanam,"48WJ+4H, Tumbur, Wer Tamrian, Kab. Kepulauan Tanimbar, Maluku","Kab. Kepulauan Tanimbar, Maluku",MALUKU,,Indonesia,,-7.8542115,131.3319287,https://maps.google.com/?cid=0x0:0xcc9d951ca634bfc1
cafe,Nasi,WARUNG SOLO 2,"SAMPING PEREMPATAN LAURAN (BATALYON, JALAN POROS, Lauran, Maluku 97464","JALAN POROS, Lauran",MALUKU,97464.0,Indonesia,81264837387.0,-7.9286111,131.3150829,https://maps.google.com/?cid=0x0:0x5d5c6b8fd77d1255
cafe,Toko Kue,Bunda Syakir BAKERY,"Lauran, Tanimbar Sel., Kab. Kepulauan Tanimbar, Maluku","Kab. Kepulauan Tanimbar, Maluku",MALUKU,,Indonesia,81248574569.0,-7.927393,131.3115719,https://maps.google.com/?cid=0x0:0x6b18c6e46122f0fa
cafe,Indonesia,WARUNG MAKAN SHALOM,"Lermatang, Tanimbar Sel., Kab. Kepulauan Tanimbar, Maluku","Kab. Kepulauan Tanimbar, Maluku",MALUKU,,Indonesia,,-8.005392,131.2307845,https://maps.google.com/?cid=0x0:0xbb9f890a5c8a8fb6
cafe,cafe,Tunerascoffee,"Depan toko sumber rejeki, Jl. Urayana, Saumlaki, Tanimbar Sel., Kab. Kepulauan Tanimbar, Maluku 97664","Jl. Urayana, Saumlaki, Tanimbar Sel., Kab. Kepulauan Tanimbar",MALUKU,97664.0,Indonesia,,-7.9720918,131.3076863,https://maps.google.com/?cid=0x0:0xd0f4da823db3b738
cafe,Indonesia,DOLENCI,"38WR+435, Unnamed Road, Ilngei, Tanimbar Sel., Kab. Kepulauan Tanimbar, Maluku","Kab. Kepulauan Tanimbar, Maluku",MALUKU,,Indonesia,,-7.9047254,131.3402449,https://maps.google.com/?cid=0x0:0xe9ea532d5c7d8464
cafe,Kedai Kopi,Warkop Manceluto,"Sifnana, Tanimbar Sel., Kab. Kepulauan Tanimbar, Maluku","Kab. Kepulauan Tanimbar, Maluku",MALUKU,,Indonesia,81290543518.0,-7.9583403,131.3108422,https://maps.google.com/?cid=0x0:0x5c2de7728114c5ec
cafe,cafe,Wer Tamrian,"Kab. Kepulauan Tanimbar, Maluku","Kab. Kepulauan Tanimbar, Maluku",MALUKU,,Indonesia,,-7.7661937,131.401196,https://maps.google.com/?cid=0x0:0xaded055189834b4b
cafe,Indonesia,Buritan Cafe,"28G5+W9F, Saumlaki, Tanimbar Sel., Kab. Kepulauan Tanimbar, Maluku","Kab. Kepulauan Tanimbar, Maluku",MALUKU,,Indonesia,,-7.9726794,131.3084082,https://maps.google.com/?cid=0x0:0xd75463b3c2c9a48a
cafe,Kedai Kopi,Guppasa coffee,"28C5+7J7, Olilit, Tanimbar Sel., Kab. Kepulauan Tanimbar, Maluku","Kab. Kepulauan Tanimbar, Maluku",MALUKU,,Indonesia,82399943772.0,-7.9793438,131.3090376,https://maps.google.com/?cid=0x0:0x7956f697e886984
cafe,Kedai Kopi,Cafe Banteng,"Asrama Yonif 734/SNS, Lauran, Tanimbar Sel., Kab. Kepulauan Tanimbar, Maluku 97471","Lauran, Tanimbar Sel., Kab. Kepulauan Tanimbar",MALUKU,97471.0,Indonesia,,-7.9298328,131.3116085,https://maps.google.com/?cid=0x0:0xfd516d20efafc29e
cafe,Kafe,Janji jiwa Jilid 1042,"27CX+JV2, Olilit, Tanimbar Sel., Kab. Kepulauan Tanimbar, Maluku","Kab. Kepulauan Tanimbar, Maluku",MALUKU,,Indonesia,,-7.9785635,131.2995758,https://maps.google.com/?cid=0x0:0x4e756864e6841cd5
cafe,Indonesia,Nanam Saumlaki,"Ruko Omele Baru Blok B - No.1, Maluku 97471","Kab. Kepulauan Tanimbar, Maluku",MALUKU,,Indonesia,85242622230.0,-7.9583278,131.3103404,https://maps.google.com/?cid=0x0:0x636a50d9d2f344cf
cafe,Kedai Kopi,Mana Caffe,"28G3+GFH, Unnamed Road, Olilit, Tanimbar Sel., Kab. Kepulauan Tanimbar, Maluku","Kab. Kepulauan Tanimbar, Maluku",MALUKU,,Indonesia,,-7.9736976,131.3037247,https://maps.google.com/?cid=0x0:0x668281f85b95b99e
cafe,Makanan Siap Saji,Uncle x Bistro,"28J5+J8H, Sifnana, Tanimbar Sel., Kab. Kepulauan Tanimbar, Maluku","Kab. Kepulauan Tanimbar, Maluku",MALUKU,,Indonesia,,-7.968433,131.3083477,https://maps.google.com/?cid=0x0:0xa90a234652eb092f
cafe,Toko Kue,"JJ BAKERY, COFFEE  CAFE","2872+2Q7, Olilit, Tanimbar Sel., Kab. Kepulauan Tanimbar, Maluku","Kab. Kepulauan Tanimbar, Maluku",MALUKU,,Indonesia,82399481818.0,-7.9874411,131.3019775,https://maps.google.com/?cid=0x0:0x39fa32bf1a52eec6
cafe,Kedai Kopi,Coffee Joas,"278V+G38 samping hotel beringin, RW.2, Sifnana, Tanimbar Sel., Kab. Kepulauan Tanimbar, Maluku","Kab. Kepulauan Tanimbar, Maluku",MALUKU,,Indonesia,82194075378.0,-7.9837238,131.2927087,https://maps.google.com/?cid=0x0:0x3c5e38153f215f07
cafe,Restoran,3 KOKI,"Jl. Ir. Soekarno, Olilit, Tanimbar Sel., Kab. Kepulauan Tanimbar, Maluku","Kab. Kepulauan Tanimbar, Maluku",MALUKU,,Indonesia,82198603600.0,-7.9790336,131.3085797,https://maps.google.com/?cid=0x0:0xf4b360d52fb257bb
cafe,Hidangan Laut,Dinar Seafood Restaurant,"Jl. Mathilda Batlayeri No.12, Olilit, Tanimbar Sel., Saumlaki, Maluku 97464","Olilit, Tanimbar Sel., Saumlaki",MALUKU,97464.0,Indonesia,,-7.9818828,131.2964362,https://maps.google.com/?cid=0x0:0xd3b0f1f525b112a5
cafe,cafe,OM JOAS CAFE,"28M6+7Q4, Jl. Ir. Soekarno, Saumlaki, Tanimbar Sel., Kab. Kepulauan Tanimbar, Maluku","Kab. Kepulauan Tanimbar, Maluku",MALUKU,,Indonesia,82399904498.0,-7.9668572,131.3119613,https://maps.google.com/?cid=0x0:0x48c948e3b2d4b893
cafe,Indonesia,Warung Albanam,"48WJ+4H, Tumbur, Wer Tamrian, Kab. Kepulauan Tanimbar, Maluku","Kab. Kepulauan Tanimbar, Maluku",MALUKU,,Indonesia,,-7.8542115,131.3319287,https://maps.google.com/?cid=0x0:0xcc9d951ca634bfc1
cafe,cafe,The LA CAFE,"VP2G+FJ6, Ridool, Kec. Tanimbar Utara, Kab. Kepulauan Tanimbar, Maluku","Kab. Kepulauan Tanimbar, Maluku",MALUKU,,Indonesia,81332443758.0,-7.148825,131.7265179,https://maps.google.com/?cid=0x0:0xf945aa80a008a6
cafe,cafe,Kec. Tanimbar Utara,"Kab. Kepulauan Tanimbar, Maluku","Kab. Kepulauan Tanimbar, Maluku",MALUKU,,Indonesia,,-7.1551532,131.7188169,https://maps.google.com/?cid=0x0:0xf9f74771470cd070
cafe,cafe,RENTAL PLAYSTATION SANDIEGO,"RPV7+HWG, Ritabel, Kec. Tanimbar Utara, Kab. Kepulauan Tanimbar, Maluku","Kab. Kepulauan Tanimbar, Maluku",MALUKU,,Indonesia,81382883353.0,-7.1560641,131.7148246,https://maps.google.com/?cid=0x0:0xafd582b34e93156f
cafe,Indonesia,Buritan Cafe,"28G5+W9F, Saumlaki, Tanimbar Sel., Kab. Kepulauan Tanimbar, Maluku","Kab. Kepulauan Tanimbar, Maluku",MALUKU,,Indonesia,,-7.9726794,131.3084082,https://maps.google.com/?cid=0x0:0xd75463b3c2c9a48a
cafe,Kedai Kopi,Mana Caffe,"28G3+GFH, Unnamed Road, Olilit, Tanimbar Sel., Kab. Kepulauan Tanimbar, Maluku","Kab. Kepulauan Tanimbar, Maluku",MALUKU,,Indonesia,,-7.9736976,131.3037247,https://maps.google.com/?cid=0x0:0x668281f85b95b99e
cafe,Kedai Kopi,De lima kafe,"28R5+2GW, Sifnana, Tanimbar Sel., Kab. Kepulauan Tanimbar, Maluku","Kab. Kepulauan Tanimbar, Maluku",MALUKU,,Indonesia,85243152253.0,-7.9598804,131.3088199,https://maps.google.com/?cid=0x0:0x5160a78bf6348e31
cafe,Inspektur Tempat Tinggal,RM IRMHA 2,"RPW7+2MM, Ritabel, Kec. Tanimbar Utara, Kab. Kepulauan Tanimbar, Maluku","Kab. Kepulauan Tanimbar, Maluku",MALUKU,,Indonesia,,-7.1550199,131.7142687,https://maps.google.com/?cid=0x0:0xeef0f7ae8465bc9b
cafe,cafe,Ayam Geprek,"RPV7+XH9, Ritabel, Kec. Tanimbar Utara, Kab. Kepulauan Tanimbar, Maluku","Kab. Kepulauan Tanimbar, Maluku",MALUKU,,Indonesia,,-7.1555244,131.7143253,https://maps.google.com/?cid=0x0:0xe2bb3943643086c7
cafe,cafe,Mama Nene Coffee Shop,"Jl. Lain, Ridool, Kec. Tanimbar Utara, Kab. Kepulauan Tanimbar, Maluku","Kab. Kepulauan Tanimbar, Maluku",MALUKU,,Indonesia,81380106800.0,-7.1410317,131.7238422,https://maps.google.com/?cid=0x0:0x9d0cc08959132595
cafe,cafe,Ice Boba Marel Tanimbar,"RPV9+P74, Ritabel, Kec. Tanimbar Utara, Kab. Kepulauan Tanimbar, Maluku","Kab. Kepulauan Tanimbar, Maluku",MALUKU,,Indonesia,82190476094.0,-7.1557307,131.7182102,https://maps.google.com/?cid=0x0:0x960cfddf892a6b15
cafe,cafe,Kec. Fordata,"Kab. Kepulauan Tanimbar, Maluku","Kab. Kepulauan Tanimbar, Maluku",MALUKU,,Indonesia,,-7.0802629,131.9129913,https://maps.google.com/?cid=0x0:0xb4203fef18cb1043
cafe,Kafe,Forganza Resto  Cafe,"Kelanit, Kec. Kei Kecil, Kabupaten Maluku Tenggara, Maluku","Kabupaten Maluku Tenggara, Maluku",MALUKU,,Indonesia,82231789845.0,-5.6575049,132.7029619,https://maps.google.com/?cid=0x0:0x35e7e74d6d2279bc
cafe,cafe,Warung makan JABAR,"RPVG+38F, Ritabel, Kec. Tanimbar Utara, Kab. Kepulauan Tanimbar, Maluku","Kab. Kepulauan Tanimbar, Maluku",MALUKU,,Indonesia,,-7.157323,131.7258038,https://maps.google.com/?cid=0x0:0x353c56e87556b261
cafe,Kafe,Arkara Social CafÃ©,"Jl. Raya Cilegon Drangong Serang - Banten No.km 18, Kedaleman, Kec. Cibeber, Kota Cilegon, Banten 42422","Kedaleman, Kec. Cibeber, Kota Cilegon",MALUKU,42422.0,Indonesia,85218903077.0,-6.0309242,106.0792537,https://maps.google.com/?cid=0x0:0x6ecd038369f679f0
cafe,Pujasera,Kedai Yara,"Jl. Unjani No.228, RT.04/RW.02, Cibeber, Kec. Cimahi Sel., Kota Cimahi, Jawa Barat 40531","RT.04/RW.02, Cibeber, Kec. Cimahi Sel., Kota Cimahi",MALUKU,40531.0,Indonesia,81224726957.0,-6.885948,107.5241777,https://maps.google.com/?cid=0x0:0x644200488b7684ad
cafe,Kafe,JUFFEE,"Jl. Raya Anyer-Sirih, Anyar, Kec. Anyar, Kabupaten Serang, Banten 42166","Anyar, Kec. Anyar, Kabupaten Serang",MALUKU,42166.0,Indonesia,81287878705.0,-6.0554147,105.9198829,https://maps.google.com/?cid=0x0:0x28286d6d14ab4046
cafe,cafe,Kec. Wuar Labobar,"Kab. Kepulauan Tanimbar, Maluku","Kab. Kepulauan Tanimbar, Maluku",MALUKU,,Indonesia,,-7.3440201,131.4304567,https://maps.google.com/?cid=0x0:0xff00056926ab874a
cafe,cafe,The LA CAFE,"VP2G+FJ6, Ridool, Kec. Tanimbar Utara, Kab. Kepulauan Tanimbar, Maluku","Kab. Kepulauan Tanimbar, Maluku",MALUKU,,Indonesia,81332443758.0,-7.148825,131.7265179,https://maps.google.com/?cid=0x0:0xf945aa80a008a6
cafe,Indonesia,Buritan Cafe,"28G5+W9F, Saumlaki, Tanimbar Sel., Kab. Kepulauan Tanimbar, Maluku","Kab. Kepulauan Tanimbar, Maluku",MALUKU,,Indonesia,,-7.9726794,131.3084082,https://maps.google.com/?cid=0x0:0xd75463b3c2c9a48a
cafe,Restoran,Wailela Cafe and Resto | Ambon,"Jl. Kampus, Rumah Tiga, Kec. Tlk. Ambon, Kota Ambon, Maluku","Kota Ambon, Maluku",MALUKU,,Indonesia,82399522113.0,-3.6610624,128.180609,https://maps.google.com/?cid=0x0:0x3acbc85ce4ef2d6d
cafe,Kafe,Forganza Resto  Cafe,"Kelanit, Kec. Kei Kecil, Kabupaten Maluku Tenggara, Maluku","Kabupaten Maluku Tenggara, Maluku",MALUKU,,Indonesia,82231789845.0,-5.6575049,132.7029619,https://maps.google.com/?cid=0x0:0x35e7e74d6d2279bc
cafe,Indonesia,VOILA DESSERT  EATERY,"Jl. Jend. A Yani, Kel Batu Meja, Kec. Sirimau, Kota Ambon, Maluku 97125","Kel Batu Meja, Kec. Sirimau, Kota Ambon",MALUKU,97125.0,Indonesia,82229911005.0,-3.69803,128.185768,https://maps.google.com/?cid=0x0:0x263c84f16d8e6461
cafe,Kafe,INFINITY CAFE  EATERY,"85CV+M7G, Pandan Kasturi, Kec. Sirimau, Kota Ambon, Maluku","Kota Ambon, Maluku",MALUKU,,Indonesia,81241568878.0,-3.6783317,128.1931931,https://maps.google.com/?cid=0x0:0x619ec9a16acc810f
cafe,Kedai Kopi,Rumah Kopi Sibu Sibu,"852J+V96, Said Perintah, Kel Ahusen, Kec. Sirimau, Kota Ambon, Maluku","Kota Ambon, Maluku",MALUKU,,Indonesia,,-3.6978326,128.1808936,https://maps.google.com/?cid=0x0:0x7ea4fc8102835ef2
cafe,Komplek perumahan,Lorong citra,"9QG3+GHC, Unnamed Road, Kel. Lodar El, Pulau Dullah Sel., Kota Tual, Maluku","Kota Tual, Maluku",MALUKU,,Indonesia,85223305750.0,-5.6236926,132.753902,https://maps.google.com/?cid=0x0:0x85d88c64c8a8af03
cafe,cafe,THE CAFE BONG 21 SEAFOOD (KKB21),"Jalan Lorong Surya No.mor 49, Saumlaki, Kab. Kepulauan Tanimbar, 97664",Saumlaki,MALUKU,97664.0,Indonesia,82199988990.0,-7.5124693,131.704751,https://maps.google.com/?cid=0x0:0xe1748c7af072d7cc
cafe,cafe,Toko Kelapa Satu Abadi,"Desa wunlah Wunlah, Karatat, Kec. Wuar Labobar, Kab. Kepulauan Tanimbar, Maluku 97465","Karatat, Kec. Wuar Labobar, Kab. Kepulauan Tanimbar",MALUKU,97465.0,Indonesia,85604070147.0,-7.2949883,131.4436687,https://maps.google.com/?cid=0x0:0xc6da6ad873bb04e8
cafe,cafe,Ice Boba Marel Tanimbar,"RPV9+P74, Ritabel, Kec. Tanimbar Utara, Kab. Kepulauan Tanimbar, Maluku","Kab. Kepulauan Tanimbar, Maluku",MALUKU,,Indonesia,82190476094.0,-7.1557307,131.7182102,https://maps.google.com/?cid=0x0:0x960cfddf892a6b15
cafe,Indonesia,Rumah'makan karunia,"2882+C8Q, Olilit, Tanimbar Sel., Kab. Kepulauan Tanimbar, Maluku","Kab. Kepulauan Tanimbar, Maluku",MALUKU,,Indonesia,,-7.9838011,131.301417,https://maps.google.com/?cid=0x0:0x62fa205ef8755694
cafe,Restoran,RM MELBUKRANIN,"9JVH+WXH, Lumasebu, Kec. Kormomolin, Kab. Kepulauan Tanimbar, Maluku","Kab. Kepulauan Tanimbar, Maluku",MALUKU,,Indonesia,85712018952.0,-7.6051809,131.6299889,https://maps.google.com/?cid=0x0:0x548159323ca5d4e6
cafe,cafe,Kec. Nirunmas,"Kab. Kepulauan Tanimbar, Maluku","Kab. Kepulauan Tanimbar, Maluku",MALUKU,,Indonesia,,-7.4223184,131.6998843,https://maps.google.com/?cid=0x0:0xaaadfde047b475b5
cafe,Kafe,Forganza Resto  Cafe,"Kelanit, Kec. Kei Kecil, Kabupaten Maluku Tenggara, Maluku","Kabupaten Maluku Tenggara, Maluku",MALUKU,,Indonesia,82231789845.0,-5.6575049,132.7029619,https://maps.google.com/?cid=0x0:0x35e7e74d6d2279bc
cafe,cafe,THE CAFE BONG 21 SEAFOOD (KKB21),"Jalan Lorong Surya No.mor 49, Saumlaki, Kab. Kepulauan Tanimbar, 97664",Saumlaki,MALUKU,97664.0,Indonesia,82199988990.0,-7.5124693,131.704751,https://maps.google.com/?cid=0x0:0xe1748c7af072d7cc
cafe,cafe,Kec. Molu Maru,"Kab. Kepulauan Tanimbar, Maluku","Kab. Kepulauan Tanimbar, Maluku",MALUKU,,Indonesia,,-6.7063732,131.5635744,https://maps.google.com/?cid=0x0:0x249d2f0e14e786d1
hotel,hotel,Hotel  Villa Bukit Indah Saumlaki,"2894+X5, Jl. Ir. Soekarno, Olilit, Tanimbar Sel., Kab. Kepulauan Tanimbar, Maluku","Kab. Kepulauan Tanimbar, Maluku",MALUKU,,Indonesia,82317442966.0,-7.9803491,131.3053714,https://maps.google.com/?cid=0x0:0x2f47fbea862da93d
hotel,hotel,Tanimbar Sel.,"Kab. Kepulauan Tanimbar, Maluku","Kab. Kepulauan Tanimbar, Maluku",MALUKU,,Indonesia,,-7.941769,131.2205911,https://maps.google.com/?cid=0x0:0x2fbf1b925d6dba13
hotel,hotel,Incla Hotel  Restaurant,"279W+7MG, Olilit, Tanimbar Sel., Kab. Kepulauan Tanimbar, Maluku","Kab. Kepulauan Tanimbar, Maluku",MALUKU,,Indonesia,91821821.0,-7.9818007,131.2967101,https://maps.google.com/?cid=0x0:0x6f3ff2d69b3e998f
hotel,hotel,Harapan Indah Hotel,"Saumlaki, Jl. Bhineka, Tanimbar Sel., Kab. Kepulauan Tanimbar, Maluku","Kab. Kepulauan Tanimbar, Maluku",MALUKU,,Indonesia,81338289609.0,-7.9808931,131.2960111,https://maps.google.com/?cid=0x0:0x9c3b29c7f8b916cb
hotel,hotel,,,,MALUKU,,Indonesia,,,,https://maps.google.com/?cid=0x0:0xb66509852ba2428c%7C/g/121qycpm%7Cid-ID
hotel,hotel,The Natsepa Hotel  Resort,"Jl. Natsepa No.36, Suli, Kec. Salahutu, Kabupaten Maluku Tengah, Maluku 97582","Suli, Kec. Salahutu, Kabupaten Maluku Tengah",MALUKU,97582.0,Indonesia,911362555.0,-3.6224597,128.2856783,https://maps.google.com/?cid=0x0:0xb66509852ba2428c
hotel,hotel,Airy Maluku City Sudirman Ambon,"85JX+J8C, Jl. Jenderal Sudirman, Hative Kecil, Kec. Sirimau, Kota Ambon, Maluku 97128","Jl. Jenderal Sudirman, Hative Kecil, Kec. Sirimau, Kota Ambon",MALUKU,97128.0,Indonesia,8041112479.0,-3.6684342,128.1982566,https://maps.google.com/?cid=0x0:0xd9a527375825a79
hotel,hotel,,,,MALUKU,,Indonesia,,,,https://maps.google.com/?cid=0x0:0xd9a527375825a79%7C/g/11dzddthkt%7Cid-ID
hotel,hotel,Kec. Selaru,"Kab. Kepulauan Tanimbar, Maluku","Kab. Kepulauan Tanimbar, Maluku",MALUKU,,Indonesia,,-8.1318821,131.1133407,https://maps.google.com/?cid=0x0:0x21fc7f5cc6364753
hotel,hotel,Incla Hotel  Restaurant,"279W+7MG, Olilit, Tanimbar Sel., Kab. Kepulauan Tanimbar, Maluku","Kab. Kepulauan Tanimbar, Maluku",MALUKU,,Indonesia,91821821.0,-7.9818007,131.2967101,https://maps.google.com/?cid=0x0:0x6f3ff2d69b3e998f
hotel,hotel,Hotel  Villa Bukit Indah Saumlaki,"2894+X5, Jl. Ir. Soekarno, Olilit, Tanimbar Sel., Kab. Kepulauan Tanimbar, Maluku","Kab. Kepulauan Tanimbar, Maluku",MALUKU,,Indonesia,82317442966.0,-7.9803491,131.3053714,https://maps.google.com/?cid=0x0:0x2f47fbea862da93d
hotel,hotel,Beringin Dua Hotel,"Jl. Mathilda Batlayeri No.3, Saumlaki, Tanimbar Sel., Kab. Kepulauan Tanimbar, Maluku 97464","Saumlaki, Tanimbar Sel., Kab. Kepulauan Tanimbar",MALUKU,97464.0,Indonesia,91821456.0,-7.9686669,131.3041859,https://maps.google.com/?cid=0x0:0x12e347947a24ebc2
hotel,hotel,Kec. Wer Maktian,"Kab. Kepulauan Tanimbar, Maluku","Kab. Kepulauan Tanimbar, Maluku",MALUKU,,Indonesia,,-7.6851092,131.1322161,https://maps.google.com/?cid=0x0:0xd6cd550965163a24
hotel,hotel,Hotel  Villa Bukit Indah Saumlaki,"2894+X5, Jl. Ir. Soekarno, Olilit, Tanimbar Sel., Kab. Kepulauan Tanimbar, Maluku","Kab. Kepulauan Tanimbar, Maluku",MALUKU,,Indonesia,82317442966.0,-7.9803491,131.3053714,https://maps.google.com/?cid=0x0:0x2f47fbea862da93d
hotel,hotel,Incla Hotel  Restaurant,"279W+7MG, Olilit, Tanimbar Sel., Kab. Kepulauan Tanimbar, Maluku","Kab. Kepulauan Tanimbar, Maluku",MALUKU,,Indonesia,91821821.0,-7.9818007,131.2967101,https://maps.google.com/?cid=0x0:0x6f3ff2d69b3e998f
hotel,hotel,Harapan Indah Hotel,"Saumlaki, Jl. Bhineka, Tanimbar Sel., Kab. Kepulauan Tanimbar, Maluku","Kab. Kepulauan Tanimbar, Maluku",MALUKU,,Indonesia,81338289609.0,-7.9808931,131.2960111,https://maps.google.com/?cid=0x0:0x9c3b29c7f8b916cb
hotel,hotel,Wer Tamrian,"Kab. Kepulauan Tanimbar, Maluku","Kab. Kepulauan Tanimbar, Maluku",MALUKU,,Indonesia,,-7.7661937,131.401196,https://maps.google.com/?cid=0x0:0xaded055189834b4b
hotel,hotel,Hotel  Villa Bukit Indah Saumlaki,"2894+X5, Jl. Ir. Soekarno, Olilit, Tanimbar Sel., Kab. Kepulauan Tanimbar, Maluku","Kab. Kepulauan Tanimbar, Maluku",MALUKU,,Indonesia,82317442966.0,-7.9803491,131.3053714,https://maps.google.com/?cid=0x0:0x2f47fbea862da93d
hotel,hotel,Incla Hotel  Restaurant,"279W+7MG, Olilit, Tanimbar Sel., Kab. Kepulauan Tanimbar, Maluku","Kab. Kepulauan Tanimbar, Maluku",MALUKU,,Indonesia,91821821.0,-7.9818007,131.2967101,https://maps.google.com/?cid=0x0:0x6f3ff2d69b3e998f
hotel,hotel,Harapan Indah Hotel,"Saumlaki, Jl. Bhineka, Tanimbar Sel., Kab. Kepulauan Tanimbar, Maluku","Kab. Kepulauan Tanimbar, Maluku",MALUKU,,Indonesia,81338289609.0,-7.9808931,131.2960111,https://maps.google.com/?cid=0x0:0x9c3b29c7f8b916cb
hotel,hotel,Kec. Tanimbar Utara,"Kab. Kepulauan Tanimbar, Maluku","Kab. Kepulauan Tanimbar, Maluku",MALUKU,,Indonesia,,-7.1551532,131.7188169,https://maps.google.com/?cid=0x0:0xf9f74771470cd070
hotel,Hotel,Talenta Engelis Hotel,"RPV7+JVJ, Ritabel, Kec. Tanimbar Utara, Kab. Kepulauan Tanimbar, Maluku","Kab. Kepulauan Tanimbar, Maluku",MALUKU,,Indonesia,,-7.1562743,131.7150835,https://maps.google.com/?cid=0x0:0x37d3d60fcb6532f
hotel,Hotel,Rumah Kel. Silalebit,"RPW8+254, Ritabel, Kec. Tanimbar Utara, Kab. Kepulauan Tanimbar, Maluku","Kab. Kepulauan Tanimbar, Maluku",MALUKU,,Indonesia,,-7.1555152,131.7155318,https://maps.google.com/?cid=0x0:0x6e9c65bc41737f00
hotel,Hotel,BLESSING HOSTELRY,"RPV9+7JR, Ritabel, Kec. Tanimbar Utara, Kab. Kepulauan Tanimbar, Maluku","Kab. Kepulauan Tanimbar, Maluku",MALUKU,,Indonesia,,-7.1567534,131.7190146,https://maps.google.com/?cid=0x0:0x510d2e2bbbef00c0
hotel,hotel,Incla Hotel  Restaurant,"279W+7MG, Olilit, Tanimbar Sel., Kab. Kepulauan Tanimbar, Maluku","Kab. Kepulauan Tanimbar, Maluku",MALUKU,,Indonesia,91821821.0,-7.9818007,131.2967101,https://maps.google.com/?cid=0x0:0x6f3ff2d69b3e998f
hotel,hotel,Beringin Dua Hotel,"Jl. Mathilda Batlayeri No.3, Saumlaki, Tanimbar Sel., Kab. Kepulauan Tanimbar, Maluku 97464","Saumlaki, Tanimbar Sel., Kab. Kepulauan Tanimbar",MALUKU,97464.0,Indonesia,91821456.0,-7.9686669,131.3041859,https://maps.google.com/?cid=0x0:0x12e347947a24ebc2
hotel,hotel,Hotel Grand Vilia,"Jl. Telaver No.1, Langgur, Kec. Kei Kecil, Kabupaten Maluku Tenggara, Maluku","Kabupaten Maluku Tenggara, Maluku",MALUKU,,Indonesia,82197830643.0,-5.6704304,132.7377086,https://maps.google.com/?cid=0x0:0x602282c2fc284226
hotel,hotel,,,,MALUKU,,Indonesia,,,,https://maps.google.com/?cid=0x0:0x602282c2fc284226%7C/g/11bc7s8rt9%7Cid-ID
hotel,hotel,SURYA INN,"Jl. Pelita, Langgur, Kec. Kei Kecil, Kabupaten Maluku Tenggara, Maluku","Kabupaten Maluku Tenggara, Maluku",MALUKU,,Indonesia,81281425505.0,-5.6538155,132.7347042,https://maps.google.com/?cid=0x0:0xb0a10184948650b8
hotel,Tujuan Wisata,Pantai Ngurbloat Desa Ngilngof - Kei Islands,"Ngurbloat, Kabupaten Maluku Tenggara, Maluku","Kabupaten Maluku Tenggara, Maluku",MALUKU,,Indonesia,811477719.0,-5.6624981,132.6362396,https://maps.google.com/?cid=0x0:0xd3a4a88054e326f
hotel,hotel,Q Homestay Al Ittifaqiah,"Tj. Lubuk, Kec. Indralaya Sel., Kabupaten Ogan Ilir, Sumatera Selatan 30862","Kec. Indralaya Sel., Kabupaten Ogan Ilir",MALUKU,30862.0,Indonesia,2129707601.0,-3.2926436,104.6824763,https://maps.google.com/?cid=0x0:0xb270cc8ced239828
hotel,hotel,Penginapan YARITS 80rb,"UNSRI Indralaya, Jl. Lintas Sumatra No.Km 34, Timbangan, Kecamatan Indralaya Utara, Kabupaten Ogan Ilir, Sumatera Selatan 30862","Jl. Lintas Sumatra No.Km 34, Timbangan, Kecamatan Indralaya Utara, Kabupaten Ogan Ilir",MALUKU,30862.0,Indonesia,82178004497.0,-3.2144617,104.6547787,https://maps.google.com/?cid=0x0:0x62c607f32190e497
hotel,Jembatan,Sabana Tanjung Senai,"Unnamed Road, Sakatiga Seberang, Kec. Indralaya, Kabupaten Ogan Ilir, Sumatera Selatan 30862","Sakatiga Seberang, Kec. Indralaya, Kabupaten Ogan Ilir",MALUKU,30862.0,Indonesia,,-3.2461917,104.6524432,https://maps.google.com/?cid=0x0:0x52a317e899934726
hotel,hotel,Penginapan Puncak Bobosan,"Tj. Lubuk, Kec. Indralaya Sel., Kabupaten Ogan Ilir, Sumatera Selatan 30671","Kec. Indralaya Sel., Kabupaten Ogan Ilir",MALUKU,30671.0,Indonesia,2129707601.0,-3.294186,104.6818232,https://maps.google.com/?cid=0x0:0x80d42a672e53f439
hotel,hotel,Kec. Wuar Labobar,"Kab. Kepulauan Tanimbar, Maluku","Kab. Kepulauan Tanimbar, Maluku",MALUKU,,Indonesia,,-7.3440201,131.4304567,https://maps.google.com/?cid=0x0:0xff00056926ab874a
hotel,hotel,Hotel  Villa Bukit Indah Saumlaki,"2894+X5, Jl. Ir. Soekarno, Olilit, Tanimbar Sel., Kab. Kepulauan Tanimbar, Maluku","Kab. Kepulauan Tanimbar, Maluku",MALUKU,,Indonesia,82317442966.0,-7.9803491,131.3053714,https://maps.google.com/?cid=0x0:0x2f47fbea862da93d
hotel,Tujuan Wisata,Weluan Beach,"X8P6+VMP, Olilit, Tanimbar Sel., Kab. Kepulauan Tanimbar, Maluku","Kab. Kepulauan Tanimbar, Maluku",MALUKU,,Indonesia,,-8.0127967,131.3117108,https://maps.google.com/?cid=0x0:0x56f092c8b59aec8
hotel,Hostel,Larat,"VP4F+R8W, Ridool, Kec. Tanimbar Utara, Kab. Kepulauan Tanimbar, Maluku","Kab. Kepulauan Tanimbar, Maluku",MALUKU,,Indonesia,,-7.1428899,131.7233141,https://maps.google.com/?cid=0x0:0x3e6a4084bb98ca4d
hotel,Hotel,BLESSING HOSTELRY,"RPV9+7JR, Ritabel, Kec. Tanimbar Utara, Kab. Kepulauan Tanimbar, Maluku","Kab. Kepulauan Tanimbar, Maluku",MALUKU,,Indonesia,,-7.1567534,131.7190146,https://maps.google.com/?cid=0x0:0x510d2e2bbbef00c0
hotel,Hotel,Rumah Kel. Amarduan,"RPV8+V4Q, Ritabel, Kec. Tanimbar Utara, Kab. Kepulauan Tanimbar, Maluku","Kab. Kepulauan Tanimbar, Maluku",MALUKU,,Indonesia,,-7.155275,131.7153581,https://maps.google.com/?cid=0x0:0x8b9d25d1c4ca772f
hotel,Hotel,Rumah Kel. Silalebit,"RPW8+254, Ritabel, Kec. Tanimbar Utara, Kab. Kepulauan Tanimbar, Maluku","Kab. Kepulauan Tanimbar, Maluku",MALUKU,,Indonesia,,-7.1555152,131.7155318,https://maps.google.com/?cid=0x0:0x6e9c65bc41737f00
hotel,hotel,Hotel Grand Vilia,"Jl. Telaver No.1, Langgur, Kec. Kei Kecil, Kabupaten Maluku Tenggara, Maluku","Kabupaten Maluku Tenggara, Maluku",MALUKU,,Indonesia,82197830643.0,-5.6704304,132.7377086,https://maps.google.com/?cid=0x0:0x602282c2fc284226
hotel,hotel,Aurelia Hotel By KIMSON,"Jalan Jenderal Sudirman, Kel. Ohoijang Watdek, Kec. Kei Kecil, Kabupaten Maluku Tenggara, Maluku","Kabupaten Maluku Tenggara, Maluku",MALUKU,,Indonesia,811477881.0,-5.650942,132.7409983,https://maps.google.com/?cid=0x0:0xe4999f098a6624b5
hotel,hotel,Suita Hotel,"8PWR+V8H, Kel. Ohoijang Watdek, Kec. Kei Kecil, Kabupaten Maluku Tenggara, Maluku","Kabupaten Maluku Tenggara, Maluku",MALUKU,,Indonesia,91624007.0,-5.6528181,132.74087,https://maps.google.com/?cid=0x0:0x44818b2730e9d9f7
hotel,hotel,SURYA INN,"Jl. Pelita, Langgur, Kec. Kei Kecil, Kabupaten Maluku Tenggara, Maluku","Kabupaten Maluku Tenggara, Maluku",MALUKU,,Indonesia,81281425505.0,-5.6538155,132.7347042,https://maps.google.com/?cid=0x0:0xb0a10184948650b8
hotel,hotel,Hotel Dragon,"Jl. Jend. Sudirman, Langgur, Kec. Kei Kecil, Kabupaten Maluku Tenggara, Maluku","Kabupaten Maluku Tenggara, Maluku",MALUKU,,Indonesia,,-5.6556244,132.7400133,https://maps.google.com/?cid=0x0:0x2fa72a608601774c
hotel,hotel,Savana Cottages,"Unnamed Road, Ohoidertawun, Kec. Kei Kecil, Kabupaten Maluku Tenggara, Maluku","Kabupaten Maluku Tenggara, Maluku",MALUKU,,Indonesia,81343083856.0,-5.6305661,132.6689339,https://maps.google.com/?cid=0x0:0x395f4446208940e7
hotel,Tujuan Wisata,Pantai Ngurbloat Desa Ngilngof - Kei Islands,"Ngurbloat, Kabupaten Maluku Tenggara, Maluku","Kabupaten Maluku Tenggara, Maluku",MALUKU,,Indonesia,811477719.0,-5.6624981,132.6362396,https://maps.google.com/?cid=0x0:0xd3a4a88054e326f
hotel,Tujuan Wisata,Bukit Tatanggo,"P3XM+FV, Namlea, Kec. Namlea, Kabupaten Buru, Maluku","Kabupaten Buru, Maluku",MALUKU,,Indonesia,,-3.2513058,127.084644,https://maps.google.com/?cid=0x0:0xea5427534d4819ed
hotel,hotel,Grand Sarah Hotel,"Jl. Jenderal Ahmad Yani No.18, Namlea, Kec. Namlea, Kabupaten Buru, Maluku 97571","Namlea, Kec. Namlea, Kabupaten Buru",MALUKU,97571.0,Indonesia,91321533.0,-3.2749299,127.0968531,https://maps.google.com/?cid=0x0:0x11d0f9858d026afc
hotel,Hotel,Penginapan Rahmin,"Namlea, Kec. Namlea, Kabupaten Buru, Maluku","Kabupaten Buru, Maluku",MALUKU,,Indonesia,,-3.2619213,127.0890089,https://maps.google.com/?cid=0x0:0x7c8ecd12e7023b9b
hotel,hotel,,,,MALUKU,,Indonesia,,,,https://maps.google.com/?cid=0x0:0x602282c2fc284226%7C/g/11bc7s8rt9%7Cid-ID
hotel,hotel,Hotel Grand Vilia,"Jl. Telaver No.1, Langgur, Kec. Kei Kecil, Kabupaten Maluku Tenggara, Maluku","Kabupaten Maluku Tenggara, Maluku",MALUKU,,Indonesia,82197830643.0,-5.6704304,132.7377086,https://maps.google.com/?cid=0x0:0x602282c2fc284226
hotel,hotel,SURYA INN,"Jl. Pelita, Langgur, Kec. Kei Kecil, Kabupaten Maluku Tenggara, Maluku","Kabupaten Maluku Tenggara, Maluku",MALUKU,,Indonesia,81281425505.0,-5.6538155,132.7347042,https://maps.google.com/?cid=0x0:0xb0a10184948650b8
hotel,Tujuan Wisata,Pantai Ngurbloat Desa Ngilngof - Kei Islands,"Ngurbloat, Kabupaten Maluku Tenggara, Maluku","Kabupaten Maluku Tenggara, Maluku",MALUKU,,Indonesia,811477719.0,-5.6624981,132.6362396,https://maps.google.com/?cid=0x0:0xd3a4a88054e326f
hotel,hotel,Maluku Resort and Spa,"Jl Waititiri, Suli, Salahutu, Central Maluku Regency, Maluku 97582","Suli, Salahutu, Central Maluku Regency",MALUKU,97582.0,Indonesia,911361970.0,-3.6167962,128.2776551,https://maps.google.com/?cid=0x0:0x399bf62f92df6277
hotel,hotel,OYO 2269 Hotel Astika,"Halong, Kec. Baguala, Kota Ambon, Maluku","Kota Ambon, Maluku",MALUKU,,Indonesia,2129707601.0,-3.6533403,128.2275694,https://maps.google.com/?cid=0x0:0x2de1696cd317ad2b
hotel,hotel,OYO 1629 Nadine's Home,"I, Laksdya, Passo, Baguala, Kota Ambon, Maluku 97232","Laksdya, Passo, Baguala, Kota Ambon",MALUKU,97232.0,Indonesia,2129707601.0,-3.631656,128.25215,https://maps.google.com/?cid=0x0:0x8480353ccaaa5734
hotel,hotel,Casa Felice by Reccoma,"97M5+HG9, Sisingamangaraja, Passo, Kec. Baguala, Kota Ambon, Maluku 97232","Sisingamangaraja, Passo, Kec. Baguala, Kota Ambon",MALUKU,97232.0,Indonesia,9113687438.0,-3.6170196,128.2580921,https://maps.google.com/?cid=0x0:0x1133739d00390611
hotel,hotel,TOISAPU GUEST HOUSE,"87XM+4Q3, Jl. Dr. Wem Tehupeiory, Hutumuri, Kec. Leitimur Sel., Kota Ambon, Maluku","Kota Ambon, Maluku",MALUKU,,Indonesia,2180629666.0,-3.6504326,128.2823051,https://maps.google.com/?cid=0x0:0x7e1f4ba6c3473d07
hotel,hotel,Baguala Beach,"97MH+63G, Suli, Kec. Salahutu, Kabupaten Maluku Tengah, Maluku","Kabupaten Maluku Tengah, Maluku",MALUKU,,Indonesia,81259490022.0,-3.6169452,128.2777185,https://maps.google.com/?cid=0x0:0x632f2cf306fa3e94
hotel,hotel,Holiday Inn Hotel,"97MF+5FH, Sisingamangaraja, Passo, Kec. Baguala, Kota Ambon, Maluku 97232","Sisingamangaraja, Passo, Kec. Baguala, Kota Ambon",MALUKU,97232.0,Indonesia,911361406.0,-3.6170601,128.2737232,https://maps.google.com/?cid=0x0:0x4a4bdaf82201c25f
hotel,hotel,OYO 2221 Masoya Cottage Amboina,"Jl. Dr. J. Leimena, Poka, Kec. Tlk. Ambon, Kota Ambon, Maluku 97233","Poka, Kec. Tlk. Ambon, Kota Ambon",MALUKU,97233.0,Indonesia,2129707601.0,-3.6510707,128.1960189,https://maps.google.com/?cid=0x0:0x92ea2daa96082bb5
hotel,hotel,Pantai Natsepa,"Suli, Kec. Salahutu, Kabupaten Maluku Tengah, Maluku","Kabupaten Maluku Tengah, Maluku",MALUKU,,Indonesia,,-3.6215465,128.2921198,https://maps.google.com/?cid=0x0:0x4f23bfbc3a9673f2
hotel,hotel,Mulu Marriott Resort  Spa,"Sungai Melinau, 98008 Mulu, Sarawak, Malaysia",Mulu,MALUKU,98008.0,Indonesia,6085792388.0,4.0301015,114.7996731,https://maps.google.com/?cid=0x0:0xe43ab40df08cba38
restaurant,restaurant,Tanimbar Sel.,"Kab. Kepulauan Tanimbar, Maluku","Kab. Kepulauan Tanimbar, Maluku",MALUKU,,Indonesia,,-7.941769,131.2205911,https://maps.google.com/?cid=0x0:0x2fbf1b925d6dba13
restaurant,Indonesia,Nanam Saumlaki,"Ruko Omele Baru Blok B - No.1, Maluku 97471","Kab. Kepulauan Tanimbar, Maluku",MALUKU,,Indonesia,85242622230.0,-7.9583278,131.3103404,https://maps.google.com/?cid=0x0:0x636a50d9d2f344cf
restaurant,Hidangan Laut,Dinar Seafood Restaurant,"Jl. Mathilda Batlayeri No.12, Olilit, Tanimbar Sel., Saumlaki, Maluku 97464","Olilit, Tanimbar Sel., Saumlaki",MALUKU,97464.0,Indonesia,,-7.9818828,131.2964362,https://maps.google.com/?cid=0x0:0xd3b0f1f525b112a5
restaurant,Restoran,3 KOKI,"Jl. Ir. Soekarno, Olilit, Tanimbar Sel., Kab. Kepulauan Tanimbar, Maluku","Kab. Kepulauan Tanimbar, Maluku",MALUKU,,Indonesia,82198603600.0,-7.9790336,131.3085797,https://maps.google.com/?cid=0x0:0xf4b360d52fb257bb
restaurant,Indonesia,Warung Sari Laut,"278V+J87, Olilit, Tanimbar Sel., Kab. Kepulauan Tanimbar, Maluku","Kab. Kepulauan Tanimbar, Maluku",MALUKU,,Indonesia,,-7.9834556,131.2932897,https://maps.google.com/?cid=0x0:0xec4d96711ee89d19
restaurant,Restoran,RUMAH MAKAN RIZKY,"278V+WQ5, Jl. Yos Sudarso, Olilit, Tanimbar Sel., Kab. Kepulauan Tanimbar, Maluku","Kab. Kepulauan Tanimbar, Maluku",MALUKU,,Indonesia,,-7.9827376,131.29447,https://maps.google.com/?cid=0x0:0xc2a5055ccec2f220
restaurant,Bakso,Istana Bakso Saumlaki,"Jl Fenanlampir, Sifnana, Tanimbar Sel., Kab. Kepulauan Tanimbar, Maluku 97464","Sifnana, Tanimbar Sel., Kab. Kepulauan Tanimbar",MALUKU,97464.0,Indonesia,85231213623.0,-7.9593426,131.3130666,https://maps.google.com/?cid=0x0:0xb2dc66efc442ac4d
restaurant,Indonesia,Buritan Cafe,"28G5+W9F, Saumlaki, Tanimbar Sel., Kab. Kepulauan Tanimbar, Maluku","Kab. Kepulauan Tanimbar, Maluku",MALUKU,,Indonesia,,-7.9726794,131.3084082,https://maps.google.com/?cid=0x0:0xd75463b3c2c9a48a
restaurant,Hidangan Laut,Rumah Makan Bang Sogol,"Olilit, Tanimbar Sel., Kab. Kepulauan Tanimbar, Maluku","Kab. Kepulauan Tanimbar, Maluku",MALUKU,,Indonesia,,-7.9830814,131.2965879,https://maps.google.com/?cid=0x0:0xc1929939eaf3375e
restaurant,Brunch,Depot Rasa,"27CX+CCV, Olilit, Tanimbar Sel., Kab. Kepulauan Tanimbar, Maluku","Kab. Kepulauan Tanimbar, Maluku",MALUKU,,Indonesia,81374759980.0,-7.9789745,131.2980436,https://maps.google.com/?cid=0x0:0xbe3a61f304240c41
restaurant,Restoran,WARUNG MAKAN MBAK TUTIK,"Olilit, Tanimbar Sel., Kab. Kepulauan Tanimbar, Maluku","Kab. Kepulauan Tanimbar, Maluku",MALUKU,,Indonesia,82199284709.0,-7.983334,131.2926872,https://maps.google.com/?cid=0x0:0x8d45bef3678012e6
restaurant,restaurant,Soto Mak Nur,"28R7+762, Sifnana, Tanimbar Sel., Kab. Kepulauan Tanimbar, Maluku","Kab. Kepulauan Tanimbar, Maluku",MALUKU,,Indonesia,,-7.9593484,131.3129614,https://maps.google.com/?cid=0x0:0xbd338828f5cf9950
restaurant,Restoran,Master Kitchen Rumah Makan,"Jl. Mathilda Batlayeri, Sifnana, Tanimbar Sel., Kab. Kepulauan Tanimbar, Maluku","Kab. Kepulauan Tanimbar, Maluku",MALUKU,,Indonesia,85243267514.0,-7.9562625,131.3080393,https://maps.google.com/?cid=0x0:0x48f7e87cf077c821
restaurant,Indonesia,Enang Maria Restaurant,"Jl. Mathilda Batlayeri No.3, Saumlaki, Tanimbar Sel., Kab. Kepulauan Tanimbar, Maluku","Kab. Kepulauan Tanimbar, Maluku",MALUKU,,Indonesia,82238802525.0,-7.968616,131.3039876,https://maps.google.com/?cid=0x0:0xf36259465dc4a40c
restaurant,restaurant,Kec. Selaru,"Kab. Kepulauan Tanimbar, Maluku","Kab. Kepulauan Tanimbar, Maluku",MALUKU,,Indonesia,,-8.1318821,131.1133407,https://maps.google.com/?cid=0x0:0x21fc7f5cc6364753
restaurant,Restoran,RUMAH MAKAN DAMAI,"V497+58G, Jl. Lain, Adaut, Kec. Selaru, Kab. Kepulauan Tanimbar, Maluku","Kab. Kepulauan Tanimbar, Maluku",MALUKU,,Indonesia,81247148761.0,-8.132175,131.1132983,https://maps.google.com/?cid=0x0:0x90e5d41d917e9cec
restaurant,Restoran,Rumah Makan Anugerah,"V497+V6H, Adaut, Kec. Selaru, Kab. Kepulauan Tanimbar, Maluku","Kab. Kepulauan Tanimbar, Maluku",MALUKU,,Indonesia,,-8.1303034,131.1131145,https://maps.google.com/?cid=0x0:0x4045fb20affba19e
restaurant,restaurant,Kec. Wer Maktian,"Kab. Kepulauan Tanimbar, Maluku","Kab. Kepulauan Tanimbar, Maluku",MALUKU,,Indonesia,,-7.6851092,131.1322161,https://maps.google.com/?cid=0x0:0xd6cd550965163a24
restaurant,Restoran,Master Kitchen Rumah Makan,"Jl. Mathilda Batlayeri, Sifnana, Tanimbar Sel., Kab. Kepulauan Tanimbar, Maluku","Kab. Kepulauan Tanimbar, Maluku",MALUKU,,Indonesia,85243267514.0,-7.9562625,131.3080393,https://maps.google.com/?cid=0x0:0x48f7e87cf077c821
restaurant,Restoran,warung solo,"Ilngei, Tanimbar Sel., Kab. Kepulauan Tanimbar, Maluku 97471","Tanimbar Sel., Kab. Kepulauan Tanimbar",MALUKU,97471.0,Indonesia,81264837387.0,-7.8574688,131.2832122,https://maps.google.com/?cid=0x0:0xe87d3fa6144f93c9
restaurant,Hidangan Laut,SMORGAN Resto,"PXJV+JGQ, Jl. Pemerintahan, depan KODIM, Halut, Mkcm, Tobelo, North Halmahera Regency, North Maluku","Kabupaten Halmahera Utara, Maluku Utara",MALUKU,,Indonesia,85201115150.0,1.7315784,127.9938588,https://maps.google.com/?cid=0x0:0xd45d6fcd651f0c5c
restaurant,Indonesia,WARUNG MAKAN SHALOM,"Lermatang, Tanimbar Sel., Kab. Kepulauan Tanimbar, Maluku","Kab. Kepulauan Tanimbar, Maluku",MALUKU,,Indonesia,,-8.005392,131.2307845,https://maps.google.com/?cid=0x0:0xbb9f890a5c8a8fb6
restaurant,Indonesia,Warung Albanam,"48WJ+4H, Tumbur, Wer Tamrian, Kab. Kepulauan Tanimbar, Maluku","Kab. Kepulauan Tanimbar, Maluku",MALUKU,,Indonesia,,-7.8542115,131.3319287,https://maps.google.com/?cid=0x0:0xcc9d951ca634bfc1
restaurant,Nasi,WARUNG SOLO 2,"SAMPING PEREMPATAN LAURAN (BATALYON, JALAN POROS, Lauran, Maluku 97464","JALAN POROS, Lauran",MALUKU,97464.0,Indonesia,81264837387.0,-7.9286111,131.3150829,https://maps.google.com/?cid=0x0:0x5d5c6b8fd77d1255
restaurant,restaurant,Paul enus,"82MM+R54, Rumah Salut, Kec. Wer Maktian, Kab. Kepulauan Tanimbar, Maluku","Kab. Kepulauan Tanimbar, Maluku",MALUKU,,Indonesia,,-7.6655839,131.0330804,https://maps.google.com/?cid=0x0:0x851b4ee51119d427
restaurant,Sekolah menengah,SMP NEGERI 1 WERMAKTIAN,"82MM+RQM, Unnamed Road, Rumah Salut, Kec. Wer Maktian, Kab. Kepulauan Tanimbar, Maluku","Kab. Kepulauan Tanimbar, Maluku",MALUKU,,Indonesia,82198283339.0,-7.6654005,131.0344207,https://maps.google.com/?cid=0x0:0x969edc94ba53c8e0
restaurant,restaurant,Wer Tamrian,"Kab. Kepulauan Tanimbar, Maluku","Kab. Kepulauan Tanimbar, Maluku",MALUKU,,Indonesia,,-7.7661937,131.401196,https://maps.google.com/?cid=0x0:0xaded055189834b4b
restaurant,Hidangan Laut,Dinar Seafood Restaurant,"Jl. Mathilda Batlayeri No.12, Olilit, Tanimbar Sel., Saumlaki, Maluku 97464","Olilit, Tanimbar Sel., Saumlaki",MALUKU,97464.0,Indonesia,,-7.9818828,131.2964362,https://maps.google.com/?cid=0x0:0xd3b0f1f525b112a5
restaurant,Indonesia,Nanam Saumlaki,"Ruko Omele Baru Blok B - No.1, Maluku 97471","Kab. Kepulauan Tanimbar, Maluku",MALUKU,,Indonesia,85242622230.0,-7.9583278,131.3103404,https://maps.google.com/?cid=0x0:0x636a50d9d2f344cf
restaurant,Indonesia,Warung Sari Laut,"278V+J87, Olilit, Tanimbar Sel., Kab. Kepulauan Tanimbar, Maluku","Kab. Kepulauan Tanimbar, Maluku",MALUKU,,Indonesia,,-7.9834556,131.2932897,https://maps.google.com/?cid=0x0:0xec4d96711ee89d19
restaurant,Restoran,3 KOKI,"Jl. Ir. Soekarno, Olilit, Tanimbar Sel., Kab. Kepulauan Tanimbar, Maluku","Kab. Kepulauan Tanimbar, Maluku",MALUKU,,Indonesia,82198603600.0,-7.9790336,131.3085797,https://maps.google.com/?cid=0x0:0xf4b360d52fb257bb
restaurant,Indonesia,Enang Maria Restaurant,"Jl. Mathilda Batlayeri No.3, Saumlaki, Tanimbar Sel., Kab. Kepulauan Tanimbar, Maluku","Kab. Kepulauan Tanimbar, Maluku",MALUKU,,Indonesia,82238802525.0,-7.968616,131.3039876,https://maps.google.com/?cid=0x0:0xf36259465dc4a40c
restaurant,Brunch,Depot Rasa,"27CX+CCV, Olilit, Tanimbar Sel., Kab. Kepulauan Tanimbar, Maluku","Kab. Kepulauan Tanimbar, Maluku",MALUKU,,Indonesia,81374759980.0,-7.9789745,131.2980436,https://maps.google.com/?cid=0x0:0xbe3a61f304240c41
restaurant,Indonesia,Warung Albanam,"48WJ+4H, Tumbur, Wer Tamrian, Kab. Kepulauan Tanimbar, Maluku","Kab. Kepulauan Tanimbar, Maluku",MALUKU,,Indonesia,,-7.8542115,131.3319287,https://maps.google.com/?cid=0x0:0xcc9d951ca634bfc1
restaurant,Sesuai untuk keluarga,Daeng kuliner saumlaki,"depan JT, Jl, Sifnana, Tanimbar Sel., Kab. Kepulauan Tanimbar, Maluku","Kab. Kepulauan Tanimbar, Maluku",MALUKU,,Indonesia,82237188217.0,-7.9589361,131.3102835,https://maps.google.com/?cid=0x0:0xa3f81a69774b677e
restaurant,Indonesia,Buritan Cafe,"28G5+W9F, Saumlaki, Tanimbar Sel., Kab. Kepulauan Tanimbar, Maluku","Kab. Kepulauan Tanimbar, Maluku",MALUKU,,Indonesia,,-7.9726794,131.3084082,https://maps.google.com/?cid=0x0:0xd75463b3c2c9a48a
restaurant,Restoran,warung solo,"Ilngei, Tanimbar Sel., Kab. Kepulauan Tanimbar, Maluku 97471","Tanimbar Sel., Kab. Kepulauan Tanimbar",MALUKU,97471.0,Indonesia,81264837387.0,-7.8574688,131.2832122,https://maps.google.com/?cid=0x0:0xe87d3fa6144f93c9
restaurant,Restoran,Rumah Makan Batu Merah,"2862+XPV, Olilit, Tanimbar Sel., Kab. Kepulauan Tanimbar, Maluku","Kab. Kepulauan Tanimbar, Maluku",MALUKU,,Indonesia,82199140205.0,-7.9875189,131.3017882,https://maps.google.com/?cid=0x0:0x4a04e416aba7afe9
restaurant,Indonesia,Wr. Makan Mbak RIRI,"28V5+4W7, Sifnana, Tanimbar Sel., Kab. Kepulauan Tanimbar, Maluku","Kab. Kepulauan Tanimbar, Maluku",MALUKU,,Indonesia,82236672480.0,-7.9572082,131.3097865,https://maps.google.com/?cid=0x0:0x32400c121c2c23ae
restaurant,Restoran,Lewier Rumah Makan,"28W7+38J, JL Sifnana, Saumlaki, Tanimbar Sel., Kab. Kepulauan Tanimbar, Maluku","Kab. Kepulauan Tanimbar, Maluku",MALUKU,,Indonesia,91821468.0,-7.95478,131.31326,https://maps.google.com/?cid=0x0:0xa985be710c5947a3
restaurant,restaurant,Kec. Tanimbar Utara,"Kab. Kepulauan Tanimbar, Maluku","Kab. Kepulauan Tanimbar, Maluku",MALUKU,,Indonesia,,-7.1551532,131.7188169,https://maps.google.com/?cid=0x0:0xf9f74771470cd070
restaurant,Inspektur Tempat Tinggal,RM IRMHA 2,"RPW7+2MM, Ritabel, Kec. Tanimbar Utara, Kab. Kepulauan Tanimbar, Maluku","Kab. Kepulauan Tanimbar, Maluku",MALUKU,,Indonesia,,-7.1550199,131.7142687,https://maps.google.com/?cid=0x0:0xeef0f7ae8465bc9b
restaurant,restaurant,The LA CAFE,"VP2G+FJ6, Ridool, Kec. Tanimbar Utara, Kab. Kepulauan Tanimbar, Maluku","Kab. Kepulauan Tanimbar, Maluku",MALUKU,,Indonesia,81332443758.0,-7.148825,131.7265179,https://maps.google.com/?cid=0x0:0xf945aa80a008a6
restaurant,Restoran,WARUNG MAKAN MBAK TUTIK,"Olilit, Tanimbar Sel., Kab. Kepulauan Tanimbar, Maluku","Kab. Kepulauan Tanimbar, Maluku",MALUKU,,Indonesia,82199284709.0,-7.983334,131.2926872,https://maps.google.com/?cid=0x0:0x8d45bef3678012e6
restaurant,Restoran,3 KOKI,"Jl. Ir. Soekarno, Olilit, Tanimbar Sel., Kab. Kepulauan Tanimbar, Maluku","Kab. Kepulauan Tanimbar, Maluku",MALUKU,,Indonesia,82198603600.0,-7.9790336,131.3085797,https://maps.google.com/?cid=0x0:0xf4b360d52fb257bb
restaurant,restaurant,Queen Resto,"RPM9+J2G, Jl. Raya Arma-Siwahan, Lelingluan, Kec. Tanimbar Utara, Kab. Kepulauan Tanimbar, Maluku","Kab. Kepulauan Tanimbar, Maluku",MALUKU,,Indonesia,,-7.1659473,131.7175912,https://maps.google.com/?cid=0x0:0x32410015ff84e16c
restaurant,Restoran,RUMAH MAKAN RIZKY,"278V+WQ5, Jl. Yos Sudarso, Olilit, Tanimbar Sel., Kab. Kepulauan Tanimbar, Maluku","Kab. Kepulauan Tanimbar, Maluku",MALUKU,,Indonesia,,-7.9827376,131.29447,https://maps.google.com/?cid=0x0:0xc2a5055ccec2f220
restaurant,restaurant,Ice Boba Marel Tanimbar,"RPV9+P74, Ritabel, Kec. Tanimbar Utara, Kab. Kepulauan Tanimbar, Maluku","Kab. Kepulauan Tanimbar, Maluku",MALUKU,,Indonesia,82190476094.0,-7.1557307,131.7182102,https://maps.google.com/?cid=0x0:0x960cfddf892a6b15
restaurant,restaurant,RUMAH MAKAN BUTON,"RPW7+4J5, Unnamed Road, Ritabel, Kec. Tanimbar Utara, Kab. Kepulauan Tanimbar, Maluku","Kab. Kepulauan Tanimbar, Maluku",MALUKU,,Indonesia,,-7.1547421,131.7140958,https://maps.google.com/?cid=0x0:0xb0277f85993d1c95
restaurant,Indonesia,Buritan Cafe,"28G5+W9F, Saumlaki, Tanimbar Sel., Kab. Kepulauan Tanimbar, Maluku","Kab. Kepulauan Tanimbar, Maluku",MALUKU,,Indonesia,,-7.9726794,131.3084082,https://maps.google.com/?cid=0x0:0xd75463b3c2c9a48a
restaurant,Hidangan Laut,SMORGAN Resto,"PXJV+JGQ, Jl. Pemerintahan, depan KODIM, Halut, Mkcm, Tobelo, North Halmahera Regency, North Maluku","Kabupaten Halmahera Utara, Maluku Utara",MALUKU,,Indonesia,85201115150.0,1.7315784,127.9938588,https://maps.google.com/?cid=0x0:0xd45d6fcd651f0c5c
restaurant,Ikan Bakar,RM BAROKAH,"P2G6+X28, Gamsungi, Kec. Tobelo, Kabupaten Halmahera Utara, Maluku Utara","Kabupaten Halmahera Utara, Maluku Utara",MALUKU,,Indonesia,81358136596.0,1.7274061,128.0100728,https://maps.google.com/?cid=0x0:0xb2377d6ce96e910c
restaurant,restaurant,,,,MALUKU,,Indonesia,,,,https://maps.google.com/?cid=0x0:0xc0d86a38f854b831u0026onu003dNasi+Giuru0026midu003d/g/11twmy00f4
restaurant,restaurant,,,,MALUKU,,Indonesia,,,,https://maps.google.com/?cid=0x0:0xc0d86a38f854b831u0026onu003dButter+Prawn+Bisque+Pastau0026midu003d/g/11twmy00f4
restaurant,restaurant,,,,MALUKU,,Indonesia,,,,https://maps.google.com/?cid=0x0:0xc0d86a38f854b831u0026onu003dNasi+Goreng+Roau0026midu003d/g/11twmy00f4
restaurant,Jepang,Giur Bistro,"Jl. Aria Jipang No.1, RW.3, Citarum, Kec. Bandung Wetan, Kota Bandung, Jawa Barat 40115","RW.3, Citarum, Kec. Bandung Wetan, Kota Bandung",MALUKU,40115.0,Indonesia,224241981.0,-6.9003555,107.6150184,https://maps.google.com/?cid=0x0:0xc0d86a38f854b831
restaurant,restaurant,,,,MALUKU,,Indonesia,,,,https://maps.google.com/?cid=0x0:0xc0d86a38f854b831u0026onu003dLamb+Chopu0026midu003d/g/11twmy00f4
restaurant,restaurant,,,,MALUKU,,Indonesia,,,,https://maps.google.com/?cid=0x0:0xc0d86a38f854b831u0026onu003dRigatoni+Gratinu0026midu003d/g/11twmy00f4
restaurant,restaurant,,,,MALUKU,,Indonesia,,,,https://maps.google.com/?cid=0x0:0xc0d86a38f854b831u0026onu003dPeriwangu0026midu003d/g/11twmy00f4
restaurant,restaurant,,,,MALUKU,,Indonesia,,,,https://maps.google.com/?cid=0x0:0xc0d86a38f854b831u0026onu003dTom+Laksa+Giuru0026midu003d/g/11twmy00f4
restaurant,restaurant,,,,MALUKU,,Indonesia,,,,https://maps.google.com/?cid=0x0:0xc0d86a38f854b831u0026onu003dSate+Dagingu0026midu003d/g/11twmy00f4
restaurant,restaurant,,,,MALUKU,,Indonesia,,,,https://maps.google.com/?cid=0x0:0xc0d86a38f854b831u0026onu003dPrawn+Burgeru0026midu003d/g/11twmy00f4
restaurant,restaurant,,,,MALUKU,,Indonesia,,,,https://maps.google.com/?cid=0x0:0xc0d86a38f854b831u0026onu003dNasi+Dipau0026midu003d/g/11twmy00f4
restaurant,restaurant,,,,MALUKU,,Indonesia,,,,https://maps.google.com/?cid=0x0:0xc0d86a38f854b831u0026onu003dCaffe+Latteu0026midu003d/g/11twmy00f4
restaurant,Restoran,3 KOKI,"Jl. Ir. Soekarno, Olilit, Tanimbar Sel., Kab. Kepulauan Tanimbar, Maluku","Kab. Kepulauan Tanimbar, Maluku",MALUKU,,Indonesia,82198603600.0,-7.9790336,131.3085797,https://maps.google.com/?cid=0x0:0xf4b360d52fb257bb
restaurant,restaurant,Kec. Wuar Labobar,"Kab. Kepulauan Tanimbar, Maluku","Kab. Kepulauan Tanimbar, Maluku",MALUKU,,Indonesia,,-7.3440201,131.4304567,https://maps.google.com/?cid=0x0:0xff00056926ab874a
restaurant,restaurant,The LA CAFE,"VP2G+FJ6, Ridool, Kec. Tanimbar Utara, Kab. Kepulauan Tanimbar, Maluku","Kab. Kepulauan Tanimbar, Maluku",MALUKU,,Indonesia,81332443758.0,-7.148825,131.7265179,https://maps.google.com/?cid=0x0:0xf945aa80a008a6
restaurant,Hidangan Laut,SMORGAN Resto,"PXJV+JGQ, Jl. Pemerintahan, depan KODIM, Halut, Mkcm, Tobelo, North Halmahera Regency, North Maluku","Kabupaten Halmahera Utara, Maluku Utara",MALUKU,,Indonesia,85201115150.0,1.7315784,127.9938588,https://maps.google.com/?cid=0x0:0xd45d6fcd651f0c5c
restaurant,Restoran,RM MELBUKRANIN,"9JVH+WXH, Lumasebu, Kec. Kormomolin, Kab. Kepulauan Tanimbar, Maluku","Kab. Kepulauan Tanimbar, Maluku",MALUKU,,Indonesia,85712018952.0,-7.6051809,131.6299889,https://maps.google.com/?cid=0x0:0x548159323ca5d4e6
restaurant,Restoran,Wailela Cafe and Resto | Ambon,"Jl. Kampus, Rumah Tiga, Kec. Tlk. Ambon, Kota Ambon, Maluku","Kota Ambon, Maluku",MALUKU,,Indonesia,82399522113.0,-3.6610624,128.180609,https://maps.google.com/?cid=0x0:0x3acbc85ce4ef2d6d
restaurant,Hidangan Laut,Lateri Beach Restaurant,"Lateri, Kec. Baguala, Kota Ambon, Maluku","Kota Ambon, Maluku",MALUKU,,Indonesia,81240783897.0,-3.6479651,128.2330484,https://maps.google.com/?cid=0x0:0x17f2f5444327987a
restaurant,Kantor Pemerintahan Wilayah,Polsek Wuarlabobar,"MCJR+C5, Wunlah, Kec. Wuar Labobar, Kab. Kepulauan Tanimbar, Maluku","Kab. Kepulauan Tanimbar, Maluku",MALUKU,,Indonesia,,-7.3188997,131.4404032,https://maps.google.com/?cid=0x0:0x798c92dcffb70517
restaurant,China,Red Star Resto (Function Hall),"Jl. Arnold Mononutu No.85, Tanah Raja, Kec. Ternate Tengah, Kota Ternate, Maluku Utara 97713","Tanah Raja, Kec. Ternate Tengah, Kota Ternate",MALUKU,97713.0,Indonesia,81999113812.0,0.7854298,127.3854988,https://maps.google.com/?cid=0x0:0x7f7eef90663c8a2f
restaurant,restaurant,Ayam Geprek,"RPV7+XH9, Ritabel, Kec. Tanimbar Utara, Kab. Kepulauan Tanimbar, Maluku","Kab. Kepulauan Tanimbar, Maluku",MALUKU,,Indonesia,,-7.1555244,131.7143253,https://maps.google.com/?cid=0x0:0xe2bb3943643086c7
restaurant,restaurant,THE CAFE BONG 21 SEAFOOD (KKB21),"Jalan Lorong Surya No.mor 49, Saumlaki, Kab. Kepulauan Tanimbar, 97664",Saumlaki,MALUKU,97664.0,Indonesia,82199988990.0,-7.5124693,131.704751,https://maps.google.com/?cid=0x0:0xe1748c7af072d7cc
restaurant,restaurant,RUMAH MAKAN BUTON,"RPW7+4J5, Unnamed Road, Ritabel, Kec. Tanimbar Utara, Kab. Kepulauan Tanimbar, Maluku","Kab. Kepulauan Tanimbar, Maluku",MALUKU,,Indonesia,,-7.1547421,131.7140958,https://maps.google.com/?cid=0x0:0xb0277f85993d1c95
restaurant,restaurant,Queen Resto,"RPM9+J2G, Jl. Raya Arma-Siwahan, Lelingluan, Kec. Tanimbar Utara, Kab. Kepulauan Tanimbar, Maluku","Kab. Kepulauan Tanimbar, Maluku",MALUKU,,Indonesia,,-7.1659473,131.7175912,https://maps.google.com/?cid=0x0:0x32410015ff84e16c
restaurant,restaurant,Ice Boba Marel Tanimbar,"RPV9+P74, Ritabel, Kec. Tanimbar Utara, Kab. Kepulauan Tanimbar, Maluku","Kab. Kepulauan Tanimbar, Maluku",MALUKU,,Indonesia,82190476094.0,-7.1557307,131.7182102,https://maps.google.com/?cid=0x0:0x960cfddf892a6b15
restaurant,Restoran,RM MELBUKRANIN,"9JVH+WXH, Lumasebu, Kec. Kormomolin, Kab. Kepulauan Tanimbar, Maluku","Kab. Kepulauan Tanimbar, Maluku",MALUKU,,Indonesia,85712018952.0,-7.6051809,131.6299889,https://maps.google.com/?cid=0x0:0x548159323ca5d4e6
restaurant,Indonesia,Rumah'makan karunia,"2882+C8Q, Olilit, Tanimbar Sel., Kab. Kepulauan Tanimbar, Maluku","Kab. Kepulauan Tanimbar, Maluku",MALUKU,,Indonesia,,-7.9838011,131.301417,https://maps.google.com/?cid=0x0:0x62fa205ef8755694
restaurant,Padang,Waroeng Sambal Bakar Namlea,"Jl. H.M. Husnie Hentihu, Namlea, Kec. Namlea, Kabupaten Buru, Maluku","Kabupaten Buru, Maluku",MALUKU,,Indonesia,82199045113.0,-3.2711128,127.1077182,https://maps.google.com/?cid=0x0:0x5796579b140049f7
restaurant,restaurant,,,,MALUKU,,Indonesia,,,,https://maps.google.com/?cid=0x0:0xccef20463848c233u0026onu003dIkan+Bakaru0026midu003d/g/11c55r53jy
restaurant,Restoran,"Citra Wangi Resto, Namlea, Buru","Namlea, Kec. Namlea, Kabupaten Buru, Maluku","Kabupaten Buru, Maluku",MALUKU,,Indonesia,85344427488.0,-3.2641228,127.0885197,https://maps.google.com/?cid=0x0:0xccef20463848c233
restaurant,restaurant,,,,MALUKU,,Indonesia,,,,https://maps.google.com/?cid=0x0:0xccef20463848c233u0026onu003dIkan+Rica2u0026midu003d/g/11c55r53jy
restaurant,restaurant,,,,MALUKU,,Indonesia,,,,https://maps.google.com/?cid=0x0:0xccef20463848c233u0026onu003dTempe+Mendoanu0026midu003d/g/11c55r53jy
restaurant,restaurant,,,,MALUKU,,Indonesia,,,,https://maps.google.com/?cid=0x0:0xccef20463848c233u0026onu0026midu003d/g/11c55r53jy
restaurant,restaurant,THE CAFE BONG 21 SEAFOOD (KKB21),"Jalan Lorong Surya No.mor 49, Saumlaki, Kab. Kepulauan Tanimbar, 97664",Saumlaki,MALUKU,97664.0,Indonesia,82199988990.0,-7.5124693,131.704751,https://maps.google.com/?cid=0x0:0xe1748c7af072d7cc
restaurant,restaurant,Kec. Molu Maru,"Kab. Kepulauan Tanimbar, Maluku","Kab. Kepulauan Tanimbar, Maluku",MALUKU,,Indonesia,,-6.7063732,131.5635744,https://maps.google.com/?cid=0x0:0x249d2f0e14e786d1
restaurant,Restoran,3 KOKI,"Jl. Ir. Soekarno, Olilit, Tanimbar Sel., Kab. Kepulauan Tanimbar, Maluku","Kab. Kepulauan Tanimbar, Maluku",MALUKU,,Indonesia,82198603600.0,-7.9790336,131.3085797,https://maps.google.com/?cid=0x0:0xf4b360d52fb257bb
restaurant,restaurant,,,,MALUKU,,Indonesia,,,,https://maps.google.com/?cid=0x0:0xf4b360d52fb257bbu0026onu003dIfu+Mieu0026midu003d/g/11h9bn3mt3
restaurant,Restoran,RUMAH MAKAN RIZKY,"278V+WQ5, Jl. Yos Sudarso, Olilit, Tanimbar Sel., Kab. Kepulauan Tanimbar, Maluku","Kab. Kepulauan Tanimbar, Maluku",MALUKU,,Indonesia,,-7.9827376,131.29447,https://maps.google.com/?cid=0x0:0xc2a5055ccec2f220
restaurant,restaurant,,,,MALUKU,,Indonesia,,,,https://maps.google.com/?cid=0x0:0xf4b360d52fb257bbu0026onu003dSapo+Tahu+Hotplateu0026midu003d/g/11h9bn3mt3
restaurant,restaurant,,,,MALUKU,,Indonesia,,,,https://maps.google.com/?cid=0x0:0xf4b360d52fb257bbu0026onu003dEs+Leciu0026midu003d/g/11h9bn3mt3
restaurant,restaurant,,,,MALUKU,,Indonesia,,,,https://maps.google.com/?cid=0x0:0xf4b360d52fb257bbu0026onu003dTempe+Gorengu0026midu003d/g/11h9bn3mt3
restaurant,restaurant,,,,MALUKU,,Indonesia,,,,https://maps.google.com/?cid=0x0:0xf4b360d52fb257bbu0026onu003dSapo+Tahu+Tahu+Cabe+Garam+Taoge+Ikan+Asin+Ayam+Mentegau0026midu003d/g/11h9bn3mt3
restaurant,restaurant,,,,MALUKU,,Indonesia,,,,https://maps.google.com/?cid=0x0:0xf4b360d52fb257bbu0026onu003dAyam+Bakar+3+Kokiu0026midu003d/g/11h9bn3mt3
restaurant,restaurant,,,,MALUKU,,Indonesia,,,,https://maps.google.com/?cid=0x0:0xf4b360d52fb257bbu0026onu003dEs+Kuwutu0026midu003d/g/11h9bn3mt3
restaurant,restaurant,,,,MALUKU,,Indonesia,,,,https://maps.google.com/?cid=0x0:0xf4b360d52fb257bbu0026onu003dIkan+Kuah+Kuningu0026midu003d/g/11h9bn3mt3
restaurant,restaurant,,,,MALUKU,,Indonesia,,,,https://maps.google.com/?cid=0x0:0xf4b360d52fb257bbu0026onu003dPapedau0026midu003d/g/11h9bn3mt3
restaurant,restaurant,,,,MALUKU,,Indonesia,,,,https://maps.google.com/?cid=0x0:0xf4b360d52fb257bbu0026onu003dSop+IGA+Sapiu0026midu003d/g/11h9bn3mt3
restaurant,restaurant,,,,MALUKU,,Indonesia,,,,https://maps.google.com/?cid=0x0:0xf4b360d52fb257bbu0026onu003dJus+Gandariau0026midu003d/g/11h9bn3mt3
