Category,Real Category,Business Name,Address,City,State,Postal Code,Country,Phone,Latitude,Longitude,Map Link
toko bangunan,toko bangunan,Tanimbar Sel.,"Kab. Kepulauan Tanimbar, Maluku","Kab. Kepulauan Tanimbar, Maluku",MALUKU,,Indonesia,,-7.941769,131.2205911,https://maps.google.com/?cid=0x0:0x2fbf1b925d6dba13
toko bangunan,Toko Bahan Bangunan,Toko bangunan Al Mubarak,"279W+294, Pasar, Olilit, Tanimbar Sel., Kab. Kepulauan Tanimbar, Maluku","Kab. Kepulauan Tanimbar, Maluku",MALUKU,,Indonesia,8123746174.0,-7.9824933,131.2959625,https://maps.google.com/?cid=0x0:0xd6b97f6e48819bac
toko bangunan,Toko,Toko Cahaya Buton,"Olilit, Tanimbar Sel., Kab. Kepulauan Tanimbar, Maluku","Kab. Kepulauan Tanimbar, Maluku",MALUKU,,Indonesia,82199324920.0,-7.9824365,131.2957106,https://maps.google.com/?cid=0x0:0x70e9a7624be9ac83
toko bangunan,Toko Alat-Alat,Sumber Teknik,"279W+7HX, Olilit, Tanimbar Sel., Kab. Kepulauan Tanimbar, Maluku","Kab. Kepulauan Tanimbar, Maluku",MALUKU,,Indonesia,,-7.9817522,131.2964919,https://maps.google.com/?cid=0x0:0x37fb3228cfa237ef
toko bangunan,Toko Bahan Bangunan,Toko Samy,"28V5+5M8, Sifnana, Tanimbar Sel., Kab. Kepulauan Tanimbar, Maluku","Kab. Kepulauan Tanimbar, Maluku",MALUKU,,Indonesia,,-7.9570839,131.3092097,https://maps.google.com/?cid=0x0:0xcb981476db5d604d
toko bangunan,Toko Kayu,Aldy jaya gybsum,"28Q5+MC2, Sifnana, Tanimbar Sel., Kab. Kepulauan Tanimbar, Maluku","Kab. Kepulauan Tanimbar, Maluku",MALUKU,,Indonesia,,-7.9608191,131.3085143,https://maps.google.com/?cid=0x0:0x8bb750ea4530ebfb
toko bangunan,Pusat Perbelanjaan,Toko Tujuh Serangkai,"Saumlaki, Tanimbar Sel., Kab. Kepulauan Tanimbar, Maluku","Kab. Kepulauan Tanimbar, Maluku",MALUKU,,Indonesia,91821066.0,-7.9831403,131.2959288,https://maps.google.com/?cid=0x0:0x9dd1e3a3e93a6538
toko bangunan,Perhimpunan Pengembang Perumahan,Saumlaki,"2964+CH4, Kab. Kepulauan Tanimbar, Maluku","Kab. Kepulauan Tanimbar, Maluku",MALUKU,,Indonesia,,-7.9889785,131.3564672,https://maps.google.com/?cid=0x0:0x4b1a056b9c710e96
toko bangunan,Minimarket,TOKO AMAL JAYA,"278V+WF6, Olilit, Tanimbar Sel., Kab. Kepulauan Tanimbar, Maluku","Kab. Kepulauan Tanimbar, Maluku",MALUKU,,Indonesia,82199324920.0,-7.9836129,131.2936666,https://maps.google.com/?cid=0x0:0xcb311d7ebcd8c172
toko bangunan,Toko Bahan Bangunan,Ud.elok jaya,"28R5+FMQ, Sifnana, Tanimbar Sel., Kab. Kepulauan Tanimbar, Maluku","Kab. Kepulauan Tanimbar, Maluku",MALUKU,,Indonesia,82398719330.0,-7.958799,131.3092269,https://maps.google.com/?cid=0x0:0x4ebc92b361a6a30e
toko bangunan,toko bangunan,Aneka Teknik,"Ruko Yamdena Plaza, Jl. Mathilda Batlayeri No.11 Blok A No 9, Kecamatan, Tanimbar Sel., Kab. Kepulauan Tanimbar, Maluku 97471","Jl. Mathilda Batlayeri No.11 Blok A No 9, Kecamatan, Tanimbar Sel., Kab. Kepulauan Tanimbar",MALUKU,97471.0,Indonesia,81356537291.0,-7.9825994,131.296232,https://maps.google.com/?cid=0x0:0x6ea3ba9c7a220db5
toko bangunan,Toko Bahan Bangunan,Cv anugerah jaya abadi,"Jl. Mathilda Batlayeri, Saumlaki, Tanimbar Sel., Kab. Kepulauan Tanimbar, Maluku","Kab. Kepulauan Tanimbar, Maluku",MALUKU,,Indonesia,,-7.9832626,131.2961707,https://maps.google.com/?cid=0x0:0x6ed8526f4ce440f3
toko bangunan,Pusat Perbelanjaan,Toko Ramayana,"Olilit, Tanimbar Sel., Kab. Kepulauan Tanimbar, Maluku","Kab. Kepulauan Tanimbar, Maluku",MALUKU,,Indonesia,,-7.9845121,131.3018318,https://maps.google.com/?cid=0x0:0x2aea70a1bb72ca5b
toko bangunan,Toko Bahan Bangunan,Toko Bangunan MITRA TAN,"97MF+8VH NO WA OI54O54249, Suli, Kec. Salahutu, Kabupaten Maluku Tengah, Maluku","Kabupaten Maluku Tengah, Maluku",MALUKU,,Indonesia,81343488879.0,-3.6166875,128.2747344,https://maps.google.com/?cid=0x0:0x55252b65239f9a78
toko bangunan,toko bangunan,Kec. Selaru,"Kab. Kepulauan Tanimbar, Maluku","Kab. Kepulauan Tanimbar, Maluku",MALUKU,,Indonesia,,-8.1318821,131.1133407,https://maps.google.com/?cid=0x0:0x21fc7f5cc6364753
toko bangunan,Toko Bahan Bangunan,TOKO ILHAM,"28R5+VPH, Unnamed Road, Sifnana, Tanimbar Sel., Kab. Kepulauan Tanimbar, Maluku","Kab. Kepulauan Tanimbar, Maluku",MALUKU,,Indonesia,83125236425.0,-7.9578237,131.3093484,https://maps.google.com/?cid=0x0:0xdc8ca2706d30ea1a
toko bangunan,Pusat Perbelanjaan,Toko Tujuh Serangkai,"Saumlaki, Tanimbar Sel., Kab. Kepulauan Tanimbar, Maluku","Kab. Kepulauan Tanimbar, Maluku",MALUKU,,Indonesia,91821066.0,-7.9831403,131.2959288,https://maps.google.com/?cid=0x0:0x9dd1e3a3e93a6538
toko bangunan,Toko Bahan Bangunan,CV. NESSTA AMBON( Cat  Bahan Bangunan ),"86XJ+7HQ, Jl. Wolter Monginsidi, Lateri, Kec. Baguala, Kota Ambon, Maluku 97112","Jl. Wolter Monginsidi, Lateri, Kec. Baguala, Kota Ambon",MALUKU,97112.0,Indonesia,911356394.0,-3.651793,128.231489,https://maps.google.com/?cid=0x0:0x826e5740b2e0ac2f
toko bangunan,Pasar bahan bangunan,Toko Sumber Bangunan,"P2G6+2MM, Gamsungi, Kec. Tobelo, Kabupaten Halmahera Utara, Maluku Utara","Kabupaten Halmahera Utara, Maluku Utara",MALUKU,,Indonesia,9242621455.0,1.7250967,128.0116677,https://maps.google.com/?cid=0x0:0x14835095227102f4
toko bangunan,Minimarket,TOKO AMAL JAYA,"278V+WF6, Olilit, Tanimbar Sel., Kab. Kepulauan Tanimbar, Maluku","Kab. Kepulauan Tanimbar, Maluku",MALUKU,,Indonesia,82199324920.0,-7.9836129,131.2936666,https://maps.google.com/?cid=0x0:0xcb311d7ebcd8c172
toko bangunan,Toko,Toko Cahaya Buton,"Olilit, Tanimbar Sel., Kab. Kepulauan Tanimbar, Maluku","Kab. Kepulauan Tanimbar, Maluku",MALUKU,,Indonesia,82199324920.0,-7.9824365,131.2957106,https://maps.google.com/?cid=0x0:0x70e9a7624be9ac83
toko bangunan,Toko Bahan Bangunan,Toko Bangunan SENTOSA,"P266+52G O.Sasingan, Wosia, Kec. Tobelo Tengah, Kabupaten Halmahera Utara, Maluku Utara","Kabupaten Halmahera Utara, Maluku Utara",MALUKU,,Indonesia,82144648989.0,1.7104491,128.0100684,https://maps.google.com/?cid=0x0:0xe043f9c8ba78bb16
toko bangunan,toko bangunan,Aneka Teknik,"Ruko Yamdena Plaza, Jl. Mathilda Batlayeri No.11 Blok A No 9, Kecamatan, Tanimbar Sel., Kab. Kepulauan Tanimbar, Maluku 97471","Jl. Mathilda Batlayeri No.11 Blok A No 9, Kecamatan, Tanimbar Sel., Kab. Kepulauan Tanimbar",MALUKU,97471.0,Indonesia,81356537291.0,-7.9825994,131.296232,https://maps.google.com/?cid=0x0:0x6ea3ba9c7a220db5
toko bangunan,Toko Bahan Bangunan,TB. Jangkar Majenang,"Jl. Diponegoro No.116, RW.RT.002, Lebaksari, Sindangsari, Kec. Majenang, Kabupaten Cilacap, Jawa Tengah 53257","RW.RT.002, Lebaksari, Sindangsari, Kec. Majenang, Kabupaten Cilacap",MALUKU,53257.0,Indonesia,280621101.0,-7.2988055,108.7658517,https://maps.google.com/?cid=0x0:0xf3f72ccbb2285c88
toko bangunan,Toko Bahan Bangunan,Toko Bangunan SAAHIR,"Jl. Manggis, Cipancur, Jenang, Kec. Majenang, Kabupaten Cilacap, Jawa Tengah 53257","Cipancur, Jenang, Kec. Majenang, Kabupaten Cilacap",MALUKU,53257.0,Indonesia,85281893456.0,-7.3059768,108.7609459,https://maps.google.com/?cid=0x0:0x198a49b77898be93
toko bangunan,Toko Bahan Bangunan,TOKO ILHAM,"28R5+VPH, Unnamed Road, Sifnana, Tanimbar Sel., Kab. Kepulauan Tanimbar, Maluku","Kab. Kepulauan Tanimbar, Maluku",MALUKU,,Indonesia,83125236425.0,-7.9578237,131.3093484,https://maps.google.com/?cid=0x0:0xdc8ca2706d30ea1a
toko bangunan,toko bangunan,Kec. Wer Maktian,"Kab. Kepulauan Tanimbar, Maluku","Kab. Kepulauan Tanimbar, Maluku",MALUKU,,Indonesia,,-7.6851092,131.1322161,https://maps.google.com/?cid=0x0:0xd6cd550965163a24
toko bangunan,Pusat Perbelanjaan,Toko Tujuh Serangkai,"Saumlaki, Tanimbar Sel., Kab. Kepulauan Tanimbar, Maluku","Kab. Kepulauan Tanimbar, Maluku",MALUKU,,Indonesia,91821066.0,-7.9831403,131.2959288,https://maps.google.com/?cid=0x0:0x9dd1e3a3e93a6538
toko bangunan,Toko,Toko Cahaya Buton,"Olilit, Tanimbar Sel., Kab. Kepulauan Tanimbar, Maluku","Kab. Kepulauan Tanimbar, Maluku",MALUKU,,Indonesia,82199324920.0,-7.9824365,131.2957106,https://maps.google.com/?cid=0x0:0x70e9a7624be9ac83
toko bangunan,toko bangunan,Aneka Teknik,"Ruko Yamdena Plaza, Jl. Mathilda Batlayeri No.11 Blok A No 9, Kecamatan, Tanimbar Sel., Kab. Kepulauan Tanimbar, Maluku 97471","Jl. Mathilda Batlayeri No.11 Blok A No 9, Kecamatan, Tanimbar Sel., Kab. Kepulauan Tanimbar",MALUKU,97471.0,Indonesia,81356537291.0,-7.9825994,131.296232,https://maps.google.com/?cid=0x0:0x6ea3ba9c7a220db5
toko bangunan,Sekolah menengah,SMP NEGERI 1 WERMAKTIAN,"82MM+RQM, Unnamed Road, Rumah Salut, Kec. Wer Maktian, Kab. Kepulauan Tanimbar, Maluku","Kab. Kepulauan Tanimbar, Maluku",MALUKU,,Indonesia,82198283339.0,-7.6654005,131.0344207,https://maps.google.com/?cid=0x0:0x969edc94ba53c8e0
toko bangunan,Minimarket,TOKO AMAL JAYA,"278V+WF6, Olilit, Tanimbar Sel., Kab. Kepulauan Tanimbar, Maluku","Kab. Kepulauan Tanimbar, Maluku",MALUKU,,Indonesia,82199324920.0,-7.9836129,131.2936666,https://maps.google.com/?cid=0x0:0xcb311d7ebcd8c172
toko bangunan,toko bangunan,Wer Tamrian,"Kab. Kepulauan Tanimbar, Maluku","Kab. Kepulauan Tanimbar, Maluku",MALUKU,,Indonesia,,-7.7661937,131.401196,https://maps.google.com/?cid=0x0:0xaded055189834b4b
toko bangunan,Toko Bahan Bangunan,Toko bangunan Al Mubarak,"279W+294, Pasar, Olilit, Tanimbar Sel., Kab. Kepulauan Tanimbar, Maluku","Kab. Kepulauan Tanimbar, Maluku",MALUKU,,Indonesia,8123746174.0,-7.9824933,131.2959625,https://maps.google.com/?cid=0x0:0xd6b97f6e48819bac
toko bangunan,Toko Alat-Alat,Sumber Teknik,"279W+7HX, Olilit, Tanimbar Sel., Kab. Kepulauan Tanimbar, Maluku","Kab. Kepulauan Tanimbar, Maluku",MALUKU,,Indonesia,,-7.9817522,131.2964919,https://maps.google.com/?cid=0x0:0x37fb3228cfa237ef
toko bangunan,Pusat Perbelanjaan,Toko Tujuh Serangkai,"Saumlaki, Tanimbar Sel., Kab. Kepulauan Tanimbar, Maluku","Kab. Kepulauan Tanimbar, Maluku",MALUKU,,Indonesia,91821066.0,-7.9831403,131.2959288,https://maps.google.com/?cid=0x0:0x9dd1e3a3e93a6538
toko bangunan,Toko Bahan Bangunan,Toko Samy,"28V5+5M8, Sifnana, Tanimbar Sel., Kab. Kepulauan Tanimbar, Maluku","Kab. Kepulauan Tanimbar, Maluku",MALUKU,,Indonesia,,-7.9570839,131.3092097,https://maps.google.com/?cid=0x0:0xcb981476db5d604d
toko bangunan,Toko Kayu,Aldy jaya gybsum,"28Q5+MC2, Sifnana, Tanimbar Sel., Kab. Kepulauan Tanimbar, Maluku","Kab. Kepulauan Tanimbar, Maluku",MALUKU,,Indonesia,,-7.9608191,131.3085143,https://maps.google.com/?cid=0x0:0x8bb750ea4530ebfb
toko bangunan,Perhimpunan Pengembang Perumahan,Saumlaki,"2964+CH4, Kab. Kepulauan Tanimbar, Maluku","Kab. Kepulauan Tanimbar, Maluku",MALUKU,,Indonesia,,-7.9889785,131.3564672,https://maps.google.com/?cid=0x0:0x4b1a056b9c710e96
toko bangunan,Toko Bahan Bangunan,Ud.elok jaya,"28R5+FMQ, Sifnana, Tanimbar Sel., Kab. Kepulauan Tanimbar, Maluku","Kab. Kepulauan Tanimbar, Maluku",MALUKU,,Indonesia,82398719330.0,-7.958799,131.3092269,https://maps.google.com/?cid=0x0:0x4ebc92b361a6a30e
toko bangunan,Toko Bahan Bangunan,Cv anugerah jaya abadi,"Jl. Mathilda Batlayeri, Saumlaki, Tanimbar Sel., Kab. Kepulauan Tanimbar, Maluku","Kab. Kepulauan Tanimbar, Maluku",MALUKU,,Indonesia,,-7.9832626,131.2961707,https://maps.google.com/?cid=0x0:0x6ed8526f4ce440f3
toko bangunan,Minimarket,TOKO AMAL JAYA,"278V+WF6, Olilit, Tanimbar Sel., Kab. Kepulauan Tanimbar, Maluku","Kab. Kepulauan Tanimbar, Maluku",MALUKU,,Indonesia,82199324920.0,-7.9836129,131.2936666,https://maps.google.com/?cid=0x0:0xcb311d7ebcd8c172
toko bangunan,toko bangunan,Aneka Teknik,"Ruko Yamdena Plaza, Jl. Mathilda Batlayeri No.11 Blok A No 9, Kecamatan, Tanimbar Sel., Kab. Kepulauan Tanimbar, Maluku 97471","Jl. Mathilda Batlayeri No.11 Blok A No 9, Kecamatan, Tanimbar Sel., Kab. Kepulauan Tanimbar",MALUKU,97471.0,Indonesia,81356537291.0,-7.9825994,131.296232,https://maps.google.com/?cid=0x0:0x6ea3ba9c7a220db5
toko bangunan,Toko,Toko Cahaya Buton,"Olilit, Tanimbar Sel., Kab. Kepulauan Tanimbar, Maluku","Kab. Kepulauan Tanimbar, Maluku",MALUKU,,Indonesia,82199324920.0,-7.9824365,131.2957106,https://maps.google.com/?cid=0x0:0x70e9a7624be9ac83
toko bangunan,Toko Bahan Bangunan,Toko Platinum,"9Q33+23V, Taar, Pulau Dullah Sel., Kota Tual, Maluku","Kota Tual, Maluku",MALUKU,,Indonesia,91623959.0,-5.6473959,132.752685,https://maps.google.com/?cid=0x0:0x5243a3d0d523d49e
toko bangunan,Toko Bahan Bangunan,Toko BANDA NAIRA,"tenggara, Jl. Fid, Fiditan, Kec. Pulau Dullah Utara, Kota Tual, Maluku","Kota Tual, Maluku",MALUKU,,Indonesia,91621539.0,-5.6348247,132.7425416,https://maps.google.com/?cid=0x0:0x7c2d6fd44077fb1d
toko bangunan,Toko Bahan Bangunan,Toko bangunan Al Mubarak,"279W+294, Pasar, Olilit, Tanimbar Sel., Kab. Kepulauan Tanimbar, Maluku","Kab. Kepulauan Tanimbar, Maluku",MALUKU,,Indonesia,8123746174.0,-7.9824933,131.2959625,https://maps.google.com/?cid=0x0:0xd6b97f6e48819bac
toko bangunan,toko bangunan,Kec. Tanimbar Utara,"Kab. Kepulauan Tanimbar, Maluku","Kab. Kepulauan Tanimbar, Maluku",MALUKU,,Indonesia,,-7.1551532,131.7188169,https://maps.google.com/?cid=0x0:0xf9f74771470cd070
toko bangunan,Toko Alat-Alat,Sumber Teknik,"279W+7HX, Olilit, Tanimbar Sel., Kab. Kepulauan Tanimbar, Maluku","Kab. Kepulauan Tanimbar, Maluku",MALUKU,,Indonesia,,-7.9817522,131.2964919,https://maps.google.com/?cid=0x0:0x37fb3228cfa237ef
toko bangunan,Toko,Toko Cahaya Buton,"Olilit, Tanimbar Sel., Kab. Kepulauan Tanimbar, Maluku","Kab. Kepulauan Tanimbar, Maluku",MALUKU,,Indonesia,82199324920.0,-7.9824365,131.2957106,https://maps.google.com/?cid=0x0:0x70e9a7624be9ac83
toko bangunan,Pusat Perbelanjaan,Toko Tujuh Serangkai,"Saumlaki, Tanimbar Sel., Kab. Kepulauan Tanimbar, Maluku","Kab. Kepulauan Tanimbar, Maluku",MALUKU,,Indonesia,91821066.0,-7.9831403,131.2959288,https://maps.google.com/?cid=0x0:0x9dd1e3a3e93a6538
toko bangunan,Toko Bahan Bangunan,TOKO ILHAM,"28R5+VPH, Unnamed Road, Sifnana, Tanimbar Sel., Kab. Kepulauan Tanimbar, Maluku","Kab. Kepulauan Tanimbar, Maluku",MALUKU,,Indonesia,83125236425.0,-7.9578237,131.3093484,https://maps.google.com/?cid=0x0:0xdc8ca2706d30ea1a
toko bangunan,Toko Bahan Bangunan,Toko Samy,"28V5+5M8, Sifnana, Tanimbar Sel., Kab. Kepulauan Tanimbar, Maluku","Kab. Kepulauan Tanimbar, Maluku",MALUKU,,Indonesia,,-7.9570839,131.3092097,https://maps.google.com/?cid=0x0:0xcb981476db5d604d
toko bangunan,Toko,Toko Serba Bangunan Ambon,"Jl. Philip Latumahina No.10, Kel Honipopu, Kec. Sirimau, Kota Ambon, Maluku","Kota Ambon, Maluku",MALUKU,,Indonesia,81283093876.0,-3.696513,128.1813331,https://maps.google.com/?cid=0x0:0x38f3a5a63eb288ff
toko bangunan,Toko Bahan Bangunan,Toko Duta Bangunan,"Jl. Danau Rana, Namlea, Kec. Namlea, Kabupaten Buru, Maluku","Kabupaten Buru, Maluku",MALUKU,,Indonesia,91322010.0,-3.269268,127.1034228,https://maps.google.com/?cid=0x0:0x4d2e61629ea407b9
toko bangunan,toko bangunan,Aneka Teknik,"Ruko Yamdena Plaza, Jl. Mathilda Batlayeri No.11 Blok A No 9, Kecamatan, Tanimbar Sel., Kab. Kepulauan Tanimbar, Maluku 97471","Jl. Mathilda Batlayeri No.11 Blok A No 9, Kecamatan, Tanimbar Sel., Kab. Kepulauan Tanimbar",MALUKU,97471.0,Indonesia,81356537291.0,-7.9825994,131.296232,https://maps.google.com/?cid=0x0:0x6ea3ba9c7a220db5
toko bangunan,Minimarket,TOKO AMAL JAYA,"278V+WF6, Olilit, Tanimbar Sel., Kab. Kepulauan Tanimbar, Maluku","Kab. Kepulauan Tanimbar, Maluku",MALUKU,,Indonesia,82199324920.0,-7.9836129,131.2936666,https://maps.google.com/?cid=0x0:0xcb311d7ebcd8c172
toko bangunan,Toko Alat-Alat,Sumber Teknik,"279W+7HX, Olilit, Tanimbar Sel., Kab. Kepulauan Tanimbar, Maluku","Kab. Kepulauan Tanimbar, Maluku",MALUKU,,Indonesia,,-7.9817522,131.2964919,https://maps.google.com/?cid=0x0:0x37fb3228cfa237ef
toko bangunan,Toko Bahan Bangunan,Toko Material TB. TIGA JAYA,"Jl. Terusan Al Fathu No.98, Pamekaran, Kec. Soreang, Kabupaten Bandung, Jawa Barat 40912","Pamekaran, Kec. Soreang, Kabupaten Bandung",MALUKU,40912.0,Indonesia,81223248123.0,-7.02808,107.5292277,https://maps.google.com/?cid=0x0:0x4658b86bed930e6
toko bangunan,Toko Bahan Bangunan,Toko bangunan Al Mubarak,"279W+294, Pasar, Olilit, Tanimbar Sel., Kab. Kepulauan Tanimbar, Maluku","Kab. Kepulauan Tanimbar, Maluku",MALUKU,,Indonesia,8123746174.0,-7.9824933,131.2959625,https://maps.google.com/?cid=0x0:0xd6b97f6e48819bac
toko bangunan,Toko Bahan Bangunan,TOKO BANGUNAN YAYA,"2JCJ+6C8, Jl. Sukabirus, Citeureup, Kec. Dayeuhkolot, Kabupaten Bandung, Jawa Barat 40257","Jl. Sukabirus, Citeureup, Kec. Dayeuhkolot, Kabupaten Bandung",MALUKU,40257.0,Indonesia,,-6.9794655,107.6310869,https://maps.google.com/?cid=0x0:0xd30babe2bc6c2531
toko bangunan,Toko Bahan Bangunan,Sumber Rejeki SR Toko Bahan Bangunan,"Kp. Jati Road, RT.11/RW.05, Cihuni, Kec. Pasawahan, Kabupaten Purwakarta, Jawa Barat 41172","RT.11/RW.05, Cihuni, Kec. Pasawahan, Kabupaten Purwakarta",MALUKU,41172.0,Indonesia,87879687567.0,-6.5697078,107.4703384,https://maps.google.com/?cid=0x0:0x9173d657658416e6
toko bangunan,Toko Bahan Bangunan,Toko Bangunan Ar-Rizky,"7CFG+CC5, Panongan,blok makam bangun, Panongan, Kec. Palimanan, Kabupaten Cirebon, Jawa Barat 45161","Panongan,blok makam bangun, Panongan, Kec. Palimanan, Kabupaten Cirebon",MALUKU,45161.0,Indonesia,,-6.7264851,108.4261056,https://maps.google.com/?cid=0x0:0xff94ae2422bfde6e
toko bangunan,Toko Bahan Bangunan,Toko Bangunan R,"7669+CG7, Blok pos, RT.03/RW.03, Sinarjati, Kec. Dawuan, Kabupaten Majalengka, Jawa Barat","Kabupaten Majalengka, Jawa Barat",MALUKU,,Indonesia,,-6.7389585,108.2188102,https://maps.google.com/?cid=0x0:0x2fbabe5d364905e
toko bangunan,Toko Bahan Bangunan,Tunas Bangunan Bandung,"Jl. Raya Ujung Berung No.228B, Cipadung Kulon, Kec. Panyileukan, Kota Bandung, Jawa Barat 40614","Cipadung Kulon, Kec. Panyileukan, Kota Bandung",MALUKU,40614.0,Indonesia,82121999228.0,-6.9194171,107.7081378,https://maps.google.com/?cid=0x0:0x524cbbcbbd2f75a0
toko bangunan,toko bangunan,Kec. Wuar Labobar,"Kab. Kepulauan Tanimbar, Maluku","Kab. Kepulauan Tanimbar, Maluku",MALUKU,,Indonesia,,-7.3440201,131.4304567,https://maps.google.com/?cid=0x0:0xff00056926ab874a
toko bangunan,Toko Bahan Bangunan,Toko bangunan Al Mubarak,"279W+294, Pasar, Olilit, Tanimbar Sel., Kab. Kepulauan Tanimbar, Maluku","Kab. Kepulauan Tanimbar, Maluku",MALUKU,,Indonesia,8123746174.0,-7.9824933,131.2959625,https://maps.google.com/?cid=0x0:0xd6b97f6e48819bac
toko bangunan,Toko Bahan Bangunan,Toko Duta Bangunan,"Jl. Danau Rana, Namlea, Kec. Namlea, Kabupaten Buru, Maluku","Kabupaten Buru, Maluku",MALUKU,,Indonesia,91322010.0,-3.269268,127.1034228,https://maps.google.com/?cid=0x0:0x4d2e61629ea407b9
toko bangunan,Toko,Toko Cahaya Buton,"Olilit, Tanimbar Sel., Kab. Kepulauan Tanimbar, Maluku","Kab. Kepulauan Tanimbar, Maluku",MALUKU,,Indonesia,82199324920.0,-7.9824365,131.2957106,https://maps.google.com/?cid=0x0:0x70e9a7624be9ac83
toko bangunan,toko bangunan,Aneka Teknik,"Ruko Yamdena Plaza, Jl. Mathilda Batlayeri No.11 Blok A No 9, Kecamatan, Tanimbar Sel., Kab. Kepulauan Tanimbar, Maluku 97471","Jl. Mathilda Batlayeri No.11 Blok A No 9, Kecamatan, Tanimbar Sel., Kab. Kepulauan Tanimbar",MALUKU,97471.0,Indonesia,81356537291.0,-7.9825994,131.296232,https://maps.google.com/?cid=0x0:0x6ea3ba9c7a220db5
toko bangunan,Toko Bahan Bangunan,Toko bangunan Dinda Barokah,"P85C+XWC, Waihatu, Kec. Kairatu Bar., Kabupaten Seram Bagian Barat, Maluku","Kabupaten Seram Bagian Barat, Maluku",MALUKU,,Indonesia,81356194953.0,-3.2900692,128.3222692,https://maps.google.com/?cid=0x0:0x634ca5cb31d21d51
toko bangunan,Toko Bahan Bangunan,Toko Bangunan Lestari Baru,"Waihatu, Kec. Kairatu Bar., Kabupaten Seram Bagian Barat, Maluku","Kabupaten Seram Bagian Barat, Maluku",MALUKU,,Indonesia,82238832490.0,-3.2864381,128.3222819,https://maps.google.com/?cid=0x0:0xb14d86a65046c260
toko bangunan,Toko Bahan Bangunan,Toko BANDA NAIRA,"tenggara, Jl. Fid, Fiditan, Kec. Pulau Dullah Utara, Kota Tual, Maluku","Kota Tual, Maluku",MALUKU,,Indonesia,91621539.0,-5.6348247,132.7425416,https://maps.google.com/?cid=0x0:0x7c2d6fd44077fb1d
toko bangunan,Toko Alat-Alat,Sumber Teknik,"279W+7HX, Olilit, Tanimbar Sel., Kab. Kepulauan Tanimbar, Maluku","Kab. Kepulauan Tanimbar, Maluku",MALUKU,,Indonesia,,-7.9817522,131.2964919,https://maps.google.com/?cid=0x0:0x37fb3228cfa237ef
toko bangunan,Pusat Perbelanjaan,Toko Tujuh Serangkai,"Saumlaki, Tanimbar Sel., Kab. Kepulauan Tanimbar, Maluku","Kab. Kepulauan Tanimbar, Maluku",MALUKU,,Indonesia,91821066.0,-7.9831403,131.2959288,https://maps.google.com/?cid=0x0:0x9dd1e3a3e93a6538
toko bangunan,Toko Perlengkapan Rumah,Toko subhan,"9QC5+M3R, Kel. Lodar El, Pulau Dullah Sel., Kota Tual, Maluku","Kota Tual, Maluku",MALUKU,,Indonesia,87861101462.0,-5.6282552,132.7576479,https://maps.google.com/?cid=0x0:0x66a03758835bbb9c
toko bangunan,Toko Bahan Bangunan,Toko Platinum,"9Q33+23V, Taar, Pulau Dullah Sel., Kota Tual, Maluku","Kota Tual, Maluku",MALUKU,,Indonesia,91623959.0,-5.6473959,132.752685,https://maps.google.com/?cid=0x0:0x5243a3d0d523d49e
toko bangunan,Minimarket,TOKO AMAL JAYA,"278V+WF6, Olilit, Tanimbar Sel., Kab. Kepulauan Tanimbar, Maluku","Kab. Kepulauan Tanimbar, Maluku",MALUKU,,Indonesia,82199324920.0,-7.9836129,131.2936666,https://maps.google.com/?cid=0x0:0xcb311d7ebcd8c172
toko bangunan,toko bangunan,Kec. Kormomolin,"Kab. Kepulauan Tanimbar, Maluku","Kab. Kepulauan Tanimbar, Maluku",MALUKU,,Indonesia,,-7.6674273,131.5798856,https://maps.google.com/?cid=0x0:0x791e0bf26bea1fff
toko bangunan,Toko Bahan Bangunan,TOKO ILHAM,"28R5+VPH, Unnamed Road, Sifnana, Tanimbar Sel., Kab. Kepulauan Tanimbar, Maluku","Kab. Kepulauan Tanimbar, Maluku",MALUKU,,Indonesia,83125236425.0,-7.9578237,131.3093484,https://maps.google.com/?cid=0x0:0xdc8ca2706d30ea1a
toko bangunan,Toko,Toko Cahaya Buton,"Olilit, Tanimbar Sel., Kab. Kepulauan Tanimbar, Maluku","Kab. Kepulauan Tanimbar, Maluku",MALUKU,,Indonesia,82199324920.0,-7.9824365,131.2957106,https://maps.google.com/?cid=0x0:0x70e9a7624be9ac83
toko bangunan,Toko Bahan Bangunan,Toko Duta Bangunan,"Jl. Danau Rana, Namlea, Kec. Namlea, Kabupaten Buru, Maluku","Kabupaten Buru, Maluku",MALUKU,,Indonesia,91322010.0,-3.269268,127.1034228,https://maps.google.com/?cid=0x0:0x4d2e61629ea407b9
toko bangunan,Toko Bahan Bangunan,Toko Platinum,"9Q33+23V, Taar, Pulau Dullah Sel., Kota Tual, Maluku","Kota Tual, Maluku",MALUKU,,Indonesia,91623959.0,-5.6473959,132.752685,https://maps.google.com/?cid=0x0:0x5243a3d0d523d49e
toko bangunan,Toko Bahan Bangunan,Toko BANDA NAIRA,"tenggara, Jl. Fid, Fiditan, Kec. Pulau Dullah Utara, Kota Tual, Maluku","Kota Tual, Maluku",MALUKU,,Indonesia,91621539.0,-5.6348247,132.7425416,https://maps.google.com/?cid=0x0:0x7c2d6fd44077fb1d
toko bangunan,Toko Pakaian,Toko QIYAN,"Lauran, Tanimbar Sel., Kab. Kepulauan Tanimbar, Maluku 97465","Tanimbar Sel., Kab. Kepulauan Tanimbar",MALUKU,97465.0,Indonesia,82248639578.0,-7.9347658,131.3130265,https://maps.google.com/?cid=0x0:0x3bca10511f9f38b7
toko bangunan,toko bangunan,Aneka Teknik,"Ruko Yamdena Plaza, Jl. Mathilda Batlayeri No.11 Blok A No 9, Kecamatan, Tanimbar Sel., Kab. Kepulauan Tanimbar, Maluku 97471","Jl. Mathilda Batlayeri No.11 Blok A No 9, Kecamatan, Tanimbar Sel., Kab. Kepulauan Tanimbar",MALUKU,97471.0,Indonesia,81356537291.0,-7.9825994,131.296232,https://maps.google.com/?cid=0x0:0x6ea3ba9c7a220db5
toko bangunan,Toko Perlengkapan Rumah,Toko subhan,"9QC5+M3R, Kel. Lodar El, Pulau Dullah Sel., Kota Tual, Maluku","Kota Tual, Maluku",MALUKU,,Indonesia,87861101462.0,-5.6282552,132.7576479,https://maps.google.com/?cid=0x0:0x66a03758835bbb9c
toko bangunan,toko bangunan,Kec. Nirunmas,"Kab. Kepulauan Tanimbar, Maluku","Kab. Kepulauan Tanimbar, Maluku",MALUKU,,Indonesia,,-7.4223184,131.6998843,https://maps.google.com/?cid=0x0:0xaaadfde047b475b5
toko bangunan,Toko Bahan Bangunan,CV. NESSTA AMBON( Cat  Bahan Bangunan ),"86XJ+7HQ, Jl. Wolter Monginsidi, Lateri, Kec. Baguala, Kota Ambon, Maluku 97112","Jl. Wolter Monginsidi, Lateri, Kec. Baguala, Kota Ambon",MALUKU,97112.0,Indonesia,911356394.0,-3.651793,128.231489,https://maps.google.com/?cid=0x0:0x826e5740b2e0ac2f
toko bangunan,Toko Bahan Bangunan,TOKO ILHAM,"28R5+VPH, Unnamed Road, Sifnana, Tanimbar Sel., Kab. Kepulauan Tanimbar, Maluku","Kab. Kepulauan Tanimbar, Maluku",MALUKU,,Indonesia,83125236425.0,-7.9578237,131.3093484,https://maps.google.com/?cid=0x0:0xdc8ca2706d30ea1a
toko bangunan,Toko,Toko Serba Bangunan Ambon,"Jl. Philip Latumahina No.10, Kel Honipopu, Kec. Sirimau, Kota Ambon, Maluku","Kota Ambon, Maluku",MALUKU,,Indonesia,81283093876.0,-3.696513,128.1813331,https://maps.google.com/?cid=0x0:0x38f3a5a63eb288ff
toko bangunan,Toko Bahan Bangunan,Toko Sumber Mas (Toko Alat Bangunan) Termurah Di Kota Ambon,"852M+PR7, Jl. Yan Paays, Uritetu, Kec. Sirimau, Kota Ambon, Maluku","Kota Ambon, Maluku",MALUKU,,Indonesia,911342426.0,-3.6982201,128.1845433,https://maps.google.com/?cid=0x0:0xa06c0fcbbe266243
toko bangunan,Toko,Toko Cahaya Buton,"Olilit, Tanimbar Sel., Kab. Kepulauan Tanimbar, Maluku","Kab. Kepulauan Tanimbar, Maluku",MALUKU,,Indonesia,82199324920.0,-7.9824365,131.2957106,https://maps.google.com/?cid=0x0:0x70e9a7624be9ac83
toko bangunan,toko bangunan,Aneka Teknik,"Ruko Yamdena Plaza, Jl. Mathilda Batlayeri No.11 Blok A No 9, Kecamatan, Tanimbar Sel., Kab. Kepulauan Tanimbar, Maluku 97471","Jl. Mathilda Batlayeri No.11 Blok A No 9, Kecamatan, Tanimbar Sel., Kab. Kepulauan Tanimbar",MALUKU,97471.0,Indonesia,81356537291.0,-7.9825994,131.296232,https://maps.google.com/?cid=0x0:0x6ea3ba9c7a220db5
toko bangunan,Toko Bahan Bangunan,Toko bangunan Dinda Barokah,"P85C+XWC, Waihatu, Kec. Kairatu Bar., Kabupaten Seram Bagian Barat, Maluku","Kabupaten Seram Bagian Barat, Maluku",MALUKU,,Indonesia,81356194953.0,-3.2900692,128.3222692,https://maps.google.com/?cid=0x0:0x634ca5cb31d21d51
toko bangunan,toko bangunan,Toko Dino,"28V5+3V4, Sifnana, Tanimbar Sel., Kab. Kepulauan Tanimbar, Maluku","Kab. Kepulauan Tanimbar, Maluku",MALUKU,,Indonesia,81240415558.0,-7.9573614,131.3097116,https://maps.google.com/?cid=0x0:0x3aff03ae6364b8e3
toko bangunan,Toko Alat-Alat,Sumber Teknik,"279W+7HX, Olilit, Tanimbar Sel., Kab. Kepulauan Tanimbar, Maluku","Kab. Kepulauan Tanimbar, Maluku",MALUKU,,Indonesia,,-7.9817522,131.2964919,https://maps.google.com/?cid=0x0:0x37fb3228cfa237ef
toko bangunan,Toko Bahan Bangunan,Toko bangunan Al Mubarak,"279W+294, Pasar, Olilit, Tanimbar Sel., Kab. Kepulauan Tanimbar, Maluku","Kab. Kepulauan Tanimbar, Maluku",MALUKU,,Indonesia,8123746174.0,-7.9824933,131.2959625,https://maps.google.com/?cid=0x0:0xd6b97f6e48819bac
toko bangunan,Minimarket,TOKO AMAL JAYA,"278V+WF6, Olilit, Tanimbar Sel., Kab. Kepulauan Tanimbar, Maluku","Kab. Kepulauan Tanimbar, Maluku",MALUKU,,Indonesia,82199324920.0,-7.9836129,131.2936666,https://maps.google.com/?cid=0x0:0xcb311d7ebcd8c172
building materials,building materials,Tanimbar Sel.,"Kab. Kepulauan Tanimbar, Maluku","Kab. Kepulauan Tanimbar, Maluku",MALUKU,,Indonesia,,-7.941769,131.2205911,https://maps.google.com/?cid=0x0:0x2fbf1b925d6dba13
building materials,Toko Alat-Alat,Sumber Teknik,"279W+7HX, Olilit, Tanimbar Sel., Kab. Kepulauan Tanimbar, Maluku","Kab. Kepulauan Tanimbar, Maluku",MALUKU,,Indonesia,,-7.9817522,131.2964919,https://maps.google.com/?cid=0x0:0x37fb3228cfa237ef
building materials,Toko Bahan Bangunan,Toko bangunan Al Mubarak,"279W+294, Pasar, Olilit, Tanimbar Sel., Kab. Kepulauan Tanimbar, Maluku","Kab. Kepulauan Tanimbar, Maluku",MALUKU,,Indonesia,8123746174.0,-7.9824933,131.2959625,https://maps.google.com/?cid=0x0:0xd6b97f6e48819bac
building materials,building materials,Aneka Teknik,"Ruko Yamdena Plaza, Jl. Mathilda Batlayeri No.11 Blok A No 9, Kecamatan, Tanimbar Sel., Kab. Kepulauan Tanimbar, Maluku 97471","Jl. Mathilda Batlayeri No.11 Blok A No 9, Kecamatan, Tanimbar Sel., Kab. Kepulauan Tanimbar",MALUKU,97471.0,Indonesia,81356537291.0,-7.9825994,131.296232,https://maps.google.com/?cid=0x0:0x6ea3ba9c7a220db5
building materials,Minimarket,TOKO AMAL JAYA,"278V+WF6, Olilit, Tanimbar Sel., Kab. Kepulauan Tanimbar, Maluku","Kab. Kepulauan Tanimbar, Maluku",MALUKU,,Indonesia,82199324920.0,-7.9836129,131.2936666,https://maps.google.com/?cid=0x0:0xcb311d7ebcd8c172
building materials,Toko,Toko Cahaya Buton,"Olilit, Tanimbar Sel., Kab. Kepulauan Tanimbar, Maluku","Kab. Kepulauan Tanimbar, Maluku",MALUKU,,Indonesia,82199324920.0,-7.9824365,131.2957106,https://maps.google.com/?cid=0x0:0x70e9a7624be9ac83
building materials,Perhimpunan Pengembang Perumahan,Saumlaki,"2964+CH4, Kab. Kepulauan Tanimbar, Maluku","Kab. Kepulauan Tanimbar, Maluku",MALUKU,,Indonesia,,-7.9889785,131.3564672,https://maps.google.com/?cid=0x0:0x4b1a056b9c710e96
building materials,Toko Kayu,Aldy jaya gybsum,"28Q5+MC2, Sifnana, Tanimbar Sel., Kab. Kepulauan Tanimbar, Maluku","Kab. Kepulauan Tanimbar, Maluku",MALUKU,,Indonesia,,-7.9608191,131.3085143,https://maps.google.com/?cid=0x0:0x8bb750ea4530ebfb
building materials,Toko Bahan Bangunan,Toko Samy,"28V5+5M8, Sifnana, Tanimbar Sel., Kab. Kepulauan Tanimbar, Maluku","Kab. Kepulauan Tanimbar, Maluku",MALUKU,,Indonesia,,-7.9570839,131.3092097,https://maps.google.com/?cid=0x0:0xcb981476db5d604d
building materials,building materials,Kec. Selaru,"Kab. Kepulauan Tanimbar, Maluku","Kab. Kepulauan Tanimbar, Maluku",MALUKU,,Indonesia,,-8.1318821,131.1133407,https://maps.google.com/?cid=0x0:0x21fc7f5cc6364753
building materials,Toko Bahan Bangunan,TOKO ILHAM,"28R5+VPH, Unnamed Road, Sifnana, Tanimbar Sel., Kab. Kepulauan Tanimbar, Maluku","Kab. Kepulauan Tanimbar, Maluku",MALUKU,,Indonesia,83125236425.0,-7.9578237,131.3093484,https://maps.google.com/?cid=0x0:0xdc8ca2706d30ea1a
building materials,building materials,Aneka Teknik,"Ruko Yamdena Plaza, Jl. Mathilda Batlayeri No.11 Blok A No 9, Kecamatan, Tanimbar Sel., Kab. Kepulauan Tanimbar, Maluku 97471","Jl. Mathilda Batlayeri No.11 Blok A No 9, Kecamatan, Tanimbar Sel., Kab. Kepulauan Tanimbar",MALUKU,97471.0,Indonesia,81356537291.0,-7.9825994,131.296232,https://maps.google.com/?cid=0x0:0x6ea3ba9c7a220db5
building materials,Pemasok Pipa,Surya Utama Metalindo PT.,"Jl. Gunung Sahari Raya no.1 Mangga Dua Square lt 2 blok C 61, RT.11/RW.6, Ancol, Kec. Pademangan, Jkt Utara, Daerah Khusus Ibukota Jakarta 14420","RT.11/RW.6, Ancol, Kec. Pademangan, Jkt Utara",MALUKU,14420.0,Indonesia,82310999956.0,-6.1387824,106.8314329,https://maps.google.com/?cid=0x0:0x213f9340f3f4865
building materials,Kontraktor Insulasi,PT Tali Rejeki,"Jl. Taruma Jaya No.11, Setia Asih, Kec. Tarumajaya, Kota Bks, Jawa Barat 17215","Setia Asih, Kec. Tarumajaya, Kota Bks",MALUKU,17215.0,Indonesia,2122889956.0,-6.1652412,106.9900241,https://maps.google.com/?cid=0x0:0x15898fadc067eab7
building materials,Toko Bahan Bangunan,Kurnia Sejati,"Jl. Tb. Simatupang raya no.125 tanjung barat jagakarsa, RT.10/RW.4, Tanjung Barat, Jagakarsa, RT.10/RW.4, Tj. Bar., Kec. Jagakarsa, Kota Jakarta Selatan, Daerah Khusus Ibukota Jakarta 12530","RT.10/RW.4, Tanjung Barat, Jagakarsa, RT.10/RW.4, Tj. Bar., Kec. Jagakarsa, Kota Jakarta Selatan",MALUKU,12530.0,Indonesia,217815051.0,-6.302777,106.841103,https://maps.google.com/?cid=0x0:0x66b3f471da036b3f
building materials,Jasa Konstruksi dan Bangunan,PT. Tirta Citra Bara Persada,"Ruko Prima Sunter Jl. Agung Timur 8, kav D5-6. Sunter Agung, 14350, Sunter, Tanjung Priok, RT.10/RW.11, Sunter Jaya, Kec. Tj. Priok, Jkt Utara, Daerah Khusus Ibukota Jakarta 14450","kav D5-6. Sunter Agung, 14350, Sunter, Tanjung Priok, RT.10/RW.11, Sunter Jaya, Kec. Tj. Priok, Jkt Utara",MALUKU,14450.0,Indonesia,2165307671.0,-6.141923,106.88518,https://maps.google.com/?cid=0x0:0xed9a88afd6a7dd88
building materials,Insinyur Teknik Lingkungan,PT Tetrasa Geosinindo,"ITC ROXY MAS, Business Center, Jl. Kh Hasyim Ashari No.18-20 Block C4, Cideng, Gambir, Central Jakarta City, Jakarta 10150","Business Center, Jl. Kh Hasyim Ashari No.18-20 Block C4, Cideng, Gambir, Central Jakarta City",MALUKU,10150.0,Indonesia,216330150.0,-6.1680063,106.8051124,https://maps.google.com/?cid=0x0:0x7c88f7e107a42fb8
building materials,building materials,Kec. Wer Maktian,"Kab. Kepulauan Tanimbar, Maluku","Kab. Kepulauan Tanimbar, Maluku",MALUKU,,Indonesia,,-7.6851092,131.1322161,https://maps.google.com/?cid=0x0:0xd6cd550965163a24
building materials,Sekolah menengah,SMP NEGERI 1 WERMAKTIAN,"82MM+RQM, Unnamed Road, Rumah Salut, Kec. Wer Maktian, Kab. Kepulauan Tanimbar, Maluku","Kab. Kepulauan Tanimbar, Maluku",MALUKU,,Indonesia,82198283339.0,-7.6654005,131.0344207,https://maps.google.com/?cid=0x0:0x969edc94ba53c8e0
building materials,building materials,Desa Temin,"82PM+9JW, Rumah Salut, Kec. Wer Maktian, Kab. Kepulauan Tanimbar, Maluku","Kab. Kepulauan Tanimbar, Maluku",MALUKU,,Indonesia,,-7.6640143,131.0340713,https://maps.google.com/?cid=0x0:0x81047e08a8fdd72e
building materials,building materials,Wer Tamrian,"Kab. Kepulauan Tanimbar, Maluku","Kab. Kepulauan Tanimbar, Maluku",MALUKU,,Indonesia,,-7.7661937,131.401196,https://maps.google.com/?cid=0x0:0xaded055189834b4b
building materials,building materials,Aneka Teknik,"Ruko Yamdena Plaza, Jl. Mathilda Batlayeri No.11 Blok A No 9, Kecamatan, Tanimbar Sel., Kab. Kepulauan Tanimbar, Maluku 97471","Jl. Mathilda Batlayeri No.11 Blok A No 9, Kecamatan, Tanimbar Sel., Kab. Kepulauan Tanimbar",MALUKU,97471.0,Indonesia,81356537291.0,-7.9825994,131.296232,https://maps.google.com/?cid=0x0:0x6ea3ba9c7a220db5
building materials,Toko Bahan Bangunan,TOKO ILHAM,"28R5+VPH, Unnamed Road, Sifnana, Tanimbar Sel., Kab. Kepulauan Tanimbar, Maluku","Kab. Kepulauan Tanimbar, Maluku",MALUKU,,Indonesia,83125236425.0,-7.9578237,131.3093484,https://maps.google.com/?cid=0x0:0xdc8ca2706d30ea1a
building materials,building materials,Toko Dino,"28V5+3V4, Sifnana, Tanimbar Sel., Kab. Kepulauan Tanimbar, Maluku","Kab. Kepulauan Tanimbar, Maluku",MALUKU,,Indonesia,81240415558.0,-7.9573614,131.3097116,https://maps.google.com/?cid=0x0:0x3aff03ae6364b8e3
building materials,Kontraktor Insulasi,PT Tali Rejeki,"Jl. Taruma Jaya No.11, Setia Asih, Kec. Tarumajaya, Kota Bks, Jawa Barat 17215","Setia Asih, Kec. Tarumajaya, Kota Bks",MALUKU,17215.0,Indonesia,2122889956.0,-6.1652412,106.9900241,https://maps.google.com/?cid=0x0:0x15898fadc067eab7
building materials,Toko Bahan Insulasi,Rockwool Indonesia - ASIAGLASSWOOL,"Ruko Sentra Niaga 1 Blok C No. 5 Harapan Indah, RT.008/RW.030, Pejuang, Kecamatan Medan Satria, Kota Bks, Jawa Barat 17131","RT.008/RW.030, Pejuang, Kecamatan Medan Satria, Kota Bks",MALUKU,17131.0,Indonesia,2188880048.0,-6.18349,106.978936,https://maps.google.com/?cid=0x0:0x7917008cb8ee9a4c
building materials,building materials,Kec. Tanimbar Utara,"Kab. Kepulauan Tanimbar, Maluku","Kab. Kepulauan Tanimbar, Maluku",MALUKU,,Indonesia,,-7.1551532,131.7188169,https://maps.google.com/?cid=0x0:0xf9f74771470cd070
building materials,Toko Alat-Alat,Sumber Teknik,"279W+7HX, Olilit, Tanimbar Sel., Kab. Kepulauan Tanimbar, Maluku","Kab. Kepulauan Tanimbar, Maluku",MALUKU,,Indonesia,,-7.9817522,131.2964919,https://maps.google.com/?cid=0x0:0x37fb3228cfa237ef
building materials,Perhimpunan Pengembang Perumahan,Saumlaki,"2964+CH4, Kab. Kepulauan Tanimbar, Maluku","Kab. Kepulauan Tanimbar, Maluku",MALUKU,,Indonesia,,-7.9889785,131.3564672,https://maps.google.com/?cid=0x0:0x4b1a056b9c710e96
building materials,Toko Kayu,Aldy jaya gybsum,"28Q5+MC2, Sifnana, Tanimbar Sel., Kab. Kepulauan Tanimbar, Maluku","Kab. Kepulauan Tanimbar, Maluku",MALUKU,,Indonesia,,-7.9608191,131.3085143,https://maps.google.com/?cid=0x0:0x8bb750ea4530ebfb
building materials,Toko Bahan Bangunan,Toko bangunan Al Mubarak,"279W+294, Pasar, Olilit, Tanimbar Sel., Kab. Kepulauan Tanimbar, Maluku","Kab. Kepulauan Tanimbar, Maluku",MALUKU,,Indonesia,8123746174.0,-7.9824933,131.2959625,https://maps.google.com/?cid=0x0:0xd6b97f6e48819bac
building materials,Minimarket,TOKO AMAL JAYA,"278V+WF6, Olilit, Tanimbar Sel., Kab. Kepulauan Tanimbar, Maluku","Kab. Kepulauan Tanimbar, Maluku",MALUKU,,Indonesia,82199324920.0,-7.9836129,131.2936666,https://maps.google.com/?cid=0x0:0xcb311d7ebcd8c172
building materials,building materials,Aneka Teknik,"Ruko Yamdena Plaza, Jl. Mathilda Batlayeri No.11 Blok A No 9, Kecamatan, Tanimbar Sel., Kab. Kepulauan Tanimbar, Maluku 97471","Jl. Mathilda Batlayeri No.11 Blok A No 9, Kecamatan, Tanimbar Sel., Kab. Kepulauan Tanimbar",MALUKU,97471.0,Indonesia,81356537291.0,-7.9825994,131.296232,https://maps.google.com/?cid=0x0:0x6ea3ba9c7a220db5
building materials,Toko Bahan Bangunan,Toko Samy,"28V5+5M8, Sifnana, Tanimbar Sel., Kab. Kepulauan Tanimbar, Maluku","Kab. Kepulauan Tanimbar, Maluku",MALUKU,,Indonesia,,-7.9570839,131.3092097,https://maps.google.com/?cid=0x0:0xcb981476db5d604d
building materials,Toko Bahan Bangunan,Toko bangunan Al Mubarak,"279W+294, Pasar, Olilit, Tanimbar Sel., Kab. Kepulauan Tanimbar, Maluku","Kab. Kepulauan Tanimbar, Maluku",MALUKU,,Indonesia,8123746174.0,-7.9824933,131.2959625,https://maps.google.com/?cid=0x0:0xd6b97f6e48819bac
building materials,Toko Alat-Alat,Sumber Teknik,"279W+7HX, Olilit, Tanimbar Sel., Kab. Kepulauan Tanimbar, Maluku","Kab. Kepulauan Tanimbar, Maluku",MALUKU,,Indonesia,,-7.9817522,131.2964919,https://maps.google.com/?cid=0x0:0x37fb3228cfa237ef
building materials,Kontraktor Insulasi,PT Tali Rejeki,"Jl. Taruma Jaya No.11, Setia Asih, Kec. Tarumajaya, Kota Bks, Jawa Barat 17215","Setia Asih, Kec. Tarumajaya, Kota Bks",MALUKU,17215.0,Indonesia,2122889956.0,-6.1652412,106.9900241,https://maps.google.com/?cid=0x0:0x15898fadc067eab7
building materials,building materials,Kec. Wuar Labobar,"Kab. Kepulauan Tanimbar, Maluku","Kab. Kepulauan Tanimbar, Maluku",MALUKU,,Indonesia,,-7.3440201,131.4304567,https://maps.google.com/?cid=0x0:0xff00056926ab874a
building materials,Toko Bahan Bangunan,Toko bangunan Al Mubarak,"279W+294, Pasar, Olilit, Tanimbar Sel., Kab. Kepulauan Tanimbar, Maluku","Kab. Kepulauan Tanimbar, Maluku",MALUKU,,Indonesia,8123746174.0,-7.9824933,131.2959625,https://maps.google.com/?cid=0x0:0xd6b97f6e48819bac
building materials,Toko Alat-Alat,Sumber Teknik,"279W+7HX, Olilit, Tanimbar Sel., Kab. Kepulauan Tanimbar, Maluku","Kab. Kepulauan Tanimbar, Maluku",MALUKU,,Indonesia,,-7.9817522,131.2964919,https://maps.google.com/?cid=0x0:0x37fb3228cfa237ef
building materials,Toko Bahan Insulasi,Rockwool Indonesia - ASIAGLASSWOOL,"Ruko Sentra Niaga 1 Blok C No. 5 Harapan Indah, RT.008/RW.030, Pejuang, Kecamatan Medan Satria, Kota Bks, Jawa Barat 17131","RT.008/RW.030, Pejuang, Kecamatan Medan Satria, Kota Bks",MALUKU,17131.0,Indonesia,2188880048.0,-6.18349,106.978936,https://maps.google.com/?cid=0x0:0x7917008cb8ee9a4c
building materials,building materials,Kec. Kormomolin,"Kab. Kepulauan Tanimbar, Maluku","Kab. Kepulauan Tanimbar, Maluku",MALUKU,,Indonesia,,-7.6674273,131.5798856,https://maps.google.com/?cid=0x0:0x791e0bf26bea1fff
building materials,building materials,Kec. Nirunmas,"Kab. Kepulauan Tanimbar, Maluku","Kab. Kepulauan Tanimbar, Maluku",MALUKU,,Indonesia,,-7.4223184,131.6998843,https://maps.google.com/?cid=0x0:0xaaadfde047b475b5
building materials,Toko Bahan Bangunan,Toko bangunan Al Mubarak,"279W+294, Pasar, Olilit, Tanimbar Sel., Kab. Kepulauan Tanimbar, Maluku","Kab. Kepulauan Tanimbar, Maluku",MALUKU,,Indonesia,8123746174.0,-7.9824933,131.2959625,https://maps.google.com/?cid=0x0:0xd6b97f6e48819bac
building materials,building materials,Kec. Molu Maru,"Kab. Kepulauan Tanimbar, Maluku","Kab. Kepulauan Tanimbar, Maluku",MALUKU,,Indonesia,,-6.7063732,131.5635744,https://maps.google.com/?cid=0x0:0x249d2f0e14e786d1
building materials,Toko Alat-Alat,Sumber Teknik,"279W+7HX, Olilit, Tanimbar Sel., Kab. Kepulauan Tanimbar, Maluku","Kab. Kepulauan Tanimbar, Maluku",MALUKU,,Indonesia,,-7.9817522,131.2964919,https://maps.google.com/?cid=0x0:0x37fb3228cfa237ef
hardware store,Toko Alat-Alat,Sumber Teknik,"279W+7HX, Olilit, Tanimbar Sel., Kab. Kepulauan Tanimbar, Maluku","Kab. Kepulauan Tanimbar, Maluku",MALUKU,,Indonesia,,-7.9817522,131.2964919,https://maps.google.com/?cid=0x0:0x37fb3228cfa237ef
hardware store,Toko,Toko Cahaya Buton,"Olilit, Tanimbar Sel., Kab. Kepulauan Tanimbar, Maluku","Kab. Kepulauan Tanimbar, Maluku",MALUKU,,Indonesia,82199324920.0,-7.9824365,131.2957106,https://maps.google.com/?cid=0x0:0x70e9a7624be9ac83
hardware store,hardware store,Tanimbar Sel.,"Kab. Kepulauan Tanimbar, Maluku","Kab. Kepulauan Tanimbar, Maluku",MALUKU,,Indonesia,,-7.941769,131.2205911,https://maps.google.com/?cid=0x0:0x2fbf1b925d6dba13
hardware store,hardware store,Aneka Teknik,"Ruko Yamdena Plaza, Jl. Mathilda Batlayeri No.11 Blok A No 9, Kecamatan, Tanimbar Sel., Kab. Kepulauan Tanimbar, Maluku 97471","Jl. Mathilda Batlayeri No.11 Blok A No 9, Kecamatan, Tanimbar Sel., Kab. Kepulauan Tanimbar",MALUKU,97471.0,Indonesia,81356537291.0,-7.9825994,131.296232,https://maps.google.com/?cid=0x0:0x6ea3ba9c7a220db5
hardware store,Toko,Toko Keagungan Jaya,"Jl. Ir. Soekarno RT. 003 RW. 07, Olilit, Saumlaki, Tanimbar Sel., Kab. Kepulauan Tanimbar, Maluku","Kab. Kepulauan Tanimbar, Maluku",MALUKU,,Indonesia,,-7.9854996,131.302506,https://maps.google.com/?cid=0x0:0xb1032c93187e87a
hardware store,Toko Bahan Bangunan,Toko Samy,"28V5+5M8, Sifnana, Tanimbar Sel., Kab. Kepulauan Tanimbar, Maluku","Kab. Kepulauan Tanimbar, Maluku",MALUKU,,Indonesia,,-7.9570839,131.3092097,https://maps.google.com/?cid=0x0:0xcb981476db5d604d
hardware store,Toko Sepatu,Toko Yudi,"28C3+8PJ, Olilit, Tanimbar Sel., Kab. Kepulauan Tanimbar, Maluku","Kab. Kepulauan Tanimbar, Maluku",MALUKU,,Indonesia,,-7.9791742,131.3042634,https://maps.google.com/?cid=0x0:0xab26b6b82e507920
hardware store,Minimarket,Palms Swalayan,"278V+WF6, Olilit, Tanimbar Sel., Kab. Kepulauan Tanimbar, Maluku","Kab. Kepulauan Tanimbar, Maluku",MALUKU,,Indonesia,,-7.9830937,131.2936465,https://maps.google.com/?cid=0x0:0xa5e3c511a15d2a02
hardware store,Toko Bahan Bangunan,TOKO ILHAM,"28R5+VPH, Unnamed Road, Sifnana, Tanimbar Sel., Kab. Kepulauan Tanimbar, Maluku","Kab. Kepulauan Tanimbar, Maluku",MALUKU,,Indonesia,83125236425.0,-7.9578237,131.3093484,https://maps.google.com/?cid=0x0:0xdc8ca2706d30ea1a
hardware store,Minimarket,TOKO AMAL JAYA,"278V+WF6, Olilit, Tanimbar Sel., Kab. Kepulauan Tanimbar, Maluku","Kab. Kepulauan Tanimbar, Maluku",MALUKU,,Indonesia,82199324920.0,-7.9836129,131.2936666,https://maps.google.com/?cid=0x0:0xcb311d7ebcd8c172
hardware store,Toko Bahan Bangunan,TOKO ILHAM,"28R5+VPH, Unnamed Road, Sifnana, Tanimbar Sel., Kab. Kepulauan Tanimbar, Maluku","Kab. Kepulauan Tanimbar, Maluku",MALUKU,,Indonesia,83125236425.0,-7.9578237,131.3093484,https://maps.google.com/?cid=0x0:0xdc8ca2706d30ea1a
hardware store,hardware store,Kec. Selaru,"Kab. Kepulauan Tanimbar, Maluku","Kab. Kepulauan Tanimbar, Maluku",MALUKU,,Indonesia,,-8.1318821,131.1133407,https://maps.google.com/?cid=0x0:0x21fc7f5cc6364753
hardware store,Toko,Toko Cahaya Buton,"Olilit, Tanimbar Sel., Kab. Kepulauan Tanimbar, Maluku","Kab. Kepulauan Tanimbar, Maluku",MALUKU,,Indonesia,82199324920.0,-7.9824365,131.2957106,https://maps.google.com/?cid=0x0:0x70e9a7624be9ac83
hardware store,hardware store,Kec. Wer Maktian,"Kab. Kepulauan Tanimbar, Maluku","Kab. Kepulauan Tanimbar, Maluku",MALUKU,,Indonesia,,-7.6851092,131.1322161,https://maps.google.com/?cid=0x0:0xd6cd550965163a24
hardware store,Sekolah menengah,SMP NEGERI 1 WERMAKTIAN,"82MM+RQM, Unnamed Road, Rumah Salut, Kec. Wer Maktian, Kab. Kepulauan Tanimbar, Maluku","Kab. Kepulauan Tanimbar, Maluku",MALUKU,,Indonesia,82198283339.0,-7.6654005,131.0344207,https://maps.google.com/?cid=0x0:0x969edc94ba53c8e0
hardware store,Sekolah Dasar,SMP Negeri 3 Wermaktian Seira,"82GM+VJ9, Rumah Salut, Kec. Wer Maktian, Kab. Kepulauan Tanimbar, Maluku","Kab. Kepulauan Tanimbar, Maluku",MALUKU,,Indonesia,,-7.6729303,131.03405,https://maps.google.com/?cid=0x0:0xd1904fef739bf908
hardware store,Toko umum,TOKO CAHAYA ANDI RIZKY,"82MJ+CCP, Kamatubun, Kec. Wer Maktian, Kab. Kepulauan Tanimbar, Maluku","Kab. Kepulauan Tanimbar, Maluku",MALUKU,,Indonesia,,-7.6664581,131.0310173,https://maps.google.com/?cid=0x0:0xfbd381683c48e04
hardware store,hardware store,Wer Tamrian,"Kab. Kepulauan Tanimbar, Maluku","Kab. Kepulauan Tanimbar, Maluku",MALUKU,,Indonesia,,-7.7661937,131.401196,https://maps.google.com/?cid=0x0:0xaded055189834b4b
hardware store,hardware store,Aneka Teknik,"Ruko Yamdena Plaza, Jl. Mathilda Batlayeri No.11 Blok A No 9, Kecamatan, Tanimbar Sel., Kab. Kepulauan Tanimbar, Maluku 97471","Jl. Mathilda Batlayeri No.11 Blok A No 9, Kecamatan, Tanimbar Sel., Kab. Kepulauan Tanimbar",MALUKU,97471.0,Indonesia,81356537291.0,-7.9825994,131.296232,https://maps.google.com/?cid=0x0:0x6ea3ba9c7a220db5
hardware store,Toko,Toko Keagungan Jaya,"Jl. Ir. Soekarno RT. 003 RW. 07, Olilit, Saumlaki, Tanimbar Sel., Kab. Kepulauan Tanimbar, Maluku","Kab. Kepulauan Tanimbar, Maluku",MALUKU,,Indonesia,,-7.9854996,131.302506,https://maps.google.com/?cid=0x0:0xb1032c93187e87a
hardware store,Toko Bahan Bangunan,Toko Samy,"28V5+5M8, Sifnana, Tanimbar Sel., Kab. Kepulauan Tanimbar, Maluku","Kab. Kepulauan Tanimbar, Maluku",MALUKU,,Indonesia,,-7.9570839,131.3092097,https://maps.google.com/?cid=0x0:0xcb981476db5d604d
hardware store,Toko,Dermawan Toko,"28J7+JPH, Komplek Plaza Yamdena, Saumlaki, Tanimbar Sel., Kab. Kepulauan Tanimbar, Maluku","Kab. Kepulauan Tanimbar, Maluku",MALUKU,,Indonesia,91821787.0,-7.968426,131.31436,https://maps.google.com/?cid=0x0:0x3feb54c0396b057
hardware store,Toko Bahan Bangunan,TOKO ILHAM,"28R5+VPH, Unnamed Road, Sifnana, Tanimbar Sel., Kab. Kepulauan Tanimbar, Maluku","Kab. Kepulauan Tanimbar, Maluku",MALUKU,,Indonesia,83125236425.0,-7.9578237,131.3093484,https://maps.google.com/?cid=0x0:0xdc8ca2706d30ea1a
hardware store,Toko Sepatu,Toko Yudi,"28C3+8PJ, Olilit, Tanimbar Sel., Kab. Kepulauan Tanimbar, Maluku","Kab. Kepulauan Tanimbar, Maluku",MALUKU,,Indonesia,,-7.9791742,131.3042634,https://maps.google.com/?cid=0x0:0xab26b6b82e507920
hardware store,Toko,Toko Cahaya Buton,"Olilit, Tanimbar Sel., Kab. Kepulauan Tanimbar, Maluku","Kab. Kepulauan Tanimbar, Maluku",MALUKU,,Indonesia,82199324920.0,-7.9824365,131.2957106,https://maps.google.com/?cid=0x0:0x70e9a7624be9ac83
hardware store,Toko bahan makanan,Jaya Mart,"278V+WF6, Olilit, Tanimbar Sel., Kab. Kepulauan Tanimbar, Maluku","Kab. Kepulauan Tanimbar, Maluku",MALUKU,,Indonesia,,-7.9834001,131.2937769,https://maps.google.com/?cid=0x0:0xf9dbcbfdf22e356a
hardware store,Toko,MR.DIY,"28G5+GQX, Olilit, Tanimbar Sel., Kab. Kepulauan Tanimbar, Maluku","Kab. Kepulauan Tanimbar, Maluku",MALUKU,,Indonesia,,-7.974116,131.3094876,https://maps.google.com/?cid=0x0:0xefb75adc6f61653d
hardware store,hardware store,Kec. Tanimbar Utara,"Kab. Kepulauan Tanimbar, Maluku","Kab. Kepulauan Tanimbar, Maluku",MALUKU,,Indonesia,,-7.1551532,131.7188169,https://maps.google.com/?cid=0x0:0xf9f74771470cd070
hardware store,Toko Alat-Alat,Sumber Teknik,"279W+7HX, Olilit, Tanimbar Sel., Kab. Kepulauan Tanimbar, Maluku","Kab. Kepulauan Tanimbar, Maluku",MALUKU,,Indonesia,,-7.9817522,131.2964919,https://maps.google.com/?cid=0x0:0x37fb3228cfa237ef
hardware store,Toko Bahan Bangunan,TOKO ILHAM,"28R5+VPH, Unnamed Road, Sifnana, Tanimbar Sel., Kab. Kepulauan Tanimbar, Maluku","Kab. Kepulauan Tanimbar, Maluku",MALUKU,,Indonesia,83125236425.0,-7.9578237,131.3093484,https://maps.google.com/?cid=0x0:0xdc8ca2706d30ea1a
hardware store,hardware store,Aneka Teknik,"Ruko Yamdena Plaza, Jl. Mathilda Batlayeri No.11 Blok A No 9, Kecamatan, Tanimbar Sel., Kab. Kepulauan Tanimbar, Maluku 97471","Jl. Mathilda Batlayeri No.11 Blok A No 9, Kecamatan, Tanimbar Sel., Kab. Kepulauan Tanimbar",MALUKU,97471.0,Indonesia,81356537291.0,-7.9825994,131.296232,https://maps.google.com/?cid=0x0:0x6ea3ba9c7a220db5
hardware store,hardware store,Kec. Fordata,"Kab. Kepulauan Tanimbar, Maluku","Kab. Kepulauan Tanimbar, Maluku",MALUKU,,Indonesia,,-7.0802629,131.9129913,https://maps.google.com/?cid=0x0:0xb4203fef18cb1043
hardware store,hardware store,Kec. Wuar Labobar,"Kab. Kepulauan Tanimbar, Maluku","Kab. Kepulauan Tanimbar, Maluku",MALUKU,,Indonesia,,-7.3440201,131.4304567,https://maps.google.com/?cid=0x0:0xff00056926ab874a
hardware store,hardware store,Kec. Kormomolin,"Kab. Kepulauan Tanimbar, Maluku","Kab. Kepulauan Tanimbar, Maluku",MALUKU,,Indonesia,,-7.6674273,131.5798856,https://maps.google.com/?cid=0x0:0x791e0bf26bea1fff
hardware store,Toko Bahan Bangunan,Toko Duta Bangunan,"Jl. Danau Rana, Namlea, Kec. Namlea, Kabupaten Buru, Maluku","Kabupaten Buru, Maluku",MALUKU,,Indonesia,91322010.0,-3.269268,127.1034228,https://maps.google.com/?cid=0x0:0x4d2e61629ea407b9
hardware store,Toko Bahan Bangunan,Sta.Cruz Lumber Hardware Corporation,"QM28+XVF, Gen. Luna St, Infanta, Quezon, Filipina","Infanta, Quezon, Filipina",MALUKU,,Indonesia,,14.7524373,121.6671753,https://maps.google.com/?cid=0x0:0x8d11065e3f39d8a0
hardware store,Toko,TOKO FAJAR MAS,"P3CX+R5Q, Namlea, Kec. Namlea, Kabupaten Buru, Maluku","Kabupaten Buru, Maluku",MALUKU,,Indonesia,81316222080.0,-3.2779017,127.0979019,https://maps.google.com/?cid=0x0:0xce7d9cbd242800a3
hardware store,Toko Sepatu,Toko Yudi,"28C3+8PJ, Olilit, Tanimbar Sel., Kab. Kepulauan Tanimbar, Maluku","Kab. Kepulauan Tanimbar, Maluku",MALUKU,,Indonesia,,-7.9791742,131.3042634,https://maps.google.com/?cid=0x0:0xab26b6b82e507920
hardware store,Toko,Toko sepatu,"288R+2M8, Olilit, Tanimbar Sel., Kab. Kepulauan Tanimbar, Maluku","Kab. Kepulauan Tanimbar, Maluku",MALUKU,,Indonesia,81247312842.0,-7.984967,131.341705,https://maps.google.com/?cid=0x0:0xf06368f57363dee6
hardware store,Toko Bahan Bangunan,YL Timber  Hardware,"Jln Lotong, 89100 Kota Marudu, Sabah, Malaysia",Kota Marudu,MALUKU,89100.0,Indonesia,60198522556.0,6.4904897,116.7678398,https://maps.google.com/?cid=0x0:0x1ec0e2912dbb1d1c
supermarket bangunan,Toko Bahan Bangunan,TOKO ILHAM,"28R5+VPH, Unnamed Road, Sifnana, Tanimbar Sel., Kab. Kepulauan Tanimbar, Maluku","Kab. Kepulauan Tanimbar, Maluku",MALUKU,,Indonesia,83125236425.0,-7.9578237,131.3093484,https://maps.google.com/?cid=0x0:0xdc8ca2706d30ea1a
supermarket bangunan,supermarket bangunan,Tanimbar Sel.,"Kab. Kepulauan Tanimbar, Maluku","Kab. Kepulauan Tanimbar, Maluku",MALUKU,,Indonesia,,-7.941769,131.2205911,https://maps.google.com/?cid=0x0:0x2fbf1b925d6dba13
supermarket bangunan,Toko,TANIMBAR SWALAYAN,"2894+54M, Jl. Ir. Soekarno, Saumlaki, Tanimbar Sel., Kab. Kepulauan Tanimbar, Maluku","Kab. Kepulauan Tanimbar, Maluku",MALUKU,,Indonesia,,-7.9820458,131.3053088,https://maps.google.com/?cid=0x0:0x664828f2a046a570
supermarket bangunan,Pusat Perbelanjaan,Toko Tujuh Serangkai,"Saumlaki, Tanimbar Sel., Kab. Kepulauan Tanimbar, Maluku","Kab. Kepulauan Tanimbar, Maluku",MALUKU,,Indonesia,91821066.0,-7.9831403,131.2959288,https://maps.google.com/?cid=0x0:0x9dd1e3a3e93a6538
supermarket bangunan,Toko,Toko Cahaya Buton,"Olilit, Tanimbar Sel., Kab. Kepulauan Tanimbar, Maluku","Kab. Kepulauan Tanimbar, Maluku",MALUKU,,Indonesia,82199324920.0,-7.9824365,131.2957106,https://maps.google.com/?cid=0x0:0x70e9a7624be9ac83
supermarket bangunan,Minimarket,TOKO AMAL JAYA,"278V+WF6, Olilit, Tanimbar Sel., Kab. Kepulauan Tanimbar, Maluku","Kab. Kepulauan Tanimbar, Maluku",MALUKU,,Indonesia,82199324920.0,-7.9836129,131.2936666,https://maps.google.com/?cid=0x0:0xcb311d7ebcd8c172
supermarket bangunan,Toko bahan makanan,Toko Mawambunga,"278V+RQ7, Olilit, Tanimbar Sel., Kab. Kepulauan Tanimbar, Maluku","Kab. Kepulauan Tanimbar, Maluku",MALUKU,,Indonesia,,-7.9829599,131.2944242,https://maps.google.com/?cid=0x0:0xcc3b45e351ba860c
supermarket bangunan,supermarket bangunan,Aneka Teknik,"Ruko Yamdena Plaza, Jl. Mathilda Batlayeri No.11 Blok A No 9, Kecamatan, Tanimbar Sel., Kab. Kepulauan Tanimbar, Maluku 97471","Jl. Mathilda Batlayeri No.11 Blok A No 9, Kecamatan, Tanimbar Sel., Kab. Kepulauan Tanimbar",MALUKU,97471.0,Indonesia,81356537291.0,-7.9825994,131.296232,https://maps.google.com/?cid=0x0:0x6ea3ba9c7a220db5
supermarket bangunan,Toko Swalayan,TOKO KAMI SAUMLAKI,"28F2+4MF, BTN LORONG 2, RT.001/RW.03, Saumlaki, Tanimbar Sel., Kab. Kepulauan Tanimbar, Maluku","Kab. Kepulauan Tanimbar, Maluku",MALUKU,,Indonesia,82199547782.0,-7.9771995,131.3016633,https://maps.google.com/?cid=0x0:0xaa197d2b3943d595
supermarket bangunan,Toko bahan makanan,Toko Serba Ada,"Jl.Sifnana Lorong No.7, Olilit, Tanimbar Sel., Kab. Kepulauan Tanimbar, Maluku 97471","Olilit, Tanimbar Sel., Kab. Kepulauan Tanimbar",MALUKU,97471.0,Indonesia,82121944711.0,-7.9647044,131.310445,https://maps.google.com/?cid=0x0:0xe2a19c0deb363d56
supermarket bangunan,Toko,Dermawan Toko,"28J7+JPH, Komplek Plaza Yamdena, Saumlaki, Tanimbar Sel., Kab. Kepulauan Tanimbar, Maluku","Kab. Kepulauan Tanimbar, Maluku",MALUKU,,Indonesia,91821787.0,-7.968426,131.31436,https://maps.google.com/?cid=0x0:0x3feb54c0396b057
supermarket bangunan,supermarket bangunan,Kec. Selaru,"Kab. Kepulauan Tanimbar, Maluku","Kab. Kepulauan Tanimbar, Maluku",MALUKU,,Indonesia,,-8.1318821,131.1133407,https://maps.google.com/?cid=0x0:0x21fc7f5cc6364753
supermarket bangunan,Toko Bahan Bangunan,TOKO ILHAM,"28R5+VPH, Unnamed Road, Sifnana, Tanimbar Sel., Kab. Kepulauan Tanimbar, Maluku","Kab. Kepulauan Tanimbar, Maluku",MALUKU,,Indonesia,83125236425.0,-7.9578237,131.3093484,https://maps.google.com/?cid=0x0:0xdc8ca2706d30ea1a
supermarket bangunan,Pusat Perbelanjaan,Toko Tujuh Serangkai,"Saumlaki, Tanimbar Sel., Kab. Kepulauan Tanimbar, Maluku","Kab. Kepulauan Tanimbar, Maluku",MALUKU,,Indonesia,91821066.0,-7.9831403,131.2959288,https://maps.google.com/?cid=0x0:0x9dd1e3a3e93a6538
supermarket bangunan,Toko Bahan Bangunan,Supermarket Bahan Bangunan Tirta Bangunan,"Jl. Raya Babakan Madang, Sentul, Kec. Babakan Madang, Kabupaten Bogor, Jawa Barat 16810","Sentul, Kec. Babakan Madang, Kabupaten Bogor",MALUKU,16810.0,Indonesia,8881300271.0,-6.5601203,106.8537161,https://maps.google.com/?cid=0x0:0xc9e77a7f8f9d2f66
supermarket bangunan,Toko Perlengkapan Rumah,Supermarket Bahan Bangunan Hong's - Sentul City,"Jl. Raya Babakan Madang No.5A, Citaringgul, Kec. Babakan Madang, Kabupaten Bogor, Jawa Barat 16810","Citaringgul, Kec. Babakan Madang, Kabupaten Bogor",MALUKU,16810.0,Indonesia,87872001998.0,-6.560865,106.8541738,https://maps.google.com/?cid=0x0:0xd391ab3b8e63668d
supermarket bangunan,supermarket bangunan,Kec. Wer Maktian,"Kab. Kepulauan Tanimbar, Maluku","Kab. Kepulauan Tanimbar, Maluku",MALUKU,,Indonesia,,-7.6851092,131.1322161,https://maps.google.com/?cid=0x0:0xd6cd550965163a24
supermarket bangunan,Toko Bahan Bangunan,TOKO ILHAM,"28R5+VPH, Unnamed Road, Sifnana, Tanimbar Sel., Kab. Kepulauan Tanimbar, Maluku","Kab. Kepulauan Tanimbar, Maluku",MALUKU,,Indonesia,83125236425.0,-7.9578237,131.3093484,https://maps.google.com/?cid=0x0:0xdc8ca2706d30ea1a
supermarket bangunan,Pusat Perbelanjaan,Toko Tujuh Serangkai,"Saumlaki, Tanimbar Sel., Kab. Kepulauan Tanimbar, Maluku","Kab. Kepulauan Tanimbar, Maluku",MALUKU,,Indonesia,91821066.0,-7.9831403,131.2959288,https://maps.google.com/?cid=0x0:0x9dd1e3a3e93a6538
supermarket bangunan,Toko Bahan Bangunan,toko kei bahan bangunan,"HXJC+XXW, Jl. Propinsi, Bemo, Werinama, Kabupaten Seram Bagian Timur, Maluku","Kabupaten Seram Bagian Timur, Maluku",MALUKU,,Indonesia,85299873874.0,-3.3492375,129.9519197,https://maps.google.com/?cid=0x0:0x1218f1c4ce74ce62
supermarket bangunan,supermarket bangunan,Wer Tamrian,"Kab. Kepulauan Tanimbar, Maluku","Kab. Kepulauan Tanimbar, Maluku",MALUKU,,Indonesia,,-7.7661937,131.401196,https://maps.google.com/?cid=0x0:0xaded055189834b4b
supermarket bangunan,Toko Bahan Bangunan,Makmur Utama Supermarket Bahan bangunan,"Tj. Niara, Kec. Tobelo Tengah, Kabupaten Halmahera Utara, Maluku Utara","Kabupaten Halmahera Utara, Maluku Utara",MALUKU,,Indonesia,85117420324.0,1.7019679,128.0155893,https://maps.google.com/?cid=0x0:0x47ecdf114648cbc2
supermarket bangunan,supermarket bangunan,Aneka Teknik,"Ruko Yamdena Plaza, Jl. Mathilda Batlayeri No.11 Blok A No 9, Kecamatan, Tanimbar Sel., Kab. Kepulauan Tanimbar, Maluku 97471","Jl. Mathilda Batlayeri No.11 Blok A No 9, Kecamatan, Tanimbar Sel., Kab. Kepulauan Tanimbar",MALUKU,97471.0,Indonesia,81356537291.0,-7.9825994,131.296232,https://maps.google.com/?cid=0x0:0x6ea3ba9c7a220db5
supermarket bangunan,Toko Bahan Bangunan,Makmur Utama Supermarket Bahan Bangunan,"Jambula, Kec. Pulau Ternate, Kota Ternate, Maluku Utara","Kota Ternate, Maluku Utara",MALUKU,,Indonesia,8114313899.0,0.7581804,127.3220409,https://maps.google.com/?cid=0x0:0xe3a01731f7851efa
supermarket bangunan,Toko Bahan Bangunan,TOKO ILHAM,"28R5+VPH, Unnamed Road, Sifnana, Tanimbar Sel., Kab. Kepulauan Tanimbar, Maluku","Kab. Kepulauan Tanimbar, Maluku",MALUKU,,Indonesia,83125236425.0,-7.9578237,131.3093484,https://maps.google.com/?cid=0x0:0xdc8ca2706d30ea1a
supermarket bangunan,Toko Perabot Supermarket,Mitra Bangunan,"Jl. Yos Sudarso No.14, Tanah Periuk, Kec. Lubuk Linggau Sel. II, Kota Lubuklinggau, Sumatera Selatan 31625","Tanah Periuk, Kec. Lubuk Linggau Sel. II, Kota Lubuklinggau",MALUKU,31625.0,Indonesia,733452777.0,-3.2690049,102.9357177,https://maps.google.com/?cid=0x0:0xd9152c021df7fb4f
supermarket bangunan,Toko Perlengkapan Rumah,Mitra Bangunan Supermarket Lubuk Linggau,"Watervang, Kec. Lubuk Linggau Tim. I, Kota Lubuklinggau, Sumatera Selatan 31625","Kec. Lubuk Linggau Tim. I, Kota Lubuklinggau",MALUKU,31625.0,Indonesia,,-3.2756118,102.9003116,https://maps.google.com/?cid=0x0:0x9741dde2cf1035e
supermarket bangunan,Tempat Fitness,AXL GYM Lubuk Linggau,"Jl. Yos Sudarso, Watervang, Kec. Lubuk Linggau Tim. I, Kota Lubuklinggau, Sumatera Selatan 31625","Watervang, Kec. Lubuk Linggau Tim. I, Kota Lubuklinggau",MALUKU,31625.0,Indonesia,82282817430.0,-3.2755294,102.8999793,https://maps.google.com/?cid=0x0:0x2a9de378273db795
supermarket bangunan,supermarket bangunan,Kec. Tanimbar Utara,"Kab. Kepulauan Tanimbar, Maluku","Kab. Kepulauan Tanimbar, Maluku",MALUKU,,Indonesia,,-7.1551532,131.7188169,https://maps.google.com/?cid=0x0:0xf9f74771470cd070
supermarket bangunan,Toko Bahan Bangunan,TOKO ILHAM,"28R5+VPH, Unnamed Road, Sifnana, Tanimbar Sel., Kab. Kepulauan Tanimbar, Maluku","Kab. Kepulauan Tanimbar, Maluku",MALUKU,,Indonesia,83125236425.0,-7.9578237,131.3093484,https://maps.google.com/?cid=0x0:0xdc8ca2706d30ea1a
supermarket bangunan,Toko Bahan Bangunan,Toko bangunan Al Mubarak,"279W+294, Pasar, Olilit, Tanimbar Sel., Kab. Kepulauan Tanimbar, Maluku","Kab. Kepulauan Tanimbar, Maluku",MALUKU,,Indonesia,8123746174.0,-7.9824933,131.2959625,https://maps.google.com/?cid=0x0:0xd6b97f6e48819bac
supermarket bangunan,supermarket bangunan,Aneka Teknik,"Ruko Yamdena Plaza, Jl. Mathilda Batlayeri No.11 Blok A No 9, Kecamatan, Tanimbar Sel., Kab. Kepulauan Tanimbar, Maluku 97471","Jl. Mathilda Batlayeri No.11 Blok A No 9, Kecamatan, Tanimbar Sel., Kab. Kepulauan Tanimbar",MALUKU,97471.0,Indonesia,81356537291.0,-7.9825994,131.296232,https://maps.google.com/?cid=0x0:0x6ea3ba9c7a220db5
supermarket bangunan,Pusat Perbelanjaan,Toko Tujuh Serangkai,"Saumlaki, Tanimbar Sel., Kab. Kepulauan Tanimbar, Maluku","Kab. Kepulauan Tanimbar, Maluku",MALUKU,,Indonesia,91821066.0,-7.9831403,131.2959288,https://maps.google.com/?cid=0x0:0x9dd1e3a3e93a6538
supermarket bangunan,Minimarket,TOKO AMAL JAYA,"278V+WF6, Olilit, Tanimbar Sel., Kab. Kepulauan Tanimbar, Maluku","Kab. Kepulauan Tanimbar, Maluku",MALUKU,,Indonesia,82199324920.0,-7.9836129,131.2936666,https://maps.google.com/?cid=0x0:0xcb311d7ebcd8c172
supermarket bangunan,Toko Bahan Bangunan,Toko Duta Bangunan,"Jl. Danau Rana, Namlea, Kec. Namlea, Kabupaten Buru, Maluku","Kabupaten Buru, Maluku",MALUKU,,Indonesia,91322010.0,-3.269268,127.1034228,https://maps.google.com/?cid=0x0:0x4d2e61629ea407b9
supermarket bangunan,Toko bahan makanan,Toko Mawambunga,"278V+RQ7, Olilit, Tanimbar Sel., Kab. Kepulauan Tanimbar, Maluku","Kab. Kepulauan Tanimbar, Maluku",MALUKU,,Indonesia,,-7.9829599,131.2944242,https://maps.google.com/?cid=0x0:0xcc3b45e351ba860c
supermarket bangunan,Toko Bahan Bangunan,Toko Bangunan MITRA TAN,"97MF+8VH NO WA OI54O54249, Suli, Kec. Salahutu, Kabupaten Maluku Tengah, Maluku","Kabupaten Maluku Tengah, Maluku",MALUKU,,Indonesia,81343488879.0,-3.6166875,128.2747344,https://maps.google.com/?cid=0x0:0x55252b65239f9a78
supermarket bangunan,Toko Bahan Bangunan,Makmur Utama Supermarket Bahan Bangunan,"Jambula, Kec. Pulau Ternate, Kota Ternate, Maluku Utara","Kota Ternate, Maluku Utara",MALUKU,,Indonesia,8114313899.0,0.7581804,127.3220409,https://maps.google.com/?cid=0x0:0xe3a01731f7851efa
supermarket bangunan,Toko Bahan Bangunan,Makmur Utama Supermarket Bahan Bangunan,"Jl. Yasin Gamsungi No.2 Kec. ternate tengah, Kel, Makassar Tim., Makassar Timur, Kota Ternate, Maluku Utara 97724","Kel, Makassar Tim., Makassar Timur, Kota Ternate",MALUKU,97724.0,Indonesia,8114313799.0,0.7940352,127.3876695,https://maps.google.com/?cid=0x0:0x2f492ae87bf64247
supermarket bangunan,Toko Bahan Bangunan,Supermarket Bahan Bangunan Tirta Bangunan,"Jl. Raya Babakan Madang, Sentul, Kec. Babakan Madang, Kabupaten Bogor, Jawa Barat 16810","Sentul, Kec. Babakan Madang, Kabupaten Bogor",MALUKU,16810.0,Indonesia,8881300271.0,-6.5601203,106.8537161,https://maps.google.com/?cid=0x0:0xc9e77a7f8f9d2f66
supermarket bangunan,supermarket bangunan,Supermarket Bahan Bangunan,"Jl. Raya Sawangan No.3, RT.3/RW.1, Mampang, Kec. Pancoran Mas, Kota Depok, Jawa Barat 16433","RT.3/RW.1, Mampang, Kec. Pancoran Mas, Kota Depok",MALUKU,16433.0,Indonesia,,-6.3956904,106.8033472,https://maps.google.com/?cid=0x0:0xbf85e2787e32635c
supermarket bangunan,supermarket bangunan,,,,MALUKU,,Indonesia,85947000018.0,-6.2297465,106.829518,https://maps.google.com/?cid=0x0:0xa1da7ae6dc5969f4
supermarket bangunan,supermarket bangunan,Kec. Wuar Labobar,"Kab. Kepulauan Tanimbar, Maluku","Kab. Kepulauan Tanimbar, Maluku",MALUKU,,Indonesia,,-7.3440201,131.4304567,https://maps.google.com/?cid=0x0:0xff00056926ab874a
supermarket bangunan,Toko Bahan Bangunan,Makmur Utama Supermarket Bahan bangunan,"Tj. Niara, Kec. Tobelo Tengah, Kabupaten Halmahera Utara, Maluku Utara","Kabupaten Halmahera Utara, Maluku Utara",MALUKU,,Indonesia,85117420324.0,1.7019679,128.0155893,https://maps.google.com/?cid=0x0:0x47ecdf114648cbc2
supermarket bangunan,Toko Bahan Bangunan,Makmur Utama Supermarket Bahan Bangunan,"Jl. Yasin Gamsungi No.2 Kec. ternate tengah, Kel, Makassar Tim., Makassar Timur, Kota Ternate, Maluku Utara 97724","Kel, Makassar Tim., Makassar Timur, Kota Ternate",MALUKU,97724.0,Indonesia,8114313799.0,0.7940352,127.3876695,https://maps.google.com/?cid=0x0:0x2f492ae87bf64247
supermarket bangunan,Toko Bahan Bangunan,Toko Bangunan Lestari Baru,"Waihatu, Kec. Kairatu Bar., Kabupaten Seram Bagian Barat, Maluku","Kabupaten Seram Bagian Barat, Maluku",MALUKU,,Indonesia,82238832490.0,-3.2864381,128.3222819,https://maps.google.com/?cid=0x0:0xb14d86a65046c260
supermarket bangunan,Toko Bahan Bangunan,Toko bangunan Al Mubarak,"279W+294, Pasar, Olilit, Tanimbar Sel., Kab. Kepulauan Tanimbar, Maluku","Kab. Kepulauan Tanimbar, Maluku",MALUKU,,Indonesia,8123746174.0,-7.9824933,131.2959625,https://maps.google.com/?cid=0x0:0xd6b97f6e48819bac
supermarket bangunan,Toko Bahan Bangunan,TOKO ILHAM,"28R5+VPH, Unnamed Road, Sifnana, Tanimbar Sel., Kab. Kepulauan Tanimbar, Maluku","Kab. Kepulauan Tanimbar, Maluku",MALUKU,,Indonesia,83125236425.0,-7.9578237,131.3093484,https://maps.google.com/?cid=0x0:0xdc8ca2706d30ea1a
supermarket bangunan,Toko,Toko Cahaya Buton,"Olilit, Tanimbar Sel., Kab. Kepulauan Tanimbar, Maluku","Kab. Kepulauan Tanimbar, Maluku",MALUKU,,Indonesia,82199324920.0,-7.9824365,131.2957106,https://maps.google.com/?cid=0x0:0x70e9a7624be9ac83
supermarket bangunan,supermarket bangunan,Aneka Teknik,"Ruko Yamdena Plaza, Jl. Mathilda Batlayeri No.11 Blok A No 9, Kecamatan, Tanimbar Sel., Kab. Kepulauan Tanimbar, Maluku 97471","Jl. Mathilda Batlayeri No.11 Blok A No 9, Kecamatan, Tanimbar Sel., Kab. Kepulauan Tanimbar",MALUKU,97471.0,Indonesia,81356537291.0,-7.9825994,131.296232,https://maps.google.com/?cid=0x0:0x6ea3ba9c7a220db5
supermarket bangunan,Toko Bahan Bangunan,JW Mart Taman Kopo (supermarket bahan bangunan terlengkap),"Ruko Taman Kopo Indah II, Ruko 2A no.57, Rahayu, Kec. Margaasih, Kota Bandung, Jawa Barat 40218","Ruko 2A no.57, Rahayu, Kec. Margaasih, Kota Bandung",MALUKU,40218.0,Indonesia,,-6.9610162,107.5594562,https://maps.google.com/?cid=0x0:0x1ddec324f90d055
supermarket bangunan,Toko Bahan Bangunan,Sinar Maju,"Jl. Taman Kopo Indah 3 No.118, Rahayu, Kec. Margaasih, Kabupaten Bandung, Jawa Barat 40218","Rahayu, Kec. Margaasih, Kabupaten Bandung",MALUKU,40218.0,Indonesia,,-6.965356,107.5546375,https://maps.google.com/?cid=0x0:0xe8a907e3be88131
supermarket bangunan,Pusat Perbelanjaan,Toko Tujuh Serangkai,"Saumlaki, Tanimbar Sel., Kab. Kepulauan Tanimbar, Maluku","Kab. Kepulauan Tanimbar, Maluku",MALUKU,,Indonesia,91821066.0,-7.9831403,131.2959288,https://maps.google.com/?cid=0x0:0x9dd1e3a3e93a6538
supermarket bangunan,supermarket bangunan,Kec. Kormomolin,"Kab. Kepulauan Tanimbar, Maluku","Kab. Kepulauan Tanimbar, Maluku",MALUKU,,Indonesia,,-7.6674273,131.5798856,https://maps.google.com/?cid=0x0:0x791e0bf26bea1fff
supermarket bangunan,Toko Bahan Bangunan,TOKO ILHAM,"28R5+VPH, Unnamed Road, Sifnana, Tanimbar Sel., Kab. Kepulauan Tanimbar, Maluku","Kab. Kepulauan Tanimbar, Maluku",MALUKU,,Indonesia,83125236425.0,-7.9578237,131.3093484,https://maps.google.com/?cid=0x0:0xdc8ca2706d30ea1a
supermarket bangunan,Toko,Toko Cahaya Buton,"Olilit, Tanimbar Sel., Kab. Kepulauan Tanimbar, Maluku","Kab. Kepulauan Tanimbar, Maluku",MALUKU,,Indonesia,82199324920.0,-7.9824365,131.2957106,https://maps.google.com/?cid=0x0:0x70e9a7624be9ac83
supermarket bangunan,Minimarket,TOKO AMAL JAYA,"278V+WF6, Olilit, Tanimbar Sel., Kab. Kepulauan Tanimbar, Maluku","Kab. Kepulauan Tanimbar, Maluku",MALUKU,,Indonesia,82199324920.0,-7.9836129,131.2936666,https://maps.google.com/?cid=0x0:0xcb311d7ebcd8c172
supermarket bangunan,Toko Bahan Bangunan,Makmur Utama Supermarket Bahan Bangunan,"Jl. Yasin Gamsungi No.2 Kec. ternate tengah, Kel, Makassar Tim., Makassar Timur, Kota Ternate, Maluku Utara 97724","Kel, Makassar Tim., Makassar Timur, Kota Ternate",MALUKU,97724.0,Indonesia,8114313799.0,0.7940352,127.3876695,https://maps.google.com/?cid=0x0:0x2f492ae87bf64247
supermarket bangunan,Toko Bahan Bangunan,JSM Mart Warung Lobak (supermarket bahan bangunan),"Jl. Terusan Kopo No.83, Cingcin, Kec. Soreang, Kabupaten Bandung, Jawa Barat 40921","Cingcin, Kec. Soreang, Kabupaten Bandung",MALUKU,40921.0,Indonesia,,-7.0165819,107.5470806,https://maps.google.com/?cid=0x0:0x104ea2afa2937a32
supermarket bangunan,Toko Bahan Bangunan,JSM Mart Katapang,"Jalan Terusan Kopo No.KM 11 No.14, Cilampeni, Kec. Katapang, Kabupaten Bandung, Jawa Barat 40921","Cilampeni, Kec. Katapang, Kabupaten Bandung",MALUKU,40921.0,Indonesia,,-6.9890627,107.5571893,https://maps.google.com/?cid=0x0:0xc788fe241984c778
supermarket bangunan,Toko Bahan Bangunan,JSM Mart Ciparay (Supermarket Bahan Bangunan Terlengkap),"Jl. Raya Laswi No.23-24, Baranangsiang, Kec. Ciparay, Kabupaten Bandung, Jawa Barat 40273","Baranangsiang, Kec. Ciparay, Kabupaten Bandung",MALUKU,40273.0,Indonesia,,-7.0315958,107.7015093,https://maps.google.com/?cid=0x0:0x7d4f4a169f634b73
supermarket bangunan,Toko Bahan Bangunan,JW Mart Taman Kopo (supermarket bahan bangunan terlengkap),"Ruko Taman Kopo Indah II, Ruko 2A no.57, Rahayu, Kec. Margaasih, Kota Bandung, Jawa Barat 40218","Ruko 2A no.57, Rahayu, Kec. Margaasih, Kota Bandung",MALUKU,40218.0,Indonesia,,-6.9610162,107.5594562,https://maps.google.com/?cid=0x0:0x1ddec324f90d055
supermarket bangunan,Toko Bahan Bangunan,TOKO ILHAM,"28R5+VPH, Unnamed Road, Sifnana, Tanimbar Sel., Kab. Kepulauan Tanimbar, Maluku","Kab. Kepulauan Tanimbar, Maluku",MALUKU,,Indonesia,83125236425.0,-7.9578237,131.3093484,https://maps.google.com/?cid=0x0:0xdc8ca2706d30ea1a
supermarket bangunan,Toko Bahan Bangunan,Supermarket Multi Bangunan,"Jl Baru No.98, Wai Mhorock, Abepura, Jayapura City, Papua 99225","Wai Mhorock, Abepura, Jayapura City",MALUKU,99225.0,Indonesia,967588677.0,-2.6077336,140.6742812,https://maps.google.com/?cid=0x0:0x3b19f301c68f1d6f
supermarket bangunan,Toko Bahan Bangunan,Toko Samy,"28V5+5M8, Sifnana, Tanimbar Sel., Kab. Kepulauan Tanimbar, Maluku","Kab. Kepulauan Tanimbar, Maluku",MALUKU,,Indonesia,,-7.9570839,131.3092097,https://maps.google.com/?cid=0x0:0xcb981476db5d604d
supermarket bangunan,supermarket bangunan,Kec. Molu Maru,"Kab. Kepulauan Tanimbar, Maluku","Kab. Kepulauan Tanimbar, Maluku",MALUKU,,Indonesia,,-6.7063732,131.5635744,https://maps.google.com/?cid=0x0:0x249d2f0e14e786d1
supermarket bangunan,Toko Bahan Bangunan,Makmur Utama Supermarket Bahan Bangunan,"Jambula, Kec. Pulau Ternate, Kota Ternate, Maluku Utara","Kota Ternate, Maluku Utara",MALUKU,,Indonesia,8114313899.0,0.7581804,127.3220409,https://maps.google.com/?cid=0x0:0xe3a01731f7851efa
supermarket bangunan,Toko Bahan Bangunan,Toko bangunan Al Mubarak,"279W+294, Pasar, Olilit, Tanimbar Sel., Kab. Kepulauan Tanimbar, Maluku","Kab. Kepulauan Tanimbar, Maluku",MALUKU,,Indonesia,8123746174.0,-7.9824933,131.2959625,https://maps.google.com/?cid=0x0:0xd6b97f6e48819bac
supermarket bangunan,Toko Bahan Bangunan,TOKO ILHAM,"28R5+VPH, Unnamed Road, Sifnana, Tanimbar Sel., Kab. Kepulauan Tanimbar, Maluku","Kab. Kepulauan Tanimbar, Maluku",MALUKU,,Indonesia,83125236425.0,-7.9578237,131.3093484,https://maps.google.com/?cid=0x0:0xdc8ca2706d30ea1a
supermarket bangunan,Minimarket,TOKO AMAL JAYA,"278V+WF6, Olilit, Tanimbar Sel., Kab. Kepulauan Tanimbar, Maluku","Kab. Kepulauan Tanimbar, Maluku",MALUKU,,Indonesia,82199324920.0,-7.9836129,131.2936666,https://maps.google.com/?cid=0x0:0xcb311d7ebcd8c172
supermarket bangunan,supermarket bangunan,Aneka Teknik,"Ruko Yamdena Plaza, Jl. Mathilda Batlayeri No.11 Blok A No 9, Kecamatan, Tanimbar Sel., Kab. Kepulauan Tanimbar, Maluku 97471","Jl. Mathilda Batlayeri No.11 Blok A No 9, Kecamatan, Tanimbar Sel., Kab. Kepulauan Tanimbar",MALUKU,97471.0,Indonesia,81356537291.0,-7.9825994,131.296232,https://maps.google.com/?cid=0x0:0x6ea3ba9c7a220db5
supermarket bangunan,Toko,Toko Cahaya Buton,"Olilit, Tanimbar Sel., Kab. Kepulauan Tanimbar, Maluku","Kab. Kepulauan Tanimbar, Maluku",MALUKU,,Indonesia,82199324920.0,-7.9824365,131.2957106,https://maps.google.com/?cid=0x0:0x70e9a7624be9ac83
supermarket bangunan,Toko Bahan Bangunan,Makmur Utama Supermarket Bahan Bangunan,"Jl. Yasin Gamsungi No.2 Kec. ternate tengah, Kel, Makassar Tim., Makassar Timur, Kota Ternate, Maluku Utara 97724","Kel, Makassar Tim., Makassar Timur, Kota Ternate",MALUKU,97724.0,Indonesia,8114313799.0,0.7940352,127.3876695,https://maps.google.com/?cid=0x0:0x2f492ae87bf64247
supermarket bangunan,Toko Bahan Bangunan,Madju Utama Supermarket Bahan Bangunan,"Jl. KH. Noer Ali, RT.003/RW.025, Kayuringin Jaya, Kec. Bekasi Sel., Kota Bks, Jawa Barat 17148","RT.003/RW.025, Kayuringin Jaya, Kec. Bekasi Sel., Kota Bks",MALUKU,17148.0,Indonesia,87780164555.0,-6.2475509,106.9792324,https://maps.google.com/?cid=0x0:0x3c4fc9f20a3df4f3
supermarket bangunan,Toko Bahan Bangunan,Pratama Supermarket Bahan Bangunan,"Jl. Raya Lemahabang No.27, Mekarmukti, Kec. Cikarang Utara, Kabupaten Bekasi, Jawa Barat 17530","Mekarmukti, Kec. Cikarang Utara, Kabupaten Bekasi",MALUKU,17530.0,Indonesia,218934974.0,-6.2894221,107.1531609,https://maps.google.com/?cid=0x0:0x167f4446dd2fadda
