Category,Real Category,Business Name,Address,City,State,Postal Code,Country,Phone,Latitude,Longitude,Map Link
mall,mall,Tanimbar Sel.,"Kab. Kepulauan Tanimbar, Maluku","Kab. Kepulauan Tanimbar, Maluku",MALUKU,,Indonesia,,-7.941769,131.2205911,https://maps.google.com/?cid=0x0:0x2fbf1b925d6dba13
mall,Toserba,Saumlaki Town Square (SATOS),"278W+VG4, Olilit, Tanimbar Sel., Kab. Kepulauan Tanimbar, Maluku 97464","Olilit, Tanimbar Sel., Kab. Kepulauan Tanimbar",MALUKU,97464.0,Indonesia,,-7.9828699,131.2963299,https://maps.google.com/?cid=0x0:0xb3a63dced6b14098
mall,Komplek perumahan,Komplek BTN MBT,"28F2+8PG, Unnamed Road, Olilit, Tanimbar Sel., Kab. Kepulauan Tanimbar, Maluku","Kab. Kepulauan Tanimbar, Maluku",MALUKU,,Indonesia,82398202219.0,-7.9766973,131.3018245,https://maps.google.com/?cid=0x0:0x6e0f43beac6ff16d
mall,Pusat Perbelanjaan,Mall SATOS,"278W+PPV, Olilit, Tanimbar Sel., Kab. Kepulauan Tanimbar, Maluku","Kab. Kepulauan Tanimbar, Maluku",MALUKU,,Indonesia,,-7.9828539,131.2965164,https://maps.google.com/?cid=0x0:0xc794df36ac2c7810
mall,Toko grosir,TOKO CAHAYA LAMENA 1,"Olilit, Tanimbar Sel., Kab. Kepulauan Tanimbar, Maluku","Kab. Kepulauan Tanimbar, Maluku",MALUKU,,Indonesia,81340018189.0,-7.9824369,131.2957105,https://maps.google.com/?cid=0x0:0xf966dae42e66f361
mall,Pusat Perbelanjaan,Toko Helm Kissara,"28R5+JM4, Sifnana, Tanimbar Sel., Kab. Kepulauan Tanimbar, Maluku","Kab. Kepulauan Tanimbar, Maluku",MALUKU,,Indonesia,85344405999.0,-7.95849,131.3093049,https://maps.google.com/?cid=0x0:0x8334cd6d24ed93e2
mall,Tempat Pencucian Mobil,Pencucian Motor Fashfa-Toko Helm,"279W+2V3, Olilit, Tanimbar Sel., Kab. Kepulauan Tanimbar, Maluku","Kab. Kepulauan Tanimbar, Maluku",MALUKU,,Indonesia,85344858585.0,-7.9824994,131.2971681,https://maps.google.com/?cid=0x0:0x9199d30c4838595b
mall,mall,Toko tiga putra,"28G2+9RR, Jl. Mathilda Batlayeri, Olilit, Tanimbar Sel., Kab. Kepulauan Tanimbar, Maluku","Kab. Kepulauan Tanimbar, Maluku",MALUKU,,Indonesia,,-7.9740007,131.3020059,https://maps.google.com/?cid=0x0:0xc88cdd42acf37abe
mall,Toko Pakaian,Dr.jackdistro 02,"27FX+7P3, Jln Mathilda bathlayeri depan lorong surya, Kp babar, Olilit, Tanimbar Sel., Kab. Kepulauan Tanimbar, Maluku","Kab. Kepulauan Tanimbar, Maluku",MALUKU,,Indonesia,82399550431.0,-7.9768748,131.299311,https://maps.google.com/?cid=0x0:0xb4ca8b84ff830207
mall,Bengkel Sepeda Motor,Toko Kissara Motor,"Sifnana, Tanimbar Sel., Kab. Kepulauan Tanimbar, Maluku","Kab. Kepulauan Tanimbar, Maluku",MALUKU,,Indonesia,85344405999.0,-7.9572691,131.3091637,https://maps.google.com/?cid=0x0:0xffa744501ff83a81
mall,mall,Kios CELIN,"279V+886, Pasar lama","Kab. Kepulauan Tanimbar, Maluku",MALUKU,,Indonesia,,-7.9817138,131.293273,https://maps.google.com/?cid=0x0:0x733ff6dbec8022b7
mall,Toko,Pasar Omele Sifnana,"Sifnana, Tanimbar Sel., Kab. Kepulauan Tanimbar, Maluku","Kab. Kepulauan Tanimbar, Maluku",MALUKU,,Indonesia,,-7.9572591,131.3094028,https://maps.google.com/?cid=0x0:0x4ead064e4f739ad8
mall,Toko,TANIMBAR SWALAYAN,"2894+54M, Jl. Ir. Soekarno, Saumlaki, Tanimbar Sel., Kab. Kepulauan Tanimbar, Maluku","Kab. Kepulauan Tanimbar, Maluku",MALUKU,,Indonesia,,-7.9820458,131.3053088,https://maps.google.com/?cid=0x0:0x664828f2a046a570
mall,Pusat Perbelanjaan,Blok M Plaza,"Jl. Bulungan No.76, RT.6/RW.6, Kramat Pela, Kec. Kby. Baru, Kota Jakarta Selatan, Daerah Khusus Ibukota Jakarta 12130","RT.6/RW.6, Kramat Pela, Kec. Kby. Baru, Kota Jakarta Selatan",MALUKU,12130.0,Indonesia,217209288.0,-6.2441189,106.7976404,https://maps.google.com/?cid=0x0:0x3e110f817acb352d
mall,mall,Mas Gus Ratuanak,"V4C7+6JH, Adaut, Kec. Selaru, Kab. Kepulauan Tanimbar, Maluku","Kab. Kepulauan Tanimbar, Maluku",MALUKU,,Indonesia,,-8.1300318,131.113969,https://maps.google.com/?cid=0x0:0x593982fc4085fa24
mall,Pusat Perbelanjaan,Summarecon Villaggio Outlets,"Jl. Bulevar Summarecon Emerald Blk. A No.Kav.1, Kondangjaya, Kec. Karawang Tim., Karawang, Jawa Barat 41371","Kondangjaya, Kec. Karawang Tim., Karawang",MALUKU,41371.0,Indonesia,81260007610.0,-6.3231493,107.3397329,https://maps.google.com/?cid=0x0:0x2c938e54a54bcc3c
mall,Mal outlet,Supermal Karawaci,"Jl. Boulevard Diponegoro No.105, Bencongan, Kec. Klp. Dua, Kabupaten Tangerang, Banten 15810","Bencongan, Kec. Klp. Dua, Kabupaten Tangerang",MALUKU,15810.0,Indonesia,215466666.0,-6.2268116,106.6070233,https://maps.google.com/?cid=0x0:0xc5927a7be82e23b8
mall,mall,Kec. Wer Maktian,"Kab. Kepulauan Tanimbar, Maluku","Kab. Kepulauan Tanimbar, Maluku",MALUKU,,Indonesia,,-7.6851092,131.1322161,https://maps.google.com/?cid=0x0:0xd6cd550965163a24
mall,Sekolah menengah,SMP NEGERI 1 WERMAKTIAN,"82MM+RQM, Unnamed Road, Rumah Salut, Kec. Wer Maktian, Kab. Kepulauan Tanimbar, Maluku","Kab. Kepulauan Tanimbar, Maluku",MALUKU,,Indonesia,82198283339.0,-7.6654005,131.0344207,https://maps.google.com/?cid=0x0:0x969edc94ba53c8e0
mall,Kantor Hubungan Masyarakat,Kantor Desa Marantutul,"644Q+436, Marantutul, Wer Maktian, Tanimbar Islands, Maluku","Kab. Kepulauan Tanimbar, Maluku",MALUKU,,Indonesia,,-7.7947209,131.137646,https://maps.google.com/?cid=0x0:0x492937c104f900a8
mall,mall,Galeri Wisata,"82PM+F7G, Unnamed Road, Rumah Salut, Kec. Wer Maktian, Kab. Kepulauan Tanimbar, Maluku","Kab. Kepulauan Tanimbar, Maluku",MALUKU,,Indonesia,,-7.663815,131.0332176,https://maps.google.com/?cid=0x0:0x81e8173dd433a807
mall,mall,Desa Temin,"82PM+9JW, Rumah Salut, Kec. Wer Maktian, Kab. Kepulauan Tanimbar, Maluku","Kab. Kepulauan Tanimbar, Maluku",MALUKU,,Indonesia,,-7.6640143,131.0340713,https://maps.google.com/?cid=0x0:0x81047e08a8fdd72e
mall,mall,Desa Welutu,"82FP+36G, Rumah Salut, Kec. Wer Maktian, Kab. Kepulauan Tanimbar, Maluku","Kab. Kepulauan Tanimbar, Maluku",MALUKU,,Indonesia,,-7.677318,131.035584,https://maps.google.com/?cid=0x0:0x50724056f356908d
mall,Pondok pedesaan,Desa Kamatubun,"7XWQ+QH5, Kamatubun, Kec. Wer Maktian, Kab. Kepulauan Tanimbar, Maluku","Kab. Kepulauan Tanimbar, Maluku",MALUKU,,Indonesia,,-7.7031053,130.9889695,https://maps.google.com/?cid=0x0:0x602a94c96b75de85
mall,Sekolah Menengah Atas,SMA Negeri 13 Kepulauan Tanimbar,"82JM+75, Rumah Salut, Kec. Wer Maktian, Kab. Kepulauan Tanimbar, Maluku","Kab. Kepulauan Tanimbar, Maluku",MALUKU,,Indonesia,82198467002.0,-7.6702449,131.0330149,https://maps.google.com/?cid=0x0:0x9c4b98da5720a1b
mall,,SMP Negeri Satu Atap Marantutul,"643P+HJH, Batu Putih, Kec. Wer Maktian, Kab. Kepulauan Tanimbar, Maluku","Kab. Kepulauan Tanimbar, Maluku",MALUKU,,Indonesia,,-7.7960584,131.1366118,https://maps.google.com/?cid=0x0:0x8c472a35f9bb05f4
mall,mall,Wer Tamrian,"Kab. Kepulauan Tanimbar, Maluku","Kab. Kepulauan Tanimbar, Maluku",MALUKU,,Indonesia,,-7.7661937,131.401196,https://maps.google.com/?cid=0x0:0xaded055189834b4b
mall,Pusat Perbelanjaan,Mall SATOS,"278W+PPV, Olilit, Tanimbar Sel., Kab. Kepulauan Tanimbar, Maluku","Kab. Kepulauan Tanimbar, Maluku",MALUKU,,Indonesia,,-7.9828539,131.2965164,https://maps.google.com/?cid=0x0:0xc794df36ac2c7810
mall,Toserba,Saumlaki Town Square (SATOS),"278W+VG4, Olilit, Tanimbar Sel., Kab. Kepulauan Tanimbar, Maluku 97464","Olilit, Tanimbar Sel., Kab. Kepulauan Tanimbar",MALUKU,97464.0,Indonesia,,-7.9828699,131.2963299,https://maps.google.com/?cid=0x0:0xb3a63dced6b14098
mall,Komplek perumahan,Komplek BTN MBT,"28F2+8PG, Unnamed Road, Olilit, Tanimbar Sel., Kab. Kepulauan Tanimbar, Maluku","Kab. Kepulauan Tanimbar, Maluku",MALUKU,,Indonesia,82398202219.0,-7.9766973,131.3018245,https://maps.google.com/?cid=0x0:0x6e0f43beac6ff16d
mall,mall,Toko tiga putra,"28G2+9RR, Jl. Mathilda Batlayeri, Olilit, Tanimbar Sel., Kab. Kepulauan Tanimbar, Maluku","Kab. Kepulauan Tanimbar, Maluku",MALUKU,,Indonesia,,-7.9740007,131.3020059,https://maps.google.com/?cid=0x0:0xc88cdd42acf37abe
mall,Toko Pakaian,Dr.jackdistro 02,"27FX+7P3, Jln Mathilda bathlayeri depan lorong surya, Kp babar, Olilit, Tanimbar Sel., Kab. Kepulauan Tanimbar, Maluku","Kab. Kepulauan Tanimbar, Maluku",MALUKU,,Indonesia,82399550431.0,-7.9768748,131.299311,https://maps.google.com/?cid=0x0:0xb4ca8b84ff830207
mall,Pusat Perbelanjaan,Toko Helm Kissara,"28R5+JM4, Sifnana, Tanimbar Sel., Kab. Kepulauan Tanimbar, Maluku","Kab. Kepulauan Tanimbar, Maluku",MALUKU,,Indonesia,85344405999.0,-7.95849,131.3093049,https://maps.google.com/?cid=0x0:0x8334cd6d24ed93e2
mall,Toko grosir,TOKO CAHAYA LAMENA 1,"Olilit, Tanimbar Sel., Kab. Kepulauan Tanimbar, Maluku","Kab. Kepulauan Tanimbar, Maluku",MALUKU,,Indonesia,81340018189.0,-7.9824369,131.2957105,https://maps.google.com/?cid=0x0:0xf966dae42e66f361
mall,Kompleks Kondominium,Desa Atubul-Dol,"5CPR+XW3, Atubul Dol, Wer Tamrian, Kab. Kepulauan Tanimbar, Maluku","Kab. Kepulauan Tanimbar, Maluku",MALUKU,,Indonesia,82238808200.0,-7.8126226,131.4422932,https://maps.google.com/?cid=0x0:0x14620734a3c3ed1e
mall,Toko,Pasar Omele Sifnana,"Sifnana, Tanimbar Sel., Kab. Kepulauan Tanimbar, Maluku","Kab. Kepulauan Tanimbar, Maluku",MALUKU,,Indonesia,,-7.9572591,131.3094028,https://maps.google.com/?cid=0x0:0x4ead064e4f739ad8
mall,Bengkel Sepeda Motor,Toko Kissara Motor,"Sifnana, Tanimbar Sel., Kab. Kepulauan Tanimbar, Maluku","Kab. Kepulauan Tanimbar, Maluku",MALUKU,,Indonesia,85344405999.0,-7.9572691,131.3091637,https://maps.google.com/?cid=0x0:0xffa744501ff83a81
mall,Pusat Perbelanjaan,Yadrian Ambeua,"RV77+WF8, Unnamed Road, Minamin, Kec. Wasile Sel., Kabupaten Halmahera Timur, Maluku Utara","Kabupaten Halmahera Timur, Maluku Utara",MALUKU,,Indonesia,82121886895.0,0.814778,127.8637063,https://maps.google.com/?cid=0x0:0x1205882250337afc
mall,Toko Swalayan,Toko Usaha Baru,"Atiahu, Werinama, Kabupaten Seram Bagian Timur, Maluku","Kabupaten Seram Bagian Timur, Maluku",MALUKU,,Indonesia,81343235656.0,-3.3649354,129.963071,https://maps.google.com/?cid=0x0:0xfce1f9a32991b08d
mall,Pusat Perbelanjaan,Mall SATOS,"278W+PPV, Olilit, Tanimbar Sel., Kab. Kepulauan Tanimbar, Maluku","Kab. Kepulauan Tanimbar, Maluku",MALUKU,,Indonesia,,-7.9828539,131.2965164,https://maps.google.com/?cid=0x0:0xc794df36ac2c7810
mall,mall,Kec. Tanimbar Utara,"Kab. Kepulauan Tanimbar, Maluku","Kab. Kepulauan Tanimbar, Maluku",MALUKU,,Indonesia,,-7.1551532,131.7188169,https://maps.google.com/?cid=0x0:0xf9f74771470cd070
mall,mall,Kios Nurdin_iis,"RPWC+JP4, Ritabel, Kec. Tanimbar Utara, Kab. Kepulauan Tanimbar, Maluku","Kab. Kepulauan Tanimbar, Maluku",MALUKU,,Indonesia,,-7.153477,131.7218279,https://maps.google.com/?cid=0x0:0x7adc99570935108d
mall,Pusat Perbelanjaan,Ambon City Center (ACC),"Jl. Wolter Monginsidi, Passo, Kec. Baguala, Kota Ambon, Maluku 97232","Passo, Kec. Baguala, Kota Ambon",MALUKU,97232.0,Indonesia,9113869522.0,-3.6320889,128.2495582,https://maps.google.com/?cid=0x0:0x91b8ed9da337adeb
mall,Pusat Perbelanjaan,Maluku City Mall (MCM),"Jl. Jenderal Sudirman No.1, Hative Kecil, Kec. Sirimau, Kota Ambon, Maluku","Kota Ambon, Maluku",MALUKU,,Indonesia,911352871.0,-3.6702679,128.1981163,https://maps.google.com/?cid=0x0:0x2f29bf0afe09144e
mall,Klinik Medis,Natasha Skin Clinic Center Ambon,"Maluku City Mall, Jl. Jenderal Sudirman No.1 Lt. 2 Blok G Unit 21, Hative Kecil, Kec. Sirimau, Kota Ambon, Maluku","Kota Ambon, Maluku",MALUKU,,Indonesia,911345743.0,-3.6711653,128.1988906,https://maps.google.com/?cid=0x0:0x39718019710e5584
mall,Jepang,Ichiban Sushi - Maluku City Mall,"Jl. Jenderal Sudirman No.1, Lantai No.9 UG Blok G, No 8A, Hative Kecil, Sirimau, Kota Ambon, Maluku","Kota Ambon, Maluku",MALUKU,,Indonesia,895357270204.0,-3.6699578,128.198051,https://maps.google.com/?cid=0x0:0xf2c6c9f7bce048b8
mall,Kedai Kopi,One Belpark Mall,"Jl. RS. Fatmawati Raya No.1, RT.1/RW.1, Pd. Labu, Kec. Cilandak, Kota Jakarta Selatan, Daerah Khusus Ibukota Jakarta 12450","RT.1/RW.1, Pd. Labu, Kec. Cilandak, Kota Jakarta Selatan",MALUKU,12450.0,Indonesia,2122706888.0,-6.3040848,106.7948774,https://maps.google.com/?cid=0x0:0x50cd4b3afac2371
mall,Pusat Perbelanjaan,One Belpark XXI,"Lantai 2 One Belpark Mall, Jl. RS. Fatmawati Raya No.1, RT.1/RW.1, Pd. Labu, Kec. Cilandak, Kota Jakarta Selatan, Daerah Khusus Ibukota Jakarta 12450","Jl. RS. Fatmawati Raya No.1, RT.1/RW.1, Pd. Labu, Kec. Cilandak, Kota Jakarta Selatan",MALUKU,12450.0,Indonesia,2127653422.0,-6.3043591,106.7954808,https://maps.google.com/?cid=0x0:0x946cc48a00e05e12
mall,Pusat Perbelanjaan,Ø¨ÙØ§Ø²Ø§ Ø§ØªØ±ÙÙÙ,"2, Senen, Kota Jakarta Pusat, Daerah Khusus Ibukota Jakarta","Kota Jakarta Pusat, Daerah Khusus Ibukota Jakarta",MALUKU,,Indonesia,,-6.1750515,106.8410987,https://maps.google.com/?cid=0x0:0x349b07e677055a8b
mall,mall,Kec. Wuar Labobar,"Kab. Kepulauan Tanimbar, Maluku","Kab. Kepulauan Tanimbar, Maluku",MALUKU,,Indonesia,,-7.3440201,131.4304567,https://maps.google.com/?cid=0x0:0xff00056926ab874a
mall,Pusat Perbelanjaan,Maluku City Mall (MCM),"Jl. Jenderal Sudirman No.1, Hative Kecil, Kec. Sirimau, Kota Ambon, Maluku","Kota Ambon, Maluku",MALUKU,,Indonesia,911352871.0,-3.6702679,128.1981163,https://maps.google.com/?cid=0x0:0x2f29bf0afe09144e
mall,mall,TOKO USAHA BARU,"82PM+H8J, Rumah Salut, Kec. Wer Maktian, Kab. Kepulauan Tanimbar, Maluku","Kab. Kepulauan Tanimbar, Maluku",MALUKU,,Indonesia,,-7.663549,131.0332587,https://maps.google.com/?cid=0x0:0xa5765c6960e8f509
mall,mall,Galeri Wisata,"82PM+F7G, Unnamed Road, Rumah Salut, Kec. Wer Maktian, Kab. Kepulauan Tanimbar, Maluku","Kab. Kepulauan Tanimbar, Maluku",MALUKU,,Indonesia,,-7.663815,131.0332176,https://maps.google.com/?cid=0x0:0x81e8173dd433a807
mall,mall,Kios Nurdin_iis,"RPWC+JP4, Ritabel, Kec. Tanimbar Utara, Kab. Kepulauan Tanimbar, Maluku","Kab. Kepulauan Tanimbar, Maluku",MALUKU,,Indonesia,,-7.153477,131.7218279,https://maps.google.com/?cid=0x0:0x7adc99570935108d
mall,mall,Maluku City Mall Tantui,"8633+38H, Unnamed Road, Soya, Kec. Sirimau, Kota Ambon, Maluku","Kota Ambon, Maluku",MALUKU,,Indonesia,82199223279.0,-3.6973048,128.2033559,https://maps.google.com/?cid=0x0:0x549d176470665edf
mall,Toko bahan makanan,KIOS AZRIL,"RQRQ+VQ4, Kaiwatu, Kec. Moa Lakor, Kabupaten Maluku Barat Daya, Maluku","Kabupaten Maluku Barat Daya, Maluku",MALUKU,,Indonesia,,-8.1578505,127.7894556,https://maps.google.com/?cid=0x0:0x7cc75b7204a6a5e4
mall,Pusat Perbelanjaan,Maluku City Mall (MCM),"Jl. Jenderal Sudirman No.1, Hative Kecil, Kec. Sirimau, Kota Ambon, Maluku","Kota Ambon, Maluku",MALUKU,,Indonesia,911352871.0,-3.6702679,128.1981163,https://maps.google.com/?cid=0x0:0x2f29bf0afe09144e
mall,Jepang,Ichiban Sushi - Maluku City Mall,"Jl. Jenderal Sudirman No.1, Lantai No.9 UG Blok G, No 8A, Hative Kecil, Sirimau, Kota Ambon, Maluku","Kota Ambon, Maluku",MALUKU,,Indonesia,895357270204.0,-3.6699578,128.198051,https://maps.google.com/?cid=0x0:0xf2c6c9f7bce048b8
mall,Pusat Perbelanjaan,Ambon City Center (ACC),"Jl. Wolter Monginsidi, Passo, Kec. Baguala, Kota Ambon, Maluku 97232","Passo, Kec. Baguala, Kota Ambon",MALUKU,97232.0,Indonesia,9113869522.0,-3.6320889,128.2495582,https://maps.google.com/?cid=0x0:0x91b8ed9da337adeb
mall,Klinik Medis,Natasha Skin Clinic Center Ambon,"Maluku City Mall, Jl. Jenderal Sudirman No.1 Lt. 2 Blok G Unit 21, Hative Kecil, Kec. Sirimau, Kota Ambon, Maluku","Kota Ambon, Maluku",MALUKU,,Indonesia,911345743.0,-3.6711653,128.1988906,https://maps.google.com/?cid=0x0:0x39718019710e5584
mall,mall,Kec. Nirunmas,"Kab. Kepulauan Tanimbar, Maluku","Kab. Kepulauan Tanimbar, Maluku",MALUKU,,Indonesia,,-7.4223184,131.6998843,https://maps.google.com/?cid=0x0:0xaaadfde047b475b5
mall,Pusat Perbelanjaan,Maluku City Mall (MCM),"Jl. Jenderal Sudirman No.1, Hative Kecil, Kec. Sirimau, Kota Ambon, Maluku","Kota Ambon, Maluku",MALUKU,,Indonesia,911352871.0,-3.6702679,128.1981163,https://maps.google.com/?cid=0x0:0x2f29bf0afe09144e
mall,mall,Kios Nurdin_iis,"RPWC+JP4, Ritabel, Kec. Tanimbar Utara, Kab. Kepulauan Tanimbar, Maluku","Kab. Kepulauan Tanimbar, Maluku",MALUKU,,Indonesia,,-7.153477,131.7218279,https://maps.google.com/?cid=0x0:0x7adc99570935108d
mall,mall,Kec. Molu Maru,"Kab. Kepulauan Tanimbar, Maluku","Kab. Kepulauan Tanimbar, Maluku",MALUKU,,Indonesia,,-6.7063732,131.5635744,https://maps.google.com/?cid=0x0:0x249d2f0e14e786d1
supermarket,supermarket,Tanimbar Sel.,"Kab. Kepulauan Tanimbar, Maluku","Kab. Kepulauan Tanimbar, Maluku",MALUKU,,Indonesia,,-7.941769,131.2205911,https://maps.google.com/?cid=0x0:0x2fbf1b925d6dba13
supermarket,Toko Buah dan Sayuran,Sumber Rejeki Mart Saumlaki,"Jl. Urayana, Olilit, Tanimbar Sel., Kab. Kepulauan Tanimbar, Maluku","Kab. Kepulauan Tanimbar, Maluku",MALUKU,,Indonesia,81357305802.0,-7.9724185,131.3077093,https://maps.google.com/?cid=0x0:0x197991f62f6f9683
supermarket,Toko,TANIMBAR SWALAYAN,"2894+54M, Jl. Ir. Soekarno, Saumlaki, Tanimbar Sel., Kab. Kepulauan Tanimbar, Maluku","Kab. Kepulauan Tanimbar, Maluku",MALUKU,,Indonesia,,-7.9820458,131.3053088,https://maps.google.com/?cid=0x0:0x664828f2a046a570
supermarket,Minimarket,Palms Swalayan,"278V+WF6, Olilit, Tanimbar Sel., Kab. Kepulauan Tanimbar, Maluku","Kab. Kepulauan Tanimbar, Maluku",MALUKU,,Indonesia,,-7.9830937,131.2936465,https://maps.google.com/?cid=0x0:0xa5e3c511a15d2a02
supermarket,Toko Swalayan,toko raffi,"278W+X9H Bank Rakyat Indonesia. PT, Saumlaki, Tanimbar Sel., Kab. Kepulauan Tanimbar, Maluku","Kab. Kepulauan Tanimbar, Maluku",MALUKU,,Indonesia,82198365333.0,-7.9825674,131.2959931,https://maps.google.com/?cid=0x0:0xf058a6534f65df0b
supermarket,Pusat Perbelanjaan,Toko Sentoso,"28G2+8QJ, Jl. Mathilda Batlayeri, Olilit, Tanimbar Sel., Kab. Kepulauan Tanimbar, Maluku","Kab. Kepulauan Tanimbar, Maluku",MALUKU,,Indonesia,85106028199.0,-7.9741621,131.301905,https://maps.google.com/?cid=0x0:0x617c2f89056c7dc3
supermarket,Toko bahan makanan,Toko Berkat,"277X+W6P, Olilit, Tanimbar Sel., Kab. Kepulauan Tanimbar, Maluku","Kab. Kepulauan Tanimbar, Maluku",MALUKU,,Indonesia,,-7.9851668,131.2980758,https://maps.google.com/?cid=0x0:0x74b2f36f21db8c69
supermarket,Minimarket,LOTUS MART,"28C5+288, Jl. Ir. Soekarno, Olilit, Tanimbar Sel., Kab. Kepulauan Tanimbar, Maluku","Kab. Kepulauan Tanimbar, Maluku",MALUKU,,Indonesia,,-7.9789619,131.3078538,https://maps.google.com/?cid=0x0:0x97e134c60810ccf5
supermarket,Toko bahan makanan,Kios Asa Pamungkas,"28G3+M6C, Olilit, Tanimbar Sel., Kab. Kepulauan Tanimbar, Maluku","Kab. Kepulauan Tanimbar, Maluku",MALUKU,,Indonesia,,-7.9733094,131.3030007,https://maps.google.com/?cid=0x0:0x15b11a31b4e8e022
supermarket,Toko,TOKO GLORY,"2863+28W, Jl. Atek Lawanaman, Olilit, Tanimbar Sel., Kab. Kepulauan Tanimbar, Maluku","Kab. Kepulauan Tanimbar, Maluku",MALUKU,,Indonesia,,-7.9899095,131.3030372,https://maps.google.com/?cid=0x0:0xf4dfb2919c5d55ad
supermarket,Toko bahan makanan,Toko Mawambunga,"278V+RQ7, Olilit, Tanimbar Sel., Kab. Kepulauan Tanimbar, Maluku","Kab. Kepulauan Tanimbar, Maluku",MALUKU,,Indonesia,,-7.9829599,131.2944242,https://maps.google.com/?cid=0x0:0xcc3b45e351ba860c
supermarket,Toko,Toko Ebenhaezer II,"278V+WXH, Olilit, Tanimbar Sel., Kab. Kepulauan Tanimbar, Maluku","Kab. Kepulauan Tanimbar, Maluku",MALUKU,,Indonesia,82190146747.0,-7.9826782,131.2949816,https://maps.google.com/?cid=0x0:0xf65aff5e16fc4535
supermarket,Toko Elektronik,Toko Cindy Saumlaki,"Olilit, Tanimbar Sel., Kab. Kepulauan Tanimbar, Maluku","Kab. Kepulauan Tanimbar, Maluku",MALUKU,,Indonesia,81241522575.0,-7.9827482,131.2956507,https://maps.google.com/?cid=0x0:0x34f7861e1560d99a
supermarket,Minimarket,Lotus Mart Saumlaki,"Olilit, Tanimbar Sel., Kab. Kepulauan Tanimbar, Maluku 97664","Tanimbar Sel., Kab. Kepulauan Tanimbar",MALUKU,97664.0,Indonesia,85341656492.0,-7.984967,131.341705,https://maps.google.com/?cid=0x0:0xae06cf133d2e0481
supermarket,supermarket,Kec. Selaru,"Kab. Kepulauan Tanimbar, Maluku","Kab. Kepulauan Tanimbar, Maluku",MALUKU,,Indonesia,,-8.1318821,131.1133407,https://maps.google.com/?cid=0x0:0x21fc7f5cc6364753
supermarket,Toko Swalayan,WIN SAINYAKIT,"QV2J+37W, Lingat, Kec. Selaru, Kab. Kepulauan Tanimbar, Maluku","Kab. Kepulauan Tanimbar, Maluku",MALUKU,,Indonesia,8214031868.0,-8.2497516,130.8806891,https://maps.google.com/?cid=0x0:0x6b5cfe2efe4a253f
supermarket,,Kios sergio,"MRGC+8QP, Fursui, Kec. Selaru, Kab. Kepulauan Tanimbar, Maluku","Kab. Kepulauan Tanimbar, Maluku",MALUKU,,Indonesia,,-8.324577,130.823268,https://maps.google.com/?cid=0x0:0x72108cec6c2dfbd9
supermarket,Rumah singgah,Kios Pulsa Handphone  Pulsa Listrik ELMAN,"V4C7+6JH, Adaut, Kec. Selaru, Kab. Kepulauan Tanimbar, Maluku","Kab. Kepulauan Tanimbar, Maluku",MALUKU,,Indonesia,81385624907.0,-8.129445,131.1141128,https://maps.google.com/?cid=0x0:0x674e215b0739df7b
supermarket,Kios,KIOS MEM'04,"VW7Q+26R, Namtabung, Kec. Selaru, Kab. Kepulauan Tanimbar, Maluku","Kab. Kepulauan Tanimbar, Maluku",MALUKU,,Indonesia,,-8.1390964,130.9389072,https://maps.google.com/?cid=0x0:0xee65c07f50761877
supermarket,Toko Swalayan,Mitra Diskon Swalayan,"Lippo Cimanggis Square, Jl. Raya Jakarta-Bogor No.11, Mekarsari, Kec. Cimanggis, Kota Depok, Jawa Barat 16452","Jl. Raya Jakarta-Bogor No.11, Mekarsari, Kec. Cimanggis, Kota Depok",MALUKU,16452.0,Indonesia,,-6.3573722,106.8598076,https://maps.google.com/?cid=0x0:0x335ff91fca2c5a80
supermarket,Toko Swalayan,Diskon Supermarket,"Jl. Raya Bogor No.20 KM26 No, Susukan, Kec. Ciracas, Kota Jakarta Timur, Daerah Khusus Ibukota Jakarta 13740","Susukan, Kec. Ciracas, Kota Jakarta Timur",MALUKU,13740.0,Indonesia,81282109990.0,-6.3290415,106.865772,https://maps.google.com/?cid=0x0:0xe881f3fa8ae14640
supermarket,supermarket,Kec. Wer Maktian,"Kab. Kepulauan Tanimbar, Maluku","Kab. Kepulauan Tanimbar, Maluku",MALUKU,,Indonesia,,-7.6851092,131.1322161,https://maps.google.com/?cid=0x0:0xd6cd550965163a24
supermarket,Kios,Kios Amry,"82PJ+7W, Kamatubun, Kec. Wer Maktian, Kab. Kepulauan Tanimbar, Maluku","Kab. Kepulauan Tanimbar, Maluku",MALUKU,,Indonesia,,-7.6643239,131.0323184,https://maps.google.com/?cid=0x0:0x4f25e00416bca4c1
supermarket,Toko,TANIMBAR SWALAYAN,"2894+54M, Jl. Ir. Soekarno, Saumlaki, Tanimbar Sel., Kab. Kepulauan Tanimbar, Maluku","Kab. Kepulauan Tanimbar, Maluku",MALUKU,,Indonesia,,-7.9820458,131.3053088,https://maps.google.com/?cid=0x0:0x664828f2a046a570
supermarket,Toko umum,Depot Or Ulun,"82MM+Q9Q, Rumah Salut, Kec. Wer Maktian, Kab. Kepulauan Tanimbar, Maluku","Kab. Kepulauan Tanimbar, Maluku",MALUKU,,Indonesia,85281920557.0,-7.6661139,131.0333214,https://maps.google.com/?cid=0x0:0x6bcc261bad0bbd78
supermarket,supermarket,Rumah salut,"82MJ+RW9, Kamatubun, Kec. Wer Maktian, Kab. Kepulauan Tanimbar, Maluku","Kab. Kepulauan Tanimbar, Maluku",MALUKU,,Indonesia,,-7.6654588,131.0323561,https://maps.google.com/?cid=0x0:0x2b144e1577c1bf68
supermarket,Toko umum,Kios Family Tiga,"83VQ+4W3, Weratan, Kec. Wer Maktian, Kab. Kepulauan Tanimbar, Maluku","Kab. Kepulauan Tanimbar, Maluku",MALUKU,,Indonesia,,-7.6572305,131.0897913,https://maps.google.com/?cid=0x0:0xae4aa8d35e68e9b3
supermarket,Toko umum,Kios Yorri,"82MH+FR9, Jalan, Kamatubun, Kec. Wer Maktian, Kab. Kepulauan Tanimbar, Maluku","Kab. Kepulauan Tanimbar, Maluku",MALUKU,,Indonesia,85399752088.0,-7.6663374,131.0296126,https://maps.google.com/?cid=0x0:0xf7a0997e86244464
supermarket,Toko,TOKO IDAMAN,"Unnamed Road, Rumah Salut, Kec. Wer Maktian, Kab. Kepulauan Tanimbar, Maluku","Kab. Kepulauan Tanimbar, Maluku",MALUKU,,Indonesia,81383445797.0,-7.6638612,131.0327775,https://maps.google.com/?cid=0x0:0x8df69ec6ee8d12f7
supermarket,Toko umum,TOKO CAHAYA ANDI RIZKY,"82MJ+CCP, Kamatubun, Kec. Wer Maktian, Kab. Kepulauan Tanimbar, Maluku","Kab. Kepulauan Tanimbar, Maluku",MALUKU,,Indonesia,,-7.6664581,131.0310173,https://maps.google.com/?cid=0x0:0xfbd381683c48e04
supermarket,Toko umum,kios Family 3,"Weratan, Saumlaki, Kab. Kepulauan Tanimbar, Maluku 97471","Saumlaki, Kab. Kepulauan Tanimbar",MALUKU,97471.0,Indonesia,,-7.6631834,131.0344999,https://maps.google.com/?cid=0x0:0xf28dd3c379eb4dfc
supermarket,Toko umum,Keluarga F Dasmasela,"82PP+WF3, Themin, Kec. Wer Maktian, Kab. Kepulauan Tanimbar, Maluku","Kab. Kepulauan Tanimbar, Maluku",MALUKU,,Indonesia,,-7.6616133,131.0368374,https://maps.google.com/?cid=0x0:0x3701d4d70afe0ee7
supermarket,Toko bahan makanan,Toko Mawambunga,"278V+RQ7, Olilit, Tanimbar Sel., Kab. Kepulauan Tanimbar, Maluku","Kab. Kepulauan Tanimbar, Maluku",MALUKU,,Indonesia,,-7.9829599,131.2944242,https://maps.google.com/?cid=0x0:0xcc3b45e351ba860c
supermarket,Toko umum,Kios Munawara Dan Kios Rukun Jaya,"82PM+QQ, Welutu, Kec. Wer Maktian, Kab. Kepulauan Tanimbar, Maluku","Kab. Kepulauan Tanimbar, Maluku",MALUKU,,Indonesia,,-7.6630374,131.0343858,https://maps.google.com/?cid=0x0:0x91c22376049c2237
supermarket,Kios,Kios Munawara Dan Kios Rukun Jaya,"83VQ+4W3, Weratan, Kec. Wer Maktian, Kab. Kepulauan Tanimbar, Maluku","Kab. Kepulauan Tanimbar, Maluku",MALUKU,,Indonesia,,-7.6572305,131.0897913,https://maps.google.com/?cid=0x0:0x4bd0a6bac8ef4192
supermarket,supermarket,Wer Tamrian,"Kab. Kepulauan Tanimbar, Maluku","Kab. Kepulauan Tanimbar, Maluku",MALUKU,,Indonesia,,-7.7661937,131.401196,https://maps.google.com/?cid=0x0:0xaded055189834b4b
supermarket,Toko Buah dan Sayuran,Sumber Rejeki Mart Saumlaki,"Jl. Urayana, Olilit, Tanimbar Sel., Kab. Kepulauan Tanimbar, Maluku","Kab. Kepulauan Tanimbar, Maluku",MALUKU,,Indonesia,81357305802.0,-7.9724185,131.3077093,https://maps.google.com/?cid=0x0:0x197991f62f6f9683
supermarket,Toko,TANIMBAR SWALAYAN,"2894+54M, Jl. Ir. Soekarno, Saumlaki, Tanimbar Sel., Kab. Kepulauan Tanimbar, Maluku","Kab. Kepulauan Tanimbar, Maluku",MALUKU,,Indonesia,,-7.9820458,131.3053088,https://maps.google.com/?cid=0x0:0x664828f2a046a570
supermarket,Toko Swalayan,toko raffi,"278W+X9H Bank Rakyat Indonesia. PT, Saumlaki, Tanimbar Sel., Kab. Kepulauan Tanimbar, Maluku","Kab. Kepulauan Tanimbar, Maluku",MALUKU,,Indonesia,82198365333.0,-7.9825674,131.2959931,https://maps.google.com/?cid=0x0:0xf058a6534f65df0b
supermarket,Toko Buah dan Sayuran,Toko Olympus,"Jl. Ir. Soekarno Jalan Poros, Saumlaki, Tanimbar Sel., Kab. Kepulauan Tanimbar, Maluku 97464","Saumlaki, Tanimbar Sel., Kab. Kepulauan Tanimbar",MALUKU,97464.0,Indonesia,81327476899.0,-7.972841,131.3098124,https://maps.google.com/?cid=0x0:0xd11e36e255022f55
supermarket,Toko bahan makanan,Kios METERUE,"Jln. Luturnamsaitubun No.02, Lorulun, Wer Tamrian, Kab. Kepulauan Tanimbar, Maluku 97464","Lorulun, Wer Tamrian, Kab. Kepulauan Tanimbar",MALUKU,97464.0,Indonesia,85395709156.0,-7.8521487,131.3794119,https://maps.google.com/?cid=0x0:0xd77051d3d23e2e3b
supermarket,Kios,Kios Tasya,"5CQV+4FF, Atubul Raya, Wer Tamrian, Kab. Kepulauan Tanimbar, Maluku","Kab. Kepulauan Tanimbar, Maluku",MALUKU,,Indonesia,,-7.8124767,131.4433667,https://maps.google.com/?cid=0x0:0x708ded9fb04a9e97
supermarket,Toko umum,Kios Silver,"Arui Das, Wer Tamrian, Kab. Kepulauan Tanimbar, Maluku","Kab. Kepulauan Tanimbar, Maluku",MALUKU,,Indonesia,81246492997.0,-7.726383,131.530366,https://maps.google.com/?cid=0x0:0x166b4619664f37dc
supermarket,Toko bahan makanan,Toko Mawambunga,"278V+RQ7, Olilit, Tanimbar Sel., Kab. Kepulauan Tanimbar, Maluku","Kab. Kepulauan Tanimbar, Maluku",MALUKU,,Indonesia,,-7.9829599,131.2944242,https://maps.google.com/?cid=0x0:0xcc3b45e351ba860c
supermarket,Pusat Perbelanjaan,Toko Ramayana,"Olilit, Tanimbar Sel., Kab. Kepulauan Tanimbar, Maluku","Kab. Kepulauan Tanimbar, Maluku",MALUKU,,Indonesia,,-7.9845121,131.3018318,https://maps.google.com/?cid=0x0:0x2aea70a1bb72ca5b
supermarket,Toko Swalayan,WIN SAINYAKIT,"QV2J+37W, Lingat, Kec. Selaru, Kab. Kepulauan Tanimbar, Maluku","Kab. Kepulauan Tanimbar, Maluku",MALUKU,,Indonesia,8214031868.0,-8.2497516,130.8806891,https://maps.google.com/?cid=0x0:0x6b5cfe2efe4a253f
supermarket,Pusat Perbelanjaan,Toko Sentoso,"28G2+8QJ, Jl. Mathilda Batlayeri, Olilit, Tanimbar Sel., Kab. Kepulauan Tanimbar, Maluku","Kab. Kepulauan Tanimbar, Maluku",MALUKU,,Indonesia,85106028199.0,-7.9741621,131.301905,https://maps.google.com/?cid=0x0:0x617c2f89056c7dc3
supermarket,Toko umum,Kios LUSIYANAK,"8736+38R, Wermatang, Kec. Wer Maktian, Kab. Kepulauan Tanimbar, Maluku","Kab. Kepulauan Tanimbar, Maluku",MALUKU,,Indonesia,,-7.6972635,131.260776,https://maps.google.com/?cid=0x0:0x4f1467431e77e0cb
supermarket,Toko,Toko Ebenhaezer II,"278V+WXH, Olilit, Tanimbar Sel., Kab. Kepulauan Tanimbar, Maluku","Kab. Kepulauan Tanimbar, Maluku",MALUKU,,Indonesia,82190146747.0,-7.9826782,131.2949816,https://maps.google.com/?cid=0x0:0xf65aff5e16fc4535
supermarket,Pasar,TOKO SANDIEGO,"RPV7+HWM, Ritabel, Kec. Tanimbar Utara, Kab. Kepulauan Tanimbar, Maluku","Kab. Kepulauan Tanimbar, Maluku",MALUKU,,Indonesia,81382883353.0,-7.1560291,131.7147861,https://maps.google.com/?cid=0x0:0xda81bdc448e2864a
supermarket,supermarket,Kec. Tanimbar Utara,"Kab. Kepulauan Tanimbar, Maluku","Kab. Kepulauan Tanimbar, Maluku",MALUKU,,Indonesia,,-7.1551532,131.7188169,https://maps.google.com/?cid=0x0:0xf9f74771470cd070
supermarket,Pasar,Kios Memet,"RPX7+3RR, Ritabel, Kab. Kepulauan Tanimbar, Maluku","Kab. Kepulauan Tanimbar, Maluku",MALUKU,,Indonesia,,-7.1522727,131.7145126,https://maps.google.com/?cid=0x0:0x46ee5a14c5bc0e64
supermarket,Komplek perumahan,RPK Blessing,"VP5F+47W, Ridool, Kec. Tanimbar Utara, Kab. Kepulauan Tanimbar, Maluku","Kab. Kepulauan Tanimbar, Maluku",MALUKU,,Indonesia,,-7.1421319,131.7231895,https://maps.google.com/?cid=0x0:0x7bfe698b9da16904
supermarket,Toko,TANIMBAR SWALAYAN,"2894+54M, Jl. Ir. Soekarno, Saumlaki, Tanimbar Sel., Kab. Kepulauan Tanimbar, Maluku","Kab. Kepulauan Tanimbar, Maluku",MALUKU,,Indonesia,,-7.9820458,131.3053088,https://maps.google.com/?cid=0x0:0x664828f2a046a570
supermarket,Pasar,Toko Jaya Baru Larat,"RPW7+8P9, Ritabel, Kec. Tanimbar Utara, Kab. Kepulauan Tanimbar, Maluku","Kab. Kepulauan Tanimbar, Maluku",MALUKU,,Indonesia,,-7.1541906,131.7143854,https://maps.google.com/?cid=0x0:0x7fea5728f9caec01
supermarket,Toko Pakaian,KIOS YUSNIAR,"Ritabel, Kec. Tanimbar Utara, Kab. Kepulauan Tanimbar, Maluku 97464","Kec. Tanimbar Utara, Kab. Kepulauan Tanimbar",MALUKU,97464.0,Indonesia,81217558502.0,-7.1539734,131.7144097,https://maps.google.com/?cid=0x0:0xb37984219d0bedf4
supermarket,Toko Pakaian,KIOS FIDAL,"RPW7+FP5, Ritabel, Kec. Tanimbar Utara, Kab. Kepulauan Tanimbar, Maluku","Kab. Kepulauan Tanimbar, Maluku",MALUKU,,Indonesia,82236198642.0,-7.1538507,131.7143484,https://maps.google.com/?cid=0x0:0x7508e3600565c47
supermarket,Komplek perumahan,laut ritabel,"VMGC+2J, Lelingluan, Kab. Kepulauan Tanimbar, Maluku","Kab. Kepulauan Tanimbar, Maluku",MALUKU,,Indonesia,,-7.124881,131.67158,https://maps.google.com/?cid=0x0:0x306eeae178dfb1d1
supermarket,Toko Buah dan Sayuran,Sumber Rejeki Mart Saumlaki,"Jl. Urayana, Olilit, Tanimbar Sel., Kab. Kepulauan Tanimbar, Maluku","Kab. Kepulauan Tanimbar, Maluku",MALUKU,,Indonesia,81357305802.0,-7.9724185,131.3077093,https://maps.google.com/?cid=0x0:0x197991f62f6f9683
supermarket,Komplek perumahan,KANTOR DESA KELAAN,"Kelaan, Kec. Tanimbar Utara, Kab. Kepulauan Tanimbar, Maluku","Kab. Kepulauan Tanimbar, Maluku",MALUKU,,Indonesia,81333035300.0,-7.1041999,131.9158622,https://maps.google.com/?cid=0x0:0xbaa17afbc24b97c3
supermarket,Minimarket,Palms Swalayan,"278V+WF6, Olilit, Tanimbar Sel., Kab. Kepulauan Tanimbar, Maluku","Kab. Kepulauan Tanimbar, Maluku",MALUKU,,Indonesia,,-7.9830937,131.2936465,https://maps.google.com/?cid=0x0:0xa5e3c511a15d2a02
supermarket,supermarket,Apotek Alfa,"RPV9+WF9, Ritabel, Kec. Tanimbar Utara, Kab. Kepulauan Tanimbar, Maluku","Kab. Kepulauan Tanimbar, Maluku",MALUKU,,Indonesia,,-7.1552179,131.718747,https://maps.google.com/?cid=0x0:0x4cc6fa087325541c
supermarket,supermarket,Kios Pandang Laut,"VP25+7WR, Lelingluan, Kec. Tanimbar Utara, Kab. Kepulauan Tanimbar, Maluku","Kab. Kepulauan Tanimbar, Maluku",MALUKU,,Indonesia,,-7.1492554,131.7097561,https://maps.google.com/?cid=0x0:0x4e9fc9518d7c0cf0
supermarket,supermarket,Kec. Fordata,"Kab. Kepulauan Tanimbar, Maluku","Kab. Kepulauan Tanimbar, Maluku",MALUKU,,Indonesia,,-7.0802629,131.9129913,https://maps.google.com/?cid=0x0:0xb4203fef18cb1043
supermarket,Komplek perumahan,Balia home,"XWCX+7R5, Sofyanin, Kec. Fordata, Kab. Kepulauan Tanimbar, Maluku","Kab. Kepulauan Tanimbar, Maluku",MALUKU,,Indonesia,,-7.0293653,131.9496068,https://maps.google.com/?cid=0x0:0xa15d53e5340d8e72
supermarket,supermarket,"Hasi Biota Laut, bp Yanto Lalaun","WW97+P9V, Romean, Kec. Fordata, Kab. Kepulauan Tanimbar, Maluku","Kab. Kepulauan Tanimbar, Maluku",MALUKU,,Indonesia,81240392400.0,-7.0806325,131.9134329,https://maps.google.com/?cid=0x0:0x933035625591ff75
supermarket,Toko,TANIMBAR SWALAYAN,"2894+54M, Jl. Ir. Soekarno, Saumlaki, Tanimbar Sel., Kab. Kepulauan Tanimbar, Maluku","Kab. Kepulauan Tanimbar, Maluku",MALUKU,,Indonesia,,-7.9820458,131.3053088,https://maps.google.com/?cid=0x0:0x664828f2a046a570
supermarket,supermarket,Kec. Wuar Labobar,"Kab. Kepulauan Tanimbar, Maluku","Kab. Kepulauan Tanimbar, Maluku",MALUKU,,Indonesia,,-7.3440201,131.4304567,https://maps.google.com/?cid=0x0:0xff00056926ab874a
supermarket,supermarket,Toko Kelapa Satu Abadi,"Desa wunlah Wunlah, Karatat, Kec. Wuar Labobar, Kab. Kepulauan Tanimbar, Maluku 97465","Karatat, Kec. Wuar Labobar, Kab. Kepulauan Tanimbar",MALUKU,97465.0,Indonesia,85604070147.0,-7.2949883,131.4436687,https://maps.google.com/?cid=0x0:0xc6da6ad873bb04e8
supermarket,Komplek perumahan,laut ritabel,"VMGC+2J, Lelingluan, Kab. Kepulauan Tanimbar, Maluku","Kab. Kepulauan Tanimbar, Maluku",MALUKU,,Indonesia,,-7.124881,131.67158,https://maps.google.com/?cid=0x0:0x306eeae178dfb1d1
supermarket,Toko bahan makanan,Toko Mawambunga,"278V+RQ7, Olilit, Tanimbar Sel., Kab. Kepulauan Tanimbar, Maluku","Kab. Kepulauan Tanimbar, Maluku",MALUKU,,Indonesia,,-7.9829599,131.2944242,https://maps.google.com/?cid=0x0:0xcc3b45e351ba860c
supermarket,Kantor Pemerintahan Wilayah,Polsek Wuarlabobar,"MCJR+C5, Wunlah, Kec. Wuar Labobar, Kab. Kepulauan Tanimbar, Maluku","Kab. Kepulauan Tanimbar, Maluku",MALUKU,,Indonesia,,-7.3188997,131.4404032,https://maps.google.com/?cid=0x0:0x798c92dcffb70517
supermarket,Pasar,Kios Memet,"RPX7+3RR, Ritabel, Kab. Kepulauan Tanimbar, Maluku","Kab. Kepulauan Tanimbar, Maluku",MALUKU,,Indonesia,,-7.1522727,131.7145126,https://maps.google.com/?cid=0x0:0x46ee5a14c5bc0e64
supermarket,supermarket,Kelapa Satu,"MFHR+2G2, Wunlah, Kec. Wuar Labobar, Kab. Kepulauan Tanimbar, Maluku","Kab. Kepulauan Tanimbar, Maluku",MALUKU,,Indonesia,85604070147.0,-7.3224769,131.4912791,https://maps.google.com/?cid=0x0:0x1a8d12228c372202
supermarket,Komplek perumahan,RPK Blessing,"VP5F+47W, Ridool, Kec. Tanimbar Utara, Kab. Kepulauan Tanimbar, Maluku","Kab. Kepulauan Tanimbar, Maluku",MALUKU,,Indonesia,,-7.1421319,131.7231895,https://maps.google.com/?cid=0x0:0x7bfe698b9da16904
supermarket,Toko umum,Depot Or Ulun,"82MM+Q9Q, Rumah Salut, Kec. Wer Maktian, Kab. Kepulauan Tanimbar, Maluku","Kab. Kepulauan Tanimbar, Maluku",MALUKU,,Indonesia,85281920557.0,-7.6661139,131.0333214,https://maps.google.com/?cid=0x0:0x6bcc261bad0bbd78
supermarket,Pasar,Toko Jaya Baru Larat,"RPW7+8P9, Ritabel, Kec. Tanimbar Utara, Kab. Kepulauan Tanimbar, Maluku","Kab. Kepulauan Tanimbar, Maluku",MALUKU,,Indonesia,,-7.1541906,131.7143854,https://maps.google.com/?cid=0x0:0x7fea5728f9caec01
supermarket,Toko Pakaian,KIOS YUSNIAR,"Ritabel, Kec. Tanimbar Utara, Kab. Kepulauan Tanimbar, Maluku 97464","Kec. Tanimbar Utara, Kab. Kepulauan Tanimbar",MALUKU,97464.0,Indonesia,81217558502.0,-7.1539734,131.7144097,https://maps.google.com/?cid=0x0:0xb37984219d0bedf4
supermarket,Toko umum,Kios LUSIYANAK,"8736+38R, Wermatang, Kec. Wer Maktian, Kab. Kepulauan Tanimbar, Maluku","Kab. Kepulauan Tanimbar, Maluku",MALUKU,,Indonesia,,-7.6972635,131.260776,https://maps.google.com/?cid=0x0:0x4f1467431e77e0cb
supermarket,Toko Kelontong Korea,Mu Gung Hwa Supermarket - Senopati,"Jl. Senayan No.43, RT.8/RW.5, Rw. Bar., Kec. Kby. Baru, Kota Jakarta Selatan, Daerah Khusus Ibukota Jakarta 12180","RT.8/RW.5, Rw. Bar., Kec. Kby. Baru, Kota Jakarta Selatan",MALUKU,12180.0,Indonesia,217222214.0,-6.2353938,106.8158782,https://maps.google.com/?cid=0x0:0x9ffba79e59c537d5
supermarket,Toko Swalayan,Mu Gung Hwa Supermarket - Dharmawangsa,"Jl. Darmawangsa Raya No.2 Blok A, RT.2/RW.1, Pulo, Kec. Kby. Baru, Kota Jakarta Selatan, Daerah Khusus Ibukota Jakarta 12160","RT.2/RW.1, Pulo, Kec. Kby. Baru, Kota Jakarta Selatan",MALUKU,12160.0,Indonesia,217233214.0,-6.2549914,106.7977871,https://maps.google.com/?cid=0x0:0xc3d58b4e04a5f570
supermarket,Toko,TANIMBAR SWALAYAN,"2894+54M, Jl. Ir. Soekarno, Saumlaki, Tanimbar Sel., Kab. Kepulauan Tanimbar, Maluku","Kab. Kepulauan Tanimbar, Maluku",MALUKU,,Indonesia,,-7.9820458,131.3053088,https://maps.google.com/?cid=0x0:0x664828f2a046a570
supermarket,supermarket,Kec. Kormomolin,"Kab. Kepulauan Tanimbar, Maluku","Kab. Kepulauan Tanimbar, Maluku",MALUKU,,Indonesia,,-7.6674273,131.5798856,https://maps.google.com/?cid=0x0:0x791e0bf26bea1fff
supermarket,Pemasok minyak tanah,Kios KOA,"Alusi Kelaan, Kec. Kormomolin, Kab. Kepulauan Tanimbar, Maluku 97461","Kec. Kormomolin, Kab. Kepulauan Tanimbar",MALUKU,97461.0,Indonesia,82171034858.0,-7.6646967,131.5835992,https://maps.google.com/?cid=0x0:0xd3b494dbe710a470
supermarket,supermarket,Kec. Nirunmas,"Kab. Kepulauan Tanimbar, Maluku","Kab. Kepulauan Tanimbar, Maluku",MALUKU,,Indonesia,,-7.4223184,131.6998843,https://maps.google.com/?cid=0x0:0xaaadfde047b475b5
supermarket,supermarket,Bikabsa MMXIX,"jl.tutukembong, Tutukembong, Kec. Nirunmas, Kab. Kepulauan Tanimbar, Maluku 97463","Tutukembong, Kec. Nirunmas, Kab. Kepulauan Tanimbar",MALUKU,97463.0,Indonesia,81317290785.0,-7.5014808,131.6497172,https://maps.google.com/?cid=0x0:0x3a2ea0fbd16f9ad9
supermarket,supermarket,Apotik Sirih Suma,"Jl. Wei Kaompu, Ermyau, Kec. Nirunmas, Kab. Kepulauan Tanimbar, Maluku 97463","Ermyau, Kec. Nirunmas, Kab. Kepulauan Tanimbar",MALUKU,97463.0,Indonesia,81248648306.0,-7.4259902,131.6923701,https://maps.google.com/?cid=0x0:0x2026f71316d8a9ba
supermarket,Toko Swalayan,TOKO KAMI SAUMLAKI,"28F2+4MF, BTN LORONG 2, RT.001/RW.03, Saumlaki, Tanimbar Sel., Kab. Kepulauan Tanimbar, Maluku","Kab. Kepulauan Tanimbar, Maluku",MALUKU,,Indonesia,82199547782.0,-7.9771995,131.3016633,https://maps.google.com/?cid=0x0:0xaa197d2b3943d595
supermarket,Toko Buah dan Sayuran,Sumber Rejeki Mart Saumlaki,"Jl. Urayana, Olilit, Tanimbar Sel., Kab. Kepulauan Tanimbar, Maluku","Kab. Kepulauan Tanimbar, Maluku",MALUKU,,Indonesia,81357305802.0,-7.9724185,131.3077093,https://maps.google.com/?cid=0x0:0x197991f62f6f9683
supermarket,Toko bahan makanan,Toko Mawambunga,"278V+RQ7, Olilit, Tanimbar Sel., Kab. Kepulauan Tanimbar, Maluku","Kab. Kepulauan Tanimbar, Maluku",MALUKU,,Indonesia,,-7.9829599,131.2944242,https://maps.google.com/?cid=0x0:0xcc3b45e351ba860c
