Category,Real Category,Business Name,Address,City,State,Postal Code,Country,Phone,Email,Website,Latitude,Longitude,Map Link,Details Link
hotel,hotel,Kec. Budong-Budong,"Kabupaten Mamuju Tengah, Sulawesi Barat","Kabupaten Mamuju Tengah, Sulawesi Barat",SULAWESI BARAT,,Indonesia,,,,-2.1728923,119.2291681,https://maps.google.com/?cid=0x0:0x513972b69bc5b519,
hotel,hotel,Wisma tiga putra belawa 1,"Jl. Poros Majene - Mamuju, Tengah, Kec. Topoyo, Kabupaten Mamuju Tengah, Sulawesi Barat 91563","Tengah, Kec. Topoyo, Kabupaten Mamuju Tengah",SULAWESI BARAT,91563.0,Indonesia,82190246442.0,,,-2.0699249,119.2860893,https://maps.google.com/?cid=0x0:0x1483f8cf9d5b45c2,
hotel,hotel,Hotel Fadhila Topoyo,"Jl. Abd. Madjid pattaro pura no. 8, Topoyo, Kec. Topoyo, Kabupaten Mamuju Tengah, Sulawesi Barat 91564","Topoyo, Kec. Topoyo, Kabupaten Mamuju Tengah",SULAWESI BARAT,91564.0,Indonesia,811424855.0,,,-2.0681777,119.2878634,https://maps.google.com/?cid=0x0:0xd254ab24376568c,
hotel,hotel,Wisma Widya Buah,"W7HQ+QFX, Jl. Abdul Majid, Pattaropura, Kec. Topoyo, Kabupaten Mamuju Tengah, Sulawesi Barat 91564","Jl. Abdul Majid, Pattaropura, Kec. Topoyo, Kabupaten Mamuju Tengah",SULAWESI BARAT,91564.0,Indonesia,85399230336.0,,,-2.0705242,119.2887454,https://maps.google.com/?cid=0x0:0xc755a72a5dd0c897,
hotel,hotel,Hotel Anugrah,"8VFV+3GV, Jl. WR. Monginsidi, Binanga, Kec. Mamuju, Kabupaten Mamuju, Sulawesi Barat 91511","Jl. WR. Monginsidi, Binanga, Kec. Mamuju, Kabupaten Mamuju",SULAWESI BARAT,91511.0,Indonesia,42621187.0,,,-2.6772511,118.8938061,https://maps.google.com/?cid=0x0:0x850b3ee9752e0e9c,
hotel,hotel,Marannu Golden Hotel,"JL. H. Andi Dai No.23, Binanga, Binanga, Mamuju, Binanga, Kec. Mamuju, Kabupaten Mamuju, Sulawesi Barat 91511","Binanga, Binanga, Mamuju, Binanga, Kec. Mamuju, Kabupaten Mamuju",SULAWESI BARAT,91511.0,Indonesia,4262325741.0,,,-2.6708818,118.8951989,https://maps.google.com/?cid=0x0:0x327a9a380ca5bdc5,
hotel,hotel,Sulawesi Barat 91512,"Kabupaten Mamuju, Sulawesi Barat","Kabupaten Mamuju, Sulawesi Barat",SULAWESI BARAT,,Indonesia,,,,-1.8494265,119.5339711,https://maps.google.com/?cid=0x0:0x8e21c401717b8ceb,
hotel,hotel,Matos Hotel Mamuju,"Jl. Yos Sudarso No.37, Kabupaten Mamuju, Sulawesi Barat 91511",Kabupaten Mamuju,SULAWESI BARAT,91511.0,Indonesia,4262331333.0,,,-2.6688183,118.8922326,https://maps.google.com/?cid=0x0:0x8b1cd065356b8834,
hotel,hotel,quin park hotel,"Jl.pattana endeng korongana, Kabupaten Mamuju, Sulawesi Barat","Kabupaten Mamuju, Sulawesi Barat",SULAWESI BARAT,,Indonesia,85255445508.0,,,-2.6710149,118.8517914,https://maps.google.com/?cid=0x0:0x6277a879de30a904,
hotel,hotel,,,,SULAWESI BARAT,,Indonesia,,,,,,https://maps.google.com/?cid=0x0:0x82ac1e1c25fd9464%7C/g/1z3t2mvzs%7Cen-ID,
hotel,hotel,Hotel Lestari Mamuju,"Jl. Musa Karim, Karema, Kec. Mamuju, Kabupaten Mamuju, Sulawesi Barat 91512","Karema, Kec. Mamuju, Kabupaten Mamuju",SULAWESI BARAT,91512.0,Indonesia,,,,-2.6891964,118.8790681,https://maps.google.com/?cid=0x0:0xfcaa922c3ba374fa,
hotel,Hotel,Hotel M City Mamuju,"Jl. Kurungan Bassi (Trans Sulawesi) No.32, Rimuku, Kec. Mamuju, Kabupaten Mamuju, Sulawesi Barat 91511","Rimuku, Kec. Mamuju, Kabupaten Mamuju",SULAWESI BARAT,91511.0,Indonesia,82190784200.0,,,-2.6814864,118.8889937,https://maps.google.com/?cid=0x0:0x54608944f394adf5,
hotel,hotel,,,,SULAWESI BARAT,,Indonesia,,,,,,https://maps.google.com/?cid=0x0:0xfcaa922c3ba374fa%7C/g/11wvr9dlkk%7Cen-ID,
hotel,hotel,Grand Mutiara Hotel Mamuju,"Jl. Abdul Malik Pattana Endeng, Simboro, Kec. Simboro Dan Kepulauan, Kabupaten Mamuju, Sulawesi Barat 91512","Simboro, Kec. Simboro Dan Kepulauan, Kabupaten Mamuju",SULAWESI BARAT,91512.0,Indonesia,4262333870.0,,,-2.6765047,118.8581205,https://maps.google.com/?cid=0x0:0x841d52fc903564c9,
hotel,hotel,LUKE'S HOTEL Mamuju,"8V7G+PJM, Jl. Diponegoro, Karema, Kec. Mamuju, Kabupaten Mamuju, Sulawesi Barat 91512","Jl. Diponegoro, Karema, Kec. Mamuju, Kabupaten Mamuju",SULAWESI BARAT,91512.0,Indonesia,8114514888.0,,,-2.6856694,118.876537,https://maps.google.com/?cid=0x0:0x4b4181ad3db95244,
hotel,hotel,Hotel Mahkota 145,"Dan, Jl. Jend Sudirman, Simboro, Kepulauan, Kabupaten Mamuju, Sulawesi Barat 91511","Jl. Jend Sudirman, Simboro, Kepulauan, Kabupaten Mamuju",SULAWESI BARAT,91511.0,Indonesia,81244337650.0,,,-2.6874953,118.8688212,https://maps.google.com/?cid=0x0:0x21d392407f427bff,
hotel,hotel,OYO 93411 Syariah Hotel Tomborang,"91512, Mamuju, Sulawesi Barat, Sulawesi, 91511, Kec. Mamuju, lampung Selatan, Lampung 91513","Mamuju, Sulawesi Barat, Sulawesi,",SULAWESI BARAT,91511.0,Indonesia,2129707601.0,,,-2.6899859,118.8709479,https://maps.google.com/?cid=0x0:0xf64cf82cc56c6819,
hotel,hotel,Aflah Hotel,"Jl. KS Tubun No.54, Rimuku, Kec. Mamuju, Kabupaten Mamuju, Sulawesi Barat 91151","Rimuku, Kec. Mamuju, Kabupaten Mamuju",SULAWESI BARAT,91151.0,Indonesia,4262300009.0,,,-2.6784886,118.8809964,https://maps.google.com/?cid=0x0:0x7e276f486ff1deb6,
hotel,Hotel,Hotel Yaki,"Jl. H. Andi Endeng, Karema, Kec. Mamuju, Kabupaten Mamuju, Sulawesi Barat 91512","Karema, Kec. Mamuju, Kabupaten Mamuju",SULAWESI BARAT,91512.0,Indonesia,895417300072.0,,,-2.6797707,118.88019,https://maps.google.com/?cid=0x0:0x1ebcb9fa8adea738,
hotel,hotel,RedDoorz Plus @ Hotel Lestari Karema Mamuju,"8V5H+VPM, Karema, Kec. Mamuju, Kabupaten Mamuju, Sulawesi Barat","Kabupaten Mamuju, Sulawesi Barat",SULAWESI BARAT,,Indonesia,895417300072.0,,,-2.6903125,118.8793125,https://maps.google.com/?cid=0x0:0x8c5fcb488a6677c7,
hotel,hotel,Hotel Pantai Indah,"Jl. Badau No.25, Rimuku, Kec. Mamuju, Kabupaten Mamuju, Sulawesi Barat 91511","Rimuku, Kec. Mamuju, Kabupaten Mamuju",SULAWESI BARAT,91511.0,Indonesia,82349273233.0,,,-2.6769483,118.8836748,https://maps.google.com/?cid=0x0:0x714cb42f1d5e6744,
hotel,hotel,RedDoorz Syariah @ Karema Area Mamuju,"Jl. Soekarno Hatta, Karema, Kec. Mamuju, Kabupaten Mamuju, Sulawesi Barat 91512","Karema, Kec. Mamuju, Kabupaten Mamuju",SULAWESI BARAT,91512.0,Indonesia,895417300072.0,,,-2.694171,118.8778142,https://maps.google.com/?cid=0x0:0xe137983294824afd,
hotel,hotel,Hotel Meganita,"Jl. Pattalundru No.04, Binanga, Kec. Mamuju, Kabupaten Mamuju, Sulawesi Barat 91511","Binanga, Kec. Mamuju, Kabupaten Mamuju",SULAWESI BARAT,91511.0,Indonesia,82346086580.0,,,-2.6781225,118.8926904,https://maps.google.com/?cid=0x0:0x1ceb971647a35a01,
hotel,Pondok,Wisma SEDERHANA,"Jl. Emmy Saelan, Binanga, Kec. Mamuju, Kabupaten Mamuju, Sulawesi Barat 91511","Binanga, Kec. Mamuju, Kabupaten Mamuju",SULAWESI BARAT,91511.0,Indonesia,82337054370.0,,,-2.672532,118.8912053,https://maps.google.com/?cid=0x0:0xa256790c0187e0d4,
hotel,Hotel jangka panjang,OYO 93536 Pondok Almirah,"8VH2+F2W, Rangas, Kec. Simboro Dan Kepulauan, Kabupaten Mamuju, Sulawesi Barat 91513","Rangas, Kec. Simboro Dan Kepulauan, Kabupaten Mamuju",SULAWESI BARAT,91513.0,Indonesia,919667783994.0,,,-2.671263,118.850073,https://maps.google.com/?cid=0x0:0xe438daab0df9148c,
hotel,hotel,Srikandi Hotel,"Jl. Pattalunru No.10, Binanga, Kec. Mamuju, Kabupaten Mamuju, Sulawesi Barat 91511","Binanga, Kec. Mamuju, Kabupaten Mamuju",SULAWESI BARAT,91511.0,Indonesia,42621766.0,,,-2.6774568,118.8921242,https://maps.google.com/?cid=0x0:0x97c27ab420cea1c5,
hotel,hotel,Hotel Rio,"Jl. Emmy Saelan No.40, Binanga, Kec. Mamuju, Kabupaten Mamuju, Sulawesi Barat 91511","Binanga, Kec. Mamuju, Kabupaten Mamuju",SULAWESI BARAT,91511.0,Indonesia,42621014.0,,,-2.6721138,118.8911862,https://maps.google.com/?cid=0x0:0xbdb013225a9be39c,
hotel,hotel,Marannu Golden Hotel,"JL. H. Andi Dai No.23, Binanga, Binanga, Mamuju, Binanga, Kec. Mamuju, Kabupaten Mamuju, Sulawesi Barat 91511","Binanga, Binanga, Mamuju, Binanga, Kec. Mamuju, Kabupaten Mamuju",SULAWESI BARAT,91511.0,Indonesia,4262325741.0,,,-2.6708818,118.8951989,https://maps.google.com/?cid=0x0:0x327a9a380ca5bdc5,
hotel,Hotel,OYO 93443 Emmy Homestay Syariah,"Binanga, Kec. Mamuju, Kabupaten Mamuju, Sulawesi Barat 91516","Kec. Mamuju, Kabupaten Mamuju",SULAWESI BARAT,91516.0,Indonesia,817788016.0,,,-2.6788125,118.8940625,https://maps.google.com/?cid=0x0:0xa5eb193713901cff,
hotel,hotel,Kec. Pangale,"Kabupaten Mamuju Tengah, Sulawesi Barat","Kabupaten Mamuju Tengah, Sulawesi Barat",SULAWESI BARAT,,Indonesia,,,,-2.2717045,119.1995263,https://maps.google.com/?cid=0x0:0x38044147fdebd95,
hotel,hotel,Grand Maleo Hotel  Convention Mamuju,"8VGP+FQV, Jl. Yos Sudarso No.51, Binanga, Kec. Mamuju, Kabupaten Mamuju, Sulawesi Barat 91511","Jl. Yos Sudarso No.51, Binanga, Kec. Mamuju, Kabupaten Mamuju",SULAWESI BARAT,91511.0,Indonesia,82293908333.0,,,-2.6728106,118.886902,https://maps.google.com/?cid=0x0:0x82ac1e1c25fd9464,
hotel,hotel,,,,SULAWESI BARAT,,Indonesia,,,,,,https://maps.google.com/?cid=0x0:0x82ac1e1c25fd9464%7C/g/1z3t2mvzs%7Cen-ID,
hotel,hotel,Grand Mutiara Hotel Mamuju,"Jl. Abdul Malik Pattana Endeng, Simboro, Kec. Simboro Dan Kepulauan, Kabupaten Mamuju, Sulawesi Barat 91512","Simboro, Kec. Simboro Dan Kepulauan, Kabupaten Mamuju",SULAWESI BARAT,91512.0,Indonesia,4262333870.0,,,-2.6765047,118.8581205,https://maps.google.com/?cid=0x0:0x841d52fc903564c9,
hotel,hotel,Hotel Mahkota 145,"Dan, Jl. Jend Sudirman, Simboro, Kepulauan, Kabupaten Mamuju, Sulawesi Barat 91511","Jl. Jend Sudirman, Simboro, Kepulauan, Kabupaten Mamuju",SULAWESI BARAT,91511.0,Indonesia,81244337650.0,,,-2.6874953,118.8688212,https://maps.google.com/?cid=0x0:0x21d392407f427bff,
hotel,hotel,Aflah Hotel,"Jl. KS Tubun No.54, Rimuku, Kec. Mamuju, Kabupaten Mamuju, Sulawesi Barat 91151","Rimuku, Kec. Mamuju, Kabupaten Mamuju",SULAWESI BARAT,91151.0,Indonesia,4262300009.0,,,-2.6784886,118.8809964,https://maps.google.com/?cid=0x0:0x7e276f486ff1deb6,
hotel,hotel,Hotel Pantai Indah,"Jl. Badau No.25, Rimuku, Kec. Mamuju, Kabupaten Mamuju, Sulawesi Barat 91511","Rimuku, Kec. Mamuju, Kabupaten Mamuju",SULAWESI BARAT,91511.0,Indonesia,82349273233.0,,,-2.6769483,118.8836748,https://maps.google.com/?cid=0x0:0x714cb42f1d5e6744,
hotel,hotel,Hotel Meganita,"Jl. Pattalundru No.04, Binanga, Kec. Mamuju, Kabupaten Mamuju, Sulawesi Barat 91511","Binanga, Kec. Mamuju, Kabupaten Mamuju",SULAWESI BARAT,91511.0,Indonesia,82346086580.0,,,-2.6781225,118.8926904,https://maps.google.com/?cid=0x0:0x1ceb971647a35a01,
hotel,hotel,Hotel Fadhila Topoyo,"Jl. Abd. Madjid pattaro pura no. 8, Topoyo, Kec. Topoyo, Kabupaten Mamuju Tengah, Sulawesi Barat 91564","Topoyo, Kec. Topoyo, Kabupaten Mamuju Tengah",SULAWESI BARAT,91564.0,Indonesia,811424855.0,,,-2.0681777,119.2878634,https://maps.google.com/?cid=0x0:0xd254ab24376568c,
hotel,hotel,Hotel Rio,"Jl. Emmy Saelan No.40, Binanga, Kec. Mamuju, Kabupaten Mamuju, Sulawesi Barat 91511","Binanga, Kec. Mamuju, Kabupaten Mamuju",SULAWESI BARAT,91511.0,Indonesia,42621014.0,,,-2.6721138,118.8911862,https://maps.google.com/?cid=0x0:0xbdb013225a9be39c,
hotel,hotel,Wisma Widya Buah,"W7HQ+QFX, Jl. Abdul Majid, Pattaropura, Kec. Topoyo, Kabupaten Mamuju Tengah, Sulawesi Barat 91564","Jl. Abdul Majid, Pattaropura, Kec. Topoyo, Kabupaten Mamuju Tengah",SULAWESI BARAT,91564.0,Indonesia,85399230336.0,,,-2.0705242,119.2887454,https://maps.google.com/?cid=0x0:0xc755a72a5dd0c897,
hotel,hotel,Wisma Tiga Putra Belawa 2,"Jl,lorong mandar 2 Topoyo Mamuju tengah, Topoyo, Kec. Topoyo, Kabupaten Mamuju, Sulawesi Barat 91564","Topoyo, Kec. Topoyo, Kabupaten Mamuju",SULAWESI BARAT,91564.0,Indonesia,81210332322.0,,,-2.0734386,119.2873364,https://maps.google.com/?cid=0x0:0x60e71b51cf69f8f,
hotel,hotel,Hotel Diana,"Binanga, Kec. Mamuju, Kabupaten Mamuju, Sulawesi Barat 91511","Kec. Mamuju, Kabupaten Mamuju",SULAWESI BARAT,91511.0,Indonesia,82199907789.0,,,-2.6723979,118.8908537,https://maps.google.com/?cid=0x0:0x6f4381fb0466cec4,
hotel,hotel,Marannu Golden Hotel,"JL. H. Andi Dai No.23, Binanga, Binanga, Mamuju, Binanga, Kec. Mamuju, Kabupaten Mamuju, Sulawesi Barat 91511","Binanga, Binanga, Mamuju, Binanga, Kec. Mamuju, Kabupaten Mamuju",SULAWESI BARAT,91511.0,Indonesia,4262325741.0,,,-2.6708818,118.8951989,https://maps.google.com/?cid=0x0:0x327a9a380ca5bdc5,
hotel,hotel,Hotel Anugrah,"8VFV+3GV, Jl. WR. Monginsidi, Binanga, Kec. Mamuju, Kabupaten Mamuju, Sulawesi Barat 91511","Jl. WR. Monginsidi, Binanga, Kec. Mamuju, Kabupaten Mamuju",SULAWESI BARAT,91511.0,Indonesia,42621187.0,,,-2.6772511,118.8938061,https://maps.google.com/?cid=0x0:0x850b3ee9752e0e9c,
hotel,hotel,Hotel Na raya,"Jl poros polewali, Osango, Kec. Mamasa, Sulawesi Barat 91362","Osango, Kec. Mamasa",SULAWESI BARAT,91362.0,Indonesia,85341089300.0,,,-2.9512919,119.3656253,https://maps.google.com/?cid=0x0:0x1a4e206046c704f8,
hotel,hotel,penginapan nur tampa padang,"Jl. Poros Majene - Mamuju, Sinyonyoi, Kec. Kalukku, Kabupaten Mamuju, Sulawesi Barat 91561","Sinyonyoi, Kec. Kalukku, Kabupaten Mamuju",SULAWESI BARAT,91561.0,Indonesia,82313782240.0,,,-2.5894222,119.0294439,https://maps.google.com/?cid=0x0:0x92dcfd8713adc513,
hotel,hotel,Lahan Palipi adisucip,"R53F+7RW, Lamba-Lamba, Kec. Pangale, Kabupaten Mamuju Tengah, Sulawesi Barat 91563","Lamba-Lamba, Kec. Pangale, Kabupaten Mamuju Tengah",SULAWESI BARAT,91563.0,Indonesia,,,,-2.1967587,119.1745776,https://maps.google.com/?cid=0x0:0xef60b7358f730a78,
hotel,hotel,Tobadak,"Kec. Tobadak, Kabupaten Mamuju Tengah, Sulawesi Barat","Kabupaten Mamuju Tengah, Sulawesi Barat",SULAWESI BARAT,,Indonesia,,,,-2.102572,119.3134183,https://maps.google.com/?cid=0x0:0xa4361dce520eaee7,
hotel,hotel,Wisma tiga putra belawa 1,"Jl. Poros Majene - Mamuju, Tengah, Kec. Topoyo, Kabupaten Mamuju Tengah, Sulawesi Barat 91563","Tengah, Kec. Topoyo, Kabupaten Mamuju Tengah",SULAWESI BARAT,91563.0,Indonesia,82190246442.0,,,-2.0699249,119.2860893,https://maps.google.com/?cid=0x0:0x1483f8cf9d5b45c2,
hotel,hotel,Hotel Fadhila Topoyo,"Jl. Abd. Madjid pattaro pura no. 8, Topoyo, Kec. Topoyo, Kabupaten Mamuju Tengah, Sulawesi Barat 91564","Topoyo, Kec. Topoyo, Kabupaten Mamuju Tengah",SULAWESI BARAT,91564.0,Indonesia,811424855.0,,,-2.0681777,119.2878634,https://maps.google.com/?cid=0x0:0xd254ab24376568c,
hotel,hotel,Grand Maleo Hotel  Convention Mamuju,"8VGP+FQV, Jl. Yos Sudarso No.51, Binanga, Kec. Mamuju, Kabupaten Mamuju, Sulawesi Barat 91511","Jl. Yos Sudarso No.51, Binanga, Kec. Mamuju, Kabupaten Mamuju",SULAWESI BARAT,91511.0,Indonesia,82293908333.0,,,-2.6728106,118.886902,https://maps.google.com/?cid=0x0:0x82ac1e1c25fd9464,
hotel,hotel,,,,SULAWESI BARAT,,Indonesia,,,,,,https://maps.google.com/?cid=0x0:0x82ac1e1c25fd9464%7C/g/1z3t2mvzs%7Cen-ID,
hotel,hotel,Wisma Tiga Putra Belawa 2,"Jl,lorong mandar 2 Topoyo Mamuju tengah, Topoyo, Kec. Topoyo, Kabupaten Mamuju, Sulawesi Barat 91564","Topoyo, Kec. Topoyo, Kabupaten Mamuju",SULAWESI BARAT,91564.0,Indonesia,81210332322.0,,,-2.0734386,119.2873364,https://maps.google.com/?cid=0x0:0x60e71b51cf69f8f,
hotel,hotel,Hotel Mahkota 145,"Dan, Jl. Jend Sudirman, Simboro, Kepulauan, Kabupaten Mamuju, Sulawesi Barat 91511","Jl. Jend Sudirman, Simboro, Kepulauan, Kabupaten Mamuju",SULAWESI BARAT,91511.0,Indonesia,81244337650.0,,,-2.6874953,118.8688212,https://maps.google.com/?cid=0x0:0x21d392407f427bff,
hotel,hotel,Aflah Hotel,"Jl. KS Tubun No.54, Rimuku, Kec. Mamuju, Kabupaten Mamuju, Sulawesi Barat 91151","Rimuku, Kec. Mamuju, Kabupaten Mamuju",SULAWESI BARAT,91151.0,Indonesia,4262300009.0,,,-2.6784886,118.8809964,https://maps.google.com/?cid=0x0:0x7e276f486ff1deb6,
hotel,hotel,Grand Mutiara Hotel Mamuju,"Jl. Abdul Malik Pattana Endeng, Simboro, Kec. Simboro Dan Kepulauan, Kabupaten Mamuju, Sulawesi Barat 91512","Simboro, Kec. Simboro Dan Kepulauan, Kabupaten Mamuju",SULAWESI BARAT,91512.0,Indonesia,4262333870.0,,,-2.6765047,118.8581205,https://maps.google.com/?cid=0x0:0x841d52fc903564c9,
hotel,hotel,LUKE'S HOTEL Mamuju,"8V7G+PJM, Jl. Diponegoro, Karema, Kec. Mamuju, Kabupaten Mamuju, Sulawesi Barat 91512","Jl. Diponegoro, Karema, Kec. Mamuju, Kabupaten Mamuju",SULAWESI BARAT,91512.0,Indonesia,8114514888.0,,,-2.6856694,118.876537,https://maps.google.com/?cid=0x0:0x4b4181ad3db95244,
hotel,hotel,RedDoorz Syariah @ Karema Area Mamuju,"Jl. Soekarno Hatta, Karema, Kec. Mamuju, Kabupaten Mamuju, Sulawesi Barat 91512","Karema, Kec. Mamuju, Kabupaten Mamuju",SULAWESI BARAT,91512.0,Indonesia,895417300072.0,,,-2.694171,118.8778142,https://maps.google.com/?cid=0x0:0xe137983294824afd,
hotel,hotel,Hotel Rio,"Jl. Emmy Saelan No.40, Binanga, Kec. Mamuju, Kabupaten Mamuju, Sulawesi Barat 91511","Binanga, Kec. Mamuju, Kabupaten Mamuju",SULAWESI BARAT,91511.0,Indonesia,42621014.0,,,-2.6721138,118.8911862,https://maps.google.com/?cid=0x0:0xbdb013225a9be39c,
hotel,hotel,Hotel Diana,"Binanga, Kec. Mamuju, Kabupaten Mamuju, Sulawesi Barat 91511","Kec. Mamuju, Kabupaten Mamuju",SULAWESI BARAT,91511.0,Indonesia,82199907789.0,,,-2.6723979,118.8908537,https://maps.google.com/?cid=0x0:0x6f4381fb0466cec4,
hotel,hotel,Marannu Golden Hotel,"JL. H. Andi Dai No.23, Binanga, Binanga, Mamuju, Binanga, Kec. Mamuju, Kabupaten Mamuju, Sulawesi Barat 91511","Binanga, Binanga, Mamuju, Binanga, Kec. Mamuju, Kabupaten Mamuju",SULAWESI BARAT,91511.0,Indonesia,4262325741.0,,,-2.6708818,118.8951989,https://maps.google.com/?cid=0x0:0x327a9a380ca5bdc5,
hotel,hotel,Hotel Anugrah,"8VFV+3GV, Jl. WR. Monginsidi, Binanga, Kec. Mamuju, Kabupaten Mamuju, Sulawesi Barat 91511","Jl. WR. Monginsidi, Binanga, Kec. Mamuju, Kabupaten Mamuju",SULAWESI BARAT,91511.0,Indonesia,42621187.0,,,-2.6772511,118.8938061,https://maps.google.com/?cid=0x0:0x850b3ee9752e0e9c,
hotel,hotel,Hotel Na raya,"Jl poros polewali, Osango, Kec. Mamasa, Sulawesi Barat 91362","Osango, Kec. Mamasa",SULAWESI BARAT,91362.0,Indonesia,85341089300.0,,,-2.9512919,119.3656253,https://maps.google.com/?cid=0x0:0x1a4e206046c704f8,
hotel,hotel,Hotel Bukit 88,"8WG3+9H9, Ir.Djuanda Lane II, Mamunyu, Mamuju, Mamuju Regency, West Sulawesi","Kabupaten Mamuju, Sulawesi Barat",SULAWESI BARAT,,Indonesia,6262812420.0,,,-2.6741,118.904,https://maps.google.com/?cid=0x0:0xd9e2be192825b813,
hotel,hotel,Sulawesi Barat 91563,"Kabupaten Mamuju, Sulawesi Barat","Kabupaten Mamuju, Sulawesi Barat",SULAWESI BARAT,,Indonesia,,,,-2.0727011,119.5107708,https://maps.google.com/?cid=0x0:0x8bfaa35dac2725d7,
hotel,hotel,Wisma tiga putra belawa 1,"Jl. Poros Majene - Mamuju, Tengah, Kec. Topoyo, Kabupaten Mamuju Tengah, Sulawesi Barat 91563","Tengah, Kec. Topoyo, Kabupaten Mamuju Tengah",SULAWESI BARAT,91563.0,Indonesia,82190246442.0,,,-2.0699249,119.2860893,https://maps.google.com/?cid=0x0:0x1483f8cf9d5b45c2,
hotel,hotel,Hotel Fadhila Topoyo,"Jl. Abd. Madjid pattaro pura no. 8, Topoyo, Kec. Topoyo, Kabupaten Mamuju Tengah, Sulawesi Barat 91564","Topoyo, Kec. Topoyo, Kabupaten Mamuju Tengah",SULAWESI BARAT,91564.0,Indonesia,811424855.0,,,-2.0681777,119.2878634,https://maps.google.com/?cid=0x0:0xd254ab24376568c,
hotel,hotel,Grand Maleo Hotel  Convention Mamuju,"8VGP+FQV, Jl. Yos Sudarso No.51, Binanga, Kec. Mamuju, Kabupaten Mamuju, Sulawesi Barat 91511","Jl. Yos Sudarso No.51, Binanga, Kec. Mamuju, Kabupaten Mamuju",SULAWESI BARAT,91511.0,Indonesia,82293908333.0,,,-2.6728106,118.886902,https://maps.google.com/?cid=0x0:0x82ac1e1c25fd9464,
hotel,hotel,,,,SULAWESI BARAT,,Indonesia,,,,,,https://maps.google.com/?cid=0x0:0x82ac1e1c25fd9464%7C/g/1z3t2mvzs%7Cen-ID,
hotel,hotel,Wisma Tiga Putra Belawa 2,"Jl,lorong mandar 2 Topoyo Mamuju tengah, Topoyo, Kec. Topoyo, Kabupaten Mamuju, Sulawesi Barat 91564","Topoyo, Kec. Topoyo, Kabupaten Mamuju",SULAWESI BARAT,91564.0,Indonesia,81210332322.0,,,-2.0734386,119.2873364,https://maps.google.com/?cid=0x0:0x60e71b51cf69f8f,
hotel,hotel,Wisma Widya Buah,"W7HQ+QFX, Jl. Abdul Majid, Pattaropura, Kec. Topoyo, Kabupaten Mamuju Tengah, Sulawesi Barat 91564","Jl. Abdul Majid, Pattaropura, Kec. Topoyo, Kabupaten Mamuju Tengah",SULAWESI BARAT,91564.0,Indonesia,85399230336.0,,,-2.0705242,119.2887454,https://maps.google.com/?cid=0x0:0xc755a72a5dd0c897,
hotel,hotel,Hotel Mahkota 145,"Dan, Jl. Jend Sudirman, Simboro, Kepulauan, Kabupaten Mamuju, Sulawesi Barat 91511","Jl. Jend Sudirman, Simboro, Kepulauan, Kabupaten Mamuju",SULAWESI BARAT,91511.0,Indonesia,81244337650.0,,,-2.6874953,118.8688212,https://maps.google.com/?cid=0x0:0x21d392407f427bff,
hotel,hotel,Grand Mutiara Hotel Mamuju,"Jl. Abdul Malik Pattana Endeng, Simboro, Kec. Simboro Dan Kepulauan, Kabupaten Mamuju, Sulawesi Barat 91512","Simboro, Kec. Simboro Dan Kepulauan, Kabupaten Mamuju",SULAWESI BARAT,91512.0,Indonesia,4262333870.0,,,-2.6765047,118.8581205,https://maps.google.com/?cid=0x0:0x841d52fc903564c9,
hotel,hotel,LUKE'S HOTEL Mamuju,"8V7G+PJM, Jl. Diponegoro, Karema, Kec. Mamuju, Kabupaten Mamuju, Sulawesi Barat 91512","Jl. Diponegoro, Karema, Kec. Mamuju, Kabupaten Mamuju",SULAWESI BARAT,91512.0,Indonesia,8114514888.0,,,-2.6856694,118.876537,https://maps.google.com/?cid=0x0:0x4b4181ad3db95244,
hotel,hotel,Hotel Pantai Indah,"Jl. Badau No.25, Rimuku, Kec. Mamuju, Kabupaten Mamuju, Sulawesi Barat 91511","Rimuku, Kec. Mamuju, Kabupaten Mamuju",SULAWESI BARAT,91511.0,Indonesia,82349273233.0,,,-2.6769483,118.8836748,https://maps.google.com/?cid=0x0:0x714cb42f1d5e6744,
hotel,hotel,Hotel Meganita,"Jl. Pattalundru No.04, Binanga, Kec. Mamuju, Kabupaten Mamuju, Sulawesi Barat 91511","Binanga, Kec. Mamuju, Kabupaten Mamuju",SULAWESI BARAT,91511.0,Indonesia,82346086580.0,,,-2.6781225,118.8926904,https://maps.google.com/?cid=0x0:0x1ceb971647a35a01,
hotel,hotel,Hotel Rio,"Jl. Emmy Saelan No.40, Binanga, Kec. Mamuju, Kabupaten Mamuju, Sulawesi Barat 91511","Binanga, Kec. Mamuju, Kabupaten Mamuju",SULAWESI BARAT,91511.0,Indonesia,42621014.0,,,-2.6721138,118.8911862,https://maps.google.com/?cid=0x0:0xbdb013225a9be39c,
hotel,hotel,Marannu Golden Hotel,"JL. H. Andi Dai No.23, Binanga, Binanga, Mamuju, Binanga, Kec. Mamuju, Kabupaten Mamuju, Sulawesi Barat 91511","Binanga, Binanga, Mamuju, Binanga, Kec. Mamuju, Kabupaten Mamuju",SULAWESI BARAT,91511.0,Indonesia,4262325741.0,,,-2.6708818,118.8951989,https://maps.google.com/?cid=0x0:0x327a9a380ca5bdc5,
hotel,hotel,Hotel Diana,"Binanga, Kec. Mamuju, Kabupaten Mamuju, Sulawesi Barat 91511","Kec. Mamuju, Kabupaten Mamuju",SULAWESI BARAT,91511.0,Indonesia,82199907789.0,,,-2.6723979,118.8908537,https://maps.google.com/?cid=0x0:0x6f4381fb0466cec4,
hotel,hotel,Hotel Na raya,"Jl poros polewali, Osango, Kec. Mamasa, Sulawesi Barat 91362","Osango, Kec. Mamasa",SULAWESI BARAT,91362.0,Indonesia,85341089300.0,,,-2.9512919,119.3656253,https://maps.google.com/?cid=0x0:0x1a4e206046c704f8,
hotel,hotel,Hotel Anugrah,"8VFV+3GV, Jl. WR. Monginsidi, Binanga, Kec. Mamuju, Kabupaten Mamuju, Sulawesi Barat 91511","Jl. WR. Monginsidi, Binanga, Kec. Mamuju, Kabupaten Mamuju",SULAWESI BARAT,91511.0,Indonesia,42621187.0,,,-2.6772511,118.8938061,https://maps.google.com/?cid=0x0:0x850b3ee9752e0e9c,
hotel,hotel,penginapan nur tampa padang,"Jl. Poros Majene - Mamuju, Sinyonyoi, Kec. Kalukku, Kabupaten Mamuju, Sulawesi Barat 91561","Sinyonyoi, Kec. Kalukku, Kabupaten Mamuju",SULAWESI BARAT,91561.0,Indonesia,82313782240.0,,,-2.5894222,119.0294439,https://maps.google.com/?cid=0x0:0x92dcfd8713adc513,
hotel,hotel,Hotel Bukit 88,"8WG3+9H9, Ir.Djuanda Lane II, Mamunyu, Mamuju, Mamuju Regency, West Sulawesi","Kabupaten Mamuju, Sulawesi Barat",SULAWESI BARAT,,Indonesia,6262812420.0,,,-2.6741,118.904,https://maps.google.com/?cid=0x0:0xd9e2be192825b813,
hotel,hotel,Topoyo,"Kec. Topoyo, Kabupaten Mamuju Tengah, Sulawesi Barat","Kabupaten Mamuju Tengah, Sulawesi Barat",SULAWESI BARAT,,Indonesia,,,,-2.0690581,119.286173,https://maps.google.com/?cid=0x0:0x97149a2c04cbd520,
hotel,hotel,Aflah Hotel,"Jl. KS Tubun No.54, Rimuku, Kec. Mamuju, Kabupaten Mamuju, Sulawesi Barat 91151","Rimuku, Kec. Mamuju, Kabupaten Mamuju",SULAWESI BARAT,91151.0,Indonesia,4262300009.0,,,-2.6784886,118.8809964,https://maps.google.com/?cid=0x0:0x7e276f486ff1deb6,
restaurant,restaurant,Kec. Budong-Budong,"Kabupaten Mamuju Tengah, Sulawesi Barat","Kabupaten Mamuju Tengah, Sulawesi Barat",SULAWESI BARAT,,Indonesia,,,,-2.1728923,119.2291681,https://maps.google.com/?cid=0x0:0x513972b69bc5b519,
restaurant,Kedai Kopi,KEDAI TA',"W57W+H7Q, Unnamed Road, Babana, Kec. Budong-Budong, Kabupaten Mamuju Tengah, Sulawesi Barat 91563","Unnamed Road, Babana, Kec. Budong-Budong, Kabupaten Mamuju Tengah",SULAWESI BARAT,91563.0,Indonesia,85155316565.0,,,-2.0860291,119.195738,https://maps.google.com/?cid=0x0:0xe6baf74bef20c340,
restaurant,Rumah Makan,WARUNG MAKAN SAMSUL,"V66X+GGC, Jl. Poros Palu - Mamuju, Salogatta, Kec. Budong-Budong, Kabupaten Mamuju Tengah, Sulawesi Barat 91563","Jl. Poros Palu - Mamuju, Salogatta, Kec. Budong-Budong, Kabupaten Mamuju Tengah",SULAWESI BARAT,91563.0,Indonesia,,,,-2.1386944,119.2487515,https://maps.google.com/?cid=0x0:0x5b6895b99f0d73bb,
restaurant,Nasi,Warung Kartonyono,"Barakkang, Kec. Budong-Budong, Kabupaten Mamuju Tengah, Sulawesi Barat 91563","Kec. Budong-Budong, Kabupaten Mamuju Tengah",SULAWESI BARAT,91563.0,Indonesia,85775599442.0,,,-2.2083255,119.2040258,https://maps.google.com/?cid=0x0:0x3ebe492491c829a2,
restaurant,Restoran,DINSU fried chicken,"W682+4XM, Jalan pendidikan, RT.5/RW.dusun, Gadima, Babana, Kec. Budong-Budong, Kabupaten Mamuju Tengah, Sulawesi Barat 91563","Jalan pendidikan, RT.5/RW.dusun, Gadima, Babana, Kec. Budong-Budong, Kabupaten Mamuju Tengah",SULAWESI BARAT,91563.0,Indonesia,85394333832.0,,,-2.0845885,119.2024679,https://maps.google.com/?cid=0x0:0x8a22c11e609eb78c,
restaurant,Kafe,Cafe N3,"R6HF+58X, Salogatta, Kec. Budong-Budong, Kabupaten Mamuju, Sulawesi Barat","Kabupaten Mamuju, Sulawesi Barat",SULAWESI BARAT,,Indonesia,81245617292.0,,,-2.172012,119.2233509,https://maps.google.com/?cid=0x0:0x95f270dabcc37d0d,
restaurant,Pusat jajanan kaki lima,Rumah saebani,"Salogatta, Kec. Budong-Budong, Kabupaten Mamuju, Sulawesi Barat","Kabupaten Mamuju, Sulawesi Barat",SULAWESI BARAT,,Indonesia,81327181644.0,,,-2.1708039,119.2280217,https://maps.google.com/?cid=0x0:0x7d851d465c63a70e,
restaurant,Brunch,Warung Athaya,"Q7QR+W59 Dara depan RUmah Sakit Umum Dara, Bojo, Kec. Budong-Budong, Kabupaten Polewali Mandar, Sulawesi Barat 91563","Bojo, Kec. Budong-Budong, Kabupaten Polewali Mandar",SULAWESI BARAT,91563.0,Indonesia,81342199196.0,,,-2.2102178,119.2904761,https://maps.google.com/?cid=0x0:0x1e897718ea2a1cac,
restaurant,Indonesia,C'Bezt Friedchiken Mamuju Tengah,"W7CR+JHC, Tobadak, Kec. Tobadak, Kabupaten Mamuju, Sulawesi Barat 91563","Tobadak, Kec. Tobadak, Kabupaten Mamuju",SULAWESI BARAT,91563.0,Indonesia,,,,-2.0784357,119.2913891,https://maps.google.com/?cid=0x0:0x1b69ca754db5764e,
restaurant,Indonesia,RM Benteng Seafood,"W7CR+VM9, Tobadak, Kec. Tobadak, Kabupaten Mamuju, Sulawesi Barat 91563","Tobadak, Kec. Tobadak, Kabupaten Mamuju",SULAWESI BARAT,91563.0,Indonesia,81243323638.0,,,-2.0778329,119.2917401,https://maps.google.com/?cid=0x0:0x75e1bd6910925cfd,
restaurant,Restoran,Warung Mie Ayam Supri,"R7R6+FG8, Pontanakayang, Kec. Budong-Budong, Kabupaten Mamuju, Sulawesi Barat 91563","Pontanakayang, Kec. Budong-Budong, Kabupaten Mamuju",SULAWESI BARAT,91563.0,Indonesia,,,,-2.1588292,119.2613281,https://maps.google.com/?cid=0x0:0xafe246ea12e034,
restaurant,Bakso,Bakso Bu Darjo Tinali,"R68H+378, Tinali, Kec. Budong-Budong, Kabupaten Mamuju, Sulawesi Barat 91563","Tinali, Kec. Budong-Budong, Kabupaten Mamuju",SULAWESI BARAT,91563.0,Indonesia,,,,-2.184844,119.2281912,https://maps.google.com/?cid=0x0:0x47fc3428696de6ce,
restaurant,Kedai Kopi,Kedai Khairah,"Polohu, Kec. Budong-Budong, Kabupaten Mamuju Tengah, Sulawesi Barat 91464","Kec. Budong-Budong, Kabupaten Mamuju Tengah",SULAWESI BARAT,91464.0,Indonesia,82160885728.0,,,-2.092702,119.239964,https://maps.google.com/?cid=0x0:0x425a69a0a7005f4b,
restaurant,Mi,RM Mini Rasa,"R7Q9+M5, Pontanakayang, Kec. Budong-Budong, Kabupaten Mamuju, Sulawesi Barat","Kabupaten Mamuju, Sulawesi Barat",SULAWESI BARAT,,Indonesia,82260303565.0,,,-2.1608177,119.2679788,https://maps.google.com/?cid=0x0:0x7ad54364cbd0f303,
restaurant,Sarapan,Warung Berkah,"W57W+H7Q, Babana, Kec. Budong-Budong, Kabupaten Mamuju Tengah, Sulawesi Barat 91563","Babana, Kec. Budong-Budong, Kabupaten Mamuju Tengah",SULAWESI BARAT,91563.0,Indonesia,,,,-2.0847703,119.1960669,https://maps.google.com/?cid=0x0:0x7c6fe092c722797f,
restaurant,Indonesia,Rumah susan,"W59W+GR9, Babana, Kec. Budong-Budong, Kabupaten Mamuju Tengah, Sulawesi Barat 91563","Babana, Kec. Budong-Budong, Kabupaten Mamuju Tengah",SULAWESI BARAT,91563.0,Indonesia,,,,-2.0811534,119.1971135,https://maps.google.com/?cid=0x0:0x54defc3de7f2648d,
restaurant,Kafe,Rumah makan puncak salogatta,"R69C+XR6, Jl. Poros Majene - Mamuju, Salogatta, Kec. Budong-Budong, Kabupaten Mamuju Tengah, Sulawesi Barat 91563","Jl. Poros Majene - Mamuju, Salogatta, Kec. Budong-Budong, Kabupaten Mamuju Tengah",SULAWESI BARAT,91563.0,Indonesia,81342932492.0,,,-2.1795163,119.2220795,https://maps.google.com/?cid=0x0:0xeabe7a1b23a53105,
restaurant,restaurant,Warung mbak Nurul polohu,"W64Q+WV5, Babana, Kec. Budong-Budong, Kabupaten Mamuju Tengah, Sulawesi Barat 91563","Babana, Kec. Budong-Budong, Kabupaten Mamuju Tengah",SULAWESI BARAT,91563.0,Indonesia,,,,-2.0927331,119.2397234,https://maps.google.com/?cid=0x0:0x90fc1a25add386ae,
restaurant,Restoran,Kedai Farras,"W7GQ+RFG, Jl. Poros Majene - Mamuju, Topoyo, Kec. Budong-Budong, Kabupaten Mamuju Tengah, Sulawesi Barat 91563","Jl. Poros Majene - Mamuju, Topoyo, Kec. Budong-Budong, Kabupaten Mamuju Tengah",SULAWESI BARAT,91563.0,Indonesia,,,,-2.0729813,119.288734,https://maps.google.com/?cid=0x0:0x4722cad24b6c07d7,
restaurant,Kafe,Ardi Cafe,"R56P+2WG Lumu Dudun Bantilang, Jl. Poros Desa, Salumanurung, Kec. Budong-Budong, Kabupaten Mamuju Tengah, Sulawesi Barat 91563","Jl. Poros Desa, Salumanurung, Kec. Budong-Budong, Kabupaten Mamuju Tengah",SULAWESI BARAT,91563.0,Indonesia,85340619045.0,,,-2.1899356,119.1873279,https://maps.google.com/?cid=0x0:0xec07314034951eb8,
restaurant,Makanan Kecil,Puncak pesona Salugatta,"R6PP+5QP, Jl. Poros Majene - Mamuju, Salogatta, Kec. Budong-Budong, Kabupaten Mamuju Tengah, Sulawesi Barat 91563","Jl. Poros Majene - Mamuju, Salogatta, Kec. Budong-Budong, Kabupaten Mamuju Tengah",SULAWESI BARAT,91563.0,Indonesia,,,,-2.1645314,119.2369376,https://maps.google.com/?cid=0x0:0x32f1593b0ace2110,
restaurant,Toko,Kios sindi,"R67G+9G, Tinali, Kec. Budong-Budong, Kabupaten Mamuju, Sulawesi Barat 91563","Tinali, Kec. Budong-Budong, Kabupaten Mamuju",SULAWESI BARAT,91563.0,Indonesia,85237183433.0,,,-2.1864992,119.2262833,https://maps.google.com/?cid=0x0:0x7a3405edc0a5e7e4,
restaurant,Nasi,Kedai BUNDA  Bibit Ikan air tawar,"Jl. Poros Palu - Mamuju, Babana, Kec. Budong-Budong, Kabupaten Mamuju Tengah, Sulawesi Barat 91563","Babana, Kec. Budong-Budong, Kabupaten Mamuju Tengah",SULAWESI BARAT,91563.0,Indonesia,,,,-2.1310972,119.2527676,https://maps.google.com/?cid=0x0:0x8f5db5ad48848155,
restaurant,restaurant,Sulawesi Barat 91512,"Kabupaten Mamuju, Sulawesi Barat","Kabupaten Mamuju, Sulawesi Barat",SULAWESI BARAT,,Indonesia,,,,-1.8494265,119.5339711,https://maps.google.com/?cid=0x0:0x8e21c401717b8ceb,
restaurant,Restoran,"Rest Area Bukit Sengon, Karossa, Mamuju Tengah","5CP3+JRX, Jl. Poros Palu - Mamuju, Lembah Hopo, Kec. Karossa, Kabupaten Mamuju Tengah, Sulawesi Barat 91512","Jl. Poros Palu - Mamuju, Lembah Hopo, Kec. Karossa, Kabupaten Mamuju Tengah",SULAWESI BARAT,91512.0,Indonesia,,,,-1.8133754,119.4046222,https://maps.google.com/?cid=0x0:0x532db24eddc54432,
restaurant,Restoran,Bar bar NR KAROSSA alpokat kocok food and drink,"Karossa, Kec. Karossa, Kabupaten Mamuju Tengah, Sulawesi Barat 91566","Kec. Karossa, Kabupaten Mamuju Tengah",SULAWESI BARAT,91566.0,Indonesia,85348856476.0,,,-1.7985196,119.4021461,https://maps.google.com/?cid=0x0:0xae5c0f59ffb2e18e,
restaurant,Brunch,Warung Makan Mas Eghi'(Pak Erick),"Lembah Hopo, Kec. Karossa, Kabupaten Mamuju, Sulawesi Barat 91512","Kec. Karossa, Kabupaten Mamuju",SULAWESI BARAT,91512.0,Indonesia,85255956715.0,,,-1.8133688,119.4032559,https://maps.google.com/?cid=0x0:0x4dc817ec02bd00d0,
restaurant,Rumah Makan,Rumah Makan Polmas,"6C23+6C9, Lembah Hopo, Kec. Karossa, Kabupaten Mamuju, Sulawesi Barat 91512","Lembah Hopo, Kec. Karossa, Kabupaten Mamuju",SULAWESI BARAT,91512.0,Indonesia,,,,-1.7994511,119.4036064,https://maps.google.com/?cid=0x0:0x57d2236edee8ec99,
restaurant,Rumah Makan,Warung Makan Pelangi,"5CX2+6X9, Lembah Hopo, Kec. Karossa, Kabupaten Mamuju, Sulawesi Barat 91512","Lembah Hopo, Kec. Karossa, Kabupaten Mamuju",SULAWESI BARAT,91512.0,Indonesia,,,,-1.8019706,119.4024822,https://maps.google.com/?cid=0x0:0x88062d6bca079e2f,
restaurant,Brunch,Warung OJOLALI,"6C32+2FG, Karossa, Kec. Karossa, Kabupaten Mamuju Tengah, Sulawesi Barat 91512","Karossa, Kec. Karossa, Kabupaten Mamuju Tengah",SULAWESI BARAT,91512.0,Indonesia,85330868927.0,,,-1.7974451,119.4012157,https://maps.google.com/?cid=0x0:0x66155fc1aac4fcdd,
restaurant,Rumah Makan,Warung Wahyuni Lbr,"5CM8+5XH, Jalan, Lembah Hopo, Kec. Karossa, Kabupaten Mamuju, Sulawesi Barat 91512","Jalan, Lembah Hopo, Kec. Karossa, Kabupaten Mamuju",SULAWESI BARAT,91512.0,Indonesia,81334646279.0,,,-1.8171551,119.417429,https://maps.google.com/?cid=0x0:0x303e812bf60bb69,
restaurant,Ikan Bakar,RM. CICI CATERING,"Jl. Abdul Malik Pattana Endeng, Simboro, Kec. Mamuju, Kabupaten Mamuju, Sulawesi Barat 91512","Simboro, Kec. Mamuju, Kabupaten Mamuju",SULAWESI BARAT,91512.0,Indonesia,81342659796.0,,,-2.6800551,118.8576734,https://maps.google.com/?cid=0x0:0xa086f4943b6d0e2d,
restaurant,Rumah Makan,ROCKET CHICKEN KAROSSA,"5CX3+XJ3, Lembah Hopo, Kec. Karossa, Kabupaten Mamuju Tengah, Sulawesi Barat 91512","Lembah Hopo, Kec. Karossa, Kabupaten Mamuju Tengah",SULAWESI BARAT,91512.0,Indonesia,,,,-1.8000885,119.4040425,https://maps.google.com/?cid=0x0:0xd8b414ee59263497,
restaurant,Restoran,Cilacap cafe,"Jl. Bau Massepe No.25, Binanga, Kec. Mamuju, Kabupaten Mamuju, Sulawesi Barat 91511","Binanga, Kec. Mamuju, Kabupaten Mamuju",SULAWESI BARAT,91511.0,Indonesia,85241585855.0,,,-2.6774146,118.8867125,https://maps.google.com/?cid=0x0:0x9a0081bdbd67bcb0,
restaurant,Rumah Makan,Warung Naila,"5CX3+H99, Lembah Hopo, Kec. Karossa, Kabupaten Mamuju, Sulawesi Barat 91512","Lembah Hopo, Kec. Karossa, Kabupaten Mamuju",SULAWESI BARAT,91512.0,Indonesia,85242964698.0,,,-1.8010751,119.4034972,https://maps.google.com/?cid=0x0:0xfe7a5b0b28f8fe1a,
restaurant,Restoran,Rm. Sabar Menunggu Maah,"6C22+W8V, Unnamed Road, Karossa, Kec. Karossa, Kabupaten Mamuju Tengah, Sulawesi Barat 91512","Unnamed Road, Karossa, Kec. Karossa, Kabupaten Mamuju Tengah",SULAWESI BARAT,91512.0,Indonesia,,,,-1.7976654,119.4007677,https://maps.google.com/?cid=0x0:0xf18b33147a5163a6,
restaurant,Sulawesi Selatan,Coto maros,"6C23+G43, Jl. Poros Majene - Mamuju, Lembah Hopo, Kec. Karossa, Kabupaten Mamuju Tengah, Sulawesi Barat 91512","Jl. Poros Majene - Mamuju, Lembah Hopo, Kec. Karossa, Kabupaten Mamuju Tengah",SULAWESI BARAT,91512.0,Indonesia,82189598126.0,,,-1.7987418,119.4027943,https://maps.google.com/?cid=0x0:0x1d37eccd74ef3e3e,
restaurant,Rumah Makan,Luxury Cafe And Resto,"8VCP+465, Jl. Tengku Cik Ditiro, Rimuku, Kec. Mamuju, Kabupaten Mamuju, Sulawesi Barat 91511","Jl. Tengku Cik Ditiro, Rimuku, Kec. Mamuju, Kabupaten Mamuju",SULAWESI BARAT,91511.0,Indonesia,85254555522.0,,,-2.6793576,118.8858105,https://maps.google.com/?cid=0x0:0xcb913d231fa400e2,
restaurant,Rumah Makan,Warung solo,"5CP3+HJ6, Jl. Poros Majene - Mamuju, Lembah Hopo, Kec. Karossa, Kabupaten Mamuju Tengah, Sulawesi Barat 91512","Jl. Poros Majene - Mamuju, Lembah Hopo, Kec. Karossa, Kabupaten Mamuju Tengah",SULAWESI BARAT,91512.0,Indonesia,,,,-1.8136052,119.4040104,https://maps.google.com/?cid=0x0:0xf63ed9447af52699,
restaurant,Rumah Makan,Warung Citra Gigi,"6C22+PP2, Karossa, Kec. Karossa, Kabupaten Mamuju Tengah, Sulawesi Barat 91512","Karossa, Kec. Karossa, Kabupaten Mamuju Tengah",SULAWESI BARAT,91512.0,Indonesia,,,,-1.7982472,119.4017647,https://maps.google.com/?cid=0x0:0xaa2330cd74fb374,
restaurant,Nasi,Warung Makmur,"6C22+VH6, Jl. Poros Majene - Mamuju, Lembah Hopo, Kec. Karossa, Kabupaten Mamuju Tengah, Sulawesi Barat 91512","Jl. Poros Majene - Mamuju, Lembah Hopo, Kec. Karossa, Kabupaten Mamuju Tengah",SULAWESI BARAT,91512.0,Indonesia,85237004650.0,,,-1.7978682,119.4014354,https://maps.google.com/?cid=0x0:0xfd673c75aca7f201,
restaurant,restaurant,LESEHAN MAKMUR,"6C22+VH3, Karossa, Kec. Karossa, Kabupaten Mamuju, Sulawesi Barat 91512","Karossa, Kec. Karossa, Kabupaten Mamuju",SULAWESI BARAT,91512.0,Indonesia,,,,-1.7978635,119.401419,https://maps.google.com/?cid=0x0:0xe8d792a9c9605115,
restaurant,Makanan Siap Saji,BFC LEONARD,"6C55+F2H, Karossa, Kec. Karossa, Kabupaten Mamuju, Sulawesi Barat 91512","Karossa, Kec. Karossa, Kabupaten Mamuju",SULAWESI BARAT,91512.0,Indonesia,,,,-1.7913228,119.4076105,https://maps.google.com/?cid=0x0:0x67191bbb7bb346cb,
restaurant,Mi,Mie Gacoan Karossa,"5CX3+954, Jl. Poros Majene - Mamuju, Lembah Hopo, Kec. Karossa, Kabupaten Mamuju Tengah, Sulawesi Barat 91512","Jl. Poros Majene - Mamuju, Lembah Hopo, Kec. Karossa, Kabupaten Mamuju Tengah",SULAWESI BARAT,91512.0,Indonesia,,,,-1.8016228,119.4029405,https://maps.google.com/?cid=0x0:0x6568dcf9945434a2,
restaurant,Rumah Makan,Rumah makan Sulawesi (99),"49XX+JPQ, Jl. Poros Majene - Mamuju, Lara, Kec. Karossa, Kabupaten Mamuju Tengah, Sulawesi Barat 91563","Jl. Poros Majene - Mamuju, Lara, Kec. Karossa, Kabupaten Mamuju Tengah",SULAWESI BARAT,91563.0,Indonesia,,,,-1.8509014,119.399348,https://maps.google.com/?cid=0x0:0x6c7568632bfad29b,
restaurant,Rumah Makan,Warung Makan AMPERA,"Jl. Poros Palu - Mamuju No.km 7, Karossa, Kec. Karossa, Kabupaten Mamuju Tengah, Sulawesi Barat 91512","Karossa, Kec. Karossa, Kabupaten Mamuju Tengah",SULAWESI BARAT,91512.0,Indonesia,85328987706.0,,,-1.7950094,119.4043912,https://maps.google.com/?cid=0x0:0x4378470e2bf64cee,
restaurant,restaurant,Kec. Pangale,"Kabupaten Mamuju Tengah, Sulawesi Barat","Kabupaten Mamuju Tengah, Sulawesi Barat",SULAWESI BARAT,,Indonesia,,,,-2.2717045,119.1995263,https://maps.google.com/?cid=0x0:0x38044147fdebd95,
restaurant,Restoran,Warung Puncak Jaya,"P56J+5CR, Jl. Poros Palu - Mamuju, Lemo-Lemo, Kec. Pangale, Kabupaten Mamuju, Sulawesi Barat 91563","Jl. Poros Palu - Mamuju, Lemo-Lemo, Kec. Pangale, Kabupaten Mamuju",SULAWESI BARAT,91563.0,Indonesia,,,,-2.2895138,119.1810179,https://maps.google.com/?cid=0x0:0xb9dd87a7fc5808e5,
restaurant,Rumah Makan,RM. Putri Soppeng,"P53G+822, Pangale, Kec. Pangale, Kabupaten Mamuju, Sulawesi Barat 91563","Pangale, Kec. Pangale, Kabupaten Mamuju",SULAWESI BARAT,91563.0,Indonesia,85299788767.0,,,-2.2967428,119.1750015,https://maps.google.com/?cid=0x0:0xdacf204106e802c6,
restaurant,Rumah Makan,"Rumah Makan, Resto and Rest Area D'Hafizah Cafe Tegal;Tepi Galung Beru-Beru Kec. Kalukku","Perempatan, Beru-Beru, Kec. Kalukku, Kabupaten Mamuju, Sulawesi Barat 91561","Beru-Beru, Kec. Kalukku, Kabupaten Mamuju",SULAWESI BARAT,91561.0,Indonesia,82349265379.0,,,-2.5162676,119.0759712,https://maps.google.com/?cid=0x0:0x1f842e0f954bd7fa,
restaurant,Nasi,RUMAH MAKAN BERKAH TARAILU,"M5CF+7WR, Jl. Poros Palu - Mamuju, Bunde, Kec. Sampaga, Kabupaten Mamuju, Sulawesi Barat 91563","Jl. Poros Palu - Mamuju, Bunde, Kec. Sampaga, Kabupaten Mamuju",SULAWESI BARAT,91563.0,Indonesia,,,,-2.3292511,119.1747735,https://maps.google.com/?cid=0x0:0xdc80c4a1e96ebb17,
restaurant,Sarapan,Hidangan Coto Makassar,"Tarailu, Kec. Sampaga, Kabupaten Mamuju, Sulawesi Barat 91563","Kec. Sampaga, Kabupaten Mamuju",SULAWESI BARAT,91563.0,Indonesia,81257246575.0,,,-2.3072717,119.1750295,https://maps.google.com/?cid=0x0:0x855ca06a364a9ee3,
restaurant,Tujuan Wisata,Villa INA Cafe  Resto,"Q52W+MRW, Jl. Poros Majene - Mamuju, Polo Lereng, Kec. Pangale, Kabupaten Mamuju, Sulawesi Barat 91563","Jl. Poros Majene - Mamuju, Polo Lereng, Kec. Pangale, Kabupaten Mamuju",SULAWESI BARAT,91563.0,Indonesia,85238370111.0,,,-2.248253,119.197091,https://maps.google.com/?cid=0x0:0x752cdadbb22a3ac9,
restaurant,Makanan Kecil,RM. Simpang Mandalika,"P6J2+44H, Polopangale, Kec. Pangale, Kabupaten Mamuju, Sulawesi Barat 91562","Polopangale, Kec. Pangale, Kabupaten Mamuju",SULAWESI BARAT,91562.0,Indonesia,,,,-2.2696991,119.2003562,https://maps.google.com/?cid=0x0:0x88721af5200658a4,
restaurant,Restoran,SOP Saudara PALLUMARA,"M5PG+4G2, Jl. Poros Majene - Mamuju, Tarailu, Kec. Sampaga, Kabupaten Mamuju, Sulawesi Barat 91563","Jl. Poros Majene - Mamuju, Tarailu, Kec. Sampaga, Kabupaten Mamuju",SULAWESI BARAT,91563.0,Indonesia,,,,-2.3147263,119.1762651,https://maps.google.com/?cid=0x0:0xb05bda2cefc0957e,
restaurant,Restoran,Aqila fernanda,"M5HF+CVJ, Tarailu, Kec. Sampaga, Kabupaten Mamuju, Sulawesi Barat 91563","Tarailu, Kec. Sampaga, Kabupaten Mamuju",SULAWESI BARAT,91563.0,Indonesia,82247016060.0,,,-2.3214153,119.1746285,https://maps.google.com/?cid=0x0:0x871d06203c84fea8,
restaurant,Restoran,Warung Makan Dg. Karim,"Q5FW+7Q3 warung makan daeng karim, jl, Polo Lereng, Kec. Pangale, Kabupaten Mamuju Tengah, Sulawesi Barat 91563","jl, Polo Lereng, Kec. Pangale, Kabupaten Mamuju Tengah",SULAWESI BARAT,91563.0,Indonesia,,,,-2.2268623,119.1969373,https://maps.google.com/?cid=0x0:0x1bddd848e6781e16,
restaurant,Rumah Makan,WARUNG MAKAN SEJAWAKA BERKAH,"Polopangale, Kec. Pangale, Kabupaten Mamuju Tengah, Sulawesi Barat","Kabupaten Mamuju Tengah, Sulawesi Barat",SULAWESI BARAT,,Indonesia,,,,-2.269827,119.2003469,https://maps.google.com/?cid=0x0:0x3696c59c4ac84c6e,
restaurant,Rumah Makan,DAP cafe and resto Mamuju,"di depan Indomaret, Jl. RE Martadinata, Simboro, Kec. Simboro Dan Kepulauan, Kabupaten Mamuju, Sulawesi Barat 91511","Jl. RE Martadinata, Simboro, Kec. Simboro Dan Kepulauan, Kabupaten Mamuju",SULAWESI BARAT,91511.0,Indonesia,82349390743.0,,,-2.6886837,118.8665054,https://maps.google.com/?cid=0x0:0x7fc9b2c6aed8b928,
restaurant,Makanan Kecil,REST AREA Tahu Sumedang Saturasa WM,"Jalan Trans Sulawesi, KM 85 Pangale, Mamuju tengah, Kabupaten Mamuju, Sulawesi Barat 91567","KM 85 Pangale, Mamuju tengah, Kabupaten Mamuju",SULAWESI BARAT,91567.0,Indonesia,85299999200.0,,,-2.2873244,119.1841483,https://maps.google.com/?cid=0x0:0x5e0e459984697e3b,
restaurant,Restoran,Warung Sampaga,"M5RF+5V3, Tarailu, Kec. Sampaga, Kabupaten Mamuju, Sulawesi Barat 91563","Tarailu, Kec. Sampaga, Kabupaten Mamuju",SULAWESI BARAT,91563.0,Indonesia,,,,-2.309616,119.174657,https://maps.google.com/?cid=0x0:0xfd324f69049b8986,
restaurant,Restoran,Warkop Ajemlas,"Q53W+658, Jl. Poros Majene - Mamuju, Polo Lereng, Kec. Pangale, Kabupaten Mamuju Tengah, Sulawesi Barat 91563","Jl. Poros Majene - Mamuju, Polo Lereng, Kec. Pangale, Kabupaten Mamuju Tengah",SULAWESI BARAT,91563.0,Indonesia,,,,-2.2469616,119.1954444,https://maps.google.com/?cid=0x0:0x3409b1027eedb7b1,
restaurant,Kafe,Berlian Cafe,"J5XF+WQG, Bunde, Kec. Sampaga, Kabupaten Mamuju, Sulawesi Barat 91563","Bunde, Kec. Sampaga, Kabupaten Mamuju",SULAWESI BARAT,91563.0,Indonesia,82292154273.0,,,-2.3501946,119.1744569,https://maps.google.com/?cid=0x0:0x7f53ba1b2a10abf9,
restaurant,Restoran,Warung Mbak Aseh,"Q53W+3H2, Polo Lereng, Kec. Pangale, Kabupaten Mamuju Tengah, Sulawesi Barat 91563","Polo Lereng, Kec. Pangale, Kabupaten Mamuju Tengah",SULAWESI BARAT,91563.0,Indonesia,,,,-2.2473567,119.1963759,https://maps.google.com/?cid=0x0:0xd8997b131cd72975,
restaurant,Padang,Rumah Makan Nurlela,"Belang-Belang, Kec. Kalukku, Kabupaten Mamuju, Sulawesi Barat 91561","Kec. Kalukku, Kabupaten Mamuju",SULAWESI BARAT,91561.0,Indonesia,,,,-2.4820924,119.1293236,https://maps.google.com/?cid=0x0:0x3d599815fe53e26d,
restaurant,Komplek perumahan,Sartanamaju,"Rumah No.65, Dusun rinjani, Sartanamaju, Kec. Pangale, Kabupaten Mamuju Tengah, Sulawesi Barat 91563","Dusun rinjani, Sartanamaju, Kec. Pangale, Kabupaten Mamuju Tengah",SULAWESI BARAT,91563.0,Indonesia,60187609454.0,,,-2.2624776,119.1804181,https://maps.google.com/?cid=0x0:0xa6173e8f4b5e4593,
restaurant,Restoran,Cafe Delicious,"M5QG+9Q3, Tarailu, Kec. Sampaga, Kabupaten Mamuju, Sulawesi Barat 91563","Tarailu, Kec. Sampaga, Kabupaten Mamuju",SULAWESI BARAT,91563.0,Indonesia,85246433339.0,,,-2.3116121,119.1769161,https://maps.google.com/?cid=0x0:0x4a03535de8b7c6d6,
restaurant,Makanan Kecil,KEDAI JIHAN,"Kuo, Kec. Pangale, Kabupaten Mamuju Tengah, Sulawesi Barat 91562","Kec. Pangale, Kabupaten Mamuju Tengah",SULAWESI BARAT,91562.0,Indonesia,81247077767.0,,,-2.2536937,119.2318254,https://maps.google.com/?cid=0x0:0xd1e1fb3ee3643d86,
restaurant,Restoran,Warung Fauzan,"M5QG+8C9, Tarailu, Kec. Sampaga, Kabupaten Mamuju, Sulawesi Barat 91563","Tarailu, Kec. Sampaga, Kabupaten Mamuju",SULAWESI BARAT,91563.0,Indonesia,,,,-2.3117214,119.1760941,https://maps.google.com/?cid=0x0:0x8a9ee6599e9e4811,
restaurant,restaurant,CCTV box tikungan,"Q6W3+RQQ, Jl. Poros Palu - Mamuju, Barakkang, Kec. Budong-Budong, Kabupaten Mamuju Tengah, Sulawesi Barat 91563","Jl. Poros Palu - Mamuju, Barakkang, Kec. Budong-Budong, Kabupaten Mamuju Tengah",SULAWESI BARAT,91563.0,Indonesia,,,,-2.1998125,119.2039375,https://maps.google.com/?cid=0x0:0x5c6b8a2ee420c025,
restaurant,Rumah Makan,Warung lamongan hilda,"Q52W+MRW, Jl. Poros Majene - Mamuju, Polo Lereng, Kec. Pangale, Kabupaten Mamuju Tengah, Sulawesi Barat 91563","Jl. Poros Majene - Mamuju, Polo Lereng, Kec. Pangale, Kabupaten Mamuju Tengah",SULAWESI BARAT,91563.0,Indonesia,82140497863.0,,,-2.248272,119.1970911,https://maps.google.com/?cid=0x0:0x82f078fce9b28b5d,
restaurant,Sarapan,Swiss cafe (Andhaa kitchen),"M5VF+HQQ, Jl. Poros Majene - Mamuju, Pangale, Kec. Pangale, Kabupaten Mamuju, Sulawesi Barat 91563","Jl. Poros Majene - Mamuju, Pangale, Kec. Pangale, Kabupaten Mamuju",SULAWESI BARAT,91563.0,Indonesia,,,,-2.3060491,119.1744696,https://maps.google.com/?cid=0x0:0x2497bf2ee431427d,
restaurant,Bakso,Bakso pertalite kuo,"P6JH+H88, Kuo, Kec. Pangale, Kabupaten Mamuju Tengah, Sulawesi Barat","Kabupaten Mamuju Tengah, Sulawesi Barat",SULAWESI BARAT,,Indonesia,,,,-2.2685961,119.2283391,https://maps.google.com/?cid=0x0:0xf6cd48fd54926f1b,
restaurant,Indonesia,RM Benteng Seafood,"W7CR+VM9, Tobadak, Kec. Tobadak, Kabupaten Mamuju, Sulawesi Barat 91563","Tobadak, Kec. Tobadak, Kabupaten Mamuju",SULAWESI BARAT,91563.0,Indonesia,81243323638.0,,,-2.0778329,119.2917401,https://maps.google.com/?cid=0x0:0x75e1bd6910925cfd,
restaurant,Restoran,RM Mama Mitha,"W77P+G6G, Jl. Soekarno Hatta, Tobadak, Kec. Tobadak, Kabupaten Mamuju Tengah, Sulawesi Barat 91563","Jl. Soekarno Hatta, Tobadak, Kec. Tobadak, Kabupaten Mamuju Tengah",SULAWESI BARAT,91563.0,Indonesia,85397375107.0,,,-2.0861839,119.2855725,https://maps.google.com/?cid=0x0:0x45a5a03cc9f9c4f9,
restaurant,Kafe,Cafe and Resto 88,"W7GV+7WP, Tobadak, Kec. Tobadak, Kabupaten Mamuju Tengah, Sulawesi Barat 91563","Tobadak, Kec. Tobadak, Kabupaten Mamuju Tengah",SULAWESI BARAT,91563.0,Indonesia,81265010435.0,,,-2.0742834,119.294823,https://maps.google.com/?cid=0x0:0xe13c1bbe7d7fbc9f,
restaurant,Hidangan Laut,KEDAI BENTENG,"W7FR+3WG, Tobadak, Kec. Tobadak, Kabupaten Mamuju Tengah, Sulawesi Barat 91563","Tobadak, Kec. Tobadak, Kabupaten Mamuju Tengah",SULAWESI BARAT,91563.0,Indonesia,85705183533.0,,,-2.0773153,119.2923285,https://maps.google.com/?cid=0x0:0x3af1b71c85383734,
restaurant,Sulawesi Selatan,RM Turatea 2,"W74G+F26, Tobadak, Kec. Tobadak, Kabupaten Mamuju Tengah, Sulawesi Barat 91563","Tobadak, Kec. Tobadak, Kabupaten Mamuju Tengah",SULAWESI BARAT,91563.0,Indonesia,,,,-2.0938435,119.2750015,https://maps.google.com/?cid=0x0:0xe13d045d13a17104,
restaurant,Rumah Makan,Warung Sederhana,"W79R+4G9, Tobadak, Kec. Tobadak, Kabupaten Mamuju Tengah, Sulawesi Barat 91563","Tobadak, Kec. Tobadak, Kabupaten Mamuju Tengah",SULAWESI BARAT,91563.0,Indonesia,,,,-2.0822063,119.2913736,https://maps.google.com/?cid=0x0:0xd967301d31d320f9,
restaurant,Restoran,Rumah Makan Cahaya Batu Batu Topoyo,"Jl. Poros Majene - Mamuju No.16, Tobadak, Kec. Tobadak, Kabupaten Mamuju Tengah, Sulawesi Barat 91563","Tobadak, Kec. Tobadak, Kabupaten Mamuju Tengah",SULAWESI BARAT,91563.0,Indonesia,,,,-2.0813029,119.2915417,https://maps.google.com/?cid=0x0:0x5edabe46a827534b,
restaurant,Sulawesi Selatan,COTO MAKASSAR BENTENG,"W7FR+7J6, Tobadak, Kec. Tobadak, Kabupaten Mamuju, Sulawesi Barat 91563","Tobadak, Kec. Tobadak, Kabupaten Mamuju",SULAWESI BARAT,91563.0,Indonesia,85343750519.0,,,-2.076843,119.2915045,https://maps.google.com/?cid=0x0:0x71b9a8a82558a6f,
restaurant,Indonesia,Warung Sritanjung,"W78R+94F, Tobadak, Kec. Tobadak, Kabupaten Mamuju Tengah, Sulawesi Barat 91563","Tobadak, Kec. Tobadak, Kabupaten Mamuju Tengah",SULAWESI BARAT,91563.0,Indonesia,,,,-2.084072,119.2903008,https://maps.google.com/?cid=0x0:0xb874f0d5e6fbe853,
restaurant,Sulawesi Selatan,Warung Coto Makassar,"W79R+7HG, Tobadak, Kec. Tobadak, Kabupaten Mamuju, Sulawesi Barat 91563","Tobadak, Kec. Tobadak, Kabupaten Mamuju",SULAWESI BARAT,91563.0,Indonesia,85242109249.0,,,-2.081804,119.2914648,https://maps.google.com/?cid=0x0:0x6b7efb4bda31c928,
restaurant,Restoran,Warung Kalla Baru,"W7CR+XM7, Jl. Poros Majene - Mamuju, Tobadak, Kec. Tobadak, Kabupaten Mamuju Tengah, Sulawesi Barat 91563","Jl. Poros Majene - Mamuju, Tobadak, Kec. Tobadak, Kabupaten Mamuju Tengah",SULAWESI BARAT,91563.0,Indonesia,,,,-2.0775419,119.2916566,https://maps.google.com/?cid=0x0:0xfbc78b802c1ad673,
restaurant,Bakso,Warung ojolali,"W74F+65C, Jl. Poros Majene - Mamuju, Tobadak, Kec. Tobadak, Kabupaten Mamuju Tengah, Sulawesi Barat 91563","Jl. Poros Majene - Mamuju, Tobadak, Kec. Tobadak, Kabupaten Mamuju Tengah",SULAWESI BARAT,91563.0,Indonesia,82326247479.0,,,-2.09443,119.2728933,https://maps.google.com/?cid=0x0:0x920e32473c8c8e3f,
restaurant,Sup,Warung Konro Cahaya Barru,"W738+55C, Jl. Poros Majene - Mamuju, Tobadak, Kec. Tobadak, Kabupaten Mamuju Tengah, Sulawesi Barat 91563","Jl. Poros Majene - Mamuju, Tobadak, Kec. Tobadak, Kabupaten Mamuju Tengah",SULAWESI BARAT,91563.0,Indonesia,82292888759.0,,,-2.0970746,119.2653799,https://maps.google.com/?cid=0x0:0x58b147c9de09a804,
restaurant,Sulawesi Selatan,Coto tobadak,"V9M7+RFW, Mahahe, Kec. Tobadak, Kabupaten Mamuju Tengah, Sulawesi Barat 91563","Mahahe, Kec. Tobadak, Kabupaten Mamuju Tengah",SULAWESI BARAT,91563.0,Indonesia,,,,-2.1152693,119.3634466,https://maps.google.com/?cid=0x0:0x13d595960625d524,
restaurant,Kedai Kopi,SETEMPAT,"W76H+8VM, Jl. Poros Palu - Mamuju, Tobadak, Kec. Tobadak, Kabupaten Mamuju Tengah, Sulawesi Barat 91563","Jl. Poros Palu - Mamuju, Tobadak, Kec. Tobadak, Kabupaten Mamuju Tengah",SULAWESI BARAT,91563.0,Indonesia,82271014785.0,,,-2.0891702,119.2796621,https://maps.google.com/?cid=0x0:0x8c99c2bcc87a2b9b,
restaurant,Restoran,warung begadang khas lamongan jatim,"W7FR+H8H, Tobadak, Kec. Tobadak, Kabupaten Mamuju, Sulawesi Barat 91563","Tobadak, Kec. Tobadak, Kabupaten Mamuju",SULAWESI BARAT,91563.0,Indonesia,81244342792.0,,,-2.0760724,119.2908445,https://maps.google.com/?cid=0x0:0x7f6b05d2575faa56,
restaurant,Sulawesi Selatan,warung makan coto  konro makassar,"V9M7+RFW, Mahahe, Kec. Tobadak, Kabupaten Mamuju, Sulawesi Barat 91563","Mahahe, Kec. Tobadak, Kabupaten Mamuju",SULAWESI BARAT,91563.0,Indonesia,81342054528.0,,,-2.1153802,119.3636953,https://maps.google.com/?cid=0x0:0x17caaf1001617431,
restaurant,Rumah Makan,Warung Mandar,"W7CR+WM8, Jalan Poros Mamuju, Topoyo, Tobadak, Central Mamuju Regency, West Sulawesi 91563","Jalan Poros Mamuju, Topoyo, Tobadak, Central Mamuju Regency",SULAWESI BARAT,91563.0,Indonesia,81342268226.0,,,-2.0777207,119.2916892,https://maps.google.com/?cid=0x0:0xef4afc376743bc9b,
restaurant,Nasi,NASI GORENG JAKARTA,"Jl. Poros Majene - Mamuju No.18, Tobadak, Kec. Tobadak, Kabupaten Mamuju Tengah, Sulawesi Barat 91563","Tobadak, Kec. Tobadak, Kabupaten Mamuju Tengah",SULAWESI BARAT,91563.0,Indonesia,85225444785.0,,,-2.0809908,119.2918547,https://maps.google.com/?cid=0x0:0x6f688870ff2c4435,
restaurant,Brunch,Rm. Dapoer Mas Pian,"BTN Tallungallo Permai Blok G No. 16, Tobadak, Kec. Tobadak, Kabupaten Mamuju Tengah, Sulawesi Barat 91563","Tobadak, Kec. Tobadak, Kabupaten Mamuju Tengah",SULAWESI BARAT,91563.0,Indonesia,82293486865.0,,,-2.0923619,119.2773199,https://maps.google.com/?cid=0x0:0xf0c99183c97d1d96,
restaurant,Brunch,RM. PONDOK TRISNO,"W7FR+8F2, Tobadak, Kec. Tobadak, Kabupaten Mamuju, Sulawesi Barat 91563","Tobadak, Kec. Tobadak, Kabupaten Mamuju",SULAWESI BARAT,91563.0,Indonesia,,,,-2.0767439,119.2911557,https://maps.google.com/?cid=0x0:0x9c5fda6945ae0d38,
restaurant,Indonesia,C'Bezt Friedchiken Mamuju Tengah,"W7CR+JHC, Tobadak, Kec. Tobadak, Kabupaten Mamuju, Sulawesi Barat 91563","Tobadak, Kec. Tobadak, Kabupaten Mamuju",SULAWESI BARAT,91563.0,Indonesia,,,,-2.0784357,119.2913891,https://maps.google.com/?cid=0x0:0x1b69ca754db5764e,
restaurant,Kafe,Sapo Kopi,"W7CR+6M8, Tobadak, Kec. Tobadak, Kabupaten Mamuju, Sulawesi Barat 91563","Tobadak, Kec. Tobadak, Kabupaten Mamuju",SULAWESI BARAT,91563.0,Indonesia,82396521789.0,,,-2.0794519,119.2917036,https://maps.google.com/?cid=0x0:0xf854cfb9c3449f4,
restaurant,Hidangan Laut,Rumah Makan Nada Seafood,"W75G+RGW, Tobadak, Kec. Tobadak, Kabupaten Mamuju, Sulawesi Barat 91563","Tobadak, Kec. Tobadak, Kabupaten Mamuju",SULAWESI BARAT,91563.0,Indonesia,82188032746.0,,,-2.0903894,119.276335,https://maps.google.com/?cid=0x0:0xabb97e11b1d669fa,
restaurant,Restoran,Dapoer RMS,"W7GW+MF9, Tobadak, Kec. Tobadak, Kabupaten Mamuju, Sulawesi Barat 91563","Tobadak, Kec. Tobadak, Kabupaten Mamuju",SULAWESI BARAT,91563.0,Indonesia,85298536056.0,,,-2.0733262,119.2962379,https://maps.google.com/?cid=0x0:0xda8071e3e14b6c54,
restaurant,Rumah Makan,Warung Makan Palekko,"W76H+PXM, Tobadak, Kec. Tobadak, Kabupaten Mamuju Tengah, Sulawesi Barat 91563","Tobadak, Kec. Tobadak, Kabupaten Mamuju Tengah",SULAWESI BARAT,91563.0,Indonesia,,,,-2.0881623,119.2799217,https://maps.google.com/?cid=0x0:0x6e13f3705d00c905,
restaurant,Restoran,Warung Mitra Lestati Mamuju Tengah,"W7FR+5FG, Tobadak, Kec. Tobadak, Kabupaten Mamuju, Sulawesi Barat 91563","Tobadak, Kec. Tobadak, Kabupaten Mamuju",SULAWESI BARAT,91563.0,Indonesia,,,,-2.077061,119.2912066,https://maps.google.com/?cid=0x0:0xbe29dd774b4b1bad,
restaurant,Sesuai untuk keluarga,WARUNG PANGSIT UMI,"V9J7+MH9, Mahahe, Kec. Tobadak, Kabupaten Mamuju Tengah, Sulawesi Barat 91563","Mahahe, Kec. Tobadak, Kabupaten Mamuju Tengah",SULAWESI BARAT,91563.0,Indonesia,,,,-2.1183327,119.3639929,https://maps.google.com/?cid=0x0:0xa2a9c240b085602c,
restaurant,Padang,Rumah Makan Sinta Pratama,"W7FR+99Q, Jl. Poros Majene - Mamuju, Tobadak, Kec. Tobadak, Kabupaten Mamuju Tengah, Sulawesi Barat 91563","Jl. Poros Majene - Mamuju, Tobadak, Kec. Tobadak, Kabupaten Mamuju Tengah",SULAWESI BARAT,91563.0,Indonesia,,,,-2.0765363,119.2909777,https://maps.google.com/?cid=0x0:0x1b3d0b1a42ee1e9a,
restaurant,restaurant,Sulawesi Barat 91563,"Kabupaten Mamuju, Sulawesi Barat","Kabupaten Mamuju, Sulawesi Barat",SULAWESI BARAT,,Indonesia,,,,-2.0727011,119.5107708,https://maps.google.com/?cid=0x0:0x8bfaa35dac2725d7,
restaurant,Kafe,Omj Coffee,"W7RH+GG4, Topoyo, Kec. Topoyo, Kabupaten Mamuju, Sulawesi Barat 91563","Topoyo, Kec. Topoyo, Kabupaten Mamuju",SULAWESI BARAT,91563.0,Indonesia,85228444535.0,,,-2.0587445,119.2788377,https://maps.google.com/?cid=0x0:0x25025f2a807613a9,
restaurant,Kafe,KONSPIRASI CAFE AND RESTO,"W7GW+M79, Benteng, Kec. Topoyo, Kabupaten Mamuju Tengah, Sulawesi Barat 91563","Benteng, Kec. Topoyo, Kabupaten Mamuju Tengah",SULAWESI BARAT,91563.0,Indonesia,,,,-2.073327,119.2957479,https://maps.google.com/?cid=0x0:0x35003aa8bad131e9,
restaurant,Makanan Kecil,Kedai Yoora (KYOORA),"Jl. Poros Palu - Mamuju, Topoyo, Kec. Topoyo, Kabupaten Mamuju Tengah, Sulawesi Barat 91563","Topoyo, Kec. Topoyo, Kabupaten Mamuju Tengah",SULAWESI BARAT,91563.0,Indonesia,82290336016.0,,,-2.0654157,119.295891,https://maps.google.com/?cid=0x0:0x7dce4d2269e7f3e3,
restaurant,Brunch,"RM. Karia Topoyo, Mamuju Tengah","W7HP+PM6, Jl. Jenderal Sudirman, Topoyo, Kec. Topoyo, Kabupaten Mamuju Tengah, Sulawesi Barat 91563","Jl. Jenderal Sudirman, Topoyo, Kec. Topoyo, Kabupaten Mamuju Tengah",SULAWESI BARAT,91563.0,Indonesia,,,,-2.0707167,119.2866364,https://maps.google.com/?cid=0x0:0xeb0b8efd60db7fc5,
restaurant,Restoran,warung RINDU,"W7HQ+832, Topoyo, Kec. Topoyo, Kabupaten Mamuju, Sulawesi Barat 91563","Topoyo, Kec. Topoyo, Kabupaten Mamuju",SULAWESI BARAT,91563.0,Indonesia,82187654295.0,,,-2.0717355,119.28763,https://maps.google.com/?cid=0x0:0xae212d6e2fd753d6,
restaurant,Restoran,Warung Makan Cahaya Batu-batu,"W8V3+W55, Tabolang, Kec. Topoyo, Kabupaten Mamuju, Sulawesi Barat 91563","Tabolang, Kec. Topoyo, Kabupaten Mamuju",SULAWESI BARAT,91563.0,Indonesia,,,,-2.055247,119.302986,https://maps.google.com/?cid=0x0:0xc9d5ea5450732b3b,
restaurant,Sup,Warung Pangkep (Alfha-Reissa),"Jl. Poros Majene - Mamuju No.16, Topoyo, Kec. Topoyo, Kabupaten Mamuju Tengah, Sulawesi Barat 91563","Topoyo, Kec. Topoyo, Kabupaten Mamuju Tengah",SULAWESI BARAT,91563.0,Indonesia,85255644837.0,,,-2.0655678,119.2869074,https://maps.google.com/?cid=0x0:0x1d52e605fab170e6,
restaurant,Rumah Makan,Warung Turatea 2 Coto Kuda,"W7HP+9RG, Jalan Poros Mamuju, Topoyo, Central Mamuju Regency, West Sulawesi 91563","Jalan Poros Mamuju, Topoyo, Central Mamuju Regency",SULAWESI BARAT,91563.0,Indonesia,81251118151.0,,,-2.07155,119.2870868,https://maps.google.com/?cid=0x0:0x503240b2fe6cd645,
restaurant,Toko Makanan Sehat,Kebab Abyan Topoyo Mamuju Tengah,"Topoyo, Kec. Topoyo, Kabupaten Mamuju Tengah, Sulawesi Barat","Kabupaten Mamuju Tengah, Sulawesi Barat",SULAWESI BARAT,,Indonesia,85205538519.0,,,-2.0709797,119.2867083,https://maps.google.com/?cid=0x0:0x4418cef368943ff6,
restaurant,Restoran,Rumah Makan Cahaya Batu Batu Topoyo,"Jl. Poros Majene - Mamuju No.16, Tobadak, Kec. Tobadak, Kabupaten Mamuju Tengah, Sulawesi Barat 91563","Tobadak, Kec. Tobadak, Kabupaten Mamuju Tengah",SULAWESI BARAT,91563.0,Indonesia,,,,-2.0813029,119.2915417,https://maps.google.com/?cid=0x0:0x5edabe46a827534b,
restaurant,Restoran,Kedai dangdut Topoyo,"X8X9+5P2, Jl. Poros Majene - Mamuju, Bambamanurung, Kec. Topoyo, Kabupaten Mamuju Tengah, Sulawesi Barat 91563","Jl. Poros Majene - Mamuju, Bambamanurung, Kec. Topoyo, Kabupaten Mamuju Tengah",SULAWESI BARAT,91563.0,Indonesia,,,,-2.0021022,119.3192599,https://maps.google.com/?cid=0x0:0x8c71289ef0e5c44e,
restaurant,Rumah Makan,Markas Kenyang Topoyo,"W7PM+QVX, Topoyo, Kec. Topoyo, Kabupaten Mamuju Tengah, Sulawesi Barat","Kabupaten Mamuju Tengah, Sulawesi Barat",SULAWESI BARAT,,Indonesia,82316231178.0,,,-2.0630007,119.2847383,https://maps.google.com/?cid=0x0:0xd1ea3e3f8c124c5c,
restaurant,Restoran,MITRA LESTARI DELIVERY TOPOYO,"Jl. Poros Majene - Mamuju, Tobadak, Kec. Topoyo, Kabupaten Mamuju Tengah, Sulawesi Barat 91563","Tobadak, Kec. Topoyo, Kabupaten Mamuju Tengah",SULAWESI BARAT,91563.0,Indonesia,8114208099.0,,,-2.0770643,119.2912837,https://maps.google.com/?cid=0x0:0xaa885eec4bf4d15e,
restaurant,Rumah Makan,kapurung'Ta,"Unnamed Road, Topoyo, Kec. Topoyo, Kabupaten Mamuju Tengah, Sulawesi Barat 91563","Topoyo, Kec. Topoyo, Kabupaten Mamuju Tengah",SULAWESI BARAT,91563.0,Indonesia,82351390922.0,,,-2.0578522,119.2730431,https://maps.google.com/?cid=0x0:0x418ec0439c3b6e4e,
restaurant,Indonesia,Brother's Cafe  Resto,"X6MC+VW4, Tumbu, Kec. Topoyo, Kabupaten Mamuju Tengah, Sulawesi Barat 91563","Tumbu, Kec. Topoyo, Kabupaten Mamuju Tengah",SULAWESI BARAT,91563.0,Indonesia,81299507953.0,,,-2.0153528,119.2223435,https://maps.google.com/?cid=0x0:0xf96949bf7cdf6aaf,
restaurant,Rumah Makan,Zusuki Topoyo,"W8VV+6V, Tabolang, Kec. Topoyo, Kabupaten Mamuju, Sulawesi Barat 91563","Tabolang, Kec. Topoyo, Kabupaten Mamuju",SULAWESI BARAT,91563.0,Indonesia,82191127701.0,,,-2.0568983,119.3447167,https://maps.google.com/?cid=0x0:0x4aa812c598fd0cba,
restaurant,Rumah Makan,Warung Mas Ju,"Topoyo, Kec. Topoyo, Kabupaten Mamuju Tengah, Sulawesi Barat 91563","Kec. Topoyo, Kabupaten Mamuju Tengah",SULAWESI BARAT,91563.0,Indonesia,,,,-2.0700519,119.2864595,https://maps.google.com/?cid=0x0:0x470a3d3f684eed92,
restaurant,Indonesia,Villa riverside kafe resto,"W7PX+M96, Topoyo, Kec. Topoyo, Kabupaten Mamuju Tengah, Sulawesi Barat 91563","Topoyo, Kec. Topoyo, Kabupaten Mamuju Tengah",SULAWESI BARAT,91563.0,Indonesia,,,,-2.063211,119.2990508,https://maps.google.com/?cid=0x0:0xdf5f8ff3af719c61,
restaurant,Kafe,CafeResto Pink 77,"W7MH+WXG, Jl. Pattanabone, Topoyo, Kec. Topoyo, Kabupaten Mamuju Tengah, Sulawesi Barat 91563","Jl. Pattanabone, Topoyo, Kec. Topoyo, Kabupaten Mamuju Tengah",SULAWESI BARAT,91563.0,Indonesia,85342501111.0,,,-2.0651992,119.279948,https://maps.google.com/?cid=0x0:0x2ca431e3fcf29e8a,
restaurant,Restoran,ANTO Resto  Cafe,"W7PJ+M5V, Topoyo, Kec. Topoyo, Kabupaten Mamuju, Sulawesi Barat 91563","Topoyo, Kec. Topoyo, Kabupaten Mamuju",SULAWESI BARAT,91563.0,Indonesia,,,,-2.0632678,119.2804074,https://maps.google.com/?cid=0x0:0xdbecb43d344ef6a5,
restaurant,Restoran,Rumah Makan Arum Dallu (Mas Djoko) Lamongan,"W7HP+FRX, Topoyo, Kec. Topoyo, Kabupaten Mamuju Tengah, Sulawesi Barat 91563","Topoyo, Kec. Topoyo, Kabupaten Mamuju Tengah",SULAWESI BARAT,91563.0,Indonesia,81355727868.0,,,-2.0712651,119.2871221,https://maps.google.com/?cid=0x0:0x17379c26f8c2032e,
restaurant,Kafe,Warung Sidomampir,"Kabubu.dpan kapolsek, Kabubu, Kec. Topoyo, Kabupaten Mamuju, Sulawesi Barat 91563","Kabubu, Kec. Topoyo, Kabupaten Mamuju",SULAWESI BARAT,91563.0,Indonesia,85343906883.0,,,-2.055034,119.2703075,https://maps.google.com/?cid=0x0:0x9069e010a37831a3,
restaurant,Restoran,Bakso saroja,"W7QP+GQ4, Topoyo, Kec. Topoyo, Kabupaten Mamuju, Sulawesi Barat 91563","Topoyo, Kec. Topoyo, Kabupaten Mamuju",SULAWESI BARAT,91563.0,Indonesia,82197507891.0,,,-2.0612459,119.286939,https://maps.google.com/?cid=0x0:0x303727f6be65282d,
restaurant,Restoran,Warung LIKI-LIKI's Menu,"W7HP+9V3, Topoyo, Kec. Topoyo, Kabupaten Mamuju, Sulawesi Barat 91563","Topoyo, Kec. Topoyo, Kabupaten Mamuju",SULAWESI BARAT,91563.0,Indonesia,82395609898.0,,,-2.0716179,119.2871762,https://maps.google.com/?cid=0x0:0x3d9c38eef5755709,
restaurant,Restoran,AYAM GEPREK 21,"W7JP+245, Topoyo, Kec. Topoyo, Kabupaten Mamuju Tengah, Sulawesi Barat 91563","Topoyo, Kec. Topoyo, Kabupaten Mamuju Tengah",SULAWESI BARAT,91563.0,Indonesia,85696234239.0,,,-2.0699899,119.2853449,https://maps.google.com/?cid=0x0:0xe1ffdc7cc3230528,
restaurant,Bakso,Saroja pasar lama topoyo,"W7JP+55F, Jalan pasar lama, Topoyo, Kec. Topoyo, Kabupaten Mamuju Tengah, Sulawesi Barat 91563","Jalan pasar lama, Topoyo, Kec. Topoyo, Kabupaten Mamuju Tengah",SULAWESI BARAT,91563.0,Indonesia,,,,-2.0695534,119.2854205,https://maps.google.com/?cid=0x0:0x10fdc66c4bce4583,
restaurant,Restoran,3 Putri Snack  Catering,"W7JM+XF7, Jalan Pettana Bone, Topoyo, Kec. Topoyo, Kabupaten Mamuju Tengah, Sulawesi Barat 91563","Jalan Pettana Bone, Topoyo, Kec. Topoyo, Kabupaten Mamuju Tengah",SULAWESI BARAT,91563.0,Indonesia,,,,-2.0675839,119.2836804,https://maps.google.com/?cid=0x0:0x7426820ab76a3fb9,
restaurant,Kafe,Risol mantul Topoyo,"W7QG+57F, Jl. Pattanabone, Topoyo, Kec. Topoyo, Kabupaten Mamuju Tengah, Sulawesi Barat 91563","Jl. Pattanabone, Topoyo, Kec. Topoyo, Kabupaten Mamuju Tengah",SULAWESI BARAT,91563.0,Indonesia,85757882183.0,,,-2.0616152,119.2760261,https://maps.google.com/?cid=0x0:0x1872efcb34059de5,
cafe,cafe,Kec. Budong-Budong,"Kabupaten Mamuju Tengah, Sulawesi Barat","Kabupaten Mamuju Tengah, Sulawesi Barat",SULAWESI BARAT,,Indonesia,,,,-2.1728923,119.2291681,https://maps.google.com/?cid=0x0:0x513972b69bc5b519,
cafe,Kedai Kopi,Cafe Manurung 64,"V7W5+GCJ, Jl. Soekarno Hatta, Babana, Kec. Budong-Budong, Kabupaten Mamuju Tengah, Sulawesi Barat 91563","Jl. Soekarno Hatta, Babana, Kec. Budong-Budong, Kabupaten Mamuju Tengah",SULAWESI BARAT,91563.0,Indonesia,,,,-2.1036705,119.2585133,https://maps.google.com/?cid=0x0:0x79e42d68ed71a433,
cafe,Kafe,Cafe N3,"R6HF+58X, Salogatta, Kec. Budong-Budong, Kabupaten Mamuju, Sulawesi Barat","Kabupaten Mamuju, Sulawesi Barat",SULAWESI BARAT,,Indonesia,81245617292.0,,,-2.172012,119.2233509,https://maps.google.com/?cid=0x0:0x95f270dabcc37d0d,
cafe,Toko,Kios sindi,"R67G+9G, Tinali, Kec. Budong-Budong, Kabupaten Mamuju, Sulawesi Barat 91563","Tinali, Kec. Budong-Budong, Kabupaten Mamuju",SULAWESI BARAT,91563.0,Indonesia,85237183433.0,,,-2.1864992,119.2262833,https://maps.google.com/?cid=0x0:0x7a3405edc0a5e7e4,
cafe,Makanan Kecil,Puncak pesona Salugatta,"R6PP+5QP, Jl. Poros Majene - Mamuju, Salogatta, Kec. Budong-Budong, Kabupaten Mamuju Tengah, Sulawesi Barat 91563","Jl. Poros Majene - Mamuju, Salogatta, Kec. Budong-Budong, Kabupaten Mamuju Tengah",SULAWESI BARAT,91563.0,Indonesia,,,,-2.1645314,119.2369376,https://maps.google.com/?cid=0x0:0x32f1593b0ace2110,
cafe,Kedai Kopi,CEODE,"Samping gerbang KTM, Jl. Daeng Macirrinae, Tobadak, Central Mamuju Regency, West Sulawesi 91563","Jl. Daeng Macirrinae, Tobadak, Central Mamuju Regency",SULAWESI BARAT,91563.0,Indonesia,81249761838.0,,,-2.0757881,119.2951965,https://maps.google.com/?cid=0x0:0x71acad57de789ce4,
cafe,Brunch,Kedai BabanaCamp,"W5CW+5X2, Taman Babana, Babana, Kec. Budong-Budong, Kabupaten Mamuju Tengah, Sulawesi Barat 91563","Taman Babana, Babana, Kec. Budong-Budong, Kabupaten Mamuju Tengah",SULAWESI BARAT,91563.0,Indonesia,85216744995.0,,,-2.0793464,119.1969717,https://maps.google.com/?cid=0x0:0xf1326a5966877869,
cafe,Kedai Kopi,KEDAI TA',"W57W+H7Q, Unnamed Road, Babana, Kec. Budong-Budong, Kabupaten Mamuju Tengah, Sulawesi Barat 91563","Unnamed Road, Babana, Kec. Budong-Budong, Kabupaten Mamuju Tengah",SULAWESI BARAT,91563.0,Indonesia,85155316565.0,,,-2.0860291,119.195738,https://maps.google.com/?cid=0x0:0xe6baf74bef20c340,
cafe,cafe,CCTV box tikungan,"Q6W3+RQQ, Jl. Poros Palu - Mamuju, Barakkang, Kec. Budong-Budong, Kabupaten Mamuju Tengah, Sulawesi Barat 91563","Jl. Poros Palu - Mamuju, Barakkang, Kec. Budong-Budong, Kabupaten Mamuju Tengah",SULAWESI BARAT,91563.0,Indonesia,,,,-2.1998125,119.2039375,https://maps.google.com/?cid=0x0:0x5c6b8a2ee420c025,
cafe,Kafe,Cafe Ogi And Resto,"Jalan 2, Kelurahan, Tobadak, Kec. Tobadak, Kabupaten Mamuju Tengah, Sulawesi Barat 91563","Kelurahan, Tobadak, Kec. Tobadak, Kabupaten Mamuju Tengah",SULAWESI BARAT,91563.0,Indonesia,85255888818.0,,,-2.0752046,119.2905068,https://maps.google.com/?cid=0x0:0xd3bd833a27ada7c4,
cafe,Nasi,Warung pojok,"W5CW+VW6, Babana, Kec. Budong-Budong, Kabupaten Mamuju, Sulawesi Barat 91563","Babana, Kec. Budong-Budong, Kabupaten Mamuju",SULAWESI BARAT,91563.0,Indonesia,85299435874.0,,,-2.0778341,119.1972764,https://maps.google.com/?cid=0x0:0x979c0c71e766e6b4,
cafe,Kedai Kopi,SETEMPAT,"W76H+8VM, Jl. Poros Palu - Mamuju, Tobadak, Kec. Tobadak, Kabupaten Mamuju Tengah, Sulawesi Barat 91563","Jl. Poros Palu - Mamuju, Tobadak, Kec. Tobadak, Kabupaten Mamuju Tengah",SULAWESI BARAT,91563.0,Indonesia,82271014785.0,,,-2.0891702,119.2796621,https://maps.google.com/?cid=0x0:0x8c99c2bcc87a2b9b,
cafe,Rumah Makan,WARUNG MAKAN SAMSUL,"V66X+GGC, Jl. Poros Palu - Mamuju, Salogatta, Kec. Budong-Budong, Kabupaten Mamuju Tengah, Sulawesi Barat 91563","Jl. Poros Palu - Mamuju, Salogatta, Kec. Budong-Budong, Kabupaten Mamuju Tengah",SULAWESI BARAT,91563.0,Indonesia,,,,-2.1386944,119.2487515,https://maps.google.com/?cid=0x0:0x5b6895b99f0d73bb,
cafe,Nasi,Warung Kartonyono,"Barakkang, Kec. Budong-Budong, Kabupaten Mamuju Tengah, Sulawesi Barat 91563","Kec. Budong-Budong, Kabupaten Mamuju Tengah",SULAWESI BARAT,91563.0,Indonesia,85775599442.0,,,-2.2083255,119.2040258,https://maps.google.com/?cid=0x0:0x3ebe492491c829a2,
cafe,Kafe,New cafe  resto Komunitas penikmat kopi (KPK),"Jl. Poros Majene - Mamuju, Tobadak, Kec. Tobadak, Kabupaten Mamuju Tengah, Sulawesi Barat 91563","Tobadak, Kec. Tobadak, Kabupaten Mamuju Tengah",SULAWESI BARAT,91563.0,Indonesia,82256053130.0,,,-2.0849018,119.2899145,https://maps.google.com/?cid=0x0:0x9bdb1f1bf27382a7,
cafe,Kedai Kopi,Kedai Abhy drink,"W5FX+363 Samping kantor camat, Babana, Kec. Budong-Budong, Kabupaten Mamuju Tengah, Sulawesi Barat 91563","Babana, Kec. Budong-Budong, Kabupaten Mamuju Tengah",SULAWESI BARAT,91563.0,Indonesia,82291942901.0,,,-2.077374,119.1980616,https://maps.google.com/?cid=0x0:0x4ba82bc2d930fca4,
cafe,Kedai Kopi,Betutu Mateng,"Jl. Poros Majene - Mamuju No.16, Topoyo, Kec. Topoyo, Kabupaten Mamuju Tengah, Sulawesi Barat 91563","Topoyo, Kec. Topoyo, Kabupaten Mamuju Tengah",SULAWESI BARAT,91563.0,Indonesia,82144360319.0,,,-2.0620194,119.2859477,https://maps.google.com/?cid=0x0:0xc178f38253f2ffd4,
cafe,Kedai Kopi,Kedai kopi,"Q6R2+2JF, Jl. Poros Palu - Mamuju, Barakkang, Kec. Budong-Budong, Kabupaten Mamuju Tengah, Sulawesi Barat 91563","Jl. Poros Palu - Mamuju, Barakkang, Kec. Budong-Budong, Kabupaten Mamuju Tengah",SULAWESI BARAT,91563.0,Indonesia,82292457828.0,,,-2.2099279,119.2015421,https://maps.google.com/?cid=0x0:0x4c03e8e479d36e83,
cafe,Nasi,warung remaja barakkang,"Q6R3+CCW, Barakkang, Kec. Budong-Budong, Kabupaten Mamuju, Sulawesi Barat 91563","Barakkang, Kec. Budong-Budong, Kabupaten Mamuju",SULAWESI BARAT,91563.0,Indonesia,85775599442.0,,,-2.2088848,119.2035853,https://maps.google.com/?cid=0x0:0xb356eaa1b8e3d44d,
cafe,Brunch,Warung Athaya,"Q7QR+W59 Dara depan RUmah Sakit Umum Dara, Bojo, Kec. Budong-Budong, Kabupaten Polewali Mandar, Sulawesi Barat 91563","Bojo, Kec. Budong-Budong, Kabupaten Polewali Mandar",SULAWESI BARAT,91563.0,Indonesia,81342199196.0,,,-2.2102178,119.2904761,https://maps.google.com/?cid=0x0:0x1e897718ea2a1cac,
cafe,Toko Elektronik,Wahyu Audio Music,"R645+JF9, Barakkang, Kec. Budong-Budong, Kabupaten Mamuju Tengah, Sulawesi Barat 91563","Barakkang, Kec. Budong-Budong, Kabupaten Mamuju Tengah",SULAWESI BARAT,91563.0,Indonesia,85259066676.0,,,-2.1934614,119.2087355,https://maps.google.com/?cid=0x0:0x3b2eac474beece32,
cafe,Kedai Kopi,Genema snack n drink,"V57R+G58, Kire, Kec. Budong-Budong, Kabupaten Mamuju Tengah, Sulawesi Barat 91563","Kire, Kec. Budong-Budong, Kabupaten Mamuju Tengah",SULAWESI BARAT,91563.0,Indonesia,,,,-2.1362211,119.1904385,https://maps.google.com/?cid=0x0:0x184e78d68c80fc18,
cafe,cafe,Sulawesi Barat 91512,"Kabupaten Mamuju, Sulawesi Barat","Kabupaten Mamuju, Sulawesi Barat",SULAWESI BARAT,,Indonesia,,,,-1.8494265,119.5339711,https://maps.google.com/?cid=0x0:0x8e21c401717b8ceb,
cafe,Kafe,Syndrome Coffeeshop and Musicstore,"Jl. Abd. Wahab Azasi, Rimuku, Kec. Mamuju, Kabupaten Mamuju, Sulawesi Barat 91511","Rimuku, Kec. Mamuju, Kabupaten Mamuju",SULAWESI BARAT,91511.0,Indonesia,81243341244.0,,,-2.6776674,118.8855387,https://maps.google.com/?cid=0x0:0x8bde5e54669e53c9,
cafe,Kedai Kopi,Zaby KAFE,"5CX3+F9P, Lembah Hopo, Kec. Karossa, Kabupaten Mamuju Tengah, Sulawesi Barat 91512","Lembah Hopo, Kec. Karossa, Kabupaten Mamuju Tengah",SULAWESI BARAT,91512.0,Indonesia,,,,-1.8012807,119.4034476,https://maps.google.com/?cid=0x0:0xa3419366379863cc,
cafe,Soto,warkop the maestro,"6C22+VH6, Jl. Poros Majene - Mamuju, Lembah Hopo, Kec. Karossa, Kabupaten Mamuju Tengah, Sulawesi Barat 91512","Jl. Poros Majene - Mamuju, Lembah Hopo, Kec. Karossa, Kabupaten Mamuju Tengah",SULAWESI BARAT,91512.0,Indonesia,,,,-1.7978349,119.401399,https://maps.google.com/?cid=0x0:0xf34ac5847fe00445,
cafe,Kafe,Cafe Ngopi (Ngobrol Pintar),"6C44+872, Jl. Poros Majene - Mamuju, Karossa, Kec. Karossa, Kabupaten Mamuju Tengah, Sulawesi Barat 91512","Jl. Poros Majene - Mamuju, Karossa, Kec. Karossa, Kabupaten Mamuju Tengah",SULAWESI BARAT,91512.0,Indonesia,85255300851.0,,,-1.7942323,119.4056502,https://maps.google.com/?cid=0x0:0xaeb85f80f9ee70d9,
cafe,Restoran,"Rest Area Bukit Sengon, Karossa, Mamuju Tengah","5CP3+JRX, Jl. Poros Palu - Mamuju, Lembah Hopo, Kec. Karossa, Kabupaten Mamuju Tengah, Sulawesi Barat 91512","Jl. Poros Palu - Mamuju, Lembah Hopo, Kec. Karossa, Kabupaten Mamuju Tengah",SULAWESI BARAT,91512.0,Indonesia,,,,-1.8133754,119.4046222,https://maps.google.com/?cid=0x0:0x532db24eddc54432,
cafe,Kafe,Todilaling Coffee Shop,"6C23+5C4, Jl. Poros Palu - Mamuju, Lembah Hopo, Kec. Karossa, Kabupaten Mamuju Tengah, Sulawesi Barat 91512","Jl. Poros Palu - Mamuju, Lembah Hopo, Kec. Karossa, Kabupaten Mamuju Tengah",SULAWESI BARAT,91512.0,Indonesia,,,,-1.7996024,119.4035732,https://maps.google.com/?cid=0x0:0x7b1d361e027074a,
cafe,Kafe,NAL CAFE,"8VFM+QV6 Area Rumah Adat, Jl. KS Tubun, Kabupaten Mamuju, Sulawesi Barat 91511","Jl. KS Tubun, Kabupaten Mamuju",SULAWESI BARAT,91511.0,Indonesia,82187402882.0,,,-2.6755757,118.8846501,https://maps.google.com/?cid=0x0:0xc8938237b4b0dfa7,
cafe,Kedai Kopi,Kedai Fairsad,"6C23+6C9, Lembah Hopo, Kec. Karossa, Kabupaten Mamuju Tengah, Sulawesi Barat 91512","Lembah Hopo, Kec. Karossa, Kabupaten Mamuju Tengah",SULAWESI BARAT,91512.0,Indonesia,81524257940.0,,,-1.7993823,119.4035674,https://maps.google.com/?cid=0x0:0x6753c9893d575617,
cafe,Brunch,Warung Makan Mas Eghi'(Pak Erick),"Lembah Hopo, Kec. Karossa, Kabupaten Mamuju, Sulawesi Barat 91512","Kec. Karossa, Kabupaten Mamuju",SULAWESI BARAT,91512.0,Indonesia,85255956715.0,,,-1.8133688,119.4032559,https://maps.google.com/?cid=0x0:0x4dc817ec02bd00d0,
cafe,Rumah Makan,Rumah Makan Polmas,"6C23+6C9, Lembah Hopo, Kec. Karossa, Kabupaten Mamuju, Sulawesi Barat 91512","Lembah Hopo, Kec. Karossa, Kabupaten Mamuju",SULAWESI BARAT,91512.0,Indonesia,,,,-1.7994511,119.4036064,https://maps.google.com/?cid=0x0:0x57d2236edee8ec99,
cafe,Rumah Makan,Warung Wahyuni Lbr,"5CM8+5XH, Jalan, Lembah Hopo, Kec. Karossa, Kabupaten Mamuju, Sulawesi Barat 91512","Jalan, Lembah Hopo, Kec. Karossa, Kabupaten Mamuju",SULAWESI BARAT,91512.0,Indonesia,81334646279.0,,,-1.8171551,119.417429,https://maps.google.com/?cid=0x0:0x303e812bf60bb69,
cafe,Brunch,Warung OJOLALI,"6C32+2FG, Karossa, Kec. Karossa, Kabupaten Mamuju Tengah, Sulawesi Barat 91512","Karossa, Kec. Karossa, Kabupaten Mamuju Tengah",SULAWESI BARAT,91512.0,Indonesia,85330868927.0,,,-1.7974451,119.4012157,https://maps.google.com/?cid=0x0:0x66155fc1aac4fcdd,
cafe,Rumah Makan,Warung Makan Pelangi,"5CX2+6X9, Lembah Hopo, Kec. Karossa, Kabupaten Mamuju, Sulawesi Barat 91512","Lembah Hopo, Kec. Karossa, Kabupaten Mamuju",SULAWESI BARAT,91512.0,Indonesia,,,,-1.8019706,119.4024822,https://maps.google.com/?cid=0x0:0x88062d6bca079e2f,
cafe,Rumah Makan,ROCKET CHICKEN KAROSSA,"5CX3+XJ3, Lembah Hopo, Kec. Karossa, Kabupaten Mamuju Tengah, Sulawesi Barat 91512","Lembah Hopo, Kec. Karossa, Kabupaten Mamuju Tengah",SULAWESI BARAT,91512.0,Indonesia,,,,-1.8000885,119.4040425,https://maps.google.com/?cid=0x0:0xd8b414ee59263497,
cafe,Kafe,X - Box Cafe  Resto,"Jl. Jenderal Sudirman Jl. Poros Majene - Mamuju No.88, Topoyo, Kec. Topoyo, Kabupaten Mamuju Tengah, Sulawesi Barat 91563","Topoyo, Kec. Topoyo, Kabupaten Mamuju Tengah",SULAWESI BARAT,91563.0,Indonesia,85299007234.0,,,-2.0679845,119.2871829,https://maps.google.com/?cid=0x0:0x607ce2d2dda9ddb9,
cafe,Komplek perumahan,KILOMETER SATU COFFEE  FOOD,"Jl. Poros Majene - Mamuju No.16, Topoyo, Kec. Topoyo, Kabupaten Mamuju Tengah, Sulawesi Barat 91563","Topoyo, Kec. Topoyo, Kabupaten Mamuju Tengah",SULAWESI BARAT,91563.0,Indonesia,,,,-2.0617478,119.2864756,https://maps.google.com/?cid=0x0:0x8b1d61f12ee72f17,
cafe,Kafe,New cafe  resto Komunitas penikmat kopi (KPK),"Jl. Poros Majene - Mamuju, Tobadak, Kec. Tobadak, Kabupaten Mamuju Tengah, Sulawesi Barat 91563","Tobadak, Kec. Tobadak, Kabupaten Mamuju Tengah",SULAWESI BARAT,91563.0,Indonesia,82256053130.0,,,-2.0849018,119.2899145,https://maps.google.com/?cid=0x0:0x9bdb1f1bf27382a7,
cafe,Makanan Siap Saji,BFC LEONARD,"6C55+F2H, Karossa, Kec. Karossa, Kabupaten Mamuju, Sulawesi Barat 91512","Karossa, Kec. Karossa, Kabupaten Mamuju",SULAWESI BARAT,91512.0,Indonesia,,,,-1.7913228,119.4076105,https://maps.google.com/?cid=0x0:0x67191bbb7bb346cb,
cafe,Kafe,nooncoffee_,"8V6P+VPW, Jl. Soekarno Hatta, Simboro, Kec. Mamuju, Kabupaten Mamuju, Sulawesi Barat","Kabupaten Mamuju, Sulawesi Barat",SULAWESI BARAT,,Indonesia,,,,-2.6877586,118.8868154,https://maps.google.com/?cid=0x0:0x507d58872cc9944b,
cafe,Kedai Kopi,Kedai Kopi Kabata PUS,"8VGQ+WCV, Binanga, Kec. Mamuju, Kabupaten Mamuju, Sulawesi Barat 91511","Binanga, Kec. Mamuju, Kabupaten Mamuju",SULAWESI BARAT,91511.0,Indonesia,,,,-2.6726404,118.8885454,https://maps.google.com/?cid=0x0:0xeec8aceeb980e6fb,
cafe,Kedai Kopi,Warung Mbah Man 354,"5CP3+JRX, Jl. Poros Palu - Mamuju, Lembah Hopo, Kec. Karossa, Kabupaten Mamuju Tengah, Sulawesi Barat 91512","Jl. Poros Palu - Mamuju, Lembah Hopo, Kec. Karossa, Kabupaten Mamuju Tengah",SULAWESI BARAT,91512.0,Indonesia,,,,-1.8135316,119.404867,https://maps.google.com/?cid=0x0:0x5c4f383342e60a11,
cafe,Restoran,Warung Tugu Puncak Indah,"5CP3+J8W, Jl. Poros Majene - Mamuju, Lembah Hopo, Kec. Karossa, Kabupaten Mamuju Tengah, Sulawesi Barat 91512","Jl. Poros Majene - Mamuju, Lembah Hopo, Kec. Karossa, Kabupaten Mamuju Tengah",SULAWESI BARAT,91512.0,Indonesia,85315041687.0,,,-1.8133852,119.4033346,https://maps.google.com/?cid=0x0:0xc8f1e90b025708b,
cafe,Sulawesi Selatan,Coto maros,"6C23+G43, Jl. Poros Majene - Mamuju, Lembah Hopo, Kec. Karossa, Kabupaten Mamuju Tengah, Sulawesi Barat 91512","Jl. Poros Majene - Mamuju, Lembah Hopo, Kec. Karossa, Kabupaten Mamuju Tengah",SULAWESI BARAT,91512.0,Indonesia,82189598126.0,,,-1.7987418,119.4027943,https://maps.google.com/?cid=0x0:0x1d37eccd74ef3e3e,
cafe,Toko bahan makanan,Kurir Sedekah Karossa,"Karossa, Kec. Karossa, Kabupaten Mamuju Tengah, Sulawesi Barat","Kabupaten Mamuju Tengah, Sulawesi Barat",SULAWESI BARAT,,Indonesia,,,,-1.7980963,119.3999925,https://maps.google.com/?cid=0x0:0x6e9cba8fabf229e3,
cafe,Nasi,Warung Makmur,"6C22+VH6, Jl. Poros Majene - Mamuju, Lembah Hopo, Kec. Karossa, Kabupaten Mamuju Tengah, Sulawesi Barat 91512","Jl. Poros Majene - Mamuju, Lembah Hopo, Kec. Karossa, Kabupaten Mamuju Tengah",SULAWESI BARAT,91512.0,Indonesia,85237004650.0,,,-1.7978682,119.4014354,https://maps.google.com/?cid=0x0:0xfd673c75aca7f201,
cafe,Rumah Makan,Warung Naila,"5CX3+H99, Lembah Hopo, Kec. Karossa, Kabupaten Mamuju, Sulawesi Barat 91512","Lembah Hopo, Kec. Karossa, Kabupaten Mamuju",SULAWESI BARAT,91512.0,Indonesia,85242964698.0,,,-1.8010751,119.4034972,https://maps.google.com/?cid=0x0:0xfe7a5b0b28f8fe1a,
cafe,cafe,Kec. Pangale,"Kabupaten Mamuju Tengah, Sulawesi Barat","Kabupaten Mamuju Tengah, Sulawesi Barat",SULAWESI BARAT,,Indonesia,,,,-2.2717045,119.1995263,https://maps.google.com/?cid=0x0:0x38044147fdebd95,
cafe,Restoran,Cafe Delicious,"M5QG+9Q3, Tarailu, Kec. Sampaga, Kabupaten Mamuju, Sulawesi Barat 91563","Tarailu, Kec. Sampaga, Kabupaten Mamuju",SULAWESI BARAT,91563.0,Indonesia,85246433339.0,,,-2.3116121,119.1769161,https://maps.google.com/?cid=0x0:0x4a03535de8b7c6d6,
cafe,Kafe,Cafe N3,"R6HF+58X, Salogatta, Kec. Budong-Budong, Kabupaten Mamuju, Sulawesi Barat","Kabupaten Mamuju, Sulawesi Barat",SULAWESI BARAT,,Indonesia,81245617292.0,,,-2.172012,119.2233509,https://maps.google.com/?cid=0x0:0x95f270dabcc37d0d,
cafe,Restoran,R_three cafe,"J57F+45J, Jl dusun Pancasila, Toabo, Kec. Papalang, Kabupaten Mamuju, Sulawesi Barat","Kabupaten Mamuju, Sulawesi Barat",SULAWESI BARAT,,Indonesia,82245337968.0,,,-2.3871655,119.1728913,https://maps.google.com/?cid=0x0:0x3c2bfc28f225ba11,
cafe,Restoran,Warkop Ajemlas,"Q53W+658, Jl. Poros Majene - Mamuju, Polo Lereng, Kec. Pangale, Kabupaten Mamuju Tengah, Sulawesi Barat 91563","Jl. Poros Majene - Mamuju, Polo Lereng, Kec. Pangale, Kabupaten Mamuju Tengah",SULAWESI BARAT,91563.0,Indonesia,,,,-2.2469616,119.1954444,https://maps.google.com/?cid=0x0:0x3409b1027eedb7b1,
cafe,Sarapan,Swiss cafe (Andhaa kitchen),"M5VF+HQQ, Jl. Poros Majene - Mamuju, Pangale, Kec. Pangale, Kabupaten Mamuju, Sulawesi Barat 91563","Jl. Poros Majene - Mamuju, Pangale, Kec. Pangale, Kabupaten Mamuju",SULAWESI BARAT,91563.0,Indonesia,,,,-2.3060491,119.1744696,https://maps.google.com/?cid=0x0:0x2497bf2ee431427d,
cafe,Kedai Kopi,NAILA 17 CAFE AND RESTO,"W7GW+FC, Tobadak, Kec. Tobadak, Kabupaten Mamuju, Sulawesi Barat 91563","Tobadak, Kec. Tobadak, Kabupaten Mamuju",SULAWESI BARAT,91563.0,Indonesia,82299809112.0,,,-2.0738455,119.2960513,https://maps.google.com/?cid=0x0:0xae6f9b098c6a72a4,
cafe,Tujuan Wisata,Villa INA Cafe  Resto,"Q52W+MRW, Jl. Poros Majene - Mamuju, Polo Lereng, Kec. Pangale, Kabupaten Mamuju, Sulawesi Barat 91563","Jl. Poros Majene - Mamuju, Polo Lereng, Kec. Pangale, Kabupaten Mamuju",SULAWESI BARAT,91563.0,Indonesia,85238370111.0,,,-2.248253,119.197091,https://maps.google.com/?cid=0x0:0x752cdadbb22a3ac9,
cafe,Restoran,Warung Puncak Jaya,"P56J+5CR, Jl. Poros Palu - Mamuju, Lemo-Lemo, Kec. Pangale, Kabupaten Mamuju, Sulawesi Barat 91563","Jl. Poros Palu - Mamuju, Lemo-Lemo, Kec. Pangale, Kabupaten Mamuju",SULAWESI BARAT,91563.0,Indonesia,,,,-2.2895138,119.1810179,https://maps.google.com/?cid=0x0:0xb9dd87a7fc5808e5,
cafe,cafe,CCTV box tikungan,"Q6W3+RQQ, Jl. Poros Palu - Mamuju, Barakkang, Kec. Budong-Budong, Kabupaten Mamuju Tengah, Sulawesi Barat 91563","Jl. Poros Palu - Mamuju, Barakkang, Kec. Budong-Budong, Kabupaten Mamuju Tengah",SULAWESI BARAT,91563.0,Indonesia,,,,-2.1998125,119.2039375,https://maps.google.com/?cid=0x0:0x5c6b8a2ee420c025,
cafe,Kafe,Cafe Ogi And Resto,"Jalan 2, Kelurahan, Tobadak, Kec. Tobadak, Kabupaten Mamuju Tengah, Sulawesi Barat 91563","Kelurahan, Tobadak, Kec. Tobadak, Kabupaten Mamuju Tengah",SULAWESI BARAT,91563.0,Indonesia,85255888818.0,,,-2.0752046,119.2905068,https://maps.google.com/?cid=0x0:0xd3bd833a27ada7c4,
cafe,Sup,Warung Putrie,"P54H+WXF, Jl. Poros Palu - Mamuju, Babana, Kec. Pangale, Kabupaten Mamuju Tengah, Sulawesi Barat 91563","Jl. Poros Palu - Mamuju, Babana, Kec. Pangale, Kabupaten Mamuju Tengah",SULAWESI BARAT,91563.0,Indonesia,82192102255.0,,,-2.2926798,119.1799157,https://maps.google.com/?cid=0x0:0x4062be1d56829638,
cafe,Rumah Makan,RM. Putri Soppeng,"P53G+822, Pangale, Kec. Pangale, Kabupaten Mamuju, Sulawesi Barat 91563","Pangale, Kec. Pangale, Kabupaten Mamuju",SULAWESI BARAT,91563.0,Indonesia,85299788767.0,,,-2.2967428,119.1750015,https://maps.google.com/?cid=0x0:0xdacf204106e802c6,
cafe,Kafe,Cafe and Resto 88,"W7GV+7WP, Tobadak, Kec. Tobadak, Kabupaten Mamuju Tengah, Sulawesi Barat 91563","Tobadak, Kec. Tobadak, Kabupaten Mamuju Tengah",SULAWESI BARAT,91563.0,Indonesia,81265010435.0,,,-2.0742834,119.294823,https://maps.google.com/?cid=0x0:0xe13c1bbe7d7fbc9f,
cafe,Kedai Kopi,SETEMPAT,"W76H+8VM, Jl. Poros Palu - Mamuju, Tobadak, Kec. Tobadak, Kabupaten Mamuju Tengah, Sulawesi Barat 91563","Jl. Poros Palu - Mamuju, Tobadak, Kec. Tobadak, Kabupaten Mamuju Tengah",SULAWESI BARAT,91563.0,Indonesia,82271014785.0,,,-2.0891702,119.2796621,https://maps.google.com/?cid=0x0:0x8c99c2bcc87a2b9b,
cafe,Kafe,Berlian Cafe,"J5XF+WQG, Bunde, Kec. Sampaga, Kabupaten Mamuju, Sulawesi Barat 91563","Bunde, Kec. Sampaga, Kabupaten Mamuju",SULAWESI BARAT,91563.0,Indonesia,82292154273.0,,,-2.3501946,119.1744569,https://maps.google.com/?cid=0x0:0x7f53ba1b2a10abf9,
cafe,Restoran,Cafe Dias,"M57G+72H, Bunde, Kec. Sampaga, Kabupaten Mamuju, Sulawesi Barat 91563","Bunde, Kec. Sampaga, Kabupaten Mamuju",SULAWESI BARAT,91563.0,Indonesia,,,,-2.3368074,119.1751008,https://maps.google.com/?cid=0x0:0xb0296c70fb74df49,
cafe,Kedai Kopi,Cafe Manurung 64,"V7W5+GCJ, Jl. Soekarno Hatta, Babana, Kec. Budong-Budong, Kabupaten Mamuju Tengah, Sulawesi Barat 91563","Jl. Soekarno Hatta, Babana, Kec. Budong-Budong, Kabupaten Mamuju Tengah",SULAWESI BARAT,91563.0,Indonesia,,,,-2.1036705,119.2585133,https://maps.google.com/?cid=0x0:0x79e42d68ed71a433,
cafe,Kedai Kopi,TERASRUMAH,"M5GF+WRR, Bunde, Kec. Sampaga, Kabupaten Mamuju, Sulawesi Barat 91563","Bunde, Kec. Sampaga, Kabupaten Mamuju",SULAWESI BARAT,91563.0,Indonesia,82353208524.0,,,-2.3226316,119.1745282,https://maps.google.com/?cid=0x0:0x97ff40de55d43447,
cafe,Kedai Kopi,Kedai Baiq,"Jl. Poros Palu - Mamuju, Polo Lereng, Kec. Pangale, Kabupaten Mamuju Tengah, Sulawesi Barat 91563","Polo Lereng, Kec. Pangale, Kabupaten Mamuju Tengah",SULAWESI BARAT,91563.0,Indonesia,,,,-2.2184167,119.200692,https://maps.google.com/?cid=0x0:0x1c6b9c23cd86401a,
cafe,Brunch,Waroeng Odjo Dhumeh,"M5HF+CWC, Tarailu, Kec. Sampaga, Kabupaten Mamuju, Sulawesi Barat 91563","Tarailu, Kec. Sampaga, Kabupaten Mamuju",SULAWESI BARAT,91563.0,Indonesia,,,,-2.3214362,119.1747664,https://maps.google.com/?cid=0x0:0xe0bb301504f79b00,
cafe,Restoran,Warung Mbak Aseh,"Q53W+3H2, Polo Lereng, Kec. Pangale, Kabupaten Mamuju Tengah, Sulawesi Barat 91563","Polo Lereng, Kec. Pangale, Kabupaten Mamuju Tengah",SULAWESI BARAT,91563.0,Indonesia,,,,-2.2473567,119.1963759,https://maps.google.com/?cid=0x0:0xd8997b131cd72975,
cafe,Kedai Kopi,Coffee Panggal,"Jl. Cipinang Bali I, RT.3/RW.3, Cipinang Melayu, Kec. Makasar, Kota Jakarta Timur, Daerah Khusus Ibukota Jakarta 13420","RT.3/RW.3, Cipinang Melayu, Kec. Makasar, Kota Jakarta Timur",SULAWESI BARAT,13420.0,Indonesia,85782080995.0,,,-6.2400152,106.8891228,https://maps.google.com/?cid=0x0:0xdd8762d9bf8ebbdf,
cafe,Komplek perumahan,Sartanamaju,"Rumah No.65, Dusun rinjani, Sartanamaju, Kec. Pangale, Kabupaten Mamuju Tengah, Sulawesi Barat 91563","Dusun rinjani, Sartanamaju, Kec. Pangale, Kabupaten Mamuju Tengah",SULAWESI BARAT,91563.0,Indonesia,60187609454.0,,,-2.2624776,119.1804181,https://maps.google.com/?cid=0x0:0xa6173e8f4b5e4593,
cafe,Restoran,Warung Makan Dg. Karim,"Q5FW+7Q3 warung makan daeng karim, jl, Polo Lereng, Kec. Pangale, Kabupaten Mamuju Tengah, Sulawesi Barat 91563","jl, Polo Lereng, Kec. Pangale, Kabupaten Mamuju Tengah",SULAWESI BARAT,91563.0,Indonesia,,,,-2.2268623,119.1969373,https://maps.google.com/?cid=0x0:0x1bddd848e6781e16,
cafe,Kedai Kopi,Kedai nesco,"P6J2+23H, Polopangale, Kec. Pangale, Kabupaten Mamuju Tengah, Sulawesi Barat","Kabupaten Mamuju Tengah, Sulawesi Barat",SULAWESI BARAT,,Indonesia,,,,-2.26994,119.2002482,https://maps.google.com/?cid=0x0:0x42d4d227f92da860,
cafe,cafe,Rumah ballangke,"M4MP+6J8, Sampaga, Kec. Sampaga, Kabupaten Mamuju, Sulawesi Barat","Kabupaten Mamuju, Sulawesi Barat",SULAWESI BARAT,,Indonesia,,,,-2.3173588,119.1355939,https://maps.google.com/?cid=0x0:0xb0916e74c24c4220,
cafe,Rumah Makan,Warung lamongan hilda,"Q52W+MRW, Jl. Poros Majene - Mamuju, Polo Lereng, Kec. Pangale, Kabupaten Mamuju Tengah, Sulawesi Barat 91563","Jl. Poros Majene - Mamuju, Polo Lereng, Kec. Pangale, Kabupaten Mamuju Tengah",SULAWESI BARAT,91563.0,Indonesia,82140497863.0,,,-2.248272,119.1970911,https://maps.google.com/?cid=0x0:0x82f078fce9b28b5d,
cafe,Kafe,Cafe Ogi And Resto,"Jalan 2, Kelurahan, Tobadak, Kec. Tobadak, Kabupaten Mamuju Tengah, Sulawesi Barat 91563","Kelurahan, Tobadak, Kec. Tobadak, Kabupaten Mamuju Tengah",SULAWESI BARAT,91563.0,Indonesia,85255888818.0,,,-2.0752046,119.2905068,https://maps.google.com/?cid=0x0:0xd3bd833a27ada7c4,
cafe,Kafe,Cafe and Resto 88,"W7GV+7WP, Tobadak, Kec. Tobadak, Kabupaten Mamuju Tengah, Sulawesi Barat 91563","Tobadak, Kec. Tobadak, Kabupaten Mamuju Tengah",SULAWESI BARAT,91563.0,Indonesia,81265010435.0,,,-2.0742834,119.294823,https://maps.google.com/?cid=0x0:0xe13c1bbe7d7fbc9f,
cafe,Kedai Kopi,CEODE,"Samping gerbang KTM, Jl. Daeng Macirrinae, Tobadak, Central Mamuju Regency, West Sulawesi 91563","Jl. Daeng Macirrinae, Tobadak, Central Mamuju Regency",SULAWESI BARAT,91563.0,Indonesia,81249761838.0,,,-2.0757881,119.2951965,https://maps.google.com/?cid=0x0:0x71acad57de789ce4,
cafe,Kafe,Sapo Kopi,"W7CR+6M8, Tobadak, Kec. Tobadak, Kabupaten Mamuju, Sulawesi Barat 91563","Tobadak, Kec. Tobadak, Kabupaten Mamuju",SULAWESI BARAT,91563.0,Indonesia,82396521789.0,,,-2.0794519,119.2917036,https://maps.google.com/?cid=0x0:0xf854cfb9c3449f4,
cafe,Kedai Kopi,NAILA 17 CAFE AND RESTO,"W7GW+FC, Tobadak, Kec. Tobadak, Kabupaten Mamuju, Sulawesi Barat 91563","Tobadak, Kec. Tobadak, Kabupaten Mamuju",SULAWESI BARAT,91563.0,Indonesia,82299809112.0,,,-2.0738455,119.2960513,https://maps.google.com/?cid=0x0:0xae6f9b098c6a72a4,
cafe,Kedai Kopi,SETEMPAT,"W76H+8VM, Jl. Poros Palu - Mamuju, Tobadak, Kec. Tobadak, Kabupaten Mamuju Tengah, Sulawesi Barat 91563","Jl. Poros Palu - Mamuju, Tobadak, Kec. Tobadak, Kabupaten Mamuju Tengah",SULAWESI BARAT,91563.0,Indonesia,82271014785.0,,,-2.0891702,119.2796621,https://maps.google.com/?cid=0x0:0x8c99c2bcc87a2b9b,
cafe,Hidangan Laut,KEDAI BENTENG,"W7FR+3WG, Tobadak, Kec. Tobadak, Kabupaten Mamuju Tengah, Sulawesi Barat 91563","Tobadak, Kec. Tobadak, Kabupaten Mamuju Tengah",SULAWESI BARAT,91563.0,Indonesia,85705183533.0,,,-2.0773153,119.2923285,https://maps.google.com/?cid=0x0:0x3af1b71c85383734,
cafe,Kafe,Cafe Siola,"W7GV+7J5, Dusun Benteng, Kec. Tobadak, Kabupaten Mamuju Tengah, Sulawesi Barat 91563","Dusun Benteng, Kec. Tobadak, Kabupaten Mamuju Tengah",SULAWESI BARAT,91563.0,Indonesia,,,,-2.0743725,119.2941239,https://maps.google.com/?cid=0x0:0x3f94b4ac8e0dfbe,
cafe,Kedai Kopi,Habibi food  drink,"V9PG+C8P, Palongaan, Kec. Tobadak, Kabupaten Mamuju Tengah, Sulawesi Barat 91563","Palongaan, Kec. Tobadak, Kabupaten Mamuju Tengah",SULAWESI BARAT,91563.0,Indonesia,,,,-2.1144716,119.3761528,https://maps.google.com/?cid=0x0:0xb7b520dca906d082,
cafe,Restoran,RM Mama Mitha,"W77P+G6G, Jl. Soekarno Hatta, Tobadak, Kec. Tobadak, Kabupaten Mamuju Tengah, Sulawesi Barat 91563","Jl. Soekarno Hatta, Tobadak, Kec. Tobadak, Kabupaten Mamuju Tengah",SULAWESI BARAT,91563.0,Indonesia,85397375107.0,,,-2.0861839,119.2855725,https://maps.google.com/?cid=0x0:0x45a5a03cc9f9c4f9,
cafe,Kedai Kopi,Kedai Kopi Sejalan,"Jl. Jenderal Sudirman, Tobadak, Kec. Tobadak, Kabupaten Mamuju Tengah, Sulawesi Barat 91563","Tobadak, Kec. Tobadak, Kabupaten Mamuju Tengah",SULAWESI BARAT,91563.0,Indonesia,82290468761.0,,,-2.0772856,119.2915446,https://maps.google.com/?cid=0x0:0x64693bc13b102491,
cafe,Rumah Makan,DAP cafe and resto Mamuju,"di depan Indomaret, Jl. RE Martadinata, Simboro, Kec. Simboro Dan Kepulauan, Kabupaten Mamuju, Sulawesi Barat 91511","Jl. RE Martadinata, Simboro, Kec. Simboro Dan Kepulauan, Kabupaten Mamuju",SULAWESI BARAT,91511.0,Indonesia,82349390743.0,,,-2.6886837,118.8665054,https://maps.google.com/?cid=0x0:0x7fc9b2c6aed8b928,
cafe,Kedai Kopi,Kopi nongkrong,"W7CX+G6V, Tobadak, Kec. Tobadak, Kabupaten Mamuju Tengah, Sulawesi Barat 91563","Tobadak, Kec. Tobadak, Kabupaten Mamuju Tengah",SULAWESI BARAT,91563.0,Indonesia,,,,-2.0786498,119.2980462,https://maps.google.com/?cid=0x0:0x53bcab858e7cac92,
cafe,Kedai Kopi,Teras ngopi R24,"Jl. Poros Majene - Mamuju No.16, Tobadak, Kec. Tobadak, Kabupaten Mamuju Tengah, Sulawesi Barat 91563","Tobadak, Kec. Tobadak, Kabupaten Mamuju Tengah",SULAWESI BARAT,91563.0,Indonesia,81244930975.0,,,-2.0787081,119.2914055,https://maps.google.com/?cid=0x0:0xcb6f83deaee8bd8f,
cafe,Komplek perumahan,KILOMETER SATU COFFEE  FOOD,"Jl. Poros Majene - Mamuju No.16, Topoyo, Kec. Topoyo, Kabupaten Mamuju Tengah, Sulawesi Barat 91563","Topoyo, Kec. Topoyo, Kabupaten Mamuju Tengah",SULAWESI BARAT,91563.0,Indonesia,,,,-2.0617478,119.2864756,https://maps.google.com/?cid=0x0:0x8b1d61f12ee72f17,
cafe,Kafe,Kopi Arobi Topoyo,"W7FR+FC3, benteng, Jl. Poros Mamuju - Topoyo, Tobadak, Kec. Tobadak, Kabupaten Mamuju Tengah, Sulawesi Barat 91563","benteng, Jl. Poros Mamuju - Topoyo, Tobadak, Kec. Tobadak, Kabupaten Mamuju Tengah",SULAWESI BARAT,91563.0,Indonesia,,,,-2.0763785,119.2910012,https://maps.google.com/?cid=0x0:0x269e4559bb982df1,
cafe,Penginapan,Kelapa Tujuh Cafe  Villa,"8V4W+V2, Rimuku, Kec. Mamuju, Kabupaten Mamuju, Sulawesi Barat 91511","Rimuku, Kec. Mamuju, Kabupaten Mamuju",SULAWESI BARAT,91511.0,Indonesia,82396376272.0,,,-2.6928461,118.8950847,https://maps.google.com/?cid=0x0:0xdab10dd86a4be706,
cafe,Rumah Makan,Warung Sederhana,"W79R+4G9, Tobadak, Kec. Tobadak, Kabupaten Mamuju Tengah, Sulawesi Barat 91563","Tobadak, Kec. Tobadak, Kabupaten Mamuju Tengah",SULAWESI BARAT,91563.0,Indonesia,,,,-2.0822063,119.2913736,https://maps.google.com/?cid=0x0:0xd967301d31d320f9,
cafe,Brunch,Azkia Box,"Lapangan tobadak 2, Dalam, Tobadak, Kec. Tobadak, Kabupaten Mamuju Tengah, Sulawesi Barat","Kabupaten Mamuju Tengah, Sulawesi Barat",SULAWESI BARAT,,Indonesia,,,,-2.1141562,119.3594921,https://maps.google.com/?cid=0x0:0xe34f3c0558b28228,
cafe,Kafe,Ugiee Cheesetea Topoyo,"Tobadak, Kec. Tobadak, Kabupaten Mamuju Tengah, Sulawesi Barat 91563","Kec. Tobadak, Kabupaten Mamuju Tengah",SULAWESI BARAT,91563.0,Indonesia,82290024505.0,,,-2.0771482,119.2914982,https://maps.google.com/?cid=0x0:0x10c11fd8de340f4d,
cafe,Kafe,New cafe  resto Komunitas penikmat kopi (KPK),"Jl. Poros Majene - Mamuju, Tobadak, Kec. Tobadak, Kabupaten Mamuju Tengah, Sulawesi Barat 91563","Tobadak, Kec. Tobadak, Kabupaten Mamuju Tengah",SULAWESI BARAT,91563.0,Indonesia,82256053130.0,,,-2.0849018,119.2899145,https://maps.google.com/?cid=0x0:0x9bdb1f1bf27382a7,
cafe,Kafe,Depan Rumah Coffee and Tobacco,"V9M5+PWG, Mahahe, Kec. Tobadak, Kabupaten Mamuju Tengah, Sulawesi Barat 91563","Mahahe, Kec. Tobadak, Kabupaten Mamuju Tengah",SULAWESI BARAT,91563.0,Indonesia,,,,-2.1155842,119.3601381,https://maps.google.com/?cid=0x0:0xc1ba7c2f974fb019,
cafe,Kedai Kopi,Sesuai titik kopi,"Jl. Poros Majene - Mamuju No.16, Tobadak, Kec. Tobadak, Kabupaten Mamuju Tengah, Sulawesi Barat 91563","Tobadak, Kec. Tobadak, Kabupaten Mamuju Tengah",SULAWESI BARAT,91563.0,Indonesia,,,,-2.0819219,119.2914133,https://maps.google.com/?cid=0x0:0x614914b9d7b73455,
cafe,Taman,Taman dan cafe Sehati Desa Tobadak,"W85X+F2, Tobadak, Kec. Tobadak, Kabupaten Mamuju, Sulawesi Barat","Kabupaten Mamuju, Sulawesi Barat",SULAWESI BARAT,,Indonesia,,,,-2.0913125,119.3475625,https://maps.google.com/?cid=0x0:0xc24b9c6a43e8010,
cafe,Taman,Cafe Baca Desa Mahahe,"V9P8+7RH, Mahahe, Kec. Tobadak, Kabupaten Mamuju Tengah, Sulawesi Barat 91563","Mahahe, Kec. Tobadak, Kabupaten Mamuju Tengah",SULAWESI BARAT,91563.0,Indonesia,,,,-2.1143079,119.3671037,https://maps.google.com/?cid=0x0:0xb67463166f273166,
cafe,Kedai Kopi,Susu kedelai,"V9VH+58, Palongaan, Kec. Tobadak, Kabupaten Mamuju Tengah, Sulawesi Barat 91563","Palongaan, Kec. Tobadak, Kabupaten Mamuju Tengah",SULAWESI BARAT,91563.0,Indonesia,,,,-2.1070522,119.3783524,https://maps.google.com/?cid=0x0:0xdc8a2d1d827c71ad,
cafe,Indonesia,C'Bezt Friedchiken Mamuju Tengah,"W7CR+JHC, Tobadak, Kec. Tobadak, Kabupaten Mamuju, Sulawesi Barat 91563","Tobadak, Kec. Tobadak, Kabupaten Mamuju",SULAWESI BARAT,91563.0,Indonesia,,,,-2.0784357,119.2913891,https://maps.google.com/?cid=0x0:0x1b69ca754db5764e,
cafe,Kedai Kopi,Warkop NGOPI RONG,"W74F+9W7, Tobadak, Kec. Tobadak, Kabupaten Mamuju, Sulawesi Barat 91563","Tobadak, Kec. Tobadak, Kabupaten Mamuju",SULAWESI BARAT,91563.0,Indonesia,81343553639.0,,,-2.0940905,119.2747982,https://maps.google.com/?cid=0x0:0xb12dccab02fa3bfe,
cafe,Restoran,Rumah Makan Cahaya Batu Batu Topoyo,"Jl. Poros Majene - Mamuju No.16, Tobadak, Kec. Tobadak, Kabupaten Mamuju Tengah, Sulawesi Barat 91563","Tobadak, Kec. Tobadak, Kabupaten Mamuju Tengah",SULAWESI BARAT,91563.0,Indonesia,,,,-2.0813029,119.2915417,https://maps.google.com/?cid=0x0:0x5edabe46a827534b,
cafe,cafe,Sulawesi Barat 91563,"Kabupaten Mamuju, Sulawesi Barat","Kabupaten Mamuju, Sulawesi Barat",SULAWESI BARAT,,Indonesia,,,,-2.0727011,119.5107708,https://maps.google.com/?cid=0x0:0x8bfaa35dac2725d7,
cafe,Komplek perumahan,KILOMETER SATU COFFEE  FOOD,"Jl. Poros Majene - Mamuju No.16, Topoyo, Kec. Topoyo, Kabupaten Mamuju Tengah, Sulawesi Barat 91563","Topoyo, Kec. Topoyo, Kabupaten Mamuju Tengah",SULAWESI BARAT,91563.0,Indonesia,,,,-2.0617478,119.2864756,https://maps.google.com/?cid=0x0:0x8b1d61f12ee72f17,
cafe,Bar,Cafe Kopi 88,"W7HP+FQV, Topoyo, Kec. Topoyo, Kabupaten Mamuju, Sulawesi Barat 91563","Topoyo, Kec. Topoyo, Kabupaten Mamuju",SULAWESI BARAT,91563.0,Indonesia,,,,-2.0712558,119.2869322,https://maps.google.com/?cid=0x0:0xb03af3bc357991e2,
cafe,Kafe,Omj Coffee,"W7RH+GG4, Topoyo, Kec. Topoyo, Kabupaten Mamuju, Sulawesi Barat 91563","Topoyo, Kec. Topoyo, Kabupaten Mamuju",SULAWESI BARAT,91563.0,Indonesia,85228444535.0,,,-2.0587445,119.2788377,https://maps.google.com/?cid=0x0:0x25025f2a807613a9,
cafe,Kafe,VIBES Coffee Shop,"Jl. Abdul Majid Pattaro Pura, Topoyo, Kec. Topoyo, Kabupaten Mamuju Tengah, Sulawesi Barat 91563","Topoyo, Kec. Topoyo, Kabupaten Mamuju Tengah",SULAWESI BARAT,91563.0,Indonesia,82346697746.0,,,-2.0709089,119.2884791,https://maps.google.com/?cid=0x0:0x9d60da06667fae79,
cafe,Kafe,KONSPIRASI CAFE AND RESTO,"W7GW+M79, Benteng, Kec. Topoyo, Kabupaten Mamuju Tengah, Sulawesi Barat 91563","Benteng, Kec. Topoyo, Kabupaten Mamuju Tengah",SULAWESI BARAT,91563.0,Indonesia,,,,-2.073327,119.2957479,https://maps.google.com/?cid=0x0:0x35003aa8bad131e9,
cafe,Restoran,ANTO Resto  Cafe,"W7PJ+M5V, Topoyo, Kec. Topoyo, Kabupaten Mamuju, Sulawesi Barat 91563","Topoyo, Kec. Topoyo, Kabupaten Mamuju",SULAWESI BARAT,91563.0,Indonesia,,,,-2.0632678,119.2804074,https://maps.google.com/?cid=0x0:0xdbecb43d344ef6a5,
cafe,Kafe,Warkop Kopi Broo Topoyo,"Topoyo, Kec. Topoyo, Kabupaten Mamuju Tengah, Sulawesi Barat 91563","Kec. Topoyo, Kabupaten Mamuju Tengah",SULAWESI BARAT,91563.0,Indonesia,81258055838.0,,,-2.0680625,119.2868125,https://maps.google.com/?cid=0x0:0xcb2a225e20884dc1,
cafe,Kafe,Alun Alun Topoyo,"W7JP+FF2, Topoyo, Kec. Topoyo, Kabupaten Mamuju Tengah, Sulawesi Barat 91563","Topoyo, Kec. Topoyo, Kabupaten Mamuju Tengah",SULAWESI BARAT,91563.0,Indonesia,82244499958.0,,,-2.0688601,119.2861493,https://maps.google.com/?cid=0x0:0x561469c8d7ddb8b8,
cafe,Kafe,Rumah Vape  Coffee,"Kota topoyo Kecamatan topoyo, Jln, pasar baru, Kabupaten Mamuju Tengah, Sulawesi Barat","Kabupaten Mamuju Tengah, Sulawesi Barat",SULAWESI BARAT,,Indonesia,85255362542.0,,,-2.064161,119.2833855,https://maps.google.com/?cid=0x0:0x669cbef5fe26cd14,
cafe,Kedai Kopi,Hastag Coffee,"W7JQ+G7P, Topoyo, Kec. Topoyo, Kabupaten Mamuju Tengah, Sulawesi Barat 91563","Topoyo, Kec. Topoyo, Kabupaten Mamuju Tengah",SULAWESI BARAT,91563.0,Indonesia,,,,-2.0686543,119.2882179,https://maps.google.com/?cid=0x0:0x6e1fc27816cd9012,
cafe,Kafe,Ugiee Cheesetea Topoyo,"Tobadak, Kec. Tobadak, Kabupaten Mamuju Tengah, Sulawesi Barat 91563","Kec. Tobadak, Kabupaten Mamuju Tengah",SULAWESI BARAT,91563.0,Indonesia,82290024505.0,,,-2.0771482,119.2914982,https://maps.google.com/?cid=0x0:0x10c11fd8de340f4d,
cafe,Kafe,Solusi Coffee,"W7QP+P5X, Topoyo, Kec. Topoyo, Kabupaten Mamuju Tengah, Sulawesi Barat 91563","Topoyo, Kec. Topoyo, Kabupaten Mamuju Tengah",SULAWESI BARAT,91563.0,Indonesia,81355536760.0,,,-2.0606954,119.2856022,https://maps.google.com/?cid=0x0:0xcb0de5d652559754,
cafe,Indonesia,Brother's Cafe  Resto,"X6MC+VW4, Tumbu, Kec. Topoyo, Kabupaten Mamuju Tengah, Sulawesi Barat 91563","Tumbu, Kec. Topoyo, Kabupaten Mamuju Tengah",SULAWESI BARAT,91563.0,Indonesia,81299507953.0,,,-2.0153528,119.2223435,https://maps.google.com/?cid=0x0:0xf96949bf7cdf6aaf,
cafe,Kafe,Cafe Pratiwi,"W7JP+M8W, Topoyo, Kec. Topoyo, Kabupaten Mamuju, Sulawesi Barat 91563","Topoyo, Kec. Topoyo, Kabupaten Mamuju",SULAWESI BARAT,91563.0,Indonesia,,,,-2.0682716,119.2858153,https://maps.google.com/?cid=0x0:0x6a373b6c939b2c44,
cafe,Kafe,Cafe Ogi And Resto,"Jalan 2, Kelurahan, Tobadak, Kec. Tobadak, Kabupaten Mamuju Tengah, Sulawesi Barat 91563","Kelurahan, Tobadak, Kec. Tobadak, Kabupaten Mamuju Tengah",SULAWESI BARAT,91563.0,Indonesia,85255888818.0,,,-2.0752046,119.2905068,https://maps.google.com/?cid=0x0:0xd3bd833a27ada7c4,
cafe,Kedai Kopi,Betutu Mateng,"Jl. Poros Majene - Mamuju No.16, Topoyo, Kec. Topoyo, Kabupaten Mamuju Tengah, Sulawesi Barat 91563","Topoyo, Kec. Topoyo, Kabupaten Mamuju Tengah",SULAWESI BARAT,91563.0,Indonesia,82144360319.0,,,-2.0620194,119.2859477,https://maps.google.com/?cid=0x0:0xc178f38253f2ffd4,
cafe,Restoran,Cafe  Resto Pink 77,"W7JP+GH6, Jl. Poros Majene - Mamuju, Topoyo, Kec. Topoyo, Kabupaten Mamuju Tengah, Sulawesi Barat 91563","Jl. Poros Majene - Mamuju, Topoyo, Kec. Topoyo, Kabupaten Mamuju Tengah",SULAWESI BARAT,91563.0,Indonesia,,,,-2.0687003,119.2863934,https://maps.google.com/?cid=0x0:0x22844c7637f1c97,
cafe,Kafe,float kopi,"Tobadak, Kec. Topoyo, Kabupaten Mamuju Tengah, Sulawesi Barat 91464","Kec. Topoyo, Kabupaten Mamuju Tengah",SULAWESI BARAT,91464.0,Indonesia,82259211659.0,,,-2.0796958,119.2917218,https://maps.google.com/?cid=0x0:0xc824fc6290204c96,
cafe,Kafe,Box seruput_drink.mateng,"X6MC+GQG, X6MC+GQ5TumbuKec, Kec. Topoyo, Kabupaten Mamuju Tengah, Sulawesi Barat 91563","X6MC+GQ5TumbuKec, Kec. Topoyo, Kabupaten Mamuju Tengah",SULAWESI BARAT,91563.0,Indonesia,82325600923.0,,,-2.01619,119.2219683,https://maps.google.com/?cid=0x0:0xdce761ecd101f184,
cafe,Kafe,CafeResto Pink 77,"W7MH+WXG, Jl. Pattanabone, Topoyo, Kec. Topoyo, Kabupaten Mamuju Tengah, Sulawesi Barat 91563","Jl. Pattanabone, Topoyo, Kec. Topoyo, Kabupaten Mamuju Tengah",SULAWESI BARAT,91563.0,Indonesia,85342501111.0,,,-2.0651992,119.279948,https://maps.google.com/?cid=0x0:0x2ca431e3fcf29e8a,
cafe,Kedai Kopi,Cafe Nol Kilometer Topoyo,"4V3V+RP2, Tanamodindi, Topoyo, Mamuju Regency, Sulawesi Barat","Mamuju Regency, Sulawesi Barat",SULAWESI BARAT,,Indonesia,,,,-0.8954875,119.8942607,https://maps.google.com/?cid=0x0:0x42cd475663e50636,
cafe,cafe,RA_DRINK  FOOD (STICKYMILK),"Dekat W7PP+GH8 Azhari Foto Copy, Topoyo, Kec. Topoyo, Kabupaten Mamuju Tengah, Sulawesi Barat 91563, Topoyo, Kabupaten Mamuju Tengah, Sulawesi Barat 91366","Topoyo, Kec. Topoyo, Kabupaten Mamuju Tengah, Sulawesi Barat",SULAWESI BARAT,91563.0,Indonesia,85283530190.0,,,-2.0638049,119.2865163,https://maps.google.com/?cid=0x0:0xd82f560fe201d94b,
cafe,Kafe,Warung Sapo Ao',"W7JM+XC5, Topoyo, Kec. Topoyo, Kabupaten Mamuju, Sulawesi Barat 91563","Topoyo, Kec. Topoyo, Kabupaten Mamuju",SULAWESI BARAT,91563.0,Indonesia,82292035166.0,,,-2.067603,119.2836197,https://maps.google.com/?cid=0x0:0xe0d2dc1a8c931a07,
