Category,Real Category,Business Name,Address,City,State,Postal Code,Country,Phone,Email,Website,Latitude,Longitude,Map Link,Details Link
toko bangunan,toko bangunan,Kec. Budong-Budong,"Kabupaten Mamuju Tengah, Sulawesi Barat","Kabupaten Mamuju Tengah, Sulawesi Barat",SULAWESI BARAT,,Indonesia,,,,-2.1728923,119.2291681,https://maps.google.com/?cid=0x0:0x513972b69bc5b519,
toko bangunan,Toko Bahan Bangunan,Toko ALFIAN,"W5FX+G94, Babana, Kec. Budong-Budong, Kabupaten Mamuju Tengah, Sulawesi Barat 91563","Babana, Kec. Budong-Budong, Kabupaten Mamuju Tengah",SULAWESI BARAT,91563.0,Indonesia,81373974815.0,,,-2.0762257,119.1984681,https://maps.google.com/?cid=0x0:0x83d1e111318f3bc1,
toko bangunan,Toko Perlengkapan Rumah,Toko bahan bangunan + mini market,"R5C9+C72, Lumu, Kec. Budong-Budong, Kabupaten Mamuju Tengah, Sulawesi Barat 91563","Lumu, Kec. Budong-Budong, Kabupaten Mamuju Tengah",SULAWESI BARAT,91563.0,Indonesia,82271169852.0,,,-2.1789816,119.1681373,https://maps.google.com/?cid=0x0:0xfb7763b55b5a11b4,
toko bangunan,Toko Bahan Bangunan,Citra Fajar Bangunan,"W7HP+58F, Topoyo, Kec. Topoyo, Kabupaten Mamuju, Sulawesi Barat 91563","Topoyo, Kec. Topoyo, Kabupaten Mamuju",SULAWESI BARAT,91563.0,Indonesia,81355844777.0,,,-2.0720516,119.285795,https://maps.google.com/?cid=0x0:0x2713eff2404c9fad,
toko bangunan,toko bangunan,Toko MB Muqri Bangunan,"W64C+WFP, Babana, Kec. Budong-Budong, Kabupaten Mamuju Tengah, Sulawesi Barat 91563","Babana, Kec. Budong-Budong, Kabupaten Mamuju Tengah",SULAWESI BARAT,91563.0,Indonesia,,,,-2.0924973,119.2209335,https://maps.google.com/?cid=0x0:0x7a39d5a30e9694c3,
toko bangunan,Toko Bahan Bangunan,Toko Orion Babana,"W58W+C83, Babana, Kec. Budong-Budong, Kabupaten Mamuju Tengah, Sulawesi Barat 91563","Babana, Kec. Budong-Budong, Kabupaten Mamuju Tengah",SULAWESI BARAT,91563.0,Indonesia,82347561294.0,,,-2.0839983,119.1957972,https://maps.google.com/?cid=0x0:0x77132a1bc30b14b8,
toko bangunan,Toko Bahan Bangunan,TB CAHAYA BANGUNAN,"Tobadak, Kec. Tobadak, Kabupaten Mamuju, Sulawesi Barat 91563","Kec. Tobadak, Kabupaten Mamuju",SULAWESI BARAT,91563.0,Indonesia,82299999951.0,,,-2.0751897,119.2902612,https://maps.google.com/?cid=0x0:0xab184661abda07b4,
toko bangunan,Toko Bahan Bangunan,Fajar Bangunan,"W7MP+9RV, Topoyo, Kec. Topoyo, Kabupaten Mamuju, Sulawesi Barat 91563","Topoyo, Kec. Topoyo, Kabupaten Mamuju",SULAWESI BARAT,91563.0,Indonesia,,,,-2.0665142,119.2870577,https://maps.google.com/?cid=0x0:0xaa3eae1887207633,
toko bangunan,Toko Bahan Bangunan,TB CAHAYA 77 BANGUNAN,"Topoyo, Kec. Topoyo, Kabupaten Mamuju, Sulawesi Barat 91563","Kec. Topoyo, Kabupaten Mamuju",SULAWESI BARAT,91563.0,Indonesia,82293167421.0,,,-2.0681696,119.2854761,https://maps.google.com/?cid=0x0:0xa8b65129702b0561,
toko bangunan,Jasa Konstruksi dan Bangunan,UD KARYA JAYA PROFIL,"W63W+43P, Jl. Poros Palu - Mamuju, Babana, Kec. Budong-Budong, Kabupaten Mamuju Tengah, Sulawesi Barat 91563","Jl. Poros Palu - Mamuju, Babana, Kec. Budong-Budong, Kabupaten Mamuju Tengah",SULAWESI BARAT,91563.0,Indonesia,,,,-2.0971544,119.2451766,https://maps.google.com/?cid=0x0:0xdd433f1e30781696,
toko bangunan,Toko Perlengkapan Rumah,TOKO FAJAR HARAPAN Nippon paint topoyo,"W77P+HCW, Jl. Poros Majene - Mamuju, Tobadak, Kec. Tobadak, Kabupaten Mamuju Tengah, Sulawesi Barat 91563","Jl. Poros Majene - Mamuju, Tobadak, Kec. Tobadak, Kabupaten Mamuju Tengah",SULAWESI BARAT,91563.0,Indonesia,81373974815.0,,,-2.0860076,119.2860649,https://maps.google.com/?cid=0x0:0x60e2fb2e2ac626e8,
toko bangunan,Toko Bahan Bangunan,ATAP SPANDECK/baja ringan,"W75G+HCV, Jl. Poros Majene - Mamuju, Tobadak, Kec. Tobadak, Kabupaten Mamuju Tengah, Sulawesi Barat 91563","Jl. Poros Majene - Mamuju, Tobadak, Kec. Tobadak, Kabupaten Mamuju Tengah",SULAWESI BARAT,91563.0,Indonesia,8116088875.0,,,-2.0910069,119.2760438,https://maps.google.com/?cid=0x0:0x572691fee5d949c2,
toko bangunan,Toko Bahan Bangunan,TK FAJAR BARKAH JUAL ALAT BANGUNAN,"Jl. Poros Majene - Mamuju, Topoyo, Kec. Topoyo, Kabupaten Mamuju Tengah, Sulawesi Barat 91563","Topoyo, Kec. Topoyo, Kabupaten Mamuju Tengah",SULAWESI BARAT,91563.0,Indonesia,81373974815.0,,,-2.0620443,119.2903474,https://maps.google.com/?cid=0x0:0x7dac4b5b2db5efa0,
toko bangunan,Toko Bahan Bangunan,Toko Tunas Baja Utama,"Jl. Poros Palu - Mamuju No.1, Tobadak, Kec. Tobadak, Kabupaten Mamuju Tengah, Sulawesi Barat 91563","Tobadak, Kec. Tobadak, Kabupaten Mamuju Tengah",SULAWESI BARAT,91563.0,Indonesia,82194722450.0,,,-2.0848637,119.2899984,https://maps.google.com/?cid=0x0:0x20cacada2042b421,
toko bangunan,Perhimpunan Pengembang Perumahan,Toko 54 Lima Empat,"W77M+CJ3, Jl. Poros Majene - Mamuju, Tobadak, Kec. Tobadak, Kabupaten Mamuju Tengah, Sulawesi Barat 91563","Jl. Poros Majene - Mamuju, Tobadak, Kec. Tobadak, Kabupaten Mamuju Tengah",SULAWESI BARAT,91563.0,Indonesia,81264671628.0,,,-2.0864914,119.2840603,https://maps.google.com/?cid=0x0:0xca6f1bc2ed1ce386,
toko bangunan,Toko Bahan Bangunan,Berkah Abadi Topoyo,"Tobadak, Kec. Tobadak, Kabupaten Mamuju, Sulawesi Barat 91563","Kec. Tobadak, Kabupaten Mamuju",SULAWESI BARAT,91563.0,Indonesia,82173389240.0,,,-2.0774095,119.2913376,https://maps.google.com/?cid=0x0:0x372a51d92d7114a0,
toko bangunan,Toko Bahan Bangunan,Toko JADI bangunan,"X8P9+4XW, Salupangkang, Kec. Topoyo, Kabupaten Mamuju Tengah, Sulawesi Barat 91563","Salupangkang, Kec. Topoyo, Kabupaten Mamuju Tengah",SULAWESI BARAT,91563.0,Indonesia,81373974815.0,,,-2.0144107,119.3197132,https://maps.google.com/?cid=0x0:0xef5ca80a4f73a5aa,
toko bangunan,Toko Bahan Bangunan,Toko Sinar Bangunan,"M5MG+H8H, Jl. Poros Palu - Mamuju, Tarailu, Kec. Sampaga, Kabupaten Mamuju, Sulawesi Barat 91563","Jl. Poros Palu - Mamuju, Tarailu, Kec. Sampaga, Kabupaten Mamuju",SULAWESI BARAT,91563.0,Indonesia,81373974815.0,,,-2.3160629,119.1758478,https://maps.google.com/?cid=0x0:0xa07dffa29ee1a4e8,
toko bangunan,Toko Bahan Bangunan,Toko buyung bangunan,"5V55+QW8, Jl. Poros Majene - Mamuju, Tampalang, Kec. Tapalang, Kabupaten Mamuju, Sulawesi Barat 91352","Jl. Poros Majene - Mamuju, Tampalang, Kec. Tapalang, Kabupaten Mamuju",SULAWESI BARAT,91352.0,Indonesia,,,,-2.840579,118.8598397,https://maps.google.com/?cid=0x0:0xdaa7f0c9eeaba7c8,
toko bangunan,Toko Bahan Bangunan,Toko Bangunan Putra Tande Lombang-Lombang,"C2GP+7RQ, lombang-lombang, Sinyonyoi, Kec. Kalukku, Kabupaten Mamuju, Sulawesi Barat 91561","lombang-lombang, Sinyonyoi, Kec. Kalukku, Kabupaten Mamuju",SULAWESI BARAT,91561.0,Indonesia,82398888856.0,,,-2.5742542,119.0368658,https://maps.google.com/?cid=0x0:0xfd16ae7e2f3692d9,
toko bangunan,Toko Bahan Bangunan,Toko Wanto,"P6WH+MJ, Kuo, Kec. Pangale, Kabupaten Mamuju Tengah, Sulawesi Barat","Kabupaten Mamuju Tengah, Sulawesi Barat",SULAWESI BARAT,,Indonesia,,,,-2.2533254,119.2290016,https://maps.google.com/?cid=0x0:0xbbc598acc61fac50,
toko bangunan,toko bangunan,Sulawesi Barat 91512,"Kabupaten Mamuju, Sulawesi Barat","Kabupaten Mamuju, Sulawesi Barat",SULAWESI BARAT,,Indonesia,,,,-1.8494265,119.5339711,https://maps.google.com/?cid=0x0:0x8e21c401717b8ceb,
toko bangunan,Pasar,Toko Pantai Karossa,"6C22+HXP, Dusun Mora, Karossa, Kec. Karossa, Kabupaten Mamuju Tengah, Sulawesi Barat 91512","Dusun Mora, Karossa, Kec. Karossa, Kabupaten Mamuju Tengah",SULAWESI BARAT,91512.0,Indonesia,81373974815.0,,,-1.7985411,119.4024404,https://maps.google.com/?cid=0x0:0x24dafad928bb43c3,
toko bangunan,Toko Bahan Bangunan,Toko Multi Bangunan,"Jl. Diponegoro No.c14-15, Karema, Kec. Mamuju, Kabupaten Mamuju, Sulawesi Barat 91512","Karema, Kec. Mamuju, Kabupaten Mamuju",SULAWESI BARAT,91512.0,Indonesia,81242298806.0,,,-2.6862595,118.8768742,https://maps.google.com/?cid=0x0:0xd05c6306c1a3648f,
toko bangunan,Toko Bahan Bangunan,Toko. Fajar Bangunan - Mamuju,"8V6G+7WH, Jl. Diponegoro, Karema, Kec. Mamuju, Kabupaten Mamuju, Sulawesi Barat 91512","Jl. Diponegoro, Karema, Kec. Mamuju, Kabupaten Mamuju",SULAWESI BARAT,91512.0,Indonesia,85930982364.0,,,-2.689321,118.8773494,https://maps.google.com/?cid=0x0:0x6d4e74a959cf61d6,
toko bangunan,Toko Alat Listrik,Toko Mitra Listrik,"Karema, Kec. Mamuju, Kabupaten Mamuju, Sulawesi Barat 91512","Kec. Mamuju, Kabupaten Mamuju",SULAWESI BARAT,91512.0,Indonesia,81216513956.0,,,-2.6836678,118.8758437,https://maps.google.com/?cid=0x0:0x9b2d83aba9467b91,
toko bangunan,Toko Bahan Bangunan,Lestari Handayani,"6C87+3X8, Karossa, Kec. Karossa, Kabupaten Mamuju, Sulawesi Barat 91573","Karossa, Kec. Karossa, Kabupaten Mamuju",SULAWESI BARAT,91573.0,Indonesia,,,,-1.784826,119.4149588,https://maps.google.com/?cid=0x0:0xe4b75cce83ea4494,
toko bangunan,Toko Bahan Bangunan,Tk. Buana Bangunan,"8V7G+MJJ, Karema, Kec. Mamuju, Kabupaten Mamuju, Sulawesi Barat 91512","Karema, Kec. Mamuju, Kabupaten Mamuju",SULAWESI BARAT,91512.0,Indonesia,82179264696.0,,,-2.6857866,118.8765206,https://maps.google.com/?cid=0x0:0x8cdc46a0e8fa0fe6,
toko bangunan,Toko Bahan Bangunan,Toko Makmur 88,"Simboro, Kec. Simboro Dan Kepulauan, Kabupaten Mamuju, Sulawesi Barat 91512","Kec. Simboro Dan Kepulauan, Kabupaten Mamuju",SULAWESI BARAT,91512.0,Indonesia,82195585978.0,,,-2.67092,118.8524302,https://maps.google.com/?cid=0x0:0xc963452732b791b2,
toko bangunan,Kios,Toko Bangunan To Tambayako,"Jl. RE Martadinata No.Kel, Simboro, Kec. Simboro Dan Kepulauan, Kab. Mamuju, Sulawesi Barat 91512","Simboro, Kec. Simboro Dan Kepulauan, Kab. Mamuju",SULAWESI BARAT,91512.0,Indonesia,,,,-2.6825789,118.857926,https://maps.google.com/?cid=0x0:0x3b9dad02b3718599,
toko bangunan,Toko Bahan Bangunan,Buana Fadly,"6C33+824, Karossa, Kec. Karossa, Kabupaten Mamuju, Sulawesi Barat 91512","Karossa, Kec. Karossa, Kabupaten Mamuju",SULAWESI BARAT,91512.0,Indonesia,85395764567.0,,,-1.7967481,119.4025853,https://maps.google.com/?cid=0x0:0xd7bc2ddb9906de73,
toko bangunan,Toko Bahan Bangunan,Toko Delta Bangunan,"8V6H+X4H, Karema, Kec. Mamuju, Kabupaten Mamuju, Sulawesi Barat 91512","Karema, Kec. Mamuju, Kabupaten Mamuju",SULAWESI BARAT,91512.0,Indonesia,81524333299.0,,,-2.6875662,118.8778488,https://maps.google.com/?cid=0x0:0x600c10af92b1cb4f,
toko bangunan,Toko Bahan Bangunan,Toko Harapan Jaya,"Jl. LetJend Hertasning, Binanga, Kec. Mamuju, Kabupaten Mamuju, Sulawesi Barat 91511","Binanga, Kec. Mamuju, Kabupaten Mamuju",SULAWESI BARAT,91511.0,Indonesia,,,,-2.6718353,118.8918529,https://maps.google.com/?cid=0x0:0x4aa8f68af0fe79ed,
toko bangunan,Toko Bahan Bangunan,Toko Bangunan 79,"8V8J+3MF, Karema, Kec. Mamuju, Kabupaten Mamuju, Sulawesi Barat 91511","Karema, Kec. Mamuju, Kabupaten Mamuju",SULAWESI BARAT,91511.0,Indonesia,,,,-2.684817,118.8816695,https://maps.google.com/?cid=0x0:0x101d0b0f58da7e81,
toko bangunan,Toko Bahan Bangunan,TOKO GUDANG GRAHA TOMAKAKA 3,"Jl. Abd. Syakur, Karema, Kec. Mamuju, Kabupaten Mamuju, Sulawesi Barat 91512","Karema, Kec. Mamuju, Kabupaten Mamuju",SULAWESI BARAT,91512.0,Indonesia,82393103700.0,,,-2.6890654,118.8739797,https://maps.google.com/?cid=0x0:0x4944de5fe2559f5,
toko bangunan,,TOKO CAHAYA PUTRI,"Jl. Diponegoro, Karema, Kec. Mamuju, Kabupaten Mamuju, Sulawesi Barat 91512","Karema, Kec. Mamuju, Kabupaten Mamuju",SULAWESI BARAT,91512.0,Indonesia,82290305997.0,,,-2.6849443,118.876198,https://maps.google.com/?cid=0x0:0x29d11fe038dfd6c0,
toko bangunan,Toko Bahan Bangunan,SUMBER HARAPAN,"Karema, Kec. Mamuju, Kabupaten Mamuju, Sulawesi Barat","Kabupaten Mamuju, Sulawesi Barat",SULAWESI BARAT,,Indonesia,85341996114.0,,,-2.6770968,118.8869489,https://maps.google.com/?cid=0x0:0xf393bd54539f675b,
toko bangunan,Toko Bahan Bangunan,Fajar Mas Toko,"8VGQ+HV8, Komplek Pasar Sentral, Simboro, Kec. Mamuju, Kabupaten Mamuju, Sulawesi Barat 91811","Komplek Pasar Sentral, Simboro, Kec. Mamuju, Kabupaten Mamuju",SULAWESI BARAT,91811.0,Indonesia,42621498.0,,,-2.6735892,118.8897077,https://maps.google.com/?cid=0x0:0x25648f8d214d5e5b,
toko bangunan,Toko Bahan Bangunan,sarang bangunan mamuju,"8V5C+JJX, Jl. Soekarno Hatta, Simboro, Kec. Mamuju, Kabupaten Mamuju, Sulawesi Barat 91512","Jl. Soekarno Hatta, Simboro, Kec. Mamuju, Kabupaten Mamuju",SULAWESI BARAT,91512.0,Indonesia,81216991887.0,,,-2.690896,118.8716013,https://maps.google.com/?cid=0x0:0x9caefd20f0bf5456,
toko bangunan,Toko Bahan Bangunan,Tunas Jaya Mamuju,"8V7G+6W7, Jl. Diponegoro, Karema, Kec. Mamuju, Kabupaten Mamuju, Sulawesi Barat 91512","Jl. Diponegoro, Karema, Kec. Mamuju, Kabupaten Mamuju",SULAWESI BARAT,91512.0,Indonesia,,,,-2.6869645,118.8772869,https://maps.google.com/?cid=0x0:0xe9c75e78f96ac774,
toko bangunan,Toko Bahan Bangunan,Toko Bintang Harapan,"8VCP+R27, Jl. Abd. Wahab Azasi, Rimuku, Kec. Mamuju, Kabupaten Mamuju, Sulawesi Barat 91511","Jl. Abd. Wahab Azasi, Rimuku, Kec. Mamuju, Kabupaten Mamuju",SULAWESI BARAT,91511.0,Indonesia,85255406473.0,,,-2.6779643,118.8850575,https://maps.google.com/?cid=0x0:0xc4b21c474e99ccee,
toko bangunan,Toko Perlengkapan Rumah,TB HIGAR BANGUNAN,"Jl. Abdul Malik Pattana Endeng No.kel, Simboro, Kec. Simboro Dan Kepulauan, Kabupaten Mamuju, Sulawesi Barat 91512","Simboro, Kec. Simboro Dan Kepulauan, Kabupaten Mamuju",SULAWESI BARAT,91512.0,Indonesia,81373974815.0,,,-2.6763392,118.8573914,https://maps.google.com/?cid=0x0:0xb4329c8acd4be00d,
toko bangunan,Toko Bahan Bangunan,Toko Usaha Maju,"Jl. Andi Dai No.66, Binanga, Kec. Mamuju, Kabupaten Mamuju, Sulawesi Barat 91511","Binanga, Kec. Mamuju, Kabupaten Mamuju",SULAWESI BARAT,91511.0,Indonesia,81242225181.0,,,-2.6719505,118.8959849,https://maps.google.com/?cid=0x0:0xce686b7c9c65b,
toko bangunan,Toko Elektronik,22 TEKNIK BANGUNAN,"Jl. Abdul Malik Pattana Endeng, Simboro, Kec. Simboro Dan Kepulauan, Kabupaten Mamuju, Sulawesi Barat 91512","Simboro, Kec. Simboro Dan Kepulauan, Kabupaten Mamuju",SULAWESI BARAT,91512.0,Indonesia,81265476914.0,,,-2.6838018,118.8580846,https://maps.google.com/?cid=0x0:0xc78c6920f1d024b5,
toko bangunan,toko bangunan,Kec. Pangale,"Kabupaten Mamuju Tengah, Sulawesi Barat","Kabupaten Mamuju Tengah, Sulawesi Barat",SULAWESI BARAT,,Indonesia,,,,-2.2717045,119.1995263,https://maps.google.com/?cid=0x0:0x38044147fdebd95,
toko bangunan,Pusat Perbelanjaan,Toko bangunan argadinata,"Lemo-Lemo, Kec. Pangale, Kabupaten Mamuju, Sulawesi Barat 91462","Kec. Pangale, Kabupaten Mamuju",SULAWESI BARAT,91462.0,Indonesia,82331313118.0,,,-2.2972382,119.17566,https://maps.google.com/?cid=0x0:0x9eb6c7242139d7af,
toko bangunan,Toko Bahan Bangunan,UD. Berkat usaha,"P56M+7VF, Lemo-Lemo, Kec. Pangale, Kabupaten Mamuju, Sulawesi Barat 91563","Lemo-Lemo, Kec. Pangale, Kabupaten Mamuju",SULAWESI BARAT,91563.0,Indonesia,85335335558.0,,,-2.2893189,119.1846856,https://maps.google.com/?cid=0x0:0x8909e34afa46f1e3,
toko bangunan,Toko Bahan Bangunan,Mega Buana Bangunan,"Tarailu, Kec. Sampaga, Kabupaten Mamuju, Sulawesi Barat 91563","Kec. Sampaga, Kabupaten Mamuju",SULAWESI BARAT,91563.0,Indonesia,81356737526.0,,,-2.3096411,119.1743619,https://maps.google.com/?cid=0x0:0xf3f768be1c38f424,
toko bangunan,Toko Bahan Bangunan,Artomoro Primatama,"P6JM+Q2, Kuo, Kec. Pangale, Kabupaten Mamuju Tengah, Sulawesi Barat","Kabupaten Mamuju Tengah, Sulawesi Barat",SULAWESI BARAT,,Indonesia,,,,-2.2680637,119.2325927,https://maps.google.com/?cid=0x0:0xe695be730ce858c4,
toko bangunan,Toko Bahan Bangunan,Toko Makmur Bangunan,"Jln. Jen. A. Yani No. 001, Bunde, Kec. Sampaga, Kabupaten Mamuju, Sulawesi Barat 91563","Bunde, Kec. Sampaga, Kabupaten Mamuju",SULAWESI BARAT,91563.0,Indonesia,82259648049.0,,,-2.3398082,119.1750407,https://maps.google.com/?cid=0x0:0x901692040dff7a42,
toko bangunan,Toko Bahan Bangunan,Toko Wanto,"P6WH+MJ, Kuo, Kec. Pangale, Kabupaten Mamuju Tengah, Sulawesi Barat","Kabupaten Mamuju Tengah, Sulawesi Barat",SULAWESI BARAT,,Indonesia,,,,-2.2533254,119.2290016,https://maps.google.com/?cid=0x0:0xbbc598acc61fac50,
toko bangunan,Toko Perlengkapan Rumah,P.T Era Baru Corporation,"M5FF+WPM, Tarailu, Kec. Sampaga, Kabupaten Mamuju, Sulawesi Barat 91563","Tarailu, Kec. Sampaga, Kabupaten Mamuju",SULAWESI BARAT,91563.0,Indonesia,82393244788.0,,,-2.3259606,119.1744592,https://maps.google.com/?cid=0x0:0xa86d02c85181b796,
toko bangunan,Toko Bahan Bangunan,Toko buyung bangunan,"5V55+QW8, Jl. Poros Majene - Mamuju, Tampalang, Kec. Tapalang, Kabupaten Mamuju, Sulawesi Barat 91352","Jl. Poros Majene - Mamuju, Tampalang, Kec. Tapalang, Kabupaten Mamuju",SULAWESI BARAT,91352.0,Indonesia,,,,-2.840579,118.8598397,https://maps.google.com/?cid=0x0:0xdaa7f0c9eeaba7c8,
toko bangunan,Toko Perlengkapan Rumah,Toko bahan bangunan + mini market,"R5C9+C72, Lumu, Kec. Budong-Budong, Kabupaten Mamuju Tengah, Sulawesi Barat 91563","Lumu, Kec. Budong-Budong, Kabupaten Mamuju Tengah",SULAWESI BARAT,91563.0,Indonesia,82271169852.0,,,-2.1789816,119.1681373,https://maps.google.com/?cid=0x0:0xfb7763b55b5a11b4,
toko bangunan,Toko Bahan Bangunan,Bata Ringan CLC 77,"Lemo-Lemo, Kec. Pangale, Kabupaten Mamuju Tengah, Sulawesi Barat 91563","Kec. Pangale, Kabupaten Mamuju Tengah",SULAWESI BARAT,91563.0,Indonesia,82394442000.0,,,-2.3041429,119.1760174,https://maps.google.com/?cid=0x0:0x4b8fd512469d575,
toko bangunan,Pembangunan Perumahan,Toko Bangunan Putra Tande 5 Tapalang,"Galung, Kec. Tapalang, Kabupaten Mamuju, Sulawesi Barat 91352","Kec. Tapalang, Kabupaten Mamuju",SULAWESI BARAT,91352.0,Indonesia,85397048983.0,,,-2.8651937,118.8702682,https://maps.google.com/?cid=0x0:0x5ece193e63138999,
toko bangunan,Toko Bahan Bangunan,TOKO FAJAR BANGUNAN MAPILLI,"Jl. Poros Majene - Mamuju, Baru, Kec. Luyo, Kabupaten Polewali Mandar, Sulawesi Barat 91352","Baru, Kec. Luyo, Kabupaten Polewali Mandar",SULAWESI BARAT,91352.0,Indonesia,82292595546.0,,,-3.4189333,119.164406,https://maps.google.com/?cid=0x0:0x89a76f2924e54666,
toko bangunan,toko bangunan,Surya Bangunan Tarailu,"Tarailu, Kec. Sampaga, Kabupaten Mamuju, Sulawesi Barat","Kabupaten Mamuju, Sulawesi Barat",SULAWESI BARAT,,Indonesia,,,,-2.3136516,119.1764573,https://maps.google.com/?cid=0x0:0x5895e077f50fb30d,
toko bangunan,Toko Bahan Bangunan,UD BATAKO  LOSTER P. SUPRI,"R6HG+C34, Salogatta, Kec. Budong-Budong, Kabupaten Mamuju Tengah, Sulawesi Barat 91563","Salogatta, Kec. Budong-Budong, Kabupaten Mamuju Tengah",SULAWESI BARAT,91563.0,Indonesia,,,,-2.1714768,119.2251912,https://maps.google.com/?cid=0x0:0x3b478a74ff714248,
toko bangunan,toko bangunan,Sulawesi Barat 91563,"Kabupaten Mamuju, Sulawesi Barat","Kabupaten Mamuju, Sulawesi Barat",SULAWESI BARAT,,Indonesia,,,,-2.0727011,119.5107708,https://maps.google.com/?cid=0x0:0x8bfaa35dac2725d7,
toko bangunan,Toko Bahan Bangunan,TB CAHAYA BANGUNAN,"Tobadak, Kec. Tobadak, Kabupaten Mamuju, Sulawesi Barat 91563","Kec. Tobadak, Kabupaten Mamuju",SULAWESI BARAT,91563.0,Indonesia,82299999951.0,,,-2.0751897,119.2902612,https://maps.google.com/?cid=0x0:0xab184661abda07b4,
toko bangunan,Grosir,Toko bangunan 54 dua,"Benteng, Kec. Tobadak, Kabupaten Mamuju Tengah, Sulawesi Barat 91563","Kec. Tobadak, Kabupaten Mamuju Tengah",SULAWESI BARAT,91563.0,Indonesia,81264671628.0,,,-2.0790648,119.526939,https://maps.google.com/?cid=0x0:0xc2fa5e82fe9b5180,
toko bangunan,Toko Bahan Bangunan,INTI BANGUNAN,"V9F7+XQF, Mahahe, Kec. Tobadak, Kabupaten Mamuju, Sulawesi Barat 91563","Mahahe, Kec. Tobadak, Kabupaten Mamuju",SULAWESI BARAT,91563.0,Indonesia,,,,-2.1245822,119.3637779,https://maps.google.com/?cid=0x0:0xbe4c27c0321bbaa8,
toko bangunan,Toko Perlengkapan Rumah,TOKO FAJAR HARAPAN Nippon paint topoyo,"W77P+HCW, Jl. Poros Majene - Mamuju, Tobadak, Kec. Tobadak, Kabupaten Mamuju Tengah, Sulawesi Barat 91563","Jl. Poros Majene - Mamuju, Tobadak, Kec. Tobadak, Kabupaten Mamuju Tengah",SULAWESI BARAT,91563.0,Indonesia,81373974815.0,,,-2.0860076,119.2860649,https://maps.google.com/?cid=0x0:0x60e2fb2e2ac626e8,
toko bangunan,Toko Bahan Bangunan,Fajar Bangunan,"W7MP+9RV, Topoyo, Kec. Topoyo, Kabupaten Mamuju, Sulawesi Barat 91563","Topoyo, Kec. Topoyo, Kabupaten Mamuju",SULAWESI BARAT,91563.0,Indonesia,,,,-2.0665142,119.2870577,https://maps.google.com/?cid=0x0:0xaa3eae1887207633,
toko bangunan,Perhimpunan Pengembang Perumahan,Toko 54 Lima Empat,"W77M+CJ3, Jl. Poros Majene - Mamuju, Tobadak, Kec. Tobadak, Kabupaten Mamuju Tengah, Sulawesi Barat 91563","Jl. Poros Majene - Mamuju, Tobadak, Kec. Tobadak, Kabupaten Mamuju Tengah",SULAWESI BARAT,91563.0,Indonesia,81264671628.0,,,-2.0864914,119.2840603,https://maps.google.com/?cid=0x0:0xca6f1bc2ed1ce386,
toko bangunan,Toko Bahan Bangunan,TB CAHAYA 77 BANGUNAN,"Topoyo, Kec. Topoyo, Kabupaten Mamuju, Sulawesi Barat 91563","Kec. Topoyo, Kabupaten Mamuju",SULAWESI BARAT,91563.0,Indonesia,82293167421.0,,,-2.0681696,119.2854761,https://maps.google.com/?cid=0x0:0xa8b65129702b0561,
toko bangunan,Toko Bahan Bangunan,TK FAJAR BARKAH JUAL ALAT BANGUNAN,"Jl. Poros Majene - Mamuju, Topoyo, Kec. Topoyo, Kabupaten Mamuju Tengah, Sulawesi Barat 91563","Topoyo, Kec. Topoyo, Kabupaten Mamuju Tengah",SULAWESI BARAT,91563.0,Indonesia,81373974815.0,,,-2.0620443,119.2903474,https://maps.google.com/?cid=0x0:0x7dac4b5b2db5efa0,
toko bangunan,Toko Bahan Bangunan,Toko Sinar Bangunan,"M5MG+H8H, Jl. Poros Palu - Mamuju, Tarailu, Kec. Sampaga, Kabupaten Mamuju, Sulawesi Barat 91563","Jl. Poros Palu - Mamuju, Tarailu, Kec. Sampaga, Kabupaten Mamuju",SULAWESI BARAT,91563.0,Indonesia,81373974815.0,,,-2.3160629,119.1758478,https://maps.google.com/?cid=0x0:0xa07dffa29ee1a4e8,
toko bangunan,Toko Bahan Bangunan,Toko JADI bangunan,"X8P9+4XW, Salupangkang, Kec. Topoyo, Kabupaten Mamuju Tengah, Sulawesi Barat 91563","Salupangkang, Kec. Topoyo, Kabupaten Mamuju Tengah",SULAWESI BARAT,91563.0,Indonesia,81373974815.0,,,-2.0144107,119.3197132,https://maps.google.com/?cid=0x0:0xef5ca80a4f73a5aa,
toko bangunan,Toko Bahan Bangunan,CAHAYA BANGUNAN 2,"Jl. Poros Majene - Mamuju No.18, Tobadak, Kec. Tobadak, Kabupaten Mamuju Tengah, Sulawesi Barat 91563","Tobadak, Kec. Tobadak, Kabupaten Mamuju Tengah",SULAWESI BARAT,91563.0,Indonesia,,,,-2.0803427,119.2917255,https://maps.google.com/?cid=0x0:0x86153160cfeeabc4,
toko bangunan,Toko Bahan Bangunan,Toko Makmur Bangunan,"Jln. Jen. A. Yani No. 001, Bunde, Kec. Sampaga, Kabupaten Mamuju, Sulawesi Barat 91563","Bunde, Kec. Sampaga, Kabupaten Mamuju",SULAWESI BARAT,91563.0,Indonesia,82259648049.0,,,-2.3398082,119.1750407,https://maps.google.com/?cid=0x0:0x901692040dff7a42,
toko bangunan,Toko Bahan Bangunan,Toko Bangunan,"H5J6+3Q9, Jl. Poros Majene - Mamuju, Topore, Kec. Papalang, Kabupaten Mamuju, Sulawesi Barat 91563","Jl. Poros Majene - Mamuju, Topore, Kec. Papalang, Kabupaten Mamuju",SULAWESI BARAT,91563.0,Indonesia,81264671628.0,,,-2.4197239,119.162057,https://maps.google.com/?cid=0x0:0xb8abda29e233da34,
toko bangunan,Toko Bahan Bangunan,Toko Bangunan Sumber Baru,"X8H8+JGX, Salupangkang, Kec. Topoyo, Kabupaten Mamuju, Sulawesi Barat 91563","Salupangkang, Kec. Topoyo, Kabupaten Mamuju",SULAWESI BARAT,91563.0,Indonesia,,,,-2.0208952,119.3163699,https://maps.google.com/?cid=0x0:0x4e386c1bad376796,
toko bangunan,Toko Bahan Bangunan,Toko Surya Jaya Bangunan,"W7JP+MJP, Topoyo, Kec. Topoyo, Kabupaten Mamuju, Sulawesi Barat 91563","Topoyo, Kec. Topoyo, Kabupaten Mamuju",SULAWESI BARAT,91563.0,Indonesia,82198440963.0,,,-2.0682901,119.2865647,https://maps.google.com/?cid=0x0:0x3b9bbba62ed83c,
toko bangunan,Toko Bahan Bangunan,Aska bangunan,"W7HP+65J, Topoyo, Kec. Topoyo, Kabupaten Mamuju Tengah, Sulawesi Barat 91563","Topoyo, Kec. Topoyo, Kabupaten Mamuju Tengah",SULAWESI BARAT,91563.0,Indonesia,,,,-2.0719726,119.2855337,https://maps.google.com/?cid=0x0:0xd6e59dc32b9cd463,
toko bangunan,Toko Bahan Bangunan,Toko Tunas Baja Utama,"Jl. Poros Palu - Mamuju No.1, Tobadak, Kec. Tobadak, Kabupaten Mamuju Tengah, Sulawesi Barat 91563","Tobadak, Kec. Tobadak, Kabupaten Mamuju Tengah",SULAWESI BARAT,91563.0,Indonesia,82194722450.0,,,-2.0848637,119.2899984,https://maps.google.com/?cid=0x0:0x20cacada2042b421,
toko bangunan,Toko Bahan Bangunan,Tb. Mutiara Fajar nippon paint topoyo,"W79R+2MF, Tobadak, Kec. Tobadak, Kabupaten Mamuju, Sulawesi Barat 91563","Tobadak, Kec. Tobadak, Kabupaten Mamuju",SULAWESI BARAT,91563.0,Indonesia,,,,-2.0824385,119.2916777,https://maps.google.com/?cid=0x0:0x39f9cf49dacb4292,
toko bangunan,Toko,TOKO UD.SIDOMULYO,"Salobaja, Kec. Tobadak, Kabupaten Mamuju Tengah, Sulawesi Barat 91563","Kec. Tobadak, Kabupaten Mamuju Tengah",SULAWESI BARAT,91563.0,Indonesia,85340789642.0,,,-2.1394203,119.3670683,https://maps.google.com/?cid=0x0:0xf8a1ba2a1c047de3,
toko bangunan,Toko Bahan Bangunan,ATAP SPANDECK/baja ringan,"W75G+HCV, Jl. Poros Majene - Mamuju, Tobadak, Kec. Tobadak, Kabupaten Mamuju Tengah, Sulawesi Barat 91563","Jl. Poros Majene - Mamuju, Tobadak, Kec. Tobadak, Kabupaten Mamuju Tengah",SULAWESI BARAT,91563.0,Indonesia,8116088875.0,,,-2.0910069,119.2760438,https://maps.google.com/?cid=0x0:0x572691fee5d949c2,
toko bangunan,toko bangunan,Kec. Tobadak,"Kabupaten Mamuju Tengah, Sulawesi Barat","Kabupaten Mamuju Tengah, Sulawesi Barat",SULAWESI BARAT,,Indonesia,,,,-2.1154458,119.3640873,https://maps.google.com/?cid=0x0:0xa52a8447f9452afd,
toko bangunan,Toko Bahan Bangunan,Citra Fajar Bangunan,"W7HP+58F, Topoyo, Kec. Topoyo, Kabupaten Mamuju, Sulawesi Barat 91563","Topoyo, Kec. Topoyo, Kabupaten Mamuju",SULAWESI BARAT,91563.0,Indonesia,81355844777.0,,,-2.0720516,119.285795,https://maps.google.com/?cid=0x0:0x2713eff2404c9fad,
toko bangunan,Toko Bahan Bangunan,Toko Surya Bangunan Tobadak,"Tobadak, Kec. Tobadak, Kabupaten Mamuju Tengah, Sulawesi Barat","Kabupaten Mamuju Tengah, Sulawesi Barat",SULAWESI BARAT,,Indonesia,,,,-2.0904134,119.3471653,https://maps.google.com/?cid=0x0:0x161ac24cc385610d,
toko bangunan,Toko Bahan Bangunan,Toko Surya Mandiri Bangunan,"Topoyo, Kec. Topoyo, Kabupaten Mamuju Tengah, Sulawesi Barat","Kabupaten Mamuju Tengah, Sulawesi Barat",SULAWESI BARAT,,Indonesia,,,,-2.0644159,119.2864853,https://maps.google.com/?cid=0x0:0xbafa9247c6514312,
toko bangunan,Pemasok plafon,Shunda Plafon Topoyo,"Jl. Poros pasar baru, Topoyo, Kec. Topoyo, Kabupaten Mamuju Tengah, Sulawesi Barat 91563","Topoyo, Kec. Topoyo, Kabupaten Mamuju Tengah",SULAWESI BARAT,91563.0,Indonesia,81340226640.0,,,-2.0618601,119.279701,https://maps.google.com/?cid=0x0:0xeba68463a01875d7,
toko bangunan,Toko,Mutiara plastik,"Jl. Andi Depu, Topoyo, Kec. Topoyo, Kabupaten Mamuju, Sulawesi Barat 91563","Topoyo, Kec. Topoyo, Kabupaten Mamuju",SULAWESI BARAT,91563.0,Indonesia,85397447799.0,,,-2.0695919,119.2849692,https://maps.google.com/?cid=0x0:0xa49282a9a754393f,
toko bangunan,Toko Bahan Bangunan,Fajar Bangunan,"W7MP+9RV, Topoyo, Kec. Topoyo, Kabupaten Mamuju, Sulawesi Barat 91563","Topoyo, Kec. Topoyo, Kabupaten Mamuju",SULAWESI BARAT,91563.0,Indonesia,,,,-2.0665142,119.2870577,https://maps.google.com/?cid=0x0:0xaa3eae1887207633,
toko bangunan,Toko Bahan Bangunan,TB CAHAYA 77 BANGUNAN,"Topoyo, Kec. Topoyo, Kabupaten Mamuju, Sulawesi Barat 91563","Kec. Topoyo, Kabupaten Mamuju",SULAWESI BARAT,91563.0,Indonesia,82293167421.0,,,-2.0681696,119.2854761,https://maps.google.com/?cid=0x0:0xa8b65129702b0561,
toko bangunan,Toko Bahan Bangunan,Toko JADI bangunan,"X8P9+4XW, Salupangkang, Kec. Topoyo, Kabupaten Mamuju Tengah, Sulawesi Barat 91563","Salupangkang, Kec. Topoyo, Kabupaten Mamuju Tengah",SULAWESI BARAT,91563.0,Indonesia,81373974815.0,,,-2.0144107,119.3197132,https://maps.google.com/?cid=0x0:0xef5ca80a4f73a5aa,
toko bangunan,Toko Bahan Bangunan,TK FAJAR BARKAH JUAL ALAT BANGUNAN,"Jl. Poros Majene - Mamuju, Topoyo, Kec. Topoyo, Kabupaten Mamuju Tengah, Sulawesi Barat 91563","Topoyo, Kec. Topoyo, Kabupaten Mamuju Tengah",SULAWESI BARAT,91563.0,Indonesia,81373974815.0,,,-2.0620443,119.2903474,https://maps.google.com/?cid=0x0:0x7dac4b5b2db5efa0,
toko bangunan,Toko Bahan Bangunan,Toko Bangunan Sumber Baru,"X8H8+JGX, Salupangkang, Kec. Topoyo, Kabupaten Mamuju, Sulawesi Barat 91563","Salupangkang, Kec. Topoyo, Kabupaten Mamuju",SULAWESI BARAT,91563.0,Indonesia,,,,-2.0208952,119.3163699,https://maps.google.com/?cid=0x0:0x4e386c1bad376796,
toko bangunan,Toko Bahan Bangunan,Berkah Abadi Topoyo,"Tobadak, Kec. Tobadak, Kabupaten Mamuju, Sulawesi Barat 91563","Kec. Tobadak, Kabupaten Mamuju",SULAWESI BARAT,91563.0,Indonesia,82173389240.0,,,-2.0774095,119.2913376,https://maps.google.com/?cid=0x0:0x372a51d92d7114a0,
toko bangunan,Toko Bahan Bangunan,Toko Surya Jaya Bangunan,"W7JP+MJP, Topoyo, Kec. Topoyo, Kabupaten Mamuju, Sulawesi Barat 91563","Topoyo, Kec. Topoyo, Kabupaten Mamuju",SULAWESI BARAT,91563.0,Indonesia,82198440963.0,,,-2.0682901,119.2865647,https://maps.google.com/?cid=0x0:0x3b9bbba62ed83c,
toko bangunan,Toko Bahan Bangunan,Aska bangunan,"W7HP+65J, Topoyo, Kec. Topoyo, Kabupaten Mamuju Tengah, Sulawesi Barat 91563","Topoyo, Kec. Topoyo, Kabupaten Mamuju Tengah",SULAWESI BARAT,91563.0,Indonesia,,,,-2.0719726,119.2855337,https://maps.google.com/?cid=0x0:0xd6e59dc32b9cd463,
toko bangunan,Toko Bahan Bangunan,Tb. Mutiara Fajar nippon paint topoyo,"W79R+2MF, Tobadak, Kec. Tobadak, Kabupaten Mamuju, Sulawesi Barat 91563","Tobadak, Kec. Tobadak, Kabupaten Mamuju",SULAWESI BARAT,91563.0,Indonesia,,,,-2.0824385,119.2916777,https://maps.google.com/?cid=0x0:0x39f9cf49dacb4292,
toko bangunan,Pemasok plafon,Shunda Plafon Topoyo,"Jl. Poros pasar baru, Topoyo, Kec. Topoyo, Kabupaten Mamuju Tengah, Sulawesi Barat 91563","Topoyo, Kec. Topoyo, Kabupaten Mamuju Tengah",SULAWESI BARAT,91563.0,Indonesia,81340226640.0,,,-2.0618601,119.279701,https://maps.google.com/?cid=0x0:0xeba68463a01875d7,
toko bangunan,Toko Bahan Bangunan,Citra Fajar Bangunan,"W7HP+58F, Topoyo, Kec. Topoyo, Kabupaten Mamuju, Sulawesi Barat 91563","Topoyo, Kec. Topoyo, Kabupaten Mamuju",SULAWESI BARAT,91563.0,Indonesia,81355844777.0,,,-2.0720516,119.285795,https://maps.google.com/?cid=0x0:0x2713eff2404c9fad,
toko bangunan,toko bangunan,Sulawesi Barat 91563,"Kabupaten Mamuju, Sulawesi Barat","Kabupaten Mamuju, Sulawesi Barat",SULAWESI BARAT,,Indonesia,,,,-2.0727011,119.5107708,https://maps.google.com/?cid=0x0:0x8bfaa35dac2725d7,
toko bangunan,Toko Bahan Bangunan,TB CAHAYA BANGUNAN,"Tobadak, Kec. Tobadak, Kabupaten Mamuju, Sulawesi Barat 91563","Kec. Tobadak, Kabupaten Mamuju",SULAWESI BARAT,91563.0,Indonesia,82299999951.0,,,-2.0751897,119.2902612,https://maps.google.com/?cid=0x0:0xab184661abda07b4,
toko bangunan,Grosir,Toko bangunan 54 dua,"Benteng, Kec. Tobadak, Kabupaten Mamuju Tengah, Sulawesi Barat 91563","Kec. Tobadak, Kabupaten Mamuju Tengah",SULAWESI BARAT,91563.0,Indonesia,81264671628.0,,,-2.0790648,119.526939,https://maps.google.com/?cid=0x0:0xc2fa5e82fe9b5180,
toko bangunan,Perhimpunan Pengembang Perumahan,Toko 54 Lima Empat,"W77M+CJ3, Jl. Poros Majene - Mamuju, Tobadak, Kec. Tobadak, Kabupaten Mamuju Tengah, Sulawesi Barat 91563","Jl. Poros Majene - Mamuju, Tobadak, Kec. Tobadak, Kabupaten Mamuju Tengah",SULAWESI BARAT,91563.0,Indonesia,81264671628.0,,,-2.0864914,119.2840603,https://maps.google.com/?cid=0x0:0xca6f1bc2ed1ce386,
toko bangunan,Toko Bahan Bangunan,Toko ALFIAN,"W5FX+G94, Babana, Kec. Budong-Budong, Kabupaten Mamuju Tengah, Sulawesi Barat 91563","Babana, Kec. Budong-Budong, Kabupaten Mamuju Tengah",SULAWESI BARAT,91563.0,Indonesia,81373974815.0,,,-2.0762257,119.1984681,https://maps.google.com/?cid=0x0:0x83d1e111318f3bc1,
toko bangunan,Toko Bahan Bangunan,Toko Bangunan,"H5J6+3Q9, Jl. Poros Majene - Mamuju, Topore, Kec. Papalang, Kabupaten Mamuju, Sulawesi Barat 91563","Jl. Poros Majene - Mamuju, Topore, Kec. Papalang, Kabupaten Mamuju",SULAWESI BARAT,91563.0,Indonesia,81264671628.0,,,-2.4197239,119.162057,https://maps.google.com/?cid=0x0:0xb8abda29e233da34,
toko bangunan,Toko Bahan Bangunan,Toko Sinar Bangunan,"M5MG+H8H, Jl. Poros Palu - Mamuju, Tarailu, Kec. Sampaga, Kabupaten Mamuju, Sulawesi Barat 91563","Jl. Poros Palu - Mamuju, Tarailu, Kec. Sampaga, Kabupaten Mamuju",SULAWESI BARAT,91563.0,Indonesia,81373974815.0,,,-2.3160629,119.1758478,https://maps.google.com/?cid=0x0:0xa07dffa29ee1a4e8,
toko bangunan,Pasar,Toko Pantai Karossa,"6C22+HXP, Dusun Mora, Karossa, Kec. Karossa, Kabupaten Mamuju Tengah, Sulawesi Barat 91512","Dusun Mora, Karossa, Kec. Karossa, Kabupaten Mamuju Tengah",SULAWESI BARAT,91512.0,Indonesia,81373974815.0,,,-1.7985411,119.4024404,https://maps.google.com/?cid=0x0:0x24dafad928bb43c3,
toko bangunan,Toko Karpet,Toko Karpet 88 Topoyo,"Tumbu depan lapangan, Kota Topoyo, Jl. Poros Majene - Mamuju, Kec. Topoyo, Sulawesi Barat 91464","Kota Topoyo, Jl. Poros Majene - Mamuju, Kec. Topoyo",SULAWESI BARAT,91464.0,Indonesia,85395946220.0,,,-2.0681988,119.2859229,https://maps.google.com/?cid=0x0:0x8b9bd3afb1c317f0,
hardware store,hardware store,Kec. Budong-Budong,"Kabupaten Mamuju Tengah, Sulawesi Barat","Kabupaten Mamuju Tengah, Sulawesi Barat",SULAWESI BARAT,,Indonesia,,,,-2.1728923,119.2291681,https://maps.google.com/?cid=0x0:0x513972b69bc5b519,
hardware store,Toko Bahan Bangunan,Toko ALFIAN,"W5FX+G94, Babana, Kec. Budong-Budong, Kabupaten Mamuju Tengah, Sulawesi Barat 91563","Babana, Kec. Budong-Budong, Kabupaten Mamuju Tengah",SULAWESI BARAT,91563.0,Indonesia,81373974815.0,,,-2.0762257,119.1984681,https://maps.google.com/?cid=0x0:0x83d1e111318f3bc1,
hardware store,Toko Perlengkapan Rumah,TOKO FAJAR HARAPAN Nippon paint topoyo,"W77P+HCW, Jl. Poros Majene - Mamuju, Tobadak, Kec. Tobadak, Kabupaten Mamuju Tengah, Sulawesi Barat 91563","Jl. Poros Majene - Mamuju, Tobadak, Kec. Tobadak, Kabupaten Mamuju Tengah",SULAWESI BARAT,91563.0,Indonesia,81373974815.0,,,-2.0860076,119.2860649,https://maps.google.com/?cid=0x0:0x60e2fb2e2ac626e8,
hardware store,Toko Bahan Bangunan,TB CAHAYA BANGUNAN,"Tobadak, Kec. Tobadak, Kabupaten Mamuju, Sulawesi Barat 91563","Kec. Tobadak, Kabupaten Mamuju",SULAWESI BARAT,91563.0,Indonesia,82299999951.0,,,-2.0751897,119.2902612,https://maps.google.com/?cid=0x0:0xab184661abda07b4,
hardware store,Toko Bahan Bangunan,TB CAHAYA 77 BANGUNAN,"Topoyo, Kec. Topoyo, Kabupaten Mamuju, Sulawesi Barat 91563","Kec. Topoyo, Kabupaten Mamuju",SULAWESI BARAT,91563.0,Indonesia,82293167421.0,,,-2.0681696,119.2854761,https://maps.google.com/?cid=0x0:0xa8b65129702b0561,
hardware store,Toko Alat Tulis Kantor,Toko ATK Damai,"W7HM+VQ6, Topoyo, Kec. Topoyo, Kabupaten Mamuju, Sulawesi Barat 91563","Topoyo, Kec. Topoyo, Kabupaten Mamuju",SULAWESI BARAT,91563.0,Indonesia,85397955867.0,,,-2.070344,119.2843809,https://maps.google.com/?cid=0x0:0x28b2ada293226acc,
hardware store,Minimarket,MR. DIY,"W7QP+9CG, Jl. Poros Majene - Mamuju, Topoyo, Kec. Topoyo, Kabupaten Mamuju Tengah, Sulawesi Barat 91464","Jl. Poros Majene - Mamuju, Topoyo, Kec. Topoyo, Kabupaten Mamuju Tengah",SULAWESI BARAT,91464.0,Indonesia,,,,-2.0615729,119.2860777,https://maps.google.com/?cid=0x0:0x385d875a73239777,
hardware store,Toko Swalayan,Toko Aliyah Berkah,"Tamejarra, Kec. Tommo, Kabupaten Mamuju, Sulawesi Barat 91562","Kec. Tommo, Kabupaten Mamuju",SULAWESI BARAT,91562.0,Indonesia,85213171810.0,,,-2.2807753,119.3050597,https://maps.google.com/?cid=0x0:0x17ee7186e11af3b3,
hardware store,Toko Perlengkapan Rumah,MR.DIY,"Ruko Sudirman, Jl. Jend Sudirman No.63, Simboro, Kec. Simboro Dan Kepulauan, Kabupaten Mamuju, Sulawesi Barat 90512","Jl. Jend Sudirman No.63, Simboro, Kec. Simboro Dan Kepulauan, Kabupaten Mamuju",SULAWESI BARAT,90512.0,Indonesia,2130022789.0,,,-2.6858871,118.8693113,https://maps.google.com/?cid=0x0:0x4729ed80f7f3bf94,
hardware store,Toko Bahan Bangunan,Toko buyung bangunan,"5V55+QW8, Jl. Poros Majene - Mamuju, Tampalang, Kec. Tapalang, Kabupaten Mamuju, Sulawesi Barat 91352","Jl. Poros Majene - Mamuju, Tampalang, Kec. Tapalang, Kabupaten Mamuju",SULAWESI BARAT,91352.0,Indonesia,,,,-2.840579,118.8598397,https://maps.google.com/?cid=0x0:0xdaa7f0c9eeaba7c8,
hardware store,Pembangunan Perumahan,Toko Bangunan Putra Tande 5 Tapalang,"Galung, Kec. Tapalang, Kabupaten Mamuju, Sulawesi Barat 91352","Kec. Tapalang, Kabupaten Mamuju",SULAWESI BARAT,91352.0,Indonesia,85397048983.0,,,-2.8651937,118.8702682,https://maps.google.com/?cid=0x0:0x5ece193e63138999,
hardware store,Toko Alat Tulis Kantor,Cahaya Media Fotocopy,"W7HP+WP6, Topoyo, Kec. Topoyo, Kabupaten Mamuju, Sulawesi Barat 91563","Topoyo, Kec. Topoyo, Kabupaten Mamuju",SULAWESI BARAT,91563.0,Indonesia,82343526108.0,,,-2.0702217,119.2867686,https://maps.google.com/?cid=0x0:0x69efbc983375f105,
hardware store,Toko Perlengkapan Rumah,MR DIY MAMUJU BINANGA,"Jl. Yos Sudarso, Binanga, Kec. Mamuju, Kabupaten Mamuju, Sulawesi Barat","Kabupaten Mamuju, Sulawesi Barat",SULAWESI BARAT,,Indonesia,,,,-2.6688473,118.8926806,https://maps.google.com/?cid=0x0:0x6bff05aa8a536272,
hardware store,Toko Bahan Bangunan,Toko wahyudi Bangunan,"H5J6+2P7, Topore, Kec. Papalang, Kabupaten Mamuju, Sulawesi Barat 91563","Topore, Kec. Papalang, Kabupaten Mamuju",SULAWESI BARAT,91563.0,Indonesia,82146692685.0,,,-2.4199691,119.1617961,https://maps.google.com/?cid=0x0:0xd7af52db91495e45,
hardware store,Toko Kosmetik,Nurmala shop,"Depan mr. Diy topoto Jl. Poros topoyo -palu Kec. Topoyo, Kec. Mamuju, Kabupaten Mamuju Tengah, Sulawesi Barat 91464","Kec. Mamuju, Kabupaten Mamuju Tengah",SULAWESI BARAT,91464.0,Indonesia,85146349537.0,,,-2.0617193,119.2862752,https://maps.google.com/?cid=0x0:0x8b1dd57d88c5e0ac,
hardware store,Toko Bahan Bangunan,Toko. Fajar Bangunan - Mamuju,"8V6G+7WH, Jl. Diponegoro, Karema, Kec. Mamuju, Kabupaten Mamuju, Sulawesi Barat 91512","Jl. Diponegoro, Karema, Kec. Mamuju, Kabupaten Mamuju",SULAWESI BARAT,91512.0,Indonesia,85930982364.0,,,-2.689321,118.8773494,https://maps.google.com/?cid=0x0:0x6d4e74a959cf61d6,
hardware store,Toko Bahan Bangunan,Buana Fadly,"6C33+824, Karossa, Kec. Karossa, Kabupaten Mamuju, Sulawesi Barat 91512","Karossa, Kec. Karossa, Kabupaten Mamuju",SULAWESI BARAT,91512.0,Indonesia,85395764567.0,,,-1.7967481,119.4025853,https://maps.google.com/?cid=0x0:0xd7bc2ddb9906de73,
hardware store,Toko,Toko Lenny,"Topoyo, Kec. Topoyo, Kabupaten Mamuju Tengah, Sulawesi Barat","Kabupaten Mamuju Tengah, Sulawesi Barat",SULAWESI BARAT,,Indonesia,,,,-2.0693574,119.2853075,https://maps.google.com/?cid=0x0:0x525dbd5dae665919,
hardware store,hardware store,Sulawesi Barat 91512,"Kabupaten Mamuju, Sulawesi Barat","Kabupaten Mamuju, Sulawesi Barat",SULAWESI BARAT,,Indonesia,,,,-1.8494265,119.5339711,https://maps.google.com/?cid=0x0:0x8e21c401717b8ceb,
hardware store,Pasar,Toko Pantai Karossa,"6C22+HXP, Dusun Mora, Karossa, Kec. Karossa, Kabupaten Mamuju Tengah, Sulawesi Barat 91512","Dusun Mora, Karossa, Kec. Karossa, Kabupaten Mamuju Tengah",SULAWESI BARAT,91512.0,Indonesia,81373974815.0,,,-1.7985411,119.4024404,https://maps.google.com/?cid=0x0:0x24dafad928bb43c3,
hardware store,Toko Alat Listrik,Toko Mitra Listrik,"Karema, Kec. Mamuju, Kabupaten Mamuju, Sulawesi Barat 91512","Kec. Mamuju, Kabupaten Mamuju",SULAWESI BARAT,91512.0,Indonesia,81216513956.0,,,-2.6836678,118.8758437,https://maps.google.com/?cid=0x0:0x9b2d83aba9467b91,
hardware store,Toko Perlengkapan Rumah,MR.DIY,"Ruko Sudirman, Jl. Jend Sudirman No.63, Simboro, Kec. Simboro Dan Kepulauan, Kabupaten Mamuju, Sulawesi Barat 90512","Jl. Jend Sudirman No.63, Simboro, Kec. Simboro Dan Kepulauan, Kabupaten Mamuju",SULAWESI BARAT,90512.0,Indonesia,2130022789.0,,,-2.6858871,118.8693113,https://maps.google.com/?cid=0x0:0x4729ed80f7f3bf94,
hardware store,Toko Bahan Bangunan,Toko. Fajar Bangunan - Mamuju,"8V6G+7WH, Jl. Diponegoro, Karema, Kec. Mamuju, Kabupaten Mamuju, Sulawesi Barat 91512","Jl. Diponegoro, Karema, Kec. Mamuju, Kabupaten Mamuju",SULAWESI BARAT,91512.0,Indonesia,85930982364.0,,,-2.689321,118.8773494,https://maps.google.com/?cid=0x0:0x6d4e74a959cf61d6,
hardware store,Toko,Toko Sumber Sakti,"8V8G+F84, Jl. Diponegoro, Karema, Kec. Mamuju, Kabupaten Mamuju, Sulawesi Barat 91511","Jl. Diponegoro, Karema, Kec. Mamuju, Kabupaten Mamuju",SULAWESI BARAT,91511.0,Indonesia,,,,-2.6838659,118.875817,https://maps.google.com/?cid=0x0:0x40fead32aa2cf7c4,
hardware store,Toko Bahan Bangunan,Buana Fadly,"6C33+824, Karossa, Kec. Karossa, Kabupaten Mamuju, Sulawesi Barat 91512","Karossa, Kec. Karossa, Kabupaten Mamuju",SULAWESI BARAT,91512.0,Indonesia,85395764567.0,,,-1.7967481,119.4025853,https://maps.google.com/?cid=0x0:0xd7bc2ddb9906de73,
hardware store,Toko Bahan Bangunan,Toko Harapan Jaya,"Jl. LetJend Hertasning, Binanga, Kec. Mamuju, Kabupaten Mamuju, Sulawesi Barat 91511","Binanga, Kec. Mamuju, Kabupaten Mamuju",SULAWESI BARAT,91511.0,Indonesia,,,,-2.6718353,118.8918529,https://maps.google.com/?cid=0x0:0x4aa8f68af0fe79ed,
hardware store,Toko Bahan Bangunan,Fajar Mas Toko,"8VGQ+HV8, Komplek Pasar Sentral, Simboro, Kec. Mamuju, Kabupaten Mamuju, Sulawesi Barat 91811","Komplek Pasar Sentral, Simboro, Kec. Mamuju, Kabupaten Mamuju",SULAWESI BARAT,91811.0,Indonesia,42621498.0,,,-2.6735892,118.8897077,https://maps.google.com/?cid=0x0:0x25648f8d214d5e5b,
hardware store,Toko,TOKO IKHLAS,"6C55+RJQ, Karossa, Kec. Karossa, Kabupaten Mamuju Tengah, Sulawesi Barat","Kabupaten Mamuju Tengah, Sulawesi Barat",SULAWESI BARAT,,Indonesia,81242067737.0,,,-1.7904936,119.4091477,https://maps.google.com/?cid=0x0:0xa0b503e4a248d39c,
hardware store,Toko Bahan Bangunan,Toko Delta Bangunan,"8V6H+X4H, Karema, Kec. Mamuju, Kabupaten Mamuju, Sulawesi Barat 91512","Karema, Kec. Mamuju, Kabupaten Mamuju",SULAWESI BARAT,91512.0,Indonesia,81524333299.0,,,-2.6875662,118.8778488,https://maps.google.com/?cid=0x0:0x600c10af92b1cb4f,
hardware store,Toko Bahan Bangunan,Tk. Buana Bangunan,"8V7G+MJJ, Karema, Kec. Mamuju, Kabupaten Mamuju, Sulawesi Barat 91512","Karema, Kec. Mamuju, Kabupaten Mamuju",SULAWESI BARAT,91512.0,Indonesia,82179264696.0,,,-2.6857866,118.8765206,https://maps.google.com/?cid=0x0:0x8cdc46a0e8fa0fe6,
hardware store,Toko Bahan Bangunan,TOKO GUDANG GRAHA TOMAKAKA 3,"Jl. Abd. Syakur, Karema, Kec. Mamuju, Kabupaten Mamuju, Sulawesi Barat 91512","Karema, Kec. Mamuju, Kabupaten Mamuju",SULAWESI BARAT,91512.0,Indonesia,82393103700.0,,,-2.6890654,118.8739797,https://maps.google.com/?cid=0x0:0x4944de5fe2559f5,
hardware store,Toko Bahan Bangunan,Toko Usaha Maju,"Jl. Andi Dai No.66, Binanga, Kec. Mamuju, Kabupaten Mamuju, Sulawesi Barat 91511","Binanga, Kec. Mamuju, Kabupaten Mamuju",SULAWESI BARAT,91511.0,Indonesia,81242225181.0,,,-2.6719505,118.8959849,https://maps.google.com/?cid=0x0:0xce686b7c9c65b,
hardware store,Toko Buku >>u0026 Alat Sekolah,Toko Citra Harmonis,"8V6G+MJP, Karema, Kec. Mamuju, Kabupaten Mamuju, Sulawesi Barat 91512","Karema, Kec. Mamuju, Kabupaten Mamuju",SULAWESI BARAT,91512.0,Indonesia,,,,-2.6882938,118.8765852,https://maps.google.com/?cid=0x0:0x54f94132bc6a942,
hardware store,Toko,Photo Copy ADZIM,"8VH3+93P, Simboro, Kec. Simboro Dan Kepulauan, Kabupaten Mamuju, Sulawesi Barat 91512","Simboro, Kec. Simboro Dan Kepulauan, Kabupaten Mamuju",SULAWESI BARAT,91512.0,Indonesia,,,,-2.671528,118.8527057,https://maps.google.com/?cid=0x0:0x19c6c4994ef6ba57,
hardware store,Toko Perlengkapan Rumah,TOKO FAJAR HARAPAN Nippon paint topoyo,"W77P+HCW, Jl. Poros Majene - Mamuju, Tobadak, Kec. Tobadak, Kabupaten Mamuju Tengah, Sulawesi Barat 91563","Jl. Poros Majene - Mamuju, Tobadak, Kec. Tobadak, Kabupaten Mamuju Tengah",SULAWESI BARAT,91563.0,Indonesia,81373974815.0,,,-2.0860076,119.2860649,https://maps.google.com/?cid=0x0:0x60e2fb2e2ac626e8,
hardware store,Toko Alat Tulis Kantor,Tk METRO FOTO COPY,"8VCP+X9J, Jl. Abd. Wahab Azasi, Rimuku, Kec. Mamuju, Kabupaten Mamuju, Sulawesi Barat 91511","Jl. Abd. Wahab Azasi, Rimuku, Kec. Mamuju, Kabupaten Mamuju",SULAWESI BARAT,91511.0,Indonesia,8114492929.0,,,-2.6775312,118.885876,https://maps.google.com/?cid=0x0:0x858e10c2551b2c7e,
hardware store,Toko Pakaian,Cv.cahaya Sukses Mandiri,"8VCW+QRH, Binanga, Kec. Mamuju, Kabupaten Mamuju, Sulawesi Barat 91511","Binanga, Kec. Mamuju, Kabupaten Mamuju",SULAWESI BARAT,91511.0,Indonesia,85242437676.0,,,-2.6780509,118.8971178,https://maps.google.com/?cid=0x0:0x9b5a91cf47ad5d26,
hardware store,Toko Bahan Bangunan,Ud Sentral Jaya,"Binanga, Kec. Mamuju, Kabupaten Mamuju, Sulawesi Barat","Kabupaten Mamuju, Sulawesi Barat",SULAWESI BARAT,,Indonesia,82188708700.0,,,-2.6720221,118.8918978,https://maps.google.com/?cid=0x0:0xa909bb9558006e49,
hardware store,Toko Bahan Bangunan,Tunas Jaya Mamuju,"8V7G+6W7, Jl. Diponegoro, Karema, Kec. Mamuju, Kabupaten Mamuju, Sulawesi Barat 91512","Jl. Diponegoro, Karema, Kec. Mamuju, Kabupaten Mamuju",SULAWESI BARAT,91512.0,Indonesia,,,,-2.6869645,118.8772869,https://maps.google.com/?cid=0x0:0xe9c75e78f96ac774,
hardware store,Pusat Perbelanjaan,Toko bangunan argadinata,"Lemo-Lemo, Kec. Pangale, Kabupaten Mamuju, Sulawesi Barat 91462","Kec. Pangale, Kabupaten Mamuju",SULAWESI BARAT,91462.0,Indonesia,82331313118.0,,,-2.2972382,119.17566,https://maps.google.com/?cid=0x0:0x9eb6c7242139d7af,
hardware store,Toko Bahan Bangunan,Mega Buana Bangunan,"Tarailu, Kec. Sampaga, Kabupaten Mamuju, Sulawesi Barat 91563","Kec. Sampaga, Kabupaten Mamuju",SULAWESI BARAT,91563.0,Indonesia,81356737526.0,,,-2.3096411,119.1743619,https://maps.google.com/?cid=0x0:0xf3f768be1c38f424,
hardware store,hardware store,Kec. Pangale,"Kabupaten Mamuju Tengah, Sulawesi Barat","Kabupaten Mamuju Tengah, Sulawesi Barat",SULAWESI BARAT,,Indonesia,,,,-2.2717045,119.1995263,https://maps.google.com/?cid=0x0:0x38044147fdebd95,
hardware store,Minimarket,Toko Top,"Pangale, Kec. Pangale, Kabupaten Mamuju, Sulawesi Barat","Kabupaten Mamuju, Sulawesi Barat",SULAWESI BARAT,,Indonesia,,,,-2.3029967,119.1762858,https://maps.google.com/?cid=0x0:0x57f3cf18fe25a2b3,
hardware store,hardware store,Sulawesi Barat 91563,"Kabupaten Mamuju, Sulawesi Barat","Kabupaten Mamuju, Sulawesi Barat",SULAWESI BARAT,,Indonesia,,,,-2.0727011,119.5107708,https://maps.google.com/?cid=0x0:0x8bfaa35dac2725d7,
hardware store,Toko Bahan Bangunan,TB CAHAYA BANGUNAN,"Tobadak, Kec. Tobadak, Kabupaten Mamuju, Sulawesi Barat 91563","Kec. Tobadak, Kabupaten Mamuju",SULAWESI BARAT,91563.0,Indonesia,82299999951.0,,,-2.0751897,119.2902612,https://maps.google.com/?cid=0x0:0xab184661abda07b4,
hardware store,Toko Perlengkapan Rumah,TOKO FAJAR HARAPAN Nippon paint topoyo,"W77P+HCW, Jl. Poros Majene - Mamuju, Tobadak, Kec. Tobadak, Kabupaten Mamuju Tengah, Sulawesi Barat 91563","Jl. Poros Majene - Mamuju, Tobadak, Kec. Tobadak, Kabupaten Mamuju Tengah",SULAWESI BARAT,91563.0,Indonesia,81373974815.0,,,-2.0860076,119.2860649,https://maps.google.com/?cid=0x0:0x60e2fb2e2ac626e8,
hardware store,Toko Bahan Bangunan,Toko wahyudi Bangunan,"H5J6+2P7, Topore, Kec. Papalang, Kabupaten Mamuju, Sulawesi Barat 91563","Topore, Kec. Papalang, Kabupaten Mamuju",SULAWESI BARAT,91563.0,Indonesia,82146692685.0,,,-2.4199691,119.1617961,https://maps.google.com/?cid=0x0:0xd7af52db91495e45,
hardware store,Minimarket,MR. DIY,"W7QP+9CG, Jl. Poros Majene - Mamuju, Topoyo, Kec. Topoyo, Kabupaten Mamuju Tengah, Sulawesi Barat 91464","Jl. Poros Majene - Mamuju, Topoyo, Kec. Topoyo, Kabupaten Mamuju Tengah",SULAWESI BARAT,91464.0,Indonesia,,,,-2.0615729,119.2860777,https://maps.google.com/?cid=0x0:0x385d875a73239777,
hardware store,Toko Bahan Bangunan,Buana Fadly,"6C33+824, Karossa, Kec. Karossa, Kabupaten Mamuju, Sulawesi Barat 91512","Karossa, Kec. Karossa, Kabupaten Mamuju",SULAWESI BARAT,91512.0,Indonesia,85395764567.0,,,-1.7967481,119.4025853,https://maps.google.com/?cid=0x0:0xd7bc2ddb9906de73,
hardware store,Toko Bahan Bangunan,Toko Delta Bangunan,"8V6H+X4H, Karema, Kec. Mamuju, Kabupaten Mamuju, Sulawesi Barat 91512","Karema, Kec. Mamuju, Kabupaten Mamuju",SULAWESI BARAT,91512.0,Indonesia,81524333299.0,,,-2.6875662,118.8778488,https://maps.google.com/?cid=0x0:0x600c10af92b1cb4f,
hardware store,Toko Bahan Bangunan,Toko. Fajar Bangunan - Mamuju,"8V6G+7WH, Jl. Diponegoro, Karema, Kec. Mamuju, Kabupaten Mamuju, Sulawesi Barat 91512","Jl. Diponegoro, Karema, Kec. Mamuju, Kabupaten Mamuju",SULAWESI BARAT,91512.0,Indonesia,85930982364.0,,,-2.689321,118.8773494,https://maps.google.com/?cid=0x0:0x6d4e74a959cf61d6,
hardware store,Toko Bahan Bangunan,Toko Multi Bangunan,"Jl. Diponegoro No.c14-15, Karema, Kec. Mamuju, Kabupaten Mamuju, Sulawesi Barat 91512","Karema, Kec. Mamuju, Kabupaten Mamuju",SULAWESI BARAT,91512.0,Indonesia,81242298806.0,,,-2.6862595,118.8768742,https://maps.google.com/?cid=0x0:0xd05c6306c1a3648f,
hardware store,Toko Elektronik,22 TEKNIK BANGUNAN,"Jl. Abdul Malik Pattana Endeng, Simboro, Kec. Simboro Dan Kepulauan, Kabupaten Mamuju, Sulawesi Barat 91512","Simboro, Kec. Simboro Dan Kepulauan, Kabupaten Mamuju",SULAWESI BARAT,91512.0,Indonesia,81265476914.0,,,-2.6838018,118.8580846,https://maps.google.com/?cid=0x0:0xc78c6920f1d024b5,
hardware store,Pembangunan Perumahan,Toko Bangunan Putra Tande 5 Tapalang,"Galung, Kec. Tapalang, Kabupaten Mamuju, Sulawesi Barat 91352","Kec. Tapalang, Kabupaten Mamuju",SULAWESI BARAT,91352.0,Indonesia,85397048983.0,,,-2.8651937,118.8702682,https://maps.google.com/?cid=0x0:0x5ece193e63138999,
hardware store,Toko Bahan Bangunan,Toko Fanara,"JL. Jenderal Jl. Ahmad Yani, Binanga, Kec. Mamuju, Kabupaten Mamuju, Sulawesi Barat 91511","Binanga, Kec. Mamuju, Kabupaten Mamuju",SULAWESI BARAT,91511.0,Indonesia,81243990408.0,,,-2.6725549,118.8893335,https://maps.google.com/?cid=0x0:0x7a4407592f83068b,
hardware store,Toko Bahan Bangunan,Toko rayyan bangunan,"J57G+6GR, Toabo, Kec. Papalang, Kabupaten Mamuju, Sulawesi Barat","Kabupaten Mamuju, Sulawesi Barat",SULAWESI BARAT,,Indonesia,85399992185.0,,,-2.3868783,119.1762647,https://maps.google.com/?cid=0x0:0x65800d7e99adda83,
hardware store,Toko Fotokopi,"Percetakan,ATK , FOTO COPY KaWAN","V9M8+PQ3, Mahahe, Kec. Tobadak, Kabupaten Mamuju Tengah, Sulawesi Barat 91563","Mahahe, Kec. Tobadak, Kabupaten Mamuju Tengah",SULAWESI BARAT,91563.0,Indonesia,81241262662.0,,,-2.1157282,119.3669077,https://maps.google.com/?cid=0x0:0x3080f3b2bb9a9ca4,
hardware store,Toko Alat Listrik,Toko Mitra Listrik,"Karema, Kec. Mamuju, Kabupaten Mamuju, Sulawesi Barat 91512","Kec. Mamuju, Kabupaten Mamuju",SULAWESI BARAT,91512.0,Indonesia,81216513956.0,,,-2.6836678,118.8758437,https://maps.google.com/?cid=0x0:0x9b2d83aba9467b91,
hardware store,hardware store,Sulawesi Barat 91563,"Kabupaten Mamuju, Sulawesi Barat","Kabupaten Mamuju, Sulawesi Barat",SULAWESI BARAT,,Indonesia,,,,-2.0727011,119.5107708,https://maps.google.com/?cid=0x0:0x8bfaa35dac2725d7,
hardware store,Toko Perlengkapan Rumah,TOKO FAJAR HARAPAN Nippon paint topoyo,"W77P+HCW, Jl. Poros Majene - Mamuju, Tobadak, Kec. Tobadak, Kabupaten Mamuju Tengah, Sulawesi Barat 91563","Jl. Poros Majene - Mamuju, Tobadak, Kec. Tobadak, Kabupaten Mamuju Tengah",SULAWESI BARAT,91563.0,Indonesia,81373974815.0,,,-2.0860076,119.2860649,https://maps.google.com/?cid=0x0:0x60e2fb2e2ac626e8,
hardware store,Minimarket,MR. DIY,"W7QP+9CG, Jl. Poros Majene - Mamuju, Topoyo, Kec. Topoyo, Kabupaten Mamuju Tengah, Sulawesi Barat 91464","Jl. Poros Majene - Mamuju, Topoyo, Kec. Topoyo, Kabupaten Mamuju Tengah",SULAWESI BARAT,91464.0,Indonesia,,,,-2.0615729,119.2860777,https://maps.google.com/?cid=0x0:0x385d875a73239777,
hardware store,Toko Bahan Bangunan,TB CAHAYA 77 BANGUNAN,"Topoyo, Kec. Topoyo, Kabupaten Mamuju, Sulawesi Barat 91563","Kec. Topoyo, Kabupaten Mamuju",SULAWESI BARAT,91563.0,Indonesia,82293167421.0,,,-2.0681696,119.2854761,https://maps.google.com/?cid=0x0:0xa8b65129702b0561,
hardware store,Toko Bahan Bangunan,Tb. Mutiara Fajar nippon paint topoyo,"W79R+2MF, Tobadak, Kec. Tobadak, Kabupaten Mamuju, Sulawesi Barat 91563","Tobadak, Kec. Tobadak, Kabupaten Mamuju",SULAWESI BARAT,91563.0,Indonesia,,,,-2.0824385,119.2916777,https://maps.google.com/?cid=0x0:0x39f9cf49dacb4292,
hardware store,Toko Bahan Bangunan,Berkah Abadi Topoyo,"Tobadak, Kec. Tobadak, Kabupaten Mamuju, Sulawesi Barat 91563","Kec. Tobadak, Kabupaten Mamuju",SULAWESI BARAT,91563.0,Indonesia,82173389240.0,,,-2.0774095,119.2913376,https://maps.google.com/?cid=0x0:0x372a51d92d7114a0,
hardware store,Toko Bahan Bangunan,TK FAJAR BARKAH JUAL ALAT BANGUNAN,"Jl. Poros Majene - Mamuju, Topoyo, Kec. Topoyo, Kabupaten Mamuju Tengah, Sulawesi Barat 91563","Topoyo, Kec. Topoyo, Kabupaten Mamuju Tengah",SULAWESI BARAT,91563.0,Indonesia,81373974815.0,,,-2.0620443,119.2903474,https://maps.google.com/?cid=0x0:0x7dac4b5b2db5efa0,
hardware store,Toko Bahan Bangunan,Toko JADI bangunan,"X8P9+4XW, Salupangkang, Kec. Topoyo, Kabupaten Mamuju Tengah, Sulawesi Barat 91563","Salupangkang, Kec. Topoyo, Kabupaten Mamuju Tengah",SULAWESI BARAT,91563.0,Indonesia,81373974815.0,,,-2.0144107,119.3197132,https://maps.google.com/?cid=0x0:0xef5ca80a4f73a5aa,
hardware store,Toko Swalayan,Anugrah Mart Topoyo,"W7HP+RJM, Topoyo, Kec. Topoyo, Kabupaten Mamuju, Sulawesi Barat 91563","Topoyo, Kec. Topoyo, Kabupaten Mamuju",SULAWESI BARAT,91563.0,Indonesia,,,,-2.0704012,119.2865369,https://maps.google.com/?cid=0x0:0xbe7480957a510162,
hardware store,Toko Alat Tulis Kantor,Toko ATK Damai,"W7HM+VQ6, Topoyo, Kec. Topoyo, Kabupaten Mamuju, Sulawesi Barat 91563","Topoyo, Kec. Topoyo, Kabupaten Mamuju",SULAWESI BARAT,91563.0,Indonesia,85397955867.0,,,-2.070344,119.2843809,https://maps.google.com/?cid=0x0:0x28b2ada293226acc,
hardware store,Toko Elektronik,Toko Makassar Jaya Elektronik,"W7HP+RPV, Jl. Poros Majene - Mamuju, Topoyo, Kec. Topoyo, Kabupaten Mamuju Tengah, Sulawesi Barat 91563","Jl. Poros Majene - Mamuju, Topoyo, Kec. Topoyo, Kabupaten Mamuju Tengah",SULAWESI BARAT,91563.0,Indonesia,82254863833.0,,,-2.0703825,119.2868036,https://maps.google.com/?cid=0x0:0xb1bceb8d71174cfd,
hardware store,Toko Bahan Bangunan,TB CAHAYA BANGUNAN,"Tobadak, Kec. Tobadak, Kabupaten Mamuju, Sulawesi Barat 91563","Kec. Tobadak, Kabupaten Mamuju",SULAWESI BARAT,91563.0,Indonesia,82299999951.0,,,-2.0751897,119.2902612,https://maps.google.com/?cid=0x0:0xab184661abda07b4,
hardware store,Toko Bahan Bangunan,Toko Fikra Bangunan,"X8C5+52X, Salupangkang, Kec. Topoyo, Kabupaten Mamuju, Sulawesi Barat 91563","Salupangkang, Kec. Topoyo, Kabupaten Mamuju",SULAWESI BARAT,91563.0,Indonesia,85242916070.0,,,-2.029502,119.3076098,https://maps.google.com/?cid=0x0:0x46dffb048a9212b5,
hardware store,Toko,Toko Ainun Topoyo,"Topoyo, Kec. Topoyo, Kabupaten Mamuju Tengah, Sulawesi Barat","Kabupaten Mamuju Tengah, Sulawesi Barat",SULAWESI BARAT,,Indonesia,,,,-2.0665601,119.2821816,https://maps.google.com/?cid=0x0:0xa36f63178ca21e10,
hardware store,Toko bahan makanan,KOTA TOPOYO,"W7PM+9FF, Topoyo, Kec. Topoyo, Kabupaten Mamuju Tengah, Sulawesi Barat 91563","Topoyo, Kec. Topoyo, Kabupaten Mamuju Tengah",SULAWESI BARAT,91563.0,Indonesia,,,,-2.0640611,119.2836727,https://maps.google.com/?cid=0x0:0x8acbe1675acd626e,
hardware store,Pasar,Toko Pantai Karossa,"6C22+HXP, Dusun Mora, Karossa, Kec. Karossa, Kabupaten Mamuju Tengah, Sulawesi Barat 91512","Dusun Mora, Karossa, Kec. Karossa, Kabupaten Mamuju Tengah",SULAWESI BARAT,91512.0,Indonesia,81373974815.0,,,-1.7985411,119.4024404,https://maps.google.com/?cid=0x0:0x24dafad928bb43c3,
hardware store,Toko Swalayan,Toko Aliyah Berkah,"Tamejarra, Kec. Tommo, Kabupaten Mamuju, Sulawesi Barat 91562","Kec. Tommo, Kabupaten Mamuju",SULAWESI BARAT,91562.0,Indonesia,85213171810.0,,,-2.2807753,119.3050597,https://maps.google.com/?cid=0x0:0x17ee7186e11af3b3,
hardware store,Pusat Perbelanjaan,Toko bangunan argadinata,"Lemo-Lemo, Kec. Pangale, Kabupaten Mamuju, Sulawesi Barat 91462","Kec. Pangale, Kabupaten Mamuju",SULAWESI BARAT,91462.0,Indonesia,82331313118.0,,,-2.2972382,119.17566,https://maps.google.com/?cid=0x0:0x9eb6c7242139d7af,
hardware store,Toko Alat Tulis Kantor,Cahaya Media Fotocopy,"W7HP+WP6, Topoyo, Kec. Topoyo, Kabupaten Mamuju, Sulawesi Barat 91563","Topoyo, Kec. Topoyo, Kabupaten Mamuju",SULAWESI BARAT,91563.0,Indonesia,82343526108.0,,,-2.0702217,119.2867686,https://maps.google.com/?cid=0x0:0x69efbc983375f105,
hardware store,Toko Elektronik,Nusantara Teknik,"Jl. Poros Mamuju - Topoyo, Kalukku, Kec. Kalukku, Kabupaten Mamuju, Sulawesi Barat 91561","Kalukku, Kec. Kalukku, Kabupaten Mamuju",SULAWESI BARAT,91561.0,Indonesia,8124214996.0,,,-2.5471709,119.064666,https://maps.google.com/?cid=0x0:0xcfece9367ec47efa,
hardware store,Toko Bahan Bangunan,Citra Fajar Bangunan,"W7HP+58F, Topoyo, Kec. Topoyo, Kabupaten Mamuju, Sulawesi Barat 91563","Topoyo, Kec. Topoyo, Kabupaten Mamuju",SULAWESI BARAT,91563.0,Indonesia,81355844777.0,,,-2.0720516,119.285795,https://maps.google.com/?cid=0x0:0x2713eff2404c9fad,
hardware store,Toko Bahan Bangunan,Toko Surya Jaya Bangunan,"W7JP+MJP, Topoyo, Kec. Topoyo, Kabupaten Mamuju, Sulawesi Barat 91563","Topoyo, Kec. Topoyo, Kabupaten Mamuju",SULAWESI BARAT,91563.0,Indonesia,82198440963.0,,,-2.0682901,119.2865647,https://maps.google.com/?cid=0x0:0x3b9bbba62ed83c,
hardware store,Toko Bahan Bangunan,Toko Bangunan Sumber Baru,"X8H8+JGX, Salupangkang, Kec. Topoyo, Kabupaten Mamuju, Sulawesi Barat 91563","Salupangkang, Kec. Topoyo, Kabupaten Mamuju",SULAWESI BARAT,91563.0,Indonesia,,,,-2.0208952,119.3163699,https://maps.google.com/?cid=0x0:0x4e386c1bad376796,
hardware store,Toko Bahan Bangunan,Aska bangunan,"W7HP+65J, Topoyo, Kec. Topoyo, Kabupaten Mamuju Tengah, Sulawesi Barat 91563","Topoyo, Kec. Topoyo, Kabupaten Mamuju Tengah",SULAWESI BARAT,91563.0,Indonesia,,,,-2.0719726,119.2855337,https://maps.google.com/?cid=0x0:0xd6e59dc32b9cd463,
hardware store,Perguruan Tinggi,Topoyo mamuju tengah,"W7JP+9FW, Topoyo, Kec. Topoyo, Kabupaten Mamuju Tengah, Sulawesi Barat","Kabupaten Mamuju Tengah, Sulawesi Barat",SULAWESI BARAT,,Indonesia,82187755507.0,,,-2.0690105,119.286188,https://maps.google.com/?cid=0x0:0x559119757d256b0c,
hardware store,Toko Komputer,Top Service Electronic Topoyo,"W7MM+47M, Topoyo, Kec. Topoyo, Kabupaten Mamuju Tengah, Sulawesi Barat 91563","Topoyo, Kec. Topoyo, Kabupaten Mamuju Tengah",SULAWESI BARAT,91563.0,Indonesia,85255007188.0,,,-2.0671533,119.2831711,https://maps.google.com/?cid=0x0:0xdb74c2b3be206ee2,
hardware store,hardware store,Toko FAJAR MANDIRI,"W7HQ+924, Jl. Poros Majene - Mamuju, Topoyo, Kec. Topoyo, Kabupaten Mamuju Tengah, Sulawesi Barat 91563","Jl. Poros Majene - Mamuju, Topoyo, Kec. Topoyo, Kabupaten Mamuju Tengah",SULAWESI BARAT,91563.0,Indonesia,,,,-2.0716179,119.2875907,https://maps.google.com/?cid=0x0:0x5fef07de69642f8d,
