Category,Real Category,Business Name,Address,City,State,Postal Code,Country,Phone,Email,Website,Latitude,Longitude,Map Link,Details Link
mall,mall,Kec. Budong-Budong,"Kabupaten Mamuju Tengah, Sulawesi Barat","Kabupaten Mamuju Tengah, Sulawesi Barat",SULAWESI BARAT,,Indonesia,,,,-2.1728923,119.2291681,https://maps.google.com/?cid=0x0:0x513972b69bc5b519,
mall,Kios,FAJAR Mart,"Q6W3+PMF, Barakkang, Kec. Budong-Budong, Kabupaten Mamuju Tengah, Sulawesi Barat 91563","Barakkang, Kec. Budong-Budong, Kabupaten Mamuju Tengah",SULAWESI BARAT,91563.0,Indonesia,81242400192.0,,,-2.2035984,119.204399,https://maps.google.com/?cid=0x0:0x7a7283c2de117c89,
mall,Toko,Toko Usaha Baru,"Salogatta, Kec. Budong-Budong, Kabupaten Mamuju Tengah, Sulawesi Barat 91563","Kec. Budong-Budong, Kabupaten Mamuju Tengah",SULAWESI BARAT,91563.0,Indonesia,,,,-2.1729566,119.2255781,https://maps.google.com/?cid=0x0:0x5114f80b67fe4cbb,
mall,Pertanian,Pasar Budong-Budong,"W5FX+VMJ, Babana, Kec. Budong-Budong, Kabupaten Mamuju, Sulawesi Barat 91563","Babana, Kec. Budong-Budong, Kabupaten Mamuju",SULAWESI BARAT,91563.0,Indonesia,,,,-2.075281,119.1991361,https://maps.google.com/?cid=0x0:0x8ec5bf09967efcbb,
mall,Toko,EL-VAZA STORE,"Tinali, Kec. Budong-Budong, Kabupaten Mamuju, Sulawesi Barat 91563","Kec. Budong-Budong, Kabupaten Mamuju",SULAWESI BARAT,91563.0,Indonesia,,,,-2.1861048,119.2281892,https://maps.google.com/?cid=0x0:0x45066ff63e6f8cdb,
mall,Pusat Perbelanjaan,Abdillah Tani,"R7R8+C72, Dusun Tridaya, Pontanakayang, Kec. Budong-Budong, Kabupaten Mamuju Tengah, Sulawesi Barat 91563","Dusun Tridaya, Pontanakayang, Kec. Budong-Budong, Kabupaten Mamuju Tengah",SULAWESI BARAT,91563.0,Indonesia,85255051284.0,,,-2.158983,119.2656344,https://maps.google.com/?cid=0x0:0x35e6ec569ce3106f,
mall,Pusat Perbelanjaan,Sayur HIDROPONIK Pontanakayang,"R7P8+2HH, Jl. Pendidikan, Pontanakayang, Kec. Budong-Budong, Kabupaten Mamuju Tengah, Sulawesi Barat 91563","Jl. Pendidikan, Pontanakayang, Kec. Budong-Budong, Kabupaten Mamuju Tengah",SULAWESI BARAT,91563.0,Indonesia,,,,-2.1649483,119.2664786,https://maps.google.com/?cid=0x0:0xd34046a1b401aaae,
mall,Pusat Perbelanjaan,Kios Bellvania,"R7Q8+GHV, Pontanakayang, Kec. Budong-Budong, Kabupaten Mamuju, Sulawesi Barat 91563","Pontanakayang, Kec. Budong-Budong, Kabupaten Mamuju",SULAWESI BARAT,91563.0,Indonesia,82190366825.0,,,-2.1611295,119.2664221,https://maps.google.com/?cid=0x0:0x3495a6493d061426,
mall,Komplek perumahan,Wahyu sayur,"R6HF+2H8, Pasar, Salogatta, Kec. Budong-Budong, Kabupaten Mamuju Tengah, Sulawesi Barat 91563","Pasar, Salogatta, Kec. Budong-Budong, Kabupaten Mamuju Tengah",SULAWESI BARAT,91563.0,Indonesia,,,,-2.1724725,119.2239483,https://maps.google.com/?cid=0x0:0x15660bf9493da5c1,
mall,Toko,KIOS ANNISA,"Barakkang, Kec. Budong-Budong, Kabupaten Mamuju Tengah, Sulawesi Barat 19512","Kec. Budong-Budong, Kabupaten Mamuju Tengah",SULAWESI BARAT,19512.0,Indonesia,82343550660.0,,,-2.2034032,119.2045216,https://maps.google.com/?cid=0x0:0x34c96f3c840926eb,
mall,Pusat Perbelanjaan,Tk.istanah mainan,"R68H+GCM, Unnamed Road, Tinali, Kec. Budong-Budong, Kabupaten Mamuju Tengah, Sulawesi Barat 91563","Unnamed Road, Tinali, Kec. Budong-Budong, Kabupaten Mamuju Tengah",SULAWESI BARAT,91563.0,Indonesia,85240185348.0,,,-2.1836536,119.2285491,https://maps.google.com/?cid=0x0:0x119bf1c1ebaf0785,
mall,Kantor Perusahaan,Maleo Town Square,"Jl. Yos Sudarso No.37, Binanga, Kec. Mamuju, Kabupaten Mamuju, Sulawesi Barat 91511","Binanga, Kec. Mamuju, Kabupaten Mamuju",SULAWESI BARAT,91511.0,Indonesia,81280867009.0,,,-2.6692803,118.8916841,https://maps.google.com/?cid=0x0:0x87dbaf62ffc34e7c,
mall,Komplek perumahan,BANG AGUS,"X72C+HP5, Waeputeh, Kec. Topoyo, Kabupaten Mamuju, Sulawesi Barat 91563","Waeputeh, Kec. Topoyo, Kabupaten Mamuju",SULAWESI BARAT,91563.0,Indonesia,81342456158.0,,,-2.0486188,119.2718573,https://maps.google.com/?cid=0x0:0x493fa1f21a89c332,
mall,Pusat Perbelanjaan,Mall Sakura Plaza Topoyo,"W7GW+26X, Tobadak, Kec. Tobadak, Kabupaten Mamuju Tengah, Sulawesi Barat 91563","Tobadak, Kec. Tobadak, Kabupaten Mamuju Tengah",SULAWESI BARAT,91563.0,Indonesia,426997545.0,,,-2.0748968,119.2956069,https://maps.google.com/?cid=0x0:0x6334945963642725,
mall,Toko Swalayan,Toko Sinar Belawa,"W7FR+9HM, Tobadak, Kec. Tobadak, Kabupaten Mamuju, Sulawesi Barat 91563","Tobadak, Kec. Tobadak, Kabupaten Mamuju",SULAWESI BARAT,91563.0,Indonesia,81244230992.0,,,-2.0765451,119.291436,https://maps.google.com/?cid=0x0:0xe1e13f713095c0a6,
mall,Pusat Perbelanjaan,Pasar Rawa Indah,"Salobaja, Kec. Tobadak, Kabupaten Mamuju, Sulawesi Barat 91563","Kec. Tobadak, Kabupaten Mamuju",SULAWESI BARAT,91563.0,Indonesia,85255119281.0,,,-2.1693383,119.3177106,https://maps.google.com/?cid=0x0:0x145b60bc1edfc893,
mall,Toko Swalayan,Toko Dilva,"W7HP+R7M, Topoyo, Kec. Topoyo, Kabupaten Mamuju, Sulawesi Barat 91563","Topoyo, Kec. Topoyo, Kabupaten Mamuju",SULAWESI BARAT,91563.0,Indonesia,85335474422.0,,,-2.0704084,119.2856726,https://maps.google.com/?cid=0x0:0x481cc33e4f6961c5,
mall,,Frozen food ITB,"W75G+67G, Tobadak, Tallungallo, Kabupaten Mamuju Tengah, Sulawesi Barat 91563","Tobadak, Tallungallo, Kabupaten Mamuju Tengah",SULAWESI BARAT,91563.0,Indonesia,82372925461.0,,,-2.0919255,119.2757069,https://maps.google.com/?cid=0x0:0x48fced5d85872c97,
mall,Toko Suvenir,Aneka Grosir Barang Unik (Agrobik)- Desa Kuo,"Kuo, Kec. Pangale, Kabupaten Mamuju, Sulawesi Barat 91562","Kec. Pangale, Kabupaten Mamuju",SULAWESI BARAT,91562.0,Indonesia,81526146048.0,,,-2.2631561,119.22644,https://maps.google.com/?cid=0x0:0x3d058f842cff73cf,
mall,Pusat Perbelanjaan,MATOS MALL OTC,"8VJR+7MC, Jl. Yos Sudarso, Binanga, Kec. Mamuju, Kabupaten Mamuju, Sulawesi Barat 91511","Jl. Yos Sudarso, Binanga, Kec. Mamuju, Kabupaten Mamuju",SULAWESI BARAT,91511.0,Indonesia,,,,-2.669308,118.8916431,https://maps.google.com/?cid=0x0:0xd0c1f3bfb34f7b6,
mall,Toko Swalayan,Kios Buda,"P66W+V26, Unnamed Road, Tommo, Kec. Tommo, Kabupaten Mamuju, Sulawesi Barat 91562","Unnamed Road, Tommo, Kec. Tommo, Kabupaten Mamuju",SULAWESI BARAT,91562.0,Indonesia,,,,-2.2878292,119.245025,https://maps.google.com/?cid=0x0:0x732150ba95df97cb,
mall,mall,Cahaya Maspul,"Jalan Poros Depan SMPN 1 No.2, Tobadak, Kec. Tobadak, Kabupaten Mamuju Tengah, Sulawesi Barat 91563","Tobadak, Kec. Tobadak, Kabupaten Mamuju Tengah",SULAWESI BARAT,91563.0,Indonesia,,,,-2.1158448,119.3665374,https://maps.google.com/?cid=0x0:0xc3f4f66dd83e3999,
mall,Pusat Perbelanjaan,UD SEHATI,"W7HP+GR5, Jl. Poros Majene - Mamuju, Topoyo, Kec. Topoyo, Kabupaten Mamuju Tengah, Sulawesi Barat 91563","Jl. Poros Majene - Mamuju, Topoyo, Kec. Topoyo, Kabupaten Mamuju Tengah",SULAWESI BARAT,91563.0,Indonesia,85343933733.0,,,-2.0712439,119.2871147,https://maps.google.com/?cid=0x0:0xe8ea88df41884511,
mall,Toko Swalayan,Pasar Baru Topoyo,"W7QH+RQ8, Topoyo, Kec. Topoyo, Kabupaten Mamuju, Sulawesi Barat 91563","Topoyo, Kec. Topoyo, Kabupaten Mamuju",SULAWESI BARAT,91563.0,Indonesia,,,,-2.0604639,119.2794539,https://maps.google.com/?cid=0x0:0x252140427452d876,
mall,Toko bahan makanan,KOTA TOPOYO,"W7PM+9FF, Topoyo, Kec. Topoyo, Kabupaten Mamuju Tengah, Sulawesi Barat 91563","Topoyo, Kec. Topoyo, Kabupaten Mamuju Tengah",SULAWESI BARAT,91563.0,Indonesia,,,,-2.0640611,119.2836727,https://maps.google.com/?cid=0x0:0x8acbe1675acd626e,
mall,Kantor Pemerintah,Kantor Camat Budong-budong,"W5FX+97F, Unnamed Road, Babana, Kec. Budong-Budong, Kabupaten Mamuju Tengah, Sulawesi Barat 91563","Unnamed Road, Babana, Kec. Budong-Budong, Kabupaten Mamuju Tengah",SULAWESI BARAT,91563.0,Indonesia,,,,-2.0765514,119.1981716,https://maps.google.com/?cid=0x0:0x7357356622232edc,
mall,mall,Mama pa'li,"V58R+JQM, Unnamed Road, Kire, Kec. Budong-Budong, Kabupaten Mamuju Tengah, Sulawesi Barat 91563","Unnamed Road, Kire, Kec. Budong-Budong, Kabupaten Mamuju Tengah",SULAWESI BARAT,91563.0,Indonesia,,,,-2.1334093,119.1919211,https://maps.google.com/?cid=0x0:0x3148a1c2980aa44a,
mall,mall,Sulawesi Barat 91512,"Kabupaten Mamuju, Sulawesi Barat","Kabupaten Mamuju, Sulawesi Barat",SULAWESI BARAT,,Indonesia,,,,-1.8494265,119.5339711,https://maps.google.com/?cid=0x0:0x8e21c401717b8ceb,
mall,Kantor Perusahaan,Maleo Town Square,"Jl. Yos Sudarso No.37, Binanga, Kec. Mamuju, Kabupaten Mamuju, Sulawesi Barat 91511","Binanga, Kec. Mamuju, Kabupaten Mamuju",SULAWESI BARAT,91511.0,Indonesia,81280867009.0,,,-2.6692803,118.8916841,https://maps.google.com/?cid=0x0:0x87dbaf62ffc34e7c,
mall,Pasar,Pasar Karossa,"6C32+67M, Karossa, Kec. Karossa, Kabupaten Mamuju, Sulawesi Barat 91512","Karossa, Kec. Karossa, Kabupaten Mamuju",SULAWESI BARAT,91512.0,Indonesia,,,,-1.796916,119.4006772,https://maps.google.com/?cid=0x0:0xf6c900f016fe6c9c,
mall,mall,Kec. Karossa,"Kabupaten Mamuju Tengah, Sulawesi Barat","Kabupaten Mamuju Tengah, Sulawesi Barat",SULAWESI BARAT,,Indonesia,,,,-1.9002925,119.5571677,https://maps.google.com/?cid=0x0:0x7642c96bedba1585,
mall,Toko Ponsel,SM Cell,"5CX3+725, Lembah Hopo, Kec. Karossa, Kabupaten Mamuju, Sulawesi Barat 91512","Lembah Hopo, Kec. Karossa, Kabupaten Mamuju",SULAWESI BARAT,91512.0,Indonesia,81355888161.0,,,-1.8018546,119.4026196,https://maps.google.com/?cid=0x0:0xc7c69274eea271e4,
mall,Toko Pakaian,Extreme Adventure Store Mamuju,"Jl. Abd. Syakur No.11 Blok B, Karema, Mamuju, Mamuju Regency, West Sulawesi 91512","Karema, Mamuju, Mamuju Regency",SULAWESI BARAT,91512.0,Indonesia,85242412225.0,,,-2.6831483,118.8786887,https://maps.google.com/?cid=0x0:0xd6e99e5cb6033fbc,
mall,Toko Alat Tulis Kantor,Toko ATK Mahakarya Grup,"8VM3+9JQ, Jl. Abdul Malik Pattana Endeng, Rangas, Kec. Simboro Dan Kepulauan, Kabupaten Mamuju, Sulawesi Barat 91512","Jl. Abdul Malik Pattana Endeng, Rangas, Kec. Simboro Dan Kepulauan, Kabupaten Mamuju",SULAWESI BARAT,91512.0,Indonesia,,,,-2.6665471,118.8541035,https://maps.google.com/?cid=0x0:0xe37805556116ae2c,
mall,Toko,Toko Terang Jaya,"5CH4+MJ5, Jl. Poros Majene - Mamuju, Lembah Hopo, Kec. Karossa, Kabupaten Mamuju Tengah, Sulawesi Barat 91512","Jl. Poros Majene - Mamuju, Lembah Hopo, Kec. Karossa, Kabupaten Mamuju Tengah",SULAWESI BARAT,91512.0,Indonesia,82196702319.0,,,-1.8208693,119.4066241,https://maps.google.com/?cid=0x0:0xeb6b65ba00395e5,
mall,Pusat Perbelanjaan,Matahari Maleo Town Square Mamuju,"Jl. Yos Sudarso No.7, Kabupaten Mamuju, Sulawesi Barat 91561",Kabupaten Mamuju,SULAWESI BARAT,91561.0,Indonesia,8119044421.0,,,-2.6721705,118.8885699,https://maps.google.com/?cid=0x0:0x9ef913d9d0e3e8e4,
mall,Bengkel Motor Skuter,Jor's Motor,"8V8G+6GV, Karema, Kec. Mamuju, Kabupaten Mamuju, Sulawesi Barat 91512","Karema, Kec. Mamuju, Kabupaten Mamuju",SULAWESI BARAT,91512.0,Indonesia,81231458448.0,,,-2.6843802,118.8762842,https://maps.google.com/?cid=0x0:0xf14c404f4563369f,
mall,Toko Swalayan,Fadlansyah buah,"Jl. Abd. Syakur, Karema, Kec. Mamuju, Kabupaten Mamuju, Sulawesi Barat 91512","Karema, Kec. Mamuju, Kabupaten Mamuju",SULAWESI BARAT,91512.0,Indonesia,82292085938.0,,,-2.6871415,118.8788258,https://maps.google.com/?cid=0x0:0xfbce5ec273c5d611,
mall,Pusat Perbelanjaan,Fira olshop,"8V5M+22W, Jl. Soekarno Hatta, Karema, Kec. Mamuju, Kabupaten Mamuju, Sulawesi Barat 91512","Jl. Soekarno Hatta, Karema, Kec. Mamuju, Kabupaten Mamuju",SULAWESI BARAT,91512.0,Indonesia,82393144004.0,,,-2.6923887,118.8825733,https://maps.google.com/?cid=0x0:0xc72c846494ee4c01,
mall,Pusat Perbelanjaan,SURYA MANDIRI,"Jl. Abdul Malik Pattana Endeng depan SMK 1, Rangas, Kec. Simboro Dan Kepulauan, Kabupaten Mamuju, Sulawesi Barat 91512","Rangas, Kec. Simboro Dan Kepulauan, Kabupaten Mamuju",SULAWESI BARAT,91512.0,Indonesia,85256279152.0,,,-2.6592083,118.8489541,https://maps.google.com/?cid=0x0:0x8d2ea0a5839873dc,
mall,mall,PD Cantik Karossa,"6C55+F24, Karossa, Kec. Karossa, Kabupaten Mamuju, Sulawesi Barat 91512","Karossa, Kec. Karossa, Kabupaten Mamuju",SULAWESI BARAT,91512.0,Indonesia,81221430280.0,,,-1.7913537,119.4075739,https://maps.google.com/?cid=0x0:0x6299f5ba3ec513fc,
mall,mall,Konter Tanniewa Cell Karossa,"5CX3+XJ3, Lembah Hopo, Kec. Karossa, Kabupaten Mamuju, Sulawesi Barat 91512","Lembah Hopo, Kec. Karossa, Kabupaten Mamuju",SULAWESI BARAT,91512.0,Indonesia,,,,-1.8001187,119.404043,https://maps.google.com/?cid=0x0:0xceddc6a8c14cd71a,
mall,mall,toko anugrah,"6C32+J42, Karossa, Kec. Karossa, Kabupaten Mamuju, Sulawesi Barat 91512","Karossa, Kec. Karossa, Kabupaten Mamuju",SULAWESI BARAT,91512.0,Indonesia,82194964281.0,,,-1.7959785,119.4002713,https://maps.google.com/?cid=0x0:0x566518b4b236aaac,
mall,mall,Aroell Variasi,"5CR2+8QQ, Jl. Poros Majene - Mamuju, Lembah Hopo, Kec. Karossa, Kabupaten Mamuju Tengah, Sulawesi Barat 91512","Jl. Poros Majene - Mamuju, Lembah Hopo, Kec. Karossa, Kabupaten Mamuju Tengah",SULAWESI BARAT,91512.0,Indonesia,85394045647.0,,,-1.8091637,119.401983,https://maps.google.com/?cid=0x0:0x39eac3b4507d2245,
mall,mall,Megah Bisnis Center,"8V8G+HF4, Jl. Diponegoro, Karema, Kec. Mamuju, Kabupaten Mamuju, Sulawesi Barat 91512","Jl. Diponegoro, Karema, Kec. Mamuju, Kabupaten Mamuju",SULAWESI BARAT,91512.0,Indonesia,,,,-2.6836066,118.8761946,https://maps.google.com/?cid=0x0:0xdd40ef50ce8b049a,
mall,mall,Anugrah motor,"698Q+RVR, Unnamed Road, Kayu Calla, Kec. Karossa, Kabupaten Mamuju Tengah, Sulawesi Barat 91573","Unnamed Road, Kayu Calla, Kec. Karossa, Kabupaten Mamuju Tengah",SULAWESI BARAT,91573.0,Indonesia,,,,-1.7828819,119.389649,https://maps.google.com/?cid=0x0:0x34a400ce1b386f1c,
mall,Toko bahan makanan,AGEN GALON LE MINERALE toko wirda,"Jl. Jend Sudirman No.37, Simboro, Kec. Simboro Dan Kepulauan, Kabupaten Mamuju, Sulawesi Barat 91512","Simboro, Kec. Simboro Dan Kepulauan, Kabupaten Mamuju",SULAWESI BARAT,91512.0,Indonesia,,,,-2.6844131,118.8698894,https://maps.google.com/?cid=0x0:0x8e47c084fc30bc7a,
mall,Komplek perumahan,Komplek pasar karossa,"3HX4+VVM, Salubiro, Kec. Karossa, Kabupaten Mamuju Tengah, Sulawesi Barat","Kabupaten Mamuju Tengah, Sulawesi Barat",SULAWESI BARAT,,Indonesia,,,,-1.9002925,119.5571677,https://maps.google.com/?cid=0x0:0xa38649b429569f30,
mall,Kantor Perusahaan,Kantor Camat Karossa,"6C44+C8R, Karossa, Kec. Karossa, Kabupaten Mamuju Tengah, Sulawesi Barat 91512","Karossa, Kec. Karossa, Kabupaten Mamuju Tengah",SULAWESI BARAT,91512.0,Indonesia,,,,-1.7938875,119.4057656,https://maps.google.com/?cid=0x0:0x42679c3bd7d9d146,
mall,Pusat Perbelanjaan,Berapusi Mall Mamuju,"92R5+XR7, Bebanga, Kec. Kalukku, Kabupaten Mamuju, Sulawesi Barat 91561","Bebanga, Kec. Kalukku, Kabupaten Mamuju",SULAWESI BARAT,91561.0,Indonesia,426402735.0,,,-2.6075959,119.0095516,https://maps.google.com/?cid=0x0:0x54eda637542161a6,
mall,Pusat Perbelanjaan,Kios Hafidz Hanin,"8VC7+GX7, perumahan pantai indah, Simboro, Kec. Simboro Dan Kepulauan, Kabupaten Mamuju, Sulawesi Barat 91512","perumahan pantai indah, Simboro, Kec. Simboro Dan Kepulauan, Kabupaten Mamuju",SULAWESI BARAT,91512.0,Indonesia,,,,-2.6787222,118.8649333,https://maps.google.com/?cid=0x0:0x33574cd046b37a5d,
mall,mall,Kec. Pangale,"Kabupaten Mamuju Tengah, Sulawesi Barat","Kabupaten Mamuju Tengah, Sulawesi Barat",SULAWESI BARAT,,Indonesia,,,,-2.2717045,119.1995263,https://maps.google.com/?cid=0x0:0x38044147fdebd95,
mall,Pusat Perbelanjaan,Algi Shop,"P55H+2WQ, Lemo-Lemo, Kec. Pangale, Kabupaten Mamuju, Sulawesi Barat 91563","Lemo-Lemo, Kec. Pangale, Kabupaten Mamuju",SULAWESI BARAT,91563.0,Indonesia,,,,-2.2924152,119.1798448,https://maps.google.com/?cid=0x0:0xaede557789975660,
mall,Toko umum,Nurul store,"Q54W+PV4, Polo Lereng, Kec. Pangale, Kabupaten Mamuju Tengah, Sulawesi Barat","Kabupaten Mamuju Tengah, Sulawesi Barat",SULAWESI BARAT,,Indonesia,,,,-2.243247,119.1972048,https://maps.google.com/?cid=0x0:0x38bdb93348019a88,
mall,Pasar,Pasar Rakyat Sampaga,"M5PG+H43, Tarailu, Kec. Sampaga, Kabupaten Mamuju, Sulawesi Barat 91563","Tarailu, Kec. Sampaga, Kabupaten Mamuju",SULAWESI BARAT,91563.0,Indonesia,85299647387.0,,,-2.3136175,119.1753097,https://maps.google.com/?cid=0x0:0x8375111ecde4bf61,
mall,Toko Bahan Bangunan,Mega Buana Bangunan,"Tarailu, Kec. Sampaga, Kabupaten Mamuju, Sulawesi Barat 91563","Kec. Sampaga, Kabupaten Mamuju",SULAWESI BARAT,91563.0,Indonesia,81356737526.0,,,-2.3096411,119.1743619,https://maps.google.com/?cid=0x0:0xf3f768be1c38f424,
mall,Toko Suvenir,Aneka Grosir Barang Unik (Agrobik)- Desa Kuo,"Kuo, Kec. Pangale, Kabupaten Mamuju, Sulawesi Barat 91562","Kec. Pangale, Kabupaten Mamuju",SULAWESI BARAT,91562.0,Indonesia,81526146048.0,,,-2.2631561,119.22644,https://maps.google.com/?cid=0x0:0x3d058f842cff73cf,
mall,Pusat Perbelanjaan,Ulhyee store,"depan bank bri, Jalan poros, Tarailu, Kec. Sampaga, Kabupaten Mamuju, Sulawesi Barat 91563","Jalan poros, Tarailu, Kec. Sampaga, Kabupaten Mamuju",SULAWESI BARAT,91563.0,Indonesia,,,,-2.3129949,119.1764946,https://maps.google.com/?cid=0x0:0x40b5db38acab0ae8,
mall,Toko bahan makanan,Semoga Jaya Mart,"M5GF+WRR, Jl. Poros Palu - Mamuju, Tarailu, Kec. Sampaga, Kabupaten Mamuju, Sulawesi Barat 91563","Jl. Poros Palu - Mamuju, Tarailu, Kec. Sampaga, Kabupaten Mamuju",SULAWESI BARAT,91563.0,Indonesia,,,,-2.3226278,119.1745241,https://maps.google.com/?cid=0x0:0x9779cb099eda65e8,
mall,Pusat Perbelanjaan,Pusat Pertokoan Modern Mamuju,"8VGR+XJG, Binanga, Kec. Mamuju, Kabupaten Mamuju, Sulawesi Barat 91511","Binanga, Kec. Mamuju, Kabupaten Mamuju",SULAWESI BARAT,91511.0,Indonesia,,,,-2.6725654,118.891582,https://maps.google.com/?cid=0x0:0x1d0c12cf99eef345,
mall,Toko Swalayan,UD. Cahaya Tani,"P55H+7RJ, Lemo-Lemo, Kec. Pangale, Kabupaten Mamuju, Sulawesi Barat 91563","Lemo-Lemo, Kec. Pangale, Kabupaten Mamuju",SULAWESI BARAT,91563.0,Indonesia,82343587733.0,,,-2.291792,119.179519,https://maps.google.com/?cid=0x0:0xf54b980e15dfdb43,
mall,Toko,Toko Istana mesin,"M5XG+W67, Pangale, Kec. Pangale, Kabupaten Mamuju, Sulawesi Barat 91563","Pangale, Kec. Pangale, Kabupaten Mamuju",SULAWESI BARAT,91563.0,Indonesia,82257244469.0,,,-2.3008995,119.1755264,https://maps.google.com/?cid=0x0:0xa707e8cfd973e3d6,
mall,Kantor Perusahaan,Maleo Town Square,"Jl. Yos Sudarso No.37, Binanga, Kec. Mamuju, Kabupaten Mamuju, Sulawesi Barat 91511","Binanga, Kec. Mamuju, Kabupaten Mamuju",SULAWESI BARAT,91511.0,Indonesia,81280867009.0,,,-2.6692803,118.8916841,https://maps.google.com/?cid=0x0:0x87dbaf62ffc34e7c,
mall,Kios,FAJAR Mart,"Q6W3+PMF, Barakkang, Kec. Budong-Budong, Kabupaten Mamuju Tengah, Sulawesi Barat 91563","Barakkang, Kec. Budong-Budong, Kabupaten Mamuju Tengah",SULAWESI BARAT,91563.0,Indonesia,81242400192.0,,,-2.2035984,119.204399,https://maps.google.com/?cid=0x0:0x7a7283c2de117c89,
mall,Minimarket,KIOS MBOK'DE,"P6GH+WRQ, Kuo, Kec. Pangale, Kabupaten Mamuju, Sulawesi Barat 91562","Kuo, Kec. Pangale, Kabupaten Mamuju",SULAWESI BARAT,91562.0,Indonesia,,,,-2.2726702,119.2296064,https://maps.google.com/?cid=0x0:0x5432852882d7caa2,
mall,Pusat Perbelanjaan,Berapusi Mall Mamuju,"92R5+XR7, Bebanga, Kec. Kalukku, Kabupaten Mamuju, Sulawesi Barat 91561","Bebanga, Kec. Kalukku, Kabupaten Mamuju",SULAWESI BARAT,91561.0,Indonesia,426402735.0,,,-2.6075959,119.0095516,https://maps.google.com/?cid=0x0:0x54eda637542161a6,
mall,Toko Kosmetik,Dillalova kosmetik  baby care,"Tarailu, Kec. Sampaga, Kabupaten Mamuju, Sulawesi Barat 91563","Kec. Sampaga, Kabupaten Mamuju",SULAWESI BARAT,91563.0,Indonesia,85224224402.0,,,-2.3143065,119.1763279,https://maps.google.com/?cid=0x0:0x5287cfc23ef2de4a,
mall,Pusat Perbelanjaan,Toko Hj. Tuti,"M5QG+5JQ, Tarailu, Kec. Sampaga, Kabupaten Mamuju, Sulawesi Barat 91563","Tarailu, Kec. Sampaga, Kabupaten Mamuju",SULAWESI BARAT,91563.0,Indonesia,81343674554.0,,,-2.3120416,119.1766201,https://maps.google.com/?cid=0x0:0x1453c1761d115f3f,
mall,Pusat Perbelanjaan,AsiaVita Skincare Mamuju,"P5JW+FV9, Polopangale, Kec. Pangale, Kabupaten Mamuju Tengah, Sulawesi Barat 91562","Polopangale, Kec. Pangale, Kabupaten Mamuju Tengah",SULAWESI BARAT,91562.0,Indonesia,82293029328.0,,,-2.2688307,119.1972257,https://maps.google.com/?cid=0x0:0xc535d435bf994a06,
mall,Kantor Pemerintah Distrik,Kantor Camat PANGALE,"P5HX+6JQ, Polopangale, Kec. Pangale, Kabupaten Mamuju, Sulawesi Barat 91562","Polopangale, Kec. Pangale, Kabupaten Mamuju",SULAWESI BARAT,91562.0,Indonesia,,,,-2.2719162,119.1991042,https://maps.google.com/?cid=0x0:0x3b672c86a4d8cce,
mall,Komplek perumahan,BANG AGUS,"X72C+HP5, Waeputeh, Kec. Topoyo, Kabupaten Mamuju, Sulawesi Barat 91563","Waeputeh, Kec. Topoyo, Kabupaten Mamuju",SULAWESI BARAT,91563.0,Indonesia,81342456158.0,,,-2.0486188,119.2718573,https://maps.google.com/?cid=0x0:0x493fa1f21a89c332,
mall,Toko,Toko Rezki Abadi,"M5PG+8F6, Tarailu, Kec. Sampaga, Kabupaten Mamuju, Sulawesi Barat 91563","Tarailu, Kec. Sampaga, Kabupaten Mamuju",SULAWESI BARAT,91563.0,Indonesia,85394646658.0,,,-2.3142213,119.1761303,https://maps.google.com/?cid=0x0:0xe08ac0f14744ab09,
mall,Pusat Perbelanjaan,Toko Rudhy,"M5PG+84C, Jl. Bangau, Tarailu, Kec. Sampaga, Kabupaten Mamuju, Sulawesi Barat 91563","Jl. Bangau, Tarailu, Kec. Sampaga, Kabupaten Mamuju",SULAWESI BARAT,91563.0,Indonesia,,,,-2.3141816,119.1752749,https://maps.google.com/?cid=0x0:0xfe302237f7dd5d8a,
mall,mall,Sulawesi Barat 91563,"Kabupaten Mamuju, Sulawesi Barat","Kabupaten Mamuju, Sulawesi Barat",SULAWESI BARAT,,Indonesia,,,,-2.0727011,119.5107708,https://maps.google.com/?cid=0x0:0x8bfaa35dac2725d7,
mall,Kantor Perusahaan,Kompleks Pasar Tobadak 2,"V9M7+WR7, Mahahe, Kec. Tobadak, Kabupaten Mamuju, Sulawesi Barat 91563","Mahahe, Kec. Tobadak, Kabupaten Mamuju",SULAWESI BARAT,91563.0,Indonesia,,,,-2.1152128,119.3645498,https://maps.google.com/?cid=0x0:0x55ee236b96f47ec1,
mall,Pusat Perbelanjaan,Mall Sakura Plaza Topoyo,"W7GW+26X, Tobadak, Kec. Tobadak, Kabupaten Mamuju Tengah, Sulawesi Barat 91563","Tobadak, Kec. Tobadak, Kabupaten Mamuju Tengah",SULAWESI BARAT,91563.0,Indonesia,426997545.0,,,-2.0748968,119.2956069,https://maps.google.com/?cid=0x0:0x6334945963642725,
mall,Toko Swalayan,Toko Sinar Belawa,"W7FR+9HM, Tobadak, Kec. Tobadak, Kabupaten Mamuju, Sulawesi Barat 91563","Tobadak, Kec. Tobadak, Kabupaten Mamuju",SULAWESI BARAT,91563.0,Indonesia,81244230992.0,,,-2.0765451,119.291436,https://maps.google.com/?cid=0x0:0xe1e13f713095c0a6,
mall,Kantor Perusahaan,Maleo Town Square,"Jl. Yos Sudarso No.37, Binanga, Kec. Mamuju, Kabupaten Mamuju, Sulawesi Barat 91511","Binanga, Kec. Mamuju, Kabupaten Mamuju",SULAWESI BARAT,91511.0,Indonesia,81280867009.0,,,-2.6692803,118.8916841,https://maps.google.com/?cid=0x0:0x87dbaf62ffc34e7c,
mall,Toko Swalayan,Toko Dilva,"W7HP+R7M, Topoyo, Kec. Topoyo, Kabupaten Mamuju, Sulawesi Barat 91563","Topoyo, Kec. Topoyo, Kabupaten Mamuju",SULAWESI BARAT,91563.0,Indonesia,85335474422.0,,,-2.0704084,119.2856726,https://maps.google.com/?cid=0x0:0x481cc33e4f6961c5,
mall,Toko,Toko Tomi,"W962+V5, Tobadak, Kec. Tobadak, Kabupaten Mamuju Tengah, Sulawesi Barat","Kabupaten Mamuju Tengah, Sulawesi Barat",SULAWESI BARAT,,Indonesia,,,,-2.0876889,119.3500534,https://maps.google.com/?cid=0x0:0x9ded8aa7766ecbc1,
mall,Toko,Toko Mak Aco,"WCQR+P83, Batu Parigi, Kec. Tobadak, Kabupaten Mamuju, Sulawesi Barat 91563","Batu Parigi, Kec. Tobadak, Kabupaten Mamuju",SULAWESI BARAT,91563.0,Indonesia,,,,-2.0607407,119.4408019,https://maps.google.com/?cid=0x0:0x52bf68628cff0178,
mall,Toko bahan makanan,KOTA TOPOYO,"W7PM+9FF, Topoyo, Kec. Topoyo, Kabupaten Mamuju Tengah, Sulawesi Barat 91563","Topoyo, Kec. Topoyo, Kabupaten Mamuju Tengah",SULAWESI BARAT,91563.0,Indonesia,,,,-2.0640611,119.2836727,https://maps.google.com/?cid=0x0:0x8acbe1675acd626e,
mall,Toko,Toko Yunira,"Mahahe, Kec. Tobadak, Kabupaten Mamuju Tengah, Sulawesi Barat 91563","Kec. Tobadak, Kabupaten Mamuju Tengah",SULAWESI BARAT,91563.0,Indonesia,,,,-2.115594,119.3639147,https://maps.google.com/?cid=0x0:0xaffcd4537754c84,
mall,Toko Buku >>u0026 Alat Sekolah,Toko Afifah,"V9P8+734, Unnamed Road, Mahahe, Kec. Tobadak, Kabupaten Mamuju Tengah, Sulawesi Barat 91563","Unnamed Road, Mahahe, Kec. Tobadak, Kabupaten Mamuju Tengah",SULAWESI BARAT,91563.0,Indonesia,85399334703.0,,,-2.1143662,119.3652028,https://maps.google.com/?cid=0x0:0xc76fd88b28484210,
mall,mall,Cahaya Maspul,"Jalan Poros Depan SMPN 1 No.2, Tobadak, Kec. Tobadak, Kabupaten Mamuju Tengah, Sulawesi Barat 91563","Tobadak, Kec. Tobadak, Kabupaten Mamuju Tengah",SULAWESI BARAT,91563.0,Indonesia,,,,-2.1158448,119.3665374,https://maps.google.com/?cid=0x0:0xc3f4f66dd83e3999,
mall,Toko,Toko Aneka Tas,"V9M7+WX4, Mahahe, Kec. Tobadak, Kabupaten Mamuju, Sulawesi Barat 91563","Mahahe, Kec. Tobadak, Kabupaten Mamuju",SULAWESI BARAT,91563.0,Indonesia,85255324683.0,,,-2.1152354,119.3649557,https://maps.google.com/?cid=0x0:0x1b029972aa03990d,
mall,Toko Suku Cadang Motor,Berkah motor,"Unnamed Road, Mahahe, Kec. Tobadak, Kabupaten Mamuju Tengah, Sulawesi Barat 91563","Mahahe, Kec. Tobadak, Kabupaten Mamuju Tengah",SULAWESI BARAT,91563.0,Indonesia,82349117778.0,,,-2.1156307,119.3629623,https://maps.google.com/?cid=0x0:0x282b69cb95d6cda4,
mall,Perkebunan Pohon,Kebun jeruk,"R9R9+G7P, Bambadaru, Kec. Tobadak, Kabupaten Mamuju, Sulawesi Barat 91563","Bambadaru, Kec. Tobadak, Kabupaten Mamuju",SULAWESI BARAT,91563.0,Indonesia,,,,-2.1578207,119.3685912,https://maps.google.com/?cid=0x0:0x932536264283ec9e,
mall,Pusat Perbelanjaan,Pasar Rawa Indah,"Salobaja, Kec. Tobadak, Kabupaten Mamuju, Sulawesi Barat 91563","Kec. Tobadak, Kabupaten Mamuju",SULAWESI BARAT,91563.0,Indonesia,85255119281.0,,,-2.1693383,119.3177106,https://maps.google.com/?cid=0x0:0x145b60bc1edfc893,
mall,Pusat Perbelanjaan,toko.Demmaggangka/HJ. RIA,"V9M7+WV8, Mahahe, Kec. Tobadak, Kabupaten Mamuju, Sulawesi Barat 91563","Mahahe, Kec. Tobadak, Kabupaten Mamuju",SULAWESI BARAT,91563.0,Indonesia,,,,-2.1152204,119.3646908,https://maps.google.com/?cid=0x0:0x8ac87eadbae5016f,
mall,Pusat Perbelanjaan,Sakinah buah,"W7FR+9GH, Jl. Poros Majene - Mamuju, Tobadak, Kec. Tobadak, Kabupaten Mamuju Tengah, Sulawesi Barat 91563","Jl. Poros Majene - Mamuju, Tobadak, Kec. Tobadak, Kabupaten Mamuju Tengah",SULAWESI BARAT,91563.0,Indonesia,82348000213.0,,,-2.076565,119.2913454,https://maps.google.com/?cid=0x0:0x2ac1d437d151addd,
mall,Peternakan,Kios RAHUL pusat JUALBELI KAMBING,"W89R+3R8, Tobadak, Kec. Tobadak, Kabupaten Mamuju, Sulawesi Barat 91563","Tobadak, Kec. Tobadak, Kabupaten Mamuju",SULAWESI BARAT,91563.0,Indonesia,,,,-2.0823404,119.3420698,https://maps.google.com/?cid=0x0:0x876a3b578f0fdeb,
mall,Bengkel tambal ban,Bengkel PRATAMA BAN,"Jl. Poros Majene - Mamuju No.16, Tobadak, Kec. Tobadak, Kabupaten Mamuju Tengah, Sulawesi Barat 91563","Tobadak, Kec. Tobadak, Kabupaten Mamuju Tengah",SULAWESI BARAT,91563.0,Indonesia,82301222777.0,,,-2.0819219,119.2914133,https://maps.google.com/?cid=0x0:0xa9d0871d4634d8aa,
mall,Pusat Perbelanjaan,UD. MAMA UKI,"V9QJ+32X, Palongaan, Kec. Tobadak, Kabupaten Mamuju, Sulawesi Barat 91563","Palongaan, Kec. Tobadak, Kabupaten Mamuju",SULAWESI BARAT,91563.0,Indonesia,82210400177.0,,,-2.1122571,119.3801146,https://maps.google.com/?cid=0x0:0xd9569bb24c020faf,
mall,Toko Swalayan,Kios Rahmat Reziver,"WG6M+6HQ, Batu Parigi, Kec. Tobadak, Kabupaten Mamuju, Sulawesi Barat 91563","Batu Parigi, Kec. Tobadak, Kabupaten Mamuju",SULAWESI BARAT,91563.0,Indonesia,82192220701.0,,,-2.0894174,119.5339711,https://maps.google.com/?cid=0x0:0xea5f17ed07f78451,
mall,,Frozen food ITB,"W75G+67G, Tobadak, Tallungallo, Kabupaten Mamuju Tengah, Sulawesi Barat 91563","Tobadak, Tallungallo, Kabupaten Mamuju Tengah",SULAWESI BARAT,91563.0,Indonesia,82372925461.0,,,-2.0919255,119.2757069,https://maps.google.com/?cid=0x0:0x48fced5d85872c97,
mall,Toko,Toko Hj.Rosnawati Akil,"V9M7+WW6, Mahahe, Kec. Tobadak, Kabupaten Mamuju, Sulawesi Barat 91563","Mahahe, Kec. Tobadak, Kabupaten Mamuju",SULAWESI BARAT,91563.0,Indonesia,,,,-2.1152118,119.3647667,https://maps.google.com/?cid=0x0:0xa4caa553411435ea,
mall,mall,Sulawesi Barat 91563,"Kabupaten Mamuju, Sulawesi Barat","Kabupaten Mamuju, Sulawesi Barat",SULAWESI BARAT,,Indonesia,,,,-2.0727011,119.5107708,https://maps.google.com/?cid=0x0:0x8bfaa35dac2725d7,
mall,Toko bahan makanan,KOTA TOPOYO,"W7PM+9FF, Topoyo, Kec. Topoyo, Kabupaten Mamuju Tengah, Sulawesi Barat 91563","Topoyo, Kec. Topoyo, Kabupaten Mamuju Tengah",SULAWESI BARAT,91563.0,Indonesia,,,,-2.0640611,119.2836727,https://maps.google.com/?cid=0x0:0x8acbe1675acd626e,
mall,Toko Swalayan,Pasar Baru Topoyo,"W7QH+RQ8, Topoyo, Kec. Topoyo, Kabupaten Mamuju, Sulawesi Barat 91563","Topoyo, Kec. Topoyo, Kabupaten Mamuju",SULAWESI BARAT,91563.0,Indonesia,,,,-2.0604639,119.2794539,https://maps.google.com/?cid=0x0:0x252140427452d876,
mall,Toko Swalayan,Toko Dilva,"W7HP+R7M, Topoyo, Kec. Topoyo, Kabupaten Mamuju, Sulawesi Barat 91563","Topoyo, Kec. Topoyo, Kabupaten Mamuju",SULAWESI BARAT,91563.0,Indonesia,85335474422.0,,,-2.0704084,119.2856726,https://maps.google.com/?cid=0x0:0x481cc33e4f6961c5,
mall,Pusat Perbelanjaan,UD SEHATI,"W7HP+GR5, Jl. Poros Majene - Mamuju, Topoyo, Kec. Topoyo, Kabupaten Mamuju Tengah, Sulawesi Barat 91563","Jl. Poros Majene - Mamuju, Topoyo, Kec. Topoyo, Kabupaten Mamuju Tengah",SULAWESI BARAT,91563.0,Indonesia,85343933733.0,,,-2.0712439,119.2871147,https://maps.google.com/?cid=0x0:0xe8ea88df41884511,
mall,Pusat Perbelanjaan,JoyBiz Topoyo,"W7HP+Q3Q Toko JoyBiz, Topoyo, Kec. Topoyo, Kabupaten Mamuju Tengah, Sulawesi Barat 91563","Topoyo, Kec. Topoyo, Kabupaten Mamuju Tengah",SULAWESI BARAT,91563.0,Indonesia,85231496755.0,,,-2.0705466,119.2852194,https://maps.google.com/?cid=0x0:0x96f039902fa04bfa,
mall,Komplek perumahan,BANG AGUS,"X72C+HP5, Waeputeh, Kec. Topoyo, Kabupaten Mamuju, Sulawesi Barat 91563","Waeputeh, Kec. Topoyo, Kabupaten Mamuju",SULAWESI BARAT,91563.0,Indonesia,81342456158.0,,,-2.0486188,119.2718573,https://maps.google.com/?cid=0x0:0x493fa1f21a89c332,
mall,Toko Elektronik,AMBO CELL2,"X8PC+636, Jl. Poros Palu - Mamuju, Salupangkang, Kec. Topoyo, Kabupaten Mamuju Tengah, Sulawesi Barat 91563","Jl. Poros Palu - Mamuju, Salupangkang, Kec. Topoyo, Kabupaten Mamuju Tengah",SULAWESI BARAT,91563.0,Indonesia,82121955453.0,,,-2.0144682,119.3201268,https://maps.google.com/?cid=0x0:0xd7aca4bd284c5d85,
mall,Toko,Toko asia,"W7HM+XFM, Topoyo, Kec. Topoyo, Kabupaten Mamuju Tengah, Sulawesi Barat 91563","Topoyo, Kec. Topoyo, Kabupaten Mamuju Tengah",SULAWESI BARAT,91563.0,Indonesia,85395859666.0,,,-2.0700459,119.28367,https://maps.google.com/?cid=0x0:0xf60482c9252fbf0e,
mall,Toko bahan makanan,Iccangmaspul,"W7JJ+R98, Jl. Pattanabone, Topoyo, Kec. Topoyo, Kabupaten Mamuju Tengah, Sulawesi Barat 91563","Jl. Pattanabone, Topoyo, Kec. Topoyo, Kabupaten Mamuju Tengah",SULAWESI BARAT,91563.0,Indonesia,82291572496.0,,,-2.067951,119.280954,https://maps.google.com/?cid=0x0:0x3f1f934ea966ff60,
mall,Toko bahan makanan,Semoga Jaya Mart,"M5GF+WRR, Jl. Poros Palu - Mamuju, Tarailu, Kec. Sampaga, Kabupaten Mamuju, Sulawesi Barat 91563","Jl. Poros Palu - Mamuju, Tarailu, Kec. Sampaga, Kabupaten Mamuju",SULAWESI BARAT,91563.0,Indonesia,,,,-2.3226278,119.1745241,https://maps.google.com/?cid=0x0:0x9779cb099eda65e8,
mall,Toko Swalayan,Anugrah Mart Topoyo,"W7HP+RJM, Topoyo, Kec. Topoyo, Kabupaten Mamuju, Sulawesi Barat 91563","Topoyo, Kec. Topoyo, Kabupaten Mamuju",SULAWESI BARAT,91563.0,Indonesia,,,,-2.0704012,119.2865369,https://maps.google.com/?cid=0x0:0xbe7480957a510162,
mall,Komplek perumahan,I gusti ngurah yoga adi pratama,"X8V7+72F, Unnamed Road, Bambamanurung, Kec. Topoyo, Kabupaten Mamuju Tengah, Sulawesi Barat 91563","Unnamed Road, Bambamanurung, Kec. Topoyo, Kabupaten Mamuju Tengah",SULAWESI BARAT,91563.0,Indonesia,82259651921.0,,,-2.0068088,119.3125381,https://maps.google.com/?cid=0x0:0xcd96ec6f0875a501,
mall,Toko Ponsel,Rhya cell,"Padangloang, Tumbu, Kec. Topoyo, Kabupaten Mamuju Tengah, Sulawesi Barat 91563","Tumbu, Kec. Topoyo, Kabupaten Mamuju Tengah",SULAWESI BARAT,91563.0,Indonesia,82190220022.0,,,-2.0204027,119.2314265,https://maps.google.com/?cid=0x0:0x5f07229d414331d0,
mall,Toko Perlengkapan Rumah,Toko Nayra,"W7HP+89J, Topoyo, Kec. Topoyo, Kabupaten Mamuju, Sulawesi Barat 91563","Topoyo, Kec. Topoyo, Kabupaten Mamuju",SULAWESI BARAT,91563.0,Indonesia,82194333836.0,,,-2.0716705,119.2858859,https://maps.google.com/?cid=0x0:0x9e121b336209a21c,
mall,Toko bahan makanan,Toko mario riase,"W7WF+PGC, Waeputeh, Kec. Topoyo, Kabupaten Mamuju Tengah, Sulawesi Barat 91563","Waeputeh, Kec. Topoyo, Kabupaten Mamuju Tengah",SULAWESI BARAT,91563.0,Indonesia,82250889337.0,,,-2.0531902,119.2737523,https://maps.google.com/?cid=0x0:0xc366d96eb769fa68,
mall,Toko,Toko sahabat jaya,"Jl. Poros Mamuju - Topoyo, Bunde, Kec. Sampaga, Kabupaten Mamuju, Sulawesi Barat 91563","Bunde, Kec. Sampaga, Kabupaten Mamuju",SULAWESI BARAT,91563.0,Indonesia,82290019907.0,,,-2.3358447,119.1747903,https://maps.google.com/?cid=0x0:0x1ac46bbe67269499,
mall,Toko Swalayan,Toko Sinar Belawa,"W7FR+9HM, Tobadak, Kec. Tobadak, Kabupaten Mamuju, Sulawesi Barat 91563","Tobadak, Kec. Tobadak, Kabupaten Mamuju",SULAWESI BARAT,91563.0,Indonesia,81244230992.0,,,-2.0765451,119.291436,https://maps.google.com/?cid=0x0:0xe1e13f713095c0a6,
mall,Kantor Perusahaan,Kompleks Pasar Tobadak 2,"V9M7+WR7, Mahahe, Kec. Tobadak, Kabupaten Mamuju, Sulawesi Barat 91563","Mahahe, Kec. Tobadak, Kabupaten Mamuju",SULAWESI BARAT,91563.0,Indonesia,,,,-2.1152128,119.3645498,https://maps.google.com/?cid=0x0:0x55ee236b96f47ec1,
mall,Pembangunan Perumahan,Nanda putra,"Buana Sakti, Kec. Tommo, Kabupaten Mamuju, Sulawesi Barat 91562","Kec. Tommo, Kabupaten Mamuju",SULAWESI BARAT,91562.0,Indonesia,82193254625.0,,,-2.291661,119.2773645,https://maps.google.com/?cid=0x0:0x387303f030778cf5,
mall,Toko Bahan Bangunan,Mega Buana Bangunan,"Tarailu, Kec. Sampaga, Kabupaten Mamuju, Sulawesi Barat 91563","Kec. Sampaga, Kabupaten Mamuju",SULAWESI BARAT,91563.0,Indonesia,81356737526.0,,,-2.3096411,119.1743619,https://maps.google.com/?cid=0x0:0xf3f768be1c38f424,
mall,Toko,Halal Mart,"W7MF+V7G, Paraili, Kec. Topoyo, Kabupaten Mamuju Tengah, Sulawesi Barat 91563","Paraili, Kec. Topoyo, Kabupaten Mamuju Tengah",SULAWESI BARAT,91563.0,Indonesia,85394381611.0,,,-2.0653221,119.2732179,https://maps.google.com/?cid=0x0:0xb66d55a30fb24603,
mall,Toko Kosmetik,Toko Rahma Kosmetik,"W7HM+PQP, Topoyo, Kec. Topoyo, Kabupaten Mamuju Tengah, Sulawesi Barat 91563","Topoyo, Kec. Topoyo, Kabupaten Mamuju Tengah",SULAWESI BARAT,91563.0,Indonesia,85256101124.0,,,-2.0706606,119.2844565,https://maps.google.com/?cid=0x0:0x9476aef17284ff1,
mall,Minimarket,Pangkalan Surya 55 M.nasir,"W7HP+X56, Unnamed Road, Topoyo, Kec. Topoyo, Kabupaten Mamuju Tengah, Sulawesi Barat 91563","Unnamed Road, Topoyo, Kec. Topoyo, Kabupaten Mamuju Tengah",SULAWESI BARAT,91563.0,Indonesia,81355990565.0,,,-2.070075,119.2853806,https://maps.google.com/?cid=0x0:0xefff8f65eec54a57,
mall,Kantor Perusahaan,Maleo Town Square,"Jl. Yos Sudarso No.37, Binanga, Kec. Mamuju, Kabupaten Mamuju, Sulawesi Barat 91511","Binanga, Kec. Mamuju, Kabupaten Mamuju",SULAWESI BARAT,91511.0,Indonesia,81280867009.0,,,-2.6692803,118.8916841,https://maps.google.com/?cid=0x0:0x87dbaf62ffc34e7c,
mall,Pusat Perbelanjaan,MATOS MALL OTC,"8VJR+7MC, Jl. Yos Sudarso, Binanga, Kec. Mamuju, Kabupaten Mamuju, Sulawesi Barat 91511","Jl. Yos Sudarso, Binanga, Kec. Mamuju, Kabupaten Mamuju",SULAWESI BARAT,91511.0,Indonesia,,,,-2.669308,118.8916431,https://maps.google.com/?cid=0x0:0xd0c1f3bfb34f7b6,
mall,Penjahit,Ruko Ukhuwah Gorden Tailor,"W7QG+FFH, Unnamed Road, Topoyo, Kec. Topoyo, Kabupaten Mamuju Tengah, Sulawesi Barat 91563","Unnamed Road, Topoyo, Kec. Topoyo, Kabupaten Mamuju Tengah",SULAWESI BARAT,91563.0,Indonesia,85240001765.0,,,-2.061323,119.2762259,https://maps.google.com/?cid=0x0:0xc459f75aec7d8b99,
mall,Toko,Toko Fathir,"W7JM+6F3, Topoyo, Kec. Topoyo, Kabupaten Mamuju Tengah, Sulawesi Barat 91563","Topoyo, Kec. Topoyo, Kabupaten Mamuju Tengah",SULAWESI BARAT,91563.0,Indonesia,85204211230.0,,,-2.0695008,119.2837529,https://maps.google.com/?cid=0x0:0x2e93c26f648510d6,
mall,Toko bahan makanan,Kios Alif.,"W9W3+6JW, Tabolang, Kec. Topoyo, Kabupaten Mamuju, Sulawesi Barat 91563","Tabolang, Kec. Topoyo, Kabupaten Mamuju",SULAWESI BARAT,91563.0,Indonesia,82187713680.0,,,-2.0543826,119.3540715,https://maps.google.com/?cid=0x0:0xf217597a1b48f003,
supermarket,supermarket,Kec. Budong-Budong,"Kabupaten Mamuju Tengah, Sulawesi Barat","Kabupaten Mamuju Tengah, Sulawesi Barat",SULAWESI BARAT,,Indonesia,,,,-2.1728923,119.2291681,https://maps.google.com/?cid=0x0:0x513972b69bc5b519,
supermarket,Pertanian,Pasar Budong-Budong,"W5FX+VMJ, Babana, Kec. Budong-Budong, Kabupaten Mamuju, Sulawesi Barat 91563","Babana, Kec. Budong-Budong, Kabupaten Mamuju",SULAWESI BARAT,91563.0,Indonesia,,,,-2.075281,119.1991361,https://maps.google.com/?cid=0x0:0x8ec5bf09967efcbb,
supermarket,Toko Buah dan Sayuran,Aisyah Broiler,"R6FM+X2M, Unnamed Road, Salogatta, Kec. Budong-Budong, Kabupaten Mamuju Tengah, Sulawesi Barat 91563","Unnamed Road, Salogatta, Kec. Budong-Budong, Kabupaten Mamuju Tengah",SULAWESI BARAT,91563.0,Indonesia,85396860409.0,,,-2.1732395,119.2326137,https://maps.google.com/?cid=0x0:0x648db223e369476b,
supermarket,Toko bahan makanan,Toko Kelontong Pak Sopingi,"R6GJ+QG7, Salogatta, Kec. Budong-Budong, Kabupaten Mamuju Tengah, Sulawesi Barat 91563","Salogatta, Kec. Budong-Budong, Kabupaten Mamuju Tengah",SULAWESI BARAT,91563.0,Indonesia,,,,-2.1730756,119.2312966,https://maps.google.com/?cid=0x0:0xfd50c8f93031d103,
supermarket,Toko Swalayan,UD. Oryza Sativa Sejahtera,"Salumanurung, Kec. Budong-Budong, Kabupaten Mamuju Tengah, Sulawesi Barat 91563","Kec. Budong-Budong, Kabupaten Mamuju Tengah",SULAWESI BARAT,91563.0,Indonesia,85327579330.0,,,-2.1812914,119.1990058,https://maps.google.com/?cid=0x0:0x3351a6f72ae00ffe,
supermarket,Toko,Toko NUR ZUL,"R692+C2H, Salumanurung, Kec. Budong-Budong, Kabupaten Mamuju Tengah, Sulawesi Barat 91563","Salumanurung, Kec. Budong-Budong, Kabupaten Mamuju Tengah",SULAWESI BARAT,91563.0,Indonesia,,,,-2.1814276,119.2001,https://maps.google.com/?cid=0x0:0x1b4a92ac8297fb97,
supermarket,Toko,Nadia Tuna,"W59W+QP5, Babana, Kec. Budong-Budong, Kabupaten Mamuju Tengah, Sulawesi Barat 91563","Babana, Kec. Budong-Budong, Kabupaten Mamuju Tengah",SULAWESI BARAT,91563.0,Indonesia,,,,-2.0807813,119.1967038,https://maps.google.com/?cid=0x0:0xbdac8ca9fdbde133,
supermarket,Toko bahan makanan,Risman Hasan,"R7R7+4WF, Pontanakayang, Kec. Budong-Budong, Kabupaten Mamuju, Sulawesi Barat 91563","Pontanakayang, Kec. Budong-Budong, Kabupaten Mamuju",SULAWESI BARAT,91563.0,Indonesia,,,,-2.1596805,119.2647894,https://maps.google.com/?cid=0x0:0x1561ef14b00ae681,
supermarket,Toko Perlengkapan Rumah,Toko bahan bangunan + mini market,"R5C9+C72, Lumu, Kec. Budong-Budong, Kabupaten Mamuju Tengah, Sulawesi Barat 91563","Lumu, Kec. Budong-Budong, Kabupaten Mamuju Tengah",SULAWESI BARAT,91563.0,Indonesia,82271169852.0,,,-2.1789816,119.1681373,https://maps.google.com/?cid=0x0:0xfb7763b55b5a11b4,
supermarket,Pusat Perbelanjaan,TOKO BELAWA,"Topoyo, Kec. Topoyo, Kabupaten Mamuju, Sulawesi Barat 91563","Kec. Topoyo, Kabupaten Mamuju",SULAWESI BARAT,91563.0,Indonesia,,,,-2.0664375,119.2871875,https://maps.google.com/?cid=0x0:0x3cf423ab9b096dc4,
supermarket,Toko bahan makanan,Toko kelontong pak Riyono,"R6GJ+VR2, Unnamed Road, Salogatta, Kec. Budong-Budong, Kabupaten Mamuju Tengah, Sulawesi Barat 91563","Unnamed Road, Salogatta, Kec. Budong-Budong, Kabupaten Mamuju Tengah",SULAWESI BARAT,91563.0,Indonesia,82291572256.0,,,-2.1728645,119.2320177,https://maps.google.com/?cid=0x0:0x5cfd79e82ad7c6c3,
supermarket,Toko umum,Depot Zam-Zam RO,"Q6V5+W2P, Desa Barakkang, Dusun Kayu colo, Kec Mateng, Barakkang, Kec. Budong-Budong, Kabupaten Mamuju Tengah, Sulawesi Barat 91563","Desa Barakkang, Dusun Kayu colo, Kec Mateng, Barakkang, Kec. Budong-Budong, Kabupaten Mamuju Tengah",SULAWESI BARAT,91563.0,Indonesia,82336474627.0,,,-2.2052738,119.2059809,https://maps.google.com/?cid=0x0:0x612adadf3e0cd81c,
supermarket,Toko,Askar,"R5PG+V42, Lumu, Kec. Budong-Budong, Kabupaten Mamuju Tengah, Sulawesi Barat 91563","Lumu, Kec. Budong-Budong, Kabupaten Mamuju Tengah",SULAWESI BARAT,91563.0,Indonesia,,,,-2.1620958,119.1757423,https://maps.google.com/?cid=0x0:0x6093dce2621e9bdf,
supermarket,Konsultan makanan dan minuman,Toko ARFA,"R5CX+8RG, Salumanurung, Kec. Budong-Budong, Kabupaten Mamuju Tengah, Sulawesi Barat 91563","Salumanurung, Kec. Budong-Budong, Kabupaten Mamuju Tengah",SULAWESI BARAT,91563.0,Indonesia,,,,-2.177904,119.1996283,https://maps.google.com/?cid=0x0:0xca969fc974e98bc,
supermarket,Toko bahan makanan,Anisa M,"R7V9+8VR, Pontanakayang, Kec. Budong-Budong, Kabupaten Mamuju Tengah, Sulawesi Barat 91563","Pontanakayang, Kec. Budong-Budong, Kabupaten Mamuju Tengah",SULAWESI BARAT,91563.0,Indonesia,,,,-2.1566254,119.2696534,https://maps.google.com/?cid=0x0:0x78c415478c8229c9,
supermarket,Toko bahan makanan,KIOS LINDA,"R6GC+96R, Salogatta, Kec. Budong-Budong, Kabupaten Mamuju, Sulawesi Barat 91563","Salogatta, Kec. Budong-Budong, Kabupaten Mamuju",SULAWESI BARAT,91563.0,Indonesia,82384460007.0,,,-2.1740174,119.2205235,https://maps.google.com/?cid=0x0:0xf6110c9b796c55c4,
supermarket,Toko bahan makanan,Pasar Pontanakayang,"R7Q7+9GC, Pontanakayang, Kec. Budong-Budong, Kabupaten Mamuju, Sulawesi Barat 91563","Pontanakayang, Kec. Budong-Budong, Kabupaten Mamuju",SULAWESI BARAT,91563.0,Indonesia,85398299660.0,,,-2.1615614,119.2637687,https://maps.google.com/?cid=0x0:0x12d0929e13be12a6,
supermarket,Pasar,Pontakayang,"R7R8+55F, Pontanakayang, Kec. Budong-Budong, Kabupaten Mamuju Tengah, Sulawesi Barat 91563","Pontanakayang, Kec. Budong-Budong, Kabupaten Mamuju Tengah",SULAWESI BARAT,91563.0,Indonesia,,,,-2.1595706,119.265425,https://maps.google.com/?cid=0x0:0x5b76d0dac3a4c568,
supermarket,Toko Swalayan,Ballaku Jie Kodong,"W7MG+VF5, Unnamed Road, Topoyo, Kec. Topoyo, Kabupaten Mamuju Tengah, Sulawesi Barat 91563","Unnamed Road, Topoyo, Kec. Topoyo, Kabupaten Mamuju Tengah",SULAWESI BARAT,91563.0,Indonesia,85230063393.0,,,-2.0653545,119.2762476,https://maps.google.com/?cid=0x0:0x913e1f3167d75a41,
supermarket,Minimarket,Kios Afdhall,"R7Q7+HQJ, Jl. Ki Hajar Dewantoro, Pontanakayang, Kec. Budong-Budong, Kabupaten Mamuju Tengah, Sulawesi Barat 91563","Jl. Ki Hajar Dewantoro, Pontanakayang, Kec. Budong-Budong, Kabupaten Mamuju Tengah",SULAWESI BARAT,91563.0,Indonesia,81243107565.0,,,-2.161033,119.2643792,https://maps.google.com/?cid=0x0:0x6de05f380d6c2b71,
supermarket,Pusat Perbelanjaan,Kompleks Pasar Ikan Topoyo,"W7JM+3FM, Topoyo, Kec. Topoyo, Kabupaten Mamuju, Sulawesi Barat 91563","Topoyo, Kec. Topoyo, Kabupaten Mamuju",SULAWESI BARAT,91563.0,Indonesia,85393116937.0,,,-2.0697966,119.283666,https://maps.google.com/?cid=0x0:0x122e48dfff319e04,
supermarket,Toko Pertanian,Toko Harapan Tani kompleks Pasar Topoyo,"W7HP+Q7P, Topoyo, Kec. Topoyo, Kabupaten Mamuju, Sulawesi Barat 91563","Topoyo, Kec. Topoyo, Kabupaten Mamuju",SULAWESI BARAT,91563.0,Indonesia,85298208998.0,,,-2.070525,119.2857,https://maps.google.com/?cid=0x0:0x87ac3c6bd561f8fd,
supermarket,Toko Swalayan,Anugrah Mart Topoyo,"W7HP+RJM, Topoyo, Kec. Topoyo, Kabupaten Mamuju, Sulawesi Barat 91563","Topoyo, Kec. Topoyo, Kabupaten Mamuju",SULAWESI BARAT,91563.0,Indonesia,,,,-2.0704012,119.2865369,https://maps.google.com/?cid=0x0:0xbe7480957a510162,
supermarket,supermarket,Sulawesi Barat 91512,"Kabupaten Mamuju, Sulawesi Barat","Kabupaten Mamuju, Sulawesi Barat",SULAWESI BARAT,,Indonesia,,,,-1.8494265,119.5339711,https://maps.google.com/?cid=0x0:0x8e21c401717b8ceb,
supermarket,Pasar,Pasar Karossa,"6C32+67M, Karossa, Kec. Karossa, Kabupaten Mamuju, Sulawesi Barat 91512","Karossa, Kec. Karossa, Kabupaten Mamuju",SULAWESI BARAT,91512.0,Indonesia,,,,-1.796916,119.4006772,https://maps.google.com/?cid=0x0:0xf6c900f016fe6c9c,
supermarket,Toko,Kios Rahmat,"59WV+G37, Karossa, Kec. Karossa, Kabupaten Mamuju, Sulawesi Barat 91512","Karossa, Kec. Karossa, Kabupaten Mamuju",SULAWESI BARAT,91512.0,Indonesia,,,,-1.8051917,119.3924287,https://maps.google.com/?cid=0x0:0x4b30c2363b0a9dab,
supermarket,Minimarket,Tokoh suka maju ria,"Suka Maju, Kec. Karossa, Kabupaten Mamuju Tengah, Sulawesi Barat 91512","Kec. Karossa, Kabupaten Mamuju Tengah",SULAWESI BARAT,91512.0,Indonesia,82347893835.0,,,-1.8272307,119.3969334,https://maps.google.com/?cid=0x0:0xdb58c9a5c42db403,
supermarket,Minimarket,Prct. WAHYU,"49VR+C98, Jl. Poros Majene - Mamuju, Lara, Kec. Karossa, Kabupaten Mamuju Tengah, Sulawesi Barat 91563","Jl. Poros Majene - Mamuju, Lara, Kec. Karossa, Kabupaten Mamuju Tengah",SULAWESI BARAT,91563.0,Indonesia,82193183660.0,,,-1.8564504,119.3909668,https://maps.google.com/?cid=0x0:0x8a9ee561af9641f8,
supermarket,Toko Ponsel,Valen Cell,"6FHF+QWW, Sanjango, Kec. Karossa, Kabupaten Mamuju Tengah, Sulawesi Barat 91573","Sanjango, Kec. Karossa, Kabupaten Mamuju Tengah",SULAWESI BARAT,91573.0,Indonesia,81355305449.0,,,-1.7705012,119.4748421,https://maps.google.com/?cid=0x0:0x139ecc66fa1c93ad,
supermarket,Dapur Umum,Kedai arsyila,"Jl.poros mora 1 desa kadaila/kec.karossa/kab.mamuju, Kadaila, Topoyo, Kabupaten Mamuju Tengah, Sulawesi Barat 91512","Kadaila, Topoyo, Kabupaten Mamuju Tengah",SULAWESI BARAT,91512.0,Indonesia,85398211238.0,,,-1.78268,119.3899271,https://maps.google.com/?cid=0x0:0x7dcb603cb43b7cd6,
supermarket,Toko Kelontong Asia,TOKO ARSYILA SR,"4936+F5J, Waikaya, Tasokko, Kec. Karossa, Kabupaten Mamuju Tengah, Sulawesi Barat 91563","Waikaya, Tasokko, Kec. Karossa, Kabupaten Mamuju Tengah",SULAWESI BARAT,91563.0,Indonesia,85298427017.0,,,-1.8962927,119.360393,https://maps.google.com/?cid=0x0:0x3777e7cba354cd80,
supermarket,supermarket,PENGGILINGAN DAGING,"6C66+W94, Karossa, Kec. Karossa, Kabupaten Mamuju Tengah, Sulawesi Barat","Kabupaten Mamuju Tengah, Sulawesi Barat",SULAWESI BARAT,,Indonesia,,,,-1.7877411,119.4109613,https://maps.google.com/?cid=0x0:0xaa7cd562b731e6eb,
supermarket,Kios,Bekas kios,"598J+WHQ, Suka Maju, Kec. Karossa, Kabupaten Mamuju Tengah, Sulawesi Barat","Kabupaten Mamuju Tengah, Sulawesi Barat",SULAWESI BARAT,,Indonesia,,,,-1.8326615,119.3814733,https://maps.google.com/?cid=0x0:0x78af9c1ea3cd51ed,
supermarket,Toko,Toko Ayu,"5C62+8P, Lara, Kec. Karossa, Kabupaten Mamuju, Sulawesi Barat","Kabupaten Mamuju, Sulawesi Barat",SULAWESI BARAT,,Indonesia,82238203223.0,,,-1.8392418,119.4017873,https://maps.google.com/?cid=0x0:0x103d2f7398792345,
supermarket,Toko bahan makanan,Kios Riska,"28FC+9J5, Kambunong, Kec. Karossa, Kabupaten Mamuju, Sulawesi Barat 91563","Kambunong, Kec. Karossa, Kabupaten Mamuju",SULAWESI BARAT,91563.0,Indonesia,,,,-1.9766208,119.3216018,https://maps.google.com/?cid=0x0:0xf4ce472b6dcde752,
supermarket,Toko bahan makanan,Lapak Sayur Mak Ikram,"69CV+FVF, Kadaila, Kec. Karossa, Kabupaten Mamuju Tengah, Sulawesi Barat 91573","Kadaila, Kec. Karossa, Kabupaten Mamuju Tengah",SULAWESI BARAT,91573.0,Indonesia,85320163301.0,,,-1.778813,119.3946769,https://maps.google.com/?cid=0x0:0x85a3e7c4b52089b0,
supermarket,Toko,Kios Dafin,"59FW+VX8, Suka Maju, Kec. Karossa, Kabupaten Mamuju, Sulawesi Barat 91512","Suka Maju, Kec. Karossa, Kabupaten Mamuju",SULAWESI BARAT,91512.0,Indonesia,,,,-1.8253437,119.3974632,https://maps.google.com/?cid=0x0:0xfbea12f95b2e5410,
supermarket,Minimarket,Jamur Crispy Karossa  Lumpiabeefviral,"Jln Poros Karossa No.km 7, Karossa, Kec. Karossa, Kabupaten Mamuju Tengah, Sulawesi Barat 91460","Karossa, Kec. Karossa, Kabupaten Mamuju Tengah",SULAWESI BARAT,91460.0,Indonesia,,,,-1.7958398,119.4032752,https://maps.google.com/?cid=0x0:0xd01d492a16f2d3d5,
supermarket,Pemasok Air Minum Dalam Kemasan,Galon KENARI 02,"6C22+WRV, Karossa, Kec. Karossa, Kabupaten Mamuju Tengah, Sulawesi Barat","Kabupaten Mamuju Tengah, Sulawesi Barat",SULAWESI BARAT,,Indonesia,,,,-1.7976283,119.4020493,https://maps.google.com/?cid=0x0:0x3275f90a60f6033b,
supermarket,Toko bahan makanan,KIOS SYAFANA,"3993+4C3, Tasokko, Kec. Karossa, Kabupaten Mamuju Tengah, Sulawesi Barat 91563","Tasokko, Kec. Karossa, Kabupaten Mamuju Tengah",SULAWESI BARAT,91563.0,Indonesia,,,,-1.8846473,119.3642251,https://maps.google.com/?cid=0x0:0xa1c9a39db3f74503,
supermarket,Toko Swalayan,KIOS RNI,"4946+HMQ, Dusun Batu Karampuang, Tasokko, Kec. Karossa, Kabupaten Mamuju Tengah, Sulawesi Barat","Kabupaten Mamuju Tengah, Sulawesi Barat",SULAWESI BARAT,,Indonesia,,,,-1.8935432,119.3617337,https://maps.google.com/?cid=0x0:0xae1208a4e7b8a391,
supermarket,Toko Kelontong Asia,Idaaa,"598R+P8, Suka Maju, Kec. Karossa, Kabupaten Mamuju Tengah, Sulawesi Barat","Kabupaten Mamuju Tengah, Sulawesi Barat",SULAWESI BARAT,,Indonesia,,,,-1.8331596,119.3907633,https://maps.google.com/?cid=0x0:0xec26505799d76ca6,
supermarket,Toko,Asriani Kasya,"785J+CFP, Dapurang, Kec. Dapurang, Kab. Pasangkayu, Sulawesi Barat 91573","Dapurang, Kec. Dapurang, Kab. Pasangkayu",SULAWESI BARAT,91573.0,Indonesia,85299015764.0,,,-1.7414147,119.3311979,https://maps.google.com/?cid=0x0:0xfad00b11ea2f36b3,
supermarket,Toko,BELAWA BLOK M KAROSSA,"Graha Blok M, Karossa, KM 7, Karossa, Kec. Karossa, Kabupaten Mamuju Tengah, Sulawesi Barat 91566","Karossa, KM 7, Karossa, Kec. Karossa, Kabupaten Mamuju Tengah",SULAWESI BARAT,91566.0,Indonesia,82336423547.0,,,-1.7912307,119.4077762,https://maps.google.com/?cid=0x0:0xe14ef834c19df75e,
supermarket,supermarket,Reski Karossa,"Lembah Hopo, Kec. Karossa, Kabupaten Mamuju Tengah, Sulawesi Barat","Kabupaten Mamuju Tengah, Sulawesi Barat",SULAWESI BARAT,,Indonesia,,,,-1.7994319,119.4037584,https://maps.google.com/?cid=0x0:0x3a490cb846da263b,
supermarket,Toko,Ayam potong jumbo,"Desa, Lara, Kec. Karossa, sampoang, Sulawesi Barat","sampoang, Sulawesi Barat",SULAWESI BARAT,,Indonesia,82215882944.0,,,-1.8659339,119.3731396,https://maps.google.com/?cid=0x0:0x17b6ddeb86a6a6b8,
supermarket,supermarket,Kec. Pangale,"Kabupaten Mamuju Tengah, Sulawesi Barat","Kabupaten Mamuju Tengah, Sulawesi Barat",SULAWESI BARAT,,Indonesia,,,,-2.2717045,119.1995263,https://maps.google.com/?cid=0x0:0x38044147fdebd95,
supermarket,Minimarket,Toko anugra,"M5WG+GCF, Pangale, Kec. Pangale, Kabupaten Mamuju, Sulawesi Barat 91563","Pangale, Kec. Pangale, Kabupaten Mamuju",SULAWESI BARAT,91563.0,Indonesia,,,,-2.3036837,119.1760333,https://maps.google.com/?cid=0x0:0xb5c1e413a3b0d566,
supermarket,Toko bahan makanan,Goo Mart,"M5WG+JGH, Pangale, Kec. Pangale, Kabupaten Mamuju, Sulawesi Barat","Kabupaten Mamuju, Sulawesi Barat",SULAWESI BARAT,,Indonesia,,,,-2.3029982,119.1762725,https://maps.google.com/?cid=0x0:0xe2f6b7403fb446c6,
supermarket,Pusat Perbelanjaan,UD MEGA INTAN,"P77H+R6P, Buana Sakti, Kec. Tommo, Kabupaten Mamuju, Sulawesi Barat 91562","Buana Sakti, Kec. Tommo, Kabupaten Mamuju",SULAWESI BARAT,91562.0,Indonesia,82347000218.0,,,-2.2854113,119.2780723,https://maps.google.com/?cid=0x0:0xf5c083bb9db9af35,
supermarket,Minimarket,Tiga putra mart,"P6XQ+GVX, Dusun purwodadi, Kuo, Kec. Pangale, Kabupaten Mamuju Tengah, Sulawesi Barat","Kabupaten Mamuju Tengah, Sulawesi Barat",SULAWESI BARAT,,Indonesia,,,,-2.2511479,119.239734,https://maps.google.com/?cid=0x0:0xc126c6f7f0c8d402,
supermarket,Kios,Hj sanusi,"P6J2+426, Jl. Poros Majene - Mamuju, Polopangale, Kec. Pangale, Kabupaten Mamuju Tengah, Sulawesi Barat 91562","Jl. Poros Majene - Mamuju, Polopangale, Kec. Pangale, Kabupaten Mamuju Tengah",SULAWESI BARAT,91562.0,Indonesia,,,,-2.2697066,119.2000175,https://maps.google.com/?cid=0x0:0xfd4111dd4c7d5181,
supermarket,Toko bahan makanan,Toko Cahaya Alif,"M5PG+RHP, Jl. Poros Mamuju - Topoyo, Tarailu, Kec. Sampaga, Kabupaten Mamuju, Sulawesi Barat 91563","Jl. Poros Mamuju - Topoyo, Tarailu, Kec. Sampaga, Kabupaten Mamuju",SULAWESI BARAT,91563.0,Indonesia,85298541235.0,,,-2.3129204,119.1764656,https://maps.google.com/?cid=0x0:0x196c9cf687ff6fa9,
supermarket,Toko,HIJRAH MART,"M5QG+5QV, Tarailu, Kec. Sampaga, Kabupaten Mamuju, Sulawesi Barat 91563","Tarailu, Kec. Sampaga, Kabupaten Mamuju",SULAWESI BARAT,91563.0,Indonesia,82333333275.0,,,-2.3120215,119.1769104,https://maps.google.com/?cid=0x0:0x4f070e97046da76f,
supermarket,Minimarket,Toko Top,"Pangale, Kec. Pangale, Kabupaten Mamuju, Sulawesi Barat","Kabupaten Mamuju, Sulawesi Barat",SULAWESI BARAT,,Indonesia,,,,-2.3029967,119.1762858,https://maps.google.com/?cid=0x0:0x57f3cf18fe25a2b3,
supermarket,Toko bahan makanan,kedai Naziya,"P6WQ+QV5, Kuo, Kec. Pangale, Kabupaten Mamuju Tengah, Sulawesi Barat 91562","Kuo, Kec. Pangale, Kabupaten Mamuju Tengah",SULAWESI BARAT,91562.0,Indonesia,,,,-2.2531066,119.2397247,https://maps.google.com/?cid=0x0:0x7601cf45f5c72e9c,
supermarket,Toko bahan makanan,Lalu Abdul Gani,"M569+4J9, Unnamed Road, Bunde, Kec. Sampaga, Kabupaten Mamuju, Sulawesi Barat 91563","Unnamed Road, Bunde, Kec. Sampaga, Kabupaten Mamuju",SULAWESI BARAT,91563.0,Indonesia,85341806030.0,,,-2.3397116,119.1691069,https://maps.google.com/?cid=0x0:0xb5e7dd33568d7951,
supermarket,supermarket,Alfamart Sat Campalagian,"Jl. Poros Majene - Mamuju, Polo Lereng, Kec. Pangale, Kabupaten Mamuju Tengah, Sulawesi Barat","Kabupaten Mamuju Tengah, Sulawesi Barat",SULAWESI BARAT,,Indonesia,,,,-2.2482722,119.1970911,https://maps.google.com/?cid=0x0:0xbc6ea706258f3d31,
supermarket,Percetakan Komersial,LAGAZI PRINT,"Jl. Poros Mamuju - Topoyo, Polo Lereng, Kec. Pangale, Kabupaten Mamuju Tengah, Sulawesi Barat 91563","Polo Lereng, Kec. Pangale, Kabupaten Mamuju Tengah",SULAWESI BARAT,91563.0,Indonesia,85255719235.0,,,-2.2355989,119.1953657,https://maps.google.com/?cid=0x0:0x2813079735113966,
supermarket,Toko bahan makanan,TOKO RANDI,"P6XH+3M3, Kuo, Kec. Pangale, Kabupaten Mamuju Tengah, Sulawesi Barat","Kabupaten Mamuju Tengah, Sulawesi Barat",SULAWESI BARAT,,Indonesia,,,,-2.2523673,119.2291712,https://maps.google.com/?cid=0x0:0x407a5f79a28815e,
supermarket,supermarket,Gmart,"Tarailu, Kec. Sampaga, Kabupaten Mamuju, Sulawesi Barat","Kabupaten Mamuju, Sulawesi Barat",SULAWESI BARAT,,Indonesia,,,,-2.3165423,119.1754695,https://maps.google.com/?cid=0x0:0xe2cd6d69d8b0080a,
supermarket,Minimarket,Toko kelontong,"P5V4+JRJ, Dusun tambak rejo, Kombiling, Kec. Pangale, Kabupaten Mamuju Tengah, Sulawesi Barat","Kabupaten Mamuju Tengah, Sulawesi Barat",SULAWESI BARAT,,Indonesia,,,,-2.2559191,119.1570256,https://maps.google.com/?cid=0x0:0x17338981ae83ef7e,
supermarket,Toko Swalayan,toko nyai,"P6WF+J8, Kuo, Kec. Pangale, Kabupaten Mamuju Tengah, Sulawesi Barat","Kabupaten Mamuju Tengah, Sulawesi Barat",SULAWESI BARAT,,Indonesia,,,,-2.2532269,119.2230849,https://maps.google.com/?cid=0x0:0xd264b03f7e4ad606,
supermarket,Kantor Perusahaan,CV. JAYA SARIRA (Pusat),"JL KH Dewantara 116 91562, Tommo, Kec. Tommo, Kabupaten Mamuju, Sulawesi Barat 91562","Tommo, Kec. Tommo, Kabupaten Mamuju",SULAWESI BARAT,91562.0,Indonesia,81342681134.0,,,-2.281244,119.2432602,https://maps.google.com/?cid=0x0:0xed34608688c26921,
supermarket,Kios,Kios hj namang,"M5RF+WW9, Tarailu, Kec. Sampaga, Kabupaten Mamuju, Sulawesi Barat 91563","Tarailu, Kec. Sampaga, Kabupaten Mamuju",SULAWESI BARAT,91563.0,Indonesia,,,,-2.3077206,119.1748734,https://maps.google.com/?cid=0x0:0x3dc5ce77394f9ee8,
supermarket,Toko bahan makanan,Toko mutiara,"Tarailu, Kec. Sampaga, Kabupaten Mamuju, Sulawesi Barat 91563","Kec. Sampaga, Kabupaten Mamuju",SULAWESI BARAT,91563.0,Indonesia,,,,-2.3261435,119.1743884,https://maps.google.com/?cid=0x0:0x35b97711543c80df,
supermarket,Toko Swalayan,UD. Oryza Sativa Sejahtera,"Salumanurung, Kec. Budong-Budong, Kabupaten Mamuju Tengah, Sulawesi Barat 91563","Kec. Budong-Budong, Kabupaten Mamuju Tengah",SULAWESI BARAT,91563.0,Indonesia,85327579330.0,,,-2.1812914,119.1990058,https://maps.google.com/?cid=0x0:0x3351a6f72ae00ffe,
supermarket,Toko bahan makanan,Toko AffandiJaya,"M67G+XWF, Tanambua, Kec. Sampaga, Kabupaten Mamuju, Sulawesi Barat 91563","Tanambua, Kec. Sampaga, Kabupaten Mamuju",SULAWESI BARAT,91563.0,Indonesia,85245707599.0,,,-2.3350659,119.2272981,https://maps.google.com/?cid=0x0:0xb0adf86ba654c85d,
supermarket,Toko bahan makanan,Toko Tulip,"Jl. Emmy Saelan No.2, Binanga, Kec. Mamuju, Kabupaten Mamuju, Sulawesi Barat 91511","Binanga, Kec. Mamuju, Kabupaten Mamuju",SULAWESI BARAT,91511.0,Indonesia,,,,-2.6733131,118.8897662,https://maps.google.com/?cid=0x0:0xc800d68ee84336f6,
supermarket,Toko,TOKO Anugrah Papalang,"H5C4+GW9, jl poros smk, Papalang, Kec. Papalang, Kabupaten Mamuju, Sulawesi Barat 91561","jl poros smk, Papalang, Kec. Papalang, Kabupaten Mamuju",SULAWESI BARAT,91561.0,Indonesia,,,,-2.4287142,119.1573704,https://maps.google.com/?cid=0x0:0x5b36dc576cf4d40b,
supermarket,Martabak,Martabak Lana Fatih,"P5JX+5RG, Polopangale, Kec. Pangale, Kabupaten Mamuju, Sulawesi Barat","Kabupaten Mamuju, Sulawesi Barat",SULAWESI BARAT,,Indonesia,,,,-2.2695647,119.1995763,https://maps.google.com/?cid=0x0:0x69302dae17cc35f8,
supermarket,Minimarket,Kios Jufri Nohari,"Kalepu, Kec. Tommo, Kabupaten Mamuju, Sulawesi Barat 91563","Kec. Tommo, Kabupaten Mamuju",SULAWESI BARAT,91563.0,Indonesia,85240893233.0,,,-2.3179286,119.2093323,https://maps.google.com/?cid=0x0:0xb186e208999cd31a,
supermarket,supermarket,Sulawesi Barat 91563,"Kabupaten Mamuju, Sulawesi Barat","Kabupaten Mamuju, Sulawesi Barat",SULAWESI BARAT,,Indonesia,,,,-2.0727011,119.5107708,https://maps.google.com/?cid=0x0:0x8bfaa35dac2725d7,
supermarket,Toko umum,Toko Bintang Timur,"V9M8+P5W, Unnamed Rd, Mahahe, Kec. Tobadak, Kabupaten Mamuju Tengah, Sulawesi Barat 91563","Unnamed Rd, Mahahe, Kec. Tobadak, Kabupaten Mamuju Tengah",SULAWESI BARAT,91563.0,Indonesia,81343516477.0,,,-2.1156428,119.3654429,https://maps.google.com/?cid=0x0:0xafca44dd7e671f74,
supermarket,Pusat Perbelanjaan,TOKO BELAWA,"Topoyo, Kec. Topoyo, Kabupaten Mamuju, Sulawesi Barat 91563","Kec. Topoyo, Kabupaten Mamuju",SULAWESI BARAT,91563.0,Indonesia,,,,-2.0664375,119.2871875,https://maps.google.com/?cid=0x0:0x3cf423ab9b096dc4,
supermarket,Toko Swalayan,Niar ks,"W77Q+P6W, Jl. Poros Majene - Mamuju, Tobadak, Kec. Tobadak, Kabupaten Mamuju Tengah, Sulawesi Barat 91563","Jl. Poros Majene - Mamuju, Tobadak, Kec. Tobadak, Kabupaten Mamuju Tengah",SULAWESI BARAT,91563.0,Indonesia,,,,-2.0856474,119.2880742,https://maps.google.com/?cid=0x0:0xad2e6af79018e94d,
supermarket,Pusat Perbelanjaan,TOKO ALIFAH,"W77Q+Q76, Jl. Poros Majene - Mamuju, Tobadak, Kec. Tobadak, Kabupaten Mamuju Tengah, Sulawesi Barat 91563","Jl. Poros Majene - Mamuju, Tobadak, Kec. Tobadak, Kabupaten Mamuju Tengah",SULAWESI BARAT,91563.0,Indonesia,,,,-2.0855951,119.2881452,https://maps.google.com/?cid=0x0:0xa2b0b2f768bc934d,
supermarket,Pusat Perbelanjaan,Pasar tobadak 1,"W85W+XP9, Tobadak, Kec. Tobadak, Kabupaten Mamuju, Sulawesi Barat 91563","Tobadak, Kec. Tobadak, Kabupaten Mamuju",SULAWESI BARAT,91563.0,Indonesia,,,,-2.0907779,119.3477279,https://maps.google.com/?cid=0x0:0x7fbf210f90cbee37,
supermarket,Rumah Kayu,KOMPLEX PASAR TOBADAK 8,"RCRX+GHP, Sejati, Kec. Tobadak, Kabupaten Mamuju, Sulawesi Barat 91563","Sejati, Kec. Tobadak, Kabupaten Mamuju",SULAWESI BARAT,91563.0,Indonesia,,,,-2.1586597,119.4489441,https://maps.google.com/?cid=0x0:0x87d19c2e5d3ca16b,
supermarket,Toko Swalayan,Anugrah Mart Topoyo,"W7HP+RJM, Topoyo, Kec. Topoyo, Kabupaten Mamuju, Sulawesi Barat 91563","Topoyo, Kec. Topoyo, Kabupaten Mamuju",SULAWESI BARAT,91563.0,Indonesia,,,,-2.0704012,119.2865369,https://maps.google.com/?cid=0x0:0xbe7480957a510162,
supermarket,Minimarket,SHALZMART,"Unnamed Road, Salupangkang, Kec. Topoyo, Kabupaten Mamuju Tengah, Sulawesi Barat 91563","Salupangkang, Kec. Topoyo, Kabupaten Mamuju Tengah",SULAWESI BARAT,91563.0,Indonesia,82347216046.0,,,-2.0154671,119.3197548,https://maps.google.com/?cid=0x0:0x58ade56b57c0afd7,
supermarket,Toko bahan makanan,Toko Tere,"Unnamed Road, Waeputeh, Kec. Topoyo, Kabupaten Mamuju Tengah, Sulawesi Barat 91563","Waeputeh, Kec. Topoyo, Kabupaten Mamuju Tengah",SULAWESI BARAT,91563.0,Indonesia,,,,-2.0469824,119.2705446,https://maps.google.com/?cid=0x0:0x7f4c95490859f493,
supermarket,Toko bahan makanan,Kios AL,"V7X6+FWC, Jl. Poros Majene - Mamuju, Tobadak, Kec. Tobadak, Kabupaten Mamuju Tengah, Sulawesi Barat 91563","Jl. Poros Majene - Mamuju, Tobadak, Kec. Tobadak, Kabupaten Mamuju Tengah",SULAWESI BARAT,91563.0,Indonesia,82291031771.0,,,-2.1013168,119.26227,https://maps.google.com/?cid=0x0:0xb1b3aae0b3af7a3c,
supermarket,Toko Swalayan,Toko Razqya Grosir,"JLN Poros, Salulekbo, Kec. Topoyo, Kabupaten Mamuju Tengah, Sulawesi Barat 91564","Salulekbo, Kec. Topoyo, Kabupaten Mamuju Tengah",SULAWESI BARAT,91564.0,Indonesia,82296448083.0,,,-2.047258,119.4143843,https://maps.google.com/?cid=0x0:0xd70a26ab6dbee1b0,
supermarket,Toko bahan makanan,Jualan Sembako,"V928+V5, Salobaja, Kec. Tobadak, Kabupaten Mamuju Tengah, Sulawesi Barat","Kabupaten Mamuju Tengah, Sulawesi Barat",SULAWESI BARAT,,Indonesia,,,,-2.1474891,119.3667012,https://maps.google.com/?cid=0x0:0xc2be15d25ead6228,
supermarket,Toko bahan makanan,Toko Nabila,"Jln trans sulawesi (Topoyo-Mamuju, Dusun manurung, Kec. Tobadak, Kabupaten Mamuju Tengah, Sulawesi Barat 91464","Dusun manurung, Kec. Tobadak, Kabupaten Mamuju Tengah",SULAWESI BARAT,91464.0,Indonesia,82196135349.0,,,-2.0960356,119.2662491,https://maps.google.com/?cid=0x0:0x4233527ca2c464f3,
supermarket,Toko,Kios NurAisyah,"W7WC+323, Unnamed Road, Kabubu, Kec. Topoyo, Kabupaten Mamuju Tengah, Sulawesi Barat 91563","Unnamed Road, Kabubu, Kec. Topoyo, Kabupaten Mamuju Tengah",SULAWESI BARAT,91563.0,Indonesia,82347946468.0,,,-2.0548508,119.2700345,https://maps.google.com/?cid=0x0:0x26db2fde33cedb88,
supermarket,Toko Ponsel,UD SINAR ABADI,"W7CR+VV5, Tobadak, Kec. Tobadak, Kabupaten Mamuju Tengah, Sulawesi Barat 91563","Tobadak, Kec. Tobadak, Kabupaten Mamuju Tengah",SULAWESI BARAT,91563.0,Indonesia,85337447777.0,,,-2.0778647,119.2922213,https://maps.google.com/?cid=0x0:0x48b059bb08df5063,
supermarket,Toko bahan makanan,Warung,"R9X9+9HH, Bambadaru, Kec. Tobadak, Kabupaten Mamuju, Sulawesi Barat 91563","Bambadaru, Kec. Tobadak, Kabupaten Mamuju",SULAWESI BARAT,91563.0,Indonesia,,,,-2.1518936,119.3693012,https://maps.google.com/?cid=0x0:0xf09b6e6ffc9bad4f,
supermarket,Toko,Furqam/Rusbani,"W86W+FRR, Jl. Daeng Macirrinae, Tobadak, Kec. Tobadak, Kabupaten Mamuju Tengah, Sulawesi Barat 91563","Jl. Daeng Macirrinae, Tobadak, Kec. Tobadak, Kabupaten Mamuju Tengah",SULAWESI BARAT,91563.0,Indonesia,85395334912.0,,,-2.0887746,119.3470286,https://maps.google.com/?cid=0x0:0x82ac4d0f365f44e2,
supermarket,Toko,Kios campur andika,"V8VX+G3H, Tobadak, Kec. Tobadak, Kabupaten Mamuju Tengah, Sulawesi Barat 91563","Tobadak, Kec. Tobadak, Kabupaten Mamuju Tengah",SULAWESI BARAT,91563.0,Indonesia,,,,-2.1062136,119.3485167,https://maps.google.com/?cid=0x0:0xfb78389d8556a213,
supermarket,Toko Mebel,Amazone Topoyo,"W7FR+H89, Tobadak, Kec. Tobadak, Kabupaten Mamuju Tengah, Sulawesi Barat 91563","Tobadak, Kec. Tobadak, Kabupaten Mamuju Tengah",SULAWESI BARAT,91563.0,Indonesia,,,,-2.0760679,119.2908506,https://maps.google.com/?cid=0x0:0x1664795f8328d132,
supermarket,Pusat Perbelanjaan,Kompleks Pasar Sulobaja,"V957+W58, Salobaja, Kec. Tobadak, Kabupaten Mamuju, Sulawesi Barat 91563","Salobaja, Kec. Tobadak, Kabupaten Mamuju",SULAWESI BARAT,91563.0,Indonesia,,,,-2.1402081,119.3629431,https://maps.google.com/?cid=0x0:0x2b5aad2b84312270,
supermarket,Toko Ponsel,RISMA CELL,"Jl. Poros Majene - Mamuju No.18, Tobadak, Kec. Tobadak, Kabupaten Mamuju Tengah, Sulawesi Barat 91563","Tobadak, Kec. Tobadak, Kabupaten Mamuju Tengah",SULAWESI BARAT,91563.0,Indonesia,82192623352.0,,,-2.0803427,119.2917255,https://maps.google.com/?cid=0x0:0x570e72707a31bce6,
supermarket,Toko,Kios Arnol,"V9VM+8HR, Palongaan, Kec. Tobadak, Kabupaten Mamuju, Sulawesi Barat 91563","Palongaan, Kec. Tobadak, Kabupaten Mamuju",SULAWESI BARAT,91563.0,Indonesia,,,,-2.106644,119.383904,https://maps.google.com/?cid=0x0:0xe811a1bfa2c82d9f,
supermarket,Toko,Bunda Yuyud Tobadak,"W85X+59W, Tobadak, Kec. Tobadak, Kabupaten Mamuju, Sulawesi Barat 91563","Tobadak, Kec. Tobadak, Kabupaten Mamuju",SULAWESI BARAT,91563.0,Indonesia,,,,-2.0922185,119.3479415,https://maps.google.com/?cid=0x0:0xcb44e7ba1563c5a,
supermarket,Toko Pertanian,Toko Harapan Tani kompleks Pasar Topoyo,"W7HP+Q7P, Topoyo, Kec. Topoyo, Kabupaten Mamuju, Sulawesi Barat 91563","Topoyo, Kec. Topoyo, Kabupaten Mamuju",SULAWESI BARAT,91563.0,Indonesia,85298208998.0,,,-2.070525,119.2857,https://maps.google.com/?cid=0x0:0x87ac3c6bd561f8fd,
supermarket,Toko bahan makanan,TOKO CAMPURAN TANTE,"V9M7+MMW, Jalan Poros Mahahe, Palongaan, Kec. Tobadak, Kabupaten Mamuju Tengah, Sulawesi Barat 91563","Jalan Poros Mahahe, Palongaan, Kec. Tobadak, Kabupaten Mamuju Tengah",SULAWESI BARAT,91563.0,Indonesia,,,,-2.1157507,119.3641913,https://maps.google.com/?cid=0x0:0x6ef8c108fce1e942,
supermarket,supermarket,Sulawesi Barat 91563,"Kabupaten Mamuju, Sulawesi Barat","Kabupaten Mamuju, Sulawesi Barat",SULAWESI BARAT,,Indonesia,,,,-2.0727011,119.5107708,https://maps.google.com/?cid=0x0:0x8bfaa35dac2725d7,
supermarket,Pusat Perbelanjaan,TOKO BELAWA,"Topoyo, Kec. Topoyo, Kabupaten Mamuju, Sulawesi Barat 91563","Kec. Topoyo, Kabupaten Mamuju",SULAWESI BARAT,91563.0,Indonesia,,,,-2.0664375,119.2871875,https://maps.google.com/?cid=0x0:0x3cf423ab9b096dc4,
supermarket,Pusat Perbelanjaan,Kompleks Pasar Ikan Topoyo,"W7JM+3FM, Topoyo, Kec. Topoyo, Kabupaten Mamuju, Sulawesi Barat 91563","Topoyo, Kec. Topoyo, Kabupaten Mamuju",SULAWESI BARAT,91563.0,Indonesia,85393116937.0,,,-2.0697966,119.283666,https://maps.google.com/?cid=0x0:0x122e48dfff319e04,
supermarket,Toko Swalayan,Anugrah Mart Topoyo,"W7HP+RJM, Topoyo, Kec. Topoyo, Kabupaten Mamuju, Sulawesi Barat 91563","Topoyo, Kec. Topoyo, Kabupaten Mamuju",SULAWESI BARAT,91563.0,Indonesia,,,,-2.0704012,119.2865369,https://maps.google.com/?cid=0x0:0xbe7480957a510162,
supermarket,Toko bahan makanan,Tk. MARANNU TOPOYO,"W7MP+GX6, Topoyo, Kec. Topoyo, Kabupaten Mamuju, Sulawesi Barat 91563","Topoyo, Kec. Topoyo, Kabupaten Mamuju",SULAWESI BARAT,91563.0,Indonesia,82393818717.0,,,-2.0662132,119.287387,https://maps.google.com/?cid=0x0:0xc18d14c8e2a2b866,
supermarket,Toko bahan makanan,KUPA ONE MART TOPOYO,"W7PP+X94, Topoyo, Kec. Topoyo, Kabupaten Mamuju Tengah, Sulawesi Barat 91563","Topoyo, Kec. Topoyo, Kabupaten Mamuju Tengah",SULAWESI BARAT,91563.0,Indonesia,8113377567.0,,,-2.0626549,119.2862703,https://maps.google.com/?cid=0x0:0x1348470aaa73e11c,
supermarket,Toko bahan makanan,Toko Tere,"Unnamed Road, Waeputeh, Kec. Topoyo, Kabupaten Mamuju Tengah, Sulawesi Barat 91563","Waeputeh, Kec. Topoyo, Kabupaten Mamuju Tengah",SULAWESI BARAT,91563.0,Indonesia,,,,-2.0469824,119.2705446,https://maps.google.com/?cid=0x0:0x7f4c95490859f493,
supermarket,Toko Swalayan,Pasar Baru Topoyo,"W7QH+RQ8, Topoyo, Kec. Topoyo, Kabupaten Mamuju, Sulawesi Barat 91563","Topoyo, Kec. Topoyo, Kabupaten Mamuju",SULAWESI BARAT,91563.0,Indonesia,,,,-2.0604639,119.2794539,https://maps.google.com/?cid=0x0:0x252140427452d876,
supermarket,Kompleks Kondominium,Mamuju tengah,"W7JP+36W, Topoyo, Kec. Topoyo, Kabupaten Mamuju, Sulawesi Barat","Kabupaten Mamuju, Sulawesi Barat",SULAWESI BARAT,,Indonesia,,,,-2.0697559,119.2855883,https://maps.google.com/?cid=0x0:0x807f1503914d0049,
supermarket,Minimarket,SHALZMART,"Unnamed Road, Salupangkang, Kec. Topoyo, Kabupaten Mamuju Tengah, Sulawesi Barat 91563","Salupangkang, Kec. Topoyo, Kabupaten Mamuju Tengah",SULAWESI BARAT,91563.0,Indonesia,82347216046.0,,,-2.0154671,119.3197548,https://maps.google.com/?cid=0x0:0x58ade56b57c0afd7,
supermarket,Minimarket,Marlia Mart,"Unnamed Road, Tangkou, Kec. Topoyo, Kabupaten Mamuju Tengah, Sulawesi Barat 91563","Tangkou, Kec. Topoyo, Kabupaten Mamuju Tengah",SULAWESI BARAT,91563.0,Indonesia,82197118340.0,,,-2.0502634,119.3032798,https://maps.google.com/?cid=0x0:0xf3592780c2ce1a8e,
supermarket,Toko,Toko Naga Mas,"W7PP+RGV, Topoyo, Kec. Topoyo, Kabupaten Mamuju, Sulawesi Barat 91563","Topoyo, Kec. Topoyo, Kabupaten Mamuju",SULAWESI BARAT,91563.0,Indonesia,,,,-2.0628968,119.2862979,https://maps.google.com/?cid=0x0:0xca6c2573ad67a4,
supermarket,Toko,KIOS CHA-CHA,"Jl. Poros Majene - Mamuju, Topoyo, Kec. Topoyo, Kabupaten Mamuju, Sulawesi Barat 91563","Topoyo, Kec. Topoyo, Kabupaten Mamuju",SULAWESI BARAT,91563.0,Indonesia,82188035525.0,,,-2.0632276,119.2861839,https://maps.google.com/?cid=0x0:0xf183da54d86bac37,
supermarket,Toko,TOKO SINAR MANDAR,"Topoyo, Kec. Topoyo, Kabupaten Mamuju, Sulawesi Barat 91563","Kec. Topoyo, Kabupaten Mamuju",SULAWESI BARAT,91563.0,Indonesia,82347192367.0,,,-2.0695417,119.2850617,https://maps.google.com/?cid=0x0:0x2ab9731cb6898d27,
supermarket,Toko Swalayan,mamank oblitz,"W7MH+VF2, Topoyo, Kec. Topoyo, Kabupaten Mamuju, Sulawesi Barat 91563","Topoyo, Kec. Topoyo, Kabupaten Mamuju",SULAWESI BARAT,91563.0,Indonesia,81241777234.0,,,-2.0653515,119.2786339,https://maps.google.com/?cid=0x0:0x2ed0c60fdc3d67b,
supermarket,Toko Swalayan,Ballaku Jie Kodong,"W7MG+VF5, Unnamed Road, Topoyo, Kec. Topoyo, Kabupaten Mamuju Tengah, Sulawesi Barat 91563","Unnamed Road, Topoyo, Kec. Topoyo, Kabupaten Mamuju Tengah",SULAWESI BARAT,91563.0,Indonesia,85230063393.0,,,-2.0653545,119.2762476,https://maps.google.com/?cid=0x0:0x913e1f3167d75a41,
supermarket,Toko umum,Toko Bintang Timur,"V9M8+P5W, Unnamed Rd, Mahahe, Kec. Tobadak, Kabupaten Mamuju Tengah, Sulawesi Barat 91563","Unnamed Rd, Mahahe, Kec. Tobadak, Kabupaten Mamuju Tengah",SULAWESI BARAT,91563.0,Indonesia,81343516477.0,,,-2.1156428,119.3654429,https://maps.google.com/?cid=0x0:0xafca44dd7e671f74,
supermarket,Toko bahan makanan,KOTA TOPOYO,"W7PM+9FF, Topoyo, Kec. Topoyo, Kabupaten Mamuju Tengah, Sulawesi Barat 91563","Topoyo, Kec. Topoyo, Kabupaten Mamuju Tengah",SULAWESI BARAT,91563.0,Indonesia,,,,-2.0640611,119.2836727,https://maps.google.com/?cid=0x0:0x8acbe1675acd626e,
supermarket,Toko,Kios NurAisyah,"W7WC+323, Unnamed Road, Kabubu, Kec. Topoyo, Kabupaten Mamuju Tengah, Sulawesi Barat 91563","Unnamed Road, Kabubu, Kec. Topoyo, Kabupaten Mamuju Tengah",SULAWESI BARAT,91563.0,Indonesia,82347946468.0,,,-2.0548508,119.2700345,https://maps.google.com/?cid=0x0:0x26db2fde33cedb88,
supermarket,Minimarket,Asma cell,"X8CM+R4W, Jl. Poros Majene - Mamuju, Tabolang, Kec. Topoyo, Kabupaten Mamuju Tengah, Sulawesi Barat 91563","Jl. Poros Majene - Mamuju, Tabolang, Kec. Topoyo, Kabupaten Mamuju Tengah",SULAWESI BARAT,91563.0,Indonesia,,,,-2.0278951,119.3328308,https://maps.google.com/?cid=0x0:0x22366528a39edd1e,
supermarket,Toko,Goo Goo Mart,"W7PG+VRX, Jl. Pattanabone, Topoyo, Kec. Topoyo, Kabupaten Mamuju Tengah, Sulawesi Barat 91563","Jl. Pattanabone, Topoyo, Kec. Topoyo, Kabupaten Mamuju Tengah",SULAWESI BARAT,91563.0,Indonesia,,,,-2.062813,119.2771794,https://maps.google.com/?cid=0x0:0x866729ae2774bf62,
supermarket,Toko bahan makanan,Toko Cahaya Alif,"M5PG+RHP, Jl. Poros Mamuju - Topoyo, Tarailu, Kec. Sampaga, Kabupaten Mamuju, Sulawesi Barat 91563","Jl. Poros Mamuju - Topoyo, Tarailu, Kec. Sampaga, Kabupaten Mamuju",SULAWESI BARAT,91563.0,Indonesia,85298541235.0,,,-2.3129204,119.1764656,https://maps.google.com/?cid=0x0:0x196c9cf687ff6fa9,
supermarket,Pusat Perbelanjaan,Toko mario topoyo,"Jl. Andi Depu No.depan, lapangan, Kec. Topoyo, Kabupaten Mamuju Tengah, Sulawesi Barat 91511","lapangan, Kec. Topoyo, Kabupaten Mamuju Tengah",SULAWESI BARAT,91511.0,Indonesia,82393236761.0,,,-2.0694951,119.2857332,https://maps.google.com/?cid=0x0:0x1e376bdbbba6bb92,
supermarket,Minimarket,Ts Mart,"W7MJ+V5J, Jl. Pattanabone, Topoyo, Kec. Topoyo, Kabupaten Mamuju Tengah, Sulawesi Barat 91563","Jl. Pattanabone, Topoyo, Kec. Topoyo, Kabupaten Mamuju Tengah",SULAWESI BARAT,91563.0,Indonesia,82197222787.0,,,-2.0652951,119.2804041,https://maps.google.com/?cid=0x0:0xb104611b464a5465,
supermarket,Supermarket Diskon,Topoyo,"3G76+R8J, Tasokko, Kec. Karossa, Kabupaten Mamuju Tengah, Sulawesi Barat","Kabupaten Mamuju Tengah, Sulawesi Barat",SULAWESI BARAT,,Indonesia,,,,-1.9354109,119.5107708,https://maps.google.com/?cid=0x0:0x789014fa37dbbc16,
supermarket,Toko,CELEBES MART,"W7CH+9J9, Jl. Poros Bayor, Topoyo, Kec. Topoyo, Kabupaten Mamuju Tengah, Sulawesi Barat","Kabupaten Mamuju Tengah, Sulawesi Barat",SULAWESI BARAT,,Indonesia,,,,-2.0790811,119.2791099,https://maps.google.com/?cid=0x0:0xc8d966eeb846aacb,
supermarket,Toko Swalayan,MiniMarket,"X7H6+7FC, Waeputeh, Kec. Topoyo, Kabupaten Mamuju Tengah, Sulawesi Barat 91563","Waeputeh, Kec. Topoyo, Kabupaten Mamuju Tengah",SULAWESI BARAT,91563.0,Indonesia,85290566079.0,,,-2.0218193,119.2611335,https://maps.google.com/?cid=0x0:0xd253aba6eacbf66,
supermarket,Minimarket,Kios Baca Filia,"W7QM+FQR, Topoyo, Kec. Topoyo, Kabupaten Mamuju, Sulawesi Barat 91563","Topoyo, Kec. Topoyo, Kabupaten Mamuju",SULAWESI BARAT,91563.0,Indonesia,82188118065.0,,,-2.0612677,119.2843798,https://maps.google.com/?cid=0x0:0x5d7005c4b7d765cc,
supermarket,Toko Mebel,Amazone Topoyo,"W7FR+H89, Tobadak, Kec. Tobadak, Kabupaten Mamuju Tengah, Sulawesi Barat 91563","Tobadak, Kec. Tobadak, Kabupaten Mamuju Tengah",SULAWESI BARAT,91563.0,Indonesia,,,,-2.0760679,119.2908506,https://maps.google.com/?cid=0x0:0x1664795f8328d132,
