Category,Real Category,Business Name,Address,City,State,Postal Code,Country,Phone,Email,Website,Latitude,Longitude,Map Link,Details Link
komplek housing,komplek housing,Kec. Budong-Budong,"Kabupaten Mamuju Tengah, Sulawesi Barat","Kabupaten Mamuju Tengah, Sulawesi Barat",SULAWESI BARAT,,Indonesia,,,,-2.1728923,119.2291681,https://maps.google.com/?cid=0x0:0x513972b69bc5b519,
komplek housing,Pembangunan Perumahan,SUMADI,"R66H+JM3, Tinali, Kec. Budong-Budong, Kabupaten Mamuju Tengah, Sulawesi Barat 91563","Tinali, Kec. Budong-Budong, Kabupaten Mamuju Tengah",SULAWESI BARAT,91563.0,Indonesia,,,,-2.188489,119.2291726,https://maps.google.com/?cid=0x0:0x34322f1bf8f891cc,
komplek housing,komplek housing,Mitha,"R6JH+HCC, Salogatta, Kec. Budong-Budong, Kabupaten Mamuju Tengah, Sulawesi Barat 91563","Salogatta, Kec. Budong-Budong, Kabupaten Mamuju Tengah",SULAWESI BARAT,91563.0,Indonesia,,,,-2.1685697,119.2285162,https://maps.google.com/?cid=0x0:0x11a2acd6f77af8f8,
komplek housing,Komplek perumahan,Debo,"R7Q8+GHV, Pontanakayang, Kec. Budong-Budong, Kabupaten Mamuju Tengah, Sulawesi Barat 91563","Pontanakayang, Kec. Budong-Budong, Kabupaten Mamuju Tengah",SULAWESI BARAT,91563.0,Indonesia,,,,-2.1611291,119.2665559,https://maps.google.com/?cid=0x0:0xc5864bf34bfa631f,
komplek housing,Komplek perumahan,Mesjid lorong5 rantekombiling,"V66G+9X, Kire, Kec. Budong-Budong, Kabupaten Mamuju Tengah, Sulawesi Barat","Kabupaten Mamuju Tengah, Sulawesi Barat",SULAWESI BARAT,,Indonesia,,,,-2.1390042,119.2274298,https://maps.google.com/?cid=0x0:0x2b18d888419e88b,
komplek housing,Komplek perumahan,Lorong,"R864+5MF, Bojo, Kec. Budong-Budong, Kabupaten Mamuju Tengah, Sulawesi Barat 91563","Bojo, Kec. Budong-Budong, Kabupaten Mamuju Tengah",SULAWESI BARAT,91563.0,Indonesia,,,,-2.1895625,119.3066719,https://maps.google.com/?cid=0x0:0x23976f56ea5d6960,
komplek housing,Komplek perumahan,Rumah Satria94,"Lorong 2 baru No.2, Salogatta, Kec. Budong-Budong, Kabupaten Mamuju Tengah, Sulawesi Barat 91563","Salogatta, Kec. Budong-Budong, Kabupaten Mamuju Tengah",SULAWESI BARAT,91563.0,Indonesia,,,,-2.1711027,119.2286932,https://maps.google.com/?cid=0x0:0x64fb8ae197f16c83,
komplek housing,komplek housing,m Arifin nur,"R7PC+R4F, Jl. Diponegoro, Pontanakayang, Kec. Budong-Budong, Kabupaten Mamuju Tengah, Sulawesi Barat 91563","Jl. Diponegoro, Pontanakayang, Kec. Budong-Budong, Kabupaten Mamuju Tengah",SULAWESI BARAT,91563.0,Indonesia,,,,-2.1626094,119.2694067,https://maps.google.com/?cid=0x0:0x285ff0b667a3d09a,
komplek housing,Komplek perumahan,Ikhwanilmhana,"R645+CQQ, Barakkang, Kec. Budong-Budong, Kabupaten Mamuju, Sulawesi Barat 91563","Barakkang, Kec. Budong-Budong, Kabupaten Mamuju",SULAWESI BARAT,91563.0,Indonesia,,,,-2.1939207,119.2094856,https://maps.google.com/?cid=0x0:0x4eb8a0a8c2b3ecd0,
komplek housing,Rumah Kayu,Rumah Faisal,"V59X+GR, Kire, Kec. Budong-Budong, Kabupaten Mamuju Tengah, Sulawesi Barat","Kabupaten Mamuju Tengah, Sulawesi Barat",SULAWESI BARAT,,Indonesia,,,,-2.1311746,119.1995617,https://maps.google.com/?cid=0x0:0xfd25bb49bf50357,
komplek housing,Komplek perumahan,Rumah mila,"V6P2+M7, Babana, Kec. Budong-Budong, Kabupaten Mamuju Tengah, Sulawesi Barat","Kabupaten Mamuju Tengah, Sulawesi Barat",SULAWESI BARAT,,Indonesia,,,,-2.1132714,119.2007194,https://maps.google.com/?cid=0x0:0x1cceb5946f4c0587,
komplek housing,Pembangunan Perumahan,Rumah afif/susana,"R6FG+F6, Salogatta, Kec. Budong-Budong, Kabupaten Mamuju Tengah, Sulawesi Barat","Kabupaten Mamuju Tengah, Sulawesi Barat",SULAWESI BARAT,,Indonesia,,,,-2.1764093,119.225542,https://maps.google.com/?cid=0x0:0x96b5019c6f95d1fc,
komplek housing,Komplek perumahan,Zulfikar,"W63G+RG6, Babana, Kec. Budong-Budong, Kabupaten Mamuju Tengah, Sulawesi Barat 91563","Babana, Kec. Budong-Budong, Kabupaten Mamuju Tengah",SULAWESI BARAT,91563.0,Indonesia,,,,-2.0955304,119.2262134,https://maps.google.com/?cid=0x0:0x5cbece139ab147bd,
komplek housing,Kantor Perusahaan,JEPO RESIDENCE,"W62W+WVC, Dusun Bulu Rembu, Babana, Kec. Budong-Budong, Kabupaten Mamuju Tengah, Sulawesi Barat 91563","Dusun Bulu Rembu, Babana, Kec. Budong-Budong, Kabupaten Mamuju Tengah",SULAWESI BARAT,91563.0,Indonesia,,,,-2.0976936,119.2471306,https://maps.google.com/?cid=0x0:0x9dae92e7bb67feaa,
komplek housing,Komplek perumahan,Rina,"R575+MQJ, Lumu, Kec. Budong-Budong, Kabupaten Mamuju Tengah, Sulawesi Barat 91563","Lumu, Kec. Budong-Budong, Kabupaten Mamuju Tengah",SULAWESI BARAT,91563.0,Indonesia,,,,-2.1857823,119.1593771,https://maps.google.com/?cid=0x0:0x1620756da925dabe,
komplek housing,Komplek perumahan,Rumah Aldhi,"W622+CC, Babana, Kec. Budong-Budong, Kabupaten Mamuju Tengah, Sulawesi Barat","Kabupaten Mamuju Tengah, Sulawesi Barat",SULAWESI BARAT,,Indonesia,,,,-2.098984,119.201115,https://maps.google.com/?cid=0x0:0xda07d83951650f5f,
komplek housing,Komplek perumahan,Rumah Bp Habib (Staf desa),"V6WV+9FW, Karondang, Babana, Kec. Budong-Budong, Kabupaten Mamuju Tengah, Sulawesi Barat 91563","Karondang, Babana, Kec. Budong-Budong, Kabupaten Mamuju Tengah",SULAWESI BARAT,91563.0,Indonesia,,,,-2.1040056,119.2437011,https://maps.google.com/?cid=0x0:0xd9ba625c0aadead9,
komplek housing,Rumah Mahyong,Rumah Usnul,"R7Q5+RX6, Pontanakayang, Kec. Budong-Budong, Kabupaten Mamuju Tengah, Sulawesi Barat 91563","Pontanakayang, Kec. Budong-Budong, Kabupaten Mamuju Tengah",SULAWESI BARAT,91563.0,Indonesia,,,,-2.160138,119.259953,https://maps.google.com/?cid=0x0:0x8615fd030db606cf,
komplek housing,komplek housing,Rumah AskarHasna,"W59W+6P4, Babana, Kec. Budong-Budong, Kabupaten Mamuju Tengah, Sulawesi Barat 91563","Babana, Kec. Budong-Budong, Kabupaten Mamuju Tengah",SULAWESI BARAT,91563.0,Indonesia,,,,-2.0819913,119.1968285,https://maps.google.com/?cid=0x0:0x246a7c99c4af8e97,
komplek housing,komplek housing,Muhammad Zainal,"R6C3+P62, Dusun patallasang, Salumanurung, Kec. Budong-Budong, Kabupaten Mamuju Tengah, Sulawesi Barat 91563","Dusun patallasang, Salumanurung, Kec. Budong-Budong, Kabupaten Mamuju Tengah",SULAWESI BARAT,91563.0,Indonesia,,,,-2.1782415,119.2030177,https://maps.google.com/?cid=0x0:0x82e09bb8cd339b4f,
komplek housing,Komplek perumahan,RIDWAN ATPH,"R6HJ+MCC, Salogatta, Kec. Budong-Budong, Kabupaten Mamuju Tengah, Sulawesi Barat 91563","Salogatta, Kec. Budong-Budong, Kabupaten Mamuju Tengah",SULAWESI BARAT,91563.0,Indonesia,,,,-2.1708218,119.2310004,https://maps.google.com/?cid=0x0:0xfd2b6d881df38fe9,
komplek housing,Perhimpunan Pengembang Perumahan,Apriyanto,"Pontanakayang, Kec. Budong-Budong, Kabupaten Mamuju Tengah, Sulawesi Barat 91563","Kec. Budong-Budong, Kabupaten Mamuju Tengah",SULAWESI BARAT,91563.0,Indonesia,82190449621.0,,,-2.156899,119.2664586,https://maps.google.com/?cid=0x0:0xbc8921be1d8f85ac,
komplek housing,Pembangunan Perumahan,Rumah kepala Dusun Patulana Tengah,"W6V7+4VC, Budong-Budong, Kec. Budong-Budong, Kabupaten Mamuju Tengah, Sulawesi Barat 91563","Budong-Budong, Kec. Budong-Budong, Kabupaten Mamuju Tengah",SULAWESI BARAT,91563.0,Indonesia,,,,-2.0571857,119.2146427,https://maps.google.com/?cid=0x0:0x28b8f578959ae76a,
komplek housing,Peternakan Ikan,Peternak ikan gurame,"R6JQ+F52, Salogatta, Kec. Budong-Budong, Kabupaten Mamuju Tengah, Sulawesi Barat 91563","Salogatta, Kec. Budong-Budong, Kabupaten Mamuju Tengah",SULAWESI BARAT,91563.0,Indonesia,,,,-2.1688613,119.2378899,https://maps.google.com/?cid=0x0:0x1b431dd4e3d46334,
komplek housing,Perumahan,"Andrang,uwa jibbi","R6GH+RMM, Salogatta, Kec. Budong-Budong, Kabupaten Mamuju Tengah, Sulawesi Barat 91563","Salogatta, Kec. Budong-Budong, Kabupaten Mamuju Tengah",SULAWESI BARAT,91563.0,Indonesia,,,,-2.1729195,119.2291682,https://maps.google.com/?cid=0x0:0xba5835fc6927e807,
komplek housing,Komplek perumahan,PAK JUMADI A,"R6JG+J96, Salogatta, Kec. Budong-Budong, Kabupaten Mamuju Tengah, Sulawesi Barat 91563","Salogatta, Kec. Budong-Budong, Kabupaten Mamuju Tengah",SULAWESI BARAT,91563.0,Indonesia,,,,-2.1684615,119.2258953,https://maps.google.com/?cid=0x0:0x3b9e78e3819dd3bf,
komplek housing,komplek housing,pasapa,"R88J+R7Q, Pasapa, Kec. Budong-Budong, Kabupaten Mamuju Tengah, Sulawesi Barat 91563","Pasapa, Kec. Budong-Budong, Kabupaten Mamuju Tengah",SULAWESI BARAT,91563.0,Indonesia,,,,-2.1829015,119.3307364,https://maps.google.com/?cid=0x0:0x8581a206e2c6828,
komplek housing,komplek housing,Sulawesi Barat 91512,"Kabupaten Mamuju, Sulawesi Barat","Kabupaten Mamuju, Sulawesi Barat",SULAWESI BARAT,,Indonesia,,,,-1.8494265,119.5339711,https://maps.google.com/?cid=0x0:0x8e21c401717b8ceb,
komplek housing,Komplek perumahan,Komplek pasar karossa,"3HX4+VVM, Salubiro, Kec. Karossa, Kabupaten Mamuju Tengah, Sulawesi Barat","Kabupaten Mamuju Tengah, Sulawesi Barat",SULAWESI BARAT,,Indonesia,,,,-1.9002925,119.5571677,https://maps.google.com/?cid=0x0:0xa38649b429569f30,
komplek housing,Perhimpunan Pengembang Perumahan,GRAHA LOTU VILLAGE,"5CV2+XHW, Lembah Hopo, Kec. Karossa, Kabupaten Mamuju Tengah, Sulawesi Barat","Kabupaten Mamuju Tengah, Sulawesi Barat",SULAWESI BARAT,,Indonesia,81242789242.0,,,-1.805003,119.4014442,https://maps.google.com/?cid=0x0:0x16ffb35bbb97f51,
komplek housing,Komplek perumahan,Muhram/Nurjannah,"59JG+Q7X, Karossa, Kec. Karossa, Kabupaten Mamuju, Sulawesi Barat 91512","Karossa, Kec. Karossa, Kabupaten Mamuju",SULAWESI BARAT,91512.0,Indonesia,,,,-1.8180113,119.3757203,https://maps.google.com/?cid=0x0:0xcf69402fb0ac4355,
komplek housing,komplek housing,HUSNI R,"6C87+4JG, Karossa, Kec. Karossa, Kab. Pasangkayu, Sulawesi Barat 91573","Karossa, Kec. Karossa, Kab. Pasangkayu",SULAWESI BARAT,91573.0,Indonesia,,,,-1.7846875,119.4140781,https://maps.google.com/?cid=0x0:0xbba9d01d16b4f96d,
komplek housing,komplek housing,ALI,"59RQ+5V7, Karossa, Kec. Karossa, Kabupaten Mamuju Tengah, Sulawesi Barat 91512","Karossa, Kec. Karossa, Kabupaten Mamuju Tengah",SULAWESI BARAT,91512.0,Indonesia,,,,-1.8102251,119.3891652,https://maps.google.com/?cid=0x0:0x5bc0b3cfa6b84dfc,
komplek housing,komplek housing,Suryanto,"69CX+Q5J, Kadaila, Kec. Karossa, Kabupaten Mamuju Tengah, Sulawesi Barat 91573","Kadaila, Kec. Karossa, Kabupaten Mamuju Tengah",SULAWESI BARAT,91573.0,Indonesia,,,,-1.777199,119.3990484,https://maps.google.com/?cid=0x0:0x85064fabd234bfd9,
komplek housing,Pembangunan Perumahan,Reza,"5CM6+2FP, Lembah Hopo, Kec. Karossa, Kabupaten Mamuju Tengah, Sulawesi Barat","Kabupaten Mamuju Tengah, Sulawesi Barat",SULAWESI BARAT,,Indonesia,,,,-1.8174195,119.411197,https://maps.google.com/?cid=0x0:0xf4871fff5c222960,
komplek housing,Komplek perumahan,Karossa km 8,"3HX4+VVM, Salubiro, Kec. Karossa, Kabupaten Mamuju, Sulawesi Barat","Kabupaten Mamuju, Sulawesi Barat",SULAWESI BARAT,,Indonesia,,,,-1.9002925,119.5571677,https://maps.google.com/?cid=0x0:0x3e3e1a0a83b1a272,
komplek housing,Pembangunan Perumahan,KOMATSU OYOX,"6F9F+24X, Sanjango, Kec. Karossa, Kabupaten Mamuju, Sulawesi Barat 91573","Sanjango, Kec. Karossa, Kabupaten Mamuju",SULAWESI BARAT,91573.0,Indonesia,,,,-1.782387,119.4728576,https://maps.google.com/?cid=0x0:0x39b2c58bd839f1fb,
komplek housing,Perhimpunan Pengembang Perumahan,Mora tengah,"59RQ+GVX, Karossa, Kec. Karossa, Kabupaten Mamuju Tengah, Sulawesi Barat","Kabupaten Mamuju Tengah, Sulawesi Barat",SULAWESI BARAT,,Indonesia,,,,-1.808511,119.3898439,https://maps.google.com/?cid=0x0:0xa79ab3be5b19194d,
komplek housing,Pembangunan Perumahan,Ardy,"6C43+35H, Karossa, Kec. Karossa, Kabupaten Mamuju Tengah, Sulawesi Barat 91512","Karossa, Kec. Karossa, Kabupaten Mamuju Tengah",SULAWESI BARAT,91512.0,Indonesia,,,,-1.7948117,119.4029831,https://maps.google.com/?cid=0x0:0x623bc2800b72c778,
komplek housing,komplek housing,ABD HAFID,"6CXJ+Q3, Mora IV, Kec. Karossa, Kabupaten Mamuju Tengah, Sulawesi Barat","Kabupaten Mamuju Tengah, Sulawesi Barat",SULAWESI BARAT,,Indonesia,,,,-1.7506193,119.430148,https://maps.google.com/?cid=0x0:0x3b99ee8bcd2431a9,
komplek housing,Perhimpunan Pengembang Perumahan,Nanus,"6F8V+GR, Sanjango, Kec. Karossa, Kabupaten Mamuju Tengah, Sulawesi Barat","Kabupaten Mamuju Tengah, Sulawesi Barat",SULAWESI BARAT,,Indonesia,,,,-1.7837023,119.494612,https://maps.google.com/?cid=0x0:0xeba25e781631d65f,
komplek housing,Komplek perumahan,Lilimori,"Baras - Karossa No.4, Karossa, Kec. Karossa, Kabupaten Mamuju Tengah, Sulawesi Barat 91512","Karossa, Kec. Karossa, Kabupaten Mamuju Tengah",SULAWESI BARAT,91512.0,Indonesia,,,,-1.7904211,119.4092994,https://maps.google.com/?cid=0x0:0xce096c9ad67dc245,
komplek housing,Komplek perumahan,Palopo gudang,"6C44+PFW, Karossa, Kec. Karossa, Kabupaten Mamuju Tengah, Sulawesi Barat","Kabupaten Mamuju Tengah, Sulawesi Barat",SULAWESI BARAT,,Indonesia,,,,-1.7930386,119.4062721,https://maps.google.com/?cid=0x0:0xaf0ed304e598361c,
komplek housing,Komplek perumahan,Kasossa km 1,"3HX4+VVM kilo. 1, Salubiro, Kec. Karossa, Kabupaten Mamuju Tengah, Sulawesi Barat","Kabupaten Mamuju Tengah, Sulawesi Barat",SULAWESI BARAT,,Indonesia,,,,-1.9002925,119.5571677,https://maps.google.com/?cid=0x0:0xb7ea691798342d98,
komplek housing,Rental Bus,Ikwan Rental,"59RQ+8Q8, Karossa, Kec. Karossa, Kabupaten Mamuju Tengah, Sulawesi Barat 91566","Karossa, Kec. Karossa, Kabupaten Mamuju Tengah",SULAWESI BARAT,91566.0,Indonesia,,,,-1.8090691,119.3895121,https://maps.google.com/?cid=0x0:0xdd03a141f4ca4c1d,
komplek housing,Komplek perumahan,Rumah saya,"69CV+79W, Kadaila, Kec. Karossa, Kabupaten Mamuju Tengah, Sulawesi Barat 91573","Kadaila, Kec. Karossa, Kabupaten Mamuju Tengah",SULAWESI BARAT,91573.0,Indonesia,,,,-1.7792698,119.3934589,https://maps.google.com/?cid=0x0:0xfc7848f3779c62c8,
komplek housing,Komplek perumahan,LAUNDRI KEMBAR,"GRAHA BLOK M No.10 BLOK CNO, DUSUN LUTAMA, Karossa, Kec. Karossa, Kabupaten Mamuju Tengah, Sulawesi Barat","Kabupaten Mamuju Tengah, Sulawesi Barat",SULAWESI BARAT,,Indonesia,82349402786.0,,,-1.7912349,119.4077964,https://maps.google.com/?cid=0x0:0x77a6e573ad6bceb3,
komplek housing,komplek housing,Senjango,"6G4G+4H, Sanjango, Kec. Karossa, Kabupaten Mamuju Tengah, Sulawesi Barat","Kabupaten Mamuju Tengah, Sulawesi Barat",SULAWESI BARAT,,Indonesia,,,,-1.794638,119.526466,https://maps.google.com/?cid=0x0:0x3c107e764384daeb,
komplek housing,komplek housing,Kec. Karossa,"Kabupaten Mamuju Tengah, Sulawesi Barat","Kabupaten Mamuju Tengah, Sulawesi Barat",SULAWESI BARAT,,Indonesia,,,,-1.9002925,119.5571677,https://maps.google.com/?cid=0x0:0x7642c96bedba1585,
komplek housing,Perhimpunan Pengembang Perumahan,karossa,"49VW+79, Lara, Kec. Karossa, Kabupaten Mamuju, Sulawesi Barat 91563","Lara, Kec. Karossa, Kabupaten Mamuju",SULAWESI BARAT,91563.0,Indonesia,,,,-1.8567708,119.3959974,https://maps.google.com/?cid=0x0:0xe9e246d25b190221,
komplek housing,komplek housing,Kec. Pangale,"Kabupaten Mamuju Tengah, Sulawesi Barat","Kabupaten Mamuju Tengah, Sulawesi Barat",SULAWESI BARAT,,Indonesia,,,,-2.2717045,119.1995263,https://maps.google.com/?cid=0x0:0x38044147fdebd95,
komplek housing,Perhimpunan Pengembang Perumahan,Rumah asip,"P4VV+CWV, Kombiling, Kec. Pangale, Kabupaten Mamuju, Sulawesi Barat 91563","Kombiling, Kec. Pangale, Kabupaten Mamuju",SULAWESI BARAT,91563.0,Indonesia,,,,-2.2556886,119.1447956,https://maps.google.com/?cid=0x0:0x633ef42901a732d9,
komplek housing,Rumah Kayu,Rumah kepala dusun,"P59Q+GJ8, Polopangale, Kec. Pangale, Kabupaten Mamuju Tengah, Sulawesi Barat","Kabupaten Mamuju Tengah, Sulawesi Barat",SULAWESI BARAT,,Indonesia,,,,-2.2812026,119.189087,https://maps.google.com/?cid=0x0:0x9748aaca7a6c2f05,
komplek housing,komplek housing,Rumah Mugi sae,"M5XG+96V, Jl. Poros Majene - Mamuju, Dusun Lemo Baru, Pangale, Kec. Pangale, Kabupaten Mamuju Tengah, Sulawesi Barat 91563","Jl. Poros Majene - Mamuju, Dusun Lemo Baru, Pangale, Kec. Pangale, Kabupaten Mamuju Tengah",SULAWESI BARAT,91563.0,Indonesia,,,,-2.3015178,119.1755499,https://maps.google.com/?cid=0x0:0xaeec230de3d1a510,
komplek housing,Komplek perumahan,Rumah kepala dusun tambak rejo,"P5V4+RFG, Sartanamaju, Kec. Pangale, Kabupaten Mamuju Tengah, Sulawesi Barat 91563","Sartanamaju, Kec. Pangale, Kabupaten Mamuju Tengah",SULAWESI BARAT,91563.0,Indonesia,,,,-2.2554463,119.1562,https://maps.google.com/?cid=0x0:0x942f5f7bec161d56,
komplek housing,Pembangunan Perumahan,Agus indra,"P6QH+QJJ, Kuo, Kec. Pangale, Kabupaten Mamuju, Sulawesi Barat 91562","Kuo, Kec. Pangale, Kabupaten Mamuju",SULAWESI BARAT,91562.0,Indonesia,82322908678.0,,,-2.2605306,119.2290214,https://maps.google.com/?cid=0x0:0xebeaf8eb40fb1300,
komplek housing,Komplek perumahan,Atang geming,"Q638+874, Polocamba, Kec. Pangale, Kabupaten Mamuju Tengah, Sulawesi Barat 91563","Polocamba, Kec. Pangale, Kabupaten Mamuju Tengah",SULAWESI BARAT,91563.0,Indonesia,,,,-2.2467494,119.2157045,https://maps.google.com/?cid=0x0:0xb7d15fee674c1383,
komplek housing,Kompleks Kondominium,Rumah taufik,"P6HJ+23J, Kuo, Kec. Pangale, Kabupaten Mamuju, Sulawesi Barat","Kabupaten Mamuju, Sulawesi Barat",SULAWESI BARAT,,Indonesia,,,,-2.2724164,119.2301355,https://maps.google.com/?cid=0x0:0x6bb9f6823f246917,
komplek housing,Pembangunan Perumahan,Rumah hakim ff,"P5M9+Q7, dusun rinjani, Sartanamaju, Kec. Pangale, Kabupaten Mamuju Tengah, Sulawesi Barat 91563","dusun rinjani, Sartanamaju, Kec. Pangale, Kabupaten Mamuju Tengah",SULAWESI BARAT,91563.0,Indonesia,,,,-2.2620392,119.1826041,https://maps.google.com/?cid=0x0:0xdeeaf602363ccca9,
komplek housing,komplek housing,Rumah fik,"Q6Q2+6XM, Barakkang, Kec. Pangale, Kabupaten Mamuju Tengah, Sulawesi Barat 91563","Barakkang, Kec. Pangale, Kabupaten Mamuju Tengah",SULAWESI BARAT,91563.0,Indonesia,,,,-2.2119249,119.2024098,https://maps.google.com/?cid=0x0:0xbf0b79bad31f8d5d,
komplek housing,Komplek perumahan,Rumah nek iye',"P47P+92G, Pangale, Kec. Pangale, Kabupaten Mamuju Tengah, Sulawesi Barat 91563","Pangale, Kec. Pangale, Kabupaten Mamuju Tengah",SULAWESI BARAT,91563.0,Indonesia,,,,-2.2872184,119.1346522,https://maps.google.com/?cid=0x0:0x6def8c094b6031d0,
komplek housing,Komplek perumahan,Rumah sarip joang,"Rumah No.mor 64, dusun rinjani, Sartanamaju, Kec. Pangale, Kabupaten Mamuju Tengah, Sulawesi Barat 91563","dusun rinjani, Sartanamaju, Kec. Pangale, Kabupaten Mamuju Tengah",SULAWESI BARAT,91563.0,Indonesia,,,,-2.2615316,119.1807882,https://maps.google.com/?cid=0x0:0xcdf369a729294d06,
komplek housing,Pembangunan Perumahan,Allang,"M5QG+V77, Tarailu, Kec. Sampaga, Kabupaten Mamuju, Sulawesi Barat","Kabupaten Mamuju, Sulawesi Barat",SULAWESI BARAT,,Indonesia,,,,-2.3103259,119.1756686,https://maps.google.com/?cid=0x0:0x16de04d6ce6d57f9,
komplek housing,Pembangunan Perumahan,Lokasi 2,"P6VQ+V56, Kuo, Kec. Pangale, Kabupaten Mamuju Tengah, Sulawesi Barat","Kabupaten Mamuju Tengah, Sulawesi Barat",SULAWESI BARAT,,Indonesia,,,,-2.2553412,119.2378899,https://maps.google.com/?cid=0x0:0x592acad539816420,
komplek housing,Komplek perumahan,Rumah Daffa,"P58J+VF, Polopangale, Kec. Pangale, Kabupaten Mamuju Tengah, Sulawesi Barat","Kabupaten Mamuju Tengah, Sulawesi Barat",SULAWESI BARAT,,Indonesia,,,,-2.2828927,119.1811695,https://maps.google.com/?cid=0x0:0x7efdec3cc21f4e1,
komplek housing,Komplek perumahan,Andhira,"P6G3+J6C, Polopangale, Kec. Pangale, Kabupaten Mamuju, Sulawesi Barat","Kabupaten Mamuju, Sulawesi Barat",SULAWESI BARAT,,Indonesia,,,,-2.2734328,119.2030177,https://maps.google.com/?cid=0x0:0xb8126ac0e47a5cb0,
komplek housing,Kantor Pemerintah Distrik,Desa sartanamaju,"P5PJ+R6C, Sartanamaju, Kec. Pangale, Kabupaten Mamuju Tengah, Sulawesi Barat 91563","Sartanamaju, Kec. Pangale, Kabupaten Mamuju Tengah",SULAWESI BARAT,91563.0,Indonesia,,,,-2.2629451,119.1805056,https://maps.google.com/?cid=0x0:0xac03ae141856699c,
komplek housing,Pembangunan Perumahan,mbah,"P6MJ+M7, Kuo, Kec. Pangale, Kabupaten Mamuju, Sulawesi Barat","Kabupaten Mamuju, Sulawesi Barat",SULAWESI BARAT,,Indonesia,,,,-2.2656669,119.2307465,https://maps.google.com/?cid=0x0:0x2ed04f14e9c6c87d,
komplek housing,Komplek perumahan,Rumah DG tompock,"P5M9+Q7, Sartanamaju, Kec. Pangale, Kabupaten Mamuju Tengah, Sulawesi Barat 91563","Sartanamaju, Kec. Pangale, Kabupaten Mamuju Tengah",SULAWESI BARAT,91563.0,Indonesia,85280471840.0,,,-2.263408,119.1809957,https://maps.google.com/?cid=0x0:0x8183bb31a597cd29,
komplek housing,Komplek perumahan,Rumah Dg Sibang,"P5QJ+G97, Sartanamaju, Kec. Pangale, Kabupaten Mamuju Tengah, Sulawesi Barat 91563","Sartanamaju, Kec. Pangale, Kabupaten Mamuju Tengah",SULAWESI BARAT,91563.0,Indonesia,,,,-2.261209,119.1809341,https://maps.google.com/?cid=0x0:0x3c8dbc5b80e2d3b6,
komplek housing,Komplek perumahan,Rumah DG ramli,"P5M9+Q7, rumah No.65, Dusun rinjani, Sartanamaju, Kec. Pangale, Kabupaten Mamuju Tengah, Sulawesi Barat 91563","rumah No.65, Dusun rinjani, Sartanamaju, Kec. Pangale, Kabupaten Mamuju Tengah",SULAWESI BARAT,91563.0,Indonesia,,,,-2.2625243,119.1808516,https://maps.google.com/?cid=0x0:0xfff7340343b475ee,
komplek housing,Komplek perumahan,Rumah Suhardi,"P5QJ+9X, Sartanamaju, Kec. Pangale, Kabupaten Mamuju Tengah, Sulawesi Barat","Kabupaten Mamuju Tengah, Sulawesi Barat",SULAWESI BARAT,,Indonesia,,,,-2.2614683,119.1825337,https://maps.google.com/?cid=0x0:0xef48131cf8dcbf5d,
komplek housing,Kompleks Kondominium,Rumah mempelai wanita,"P52F+8X, Pangale, Kec. Pangale, Kabupaten Mamuju Tengah, Sulawesi Barat","Kabupaten Mamuju Tengah, Sulawesi Barat",SULAWESI BARAT,,Indonesia,,,,-2.2991509,119.17495,https://maps.google.com/?cid=0x0:0x75abc75dc3fa71f1,
komplek housing,Vila,Vila reyot,"Q53V+C43, Polo Lereng, Kec. Pangale, Kabupaten Mamuju Tengah, Sulawesi Barat 91563","Polo Lereng, Kec. Pangale, Kabupaten Mamuju Tengah",SULAWESI BARAT,91563.0,Indonesia,,,,-2.2464981,119.192792,https://maps.google.com/?cid=0x0:0xeecd6143f05b3344,
komplek housing,Komplek perumahan,Rumah Dg Murjan,"P5QJ+HCC, Sartanamaju, Kec. Pangale, Kabupaten Mamuju Tengah, Sulawesi Barat 91563","Sartanamaju, Kec. Pangale, Kabupaten Mamuju Tengah",SULAWESI BARAT,91563.0,Indonesia,,,,-2.2610723,119.1810135,https://maps.google.com/?cid=0x0:0x380390a3a80eec40,
komplek housing,Komplek perumahan,Rumah Japrikarim,"P5QM+464, Sartanamaju, Kec. Pangale, Kabupaten Mamuju Tengah, Sulawesi Barat 91563","Sartanamaju, Kec. Pangale, Kabupaten Mamuju Tengah",SULAWESI BARAT,91563.0,Indonesia,,,,-2.2622429,119.1830815,https://maps.google.com/?cid=0x0:0xd3a6affa031fbf12,
komplek housing,Komplek perumahan,Rumah bahrul,"Q52Q+W55, Polo Lereng, Kec. Pangale, Kabupaten Mamuju Tengah, Sulawesi Barat 91563","Polo Lereng, Kec. Pangale, Kabupaten Mamuju Tengah",SULAWESI BARAT,91563.0,Indonesia,,,,-2.2477457,119.187999,https://maps.google.com/?cid=0x0:0x718a694895a49be2,
komplek housing,Komplek perumahan,Rumah DG sukry,"P5M9+Q7, Sartanamaju, Kec. Pangale, Kabupaten Mamuju Tengah, Sulawesi Barat 91563","Sartanamaju, Kec. Pangale, Kabupaten Mamuju Tengah",SULAWESI BARAT,91563.0,Indonesia,,,,-2.2636493,119.180869,https://maps.google.com/?cid=0x0:0x8221978fa9a42d9e,
komplek housing,Komplek perumahan,Rumah mur rembo (hansip),"P5PH+HQ8, Dusun tamalaka, Sartanamaju, Kec. Pangale, Kabupaten Mamuju Tengah, Sulawesi Barat 91563","Dusun tamalaka, Sartanamaju, Kec. Pangale, Kabupaten Mamuju Tengah",SULAWESI BARAT,91563.0,Indonesia,,,,-2.2635786,119.1794669,https://maps.google.com/?cid=0x0:0x879ad8756a3f49c,
komplek housing,Perumahan,PERUMAHAN MAKAPPA RESIDENCE,"W74F+339, Tobadak, Kec. Tobadak, Kabupaten Mamuju Tengah, Sulawesi Barat 91563","Tobadak, Kec. Tobadak, Kabupaten Mamuju Tengah",SULAWESI BARAT,91563.0,Indonesia,,,,-2.094849,119.2727196,https://maps.google.com/?cid=0x0:0xe6bac8b9d5f47244,
komplek housing,Komplek perumahan,Tobadak Residence,"Jln. Kondo Sapata, Tobadak, Kec. Tobadak, Kabupaten Mamuju Tengah, Sulawesi Barat 91563","Tobadak, Kec. Tobadak, Kabupaten Mamuju Tengah",SULAWESI BARAT,91563.0,Indonesia,,,,-2.0827208,119.304967,https://maps.google.com/?cid=0x0:0xcbbe0f7a231097fc,
komplek housing,Kompleks Kondominium,KONSEP INDONESIA CHAPTER MAMUJU TENGAH,"W73F+W85, Jl. Poros Palu - Mamuju, Tobadak, Kec. Tobadak, Kabupaten Mamuju Tengah, Sulawesi Barat 91563","Jl. Poros Palu - Mamuju, Tobadak, Kec. Tobadak, Kabupaten Mamuju Tengah",SULAWESI BARAT,91563.0,Indonesia,,,,-2.0959325,119.2730512,https://maps.google.com/?cid=0x0:0x2dcca76907b06752,
komplek housing,Pemasok filter udara,BTN bumi tobadak permai tallungallo tobadak Mamuju tengah,"W76M+V6G, Tobadak, Kec. Tobadak, Kabupaten Mamuju Tengah, Sulawesi Barat 91563","Tobadak, Kec. Tobadak, Kabupaten Mamuju Tengah",SULAWESI BARAT,91563.0,Indonesia,,,,-2.0878213,119.283081,https://maps.google.com/?cid=0x0:0xced9f11e6b6da45b,
komplek housing,komplek housing,Kondosapata,"W864+FR5, Tobadak, Kec. Tobadak, Kabupaten Mamuju Tengah, Sulawesi Barat 91563","Tobadak, Kec. Tobadak, Kabupaten Mamuju Tengah",SULAWESI BARAT,91563.0,Indonesia,,,,-2.0888626,119.3071055,https://maps.google.com/?cid=0x0:0xb7bc5bf3bd9cc30a,
komplek housing,komplek housing,Perumahan,"V967+7M7, Salobaja, Kec. Tobadak, Kabupaten Mamuju Tengah, Sulawesi Barat 91563","Salobaja, Kec. Tobadak, Kabupaten Mamuju Tengah",SULAWESI BARAT,91563.0,Indonesia,,,,-2.1393335,119.3641873,https://maps.google.com/?cid=0x0:0xb6c11847722a8ab,
komplek housing,Perhimpunan Pengembang Perumahan,Komplek Persawahan Tobadak 3,"V9X9+V8X, desa polongaan, Tobadak, Kec. Tobadak, Kabupaten Mamuju Tengah, Sulawesi Barat 91563","desa polongaan, Tobadak, Kec. Tobadak, Kabupaten Mamuju Tengah",SULAWESI BARAT,91563.0,Indonesia,,,,-2.100251,119.3683698,https://maps.google.com/?cid=0x0:0x4ff6b7cdc7cd3038,
komplek housing,Komplek perumahan,Abigail,"W86W+X4W, Tobadak, Kec. Tobadak, Kabupaten Mamuju Tengah, Sulawesi Barat 91563","Tobadak, Kec. Tobadak, Kabupaten Mamuju Tengah",SULAWESI BARAT,91563.0,Indonesia,,,,-2.0878501,119.3448479,https://maps.google.com/?cid=0x0:0xb31726e451fcc2bd,
komplek housing,Komplek perumahan,Perumahan bumi tobadak indah tallungallo,"W75H+JF3, Tobadak, Kec. Tobadak, Kabupaten Mamuju Tengah, Sulawesi Barat 91563","Tobadak, Kec. Tobadak, Kabupaten Mamuju Tengah",SULAWESI BARAT,91563.0,Indonesia,,,,-2.0909815,119.2786667,https://maps.google.com/?cid=0x0:0xed5cf473e208c68d,
komplek housing,Pondok,Rumah kos anugrah,"V9G6+RVW, Lorong 2 Timur, Tobadak, Kec. Tobadak, Kabupaten Mamuju Tengah, Sulawesi Barat 91563","Lorong 2 Timur, Tobadak, Kec. Tobadak, Kabupaten Mamuju Tengah",SULAWESI BARAT,91563.0,Indonesia,,,,-2.1228992,119.3621946,https://maps.google.com/?cid=0x0:0x92ab5f9a726a8166,
komplek housing,Komplek perumahan,Perumahan bumi tobadak indah,"W77Q+Q76, Jl. Poros Majene - Mamuju, Tobadak, Kec. Tobadak, Kabupaten Mamuju Tengah, Sulawesi Barat 91563","Jl. Poros Majene - Mamuju, Tobadak, Kec. Tobadak, Kabupaten Mamuju Tengah",SULAWESI BARAT,91563.0,Indonesia,,,,-2.0904375,119.2788906,https://maps.google.com/?cid=0x0:0xdeb7063ab65a370b,
komplek housing,Perumahan,BTN Griya Benteng Residence,"W77R+52R, Tobadak, Kec. Tobadak, Kabupaten Mamuju, Sulawesi Barat","Kabupaten Mamuju, Sulawesi Barat",SULAWESI BARAT,,Indonesia,,,,-2.0870219,119.2900301,https://maps.google.com/?cid=0x0:0xd05794e3f7e9c18f,
komplek housing,Rumah wisata,Wahyu Ade Putra S.IP,"W76M+HH, Tobadak, Kec. Tobadak, Kabupaten Mamuju, Sulawesi Barat 91563","Tobadak, Kec. Tobadak, Kabupaten Mamuju",SULAWESI BARAT,91563.0,Indonesia,85340263363.0,,,-2.0886075,119.2840141,https://maps.google.com/?cid=0x0:0x430ebbd2c37c0479,
komplek housing,Komplek perumahan,Home teguh,"W85V+4V2, Jl.lorong 3, Tobadak, Kec. Tobadak, Kabupaten Mamuju Tengah, Sulawesi Barat 91563","Jl.lorong 3, Tobadak, Kec. Tobadak, Kabupaten Mamuju Tengah",SULAWESI BARAT,91563.0,Indonesia,,,,-2.092237,119.344633,https://maps.google.com/?cid=0x0:0x4b5f6b487433143b,
komplek housing,Komplek perumahan,Rumah athiyya,"W73F+W85, Jl. Poros Palu - Mamuju, Tobadak, Kec. Tobadak, Kabupaten Mamuju Tengah, Sulawesi Barat 91563","Jl. Poros Palu - Mamuju, Tobadak, Kec. Tobadak, Kabupaten Mamuju Tengah",SULAWESI BARAT,91563.0,Indonesia,,,,-2.0961949,119.2732383,https://maps.google.com/?cid=0x0:0xcd8e3ab2f98bd477,
komplek housing,Perusahaan investasi properti,Perumahan Eka Permai 2,"Jl. Poros Palu - Mamuju, Tobadak, Kec. Tobadak, Kabupaten Mamuju Tengah, Sulawesi Barat","Kabupaten Mamuju Tengah, Sulawesi Barat",SULAWESI BARAT,,Indonesia,,,,-2.0896071,119.2768277,https://maps.google.com/?cid=0x0:0x941649481b31eeb4,
komplek housing,Komplek perumahan,Sopirxpdc,"W76P+3G2, Tobadak, Kec. Tobadak, Kabupaten Mamuju Tengah, Sulawesi Barat 91563","Tobadak, Kec. Tobadak, Kabupaten Mamuju Tengah",SULAWESI BARAT,91563.0,Indonesia,,,,-2.0898679,119.2862549,https://maps.google.com/?cid=0x0:0xe080f40b1d93668b,
komplek housing,Pembangunan Perumahan,ROTARY FAST (rumah),"W75H+Q2, Tobadak, Kec. Tobadak, Kabupaten Mamuju, Sulawesi Barat 91563","Tobadak, Kec. Tobadak, Kabupaten Mamuju",SULAWESI BARAT,91563.0,Indonesia,,,,-2.0907583,119.2775704,https://maps.google.com/?cid=0x0:0x126bf3dc081e88cb,
komplek housing,Komplek perumahan,Kecamatan tobadak,"3G76+R8J, Tasokko, Kec. Karossa, Kabupaten Mamuju Tengah, Sulawesi Barat","Kabupaten Mamuju Tengah, Sulawesi Barat",SULAWESI BARAT,,Indonesia,,,,-1.9354109,119.5107708,https://maps.google.com/?cid=0x0:0x79d79e2baab5dffd,
komplek housing,Gedung Apartemen,ZuKah Home,"V9G8+Q7M, Jln.Harapan, Mahahe, Kec. Tobadak, Kabupaten Mamuju Tengah, Sulawesi Barat 91563","Jln.Harapan, Mahahe, Kec. Tobadak, Kabupaten Mamuju Tengah",SULAWESI BARAT,91563.0,Indonesia,,,,-2.1230352,119.3656846,https://maps.google.com/?cid=0x0:0x2ee8add27775e21b,
komplek housing,Perumahan,Rumah Muh qassim,"WCHF+55, Batu Parigi, Kec. Tobadak, Kabupaten Mamuju, Sulawesi Barat","Kabupaten Mamuju, Sulawesi Barat",SULAWESI BARAT,,Indonesia,,,,-2.0721614,119.4227728,https://maps.google.com/?cid=0x0:0xfe2413145253d5df,
komplek housing,Perumahan rakyat,Rumah ku,"V967+HC9, jl. nenas, Salobaja, Kec. Tobadak, Kabupaten Mamuju, Sulawesi Barat 91563","jl. nenas, Salobaja, Kec. Tobadak, Kabupaten Mamuju",SULAWESI BARAT,91563.0,Indonesia,,,,-2.1385817,119.3640679,https://maps.google.com/?cid=0x0:0xabfee70952618268,
komplek housing,Perumahan,TOBENG,"W7GW+8H2, Tobadak, Kec. Tobadak, Kabupaten Mamuju Tengah, Sulawesi Barat 91563","Tobadak, Kec. Tobadak, Kabupaten Mamuju Tengah",SULAWESI BARAT,91563.0,Indonesia,,,,-2.0742261,119.2963934,https://maps.google.com/?cid=0x0:0x15acbc18398872d4,
komplek housing,Komplek perumahan,BTN BUANA TOBADAK INDAH,"W76H+597, Tobadak, Kec. Tobadak, Kabupaten Mamuju, Sulawesi Barat 91563","Tobadak, Kec. Tobadak, Kabupaten Mamuju",SULAWESI BARAT,91563.0,Indonesia,85256202020.0,,,-2.0895955,119.2784245,https://maps.google.com/?cid=0x0:0x7769569201c05ba5,
komplek housing,Komplek perumahan,Home Muhammad,"W749+73R, Tobadak, Kec. Tobadak, Kabupaten Mamuju Tengah, Sulawesi Barat 91563","Tobadak, Kec. Tobadak, Kabupaten Mamuju Tengah",SULAWESI BARAT,91563.0,Indonesia,,,,-2.0944155,119.2681282,https://maps.google.com/?cid=0x0:0xaef4a16c131493a9,
komplek housing,komplek housing,Rumah Bpk. Urbanus,"Lrg. 6 No.2, Babana, Kec. Tobadak, Kabupaten Mamuju Tengah, Sulawesi Barat 91563","Babana, Kec. Tobadak, Kabupaten Mamuju Tengah",SULAWESI BARAT,91563.0,Indonesia,,,,-2.118586,119.2574678,https://maps.google.com/?cid=0x0:0x66dec711e2418598,
komplek housing,komplek housing,Sulawesi Barat 91563,"Kabupaten Mamuju, Sulawesi Barat","Kabupaten Mamuju, Sulawesi Barat",SULAWESI BARAT,,Indonesia,,,,-2.0727011,119.5107708,https://maps.google.com/?cid=0x0:0x8bfaa35dac2725d7,
komplek housing,Komplek perumahan,Rumah Puji Amanah,"Blok C, Waeputeh, Kec. Topoyo, Kabupaten Mamuju Tengah, Sulawesi Barat 91563","Waeputeh, Kec. Topoyo, Kabupaten Mamuju Tengah",SULAWESI BARAT,91563.0,Indonesia,,,,-2.052332,119.2759765,https://maps.google.com/?cid=0x0:0xca96d353daeab5bd,
komplek housing,Komplek perumahan,KANDANG PERUBAHAN,"W7HM+6MG, Topoyo, Kec. Topoyo, Kabupaten Mamuju Tengah, Sulawesi Barat 91563","Topoyo, Kec. Topoyo, Kabupaten Mamuju Tengah",SULAWESI BARAT,91563.0,Indonesia,,,,-2.0719319,119.2841745,https://maps.google.com/?cid=0x0:0xd853dcb98b00643d,
komplek housing,Toko Pakaian,Rumah jahit ShaMa Collection,"BTN griya topoyo permai, Topoyo, Kec. Topoyo, Kabupaten Mamuju Tengah, Sulawesi Barat 91563","Topoyo, Kec. Topoyo, Kabupaten Mamuju Tengah",SULAWESI BARAT,91563.0,Indonesia,,,,-2.0765333,119.2801734,https://maps.google.com/?cid=0x0:0xda5b247ec0e9da2c,
komplek housing,Komplek perumahan,Rifka home,"X8J7+WF2, Salupangkang, Kec. Topoyo, Kabupaten Mamuju Tengah, Sulawesi Barat 91563","Salupangkang, Kec. Topoyo, Kabupaten Mamuju Tengah",SULAWESI BARAT,91563.0,Indonesia,,,,-2.0177325,119.3136292,https://maps.google.com/?cid=0x0:0xa6f2166590fdf3f6,
komplek housing,Komplek perumahan,Blessed Home,"W7QF+3VR, Jl. Pattanabone, Topoyo, Kec. Topoyo, Kabupaten Mamuju Tengah, Sulawesi Barat 91563","Jl. Pattanabone, Topoyo, Kec. Topoyo, Kabupaten Mamuju Tengah",SULAWESI BARAT,91563.0,Indonesia,,,,-2.0622513,119.2746309,https://maps.google.com/?cid=0x0:0x1138a755464026b3,
komplek housing,Komplek perumahan,Rumah H Untung / HJ Rosdiana,"XCP9+XRQ, Salulekbo, Kec. Topoyo, Kabupaten Mamuju Tengah, Sulawesi Barat","Kabupaten Mamuju Tengah, Sulawesi Barat",SULAWESI BARAT,,Indonesia,,,,-2.0125484,119.4196151,https://maps.google.com/?cid=0x0:0x7ca8a1d4cc31353d,
komplek housing,Komplek perumahan,Rumah kepala desa Topoyo,"W7JP+9FW, Topoyo, Kec. Topoyo, Kabupaten Mamuju Tengah, Sulawesi Barat 91563","Topoyo, Kec. Topoyo, Kabupaten Mamuju Tengah",SULAWESI BARAT,91563.0,Indonesia,,,,-2.0690105,119.286188,https://maps.google.com/?cid=0x0:0x609a5512f867ac3b,
komplek housing,komplek housing,Inbox Cell (rumah),"W79G+944, Pangalloang, Kec. Topoyo, Kabupaten Mamuju Tengah, Sulawesi Barat 91563","Pangalloang, Kec. Topoyo, Kabupaten Mamuju Tengah",SULAWESI BARAT,91563.0,Indonesia,,,,-2.080349,119.274722,https://maps.google.com/?cid=0x0:0xed0e443f5cdec7f2,
komplek housing,komplek housing,Perumahan,"V967+7M7, Salobaja, Kec. Tobadak, Kabupaten Mamuju Tengah, Sulawesi Barat 91563","Salobaja, Kec. Tobadak, Kabupaten Mamuju Tengah",SULAWESI BARAT,91563.0,Indonesia,,,,-2.1393335,119.3641873,https://maps.google.com/?cid=0x0:0xb6c11847722a8ab,
komplek housing,Komplek perumahan,FIKI HOME,"W7FP+H3X, Topoyo, Kec. Topoyo, Kabupaten Mamuju Tengah, Sulawesi Barat 91563","Topoyo, Kec. Topoyo, Kabupaten Mamuju Tengah",SULAWESI BARAT,91563.0,Indonesia,,,,-2.0760136,119.2852264,https://maps.google.com/?cid=0x0:0xb7a218fd6f0e2632,
komplek housing,Perumahan,Perumahan ngapaboa,"W7QJ+3J5, Topoyo, Kec. Topoyo, Kabupaten Mamuju Tengah, Sulawesi Barat","Kabupaten Mamuju Tengah, Sulawesi Barat",SULAWESI BARAT,,Indonesia,,,,-2.0625259,119.2817266,https://maps.google.com/?cid=0x0:0x1a6214e43add98a9,
komplek housing,komplek housing,House on land,"WCQJ+GGQ, Batu Parigi, Kec. Tobadak, Kabupaten Mamuju Tengah, Sulawesi Barat","Kabupaten Mamuju Tengah, Sulawesi Barat",SULAWESI BARAT,,Indonesia,,,,-2.0612228,119.4313961,https://maps.google.com/?cid=0x0:0x9c4286a583348066,
komplek housing,Komplek perumahan,HouMarasa RECIDENCE,"W7FQ+W6, Topoyo, Kec. Topoyo, Kabupaten Mamuju, Sulawesi Barat 91563","Topoyo, Kec. Topoyo, Kabupaten Mamuju",SULAWESI BARAT,91563.0,Indonesia,,,,-2.0751307,119.2880048,https://maps.google.com/?cid=0x0:0xad62aea84aeed6db,
komplek housing,Perumahan,Perumahan Topoyo Indah Residence,"W7GP+5JQ, Kabupaten, Kec. Topoyo, Kabupaten Mamuju Tengah, Sulawesi Barat 91563","Kabupaten, Kec. Topoyo, Kabupaten Mamuju Tengah",SULAWESI BARAT,91563.0,Indonesia,,,,-2.0745458,119.2866062,https://maps.google.com/?cid=0x0:0xde1e6e047247bf35,
komplek housing,Komplek perumahan,MeGhA TrHy,"Waeputeh, Kec. Topoyo, Kabupaten Mamuju Tengah, Sulawesi Barat 91563","Kec. Topoyo, Kabupaten Mamuju Tengah",SULAWESI BARAT,91563.0,Indonesia,81269421938.0,,,-2.0415018,119.272012,https://maps.google.com/?cid=0x0:0x6f038dc5433765ab,
komplek housing,Pembangunan Perumahan,Jalan sekoci topoyo,"W7MJ+2Q2, Jl. Pattanabone, Topoyo, Kec. Topoyo, Kabupaten Mamuju Tengah, Sulawesi Barat 91563","Jl. Pattanabone, Topoyo, Kec. Topoyo, Kabupaten Mamuju Tengah",SULAWESI BARAT,91563.0,Indonesia,,,,-2.0674896,119.28189,https://maps.google.com/?cid=0x0:0xeafa2f1b9dc0686d,
komplek housing,Komplek perumahan,Perumahan Kilometer Satu (KM1),"W7RP+4QR, Topoyo, Kec. Topoyo, Kabupaten Mamuju Tengah, Sulawesi Barat 91563","Topoyo, Kec. Topoyo, Kabupaten Mamuju Tengah",SULAWESI BARAT,91563.0,Indonesia,,,,-2.0598202,119.2867599,https://maps.google.com/?cid=0x0:0x68da03a57e03287e,
komplek housing,Pembangunan Perumahan,Scd topoyo,"R7V7+7R6, Pontanakayang, Kec. Budong-Budong, Kabupaten Mamuju Tengah, Sulawesi Barat 91563","Pontanakayang, Kec. Budong-Budong, Kabupaten Mamuju Tengah",SULAWESI BARAT,91563.0,Indonesia,,,,-2.156848,119.2645273,https://maps.google.com/?cid=0x0:0x324ae97cc6839dd8,
komplek housing,Komplek perumahan,Jess home,"X8W5+G29, Bambamanurung, Kec. Topoyo, Kabupaten Mamuju Tengah, Sulawesi Barat 91563","Bambamanurung, Kec. Topoyo, Kabupaten Mamuju Tengah",SULAWESI BARAT,91563.0,Indonesia,,,,-2.003703,119.3076098,https://maps.google.com/?cid=0x0:0xbb5b2814bde86b45,
komplek housing,Komplek perumahan,PERUMAHAN HAMDAL,"W776+P89, Pangalloang, Kec. Topoyo, Kabupaten Mamuju Tengah, Sulawesi Barat 91563","Pangalloang, Kec. Topoyo, Kabupaten Mamuju Tengah",SULAWESI BARAT,91563.0,Indonesia,85395838212.0,,,-2.0857014,119.2608676,https://maps.google.com/?cid=0x0:0x138ea307e0af483,
komplek housing,Komplek perumahan,Rumah MUH YUNUS,"X74C+2H4, Waeputeh, Kec. Topoyo, Kabupaten Mamuju Tengah, Sulawesi Barat 91563","Waeputeh, Kec. Topoyo, Kabupaten Mamuju Tengah",SULAWESI BARAT,91563.0,Indonesia,,,,-2.0449878,119.2714445,https://maps.google.com/?cid=0x0:0x29e35a22e4f31be8,
komplek housing,Kantor Perusahaan,PERUMAHAN TOPOYO CITY,"W7PF+6VV, Topoyo, Kec. Topoyo, Kabupaten Mamuju, Sulawesi Barat 91563","Topoyo, Kec. Topoyo, Kabupaten Mamuju",SULAWESI BARAT,91563.0,Indonesia,81355266115.0,,,-2.0643838,119.2746721,https://maps.google.com/?cid=0x0:0x3c97b2697ff1eb2c,
komplek housing,Perumahan,PERUMAHAN MAKAPPA RESIDENCE,"W74F+339, Tobadak, Kec. Tobadak, Kabupaten Mamuju Tengah, Sulawesi Barat 91563","Tobadak, Kec. Tobadak, Kabupaten Mamuju Tengah",SULAWESI BARAT,91563.0,Indonesia,,,,-2.094849,119.2727196,https://maps.google.com/?cid=0x0:0xe6bac8b9d5f47244,
komplek housing,Pembangunan Perumahan,Perumahan Malakbi Anugrah Aba,"W7PG+965, Topoyo, Kec. Topoyo, Kabupaten Mamuju Tengah, Sulawesi Barat 91563","Topoyo, Kec. Topoyo, Kabupaten Mamuju Tengah",SULAWESI BARAT,91563.0,Indonesia,,,,-2.0641127,119.2756005,https://maps.google.com/?cid=0x0:0xe72263e38761c52f,
komplek housing,Pembangunan Perumahan,BTN Topoyo Indah Residence,"Topoyo, Kec. Topoyo, Kabupaten Mamuju, Sulawesi Barat 91563","Kec. Topoyo, Kabupaten Mamuju",SULAWESI BARAT,91563.0,Indonesia,85399909999.0,,,-2.0690558,119.2861732,https://maps.google.com/?cid=0x0:0x6f12be5f587109f5,
komplek housing,Komplek perumahan,Cat Love,"X77R+7JP, Tappilina, Kec. Topoyo, Kabupaten Mamuju Tengah, Sulawesi Barat 91563","Tappilina, Kec. Topoyo, Kabupaten Mamuju Tengah",SULAWESI BARAT,91563.0,Indonesia,,,,-2.0355142,119.2921498,https://maps.google.com/?cid=0x0:0xab0f07026624bbde,
komplek housing,Gedung Apartemen,ZuKah Home,"V9G8+Q7M, Jln.Harapan, Mahahe, Kec. Tobadak, Kabupaten Mamuju Tengah, Sulawesi Barat 91563","Jln.Harapan, Mahahe, Kec. Tobadak, Kabupaten Mamuju Tengah",SULAWESI BARAT,91563.0,Indonesia,,,,-2.1230352,119.3656846,https://maps.google.com/?cid=0x0:0x2ee8add27775e21b,
komplek housing,Komplek perumahan,Rumah Pak Dusun Mekar Sari (EDI SISWOYO),"X72F+872, Waeputeh, Kec. Topoyo, Kabupaten Mamuju Tengah, Sulawesi Barat 91563","Waeputeh, Kec. Topoyo, Kabupaten Mamuju Tengah",SULAWESI BARAT,91563.0,Indonesia,,,,-2.049231,119.2731273,https://maps.google.com/?cid=0x0:0xce7e3118199e563e,
perumahan,perumahan,Kec. Budong-Budong,"Kabupaten Mamuju Tengah, Sulawesi Barat","Kabupaten Mamuju Tengah, Sulawesi Barat",SULAWESI BARAT,,Indonesia,,,,-2.1728923,119.2291681,https://maps.google.com/?cid=0x0:0x513972b69bc5b519,
perumahan,Pembangunan Perumahan,SUMADI,"R66H+JM3, Tinali, Kec. Budong-Budong, Kabupaten Mamuju Tengah, Sulawesi Barat 91563","Tinali, Kec. Budong-Budong, Kabupaten Mamuju Tengah",SULAWESI BARAT,91563.0,Indonesia,,,,-2.188489,119.2291726,https://maps.google.com/?cid=0x0:0x34322f1bf8f891cc,
perumahan,Komplek perumahan,Rumah Satria94,"Lorong 2 baru No.2, Salogatta, Kec. Budong-Budong, Kabupaten Mamuju Tengah, Sulawesi Barat 91563","Salogatta, Kec. Budong-Budong, Kabupaten Mamuju Tengah",SULAWESI BARAT,91563.0,Indonesia,,,,-2.1711027,119.2286932,https://maps.google.com/?cid=0x0:0x64fb8ae197f16c83,
perumahan,perumahan,Rumah AskarHasna,"W59W+6P4, Babana, Kec. Budong-Budong, Kabupaten Mamuju Tengah, Sulawesi Barat 91563","Babana, Kec. Budong-Budong, Kabupaten Mamuju Tengah",SULAWESI BARAT,91563.0,Indonesia,,,,-2.0819913,119.1968285,https://maps.google.com/?cid=0x0:0x246a7c99c4af8e97,
perumahan,Komplek perumahan,Fall,"Lorong 2 baru No.2, Salogatta, Kec. Budong-Budong, Kabupaten Mamuju Tengah, Sulawesi Barat 91563","Salogatta, Kec. Budong-Budong, Kabupaten Mamuju Tengah",SULAWESI BARAT,91563.0,Indonesia,,,,-2.170734,119.228428,https://maps.google.com/?cid=0x0:0x8794374f2c189b33,
perumahan,perumahan,m Arifin nur,"R7PC+R4F, Jl. Diponegoro, Pontanakayang, Kec. Budong-Budong, Kabupaten Mamuju Tengah, Sulawesi Barat 91563","Jl. Diponegoro, Pontanakayang, Kec. Budong-Budong, Kabupaten Mamuju Tengah",SULAWESI BARAT,91563.0,Indonesia,,,,-2.1626094,119.2694067,https://maps.google.com/?cid=0x0:0x285ff0b667a3d09a,
perumahan,Pembangunan Perumahan,Rumah afif/susana,"R6FG+F6, Salogatta, Kec. Budong-Budong, Kabupaten Mamuju Tengah, Sulawesi Barat","Kabupaten Mamuju Tengah, Sulawesi Barat",SULAWESI BARAT,,Indonesia,,,,-2.1764093,119.225542,https://maps.google.com/?cid=0x0:0x96b5019c6f95d1fc,
perumahan,Komplek perumahan,Rumah mila,"V6P2+M7, Babana, Kec. Budong-Budong, Kabupaten Mamuju Tengah, Sulawesi Barat","Kabupaten Mamuju Tengah, Sulawesi Barat",SULAWESI BARAT,,Indonesia,,,,-2.1132714,119.2007194,https://maps.google.com/?cid=0x0:0x1cceb5946f4c0587,
perumahan,Komplek perumahan,Rumah Zainal Wijaya,"R84G+GCW, Pasapa, Kec. Budong-Budong, Kabupaten Mamuju Tengah, Sulawesi Barat 91563","Pasapa, Kec. Budong-Budong, Kabupaten Mamuju Tengah",SULAWESI BARAT,91563.0,Indonesia,,,,-2.1939575,119.3262471,https://maps.google.com/?cid=0x0:0x9983935e15b92a6a,
perumahan,perumahan,Mitha,"R6JH+HCC, Salogatta, Kec. Budong-Budong, Kabupaten Mamuju Tengah, Sulawesi Barat 91563","Salogatta, Kec. Budong-Budong, Kabupaten Mamuju Tengah",SULAWESI BARAT,91563.0,Indonesia,,,,-2.1685697,119.2285162,https://maps.google.com/?cid=0x0:0x11a2acd6f77af8f8,
perumahan,Pembangunan Perumahan,Rumah Pribadi,"W6F5+2F, Babana, Kec. Budong-Budong, Kabupaten Mamuju Tengah, Sulawesi Barat","Kabupaten Mamuju Tengah, Sulawesi Barat",SULAWESI BARAT,,Indonesia,85321454925.0,,,-2.0774486,119.2086795,https://maps.google.com/?cid=0x0:0x696892b838098150,
perumahan,Perhimpunan Pengembang Perumahan,Rusli,"R66J+3QR, Tinali, Kec. Budong-Budong, Kabupaten Mamuju Tengah, Sulawesi Barat 91563","Tinali, Kec. Budong-Budong, Kabupaten Mamuju Tengah",SULAWESI BARAT,91563.0,Indonesia,,,,-2.1897707,119.2318917,https://maps.google.com/?cid=0x0:0xd0c381cb13b3c1bc,
perumahan,Perhimpunan Pengembang Perumahan,Rusli nanani,"Q6Q3+PFC, Barakkang, Kec. Budong-Budong, Kabupaten Mamuju Tengah, Sulawesi Barat 91563","Barakkang, Kec. Budong-Budong, Kabupaten Mamuju Tengah",SULAWESI BARAT,91563.0,Indonesia,,,,-2.2106792,119.203639,https://maps.google.com/?cid=0x0:0x803fe8267c6016d8,
perumahan,perumahan,Triliyan,"R6JH+HH6, Salogatta, Kec. Budong-Budong, Kabupaten Mamuju Tengah, Sulawesi Barat 91563","Salogatta, Kec. Budong-Budong, Kabupaten Mamuju Tengah",SULAWESI BARAT,91563.0,Indonesia,,,,-2.1686126,119.2286546,https://maps.google.com/?cid=0x0:0xf51ccd81983c92ba,
perumahan,perumahan,Rumah,"R6CJ+MC, Salogatta, Kec. Budong-Budong, Kabupaten Mamuju Tengah, Sulawesi Barat","Kabupaten Mamuju Tengah, Sulawesi Barat",SULAWESI BARAT,,Indonesia,,,,-2.1787265,119.2320498,https://maps.google.com/?cid=0x0:0x45f79bcffdbf8309,
perumahan,Rumah Mahyong,Rumah Usnul,"R7Q5+RX6, Pontanakayang, Kec. Budong-Budong, Kabupaten Mamuju Tengah, Sulawesi Barat 91563","Pontanakayang, Kec. Budong-Budong, Kabupaten Mamuju Tengah",SULAWESI BARAT,91563.0,Indonesia,,,,-2.160138,119.259953,https://maps.google.com/?cid=0x0:0x8615fd030db606cf,
perumahan,Komplek perumahan,Lorong,"R864+5MF, Bojo, Kec. Budong-Budong, Kabupaten Mamuju Tengah, Sulawesi Barat 91563","Bojo, Kec. Budong-Budong, Kabupaten Mamuju Tengah",SULAWESI BARAT,91563.0,Indonesia,,,,-2.1895625,119.3066719,https://maps.google.com/?cid=0x0:0x23976f56ea5d6960,
perumahan,Komplek perumahan,Fatahu Residence,"R88J+969, Pasapa, Kec. Budong-Budong, Kabupaten Mamuju Tengah, Sulawesi Barat 91563","Pasapa, Kec. Budong-Budong, Kabupaten Mamuju Tengah",SULAWESI BARAT,91563.0,Indonesia,,,,-2.1839538,119.3310228,https://maps.google.com/?cid=0x0:0x26ab37d62dec5a15,
perumahan,Komplek perumahan,KOMPLEK PERUMAHAN ASTRA POLOHU,"W63R+HX8, Jl. Poros Mamuju - Topoyo, Babana, Kec. Budong-Budong, Kabupaten Mamuju Tengah, Sulawesi Barat 91563","Jl. Poros Mamuju - Topoyo, Babana, Kec. Budong-Budong, Kabupaten Mamuju Tengah",SULAWESI BARAT,91563.0,Indonesia,,,,-2.0960871,119.2424683,https://maps.google.com/?cid=0x0:0x177933457272d374,
perumahan,Pembangunan Perumahan,Nur rezki,"V7W4+972, Babana, Kec. Budong-Budong, Kabupaten Mamuju Tengah, Sulawesi Barat 91563","Babana, Kec. Budong-Budong, Kabupaten Mamuju Tengah",SULAWESI BARAT,91563.0,Indonesia,,,,-2.1041094,119.2556281,https://maps.google.com/?cid=0x0:0xc7946fb7c0f05b8f,
perumahan,Komplek perumahan,Erwin Padjung,"R6GG+59W, Jl. Mangga1, Salogatta, Kec. Budong-Budong, Kabupaten Mamuju Tengah, Sulawesi Barat 91563","Jl. Mangga1, Salogatta, Kec. Budong-Budong, Kabupaten Mamuju Tengah",SULAWESI BARAT,91563.0,Indonesia,85157116362.0,,,-2.1745046,119.2259412,https://maps.google.com/?cid=0x0:0x3d87a4044e47627e,
perumahan,Pembangunan Perumahan,Alwi nafis  Aliansyah,"R7R9+CR4, Pontanakayang, Kec. Budong-Budong, Kabupaten Mamuju, Sulawesi Barat 91563","Pontanakayang, Kec. Budong-Budong, Kabupaten Mamuju",SULAWESI BARAT,91563.0,Indonesia,,,,-2.1589971,119.2695831,https://maps.google.com/?cid=0x0:0x155ee6f31a3e6dba,
perumahan,Pembangunan Perumahan,BESSE MARIANI,"W682+2WW, Babana, Kec. Budong-Budong, Kabupaten Mamuju, Sulawesi Barat 91563","Babana, Kec. Budong-Budong, Kabupaten Mamuju",SULAWESI BARAT,91563.0,Indonesia,,,,-2.0848959,119.2023277,https://maps.google.com/?cid=0x0:0x579079535065301f,
perumahan,Komplek perumahan,Ikhwanilmhana,"R645+CQQ, Barakkang, Kec. Budong-Budong, Kabupaten Mamuju, Sulawesi Barat 91563","Barakkang, Kec. Budong-Budong, Kabupaten Mamuju",SULAWESI BARAT,91563.0,Indonesia,,,,-2.1939207,119.2094856,https://maps.google.com/?cid=0x0:0x4eb8a0a8c2b3ecd0,
perumahan,Peternakan Ikan,Peternak ikan gurame,"R6JQ+F52, Salogatta, Kec. Budong-Budong, Kabupaten Mamuju Tengah, Sulawesi Barat 91563","Salogatta, Kec. Budong-Budong, Kabupaten Mamuju Tengah",SULAWESI BARAT,91563.0,Indonesia,,,,-2.1688613,119.2378899,https://maps.google.com/?cid=0x0:0x1b431dd4e3d46334,
perumahan,perumahan,Sulawesi Barat 91512,"Kabupaten Mamuju, Sulawesi Barat","Kabupaten Mamuju, Sulawesi Barat",SULAWESI BARAT,,Indonesia,,,,-1.8494265,119.5339711,https://maps.google.com/?cid=0x0:0x8e21c401717b8ceb,
perumahan,Perhimpunan Pengembang Perumahan,karossa,"49VW+79, Lara, Kec. Karossa, Kabupaten Mamuju, Sulawesi Barat 91563","Lara, Kec. Karossa, Kabupaten Mamuju",SULAWESI BARAT,91563.0,Indonesia,,,,-1.8567708,119.3959974,https://maps.google.com/?cid=0x0:0xe9e246d25b190221,
perumahan,Komplek perumahan,Komplek pasar karossa,"3HX4+VVM, Salubiro, Kec. Karossa, Kabupaten Mamuju Tengah, Sulawesi Barat","Kabupaten Mamuju Tengah, Sulawesi Barat",SULAWESI BARAT,,Indonesia,,,,-1.9002925,119.5571677,https://maps.google.com/?cid=0x0:0xa38649b429569f30,
perumahan,Komplek perumahan,SAWERIGADING,"Jl. Poros Majene - Mamuju No.20, Karossa, Kec. Karossa, Kabupaten Mamuju Tengah, Sulawesi Barat 91512","Karossa, Kec. Karossa, Kabupaten Mamuju Tengah",SULAWESI BARAT,91512.0,Indonesia,,,,-1.7930176,119.407117,https://maps.google.com/?cid=0x0:0x59bca1bb24b907cc,
perumahan,Pembangunan Perumahan,Karossa Mora 1,"69CP+5PW, Kadaila, Kec. Karossa, Kabupaten Mamuju, Sulawesi Barat","Kabupaten Mamuju, Sulawesi Barat",SULAWESI BARAT,,Indonesia,,,,-1.7795168,119.3868422,https://maps.google.com/?cid=0x0:0x5a16a90a3f5b1fc0,
perumahan,Pembangunan Perumahan,Aikin,"693X+CWH, Karossa, Kec. Karossa, Kabupaten Mamuju, Sulawesi Barat 91512","Karossa, Kec. Karossa, Kabupaten Mamuju",SULAWESI BARAT,91512.0,Indonesia,85334552526.0,,,-1.796449,119.3993118,https://maps.google.com/?cid=0x0:0x81165e17ab4b6570,
perumahan,perumahan,ALI,"59RQ+5V7, Karossa, Kec. Karossa, Kabupaten Mamuju Tengah, Sulawesi Barat 91512","Karossa, Kec. Karossa, Kabupaten Mamuju Tengah",SULAWESI BARAT,91512.0,Indonesia,,,,-1.8102251,119.3891652,https://maps.google.com/?cid=0x0:0x5bc0b3cfa6b84dfc,
perumahan,Pembangunan Perumahan,Ardy,"6C43+35H, Karossa, Kec. Karossa, Kabupaten Mamuju Tengah, Sulawesi Barat 91512","Karossa, Kec. Karossa, Kabupaten Mamuju Tengah",SULAWESI BARAT,91512.0,Indonesia,,,,-1.7948117,119.4029831,https://maps.google.com/?cid=0x0:0x623bc2800b72c778,
perumahan,perumahan,Suryanto,"69CX+Q5J, Kadaila, Kec. Karossa, Kabupaten Mamuju Tengah, Sulawesi Barat 91573","Kadaila, Kec. Karossa, Kabupaten Mamuju Tengah",SULAWESI BARAT,91573.0,Indonesia,,,,-1.777199,119.3990484,https://maps.google.com/?cid=0x0:0x85064fabd234bfd9,
perumahan,Komplek perumahan,Lilimori,"Baras - Karossa No.4, Karossa, Kec. Karossa, Kabupaten Mamuju Tengah, Sulawesi Barat 91512","Karossa, Kec. Karossa, Kabupaten Mamuju Tengah",SULAWESI BARAT,91512.0,Indonesia,,,,-1.7904211,119.4092994,https://maps.google.com/?cid=0x0:0xce096c9ad67dc245,
perumahan,Komplek perumahan,Karossa km 8,"3HX4+VVM, Salubiro, Kec. Karossa, Kabupaten Mamuju, Sulawesi Barat","Kabupaten Mamuju, Sulawesi Barat",SULAWESI BARAT,,Indonesia,,,,-1.9002925,119.5571677,https://maps.google.com/?cid=0x0:0x3e3e1a0a83b1a272,
perumahan,Komplek perumahan,Muhram/Nurjannah,"59JG+Q7X, Karossa, Kec. Karossa, Kabupaten Mamuju, Sulawesi Barat 91512","Karossa, Kec. Karossa, Kabupaten Mamuju",SULAWESI BARAT,91512.0,Indonesia,,,,-1.8180113,119.3757203,https://maps.google.com/?cid=0x0:0xcf69402fb0ac4355,
perumahan,Perhimpunan Pengembang Perumahan,Mora tengah,"59RQ+GVX, Karossa, Kec. Karossa, Kabupaten Mamuju Tengah, Sulawesi Barat","Kabupaten Mamuju Tengah, Sulawesi Barat",SULAWESI BARAT,,Indonesia,,,,-1.808511,119.3898439,https://maps.google.com/?cid=0x0:0xa79ab3be5b19194d,
perumahan,Komplek perumahan,Merta,"5CM7+4RV, Jalan, Lembah Hopo, Karossa, Central Mamuju Regency, West Sulawesi 91512","Jalan, Lembah Hopo, Karossa, Central Mamuju Regency",SULAWESI BARAT,91512.0,Indonesia,,,,-1.8171281,119.4145322,https://maps.google.com/?cid=0x0:0xa6c87041a6433723,
perumahan,Komplek perumahan,Rumah saya,"69CV+79W, Kadaila, Kec. Karossa, Kabupaten Mamuju Tengah, Sulawesi Barat 91573","Kadaila, Kec. Karossa, Kabupaten Mamuju Tengah",SULAWESI BARAT,91573.0,Indonesia,,,,-1.7792698,119.3934589,https://maps.google.com/?cid=0x0:0xfc7848f3779c62c8,
perumahan,Perhimpunan Pengembang Perumahan,Nanus,"6F8V+GR, Sanjango, Kec. Karossa, Kabupaten Mamuju Tengah, Sulawesi Barat","Kabupaten Mamuju Tengah, Sulawesi Barat",SULAWESI BARAT,,Indonesia,,,,-1.7837023,119.494612,https://maps.google.com/?cid=0x0:0xeba25e781631d65f,
perumahan,Kantor Pemerintah,Desa sanjango emasnya,"5HG9+PGJ, Sanjango, Kec. Karossa, Kabupaten Mamuju, Sulawesi Barat 91512","Sanjango, Kec. Karossa, Kabupaten Mamuju",SULAWESI BARAT,91512.0,Indonesia,,,,-1.8231738,119.5687646,https://maps.google.com/?cid=0x0:0x427cd5b9ac87db10,
perumahan,Perhimpunan Pengembang Perumahan,GRAHA LOTU VILLAGE,"5CV2+XHW, Lembah Hopo, Kec. Karossa, Kabupaten Mamuju Tengah, Sulawesi Barat","Kabupaten Mamuju Tengah, Sulawesi Barat",SULAWESI BARAT,,Indonesia,81242789242.0,,,-1.805003,119.4014442,https://maps.google.com/?cid=0x0:0x16ffb35bbb97f51,
perumahan,Perhimpunan Pengembang Perumahan,Lokasi uwe Taufan kota karossa,"3HX4+VVM, Salubiro, Kec. Karossa, Kabupaten Mamuju Tengah, Sulawesi Barat","Kabupaten Mamuju Tengah, Sulawesi Barat",SULAWESI BARAT,,Indonesia,,,,-1.9002925,119.5571677,https://maps.google.com/?cid=0x0:0xbbab107e12550ed4,
perumahan,Komplek perumahan,Perumahan Bumi Indah Pelangi,"5CX2+2VX, Lembah Hopo, Kec. Karossa, Kabupaten Mamuju, Sulawesi Barat","Kabupaten Mamuju, Sulawesi Barat",SULAWESI BARAT,,Indonesia,82214072568.0,,,-1.8023891,119.4022433,https://maps.google.com/?cid=0x0:0xa571c6283d4d54a1,
perumahan,Komplek perumahan,Graha Nusa 5,"8V87+JXG, Simboro, Kec. Simboro Dan Kepulauan, Kabupaten Mamuju, Sulawesi Barat 91512","Simboro, Kec. Simboro Dan Kepulauan, Kabupaten Mamuju",SULAWESI BARAT,91512.0,Indonesia,,,,-2.6834336,118.8649668,https://maps.google.com/?cid=0x0:0x981f29551ddffc78,
perumahan,Pondok,KM. 6 Karossa,"6C22+WF9 Rumah Penilik Jalan, Karossa, Kec. Karossa, Kabupaten Mamuju Tengah, Sulawesi Barat 91512","Karossa, Kec. Karossa, Kabupaten Mamuju Tengah",SULAWESI BARAT,91512.0,Indonesia,,,,-1.797709,119.4012402,https://maps.google.com/?cid=0x0:0x476c23c54f90734b,
perumahan,Komplek perumahan,Kavlingan soldomi,"Jl. Poros Palu - Mamuju No.20, Karossa, Kec. Karossa, Kabupaten Mamuju Tengah, Sulawesi Barat 91512","Karossa, Kec. Karossa, Kabupaten Mamuju Tengah",SULAWESI BARAT,91512.0,Indonesia,,,,-1.7901967,119.4052733,https://maps.google.com/?cid=0x0:0xd871183d737fee3d,
perumahan,Perhimpunan Pengembang Perumahan,Risman (Bapak Arjun),"5CH2+2VQ, Lembah Hopo, Kec. Karossa, Kabupaten Mamuju, Sulawesi Barat","Kabupaten Mamuju, Sulawesi Barat",SULAWESI BARAT,,Indonesia,,,,-1.8224009,119.4022213,https://maps.google.com/?cid=0x0:0x681b32a6feb09ee3,
perumahan,perumahan,Kec. Pangale,"Kabupaten Mamuju Tengah, Sulawesi Barat","Kabupaten Mamuju Tengah, Sulawesi Barat",SULAWESI BARAT,,Indonesia,,,,-2.2717045,119.1995263,https://maps.google.com/?cid=0x0:0x38044147fdebd95,
perumahan,Pembangunan Perumahan,Dusun babana,"P4RX+643, Kombiling, Kec. Pangale, Kabupaten Mamuju Tengah, Sulawesi Barat 91563","Kombiling, Kec. Pangale, Kabupaten Mamuju Tengah",SULAWESI BARAT,91563.0,Indonesia,,,,-2.259488,119.1477867,https://maps.google.com/?cid=0x0:0x5e6b218fe3e90e2d,
perumahan,Perhimpunan Pengembang Perumahan,Rumah asip,"P4VV+CWV, Kombiling, Kec. Pangale, Kabupaten Mamuju, Sulawesi Barat 91563","Kombiling, Kec. Pangale, Kabupaten Mamuju",SULAWESI BARAT,91563.0,Indonesia,,,,-2.2556886,119.1447956,https://maps.google.com/?cid=0x0:0x633ef42901a732d9,
perumahan,Rumah Kayu,Rumah kepala dusun,"P59Q+GJ8, Polopangale, Kec. Pangale, Kabupaten Mamuju Tengah, Sulawesi Barat","Kabupaten Mamuju Tengah, Sulawesi Barat",SULAWESI BARAT,,Indonesia,,,,-2.2812026,119.189087,https://maps.google.com/?cid=0x0:0x9748aaca7a6c2f05,
perumahan,Komplek perumahan,Rumah DG tompock,"P5M9+Q7, Sartanamaju, Kec. Pangale, Kabupaten Mamuju Tengah, Sulawesi Barat 91563","Sartanamaju, Kec. Pangale, Kabupaten Mamuju Tengah",SULAWESI BARAT,91563.0,Indonesia,85280471840.0,,,-2.263408,119.1809957,https://maps.google.com/?cid=0x0:0x8183bb31a597cd29,
perumahan,Komplek perumahan,Rumah kepala dusun tambak rejo,"P5V4+RFG, Sartanamaju, Kec. Pangale, Kabupaten Mamuju Tengah, Sulawesi Barat 91563","Sartanamaju, Kec. Pangale, Kabupaten Mamuju Tengah",SULAWESI BARAT,91563.0,Indonesia,,,,-2.2554463,119.1562,https://maps.google.com/?cid=0x0:0x942f5f7bec161d56,
perumahan,perumahan,Rumah Mugi sae,"M5XG+96V, Jl. Poros Majene - Mamuju, Dusun Lemo Baru, Pangale, Kec. Pangale, Kabupaten Mamuju Tengah, Sulawesi Barat 91563","Jl. Poros Majene - Mamuju, Dusun Lemo Baru, Pangale, Kec. Pangale, Kabupaten Mamuju Tengah",SULAWESI BARAT,91563.0,Indonesia,,,,-2.3015178,119.1755499,https://maps.google.com/?cid=0x0:0xaeec230de3d1a510,
perumahan,Komplek perumahan,Rumah nek iye',"P47P+92G, Pangale, Kec. Pangale, Kabupaten Mamuju Tengah, Sulawesi Barat 91563","Pangale, Kec. Pangale, Kabupaten Mamuju Tengah",SULAWESI BARAT,91563.0,Indonesia,,,,-2.2872184,119.1346522,https://maps.google.com/?cid=0x0:0x6def8c094b6031d0,
perumahan,Kompleks Kondominium,Tempat Pulang,"P6VQ+V56, Kuo, Kec. Pangale, Kabupaten Mamuju Tengah, Sulawesi Barat","Kabupaten Mamuju Tengah, Sulawesi Barat",SULAWESI BARAT,,Indonesia,,,,-2.2553412,119.2378899,https://maps.google.com/?cid=0x0:0xbe2cfb31d2cf8f49,
perumahan,Kompleks Kondominium,Rumah taufik,"P6HJ+23J, Kuo, Kec. Pangale, Kabupaten Mamuju, Sulawesi Barat","Kabupaten Mamuju, Sulawesi Barat",SULAWESI BARAT,,Indonesia,,,,-2.2724164,119.2301355,https://maps.google.com/?cid=0x0:0x6bb9f6823f246917,
perumahan,Komplek perumahan,Rumah DG ramli,"P5M9+Q7, rumah No.65, Dusun rinjani, Sartanamaju, Kec. Pangale, Kabupaten Mamuju Tengah, Sulawesi Barat 91563","rumah No.65, Dusun rinjani, Sartanamaju, Kec. Pangale, Kabupaten Mamuju Tengah",SULAWESI BARAT,91563.0,Indonesia,,,,-2.2625243,119.1808516,https://maps.google.com/?cid=0x0:0xfff7340343b475ee,
perumahan,Kantor Pemerintah Distrik,Desa sartanamaju,"P5PJ+R6C, Sartanamaju, Kec. Pangale, Kabupaten Mamuju Tengah, Sulawesi Barat 91563","Sartanamaju, Kec. Pangale, Kabupaten Mamuju Tengah",SULAWESI BARAT,91563.0,Indonesia,,,,-2.2629451,119.1805056,https://maps.google.com/?cid=0x0:0xac03ae141856699c,
perumahan,perumahan,Rumah fik,"Q6Q2+6XM, Barakkang, Kec. Pangale, Kabupaten Mamuju Tengah, Sulawesi Barat 91563","Barakkang, Kec. Pangale, Kabupaten Mamuju Tengah",SULAWESI BARAT,91563.0,Indonesia,,,,-2.2119249,119.2024098,https://maps.google.com/?cid=0x0:0xbf0b79bad31f8d5d,
perumahan,Rumah Kayu,Simpang pangale,"P6J2+329, Polopangale, Kec. Pangale, Kabupaten Mamuju Tengah, Sulawesi Barat 91562","Polopangale, Kec. Pangale, Kabupaten Mamuju Tengah",SULAWESI BARAT,91562.0,Indonesia,,,,-2.269836,119.2000961,https://maps.google.com/?cid=0x0:0xcbd23002190508f6,
perumahan,Pembangunan Perumahan,Rumah hakim ff,"P5M9+Q7, dusun rinjani, Sartanamaju, Kec. Pangale, Kabupaten Mamuju Tengah, Sulawesi Barat 91563","dusun rinjani, Sartanamaju, Kec. Pangale, Kabupaten Mamuju Tengah",SULAWESI BARAT,91563.0,Indonesia,,,,-2.2620392,119.1826041,https://maps.google.com/?cid=0x0:0xdeeaf602363ccca9,
perumahan,Kompleks Kondominium,Rumah mempelai wanita,"P52F+8X, Pangale, Kec. Pangale, Kabupaten Mamuju Tengah, Sulawesi Barat","Kabupaten Mamuju Tengah, Sulawesi Barat",SULAWESI BARAT,,Indonesia,,,,-2.2991509,119.17495,https://maps.google.com/?cid=0x0:0x75abc75dc3fa71f1,
perumahan,Komplek perumahan,Rumah sarip joang,"Rumah No.mor 64, dusun rinjani, Sartanamaju, Kec. Pangale, Kabupaten Mamuju Tengah, Sulawesi Barat 91563","dusun rinjani, Sartanamaju, Kec. Pangale, Kabupaten Mamuju Tengah",SULAWESI BARAT,91563.0,Indonesia,,,,-2.2615316,119.1807882,https://maps.google.com/?cid=0x0:0xcdf369a729294d06,
perumahan,Komplek perumahan,Rumah Agus,"Q667+H4R, Dusun Polo jajar, Polocamba","Kabupaten Mamuju Tengah, Sulawesi Barat",SULAWESI BARAT,,Indonesia,,,,-2.2385015,119.2127575,https://maps.google.com/?cid=0x0:0xe69eb882aaa6623f,
perumahan,Pembangunan Perumahan,Batas desa polo lereng dan polo camba,"Q5GX+JF4, Jl. Poros Palu - Mamuju, Polo Lereng, Kec. Pangale, Kabupaten Mamuju Tengah, Sulawesi Barat 91563","Jl. Poros Palu - Mamuju, Polo Lereng, Kec. Pangale, Kabupaten Mamuju Tengah",SULAWESI BARAT,91563.0,Indonesia,,,,-2.2234761,119.1986946,https://maps.google.com/?cid=0x0:0xa42a1f0685b83b3,
perumahan,Komplek perumahan,Rumah arianto,"P4VV+8QQ, Kombiling, Kec. Pangale, Kabupaten Mamuju Tengah, Sulawesi Barat 91563","Kombiling, Kec. Pangale, Kabupaten Mamuju Tengah",SULAWESI BARAT,91563.0,Indonesia,,,,-2.2566738,119.1444721,https://maps.google.com/?cid=0x0:0xf01e6eb32ae26e6f,
perumahan,Komplek perumahan,RUMAH. m syahril Maulana,"Q57W+56X, Polo Lereng, Kec. Pangale, Kabupaten Mamuju, Sulawesi Barat 91563","Polo Lereng, Kec. Pangale, Kabupaten Mamuju",SULAWESI BARAT,91563.0,Indonesia,,,,-2.2370145,119.1956102,https://maps.google.com/?cid=0x0:0xc910890b4092f61e,
perumahan,Komplek perumahan,Rumah Suhardi,"P5QJ+9X, Sartanamaju, Kec. Pangale, Kabupaten Mamuju Tengah, Sulawesi Barat","Kabupaten Mamuju Tengah, Sulawesi Barat",SULAWESI BARAT,,Indonesia,,,,-2.2614683,119.1825337,https://maps.google.com/?cid=0x0:0xef48131cf8dcbf5d,
perumahan,Komplek perumahan,Ernawati Ali,"P6XH+4PG, RT II, Dusun Rawa Pandang, Kuo, Kec. Pangale, Kabupaten Mamuju Tengah, Sulawesi Barat 91562","RT II, Dusun Rawa Pandang, Kuo, Kec. Pangale, Kabupaten Mamuju Tengah",SULAWESI BARAT,91562.0,Indonesia,,,,-2.2521952,119.2293307,https://maps.google.com/?cid=0x0:0xad11fbe527459d12,
perumahan,Pembangunan Perumahan,Perumahan Baru Sampaga,"M4MP+7JH, Sampaga, Kec. Sampaga, Kabupaten Mamuju, Sulawesi Barat 91563","Sampaga, Kec. Sampaga, Kabupaten Mamuju",SULAWESI BARAT,91563.0,Indonesia,,,,-2.316823,119.1366092,https://maps.google.com/?cid=0x0:0xe29f241d5dd1a68b,
perumahan,Komplek perumahan,Tobadak Residence,"Jln. Kondo Sapata, Tobadak, Kec. Tobadak, Kabupaten Mamuju Tengah, Sulawesi Barat 91563","Tobadak, Kec. Tobadak, Kabupaten Mamuju Tengah",SULAWESI BARAT,91563.0,Indonesia,,,,-2.0827208,119.304967,https://maps.google.com/?cid=0x0:0xcbbe0f7a231097fc,
perumahan,Komplek perumahan,Perumahan Bumi Tobadak Permai (BTP),"W77M+88C, Tobadak, Kec. Tobadak, Kabupaten Mamuju, Sulawesi Barat 91563","Tobadak, Kec. Tobadak, Kabupaten Mamuju",SULAWESI BARAT,91563.0,Indonesia,81283786276.0,,,-2.086693,119.2832747,https://maps.google.com/?cid=0x0:0xb18e778c7ae3c7b6,
perumahan,Pemasok filter udara,BTN bumi tobadak permai tallungallo tobadak Mamuju tengah,"W76M+V6G, Tobadak, Kec. Tobadak, Kabupaten Mamuju Tengah, Sulawesi Barat 91563","Tobadak, Kec. Tobadak, Kabupaten Mamuju Tengah",SULAWESI BARAT,91563.0,Indonesia,,,,-2.0878213,119.283081,https://maps.google.com/?cid=0x0:0xced9f11e6b6da45b,
perumahan,Komplek perumahan,BTN BUANA TOBADAK INDAH,"W76H+597, Tobadak, Kec. Tobadak, Kabupaten Mamuju, Sulawesi Barat 91563","Tobadak, Kec. Tobadak, Kabupaten Mamuju",SULAWESI BARAT,91563.0,Indonesia,85256202020.0,,,-2.0895955,119.2784245,https://maps.google.com/?cid=0x0:0x7769569201c05ba5,
perumahan,Pembangunan Perumahan,Perumahan Guru SMA Negeri 1 Tobadak,"V9M5+X27, Tobadak, Kec. Tobadak, Kabupaten Mamuju, Sulawesi Barat 91563","Tobadak, Kec. Tobadak, Kabupaten Mamuju",SULAWESI BARAT,91563.0,Indonesia,,,,-2.115283,119.3575917,https://maps.google.com/?cid=0x0:0xad364c37316ec189,
perumahan,Kompleks Kondominium,KONSEP INDONESIA CHAPTER MAMUJU TENGAH,"W73F+W85, Jl. Poros Palu - Mamuju, Tobadak, Kec. Tobadak, Kabupaten Mamuju Tengah, Sulawesi Barat 91563","Jl. Poros Palu - Mamuju, Tobadak, Kec. Tobadak, Kabupaten Mamuju Tengah",SULAWESI BARAT,91563.0,Indonesia,,,,-2.0959325,119.2730512,https://maps.google.com/?cid=0x0:0x2dcca76907b06752,
perumahan,Komplek perumahan,Abigail,"W86W+X4W, Tobadak, Kec. Tobadak, Kabupaten Mamuju Tengah, Sulawesi Barat 91563","Tobadak, Kec. Tobadak, Kabupaten Mamuju Tengah",SULAWESI BARAT,91563.0,Indonesia,,,,-2.0878501,119.3448479,https://maps.google.com/?cid=0x0:0xb31726e451fcc2bd,
perumahan,perumahan,Perumahan,"V967+7M7, Salobaja, Kec. Tobadak, Kabupaten Mamuju Tengah, Sulawesi Barat 91563","Salobaja, Kec. Tobadak, Kabupaten Mamuju Tengah",SULAWESI BARAT,91563.0,Indonesia,,,,-2.1393335,119.3641873,https://maps.google.com/?cid=0x0:0xb6c11847722a8ab,
perumahan,Pondok,Rumah kos anugrah,"V9G6+RVW, Lorong 2 Timur, Tobadak, Kec. Tobadak, Kabupaten Mamuju Tengah, Sulawesi Barat 91563","Lorong 2 Timur, Tobadak, Kec. Tobadak, Kabupaten Mamuju Tengah",SULAWESI BARAT,91563.0,Indonesia,,,,-2.1228992,119.3621946,https://maps.google.com/?cid=0x0:0x92ab5f9a726a8166,
perumahan,Komplek perumahan,Perumahan bumi tobadak indah tallungallo,"W75H+JF3, Tobadak, Kec. Tobadak, Kabupaten Mamuju Tengah, Sulawesi Barat 91563","Tobadak, Kec. Tobadak, Kabupaten Mamuju Tengah",SULAWESI BARAT,91563.0,Indonesia,,,,-2.0909815,119.2786667,https://maps.google.com/?cid=0x0:0xed5cf473e208c68d,
perumahan,Pusat Perbelanjaan,Pasar Tobadak,"V8W7+X9F, Dusun Yudha Mulya, Tobadak, Kec. Tobadak, Kabupaten Mamuju Tengah, Sulawesi Barat 91563","Dusun Yudha Mulya, Tobadak, Kec. Tobadak, Kabupaten Mamuju Tengah",SULAWESI BARAT,91563.0,Indonesia,,,,-2.102572,119.3134183,https://maps.google.com/?cid=0x0:0xee1fc28f32122ff5,
perumahan,Toko bahan makanan,Mamuju Tengah,"W7CR+HJM, Tobadak, Kec. Tobadak, Kabupaten Mamuju Tengah, Sulawesi Barat 91563","Tobadak, Kec. Tobadak, Kabupaten Mamuju Tengah",SULAWESI BARAT,91563.0,Indonesia,,,,-2.0785376,119.2915378,https://maps.google.com/?cid=0x0:0x6e26851fc06fc1a9,
perumahan,Perumahan,PERUMAHAN MAKAPPA RESIDENCE,"W74F+339, Tobadak, Kec. Tobadak, Kabupaten Mamuju Tengah, Sulawesi Barat 91563","Tobadak, Kec. Tobadak, Kabupaten Mamuju Tengah",SULAWESI BARAT,91563.0,Indonesia,,,,-2.094849,119.2727196,https://maps.google.com/?cid=0x0:0xe6bac8b9d5f47244,
perumahan,Komplek perumahan,Perumahan bumi tobadak indah,"W77Q+Q76, Jl. Poros Majene - Mamuju, Tobadak, Kec. Tobadak, Kabupaten Mamuju Tengah, Sulawesi Barat 91563","Jl. Poros Majene - Mamuju, Tobadak, Kec. Tobadak, Kabupaten Mamuju Tengah",SULAWESI BARAT,91563.0,Indonesia,,,,-2.0904375,119.2788906,https://maps.google.com/?cid=0x0:0xdeb7063ab65a370b,
perumahan,Komplek perumahan,Rumah athiyya,"W73F+W85, Jl. Poros Palu - Mamuju, Tobadak, Kec. Tobadak, Kabupaten Mamuju Tengah, Sulawesi Barat 91563","Jl. Poros Palu - Mamuju, Tobadak, Kec. Tobadak, Kabupaten Mamuju Tengah",SULAWESI BARAT,91563.0,Indonesia,,,,-2.0961949,119.2732383,https://maps.google.com/?cid=0x0:0xcd8e3ab2f98bd477,
perumahan,Komplek perumahan,Sopirxpdc,"W76P+3G2, Tobadak, Kec. Tobadak, Kabupaten Mamuju Tengah, Sulawesi Barat 91563","Tobadak, Kec. Tobadak, Kabupaten Mamuju Tengah",SULAWESI BARAT,91563.0,Indonesia,,,,-2.0898679,119.2862549,https://maps.google.com/?cid=0x0:0xe080f40b1d93668b,
perumahan,Rumah wisata,Wahyu Ade Putra S.IP,"W76M+HH, Tobadak, Kec. Tobadak, Kabupaten Mamuju, Sulawesi Barat 91563","Tobadak, Kec. Tobadak, Kabupaten Mamuju",SULAWESI BARAT,91563.0,Indonesia,85340263363.0,,,-2.0886075,119.2840141,https://maps.google.com/?cid=0x0:0x430ebbd2c37c0479,
perumahan,Pembangunan Perumahan,Paul,"V8RG+3WJ, Unnamed Road, Tobadak, Kec. Tobadak, Kabupaten Mamuju Tengah, Sulawesi Barat 91563","Unnamed Road, Tobadak, Kec. Tobadak, Kabupaten Mamuju Tengah",SULAWESI BARAT,91563.0,Indonesia,,,,-2.109785,119.32726,https://maps.google.com/?cid=0x0:0x78ed9b5bcb46e8a4,
perumahan,Dapur Umum,Polongaan,"W84V+PQ7, Jl.lorong 3, Tobadak, Kec. Tobadak, Kabupaten Mamuju Tengah, Sulawesi Barat 91563","Jl.lorong 3, Tobadak, Kec. Tobadak, Kabupaten Mamuju Tengah",SULAWESI BARAT,91563.0,Indonesia,,,,-2.0932018,119.3444167,https://maps.google.com/?cid=0x0:0x4bb74143e2ede426,
perumahan,Komplek perumahan,Yuli Bosan,"V9H7+76M, Mahahe, Kec. Tobadak, Kabupaten Mamuju Tengah, Sulawesi Barat 91563","Mahahe, Kec. Tobadak, Kabupaten Mamuju Tengah",SULAWESI BARAT,91563.0,Indonesia,,,,-2.1217147,119.3627037,https://maps.google.com/?cid=0x0:0x2c277a463814cf9d,
perumahan,perumahan,Kec. Tobadak,"Kabupaten Mamuju Tengah, Sulawesi Barat","Kabupaten Mamuju Tengah, Sulawesi Barat",SULAWESI BARAT,,Indonesia,,,,-2.1154458,119.3640873,https://maps.google.com/?cid=0x0:0xa52a8447f9452afd,
perumahan,Pembangunan Perumahan,Tobadak 7,"V9M7+RJW, Mahahe, Kec. Tobadak, Kabupaten Mamuju Tengah, Sulawesi Barat","Kabupaten Mamuju Tengah, Sulawesi Barat",SULAWESI BARAT,,Indonesia,,,,-2.1153891,119.364086,https://maps.google.com/?cid=0x0:0x14f3ec311e7a712,
perumahan,Perumahan,BTN Griya Benteng Residence,"W77R+52R, Tobadak, Kec. Tobadak, Kabupaten Mamuju, Sulawesi Barat","Kabupaten Mamuju, Sulawesi Barat",SULAWESI BARAT,,Indonesia,,,,-2.0870219,119.2900301,https://maps.google.com/?cid=0x0:0xd05794e3f7e9c18f,
perumahan,Komplek perumahan,Amal indah,"V86F+RV, Tobadak, Kec. Tobadak, Kabupaten Mamuju, Sulawesi Barat","Kabupaten Mamuju, Sulawesi Barat",SULAWESI BARAT,,Indonesia,,,,-2.1380273,119.324586,https://maps.google.com/?cid=0x0:0xab5b8b01b7f9af50,
perumahan,Pembangunan Perumahan,ROTARY FAST (rumah),"W75H+Q2, Tobadak, Kec. Tobadak, Kabupaten Mamuju, Sulawesi Barat 91563","Tobadak, Kec. Tobadak, Kabupaten Mamuju",SULAWESI BARAT,91563.0,Indonesia,,,,-2.0907583,119.2775704,https://maps.google.com/?cid=0x0:0x126bf3dc081e88cb,
perumahan,Pembangunan Perumahan,Perumahan Rejawan Mansion City,"W882+6VW, Unnamed Road, Tobadak, Kec. Tobadak, Kabupaten Mamuju Tengah, Sulawesi Barat 91563","Unnamed Road, Tobadak, Kec. Tobadak, Kabupaten Mamuju Tengah",SULAWESI BARAT,91563.0,Indonesia,,,,-2.0843843,119.3022182,https://maps.google.com/?cid=0x0:0xf48b9c2642ebf0de,
perumahan,Pembangunan Perumahan,Tobadak IV,"WCHF+33W, Batu Parigi, Kec. Tobadak, Kabupaten Mamuju Tengah, Sulawesi Barat 91563","Batu Parigi, Kec. Tobadak, Kabupaten Mamuju Tengah",SULAWESI BARAT,91563.0,Indonesia,,,,-2.0722673,119.422693,https://maps.google.com/?cid=0x0:0x96db278401507b53,
perumahan,perumahan,Sulawesi Barat 91563,"Kabupaten Mamuju, Sulawesi Barat","Kabupaten Mamuju, Sulawesi Barat",SULAWESI BARAT,,Indonesia,,,,-2.0727011,119.5107708,https://maps.google.com/?cid=0x0:0x8bfaa35dac2725d7,
perumahan,Kantor Perusahaan,PERUMAHAN TOPOYO CITY,"W7PF+6VV, Topoyo, Kec. Topoyo, Kabupaten Mamuju, Sulawesi Barat 91563","Topoyo, Kec. Topoyo, Kabupaten Mamuju",SULAWESI BARAT,91563.0,Indonesia,81355266115.0,,,-2.0643838,119.2746721,https://maps.google.com/?cid=0x0:0x3c97b2697ff1eb2c,
perumahan,Pembangunan Perumahan,BTN Topoyo Indah Residence,"Topoyo, Kec. Topoyo, Kabupaten Mamuju, Sulawesi Barat 91563","Kec. Topoyo, Kabupaten Mamuju",SULAWESI BARAT,91563.0,Indonesia,85399909999.0,,,-2.0690558,119.2861732,https://maps.google.com/?cid=0x0:0x6f12be5f587109f5,
perumahan,Perumahan,Perumahan ngapaboa,"W7QJ+3J5, Topoyo, Kec. Topoyo, Kabupaten Mamuju Tengah, Sulawesi Barat","Kabupaten Mamuju Tengah, Sulawesi Barat",SULAWESI BARAT,,Indonesia,,,,-2.0625259,119.2817266,https://maps.google.com/?cid=0x0:0x1a6214e43add98a9,
perumahan,Perumahan,Perumahan Topoyo Indah Residence,"W7GP+5JQ, Kabupaten, Kec. Topoyo, Kabupaten Mamuju Tengah, Sulawesi Barat 91563","Kabupaten, Kec. Topoyo, Kabupaten Mamuju Tengah",SULAWESI BARAT,91563.0,Indonesia,,,,-2.0745458,119.2866062,https://maps.google.com/?cid=0x0:0xde1e6e047247bf35,
perumahan,Perumahan,Graha Berlian Topoyo,"W7PM+6FJ, Jl. Pattanabone, Topoyo, Kec. Topoyo, Kabupaten Mamuju Tengah, Sulawesi Barat 91563","Jl. Pattanabone, Topoyo, Kec. Topoyo, Kabupaten Mamuju Tengah",SULAWESI BARAT,91563.0,Indonesia,,,,-2.0644196,119.2836539,https://maps.google.com/?cid=0x0:0x9d45580494e4d2,
perumahan,Pembangunan Perumahan,Perumahan topoyo city,"V9M8+JC7 Perumahan topoyo city, Mahahe, Kec. Tobadak, Kabupaten Mamuju Tengah, Sulawesi Barat 91563","Mahahe, Kec. Tobadak, Kabupaten Mamuju Tengah",SULAWESI BARAT,91563.0,Indonesia,,,,-2.1159589,119.366044,https://maps.google.com/?cid=0x0:0x228ffbc0c2cf98bd,
perumahan,Perumahan,Perumahan Buana Topoyo Indah (BTI 2),"Unnamed Road, Pangalloang, Kec. Topoyo, Kabupaten Mamuju Tengah, Sulawesi Barat 91563","Pangalloang, Kec. Topoyo, Kabupaten Mamuju Tengah",SULAWESI BARAT,91563.0,Indonesia,85256202020.0,,,-2.0815324,119.2625621,https://maps.google.com/?cid=0x0:0x73a19589a2d27d3,
perumahan,Kantor Perusahaan,Perumahan Griya Topoyo Permai,"W7FJ+F36, JL.Poros Bayor, Topoyo, Kec. Topoyo, Kabupaten Mamuju Tengah, Sulawesi Barat 91563","JL.Poros Bayor, Topoyo, Kec. Topoyo, Kabupaten Mamuju Tengah",SULAWESI BARAT,91563.0,Indonesia,,,,-2.0763436,119.2801421,https://maps.google.com/?cid=0x0:0xcb3889accd79a88d,
perumahan,Komplek perumahan,Rumah MUH YUNUS,"X74C+2H4, Waeputeh, Kec. Topoyo, Kabupaten Mamuju Tengah, Sulawesi Barat 91563","Waeputeh, Kec. Topoyo, Kabupaten Mamuju Tengah",SULAWESI BARAT,91563.0,Indonesia,,,,-2.0449878,119.2714445,https://maps.google.com/?cid=0x0:0x29e35a22e4f31be8,
perumahan,Kantor Perusahaan,TANAH TOPOYO,"W79J+VGX, Topoyo, Kec. Topoyo, Kabupaten Mamuju Tengah, Sulawesi Barat 91563","Topoyo, Kec. Topoyo, Kabupaten Mamuju Tengah",SULAWESI BARAT,91563.0,Indonesia,,,,-2.0802698,119.2813721,https://maps.google.com/?cid=0x0:0x789525f19ced9f87,
perumahan,Pembangunan Perumahan,Bumi Topoyo Permai B.T.P,"W7QJ+H29, Topoyo, Kec. Topoyo, Kabupaten Mamuju, Sulawesi Barat 91563","Topoyo, Kec. Topoyo, Kabupaten Mamuju",SULAWESI BARAT,91563.0,Indonesia,,,,-2.0610988,119.2801084,https://maps.google.com/?cid=0x0:0x280217996c73825b,
perumahan,Komplek perumahan,PERUMAHAN HAMDAL,"W776+P89, Pangalloang, Kec. Topoyo, Kabupaten Mamuju Tengah, Sulawesi Barat 91563","Pangalloang, Kec. Topoyo, Kabupaten Mamuju Tengah",SULAWESI BARAT,91563.0,Indonesia,85395838212.0,,,-2.0857014,119.2608676,https://maps.google.com/?cid=0x0:0x138ea307e0af483,
perumahan,Komplek perumahan,Perumahan Kilometer Satu (KM1),"W7RP+4QR, Topoyo, Kec. Topoyo, Kabupaten Mamuju Tengah, Sulawesi Barat 91563","Topoyo, Kec. Topoyo, Kabupaten Mamuju Tengah",SULAWESI BARAT,91563.0,Indonesia,,,,-2.0598202,119.2867599,https://maps.google.com/?cid=0x0:0x68da03a57e03287e,
perumahan,Toko Pakaian,Rumah jahit ShaMa Collection,"BTN griya topoyo permai, Topoyo, Kec. Topoyo, Kabupaten Mamuju Tengah, Sulawesi Barat 91563","Topoyo, Kec. Topoyo, Kabupaten Mamuju Tengah",SULAWESI BARAT,91563.0,Indonesia,,,,-2.0765333,119.2801734,https://maps.google.com/?cid=0x0:0xda5b247ec0e9da2c,
perumahan,perumahan,Perumahan,"V967+7M7, Salobaja, Kec. Tobadak, Kabupaten Mamuju Tengah, Sulawesi Barat 91563","Salobaja, Kec. Tobadak, Kabupaten Mamuju Tengah",SULAWESI BARAT,91563.0,Indonesia,,,,-2.1393335,119.3641873,https://maps.google.com/?cid=0x0:0xb6c11847722a8ab,
perumahan,Pembangunan Perumahan,Perumahan Malakbi Anugrah Aba,"W7PG+965, Topoyo, Kec. Topoyo, Kabupaten Mamuju Tengah, Sulawesi Barat 91563","Topoyo, Kec. Topoyo, Kabupaten Mamuju Tengah",SULAWESI BARAT,91563.0,Indonesia,,,,-2.0641127,119.2756005,https://maps.google.com/?cid=0x0:0xe72263e38761c52f,
perumahan,Komplek perumahan,Rumah kepala desa Topoyo,"W7JP+9FW, Topoyo, Kec. Topoyo, Kabupaten Mamuju Tengah, Sulawesi Barat 91563","Topoyo, Kec. Topoyo, Kabupaten Mamuju Tengah",SULAWESI BARAT,91563.0,Indonesia,,,,-2.0690105,119.286188,https://maps.google.com/?cid=0x0:0x609a5512f867ac3b,
perumahan,Komplek perumahan,Rumah Pak Dusun ASRI HARIYANTO,"W7WG+JQX, Waeputeh, Kec. Topoyo, Kabupaten Mamuju Tengah, Sulawesi Barat 91563","Waeputeh, Kec. Topoyo, Kabupaten Mamuju Tengah",SULAWESI BARAT,91563.0,Indonesia,,,,-2.0534407,119.2770047,https://maps.google.com/?cid=0x0:0xaf0eb63c6ba7242c,
perumahan,Pembangunan Perumahan,Jalan sekoci topoyo,"W7MJ+2Q2, Jl. Pattanabone, Topoyo, Kec. Topoyo, Kabupaten Mamuju Tengah, Sulawesi Barat 91563","Jl. Pattanabone, Topoyo, Kec. Topoyo, Kabupaten Mamuju Tengah",SULAWESI BARAT,91563.0,Indonesia,,,,-2.0674896,119.28189,https://maps.google.com/?cid=0x0:0xeafa2f1b9dc0686d,
perumahan,Pembangunan Perumahan,Kompleks Perumahan Zamzam Sentosa 2,"W79H+MX5, Topoyo, Kec. Topoyo, Kabupaten Mamuju, Sulawesi Barat 91563","Topoyo, Kec. Topoyo, Kabupaten Mamuju",SULAWESI BARAT,91563.0,Indonesia,85340401440.0,,,-2.0808511,119.2799723,https://maps.google.com/?cid=0x0:0x4cfd13c9d4edc75f,
perumahan,Pembangunan Perumahan,Salulekbo,"XJ7X+QXM, Salulekbo, Kec. Topoyo, Kabupaten Mamuju, Sulawesi Barat 91563","Salulekbo, Kec. Topoyo, Kabupaten Mamuju",SULAWESI BARAT,91563.0,Indonesia,,,,-2.0355277,119.6499162,https://maps.google.com/?cid=0x0:0x179ef6161e04f1fa,
perumahan,Pembangunan Perumahan,BTN Griya Topoyo Permai,"W7FJ+F5C, Topoyo, Kec. Topoyo, Kabupaten Mamuju Tengah, Sulawesi Barat 91563","Topoyo, Kec. Topoyo, Kabupaten Mamuju Tengah",SULAWESI BARAT,91563.0,Indonesia,81248311610.0,,,-2.0763148,119.280379,https://maps.google.com/?cid=0x0:0x515ad46c9f3ccf53,
perumahan,Komplek perumahan,Topoyo dusun lomba balua desa topoyo,"XJ7X+QXM, Salulekbo, Kec. Topoyo, Kabupaten Mamuju, Sulawesi Barat 91563","Salulekbo, Kec. Topoyo, Kabupaten Mamuju",SULAWESI BARAT,91563.0,Indonesia,,,,-2.0355277,119.6499162,https://maps.google.com/?cid=0x0:0x464358231408ae5b,
perumahan,Pembangunan Perumahan,Kompleks Perumahan Zamzam Sentosa 1,"W7FM+4WG, Unnamed Road, Topoyo, Kec. Topoyo, Kabupaten Mamuju Tengah, Sulawesi Barat 91563","Unnamed Road, Topoyo, Kec. Topoyo, Kabupaten Mamuju Tengah",SULAWESI BARAT,91563.0,Indonesia,85341276764.0,,,-2.077184,119.2848242,https://maps.google.com/?cid=0x0:0x238702b74185f22f,
