Category,Real Category,Business Name,Address,City,State,Postal Code,Country,Phone,Email,Website,Latitude,Longitude,Map Link,Details Link
building materials,building materials,Sulawesi Utara,,Sulawesi Utara,SULAWESI UTARA,,Indonesia,,,,0.6246932,123.9750018,https://maps.google.com/?cid=0x0:0x45891617980cb835,
building materials,Insinyur kelautan,Toko Bangunan WoodBerry,"Beo, Kec. Beo, Kabupaten Kepulauan Talaud, Sulawesi Utara","Kabupaten Kepulauan Talaud, Sulawesi Utara",SULAWESI UTARA,,Indonesia,85398788808.0,,,4.2376181,126.796228,https://maps.google.com/?cid=0x0:0x761a260d19c7ce95,
building materials,Toko,"Toko Material, Pasir, Batu, Kerikil, Teras, Fullbrick, Batu Bata","CRHQ+6CC, Pineleng I, Kec. Pineleng, Kabupaten Minahasa, Sulawesi Utara","Kabupaten Minahasa, Sulawesi Utara",SULAWESI UTARA,,Indonesia,81342993174.0,,,1.428055,124.8385021,https://maps.google.com/?cid=0x0:0x6254618d7117c868,
building materials,Jasa Laminasi,Mitra Global Adiniaga (TACOHPL) DISTRIBUTOR UTAMA PRODUK TACO,"Pergudangan Green Sedayu Bizpark DM9 No.66, 3 No.8, RT.3/RW.8, Kalideres, Kec. Kalideres, Kota Jakarta Barat, Daerah Khusus Ibukota Jakarta 11840","3 No.8, RT.3/RW.8, Kalideres, Kec. Kalideres, Kota Jakarta Barat",SULAWESI UTARA,11840.0,Indonesia,8118989804.0,,,-6.153752,106.6942048,https://maps.google.com/?cid=0x0:0xc3368c6300b600dc,
building materials,Toko Perlengkapan Rumah,T A C O,"RPFX+34W, Jl. Kembangan Baru, RT.7/RW.3, Kedoya Sel., Kec. Kb. Jeruk, Kota Jakarta Barat, Daerah Khusus Ibukota Jakarta 11520","Jl. Kembangan Baru, RT.7/RW.3, Kedoya Sel., Kec. Kb. Jeruk, Kota Jakarta Barat",SULAWESI UTARA,11520.0,Indonesia,,,,-6.1772612,106.7478269,https://maps.google.com/?cid=0x0:0x30be5d0e6159f15f,
building materials,building materials,Kec. Beo Sel.,"Kabupaten Kepulauan Talaud, Sulawesi Utara","Kabupaten Kepulauan Talaud, Sulawesi Utara",SULAWESI UTARA,,Indonesia,,,,4.1825062,126.7711774,https://maps.google.com/?cid=0x0:0x7fdc62b4f90caf2d,
building materials,Insinyur kelautan,Toko Bangunan WoodBerry,"Beo, Kec. Beo, Kabupaten Kepulauan Talaud, Sulawesi Utara","Kabupaten Kepulauan Talaud, Sulawesi Utara",SULAWESI UTARA,,Indonesia,85398788808.0,,,4.2376181,126.796228,https://maps.google.com/?cid=0x0:0x761a260d19c7ce95,
building materials,Toko Perlengkapan Rumah,TOKO IDAMAN 1,"Kec. Melonguane, Kabupaten Kepulauan Talaud, Sulawesi Utara","Kabupaten Kepulauan Talaud, Sulawesi Utara",SULAWESI UTARA,,Indonesia,85242934477.0,,,4.0044567,126.6972917,https://maps.google.com/?cid=0x0:0xd71ec84118037e01,
building materials,Komplek perumahan,Mawali home,"6QHW+7F8, Beo, Kec. Beo, Kabupaten Kepulauan Talaud, Sulawesi Utara","Kabupaten Kepulauan Talaud, Sulawesi Utara",SULAWESI UTARA,,Indonesia,,,,4.2287638,126.7964049,https://maps.google.com/?cid=0x0:0x5a854e8bc05215a3,
building materials,Insinyur kelautan,Toko Bangunan WoodBerry,"Beo, Kec. Beo, Kabupaten Kepulauan Talaud, Sulawesi Utara","Kabupaten Kepulauan Talaud, Sulawesi Utara",SULAWESI UTARA,,Indonesia,85398788808.0,,,4.2376181,126.796228,https://maps.google.com/?cid=0x0:0x761a260d19c7ce95,
building materials,Komplek perumahan,Toko bangunan Rajawali ch,"6QGV+GHX, Beo Bar., Kec. Beo, Kabupaten Kepulauan Talaud, Sulawesi Utara","Kabupaten Kepulauan Talaud, Sulawesi Utara",SULAWESI UTARA,,Indonesia,,,,4.2263547,126.7939991,https://maps.google.com/?cid=0x0:0xd2de2dd5458ab44,
building materials,building materials,Beo Utara,"Kabupaten Kepulauan Talaud, Sulawesi Utara","Kabupaten Kepulauan Talaud, Sulawesi Utara",SULAWESI UTARA,,Indonesia,,,,4.3090871,126.7604027,https://maps.google.com/?cid=0x0:0x5f65587e5b3ae940,
building materials,Toko Bahan Bangunan,UK Home Solution (Utama Karya),"Jl. Yos Sudarso No.2, Kairagi Weru, Kec. Paal Dua, Kota Manado, Sulawesi Utara 95129","Kairagi Weru, Kec. Paal Dua, Kota Manado",SULAWESI UTARA,95129.0,Indonesia,81222882323.0,,,1.4967511,124.8771159,https://maps.google.com/?cid=0x0:0x53122109844f7011,
building materials,Toko Bahan Bangunan,Utama Karya,"Jalan Siswomiharjo No.19, Pinaesaan, Kec. Wenang, Kota Manado, Sulawesi Utara","Kota Manado, Sulawesi Utara",SULAWESI UTARA,,Indonesia,81222882323.0,,,1.493651,124.8419403,https://maps.google.com/?cid=0x0:0xc6954957782f88af,
building materials,building materials,Daman,"Dadra and Nagar Haveli and Daman and Diu, India","Daman, Dadra and Nagar Haveli and Daman and Diu, India",SULAWESI UTARA,,Indonesia,,,,20.3973736,72.8327991,https://maps.google.com/?cid=0x0:0x6339b54f4106b826,
building materials,building materials,Gemeh,"Gemeh, Kec. Gemeh, Kabupaten Kepulauan Talaud, Sulawesi Utara","Kabupaten Kepulauan Talaud, Sulawesi Utara",SULAWESI UTARA,,Indonesia,,,,4.499708,126.815887,https://maps.google.com/?cid=0x0:0x35054efa0974ac1f,
building materials,building materials,Kec. Tebet,"Kota Jakarta Selatan, Daerah Khusus Ibukota Jakarta","Kota Jakarta Selatan, Daerah Khusus Ibukota Jakarta",SULAWESI UTARA,,Indonesia,,,,-6.2251223,106.8549881,https://maps.google.com/?cid=0x0:0xd575e31c807295f9,
building materials,Produsen,Glen - Chris Pres (Percetakan Batako),"Jln No.1, Gemeh, Kec. Gemeh, Kabupaten Kepulauan Talaud, Sulawesi Utara 95888","Gemeh, Kec. Gemeh, Kabupaten Kepulauan Talaud",SULAWESI UTARA,95888.0,Indonesia,81244292584.0,,,4.5104096,126.8174882,https://maps.google.com/?cid=0x0:0x6d91ec0e5dd6a12c,
building materials,building materials,Kec. Essang,"Kabupaten Kepulauan Talaud, Sulawesi Utara","Kabupaten Kepulauan Talaud, Sulawesi Utara",SULAWESI UTARA,,Indonesia,,,,4.4565269,126.730993,https://maps.google.com/?cid=0x0:0x7405c1afd2f8476e,
building materials,Toko,"Toko Material, Pasir, Batu, Kerikil, Teras, Fullbrick, Batu Bata","CRHQ+6CC, Pineleng I, Kec. Pineleng, Kabupaten Minahasa, Sulawesi Utara","Kabupaten Minahasa, Sulawesi Utara",SULAWESI UTARA,,Indonesia,81342993174.0,,,1.428055,124.8385021,https://maps.google.com/?cid=0x0:0x6254618d7117c868,
building materials,Toko Bahan Bangunan,CV Sang Jaya,"FXGG+8HF De Premium, Matungkas, Kec. Dimembe, Kabupaten Minahasa Utara, Sulawesi Utara","Kabupaten Minahasa Utara, Sulawesi Utara",SULAWESI UTARA,,Indonesia,85159354388.0,,,1.4758195,124.9764143,https://maps.google.com/?cid=0x0:0x7942d1f762dd8f59,
building materials,Toko Bahan Bangunan,Toko Bangunan ED jaya kanonang,"5QJH+WXX, Kanonang Empat, Kec. Kawangkoan Bar., Kabupaten Minahasa, Sulawesi Utara","Kabupaten Minahasa, Sulawesi Utara",SULAWESI UTARA,,Indonesia,,,,1.1823535,124.7799867,https://maps.google.com/?cid=0x0:0xa532ea2f53e273e8,
building materials,Toko Bahan Bangunan,"UD. WENANG PERKASA - Building Material, Tools  Hardware","Jl. Adipura Raya, Kima Atas, Kec. Mapanget, Kota Manado, Sulawesi Utara","Kota Manado, Sulawesi Utara",SULAWESI UTARA,,Indonesia,82188228866.0,,,1.5402988,124.9127666,https://maps.google.com/?cid=0x0:0x162cd36145df143,
building materials,Toko Bahan Bangunan,Toko Bangunan Chiko Matungkas,"FXF9+7QQ, Jl. Sukur - Likupang, Matungkas, Kec. Dimembe, Kabupaten Minahasa Utara, Sulawesi Utara","Kabupaten Minahasa Utara, Sulawesi Utara",SULAWESI UTARA,,Indonesia,85340940004.0,,,1.4732046,124.9694978,https://maps.google.com/?cid=0x0:0xb10a524c66bf6d30,
building materials,Toko Bahan Bangunan,Toko bangunan Tiga Gemilang,"FRWX+9C2, Jl. Arie Lasut, Singkil Satu, Kec. Singkil, Kota Manado, Sulawesi Utara","Kota Manado, Sulawesi Utara",SULAWESI UTARA,,Indonesia,431865820.0,,,1.4958821,124.8485078,https://maps.google.com/?cid=0x0:0xf7d9bf8a5cb35af9,
building materials,Toko Bahan Bangunan,Fullbrik Ateng,"FV24+C6W, Tingkulu, Kec. Wanea, Kota Manado, Sulawesi Utara","Kota Manado, Sulawesi Utara",SULAWESI UTARA,,Indonesia,85242842882.0,,,1.4511067,124.8555764,https://maps.google.com/?cid=0x0:0x303df0e55016ace6,
building materials,building materials,Kec. Essang Sel.,"Kabupaten Kepulauan Talaud, Sulawesi Utara","Kabupaten Kepulauan Talaud, Sulawesi Utara",SULAWESI UTARA,,Indonesia,,,,4.4248507,126.7095716,https://maps.google.com/?cid=0x0:0x109f9417f7325f46,
building materials,Tukang Kebun,"Kebun Annalan, Merwan Pogo","8MXP+XVG Satu, Sambuara Utara, Kec. Essang Sel., Kabupaten Kepulauan Talaud, Sulawesi Utara","Kabupaten Kepulauan Talaud, Sulawesi Utara",SULAWESI UTARA,,Indonesia,,,,4.3499451,126.6872052,https://maps.google.com/?cid=0x0:0xad704ffb6fd5d9f6,
building materials,Tukang Kebun,"Kebun Rapappar, Kristison Pogo","9M4X+R45, Sambuara Utara, Kec. Essang Sel., Kabupaten Kepulauan Talaud, Sulawesi Utara","Kabupaten Kepulauan Talaud, Sulawesi Utara",SULAWESI UTARA,,Indonesia,,,,4.3570052,126.697851,https://maps.google.com/?cid=0x0:0x772735f4a1c3e211,
building materials,Tukang Kebun,"Kebun Annalan, Yeski L. Pogo","8MXP+QH, Sambuara Utara, Kec. Essang Sel., Kabupaten Kepulauan Talaud, Sulawesi Utara","Kabupaten Kepulauan Talaud, Sulawesi Utara",SULAWESI UTARA,,Indonesia,,,,4.3493582,126.6864523,https://maps.google.com/?cid=0x0:0xddcd1e17bae25867,
building materials,building materials,Kec. Kabaruan,"Kabupaten Kepulauan Talaud, Sulawesi Utara","Kabupaten Kepulauan Talaud, Sulawesi Utara",SULAWESI UTARA,,Indonesia,,,,3.8385519,126.7852295,https://maps.google.com/?cid=0x0:0x8c347d9cb11e4ad5,
building materials,Pusat Perbelanjaan,Toko Bangunan 'Berkat Usaha' Ci Len/Ko Djemi,"PCJ5+384 Tim, Tarorane, Kec. Siau Tim., Kabupaten Siau Tagulandang Biaro, Sulawesi Utara 95861","Tarorane, Kec. Siau Tim., Kabupaten Siau Tagulandang Biaro",SULAWESI UTARA,95861.0,Indonesia,81340617322.0,,,2.7301279,125.4083233,https://maps.google.com/?cid=0x0:0x7c2df2ef3ebada34,
building materials,Kios,warung BERKAT USAHA,"M9QR+FXP, Unnamed Road, Sawang, Kec. Siau Tim. Sel., Kabupaten Siau Tagulandang Biaro, Sulawesi Utara 95867","Unnamed Road, Sawang, Kec. Siau Tim. Sel., Kabupaten Siau Tagulandang Biaro",SULAWESI UTARA,95867.0,Indonesia,85240267885.0,,,2.6887056,125.3924376,https://maps.google.com/?cid=0x0:0x4c2daaba4a51f2b0,
building materials,Toko Bahan Bangunan,UK Home Solution (Utama Karya),"Jl. Yos Sudarso No.2, Kairagi Weru, Kec. Paal Dua, Kota Manado, Sulawesi Utara 95129","Kairagi Weru, Kec. Paal Dua, Kota Manado",SULAWESI UTARA,95129.0,Indonesia,81222882323.0,,,1.4967511,124.8771159,https://maps.google.com/?cid=0x0:0x53122109844f7011,
building materials,building materials,Nippon Paint,"XMWH+PJ9, Jl. Raya, Melonguane, Kepulauan Talaud Regency",Kabupaten Kepulauan Talaud,SULAWESI UTARA,,Indonesia,,,,3.9967789,126.6791005,https://maps.google.com/?cid=0x0:0xbcca4ac2c4f639d7,
building materials,building materials,Kalongan,"Kabupaten Kepulauan Talaud, Sulawesi Utara","Kabupaten Kepulauan Talaud, Sulawesi Utara",SULAWESI UTARA,,Indonesia,,,,4.0179493,126.6363811,https://maps.google.com/?cid=0x0:0x3b091707f1e05384,
building materials,Toko Bahan Bangunan,TB . AL AQSHO,"JL. NAKULA / JL. SEMANGU, RT3 RW 8 KALONGAN, UNGARAN TIMUR, UNGARAN, Jawa Tengah, 50551","RT3 RW 8 KALONGAN, UNGARAN TIMUR, UNGARAN",SULAWESI UTARA,50551.0,Indonesia,85740971480.0,,,-7.13894,110.450941,https://maps.google.com/?cid=0x0:0x94f7997ce9e7c9bc,
building materials,building materials,"Toko Material dan Bangunan DUA PUTRA""""","VF52+FPX, Jl. Nakula, Kresek, Kalongan, Kec. Ungaran Tim., Kabupaten Semarang, Jawa Tengah 50519","Jl. Nakula, Kresek, Kalongan, Kec. Ungaran Tim., Kabupaten Semarang",SULAWESI UTARA,50519.0,Indonesia,,,,-7.1412557,110.4518605,https://maps.google.com/?cid=0x0:0xdb5d3eee511696ef,
building materials,Pemasok Bahan Bangunan,UD berkah mandiri batako paving buis beton dll,"V9H9+PFW, Kalisidi, Kec. Ungaran Bar., Kabupaten Semarang, Jawa Tengah 50519","Kalisidi, Kec. Ungaran Bar., Kabupaten Semarang",SULAWESI UTARA,50519.0,Indonesia,895339161666.0,,,-7.1197972,110.3690768,https://maps.google.com/?cid=0x0:0xeccd01ed9f70bea5,
building materials,Toko Bahan Bangunan,Batu belah mas tono jamrud leyangan,"VC3J+WH4, Gn. Pabongan, Leyangan, Kec. Ungaran Tim., Kabupaten Semarang, Jawa Tengah 50519","Gn. Pabongan, Leyangan, Kec. Ungaran Tim., Kabupaten Semarang",SULAWESI UTARA,50519.0,Indonesia,,,,-7.1452367,110.4314583,https://maps.google.com/?cid=0x0:0xe22a0d71edbb9c9d,
building materials,Toko Bahan Bangunan,TB. Maju Lancar,"VC4J+MQJ, Gn. Pabongan, Leyangan, Kec. Ungaran Tim., Kabupaten Semarang, Jawa Tengah 50519","Gn. Pabongan, Leyangan, Kec. Ungaran Tim., Kabupaten Semarang",SULAWESI UTARA,50519.0,Indonesia,,,,-7.1432965,110.431879,https://maps.google.com/?cid=0x0:0x3c61d27d8cebe679,
building materials,Toko Bahan Bangunan,TB jadi mulya ungaran,"Jl. Bima No.raya, RT.1/RW.3, Bandungan, Kalongan, Kec. Ungaran Tim., Kabupaten Semarang, Jawa Tengah 50519","RT.1/RW.3, Bandungan, Kalongan, Kec. Ungaran Tim., Kabupaten Semarang",SULAWESI UTARA,50519.0,Indonesia,85769167218.0,,,-7.1358953,110.4419997,https://maps.google.com/?cid=0x0:0xf9eb6308527b8aa5,
building materials,Toko Mebel,TB. Rimba Karya Material dan Bahan Bangunan,"Jalan Raya, Kresek, Kalongan, Kec. Ungaran Tim., Kabupaten Semarang, Jawa Tengah 50519","Kresek, Kalongan, Kec. Ungaran Tim., Kabupaten Semarang",SULAWESI UTARA,50519.0,Indonesia,81542051335.0,,,-7.1377668,110.4506745,https://maps.google.com/?cid=0x0:0xe2ff92f87dc5aaff,
building materials,Toko Bahan Bangunan,Tokio Besi  Bangunan Langgeng,"VC7P+8PH, Jl. Arjuna, Rejowinangun, Kalongan, Kec. Ungaran Tim., Kabupaten Semarang, Jawa Tengah 50519","Jl. Arjuna, Rejowinangun, Kalongan, Kec. Ungaran Tim., Kabupaten Semarang",SULAWESI UTARA,50519.0,Indonesia,,,,-7.1366786,110.4368569,https://maps.google.com/?cid=0x0:0x482c8427ac09b726,
building materials,Toko Bahan Bangunan,Toko Bangunan RN Berkah Jaya,"RCWP+6WQ, Leyangan, Kec. Ungaran Tim., Kabupaten Semarang, Jawa Tengah 50519","Leyangan, Kec. Ungaran Tim., Kabupaten Semarang",SULAWESI UTARA,50519.0,Indonesia,85712179977.0,,,-7.1544101,110.4373471,https://maps.google.com/?cid=0x0:0x337e097459d0a0b2,
building materials,Toko Perlengkapan Rumah,UD Maju Lancar,"RFR8+2QG, Jl. Mendiro - Gondoriyo, Kambangan, Gondoriyo, Kec. Bergas, Kabupaten Semarang, Jawa Tengah 50187","Jl. Mendiro - Gondoriyo, Kambangan, Gondoriyo, Kec. Bergas, Kabupaten Semarang",SULAWESI UTARA,50187.0,Indonesia,,,,-7.1599464,110.4669494,https://maps.google.com/?cid=0x0:0x845429bee700f903,
building materials,Toko Bahan Bangunan,Tb lanjcar jaya,"VC3J+22X, Gn. Pabongan, Leyangan, Kec. Ungaran Tim., Kabupaten Semarang, Jawa Tengah","Kabupaten Semarang, Jawa Tengah",SULAWESI UTARA,,Indonesia,,,,-7.1473934,110.4301108,https://maps.google.com/?cid=0x0:0x369105aeed7fce92,
building materials,Toko Bahan Bangunan,Fn Jaya,"VC7V+9FG, Jl. Bima, Kalongan, Kec. Ungaran Tim., Kabupaten Semarang, Jawa Tengah 50519","Jl. Bima, Kalongan, Kec. Ungaran Tim., Kabupaten Semarang",SULAWESI UTARA,50519.0,Indonesia,85651290131.0,,,-7.136569,110.443696,https://maps.google.com/?cid=0x0:0x740efd2b00a82d87,
building materials,Toko Bahan Bangunan,TB. Lancar jaya,"RCWP+R59, Rekesan, Leyangan, Kec. Ungaran Tim., Kabupaten Semarang, Jawa Tengah","Kabupaten Semarang, Jawa Tengah",SULAWESI UTARA,,Indonesia,,,,-7.1529636,110.4354828,https://maps.google.com/?cid=0x0:0x3b6cfc738d3b0919,
building materials,Toko Bahan Bangunan,UD. Eka Jaya,"JL Flamboyan, No. 45 A RT 01/04, Kalirejo Ungaran Timur, Rejowinangun, Ungaran, Kec. Ungaran Tim., Kabupaten Semarang, Jawa Tengah 50515","No. 45 A RT 01/04, Kalirejo Ungaran Timur, Rejowinangun, Ungaran, Kec. Ungaran Tim., Kabupaten Semarang",SULAWESI UTARA,50515.0,Indonesia,85712801317.0,,,-7.136616,110.436629,https://maps.google.com/?cid=0x0:0x5de82af36460ef19,
building materials,building materials,Trukmu Marai Dalan Rusak,"VC7Q+JPW, Bandungan, Kalongan, Kec. Ungaran Tim., Kabupaten Semarang, Jawa Tengah 50519","Bandungan, Kalongan, Kec. Ungaran Tim., Kabupaten Semarang",SULAWESI UTARA,50519.0,Indonesia,,,,-7.1358865,110.4393346,https://maps.google.com/?cid=0x0:0xe7c948ba07a513b7,
building materials,Toko Bahan Bangunan,Toko Bangunan Enggal Jaya,"RCXJ+R44, Jl. Padang Raya Leyangan, Rekesan, Leyangan, Kec. Ungaran Tim., Kabupaten Semarang, Jawa Tengah 50519","Jl. Padang Raya Leyangan, Rekesan, Leyangan, Kec. Ungaran Tim., Kabupaten Semarang",SULAWESI UTARA,50519.0,Indonesia,81225404326.0,,,-7.1504901,110.4303281,https://maps.google.com/?cid=0x0:0xb537a0e9dfe3f948,
building materials,Toko Bahan Bangunan,Toko Hakam Jaya,"Jalan Ptpngobo km.4 Bergas, Wringin Putih, Area Kebun, Wringin Putih, Kec. Bergas, Kabupaten Semarang, Jawa Tengah 50511","Wringin Putih, Area Kebun, Wringin Putih, Kec. Bergas, Kabupaten Semarang",SULAWESI UTARA,50511.0,Indonesia,81914482258.0,,,-7.166756,110.440969,https://maps.google.com/?cid=0x0:0x8e24a0e31497a4f5,
building materials,building materials,"Vdo8aNXCCuCRnesPy8OIWA-,null,null,1,null,""https://www.google.com/maps/preview/place/Material+bangunan/@-2.44565,117.8888,3986a,13.1y/datau003d!4m2!3m1!1s0xa76b75c7633d9b0b:0x607a0efe75e8dd5c""",,,SULAWESI UTARA,,Indonesia,817454665.0,,,-2.44565,117.8888,https://maps.google.com/?cid=0x0:0x607a0efe75e8dd5c,
building materials,Toko Bahan Bangunan,Toko YDZ Makmur,"VF28+7W6, Jl. Setro Raya, Kambangan, Gondoriyo, Kec. Bergas, Kabupaten Semarang, Jawa Tengah 50187","Jl. Setro Raya, Kambangan, Gondoriyo, Kec. Bergas, Kabupaten Semarang",SULAWESI UTARA,50187.0,Indonesia,,,,-7.149308,110.46693,https://maps.google.com/?cid=0x0:0xc1102aa0aa283496,
building materials,Pemasok Bahan Bangunan,Material Building,"Jl. Jawong Rt.5 Rw.3 Kel, Aglik, Kembangarum, Kec. Mranggen, Kabupaten Demak, Jawa Tengah 59567","Aglik, Kembangarum, Kec. Mranggen, Kabupaten Demak",SULAWESI UTARA,59567.0,Indonesia,85228177750.0,,,-7.0336654,110.528293,https://maps.google.com/?cid=0x0:0x42fac2093aed7a2c,
building materials,building materials,Lirung,"Kabupaten Kepulauan Talaud, Sulawesi Utara","Kabupaten Kepulauan Talaud, Sulawesi Utara",SULAWESI UTARA,,Indonesia,,,,3.9572072,126.6795425,https://maps.google.com/?cid=0x0:0x210eac5f2d6150d0,
building materials,Toko Bahan Bangunan,Toko Queen,"WMQW+6VM, Lirung Satu, Lirung, Kabupaten Kepulauan Talaud, Sulawesi Utara","Kabupaten Kepulauan Talaud, Sulawesi Utara",SULAWESI UTARA,,Indonesia,82337303807.0,,,3.938083,126.6971653,https://maps.google.com/?cid=0x0:0xec383bb1f9926775,
building materials,Toko Bahan Bangunan,Toko Abadi Jaya Lirung,"WMQW+7R2, Lirung Satu, Lirung, Kabupaten Kepulauan Talaud, Sulawesi Utara","Kabupaten Kepulauan Talaud, Sulawesi Utara",SULAWESI UTARA,,Indonesia,,,,3.9381419,126.6970279,https://maps.google.com/?cid=0x0:0xa82a2430db113718,
building materials,Toko Perlengkapan Rumah,TOKO IDAMAN 1,"Kec. Melonguane, Kabupaten Kepulauan Talaud, Sulawesi Utara","Kabupaten Kepulauan Talaud, Sulawesi Utara",SULAWESI UTARA,,Indonesia,85242934477.0,,,4.0044567,126.6972917,https://maps.google.com/?cid=0x0:0xd71ec84118037e01,
building materials,Pusat Perbelanjaan,Toko Karunia Jaya,"XMXG+HX6, Kec. Melonguane, Kabupaten Kepulauan Talaud, Sulawesi Utara","Kabupaten Kepulauan Talaud, Sulawesi Utara",SULAWESI UTARA,,Indonesia,81356367209.0,,,3.9989189,126.6774029,https://maps.google.com/?cid=0x0:0x56e019101625fffd,
building materials,building materials,Kec. Melonguane,"Kabupaten Kepulauan Talaud, Sulawesi Utara","Kabupaten Kepulauan Talaud, Sulawesi Utara",SULAWESI UTARA,,Indonesia,,,,4.0732215,126.6898783,https://maps.google.com/?cid=0x0:0xcefc20000c591b01,
building materials,Toko Perlengkapan Rumah,TOKO IDAMAN 1,"Kec. Melonguane, Kabupaten Kepulauan Talaud, Sulawesi Utara","Kabupaten Kepulauan Talaud, Sulawesi Utara",SULAWESI UTARA,,Indonesia,85242934477.0,,,4.0044567,126.6972917,https://maps.google.com/?cid=0x0:0xd71ec84118037e01,
building materials,Pusat Perbelanjaan,Toko Karunia Jaya,"XMXG+HX6, Kec. Melonguane, Kabupaten Kepulauan Talaud, Sulawesi Utara","Kabupaten Kepulauan Talaud, Sulawesi Utara",SULAWESI UTARA,,Indonesia,81356367209.0,,,3.9989189,126.6774029,https://maps.google.com/?cid=0x0:0x56e019101625fffd,
building materials,building materials,Pulau Miangas,"Miangas, Kabupaten Kepulauan Talaud, Sulawesi Utara","Kabupaten Kepulauan Talaud, Sulawesi Utara",SULAWESI UTARA,,Indonesia,,,,5.5560786,126.5850946,https://maps.google.com/?cid=0x0:0x412675778b0a52d5,
building materials,Toko Perkakas,Bintang Baut Miangas,"FVP2+GQP, Dendengan Luar, Kec. Tikala, Kota Manado, Sulawesi Utara","Kota Manado, Sulawesi Utara",SULAWESI UTARA,,Indonesia,85399162454.0,,,1.486347,124.851952,https://maps.google.com/?cid=0x0:0x1788997c1201122f,
building materials,Toko Elektronik,Central Baut Teknik,"FVP5+XMP, Jl. R E Martadinata, Ternate Tj., Kec. Singkil, Kota Manado, Sulawesi Utara","Kota Manado, Sulawesi Utara",SULAWESI UTARA,,Indonesia,431873766.0,,,1.4874515,124.859212,https://maps.google.com/?cid=0x0:0x9cf8670fd92d95b6,
building materials,Toko Bahan Bangunan,Toko Queen,"WMQW+6VM, Lirung Satu, Lirung, Kabupaten Kepulauan Talaud, Sulawesi Utara","Kabupaten Kepulauan Talaud, Sulawesi Utara",SULAWESI UTARA,,Indonesia,82337303807.0,,,3.938083,126.6971653,https://maps.google.com/?cid=0x0:0xec383bb1f9926775,
building materials,Toko Bahan Bangunan,Toko Abadi Jaya Lirung,"WMQW+7R2, Lirung Satu, Lirung, Kabupaten Kepulauan Talaud, Sulawesi Utara","Kabupaten Kepulauan Talaud, Sulawesi Utara",SULAWESI UTARA,,Indonesia,,,,3.9381419,126.6970279,https://maps.google.com/?cid=0x0:0xa82a2430db113718,
building materials,Produsen,Glen - Chris Pres (Percetakan Batako),"Jln No.1, Gemeh, Kec. Gemeh, Kabupaten Kepulauan Talaud, Sulawesi Utara 95888","Gemeh, Kec. Gemeh, Kabupaten Kepulauan Talaud",SULAWESI UTARA,95888.0,Indonesia,81244292584.0,,,4.5104096,126.8174882,https://maps.google.com/?cid=0x0:0x6d91ec0e5dd6a12c,
building materials,Industri Percetakan,Percetakan batako Batumbalango,"9PWG+X45, Dusun satu, Batumbalango, Kec. Essang Sel., Kabupaten Kepulauan Talaud, Sulawesi Utara","Kabupaten Kepulauan Talaud, Sulawesi Utara",SULAWESI UTARA,,Indonesia,,,,4.3973933,126.7253741,https://maps.google.com/?cid=0x0:0xee6122f0fc7d3d90,
building materials,Toko bahan makanan,Kel.Malendes.Tumpia (bule/rinto),"Kolongan, Kec. Kalawat, Kabupaten Minahasa Utara, Sulawesi Utara","Kabupaten Minahasa Utara, Sulawesi Utara",SULAWESI UTARA,,Indonesia,89612231389.0,,,1.450796,124.9422676,https://maps.google.com/?cid=0x0:0xaae9bb0e7f8f1704,
building materials,Toko,"Toko Material, Pasir, Batu, Kerikil, Teras, Fullbrick, Batu Bata","CRHQ+6CC, Pineleng I, Kec. Pineleng, Kabupaten Minahasa, Sulawesi Utara","Kabupaten Minahasa, Sulawesi Utara",SULAWESI UTARA,,Indonesia,81342993174.0,,,1.428055,124.8385021,https://maps.google.com/?cid=0x0:0x6254618d7117c868,
building materials,Toko Bahan Bangunan,"UD. WENANG PERKASA - Building Material, Tools  Hardware","Jl. Adipura Raya, Kima Atas, Kec. Mapanget, Kota Manado, Sulawesi Utara","Kota Manado, Sulawesi Utara",SULAWESI UTARA,,Indonesia,82188228866.0,,,1.5402988,124.9127666,https://maps.google.com/?cid=0x0:0x162cd36145df143,
building materials,Toko Bahan Bangunan,Toko serbaguna 21,"Jl. Jenderal Basuki Rachmat No.21, RT.1/RW.9, Rw. Bunga, Kecamatan Jatinegara, Kota Jakarta Timur, Daerah Khusus Ibukota Jakarta 13350","RT.1/RW.9, Rw. Bunga, Kecamatan Jatinegara, Kota Jakarta Timur",SULAWESI UTARA,13350.0,Indonesia,85337275491.0,,,-6.2243767,106.8710935,https://maps.google.com/?cid=0x0:0x170e84b3f43df4dc,
building materials,Toko Bahan Bangunan,PT BATARA SURYA SEMESTA,"Jalan Suryopranoto 1-9 Gedung Delta Blok A12-14, RT.014/RW.8, Kota Jakarta Pusat, Daerah Khusus Ibukota Jakarta 10160","RT.014/RW.8, Kota Jakarta Pusat",SULAWESI UTARA,10160.0,Indonesia,213846611.0,,,-6.1699863,106.8193654,https://maps.google.com/?cid=0x0:0xddf7a89533cbfb70,
building materials,Pabrik beton,PT. Hume Concrete Indonesia,"Ruko CBD Jababeka Blok C.19, Jl. Niaga Raya No.Kav. AA-03, Pasirsari, Cikarang Sel., Kabupaten Bekasi, Jawa Barat 17530","Jl. Niaga Raya No.Kav. AA-03, Pasirsari, Cikarang Sel., Kabupaten Bekasi",SULAWESI UTARA,17530.0,Indonesia,218934024.0,,,-6.2994639,107.1478991,https://maps.google.com/?cid=0x0:0x7603e07aeadd1f90,
building materials,Kantor Perusahaan,PT. Propan Raya,"Jl. Gatot Subroto No.KM.8, Kadu Jaya, Kec. Curug, Kabupaten Tangerang, Banten 15810","Kadu Jaya, Kec. Curug, Kabupaten Tangerang",SULAWESI UTARA,15810.0,Indonesia,2159303333.0,,,-6.2072977,106.5629645,https://maps.google.com/?cid=0x0:0x77b4c9d8e247c02a,
building materials,building materials,Rainis,"Kec. Rainis, Kabupaten Kepulauan Talaud, Sulawesi Utara","Kabupaten Kepulauan Talaud, Sulawesi Utara",SULAWESI UTARA,,Indonesia,,,,4.2328323,126.8667341,https://maps.google.com/?cid=0x0:0x3c14284c585648f3,
building materials,Distributor Baja,Talang Metal Galvanis | Roynal RainLine,"Jalan Rumakso No. 18A RT.010 / RW.05 Kelurahan Jatiranggon Kecamatan Jatisampurna, Ujung Aspal, Pondok Gede, Kota Bks, Jawa Barat 17432","Ujung Aspal, Pondok Gede, Kota Bks",SULAWESI UTARA,17432.0,Indonesia,81212407272.0,,,-6.3386488,106.9260613,https://maps.google.com/?cid=0x0:0x59d31284660597de,
building materials,Distributor Baja,Talang Air Rumah Metal Galvanis | Roynal's House,"Jalan Rumakso No.18B Jatiranggon Jatisampurna, Ujung Aspal, Kec. Pd. Gede, Kota Bks, Jawa Barat 17432","Ujung Aspal, Kec. Pd. Gede, Kota Bks",SULAWESI UTARA,17432.0,Indonesia,818201336.0,,,-6.3387764,106.926067,https://maps.google.com/?cid=0x0:0x8a787b49cf708ce4,
building materials,Pemasok Produk Karet,Indonesia Synthetic Rubber,"Jl. Tipar Cakung No.15-A, RT.3/RW.9, Sukapura, Kec. Cilincing, Jkt Utara, Daerah Khusus Ibukota Jakarta 13910","RT.3/RW.9, Sukapura, Kec. Cilincing, Jkt Utara",SULAWESI UTARA,13910.0,Indonesia,215307950.0,,,-6.1603971,106.9308571,https://maps.google.com/?cid=0x0:0xaa80ec16f5fc23c4,
building materials,building materials,Salibabu,"Kabupaten Kepulauan Talaud, Sulawesi Utara","Kabupaten Kepulauan Talaud, Sulawesi Utara",SULAWESI UTARA,,Indonesia,,,,3.9026876,126.6849359,https://maps.google.com/?cid=0x0:0x5c5d08892b729657,
building materials,Toko Bahan Bangunan,Toko Queen,"WMQW+6VM, Lirung Satu, Lirung, Kabupaten Kepulauan Talaud, Sulawesi Utara","Kabupaten Kepulauan Talaud, Sulawesi Utara",SULAWESI UTARA,,Indonesia,82337303807.0,,,3.938083,126.6971653,https://maps.google.com/?cid=0x0:0xec383bb1f9926775,
building materials,Toko Bahan Bangunan,Toko Abadi Jaya Lirung,"WMQW+7R2, Lirung Satu, Lirung, Kabupaten Kepulauan Talaud, Sulawesi Utara","Kabupaten Kepulauan Talaud, Sulawesi Utara",SULAWESI UTARA,,Indonesia,,,,3.9381419,126.6970279,https://maps.google.com/?cid=0x0:0xa82a2430db113718,
building materials,building materials,Kec. Tampa Na'mma,"Kabupaten Kepulauan Talaud, Sulawesi Utara","Kabupaten Kepulauan Talaud, Sulawesi Utara",SULAWESI UTARA,,Indonesia,,,,4.3643806,126.8527997,https://maps.google.com/?cid=0x0:0xaa0bfff86571a14c,
building materials,Toko Bahan Bangunan,Toko Bahan Bangunan,"FRWX+995, Jl. Soputan, Singkil Satu, Kec. Singkil, Kota Manado, Sulawesi Utara","Kota Manado, Sulawesi Utara",SULAWESI UTARA,,Indonesia,,,,1.4958803,124.8484916,https://maps.google.com/?cid=0x0:0x87a9bba92591a12e,
building materials,Toko Bahan Bangunan,Toko Sentosa Bersama Bangunan,"Jl. Wolter Monginsidi No.45, Bahu, Kec. Malalayang, Kota Manado, Sulawesi Utara 95115","Bahu, Kec. Malalayang, Kota Manado",SULAWESI UTARA,95115.0,Indonesia,82182357020.0,,,1.4612015,124.8246869,https://maps.google.com/?cid=0x0:0x34c03b368a711f8b,
building materials,Toko Bahan Bangunan,CV. Suma Tirta Kencana,"FVQR+3F3, Kairagi Tiram, Jl. Raya Manado - Bitung, Kairagi Satu, Kec. Mapanget, Kota Manado, Sulawesi Utara","Kota Manado, Sulawesi Utara",SULAWESI UTARA,,Indonesia,431812333.0,,,1.4878452,124.890946,https://maps.google.com/?cid=0x0:0x330362a456611672,
building materials,Industri Percetakan,Tempat cetak batako dan bengkel tampal ban,"FV38+H8, Lahu, Kec. Gemeh, Kabupaten Kepulauan Talaud, Sulawesi Utara","Kabupaten Kepulauan Talaud, Sulawesi Utara",SULAWESI UTARA,,Indonesia,82339241150.0,,,4.4539002,126.8657807,https://maps.google.com/?cid=0x0:0xafaabeea0690763,
building materials,Gudang,Percetakan Batako,"6QGX+C5Q, Beo Tim., Kec. Beo, Kabupaten Kepulauan Talaud, Sulawesi Utara","Kabupaten Kepulauan Talaud, Sulawesi Utara",SULAWESI UTARA,,Indonesia,82194805868.0,,,4.2260759,126.7979869,https://maps.google.com/?cid=0x0:0x877bb5d83bac504a,
building materials,Sekolah Dasar,SDK PINTU ELOK LAHU,"FV46+JRR, Lahu, Kec. Gemeh, Kabupaten Kepulauan Talaud, Sulawesi Utara","Kabupaten Kepulauan Talaud, Sulawesi Utara",SULAWESI UTARA,,Indonesia,,,,4.4560758,126.8643731,https://maps.google.com/?cid=0x0:0x6b35baef1937ec99,
toko bangunan,toko bangunan,Kec. Beo,"Kabupaten Kepulauan Talaud, Sulawesi Utara","Kabupaten Kepulauan Talaud, Sulawesi Utara",SULAWESI UTARA,,Indonesia,,,,4.2257007,126.7923361,https://maps.google.com/?cid=0x0:0x94ececa1a20303fd,
toko bangunan,Insinyur kelautan,Toko Bangunan WoodBerry,"Beo, Kec. Beo, Kabupaten Kepulauan Talaud, Sulawesi Utara","Kabupaten Kepulauan Talaud, Sulawesi Utara",SULAWESI UTARA,,Indonesia,85398788808.0,,,4.2376181,126.796228,https://maps.google.com/?cid=0x0:0x761a260d19c7ce95,
toko bangunan,Komplek perumahan,Toko bangunan Rajawali ch,"6QGV+GHX, Beo Bar., Kec. Beo, Kabupaten Kepulauan Talaud, Sulawesi Utara","Kabupaten Kepulauan Talaud, Sulawesi Utara",SULAWESI UTARA,,Indonesia,,,,4.2263547,126.7939991,https://maps.google.com/?cid=0x0:0xd2de2dd5458ab44,
toko bangunan,Toko Bahan Bangunan,TB BERKAH,"Jl. Angkur No.2 17, RT.1/RW.3, Kayu Putih, Kec. Pulo Gadung, Kota Jakarta Timur, Daerah Khusus Ibukota Jakarta 13210","RT.1/RW.3, Kayu Putih, Kec. Pulo Gadung, Kota Jakarta Timur",SULAWESI UTARA,13210.0,Indonesia,81996535396.0,,,-6.1867956,106.885111,https://maps.google.com/?cid=0x0:0x5165473c9a6cfcc3,
toko bangunan,toko bangunan,Toko Bangunan Biru,"Jalan Gempol, kp Jl. Kongsi, RT./Rw/RW.012/006, Jayasampurna, Kabupaten Bekasi, Jawa Barat 17530","kp Jl. Kongsi, RT./Rw/RW.012/006, Jayasampurna, Kabupaten Bekasi",SULAWESI UTARA,17530.0,Indonesia,81299988855.0,,,-6.3730595,107.0923115,https://maps.google.com/?cid=0x0:0xc276fd2147c5d7c6,
toko bangunan,toko bangunan,Kec. Beo Sel.,"Kabupaten Kepulauan Talaud, Sulawesi Utara","Kabupaten Kepulauan Talaud, Sulawesi Utara",SULAWESI UTARA,,Indonesia,,,,4.1825062,126.7711774,https://maps.google.com/?cid=0x0:0x7fdc62b4f90caf2d,
toko bangunan,Insinyur kelautan,Toko Bangunan WoodBerry,"Beo, Kec. Beo, Kabupaten Kepulauan Talaud, Sulawesi Utara","Kabupaten Kepulauan Talaud, Sulawesi Utara",SULAWESI UTARA,,Indonesia,85398788808.0,,,4.2376181,126.796228,https://maps.google.com/?cid=0x0:0x761a260d19c7ce95,
toko bangunan,Komplek perumahan,Toko bangunan Rajawali ch,"6QGV+GHX, Beo Bar., Kec. Beo, Kabupaten Kepulauan Talaud, Sulawesi Utara","Kabupaten Kepulauan Talaud, Sulawesi Utara",SULAWESI UTARA,,Indonesia,,,,4.2263547,126.7939991,https://maps.google.com/?cid=0x0:0xd2de2dd5458ab44,
toko bangunan,Toko Bahan Bangunan,Toko Bangunan HARAPAN BERKAT Jl. Lenkeng C no 15 GPI,"Perum GPI, Jl. Lengkeng C No.15, Kima Atas, Kec. Mapanget, Kota Manado, Sulawesi Utara","Kota Manado, Sulawesi Utara",SULAWESI UTARA,,Indonesia,81355863161.0,,,1.5468356,124.8976381,https://maps.google.com/?cid=0x0:0xdea2f61d23f1497a,
toko bangunan,Toko Bahan Bangunan,Toko BERKAT,"Jl. Pineleng-Kali, Pineleng I, Kec. Pineleng, Kabupaten Minahasa, Sulawesi Utara","Kabupaten Minahasa, Sulawesi Utara",SULAWESI UTARA,,Indonesia,,,,1.4244889,124.8417641,https://maps.google.com/?cid=0x0:0xabdd7527ee3f4bb8,
toko bangunan,Toko,toko bangunan hj muhlis,"XQ2W+V7R, Jl. Ratahan - Kotamobagu, Ponosakan Indah, Kec. Belang, Kabupaten Minahasa Tenggara, Sulawesi Utara 95997","Jl. Ratahan - Kotamobagu, Ponosakan Indah, Kec. Belang, Kabupaten Minahasa Tenggara",SULAWESI UTARA,95997.0,Indonesia,,,,0.9522386,124.7956411,https://maps.google.com/?cid=0x0:0xa87b203b7e160b19,
toko bangunan,Toko Bahan Bangunan,Toko Sumber Bangunan Pineleng,"CRGQ+VCG, Jl. Raya Manado Tomohon, Pineleng I, Kec. Pineleng, Kabupaten Minahasa, Sulawesi Utara","Kabupaten Minahasa, Sulawesi Utara",SULAWESI UTARA,,Indonesia,,,,1.4271958,124.8385828,https://maps.google.com/?cid=0x0:0x5bfd3a32058d5029,
toko bangunan,Minimarket,Toko bangunan,"FC3P+2C6, Modisi, Kec. Pinolosian Tim., Kabupaten Bolaang Mongondow Selatan, Sulawesi Utara","Kabupaten Bolaang Mongondow Selatan, Sulawesi Utara",SULAWESI UTARA,,Indonesia,85658741232.0,,,0.4534033,124.4372044,https://maps.google.com/?cid=0x0:0x2f8d72c1be60ff49,
toko bangunan,Toko Perlengkapan Rumah,TOKO IDAMAN 1,"Kec. Melonguane, Kabupaten Kepulauan Talaud, Sulawesi Utara","Kabupaten Kepulauan Talaud, Sulawesi Utara",SULAWESI UTARA,,Indonesia,85242934477.0,,,4.0044567,126.6972917,https://maps.google.com/?cid=0x0:0xd71ec84118037e01,
toko bangunan,Toko Bahan Bangunan,Toko Bangunan ED jaya kanonang,"5QJH+WXX, Kanonang Empat, Kec. Kawangkoan Bar., Kabupaten Minahasa, Sulawesi Utara","Kabupaten Minahasa, Sulawesi Utara",SULAWESI UTARA,,Indonesia,,,,1.1823535,124.7799867,https://maps.google.com/?cid=0x0:0xa532ea2f53e273e8,
toko bangunan,Pemasok Bahan Bangunan,Toko Immanuel,"2PFX+6H9, Towuntu, Kec. Pasan, Kabupaten Minahasa Tenggara, Sulawesi Utara","Kabupaten Minahasa Tenggara, Sulawesi Utara",SULAWESI UTARA,,Indonesia,,,,1.0230472,124.7489763,https://maps.google.com/?cid=0x0:0x9e0cfb47d8a9b5fd,
toko bangunan,Toko Bahan Bangunan,Toko Bahan Bangunan,"FRWX+995, Jl. Soputan, Singkil Satu, Kec. Singkil, Kota Manado, Sulawesi Utara","Kota Manado, Sulawesi Utara",SULAWESI UTARA,,Indonesia,,,,1.4958803,124.8484916,https://maps.google.com/?cid=0x0:0x87a9bba92591a12e,
toko bangunan,Toko Bahan Bangunan,Toko Sentosa Bersama Bangunan,"Jl. Wolter Monginsidi No.45, Bahu, Kec. Malalayang, Kota Manado, Sulawesi Utara 95115","Bahu, Kec. Malalayang, Kota Manado",SULAWESI UTARA,95115.0,Indonesia,82182357020.0,,,1.4612015,124.8246869,https://maps.google.com/?cid=0x0:0x34c03b368a711f8b,
toko bangunan,toko bangunan,Beo Utara,"Kabupaten Kepulauan Talaud, Sulawesi Utara","Kabupaten Kepulauan Talaud, Sulawesi Utara",SULAWESI UTARA,,Indonesia,,,,4.3090871,126.7604027,https://maps.google.com/?cid=0x0:0x5f65587e5b3ae940,
toko bangunan,Insinyur kelautan,Toko Bangunan WoodBerry,"Beo, Kec. Beo, Kabupaten Kepulauan Talaud, Sulawesi Utara","Kabupaten Kepulauan Talaud, Sulawesi Utara",SULAWESI UTARA,,Indonesia,85398788808.0,,,4.2376181,126.796228,https://maps.google.com/?cid=0x0:0x761a260d19c7ce95,
toko bangunan,Komplek perumahan,Toko bangunan Rajawali ch,"6QGV+GHX, Beo Bar., Kec. Beo, Kabupaten Kepulauan Talaud, Sulawesi Utara","Kabupaten Kepulauan Talaud, Sulawesi Utara",SULAWESI UTARA,,Indonesia,,,,4.2263547,126.7939991,https://maps.google.com/?cid=0x0:0xd2de2dd5458ab44,
toko bangunan,toko bangunan,Kec. Damau,"Kabupaten Kepulauan Talaud, Sulawesi Utara","Kabupaten Kepulauan Talaud, Sulawesi Utara",SULAWESI UTARA,,Indonesia,,,,3.7861379,126.8370164,https://maps.google.com/?cid=0x0:0x923c91966523787a,
toko bangunan,Kios,Toko Bangunan dan Sembako,"FW88+HJJ, Watutumou II, Kec. Kalawat, Kabupaten Minahasa Utara, Sulawesi Utara","Kabupaten Minahasa Utara, Sulawesi Utara",SULAWESI UTARA,,Indonesia,87773953145.0,,,1.4664691,124.9165212,https://maps.google.com/?cid=0x0:0x21990419e38de381,
toko bangunan,Minimarket,Kios Sembako,"Watutumou II, Kec. Kalawat, Kabupaten Minahasa Utara, Sulawesi Utara","Kabupaten Minahasa Utara, Sulawesi Utara",SULAWESI UTARA,,Indonesia,81243425976.0,,,1.4704914,124.9168662,https://maps.google.com/?cid=0x0:0x99ce037e78fe2ed7,
toko bangunan,toko bangunan,Gemeh,"Gemeh, Kec. Gemeh, Kabupaten Kepulauan Talaud, Sulawesi Utara","Kabupaten Kepulauan Talaud, Sulawesi Utara",SULAWESI UTARA,,Indonesia,,,,4.499708,126.815887,https://maps.google.com/?cid=0x0:0x35054efa0974ac1f,
toko bangunan,toko bangunan,Kec. Tebet,"Kota Jakarta Selatan, Daerah Khusus Ibukota Jakarta","Kota Jakarta Selatan, Daerah Khusus Ibukota Jakarta",SULAWESI UTARA,,Indonesia,,,,-6.2251223,106.8549881,https://maps.google.com/?cid=0x0:0xd575e31c807295f9,
toko bangunan,Balai masyarakat,Banjar Gemeh,"86R8+2J2, Jalan Mayjen Sutoyo, Dauh Puri Kangin, Kec. Denpasar Bar., Kota Denpasar, Bali 80232","Jalan Mayjen Sutoyo, Dauh Puri Kangin, Kec. Denpasar Bar., Kota Denpasar",SULAWESI UTARA,80232.0,Indonesia,,,,-8.6599881,115.2165031,https://maps.google.com/?cid=0x0:0xe2a57acff0f7efba,
toko bangunan,toko bangunan,Lesehan seblak cabang 2 denpasar,"86R8+6PJ, Jl. Sutoyo, Dauh Puri Kangin, Kec. Denpasar Bar., Kota Denpasar, Bali 80232","Jl. Sutoyo, Dauh Puri Kangin, Kec. Denpasar Bar., Kota Denpasar",SULAWESI UTARA,80232.0,Indonesia,85731544393.0,,,-8.6594246,115.2167683,https://maps.google.com/?cid=0x0:0x5e63bc781f9661ce,
toko bangunan,Toko Bahan Bangunan,Toko Bangunan Chiko Matungkas,"FXF9+7QQ, Jl. Sukur - Likupang, Matungkas, Kec. Dimembe, Kabupaten Minahasa Utara, Sulawesi Utara","Kabupaten Minahasa Utara, Sulawesi Utara",SULAWESI UTARA,,Indonesia,85340940004.0,,,1.4732046,124.9694978,https://maps.google.com/?cid=0x0:0xb10a524c66bf6d30,
toko bangunan,Toko Bahan Bangunan,Toko Bangunan Malak Matungkas,"FXC9+636, Matungkas Jaga X, Kec. Dimembe, Kabupaten Minahasa Utara, Sulawesi Utara","Kabupaten Minahasa Utara, Sulawesi Utara",SULAWESI UTARA,,Indonesia,81356833133.0,,,1.4705375,124.9676406,https://maps.google.com/?cid=0x0:0x1c9d1d8d885ff988,
toko bangunan,Pembangunan Perumahan,Toko Bangunan,"PG2G+4JH, Unnamed Road, Naha, Kec. Tabukan Utara, Kabupaten Kepulauan Sangihe, Sulawesi Utara","Kabupaten Kepulauan Sangihe, Sulawesi Utara",SULAWESI UTARA,,Indonesia,,,,3.700321,125.5266149,https://maps.google.com/?cid=0x0:0x77c33aef13b84544,
toko bangunan,toko bangunan,Essang Sel.,"Kec. Essang, Kabupaten Kepulauan Talaud, Sulawesi Utara","Kabupaten Kepulauan Talaud, Sulawesi Utara",SULAWESI UTARA,,Indonesia,,,,4.448416,126.7550147,https://maps.google.com/?cid=0x0:0x9d39fa104a88da16,
toko bangunan,toko bangunan,Kec. Essang Sel.,"Kabupaten Kepulauan Talaud, Sulawesi Utara","Kabupaten Kepulauan Talaud, Sulawesi Utara",SULAWESI UTARA,,Indonesia,,,,4.4248507,126.7095716,https://maps.google.com/?cid=0x0:0x109f9417f7325f46,
toko bangunan,Toko Bahan Bangunan,Toko Bangunan ED jaya kanonang,"5QJH+WXX, Kanonang Empat, Kec. Kawangkoan Bar., Kabupaten Minahasa, Sulawesi Utara","Kabupaten Minahasa, Sulawesi Utara",SULAWESI UTARA,,Indonesia,,,,1.1823535,124.7799867,https://maps.google.com/?cid=0x0:0xa532ea2f53e273e8,
toko bangunan,Toko Bahan Bangunan,Toko bangunan Tiga Gemilang,"FRWX+9C2, Jl. Arie Lasut, Singkil Satu, Kec. Singkil, Kota Manado, Sulawesi Utara","Kota Manado, Sulawesi Utara",SULAWESI UTARA,,Indonesia,431865820.0,,,1.4958821,124.8485078,https://maps.google.com/?cid=0x0:0xf7d9bf8a5cb35af9,
toko bangunan,Toko Bahan Bangunan,Toko Bangunan Dan Meubel SUMBER REJEKI,"XQ4X+624, Jl. Ratahan - Kotamobagu, Ponosakan Indah, Kec. Belang, Kabupaten Minahasa Tenggara, Sulawesi Utara 95997","Jl. Ratahan - Kotamobagu, Ponosakan Indah, Kec. Belang, Kabupaten Minahasa Tenggara",SULAWESI UTARA,95997.0,Indonesia,82259666230.0,,,0.9555108,124.7975711,https://maps.google.com/?cid=0x0:0x68d8a3970b96d48e,
toko bangunan,Toko Bahan Bangunan,TOKO BANGUNAN RIZKY BADAS,"Kawangkoan, Kec. Kalawat, Kabupaten Minahasa Utara, Sulawesi Utara","Kabupaten Minahasa Utara, Sulawesi Utara",SULAWESI UTARA,,Indonesia,81330119059.0,,,1.4590841,124.9327088,https://maps.google.com/?cid=0x0:0x99b35880d1e58868,
toko bangunan,Toko Bahan Bangunan,Toko Sumber Mulia,"5HVM+8MV, Jl. Trans Sulawesi, Bitung, Kec. Amurang, Kabupaten Minahasa Selatan, Sulawesi Utara","Kabupaten Minahasa Selatan, Sulawesi Utara",SULAWESI UTARA,,Indonesia,,,,1.1933577,124.5841838,https://maps.google.com/?cid=0x0:0xd099b9a3eb3af488,
toko bangunan,Toko Bahan Bangunan,Toko Bangunan Sumber Mas,"6VJ7+Q9H, Jl. Tondano - Kakas, Timu, Kec. Remboken, Kabupaten Minahasa, Sulawesi Utara","Kabupaten Minahasa, Sulawesi Utara",SULAWESI UTARA,,Indonesia,82310002528.0,,,1.2319396,124.8634961,https://maps.google.com/?cid=0x0:0x15d858ffa7b9cdcc,
toko bangunan,Toko Bahan Bangunan,Plaza Bangunan Electronic Manado,"Jl. Sisingamangaraja No. 45 Calaca Wenang, Calaca, Manado, Kota Manado, Sulawesi Utara","Kota Manado, Sulawesi Utara",SULAWESI UTARA,,Indonesia,811439919.0,,,1.495271,124.843111,https://maps.google.com/?cid=0x0:0x7dcd95c89ffc45f,
toko bangunan,Toko Bahan Bangunan,Toko Bahan Bangunan,"FRWX+995, Jl. Soputan, Singkil Satu, Kec. Singkil, Kota Manado, Sulawesi Utara","Kota Manado, Sulawesi Utara",SULAWESI UTARA,,Indonesia,,,,1.4958803,124.8484916,https://maps.google.com/?cid=0x0:0x87a9bba92591a12e,
toko bangunan,Toko Bahan Bangunan,Toko bahan bangunan dang listrik EXGLO Tarabitan,"PXPQ+XMX, Tarabitan, Kec. Likupang Bar., Kabupaten Minahasa Utara, Sulawesi Utara","Kabupaten Minahasa Utara, Sulawesi Utara",SULAWESI UTARA,,Indonesia,,,,1.7374822,124.9892412,https://maps.google.com/?cid=0x0:0x6f4146ae206562af,
toko bangunan,Pemasok Bahan Bangunan,Toko bahan Bangunan,"6G3R+QV4, Lembang, Mangallekana, Kec. Labakkang, Kabupaten Pangkajene Dan Kepulauan, Sulawesi Selatan 90617","Lembang, Mangallekana, Kec. Labakkang, Kabupaten Pangkajene Dan Kepulauan",SULAWESI UTARA,90617.0,Indonesia,85299304579.0,,,-4.7956061,119.542212,https://maps.google.com/?cid=0x0:0xf1e70a73b1ba504e,
toko bangunan,Toko Bahan Bangunan,CV. Abadi Raya (Toko Bahan Bangunan),"6GCV+QHJ, Jl. Bontowa Raya, Labakkang, Kec. Labakkang, Kabupaten Pangkajene Dan Kepulauan, Sulawesi Selatan 90651","Jl. Bontowa Raya, Labakkang, Kec. Labakkang, Kabupaten Pangkajene Dan Kepulauan",SULAWESI UTARA,90651.0,Indonesia,85342411787.0,,,-4.778047,119.5438953,https://maps.google.com/?cid=0x0:0x2e74a54c49ab4871,
toko bangunan,toko bangunan,TK. Bangunan HOSANA,"RP6W+MPW, Kordakel, Kabupaten Kepulauan Talaud, Sulawesi Utara","Kabupaten Kepulauan Talaud, Sulawesi Utara",SULAWESI UTARA,,Indonesia,,,,3.8117377,126.7468261,https://maps.google.com/?cid=0x0:0x2b6917411b0335ff,
toko bangunan,toko bangunan,Kec. Kabaruan,"Kabupaten Kepulauan Talaud, Sulawesi Utara","Kabupaten Kepulauan Talaud, Sulawesi Utara",SULAWESI UTARA,,Indonesia,,,,3.8385519,126.7852295,https://maps.google.com/?cid=0x0:0x8c347d9cb11e4ad5,
toko bangunan,Pembangunan Perumahan,Toko Bangunan,"PG2G+4JH, Unnamed Road, Naha, Kec. Tabukan Utara, Kabupaten Kepulauan Sangihe, Sulawesi Utara","Kabupaten Kepulauan Sangihe, Sulawesi Utara",SULAWESI UTARA,,Indonesia,,,,3.700321,125.5266149,https://maps.google.com/?cid=0x0:0x77c33aef13b84544,
toko bangunan,Pembangunan Perumahan,RUMAH,"MGRM+4Q8, Naha I, Kec. Tabukan Utara, Kabupaten Kepulauan Sangihe, Sulawesi Utara","Kabupaten Kepulauan Sangihe, Sulawesi Utara",SULAWESI UTARA,,Indonesia,,,,3.6902809,125.5344481,https://maps.google.com/?cid=0x0:0xddb2840aa1c20ec8,
toko bangunan,toko bangunan,"Toko Material dan Bangunan DUA PUTRA""""","VF52+FPX, Jl. Nakula, Kresek, Kalongan, Kec. Ungaran Tim., Kabupaten Semarang, Jawa Tengah 50519","Jl. Nakula, Kresek, Kalongan, Kec. Ungaran Tim., Kabupaten Semarang",SULAWESI UTARA,50519.0,Indonesia,,,,-7.1412557,110.4518605,https://maps.google.com/?cid=0x0:0xdb5d3eee511696ef,
toko bangunan,Toko Bahan Bangunan,TB jadi mulya ungaran,"Jl. Bima No.raya, RT.1/RW.3, Bandungan, Kalongan, Kec. Ungaran Tim., Kabupaten Semarang, Jawa Tengah 50519","RT.1/RW.3, Bandungan, Kalongan, Kec. Ungaran Tim., Kabupaten Semarang",SULAWESI UTARA,50519.0,Indonesia,85769167218.0,,,-7.1358953,110.4419997,https://maps.google.com/?cid=0x0:0xf9eb6308527b8aa5,
toko bangunan,Toko Perlengkapan Rumah,UD Maju Lancar,"RFR8+2QG, Jl. Mendiro - Gondoriyo, Kambangan, Gondoriyo, Kec. Bergas, Kabupaten Semarang, Jawa Tengah 50187","Jl. Mendiro - Gondoriyo, Kambangan, Gondoriyo, Kec. Bergas, Kabupaten Semarang",SULAWESI UTARA,50187.0,Indonesia,,,,-7.1599464,110.4669494,https://maps.google.com/?cid=0x0:0x845429bee700f903,
toko bangunan,Toko Bahan Bangunan,Toko Bangunan RN Berkah Jaya,"RCWP+6WQ, Leyangan, Kec. Ungaran Tim., Kabupaten Semarang, Jawa Tengah 50519","Leyangan, Kec. Ungaran Tim., Kabupaten Semarang",SULAWESI UTARA,50519.0,Indonesia,85712179977.0,,,-7.1544101,110.4373471,https://maps.google.com/?cid=0x0:0x337e097459d0a0b2,
toko bangunan,Toko Bahan Bangunan,TB. Maju Lancar,"VC4J+MQJ, Gn. Pabongan, Leyangan, Kec. Ungaran Tim., Kabupaten Semarang, Jawa Tengah 50519","Gn. Pabongan, Leyangan, Kec. Ungaran Tim., Kabupaten Semarang",SULAWESI UTARA,50519.0,Indonesia,,,,-7.1432965,110.431879,https://maps.google.com/?cid=0x0:0x3c61d27d8cebe679,
toko bangunan,Toko Bahan Bangunan,Toko Bangunan Enggal Jaya,"RCXJ+R44, Jl. Padang Raya Leyangan, Rekesan, Leyangan, Kec. Ungaran Tim., Kabupaten Semarang, Jawa Tengah 50519","Jl. Padang Raya Leyangan, Rekesan, Leyangan, Kec. Ungaran Tim., Kabupaten Semarang",SULAWESI UTARA,50519.0,Indonesia,81225404326.0,,,-7.1504901,110.4303281,https://maps.google.com/?cid=0x0:0xb537a0e9dfe3f948,
toko bangunan,Toko Mebel,TB. Rimba Karya Material dan Bahan Bangunan,"Jalan Raya, Kresek, Kalongan, Kec. Ungaran Tim., Kabupaten Semarang, Jawa Tengah 50519","Kresek, Kalongan, Kec. Ungaran Tim., Kabupaten Semarang",SULAWESI UTARA,50519.0,Indonesia,81542051335.0,,,-7.1377668,110.4506745,https://maps.google.com/?cid=0x0:0xe2ff92f87dc5aaff,
toko bangunan,Toko Bahan Bangunan,UD. Eka Jaya,"JL Flamboyan, No. 45 A RT 01/04, Kalirejo Ungaran Timur, Rejowinangun, Ungaran, Kec. Ungaran Tim., Kabupaten Semarang, Jawa Tengah 50515","No. 45 A RT 01/04, Kalirejo Ungaran Timur, Rejowinangun, Ungaran, Kec. Ungaran Tim., Kabupaten Semarang",SULAWESI UTARA,50515.0,Indonesia,85712801317.0,,,-7.136616,110.436629,https://maps.google.com/?cid=0x0:0x5de82af36460ef19,
toko bangunan,Toko Bahan Bangunan,Fn Jaya,"VC7V+9FG, Jl. Bima, Kalongan, Kec. Ungaran Tim., Kabupaten Semarang, Jawa Tengah 50519","Jl. Bima, Kalongan, Kec. Ungaran Tim., Kabupaten Semarang",SULAWESI UTARA,50519.0,Indonesia,85651290131.0,,,-7.136569,110.443696,https://maps.google.com/?cid=0x0:0x740efd2b00a82d87,
toko bangunan,Toko Bahan Bangunan,Tokio Besi  Bangunan Langgeng,"VC7P+8PH, Jl. Arjuna, Rejowinangun, Kalongan, Kec. Ungaran Tim., Kabupaten Semarang, Jawa Tengah 50519","Jl. Arjuna, Rejowinangun, Kalongan, Kec. Ungaran Tim., Kabupaten Semarang",SULAWESI UTARA,50519.0,Indonesia,,,,-7.1366786,110.4368569,https://maps.google.com/?cid=0x0:0x482c8427ac09b726,
toko bangunan,Toko Bahan Bangunan,Bangunan Toko,"Jl. Sultan Agung No.112, Sampangan, Kec. Pekalongan Tim., Kota Pekalongan, Jawa Tengah 51126","Sampangan, Kec. Pekalongan Tim., Kota Pekalongan",SULAWESI UTARA,51126.0,Indonesia,285422985.0,,,-6.8837301,109.6754959,https://maps.google.com/?cid=0x0:0x92b1036f30df7fbd,
toko bangunan,Toko Bahan Bangunan,Toko Bangunan ANDA,"Jl. Tlogosari Raya Jl. Telaga Asmara I No.1B, Tlogosari Kulon, Kec. Pedurungan, Kota Semarang, Jawa Tengah 50196","Tlogosari Kulon, Kec. Pedurungan, Kota Semarang",SULAWESI UTARA,50196.0,Indonesia,82125272345.0,,,-6.988644,110.457605,https://maps.google.com/?cid=0x0:0x50bff89c3b2d404e,
toko bangunan,Toko Bahan Bangunan,Toko Bangunan Sido Mukti - Duwet Bojong,"Jl. Raya Bojong, Duwet Barat, Duwet, Kec. Bojong, Kabupaten Pekalongan, Jawa Tengah 51156","Duwet Barat, Duwet, Kec. Bojong, Kabupaten Pekalongan",SULAWESI UTARA,51156.0,Indonesia,,,,-6.9748288,109.6046323,https://maps.google.com/?cid=0x0:0x618c24e8f9310bb8,
toko bangunan,Toko Bahan Bangunan,TB. Lancar jaya,"RCWP+R59, Rekesan, Leyangan, Kec. Ungaran Tim., Kabupaten Semarang, Jawa Tengah","Kabupaten Semarang, Jawa Tengah",SULAWESI UTARA,,Indonesia,,,,-7.1529636,110.4354828,https://maps.google.com/?cid=0x0:0x3b6cfc738d3b0919,
toko bangunan,Toko Bahan Bangunan,Toko Bangunan,"X8V4+X8F, Podorejo, Kec. Ngaliyan, Kota Semarang, Jawa Tengah 50187","Podorejo, Kec. Ngaliyan, Kota Semarang",SULAWESI UTARA,50187.0,Indonesia,,,,-7.0050505,110.3058078,https://maps.google.com/?cid=0x0:0xc332dfe82d43ec9,
toko bangunan,toko bangunan,Trukmu Marai Dalan Rusak,"VC7Q+JPW, Bandungan, Kalongan, Kec. Ungaran Tim., Kabupaten Semarang, Jawa Tengah 50519","Bandungan, Kalongan, Kec. Ungaran Tim., Kabupaten Semarang",SULAWESI UTARA,50519.0,Indonesia,,,,-7.1358865,110.4393346,https://maps.google.com/?cid=0x0:0xe7c948ba07a513b7,
toko bangunan,Toko Bahan Bangunan,Tb lanjcar jaya,"VC3J+22X, Gn. Pabongan, Leyangan, Kec. Ungaran Tim., Kabupaten Semarang, Jawa Tengah","Kabupaten Semarang, Jawa Tengah",SULAWESI UTARA,,Indonesia,,,,-7.1473934,110.4301108,https://maps.google.com/?cid=0x0:0x369105aeed7fce92,
toko bangunan,Toko Cat,Toko GG 123,"Toko GG 123, Jl. Flamboyan, RT.4/RW.6, Gn. Pabongan, Leyangan, Kec. Ungaran Tim., Kabupaten Semarang, Jawa Tengah 50515","Jl. Flamboyan, RT.4/RW.6, Gn. Pabongan, Leyangan, Kec. Ungaran Tim., Kabupaten Semarang",SULAWESI UTARA,50515.0,Indonesia,85641021000.0,,,-7.1440294,110.4284944,https://maps.google.com/?cid=0x0:0xf67098de06a75a2c,
toko bangunan,Toko Bahan Bangunan,Toko Bangunan Gathon Makmur,"R92W+VWM, JL. Raya Jimbaran - Bandungan, Bandungan, Munding, Ungaran, Kabupaten Semarang, Jawa Tengah 50661","JL. Raya Jimbaran - Bandungan, Bandungan, Munding, Ungaran, Kabupaten Semarang",SULAWESI UTARA,50661.0,Indonesia,298712551.0,,,-7.1977937,110.3973083,https://maps.google.com/?cid=0x0:0x2b93f1c3aefeaf6e,
toko bangunan,toko bangunan,Lirung,"Kabupaten Kepulauan Talaud, Sulawesi Utara","Kabupaten Kepulauan Talaud, Sulawesi Utara",SULAWESI UTARA,,Indonesia,,,,3.9572072,126.6795425,https://maps.google.com/?cid=0x0:0x210eac5f2d6150d0,
toko bangunan,Toko Bahan Bangunan,Toko Queen,"WMQW+6VM, Lirung Satu, Lirung, Kabupaten Kepulauan Talaud, Sulawesi Utara","Kabupaten Kepulauan Talaud, Sulawesi Utara",SULAWESI UTARA,,Indonesia,82337303807.0,,,3.938083,126.6971653,https://maps.google.com/?cid=0x0:0xec383bb1f9926775,
toko bangunan,Toko Bahan Bangunan,Toko Abadi Jaya Lirung,"WMQW+7R2, Lirung Satu, Lirung, Kabupaten Kepulauan Talaud, Sulawesi Utara","Kabupaten Kepulauan Talaud, Sulawesi Utara",SULAWESI UTARA,,Indonesia,,,,3.9381419,126.6970279,https://maps.google.com/?cid=0x0:0xa82a2430db113718,
toko bangunan,toko bangunan,Kec. Melonguane,"Kabupaten Kepulauan Talaud, Sulawesi Utara","Kabupaten Kepulauan Talaud, Sulawesi Utara",SULAWESI UTARA,,Indonesia,,,,4.0732215,126.6898783,https://maps.google.com/?cid=0x0:0xcefc20000c591b01,
toko bangunan,Toko Perlengkapan Rumah,TOKO IDAMAN 1,"Kec. Melonguane, Kabupaten Kepulauan Talaud, Sulawesi Utara","Kabupaten Kepulauan Talaud, Sulawesi Utara",SULAWESI UTARA,,Indonesia,85242934477.0,,,4.0044567,126.6972917,https://maps.google.com/?cid=0x0:0xd71ec84118037e01,
toko bangunan,Toko Bahan Bangunan,Toko Queen,"WMQW+6VM, Lirung Satu, Lirung, Kabupaten Kepulauan Talaud, Sulawesi Utara","Kabupaten Kepulauan Talaud, Sulawesi Utara",SULAWESI UTARA,,Indonesia,82337303807.0,,,3.938083,126.6971653,https://maps.google.com/?cid=0x0:0xec383bb1f9926775,
toko bangunan,toko bangunan,Melonguane Tim.,"Kabupaten Kepulauan Talaud, Sulawesi Utara","Kabupaten Kepulauan Talaud, Sulawesi Utara",SULAWESI UTARA,,Indonesia,,,,4.0485353,126.7711774,https://maps.google.com/?cid=0x0:0xd6ab634a93c1c28d,
toko bangunan,Toko Bahan Bangunan,Toko Queen,"WMQW+6VM, Lirung Satu, Lirung, Kabupaten Kepulauan Talaud, Sulawesi Utara","Kabupaten Kepulauan Talaud, Sulawesi Utara",SULAWESI UTARA,,Indonesia,82337303807.0,,,3.938083,126.6971653,https://maps.google.com/?cid=0x0:0xec383bb1f9926775,
toko bangunan,Toko Perlengkapan Rumah,TOKO IDAMAN 1,"Kec. Melonguane, Kabupaten Kepulauan Talaud, Sulawesi Utara","Kabupaten Kepulauan Talaud, Sulawesi Utara",SULAWESI UTARA,,Indonesia,85242934477.0,,,4.0044567,126.6972917,https://maps.google.com/?cid=0x0:0xd71ec84118037e01,
toko bangunan,Toko,toko bangunan hj muhlis,"XQ2W+V7R, Jl. Ratahan - Kotamobagu, Ponosakan Indah, Kec. Belang, Kabupaten Minahasa Tenggara, Sulawesi Utara 95997","Jl. Ratahan - Kotamobagu, Ponosakan Indah, Kec. Belang, Kabupaten Minahasa Tenggara",SULAWESI UTARA,95997.0,Indonesia,,,,0.9522386,124.7956411,https://maps.google.com/?cid=0x0:0xa87b203b7e160b19,
toko bangunan,Toko Bahan Bangunan,Toko Bangunan Dan Meubel SUMBER REJEKI,"XQ4X+624, Jl. Ratahan - Kotamobagu, Ponosakan Indah, Kec. Belang, Kabupaten Minahasa Tenggara, Sulawesi Utara 95997","Jl. Ratahan - Kotamobagu, Ponosakan Indah, Kec. Belang, Kabupaten Minahasa Tenggara",SULAWESI UTARA,95997.0,Indonesia,82259666230.0,,,0.9555108,124.7975711,https://maps.google.com/?cid=0x0:0x68d8a3970b96d48e,
toko bangunan,Toko Bahan Bangunan,Klik Bangunan Tanah Sereal,"Jl. Sholeh Iskandar, RT.01/RW.04, Cibadak, Kec. Tanah Sereal, Kota Bogor, Jawa Barat 16168","RT.01/RW.04, Cibadak, Kec. Tanah Sereal, Kota Bogor",SULAWESI UTARA,16168.0,Indonesia,81112300198.0,,,-6.5465421,106.773674,https://maps.google.com/?cid=0x0:0x95c0f3480eeb194a,
toko bangunan,Toko Bahan Bangunan,Toko Queen,"WMQW+6VM, Lirung Satu, Lirung, Kabupaten Kepulauan Talaud, Sulawesi Utara","Kabupaten Kepulauan Talaud, Sulawesi Utara",SULAWESI UTARA,,Indonesia,82337303807.0,,,3.938083,126.6971653,https://maps.google.com/?cid=0x0:0xec383bb1f9926775,
toko bangunan,Toko Bahan Bangunan,Toko Abadi Jaya Lirung,"WMQW+7R2, Lirung Satu, Lirung, Kabupaten Kepulauan Talaud, Sulawesi Utara","Kabupaten Kepulauan Talaud, Sulawesi Utara",SULAWESI UTARA,,Indonesia,,,,3.9381419,126.6970279,https://maps.google.com/?cid=0x0:0xa82a2430db113718,
toko bangunan,Toko Bahan Bangunan,TOKO BANGUNAN,"Ilir, Kec. Kandanghaur, Kabupaten Indramayu, Jawa Barat","Kabupaten Indramayu, Jawa Barat",SULAWESI UTARA,,Indonesia,,,,-6.3474051,108.1008279,https://maps.google.com/?cid=0x0:0xa4fb1939210a7723,
toko bangunan,toko bangunan,Kec. Nanusa,"Kabupaten Kepulauan Talaud, Sulawesi Utara","Kabupaten Kepulauan Talaud, Sulawesi Utara",SULAWESI UTARA,,Indonesia,,,,4.7677023,127.1365803,https://maps.google.com/?cid=0x0:0x9befc8beadc94d3,
toko bangunan,Pembangunan Perumahan,Toko Bangunan,"PG2G+4JH, Unnamed Road, Naha, Kec. Tabukan Utara, Kabupaten Kepulauan Sangihe, Sulawesi Utara","Kabupaten Kepulauan Sangihe, Sulawesi Utara",SULAWESI UTARA,,Indonesia,,,,3.700321,125.5266149,https://maps.google.com/?cid=0x0:0x77c33aef13b84544,
toko bangunan,Produsen,Glen - Chris Pres (Percetakan Batako),"Jln No.1, Gemeh, Kec. Gemeh, Kabupaten Kepulauan Talaud, Sulawesi Utara 95888","Gemeh, Kec. Gemeh, Kabupaten Kepulauan Talaud",SULAWESI UTARA,95888.0,Indonesia,81244292584.0,,,4.5104096,126.8174882,https://maps.google.com/?cid=0x0:0x6d91ec0e5dd6a12c,
toko bangunan,toko bangunan,Kec. Pulutan,"Kabupaten Kepulauan Talaud, Sulawesi Utara","Kabupaten Kepulauan Talaud, Sulawesi Utara",SULAWESI UTARA,,Indonesia,,,,4.1450999,126.7951954,https://maps.google.com/?cid=0x0:0x9937d9b348ccafdf,
toko bangunan,toko bangunan,Pulutan,"Kec. Remboken, Kabupaten Minahasa, Sulawesi Utara","Kabupaten Minahasa, Sulawesi Utara",SULAWESI UTARA,,Indonesia,,,,1.2146128,124.837581,https://maps.google.com/?cid=0x0:0x81030811b427ef9f,
toko bangunan,Pabrik Keramik,PUSAT PELATIHAN KERAMIK PULUTAN,"Pulutan, Kec. Remboken, Kabupaten Minahasa, Sulawesi Utara","Kabupaten Minahasa, Sulawesi Utara",SULAWESI UTARA,,Indonesia,81284497075.0,,,1.2189717,124.8374718,https://maps.google.com/?cid=0x0:0x7656acda16a39e6e,
toko bangunan,Toko Bahan Bangunan,Toko Bangunan Chiko Matungkas,"FXF9+7QQ, Jl. Sukur - Likupang, Matungkas, Kec. Dimembe, Kabupaten Minahasa Utara, Sulawesi Utara","Kabupaten Minahasa Utara, Sulawesi Utara",SULAWESI UTARA,,Indonesia,85340940004.0,,,1.4732046,124.9694978,https://maps.google.com/?cid=0x0:0xb10a524c66bf6d30,
toko bangunan,Toko Bahan Bangunan,Toko Sumber Bangunan Pineleng,"CRGQ+VCG, Jl. Raya Manado Tomohon, Pineleng I, Kec. Pineleng, Kabupaten Minahasa, Sulawesi Utara","Kabupaten Minahasa, Sulawesi Utara",SULAWESI UTARA,,Indonesia,,,,1.4271958,124.8385828,https://maps.google.com/?cid=0x0:0x5bfd3a32058d5029,
toko bangunan,Pemasok Bahan Bangunan,Toko Indo Bangunan,"Jl. Panglima Polim No.52 A 9, RT.9/RW.7, Pulo, Kec. Kby. Baru, Kota Jakarta Selatan, Daerah Khusus Ibukota Jakarta 12160","RT.9/RW.7, Pulo, Kec. Kby. Baru, Kota Jakarta Selatan",SULAWESI UTARA,12160.0,Indonesia,217392172.0,,,-6.251485,106.79727,https://maps.google.com/?cid=0x0:0x9fe04d1826dbb33b,
toko bangunan,Toko Bahan Bangunan,TB. Surya Prima,"Jl. Ciater Raya No.71 3, RT.3/RW.8, Serua, Kec. Ciputat, Kota Tangerang Selatan, Banten 15414","RT.3/RW.8, Serua, Kec. Ciputat, Kota Tangerang Selatan",SULAWESI UTARA,15414.0,Indonesia,87780192045.0,,,-6.3161741,106.7077171,https://maps.google.com/?cid=0x0:0x4ee110bd87602340,
toko bangunan,Toko Bahan Bangunan,Harapan Makmur,"pulo gebang permai rt.01/04 no:10, RT.13/RW.4, Pulo Gebang, Kec. Cakung, Kota Jakarta Timur, Daerah Khusus Ibukota Jakarta 13950","RT.13/RW.4, Pulo Gebang, Kec. Cakung, Kota Jakarta Timur",SULAWESI UTARA,13950.0,Indonesia,,,,-6.1965532,106.9548097,https://maps.google.com/?cid=0x0:0xfc788602c1366326,
toko bangunan,Toko Bahan Bangunan,Republik Bangunan Toko Bangunan TB Indah Pamulang,"Jl. Parakan No.51, Pd. Benda, Kec. Pamulang, Kota Tangerang Selatan, Banten 15415","Pd. Benda, Kec. Pamulang, Kota Tangerang Selatan",SULAWESI UTARA,15415.0,Indonesia,81294483767.0,,,-6.3357218,106.7097139,https://maps.google.com/?cid=0x0:0x9a4abe07ed33d9f2,
toko bangunan,Toko Bahan Bangunan,Toko Bangunan Surya Prima,"Jl. Ceger Raya No.78, RT.2/RW.1, Jurang Manggu Tim., Kec. Pd. Aren, Kota Tangerang Selatan, Banten 15222","RT.2/RW.1, Jurang Manggu Tim., Kec. Pd. Aren, Kota Tangerang Selatan",SULAWESI UTARA,15222.0,Indonesia,217300965.0,,,-6.2627486,106.7335647,https://maps.google.com/?cid=0x0:0x1189134640fbd143,
toko bangunan,Toko Bahan Bangunan,Toko bangunan INTAN BARU,"Jl. Raya Serang - Jkt No.KM 12, Sentul, Kec. Kragilan, Kabupaten Serang, Banten 42184","Sentul, Kec. Kragilan, Kabupaten Serang",SULAWESI UTARA,42184.0,Indonesia,82153233340.0,,,-6.1369781,106.273442,https://maps.google.com/?cid=0x0:0x23ea8e4b0c664714,
toko bangunan,Pemasok Bahan Bangunan,Harapan Makmur JGC,"Ruko the Savoy, Jakarta garden city No.29a blok c2, Cakung Tim., Kec. Cakung, Kota Jakarta Timur, Daerah Khusus Ibukota Jakarta 13910","Jakarta garden city No.29a blok c2, Cakung Tim., Kec. Cakung, Kota Jakarta Timur",SULAWESI UTARA,13910.0,Indonesia,,,,-6.1567762,106.9646625,https://maps.google.com/?cid=0x0:0xe70dc6d098c4c88a,
toko bangunan,Toko Bahan Bangunan,Toko bangunan,"QWJ6+VMX, RT.12/RW.17, Klender, Kec. Duren Sawit, Kota Jakarta Timur, Daerah Khusus Ibukota Jakarta 13470","RT.12/RW.17, Klender, Kec. Duren Sawit, Kota Jakarta Timur",SULAWESI UTARA,13470.0,Indonesia,818977419.0,,,-6.2177613,106.9117221,https://maps.google.com/?cid=0x0:0x5dcd7e154a966de0,
toko bangunan,Toko Bahan Bangunan,Yunus Larenggam,"5RXW+QGX, Dusun 3, Desa Alo Utara, Kec. Rainis, Kabupaten Kepulauan Talaud",Kabupaten Kepulauan Talaud,SULAWESI UTARA,,Indonesia,,,,4.1994781,126.846372,https://maps.google.com/?cid=0x0:0xed68074b7dd564c5,
toko bangunan,Insinyur kelautan,Toko Bangunan WoodBerry,"Beo, Kec. Beo, Kabupaten Kepulauan Talaud, Sulawesi Utara","Kabupaten Kepulauan Talaud, Sulawesi Utara",SULAWESI UTARA,,Indonesia,85398788808.0,,,4.2376181,126.796228,https://maps.google.com/?cid=0x0:0x761a260d19c7ce95,
toko bangunan,Toko Bahan Bangunan,Toko Queen,"WMQW+6VM, Lirung Satu, Lirung, Kabupaten Kepulauan Talaud, Sulawesi Utara","Kabupaten Kepulauan Talaud, Sulawesi Utara",SULAWESI UTARA,,Indonesia,82337303807.0,,,3.938083,126.6971653,https://maps.google.com/?cid=0x0:0xec383bb1f9926775,
toko bangunan,toko bangunan,Salibabu,"Kabupaten Kepulauan Talaud, Sulawesi Utara","Kabupaten Kepulauan Talaud, Sulawesi Utara",SULAWESI UTARA,,Indonesia,,,,3.9026876,126.6849359,https://maps.google.com/?cid=0x0:0x5c5d08892b729657,
toko bangunan,Toko Bahan Bangunan,Toko Queen,"WMQW+6VM, Lirung Satu, Lirung, Kabupaten Kepulauan Talaud, Sulawesi Utara","Kabupaten Kepulauan Talaud, Sulawesi Utara",SULAWESI UTARA,,Indonesia,82337303807.0,,,3.938083,126.6971653,https://maps.google.com/?cid=0x0:0xec383bb1f9926775,
toko bangunan,Toko Bahan Bangunan,Toko Abadi Jaya Lirung,"WMQW+7R2, Lirung Satu, Lirung, Kabupaten Kepulauan Talaud, Sulawesi Utara","Kabupaten Kepulauan Talaud, Sulawesi Utara",SULAWESI UTARA,,Indonesia,,,,3.9381419,126.6970279,https://maps.google.com/?cid=0x0:0xa82a2430db113718,
toko bangunan,Toko Bahan Bangunan,Toko Bahan Bangunan,"FRWX+995, Jl. Soputan, Singkil Satu, Kec. Singkil, Kota Manado, Sulawesi Utara","Kota Manado, Sulawesi Utara",SULAWESI UTARA,,Indonesia,,,,1.4958803,124.8484916,https://maps.google.com/?cid=0x0:0x87a9bba92591a12e,
toko bangunan,Toko Bahan Bangunan,Toko Sumber Bangunan Manado,"Jl. Pingkan Matindas No.17, Dendengan Dalam, Kec. Wenang, Kota Manado, Sulawesi Utara 95127","Dendengan Dalam, Kec. Wenang, Kota Manado",SULAWESI UTARA,95127.0,Indonesia,82258880837.0,,,1.4811178,124.8579951,https://maps.google.com/?cid=0x0:0x49e8c78a49949a32,
toko bangunan,Toko Bahan Bangunan,T.b. Sempurna Jaya H. Jamal,"Kp. Baru, Kec. Pamarayan, Kabupaten Serang, Banten","Kabupaten Serang, Banten",SULAWESI UTARA,,Indonesia,,,,-6.2498915,106.2862324,https://maps.google.com/?cid=0x0:0x5cd451d574e94a5e,
hardware store,hardware store,Sulawesi Utara,,Sulawesi Utara,SULAWESI UTARA,,Indonesia,,,,0.6246932,123.9750018,https://maps.google.com/?cid=0x0:0x45891617980cb835,
hardware store,Toko Bahan Bangunan,GranD Prima Manado,"Kompleks MonacoBay, Jl. Piere Tendean No.1 Blok A, Kota Manado, Sulawesi Utara 95111","Jl. Piere Tendean No.1 Blok A, Kota Manado",SULAWESI UTARA,95111.0,Indonesia,81244158352.0,,,1.487165,124.836687,https://maps.google.com/?cid=0x0:0x7138f00ecfef2196,
hardware store,Toko Perlengkapan Rumah,Grand Hardware,"Komplek Marina Plaza Blok B No. 7-10, Jl. Piere Tendean Boulevard,manado, Manado, Sulawesi Utara, 95111","Jl. Piere Tendean Boulevard,manado, Manado",SULAWESI UTARA,95111.0,Indonesia,85255443510.0,,,1.4924543,124.838346,https://maps.google.com/?cid=0x0:0x513c63d19209ca5,
hardware store,Toko Perlengkapan Rumah,Grand Hardware,"FR58+3RF, Malalayang Satu, Kec. Malalayang, Kota Manado, Sulawesi Utara","Kota Manado, Sulawesi Utara",SULAWESI UTARA,,Indonesia,,,,1.4576853,124.8170507,https://maps.google.com/?cid=0x0:0xfd46d3ac7a01670e,
hardware store,Toko Bahan Bangunan,Grand Hardware,"C4PC+9FV, Jl. Raya Manado - Bitung, Girian Weru Dua, Kec. Girian, Kota Bitung, Sulawesi Utara 95864","Jl. Raya Manado - Bitung, Girian Weru Dua, Kec. Girian, Kota Bitung",SULAWESI UTARA,95864.0,Indonesia,,,,1.4359832,125.121166,https://maps.google.com/?cid=0x0:0x19a823dd6e850cfd,
hardware store,Layanan E-Niaga,Asatron Jakarta indonesia,"Jl. Budi Mulia No.84 4, RT.15/RW.8, Pademangan Bar., Kec. Pademangan, Jkt Utara, Daerah Khusus Ibukota Jakarta 14420","RT.15/RW.8, Pademangan Bar., Kec. Pademangan, Jkt Utara",SULAWESI UTARA,14420.0,Indonesia,2164710435.0,,,-6.1338138,106.8358981,https://maps.google.com/?cid=0x0:0x5ad1c3d5c101ce1f,
hardware store,Pemasok Perlengkapan Audio Visual,Baretone Audio,"Harco Mangga Dua Plaza, Ruko, Jakarta, Jl. Mangga Dua Raya Blok M, RT.17/RW.11, Mangga Dua Sel., Daerah Khusus Ibukota Jakarta 10730","Ruko, Jakarta, Jl. Mangga Dua Raya Blok M, RT.17/RW.11, Mangga Dua Sel.",SULAWESI UTARA,10730.0,Indonesia,216122053.0,,,-6.1391399,106.8287154,https://maps.google.com/?cid=0x0:0x25107355119fea1,
hardware store,hardware store,Kec. Beo Sel.,"Kabupaten Kepulauan Talaud, Sulawesi Utara","Kabupaten Kepulauan Talaud, Sulawesi Utara",SULAWESI UTARA,,Indonesia,,,,4.1825062,126.7711774,https://maps.google.com/?cid=0x0:0x7fdc62b4f90caf2d,
hardware store,Toko,Toko GRAND HARDWARE,"CXJH+22P, Sarongsong I, Kec. Airmadidi, Kabupaten Minahasa Utara, Sulawesi Utara","Kabupaten Minahasa Utara, Sulawesi Utara",SULAWESI UTARA,,Indonesia,,,,1.4300932,124.9775741,https://maps.google.com/?cid=0x0:0xd5bea6e4e94329b1,
hardware store,Toko Perlengkapan Rumah,Grand Hardware,"Komplek Marina Plaza Blok B No. 7-10, Jl. Piere Tendean Boulevard,manado, Manado, Sulawesi Utara, 95111","Jl. Piere Tendean Boulevard,manado, Manado",SULAWESI UTARA,95111.0,Indonesia,85255443510.0,,,1.4924543,124.838346,https://maps.google.com/?cid=0x0:0x513c63d19209ca5,
hardware store,Toko Bahan Bangunan,Grand Hardware,"C4PC+9FV, Jl. Raya Manado - Bitung, Girian Weru Dua, Kec. Girian, Kota Bitung, Sulawesi Utara 95864","Jl. Raya Manado - Bitung, Girian Weru Dua, Kec. Girian, Kota Bitung",SULAWESI UTARA,95864.0,Indonesia,,,,1.4359832,125.121166,https://maps.google.com/?cid=0x0:0x19a823dd6e850cfd,
hardware store,Toko Bahan Bangunan,GranD Prima Manado,"Kompleks MonacoBay, Jl. Piere Tendean No.1 Blok A, Kota Manado, Sulawesi Utara 95111","Jl. Piere Tendean No.1 Blok A, Kota Manado",SULAWESI UTARA,95111.0,Indonesia,81244158352.0,,,1.487165,124.836687,https://maps.google.com/?cid=0x0:0x7138f00ecfef2196,
hardware store,Toko Perlengkapan Rumah,TOKO IDAMAN 1,"Kec. Melonguane, Kabupaten Kepulauan Talaud, Sulawesi Utara","Kabupaten Kepulauan Talaud, Sulawesi Utara",SULAWESI UTARA,,Indonesia,85242934477.0,,,4.0044567,126.6972917,https://maps.google.com/?cid=0x0:0xd71ec84118037e01,
hardware store,Insinyur kelautan,Toko Bangunan WoodBerry,"Beo, Kec. Beo, Kabupaten Kepulauan Talaud, Sulawesi Utara","Kabupaten Kepulauan Talaud, Sulawesi Utara",SULAWESI UTARA,,Indonesia,85398788808.0,,,4.2376181,126.796228,https://maps.google.com/?cid=0x0:0x761a260d19c7ce95,
hardware store,Komplek perumahan,Toko bangunan Rajawali ch,"6QGV+GHX, Beo Bar., Kec. Beo, Kabupaten Kepulauan Talaud, Sulawesi Utara","Kabupaten Kepulauan Talaud, Sulawesi Utara",SULAWESI UTARA,,Indonesia,,,,4.2263547,126.7939991,https://maps.google.com/?cid=0x0:0xd2de2dd5458ab44,
hardware store,hardware store,Beo Utara,"Kabupaten Kepulauan Talaud, Sulawesi Utara","Kabupaten Kepulauan Talaud, Sulawesi Utara",SULAWESI UTARA,,Indonesia,,,,4.3090871,126.7604027,https://maps.google.com/?cid=0x0:0x5f65587e5b3ae940,
hardware store,Insinyur kelautan,Toko Bangunan WoodBerry,"Beo, Kec. Beo, Kabupaten Kepulauan Talaud, Sulawesi Utara","Kabupaten Kepulauan Talaud, Sulawesi Utara",SULAWESI UTARA,,Indonesia,85398788808.0,,,4.2376181,126.796228,https://maps.google.com/?cid=0x0:0x761a260d19c7ce95,
hardware store,Toko,Toko GRAND HARDWARE,"CXJH+22P, Sarongsong I, Kec. Airmadidi, Kabupaten Minahasa Utara, Sulawesi Utara","Kabupaten Minahasa Utara, Sulawesi Utara",SULAWESI UTARA,,Indonesia,,,,1.4300932,124.9775741,https://maps.google.com/?cid=0x0:0xd5bea6e4e94329b1,
hardware store,Toko Perlengkapan Rumah,Grand Hardware,"FR58+3RF, Malalayang Satu, Kec. Malalayang, Kota Manado, Sulawesi Utara","Kota Manado, Sulawesi Utara",SULAWESI UTARA,,Indonesia,,,,1.4576853,124.8170507,https://maps.google.com/?cid=0x0:0xfd46d3ac7a01670e,
hardware store,Toko Bahan Bangunan,Grand Hardware,"C4PC+9FV, Jl. Raya Manado - Bitung, Girian Weru Dua, Kec. Girian, Kota Bitung, Sulawesi Utara 95864","Jl. Raya Manado - Bitung, Girian Weru Dua, Kec. Girian, Kota Bitung",SULAWESI UTARA,95864.0,Indonesia,,,,1.4359832,125.121166,https://maps.google.com/?cid=0x0:0x19a823dd6e850cfd,
hardware store,Toko umum,AI PHING FOTO COPY STATIONERY,"Beo, Kec. Beo, Kabupaten Kepulauan Talaud, Sulawesi Utara","Kabupaten Kepulauan Talaud, Sulawesi Utara",SULAWESI UTARA,,Indonesia,81241617218.0,,,4.2270956,126.7922422,https://maps.google.com/?cid=0x0:0xfd6cb11ed5d004fa,
hardware store,Toko Perlengkapan Rumah,Grand Hardware,"Komplek Marina Plaza Blok B No. 7-10, Jl. Piere Tendean Boulevard,manado, Manado, Sulawesi Utara, 95111","Jl. Piere Tendean Boulevard,manado, Manado",SULAWESI UTARA,95111.0,Indonesia,85255443510.0,,,1.4924543,124.838346,https://maps.google.com/?cid=0x0:0x513c63d19209ca5,
hardware store,Toko Bahan Bangunan,GranD Prima Manado,"Kompleks MonacoBay, Jl. Piere Tendean No.1 Blok A, Kota Manado, Sulawesi Utara 95111","Jl. Piere Tendean No.1 Blok A, Kota Manado",SULAWESI UTARA,95111.0,Indonesia,81244158352.0,,,1.487165,124.836687,https://maps.google.com/?cid=0x0:0x7138f00ecfef2196,
hardware store,Toko Bahan Bangunan,DAMA HARDWARE,Kenya,Kenya,SULAWESI UTARA,,Indonesia,,,,-1.8747647,37.7913749,https://maps.google.com/?cid=0x0:0x3af9b2929863f87d,
hardware store,hardware store,Gemeh,"Gemeh, Kec. Gemeh, Kabupaten Kepulauan Talaud, Sulawesi Utara","Kabupaten Kepulauan Talaud, Sulawesi Utara",SULAWESI UTARA,,Indonesia,,,,4.499708,126.815887,https://maps.google.com/?cid=0x0:0x35054efa0974ac1f,
hardware store,hardware store,Kec. Tebet,"Kota Jakarta Selatan, Daerah Khusus Ibukota Jakarta","Kota Jakarta Selatan, Daerah Khusus Ibukota Jakarta",SULAWESI UTARA,,Indonesia,,,,-6.2251223,106.8549881,https://maps.google.com/?cid=0x0:0xd575e31c807295f9,
hardware store,Toko,Toko GRAND HARDWARE,"CXJH+22P, Sarongsong I, Kec. Airmadidi, Kabupaten Minahasa Utara, Sulawesi Utara","Kabupaten Minahasa Utara, Sulawesi Utara",SULAWESI UTARA,,Indonesia,,,,1.4300932,124.9775741,https://maps.google.com/?cid=0x0:0xd5bea6e4e94329b1,
hardware store,Toko Swalayan,Toko Grand,"CXFH+RV4, Pasar, Airmadidi Atas, Kec. Airmadidi, Manado, Sulawesi Utara 95371","Pasar, Airmadidi Atas, Kec. Airmadidi, Manado",SULAWESI UTARA,95371.0,Indonesia,81617151289.0,,,1.4245104,124.9797052,https://maps.google.com/?cid=0x0:0x817a9599f52c4d18,
hardware store,Toko Bahan Bangunan,Senga Hardware,"Machakos, Kenya","Machakos, Kenya",SULAWESI UTARA,,Indonesia,,,,-1.4959944,37.2612574,https://maps.google.com/?cid=0x0:0xfb87c76d75d071fe,
hardware store,Toko,Toko GRAND HARDWARE,"CXJH+22P, Sarongsong I, Kec. Airmadidi, Kabupaten Minahasa Utara, Sulawesi Utara","Kabupaten Minahasa Utara, Sulawesi Utara",SULAWESI UTARA,,Indonesia,,,,1.4300932,124.9775741,https://maps.google.com/?cid=0x0:0xd5bea6e4e94329b1,
hardware store,Toko Swalayan,Toko Grand,"CXFH+RV4, Pasar, Airmadidi Atas, Kec. Airmadidi, Manado, Sulawesi Utara 95371","Pasar, Airmadidi Atas, Kec. Airmadidi, Manado",SULAWESI UTARA,95371.0,Indonesia,81617151289.0,,,1.4245104,124.9797052,https://maps.google.com/?cid=0x0:0x817a9599f52c4d18,
hardware store,hardware store,Kec. Essang Sel.,"Kabupaten Kepulauan Talaud, Sulawesi Utara","Kabupaten Kepulauan Talaud, Sulawesi Utara",SULAWESI UTARA,,Indonesia,,,,4.4248507,126.7095716,https://maps.google.com/?cid=0x0:0x109f9417f7325f46,
hardware store,Toko Perlengkapan Rumah,Grand Hardware,"Komplek Marina Plaza Blok B No. 7-10, Jl. Piere Tendean Boulevard,manado, Manado, Sulawesi Utara, 95111","Jl. Piere Tendean Boulevard,manado, Manado",SULAWESI UTARA,95111.0,Indonesia,85255443510.0,,,1.4924543,124.838346,https://maps.google.com/?cid=0x0:0x513c63d19209ca5,
hardware store,Toko Bahan Bangunan,GranD Prima Manado,"Kompleks MonacoBay, Jl. Piere Tendean No.1 Blok A, Kota Manado, Sulawesi Utara 95111","Jl. Piere Tendean No.1 Blok A, Kota Manado",SULAWESI UTARA,95111.0,Indonesia,81244158352.0,,,1.487165,124.836687,https://maps.google.com/?cid=0x0:0x7138f00ecfef2196,
hardware store,hardware store,Kec. Kabaruan,"Kabupaten Kepulauan Talaud, Sulawesi Utara","Kabupaten Kepulauan Talaud, Sulawesi Utara",SULAWESI UTARA,,Indonesia,,,,3.8385519,126.7852295,https://maps.google.com/?cid=0x0:0x8c347d9cb11e4ad5,
hardware store,Toko,Toko GRAND HARDWARE,"CXJH+22P, Sarongsong I, Kec. Airmadidi, Kabupaten Minahasa Utara, Sulawesi Utara","Kabupaten Minahasa Utara, Sulawesi Utara",SULAWESI UTARA,,Indonesia,,,,1.4300932,124.9775741,https://maps.google.com/?cid=0x0:0xd5bea6e4e94329b1,
hardware store,Toko Swalayan,Toko Grand,"CXFH+RV4, Pasar, Airmadidi Atas, Kec. Airmadidi, Manado, Sulawesi Utara 95371","Pasar, Airmadidi Atas, Kec. Airmadidi, Manado",SULAWESI UTARA,95371.0,Indonesia,81617151289.0,,,1.4245104,124.9797052,https://maps.google.com/?cid=0x0:0x817a9599f52c4d18,
hardware store,Toko Perlengkapan Rumah,Grand Hardware,"Komplek Marina Plaza Blok B No. 7-10, Jl. Piere Tendean Boulevard,manado, Manado, Sulawesi Utara, 95111","Jl. Piere Tendean Boulevard,manado, Manado",SULAWESI UTARA,95111.0,Indonesia,85255443510.0,,,1.4924543,124.838346,https://maps.google.com/?cid=0x0:0x513c63d19209ca5,
hardware store,Toko Bahan Bangunan,TB . AL AQSHO,"JL. NAKULA / JL. SEMANGU, RT3 RW 8 KALONGAN, UNGARAN TIMUR, UNGARAN, Jawa Tengah, 50551","RT3 RW 8 KALONGAN, UNGARAN TIMUR, UNGARAN",SULAWESI UTARA,50551.0,Indonesia,85740971480.0,,,-7.13894,110.450941,https://maps.google.com/?cid=0x0:0x94f7997ce9e7c9bc,
hardware store,Toko Bahan Bangunan,TB jadi mulya ungaran,"Jl. Bima No.raya, RT.1/RW.3, Bandungan, Kalongan, Kec. Ungaran Tim., Kabupaten Semarang, Jawa Tengah 50519","RT.1/RW.3, Bandungan, Kalongan, Kec. Ungaran Tim., Kabupaten Semarang",SULAWESI UTARA,50519.0,Indonesia,85769167218.0,,,-7.1358953,110.4419997,https://maps.google.com/?cid=0x0:0xf9eb6308527b8aa5,
hardware store,Toko Bahan Bangunan,Toko Hakam Jaya,"Jalan Ptpngobo km.4 Bergas, Wringin Putih, Area Kebun, Wringin Putih, Kec. Bergas, Kabupaten Semarang, Jawa Tengah 50511","Wringin Putih, Area Kebun, Wringin Putih, Kec. Bergas, Kabupaten Semarang",SULAWESI UTARA,50511.0,Indonesia,81914482258.0,,,-7.166756,110.440969,https://maps.google.com/?cid=0x0:0x8e24a0e31497a4f5,
hardware store,Toko Bahan Bangunan,Fn Jaya,"VC7V+9FG, Jl. Bima, Kalongan, Kec. Ungaran Tim., Kabupaten Semarang, Jawa Tengah 50519","Jl. Bima, Kalongan, Kec. Ungaran Tim., Kabupaten Semarang",SULAWESI UTARA,50519.0,Indonesia,85651290131.0,,,-7.136569,110.443696,https://maps.google.com/?cid=0x0:0x740efd2b00a82d87,
hardware store,Toko Mebel,TB. Rimba Karya Material dan Bahan Bangunan,"Jalan Raya, Kresek, Kalongan, Kec. Ungaran Tim., Kabupaten Semarang, Jawa Tengah 50519","Kresek, Kalongan, Kec. Ungaran Tim., Kabupaten Semarang",SULAWESI UTARA,50519.0,Indonesia,81542051335.0,,,-7.1377668,110.4506745,https://maps.google.com/?cid=0x0:0xe2ff92f87dc5aaff,
hardware store,Toko Bahan Bangunan,Toko Mur  Baut Wing Nut Ungaran,"Jl. Ungaran - Mranggen, Kalianyar, Kalirejo, Kec. Ungaran Tim., Kabupaten Semarang, Jawa Tengah","Kabupaten Semarang, Jawa Tengah",SULAWESI UTARA,,Indonesia,85719126210.0,,,-7.1366344,110.4277787,https://maps.google.com/?cid=0x0:0xf88b0834ad43b0cc,
hardware store,Toko Bahan Bangunan,Toko Bangunan Enggal Jaya,"RCXJ+R44, Jl. Padang Raya Leyangan, Rekesan, Leyangan, Kec. Ungaran Tim., Kabupaten Semarang, Jawa Tengah 50519","Jl. Padang Raya Leyangan, Rekesan, Leyangan, Kec. Ungaran Tim., Kabupaten Semarang",SULAWESI UTARA,50519.0,Indonesia,81225404326.0,,,-7.1504901,110.4303281,https://maps.google.com/?cid=0x0:0xb537a0e9dfe3f948,
hardware store,hardware store,Lirung,"Kabupaten Kepulauan Talaud, Sulawesi Utara","Kabupaten Kepulauan Talaud, Sulawesi Utara",SULAWESI UTARA,,Indonesia,,,,3.9572072,126.6795425,https://maps.google.com/?cid=0x0:0x210eac5f2d6150d0,
hardware store,Toko Bahan Bangunan,Toko Queen,"WMQW+6VM, Lirung Satu, Lirung, Kabupaten Kepulauan Talaud, Sulawesi Utara","Kabupaten Kepulauan Talaud, Sulawesi Utara",SULAWESI UTARA,,Indonesia,82337303807.0,,,3.938083,126.6971653,https://maps.google.com/?cid=0x0:0xec383bb1f9926775,
hardware store,Toko bahan makanan,"Toko Pintu Berkat"" Lirung""","Jl. Tucunan No.20, Lirung Satu, Lirung, Kabupaten Kepulauan Talaud, Sulawesi Utara 95871","Lirung Satu, Lirung, Kabupaten Kepulauan Talaud",SULAWESI UTARA,95871.0,Indonesia,85240616150.0,,,3.9384792,126.6963942,https://maps.google.com/?cid=0x0:0xfc15601e13b08cf4,
hardware store,Toko,Toko GRAND HARDWARE,"CXJH+22P, Sarongsong I, Kec. Airmadidi, Kabupaten Minahasa Utara, Sulawesi Utara","Kabupaten Minahasa Utara, Sulawesi Utara",SULAWESI UTARA,,Indonesia,,,,1.4300932,124.9775741,https://maps.google.com/?cid=0x0:0xd5bea6e4e94329b1,
hardware store,Toko Bahan Bangunan,Grand Hardware,"C4PC+9FV, Jl. Raya Manado - Bitung, Girian Weru Dua, Kec. Girian, Kota Bitung, Sulawesi Utara 95864","Jl. Raya Manado - Bitung, Girian Weru Dua, Kec. Girian, Kota Bitung",SULAWESI UTARA,95864.0,Indonesia,,,,1.4359832,125.121166,https://maps.google.com/?cid=0x0:0x19a823dd6e850cfd,
hardware store,Toko Perlengkapan Rumah,Grand Hardware,"Komplek Marina Plaza Blok B No. 7-10, Jl. Piere Tendean Boulevard,manado, Manado, Sulawesi Utara, 95111","Jl. Piere Tendean Boulevard,manado, Manado",SULAWESI UTARA,95111.0,Indonesia,85255443510.0,,,1.4924543,124.838346,https://maps.google.com/?cid=0x0:0x513c63d19209ca5,
hardware store,Toko Perlengkapan Rumah,Grand Hardware,"FR58+3RF, Malalayang Satu, Kec. Malalayang, Kota Manado, Sulawesi Utara","Kota Manado, Sulawesi Utara",SULAWESI UTARA,,Indonesia,,,,1.4576853,124.8170507,https://maps.google.com/?cid=0x0:0xfd46d3ac7a01670e,
hardware store,Toko Perlengkapan Rumah,TOKO IDAMAN 1,"Kec. Melonguane, Kabupaten Kepulauan Talaud, Sulawesi Utara","Kabupaten Kepulauan Talaud, Sulawesi Utara",SULAWESI UTARA,,Indonesia,85242934477.0,,,4.0044567,126.6972917,https://maps.google.com/?cid=0x0:0xd71ec84118037e01,
hardware store,Toko Perlengkapan Rumah,TOKO IDAMAN 1,"Kec. Melonguane, Kabupaten Kepulauan Talaud, Sulawesi Utara","Kabupaten Kepulauan Talaud, Sulawesi Utara",SULAWESI UTARA,,Indonesia,85242934477.0,,,4.0044567,126.6972917,https://maps.google.com/?cid=0x0:0xd71ec84118037e01,
hardware store,Pusat Perbelanjaan,Toko Karunia Jaya,"XMXG+HX6, Kec. Melonguane, Kabupaten Kepulauan Talaud, Sulawesi Utara","Kabupaten Kepulauan Talaud, Sulawesi Utara",SULAWESI UTARA,,Indonesia,81356367209.0,,,3.9989189,126.6774029,https://maps.google.com/?cid=0x0:0x56e019101625fffd,
hardware store,hardware store,Kec. Melonguane,"Kabupaten Kepulauan Talaud, Sulawesi Utara","Kabupaten Kepulauan Talaud, Sulawesi Utara",SULAWESI UTARA,,Indonesia,,,,4.0732215,126.6898783,https://maps.google.com/?cid=0x0:0xcefc20000c591b01,
hardware store,Kantor Perusahaan,PT. Magna Hardware,"Jl. Lautze No.60B 5, RT.5/RW.6, Ps. Baru, Kecamatan Sawah Besar, Kota Jakarta Pusat, Daerah Khusus Ibukota Jakarta 10710","RT.5/RW.6, Ps. Baru, Kecamatan Sawah Besar, Kota Jakarta Pusat",SULAWESI UTARA,10710.0,Indonesia,213523355.0,,,-6.1589157,106.8308319,https://maps.google.com/?cid=0x0:0xc3fa0cae9f8622b7,
hardware store,Pusat Perbelanjaan,Toko Gartia Komputer Melonguane Talaud,"XMXG+PHP, Kec. Melonguane, Kabupaten Kepulauan Talaud, Sulawesi Utara","Kabupaten Kepulauan Talaud, Sulawesi Utara",SULAWESI UTARA,,Indonesia,,,,3.999329,126.6764388,https://maps.google.com/?cid=0x0:0x801644beba04f1f1,
hardware store,Toko Komputer,541,"RMPW+H6H, Bitunuris Sel., Salibabu, Kabupaten Kepulauan Talaud, Sulawesi Utara","Kabupaten Kepulauan Talaud, Sulawesi Utara",SULAWESI UTARA,,Indonesia,81354965679.0,,,3.8364391,126.6955972,https://maps.google.com/?cid=0x0:0xcaf6b82833fa6b58,
hardware store,Toko Perlengkapan Rumah,TOKO IDAMAN 1,"Kec. Melonguane, Kabupaten Kepulauan Talaud, Sulawesi Utara","Kabupaten Kepulauan Talaud, Sulawesi Utara",SULAWESI UTARA,,Indonesia,85242934477.0,,,4.0044567,126.6972917,https://maps.google.com/?cid=0x0:0xd71ec84118037e01,
hardware store,Pusat Perbelanjaan,Toko Karunia Jaya,"XMXG+HX6, Kec. Melonguane, Kabupaten Kepulauan Talaud, Sulawesi Utara","Kabupaten Kepulauan Talaud, Sulawesi Utara",SULAWESI UTARA,,Indonesia,81356367209.0,,,3.9989189,126.6774029,https://maps.google.com/?cid=0x0:0x56e019101625fffd,
hardware store,Pusat Perbelanjaan,Toko Gartia Komputer Melonguane Talaud,"XMXG+PHP, Kec. Melonguane, Kabupaten Kepulauan Talaud, Sulawesi Utara","Kabupaten Kepulauan Talaud, Sulawesi Utara",SULAWESI UTARA,,Indonesia,,,,3.999329,126.6764388,https://maps.google.com/?cid=0x0:0x801644beba04f1f1,
hardware store,Toko Perlengkapan Rumah,Grand Hardware,"Komplek Marina Plaza Blok B No. 7-10, Jl. Piere Tendean Boulevard,manado, Manado, Sulawesi Utara, 95111","Jl. Piere Tendean Boulevard,manado, Manado",SULAWESI UTARA,95111.0,Indonesia,85255443510.0,,,1.4924543,124.838346,https://maps.google.com/?cid=0x0:0x513c63d19209ca5,
hardware store,Toko Bahan Bangunan,GranD Prima Manado,"Kompleks MonacoBay, Jl. Piere Tendean No.1 Blok A, Kota Manado, Sulawesi Utara 95111","Jl. Piere Tendean No.1 Blok A, Kota Manado",SULAWESI UTARA,95111.0,Indonesia,81244158352.0,,,1.487165,124.836687,https://maps.google.com/?cid=0x0:0x7138f00ecfef2196,
hardware store,hardware store,Pulau Miangas,"Miangas, Kabupaten Kepulauan Talaud, Sulawesi Utara","Kabupaten Kepulauan Talaud, Sulawesi Utara",SULAWESI UTARA,,Indonesia,,,,5.5560786,126.5850946,https://maps.google.com/?cid=0x0:0x412675778b0a52d5,
hardware store,Toko Bahan Bangunan,Toko Queen,"WMQW+6VM, Lirung Satu, Lirung, Kabupaten Kepulauan Talaud, Sulawesi Utara","Kabupaten Kepulauan Talaud, Sulawesi Utara",SULAWESI UTARA,,Indonesia,82337303807.0,,,3.938083,126.6971653,https://maps.google.com/?cid=0x0:0xec383bb1f9926775,
hardware store,Toko Bahan Bangunan,Toko Abadi Jaya Lirung,"WMQW+7R2, Lirung Satu, Lirung, Kabupaten Kepulauan Talaud, Sulawesi Utara","Kabupaten Kepulauan Talaud, Sulawesi Utara",SULAWESI UTARA,,Indonesia,,,,3.9381419,126.6970279,https://maps.google.com/?cid=0x0:0xa82a2430db113718,
hardware store,Butik,Barang Baru,"Cipondoh, Perumahan Taman Royal 1, Komplek Ruko Pinus Niaga Center No. 18, RT.004/RW.016, Tanah Tinggi, Kec. Tangerang, Kota Tangerang, Banten 15141","Perumahan Taman Royal 1, Komplek Ruko Pinus Niaga Center No. 18, RT.004/RW.016, Tanah Tinggi, Kec. Tangerang, Kota Tangerang",SULAWESI UTARA,15141.0,Indonesia,2155701881.0,,,-6.1809157,106.6607922,https://maps.google.com/?cid=0x0:0x408383690d889dab,
hardware store,Toko,Toko GRAND HARDWARE,"CXJH+22P, Sarongsong I, Kec. Airmadidi, Kabupaten Minahasa Utara, Sulawesi Utara","Kabupaten Minahasa Utara, Sulawesi Utara",SULAWESI UTARA,,Indonesia,,,,1.4300932,124.9775741,https://maps.google.com/?cid=0x0:0xd5bea6e4e94329b1,
hardware store,Toko Swalayan,Toko Grand,"CXFH+RV4, Pasar, Airmadidi Atas, Kec. Airmadidi, Manado, Sulawesi Utara 95371","Pasar, Airmadidi Atas, Kec. Airmadidi, Manado",SULAWESI UTARA,95371.0,Indonesia,81617151289.0,,,1.4245104,124.9797052,https://maps.google.com/?cid=0x0:0x817a9599f52c4d18,
hardware store,Toko Bahan Bangunan,Tkuna Hardware,"21200 Kuala Terengganu, Trengganu, Malaysia",Kuala Terengganu,SULAWESI UTARA,21200.0,Indonesia,,,,5.3469894,103.1032629,https://maps.google.com/?cid=0x0:0xfea324fa72e0378f,
hardware store,Toko Kelontong Asia,WIDI KLONTONG,"Jl. Lengkong Wuaya, Perkamil, Kec. Paal Dua, Kota Manado, Sulawesi Utara","Kota Manado, Sulawesi Utara",SULAWESI UTARA,,Indonesia,,,,1.4773596,124.8821893,https://maps.google.com/?cid=0x0:0x1715b42a39d75562,
hardware store,Toko Perlengkapan Rumah,Toko Bintang Terang,"Jl. Manguni Raya No.37, Perkamil, Kec. Paal Dua, Kota Manado, Sulawesi Utara","Kota Manado, Sulawesi Utara",SULAWESI UTARA,,Indonesia,4318803834.0,,,1.4743734,124.8730433,https://maps.google.com/?cid=0x0:0x3ffd3481f2a4c651,
hardware store,Toko,Toko GRAND HARDWARE,"CXJH+22P, Sarongsong I, Kec. Airmadidi, Kabupaten Minahasa Utara, Sulawesi Utara","Kabupaten Minahasa Utara, Sulawesi Utara",SULAWESI UTARA,,Indonesia,,,,1.4300932,124.9775741,https://maps.google.com/?cid=0x0:0xd5bea6e4e94329b1,
hardware store,Toko Komputer,"Sumber Unggul Mandiri, PT","Komp.Ruko Agung Sedayu (Harco Elektronik Mangga Dua)Blok M/34, RT.17/RW.11, Mangga Dua Sel., Kecamatan Sawah Besar, Kota Jakarta Pusat, Daerah Khusus Ibukota Jakarta 10730","RT.17/RW.11, Mangga Dua Sel., Kecamatan Sawah Besar, Kota Jakarta Pusat",SULAWESI UTARA,10730.0,Indonesia,85179817938.0,,,-6.1381124,106.8294033,https://maps.google.com/?cid=0x0:0xdcb7d56ed2d76834,
hardware store,Toko Elektronik,Harco Mangga Dua Plaza Pusat Elektronika,"Harco Mangga Dua Plaza, Blk. A Dekat Eskalator No.126 Lantai 3, RT.17/RW.11, Mangga Dua Sel., Kecamatan Sawah Besar, Kota Jakarta Pusat, Daerah Khusus Ibukota Jakarta 10730","Blk. A Dekat Eskalator No.126 Lantai 3, RT.17/RW.11, Mangga Dua Sel., Kecamatan Sawah Besar, Kota Jakarta Pusat",SULAWESI UTARA,10730.0,Indonesia,83898767434.0,,,-6.1366913,106.8303035,https://maps.google.com/?cid=0x0:0xfbcf713d3bb19f0d,
hardware store,Toko Elektronik,Tokobaru Mangga Dua Mall,"Ruko, Jl. Mangga Dua Mal Jl. Mangga Dua Raya No.5, RT.1/RW.12, Mangga Dua Sel., Kecamatan Sawah Besar, Kota Jakarta Pusat, Daerah Khusus Ibukota Jakarta 10730","Jl. Mangga Dua Mal Jl. Mangga Dua Raya No.5, RT.1/RW.12, Mangga Dua Sel., Kecamatan Sawah Besar, Kota Jakarta Pusat",SULAWESI UTARA,10730.0,Indonesia,85179817938.0,,,-6.1367388,106.8245142,https://maps.google.com/?cid=0x0:0xcb0dcd8bc9bda142,
hardware store,Toko Elektronik,Harco Mangga Dua,"Jl. Mangga Dua Raya, RW.11, Mangga Dua Sel., Kecamatan Sawah Besar, Kota Jakarta Pusat, Daerah Khusus Ibukota Jakarta 10730","RW.11, Mangga Dua Sel., Kecamatan Sawah Besar, Kota Jakarta Pusat",SULAWESI UTARA,10730.0,Indonesia,216129329.0,,,-6.1390038,106.8284066,https://maps.google.com/?cid=0x0:0x964c8d2f2bdf3b08,
hardware store,Toko Komputer,Jaya Baru Computer,"Harco Mangga Dua Plaza, Jalan Arteri Jl. Mangga Dua Raya No.17 Lantai 3, RT.17/RW.11, Mangga Dua Sel., Kecamatan Sawah Besar, Kota Jakarta Pusat, Daerah Khusus Ibukota Jakarta 10730","Jalan Arteri Jl. Mangga Dua Raya No.17 Lantai 3, RT.17/RW.11, Mangga Dua Sel., Kecamatan Sawah Besar, Kota Jakarta Pusat",SULAWESI UTARA,10730.0,Indonesia,2162304505.0,,,-6.138806,106.8280636,https://maps.google.com/?cid=0x0:0xcbe077515b5a5813,
hardware store,Toko Perlengkapan Rumah,R Hardware,"QVJP+GRC, Jl. Cipinang Jaya Raya, RT.8/RW.7, Cipinang Besar Sel., Kecamatan Jatinegara, Kota Jakarta Timur, Daerah Khusus Ibukota Jakarta 13470","Jl. Cipinang Jaya Raya, RT.8/RW.7, Cipinang Besar Sel., Kecamatan Jatinegara, Kota Jakarta Timur",SULAWESI UTARA,13470.0,Indonesia,2122896476.0,,,-6.2186862,106.8870233,https://maps.google.com/?cid=0x0:0xd4507280dfe2daab,
hardware store,Toko Alat-Alat,R Hardware,"Jalan Buaran Raya No.14, Klender, Duren Sawit, RT.8/RW.15, Duren Sawit, Kec. Duren Sawit, Kota Jakarta Timur, Daerah Khusus Ibukota Jakarta 13470","Klender, Duren Sawit, RT.8/RW.15, Duren Sawit, Kec. Duren Sawit, Kota Jakarta Timur",SULAWESI UTARA,13470.0,Indonesia,2186617280.0,,,-6.2206585,106.921238,https://maps.google.com/?cid=0x0:0x2eb6bbca842d3c29,
hardware store,Toko Bahan Bangunan,Toko Queen,"WMQW+6VM, Lirung Satu, Lirung, Kabupaten Kepulauan Talaud, Sulawesi Utara","Kabupaten Kepulauan Talaud, Sulawesi Utara",SULAWESI UTARA,,Indonesia,82337303807.0,,,3.938083,126.6971653,https://maps.google.com/?cid=0x0:0xec383bb1f9926775,
hardware store,Toko Bahan Bangunan,Toko Abadi Jaya Lirung,"WMQW+7R2, Lirung Satu, Lirung, Kabupaten Kepulauan Talaud, Sulawesi Utara","Kabupaten Kepulauan Talaud, Sulawesi Utara",SULAWESI UTARA,,Indonesia,,,,3.9381419,126.6970279,https://maps.google.com/?cid=0x0:0xa82a2430db113718,
hardware store,hardware store,Pulau Salibabu,"Salibabu Utara, Salibabu, Kabupaten Kepulauan Talaud, Sulawesi Utara","Kabupaten Kepulauan Talaud, Sulawesi Utara",SULAWESI UTARA,,Indonesia,,,,3.910278,126.684722,https://maps.google.com/?cid=0x0:0xa5e62bbb7c693fe5,
hardware store,Toko Perlengkapan Rumah,Grand Hardware,"Komplek Marina Plaza Blok B No. 7-10, Jl. Piere Tendean Boulevard,manado, Manado, Sulawesi Utara, 95111","Jl. Piere Tendean Boulevard,manado, Manado",SULAWESI UTARA,95111.0,Indonesia,85255443510.0,,,1.4924543,124.838346,https://maps.google.com/?cid=0x0:0x513c63d19209ca5,
hardware store,Toko Bahan Bangunan,GranD Prima Manado,"Kompleks MonacoBay, Jl. Piere Tendean No.1 Blok A, Kota Manado, Sulawesi Utara 95111","Jl. Piere Tendean No.1 Blok A, Kota Manado",SULAWESI UTARA,95111.0,Indonesia,81244158352.0,,,1.487165,124.836687,https://maps.google.com/?cid=0x0:0x7138f00ecfef2196,
hardware store,hardware store,Kec. Tampa Na'mma,"Kabupaten Kepulauan Talaud, Sulawesi Utara","Kabupaten Kepulauan Talaud, Sulawesi Utara",SULAWESI UTARA,,Indonesia,,,,4.3643806,126.8527997,https://maps.google.com/?cid=0x0:0xaa0bfff86571a14c,
home improvement,home improvement,Sulawesi Utara,,Sulawesi Utara,SULAWESI UTARA,,Indonesia,,,,0.6246932,123.9750018,https://maps.google.com/?cid=0x0:0x45891617980cb835,
home improvement,home improvement,Kec. Beo Sel.,"Kabupaten Kepulauan Talaud, Sulawesi Utara","Kabupaten Kepulauan Talaud, Sulawesi Utara",SULAWESI UTARA,,Indonesia,,,,4.1825062,126.7711774,https://maps.google.com/?cid=0x0:0x7fdc62b4f90caf2d,
home improvement,home improvement,Beo Utara,"Kabupaten Kepulauan Talaud, Sulawesi Utara","Kabupaten Kepulauan Talaud, Sulawesi Utara",SULAWESI UTARA,,Indonesia,,,,4.3090871,126.7604027,https://maps.google.com/?cid=0x0:0x5f65587e5b3ae940,
home improvement,home improvement,Kec. Damau,"Kabupaten Kepulauan Talaud, Sulawesi Utara","Kabupaten Kepulauan Talaud, Sulawesi Utara",SULAWESI UTARA,,Indonesia,,,,3.7861379,126.8370164,https://maps.google.com/?cid=0x0:0x923c91966523787a,
home improvement,home improvement,Gemeh,"Gemeh, Kec. Gemeh, Kabupaten Kepulauan Talaud, Sulawesi Utara","Kabupaten Kepulauan Talaud, Sulawesi Utara",SULAWESI UTARA,,Indonesia,,,,4.499708,126.815887,https://maps.google.com/?cid=0x0:0x35054efa0974ac1f,
home improvement,home improvement,Kec. Tebet,"Kota Jakarta Selatan, Daerah Khusus Ibukota Jakarta","Kota Jakarta Selatan, Daerah Khusus Ibukota Jakarta",SULAWESI UTARA,,Indonesia,,,,-6.2251223,106.8549881,https://maps.google.com/?cid=0x0:0xd575e31c807295f9,
home improvement,home improvement,Kec. Essang,"Kabupaten Kepulauan Talaud, Sulawesi Utara","Kabupaten Kepulauan Talaud, Sulawesi Utara",SULAWESI UTARA,,Indonesia,,,,4.4565269,126.730993,https://maps.google.com/?cid=0x0:0x7405c1afd2f8476e,
home improvement,home improvement,Kec. Essang Sel.,"Kabupaten Kepulauan Talaud, Sulawesi Utara","Kabupaten Kepulauan Talaud, Sulawesi Utara",SULAWESI UTARA,,Indonesia,,,,4.4248507,126.7095716,https://maps.google.com/?cid=0x0:0x109f9417f7325f46,
home improvement,Rumah Kayu,Mey Home,"FP5J+WQ5, Kompleks Apel, Essang, Kec. Essang, Kabupaten Kepulauan Talaud, Sulawesi Utara","Kabupaten Kepulauan Talaud, Sulawesi Utara",SULAWESI UTARA,,Indonesia,,,,4.4597503,126.7319787,https://maps.google.com/?cid=0x0:0x6e108a227e4137a,
home improvement,Vila,Home ekel mene,"9M5R+C8M, Sambuara Utara, Kec. Essang Sel., Kabupaten Kepulauan Talaud, Sulawesi Utara","Kabupaten Kepulauan Talaud, Sulawesi Utara",SULAWESI UTARA,,Indonesia,,,,4.3585999,126.690784,https://maps.google.com/?cid=0x0:0x3851684207a71a36,
home improvement,home improvement,Kec. Kabaruan,"Kabupaten Kepulauan Talaud, Sulawesi Utara","Kabupaten Kepulauan Talaud, Sulawesi Utara",SULAWESI UTARA,,Indonesia,,,,3.8385519,126.7852295,https://maps.google.com/?cid=0x0:0x8c347d9cb11e4ad5,
home improvement,home improvement,Kalongan,"Kabupaten Kepulauan Talaud, Sulawesi Utara","Kabupaten Kepulauan Talaud, Sulawesi Utara",SULAWESI UTARA,,Indonesia,,,,4.0179493,126.6363811,https://maps.google.com/?cid=0x0:0x3b091707f1e05384,
home improvement,home improvement,Kalongan,"Kalongan, Kabupaten Kepulauan Talaud, Sulawesi Utara","Kabupaten Kepulauan Talaud, Sulawesi Utara",SULAWESI UTARA,,Indonesia,,,,4.0352503,126.6255869,https://maps.google.com/?cid=0x0:0x7f63dc8d1cf266c0,
home improvement,Desainer Interior,Wall Decor Home,"perum puri delta asri 5, Jl. Akasia II No.14 blok B, Gn. Pabongan, Kalongan, Kec. Ungaran Tim., Kabupaten Semarang, Jawa Tengah 50519","Jl. Akasia II No.14 blok B, Gn. Pabongan, Kalongan, Kec. Ungaran Tim., Kabupaten Semarang",SULAWESI UTARA,50519.0,Indonesia,816717641.0,,,-7.143192,110.4327452,https://maps.google.com/?cid=0x0:0x7ae5d6dc47e6d6d8,
home improvement,home improvement,Lirung,"Kabupaten Kepulauan Talaud, Sulawesi Utara","Kabupaten Kepulauan Talaud, Sulawesi Utara",SULAWESI UTARA,,Indonesia,,,,3.9572072,126.6795425,https://maps.google.com/?cid=0x0:0x210eac5f2d6150d0,
home improvement,Rumah wisata,Roni Home,"WMPX+QFW, Lirung Satu, Lirung, Kabupaten Kepulauan Talaud, Sulawesi Utara","Kabupaten Kepulauan Talaud, Sulawesi Utara",SULAWESI UTARA,,Indonesia,,,,3.9368705,126.6986872,https://maps.google.com/?cid=0x0:0x53b1ea8fad2f2be3,
home improvement,Toko Bahan Bangunan,Toko Abadi Jaya Lirung,"WMQW+7R2, Lirung Satu, Lirung, Kabupaten Kepulauan Talaud, Sulawesi Utara","Kabupaten Kepulauan Talaud, Sulawesi Utara",SULAWESI UTARA,,Indonesia,,,,3.9381419,126.6970279,https://maps.google.com/?cid=0x0:0xa82a2430db113718,
home improvement,Gedung Apartemen,GeJe interior,"2M7G+27, Melonguane Bar., Kabupaten Kepulauan Talaud, Sulawesi Utara","Kabupaten Kepulauan Talaud, Sulawesi Utara",SULAWESI UTARA,,Indonesia,82292666692.0,,,4.0126089,126.6757324,https://maps.google.com/?cid=0x0:0x37f7a4921f1beab,
home improvement,Komplek perumahan,Gloria home,"4P4J+H4Q, Niampak, Kec. Beo Sel., Kabupaten Kepulauan Talaud, Sulawesi Utara","Kabupaten Kepulauan Talaud, Sulawesi Utara",SULAWESI UTARA,,Indonesia,,,,4.1064605,126.730357,https://maps.google.com/?cid=0x0:0x4af74c3dff5764a2,
home improvement,Gedung Apartemen,GeJe interior,"2M7G+27, Melonguane Bar., Kabupaten Kepulauan Talaud, Sulawesi Utara","Kabupaten Kepulauan Talaud, Sulawesi Utara",SULAWESI UTARA,,Indonesia,82292666692.0,,,4.0126089,126.6757324,https://maps.google.com/?cid=0x0:0x37f7a4921f1beab,
home improvement,Komplek perumahan,Gloria home,"4P4J+H4Q, Niampak, Kec. Beo Sel., Kabupaten Kepulauan Talaud, Sulawesi Utara","Kabupaten Kepulauan Talaud, Sulawesi Utara",SULAWESI UTARA,,Indonesia,,,,4.1064605,126.730357,https://maps.google.com/?cid=0x0:0x4af74c3dff5764a2,
home improvement,home improvement,Kec. Melonguane,"Kabupaten Kepulauan Talaud, Sulawesi Utara","Kabupaten Kepulauan Talaud, Sulawesi Utara",SULAWESI UTARA,,Indonesia,,,,4.0732215,126.6898783,https://maps.google.com/?cid=0x0:0xcefc20000c591b01,
home improvement,Gedung Apartemen,GeJe interior,"2M7G+27, Melonguane Bar., Kabupaten Kepulauan Talaud, Sulawesi Utara","Kabupaten Kepulauan Talaud, Sulawesi Utara",SULAWESI UTARA,,Indonesia,82292666692.0,,,4.0126089,126.6757324,https://maps.google.com/?cid=0x0:0x37f7a4921f1beab,
home improvement,Komplek perumahan,Gloria home,"4P4J+H4Q, Niampak, Kec. Beo Sel., Kabupaten Kepulauan Talaud, Sulawesi Utara","Kabupaten Kepulauan Talaud, Sulawesi Utara",SULAWESI UTARA,,Indonesia,,,,4.1064605,126.730357,https://maps.google.com/?cid=0x0:0x4af74c3dff5764a2,
home improvement,home improvement,Melonguane Tim.,"Kabupaten Kepulauan Talaud, Sulawesi Utara","Kabupaten Kepulauan Talaud, Sulawesi Utara",SULAWESI UTARA,,Indonesia,,,,4.0485353,126.7711774,https://maps.google.com/?cid=0x0:0xd6ab634a93c1c28d,
home improvement,home improvement,Pulau Miangas,"Miangas, Kabupaten Kepulauan Talaud, Sulawesi Utara","Kabupaten Kepulauan Talaud, Sulawesi Utara",SULAWESI UTARA,,Indonesia,,,,5.5560786,126.5850946,https://maps.google.com/?cid=0x0:0x412675778b0a52d5,
home improvement,home improvement,Kec. Moronge,"Kabupaten Kepulauan Talaud, Sulawesi Utara","Kabupaten Kepulauan Talaud, Sulawesi Utara",SULAWESI UTARA,,Indonesia,,,,3.9005667,126.7183239,https://maps.google.com/?cid=0x0:0x80a05ef21717a396,
home improvement,home improvement,Moronge,"Kec. Moronge, Kabupaten Kepulauan Talaud, Sulawesi Utara","Kabupaten Kepulauan Talaud, Sulawesi Utara",SULAWESI UTARA,,Indonesia,,,,3.9305122,126.7118971,https://maps.google.com/?cid=0x0:0x5d8b18fec0d1b37f,
home improvement,home improvement,Kec. Nanusa,"Kabupaten Kepulauan Talaud, Sulawesi Utara","Kabupaten Kepulauan Talaud, Sulawesi Utara",SULAWESI UTARA,,Indonesia,,,,4.7677023,127.1365803,https://maps.google.com/?cid=0x0:0x9befc8beadc94d3,
home improvement,home improvement,Kec. Pulutan,"Kabupaten Kepulauan Talaud, Sulawesi Utara","Kabupaten Kepulauan Talaud, Sulawesi Utara",SULAWESI UTARA,,Indonesia,,,,4.1450999,126.7951954,https://maps.google.com/?cid=0x0:0x9937d9b348ccafdf,
home improvement,home improvement,Pulutan,"Kec. Remboken, Kabupaten Minahasa, Sulawesi Utara","Kabupaten Minahasa, Sulawesi Utara",SULAWESI UTARA,,Indonesia,,,,1.2146128,124.837581,https://maps.google.com/?cid=0x0:0x81030811b427ef9f,
home improvement,home improvement,Rainis,"Kec. Rainis, Kabupaten Kepulauan Talaud, Sulawesi Utara","Kabupaten Kepulauan Talaud, Sulawesi Utara",SULAWESI UTARA,,Indonesia,,,,4.2328323,126.8667341,https://maps.google.com/?cid=0x0:0x3c14284c585648f3,
home improvement,home improvement,Salibabu,"Kabupaten Kepulauan Talaud, Sulawesi Utara","Kabupaten Kepulauan Talaud, Sulawesi Utara",SULAWESI UTARA,,Indonesia,,,,3.9026876,126.6849359,https://maps.google.com/?cid=0x0:0x5c5d08892b729657,
home improvement,home improvement,Kec. Tampa Na'mma,"Kabupaten Kepulauan Talaud, Sulawesi Utara","Kabupaten Kepulauan Talaud, Sulawesi Utara",SULAWESI UTARA,,Indonesia,,,,4.3643806,126.8527997,https://maps.google.com/?cid=0x0:0xaa0bfff86571a14c,
