Category,Real Category,Business Name,Address,City,State,Postal Code,Country,Phone,Email,Website,Latitude,Longitude,Map Link,Details Link
mall,mall,Sulawesi Utara,,Sulawesi Utara,SULAWESI UTARA,,Indonesia,,,,0.6246932,123.9750018,https://maps.google.com/?cid=0x0:0x45891617980cb835,
mall,Pusat Perbelanjaan,Manado Town Square,"Jl. Piere Tendean, Kota Manado, Sulawesi Utara 95114",Kota Manado,SULAWESI UTARA,95114.0,Indonesia,,,,1.4723227,124.8319485,https://maps.google.com/?cid=0x0:0xea03227619d4f862,
mall,Otoritas Pelabuhan,Pelabuhan Beo,"6QHQ+MP4, Kec. Beo, Kabupaten Kepulauan Talaud, Sulawesi Utara","Kabupaten Kepulauan Talaud, Sulawesi Utara",SULAWESI UTARA,,Indonesia,82394758678.0,,,4.2291306,126.7893367,https://maps.google.com/?cid=0x0:0x7961b3418f2e2d25,
mall,Pusat Perbelanjaan,Tk victoria,"6QGR+VFW, Kec. Beo, Kabupaten Kepulauan Talaud, Sulawesi Utara","Kabupaten Kepulauan Talaud, Sulawesi Utara",SULAWESI UTARA,,Indonesia,81245013324.0,,,4.2272475,126.791214,https://maps.google.com/?cid=0x0:0x2e1360b2584caf1a,
mall,Toko bahan makanan,FREN TRADE CENTER,"6QGW+RGR, Unnamed Road, Beo Bar., Kec. Beo, Kabupaten Kepulauan Talaud, Sulawesi Utara","Kabupaten Kepulauan Talaud, Sulawesi Utara",SULAWESI UTARA,,Indonesia,,,,4.2271222,126.7962558,https://maps.google.com/?cid=0x0:0x60a79ff132ab1b17,
mall,Pusat Perbelanjaan,Tk henria beo,"6QGR+X5F, Pulau Karakelong, Sulawesi Utara",Sulawesi Utara,SULAWESI UTARA,,Indonesia,81244101080.0,,,4.2274388,126.79041,https://maps.google.com/?cid=0x0:0x92bf4a6047a4b075,
mall,Kantor Pemerintah,Polsek Beo,"Jl. Beo, Beo Bar., Talaud, Kabupaten Kepulauan Talaud, Sulawesi Utara 95881","Beo Bar., Talaud, Kabupaten Kepulauan Talaud",SULAWESI UTARA,95881.0,Indonesia,434311332.0,,,4.2252323,126.793906,https://maps.google.com/?cid=0x0:0x3707fb64073d7095,
mall,Toko,MEYRISA CELL 2,"6QHV+24R, Beo, Kec. Beo, Kabupaten Kepulauan Talaud, Sulawesi Utara","Kabupaten Kepulauan Talaud, Sulawesi Utara",SULAWESI UTARA,,Indonesia,85341970426.0,,,4.2276174,126.7927723,https://maps.google.com/?cid=0x0:0x126c7dcc3ea2decb,
mall,Minimarket,KIOS MARIMART,"5RWV+P6X, Alo Utara, Kec. Rainis, Kabupaten Kepulauan Talaud, Sulawesi Utara","Kabupaten Kepulauan Talaud, Sulawesi Utara",SULAWESI UTARA,,Indonesia,85242266568.0,,,4.1968681,126.8431172,https://maps.google.com/?cid=0x0:0xcc388ae564f373f3,
mall,Pusat Hiburan,Pantai Tambioe Beo,"6QCR+33H, Beo Tim., Kec. Beo, Kabupaten Kepulauan Talaud, Sulawesi Utara","Kabupaten Kepulauan Talaud, Sulawesi Utara",SULAWESI UTARA,,Indonesia,,,,4.2201894,126.7902242,https://maps.google.com/?cid=0x0:0x82261799fc1635dc,
mall,Gereja Protestan,Gereja Mahunena Beo,"6Q8V+C3, Beo Tim., Kec. Beo, Kabupaten Kepulauan Talaud, Sulawesi Utara","Kabupaten Kepulauan Talaud, Sulawesi Utara",SULAWESI UTARA,,Indonesia,,,,4.2161108,126.7926875,https://maps.google.com/?cid=0x0:0xe075e7ced6cc1cf2,
mall,Toko umum,"Kios EkkLesia""""","5QCV+PJP, Daran Utara, Kec. Pulutan, Kabupaten Kepulauan Talaud, Sulawesi Utara","Kabupaten Kepulauan Talaud, Sulawesi Utara",SULAWESI UTARA,,Indonesia,,,,4.1718308,126.7940684,https://maps.google.com/?cid=0x0:0x5912b52e2bab6cb8,
mall,Pusat Perbelanjaan,Mall Of Indonesia,"Jl. Boulevard Bar. Raya No.12, RT.18/RW.19, Klp. Gading Bar., Kec. Klp. Gading, Jkt Utara, Daerah Khusus Ibukota Jakarta 14240","RT.18/RW.19, Klp. Gading Bar., Kec. Klp. Gading, Jkt Utara",SULAWESI UTARA,14240.0,Indonesia,2145867888.0,,,-6.1514549,106.8918949,https://maps.google.com/?cid=0x0:0x3431c7aaadd1f1b6,
mall,Pusat Perbelanjaan,Pacific Place Mall,"Jl. Jend. Sudirman kav 52-53, Senayan, Kec. Kby. Baru, Kota Jakarta Selatan, Daerah Khusus Ibukota Jakarta 12190","Senayan, Kec. Kby. Baru, Kota Jakarta Selatan",SULAWESI UTARA,12190.0,Indonesia,2151402828.0,,,-6.2240197,106.8101858,https://maps.google.com/?cid=0x0:0xc4a608b34b5f03cc,
mall,Pusat Perbelanjaan,Plaza Indonesia,"Jl. M.H. Thamrin No.Kav.28-30, Gondangdia, Kec. Menteng, Kota Jakarta Pusat, Daerah Khusus Ibukota Jakarta 10350","Gondangdia, Kec. Menteng, Kota Jakarta Pusat",SULAWESI UTARA,10350.0,Indonesia,2129920000.0,,,-6.1935977,106.8219468,https://maps.google.com/?cid=0x0:0x7d7fe17ad64a053f,
mall,Pusat Perbelanjaan,PIK Avenue,"Jl. Pantai Indah Kapuk Boulevard, RT.6/RW.2, Kamal Muara, Kec. Penjaringan, Jkt Utara, Daerah Khusus Ibukota Jakarta 14470","RT.6/RW.2, Kamal Muara, Kec. Penjaringan, Jkt Utara",SULAWESI UTARA,14470.0,Indonesia,2122570999.0,,,-6.1088281,106.74021,https://maps.google.com/?cid=0x0:0xa57ef5bb9b685927,
mall,mall,Pasar jl beo,"Jl. Beo No.21 5, RT.8/RW.2, Bukit Duri, Kec. Tebet, Kota Jakarta Selatan, Daerah Khusus Ibukota Jakarta 12840","RT.8/RW.2, Bukit Duri, Kec. Tebet, Kota Jakarta Selatan",SULAWESI UTARA,12840.0,Indonesia,,,,-6.2183954,106.8538806,https://maps.google.com/?cid=0x0:0x64163ed07469019b,
mall,mall,Kec. Beo Sel.,"Kabupaten Kepulauan Talaud, Sulawesi Utara","Kabupaten Kepulauan Talaud, Sulawesi Utara",SULAWESI UTARA,,Indonesia,,,,4.1825062,126.7711774,https://maps.google.com/?cid=0x0:0x7fdc62b4f90caf2d,
mall,Pusat Perbelanjaan,Megamall Manado,"Kawasan Megamas, Kantor Pengelola Megamall, Jl. Piere Tendean, Wenang Sel., Kec. Wenang, Kota Manado, Sulawesi Utara 95234","Kantor Pengelola Megamall, Jl. Piere Tendean, Wenang Sel., Kec. Wenang, Kota Manado",SULAWESI UTARA,95234.0,Indonesia,431879889.0,,,1.4839687,124.8348372,https://maps.google.com/?cid=0x0:0xfcc9b9fa2283700,
mall,Toko umum,"Kios EkkLesia""""","5QCV+PJP, Daran Utara, Kec. Pulutan, Kabupaten Kepulauan Talaud, Sulawesi Utara","Kabupaten Kepulauan Talaud, Sulawesi Utara",SULAWESI UTARA,,Indonesia,,,,4.1718308,126.7940684,https://maps.google.com/?cid=0x0:0x5912b52e2bab6cb8,
mall,mall,Beo Utara,"Kabupaten Kepulauan Talaud, Sulawesi Utara","Kabupaten Kepulauan Talaud, Sulawesi Utara",SULAWESI UTARA,,Indonesia,,,,4.3090871,126.7604027,https://maps.google.com/?cid=0x0:0x5f65587e5b3ae940,
mall,Pusat Perbelanjaan,Tk victoria,"6QGR+VFW, Kec. Beo, Kabupaten Kepulauan Talaud, Sulawesi Utara","Kabupaten Kepulauan Talaud, Sulawesi Utara",SULAWESI UTARA,,Indonesia,81245013324.0,,,4.2272475,126.791214,https://maps.google.com/?cid=0x0:0x2e1360b2584caf1a,
mall,Toko bahan makanan,FREN TRADE CENTER,"6QGW+RGR, Unnamed Road, Beo Bar., Kec. Beo, Kabupaten Kepulauan Talaud, Sulawesi Utara","Kabupaten Kepulauan Talaud, Sulawesi Utara",SULAWESI UTARA,,Indonesia,,,,4.2271222,126.7962558,https://maps.google.com/?cid=0x0:0x60a79ff132ab1b17,
mall,Toko,MEYRISA CELL 2,"6QHV+24R, Beo, Kec. Beo, Kabupaten Kepulauan Talaud, Sulawesi Utara","Kabupaten Kepulauan Talaud, Sulawesi Utara",SULAWESI UTARA,,Indonesia,85341970426.0,,,4.2276174,126.7927723,https://maps.google.com/?cid=0x0:0x126c7dcc3ea2decb,
mall,Pusat Perbelanjaan,Megamall Manado,"Kawasan Megamas, Kantor Pengelola Megamall, Jl. Piere Tendean, Wenang Sel., Kec. Wenang, Kota Manado, Sulawesi Utara 95234","Kantor Pengelola Megamall, Jl. Piere Tendean, Wenang Sel., Kec. Wenang, Kota Manado",SULAWESI UTARA,95234.0,Indonesia,431879889.0,,,1.4839687,124.8348372,https://maps.google.com/?cid=0x0:0xfcc9b9fa2283700,
mall,Pembangunan Perumahan,Bahu Mall,"FR6G+W4J, Bahu Mall, R.W., Jl. Wolter Monginsidi, Bahu, Malalayang, Manado City, North Sulawesi","Kota Manado, Sulawesi Utara",SULAWESI UTARA,,Indonesia,1500125.0,,,1.4623338,124.8252763,https://maps.google.com/?cid=0x0:0x75b15af9becce842,
mall,Pusat Perbelanjaan,Tk henria beo,"6QGR+X5F, Pulau Karakelong, Sulawesi Utara",Sulawesi Utara,SULAWESI UTARA,,Indonesia,81244101080.0,,,4.2274388,126.79041,https://maps.google.com/?cid=0x0:0x92bf4a6047a4b075,
mall,Minimarket,Mitra Buka Lapak WiFi Almater,"9V72+5VH, Riung, Kec. Tampa Na'mma, Kabupaten Kepulauan Talaud, Sulawesi Utara","Kabupaten Kepulauan Talaud, Sulawesi Utara",SULAWESI UTARA,,Indonesia,,,,4.3629346,126.8522274,https://maps.google.com/?cid=0x0:0x5b2ea73fe145afaf,
mall,Pusat Perbelanjaan,Manado Town Square,"Jl. Piere Tendean, Kota Manado, Sulawesi Utara 95114",Kota Manado,SULAWESI UTARA,95114.0,Indonesia,,,,1.4723227,124.8319485,https://maps.google.com/?cid=0x0:0xea03227619d4f862,
mall,mall,Toko krista,"7PC8+WCV, Lobbo, Beo Utara, Sulawesi Utara 95881","Lobbo, Beo Utara",SULAWESI UTARA,95881.0,Indonesia,81297898235.0,,,4.2723683,126.7160356,https://maps.google.com/?cid=0x0:0x20f991d4fabd857a,
mall,mall,Yoland,"9MFR+P37, Kec. Essang Sel., Kabupaten Kepulauan Talaud, Sulawesi Utara","Kabupaten Kepulauan Talaud, Sulawesi Utara",SULAWESI UTARA,,Indonesia,,,,4.373923,126.6905648,https://maps.google.com/?cid=0x0:0xf2db077cf3ecb5af,
mall,Otoritas Pelabuhan,Pelabuhan Beo,"6QHQ+MP4, Kec. Beo, Kabupaten Kepulauan Talaud, Sulawesi Utara","Kabupaten Kepulauan Talaud, Sulawesi Utara",SULAWESI UTARA,,Indonesia,82394758678.0,,,4.2291306,126.7893367,https://maps.google.com/?cid=0x0:0x7961b3418f2e2d25,
mall,mall,Damau,"Kec. Damau, Kabupaten Kepulauan Talaud, Sulawesi Utara","Kabupaten Kepulauan Talaud, Sulawesi Utara",SULAWESI UTARA,,Indonesia,,,,3.746066,126.832306,https://maps.google.com/?cid=0x0:0xd685ec66b976f7e8,
mall,Pusat Perbelanjaan,Manado Town Square,"Jl. Piere Tendean, Kota Manado, Sulawesi Utara 95114",Kota Manado,SULAWESI UTARA,95114.0,Indonesia,,,,1.4723227,124.8319485,https://maps.google.com/?cid=0x0:0xea03227619d4f862,
mall,mall,Pasar Damau,"PRRJ+8P2, Pasar, Damau",,SULAWESI UTARA,,Indonesia,,,,3.7407556,126.8317532,https://maps.google.com/?cid=0x0:0xa1c4733bc78f312b,
mall,mall,Gemeh,"Gemeh, Kec. Gemeh, Kabupaten Kepulauan Talaud, Sulawesi Utara","Kabupaten Kepulauan Talaud, Sulawesi Utara",SULAWESI UTARA,,Indonesia,,,,4.499708,126.815887,https://maps.google.com/?cid=0x0:0x35054efa0974ac1f,
mall,mall,Kec. Tebet,"Kota Jakarta Selatan, Daerah Khusus Ibukota Jakarta","Kota Jakarta Selatan, Daerah Khusus Ibukota Jakarta",SULAWESI UTARA,,Indonesia,,,,-6.2251223,106.8549881,https://maps.google.com/?cid=0x0:0xd575e31c807295f9,
mall,mall,Kec. Essang,"Kabupaten Kepulauan Talaud, Sulawesi Utara","Kabupaten Kepulauan Talaud, Sulawesi Utara",SULAWESI UTARA,,Indonesia,,,,4.4565269,126.730993,https://maps.google.com/?cid=0x0:0x7405c1afd2f8476e,
mall,Pembangunan Perumahan,Bahu Mall,"FR6G+W4J, Bahu Mall, R.W., Jl. Wolter Monginsidi, Bahu, Malalayang, Manado City, North Sulawesi","Kota Manado, Sulawesi Utara",SULAWESI UTARA,,Indonesia,1500125.0,,,1.4623338,124.8252763,https://maps.google.com/?cid=0x0:0x75b15af9becce842,
mall,mall,Desa Essang,"FP4J+834, Essang Sel., Kec. Essang, Kabupaten Kepulauan Talaud, Sulawesi Utara","Kabupaten Kepulauan Talaud, Sulawesi Utara",SULAWESI UTARA,,Indonesia,,,,4.4557514,126.7302081,https://maps.google.com/?cid=0x0:0xfd2b119c6edb1270,
mall,Sekolah Dasar,SDN Inpres Essang,"FP5M+346, Essang, Kec. Essang, Kabupaten Kepulauan Talaud, Sulawesi Utara","Kabupaten Kepulauan Talaud, Sulawesi Utara",SULAWESI UTARA,,Indonesia,85256900168.0,,,4.4576695,126.732768,https://maps.google.com/?cid=0x0:0xb75528ca7fb0d877,
mall,Pusat Perbelanjaan,Lotte Shopping Avenue Mall,"Jl. Prof. DR. Satrio No.Kav.3, RW.5, Kuningan, Karet Kuningan, Kecamatan Setiabudi, Kota Jakarta Selatan, Daerah Khusus Ibukota Jakarta 12940","RW.5, Kuningan, Karet Kuningan, Kecamatan Setiabudi, Kota Jakarta Selatan",SULAWESI UTARA,12940.0,Indonesia,2129889292.0,,,-6.2233644,106.8232981,https://maps.google.com/?cid=0x0:0xe8323175da8b9770,
mall,Pusat Perbelanjaan,Mall Plaza Senayan,"Jl. Asia Afrika No.8, RT.1/RW.3, Gelora, Kecamatan Tanah Abang, Kota Jakarta Pusat, Daerah Khusus Ibukota Jakarta 10270","RT.1/RW.3, Gelora, Kecamatan Tanah Abang, Kota Jakarta Pusat",SULAWESI UTARA,10270.0,Indonesia,215725555.0,,,-6.2255918,106.7993027,https://maps.google.com/?cid=0x0:0x788e3a1eef75ac94,
mall,Pusat Perbelanjaan,ASHTA District 8,"Jl. Senopati No.83, Senayan, Kec. Kby. Baru, Kota Jakarta Selatan, Daerah Khusus Ibukota Jakarta 12190","Senayan, Kec. Kby. Baru, Kota Jakarta Selatan",SULAWESI UTARA,12190.0,Indonesia,2150262888.0,,,-6.229976,106.8070846,https://maps.google.com/?cid=0x0:0x1042cab307c13c5f,
mall,Toko Swalayan,AEON Mall Tanjung Barat,"Jl. Raya Tj. Barat No.163, RT.12/RW.4, Tj. Bar., Kec. Jagakarsa, Kota Jakarta Selatan, Daerah Khusus Ibukota Jakarta 12530","RT.12/RW.4, Tj. Bar., Kec. Jagakarsa, Kota Jakarta Selatan",SULAWESI UTARA,12530.0,Indonesia,2150959888.0,,,-6.3067712,106.8398711,https://maps.google.com/?cid=0x0:0x5ce799145dbf8630,
mall,Hipermarket,AEON MALL Jakarta Garden City,"Jl. Jkt Garden City Boulevard No.1, RT.8/RW.6, Cakung Tim., Kec. Cakung, Kota Jakarta Timur, Daerah Khusus Ibukota Jakarta 13910","RT.8/RW.6, Cakung Tim., Kec. Cakung, Kota Jakarta Timur",SULAWESI UTARA,13910.0,Indonesia,2122462525.0,,,-6.1721883,106.9522209,https://maps.google.com/?cid=0x0:0x2c473319d7d1eef6,
mall,Pusat Perbelanjaan,Central Park,"Jl. Letjen S. Parman No.Kav. 28, Tj. Duren Sel., Kec. Grogol petamburan, Kota Jakarta Barat, Daerah Khusus Ibukota Jakarta 11470","Tj. Duren Sel., Kec. Grogol petamburan, Kota Jakarta Barat",SULAWESI UTARA,11470.0,Indonesia,2156989999.0,,,-6.1771373,106.7909788,https://maps.google.com/?cid=0x0:0xe816d65037c3207a,
mall,mall,Yoland,"9MFR+P37, Kec. Essang Sel., Kabupaten Kepulauan Talaud, Sulawesi Utara","Kabupaten Kepulauan Talaud, Sulawesi Utara",SULAWESI UTARA,,Indonesia,,,,4.373923,126.6905648,https://maps.google.com/?cid=0x0:0xf2db077cf3ecb5af,
mall,Toko Swalayan,AEON Mall Deltamas,"Jl. Ganesha Boulevard, Kota Deltamas, Kec. Cikarang Pusat, Kabupaten Bekasi, Jawa Barat 17530","Kota Deltamas, Kec. Cikarang Pusat, Kabupaten Bekasi",SULAWESI UTARA,17530.0,Indonesia,2138733333.0,,,-6.3519407,107.1954494,https://maps.google.com/?cid=0x0:0xa692ce22e7339115,
mall,mall,Kec. Kabaruan,"Kabupaten Kepulauan Talaud, Sulawesi Utara","Kabupaten Kepulauan Talaud, Sulawesi Utara",SULAWESI UTARA,,Indonesia,,,,3.8385519,126.7852295,https://maps.google.com/?cid=0x0:0x8c347d9cb11e4ad5,
mall,Kantor Pemerintah,Kantor Desa Kabaruan,"RQRJ+44F, Kabaruan, Kec. Kabaruan, Kabupaten Kepulauan Talaud, Sulawesi Utara","Kabupaten Kepulauan Talaud, Sulawesi Utara",SULAWESI UTARA,,Indonesia,,,,3.8403125,126.7802969,https://maps.google.com/?cid=0x0:0x8e651dcdfff44873,
mall,mall,Taduna,"RPPX+HP6, Taduna, Kec. Kabaruan, Kabupaten Kepulauan Talaud, Sulawesi Utara","Kabupaten Kepulauan Talaud, Sulawesi Utara",SULAWESI UTARA,,Indonesia,,,,3.8364206,126.7492659,https://maps.google.com/?cid=0x0:0x51b4b2b5a17c28a5,
mall,Kios,KIOS LAFATRIA,"QRPP+RCP, Akas Balane, Kec. Damau, Kabupaten Kepulauan Talaud, Sulawesi Utara","Kabupaten Kepulauan Talaud, Sulawesi Utara",SULAWESI UTARA,,Indonesia,,,,3.7873377,126.8365537,https://maps.google.com/?cid=0x0:0x339803b09f4f0015,
mall,mall,Toko Ci Mei,"RP7W+JF3, Mangaran, Kec. Kabaruan, Kabupaten Kepulauan Talaud, Sulawesi Utara","Kabupaten Kepulauan Talaud, Sulawesi Utara",SULAWESI UTARA,,Indonesia,,,,3.8140107,126.7461658,https://maps.google.com/?cid=0x0:0xc862ecffafa03608,
mall,mall,Kios gidion Pangalasen,"QQ7C+4MJ, Pangeran, Kec. Kabaruan, Kabupaten Kepulauan Talaud, Sulawesi Utara","Kabupaten Kepulauan Talaud, Sulawesi Utara",SULAWESI UTARA,,Indonesia,,,,3.7628444,126.7716308,https://maps.google.com/?cid=0x0:0xe63a188eb768b97,
mall,mall,Kios Andre Pangeran,"QQ6F+V4H, Pangeran, Kec. Kabaruan, Kabupaten Kepulauan Talaud, Sulawesi Utara","Kabupaten Kepulauan Talaud, Sulawesi Utara",SULAWESI UTARA,,Indonesia,85240381371.0,,,3.7621853,126.7728589,https://maps.google.com/?cid=0x0:0xab29e659942902ed,
mall,Pusat Perbelanjaan,Manado Town Square,"Jl. Piere Tendean, Kota Manado, Sulawesi Utara 95114",Kota Manado,SULAWESI UTARA,95114.0,Indonesia,,,,1.4723227,124.8319485,https://maps.google.com/?cid=0x0:0xea03227619d4f862,
mall,Pusat Perbelanjaan,Megamall Manado,"Kawasan Megamas, Kantor Pengelola Megamall, Jl. Piere Tendean, Wenang Sel., Kec. Wenang, Kota Manado, Sulawesi Utara 95234","Kantor Pengelola Megamall, Jl. Piere Tendean, Wenang Sel., Kec. Wenang, Kota Manado",SULAWESI UTARA,95234.0,Indonesia,431879889.0,,,1.4839687,124.8348372,https://maps.google.com/?cid=0x0:0xfcc9b9fa2283700,
mall,Pusat Perbelanjaan,Mantos 2,"FRCJ+X7P, Jl. Piere Tendean, Sario Tumpaan, Kec. Sario, Kota Manado, Sulawesi Utara","Kota Manado, Sulawesi Utara",SULAWESI UTARA,,Indonesia,,,,1.4724659,124.8307157,https://maps.google.com/?cid=0x0:0x2d13cf697092bab0,
mall,Jepang,Pepper Lunch Manado Town Square,"Manado Town Square III, Jl. Piere Tendean Lantai 2, Sario Tumpaan, Kec. Sario, Kota Manado, Sulawesi Utara","Kota Manado, Sulawesi Utara",SULAWESI UTARA,,Indonesia,4318890970.0,,,1.469866,124.8309148,https://maps.google.com/?cid=0x0:0x7b8e12fc0ae5286e,
mall,Jepang,Kimukatsu Manado Town Square,"Manado Town Square, Jl. Piere Tendean No.23  25a level 2 - SF 22, Kota Manado, Sulawesi Utara 95114","Jl. Piere Tendean No.23  25a level 2 - SF 22, Kota Manado",SULAWESI UTARA,95114.0,Indonesia,81214023621.0,,,1.4710351,124.831013,https://maps.google.com/?cid=0x0:0x2a3ba81064e7af7e,
mall,ATM,Mantos 1 XXI,"Manado Town Square, Jl. Piere Tendean Lantai 2, Sulawesi Utara","Kota Manado, Sulawesi Utara",SULAWESI UTARA,,Indonesia,4318881682.0,,,1.4721471,124.8318975,https://maps.google.com/?cid=0x0:0xde70ba2e7860bd77,
mall,mall,Kalongan,"Kabupaten Kepulauan Talaud, Sulawesi Utara","Kabupaten Kepulauan Talaud, Sulawesi Utara",SULAWESI UTARA,,Indonesia,,,,4.0179493,126.6363811,https://maps.google.com/?cid=0x0:0x3b091707f1e05384,
mall,mall,Kalongan,"Kalongan, Kabupaten Kepulauan Talaud, Sulawesi Utara","Kabupaten Kepulauan Talaud, Sulawesi Utara",SULAWESI UTARA,,Indonesia,,,,4.0352503,126.6255869,https://maps.google.com/?cid=0x0:0x7f63dc8d1cf266c0,
mall,Toko Pakaian,"Reyra Olshop  Sophie Paris Kalongan, Ungaran Timur","VC7V+FVV, Perumahan Panorama Asri, Jalan Bima, Bandungan, Kalongan, Kec. Ungaran Tim., Kabupaten Semarang, Jawa Tengah 50519","Perumahan Panorama Asri, Jalan Bima, Bandungan, Kalongan, Kec. Ungaran Tim., Kabupaten Semarang",SULAWESI UTARA,50519.0,Indonesia,85817869392.0,,,-7.1362587,110.4446714,https://maps.google.com/?cid=0x0:0x5a76af27f8862606,
mall,Tujuan Wisata,"Pasar Sawahan, Desa Kalongan","VF52+F8J, Unnamed Road, Kalongan, Kec. Ungaran Tim., Kabupaten Semarang, Jawa Tengah 50519","Unnamed Road, Kalongan, Kec. Ungaran Tim., Kabupaten Semarang",SULAWESI UTARA,50519.0,Indonesia,,,,-7.1412915,110.4507779,https://maps.google.com/?cid=0x0:0x9e4b020853113c70,
mall,Pusat Perbelanjaan,Bu Ana El Zaara,"Mendiro RT 05/07, Kalongan, Kec. Ungaran Tim., Kabupaten Semarang, Jawa Tengah 50519","Kalongan, Kec. Ungaran Tim., Kabupaten Semarang",SULAWESI UTARA,50519.0,Indonesia,,,,-7.1483949,110.4518661,https://maps.google.com/?cid=0x0:0x3a483084e3010274,
mall,Pusat Perbelanjaan,Bloundinda Bag Store,"VC4P+R36, Tim., Sigude, Kalongan, Kec. Ungaran Tim., Kabupaten Semarang, Jawa Tengah 50519","Tim., Sigude, Kalongan, Kec. Ungaran Tim., Kabupaten Semarang",SULAWESI UTARA,50519.0,Indonesia,85740092302.0,,,-7.1429536,110.435156,https://maps.google.com/?cid=0x0:0x963b4a818a3df30b,
mall,Pusat Perbelanjaan,Warung ibu kasmonah,"VC7P+6PV, Unnamed Road, Rejowinangun, Kalongan, Kec. Ungaran Tim., Kabupaten Semarang, Jawa Tengah 50519","Unnamed Road, Rejowinangun, Kalongan, Kec. Ungaran Tim., Kabupaten Semarang",SULAWESI UTARA,50519.0,Indonesia,89680511391.0,,,-7.1368848,110.4367859,https://maps.google.com/?cid=0x0:0x1fb0b30fea387e7b,
mall,Toko,kios cindy,"RCRW+P77, Jl. Mbulu Ndempul, Dempul, Kalongan, Kec. Ungaran Tim., Kabupaten Semarang, Jawa Tengah 50519","Jl. Mbulu Ndempul, Dempul, Kalongan, Kec. Ungaran Tim., Kabupaten Semarang",SULAWESI UTARA,50519.0,Indonesia,85728407996.0,,,-7.1582061,110.4456619,https://maps.google.com/?cid=0x0:0xc5e0da2747014b89,
mall,Toko bahan makanan,Galaxy patshop,"RCRG+MXM, Parakan, Beji, Kec. Ungaran Tim., Kabupaten Semarang, Jawa Tengah 50519","Parakan, Beji, Kec. Ungaran Tim., Kabupaten Semarang",SULAWESI UTARA,50519.0,Indonesia,,,,-7.1582942,110.4274366,https://maps.google.com/?cid=0x0:0xefd770fdf272f128,
mall,Pusat Perbelanjaan,Mak Joel Bawang,"Jl. Kepodang III blok D12A, Gn. Pabongan, Leyangan, Kec. Ungaran Tim., Kabupaten Semarang, Jawa Tengah 50519","Gn. Pabongan, Leyangan, Kec. Ungaran Tim., Kabupaten Semarang",SULAWESI UTARA,50519.0,Indonesia,81326466607.0,,,-7.1441215,110.4335016,https://maps.google.com/?cid=0x0:0x8fc86f4b3ca90384,
mall,Pusat Perbelanjaan,Citraland Mall Semarang,"Jl. Anggrek Raya No.23-19, Pekunden, Kec. Semarang Tengah, Kota Semarang, Jawa Tengah 50241","Pekunden, Kec. Semarang Tengah, Kota Semarang",SULAWESI UTARA,50241.0,Indonesia,,,,-6.9893916,110.4247115,https://maps.google.com/?cid=0x0:0x3188df4d5b716db5,
mall,Toko Ikan Tropis,Lotus Aquatic,"VC9X+438, Tanah Prumpung, Kalongan, Kec. Ungaran Tim., Kabupaten Semarang, Jawa Tengah 50519","Tanah Prumpung, Kalongan, Kec. Ungaran Tim., Kabupaten Semarang",SULAWESI UTARA,50519.0,Indonesia,,,,-7.132047,110.447698,https://maps.google.com/?cid=0x0:0xef07ff8ee6b281dc,
mall,Pusat Perbelanjaan,Maldinishop,"Glepuung, Kalongan, Kec. Ungaran Tim., Kabupaten Semarang, Jawa Tengah 50519","Kalongan, Kec. Ungaran Tim., Kabupaten Semarang",SULAWESI UTARA,50519.0,Indonesia,81575666421.0,,,-7.130589,110.453569,https://maps.google.com/?cid=0x0:0xdc6b960408d6061c,
mall,Toko Internet,Distributor resmi k-ion nano,"VFG4+7Q2, Tompo Gn., Kalongan, Kec. Ungaran Tim., Kabupaten Semarang, Jawa Tengah 50519","Tompo Gn., Kalongan, Kec. Ungaran Tim., Kabupaten Semarang",SULAWESI UTARA,50519.0,Indonesia,85325429092.0,,,-7.1243718,110.4568842,https://maps.google.com/?cid=0x0:0x7cad145166bdb76c,
mall,Toko Perlengkapan Rumah,ANANDA SANGKAR BURUNG kalongan ungaran timur,"ds ngaliyan 6/13, Glepuung, Kalongan, Kec. Ungaran Tim., Kabupaten Semarang, Jawa Tengah 50519","Glepuung, Kalongan, Kec. Ungaran Tim., Kabupaten Semarang",SULAWESI UTARA,50519.0,Indonesia,,,,-7.1294668,110.4531138,https://maps.google.com/?cid=0x0:0x8a3b4bc1dc8535d5,
mall,Pusat Perbelanjaan,Borneo Aloefera,"VC2J+QMG, Tim.,, Gn. Pabongan, Leyangan, Kec. Ungaran Tim., Kabupaten Semarang, Jawa Tengah 50519","Tim.,, Gn. Pabongan, Leyangan, Kec. Ungaran Tim., Kabupaten Semarang",SULAWESI UTARA,50519.0,Indonesia,81346674444.0,,,-7.14807,110.4317102,https://maps.google.com/?cid=0x0:0xf069e5411a426cb5,
mall,Toko,Zidanfa,"Perum Ungaran Baru A218 Leyangan Ungaran Timur, Gn. Pabongan, Leyangan, Kec. Ungaran Tim., Ungaran, Jawa Tengah 50519","Gn. Pabongan, Leyangan, Kec. Ungaran Tim., Ungaran",SULAWESI UTARA,50519.0,Indonesia,85773438858.0,,,-7.1487163,110.4307204,https://maps.google.com/?cid=0x0:0xa5c92051f8501b84,
mall,Toko Ponsel,ONGKi CELL,"Jl. Arjuna No.1, Kejangan, Kalongan, Kec. Ungaran Tim., Kabupaten Semarang, Jawa Tengah 50519","Kejangan, Kalongan, Kec. Ungaran Tim., Kabupaten Semarang",SULAWESI UTARA,50519.0,Indonesia,895334454525.0,,,-7.1334346,110.4500326,https://maps.google.com/?cid=0x0:0xcf815c3d38067133,
mall,Toko sembako pemerintah,SEMBAKO RESTU,"Sarwo, Kalirejo, Kec. Ungaran Tim., Kabupaten Semarang, Jawa Tengah 50515","Kalirejo, Kec. Ungaran Tim., Kabupaten Semarang",SULAWESI UTARA,50515.0,Indonesia,,,,-7.1387499,110.4292686,https://maps.google.com/?cid=0x0:0x600fcaeb2f54b29,
mall,Tujuan Wisata,Desa Wisata Kalongan,"VC8P+CWJ, Rejowinangun, Kalongan, Kec. Ungaran Tim., Kabupaten Semarang, Jawa Tengah 50519","Rejowinangun, Kalongan, Kec. Ungaran Tim., Kabupaten Semarang",SULAWESI UTARA,50519.0,Indonesia,88224125886.0,,,-7.1339231,110.43727,https://maps.google.com/?cid=0x0:0x7fedc1e3a9f2cd0,
mall,Toko umum,Naura ng-joke pulsa,"Jl. Mahoni III No.15 Blok D3, Sigude, Kalongan, Kec. Ungaran Tim., Kabupaten Semarang, Jawa Tengah 50519","Sigude, Kalongan, Kec. Ungaran Tim., Kabupaten Semarang",SULAWESI UTARA,50519.0,Indonesia,81319864873.0,,,-7.1419223,110.4342548,https://maps.google.com/?cid=0x0:0xe727b335e25eccdb,
mall,Produsen makanan,Almasalad buah,"Perun ungaran baru A151, Gn. Pabongan, Leyangan, Kec. Ungaran Tim., Kabupaten Semarang, Jawa Tengah 50519","Gn. Pabongan, Leyangan, Kec. Ungaran Tim., Kabupaten Semarang",SULAWESI UTARA,50519.0,Indonesia,81572849581.0,,,-7.1478926,110.4304706,https://maps.google.com/?cid=0x0:0x89e4a25f64cbd0be,
mall,mall,Lirung,"Kabupaten Kepulauan Talaud, Sulawesi Utara","Kabupaten Kepulauan Talaud, Sulawesi Utara",SULAWESI UTARA,,Indonesia,,,,3.9572072,126.6795425,https://maps.google.com/?cid=0x0:0x210eac5f2d6150d0,
mall,Pasar,Toko sinar baru,"Melongguane timur, Kec. Melonguane, Kabupaten Kepulauan Talaud, Sulawesi Utara 95885","Kec. Melonguane, Kabupaten Kepulauan Talaud",SULAWESI UTARA,95885.0,Indonesia,,,,3.9382204,126.6968432,https://maps.google.com/?cid=0x0:0x877638e490eb4bcb,
mall,Area Mendaki,Airco collection,"Kec. Melonguane, Kabupaten Kepulauan Talaud, Sulawesi Utara","Kabupaten Kepulauan Talaud, Sulawesi Utara",SULAWESI UTARA,,Indonesia,82292420514.0,,,3.9972409,126.6785566,https://maps.google.com/?cid=0x0:0x67a260bdb4cea44d,
mall,Toko Perlengkapan Rumah,TOKO ANUGERAH Melonguane,"XMXG+CVP, Kec. Melonguane, Kabupaten Kepulauan Talaud, Sulawesi Utara","Kabupaten Kepulauan Talaud, Sulawesi Utara",SULAWESI UTARA,,Indonesia,82191656245.0,,,3.9985813,126.6772067,https://maps.google.com/?cid=0x0:0x979ee70e6aa38e59,
mall,Supermarket Diskon,Kios Sederhana,"XMXG+FPR, Unnamed Road, Melonguane, Kabupaten Kepulauan Talaud, Sulawesi Utara","Kabupaten Kepulauan Talaud, Sulawesi Utara",SULAWESI UTARA,,Indonesia,82193276467.0,,,3.9987322,126.6767652,https://maps.google.com/?cid=0x0:0x24fafa978e8e0bd1,
mall,Pusat Perbelanjaan,Toko Dunia Anak,"XMWH+CWJ, Melonguane Tim., Kabupaten Kepulauan Talaud, Sulawesi Utara","Kabupaten Kepulauan Talaud, Sulawesi Utara",SULAWESI UTARA,,Indonesia,,,,3.996092,126.6797698,https://maps.google.com/?cid=0x0:0x92504fbba35b2054,
mall,Pusat Perbelanjaan,Lippo Plaza Manado,"Jl. A.A. Maramis, Kairagi Dua, Kec. Mapanget, Kota Manado, Sulawesi Utara","Kota Manado, Sulawesi Utara",SULAWESI UTARA,,Indonesia,4317210014.0,,,1.5010104,124.891802,https://maps.google.com/?cid=0x0:0x821ac8faa8ec92f,
mall,Pusat Perbelanjaan,Pakaian Jadi,"Melonguane Tim., Kabupaten Kepulauan Talaud, Sulawesi Utara 95885",Kabupaten Kepulauan Talaud,SULAWESI UTARA,95885.0,Indonesia,82347522222.0,,,3.9959064,126.6799551,https://maps.google.com/?cid=0x0:0x1b1883017dbf9ad5,
mall,mall,pasar baru lirung,"WMWM+C34, Lirung Matane, Lirung, Kabupaten Kepulauan Talaud, Sulawesi Utara","Kabupaten Kepulauan Talaud, Sulawesi Utara",SULAWESI UTARA,,Indonesia,,,,3.9460189,126.6827072,https://maps.google.com/?cid=0x0:0xf9b70326644970bd,
mall,mall,Toko MEDINA,"WMQX+397, Musi, Lirung Satu, Lirung, Kabupaten Kepulauan Talaud, Sulawesi Utara","Kabupaten Kepulauan Talaud, Sulawesi Utara",SULAWESI UTARA,,Indonesia,,,,3.937662,126.698407,https://maps.google.com/?cid=0x0:0x20fc8bacb08f229b,
mall,Bank,Bank SULUTGO Lirung,"WMQV+FRC, Musi, Lirung Satu, Lirung, Kabupaten Kepulauan Talaud, Sulawesi Utara","Kabupaten Kepulauan Talaud, Sulawesi Utara",SULAWESI UTARA,,Indonesia,,,,3.938689,126.6945042,https://maps.google.com/?cid=0x0:0xbaf5148e9134bec1,
mall,Toko Swalayan,Toko Sumber Rejeki,"XMWH+CQH, Melonguane Tim., Sulawesi Utara",Sulawesi Utara,SULAWESI UTARA,,Indonesia,,,,3.9960675,126.6794892,https://maps.google.com/?cid=0x0:0x26583bdcbc7fbed4,
mall,mall,Kec. Melonguane,"Kabupaten Kepulauan Talaud, Sulawesi Utara","Kabupaten Kepulauan Talaud, Sulawesi Utara",SULAWESI UTARA,,Indonesia,,,,4.0732215,126.6898783,https://maps.google.com/?cid=0x0:0xcefc20000c591b01,
mall,Toko Perlengkapan Rumah,TOKO ANUGERAH Melonguane,"XMXG+CVP, Kec. Melonguane, Kabupaten Kepulauan Talaud, Sulawesi Utara","Kabupaten Kepulauan Talaud, Sulawesi Utara",SULAWESI UTARA,,Indonesia,82191656245.0,,,3.9985813,126.6772067,https://maps.google.com/?cid=0x0:0x979ee70e6aa38e59,
mall,Pusat Perbelanjaan,Pakaian Jadi,"Melonguane Tim., Kabupaten Kepulauan Talaud, Sulawesi Utara 95885",Kabupaten Kepulauan Talaud,SULAWESI UTARA,95885.0,Indonesia,82347522222.0,,,3.9959064,126.6799551,https://maps.google.com/?cid=0x0:0x1b1883017dbf9ad5,
mall,Otoritas Pelabuhan,Bandar Udara Melonguane (MNA) Talaud,"2M4F+9W6, Kec. Melonguane, Kabupaten Kepulauan Talaud, Sulawesi Utara","Kabupaten Kepulauan Talaud, Sulawesi Utara",SULAWESI UTARA,,Indonesia,,,,4.0059174,126.6747569,https://maps.google.com/?cid=0x0:0x1dcfb1467c3fb89f,
mall,Toko Swalayan,Toko Sumber Rejeki,"XMWH+CQH, Melonguane Tim., Sulawesi Utara",Sulawesi Utara,SULAWESI UTARA,,Indonesia,,,,3.9960675,126.6794892,https://maps.google.com/?cid=0x0:0x26583bdcbc7fbed4,
mall,Pusat Perbelanjaan,Toko Dunia Anak,"XMWH+CWJ, Melonguane Tim., Kabupaten Kepulauan Talaud, Sulawesi Utara","Kabupaten Kepulauan Talaud, Sulawesi Utara",SULAWESI UTARA,,Indonesia,,,,3.996092,126.6797698,https://maps.google.com/?cid=0x0:0x92504fbba35b2054,
mall,Pasar,Toko sinar baru,"Melongguane timur, Kec. Melonguane, Kabupaten Kepulauan Talaud, Sulawesi Utara 95885","Kec. Melonguane, Kabupaten Kepulauan Talaud",SULAWESI UTARA,95885.0,Indonesia,,,,3.9382204,126.6968432,https://maps.google.com/?cid=0x0:0x877638e490eb4bcb,
mall,Supermarket Diskon,Kios Sederhana,"XMXG+FPR, Unnamed Road, Melonguane, Kabupaten Kepulauan Talaud, Sulawesi Utara","Kabupaten Kepulauan Talaud, Sulawesi Utara",SULAWESI UTARA,,Indonesia,82193276467.0,,,3.9987322,126.6767652,https://maps.google.com/?cid=0x0:0x24fafa978e8e0bd1,
mall,mall,Toko FM MELONG,"3MFQ+7XQ, Tarun, Kec. Melonguane, Kabupaten Kepulauan Talaud, Sulawesi Utara","Kabupaten Kepulauan Talaud, Sulawesi Utara",SULAWESI UTARA,,Indonesia,,,,4.073218,126.6899752,https://maps.google.com/?cid=0x0:0x6eda77a2e58c6ebb,
mall,mall,Melonguane Tim.,"Kabupaten Kepulauan Talaud, Sulawesi Utara","Kabupaten Kepulauan Talaud, Sulawesi Utara",SULAWESI UTARA,,Indonesia,,,,4.0485353,126.7711774,https://maps.google.com/?cid=0x0:0xd6ab634a93c1c28d,
mall,Pusat Perbelanjaan,Pakaian Jadi,"Melonguane Tim., Kabupaten Kepulauan Talaud, Sulawesi Utara 95885",Kabupaten Kepulauan Talaud,SULAWESI UTARA,95885.0,Indonesia,82347522222.0,,,3.9959064,126.6799551,https://maps.google.com/?cid=0x0:0x1b1883017dbf9ad5,
mall,Toko Perlengkapan Rumah,TOKO ANUGERAH Melonguane,"XMXG+CVP, Kec. Melonguane, Kabupaten Kepulauan Talaud, Sulawesi Utara","Kabupaten Kepulauan Talaud, Sulawesi Utara",SULAWESI UTARA,,Indonesia,82191656245.0,,,3.9985813,126.6772067,https://maps.google.com/?cid=0x0:0x979ee70e6aa38e59,
mall,Pusat Perbelanjaan,Toko Dunia Anak,"XMWH+CWJ, Melonguane Tim., Kabupaten Kepulauan Talaud, Sulawesi Utara","Kabupaten Kepulauan Talaud, Sulawesi Utara",SULAWESI UTARA,,Indonesia,,,,3.996092,126.6797698,https://maps.google.com/?cid=0x0:0x92504fbba35b2054,
mall,mall,Toko FM MELONG,"3MFQ+7XQ, Tarun, Kec. Melonguane, Kabupaten Kepulauan Talaud, Sulawesi Utara","Kabupaten Kepulauan Talaud, Sulawesi Utara",SULAWESI UTARA,,Indonesia,,,,4.073218,126.6899752,https://maps.google.com/?cid=0x0:0x6eda77a2e58c6ebb,
mall,Otoritas Pelabuhan,Bandar Udara Melonguane (MNA) Talaud,"2M4F+9W6, Kec. Melonguane, Kabupaten Kepulauan Talaud, Sulawesi Utara","Kabupaten Kepulauan Talaud, Sulawesi Utara",SULAWESI UTARA,,Indonesia,,,,4.0059174,126.6747569,https://maps.google.com/?cid=0x0:0x1dcfb1467c3fb89f,
mall,Lapangan Sepak Bola,Lapangan Sangkudiman Melonguane,"2M2H+254, Kec. Melonguane, Kabupaten Kepulauan Talaud, Sulawesi Utara","Kabupaten Kepulauan Talaud, Sulawesi Utara",SULAWESI UTARA,,Indonesia,,,,4.000016,126.677958,https://maps.google.com/?cid=0x0:0xf8a20dacbd95645d,
mall,mall,Bumdes Fajar Tatapuan,"2RM2+F6V, Desa, Bowombaru",,SULAWESI UTARA,,Indonesia,82345000142.0,,,4.0337323,126.8005532,https://maps.google.com/?cid=0x0:0x3253fe4279031c06,
mall,mall,Pulau Miangas,"Miangas, Kabupaten Kepulauan Talaud, Sulawesi Utara","Kabupaten Kepulauan Talaud, Sulawesi Utara",SULAWESI UTARA,,Indonesia,,,,5.5560786,126.5850946,https://maps.google.com/?cid=0x0:0x412675778b0a52d5,
mall,Minimarket,kios meyrisa,"VPR7+CX3, Moronge Sel. I, Kec. Moronge, Kabupaten Kepulauan Talaud, Sulawesi Utara","Kabupaten Kepulauan Talaud, Sulawesi Utara",SULAWESI UTARA,,Indonesia,85341970426.0,,,3.8910063,126.7149219,https://maps.google.com/?cid=0x0:0x46ed0fe2aa574dbc,
mall,Pusat Perbelanjaan,KIOS AMAZING,"VPQ6+WVV, Kec. Moronge, Kabupaten Kepulauan Talaud, Sulawesi Utara","Kabupaten Kepulauan Talaud, Sulawesi Utara",SULAWESI UTARA,,Indonesia,85340373629.0,,,3.8904023,126.7116166,https://maps.google.com/?cid=0x0:0x68d13791246398e8,
mall,mall,Kec. Nanusa,"Kabupaten Kepulauan Talaud, Sulawesi Utara","Kabupaten Kepulauan Talaud, Sulawesi Utara",SULAWESI UTARA,,Indonesia,,,,4.7677023,127.1365803,https://maps.google.com/?cid=0x0:0x9befc8beadc94d3,
mall,Gereja,GERMITA Karatung,"P3HP+3H8, Karatung, Kec. Nanusa, Kabupaten Kepulauan Talaud, Sulawesi Utara","Kabupaten Kepulauan Talaud, Sulawesi Utara",SULAWESI UTARA,,Indonesia,,,,4.727656,127.0864638,https://maps.google.com/?cid=0x0:0xc2a78a8364bb9803,
mall,mall,Pasar Kecamatan,"9VW2+5JH, Dapalan, Kec. Tampa Na'mma, Kabupaten Kepulauan Talaud, Sulawesi Utara","Kabupaten Kepulauan Talaud, Sulawesi Utara",SULAWESI UTARA,,Indonesia,,,,4.3954454,126.8516239,https://maps.google.com/?cid=0x0:0x15f6dbe83e32fd1b,
mall,Minimarket,Mitra Buka Lapak WiFi Almater,"9V72+5VH, Riung, Kec. Tampa Na'mma, Kabupaten Kepulauan Talaud, Sulawesi Utara","Kabupaten Kepulauan Talaud, Sulawesi Utara",SULAWESI UTARA,,Indonesia,,,,4.3629346,126.8522274,https://maps.google.com/?cid=0x0:0x5b2ea73fe145afaf,
mall,Pabrik Keramik,PUSAT PELATIHAN KERAMIK PULUTAN,"Pulutan, Kec. Remboken, Kabupaten Minahasa, Sulawesi Utara","Kabupaten Minahasa, Sulawesi Utara",SULAWESI UTARA,,Indonesia,81284497075.0,,,1.2189717,124.8374718,https://maps.google.com/?cid=0x0:0x7656acda16a39e6e,
mall,Pabrik Keramik,NaylaHome,"6R7P+V33, Pulutan, Kec. Remboken, Kabupaten Minahasa, Sulawesi Utara","Kabupaten Minahasa, Sulawesi Utara",SULAWESI UTARA,,Indonesia,,,,1.2146387,124.8351778,https://maps.google.com/?cid=0x0:0x6bca714a8735d1d4,
mall,Kafe,BNCookings,"Pulutan, Kec. Remboken, Kabupaten Minahasa, Sulawesi Utara","Kabupaten Minahasa, Sulawesi Utara",SULAWESI UTARA,,Indonesia,81347346756.0,,,1.2194034,124.8377363,https://maps.google.com/?cid=0x0:0x55d5b730829d45c6,
mall,Pusat Perbelanjaan,Megamall Manado,"Kawasan Megamas, Kantor Pengelola Megamall, Jl. Piere Tendean, Wenang Sel., Kec. Wenang, Kota Manado, Sulawesi Utara 95234","Kantor Pengelola Megamall, Jl. Piere Tendean, Wenang Sel., Kec. Wenang, Kota Manado",SULAWESI UTARA,95234.0,Indonesia,431879889.0,,,1.4839687,124.8348372,https://maps.google.com/?cid=0x0:0xfcc9b9fa2283700,
mall,Minimarket,kios meyrisa,"VPR7+CX3, Moronge Sel. I, Kec. Moronge, Kabupaten Kepulauan Talaud, Sulawesi Utara","Kabupaten Kepulauan Talaud, Sulawesi Utara",SULAWESI UTARA,,Indonesia,85341970426.0,,,3.8910063,126.7149219,https://maps.google.com/?cid=0x0:0x46ed0fe2aa574dbc,
mall,Minimarket,KIOS MARIMART,"5RWV+P6X, Alo Utara, Kec. Rainis, Kabupaten Kepulauan Talaud, Sulawesi Utara","Kabupaten Kepulauan Talaud, Sulawesi Utara",SULAWESI UTARA,,Indonesia,85242266568.0,,,4.1968681,126.8431172,https://maps.google.com/?cid=0x0:0xcc388ae564f373f3,
mall,Toko Pakaian,TM Seasons City,"Jl. Prof. Dr. Latumeten No.33, RT.001/RW.005, Jemb. Besi, Kec. Tambora, Kota Jakarta Barat, Daerah Khusus Ibukota Jakarta 11320","RT.001/RW.005, Jemb. Besi, Kec. Tambora, Kota Jakarta Barat",SULAWESI UTARA,11320.0,Indonesia,2163866666.0,,,-6.153435,106.7959604,https://maps.google.com/?cid=0x0:0x3dfe2e620492b590,
mall,Pusat Perbelanjaan,Plaza Indonesia,"Jl. M.H. Thamrin No.Kav.28-30, Gondangdia, Kec. Menteng, Kota Jakarta Pusat, Daerah Khusus Ibukota Jakarta 10350","Gondangdia, Kec. Menteng, Kota Jakarta Pusat",SULAWESI UTARA,10350.0,Indonesia,2129920000.0,,,-6.1935977,106.8219468,https://maps.google.com/?cid=0x0:0x7d7fe17ad64a053f,
mall,Pusat Perbelanjaan,Arion Mall,"Jl. Pemuda No.Kavling 3-4, RT.2/RW.7, Rawamangun, Kec. Pulo Gadung, Kota Jakarta Timur, Daerah Khusus Ibukota Jakarta 13220","RT.2/RW.7, Rawamangun, Kec. Pulo Gadung, Kota Jakarta Timur",SULAWESI UTARA,13220.0,Indonesia,214711652.0,,,-6.1938923,106.890485,https://maps.google.com/?cid=0x0:0x2c3ea95ddd6b2533,
mall,Toko Pakaian,Jackerton,"Arion Mall, Jl. Pemuda No.3-4 Lt.2, RT.2/RW.7, Rawamangun, Kec. Pulo Gadung, Kota Jakarta Timur, Daerah Khusus Ibukota Jakarta 13220","Jl. Pemuda No.3-4 Lt.2, RT.2/RW.7, Rawamangun, Kec. Pulo Gadung, Kota Jakarta Timur",SULAWESI UTARA,13220.0,Indonesia,214701493.0,,,-6.1940731,106.8905849,https://maps.google.com/?cid=0x0:0xbddee19370226a5,
mall,Toserba,Matahari Department Store Arion,"Jl. Pemuda Kav. 3 Pulogadung, 2, RT.2/RW.7, Rawamangun, Kec. Pulo Gadung, Kota Jakarta Timur, Daerah Khusus Ibukota Jakarta 13220","2, RT.2/RW.7, Rawamangun, Kec. Pulo Gadung, Kota Jakarta Timur",SULAWESI UTARA,13220.0,Indonesia,214701482.0,,,-6.194097,106.8906173,https://maps.google.com/?cid=0x0:0x34169132b0a18628,
mall,Toko Barang-barang Kulit,HermÃ¨s - Plaza Indonesia,"Plaza Indonesia Lobby Grand Hyatt, Jalan M.H. Thamrin No.28-30, RT.9/RW.5, Gondangdia, Kec. Menteng, Kota Jakarta Pusat, Daerah Khusus Ibukota Jakarta 10230","Jalan M.H. Thamrin No.28-30, RT.9/RW.5, Gondangdia, Kec. Menteng, Kota Jakarta Pusat",SULAWESI UTARA,10230.0,Indonesia,2129923998.0,,,-6.1939975,106.8220608,https://maps.google.com/?cid=0x0:0xfbe527d80f80772e,
mall,Pusat Perbelanjaan,ITC Cempaka Mas,"Jl. Letjen Suprapto.Kav. 1, RW No.8 Lantai 5, Kota Jakarta Pusat, Daerah Khusus Ibukota Jakarta 10640","RW No.8 Lantai 5, Kota Jakarta Pusat",SULAWESI UTARA,10640.0,Indonesia,2142878833.0,,,-6.1646611,106.8774952,https://maps.google.com/?cid=0x0:0xca4d17c9802f752e,
mall,mall,Salibabu,"Kabupaten Kepulauan Talaud, Sulawesi Utara","Kabupaten Kepulauan Talaud, Sulawesi Utara",SULAWESI UTARA,,Indonesia,,,,3.9026876,126.6849359,https://maps.google.com/?cid=0x0:0x5c5d08892b729657,
mall,Kantor Pemerintahan Wilayah,TI -JE SALIBABU,"VMFQ+VC9, Dalum, Salibabu, Kabupaten Kepulauan Talaud, Sulawesi Utara","Kabupaten Kepulauan Talaud, Sulawesi Utara",SULAWESI UTARA,,Indonesia,,,,3.8746553,126.6886077,https://maps.google.com/?cid=0x0:0x2a1bfb0aefa242cc,
mall,Pusat Bisnis,"Sentra Kelautan Dan Perikanan Terpadu Salibabu, Kepulauan Talaud","VM6Q+CJ7, Dalum, Salibabu, Kabupaten Kepulauan Talaud, Sulawesi Utara","Kabupaten Kepulauan Talaud, Sulawesi Utara",SULAWESI UTARA,,Indonesia,,,,3.8610466,126.6890614,https://maps.google.com/?cid=0x0:0x2c365c8890d91d40,
mall,Pasar,Toko sinar baru,"Melongguane timur, Kec. Melonguane, Kabupaten Kepulauan Talaud, Sulawesi Utara 95885","Kec. Melonguane, Kabupaten Kepulauan Talaud",SULAWESI UTARA,95885.0,Indonesia,,,,3.9382204,126.6968432,https://maps.google.com/?cid=0x0:0x877638e490eb4bcb,
mall,Peternakan babi,Agen Pupuk Eco Farming Dalum Talaud,"VM8M+HHX, Dalum, Salibabu, Kabupaten Kepulauan Talaud, Sulawesi Utara","Kabupaten Kepulauan Talaud, Sulawesi Utara",SULAWESI UTARA,,Indonesia,,,,3.8664831,126.6839799,https://maps.google.com/?cid=0x0:0x3b2406725485b3f7,
mall,mall,pasar baru lirung,"WMWM+C34, Lirung Matane, Lirung, Kabupaten Kepulauan Talaud, Sulawesi Utara","Kabupaten Kepulauan Talaud, Sulawesi Utara",SULAWESI UTARA,,Indonesia,,,,3.9460189,126.6827072,https://maps.google.com/?cid=0x0:0xf9b70326644970bd,
mall,mall,Pulau Salibabu,"Salibabu Utara, Salibabu, Kabupaten Kepulauan Talaud, Sulawesi Utara","Kabupaten Kepulauan Talaud, Sulawesi Utara",SULAWESI UTARA,,Indonesia,,,,3.910278,126.684722,https://maps.google.com/?cid=0x0:0xa5e62bbb7c693fe5,
mall,mall,Kec. Tampa Na'mma,"Kabupaten Kepulauan Talaud, Sulawesi Utara","Kabupaten Kepulauan Talaud, Sulawesi Utara",SULAWESI UTARA,,Indonesia,,,,4.3643806,126.8527997,https://maps.google.com/?cid=0x0:0xaa0bfff86571a14c,
mall,Minimarket,Mitra Buka Lapak WiFi Almater,"9V72+5VH, Riung, Kec. Tampa Na'mma, Kabupaten Kepulauan Talaud, Sulawesi Utara","Kabupaten Kepulauan Talaud, Sulawesi Utara",SULAWESI UTARA,,Indonesia,,,,4.3629346,126.8522274,https://maps.google.com/?cid=0x0:0x5b2ea73fe145afaf,
mall,mall,Pasar Kecamatan,"9VW2+5JH, Dapalan, Kec. Tampa Na'mma, Kabupaten Kepulauan Talaud, Sulawesi Utara","Kabupaten Kepulauan Talaud, Sulawesi Utara",SULAWESI UTARA,,Indonesia,,,,4.3954454,126.8516239,https://maps.google.com/?cid=0x0:0x15f6dbe83e32fd1b,
mall,Pusat Perbelanjaan,Ambon City Center (ACC),"Jl. Wolter Monginsidi, Passo, Kec. Baguala, Kota Ambon, Maluku 97232","Passo, Kec. Baguala, Kota Ambon",SULAWESI UTARA,97232.0,Indonesia,9113869522.0,,,-3.6320889,128.2495582,https://maps.google.com/?cid=0x0:0x91b8ed9da337adeb,
mall,Jepang,Ichiban Sushi - Maluku City Mall,"Jl. Jenderal Sudirman No.1, Lantai No.9 UG Blok G, No 8A, Hative Kecil, Sirimau, Kota Ambon, Maluku","Kota Ambon, Maluku",SULAWESI UTARA,,Indonesia,895357270204.0,,,-3.6699578,128.198051,https://maps.google.com/?cid=0x0:0xf2c6c9f7bce048b8,
supermarket,supermarket,Sulawesi Utara,,Sulawesi Utara,SULAWESI UTARA,,Indonesia,,,,0.6246932,123.9750018,https://maps.google.com/?cid=0x0:0x45891617980cb835,
supermarket,Toko Swalayan,D'mart Beo Talaud,"Beo Bar., Kec. Beo, Kabupaten Kepulauan Talaud, Sulawesi Utara","Kabupaten Kepulauan Talaud, Sulawesi Utara",SULAWESI UTARA,,Indonesia,,,,4.2255427,126.7925533,https://maps.google.com/?cid=0x0:0xeb5c86cfbbff7021,
supermarket,Toko Swalayan,JJ Mart,"6QFR+QF4, Beo, Kec. Beo, Kabupaten Kepulauan Talaud, Sulawesi Utara","Kabupaten Kepulauan Talaud, Sulawesi Utara",SULAWESI UTARA,,Indonesia,,,,4.224396,126.791213,https://maps.google.com/?cid=0x0:0x3cd7d3243ce6cdfd,
supermarket,Toko bahan makanan,AEON Store - Mall @ Alam Sutera,"Jl. Jalur Sutera Bar. No.Kav 16, RT.002/RW.003, Panunggangan Tim., Kec. Pinang, Kota Tangerang, Banten 15143","RT.002/RW.003, Panunggangan Tim., Kec. Pinang, Kota Tangerang",SULAWESI UTARA,15143.0,Indonesia,81110521626.0,,,-6.2207453,106.6549281,https://maps.google.com/?cid=0x0:0xbe1a2ff9a25b7b24,
supermarket,Minimarket,FoodMax Supermarket,"Jl. R.A. Kartini No.16, Cilandak Bar., Kec. Cilandak, Kota Jakarta Selatan, Daerah Khusus Ibukota Jakarta 12430","Cilandak Bar., Kec. Cilandak, Kota Jakarta Selatan",SULAWESI UTARA,12430.0,Indonesia,,,,-6.2926283,106.7862876,https://maps.google.com/?cid=0x0:0x2127dec7d159dc41,
supermarket,Toko Daging,Goodwins Butchery - Yenny Firdaus,"Jl. Pribadi 3 No.95, RT.004/RW.4, Pangkalan Jati Baru, Kec. Cinere, Kota Depok, Jawa Barat 16513","RT.004/RW.4, Pangkalan Jati Baru, Kec. Cinere, Kota Depok",SULAWESI UTARA,16513.0,Indonesia,8111977711.0,,,-6.3227087,106.802562,https://maps.google.com/?cid=0x0:0x24997419a86d68ed,
supermarket,Toko Swalayan,JJ Mart,"6QFR+QF4, Beo, Kec. Beo, Kabupaten Kepulauan Talaud, Sulawesi Utara","Kabupaten Kepulauan Talaud, Sulawesi Utara",SULAWESI UTARA,,Indonesia,,,,4.224396,126.791213,https://maps.google.com/?cid=0x0:0x3cd7d3243ce6cdfd,
supermarket,Toko Swalayan,D'mart Beo Talaud,"Beo Bar., Kec. Beo, Kabupaten Kepulauan Talaud, Sulawesi Utara","Kabupaten Kepulauan Talaud, Sulawesi Utara",SULAWESI UTARA,,Indonesia,,,,4.2255427,126.7925533,https://maps.google.com/?cid=0x0:0xeb5c86cfbbff7021,
supermarket,Komplek perumahan,Keluarga Essing Ulukyanan,"6QFR+QF4, Beo, Kec. Beo, Kabupaten Kepulauan Talaud, Sulawesi Utara","Kabupaten Kepulauan Talaud, Sulawesi Utara",SULAWESI UTARA,,Indonesia,,,,4.224374,126.7911623,https://maps.google.com/?cid=0x0:0x90fb51dba8cba8c4,
supermarket,Toko Swalayan,Minimarket MM,"6QGR+GC4, Jl. Larenggam, Beo, Kec. Beo, Kabupaten Kepulauan Talaud, Sulawesi Utara","Kabupaten Kepulauan Talaud, Sulawesi Utara",SULAWESI UTARA,,Indonesia,,,,4.2262711,126.7910732,https://maps.google.com/?cid=0x0:0x66c0d782846ef8c6,
supermarket,supermarket,Beo Utara,"Kabupaten Kepulauan Talaud, Sulawesi Utara","Kabupaten Kepulauan Talaud, Sulawesi Utara",SULAWESI UTARA,,Indonesia,,,,4.3090871,126.7604027,https://maps.google.com/?cid=0x0:0x5f65587e5b3ae940,
supermarket,Toko Swalayan,D'mart Beo Talaud,"Beo Bar., Kec. Beo, Kabupaten Kepulauan Talaud, Sulawesi Utara","Kabupaten Kepulauan Talaud, Sulawesi Utara",SULAWESI UTARA,,Indonesia,,,,4.2255427,126.7925533,https://maps.google.com/?cid=0x0:0xeb5c86cfbbff7021,
supermarket,Toko Swalayan,Minimarket MM,"6QGR+GC4, Jl. Larenggam, Beo, Kec. Beo, Kabupaten Kepulauan Talaud, Sulawesi Utara","Kabupaten Kepulauan Talaud, Sulawesi Utara",SULAWESI UTARA,,Indonesia,,,,4.2262711,126.7910732,https://maps.google.com/?cid=0x0:0x66c0d782846ef8c6,
supermarket,Gudang,FREN MART,"6QGR+HFM, Jl. Larenggam, Beo, Kec. Beo, Kab. Kepl. Talaud, Sulawesi Utara","Kab. Kepl. Talaud, Sulawesi Utara",SULAWESI UTARA,,Indonesia,,,,4.2264539,126.791184,https://maps.google.com/?cid=0x0:0x9eb18626657ee321,
supermarket,Toko bahan makanan,FREN TRADE CENTER,"6QGW+RGR, Unnamed Road, Beo Bar., Kec. Beo, Kabupaten Kepulauan Talaud, Sulawesi Utara","Kabupaten Kepulauan Talaud, Sulawesi Utara",SULAWESI UTARA,,Indonesia,,,,4.2271222,126.7962558,https://maps.google.com/?cid=0x0:0x60a79ff132ab1b17,
supermarket,Toko,Kios Acel,"7PC8+HMW, Lobbo I, Beo Utara, Kabupaten Kepulauan Talaud, Sulawesi Utara","Kabupaten Kepulauan Talaud, Sulawesi Utara",SULAWESI UTARA,,Indonesia,,,,4.2714939,126.7167085,https://maps.google.com/?cid=0x0:0xf82ad705f5b069c8,
supermarket,Toko Swalayan,Golden Pasar Swalayan,"Ruko Boulevard, Jl. Piere Tendean No.5, Wenang Utara, Kec. Wenang, Kota Manado, Sulawesi Utara","Kota Manado, Sulawesi Utara",SULAWESI UTARA,,Indonesia,,,,1.4884317,124.8379329,https://maps.google.com/?cid=0x0:0x2d4fb94562e6ef96,
supermarket,Toko,Kios Valin,"Ensem, Kec. Essang Sel., Kabupaten Kepulauan Talaud, Sulawesi Utara 95883","Kec. Essang Sel., Kabupaten Kepulauan Talaud",SULAWESI UTARA,95883.0,Indonesia,81249836405.0,,,4.3742901,126.690039,https://maps.google.com/?cid=0x0:0x54ebb2b296d1e3c2,
supermarket,Otoritas Pelabuhan,Pelabuhan Beo,"6QHQ+MP4, Kec. Beo, Kabupaten Kepulauan Talaud, Sulawesi Utara","Kabupaten Kepulauan Talaud, Sulawesi Utara",SULAWESI UTARA,,Indonesia,82394758678.0,,,4.2291306,126.7893367,https://maps.google.com/?cid=0x0:0x7961b3418f2e2d25,
supermarket,,Fiesta Pasar Swalayan,"Jl. Sam Ratulangi No.329 - 331, Tj. Batu, Kec. Wanea, Kota Manado, Sulawesi Utara 95117","Tj. Batu, Kec. Wanea, Kota Manado",SULAWESI UTARA,95117.0,Indonesia,431862363.0,,,1.4649759,124.8400738,https://maps.google.com/?cid=0x0:0x8fd573201c5f107d,
supermarket,Toko Kue,Fiesta Bakery  Cake,"FR7R+X2M, Wanea, Kec. Wanea, Kota Manado, Sulawesi Utara 95115","Wanea, Kec. Wanea, Kota Manado",SULAWESI UTARA,95115.0,Indonesia,431862363.0,,,1.4649692,124.8400518,https://maps.google.com/?cid=0x0:0x6288df82f13c0439,
supermarket,Kios,Kios dua basudarah,"9V73+989, Riung, Kec. Tampa Na'mma, Kabupaten Kepulauan Talaud, Sulawesi Utara","Kabupaten Kepulauan Talaud, Sulawesi Utara",SULAWESI UTARA,,Indonesia,,,,4.3634185,126.8533691,https://maps.google.com/?cid=0x0:0x1e3a411b430b7919,
supermarket,supermarket,Damau,"Kec. Damau, Kabupaten Kepulauan Talaud, Sulawesi Utara","Kabupaten Kepulauan Talaud, Sulawesi Utara",SULAWESI UTARA,,Indonesia,,,,3.746066,126.832306,https://maps.google.com/?cid=0x0:0xd685ec66b976f7e8,
supermarket,Toko Swalayan,Golden Pasar Swalayan,"Ruko Boulevard, Jl. Piere Tendean No.5, Wenang Utara, Kec. Wenang, Kota Manado, Sulawesi Utara","Kota Manado, Sulawesi Utara",SULAWESI UTARA,,Indonesia,,,,1.4884317,124.8379329,https://maps.google.com/?cid=0x0:0x2d4fb94562e6ef96,
supermarket,supermarket,Toko Berkat Doa Mama,"XMWH+8GV, Melonguane Tim., Sulawesi Utara",Sulawesi Utara,SULAWESI UTARA,,Indonesia,,,,3.9958462,126.6787945,https://maps.google.com/?cid=0x0:0xd8563828896970a2,
supermarket,Toko bahan makanan,Dama Supemarket,"Unnamed Road, Dar es Salaam, Tanzania","Dar es Salaam, Tanzania",SULAWESI UTARA,,Indonesia,255683915631.0,,,-6.8889046,39.339668,https://maps.google.com/?cid=0x0:0xb81d440e6d57ed1f,
supermarket,Toko bahan makanan,Shop,"49C4+R2C, Dar es Salaam, Tanzania","Dar es Salaam, Tanzania",SULAWESI UTARA,,Indonesia,,,,-6.8779428,39.3550088,https://maps.google.com/?cid=0x0:0x4d79266605549ead,
supermarket,Kios,Toko Puput Gemeh,"GR5C+R62, Gemeh, Kec. Gemeh, Kabupaten Kepulauan Talaud, Sulawesi Utara","Kabupaten Kepulauan Talaud, Sulawesi Utara",SULAWESI UTARA,,Indonesia,,,,4.5097258,126.8191183,https://maps.google.com/?cid=0x0:0x902fd8a816835299,
supermarket,Toko umum,Kios Bu Ipe,"GR59+X4V, Gemeh Rasmata, Kec. Gemeh, Kabupaten Kepulauan Talaud, Sulawesi Utara","Kabupaten Kepulauan Talaud, Sulawesi Utara",SULAWESI UTARA,,Indonesia,,,,4.5091288,126.8182677,https://maps.google.com/?cid=0x0:0x749bffe634ca6003,
supermarket,Toko Swalayan,Jegeg Bagus Mart,"Banyuatis, Kec. Banjar, Kabupaten Buleleng, Bali","Kabupaten Buleleng, Bali",SULAWESI UTARA,,Indonesia,819676555.0,,,-8.2602168,115.0286867,https://maps.google.com/?cid=0x0:0x833ac5e8473a3bbb,
supermarket,supermarket,FRANS SASUE,"CPF5+7G7, Kuma, Kec. Essang Sel., Kabupaten Kepulauan Talaud, Sulawesi Utara","Kabupaten Kepulauan Talaud, Sulawesi Utara",SULAWESI UTARA,,Indonesia,,,,4.4231682,126.7087982,https://maps.google.com/?cid=0x0:0x45f287539459f42,
supermarket,supermarket,Kec. Essang,"Kabupaten Kepulauan Talaud, Sulawesi Utara","Kabupaten Kepulauan Talaud, Sulawesi Utara",SULAWESI UTARA,,Indonesia,,,,4.4565269,126.730993,https://maps.google.com/?cid=0x0:0x7405c1afd2f8476e,
supermarket,Sekolah Dasar,SDN Inpres Essang,"FP5M+346, Essang, Kec. Essang, Kabupaten Kepulauan Talaud, Sulawesi Utara","Kabupaten Kepulauan Talaud, Sulawesi Utara",SULAWESI UTARA,,Indonesia,85256900168.0,,,4.4576695,126.732768,https://maps.google.com/?cid=0x0:0xb75528ca7fb0d877,
supermarket,Toko Swalayan,GS The Fresh Mampang,"Jl. Buncit Raya No.301, Duren Tiga, Kec. Pancoran, Kota Jakarta Selatan, Daerah Khusus Ibukota Jakarta 12760","Duren Tiga, Kec. Pancoran, Kota Jakarta Selatan",SULAWESI UTARA,12760.0,Indonesia,2126961986.0,,,-6.256991,106.828987,https://maps.google.com/?cid=0x0:0x47a84d3b86619147,
supermarket,Toko Swalayan,GS Supermarket Jatiasih,"GsSupermarket :, Jl. Wibawa Mukti II No.125, RT.002/ RW017/RW.017, Jatiasih, Kec. Jatiasih, Kota Bks, Jawa Barat 17423","Jl. Wibawa Mukti II No.125, RT.002/ RW017/RW.017, Jatiasih, Kec. Jatiasih, Kota Bks",SULAWESI UTARA,17423.0,Indonesia,2182736918.0,,,-6.3070579,106.955731,https://maps.google.com/?cid=0x0:0x74efd6ce433268e6,
supermarket,Toko Swalayan,GS THE FRESH JATIBENING,"Jl. Caman Raya No.7-24, RT.004/RW.003, Jatibening, Kec. Pd. Gede, Kota Bks, Jawa Barat 17412","RT.004/RW.003, Jatibening, Kec. Pd. Gede, Kota Bks",SULAWESI UTARA,17412.0,Indonesia,2184982211.0,,,-6.2676455,106.9436409,https://maps.google.com/?cid=0x0:0x2cdb50c3ee3206c,
supermarket,Toko Swalayan,GS The Fresh Supermarket Kemang Pratama,"Linc Square Kemang Pratama, Jl. Kemang Pratama Raya, RT.004/RW.001, Bojong Rawalumbu, Kec. Rawalumbu, Kota Bks, Jawa Barat 17116","Jl. Kemang Pratama Raya, RT.004/RW.001, Bojong Rawalumbu, Kec. Rawalumbu, Kota Bks",SULAWESI UTARA,17116.0,Indonesia,2182416910.0,,,-6.2779418,106.9910558,https://maps.google.com/?cid=0x0:0x4ce692f4b9ef21ee,
supermarket,supermarket,Kec. Essang Sel.,"Kabupaten Kepulauan Talaud, Sulawesi Utara","Kabupaten Kepulauan Talaud, Sulawesi Utara",SULAWESI UTARA,,Indonesia,,,,4.4248507,126.7095716,https://maps.google.com/?cid=0x0:0x109f9417f7325f46,
supermarket,Toko Swalayan,FOODMART SUPERMARKET,"FOODMART SUPERMARKET, Lippo Mall Nusantara, Jl. Jend. Sudirman No.kav 50 Lt.B1, unit, Karet Semanggi, Kecamatan Setiabudi, Kota Jakarta Selatan, Daerah Khusus Ibukota Jakarta 12930","Lippo Mall Nusantara, Jl. Jend. Sudirman No.kav 50 Lt.B1, unit, Karet Semanggi, Kecamatan Setiabudi, Kota Jakarta Selatan",SULAWESI UTARA,12930.0,Indonesia,8118331631.0,,,-6.2197194,106.8144731,https://maps.google.com/?cid=0x0:0x9d9b624afb9570f0,
supermarket,Toko,Kios Valin,"Ensem, Kec. Essang Sel., Kabupaten Kepulauan Talaud, Sulawesi Utara 95883","Kec. Essang Sel., Kabupaten Kepulauan Talaud",SULAWESI UTARA,95883.0,Indonesia,81249836405.0,,,4.3742901,126.690039,https://maps.google.com/?cid=0x0:0x54ebb2b296d1e3c2,
supermarket,supermarket,Kec. Kabaruan,"Kabupaten Kepulauan Talaud, Sulawesi Utara","Kabupaten Kepulauan Talaud, Sulawesi Utara",SULAWESI UTARA,,Indonesia,,,,3.8385519,126.7852295,https://maps.google.com/?cid=0x0:0x8c347d9cb11e4ad5,
supermarket,Minimarket,Megaria SwalayanTahuna,"Jl. Makaampo No.26, Sawang Bendar, Kec. Tahuna, Kabupaten Kepulauan Sangihe, Sulawesi Utara 95812","Sawang Bendar, Kec. Tahuna, Kabupaten Kepulauan Sangihe",SULAWESI UTARA,95812.0,Indonesia,82349681805.0,,,3.6093144,125.491729,https://maps.google.com/?cid=0x0:0x6345099cefab6c5d,
supermarket,supermarket,Kios Gevada,"RQV2+CVC, Taduna, Kec. Kabaruan, Kabupaten Kepulauan Talaud, Sulawesi Utara","Kabupaten Kepulauan Talaud, Sulawesi Utara",SULAWESI UTARA,,Indonesia,,,,3.8435647,126.7521315,https://maps.google.com/?cid=0x0:0x85935e6da08e1a33,
supermarket,supermarket,Kalongan,"Kabupaten Kepulauan Talaud, Sulawesi Utara","Kabupaten Kepulauan Talaud, Sulawesi Utara",SULAWESI UTARA,,Indonesia,,,,4.0179493,126.6363811,https://maps.google.com/?cid=0x0:0x3b091707f1e05384,
supermarket,supermarket,Kalongan,"Kalongan, Kabupaten Kepulauan Talaud, Sulawesi Utara","Kabupaten Kepulauan Talaud, Sulawesi Utara",SULAWESI UTARA,,Indonesia,,,,4.0352503,126.6255869,https://maps.google.com/?cid=0x0:0x7f63dc8d1cf266c0,
supermarket,Pusat Perbelanjaan,Kios Sheena,"barat, Kec. Melonguane, Kabupaten Kepulauan Talaud, Sulawesi Utara 95885","Kec. Melonguane, Kabupaten Kepulauan Talaud",SULAWESI UTARA,95885.0,Indonesia,82188488845.0,,,3.9992281,126.6762555,https://maps.google.com/?cid=0x0:0xf3b4d6e5e15d615f,
supermarket,Toko bahan makanan,Toko Hilbad Kalongan,"Jl. Bima No.5, RW.08, Bandungan, Kalongan, Kec. Ungaran Tim., Kabupaten Semarang, Jawa Tengah 50519","RW.08, Bandungan, Kalongan, Kec. Ungaran Tim., Kabupaten Semarang",SULAWESI UTARA,50519.0,Indonesia,85877566656.0,,,-7.1374159,110.4461528,https://maps.google.com/?cid=0x0:0xe7e1ca41598d51f9,
supermarket,Toko,Toko Kelontong Bu Trias,"VC7P+FRR, Rejowinangun, Kalongan, Kec. Ungaran Tim., Kabupaten Semarang, Jawa Tengah 50519","Rejowinangun, Kalongan, Kec. Ungaran Tim., Kabupaten Semarang",SULAWESI UTARA,50519.0,Indonesia,85642555755.0,,,-7.1362598,110.4370276,https://maps.google.com/?cid=0x0:0xf2d012d958f0d23f,
supermarket,Toko,Toko Kamil,"Jl. Bukit Leyangan Damai Raya No.29A, Gn. Pabongan, Leyangan, Kec. Ungaran Tim., Kabupaten Semarang, Jawa Tengah 50519","Gn. Pabongan, Leyangan, Kec. Ungaran Tim., Kabupaten Semarang",SULAWESI UTARA,50519.0,Indonesia,85866448030.0,,,-7.1457228,110.4383204,https://maps.google.com/?cid=0x0:0x783801159f6c2eda,
supermarket,Toko bahan makanan,Toko Alif,"VFG4+CRW, Tompo Gn., Kalongan, Kec. Ungaran Tim., Kabupaten Semarang, Jawa Tengah 50519","Tompo Gn., Kalongan, Kec. Ungaran Tim., Kabupaten Semarang",SULAWESI UTARA,50519.0,Indonesia,,,,-7.12388,110.457072,https://maps.google.com/?cid=0x0:0xcf587663e1b3426b,
supermarket,Toko bahan makanan,Ngaliyan kalongan,"VF94+542, Ngaliyan, Kalongan, Kec. Ungaran Tim., Kabupaten Semarang, Jawa Tengah 50519","Ngaliyan, Kalongan, Kec. Ungaran Tim., Kabupaten Semarang",SULAWESI UTARA,50519.0,Indonesia,,,,-7.132123,110.4552675,https://maps.google.com/?cid=0x0:0xbfb0e44aa499cdda,
supermarket,Minimarket,Syafiq ali,"VCXW+XRH, Jl. Kalilateng, Panggang Barat, Mluweh, Kec. Ungaran Tim., Kabupaten Semarang, Jawa Tengah 50519","Jl. Kalilateng, Panggang Barat, Mluweh, Kec. Ungaran Tim., Kabupaten Semarang",SULAWESI UTARA,50519.0,Indonesia,,,,-7.1000553,110.4471013,https://maps.google.com/?cid=0x0:0xa58017b568a7d57,
supermarket,Toko bahan makanan,Toko Arsakha,"Tim.,, Sigude, Kalongan, Kec. Ungaran Tim., Kabupaten Semarang, Jawa Tengah 50519","Sigude, Kalongan, Kec. Ungaran Tim., Kabupaten Semarang",SULAWESI UTARA,50519.0,Indonesia,85727228300.0,,,-7.1415541,110.4345372,https://maps.google.com/?cid=0x0:0xe37d9e97bc262c44,
supermarket,Toko Kelontong Asia,toko 5758,"VC3M+9PW, Tim.,, Gn. Pabongan, Leyangan, Kec. Ungaran Tim., Kabupaten Semarang, Jawa Tengah 50519","Tim.,, Gn. Pabongan, Leyangan, Kec. Ungaran Tim., Kabupaten Semarang",SULAWESI UTARA,50519.0,Indonesia,,,,-7.1465184,110.4343271,https://maps.google.com/?cid=0x0:0x80336a4e79cc2fbf,
supermarket,Toko bahan makanan,@qillakhanza,"Jl. Kulon Ndiro, Kalongan, Kec. Ungaran Tim., Kabupaten Semarang, Jawa Tengah 50519","Kalongan, Kec. Ungaran Tim., Kabupaten Semarang",SULAWESI UTARA,50519.0,Indonesia,88215484699.0,,,-7.1487997,110.4520441,https://maps.google.com/?cid=0x0:0x74c46add834ca076,
supermarket,Toko Kelontong Asia,Toko Budhe DJOKO WIJONO,"Perum, Jl. Bukit Leyangan Damai No.VI, Gn. Pabongan, Leyangan, Kec. Ungaran Tim., Kabupaten Semarang, Jawa Tengah 50519","Jl. Bukit Leyangan Damai No.VI, Gn. Pabongan, Leyangan, Kec. Ungaran Tim., Kabupaten Semarang",SULAWESI UTARA,50519.0,Indonesia,,,,-7.1482047,110.4346424,https://maps.google.com/?cid=0x0:0xb411293b214e6a69,
supermarket,Toko bahan makanan,Toko Al Mughnii,"VC6W+F45 Tim, Bandungan, Kalongan, Kec. Ungaran Tim., Kabupaten Semarang, Jawa Tengah 50519","Bandungan, Kalongan, Kec. Ungaran Tim., Kabupaten Semarang",SULAWESI UTARA,50519.0,Indonesia,8812426496.0,,,-7.1388547,110.4453652,https://maps.google.com/?cid=0x0:0x4433d87607b1c1cc,
supermarket,Toko Kelontong Asia,Rumah Bp Nur Khakim,"RCQQ+WGV, Lengkong, Leyangan, Kec. Ungaran Tim., Kabupaten Semarang, Jawa Tengah 50519","Lengkong, Leyangan, Kec. Ungaran Tim., Kabupaten Semarang",SULAWESI UTARA,50519.0,Indonesia,89670558432.0,,,-7.1601362,110.4388052,https://maps.google.com/?cid=0x0:0xe899ebceee30b54c,
supermarket,Pusat Perbelanjaan,Ghanim Proshock,"Jl. Mahoni IV No.17, Sigude, Kalongan, Kec. Ungaran Tim., Kabupaten Semarang, Jawa Tengah 50519","Sigude, Kalongan, Kec. Ungaran Tim., Kabupaten Semarang",SULAWESI UTARA,50519.0,Indonesia,81328034270.0,,,-7.1418245,110.4343809,https://maps.google.com/?cid=0x0:0x9130bf8e18e0f4d5,
supermarket,Toko,Mini Market Ayla,"VC5J+FR2, Jl. Yudistira, Sigude, Kalongan, Kec. Ungaran Tim., Kabupaten Semarang, Jawa Tengah 50519","Jl. Yudistira, Sigude, Kalongan, Kec. Ungaran Tim., Kabupaten Semarang",SULAWESI UTARA,50519.0,Indonesia,,,,-7.1413607,110.4320019,https://maps.google.com/?cid=0x0:0x81039fbde96b6e08,
supermarket,Toko Bahan Bangunan,Toko Murah Jaya,"Unnamed Road, Leyangan, Tim., 50519, Rekesan, Leyangan, Kec. Ungaran Tim., Kabupaten Semarang, Jawa Tengah 50519","Leyangan, Tim.,",SULAWESI UTARA,50519.0,Indonesia,,,,-7.1539157,110.4371276,https://maps.google.com/?cid=0x0:0x9ae0db5dd8aef5fe,
supermarket,Toko,Pandawa Store,"Jalan Abu Sujak No.5, Mendiro, Kalongan, Kec. Ungaran Tim., Kabupaten Semarang, Jawa Tengah 50519","Mendiro, Kalongan, Kec. Ungaran Tim., Kabupaten Semarang",SULAWESI UTARA,50519.0,Indonesia,85876261473.0,,,-7.1503299,110.4516335,https://maps.google.com/?cid=0x0:0xcaf7227a2666e2d3,
supermarket,Toko bahan makanan,Toserba Rahayu Grosir  Eceran,"VC7V+G3M, Jl. Bima, Kalongan, Kec. Ungaran Tim., Kabupaten Semarang, Jawa Tengah 50519","Jl. Bima, Kalongan, Kec. Ungaran Tim., Kabupaten Semarang",SULAWESI UTARA,50519.0,Indonesia,,,,-7.1361596,110.4426641,https://maps.google.com/?cid=0x0:0xc938d37373c3bf8f,
supermarket,Toko bahan makanan,TK Sara,"Jl. Bukit Leyangan Damai Raya No.31, Gn. Pabongan, Leyangan, Kec. Ungaran Tim., Kabupaten Semarang, Jawa Tengah 50519","Gn. Pabongan, Leyangan, Kec. Ungaran Tim., Kabupaten Semarang",SULAWESI UTARA,50519.0,Indonesia,81326522804.0,,,-7.1459294,110.4384622,https://maps.google.com/?cid=0x0:0x80487bf051b4c5ca,
supermarket,Toko Kelontong Asia,Toko Lugita,"Jalan Ungaran - Mranggen Sadewa, Ngaliyan, Kalongan, Kec. Ungaran Tim., Kabupaten Semarang, Jawa Tengah 50551","Ngaliyan, Kalongan, Kec. Ungaran Tim., Kabupaten Semarang",SULAWESI UTARA,50551.0,Indonesia,85728282861.0,,,-7.1287034,110.4565028,https://maps.google.com/?cid=0x0:0x9e8f6048965add9b,
supermarket,Toko,Pusat Penjualan Hewan Qurban Bp. Sutrisno,"VF33+723, Kalongan, Kec. Ungaran Tim., Kabupaten Semarang, Jawa Tengah 50519","Kalongan, Kec. Ungaran Tim., Kabupaten Semarang",SULAWESI UTARA,50519.0,Indonesia,,,,-7.1468569,110.4525498,https://maps.google.com/?cid=0x0:0x31052d99a04f154f,
supermarket,supermarket,Lirung,"Kabupaten Kepulauan Talaud, Sulawesi Utara","Kabupaten Kepulauan Talaud, Sulawesi Utara",SULAWESI UTARA,,Indonesia,,,,3.9572072,126.6795425,https://maps.google.com/?cid=0x0:0x210eac5f2d6150d0,
supermarket,Toko bahan makanan,"Toko Pintu Berkat"" Lirung""","Jl. Tucunan No.20, Lirung Satu, Lirung, Kabupaten Kepulauan Talaud, Sulawesi Utara 95871","Lirung Satu, Lirung, Kabupaten Kepulauan Talaud",SULAWESI UTARA,95871.0,Indonesia,85240616150.0,,,3.9384792,126.6963942,https://maps.google.com/?cid=0x0:0xfc15601e13b08cf4,
supermarket,Gereja,Pasar Lirung,"WMQX+6C9, Lirung Satu, Lirung, Kabupaten Kepulauan Talaud, Sulawesi Utara","Kabupaten Kepulauan Talaud, Sulawesi Utara",SULAWESI UTARA,,Indonesia,,,,3.9380338,126.6986221,https://maps.google.com/?cid=0x0:0x640fb493cb161b14,
supermarket,supermarket,Toko Gracia lirung,"WMQX+533, Lirung Satu, Lirung, Kabupaten Kepulauan Talaud, Sulawesi Utara","Kabupaten Kepulauan Talaud, Sulawesi Utara",SULAWESI UTARA,,Indonesia,,,,3.938105,126.6975925,https://maps.google.com/?cid=0x0:0x871a68f68d44f2ce,
supermarket,supermarket,Toko Sukamaju Lirung,"WMQW+9JW, Lirung Satu, Lirung, Kabupaten Kepulauan Talaud, Sulawesi Utara","Kabupaten Kepulauan Talaud, Sulawesi Utara",SULAWESI UTARA,,Indonesia,,,,3.9384783,126.6965783,https://maps.google.com/?cid=0x0:0x38301063e6f9d4fb,
supermarket,Toko Swalayan,Toko Cahaya Terang,"WMQX+533, Lirung Satu, Lirung, Kabupaten Kepulauan Talaud, Sulawesi Utara","Kabupaten Kepulauan Talaud, Sulawesi Utara",SULAWESI UTARA,,Indonesia,,,,3.9376936,126.6977081,https://maps.google.com/?cid=0x0:0xaa5b105cb8cbd704,
supermarket,Toko umum,Kios JLOVE,"WPM2+PJC, Lirung Satu, Lirung, Kabupaten Kepulauan Talaud, Sulawesi Utara","Kabupaten Kepulauan Talaud, Sulawesi Utara",SULAWESI UTARA,,Indonesia,,,,3.9345827,126.7009123,https://maps.google.com/?cid=0x0:0x6f2db8c535f298ff,
supermarket,supermarket,Kec. Melonguane,"Kabupaten Kepulauan Talaud, Sulawesi Utara","Kabupaten Kepulauan Talaud, Sulawesi Utara",SULAWESI UTARA,,Indonesia,,,,4.0732215,126.6898783,https://maps.google.com/?cid=0x0:0xcefc20000c591b01,
supermarket,Pasar,Pasar Baru Melonguane,"2M3W+F8X, Jln. Melonguane-Mala, Melonguane",,SULAWESI UTARA,,Indonesia,,,,4.0037494,126.695869,https://maps.google.com/?cid=0x0:0xf9d7f7e76c5022ef,
supermarket,Toko Swalayan,La-Tansa Mart,"Melonguane, Kec. Melonguane, Sulawesi Utara 95885",Kec. Melonguane,SULAWESI UTARA,95885.0,Indonesia,81214072607.0,,,4.0006558,126.6796848,https://maps.google.com/?cid=0x0:0x29af620e2dd32de2,
supermarket,Pusat Perbelanjaan,Kios Sheena,"barat, Kec. Melonguane, Kabupaten Kepulauan Talaud, Sulawesi Utara 95885","Kec. Melonguane, Kabupaten Kepulauan Talaud",SULAWESI UTARA,95885.0,Indonesia,82188488845.0,,,3.9992281,126.6762555,https://maps.google.com/?cid=0x0:0xf3b4d6e5e15d615f,
supermarket,Toko,Toko INJILI MART (Minimarket),"Kec. Melonguane, Kabupaten Kepulauan Talaud, Sulawesi Utara","Kabupaten Kepulauan Talaud, Sulawesi Utara",SULAWESI UTARA,,Indonesia,82347771115.0,,,3.9968418,126.6779604,https://maps.google.com/?cid=0x0:0x960da7093d956cd6,
supermarket,Pusat Perbelanjaan,Toko Sumber Berkat Melonguane,"XMXG+8P2, depan pelabuhan, Kec. Melonguane, Kabupaten Kepulauan Talaud, Sulawesi Utara","Kabupaten Kepulauan Talaud, Sulawesi Utara",SULAWESI UTARA,,Indonesia,81340062298.0,,,3.9982521,126.6767692,https://maps.google.com/?cid=0x0:0x61c3c1eb74ad5773,
supermarket,Minimarket,Toko Surabaya,"XMXG+MX6, Kec. Melonguane, Sulawesi Utara",Sulawesi Utara,SULAWESI UTARA,,Indonesia,,,,3.9991648,126.6773881,https://maps.google.com/?cid=0x0:0xaa5ef2d6bb13ee65,
supermarket,Toko Swalayan,Minimarket MM,"6QGR+GC4, Jl. Larenggam, Beo, Kec. Beo, Kabupaten Kepulauan Talaud, Sulawesi Utara","Kabupaten Kepulauan Talaud, Sulawesi Utara",SULAWESI UTARA,,Indonesia,,,,4.2262711,126.7910732,https://maps.google.com/?cid=0x0:0x66c0d782846ef8c6,
supermarket,supermarket,,,,SULAWESI UTARA,,Indonesia,81243053159.0,,,4.0451855,126.713406,https://maps.google.com/?cid=0x0:0xa11b9de1bd583d9d,
supermarket,Toko Perlengkapan Rumah,TOKO ANUGERAH Melonguane,"XMXG+CVP, Kec. Melonguane, Kabupaten Kepulauan Talaud, Sulawesi Utara","Kabupaten Kepulauan Talaud, Sulawesi Utara",SULAWESI UTARA,,Indonesia,82191656245.0,,,3.9985813,126.6772067,https://maps.google.com/?cid=0x0:0x979ee70e6aa38e59,
supermarket,Minimarket,Toko Hikmah,"XMWJ+825, Melonguane Tim., Sulawesi Utara",Sulawesi Utara,SULAWESI UTARA,,Indonesia,,,,3.9957561,126.6801139,https://maps.google.com/?cid=0x0:0x7e1a11eecf9631ab,
supermarket,Toserba,Toko Makmur Jaya,"XMWH+9F4, Melonguane Tim., Sulawesi Utara",Sulawesi Utara,SULAWESI UTARA,,Indonesia,,,,3.995896,126.6787167,https://maps.google.com/?cid=0x0:0x7b4202727e84f763,
supermarket,Pusat Perbelanjaan,Tripel-N,"2M3J+FV6, Kec. Melonguane, Kabupaten Kepulauan Talaud, Sulawesi Utara","Kabupaten Kepulauan Talaud, Sulawesi Utara",SULAWESI UTARA,,Indonesia,,,,4.0036628,126.6821411,https://maps.google.com/?cid=0x0:0xb12b304b8dfb4fb7,
supermarket,Toko Swalayan,Ceria Mart,"XMXH+WC4, Kec. Melonguane, Sulawesi Utara",Sulawesi Utara,SULAWESI UTARA,,Indonesia,,,,3.9997576,126.678592,https://maps.google.com/?cid=0x0:0x403f623c403e25c4,
supermarket,supermarket,Melonguane Tim.,"Kabupaten Kepulauan Talaud, Sulawesi Utara","Kabupaten Kepulauan Talaud, Sulawesi Utara",SULAWESI UTARA,,Indonesia,,,,4.0485353,126.7711774,https://maps.google.com/?cid=0x0:0xd6ab634a93c1c28d,
supermarket,Pasar,Pasar Melonguane,"XMWH+6X2, Melonguane Tim., Kabupaten Kepulauan Talaud, Sulawesi Utara","Kabupaten Kepulauan Talaud, Sulawesi Utara",SULAWESI UTARA,,Indonesia,,,,3.9955247,126.6799002,https://maps.google.com/?cid=0x0:0x9acdcf4a9f54dccd,
supermarket,Toko Swalayan,La-Tansa Mart,"Melonguane, Kec. Melonguane, Sulawesi Utara 95885",Kec. Melonguane,SULAWESI UTARA,95885.0,Indonesia,81214072607.0,,,4.0006558,126.6796848,https://maps.google.com/?cid=0x0:0x29af620e2dd32de2,
supermarket,Toko Swalayan,Minimarket MM,"6QGR+GC4, Jl. Larenggam, Beo, Kec. Beo, Kabupaten Kepulauan Talaud, Sulawesi Utara","Kabupaten Kepulauan Talaud, Sulawesi Utara",SULAWESI UTARA,,Indonesia,,,,4.2262711,126.7910732,https://maps.google.com/?cid=0x0:0x66c0d782846ef8c6,
supermarket,Pusat Perbelanjaan,Toko Sumber Berkat Melonguane,"XMXG+8P2, depan pelabuhan, Kec. Melonguane, Kabupaten Kepulauan Talaud, Sulawesi Utara","Kabupaten Kepulauan Talaud, Sulawesi Utara",SULAWESI UTARA,,Indonesia,81340062298.0,,,3.9982521,126.6767692,https://maps.google.com/?cid=0x0:0x61c3c1eb74ad5773,
supermarket,Pusat Perbelanjaan,Kios Sheena,"barat, Kec. Melonguane, Kabupaten Kepulauan Talaud, Sulawesi Utara 95885","Kec. Melonguane, Kabupaten Kepulauan Talaud",SULAWESI UTARA,95885.0,Indonesia,82188488845.0,,,3.9992281,126.6762555,https://maps.google.com/?cid=0x0:0xf3b4d6e5e15d615f,
supermarket,Toko,Toko INJILI MART (Minimarket),"Kec. Melonguane, Kabupaten Kepulauan Talaud, Sulawesi Utara","Kabupaten Kepulauan Talaud, Sulawesi Utara",SULAWESI UTARA,,Indonesia,82347771115.0,,,3.9968418,126.6779604,https://maps.google.com/?cid=0x0:0x960da7093d956cd6,
supermarket,Komplek perumahan,Miangas Indonesia,"HH4P+C2Q, Miangas, Kabupaten Kepulauan Talaud, Sulawesi Utara","Kabupaten Kepulauan Talaud, Sulawesi Utara",SULAWESI UTARA,,Indonesia,,,,5.5560786,126.5850946,https://maps.google.com/?cid=0x0:0x2e4f20bdb7f00e32,
supermarket,Fasilitas Militer,Desa Miangas,"HH4P+C2Q, Miangas, Kabupaten Kepulauan Talaud, Sulawesi Utara","Kabupaten Kepulauan Talaud, Sulawesi Utara",SULAWESI UTARA,,Indonesia,,,,5.5560786,126.5850946,https://maps.google.com/?cid=0x0:0xb28ae6ec696d4c92,
supermarket,Toko Swalayan,Multimart Ranotana,"Jl. Stadion Klabat, Ranotana, Kec. Sario, Kota Manado, Sulawesi Utara 95114","Ranotana, Kec. Sario, Kota Manado",SULAWESI UTARA,95114.0,Indonesia,,,,1.4593079,124.837613,https://maps.google.com/?cid=0x0:0x92248971a0c4fc9a,
supermarket,ATM,Atm Bca,"Jl. Stadion Klabat No.442a, Ranotana, Kec. Sario, Kota Manado, Sulawesi Utara 95114","Ranotana, Kec. Sario, Kota Manado",SULAWESI UTARA,95114.0,Indonesia,,,,1.459026,124.8376502,https://maps.google.com/?cid=0x0:0x46cce38a1dc6ba25,
supermarket,ATM,ATM BNI Multi Mart Ranotana,"Jl. Stadion Klabat, Ranotana, Kec. Sario, Kota Manado, Sulawesi Utara","Kota Manado, Sulawesi Utara",SULAWESI UTARA,,Indonesia,2157899999.0,,,1.4587276,124.8377621,https://maps.google.com/?cid=0x0:0xcb8f15d7803dadf0,
supermarket,Toko umum,"Double C"" Mart""","VPR5+PXP, Moronge Sel. II, Kec. Moronge, Kabupaten Kepulauan Talaud, Sulawesi Utara","Kabupaten Kepulauan Talaud, Sulawesi Utara",SULAWESI UTARA,,Indonesia,85298305305.0,,,3.891842,126.7099501,https://maps.google.com/?cid=0x0:0xec5bf00d74e3a4d0,
supermarket,supermarket,Kios Milan,"VPX9+G78, Moronge Sel. I, Kec. Moronge, Kabupaten Kepulauan Talaud, Sulawesi Utara","Kabupaten Kepulauan Talaud, Sulawesi Utara",SULAWESI UTARA,,Indonesia,,,,3.8987938,126.718216,https://maps.google.com/?cid=0x0:0x2f72bfb5661995fc,
supermarket,supermarket,Toko Gracia lirung,"WMQX+533, Lirung Satu, Lirung, Kabupaten Kepulauan Talaud, Sulawesi Utara","Kabupaten Kepulauan Talaud, Sulawesi Utara",SULAWESI UTARA,,Indonesia,,,,3.938105,126.6975925,https://maps.google.com/?cid=0x0:0x871a68f68d44f2ce,
supermarket,Pusat Perbelanjaan,KSB mart,"3PMX+6MP, Pasir Putih, Kec. Maluk, Kabupaten Sumbawa Barat, Nusa Tenggara Bar. 84456","Pasir Putih, Kec. Maluk, Kabupaten Sumbawa Barat",SULAWESI UTARA,84456.0,Indonesia,81236177776.0,,,-8.9169047,116.7492078,https://maps.google.com/?cid=0x0:0xb5090209f15fe391,
supermarket,Toko Swalayan,Golden Pasar Swalayan,"Ruko Boulevard, Jl. Piere Tendean No.5, Wenang Utara, Kec. Wenang, Kota Manado, Sulawesi Utara","Kota Manado, Sulawesi Utara",SULAWESI UTARA,,Indonesia,,,,1.4884317,124.8379329,https://maps.google.com/?cid=0x0:0x2d4fb94562e6ef96,
supermarket,Toko Swalayan,GOLDEN 45,"FRVR+628, Kompleks Pasar 45, Pinaesaan, Kec. Wenang, Kota Manado, Sulawesi Utara","Kota Manado, Sulawesi Utara",SULAWESI UTARA,,Indonesia,,,,1.4930296,124.8400675,https://maps.google.com/?cid=0x0:0xdb669489ea98ed1b,
supermarket,supermarket,Kec. Nanusa,"Kabupaten Kepulauan Talaud, Sulawesi Utara","Kabupaten Kepulauan Talaud, Sulawesi Utara",SULAWESI UTARA,,Indonesia,,,,4.7677023,127.1365803,https://maps.google.com/?cid=0x0:0x9befc8beadc94d3,
supermarket,Toko Swalayan,FreshMart Lifestyle Paniki,"Jl. A.A. Maramis, Paniki Bawah, Kec. Mapanget, Kota Manado, Sulawesi Utara","Kota Manado, Sulawesi Utara",SULAWESI UTARA,,Indonesia,,,,1.5091109,124.9085798,https://maps.google.com/?cid=0x0:0x7e48944d3583f30,
supermarket,Kios,Kios dua basudarah,"9V73+989, Riung, Kec. Tampa Na'mma, Kabupaten Kepulauan Talaud, Sulawesi Utara","Kabupaten Kepulauan Talaud, Sulawesi Utara",SULAWESI UTARA,,Indonesia,,,,4.3634185,126.8533691,https://maps.google.com/?cid=0x0:0x1e3a411b430b7919,
supermarket,Toko,Kios Valin,"Ensem, Kec. Essang Sel., Kabupaten Kepulauan Talaud, Sulawesi Utara 95883","Kec. Essang Sel., Kabupaten Kepulauan Talaud",SULAWESI UTARA,95883.0,Indonesia,81249836405.0,,,4.3742901,126.690039,https://maps.google.com/?cid=0x0:0x54ebb2b296d1e3c2,
supermarket,supermarket,Lapak Mami Ozan,"9RQW+8JJ, Dapihe, Kec. Tampa Na'mma, Kabupaten Kepulauan Talaud, Sulawesi Utara","Kabupaten Kepulauan Talaud, Sulawesi Utara",SULAWESI UTARA,,Indonesia,,,,4.3883263,126.8465019,https://maps.google.com/?cid=0x0:0x15ad1c3bcd44449d,
supermarket,supermarket,FRANS SASUE,"CPF5+7G7, Kuma, Kec. Essang Sel., Kabupaten Kepulauan Talaud, Sulawesi Utara","Kabupaten Kepulauan Talaud, Sulawesi Utara",SULAWESI UTARA,,Indonesia,,,,4.4231682,126.7087982,https://maps.google.com/?cid=0x0:0x45f287539459f42,
supermarket,supermarket,"K_o8aO2MBcTD4-EPmLORiQQ-,null,null,1,null,""https://www.google.com/maps/preview/place/./@-2.44565,117.8888,3986a,13.1y/datau003d!4m2!3m1!1s0x328707f2aaefdf83:0x8dadcd1caabdf6a8""",,,SULAWESI UTARA,,Indonesia,89512740544.0,,,-2.44565,117.8888,https://maps.google.com/?cid=0x0:0x8dadcd1caabdf6a8,
supermarket,Toko Swalayan,Golden Pasar Swalayan,"Ruko Boulevard, Jl. Piere Tendean No.5, Wenang Utara, Kec. Wenang, Kota Manado, Sulawesi Utara","Kota Manado, Sulawesi Utara",SULAWESI UTARA,,Indonesia,,,,1.4884317,124.8379329,https://maps.google.com/?cid=0x0:0x2d4fb94562e6ef96,
supermarket,Toko Swalayan,GS The Fresh Mampang,"Jl. Buncit Raya No.301, Duren Tiga, Kec. Pancoran, Kota Jakarta Selatan, Daerah Khusus Ibukota Jakarta 12760","Duren Tiga, Kec. Pancoran, Kota Jakarta Selatan",SULAWESI UTARA,12760.0,Indonesia,2126961986.0,,,-6.256991,106.828987,https://maps.google.com/?cid=0x0:0x47a84d3b86619147,
supermarket,Toko Kelontong Korea,Mu Gung Hwa Supermarket - Senopati,"Jl. Senayan No.43, RT.8/RW.5, Rw. Bar., Kec. Kby. Baru, Kota Jakarta Selatan, Daerah Khusus Ibukota Jakarta 12180","RT.8/RW.5, Rw. Bar., Kec. Kby. Baru, Kota Jakarta Selatan",SULAWESI UTARA,12180.0,Indonesia,217222214.0,,,-6.2353938,106.8158782,https://maps.google.com/?cid=0x0:0x9ffba79e59c537d5,
supermarket,Toko Swalayan,JJ Mart,"6QFR+QF4, Beo, Kec. Beo, Kabupaten Kepulauan Talaud, Sulawesi Utara","Kabupaten Kepulauan Talaud, Sulawesi Utara",SULAWESI UTARA,,Indonesia,,,,4.224396,126.791213,https://maps.google.com/?cid=0x0:0x3cd7d3243ce6cdfd,
supermarket,supermarket,Farrel,"6V45+F8F, Nunu Utara, Kec. Rainis, Kabupaten Kepulauan Talaud, Sulawesi Utara","Kabupaten Kepulauan Talaud, Sulawesi Utara",SULAWESI UTARA,,Indonesia,,,,4.2061918,126.8582837,https://maps.google.com/?cid=0x0:0x6a1abced9ee0ebf3,
supermarket,supermarket,kios sry,"7WC4+5R4, Tabang, Kec. Rainis, Kabupaten Kepulauan Talaud, Sulawesi Utara","Kabupaten Kepulauan Talaud, Sulawesi Utara",SULAWESI UTARA,,Indonesia,,,,4.2693446,126.9069691,https://maps.google.com/?cid=0x0:0xa25d891c2e67b98b,
supermarket,supermarket,Rainis,"Kec. Rainis, Kabupaten Kepulauan Talaud, Sulawesi Utara","Kabupaten Kepulauan Talaud, Sulawesi Utara",SULAWESI UTARA,,Indonesia,,,,4.2328323,126.8667341,https://maps.google.com/?cid=0x0:0x3c14284c585648f3,
supermarket,supermarket,Kec. Rainis,"Kabupaten Kepulauan Talaud, Sulawesi Utara","Kabupaten Kepulauan Talaud, Sulawesi Utara",SULAWESI UTARA,,Indonesia,,,,4.2321885,126.8662105,https://maps.google.com/?cid=0x0:0x95f7ea5002cef8c3,
supermarket,Toko bahan makanan,AEON Store - Mall @ Alam Sutera,"Jl. Jalur Sutera Bar. No.Kav 16, RT.002/RW.003, Panunggangan Tim., Kec. Pinang, Kota Tangerang, Banten 15143","RT.002/RW.003, Panunggangan Tim., Kec. Pinang, Kota Tangerang",SULAWESI UTARA,15143.0,Indonesia,81110521626.0,,,-6.2207453,106.6549281,https://maps.google.com/?cid=0x0:0xbe1a2ff9a25b7b24,
supermarket,Toko Swalayan,Loading Dock AEON Supermarket@Alam sutera,"Mall @ Alam Sutera, RT.002/RW.003, Panunggangan Tim., Kec. Pinang, Kota Tangerang, Banten 15143","RT.002/RW.003, Panunggangan Tim., Kec. Pinang, Kota Tangerang",SULAWESI UTARA,15143.0,Indonesia,,,,-6.2206343,106.6545576,https://maps.google.com/?cid=0x0:0x195bef7c55db8b16,
supermarket,Toko Swalayan,AEON Food Court - Mall Alam Sutera,"QMH3+JXR, Jl. Jalur Sutera Boulevard, RT.003/RW.006, Panunggangan Tim., Kec. Pinang, Kota Tangerang, Banten 15143","Jl. Jalur Sutera Boulevard, RT.003/RW.006, Panunggangan Tim., Kec. Pinang, Kota Tangerang",SULAWESI UTARA,15143.0,Indonesia,,,,-6.2208843,106.6548976,https://maps.google.com/?cid=0x0:0xb9a98517e58c423d,
supermarket,supermarket,Salibabu,"Kabupaten Kepulauan Talaud, Sulawesi Utara","Kabupaten Kepulauan Talaud, Sulawesi Utara",SULAWESI UTARA,,Indonesia,,,,3.9026876,126.6849359,https://maps.google.com/?cid=0x0:0x5c5d08892b729657,
supermarket,Toko bahan makanan,"Toko Pintu Berkat"" Lirung""","Jl. Tucunan No.20, Lirung Satu, Lirung, Kabupaten Kepulauan Talaud, Sulawesi Utara 95871","Lirung Satu, Lirung, Kabupaten Kepulauan Talaud",SULAWESI UTARA,95871.0,Indonesia,85240616150.0,,,3.9384792,126.6963942,https://maps.google.com/?cid=0x0:0xfc15601e13b08cf4,
supermarket,Toko bahan makanan,Toko Tigaputra,"Lirung Satu, Lirung, Kabupaten Kepulauan Talaud, Sulawesi Utara","Kabupaten Kepulauan Talaud, Sulawesi Utara",SULAWESI UTARA,,Indonesia,81340489808.0,,,3.9376578,126.6985736,https://maps.google.com/?cid=0x0:0x2d9cb8ffb06d820f,
supermarket,supermarket,Toko Sukamaju Lirung,"WMQW+9JW, Lirung Satu, Lirung, Kabupaten Kepulauan Talaud, Sulawesi Utara","Kabupaten Kepulauan Talaud, Sulawesi Utara",SULAWESI UTARA,,Indonesia,,,,3.9384783,126.6965783,https://maps.google.com/?cid=0x0:0x38301063e6f9d4fb,
supermarket,supermarket,Pulau Salibabu,"Salibabu Utara, Salibabu, Kabupaten Kepulauan Talaud, Sulawesi Utara","Kabupaten Kepulauan Talaud, Sulawesi Utara",SULAWESI UTARA,,Indonesia,,,,3.910278,126.684722,https://maps.google.com/?cid=0x0:0xa5e62bbb7c693fe5,
supermarket,Toko umum,"Double C"" Mart""","VPR5+PXP, Moronge Sel. II, Kec. Moronge, Kabupaten Kepulauan Talaud, Sulawesi Utara","Kabupaten Kepulauan Talaud, Sulawesi Utara",SULAWESI UTARA,,Indonesia,85298305305.0,,,3.891842,126.7099501,https://maps.google.com/?cid=0x0:0xec5bf00d74e3a4d0,
supermarket,Kios,Kios 24 jam,"WP28+J23, Moronge Sel. II, Kec. Moronge, Kabupaten Kepulauan Talaud, Sulawesi Utara","Kabupaten Kepulauan Talaud, Sulawesi Utara",SULAWESI UTARA,,Indonesia,81355059540.0,,,3.9015047,126.7150339,https://maps.google.com/?cid=0x0:0x26bbfae17c233d9a,
supermarket,supermarket,Kel. Lumakeki - Lambi,"WP28+5R5, Moronge Sel. I, Kec. Moronge, Kabupaten Kepulauan Talaud, Sulawesi Utara","Kabupaten Kepulauan Talaud, Sulawesi Utara",SULAWESI UTARA,,Indonesia,,,,3.8996006,126.7170019,https://maps.google.com/?cid=0x0:0x457efc57c3af2e24,
supermarket,supermarket,Warung Kangki,"RMRV+Q7M, Bitunuris, Salibabu, Kabupaten Kepulauan Talaud, Sulawesi Utara","Kabupaten Kepulauan Talaud, Sulawesi Utara",SULAWESI UTARA,,Indonesia,,,,3.841957,126.6931859,https://maps.google.com/?cid=0x0:0xc88a1ddb20980c65,
supermarket,supermarket,Rumah Mericy,"Bitunuris Sel., Salibabu, Kabupaten Kepulauan Talaud, Sulawesi Utara","Kabupaten Kepulauan Talaud, Sulawesi Utara",SULAWESI UTARA,,Indonesia,81286222977.0,,,3.8377446,126.6919478,https://maps.google.com/?cid=0x0:0xc6129fb96bf89bbf,
supermarket,supermarket,Kec. Tampa Na'mma,"Kabupaten Kepulauan Talaud, Sulawesi Utara","Kabupaten Kepulauan Talaud, Sulawesi Utara",SULAWESI UTARA,,Indonesia,,,,4.3643806,126.8527997,https://maps.google.com/?cid=0x0:0xaa0bfff86571a14c,
supermarket,Pasar,Pasar Desa Tabang,"Desa Tambang Kecamatan Rainis, Talaud, Kabupaten Kepulauan Talaud, Sulawesi Utara 95882","Talaud, Kabupaten Kepulauan Talaud",SULAWESI UTARA,95882.0,Indonesia,85374161343.0,,,4.2693107,126.9083437,https://maps.google.com/?cid=0x0:0xd54c59765e9ca3f7,
supermarket,Toko Swalayan,FreshMart Lifestyle Paniki,"Jl. A.A. Maramis, Paniki Bawah, Kec. Mapanget, Kota Manado, Sulawesi Utara","Kota Manado, Sulawesi Utara",SULAWESI UTARA,,Indonesia,,,,1.5091109,124.9085798,https://maps.google.com/?cid=0x0:0x7e48944d3583f30,
supermarket,Kios,Kios dua basudarah,"9V73+989, Riung, Kec. Tampa Na'mma, Kabupaten Kepulauan Talaud, Sulawesi Utara","Kabupaten Kepulauan Talaud, Sulawesi Utara",SULAWESI UTARA,,Indonesia,,,,4.3634185,126.8533691,https://maps.google.com/?cid=0x0:0x1e3a411b430b7919,
supermarket,Toko Swalayan,Golden Pasar Swalayan,"Ruko Boulevard, Jl. Piere Tendean No.5, Wenang Utara, Kec. Wenang, Kota Manado, Sulawesi Utara","Kota Manado, Sulawesi Utara",SULAWESI UTARA,,Indonesia,,,,1.4884317,124.8379329,https://maps.google.com/?cid=0x0:0x2d4fb94562e6ef96,
