Category,Real Category,Business Name,Address,City,State,Postal Code,Country,Phone,Email,Website,Latitude,Longitude,Map Link,Details Link
komplek housing,komplek housing,Kec. Beo,"Kabupaten Kepulauan Talaud, Sulawesi Utara","Kabupaten Kepulauan Talaud, Sulawesi Utara",SULAWESI UTARA,,Indonesia,,,,4.2257007,126.7923361,https://maps.google.com/?cid=0x0:0x94ececa1a20303fd,
komplek housing,Komplek perumahan,Pondok Gede Housing 1,"Jl. Cipta Raya No.45-3, RT.001/RW.003, Jatirahayu, Kec. Pd. Melati, Kota Bks, Jawa Barat 17414","RT.001/RW.003, Jatirahayu, Kec. Pd. Melati, Kota Bks",SULAWESI UTARA,17414.0,Indonesia,,,,-6.2852504,106.9163397,https://maps.google.com/?cid=0x0:0x3132afedbf38cd61,
komplek housing,Komplek perumahan,Pondok Gede Housing II,"Housing II, Jl. Raya Hankam, RT.001/RW.004, Jatirahayu, Pondok Gede, Bekasi, West Java","Kota Bks, Jawa Barat",SULAWESI UTARA,,Indonesia,,,,-6.2876701,106.9147674,https://maps.google.com/?cid=0x0:0x2a52e601c20d18f2,
komplek housing,komplek housing,Kec. Beo Sel.,"Kabupaten Kepulauan Talaud, Sulawesi Utara","Kabupaten Kepulauan Talaud, Sulawesi Utara",SULAWESI UTARA,,Indonesia,,,,4.1825062,126.7711774,https://maps.google.com/?cid=0x0:0x7fdc62b4f90caf2d,
komplek housing,komplek housing,Beo Utara,"Kabupaten Kepulauan Talaud, Sulawesi Utara","Kabupaten Kepulauan Talaud, Sulawesi Utara",SULAWESI UTARA,,Indonesia,,,,4.3090871,126.7604027,https://maps.google.com/?cid=0x0:0x5f65587e5b3ae940,
komplek housing,komplek housing,Kec. Damau,"Kabupaten Kepulauan Talaud, Sulawesi Utara","Kabupaten Kepulauan Talaud, Sulawesi Utara",SULAWESI UTARA,,Indonesia,,,,3.7861379,126.8370164,https://maps.google.com/?cid=0x0:0x923c91966523787a,
komplek housing,Komplek perumahan,Damas Residence,"Jl. Villa Parung Hijau, Pd. Udik, Kec. Kemang, Kabupaten Bogor, Jawa Barat 16310","Pd. Udik, Kec. Kemang, Kabupaten Bogor",SULAWESI UTARA,16310.0,Indonesia,,,,-6.4894483,106.7346662,https://maps.google.com/?cid=0x0:0x2aec3daa1a7730be,
komplek housing,Perumahan,CLUSTER SUN MANSION,"Jl. Jatayu, Tajurhalang, Kec. Tajur Halang, Kabupaten Bogor, Jawa Barat 16320","Tajurhalang, Kec. Tajur Halang, Kabupaten Bogor",SULAWESI UTARA,16320.0,Indonesia,81993703707.0,,,-6.4802922,106.7569315,https://maps.google.com/?cid=0x0:0x53072ae77fdc0320,
komplek housing,Pembangunan Perumahan,Rumah Kel.Samade-Umbase,"GQCX+Q69, Taturan, Kec. Gemeh, Kabupaten Kepulauan Talaud, Sulawesi Utara","Kabupaten Kepulauan Talaud, Sulawesi Utara",SULAWESI UTARA,,Indonesia,,,,4.5219029,126.7981073,https://maps.google.com/?cid=0x0:0x1c23c08b57f4d826,
komplek housing,Perhimpunan Pengembang Perumahan,Kel Sasube Alimbuwu,"GQGG+R9M, Bambung, Kec. Gemeh, Kabupaten Kepulauan Talaud, Sulawesi Utara","Kabupaten Kepulauan Talaud, Sulawesi Utara",SULAWESI UTARA,,Indonesia,,,,4.5270875,126.7759219,https://maps.google.com/?cid=0x0:0xa57aa75606b1b40d,
komplek housing,komplek housing,Komplek Housing,"Blok Bojong Nangka I, Jl. Ring Rudal Blok Bojong Nangka I No.68, RT.001/RW.007, Jatirahayu, Kec. Pd. Melati, Kota Bks, Jawa Barat 17414","Jl. Ring Rudal Blok Bojong Nangka I No.68, RT.001/RW.007, Jatirahayu, Kec. Pd. Melati, Kota Bks",SULAWESI UTARA,17414.0,Indonesia,,,,-6.293724,106.9165114,https://maps.google.com/?cid=0x0:0x9c50464976dee674,
komplek housing,komplek housing,Kec. Essang,"Kabupaten Kepulauan Talaud, Sulawesi Utara","Kabupaten Kepulauan Talaud, Sulawesi Utara",SULAWESI UTARA,,Indonesia,,,,4.4565269,126.730993,https://maps.google.com/?cid=0x0:0x7405c1afd2f8476e,
komplek housing,Perumahan,Perum Bukit Nusa Indah,"Jl. Jati, Jl. Bukit Raya Jl. Nusa Indah No.1118, Serua, Ciputat, South Tangerang City, Banten 15414","Jl. Bukit Raya Jl. Nusa Indah No.1118, Serua, Ciputat, South Tangerang City",SULAWESI UTARA,15414.0,Indonesia,,,,-6.3067095,106.7102329,https://maps.google.com/?cid=0x0:0xf1933afd74303211,
komplek housing,Agen real estat,"Grand Nusa Indah Situsari, Cileungsi","H2F4+4G2, Setu Sari, Kec. Cileungsi, Kabupaten Bogor, Jawa Barat 16820","Setu Sari, Kec. Cileungsi, Kabupaten Bogor",SULAWESI UTARA,16820.0,Indonesia,,,,-6.4272265,107.0062769,https://maps.google.com/?cid=0x0:0x7d958226adab9cb,
komplek housing,komplek housing,Kec. Essang Sel.,"Kabupaten Kepulauan Talaud, Sulawesi Utara","Kabupaten Kepulauan Talaud, Sulawesi Utara",SULAWESI UTARA,,Indonesia,,,,4.4248507,126.7095716,https://maps.google.com/?cid=0x0:0x109f9417f7325f46,
komplek housing,komplek housing,Kec. Kabaruan,"Kabupaten Kepulauan Talaud, Sulawesi Utara","Kabupaten Kepulauan Talaud, Sulawesi Utara",SULAWESI UTARA,,Indonesia,,,,3.8385519,126.7852295,https://maps.google.com/?cid=0x0:0x8c347d9cb11e4ad5,
komplek housing,komplek housing,Kalongan,"Kabupaten Kepulauan Talaud, Sulawesi Utara","Kabupaten Kepulauan Talaud, Sulawesi Utara",SULAWESI UTARA,,Indonesia,,,,4.0179493,126.6363811,https://maps.google.com/?cid=0x0:0x3b091707f1e05384,
komplek housing,komplek housing,Kalongan,"Kalongan, Kabupaten Kepulauan Talaud, Sulawesi Utara","Kabupaten Kepulauan Talaud, Sulawesi Utara",SULAWESI UTARA,,Indonesia,,,,4.0352503,126.6255869,https://maps.google.com/?cid=0x0:0x7f63dc8d1cf266c0,
komplek housing,Perhimpunan Pengembang Perumahan,New Kalongan Residence,"Jl. Bukit Leyangan Indah XIV No.1375, Gn. Pabongan, Leyangan, Kec. Ungaran Tim., Kabupaten Semarang, Jawa Tengah 50519","Gn. Pabongan, Leyangan, Kec. Ungaran Tim., Kabupaten Semarang",SULAWESI UTARA,50519.0,Indonesia,,,,-7.1441389,110.4394722,https://maps.google.com/?cid=0x0:0x688d669bd1f32486,
komplek housing,komplek housing,Lirung,"Kabupaten Kepulauan Talaud, Sulawesi Utara","Kabupaten Kepulauan Talaud, Sulawesi Utara",SULAWESI UTARA,,Indonesia,,,,3.9572072,126.6795425,https://maps.google.com/?cid=0x0:0x210eac5f2d6150d0,
komplek housing,Komplek perumahan,Lirung,"XM4H+VRM, Lirung Matane, Lirung, Kabupaten Kepulauan Talaud, Sulawesi Utara","Kabupaten Kepulauan Talaud, Sulawesi Utara",SULAWESI UTARA,,Indonesia,,,,3.9572072,126.6795425,https://maps.google.com/?cid=0x0:0x91425ae1de798dc1,
komplek housing,Komplek perumahan,Regen Mararu,"Desa No.1, RW.1, Moronge Sel. II, Kec. Moronge, Kabupaten Kepulauan Talaud, Sulawesi Utara 95871","RW.1, Moronge Sel. II, Kec. Moronge, Kabupaten Kepulauan Talaud",SULAWESI UTARA,95871.0,Indonesia,,,,3.897693,126.717879,https://maps.google.com/?cid=0x0:0xe25f0de8a9367cd2,
komplek housing,Komplek perumahan,Rumah Anjeli,"VPW8+PW8, Moronge Sel. II, Kec. Moronge, Kabupaten Kepulauan Talaud, Sulawesi Utara","Kabupaten Kepulauan Talaud, Sulawesi Utara",SULAWESI UTARA,,Indonesia,,,,3.8967794,126.7173141,https://maps.google.com/?cid=0x0:0xfc3801c6e9bce05f,
komplek housing,komplek housing,Kec. Melonguane,"Kabupaten Kepulauan Talaud, Sulawesi Utara","Kabupaten Kepulauan Talaud, Sulawesi Utara",SULAWESI UTARA,,Indonesia,,,,4.0732215,126.6898783,https://maps.google.com/?cid=0x0:0xcefc20000c591b01,
komplek housing,Komplek perumahan,Melonguane,"XMWH+VG2, Melonguane, Kabupaten Kepulauan Talaud, Sulawesi Utara","Kabupaten Kepulauan Talaud, Sulawesi Utara",SULAWESI UTARA,,Indonesia,,,,3.9971291,126.6787677,https://maps.google.com/?cid=0x0:0x76b84e338c41a962,
komplek housing,komplek housing,Rumah Kel.Tiolong-Gala,"XMXR+V2C, Kec. Melonguane, Kabupaten Kepulauan Talaud, Sulawesi Utara 95885","Kec. Melonguane, Kabupaten Kepulauan Talaud",SULAWESI UTARA,95885.0,Indonesia,,,,3.9992683,126.690147,https://maps.google.com/?cid=0x0:0x6905cf3a5853c39d,
komplek housing,Komplek perumahan,Melong timur,"XMXM+7JW, Jl, Kec. Melonguane, Kabupaten Kepulauan Talaud, Sulawesi Utara","Kabupaten Kepulauan Talaud, Sulawesi Utara",SULAWESI UTARA,,Indonesia,,,,3.9981434,126.6840607,https://maps.google.com/?cid=0x0:0xc44da3292168e3e7,
komplek housing,Komplek perumahan,Melonguane,"XMWH+VG2, Melonguane, Kabupaten Kepulauan Talaud, Sulawesi Utara","Kabupaten Kepulauan Talaud, Sulawesi Utara",SULAWESI UTARA,,Indonesia,,,,3.9971291,126.6787677,https://maps.google.com/?cid=0x0:0x76b84e338c41a962,
komplek housing,Komplek perumahan,Gevio Pe Rumah,"XMVP+W4W, Melonguane Tim., Kabupaten Kepulauan Talaud, Sulawesi Utara","Kabupaten Kepulauan Talaud, Sulawesi Utara",SULAWESI UTARA,,Indonesia,,,,3.9949809,126.6852588,https://maps.google.com/?cid=0x0:0xf4eea1a17a4ab9f,
komplek housing,Fasilitas Militer,Desa Miangas,"HH4P+C2Q, Miangas, Kabupaten Kepulauan Talaud, Sulawesi Utara","Kabupaten Kepulauan Talaud, Sulawesi Utara",SULAWESI UTARA,,Indonesia,,,,5.5560786,126.5850946,https://maps.google.com/?cid=0x0:0xb28ae6ec696d4c92,
komplek housing,Kantor Perusahaan,Posad Miangas,"HH3J+5JX, Miangas, Kabupaten Kepulauan Talaud, Sulawesi Utara","Kabupaten Kepulauan Talaud, Sulawesi Utara",SULAWESI UTARA,,Indonesia,,,,5.5542309,126.5821232,https://maps.google.com/?cid=0x0:0xf45a48813ea7a577,
komplek housing,komplek housing,Pulau Miangas,"Miangas, Kabupaten Kepulauan Talaud, Sulawesi Utara","Kabupaten Kepulauan Talaud, Sulawesi Utara",SULAWESI UTARA,,Indonesia,,,,5.5560786,126.5850946,https://maps.google.com/?cid=0x0:0x412675778b0a52d5,
komplek housing,komplek housing,Kec. Moronge,"Kabupaten Kepulauan Talaud, Sulawesi Utara","Kabupaten Kepulauan Talaud, Sulawesi Utara",SULAWESI UTARA,,Indonesia,,,,3.9005667,126.7183239,https://maps.google.com/?cid=0x0:0x80a05ef21717a396,
komplek housing,komplek housing,Moronge,"Kec. Moronge, Kabupaten Kepulauan Talaud, Sulawesi Utara","Kabupaten Kepulauan Talaud, Sulawesi Utara",SULAWESI UTARA,,Indonesia,,,,3.9305122,126.7118971,https://maps.google.com/?cid=0x0:0x5d8b18fec0d1b37f,
komplek housing,Komplek perumahan,Green Permata Residence,"Jayasampurna, Kec. Serang Baru, Kabupaten Bekasi, Jawa Barat 17330","Kec. Serang Baru, Kabupaten Bekasi",SULAWESI UTARA,17330.0,Indonesia,,,,-6.3712501,107.0858766,https://maps.google.com/?cid=0x0:0xe64ce93d357bf5d4,
komplek housing,Komplek perumahan,Kp. Rawa bogo,"Jl. Kodau 5 ambarapura, kp raeabogo, Kec. Jatiasih, Kota Bks, Jawa Barat 17422","kp raeabogo, Kec. Jatiasih, Kota Bks",SULAWESI UTARA,17422.0,Indonesia,,,,-6.2992021,106.9388135,https://maps.google.com/?cid=0x0:0x44d65d9747f4a48f,
komplek housing,Komplek perumahan,PERUM CITRA SWARNA REGENCY,"Jl. Melati Raya Timur I, Karangsatria, Kec. Tambun Utara, Kabupaten Bekasi, Jawa Barat 17510","Karangsatria, Kec. Tambun Utara, Kabupaten Bekasi",SULAWESI UTARA,17510.0,Indonesia,,,,-6.2260445,107.038521,https://maps.google.com/?cid=0x0:0x338e99da85feee18,
komplek housing,Komplek perumahan,Rumah Babelan,"Puri Gardenia, Jl. Pinus blok G1 No.18, RT.003/RW.019Babelan KotaKec, Teluk Pucung, Babelan, Bekasi Regency, West Java 17610","Jl. Pinus blok G1 No.18, RT.003/RW.019Babelan KotaKec, Teluk Pucung, Babelan, Bekasi Regency",SULAWESI UTARA,17610.0,Indonesia,,,,-6.2032791,107.0322547,https://maps.google.com/?cid=0x0:0x7b32577276ac34bf,
komplek housing,Perumahan,Perumahan Mutiara Gading City,"Cluster Madrid Perumahan Jl. Mutiara Gading City Blok Q09 No.56, Kedungjaya, Kec. Babelan, Kabupaten Bekasi, Jawa Barat","Kabupaten Bekasi, Jawa Barat",SULAWESI UTARA,,Indonesia,,,,-6.1374713,107.0177592,https://maps.google.com/?cid=0x0:0x5d240b57db5167ef,
komplek housing,Komplek perumahan,Perumahan Permata Nusa indah Cibitung,"Jl. Raya Kali CBL Jl. Raya Emerald No.11 Blk. E, Muktiwari, Kec. Cibitung, Kabupaten Bekasi, Jawa Barat 17520","Muktiwari, Kec. Cibitung, Kabupaten Bekasi",SULAWESI UTARA,17520.0,Indonesia,85774223526.0,,,-6.2294064,107.1002492,https://maps.google.com/?cid=0x0:0xe4488162b5c9b8e7,
komplek housing,komplek housing,Komplek Housing,"Blok Bojong Nangka I, Jl. Ring Rudal Blok Bojong Nangka I No.68, RT.001/RW.007, Jatirahayu, Kec. Pd. Melati, Kota Bks, Jawa Barat 17414","Jl. Ring Rudal Blok Bojong Nangka I No.68, RT.001/RW.007, Jatirahayu, Kec. Pd. Melati, Kota Bks",SULAWESI UTARA,17414.0,Indonesia,,,,-6.293724,106.9165114,https://maps.google.com/?cid=0x0:0x9c50464976dee674,
komplek housing,komplek housing,Kec. Nanusa,"Kabupaten Kepulauan Talaud, Sulawesi Utara","Kabupaten Kepulauan Talaud, Sulawesi Utara",SULAWESI UTARA,,Indonesia,,,,4.7677023,127.1365803,https://maps.google.com/?cid=0x0:0x9befc8beadc94d3,
komplek housing,komplek housing,Pulutan,"Kabupaten Kepulauan Talaud, Sulawesi Utara","Kabupaten Kepulauan Talaud, Sulawesi Utara",SULAWESI UTARA,,Indonesia,,,,4.147639,126.797584,https://maps.google.com/?cid=0x0:0xc60198615aafe127,
komplek housing,komplek housing,Kec. Tebet,"Kota Jakarta Selatan, Daerah Khusus Ibukota Jakarta","Kota Jakarta Selatan, Daerah Khusus Ibukota Jakarta",SULAWESI UTARA,,Indonesia,,,,-6.2251223,106.8549881,https://maps.google.com/?cid=0x0:0xd575e31c807295f9,
komplek housing,komplek housing,Kec. Pulutan,"Kabupaten Kepulauan Talaud, Sulawesi Utara","Kabupaten Kepulauan Talaud, Sulawesi Utara",SULAWESI UTARA,,Indonesia,,,,4.1450999,126.7951954,https://maps.google.com/?cid=0x0:0x9937d9b348ccafdf,
komplek housing,Komplek perumahan,Perumahan Kementerian Keuangan,"Kompleks Keuangan, Jl. Perhubungan, Jati, Kec. Pulo Gadung, Kota Jakarta Timur, Daerah Khusus Ibukota Jakarta 13220","Jl. Perhubungan, Jati, Kec. Pulo Gadung, Kota Jakarta Timur",SULAWESI UTARA,13220.0,Indonesia,,,,-6.2018781,106.8972666,https://maps.google.com/?cid=0x0:0x3b999ac667d7842a,
komplek housing,Komplek perumahan,Komp. Billymoon,"Blok CG2, Jl. Janur IX No.9, RT.6/RW.10, Pd. Klp., Kec. Duren Sawit, Kota Jakarta Timur, Daerah Khusus Ibukota Jakarta 13450","Jl. Janur IX No.9, RT.6/RW.10, Pd. Klp., Kec. Duren Sawit, Kota Jakarta Timur",SULAWESI UTARA,13450.0,Indonesia,82125895459.0,,,-6.2413135,106.9311041,https://maps.google.com/?cid=0x0:0x80535254e3930ab5,
komplek housing,Pengembang Realestat,Royal Residence,"Royal Residence A 6 No. 20 RT 999 / RW 999 Kel, RT.2/RW.4, Pulo Gebang, Kec. Cakung, Kota Jakarta Timur, Daerah Khusus Ibukota Jakarta 13950","RT.2/RW.4, Pulo Gebang, Kec. Cakung, Kota Jakarta Timur",SULAWESI UTARA,13950.0,Indonesia,,,,-6.1922562,106.9625296,https://maps.google.com/?cid=0x0:0xabc18559e1de50b,
komplek housing,Pengembang Realestat,Taman Pasadenia,"Jl. Pulo Mas Timur No.8 10, RT.13/RW.11, Kayu Putih, Kec. Pulo Gadung, Kota Jakarta Timur, Daerah Khusus Ibukota Jakarta 13210","RT.13/RW.11, Kayu Putih, Kec. Pulo Gadung, Kota Jakarta Timur",SULAWESI UTARA,13210.0,Indonesia,214703625.0,,,-6.1814556,106.8850241,https://maps.google.com/?cid=0x0:0x2f1e8bac4a6b0adb,
komplek housing,Kompleks Townhouse,Rumah Cluster,"Cluster Adhigriya Terrace, C5, Jl. Sepakat X No.RT.6, RW.1, Cilangkap, Kec. Cipayung, Kota Jakarta Timur, Daerah Khusus Ibukota Jakarta 13870","C5, Jl. Sepakat X No.RT.6, RW.1, Cilangkap, Kec. Cipayung, Kota Jakarta Timur",SULAWESI UTARA,13870.0,Indonesia,,,,-6.3435643,106.9014804,https://maps.google.com/?cid=0x0:0xce1a268101190b6f,
komplek housing,komplek housing,Komplek Housing,"Blok Bojong Nangka I, Jl. Ring Rudal Blok Bojong Nangka I No.68, RT.001/RW.007, Jatirahayu, Kec. Pd. Melati, Kota Bks, Jawa Barat 17414","Jl. Ring Rudal Blok Bojong Nangka I No.68, RT.001/RW.007, Jatirahayu, Kec. Pd. Melati, Kota Bks",SULAWESI UTARA,17414.0,Indonesia,,,,-6.293724,106.9165114,https://maps.google.com/?cid=0x0:0x9c50464976dee674,
komplek housing,komplek housing,Kec. Rainis,"Kabupaten Kepulauan Talaud, Sulawesi Utara","Kabupaten Kepulauan Talaud, Sulawesi Utara",SULAWESI UTARA,,Indonesia,,,,4.2321885,126.8662105,https://maps.google.com/?cid=0x0:0x95f7ea5002cef8c3,
komplek housing,komplek housing,Rainis,"Kec. Rainis, Kabupaten Kepulauan Talaud, Sulawesi Utara","Kabupaten Kepulauan Talaud, Sulawesi Utara",SULAWESI UTARA,,Indonesia,,,,4.2328323,126.8667341,https://maps.google.com/?cid=0x0:0x3c14284c585648f3,
komplek housing,Komplek perumahan,Komplek Abadi,"Jl. Kolonel Sugiono No.64, RT.5/RW.4, Duren Sawit, Kec. Duren Sawit, Kota Jakarta Timur, Daerah Khusus Ibukota Jakarta 13440","RT.5/RW.4, Duren Sawit, Kec. Duren Sawit, Kota Jakarta Timur",SULAWESI UTARA,13440.0,Indonesia,,,,-6.2263602,106.9090587,https://maps.google.com/?cid=0x0:0x411a933e73c7ea82,
komplek housing,komplek housing,Komplek Housing,"Blok Bojong Nangka I, Jl. Ring Rudal Blok Bojong Nangka I No.68, RT.001/RW.007, Jatirahayu, Kec. Pd. Melati, Kota Bks, Jawa Barat 17414","Jl. Ring Rudal Blok Bojong Nangka I No.68, RT.001/RW.007, Jatirahayu, Kec. Pd. Melati, Kota Bks",SULAWESI UTARA,17414.0,Indonesia,,,,-6.293724,106.9165114,https://maps.google.com/?cid=0x0:0x9c50464976dee674,
komplek housing,komplek housing,Salibabu,"Kabupaten Kepulauan Talaud, Sulawesi Utara","Kabupaten Kepulauan Talaud, Sulawesi Utara",SULAWESI UTARA,,Indonesia,,,,3.9026876,126.6849359,https://maps.google.com/?cid=0x0:0x5c5d08892b729657,
komplek housing,Kantor Pemerintah,Desa Salibabu Utara,"WM3M+3XF, Salibabu Utara, Salibabu, Kabupaten Kepulauan Talaud, Sulawesi Utara","Kabupaten Kepulauan Talaud, Sulawesi Utara",SULAWESI UTARA,,Indonesia,,,,3.9026876,126.6849359,https://maps.google.com/?cid=0x0:0x6fce594d824c989f,
komplek housing,Komplek perumahan,Kel. Larumpaa - Wasida,"Desa No.1, RW.1, Moronge II, Kec. Moronge, Kabupaten Kepulauan Talaud, Sulawesi Utara 95871","RW.1, Moronge II, Kec. Moronge, Kabupaten Kepulauan Talaud",SULAWESI UTARA,95871.0,Indonesia,,,,3.898132,126.718241,https://maps.google.com/?cid=0x0:0x4908780c863cde81,
komplek housing,Komplek perumahan,Regen Mararu,"Desa No.1, RW.1, Moronge Sel. II, Kec. Moronge, Kabupaten Kepulauan Talaud, Sulawesi Utara 95871","RW.1, Moronge Sel. II, Kec. Moronge, Kabupaten Kepulauan Talaud",SULAWESI UTARA,95871.0,Indonesia,,,,3.897693,126.717879,https://maps.google.com/?cid=0x0:0xe25f0de8a9367cd2,
komplek housing,Komplek perumahan,Kel. Mandiri-Aiba,"VM6P+J87, Dusun III, Dalum, Salibabu, Kabupaten Kepulauan Talaud, Sulawesi Utara","Kabupaten Kepulauan Talaud, Sulawesi Utara",SULAWESI UTARA,,Indonesia,,,,3.8615325,126.6857857,https://maps.google.com/?cid=0x0:0x90f3a1304e70a75,
komplek housing,Komplek perumahan,Rumah pak Kevin larumpaa,"VPQ7+W77, Moronge Sel. II, Kabupaten Kepulauan Talaud, Sulawesi Utara","Kabupaten Kepulauan Talaud, Sulawesi Utara",SULAWESI UTARA,,Indonesia,,,,3.889776,126.7131758,https://maps.google.com/?cid=0x0:0x9c985c94feef1fbb,
komplek housing,Komplek perumahan,Home Linomahera pak camat tampan'amma,"6VJ6+6X3, Rainis, Kec. Rainis, Kabupaten Kepulauan Talaud, Sulawesi Utara","Kabupaten Kepulauan Talaud, Sulawesi Utara",SULAWESI UTARA,,Indonesia,,,,4.2305065,126.8624102,https://maps.google.com/?cid=0x0:0xed739f1f80f2e94d,
komplek housing,Komplek perumahan,Home Ramanda.Leleran,"5RVQ+H2W, Desa Alo, Kec. Rainis, Kabupaten Kepulauan Talaud",Kabupaten Kepulauan Talaud,SULAWESI UTARA,,Indonesia,,,,4.1939911,126.8375819,https://maps.google.com/?cid=0x0:0x3ecfc3cb5ce8699f,
komplek housing,Pembangunan Perumahan,Green Lavender Sukamekar C1 no 12,"R3W3+FG, Sukamekar, Kec. Sukawangi, Kabupaten Bekasi, Jawa Barat","Kabupaten Bekasi, Jawa Barat",SULAWESI UTARA,,Indonesia,,,,-6.153807,107.053756,https://maps.google.com/?cid=0x0:0x19449aa8b0a454c5,
komplek housing,komplek housing,Komplek Housing,"Blok Bojong Nangka I, Jl. Ring Rudal Blok Bojong Nangka I No.68, RT.001/RW.007, Jatirahayu, Kec. Pd. Melati, Kota Bks, Jawa Barat 17414","Jl. Ring Rudal Blok Bojong Nangka I No.68, RT.001/RW.007, Jatirahayu, Kec. Pd. Melati, Kota Bks",SULAWESI UTARA,17414.0,Indonesia,,,,-6.293724,106.9165114,https://maps.google.com/?cid=0x0:0x9c50464976dee674,
perumahan,perumahan,Kec. Beo,"Kabupaten Kepulauan Talaud, Sulawesi Utara","Kabupaten Kepulauan Talaud, Sulawesi Utara",SULAWESI UTARA,,Indonesia,,,,4.2257007,126.7923361,https://maps.google.com/?cid=0x0:0x94ececa1a20303fd,
perumahan,Komplek perumahan,Rige Puansalaing,"6QMW+R9W, Beo, Kec. Beo, Kabupaten Kepulauan Talaud, Sulawesi Utara","Kabupaten Kepulauan Talaud, Sulawesi Utara",SULAWESI UTARA,,Indonesia,,,,4.2346132,126.7959521,https://maps.google.com/?cid=0x0:0xe658e1a4d46a0e95,
perumahan,Komplek perumahan,Kampung saiu,"6QHV+2V5, Bowombaru, Kec. Beo, Kabupaten Kepulauan Talaud, Sulawesi Utara","Kabupaten Kepulauan Talaud, Sulawesi Utara",SULAWESI UTARA,,Indonesia,,,,4.227521,126.7947458,https://maps.google.com/?cid=0x0:0x73aed81df5e1108f,
perumahan,Komplek perumahan,Resto family,"6QJW+2HF, Beo, Kec. Beo, Kabupaten Kepulauan Talaud, Sulawesi Utara","Kabupaten Kepulauan Talaud, Sulawesi Utara",SULAWESI UTARA,,Indonesia,,,,4.2303424,126.7960527,https://maps.google.com/?cid=0x0:0xf4739da91c9bab94,
perumahan,Komplek perumahan,Rumah Flo,"6RF4+VF3, Beo Bar., Kec. Beo, Kabupaten Kepulauan Talaud, Sulawesi Utara","Kabupaten Kepulauan Talaud, Sulawesi Utara",SULAWESI UTARA,,Indonesia,,,,4.224633,126.8061843,https://maps.google.com/?cid=0x0:0x8e9382581c2f3079,
perumahan,Komplek perumahan,Samping ktr camat,"6QHR+8M9, Kec. Beo, Kabupaten Kepulauan Talaud, Sulawesi Utara","Kabupaten Kepulauan Talaud, Sulawesi Utara",SULAWESI UTARA,,Indonesia,,,,4.2280052,126.792138,https://maps.google.com/?cid=0x0:0xd101bb97548ac69,
perumahan,Komplek perumahan,Om Ape Home,"7Q2Q+WHP, Bantik, Kec. Beo, Kabupaten Kepulauan Talaud, Sulawesi Utara","Kabupaten Kepulauan Talaud, Sulawesi Utara",SULAWESI UTARA,,Indonesia,,,,4.2519295,126.7896694,https://maps.google.com/?cid=0x0:0xf0239f0590281f0,
perumahan,Komplek perumahan,Kel.Bawiling-Ginto/Kel.Sinedu-Bawiling,"6QCV+QGM, Beo Bar., Kec. Beo, Kabupaten Kepulauan Talaud, Sulawesi Utara","Kabupaten Kepulauan Talaud, Sulawesi Utara",SULAWESI UTARA,,Indonesia,,,,4.2219171,126.7932786,https://maps.google.com/?cid=0x0:0x9e02d9e120647c04,
perumahan,Komplek perumahan,Keluarga Karundeng-Liroga,"6QFR+HPF, Beo Tim., Kec. Beo, Kabupaten Kepulauan Talaud, Sulawesi Utara","Kabupaten Kepulauan Talaud, Sulawesi Utara",SULAWESI UTARA,,Indonesia,82236619764.0,,,4.223946,126.7917846,https://maps.google.com/?cid=0x0:0x2860ff836e886ea7,
perumahan,Komplek perumahan,Kel Daleda Maga,"6RP4+PCW, Beo, Kec. Beo, Kabupaten Kepulauan Talaud, Sulawesi Utara","Kabupaten Kepulauan Talaud, Sulawesi Utara",SULAWESI UTARA,,Indonesia,,,,4.2368627,126.8060815,https://maps.google.com/?cid=0x0:0xd1c3eefcc1073ede,
perumahan,Komplek perumahan,not.oneee,"6QHX+M9X, Beo, Kec. Beo, Kabupaten Kepulauan Talaud, Sulawesi Utara","Kabupaten Kepulauan Talaud, Sulawesi Utara",SULAWESI UTARA,,Indonesia,,,,4.2292379,126.798485,https://maps.google.com/?cid=0x0:0x6d411a23457f9d25,
perumahan,Komplek perumahan,Rumah Kel. Manda Woba,"6QMW+R9W, Beo, Kec. Beo, Kabupaten Kepulauan Talaud, Sulawesi Utara","Kabupaten Kepulauan Talaud, Sulawesi Utara",SULAWESI UTARA,,Indonesia,,,,4.235058,126.796615,https://maps.google.com/?cid=0x0:0x997bcce4fad3d44c,
perumahan,Komplek perumahan,Rumah benhur pansalang,"6QGR+7W7, Beo, Kec. Beo, Kabupaten Kepulauan Talaud, Sulawesi Utara","Kabupaten Kepulauan Talaud, Sulawesi Utara",SULAWESI UTARA,,Indonesia,,,,4.2256622,126.7922836,https://maps.google.com/?cid=0x0:0x35269f6cda057a08,
perumahan,Komplek perumahan,Mailuas-Majuntu Home.,"6QFW+29C, Beo Tim., Kec. Beo, Kabupaten Kepulauan Talaud, Sulawesi Utara","Kabupaten Kepulauan Talaud, Sulawesi Utara",SULAWESI UTARA,,Indonesia,,,,4.2225664,126.7958763,https://maps.google.com/?cid=0x0:0xbcad18d1d22c4e1c,
perumahan,Komplek perumahan,TPQ Ceria Beo,"6QHW+8H5, Beo, Kec. Beo, Kabupaten Kepulauan Talaud, Sulawesi Utara","Kabupaten Kepulauan Talaud, Sulawesi Utara",SULAWESI UTARA,,Indonesia,,,,4.2282526,126.7964892,https://maps.google.com/?cid=0x0:0xa3abedb293a82f6d,
perumahan,Pembangunan Perumahan,Kel nangalo supit,"6RF4+VFG, Lingkungan v, Beo Bar., Kec. Beo, Kabupaten Kepulauan Talaud, Sulawesi Utara 95881","Lingkungan v, Beo Bar., Kec. Beo, Kabupaten Kepulauan Talaud",SULAWESI UTARA,95881.0,Indonesia,,,,4.2246875,126.8061875,https://maps.google.com/?cid=0x0:0xf985cae96878fe5f,
perumahan,Komplek perumahan,Kompleks kampung siau,"6Q3P+2WP, Beo Tim., Kec. Beo, Kabupaten Kepulauan Talaud, Sulawesi Utara","Kabupaten Kepulauan Talaud, Sulawesi Utara",SULAWESI UTARA,,Indonesia,,,,4.202594,126.7873365,https://maps.google.com/?cid=0x0:0x207bdddf96309fda,
perumahan,Komplek perumahan,Rumah Kel.Naung Daleda,"6QJW+2HF, Beo, Kec. Beo, Kabupaten Kepulauan Talaud, Sulawesi Utara","Kabupaten Kepulauan Talaud, Sulawesi Utara",SULAWESI UTARA,,Indonesia,,,,4.2294826,126.7964493,https://maps.google.com/?cid=0x0:0x48a713f42060a23e,
perumahan,Pondok,Kost MELIS,"Beo, Kec. Beo, Kabupaten Kepulauan Talaud, Sulawesi Utara","Kabupaten Kepulauan Talaud, Sulawesi Utara",SULAWESI UTARA,,Indonesia,,,,4.2267494,126.7928426,https://maps.google.com/?cid=0x0:0x3d122bf3040ec802,
perumahan,Komplek perumahan,Keluarga Talendoan - Liroga,"6QFR+PG9, Beo Tim., Kec. Beo, Kabupaten Kepulauan Talaud, Sulawesi Utara","Kabupaten Kepulauan Talaud, Sulawesi Utara",SULAWESI UTARA,,Indonesia,,,,4.2241112,126.7913092,https://maps.google.com/?cid=0x0:0x507867390ded34a9,
perumahan,Komplek perumahan,Mey lalegit,"6QJW+2HF, Beo, Kec. Beo, Kabupaten Kepulauan Talaud, Sulawesi Utara","Kabupaten Kepulauan Talaud, Sulawesi Utara",SULAWESI UTARA,,Indonesia,,,,4.230137,126.79539,https://maps.google.com/?cid=0x0:0x8c4337214d71cb3b,
perumahan,Komplek perumahan,Lalimbat-Diauntung,"6QXQ+G42, Bantik Lama, Kec. Beo, Kabupaten Kepulauan Talaud, Sulawesi Utara","Kabupaten Kepulauan Talaud, Sulawesi Utara",SULAWESI UTARA,,Indonesia,82290576481.0,,,4.2487619,126.7877807,https://maps.google.com/?cid=0x0:0x3f388d97693a0c60,
perumahan,Komplek perumahan,Keluarga. Mangke - Maruti,"6QGX+G64, Beo Tim., Kec. Beo, Kabupaten Kepulauan Talaud, Sulawesi Utara","Kabupaten Kepulauan Talaud, Sulawesi Utara",SULAWESI UTARA,,Indonesia,,,,4.2265988,126.7986823,https://maps.google.com/?cid=0x0:0x53e027eb885f145f,
perumahan,Perhimpunan Pengembang Perumahan,Keluarga Puansalaing-Manein,"6QHX+M9X, Jalan Baru Trans Beo Essang, Beo, Kec. Beo, Kabupaten Kepulauan Talaud","Kabupaten Kepulauan Talaud, Sulawesi Utara",SULAWESI UTARA,,Indonesia,,,,4.2292379,126.798485,https://maps.google.com/?cid=0x0:0x449e5070b57fb1ba,
perumahan,Komplek perumahan,Perumahan Gading Elok 1,"Jl. Gading Elok 1, Karawang Wetan, Kec. Karawang Tim., Karawang, Jawa Barat 41314","Karawang Wetan, Kec. Karawang Tim., Karawang",SULAWESI UTARA,41314.0,Indonesia,85715601211.0,,,-6.3083892,107.3170926,https://maps.google.com/?cid=0x0:0x6b5a041623b93e24,
perumahan,Perumahan,Perumahan Gading Elok 1 Blok N1/3 RT.6/RW.29 Karawang Wetan Karawang Timur,"Perum Gading Elok I Perum Gading Elok 1 Blok N 1 No. 3, RT.6/RW.29, Karawang Wetan, Kec. Karawang Tim., Karawang, Jawa Barat 41314","RT.6/RW.29, Karawang Wetan, Kec. Karawang Tim., Karawang",SULAWESI UTARA,41314.0,Indonesia,,,,-6.3045164,107.3173965,https://maps.google.com/?cid=0x0:0x5e409ab5dd644374,
perumahan,Rumah Makan,Dapur BuMa,"PERUM GADING ELOK 1 BLOK N2A NO.5, RT.006/RW.029, Karawang Wetan, Kec. Karawang Tim., Karawang, Jawa Barat 41314","RT.006/RW.029, Karawang Wetan, Kec. Karawang Tim., Karawang",SULAWESI UTARA,41314.0,Indonesia,88289126296.0,,,-6.3042075,107.3176532,https://maps.google.com/?cid=0x0:0x89bf16f6022da0b3,
perumahan,perumahan,Kec. Beo Sel.,"Kabupaten Kepulauan Talaud, Sulawesi Utara","Kabupaten Kepulauan Talaud, Sulawesi Utara",SULAWESI UTARA,,Indonesia,,,,4.1825062,126.7711774,https://maps.google.com/?cid=0x0:0x7fdc62b4f90caf2d,
perumahan,Komplek perumahan,Al,"4P3H+J8W, Niampak Utara, Kec. Beo Sel., Kabupaten Kepulauan Talaud, Sulawesi Utara","Kabupaten Kepulauan Talaud, Sulawesi Utara",SULAWESI UTARA,,Indonesia,,,,4.1041156,126.7283319,https://maps.google.com/?cid=0x0:0x26ec3a903c1c48c1,
perumahan,Komplek perumahan,rumahnya lani,"3PR8+2RJ, Ruso, Kec. Beo Sel., Kabupaten Kepulauan Talaud, Sulawesi Utara","Kabupaten Kepulauan Talaud, Sulawesi Utara",SULAWESI UTARA,,Indonesia,,,,4.090536,126.717478,https://maps.google.com/?cid=0x0:0x7fd509d4f7d79e56,
perumahan,Komplek perumahan,Kel. Iyong-Garasut,"4P3H+8MX, Niampak Utara, Kec. Beo Sel., Kabupaten Kepulauan Talaud, Sulawesi Utara","Kabupaten Kepulauan Talaud, Sulawesi Utara",SULAWESI UTARA,,Indonesia,,,,4.1033588,126.7292214,https://maps.google.com/?cid=0x0:0xf6fd0993b161fd1d,
perumahan,Komplek perumahan,Rumah Rian Malee,"4PRX+CXW, Tarohan Sel., Kec. Beo Sel., Kabupaten Kepulauan Talaud, Sulawesi Utara","Kabupaten Kepulauan Talaud, Sulawesi Utara",SULAWESI UTARA,,Indonesia,,,,4.1404986,126.750209,https://maps.google.com/?cid=0x0:0x8e66678e9373b96a,
perumahan,Komplek perumahan,Kel Mangule -Bawental,"4QV2+9C5, Tarohan, Kec. Beo Sel., Kabupaten Kepulauan Talaud, Sulawesi Utara","Kabupaten Kepulauan Talaud, Sulawesi Utara",SULAWESI UTARA,,Indonesia,,,,4.1428083,126.7511377,https://maps.google.com/?cid=0x0:0xecddce1cfdffdf47,
perumahan,Komplek perumahan,Kompleks kampung siau,"6Q3P+2WP, Beo Tim., Kec. Beo, Kabupaten Kepulauan Talaud, Sulawesi Utara","Kabupaten Kepulauan Talaud, Sulawesi Utara",SULAWESI UTARA,,Indonesia,,,,4.202594,126.7873365,https://maps.google.com/?cid=0x0:0x207bdddf96309fda,
perumahan,Komplek perumahan,Kel. Polakitang-Malee,"4QR2+Q4C, Tarohan Sel., Kec. Beo Sel., Kabupaten Kepulauan Talaud, Sulawesi Utara","Kabupaten Kepulauan Talaud, Sulawesi Utara",SULAWESI UTARA,,Indonesia,,,,4.1419287,126.7502547,https://maps.google.com/?cid=0x0:0x71111819356d300c,
perumahan,Komplek perumahan,Komplek ombo,"4P7V+3MQ, Niampak Utara, Kec. Beo Sel., Kabupaten Kepulauan Talaud, Sulawesi Utara","Kabupaten Kepulauan Talaud, Sulawesi Utara",SULAWESI UTARA,,Indonesia,,,,4.1127211,126.7442377,https://maps.google.com/?cid=0x0:0x8814ac90a884194a,
perumahan,Komplek perumahan,BAYU HOME,"4PRX+4VG, Tarohan Sel., Kec. Beo Sel., Kabupaten Kepulauan Talaud, Sulawesi Utara","Kabupaten Kepulauan Talaud, Sulawesi Utara",SULAWESI UTARA,,Indonesia,,,,4.1403207,126.7497068,https://maps.google.com/?cid=0x0:0xc35599bac5e2f722,
perumahan,Komplek perumahan,tege_alase home,"5QMC+2F3, Matahit, Kec. Beo Sel., Kabupaten Kepulauan Talaud, Sulawesi Utara","Kabupaten Kepulauan Talaud, Sulawesi Utara",SULAWESI UTARA,,Indonesia,,,,4.1825062,126.7711774,https://maps.google.com/?cid=0x0:0x1f47835a5c85413e,
perumahan,Komplek perumahan,Kel.Tunas-Ambanaga,"4P3H+6P6, Niampak Utara, Kec. Beo Sel., Kabupaten Kepulauan Talaud, Sulawesi Utara","Kabupaten Kepulauan Talaud, Sulawesi Utara",SULAWESI UTARA,,Indonesia,,,,4.1030405,126.729259,https://maps.google.com/?cid=0x0:0x923ceb35ddf9dc6c,
perumahan,Komplek perumahan,Mey Home,"5QF5+PHX, Matahit, Kec. Beo Sel., Kabupaten Kepulauan Talaud, Sulawesi Utara","Kabupaten Kepulauan Talaud, Sulawesi Utara",SULAWESI UTARA,,Indonesia,,,,4.1743511,126.7589845,https://maps.google.com/?cid=0x0:0x42c083602e9ef102,
perumahan,perumahan,Home dirga,"5QMC+2F3, Matahit, Kec. Beo Sel., Kabupaten Kepulauan Talaud, Sulawesi Utara","Kabupaten Kepulauan Talaud, Sulawesi Utara",SULAWESI UTARA,,Indonesia,,,,4.1825062,126.7711774,https://maps.google.com/?cid=0x0:0xe85c0a59d0c10e70,
perumahan,Komplek perumahan,Keiko kampong,"4P7V+3MQ, Niampak Utara, Kec. Beo Sel., Kabupaten Kepulauan Talaud, Sulawesi Utara","Kabupaten Kepulauan Talaud, Sulawesi Utara",SULAWESI UTARA,,Indonesia,,,,4.1127211,126.7442377,https://maps.google.com/?cid=0x0:0xf71a2dfba98e1117,
perumahan,Komplek perumahan,VT,"5QC4+9PP, Matahit, Kec. Beo Sel., Kabupaten Kepulauan Talaud, Sulawesi Utara","Kabupaten Kepulauan Talaud, Sulawesi Utara",SULAWESI UTARA,,Indonesia,,,,4.1703123,126.7573313,https://maps.google.com/?cid=0x0:0x2f821a93014ddd80,
perumahan,Pembangunan Perumahan,Nadine n Kamasean home,"5R84+Q5, Alo Utara, Kabupaten Kepulauan Talaud, Sulawesi Utara","Kabupaten Kepulauan Talaud, Sulawesi Utara",SULAWESI UTARA,,Indonesia,,,,4.1669326,126.8053769,https://maps.google.com/?cid=0x0:0x58f9bbd01200f1d3,
perumahan,Komplek perumahan,Pekuburan Umum,"4P4M+WJW, Niampak, Kec. Beo Sel., Kabupaten Kepulauan Talaud, Sulawesi Utara","Kabupaten Kepulauan Talaud, Sulawesi Utara",SULAWESI UTARA,,Indonesia,,,,4.1073661,126.7340914,https://maps.google.com/?cid=0x0:0x17c74b7251e63666,
perumahan,Komplek perumahan,Kuala sawuran,"5QC4+9PP, Matahit, Kec. Beo Sel., Kabupaten Kepulauan Talaud, Sulawesi Utara","Kabupaten Kepulauan Talaud, Sulawesi Utara",SULAWESI UTARA,,Indonesia,,,,4.1703694,126.7570071,https://maps.google.com/?cid=0x0:0xb5dccdebbf6331ba,
perumahan,Komplek perumahan,J HOME,"4P4J+C2W, Niampak Utara, Kec. Beo Sel., Kabupaten Kepulauan Talaud, Sulawesi Utara","Kabupaten Kepulauan Talaud, Sulawesi Utara",SULAWESI UTARA,,Indonesia,,,,4.1061039,126.7301025,https://maps.google.com/?cid=0x0:0xac1630ecf0ad5b1e,
perumahan,Komplek perumahan,Kel. Binongko Sumalle,"4QV2+V4G, Tarohan, Kec. Beo Sel., Kabupaten Kepulauan Talaud, Sulawesi Utara","Kabupaten Kepulauan Talaud, Sulawesi Utara",SULAWESI UTARA,,Indonesia,,,,4.1446224,126.7503539,https://maps.google.com/?cid=0x0:0x4ab797963c1dd082,
perumahan,Komplek perumahan,Ila home,"5QC4+9JX, Matahit, Kec. Beo Sel., Kabupaten Kepulauan Talaud, Sulawesi Utara","Kabupaten Kepulauan Talaud, Sulawesi Utara",SULAWESI UTARA,,Indonesia,,,,4.1709891,126.756597,https://maps.google.com/?cid=0x0:0xd6ad830203312c33,
perumahan,Komplek perumahan,Telli Home,"3PR9+QP6, Ruso, Kec. Beo Sel., Kabupaten Kepulauan Talaud, Sulawesi Utara","Kabupaten Kepulauan Talaud, Sulawesi Utara",SULAWESI UTARA,,Indonesia,,,,4.0919003,126.7192681,https://maps.google.com/?cid=0x0:0x69c67b3fbedfcdb6,
perumahan,Komplek perumahan,Pampalu,"3PJF+43V, Pampalu, Kec. Beo Sel., Kabupaten Kepulauan Talaud, Sulawesi Utara","Kabupaten Kepulauan Talaud, Sulawesi Utara",SULAWESI UTARA,,Indonesia,,,,4.0803749,126.7226789,https://maps.google.com/?cid=0x0:0x6cabc55b4622591b,
perumahan,perumahan,Beo Utara,"Kabupaten Kepulauan Talaud, Sulawesi Utara","Kabupaten Kepulauan Talaud, Sulawesi Utara",SULAWESI UTARA,,Indonesia,,,,4.3090871,126.7604027,https://maps.google.com/?cid=0x0:0x5f65587e5b3ae940,
perumahan,Perhimpunan Pengembang Perumahan,Fabian Karundeng,"7PQ8+Q2G, Rae Sel., Beo Utara, Kabupaten Kepulauan Talaud, Sulawesi Utara","Kabupaten Kepulauan Talaud, Sulawesi Utara",SULAWESI UTARA,,Indonesia,,,,4.289439,126.7150676,https://maps.google.com/?cid=0x0:0x9336a064365cad9f,
perumahan,Komplek perumahan,Rige Puansalaing,"6QMW+R9W, Beo, Kec. Beo, Kabupaten Kepulauan Talaud, Sulawesi Utara","Kabupaten Kepulauan Talaud, Sulawesi Utara",SULAWESI UTARA,,Indonesia,,,,4.2346132,126.7959521,https://maps.google.com/?cid=0x0:0xe658e1a4d46a0e95,
perumahan,Komplek perumahan,Kampung saiu,"6QHV+2V5, Bowombaru, Kec. Beo, Kabupaten Kepulauan Talaud, Sulawesi Utara","Kabupaten Kepulauan Talaud, Sulawesi Utara",SULAWESI UTARA,,Indonesia,,,,4.227521,126.7947458,https://maps.google.com/?cid=0x0:0x73aed81df5e1108f,
perumahan,Komplek perumahan,Samping ktr camat,"6QHR+8M9, Kec. Beo, Kabupaten Kepulauan Talaud, Sulawesi Utara","Kabupaten Kepulauan Talaud, Sulawesi Utara",SULAWESI UTARA,,Indonesia,,,,4.2280052,126.792138,https://maps.google.com/?cid=0x0:0xd101bb97548ac69,
perumahan,Komplek perumahan,Reiga Tandea home,"8Q47+7QP, Lobbo I, Beo Utara, Kabupaten Kepulauan Talaud, Sulawesi Utara","Kabupaten Kepulauan Talaud, Sulawesi Utara",SULAWESI UTARA,,Indonesia,,,,4.3057067,126.7644434,https://maps.google.com/?cid=0x0:0x3dc1223c53a6fb38,
perumahan,Komplek perumahan,Kel Daleda Maga,"6RP4+PCW, Beo, Kec. Beo, Kabupaten Kepulauan Talaud, Sulawesi Utara","Kabupaten Kepulauan Talaud, Sulawesi Utara",SULAWESI UTARA,,Indonesia,,,,4.2368627,126.8060815,https://maps.google.com/?cid=0x0:0xd1c3eefcc1073ede,
perumahan,perumahan,Aril home,"8R43+M99, Makatara Tim., Kecamatan Beo Selatan, Kabupaten Kepulauan Talaud, Sulawesi Utara","Kabupaten Kepulauan Talaud, Sulawesi Utara",SULAWESI UTARA,,Indonesia,,,,4.3066741,126.8034921,https://maps.google.com/?cid=0x0:0xa5109d36c689862e,
perumahan,Pembangunan Perumahan,Kel nangalo supit,"6RF4+VFG, Lingkungan v, Beo Bar., Kec. Beo, Kabupaten Kepulauan Talaud, Sulawesi Utara 95881","Lingkungan v, Beo Bar., Kec. Beo, Kabupaten Kepulauan Talaud",SULAWESI UTARA,95881.0,Indonesia,,,,4.2246875,126.8061875,https://maps.google.com/?cid=0x0:0xf985cae96878fe5f,
perumahan,Komplek perumahan,Rumah yus WADO,"7PR8+X3F, Beo - Esang, Rae Sel., Beo Utara, Kabupaten Kepulauan Talaud, Sulawesi Utara","Kabupaten Kepulauan Talaud, Sulawesi Utara",SULAWESI UTARA,,Indonesia,,,,4.2924457,126.7151768,https://maps.google.com/?cid=0x0:0xc9ea669171e626b7,
perumahan,Komplek perumahan,Jip pe rumah,"6QFR+QF4, Beo Tim., Kec. Beo, Kabupaten Kepulauan Talaud, Sulawesi Utara","Kabupaten Kepulauan Talaud, Sulawesi Utara",SULAWESI UTARA,,Indonesia,,,,4.224956,126.7905345,https://maps.google.com/?cid=0x0:0xe7e9c89ee6848142,
perumahan,Komplek perumahan,Resto family,"6QJW+2HF, Beo, Kec. Beo, Kabupaten Kepulauan Talaud, Sulawesi Utara","Kabupaten Kepulauan Talaud, Sulawesi Utara",SULAWESI UTARA,,Indonesia,,,,4.2303424,126.7960527,https://maps.google.com/?cid=0x0:0xf4739da91c9bab94,
perumahan,Komplek perumahan,Rumah Kel Tandea Durumuding,"7PC8+HMW, Lobbo I, Beo Utara, Kabupaten Kepulauan Talaud, Sulawesi Utara","Kabupaten Kepulauan Talaud, Sulawesi Utara",SULAWESI UTARA,,Indonesia,,,,4.2715826,126.7167542,https://maps.google.com/?cid=0x0:0x6748e1fdc2c45244,
perumahan,Komplek perumahan,Rumah Flo,"6RF4+VF3, Beo Bar., Kec. Beo, Kabupaten Kepulauan Talaud, Sulawesi Utara","Kabupaten Kepulauan Talaud, Sulawesi Utara",SULAWESI UTARA,,Indonesia,,,,4.224633,126.8061843,https://maps.google.com/?cid=0x0:0x8e9382581c2f3079,
perumahan,Komplek perumahan,Biringan-Pusungulaa,"7PV8+Q2R, Rae Sel., Beo Utara, Kabupaten Kepulauan Talaud, Sulawesi Utara","Kabupaten Kepulauan Talaud, Sulawesi Utara",SULAWESI UTARA,,Indonesia,,,,4.2947008,126.7152454,https://maps.google.com/?cid=0x0:0x3c25aee2f734c881,
perumahan,Komplek perumahan,Keluarga Karundeng-Liroga,"6QFR+HPF, Beo Tim., Kec. Beo, Kabupaten Kepulauan Talaud, Sulawesi Utara","Kabupaten Kepulauan Talaud, Sulawesi Utara",SULAWESI UTARA,,Indonesia,82236619764.0,,,4.223946,126.7917846,https://maps.google.com/?cid=0x0:0x2860ff836e886ea7,
perumahan,Komplek perumahan,Rumah Kel.Naung Daleda,"6QJW+2HF, Beo, Kec. Beo, Kabupaten Kepulauan Talaud, Sulawesi Utara","Kabupaten Kepulauan Talaud, Sulawesi Utara",SULAWESI UTARA,,Indonesia,,,,4.2294826,126.7964493,https://maps.google.com/?cid=0x0:0x48a713f42060a23e,
perumahan,Komplek perumahan,Lalimbat-Diauntung,"6QXQ+G42, Bantik Lama, Kec. Beo, Kabupaten Kepulauan Talaud, Sulawesi Utara","Kabupaten Kepulauan Talaud, Sulawesi Utara",SULAWESI UTARA,,Indonesia,82290576481.0,,,4.2487619,126.7877807,https://maps.google.com/?cid=0x0:0x3f388d97693a0c60,
perumahan,Komplek perumahan,Rumah benhur pansalang,"6QGR+7W7, Beo, Kec. Beo, Kabupaten Kepulauan Talaud, Sulawesi Utara","Kabupaten Kepulauan Talaud, Sulawesi Utara",SULAWESI UTARA,,Indonesia,,,,4.2256622,126.7922836,https://maps.google.com/?cid=0x0:0x35269f6cda057a08,
perumahan,Komplek perumahan,Rumah Kel. Manda Woba,"6QMW+R9W, Beo, Kec. Beo, Kabupaten Kepulauan Talaud, Sulawesi Utara","Kabupaten Kepulauan Talaud, Sulawesi Utara",SULAWESI UTARA,,Indonesia,,,,4.235058,126.796615,https://maps.google.com/?cid=0x0:0x997bcce4fad3d44c,
perumahan,Komplek perumahan,Toni home,"9P9G+545, Awit, Beo Utara, Kabupaten Kepulauan Talaud, Sulawesi Utara","Kabupaten Kepulauan Talaud, Sulawesi Utara",SULAWESI UTARA,,Indonesia,,,,4.3678899,126.7253741,https://maps.google.com/?cid=0x0:0xbbec1172f9edb0fa,
perumahan,Perhimpunan Pengembang Perumahan,Sari Home,"8MPQ+5M9, Awit, Beo Utara, Kabupaten Kepulauan Talaud, Sulawesi Utara","Kabupaten Kepulauan Talaud, Sulawesi Utara",SULAWESI UTARA,,Indonesia,,,,4.3349226,126.6895509,https://maps.google.com/?cid=0x0:0x3eb6cf71fa6bb37a,
perumahan,Komplek perumahan,Jeni home,"9P9G+545, Awit, Beo Utara, Kabupaten Kepulauan Talaud, Sulawesi Utara","Kabupaten Kepulauan Talaud, Sulawesi Utara",SULAWESI UTARA,,Indonesia,,,,4.3678899,126.7253741,https://maps.google.com/?cid=0x0:0x12124b54b477aac0,
perumahan,Komplek perumahan,Kampung Bahari Nusantara Lanal Melonguane Desa Lobbo,"7PF8+722, Dusun III, Beo Utara, Kabupaten Kepulauan Talaud, Sulawesi Utara","Kabupaten Kepulauan Talaud, Sulawesi Utara",SULAWESI UTARA,,Indonesia,,,,4.2730988,126.7150632,https://maps.google.com/?cid=0x0:0x8d919ee6a1b5aa97,
perumahan,Komplek perumahan,Rumah keluarga sarapung potoboda,"7Q24+WFX, Makatara Tim., Beo Utara, Kabupaten Kepulauan Talaud, Sulawesi Utara","Kabupaten Kepulauan Talaud, Sulawesi Utara",SULAWESI UTARA,,Indonesia,,,,4.251874,126.7568807,https://maps.google.com/?cid=0x0:0x2d1f5f9c8a2f075a,
perumahan,Komplek perumahan,Woba-Lalisang Family,"7PC8+J7X, Komplex KRT 4, Dusun I, Beo Utara, Kabupaten Kepulauan Talaud, Sulawesi Utara","Kabupaten Kepulauan Talaud, Sulawesi Utara",SULAWESI UTARA,,Indonesia,,,,4.2716051,126.7157367,https://maps.google.com/?cid=0x0:0x8d403cbd63ef1c4d,
perumahan,Komplek perumahan,Deylan Home,"8MPQ+5M9, Awit, Beo Utara, Kabupaten Kepulauan Talaud, Sulawesi Utara","Kabupaten Kepulauan Talaud, Sulawesi Utara",SULAWESI UTARA,,Indonesia,,,,4.334965,126.6898037,https://maps.google.com/?cid=0x0:0xb547982a04792351,
perumahan,Komplek perumahan,Gapura KBN Lanal Melonguane Desa Lobbo,"7PF8+722, Dusun III, Beo Utara, Kabupaten Kepulauan Talaud, Sulawesi Utara","Kabupaten Kepulauan Talaud, Sulawesi Utara",SULAWESI UTARA,,Indonesia,,,,4.2730986,126.7150636,https://maps.google.com/?cid=0x0:0x1eabc01cc6fa457,
perumahan,Komplek perumahan,Yusdy wado,"8Q74+C2J, Rae Sel., Beo Utara, Kabupaten Kepulauan Talaud, Sulawesi Utara","Kabupaten Kepulauan Talaud, Sulawesi Utara",SULAWESI UTARA,,Indonesia,,,,4.3135951,126.7550147,https://maps.google.com/?cid=0x0:0x5a218058e68d7f2c,
perumahan,perumahan,Kec. Damau,"Kabupaten Kepulauan Talaud, Sulawesi Utara","Kabupaten Kepulauan Talaud, Sulawesi Utara",SULAWESI UTARA,,Indonesia,,,,3.7861379,126.8370164,https://maps.google.com/?cid=0x0:0x923c91966523787a,
perumahan,perumahan,Gemeh,"Gemeh, Kec. Gemeh, Kabupaten Kepulauan Talaud, Sulawesi Utara","Kabupaten Kepulauan Talaud, Sulawesi Utara",SULAWESI UTARA,,Indonesia,,,,4.499708,126.815887,https://maps.google.com/?cid=0x0:0x35054efa0974ac1f,
perumahan,perumahan,Kec. Tebet,"Kota Jakarta Selatan, Daerah Khusus Ibukota Jakarta","Kota Jakarta Selatan, Daerah Khusus Ibukota Jakarta",SULAWESI UTARA,,Indonesia,,,,-6.2251223,106.8549881,https://maps.google.com/?cid=0x0:0xd575e31c807295f9,
perumahan,Komplek perumahan,Rumah saya Desa Taruan Kecamatan Gemeh,"FRF6+2JG, Taruan, Kec. Gemeh, Kabupaten Kepulauan Talaud, Sulawesi Utara","Kabupaten Kepulauan Talaud, Sulawesi Utara",SULAWESI UTARA,,Indonesia,,,,4.4725639,126.8115686,https://maps.google.com/?cid=0x0:0x23dc80b61c6d4c46,
perumahan,perumahan,Kec. Essang,"Kabupaten Kepulauan Talaud, Sulawesi Utara","Kabupaten Kepulauan Talaud, Sulawesi Utara",SULAWESI UTARA,,Indonesia,,,,4.4565269,126.730993,https://maps.google.com/?cid=0x0:0x7405c1afd2f8476e,
perumahan,Komplek perumahan,Isabelle's Home,"FP3H+XV3, Essang Sel., Kec. Essang, Kabupaten Kepulauan Talaud, Sulawesi Utara","Kabupaten Kepulauan Talaud, Sulawesi Utara",SULAWESI UTARA,,Indonesia,,,,4.4548802,126.7296684,https://maps.google.com/?cid=0x0:0x8d6504fc69b99c20,
perumahan,Komplek perumahan,Lorong Gaul,"CQX4+926, Dusun II, Essang Sel., Kec. Essang, Kabupaten Kepulauan Talaud, Sulawesi Utara","Kabupaten Kepulauan Talaud, Sulawesi Utara",SULAWESI UTARA,,Indonesia,,,,4.448416,126.7550147,https://maps.google.com/?cid=0x0:0x58370fcda16d2d60,
perumahan,Komplek perumahan,"Essang,Ronny.m","FP4J+J99, Essang, Kec. Essang, Kabupaten Kepulauan Talaud, Sulawesi Utara","Kabupaten Kepulauan Talaud, Sulawesi Utara",SULAWESI UTARA,,Indonesia,,,,4.4565269,126.730993,https://maps.google.com/?cid=0x0:0x94ad291ea491e9cd,
perumahan,Komplek perumahan,Elvitha home,"FP4J+743, Essang Sel., Kec. Essang, Kabupaten Kepulauan Talaud, Sulawesi Utara","Kabupaten Kepulauan Talaud, Sulawesi Utara",SULAWESI UTARA,,Indonesia,,,,4.455505,126.7304673,https://maps.google.com/?cid=0x0:0x307795043d2a3b01,
perumahan,Komplek perumahan,yoss home,"FP2G+RVP, Essang Sel., Kec. Essang, Kabupaten Kepulauan Talaud, Sulawesi Utara","Kabupaten Kepulauan Talaud, Sulawesi Utara",SULAWESI UTARA,,Indonesia,,,,4.452501,126.7277006,https://maps.google.com/?cid=0x0:0x46af4b4eeaa3e0bc,
perumahan,Komplek perumahan,Rumah Reynal Laihan,"CPRM+F9P, Maririk, Kec. Essang, Kabupaten Kepulauan Talaud, Sulawesi Utara","Kabupaten Kepulauan Talaud, Sulawesi Utara",SULAWESI UTARA,,Indonesia,,,,4.4412198,126.733459,https://maps.google.com/?cid=0x0:0xd1bf69fa29df19c1,
perumahan,Pembangunan Perumahan,LORONG GAUL ESSEL,"FP2G+RVP, Essang Sel., Kec. Essang, Kabupaten Kepulauan Talaud, Sulawesi Utara","Kabupaten Kepulauan Talaud, Sulawesi Utara",SULAWESI UTARA,,Indonesia,,,,4.4530182,126.7278067,https://maps.google.com/?cid=0x0:0xf7c0b9b5618b20d,
perumahan,Komplek perumahan,Simpang tiga Situmeang,"GPRV+QMX, Mamahan, jaya, Kabupaten Kepulauan Talaud, Sulawesi Utara","Kabupaten Kepulauan Talaud, Sulawesi Utara",SULAWESI UTARA,,Indonesia,,,,4.5419813,126.7442377,https://maps.google.com/?cid=0x0:0xc28d98f23aa5488b,
perumahan,Komplek perumahan,POAE TEGE HOME,"CPRC+96M, Maririk, Kec. Essang, Kabupaten Kepulauan Talaud, Sulawesi Utara","Kabupaten Kepulauan Talaud, Sulawesi Utara",SULAWESI UTARA,,Indonesia,,,,4.4409547,126.7205331,https://maps.google.com/?cid=0x0:0xfe868acae4753805,
perumahan,Komplek perumahan,Prisil home,"GP6G+M6G, Bulude, Kec. Essang, Kabupaten Kepulauan Talaud, Sulawesi Utara","Kabupaten Kepulauan Talaud, Sulawesi Utara",SULAWESI UTARA,,Indonesia,,,,4.5116884,126.7255776,https://maps.google.com/?cid=0x0:0x5f914a88f9f0f579,
perumahan,Komplek perumahan,Lorong Pancurang,"FP4J+743, Essang Sel., Kec. Essang, Kabupaten Kepulauan Talaud, Sulawesi Utara","Kabupaten Kepulauan Talaud, Sulawesi Utara",SULAWESI UTARA,,Indonesia,,,,4.4556359,126.7303102,https://maps.google.com/?cid=0x0:0x830c542597b2ee75,
perumahan,Komplek perumahan,3 j home,"FPHX+Q86, Lalue, Kec. Essang, Kabupaten Kepulauan Talaud, Sulawesi Utara","Kabupaten Kepulauan Talaud, Sulawesi Utara",SULAWESI UTARA,,Indonesia,,,,4.4794107,126.7482793,https://maps.google.com/?cid=0x0:0x6bcd0dc7d5bb78d5,
perumahan,Komplek perumahan,Rumah nowela,"FPRV+GM5, Lalue Utara, Kec. Essang, Kabupaten Kepulauan Talaud, Sulawesi Utara","Kabupaten Kepulauan Talaud, Sulawesi Utara",SULAWESI UTARA,,Indonesia,,,,4.4912609,126.7442377,https://maps.google.com/?cid=0x0:0xc17dfd6dbb86e39b,
perumahan,Komplek perumahan,FBM,"FP4J+J99, Jalan andulan Desa Lalu Utara, Essang, Kec. Essang, Kabupaten Kepulauan Talaud, Sulawesi Utara","Kabupaten Kepulauan Talaud, Sulawesi Utara",SULAWESI UTARA,,Indonesia,,,,4.4565269,126.730993,https://maps.google.com/?cid=0x0:0x9a0160137e9d5f,
perumahan,Komplek perumahan,Rumah Obet Lulage,"FPGJ+H6Q, Lalue, Kec. Essang, Kabupaten Kepulauan Talaud, Sulawesi Utara","Kabupaten Kepulauan Talaud, Sulawesi Utara",SULAWESI UTARA,,Indonesia,,,,4.4757253,126.7305746,https://maps.google.com/?cid=0x0:0x465fcf4639eff109,
perumahan,Perhimpunan Pengembang Perumahan,Rumah Fernis Mamusung,"GPVX+8GQ, Mamahan Bar., Kec. Gemeh, Kabupaten Kepulauan Talaud, Sulawesi Utara","Kabupaten Kepulauan Talaud, Sulawesi Utara",SULAWESI UTARA,,Indonesia,,,,4.542826,126.7486272,https://maps.google.com/?cid=0x0:0x51e64986b17f6a38,
perumahan,perumahan,Rumah Kel. Sadede - Lambuaso,"GP8G+W3R, Bulude, Kec. Essang, Kabupaten Kepulauan Talaud, Sulawesi Utara","Kabupaten Kepulauan Talaud, Sulawesi Utara",SULAWESI UTARA,,Indonesia,,,,4.5173694,126.7251321,https://maps.google.com/?cid=0x0:0xc65c8acc5bfade46,
perumahan,Komplek perumahan,arif home,"FP4H+3HH, Essang Sel., Kec. Essang, Kabupaten Kepulauan Talaud, Sulawesi Utara","Kabupaten Kepulauan Talaud, Sulawesi Utara",SULAWESI UTARA,,Indonesia,,,,4.4551887,126.7289913,https://maps.google.com/?cid=0x0:0x6161c1f5edc0d623,
perumahan,Perhimpunan Pengembang Perumahan,Hariwan p rumah,"FP3H+6J9, Essang Sel., Kec. Essang, Kabupaten Kepulauan Talaud, Sulawesi Utara","Kabupaten Kepulauan Talaud, Sulawesi Utara",SULAWESI UTARA,,Indonesia,,,,4.4531224,126.728912,https://maps.google.com/?cid=0x0:0xd32c65bd50268686,
perumahan,Komplek perumahan,Pastori Jemaat EFATA Bambung,"GQGG+M8M, Bambung, Kec. Gemeh, Kabupaten Kepulauan Talaud, Sulawesi Utara","Kabupaten Kepulauan Talaud, Sulawesi Utara",SULAWESI UTARA,,Indonesia,,,,4.5267092,126.7758094,https://maps.google.com/?cid=0x0:0x291f342512df51fc,
perumahan,Tempat Ibadah,Sindi Dadamuda,"CPC4+RRV, Kuma Sel., Kec. Essang Sel., Kabupaten Kepulauan Talaud, Sulawesi Utara","Kabupaten Kepulauan Talaud, Sulawesi Utara",SULAWESI UTARA,,Indonesia,,,,4.422112,126.7070382,https://maps.google.com/?cid=0x0:0xd875df6083d3b9d6,
perumahan,Komplek perumahan,Rmh sani,"CPQ9+RCM, Maririk, Kec. Essang, Kabupaten Kepulauan Talaud, Sulawesi Utara","Kabupaten Kepulauan Talaud, Sulawesi Utara",SULAWESI UTARA,,Indonesia,,,,4.4395869,126.7185476,https://maps.google.com/?cid=0x0:0x525e53bf890003fc,
perumahan,Komplek perumahan,J home,"FPRV+GM5, Lalue Utara, Kec. Essang, Kabupaten Kepulauan Talaud, Sulawesi Utara","Kabupaten Kepulauan Talaud, Sulawesi Utara",SULAWESI UTARA,,Indonesia,,,,4.4770476,126.7302936,https://maps.google.com/?cid=0x0:0xd9a35528c382f40e,
perumahan,perumahan,Kec. Essang Sel.,"Kabupaten Kepulauan Talaud, Sulawesi Utara","Kabupaten Kepulauan Talaud, Sulawesi Utara",SULAWESI UTARA,,Indonesia,,,,4.4248507,126.7095716,https://maps.google.com/?cid=0x0:0x109f9417f7325f46,
perumahan,Komplek perumahan,Isabelle's Home,"FP3H+XV3, Essang Sel., Kec. Essang, Kabupaten Kepulauan Talaud, Sulawesi Utara","Kabupaten Kepulauan Talaud, Sulawesi Utara",SULAWESI UTARA,,Indonesia,,,,4.4548802,126.7296684,https://maps.google.com/?cid=0x0:0x8d6504fc69b99c20,
perumahan,Pembangunan Perumahan,Gian,"CP63+77R, Ambia Utara, Kec. Essang Sel., Kabupaten Kepulauan Talaud, Sulawesi Utara","Kabupaten Kepulauan Talaud, Sulawesi Utara",SULAWESI UTARA,,Indonesia,,,,4.4107298,126.703156,https://maps.google.com/?cid=0x0:0xbe8f8b5349c0e31b,
perumahan,Komplek perumahan,Lorong Gaul,"CQX4+926, Dusun II, Essang Sel., Kec. Essang, Kabupaten Kepulauan Talaud, Sulawesi Utara","Kabupaten Kepulauan Talaud, Sulawesi Utara",SULAWESI UTARA,,Indonesia,,,,4.448416,126.7550147,https://maps.google.com/?cid=0x0:0x58370fcda16d2d60,
perumahan,Tempat Ibadah,Sindi Dadamuda,"CPC4+RRV, Kuma Sel., Kec. Essang Sel., Kabupaten Kepulauan Talaud, Sulawesi Utara","Kabupaten Kepulauan Talaud, Sulawesi Utara",SULAWESI UTARA,,Indonesia,,,,4.422112,126.7070382,https://maps.google.com/?cid=0x0:0xd875df6083d3b9d6,
perumahan,Pembangunan Perumahan,Wando tadisiran,"9M5R+R73, Sambuara Utara, Kec. Essang Sel., Kabupaten Kepulauan Talaud, Sulawesi Utara","Kabupaten Kepulauan Talaud, Sulawesi Utara",SULAWESI UTARA,,Indonesia,,,,4.3595068,126.6906771,https://maps.google.com/?cid=0x0:0x7ea3223626a08652,
perumahan,Perhimpunan Pengembang Perumahan,Replin ladi,"9M5R+HQJ, Sambuara Utara, Kec. Essang Sel., Kabupaten Kepulauan Talaud, Sulawesi Utara","Kabupaten Kepulauan Talaud, Sulawesi Utara",SULAWESI UTARA,,Indonesia,,,,4.3591331,126.6918452,https://maps.google.com/?cid=0x0:0x4c3b4bfdd04be38c,
perumahan,Komplek perumahan,Elvitha home,"FP4J+743, Essang Sel., Kec. Essang, Kabupaten Kepulauan Talaud, Sulawesi Utara","Kabupaten Kepulauan Talaud, Sulawesi Utara",SULAWESI UTARA,,Indonesia,,,,4.455505,126.7304673,https://maps.google.com/?cid=0x0:0x307795043d2a3b01,
perumahan,Komplek perumahan,yoss home,"FP2G+RVP, Essang Sel., Kec. Essang, Kabupaten Kepulauan Talaud, Sulawesi Utara","Kabupaten Kepulauan Talaud, Sulawesi Utara",SULAWESI UTARA,,Indonesia,,,,4.452501,126.7277006,https://maps.google.com/?cid=0x0:0x46af4b4eeaa3e0bc,
perumahan,Komplek perumahan,Rumah Reynal Laihan,"CPRM+F9P, Maririk, Kec. Essang, Kabupaten Kepulauan Talaud, Sulawesi Utara","Kabupaten Kepulauan Talaud, Sulawesi Utara",SULAWESI UTARA,,Indonesia,,,,4.4412198,126.733459,https://maps.google.com/?cid=0x0:0xd1bf69fa29df19c1,
perumahan,Komplek perumahan,POAE TEGE HOME,"CPRC+96M, Maririk, Kec. Essang, Kabupaten Kepulauan Talaud, Sulawesi Utara","Kabupaten Kepulauan Talaud, Sulawesi Utara",SULAWESI UTARA,,Indonesia,,,,4.4409547,126.7205331,https://maps.google.com/?cid=0x0:0xfe868acae4753805,
perumahan,Pembangunan Perumahan,LORONG GAUL ESSEL,"FP2G+RVP, Essang Sel., Kec. Essang, Kabupaten Kepulauan Talaud, Sulawesi Utara","Kabupaten Kepulauan Talaud, Sulawesi Utara",SULAWESI UTARA,,Indonesia,,,,4.4530182,126.7278067,https://maps.google.com/?cid=0x0:0xf7c0b9b5618b20d,
perumahan,Komplek perumahan,"Essang,Ronny.m","FP4J+J99, Essang, Kec. Essang, Kabupaten Kepulauan Talaud, Sulawesi Utara","Kabupaten Kepulauan Talaud, Sulawesi Utara",SULAWESI UTARA,,Indonesia,,,,4.4565269,126.730993,https://maps.google.com/?cid=0x0:0x94ad291ea491e9cd,
perumahan,Komplek perumahan,Lorong Pancurang,"FP4J+743, Essang Sel., Kec. Essang, Kabupaten Kepulauan Talaud, Sulawesi Utara","Kabupaten Kepulauan Talaud, Sulawesi Utara",SULAWESI UTARA,,Indonesia,,,,4.4556359,126.7303102,https://maps.google.com/?cid=0x0:0x830c542597b2ee75,
perumahan,Rumah Kayu,Home Adrianus Nae,"CPC4+RRV, Kuma Sel., Kec. Essang Sel., Kabupaten Kepulauan Talaud, Sulawesi Utara","Kabupaten Kepulauan Talaud, Sulawesi Utara",SULAWESI UTARA,,Indonesia,,,,4.422023,126.706681,https://maps.google.com/?cid=0x0:0xef074e07c79056eb,
perumahan,Pembangunan Perumahan,Kel. Sahadula Madea,"9MVW+MGR, Batumbalango, Kabupaten Kepulauan Talaud, Sulawesi Utara","Kabupaten Kepulauan Talaud, Sulawesi Utara",SULAWESI UTARA,,Indonesia,,,,4.3942358,126.6962728,https://maps.google.com/?cid=0x0:0xfad021dd4e8f9285,
perumahan,Komplek perumahan,Om Bas Barahama,"CP43+QG4, Ambia, Kec. Essang Sel., Kabupaten Kepulauan Talaud, Sulawesi Utara","Kabupaten Kepulauan Talaud, Sulawesi Utara",SULAWESI UTARA,,Indonesia,,,,4.4068892,126.7038202,https://maps.google.com/?cid=0x0:0x25a848f2187bcfc3,
perumahan,Komplek perumahan,Riski maunde,"CP99+GX9, Kuma Sel., Kec. Essang Sel., Kabupaten Kepulauan Talaud, Sulawesi Utara","Kabupaten Kepulauan Talaud, Sulawesi Utara",SULAWESI UTARA,,Indonesia,,,,4.4187882,126.7199836,https://maps.google.com/?cid=0x0:0xbff3e8118e0edc9,
perumahan,Komplek perumahan,Rumah manambe nusa,"9M6R+GF9, Sambuara Utara, Kec. Essang Sel., Kabupaten Kepulauan Talaud, Sulawesi Utara","Kabupaten Kepulauan Talaud, Sulawesi Utara",SULAWESI UTARA,,Indonesia,,,,4.3615875,126.6918837,https://maps.google.com/?cid=0x0:0x8f12ed457145e3b7,
perumahan,Komplek perumahan,Alske Rulu Maameah,"CPGJ+M7H, Kuma, Kec. Essang Sel., Kabupaten Kepulauan Talaud, Sulawesi Utara","Kabupaten Kepulauan Talaud, Sulawesi Utara",SULAWESI UTARA,,Indonesia,,,,4.4266887,126.7307319,https://maps.google.com/?cid=0x0:0x44eeae1621c7c8e1,
perumahan,Komplek perumahan,Rumah pribadi,"9M5R+VG4, Sambuara Utara, Kec. Essang Sel., Kabupaten Kepulauan Talaud, Sulawesi Utara","Kabupaten Kepulauan Talaud, Sulawesi Utara",SULAWESI UTARA,,Indonesia,,,,4.3595065,126.6911636,https://maps.google.com/?cid=0x0:0x893f82f4d1d28e4,
perumahan,perumahan,andi home,"9MFR+GX3, Ensem Timur, Kec. Essang Sel., Kabupaten Kepulauan Talaud, Sulawesi Utara","Kabupaten Kepulauan Talaud, Sulawesi Utara",SULAWESI UTARA,,Indonesia,,,,4.3737531,126.6924138,https://maps.google.com/?cid=0x0:0xe42dcd34508b1ffc,
perumahan,Komplek perumahan,Keluarga TAHINAUNG-SASENDI,"CP63+G68, Ambia, Kec. Essang Sel., Kabupaten Kepulauan Talaud, Sulawesi Utara","Kabupaten Kepulauan Talaud, Sulawesi Utara",SULAWESI UTARA,,Indonesia,,,,4.4112927,126.7030779,https://maps.google.com/?cid=0x0:0x53e1cf8fc556a69a,
perumahan,Komplek perumahan,Rumah Kel. Nebangka-Kiroyan,"9M8X+39M, Sambuara Utara, Kec. Essang Sel., Kabupaten Kepulauan Talaud, Sulawesi Utara","Kabupaten Kepulauan Talaud, Sulawesi Utara",SULAWESI UTARA,,Indonesia,,,,4.3652021,126.6984177,https://maps.google.com/?cid=0x0:0xb3a840148ef38769,
perumahan,Komplek perumahan,Jenis Home,"9PWG+X45, Batumbalango, Kec. Essang Sel., Kabupaten Kepulauan Talaud, Sulawesi Utara","Kabupaten Kepulauan Talaud, Sulawesi Utara",SULAWESI UTARA,,Indonesia,,,,4.3973933,126.7253741,https://maps.google.com/?cid=0x0:0xa0d8de6aa1d50ede,
perumahan,Komplek perumahan,SINJI HOME,"CPF6+V8R, Kuma, Kec. Essang Sel., Kabupaten Kepulauan Talaud, Sulawesi Utara","Kabupaten Kepulauan Talaud, Sulawesi Utara",SULAWESI UTARA,,Indonesia,,,,4.4259286,126.710058,https://maps.google.com/?cid=0x0:0x54eda1f011424b4b,
perumahan,perumahan,Kec. Kabaruan,"Kabupaten Kepulauan Talaud, Sulawesi Utara","Kabupaten Kepulauan Talaud, Sulawesi Utara",SULAWESI UTARA,,Indonesia,,,,3.8385519,126.7852295,https://maps.google.com/?cid=0x0:0x8c347d9cb11e4ad5,
perumahan,Komplek perumahan,Desa pantuge,"RQPM+WV6, Kabaruan Tim., Kec. Kabaruan, Kabupaten Kepulauan Talaud, Sulawesi Utara","Kabupaten Kepulauan Talaud, Sulawesi Utara",SULAWESI UTARA,,Indonesia,,,,3.8372875,126.7846406,https://maps.google.com/?cid=0x0:0x447fb632a6da58b0,
perumahan,Pembangunan Perumahan,Rumah Jesika Tamila,"QQJ6+R5F, Bulude, Kec. Kabaruan, Kabupaten Kepulauan Talaud, Sulawesi Utara","Kabupaten Kepulauan Talaud, Sulawesi Utara",SULAWESI UTARA,,Indonesia,,,,3.7820556,126.7604222,https://maps.google.com/?cid=0x0:0x953ac4b09b5b513d,
perumahan,Komplek perumahan,Tempat nongkrong,"RQQM+F7P, Pantuge Bar., Kec. Kabaruan, Kabupaten Kepulauan Talaud, Sulawesi Utara","Kabupaten Kepulauan Talaud, Sulawesi Utara",SULAWESI UTARA,,Indonesia,,,,3.8387072,126.7832009,https://maps.google.com/?cid=0x0:0xdf89bbef25d159b7,
perumahan,Perhimpunan Pengembang Perumahan,Rumah Reiky masania,"QQRM+68V, Dusun 1, Pangeran, Kec. Kabaruan, Kabupaten Kepulauan Talaud, Sulawesi Utara","Kabupaten Kepulauan Talaud, Sulawesi Utara",SULAWESI UTARA,,Indonesia,,,,3.7906054,126.783297,https://maps.google.com/?cid=0x0:0xf5863d83d1ebcb8b,
perumahan,Komplek perumahan,Kel sasaleno-laletaa,"QQJ6+M8, Bulude Sel., Kec. Kabaruan, Kabupaten Kepulauan Talaud, Sulawesi Utara","Kabupaten Kepulauan Talaud, Sulawesi Utara",SULAWESI UTARA,,Indonesia,,,,3.781684,126.760495,https://maps.google.com/?cid=0x0:0xee9d9c8e6bf2c826,
perumahan,Komplek perumahan,Kel.j.marune adaminga,"RPQX+G2G, Taduna, Kec. Kabaruan, Kabupaten Kepulauan Talaud, Sulawesi Utara","Kabupaten Kepulauan Talaud, Sulawesi Utara",SULAWESI UTARA,,Indonesia,,,,3.8388225,126.7475731,https://maps.google.com/?cid=0x0:0xc3a485d958cf6134,
perumahan,Komplek perumahan,Kompleks Anspol,"RQQJ+J82, Kabaruan Tim., Kec. Kabaruan, Kabupaten Kepulauan Talaud, Sulawesi Utara","Kabupaten Kepulauan Talaud, Sulawesi Utara",SULAWESI UTARA,,Indonesia,82187187523.0,,,3.8390094,126.7807725,https://maps.google.com/?cid=0x0:0x4bc729e45ff9eccd,
perumahan,Komplek perumahan,Rumah melati,"RQMW+25V, Pantuge, Kec. Kabaruan, Kabupaten Kepulauan Talaud, Sulawesi Utara","Kabupaten Kepulauan Talaud, Sulawesi Utara",SULAWESI UTARA,,Indonesia,,,,3.8326005,126.7954147,https://maps.google.com/?cid=0x0:0x67206d0e9666f41a,
perumahan,Komplek perumahan,Putra bunaen,"RQQP+2MW, Pantuge Bar., Kec. Kabaruan, Kabupaten Kepulauan Talaud, Sulawesi Utara","Kabupaten Kepulauan Talaud, Sulawesi Utara",SULAWESI UTARA,,Indonesia,,,,3.8376328,126.7866843,https://maps.google.com/?cid=0x0:0x97a79b05ae66ecde,
perumahan,Komplek perumahan,Rumah Kaka Dey Mangangka,"RQV2+6WG, Taduna, Kec. Kabaruan, Kabupaten Kepulauan Talaud, Sulawesi Utara","Kabupaten Kepulauan Talaud, Sulawesi Utara",SULAWESI UTARA,,Indonesia,,,,3.8430696,126.7523206,https://maps.google.com/?cid=0x0:0x6adbe48872fd828c,
perumahan,Komplek perumahan,Rumah Kerin bawues,"QQ6C+WW6, Pangeran, Kabupaten Kepulauan Talaud, Sulawesi Utara","Kabupaten Kepulauan Talaud, Sulawesi Utara",SULAWESI UTARA,,Indonesia,,,,3.762287,126.7722736,https://maps.google.com/?cid=0x0:0xc932526a682d33c2,
perumahan,Komplek perumahan,Mangaran talaud,"RQ32+827, Mangaran, Kec. Kabaruan, Kabupaten Kepulauan Talaud, Sulawesi Utara","Kabupaten Kepulauan Talaud, Sulawesi Utara",SULAWESI UTARA,,Indonesia,,,,3.8032973,126.750037,https://maps.google.com/?cid=0x0:0xd64a5b6defd1805a,
perumahan,Komplek perumahan,Balai lansia desa pantuge,"RQMV+FJV, Pantuge, Kec. Kabaruan, Kabupaten Kepulauan Talaud, Sulawesi Utara","Kabupaten Kepulauan Talaud, Sulawesi Utara",SULAWESI UTARA,,Indonesia,,,,3.8324416,126.7943628,https://maps.google.com/?cid=0x0:0x5921c03ebabc2ed5,
perumahan,perumahan,Taduna,"RPPX+HP6, Taduna, Kec. Kabaruan, Kabupaten Kepulauan Talaud, Sulawesi Utara","Kabupaten Kepulauan Talaud, Sulawesi Utara",SULAWESI UTARA,,Indonesia,,,,3.8364206,126.7492659,https://maps.google.com/?cid=0x0:0x51b4b2b5a17c28a5,
perumahan,Gedung Apartemen,Rumah Marvelous Pinangge,"RQQM+2X9, Kabaruan Tim., Kec. Kabaruan, Kabupaten Kepulauan Talaud, Sulawesi Utara","Kabupaten Kepulauan Talaud, Sulawesi Utara",SULAWESI UTARA,,Indonesia,,,,3.8375362,126.7849742,https://maps.google.com/?cid=0x0:0x73a7c70a06f2edf3,
perumahan,Komplek perumahan,"Rumah kades pangeran, kel durian biasa","QQRM+68V, Pangeran, Kec. Kabaruan, Kabupaten Kepulauan Talaud, Sulawesi Utara","Kabupaten Kepulauan Talaud, Sulawesi Utara",SULAWESI UTARA,,Indonesia,,,,3.7906054,126.783297,https://maps.google.com/?cid=0x0:0x21f2d28d40a2b1c7,
perumahan,Komplek perumahan,Rumah Noviani manaida,"QQMR+622, Pannulan, Kec. Kabaruan, Kabupaten Kepulauan Talaud, Sulawesi Utara","Kabupaten Kepulauan Talaud, Sulawesi Utara",SULAWESI UTARA,,Indonesia,,,,3.7830053,126.7900293,https://maps.google.com/?cid=0x0:0x6a1396a9f966bb55,
perumahan,Komplek perumahan,Kobong cingke,"Pannulan, Kec. Kabaruan, Kabupaten Kepulauan Talaud, Sulawesi Utara","Kabupaten Kepulauan Talaud, Sulawesi Utara",SULAWESI UTARA,,Indonesia,81363240614.0,,,3.783005,126.790029,https://maps.google.com/?cid=0x0:0x7ea6827d401e03d4,
perumahan,Komplek perumahan,Pantuge barat,"RQQM+2X7, Pantuge Bar., Kec. Kabaruan, Kabupaten Kepulauan Talaud, Sulawesi Utara","Kabupaten Kepulauan Talaud, Sulawesi Utara",SULAWESI UTARA,,Indonesia,,,,3.8375465,126.7849218,https://maps.google.com/?cid=0x0:0x5364d36b03064e71,
perumahan,Komplek perumahan,DellaCantik,"RQ32+827, Mangaran, Kec. Kabaruan, Kabupaten Kepulauan Talaud, Sulawesi Utara","Kabupaten Kepulauan Talaud, Sulawesi Utara",SULAWESI UTARA,,Indonesia,,,,3.8030946,126.7501745,https://maps.google.com/?cid=0x0:0x869944c2717cedb3,
perumahan,Komplek perumahan,Kel S Makatimbang Totopandey,"RPGW+7P, Taduna, Kabupaten Kepulauan Talaud, Sulawesi Utara","Kabupaten Kepulauan Talaud, Sulawesi Utara",SULAWESI UTARA,,Indonesia,81296252540.0,,,3.825707,126.746774,https://maps.google.com/?cid=0x0:0xc1420856a736650f,
perumahan,Pembangunan Perumahan, nehemia,"RQMW+R2F, Pantuge, Kec. Kabaruan, Kabupaten Kepulauan Talaud, Sulawesi Utara","Kabupaten Kepulauan Talaud, Sulawesi Utara",SULAWESI UTARA,,Indonesia,,,,3.8345625,126.7950469,https://maps.google.com/?cid=0x0:0xddfe2af72c1fe818,
perumahan,Kantor Perusahaan,Kalongan Utara,"2J9P+5HC, Kalongan, Kabupaten Kepulauan Talaud, Sulawesi Utara","Kabupaten Kepulauan Talaud, Sulawesi Utara",SULAWESI UTARA,,Indonesia,,,,4.0179493,126.6363811,https://maps.google.com/?cid=0x0:0xa5e107f7a8244bce,
perumahan,perumahan,Kalongan,"2JG9+PC7, Kalongan, Kabupaten Kepulauan Talaud, Sulawesi Utara","Kabupaten Kepulauan Talaud, Sulawesi Utara",SULAWESI UTARA,,Indonesia,,,,4.0267831,126.6185417,https://maps.google.com/?cid=0x0:0xba4252c5a0862afe,
perumahan,Pembangunan Perumahan,Onn kalongan (pengobatan mistis),"3J28+4XQ, Kalongan Utara, Kalongan, Kabupaten Kepulauan Talaud, Sulawesi Utara","Kabupaten Kepulauan Talaud, Sulawesi Utara",SULAWESI UTARA,,Indonesia,,,,4.0503271,126.6174902,https://maps.google.com/?cid=0x0:0xc5ca4bf3ec236d38,
perumahan,Pembangunan Perumahan,Lomban house,"2JF9+CH8, Kalongan Sel., Kalongan, Kabupaten Kepulauan Talaud, Sulawesi Utara","Kabupaten Kepulauan Talaud, Sulawesi Utara",SULAWESI UTARA,,Indonesia,,,,4.023544,126.6189605,https://maps.google.com/?cid=0x0:0xdbebea3dae9fb5eb,
perumahan,Komplek perumahan,Yolanda home,"2MWC+66V, Beo - Melonguane, Sawang, Kec. Melonguane, Kabupaten Kepulauan Talaud, Sulawesi Utara","Kabupaten Kepulauan Talaud, Sulawesi Utara",SULAWESI UTARA,,Indonesia,,,,4.0456043,126.6705612,https://maps.google.com/?cid=0x0:0x5fd7ffb19165c40d,
perumahan,Komplek perumahan,home sweet homee,"2JF9+JC9, Kalongan Sel., Kalongan, Kabupaten Kepulauan Talaud, Sulawesi Utara","Kabupaten Kepulauan Talaud, Sulawesi Utara",SULAWESI UTARA,,Indonesia,,,,4.0240463,126.6186118,https://maps.google.com/?cid=0x0:0xdc91a6330994e77d,
perumahan,Komplek perumahan,Rumah kris,"2JF9+CH8, Kalongan Sel., Kalongan, Kabupaten Kepulauan Talaud, Sulawesi Utara","Kabupaten Kepulauan Talaud, Sulawesi Utara",SULAWESI UTARA,,Indonesia,,,,4.023545,126.61894,https://maps.google.com/?cid=0x0:0x7cca90f20f8d0034,
perumahan,Komplek perumahan,Ampin Mrt,"Desa musi 1, Kalongan, Kabupaten Kepulauan Talaud","Kabupaten Kepulauan Talaud, Sulawesi Utara",SULAWESI UTARA,,Indonesia,82286901083.0,,,3.9596141,126.6632538,https://maps.google.com/?cid=0x0:0xb6342035ab6409c7,
perumahan,Komplek perumahan,Rumah yuni,"2J3R+XQH, Alude, Kalongan, Kabupaten Kepulauan Talaud, Sulawesi Utara","Kabupaten Kepulauan Talaud, Sulawesi Utara",SULAWESI UTARA,,Indonesia,,,,4.0049444,126.6419859,https://maps.google.com/?cid=0x0:0x59bb309c2586e262,
perumahan,Komplek perumahan,Tuwone Indah,"2MWC+VFW, Sawang, Kec. Melonguane, Kabupaten Kepulauan Talaud, Sulawesi Utara","Kabupaten Kepulauan Talaud, Sulawesi Utara",SULAWESI UTARA,,Indonesia,,,,4.0472331,126.6711935,https://maps.google.com/?cid=0x0:0x125997ad91f939bc,
perumahan,Komplek perumahan,Rumah Rifay,"2JH8+QWP, Kalongan, Kabupaten Kepulauan Talaud, Sulawesi Utara","Kabupaten Kepulauan Talaud, Sulawesi Utara",SULAWESI UTARA,,Indonesia,,,,4.0295196,126.617497,https://maps.google.com/?cid=0x0:0xb0809905cb26888b,
perumahan,Komplek perumahan,Sasauw Melly,"2JG9+M37, Kalongan, Kabupaten Kepulauan Talaud, Sulawesi Utara","Kabupaten Kepulauan Talaud, Sulawesi Utara",SULAWESI UTARA,,Indonesia,,,,4.0266524,126.617671,https://maps.google.com/?cid=0x0:0xf7a167ec64ba501c,
perumahan,Komplek perumahan,Perumahah Dinas Bandara,"2M4F+VV9, Kec. Melonguane, Kabupaten Kepulauan Talaud, Sulawesi Utara","Kabupaten Kepulauan Talaud, Sulawesi Utara",SULAWESI UTARA,,Indonesia,,,,4.0069842,126.6749972,https://maps.google.com/?cid=0x0:0xac965429c39915ce,
perumahan,Komplek perumahan,Perumahan Graha Adia Cluster I Kalongan,"Graha adia no 4 kajangan, Sigude, Kalongan, Kec. Ungaran Tim., Kabupaten Semarang, Jawa Tengah 50519","Sigude, Kalongan, Kec. Ungaran Tim., Kabupaten Semarang",SULAWESI UTARA,50519.0,Indonesia,,,,-7.138877,110.4375838,https://maps.google.com/?cid=0x0:0x9c544cf1b094fd97,
perumahan,Perhimpunan Pengembang Perumahan,New Kalongan Residence,"Jl. Bukit Leyangan Indah XIV No.1375, Gn. Pabongan, Leyangan, Kec. Ungaran Tim., Kabupaten Semarang, Jawa Tengah 50519","Gn. Pabongan, Leyangan, Kec. Ungaran Tim., Kabupaten Semarang",SULAWESI UTARA,50519.0,Indonesia,,,,-7.1441389,110.4394722,https://maps.google.com/?cid=0x0:0x688d669bd1f32486,
perumahan,Otoritas Perumahan,Rumah Subsidi Kalongan Giya Karya Adiguna LT 72,"VFF3+965, Dampu, Kalongan, Kec. Ungaran Tim., Kabupaten Semarang, Jawa Tengah 50519","Dampu, Kalongan, Kec. Ungaran Tim., Kabupaten Semarang",SULAWESI UTARA,50519.0,Indonesia,81228589046.0,,,-7.1266162,110.4530991,https://maps.google.com/?cid=0x0:0x500ef54052243c3a,
perumahan,Perhimpunan Pengembang Perumahan,Perumahan Griya Mandiri Kalongan,"VC7V+63M, Perumahan Griya Mandiri Kalongan, Dusun Bandungan, RT.01/RW.03, Kalongan, Ungaran Timur, Semarang Regency, Central Java 50519","Perumahan Griya Mandiri Kalongan, Dusun Bandungan, RT.01/RW.03, Kalongan, Ungaran Timur, Semarang Regency",SULAWESI UTARA,50519.0,Indonesia,,,,-7.1369017,110.4426784,https://maps.google.com/?cid=0x0:0x9b5fd9035241d388,
perumahan,Pembangunan Perumahan,Griya Kalongan Indah,"Pringkurung, Jl. Arjuna No.1b, RW.2, Kejangan, Kalongan, Kec. Ungaran Tim., Kabupaten Semarang, Jawa Tengah 50519","Jl. Arjuna No.1b, RW.2, Kejangan, Kalongan, Kec. Ungaran Tim., Kabupaten Semarang",SULAWESI UTARA,50519.0,Indonesia,,,,-7.1314812,110.4487666,https://maps.google.com/?cid=0x0:0xe36c6f75772671cd,
perumahan,Komplek perumahan,Griya Kalongan Indah Blok C-4,"VC9X+FGR, Kalongan, Kec. Ungaran Tim., Kabupaten Semarang, Jawa Tengah","Kabupaten Semarang, Jawa Tengah",SULAWESI UTARA,,Indonesia,,,,-7.1312503,110.4487679,https://maps.google.com/?cid=0x0:0x1e7921e3f2dc9a8c,
perumahan,Asosiasi Penduduk,Perumahan Bukit Pring Kurung,"Jl. Setia Budi G. 62, Tanah Prumpung, Kalongan, Kec. Ungaran Tim., Kabupaten Semarang, Jawa Tengah 50519","Tanah Prumpung, Kalongan, Kec. Ungaran Tim., Kabupaten Semarang",SULAWESI UTARA,50519.0,Indonesia,,,,-7.1329312,110.4478659,https://maps.google.com/?cid=0x0:0xf378cf9684db3ce,
perumahan,Pembangunan Perumahan,Perumahan Griya Karya Adiguna Ungaran kab semarang,"Jl. Griya Karya Adiguna No.17, Dampu, Kalongan, Kec. Ungaran Tim., Kabupaten Semarang, Jawa Tengah 50519","Dampu, Kalongan, Kec. Ungaran Tim., Kabupaten Semarang",SULAWESI UTARA,50519.0,Indonesia,81228589046.0,,,-7.126693,110.4530687,https://maps.google.com/?cid=0x0:0x8bcdca043a710a44,
perumahan,Komplek perumahan,Kavl Kalongan 1,"VFC2+8V5, Tanah Prumpung, Kalongan, Kec. Ungaran Tim., Kabupaten Semarang, Jawa Tengah","Kabupaten Semarang, Jawa Tengah",SULAWESI UTARA,,Indonesia,,,,-7.1292329,110.4522192,https://maps.google.com/?cid=0x0:0xd51168cbe00cd87e,
perumahan,Perhimpunan Pengembang Perumahan,CaikE36,"Griya Kalongan Indah E-36, Ungaran Timur, Semarang Regency, Central Java","Kabupaten Semarang, Jawa Tengah",SULAWESI UTARA,,Indonesia,,,,-7.1315359,110.4489265,https://maps.google.com/?cid=0x0:0x646a5d2f6845282b,
perumahan,Komplek perumahan,Griya Kalongan,"VC9X+FM, Kejangan, Kalongan, Kec. Ungaran Tim., Kabupaten Semarang, Jawa Tengah 50519","Kejangan, Kalongan, Kec. Ungaran Tim., Kabupaten Semarang",SULAWESI UTARA,50519.0,Indonesia,,,,-7.1312862,110.4491964,https://maps.google.com/?cid=0x0:0x794db3ca427f1c39,
perumahan,Komplek perumahan,rumah,"VF32+6JQ, RT.06/RW.07, Mendiro, Kalongan, Kec. Ungaran Tim., Kabupaten Semarang, Jawa Tengah","Kabupaten Semarang, Jawa Tengah",SULAWESI UTARA,,Indonesia,83898045123.0,,,-7.1469111,110.4516184,https://maps.google.com/?cid=0x0:0x917a10f8c5821a28,
perumahan,Pembangunan Perumahan,Perumahan Mustika Kalongan Residence,"VC4P+JXG, Sigude, Kalongan, Kec. Ungaran Tim., Kabupaten Semarang, Jawa Tengah 50519","Sigude, Kalongan, Kec. Ungaran Tim., Kabupaten Semarang",SULAWESI UTARA,50519.0,Indonesia,,,,-7.1434461,110.4374431,https://maps.google.com/?cid=0x0:0xae640630c4ad8b48,
perumahan,Komplek perumahan,Perumahan Panorama Asri,"VC7W+95Q, Jl. Bima, Bandungan, Kalongan, Kec. Ungaran Tim., Kabupaten Semarang, Jawa Tengah 50519","Jl. Bima, Bandungan, Kalongan, Kec. Ungaran Tim., Kabupaten Semarang",SULAWESI UTARA,50519.0,Indonesia,,,,-7.1365374,110.4454918,https://maps.google.com/?cid=0x0:0xee81ca0d7f514397,
perumahan,Komplek perumahan,Rumah Coklat Kalongan,"VC9V+5JW, RT.03/RW.08, Tanah Prumpung, Kalongan, Ungaran Timur, Semarang Regency, Central Java 50519","RT.03/RW.08, Tanah Prumpung, Kalongan, Ungaran Timur, Semarang Regency",SULAWESI UTARA,50519.0,Indonesia,,,,-7.1320211,110.4440838,https://maps.google.com/?cid=0x0:0xae7515fe5a7a94e5,
perumahan,Komplek perumahan,Rhaniah house,"Griya kalongan indah Blok I 41, Tanah Prumpung, Kalongan, Kec. Ungaran Tim., Kabupaten Semarang, Jawa Tengah","Kabupaten Semarang, Jawa Tengah",SULAWESI UTARA,,Indonesia,,,,-7.1305556,110.4501422,https://maps.google.com/?cid=0x0:0x674bfad20b1f387,
perumahan,perumahan,Lirung,"Kabupaten Kepulauan Talaud, Sulawesi Utara","Kabupaten Kepulauan Talaud, Sulawesi Utara",SULAWESI UTARA,,Indonesia,,,,3.9572072,126.6795425,https://maps.google.com/?cid=0x0:0x210eac5f2d6150d0,
perumahan,Komplek perumahan,Lirung,"XM4H+VRM, Lirung Matane, Lirung, Kabupaten Kepulauan Talaud, Sulawesi Utara","Kabupaten Kepulauan Talaud, Sulawesi Utara",SULAWESI UTARA,,Indonesia,,,,3.9572072,126.6795425,https://maps.google.com/?cid=0x0:0x91425ae1de798dc1,
perumahan,Komplek perumahan,Keluarga,"WMPX+Q4F, Lirung Satu, Lirung, Kabupaten Kepulauan Talaud, Sulawesi Utara","Kabupaten Kepulauan Talaud, Sulawesi Utara",SULAWESI UTARA,,Indonesia,,,,3.9368675,126.6976588,https://maps.google.com/?cid=0x0:0xdc27a40250206849,
perumahan,Bed >>u0026 Breakfast,Delaya Kost Lirung,"Jl. J. P. Panahal, Lirung Satu, Lirung, Kabupaten Kepulauan Talaud, Sulawesi Utara 95871","Lirung Satu, Lirung, Kabupaten Kepulauan Talaud",SULAWESI UTARA,95871.0,Indonesia,82132778184.0,,,3.9395979,126.6908161,https://maps.google.com/?cid=0x0:0x6ebb7d137c7d2ba1,
perumahan,Komplek perumahan,Koko,"WMPX+73F, Lirung Satu, Lirung, Kabupaten Kepulauan Talaud, Sulawesi Utara","Kabupaten Kepulauan Talaud, Sulawesi Utara",SULAWESI UTARA,,Indonesia,,,,3.935736,126.6976485,https://maps.google.com/?cid=0x0:0x201554c4d31f8362,
perumahan,perumahan,Kel.Taawoeda-Taruh,"WMQV+72W, Lirung Matane, Lirung, Kabupaten Kepulauan Talaud, Sulawesi Utara","Kabupaten Kepulauan Talaud, Sulawesi Utara",SULAWESI UTARA,,Indonesia,,,,3.9382446,126.6925836,https://maps.google.com/?cid=0x0:0xf8ee9f8cd183d16c,
perumahan,Komplek perumahan,rumah afif,"WMMW+5CM, Lirung Satu, Lirung, Kabupaten Kepulauan Talaud, Sulawesi Utara","Kabupaten Kepulauan Talaud, Sulawesi Utara",SULAWESI UTARA,,Indonesia,,,,3.9329586,126.6960522,https://maps.google.com/?cid=0x0:0x1246499445399be6,
perumahan,Komplek perumahan,Kel lumenokolang,"WPM2+PJC, Lirung Satu, Lirung, Kabupaten Kepulauan Talaud, Sulawesi Utara","Kabupaten Kepulauan Talaud, Sulawesi Utara",SULAWESI UTARA,,Indonesia,,,,3.9341617,126.7013867,https://maps.google.com/?cid=0x0:0x41c86caa4929f35b,
perumahan,perumahan,Rumah Tatundu - Pangalasen,"WMQR+F6W, Lirung Satu, Lirung, Kabupaten Kepulauan Talaud, Sulawesi Utara","Kabupaten Kepulauan Talaud, Sulawesi Utara",SULAWESI UTARA,,Indonesia,,,,3.9387653,126.6905188,https://maps.google.com/?cid=0x0:0x45a28f93e0aee310,
perumahan,Pembangunan Perumahan,Yadi mustar home,"WMPX+QFW, Lirung Satu, Lirung, Kabupaten Kepulauan Talaud, Sulawesi Utara","Kabupaten Kepulauan Talaud, Sulawesi Utara",SULAWESI UTARA,,Indonesia,,,,3.9368611,126.6983341,https://maps.google.com/?cid=0x0:0x9c6a71315a58ee96,
perumahan,Komplek perumahan,Rumah Kel. Bawinto-Kaehe,"WPP2+M6Q, Lirung Satu, Lirung, Kabupaten Kepulauan Talaud, Sulawesi Utara","Kabupaten Kepulauan Talaud, Sulawesi Utara",SULAWESI UTARA,,Indonesia,,,,3.9364423,126.7006767,https://maps.google.com/?cid=0x0:0xe6db43898c7ec9bf,
perumahan,Komplek perumahan,Kel.Emor Tatuluse,"Lirung Satu, Lirung, Kabupaten Kepulauan Talaud, Sulawesi Utara","Kabupaten Kepulauan Talaud, Sulawesi Utara",SULAWESI UTARA,,Indonesia,,,,3.9348802,126.6988159,https://maps.google.com/?cid=0x0:0x5b7702a751061621,
perumahan,Pembangunan Perumahan,Home Maria,"WMMV+FVR, Lirung Satu, Lirung, Kabupaten Kepulauan Talaud, Sulawesi Utara","Kabupaten Kepulauan Talaud, Sulawesi Utara",SULAWESI UTARA,,Indonesia,,,,3.9335828,126.6954698,https://maps.google.com/?cid=0x0:0x9021137477ed4f35,
perumahan,Asosiasi/organisasi,Pucuk Merah House,"WMQR+C77, Lirung Matane, Lirung, Kabupaten Kepulauan Talaud, Sulawesi Utara","Kabupaten Kepulauan Talaud, Sulawesi Utara",SULAWESI UTARA,,Indonesia,,,,3.9385355,126.6906808,https://maps.google.com/?cid=0x0:0x94cfe24e1eb384a1,
perumahan,Komplek perumahan,rumah endy,"WPP2+897, Lirung Satu, Lirung, Kabupaten Kepulauan Talaud, Sulawesi Utara","Kabupaten Kepulauan Talaud, Sulawesi Utara",SULAWESI UTARA,,Indonesia,,,,3.9357763,126.7009084,https://maps.google.com/?cid=0x0:0x94ddca64931fa09f,
perumahan,Pembangunan Perumahan,Lahama Home,"WPP2+M6Q, Lirung Satu, Lirung, Kabupaten Kepulauan Talaud, Sulawesi Utara","Kabupaten Kepulauan Talaud, Sulawesi Utara",SULAWESI UTARA,,Indonesia,,,,3.9367167,126.700605,https://maps.google.com/?cid=0x0:0x994aace2607a9c1e,
perumahan,Komplek perumahan,Rumah Amoreiza,"WMPX+JMF, Lirung Satu, Lirung, Kabupaten Kepulauan Talaud, Sulawesi Utara","Kabupaten Kepulauan Talaud, Sulawesi Utara",SULAWESI UTARA,,Indonesia,,,,3.9365697,126.6991684,https://maps.google.com/?cid=0x0:0x7b03b17cadd67c80,
perumahan,Komplek perumahan,Rumah Mey Marungsenge,"WMQX+55C, Lirung Satu, Lirung, Kabupaten Kepulauan Talaud, Sulawesi Utara","Kabupaten Kepulauan Talaud, Sulawesi Utara",SULAWESI UTARA,,Indonesia,,,,3.9379295,126.6978836,https://maps.google.com/?cid=0x0:0xcae2e67c1af547d7,
perumahan,Pembangunan Perumahan,J/S,"XM67+82W, Sereh, Lirung, Kabupaten Kepulauan Talaud, Sulawesi Utara","Kabupaten Kepulauan Talaud, Sulawesi Utara",SULAWESI UTARA,,Indonesia,,,,3.9608563,126.6625903,https://maps.google.com/?cid=0x0:0xc26844e489c48990,
perumahan,Komplek perumahan,Rumah RosaliaBanua,"WPP2+524,LIRUNG, Lirung Satu, Kec. Moronge, Kabupaten Kepulauan Talaud, Sulawesi Utara","Kabupaten Kepulauan Talaud, Sulawesi Utara",SULAWESI UTARA,,Indonesia,,,,3.9353875,126.7000781,https://maps.google.com/?cid=0x0:0xd9f49d5dd0a28737,
perumahan,Komplek perumahan,Kel. Bontea Gawalu,"WPP2+524, Musi, Lirung Satu, Kec. Moronge, Kabupaten Kepulauan Talaud, Sulawesi Utara","Kabupaten Kepulauan Talaud, Sulawesi Utara",SULAWESI UTARA,,Indonesia,,,,3.9353653,126.7000599,https://maps.google.com/?cid=0x0:0xd92f1b2c5d3088e0,
perumahan,Komplek perumahan,Rumah Aisyah,"WMPX+946, Lirung Satu, Lirung, Kabupaten Kepulauan Talaud, Sulawesi Utara","Kabupaten Kepulauan Talaud, Sulawesi Utara",SULAWESI UTARA,,Indonesia,,,,3.935908,126.6977669,https://maps.google.com/?cid=0x0:0x11a5d5f6ecbbf948,
perumahan,Komplek perumahan,Rumah juannino .s. padama,"XM49+V2W, Musi, Lirung, Kabupaten Kepulauan Talaud, Sulawesi Utara","Kabupaten Kepulauan Talaud, Sulawesi Utara",SULAWESI UTARA,,Indonesia,,,,3.9571931,126.6675882,https://maps.google.com/?cid=0x0:0x8e0378c04f577885,
perumahan,Komplek perumahan,Rumah kaindra tumbihas,"WMQR+QVG, Lirung Satu, Lirung, Kabupaten Kepulauan Talaud, Sulawesi Utara","Kabupaten Kepulauan Talaud, Sulawesi Utara",SULAWESI UTARA,,Indonesia,,,,3.9394333,126.6922083,https://maps.google.com/?cid=0x0:0x5cb41c25eff73cb2,
perumahan,perumahan,Kec. Melonguane,"Kabupaten Kepulauan Talaud, Sulawesi Utara","Kabupaten Kepulauan Talaud, Sulawesi Utara",SULAWESI UTARA,,Indonesia,,,,4.0732215,126.6898783,https://maps.google.com/?cid=0x0:0xcefc20000c591b01,
perumahan,Komplek perumahan,Yolanda home,"2MWC+66V, Beo - Melonguane, Sawang, Kec. Melonguane, Kabupaten Kepulauan Talaud, Sulawesi Utara","Kabupaten Kepulauan Talaud, Sulawesi Utara",SULAWESI UTARA,,Indonesia,,,,4.0456043,126.6705612,https://maps.google.com/?cid=0x0:0x5fd7ffb19165c40d,
perumahan,Komplek perumahan,Rumah QQ,"2M2M+28Q, Jl. Gagang Payung, Lingkungan V, Melonguane, North Sulawesi",Sulawesi Utara,SULAWESI UTARA,,Indonesia,,,,4.000082,126.6833553,https://maps.google.com/?cid=0x0:0x7f30d17844369674,
perumahan,Komplek perumahan,raeesah_project,"2M4G+J8G, Kec. Melonguane, Kabupaten Kepulauan Talaud, Sulawesi Utara","Kabupaten Kepulauan Talaud, Sulawesi Utara",SULAWESI UTARA,,Indonesia,,,,4.0065591,126.6758342,https://maps.google.com/?cid=0x0:0xa3d07db7eb42694a,
perumahan,Komplek perumahan,Rexi home,"2M8P+4H, Melonguane, Kec. Melonguane, Kabupaten Kepulauan Talaud, Sulawesi Utara","Kabupaten Kepulauan Talaud, Sulawesi Utara",SULAWESI UTARA,,Indonesia,,,,4.015276,126.686392,https://maps.google.com/?cid=0x0:0xf9bd1e84a1e49be8,
perumahan,Komplek perumahan,Tuwone Indah,"2MWC+VFW, Sawang, Kec. Melonguane, Kabupaten Kepulauan Talaud, Sulawesi Utara","Kabupaten Kepulauan Talaud, Sulawesi Utara",SULAWESI UTARA,,Indonesia,,,,4.0472331,126.6711935,https://maps.google.com/?cid=0x0:0x125997ad91f939bc,
perumahan,Komplek perumahan,Melonguane,"XMWH+VG2, Melonguane, Kabupaten Kepulauan Talaud, Sulawesi Utara","Kabupaten Kepulauan Talaud, Sulawesi Utara",SULAWESI UTARA,,Indonesia,,,,3.9971291,126.6787677,https://maps.google.com/?cid=0x0:0x76b84e338c41a962,
perumahan,Komplek perumahan,Keluarga loronusa-darinding,"3M4H+J85, Sawang Utara, Kec. Melonguane, Kabupaten Kepulauan Talaud, Sulawesi Utara","Kabupaten Kepulauan Talaud, Sulawesi Utara",SULAWESI UTARA,,Indonesia,,,,4.0565204,126.6783724,https://maps.google.com/?cid=0x0:0xf73976b76b7d8470,
perumahan,Komplek perumahan,Perumahan syariah no. 7,"XMXM+FCX, Kec. Melonguane, Kabupaten Kepulauan Talaud, Sulawesi Utara","Kabupaten Kepulauan Talaud, Sulawesi Utara",SULAWESI UTARA,,Indonesia,,,,3.9991974,126.6839172,https://maps.google.com/?cid=0x0:0xb0024ced8c0e188b,
perumahan,Komplek perumahan,Muexx home,"3M3G+CQV, Sawang, Kec. Melonguane, Kabupaten Kepulauan Talaud, Sulawesi Utara","Kabupaten Kepulauan Talaud, Sulawesi Utara",SULAWESI UTARA,,Indonesia,,,,4.0536182,126.6769133,https://maps.google.com/?cid=0x0:0xe44a931b0021d9c5,
perumahan,Komplek perumahan,Perumahan R. Hunowu,"2M2M+FJ2, Kec. Melonguane, Kabupaten Kepulauan Talaud, Sulawesi Utara","Kabupaten Kepulauan Talaud, Sulawesi Utara",SULAWESI UTARA,,Indonesia,,,,4.0011269,126.6840312,https://maps.google.com/?cid=0x0:0x2b1114c1124cc4aa,
perumahan,Inspektur Tempat Tinggal,Rumah Keluarga Amos-Taarape,"XMXR+GGM, Kec. Melonguane, Kabupaten Kepulauan Talaud, Sulawesi Utara","Kabupaten Kepulauan Talaud, Sulawesi Utara",SULAWESI UTARA,,Indonesia,,,,3.9988262,126.6913053,https://maps.google.com/?cid=0x0:0xad659429674a6adf,
perumahan,perumahan,Rumah Kel.Tiolong-Gala,"XMXR+V2C, Kec. Melonguane, Kabupaten Kepulauan Talaud, Sulawesi Utara 95885","Kec. Melonguane, Kabupaten Kepulauan Talaud",SULAWESI UTARA,95885.0,Indonesia,,,,3.9992683,126.690147,https://maps.google.com/?cid=0x0:0x6905cf3a5853c39d,
perumahan,Komplek perumahan,Mailuas Bungkune,"2MFR+C44, Melonguane, Kec. Melonguane, Kabupaten Kepulauan Talaud, Sulawesi Utara","Kabupaten Kepulauan Talaud, Sulawesi Utara",SULAWESI UTARA,,Indonesia,,,,4.0235056,126.6903289,https://maps.google.com/?cid=0x0:0xa1170d37529b05e0,
perumahan,Komplek perumahan,Rumah Kel. Sarean Sumaa,"3MCV+5JX, Tarun Sel., Kec. Melonguane, Kabupaten Kepulauan Talaud, Sulawesi Utara","Kabupaten Kepulauan Talaud, Sulawesi Utara",SULAWESI UTARA,,Indonesia,,,,4.0704782,126.6941126,https://maps.google.com/?cid=0x0:0x9d40a787c6804a,
perumahan,Komplek perumahan,Kel.Mahana-Larenggam,"3M3G+VFH, Sawang, Kec. Melonguane, Kabupaten Kepulauan Talaud, Sulawesi Utara","Kabupaten Kepulauan Talaud, Sulawesi Utara",SULAWESI UTARA,,Indonesia,,,,4.0540024,126.6759608,https://maps.google.com/?cid=0x0:0xa037be8ed7cea07d,
perumahan,Komplek perumahan,Keluarga Riung Tinuwo,"2M3M+9P6, Kec. Melonguane, Kabupaten Kepulauan Talaud, Sulawesi Utara","Kabupaten Kepulauan Talaud, Sulawesi Utara",SULAWESI UTARA,,Indonesia,82187274344.0,,,4.0034113,126.6842582,https://maps.google.com/?cid=0x0:0xd5a190202c052e3d,
perumahan,Komplek perumahan,Home Sweet Home A.LARENGGAM,"3M3G+P9R, Sawang, Kec. Melonguane, Kabupaten Kepulauan Talaud, Sulawesi Utara","Kabupaten Kepulauan Talaud, Sulawesi Utara",SULAWESI UTARA,,Indonesia,,,,4.0543616,126.6758941,https://maps.google.com/?cid=0x0:0x8d172cea15bc1a8a,
perumahan,Komplek perumahan,Edoth's,"2M2J+7RX, Kec. Melonguane, Kabupaten Kepulauan Talaud, Sulawesi Utara","Kabupaten Kepulauan Talaud, Sulawesi Utara",SULAWESI UTARA,,Indonesia,,,,4.0007018,126.6821583,https://maps.google.com/?cid=0x0:0x63f423438b64aa73,
perumahan,perumahan,Rumah abu-abu merah,"2PM4+2VF, jalan trans, Mala, Kec. Melonguane, Kabupaten Kepulauan Talaud, Sulawesi Utara","Kabupaten Kepulauan Talaud, Sulawesi Utara",SULAWESI UTARA,,Indonesia,,,,4.0325567,126.7071796,https://maps.google.com/?cid=0x0:0x7f5c82b15d74d199,
perumahan,Komplek perumahan,Jimmy Liunsanda,"XMXP+75V, Kec. Melonguane, Kabupaten Kepulauan Talaud, Sulawesi Utara","Kabupaten Kepulauan Talaud, Sulawesi Utara",SULAWESI UTARA,,Indonesia,,,,3.9982396,126.6854225,https://maps.google.com/?cid=0x0:0x4457ec8da7b61dcc,
perumahan,Komplek perumahan,Keluarga Magenda Peloan,"4P3J+Q93, Niampak, Kec. Beo Sel., Kabupaten Kepulauan Talaud, Sulawesi Utara","Kabupaten Kepulauan Talaud, Sulawesi Utara",SULAWESI UTARA,,Indonesia,,,,4.1043912,126.7309156,https://maps.google.com/?cid=0x0:0x8019245eb70df76c,
perumahan,Komplek perumahan,Rumah Keluarga Aldrywin,"XMXP+878, Lingkungan II Kelurahan Melonguane Timur, Kec. Melonguane, Kabupaten Kepulauan Talaud",Kabupaten Kepulauan Talaud,SULAWESI UTARA,,Indonesia,,,,3.998277,126.6856884,https://maps.google.com/?cid=0x0:0x2c89466f906dc1ab,
perumahan,Komplek perumahan,rumahnya lani,"3PR8+2RJ, Ruso, Kec. Beo Sel., Kabupaten Kepulauan Talaud, Sulawesi Utara","Kabupaten Kepulauan Talaud, Sulawesi Utara",SULAWESI UTARA,,Indonesia,,,,4.090536,126.717478,https://maps.google.com/?cid=0x0:0x7fd509d4f7d79e56,
perumahan,perumahan,Melonguane Tim.,"Kabupaten Kepulauan Talaud, Sulawesi Utara","Kabupaten Kepulauan Talaud, Sulawesi Utara",SULAWESI UTARA,,Indonesia,,,,4.0485353,126.7711774,https://maps.google.com/?cid=0x0:0xd6ab634a93c1c28d,
perumahan,Komplek perumahan,rumah,"2QCQ+RX7, Tule, Melonguane Tim., Kabupaten Kepulauan Talaud, Sulawesi Utara","Kabupaten Kepulauan Talaud, Sulawesi Utara",SULAWESI UTARA,,Indonesia,,,,4.0222707,126.7901937,https://maps.google.com/?cid=0x0:0xb23a24ca8e91448d,
perumahan,Komplek perumahan,Selo,"2Q9P+5Q6, Tule, Melonguane Tim., Kabupaten Kepulauan Talaud, Sulawesi Utara","Kabupaten Kepulauan Talaud, Sulawesi Utara",SULAWESI UTARA,,Indonesia,,,,4.0179033,126.78689,https://maps.google.com/?cid=0x0:0xff95913777575e48,
perumahan,perumahan,Biel Home,"2QXC+CF7, Tule Utara, Melonguane Tim., Kabupaten Kepulauan Talaud, Sulawesi Utara","Kabupaten Kepulauan Talaud, Sulawesi Utara",SULAWESI UTARA,,Indonesia,,,,4.0485353,126.7711774,https://maps.google.com/?cid=0x0:0x7fcf92df4c7716a0,
perumahan,Komplek perumahan,Om Fitrex Saliareng,"2QJV+C8H, Melonguane Tim., Kabupaten Kepulauan Talaud, Sulawesi Utara","Kabupaten Kepulauan Talaud, Sulawesi Utara",SULAWESI UTARA,,Indonesia,,,,4.0310525,126.7933552,https://maps.google.com/?cid=0x0:0x6f3f87b7f8416810,
perumahan,Komplek perumahan,Papa Martin,"2QCQ+RX7, Tule, Melonguane Tim., Kabupaten Kepulauan Talaud, Sulawesi Utara","Kabupaten Kepulauan Talaud, Sulawesi Utara",SULAWESI UTARA,,Indonesia,,,,4.0220473,126.7899252,https://maps.google.com/?cid=0x0:0x58e54925958be3e7,
perumahan,Komplek perumahan,Tamaroba-Maruga,"2QCR+39R, Tule Tengah, Melonguane Tim., Kabupaten Kepulauan Talaud, Sulawesi Utara","Kabupaten Kepulauan Talaud, Sulawesi Utara",SULAWESI UTARA,,Indonesia,,,,4.0202426,126.7908814,https://maps.google.com/?cid=0x0:0x94ffd310ac274ab8,
perumahan,Kios,Kios Putri,"2RR2+58H, Bowombaru, Kabupaten Kepulauan Talaud, Sulawesi Utara","Kabupaten Kepulauan Talaud, Sulawesi Utara",SULAWESI UTARA,,Indonesia,,,,4.0404264,126.8008746,https://maps.google.com/?cid=0x0:0x36fc48dc38ff7aef,
perumahan,Komplek perumahan,Keluarga Badil,"2QCR+25M, Tule Tengah, Kabupaten Kepulauan Talaud, Sulawesi Utara","Kabupaten Kepulauan Talaud, Sulawesi Utara",SULAWESI UTARA,,Indonesia,,,,4.0200793,126.7904294,https://maps.google.com/?cid=0x0:0x1550d5df764010b1,
perumahan,Komplek perumahan,AlyaHome,"2RP3+26, Bowombaru Tengah, Kabupaten Kepulauan Talaud, Sulawesi Utara","Kabupaten Kepulauan Talaud, Sulawesi Utara",SULAWESI UTARA,,Indonesia,,,,4.0350747,126.8030123,https://maps.google.com/?cid=0x0:0xb2a43b5deb1e0a7a,
perumahan,Komplek perumahan,Noah Home,"2QPX+PXM, Bowombaru Tengah, Kabupaten Kepulauan Talaud, Sulawesi Utara","Kabupaten Kepulauan Talaud, Sulawesi Utara",SULAWESI UTARA,,Indonesia,,,,4.0368272,126.7999104,https://maps.google.com/?cid=0x0:0x5bfe65417427da22,
perumahan,Kantor Perusahaan,Rumah Kades Tule,"2Q9P+JHH, Pulau Karakelong, Sulawesi Utara",Sulawesi Utara,SULAWESI UTARA,,Indonesia,,,,4.0190722,126.786497,https://maps.google.com/?cid=0x0:0x6855d566a1be8b27,
perumahan,Komplek perumahan,Meistip Singkara,"2QHV+437, Tule Utara, Kabupaten Kepulauan Talaud, Sulawesi Utara","Kabupaten Kepulauan Talaud, Sulawesi Utara",SULAWESI UTARA,,Indonesia,,,,4.0277895,126.7926664,https://maps.google.com/?cid=0x0:0xded752386784acb2,
perumahan,Pembangunan Perumahan,Alfa Sumajow,"2QHR+5W4, Tule Utara, Kabupaten Kepulauan Talaud, Sulawesi Utara","Kabupaten Kepulauan Talaud, Sulawesi Utara",SULAWESI UTARA,,Indonesia,,,,4.0278807,126.7923129,https://maps.google.com/?cid=0x0:0xf837b036887b1620,
perumahan,Rumah wisata,Semuel,"2QXC+CF7, Tule Utara, Melonguane Tim., Kabupaten Kepulauan Talaud, Sulawesi Utara","Kabupaten Kepulauan Talaud, Sulawesi Utara",SULAWESI UTARA,,Indonesia,,,,4.0485353,126.7711774,https://maps.google.com/?cid=0x0:0xb8c0a3350fc3536e,
perumahan,Komplek perumahan,Refli's Home address,"2QMX+WX3, Pulau Karakelong, Sulawesi Utara",Sulawesi Utara,SULAWESI UTARA,,Indonesia,,,,4.034751,126.7999224,https://maps.google.com/?cid=0x0:0x2565c89ed5df0962,
perumahan,Komplek perumahan,Melong timur,"XMXM+7JW, Jl, Kec. Melonguane, Kabupaten Kepulauan Talaud, Sulawesi Utara","Kabupaten Kepulauan Talaud, Sulawesi Utara",SULAWESI UTARA,,Indonesia,,,,3.9981434,126.6840607,https://maps.google.com/?cid=0x0:0xc44da3292168e3e7,
perumahan,perumahan,Pulau Miangas,"Miangas, Kabupaten Kepulauan Talaud, Sulawesi Utara","Kabupaten Kepulauan Talaud, Sulawesi Utara",SULAWESI UTARA,,Indonesia,,,,5.5560786,126.5850946,https://maps.google.com/?cid=0x0:0x412675778b0a52d5,
perumahan,Fasilitas Militer,Desa Miangas,"HH4P+C2Q, Miangas, Kabupaten Kepulauan Talaud, Sulawesi Utara","Kabupaten Kepulauan Talaud, Sulawesi Utara",SULAWESI UTARA,,Indonesia,,,,5.5560786,126.5850946,https://maps.google.com/?cid=0x0:0xb28ae6ec696d4c92,
perumahan,Komplek perumahan,Kilometer 0 Utara Indonesia,"HH4P+C2Q, Miangas, Kabupaten Kepulauan Talaud, Sulawesi Utara","Kabupaten Kepulauan Talaud, Sulawesi Utara",SULAWESI UTARA,,Indonesia,,,,5.5560786,126.5850946,https://maps.google.com/?cid=0x0:0x8a93b24cb0e216f,
perumahan,perumahan,Rumah Makan Selera Miangas indonesia,"HH2H+GWF, Miangas, Kabupaten Kepulauan Talaud, Sulawesi Utara","Kabupaten Kepulauan Talaud, Sulawesi Utara",SULAWESI UTARA,,Indonesia,85399265109.0,,,5.551322,126.5798122,https://maps.google.com/?cid=0x0:0x4ae8ac5a10c58d11,
perumahan,Komplek perumahan,Rumah Pink tante Dewi,"WP28+5PP, Moronge Sel. I, Kec. Moronge, Kabupaten Kepulauan Talaud, Sulawesi Utara","Kabupaten Kepulauan Talaud, Sulawesi Utara",SULAWESI UTARA,,Indonesia,,,,3.900787,126.716893,https://maps.google.com/?cid=0x0:0x7a6ea857c60a9531,
perumahan,Komplek perumahan,larumpaa mege,"WP28+5R5, Moronge Sel. I, Kec. Moronge, Kabupaten Kepulauan Talaud, Sulawesi Utara","Kabupaten Kepulauan Talaud, Sulawesi Utara",SULAWESI UTARA,,Indonesia,,,,3.8997327,126.7170174,https://maps.google.com/?cid=0x0:0xdb34ff79b8e12a61,
perumahan,perumahan,Felisya Jacobus Home,"VPV8+QCW, Moronge Sel., Kec. Moronge, Kabupaten Kepulauan Talaud, Sulawesi Utara","Kabupaten Kepulauan Talaud, Sulawesi Utara",SULAWESI UTARA,,Indonesia,,,,3.8944875,126.7160781,https://maps.google.com/?cid=0x0:0x60c076b1b46fd3be,
perumahan,Komplek perumahan,Rumah Orange Adena Umbeang,"WP28+5R5, Moronge Sel. I, Kec. Moronge, Kabupaten Kepulauan Talaud, Sulawesi Utara","Kabupaten Kepulauan Talaud, Sulawesi Utara",SULAWESI UTARA,,Indonesia,,,,3.89992,126.716721,https://maps.google.com/?cid=0x0:0x1f73c262f846c693,
perumahan,Komplek perumahan,Komplek Kel wisara,"WP28+HXH, Moronge, Kec. Moronge, Kabupaten Kepulauan Talaud, Sulawesi Utara","Kabupaten Kepulauan Talaud, Sulawesi Utara",SULAWESI UTARA,,Indonesia,,,,3.90143,126.7174965,https://maps.google.com/?cid=0x0:0x810afa92cff6ca6f,
perumahan,Pasar,Pasar Tua,"VPV8+H62, Moronge Sel., Kec. Moronge, Kabupaten Kepulauan Talaud, Sulawesi Utara","Kabupaten Kepulauan Talaud, Sulawesi Utara",SULAWESI UTARA,,Indonesia,,,,3.8936659,126.7169785,https://maps.google.com/?cid=0x0:0x5a24275fc9266de,
perumahan,Komplek perumahan,Mangore - Mantol,"Moronge Sel. II, Kec. Moronge, Kabupaten Kepulauan Talaud, Sulawesi Utara","Kabupaten Kepulauan Talaud, Sulawesi Utara",SULAWESI UTARA,,Indonesia,,,,3.898379,126.7169245,https://maps.google.com/?cid=0x0:0xdff8e08fbd03b278,
perumahan,Komplek perumahan,Regen Mararu,"Desa No.1, RW.1, Moronge Sel. II, Kec. Moronge, Kabupaten Kepulauan Talaud, Sulawesi Utara 95871","RW.1, Moronge Sel. II, Kec. Moronge, Kabupaten Kepulauan Talaud",SULAWESI UTARA,95871.0,Indonesia,,,,3.897693,126.717879,https://maps.google.com/?cid=0x0:0xe25f0de8a9367cd2,
perumahan,Komplek perumahan,ClrkHouse,"WP29+6MH, Moronge Sel. I, Kec. Moronge, Kabupaten Kepulauan Talaud, Sulawesi Utara","Kabupaten Kepulauan Talaud, Sulawesi Utara",SULAWESI UTARA,,Indonesia,,,,3.9001566,126.718798,https://maps.google.com/?cid=0x0:0xa364e822b6a56990,
perumahan,Komplek perumahan,Mingko,"WP29+68G, Moronge Sel. I, Kec. Moronge, Kabupaten Kepulauan Talaud, Sulawesi Utara","Kabupaten Kepulauan Talaud, Sulawesi Utara",SULAWESI UTARA,,Indonesia,,,,3.9005667,126.7183239,https://maps.google.com/?cid=0x0:0x9d901fd09dd9f9af,
perumahan,Komplek perumahan,KELAS LUMENDEK - UMBEANG,"VPW9+22M, Desa No.1, RW.1, Moronge Sel. II, Kec. Moronge, Kabupaten Kepulauan Talaud, Sulawesi Utara 95871","Desa No.1, RW.1, Moronge Sel. II, Kec. Moronge, Kabupaten Kepulauan Talaud",SULAWESI UTARA,95871.0,Indonesia,81296177066.0,,,3.8951573,126.7176354,https://maps.google.com/?cid=0x0:0x1d083a77932dd3a6,
perumahan,Komplek perumahan,Bung Karno Home,"WP2C+28Q, Moronge Sel., Kec. Moronge, Kabupaten Kepulauan Talaud, Sulawesi Utara","Kabupaten Kepulauan Talaud, Sulawesi Utara",SULAWESI UTARA,,Indonesia,,,,3.9000781,126.7208661,https://maps.google.com/?cid=0x0:0xc88e78a5d5ec594f,
perumahan,Komplek perumahan,Jeng Home,"VPR7+6G9, Kec. Moronge, Kabupaten Kepulauan Talaud, Sulawesi Utara","Kabupaten Kepulauan Talaud, Sulawesi Utara",SULAWESI UTARA,,Indonesia,,,,3.8915836,126.7140985,https://maps.google.com/?cid=0x0:0xbd57b38a3ea4fd1e,
perumahan,Komplek perumahan,Kel. Bontea Gawalu,"WPP2+524, Musi, Lirung Satu, Kec. Moronge, Kabupaten Kepulauan Talaud, Sulawesi Utara","Kabupaten Kepulauan Talaud, Sulawesi Utara",SULAWESI UTARA,,Indonesia,,,,3.9353653,126.7000599,https://maps.google.com/?cid=0x0:0xd92f1b2c5d3088e0,
perumahan,Komplek perumahan,TWINS HOME,"VPR7+J24, Moronge Sel. II, Kabupaten Kepulauan Talaud, Sulawesi Utara","Kabupaten Kepulauan Talaud, Sulawesi Utara",SULAWESI UTARA,,Indonesia,,,,3.8915137,126.7125753,https://maps.google.com/?cid=0x0:0x3ae9f9171b382331,
perumahan,Perhimpunan Pengembang Perumahan,Bray home talaud,"VPR9+V2, Moronge Sel. II, Kabupaten Kepulauan Talaud, Sulawesi Utara","Kabupaten Kepulauan Talaud, Sulawesi Utara",SULAWESI UTARA,,Indonesia,,,,3.892154,126.717524,https://maps.google.com/?cid=0x0:0x5c23819e5cf4e58a,
perumahan,Komplek perumahan,May_Son Mangore home,"WP28+CMM, Moronge Sel. I, Kec. Moronge, Kabupaten Kepulauan Talaud, Sulawesi Utara","Kabupaten Kepulauan Talaud, Sulawesi Utara",SULAWESI UTARA,,Indonesia,,,,3.901097,126.716681,https://maps.google.com/?cid=0x0:0x52b75a3375fd1d9,
perumahan,Gedung Apartemen,Rumah Kel. Maariwuth - Manialup,"VPR7+6G9, Kec. Moronge, Kabupaten Kepulauan Talaud, Sulawesi Utara","Kabupaten Kepulauan Talaud, Sulawesi Utara",SULAWESI UTARA,,Indonesia,,,,3.890349,126.7130229,https://maps.google.com/?cid=0x0:0x6c5e9acb46b2f819,
perumahan,Komplek perumahan,Home keluarga Mangore-Marune,"VPX9+W72, Moronge Sel. I, Kec. Moronge, Kabupaten Kepulauan Talaud, Sulawesi Utara","Kabupaten Kepulauan Talaud, Sulawesi Utara",SULAWESI UTARA,,Indonesia,,,,3.8997588,126.7181325,https://maps.google.com/?cid=0x0:0x4975187654d681ea,
perumahan,Komplek perumahan,Felisya Home,"VPV8+FJF, Moronge Sel., Kabupaten Kepulauan Talaud, Sulawesi Utara","Kabupaten Kepulauan Talaud, Sulawesi Utara",SULAWESI UTARA,,Indonesia,,,,3.8936937,126.7165507,https://maps.google.com/?cid=0x0:0x9d3559ebe3bcd342,
perumahan,Komplek perumahan,Louis house,"VPR7+6G9, Kec. Moronge, Kabupaten Kepulauan Talaud, Sulawesi Utara","Kabupaten Kepulauan Talaud, Sulawesi Utara",SULAWESI UTARA,,Indonesia,82293984506.0,,,3.891263,126.713393,https://maps.google.com/?cid=0x0:0xd4b0bd19392c34e2,
perumahan,Komplek perumahan,Winel,"VPV8+CM5, Dusun II, Moronge Sel., Kec. Moronge, Kabupaten Kepulauan Talaud",Kabupaten Kepulauan Talaud,SULAWESI UTARA,,Indonesia,,,,3.8935013,126.7167384,https://maps.google.com/?cid=0x0:0x30c672caff4c6468,
perumahan,perumahan,Kec. Nanusa,"Kabupaten Kepulauan Talaud, Sulawesi Utara","Kabupaten Kepulauan Talaud, Sulawesi Utara",SULAWESI UTARA,,Indonesia,,,,4.7677023,127.1365803,https://maps.google.com/?cid=0x0:0x9befc8beadc94d3,
perumahan,Komplek perumahan,Rumah Kel: Samura-Liunsanda,"P3WW+QGH, Dusun 2, Karatung, Kec. Nanusa, Kabupaten Kepulauan Talaud, Sulawesi Utara","Kabupaten Kepulauan Talaud, Sulawesi Utara",SULAWESI UTARA,,Indonesia,,,,4.7469452,127.0963683,https://maps.google.com/?cid=0x0:0x4a2af6c823018466,
perumahan,Pembangunan Perumahan,Kel. Maarisit Tamamengka,"P3RC+F92, Karatung Sel., Kec. Nanusa, Kabupaten Kepulauan Talaud, Sulawesi Utara","Kabupaten Kepulauan Talaud, Sulawesi Utara",SULAWESI UTARA,,Indonesia,,,,4.741127,127.0708891,https://maps.google.com/?cid=0x0:0xafe36e54db3c4be8,
perumahan,Pembangunan Perumahan,Glend pe rumah,"Q447+5X6, Dampulis, Kabupaten Kepulauan Talaud, Sulawesi Utara","Kabupaten Kepulauan Talaud, Sulawesi Utara",SULAWESI UTARA,,Indonesia,,,,4.75542,127.1148906,https://maps.google.com/?cid=0x0:0xa4e158824ff1d3da,
perumahan,Komplek perumahan,Prili's house,"P3HP+3CM, Karatung, Kec. Nanusa, Kabupaten Kepulauan Talaud, Sulawesi Utara","Kabupaten Kepulauan Talaud, Sulawesi Utara",SULAWESI UTARA,,Indonesia,,,,4.7277204,127.0860494,https://maps.google.com/?cid=0x0:0x7c0912e72e1cdab9,
perumahan,Komplek perumahan,Lorong Gaul,"CQX4+926, Dusun II, Essang Sel., Kec. Essang, Kabupaten Kepulauan Talaud, Sulawesi Utara","Kabupaten Kepulauan Talaud, Sulawesi Utara",SULAWESI UTARA,,Indonesia,,,,4.448416,126.7550147,https://maps.google.com/?cid=0x0:0x58370fcda16d2d60,
perumahan,Tujuan Wisata,Pulau karatung,"P3WW+QGH, Karatung, Kec. Nanusa, Kabupaten Kepulauan Talaud, Sulawesi Utara","Kabupaten Kepulauan Talaud, Sulawesi Utara",SULAWESI UTARA,,Indonesia,,,,4.7469452,127.0963683,https://maps.google.com/?cid=0x0:0x963b8d0a946cb5c,
perumahan,Komplek perumahan,keluarga Hamel Rasubala,"P3WW+QGH, Karatung, Kec. Nanusa, Kabupaten Kepulauan Talaud, Sulawesi Utara","Kabupaten Kepulauan Talaud, Sulawesi Utara",SULAWESI UTARA,,Indonesia,,,,4.7469452,127.0963683,https://maps.google.com/?cid=0x0:0x19e68856ba1e7039,
perumahan,Perhimpunan Pengembang Perumahan,Rumah Fernis Mamusung,"GPVX+8GQ, Mamahan Bar., Kec. Gemeh, Kabupaten Kepulauan Talaud, Sulawesi Utara","Kabupaten Kepulauan Talaud, Sulawesi Utara",SULAWESI UTARA,,Indonesia,,,,4.542826,126.7486272,https://maps.google.com/?cid=0x0:0x51e64986b17f6a38,
perumahan,Komplek perumahan,Idong Home,"J5J5+5JV, Kakorotan, Kec. Nanusa, Kabupaten Kepulauan Talaud, Sulawesi Utara","Kabupaten Kepulauan Talaud, Sulawesi Utara",SULAWESI UTARA,,Indonesia,,,,4.6304802,127.159037,https://maps.google.com/?cid=0x0:0x64361d0098418fd1,
perumahan,Tempat Istirahat,Rumah Shely Dan Shela,"P3GP+88, Karatung Tengah, Kabupaten Kepulauan Talaud, Sulawesi Utara","Kabupaten Kepulauan Talaud, Sulawesi Utara",SULAWESI UTARA,,Indonesia,,,,4.7258546,127.0858322,https://maps.google.com/?cid=0x0:0x86358ddf6102fc8c,
perumahan,Pembangunan Perumahan,Dampulis selatan,"Q427+G8, Laluhe, Kabupaten Kepulauan Talaud, Sulawesi Utara","Kabupaten Kepulauan Talaud, Sulawesi Utara",SULAWESI UTARA,,Indonesia,,,,4.7512666,127.113284,https://maps.google.com/?cid=0x0:0x3d6e4ae22f01e8db,
perumahan,Komplek perumahan,Kampung baru bowone,"Q438+863, Dampulis, Kabupaten Kepulauan Talaud, Sulawesi Utara","Kabupaten Kepulauan Talaud, Sulawesi Utara",SULAWESI UTARA,,Indonesia,,,,4.7532599,127.1155598,https://maps.google.com/?cid=0x0:0x1874dab76f91143,
perumahan,Pembangunan Perumahan,Dampulis Induk,"Q448+973, Dampulis, Kabupaten Kepulauan Talaud, Sulawesi Utara","Kabupaten Kepulauan Talaud, Sulawesi Utara",SULAWESI UTARA,,Indonesia,,,,4.7558834,127.1156835,https://maps.google.com/?cid=0x0:0x8fb0dc36e9ea12c6,
perumahan,Komplek perumahan,Vino Home,"Q438+VC4, Dampulis, Kabupaten Kepulauan Talaud, Sulawesi Utara","Kabupaten Kepulauan Talaud, Sulawesi Utara",SULAWESI UTARA,,Indonesia,,,,4.7546362,127.1160758,https://maps.google.com/?cid=0x0:0x9b78c31bad5100cd,
perumahan,Komplek perumahan,Sriyanti,"GP2P+WF6, Bulude Sel., Kec. Essang, Kabupaten Kepulauan Talaud, Sulawesi Utara","Kabupaten Kepulauan Talaud, Sulawesi Utara",SULAWESI UTARA,,Indonesia,,,,4.502295,126.7361539,https://maps.google.com/?cid=0x0:0x44d1fb21d6bf5966,
perumahan,Komplek perumahan,Rumah nowela,"FPRV+GM5, Lalue Utara, Kec. Essang, Kabupaten Kepulauan Talaud, Sulawesi Utara","Kabupaten Kepulauan Talaud, Sulawesi Utara",SULAWESI UTARA,,Indonesia,,,,4.4912609,126.7442377,https://maps.google.com/?cid=0x0:0xc17dfd6dbb86e39b,
perumahan,Perhimpunan Pengembang Perumahan,Rumah JoZe,"8V9M+R83, Tuabatu, Kec. Tampa Na'mma, Kabupaten Kepulauan Talaud, Sulawesi Utara","Kabupaten Kepulauan Talaud, Sulawesi Utara",SULAWESI UTARA,,Indonesia,,,,4.3195113,126.8832961,https://maps.google.com/?cid=0x0:0xe74331445b881dc6,
perumahan,Komplek perumahan,Rumah Reynal Laihan,"CPRM+F9P, Maririk, Kec. Essang, Kabupaten Kepulauan Talaud, Sulawesi Utara","Kabupaten Kepulauan Talaud, Sulawesi Utara",SULAWESI UTARA,,Indonesia,,,,4.4412198,126.733459,https://maps.google.com/?cid=0x0:0xd1bf69fa29df19c1,
perumahan,Hostel,Kel maanem maalua,"P3HM+9XC, Desa, Karatung Tengah, Kec. Nanusa, Kabupaten Kepulauan Talaud, Sulawesi Utara","Kabupaten Kepulauan Talaud, Sulawesi Utara",SULAWESI UTARA,,Indonesia,,,,4.728521,127.0848944,https://maps.google.com/?cid=0x0:0xb4512059ff656549,
perumahan,Komplek perumahan,Simpang tiga Situmeang,"GPRV+QMX, Mamahan, jaya, Kabupaten Kepulauan Talaud, Sulawesi Utara","Kabupaten Kepulauan Talaud, Sulawesi Utara",SULAWESI UTARA,,Indonesia,,,,4.5419813,126.7442377,https://maps.google.com/?cid=0x0:0xc28d98f23aa5488b,
perumahan,Pabrik Keramik,PUSAT PELATIHAN KERAMIK PULUTAN,"Pulutan, Kec. Remboken, Kabupaten Minahasa, Sulawesi Utara","Kabupaten Minahasa, Sulawesi Utara",SULAWESI UTARA,,Indonesia,81284497075.0,,,1.2189717,124.8374718,https://maps.google.com/?cid=0x0:0x7656acda16a39e6e,
perumahan,Pengembang Realestat,Perumahan District M International,"FWFM+X27, Kolongan Tetempangan, Kec. Kalawat, Kabupaten Minahasa Utara, Sulawesi Utara","Kabupaten Minahasa Utara, Sulawesi Utara",SULAWESI UTARA,,Indonesia,85298562888.0,,,1.4749122,124.9325407,https://maps.google.com/?cid=0x0:0x2d1a8184d03a4896,
perumahan,Komplek perumahan,Texas/Pulutan,"6R8Q+G27, Pulutan, Kec. Remboken, Kabupaten Minahasa, Sulawesi Utara","Kabupaten Minahasa, Sulawesi Utara",SULAWESI UTARA,,Indonesia,,,,1.2162954,124.8375522,https://maps.google.com/?cid=0x0:0xf1a9f51c340c0298,
perumahan,Pembangunan Perumahan,Homeland Residence 2,"Blk. E No.9, Airmadidi Atas, Kec. Airmadidi, Kabupaten Minahasa Utara, Sulawesi Utara","Kabupaten Minahasa Utara, Sulawesi Utara",SULAWESI UTARA,,Indonesia,811437297.0,,,1.4632472,124.9199226,https://maps.google.com/?cid=0x0:0x6cab136cedf7099f,
perumahan,Komplek perumahan,Puri Manado Permai,"Bengkol, Kec. Mapanget, Kota Manado, Sulawesi Utara 95251","Kec. Mapanget, Kota Manado",SULAWESI UTARA,95251.0,Indonesia,811436877.0,,,1.5476449,124.8737624,https://maps.google.com/?cid=0x0:0xbaed0e6362c59f8f,
perumahan,Perumahan,Bengkel Las Manado,"Jl. Anggrek 3 No 7 Kel, Paniki Bawah, Kec. Mapanget, Kota Manado, Sulawesi Utara 95256","Paniki Bawah, Kec. Mapanget, Kota Manado",SULAWESI UTARA,95256.0,Indonesia,81342262229.0,,,1.5400505,124.9075887,https://maps.google.com/?cid=0x0:0x49ddb39cf8acab9,
perumahan,perumahan,Elin Home,"6R9Q+F82, Pulutan, Kec. Remboken, Kabupaten Minahasa, Sulawesi Utara","Kabupaten Minahasa, Sulawesi Utara",SULAWESI UTARA,,Indonesia,,,,1.2186458,124.8382602,https://maps.google.com/?cid=0x0:0x7867afa324144668,
perumahan,perumahan,Pulutan/Los Angeles,"6R7P+X94, Pulutan, Kec. Remboken, Kabupaten Minahasa, Sulawesi Utara","Kabupaten Minahasa, Sulawesi Utara",SULAWESI UTARA,,Indonesia,,,,1.2148916,124.835946,https://maps.google.com/?cid=0x0:0x312ff5f5f59efcf9,
perumahan,Komplek perumahan,Pulutan,"2HR9+R35, Walikan, Pulutan, Kec. Wonosari, Kabupaten Gunungkidul, Daerah Istimewa Yogyakarta 55851","Walikan, Pulutan, Kec. Wonosari, Kabupaten Gunungkidul",SULAWESI UTARA,55851.0,Indonesia,,,,-7.9579981,110.5677257,https://maps.google.com/?cid=0x0:0x330fcced14f3255f,
perumahan,Pembangunan Perumahan,Pulutan,"JJVR+JVM, Pulutan, Kebonan, Kec. Karanggede, Kabupaten Boyolali, Jawa Tengah","Kabupaten Boyolali, Jawa Tengah",SULAWESI UTARA,,Indonesia,,,,-7.3559192,110.6421694,https://maps.google.com/?cid=0x0:0x3be80ade6c544b38,
perumahan,Pembangunan Perumahan,pulutan,"FC6F+4PW, Gg. Teling, RT./rw/RW.011/003, Dusun 02, Jagapura Kidul, Kec. Gegesik, Kabupaten Cirebon, Jawa Barat 45164","Gg. Teling, RT./rw/RW.011/003, Dusun 02, Jagapura Kidul, Kec. Gegesik, Kabupaten Cirebon",SULAWESI UTARA,45164.0,Indonesia,,,,-6.5396309,108.424332,https://maps.google.com/?cid=0x0:0x8ea4c0dc56b5aa89,
perumahan,Komplek perumahan,Paradise Serpong city 2,"Jl. Atma Asnawi, Gn. Sindur, Kec. Gn. Sindur, Kabupaten Bogor, Jawa Barat 16340","Gn. Sindur, Kec. Gn. Sindur, Kabupaten Bogor",SULAWESI UTARA,16340.0,Indonesia,8172856666.0,,,-6.3859445,106.6735802,https://maps.google.com/?cid=0x0:0x26f8d01c656ecf42,
perumahan,Grosir elektronik,Perumahan Pulutan Center 3,"Perum pulutan center No.3, Koto Tuo, Kec. Harau, Kabupaten Lima Puluh Kota, Sumatera Barat 26271","Koto Tuo, Kec. Harau, Kabupaten Lima Puluh Kota",SULAWESI UTARA,26271.0,Indonesia,,,,-0.1698112,100.6523426,https://maps.google.com/?cid=0x0:0x962efa7dd223dd1b,
perumahan,Komplek perumahan,Rumah murah 2 lantai,"Jl. Villa Pamulang, Kel. pondok Benda, Kec. Pamulang, Kota. Tanggerang Selatan, Pd. Benda, Kec. Pamulang, Kota Tangerang Selatan, Banten 13513","Kel. pondok Benda, Kec. Pamulang, Kota. Tanggerang Selatan, Pd. Benda, Kec. Pamulang, Kota Tangerang Selatan",SULAWESI UTARA,13513.0,Indonesia,82122062880.0,,,-6.3470354,106.7115918,https://maps.google.com/?cid=0x0:0xea8b4217f0e65f9b,
perumahan,Pengembang Realestat,Taman Pasadenia,"Jl. Pulo Mas Timur No.8 10, RT.13/RW.11, Kayu Putih, Kec. Pulo Gadung, Kota Jakarta Timur, Daerah Khusus Ibukota Jakarta 13210","RT.13/RW.11, Kayu Putih, Kec. Pulo Gadung, Kota Jakarta Timur",SULAWESI UTARA,13210.0,Indonesia,214703625.0,,,-6.1814556,106.8850241,https://maps.google.com/?cid=0x0:0x2f1e8bac4a6b0adb,
perumahan,Grosir elektronik,Pulutan Centre 2,"RMG3+CWF, Jl. Tj. Pati, Koto Tuo, Kec. Harau, Kabupaten Lima Puluh Kota, Sumatera Barat 26271","Jl. Tj. Pati, Koto Tuo, Kec. Harau, Kabupaten Lima Puluh Kota",SULAWESI UTARA,26271.0,Indonesia,,,,-0.1733072,100.6537494,https://maps.google.com/?cid=0x0:0xe6a2e6e1ccad9976,
perumahan,Balai Kota,Pulutan rw 1,"MFQH+7VQ, Sidorejo Lor, Kec. Sidorejo, Kota Salatiga, Jawa Tengah 50714","Sidorejo Lor, Kec. Sidorejo, Kota Salatiga",SULAWESI UTARA,50714.0,Indonesia,,,,-7.3117975,110.479725,https://maps.google.com/?cid=0x0:0xb3ba56f5ca64843b,
perumahan,Komplek perumahan,Rainis,"6VF7+RJM, Rainis Batu Penga, Kec. Rainis, Kabupaten Kepulauan Talaud, Sulawesi Utara","Kabupaten Kepulauan Talaud, Sulawesi Utara",SULAWESI UTARA,,Indonesia,,,,4.2245946,126.8640441,https://maps.google.com/?cid=0x0:0x78156d92ad664c89,
perumahan,Komplek perumahan,Rian Home,"6VH5+WRM, Parangen, Kec. Rainis, Kabupaten Kepulauan Talaud, Sulawesi Utara","Kabupaten Kepulauan Talaud, Sulawesi Utara",SULAWESI UTARA,,Indonesia,81347616194.0,,,4.2298468,126.8595416,https://maps.google.com/?cid=0x0:0xb92f17df257df168,
perumahan,Pembangunan Perumahan,Desa tambang barat kec Rainis kabupaten kepulauan Talaud prov sulut,"7W93+CR4, Tabang, Kabupaten Kepulauan Talaud, Sulawesi Utara","Kabupaten Kepulauan Talaud, Sulawesi Utara",SULAWESI UTARA,,Indonesia,,,,4.2685166,126.9045737,https://maps.google.com/?cid=0x0:0x81a0f9ee350f7df1,
perumahan,Komplek perumahan,Gwen Home,"Gwen Home, Pelabuhan, Kec. Rainis, Kabupaten Kepulauan Talaud, Sulawesi Utara","Kabupaten Kepulauan Talaud, Sulawesi Utara",SULAWESI UTARA,,Indonesia,,,,4.2340718,126.8634506,https://maps.google.com/?cid=0x0:0x88eabb5ad3f9d96a,
perumahan,Pembangunan Perumahan,Rumah Rafael,"6VM8+5J4, Rainis, Kec. Rainis, Kabupaten Kepulauan Talaud, Sulawesi Utara","Kabupaten Kepulauan Talaud, Sulawesi Utara",SULAWESI UTARA,,Indonesia,,,,4.2328795,126.8665834,https://maps.google.com/?cid=0x0:0xa285e2b2c6553caa,
perumahan,Komplek perumahan,Didi'Home,"5RWR+89F, alo, Rainis, Kepulauan Talaud Regency, North Sulawesi","Kabupaten Kepulauan Talaud, Sulawesi Utara",SULAWESI UTARA,,Indonesia,,,,4.1965188,126.8412,https://maps.google.com/?cid=0x0:0x206d370a88da93e7,
perumahan,Komplek perumahan,Saria Home,"6VF6+VJQ, Parangen, Kec. Rainis, Kabupaten Kepulauan Talaud, Sulawesi Utara","Kabupaten Kepulauan Talaud, Sulawesi Utara",SULAWESI UTARA,,Indonesia,,,,4.2247079,126.8616233,https://maps.google.com/?cid=0x0:0x7c97cc4f4ba56e79,
perumahan,Komplek perumahan,PapaSelvy home,"7WC5+264, Tabang, Kec. Rainis, Kabupaten Kepulauan Talaud, Sulawesi Utara","Kabupaten Kepulauan Talaud, Sulawesi Utara",SULAWESI UTARA,,Indonesia,,,,4.2707086,126.908574,https://maps.google.com/?cid=0x0:0x2d00fd677b5c4d6d,
perumahan,Komplek perumahan,Julara home,"6VJ7+97F, Rainis, Kec. Rainis, Kabupaten Kepulauan Talaud, Sulawesi Utara","Kabupaten Kepulauan Talaud, Sulawesi Utara",SULAWESI UTARA,,Indonesia,,,,4.2309272,126.8631787,https://maps.google.com/?cid=0x0:0xa35e837465e5a131,
perumahan,Komplek perumahan,Ayu home,"Desa No.1, Nunu, Kec. Rainis, Kabupaten Kepulauan Talaud, Sulawesi Utara 95882","Nunu, Kec. Rainis, Kabupaten Kepulauan Talaud",SULAWESI UTARA,95882.0,Indonesia,,,,4.2034682,126.8553067,https://maps.google.com/?cid=0x0:0x9d60535b067ccb45,
perumahan,Komplek perumahan,RuthRahel,"5RWP+8FC, Alo Sel., Kec. Rainis, Kabupaten Kepulauan Talaud, Sulawesi Utara","Kabupaten Kepulauan Talaud, Sulawesi Utara",SULAWESI UTARA,,Indonesia,,,,4.1955037,126.8365856,https://maps.google.com/?cid=0x0:0xb4f582ba6ab0aa09,
perumahan,Rumah wisata,L2 home,"6VF6+QR, Rainis Batu Penga, Kec. Rainis, Kabupaten Kepulauan Talaud, Sulawesi Utara","Kabupaten Kepulauan Talaud, Sulawesi Utara",SULAWESI UTARA,,Indonesia,,,,4.2244322,126.8621064,https://maps.google.com/?cid=0x0:0xa25a2ad1b23a5a4a,
perumahan,Komplek perumahan,Lily Home,"6VJ5+2PV, Parangen, Kec. Rainis, Kabupaten Kepulauan Talaud, Sulawesi Utara","Kabupaten Kepulauan Talaud, Sulawesi Utara",SULAWESI UTARA,,Indonesia,,,,4.2301008,126.8593038,https://maps.google.com/?cid=0x0:0x8f1e3788d5c72ca2,
perumahan,Komplek perumahan,Kel : Ruung - Salensehe,"6VJ9+Q4X, Rainis, Kec. Rainis, Kabupaten Kepulauan Talaud, Sulawesi Utara","Kabupaten Kepulauan Talaud, Sulawesi Utara",SULAWESI UTARA,,Indonesia,,,,4.2320274,126.8678596,https://maps.google.com/?cid=0x0:0x6c1da40bca11736,
perumahan,Pembangunan Perumahan,Smit,"7VF2+RQG, Tabang, Kec. Rainis, Kabupaten Kepulauan Talaud, Sulawesi Utara","Kabupaten Kepulauan Talaud, Sulawesi Utara",SULAWESI UTARA,,Indonesia,,,,4.2745614,126.8519377,https://maps.google.com/?cid=0x0:0xd0d54d7c4d835259,
perumahan,Komplek perumahan,Erill s base.,"7V25+CHV, Bantane Utara, Kec. Rainis, Kabupaten Kepulauan Talaud, Sulawesi Utara","Kabupaten Kepulauan Talaud, Sulawesi Utara",SULAWESI UTARA,,Indonesia,,,,4.251659,126.85884,https://maps.google.com/?cid=0x0:0x3f0dd1774bea5fe0,
perumahan,Komplek perumahan,USNI Home,"6VM8+4MW, Rainis, Kec. Rainis, Kabupaten Kepulauan Talaud, Sulawesi Utara","Kabupaten Kepulauan Talaud, Sulawesi Utara",SULAWESI UTARA,,Indonesia,,,,4.2328602,126.8667014,https://maps.google.com/?cid=0x0:0xd933e4a7ba96914a,
perumahan,Komplek perumahan,Brains House,"6V34+57H, Nunu, Kabupaten Kepulauan Talaud, Sulawesi Utara","Kabupaten Kepulauan Talaud, Sulawesi Utara",SULAWESI UTARA,,Indonesia,,,,4.2029272,126.8557473,https://maps.google.com/?cid=0x0:0xd8494386e66e949c,
perumahan,Komplek perumahan,Rumah salom halean,"6VX5+PF5, Bantane, Kec. Rainis, Kabupaten Kepulauan Talaud, Sulawesi Utara","Kabupaten Kepulauan Talaud, Sulawesi Utara",SULAWESI UTARA,,Indonesia,,,,4.2492524,126.8587436,https://maps.google.com/?cid=0x0:0x3f4585f772b1a9b9,
perumahan,perumahan,Salibabu,"Kabupaten Kepulauan Talaud, Sulawesi Utara","Kabupaten Kepulauan Talaud, Sulawesi Utara",SULAWESI UTARA,,Indonesia,,,,3.9026876,126.6849359,https://maps.google.com/?cid=0x0:0x5c5d08892b729657,
perumahan,perumahan,Felisya Jacobus Home,"VPV8+QCW, Moronge Sel., Kec. Moronge, Kabupaten Kepulauan Talaud, Sulawesi Utara","Kabupaten Kepulauan Talaud, Sulawesi Utara",SULAWESI UTARA,,Indonesia,,,,3.8944875,126.7160781,https://maps.google.com/?cid=0x0:0x60c076b1b46fd3be,
perumahan,Komplek perumahan,KEL. SULUNG-ATIBI,"RMQV+VJJ, Bitunuris Sel., Salibabu, Kabupaten Kepulauan Talaud, Sulawesi Utara","Kabupaten Kepulauan Talaud, Sulawesi Utara",SULAWESI UTARA,,Indonesia,81242887123.0,,,3.8397137,126.6940218,https://maps.google.com/?cid=0x0:0x905814251f236c48,
perumahan,Komplek perumahan,Puram'home,"VMGV+J37, Salibabu Utara, Salibabu, Kabupaten Kepulauan Talaud, Sulawesi Utara","Kabupaten Kepulauan Talaud, Sulawesi Utara",SULAWESI UTARA,,Indonesia,,,,3.8766871,126.6928476,https://maps.google.com/?cid=0x0:0x6e743fd72ab429b2,
perumahan,Kantor Pemerintah,Desa Salibabu Utara,"WM3M+3XF, Salibabu Utara, Salibabu, Kabupaten Kepulauan Talaud, Sulawesi Utara","Kabupaten Kepulauan Talaud, Sulawesi Utara",SULAWESI UTARA,,Indonesia,,,,3.9026876,126.6849359,https://maps.google.com/?cid=0x0:0x6fce594d824c989f,
perumahan,perumahan,Kel. Bawinto - Lule,"RMQR+2XF, Salibabu Utara, Salibabu, Kabupaten Kepulauan Talaud, Sulawesi Utara","Kabupaten Kepulauan Talaud, Sulawesi Utara",SULAWESI UTARA,,Indonesia,,,,3.8738605,126.6926364,https://maps.google.com/?cid=0x0:0x3aabe803a1311380,
perumahan,Komplek perumahan,Rumah Kel Bawinto-Pasoi,"WM3M+3XF, Salibabu Utara, Salibabu, Kabupaten Kepulauan Talaud, Sulawesi Utara","Kabupaten Kepulauan Talaud, Sulawesi Utara",SULAWESI UTARA,,Indonesia,,,,3.9026876,126.6849359,https://maps.google.com/?cid=0x0:0xe013baf669091470,
perumahan,perumahan,Rumah Pidi Tatuhe,"RMMW+Q8H, Bitunuris Sel., Salibabu, Kabupaten Kepulauan Talaud, Sulawesi Utara","Kabupaten Kepulauan Talaud, Sulawesi Utara",SULAWESI UTARA,,Indonesia,,,,3.8344285,126.6958648,https://maps.google.com/?cid=0x0:0xc60c0bc7692637e4,
perumahan,Komplek perumahan,Rumah Prasetia-Bulele,"RMQW+95F, Bitunuris Sel., Salibabu, Kabupaten Kepulauan Talaud, Sulawesi Utara","Kabupaten Kepulauan Talaud, Sulawesi Utara",SULAWESI UTARA,,Indonesia,,,,3.8384308,126.6954337,https://maps.google.com/?cid=0x0:0x6d2e13d5fa6a23e,
perumahan,Komplek perumahan,Rumah Bawinto-Kalangit,"VMFR+W7M, Dalum, Salibabu, Kabupaten Kepulauan Talaud, Sulawesi Utara","Kabupaten Kepulauan Talaud, Sulawesi Utara",SULAWESI UTARA,,Indonesia,,,,3.8748287,126.6906693,https://maps.google.com/?cid=0x0:0xebf4decc2c620b54,
perumahan,Penginapan Dalam Ruangan,Sentra Nelayan Salibabu,"VM9M+XMX, Dalum, Salibabu, Kabupaten Kepulauan Talaud, Sulawesi Utara","Kabupaten Kepulauan Talaud, Sulawesi Utara",SULAWESI UTARA,,Indonesia,,,,3.868712,126.6847735,https://maps.google.com/?cid=0x0:0x2875cb4c45bd00,
perumahan,perumahan,Rumah Kel. Salanggamo-Mamentiwalo,"VMCM+2FW, Dusun II, Salibabu, Kabupaten Kepulauan Talaud, Sulawesi Utara","Kabupaten Kepulauan Talaud, Sulawesi Utara",SULAWESI UTARA,,Indonesia,,,,3.8694376,126.6832088,https://maps.google.com/?cid=0x0:0x45ff53b4371298d7,
perumahan,Gereja Protestan,Pastori 2 GERMITA Jemaat Pniel Salibabu Utara,"VMFQ+X7P Belakang Gereja GERMITA Pniel, Salibabu Utara, Salibabu, Kabupaten Kepulauan Talaud, Sulawesi Utara","Kabupaten Kepulauan Talaud, Sulawesi Utara",SULAWESI UTARA,,Indonesia,,,,3.874955,126.6882078,https://maps.google.com/?cid=0x0:0x2232e1f295cfbd37,
perumahan,perumahan,Rumah Bpk Hibor Tarempas,"VM9M+XMX, Dalum, Salibabu, Kabupaten Kepulauan Talaud, Sulawesi Utara","Kabupaten Kepulauan Talaud, Sulawesi Utara",SULAWESI UTARA,,Indonesia,,,,3.8699875,126.6842344,https://maps.google.com/?cid=0x0:0x9c43432c7de84c5c,
perumahan,Komplek perumahan,Rumah Bas Roni Bulele,"RMPW+5CQ, Bitunuris Sel., Salibabu, Kabupaten Kepulauan Talaud, Sulawesi Utara","Kabupaten Kepulauan Talaud, Sulawesi Utara",SULAWESI UTARA,,Indonesia,,,,3.8354036,126.6960185,https://maps.google.com/?cid=0x0:0x49e8ff793f4a474,
perumahan,Komplek perumahan,Ino gumolung,"VMCP+XVG, Unnamed Road, Dalum, Salibabu, Kabupaten Kepulauan Talaud, Sulawesi Utara","Kabupaten Kepulauan Talaud, Sulawesi Utara",SULAWESI UTARA,,Indonesia,85342929512.0,,,3.872439,126.68721,https://maps.google.com/?cid=0x0:0x650f543279dbe125,
perumahan,Komplek perumahan,Tatulus-Sadara Homes,"WM3M+3XF, Salibabu Utara, Salibabu, Kabupaten Kepulauan Talaud, Sulawesi Utara","Kabupaten Kepulauan Talaud, Sulawesi Utara",SULAWESI UTARA,,Indonesia,,,,3.9026876,126.6849359,https://maps.google.com/?cid=0x0:0xe45e4fecd9625ea,
perumahan,Komplek perumahan,OLIV HOME,"VM6P+463, Dalum, Salibabu, Kabupaten Kepulauan Talaud, Sulawesi Utara","Kabupaten Kepulauan Talaud, Sulawesi Utara",SULAWESI UTARA,,Indonesia,,,,3.860271,126.6855513,https://maps.google.com/?cid=0x0:0xc20232ba5c37254a,
perumahan,Komplek perumahan,Keluarga. Besar masaina-tatangin,"VM5V+C62, Bitunuris, Salibabu, Kabupaten Kepulauan Talaud, Sulawesi Utara","Kabupaten Kepulauan Talaud, Sulawesi Utara",SULAWESI UTARA,,Indonesia,,,,3.8585222,126.6930253,https://maps.google.com/?cid=0x0:0x4249fb0fc8c08e0a,
perumahan,Komplek perumahan,rumah alfa tindatu,"VM7M+JPM, Dalum, Salibabu, Kabupaten Kepulauan Talaud, Sulawesi Utara","Kabupaten Kepulauan Talaud, Sulawesi Utara",SULAWESI UTARA,,Indonesia,,,,3.864168,126.6845244,https://maps.google.com/?cid=0x0:0xbf06fa06e9394a30,
perumahan,Komplek perumahan,Jeanette home,"VMGV+PC3, Dalum, Salibabu, Kabupaten Kepulauan Talaud, Sulawesi Utara","Kabupaten Kepulauan Talaud, Sulawesi Utara",SULAWESI UTARA,,Indonesia,,,,3.8770781,126.6932453,https://maps.google.com/?cid=0x0:0x6490a2e6beebcac2,
perumahan,Pembangunan Perumahan,Ay Home Bitunuris,"RMRV+5PP, Bitunuris, Salibabu, Kabupaten Kepulauan Talaud, Sulawesi Utara","Kabupaten Kepulauan Talaud, Sulawesi Utara",SULAWESI UTARA,,Indonesia,,,,3.840466,126.6943229,https://maps.google.com/?cid=0x0:0x7d18a51fb1f31ae3,
perumahan,Pembangunan Perumahan,Kel. Gumolung- Mandiri,"VMCP+XVG, Unnamed Road, Dalum, Salibabu, Kabupaten Kepulauan Talaud, Sulawesi Utara","Kabupaten Kepulauan Talaud, Sulawesi Utara",SULAWESI UTARA,,Indonesia,,,,3.8723923,126.6872452,https://maps.google.com/?cid=0x0:0x508e143adeeca4e8,
perumahan,Komplek perumahan,Jeevan Sugeng home,"VMGQ+5XV, Dalum, Salibabu, Kabupaten Kepulauan Talaud, Sulawesi Utara","Kabupaten Kepulauan Talaud, Sulawesi Utara",SULAWESI UTARA,,Indonesia,,,,3.8753641,126.6910717,https://maps.google.com/?cid=0x0:0xe1c471d47fdfcff3,
perumahan,Pembangunan Perumahan,Kel Saseleno Senaen,"VMFQ+PCH, Dalum, Salibabu, Kabupaten Kepulauan Talaud, Sulawesi Utara","Kabupaten Kepulauan Talaud, Sulawesi Utara",SULAWESI UTARA,,Indonesia,,,,3.8740036,126.6882044,https://maps.google.com/?cid=0x0:0xc1b32d19d4ead235,
perumahan,Komplek perumahan,Maasing city,"RMVV+44P, Bitunuris, Salibabu, Kabupaten Kepulauan Talaud, Sulawesi Utara","Kabupaten Kepulauan Talaud, Sulawesi Utara",SULAWESI UTARA,,Indonesia,,,,3.8423287,126.6928545,https://maps.google.com/?cid=0x0:0xc54ef3e30c4e553e,
perumahan,Komplek perumahan,Rumah Ano,"RMPV+3XF, Bitunuris Sel., Salibabu, Kabupaten Kepulauan Talaud, Sulawesi Utara","Kabupaten Kepulauan Talaud, Sulawesi Utara",SULAWESI UTARA,,Indonesia,,,,3.8351751,126.694909,https://maps.google.com/?cid=0x0:0x4e60e5783d88e863,
perumahan,Komplek perumahan,KELAS LUMENDEK - UMBEANG,"VPW9+22M, Desa No.1, RW.1, Moronge Sel. II, Kec. Moronge, Kabupaten Kepulauan Talaud, Sulawesi Utara 95871","Desa No.1, RW.1, Moronge Sel. II, Kec. Moronge, Kabupaten Kepulauan Talaud",SULAWESI UTARA,95871.0,Indonesia,81296177066.0,,,3.8951573,126.7176354,https://maps.google.com/?cid=0x0:0x1d083a77932dd3a6,
perumahan,Komplek perumahan,Kel Adena Umbeang,"WP28+5R5, Moronge Sel. I, Kec. Moronge, Kabupaten Kepulauan Talaud, Sulawesi Utara","Kabupaten Kepulauan Talaud, Sulawesi Utara",SULAWESI UTARA,,Indonesia,,,,3.8998645,126.7167455,https://maps.google.com/?cid=0x0:0x7f93a123fbf29913,
perumahan,perumahan,Kec. Tampa Na'mma,"Kabupaten Kepulauan Talaud, Sulawesi Utara","Kabupaten Kepulauan Talaud, Sulawesi Utara",SULAWESI UTARA,,Indonesia,,,,4.3643806,126.8527997,https://maps.google.com/?cid=0x0:0xaa0bfff86571a14c,
perumahan,Perumahan,Rumah Yoan,"8VCJ+P4H, Tuabatu Bar., Kec. Tampa Na'mma, Kabupaten Kepulauan Talaud, Sulawesi Utara","Kabupaten Kepulauan Talaud, Sulawesi Utara",SULAWESI UTARA,,Indonesia,,,,4.3218155,126.8803709,https://maps.google.com/?cid=0x0:0x390b1ce04bdb23fd,
perumahan,Pembangunan Perumahan,Manyo home,"8V9M+VGC, Tuabatu, Kec. Tampa Na'mma, Kabupaten Kepulauan Talaud, Sulawesi Utara","Kabupaten Kepulauan Talaud, Sulawesi Utara",SULAWESI UTARA,,Indonesia,,,,4.3199072,126.8840037,https://maps.google.com/?cid=0x0:0x4902e9ca63be4749,
perumahan,Perhimpunan Pengembang Perumahan,Rumah JoZe,"8V9M+R83, Tuabatu, Kec. Tampa Na'mma, Kabupaten Kepulauan Talaud, Sulawesi Utara","Kabupaten Kepulauan Talaud, Sulawesi Utara",SULAWESI UTARA,,Indonesia,,,,4.3195113,126.8832961,https://maps.google.com/?cid=0x0:0xe74331445b881dc6,
perumahan,Komplek perumahan,maarial.sambene,"9RRW+4VW, Dapihe, Kec. Tampa Na'mma, Kabupaten Kepulauan Talaud, Sulawesi Utara","Kabupaten Kepulauan Talaud, Sulawesi Utara",SULAWESI UTARA,,Indonesia,,,,4.3904015,126.8472541,https://maps.google.com/?cid=0x0:0x2f01b63d9fbb4d15,
perumahan,perumahan,Tamungku Eky,"8VCM+96X, Tuabatu, Kec. Tampa Na'mma, Kabupaten Kepulauan Talaud, Sulawesi Utara","Kabupaten Kepulauan Talaud, Sulawesi Utara",SULAWESI UTARA,,Indonesia,,,,4.3209878,126.8824168,https://maps.google.com/?cid=0x0:0x277436b3acc5f487,
perumahan,Komplek perumahan,Rumah aswin,"8R8R+VF7, Tuabatu Bar., Kec. Tampa Na'mma, Kabupaten Kepulauan Talaud, Sulawesi Utara","Kabupaten Kepulauan Talaud, Sulawesi Utara",SULAWESI UTARA,,Indonesia,,,,4.3171685,126.8411747,https://maps.google.com/?cid=0x0:0x24f79d777304e134,
perumahan,Pembangunan Perumahan,Desa Dapihe - Talaud,"9RRX+8FF, Dapihe, Kec. Tampa Na'mma, Kabupaten Kepulauan Talaud, Sulawesi Utara","Kabupaten Kepulauan Talaud, Sulawesi Utara",SULAWESI UTARA,,Indonesia,,,,4.3908222,126.8486686,https://maps.google.com/?cid=0x0:0x7354100fb2d3207d,
perumahan,Komplek perumahan,TPU umum,"9RPW+Q7, Dapihe, Kec. Tampa Na'mma, Kabupaten Kepulauan Talaud, Sulawesi Utara","Kabupaten Kepulauan Talaud, Sulawesi Utara",SULAWESI UTARA,,Indonesia,,,,4.386908,126.8456505,https://maps.google.com/?cid=0x0:0xa9ab073a5fcb1828,
perumahan,Komplek perumahan,Andi Home,"9V73+3M5, Riung, Kec. Tampa Na'mma, Kabupaten Kepulauan Talaud, Sulawesi Utara","Kabupaten Kepulauan Talaud, Sulawesi Utara",SULAWESI UTARA,,Indonesia,82347420598.0,,,4.3626429,126.8542274,https://maps.google.com/?cid=0x0:0x8245e3b350b4183e,
perumahan,Perhimpunan Pengembang Perumahan,Anak Kompleks,"8VCM+45W, Tuabatu, Kec. Tampa Na'mma, Kabupaten Kepulauan Talaud, Sulawesi Utara","Kabupaten Kepulauan Talaud, Sulawesi Utara",SULAWESI UTARA,,Indonesia,,,,4.3204094,126.8829205,https://maps.google.com/?cid=0x0:0xe297efac6902ace2,
perumahan,Komplek perumahan,Rumah kelvin,"9RRX+249, Dapihe, Kec. Tampa Na'mma, Kabupaten Kepulauan Talaud, Sulawesi Utara","Kabupaten Kepulauan Talaud, Sulawesi Utara",SULAWESI UTARA,,Indonesia,,,,4.3895988,126.8481123,https://maps.google.com/?cid=0x0:0xbe1981f41eff61a,
perumahan,Komplek perumahan,Rumah ia(sasendi-lumalente),"9VV2+H4F, Dapalan, Kec. Tampa Na'mma, Kabupaten Kepulauan Talaud, Sulawesi Utara","Kabupaten Kepulauan Talaud, Sulawesi Utara",SULAWESI UTARA,,Indonesia,,,,4.3939359,126.8510789,https://maps.google.com/?cid=0x0:0xeb371f646d48cb5b,
perumahan,Gereja,Tempat ibadah jemaat GPdI Agape Ganalo Kel Medatua Leleran,"CVC5+G39, Ganalo, Kec. Tampa Na'mma, Kabupaten Kepulauan Talaud, Sulawesi Utara","Kabupaten Kepulauan Talaud, Sulawesi Utara",SULAWESI UTARA,,Indonesia,82347322412.0,,,4.4212985,126.8577319,https://maps.google.com/?cid=0x0:0x8b1b0886b2ac3f1b,
perumahan,Komplek perumahan,Larungkondo Home,"9VR2+M65, Dapalan, Kec. Tampa Na'mma, Kabupaten Kepulauan Talaud, Sulawesi Utara","Kabupaten Kepulauan Talaud, Sulawesi Utara",SULAWESI UTARA,,Indonesia,,,,4.3916375,126.8506094,https://maps.google.com/?cid=0x0:0xe7def7b6cd33263e,
perumahan,Toko umum,Kel.Maarial Teiwilang,"CVF6+57, Ganalo, Kabupaten Kepulauan Talaud, Sulawesi Utara","Kabupaten Kepulauan Talaud, Sulawesi Utara",SULAWESI UTARA,,Indonesia,,,,4.4229906,126.8606715,https://maps.google.com/?cid=0x0:0xbb0af45c7a5c2926,
perumahan,Komplek perumahan,Glen home,"9RQW+9W7 SMP negeri 4 rainis di, Dapalan, Kec. Tampa Na'mma, Kabupaten Kepulauan Talaud, Sulawesi Utara","Kabupaten Kepulauan Talaud, Sulawesi Utara",SULAWESI UTARA,,Indonesia,,,,4.3884244,126.8472938,https://maps.google.com/?cid=0x0:0xa17316514a74dc22,
perumahan,perumahan,Tamungku Melky,"8VCM+96X, Tuabatu, Kec. Tampa Na'mma, Kabupaten Kepulauan Talaud, Sulawesi Utara","Kabupaten Kepulauan Talaud, Sulawesi Utara",SULAWESI UTARA,,Indonesia,,,,4.3210506,126.8824034,https://maps.google.com/?cid=0x0:0xd9bcffc7f1d356fa,
perumahan,Komplek perumahan,Refan home,"9RRW+6QW, Dapihe, Kec. Tampa Na'mma, Kabupaten Kepulauan Talaud, Sulawesi Utara","Kabupaten Kepulauan Talaud, Sulawesi Utara",SULAWESI UTARA,,Indonesia,,,,4.3901691,126.8470592,https://maps.google.com/?cid=0x0:0x5e020de797455bcb,
perumahan,Komplek perumahan,Rumah johan,"9RRX+249, Dapihe, Kec. Tampa Na'mma, Kabupaten Kepulauan Talaud, Sulawesi Utara","Kabupaten Kepulauan Talaud, Sulawesi Utara",SULAWESI UTARA,,Indonesia,,,,4.3900421,126.847792,https://maps.google.com/?cid=0x0:0x168626d21aa244bf,
perumahan,Komplek perumahan,Jojo Lamagari Home,"9RR6+XJ, Dapalan, Kec. Tampa Na'mma, Kabupaten Kepulauan Talaud, Sulawesi Utara","Kabupaten Kepulauan Talaud, Sulawesi Utara",SULAWESI UTARA,,Indonesia,,,,4.3916604,126.848981,https://maps.google.com/?cid=0x0:0x835742981ee782ad,
