Category,Real Category,Business Name,Address,City,State,Postal Code,Country,Phone,Email,Website,Latitude,Longitude,Map Link,Details Link
mall,mall,Kalimantan Barat 79211,"Kabupaten Bengkayang, Kalimantan Barat","Kabupaten Bengkayang, Kalimantan Barat",KALIMANTAN BARAT,,Indonesia,,,,0.8362421,109.4021154,https://maps.google.com/?cid=0x0:0x913ba724bc63acae,
mall,Pusat Perbelanjaan,Lala mart,"RFWW+G7J, Jl. Raya Sanggau Ledo, Bani Amas, Kec. Bengkayang, Kabupaten Bengkayang, Kalimantan Barat 79211","Jl. Raya Sanggau Ledo, Bani Amas, Kec. Bengkayang, Kabupaten Bengkayang",KALIMANTAN BARAT,79211.0,Indonesia,,,,0.8463421,109.4956476,https://maps.google.com/?cid=0x0:0xd0b5e78a4db26047,
mall,Pusat Perbelanjaan,Banli Mart,"Bumi Amas, Kec. Bengkayang, Kabupaten Bengkayang, Kalimantan Barat 79211","Kec. Bengkayang, Kabupaten Bengkayang",KALIMANTAN BARAT,79211.0,Indonesia,,,,0.8252792,109.483359,https://maps.google.com/?cid=0x0:0x4812752f286b6eef,
mall,Kerajinan,Dekranasda Kab. Bengkayang,"Jl. Guna Baru Trans Rangkang, Sebalo, Kec. Bengkayang, Kabupaten Bengkayang, Kalimantan Barat 79211","Sebalo, Kec. Bengkayang, Kabupaten Bengkayang",KALIMANTAN BARAT,79211.0,Indonesia,,,,0.8688311,109.4971527,https://maps.google.com/?cid=0x0:0xccdf193c8d548fce,
mall,Pusat Perbelanjaan,Madina Jaya,"RFJP+63J, Bumi Amas, Kec. Bengkayang, Kabupaten Bengkayang, Kalimantan Barat 79211","Bumi Amas, Kec. Bengkayang, Kabupaten Bengkayang",KALIMANTAN BARAT,79211.0,Indonesia,,,,0.8305971,109.4851531,https://maps.google.com/?cid=0x0:0xeaeddd7f75605ee6,
mall,Perguruan Tinggi,IMDKOM CAMPUS,"RF9Q+22X, Jl. Basuki Rachmat, Malo Jelayan, Kec. Teriak, Kabupaten Bengkayang, Kalimantan Barat 79214","Jl. Basuki Rachmat, Malo Jelayan, Kec. Teriak, Kabupaten Bengkayang",KALIMANTAN BARAT,79214.0,Indonesia, 085753263044,,,0.8176172,109.4875997,https://maps.google.com/?cid=0x0:0x8d9c806c2212d283,
mall,Minimarket,BP2 Indomaret,"RF8Q+FX6, Malo Jelayan, Kec. Teriak, Kabupaten Bengkayang, Kalimantan Barat 79214","Malo Jelayan, Kec. Teriak, Kabupaten Bengkayang",KALIMANTAN BARAT,79214.0,Indonesia,,,,0.8161709,109.4898997,https://maps.google.com/?cid=0x0:0x67ace0da5f6a1a98,
mall,Pusat Perbelanjaan,Vera wangi  mini mart,"VG55+87W, Bani Amas, Kec. Bengkayang, Kabupaten Bengkayang, Kalimantan Barat 79211","Bani Amas, Kec. Bengkayang, Kabupaten Bengkayang",KALIMANTAN BARAT,79211.0,Indonesia, 085821765797,,,0.8583629,109.5082005,https://maps.google.com/?cid=0x0:0x7632308ec30d2a14,
mall,Toko bahan makanan,Toko Apit,"Ar, Jl. Jerendeng Abdul Rahman No.6, Malo Jelayan, Teriak, Bengkayang Regency, West Kalimantan 79214","Jl. Jerendeng Abdul Rahman No.6, Malo Jelayan, Teriak, Bengkayang Regency",KALIMANTAN BARAT,79214.0,Indonesia, 0562441079,,,0.820482,109.4830337,https://maps.google.com/?cid=0x0:0x14ce84b2532693fa,
mall,Toko Pakaian,GOLDEN ACCESSORIES,"Jl. Migang, Bumi Amas, Kec. Bengkayang, Kabupaten Bengkayang, Kalimantan Barat 79123","Bumi Amas, Kec. Bengkayang, Kabupaten Bengkayang",KALIMANTAN BARAT,79123.0,Indonesia,,,,0.8193059,109.4825929,https://maps.google.com/?cid=0x0:0xe337a8b24e745fc7,
mall,Pusat Perbelanjaan,SINAR JAYA,"RF9J+PM3, Jl. Jerendeng Abdul Rahman, Bumi Amas, Kec. Teriak, Kabupaten Bengkayang, Kalimantan Barat 79214","Jl. Jerendeng Abdul Rahman, Bumi Amas, Kec. Teriak, Kabupaten Bengkayang",KALIMANTAN BARAT,79214.0,Indonesia, 089618082390,,,0.8192535,109.4816636,https://maps.google.com/?cid=0x0:0xa4a61eee3c10b16d,
mall,Pasar,Toko Galeri,"RF9J+8J2, Jl. Ps. Tengah, Malo Jelayan, Kec. Teriak, Kabupaten Bengkayang, Kalimantan Barat 79214","Jl. Ps. Tengah, Malo Jelayan, Kec. Teriak, Kabupaten Bengkayang",KALIMANTAN BARAT,79214.0,Indonesia, 081345219404,,,0.8182542,109.4815296,https://maps.google.com/?cid=0x0:0x10813152181bbbe5,
mall,Toko Elektronik,OLA Celluler,"R96Q+4F2, Suka Maju, Kec. Sungai Betung, Kabupaten Bengkayang, Kalimantan Barat 79211","Suka Maju, Kec. Sungai Betung, Kabupaten Bengkayang",KALIMANTAN BARAT,79211.0,Indonesia,,,,0.8102512,109.3886261,https://maps.google.com/?cid=0x0:0x36b80c0818b8e5a1,
mall,Pusat Perbelanjaan,Singkawang Grand Mall,"Jl. Alianyang, Pasiran, Kec. Singkawang Bar., Kota Singkawang, Kalimantan Barat 79123","Pasiran, Kec. Singkawang Bar., Kota Singkawang",KALIMANTAN BARAT,79123.0,Indonesia, 05626300000,,,0.8984081,108.9696898,https://maps.google.com/?cid=0x0:0x121838ff9066df40,
mall,Pusat Perbelanjaan,Kios Ramang 2,"RFWW+93G, Bani Amas, Kec. Bengkayang, Kabupaten Bengkayang, Kalimantan Barat 79211","Bani Amas, Kec. Bengkayang, Kabupaten Bengkayang",KALIMANTAN BARAT,79211.0,Indonesia,,,,0.8459276,109.4952101,https://maps.google.com/?cid=0x0:0x4f6ae772076811fe,
mall,Layanan Transportasi,MADU ASLI HUTAN LIAR,"RFJP+XPC, Jl. Raya Sanggau Ledo, Bumi Amas, Kec. Bengkayang, Kabupaten Bengkayang, Kalimantan Barat 79211","Jl. Raya Sanggau Ledo, Bumi Amas, Kec. Bengkayang, Kabupaten Bengkayang",KALIMANTAN BARAT,79211.0,Indonesia, 085349689802,,,0.8324278,109.4867542,https://maps.google.com/?cid=0x0:0xfc63040d4f7337b6,
mall,Pusat Perbelanjaan,Toko Mekar Wangi,"RF9M+V2J, Malo Jelayan, Kec. Teriak, Kabupaten Bengkayang, Kalimantan Barat 79214","Malo Jelayan, Kec. Teriak, Kabupaten Bengkayang",KALIMANTAN BARAT,79214.0,Indonesia,,,,0.8197081,109.4825082,https://maps.google.com/?cid=0x0:0x5d556d1f0ffcc346,
mall,Toko Bahan Bangunan,Toko Bangunan Jaya,"RF9J+VP2, Malo Jelayan, Kec. Teriak, Kabupaten Bengkayang, Kalimantan Barat 79214","Malo Jelayan, Kec. Teriak, Kabupaten Bengkayang",KALIMANTAN BARAT,79214.0,Indonesia, 087773968995,,,0.8196424,109.4817749,https://maps.google.com/?cid=0x0:0x48000bc5c8070d84,
mall,Pusat Perbelanjaan,Toko. Aneka Baru,"Jl. Tabrani No.188, Malo Jelayan, Kec. Teriak, Kabupaten Bengkayang, Kalimantan Barat 79214","Malo Jelayan, Kec. Teriak, Kabupaten Bengkayang",KALIMANTAN BARAT,79214.0,Indonesia,,,,0.8192039,109.4817062,https://maps.google.com/?cid=0x0:0xcd1ef8544120dff3,
mall,Pusat Perbelanjaan,Toko Aneka Baru,"Jl. Jerendeng Abdul Rahman No.80, Malo Jelayan, Kec. Teriak, Kabupaten Bengkayang, Kalimantan Barat 79212","Malo Jelayan, Kec. Teriak, Kabupaten Bengkayang",KALIMANTAN BARAT,79212.0,Indonesia, 081345308288,,,0.8185031,109.4820907,https://maps.google.com/?cid=0x0:0xb63c4f296354dbdc,
mall,Kantor Administrasi Kota,Kantor Bupati Bengkayang,"VF9W+GVC, Sebalo, Kec. Bengkayang, Kabupaten Bengkayang, Kalimantan Barat 79211","Sebalo, Kec. Bengkayang, Kabupaten Bengkayang",KALIMANTAN BARAT,79211.0,Indonesia,,,,0.8688085,109.4971539,https://maps.google.com/?cid=0x0:0xe55bbf6ceb144fb6,
mall,Pusat Perbelanjaan,Banli Mart,"Bumi Amas, Kec. Bengkayang, Kabupaten Bengkayang, Kalimantan Barat 79211","Kec. Bengkayang, Kabupaten Bengkayang",KALIMANTAN BARAT,79211.0,Indonesia,,,,0.8252792,109.483359,https://maps.google.com/?cid=0x0:0x4812752f286b6eef,
mall,mall,Kalimantan Barat 79212,"Bumi Amas, Kec. Bengkayang, Kabupaten Bengkayang, Kalimantan Barat","Kabupaten Bengkayang, Kalimantan Barat",KALIMANTAN BARAT,,Indonesia,,,,0.8224796,109.4556579,https://maps.google.com/?cid=0x0:0xb781ee2896dfb0c1,
mall,Pusat Perbelanjaan,Lala mart,"RFWW+G7J, Jl. Raya Sanggau Ledo, Bani Amas, Kec. Bengkayang, Kabupaten Bengkayang, Kalimantan Barat 79211","Jl. Raya Sanggau Ledo, Bani Amas, Kec. Bengkayang, Kabupaten Bengkayang",KALIMANTAN BARAT,79211.0,Indonesia,,,,0.8463421,109.4956476,https://maps.google.com/?cid=0x0:0xd0b5e78a4db26047,
mall,Pasar,Toko Galeri,"RF9J+8J2, Jl. Ps. Tengah, Malo Jelayan, Kec. Teriak, Kabupaten Bengkayang, Kalimantan Barat 79214","Jl. Ps. Tengah, Malo Jelayan, Kec. Teriak, Kabupaten Bengkayang",KALIMANTAN BARAT,79214.0,Indonesia, 081345219404,,,0.8182542,109.4815296,https://maps.google.com/?cid=0x0:0x10813152181bbbe5,
mall,Pusat Perbelanjaan,Toko Aneka Baru,"Jl. Jerendeng Abdul Rahman No.80, Malo Jelayan, Kec. Teriak, Kabupaten Bengkayang, Kalimantan Barat 79212","Malo Jelayan, Kec. Teriak, Kabupaten Bengkayang",KALIMANTAN BARAT,79212.0,Indonesia, 081345308288,,,0.8185031,109.4820907,https://maps.google.com/?cid=0x0:0xb63c4f296354dbdc,
mall,Toko Pakaian,GOLDEN ACCESSORIES,"Jl. Migang, Bumi Amas, Kec. Bengkayang, Kabupaten Bengkayang, Kalimantan Barat 79123","Bumi Amas, Kec. Bengkayang, Kabupaten Bengkayang",KALIMANTAN BARAT,79123.0,Indonesia,,,,0.8193059,109.4825929,https://maps.google.com/?cid=0x0:0xe337a8b24e745fc7,
mall,,KIOS MITRA TANI,"Jl. Jerendeng Abdul Rahman No.131, Malo Jelayan, Kec. Bengkayang, Kabupaten Bengkayang, Kalimantan Barat 79212","Malo Jelayan, Kec. Bengkayang, Kabupaten Bengkayang",KALIMANTAN BARAT,79212.0,Indonesia, 0562441711,,,0.817774,109.4795976,https://maps.google.com/?cid=0x0:0x695e98f98ff01afe,
mall,Pusat Perbelanjaan,Madina Jaya,"RFJP+63J, Bumi Amas, Kec. Bengkayang, Kabupaten Bengkayang, Kalimantan Barat 79211","Bumi Amas, Kec. Bengkayang, Kabupaten Bengkayang",KALIMANTAN BARAT,79211.0,Indonesia,,,,0.8305971,109.4851531,https://maps.google.com/?cid=0x0:0xeaeddd7f75605ee6,
mall,Pusat Perbelanjaan,SINAR JAYA,"RF9J+PM3, Jl. Jerendeng Abdul Rahman, Bumi Amas, Kec. Teriak, Kabupaten Bengkayang, Kalimantan Barat 79214","Jl. Jerendeng Abdul Rahman, Bumi Amas, Kec. Teriak, Kabupaten Bengkayang",KALIMANTAN BARAT,79214.0,Indonesia, 089618082390,,,0.8192535,109.4816636,https://maps.google.com/?cid=0x0:0xa4a61eee3c10b16d,
mall,Pasar,Pasar Bengkayang,"Malo Jelayan, Kec. Teriak, Kabupaten Bengkayang, Kalimantan Barat 79214","Kec. Teriak, Kabupaten Bengkayang",KALIMANTAN BARAT,79214.0,Indonesia,,,,0.8209729,109.477699,https://maps.google.com/?cid=0x0:0xcd4d322559fafc77,
mall,Layanan Transportasi,MADU ASLI HUTAN LIAR,"RFJP+XPC, Jl. Raya Sanggau Ledo, Bumi Amas, Kec. Bengkayang, Kabupaten Bengkayang, Kalimantan Barat 79211","Jl. Raya Sanggau Ledo, Bumi Amas, Kec. Bengkayang, Kabupaten Bengkayang",KALIMANTAN BARAT,79211.0,Indonesia, 085349689802,,,0.8324278,109.4867542,https://maps.google.com/?cid=0x0:0xfc63040d4f7337b6,
mall,Pusat Perbelanjaan,Singkawang Grand Mall,"Jl. Alianyang, Pasiran, Kec. Singkawang Bar., Kota Singkawang, Kalimantan Barat 79123","Pasiran, Kec. Singkawang Bar., Kota Singkawang",KALIMANTAN BARAT,79123.0,Indonesia, 05626300000,,,0.8984081,108.9696898,https://maps.google.com/?cid=0x0:0x121838ff9066df40,
mall,Pusat Perbelanjaan,Toko. Aneka Baru,"Jl. Tabrani No.188, Malo Jelayan, Kec. Teriak, Kabupaten Bengkayang, Kalimantan Barat 79214","Malo Jelayan, Kec. Teriak, Kabupaten Bengkayang",KALIMANTAN BARAT,79214.0,Indonesia,,,,0.8192039,109.4817062,https://maps.google.com/?cid=0x0:0xcd1ef8544120dff3,
mall,Pusat Perbelanjaan,Toko Mekar Wangi,"RF9M+V2J, Malo Jelayan, Kec. Teriak, Kabupaten Bengkayang, Kalimantan Barat 79214","Malo Jelayan, Kec. Teriak, Kabupaten Bengkayang",KALIMANTAN BARAT,79214.0,Indonesia,,,,0.8197081,109.4825082,https://maps.google.com/?cid=0x0:0x5d556d1f0ffcc346,
mall,Toko Bahan Bangunan,Toko Bangunan Jaya,"RF9J+VP2, Malo Jelayan, Kec. Teriak, Kabupaten Bengkayang, Kalimantan Barat 79214","Malo Jelayan, Kec. Teriak, Kabupaten Bengkayang",KALIMANTAN BARAT,79214.0,Indonesia, 087773968995,,,0.8196424,109.4817749,https://maps.google.com/?cid=0x0:0x48000bc5c8070d84,
mall,Pusat Perbelanjaan,Kios Ramang 2,"RFWW+93G, Bani Amas, Kec. Bengkayang, Kabupaten Bengkayang, Kalimantan Barat 79211","Bani Amas, Kec. Bengkayang, Kabupaten Bengkayang",KALIMANTAN BARAT,79211.0,Indonesia,,,,0.8459276,109.4952101,https://maps.google.com/?cid=0x0:0x4f6ae772076811fe,
mall,Komplek perumahan,PMJ Putri daerah tiga desa,"Pmj tiga, Tirta Kencana, Kec. Bengkayang, Kabupaten Bengkayang, Kalimantan Barat 79213","Tirta Kencana, Kec. Bengkayang, Kabupaten Bengkayang",KALIMANTAN BARAT,79213.0,Indonesia,,,,0.7967751,109.4590797,https://maps.google.com/?cid=0x0:0xd8c3d69aac0a8f7e,
mall,Toko Kesehatan dan Kecantikan,MUTIARA REFLEKSI,"Gg. Mangga, Malo Jelayan, Kec. Teriak, Kabupaten Bengkayang, Kalimantan Barat 79214","Malo Jelayan, Kec. Teriak, Kabupaten Bengkayang",KALIMANTAN BARAT,79214.0,Indonesia,,,,0.8133503,109.4758187,https://maps.google.com/?cid=0x0:0x7fc6175a0c42a927,
mall,Pusat Perbelanjaan,Toko Pertanian RAMANG II,"RF9J+FX8, Jl. Migang, Malo Jelayan, Kec. Teriak, Kabupaten Bengkayang, Kalimantan Barat 79214","Jl. Migang, Malo Jelayan, Kec. Teriak, Kabupaten Bengkayang",KALIMANTAN BARAT,79214.0,Indonesia, 082148188080,,,0.8186636,109.4824544,https://maps.google.com/?cid=0x0:0xa4060b7c355ecc3e,
mall,Toko Pakaian,Devi Olshop,"Jl. Bambang Ismoyo, Bumi Amas, Kec. Bengkayang, Kabupaten Bengkayang, Kalimantan Barat 79214","Bumi Amas, Kec. Bengkayang, Kabupaten Bengkayang",KALIMANTAN BARAT,79214.0,Indonesia, 082244812496,,,0.8189511,109.4764956,https://maps.google.com/?cid=0x0:0x30168b9bfc364823,
mall,Minimarket,BP2 Indomaret,"RF8Q+FX6, Malo Jelayan, Kec. Teriak, Kabupaten Bengkayang, Kalimantan Barat 79214","Malo Jelayan, Kec. Teriak, Kabupaten Bengkayang",KALIMANTAN BARAT,79214.0,Indonesia,,,,0.8161709,109.4898997,https://maps.google.com/?cid=0x0:0x67ace0da5f6a1a98,
mall,Kantor Perusahaan,SAMURAI PAINT - MASTER MOTOR,"Jl. Raya Sanggau Ledo No.15, Bani Amas, Kec. Bengkayang, Kabupaten Bengkayang, Kalimantan Barat 79211","Bani Amas, Kec. Bengkayang, Kabupaten Bengkayang",KALIMANTAN BARAT,79211.0,Indonesia,,,,0.8395288,109.4926045,https://maps.google.com/?cid=0x0:0xfcac1c81afdce630,
mall,mall,Kalimantan Barat 79213,"Kec. Bengkayang, Kabupaten Bengkayang, Kalimantan Barat","Kabupaten Bengkayang, Kalimantan Barat",KALIMANTAN BARAT,,Indonesia,,,,0.7864221,109.4794564,https://maps.google.com/?cid=0x0:0xe59696e01cc59642,
mall,Pusat Perbelanjaan,Banli Mart,"Bumi Amas, Kec. Bengkayang, Kabupaten Bengkayang, Kalimantan Barat 79211","Kec. Bengkayang, Kabupaten Bengkayang",KALIMANTAN BARAT,79211.0,Indonesia,,,,0.8252792,109.483359,https://maps.google.com/?cid=0x0:0x4812752f286b6eef,
mall,Pusat Perbelanjaan,Lala mart,"RFWW+G7J, Jl. Raya Sanggau Ledo, Bani Amas, Kec. Bengkayang, Kabupaten Bengkayang, Kalimantan Barat 79211","Jl. Raya Sanggau Ledo, Bani Amas, Kec. Bengkayang, Kabupaten Bengkayang",KALIMANTAN BARAT,79211.0,Indonesia,,,,0.8463421,109.4956476,https://maps.google.com/?cid=0x0:0xd0b5e78a4db26047,
mall,Perguruan Tinggi,IMDKOM CAMPUS,"RF9Q+22X, Jl. Basuki Rachmat, Malo Jelayan, Kec. Teriak, Kabupaten Bengkayang, Kalimantan Barat 79214","Jl. Basuki Rachmat, Malo Jelayan, Kec. Teriak, Kabupaten Bengkayang",KALIMANTAN BARAT,79214.0,Indonesia, 085753263044,,,0.8176172,109.4875997,https://maps.google.com/?cid=0x0:0x8d9c806c2212d283,
mall,Minimarket,BP2 Indomaret,"RF8Q+FX6, Malo Jelayan, Kec. Teriak, Kabupaten Bengkayang, Kalimantan Barat 79214","Malo Jelayan, Kec. Teriak, Kabupaten Bengkayang",KALIMANTAN BARAT,79214.0,Indonesia,,,,0.8161709,109.4898997,https://maps.google.com/?cid=0x0:0x67ace0da5f6a1a98,
mall,,KIOS MITRA TANI,"Jl. Jerendeng Abdul Rahman No.131, Malo Jelayan, Kec. Bengkayang, Kabupaten Bengkayang, Kalimantan Barat 79212","Malo Jelayan, Kec. Bengkayang, Kabupaten Bengkayang",KALIMANTAN BARAT,79212.0,Indonesia, 0562441711,,,0.817774,109.4795976,https://maps.google.com/?cid=0x0:0x695e98f98ff01afe,
mall,Toko Kesehatan dan Kecantikan,MUTIARA REFLEKSI,"Gg. Mangga, Malo Jelayan, Kec. Teriak, Kabupaten Bengkayang, Kalimantan Barat 79214","Malo Jelayan, Kec. Teriak, Kabupaten Bengkayang",KALIMANTAN BARAT,79214.0,Indonesia,,,,0.8133503,109.4758187,https://maps.google.com/?cid=0x0:0x7fc6175a0c42a927,
mall,Pusat Perbelanjaan,Singkawang Grand Mall,"Jl. Alianyang, Pasiran, Kec. Singkawang Bar., Kota Singkawang, Kalimantan Barat 79123","Pasiran, Kec. Singkawang Bar., Kota Singkawang",KALIMANTAN BARAT,79123.0,Indonesia, 05626300000,,,0.8984081,108.9696898,https://maps.google.com/?cid=0x0:0x121838ff9066df40,
mall,Pusat Perbelanjaan,jam tanggan,"RG53+X89, Jl. Basuki Rachmat, Malo Jelayan, Kec. Teriak, Kabupaten Bengkayang, Kalimantan Barat 79214","Jl. Basuki Rachmat, Malo Jelayan, Kec. Teriak, Kabupaten Bengkayang",KALIMANTAN BARAT,79214.0,Indonesia, 0895372706114,,,0.8099228,109.5033681,https://maps.google.com/?cid=0x0:0xf00acafbc8ccedb0,
mall,Toko Pakaian,GOLDEN ACCESSORIES,"Jl. Migang, Bumi Amas, Kec. Bengkayang, Kabupaten Bengkayang, Kalimantan Barat 79123","Bumi Amas, Kec. Bengkayang, Kabupaten Bengkayang",KALIMANTAN BARAT,79123.0,Indonesia,,,,0.8193059,109.4825929,https://maps.google.com/?cid=0x0:0xe337a8b24e745fc7,
mall,Tujuan Wisata,Bukit Jamur Bengkayang,"QFHG+65X, Bhakti Mulya, Kec. Bengkayang, Kabupaten Bengkayang, Kalimantan Barat 79213","Bhakti Mulya, Kec. Bengkayang, Kabupaten Bengkayang",KALIMANTAN BARAT,79213.0,Indonesia, 081522855586,,,0.7781171,109.4754982,https://maps.google.com/?cid=0x0:0xfbf8e1f1f075c41f,
mall,mall,Kec. Capkala,"Kabupaten Bengkayang, Kalimantan Barat","Kabupaten Bengkayang, Kalimantan Barat",KALIMANTAN BARAT,,Indonesia,,,,0.6465345,108.9900358,https://maps.google.com/?cid=0x0:0x7cd114d25e819b7f,
mall,Restoran,Clara Kantin,"Rukma Jaya, Sungai Raya Kepulauan, Kabupaten Bengkayang, Kalimantan Barat 79271","Sungai Raya Kepulauan, Kabupaten Bengkayang",KALIMANTAN BARAT,79271.0,Indonesia,,,,0.7119552,109.0163035,https://maps.google.com/?cid=0x0:0x2621981027c82329,
mall,Toko Swalayan,WARUNG X JAPAN,"M22P+3GM, Setanduk, Kec. Capkala, Kabupaten Bengkayang, Kalimantan Barat 79271","Setanduk, Kec. Capkala, Kabupaten Bengkayang",KALIMANTAN BARAT,79271.0,Indonesia, 085750590862,,,0.6501701,109.0362934,https://maps.google.com/?cid=0x0:0x68431fa9a0fd27b3,
mall,Toko Perlengkapan Rumah,Mila Tuppaware,"MWF9+9V8, Jl. Sei Duri - Singkawang, Rukma Jaya, Sungai Raya Kepulauan, Kabupaten Bengkayang, Kalimantan Barat 79271","Jl. Sei Duri - Singkawang, Rukma Jaya, Sungai Raya Kepulauan, Kabupaten Bengkayang",KALIMANTAN BARAT,79271.0,Indonesia, 082148381901,,,0.6734212,108.919688,https://maps.google.com/?cid=0x0:0x196f98563bbdd0da,
mall,Pusat Perbelanjaan,Suci Alshop,"JW8M+GMG, Sungai Pangkalan I, Kec. Sungai Raya, Kabupaten Bengkayang, Kalimantan Barat 79271","Sungai Pangkalan I, Kec. Sungai Raya, Kabupaten Bengkayang",KALIMANTAN BARAT,79271.0,Indonesia,,,,0.6163014,108.9342164,https://maps.google.com/?cid=0x0:0x6e41c7f03527e8f7,
mall,Kantor Polisi,Polsek Capkala,"M288+C9M, Setanduk, Kec. Capkala, Kabupaten Bengkayang, Kalimantan Barat 79271","Setanduk, Kec. Capkala, Kabupaten Bengkayang",KALIMANTAN BARAT,79271.0,Indonesia,,,,0.6660756,109.0159312,https://maps.google.com/?cid=0x0:0x5c1179cddbb11440,
mall,Sekolah,SDN 02 CAPKALA,"J2XP+R4V, Unnamed Road, Setanduk, Capkala, Bengkayang Regency, West Kalimantan 79271","Unnamed Road, Setanduk, Capkala, Bengkayang Regency",KALIMANTAN BARAT,79271.0,Indonesia,,,,0.6496114,109.0352867,https://maps.google.com/?cid=0x0:0xf29a5edcbe592d80,
mall,Toko Pakaian,"Modist Toserba 35,000","Sungai Duri, Kec. Sungai Raya, Kabupaten Bengkayang, Kalimantan Barat","Kabupaten Bengkayang, Kalimantan Barat",KALIMANTAN BARAT,,Indonesia, 082358788225,,,0.5775484,108.9292853,https://maps.google.com/?cid=0x0:0x43168278bebe3897,
mall,Stasiun pengisian gas alam terkompresi,AMIN gas LPG,"JXV3+QR7, Sungai Pangkalan II, Kec. Sungai Raya, Kabupaten Bengkayang, Kalimantan Barat 79271","Sungai Pangkalan II, Kec. Sungai Raya, Kabupaten Bengkayang",KALIMANTAN BARAT,79271.0,Indonesia,,,,0.6437904,108.9555215,https://maps.google.com/?cid=0x0:0xd0f6e5fd61bdd5df,
mall,Pembangunan Perumahan,Kucipu,"M26M+4W3 e SMP 1capkala, Kucipu, Kec. Capkala, Kabupaten Bengkayang, Kalimantan Barat 79271","Kucipu, Kec. Capkala, Kabupaten Bengkayang",KALIMANTAN BARAT,79271.0,Indonesia,,,,0.66025,109.0348109,https://maps.google.com/?cid=0x0:0x498210c144e16ebb,
mall,Toko,Toko top 10,"MWP6+5Q, Sungai Keran, Sungai Raya Kepulauan, Kabupaten Bengkayang, Kalimantan Barat 79271","Sungai Keran, Sungai Raya Kepulauan, Kabupaten Bengkayang",KALIMANTAN BARAT,79271.0,Indonesia,,,,0.6854684,108.9119259,https://maps.google.com/?cid=0x0:0xe3bed0c8bd1a93d4,
mall,Pusat Perbelanjaan,TOKO YUNUS,"HXQ4+M27, Jl. Timur 2, Sungai Jaga A, Kec. Sungai Raya, Kabupaten Bengkayang, Kalimantan Barat 79271","Jl. Timur 2, Sungai Jaga A, Kec. Sungai Raya, Kabupaten Bengkayang",KALIMANTAN BARAT,79271.0,Indonesia,,,,0.589163,108.9550376,https://maps.google.com/?cid=0x0:0x20f883fa16a822cc,
mall,Toko Ponsel,JEJE PONSEL PANGSUMA,"HWCH+8CF, Sungai Duri, Kec. Sungai Raya, Kabupaten Bengkayang, Kalimantan Barat 79271","Sungai Duri, Kec. Sungai Raya, Kabupaten Bengkayang",KALIMANTAN BARAT,79271.0,Indonesia, 082351540541,,,0.570814,108.928549,https://maps.google.com/?cid=0x0:0x6bf09e589beb4209,
mall,Pusat Perbelanjaan,Toko Mutiara,"HXX2+99J, Sungai Jaga A, Kec. Sungai Raya, Kabupaten Bengkayang, Kalimantan Barat 79271","Sungai Jaga A, Kec. Sungai Raya, Kabupaten Bengkayang",KALIMANTAN BARAT,79271.0,Indonesia,,,,0.5984687,108.9508953,https://maps.google.com/?cid=0x0:0x3446a8a07126d3cd,
mall,mall,Pasar Capkala,"M25C+8J3, Setanduk, Kec. Capkala, Kabupaten Bengkayang, Kalimantan Barat 79271","Setanduk, Kec. Capkala, Kabupaten Bengkayang",KALIMANTAN BARAT,79271.0,Indonesia,,,,0.6582688,109.0215438,https://maps.google.com/?cid=0x0:0x740939032a9539f9,
mall,Komplek perumahan,Capkala,"JXWR+J2R, Sabandut, Kec. Capkala, Kabupaten Bengkayang, Kalimantan Barat 79271","Sabandut, Kec. Capkala, Kabupaten Bengkayang",KALIMANTAN BARAT,79271.0,Indonesia,,,,0.6466129,108.9900178,https://maps.google.com/?cid=0x0:0xa14892ec556cf318,
mall,mall,Kalimantan Barat 79286,"Kabupaten Bengkayang, Kalimantan Barat","Kabupaten Bengkayang, Kalimantan Barat",KALIMANTAN BARAT,,Indonesia,,,,1.3209538,109.9020509,https://maps.google.com/?cid=0x0:0xe90d3fed88f115f,
mall,Komplek perumahan,Seluas,"7VM4+368, Jagoi, Kec. Jagoi Babang, Kabupaten Bengkayang, Kalimantan Barat 79286","Jagoi, Kec. Jagoi Babang, Kabupaten Bengkayang",KALIMANTAN BARAT,79286.0,Indonesia, 081254580729,,,1.2826506,109.8555642,https://maps.google.com/?cid=0x0:0x2b02562168930c59,
mall,Pangkalan Militer,PLBN Jagoi Babang,"Jl. Dwikora, Lhi Buie, Kec. Jagoi Babang, Kabupaten Bengkayang, Kalimantan Barat 79286","Lhi Buie, Kec. Jagoi Babang, Kabupaten Bengkayang",KALIMANTAN BARAT,79286.0,Indonesia,,,,1.3200299,109.9650815,https://maps.google.com/?cid=0x0:0x205d0a29fffe53c7,
mall,mall,Toko 88,"Jalan Jagoi Babang, sungai take, Sekida, Kec. Jagoi Babang, Kabupaten Bengkayang, Kalimantan Barat 79286","sungai take, Sekida, Kec. Jagoi Babang, Kabupaten Bengkayang",KALIMANTAN BARAT,79286.0,Indonesia,,,,1.3256082,109.8840636,https://maps.google.com/?cid=0x0:0xb6de4b7fd9ccb1dc,
mall,Pos Perbatasan Negara,Bea Cukai Jagoi Babang,"Jl. Dwikora No.02, Lhi Buie, Kec. Jagoi Babang, Kabupaten Bengkayang, Kalimantan Barat 79286","Lhi Buie, Kec. Jagoi Babang, Kabupaten Bengkayang",KALIMANTAN BARAT,79286.0,Indonesia, 085163739200,,,1.3241097,109.9544213,https://maps.google.com/?cid=0x0:0xbd88a17c1a775acd,
mall,,TOKO AYAMADU,"8WJM+GWR, Jl. Dwikora, Sekida, Kec. Jagoi Babang, Kabupaten Bengkayang, Kalimantan Barat 79286","Jl. Dwikora, Sekida, Kec. Jagoi Babang, Kabupaten Bengkayang",KALIMANTAN BARAT,79286.0,Indonesia,,,,1.3313702,109.9347803,https://maps.google.com/?cid=0x0:0x212e909ab0f0ae65,
mall,Perusahaan Operasi Pelabuhan,dermaga kumba 1 sentimok,"CJ7R+M2H, Sinar Baru, Kec. Jagoi Babang, Kabupaten Bengkayang, Kalimantan Barat 79286","Sinar Baru, Kec. Jagoi Babang, Kabupaten Bengkayang",KALIMANTAN BARAT,79286.0,Indonesia, 081345454612,,,1.4141836,109.6401242,https://maps.google.com/?cid=0x0:0xbee46201d5a3561f,
mall,Toko,Pasar Inpres Sei Take,"8VFJ+VWP, Dsn Sei Take, Sekida, Kec. Jagoi Babang, Kabupaten Bengkayang, Kalimantan Barat 79286","Dsn Sei Take, Sekida, Kec. Jagoi Babang, Kabupaten Bengkayang",KALIMANTAN BARAT,79286.0,Indonesia,,,,1.3247001,109.8823226,https://maps.google.com/?cid=0x0:0xb7ae9ac932140df7,
mall,Pusat Perbelanjaan,Lala mart,"RFWW+G7J, Jl. Raya Sanggau Ledo, Bani Amas, Kec. Bengkayang, Kabupaten Bengkayang, Kalimantan Barat 79211","Jl. Raya Sanggau Ledo, Bani Amas, Kec. Bengkayang, Kabupaten Bengkayang",KALIMANTAN BARAT,79211.0,Indonesia,,,,0.8463421,109.4956476,https://maps.google.com/?cid=0x0:0xd0b5e78a4db26047,
mall,Pusat Perbelanjaan,Banli Mart,"Bumi Amas, Kec. Bengkayang, Kabupaten Bengkayang, Kalimantan Barat 79211","Kec. Bengkayang, Kabupaten Bengkayang",KALIMANTAN BARAT,79211.0,Indonesia,,,,0.8252792,109.483359,https://maps.google.com/?cid=0x0:0x4812752f286b6eef,
mall,Toko Swalayan,AEON Mall Deltamas,"Jl. Ganesha Boulevard, Kota Deltamas, Kec. Cikarang Pusat, Kabupaten Bekasi, Jawa Barat 17530","Kota Deltamas, Kec. Cikarang Pusat, Kabupaten Bekasi",KALIMANTAN BARAT,17530.0,Indonesia, 02138733333,,,-6.3519407,107.1954494,https://maps.google.com/?cid=0x0:0xa692ce22e7339115,
mall,mall,Lembah Bawang,"Kec. Lembah Bawang, Kabupaten Bengkayang, Kalimantan Barat","Kabupaten Bengkayang, Kalimantan Barat",KALIMANTAN BARAT,,Indonesia,,,,0.9676428,109.2772057,https://maps.google.com/?cid=0x0:0xf1e5c6d8cdd0ccbe,
mall,Pusat Perbelanjaan,Singkawang Grand Mall,"Jl. Alianyang, Pasiran, Kec. Singkawang Bar., Kota Singkawang, Kalimantan Barat 79123","Pasiran, Kec. Singkawang Bar., Kota Singkawang",KALIMANTAN BARAT,79123.0,Indonesia, 05626300000,,,0.8984081,108.9696898,https://maps.google.com/?cid=0x0:0x121838ff9066df40,
mall,mall,Warung,"V7JW+Q4G, Godang Damar, Kec. Lembah Bawang, Kabupaten Bengkayang, Kalimantan Barat 79281","Godang Damar, Kec. Lembah Bawang, Kabupaten Bengkayang",KALIMANTAN BARAT,79281.0,Indonesia,,,,0.8819452,109.2953329,https://maps.google.com/?cid=0x0:0xebd1353d4a3daefa,
mall,mall,Kalimantan Barat 79283,"Kabupaten Bengkayang, Kalimantan Barat","Kabupaten Bengkayang, Kalimantan Barat",KALIMANTAN BARAT,,Indonesia,,,,0.9622491,109.4259114,https://maps.google.com/?cid=0x0:0xd9b7a2355ab52b5e,
mall,Pusat Perbelanjaan,Lala mart,"RFWW+G7J, Jl. Raya Sanggau Ledo, Bani Amas, Kec. Bengkayang, Kabupaten Bengkayang, Kalimantan Barat 79211","Jl. Raya Sanggau Ledo, Bani Amas, Kec. Bengkayang, Kabupaten Bengkayang",KALIMANTAN BARAT,79211.0,Indonesia,,,,0.8463421,109.4956476,https://maps.google.com/?cid=0x0:0xd0b5e78a4db26047,
mall,mall,Kec. Lumar,"Kabupaten Bengkayang, Kalimantan Barat","Kabupaten Bengkayang, Kalimantan Barat",KALIMANTAN BARAT,,Indonesia,,,,0.9354467,109.4706831,https://maps.google.com/?cid=0x0:0x5ce6c7630fef8e15,
mall,Pusat Perbelanjaan,Surya Lintang Panjer Sore,"WC8Q+R4M, Tiga Berkat, Kec. Lumar, Kabupaten Bengkayang, Kalimantan Barat 79283","Tiga Berkat, Kec. Lumar, Kabupaten Bengkayang",KALIMANTAN BARAT,79283.0,Indonesia, 081522861982,,,0.9170884,109.4378098,https://maps.google.com/?cid=0x0:0xbd3c91471b436666,
mall,Pusat Perbelanjaan,Banli Mart,"Bumi Amas, Kec. Bengkayang, Kabupaten Bengkayang, Kalimantan Barat 79211","Kec. Bengkayang, Kabupaten Bengkayang",KALIMANTAN BARAT,79211.0,Indonesia,,,,0.8252792,109.483359,https://maps.google.com/?cid=0x0:0x4812752f286b6eef,
mall,Toko Ikan,Pembibitan ikan air tawar Al barokah,"WFWG+9M8 Pembibitan ikan air tawar Al barokah, Tiga Berkat, Kec. Lumar, Kabupaten Bengkayang, Kalimantan Barat 79283","Tiga Berkat, Kec. Lumar, Kabupaten Bengkayang",KALIMANTAN BARAT,79283.0,Indonesia,,,,0.945901,109.476708,https://maps.google.com/?cid=0x0:0x626a087207af26ea,
mall,Perguruan Tinggi,IMDKOM CAMPUS,"RF9Q+22X, Jl. Basuki Rachmat, Malo Jelayan, Kec. Teriak, Kabupaten Bengkayang, Kalimantan Barat 79214","Jl. Basuki Rachmat, Malo Jelayan, Kec. Teriak, Kabupaten Bengkayang",KALIMANTAN BARAT,79214.0,Indonesia, 085753263044,,,0.8176172,109.4875997,https://maps.google.com/?cid=0x0:0x8d9c806c2212d283,
mall,Bengkel Mobil,Bengkel  warung karya harapan,"VRJ5+2M8, Tapen, Kec. Suti Semarang, Kabupaten Bengkayang, Kalimantan Barat 79283","Tapen, Kec. Suti Semarang, Kabupaten Bengkayang",KALIMANTAN BARAT,79283.0,Indonesia, 085388949477,,,0.8800327,109.8091975,https://maps.google.com/?cid=0x0:0x4e708e33b2578362,
mall,mall,Mall layanan publik,"RFXX+658, Jl. Raya Sanggau Ledo, Bani Amas, Kec. Bengkayang, Kabupaten Bengkayang, Kalimantan Barat","Kabupaten Bengkayang, Kalimantan Barat",KALIMANTAN BARAT,,Indonesia,,,,0.848032,109.4979532,https://maps.google.com/?cid=0x0:0xdfca97a2028e10e6,
mall,Pusat Perbelanjaan,Singkawang Grand Mall,"Jl. Alianyang, Pasiran, Kec. Singkawang Bar., Kota Singkawang, Kalimantan Barat 79123","Pasiran, Kec. Singkawang Bar., Kota Singkawang",KALIMANTAN BARAT,79123.0,Indonesia, 05626300000,,,0.8984081,108.9696898,https://maps.google.com/?cid=0x0:0x121838ff9066df40,
mall,Toko Kosmetik,BOSS PARFUME,"Jl. Raya Sanggau Ledo No.124, Sahan, Kec. Seluas, Kabupaten Bengkayang, Kalimantan Barat 79285","Sahan, Kec. Seluas, Kabupaten Bengkayang",KALIMANTAN BARAT,79285.0,Indonesia, 081296864005,,,1.1454559,109.6970718,https://maps.google.com/?cid=0x0:0x19ec5a28dffd0542,
mall,Kerajinan,Dekranasda Kab. Bengkayang,"Jl. Guna Baru Trans Rangkang, Sebalo, Kec. Bengkayang, Kabupaten Bengkayang, Kalimantan Barat 79211","Sebalo, Kec. Bengkayang, Kabupaten Bengkayang",KALIMANTAN BARAT,79211.0,Indonesia,,,,0.8688311,109.4971527,https://maps.google.com/?cid=0x0:0xccdf193c8d548fce,
mall,Bengkel Ketok Magic,Bengkel Emt,"5HF2+QH3, Unnamed Road,, Danti, Kec. Sanggau Ledo, Kabupaten Bengkayang, Kalimantan Barat 79284","Unnamed Road,, Danti, Kec. Sanggau Ledo, Kabupaten Bengkayang",KALIMANTAN BARAT,79284.0,Indonesia,,,,1.1743884,109.5514255,https://maps.google.com/?cid=0x0:0xc131fbed3e2fa0b2,
mall,Pusat Perbelanjaan,Madina Jaya,"RFJP+63J, Bumi Amas, Kec. Bengkayang, Kabupaten Bengkayang, Kalimantan Barat 79211","Bumi Amas, Kec. Bengkayang, Kabupaten Bengkayang",KALIMANTAN BARAT,79211.0,Indonesia,,,,0.8305971,109.4851531,https://maps.google.com/?cid=0x0:0xeaeddd7f75605ee6,
mall,Kantor Perusahaan,SAMURAI PAINT - MASTER MOTOR,"Jl. Raya Sanggau Ledo No.15, Bani Amas, Kec. Bengkayang, Kabupaten Bengkayang, Kalimantan Barat 79211","Bani Amas, Kec. Bengkayang, Kabupaten Bengkayang",KALIMANTAN BARAT,79211.0,Indonesia,,,,0.8395288,109.4926045,https://maps.google.com/?cid=0x0:0xfcac1c81afdce630,
mall,mall,"Toko ATK, SEMBAKO DAN BRILINK NINING SEMPAYUK","XG63+598, RT./RW/RW.003/001, Dusun Sempayuk, Belimbing, Kec. Lumar, Kabupaten Bengkayang, Kalimantan Barat","Kabupaten Bengkayang, Kalimantan Barat",KALIMANTAN BARAT,,Indonesia, 081268383823,,,0.9604049,109.5034496,https://maps.google.com/?cid=0x0:0x853c48b67987a506,
mall,Komplek perumahan,Seluas,"7VM4+368, Jagoi, Kec. Jagoi Babang, Kabupaten Bengkayang, Kalimantan Barat 79286","Jagoi, Kec. Jagoi Babang, Kabupaten Bengkayang",KALIMANTAN BARAT,79286.0,Indonesia, 081254580729,,,1.2826506,109.8555642,https://maps.google.com/?cid=0x0:0x2b02562168930c59,
mall,Toko Kesehatan dan Kecantikan,MUTIARA REFLEKSI,"Gg. Mangga, Malo Jelayan, Kec. Teriak, Kabupaten Bengkayang, Kalimantan Barat 79214","Malo Jelayan, Kec. Teriak, Kabupaten Bengkayang",KALIMANTAN BARAT,79214.0,Indonesia,,,,0.8133503,109.4758187,https://maps.google.com/?cid=0x0:0x7fc6175a0c42a927,
mall,Toko Elektronik,OLA Celluler,"R96Q+4F2, Suka Maju, Kec. Sungai Betung, Kabupaten Bengkayang, Kalimantan Barat 79211","Suka Maju, Kec. Sungai Betung, Kabupaten Bengkayang",KALIMANTAN BARAT,79211.0,Indonesia,,,,0.8102512,109.3886261,https://maps.google.com/?cid=0x0:0x36b80c0818b8e5a1,
mall,Toko bahan makanan,warung sembilu,"3M5W+P6R, Pisak, Kec. Tujuh Belas, Kabupaten Bengkayang, Kalimantan Barat 79251","Pisak, Kec. Tujuh Belas, Kabupaten Bengkayang",KALIMANTAN BARAT,79251.0,Indonesia,,,,1.0593706,109.6955259,https://maps.google.com/?cid=0x0:0x6de3a0f9e121ad44,
mall,Pusat Perbelanjaan,Toko Mekar Wangi,"RF9M+V2J, Malo Jelayan, Kec. Teriak, Kabupaten Bengkayang, Kalimantan Barat 79214","Malo Jelayan, Kec. Teriak, Kabupaten Bengkayang",KALIMANTAN BARAT,79214.0,Indonesia,,,,0.8197081,109.4825082,https://maps.google.com/?cid=0x0:0x5d556d1f0ffcc346,
mall,Pusat Perbelanjaan,Singkawang Grand Mall,"Jl. Alianyang, Pasiran, Kec. Singkawang Bar., Kota Singkawang, Kalimantan Barat 79123","Pasiran, Kec. Singkawang Bar., Kota Singkawang",KALIMANTAN BARAT,79123.0,Indonesia, 05626300000,,,0.8984081,108.9696898,https://maps.google.com/?cid=0x0:0x121838ff9066df40,
mall,mall,Monterado,"Nek Ginap, Kec. Monterado, Kabupaten Bengkayang, Kalimantan Barat","Kabupaten Bengkayang, Kalimantan Barat",KALIMANTAN BARAT,,Indonesia,,,,0.7565809,109.1343,https://maps.google.com/?cid=0x0:0xf2b03ef6930a9cf9,
mall,Pasar,Toko harapan,"Unnamed Road, Nek Ginap, Kec. Monterado, Kabupaten Bengkayang, Kalimantan Barat 79181","Nek Ginap, Kec. Monterado, Kabupaten Bengkayang",KALIMANTAN BARAT,79181.0,Indonesia,,,,0.7594939,109.1325121,https://maps.google.com/?cid=0x0:0x98b25a20c49f4efd,
mall,mall,GERAI ABID,"Q45M+938, Nek Ginap, Kec. Monterado, Kabupaten Bengkayang, Kalimantan Barat 79181","Nek Ginap, Kec. Monterado, Kabupaten Bengkayang",KALIMANTAN BARAT,79181.0,Indonesia, 087815511797,,,0.758411,109.1326942,https://maps.google.com/?cid=0x0:0xc7857bf76413f92e,
mall,mall,Samalantan,"Marunsu, Kec. Samalantan, Kabupaten Bengkayang, Kalimantan Barat","Kabupaten Bengkayang, Kalimantan Barat",KALIMANTAN BARAT,,Indonesia,,,,0.791129,109.195999,https://maps.google.com/?cid=0x0:0x3190b8d20c33f6ae,
mall,Toko Pakaian,Toko ALTA Samalantan,"Q5VW+X4V, Dusun Samano, Marunsu, Samalantan, Bengkayang Regency, West Kalimantan 79281","Dusun Samano, Marunsu, Samalantan, Bengkayang Regency",KALIMANTAN BARAT,79281.0,Indonesia,,,,0.7949937,109.1952846,https://maps.google.com/?cid=0x0:0x6968066f8f6aa42d,
mall,Toko Pakaian,RAM DANEPA,"R53M+2M3, Jl. Raya Singkawang-Bengkayang, Marunsu, Kec. Samalantan, Kabupaten Bengkayang, Kalimantan Barat 79281","Jl. Raya Singkawang-Bengkayang, Marunsu, Kec. Samalantan, Kabupaten Bengkayang",KALIMANTAN BARAT,79281.0,Indonesia, 08128674287,,,0.8025232,109.1841647,https://maps.google.com/?cid=0x0:0x9a06388ad428235,
mall,Toko Swalayan,Toko Ateng,"Q6WR+5RQ, Dusun Nyandung, Marunsu, Kec. Samalantan, Kabupaten Bengkayang, Kalimantan Barat 79281","Dusun Nyandung, Marunsu, Kec. Samalantan, Kabupaten Bengkayang",KALIMANTAN BARAT,79281.0,Indonesia,,,,0.7954747,109.2421118,https://maps.google.com/?cid=0x0:0xfea96feb43a86f82,
mall,mall,Kec. Sanggau Ledo,"Kabupaten Bengkayang, Kalimantan Barat","Kabupaten Bengkayang, Kalimantan Barat",KALIMANTAN BARAT,,Indonesia,,,,1.1770479,109.5515555,https://maps.google.com/?cid=0x0:0xc5f1de0c2e2d490d,
mall,Bengkel Ketok Magic,Bengkel Emt,"5HF2+QH3, Unnamed Road,, Danti, Kec. Sanggau Ledo, Kabupaten Bengkayang, Kalimantan Barat 79284","Unnamed Road,, Danti, Kec. Sanggau Ledo, Kabupaten Bengkayang",KALIMANTAN BARAT,79284.0,Indonesia,,,,1.1743884,109.5514255,https://maps.google.com/?cid=0x0:0xc131fbed3e2fa0b2,
mall,Gedung Apartemen,Pasar Rakyat Sungai Sapak,"5HG2+P66, Danti, Kec. Sanggau Ledo, Kabupaten Bengkayang, Kalimantan Barat 79284","Danti, Kec. Sanggau Ledo, Kabupaten Bengkayang",KALIMANTAN BARAT,79284.0,Indonesia,,,,1.1767956,109.5505011,https://maps.google.com/?cid=0x0:0x6e880890af3b0f9,
mall,Pusat Perbelanjaan,"Paulina Sanding, Pasar","5H6V+22J, Danti, Kec. Sanggau Ledo, Kabupaten Bengkayang, Kalimantan Barat 79284","Danti, Kec. Sanggau Ledo, Kabupaten Bengkayang",KALIMANTAN BARAT,79284.0,Indonesia, 082254327740,,,1.1600876,109.5925139,https://maps.google.com/?cid=0x0:0xef37e52db5ee95bd,
mall,Pusat Bisnis,Stokis nasa bengkayang,"Danti, Kec. Sanggau Ledo, Kabupaten Bengkayang, Kalimantan Barat 79284","Kec. Sanggau Ledo, Kabupaten Bengkayang",KALIMANTAN BARAT,79284.0,Indonesia, 082357535908,,,1.1699328,109.5791652,https://maps.google.com/?cid=0x0:0xd13ad8b68a4e3861,
mall,Toko Kosmetik,BOSS PARFUME,"Jl. Raya Sanggau Ledo No.124, Sahan, Kec. Seluas, Kabupaten Bengkayang, Kalimantan Barat 79285","Sahan, Kec. Seluas, Kabupaten Bengkayang",KALIMANTAN BARAT,79285.0,Indonesia, 081296864005,,,1.1454559,109.6970718,https://maps.google.com/?cid=0x0:0x19ec5a28dffd0542,
mall,Komplek perumahan,"Sanggau ledo, Bengkayang","Jl. Ktr. Camat No.17, Sahan, Kec. Seluas, Kabupaten Bengkayang, Kalimantan Barat 79285","Sahan, Kec. Seluas, Kabupaten Bengkayang",KALIMANTAN BARAT,79285.0,Indonesia,,,,1.114641,109.7201787,https://maps.google.com/?cid=0x0:0x35fa8e43596c9565,
mall,Salon Kecantikan,BODY SPA,"3M97+JHV, Sinar Tebudak, Kec. Tujuh Belas, Kabupaten Bengkayang, Kalimantan Barat 79251","Sinar Tebudak, Kec. Tujuh Belas, Kabupaten Bengkayang",KALIMANTAN BARAT,79251.0,Indonesia, 085822395778,,,1.06911,109.6639309,https://maps.google.com/?cid=0x0:0x7448f2e420ae38f0,
mall,Toko Elektronik,Mega Phone Celular,"jln nusa indah blok 2 d8 no 1 pontianak kota, Kalon, Kec. Seluas, Kabupaten Bengkayang, Kalimantan Barat 79285","Kalon, Kec. Seluas, Kabupaten Bengkayang",KALIMANTAN BARAT,79285.0,Indonesia, 081342327495,,,1.2043992,109.6156208,https://maps.google.com/?cid=0x0:0xecad0a8517aba864,
mall,Toserba,COUNTER SOPHIE NENA,"4MWX+P7Q, Jl. Raya Sanggau Ledo, Sahan, Kec. Seluas, Kabupaten Bengkayang, Kalimantan Barat 79285","Jl. Raya Sanggau Ledo, Sahan, Kec. Seluas, Kabupaten Bengkayang",KALIMANTAN BARAT,79285.0,Indonesia, 082352272222,,,1.1468377,109.6982201,https://maps.google.com/?cid=0x0:0x9f08ae1a612b890d,
mall,Kantor Pemerintahan Daerah,Kantor Kecamatan Sanggau Ledo,"4MRV+CR3, Sahan, Kec. Seluas, Kabupaten Bengkayang, Kalimantan Barat 79285","Sahan, Kec. Seluas, Kabupaten Bengkayang",KALIMANTAN BARAT,79285.0,Indonesia,,,,1.1410094,109.6945415,https://maps.google.com/?cid=0x0:0xbd87ccc006c96bd,
mall,Minimarket,Alfamart Sanggau Ledo,"4MPW+Q2H, Sahan, Kec. Seluas, Kabupaten Bengkayang, Kalimantan Barat 79285","Sahan, Kec. Seluas, Kabupaten Bengkayang",KALIMANTAN BARAT,79285.0,Indonesia,,,,1.1369326,109.6951208,https://maps.google.com/?cid=0x0:0x516f69d91e912ed0,
mall,Tujuan Wisata,Riam Jugan,"Riam Jugan, Ds. Jawa Desa Lembang, Kec. Sanggau Ledo, Kabupaten Bengkayang, Kalimantan Barat 79285","Ds. Jawa Desa Lembang, Kec. Sanggau Ledo, Kabupaten Bengkayang",KALIMANTAN BARAT,79285.0,Indonesia,,,,1.1367372,109.691153,https://maps.google.com/?cid=0x0:0x4a438bd73df3669,
mall,Pusat Perbelanjaan,Lala mart,"RFWW+G7J, Jl. Raya Sanggau Ledo, Bani Amas, Kec. Bengkayang, Kabupaten Bengkayang, Kalimantan Barat 79211","Jl. Raya Sanggau Ledo, Bani Amas, Kec. Bengkayang, Kabupaten Bengkayang",KALIMANTAN BARAT,79211.0,Indonesia,,,,0.8463421,109.4956476,https://maps.google.com/?cid=0x0:0xd0b5e78a4db26047,
mall,Perhimpunan Pengembang Perumahan,Shopp Sepandak,"5HH3+5WF jayanti shopp sepandak, Danti, Kec. Subah, Kabupaten Sambas, Kalimantan Barat 79284","Danti, Kec. Subah, Kabupaten Sambas",KALIMANTAN BARAT,79284.0,Indonesia, 082331476098,,,1.1779429,109.5548037,https://maps.google.com/?cid=0x0:0xb7a0c8ec871669df,
mall,Toko Swalayan,ASSA MART,"Sahan, Kec. Seluas, Kabupaten Bengkayang, Kalimantan Barat 79285","Kec. Seluas, Kabupaten Bengkayang",KALIMANTAN BARAT,79285.0,Indonesia, 082113272277,,,1.1513147,109.7009969,https://maps.google.com/?cid=0x0:0xc1a9eb04b72a71ff,
mall,Sekolah Menengah Kejuruan,SMKN 1 Sanggau Ledo,"Sahan, Kec. Seluas, Kabupaten Bengkayang, Kalimantan Barat 79285","Kec. Seluas, Kabupaten Bengkayang",KALIMANTAN BARAT,79285.0,Indonesia,,,,1.1260645,109.6964585,https://maps.google.com/?cid=0x0:0xd6b9a8497fcadffb,
mall,Pusat Kesehatan Masyarakat,Puskesmas Sanggau Ledo,"Jl. Sujadi No.39, Sahan, Kec. Sanggau Ledo, Kabupaten Bengkayang, Kalimantan Barat 79284","Sahan, Kec. Sanggau Ledo, Kabupaten Bengkayang",KALIMANTAN BARAT,79284.0,Indonesia,,,,1.1451087,109.6974507,https://maps.google.com/?cid=0x0:0x2591a072c262b080,
mall,Pom bensin/SPBU,Pasar Sanggau Ledo,"2JG3+PMR, Jl. Lintas Kalimantan Poros Utara, Dayung, Kec. Ledo, Kabupaten Bengkayang, Kalimantan Barat 79283","Jl. Lintas Kalimantan Poros Utara, Dayung, Kec. Ledo, Kabupaten Bengkayang",KALIMANTAN BARAT,79283.0,Indonesia,,,,1.0268606,109.6041289,https://maps.google.com/?cid=0x0:0x62cc4ae93e2dfc71,
mall,Toko,DARASAMPURNA MART,"Jl. Swasembada 2, Sempurna, Kec. Subah, Kabupaten Sambas, Kalimantan Barat 79462","Sempurna, Kec. Subah, Kabupaten Sambas",KALIMANTAN BARAT,79462.0,Indonesia, 08115774108,,,1.203273,109.563885,https://maps.google.com/?cid=0x0:0x5c1ad4c1eb182893,
mall,Komplek perumahan,Seluas,"7VM4+368, Jagoi, Kec. Jagoi Babang, Kabupaten Bengkayang, Kalimantan Barat 79286","Jagoi, Kec. Jagoi Babang, Kabupaten Bengkayang",KALIMANTAN BARAT,79286.0,Indonesia, 081254580729,,,1.2826506,109.8555642,https://maps.google.com/?cid=0x0:0x2b02562168930c59,
mall,Pusat Perbelanjaan,Kampung Seluas,"7VQ5+H88, Jl. Dwikora, Jagoi, Kec. Jagoi Babang, Kabupaten Bengkayang, Kalimantan Barat 79286","Jl. Dwikora, Jagoi, Kec. Jagoi Babang, Kabupaten Bengkayang",KALIMANTAN BARAT,79286.0,Indonesia,,,,1.2889132,109.8583198,https://maps.google.com/?cid=0x0:0x409821d883ed6c5b,
mall,Kafe,RUMAH SYAMSURI,"7VM4+M4F, Jagoi, Kec. Seluas, Kabupaten Bengkayang, Kalimantan Barat","Kabupaten Bengkayang, Kalimantan Barat",KALIMANTAN BARAT,,Indonesia,,,,1.2841938,109.8552913,https://maps.google.com/?cid=0x0:0x123003cc9cbe5317,
mall,Toko Kosmetik,BOSS PARFUME,"Jl. Raya Sanggau Ledo No.124, Sahan, Kec. Seluas, Kabupaten Bengkayang, Kalimantan Barat 79285","Sahan, Kec. Seluas, Kabupaten Bengkayang",KALIMANTAN BARAT,79285.0,Indonesia, 081296864005,,,1.1454559,109.6970718,https://maps.google.com/?cid=0x0:0x19ec5a28dffd0542,
mall,Toko,RUKO SUKMI,"Mayak, Kec. Seluas, Kabupaten Bengkayang, Kalimantan Barat 79285","Kec. Seluas, Kabupaten Bengkayang",KALIMANTAN BARAT,79285.0,Indonesia, 085750130029,,,1.2214417,109.7986083,https://maps.google.com/?cid=0x0:0x55b63f160967dfed,
mall,Toko Elektronik,Mega Phone Celular,"jln nusa indah blok 2 d8 no 1 pontianak kota, Kalon, Kec. Seluas, Kabupaten Bengkayang, Kalimantan Barat 79285","Kalon, Kec. Seluas, Kabupaten Bengkayang",KALIMANTAN BARAT,79285.0,Indonesia, 081342327495,,,1.2043992,109.6156208,https://maps.google.com/?cid=0x0:0xecad0a8517aba864,
mall,Salon Kecantikan,BODY SPA,"3M97+JHV, Sinar Tebudak, Kec. Tujuh Belas, Kabupaten Bengkayang, Kalimantan Barat 79251","Sinar Tebudak, Kec. Tujuh Belas, Kabupaten Bengkayang",KALIMANTAN BARAT,79251.0,Indonesia, 085822395778,,,1.06911,109.6639309,https://maps.google.com/?cid=0x0:0x7448f2e420ae38f0,
mall,Minimarket,Alfamart Sanggau Ledo,"4MPW+Q2H, Sahan, Kec. Seluas, Kabupaten Bengkayang, Kalimantan Barat 79285","Sahan, Kec. Seluas, Kabupaten Bengkayang",KALIMANTAN BARAT,79285.0,Indonesia,,,,1.1369326,109.6951208,https://maps.google.com/?cid=0x0:0x516f69d91e912ed0,
mall,Toko Pakaian,Nazua Fashion,"7RHX+XJJ, Jl. Dwikora, Jagoi, Kec. Jagoi Babang, Kabupaten Bengkayang, Kalimantan Barat 79286","Jl. Dwikora, Jagoi, Kec. Jagoi Babang, Kabupaten Bengkayang",KALIMANTAN BARAT,79286.0,Indonesia,,,,1.279968,109.8490204,https://maps.google.com/?cid=0x0:0x359a36f6e615ee01,
mall,Pusat Bisnis,Stokis nasa bengkayang,"Danti, Kec. Sanggau Ledo, Kabupaten Bengkayang, Kalimantan Barat 79284","Kec. Sanggau Ledo, Kabupaten Bengkayang",KALIMANTAN BARAT,79284.0,Indonesia, 082357535908,,,1.1699328,109.5791652,https://maps.google.com/?cid=0x0:0xd13ad8b68a4e3861,
mall,Perhimpunan Pengembang Perumahan,Dusun Sujah Dalam,"5Q58+XQF, Dusun Sujah Dalam, Sahan, Seluas, Bengkayang Regency, West Kalimantan 79285","Dusun Sujah Dalam, Sahan, Seluas, Bengkayang Regency",KALIMANTAN BARAT,79285.0,Indonesia,,,,1.1599379,109.7669125,https://maps.google.com/?cid=0x0:0xabcb8319df236891,
mall,Bengkel Ketok Magic,Bengkel Emt,"5HF2+QH3, Unnamed Road,, Danti, Kec. Sanggau Ledo, Kabupaten Bengkayang, Kalimantan Barat 79284","Unnamed Road,, Danti, Kec. Sanggau Ledo, Kabupaten Bengkayang",KALIMANTAN BARAT,79284.0,Indonesia,,,,1.1743884,109.5514255,https://maps.google.com/?cid=0x0:0xc131fbed3e2fa0b2,
mall,Toko bahan makanan,pereges,"7R3J+PV9, Jl. Dwikora, Bengkawan, Kec. Seluas, Kabupaten Bengkayang, Kalimantan Barat 79285","Jl. Dwikora, Bengkawan, Kec. Seluas, Kabupaten Bengkayang",KALIMANTAN BARAT,79285.0,Indonesia,,,,1.2542754,109.8322283,https://maps.google.com/?cid=0x0:0xc6466bdcadee21e6,
mall,Pusat Perbelanjaan,"Paulina Sanding, Pasar","5H6V+22J, Danti, Kec. Sanggau Ledo, Kabupaten Bengkayang, Kalimantan Barat 79284","Danti, Kec. Sanggau Ledo, Kabupaten Bengkayang",KALIMANTAN BARAT,79284.0,Indonesia, 082254327740,,,1.1600876,109.5925139,https://maps.google.com/?cid=0x0:0xef37e52db5ee95bd,
mall,Toko bahan makanan,warung sembilu,"3M5W+P6R, Pisak, Kec. Tujuh Belas, Kabupaten Bengkayang, Kalimantan Barat 79251","Pisak, Kec. Tujuh Belas, Kabupaten Bengkayang",KALIMANTAN BARAT,79251.0,Indonesia,,,,1.0593706,109.6955259,https://maps.google.com/?cid=0x0:0x6de3a0f9e121ad44,
mall,Toserba,COUNTER SOPHIE NENA,"4MWX+P7Q, Jl. Raya Sanggau Ledo, Sahan, Kec. Seluas, Kabupaten Bengkayang, Kalimantan Barat 79285","Jl. Raya Sanggau Ledo, Sahan, Kec. Seluas, Kabupaten Bengkayang",KALIMANTAN BARAT,79285.0,Indonesia, 082352272222,,,1.1468377,109.6982201,https://maps.google.com/?cid=0x0:0x9f08ae1a612b890d,
mall,mall,Siding,"Kec. Siding, Kabupaten Bengkayang, Kalimantan Barat","Kabupaten Bengkayang, Kalimantan Barat",KALIMANTAN BARAT,,Indonesia,,,,1.1931289,110.0211449,https://maps.google.com/?cid=0x0:0x50b42b7afdc25c1e,
mall,mall,Kec. Sungai Betung,"Kabupaten Bengkayang, Kalimantan Barat","Kabupaten Bengkayang, Kalimantan Barat",KALIMANTAN BARAT,,Indonesia,,,,0.8130969,109.3837942,https://maps.google.com/?cid=0x0:0x97395d47f40859ee,
mall,Komplek perumahan,Pasar Sungai Betung,"R96R+7GG, Jl. Raya Singkawang-Bengkayang, Suka Maju, Kec. Sungai Betung, Kabupaten Bengkayang, Kalimantan Barat 79211","Jl. Raya Singkawang-Bengkayang, Suka Maju, Kec. Sungai Betung, Kabupaten Bengkayang",KALIMANTAN BARAT,79211.0,Indonesia,,,,0.810678,109.391322,https://maps.google.com/?cid=0x0:0x9ec15a685505898d,
mall,Toko Elektronik,OLA Celluler,"R96Q+4F2, Suka Maju, Kec. Sungai Betung, Kabupaten Bengkayang, Kalimantan Barat 79211","Suka Maju, Kec. Sungai Betung, Kabupaten Bengkayang",KALIMANTAN BARAT,79211.0,Indonesia,,,,0.8102512,109.3886261,https://maps.google.com/?cid=0x0:0x36b80c0818b8e5a1,
mall,mall,Kec. Sungai Raya,"Kabupaten Kubu Raya, Kalimantan Barat","Kabupaten Kubu Raya, Kalimantan Barat",KALIMANTAN BARAT,,Indonesia,,,,-0.2467982,109.6163185,https://maps.google.com/?cid=0x0:0xe158016f2a1f6a32,
mall,Pusat Hiburan Anak-Anak,Transmart,"Jl. Jenderal Jl. Ahmad Yani II No.2, Raya River, Kubu Raya Regency, West Kalimantan 78391","Raya River, Kubu Raya Regency",KALIMANTAN BARAT,78391.0,Indonesia, 082251770588,,,-0.0774266,109.3675239,https://maps.google.com/?cid=0x0:0x8199e266e317dde4,
mall,Taman,Gaia Bumi Raya City,"Jl. Arteri Supadio, Sungai Raya, Kec. Sungai Raya, Kabupaten Kubu Raya, Kalimantan Barat 78121","Sungai Raya, Kec. Sungai Raya, Kabupaten Kubu Raya",KALIMANTAN BARAT,78121.0,Indonesia,,,,-0.0765567,109.3692979,https://maps.google.com/?cid=0x0:0x984911f6fd373a1b,
mall,Toko,Sungai Raya,"W92X+XG8, Sungai Raya, Kec. Sungai Raya, Kabupaten Kubu Raya, Kalimantan Barat 78233","Sungai Raya, Kec. Sungai Raya, Kabupaten Kubu Raya",KALIMANTAN BARAT,78233.0,Indonesia,,,,-0.097597,109.3988205,https://maps.google.com/?cid=0x0:0x4ff7defd155db80c,
mall,Toko Suvenir,Belia Toko Oleh-Oleh,"W96C+R23, Sungai Raya, Kec. Sungai Raya, Kabupaten Kubu Raya, Kalimantan Barat 78121","Sungai Raya, Kec. Sungai Raya, Kabupaten Kubu Raya",KALIMANTAN BARAT,78121.0,Indonesia, 082251070991,,,-0.0879977,109.3700607,https://maps.google.com/?cid=0x0:0x8b3b22c4773fa538,
mall,Pusat Perbelanjaan,DB_Snack,"V9RW+VF3, Gg. Lanjut, Sungai Raya, Kec. Sungai Raya, Kabupaten Kubu Raya, Kalimantan Barat","Kabupaten Kubu Raya, Kalimantan Barat",KALIMANTAN BARAT,,Indonesia, 083159363102,,,-0.1078556,109.3961849,https://maps.google.com/?cid=0x0:0xa6b14a5cce0b00c9,
mall,Mal outlet,Pontianak Mall,"X89P+C7H, Jl. Teuku Umar, Darat Sekip, Kec. Pontianak Kota, Kota Pontianak, Kalimantan Barat 78243","Jl. Teuku Umar, Darat Sekip, Kec. Pontianak Kota, Kota Pontianak",KALIMANTAN BARAT,78243.0,Indonesia,,,,-0.0314263,109.3357298,https://maps.google.com/?cid=0x0:0x3786f44dd7e8543,
mall,Minimarket,Toko Nashita,"RCX7+PWX, Limbung, Kec. Sungai Raya, Kabupaten Kubu Raya, Kalimantan Barat 78391","Limbung, Kec. Sungai Raya, Kabupaten Kubu Raya",KALIMANTAN BARAT,78391.0,Indonesia,,,,-0.1506374,109.4148575,https://maps.google.com/?cid=0x0:0x15350d79b9b26e30,
mall,Toko Pakaian Olahraga,Adidas GAIA Mall,"W9C9+W9M, Sungai Raya, Kec. Sungai Raya, Kabupaten Kubu Raya, Kalimantan Barat 78121","Sungai Raya, Kec. Sungai Raya, Kabupaten Kubu Raya",KALIMANTAN BARAT,78121.0,Indonesia,,,,-0.0776603,109.3684127,https://maps.google.com/?cid=0x0:0x226eb8a32b45f3a5,
mall,Toko umum,Toko Agus,"depan komplek INTAN PERMATA Desa mekar baru parit pak Reweng, Kapur, Kec. Sungai Raya, Kabupaten Kubu Raya, Kalimantan Barat 78137","Kapur, Kec. Sungai Raya, Kabupaten Kubu Raya",KALIMANTAN BARAT,78137.0,Indonesia,,,,-0.0736336,109.4021969,https://maps.google.com/?cid=0x0:0xd3319202c4f05257,
mall,Pusat Perbelanjaan,ANI pepso,"W927+F67, Jl. Parit H. Muksin II, Sungai Raya, Kec. Sungai Raya, Kabupaten Kubu Raya, Kalimantan Barat","Kabupaten Kubu Raya, Kalimantan Barat",KALIMANTAN BARAT,,Indonesia, 085389610680,,,-0.0988433,109.3630438,https://maps.google.com/?cid=0x0:0x4f241b1ed25b6068,
mall,Pusat Perbelanjaan,Taman Gaia Bumi Raya City Mall,"W9F9+G59, Sungai Raya, Kec. Sungai Raya, Kabupaten Kubu Raya, Kalimantan Barat","Kabupaten Kubu Raya, Kalimantan Barat",KALIMANTAN BARAT,,Indonesia,,,,-0.077111,109.368337,https://maps.google.com/?cid=0x0:0xf2c92c810e376372,
mall,Toko,Xing shop,"Jl. Raya Desa Kapur, Kapur, Kec. Sungai Raya, Kabupaten Kubu Raya, Kalimantan Barat 78391","Kapur, Kec. Sungai Raya, Kabupaten Kubu Raya",KALIMANTAN BARAT,78391.0,Indonesia,,,,-0.0842435,109.4050182,https://maps.google.com/?cid=0x0:0x1972232c11c91cd1,
mall,Pusat Perbelanjaan,Pawaris Shop,"Kapur, Kec. Sungai Raya, Kabupaten Kubu Raya, Kalimantan Barat","Kabupaten Kubu Raya, Kalimantan Barat",KALIMANTAN BARAT,,Indonesia, 088242520852,,,-0.0720211,109.4076334,https://maps.google.com/?cid=0x0:0xdebbb59643157388,
mall,Pusat Perbelanjaan,LIPPO MALL SUNGAIKAKAP,"Jl. Raya Sungai Kakap No.175, Pal IX, Kec. Sungai Kakap, Kabupaten Kubu Raya, Kalimantan Barat 78114","Pal IX, Kec. Sungai Kakap, Kabupaten Kubu Raya",KALIMANTAN BARAT,78114.0,Indonesia, 05615150222,,,-0.0508057,109.2730353,https://maps.google.com/?cid=0x0:0xe02c65506cc4bc42,
mall,Toko,TOKO LOLYPOP,"W9MM+MJF, Jl. Raya Desa Kapur, Kapur, Kec. Sungai Raya, Kabupaten Kubu Raya, Kalimantan Barat 78235","Jl. Raya Desa Kapur, Kapur, Kec. Sungai Raya, Kabupaten Kubu Raya",KALIMANTAN BARAT,78235.0,Indonesia,,,,-0.0658078,109.3840569,https://maps.google.com/?cid=0x0:0x1eccad5b2735eaf1,
mall,mall,Meisya,"W993+4C9, Jl. Sungai Raya Dalam II, Sungai Raya, Kec. Sungai Raya, Kabupaten Kubu Raya, Kalimantan Barat","Kabupaten Kubu Raya, Kalimantan Barat",KALIMANTAN BARAT,,Indonesia,,,,-0.0822117,109.3536185,https://maps.google.com/?cid=0x0:0xcb7615f0b5617c33,
mall,Pusat Bisnis,Aeon Mall Pontianak,"W9F7+9X9, Sungai Raya, Kec. Sungai Raya, Kabupaten Kubu Raya, Kalimantan Barat","Kabupaten Kubu Raya, Kalimantan Barat",KALIMANTAN BARAT,,Indonesia,,,,-0.0765871,109.3649717,https://maps.google.com/?cid=0x0:0x7aae6de213337768,
mall,Toko Swalayan,CSA Studio Pontianak,"Jl. Adi Sucipto No.12, Sungai Raya, Kec. Sungai Raya, Kabupaten Kubu Raya, Kalimantan Barat 78233","Sungai Raya, Kec. Sungai Raya, Kabupaten Kubu Raya",KALIMANTAN BARAT,78233.0,Indonesia, 0561780472,,,-0.0990715,109.4017328,https://maps.google.com/?cid=0x0:0x847c83580e05efae,
mall,Pusat Perbelanjaan,Voilabeauty new,"W955+2W7, Unnamed Road, Sungai Raya, Kec. Sungai Raya, Kabupaten Kubu Raya, Kalimantan Barat 78121","Unnamed Road, Sungai Raya, Kec. Sungai Raya, Kabupaten Kubu Raya",KALIMANTAN BARAT,78121.0,Indonesia,,,,-0.0924564,109.3598045,https://maps.google.com/?cid=0x0:0x4051b0412ae06801,
mall,Pusat Perbelanjaan,Toko099,"MF95+6J, Sungai Bulan, Kec. Sungai Raya, Kabupaten Kubu Raya, Kalimantan Barat","Kabupaten Kubu Raya, Kalimantan Barat",KALIMANTAN BARAT,,Indonesia,,,,-0.3319375,109.4590625,https://maps.google.com/?cid=0x0:0xf6b5f99651cbd220,
mall,Toko,YOUNG LIVING PONTIANAK DAN KUBURAYA ( ZOILS BY MAMIGOS ),"Jl. Arteri Supadio Komplek Angkasa Permai No.B11, Arang Limbung, Kec. Sungai Raya, Kabupaten Kubu Raya, Kalimantan Barat 78391","Arang Limbung, Kec. Sungai Raya, Kabupaten Kubu Raya",KALIMANTAN BARAT,78391.0,Indonesia, 0895701780569,,,-0.1311115,109.4075256,https://maps.google.com/?cid=0x0:0x7c9814faa6f1c058,
mall,Pusat Perbelanjaan,Uniqlo Gaia Bumi Raya City,"Sungai Raya, Kec. Sungai Raya, Kabupaten Kubu Raya, Kalimantan Barat","Kabupaten Kubu Raya, Kalimantan Barat",KALIMANTAN BARAT,,Indonesia, 05616735005,,,-0.0765374,109.3688149,https://maps.google.com/?cid=0x0:0x1cc458390d6af393,
mall,Pusat Perbelanjaan,Indosegarasa,"V8XQ+2V7, Jl. Sungai Raya Dalam, Punggur Kecil, Kec. Sungai Kakap, Kabupaten Kubu Raya, Kalimantan Barat 78116","Jl. Sungai Raya Dalam, Punggur Kecil, Kec. Sungai Kakap, Kabupaten Kubu Raya",KALIMANTAN BARAT,78116.0,Indonesia,,,,-0.1024516,109.3396698,https://maps.google.com/?cid=0x0:0xf838af8448fd8a20,
mall,Toko Pakaian,AllOnline Shop,"Aldy Mutiara Residence 2. B35, Kabupaten Kubu Raya, Kalimantan Barat 78234",Kabupaten Kubu Raya,KALIMANTAN BARAT,78234.0,Indonesia,,,,-0.0716214,109.3972435,https://maps.google.com/?cid=0x0:0xe868b74b6d745558,
mall,Pusat Perbelanjaan,HOOZLER BAG GERAI 010,"W93J+75X, Sungai Raya, Kec. Sungai Raya, Kabupaten Kubu Raya, Kalimantan Barat 78391","Sungai Raya, Kec. Sungai Raya, Kabupaten Kubu Raya",KALIMANTAN BARAT,78391.0,Indonesia,,,,-0.0967686,109.3804898,https://maps.google.com/?cid=0x0:0xa685feb610b2c0f,
mall,Pusat Perbelanjaan,alf.homestore,"Jl. Adi Sucipto No.5, Sungai Raya, Kec. Sungai Raya, Kabupaten Kubu Raya, Kalimantan Barat 78117","Sungai Raya, Kec. Sungai Raya, Kabupaten Kubu Raya",KALIMANTAN BARAT,78117.0,Indonesia, 083140996827,,,-0.079216,109.3846517,https://maps.google.com/?cid=0x0:0xcbecb0be0eddcc86,
mall,Toko Swalayan,Allofresh Pontianak,"Jl. Ahmad Yani II, Sungai Raya, Kec. Sungai Raya, Kabupaten Kubu Raya, Kalimantan Barat","Kabupaten Kubu Raya, Kalimantan Barat",KALIMANTAN BARAT,,Indonesia,,,,-0.0774032,109.3674514,https://maps.google.com/?cid=0x0:0xfcacde72da1b34e3,
mall,Toko,World Case,"RCX6+HWP, Jl. KH. Abdurahman Wahid, Limbung, Kec. Sungai Raya, Kabupaten Kubu Raya, Kalimantan Barat 78391","Jl. KH. Abdurahman Wahid, Limbung, Kec. Sungai Raya, Kabupaten Kubu Raya",KALIMANTAN BARAT,78391.0,Indonesia, 0895355129534,,,-0.1510278,109.4123217,https://maps.google.com/?cid=0x0:0xf793db696b586d73,
mall,Pusat Bisnis,Aeon Mall Pontianak,"W9F7+9X9, Sungai Raya, Kec. Sungai Raya, Kabupaten Kubu Raya, Kalimantan Barat","Kabupaten Kubu Raya, Kalimantan Barat",KALIMANTAN BARAT,,Indonesia,,,,-0.0765871,109.3649717,https://maps.google.com/?cid=0x0:0x7aae6de213337768,
mall,Pusat Hiburan Anak-Anak,Transmart,"Jl. Jenderal Jl. Ahmad Yani II No.2, Raya River, Kubu Raya Regency, West Kalimantan 78391","Raya River, Kubu Raya Regency",KALIMANTAN BARAT,78391.0,Indonesia, 082251770588,,,-0.0774266,109.3675239,https://maps.google.com/?cid=0x0:0x8199e266e317dde4,
mall,mall,Kec. Sungai Raya,"Kabupaten Kubu Raya, Kalimantan Barat","Kabupaten Kubu Raya, Kalimantan Barat",KALIMANTAN BARAT,,Indonesia,,,,-0.2467982,109.6163185,https://maps.google.com/?cid=0x0:0xe158016f2a1f6a32,
mall,Toko,Sungai Raya,"W92X+XG8, Sungai Raya, Kec. Sungai Raya, Kabupaten Kubu Raya, Kalimantan Barat 78233","Sungai Raya, Kec. Sungai Raya, Kabupaten Kubu Raya",KALIMANTAN BARAT,78233.0,Indonesia,,,,-0.097597,109.3988205,https://maps.google.com/?cid=0x0:0x4ff7defd155db80c,
mall,Mal outlet,Ayani Megamall,"Jl. Jenderal Ahmad Yani No.4, Parit Tokaya, Kec. Pontianak Sel., Kota Pontianak, Kalimantan Barat 78113","Parit Tokaya, Kec. Pontianak Sel., Kota Pontianak",KALIMANTAN BARAT,78113.0,Indonesia, 0561763888,,,-0.051244,109.345662,https://maps.google.com/?cid=0x0:0x5217d4caea80b3d0,
mall,Pusat Perbelanjaan,Toko099,"MF95+6J, Sungai Bulan, Kec. Sungai Raya, Kabupaten Kubu Raya, Kalimantan Barat","Kabupaten Kubu Raya, Kalimantan Barat",KALIMANTAN BARAT,,Indonesia,,,,-0.3319375,109.4590625,https://maps.google.com/?cid=0x0:0xf6b5f99651cbd220,
mall,Toko Swalayan,CSA Studio Pontianak,"Jl. Adi Sucipto No.12, Sungai Raya, Kec. Sungai Raya, Kabupaten Kubu Raya, Kalimantan Barat 78233","Sungai Raya, Kec. Sungai Raya, Kabupaten Kubu Raya",KALIMANTAN BARAT,78233.0,Indonesia, 0561780472,,,-0.0990715,109.4017328,https://maps.google.com/?cid=0x0:0x847c83580e05efae,
mall,Pusat Perbelanjaan,Toko Surry,"Sungai Raya, Kec. Sungai Raya, Kabupaten Kubu Raya, Kalimantan Barat 78233","Kec. Sungai Raya, Kabupaten Kubu Raya",KALIMANTAN BARAT,78233.0,Indonesia,,,,-0.0896263,109.3923863,https://maps.google.com/?cid=0x0:0x5fe37b391208397c,
mall,Pusat Perbelanjaan,Sinar Cell,"W9GW+649, Kapur, Kec. Sungai Raya, Kabupaten Kubu Raya, Kalimantan Barat 78132","Kapur, Kec. Sungai Raya, Kabupaten Kubu Raya",KALIMANTAN BARAT,78132.0,Indonesia,,,,-0.0744581,109.3953575,https://maps.google.com/?cid=0x0:0x1279ee2fbce92092,
mall,Kedai Kopi,Sudarso Gemstone,"W9P7+RXC, Jl. Sungai Raya Dalam, Dalam, Kec. Sungai Raya, Kabupaten Kubu Raya, Kalimantan Barat 78117","Jl. Sungai Raya Dalam, Dalam, Kec. Sungai Raya, Kabupaten Kubu Raya",KALIMANTAN BARAT,78117.0,Indonesia,,,,-0.0629377,109.3648799,https://maps.google.com/?cid=0x0:0x6bdb385e6ea76f5d,
mall,Toko Pakaian,AllOnline Shop,"Aldy Mutiara Residence 2. B35, Kabupaten Kubu Raya, Kalimantan Barat 78234",Kabupaten Kubu Raya,KALIMANTAN BARAT,78234.0,Indonesia,,,,-0.0716214,109.3972435,https://maps.google.com/?cid=0x0:0xe868b74b6d745558,
mall,Pusat Perbelanjaan,ELGINDA.ID,"RCWH+28J, Jalan Desa, Kuala Dua, Kec. Sungai Raya, Kabupaten Kubu Raya, Kalimantan Barat","Kabupaten Kubu Raya, Kalimantan Barat",KALIMANTAN BARAT,,Indonesia,,,,-0.1546543,109.4283849,https://maps.google.com/?cid=0x0:0x3701557a1022ce55,
mall,Toko,YOUNG LIVING PONTIANAK DAN KUBURAYA ( ZOILS BY MAMIGOS ),"Jl. Arteri Supadio Komplek Angkasa Permai No.B11, Arang Limbung, Kec. Sungai Raya, Kabupaten Kubu Raya, Kalimantan Barat 78391","Arang Limbung, Kec. Sungai Raya, Kabupaten Kubu Raya",KALIMANTAN BARAT,78391.0,Indonesia, 0895701780569,,,-0.1311115,109.4075256,https://maps.google.com/?cid=0x0:0x7c9814faa6f1c058,
mall,Pusat Perbelanjaan,DB_Snack,"V9RW+VF3, Gg. Lanjut, Sungai Raya, Kec. Sungai Raya, Kabupaten Kubu Raya, Kalimantan Barat","Kabupaten Kubu Raya, Kalimantan Barat",KALIMANTAN BARAT,,Indonesia, 083159363102,,,-0.1078556,109.3961849,https://maps.google.com/?cid=0x0:0xa6b14a5cce0b00c9,
mall,Pusat Perbelanjaan,alf.homestore,"Jl. Adi Sucipto No.5, Sungai Raya, Kec. Sungai Raya, Kabupaten Kubu Raya, Kalimantan Barat 78117","Sungai Raya, Kec. Sungai Raya, Kabupaten Kubu Raya",KALIMANTAN BARAT,78117.0,Indonesia, 083140996827,,,-0.079216,109.3846517,https://maps.google.com/?cid=0x0:0xcbecb0be0eddcc86,
mall,Pusat Perbelanjaan,HOOZLER BAG GERAI 010,"W93J+75X, Sungai Raya, Kec. Sungai Raya, Kabupaten Kubu Raya, Kalimantan Barat 78391","Sungai Raya, Kec. Sungai Raya, Kabupaten Kubu Raya",KALIMANTAN BARAT,78391.0,Indonesia,,,,-0.0967686,109.3804898,https://maps.google.com/?cid=0x0:0xa685feb610b2c0f,
mall,Toko,Toko INDOTAMA,"Jl.Adisucipto KM.10,2 No.B3, Sungai Raya, Kec. Sungai Raya, Kabupaten Kubu Raya, Kalimantan Barat 78233","Sungai Raya, Kec. Sungai Raya, Kabupaten Kubu Raya",KALIMANTAN BARAT,78233.0,Indonesia, 081352285119,,,-0.095152,109.3951794,https://maps.google.com/?cid=0x0:0x57f1dd2e6f2e18c1,
mall,Pusat Perbelanjaan,Watch Club Gaia Mall,"W9C9+P3Q, Jl. Arteri Supadio, Sungai Raya, Kec. Sungai Raya, Kabupaten Kubu Raya, Kalimantan Barat","Kabupaten Kubu Raya, Kalimantan Barat",KALIMANTAN BARAT,,Indonesia,,,,-0.0781525,109.3677371,https://maps.google.com/?cid=0x0:0x7cb9f8e4a9d61c27,
mall,Toko Makanan,SELLMA (Home Of Cake and Snack),"Komp. Kota Raya Blok DC No.33, Kapur, Kec. Sungai Raya, Kabupaten Kubu Raya, Kalimantan Barat 78137","Kapur, Kec. Sungai Raya, Kabupaten Kubu Raya",KALIMANTAN BARAT,78137.0,Indonesia, 08991819888,,,-0.067683,109.4031545,https://maps.google.com/?cid=0x0:0x9ca3d95e2d012725,
mall,Pusat Perbelanjaan,Indosegarasa,"V8XQ+2V7, Jl. Sungai Raya Dalam, Punggur Kecil, Kec. Sungai Kakap, Kabupaten Kubu Raya, Kalimantan Barat 78116","Jl. Sungai Raya Dalam, Punggur Kecil, Kec. Sungai Kakap, Kabupaten Kubu Raya",KALIMANTAN BARAT,78116.0,Indonesia,,,,-0.1024516,109.3396698,https://maps.google.com/?cid=0x0:0xf838af8448fd8a20,
mall,Toko Swalayan,Allofresh Pontianak,"Jl. Ahmad Yani II, Sungai Raya, Kec. Sungai Raya, Kabupaten Kubu Raya, Kalimantan Barat","Kabupaten Kubu Raya, Kalimantan Barat",KALIMANTAN BARAT,,Indonesia,,,,-0.0774032,109.3674514,https://maps.google.com/?cid=0x0:0xfcacde72da1b34e3,
mall,Toserba,Toko firlia /Tj,"Sungai Radak Dua, Kec. Terentang, Kabupaten Kubu Raya, Kalimantan Barat","Kabupaten Kubu Raya, Kalimantan Barat",KALIMANTAN BARAT,,Indonesia,,,,-0.4150673,109.6758346,https://maps.google.com/?cid=0x0:0x290f92eabc61e1a5,
mall,Toko,Merry,"Jl. Raya Desa Kapur, komp kapur mas-intan permata residen no 7b, Kapur, Kec. Sungai Raya, Kabupaten Kubu Raya, Kalimantan Barat 78137","komp kapur mas-intan permata residen no 7b, Kapur, Kec. Sungai Raya, Kabupaten Kubu Raya",KALIMANTAN BARAT,78137.0,Indonesia, 085754675649,,,-0.0732356,109.4027976,https://maps.google.com/?cid=0x0:0xc09483644ced7889,
mall,Toko Pakaian,Rose olshop,"Gg. Sakura 1, Kapur, Kec. Sungai Raya, Kabupaten Kubu Raya, Kalimantan Barat 78132","Kapur, Kec. Sungai Raya, Kabupaten Kubu Raya",KALIMANTAN BARAT,78132.0,Indonesia, 08553881395,,,-0.0924674,109.41109,https://maps.google.com/?cid=0x0:0x2132ad235790b191,
mall,Pusat Perbelanjaan,FERA OLSHOP,"RC4R+8MQ, Unnamed Road, Kuala Dua, Kec. Sungai Raya, Kabupaten Kubu Raya, Kalimantan Barat 78391","Unnamed Road, Kuala Dua, Kec. Sungai Raya, Kabupaten Kubu Raya",KALIMANTAN BARAT,78391.0,Indonesia,,,,-0.1941547,109.4417346,https://maps.google.com/?cid=0x0:0xbf6f1d5a9142c321,
mall,Pusat Perbelanjaan,Loby transmart,"V9XM+Q8H, Jl. Ahmad Yani II, Sungai Raya, Kec. Sungai Raya, Kabupaten Kubu Raya, Kalimantan Barat","Kabupaten Kubu Raya, Kalimantan Barat",KALIMANTAN BARAT,,Indonesia,,,,-0.1005613,109.3833509,https://maps.google.com/?cid=0x0:0xd888dfe334fbf5a7,
mall,Layanan Transportasi,Penyebrangan madani ke (sungai jelawat) zakia fc.,"QGH3+9J7, Mekar Sari, Kec. Sungai Raya, Kabupaten Kubu Raya, Kalimantan Barat 78391","Mekar Sari, Kec. Sungai Raya, Kabupaten Kubu Raya",KALIMANTAN BARAT,78391.0,Indonesia,,,,-0.2215989,109.5040574,https://maps.google.com/?cid=0x0:0x5ab8d9a8ad4b770d,
mall,Toko Kosmetik,Wardah cosmetics,"Jl. Adi Sucipto No.1 RT.003, Sungai Raya, Kec. Sungai Raya, Kabupaten Kubu Raya, Kalimantan Barat 78233","Sungai Raya, Kec. Sungai Raya, Kabupaten Kubu Raya",KALIMANTAN BARAT,78233.0,Indonesia,,,,-0.100282,109.405349,https://maps.google.com/?cid=0x0:0x34fef704ba678b7e,
mall,mall,Kalimantan Barat 79271,"Kabupaten Bengkayang, Kalimantan Barat","Kabupaten Bengkayang, Kalimantan Barat",KALIMANTAN BARAT,,Indonesia,,,,0.6943816,108.9739954,https://maps.google.com/?cid=0x0:0xac07332b4eaf8f75,
mall,Pusat Hiburan Anak-Anak,Transmart,"Jl. Jenderal Jl. Ahmad Yani II No.2, Raya River, Kubu Raya Regency, West Kalimantan 78391","Raya River, Kubu Raya Regency",KALIMANTAN BARAT,78391.0,Indonesia, 082251770588,,,-0.0774266,109.3675239,https://maps.google.com/?cid=0x0:0x8199e266e317dde4,
mall,Taman,Gaia Bumi Raya City,"Jl. Arteri Supadio, Sungai Raya, Kec. Sungai Raya, Kabupaten Kubu Raya, Kalimantan Barat 78121","Sungai Raya, Kec. Sungai Raya, Kabupaten Kubu Raya",KALIMANTAN BARAT,78121.0,Indonesia,,,,-0.0765567,109.3692979,https://maps.google.com/?cid=0x0:0x984911f6fd373a1b,
mall,Toko,TOKO PATRI,"HW8J+93C, Sungai Duri, Kec. Sungai Raya, Kabupaten Bengkayang, Kalimantan Barat 79271","Sungai Duri, Kec. Sungai Raya, Kabupaten Bengkayang",KALIMANTAN BARAT,79271.0,Indonesia,,,,0.5659295,108.9301448,https://maps.google.com/?cid=0x0:0x4f43df75a532b46e,
mall,Pusat Perbelanjaan,Suci Alshop,"JW8M+GMG, Sungai Pangkalan I, Kec. Sungai Raya, Kabupaten Bengkayang, Kalimantan Barat 79271","Sungai Pangkalan I, Kec. Sungai Raya, Kabupaten Bengkayang",KALIMANTAN BARAT,79271.0,Indonesia,,,,0.6163014,108.9342164,https://maps.google.com/?cid=0x0:0x6e41c7f03527e8f7,
mall,Toko Pakaian,"Modist Toserba 35,000","Sungai Duri, Kec. Sungai Raya, Kabupaten Bengkayang, Kalimantan Barat","Kabupaten Bengkayang, Kalimantan Barat",KALIMANTAN BARAT,,Indonesia, 082358788225,,,0.5775484,108.9292853,https://maps.google.com/?cid=0x0:0x43168278bebe3897,
mall,Toko Swalayan,TOKO LUCY,"HW6H+7HW, Sungai Duri, Kec. Sungai Raya, Kabupaten Bengkayang, Kalimantan Barat 79271","Sungai Duri, Kec. Sungai Raya, Kabupaten Bengkayang",KALIMANTAN BARAT,79271.0,Indonesia, 081311439810,,,0.5607236,108.9290866,https://maps.google.com/?cid=0x0:0x4917f78e7a0a5c1f,
mall,Pusat Perbelanjaan,Alshop Qu,"PWJ2+2QP, Sungai Raya, Sungai Raya Kepulauan, Kabupaten Bengkayang, Kalimantan Barat","Kabupaten Bengkayang, Kalimantan Barat",KALIMANTAN BARAT,,Indonesia,,,,0.7300863,108.9019478,https://maps.google.com/?cid=0x0:0x69ca24cddee64870,
mall,Toko Elektronik,MONITOR SELINDO,"jln wiraguna no43 dpn pasar ikan, Sungai Duri, Kec. Sungai Raya, Kabupaten Bengkayang, Kalimantan Barat 79271","Sungai Duri, Kec. Sungai Raya, Kabupaten Bengkayang",KALIMANTAN BARAT,79271.0,Indonesia, 085751700000,,,0.5591583,108.9278153,https://maps.google.com/?cid=0x0:0x8871a260ef26d6ed,
mall,Toko Perlengkapan Rumah,Mila Tuppaware,"MWF9+9V8, Jl. Sei Duri - Singkawang, Rukma Jaya, Sungai Raya Kepulauan, Kabupaten Bengkayang, Kalimantan Barat 79271","Jl. Sei Duri - Singkawang, Rukma Jaya, Sungai Raya Kepulauan, Kabupaten Bengkayang",KALIMANTAN BARAT,79271.0,Indonesia, 082148381901,,,0.6734212,108.919688,https://maps.google.com/?cid=0x0:0x196f98563bbdd0da,
mall,Restoran,Clara Kantin,"Rukma Jaya, Sungai Raya Kepulauan, Kabupaten Bengkayang, Kalimantan Barat 79271","Sungai Raya Kepulauan, Kabupaten Bengkayang",KALIMANTAN BARAT,79271.0,Indonesia,,,,0.7119552,109.0163035,https://maps.google.com/?cid=0x0:0x2621981027c82329,
mall,Toko,Toko top 10,"MWP6+5Q, Sungai Keran, Sungai Raya Kepulauan, Kabupaten Bengkayang, Kalimantan Barat 79271","Sungai Keran, Sungai Raya Kepulauan, Kabupaten Bengkayang",KALIMANTAN BARAT,79271.0,Indonesia,,,,0.6854684,108.9119259,https://maps.google.com/?cid=0x0:0xe3bed0c8bd1a93d4,
mall,Pusat Perbelanjaan,Toko Mutiara,"HXX2+99J, Sungai Jaga A, Kec. Sungai Raya, Kabupaten Bengkayang, Kalimantan Barat 79271","Sungai Jaga A, Kec. Sungai Raya, Kabupaten Bengkayang",KALIMANTAN BARAT,79271.0,Indonesia,,,,0.5984687,108.9508953,https://maps.google.com/?cid=0x0:0x3446a8a07126d3cd,
mall,Pusat Perbelanjaan,Stokis Hni Hpai Makcik,"RVHF+J9R, Karimunting, Sungai Raya Kepulauan, Kabupaten Bengkayang, Kalimantan Barat 79271","Karimunting, Sungai Raya Kepulauan, Kabupaten Bengkayang",KALIMANTAN BARAT,79271.0,Indonesia,,,,0.8291227,108.8733933,https://maps.google.com/?cid=0x0:0x36960d295df2b708,
mall,Mal outlet,Ayani Megamall,"Jl. Jenderal Ahmad Yani No.4, Parit Tokaya, Kec. Pontianak Sel., Kota Pontianak, Kalimantan Barat 78113","Parit Tokaya, Kec. Pontianak Sel., Kota Pontianak",KALIMANTAN BARAT,78113.0,Indonesia, 0561763888,,,-0.051244,109.345662,https://maps.google.com/?cid=0x0:0x5217d4caea80b3d0,
mall,Pusat Perbelanjaan,TOKO YUNUS,"HXQ4+M27, Jl. Timur 2, Sungai Jaga A, Kec. Sungai Raya, Kabupaten Bengkayang, Kalimantan Barat 79271","Jl. Timur 2, Sungai Jaga A, Kec. Sungai Raya, Kabupaten Bengkayang",KALIMANTAN BARAT,79271.0,Indonesia,,,,0.589163,108.9550376,https://maps.google.com/?cid=0x0:0x20f883fa16a822cc,
mall,Pusat Perbelanjaan,Stockist HNI HPAI-SUMI,"PW22+4JR, Sungai Keran, Sungai Raya Kepulauan, Kabupaten Bengkayang, Kalimantan Barat 79271","Sungai Keran, Sungai Raya Kepulauan, Kabupaten Bengkayang",KALIMANTAN BARAT,79271.0,Indonesia,,,,0.7003563,108.9015287,https://maps.google.com/?cid=0x0:0x5522b362075e6b48,
mall,Toko Ponsel,JEJE PONSEL PANGSUMA,"HWCH+8CF, Sungai Duri, Kec. Sungai Raya, Kabupaten Bengkayang, Kalimantan Barat 79271","Sungai Duri, Kec. Sungai Raya, Kabupaten Bengkayang",KALIMANTAN BARAT,79271.0,Indonesia, 082351540541,,,0.570814,108.928549,https://maps.google.com/?cid=0x0:0x6bf09e589beb4209,
mall,Taman,Sungai duri/somban,"HW6J+M7C, Jl. Sumbawa, Sungai Duri, Kec. Sungai Raya, Kabupaten Bengkayang, Kalimantan Barat 79271","Jl. Sumbawa, Sungai Duri, Kec. Sungai Raya, Kabupaten Bengkayang",KALIMANTAN BARAT,79271.0,Indonesia,,,,0.5675254,108.9496921,https://maps.google.com/?cid=0x0:0xc424ee5894d8cdda,
mall,Pusat Perbelanjaan,Suci Allshop,"Jl. Ahmad Yani No.29, Sungai Duri, Kec. Sungai Raya, Kabupaten Bengkayang, Kalimantan Barat 79271","Sungai Duri, Kec. Sungai Raya, Kabupaten Bengkayang",KALIMANTAN BARAT,79271.0,Indonesia,,,,0.5647746,108.9293844,https://maps.google.com/?cid=0x0:0x3be5017cda2a2395,
mall,Pusat Bisnis,Aeon Mall Pontianak,"W9F7+9X9, Sungai Raya, Kec. Sungai Raya, Kabupaten Kubu Raya, Kalimantan Barat","Kabupaten Kubu Raya, Kalimantan Barat",KALIMANTAN BARAT,,Indonesia,,,,-0.0765871,109.3649717,https://maps.google.com/?cid=0x0:0x7aae6de213337768,
mall,Pusat Perbelanjaan,Toko Surry,"Sungai Raya, Kec. Sungai Raya, Kabupaten Kubu Raya, Kalimantan Barat 78233","Kec. Sungai Raya, Kabupaten Kubu Raya",KALIMANTAN BARAT,78233.0,Indonesia,,,,-0.0896263,109.3923863,https://maps.google.com/?cid=0x0:0x5fe37b391208397c,
mall,Pusat Perbelanjaan,Voilabeauty new,"W955+2W7, Unnamed Road, Sungai Raya, Kec. Sungai Raya, Kabupaten Kubu Raya, Kalimantan Barat 78121","Unnamed Road, Sungai Raya, Kec. Sungai Raya, Kabupaten Kubu Raya",KALIMANTAN BARAT,78121.0,Indonesia,,,,-0.0924564,109.3598045,https://maps.google.com/?cid=0x0:0x4051b0412ae06801,
mall,Pusat Perbelanjaan,Taman Gaia Bumi Raya City Mall,"W9F9+G59, Sungai Raya, Kec. Sungai Raya, Kabupaten Kubu Raya, Kalimantan Barat","Kabupaten Kubu Raya, Kalimantan Barat",KALIMANTAN BARAT,,Indonesia,,,,-0.077111,109.368337,https://maps.google.com/?cid=0x0:0xf2c92c810e376372,
mall,Pusat Perbelanjaan,Sinar Cell,"W9GW+649, Kapur, Kec. Sungai Raya, Kabupaten Kubu Raya, Kalimantan Barat 78132","Kapur, Kec. Sungai Raya, Kabupaten Kubu Raya",KALIMANTAN BARAT,78132.0,Indonesia,,,,-0.0744581,109.3953575,https://maps.google.com/?cid=0x0:0x1279ee2fbce92092,
mall,Pusat Perbelanjaan,Toko099,"MF95+6J, Sungai Bulan, Kec. Sungai Raya, Kabupaten Kubu Raya, Kalimantan Barat","Kabupaten Kubu Raya, Kalimantan Barat",KALIMANTAN BARAT,,Indonesia,,,,-0.3319375,109.4590625,https://maps.google.com/?cid=0x0:0xf6b5f99651cbd220,
mall,Toko,YOUNG LIVING PONTIANAK DAN KUBURAYA ( ZOILS BY MAMIGOS ),"Jl. Arteri Supadio Komplek Angkasa Permai No.B11, Arang Limbung, Kec. Sungai Raya, Kabupaten Kubu Raya, Kalimantan Barat 78391","Arang Limbung, Kec. Sungai Raya, Kabupaten Kubu Raya",KALIMANTAN BARAT,78391.0,Indonesia, 0895701780569,,,-0.1311115,109.4075256,https://maps.google.com/?cid=0x0:0x7c9814faa6f1c058,
mall,Toko Swalayan,CSA Studio Pontianak,"Jl. Adi Sucipto No.12, Sungai Raya, Kec. Sungai Raya, Kabupaten Kubu Raya, Kalimantan Barat 78233","Sungai Raya, Kec. Sungai Raya, Kabupaten Kubu Raya",KALIMANTAN BARAT,78233.0,Indonesia, 0561780472,,,-0.0990715,109.4017328,https://maps.google.com/?cid=0x0:0x847c83580e05efae,
mall,Pusat Perbelanjaan,HOOZLER BAG GERAI 010,"W93J+75X, Sungai Raya, Kec. Sungai Raya, Kabupaten Kubu Raya, Kalimantan Barat 78391","Sungai Raya, Kec. Sungai Raya, Kabupaten Kubu Raya",KALIMANTAN BARAT,78391.0,Indonesia,,,,-0.0967686,109.3804898,https://maps.google.com/?cid=0x0:0xa685feb610b2c0f,
mall,Toko,TOKO PATRI,"HW8J+93C, Sungai Duri, Kec. Sungai Raya, Kabupaten Bengkayang, Kalimantan Barat 79271","Sungai Duri, Kec. Sungai Raya, Kabupaten Bengkayang",KALIMANTAN BARAT,79271.0,Indonesia,,,,0.5659295,108.9301448,https://maps.google.com/?cid=0x0:0x4f43df75a532b46e,
mall,mall,Kalimantan Barat 79271,"Kabupaten Bengkayang, Kalimantan Barat","Kabupaten Bengkayang, Kalimantan Barat",KALIMANTAN BARAT,,Indonesia,,,,0.6943816,108.9739954,https://maps.google.com/?cid=0x0:0xac07332b4eaf8f75,
mall,Pusat Perbelanjaan,Stokis Hni Hpai Makcik,"RVHF+J9R, Karimunting, Sungai Raya Kepulauan, Kabupaten Bengkayang, Kalimantan Barat 79271","Karimunting, Sungai Raya Kepulauan, Kabupaten Bengkayang",KALIMANTAN BARAT,79271.0,Indonesia,,,,0.8291227,108.8733933,https://maps.google.com/?cid=0x0:0x36960d295df2b708,
mall,Toko Pakaian,"Modist Toserba 35,000","Sungai Duri, Kec. Sungai Raya, Kabupaten Bengkayang, Kalimantan Barat","Kabupaten Bengkayang, Kalimantan Barat",KALIMANTAN BARAT,,Indonesia, 082358788225,,,0.5775484,108.9292853,https://maps.google.com/?cid=0x0:0x43168278bebe3897,
mall,mall,Sungai Raya Kepulauan,"Kabupaten Bengkayang, Kalimantan Barat","Kabupaten Bengkayang, Kalimantan Barat",KALIMANTAN BARAT,,Indonesia,,,,0.766551,108.9264524,https://maps.google.com/?cid=0x0:0x4c64b3df0241fccf,
mall,Toko Perlengkapan Rumah,Mila Tuppaware,"MWF9+9V8, Jl. Sei Duri - Singkawang, Rukma Jaya, Sungai Raya Kepulauan, Kabupaten Bengkayang, Kalimantan Barat 79271","Jl. Sei Duri - Singkawang, Rukma Jaya, Sungai Raya Kepulauan, Kabupaten Bengkayang",KALIMANTAN BARAT,79271.0,Indonesia, 082148381901,,,0.6734212,108.919688,https://maps.google.com/?cid=0x0:0x196f98563bbdd0da,
mall,Toko Elektronik,MONITOR SELINDO,"jln wiraguna no43 dpn pasar ikan, Sungai Duri, Kec. Sungai Raya, Kabupaten Bengkayang, Kalimantan Barat 79271","Sungai Duri, Kec. Sungai Raya, Kabupaten Bengkayang",KALIMANTAN BARAT,79271.0,Indonesia, 085751700000,,,0.5591583,108.9278153,https://maps.google.com/?cid=0x0:0x8871a260ef26d6ed,
mall,Toko Swalayan,TOKO LUCY,"HW6H+7HW, Sungai Duri, Kec. Sungai Raya, Kabupaten Bengkayang, Kalimantan Barat 79271","Sungai Duri, Kec. Sungai Raya, Kabupaten Bengkayang",KALIMANTAN BARAT,79271.0,Indonesia, 081311439810,,,0.5607236,108.9290866,https://maps.google.com/?cid=0x0:0x4917f78e7a0a5c1f,
mall,Toko,Toko top 10,"MWP6+5Q, Sungai Keran, Sungai Raya Kepulauan, Kabupaten Bengkayang, Kalimantan Barat 79271","Sungai Keran, Sungai Raya Kepulauan, Kabupaten Bengkayang",KALIMANTAN BARAT,79271.0,Indonesia,,,,0.6854684,108.9119259,https://maps.google.com/?cid=0x0:0xe3bed0c8bd1a93d4,
mall,Pusat Perbelanjaan,Stockist HNI HPAI-SUMI,"PW22+4JR, Sungai Keran, Sungai Raya Kepulauan, Kabupaten Bengkayang, Kalimantan Barat 79271","Sungai Keran, Sungai Raya Kepulauan, Kabupaten Bengkayang",KALIMANTAN BARAT,79271.0,Indonesia,,,,0.7003563,108.9015287,https://maps.google.com/?cid=0x0:0x5522b362075e6b48,
mall,Pusat Perbelanjaan,Alshop Qu,"PWJ2+2QP, Sungai Raya, Sungai Raya Kepulauan, Kabupaten Bengkayang, Kalimantan Barat","Kabupaten Bengkayang, Kalimantan Barat",KALIMANTAN BARAT,,Indonesia,,,,0.7300863,108.9019478,https://maps.google.com/?cid=0x0:0x69ca24cddee64870,
mall,Pusat Perbelanjaan,TOKO YUNUS,"HXQ4+M27, Jl. Timur 2, Sungai Jaga A, Kec. Sungai Raya, Kabupaten Bengkayang, Kalimantan Barat 79271","Jl. Timur 2, Sungai Jaga A, Kec. Sungai Raya, Kabupaten Bengkayang",KALIMANTAN BARAT,79271.0,Indonesia,,,,0.589163,108.9550376,https://maps.google.com/?cid=0x0:0x20f883fa16a822cc,
mall,Pusat Perbelanjaan,Suci Alshop,"JW8M+GMG, Sungai Pangkalan I, Kec. Sungai Raya, Kabupaten Bengkayang, Kalimantan Barat 79271","Sungai Pangkalan I, Kec. Sungai Raya, Kabupaten Bengkayang",KALIMANTAN BARAT,79271.0,Indonesia,,,,0.6163014,108.9342164,https://maps.google.com/?cid=0x0:0x6e41c7f03527e8f7,
mall,mall,Kec. Sungai Raya,"Kabupaten Bengkayang, Kalimantan Barat","Kabupaten Bengkayang, Kalimantan Barat",KALIMANTAN BARAT,,Indonesia,,,,0.6265893,108.9372517,https://maps.google.com/?cid=0x0:0xcffc0fabff13ddf3,
mall,Toko Ponsel,JEJE PONSEL PANGSUMA,"HWCH+8CF, Sungai Duri, Kec. Sungai Raya, Kabupaten Bengkayang, Kalimantan Barat 79271","Sungai Duri, Kec. Sungai Raya, Kabupaten Bengkayang",KALIMANTAN BARAT,79271.0,Indonesia, 082351540541,,,0.570814,108.928549,https://maps.google.com/?cid=0x0:0x6bf09e589beb4209,
mall,Pusat Perbelanjaan,Toko Mutiara,"HXX2+99J, Sungai Jaga A, Kec. Sungai Raya, Kabupaten Bengkayang, Kalimantan Barat 79271","Sungai Jaga A, Kec. Sungai Raya, Kabupaten Bengkayang",KALIMANTAN BARAT,79271.0,Indonesia,,,,0.5984687,108.9508953,https://maps.google.com/?cid=0x0:0x3446a8a07126d3cd,
mall,Toko Ponsel,Pa'i Ponsel,"RWM3+8M6, jln raya, pasir panjang, Kec. Singkawang Sel., Kabupaten Bengkayang, Kalimantan Barat 79163","jln raya, pasir panjang, Kec. Singkawang Sel., Kabupaten Bengkayang",KALIMANTAN BARAT,79163.0,Indonesia, 085252076000,,,0.8332827,108.904129,https://maps.google.com/?cid=0x0:0xd9f4e50070f5d0a7,
mall,Pusat Perbelanjaan,Singkawang Grand Mall,"Jl. Alianyang, Pasiran, Kec. Singkawang Bar., Kota Singkawang, Kalimantan Barat 79123","Pasiran, Kec. Singkawang Bar., Kota Singkawang",KALIMANTAN BARAT,79123.0,Indonesia, 05626300000,,,0.8984081,108.9696898,https://maps.google.com/?cid=0x0:0x121838ff9066df40,
mall,Pusat Perbelanjaan,Suci Allshop,"Jl. Ahmad Yani No.29, Sungai Duri, Kec. Sungai Raya, Kabupaten Bengkayang, Kalimantan Barat 79271","Sungai Duri, Kec. Sungai Raya, Kabupaten Bengkayang",KALIMANTAN BARAT,79271.0,Indonesia,,,,0.5647746,108.9293844,https://maps.google.com/?cid=0x0:0x3be5017cda2a2395,
mall,Taman,Sungai duri/somban,"HW6J+M7C, Jl. Sumbawa, Sungai Duri, Kec. Sungai Raya, Kabupaten Bengkayang, Kalimantan Barat 79271","Jl. Sumbawa, Sungai Duri, Kec. Sungai Raya, Kabupaten Bengkayang",KALIMANTAN BARAT,79271.0,Indonesia,,,,0.5675254,108.9496921,https://maps.google.com/?cid=0x0:0xc424ee5894d8cdda,
mall,Toko,Warung alip,"QVR7+9QM, Jl. Sei Duri - Singkawang, Karimunting, Sungai Raya Kepulauan, Kabupaten Bengkayang, Kalimantan Barat 79271","Jl. Sei Duri - Singkawang, Karimunting, Sungai Raya Kepulauan, Kabupaten Bengkayang",KALIMANTAN BARAT,79271.0,Indonesia,,,,0.7909694,108.8644222,https://maps.google.com/?cid=0x0:0x120b586fb95c07bd,
mall,Stasiun pengisian gas alam terkompresi,AMIN gas LPG,"JXV3+QR7, Sungai Pangkalan II, Kec. Sungai Raya, Kabupaten Bengkayang, Kalimantan Barat 79271","Sungai Pangkalan II, Kec. Sungai Raya, Kabupaten Bengkayang",KALIMANTAN BARAT,79271.0,Indonesia,,,,0.6437904,108.9555215,https://maps.google.com/?cid=0x0:0xd0f6e5fd61bdd5df,
mall,mall,Suti Semarang,"Kec. Suti Semarang, Kabupaten Bengkayang, Kalimantan Barat","Kabupaten Bengkayang, Kalimantan Barat",KALIMANTAN BARAT,,Indonesia,,,,0.8613922,109.7472621,https://maps.google.com/?cid=0x0:0x241baf2137d3c6c4,
mall,mall,Kec. Suti Semarang,"Kabupaten Bengkayang, Kalimantan Barat","Kabupaten Bengkayang, Kalimantan Barat",KALIMANTAN BARAT,,Indonesia,,,,0.9353347,109.7371429,https://maps.google.com/?cid=0x0:0x3224202b2129a1fd,
mall,Rumah Sakit,Suti Semarang,"VRJP+7R4, Tapen, Kec. Suti Semarang, Kabupaten Bengkayang, Kalimantan Barat 79283","Tapen, Kec. Suti Semarang, Kabupaten Bengkayang",KALIMANTAN BARAT,79283.0,Indonesia,,,,0.8806345,109.8370893,https://maps.google.com/?cid=0x0:0xd436aed79d25b186,
mall,Pusat Kesehatan Masyarakat,PUSKESMAS SUTI SEMARANG,"VRH5+RV5, Tapen, Kec. Suti Semarang, Kabupaten Bengkayang, Kalimantan Barat 79283","Tapen, Kec. Suti Semarang, Kabupaten Bengkayang",KALIMANTAN BARAT,79283.0,Indonesia,,,,0.8796542,109.8094963,https://maps.google.com/?cid=0x0:0x1085dcec50dc5565,
mall,Komplek perumahan,Rumah gunawan,"VRJR+VMC, Tapen, Kec. Suti Semarang, Kabupaten Bengkayang, Kalimantan Barat 79283","Tapen, Kec. Suti Semarang, Kabupaten Bengkayang",KALIMANTAN BARAT,79283.0,Indonesia,,,,0.8820431,109.8407346,https://maps.google.com/?cid=0x0:0x300d31138dbd5aef,
mall,mall,Bengkayang,"Malo Jelayan, Kec. Teriak, Kabupaten Bengkayang, Kalimantan Barat","Kabupaten Bengkayang, Kalimantan Barat",KALIMANTAN BARAT,,Indonesia,,,,0.8209729,109.477699,https://maps.google.com/?cid=0x0:0xb3bc2d69eebb6767,
mall,Toko bahan makanan,Toko Apit,"Ar, Jl. Jerendeng Abdul Rahman No.6, Malo Jelayan, Teriak, Bengkayang Regency, West Kalimantan 79214","Jl. Jerendeng Abdul Rahman No.6, Malo Jelayan, Teriak, Bengkayang Regency",KALIMANTAN BARAT,79214.0,Indonesia, 0562441079,,,0.820482,109.4830337,https://maps.google.com/?cid=0x0:0x14ce84b2532693fa,
mall,Pusat Perbelanjaan,Lala mart,"RFWW+G7J, Jl. Raya Sanggau Ledo, Bani Amas, Kec. Bengkayang, Kabupaten Bengkayang, Kalimantan Barat 79211","Jl. Raya Sanggau Ledo, Bani Amas, Kec. Bengkayang, Kabupaten Bengkayang",KALIMANTAN BARAT,79211.0,Indonesia,,,,0.8463421,109.4956476,https://maps.google.com/?cid=0x0:0xd0b5e78a4db26047,
mall,Kerajinan,Dekranasda Kab. Bengkayang,"Jl. Guna Baru Trans Rangkang, Sebalo, Kec. Bengkayang, Kabupaten Bengkayang, Kalimantan Barat 79211","Sebalo, Kec. Bengkayang, Kabupaten Bengkayang",KALIMANTAN BARAT,79211.0,Indonesia,,,,0.8688311,109.4971527,https://maps.google.com/?cid=0x0:0xccdf193c8d548fce,
mall,mall,Tk Mas Jakarta,"Ar komplek terminal, Jl. Jerendeng Abdul Rahman No.5, Malo Jelayan, Kec. Teriak, Kabupaten Bengkayang, Kalimantan Barat 79214","Jl. Jerendeng Abdul Rahman No.5, Malo Jelayan, Kec. Teriak, Kabupaten Bengkayang",KALIMANTAN BARAT,79214.0,Indonesia,,,,0.8201097,109.4832689,https://maps.google.com/?cid=0x0:0xfc8f9f4df403297b,
mall,Pusat Perbelanjaan,Banli Mart,"Bumi Amas, Kec. Bengkayang, Kabupaten Bengkayang, Kalimantan Barat 79211","Kec. Bengkayang, Kabupaten Bengkayang",KALIMANTAN BARAT,79211.0,Indonesia,,,,0.8252792,109.483359,https://maps.google.com/?cid=0x0:0x4812752f286b6eef,
mall,Pasar,Toko Galeri,"RF9J+8J2, Jl. Ps. Tengah, Malo Jelayan, Kec. Teriak, Kabupaten Bengkayang, Kalimantan Barat 79214","Jl. Ps. Tengah, Malo Jelayan, Kec. Teriak, Kabupaten Bengkayang",KALIMANTAN BARAT,79214.0,Indonesia, 081345219404,,,0.8182542,109.4815296,https://maps.google.com/?cid=0x0:0x10813152181bbbe5,
mall,Pusat Perbelanjaan,TOKO ALASKA,"RF9J+PM3, Jl. Jerendeng Abdul Rahman, Bumi Amas, Kec. Teriak, Kabupaten Bengkayang, Kalimantan Barat 79214","Jl. Jerendeng Abdul Rahman, Bumi Amas, Kec. Teriak, Kabupaten Bengkayang",KALIMANTAN BARAT,79214.0,Indonesia, 085750082220,,,0.8192786,109.4816814,https://maps.google.com/?cid=0x0:0xc703d8d8d920704b,
mall,Pusat Perbelanjaan,The Park Sawangan,"Jl. Raya Parung - Ciputat No.1, RT.6/RW.004, Serua, Kec. Bojongsari, Kota Depok, Jawa Barat 16517","RT.6/RW.004, Serua, Kec. Bojongsari, Kota Depok",KALIMANTAN BARAT,16517.0,Indonesia, 0217437518,,,-6.3761745,106.7449947,https://maps.google.com/?cid=0x0:0x61c6618db8b06e,
mall,Pusat Perbelanjaan,The park depok,"JPFV+9M7, Serua, Kec. Sawangan, Kota Depok, Jawa Barat","Kota Depok, Jawa Barat",KALIMANTAN BARAT,,Indonesia,,,,-6.3765784,106.7441803,https://maps.google.com/?cid=0x0:0x921ef93c16d865d9,
mall,Pusat Perbelanjaan,Loading Dock The park Sawangan,"JPFV+8CX, Serua, Kec. Bojongsari, Kota Depok, Jawa Barat 16517","Serua, Kec. Bojongsari, Kota Depok",KALIMANTAN BARAT,16517.0,Indonesia,,,,-6.376641,106.7436112,https://maps.google.com/?cid=0x0:0x4626d6a1a7926540,
mall,Pusat Perbelanjaan,The park parking,"Jl. Raya Parung - Ciputat No.20, Kedaung, Kec. Sawangan, Kota Depok, Jawa Barat 16516","Kedaung, Kec. Sawangan, Kota Depok",KALIMANTAN BARAT,16516.0,Indonesia,,,,-6.3760079,106.7444374,https://maps.google.com/?cid=0x0:0x657119347fffbb5c,
mall,Toserba,"Matahari Departemen Store, The Park Sawangan","The Park Sawangan 1st floor, Jl. Raya Jkt - Bogor, Serua, Kec. Bojongsari, Kota Depok, Jawa Barat","Kota Depok, Jawa Barat",KALIMANTAN BARAT,,Indonesia,,,,-6.3761935,106.7446892,https://maps.google.com/?cid=0x0:0xcb0f26cc072d937c,
mall,mall,Kec. Tujuh Belas,"Kabupaten Bengkayang, Kalimantan Barat","Kabupaten Bengkayang, Kalimantan Barat",KALIMANTAN BARAT,,Indonesia,,,,1.0866748,109.7267254,https://maps.google.com/?cid=0x0:0xd66ed58599e8e5b5,
mall,Toko,Bri Link Jumani Paket A Kecamatan Tujuh Belas,"3PQF+8QG, Pisak, Kec. Tujuh Belas, Kabupaten Bengkayang, Kalimantan Barat 79251","Pisak, Kec. Tujuh Belas, Kabupaten Bengkayang",KALIMANTAN BARAT,79251.0,Indonesia,,,,1.0883001,109.7244544,https://maps.google.com/?cid=0x0:0xce5a73bd358e4819,
mall,Toko bahan makanan,warung sembilu,"3M5W+P6R, Pisak, Kec. Tujuh Belas, Kabupaten Bengkayang, Kalimantan Barat 79251","Pisak, Kec. Tujuh Belas, Kabupaten Bengkayang",KALIMANTAN BARAT,79251.0,Indonesia,,,,1.0593706,109.6955259,https://maps.google.com/?cid=0x0:0x6de3a0f9e121ad44,
mall,Salon Kecantikan,BODY SPA,"3M97+JHV, Sinar Tebudak, Kec. Tujuh Belas, Kabupaten Bengkayang, Kalimantan Barat 79251","Sinar Tebudak, Kec. Tujuh Belas, Kabupaten Bengkayang",KALIMANTAN BARAT,79251.0,Indonesia, 085822395778,,,1.06911,109.6639309,https://maps.google.com/?cid=0x0:0x7448f2e420ae38f0,
mall,Toko,Tani Jaya,"2PXX+383, Pisak, Kec. Tujuh Belas, Kabupaten Bengkayang, Kalimantan Barat 79251","Pisak, Kec. Tujuh Belas, Kabupaten Bengkayang",KALIMANTAN BARAT,79251.0,Indonesia,,,,1.0476269,109.7483033,https://maps.google.com/?cid=0x0:0x482de46bf2db4f57,
mall,Pusat Perbelanjaan,Mall Kota Kasablanka,"Jl. Raya Casablanca No.Kav 88, Menteng Dalam, Kec. Tebet, Kota Jakarta Selatan, Daerah Khusus Ibukota Jakarta 12870","Menteng Dalam, Kec. Tebet, Kota Jakarta Selatan",KALIMANTAN BARAT,12870.0,Indonesia, 02129465000,,,-6.2240353,106.8425979,https://maps.google.com/?cid=0x0:0xaf54cb631563acce,
mall,Pusat Perbelanjaan,Mall k,"Mall Kota Kasablanka, Menteng Dalam, Kec. Tebet, Kota Jakarta Selatan, Daerah Khusus Ibukota Jakarta 12960","Menteng Dalam, Kec. Tebet, Kota Jakarta Selatan",KALIMANTAN BARAT,12960.0,Indonesia,,,,-6.2240353,106.8425979,https://maps.google.com/?cid=0x0:0xa3a16fc4381476fb,
mall,Pusat Perbelanjaan,Kuningan City,"Jl. Prof. DR. Satrio No.Kav. 18, Kuningan, Karet Kuningan, Kecamatan Setiabudi, Kota Jakarta Selatan, Daerah Khusus Ibukota Jakarta 12940","Kuningan, Karet Kuningan, Kecamatan Setiabudi, Kota Jakarta Selatan",KALIMANTAN BARAT,12940.0,Indonesia, 02157905555,,,-6.2250136,106.829553,https://maps.google.com/?cid=0x0:0x420d8f1dfd4d9452,
mall,Pusat Perbelanjaan,Pacific Place Mall,"Jl. Jend. Sudirman kav 52-53, Senayan, Kec. Kby. Baru, Kota Jakarta Selatan, Daerah Khusus Ibukota Jakarta 12190","Senayan, Kec. Kby. Baru, Kota Jakarta Selatan",KALIMANTAN BARAT,12190.0,Indonesia, 02151402828,,,-6.2240197,106.8101858,https://maps.google.com/?cid=0x0:0xc4a608b34b5f03cc,
mall,Toko Alat Kecantikan,SOGO,"Jl. Raya Casablanca No.88, RT.2/RW.14, Menteng Dalam, Kec. Tebet, Kota Jakarta Selatan, Daerah Khusus Ibukota Jakarta 12870","RT.2/RW.14, Menteng Dalam, Kec. Tebet, Kota Jakarta Selatan",KALIMANTAN BARAT,12870.0,Indonesia, 08111252807,,,-6.2229772,106.843111,https://maps.google.com/?cid=0x0:0xa96f0bcb4777740e,
mall,Hot Pot,Shaburi Kota Kasablanka,"Mal Kota Kasablanka, Jl. Raya Casablanca No.Kav. 88 Lt. 1, RT.14/RW.5, Menteng Dalam, Kec. Tebet, Kota Jakarta Selatan, Daerah Khusus Ibukota Jakarta 12870","Jl. Raya Casablanca No.Kav. 88 Lt. 1, RT.14/RW.5, Menteng Dalam, Kec. Tebet, Kota Jakarta Selatan",KALIMANTAN BARAT,12870.0,Indonesia, 081294378786,,,-6.2239885,106.8431041,https://maps.google.com/?cid=0x0:0x2df3ec83a703a23f,
mall,Steak,Steak Hotel by Holycow Kota Kasablanka,"Kota Kasablanka Mall UG Floor, Jl. Raya Casablanca Raya No.Kav. 88, Jakarta 12870",Jl. Raya Casablanca Raya No.Kav. 88,KALIMANTAN BARAT,12870.0,Indonesia, 085841032642,,,-6.2234305,106.8424161,https://maps.google.com/?cid=0x0:0x8644c3d7788e0feb,
mall,Pusat Perbelanjaan,The Kasablanka,"Kota Kasablanka Lt. 3, Jl. Casablanca Raya kav. 88, RT.3/RW.14, Menteng Dalam, Kec. Tebet, Kota Jakarta Selatan, Daerah Khusus Ibukota Jakarta 12870","Jl. Casablanca Raya kav. 88, RT.3/RW.14, Menteng Dalam, Kec. Tebet, Kota Jakarta Selatan",KALIMANTAN BARAT,12870.0,Indonesia, 02129488633,,,-6.2242538,106.8435205,https://maps.google.com/?cid=0x0:0x3225ec9b7b7adc0c,
supermarket,Toko bahan makanan,Toko Mayora,"Jl. Jerendeng Abdul Rahman No.76, Bumi Amas, Kec. Bengkayang, Kabupaten Bengkayang, Kalimantan Barat 79211","Bumi Amas, Kec. Bengkayang, Kabupaten Bengkayang",KALIMANTAN BARAT,79211.0,Indonesia,,,,0.8193249,109.4817464,https://maps.google.com/?cid=0x0:0xbfda3ccf86f5e8b5,
supermarket,Pusat Perbelanjaan,Lala mart,"RFWW+G7J, Jl. Raya Sanggau Ledo, Bani Amas, Kec. Bengkayang, Kabupaten Bengkayang, Kalimantan Barat 79211","Jl. Raya Sanggau Ledo, Bani Amas, Kec. Bengkayang, Kabupaten Bengkayang",KALIMANTAN BARAT,79211.0,Indonesia,,,,0.8463421,109.4956476,https://maps.google.com/?cid=0x0:0xd0b5e78a4db26047,
supermarket,supermarket,Kalimantan Barat 79211,"Kabupaten Bengkayang, Kalimantan Barat","Kabupaten Bengkayang, Kalimantan Barat",KALIMANTAN BARAT,,Indonesia,,,,0.8362421,109.4021154,https://maps.google.com/?cid=0x0:0x913ba724bc63acae,
supermarket,Pusat Perbelanjaan,Banli Mart,"Bumi Amas, Kec. Bengkayang, Kabupaten Bengkayang, Kalimantan Barat 79211","Kec. Bengkayang, Kabupaten Bengkayang",KALIMANTAN BARAT,79211.0,Indonesia,,,,0.8252792,109.483359,https://maps.google.com/?cid=0x0:0x4812752f286b6eef,
supermarket,Toko Swalayan,Tristar,"Rachma, Jl. Basuki Rachmat No.155, Malo Jelayan, Kec. Teriak, Kabupaten Bengkayang, Kalimantan Barat 79214","Jl. Basuki Rachmat No.155, Malo Jelayan, Kec. Teriak, Kabupaten Bengkayang",KALIMANTAN BARAT,79214.0,Indonesia,,,,0.816423,109.4895399,https://maps.google.com/?cid=0x0:0xc272b2fe5d4a2f0a,
supermarket,Minimarket,Multi Market,"RF9M+V89, Malo Jelayan, Kec. Teriak, Kabupaten Bengkayang, Kalimantan Barat 79214","Malo Jelayan, Kec. Teriak, Kabupaten Bengkayang",KALIMANTAN BARAT,79214.0,Indonesia,,,,0.8196526,109.4833503,https://maps.google.com/?cid=0x0:0x6b9fea64d5765190,
supermarket,Toko bahan makanan,Yammy Fresh Mart,"RFMQ+HQH, Bani Amas, Kec. Bengkayang, Kabupaten Bengkayang, Kalimantan Barat 79211","Bani Amas, Kec. Bengkayang, Kabupaten Bengkayang",KALIMANTAN BARAT,79211.0,Indonesia,,,,0.8342504,109.4895877,https://maps.google.com/?cid=0x0:0x7887bceb553e879e,
supermarket,Toko bahan makanan,Warung JENZ,"QCVV+6WM, Tirta Kencana, Kec. Bengkayang, Kabupaten Bengkayang, Kalimantan Barat 79211","Tirta Kencana, Kec. Bengkayang, Kabupaten Bengkayang",KALIMANTAN BARAT,79211.0,Indonesia, 085705513555,,,0.7930774,109.444783,https://maps.google.com/?cid=0x0:0x9c9d42c73da336df,
supermarket,Toko bahan makanan,Toko Bina Jaya Zibanex,"R97M+6C7, Suka Maju, Kec. Sungai Betung, Kabupaten Bengkayang, Kalimantan Barat 79211","Suka Maju, Kec. Sungai Betung, Kabupaten Bengkayang",KALIMANTAN BARAT,79211.0,Indonesia, 08988002922,,,0.8130307,109.3835403,https://maps.google.com/?cid=0x0:0x8e4e1360d1b2a6b2,
supermarket,Minimarket,Alfamart,"Jl. Raya Sanggau Ledo, Sebalo, Kec. Bengkayang, Kab. Bengkayang, Kalimantan Barat 79211","Sebalo, Kec. Bengkayang, Kab. Bengkayang",KALIMANTAN BARAT,79211.0,Indonesia, 1500959,,,0.8363505,109.4918987,https://maps.google.com/?cid=0x0:0x639459d7e4058cfe,
supermarket,Minimarket,Toko Memey,"RFRR+9W9, Jl. Raya Sanggau Ledo, Bani Amas, Kec. Bengkayang, Kabupaten Bengkayang, Kalimantan Barat 79211","Jl. Raya Sanggau Ledo, Bani Amas, Kec. Bengkayang, Kabupaten Bengkayang",KALIMANTAN BARAT,79211.0,Indonesia, 08981842428,,,0.8409184,109.4923582,https://maps.google.com/?cid=0x0:0x5f73c9ed750b08d6,
supermarket,Toko bahan makanan,Toko Meisy,"RFMQ+HRC, Jl. Raya Sanggau Ledo, Bani Amas, Kec. Bengkayang, Kabupaten Bengkayang, Kalimantan Barat 79211","Jl. Raya Sanggau Ledo, Bani Amas, Kec. Bengkayang, Kabupaten Bengkayang",KALIMANTAN BARAT,79211.0,Indonesia, 081289438332,,,0.8339495,109.4895156,https://maps.google.com/?cid=0x0:0x9f1dbadf8d58ab08,
supermarket,Minimarket,Alfamart,"Jl. Raya Sanggau Ledo, RT.006/RW.003, Sebalo, Kec. Bengkayang, Kab. Bengkayang, Kalimantan Barat 79211","RT.006/RW.003, Sebalo, Kec. Bengkayang, Kab. Bengkayang",KALIMANTAN BARAT,79211.0,Indonesia, 1500959,,,0.8480728,109.4983287,https://maps.google.com/?cid=0x0:0xa5aba1f5f290bc2a,
supermarket,Toko Swalayan,Toko Mitra Usaha,"VGC5+3G3, Sebalo, Kec. Bengkayang, Kabupaten Bengkayang, Kalimantan Barat 79211","Sebalo, Kec. Bengkayang, Kabupaten Bengkayang",KALIMANTAN BARAT,79211.0,Indonesia, 081345316585,,,0.8701328,109.5087931,https://maps.google.com/?cid=0x0:0x3dd9bae9c3764410,
supermarket,Toko bahan makanan,Toko Trisakti,"Jl. Basuki Rachmat No.44, Malo Jelayan, Kec. Teriak, Kabupaten Bengkayang, Kalimantan Barat 79214","Malo Jelayan, Kec. Teriak, Kabupaten Bengkayang",KALIMANTAN BARAT,79214.0,Indonesia,,,,0.8181948,109.4846604,https://maps.google.com/?cid=0x0:0x37513352ade9d998,
supermarket,Toko bahan makanan,Serba Guna,"R95M+QJ3, Suka Maju, Kec. Sungai Betung, Kabupaten Bengkayang, Kalimantan Barat 79211","Suka Maju, Kec. Sungai Betung, Kabupaten Bengkayang",KALIMANTAN BARAT,79211.0,Indonesia,,,,0.8093991,109.3840479,https://maps.google.com/?cid=0x0:0x709aed8e3d30cac2,
supermarket,Toko umum,Toko AWi.semidang,"R965+9HQ, Suka Maju, Kec. Sungai Betung, Kabupaten Bengkayang, Kalimantan Barat 79211","Suka Maju, Kec. Sungai Betung, Kabupaten Bengkayang",KALIMANTAN BARAT,79211.0,Indonesia,,,,0.810965,109.358993,https://maps.google.com/?cid=0x0:0xef46edc4609a81bd,
supermarket,Toko bahan makanan,Toko Mulyadi,"RFMQ+JM8, Jl. Raya Sanggau Ledo, Bumi Amas, Kec. Bengkayang, Kabupaten Bengkayang, Kalimantan Barat 79211","Jl. Raya Sanggau Ledo, Bumi Amas, Kec. Bengkayang, Kabupaten Bengkayang",KALIMANTAN BARAT,79211.0,Indonesia,,,,0.8340302,109.4891883,https://maps.google.com/?cid=0x0:0x3160647837b99e02,
supermarket,Toko,Kios raja darma,"RF9J+55G, Jl. Jerendeng Abdul Rahman, Malo Jelayan, Kec. Teriak, Kabupaten Bengkayang, Kalimantan Barat 79214","Jl. Jerendeng Abdul Rahman, Malo Jelayan, Kec. Teriak, Kabupaten Bengkayang",KALIMANTAN BARAT,79214.0,Indonesia,,,,0.8179328,109.4804449,https://maps.google.com/?cid=0x0:0x4336c021447fd64b,
supermarket,Minimarket,Alfamart,"Rahmat, Jl. Basuki Rachmat Desa, Bumi Amas, Kec. Bengkayang, Kab. Bengkayang, Kalimantan Barat 79212","Jl. Basuki Rachmat Desa, Bumi Amas, Kec. Bengkayang, Kab. Bengkayang",KALIMANTAN BARAT,79212.0,Indonesia, 1500959,,,0.8166442,109.4896507,https://maps.google.com/?cid=0x0:0xb453d229238780c0,
supermarket,Toko Perlengkapan Rumah,Toko Juara Satu,"RF9J+JQ3, Jl. Tabrani, Malo Jelayan, Kec. Teriak, Kabupaten Bengkayang, Kalimantan Barat 79214","Jl. Tabrani, Malo Jelayan, Kec. Teriak, Kabupaten Bengkayang",KALIMANTAN BARAT,79214.0,Indonesia, 081649523844,,,0.8190058,109.4819071,https://maps.google.com/?cid=0x0:0x44dadc9c932ee07b,
supermarket,Toko Swalayan,wijaya asri mandiri,"PGX3+GMW, Benteng, Kec. Teriak, Kabupaten Bengkayang, Kalimantan Barat 79214","Benteng, Kec. Teriak, Kabupaten Bengkayang",KALIMANTAN BARAT,79214.0,Indonesia,,,,0.7488736,109.504191,https://maps.google.com/?cid=0x0:0x9058aa8bb6b336eb,
supermarket,Kantor Administrasi Kota,Kantor Bupati Bengkayang,"VF9W+GVC, Sebalo, Kec. Bengkayang, Kabupaten Bengkayang, Kalimantan Barat 79211","Sebalo, Kec. Bengkayang, Kabupaten Bengkayang",KALIMANTAN BARAT,79211.0,Indonesia,,,,0.8688085,109.4971539,https://maps.google.com/?cid=0x0:0xe55bbf6ceb144fb6,
supermarket,supermarket,Kalimantan Barat 79212,"Bumi Amas, Kec. Bengkayang, Kabupaten Bengkayang, Kalimantan Barat","Kabupaten Bengkayang, Kalimantan Barat",KALIMANTAN BARAT,,Indonesia,,,,0.8224796,109.4556579,https://maps.google.com/?cid=0x0:0xb781ee2896dfb0c1,
supermarket,Pusat Perbelanjaan,Banli Mart,"Bumi Amas, Kec. Bengkayang, Kabupaten Bengkayang, Kalimantan Barat 79211","Kec. Bengkayang, Kabupaten Bengkayang",KALIMANTAN BARAT,79211.0,Indonesia,,,,0.8252792,109.483359,https://maps.google.com/?cid=0x0:0x4812752f286b6eef,
supermarket,Toko bahan makanan,Toko Mayora,"Jl. Jerendeng Abdul Rahman No.76, Bumi Amas, Kec. Bengkayang, Kabupaten Bengkayang, Kalimantan Barat 79211","Bumi Amas, Kec. Bengkayang, Kabupaten Bengkayang",KALIMANTAN BARAT,79211.0,Indonesia,,,,0.8193249,109.4817464,https://maps.google.com/?cid=0x0:0xbfda3ccf86f5e8b5,
supermarket,Pusat Perbelanjaan,Lala mart,"RFWW+G7J, Jl. Raya Sanggau Ledo, Bani Amas, Kec. Bengkayang, Kabupaten Bengkayang, Kalimantan Barat 79211","Jl. Raya Sanggau Ledo, Bani Amas, Kec. Bengkayang, Kabupaten Bengkayang",KALIMANTAN BARAT,79211.0,Indonesia,,,,0.8463421,109.4956476,https://maps.google.com/?cid=0x0:0xd0b5e78a4db26047,
supermarket,Toko bahan makanan,Duta Jaya,"Jl. Raya Sanggau Ledo No.116, Bani Amas, Kec. Bengkayang, Kabupaten Bengkayang, Kalimantan Barat 79211","Bani Amas, Kec. Bengkayang, Kabupaten Bengkayang",KALIMANTAN BARAT,79211.0,Indonesia, 081256650899,,,0.8422756,109.4924973,https://maps.google.com/?cid=0x0:0x793c26d607a04965,
supermarket,Toko bahan makanan,Yammy Fresh Mart,"RFMQ+HQH, Bani Amas, Kec. Bengkayang, Kabupaten Bengkayang, Kalimantan Barat 79211","Bani Amas, Kec. Bengkayang, Kabupaten Bengkayang",KALIMANTAN BARAT,79211.0,Indonesia,,,,0.8342504,109.4895877,https://maps.google.com/?cid=0x0:0x7887bceb553e879e,
supermarket,Toko,Kios raja darma,"RF9J+55G, Jl. Jerendeng Abdul Rahman, Malo Jelayan, Kec. Teriak, Kabupaten Bengkayang, Kalimantan Barat 79214","Jl. Jerendeng Abdul Rahman, Malo Jelayan, Kec. Teriak, Kabupaten Bengkayang",KALIMANTAN BARAT,79214.0,Indonesia,,,,0.8179328,109.4804449,https://maps.google.com/?cid=0x0:0x4336c021447fd64b,
supermarket,Toko bahan makanan,Toko Meisy,"RFMQ+HRC, Jl. Raya Sanggau Ledo, Bani Amas, Kec. Bengkayang, Kabupaten Bengkayang, Kalimantan Barat 79211","Jl. Raya Sanggau Ledo, Bani Amas, Kec. Bengkayang, Kabupaten Bengkayang",KALIMANTAN BARAT,79211.0,Indonesia, 081289438332,,,0.8339495,109.4895156,https://maps.google.com/?cid=0x0:0x9f1dbadf8d58ab08,
supermarket,Toko bahan makanan,Warung JENZ,"QCVV+6WM, Tirta Kencana, Kec. Bengkayang, Kabupaten Bengkayang, Kalimantan Barat 79211","Tirta Kencana, Kec. Bengkayang, Kabupaten Bengkayang",KALIMANTAN BARAT,79211.0,Indonesia, 085705513555,,,0.7930774,109.444783,https://maps.google.com/?cid=0x0:0x9c9d42c73da336df,
supermarket,Minimarket,Alfamart,"Jl. Raya Sanggau Ledo, Sebalo, Kec. Bengkayang, Kab. Bengkayang, Kalimantan Barat 79211","Sebalo, Kec. Bengkayang, Kab. Bengkayang",KALIMANTAN BARAT,79211.0,Indonesia, 1500959,,,0.8363505,109.4918987,https://maps.google.com/?cid=0x0:0x639459d7e4058cfe,
supermarket,Toko bahan makanan,Toko Trisakti,"Jl. Basuki Rachmat No.44, Malo Jelayan, Kec. Teriak, Kabupaten Bengkayang, Kalimantan Barat 79214","Malo Jelayan, Kec. Teriak, Kabupaten Bengkayang",KALIMANTAN BARAT,79214.0,Indonesia,,,,0.8181948,109.4846604,https://maps.google.com/?cid=0x0:0x37513352ade9d998,
supermarket,Minimarket,Toko Memey,"RFRR+9W9, Jl. Raya Sanggau Ledo, Bani Amas, Kec. Bengkayang, Kabupaten Bengkayang, Kalimantan Barat 79211","Jl. Raya Sanggau Ledo, Bani Amas, Kec. Bengkayang, Kabupaten Bengkayang",KALIMANTAN BARAT,79211.0,Indonesia, 08981842428,,,0.8409184,109.4923582,https://maps.google.com/?cid=0x0:0x5f73c9ed750b08d6,
supermarket,Pasar,oca,"Malo Jelayan, Kec. Teriak, Kabupaten Bengkayang, Kalimantan Barat 79215","Kec. Teriak, Kabupaten Bengkayang",KALIMANTAN BARAT,79215.0,Indonesia, 085820901241,,,0.8209729,109.477699,https://maps.google.com/?cid=0x0:0x528a02d497b0c488,
supermarket,Toko Pakaian,Toko SINAR INDAH,"RF9J+5G9, Malo Jelayan, Kec. Teriak, Kabupaten Bengkayang, Kalimantan Barat 79214","Malo Jelayan, Kec. Teriak, Kabupaten Bengkayang",KALIMANTAN BARAT,79214.0,Indonesia,,,,0.8179197,109.4813635,https://maps.google.com/?cid=0x0:0x453e91ac3f444b3c,
supermarket,Toko,Toko Harapan Baru,"RF9M+X2V, Jl. Jerendeng Abdul Rahman, Malo Jelayan, Kec. Teriak, Kabupaten Bengkayang, Kalimantan Barat 79214","Jl. Jerendeng Abdul Rahman, Malo Jelayan, Kec. Teriak, Kabupaten Bengkayang",KALIMANTAN BARAT,79214.0,Indonesia, 0562441210,,,0.8199931,109.4825432,https://maps.google.com/?cid=0x0:0xe29165e23013f197,
supermarket,Toko bahan makanan,Toko Mulyadi,"RFMQ+JM8, Jl. Raya Sanggau Ledo, Bumi Amas, Kec. Bengkayang, Kabupaten Bengkayang, Kalimantan Barat 79211","Jl. Raya Sanggau Ledo, Bumi Amas, Kec. Bengkayang, Kabupaten Bengkayang",KALIMANTAN BARAT,79211.0,Indonesia,,,,0.8340302,109.4891883,https://maps.google.com/?cid=0x0:0x3160647837b99e02,
supermarket,Minimarket,Toko Nikmat,"Jl. Jerendeng Abdul Rahman No.78, Malo Jelayan, Kec. Teriak, Kabupaten Bengkayang, Kalimantan Barat 79214","Malo Jelayan, Kec. Teriak, Kabupaten Bengkayang",KALIMANTAN BARAT,79214.0,Indonesia,,,,0.8184403,109.4809401,https://maps.google.com/?cid=0x0:0x43a111d3d5e6d772,
supermarket,Toko Swalayan,Henz Dong,"RF8J+V3J, Jl. Gereja, Malo Jelayan, Kec. Teriak, Kabupaten Bengkayang, Kalimantan Barat 79214","Jl. Gereja, Malo Jelayan, Kec. Teriak, Kabupaten Bengkayang",KALIMANTAN BARAT,79214.0,Indonesia, 089523033427,,,0.8172066,109.480154,https://maps.google.com/?cid=0x0:0xa9dad01c7a7b115d,
supermarket,Toko bahan makanan,TOKO Wk Indah,"RFJP+RMW, Jl. Raya Sanggau Ledo, Bani Amas, Kec. Bengkayang, Kabupaten Bengkayang, Kalimantan Barat 79211","Jl. Raya Sanggau Ledo, Bani Amas, Kec. Bengkayang, Kabupaten Bengkayang",KALIMANTAN BARAT,79211.0,Indonesia,,,,0.8321031,109.4867133,https://maps.google.com/?cid=0x0:0x982e7b7d48cd6fc2,
supermarket,Pasar,TOKO SIMPANG SEBALO,"RFJP+PJ5, Jl. Sentagi, Bani Amas, Kec. Bengkayang, Kabupaten Bengkayang, Kalimantan Barat 79211","Jl. Sentagi, Bani Amas, Kec. Bengkayang, Kabupaten Bengkayang",KALIMANTAN BARAT,79211.0,Indonesia,,,,0.8317629,109.4865965,https://maps.google.com/?cid=0x0:0x3d5c5dffd82d2f81,
supermarket,Minimarket,BP2 Indomaret,"RF8Q+FX6, Malo Jelayan, Kec. Teriak, Kabupaten Bengkayang, Kalimantan Barat 79214","Malo Jelayan, Kec. Teriak, Kabupaten Bengkayang",KALIMANTAN BARAT,79214.0,Indonesia,,,,0.8161709,109.4898997,https://maps.google.com/?cid=0x0:0x67ace0da5f6a1a98,
supermarket,Minimarket,Toko ashang,"Jl. Sei Duri - Singkawang No.136, Sungai Pangkalan II, Kec. Sungai Raya, Kabupaten Bengkayang, Kalimantan Barat 79271","Sungai Pangkalan II, Kec. Sungai Raya, Kabupaten Bengkayang",KALIMANTAN BARAT,79271.0,Indonesia,,,,0.6307635,108.937621,https://maps.google.com/?cid=0x0:0x91067b5aa6a2f38f,
supermarket,Toko Perlengkapan Rumah,Toko Juara Satu,"RF9J+JQ3, Jl. Tabrani, Malo Jelayan, Kec. Teriak, Kabupaten Bengkayang, Kalimantan Barat 79214","Jl. Tabrani, Malo Jelayan, Kec. Teriak, Kabupaten Bengkayang",KALIMANTAN BARAT,79214.0,Indonesia, 081649523844,,,0.8190058,109.4819071,https://maps.google.com/?cid=0x0:0x44dadc9c932ee07b,
supermarket,supermarket,ATK SINAR ANUGRAH,"RFJP+VP6, Jl. Raya Sanggau Ledo, Bani Amas, Kec. Bengkayang, Kabupaten Bengkayang, Kalimantan Barat 79211","Jl. Raya Sanggau Ledo, Bani Amas, Kec. Bengkayang, Kabupaten Bengkayang",KALIMANTAN BARAT,79211.0,Indonesia,,,,0.8321697,109.4867626,https://maps.google.com/?cid=0x0:0xf4e09758ea62e2c7,
supermarket,Toko Elektronik,Istana Ponsel,"RF9J+6QJ, Malo Jelayan, Kec. Teriak, Kabupaten Bengkayang, Kalimantan Barat 79214","Malo Jelayan, Kec. Teriak, Kabupaten Bengkayang",KALIMANTAN BARAT,79214.0,Indonesia, 085245242963,,,0.8180812,109.4819016,https://maps.google.com/?cid=0x0:0xf318e8d5ea494642,
supermarket,supermarket,Kalimantan Barat 79213,"Kec. Bengkayang, Kabupaten Bengkayang, Kalimantan Barat","Kabupaten Bengkayang, Kalimantan Barat",KALIMANTAN BARAT,,Indonesia,,,,0.7864221,109.4794564,https://maps.google.com/?cid=0x0:0xe59696e01cc59642,
supermarket,Toko Swalayan,Tristar,"Rachma, Jl. Basuki Rachmat No.155, Malo Jelayan, Kec. Teriak, Kabupaten Bengkayang, Kalimantan Barat 79214","Jl. Basuki Rachmat No.155, Malo Jelayan, Kec. Teriak, Kabupaten Bengkayang",KALIMANTAN BARAT,79214.0,Indonesia,,,,0.816423,109.4895399,https://maps.google.com/?cid=0x0:0xc272b2fe5d4a2f0a,
supermarket,Pusat Perbelanjaan,Banli Mart,"Bumi Amas, Kec. Bengkayang, Kabupaten Bengkayang, Kalimantan Barat 79211","Kec. Bengkayang, Kabupaten Bengkayang",KALIMANTAN BARAT,79211.0,Indonesia,,,,0.8252792,109.483359,https://maps.google.com/?cid=0x0:0x4812752f286b6eef,
supermarket,Toko bahan makanan,Warung JENZ,"QCVV+6WM, Tirta Kencana, Kec. Bengkayang, Kabupaten Bengkayang, Kalimantan Barat 79211","Tirta Kencana, Kec. Bengkayang, Kabupaten Bengkayang",KALIMANTAN BARAT,79211.0,Indonesia, 085705513555,,,0.7930774,109.444783,https://maps.google.com/?cid=0x0:0x9c9d42c73da336df,
supermarket,Minimarket,Alfamart,"Rahmat, Jl. Basuki Rachmat Desa, Bumi Amas, Kec. Bengkayang, Kab. Bengkayang, Kalimantan Barat 79212","Jl. Basuki Rachmat Desa, Bumi Amas, Kec. Bengkayang, Kab. Bengkayang",KALIMANTAN BARAT,79212.0,Indonesia, 1500959,,,0.8166442,109.4896507,https://maps.google.com/?cid=0x0:0xb453d229238780c0,
supermarket,Toko Swalayan,Henz Dong,"RF8J+V3J, Jl. Gereja, Malo Jelayan, Kec. Teriak, Kabupaten Bengkayang, Kalimantan Barat 79214","Jl. Gereja, Malo Jelayan, Kec. Teriak, Kabupaten Bengkayang",KALIMANTAN BARAT,79214.0,Indonesia, 089523033427,,,0.8172066,109.480154,https://maps.google.com/?cid=0x0:0xa9dad01c7a7b115d,
supermarket,Pusat Bisnis,Mangala Sip,"RG62+2VX, Jl. Basuki Rachmat, Malo Jelayan, Kec. Teriak, Kabupaten Bengkayang, Kalimantan Barat 79214","Jl. Basuki Rachmat, Malo Jelayan, Kec. Teriak, Kabupaten Bengkayang",KALIMANTAN BARAT,79214.0,Indonesia, 085750297011,,,0.8101062,109.5022227,https://maps.google.com/?cid=0x0:0x5e4898240e731c72,
supermarket,Toko Swalayan,wijaya asri mandiri,"PGX3+GMW, Benteng, Kec. Teriak, Kabupaten Bengkayang, Kalimantan Barat 79214","Benteng, Kec. Teriak, Kabupaten Bengkayang",KALIMANTAN BARAT,79214.0,Indonesia,,,,0.7488736,109.504191,https://maps.google.com/?cid=0x0:0x9058aa8bb6b336eb,
supermarket,Toko umum,Warung kakek Tukong,"QCVW+GQ3, Dusun Lamat Payang, Tirta Kencana, Kec. Bengkayang, Kabupaten Bengkayang, Kalimantan Barat","Kabupaten Bengkayang, Kalimantan Barat",KALIMANTAN BARAT,,Indonesia,,,,0.7937625,109.4469264,https://maps.google.com/?cid=0x0:0xe9278acf07caa869,
supermarket,supermarket,Kec. Capkala,"Kabupaten Bengkayang, Kalimantan Barat","Kabupaten Bengkayang, Kalimantan Barat",KALIMANTAN BARAT,,Indonesia,,,,0.6465345,108.9900358,https://maps.google.com/?cid=0x0:0x7cd114d25e819b7f,
supermarket,Toko,Toko bukit kaimantan,"M3M7+HPW, Capkala, Kec. Capkala, Kabupaten Bengkayang, Kalimantan Barat 79271","Capkala, Kec. Capkala, Kabupaten Bengkayang",KALIMANTAN BARAT,79271.0,Indonesia,,,,0.6839769,109.0643313,https://maps.google.com/?cid=0x0:0x8fa8a24e102f3b02,
supermarket,Komplek perumahan,Capkala,"JXWR+J2R, Sabandut, Kec. Capkala, Kabupaten Bengkayang, Kalimantan Barat 79271","Sabandut, Kec. Capkala, Kabupaten Bengkayang",KALIMANTAN BARAT,79271.0,Indonesia,,,,0.6466129,108.9900178,https://maps.google.com/?cid=0x0:0xa14892ec556cf318,
supermarket,Toko bahan makanan,Toko MLG,"P327+993, Serindu, Kec. Monterado, Kabupaten Bengkayang, Kalimantan Barat 79181","Serindu, Kec. Monterado, Kabupaten Bengkayang",KALIMANTAN BARAT,79181.0,Indonesia,,,,0.7008994,109.0634161,https://maps.google.com/?cid=0x0:0xae66d0506ef04b39,
supermarket,Toko Swalayan,Toko Fajar - Sungai Jaga A,"Jl. Sei Duri - Singkawang, Sungai Jaga A, Kec. Sungai Raya, Kabupaten Bengkayang, Kalimantan Barat 79271","Sungai Jaga A, Kec. Sungai Raya, Kabupaten Bengkayang",KALIMANTAN BARAT,79271.0,Indonesia,,,,0.6049276,108.9308946,https://maps.google.com/?cid=0x0:0x87077ba25c624d6b,
supermarket,Toko,Warung ibu idris,"JXWQ+9MJ, Jl. Raya Capkala, Sabandut, Kec. Capkala, Kabupaten Bengkayang, Kalimantan Barat 79271","Jl. Raya Capkala, Sabandut, Kec. Capkala, Kabupaten Bengkayang",KALIMANTAN BARAT,79271.0,Indonesia,,,,0.6462035,108.9893974,https://maps.google.com/?cid=0x0:0xe720b1f26556b882,
supermarket,Toko bahan makanan,Toko Lucky,"JWXW+346, Jl. Pangkalan Makmur, Sungai Pangkalan II, Kec. Sungai Raya, Kabupaten Bengkayang, Kalimantan Barat 79271","Jl. Pangkalan Makmur, Sungai Pangkalan II, Kec. Sungai Raya, Kabupaten Bengkayang",KALIMANTAN BARAT,79271.0,Indonesia,,,,0.6476689,108.9452503,https://maps.google.com/?cid=0x0:0x3b3be48e63584416,
supermarket,Kafe,Warung Paklek,"Rukma Jaya, Sungai Raya Kepulauan, Kabupaten Bengkayang, Kalimantan Barat 79271","Sungai Raya Kepulauan, Kabupaten Bengkayang",KALIMANTAN BARAT,79271.0,Indonesia,,,,0.6766162,108.9368051,https://maps.google.com/?cid=0x0:0x578ec7893ea04e31,
supermarket,supermarket,Rumah Petani Cabai Pak Bani,"M328+G7R, RT.Sp/RW.1, Capkala, Kec. Capkala, Kabupaten Bengkayang, Kalimantan Barat 79271","RT.Sp/RW.1, Capkala, Kec. Capkala, Kabupaten Bengkayang",KALIMANTAN BARAT,79271.0,Indonesia, 081335588114,,,0.6508643,109.0647906,https://maps.google.com/?cid=0x0:0x8953923b0f20ab5e,
supermarket,supermarket,Kalimantan Barat 79286,"Kabupaten Bengkayang, Kalimantan Barat","Kabupaten Bengkayang, Kalimantan Barat",KALIMANTAN BARAT,,Indonesia,,,,1.3209538,109.9020509,https://maps.google.com/?cid=0x0:0xe90d3fed88f115f,
supermarket,Minimarket,Indomaret Simpang Empat Raya Jagoi Babang (Jl. Dwikora),"8VGM+299, Jagoi, Take, Kabupaten Bengkayang, Kalimantan Barat 79286","Jagoi, Take, Kabupaten Bengkayang",KALIMANTAN BARAT,79286.0,Indonesia,,,,1.3250507,109.8836493,https://maps.google.com/?cid=0x0:0xf5db046c261efc4c,
supermarket,Kantor Perusahaan,air minun mineral galon abadi gua,"7VM3+4RQ, Jagoi, Kec. Jagoi Babang, Kabupaten Bengkayang, Kalimantan Barat 79286","Jagoi, Kec. Jagoi Babang, Kabupaten Bengkayang",KALIMANTAN BARAT,79286.0,Indonesia, 082148205981,,,1.2828346,109.8545996,https://maps.google.com/?cid=0x0:0x86aacdc9573e3012,
supermarket,Gudang,Gudang Erna,"8WJM+R75, Sekida, Kec. Jagoi Babang, Kabupaten Bengkayang, Kalimantan Barat 79286","Sekida, Kec. Jagoi Babang, Kabupaten Bengkayang",KALIMANTAN BARAT,79286.0,Indonesia,,,,1.332008,109.9332396,https://maps.google.com/?cid=0x0:0x778260cc4be25a3b,
supermarket,Pangkalan Militer,PLBN Jagoi Babang,"Jl. Dwikora, Lhi Buie, Kec. Jagoi Babang, Kabupaten Bengkayang, Kalimantan Barat 79286","Lhi Buie, Kec. Jagoi Babang, Kabupaten Bengkayang",KALIMANTAN BARAT,79286.0,Indonesia,,,,1.3200299,109.9650815,https://maps.google.com/?cid=0x0:0x205d0a29fffe53c7,
supermarket,Pasar,Mini Market Victory Sei Take,"8VGM+299, Jagoi, Take, Kabupaten Bengkayang, Kalimantan Barat 79286","Jagoi, Take, Kabupaten Bengkayang",KALIMANTAN BARAT,79286.0,Indonesia,,,,1.3250443,109.8834947,https://maps.google.com/?cid=0x0:0x1eb7d9a883ededfd,
supermarket,Toko,Pasar Inpres Sei Take,"8VFJ+VWP, Dsn Sei Take, Sekida, Kec. Jagoi Babang, Kabupaten Bengkayang, Kalimantan Barat 79286","Dsn Sei Take, Sekida, Kec. Jagoi Babang, Kabupaten Bengkayang",KALIMANTAN BARAT,79286.0,Indonesia,,,,1.3247001,109.8823226,https://maps.google.com/?cid=0x0:0xb7ae9ac932140df7,
supermarket,Toko,Toko Karya Abadi Nojiam Jagoi Babang,"8WJP+945, Jl. Dwikora, Sekida, Kec. Jagoi Babang, Kabupaten Bengkayang, Kalimantan Barat 79286","Jl. Dwikora, Sekida, Kec. Jagoi Babang, Kabupaten Bengkayang",KALIMANTAN BARAT,79286.0,Indonesia, 082350317976,,,1.3308861,109.9353488,https://maps.google.com/?cid=0x0:0x1666782a851df7d1,
supermarket,Toko,Minimarket Jendi,"8WJP+G6G, Jl. Dwikora, Sekida, Kec. Jagoi Babang, Kabupaten Bengkayang, Kalimantan Barat 79286","Jl. Dwikora, Sekida, Kec. Jagoi Babang, Kabupaten Bengkayang",KALIMANTAN BARAT,79286.0,Indonesia,,,,1.3313184,109.9355861,https://maps.google.com/?cid=0x0:0xdca0dd1752d1cc8,
supermarket,Pusat Perbelanjaan,Toko CKN sembako,"Jl. Dwikora, Jagoi, Kec. Seluas, Kabupaten Bengkayang, Kalimantan Barat 79286","Jagoi, Kec. Seluas, Kabupaten Bengkayang",KALIMANTAN BARAT,79286.0,Indonesia, 082153488719,,,1.2829039,109.85566,https://maps.google.com/?cid=0x0:0xb8b04331d9db5553,
supermarket,Pos Perbatasan Negara,Bea Cukai Jagoi Babang,"Jl. Dwikora No.02, Lhi Buie, Kec. Jagoi Babang, Kabupaten Bengkayang, Kalimantan Barat 79286","Lhi Buie, Kec. Jagoi Babang, Kabupaten Bengkayang",KALIMANTAN BARAT,79286.0,Indonesia, 085163739200,,,1.3241097,109.9544213,https://maps.google.com/?cid=0x0:0xbd88a17c1a775acd,
supermarket,Toko bahan makanan,Toko Riski,"8VGM+7G9, Jl. Paralel Perbatasan, Sekida, Kec. Jagoi Babang, Kabupaten Bengkayang, Kalimantan Barat 79286","Jl. Paralel Perbatasan, Sekida, Kec. Jagoi Babang, Kabupaten Bengkayang",KALIMANTAN BARAT,79286.0,Indonesia,,,,1.3256735,109.8838571,https://maps.google.com/?cid=0x0:0xf21943f126e2d2b3,
supermarket,Toko bahan makanan,SRC Divall,"Jl. Dwikora, Sentangau Jaya, Kec. Seluas, Kabupaten Bengkayang, Kalimantan Barat 79285","Sentangau Jaya, Kec. Seluas, Kabupaten Bengkayang",KALIMANTAN BARAT,79285.0,Indonesia,,,,1.2527402,109.8268703,https://maps.google.com/?cid=0x0:0x9e5c65855d58df04,
supermarket,,TOKO CENTRAL BUAH 4,"8VGM+26F, Jl. Dwikora, Sekida, Kec. Jagoi Babang, Kabupaten Bengkayang, Kalimantan Barat 79286","Jl. Dwikora, Sekida, Kec. Jagoi Babang, Kabupaten Bengkayang",KALIMANTAN BARAT,79286.0,Indonesia,,,,1.3250619,109.8830448,https://maps.google.com/?cid=0x0:0x49087d6f6c58c607,
supermarket,Toko,Roomah Nj,"8VGP+H2R, Jl. Paralel Perbatasan, Sekida, Kec. Jagoi Babang, Kabupaten Bengkayang, Kalimantan Barat 79286","Jl. Paralel Perbatasan, Sekida, Kec. Jagoi Babang, Kabupaten Bengkayang",KALIMANTAN BARAT,79286.0,Indonesia,,,,1.326488,109.8850088,https://maps.google.com/?cid=0x0:0x4269375f5eda495b,
supermarket,Toko Swalayan,ASSA MART,"Sahan, Kec. Seluas, Kabupaten Bengkayang, Kalimantan Barat 79285","Kec. Seluas, Kabupaten Bengkayang",KALIMANTAN BARAT,79285.0,Indonesia, 082113272277,,,1.1513147,109.7009969,https://maps.google.com/?cid=0x0:0xc1a9eb04b72a71ff,
supermarket,Toko bahan makanan,TOKO FAHRI,"8VGM+5JM, Jl. Paralel Perbatasan, Sekida, Kec. Jagoi Babang, Kabupaten Bengkayang, Kalimantan Barat 79286","Jl. Paralel Perbatasan, Sekida, Kec. Jagoi Babang, Kabupaten Bengkayang",KALIMANTAN BARAT,79286.0,Indonesia,,,,1.3254553,109.8840388,https://maps.google.com/?cid=0x0:0x36dc83eb237172ff,
supermarket,Toko,Toko sembako,"7VP6+XVJ, Jagoi, Kec. Jagoi Babang, Kabupaten Bengkayang, Kalimantan Barat","Kabupaten Bengkayang, Kalimantan Barat",KALIMANTAN BARAT,,Indonesia,,,,1.2874549,109.8621507,https://maps.google.com/?cid=0x0:0xaeeddbac6b26f85b,
supermarket,Komplek perumahan,Jagoi babang,"7VV6+C8G, Jl. Dwikora, Jagoi, Kec. Jagoi Babang, Kabupaten Bengkayang, Kalimantan Barat","Kabupaten Bengkayang, Kalimantan Barat",KALIMANTAN BARAT,,Indonesia,,,,1.2935553,109.8608355,https://maps.google.com/?cid=0x0:0x68eb40f5ece36ff7,
supermarket,Toko umum,"Toserba Mitra Jaya (cv, MJM)","kp jawa, Kec. Sanggau Ledo, Kabupaten Bengkayang, Kalimantan Barat 79285","Kec. Sanggau Ledo, Kabupaten Bengkayang",KALIMANTAN BARAT,79285.0,Indonesia, 081348052626,,,1.1224109,109.6932201,https://maps.google.com/?cid=0x0:0xaa7a82c20b5a2845,
supermarket,Dapur Umum,Warung Pak Dollyo,"8XF4+MMW, Lhi Buie, Kec. Siding, Kabupaten Bengkayang, Kalimantan Barat 79286","Lhi Buie, Kec. Siding, Kabupaten Bengkayang",KALIMANTAN BARAT,79286.0,Indonesia,,,,1.3242268,109.9567056,https://maps.google.com/?cid=0x0:0x8d90a338e0f9599,
supermarket,Perusahaan Konstruksi,PT KSS Jagoi Babang,"8VMH+GR8, Sekida, Kec. Jagoi Babang, Kabupaten Bengkayang, Kalimantan Barat 79286","Sekida, Kec. Jagoi Babang, Kabupaten Bengkayang",KALIMANTAN BARAT,79286.0,Indonesia,,,,1.3337823,109.8795777,https://maps.google.com/?cid=0x0:0xd8478301c6fc8a7c,
supermarket,Toko Swalayan,Warung Sinten,"4QXW+3M5, Jl. Riam Berawan, Bengkawan, Kec. Seluas, Kabupaten Bengkayang, Kalimantan Barat 79285","Jl. Riam Berawan, Bengkawan, Kec. Seluas, Kabupaten Bengkayang",KALIMANTAN BARAT,79285.0,Indonesia,,,,1.1476264,109.7967276,https://maps.google.com/?cid=0x0:0x7c4879e2bcd05ccf,
supermarket,Toko bahan makanan,SRI- M,"3HCR+9PV SRI M, Jesape, Kec. Ledo, Kabupaten Bengkayang, Kalimantan Barat 79283","Jesape, Kec. Ledo, Kabupaten Bengkayang",KALIMANTAN BARAT,79283.0,Indonesia,,,,1.0709943,109.5918119,https://maps.google.com/?cid=0x0:0x5dc4b9499d55b994,
supermarket,Minimarket,toko Usmanto,"2JP3+9WM, Jesape, Kec. Ledo, Kabupaten Bengkayang, Kalimantan Barat 79283","Jesape, Kec. Ledo, Kabupaten Bengkayang",KALIMANTAN BARAT,79283.0,Indonesia, 082151679580,,,1.0359639,109.6047981,https://maps.google.com/?cid=0x0:0xdaf844c0541a7713,
supermarket,Toko,Toko Heri,"2JM3+7XV, Jesape, Kec. Ledo, Kabupaten Bengkayang, Kalimantan Barat 79283","Jesape, Kec. Ledo, Kabupaten Bengkayang",KALIMANTAN BARAT,79283.0,Indonesia,,,,1.0332257,109.604926,https://maps.google.com/?cid=0x0:0x561603f478e323c5,
supermarket,Pom bensin/SPBU,Pasar Sanggau Ledo,"2JG3+PMR, Jl. Lintas Kalimantan Poros Utara, Dayung, Kec. Ledo, Kabupaten Bengkayang, Kalimantan Barat 79283","Jl. Lintas Kalimantan Poros Utara, Dayung, Kec. Ledo, Kabupaten Bengkayang",KALIMANTAN BARAT,79283.0,Indonesia,,,,1.0268606,109.6041289,https://maps.google.com/?cid=0x0:0x62cc4ae93e2dfc71,
supermarket,Minimarket,TANJUNG MARKET,"Lembang, Kec. Sanggau Ledo, Kabupaten Bengkayang, Kalimantan Barat","Kabupaten Bengkayang, Kalimantan Barat",KALIMANTAN BARAT,,Indonesia, 085754383799,,,1.1520237,109.7040136,https://maps.google.com/?cid=0x0:0x8bc08200bd6f2a7f,
supermarket,Minimarket,Indomaret Ledo,"2JQ4+4J9, Jl. Subah - Ledo Semangat, Jesape, Kec. Ledo, Kabupaten Bengkayang, Kalimantan Barat 79283","Jl. Subah - Ledo Semangat, Jesape, Kec. Ledo, Kabupaten Bengkayang",KALIMANTAN BARAT,79283.0,Indonesia,,,,1.0377892,109.6065949,https://maps.google.com/?cid=0x0:0xc1bf3755c7a55006,
supermarket,Minimarket,Alfamart,"Jl. Raya Sanggau Ledo, Sebalo, Kec. Bengkayang, Kab. Bengkayang, Kalimantan Barat 79211","Sebalo, Kec. Bengkayang, Kab. Bengkayang",KALIMANTAN BARAT,79211.0,Indonesia, 1500959,,,0.8363505,109.4918987,https://maps.google.com/?cid=0x0:0x639459d7e4058cfe,
supermarket,Minimarket,Indomaret Sanggau Ledo 86,"Jl. Raya Sanggau Ledo No.124, Sahan, Kec. Seluas, Kabupaten Bengkayang, Kalimantan Barat 79285","Sahan, Kec. Seluas, Kabupaten Bengkayang",KALIMANTAN BARAT,79285.0,Indonesia,,,,1.1373124,109.6952842,https://maps.google.com/?cid=0x0:0xc58801c101780a2e,
supermarket,Minimarket,Alfamart Sanggau Ledo,"4MPW+Q2H, Sahan, Kec. Seluas, Kabupaten Bengkayang, Kalimantan Barat 79285","Sahan, Kec. Seluas, Kabupaten Bengkayang",KALIMANTAN BARAT,79285.0,Indonesia,,,,1.1369326,109.6951208,https://maps.google.com/?cid=0x0:0x516f69d91e912ed0,
supermarket,supermarket,Ledo,"Dayung, Kec. Ledo, Kabupaten Bengkayang, Kalimantan Barat","Kabupaten Bengkayang, Kalimantan Barat",KALIMANTAN BARAT,,Indonesia,,,,1.031526,109.604103,https://maps.google.com/?cid=0x0:0x756427053e18fd33,
supermarket,Minimarket,Alfamart Ledo,"2JQ4+5PM, Jesape, Kec. Ledo, Kabupaten Bengkayang, Kalimantan Barat 79283","Jesape, Kec. Ledo, Kabupaten Bengkayang",KALIMANTAN BARAT,79283.0,Indonesia,,,,1.0378364,109.6068681,https://maps.google.com/?cid=0x0:0x61a4460fdb5b7f36,
supermarket,supermarket,Lembah Bawang,"Kec. Lembah Bawang, Kabupaten Bengkayang, Kalimantan Barat","Kabupaten Bengkayang, Kalimantan Barat",KALIMANTAN BARAT,,Indonesia,,,,0.9676428,109.2772057,https://maps.google.com/?cid=0x0:0xf1e5c6d8cdd0ccbe,
supermarket,Kedai Kopi,Simpang Pelanduk/Lembah Bawang,"V9C3+38H, Suka Bangun, Kec. Sungai Betung, Kabupaten Bengkayang, Kalimantan Barat 79211","Suka Bangun, Kec. Sungai Betung, Kabupaten Bengkayang",KALIMANTAN BARAT,79211.0,Indonesia,,,,0.8701833,109.3533601,https://maps.google.com/?cid=0x0:0xb007cca0ee1f0aeb,
supermarket,Toko,Warung Budhe,"X6P2+FM8, Buduk Sempadang, Kec. Selakau Tim., Kabupaten Sambas, Kalimantan Barat 79452","Buduk Sempadang, Kec. Selakau Tim., Kabupaten Sambas",KALIMANTAN BARAT,79452.0,Indonesia, 085752711619,,,0.9864425,109.2017093,https://maps.google.com/?cid=0x0:0x9212be9972f63737,
supermarket,Pusat Perbelanjaan,Banli Mart,"Bumi Amas, Kec. Bengkayang, Kabupaten Bengkayang, Kalimantan Barat 79211","Kec. Bengkayang, Kabupaten Bengkayang",KALIMANTAN BARAT,79211.0,Indonesia,,,,0.8252792,109.483359,https://maps.google.com/?cid=0x0:0x4812752f286b6eef,
supermarket,Pusat Perbelanjaan,Lala mart,"RFWW+G7J, Jl. Raya Sanggau Ledo, Bani Amas, Kec. Bengkayang, Kabupaten Bengkayang, Kalimantan Barat 79211","Jl. Raya Sanggau Ledo, Bani Amas, Kec. Bengkayang, Kabupaten Bengkayang",KALIMANTAN BARAT,79211.0,Indonesia,,,,0.8463421,109.4956476,https://maps.google.com/?cid=0x0:0xd0b5e78a4db26047,
supermarket,supermarket,Kalimantan Barat 79283,"Kabupaten Bengkayang, Kalimantan Barat","Kabupaten Bengkayang, Kalimantan Barat",KALIMANTAN BARAT,,Indonesia,,,,0.9622491,109.4259114,https://maps.google.com/?cid=0x0:0xd9b7a2355ab52b5e,
supermarket,Toko bahan makanan,SRI- M,"3HCR+9PV SRI M, Jesape, Kec. Ledo, Kabupaten Bengkayang, Kalimantan Barat 79283","Jesape, Kec. Ledo, Kabupaten Bengkayang",KALIMANTAN BARAT,79283.0,Indonesia,,,,1.0709943,109.5918119,https://maps.google.com/?cid=0x0:0x5dc4b9499d55b994,
supermarket,Minimarket,toko Usmanto,"2JP3+9WM, Jesape, Kec. Ledo, Kabupaten Bengkayang, Kalimantan Barat 79283","Jesape, Kec. Ledo, Kabupaten Bengkayang",KALIMANTAN BARAT,79283.0,Indonesia, 082151679580,,,1.0359639,109.6047981,https://maps.google.com/?cid=0x0:0xdaf844c0541a7713,
supermarket,Toko Swalayan,ASSA MART,"Sahan, Kec. Seluas, Kabupaten Bengkayang, Kalimantan Barat 79285","Kec. Seluas, Kabupaten Bengkayang",KALIMANTAN BARAT,79285.0,Indonesia, 082113272277,,,1.1513147,109.7009969,https://maps.google.com/?cid=0x0:0xc1a9eb04b72a71ff,
supermarket,Toko bahan makanan,Toko Mayora,"Jl. Jerendeng Abdul Rahman No.76, Bumi Amas, Kec. Bengkayang, Kabupaten Bengkayang, Kalimantan Barat 79211","Bumi Amas, Kec. Bengkayang, Kabupaten Bengkayang",KALIMANTAN BARAT,79211.0,Indonesia,,,,0.8193249,109.4817464,https://maps.google.com/?cid=0x0:0xbfda3ccf86f5e8b5,
supermarket,Pusat Perbelanjaan,Lala mart,"RFWW+G7J, Jl. Raya Sanggau Ledo, Bani Amas, Kec. Bengkayang, Kabupaten Bengkayang, Kalimantan Barat 79211","Jl. Raya Sanggau Ledo, Bani Amas, Kec. Bengkayang, Kabupaten Bengkayang",KALIMANTAN BARAT,79211.0,Indonesia,,,,0.8463421,109.4956476,https://maps.google.com/?cid=0x0:0xd0b5e78a4db26047,
supermarket,Toko bahan makanan,Toko mitra usaha,"5M2X+4M4, Sahan, Kec. Seluas, Kabupaten Bengkayang, Kalimantan Barat 79285","Sahan, Kec. Seluas, Kabupaten Bengkayang",KALIMANTAN BARAT,79285.0,Indonesia,,,,1.1502551,109.6991897,https://maps.google.com/?cid=0x0:0xaab2d0363e8f7b03,
supermarket,Toko umum,"Toserba Mitra Jaya (cv, MJM)","kp jawa, Kec. Sanggau Ledo, Kabupaten Bengkayang, Kalimantan Barat 79285","Kec. Sanggau Ledo, Kabupaten Bengkayang",KALIMANTAN BARAT,79285.0,Indonesia, 081348052626,,,1.1224109,109.6932201,https://maps.google.com/?cid=0x0:0xaa7a82c20b5a2845,
supermarket,Pusat Perbelanjaan,Banli Mart,"Bumi Amas, Kec. Bengkayang, Kabupaten Bengkayang, Kalimantan Barat 79211","Kec. Bengkayang, Kabupaten Bengkayang",KALIMANTAN BARAT,79211.0,Indonesia,,,,0.8252792,109.483359,https://maps.google.com/?cid=0x0:0x4812752f286b6eef,
supermarket,Toko,Toko Sembako Maju Jaya,"2JP3+7V7, Jesape, Kec. Ledo, Kabupaten Bengkayang, Kalimantan Barat 79283","Jesape, Kec. Ledo, Kabupaten Bengkayang",KALIMANTAN BARAT,79283.0,Indonesia, 085787516206,,,1.0356637,109.6046682,https://maps.google.com/?cid=0x0:0x237ed5df89130b5d,
supermarket,Minimarket,Multi Market,"RF9M+V89, Malo Jelayan, Kec. Teriak, Kabupaten Bengkayang, Kalimantan Barat 79214","Malo Jelayan, Kec. Teriak, Kabupaten Bengkayang",KALIMANTAN BARAT,79214.0,Indonesia,,,,0.8196526,109.4833503,https://maps.google.com/?cid=0x0:0x6b9fea64d5765190,
supermarket,Toko,Warung sembako Mbak Wulan,"4J72+R9H, Sukajaya, Kec. Ledo, Kabupaten Bengkayang, Kalimantan Barat 79284","Sukajaya, Kec. Ledo, Kabupaten Bengkayang",KALIMANTAN BARAT,79284.0,Indonesia,,,,1.1145639,109.6009746,https://maps.google.com/?cid=0x0:0x5eabcd27f9dd450a,
supermarket,Toko,RUKO SUKMI,"Mayak, Kec. Seluas, Kabupaten Bengkayang, Kalimantan Barat 79285","Kec. Seluas, Kabupaten Bengkayang",KALIMANTAN BARAT,79285.0,Indonesia, 085750130029,,,1.2214417,109.7986083,https://maps.google.com/?cid=0x0:0x55b63f160967dfed,
supermarket,Toko bahan makanan,Yammy Fresh Mart,"RFMQ+HQH, Bani Amas, Kec. Bengkayang, Kabupaten Bengkayang, Kalimantan Barat 79211","Bani Amas, Kec. Bengkayang, Kabupaten Bengkayang",KALIMANTAN BARAT,79211.0,Indonesia,,,,0.8342504,109.4895877,https://maps.google.com/?cid=0x0:0x7887bceb553e879e,
supermarket,Toko,Toko Heri,"2JM3+7XV, Jesape, Kec. Ledo, Kabupaten Bengkayang, Kalimantan Barat 79283","Jesape, Kec. Ledo, Kabupaten Bengkayang",KALIMANTAN BARAT,79283.0,Indonesia,,,,1.0332257,109.604926,https://maps.google.com/?cid=0x0:0x561603f478e323c5,
supermarket,Toko bahan makanan,Duta Jaya,"Jl. Raya Sanggau Ledo No.116, Bani Amas, Kec. Bengkayang, Kabupaten Bengkayang, Kalimantan Barat 79211","Bani Amas, Kec. Bengkayang, Kabupaten Bengkayang",KALIMANTAN BARAT,79211.0,Indonesia, 081256650899,,,0.8422756,109.4924973,https://maps.google.com/?cid=0x0:0x793c26d607a04965,
supermarket,Dapur Umum,Warung Kak Long,"Lesabela, Kec. Ledo, Kabupaten Bengkayang, Kalimantan Barat 79283","Kec. Ledo, Kabupaten Bengkayang",KALIMANTAN BARAT,79283.0,Indonesia, 089670475805,,,1.0369069,109.6110289,https://maps.google.com/?cid=0x0:0x6e3eb067b6e6607,
supermarket,Toko Swalayan,Toko Kharisma,"4M8R+VMR, Sahan, Kec. Seluas, Kabupaten Bengkayang, Kalimantan Barat 79285","Sahan, Kec. Seluas, Kabupaten Bengkayang",KALIMANTAN BARAT,79285.0,Indonesia,,,,1.1172406,109.6916303,https://maps.google.com/?cid=0x0:0x67d01e870c158222,
supermarket,Toko Swalayan,Toko Mitra Usaha,"VGC5+3G3, Sebalo, Kec. Bengkayang, Kabupaten Bengkayang, Kalimantan Barat 79211","Sebalo, Kec. Bengkayang, Kabupaten Bengkayang",KALIMANTAN BARAT,79211.0,Indonesia, 081345316585,,,0.8701328,109.5087931,https://maps.google.com/?cid=0x0:0x3dd9bae9c3764410,
supermarket,Minimarket,Kios Resmi Tiang Tani Bp. Tumono,"5HH3+CX5, Danti, Kec. Sanggau Ledo, Kabupaten Bengkayang, Kalimantan Barat 79284","Danti, Kec. Sanggau Ledo, Kabupaten Bengkayang",KALIMANTAN BARAT,79284.0,Indonesia, 085960359931,,,1.1785218,109.5549975,https://maps.google.com/?cid=0x0:0xc03069c7ee8a5ac2,
supermarket,Kedai Kopi,Waroeng Khayla,"Sebalo, Kec. Bengkayang, Kabupaten Bengkayang, Kalimantan Barat","Kabupaten Bengkayang, Kalimantan Barat",KALIMANTAN BARAT,,Indonesia,,,,0.889538,109.5003593,https://maps.google.com/?cid=0x0:0xb7dceab50064cde1,
supermarket,Bengkel Mobil,Hotto Jaya Motor,"4MGV+8CV, Sahan, Kec. Seluas, Kabupaten Bengkayang, Kalimantan Barat 79285","Sahan, Kec. Seluas, Kabupaten Bengkayang",KALIMANTAN BARAT,79285.0,Indonesia, 082253372098,,,1.1258684,109.6935395,https://maps.google.com/?cid=0x0:0xa08503adeae799a2,
supermarket,Toko Pakan Hewan,Fat Cat Pet Store,"Jl. Sirnagalih No.17, RT.02/RW.07, Loji, Kec. Bogor Bar., Kota Bogor, Jawa Barat 16117","RT.02/RW.07, Loji, Kec. Bogor Bar., Kota Bogor",KALIMANTAN BARAT,16117.0,Indonesia, 085920705818,,,-6.5929959,106.7699035,https://maps.google.com/?cid=0x0:0x4bd9fff078f172b0,
supermarket,Toko Perlengkapan Hewan Peliharaan,Go Petshop,"Jl. Cibalok No.25, RT.03/RW.02, Pabaton, Kecamatan Bogor Tengah, Kota Bogor, Jawa Barat 16121","RT.03/RW.02, Pabaton, Kecamatan Bogor Tengah, Kota Bogor",KALIMANTAN BARAT,16121.0,Indonesia, 087822318669,,,-6.5899483,106.7946397,https://maps.google.com/?cid=0x0:0xf416c54ac2392ed8,
supermarket,Toko,Alfamart Monterado,"Q44P+GF, Nek Ginap, Kec. Monterado, Kabupaten Bengkayang, Kalimantan Barat 79181","Nek Ginap, Kec. Monterado, Kabupaten Bengkayang",KALIMANTAN BARAT,79181.0,Indonesia,,,,0.7563331,109.1361652,https://maps.google.com/?cid=0x0:0x978f748fd788fa69,
supermarket,supermarket,Monterado,"Nek Ginap, Kec. Monterado, Kabupaten Bengkayang, Kalimantan Barat","Kabupaten Bengkayang, Kalimantan Barat",KALIMANTAN BARAT,,Indonesia,,,,0.7565809,109.1343,https://maps.google.com/?cid=0x0:0xf2b03ef6930a9cf9,
supermarket,Toko bahan makanan,Toko MLG,"P327+993, Serindu, Kec. Monterado, Kabupaten Bengkayang, Kalimantan Barat 79181","Serindu, Kec. Monterado, Kabupaten Bengkayang",KALIMANTAN BARAT,79181.0,Indonesia,,,,0.7008994,109.0634161,https://maps.google.com/?cid=0x0:0xae66d0506ef04b39,
supermarket,Kedai Kopi,Warung We' Epo,"R5PF+GQV, Unnamed Road, Beringin Baru, Kec. Monterado, Kabupaten Bengkayang, Kalimantan Barat 79181","Unnamed Road, Beringin Baru, Kec. Monterado, Kabupaten Bengkayang",KALIMANTAN BARAT,79181.0,Indonesia,,,,0.8363726,109.1744362,https://maps.google.com/?cid=0x0:0x4f2704369f710e88,
supermarket,Toko bahan makanan,MUSTIKA JAYA,"Q48F+P53, bonglitung, Kec. Monterado, Kabupaten Bengkayang, Kalimantan Barat","Kabupaten Bengkayang, Kalimantan Barat",KALIMANTAN BARAT,,Indonesia,,,,0.7667611,109.1229117,https://maps.google.com/?cid=0x0:0xda87bf3dcf8351c8,
supermarket,Toko Pakaian,Toko ALTA Samalantan,"Q5VW+X4V, Dusun Samano, Marunsu, Samalantan, Bengkayang Regency, West Kalimantan 79281","Dusun Samano, Marunsu, Samalantan, Bengkayang Regency",KALIMANTAN BARAT,79281.0,Indonesia,,,,0.7949937,109.1952846,https://maps.google.com/?cid=0x0:0x6968066f8f6aa42d,
supermarket,supermarket,Samalantan,"Marunsu, Kec. Samalantan, Kabupaten Bengkayang, Kalimantan Barat","Kabupaten Bengkayang, Kalimantan Barat",KALIMANTAN BARAT,,Indonesia,,,,0.791129,109.195999,https://maps.google.com/?cid=0x0:0x3190b8d20c33f6ae,
supermarket,Minimarket,Indomaret Marunsu Samalantan,"Q6W3+H2, Jl. Raya Singkawang-Bengkayang, Marunsu, Kec. Samalantan, Kabupaten Bengkayang, Kalimantan Barat 79281","Jl. Raya Singkawang-Bengkayang, Marunsu, Kec. Samalantan, Kabupaten Bengkayang",KALIMANTAN BARAT,79281.0,Indonesia,,,,0.7964092,109.2025975,https://maps.google.com/?cid=0x0:0xaf6044678435b3d5,
supermarket,Kedai Kopi,Kantin SDN 1 samalantan,"Q5WR+9PP, Marunsu, Kec. Samalantan, Kabupaten Bengkayang, Kalimantan Barat 79281","Marunsu, Kec. Samalantan, Kabupaten Bengkayang",KALIMANTAN BARAT,79281.0,Indonesia,,,,0.7959625,109.1918331,https://maps.google.com/?cid=0x0:0xa640add667e95962,
supermarket,supermarket,Jalan raya samalantan samping kedai Runcit,"Jalan Raya, Marunsu, Kec. Samalantan, Kabupaten Bengkayang, Kalimantan Barat","Kabupaten Bengkayang, Kalimantan Barat",KALIMANTAN BARAT,,Indonesia,,,,0.7997316,109.1894313,https://maps.google.com/?cid=0x0:0x2d7ba9309480c57c,
supermarket,Minimarket,Kios Resmi Tiang Tani Bp. Tumono,"5HH3+CX5, Danti, Kec. Sanggau Ledo, Kabupaten Bengkayang, Kalimantan Barat 79284","Danti, Kec. Sanggau Ledo, Kabupaten Bengkayang",KALIMANTAN BARAT,79284.0,Indonesia, 085960359931,,,1.1785218,109.5549975,https://maps.google.com/?cid=0x0:0xc03069c7ee8a5ac2,
supermarket,Toko Swalayan,ASSA MART,"Sahan, Kec. Seluas, Kabupaten Bengkayang, Kalimantan Barat 79285","Kec. Seluas, Kabupaten Bengkayang",KALIMANTAN BARAT,79285.0,Indonesia, 082113272277,,,1.1513147,109.7009969,https://maps.google.com/?cid=0x0:0xc1a9eb04b72a71ff,
supermarket,supermarket,Kec. Sanggau Ledo,"Kabupaten Bengkayang, Kalimantan Barat","Kabupaten Bengkayang, Kalimantan Barat",KALIMANTAN BARAT,,Indonesia,,,,1.1770479,109.5515555,https://maps.google.com/?cid=0x0:0xc5f1de0c2e2d490d,
supermarket,Toko,Toko Rita Rasya,"5M4C+X4M, jl. gua desa, duginang, Kec. Sanggau Ledo, Kabupaten Bengkayang, Kalimantan Barat 79284","jl. gua desa, duginang, Kec. Sanggau Ledo, Kabupaten Bengkayang",KALIMANTAN BARAT,79284.0,Indonesia,,,,1.157453,109.670292,https://maps.google.com/?cid=0x0:0x45ed5f454f87fe6,
supermarket,Toko umum,"Toserba Mitra Jaya (cv, MJM)","kp jawa, Kec. Sanggau Ledo, Kabupaten Bengkayang, Kalimantan Barat 79285","Kec. Sanggau Ledo, Kabupaten Bengkayang",KALIMANTAN BARAT,79285.0,Indonesia, 081348052626,,,1.1224109,109.6932201,https://maps.google.com/?cid=0x0:0xaa7a82c20b5a2845,
supermarket,Toko bahan makanan,SRI- M,"3HCR+9PV SRI M, Jesape, Kec. Ledo, Kabupaten Bengkayang, Kalimantan Barat 79283","Jesape, Kec. Ledo, Kabupaten Bengkayang",KALIMANTAN BARAT,79283.0,Indonesia,,,,1.0709943,109.5918119,https://maps.google.com/?cid=0x0:0x5dc4b9499d55b994,
supermarket,Pusat Perbelanjaan,Pasar sanggau ledo,"5HG2+RJ7, Danti, Kec. Sanggau Ledo, Kabupaten Bengkayang, Kalimantan Barat 79284","Danti, Kec. Sanggau Ledo, Kabupaten Bengkayang",KALIMANTAN BARAT,79284.0,Indonesia,,,,1.1770479,109.5515555,https://maps.google.com/?cid=0x0:0x9de960cc5f6b06f5,
supermarket,Minimarket,TANJUNG MARKET,"Lembang, Kec. Sanggau Ledo, Kabupaten Bengkayang, Kalimantan Barat","Kabupaten Bengkayang, Kalimantan Barat",KALIMANTAN BARAT,,Indonesia, 085754383799,,,1.1520237,109.7040136,https://maps.google.com/?cid=0x0:0x8bc08200bd6f2a7f,
supermarket,Toko bahan makanan,Toko mitra usaha,"5M2X+4M4, Sahan, Kec. Seluas, Kabupaten Bengkayang, Kalimantan Barat 79285","Sahan, Kec. Seluas, Kabupaten Bengkayang",KALIMANTAN BARAT,79285.0,Indonesia,,,,1.1502551,109.6991897,https://maps.google.com/?cid=0x0:0xaab2d0363e8f7b03,
supermarket,Minimarket,Indomaret Sanggau Ledo 86,"Jl. Raya Sanggau Ledo No.124, Sahan, Kec. Seluas, Kabupaten Bengkayang, Kalimantan Barat 79285","Sahan, Kec. Seluas, Kabupaten Bengkayang",KALIMANTAN BARAT,79285.0,Indonesia,,,,1.1373124,109.6952842,https://maps.google.com/?cid=0x0:0xc58801c101780a2e,
supermarket,Seafood,Pasar rakyat Sanggau ledo,"4MXX+2F2, Sahan, Kec. Sanggau Ledo, Kabupaten Bengkayang, Kalimantan Barat","Kabupaten Bengkayang, Kalimantan Barat",KALIMANTAN BARAT,,Indonesia,,,,1.1475134,109.6986328,https://maps.google.com/?cid=0x0:0x91eb0a2a1d13328c,
supermarket,Minimarket,toko Usmanto,"2JP3+9WM, Jesape, Kec. Ledo, Kabupaten Bengkayang, Kalimantan Barat 79283","Jesape, Kec. Ledo, Kabupaten Bengkayang",KALIMANTAN BARAT,79283.0,Indonesia, 082151679580,,,1.0359639,109.6047981,https://maps.google.com/?cid=0x0:0xdaf844c0541a7713,
supermarket,Kantor Perusahaan,Griya bakso,"Jl.sujadi, Sahan, Kec. Sanggau Ledo, Kabupaten Bengkayang, Kalimantan Barat 79285","Sahan, Kec. Sanggau Ledo, Kabupaten Bengkayang",KALIMANTAN BARAT,79285.0,Indonesia, 085348705869,,,1.1388195,109.695384,https://maps.google.com/?cid=0x0:0x5386f9647fa8a3c5,
supermarket,Toko,Warung Pak Riko,"4GGM+PJ5, Danti, Kec. Sanggau Ledo, Kabupaten Bengkayang, Kalimantan Barat 79284","Danti, Kec. Sanggau Ledo, Kabupaten Bengkayang",KALIMANTAN BARAT,79284.0,Indonesia,,,,1.1267673,109.5341028,https://maps.google.com/?cid=0x0:0x66e5a7d02b7d4813,
supermarket,Minimarket,Alfamart Sanggau Ledo,"4MPW+Q2H, Sahan, Kec. Seluas, Kabupaten Bengkayang, Kalimantan Barat 79285","Sahan, Kec. Seluas, Kabupaten Bengkayang",KALIMANTAN BARAT,79285.0,Indonesia,,,,1.1369326,109.6951208,https://maps.google.com/?cid=0x0:0x516f69d91e912ed0,
supermarket,Toko,Warung sembako Mbak Wulan,"4J72+R9H, Sukajaya, Kec. Ledo, Kabupaten Bengkayang, Kalimantan Barat 79284","Sukajaya, Kec. Ledo, Kabupaten Bengkayang",KALIMANTAN BARAT,79284.0,Indonesia,,,,1.1145639,109.6009746,https://maps.google.com/?cid=0x0:0x5eabcd27f9dd450a,
supermarket,Pasar,Pasar Ikan Sanggau Ledo,"Jl. Ktr. Camat No.20, Sahan, Kec. Seluas, Kabupaten Bengkayang, Kalimantan Barat 79285","Sahan, Kec. Seluas, Kabupaten Bengkayang",KALIMANTAN BARAT,79285.0,Indonesia,,,,1.1465752,109.6979573,https://maps.google.com/?cid=0x0:0xb6c884177013a50e,
supermarket,Toko bahan makanan,Toko Sembako 99,"4MWX+JPJ, Jl. Sambas - Ledo, Sahan, Kec. Seluas, Kabupaten Bengkayang, Kalimantan Barat 79285","Jl. Sambas - Ledo, Sahan, Kec. Seluas, Kabupaten Bengkayang",KALIMANTAN BARAT,79285.0,Indonesia,,,,1.1465615,109.699354,https://maps.google.com/?cid=0x0:0x5129b759770e5992,
supermarket,Minimarket,Indomaret Sanggau Ledo AURI,"4M6Q+WFR, Jl. Raya Sanggau Ledo, Sahan, Kec. Seluas, Kabupaten Bengkayang, Kalimantan Barat 79285","Jl. Raya Sanggau Ledo, Sahan, Kec. Seluas, Kabupaten Bengkayang",KALIMANTAN BARAT,79285.0,Indonesia,,,,1.1126451,109.6888636,https://maps.google.com/?cid=0x0:0x96b3f0d15b1a27cf,
supermarket,supermarket,KELAPA PARUT SEGAR PAK SUMO,"dusun setia Budi No.desa, sinar tebudak, Tujuh Belas, Bengkayang Regency, West Kalimantan 79251","sinar tebudak, Tujuh Belas, Bengkayang Regency",KALIMANTAN BARAT,79251.0,Indonesia,,,,1.1149375,109.6909219,https://maps.google.com/?cid=0x0:0xbf2b1126e2ca1dbc,
supermarket,Toko Swalayan,Toko Kharisma,"4M8R+VMR, Sahan, Kec. Seluas, Kabupaten Bengkayang, Kalimantan Barat 79285","Sahan, Kec. Seluas, Kabupaten Bengkayang",KALIMANTAN BARAT,79285.0,Indonesia,,,,1.1172406,109.6916303,https://maps.google.com/?cid=0x0:0x67d01e870c158222,
supermarket,Bengkel Mobil,Hotto Jaya Motor,"4MGV+8CV, Sahan, Kec. Seluas, Kabupaten Bengkayang, Kalimantan Barat 79285","Sahan, Kec. Seluas, Kabupaten Bengkayang",KALIMANTAN BARAT,79285.0,Indonesia, 082253372098,,,1.1258684,109.6935395,https://maps.google.com/?cid=0x0:0xa08503adeae799a2,
supermarket,Bengkel Motor Skuter,Bengkel Motor Totok,"5HG2+4H2, sepandak, Danti, Kec. Sanggau Ledo, Kabupaten Bengkayang, Kalimantan Barat 79284","sepandak, Danti, Kec. Sanggau Ledo, Kabupaten Bengkayang",KALIMANTAN BARAT,79284.0,Indonesia,,,,1.1752579,109.5514027,https://maps.google.com/?cid=0x0:0xaa82818dc5d7ef4e,
supermarket,Toko Swalayan,Toko Kharisma,"4M8R+VMR, Sahan, Kec. Seluas, Kabupaten Bengkayang, Kalimantan Barat 79285","Sahan, Kec. Seluas, Kabupaten Bengkayang",KALIMANTAN BARAT,79285.0,Indonesia,,,,1.1172406,109.6916303,https://maps.google.com/?cid=0x0:0x67d01e870c158222,
supermarket,Toko,warung seluas,"JWGQ+94X, Sungai Pangkalan II, Kec. Sungai Raya, Kabupaten Bengkayang, Kalimantan Barat 79271","Sungai Pangkalan II, Kec. Sungai Raya, Kabupaten Bengkayang",KALIMANTAN BARAT,79271.0,Indonesia,,,,0.6259907,108.9378581,https://maps.google.com/?cid=0x0:0x113d80753e9520b8,
supermarket,Toko bahan makanan,Toko Sembako 99,"4MWX+JPJ, Jl. Sambas - Ledo, Sahan, Kec. Seluas, Kabupaten Bengkayang, Kalimantan Barat 79285","Jl. Sambas - Ledo, Sahan, Kec. Seluas, Kabupaten Bengkayang",KALIMANTAN BARAT,79285.0,Indonesia,,,,1.1465615,109.699354,https://maps.google.com/?cid=0x0:0x5129b759770e5992,
supermarket,Pusat Perbelanjaan,Toko CKN sembako,"Jl. Dwikora, Jagoi, Kec. Seluas, Kabupaten Bengkayang, Kalimantan Barat 79286","Jagoi, Kec. Seluas, Kabupaten Bengkayang",KALIMANTAN BARAT,79286.0,Indonesia, 082153488719,,,1.2829039,109.85566,https://maps.google.com/?cid=0x0:0xb8b04331d9db5553,
supermarket,Toko,Toko SUN JAYA,"4M9R+FQG, Jl. Sambas - Ledo, Sahan, Kec. Seluas, Kabupaten Bengkayang, Kalimantan Barat 79285","Jl. Sambas - Ledo, Sahan, Kec. Seluas, Kabupaten Bengkayang",KALIMANTAN BARAT,79285.0,Indonesia, 082150977378,,,1.1186794,109.6919609,https://maps.google.com/?cid=0x0:0xaa21d6600a5e9373,
supermarket,Toko umum,TOKO SEMBAKO SEMPURNA,"Jl. Riam Berawan No.16, Sahan, Kec. Seluas, Kabupaten Bengkayang, Kalimantan Barat 79285","Sahan, Kec. Seluas, Kabupaten Bengkayang",KALIMANTAN BARAT,79285.0,Indonesia,,,,1.164951,109.7658285,https://maps.google.com/?cid=0x0:0x92032d10c38c9720,
supermarket,supermarket,toko ceria,"Jalan Dwikora RT/RW 01/02, Seluas, Kec. Seluas, Kabupaten Bengkayang, Kalimantan Barat 79285","Seluas, Kec. Seluas, Kabupaten Bengkayang",KALIMANTAN BARAT,79285.0,Indonesia, 082148205981,,,1.2832655,109.855525,https://maps.google.com/?cid=0x0:0xecc5af0977b2eed7,
supermarket,supermarket,Kalimantan Barat 79285,"Kec. Seluas, Kabupaten Bengkayang, Kalimantan Barat","Kabupaten Bengkayang, Kalimantan Barat",KALIMANTAN BARAT,,Indonesia,,,,1.1766369,109.8067916,https://maps.google.com/?cid=0x0:0x8d3dbb9ba1873f13,
supermarket,Toko Swalayan,ASSA MART,"Sahan, Kec. Seluas, Kabupaten Bengkayang, Kalimantan Barat 79285","Kec. Seluas, Kabupaten Bengkayang",KALIMANTAN BARAT,79285.0,Indonesia, 082113272277,,,1.1513147,109.7009969,https://maps.google.com/?cid=0x0:0xc1a9eb04b72a71ff,
supermarket,Toko bahan makanan,Toko mitra usaha,"5M2X+4M4, Sahan, Kec. Seluas, Kabupaten Bengkayang, Kalimantan Barat 79285","Sahan, Kec. Seluas, Kabupaten Bengkayang",KALIMANTAN BARAT,79285.0,Indonesia,,,,1.1502551,109.6991897,https://maps.google.com/?cid=0x0:0xaab2d0363e8f7b03,
supermarket,Toko,RUKO SUKMI,"Mayak, Kec. Seluas, Kabupaten Bengkayang, Kalimantan Barat 79285","Kec. Seluas, Kabupaten Bengkayang",KALIMANTAN BARAT,79285.0,Indonesia, 085750130029,,,1.2214417,109.7986083,https://maps.google.com/?cid=0x0:0x55b63f160967dfed,
supermarket,Toko umum,"Toserba Mitra Jaya (cv, MJM)","kp jawa, Kec. Sanggau Ledo, Kabupaten Bengkayang, Kalimantan Barat 79285","Kec. Sanggau Ledo, Kabupaten Bengkayang",KALIMANTAN BARAT,79285.0,Indonesia, 081348052626,,,1.1224109,109.6932201,https://maps.google.com/?cid=0x0:0xaa7a82c20b5a2845,
supermarket,Toko Swalayan,Warung Suwarno,"Jl. Melayang, Bengkawan, Kec. Seluas, Kabupaten Bengkayang, Kalimantan Barat 79285","Bengkawan, Kec. Seluas, Kabupaten Bengkayang",KALIMANTAN BARAT,79285.0,Indonesia, 083137420688,,,1.1354852,109.7966372,https://maps.google.com/?cid=0x0:0xafe7f146869feac7,
supermarket,Toko bahan makanan,Toko Amir Niaga,"Jl. Melayang, Bengkawan, Kec. Seluas, Kabupaten Bengkayang, Kalimantan Barat 79285","Bengkawan, Kec. Seluas, Kabupaten Bengkayang",KALIMANTAN BARAT,79285.0,Indonesia, 082113657767,,,1.1331734,109.7981813,https://maps.google.com/?cid=0x0:0xaa5051cf429b5822,
supermarket,Toko Swalayan,Warung Sinten,"4QXW+3M5, Jl. Riam Berawan, Bengkawan, Kec. Seluas, Kabupaten Bengkayang, Kalimantan Barat 79285","Jl. Riam Berawan, Bengkawan, Kec. Seluas, Kabupaten Bengkayang",KALIMANTAN BARAT,79285.0,Indonesia,,,,1.1476264,109.7967276,https://maps.google.com/?cid=0x0:0x7c4879e2bcd05ccf,
supermarket,Bengkel Mobil,Hotto Jaya Motor,"4MGV+8CV, Sahan, Kec. Seluas, Kabupaten Bengkayang, Kalimantan Barat 79285","Sahan, Kec. Seluas, Kabupaten Bengkayang",KALIMANTAN BARAT,79285.0,Indonesia, 082253372098,,,1.1258684,109.6935395,https://maps.google.com/?cid=0x0:0xa08503adeae799a2,
supermarket,Toko Swalayan,Warung Bu Ria,"4RJ2+G28, Jl. Melayang, Bengkawan, Kec. Seluas, Kabupaten Bengkayang, Kalimantan Barat 79285","Jl. Melayang, Bengkawan, Kec. Seluas, Kabupaten Bengkayang",KALIMANTAN BARAT,79285.0,Indonesia,,,,1.131277,109.8000651,https://maps.google.com/?cid=0x0:0x79db66bbd926d8f1,
supermarket,Toko Swalayan,Warung Mamak Loren,"4RW4+WP6, Jl. Riam Berawan, Bengkawan, Kec. Seluas, Kabupaten Bengkayang, Kalimantan Barat 79285","Jl. Riam Berawan, Bengkawan, Kec. Seluas, Kabupaten Bengkayang",KALIMANTAN BARAT,79285.0,Indonesia,,,,1.1472977,109.8067545,https://maps.google.com/?cid=0x0:0xa6921328044157d5,
supermarket,Toko Swalayan,Warung Bu Ani,"4RF3+HC2, Jl. Melayang, Bengkawan, Kec. Seluas, Kabupaten Bengkayang, Kalimantan Barat 79285","Jl. Melayang, Bengkawan, Kec. Seluas, Kabupaten Bengkayang",KALIMANTAN BARAT,79285.0,Indonesia,,,,1.1238976,109.8035171,https://maps.google.com/?cid=0x0:0x98007c107426800d,
supermarket,Minimarket,Indomaret Malindo 330,"Jl. Raya Sanggau Ledo No.18, Sentangau Jaya, Kec. Seluas, Kabupaten Bengkayang, Kalimantan Barat 79285","Sentangau Jaya, Kec. Seluas, Kabupaten Bengkayang",KALIMANTAN BARAT,79285.0,Indonesia,,,,1.1654414,109.7653517,https://maps.google.com/?cid=0x0:0x23d06b54606ac848,
supermarket,Toko,Toko Sui Ling,"6Q7W+2R2, Jl. Dwikora, Sentangau Jaya, Kec. Seluas, Kabupaten Bengkayang, Kalimantan Barat 79285","Jl. Dwikora, Sentangau Jaya, Kec. Seluas, Kabupaten Bengkayang",KALIMANTAN BARAT,79285.0,Indonesia,,,,1.2125037,109.7970204,https://maps.google.com/?cid=0x0:0xd346bc85590e802b,
supermarket,Toko,Toko Ajan,"5M2X+8XV, Jl. Randam, Sahan, Kec. Seluas, Kabupaten Bengkayang, Kalimantan Barat 79285","Jl. Randam, Sahan, Kec. Seluas, Kabupaten Bengkayang",KALIMANTAN BARAT,79285.0,Indonesia,,,,1.1508672,109.6999079,https://maps.google.com/?cid=0x0:0x9dc901346402575f,
supermarket,Pusat Perbelanjaan,klinik Ponsel Seluas,"Jl. Dwi kora seluas. Rt / rw 001/02, Jagoi, Kec. Seluas, Kabupaten Bengkayang, Kalimantan Barat 79285","Jagoi, Kec. Seluas, Kabupaten Bengkayang",KALIMANTAN BARAT,79285.0,Indonesia, 085750426408,,,1.2834432,109.8557167,https://maps.google.com/?cid=0x0:0x1169e3e4ba330067,
supermarket,Toko Swalayan,Warung Podomoro,"Jl. Dwikora, RT.001/RW.001, Sentangau Jaya, Kec. Seluas, Kabupaten Bengkayang, Kalimantan Barat 79285","RT.001/RW.001, Sentangau Jaya, Kec. Seluas, Kabupaten Bengkayang",KALIMANTAN BARAT,79285.0,Indonesia,,,,1.2367969,109.8073542,https://maps.google.com/?cid=0x0:0x3fa8716486b4d4ad,
supermarket,Toko bahan makanan,SRC Divall,"Jl. Dwikora, Sentangau Jaya, Kec. Seluas, Kabupaten Bengkayang, Kalimantan Barat 79285","Sentangau Jaya, Kec. Seluas, Kabupaten Bengkayang",KALIMANTAN BARAT,79285.0,Indonesia,,,,1.2527402,109.8268703,https://maps.google.com/?cid=0x0:0x9e5c65855d58df04,
supermarket,Pusat Perbelanjaan,GS The Fresh BOXIES,"Jl. Raya Tajur No.125, RT.01/RW.06, Tajur, Kec. Bogor Tim., Kota Bogor, Jawa Barat 16141","RT.01/RW.06, Tajur, Kec. Bogor Tim., Kota Bogor",KALIMANTAN BARAT,16141.0,Indonesia,,,,-6.6338534,106.8265902,https://maps.google.com/?cid=0x0:0xf2e999dd0f1bdf6,
supermarket,Toko Swalayan,NGESTI SUPERMARKET,"Jl. Raya Pajajaran No.3 ABC, RT.04/RW.02, Baranangsiang, Kec. Bogor Tim., Kota Bogor, Jawa Barat 16143","RT.04/RW.02, Baranangsiang, Kec. Bogor Tim., Kota Bogor",KALIMANTAN BARAT,16143.0,Indonesia, 02518325615,,,-6.6028757,106.8056793,https://maps.google.com/?cid=0x0:0x75a8931ee9c73f78,
supermarket,supermarket,toko ceria,"Jalan Dwikora RT/RW 01/02, Seluas, Kec. Seluas, Kabupaten Bengkayang, Kalimantan Barat 79285","Seluas, Kec. Seluas, Kabupaten Bengkayang",KALIMANTAN BARAT,79285.0,Indonesia, 082148205981,,,1.2832655,109.855525,https://maps.google.com/?cid=0x0:0xecc5af0977b2eed7,
supermarket,Dapur Umum,Warung Pak Dollyo,"8XF4+MMW, Lhi Buie, Kec. Siding, Kabupaten Bengkayang, Kalimantan Barat 79286","Lhi Buie, Kec. Siding, Kabupaten Bengkayang",KALIMANTAN BARAT,79286.0,Indonesia,,,,1.3242268,109.9567056,https://maps.google.com/?cid=0x0:0x8d90a338e0f9599,
supermarket,Kedai Kopi,Warung Dody,"7VMW+C5G, Jl. Jagoi Babang, Jagoi, Kec. Jagoi Babang, Kabupaten Bengkayang, Kalimantan Barat 79286","Jl. Jagoi Babang, Jagoi, Kec. Jagoi Babang, Kabupaten Bengkayang",KALIMANTAN BARAT,79286.0,Indonesia, 082256754816,,,1.2835701,109.8954683,https://maps.google.com/?cid=0x0:0x3d1c250993aabd70,
supermarket,Toko Swalayan,GS The Fresh Mampang,"Jl. Buncit Raya No.301, Duren Tiga, Kec. Pancoran, Kota Jakarta Selatan, Daerah Khusus Ibukota Jakarta 12760","Duren Tiga, Kec. Pancoran, Kota Jakarta Selatan",KALIMANTAN BARAT,12760.0,Indonesia, 02126961986,,,-6.256991,106.828987,https://maps.google.com/?cid=0x0:0x47a84d3b86619147,
supermarket,supermarket,Kec. Sungai Betung,"Kabupaten Bengkayang, Kalimantan Barat","Kabupaten Bengkayang, Kalimantan Barat",KALIMANTAN BARAT,,Indonesia,,,,0.8130969,109.3837942,https://maps.google.com/?cid=0x0:0x97395d47f40859ee,
supermarket,Toko bahan makanan,Serba Guna,"R95M+QJ3, Suka Maju, Kec. Sungai Betung, Kabupaten Bengkayang, Kalimantan Barat 79211","Suka Maju, Kec. Sungai Betung, Kabupaten Bengkayang",KALIMANTAN BARAT,79211.0,Indonesia,,,,0.8093991,109.3840479,https://maps.google.com/?cid=0x0:0x709aed8e3d30cac2,
supermarket,Toko bahan makanan,Toko Bina Jaya Zibanex,"R97M+6C7, Suka Maju, Kec. Sungai Betung, Kabupaten Bengkayang, Kalimantan Barat 79211","Suka Maju, Kec. Sungai Betung, Kabupaten Bengkayang",KALIMANTAN BARAT,79211.0,Indonesia, 08988002922,,,0.8130307,109.3835403,https://maps.google.com/?cid=0x0:0x8e4e1360d1b2a6b2,
supermarket,Toko bahan makanan,Toko Jerry,"R96P+FQ9, Suka Maju, Kec. Sungai Betung, Kabupaten Bengkayang, Kalimantan Barat","Kabupaten Bengkayang, Kalimantan Barat",KALIMANTAN BARAT,,Indonesia,,,,0.8111551,109.3869924,https://maps.google.com/?cid=0x0:0xd545ad8d46da62a8,
supermarket,Pusat Perbelanjaan,Banli Mart,"Bumi Amas, Kec. Bengkayang, Kabupaten Bengkayang, Kalimantan Barat 79211","Kec. Bengkayang, Kabupaten Bengkayang",KALIMANTAN BARAT,79211.0,Indonesia,,,,0.8252792,109.483359,https://maps.google.com/?cid=0x0:0x4812752f286b6eef,
supermarket,Toko umum,Warung Tua AJusdi (ASOKA),"dusun kawan No.desa, Suka Maju, sei Betung, Kabupaten Bengkayang, Kalimantan Barat 79211","Suka Maju, sei Betung, Kabupaten Bengkayang",KALIMANTAN BARAT,79211.0,Indonesia, 085820622246,,,0.8135953,109.3989391,https://maps.google.com/?cid=0x0:0x609f3b4adb260f6d,
supermarket,Toko,Mm Raya Mas,"RC77+JH7, Jl. Raya Singkawang-Bengkayang, Cipta Karya, Kec. Sungai Betung, Kabupaten Bengkayang, Kalimantan Barat 79211","Jl. Raya Singkawang-Bengkayang, Cipta Karya, Kec. Sungai Betung, Kabupaten Bengkayang",KALIMANTAN BARAT,79211.0,Indonesia,,,,0.8140452,109.4139263,https://maps.google.com/?cid=0x0:0x8cb0447b7255246a,
supermarket,supermarket,warkop kuin,"V9C3+294, Suka Bangun, Kec. Sungai Betung, Kabupaten Bengkayang, Kalimantan Barat 79211","Suka Bangun, Kec. Sungai Betung, Kabupaten Bengkayang",KALIMANTAN BARAT,79211.0,Indonesia,,,,0.8700017,109.3534524,https://maps.google.com/?cid=0x0:0x409cc7270a687a52,
supermarket,Toko bahan makanan,Warung JENZ,"QCVV+6WM, Tirta Kencana, Kec. Bengkayang, Kabupaten Bengkayang, Kalimantan Barat 79211","Tirta Kencana, Kec. Bengkayang, Kabupaten Bengkayang",KALIMANTAN BARAT,79211.0,Indonesia, 085705513555,,,0.7930774,109.444783,https://maps.google.com/?cid=0x0:0x9c9d42c73da336df,
supermarket,supermarket,Warung sembako mak ungkot,"R9CJ+57Q, Suka Bangun, Kec. Sungai Betung, Kabupaten Bengkayang, Kalimantan Barat 79211","Suka Bangun, Kec. Sungai Betung, Kabupaten Bengkayang",KALIMANTAN BARAT,79211.0,Indonesia, 082148604932,,,0.8204744,109.3807344,https://maps.google.com/?cid=0x0:0x9ab163cd4a6db105,
supermarket,supermarket,Kec. Sungai Raya,"Kabupaten Kubu Raya, Kalimantan Barat","Kabupaten Kubu Raya, Kalimantan Barat",KALIMANTAN BARAT,,Indonesia,,,,-0.2467982,109.6163185,https://maps.google.com/?cid=0x0:0xe158016f2a1f6a32,
supermarket,Toko Swalayan,Ihsan Mart,"Jl. Parit Bugis No.81, Sungai Raya, Kec. Sungai Raya, Kabupaten Kubu Raya, Kalimantan Barat 78124","Sungai Raya, Kec. Sungai Raya, Kabupaten Kubu Raya",KALIMANTAN BARAT,78124.0,Indonesia, 081352660023,,,-0.1090394,109.3950111,https://maps.google.com/?cid=0x0:0xf4e9750489b0ca8b,
supermarket,Toko Swalayan,Minimarket HyMart,"Sungai Raya, Kec. Sungai Raya, Kabupaten Kubu Raya, Kalimantan Barat 78121","Kec. Sungai Raya, Kabupaten Kubu Raya",KALIMANTAN BARAT,78121.0,Indonesia, 05618123353,,,-0.0887809,109.3666826,https://maps.google.com/?cid=0x0:0x635c10d100279888,
supermarket,Minimarket,Point Mart,"W97C+CHM, Jl. Pd. Indah Lestari, Sungai Raya, Kec. Sungai Raya, Kabupaten Kubu Raya, Kalimantan Barat 78121","Jl. Pd. Indah Lestari, Sungai Raya, Kec. Sungai Raya, Kabupaten Kubu Raya",KALIMANTAN BARAT,78121.0,Indonesia,,,,-0.0864062,109.37141,https://maps.google.com/?cid=0x0:0xc346ec74ea16e4b7,
supermarket,Toko,Toko Ahmad Jaya,"V8WX+VV6, Unnamed Road, Sungai Raya, Kec. Sungai Raya, Kabupaten Kubu Raya, Kalimantan Barat 78121","Unnamed Road, Sungai Raya, Kec. Sungai Raya, Kabupaten Kubu Raya",KALIMANTAN BARAT,78121.0,Indonesia, 089694563339,,,-0.1028344,109.3496297,https://maps.google.com/?cid=0x0:0xb1cb2dc219249470,
supermarket,Minimarket,GOODS MARKET,"Ruko Komplek Water Front City, blok W no. 19 - 22, Jl. Raya Desa Kapur, Kapur, Kec. Sungai Raya, Kabupaten Kubu Raya, Kalimantan Barat 78235","blok W no. 19 - 22, Jl. Raya Desa Kapur, Kapur, Kec. Sungai Raya, Kabupaten Kubu Raya",KALIMANTAN BARAT,78235.0,Indonesia, 081348404984,,,-0.068214,109.386506,https://maps.google.com/?cid=0x0:0xc2365626e3f6558d,
supermarket,Toko Swalayan,Great Mart,"Jl. Raya Desa Kapur No.97-99, Kapur, Kec. Sungai Raya, Kabupaten Kubu Raya, Kalimantan Barat 78234","Kapur, Kec. Sungai Raya, Kabupaten Kubu Raya",KALIMANTAN BARAT,78234.0,Indonesia, 0895365802060,,,-0.0706542,109.3900579,https://maps.google.com/?cid=0x0:0x9cf16bef00336623,
supermarket,Toko,Toko Ahui,"Jl. Parit Nomor Dua, Sungai Raya, Kec. Sungai Raya, Kabupaten Kubu Raya, Kalimantan Barat 78123","Sungai Raya, Kec. Sungai Raya, Kabupaten Kubu Raya",KALIMANTAN BARAT,78123.0,Indonesia, 089505543187,,,-0.0821819,109.3796501,https://maps.google.com/?cid=0x0:0x24d1df80b1ab1c38,
supermarket,Toko bahan makanan,Toko Grace,"V9XR+5W2, Sungai Raya, Kec. Sungai Raya, Kabupaten Kubu Raya, Kalimantan Barat","Kabupaten Kubu Raya, Kalimantan Barat",KALIMANTAN BARAT,,Indonesia,,,,-0.102105,109.3922527,https://maps.google.com/?cid=0x0:0x83df4aa590af604f,
supermarket,Toko Swalayan,Mitra abadi,"W99H+HCH, Jl. Adi Sucipto, Sungai Raya, Kec. Sungai Raya, Kabupaten Kubu Raya, Kalimantan Barat 78121","Jl. Adi Sucipto, Sungai Raya, Kec. Sungai Raya, Kabupaten Kubu Raya",KALIMANTAN BARAT,78121.0,Indonesia, 089699284933,,,-0.0810724,109.3786066,https://maps.google.com/?cid=0x0:0xd38e4087357cbb62,
supermarket,Toko Swalayan,Toko Acay,"RC7W+QJF, Kuala Dua, Kec. Sungai Raya, Kabupaten Kubu Raya, Kalimantan Barat 78391","Kuala Dua, Kec. Sungai Raya, Kabupaten Kubu Raya",KALIMANTAN BARAT,78391.0,Indonesia,,,,-0.1855512,109.4465538,https://maps.google.com/?cid=0x0:0xb42ca6a01751d06e,
supermarket,Toko bahan makanan,Toko Ahian 88,"WCC2+4J2, Jl. Tj. Raya II, Kapur, Kec. Sungai Raya, Kabupaten Kubu Raya, Kalimantan Barat 78132","Jl. Tj. Raya II, Kapur, Kec. Sungai Raya, Kabupaten Kubu Raya",KALIMANTAN BARAT,78132.0,Indonesia,,,,-0.0797298,109.4015091,https://maps.google.com/?cid=0x0:0x880016ee1d93d,
supermarket,Minimarket,Swalayan Citra Indah,"RCX8+M4P, Jl. KH. Abdurahman Wahid, Limbung, Kec. Sungai Raya, Kabupaten Kubu Raya, Kalimantan Barat 78391","Jl. KH. Abdurahman Wahid, Limbung, Kec. Sungai Raya, Kabupaten Kubu Raya",KALIMANTAN BARAT,78391.0,Indonesia,,,,-0.1507838,109.4153279,https://maps.google.com/?cid=0x0:0x1d1723c41b8827a2,
supermarket,Minimarket,Citra Kita,"Jl. Sungai Raya Dalam, Sungai Raya, Kec. Sungai Raya, Kabupaten Kubu Raya, Kalimantan Barat","Kabupaten Kubu Raya, Kalimantan Barat",KALIMANTAN BARAT,,Indonesia,,,,-0.0664725,109.3633364,https://maps.google.com/?cid=0x0:0x35db270cad35d111,
supermarket,Toko,Toko Edvander,"V9VR+MG7, Sungai Raya, Kec. Sungai Raya, Kabupaten Kubu Raya, Kalimantan Barat 78124","Sungai Raya, Kec. Sungai Raya, Kabupaten Kubu Raya",KALIMANTAN BARAT,78124.0,Indonesia,,,,-0.1058284,109.3912836,https://maps.google.com/?cid=0x0:0x7733b491c21f52d6,
supermarket,Minimarket,Fresh Mart,"Jl. Adi Sucipto No.79, Tlk. Kapuas, Kec. Sungai Raya, Kabupaten Kubu Raya, Kalimantan Barat 78391","Tlk. Kapuas, Kec. Sungai Raya, Kabupaten Kubu Raya",KALIMANTAN BARAT,78391.0,Indonesia,,,,-0.1223294,109.4095031,https://maps.google.com/?cid=0x0:0xb38d7c3981712d76,
supermarket,Toko,Indomaret Mekar Baru,"WC93+P22, Kapur, Kec. Sungai Raya, Kabupaten Kubu Raya, Kalimantan Barat 78132","Kapur, Kec. Sungai Raya, Kabupaten Kubu Raya",KALIMANTAN BARAT,78132.0,Indonesia,,,,-0.0807328,109.4025294,https://maps.google.com/?cid=0x0:0x39cf093c1ab2484c,
supermarket,Toko bahan makanan,MM.ferrymart,"W9C4+HMG, Sungai Raya, Kec. Sungai Raya, Kabupaten Kubu Raya, Kalimantan Barat","Kabupaten Kubu Raya, Kalimantan Barat",KALIMANTAN BARAT,,Indonesia, 05613322244,,,-0.0785667,109.3566929,https://maps.google.com/?cid=0x0:0x793c46b7736b8e79,
supermarket,Minimarket,F. Market,"W9C4+HPQ, Sungai Raya, Kec. Sungai Raya, Kabupaten Kubu Raya, Kalimantan Barat","Kabupaten Kubu Raya, Kalimantan Barat",KALIMANTAN BARAT,,Indonesia, 081212565256,,,-0.0785319,109.3568472,https://maps.google.com/?cid=0x0:0x93ac1c7e50a13bbe,
supermarket,Minimarket,Toko Fauzan,"VC76+G2W, Jl. Adi Sucipto, Arang Limbung, Kec. Sungai Raya, Kabupaten Kubu Raya, Kalimantan Barat 78391","Jl. Adi Sucipto, Arang Limbung, Kec. Sungai Raya, Kabupaten Kubu Raya",KALIMANTAN BARAT,78391.0,Indonesia,,,,-0.1361305,109.4100712,https://maps.google.com/?cid=0x0:0x48053eb8e546510,
supermarket,Toko bahan makanan,UN. Mart,"W92X+VG5, Jl. Adi Sucipto, Sungai Raya, Kec. Sungai Raya, Kabupaten Kubu Raya, Kalimantan Barat 78233","Jl. Adi Sucipto, Sungai Raya, Kec. Sungai Raya, Kabupaten Kubu Raya",KALIMANTAN BARAT,78233.0,Indonesia,,,,-0.0978553,109.3988681,https://maps.google.com/?cid=0x0:0xfd123f5196a0abb6,
supermarket,Pusat Perbelanjaan,Anggrek Swalayan  Department Store,"Jl. Adi Sucipto No.01-03 KM, RW.3, Sungai Raya, Kec. Sungai Raya, Kabupaten Kubu Raya, Kalimantan Barat 78391","RW.3, Sungai Raya, Kec. Sungai Raya, Kabupaten Kubu Raya",KALIMANTAN BARAT,78391.0,Indonesia, 0561721904,,,-0.075109,109.380457,https://maps.google.com/?cid=0x0:0xcc771c11caaa2e29,
supermarket,Pasar Makanan Segar,HalloFresh Grocery,"Jl. Sungai Raya Dalam, Bangka Belitung Darat, Kec. Pontianak Tenggara, Kota Pontianak, Kalimantan Barat 78124","Bangka Belitung Darat, Kec. Pontianak Tenggara, Kota Pontianak",KALIMANTAN BARAT,78124.0,Indonesia, 081222228888,,,-0.0773394,109.3564854,https://maps.google.com/?cid=0x0:0x45d94bcd3e7eab0f,
supermarket,Toko bahan makanan,Swalayan Bangunan Anggrek Baru,"Jl. Adi Sucipto Km. 7,3, Sungai Raya, Kec. Sungai Raya, Kabupaten Kubu Raya, Kalimantan Barat 78391","Sungai Raya, Kec. Sungai Raya, Kabupaten Kubu Raya",KALIMANTAN BARAT,78391.0,Indonesia, 083821475758,,,-0.0749945,109.3796977,https://maps.google.com/?cid=0x0:0xe14e5b6123a7dd47,
supermarket,Toko grosir,SANGAT MANIS SWALAYAN,"Jl. KH. Abdurahman Wahid, Kuala Dua, Kec. Sungai Raya, Kabupaten Kubu Raya, Kalimantan Barat 78391","Kuala Dua, Kec. Sungai Raya, Kabupaten Kubu Raya",KALIMANTAN BARAT,78391.0,Indonesia, 05616727575,,,-0.1490828,109.412262,https://maps.google.com/?cid=0x0:0x85021f64c14d0ab1,
supermarket,Toko bahan makanan,Ashqaf Mart,"Jl. Sungai Raya Dalam, Bangka Belitung Darat, Kec. Sungai Raya, Kabupaten Kubu Raya, Kalimantan Barat","Kabupaten Kubu Raya, Kalimantan Barat",KALIMANTAN BARAT,,Indonesia, 085388425095,,,-0.0792368,109.3553637,https://maps.google.com/?cid=0x0:0x95f6598b30970d54,
supermarket,Toko Swalayan,Citra Mart,"Jalan Sungai Raya, Pontianak Tenggara, Bangka Belitung Darat, Kec. Pontianak Tenggara, Kota Pontianak, Kalimantan Barat 78116","Pontianak Tenggara, Bangka Belitung Darat, Kec. Pontianak Tenggara, Kota Pontianak",KALIMANTAN BARAT,78116.0,Indonesia, 05616714468,,,-0.0763664,109.3568624,https://maps.google.com/?cid=0x0:0x4971d62587112d3e,
supermarket,Supermarket Industri,Indogrosir Pontianak,"Jl. Arteri Supadio, RT.04/RW.08, Parit Baru, Kec. Sungai Raya, Kabupaten Kubu Raya, Kalimantan Barat","Kabupaten Kubu Raya, Kalimantan Barat",KALIMANTAN BARAT,,Indonesia, 08559999254,,,-0.0994291,109.3829549,https://maps.google.com/?cid=0x0:0x4d74ed1ba0a81fb1,
supermarket,Toko,Toko Diki,"W97J+FV9, Jl. Parit Nomor Dua, Sungai Raya, Kec. Sungai Raya, Kabupaten Kubu Raya, Kalimantan Barat 78123","Jl. Parit Nomor Dua, Sungai Raya, Kec. Sungai Raya, Kabupaten Kubu Raya",KALIMANTAN BARAT,78123.0,Indonesia, 089693250318,,,-0.0863272,109.382247,https://maps.google.com/?cid=0x0:0xdc586514fd1d3e37,
supermarket,supermarket,Kec. Sungai Raya,"Kabupaten Kubu Raya, Kalimantan Barat","Kabupaten Kubu Raya, Kalimantan Barat",KALIMANTAN BARAT,,Indonesia,,,,-0.2467982,109.6163185,https://maps.google.com/?cid=0x0:0xe158016f2a1f6a32,
supermarket,Minimarket,Xing Mart,"Jl. Sungai Raya Dalam, Bangka Belitung Darat, Kec. Pontianak Tenggara, Kota Pontianak, Kalimantan Barat 78116","Bangka Belitung Darat, Kec. Pontianak Tenggara, Kota Pontianak",KALIMANTAN BARAT,78116.0,Indonesia, 0561582320,,,-0.0780791,109.3558744,https://maps.google.com/?cid=0x0:0x9b668644deb8d2c7,
supermarket,Minimarket,Point Mart,"W97C+CHM, Jl. Pd. Indah Lestari, Sungai Raya, Kec. Sungai Raya, Kabupaten Kubu Raya, Kalimantan Barat 78121","Jl. Pd. Indah Lestari, Sungai Raya, Kec. Sungai Raya, Kabupaten Kubu Raya",KALIMANTAN BARAT,78121.0,Indonesia,,,,-0.0864062,109.37141,https://maps.google.com/?cid=0x0:0xc346ec74ea16e4b7,
supermarket,Toko Swalayan,Great Mart,"Jl. Raya Desa Kapur No.97-99, Kapur, Kec. Sungai Raya, Kabupaten Kubu Raya, Kalimantan Barat 78234","Kapur, Kec. Sungai Raya, Kabupaten Kubu Raya",KALIMANTAN BARAT,78234.0,Indonesia, 0895365802060,,,-0.0706542,109.3900579,https://maps.google.com/?cid=0x0:0x9cf16bef00336623,
supermarket,Pusat Perbelanjaan,Anggrek Swalayan  Department Store,"Jl. Adi Sucipto No.01-03 KM, RW.3, Sungai Raya, Kec. Sungai Raya, Kabupaten Kubu Raya, Kalimantan Barat 78391","RW.3, Sungai Raya, Kec. Sungai Raya, Kabupaten Kubu Raya",KALIMANTAN BARAT,78391.0,Indonesia, 0561721904,,,-0.075109,109.380457,https://maps.google.com/?cid=0x0:0xcc771c11caaa2e29,
supermarket,Toko Swalayan,Minimarket HyMart,"Sungai Raya, Kec. Sungai Raya, Kabupaten Kubu Raya, Kalimantan Barat 78121","Kec. Sungai Raya, Kabupaten Kubu Raya",KALIMANTAN BARAT,78121.0,Indonesia, 05618123353,,,-0.0887809,109.3666826,https://maps.google.com/?cid=0x0:0x635c10d100279888,
supermarket,Toko bahan makanan,UN. Mart,"W92X+VG5, Jl. Adi Sucipto, Sungai Raya, Kec. Sungai Raya, Kabupaten Kubu Raya, Kalimantan Barat 78233","Jl. Adi Sucipto, Sungai Raya, Kec. Sungai Raya, Kabupaten Kubu Raya",KALIMANTAN BARAT,78233.0,Indonesia,,,,-0.0978553,109.3988681,https://maps.google.com/?cid=0x0:0xfd123f5196a0abb6,
supermarket,Toko grosir,SANGAT MANIS SWALAYAN,"Jl. KH. Abdurahman Wahid, Kuala Dua, Kec. Sungai Raya, Kabupaten Kubu Raya, Kalimantan Barat 78391","Kuala Dua, Kec. Sungai Raya, Kabupaten Kubu Raya",KALIMANTAN BARAT,78391.0,Indonesia, 05616727575,,,-0.1490828,109.412262,https://maps.google.com/?cid=0x0:0x85021f64c14d0ab1,
supermarket,Minimarket,GOODS MARKET,"Ruko Komplek Water Front City, blok W no. 19 - 22, Jl. Raya Desa Kapur, Kapur, Kec. Sungai Raya, Kabupaten Kubu Raya, Kalimantan Barat 78235","blok W no. 19 - 22, Jl. Raya Desa Kapur, Kapur, Kec. Sungai Raya, Kabupaten Kubu Raya",KALIMANTAN BARAT,78235.0,Indonesia, 081348404984,,,-0.068214,109.386506,https://maps.google.com/?cid=0x0:0xc2365626e3f6558d,
supermarket,Toko bahan makanan,Swalayan Bangunan Anggrek Baru,"Jl. Adi Sucipto Km. 7,3, Sungai Raya, Kec. Sungai Raya, Kabupaten Kubu Raya, Kalimantan Barat 78391","Sungai Raya, Kec. Sungai Raya, Kabupaten Kubu Raya",KALIMANTAN BARAT,78391.0,Indonesia, 083821475758,,,-0.0749945,109.3796977,https://maps.google.com/?cid=0x0:0xe14e5b6123a7dd47,
supermarket,Supermarket Industri,Indogrosir Pontianak,"Jl. Arteri Supadio, RT.04/RW.08, Parit Baru, Kec. Sungai Raya, Kabupaten Kubu Raya, Kalimantan Barat","Kabupaten Kubu Raya, Kalimantan Barat",KALIMANTAN BARAT,,Indonesia, 08559999254,,,-0.0994291,109.3829549,https://maps.google.com/?cid=0x0:0x4d74ed1ba0a81fb1,
supermarket,Toko Swalayan,Citra Mart,"Jalan Sungai Raya, Pontianak Tenggara, Bangka Belitung Darat, Kec. Pontianak Tenggara, Kota Pontianak, Kalimantan Barat 78116","Pontianak Tenggara, Bangka Belitung Darat, Kec. Pontianak Tenggara, Kota Pontianak",KALIMANTAN BARAT,78116.0,Indonesia, 05616714468,,,-0.0763664,109.3568624,https://maps.google.com/?cid=0x0:0x4971d62587112d3e,
supermarket,Minimarket,Swalayan Citra Indah,"RCX8+M4P, Jl. KH. Abdurahman Wahid, Limbung, Kec. Sungai Raya, Kabupaten Kubu Raya, Kalimantan Barat 78391","Jl. KH. Abdurahman Wahid, Limbung, Kec. Sungai Raya, Kabupaten Kubu Raya",KALIMANTAN BARAT,78391.0,Indonesia,,,,-0.1507838,109.4153279,https://maps.google.com/?cid=0x0:0x1d1723c41b8827a2,
supermarket,Pasar Makanan Segar,HalloFresh Grocery,"Jl. Sungai Raya Dalam, Bangka Belitung Darat, Kec. Pontianak Tenggara, Kota Pontianak, Kalimantan Barat 78124","Bangka Belitung Darat, Kec. Pontianak Tenggara, Kota Pontianak",KALIMANTAN BARAT,78124.0,Indonesia, 081222228888,,,-0.0773394,109.3564854,https://maps.google.com/?cid=0x0:0x45d94bcd3e7eab0f,
supermarket,Toko Bahan Bangunan,DEPO BANGUNAN INDO GLOBAL (D'BIG),"Komp. Ruko Ceria, Jl. Sungai Raya Dalam No A2, Raya River, Sungai Kakap, Kubu Raya Regency, West Kalimantan 78117","Jl. Sungai Raya Dalam No A2, Raya River, Sungai Kakap, Kubu Raya Regency",KALIMANTAN BARAT,78117.0,Indonesia, 081268880819,,,-0.0680419,109.3625791,https://maps.google.com/?cid=0x0:0x916d330c2807e4b9,
supermarket,Toko,Indomaret Mekar Baru,"WC93+P22, Kapur, Kec. Sungai Raya, Kabupaten Kubu Raya, Kalimantan Barat 78132","Kapur, Kec. Sungai Raya, Kabupaten Kubu Raya",KALIMANTAN BARAT,78132.0,Indonesia,,,,-0.0807328,109.4025294,https://maps.google.com/?cid=0x0:0x39cf093c1ab2484c,
supermarket,Toko Swalayan,Mitra Abadi,"Jl. Raya Desa Kapur, Kapur, Kec. Sungai Raya, Kabupaten Kubu Raya, Kalimantan Barat 78235","Kapur, Kec. Sungai Raya, Kabupaten Kubu Raya",KALIMANTAN BARAT,78235.0,Indonesia, 089693698071,,,-0.0696668,109.3887635,https://maps.google.com/?cid=0x0:0xeb4b4fc7b68b28ab,
supermarket,Minimarket,Alfamart,"Jl. Sungai Raya Dalam, Komp Ruko Bsd, Sungai Raya, Kec. Sungai Raya, Kabupaten Kubu Raya, Kalimantan Barat 78391","Komp Ruko Bsd, Sungai Raya, Kec. Sungai Raya, Kabupaten Kubu Raya",KALIMANTAN BARAT,78391.0,Indonesia, 1500959,,,-0.0916954,109.3476966,https://maps.google.com/?cid=0x0:0x1e0bafa7d353ffc7,
supermarket,Toko bahan makanan,Ashqaf Mart,"Jl. Sungai Raya Dalam, Bangka Belitung Darat, Kec. Sungai Raya, Kabupaten Kubu Raya, Kalimantan Barat","Kabupaten Kubu Raya, Kalimantan Barat",KALIMANTAN BARAT,,Indonesia, 085388425095,,,-0.0792368,109.3553637,https://maps.google.com/?cid=0x0:0x95f6598b30970d54,
supermarket,Minimarket,Citra Kita,"Jl. Sungai Raya Dalam, Sungai Raya, Kec. Sungai Raya, Kabupaten Kubu Raya, Kalimantan Barat","Kabupaten Kubu Raya, Kalimantan Barat",KALIMANTAN BARAT,,Indonesia,,,,-0.0664725,109.3633364,https://maps.google.com/?cid=0x0:0x35db270cad35d111,
supermarket,Toko Swalayan,Mitra abadi,"W99H+HCH, Jl. Adi Sucipto, Sungai Raya, Kec. Sungai Raya, Kabupaten Kubu Raya, Kalimantan Barat 78121","Jl. Adi Sucipto, Sungai Raya, Kec. Sungai Raya, Kabupaten Kubu Raya",KALIMANTAN BARAT,78121.0,Indonesia, 089699284933,,,-0.0810724,109.3786066,https://maps.google.com/?cid=0x0:0xd38e4087357cbb62,
supermarket,Minimarket,Indomaret Sungai Raya Dalam,"W85X+P8W, Sungai Raya, Kec. Sungai Raya, Kabupaten Kubu Raya, Kalimantan Barat 78116","Sungai Raya, Kec. Sungai Raya, Kabupaten Kubu Raya",KALIMANTAN BARAT,78116.0,Indonesia,,,,-0.0906422,109.3483277,https://maps.google.com/?cid=0x0:0x31d4cbb50f34f22c,
supermarket,Toko,Toko Diki,"W97J+FV9, Jl. Parit Nomor Dua, Sungai Raya, Kec. Sungai Raya, Kabupaten Kubu Raya, Kalimantan Barat 78123","Jl. Parit Nomor Dua, Sungai Raya, Kec. Sungai Raya, Kabupaten Kubu Raya",KALIMANTAN BARAT,78123.0,Indonesia, 089693250318,,,-0.0863272,109.382247,https://maps.google.com/?cid=0x0:0xdc586514fd1d3e37,
supermarket,Toko Swalayan,Manis Manis Grosir,"Jl. KH. Abdurahman Wahid, Limbung, Kec. Sungai Raya, Kabupaten Kubu Raya, Kalimantan Barat 78391","Limbung, Kec. Sungai Raya, Kabupaten Kubu Raya",KALIMANTAN BARAT,78391.0,Indonesia,,,,-0.1515108,109.4166361,https://maps.google.com/?cid=0x0:0x4ae6c20dafe5cdd2,
supermarket,Toko Swalayan,TOKO MISRAN,"Kuala Dua, Kec. Sungai Raya, Kabupaten Kubu Raya, Kalimantan Barat 78391","Kec. Sungai Raya, Kabupaten Kubu Raya",KALIMANTAN BARAT,78391.0,Indonesia, 08979953635,,,-0.2029596,109.4508983,https://maps.google.com/?cid=0x0:0x81ef7f388c5fb439,
supermarket,supermarket,Kalimantan Barat 79271,"Kabupaten Bengkayang, Kalimantan Barat","Kabupaten Bengkayang, Kalimantan Barat",KALIMANTAN BARAT,,Indonesia,,,,0.6943816,108.9739954,https://maps.google.com/?cid=0x0:0xac07332b4eaf8f75,
supermarket,Toko Swalayan,Minimarket HyMart,"Sungai Raya, Kec. Sungai Raya, Kabupaten Kubu Raya, Kalimantan Barat 78121","Kec. Sungai Raya, Kabupaten Kubu Raya",KALIMANTAN BARAT,78121.0,Indonesia, 05618123353,,,-0.0887809,109.3666826,https://maps.google.com/?cid=0x0:0x635c10d100279888,
supermarket,Minimarket,Point Mart,"W97C+CHM, Jl. Pd. Indah Lestari, Sungai Raya, Kec. Sungai Raya, Kabupaten Kubu Raya, Kalimantan Barat 78121","Jl. Pd. Indah Lestari, Sungai Raya, Kec. Sungai Raya, Kabupaten Kubu Raya",KALIMANTAN BARAT,78121.0,Indonesia,,,,-0.0864062,109.37141,https://maps.google.com/?cid=0x0:0xc346ec74ea16e4b7,
supermarket,Toko bahan makanan,UN. Mart,"W92X+VG5, Jl. Adi Sucipto, Sungai Raya, Kec. Sungai Raya, Kabupaten Kubu Raya, Kalimantan Barat 78233","Jl. Adi Sucipto, Sungai Raya, Kec. Sungai Raya, Kabupaten Kubu Raya",KALIMANTAN BARAT,78233.0,Indonesia,,,,-0.0978553,109.3988681,https://maps.google.com/?cid=0x0:0xfd123f5196a0abb6,
supermarket,Minimarket,Xing Mart,"Jl. Sungai Raya Dalam, Bangka Belitung Darat, Kec. Pontianak Tenggara, Kota Pontianak, Kalimantan Barat 78116","Bangka Belitung Darat, Kec. Pontianak Tenggara, Kota Pontianak",KALIMANTAN BARAT,78116.0,Indonesia, 0561582320,,,-0.0780791,109.3558744,https://maps.google.com/?cid=0x0:0x9b668644deb8d2c7,
supermarket,Minimarket,GOODS MARKET,"Ruko Komplek Water Front City, blok W no. 19 - 22, Jl. Raya Desa Kapur, Kapur, Kec. Sungai Raya, Kabupaten Kubu Raya, Kalimantan Barat 78235","blok W no. 19 - 22, Jl. Raya Desa Kapur, Kapur, Kec. Sungai Raya, Kabupaten Kubu Raya",KALIMANTAN BARAT,78235.0,Indonesia, 081348404984,,,-0.068214,109.386506,https://maps.google.com/?cid=0x0:0xc2365626e3f6558d,
supermarket,Toko grosir,SANGAT MANIS SWALAYAN,"Jl. KH. Abdurahman Wahid, Kuala Dua, Kec. Sungai Raya, Kabupaten Kubu Raya, Kalimantan Barat 78391","Kuala Dua, Kec. Sungai Raya, Kabupaten Kubu Raya",KALIMANTAN BARAT,78391.0,Indonesia, 05616727575,,,-0.1490828,109.412262,https://maps.google.com/?cid=0x0:0x85021f64c14d0ab1,
supermarket,Minimarket,Citra Kita,"Jl. Sungai Raya Dalam, Sungai Raya, Kec. Sungai Raya, Kabupaten Kubu Raya, Kalimantan Barat","Kabupaten Kubu Raya, Kalimantan Barat",KALIMANTAN BARAT,,Indonesia,,,,-0.0664725,109.3633364,https://maps.google.com/?cid=0x0:0x35db270cad35d111,
supermarket,Toko Swalayan,Great Mart,"Jl. Raya Desa Kapur No.97-99, Kapur, Kec. Sungai Raya, Kabupaten Kubu Raya, Kalimantan Barat 78234","Kapur, Kec. Sungai Raya, Kabupaten Kubu Raya",KALIMANTAN BARAT,78234.0,Indonesia, 0895365802060,,,-0.0706542,109.3900579,https://maps.google.com/?cid=0x0:0x9cf16bef00336623,
supermarket,Toko,Indomaret Mekar Baru,"WC93+P22, Kapur, Kec. Sungai Raya, Kabupaten Kubu Raya, Kalimantan Barat 78132","Kapur, Kec. Sungai Raya, Kabupaten Kubu Raya",KALIMANTAN BARAT,78132.0,Indonesia,,,,-0.0807328,109.4025294,https://maps.google.com/?cid=0x0:0x39cf093c1ab2484c,
supermarket,Toko bahan makanan,Toko Grace,"V9XR+5W2, Sungai Raya, Kec. Sungai Raya, Kabupaten Kubu Raya, Kalimantan Barat","Kabupaten Kubu Raya, Kalimantan Barat",KALIMANTAN BARAT,,Indonesia,,,,-0.102105,109.3922527,https://maps.google.com/?cid=0x0:0x83df4aa590af604f,
supermarket,Grosir,Toko ria,"Jl. Raya Sungai Kakap No.56, Pal IX, Kec. Sungai Kakap, Kabupaten Kubu Raya, Kalimantan Barat 78114","Pal IX, Kec. Sungai Kakap, Kabupaten Kubu Raya",KALIMANTAN BARAT,78114.0,Indonesia,,,,-0.0614681,109.2592049,https://maps.google.com/?cid=0x0:0xd363794b51b17432,
supermarket,Minimarket,F. Market,"W9C4+HPQ, Sungai Raya, Kec. Sungai Raya, Kabupaten Kubu Raya, Kalimantan Barat","Kabupaten Kubu Raya, Kalimantan Barat",KALIMANTAN BARAT,,Indonesia, 081212565256,,,-0.0785319,109.3568472,https://maps.google.com/?cid=0x0:0x93ac1c7e50a13bbe,
supermarket,Toko,Toko Ahui,"Jl. Parit Nomor Dua, Sungai Raya, Kec. Sungai Raya, Kabupaten Kubu Raya, Kalimantan Barat 78123","Sungai Raya, Kec. Sungai Raya, Kabupaten Kubu Raya",KALIMANTAN BARAT,78123.0,Indonesia, 089505543187,,,-0.0821819,109.3796501,https://maps.google.com/?cid=0x0:0x24d1df80b1ab1c38,
supermarket,Minimarket,Fresh Mart,"Jl. Adi Sucipto No.79, Tlk. Kapuas, Kec. Sungai Raya, Kabupaten Kubu Raya, Kalimantan Barat 78391","Tlk. Kapuas, Kec. Sungai Raya, Kabupaten Kubu Raya",KALIMANTAN BARAT,78391.0,Indonesia,,,,-0.1223294,109.4095031,https://maps.google.com/?cid=0x0:0xb38d7c3981712d76,
supermarket,Toko,Toko Edvander,"V9VR+MG7, Sungai Raya, Kec. Sungai Raya, Kabupaten Kubu Raya, Kalimantan Barat 78124","Sungai Raya, Kec. Sungai Raya, Kabupaten Kubu Raya",KALIMANTAN BARAT,78124.0,Indonesia,,,,-0.1058284,109.3912836,https://maps.google.com/?cid=0x0:0x7733b491c21f52d6,
supermarket,Toko Swalayan,Toko Acay,"RC7W+QJF, Kuala Dua, Kec. Sungai Raya, Kabupaten Kubu Raya, Kalimantan Barat 78391","Kuala Dua, Kec. Sungai Raya, Kabupaten Kubu Raya",KALIMANTAN BARAT,78391.0,Indonesia,,,,-0.1855512,109.4465538,https://maps.google.com/?cid=0x0:0xb42ca6a01751d06e,
supermarket,Toserba,Toko Simpang Berkah,"GC68+FP8, Sungai Terus, Kec. Kubu, Kabupaten Kubu Raya, Kalimantan Barat 78384","Sungai Terus, Kec. Kubu, Kabupaten Kubu Raya",KALIMANTAN BARAT,78384.0,Indonesia,,,,-0.4888314,109.4168128,https://maps.google.com/?cid=0x0:0x19f47cd427ad45bb,
supermarket,Toko,Toko Ahmad Jaya,"V8WX+VV6, Unnamed Road, Sungai Raya, Kec. Sungai Raya, Kabupaten Kubu Raya, Kalimantan Barat 78121","Unnamed Road, Sungai Raya, Kec. Sungai Raya, Kabupaten Kubu Raya",KALIMANTAN BARAT,78121.0,Indonesia, 089694563339,,,-0.1028344,109.3496297,https://maps.google.com/?cid=0x0:0xb1cb2dc219249470,
supermarket,Minimarket,Indomaret Sungai Duri,"HW6H+XVR, Sungai Duri, Kec. Sungai Raya, Kabupaten Bengkayang, Kalimantan Barat 79271","Sungai Duri, Kec. Sungai Raya, Kabupaten Bengkayang",KALIMANTAN BARAT,79271.0,Indonesia,,,,0.5624975,108.9296428,https://maps.google.com/?cid=0x0:0x79968fadffa17a48,
supermarket,Toko Bahan Bangunan,DEPO BANGUNAN INDO GLOBAL (D'BIG),"Komp. Ruko Ceria, Jl. Sungai Raya Dalam No A2, Raya River, Sungai Kakap, Kubu Raya Regency, West Kalimantan 78117","Jl. Sungai Raya Dalam No A2, Raya River, Sungai Kakap, Kubu Raya Regency",KALIMANTAN BARAT,78117.0,Indonesia, 081268880819,,,-0.0680419,109.3625791,https://maps.google.com/?cid=0x0:0x916d330c2807e4b9,
supermarket,Toko Swalayan,Toko Fajar - Sungai Jaga A,"Jl. Sei Duri - Singkawang, Sungai Jaga A, Kec. Sungai Raya, Kabupaten Bengkayang, Kalimantan Barat 79271","Sungai Jaga A, Kec. Sungai Raya, Kabupaten Bengkayang",KALIMANTAN BARAT,79271.0,Indonesia,,,,0.6049276,108.9308946,https://maps.google.com/?cid=0x0:0x87077ba25c624d6b,
supermarket,Pasar,SUMBER CAHAYA,"PV5R+X76, Jl. Sungai Raya, Sungai Raya, Sungai Raya Kepulauan, Kabupaten Bengkayang, Kalimantan Barat 79271","Jl. Sungai Raya, Sungai Raya, Sungai Raya Kepulauan, Kabupaten Bengkayang",KALIMANTAN BARAT,79271.0,Indonesia, 085393631791,,,0.7099033,108.8906539,https://maps.google.com/?cid=0x0:0xdfde2b3b38a7fd2,
supermarket,Minimarket,B MART,"FWV6+XPC, Jl. Raya Sungai Kunyit, Sungai Limau, Sungai Kunyit, Kab. Mempawah, Kalimantan Barat 78371","Jl. Raya Sungai Kunyit, Sungai Limau, Sungai Kunyit, Kab. Mempawah",KALIMANTAN BARAT,78371.0,Indonesia,,,,0.4949433,108.9117647,https://maps.google.com/?cid=0x0:0x2fc644a878302b2a,
supermarket,Seafood,Pasar Ikan CSSK,"MWR4+FPJ, Sungai Keran, Sungai Raya Kepulauan, Kabupaten Bengkayang, Kalimantan Barat 79271","Sungai Keran, Sungai Raya Kepulauan, Kabupaten Bengkayang",KALIMANTAN BARAT,79271.0,Indonesia, 082350660648,,,0.691201,108.9067673,https://maps.google.com/?cid=0x0:0x70878a9df6693de1,
supermarket,Minimarket,Indomaret Karimunting,"QV3P+M7X, Sungai Raya, Sungai Raya Kepulauan, Kabupaten Bengkayang, Kalimantan Barat 79271","Sungai Raya, Sungai Raya Kepulauan, Kabupaten Bengkayang",KALIMANTAN BARAT,79271.0,Indonesia,,,,0.7542385,108.8857328,https://maps.google.com/?cid=0x0:0x4d11ac692da783d,
supermarket,Pusat Perbelanjaan,TOKO LARIS JAYA,"Sungai Duri, Kec. Sungai Raya, Kabupaten Bengkayang, Kalimantan Barat 79271","Kec. Sungai Raya, Kabupaten Bengkayang",KALIMANTAN BARAT,79271.0,Indonesia, 089677293747,,,0.5607934,108.9285451,https://maps.google.com/?cid=0x0:0x4d036bcd2a883c58,
supermarket,Kafe,Warung Paklek,"Rukma Jaya, Sungai Raya Kepulauan, Kabupaten Bengkayang, Kalimantan Barat 79271","Sungai Raya Kepulauan, Kabupaten Bengkayang",KALIMANTAN BARAT,79271.0,Indonesia,,,,0.6766162,108.9368051,https://maps.google.com/?cid=0x0:0x578ec7893ea04e31,
supermarket,Pasar,Pasar Sungai Duri,"Sungai Duri, Sungai Raya, Sungai Duri, Bengkayang, Kabupaten Bengkayang, Kalimantan Barat 79271","Sungai Raya, Sungai Duri, Bengkayang, Kabupaten Bengkayang",KALIMANTAN BARAT,79271.0,Indonesia,,,,0.5608202,108.9286017,https://maps.google.com/?cid=0x0:0x9ab44b239cb76c42,
supermarket,supermarket,Kalimantan Barat 79271,"Kabupaten Bengkayang, Kalimantan Barat","Kabupaten Bengkayang, Kalimantan Barat",KALIMANTAN BARAT,,Indonesia,,,,0.6943816,108.9739954,https://maps.google.com/?cid=0x0:0xac07332b4eaf8f75,
supermarket,Toko Swalayan,Toko Fajar - Sungai Jaga A,"Jl. Sei Duri - Singkawang, Sungai Jaga A, Kec. Sungai Raya, Kabupaten Bengkayang, Kalimantan Barat 79271","Sungai Jaga A, Kec. Sungai Raya, Kabupaten Bengkayang",KALIMANTAN BARAT,79271.0,Indonesia,,,,0.6049276,108.9308946,https://maps.google.com/?cid=0x0:0x87077ba25c624d6b,
supermarket,Pasar,SUMBER CAHAYA,"PV5R+X76, Jl. Sungai Raya, Sungai Raya, Sungai Raya Kepulauan, Kabupaten Bengkayang, Kalimantan Barat 79271","Jl. Sungai Raya, Sungai Raya, Sungai Raya Kepulauan, Kabupaten Bengkayang",KALIMANTAN BARAT,79271.0,Indonesia, 085393631791,,,0.7099033,108.8906539,https://maps.google.com/?cid=0x0:0xdfde2b3b38a7fd2,
supermarket,Toko Swalayan,Amplang WIA,"PW22+79P, Jl. Sei Duri - Singkawang, Sungai Raya, Sungai Raya Kepulauan, Kabupaten Bengkayang, Kalimantan Barat 79271","Jl. Sei Duri - Singkawang, Sungai Raya, Sungai Raya Kepulauan, Kabupaten Bengkayang",KALIMANTAN BARAT,79271.0,Indonesia,,,,0.700718,108.9009446,https://maps.google.com/?cid=0x0:0x7399ec75a4096ff8,
supermarket,Minimarket,Indomaret Sungai Duri,"HW6H+XVR, Sungai Duri, Kec. Sungai Raya, Kabupaten Bengkayang, Kalimantan Barat 79271","Sungai Duri, Kec. Sungai Raya, Kabupaten Bengkayang",KALIMANTAN BARAT,79271.0,Indonesia,,,,0.5624975,108.9296428,https://maps.google.com/?cid=0x0:0x79968fadffa17a48,
supermarket,Minimarket,Indomaret Karimunting,"QV3P+M7X, Sungai Raya, Sungai Raya Kepulauan, Kabupaten Bengkayang, Kalimantan Barat 79271","Sungai Raya, Sungai Raya Kepulauan, Kabupaten Bengkayang",KALIMANTAN BARAT,79271.0,Indonesia,,,,0.7542385,108.8857328,https://maps.google.com/?cid=0x0:0x4d11ac692da783d,
supermarket,Pusat Perbelanjaan,TOKO LARIS JAYA,"Sungai Duri, Kec. Sungai Raya, Kabupaten Bengkayang, Kalimantan Barat 79271","Kec. Sungai Raya, Kabupaten Bengkayang",KALIMANTAN BARAT,79271.0,Indonesia, 089677293747,,,0.5607934,108.9285451,https://maps.google.com/?cid=0x0:0x4d036bcd2a883c58,
supermarket,Kafe,Warung Paklek,"Rukma Jaya, Sungai Raya Kepulauan, Kabupaten Bengkayang, Kalimantan Barat 79271","Sungai Raya Kepulauan, Kabupaten Bengkayang",KALIMANTAN BARAT,79271.0,Indonesia,,,,0.6766162,108.9368051,https://maps.google.com/?cid=0x0:0x578ec7893ea04e31,
supermarket,Toko bahan makanan,Toko Fenko,"Jl. Sei Duri - Singkawang No.411, Karimunting, Sungai Raya Kepulauan, Kabupaten Bengkayang, Kalimantan Barat 79271","Karimunting, Sungai Raya Kepulauan, Kabupaten Bengkayang",KALIMANTAN BARAT,79271.0,Indonesia, 081236822328,,,0.7916875,108.8603752,https://maps.google.com/?cid=0x0:0x8b8ec58461309340,
supermarket,Toko bahan makanan,Indomaret Sungai Raya no 3,"PV5R+RC2, Sungai Raya, Sungai Raya Kepulauan, Kabupaten Bengkayang, Kalimantan Barat 79271","Sungai Raya, Sungai Raya Kepulauan, Kabupaten Bengkayang",KALIMANTAN BARAT,79271.0,Indonesia,,,,0.7095239,108.8910007,https://maps.google.com/?cid=0x0:0xa34087f5d3cad043,
supermarket,Kedai Kopi,Warung NJS,"MWX2+XP3, Jl. Sungai Raya, Sungai Keran, Sungai Raya Kepulauan, Kabupaten Bengkayang, Kalimantan Barat 79271","Jl. Sungai Raya, Sungai Keran, Sungai Raya Kepulauan, Kabupaten Bengkayang",KALIMANTAN BARAT,79271.0,Indonesia,,,,0.6998914,108.9018119,https://maps.google.com/?cid=0x0:0xd9140d0423ef4f63,
supermarket,Toko,Toko Syifa,"RWM3+5P8, Jl. Raya Sedau, Sedau, Sungai Raya Kepulauan, Kabupaten Bengkayang, Kalimantan Barat 79163","Jl. Raya Sedau, Sedau, Sungai Raya Kepulauan, Kabupaten Bengkayang",KALIMANTAN BARAT,79163.0,Indonesia,,,,0.8329222,108.9043125,https://maps.google.com/?cid=0x0:0xfadf5745e1b5e439,
supermarket,Toko,Toko bukit kaimantan,"M3M7+HPW, Capkala, Kec. Capkala, Kabupaten Bengkayang, Kalimantan Barat 79271","Capkala, Kec. Capkala, Kabupaten Bengkayang",KALIMANTAN BARAT,79271.0,Indonesia,,,,0.6839769,109.0643313,https://maps.google.com/?cid=0x0:0x8fa8a24e102f3b02,
supermarket,Minimarket,Toko ashang,"Jl. Sei Duri - Singkawang No.136, Sungai Pangkalan II, Kec. Sungai Raya, Kabupaten Bengkayang, Kalimantan Barat 79271","Sungai Pangkalan II, Kec. Sungai Raya, Kabupaten Bengkayang",KALIMANTAN BARAT,79271.0,Indonesia,,,,0.6307635,108.937621,https://maps.google.com/?cid=0x0:0x91067b5aa6a2f38f,
supermarket,Toko bahan makanan,Toko. LINA,"JWGP+GRG, Jl. Sei Duri - Singkawang, Sungai Pangkalan I, Kec. Sungai Raya, Kabupaten Bengkayang, Kalimantan Barat 79271","Jl. Sei Duri - Singkawang, Sungai Pangkalan I, Kec. Sungai Raya, Kabupaten Bengkayang",KALIMANTAN BARAT,79271.0,Indonesia, 089654926950,,,0.6263195,108.9370843,https://maps.google.com/?cid=0x0:0x6431346e96272afe,
supermarket,Toko bahan makanan,Tokoh SRC Herni,"JW3J+3CP, Jl. Sei Duri - Singkawang, Sungai Jaga A, Kec. Sungai Raya, Kabupaten Bengkayang, Kalimantan Barat 79271","Jl. Sei Duri - Singkawang, Sungai Jaga A, Kec. Sungai Raya, Kabupaten Bengkayang",KALIMANTAN BARAT,79271.0,Indonesia,,,,0.6027115,108.9310919,https://maps.google.com/?cid=0x0:0x5385798ddc5191eb,
supermarket,Toko bahan makanan,Toko Lucky,"JWXW+346, Jl. Pangkalan Makmur, Sungai Pangkalan II, Kec. Sungai Raya, Kabupaten Bengkayang, Kalimantan Barat 79271","Jl. Pangkalan Makmur, Sungai Pangkalan II, Kec. Sungai Raya, Kabupaten Bengkayang",KALIMANTAN BARAT,79271.0,Indonesia,,,,0.6476689,108.9452503,https://maps.google.com/?cid=0x0:0x3b3be48e63584416,
supermarket,Agen Sewa Mobil,TOKO BAROKAH(YUYUN)/UBY RENTAL MOBIL,"HXM6+5QX, Jl. Lintang, dusun sentosa,desa, Sungai Jaga A, Kec. Sungai Raya, Kabupaten Bengkayang, Kalimantan Barat 79271","Jl. Lintang, dusun sentosa,desa, Sungai Jaga A, Kec. Sungai Raya, Kabupaten Bengkayang",KALIMANTAN BARAT,79271.0,Indonesia, 082127416263,,,0.5829795,108.961994,https://maps.google.com/?cid=0x0:0x26619daa22e86144,
supermarket,Toko Swalayan,TOKO LINA S,"RVHC+5J9, Karimunting, Sungai Raya Kepulauan, Kabupaten Bengkayang, Kalimantan Barat 79271","Karimunting, Sungai Raya Kepulauan, Kabupaten Bengkayang",KALIMANTAN BARAT,79271.0,Indonesia,,,,0.8279101,108.8716006,https://maps.google.com/?cid=0x0:0x49086a2fbe092517,
supermarket,Toko Buah Kering,PONDOK BUAH,"Jl. Sei Duri - Singkawang No.44, Karimunting, Sungai Raya Kepulauan, Kabupaten Bengkayang, Kalimantan Barat 79271","Karimunting, Sungai Raya Kepulauan, Kabupaten Bengkayang",KALIMANTAN BARAT,79271.0,Indonesia,,,,0.7907834,108.8641453,https://maps.google.com/?cid=0x0:0x67a94c242db4da14,
supermarket,Minimarket,Alfamart Sungai Raya,"PV5R+RC2, Sungai Raya, Sungai Raya Kepulauan, Kabupaten Bengkayang, Kalimantan Barat 79271","Sungai Raya, Sungai Raya Kepulauan, Kabupaten Bengkayang",KALIMANTAN BARAT,79271.0,Indonesia,,,,0.7104416,108.890256,https://maps.google.com/?cid=0x0:0xf466f2043bd8b4d9,
supermarket,Toko Rokok Elektrik,MABESvapor,"Jl. Sei Duri - Singkawang No.24, Sungai Raya, Sungai Raya Kepulauan, Kabupaten Bengkayang, Kalimantan Barat 79271","Sungai Raya, Sungai Raya Kepulauan, Kabupaten Bengkayang",KALIMANTAN BARAT,79271.0,Indonesia, 082354544321,,,0.7535832,108.8856378,https://maps.google.com/?cid=0x0:0x21081d963c6e62a2,
supermarket,Toko Kelontong Asia,TK.Cahaya,"HW6H+9GC, Sungai Duri, Kec. Sungai Raya, Kabupaten Bengkayang, Kalimantan Barat 79271","Sungai Duri, Kec. Sungai Raya, Kabupaten Bengkayang",KALIMANTAN BARAT,79271.0,Indonesia,,,,0.5609305,108.9287587,https://maps.google.com/?cid=0x0:0x1cdfa58aba187e9b,
supermarket,Toko bahan makanan,Toko MLG,"P327+993, Serindu, Kec. Monterado, Kabupaten Bengkayang, Kalimantan Barat 79181","Serindu, Kec. Monterado, Kabupaten Bengkayang",KALIMANTAN BARAT,79181.0,Indonesia,,,,0.7008994,109.0634161,https://maps.google.com/?cid=0x0:0xae66d0506ef04b39,
supermarket,Minimarket,B MART,"FWV6+XPC, Jl. Raya Sungai Kunyit, Sungai Limau, Sungai Kunyit, Kab. Mempawah, Kalimantan Barat 78371","Jl. Raya Sungai Kunyit, Sungai Limau, Sungai Kunyit, Kab. Mempawah",KALIMANTAN BARAT,78371.0,Indonesia,,,,0.4949433,108.9117647,https://maps.google.com/?cid=0x0:0x2fc644a878302b2a,
supermarket,Toko bahan makanan,Toko Sembako Pk Kelvin,"M29R+2FH, Unnamed Road, Setanduk, Kec. Capkala, Kabupaten Bengkayang, Kalimantan Barat 79271","Unnamed Road, Setanduk, Kec. Capkala, Kabupaten Bengkayang",KALIMANTAN BARAT,79271.0,Indonesia,,,,0.667566,109.0412253,https://maps.google.com/?cid=0x0:0xf4c8e40e062ec545,
supermarket,Pusat Kesehatan Masyarakat,PUSKESMAS SUTI SEMARANG,"VRH5+RV5, Tapen, Kec. Suti Semarang, Kabupaten Bengkayang, Kalimantan Barat 79283","Tapen, Kec. Suti Semarang, Kabupaten Bengkayang",KALIMANTAN BARAT,79283.0,Indonesia,,,,0.8796542,109.8094963,https://maps.google.com/?cid=0x0:0x1085dcec50dc5565,
supermarket,Rumah Sakit,Suti Semarang,"VRJP+7R4, Tapen, Kec. Suti Semarang, Kabupaten Bengkayang, Kalimantan Barat 79283","Tapen, Kec. Suti Semarang, Kabupaten Bengkayang",KALIMANTAN BARAT,79283.0,Indonesia,,,,0.8806345,109.8370893,https://maps.google.com/?cid=0x0:0xd436aed79d25b186,
supermarket,supermarket,Bengkayang,"Malo Jelayan, Kec. Teriak, Kabupaten Bengkayang, Kalimantan Barat","Kabupaten Bengkayang, Kalimantan Barat",KALIMANTAN BARAT,,Indonesia,,,,0.8209729,109.477699,https://maps.google.com/?cid=0x0:0xb3bc2d69eebb6767,
supermarket,Toko Swalayan,Tristar,"Rachma, Jl. Basuki Rachmat No.155, Malo Jelayan, Kec. Teriak, Kabupaten Bengkayang, Kalimantan Barat 79214","Jl. Basuki Rachmat No.155, Malo Jelayan, Kec. Teriak, Kabupaten Bengkayang",KALIMANTAN BARAT,79214.0,Indonesia,,,,0.816423,109.4895399,https://maps.google.com/?cid=0x0:0xc272b2fe5d4a2f0a,
supermarket,Minimarket,Multi Market,"RF9M+V89, Malo Jelayan, Kec. Teriak, Kabupaten Bengkayang, Kalimantan Barat 79214","Malo Jelayan, Kec. Teriak, Kabupaten Bengkayang",KALIMANTAN BARAT,79214.0,Indonesia,,,,0.8196526,109.4833503,https://maps.google.com/?cid=0x0:0x6b9fea64d5765190,
supermarket,Toko,Kios raja darma,"RF9J+55G, Jl. Jerendeng Abdul Rahman, Malo Jelayan, Kec. Teriak, Kabupaten Bengkayang, Kalimantan Barat 79214","Jl. Jerendeng Abdul Rahman, Malo Jelayan, Kec. Teriak, Kabupaten Bengkayang",KALIMANTAN BARAT,79214.0,Indonesia,,,,0.8179328,109.4804449,https://maps.google.com/?cid=0x0:0x4336c021447fd64b,
supermarket,Pasar,oca,"Malo Jelayan, Kec. Teriak, Kabupaten Bengkayang, Kalimantan Barat 79215","Kec. Teriak, Kabupaten Bengkayang",KALIMANTAN BARAT,79215.0,Indonesia, 085820901241,,,0.8209729,109.477699,https://maps.google.com/?cid=0x0:0x528a02d497b0c488,
supermarket,Minimarket,Toko Nikmat,"Jl. Jerendeng Abdul Rahman No.78, Malo Jelayan, Kec. Teriak, Kabupaten Bengkayang, Kalimantan Barat 79214","Malo Jelayan, Kec. Teriak, Kabupaten Bengkayang",KALIMANTAN BARAT,79214.0,Indonesia,,,,0.8184403,109.4809401,https://maps.google.com/?cid=0x0:0x43a111d3d5e6d772,
supermarket,Pusat Perbelanjaan,Banli Mart,"Bumi Amas, Kec. Bengkayang, Kabupaten Bengkayang, Kalimantan Barat 79211","Kec. Bengkayang, Kabupaten Bengkayang",KALIMANTAN BARAT,79211.0,Indonesia,,,,0.8252792,109.483359,https://maps.google.com/?cid=0x0:0x4812752f286b6eef,
supermarket,Pusat Perbelanjaan,Lala mart,"RFWW+G7J, Jl. Raya Sanggau Ledo, Bani Amas, Kec. Bengkayang, Kabupaten Bengkayang, Kalimantan Barat 79211","Jl. Raya Sanggau Ledo, Bani Amas, Kec. Bengkayang, Kabupaten Bengkayang",KALIMANTAN BARAT,79211.0,Indonesia,,,,0.8463421,109.4956476,https://maps.google.com/?cid=0x0:0xd0b5e78a4db26047,
supermarket,Perumahan rakyat,Warung Forpro Mart,"Telidik, Kec. Teriak, Kabupaten Bengkayang, Kalimantan Barat","Kabupaten Bengkayang, Kalimantan Barat",KALIMANTAN BARAT,,Indonesia, 082352652292,,,0.7949963,109.5404224,https://maps.google.com/?cid=0x0:0xaa4ee48ca5891956,
supermarket,Pasar,Pasar Bengkayang,"Malo Jelayan, Kec. Teriak, Kabupaten Bengkayang, Kalimantan Barat 79214","Kec. Teriak, Kabupaten Bengkayang",KALIMANTAN BARAT,79214.0,Indonesia,,,,0.8209729,109.477699,https://maps.google.com/?cid=0x0:0xcd4d322559fafc77,
supermarket,Minimarket,Indomaret Basuki Rahmat,"Jl. Basuki Rachmat No.68, Malo Jelayan, Kec. Teriak, Kabupaten Bengkayang, Kalimantan Barat 79214","Malo Jelayan, Kec. Teriak, Kabupaten Bengkayang",KALIMANTAN BARAT,79214.0,Indonesia,,,,0.8180123,109.4853191,https://maps.google.com/?cid=0x0:0x3f862fec5a0ea9ae,
supermarket,Kedai Kopi,Bengkayang,"RFCH+93P, Malo Jelayan, Kec. Teriak, Kabupaten Bengkayang, Kalimantan Barat","Kabupaten Bengkayang, Kalimantan Barat",KALIMANTAN BARAT,,Indonesia,,,,0.8209729,109.477699,https://maps.google.com/?cid=0x0:0xb134e15522d24607,
supermarket,supermarket,Kec. Tujuh Belas,"Kabupaten Bengkayang, Kalimantan Barat","Kabupaten Bengkayang, Kalimantan Barat",KALIMANTAN BARAT,,Indonesia,,,,1.0866748,109.7267254,https://maps.google.com/?cid=0x0:0xd66ed58599e8e5b5,
supermarket,Toko Swalayan,Warung Sinten,"4QXW+3M5, Jl. Riam Berawan, Bengkawan, Kec. Seluas, Kabupaten Bengkayang, Kalimantan Barat 79285","Jl. Riam Berawan, Bengkawan, Kec. Seluas, Kabupaten Bengkayang",KALIMANTAN BARAT,79285.0,Indonesia,,,,1.1476264,109.7967276,https://maps.google.com/?cid=0x0:0x7c4879e2bcd05ccf,
supermarket,Toko Swalayan,BASTEN SWALAYAN,"5X59+MCV, Kalimantan, Manis Mata, Kabupaten Ketapang, Kalimantan Barat","Kabupaten Ketapang, Kalimantan Barat",KALIMANTAN BARAT,,Indonesia, 081911389059,,,-2.8407688,112.9685495,https://maps.google.com/?cid=0x0:0x10daef54c2998d0d,
supermarket,Minimarket,toko Usmanto,"2JP3+9WM, Jesape, Kec. Ledo, Kabupaten Bengkayang, Kalimantan Barat 79283","Jesape, Kec. Ledo, Kabupaten Bengkayang",KALIMANTAN BARAT,79283.0,Indonesia, 082151679580,,,1.0359639,109.6047981,https://maps.google.com/?cid=0x0:0xdaf844c0541a7713,
supermarket,Toko Swalayan,Warung Bu Ria,"4RJ2+G28, Jl. Melayang, Bengkawan, Kec. Seluas, Kabupaten Bengkayang, Kalimantan Barat 79285","Jl. Melayang, Bengkawan, Kec. Seluas, Kabupaten Bengkayang",KALIMANTAN BARAT,79285.0,Indonesia,,,,1.131277,109.8000651,https://maps.google.com/?cid=0x0:0x79db66bbd926d8f1,
supermarket,Toko Swalayan,Toko Kharisma,"4M8R+VMR, Sahan, Kec. Seluas, Kabupaten Bengkayang, Kalimantan Barat 79285","Sahan, Kec. Seluas, Kabupaten Bengkayang",KALIMANTAN BARAT,79285.0,Indonesia,,,,1.1172406,109.6916303,https://maps.google.com/?cid=0x0:0x67d01e870c158222,
supermarket,Toko Swalayan,Warung Mamak Loren,"4RW4+WP6, Jl. Riam Berawan, Bengkawan, Kec. Seluas, Kabupaten Bengkayang, Kalimantan Barat 79285","Jl. Riam Berawan, Bengkawan, Kec. Seluas, Kabupaten Bengkayang",KALIMANTAN BARAT,79285.0,Indonesia,,,,1.1472977,109.8067545,https://maps.google.com/?cid=0x0:0xa6921328044157d5,
supermarket,Toko bahan makanan,SRI- M,"3HCR+9PV SRI M, Jesape, Kec. Ledo, Kabupaten Bengkayang, Kalimantan Barat 79283","Jesape, Kec. Ledo, Kabupaten Bengkayang",KALIMANTAN BARAT,79283.0,Indonesia,,,,1.0709943,109.5918119,https://maps.google.com/?cid=0x0:0x5dc4b9499d55b994,
supermarket,Toko Swalayan,Warung Bu Ani,"4RF3+HC2, Jl. Melayang, Bengkawan, Kec. Seluas, Kabupaten Bengkayang, Kalimantan Barat 79285","Jl. Melayang, Bengkawan, Kec. Seluas, Kabupaten Bengkayang",KALIMANTAN BARAT,79285.0,Indonesia,,,,1.1238976,109.8035171,https://maps.google.com/?cid=0x0:0x98007c107426800d,
supermarket,Toko bahan makanan,Toko Amir Niaga,"Jl. Melayang, Bengkawan, Kec. Seluas, Kabupaten Bengkayang, Kalimantan Barat 79285","Bengkawan, Kec. Seluas, Kabupaten Bengkayang",KALIMANTAN BARAT,79285.0,Indonesia, 082113657767,,,1.1331734,109.7981813,https://maps.google.com/?cid=0x0:0xaa5051cf429b5822,
supermarket,Toko umum,"Toserba Mitra Jaya (cv, MJM)","kp jawa, Kec. Sanggau Ledo, Kabupaten Bengkayang, Kalimantan Barat 79285","Kec. Sanggau Ledo, Kabupaten Bengkayang",KALIMANTAN BARAT,79285.0,Indonesia, 081348052626,,,1.1224109,109.6932201,https://maps.google.com/?cid=0x0:0xaa7a82c20b5a2845,
supermarket,Bengkel Mobil,Hotto Jaya Motor,"4MGV+8CV, Sahan, Kec. Seluas, Kabupaten Bengkayang, Kalimantan Barat 79285","Sahan, Kec. Seluas, Kabupaten Bengkayang",KALIMANTAN BARAT,79285.0,Indonesia, 082253372098,,,1.1258684,109.6935395,https://maps.google.com/?cid=0x0:0xa08503adeae799a2,
supermarket,Toko,Toko Heri,"2JM3+7XV, Jesape, Kec. Ledo, Kabupaten Bengkayang, Kalimantan Barat 79283","Jesape, Kec. Ledo, Kabupaten Bengkayang",KALIMANTAN BARAT,79283.0,Indonesia,,,,1.0332257,109.604926,https://maps.google.com/?cid=0x0:0x561603f478e323c5,
supermarket,Toko Swalayan,Great Mart,"Jl. Raya Desa Kapur No.97-99, Kapur, Kec. Sungai Raya, Kabupaten Kubu Raya, Kalimantan Barat 78234","Kapur, Kec. Sungai Raya, Kabupaten Kubu Raya",KALIMANTAN BARAT,78234.0,Indonesia, 0895365802060,,,-0.0706542,109.3900579,https://maps.google.com/?cid=0x0:0x9cf16bef00336623,
supermarket,Kantor Perusahaan,Griya bakso,"Jl.sujadi, Sahan, Kec. Sanggau Ledo, Kabupaten Bengkayang, Kalimantan Barat 79285","Sahan, Kec. Sanggau Ledo, Kabupaten Bengkayang",KALIMANTAN BARAT,79285.0,Indonesia, 085348705869,,,1.1388195,109.695384,https://maps.google.com/?cid=0x0:0x5386f9647fa8a3c5,
supermarket,Minimarket,Indomaret Malindo 330,"Jl. Raya Sanggau Ledo No.18, Sentangau Jaya, Kec. Seluas, Kabupaten Bengkayang, Kalimantan Barat 79285","Sentangau Jaya, Kec. Seluas, Kabupaten Bengkayang",KALIMANTAN BARAT,79285.0,Indonesia,,,,1.1654414,109.7653517,https://maps.google.com/?cid=0x0:0x23d06b54606ac848,
supermarket,supermarket,Warung Mbak Lastri,"3P49+WG7, Pisak, Kec. Tujuh Belas, Kabupaten Bengkayang, Kalimantan Barat 79251","Pisak, Kec. Tujuh Belas, Kabupaten Bengkayang",KALIMANTAN BARAT,79251.0,Indonesia, 085251970248,,,1.0572812,109.7188054,https://maps.google.com/?cid=0x0:0x543f421fee61e588,
supermarket,Toko,Toko Bu Sel,"Jl pendidikan, RT.03/RW.01, Pisak, Kec. Tujuh Belas, Kabupaten Bengkayang, Kalimantan Barat 77341","RT.03/RW.01, Pisak, Kec. Tujuh Belas, Kabupaten Bengkayang",KALIMANTAN BARAT,77341.0,Indonesia, 083826529909,,,1.0868493,109.7266148,https://maps.google.com/?cid=0x0:0x48872e33eb4d5650,
supermarket,supermarket,Toko sembako,"3M5W+WV4, Unnamed Road, Pisak, Kec. Tujuh Belas, Kabupaten Bengkayang, Kalimantan Barat 79251","Unnamed Road, Pisak, Kec. Tujuh Belas, Kabupaten Bengkayang",KALIMANTAN BARAT,79251.0,Indonesia, 082150977386,,,1.0597608,109.6971891,https://maps.google.com/?cid=0x0:0xd0e217b9aa54291a,
supermarket,supermarket,Dusun setia bangun paket A kec. Tujuh belas,"3PPG+MP6, RW.Tirayan, setia bangun, Tujuh Belas, Bengkayang Regency, West Kalimantan 79251","RW.Tirayan, setia bangun, Tujuh Belas, Bengkayang Regency",KALIMANTAN BARAT,79251.0,Indonesia,,,,1.0866749,109.7267632,https://maps.google.com/?cid=0x0:0x279364323c4031e4,
supermarket,Toko bahan makanan,Toko Tujuh Belas,"Jl. Kebagusan I No.17 6, RT.6/RW.1, Kebagusan, Ps. Minggu, Kota Jakarta Selatan, Daerah Khusus Ibukota Jakarta 12520","RT.6/RW.1, Kebagusan, Ps. Minggu, Kota Jakarta Selatan",KALIMANTAN BARAT,12520.0,Indonesia, 02153641202,,,-6.3007599,106.8305978,https://maps.google.com/?cid=0x0:0x214a6c108f921c55,
supermarket,Minimarket,Tujuh Belas Swalayan,"Jl.Terminal Lama Ruko No.107, Kadipaten, Kec. Kadipaten, Kabupaten Majalengka, Jawa Barat 45452","Kadipaten, Kec. Kadipaten, Kabupaten Majalengka",KALIMANTAN BARAT,45452.0,Indonesia, 082128558668,,,-6.7661054,108.1701128,https://maps.google.com/?cid=0x0:0x40b9a4a7d13cb483,
supermarket,Pusat Perbelanjaan,GS The Fresh BOXIES,"Jl. Raya Tajur No.125, RT.01/RW.06, Tajur, Kec. Bogor Tim., Kota Bogor, Jawa Barat 16141","RT.01/RW.06, Tajur, Kec. Bogor Tim., Kota Bogor",KALIMANTAN BARAT,16141.0,Indonesia,,,,-6.6338534,106.8265902,https://maps.google.com/?cid=0x0:0xf2e999dd0f1bdf6,
