Category,Real Category,Business Name,Address,City,State,Postal Code,Country,Phone,Latitude,Longitude,Map Link
cafe,Kedai Kopi,Rioco,"Jl. Maluku, Serui Kota, Kec. Yapen Sel., Kabupaten Kepulauan Yapen, Papua 98211","Serui Kota, Kec. Yapen Sel., Kabupaten Kepulauan Yapen",PAPUA,98211.0,Indonesia,82335387595.0,-1.879931,136.2259496,https://maps.google.com/?cid=0x0:0xcd06966c9ddfefb9
cafe,Kafe,Karariri Coffee  Eatery,"46HQ+7HR, Jl. Hassanudin, Serui Kota, Kec. Yapen Sel., Kabupaten Kepulauan Yapen, Papua","Kabupaten Kepulauan Yapen, Papua",PAPUA,,Indonesia,,-1.8717744,136.2388775,https://maps.google.com/?cid=0x0:0x884a42394257efa9
cafe,cafe,,,,PAPUA,,Indonesia,,,,https://maps.google.com/?cid=0x0:0x884a42394257efa9u0026onu003dKopi+Markisau0026midu003d/g/11vjfkv5yk
cafe,cafe,,,,PAPUA,,Indonesia,,,,https://maps.google.com/?cid=0x0:0x884a42394257efa9u0026onu003dSpaghetti+Bolognese+Pastau0026midu003d/g/11vjfkv5yk
cafe,cafe,,,,PAPUA,,Indonesia,,,,https://maps.google.com/?cid=0x0:0x884a42394257efa9u0026onu0026midu003d/g/11vjfkv5yk
cafe,cafe,Papua 98253,"Kabupaten Kepulauan Yapen, Papua","Kabupaten Kepulauan Yapen, Papua",PAPUA,,Indonesia,,-1.692705,135.7710559,https://maps.google.com/?cid=0x0:0xe712ef09824c8ae8
cafe,Kedai Kopi,CORNER Cafe,"4763+6G2, Jl. Moh. Hatta, Warari, Kec. Yapen Sel., Kabupaten Kepulauan Yapen, Papua 98212","Jl. Moh. Hatta, Warari, Kec. Yapen Sel., Kabupaten Kepulauan Yapen",PAPUA,98212.0,Indonesia,85258510000.0,-1.8894765,136.2537775,https://maps.google.com/?cid=0x0:0x15dc32038ef27e93
cafe,Dapur Umum,CAFE MATA KITAAA,"46RQ+725, Unnamed Road, Mantembu, Kec. Yapen Sel., Kabupaten Kepulauan Yapen, Papua 98211","Unnamed Road, Mantembu, Kec. Yapen Sel., Kabupaten Kepulauan Yapen",PAPUA,98211.0,Indonesia,,-1.8593617,136.2376143,https://maps.google.com/?cid=0x0:0x66164c98239f5dd0
cafe,Kedai Kopi,warkop Republik Coffee,"46GX+2Q7, Unnamed Road, Warari, Kec. Yapen Sel., Kabupaten Kepulauan Yapen, Papua 98213","Unnamed Road, Warari, Kec. Yapen Sel., Kabupaten Kepulauan Yapen",PAPUA,98213.0,Indonesia,82293417644.0,-1.8749715,136.2494163,https://maps.google.com/?cid=0x0:0x8e004e64d053e640
cafe,Kedai Kopi,GD Cafe,"46FW+W33, Gg. I KPR, Famboaman, Kec. Yapen Sel., Kabupaten Kepulauan Yapen, Papua 98213","Gg. I KPR, Famboaman, Kec. Yapen Sel., Kabupaten Kepulauan Yapen",PAPUA,98213.0,Indonesia,82199183168.0,-1.8752401,136.245179,https://maps.google.com/?cid=0x0:0x6d0d16f02857b4f7
cafe,Kedai Kopi,Rthree coffee  rest,"468P+5PJ, Jl. Padat Karya, Serui Kota, Kec. Yapen Sel., Kabupaten Kepulauan Yapen, Papua 98627","Jl. Padat Karya, Serui Kota, Kec. Yapen Sel., Kabupaten Kepulauan Yapen",PAPUA,98627.0,Indonesia,81241584548.0,-1.8845257,136.2367688,https://maps.google.com/?cid=0x0:0x972620a571113986
cafe,Kedai Kopi,Oikopi,"Jl. Padat Karya, Tarau, Kec. Yapen Sel., Kabupaten Kepulauan Yapen, Papua 98215","Tarau, Kec. Yapen Sel., Kabupaten Kepulauan Yapen",PAPUA,98215.0,Indonesia,85246386239.0,-1.8817318,136.2350141,https://maps.google.com/?cid=0x0:0xb5bf06580e25e22c
cafe,Kedai Kopi,arabi Coffee,"Jl. Frans Kaisepo, Kaisepo, Kec. Yapen Sel., Kabupaten Kepulauan Yapen, Papua 98213","Kaisepo, Kec. Yapen Sel., Kabupaten Kepulauan Yapen",PAPUA,98213.0,Indonesia,81242795490.0,-1.8775288,136.2468077,https://maps.google.com/?cid=0x0:0xe2d475d10c403795
cafe,Kafe,Classic 2 kafe,"46PQ+VJ5, Mantembu, Kec. Yapen Sel., Kabupaten Kepulauan Yapen, Papua 98211","Mantembu, Kec. Yapen Sel., Kabupaten Kepulauan Yapen",PAPUA,98211.0,Indonesia,,-1.8628667,136.239106,https://maps.google.com/?cid=0x0:0x1836408221a6f57a
cafe,cafe,Papua 98211,"Kec. Yapen Sel., Kabupaten Kepulauan Yapen, Papua","Kabupaten Kepulauan Yapen, Papua",PAPUA,,Indonesia,,-1.7995067,136.2570137,https://maps.google.com/?cid=0x0:0xb2b850cfde1935fd
cafe,Dapur Umum,CAFE MATA KITAAA,"46RQ+725, Unnamed Road, Mantembu, Kec. Yapen Sel., Kabupaten Kepulauan Yapen, Papua 98211","Unnamed Road, Mantembu, Kec. Yapen Sel., Kabupaten Kepulauan Yapen",PAPUA,98211.0,Indonesia,,-1.8593617,136.2376143,https://maps.google.com/?cid=0x0:0x66164c98239f5dd0
cafe,Kedai Kopi,CORNER Cafe,"4763+6G2, Jl. Moh. Hatta, Warari, Kec. Yapen Sel., Kabupaten Kepulauan Yapen, Papua 98212","Jl. Moh. Hatta, Warari, Kec. Yapen Sel., Kabupaten Kepulauan Yapen",PAPUA,98212.0,Indonesia,85258510000.0,-1.8894765,136.2537775,https://maps.google.com/?cid=0x0:0x15dc32038ef27e93
cafe,Kedai Kopi,Rioco,"Jl. Maluku, Serui Kota, Kec. Yapen Sel., Kabupaten Kepulauan Yapen, Papua 98211","Serui Kota, Kec. Yapen Sel., Kabupaten Kepulauan Yapen",PAPUA,98211.0,Indonesia,82335387595.0,-1.879931,136.2259496,https://maps.google.com/?cid=0x0:0xcd06966c9ddfefb9
cafe,Kedai Kopi,GD Cafe,"46FW+W33, Gg. I KPR, Famboaman, Kec. Yapen Sel., Kabupaten Kepulauan Yapen, Papua 98213","Gg. I KPR, Famboaman, Kec. Yapen Sel., Kabupaten Kepulauan Yapen",PAPUA,98213.0,Indonesia,82199183168.0,-1.8752401,136.245179,https://maps.google.com/?cid=0x0:0x6d0d16f02857b4f7
cafe,Kedai Kopi,arabi Coffee,"Jl. Frans Kaisepo, Kaisepo, Kec. Yapen Sel., Kabupaten Kepulauan Yapen, Papua 98213","Kaisepo, Kec. Yapen Sel., Kabupaten Kepulauan Yapen",PAPUA,98213.0,Indonesia,81242795490.0,-1.8775288,136.2468077,https://maps.google.com/?cid=0x0:0xe2d475d10c403795
cafe,Kedai Kopi,warkop Republik Coffee,"46GX+2Q7, Unnamed Road, Warari, Kec. Yapen Sel., Kabupaten Kepulauan Yapen, Papua 98213","Unnamed Road, Warari, Kec. Yapen Sel., Kabupaten Kepulauan Yapen",PAPUA,98213.0,Indonesia,82293417644.0,-1.8749715,136.2494163,https://maps.google.com/?cid=0x0:0x8e004e64d053e640
cafe,Kafe,Classic#1Cafe,"46RP+492, Mantembu, Kec. Yapen Sel., Kabupaten Kepulauan Yapen, Papua 98211","Mantembu, Kec. Yapen Sel., Kabupaten Kepulauan Yapen",PAPUA,98211.0,Indonesia,,-1.8597258,136.2359024,https://maps.google.com/?cid=0x0:0x1167154d86a3841e
cafe,Kedai Kopi,Domino CafÃ©,"468V+4VH, Serui Kota, Kec. Yapen Sel., Kabupaten Kepulauan Yapen, Papua 98215","Serui Kota, Kec. Yapen Sel., Kabupaten Kepulauan Yapen",PAPUA,98215.0,Indonesia,81240509805.0,-1.8846804,136.2447424,https://maps.google.com/?cid=0x0:0x199fe5be8a44fa07
cafe,Kedai Kopi,SETIA CAFE,"46FR+6R5, Serui Jaya, Kec. Yapen Sel., Kabupaten Kepulauan Yapen, Papua 98213","Serui Jaya, Kec. Yapen Sel., Kabupaten Kepulauan Yapen",PAPUA,98213.0,Indonesia,,-1.8772767,136.2424757,https://maps.google.com/?cid=0x0:0xc0de8f5469650110
cafe,Kafe,Enjoy,"Jalan moh.toha, anotaurei, Kec. Yapen Sel., Kabupaten Kepulauan Yapen, Papua 98211","anotaurei, Kec. Yapen Sel., Kabupaten Kepulauan Yapen",PAPUA,98211.0,Indonesia,,-1.8627747,136.2384829,https://maps.google.com/?cid=0x0:0x131dfb2a528fb53f
cafe,Kafe,TONK PU CAFE  RESTO,"Warari, Kec. Yapen Sel., Kabupaten Kepulauan Yapen, Papua 98212","Kec. Yapen Sel., Kabupaten Kepulauan Yapen",PAPUA,98212.0,Indonesia,8522342132.0,-1.8748379,136.2489907,https://maps.google.com/?cid=0x0:0x92750332302c358e
cafe,Kafe,Maharani,"46PQ+HQJ, Anatorei, Kec. Yapen Sel., Kabupaten Kepulauan Yapen, Papua 98211","Anatorei, Kec. Yapen Sel., Kabupaten Kepulauan Yapen",PAPUA,98211.0,Indonesia,,-1.8635391,136.2393854,https://maps.google.com/?cid=0x0:0x3f318d924627cb16
cafe,Kedai Kopi,Oikopi,"Jl. Padat Karya, Tarau, Kec. Yapen Sel., Kabupaten Kepulauan Yapen, Papua 98215","Tarau, Kec. Yapen Sel., Kabupaten Kepulauan Yapen",PAPUA,98215.0,Indonesia,85246386239.0,-1.8817318,136.2350141,https://maps.google.com/?cid=0x0:0xb5bf06580e25e22c
cafe,Kedai Kopi,CORNER Cafe,"4763+6G2, Jl. Moh. Hatta, Warari, Kec. Yapen Sel., Kabupaten Kepulauan Yapen, Papua 98212","Jl. Moh. Hatta, Warari, Kec. Yapen Sel., Kabupaten Kepulauan Yapen",PAPUA,98212.0,Indonesia,85258510000.0,-1.8894765,136.2537775,https://maps.google.com/?cid=0x0:0x15dc32038ef27e93
cafe,cafe,Papua 98212,"Warari, Kec. Yapen Sel., Kabupaten Kepulauan Yapen, Papua","Kabupaten Kepulauan Yapen, Papua",PAPUA,,Indonesia,,-1.8764518,136.2546196,https://maps.google.com/?cid=0x0:0x297f020ff7113bd
cafe,Kafe,TONK PU CAFE  RESTO,"Warari, Kec. Yapen Sel., Kabupaten Kepulauan Yapen, Papua 98212","Kec. Yapen Sel., Kabupaten Kepulauan Yapen",PAPUA,98212.0,Indonesia,8522342132.0,-1.8748379,136.2489907,https://maps.google.com/?cid=0x0:0x92750332302c358e
cafe,Kedai Kopi,arabi Coffee,"Jl. Frans Kaisepo, Kaisepo, Kec. Yapen Sel., Kabupaten Kepulauan Yapen, Papua 98213","Kaisepo, Kec. Yapen Sel., Kabupaten Kepulauan Yapen",PAPUA,98213.0,Indonesia,81242795490.0,-1.8775288,136.2468077,https://maps.google.com/?cid=0x0:0xe2d475d10c403795
cafe,Kedai Kopi,Domino CafÃ©,"468V+4VH, Serui Kota, Kec. Yapen Sel., Kabupaten Kepulauan Yapen, Papua 98215","Serui Kota, Kec. Yapen Sel., Kabupaten Kepulauan Yapen",PAPUA,98215.0,Indonesia,81240509805.0,-1.8846804,136.2447424,https://maps.google.com/?cid=0x0:0x199fe5be8a44fa07
cafe,Kedai Kopi,GD Cafe,"46FW+W33, Gg. I KPR, Famboaman, Kec. Yapen Sel., Kabupaten Kepulauan Yapen, Papua 98213","Gg. I KPR, Famboaman, Kec. Yapen Sel., Kabupaten Kepulauan Yapen",PAPUA,98213.0,Indonesia,82199183168.0,-1.8752401,136.245179,https://maps.google.com/?cid=0x0:0x6d0d16f02857b4f7
cafe,Kedai Kopi,warkop Republik Coffee,"46GX+2Q7, Unnamed Road, Warari, Kec. Yapen Sel., Kabupaten Kepulauan Yapen, Papua 98213","Unnamed Road, Warari, Kec. Yapen Sel., Kabupaten Kepulauan Yapen",PAPUA,98213.0,Indonesia,82293417644.0,-1.8749715,136.2494163,https://maps.google.com/?cid=0x0:0x8e004e64d053e640
cafe,Dapur Umum,CAFE MATA KITAAA,"46RQ+725, Unnamed Road, Mantembu, Kec. Yapen Sel., Kabupaten Kepulauan Yapen, Papua 98211","Unnamed Road, Mantembu, Kec. Yapen Sel., Kabupaten Kepulauan Yapen",PAPUA,98211.0,Indonesia,,-1.8593617,136.2376143,https://maps.google.com/?cid=0x0:0x66164c98239f5dd0
cafe,Kafe,Classic 2 kafe,"46PQ+VJ5, Mantembu, Kec. Yapen Sel., Kabupaten Kepulauan Yapen, Papua 98211","Mantembu, Kec. Yapen Sel., Kabupaten Kepulauan Yapen",PAPUA,98211.0,Indonesia,,-1.8628667,136.239106,https://maps.google.com/?cid=0x0:0x1836408221a6f57a
cafe,Kedai Kopi,SETIA CAFE,"46FR+6R5, Serui Jaya, Kec. Yapen Sel., Kabupaten Kepulauan Yapen, Papua 98213","Serui Jaya, Kec. Yapen Sel., Kabupaten Kepulauan Yapen",PAPUA,98213.0,Indonesia,,-1.8772767,136.2424757,https://maps.google.com/?cid=0x0:0xc0de8f5469650110
cafe,Kafe,RG_BARKIT,"47G3+244, Jl. Ke Menawi, Warari, Kec. Yapen Sel., Kabupaten Kepulauan Yapen, Papua 98212","Jl. Ke Menawi, Warari, Kec. Yapen Sel., Kabupaten Kepulauan Yapen",PAPUA,98212.0,Indonesia,,-1.8749753,136.2528303,https://maps.google.com/?cid=0x0:0x6f123f1cc98338b4
cafe,Kedai Kopi,Oikopi,"Jl. Padat Karya, Tarau, Kec. Yapen Sel., Kabupaten Kepulauan Yapen, Papua 98215","Tarau, Kec. Yapen Sel., Kabupaten Kepulauan Yapen",PAPUA,98215.0,Indonesia,85246386239.0,-1.8817318,136.2350141,https://maps.google.com/?cid=0x0:0xb5bf06580e25e22c
cafe,Kedai Kopi,Cafe six6lounge  cavabonnugget,"46GQ+MHQ, Serui Kota, Kec. Yapen Sel., Kabupaten Kepulauan Yapen, Papua 98213","Serui Kota, Kec. Yapen Sel., Kabupaten Kepulauan Yapen",PAPUA,98213.0,Indonesia,82343387575.0,-1.8732783,136.2388577,https://maps.google.com/?cid=0x0:0x8e0076f773f51b5e
cafe,Kafe,Pondok Noken Manbers,"47F3+X6R, Jl. Frans Kaisepo, Warari, Kec. Yapen Sel., Kabupaten Kepulauan Yapen, Papua 98213","Jl. Frans Kaisepo, Warari, Kec. Yapen Sel., Kabupaten Kepulauan Yapen",PAPUA,98213.0,Indonesia,81248839720.0,-1.8750091,136.2530212,https://maps.google.com/?cid=0x0:0x2c332521d56e14c1
cafe,cafe,Papua 98213,"Kec. Yapen Sel., Kabupaten Kepulauan Yapen, Papua","Kabupaten Kepulauan Yapen, Papua",PAPUA,,Indonesia,,-1.8722668,136.2354713,https://maps.google.com/?cid=0x0:0xf81978a1f9fcf655
cafe,Kafe,Karariri Coffee  Eatery,"46HQ+7HR, Jl. Hassanudin, Serui Kota, Kec. Yapen Sel., Kabupaten Kepulauan Yapen, Papua","Kabupaten Kepulauan Yapen, Papua",PAPUA,,Indonesia,,-1.8717744,136.2388775,https://maps.google.com/?cid=0x0:0x884a42394257efa9
cafe,Dapur Umum,CAFE MATA KITAAA,"46RQ+725, Unnamed Road, Mantembu, Kec. Yapen Sel., Kabupaten Kepulauan Yapen, Papua 98211","Unnamed Road, Mantembu, Kec. Yapen Sel., Kabupaten Kepulauan Yapen",PAPUA,98211.0,Indonesia,,-1.8593617,136.2376143,https://maps.google.com/?cid=0x0:0x66164c98239f5dd0
cafe,Kedai Kopi,GD Cafe,"46FW+W33, Gg. I KPR, Famboaman, Kec. Yapen Sel., Kabupaten Kepulauan Yapen, Papua 98213","Gg. I KPR, Famboaman, Kec. Yapen Sel., Kabupaten Kepulauan Yapen",PAPUA,98213.0,Indonesia,82199183168.0,-1.8752401,136.245179,https://maps.google.com/?cid=0x0:0x6d0d16f02857b4f7
cafe,Kedai Kopi,CORNER Cafe,"4763+6G2, Jl. Moh. Hatta, Warari, Kec. Yapen Sel., Kabupaten Kepulauan Yapen, Papua 98212","Jl. Moh. Hatta, Warari, Kec. Yapen Sel., Kabupaten Kepulauan Yapen",PAPUA,98212.0,Indonesia,85258510000.0,-1.8894765,136.2537775,https://maps.google.com/?cid=0x0:0x15dc32038ef27e93
cafe,Kedai Kopi,Cafe six6lounge  cavabonnugget,"46GQ+MHQ, Serui Kota, Kec. Yapen Sel., Kabupaten Kepulauan Yapen, Papua 98213","Serui Kota, Kec. Yapen Sel., Kabupaten Kepulauan Yapen",PAPUA,98213.0,Indonesia,82343387575.0,-1.8732783,136.2388577,https://maps.google.com/?cid=0x0:0x8e0076f773f51b5e
cafe,Kedai Kopi,warkop Republik Coffee,"46GX+2Q7, Unnamed Road, Warari, Kec. Yapen Sel., Kabupaten Kepulauan Yapen, Papua 98213","Unnamed Road, Warari, Kec. Yapen Sel., Kabupaten Kepulauan Yapen",PAPUA,98213.0,Indonesia,82293417644.0,-1.8749715,136.2494163,https://maps.google.com/?cid=0x0:0x8e004e64d053e640
cafe,Kedai Kopi,SETIA CAFE,"46FR+6R5, Serui Jaya, Kec. Yapen Sel., Kabupaten Kepulauan Yapen, Papua 98213","Serui Jaya, Kec. Yapen Sel., Kabupaten Kepulauan Yapen",PAPUA,98213.0,Indonesia,,-1.8772767,136.2424757,https://maps.google.com/?cid=0x0:0xc0de8f5469650110
cafe,Kedai Kopi,History Cafe,"46GR+V3X, Serui Kota, Kec. Yapen Sel., Kabupaten Kepulauan Yapen, Papua 98213","Serui Kota, Kec. Yapen Sel., Kabupaten Kepulauan Yapen",PAPUA,98213.0,Indonesia,,-1.8727586,136.240242,https://maps.google.com/?cid=0x0:0xd5a3a90561e257c
cafe,Kedai Kopi,Domino CafÃ©,"468V+4VH, Serui Kota, Kec. Yapen Sel., Kabupaten Kepulauan Yapen, Papua 98215","Serui Kota, Kec. Yapen Sel., Kabupaten Kepulauan Yapen",PAPUA,98215.0,Indonesia,81240509805.0,-1.8846804,136.2447424,https://maps.google.com/?cid=0x0:0x199fe5be8a44fa07
cafe,Kedai Kopi,Rthree coffee  rest,"468P+5PJ, Jl. Padat Karya, Serui Kota, Kec. Yapen Sel., Kabupaten Kepulauan Yapen, Papua 98627","Jl. Padat Karya, Serui Kota, Kec. Yapen Sel., Kabupaten Kepulauan Yapen",PAPUA,98627.0,Indonesia,81241584548.0,-1.8845257,136.2367688,https://maps.google.com/?cid=0x0:0x972620a571113986
cafe,cafe,Ai Coffee,"469Q+86P, Jl. Kapitan Pattimura, Serui Kota, Kec. Yapen Sel., Kabupaten Kepulauan Yapen, Papua 98215","Jl. Kapitan Pattimura, Serui Kota, Kec. Yapen Sel., Kabupaten Kepulauan Yapen",PAPUA,98215.0,Indonesia,85244930342.0,-1.8816738,136.2380813,https://maps.google.com/?cid=0x0:0xff771704e8c071d8
cafe,Kedai Kopi,Rioco,"Jl. Maluku, Serui Kota, Kec. Yapen Sel., Kabupaten Kepulauan Yapen, Papua 98211","Serui Kota, Kec. Yapen Sel., Kabupaten Kepulauan Yapen",PAPUA,98211.0,Indonesia,82335387595.0,-1.879931,136.2259496,https://maps.google.com/?cid=0x0:0xcd06966c9ddfefb9
cafe,Kedai Kopi,Oikopi,"Jl. Padat Karya, Tarau, Kec. Yapen Sel., Kabupaten Kepulauan Yapen, Papua 98215","Tarau, Kec. Yapen Sel., Kabupaten Kepulauan Yapen",PAPUA,98215.0,Indonesia,85246386239.0,-1.8817318,136.2350141,https://maps.google.com/?cid=0x0:0xb5bf06580e25e22c
cafe,cafe,Papua 98214,"Yapan, Kec. Yapen Sel., Kabupaten Kepulauan Yapen, Papua","Kabupaten Kepulauan Yapen, Papua",PAPUA,,Indonesia,,-1.8312862,136.2426511,https://maps.google.com/?cid=0x0:0x80248e4590702d10
cafe,Dapur Umum,CAFE MATA KITAAA,"46RQ+725, Unnamed Road, Mantembu, Kec. Yapen Sel., Kabupaten Kepulauan Yapen, Papua 98211","Unnamed Road, Mantembu, Kec. Yapen Sel., Kabupaten Kepulauan Yapen",PAPUA,98211.0,Indonesia,,-1.8593617,136.2376143,https://maps.google.com/?cid=0x0:0x66164c98239f5dd0
cafe,Kafe,Karariri Coffee  Eatery,"46HQ+7HR, Jl. Hassanudin, Serui Kota, Kec. Yapen Sel., Kabupaten Kepulauan Yapen, Papua","Kabupaten Kepulauan Yapen, Papua",PAPUA,,Indonesia,,-1.8717744,136.2388775,https://maps.google.com/?cid=0x0:0x884a42394257efa9
cafe,Kafe,Enjoy,"Jalan moh.toha, anotaurei, Kec. Yapen Sel., Kabupaten Kepulauan Yapen, Papua 98211","anotaurei, Kec. Yapen Sel., Kabupaten Kepulauan Yapen",PAPUA,98211.0,Indonesia,,-1.8627747,136.2384829,https://maps.google.com/?cid=0x0:0x131dfb2a528fb53f
cafe,Kafe,Classic 2 kafe,"46PQ+VJ5, Mantembu, Kec. Yapen Sel., Kabupaten Kepulauan Yapen, Papua 98211","Mantembu, Kec. Yapen Sel., Kabupaten Kepulauan Yapen",PAPUA,98211.0,Indonesia,,-1.8628667,136.239106,https://maps.google.com/?cid=0x0:0x1836408221a6f57a
cafe,Kedai Kopi,arabi Coffee,"Jl. Frans Kaisepo, Kaisepo, Kec. Yapen Sel., Kabupaten Kepulauan Yapen, Papua 98213","Kaisepo, Kec. Yapen Sel., Kabupaten Kepulauan Yapen",PAPUA,98213.0,Indonesia,81242795490.0,-1.8775288,136.2468077,https://maps.google.com/?cid=0x0:0xe2d475d10c403795
cafe,Kafe,Maharani,"46PQ+HQJ, Anatorei, Kec. Yapen Sel., Kabupaten Kepulauan Yapen, Papua 98211","Anatorei, Kec. Yapen Sel., Kabupaten Kepulauan Yapen",PAPUA,98211.0,Indonesia,,-1.8635391,136.2393854,https://maps.google.com/?cid=0x0:0x3f318d924627cb16
cafe,Kafe,TONK PU CAFE  RESTO,"Warari, Kec. Yapen Sel., Kabupaten Kepulauan Yapen, Papua 98212","Kec. Yapen Sel., Kabupaten Kepulauan Yapen",PAPUA,98212.0,Indonesia,8522342132.0,-1.8748379,136.2489907,https://maps.google.com/?cid=0x0:0x92750332302c358e
cafe,Kedai Kopi,Oikopi,"Jl. Padat Karya, Tarau, Kec. Yapen Sel., Kabupaten Kepulauan Yapen, Papua 98215","Tarau, Kec. Yapen Sel., Kabupaten Kepulauan Yapen",PAPUA,98215.0,Indonesia,85246386239.0,-1.8817318,136.2350141,https://maps.google.com/?cid=0x0:0xb5bf06580e25e22c
cafe,Kafe,Classic#1Cafe,"46RP+492, Mantembu, Kec. Yapen Sel., Kabupaten Kepulauan Yapen, Papua 98211","Mantembu, Kec. Yapen Sel., Kabupaten Kepulauan Yapen",PAPUA,98211.0,Indonesia,,-1.8597258,136.2359024,https://maps.google.com/?cid=0x0:0x1167154d86a3841e
cafe,Kedai Kopi,warkop Republik Coffee,"46GX+2Q7, Unnamed Road, Warari, Kec. Yapen Sel., Kabupaten Kepulauan Yapen, Papua 98213","Unnamed Road, Warari, Kec. Yapen Sel., Kabupaten Kepulauan Yapen",PAPUA,98213.0,Indonesia,82293417644.0,-1.8749715,136.2494163,https://maps.google.com/?cid=0x0:0x8e004e64d053e640
cafe,Tujuan Wisata,Aide Pu Tempat,"46MR+H32, Famboaman, Kec. Yapen Sel., Kabupaten Kepulauan Yapen, Papua 98213","Famboaman, Kec. Yapen Sel., Kabupaten Kepulauan Yapen",PAPUA,98213.0,Indonesia,,-1.8661156,136.2401348,https://maps.google.com/?cid=0x0:0xeb97f1044c696eb3
cafe,Kedai Kopi,Pondok_kopiaide,"Jalan pertanian wainakawini, Anatorei, Kec. Yapen Sel., Kabupaten Kepulauan Yapen, Papua 98213","Anatorei, Kec. Yapen Sel., Kabupaten Kepulauan Yapen",PAPUA,98213.0,Indonesia,82197849420.0,-1.8696428,136.2363142,https://maps.google.com/?cid=0x0:0xeb737ada76360073
cafe,Kedai Kopi,Kopi Yoi,"Jl. Palapa, Serui Kota, Kec. Yapen Sel., Kabupaten Kepulauan Yapen, Papua 98215","Serui Kota, Kec. Yapen Sel., Kabupaten Kepulauan Yapen",PAPUA,98215.0,Indonesia,82335387595.0,-1.8814483,136.2415865,https://maps.google.com/?cid=0x0:0x904943177ae0c946
cafe,Kedai Kopi,CORNER Cafe,"4763+6G2, Jl. Moh. Hatta, Warari, Kec. Yapen Sel., Kabupaten Kepulauan Yapen, Papua 98212","Jl. Moh. Hatta, Warari, Kec. Yapen Sel., Kabupaten Kepulauan Yapen",PAPUA,98212.0,Indonesia,85258510000.0,-1.8894765,136.2537775,https://maps.google.com/?cid=0x0:0x15dc32038ef27e93
cafe,cafe,Kec. Yapen Sel.,"Kabupaten Kepulauan Yapen, Papua","Kabupaten Kepulauan Yapen, Papua",PAPUA,,Indonesia,,-1.884104,136.2418748,https://maps.google.com/?cid=0x0:0x3f81bf02f4d4d5c7
cafe,Dapur Umum,CAFE MATA KITAAA,"46RQ+725, Unnamed Road, Mantembu, Kec. Yapen Sel., Kabupaten Kepulauan Yapen, Papua 98211","Unnamed Road, Mantembu, Kec. Yapen Sel., Kabupaten Kepulauan Yapen",PAPUA,98211.0,Indonesia,,-1.8593617,136.2376143,https://maps.google.com/?cid=0x0:0x66164c98239f5dd0
cafe,cafe,Ai Coffee,"469Q+86P, Jl. Kapitan Pattimura, Serui Kota, Kec. Yapen Sel., Kabupaten Kepulauan Yapen, Papua 98215","Jl. Kapitan Pattimura, Serui Kota, Kec. Yapen Sel., Kabupaten Kepulauan Yapen",PAPUA,98215.0,Indonesia,85244930342.0,-1.8816738,136.2380813,https://maps.google.com/?cid=0x0:0xff771704e8c071d8
cafe,Kedai Kopi,Domino CafÃ©,"468V+4VH, Serui Kota, Kec. Yapen Sel., Kabupaten Kepulauan Yapen, Papua 98215","Serui Kota, Kec. Yapen Sel., Kabupaten Kepulauan Yapen",PAPUA,98215.0,Indonesia,81240509805.0,-1.8846804,136.2447424,https://maps.google.com/?cid=0x0:0x199fe5be8a44fa07
cafe,Kedai Kopi,Oikopi,"Jl. Padat Karya, Tarau, Kec. Yapen Sel., Kabupaten Kepulauan Yapen, Papua 98215","Tarau, Kec. Yapen Sel., Kabupaten Kepulauan Yapen",PAPUA,98215.0,Indonesia,85246386239.0,-1.8817318,136.2350141,https://maps.google.com/?cid=0x0:0xb5bf06580e25e22c
cafe,Kedai Kopi,titik kumpul wong tulus,"468M+3J5, Jl. Padat Karya, Tarau, Kec. Yapen Sel., Kabupaten Kepulauan Yapen, Papua 98215","Jl. Padat Karya, Tarau, Kec. Yapen Sel., Kabupaten Kepulauan Yapen",PAPUA,98215.0,Indonesia,,-1.8848645,136.2341119,https://maps.google.com/?cid=0x0:0x9aedc52ec39e7dd
cafe,Kedai Kopi,GD Cafe,"46FW+W33, Gg. I KPR, Famboaman, Kec. Yapen Sel., Kabupaten Kepulauan Yapen, Papua 98213","Gg. I KPR, Famboaman, Kec. Yapen Sel., Kabupaten Kepulauan Yapen",PAPUA,98213.0,Indonesia,82199183168.0,-1.8752401,136.245179,https://maps.google.com/?cid=0x0:0x6d0d16f02857b4f7
cafe,Kedai Kopi,arabi Coffee,"Jl. Frans Kaisepo, Kaisepo, Kec. Yapen Sel., Kabupaten Kepulauan Yapen, Papua 98213","Kaisepo, Kec. Yapen Sel., Kabupaten Kepulauan Yapen",PAPUA,98213.0,Indonesia,81242795490.0,-1.8775288,136.2468077,https://maps.google.com/?cid=0x0:0xe2d475d10c403795
cafe,Kedai Kopi,Rioco,"Jl. Maluku, Serui Kota, Kec. Yapen Sel., Kabupaten Kepulauan Yapen, Papua 98211","Serui Kota, Kec. Yapen Sel., Kabupaten Kepulauan Yapen",PAPUA,98211.0,Indonesia,82335387595.0,-1.879931,136.2259496,https://maps.google.com/?cid=0x0:0xcd06966c9ddfefb9
cafe,Kafe,Classic 2 kafe,"46PQ+VJ5, Mantembu, Kec. Yapen Sel., Kabupaten Kepulauan Yapen, Papua 98211","Mantembu, Kec. Yapen Sel., Kabupaten Kepulauan Yapen",PAPUA,98211.0,Indonesia,,-1.8628667,136.239106,https://maps.google.com/?cid=0x0:0x1836408221a6f57a
cafe,Kafe,TONK PU CAFE  RESTO,"Warari, Kec. Yapen Sel., Kabupaten Kepulauan Yapen, Papua 98212","Kec. Yapen Sel., Kabupaten Kepulauan Yapen",PAPUA,98212.0,Indonesia,8522342132.0,-1.8748379,136.2489907,https://maps.google.com/?cid=0x0:0x92750332302c358e
cafe,Restoran,Rahang Tuna,"468P+422, Jl. Padat Karya, Tarau, Kec. Yapen Sel., Kabupaten Kepulauan Yapen, Papua 98215","Jl. Padat Karya, Tarau, Kec. Yapen Sel., Kabupaten Kepulauan Yapen",PAPUA,98215.0,Indonesia,82199909712.0,-1.8847373,136.2349963,https://maps.google.com/?cid=0x0:0xc38b623461dafaf2
cafe,Kedai Kopi,Kopi Yoi,"Jl. Palapa, Serui Kota, Kec. Yapen Sel., Kabupaten Kepulauan Yapen, Papua 98215","Serui Kota, Kec. Yapen Sel., Kabupaten Kepulauan Yapen",PAPUA,98215.0,Indonesia,82335387595.0,-1.8814483,136.2415865,https://maps.google.com/?cid=0x0:0x904943177ae0c946
cafe,cafe,Distrik Yapen Timur,"Kabupaten Kepulauan Yapen, Papua","Kabupaten Kepulauan Yapen, Papua",PAPUA,,Indonesia,,-1.8231626,136.7603579,https://maps.google.com/?cid=0x0:0x8aa6062a086a2ccd
cafe,Indonesia,Warung Mbh Samad,"5QJ7+583, Tim., Awunawai, Distrik Yapen Timur, Kabupaten Kepulauan Yapen, Papua 98252","Tim., Awunawai, Distrik Yapen Timur, Kabupaten Kepulauan Yapen",PAPUA,98252.0,Indonesia,,-1.8196149,136.7632972,https://maps.google.com/?cid=0x0:0x7fe8302c599748a3
cafe,cafe,Caffe break,"5PHW+V72, Dawai, Distrik Yapen Timur, Kabupaten Kepulauan Yapen, Papua 98252","Dawai, Distrik Yapen Timur, Kabupaten Kepulauan Yapen",PAPUA,98252.0,Indonesia,,-1.8203584,136.7456343,https://maps.google.com/?cid=0x0:0xa4b4428111882212
cafe,cafe,Warung Mbk Mia,"5QJ7+9R4, Awunawai, Distrik Yapen Timur, Kabupaten Kepulauan Yapen, Papua 98252","Awunawai, Distrik Yapen Timur, Kabupaten Kepulauan Yapen",PAPUA,98252.0,Indonesia,,-1.8191031,136.7645844,https://maps.google.com/?cid=0x0:0x22f3e08baf1b81be
cafe,cafe,Warung Banyuwangi,"5QH7+WJ4, Awunawai, Distrik Yapen Timur, Kabupaten Kepulauan Yapen, Papua 98252","Awunawai, Distrik Yapen Timur, Kabupaten Kepulauan Yapen",PAPUA,98252.0,Indonesia,,-1.8202414,136.7640755,https://maps.google.com/?cid=0x0:0x37a923e04842787f
cafe,cafe,Warung TKW,"5QJ7+7MW, Awunawai, Distrik Yapen Timur, Kabupaten Kepulauan Yapen, Papua 98252","Awunawai, Distrik Yapen Timur, Kabupaten Kepulauan Yapen",PAPUA,98252.0,Indonesia,,-1.8192561,136.7642156,https://maps.google.com/?cid=0x0:0xa5205fd9c292679b
cafe,cafe,Warung Mbak Mia,"5QW6+FWQ, Awunawai, Dawai, Distrik Yapen Timur, Kabupaten Kepulauan Yapen, Papua 98252","Awunawai, Dawai, Distrik Yapen Timur, Kabupaten Kepulauan Yapen",PAPUA,98252.0,Indonesia,,-1.803794,136.7623591,https://maps.google.com/?cid=0x0:0xdf2b227de5c85b26
cafe,cafe,Kedai Makan,"5QJ6+G5H, Awunawai, Distrik Yapen Timur, Kabupaten Kepulauan Yapen, Papua 98252","Awunawai, Distrik Yapen Timur, Kabupaten Kepulauan Yapen",PAPUA,98252.0,Indonesia,,-1.8186952,136.7604739,https://maps.google.com/?cid=0x0:0x73a1a2bebcb47411
cafe,cafe,Warung Gado Gado,"5QJ7+49R, Awunawai, Distrik Yapen Timur, Kabupaten Kepulauan Yapen, Papua 98252","Awunawai, Distrik Yapen Timur, Kabupaten Kepulauan Yapen",PAPUA,98252.0,Indonesia,,-1.8196396,136.7633771,https://maps.google.com/?cid=0x0:0x98879cdec3173c6
cafe,Toko bahan makanan,Toserba 03,"5QJ7+56H, Tim, Awunawai, Distrik Yapen Timur, Kabupaten Kepulauan Yapen, Papua 98252","Tim, Awunawai, Distrik Yapen Timur, Kabupaten Kepulauan Yapen",PAPUA,98252.0,Indonesia,,-1.8186178,136.7624303,https://maps.google.com/?cid=0x0:0xad16e13f8406bc2a
cafe,Kedai Kopi,CORNER Cafe,"4763+6G2, Jl. Moh. Hatta, Warari, Kec. Yapen Sel., Kabupaten Kepulauan Yapen, Papua 98212","Jl. Moh. Hatta, Warari, Kec. Yapen Sel., Kabupaten Kepulauan Yapen",PAPUA,98212.0,Indonesia,85258510000.0,-1.8894765,136.2537775,https://maps.google.com/?cid=0x0:0x15dc32038ef27e93
cafe,cafe,Papua 98255,"Kabupaten Kepulauan Yapen, Papua","Kabupaten Kepulauan Yapen, Papua",PAPUA,,Indonesia,,-1.8086855,136.3240951,https://maps.google.com/?cid=0x0:0x438de2bf5d4cd8af
cafe,Kedai Kopi,arabi Coffee,"Jl. Frans Kaisepo, Kaisepo, Kec. Yapen Sel., Kabupaten Kepulauan Yapen, Papua 98213","Kaisepo, Kec. Yapen Sel., Kabupaten Kepulauan Yapen",PAPUA,98213.0,Indonesia,81242795490.0,-1.8775288,136.2468077,https://maps.google.com/?cid=0x0:0xe2d475d10c403795
cafe,Kedai Kopi,Domino CafÃ©,"468V+4VH, Serui Kota, Kec. Yapen Sel., Kabupaten Kepulauan Yapen, Papua 98215","Serui Kota, Kec. Yapen Sel., Kabupaten Kepulauan Yapen",PAPUA,98215.0,Indonesia,81240509805.0,-1.8846804,136.2447424,https://maps.google.com/?cid=0x0:0x199fe5be8a44fa07
cafe,Kafe,TONK PU CAFE  RESTO,"Warari, Kec. Yapen Sel., Kabupaten Kepulauan Yapen, Papua 98212","Kec. Yapen Sel., Kabupaten Kepulauan Yapen",PAPUA,98212.0,Indonesia,8522342132.0,-1.8748379,136.2489907,https://maps.google.com/?cid=0x0:0x92750332302c358e
cafe,Kedai Kopi,GD Cafe,"46FW+W33, Gg. I KPR, Famboaman, Kec. Yapen Sel., Kabupaten Kepulauan Yapen, Papua 98213","Gg. I KPR, Famboaman, Kec. Yapen Sel., Kabupaten Kepulauan Yapen",PAPUA,98213.0,Indonesia,82199183168.0,-1.8752401,136.245179,https://maps.google.com/?cid=0x0:0x6d0d16f02857b4f7
cafe,Dapur Umum,CAFE MATA KITAAA,"46RQ+725, Unnamed Road, Mantembu, Kec. Yapen Sel., Kabupaten Kepulauan Yapen, Papua 98211","Unnamed Road, Mantembu, Kec. Yapen Sel., Kabupaten Kepulauan Yapen",PAPUA,98211.0,Indonesia,,-1.8593617,136.2376143,https://maps.google.com/?cid=0x0:0x66164c98239f5dd0
cafe,Kedai Kopi,warkop Republik Coffee,"46GX+2Q7, Unnamed Road, Warari, Kec. Yapen Sel., Kabupaten Kepulauan Yapen, Papua 98213","Unnamed Road, Warari, Kec. Yapen Sel., Kabupaten Kepulauan Yapen",PAPUA,98213.0,Indonesia,82293417644.0,-1.8749715,136.2494163,https://maps.google.com/?cid=0x0:0x8e004e64d053e640
cafe,Kedai Kopi,Cafe six6lounge  cavabonnugget,"46GQ+MHQ, Serui Kota, Kec. Yapen Sel., Kabupaten Kepulauan Yapen, Papua 98213","Serui Kota, Kec. Yapen Sel., Kabupaten Kepulauan Yapen",PAPUA,98213.0,Indonesia,82343387575.0,-1.8732783,136.2388577,https://maps.google.com/?cid=0x0:0x8e0076f773f51b5e
cafe,Kedai Kopi,Rioco,"Jl. Maluku, Serui Kota, Kec. Yapen Sel., Kabupaten Kepulauan Yapen, Papua 98211","Serui Kota, Kec. Yapen Sel., Kabupaten Kepulauan Yapen",PAPUA,98211.0,Indonesia,82335387595.0,-1.879931,136.2259496,https://maps.google.com/?cid=0x0:0xcd06966c9ddfefb9
cafe,Kafe,Pondok Noken Manbers,"47F3+X6R, Jl. Frans Kaisepo, Warari, Kec. Yapen Sel., Kabupaten Kepulauan Yapen, Papua 98213","Jl. Frans Kaisepo, Warari, Kec. Yapen Sel., Kabupaten Kepulauan Yapen",PAPUA,98213.0,Indonesia,81248839720.0,-1.8750091,136.2530212,https://maps.google.com/?cid=0x0:0x2c332521d56e14c1
cafe,Kafe,RG_BARKIT,"47G3+244, Jl. Ke Menawi, Warari, Kec. Yapen Sel., Kabupaten Kepulauan Yapen, Papua 98212","Jl. Ke Menawi, Warari, Kec. Yapen Sel., Kabupaten Kepulauan Yapen",PAPUA,98212.0,Indonesia,,-1.8749753,136.2528303,https://maps.google.com/?cid=0x0:0x6f123f1cc98338b4
cafe,Kedai Kopi,SETIA CAFE,"46FR+6R5, Serui Jaya, Kec. Yapen Sel., Kabupaten Kepulauan Yapen, Papua 98213","Serui Jaya, Kec. Yapen Sel., Kabupaten Kepulauan Yapen",PAPUA,98213.0,Indonesia,,-1.8772767,136.2424757,https://maps.google.com/?cid=0x0:0xc0de8f5469650110
cafe,cafe,Ai Coffee,"469Q+86P, Jl. Kapitan Pattimura, Serui Kota, Kec. Yapen Sel., Kabupaten Kepulauan Yapen, Papua 98215","Jl. Kapitan Pattimura, Serui Kota, Kec. Yapen Sel., Kabupaten Kepulauan Yapen",PAPUA,98215.0,Indonesia,85244930342.0,-1.8816738,136.2380813,https://maps.google.com/?cid=0x0:0xff771704e8c071d8
cafe,cafe,Papua 98254,"Kabupaten Kepulauan Yapen, Papua","Kabupaten Kepulauan Yapen, Papua",PAPUA,,Indonesia,,-1.668696,135.9229866,https://maps.google.com/?cid=0x0:0x786984f83d38aaec
cafe,Kafe,PUA-PUA CAFE,"Jl. Budi Utomo, Nawaripi, Kec. Mimika Baru, Kabupaten Mimika, Papua 99952","Nawaripi, Kec. Mimika Baru, Kabupaten Mimika",PAPUA,99952.0,Indonesia,82346750560.0,-4.5620805,136.8806057,https://maps.google.com/?cid=0x0:0xb7cc07f877baacb2
cafe,Kafe,Ropopang x Eskole Cafe Jayapura,"Jl. Ps. Yotefa No.33, Wai Mhorock, Kec. Abepura, Kota Jayapura, Papua 99351","Wai Mhorock, Kec. Abepura, Kota Jayapura",PAPUA,99351.0,Indonesia,81240970364.0,-2.6084375,140.6777793,https://maps.google.com/?cid=0x0:0x8aa1325684f15ea1
cafe,Rumah Makan,Rumah makan,"QCP8+MP3, Kemon Jaya Sp V, Kec. Urei Faisei, Kabupaten Waropen, Papua 98261","Kemon Jaya Sp V, Kec. Urei Faisei, Kabupaten Waropen",PAPUA,98261.0,Indonesia,,-2.2140649,136.4173409,https://maps.google.com/?cid=0x0:0x2d4fae651be1463b
cafe,cafe,,,,PAPUA,,Indonesia,,,,https://maps.google.com/?cid=0x0:0x8902420b92236840u0026onu003dVietnam+Drip+Coffee+Mantapu0026midu003d/g/11gff5tnbh
cafe,cafe,,,,PAPUA,,Indonesia,,,,https://maps.google.com/?cid=0x0:0x8902420b92236840u0026onu003dBanana+Fries+with+Palm+Sugar+and+Black+Coffeeu0026midu003d/g/11gff5tnbh
cafe,cafe,,,,PAPUA,,Indonesia,,,,https://maps.google.com/?cid=0x0:0x8902420b92236840u0026onu0026midu003d/g/11gff5tnbh
cafe,Kedai Kopi,Pouter Coffee Tebet,"Jl. Tebet Timur Dalam Raya No.107a, RT.5/RW.6, Tebet Tim., Kec. Tebet, Kota Jakarta Selatan, Daerah Khusus Ibukota Jakarta 12820","RT.5/RW.6, Tebet Tim., Kec. Tebet, Kota Jakarta Selatan",PAPUA,12820.0,Indonesia,82190008319.0,-6.2369989,106.8570549,https://maps.google.com/?cid=0x0:0xf927f4578a372a13
cafe,Kedai Kopi,Pouter Coffee Sunset Avenue,"Sunset Avenue Aeroworld 8, Citra Garden City Unit SPT-E, Pegadungan, Kec. Kalideres, Kota Jakarta Barat, Daerah Khusus Ibukota Jakarta 11830","Citra Garden City Unit SPT-E, Pegadungan, Kec. Kalideres, Kota Jakarta Barat",PAPUA,11830.0,Indonesia,85117352528.0,-6.1235739,106.6931799,https://maps.google.com/?cid=0x0:0x2a6c2744fd99d146
cafe,Kafe,Pouter Coffee Wisma 46,"Kantor Cabang BNI, Gedung Wisma 46, Jl. Jenderal Sudirman No.Kav. 1 Lantai Dasar, Karet Tengsin, Kecamatan Tanah Abang, Kota Jakarta Pusat, Daerah Khusus Ibukota Jakarta 10220","Gedung Wisma 46, Jl. Jenderal Sudirman No.Kav. 1 Lantai Dasar, Karet Tengsin, Kecamatan Tanah Abang, Kota Jakarta Pusat",PAPUA,10220.0,Indonesia,82190003627.0,-6.2037448,106.8205199,https://maps.google.com/?cid=0x0:0x1d0da5065c17c79b
cafe,Kedai Kopi,ASAGAO Coffee House Puri Indah,"Jl. Puri Kembangan No.28, RT.1/RW.8, Kembangan Sel., Kec. Kembangan, Kota Jakarta Barat, Daerah Khusus Ibukota Jakarta 11610","RT.1/RW.8, Kembangan Sel., Kec. Kembangan, Kota Jakarta Barat",PAPUA,11610.0,Indonesia,85211560002.0,-6.1818176,106.7513127,https://maps.google.com/?cid=0x0:0xa80155b34e69ff97
cafe,Kedai Kopi,Kurasu Kissaten,"Jl. Iskandarsyah I No.9, Melawai, Kec. Kby. Baru, Kota Jakarta Selatan, Daerah Khusus Ibukota Jakarta 12160","Melawai, Kec. Kby. Baru, Kota Jakarta Selatan",PAPUA,12160.0,Indonesia,81944280808.0,-6.2433904,106.8041722,https://maps.google.com/?cid=0x0:0xbd078fa7fc64f96a
cafe,Restoran,Lola Coffee,"Jl. Raya Pos Pengumben No.38, RT.1/RW.5, Klp. Dua, Kec. Kb. Jeruk, Kota Jakarta Barat, Daerah Khusus Ibukota Jakarta 11550","RT.1/RW.5, Klp. Dua, Kec. Kb. Jeruk, Kota Jakarta Barat",PAPUA,11550.0,Indonesia,81220008504.0,-6.2163844,106.7717579,https://maps.google.com/?cid=0x0:0x146790e11efcc7da
cafe,Kedai Kopi,Smoking Barrels Atelier,"Jl. Cilandak Tengah Raya No.8, Cilandak Bar., Kec. Cilandak, Kota Jakarta Selatan, Daerah Khusus Ibukota Jakarta 12430","Cilandak Bar., Kec. Cilandak, Kota Jakarta Selatan",PAPUA,12430.0,Indonesia,85280072545.0,-6.2870389,106.80215,https://maps.google.com/?cid=0x0:0x7102363fff0acaeb
cafe,cafe,Papua 98215,"Kabupaten Kepulauan Yapen, Papua","Kabupaten Kepulauan Yapen, Papua",PAPUA,,Indonesia,,-1.8017548,136.0944845,https://maps.google.com/?cid=0x0:0xd235688620f2534d
cafe,Kedai Kopi,Oikopi,"Jl. Padat Karya, Tarau, Kec. Yapen Sel., Kabupaten Kepulauan Yapen, Papua 98215","Tarau, Kec. Yapen Sel., Kabupaten Kepulauan Yapen",PAPUA,98215.0,Indonesia,85246386239.0,-1.8817318,136.2350141,https://maps.google.com/?cid=0x0:0xb5bf06580e25e22c
cafe,Kedai Kopi,Domino CafÃ©,"468V+4VH, Serui Kota, Kec. Yapen Sel., Kabupaten Kepulauan Yapen, Papua 98215","Serui Kota, Kec. Yapen Sel., Kabupaten Kepulauan Yapen",PAPUA,98215.0,Indonesia,81240509805.0,-1.8846804,136.2447424,https://maps.google.com/?cid=0x0:0x199fe5be8a44fa07
cafe,Kafe,Karariri Coffee  Eatery,"46HQ+7HR, Jl. Hassanudin, Serui Kota, Kec. Yapen Sel., Kabupaten Kepulauan Yapen, Papua","Kabupaten Kepulauan Yapen, Papua",PAPUA,,Indonesia,,-1.8717744,136.2388775,https://maps.google.com/?cid=0x0:0x884a42394257efa9
cafe,Kedai Kopi,Rioco,"Jl. Maluku, Serui Kota, Kec. Yapen Sel., Kabupaten Kepulauan Yapen, Papua 98211","Serui Kota, Kec. Yapen Sel., Kabupaten Kepulauan Yapen",PAPUA,98211.0,Indonesia,82335387595.0,-1.879931,136.2259496,https://maps.google.com/?cid=0x0:0xcd06966c9ddfefb9
cafe,Dapur Umum,CAFE MATA KITAAA,"46RQ+725, Unnamed Road, Mantembu, Kec. Yapen Sel., Kabupaten Kepulauan Yapen, Papua 98211","Unnamed Road, Mantembu, Kec. Yapen Sel., Kabupaten Kepulauan Yapen",PAPUA,98211.0,Indonesia,,-1.8593617,136.2376143,https://maps.google.com/?cid=0x0:0x66164c98239f5dd0
cafe,cafe,Ai Coffee,"469Q+86P, Jl. Kapitan Pattimura, Serui Kota, Kec. Yapen Sel., Kabupaten Kepulauan Yapen, Papua 98215","Jl. Kapitan Pattimura, Serui Kota, Kec. Yapen Sel., Kabupaten Kepulauan Yapen",PAPUA,98215.0,Indonesia,85244930342.0,-1.8816738,136.2380813,https://maps.google.com/?cid=0x0:0xff771704e8c071d8
cafe,Restoran,Rahang Tuna,"468P+422, Jl. Padat Karya, Tarau, Kec. Yapen Sel., Kabupaten Kepulauan Yapen, Papua 98215","Jl. Padat Karya, Tarau, Kec. Yapen Sel., Kabupaten Kepulauan Yapen",PAPUA,98215.0,Indonesia,82199909712.0,-1.8847373,136.2349963,https://maps.google.com/?cid=0x0:0xc38b623461dafaf2
cafe,Kedai Kopi,titik kumpul wong tulus,"468M+3J5, Jl. Padat Karya, Tarau, Kec. Yapen Sel., Kabupaten Kepulauan Yapen, Papua 98215","Jl. Padat Karya, Tarau, Kec. Yapen Sel., Kabupaten Kepulauan Yapen",PAPUA,98215.0,Indonesia,,-1.8848645,136.2341119,https://maps.google.com/?cid=0x0:0x9aedc52ec39e7dd
cafe,Kedai Kopi,Cafe six6lounge  cavabonnugget,"46GQ+MHQ, Serui Kota, Kec. Yapen Sel., Kabupaten Kepulauan Yapen, Papua 98213","Serui Kota, Kec. Yapen Sel., Kabupaten Kepulauan Yapen",PAPUA,98213.0,Indonesia,82343387575.0,-1.8732783,136.2388577,https://maps.google.com/?cid=0x0:0x8e0076f773f51b5e
cafe,Kedai Kopi,arabi Coffee,"Jl. Frans Kaisepo, Kaisepo, Kec. Yapen Sel., Kabupaten Kepulauan Yapen, Papua 98213","Kaisepo, Kec. Yapen Sel., Kabupaten Kepulauan Yapen",PAPUA,98213.0,Indonesia,81242795490.0,-1.8775288,136.2468077,https://maps.google.com/?cid=0x0:0xe2d475d10c403795
cafe,Kedai Kopi,Kopi Yoi,"Jl. Palapa, Serui Kota, Kec. Yapen Sel., Kabupaten Kepulauan Yapen, Papua 98215","Serui Kota, Kec. Yapen Sel., Kabupaten Kepulauan Yapen",PAPUA,98215.0,Indonesia,82335387595.0,-1.8814483,136.2415865,https://maps.google.com/?cid=0x0:0x904943177ae0c946
cafe,Jawa,Warung MUGOJOYO,"46CR+2RP, Serui Jaya, Kec. Yapen Sel., Kabupaten Kepulauan Yapen, Papua 98215","Serui Jaya, Kec. Yapen Sel., Kabupaten Kepulauan Yapen",PAPUA,98215.0,Indonesia,85757135505.0,-1.8799081,136.24208,https://maps.google.com/?cid=0x0:0xe33bc98fbbaeba7c
cafe,Kedai Kopi,SETIA CAFE,"46FR+6R5, Serui Jaya, Kec. Yapen Sel., Kabupaten Kepulauan Yapen, Papua 98213","Serui Jaya, Kec. Yapen Sel., Kabupaten Kepulauan Yapen",PAPUA,98213.0,Indonesia,,-1.8772767,136.2424757,https://maps.google.com/?cid=0x0:0xc0de8f5469650110
cafe,cafe,Papua 98252,"Kabupaten Kepulauan Yapen, Papua","Kabupaten Kepulauan Yapen, Papua",PAPUA,,Indonesia,,-1.7581253,136.5547852,https://maps.google.com/?cid=0x0:0xe52dde0e102e427c
cafe,Kedai Kopi,CORNER Cafe,"4763+6G2, Jl. Moh. Hatta, Warari, Kec. Yapen Sel., Kabupaten Kepulauan Yapen, Papua 98212","Jl. Moh. Hatta, Warari, Kec. Yapen Sel., Kabupaten Kepulauan Yapen",PAPUA,98212.0,Indonesia,85258510000.0,-1.8894765,136.2537775,https://maps.google.com/?cid=0x0:0x15dc32038ef27e93
cafe,Dapur Umum,CAFE MATA KITAAA,"46RQ+725, Unnamed Road, Mantembu, Kec. Yapen Sel., Kabupaten Kepulauan Yapen, Papua 98211","Unnamed Road, Mantembu, Kec. Yapen Sel., Kabupaten Kepulauan Yapen",PAPUA,98211.0,Indonesia,,-1.8593617,136.2376143,https://maps.google.com/?cid=0x0:0x66164c98239f5dd0
cafe,cafe,Ai Coffee,"469Q+86P, Jl. Kapitan Pattimura, Serui Kota, Kec. Yapen Sel., Kabupaten Kepulauan Yapen, Papua 98215","Jl. Kapitan Pattimura, Serui Kota, Kec. Yapen Sel., Kabupaten Kepulauan Yapen",PAPUA,98215.0,Indonesia,85244930342.0,-1.8816738,136.2380813,https://maps.google.com/?cid=0x0:0xff771704e8c071d8
cafe,Kedai Kopi,Oikopi,"Jl. Padat Karya, Tarau, Kec. Yapen Sel., Kabupaten Kepulauan Yapen, Papua 98215","Tarau, Kec. Yapen Sel., Kabupaten Kepulauan Yapen",PAPUA,98215.0,Indonesia,85246386239.0,-1.8817318,136.2350141,https://maps.google.com/?cid=0x0:0xb5bf06580e25e22c
cafe,Kedai Kopi,GD Cafe,"46FW+W33, Gg. I KPR, Famboaman, Kec. Yapen Sel., Kabupaten Kepulauan Yapen, Papua 98213","Gg. I KPR, Famboaman, Kec. Yapen Sel., Kabupaten Kepulauan Yapen",PAPUA,98213.0,Indonesia,82199183168.0,-1.8752401,136.245179,https://maps.google.com/?cid=0x0:0x6d0d16f02857b4f7
cafe,Kafe,TONK PU CAFE  RESTO,"Warari, Kec. Yapen Sel., Kabupaten Kepulauan Yapen, Papua 98212","Kec. Yapen Sel., Kabupaten Kepulauan Yapen",PAPUA,98212.0,Indonesia,8522342132.0,-1.8748379,136.2489907,https://maps.google.com/?cid=0x0:0x92750332302c358e
cafe,Kedai Kopi,Domino CafÃ©,"468V+4VH, Serui Kota, Kec. Yapen Sel., Kabupaten Kepulauan Yapen, Papua 98215","Serui Kota, Kec. Yapen Sel., Kabupaten Kepulauan Yapen",PAPUA,98215.0,Indonesia,81240509805.0,-1.8846804,136.2447424,https://maps.google.com/?cid=0x0:0x199fe5be8a44fa07
cafe,Kedai Kopi,Rioco,"Jl. Maluku, Serui Kota, Kec. Yapen Sel., Kabupaten Kepulauan Yapen, Papua 98211","Serui Kota, Kec. Yapen Sel., Kabupaten Kepulauan Yapen",PAPUA,98211.0,Indonesia,82335387595.0,-1.879931,136.2259496,https://maps.google.com/?cid=0x0:0xcd06966c9ddfefb9
cafe,Kedai Kopi,warkop Republik Coffee,"46GX+2Q7, Unnamed Road, Warari, Kec. Yapen Sel., Kabupaten Kepulauan Yapen, Papua 98213","Unnamed Road, Warari, Kec. Yapen Sel., Kabupaten Kepulauan Yapen",PAPUA,98213.0,Indonesia,82293417644.0,-1.8749715,136.2494163,https://maps.google.com/?cid=0x0:0x8e004e64d053e640
cafe,Kedai Kopi,arabi Coffee,"Jl. Frans Kaisepo, Kaisepo, Kec. Yapen Sel., Kabupaten Kepulauan Yapen, Papua 98213","Kaisepo, Kec. Yapen Sel., Kabupaten Kepulauan Yapen",PAPUA,98213.0,Indonesia,81242795490.0,-1.8775288,136.2468077,https://maps.google.com/?cid=0x0:0xe2d475d10c403795
cafe,Kafe,Enjoy,"Jalan moh.toha, anotaurei, Kec. Yapen Sel., Kabupaten Kepulauan Yapen, Papua 98211","anotaurei, Kec. Yapen Sel., Kabupaten Kepulauan Yapen",PAPUA,98211.0,Indonesia,,-1.8627747,136.2384829,https://maps.google.com/?cid=0x0:0x131dfb2a528fb53f
cafe,Kedai Kopi,Cafe six6lounge  cavabonnugget,"46GQ+MHQ, Serui Kota, Kec. Yapen Sel., Kabupaten Kepulauan Yapen, Papua 98213","Serui Kota, Kec. Yapen Sel., Kabupaten Kepulauan Yapen",PAPUA,98213.0,Indonesia,82343387575.0,-1.8732783,136.2388577,https://maps.google.com/?cid=0x0:0x8e0076f773f51b5e
cafe,Restoran,Rahang Tuna,"468P+422, Jl. Padat Karya, Tarau, Kec. Yapen Sel., Kabupaten Kepulauan Yapen, Papua 98215","Jl. Padat Karya, Tarau, Kec. Yapen Sel., Kabupaten Kepulauan Yapen",PAPUA,98215.0,Indonesia,82199909712.0,-1.8847373,136.2349963,https://maps.google.com/?cid=0x0:0xc38b623461dafaf2
cafe,cafe,Distrik Raimbawi,"Kabupaten Kepulauan Yapen, Papua","Kabupaten Kepulauan Yapen, Papua",PAPUA,,Indonesia,,-1.767849,136.8405357,https://maps.google.com/?cid=0x0:0x5bfe03ebf6ec49ab
cafe,Dapur Umum,CAFE MATA KITAAA,"46RQ+725, Unnamed Road, Mantembu, Kec. Yapen Sel., Kabupaten Kepulauan Yapen, Papua 98211","Unnamed Road, Mantembu, Kec. Yapen Sel., Kabupaten Kepulauan Yapen",PAPUA,98211.0,Indonesia,,-1.8593617,136.2376143,https://maps.google.com/?cid=0x0:0x66164c98239f5dd0
cafe,Indonesia,Warung Mbh Samad,"5QJ7+583, Tim., Awunawai, Distrik Yapen Timur, Kabupaten Kepulauan Yapen, Papua 98252","Tim., Awunawai, Distrik Yapen Timur, Kabupaten Kepulauan Yapen",PAPUA,98252.0,Indonesia,,-1.8196149,136.7632972,https://maps.google.com/?cid=0x0:0x7fe8302c599748a3
cafe,cafe,Gorengan sumilir,"5QJ7+57F Tim, Awunawai, Distrik Yapen Timur, Kabupaten Kepulauan Yapen, Papua 98252","Awunawai, Distrik Yapen Timur, Kabupaten Kepulauan Yapen",PAPUA,98252.0,Indonesia,,-1.8195687,136.763172,https://maps.google.com/?cid=0x0:0x1ca1e90b10b33d8c
cafe,cafe,Warung Mbk Mia,"5QJ7+9R4, Awunawai, Distrik Yapen Timur, Kabupaten Kepulauan Yapen, Papua 98252","Awunawai, Distrik Yapen Timur, Kabupaten Kepulauan Yapen",PAPUA,98252.0,Indonesia,,-1.8191031,136.7645844,https://maps.google.com/?cid=0x0:0x22f3e08baf1b81be
cafe,cafe,Warung Banyuwangi,"5QH7+WJ4, Awunawai, Distrik Yapen Timur, Kabupaten Kepulauan Yapen, Papua 98252","Awunawai, Distrik Yapen Timur, Kabupaten Kepulauan Yapen",PAPUA,98252.0,Indonesia,,-1.8202414,136.7640755,https://maps.google.com/?cid=0x0:0x37a923e04842787f
cafe,cafe,Warung Mbak Mia,"5QW6+FWQ, Awunawai, Dawai, Distrik Yapen Timur, Kabupaten Kepulauan Yapen, Papua 98252","Awunawai, Dawai, Distrik Yapen Timur, Kabupaten Kepulauan Yapen",PAPUA,98252.0,Indonesia,,-1.803794,136.7623591,https://maps.google.com/?cid=0x0:0xdf2b227de5c85b26
cafe,cafe,Kedai Makan,"5QJ6+G5H, Awunawai, Distrik Yapen Timur, Kabupaten Kepulauan Yapen, Papua 98252","Awunawai, Distrik Yapen Timur, Kabupaten Kepulauan Yapen",PAPUA,98252.0,Indonesia,,-1.8186952,136.7604739,https://maps.google.com/?cid=0x0:0x73a1a2bebcb47411
cafe,cafe,Warung TKW,"5QJ7+7MW, Awunawai, Distrik Yapen Timur, Kabupaten Kepulauan Yapen, Papua 98252","Awunawai, Distrik Yapen Timur, Kabupaten Kepulauan Yapen",PAPUA,98252.0,Indonesia,,-1.8192561,136.7642156,https://maps.google.com/?cid=0x0:0xa5205fd9c292679b
cafe,cafe,Warung Gado Gado,"5QJ7+49R, Awunawai, Distrik Yapen Timur, Kabupaten Kepulauan Yapen, Papua 98252","Awunawai, Distrik Yapen Timur, Kabupaten Kepulauan Yapen",PAPUA,98252.0,Indonesia,,-1.8196396,136.7633771,https://maps.google.com/?cid=0x0:0x98879cdec3173c6
cafe,Kedai Kopi,warkop Republik Coffee,"46GX+2Q7, Unnamed Road, Warari, Kec. Yapen Sel., Kabupaten Kepulauan Yapen, Papua 98213","Unnamed Road, Warari, Kec. Yapen Sel., Kabupaten Kepulauan Yapen",PAPUA,98213.0,Indonesia,82293417644.0,-1.8749715,136.2494163,https://maps.google.com/?cid=0x0:0x8e004e64d053e640
cafe,Dapur Umum,CAFE MATA KITAAA,"46RQ+725, Unnamed Road, Mantembu, Kec. Yapen Sel., Kabupaten Kepulauan Yapen, Papua 98211","Unnamed Road, Mantembu, Kec. Yapen Sel., Kabupaten Kepulauan Yapen",PAPUA,98211.0,Indonesia,,-1.8593617,136.2376143,https://maps.google.com/?cid=0x0:0x66164c98239f5dd0
cafe,Kedai Kopi,Cafe Mata Kita,"46CP+QMV, Serui Kota, Kec. Yapen Sel., Kabupaten Kepulauan Yapen, Papua","Kabupaten Kepulauan Yapen, Papua",PAPUA,,Indonesia,,-1.878015,136.236664,https://maps.google.com/?cid=0x0:0xf0591322015e3d2a
cafe,cafe,,,,PAPUA,,Indonesia,,,,https://maps.google.com/?cid=0x0:0x66164c98239f5dd0u0026onu003dKentang+Goreng+%26+Pisang+Goreng+Sambal+Roau0026midu003d/g/11pd0hg2l9
cafe,cafe,,,,PAPUA,,Indonesia,,,,https://maps.google.com/?cid=0x0:0x66164c98239f5dd0u0026onu003dKopi+Susuu0026midu003d/g/11pd0hg2l9
cafe,cafe,,,,PAPUA,,Indonesia,,,,https://maps.google.com/?cid=0x0:0x66164c98239f5dd0u0026onu0026midu003d/g/11pd0hg2l9
cafe,cafe,Distrik Tlk. Ampimoi,"Kabupaten Kepulauan Yapen, Papua","Kabupaten Kepulauan Yapen, Papua",PAPUA,,Indonesia,,-1.8521856,136.5246471,https://maps.google.com/?cid=0x0:0x9f8f93e4402acbda
cafe,cafe,Warung Mbk Mia,"5QJ7+9R4, Awunawai, Distrik Yapen Timur, Kabupaten Kepulauan Yapen, Papua 98252","Awunawai, Distrik Yapen Timur, Kabupaten Kepulauan Yapen",PAPUA,98252.0,Indonesia,,-1.8191031,136.7645844,https://maps.google.com/?cid=0x0:0x22f3e08baf1b81be
cafe,cafe,Gorengan sumilir,"5QJ7+57F Tim, Awunawai, Distrik Yapen Timur, Kabupaten Kepulauan Yapen, Papua 98252","Awunawai, Distrik Yapen Timur, Kabupaten Kepulauan Yapen",PAPUA,98252.0,Indonesia,,-1.8195687,136.763172,https://maps.google.com/?cid=0x0:0x1ca1e90b10b33d8c
cafe,cafe,Papua 98255,"Kabupaten Kepulauan Yapen, Papua","Kabupaten Kepulauan Yapen, Papua",PAPUA,,Indonesia,,-1.8086855,136.3240951,https://maps.google.com/?cid=0x0:0x438de2bf5d4cd8af
cafe,Kafe,Karariri Coffee  Eatery,"46HQ+7HR, Jl. Hassanudin, Serui Kota, Kec. Yapen Sel., Kabupaten Kepulauan Yapen, Papua","Kabupaten Kepulauan Yapen, Papua",PAPUA,,Indonesia,,-1.8717744,136.2388775,https://maps.google.com/?cid=0x0:0x884a42394257efa9
cafe,Dapur Umum,CAFE MATA KITAAA,"46RQ+725, Unnamed Road, Mantembu, Kec. Yapen Sel., Kabupaten Kepulauan Yapen, Papua 98211","Unnamed Road, Mantembu, Kec. Yapen Sel., Kabupaten Kepulauan Yapen",PAPUA,98211.0,Indonesia,,-1.8593617,136.2376143,https://maps.google.com/?cid=0x0:0x66164c98239f5dd0
cafe,cafe,Cafe B314,"467W+PXF, Serui Jaya, Kec. Yapen Sel., Kabupaten Kepulauan Yapen, Papua 98215","Serui Jaya, Kec. Yapen Sel., Kabupaten Kepulauan Yapen",PAPUA,98215.0,Indonesia,,-1.8859275,136.2486682,https://maps.google.com/?cid=0x0:0x1f65246acfcac4d1
cafe,cafe,PISLUM ENO  BOBA AMER BROTHER JOE,"468X+5FV, Serui Jaya, Kec. Yapen Sel., Kabupaten Kepulauan Yapen, Papua 98212","Serui Jaya, Kec. Yapen Sel., Kabupaten Kepulauan Yapen",PAPUA,98212.0,Indonesia,,-1.8844947,136.248679,https://maps.google.com/?cid=0x0:0x71859b33fe31069d
cafe,cafe,Kec. Kepulauan Ambai,"Kabupaten Kepulauan Yapen, Papua","Kabupaten Kepulauan Yapen, Papua",PAPUA,,Indonesia,,-1.9166902,136.3460141,https://maps.google.com/?cid=0x0:0x384e3e9ebfdfa4b6
cafe,Kedai Kopi,CORNER Cafe,"4763+6G2, Jl. Moh. Hatta, Warari, Kec. Yapen Sel., Kabupaten Kepulauan Yapen, Papua 98212","Jl. Moh. Hatta, Warari, Kec. Yapen Sel., Kabupaten Kepulauan Yapen",PAPUA,98212.0,Indonesia,85258510000.0,-1.8894765,136.2537775,https://maps.google.com/?cid=0x0:0x15dc32038ef27e93
cafe,Kedai Kopi,warkop Republik Coffee,"46GX+2Q7, Unnamed Road, Warari, Kec. Yapen Sel., Kabupaten Kepulauan Yapen, Papua 98213","Unnamed Road, Warari, Kec. Yapen Sel., Kabupaten Kepulauan Yapen",PAPUA,98213.0,Indonesia,82293417644.0,-1.8749715,136.2494163,https://maps.google.com/?cid=0x0:0x8e004e64d053e640
cafe,Kafe,TONK PU CAFE  RESTO,"Warari, Kec. Yapen Sel., Kabupaten Kepulauan Yapen, Papua 98212","Kec. Yapen Sel., Kabupaten Kepulauan Yapen",PAPUA,98212.0,Indonesia,8522342132.0,-1.8748379,136.2489907,https://maps.google.com/?cid=0x0:0x92750332302c358e
cafe,Kafe,RG_BARKIT,"47G3+244, Jl. Ke Menawi, Warari, Kec. Yapen Sel., Kabupaten Kepulauan Yapen, Papua 98212","Jl. Ke Menawi, Warari, Kec. Yapen Sel., Kabupaten Kepulauan Yapen",PAPUA,98212.0,Indonesia,,-1.8749753,136.2528303,https://maps.google.com/?cid=0x0:0x6f123f1cc98338b4
cafe,Kafe,Pondok Noken Manbers,"47F3+X6R, Jl. Frans Kaisepo, Warari, Kec. Yapen Sel., Kabupaten Kepulauan Yapen, Papua 98213","Jl. Frans Kaisepo, Warari, Kec. Yapen Sel., Kabupaten Kepulauan Yapen",PAPUA,98213.0,Indonesia,81248839720.0,-1.8750091,136.2530212,https://maps.google.com/?cid=0x0:0x2c332521d56e14c1
cafe,Kafe,Jawa house,"47G3+MRX, Warari, Kec. Yapen Sel., Kabupaten Kepulauan Yapen, Papua","Kabupaten Kepulauan Yapen, Papua",PAPUA,,Indonesia,,-1.8732577,136.2545967,https://maps.google.com/?cid=0x0:0xf6503e246def45ab
cafe,cafe,Distrik Wonawa,"Kabupaten Kepulauan Yapen, Papua","Kabupaten Kepulauan Yapen, Papua",PAPUA,,Indonesia,,-1.6107554,135.4427446,https://maps.google.com/?cid=0x0:0xb73fde2341a96d85
cafe,Kafe,Waanal Coffee And Resto,"Jl. Cendrawasih, Karang Senang, Kec. Kuala Kencana, Kabupaten Mimika, Papua 99910","Karang Senang, Kec. Kuala Kencana, Kabupaten Mimika",PAPUA,99910.0,Indonesia,81248677897.0,-4.4916566,136.8474106,https://maps.google.com/?cid=0x0:0xe6f6936c8a14d771
cafe,cafe,Ghaiwando Cafe  Waribo Outdoor,"Wobari, Ghaiwando, Kabupaten Waropen, Papua 98674","Ghaiwando, Kabupaten Waropen",PAPUA,98674.0,Indonesia,82397608800.0,-2.3155621,136.6210457,https://maps.google.com/?cid=0x0:0x17fcc24606f65753
cafe,cafe,Kafe Marano,"46HV+49W, Jl. KPR, Famboaman, Kec. Yapen Sel., Kabupaten Kepulauan Yapen, Papua 98213","Jl. KPR, Famboaman, Kec. Yapen Sel., Kabupaten Kepulauan Yapen",PAPUA,98213.0,Indonesia,,-1.8721252,136.2434447,https://maps.google.com/?cid=0x0:0x2779f17b8f8c76b
cafe,cafe,Yohanis wayoi,"36XG+9R9, Serui Laut, Kec. Yapen Sel., Kabupaten Kepulauan Yapen, Papua 98215","Serui Laut, Kec. Yapen Sel., Kabupaten Kepulauan Yapen",PAPUA,98215.0,Indonesia,,-1.9015896,136.2270963,https://maps.google.com/?cid=0x0:0x6543efd7e68b18e2
cafe,Kedai Kopi,Melanesian Coffee,"Jl. Wasior - Rado, Moru, Distrik Wasior, Kabupaten Teluk Wondama, Papua Bar. 98362","Moru, Distrik Wasior, Kabupaten Teluk Wondama",PAPUA,98362.0,Indonesia,81240930026.0,-2.7016017,134.5057633,https://maps.google.com/?cid=0x0:0xd845bbbbbdd329ed
cafe,Tujuan Wisata,Wondama,"48VF+WFJ, Iriati, Kuri Wamesa, Kabupaten Teluk Wondama, Papua Bar.","Kabupaten Teluk Wondama, Papua Bar.",PAPUA,,Indonesia,85319092604.0,-2.8551699,134.3236557,https://maps.google.com/?cid=0x0:0x8ce6de66c8bd402f
cafe,cafe,,,,PAPUA,,Indonesia,,,,https://maps.google.com/?cid=0x0:0xd845bbbbbdd329edu0026onu0026midu003d/g/11n7jlh0fy
cafe,cafe,,,,PAPUA,,Indonesia,,,,https://maps.google.com/?cid=0x0:0xb63cd8c8fc7867bfu0026onu003dSea+Salt+Latteu0026midu003d/g/11kpfmz44c
cafe,Kedai Kopi,Two Seven Four Cafe PIK 2,"Kavling Komersial Wall Street 1 No.25, Banten","Kabupaten Tangerang, Banten",PAPUA,,Indonesia,,-6.069671,106.7001876,https://maps.google.com/?cid=0x0:0x7e248422f033a91b
cafe,cafe,,,,PAPUA,,Indonesia,,,,https://maps.google.com/?cid=0x0:0xb63cd8c8fc7867bfu0026onu003dTiramisuu0026midu003d/g/11kpfmz44c
cafe,cafe,,,,PAPUA,,Indonesia,,,,https://maps.google.com/?cid=0x0:0xb63cd8c8fc7867bfu0026onu003dCafee+Latte+Dan+French+Friesu0026midu003d/g/11kpfmz44c
cafe,cafe,,,,PAPUA,,Indonesia,,,,https://maps.google.com/?cid=0x0:0xb63cd8c8fc7867bfu0026onu003dCheesecakes+Originalu0026midu003d/g/11kpfmz44c
cafe,cafe,,,,PAPUA,,Indonesia,,,,https://maps.google.com/?cid=0x0:0xb63cd8c8fc7867bfu0026onu003dChocolate+Cheesecakeu0026midu003d/g/11kpfmz44c
cafe,cafe,,,,PAPUA,,Indonesia,,,,https://maps.google.com/?cid=0x0:0xb63cd8c8fc7867bfu0026onu003dBurnt+Cheesecakeu0026midu003d/g/11kpfmz44c
cafe,cafe,,,,PAPUA,,Indonesia,,,,https://maps.google.com/?cid=0x0:0xb63cd8c8fc7867bfu0026onu003dWintermelon+Teau0026midu003d/g/11kpfmz44c
cafe,cafe,,,,PAPUA,,Indonesia,,,,https://maps.google.com/?cid=0x0:0xb63cd8c8fc7867bfu0026onu003dIced+Americanou0026midu003d/g/11kpfmz44c
cafe,cafe,,,,PAPUA,,Indonesia,,,,https://maps.google.com/?cid=0x0:0xb63cd8c8fc7867bfu0026onu003dOsmanthus+Teau0026midu003d/g/11kpfmz44c
cafe,cafe,,,,PAPUA,,Indonesia,,,,https://maps.google.com/?cid=0x0:0xb63cd8c8fc7867bfu0026onu003dMochi+Cheesecake+Sliceu0026midu003d/g/11kpfmz44c
cafe,Kedai Kopi,Melanesian Coffee,"Jl. Wasior - Rado, Moru, Distrik Wasior, Kabupaten Teluk Wondama, Papua Bar. 98362","Moru, Distrik Wasior, Kabupaten Teluk Wondama",PAPUA,98362.0,Indonesia,81240930026.0,-2.7016017,134.5057633,https://maps.google.com/?cid=0x0:0xd845bbbbbdd329ed
cafe,Tujuan Wisata,Wondama,"48VF+WFJ, Iriati, Kuri Wamesa, Kabupaten Teluk Wondama, Papua Bar.","Kabupaten Teluk Wondama, Papua Bar.",PAPUA,,Indonesia,85319092604.0,-2.8551699,134.3236557,https://maps.google.com/?cid=0x0:0x8ce6de66c8bd402f
cafe,cafe,,,,PAPUA,,Indonesia,,,,https://maps.google.com/?cid=0x0:0xd845bbbbbdd329edu0026onu0026midu003d/g/11n7jlh0fy
cafe,Kedai Kopi,Two Seven Four Cafe PIK 2,"Kavling Komersial Wall Street 1 No.25, Banten","Kabupaten Tangerang, Banten",PAPUA,,Indonesia,,-6.069671,106.7001876,https://maps.google.com/?cid=0x0:0x7e248422f033a91b
cafe,cafe,,,,PAPUA,,Indonesia,,,,https://maps.google.com/?cid=0x0:0xb63cd8c8fc7867bfu0026onu003dSea+Salt+Latteu0026midu003d/g/11kpfmz44c
cafe,cafe,,,,PAPUA,,Indonesia,,,,https://maps.google.com/?cid=0x0:0xb63cd8c8fc7867bfu0026onu003dTiramisuu0026midu003d/g/11kpfmz44c
cafe,cafe,,,,PAPUA,,Indonesia,,,,https://maps.google.com/?cid=0x0:0xb63cd8c8fc7867bfu0026onu003dCafee+Latte+Dan+French+Friesu0026midu003d/g/11kpfmz44c
cafe,cafe,,,,PAPUA,,Indonesia,,,,https://maps.google.com/?cid=0x0:0xb63cd8c8fc7867bfu0026onu003dCheesecakes+Originalu0026midu003d/g/11kpfmz44c
cafe,cafe,,,,PAPUA,,Indonesia,,,,https://maps.google.com/?cid=0x0:0xb63cd8c8fc7867bfu0026onu003dChocolate+Cheesecakeu0026midu003d/g/11kpfmz44c
cafe,cafe,,,,PAPUA,,Indonesia,,,,https://maps.google.com/?cid=0x0:0xb63cd8c8fc7867bfu0026onu003dBurnt+Cheesecakeu0026midu003d/g/11kpfmz44c
cafe,cafe,,,,PAPUA,,Indonesia,,,,https://maps.google.com/?cid=0x0:0xb63cd8c8fc7867bfu0026onu003dWintermelon+Teau0026midu003d/g/11kpfmz44c
cafe,cafe,,,,PAPUA,,Indonesia,,,,https://maps.google.com/?cid=0x0:0xb63cd8c8fc7867bfu0026onu003dIced+Americanou0026midu003d/g/11kpfmz44c
cafe,cafe,,,,PAPUA,,Indonesia,,,,https://maps.google.com/?cid=0x0:0xb63cd8c8fc7867bfu0026onu003dOsmanthus+Teau0026midu003d/g/11kpfmz44c
cafe,cafe,,,,PAPUA,,Indonesia,,,,https://maps.google.com/?cid=0x0:0xb63cd8c8fc7867bfu0026onu003dMochi+Cheesecake+Sliceu0026midu003d/g/11kpfmz44c
cafe,cafe,Papua Bar. 98361,"Kabupaten Teluk Wondama, Papua Bar.","Kabupaten Teluk Wondama, Papua Bar.",PAPUA,,Indonesia,,-2.4815085,134.2099791,https://maps.google.com/?cid=0x0:0xe298b41c3e32d0eb
cafe,Kedai Kopi,Melanesian Coffee,"Jl. Wasior - Rado, Moru, Distrik Wasior, Kabupaten Teluk Wondama, Papua Bar. 98362","Moru, Distrik Wasior, Kabupaten Teluk Wondama",PAPUA,98362.0,Indonesia,81240930026.0,-2.7016017,134.5057633,https://maps.google.com/?cid=0x0:0xd845bbbbbdd329ed
cafe,Kedai Kopi,Melanesian Coffee,"7GF4+MHF, Wasior II, Distrik Wasior, Kabupaten Teluk Wondama, Papua Bar. 98362","Wasior II, Distrik Wasior, Kabupaten Teluk Wondama",PAPUA,98362.0,Indonesia,81328140090.0,-2.7258182,134.5064296,https://maps.google.com/?cid=0x0:0xedc90f86d0eb5a1a
cafe,Kedai Kopi,Wiynscoffee,"Jln Elang No 407, Jlr 1 Barat, Arso 2. Kab. Keerom, Yuwanaim, Kec. Arso, Jayapura, Papua 99471","Jlr 1 Barat, Arso 2. Kab. Keerom, Yuwanaim, Kec. Arso, Jayapura",PAPUA,99471.0,Indonesia,82239332032.0,-2.9065657,140.7431997,https://maps.google.com/?cid=0x0:0xa43c42058d3511b0
cafe,Kedai Kopi,Warung Kopi Yasmin,"5GMJ+WRX, Mapolres, Isuy, Distrik Wondiboy, Kabupaten Teluk Wondama, Papua Bar. 98362","Mapolres, Isuy, Distrik Wondiboy, Kabupaten Teluk Wondama",PAPUA,98362.0,Indonesia,,-2.8151318,134.5321055,https://maps.google.com/?cid=0x0:0xdcd9c4c4ceaf5eda
cafe,Kafe,ALDRI WARKOP,"Iriati, Distrik Wasior, Kabupaten Teluk Wondama, Papua Bar. 98346","Distrik Wasior, Kabupaten Teluk Wondama",PAPUA,98346.0,Indonesia,82248183514.0,-2.8551699,134.3236557,https://maps.google.com/?cid=0x0:0x6f4274922c3bfa18
cafe,Restoran,Coffee Daeng,"2FPF+3WM, Maniwak, Distrik Wasior, Kabupaten Teluk Wondama, Papua Bar. 98362","Maniwak, Distrik Wasior, Kabupaten Teluk Wondama",PAPUA,98362.0,Indonesia,8223905921.0,-2.9647961,134.4748018,https://maps.google.com/?cid=0x0:0x8d6e9697b9b00a9a
cafe,Tujuan Wisata,Wondama,"48VF+WFJ, Iriati, Kuri Wamesa, Kabupaten Teluk Wondama, Papua Bar.","Kabupaten Teluk Wondama, Papua Bar.",PAPUA,,Indonesia,85319092604.0,-2.8551699,134.3236557,https://maps.google.com/?cid=0x0:0x8ce6de66c8bd402f
cafe,cafe,Pulau Kurudu,"Distrik Pulau Kurudu, Kabupaten Kepulauan Yapen, Papua","Kabupaten Kepulauan Yapen, Papua",PAPUA,,Indonesia,,-1.8474739,137.0145295,https://maps.google.com/?cid=0x0:0xd793096ee0c6521c
cafe,Grosir Kopi,Papua Coffee,"Perum Taman Buper Bhayangkara B 3/1, Kp. Waena, Kec. Heram, Kota Jayapura, Papua 99358","Kp. Waena, Kec. Heram, Kota Jayapura",PAPUA,99358.0,Indonesia,82219192019.0,-2.5932318,140.6339916,https://maps.google.com/?cid=0x0:0x6525ad08e3ef5a95
cafe,Pemasok makanan dan minuman katering,Kopi Arabika Papua,"Ardipura Polimak 3 No. 17b di seberang kantor KUA Jayapura Disamping toko abadi jaya, Kota Jayapura, Papua 99223",Kota Jayapura,PAPUA,99223.0,Indonesia,81245947170.0,-2.5553272,140.7041033,https://maps.google.com/?cid=0x0:0xba764f3651df58fc
cafe,cafe,Kec. Pulau Yerui,"Miosnum, Kabupaten Kepulauan Yapen, Papua","Kabupaten Kepulauan Yapen, Papua",PAPUA,,Indonesia,,-1.4878278,135.3337148,https://maps.google.com/?cid=0x0:0xf1f496c1e419df1f
cafe,Kafe,Karariri Coffee  Eatery,"46HQ+7HR, Jl. Hassanudin, Serui Kota, Kec. Yapen Sel., Kabupaten Kepulauan Yapen, Papua","Kabupaten Kepulauan Yapen, Papua",PAPUA,,Indonesia,,-1.8717744,136.2388775,https://maps.google.com/?cid=0x0:0x884a42394257efa9
cafe,cafe,Yohanis wayoi,"36XG+9R9, Serui Laut, Kec. Yapen Sel., Kabupaten Kepulauan Yapen, Papua 98215","Serui Laut, Kec. Yapen Sel., Kabupaten Kepulauan Yapen",PAPUA,98215.0,Indonesia,,-1.9015896,136.2270963,https://maps.google.com/?cid=0x0:0x6543efd7e68b18e2
hotel,hotel,Papua 98253,"Kabupaten Kepulauan Yapen, Papua","Kabupaten Kepulauan Yapen, Papua",PAPUA,,Indonesia,,-1.692705,135.7710559,https://maps.google.com/?cid=0x0:0xe712ef09824c8ae8
hotel,hotel,Hotel Merpati,"Jl. Yos Sudarso, Serui Kota, Kec. Yapen Sel., Kabupaten Kepulauan Yapen, Papua 98215","Serui Kota, Kec. Yapen Sel., Kabupaten Kepulauan Yapen",PAPUA,98215.0,Indonesia,82359590808.0,-1.884878,136.2444474,https://maps.google.com/?cid=0x0:0xe3554649eda8754d
hotel,Tujuan Wisata,Pantai Sarawandori,"Sarawandori, Kabupaten Kepulauan Yapen, Papua 98215",Kabupaten Kepulauan Yapen,PAPUA,98215.0,Indonesia,,-1.8726789,136.1916924,https://maps.google.com/?cid=0x0:0x19b525c726fb1bc3
hotel,Hotel,Hotel Merdeka,"467M+GPJ, Jl. Padat Karya, Tarau, Kec. Yapen Sel., Kabupaten Kepulauan Yapen, Papua 98215","Jl. Padat Karya, Tarau, Kec. Yapen Sel., Kabupaten Kepulauan Yapen",PAPUA,98215.0,Indonesia,,-1.8861712,136.2342681,https://maps.google.com/?cid=0x0:0x274d303a2e21fc22
hotel,hotel,Hotel Maureen,"46GR+P4R, Jl. Sudirman, Serui Kota, Kec. Yapen Sel., Kabupaten Kepulauan Yapen, Papua 98213","Jl. Sudirman, Serui Kota, Kec. Yapen Sel., Kabupaten Kepulauan Yapen",PAPUA,98213.0,Indonesia,81354165909.0,-1.8731433,136.2401965,https://maps.google.com/?cid=0x0:0xb028b61c6c000d80
hotel,Hostel,Hotel Cendrawasih,"467V+MF3, Serui Kota, Kec. Yapen Sel., Kabupaten Kepulauan Yapen, Papua 98215","Serui Kota, Kec. Yapen Sel., Kabupaten Kepulauan Yapen",PAPUA,98215.0,Indonesia,,-1.8858699,136.2436739,https://maps.google.com/?cid=0x0:0x3fda7d519e6bfa8b
hotel,Hotel,Penginapan RAHMAT,"Padat karya, Jl. Padat Karya, Tarau, Kec. Yapen Sel., Kabupaten Kepulauan Yapen, Papua 98211","Jl. Padat Karya, Tarau, Kec. Yapen Sel., Kabupaten Kepulauan Yapen",PAPUA,98211.0,Indonesia,85210134373.0,-1.8847254,136.2350703,https://maps.google.com/?cid=0x0:0x32bd9052b301cafb
hotel,hotel,Papua 98211,"Kec. Yapen Sel., Kabupaten Kepulauan Yapen, Papua","Kabupaten Kepulauan Yapen, Papua",PAPUA,,Indonesia,,-1.7995067,136.2570137,https://maps.google.com/?cid=0x0:0xb2b850cfde1935fd
hotel,hotel,Hotel Merpati,"Jl. Yos Sudarso, Serui Kota, Kec. Yapen Sel., Kabupaten Kepulauan Yapen, Papua 98215","Serui Kota, Kec. Yapen Sel., Kabupaten Kepulauan Yapen",PAPUA,98215.0,Indonesia,82359590808.0,-1.884878,136.2444474,https://maps.google.com/?cid=0x0:0xe3554649eda8754d
hotel,hotel,Hotel Maureen,"46GR+P4R, Jl. Sudirman, Serui Kota, Kec. Yapen Sel., Kabupaten Kepulauan Yapen, Papua 98213","Jl. Sudirman, Serui Kota, Kec. Yapen Sel., Kabupaten Kepulauan Yapen",PAPUA,98213.0,Indonesia,81354165909.0,-1.8731433,136.2401965,https://maps.google.com/?cid=0x0:0xb028b61c6c000d80
hotel,hotel,Horison Inn Relat Jayapura,"Jl. Pantai Klp. No.21 - 23, Argapura, Distrik Jayapura Selatan, Kota Jayapura, Papua","Kota Jayapura, Papua",PAPUA,,Indonesia,9675160779.0,-2.5537101,140.7148929,https://maps.google.com/?cid=0x0:0xb98fc1bbb5c5c494
hotel,hotel,Hotel Dafonsoro,"Jl. Percetakan Negara No.20-24, Gurabesi, Kec. Jayapura Utara, Kota Jayapura, Papua 99221","Gurabesi, Kec. Jayapura Utara, Kota Jayapura",PAPUA,99221.0,Indonesia,85788877739.0,-2.5406973,140.7041061,https://maps.google.com/?cid=0x0:0xda20a7d826a77577
hotel,hotel,Penginapan Paparisa Amungsa,"Koperapoka, Kec. Mimika Baru, Kabupaten Mimika, Papua 99971","Kec. Mimika Baru, Kabupaten Mimika",PAPUA,99971.0,Indonesia,81343206383.0,-4.5385795,136.8755667,https://maps.google.com/?cid=0x0:0xfd07a1d4446c8f23
hotel,hotel,SAMUMAMBO HOTEL,"jl. cenderawasih belakang manna bakerei, Kwamki, Kec. Mimika Baru, Kabupaten Mimika, Papua 99910","Kwamki, Kec. Mimika Baru, Kabupaten Mimika",PAPUA,99910.0,Indonesia,81344090664.0,-4.5424836,136.8797497,https://maps.google.com/?cid=0x0:0xcb5241de257efb93
hotel,hotel,Papua 98212,"Warari, Kec. Yapen Sel., Kabupaten Kepulauan Yapen, Papua","Kabupaten Kepulauan Yapen, Papua",PAPUA,,Indonesia,,-1.8764518,136.2546196,https://maps.google.com/?cid=0x0:0x297f020ff7113bd
hotel,hotel,Hotel Merpati,"Jl. Yos Sudarso, Serui Kota, Kec. Yapen Sel., Kabupaten Kepulauan Yapen, Papua 98215","Serui Kota, Kec. Yapen Sel., Kabupaten Kepulauan Yapen",PAPUA,98215.0,Indonesia,82359590808.0,-1.884878,136.2444474,https://maps.google.com/?cid=0x0:0xe3554649eda8754d
hotel,hotel,Hotel Maureen,"46GR+P4R, Jl. Sudirman, Serui Kota, Kec. Yapen Sel., Kabupaten Kepulauan Yapen, Papua 98213","Jl. Sudirman, Serui Kota, Kec. Yapen Sel., Kabupaten Kepulauan Yapen",PAPUA,98213.0,Indonesia,81354165909.0,-1.8731433,136.2401965,https://maps.google.com/?cid=0x0:0xb028b61c6c000d80
hotel,hotel,Papua 98213,"Kec. Yapen Sel., Kabupaten Kepulauan Yapen, Papua","Kabupaten Kepulauan Yapen, Papua",PAPUA,,Indonesia,,-1.8722668,136.2354713,https://maps.google.com/?cid=0x0:0xf81978a1f9fcf655
hotel,hotel,Hotel Maureen,"46GR+P4R, Jl. Sudirman, Serui Kota, Kec. Yapen Sel., Kabupaten Kepulauan Yapen, Papua 98213","Jl. Sudirman, Serui Kota, Kec. Yapen Sel., Kabupaten Kepulauan Yapen",PAPUA,98213.0,Indonesia,81354165909.0,-1.8731433,136.2401965,https://maps.google.com/?cid=0x0:0xb028b61c6c000d80
hotel,hotel,Hotel Merpati,"Jl. Yos Sudarso, Serui Kota, Kec. Yapen Sel., Kabupaten Kepulauan Yapen, Papua 98215","Serui Kota, Kec. Yapen Sel., Kabupaten Kepulauan Yapen",PAPUA,98215.0,Indonesia,82359590808.0,-1.884878,136.2444474,https://maps.google.com/?cid=0x0:0xe3554649eda8754d
hotel,hotel,Penginapan lestari,"Jl.Yan Mamoribo No.80, Mamoribo, Waisai, Kabupaten Biak Numfor, Papua 98481","Mamoribo, Waisai, Kabupaten Biak Numfor",PAPUA,98481.0,Indonesia,2198826634.0,-0.976628,135.83272,https://maps.google.com/?cid=0x0:0x335024486992d26
hotel,hotel,Papua 98214,"Yapan, Kec. Yapen Sel., Kabupaten Kepulauan Yapen, Papua","Kabupaten Kepulauan Yapen, Papua",PAPUA,,Indonesia,,-1.8312862,136.2426511,https://maps.google.com/?cid=0x0:0x80248e4590702d10
hotel,hotel,Hotel Maureen,"46GR+P4R, Jl. Sudirman, Serui Kota, Kec. Yapen Sel., Kabupaten Kepulauan Yapen, Papua 98213","Jl. Sudirman, Serui Kota, Kec. Yapen Sel., Kabupaten Kepulauan Yapen",PAPUA,98213.0,Indonesia,81354165909.0,-1.8731433,136.2401965,https://maps.google.com/?cid=0x0:0xb028b61c6c000d80
hotel,hotel,Hotel Merpati,"Jl. Yos Sudarso, Serui Kota, Kec. Yapen Sel., Kabupaten Kepulauan Yapen, Papua 98215","Serui Kota, Kec. Yapen Sel., Kabupaten Kepulauan Yapen",PAPUA,98215.0,Indonesia,82359590808.0,-1.884878,136.2444474,https://maps.google.com/?cid=0x0:0xe3554649eda8754d
hotel,hotel,Penginapan Paparisa Amungsa,"Koperapoka, Kec. Mimika Baru, Kabupaten Mimika, Papua 99971","Kec. Mimika Baru, Kabupaten Mimika",PAPUA,99971.0,Indonesia,81343206383.0,-4.5385795,136.8755667,https://maps.google.com/?cid=0x0:0xfd07a1d4446c8f23
hotel,hotel,Penginapan lestari,"Jl.Yan Mamoribo No.80, Mamoribo, Waisai, Kabupaten Biak Numfor, Papua 98481","Mamoribo, Waisai, Kabupaten Biak Numfor",PAPUA,98481.0,Indonesia,2198826634.0,-0.976628,135.83272,https://maps.google.com/?cid=0x0:0x335024486992d26
hotel,hotel,Kec. Yapen Sel.,"Kabupaten Kepulauan Yapen, Papua","Kabupaten Kepulauan Yapen, Papua",PAPUA,,Indonesia,,-1.884104,136.2418748,https://maps.google.com/?cid=0x0:0x3f81bf02f4d4d5c7
hotel,hotel,Hotel Merpati,"Jl. Yos Sudarso, Serui Kota, Kec. Yapen Sel., Kabupaten Kepulauan Yapen, Papua 98215","Serui Kota, Kec. Yapen Sel., Kabupaten Kepulauan Yapen",PAPUA,98215.0,Indonesia,82359590808.0,-1.884878,136.2444474,https://maps.google.com/?cid=0x0:0xe3554649eda8754d
hotel,hotel,Hotel Maureen,"46GR+P4R, Jl. Sudirman, Serui Kota, Kec. Yapen Sel., Kabupaten Kepulauan Yapen, Papua 98213","Jl. Sudirman, Serui Kota, Kec. Yapen Sel., Kabupaten Kepulauan Yapen",PAPUA,98213.0,Indonesia,81354165909.0,-1.8731433,136.2401965,https://maps.google.com/?cid=0x0:0xb028b61c6c000d80
hotel,hotel,Hotel Dafonsoro,"Jl. Percetakan Negara No.20-24, Gurabesi, Kec. Jayapura Utara, Kota Jayapura, Papua 99221","Gurabesi, Kec. Jayapura Utara, Kota Jayapura",PAPUA,99221.0,Indonesia,85788877739.0,-2.5406973,140.7041061,https://maps.google.com/?cid=0x0:0xda20a7d826a77577
hotel,hotel,Penginapan Paparisa Amungsa,"Koperapoka, Kec. Mimika Baru, Kabupaten Mimika, Papua 99971","Kec. Mimika Baru, Kabupaten Mimika",PAPUA,99971.0,Indonesia,81343206383.0,-4.5385795,136.8755667,https://maps.google.com/?cid=0x0:0xfd07a1d4446c8f23
hotel,hotel,Penginapan lestari,"Jl.Yan Mamoribo No.80, Mamoribo, Waisai, Kabupaten Biak Numfor, Papua 98481","Mamoribo, Waisai, Kabupaten Biak Numfor",PAPUA,98481.0,Indonesia,2198826634.0,-0.976628,135.83272,https://maps.google.com/?cid=0x0:0x335024486992d26
hotel,hotel,Hotel Mapia,"Jl. Jend. Ahmad Yani No.23, Mandala, Kec. Biak Kota, Kabupaten Biak Numfor, Papua 98111","Mandala, Kec. Biak Kota, Kabupaten Biak Numfor",PAPUA,98111.0,Indonesia,98121383.0,-1.1848375,136.0856602,https://maps.google.com/?cid=0x0:0x15f6e40202cd7120
hotel,hotel,Distrik Yapen Timur,"Kabupaten Kepulauan Yapen, Papua","Kabupaten Kepulauan Yapen, Papua",PAPUA,,Indonesia,,-1.8231626,136.7603579,https://maps.google.com/?cid=0x0:0x8aa6062a086a2ccd
hotel,hotel,Hotel Merpati,"Jl. Yos Sudarso, Serui Kota, Kec. Yapen Sel., Kabupaten Kepulauan Yapen, Papua 98215","Serui Kota, Kec. Yapen Sel., Kabupaten Kepulauan Yapen",PAPUA,98215.0,Indonesia,82359590808.0,-1.884878,136.2444474,https://maps.google.com/?cid=0x0:0xe3554649eda8754d
hotel,hotel,Hotel Maureen,"46GR+P4R, Jl. Sudirman, Serui Kota, Kec. Yapen Sel., Kabupaten Kepulauan Yapen, Papua 98213","Jl. Sudirman, Serui Kota, Kec. Yapen Sel., Kabupaten Kepulauan Yapen",PAPUA,98213.0,Indonesia,81354165909.0,-1.8731433,136.2401965,https://maps.google.com/?cid=0x0:0xb028b61c6c000d80
hotel,hotel,Papua 98255,"Kabupaten Kepulauan Yapen, Papua","Kabupaten Kepulauan Yapen, Papua",PAPUA,,Indonesia,,-1.8086855,136.3240951,https://maps.google.com/?cid=0x0:0x438de2bf5d4cd8af
hotel,hotel,Hotel Merpati,"Jl. Yos Sudarso, Serui Kota, Kec. Yapen Sel., Kabupaten Kepulauan Yapen, Papua 98215","Serui Kota, Kec. Yapen Sel., Kabupaten Kepulauan Yapen",PAPUA,98215.0,Indonesia,82359590808.0,-1.884878,136.2444474,https://maps.google.com/?cid=0x0:0xe3554649eda8754d
hotel,hotel,Hotel Maureen,"46GR+P4R, Jl. Sudirman, Serui Kota, Kec. Yapen Sel., Kabupaten Kepulauan Yapen, Papua 98213","Jl. Sudirman, Serui Kota, Kec. Yapen Sel., Kabupaten Kepulauan Yapen",PAPUA,98213.0,Indonesia,81354165909.0,-1.8731433,136.2401965,https://maps.google.com/?cid=0x0:0xb028b61c6c000d80
hotel,hotel,Hotel Karya Papua,"JGX6+2PM, Jl. R.E. Martadinata Kalinona, Nabarua, Distrik Nabire, Papua 98816","Jl. R.E. Martadinata Kalinona, Nabarua, Distrik Nabire",PAPUA,98816.0,Indonesia,82164655697.0,-3.3524082,135.5118114,https://maps.google.com/?cid=0x0:0x8196bf4b8aafbb3f
hotel,hotel,Rimba Papua Hotel,"Jl. Kwamki Narama No. 1, Kwamki, Kec. Mimika Baru, Kabupaten Mimika, Papua 99971","Kwamki, Kec. Mimika Baru, Kabupaten Mimika",PAPUA,99971.0,Indonesia,901494949.0,-4.5151124,136.884599,https://maps.google.com/?cid=0x0:0xa65056700db32492
hotel,hotel,Hotel Manna,"Jl. Imam Bonjol, Fandoi, Biak Papua, Kabupaten Biak Numfor, Papua 98112","Fandoi, Biak Papua, Kabupaten Biak Numfor",PAPUA,98112.0,Indonesia,98122224.0,-1.1808075,136.0821667,https://maps.google.com/?cid=0x0:0x58ba27a7cb3a5bd6
hotel,hotel,MARANNU HOTEL,"Atsy, Kabupaten Asmat, Papua 99776",Kabupaten Asmat,PAPUA,99776.0,Indonesia,,-5.7342393,138.3857665,https://maps.google.com/?cid=0x0:0xf7641c8f50c5152d
hotel,hotel,Papua 98254,"Kabupaten Kepulauan Yapen, Papua","Kabupaten Kepulauan Yapen, Papua",PAPUA,,Indonesia,,-1.668696,135.9229866,https://maps.google.com/?cid=0x0:0x786984f83d38aaec
hotel,hotel,Hotel Baliem Pilamo,"Jl. Trikora No.114, Wamena Kota, Distrik Wamena, Kabupaten Jayawijaya, Papua 99511","Wamena Kota, Distrik Wamena, Kabupaten Jayawijaya",PAPUA,99511.0,Indonesia,81344090719.0,-4.089872,138.9452891,https://maps.google.com/?cid=0x0:0x4c66aca0c6c4c202
hotel,hotel,Hotel R6,"Jl.Cendrawasih SP2, Papua 99952","Kabupaten Mimika, Papua",PAPUA,,Indonesia,82245112457.0,-4.538464,136.8691429,https://maps.google.com/?cid=0x0:0xb392d58fbaabfb69
hotel,hotel,Hotel Maureen,"46GR+P4R, Jl. Sudirman, Serui Kota, Kec. Yapen Sel., Kabupaten Kepulauan Yapen, Papua 98213","Jl. Sudirman, Serui Kota, Kec. Yapen Sel., Kabupaten Kepulauan Yapen",PAPUA,98213.0,Indonesia,81354165909.0,-1.8731433,136.2401965,https://maps.google.com/?cid=0x0:0xb028b61c6c000d80
hotel,hotel,Rimba Papua Hotel,"Jl. Kwamki Narama No. 1, Kwamki, Kec. Mimika Baru, Kabupaten Mimika, Papua 99971","Kwamki, Kec. Mimika Baru, Kabupaten Mimika",PAPUA,99971.0,Indonesia,901494949.0,-4.5151124,136.884599,https://maps.google.com/?cid=0x0:0xa65056700db32492
hotel,hotel,Hotel Mutiara,"CM3C+873, Jl. Perkutut, Vim, Kec. Abepura, Kota Jayapura, Papua 99225","Jl. Perkutut, Vim, Kec. Abepura, Kota Jayapura",PAPUA,99225.0,Indonesia,81348430963.0,-2.5967398,140.6706613,https://maps.google.com/?cid=0x0:0xb730b0fce1d80fe4
hotel,hotel,Hotel Golden Mimika,"Jl. Klp. Dua No.25, Kwamki, Kec. Mimika Baru, Kabupaten Mimika, Papua 99971","Kwamki, Kec. Mimika Baru, Kabupaten Mimika",PAPUA,99971.0,Indonesia,901323111.0,-4.544451,136.8879651,https://maps.google.com/?cid=0x0:0xc7ff62d17b20c3d1
hotel,hotel,SAMUMAMBO HOTEL,"jl. cenderawasih belakang manna bakerei, Kwamki, Kec. Mimika Baru, Kabupaten Mimika, Papua 99910","Kwamki, Kec. Mimika Baru, Kabupaten Mimika",PAPUA,99910.0,Indonesia,81344090664.0,-4.5424836,136.8797497,https://maps.google.com/?cid=0x0:0xcb5241de257efb93
hotel,hotel,HOTEL Timika Indah Papua,"Jl. Jend. Ahmad Yani, Kwamki, Kec. Mimika Baru, Kabupaten Mimika, Papua 99910","Kwamki, Kec. Mimika Baru, Kabupaten Mimika",PAPUA,99910.0,Indonesia,8114900888.0,-4.5450918,136.8950181,https://maps.google.com/?cid=0x0:0x678db0783377d5c6
hotel,hotel,Hotel Dafonsoro,"Jl. Percetakan Negara No.20-24, Gurabesi, Kec. Jayapura Utara, Kota Jayapura, Papua 99221","Gurabesi, Kec. Jayapura Utara, Kota Jayapura",PAPUA,99221.0,Indonesia,85788877739.0,-2.5406973,140.7041061,https://maps.google.com/?cid=0x0:0xda20a7d826a77577
hotel,hotel,Penginapan Paparisa Amungsa,"Koperapoka, Kec. Mimika Baru, Kabupaten Mimika, Papua 99971","Kec. Mimika Baru, Kabupaten Mimika",PAPUA,99971.0,Indonesia,81343206383.0,-4.5385795,136.8755667,https://maps.google.com/?cid=0x0:0xfd07a1d4446c8f23
hotel,hotel,Hotel Timika,"Jl. Hasanuddin No.9, Nawaripi, Kec. Mimika Baru, Kabupaten Mimika, Papua 99971","Nawaripi, Kec. Mimika Baru, Kabupaten Mimika",PAPUA,99971.0,Indonesia,,-4.566916,136.8828964,https://maps.google.com/?cid=0x0:0x51b78f3be0c597f8
hotel,hotel,favehotel Margonda - Depok,"Jl. Margonda, Kemiri Muka, Kecamatan Beji, Kota Depok, Jawa Barat 16423","Kemiri Muka, Kecamatan Beji, Kota Depok",PAPUA,16423.0,Indonesia,2129301400.0,-6.3880242,106.827413,https://maps.google.com/?cid=0x0:0xe9cb66f39204f122
hotel,hotel,,,,PAPUA,,Indonesia,,,,https://maps.google.com/?cid=0x0:0xe9cb66f39204f122%7C/g/11c5r4yr0b%7Cid-ID
hotel,hotel,Papua 98215,"Kabupaten Kepulauan Yapen, Papua","Kabupaten Kepulauan Yapen, Papua",PAPUA,,Indonesia,,-1.8017548,136.0944845,https://maps.google.com/?cid=0x0:0xd235688620f2534d
hotel,hotel,Hotel Merpati,"Jl. Yos Sudarso, Serui Kota, Kec. Yapen Sel., Kabupaten Kepulauan Yapen, Papua 98215","Serui Kota, Kec. Yapen Sel., Kabupaten Kepulauan Yapen",PAPUA,98215.0,Indonesia,82359590808.0,-1.884878,136.2444474,https://maps.google.com/?cid=0x0:0xe3554649eda8754d
hotel,hotel,Hotel Maureen,"46GR+P4R, Jl. Sudirman, Serui Kota, Kec. Yapen Sel., Kabupaten Kepulauan Yapen, Papua 98213","Jl. Sudirman, Serui Kota, Kec. Yapen Sel., Kabupaten Kepulauan Yapen",PAPUA,98213.0,Indonesia,81354165909.0,-1.8731433,136.2401965,https://maps.google.com/?cid=0x0:0xb028b61c6c000d80
hotel,hotel,Hotel Dafonsoro,"Jl. Percetakan Negara No.20-24, Gurabesi, Kec. Jayapura Utara, Kota Jayapura, Papua 99221","Gurabesi, Kec. Jayapura Utara, Kota Jayapura",PAPUA,99221.0,Indonesia,85788877739.0,-2.5406973,140.7041061,https://maps.google.com/?cid=0x0:0xda20a7d826a77577
hotel,hotel,Penginapan Paparisa Amungsa,"Koperapoka, Kec. Mimika Baru, Kabupaten Mimika, Papua 99971","Kec. Mimika Baru, Kabupaten Mimika",PAPUA,99971.0,Indonesia,81343206383.0,-4.5385795,136.8755667,https://maps.google.com/?cid=0x0:0xfd07a1d4446c8f23
hotel,hotel,Penginapan 69,"Kp. Waena, Kec. Heram, Kota Jayapura, Papua 99225","Kec. Heram, Kota Jayapura",PAPUA,99225.0,Indonesia,81248523621.0,-2.593495,140.6310796,https://maps.google.com/?cid=0x0:0x12711ec27878fab8
hotel,hotel,Hotel Sawitto 1,"FV4V+3QV, Timika Jaya, Kec. Mimika Baru, Kabupaten Mimika, Papua 99971","Timika Jaya, Kec. Mimika Baru, Kabupaten Mimika",PAPUA,99971.0,Indonesia,,-4.5447575,136.8944296,https://maps.google.com/?cid=0x0:0xa49800860bcb43de
hotel,hotel,"Swiss-Belhotel Jayapura, Papua","Pusat Bisnis Jayapura, Jl. Pacific Permai, Bayangkara, Kec. Jayapura Utara, Kota Jayapura, Papua 99112","Jl. Pacific Permai, Bayangkara, Kec. Jayapura Utara, Kota Jayapura",PAPUA,99112.0,Indonesia,967551888.0,-2.539046,140.711573,https://maps.google.com/?cid=0x0:0xbd14f75af0c6e48b
hotel,hotel,,,,PAPUA,,Indonesia,,,,https://maps.google.com/?cid=0x0:0xbd14f75af0c6e48b%7C/g/120xv389%7Cid-ID
hotel,hotel,Papua 98252,"Kabupaten Kepulauan Yapen, Papua","Kabupaten Kepulauan Yapen, Papua",PAPUA,,Indonesia,,-1.7581253,136.5547852,https://maps.google.com/?cid=0x0:0xe52dde0e102e427c
hotel,hotel,Hotel Merpati,"Jl. Yos Sudarso, Serui Kota, Kec. Yapen Sel., Kabupaten Kepulauan Yapen, Papua 98215","Serui Kota, Kec. Yapen Sel., Kabupaten Kepulauan Yapen",PAPUA,98215.0,Indonesia,82359590808.0,-1.884878,136.2444474,https://maps.google.com/?cid=0x0:0xe3554649eda8754d
hotel,hotel,Hotel Maureen,"46GR+P4R, Jl. Sudirman, Serui Kota, Kec. Yapen Sel., Kabupaten Kepulauan Yapen, Papua 98213","Jl. Sudirman, Serui Kota, Kec. Yapen Sel., Kabupaten Kepulauan Yapen",PAPUA,98213.0,Indonesia,81354165909.0,-1.8731433,136.2401965,https://maps.google.com/?cid=0x0:0xb028b61c6c000d80
hotel,Hotel,Tias Kapapuri Dawai,"5PMM+9GP, Dawai, Distrik Yapen Timur, Kabupaten Kepulauan Yapen, Papua","Kabupaten Kepulauan Yapen, Papua",PAPUA,,Indonesia,,-1.8165308,136.7338393,https://maps.google.com/?cid=0x0:0x30e1b0ccc8769973
hotel,Perhimpunan Pengembang Perumahan,Rumah kost Alif,"5PJR+6GP, Dawai, Distrik Yapen Timur, Kabupaten Kepulauan Yapen, Papua","Kabupaten Kepulauan Yapen, Papua",PAPUA,,Indonesia,,-1.8194191,136.7413149,https://maps.google.com/?cid=0x0:0xee5510a51c0c1c59
hotel,hotel,Distrik Tlk. Ampimoi,"Kabupaten Kepulauan Yapen, Papua","Kabupaten Kepulauan Yapen, Papua",PAPUA,,Indonesia,,-1.8521856,136.5246471,https://maps.google.com/?cid=0x0:0x9f8f93e4402acbda
hotel,hotel,Hotel Maureen,"46GR+P4R, Jl. Sudirman, Serui Kota, Kec. Yapen Sel., Kabupaten Kepulauan Yapen, Papua 98213","Jl. Sudirman, Serui Kota, Kec. Yapen Sel., Kabupaten Kepulauan Yapen",PAPUA,98213.0,Indonesia,81354165909.0,-1.8731433,136.2401965,https://maps.google.com/?cid=0x0:0xb028b61c6c000d80
hotel,Tujuan Wisata,Pantai Sarawandori,"Sarawandori, Kabupaten Kepulauan Yapen, Papua 98215",Kabupaten Kepulauan Yapen,PAPUA,98215.0,Indonesia,,-1.8726789,136.1916924,https://maps.google.com/?cid=0x0:0x19b525c726fb1bc3
hotel,Hotel,Kelapa Dua Hotel,"JL. Frans Kaisepo, No. 42, RT. 003/05, Serui Kota, Kec. Yapen Sel., Kabupaten Kepulauan Yapen, Papua 98213","No. 42, RT. 003/05, Serui Kota, Kec. Yapen Sel., Kabupaten Kepulauan Yapen",PAPUA,98213.0,Indonesia,98334246.0,-1.8763994,136.2462133,https://maps.google.com/?cid=0x0:0xee11054cb202b3fd
hotel,hotel,Kec. Kepulauan Ambai,"Kabupaten Kepulauan Yapen, Papua","Kabupaten Kepulauan Yapen, Papua",PAPUA,,Indonesia,,-1.9166902,136.3460141,https://maps.google.com/?cid=0x0:0x384e3e9ebfdfa4b6
hotel,hotel,Hotel Maureen,"46GR+P4R, Jl. Sudirman, Serui Kota, Kec. Yapen Sel., Kabupaten Kepulauan Yapen, Papua 98213","Jl. Sudirman, Serui Kota, Kec. Yapen Sel., Kabupaten Kepulauan Yapen",PAPUA,98213.0,Indonesia,81354165909.0,-1.8731433,136.2401965,https://maps.google.com/?cid=0x0:0xb028b61c6c000d80
hotel,hotel,Hotel Merpati,"Jl. Yos Sudarso, Serui Kota, Kec. Yapen Sel., Kabupaten Kepulauan Yapen, Papua 98215","Serui Kota, Kec. Yapen Sel., Kabupaten Kepulauan Yapen",PAPUA,98215.0,Indonesia,82359590808.0,-1.884878,136.2444474,https://maps.google.com/?cid=0x0:0xe3554649eda8754d
hotel,hotel,Distrik Wonawa,"Kabupaten Kepulauan Yapen, Papua","Kabupaten Kepulauan Yapen, Papua",PAPUA,,Indonesia,,-1.6107554,135.4427446,https://maps.google.com/?cid=0x0:0xb73fde2341a96d85
hotel,hotel,SIP Azana Hotel Jayapura,"Jl. Ahmad Yani No.50, Gurabesi, Kec. Jayapura Utara, Kota Jayapura, Papua 99221","Gurabesi, Kec. Jayapura Utara, Kota Jayapura",PAPUA,99221.0,Indonesia,82197886688.0,-2.5436754,140.7014241,https://maps.google.com/?cid=0x0:0xc311c59465e76f9e
hotel,hotel,Hotel Maureen,"46GR+P4R, Jl. Sudirman, Serui Kota, Kec. Yapen Sel., Kabupaten Kepulauan Yapen, Papua 98213","Jl. Sudirman, Serui Kota, Kec. Yapen Sel., Kabupaten Kepulauan Yapen",PAPUA,98213.0,Indonesia,81354165909.0,-1.8731433,136.2401965,https://maps.google.com/?cid=0x0:0xb028b61c6c000d80
hotel,hotel,Hotel Merpati,"Jl. Yos Sudarso, Serui Kota, Kec. Yapen Sel., Kabupaten Kepulauan Yapen, Papua 98215","Serui Kota, Kec. Yapen Sel., Kabupaten Kepulauan Yapen",PAPUA,98215.0,Indonesia,82359590808.0,-1.884878,136.2444474,https://maps.google.com/?cid=0x0:0xe3554649eda8754d
hotel,Tujuan Wisata,Pantai Sarawandori,"Sarawandori, Kabupaten Kepulauan Yapen, Papua 98215",Kabupaten Kepulauan Yapen,PAPUA,98215.0,Indonesia,,-1.8726789,136.1916924,https://maps.google.com/?cid=0x0:0x19b525c726fb1bc3
hotel,Hotel,Kelapa Dua Hotel,"JL. Frans Kaisepo, No. 42, RT. 003/05, Serui Kota, Kec. Yapen Sel., Kabupaten Kepulauan Yapen, Papua 98213","No. 42, RT. 003/05, Serui Kota, Kec. Yapen Sel., Kabupaten Kepulauan Yapen",PAPUA,98213.0,Indonesia,98334246.0,-1.8763994,136.2462133,https://maps.google.com/?cid=0x0:0xee11054cb202b3fd
hotel,Hotel,Hotel Merdeka,"467M+GPJ, Jl. Padat Karya, Tarau, Kec. Yapen Sel., Kabupaten Kepulauan Yapen, Papua 98215","Jl. Padat Karya, Tarau, Kec. Yapen Sel., Kabupaten Kepulauan Yapen",PAPUA,98215.0,Indonesia,,-1.8861712,136.2342681,https://maps.google.com/?cid=0x0:0x274d303a2e21fc22
hotel,hotel,Papua 98253,"Kabupaten Kepulauan Yapen, Papua","Kabupaten Kepulauan Yapen, Papua",PAPUA,,Indonesia,,-1.692705,135.7710559,https://maps.google.com/?cid=0x0:0xe712ef09824c8ae8
hotel,hotel,Asana Biak Papua,"Jl. M Yamin No.04, Mandala, Kec. Biak Kota, Kabupaten Biak Numfor, Papua 98111","Mandala, Kec. Biak Kota, Kabupaten Biak Numfor",PAPUA,98111.0,Indonesia,8114743111.0,-1.1918619,136.1049095,https://maps.google.com/?cid=0x0:0x94321ded15c5a4a3
hotel,hotel,Hotel Merpati,"Jl. Yos Sudarso, Serui Kota, Kec. Yapen Sel., Kabupaten Kepulauan Yapen, Papua 98215","Serui Kota, Kec. Yapen Sel., Kabupaten Kepulauan Yapen",PAPUA,98215.0,Indonesia,82359590808.0,-1.884878,136.2444474,https://maps.google.com/?cid=0x0:0xe3554649eda8754d
hotel,hotel,Intsia Beach Hotel,"Jl. Walter Monginsidi No.7, Fandoi, Kec. Biak Kota, Kabupaten Biak Numfor, Papua 98111","Fandoi, Kec. Biak Kota, Kabupaten Biak Numfor",PAPUA,98111.0,Indonesia,98121891.0,-1.1862086,136.0837686,https://maps.google.com/?cid=0x0:0x564eb7930861f544
hotel,Hotel,Hotel Krisna,"Jalan Raya, Iriati, Distrik Wasior, Kabupaten Teluk Wondama, Papua Bar. 98362","Iriati, Distrik Wasior, Kabupaten Teluk Wondama",PAPUA,98362.0,Indonesia,82152870479.0,-2.7642369,134.5164114,https://maps.google.com/?cid=0x0:0xacd390d283857065
hotel,hotel,Hotel Greend Idaman,"Persatuan, Kec. Mandobo, Kabupaten Boven Digoel, Papua 99663","Kec. Mandobo, Kabupaten Boven Digoel",PAPUA,99663.0,Indonesia,82229338883.0,-6.1143736,140.3221803,https://maps.google.com/?cid=0x0:0x7e63bcf9bd853452
hotel,hotel,Iriati beach hotel,"6GM9+75F, Iriati, Distrik Wasior, Kabupaten Teluk Wondama, Papua Bar. 98362","Iriati, Distrik Wasior, Kabupaten Teluk Wondama",PAPUA,98362.0,Indonesia,,-2.767064,134.5164648,https://maps.google.com/?cid=0x0:0xfa321d24ce01d131
hotel,Hotel,Hotel Darmaji,"7GF6+XFG, Wasior I, Distrik Wasior, Kabupaten Teluk Wondama, Papua Bar. 98362","Wasior I, Distrik Wasior, Kabupaten Teluk Wondama",PAPUA,98362.0,Indonesia,,-2.7250695,134.5111999,https://maps.google.com/?cid=0x0:0x4ea60dd7a3f67b6c
hotel,Hotel,Hotel Aitumieri Inn,"Unnamed Road, Maniwak, Distrik Wasior, Kabupaten Teluk Wondama, Papua Bar. 98362","Maniwak, Distrik Wasior, Kabupaten Teluk Wondama",PAPUA,98362.0,Indonesia,,-2.7390772,134.5129166,https://maps.google.com/?cid=0x0:0x5b9fd4b7f79b760a
hotel,hotel,Papua 98254,"Kabupaten Kepulauan Yapen, Papua","Kabupaten Kepulauan Yapen, Papua",PAPUA,,Indonesia,,-1.668696,135.9229866,https://maps.google.com/?cid=0x0:0x786984f83d38aaec
hotel,hotel,Hotel Merpati,"Jl. Yos Sudarso, Serui Kota, Kec. Yapen Sel., Kabupaten Kepulauan Yapen, Papua 98215","Serui Kota, Kec. Yapen Sel., Kabupaten Kepulauan Yapen",PAPUA,98215.0,Indonesia,82359590808.0,-1.884878,136.2444474,https://maps.google.com/?cid=0x0:0xe3554649eda8754d
hotel,hotel,Hotel Maureen,"46GR+P4R, Jl. Sudirman, Serui Kota, Kec. Yapen Sel., Kabupaten Kepulauan Yapen, Papua 98213","Jl. Sudirman, Serui Kota, Kec. Yapen Sel., Kabupaten Kepulauan Yapen",PAPUA,98213.0,Indonesia,81354165909.0,-1.8731433,136.2401965,https://maps.google.com/?cid=0x0:0xb028b61c6c000d80
hotel,hotel,Penginapan Paparisa Amungsa,"Koperapoka, Kec. Mimika Baru, Kabupaten Mimika, Papua 99971","Kec. Mimika Baru, Kabupaten Mimika",PAPUA,99971.0,Indonesia,81343206383.0,-4.5385795,136.8755667,https://maps.google.com/?cid=0x0:0xfd07a1d4446c8f23
hotel,hotel,Iriati beach hotel,"6GM9+75F, Iriati, Distrik Wasior, Kabupaten Teluk Wondama, Papua Bar. 98362","Iriati, Distrik Wasior, Kabupaten Teluk Wondama",PAPUA,98362.0,Indonesia,,-2.767064,134.5164648,https://maps.google.com/?cid=0x0:0xfa321d24ce01d131
hotel,Hotel,Hotel Krisna,"Jalan Raya, Iriati, Distrik Wasior, Kabupaten Teluk Wondama, Papua Bar. 98362","Iriati, Distrik Wasior, Kabupaten Teluk Wondama",PAPUA,98362.0,Indonesia,82152870479.0,-2.7642369,134.5164114,https://maps.google.com/?cid=0x0:0xacd390d283857065
hotel,Hotel,Hotel Aitumieri Inn,"Unnamed Road, Maniwak, Distrik Wasior, Kabupaten Teluk Wondama, Papua Bar. 98362","Maniwak, Distrik Wasior, Kabupaten Teluk Wondama",PAPUA,98362.0,Indonesia,,-2.7390772,134.5129166,https://maps.google.com/?cid=0x0:0x5b9fd4b7f79b760a
hotel,Hotel,Hotel Darmaji,"7GF6+XFG, Wasior I, Distrik Wasior, Kabupaten Teluk Wondama, Papua Bar. 98362","Wasior I, Distrik Wasior, Kabupaten Teluk Wondama",PAPUA,98362.0,Indonesia,,-2.7250695,134.5111999,https://maps.google.com/?cid=0x0:0x4ea60dd7a3f67b6c
hotel,Hotel,Penginapan Dennis,"7GC5+X7Q, Unnamed Road, Wasior I, Distrik Wasior, Kabupaten Teluk Wondama, Papua Bar. 98362","Unnamed Road, Wasior I, Distrik Wasior, Kabupaten Teluk Wondama",PAPUA,98362.0,Indonesia,8127748586.0,-2.7275478,134.5082297,https://maps.google.com/?cid=0x0:0xd160f464305d5582
hotel,hotel,Papua Bar. 98361,"Kabupaten Teluk Wondama, Papua Bar.","Kabupaten Teluk Wondama, Papua Bar.",PAPUA,,Indonesia,,-2.4815085,134.2099791,https://maps.google.com/?cid=0x0:0xe298b41c3e32d0eb
hotel,hotel,Mahanaim Hotel dan Homestay Manokwari,"jln trikora kalidingin no 109, Wosi, Kec. Manokwari Bar., Kabupaten Manokwari, Papua Bar. 98312","Wosi, Kec. Manokwari Bar., Kabupaten Manokwari",PAPUA,98312.0,Indonesia,8124830147.0,-0.8699305,134.0471193,https://maps.google.com/?cid=0x0:0xeec6727952b4f3e6
hotel,hotel,Asana Biak Papua,"Jl. M Yamin No.04, Mandala, Kec. Biak Kota, Kabupaten Biak Numfor, Papua 98111","Mandala, Kec. Biak Kota, Kabupaten Biak Numfor",PAPUA,98111.0,Indonesia,8114743111.0,-1.1918619,136.1049095,https://maps.google.com/?cid=0x0:0x94321ded15c5a4a3
hotel,hotel,Hotel Basana Inn,"Jl. Imam Bonjol, Fandoi, Biak, Kabupaten Biak Numfor, Papua 98112","Fandoi, Biak, Kabupaten Biak Numfor",PAPUA,98112.0,Indonesia,98122281.0,-1.1811297,136.0825355,https://maps.google.com/?cid=0x0:0x1b08ff238ba2abe9
hotel,hotel,,,,PAPUA,,Indonesia,,,,https://maps.google.com/?cid=0x0:0x1b08ff238ba2abe9%7C/g/11h0ft_9b%7Cid-ID
hotel,hotel,HOMESTAY KARAWATU INN,"R39H+HC6, Jl. Dahlia, Burokub, Kec. Biak Kota, Kabupaten Biak Numfor, Papua 98111","Jl. Dahlia, Burokub, Kec. Biak Kota, Kabupaten Biak Numfor",PAPUA,98111.0,Indonesia,9812911069.0,-1.1810921,136.0785209,https://maps.google.com/?cid=0x0:0xa2c4864ec378cf15
hotel,hotel,Hotel Karya Papua,"JGX6+2PM, Jl. R.E. Martadinata Kalinona, Nabarua, Distrik Nabire, Papua 98816","Jl. R.E. Martadinata Kalinona, Nabarua, Distrik Nabire",PAPUA,98816.0,Indonesia,82164655697.0,-3.3524082,135.5118114,https://maps.google.com/?cid=0x0:0x8196bf4b8aafbb3f
hotel,hotel,Arumbai Hotel,"Jl. Imam Bonjol No.2, Fandoi, Kec. Biak Kota, Kabupaten Biak Numfor, Papua 98111","Fandoi, Kec. Biak Kota, Kabupaten Biak Numfor",PAPUA,98111.0,Indonesia,,-1.1831962,136.0817419,https://maps.google.com/?cid=0x0:0x92f1df543a771343
hotel,hotel,Hotel Mahavira I,"Karang Mulia, Distrik Nabire, Kabupaten Nabire, Papua 98811","Distrik Nabire, Kabupaten Nabire",PAPUA,98811.0,Indonesia,,-3.3731863,135.5098879,https://maps.google.com/?cid=0x0:0xeffead9206fb0816
hotel,hotel,Hotel Mapia,"Jl. Jend. Ahmad Yani No.23, Mandala, Kec. Biak Kota, Kabupaten Biak Numfor, Papua 98111","Mandala, Kec. Biak Kota, Kabupaten Biak Numfor",PAPUA,98111.0,Indonesia,98121383.0,-1.1848375,136.0856602,https://maps.google.com/?cid=0x0:0x15f6e40202cd7120
hotel,hotel,Intsia Beach Hotel,"Jl. Walter Monginsidi No.7, Fandoi, Kec. Biak Kota, Kabupaten Biak Numfor, Papua 98111","Fandoi, Kec. Biak Kota, Kabupaten Biak Numfor",PAPUA,98111.0,Indonesia,98121891.0,-1.1862086,136.0837686,https://maps.google.com/?cid=0x0:0x564eb7930861f544
hotel,hotel,Hotel Marasi,"R445+X37, Jl. M Yamin, Ambroben, Kec. Biak Kota, Kabupaten Biak Numfor, Papua 98118","Jl. M Yamin, Ambroben, Kec. Biak Kota, Kabupaten Biak Numfor",PAPUA,98118.0,Indonesia,,-1.192595,136.1076812,https://maps.google.com/?cid=0x0:0x166c2b58a3cf153e
hotel,hotel,Hotel Manna,"Jl. Imam Bonjol, Fandoi, Biak Papua, Kabupaten Biak Numfor, Papua 98112","Fandoi, Biak Papua, Kabupaten Biak Numfor",PAPUA,98112.0,Indonesia,98122224.0,-1.1808075,136.0821667,https://maps.google.com/?cid=0x0:0x58ba27a7cb3a5bd6
hotel,hotel,Penginapan lestari,"Jl.Yan Mamoribo No.80, Mamoribo, Waisai, Kabupaten Biak Numfor, Papua 98481","Mamoribo, Waisai, Kabupaten Biak Numfor",PAPUA,98481.0,Indonesia,2198826634.0,-0.976628,135.83272,https://maps.google.com/?cid=0x0:0x335024486992d26
hotel,hotel,Pulau Kurudu,"Distrik Pulau Kurudu, Kabupaten Kepulauan Yapen, Papua","Kabupaten Kepulauan Yapen, Papua",PAPUA,,Indonesia,,-1.8474739,137.0145295,https://maps.google.com/?cid=0x0:0xd793096ee0c6521c
hotel,hotel,Distrik Pulau Kurudu,"Kabupaten Kepulauan Yapen, Papua","Kabupaten Kepulauan Yapen, Papua",PAPUA,,Indonesia,,-1.8369897,137.0324636,https://maps.google.com/?cid=0x0:0xa7a245ed4349075
hotel,hotel,Kec. Pulau Yerui,"Miosnum, Kabupaten Kepulauan Yapen, Papua","Kabupaten Kepulauan Yapen, Papua",PAPUA,,Indonesia,,-1.4878278,135.3337148,https://maps.google.com/?cid=0x0:0xf1f496c1e419df1f
hotel,hotel,Hotel Maureen,"46GR+P4R, Jl. Sudirman, Serui Kota, Kec. Yapen Sel., Kabupaten Kepulauan Yapen, Papua 98213","Jl. Sudirman, Serui Kota, Kec. Yapen Sel., Kabupaten Kepulauan Yapen",PAPUA,98213.0,Indonesia,81354165909.0,-1.8731433,136.2401965,https://maps.google.com/?cid=0x0:0xb028b61c6c000d80
hotel,hotel,Intsia Beach Hotel,"Jl. Walter Monginsidi No.7, Fandoi, Kec. Biak Kota, Kabupaten Biak Numfor, Papua 98111","Fandoi, Kec. Biak Kota, Kabupaten Biak Numfor",PAPUA,98111.0,Indonesia,98121891.0,-1.1862086,136.0837686,https://maps.google.com/?cid=0x0:0x564eb7930861f544
hotel,Hotel,Hotel Merdeka,"467M+GPJ, Jl. Padat Karya, Tarau, Kec. Yapen Sel., Kabupaten Kepulauan Yapen, Papua 98215","Jl. Padat Karya, Tarau, Kec. Yapen Sel., Kabupaten Kepulauan Yapen",PAPUA,98215.0,Indonesia,,-1.8861712,136.2342681,https://maps.google.com/?cid=0x0:0x274d303a2e21fc22
hotel,Hotel,Penginapan dusta,"Jl. Padat Karya, Tarau, Kec. Yapen Sel., Kabupaten Kepulauan Yapen, Papua 98215","Tarau, Kec. Yapen Sel., Kabupaten Kepulauan Yapen",PAPUA,98215.0,Indonesia,81369865841.0,-1.8879171,136.2349959,https://maps.google.com/?cid=0x0:0x783fc5f4b2bc1463
restaurant,restaurant,Papua 98253,"Kabupaten Kepulauan Yapen, Papua","Kabupaten Kepulauan Yapen, Papua",PAPUA,,Indonesia,,-1.692705,135.7710559,https://maps.google.com/?cid=0x0:0xe712ef09824c8ae8
restaurant,Nasi Goreng,Warung Rio,"469Q+832, Unnamed Road, Serui Kota, Kec. Yapen Sel., Kabupaten Kepulauan Yapen, Papua 98215","Unnamed Road, Serui Kota, Kec. Yapen Sel., Kabupaten Kepulauan Yapen",PAPUA,98215.0,Indonesia,81393979044.0,-1.8817255,136.2376423,https://maps.google.com/?cid=0x0:0xc9b5cc1c63bc4a6e
restaurant,Indonesia,RM. TRIVHY YUMMY,"Patokan (warung Oren, berhadapan sama kios, jln. Sanggar Bakti, Papua 98213","berhadapan sama kios, jln. Sanggar Bakti",PAPUA,98213.0,Indonesia,85215828236.0,-1.8787577,136.2378636,https://maps.google.com/?cid=0x0:0xc84d211424b19500
restaurant,restaurant,Papua 98211,"Kec. Yapen Sel., Kabupaten Kepulauan Yapen, Papua","Kabupaten Kepulauan Yapen, Papua",PAPUA,,Indonesia,,-1.7995067,136.2570137,https://maps.google.com/?cid=0x0:0xb2b850cfde1935fd
restaurant,Restoran,Rumah Makan Stadion,"46CG+FXX, Mariaderi, Kec. Yapen Sel., Kabupaten Kepulauan Yapen, Papua 98215","Mariaderi, Kec. Yapen Sel., Kabupaten Kepulauan Yapen",PAPUA,98215.0,Indonesia,81342060892.0,-1.8787642,136.2274737,https://maps.google.com/?cid=0x0:0x9f2effb3dbdecc84
restaurant,Kafe,TONK PU CAFE  RESTO,"Warari, Kec. Yapen Sel., Kabupaten Kepulauan Yapen, Papua 98212","Kec. Yapen Sel., Kabupaten Kepulauan Yapen",PAPUA,98212.0,Indonesia,8522342132.0,-1.8748379,136.2489907,https://maps.google.com/?cid=0x0:0x92750332302c358e
restaurant,Dapur Umum,CAFE MATA KITAAA,"46RQ+725, Unnamed Road, Mantembu, Kec. Yapen Sel., Kabupaten Kepulauan Yapen, Papua 98211","Unnamed Road, Mantembu, Kec. Yapen Sel., Kabupaten Kepulauan Yapen",PAPUA,98211.0,Indonesia,,-1.8593617,136.2376143,https://maps.google.com/?cid=0x0:0x66164c98239f5dd0
restaurant,Restoran,Rahang Tuna,"468P+422, Jl. Padat Karya, Tarau, Kec. Yapen Sel., Kabupaten Kepulauan Yapen, Papua 98215","Jl. Padat Karya, Tarau, Kec. Yapen Sel., Kabupaten Kepulauan Yapen",PAPUA,98215.0,Indonesia,82199909712.0,-1.8847373,136.2349963,https://maps.google.com/?cid=0x0:0xc38b623461dafaf2
restaurant,Kedai Kopi,CORNER Cafe,"4763+6G2, Jl. Moh. Hatta, Warari, Kec. Yapen Sel., Kabupaten Kepulauan Yapen, Papua 98212","Jl. Moh. Hatta, Warari, Kec. Yapen Sel., Kabupaten Kepulauan Yapen",PAPUA,98212.0,Indonesia,85258510000.0,-1.8894765,136.2537775,https://maps.google.com/?cid=0x0:0x15dc32038ef27e93
restaurant,Kedai Kopi,Rioco,"Jl. Maluku, Serui Kota, Kec. Yapen Sel., Kabupaten Kepulauan Yapen, Papua 98211","Serui Kota, Kec. Yapen Sel., Kabupaten Kepulauan Yapen",PAPUA,98211.0,Indonesia,82335387595.0,-1.879931,136.2259496,https://maps.google.com/?cid=0x0:0xcd06966c9ddfefb9
restaurant,Rumah Makan,Warung Soto Sidomampir,"469M+3R9, Jl. Silas Papare, Tarau, Kec. Yapen Sel., Kabupaten Kepulauan Yapen, Papua 98215","Jl. Silas Papare, Tarau, Kec. Yapen Sel., Kabupaten Kepulauan Yapen",PAPUA,98215.0,Indonesia,81383749826.0,-1.882342,136.2346134,https://maps.google.com/?cid=0x0:0x86c5c01da7521d6e
restaurant,Padang,RM.RANAH MINANG masakan padang,"46CJ+W64 samping TMP, Jl. Mariadei, Serui Kota, Kec. Yapen Sel., Kabupaten Kepulauan Yapen, Papua 98215","Jl. Mariadei, Serui Kota, Kec. Yapen Sel., Kabupaten Kepulauan Yapen",PAPUA,98215.0,Indonesia,81247581433.0,-1.877733,136.2305862,https://maps.google.com/?cid=0x0:0x6581525302bab425
restaurant,Indonesia,RM. TRIVHY YUMMY,"Patokan (warung Oren, berhadapan sama kios, jln. Sanggar Bakti, Papua 98213","berhadapan sama kios, jln. Sanggar Bakti",PAPUA,98213.0,Indonesia,85215828236.0,-1.8787577,136.2378636,https://maps.google.com/?cid=0x0:0xc84d211424b19500
restaurant,Padang,Dapur Marisha,"Anatorei, Kec. Yapen Sel., Kabupaten Kepulauan Yapen, Papua 98213","Kec. Yapen Sel., Kabupaten Kepulauan Yapen",PAPUA,98213.0,Indonesia,82195325749.0,-1.8688729,136.2364519,https://maps.google.com/?cid=0x0:0x903727fc21273936
restaurant,Restoran,Gembira Resto  Cafe,"Jl. Diponegoro, Serui Kota, Kec. Yapen Sel., Kabupaten Kepulauan Yapen, Papua 98211","Serui Kota, Kec. Yapen Sel., Kabupaten Kepulauan Yapen",PAPUA,98211.0,Indonesia,81328826060.0,-1.8859721,136.243518,https://maps.google.com/?cid=0x0:0x16ffecc5a3dbf6e5
restaurant,Padang,Rm. Amanda,"46GQ+RG9, Serui Kota, Kec. Yapen Sel., Kabupaten Kepulauan Yapen, Papua 98213","Serui Kota, Kec. Yapen Sel., Kabupaten Kepulauan Yapen",PAPUA,98213.0,Indonesia,,-1.8729664,136.2388747,https://maps.google.com/?cid=0x0:0x8f417f2e892b49e4
restaurant,Masakan Asia,KedaiKu,"46HV+49W, Jl. KPR, Famboaman, Kec. Yapen Sel., Kabupaten Kepulauan Yapen, Papua 98213","Jl. KPR, Famboaman, Kec. Yapen Sel., Kabupaten Kepulauan Yapen",PAPUA,98213.0,Indonesia,85254491060.0,-1.8721252,136.2434447,https://maps.google.com/?cid=0x0:0x736b2def92827af5
restaurant,Kafe,TONK PU CAFE  RESTO,"Warari, Kec. Yapen Sel., Kabupaten Kepulauan Yapen, Papua 98212","Kec. Yapen Sel., Kabupaten Kepulauan Yapen",PAPUA,98212.0,Indonesia,8522342132.0,-1.8748379,136.2489907,https://maps.google.com/?cid=0x0:0x92750332302c358e
restaurant,restaurant,Papua 98212,"Warari, Kec. Yapen Sel., Kabupaten Kepulauan Yapen, Papua","Kabupaten Kepulauan Yapen, Papua",PAPUA,,Indonesia,,-1.8764518,136.2546196,https://maps.google.com/?cid=0x0:0x297f020ff7113bd
restaurant,Kedai Kopi,CORNER Cafe,"4763+6G2, Jl. Moh. Hatta, Warari, Kec. Yapen Sel., Kabupaten Kepulauan Yapen, Papua 98212","Jl. Moh. Hatta, Warari, Kec. Yapen Sel., Kabupaten Kepulauan Yapen",PAPUA,98212.0,Indonesia,85258510000.0,-1.8894765,136.2537775,https://maps.google.com/?cid=0x0:0x15dc32038ef27e93
restaurant,restaurant,Bakso Galipat,"46GR+FM5, Jl. Gajah Mada, Serui Kota, Kec. Yapen Sel., Kabupaten Kepulauan Yapen, Papua 98213","Jl. Gajah Mada, Serui Kota, Kec. Yapen Sel., Kabupaten Kepulauan Yapen",PAPUA,98213.0,Indonesia,,-1.8771855,136.2417149,https://maps.google.com/?cid=0x0:0xf742e32fb1c711b8
restaurant,Masakan Asia,KedaiKu,"46HV+49W, Jl. KPR, Famboaman, Kec. Yapen Sel., Kabupaten Kepulauan Yapen, Papua 98213","Jl. KPR, Famboaman, Kec. Yapen Sel., Kabupaten Kepulauan Yapen",PAPUA,98213.0,Indonesia,85254491060.0,-1.8721252,136.2434447,https://maps.google.com/?cid=0x0:0x736b2def92827af5
restaurant,Restoran,Rumah Makan PELAYARAN,"468V+5RC, Jl. Jenderal Ahmad Yani, Serui Kota, Kec. Yapen Sel., Kabupaten Kepulauan Yapen, Papua 98215","Jl. Jenderal Ahmad Yani, Serui Kota, Kec. Yapen Sel., Kabupaten Kepulauan Yapen",PAPUA,98215.0,Indonesia,85254882222.0,-1.8845546,136.2445054,https://maps.google.com/?cid=0x0:0x650824b52e3ba142
restaurant,restaurant,Naskun Jensud,"46GR+V3X, Serui Kota, Kec. Yapen Sel., Kabupaten Kepulauan Yapen, Papua 98213","Serui Kota, Kec. Yapen Sel., Kabupaten Kepulauan Yapen",PAPUA,98213.0,Indonesia,,-1.8727473,136.240294,https://maps.google.com/?cid=0x0:0xe9fa44ca6257594f
restaurant,Padang,Rm. Amanda,"46GQ+RG9, Serui Kota, Kec. Yapen Sel., Kabupaten Kepulauan Yapen, Papua 98213","Serui Kota, Kec. Yapen Sel., Kabupaten Kepulauan Yapen",PAPUA,98213.0,Indonesia,,-1.8729664,136.2388747,https://maps.google.com/?cid=0x0:0x8f417f2e892b49e4
restaurant,Kedai Kopi,Domino CafÃ©,"468V+4VH, Serui Kota, Kec. Yapen Sel., Kabupaten Kepulauan Yapen, Papua 98215","Serui Kota, Kec. Yapen Sel., Kabupaten Kepulauan Yapen",PAPUA,98215.0,Indonesia,81240509805.0,-1.8846804,136.2447424,https://maps.google.com/?cid=0x0:0x199fe5be8a44fa07
restaurant,Ayam,Quick Chicken,"Serui Jaya, Kec. Yapen Sel., Kabupaten Kepulauan Yapen, Papua 98215","Kec. Yapen Sel., Kabupaten Kepulauan Yapen",PAPUA,98215.0,Indonesia,82238711765.0,-1.8854654,136.2457286,https://maps.google.com/?cid=0x0:0xd26b727899a21a28
restaurant,Restoran,Warung Sedap Malam,"469R+GPQ, Serui Jaya, Kec. Yapen Sel., Kabupaten Kepulauan Yapen, Papua 98215","Serui Jaya, Kec. Yapen Sel., Kabupaten Kepulauan Yapen",PAPUA,98215.0,Indonesia,82248651052.0,-1.8811723,136.2418738,https://maps.google.com/?cid=0x0:0x13f00a3f0c2e93d8
restaurant,Rumah Makan,Bakso Barokah Khas Malang,"46FR+4QC, Serui Jaya, Kec. Yapen Sel., Kabupaten Kepulauan Yapen, Papua 98213","Serui Jaya, Kec. Yapen Sel., Kabupaten Kepulauan Yapen",PAPUA,98213.0,Indonesia,,-1.8771927,136.2418933,https://maps.google.com/?cid=0x0:0x5d8be87ad4d99b6f
restaurant,Restoran,Gembira Resto  Cafe,"Jl. Diponegoro, Serui Kota, Kec. Yapen Sel., Kabupaten Kepulauan Yapen, Papua 98211","Serui Kota, Kec. Yapen Sel., Kabupaten Kepulauan Yapen",PAPUA,98211.0,Indonesia,81328826060.0,-1.8859721,136.243518,https://maps.google.com/?cid=0x0:0x16ffecc5a3dbf6e5
restaurant,Nasi Goreng,Warung Selera Malam,"468V+5VM, Serui Kota, Kec. Yapen Sel., Kabupaten Kepulauan Yapen, Papua 98215","Serui Kota, Kec. Yapen Sel., Kabupaten Kepulauan Yapen",PAPUA,98215.0,Indonesia,,-1.8845365,136.2446673,https://maps.google.com/?cid=0x0:0xee2ca959b440304a
restaurant,restaurant,Papua 98213,"Kec. Yapen Sel., Kabupaten Kepulauan Yapen, Papua","Kabupaten Kepulauan Yapen, Papua",PAPUA,,Indonesia,,-1.8722668,136.2354713,https://maps.google.com/?cid=0x0:0xf81978a1f9fcf655
restaurant,Kafe,TONK PU CAFE  RESTO,"Warari, Kec. Yapen Sel., Kabupaten Kepulauan Yapen, Papua 98212","Kec. Yapen Sel., Kabupaten Kepulauan Yapen",PAPUA,98212.0,Indonesia,8522342132.0,-1.8748379,136.2489907,https://maps.google.com/?cid=0x0:0x92750332302c358e
restaurant,Restoran,Rumah Makan Stadion,"46CG+FXX, Mariaderi, Kec. Yapen Sel., Kabupaten Kepulauan Yapen, Papua 98215","Mariaderi, Kec. Yapen Sel., Kabupaten Kepulauan Yapen",PAPUA,98215.0,Indonesia,81342060892.0,-1.8787642,136.2274737,https://maps.google.com/?cid=0x0:0x9f2effb3dbdecc84
restaurant,restaurant,Bakso Galipat,"46GR+FM5, Jl. Gajah Mada, Serui Kota, Kec. Yapen Sel., Kabupaten Kepulauan Yapen, Papua 98213","Jl. Gajah Mada, Serui Kota, Kec. Yapen Sel., Kabupaten Kepulauan Yapen",PAPUA,98213.0,Indonesia,,-1.8771855,136.2417149,https://maps.google.com/?cid=0x0:0xf742e32fb1c711b8
restaurant,Restoran,Rahang Tuna,"468P+422, Jl. Padat Karya, Tarau, Kec. Yapen Sel., Kabupaten Kepulauan Yapen, Papua 98215","Jl. Padat Karya, Tarau, Kec. Yapen Sel., Kabupaten Kepulauan Yapen",PAPUA,98215.0,Indonesia,82199909712.0,-1.8847373,136.2349963,https://maps.google.com/?cid=0x0:0xc38b623461dafaf2
restaurant,Padang,Rm. Amanda,"46GQ+RG9, Serui Kota, Kec. Yapen Sel., Kabupaten Kepulauan Yapen, Papua 98213","Serui Kota, Kec. Yapen Sel., Kabupaten Kepulauan Yapen",PAPUA,98213.0,Indonesia,,-1.8729664,136.2388747,https://maps.google.com/?cid=0x0:0x8f417f2e892b49e4
restaurant,Rumah Makan,Warung Soto Sidomampir,"469M+3R9, Jl. Silas Papare, Tarau, Kec. Yapen Sel., Kabupaten Kepulauan Yapen, Papua 98215","Jl. Silas Papare, Tarau, Kec. Yapen Sel., Kabupaten Kepulauan Yapen",PAPUA,98215.0,Indonesia,81383749826.0,-1.882342,136.2346134,https://maps.google.com/?cid=0x0:0x86c5c01da7521d6e
restaurant,Rumah Makan,Bakso Barokah Khas Malang,"46FR+4QC, Serui Jaya, Kec. Yapen Sel., Kabupaten Kepulauan Yapen, Papua 98213","Serui Jaya, Kec. Yapen Sel., Kabupaten Kepulauan Yapen",PAPUA,98213.0,Indonesia,,-1.8771927,136.2418933,https://maps.google.com/?cid=0x0:0x5d8be87ad4d99b6f
restaurant,Padang,Dapur Marisha,"Anatorei, Kec. Yapen Sel., Kabupaten Kepulauan Yapen, Papua 98213","Kec. Yapen Sel., Kabupaten Kepulauan Yapen",PAPUA,98213.0,Indonesia,82195325749.0,-1.8688729,136.2364519,https://maps.google.com/?cid=0x0:0x903727fc21273936
restaurant,Masakan Asia,KedaiKu,"46HV+49W, Jl. KPR, Famboaman, Kec. Yapen Sel., Kabupaten Kepulauan Yapen, Papua 98213","Jl. KPR, Famboaman, Kec. Yapen Sel., Kabupaten Kepulauan Yapen",PAPUA,98213.0,Indonesia,85254491060.0,-1.8721252,136.2434447,https://maps.google.com/?cid=0x0:0x736b2def92827af5
restaurant,restaurant,Naskun Jensud,"46GR+V3X, Serui Kota, Kec. Yapen Sel., Kabupaten Kepulauan Yapen, Papua 98213","Serui Kota, Kec. Yapen Sel., Kabupaten Kepulauan Yapen",PAPUA,98213.0,Indonesia,,-1.8727473,136.240294,https://maps.google.com/?cid=0x0:0xe9fa44ca6257594f
restaurant,Restoran,Lapo Batak Lake Toba,"Jl. Maluku Serui, Serui Kota, Kec. Yapen Sel., Kabupaten Kepulauan Yapen, Papua 98213","Serui Kota, Kec. Yapen Sel., Kabupaten Kepulauan Yapen",PAPUA,98213.0,Indonesia,82161563221.0,-1.8751053,136.2368286,https://maps.google.com/?cid=0x0:0xc7cbcc59c699bc47
restaurant,restaurant,Coto - Konro Makassar,"46JQ+CMM, Famboaman, Kec. Yapen Sel., Kabupaten Kepulauan Yapen, Papua 98213","Famboaman, Kec. Yapen Sel., Kabupaten Kepulauan Yapen",PAPUA,98213.0,Indonesia,,-1.8691419,136.2390086,https://maps.google.com/?cid=0x0:0xd783cf6e096b9752
restaurant,Rumah Makan,Warung makan masoso,"Jln moh tohha, Kabupaten Kepulauan Yapen, Papua 98213",Kabupaten Kepulauan Yapen,PAPUA,98213.0,Indonesia,82297416249.0,-1.8622399,136.2390177,https://maps.google.com/?cid=0x0:0x29f6469b4182e970
restaurant,restaurant,Papua 98214,"Yapan, Kec. Yapen Sel., Kabupaten Kepulauan Yapen, Papua","Kabupaten Kepulauan Yapen, Papua",PAPUA,,Indonesia,,-1.8312862,136.2426511,https://maps.google.com/?cid=0x0:0x80248e4590702d10
restaurant,Dapur Umum,CAFE MATA KITAAA,"46RQ+725, Unnamed Road, Mantembu, Kec. Yapen Sel., Kabupaten Kepulauan Yapen, Papua 98211","Unnamed Road, Mantembu, Kec. Yapen Sel., Kabupaten Kepulauan Yapen",PAPUA,98211.0,Indonesia,,-1.8593617,136.2376143,https://maps.google.com/?cid=0x0:0x66164c98239f5dd0
restaurant,Rumah Makan,Warung makan masoso,"Jln moh tohha, Kabupaten Kepulauan Yapen, Papua 98213",Kabupaten Kepulauan Yapen,PAPUA,98213.0,Indonesia,82297416249.0,-1.8622399,136.2390177,https://maps.google.com/?cid=0x0:0x29f6469b4182e970
restaurant,Kafe,Enjoy,"Jalan moh.toha, anotaurei, Kec. Yapen Sel., Kabupaten Kepulauan Yapen, Papua 98211","anotaurei, Kec. Yapen Sel., Kabupaten Kepulauan Yapen",PAPUA,98211.0,Indonesia,,-1.8627747,136.2384829,https://maps.google.com/?cid=0x0:0x131dfb2a528fb53f
restaurant,restaurant,Coto - Konro Makassar,"46JQ+CMM, Famboaman, Kec. Yapen Sel., Kabupaten Kepulauan Yapen, Papua 98213","Famboaman, Kec. Yapen Sel., Kabupaten Kepulauan Yapen",PAPUA,98213.0,Indonesia,,-1.8691419,136.2390086,https://maps.google.com/?cid=0x0:0xd783cf6e096b9752
restaurant,Kafe,Maharani,"46PQ+HQJ, Anatorei, Kec. Yapen Sel., Kabupaten Kepulauan Yapen, Papua 98211","Anatorei, Kec. Yapen Sel., Kabupaten Kepulauan Yapen",PAPUA,98211.0,Indonesia,,-1.8635391,136.2393854,https://maps.google.com/?cid=0x0:0x3f318d924627cb16
restaurant,Kafe,Classic 2 kafe,"46PQ+VJ5, Mantembu, Kec. Yapen Sel., Kabupaten Kepulauan Yapen, Papua 98211","Mantembu, Kec. Yapen Sel., Kabupaten Kepulauan Yapen",PAPUA,98211.0,Indonesia,,-1.8628667,136.239106,https://maps.google.com/?cid=0x0:0x1836408221a6f57a
restaurant,Makanan Kecil,Warung KENZO,"Jl, Anatorei, Kec. Yapen Sel., Kabupaten Kepulauan Yapen, Papua 98211","Anatorei, Kec. Yapen Sel., Kabupaten Kepulauan Yapen",PAPUA,98211.0,Indonesia,82117742233.0,-1.862652,136.2387801,https://maps.google.com/?cid=0x0:0xec4b0dd2135b8f76
restaurant,restaurant,Nasi Kuning BARUGA,"46MQ+WX7, Anatorei, Kec. Yapen Sel., Kabupaten Kepulauan Yapen, Papua","Kabupaten Kepulauan Yapen, Papua",PAPUA,,Indonesia,,-1.8652176,136.2399219,https://maps.google.com/?cid=0x0:0xae8ec6deb7afc6ad
restaurant,Tujuan Wisata,Aide Pu Tempat,"46MR+H32, Famboaman, Kec. Yapen Sel., Kabupaten Kepulauan Yapen, Papua 98213","Famboaman, Kec. Yapen Sel., Kabupaten Kepulauan Yapen",PAPUA,98213.0,Indonesia,,-1.8661156,136.2401348,https://maps.google.com/?cid=0x0:0xeb97f1044c696eb3
restaurant,Kafe,Classic#1Cafe,"46RP+492, Mantembu, Kec. Yapen Sel., Kabupaten Kepulauan Yapen, Papua 98211","Mantembu, Kec. Yapen Sel., Kabupaten Kepulauan Yapen",PAPUA,98211.0,Indonesia,,-1.8597258,136.2359024,https://maps.google.com/?cid=0x0:0x1167154d86a3841e
restaurant,Kafe,Galaxy Night Club,"46PQ+WJP, Mantembu, Kec. Yapen Sel., Kabupaten Kepulauan Yapen, Papua","Kabupaten Kepulauan Yapen, Papua",PAPUA,,Indonesia,81243547777.0,-1.8626611,136.2390833,https://maps.google.com/?cid=0x0:0xbc96e76789ef078e
restaurant,Masakan Asia,Angkringan Pronto,"Jalan kopi, Anatorei, Kec. Yapen Sel., Kabupaten Kepulauan Yapen, Papua 98213","Anatorei, Kec. Yapen Sel., Kabupaten Kepulauan Yapen",PAPUA,98213.0,Indonesia,82397182030.0,-1.8681921,136.2390314,https://maps.google.com/?cid=0x0:0x443e44e27c99fa52
restaurant,Kedai Kopi,Pondok_kopiaide,"Jalan pertanian wainakawini, Anatorei, Kec. Yapen Sel., Kabupaten Kepulauan Yapen, Papua 98213","Anatorei, Kec. Yapen Sel., Kabupaten Kepulauan Yapen",PAPUA,98213.0,Indonesia,82197849420.0,-1.8696428,136.2363142,https://maps.google.com/?cid=0x0:0xeb737ada76360073
restaurant,restaurant,Kec. Yapen Sel.,"Kabupaten Kepulauan Yapen, Papua","Kabupaten Kepulauan Yapen, Papua",PAPUA,,Indonesia,,-1.884104,136.2418748,https://maps.google.com/?cid=0x0:0x3f81bf02f4d4d5c7
restaurant,Restoran,Rumah Makan Stadion,"46CG+FXX, Mariaderi, Kec. Yapen Sel., Kabupaten Kepulauan Yapen, Papua 98215","Mariaderi, Kec. Yapen Sel., Kabupaten Kepulauan Yapen",PAPUA,98215.0,Indonesia,81342060892.0,-1.8787642,136.2274737,https://maps.google.com/?cid=0x0:0x9f2effb3dbdecc84
restaurant,Jawa,Warung MUGOJOYO,"46CR+2RP, Serui Jaya, Kec. Yapen Sel., Kabupaten Kepulauan Yapen, Papua 98215","Serui Jaya, Kec. Yapen Sel., Kabupaten Kepulauan Yapen",PAPUA,98215.0,Indonesia,85757135505.0,-1.8799081,136.24208,https://maps.google.com/?cid=0x0:0xe33bc98fbbaeba7c
restaurant,Soto,Warung Soto Pojok Newi,"467M+XGV, Tarau, Kec. Yapen Sel., Kabupaten Kepulauan Yapen, Papua 98215","Tarau, Kec. Yapen Sel., Kabupaten Kepulauan Yapen",PAPUA,98215.0,Indonesia,,-1.8850248,136.2338069,https://maps.google.com/?cid=0x0:0xa8bd21a0e46abdbc
restaurant,Restoran,Rahang Tuna,"468P+422, Jl. Padat Karya, Tarau, Kec. Yapen Sel., Kabupaten Kepulauan Yapen, Papua 98215","Jl. Padat Karya, Tarau, Kec. Yapen Sel., Kabupaten Kepulauan Yapen",PAPUA,98215.0,Indonesia,82199909712.0,-1.8847373,136.2349963,https://maps.google.com/?cid=0x0:0xc38b623461dafaf2
restaurant,Restoran,Warung Sedap Malam,"469R+GPQ, Serui Jaya, Kec. Yapen Sel., Kabupaten Kepulauan Yapen, Papua 98215","Serui Jaya, Kec. Yapen Sel., Kabupaten Kepulauan Yapen",PAPUA,98215.0,Indonesia,82248651052.0,-1.8811723,136.2418738,https://maps.google.com/?cid=0x0:0x13f00a3f0c2e93d8
restaurant,Padang,RM.RANAH MINANG masakan padang,"46CJ+W64 samping TMP, Jl. Mariadei, Serui Kota, Kec. Yapen Sel., Kabupaten Kepulauan Yapen, Papua 98215","Jl. Mariadei, Serui Kota, Kec. Yapen Sel., Kabupaten Kepulauan Yapen",PAPUA,98215.0,Indonesia,81247581433.0,-1.877733,136.2305862,https://maps.google.com/?cid=0x0:0x6581525302bab425
restaurant,Nasi Goreng,Warung Rio,"469Q+832, Unnamed Road, Serui Kota, Kec. Yapen Sel., Kabupaten Kepulauan Yapen, Papua 98215","Unnamed Road, Serui Kota, Kec. Yapen Sel., Kabupaten Kepulauan Yapen",PAPUA,98215.0,Indonesia,81393979044.0,-1.8817255,136.2376423,https://maps.google.com/?cid=0x0:0xc9b5cc1c63bc4a6e
restaurant,Soto,RM. KAWANUA,"Jl. Diponegoro, Pasir Hitam, Kec. Yapen Sel., Kabupaten Kepulauan Yapen, Papua 98212","Pasir Hitam, Kec. Yapen Sel., Kabupaten Kepulauan Yapen",PAPUA,98212.0,Indonesia,85325049448.0,-1.886633,136.2393444,https://maps.google.com/?cid=0x0:0xcd89c6a914791e11
restaurant,Dapur Umum,Warung Barokah,"468P+V7V, Jl. Silas Papare, Tarau, Kec. Yapen Sel., Kabupaten Kepulauan Yapen, Papua 98215","Jl. Silas Papare, Tarau, Kec. Yapen Sel., Kabupaten Kepulauan Yapen",PAPUA,98215.0,Indonesia,,-1.8827508,136.2356766,https://maps.google.com/?cid=0x0:0xfba7a1534be090ca
restaurant,Ayam,Quick Chicken,"Serui Jaya, Kec. Yapen Sel., Kabupaten Kepulauan Yapen, Papua 98215","Kec. Yapen Sel., Kabupaten Kepulauan Yapen",PAPUA,98215.0,Indonesia,82238711765.0,-1.8854654,136.2457286,https://maps.google.com/?cid=0x0:0xd26b727899a21a28
restaurant,Restoran,Rumah Makan PELAYARAN,"468V+5RC, Jl. Jenderal Ahmad Yani, Serui Kota, Kec. Yapen Sel., Kabupaten Kepulauan Yapen, Papua 98215","Jl. Jenderal Ahmad Yani, Serui Kota, Kec. Yapen Sel., Kabupaten Kepulauan Yapen",PAPUA,98215.0,Indonesia,85254882222.0,-1.8845546,136.2445054,https://maps.google.com/?cid=0x0:0x650824b52e3ba142
restaurant,Indonesia,RM. TRIVHY YUMMY,"Patokan (warung Oren, berhadapan sama kios, jln. Sanggar Bakti, Papua 98213","berhadapan sama kios, jln. Sanggar Bakti",PAPUA,98213.0,Indonesia,85215828236.0,-1.8787577,136.2378636,https://maps.google.com/?cid=0x0:0xc84d211424b19500
restaurant,Nasi Goreng,Warung Budhe,"468P+422, Jl. Padat Karya, Tarau, Kec. Yapen Sel., Kabupaten Kepulauan Yapen, Papua 98215","Jl. Padat Karya, Tarau, Kec. Yapen Sel., Kabupaten Kepulauan Yapen",PAPUA,98215.0,Indonesia,,-1.8847543,136.2350799,https://maps.google.com/?cid=0x0:0xecc5ff351bb3e205
restaurant,restaurant,Distrik Yapen Timur,"Kabupaten Kepulauan Yapen, Papua","Kabupaten Kepulauan Yapen, Papua",PAPUA,,Indonesia,,-1.8231626,136.7603579,https://maps.google.com/?cid=0x0:0x8aa6062a086a2ccd
restaurant,Indonesia,Warung Mbh Samad,"5QJ7+583, Tim., Awunawai, Distrik Yapen Timur, Kabupaten Kepulauan Yapen, Papua 98252","Tim., Awunawai, Distrik Yapen Timur, Kabupaten Kepulauan Yapen",PAPUA,98252.0,Indonesia,,-1.8196149,136.7632972,https://maps.google.com/?cid=0x0:0x7fe8302c599748a3
restaurant,restaurant,Warung Banyuwangi,"5QH7+WJ4, Awunawai, Distrik Yapen Timur, Kabupaten Kepulauan Yapen, Papua 98252","Awunawai, Distrik Yapen Timur, Kabupaten Kepulauan Yapen",PAPUA,98252.0,Indonesia,,-1.8202414,136.7640755,https://maps.google.com/?cid=0x0:0x37a923e04842787f
restaurant,restaurant,Kedai Makan,"5QJ6+G5H, Awunawai, Distrik Yapen Timur, Kabupaten Kepulauan Yapen, Papua 98252","Awunawai, Distrik Yapen Timur, Kabupaten Kepulauan Yapen",PAPUA,98252.0,Indonesia,,-1.8186952,136.7604739,https://maps.google.com/?cid=0x0:0x73a1a2bebcb47411
restaurant,restaurant,Warung Gado Gado,"5QJ7+49R, Awunawai, Distrik Yapen Timur, Kabupaten Kepulauan Yapen, Papua 98252","Awunawai, Distrik Yapen Timur, Kabupaten Kepulauan Yapen",PAPUA,98252.0,Indonesia,,-1.8196396,136.7633771,https://maps.google.com/?cid=0x0:0x98879cdec3173c6
restaurant,restaurant,Papua 98255,"Kabupaten Kepulauan Yapen, Papua","Kabupaten Kepulauan Yapen, Papua",PAPUA,,Indonesia,,-1.8086855,136.3240951,https://maps.google.com/?cid=0x0:0x438de2bf5d4cd8af
restaurant,Kafe,TONK PU CAFE  RESTO,"Warari, Kec. Yapen Sel., Kabupaten Kepulauan Yapen, Papua 98212","Kec. Yapen Sel., Kabupaten Kepulauan Yapen",PAPUA,98212.0,Indonesia,8522342132.0,-1.8748379,136.2489907,https://maps.google.com/?cid=0x0:0x92750332302c358e
restaurant,Kedai Kopi,CORNER Cafe,"4763+6G2, Jl. Moh. Hatta, Warari, Kec. Yapen Sel., Kabupaten Kepulauan Yapen, Papua 98212","Jl. Moh. Hatta, Warari, Kec. Yapen Sel., Kabupaten Kepulauan Yapen",PAPUA,98212.0,Indonesia,85258510000.0,-1.8894765,136.2537775,https://maps.google.com/?cid=0x0:0x15dc32038ef27e93
restaurant,Restoran,Rahang Tuna,"468P+422, Jl. Padat Karya, Tarau, Kec. Yapen Sel., Kabupaten Kepulauan Yapen, Papua 98215","Jl. Padat Karya, Tarau, Kec. Yapen Sel., Kabupaten Kepulauan Yapen",PAPUA,98215.0,Indonesia,82199909712.0,-1.8847373,136.2349963,https://maps.google.com/?cid=0x0:0xc38b623461dafaf2
restaurant,restaurant,Bakso Galipat,"46GR+FM5, Jl. Gajah Mada, Serui Kota, Kec. Yapen Sel., Kabupaten Kepulauan Yapen, Papua 98213","Jl. Gajah Mada, Serui Kota, Kec. Yapen Sel., Kabupaten Kepulauan Yapen",PAPUA,98213.0,Indonesia,,-1.8771855,136.2417149,https://maps.google.com/?cid=0x0:0xf742e32fb1c711b8
restaurant,Restoran,Warung Tanol 38,"Jln. Trans Yapen Serui - Mananayan, 98655","Kabupaten Kepulauan Yapen, Papua",PAPUA,,Indonesia,81381988116.0,-1.8683967,136.4372278,https://maps.google.com/?cid=0x0:0x90c77f5a2ed96b2
restaurant,Kafe,Karariri Coffee  Eatery,"46HQ+7HR, Jl. Hassanudin, Serui Kota, Kec. Yapen Sel., Kabupaten Kepulauan Yapen, Papua","Kabupaten Kepulauan Yapen, Papua",PAPUA,,Indonesia,,-1.8717744,136.2388775,https://maps.google.com/?cid=0x0:0x884a42394257efa9
restaurant,Kedai Kopi,Domino CafÃ©,"468V+4VH, Serui Kota, Kec. Yapen Sel., Kabupaten Kepulauan Yapen, Papua 98215","Serui Kota, Kec. Yapen Sel., Kabupaten Kepulauan Yapen",PAPUA,98215.0,Indonesia,81240509805.0,-1.8846804,136.2447424,https://maps.google.com/?cid=0x0:0x199fe5be8a44fa07
restaurant,restaurant,Naskun Jensud,"46GR+V3X, Serui Kota, Kec. Yapen Sel., Kabupaten Kepulauan Yapen, Papua 98213","Serui Kota, Kec. Yapen Sel., Kabupaten Kepulauan Yapen",PAPUA,98213.0,Indonesia,,-1.8727473,136.240294,https://maps.google.com/?cid=0x0:0xe9fa44ca6257594f
restaurant,Ayam,Quick Chicken,"Serui Jaya, Kec. Yapen Sel., Kabupaten Kepulauan Yapen, Papua 98215","Kec. Yapen Sel., Kabupaten Kepulauan Yapen",PAPUA,98215.0,Indonesia,82238711765.0,-1.8854654,136.2457286,https://maps.google.com/?cid=0x0:0xd26b727899a21a28
restaurant,Restoran,Ngodeng serui,"Jl. KPR, Famboaman, Kec. Yapen Sel., Kabupaten Kepulauan Yapen, Papua 98213","Famboaman, Kec. Yapen Sel., Kabupaten Kepulauan Yapen",PAPUA,98213.0,Indonesia,,-1.8709941,136.243237,https://maps.google.com/?cid=0x0:0x361b58d44a48ab9b
restaurant,Masakan Asia,KedaiKu,"46HV+49W, Jl. KPR, Famboaman, Kec. Yapen Sel., Kabupaten Kepulauan Yapen, Papua 98213","Jl. KPR, Famboaman, Kec. Yapen Sel., Kabupaten Kepulauan Yapen",PAPUA,98213.0,Indonesia,85254491060.0,-1.8721252,136.2434447,https://maps.google.com/?cid=0x0:0x736b2def92827af5
restaurant,Padang,Dapur Marisha,"Anatorei, Kec. Yapen Sel., Kabupaten Kepulauan Yapen, Papua 98213","Kec. Yapen Sel., Kabupaten Kepulauan Yapen",PAPUA,98213.0,Indonesia,82195325749.0,-1.8688729,136.2364519,https://maps.google.com/?cid=0x0:0x903727fc21273936
restaurant,Restoran,Warung Sedap Malam,"469R+GPQ, Serui Jaya, Kec. Yapen Sel., Kabupaten Kepulauan Yapen, Papua 98215","Serui Jaya, Kec. Yapen Sel., Kabupaten Kepulauan Yapen",PAPUA,98215.0,Indonesia,82248651052.0,-1.8811723,136.2418738,https://maps.google.com/?cid=0x0:0x13f00a3f0c2e93d8
restaurant,Restoran,Papua Cafe,"JV38+MF6, Kuala Kencana, Kec. Kuala Kencana, Kabupaten Mimika, Papua 99910","Kuala Kencana, Kec. Kuala Kencana, Kabupaten Mimika",PAPUA,99910.0,Indonesia,811490804.0,-4.395844,136.8661365,https://maps.google.com/?cid=0x0:0x314a0b94209cdb62
restaurant,restaurant,,,,PAPUA,,Indonesia,,,,https://maps.google.com/?cid=0x0:0x314a0b94209cdb62u0026onu003dIce+Creamu0026midu003d/g/11fy9fltw2
restaurant,Sesuai untuk keluarga,Warung Buhasan,"HVX5+WMR, Kuala Kencana, Kec. Kuala Kencana, Kabupaten Mimika, Papua 99910","Kuala Kencana, Kec. Kuala Kencana, Kabupaten Mimika",PAPUA,99910.0,Indonesia,,-4.4001406,136.8591323,https://maps.google.com/?cid=0x0:0xdb242c4c00b26857
restaurant,restaurant,,,,PAPUA,,Indonesia,,,,https://maps.google.com/?cid=0x0:0x314a0b94209cdb62u0026onu003dNasi+Gorengu0026midu003d/g/11fy9fltw2
restaurant,restaurant,,,,PAPUA,,Indonesia,,,,https://maps.google.com/?cid=0x0:0x314a0b94209cdb62u0026onu003dIce+Cappuccinou0026midu003d/g/11fy9fltw2
restaurant,restaurant,,,,PAPUA,,Indonesia,,,,https://maps.google.com/?cid=0x0:0x314a0b94209cdb62u0026onu003dFrech+Pastry+and+Breadsu0026midu003d/g/11fy9fltw2
restaurant,restaurant,,,,PAPUA,,Indonesia,,,,https://maps.google.com/?cid=0x0:0x314a0b94209cdb62u0026onu003dQuarter+Pound+Beef+Burgeru0026midu003d/g/11fy9fltw2
restaurant,restaurant,,,,PAPUA,,Indonesia,,,,https://maps.google.com/?cid=0x0:0x314a0b94209cdb62u0026onu003dKinds+Pastau0026midu003d/g/11fy9fltw2
restaurant,restaurant,,,,PAPUA,,Indonesia,,,,https://maps.google.com/?cid=0x0:0x314a0b94209cdb62u0026onu003dFish+and+Chipsu0026midu003d/g/11fy9fltw2
restaurant,restaurant,,,,PAPUA,,Indonesia,,,,https://maps.google.com/?cid=0x0:0x314a0b94209cdb62u0026onu003dUn+Butter+Saltedu0026midu003d/g/11fy9fltw2
restaurant,restaurant,,,,PAPUA,,Indonesia,,,,https://maps.google.com/?cid=0x0:0x314a0b94209cdb62u0026onu003dFish+N+Chipsu0026midu003d/g/11fy9fltw2
restaurant,restaurant,,,,PAPUA,,Indonesia,,,,https://maps.google.com/?cid=0x0:0x314a0b94209cdb62u0026onu003dMexican+Buffetu0026midu003d/g/11fy9fltw2
restaurant,restaurant,,,,PAPUA,,Indonesia,,,,https://maps.google.com/?cid=0x0:0x314a0b94209cdb62u0026onu003dFettucine+Mushroom+Creamy+Sauceu0026midu003d/g/11fy9fltw2
restaurant,restaurant,,,,PAPUA,,Indonesia,,,,https://maps.google.com/?cid=0x0:0x314a0b94209cdb62u0026onu003dMeatball+Soupsu0026midu003d/g/11fy9fltw2
restaurant,restaurant,Papua 98215,"Kabupaten Kepulauan Yapen, Papua","Kabupaten Kepulauan Yapen, Papua",PAPUA,,Indonesia,,-1.8017548,136.0944845,https://maps.google.com/?cid=0x0:0xd235688620f2534d
restaurant,Jawa,Warung MUGOJOYO,"46CR+2RP, Serui Jaya, Kec. Yapen Sel., Kabupaten Kepulauan Yapen, Papua 98215","Serui Jaya, Kec. Yapen Sel., Kabupaten Kepulauan Yapen",PAPUA,98215.0,Indonesia,85757135505.0,-1.8799081,136.24208,https://maps.google.com/?cid=0x0:0xe33bc98fbbaeba7c
restaurant,Rumah Makan,Warung Soto Sidomampir,"469M+3R9, Jl. Silas Papare, Tarau, Kec. Yapen Sel., Kabupaten Kepulauan Yapen, Papua 98215","Jl. Silas Papare, Tarau, Kec. Yapen Sel., Kabupaten Kepulauan Yapen",PAPUA,98215.0,Indonesia,81383749826.0,-1.882342,136.2346134,https://maps.google.com/?cid=0x0:0x86c5c01da7521d6e
restaurant,Soto,Warung Soto Pojok Newi,"467M+XGV, Tarau, Kec. Yapen Sel., Kabupaten Kepulauan Yapen, Papua 98215","Tarau, Kec. Yapen Sel., Kabupaten Kepulauan Yapen",PAPUA,98215.0,Indonesia,,-1.8850248,136.2338069,https://maps.google.com/?cid=0x0:0xa8bd21a0e46abdbc
restaurant,Restoran,Rumah Makan Stadion,"46CG+FXX, Mariaderi, Kec. Yapen Sel., Kabupaten Kepulauan Yapen, Papua 98215","Mariaderi, Kec. Yapen Sel., Kabupaten Kepulauan Yapen",PAPUA,98215.0,Indonesia,81342060892.0,-1.8787642,136.2274737,https://maps.google.com/?cid=0x0:0x9f2effb3dbdecc84
restaurant,Restoran,Warung Sedap Malam,"469R+GPQ, Serui Jaya, Kec. Yapen Sel., Kabupaten Kepulauan Yapen, Papua 98215","Serui Jaya, Kec. Yapen Sel., Kabupaten Kepulauan Yapen",PAPUA,98215.0,Indonesia,82248651052.0,-1.8811723,136.2418738,https://maps.google.com/?cid=0x0:0x13f00a3f0c2e93d8
restaurant,Kedai Kopi,Domino CafÃ©,"468V+4VH, Serui Kota, Kec. Yapen Sel., Kabupaten Kepulauan Yapen, Papua 98215","Serui Kota, Kec. Yapen Sel., Kabupaten Kepulauan Yapen",PAPUA,98215.0,Indonesia,81240509805.0,-1.8846804,136.2447424,https://maps.google.com/?cid=0x0:0x199fe5be8a44fa07
restaurant,Nasi Goreng,Warung Rio,"469Q+832, Unnamed Road, Serui Kota, Kec. Yapen Sel., Kabupaten Kepulauan Yapen, Papua 98215","Unnamed Road, Serui Kota, Kec. Yapen Sel., Kabupaten Kepulauan Yapen",PAPUA,98215.0,Indonesia,81393979044.0,-1.8817255,136.2376423,https://maps.google.com/?cid=0x0:0xc9b5cc1c63bc4a6e
restaurant,restaurant,Warung makan Risky wijaya,"5464+P65, Ariepi, Distrik Kosiwo, Kabupaten Kepulauan Yapen, Papua 98215","Ariepi, Distrik Kosiwo, Kabupaten Kepulauan Yapen",PAPUA,98215.0,Indonesia,,-1.8382272,136.1055975,https://maps.google.com/?cid=0x0:0x979331734f79eb5c
restaurant,Ayam,Quick Chicken,"Serui Jaya, Kec. Yapen Sel., Kabupaten Kepulauan Yapen, Papua 98215","Kec. Yapen Sel., Kabupaten Kepulauan Yapen",PAPUA,98215.0,Indonesia,82238711765.0,-1.8854654,136.2457286,https://maps.google.com/?cid=0x0:0xd26b727899a21a28
restaurant,Nasi Goreng,Gorengan Sido Mulyo,"469R+HVG, Serui Jaya, Kec. Yapen Sel., Kabupaten Kepulauan Yapen, Papua 98215","Serui Jaya, Kec. Yapen Sel., Kabupaten Kepulauan Yapen",PAPUA,98215.0,Indonesia,81245439587.0,-1.8810613,136.2422048,https://maps.google.com/?cid=0x0:0xee0bcbf630df3858
restaurant,Rumah Makan,Warung makan masoso,"Jln moh tohha, Kabupaten Kepulauan Yapen, Papua 98213",Kabupaten Kepulauan Yapen,PAPUA,98213.0,Indonesia,82297416249.0,-1.8622399,136.2390177,https://maps.google.com/?cid=0x0:0x29f6469b4182e970
restaurant,Kedai Kopi,Oikopi,"Jl. Padat Karya, Tarau, Kec. Yapen Sel., Kabupaten Kepulauan Yapen, Papua 98215","Tarau, Kec. Yapen Sel., Kabupaten Kepulauan Yapen",PAPUA,98215.0,Indonesia,85246386239.0,-1.8817318,136.2350141,https://maps.google.com/?cid=0x0:0xb5bf06580e25e22c
restaurant,Nasi Goreng,Warung Budhe,"468P+422, Jl. Padat Karya, Tarau, Kec. Yapen Sel., Kabupaten Kepulauan Yapen, Papua 98215","Jl. Padat Karya, Tarau, Kec. Yapen Sel., Kabupaten Kepulauan Yapen",PAPUA,98215.0,Indonesia,,-1.8847543,136.2350799,https://maps.google.com/?cid=0x0:0xecc5ff351bb3e205
restaurant,restaurant,Papua 98252,"Kabupaten Kepulauan Yapen, Papua","Kabupaten Kepulauan Yapen, Papua",PAPUA,,Indonesia,,-1.7581253,136.5547852,https://maps.google.com/?cid=0x0:0xe52dde0e102e427c
restaurant,Kafe,TONK PU CAFE  RESTO,"Warari, Kec. Yapen Sel., Kabupaten Kepulauan Yapen, Papua 98212","Kec. Yapen Sel., Kabupaten Kepulauan Yapen",PAPUA,98212.0,Indonesia,8522342132.0,-1.8748379,136.2489907,https://maps.google.com/?cid=0x0:0x92750332302c358e
restaurant,restaurant,Warung Banyuwangi,"5QH7+WJ4, Awunawai, Distrik Yapen Timur, Kabupaten Kepulauan Yapen, Papua 98252","Awunawai, Distrik Yapen Timur, Kabupaten Kepulauan Yapen",PAPUA,98252.0,Indonesia,,-1.8202414,136.7640755,https://maps.google.com/?cid=0x0:0x37a923e04842787f
restaurant,restaurant,Warung TKW,"5QJ7+7MW, Awunawai, Distrik Yapen Timur, Kabupaten Kepulauan Yapen, Papua 98252","Awunawai, Distrik Yapen Timur, Kabupaten Kepulauan Yapen",PAPUA,98252.0,Indonesia,,-1.8192561,136.7642156,https://maps.google.com/?cid=0x0:0xa5205fd9c292679b
restaurant,restaurant,Kedai Makan,"5QJ6+G5H, Awunawai, Distrik Yapen Timur, Kabupaten Kepulauan Yapen, Papua 98252","Awunawai, Distrik Yapen Timur, Kabupaten Kepulauan Yapen",PAPUA,98252.0,Indonesia,,-1.8186952,136.7604739,https://maps.google.com/?cid=0x0:0x73a1a2bebcb47411
restaurant,restaurant,Warung Gado Gado,"5QJ7+49R, Awunawai, Distrik Yapen Timur, Kabupaten Kepulauan Yapen, Papua 98252","Awunawai, Distrik Yapen Timur, Kabupaten Kepulauan Yapen",PAPUA,98252.0,Indonesia,,-1.8196396,136.7633771,https://maps.google.com/?cid=0x0:0x98879cdec3173c6
restaurant,restaurant,Distrik Raimbawi,"Kabupaten Kepulauan Yapen, Papua","Kabupaten Kepulauan Yapen, Papua",PAPUA,,Indonesia,,-1.767849,136.8405357,https://maps.google.com/?cid=0x0:0x5bfe03ebf6ec49ab
restaurant,Indonesia,Warung Mbh Samad,"5QJ7+583, Tim., Awunawai, Distrik Yapen Timur, Kabupaten Kepulauan Yapen, Papua 98252","Tim., Awunawai, Distrik Yapen Timur, Kabupaten Kepulauan Yapen",PAPUA,98252.0,Indonesia,,-1.8196149,136.7632972,https://maps.google.com/?cid=0x0:0x7fe8302c599748a3
restaurant,restaurant,Warung Banyuwangi,"5QH7+WJ4, Awunawai, Distrik Yapen Timur, Kabupaten Kepulauan Yapen, Papua 98252","Awunawai, Distrik Yapen Timur, Kabupaten Kepulauan Yapen",PAPUA,98252.0,Indonesia,,-1.8202414,136.7640755,https://maps.google.com/?cid=0x0:0x37a923e04842787f
restaurant,restaurant,Warung Gado Gado,"5QJ7+49R, Awunawai, Distrik Yapen Timur, Kabupaten Kepulauan Yapen, Papua 98252","Awunawai, Distrik Yapen Timur, Kabupaten Kepulauan Yapen",PAPUA,98252.0,Indonesia,,-1.8196396,136.7633771,https://maps.google.com/?cid=0x0:0x98879cdec3173c6
restaurant,Restoran,So Yummy Resto,"FV3Q+QR9, Kwamki, Kec. Mimika Baru, Kabupaten Mimika, Papua 99971","Kwamki, Kec. Mimika Baru, Kabupaten Mimika",PAPUA,99971.0,Indonesia,81240005760.0,-4.5455973,136.8896159,https://maps.google.com/?cid=0x0:0xad18f6a2fb6ee6f8
restaurant,Restoran,Warung So Yummy,"CVGG+845, Jl. Nawaripi Baru, Kamoro Jaya, Kec. Mimika Baru, Kabupaten Mimika, Papua 99971","Jl. Nawaripi Baru, Kamoro Jaya, Kec. Mimika Baru, Kabupaten Mimika",PAPUA,99971.0,Indonesia,,-4.5739942,136.874668,https://maps.google.com/?cid=0x0:0xd72b75dce15192c8
restaurant,restaurant,,,,PAPUA,,Indonesia,,,,https://maps.google.com/?cid=0x0:0xad18f6a2fb6ee6f8u0026onu003dIkan+Kuah+Kuningu0026midu003d/g/11bxfx5_v9
restaurant,restaurant,,,,PAPUA,,Indonesia,,,,https://maps.google.com/?cid=0x0:0xad18f6a2fb6ee6f8u0026onu003dPaket+Hematu0026midu003d/g/11bxfx5_v9
restaurant,restaurant,,,,PAPUA,,Indonesia,,,,https://maps.google.com/?cid=0x0:0xad18f6a2fb6ee6f8u0026onu003dCapcay+Gorengu0026midu003d/g/11bxfx5_v9
restaurant,restaurant,,,,PAPUA,,Indonesia,,,,https://maps.google.com/?cid=0x0:0xad18f6a2fb6ee6f8u0026onu003dBihum+Kuahu0026midu003d/g/11bxfx5_v9
restaurant,restaurant,,,,PAPUA,,Indonesia,,,,https://maps.google.com/?cid=0x0:0xad18f6a2fb6ee6f8u0026onu003dLalapan+Ayam+Paket+Au0026midu003d/g/11bxfx5_v9
restaurant,restaurant,,,,PAPUA,,Indonesia,,,,https://maps.google.com/?cid=0x0:0xad18f6a2fb6ee6f8u0026onu003dMie+Keringu0026midu003d/g/11bxfx5_v9
restaurant,restaurant,,,,PAPUA,,Indonesia,,,,https://maps.google.com/?cid=0x0:0xad18f6a2fb6ee6f8u0026onu003dJuice+Pinangu0026midu003d/g/11bxfx5_v9
restaurant,restaurant,,,,PAPUA,,Indonesia,,,,https://maps.google.com/?cid=0x0:0xad18f6a2fb6ee6f8u0026onu003dHot+Lemon+tea2u0026midu003d/g/11bxfx5_v9
restaurant,restaurant,,,,PAPUA,,Indonesia,,,,https://maps.google.com/?cid=0x0:0xad18f6a2fb6ee6f8u0026onu003dCapopucinou0026midu003d/g/11bxfx5_v9
restaurant,restaurant,,,,PAPUA,,Indonesia,,,,https://maps.google.com/?cid=0x0:0xad18f6a2fb6ee6f8u0026onu003dBreadu0026midu003d/g/11bxfx5_v9
restaurant,restaurant,,,,PAPUA,,Indonesia,,,,https://maps.google.com/?cid=0x0:0xad18f6a2fb6ee6f8u0026onu003dIced+Teau0026midu003d/g/11bxfx5_v9
restaurant,restaurant,,,,PAPUA,,Indonesia,,,,https://maps.google.com/?cid=0x0:0xad18f6a2fb6ee6f8u0026onu003dFrench+Friesu0026midu003d/g/11bxfx5_v9
restaurant,restaurant,Kec. Kepulauan Ambai,"Kabupaten Kepulauan Yapen, Papua","Kabupaten Kepulauan Yapen, Papua",PAPUA,,Indonesia,,-1.9166902,136.3460141,https://maps.google.com/?cid=0x0:0x384e3e9ebfdfa4b6
restaurant,Kafe,TONK PU CAFE  RESTO,"Warari, Kec. Yapen Sel., Kabupaten Kepulauan Yapen, Papua 98212","Kec. Yapen Sel., Kabupaten Kepulauan Yapen",PAPUA,98212.0,Indonesia,8522342132.0,-1.8748379,136.2489907,https://maps.google.com/?cid=0x0:0x92750332302c358e
restaurant,Kedai Kopi,CORNER Cafe,"4763+6G2, Jl. Moh. Hatta, Warari, Kec. Yapen Sel., Kabupaten Kepulauan Yapen, Papua 98212","Jl. Moh. Hatta, Warari, Kec. Yapen Sel., Kabupaten Kepulauan Yapen",PAPUA,98212.0,Indonesia,85258510000.0,-1.8894765,136.2537775,https://maps.google.com/?cid=0x0:0x15dc32038ef27e93
restaurant,Kedai Kopi,warkop Republik Coffee,"46GX+2Q7, Unnamed Road, Warari, Kec. Yapen Sel., Kabupaten Kepulauan Yapen, Papua 98213","Unnamed Road, Warari, Kec. Yapen Sel., Kabupaten Kepulauan Yapen",PAPUA,98213.0,Indonesia,82293417644.0,-1.8749715,136.2494163,https://maps.google.com/?cid=0x0:0x8e004e64d053e640
restaurant,Kafe,Pondok Noken Manbers,"47F3+X6R, Jl. Frans Kaisepo, Warari, Kec. Yapen Sel., Kabupaten Kepulauan Yapen, Papua 98213","Jl. Frans Kaisepo, Warari, Kec. Yapen Sel., Kabupaten Kepulauan Yapen",PAPUA,98213.0,Indonesia,81248839720.0,-1.8750091,136.2530212,https://maps.google.com/?cid=0x0:0x2c332521d56e14c1
restaurant,Mi,Lalapan ayam,"46FX+RCG, Serui Kota, Kec. Yapen Sel., Kabupaten Kepulauan Yapen, Papua","Kabupaten Kepulauan Yapen, Papua",PAPUA,,Indonesia,,-1.8754165,136.2485223,https://maps.google.com/?cid=0x0:0xba4fd0fd81f08bf3
restaurant,Restoran,Restaurant Yougwa,"CJ63+H23, Jl. Raya Abepura - Sentani, Asei Kecil, Kec. Sentani Tim., Kabupaten Jayapura, Papua 99351","Jl. Raya Abepura - Sentani, Asei Kecil, Kec. Sentani Tim., Kabupaten Jayapura",PAPUA,99351.0,Indonesia,8114801448.0,-2.5886245,140.602559,https://maps.google.com/?cid=0x0:0x65e60fc66014e79c
restaurant,Masakan Asia,Warung Lalapan Rama,"47G6+2PV, Warari, Kec. Yapen Sel., Kabupaten Kepulauan Yapen, Papua","Kabupaten Kepulauan Yapen, Papua",PAPUA,,Indonesia,,-1.8748833,136.2618022,https://maps.google.com/?cid=0x0:0x39ed0ceffe1a3248
restaurant,Rumah Makan,RestoCafe Rumah Laut,"Jl. Koti, Numbai, Distrik Jayapura Selatan, Kota Jayapura, Papua 99222","Numbai, Distrik Jayapura Selatan, Kota Jayapura",PAPUA,99222.0,Indonesia,9675160842.0,-2.5443152,140.7078561,https://maps.google.com/?cid=0x0:0xa0b850e17d17f09d
restaurant,Kedai Kopi,Pace Tan pu Kopitiam,"Jalan Pasifik Permai Blok B no 15, Kompleks Ruko Dok II, Jl. Pacific Permai No.16, Bayangkara, Kec. Jayapura Utara, Kota Jayapura, Papua 99111","Kompleks Ruko Dok II, Jl. Pacific Permai No.16, Bayangkara, Kec. Jayapura Utara, Kota Jayapura",PAPUA,99111.0,Indonesia,81376566794.0,-2.5373342,140.7092965,https://maps.google.com/?cid=0x0:0x1f1a43593e97ad0c
restaurant,Rumah Makan,Rumah Makan Sendok Garpu Jayapura,"Jl. Raya Abepura-Kotaraja Kota Baru, Wai Mhorock, Kec. Abepura, Kota Jayapura, Papua 99225","Wai Mhorock, Kec. Abepura, Kota Jayapura",PAPUA,99225.0,Indonesia,82310000123.0,-2.6057136,140.6694308,https://maps.google.com/?cid=0x0:0x9b347169a4f00047
restaurant,Restoran,So Yummy Resto,"FV3Q+QR9, Kwamki, Kec. Mimika Baru, Kabupaten Mimika, Papua 99971","Kwamki, Kec. Mimika Baru, Kabupaten Mimika",PAPUA,99971.0,Indonesia,81240005760.0,-4.5455973,136.8896159,https://maps.google.com/?cid=0x0:0xad18f6a2fb6ee6f8
restaurant,Kafe,Jawa house,"47G3+MRX, Warari, Kec. Yapen Sel., Kabupaten Kepulauan Yapen, Papua","Kabupaten Kepulauan Yapen, Papua",PAPUA,,Indonesia,,-1.8732577,136.2545967,https://maps.google.com/?cid=0x0:0xf6503e246def45ab
restaurant,Restoran,Dapur Papua Resto (tag by EnCHy),"CH94+3PC, Jl. Raya Airport Sentani, Nendali, Kec. Sentani Tim., Kabupaten Jayapura, Papua 99359","Jl. Raya Airport Sentani, Nendali, Kec. Sentani Tim., Kabupaten Jayapura",PAPUA,99359.0,Indonesia,,-2.5823105,140.556775,https://maps.google.com/?cid=0x0:0x31316751d4c3a979
restaurant,Restoran,Restaurant Yougwa,"CJ63+H23, Jl. Raya Abepura - Sentani, Asei Kecil, Kec. Sentani Tim., Kabupaten Jayapura, Papua 99351","Jl. Raya Abepura - Sentani, Asei Kecil, Kec. Sentani Tim., Kabupaten Jayapura",PAPUA,99351.0,Indonesia,8114801448.0,-2.5886245,140.602559,https://maps.google.com/?cid=0x0:0x65e60fc66014e79c
restaurant,restaurant,,,,PAPUA,,Indonesia,,,,https://maps.google.com/?cid=0x0:0x65e60fc66014e79cu0026onu003dMujair+Goreng+Ricau0026midu003d/g/11bywk_6w9
restaurant,restaurant,,,,PAPUA,,Indonesia,,,,https://maps.google.com/?cid=0x0:0x65e60fc66014e79cu0026onu003dEs+Jeruku0026midu003d/g/11bywk_6w9
restaurant,restaurant,,,,PAPUA,,Indonesia,,,,https://maps.google.com/?cid=0x0:0x65e60fc66014e79cu0026onu003dPapeda+Ikan+Kuah+Asamu0026midu003d/g/11bywk_6w9
restaurant,restaurant,,,,PAPUA,,Indonesia,,,,https://maps.google.com/?cid=0x0:0x65e60fc66014e79cu0026onu003dTempe+Mendoanu0026midu003d/g/11bywk_6w9
restaurant,restaurant,,,,PAPUA,,Indonesia,,,,https://maps.google.com/?cid=0x0:0x65e60fc66014e79cu0026onu003dMujair+Asam+Manisu0026midu003d/g/11bywk_6w9
restaurant,restaurant,,,,PAPUA,,Indonesia,,,,https://maps.google.com/?cid=0x0:0x65e60fc66014e79cu0026onu003dJus+Sirsaku0026midu003d/g/11bywk_6w9
restaurant,restaurant,,,,PAPUA,,Indonesia,,,,https://maps.google.com/?cid=0x0:0x65e60fc66014e79cu0026onu003dIkan+Mujair+Bakaru0026midu003d/g/11bywk_6w9
restaurant,restaurant,,,,PAPUA,,Indonesia,,,,https://maps.google.com/?cid=0x0:0x65e60fc66014e79cu0026onu003dGabus+Goreng+Ricau0026midu003d/g/11bywk_6w9
restaurant,restaurant,,,,PAPUA,,Indonesia,,,,https://maps.google.com/?cid=0x0:0x65e60fc66014e79cu0026onu003dKangkung+Tumisu0026midu003d/g/11bywk_6w9
restaurant,restaurant,,,,PAPUA,,Indonesia,,,,https://maps.google.com/?cid=0x0:0x65e60fc66014e79cu0026onu003dKaangkung+Bunga+Pepayau0026midu003d/g/11bywk_6w9
restaurant,restaurant,,,,PAPUA,,Indonesia,,,,https://maps.google.com/?cid=0x0:0x65e60fc66014e79cu0026onu003dBakwan+Jagungu0026midu003d/g/11bywk_6w9
restaurant,restaurant,,,,PAPUA,,Indonesia,,,,https://maps.google.com/?cid=0x0:0x65e60fc66014e79cu0026onu003dGabus+Wokuu0026midu003d/g/11bywk_6w9
restaurant,restaurant,Papua 98253,"Kabupaten Kepulauan Yapen, Papua","Kabupaten Kepulauan Yapen, Papua",PAPUA,,Indonesia,,-1.692705,135.7710559,https://maps.google.com/?cid=0x0:0xe712ef09824c8ae8
restaurant,Restoran,Inggandi Beach Restaurant,"43GV+7Q3, Jl. Pasir Putih No.33, Pasir Putih, Kec. Manokwari Tim., Kabupaten Manokwari, Papua Bar. 98313","Jl. Pasir Putih No.33, Pasir Putih, Kec. Manokwari Tim., Kabupaten Manokwari",PAPUA,98313.0,Indonesia,81240372255.0,-0.8780927,134.0933631,https://maps.google.com/?cid=0x0:0xba66c7a3124731e6
restaurant,Restoran,Warung Makan Sari Rizky,"5GPJ+JR4, Isuy, Distrik Wondiboy, Kabupaten Teluk Wondama, Papua Bar. 98362","Isuy, Distrik Wondiboy, Kabupaten Teluk Wondama",PAPUA,98362.0,Indonesia,82399259382.0,-2.8134923,134.5320896,https://maps.google.com/?cid=0x0:0xb6902b1b17306d14
restaurant,Kafe,Waanal Coffee And Resto,"Jl. Cendrawasih, Karang Senang, Kec. Kuala Kencana, Kabupaten Mimika, Papua 99910","Karang Senang, Kec. Kuala Kencana, Kabupaten Mimika",PAPUA,99910.0,Indonesia,81248677897.0,-4.4916566,136.8474106,https://maps.google.com/?cid=0x0:0xe6f6936c8a14d771
restaurant,restaurant,Warung makan Risky wijaya,"5464+P65, Ariepi, Distrik Kosiwo, Kabupaten Kepulauan Yapen, Papua 98215","Ariepi, Distrik Kosiwo, Kabupaten Kepulauan Yapen",PAPUA,98215.0,Indonesia,,-1.8382272,136.1055975,https://maps.google.com/?cid=0x0:0x979331734f79eb5c
restaurant,Pangsit,Hwamei Chinese Restaurant @Aviary Park,"Jl. Bintaro Creative District No.15, Pd. Ranji, Kec. Ciputat Tim., Kota Tangerang Selatan, Banten 15224","Pd. Ranji, Kec. Ciputat Tim., Kota Tangerang Selatan",PAPUA,15224.0,Indonesia,81322555199.0,-6.2767027,106.7405236,https://maps.google.com/?cid=0x0:0x3b482b5798be2229
restaurant,Sunda,Vulture's Nest Restaurant,"Jl. Bintaro Creative District No.15, Pd. Ranji, Kec. Ciputat Tim., Kota Tangerang Selatan, Banten 15224","Pd. Ranji, Kec. Ciputat Tim., Kota Tangerang Selatan",PAPUA,15224.0,Indonesia,,-6.2773107,106.740497,https://maps.google.com/?cid=0x0:0xff2fd2be57497825
restaurant,restaurant,Papua 98254,"Kabupaten Kepulauan Yapen, Papua","Kabupaten Kepulauan Yapen, Papua",PAPUA,,Indonesia,,-1.668696,135.9229866,https://maps.google.com/?cid=0x0:0x786984f83d38aaec
restaurant,Restoran,Inggandi Beach Restaurant,"43GV+7Q3, Jl. Pasir Putih No.33, Pasir Putih, Kec. Manokwari Tim., Kabupaten Manokwari, Papua Bar. 98313","Jl. Pasir Putih No.33, Pasir Putih, Kec. Manokwari Tim., Kabupaten Manokwari",PAPUA,98313.0,Indonesia,81240372255.0,-0.8780927,134.0933631,https://maps.google.com/?cid=0x0:0xba66c7a3124731e6
restaurant,restaurant,Warung Andrei,"7G25+97Q, Unnamed Road, Maniwak, Distrik Wasior, Kabupaten Teluk Wondama, Papua Bar. 98362","Unnamed Road, Maniwak, Distrik Wasior, Kabupaten Teluk Wondama",PAPUA,98362.0,Indonesia,,-2.7490464,134.5082358,https://maps.google.com/?cid=0x0:0xb02eede29676f2cf
restaurant,Pangsit,Hwamei Chinese Restaurant @Aviary Park,"Jl. Bintaro Creative District No.15, Pd. Ranji, Kec. Ciputat Tim., Kota Tangerang Selatan, Banten 15224","Pd. Ranji, Kec. Ciputat Tim., Kota Tangerang Selatan",PAPUA,15224.0,Indonesia,81322555199.0,-6.2767027,106.7405236,https://maps.google.com/?cid=0x0:0x3b482b5798be2229
restaurant,Sunda,Vulture's Nest Restaurant,"Jl. Bintaro Creative District No.15, Pd. Ranji, Kec. Ciputat Tim., Kota Tangerang Selatan, Banten 15224","Pd. Ranji, Kec. Ciputat Tim., Kota Tangerang Selatan",PAPUA,15224.0,Indonesia,,-6.2773107,106.740497,https://maps.google.com/?cid=0x0:0xff2fd2be57497825
restaurant,Korea,NunWaYo - Bendungan Hilir,"Jl. Bendungan Hilir Gg. V No.8, RT.10/RW.1, Bend. Hilir, Kecamatan Tanah Abang, Kota Jakarta Pusat, Daerah Khusus Ibukota Jakarta 10210","RT.10/RW.1, Bend. Hilir, Kecamatan Tanah Abang, Kota Jakarta Pusat",PAPUA,10210.0,Indonesia,81233008689.0,-6.2150504,106.814119,https://maps.google.com/?cid=0x0:0x8ef85650d089c57
restaurant,Korea,NunWaYo - Jelambar,"Jl. Empang Bahagia Gg. VIII No. 26, RT 013 RW 05, Jelambar, Petamburan, Kec. Grogol petamburan, Kota Jakarta Barat, Daerah Khusus Ibukota Jakarta 11460","RT 013 RW 05, Jelambar, Petamburan, Kec. Grogol petamburan, Kota Jakarta Barat",PAPUA,11460.0,Indonesia,81233007785.0,-6.1596008,106.7886327,https://maps.google.com/?cid=0x0:0x81aab68a05c6a94b
restaurant,Restoran,WONE Cafe and Patisserie PIK 2,"Rukan La Riviera Blok RLGC No. 31, Kabupaten Tangerang, Banten 15510",Kabupaten Tangerang,PAPUA,15510.0,Indonesia,82117843578.0,-6.0442686,106.6926894,https://maps.google.com/?cid=0x0:0xb63cd8c8fc7867bf
restaurant,China,Hasan Chinese Food Medan Halal,"Ruko Fortune 8, Jl. Boulevard Graha Raya Blok FB D15, Paku Jaya, Kec. Serpong Utara, Kota Tangerang Selatan, Banten 15324","Jl. Boulevard Graha Raya Blok FB D15, Paku Jaya, Kec. Serpong Utara, Kota Tangerang Selatan",PAPUA,15324.0,Indonesia,82310908835.0,-6.2307826,106.6860466,https://maps.google.com/?cid=0x0:0x30f631b3fbc8ba39
restaurant,Restoran,Warung Siliwangi,"7G25+QC8, Maniwak, Distrik Wasior, Kabupaten Teluk Wondama, Papua Bar. 98362","Maniwak, Distrik Wasior, Kabupaten Teluk Wondama",PAPUA,98362.0,Indonesia,,-2.7480833,134.5085633,https://maps.google.com/?cid=0x0:0x3764a19c356243c8
restaurant,Restoran,Warung Makan Sari Rizky,"5GPJ+JR4, Isuy, Distrik Wondiboy, Kabupaten Teluk Wondama, Papua Bar. 98362","Isuy, Distrik Wondiboy, Kabupaten Teluk Wondama",PAPUA,98362.0,Indonesia,82399259382.0,-2.8134923,134.5320896,https://maps.google.com/?cid=0x0:0xb6902b1b17306d14
restaurant,Pujasera,Food Society,"Kota Kasablanka, Ground Floor, Jl. Raya Casablanca No.Kav. 88 Kav 88, RT.16/RW.5, Menteng Dalam, Tebet, South Jakarta City, Jakarta 12870","Ground Floor, Jl. Raya Casablanca No.Kav. 88 Kav 88, RT.16/RW.5, Menteng Dalam, Tebet, South Jakarta City",PAPUA,12870.0,Indonesia,,-6.2242411,106.8423388,https://maps.google.com/?cid=0x0:0x1d6e4b01873b2af8
restaurant,restaurant,Papua Bar. 98361,"Kabupaten Teluk Wondama, Papua Bar.","Kabupaten Teluk Wondama, Papua Bar.",PAPUA,,Indonesia,,-2.4815085,134.2099791,https://maps.google.com/?cid=0x0:0xe298b41c3e32d0eb
restaurant,Restoran,Warung Makan Sari Rizky,"5GPJ+JR4, Isuy, Distrik Wondiboy, Kabupaten Teluk Wondama, Papua Bar. 98362","Isuy, Distrik Wondiboy, Kabupaten Teluk Wondama",PAPUA,98362.0,Indonesia,82399259382.0,-2.8134923,134.5320896,https://maps.google.com/?cid=0x0:0xb6902b1b17306d14
restaurant,Restoran,Inggandi Beach Restaurant,"43GV+7Q3, Jl. Pasir Putih No.33, Pasir Putih, Kec. Manokwari Tim., Kabupaten Manokwari, Papua Bar. 98313","Jl. Pasir Putih No.33, Pasir Putih, Kec. Manokwari Tim., Kabupaten Manokwari",PAPUA,98313.0,Indonesia,81240372255.0,-0.8780927,134.0933631,https://maps.google.com/?cid=0x0:0xba66c7a3124731e6
restaurant,restaurant,Warung Dimas Teluk Wondama,"7G25+WCP, Maniwak, Distrik Wasior, Kabupaten Teluk Wondama, Papua Bar. 98362","Maniwak, Distrik Wasior, Kabupaten Teluk Wondama",PAPUA,98362.0,Indonesia,,-2.7476549,134.5085885,https://maps.google.com/?cid=0x0:0x52158621f41d7f07
restaurant,Pangsit,Hwamei Chinese Restaurant @Aviary Park,"Jl. Bintaro Creative District No.15, Pd. Ranji, Kec. Ciputat Tim., Kota Tangerang Selatan, Banten 15224","Pd. Ranji, Kec. Ciputat Tim., Kota Tangerang Selatan",PAPUA,15224.0,Indonesia,81322555199.0,-6.2767027,106.7405236,https://maps.google.com/?cid=0x0:0x3b482b5798be2229
restaurant,Sunda,Vulture's Nest Restaurant,"Jl. Bintaro Creative District No.15, Pd. Ranji, Kec. Ciputat Tim., Kota Tangerang Selatan, Banten 15224","Pd. Ranji, Kec. Ciputat Tim., Kota Tangerang Selatan",PAPUA,15224.0,Indonesia,,-6.2773107,106.740497,https://maps.google.com/?cid=0x0:0xff2fd2be57497825
restaurant,restaurant,Pulau Kurudu,"Distrik Pulau Kurudu, Kabupaten Kepulauan Yapen, Papua","Kabupaten Kepulauan Yapen, Papua",PAPUA,,Indonesia,,-1.8474739,137.0145295,https://maps.google.com/?cid=0x0:0xd793096ee0c6521c
restaurant,Padang,Resto Yougwa Danau Sentani,"Jl. Batu Ceper No.73 15, RT.15/RW.1, Kb. Klp., Kecamatan Gambir, Kota Jakarta Pusat, Daerah Khusus Ibukota Jakarta 10120","RT.15/RW.1, Kb. Klp., Kecamatan Gambir, Kota Jakarta Pusat",PAPUA,10120.0,Indonesia,8119622272.0,-6.162043,106.8243928,https://maps.google.com/?cid=0x0:0xd6689d47fce71c89
restaurant,Padang,Yoga Sentani Rumah Makan,"Jl. Boulevard Raya No.2 9 2, RT.5/RW.9, Penjaringan, Kec. Penjaringan, Jkt Utara, Daerah Khusus Ibukota Jakarta 14440","RT.5/RW.9, Penjaringan, Kec. Penjaringan, Jkt Utara",PAPUA,14440.0,Indonesia,214530419.0,-6.1302159,106.8038221,https://maps.google.com/?cid=0x0:0x157679ce2abceaae
restaurant,restaurant,,,,PAPUA,,Indonesia,,,,https://maps.google.com/?cid=0x0:0xd6689d47fce71c89u0026onu003dPapeda+Ikan+Kakap+Kuah+Kuningu0026midu003d/g/11h1p4vbfh
restaurant,restaurant,,,,PAPUA,,Indonesia,,,,https://maps.google.com/?cid=0x0:0xd6689d47fce71c89u0026onu003dKue+Lontaru0026midu003d/g/11h1p4vbfh
restaurant,restaurant,,,,PAPUA,,Indonesia,,,,https://maps.google.com/?cid=0x0:0xd6689d47fce71c89u0026onu003dIkan+Kuah+Kuningu0026midu003d/g/11h1p4vbfh
restaurant,restaurant,,,,PAPUA,,Indonesia,,,,https://maps.google.com/?cid=0x0:0xd6689d47fce71c89u0026onu003dKangkung+Bunga+Pepayau0026midu003d/g/11h1p4vbfh
restaurant,restaurant,,,,PAPUA,,Indonesia,,,,https://maps.google.com/?cid=0x0:0xd6689d47fce71c89u0026onu003dGabus+Kuah+Asamu0026midu003d/g/11h1p4vbfh
restaurant,restaurant,,,,PAPUA,,Indonesia,,,,https://maps.google.com/?cid=0x0:0xd6689d47fce71c89u0026onu003dPapeda+Kuah+Kuningu0026midu003d/g/11h1p4vbfh
restaurant,restaurant,,,,PAPUA,,Indonesia,,,,https://maps.google.com/?cid=0x0:0xd6689d47fce71c89u0026onu003dLobster+Saus+Padangu0026midu003d/g/11h1p4vbfh
restaurant,restaurant,,,,PAPUA,,Indonesia,,,,https://maps.google.com/?cid=0x0:0xd6689d47fce71c89u0026onu003dKerapu+Asam+Manisu0026midu003d/g/11h1p4vbfh
restaurant,restaurant,,,,PAPUA,,Indonesia,,,,https://maps.google.com/?cid=0x0:0xd6689d47fce71c89u0026onu003dBubur+Manadou0026midu003d/g/11h1p4vbfh
restaurant,restaurant,,,,PAPUA,,Indonesia,,,,https://maps.google.com/?cid=0x0:0xd6689d47fce71c89u0026onu003dSate+Tunau0026midu003d/g/11h1p4vbfh
restaurant,restaurant,,,,PAPUA,,Indonesia,,,,https://maps.google.com/?cid=0x0:0xd6689d47fce71c89u0026onu003dNasi+Goreng+Seafoodu0026midu003d/g/11h1p4vbfh
restaurant,Restoran,Restaurant Yougwa,"CJ63+H23, Jl. Raya Abepura - Sentani, Asei Kecil, Kec. Sentani Tim., Kabupaten Jayapura, Papua 99351","Jl. Raya Abepura - Sentani, Asei Kecil, Kec. Sentani Tim., Kabupaten Jayapura",PAPUA,99351.0,Indonesia,8114801448.0,-2.5886245,140.602559,https://maps.google.com/?cid=0x0:0x65e60fc66014e79c
restaurant,Restoran,Dapur Papua Resto (tag by EnCHy),"CH94+3PC, Jl. Raya Airport Sentani, Nendali, Kec. Sentani Tim., Kabupaten Jayapura, Papua 99359","Jl. Raya Airport Sentani, Nendali, Kec. Sentani Tim., Kabupaten Jayapura",PAPUA,99359.0,Indonesia,,-2.5823105,140.556775,https://maps.google.com/?cid=0x0:0x31316751d4c3a979
restaurant,restaurant,,,,PAPUA,,Indonesia,,,,https://maps.google.com/?cid=0x0:0x65e60fc66014e79cu0026onu003dMujair+Goreng+Ricau0026midu003d/g/11bywk_6w9
restaurant,restaurant,,,,PAPUA,,Indonesia,,,,https://maps.google.com/?cid=0x0:0x65e60fc66014e79cu0026onu003dEs+Jeruku0026midu003d/g/11bywk_6w9
restaurant,restaurant,,,,PAPUA,,Indonesia,,,,https://maps.google.com/?cid=0x0:0x65e60fc66014e79cu0026onu003dPapeda+Ikan+Kuah+Asamu0026midu003d/g/11bywk_6w9
restaurant,restaurant,,,,PAPUA,,Indonesia,,,,https://maps.google.com/?cid=0x0:0x65e60fc66014e79cu0026onu003dTempe+Mendoanu0026midu003d/g/11bywk_6w9
restaurant,restaurant,,,,PAPUA,,Indonesia,,,,https://maps.google.com/?cid=0x0:0x65e60fc66014e79cu0026onu003dMujair+Asam+Manisu0026midu003d/g/11bywk_6w9
restaurant,restaurant,,,,PAPUA,,Indonesia,,,,https://maps.google.com/?cid=0x0:0x65e60fc66014e79cu0026onu003dJus+Sirsaku0026midu003d/g/11bywk_6w9
restaurant,restaurant,,,,PAPUA,,Indonesia,,,,https://maps.google.com/?cid=0x0:0x65e60fc66014e79cu0026onu003dIkan+Mujair+Bakaru0026midu003d/g/11bywk_6w9
restaurant,restaurant,,,,PAPUA,,Indonesia,,,,https://maps.google.com/?cid=0x0:0x65e60fc66014e79cu0026onu003dGabus+Goreng+Ricau0026midu003d/g/11bywk_6w9
restaurant,restaurant,,,,PAPUA,,Indonesia,,,,https://maps.google.com/?cid=0x0:0x65e60fc66014e79cu0026onu003dKangkung+Tumisu0026midu003d/g/11bywk_6w9
restaurant,restaurant,,,,PAPUA,,Indonesia,,,,https://maps.google.com/?cid=0x0:0x65e60fc66014e79cu0026onu003dKaangkung+Bunga+Pepayau0026midu003d/g/11bywk_6w9
restaurant,restaurant,,,,PAPUA,,Indonesia,,,,https://maps.google.com/?cid=0x0:0x65e60fc66014e79cu0026onu003dBakwan+Jagungu0026midu003d/g/11bywk_6w9
restaurant,restaurant,,,,PAPUA,,Indonesia,,,,https://maps.google.com/?cid=0x0:0x65e60fc66014e79cu0026onu003dGabus+Wokuu0026midu003d/g/11bywk_6w9
