Category,Real Category,Business Name,Address,City,State,Postal Code,Country,Phone,Latitude,Longitude,Map Link
mall,Toko,Kios Cahaya Mamori,"7R87+325, Ansus, Yapen Bar., Kabupaten Kepulauan Yapen, Papua","Kabupaten Kepulauan Yapen, Papua",PAPUA,,Indonesia,,-1.734862,135.8126108,https://maps.google.com/?cid=0x0:0x905276bd07ff2cda
mall,Kios,Kios anugrah,"469H+44V, Banawa, Kec. Yapen Sel., Kabupaten Kepulauan Yapen, Papua 98215","Banawa, Kec. Yapen Sel., Kabupaten Kepulauan Yapen",PAPUA,98215.0,Indonesia,,-1.8821162,136.2280095,https://maps.google.com/?cid=0x0:0x631e2f7de5d1f6a4
mall,mall,Papua 98211,"Kec. Yapen Sel., Kabupaten Kepulauan Yapen, Papua","Kabupaten Kepulauan Yapen, Papua",PAPUA,,Indonesia,,-1.7995067,136.2570137,https://maps.google.com/?cid=0x0:0xb2b850cfde1935fd
mall,Toko Swalayan,Pasar Tradisional Aroro iroro Serui,"467R+7RF, Pasir Hitam, Kec. Yapen Sel., Kabupaten Kepulauan Yapen, Papua 98215","Pasir Hitam, Kec. Yapen Sel., Kabupaten Kepulauan Yapen",PAPUA,98215.0,Indonesia,81343027405.0,-1.8868179,136.2420603,https://maps.google.com/?cid=0x0:0x76f34336a9275e8a
mall,Toko Swalayan,FEPUZAMARKET,"EX Rumah makan Makassar, Jl. Imam Bonjol, Serui Kota, Kec. Yapen Sel., Kabupaten Kepulauan Yapen, Papua 98215","Jl. Imam Bonjol, Serui Kota, Kec. Yapen Sel., Kabupaten Kepulauan Yapen",PAPUA,98215.0,Indonesia,82312533539.0,-1.8842457,136.2433659,https://maps.google.com/?cid=0x0:0xab888c2dca481018
mall,Komplek perumahan,Alex,"46CP+QMV, Serui Kota, Kec. Yapen Sel., Kabupaten Kepulauan Yapen, Papua 98213","Serui Kota, Kec. Yapen Sel., Kabupaten Kepulauan Yapen",PAPUA,98213.0,Indonesia,82398745211.0,-1.878015,136.236664,https://maps.google.com/?cid=0x0:0xf140c29fd491b84e
mall,Toko,TOKO MERPATI,"Jl. Gajahmada, Serui Jaya, Kec. Yapen Sel., Kabupaten Kepulauan Yapen, Papua 98211","Serui Jaya, Kec. Yapen Sel., Kabupaten Kepulauan Yapen",PAPUA,98211.0,Indonesia,85266800160.0,-1.8796431,136.242051,https://maps.google.com/?cid=0x0:0x82fa4a3376783cc8
mall,Toko Swalayan,Toko Papua Indah,"467V+R4Q, Serui Kota, Kec. Yapen Sel., Kabupaten Kepulauan Yapen, Papua 98215","Serui Kota, Kec. Yapen Sel., Kabupaten Kepulauan Yapen",PAPUA,98215.0,Indonesia,,-1.8854056,136.2428548,https://maps.google.com/?cid=0x0:0xde36d055f56c5bb4
mall,Minimarket,CV. Gemilang,"468Q+6FC, Jl. Moh. Yamin, Serui Kota, Kec. Yapen Sel., Kabupaten Kepulauan Yapen, Papua 98215","Jl. Moh. Yamin, Serui Kota, Kec. Yapen Sel., Kabupaten Kepulauan Yapen",PAPUA,98215.0,Indonesia,98331670.0,-1.8844262,136.2386549,https://maps.google.com/?cid=0x0:0xa1197d9724a8b78e
mall,Pusat Perbelanjaan,TOKO RISTA,"Serui Jaya, Kec. Yapen Sel., Kabupaten Kepulauan Yapen, Papua 98215","Kec. Yapen Sel., Kabupaten Kepulauan Yapen",PAPUA,98215.0,Indonesia,82148021467.0,-1.8816601,136.2425736,https://maps.google.com/?cid=0x0:0x6160be974d6c755f
mall,mall,Toko Serui Store,"468Q+62W, Jl. Padat Karya, Tarau, Kec. Yapen Sel., Kabupaten Kepulauan Yapen, Papua 98215","Jl. Padat Karya, Tarau, Kec. Yapen Sel., Kabupaten Kepulauan Yapen",PAPUA,98215.0,Indonesia,,-1.8843844,136.237593,https://maps.google.com/?cid=0x0:0x8f33b6906a31332d
mall,Kios,Kios kaylaA3 maros,"Jl kopi, Anatorei, Kec. Yapen Sel., Kabupaten Kepulauan Yapen, Papua 98213","Anatorei, Kec. Yapen Sel., Kabupaten Kepulauan Yapen",PAPUA,98213.0,Indonesia,82311989580.0,-1.869444,136.2390576,https://maps.google.com/?cid=0x0:0x89d8730ef5a85f20
mall,Toko Swalayan,Hadi Supermarket,"Jl. Frans Kaisepo No.5, RT. 003/01, Warari, Kec. Yapen Sel., Kabupaten Kepulauan Yapen, Papua 98212","RT. 003/01, Warari, Kec. Yapen Sel., Kabupaten Kepulauan Yapen",PAPUA,98212.0,Indonesia,98334276.0,-1.8751153,136.2490809,https://maps.google.com/?cid=0x0:0xf67310d4ed062031
mall,Kios,KIOS ZERO BRAND,"Tarau, Kec. Yapen Sel., Kabupaten Kepulauan Yapen, Papua 98215","Kec. Yapen Sel., Kabupaten Kepulauan Yapen",PAPUA,98215.0,Indonesia,81339982278.0,-1.8860927,136.2336328,https://maps.google.com/?cid=0x0:0x34311f2552dcf811
mall,Pusat Perbelanjaan,Ruko Nurhidayat,"467R+CQW, Jl. Diponegoro, Serui Kota, Kec. Yapen Sel., Kabupaten Kepulauan Yapen, Papua 98215","Jl. Diponegoro, Serui Kota, Kec. Yapen Sel., Kabupaten Kepulauan Yapen",PAPUA,98215.0,Indonesia,85256276008.0,-1.8863759,136.2419385,https://maps.google.com/?cid=0x0:0xb8d3f575709163b8
mall,Toko Ponsel,Konter hp TWIN CELL,"46FW+82Q, Warari, Kec. Yapen Sel., Kabupaten Kepulauan Yapen, Papua 98213","Warari, Kec. Yapen Sel., Kabupaten Kepulauan Yapen",PAPUA,98213.0,Indonesia,82333923392.0,-1.876668,136.2451202,https://maps.google.com/?cid=0x0:0x5a59f2a5f27bc5d6
mall,mall,Papua 98212,"Warari, Kec. Yapen Sel., Kabupaten Kepulauan Yapen, Papua","Kabupaten Kepulauan Yapen, Papua",PAPUA,,Indonesia,,-1.8764518,136.2546196,https://maps.google.com/?cid=0x0:0x297f020ff7113bd
mall,Toko Swalayan,Toko Papua Indah,"467V+R4Q, Serui Kota, Kec. Yapen Sel., Kabupaten Kepulauan Yapen, Papua 98215","Serui Kota, Kec. Yapen Sel., Kabupaten Kepulauan Yapen",PAPUA,98215.0,Indonesia,,-1.8854056,136.2428548,https://maps.google.com/?cid=0x0:0xde36d055f56c5bb4
mall,Toko Swalayan,FEPUZAMARKET,"EX Rumah makan Makassar, Jl. Imam Bonjol, Serui Kota, Kec. Yapen Sel., Kabupaten Kepulauan Yapen, Papua 98215","Jl. Imam Bonjol, Serui Kota, Kec. Yapen Sel., Kabupaten Kepulauan Yapen",PAPUA,98215.0,Indonesia,82312533539.0,-1.8842457,136.2433659,https://maps.google.com/?cid=0x0:0xab888c2dca481018
mall,Kios,KIOS ZERO BRAND,"Tarau, Kec. Yapen Sel., Kabupaten Kepulauan Yapen, Papua 98215","Kec. Yapen Sel., Kabupaten Kepulauan Yapen",PAPUA,98215.0,Indonesia,81339982278.0,-1.8860927,136.2336328,https://maps.google.com/?cid=0x0:0x34311f2552dcf811
mall,Minimarket,CV. Gemilang,"468Q+6FC, Jl. Moh. Yamin, Serui Kota, Kec. Yapen Sel., Kabupaten Kepulauan Yapen, Papua 98215","Jl. Moh. Yamin, Serui Kota, Kec. Yapen Sel., Kabupaten Kepulauan Yapen",PAPUA,98215.0,Indonesia,98331670.0,-1.8844262,136.2386549,https://maps.google.com/?cid=0x0:0xa1197d9724a8b78e
mall,Komplek perumahan,Alex,"46CP+QMV, Serui Kota, Kec. Yapen Sel., Kabupaten Kepulauan Yapen, Papua 98213","Serui Kota, Kec. Yapen Sel., Kabupaten Kepulauan Yapen",PAPUA,98213.0,Indonesia,82398745211.0,-1.878015,136.236664,https://maps.google.com/?cid=0x0:0xf140c29fd491b84e
mall,Kios,Kios kaylaA3 maros,"Jl kopi, Anatorei, Kec. Yapen Sel., Kabupaten Kepulauan Yapen, Papua 98213","Anatorei, Kec. Yapen Sel., Kabupaten Kepulauan Yapen",PAPUA,98213.0,Indonesia,82311989580.0,-1.869444,136.2390576,https://maps.google.com/?cid=0x0:0x89d8730ef5a85f20
mall,Toko,TOKO MERPATI,"Jl. Gajahmada, Serui Jaya, Kec. Yapen Sel., Kabupaten Kepulauan Yapen, Papua 98211","Serui Jaya, Kec. Yapen Sel., Kabupaten Kepulauan Yapen",PAPUA,98211.0,Indonesia,85266800160.0,-1.8796431,136.242051,https://maps.google.com/?cid=0x0:0x82fa4a3376783cc8
mall,Toko Swalayan,Hadi Supermarket,"Jl. Frans Kaisepo No.5, RT. 003/01, Warari, Kec. Yapen Sel., Kabupaten Kepulauan Yapen, Papua 98212","RT. 003/01, Warari, Kec. Yapen Sel., Kabupaten Kepulauan Yapen",PAPUA,98212.0,Indonesia,98334276.0,-1.8751153,136.2490809,https://maps.google.com/?cid=0x0:0xf67310d4ed062031
mall,Toko Buku,Indah Pasaraya Serui Indah,"Jl. Moh. Yamin, Serui Kota, Kec. Yapen Sel., Kabupaten Kepulauan Yapen, Papua 98215","Serui Kota, Kec. Yapen Sel., Kabupaten Kepulauan Yapen",PAPUA,98215.0,Indonesia,,-1.8836014,136.2384964,https://maps.google.com/?cid=0x0:0x7d9f1453d5882191
mall,Toko Ponsel,Konter hp TWIN CELL,"46FW+82Q, Warari, Kec. Yapen Sel., Kabupaten Kepulauan Yapen, Papua 98213","Warari, Kec. Yapen Sel., Kabupaten Kepulauan Yapen",PAPUA,98213.0,Indonesia,82333923392.0,-1.876668,136.2451202,https://maps.google.com/?cid=0x0:0x5a59f2a5f27bc5d6
mall,Pusat Perbelanjaan,Mall Jayapura,"APO, Jl. Samratulangi, Bayangkara, Kec. Jayapura Utara, Kota Jayapura, Papua 99112","Jl. Samratulangi, Bayangkara, Kec. Jayapura Utara, Kota Jayapura",PAPUA,99112.0,Indonesia,9675150000.0,-2.5351775,140.7061874,https://maps.google.com/?cid=0x0:0x54294cb27964023
mall,Toko,Gisele baby shop,"468R+7HX, Serui Kota, Kec. Yapen Sel., Kabupaten Kepulauan Yapen, Papua 98215","Serui Kota, Kec. Yapen Sel., Kabupaten Kepulauan Yapen",PAPUA,98215.0,Indonesia,85342976106.0,-1.8842727,136.2414921,https://maps.google.com/?cid=0x0:0xdbf93d34fe829904
mall,Toko Alat Pancing,Toko Pancing Talita,"46FR+HFP, Jl. Gajah Mada, Serui Kota, Kec. Yapen Sel., Kabupaten Kepulauan Yapen, Papua 98215","Jl. Gajah Mada, Serui Kota, Kec. Yapen Sel., Kabupaten Kepulauan Yapen",PAPUA,98215.0,Indonesia,81248078889.0,-1.8760483,136.2412016,https://maps.google.com/?cid=0x0:0xbba08ae4bd4f087c
mall,mall,Papua 98213,"Kec. Yapen Sel., Kabupaten Kepulauan Yapen, Papua","Kabupaten Kepulauan Yapen, Papua",PAPUA,,Indonesia,,-1.8722668,136.2354713,https://maps.google.com/?cid=0x0:0xf81978a1f9fcf655
mall,Kantor Perusahaan,MR DIY,"46FP+3QH, Jl. Stevanus Rumbewas, Serui Kota, Kec. Yapen Sel., Kabupaten Kepulauan Yapen, Papua 98213","Jl. Stevanus Rumbewas, Serui Kota, Kec. Yapen Sel., Kabupaten Kepulauan Yapen",PAPUA,98213.0,Indonesia,,-1.877321,136.2369802,https://maps.google.com/?cid=0x0:0x3b6bdbeafb205f78
mall,Toko Swalayan,FEPUZAMARKET,"EX Rumah makan Makassar, Jl. Imam Bonjol, Serui Kota, Kec. Yapen Sel., Kabupaten Kepulauan Yapen, Papua 98215","Jl. Imam Bonjol, Serui Kota, Kec. Yapen Sel., Kabupaten Kepulauan Yapen",PAPUA,98215.0,Indonesia,82312533539.0,-1.8842457,136.2433659,https://maps.google.com/?cid=0x0:0xab888c2dca481018
mall,Pusat Perbelanjaan,TOKO RISTA,"Serui Jaya, Kec. Yapen Sel., Kabupaten Kepulauan Yapen, Papua 98215","Kec. Yapen Sel., Kabupaten Kepulauan Yapen",PAPUA,98215.0,Indonesia,82148021467.0,-1.8816601,136.2425736,https://maps.google.com/?cid=0x0:0x6160be974d6c755f
mall,Toko Swalayan,Toko Papua Indah,"467V+R4Q, Serui Kota, Kec. Yapen Sel., Kabupaten Kepulauan Yapen, Papua 98215","Serui Kota, Kec. Yapen Sel., Kabupaten Kepulauan Yapen",PAPUA,98215.0,Indonesia,,-1.8854056,136.2428548,https://maps.google.com/?cid=0x0:0xde36d055f56c5bb4
mall,Minimarket,CV. Gemilang,"468Q+6FC, Jl. Moh. Yamin, Serui Kota, Kec. Yapen Sel., Kabupaten Kepulauan Yapen, Papua 98215","Jl. Moh. Yamin, Serui Kota, Kec. Yapen Sel., Kabupaten Kepulauan Yapen",PAPUA,98215.0,Indonesia,98331670.0,-1.8844262,136.2386549,https://maps.google.com/?cid=0x0:0xa1197d9724a8b78e
mall,Kios,Kios kaylaA3 maros,"Jl kopi, Anatorei, Kec. Yapen Sel., Kabupaten Kepulauan Yapen, Papua 98213","Anatorei, Kec. Yapen Sel., Kabupaten Kepulauan Yapen",PAPUA,98213.0,Indonesia,82311989580.0,-1.869444,136.2390576,https://maps.google.com/?cid=0x0:0x89d8730ef5a85f20
mall,Toko,TOKO MERPATI,"Jl. Gajahmada, Serui Jaya, Kec. Yapen Sel., Kabupaten Kepulauan Yapen, Papua 98211","Serui Jaya, Kec. Yapen Sel., Kabupaten Kepulauan Yapen",PAPUA,98211.0,Indonesia,85266800160.0,-1.8796431,136.242051,https://maps.google.com/?cid=0x0:0x82fa4a3376783cc8
mall,mall,Toko Serui Store,"468Q+62W, Jl. Padat Karya, Tarau, Kec. Yapen Sel., Kabupaten Kepulauan Yapen, Papua 98215","Jl. Padat Karya, Tarau, Kec. Yapen Sel., Kabupaten Kepulauan Yapen",PAPUA,98215.0,Indonesia,,-1.8843844,136.237593,https://maps.google.com/?cid=0x0:0x8f33b6906a31332d
mall,Toko Ponsel,Konter hp TWIN CELL,"46FW+82Q, Warari, Kec. Yapen Sel., Kabupaten Kepulauan Yapen, Papua 98213","Warari, Kec. Yapen Sel., Kabupaten Kepulauan Yapen",PAPUA,98213.0,Indonesia,82333923392.0,-1.876668,136.2451202,https://maps.google.com/?cid=0x0:0x5a59f2a5f27bc5d6
mall,Kios,KIOS ZERO BRAND,"Tarau, Kec. Yapen Sel., Kabupaten Kepulauan Yapen, Papua 98215","Kec. Yapen Sel., Kabupaten Kepulauan Yapen",PAPUA,98215.0,Indonesia,81339982278.0,-1.8860927,136.2336328,https://maps.google.com/?cid=0x0:0x34311f2552dcf811
mall,Toko Buku,Indah Pasaraya Serui Indah,"Jl. Moh. Yamin, Serui Kota, Kec. Yapen Sel., Kabupaten Kepulauan Yapen, Papua 98215","Serui Kota, Kec. Yapen Sel., Kabupaten Kepulauan Yapen",PAPUA,98215.0,Indonesia,,-1.8836014,136.2384964,https://maps.google.com/?cid=0x0:0x7d9f1453d5882191
mall,Toko,Gisele baby shop,"468R+7HX, Serui Kota, Kec. Yapen Sel., Kabupaten Kepulauan Yapen, Papua 98215","Serui Kota, Kec. Yapen Sel., Kabupaten Kepulauan Yapen",PAPUA,98215.0,Indonesia,85342976106.0,-1.8842727,136.2414921,https://maps.google.com/?cid=0x0:0xdbf93d34fe829904
mall,Toko Swalayan,Hadi Supermarket,"Jl. Frans Kaisepo No.5, RT. 003/01, Warari, Kec. Yapen Sel., Kabupaten Kepulauan Yapen, Papua 98212","RT. 003/01, Warari, Kec. Yapen Sel., Kabupaten Kepulauan Yapen",PAPUA,98212.0,Indonesia,98334276.0,-1.8751153,136.2490809,https://maps.google.com/?cid=0x0:0xf67310d4ed062031
mall,mall,Papua 98214,"Yapan, Kec. Yapen Sel., Kabupaten Kepulauan Yapen, Papua","Kabupaten Kepulauan Yapen, Papua",PAPUA,,Indonesia,,-1.8312862,136.2426511,https://maps.google.com/?cid=0x0:0x80248e4590702d10
mall,Toko Swalayan,Toko Papua Indah,"467V+R4Q, Serui Kota, Kec. Yapen Sel., Kabupaten Kepulauan Yapen, Papua 98215","Serui Kota, Kec. Yapen Sel., Kabupaten Kepulauan Yapen",PAPUA,98215.0,Indonesia,,-1.8854056,136.2428548,https://maps.google.com/?cid=0x0:0xde36d055f56c5bb4
mall,Komplek perumahan,Alex,"46CP+QMV, Serui Kota, Kec. Yapen Sel., Kabupaten Kepulauan Yapen, Papua 98213","Serui Kota, Kec. Yapen Sel., Kabupaten Kepulauan Yapen",PAPUA,98213.0,Indonesia,82398745211.0,-1.878015,136.236664,https://maps.google.com/?cid=0x0:0xf140c29fd491b84e
mall,Kios,Kios kaylaA3 maros,"Jl kopi, Anatorei, Kec. Yapen Sel., Kabupaten Kepulauan Yapen, Papua 98213","Anatorei, Kec. Yapen Sel., Kabupaten Kepulauan Yapen",PAPUA,98213.0,Indonesia,82311989580.0,-1.869444,136.2390576,https://maps.google.com/?cid=0x0:0x89d8730ef5a85f20
mall,Toko Swalayan,FEPUZAMARKET,"EX Rumah makan Makassar, Jl. Imam Bonjol, Serui Kota, Kec. Yapen Sel., Kabupaten Kepulauan Yapen, Papua 98215","Jl. Imam Bonjol, Serui Kota, Kec. Yapen Sel., Kabupaten Kepulauan Yapen",PAPUA,98215.0,Indonesia,82312533539.0,-1.8842457,136.2433659,https://maps.google.com/?cid=0x0:0xab888c2dca481018
mall,Kios,KIOS ZERO BRAND,"Tarau, Kec. Yapen Sel., Kabupaten Kepulauan Yapen, Papua 98215","Kec. Yapen Sel., Kabupaten Kepulauan Yapen",PAPUA,98215.0,Indonesia,81339982278.0,-1.8860927,136.2336328,https://maps.google.com/?cid=0x0:0x34311f2552dcf811
mall,Toko Swalayan,Pasar Tradisional Aroro iroro Serui,"467R+7RF, Pasir Hitam, Kec. Yapen Sel., Kabupaten Kepulauan Yapen, Papua 98215","Pasir Hitam, Kec. Yapen Sel., Kabupaten Kepulauan Yapen",PAPUA,98215.0,Indonesia,81343027405.0,-1.8868179,136.2420603,https://maps.google.com/?cid=0x0:0x76f34336a9275e8a
mall,mall,Kec. Yapen Sel.,"Kabupaten Kepulauan Yapen, Papua","Kabupaten Kepulauan Yapen, Papua",PAPUA,,Indonesia,,-1.884104,136.2418748,https://maps.google.com/?cid=0x0:0x3f81bf02f4d4d5c7
mall,Toko Swalayan,FEPUZAMARKET,"EX Rumah makan Makassar, Jl. Imam Bonjol, Serui Kota, Kec. Yapen Sel., Kabupaten Kepulauan Yapen, Papua 98215","Jl. Imam Bonjol, Serui Kota, Kec. Yapen Sel., Kabupaten Kepulauan Yapen",PAPUA,98215.0,Indonesia,82312533539.0,-1.8842457,136.2433659,https://maps.google.com/?cid=0x0:0xab888c2dca481018
mall,Minimarket,CV. Gemilang,"468Q+6FC, Jl. Moh. Yamin, Serui Kota, Kec. Yapen Sel., Kabupaten Kepulauan Yapen, Papua 98215","Jl. Moh. Yamin, Serui Kota, Kec. Yapen Sel., Kabupaten Kepulauan Yapen",PAPUA,98215.0,Indonesia,98331670.0,-1.8844262,136.2386549,https://maps.google.com/?cid=0x0:0xa1197d9724a8b78e
mall,Kantor Perusahaan,MR DIY,"46FP+3QH, Jl. Stevanus Rumbewas, Serui Kota, Kec. Yapen Sel., Kabupaten Kepulauan Yapen, Papua 98213","Jl. Stevanus Rumbewas, Serui Kota, Kec. Yapen Sel., Kabupaten Kepulauan Yapen",PAPUA,98213.0,Indonesia,,-1.877321,136.2369802,https://maps.google.com/?cid=0x0:0x3b6bdbeafb205f78
mall,Pusat Perbelanjaan,TOKO RISTA,"Serui Jaya, Kec. Yapen Sel., Kabupaten Kepulauan Yapen, Papua 98215","Kec. Yapen Sel., Kabupaten Kepulauan Yapen",PAPUA,98215.0,Indonesia,82148021467.0,-1.8816601,136.2425736,https://maps.google.com/?cid=0x0:0x6160be974d6c755f
mall,mall,Toko Serui Store,"468Q+62W, Jl. Padat Karya, Tarau, Kec. Yapen Sel., Kabupaten Kepulauan Yapen, Papua 98215","Jl. Padat Karya, Tarau, Kec. Yapen Sel., Kabupaten Kepulauan Yapen",PAPUA,98215.0,Indonesia,,-1.8843844,136.237593,https://maps.google.com/?cid=0x0:0x8f33b6906a31332d
mall,Komplek perumahan,Alex,"46CP+QMV, Serui Kota, Kec. Yapen Sel., Kabupaten Kepulauan Yapen, Papua 98213","Serui Kota, Kec. Yapen Sel., Kabupaten Kepulauan Yapen",PAPUA,98213.0,Indonesia,82398745211.0,-1.878015,136.236664,https://maps.google.com/?cid=0x0:0xf140c29fd491b84e
mall,Kios,KIOS ZERO BRAND,"Tarau, Kec. Yapen Sel., Kabupaten Kepulauan Yapen, Papua 98215","Kec. Yapen Sel., Kabupaten Kepulauan Yapen",PAPUA,98215.0,Indonesia,81339982278.0,-1.8860927,136.2336328,https://maps.google.com/?cid=0x0:0x34311f2552dcf811
mall,Toko,Toko AGUNG Pertanian,"467Q+8RR, Jl. Diponegoro, Pasir Hitam, Kec. Yapen Sel., Kabupaten Kepulauan Yapen, Papua 98215","Jl. Diponegoro, Pasir Hitam, Kec. Yapen Sel., Kabupaten Kepulauan Yapen",PAPUA,98215.0,Indonesia,85254882222.0,-1.8866285,136.2395138,https://maps.google.com/?cid=0x0:0xe79824df3564cd4b
mall,Pusat Perbelanjaan,Ruko Nurhidayat,"467R+CQW, Jl. Diponegoro, Serui Kota, Kec. Yapen Sel., Kabupaten Kepulauan Yapen, Papua 98215","Jl. Diponegoro, Serui Kota, Kec. Yapen Sel., Kabupaten Kepulauan Yapen",PAPUA,98215.0,Indonesia,85256276008.0,-1.8863759,136.2419385,https://maps.google.com/?cid=0x0:0xb8d3f575709163b8
mall,Toko,TOKO MERPATI,"Jl. Gajahmada, Serui Jaya, Kec. Yapen Sel., Kabupaten Kepulauan Yapen, Papua 98211","Serui Jaya, Kec. Yapen Sel., Kabupaten Kepulauan Yapen",PAPUA,98211.0,Indonesia,85266800160.0,-1.8796431,136.242051,https://maps.google.com/?cid=0x0:0x82fa4a3376783cc8
mall,Toko Buku,Indah Pasaraya Serui Indah,"Jl. Moh. Yamin, Serui Kota, Kec. Yapen Sel., Kabupaten Kepulauan Yapen, Papua 98215","Serui Kota, Kec. Yapen Sel., Kabupaten Kepulauan Yapen",PAPUA,98215.0,Indonesia,,-1.8836014,136.2384964,https://maps.google.com/?cid=0x0:0x7d9f1453d5882191
mall,Toko,Gisele baby shop,"468R+7HX, Serui Kota, Kec. Yapen Sel., Kabupaten Kepulauan Yapen, Papua 98215","Serui Kota, Kec. Yapen Sel., Kabupaten Kepulauan Yapen",PAPUA,98215.0,Indonesia,85342976106.0,-1.8842727,136.2414921,https://maps.google.com/?cid=0x0:0xdbf93d34fe829904
mall,mall,Distrik Yapen Timur,"Kabupaten Kepulauan Yapen, Papua","Kabupaten Kepulauan Yapen, Papua",PAPUA,,Indonesia,,-1.8231626,136.7603579,https://maps.google.com/?cid=0x0:0x8aa6062a086a2ccd
mall,,Nayla kios,"5QJ7+6Q8, Awunawai, Distrik Yapen Timur, Kabupaten Kepulauan Yapen, Papua 98252","Awunawai, Distrik Yapen Timur, Kabupaten Kepulauan Yapen",PAPUA,98252.0,Indonesia,81220473640.0,-1.8194657,136.7644577,https://maps.google.com/?cid=0x0:0x17292654e0839a18
mall,mall,Pasar Baru,"5QJ7+5M4, Awunawai, Distrik Yapen Timur, Kabupaten Kepulauan Yapen, Papua 98252","Awunawai, Distrik Yapen Timur, Kabupaten Kepulauan Yapen",PAPUA,98252.0,Indonesia,,-1.8196175,136.7641916,https://maps.google.com/?cid=0x0:0xa4dbb6014ad019ca
mall,mall,Papua 98255,"Kabupaten Kepulauan Yapen, Papua","Kabupaten Kepulauan Yapen, Papua",PAPUA,,Indonesia,,-1.8086855,136.3240951,https://maps.google.com/?cid=0x0:0x438de2bf5d4cd8af
mall,Toko Swalayan,Pasar Tradisional Aroro iroro Serui,"467R+7RF, Pasir Hitam, Kec. Yapen Sel., Kabupaten Kepulauan Yapen, Papua 98215","Pasir Hitam, Kec. Yapen Sel., Kabupaten Kepulauan Yapen",PAPUA,98215.0,Indonesia,81343027405.0,-1.8868179,136.2420603,https://maps.google.com/?cid=0x0:0x76f34336a9275e8a
mall,Toko Swalayan,FEPUZAMARKET,"EX Rumah makan Makassar, Jl. Imam Bonjol, Serui Kota, Kec. Yapen Sel., Kabupaten Kepulauan Yapen, Papua 98215","Jl. Imam Bonjol, Serui Kota, Kec. Yapen Sel., Kabupaten Kepulauan Yapen",PAPUA,98215.0,Indonesia,82312533539.0,-1.8842457,136.2433659,https://maps.google.com/?cid=0x0:0xab888c2dca481018
mall,Pusat Perbelanjaan,TOKO RISTA,"Serui Jaya, Kec. Yapen Sel., Kabupaten Kepulauan Yapen, Papua 98215","Kec. Yapen Sel., Kabupaten Kepulauan Yapen",PAPUA,98215.0,Indonesia,82148021467.0,-1.8816601,136.2425736,https://maps.google.com/?cid=0x0:0x6160be974d6c755f
mall,Minimarket,CV. Gemilang,"468Q+6FC, Jl. Moh. Yamin, Serui Kota, Kec. Yapen Sel., Kabupaten Kepulauan Yapen, Papua 98215","Jl. Moh. Yamin, Serui Kota, Kec. Yapen Sel., Kabupaten Kepulauan Yapen",PAPUA,98215.0,Indonesia,98331670.0,-1.8844262,136.2386549,https://maps.google.com/?cid=0x0:0xa1197d9724a8b78e
mall,Toko,TOKO MERPATI,"Jl. Gajahmada, Serui Jaya, Kec. Yapen Sel., Kabupaten Kepulauan Yapen, Papua 98211","Serui Jaya, Kec. Yapen Sel., Kabupaten Kepulauan Yapen",PAPUA,98211.0,Indonesia,85266800160.0,-1.8796431,136.242051,https://maps.google.com/?cid=0x0:0x82fa4a3376783cc8
mall,Pusat Perbelanjaan,Mall Jayapura,"APO, Jl. Samratulangi, Bayangkara, Kec. Jayapura Utara, Kota Jayapura, Papua 99112","Jl. Samratulangi, Bayangkara, Kec. Jayapura Utara, Kota Jayapura",PAPUA,99112.0,Indonesia,9675150000.0,-2.5351775,140.7061874,https://maps.google.com/?cid=0x0:0x54294cb27964023
mall,Komplek perumahan,Alex,"46CP+QMV, Serui Kota, Kec. Yapen Sel., Kabupaten Kepulauan Yapen, Papua 98213","Serui Kota, Kec. Yapen Sel., Kabupaten Kepulauan Yapen",PAPUA,98213.0,Indonesia,82398745211.0,-1.878015,136.236664,https://maps.google.com/?cid=0x0:0xf140c29fd491b84e
mall,Kios,Kios kaylaA3 maros,"Jl kopi, Anatorei, Kec. Yapen Sel., Kabupaten Kepulauan Yapen, Papua 98213","Anatorei, Kec. Yapen Sel., Kabupaten Kepulauan Yapen",PAPUA,98213.0,Indonesia,82311989580.0,-1.869444,136.2390576,https://maps.google.com/?cid=0x0:0x89d8730ef5a85f20
mall,mall,Toko Serui Store,"468Q+62W, Jl. Padat Karya, Tarau, Kec. Yapen Sel., Kabupaten Kepulauan Yapen, Papua 98215","Jl. Padat Karya, Tarau, Kec. Yapen Sel., Kabupaten Kepulauan Yapen",PAPUA,98215.0,Indonesia,,-1.8843844,136.237593,https://maps.google.com/?cid=0x0:0x8f33b6906a31332d
mall,Kios,KIOS ZERO BRAND,"Tarau, Kec. Yapen Sel., Kabupaten Kepulauan Yapen, Papua 98215","Kec. Yapen Sel., Kabupaten Kepulauan Yapen",PAPUA,98215.0,Indonesia,81339982278.0,-1.8860927,136.2336328,https://maps.google.com/?cid=0x0:0x34311f2552dcf811
mall,Pusat Perbelanjaan,Ruko Nurhidayat,"467R+CQW, Jl. Diponegoro, Serui Kota, Kec. Yapen Sel., Kabupaten Kepulauan Yapen, Papua 98215","Jl. Diponegoro, Serui Kota, Kec. Yapen Sel., Kabupaten Kepulauan Yapen",PAPUA,98215.0,Indonesia,85256276008.0,-1.8863759,136.2419385,https://maps.google.com/?cid=0x0:0xb8d3f575709163b8
mall,Kantor Perusahaan,MR DIY,"46FP+3QH, Jl. Stevanus Rumbewas, Serui Kota, Kec. Yapen Sel., Kabupaten Kepulauan Yapen, Papua 98213","Jl. Stevanus Rumbewas, Serui Kota, Kec. Yapen Sel., Kabupaten Kepulauan Yapen",PAPUA,98213.0,Indonesia,,-1.877321,136.2369802,https://maps.google.com/?cid=0x0:0x3b6bdbeafb205f78
mall,Toko Ponsel,Konter hp TWIN CELL,"46FW+82Q, Warari, Kec. Yapen Sel., Kabupaten Kepulauan Yapen, Papua 98213","Warari, Kec. Yapen Sel., Kabupaten Kepulauan Yapen",PAPUA,98213.0,Indonesia,82333923392.0,-1.876668,136.2451202,https://maps.google.com/?cid=0x0:0x5a59f2a5f27bc5d6
mall,mall,Papua 98254,"Kabupaten Kepulauan Yapen, Papua","Kabupaten Kepulauan Yapen, Papua",PAPUA,,Indonesia,,-1.668696,135.9229866,https://maps.google.com/?cid=0x0:0x786984f83d38aaec
mall,Pusat Perbelanjaan,Mall papua,"Jl. Gn. Aspen No.26, Bencongan, Kec. Klp. Dua, Kabupaten Tangerang, Banten 15810","Bencongan, Kec. Klp. Dua, Kabupaten Tangerang",PAPUA,15810.0,Indonesia,,-6.2338406,106.5937941,https://maps.google.com/?cid=0x0:0xf2fc51e618acb94
mall,Pusat Perbelanjaan,Mall Jayapura,"APO, Jl. Samratulangi, Bayangkara, Kec. Jayapura Utara, Kota Jayapura, Papua 99112","Jl. Samratulangi, Bayangkara, Kec. Jayapura Utara, Kota Jayapura",PAPUA,99112.0,Indonesia,9675150000.0,-2.5351775,140.7061874,https://maps.google.com/?cid=0x0:0x54294cb27964023
mall,Pasar Grosir Pakaian,Ramayana Abepura,"Jl. Raya Abepura, Kel. Vin, Kec. Jayapura Selatan, Wai Mhorock, Kec. Abepura, Kota Jayapura, Papua 99351","Kel. Vin, Kec. Jayapura Selatan, Wai Mhorock, Kec. Abepura, Kota Jayapura",PAPUA,99351.0,Indonesia,967584745.0,-2.604339,140.6736756,https://maps.google.com/?cid=0x0:0x103c0acf73345917
mall,Toko Swalayan,Hypermart Jayapura Mall,"Jl. Dr. Sam Ratulangi No.47, Bayangkara, Kec. Jayapura Utara, Kota Jayapura, Papua 99112","Bayangkara, Kec. Jayapura Utara, Kota Jayapura",PAPUA,99112.0,Indonesia,967522298.0,-2.5350388,140.7055769,https://maps.google.com/?cid=0x0:0xb1412384235d004a
mall,Pusat Perbelanjaan,Deppp,"Unnamed Road Blk. B No.1, Awiyo, Kec. Abepura, Kota Jayapura, Papua 99351","Awiyo, Kec. Abepura, Kota Jayapura",PAPUA,99351.0,Indonesia,85373778318.0,-2.618795,140.671301,https://maps.google.com/?cid=0x0:0xc36d46e4b6f8a8c6
mall,Pusat Perbelanjaan,Emporium Pluit Mall,"Jl. Pluit Selatan Raya No.1, Penjaringan, Kec. Penjaringan, Jkt Utara, Daerah Khusus Ibukota Jakarta 14440","Penjaringan, Kec. Penjaringan, Jkt Utara",PAPUA,14440.0,Indonesia,2166676288.0,-6.1272711,106.7909758,https://maps.google.com/?cid=0x0:0x54cb9f1766bde458
mall,Toko,Kios Cahaya Mamori,"7R87+325, Ansus, Yapen Bar., Kabupaten Kepulauan Yapen, Papua","Kabupaten Kepulauan Yapen, Papua",PAPUA,,Indonesia,,-1.734862,135.8126108,https://maps.google.com/?cid=0x0:0x905276bd07ff2cda
mall,Pusat Perbelanjaan,Lotte Shopping Avenue Mall,"Jl. Prof. DR. Satrio No.Kav.3, RW.5, Kuningan, Karet Kuningan, Kecamatan Setiabudi, Kota Jakarta Selatan, Daerah Khusus Ibukota Jakarta 12940","RW.5, Kuningan, Karet Kuningan, Kecamatan Setiabudi, Kota Jakarta Selatan",PAPUA,12940.0,Indonesia,2129889292.0,-6.2233644,106.8232981,https://maps.google.com/?cid=0x0:0xe8323175da8b9770
mall,Pusat Perbelanjaan,Pondok Indah Mall 1,"Jl. Metro Pondok Indah No.Kav. 4, RT.1/RW.16, Pd. Pinang, Kec. Kby. Lama, Kota Jakarta Selatan, Daerah Khusus Ibukota Jakarta 12310","RT.1/RW.16, Pd. Pinang, Kec. Kby. Lama, Kota Jakarta Selatan",PAPUA,12310.0,Indonesia,217506750.0,-6.2652166,106.7843165,https://maps.google.com/?cid=0x0:0x682837113c4ea854
mall,Pusat Perbelanjaan,Mall Of Indonesia,"Jl. Boulevard Bar. Raya No.12, RT.18/RW.19, Klp. Gading Bar., Kec. Klp. Gading, Jkt Utara, Daerah Khusus Ibukota Jakarta 14240","RT.18/RW.19, Klp. Gading Bar., Kec. Klp. Gading, Jkt Utara",PAPUA,14240.0,Indonesia,2145867888.0,-6.1514549,106.8918949,https://maps.google.com/?cid=0x0:0x3431c7aaadd1f1b6
mall,Pusat Perbelanjaan,Tamini Square,"Jl. Taman Mini I No.1, RT.3/RW.2, Pinang Ranti, Kec. Makasar, Kota Jakarta Timur, Daerah Khusus Ibukota Jakarta 13560","RT.3/RW.2, Pinang Ranti, Kec. Makasar, Kota Jakarta Timur",PAPUA,13560.0,Indonesia,218416789.0,-6.2911849,106.8821037,https://maps.google.com/?cid=0x0:0x284d719ef134130b
mall,Pusat Perbelanjaan,Mall Kota Kasablanka,"Jl. Raya Casablanca No.Kav 88, Menteng Dalam, Kec. Tebet, Kota Jakarta Selatan, Daerah Khusus Ibukota Jakarta 12870","Menteng Dalam, Kec. Tebet, Kota Jakarta Selatan",PAPUA,12870.0,Indonesia,2129465000.0,-6.2240353,106.8425979,https://maps.google.com/?cid=0x0:0xaf54cb631563acce
mall,Pusat Perbelanjaan,Gandaria City,"Jl. Sultan Iskandar Muda, Gandaria, Kec. Kby. Lama, Kota Jakarta Selatan, Daerah Khusus Ibukota Jakarta 12240","Gandaria, Kec. Kby. Lama, Kota Jakarta Selatan",PAPUA,12240.0,Indonesia,2129052888.0,-6.2443009,106.7829375,https://maps.google.com/?cid=0x0:0x6173704d396d5a99
mall,mall,Papua 98215,"Kabupaten Kepulauan Yapen, Papua","Kabupaten Kepulauan Yapen, Papua",PAPUA,,Indonesia,,-1.8017548,136.0944845,https://maps.google.com/?cid=0x0:0xd235688620f2534d
mall,Toko Swalayan,Pasar Tradisional Aroro iroro Serui,"467R+7RF, Pasir Hitam, Kec. Yapen Sel., Kabupaten Kepulauan Yapen, Papua 98215","Pasir Hitam, Kec. Yapen Sel., Kabupaten Kepulauan Yapen",PAPUA,98215.0,Indonesia,81343027405.0,-1.8868179,136.2420603,https://maps.google.com/?cid=0x0:0x76f34336a9275e8a
mall,Toko Swalayan,FEPUZAMARKET,"EX Rumah makan Makassar, Jl. Imam Bonjol, Serui Kota, Kec. Yapen Sel., Kabupaten Kepulauan Yapen, Papua 98215","Jl. Imam Bonjol, Serui Kota, Kec. Yapen Sel., Kabupaten Kepulauan Yapen",PAPUA,98215.0,Indonesia,82312533539.0,-1.8842457,136.2433659,https://maps.google.com/?cid=0x0:0xab888c2dca481018
mall,Kios,KIOS ZERO BRAND,"Tarau, Kec. Yapen Sel., Kabupaten Kepulauan Yapen, Papua 98215","Kec. Yapen Sel., Kabupaten Kepulauan Yapen",PAPUA,98215.0,Indonesia,81339982278.0,-1.8860927,136.2336328,https://maps.google.com/?cid=0x0:0x34311f2552dcf811
mall,Minimarket,CV. Gemilang,"468Q+6FC, Jl. Moh. Yamin, Serui Kota, Kec. Yapen Sel., Kabupaten Kepulauan Yapen, Papua 98215","Jl. Moh. Yamin, Serui Kota, Kec. Yapen Sel., Kabupaten Kepulauan Yapen",PAPUA,98215.0,Indonesia,98331670.0,-1.8844262,136.2386549,https://maps.google.com/?cid=0x0:0xa1197d9724a8b78e
mall,Kantor Perusahaan,MR DIY,"46FP+3QH, Jl. Stevanus Rumbewas, Serui Kota, Kec. Yapen Sel., Kabupaten Kepulauan Yapen, Papua 98213","Jl. Stevanus Rumbewas, Serui Kota, Kec. Yapen Sel., Kabupaten Kepulauan Yapen",PAPUA,98213.0,Indonesia,,-1.877321,136.2369802,https://maps.google.com/?cid=0x0:0x3b6bdbeafb205f78
mall,mall,Toko Serui Store,"468Q+62W, Jl. Padat Karya, Tarau, Kec. Yapen Sel., Kabupaten Kepulauan Yapen, Papua 98215","Jl. Padat Karya, Tarau, Kec. Yapen Sel., Kabupaten Kepulauan Yapen",PAPUA,98215.0,Indonesia,,-1.8843844,136.237593,https://maps.google.com/?cid=0x0:0x8f33b6906a31332d
mall,Pusat Perbelanjaan,TOKO RISTA,"Serui Jaya, Kec. Yapen Sel., Kabupaten Kepulauan Yapen, Papua 98215","Kec. Yapen Sel., Kabupaten Kepulauan Yapen",PAPUA,98215.0,Indonesia,82148021467.0,-1.8816601,136.2425736,https://maps.google.com/?cid=0x0:0x6160be974d6c755f
mall,Toko,Toko AGUNG Pertanian,"467Q+8RR, Jl. Diponegoro, Pasir Hitam, Kec. Yapen Sel., Kabupaten Kepulauan Yapen, Papua 98215","Jl. Diponegoro, Pasir Hitam, Kec. Yapen Sel., Kabupaten Kepulauan Yapen",PAPUA,98215.0,Indonesia,85254882222.0,-1.8866285,136.2395138,https://maps.google.com/?cid=0x0:0xe79824df3564cd4b
mall,Toko Buku,Indah Pasaraya Serui Indah,"Jl. Moh. Yamin, Serui Kota, Kec. Yapen Sel., Kabupaten Kepulauan Yapen, Papua 98215","Serui Kota, Kec. Yapen Sel., Kabupaten Kepulauan Yapen",PAPUA,98215.0,Indonesia,,-1.8836014,136.2384964,https://maps.google.com/?cid=0x0:0x7d9f1453d5882191
mall,Komplek perumahan,Alex,"46CP+QMV, Serui Kota, Kec. Yapen Sel., Kabupaten Kepulauan Yapen, Papua 98213","Serui Kota, Kec. Yapen Sel., Kabupaten Kepulauan Yapen",PAPUA,98213.0,Indonesia,82398745211.0,-1.878015,136.236664,https://maps.google.com/?cid=0x0:0xf140c29fd491b84e
mall,Toko,TOKO MERPATI,"Jl. Gajahmada, Serui Jaya, Kec. Yapen Sel., Kabupaten Kepulauan Yapen, Papua 98211","Serui Jaya, Kec. Yapen Sel., Kabupaten Kepulauan Yapen",PAPUA,98211.0,Indonesia,85266800160.0,-1.8796431,136.242051,https://maps.google.com/?cid=0x0:0x82fa4a3376783cc8
mall,Pusat Perbelanjaan,Ruko Nurhidayat,"467R+CQW, Jl. Diponegoro, Serui Kota, Kec. Yapen Sel., Kabupaten Kepulauan Yapen, Papua 98215","Jl. Diponegoro, Serui Kota, Kec. Yapen Sel., Kabupaten Kepulauan Yapen",PAPUA,98215.0,Indonesia,85256276008.0,-1.8863759,136.2419385,https://maps.google.com/?cid=0x0:0xb8d3f575709163b8
mall,Toko bahan makanan,Distributor Aice Serui,"Jl. Padat Karya, Serui Kota, Kec. Yapen Sel., Kabupaten Kepulauan Yapen, Papua 98215","Serui Kota, Kec. Yapen Sel., Kabupaten Kepulauan Yapen",PAPUA,98215.0,Indonesia,82398739074.0,-1.8845382,136.2371045,https://maps.google.com/?cid=0x0:0xf6dffa7f60e96633
mall,,Nayla kios,"5QJ7+6Q8, Awunawai, Distrik Yapen Timur, Kabupaten Kepulauan Yapen, Papua 98252","Awunawai, Distrik Yapen Timur, Kabupaten Kepulauan Yapen",PAPUA,98252.0,Indonesia,81220473640.0,-1.8194657,136.7644577,https://maps.google.com/?cid=0x0:0x17292654e0839a18
mall,Toko Swalayan,FEPUZAMARKET,"EX Rumah makan Makassar, Jl. Imam Bonjol, Serui Kota, Kec. Yapen Sel., Kabupaten Kepulauan Yapen, Papua 98215","Jl. Imam Bonjol, Serui Kota, Kec. Yapen Sel., Kabupaten Kepulauan Yapen",PAPUA,98215.0,Indonesia,82312533539.0,-1.8842457,136.2433659,https://maps.google.com/?cid=0x0:0xab888c2dca481018
mall,mall,Papua 98252,"Kabupaten Kepulauan Yapen, Papua","Kabupaten Kepulauan Yapen, Papua",PAPUA,,Indonesia,,-1.7581253,136.5547852,https://maps.google.com/?cid=0x0:0xe52dde0e102e427c
mall,Toko Swalayan,Pasar Tradisional Aroro iroro Serui,"467R+7RF, Pasir Hitam, Kec. Yapen Sel., Kabupaten Kepulauan Yapen, Papua 98215","Pasir Hitam, Kec. Yapen Sel., Kabupaten Kepulauan Yapen",PAPUA,98215.0,Indonesia,81343027405.0,-1.8868179,136.2420603,https://maps.google.com/?cid=0x0:0x76f34336a9275e8a
mall,Komplek perumahan,Alex,"46CP+QMV, Serui Kota, Kec. Yapen Sel., Kabupaten Kepulauan Yapen, Papua 98213","Serui Kota, Kec. Yapen Sel., Kabupaten Kepulauan Yapen",PAPUA,98213.0,Indonesia,82398745211.0,-1.878015,136.236664,https://maps.google.com/?cid=0x0:0xf140c29fd491b84e
mall,Toko Swalayan,Toko Papua Indah,"467V+R4Q, Serui Kota, Kec. Yapen Sel., Kabupaten Kepulauan Yapen, Papua 98215","Serui Kota, Kec. Yapen Sel., Kabupaten Kepulauan Yapen",PAPUA,98215.0,Indonesia,,-1.8854056,136.2428548,https://maps.google.com/?cid=0x0:0xde36d055f56c5bb4
mall,mall,Pasar Baru,"5QJ7+5M4, Awunawai, Distrik Yapen Timur, Kabupaten Kepulauan Yapen, Papua 98252","Awunawai, Distrik Yapen Timur, Kabupaten Kepulauan Yapen",PAPUA,98252.0,Indonesia,,-1.8196175,136.7641916,https://maps.google.com/?cid=0x0:0xa4dbb6014ad019ca
mall,mall,Kios Rafif,"5QG2+PWR, Dawai, Distrik Yapen Timur, Kabupaten Kepulauan Yapen, Papua 98252","Dawai, Distrik Yapen Timur, Kabupaten Kepulauan Yapen",PAPUA,98252.0,Indonesia,,-1.8231656,136.7520045,https://maps.google.com/?cid=0x0:0xcc155b850a2b5f90
mall,mall,Kios al-fazza,"5PMJ+C9G, Dawai, Distrik Yapen Timur, Kabupaten Kepulauan Yapen, Papua","Kabupaten Kepulauan Yapen, Papua",PAPUA,,Indonesia,,-1.8164341,136.7309385,https://maps.google.com/?cid=0x0:0x8795d9ff8958403a
mall,Pusat Perbelanjaan,TOKO RISTA,"Serui Jaya, Kec. Yapen Sel., Kabupaten Kepulauan Yapen, Papua 98215","Kec. Yapen Sel., Kabupaten Kepulauan Yapen",PAPUA,98215.0,Indonesia,82148021467.0,-1.8816601,136.2425736,https://maps.google.com/?cid=0x0:0x6160be974d6c755f
mall,mall,Distrik Raimbawi,"Kabupaten Kepulauan Yapen, Papua","Kabupaten Kepulauan Yapen, Papua",PAPUA,,Indonesia,,-1.767849,136.8405357,https://maps.google.com/?cid=0x0:0x5bfe03ebf6ec49ab
mall,,Nayla kios,"5QJ7+6Q8, Awunawai, Distrik Yapen Timur, Kabupaten Kepulauan Yapen, Papua 98252","Awunawai, Distrik Yapen Timur, Kabupaten Kepulauan Yapen",PAPUA,98252.0,Indonesia,81220473640.0,-1.8194657,136.7644577,https://maps.google.com/?cid=0x0:0x17292654e0839a18
mall,mall,Pasar Baru,"5QJ7+5M4, Awunawai, Distrik Yapen Timur, Kabupaten Kepulauan Yapen, Papua 98252","Awunawai, Distrik Yapen Timur, Kabupaten Kepulauan Yapen",PAPUA,98252.0,Indonesia,,-1.8196175,136.7641916,https://maps.google.com/?cid=0x0:0xa4dbb6014ad019ca
mall,Pusat Perbelanjaan,Blok M Plaza,"Jl. Bulungan No.76, RT.6/RW.6, Kramat Pela, Kec. Kby. Baru, Kota Jakarta Selatan, Daerah Khusus Ibukota Jakarta 12130","RT.6/RW.6, Kramat Pela, Kec. Kby. Baru, Kota Jakarta Selatan",PAPUA,12130.0,Indonesia,217209288.0,-6.2441189,106.7976404,https://maps.google.com/?cid=0x0:0x3e110f817acb352d
mall,Pusat Perbelanjaan,PIK Avenue,"Jl. Pantai Indah Kapuk Boulevard, RT.6/RW.2, Kamal Muara, Kec. Penjaringan, Jkt Utara, Daerah Khusus Ibukota Jakarta 14470","RT.6/RW.2, Kamal Muara, Kec. Penjaringan, Jkt Utara",PAPUA,14470.0,Indonesia,2122570999.0,-6.1088281,106.74021,https://maps.google.com/?cid=0x0:0xa57ef5bb9b685927
mall,Pusat Perbelanjaan,ASHTA District 8,"Jl. Senopati No.83, Senayan, Kec. Kby. Baru, Kota Jakarta Selatan, Daerah Khusus Ibukota Jakarta 12190","Senayan, Kec. Kby. Baru, Kota Jakarta Selatan",PAPUA,12190.0,Indonesia,2150262888.0,-6.229976,106.8070846,https://maps.google.com/?cid=0x0:0x1042cab307c13c5f
mall,Pusat Perbelanjaan,Mall Of Indonesia,"Jl. Boulevard Bar. Raya No.12, RT.18/RW.19, Klp. Gading Bar., Kec. Klp. Gading, Jkt Utara, Daerah Khusus Ibukota Jakarta 14240","RT.18/RW.19, Klp. Gading Bar., Kec. Klp. Gading, Jkt Utara",PAPUA,14240.0,Indonesia,2145867888.0,-6.1514549,106.8918949,https://maps.google.com/?cid=0x0:0x3431c7aaadd1f1b6
mall,Pusat Perbelanjaan,Mall Jayapura,"APO, Jl. Samratulangi, Bayangkara, Kec. Jayapura Utara, Kota Jayapura, Papua 99112","Jl. Samratulangi, Bayangkara, Kec. Jayapura Utara, Kota Jayapura",PAPUA,99112.0,Indonesia,9675150000.0,-2.5351775,140.7061874,https://maps.google.com/?cid=0x0:0x54294cb27964023
mall,mall,Distrik Tlk. Ampimoi,"Kabupaten Kepulauan Yapen, Papua","Kabupaten Kepulauan Yapen, Papua",PAPUA,,Indonesia,,-1.8521856,136.5246471,https://maps.google.com/?cid=0x0:0x9f8f93e4402acbda
mall,Pusat Perbelanjaan,SAGA MALL,"Kota Baru, Kec. Abepura, Kota Jayapura, Papua 99351","Kec. Abepura, Kota Jayapura",PAPUA,99351.0,Indonesia,,-2.6105845,140.6654189,https://maps.google.com/?cid=0x0:0xaf65e43ff84ff9e6
mall,Toko Swalayan,Hypermart Jayapura Mall,"Jl. Dr. Sam Ratulangi No.47, Bayangkara, Kec. Jayapura Utara, Kota Jayapura, Papua 99112","Bayangkara, Kec. Jayapura Utara, Kota Jayapura",PAPUA,99112.0,Indonesia,967522298.0,-2.5350388,140.7055769,https://maps.google.com/?cid=0x0:0xb1412384235d004a
mall,Toko Swalayan,AEON Mall Tanjung Barat,"Jl. Raya Tj. Barat No.163, RT.12/RW.4, Tj. Bar., Kec. Jagakarsa, Kota Jakarta Selatan, Daerah Khusus Ibukota Jakarta 12530","RT.12/RW.4, Tj. Bar., Kec. Jagakarsa, Kota Jakarta Selatan",PAPUA,12530.0,Indonesia,2150959888.0,-6.3067712,106.8398711,https://maps.google.com/?cid=0x0:0x5ce799145dbf8630
mall,Pusat Perbelanjaan,Mall Jayapura,"APO, Jl. Samratulangi, Bayangkara, Kec. Jayapura Utara, Kota Jayapura, Papua 99112","Jl. Samratulangi, Bayangkara, Kec. Jayapura Utara, Kota Jayapura",PAPUA,99112.0,Indonesia,9675150000.0,-2.5351775,140.7061874,https://maps.google.com/?cid=0x0:0x54294cb27964023
mall,Komplek perumahan,Alex,"46CP+QMV, Serui Kota, Kec. Yapen Sel., Kabupaten Kepulauan Yapen, Papua 98213","Serui Kota, Kec. Yapen Sel., Kabupaten Kepulauan Yapen",PAPUA,98213.0,Indonesia,82398745211.0,-1.878015,136.236664,https://maps.google.com/?cid=0x0:0xf140c29fd491b84e
mall,Pusat Perbelanjaan,SAGA MALL,"Kota Baru, Kec. Abepura, Kota Jayapura, Papua 99351","Kec. Abepura, Kota Jayapura",PAPUA,99351.0,Indonesia,,-2.6105845,140.6654189,https://maps.google.com/?cid=0x0:0xaf65e43ff84ff9e6
mall,Pusat Perbelanjaan,OMOTESANDO MALL BINTARO,"Jl. Jombang Raya, Bintaro, Kec. Pd. Aren, Kota Tangerang Selatan, Banten 15414","Bintaro, Kec. Pd. Aren, Kota Tangerang Selatan",PAPUA,15414.0,Indonesia,,-6.2813314,106.7034174,https://maps.google.com/?cid=0x0:0x60c0384241516989
mall,Toko Swalayan,Hypermart Jayapura Mall,"Jl. Dr. Sam Ratulangi No.47, Bayangkara, Kec. Jayapura Utara, Kota Jayapura, Papua 99112","Bayangkara, Kec. Jayapura Utara, Kota Jayapura",PAPUA,99112.0,Indonesia,967522298.0,-2.5350388,140.7055769,https://maps.google.com/?cid=0x0:0xb1412384235d004a
mall,Kedai Kopi,JCO COFFEE  DONUTS MALL JAYAPURA,"Jl. Kab. No.99112, Bayangkara, Kec. Jayapura Utara, Kota Jayapura, Papua 99112","Bayangkara, Kec. Jayapura Utara, Kota Jayapura",PAPUA,99112.0,Indonesia,,-2.5353252,140.7060198,https://maps.google.com/?cid=0x0:0x8cbe835113b8c269
mall,Toko,Kios Cahaya Mamori,"7R87+325, Ansus, Yapen Bar., Kabupaten Kepulauan Yapen, Papua","Kabupaten Kepulauan Yapen, Papua",PAPUA,,Indonesia,,-1.734862,135.8126108,https://maps.google.com/?cid=0x0:0x905276bd07ff2cda
mall,Kios,Kios anugrah,"469H+44V, Banawa, Kec. Yapen Sel., Kabupaten Kepulauan Yapen, Papua 98215","Banawa, Kec. Yapen Sel., Kabupaten Kepulauan Yapen",PAPUA,98215.0,Indonesia,,-1.8821162,136.2280095,https://maps.google.com/?cid=0x0:0x631e2f7de5d1f6a4
mall,mall,Papua 98253,"Kabupaten Kepulauan Yapen, Papua","Kabupaten Kepulauan Yapen, Papua",PAPUA,,Indonesia,,-1.692705,135.7710559,https://maps.google.com/?cid=0x0:0xe712ef09824c8ae8
mall,Pusat Perbelanjaan,Mall Of Indonesia,"Jl. Boulevard Bar. Raya No.12, RT.18/RW.19, Klp. Gading Bar., Kec. Klp. Gading, Jkt Utara, Daerah Khusus Ibukota Jakarta 14240","RT.18/RW.19, Klp. Gading Bar., Kec. Klp. Gading, Jkt Utara",PAPUA,14240.0,Indonesia,2145867888.0,-6.1514549,106.8918949,https://maps.google.com/?cid=0x0:0x3431c7aaadd1f1b6
mall,Pusat Perbelanjaan,Vision City Mega Mall,"Lot 7, 8  9, Section 429, 131 National Capital District, Waigani Dr, Port Moresby, Papua Nugini","Port Moresby, Papua Nugini",PAPUA,,Indonesia,6753028555.0,-9.4384023,147.1810598,https://maps.google.com/?cid=0x0:0x6b6056559e073ba7
mall,Pusat Perbelanjaan,Moi,"Klp. Gading Trade Centre, Jl. Pulau Putri No.2 2, RT.2/RW.9, Klp. Gading Bar., Kec. Klp. Gading, Jkt Utara, Daerah Khusus Ibukota Jakarta 14240","Jl. Pulau Putri No.2 2, RT.2/RW.9, Klp. Gading Bar., Kec. Klp. Gading, Jkt Utara",PAPUA,14240.0,Indonesia,,-6.1508529,106.8921366,https://maps.google.com/?cid=0x0:0xbfa0759132a66681
mall,Mi,BAKMI AYAM HONEY,"RVXR+WFH, Jl. Boulevard Bar. Raya, RT.18/RW.8, Klp. Gading Bar., Kec. Klp. Gading, Jkt Utara, Daerah Khusus Ibukota Jakarta 14240","Jl. Boulevard Bar. Raya, RT.18/RW.8, Klp. Gading Bar., Kec. Klp. Gading, Jkt Utara",PAPUA,14240.0,Indonesia,2124521987.0,-6.1501981,106.8912349,https://maps.google.com/?cid=0x0:0x408854199cbd835b
mall,Toko Ponsel,Samsung Service Center MOI,"Mall Of Indonesia, HATI HATI PENIPUAN MENGATASNAMAKAN SAMSUNG SERVICE CENTER, TIDAK MENERIMA PEMBAYARAN DP MELALUI TRANSFER, Jl. Boulevard Bar. Raya Lt. 2 No. A1, RT.18/RW.8, Jkt Utara, Daerah Khusus Ibukota Jakarta 14240","HATI HATI PENIPUAN MENGATASNAMAKAN SAMSUNG SERVICE CENTER, TIDAK MENERIMA PEMBAYARAN DP MELALUI TRANSFER, Jl. Boulevard Bar. Raya Lt. 2 No. A1, RT.18/RW.8, Jkt Utara",PAPUA,14240.0,Indonesia,8001128888.0,-6.1506741,106.8908571,https://maps.google.com/?cid=0x0:0xf9ffd563ffc48382
mall,China,Din Tai Fung,"Mall Of Indonesia, Jl. Boulevard Bar. Raya ground floor, West Kelapa Gading, Square, North Jakarta City, Jakarta 14240","Jl. Boulevard Bar. Raya ground floor, West Kelapa Gading, Square, North Jakarta City",PAPUA,14240.0,Indonesia,2145868001.0,-6.1506741,106.8908571,https://maps.google.com/?cid=0x0:0x3fe132ac0363f566
mall,Pusat Perbelanjaan,MOI Kelapa Gading,"Mall Of Indonesia, Jl. Boulevard Bar. Raya Lt. 2, RT.18/RW.8, Klp. Gading Bar., Kec. Klp. Gading, Jkt Utara, Daerah Khusus Ibukota Jakarta 14240","Jl. Boulevard Bar. Raya Lt. 2, RT.18/RW.8, Klp. Gading Bar., Kec. Klp. Gading, Jkt Utara",PAPUA,14240.0,Indonesia,81217393609.0,-6.1506741,106.8908571,https://maps.google.com/?cid=0x0:0x11e13e124ce7f530
mall,mall,Papua 98254,"Kabupaten Kepulauan Yapen, Papua","Kabupaten Kepulauan Yapen, Papua",PAPUA,,Indonesia,,-1.668696,135.9229866,https://maps.google.com/?cid=0x0:0x786984f83d38aaec
mall,Pusat Perbelanjaan,Wamena Mall,"WW4W+JH7, Wamena Kota, Distrik Wamena, Kabupaten Jayawijaya, Papua 99511","Wamena Kota, Distrik Wamena, Kabupaten Jayawijaya",PAPUA,99511.0,Indonesia,81356954606.0,-4.0934521,138.9464176,https://maps.google.com/?cid=0x0:0x99f90a37cc207474
mall,Pusat Perbelanjaan,Mall Jayapura,"APO, Jl. Samratulangi, Bayangkara, Kec. Jayapura Utara, Kota Jayapura, Papua 99112","Jl. Samratulangi, Bayangkara, Kec. Jayapura Utara, Kota Jayapura",PAPUA,99112.0,Indonesia,9675150000.0,-2.5351775,140.7061874,https://maps.google.com/?cid=0x0:0x54294cb27964023
mall,Pusat Perbelanjaan,Mall Of Indonesia,"Jl. Boulevard Bar. Raya No.12, RT.18/RW.19, Klp. Gading Bar., Kec. Klp. Gading, Jkt Utara, Daerah Khusus Ibukota Jakarta 14240","RT.18/RW.19, Klp. Gading Bar., Kec. Klp. Gading, Jkt Utara",PAPUA,14240.0,Indonesia,2145867888.0,-6.1514549,106.8918949,https://maps.google.com/?cid=0x0:0x3431c7aaadd1f1b6
mall,Pusat Perbelanjaan,Mall Senayan City,"Jl. Asia Afrika No.Lot 19, Gelora, Kecamatan Tanah Abang, Kota Jakarta Pusat, Daerah Khusus Ibukota Jakarta 10270","Gelora, Kecamatan Tanah Abang, Kota Jakarta Pusat",PAPUA,10270.0,Indonesia,2172781000.0,-6.2271953,106.7970117,https://maps.google.com/?cid=0x0:0x300c043104acc004
mall,Pusat Perbelanjaan,MOI Kelapa Gading,"Mall Of Indonesia, Jl. Boulevard Bar. Raya Lt. 2, RT.18/RW.8, Klp. Gading Bar., Kec. Klp. Gading, Jkt Utara, Daerah Khusus Ibukota Jakarta 14240","Jl. Boulevard Bar. Raya Lt. 2, RT.18/RW.8, Klp. Gading Bar., Kec. Klp. Gading, Jkt Utara",PAPUA,14240.0,Indonesia,81217393609.0,-6.1506741,106.8908571,https://maps.google.com/?cid=0x0:0x11e13e124ce7f530
mall,Pusat Perbelanjaan,Grand Indonesia Shopping Town,"Jl. M.H. Thamrin No.1, Menteng, Kec. Menteng, Kota Jakarta Pusat, Daerah Khusus Ibukota Jakarta 10310","Menteng, Kec. Menteng, Kota Jakarta Pusat",PAPUA,10310.0,Indonesia,2123580001.0,-6.1965848,106.8224882,https://maps.google.com/?cid=0x0:0xccfcc89b95aaf1ae
mall,Pusat Perbelanjaan,Grand Galaxy Park,"Jl. Boulevard Raya No.1, RT.003/RW.017, Jaka Setia, Kec. Bekasi Sel., Kota Bks, Jawa Barat 17147","RT.003/RW.017, Jaka Setia, Kec. Bekasi Sel., Kota Bks",PAPUA,17147.0,Indonesia,2129613300.0,-6.2706285,106.9722969,https://maps.google.com/?cid=0x0:0x4718498e43c68e02
mall,Toko,Kios Cahaya Mamori,"7R87+325, Ansus, Yapen Bar., Kabupaten Kepulauan Yapen, Papua","Kabupaten Kepulauan Yapen, Papua",PAPUA,,Indonesia,,-1.734862,135.8126108,https://maps.google.com/?cid=0x0:0x905276bd07ff2cda
mall,Pusat Perbelanjaan,Vision City Mega Mall,"Lot 7, 8  9, Section 429, 131 National Capital District, Waigani Dr, Port Moresby, Papua Nugini","Port Moresby, Papua Nugini",PAPUA,,Indonesia,6753028555.0,-9.4384023,147.1810598,https://maps.google.com/?cid=0x0:0x6b6056559e073ba7
mall,Toko Pakaian,kios sakinah,"6GR6+X6F, Maniwak, Distrik Wasior, Kabupaten Teluk Wondama, Papua Bar. 98362","Maniwak, Distrik Wasior, Kabupaten Teluk Wondama",PAPUA,98362.0,Indonesia,81248929981.0,-2.7575732,134.5105395,https://maps.google.com/?cid=0x0:0xf53bdae468235c23
mall,Toko,Kios Putra Mamisi,"M5Q5+4QH, Jln Poros, Mamisi, Nikiwar, Teluk Wondama Regency, West Papua 98361","Jln Poros, Mamisi, Nikiwar, Teluk Wondama Regency",PAPUA,98361.0,Indonesia,81248626743.0,-2.3121971,134.1594701,https://maps.google.com/?cid=0x0:0x70244aee4ee4814b
mall,Kios,Kios Mas Kuwat,"WPJC+983, Jl.Poros, Korano Jaya, Distrik Manimeri, Kabupaten Teluk Bintuni, Papua Bar. 98364","Jl.Poros, Korano Jaya, Distrik Manimeri, Kabupaten Teluk Bintuni",PAPUA,98364.0,Indonesia,82213231041.0,-2.0691057,133.7208052,https://maps.google.com/?cid=0x0:0x195cce6cfee42a75
mall,mall,Distrik Windesi,"Kabupaten Kepulauan Yapen, Papua","Kabupaten Kepulauan Yapen, Papua",PAPUA,,Indonesia,,-1.6367572,135.9138585,https://maps.google.com/?cid=0x0:0x8754a512ec1018e7
mall,Pusat Perbelanjaan,Vision City Mega Mall,"Lot 7, 8  9, Section 429, 131 National Capital District, Waigani Dr, Port Moresby, Papua Nugini","Port Moresby, Papua Nugini",PAPUA,,Indonesia,6753028555.0,-9.4384023,147.1810598,https://maps.google.com/?cid=0x0:0x6b6056559e073ba7
mall,Toko bahan makanan,Diana Supermarket,"Jl. Budi Utomo No.8, Kwamki, Kec. Mimika Baru, Kabupaten Mimika, Papua 99971","Kwamki, Kec. Mimika Baru, Kabupaten Mimika",PAPUA,99971.0,Indonesia,901322829.0,-4.5427693,136.8837435,https://maps.google.com/?cid=0x0:0x4cea28f7389f57e8
mall,Pusat Perbelanjaan,Timika Mall,"57522, Jl. Hasanuddin No.9, Nawaripi, Mimika Baru, Mimika Regency, Papua 99971","Jl. Hasanuddin No.9, Nawaripi, Mimika Baru, Mimika Regency",PAPUA,99971.0,Indonesia,,-4.5673682,136.8869612,https://maps.google.com/?cid=0x0:0x146edd1a60cab3dd
mall,Pusat Perbelanjaan,Mall Jayapura,"APO, Jl. Samratulangi, Bayangkara, Kec. Jayapura Utara, Kota Jayapura, Papua 99112","Jl. Samratulangi, Bayangkara, Kec. Jayapura Utara, Kota Jayapura",PAPUA,99112.0,Indonesia,9675150000.0,-2.5351775,140.7061874,https://maps.google.com/?cid=0x0:0x54294cb27964023
mall,Toko,Kios Cahaya Mamori,"7R87+325, Ansus, Yapen Bar., Kabupaten Kepulauan Yapen, Papua","Kabupaten Kepulauan Yapen, Papua",PAPUA,,Indonesia,,-1.734862,135.8126108,https://maps.google.com/?cid=0x0:0x905276bd07ff2cda
mall,Pusat Perbelanjaan,Mall Of Indonesia,"Jl. Boulevard Bar. Raya No.12, RT.18/RW.19, Klp. Gading Bar., Kec. Klp. Gading, Jkt Utara, Daerah Khusus Ibukota Jakarta 14240","RT.18/RW.19, Klp. Gading Bar., Kec. Klp. Gading, Jkt Utara",PAPUA,14240.0,Indonesia,2145867888.0,-6.1514549,106.8918949,https://maps.google.com/?cid=0x0:0x3431c7aaadd1f1b6
mall,Pusat Perbelanjaan,Moi,"Klp. Gading Trade Centre, Jl. Pulau Putri No.2 2, RT.2/RW.9, Klp. Gading Bar., Kec. Klp. Gading, Jkt Utara, Daerah Khusus Ibukota Jakarta 14240","Jl. Pulau Putri No.2 2, RT.2/RW.9, Klp. Gading Bar., Kec. Klp. Gading, Jkt Utara",PAPUA,14240.0,Indonesia,,-6.1508529,106.8921366,https://maps.google.com/?cid=0x0:0xbfa0759132a66681
mall,Mi,BAKMI AYAM HONEY,"RVXR+WFH, Jl. Boulevard Bar. Raya, RT.18/RW.8, Klp. Gading Bar., Kec. Klp. Gading, Jkt Utara, Daerah Khusus Ibukota Jakarta 14240","Jl. Boulevard Bar. Raya, RT.18/RW.8, Klp. Gading Bar., Kec. Klp. Gading, Jkt Utara",PAPUA,14240.0,Indonesia,2124521987.0,-6.1501981,106.8912349,https://maps.google.com/?cid=0x0:0x408854199cbd835b
mall,Toko Ponsel,Samsung Service Center MOI,"Mall Of Indonesia, HATI HATI PENIPUAN MENGATASNAMAKAN SAMSUNG SERVICE CENTER, TIDAK MENERIMA PEMBAYARAN DP MELALUI TRANSFER, Jl. Boulevard Bar. Raya Lt. 2 No. A1, RT.18/RW.8, Jkt Utara, Daerah Khusus Ibukota Jakarta 14240","HATI HATI PENIPUAN MENGATASNAMAKAN SAMSUNG SERVICE CENTER, TIDAK MENERIMA PEMBAYARAN DP MELALUI TRANSFER, Jl. Boulevard Bar. Raya Lt. 2 No. A1, RT.18/RW.8, Jkt Utara",PAPUA,14240.0,Indonesia,8001128888.0,-6.1506741,106.8908571,https://maps.google.com/?cid=0x0:0xf9ffd563ffc48382
mall,China,Din Tai Fung,"Mall Of Indonesia, Jl. Boulevard Bar. Raya ground floor, West Kelapa Gading, Square, North Jakarta City, Jakarta 14240","Jl. Boulevard Bar. Raya ground floor, West Kelapa Gading, Square, North Jakarta City",PAPUA,14240.0,Indonesia,2145868001.0,-6.1506741,106.8908571,https://maps.google.com/?cid=0x0:0x3fe132ac0363f566
mall,Pusat Perbelanjaan,MOI Kelapa Gading,"Mall Of Indonesia, Jl. Boulevard Bar. Raya Lt. 2, RT.18/RW.8, Klp. Gading Bar., Kec. Klp. Gading, Jkt Utara, Daerah Khusus Ibukota Jakarta 14240","Jl. Boulevard Bar. Raya Lt. 2, RT.18/RW.8, Klp. Gading Bar., Kec. Klp. Gading, Jkt Utara",PAPUA,14240.0,Indonesia,81217393609.0,-6.1506741,106.8908571,https://maps.google.com/?cid=0x0:0x11e13e124ce7f530
mall,mall,Distrik Pulau Kurudu,"Kabupaten Kepulauan Yapen, Papua","Kabupaten Kepulauan Yapen, Papua",PAPUA,,Indonesia,,-1.8369897,137.0324636,https://maps.google.com/?cid=0x0:0xa7a245ed4349075
mall,mall,Pulau Kurudu,"Distrik Pulau Kurudu, Kabupaten Kepulauan Yapen, Papua","Kabupaten Kepulauan Yapen, Papua",PAPUA,,Indonesia,,-1.8474739,137.0145295,https://maps.google.com/?cid=0x0:0xd793096ee0c6521c
mall,Sekolah,Miobo Kurudu,"5X3Q+GM5, Kaipuri, Distrik Pulau Kurudu, Kabupaten Kepulauan Yapen, Papua","Kabupaten Kepulauan Yapen, Papua",PAPUA,,Indonesia,,-1.8462274,136.9892429,https://maps.google.com/?cid=0x0:0x257ba1f4eeb02df3
mall,mall,Kec. Pulau Yerui,"Miosnum, Kabupaten Kepulauan Yapen, Papua","Kabupaten Kepulauan Yapen, Papua",PAPUA,,Indonesia,,-1.4878278,135.3337148,https://maps.google.com/?cid=0x0:0xf1f496c1e419df1f
supermarket,supermarket,Papua 98253,"Kabupaten Kepulauan Yapen, Papua","Kabupaten Kepulauan Yapen, Papua",PAPUA,,Indonesia,,-1.692705,135.7710559,https://maps.google.com/?cid=0x0:0xe712ef09824c8ae8
supermarket,Toko Swalayan,Hadi Supermarket,"Jl. Frans Kaisepo No.5, RT. 003/01, Warari, Kec. Yapen Sel., Kabupaten Kepulauan Yapen, Papua 98212","RT. 003/01, Warari, Kec. Yapen Sel., Kabupaten Kepulauan Yapen",PAPUA,98212.0,Indonesia,98334276.0,-1.8751153,136.2490809,https://maps.google.com/?cid=0x0:0xf67310d4ed062031
supermarket,Kios,Kios badin ifin ansus,"Ansus, Yapen Bar., Kabupaten Kepulauan Yapen, Papua","Kabupaten Kepulauan Yapen, Papua",PAPUA,,Indonesia,82111119993.0,-1.7350468,135.8124378,https://maps.google.com/?cid=0x0:0xfa40f79b754d1cc9
supermarket,Minimarket,Toko Kita,"46FQ+6F8, Serui Kota, Kec. Yapen Sel., Kabupaten Kepulauan Yapen, Papua 98213","Serui Kota, Kec. Yapen Sel., Kabupaten Kepulauan Yapen",PAPUA,98213.0,Indonesia,81216233268.0,-1.8769662,136.2386957,https://maps.google.com/?cid=0x0:0x6dadbe6c18278b00
supermarket,Toko Swalayan,Kios Bayutra,"46HV+QC2, Jl. Nipah, Famboaman, Kec. Yapen Sel., Kabupaten Kepulauan Yapen, Papua 98213","Jl. Nipah, Famboaman, Kec. Yapen Sel., Kabupaten Kepulauan Yapen",PAPUA,98213.0,Indonesia,,-1.8706197,136.2435076,https://maps.google.com/?cid=0x0:0x7f73d770b8e46fe3
supermarket,Minimarket,Kios Reivank Serui Papua,"46CH+J9J, Mariaderi, Kec. Yapen Sel., Kabupaten Kepulauan Yapen, Papua 98215","Mariaderi, Kec. Yapen Sel., Kabupaten Kepulauan Yapen",PAPUA,98215.0,Indonesia,85399774433.0,-1.8784184,136.2284041,https://maps.google.com/?cid=0x0:0xac2f3f2285f0aa72
supermarket,Toko Swalayan,Kios misbah,"47G2+2WW, Warari, Kec. Yapen Sel., Kabupaten Kepulauan Yapen, Papua 98212","Warari, Kec. Yapen Sel., Kabupaten Kepulauan Yapen",PAPUA,98212.0,Indonesia,81236974318.0,-1.8748841,136.2523177,https://maps.google.com/?cid=0x0:0x76d55831a7e822b3
supermarket,supermarket,Itlay Mart,"5483+238, Ariepi, Distrik Kosiwo, Kabupaten Kepulauan Yapen, Papua","Kabupaten Kepulauan Yapen, Papua",PAPUA,,Indonesia,,-1.8349562,136.102692,https://maps.google.com/?cid=0x0:0x65d20003b6ac1214
supermarket,Toko Roti,Market Organic Yapan,"46XP+24R, Jalan Kawara Gang. Warmetan, Mantembu, Kec. Yapen Sel., Kabupaten Kepulauan Yapen, Papua 98631","Jalan Kawara Gang. Warmetan, Mantembu, Kec. Yapen Sel., Kabupaten Kepulauan Yapen",PAPUA,98631.0,Indonesia,,-1.852382,136.2352585,https://maps.google.com/?cid=0x0:0x881fdd5057a416e7
supermarket,Kios,Kios JM,"52MC+4HR, Mariarotu, Distrik Kosiwo, Kabupaten Kepulauan Yapen, Papua 98215","Mariarotu, Distrik Kosiwo, Kabupaten Kepulauan Yapen",PAPUA,98215.0,Indonesia,,-1.817137,136.0213875,https://maps.google.com/?cid=0x0:0x3649f86886b22872
supermarket,Pasar,Pasar lama,"5QG2+PWR, Dawai, Distrik Yapen Timur, Kabupaten Kepulauan Yapen, Papua 98252","Dawai, Distrik Yapen Timur, Kabupaten Kepulauan Yapen",PAPUA,98252.0,Indonesia,,-1.8231438,136.752268,https://maps.google.com/?cid=0x0:0x8d04c652f165d118
supermarket,Pusat Perbelanjaan,Papua Supermarket  Dept. Store,"4869+F77 Bar, Sawagumu, Kec. Sorong Utara, Kota Sorong, Papua Bar. 98416","Sawagumu, Kec. Sorong Utara, Kota Sorong",PAPUA,98416.0,Indonesia,9513160123.0,-0.888831,131.3181847,https://maps.google.com/?cid=0x0:0x7b5f0926a74ad213
supermarket,Pusat Perbelanjaan,Kios Chivia,"9P7H+G3M, Rarisi, Distrik Poom, Kabupaten Kepulauan Yapen, Papua","Kabupaten Kepulauan Yapen, Papua",PAPUA,,Indonesia,,-1.6353186,135.7269201,https://maps.google.com/?cid=0x0:0xbc9ae246b1863f61
supermarket,Toko Swalayan,Warung Bengawan,"46FV+P8R, Famboaman, Kec. Yapen Sel., Kabupaten Kepulauan Yapen, Papua 98213","Famboaman, Kec. Yapen Sel., Kabupaten Kepulauan Yapen",PAPUA,98213.0,Indonesia,,-1.8756299,136.2432738,https://maps.google.com/?cid=0x0:0xb97e1ae151aefc8b
supermarket,supermarket,Papua 98211,"Kec. Yapen Sel., Kabupaten Kepulauan Yapen, Papua","Kabupaten Kepulauan Yapen, Papua",PAPUA,,Indonesia,,-1.7995067,136.2570137,https://maps.google.com/?cid=0x0:0xb2b850cfde1935fd
supermarket,Toko Swalayan,Hadi Supermarket,"Jl. Frans Kaisepo No.5, RT. 003/01, Warari, Kec. Yapen Sel., Kabupaten Kepulauan Yapen, Papua 98212","RT. 003/01, Warari, Kec. Yapen Sel., Kabupaten Kepulauan Yapen",PAPUA,98212.0,Indonesia,98334276.0,-1.8751153,136.2490809,https://maps.google.com/?cid=0x0:0xf67310d4ed062031
supermarket,supermarket,Syafiq Mart,"Jl. Sudirman, Serui Kota, Kec. Yapen Sel., Kabupaten Kepulauan Yapen, Papua 98213","Serui Kota, Kec. Yapen Sel., Kabupaten Kepulauan Yapen",PAPUA,98213.0,Indonesia,85240966684.0,-1.8725559,136.2402621,https://maps.google.com/?cid=0x0:0x7ca15fd1eb458c21
supermarket,Toko umum,Toko Asei,"46FJ+6HQ, Serui Kota, Kec. Yapen Sel., Kabupaten Kepulauan Yapen, Papua 98213","Serui Kota, Kec. Yapen Sel., Kabupaten Kepulauan Yapen",PAPUA,98213.0,Indonesia,98331468.0,-1.8769217,136.2314953,https://maps.google.com/?cid=0x0:0x23f1218b85ff4904
supermarket,Toko Buku,Indah Pasaraya Serui Indah,"Jl. Moh. Yamin, Serui Kota, Kec. Yapen Sel., Kabupaten Kepulauan Yapen, Papua 98215","Serui Kota, Kec. Yapen Sel., Kabupaten Kepulauan Yapen",PAPUA,98215.0,Indonesia,,-1.8836014,136.2384964,https://maps.google.com/?cid=0x0:0x7d9f1453d5882191
supermarket,Toko,Toko Karya Kurnia,"46FV+HC3, Jl. Frans Kaisepo, Famboaman, Kec. Yapen Sel., Kabupaten Kepulauan Yapen, Papua 98213","Jl. Frans Kaisepo, Famboaman, Kec. Yapen Sel., Kabupaten Kepulauan Yapen",PAPUA,98213.0,Indonesia,,-1.8761003,136.2435369,https://maps.google.com/?cid=0x0:0x15eeffbb0bc54406
supermarket,Kantor Perusahaan,Pelni Mart Cabang Serui,"Serui Kota, Kec. Yapen Sel., Kabupaten Kepulauan Yapen, Papua 98213","Kec. Yapen Sel., Kabupaten Kepulauan Yapen",PAPUA,98213.0,Indonesia,81318882144.0,-1.8792675,136.2398941,https://maps.google.com/?cid=0x0:0xae4233eff62aaa62
supermarket,Toko,Toko Merpati,"467Q+WFV, Jl. Moh. Yamin, Pasir Hitam, Kec. Yapen Sel., Kabupaten Kepulauan Yapen, Papua 98215","Jl. Moh. Yamin, Pasir Hitam, Kec. Yapen Sel., Kabupaten Kepulauan Yapen",PAPUA,98215.0,Indonesia,,-1.8851497,136.238664,https://maps.google.com/?cid=0x0:0xe5cb342ce69ffec0
supermarket,Minimarket,Toko Kita,"46FQ+6F8, Serui Kota, Kec. Yapen Sel., Kabupaten Kepulauan Yapen, Papua 98213","Serui Kota, Kec. Yapen Sel., Kabupaten Kepulauan Yapen",PAPUA,98213.0,Indonesia,81216233268.0,-1.8769662,136.2386957,https://maps.google.com/?cid=0x0:0x6dadbe6c18278b00
supermarket,Toko bahan makanan,Kios begadang 24 jam,"46JQ+5JM, Anatorei, Kec. Yapen Sel., Kabupaten Kepulauan Yapen, Papua 98213","Anatorei, Kec. Yapen Sel., Kabupaten Kepulauan Yapen",PAPUA,98213.0,Indonesia,82311989580.0,-1.8694763,136.2390277,https://maps.google.com/?cid=0x0:0x42b22336b76fc1fc
supermarket,Toko Swalayan,Kios misbah,"47G2+2WW, Warari, Kec. Yapen Sel., Kabupaten Kepulauan Yapen, Papua 98212","Warari, Kec. Yapen Sel., Kabupaten Kepulauan Yapen",PAPUA,98212.0,Indonesia,81236974318.0,-1.8748841,136.2523177,https://maps.google.com/?cid=0x0:0x76d55831a7e822b3
supermarket,Toko Swalayan,Kios Bayutra,"46HV+QC2, Jl. Nipah, Famboaman, Kec. Yapen Sel., Kabupaten Kepulauan Yapen, Papua 98213","Jl. Nipah, Famboaman, Kec. Yapen Sel., Kabupaten Kepulauan Yapen",PAPUA,98213.0,Indonesia,,-1.8706197,136.2435076,https://maps.google.com/?cid=0x0:0x7f73d770b8e46fe3
supermarket,Minimarket,Kios Reivank Serui Papua,"46CH+J9J, Mariaderi, Kec. Yapen Sel., Kabupaten Kepulauan Yapen, Papua 98215","Mariaderi, Kec. Yapen Sel., Kabupaten Kepulauan Yapen",PAPUA,98215.0,Indonesia,85399774433.0,-1.8784184,136.2284041,https://maps.google.com/?cid=0x0:0xac2f3f2285f0aa72
supermarket,Toko,Kios Ewani Indah,"47F2+XRV, Jl. Ke Menawi, Warari, Kec. Yapen Sel., Kabupaten Kepulauan Yapen, Papua 98212","Jl. Ke Menawi, Warari, Kec. Yapen Sel., Kabupaten Kepulauan Yapen",PAPUA,98212.0,Indonesia,,-1.8750247,136.2520517,https://maps.google.com/?cid=0x0:0x42500bb7b23ff428
supermarket,supermarket,Papua 98212,"Warari, Kec. Yapen Sel., Kabupaten Kepulauan Yapen, Papua","Kabupaten Kepulauan Yapen, Papua",PAPUA,,Indonesia,,-1.8764518,136.2546196,https://maps.google.com/?cid=0x0:0x297f020ff7113bd
supermarket,supermarket,Syafiq Mart,"Jl. Sudirman, Serui Kota, Kec. Yapen Sel., Kabupaten Kepulauan Yapen, Papua 98213","Serui Kota, Kec. Yapen Sel., Kabupaten Kepulauan Yapen",PAPUA,98213.0,Indonesia,85240966684.0,-1.8725559,136.2402621,https://maps.google.com/?cid=0x0:0x7ca15fd1eb458c21
supermarket,Toko Swalayan,Hadi Supermarket,"Jl. Frans Kaisepo No.5, RT. 003/01, Warari, Kec. Yapen Sel., Kabupaten Kepulauan Yapen, Papua 98212","RT. 003/01, Warari, Kec. Yapen Sel., Kabupaten Kepulauan Yapen",PAPUA,98212.0,Indonesia,98334276.0,-1.8751153,136.2490809,https://maps.google.com/?cid=0x0:0xf67310d4ed062031
supermarket,Toko Swalayan,Kios misbah,"47G2+2WW, Warari, Kec. Yapen Sel., Kabupaten Kepulauan Yapen, Papua 98212","Warari, Kec. Yapen Sel., Kabupaten Kepulauan Yapen",PAPUA,98212.0,Indonesia,81236974318.0,-1.8748841,136.2523177,https://maps.google.com/?cid=0x0:0x76d55831a7e822b3
supermarket,Toko,Kios Ewani Indah,"47F2+XRV, Jl. Ke Menawi, Warari, Kec. Yapen Sel., Kabupaten Kepulauan Yapen, Papua 98212","Jl. Ke Menawi, Warari, Kec. Yapen Sel., Kabupaten Kepulauan Yapen",PAPUA,98212.0,Indonesia,,-1.8750247,136.2520517,https://maps.google.com/?cid=0x0:0x42500bb7b23ff428
supermarket,Toko Buku,Indah Pasaraya Serui Indah,"Jl. Moh. Yamin, Serui Kota, Kec. Yapen Sel., Kabupaten Kepulauan Yapen, Papua 98215","Serui Kota, Kec. Yapen Sel., Kabupaten Kepulauan Yapen",PAPUA,98215.0,Indonesia,,-1.8836014,136.2384964,https://maps.google.com/?cid=0x0:0x7d9f1453d5882191
supermarket,Toko,Toko Karya Kurnia,"46FV+HC3, Jl. Frans Kaisepo, Famboaman, Kec. Yapen Sel., Kabupaten Kepulauan Yapen, Papua 98213","Jl. Frans Kaisepo, Famboaman, Kec. Yapen Sel., Kabupaten Kepulauan Yapen",PAPUA,98213.0,Indonesia,,-1.8761003,136.2435369,https://maps.google.com/?cid=0x0:0x15eeffbb0bc54406
supermarket,Toko Swalayan,Kios Bayutra,"46HV+QC2, Jl. Nipah, Famboaman, Kec. Yapen Sel., Kabupaten Kepulauan Yapen, Papua 98213","Jl. Nipah, Famboaman, Kec. Yapen Sel., Kabupaten Kepulauan Yapen",PAPUA,98213.0,Indonesia,,-1.8706197,136.2435076,https://maps.google.com/?cid=0x0:0x7f73d770b8e46fe3
supermarket,Toko bahan makanan,Kios begadang 24 jam,"46JQ+5JM, Anatorei, Kec. Yapen Sel., Kabupaten Kepulauan Yapen, Papua 98213","Anatorei, Kec. Yapen Sel., Kabupaten Kepulauan Yapen",PAPUA,98213.0,Indonesia,82311989580.0,-1.8694763,136.2390277,https://maps.google.com/?cid=0x0:0x42b22336b76fc1fc
supermarket,Kantor Perusahaan,Pelni Mart Cabang Serui,"Serui Kota, Kec. Yapen Sel., Kabupaten Kepulauan Yapen, Papua 98213","Kec. Yapen Sel., Kabupaten Kepulauan Yapen",PAPUA,98213.0,Indonesia,81318882144.0,-1.8792675,136.2398941,https://maps.google.com/?cid=0x0:0xae4233eff62aaa62
supermarket,Minimarket,Toko Kita,"46FQ+6F8, Serui Kota, Kec. Yapen Sel., Kabupaten Kepulauan Yapen, Papua 98213","Serui Kota, Kec. Yapen Sel., Kabupaten Kepulauan Yapen",PAPUA,98213.0,Indonesia,81216233268.0,-1.8769662,136.2386957,https://maps.google.com/?cid=0x0:0x6dadbe6c18278b00
supermarket,Toko bahan makanan,Toko Cinta Damai,"46CR+2VG, Serui Jaya, Kec. Yapen Sel., Kabupaten Kepulauan Yapen, Papua 98215","Serui Jaya, Kec. Yapen Sel., Kabupaten Kepulauan Yapen",PAPUA,98215.0,Indonesia,,-1.879931,136.2422105,https://maps.google.com/?cid=0x0:0x8f9de08afe11b15d
supermarket,Toko Swalayan,FEPUZAMARKET,"EX Rumah makan Makassar, Jl. Imam Bonjol, Serui Kota, Kec. Yapen Sel., Kabupaten Kepulauan Yapen, Papua 98215","Jl. Imam Bonjol, Serui Kota, Kec. Yapen Sel., Kabupaten Kepulauan Yapen",PAPUA,98215.0,Indonesia,82312533539.0,-1.8842457,136.2433659,https://maps.google.com/?cid=0x0:0xab888c2dca481018
supermarket,Toko bahan makanan,Kios Ani Mulia,"Jl. Frans Kaisepo, Famboaman, Kec. Yapen Sel., Kabupaten Kepulauan Yapen, Papua 98213","Famboaman, Kec. Yapen Sel., Kabupaten Kepulauan Yapen",PAPUA,98213.0,Indonesia,82397515710.0,-1.8756347,136.2428996,https://maps.google.com/?cid=0x0:0xafb4aac83856061c
supermarket,supermarket,Papua 98213,"Kec. Yapen Sel., Kabupaten Kepulauan Yapen, Papua","Kabupaten Kepulauan Yapen, Papua",PAPUA,,Indonesia,,-1.8722668,136.2354713,https://maps.google.com/?cid=0x0:0xf81978a1f9fcf655
supermarket,Toko Swalayan,Hadi Supermarket,"Jl. Frans Kaisepo No.5, RT. 003/01, Warari, Kec. Yapen Sel., Kabupaten Kepulauan Yapen, Papua 98212","RT. 003/01, Warari, Kec. Yapen Sel., Kabupaten Kepulauan Yapen",PAPUA,98212.0,Indonesia,98334276.0,-1.8751153,136.2490809,https://maps.google.com/?cid=0x0:0xf67310d4ed062031
supermarket,supermarket,Syafiq Mart,"Jl. Sudirman, Serui Kota, Kec. Yapen Sel., Kabupaten Kepulauan Yapen, Papua 98213","Serui Kota, Kec. Yapen Sel., Kabupaten Kepulauan Yapen",PAPUA,98213.0,Indonesia,85240966684.0,-1.8725559,136.2402621,https://maps.google.com/?cid=0x0:0x7ca15fd1eb458c21
supermarket,Toko umum,Toko Asei,"46FJ+6HQ, Serui Kota, Kec. Yapen Sel., Kabupaten Kepulauan Yapen, Papua 98213","Serui Kota, Kec. Yapen Sel., Kabupaten Kepulauan Yapen",PAPUA,98213.0,Indonesia,98331468.0,-1.8769217,136.2314953,https://maps.google.com/?cid=0x0:0x23f1218b85ff4904
supermarket,Kantor Perusahaan,Pelni Mart Cabang Serui,"Serui Kota, Kec. Yapen Sel., Kabupaten Kepulauan Yapen, Papua 98213","Kec. Yapen Sel., Kabupaten Kepulauan Yapen",PAPUA,98213.0,Indonesia,81318882144.0,-1.8792675,136.2398941,https://maps.google.com/?cid=0x0:0xae4233eff62aaa62
supermarket,Toko Buku,Indah Pasaraya Serui Indah,"Jl. Moh. Yamin, Serui Kota, Kec. Yapen Sel., Kabupaten Kepulauan Yapen, Papua 98215","Serui Kota, Kec. Yapen Sel., Kabupaten Kepulauan Yapen",PAPUA,98215.0,Indonesia,,-1.8836014,136.2384964,https://maps.google.com/?cid=0x0:0x7d9f1453d5882191
supermarket,Toko,Toko Karya Kurnia,"46FV+HC3, Jl. Frans Kaisepo, Famboaman, Kec. Yapen Sel., Kabupaten Kepulauan Yapen, Papua 98213","Jl. Frans Kaisepo, Famboaman, Kec. Yapen Sel., Kabupaten Kepulauan Yapen",PAPUA,98213.0,Indonesia,,-1.8761003,136.2435369,https://maps.google.com/?cid=0x0:0x15eeffbb0bc54406
supermarket,Toko bahan makanan,Kios begadang 24 jam,"46JQ+5JM, Anatorei, Kec. Yapen Sel., Kabupaten Kepulauan Yapen, Papua 98213","Anatorei, Kec. Yapen Sel., Kabupaten Kepulauan Yapen",PAPUA,98213.0,Indonesia,82311989580.0,-1.8694763,136.2390277,https://maps.google.com/?cid=0x0:0x42b22336b76fc1fc
supermarket,Minimarket,Toko Kita,"46FQ+6F8, Serui Kota, Kec. Yapen Sel., Kabupaten Kepulauan Yapen, Papua 98213","Serui Kota, Kec. Yapen Sel., Kabupaten Kepulauan Yapen",PAPUA,98213.0,Indonesia,81216233268.0,-1.8769662,136.2386957,https://maps.google.com/?cid=0x0:0x6dadbe6c18278b00
supermarket,Toko Swalayan,Kios Bayutra,"46HV+QC2, Jl. Nipah, Famboaman, Kec. Yapen Sel., Kabupaten Kepulauan Yapen, Papua 98213","Jl. Nipah, Famboaman, Kec. Yapen Sel., Kabupaten Kepulauan Yapen",PAPUA,98213.0,Indonesia,,-1.8706197,136.2435076,https://maps.google.com/?cid=0x0:0x7f73d770b8e46fe3
supermarket,Grosir,TOKO BARMAS,"Serui Kota, Kec. Yapen Sel., Kabupaten Kepulauan Yapen, Papua 98213","Kec. Yapen Sel., Kabupaten Kepulauan Yapen",PAPUA,98213.0,Indonesia,81336226156.0,-1.8767598,136.2321492,https://maps.google.com/?cid=0x0:0xc0cf3257e516625e
supermarket,Toko Swalayan,Indah mart,"Jl. Kapitan Pattimura, Serui Kota, Kec. Yapen Sel., Kabupaten Kepulauan Yapen, Papua 98215","Serui Kota, Kec. Yapen Sel., Kabupaten Kepulauan Yapen",PAPUA,98215.0,Indonesia,,-1.8810091,136.2353503,https://maps.google.com/?cid=0x0:0x82846dfdcfec3202
supermarket,Toko Swalayan,Kios misbah,"47G2+2WW, Warari, Kec. Yapen Sel., Kabupaten Kepulauan Yapen, Papua 98212","Warari, Kec. Yapen Sel., Kabupaten Kepulauan Yapen",PAPUA,98212.0,Indonesia,81236974318.0,-1.8748841,136.2523177,https://maps.google.com/?cid=0x0:0x76d55831a7e822b3
supermarket,Toko bahan makanan,Kios Ani Mulia,"Jl. Frans Kaisepo, Famboaman, Kec. Yapen Sel., Kabupaten Kepulauan Yapen, Papua 98213","Famboaman, Kec. Yapen Sel., Kabupaten Kepulauan Yapen",PAPUA,98213.0,Indonesia,82397515710.0,-1.8756347,136.2428996,https://maps.google.com/?cid=0x0:0xafb4aac83856061c
supermarket,supermarket,Papua 98214,"Yapan, Kec. Yapen Sel., Kabupaten Kepulauan Yapen, Papua","Kabupaten Kepulauan Yapen, Papua",PAPUA,,Indonesia,,-1.8312862,136.2426511,https://maps.google.com/?cid=0x0:0x80248e4590702d10
supermarket,Toko Swalayan,Hadi Supermarket,"Jl. Frans Kaisepo No.5, RT. 003/01, Warari, Kec. Yapen Sel., Kabupaten Kepulauan Yapen, Papua 98212","RT. 003/01, Warari, Kec. Yapen Sel., Kabupaten Kepulauan Yapen",PAPUA,98212.0,Indonesia,98334276.0,-1.8751153,136.2490809,https://maps.google.com/?cid=0x0:0xf67310d4ed062031
supermarket,Toko bahan makanan,Kios begadang 24 jam,"46JQ+5JM, Anatorei, Kec. Yapen Sel., Kabupaten Kepulauan Yapen, Papua 98213","Anatorei, Kec. Yapen Sel., Kabupaten Kepulauan Yapen",PAPUA,98213.0,Indonesia,82311989580.0,-1.8694763,136.2390277,https://maps.google.com/?cid=0x0:0x42b22336b76fc1fc
supermarket,Toko Swalayan,Kios Bayutra,"46HV+QC2, Jl. Nipah, Famboaman, Kec. Yapen Sel., Kabupaten Kepulauan Yapen, Papua 98213","Jl. Nipah, Famboaman, Kec. Yapen Sel., Kabupaten Kepulauan Yapen",PAPUA,98213.0,Indonesia,,-1.8706197,136.2435076,https://maps.google.com/?cid=0x0:0x7f73d770b8e46fe3
supermarket,Toko Roti,Market Organic Yapan,"46XP+24R, Jalan Kawara Gang. Warmetan, Mantembu, Kec. Yapen Sel., Kabupaten Kepulauan Yapen, Papua 98631","Jalan Kawara Gang. Warmetan, Mantembu, Kec. Yapen Sel., Kabupaten Kepulauan Yapen",PAPUA,98631.0,Indonesia,,-1.852382,136.2352585,https://maps.google.com/?cid=0x0:0x881fdd5057a416e7
supermarket,Minimarket,Toko Kita,"46FQ+6F8, Serui Kota, Kec. Yapen Sel., Kabupaten Kepulauan Yapen, Papua 98213","Serui Kota, Kec. Yapen Sel., Kabupaten Kepulauan Yapen",PAPUA,98213.0,Indonesia,81216233268.0,-1.8769662,136.2386957,https://maps.google.com/?cid=0x0:0x6dadbe6c18278b00
supermarket,Toko Swalayan,Kios misbah,"47G2+2WW, Warari, Kec. Yapen Sel., Kabupaten Kepulauan Yapen, Papua 98212","Warari, Kec. Yapen Sel., Kabupaten Kepulauan Yapen",PAPUA,98212.0,Indonesia,81236974318.0,-1.8748841,136.2523177,https://maps.google.com/?cid=0x0:0x76d55831a7e822b3
supermarket,Minimarket,Kios Reivank Serui Papua,"46CH+J9J, Mariaderi, Kec. Yapen Sel., Kabupaten Kepulauan Yapen, Papua 98215","Mariaderi, Kec. Yapen Sel., Kabupaten Kepulauan Yapen",PAPUA,98215.0,Indonesia,85399774433.0,-1.8784184,136.2284041,https://maps.google.com/?cid=0x0:0xac2f3f2285f0aa72
supermarket,Toko bahan makanan,Toko Cinta Damai,"46CR+2VG, Serui Jaya, Kec. Yapen Sel., Kabupaten Kepulauan Yapen, Papua 98215","Serui Jaya, Kec. Yapen Sel., Kabupaten Kepulauan Yapen",PAPUA,98215.0,Indonesia,,-1.879931,136.2422105,https://maps.google.com/?cid=0x0:0x8f9de08afe11b15d
supermarket,Toko bahan makanan,Toko Duta Indah,"46JR+F4R, Jl. Sudirman, Anatorei, Kec. Yapen Sel., Kabupaten Kepulauan Yapen, Papua 98213","Jl. Sudirman, Anatorei, Kec. Yapen Sel., Kabupaten Kepulauan Yapen",PAPUA,98213.0,Indonesia,,-1.8687625,136.2402817,https://maps.google.com/?cid=0x0:0xe9135a014464bb6f
supermarket,Toko umum,Kompleks bontotiro,"46MQ+WM4, Jalan pertanian, waenakawini, Kec. Yapen Sel., Kabupaten Kepulauan Yapen, Papua 98213","Jalan pertanian, waenakawini, Kec. Yapen Sel., Kabupaten Kepulauan Yapen",PAPUA,98213.0,Indonesia,82198691683.0,-1.865244,136.239196,https://maps.google.com/?cid=0x0:0x8d587b85d117c840
supermarket,Pusat Pendidikan,Serui Beauty,"46VP+7XR, Unnamed Road, Mantembu, Kec. Yapen Sel., Kabupaten Kepulauan Yapen, Papua 98211","Unnamed Road, Mantembu, Kec. Yapen Sel., Kabupaten Kepulauan Yapen",PAPUA,98211.0,Indonesia,81343422626.0,-1.8567748,136.2373776,https://maps.google.com/?cid=0x0:0xf3754f333084da78
supermarket,Toko Swalayan,Warung Bengawan,"46FV+P8R, Famboaman, Kec. Yapen Sel., Kabupaten Kepulauan Yapen, Papua 98213","Famboaman, Kec. Yapen Sel., Kabupaten Kepulauan Yapen",PAPUA,98213.0,Indonesia,,-1.8756299,136.2432738,https://maps.google.com/?cid=0x0:0xb97e1ae151aefc8b
supermarket,Toko Swalayan,kios CHAKEN,"46RQ+254, jalan m. toha anotaurei, Mantembu, Kec. Yapen Sel., Kabupaten Kepulauan Yapen, Papua 98211","jalan m. toha anotaurei, Mantembu, Kec. Yapen Sel., Kabupaten Kepulauan Yapen",PAPUA,98211.0,Indonesia,,-1.8601505,136.2375662,https://maps.google.com/?cid=0x0:0x492b45aa23c103eb
supermarket,supermarket,Kec. Yapen Sel.,"Kabupaten Kepulauan Yapen, Papua","Kabupaten Kepulauan Yapen, Papua",PAPUA,,Indonesia,,-1.884104,136.2418748,https://maps.google.com/?cid=0x0:0x3f81bf02f4d4d5c7
supermarket,Toko Swalayan,Hadi Supermarket,"Jl. Frans Kaisepo No.5, RT. 003/01, Warari, Kec. Yapen Sel., Kabupaten Kepulauan Yapen, Papua 98212","RT. 003/01, Warari, Kec. Yapen Sel., Kabupaten Kepulauan Yapen",PAPUA,98212.0,Indonesia,98334276.0,-1.8751153,136.2490809,https://maps.google.com/?cid=0x0:0xf67310d4ed062031
supermarket,Toko Buku,Indah Pasaraya Serui Indah,"Jl. Moh. Yamin, Serui Kota, Kec. Yapen Sel., Kabupaten Kepulauan Yapen, Papua 98215","Serui Kota, Kec. Yapen Sel., Kabupaten Kepulauan Yapen",PAPUA,98215.0,Indonesia,,-1.8836014,136.2384964,https://maps.google.com/?cid=0x0:0x7d9f1453d5882191
supermarket,Toko,Toko Limas,"46FV+8WJ, Jl. KPR, Warari, Kec. Yapen Sel., Kabupaten Kepulauan Yapen, Papua 98213","Jl. KPR, Warari, Kec. Yapen Sel., Kabupaten Kepulauan Yapen",PAPUA,98213.0,Indonesia,81354034087.0,-1.8766524,136.2447558,https://maps.google.com/?cid=0x0:0xf22d6f17118f67b3
supermarket,Toko umum,Toko Asei,"46FJ+6HQ, Serui Kota, Kec. Yapen Sel., Kabupaten Kepulauan Yapen, Papua 98213","Serui Kota, Kec. Yapen Sel., Kabupaten Kepulauan Yapen",PAPUA,98213.0,Indonesia,98331468.0,-1.8769217,136.2314953,https://maps.google.com/?cid=0x0:0x23f1218b85ff4904
supermarket,Kantor Perusahaan,Pelni Mart Cabang Serui,"Serui Kota, Kec. Yapen Sel., Kabupaten Kepulauan Yapen, Papua 98213","Kec. Yapen Sel., Kabupaten Kepulauan Yapen",PAPUA,98213.0,Indonesia,81318882144.0,-1.8792675,136.2398941,https://maps.google.com/?cid=0x0:0xae4233eff62aaa62
supermarket,Toko bahan makanan,Duta Mart,"467R+C9X, Pasir Hitam, Kec. Yapen Sel., Kabupaten Kepulauan Yapen, Papua 98215","Pasir Hitam, Kec. Yapen Sel., Kabupaten Kepulauan Yapen",PAPUA,98215.0,Indonesia,,-1.8863984,136.2409702,https://maps.google.com/?cid=0x0:0x7922a738e5e8f248
supermarket,Toko Swalayan,Indah mart,"Jl. Kapitan Pattimura, Serui Kota, Kec. Yapen Sel., Kabupaten Kepulauan Yapen, Papua 98215","Serui Kota, Kec. Yapen Sel., Kabupaten Kepulauan Yapen",PAPUA,98215.0,Indonesia,,-1.8810091,136.2353503,https://maps.google.com/?cid=0x0:0x82846dfdcfec3202
supermarket,Minimarket,Kios Reivank Serui Papua,"46CH+J9J, Mariaderi, Kec. Yapen Sel., Kabupaten Kepulauan Yapen, Papua 98215","Mariaderi, Kec. Yapen Sel., Kabupaten Kepulauan Yapen",PAPUA,98215.0,Indonesia,85399774433.0,-1.8784184,136.2284041,https://maps.google.com/?cid=0x0:0xac2f3f2285f0aa72
supermarket,Toko,Toko Karya Kurnia,"46FV+HC3, Jl. Frans Kaisepo, Famboaman, Kec. Yapen Sel., Kabupaten Kepulauan Yapen, Papua 98213","Jl. Frans Kaisepo, Famboaman, Kec. Yapen Sel., Kabupaten Kepulauan Yapen",PAPUA,98213.0,Indonesia,,-1.8761003,136.2435369,https://maps.google.com/?cid=0x0:0x15eeffbb0bc54406
supermarket,Toko,KURNIA ILAHI Group,"467R+848, Jl. Diponegoro, Pasir Hitam, Kec. Yapen Sel., Kabupaten Kepulauan Yapen, Papua 98215","Jl. Diponegoro, Pasir Hitam, Kec. Yapen Sel., Kabupaten Kepulauan Yapen",PAPUA,98215.0,Indonesia,81230897771.0,-1.8867126,136.2403194,https://maps.google.com/?cid=0x0:0x5911d99c279fdae
supermarket,Toko bahan makanan,Toko Cinta Damai,"46CR+2VG, Serui Jaya, Kec. Yapen Sel., Kabupaten Kepulauan Yapen, Papua 98215","Serui Jaya, Kec. Yapen Sel., Kabupaten Kepulauan Yapen",PAPUA,98215.0,Indonesia,,-1.879931,136.2422105,https://maps.google.com/?cid=0x0:0x8f9de08afe11b15d
supermarket,Minimarket,Toko Kita,"46FQ+6F8, Serui Kota, Kec. Yapen Sel., Kabupaten Kepulauan Yapen, Papua 98213","Serui Kota, Kec. Yapen Sel., Kabupaten Kepulauan Yapen",PAPUA,98213.0,Indonesia,81216233268.0,-1.8769662,136.2386957,https://maps.google.com/?cid=0x0:0x6dadbe6c18278b00
supermarket,Toko Swalayan,FEPUZAMARKET,"EX Rumah makan Makassar, Jl. Imam Bonjol, Serui Kota, Kec. Yapen Sel., Kabupaten Kepulauan Yapen, Papua 98215","Jl. Imam Bonjol, Serui Kota, Kec. Yapen Sel., Kabupaten Kepulauan Yapen",PAPUA,98215.0,Indonesia,82312533539.0,-1.8842457,136.2433659,https://maps.google.com/?cid=0x0:0xab888c2dca481018
supermarket,supermarket,Distrik Yapen Timur,"Kabupaten Kepulauan Yapen, Papua","Kabupaten Kepulauan Yapen, Papua",PAPUA,,Indonesia,,-1.8231626,136.7603579,https://maps.google.com/?cid=0x0:0x8aa6062a086a2ccd
supermarket,Toko bahan makanan,Toserba 03,"5QJ7+56H, Tim, Awunawai, Distrik Yapen Timur, Kabupaten Kepulauan Yapen, Papua 98252","Tim, Awunawai, Distrik Yapen Timur, Kabupaten Kepulauan Yapen",PAPUA,98252.0,Indonesia,,-1.8186178,136.7624303,https://maps.google.com/?cid=0x0:0xad16e13f8406bc2a
supermarket,Toko umum,Toserba 01,"5QG2+XP, Dawai, Distrik Yapen Timur, Kabupaten Kepulauan Yapen, Papua 98252","Dawai, Distrik Yapen Timur, Kabupaten Kepulauan Yapen",PAPUA,98252.0,Indonesia,,-1.8224818,136.7518233,https://maps.google.com/?cid=0x0:0x2b5c3ace750d51c3
supermarket,Toko Swalayan,Hadi Supermarket,"Jl. Frans Kaisepo No.5, RT. 003/01, Warari, Kec. Yapen Sel., Kabupaten Kepulauan Yapen, Papua 98212","RT. 003/01, Warari, Kec. Yapen Sel., Kabupaten Kepulauan Yapen",PAPUA,98212.0,Indonesia,98334276.0,-1.8751153,136.2490809,https://maps.google.com/?cid=0x0:0xf67310d4ed062031
supermarket,Minimarket,Toko Kevin 03,"5QJ7+6CV, Awunawai, Distrik Yapen Timur, Kabupaten Kepulauan Yapen, Papua 98252","Awunawai, Distrik Yapen Timur, Kabupaten Kepulauan Yapen",PAPUA,98252.0,Indonesia,,-1.8193962,136.7635486,https://maps.google.com/?cid=0x0:0x3fbe92bb67bf7b0f
supermarket,supermarket,Kios citra,"Awunawai, Distrik Yapen Timur, Kabupaten Kepulauan Yapen, Papua 98252","Distrik Yapen Timur, Kabupaten Kepulauan Yapen",PAPUA,98252.0,Indonesia,81240501046.0,-1.803794,136.7623591,https://maps.google.com/?cid=0x0:0x3166b1162fe4e4b4
supermarket,Minimarket,Toko Kita,"46FQ+6F8, Serui Kota, Kec. Yapen Sel., Kabupaten Kepulauan Yapen, Papua 98213","Serui Kota, Kec. Yapen Sel., Kabupaten Kepulauan Yapen",PAPUA,98213.0,Indonesia,81216233268.0,-1.8769662,136.2386957,https://maps.google.com/?cid=0x0:0x6dadbe6c18278b00
supermarket,Toko umum,Kios Alifa Berkah,"5PJV+8C, Dawai, Distrik Yapen Timur, Kabupaten Kepulauan Yapen, Papua 98252","Dawai, Distrik Yapen Timur, Kabupaten Kepulauan Yapen",PAPUA,98252.0,Indonesia,82293038417.0,-1.81943,136.7437957,https://maps.google.com/?cid=0x0:0x7f6e3a52591ed119
supermarket,Perias,Aqila Hijab  Kosmetik,"5QH7+XVM, Unnamed Road, Awunawai, Distrik Yapen Timur, Kabupaten Kepulauan Yapen, Papua 98252","Unnamed Road, Awunawai, Distrik Yapen Timur, Kabupaten Kepulauan Yapen",PAPUA,98252.0,Indonesia,82188341845.0,-1.8200344,136.7646643,https://maps.google.com/?cid=0x0:0x851e879c893e7b34
supermarket,Minimarket,TOKO A  A,"5PJV+8C, Dawai, Distrik Yapen Timur, Kabupaten Kepulauan Yapen, Papua 98252","Dawai, Distrik Yapen Timur, Kabupaten Kepulauan Yapen",PAPUA,98252.0,Indonesia,,-1.8195057,136.7437319,https://maps.google.com/?cid=0x0:0xb61f4868ca34b7b8
supermarket,,Willy kios dan pakaian Toraja,"5PJR+9CH, Dawai, Distrik Yapen Timur, Kabupaten Kepulauan Yapen, Papua 98252","Dawai, Distrik Yapen Timur, Kabupaten Kepulauan Yapen",PAPUA,98252.0,Indonesia,81343231367.0,-1.8190696,136.7411141,https://maps.google.com/?cid=0x0:0x7f934b449834a0ea
supermarket,Toko Fotokopi,Foto Copi Badak Group,"5QJ8+GHR, Unnamed Road, Awunawai, Distrik Yapen Timur, Kabupaten Kepulauan Yapen, Papua 98252","Unnamed Road, Awunawai, Distrik Yapen Timur, Kabupaten Kepulauan Yapen",PAPUA,98252.0,Indonesia,81355073100.0,-1.8186369,136.7664006,https://maps.google.com/?cid=0x0:0x6f5c5b8429b924bb
supermarket,Toko Swalayan,Kios Bayutra,"46HV+QC2, Jl. Nipah, Famboaman, Kec. Yapen Sel., Kabupaten Kepulauan Yapen, Papua 98213","Jl. Nipah, Famboaman, Kec. Yapen Sel., Kabupaten Kepulauan Yapen",PAPUA,98213.0,Indonesia,,-1.8706197,136.2435076,https://maps.google.com/?cid=0x0:0x7f73d770b8e46fe3
supermarket,Apotek,TokoObat Blessing Farma,"Jl. Kelapa tiga Kep, Dawai, Distrik Yapen Timur, Kabupaten Kepulauan Yapen, Papua 98644","Dawai, Distrik Yapen Timur, Kabupaten Kepulauan Yapen",PAPUA,98644.0,Indonesia,82195010029.0,-1.8189833,136.740401,https://maps.google.com/?cid=0x0:0xfb43133ad5042bdd
supermarket,supermarket,Papua 98255,"Kabupaten Kepulauan Yapen, Papua","Kabupaten Kepulauan Yapen, Papua",PAPUA,,Indonesia,,-1.8086855,136.3240951,https://maps.google.com/?cid=0x0:0x438de2bf5d4cd8af
supermarket,Toko Swalayan,Hadi Supermarket,"Jl. Frans Kaisepo No.5, RT. 003/01, Warari, Kec. Yapen Sel., Kabupaten Kepulauan Yapen, Papua 98212","RT. 003/01, Warari, Kec. Yapen Sel., Kabupaten Kepulauan Yapen",PAPUA,98212.0,Indonesia,98334276.0,-1.8751153,136.2490809,https://maps.google.com/?cid=0x0:0xf67310d4ed062031
supermarket,Toko,Toko Limas,"46FV+8WJ, Jl. KPR, Warari, Kec. Yapen Sel., Kabupaten Kepulauan Yapen, Papua 98213","Jl. KPR, Warari, Kec. Yapen Sel., Kabupaten Kepulauan Yapen",PAPUA,98213.0,Indonesia,81354034087.0,-1.8766524,136.2447558,https://maps.google.com/?cid=0x0:0xf22d6f17118f67b3
supermarket,Toko Buku,Indah Pasaraya Serui Indah,"Jl. Moh. Yamin, Serui Kota, Kec. Yapen Sel., Kabupaten Kepulauan Yapen, Papua 98215","Serui Kota, Kec. Yapen Sel., Kabupaten Kepulauan Yapen",PAPUA,98215.0,Indonesia,,-1.8836014,136.2384964,https://maps.google.com/?cid=0x0:0x7d9f1453d5882191
supermarket,Toko,Toko Merpati,"467Q+WFV, Jl. Moh. Yamin, Pasir Hitam, Kec. Yapen Sel., Kabupaten Kepulauan Yapen, Papua 98215","Jl. Moh. Yamin, Pasir Hitam, Kec. Yapen Sel., Kabupaten Kepulauan Yapen",PAPUA,98215.0,Indonesia,,-1.8851497,136.238664,https://maps.google.com/?cid=0x0:0xe5cb342ce69ffec0
supermarket,Toko Swalayan,Kios misbah,"47G2+2WW, Warari, Kec. Yapen Sel., Kabupaten Kepulauan Yapen, Papua 98212","Warari, Kec. Yapen Sel., Kabupaten Kepulauan Yapen",PAPUA,98212.0,Indonesia,81236974318.0,-1.8748841,136.2523177,https://maps.google.com/?cid=0x0:0x76d55831a7e822b3
supermarket,Toko,Kios Ewani Indah,"47F2+XRV, Jl. Ke Menawi, Warari, Kec. Yapen Sel., Kabupaten Kepulauan Yapen, Papua 98212","Jl. Ke Menawi, Warari, Kec. Yapen Sel., Kabupaten Kepulauan Yapen",PAPUA,98212.0,Indonesia,,-1.8750247,136.2520517,https://maps.google.com/?cid=0x0:0x42500bb7b23ff428
supermarket,Toko,Toko Karya Kurnia,"46FV+HC3, Jl. Frans Kaisepo, Famboaman, Kec. Yapen Sel., Kabupaten Kepulauan Yapen, Papua 98213","Jl. Frans Kaisepo, Famboaman, Kec. Yapen Sel., Kabupaten Kepulauan Yapen",PAPUA,98213.0,Indonesia,,-1.8761003,136.2435369,https://maps.google.com/?cid=0x0:0x15eeffbb0bc54406
supermarket,Kantor Perusahaan,Pelni Mart Cabang Serui,"Serui Kota, Kec. Yapen Sel., Kabupaten Kepulauan Yapen, Papua 98213","Kec. Yapen Sel., Kabupaten Kepulauan Yapen",PAPUA,98213.0,Indonesia,81318882144.0,-1.8792675,136.2398941,https://maps.google.com/?cid=0x0:0xae4233eff62aaa62
supermarket,Toko bahan makanan,Toko Cinta Damai,"46CR+2VG, Serui Jaya, Kec. Yapen Sel., Kabupaten Kepulauan Yapen, Papua 98215","Serui Jaya, Kec. Yapen Sel., Kabupaten Kepulauan Yapen",PAPUA,98215.0,Indonesia,,-1.879931,136.2422105,https://maps.google.com/?cid=0x0:0x8f9de08afe11b15d
supermarket,Toko Swalayan,Kios Bayutra,"46HV+QC2, Jl. Nipah, Famboaman, Kec. Yapen Sel., Kabupaten Kepulauan Yapen, Papua 98213","Jl. Nipah, Famboaman, Kec. Yapen Sel., Kabupaten Kepulauan Yapen",PAPUA,98213.0,Indonesia,,-1.8706197,136.2435076,https://maps.google.com/?cid=0x0:0x7f73d770b8e46fe3
supermarket,Toko umum,Toko Asei,"46FJ+6HQ, Serui Kota, Kec. Yapen Sel., Kabupaten Kepulauan Yapen, Papua 98213","Serui Kota, Kec. Yapen Sel., Kabupaten Kepulauan Yapen",PAPUA,98213.0,Indonesia,98331468.0,-1.8769217,136.2314953,https://maps.google.com/?cid=0x0:0x23f1218b85ff4904
supermarket,Toko,KURNIA ILAHI Group,"467R+848, Jl. Diponegoro, Pasir Hitam, Kec. Yapen Sel., Kabupaten Kepulauan Yapen, Papua 98215","Jl. Diponegoro, Pasir Hitam, Kec. Yapen Sel., Kabupaten Kepulauan Yapen",PAPUA,98215.0,Indonesia,81230897771.0,-1.8867126,136.2403194,https://maps.google.com/?cid=0x0:0x5911d99c279fdae
supermarket,Toko bahan makanan,Kios Ani Mulia,"Jl. Frans Kaisepo, Famboaman, Kec. Yapen Sel., Kabupaten Kepulauan Yapen, Papua 98213","Famboaman, Kec. Yapen Sel., Kabupaten Kepulauan Yapen",PAPUA,98213.0,Indonesia,82397515710.0,-1.8756347,136.2428996,https://maps.google.com/?cid=0x0:0xafb4aac83856061c
supermarket,Pusat Perbelanjaan,Kios Chivia,"9P7H+G3M, Rarisi, Distrik Poom, Kabupaten Kepulauan Yapen, Papua","Kabupaten Kepulauan Yapen, Papua",PAPUA,,Indonesia,,-1.6353186,135.7269201,https://maps.google.com/?cid=0x0:0xbc9ae246b1863f61
supermarket,supermarket,Papua 98254,"Kabupaten Kepulauan Yapen, Papua","Kabupaten Kepulauan Yapen, Papua",PAPUA,,Indonesia,,-1.668696,135.9229866,https://maps.google.com/?cid=0x0:0x786984f83d38aaec
supermarket,Pusat Perbelanjaan,Papua Supermarket  Dept. Store,"4869+F77 Bar, Sawagumu, Kec. Sorong Utara, Kota Sorong, Papua Bar. 98416","Sawagumu, Kec. Sorong Utara, Kota Sorong",PAPUA,98416.0,Indonesia,9513160123.0,-0.888831,131.3181847,https://maps.google.com/?cid=0x0:0x7b5f0926a74ad213
supermarket,Toko bahan makanan,KERAMBA PANPER,"Unnamed Road, Doyo Lama, Distrik Waibu, Kabupaten Jayapura, Papua 99352","Doyo Lama, Distrik Waibu, Kabupaten Jayapura",PAPUA,99352.0,Indonesia,82397758140.0,-2.5723817,140.4535468,https://maps.google.com/?cid=0x0:0x99681cfd0f029c29
supermarket,Toko bahan makanan,Papua Mart,"7XVG+F83, Pruleme, Distrik Mulia, Kabupaten Puncak Jaya, Papua","Kabupaten Puncak Jaya, Papua",PAPUA,,Indonesia,,-3.7063653,137.9757822,https://maps.google.com/?cid=0x0:0xf49ab6ab8e5d1b97
supermarket,Toko Pakaian,Hang Tua (Sebelum jembatan 3 Ton),"84H9+6J, Rosbori, Distrik Windesi, Kabupaten Kepulauan Yapen, Papua","Kabupaten Kepulauan Yapen, Papua",PAPUA,,Indonesia,,-1.6719751,136.119079,https://maps.google.com/?cid=0x0:0x3637246e593ec93e
supermarket,Toko Swalayan,Mu Gung Hwa Supermarket - Dharmawangsa,"Jl. Darmawangsa Raya No.2 Lantai 2, RT.2/RW.1, Pulo, Kec. Kby. Baru, Kota Jakarta Selatan, Daerah Khusus Ibukota Jakarta 12160","RT.2/RW.1, Pulo, Kec. Kby. Baru, Kota Jakarta Selatan",PAPUA,12160.0,Indonesia,217233214.0,-6.2549914,106.7977871,https://maps.google.com/?cid=0x0:0xc3d58b4e04a5f570
supermarket,Toko bahan makanan,Kios Sumber Padi,"Jalan Trans Papua No.Km 2, Persatuan, Kec. Mandobo, Kabupaten Boven Digoel, Papua 99663","Persatuan, Kec. Mandobo, Kabupaten Boven Digoel",PAPUA,99663.0,Indonesia,,-6.1016308,140.3188932,https://maps.google.com/?cid=0x0:0x7c2279c9f772da7e
supermarket,Toko Kelontong Korea,Mu Gung Hwa Supermarket - Senopati,"Jl. Senayan No.43, RT.8/RW.5, Rw. Bar., Kec. Kby. Baru, Kota Jakarta Selatan, Daerah Khusus Ibukota Jakarta 12180","RT.8/RW.5, Rw. Bar., Kec. Kby. Baru, Kota Jakarta Selatan",PAPUA,12180.0,Indonesia,217222214.0,-6.2353938,106.8158782,https://maps.google.com/?cid=0x0:0x9ffba79e59c537d5
supermarket,Pusat Perbelanjaan,LuLu Hypermarket - Mega Bekasi Hypermall,"Jl. Ahmad Yani No.1, RT.004/RW.001, Marga Jaya, Kec. Bekasi Sel., Kota Bks, Jawa Barat 17141","RT.004/RW.001, Marga Jaya, Kec. Bekasi Sel., Kota Bks",PAPUA,17141.0,Indonesia,81284056853.0,-6.2497755,106.9925032,https://maps.google.com/?cid=0x0:0x4d491ebf7115f0d0
supermarket,Toko Swalayan,Gs supermarket,"Jl. KH. Hasyim Ashari No.93, RT.002/RW.003, Poris Plawad Utara, Kec. Cipondoh, Kota Tangerang, Banten 15148","RT.002/RW.003, Poris Plawad Utara, Kec. Cipondoh, Kota Tangerang",PAPUA,15148.0,Indonesia,2155712070.0,-6.1879187,106.661738,https://maps.google.com/?cid=0x0:0x86a83e6d17a220b2
supermarket,Pusat Perbelanjaan,Lulu Hypermarket  Department Store - Plaza Taman,"Plaza Taman Modern, Jl. Raya Bekasi No.24, Ujung Menteng, Kec. Cakung, Kota Jakarta Timur, Daerah Khusus Ibukota Jakarta 13960","Jl. Raya Bekasi No.24, Ujung Menteng, Kec. Cakung, Kota Jakarta Timur",PAPUA,13960.0,Indonesia,2129844000.0,-6.1866528,106.949145,https://maps.google.com/?cid=0x0:0x417a62ca795ee0b8
supermarket,Toko Roti,BBS Bungeoppang,"Plaza Bl. M, Jl. Bulungan No.76, RT.6/RW.6, Kramat Pela, Kec. Kby. Baru, Kota Jakarta Selatan, Daerah Khusus Ibukota Jakarta 12130","Jl. Bulungan No.76, RT.6/RW.6, Kramat Pela, Kec. Kby. Baru, Kota Jakarta Selatan",PAPUA,12130.0,Indonesia,,-6.2441311,106.7975724,https://maps.google.com/?cid=0x0:0x255f5f7e49f149a0
supermarket,supermarket,Papua 98215,"Kabupaten Kepulauan Yapen, Papua","Kabupaten Kepulauan Yapen, Papua",PAPUA,,Indonesia,,-1.8017548,136.0944845,https://maps.google.com/?cid=0x0:0xd235688620f2534d
supermarket,Toko Swalayan,Hadi Supermarket,"Jl. Frans Kaisepo No.5, RT. 003/01, Warari, Kec. Yapen Sel., Kabupaten Kepulauan Yapen, Papua 98212","RT. 003/01, Warari, Kec. Yapen Sel., Kabupaten Kepulauan Yapen",PAPUA,98212.0,Indonesia,98334276.0,-1.8751153,136.2490809,https://maps.google.com/?cid=0x0:0xf67310d4ed062031
supermarket,Toko Buku,Indah Pasaraya Serui Indah,"Jl. Moh. Yamin, Serui Kota, Kec. Yapen Sel., Kabupaten Kepulauan Yapen, Papua 98215","Serui Kota, Kec. Yapen Sel., Kabupaten Kepulauan Yapen",PAPUA,98215.0,Indonesia,,-1.8836014,136.2384964,https://maps.google.com/?cid=0x0:0x7d9f1453d5882191
supermarket,supermarket,Syafiq Mart,"Jl. Sudirman, Serui Kota, Kec. Yapen Sel., Kabupaten Kepulauan Yapen, Papua 98213","Serui Kota, Kec. Yapen Sel., Kabupaten Kepulauan Yapen",PAPUA,98213.0,Indonesia,85240966684.0,-1.8725559,136.2402621,https://maps.google.com/?cid=0x0:0x7ca15fd1eb458c21
supermarket,Toko,Toko Limas,"46FV+8WJ, Jl. KPR, Warari, Kec. Yapen Sel., Kabupaten Kepulauan Yapen, Papua 98213","Jl. KPR, Warari, Kec. Yapen Sel., Kabupaten Kepulauan Yapen",PAPUA,98213.0,Indonesia,81354034087.0,-1.8766524,136.2447558,https://maps.google.com/?cid=0x0:0xf22d6f17118f67b3
supermarket,Kantor Perusahaan,Pelni Mart Cabang Serui,"Serui Kota, Kec. Yapen Sel., Kabupaten Kepulauan Yapen, Papua 98213","Kec. Yapen Sel., Kabupaten Kepulauan Yapen",PAPUA,98213.0,Indonesia,81318882144.0,-1.8792675,136.2398941,https://maps.google.com/?cid=0x0:0xae4233eff62aaa62
supermarket,Toko,Toko Karya Kurnia,"46FV+HC3, Jl. Frans Kaisepo, Famboaman, Kec. Yapen Sel., Kabupaten Kepulauan Yapen, Papua 98213","Jl. Frans Kaisepo, Famboaman, Kec. Yapen Sel., Kabupaten Kepulauan Yapen",PAPUA,98213.0,Indonesia,,-1.8761003,136.2435369,https://maps.google.com/?cid=0x0:0x15eeffbb0bc54406
supermarket,Toko umum,Toko Asei,"46FJ+6HQ, Serui Kota, Kec. Yapen Sel., Kabupaten Kepulauan Yapen, Papua 98213","Serui Kota, Kec. Yapen Sel., Kabupaten Kepulauan Yapen",PAPUA,98213.0,Indonesia,98331468.0,-1.8769217,136.2314953,https://maps.google.com/?cid=0x0:0x23f1218b85ff4904
supermarket,Toko,KURNIA ILAHI Group,"467R+848, Jl. Diponegoro, Pasir Hitam, Kec. Yapen Sel., Kabupaten Kepulauan Yapen, Papua 98215","Jl. Diponegoro, Pasir Hitam, Kec. Yapen Sel., Kabupaten Kepulauan Yapen",PAPUA,98215.0,Indonesia,81230897771.0,-1.8867126,136.2403194,https://maps.google.com/?cid=0x0:0x5911d99c279fdae
supermarket,Toko bahan makanan,Toko Cinta Damai,"46CR+2VG, Serui Jaya, Kec. Yapen Sel., Kabupaten Kepulauan Yapen, Papua 98215","Serui Jaya, Kec. Yapen Sel., Kabupaten Kepulauan Yapen",PAPUA,98215.0,Indonesia,,-1.879931,136.2422105,https://maps.google.com/?cid=0x0:0x8f9de08afe11b15d
supermarket,Minimarket,Kios Reivank Serui Papua,"46CH+J9J, Mariaderi, Kec. Yapen Sel., Kabupaten Kepulauan Yapen, Papua 98215","Mariaderi, Kec. Yapen Sel., Kabupaten Kepulauan Yapen",PAPUA,98215.0,Indonesia,85399774433.0,-1.8784184,136.2284041,https://maps.google.com/?cid=0x0:0xac2f3f2285f0aa72
supermarket,Toko,Kios Ewani Indah,"47F2+XRV, Jl. Ke Menawi, Warari, Kec. Yapen Sel., Kabupaten Kepulauan Yapen, Papua 98212","Jl. Ke Menawi, Warari, Kec. Yapen Sel., Kabupaten Kepulauan Yapen",PAPUA,98212.0,Indonesia,,-1.8750247,136.2520517,https://maps.google.com/?cid=0x0:0x42500bb7b23ff428
supermarket,Minimarket,Toko Kita,"46FQ+6F8, Serui Kota, Kec. Yapen Sel., Kabupaten Kepulauan Yapen, Papua 98213","Serui Kota, Kec. Yapen Sel., Kabupaten Kepulauan Yapen",PAPUA,98213.0,Indonesia,81216233268.0,-1.8769662,136.2386957,https://maps.google.com/?cid=0x0:0x6dadbe6c18278b00
supermarket,Toko Swalayan,Kios misbah,"47G2+2WW, Warari, Kec. Yapen Sel., Kabupaten Kepulauan Yapen, Papua 98212","Warari, Kec. Yapen Sel., Kabupaten Kepulauan Yapen",PAPUA,98212.0,Indonesia,81236974318.0,-1.8748841,136.2523177,https://maps.google.com/?cid=0x0:0x76d55831a7e822b3
supermarket,supermarket,Papua 98252,"Kabupaten Kepulauan Yapen, Papua","Kabupaten Kepulauan Yapen, Papua",PAPUA,,Indonesia,,-1.7581253,136.5547852,https://maps.google.com/?cid=0x0:0xe52dde0e102e427c
supermarket,Toko bahan makanan,Toserba 03,"5QJ7+56H, Tim, Awunawai, Distrik Yapen Timur, Kabupaten Kepulauan Yapen, Papua 98252","Tim, Awunawai, Distrik Yapen Timur, Kabupaten Kepulauan Yapen",PAPUA,98252.0,Indonesia,,-1.8186178,136.7624303,https://maps.google.com/?cid=0x0:0xad16e13f8406bc2a
supermarket,Toko umum,Toserba 01,"5QG2+XP, Dawai, Distrik Yapen Timur, Kabupaten Kepulauan Yapen, Papua 98252","Dawai, Distrik Yapen Timur, Kabupaten Kepulauan Yapen",PAPUA,98252.0,Indonesia,,-1.8224818,136.7518233,https://maps.google.com/?cid=0x0:0x2b5c3ace750d51c3
supermarket,supermarket,Kios citra,"Awunawai, Distrik Yapen Timur, Kabupaten Kepulauan Yapen, Papua 98252","Distrik Yapen Timur, Kabupaten Kepulauan Yapen",PAPUA,98252.0,Indonesia,81240501046.0,-1.803794,136.7623591,https://maps.google.com/?cid=0x0:0x3166b1162fe4e4b4
supermarket,Minimarket,Toko Kevin 03,"5QJ7+6CV, Awunawai, Distrik Yapen Timur, Kabupaten Kepulauan Yapen, Papua 98252","Awunawai, Distrik Yapen Timur, Kabupaten Kepulauan Yapen",PAPUA,98252.0,Indonesia,,-1.8193962,136.7635486,https://maps.google.com/?cid=0x0:0x3fbe92bb67bf7b0f
supermarket,Toko Swalayan,Hadi Supermarket,"Jl. Frans Kaisepo No.5, RT. 003/01, Warari, Kec. Yapen Sel., Kabupaten Kepulauan Yapen, Papua 98212","RT. 003/01, Warari, Kec. Yapen Sel., Kabupaten Kepulauan Yapen",PAPUA,98212.0,Indonesia,98334276.0,-1.8751153,136.2490809,https://maps.google.com/?cid=0x0:0xf67310d4ed062031
supermarket,supermarket,Syafiq Mart,"Jl. Sudirman, Serui Kota, Kec. Yapen Sel., Kabupaten Kepulauan Yapen, Papua 98213","Serui Kota, Kec. Yapen Sel., Kabupaten Kepulauan Yapen",PAPUA,98213.0,Indonesia,85240966684.0,-1.8725559,136.2402621,https://maps.google.com/?cid=0x0:0x7ca15fd1eb458c21
supermarket,Toko,Toko Limas,"46FV+8WJ, Jl. KPR, Warari, Kec. Yapen Sel., Kabupaten Kepulauan Yapen, Papua 98213","Jl. KPR, Warari, Kec. Yapen Sel., Kabupaten Kepulauan Yapen",PAPUA,98213.0,Indonesia,81354034087.0,-1.8766524,136.2447558,https://maps.google.com/?cid=0x0:0xf22d6f17118f67b3
supermarket,Toko umum,Toko Asei,"46FJ+6HQ, Serui Kota, Kec. Yapen Sel., Kabupaten Kepulauan Yapen, Papua 98213","Serui Kota, Kec. Yapen Sel., Kabupaten Kepulauan Yapen",PAPUA,98213.0,Indonesia,98331468.0,-1.8769217,136.2314953,https://maps.google.com/?cid=0x0:0x23f1218b85ff4904
supermarket,Toko Buku,Indah Pasaraya Serui Indah,"Jl. Moh. Yamin, Serui Kota, Kec. Yapen Sel., Kabupaten Kepulauan Yapen, Papua 98215","Serui Kota, Kec. Yapen Sel., Kabupaten Kepulauan Yapen",PAPUA,98215.0,Indonesia,,-1.8836014,136.2384964,https://maps.google.com/?cid=0x0:0x7d9f1453d5882191
supermarket,Toko,Toko Merpati,"467Q+WFV, Jl. Moh. Yamin, Pasir Hitam, Kec. Yapen Sel., Kabupaten Kepulauan Yapen, Papua 98215","Jl. Moh. Yamin, Pasir Hitam, Kec. Yapen Sel., Kabupaten Kepulauan Yapen",PAPUA,98215.0,Indonesia,,-1.8851497,136.238664,https://maps.google.com/?cid=0x0:0xe5cb342ce69ffec0
supermarket,Minimarket,Toko Kita,"46FQ+6F8, Serui Kota, Kec. Yapen Sel., Kabupaten Kepulauan Yapen, Papua 98213","Serui Kota, Kec. Yapen Sel., Kabupaten Kepulauan Yapen",PAPUA,98213.0,Indonesia,81216233268.0,-1.8769662,136.2386957,https://maps.google.com/?cid=0x0:0x6dadbe6c18278b00
supermarket,Toko Swalayan,Kios Bayutra,"46HV+QC2, Jl. Nipah, Famboaman, Kec. Yapen Sel., Kabupaten Kepulauan Yapen, Papua 98213","Jl. Nipah, Famboaman, Kec. Yapen Sel., Kabupaten Kepulauan Yapen",PAPUA,98213.0,Indonesia,,-1.8706197,136.2435076,https://maps.google.com/?cid=0x0:0x7f73d770b8e46fe3
supermarket,Toko umum,Kios Alifa Berkah,"5PJV+8C, Dawai, Distrik Yapen Timur, Kabupaten Kepulauan Yapen, Papua 98252","Dawai, Distrik Yapen Timur, Kabupaten Kepulauan Yapen",PAPUA,98252.0,Indonesia,82293038417.0,-1.81943,136.7437957,https://maps.google.com/?cid=0x0:0x7f6e3a52591ed119
supermarket,supermarket,Distrik Raimbawi,"Kabupaten Kepulauan Yapen, Papua","Kabupaten Kepulauan Yapen, Papua",PAPUA,,Indonesia,,-1.767849,136.8405357,https://maps.google.com/?cid=0x0:0x5bfe03ebf6ec49ab
supermarket,Minimarket,Toko Kevin 03,"5QJ7+6CV, Awunawai, Distrik Yapen Timur, Kabupaten Kepulauan Yapen, Papua 98252","Awunawai, Distrik Yapen Timur, Kabupaten Kepulauan Yapen",PAPUA,98252.0,Indonesia,,-1.8193962,136.7635486,https://maps.google.com/?cid=0x0:0x3fbe92bb67bf7b0f
supermarket,Pasar,Pasar lama,"5QG2+PWR, Dawai, Distrik Yapen Timur, Kabupaten Kepulauan Yapen, Papua 98252","Dawai, Distrik Yapen Timur, Kabupaten Kepulauan Yapen",PAPUA,98252.0,Indonesia,,-1.8231438,136.752268,https://maps.google.com/?cid=0x0:0x8d04c652f165d118
supermarket,Toko Swalayan,Hyfresh - Supermarket Rempoa,"Jl. Rempoa Raya No.51, RT.3/RW.03, Rempoa, Kec. Ciputat Tim., Kota Tangerang Selatan, Banten 15412","RT.3/RW.03, Rempoa, Kec. Ciputat Tim., Kota Tangerang Selatan",PAPUA,15412.0,Indonesia,81380866678.0,-6.2836654,106.7607997,https://maps.google.com/?cid=0x0:0x8478b5aee25ede9d
supermarket,Toko,Gilang Frozen Food,"Perumahan Mutiara Puri Harmoni, Jl. Sakura 1 No.50 blok jb1, Sukamanah, Kec. Rajeg, Kabupaten Tangerang, Banten 15540","Jl. Sakura 1 No.50 blok jb1, Sukamanah, Kec. Rajeg, Kabupaten Tangerang",PAPUA,15540.0,Indonesia,85816861894.0,-6.1199736,106.5063039,https://maps.google.com/?cid=0x0:0x23dc94fc466813b6
supermarket,Toko Swalayan,FOODMART SUPERMARKET,"FOODMART SUPERMARKET, Lippo Mall Nusantara, Jl. Jend. Sudirman No.kav 50 Lt.B1, unit, Karet Semanggi, Kecamatan Setiabudi, Kota Jakarta Selatan, Daerah Khusus Ibukota Jakarta 12930","Lippo Mall Nusantara, Jl. Jend. Sudirman No.kav 50 Lt.B1, unit, Karet Semanggi, Kecamatan Setiabudi, Kota Jakarta Selatan",PAPUA,12930.0,Indonesia,8118331631.0,-6.2197194,106.8144731,https://maps.google.com/?cid=0x0:0x9d9b624afb9570f0
supermarket,supermarket,Distrik Tlk. Ampimoi,"Kabupaten Kepulauan Yapen, Papua","Kabupaten Kepulauan Yapen, Papua",PAPUA,,Indonesia,,-1.8521856,136.5246471,https://maps.google.com/?cid=0x0:0x9f8f93e4402acbda
supermarket,Toko,Kios Sumber Nipah Jaya,"4HP2+8P7, Waita, Distrik Tlk. Ampimoi, Kabupaten Kepulauan Yapen, Papua","Kabupaten Kepulauan Yapen, Papua",PAPUA,,Indonesia,81240405528.0,-1.8642227,136.5517893,https://maps.google.com/?cid=0x0:0xa6009cb999d3934
supermarket,Toko Swalayan,Hadi Supermarket,"Jl. Frans Kaisepo No.5, RT. 003/01, Warari, Kec. Yapen Sel., Kabupaten Kepulauan Yapen, Papua 98212","RT. 003/01, Warari, Kec. Yapen Sel., Kabupaten Kepulauan Yapen",PAPUA,98212.0,Indonesia,98334276.0,-1.8751153,136.2490809,https://maps.google.com/?cid=0x0:0xf67310d4ed062031
supermarket,Toko Swalayan,Hadi Supermarket,"Jl. Frans Kaisepo No.5, RT. 003/01, Warari, Kec. Yapen Sel., Kabupaten Kepulauan Yapen, Papua 98212","RT. 003/01, Warari, Kec. Yapen Sel., Kabupaten Kepulauan Yapen",PAPUA,98212.0,Indonesia,98334276.0,-1.8751153,136.2490809,https://maps.google.com/?cid=0x0:0xf67310d4ed062031
supermarket,Toko,YANMart Talagasari Cikupa,"Talagasari, Kec. Cikupa, Kabupaten Tangerang, Banten 15710","Kec. Cikupa, Kabupaten Tangerang",PAPUA,15710.0,Indonesia,2122028972.0,-6.2272768,106.5196286,https://maps.google.com/?cid=0x0:0xd1e4cf77e60ffe96
supermarket,Minimarket,Toko Kita,"46FQ+6F8, Serui Kota, Kec. Yapen Sel., Kabupaten Kepulauan Yapen, Papua 98213","Serui Kota, Kec. Yapen Sel., Kabupaten Kepulauan Yapen",PAPUA,98213.0,Indonesia,81216233268.0,-1.8769662,136.2386957,https://maps.google.com/?cid=0x0:0x6dadbe6c18278b00
supermarket,Toko Buku,Indah Pasaraya Serui Indah,"Jl. Moh. Yamin, Serui Kota, Kec. Yapen Sel., Kabupaten Kepulauan Yapen, Papua 98215","Serui Kota, Kec. Yapen Sel., Kabupaten Kepulauan Yapen",PAPUA,98215.0,Indonesia,,-1.8836014,136.2384964,https://maps.google.com/?cid=0x0:0x7d9f1453d5882191
supermarket,Toko Swalayan,Surya Mart,"C8V2+G83, Jl. Irian Kepi, Kepi, Kec. Obaa, Kabupaten Mappi, Papua 99881","Jl. Irian Kepi, Kepi, Kec. Obaa, Kabupaten Mappi",PAPUA,99881.0,Indonesia,85254867242.0,-6.5562444,139.3007867,https://maps.google.com/?cid=0x0:0x160bad2921fdf723
supermarket,Toko Swalayan,Toko Ramayana Kepi,"C8V2+8C6, Jl. Irian Kepi, Kepi, Kec. Obaa, Kabupaten Mappi, Papua 99881","Jl. Irian Kepi, Kepi, Kec. Obaa, Kabupaten Mappi",PAPUA,99881.0,Indonesia,81342212767.0,-6.5567053,139.3010043,https://maps.google.com/?cid=0x0:0x35982355481bae6c
supermarket,Toko bahan makanan,Toko Winda,"Q8R7+54, Yenbekaki, Distrik Waigeo Timur, Kabupaten Raja Ampat, Papua Bar.","Kabupaten Raja Ampat, Papua Bar.",PAPUA,,Indonesia,,-0.2095622,131.3128223,https://maps.google.com/?cid=0x0:0x9c2e8737cbb9be30
supermarket,Toko Swalayan,Loka Supermarket Cibubur,"Jl. Alternatif Cibubur No.3, Harjamukti, Kec. Cimanggis, Bekasi, Jawa Barat 16454","Harjamukti, Kec. Cimanggis, Bekasi",PAPUA,16454.0,Indonesia,2121284712.0,-6.3754734,106.9064335,https://maps.google.com/?cid=0x0:0x3da04bb50caaaf10
supermarket,Minimarket,Mugunghwa PIK Supermarket korea,"6, RT.6/RW.2, Kamal Muara, Penjaringan, North Jakarta City, Jakarta","Jkt Utara, Daerah Khusus Ibukota Jakarta",PAPUA,,Indonesia,81388396190.0,-6.103568,106.7402651,https://maps.google.com/?cid=0x0:0x2308245d48fd402c
supermarket,supermarket,Papua 98253,"Kabupaten Kepulauan Yapen, Papua","Kabupaten Kepulauan Yapen, Papua",PAPUA,,Indonesia,,-1.692705,135.7710559,https://maps.google.com/?cid=0x0:0xe712ef09824c8ae8
supermarket,Toko bahan makanan,Victory,"2FPF+3WM, Maniwak, Distrik Wasior, Kabupaten Teluk Wondama, Papua Bar. 98362","Maniwak, Distrik Wasior, Kabupaten Teluk Wondama",PAPUA,98362.0,Indonesia,,-2.9647961,134.4748018,https://maps.google.com/?cid=0x0:0xaa14ccf319f55d2c
supermarket,supermarket,Kios Rizky,"7GG4+7MR, Wasior II, Distrik Wasior, Kabupaten Teluk Wondama, Papua Bar. 98362","Wasior II, Distrik Wasior, Kabupaten Teluk Wondama",PAPUA,98362.0,Indonesia,,-2.7242502,134.5066512,https://maps.google.com/?cid=0x0:0xa597a86fb80fd52d
supermarket,Toko Swalayan,Loka Supermarket Cibubur,"Jl. Alternatif Cibubur No.3, Harjamukti, Kec. Cimanggis, Bekasi, Jawa Barat 16454","Harjamukti, Kec. Cimanggis, Bekasi",PAPUA,16454.0,Indonesia,2121284712.0,-6.3754734,106.9064335,https://maps.google.com/?cid=0x0:0x3da04bb50caaaf10
supermarket,Minimarket,Mu Gung Hwa Supermarket - Cibubur,"Jl. Trace Yogie / Alternatif Cibubur No.9A, Harjamukti, Kec. Cimanggis, Kota Depok, Jawa Barat 16454","Harjamukti, Kec. Cimanggis, Kota Depok",PAPUA,16454.0,Indonesia,8111358156.0,-6.375824,106.899471,https://maps.google.com/?cid=0x0:0xbb1759eab17d5cdc
supermarket,Kedai Kopi,Philocoffee,"Jl. Alternatif Cibubur No.KM 03, Harjamukti, Kec. Cimanggis, Kota Depok, Jawa Barat 16454","Harjamukti, Kec. Cimanggis, Kota Depok",PAPUA,16454.0,Indonesia,2121284724.0,-6.3756278,106.9064891,https://maps.google.com/?cid=0x0:0x729ba5301b95927c
supermarket,supermarket,Papua 98254,"Kabupaten Kepulauan Yapen, Papua","Kabupaten Kepulauan Yapen, Papua",PAPUA,,Indonesia,,-1.668696,135.9229866,https://maps.google.com/?cid=0x0:0x786984f83d38aaec
supermarket,Toko bahan makanan,Toko Winda,"Q8R7+54, Yenbekaki, Distrik Waigeo Timur, Kabupaten Raja Ampat, Papua Bar.","Kabupaten Raja Ampat, Papua Bar.",PAPUA,,Indonesia,,-0.2095622,131.3128223,https://maps.google.com/?cid=0x0:0x9c2e8737cbb9be30
supermarket,Pusat Perbelanjaan,Kios Chivia,"9P7H+G3M, Rarisi, Distrik Poom, Kabupaten Kepulauan Yapen, Papua","Kabupaten Kepulauan Yapen, Papua",PAPUA,,Indonesia,,-1.6353186,135.7269201,https://maps.google.com/?cid=0x0:0xbc9ae246b1863f61
supermarket,Toko Pakaian,Hang Tua (Sebelum jembatan 3 Ton),"84H9+6J, Rosbori, Distrik Windesi, Kabupaten Kepulauan Yapen, Papua","Kabupaten Kepulauan Yapen, Papua",PAPUA,,Indonesia,,-1.6719751,136.119079,https://maps.google.com/?cid=0x0:0x3637246e593ec93e
supermarket,supermarket,Kios Rizky,"7GG4+7MR, Wasior II, Distrik Wasior, Kabupaten Teluk Wondama, Papua Bar. 98362","Wasior II, Distrik Wasior, Kabupaten Teluk Wondama",PAPUA,98362.0,Indonesia,,-2.7242502,134.5066512,https://maps.google.com/?cid=0x0:0xa597a86fb80fd52d
supermarket,supermarket,Warung gembira,"7GC5+GJ5, Unnamed Road, Wasior I, Distrik Wasior, Kabupaten Teluk Wondama, Papua Bar. 98362","Unnamed Road, Wasior I, Distrik Wasior, Kabupaten Teluk Wondama",PAPUA,98362.0,Indonesia,,-2.7287309,134.5091155,https://maps.google.com/?cid=0x0:0x243162224ff36a25
supermarket,Toko Swalayan,Loka Supermarket Cibubur,"Jl. Alternatif Cibubur No.3, Harjamukti, Kec. Cimanggis, Bekasi, Jawa Barat 16454","Harjamukti, Kec. Cimanggis, Bekasi",PAPUA,16454.0,Indonesia,2121284712.0,-6.3754734,106.9064335,https://maps.google.com/?cid=0x0:0x3da04bb50caaaf10
supermarket,supermarket,Papua Bar. 98361,"Kabupaten Teluk Wondama, Papua Bar.","Kabupaten Teluk Wondama, Papua Bar.",PAPUA,,Indonesia,,-2.4815085,134.2099791,https://maps.google.com/?cid=0x0:0xe298b41c3e32d0eb
supermarket,Toko bahan makanan,Toko Winda,"Q8R7+54, Yenbekaki, Distrik Waigeo Timur, Kabupaten Raja Ampat, Papua Bar.","Kabupaten Raja Ampat, Papua Bar.",PAPUA,,Indonesia,,-0.2095622,131.3128223,https://maps.google.com/?cid=0x0:0x9c2e8737cbb9be30
supermarket,Pusat Perbelanjaan,Loka Supermarket,"JF2P+JV6, Jalan Topo, wadio, Bumi Wonorejo, Distrik Nabire, Kabupaten Nabire, Papua 98813","Jalan Topo, wadio, Bumi Wonorejo, Distrik Nabire, Kabupaten Nabire",PAPUA,98813.0,Indonesia,98424688.0,-3.3984625,135.4871406,https://maps.google.com/?cid=0x0:0x79cd9d7b246fedb4
supermarket,supermarket,Kios Kurei,"J49H+Q3G, Werabur, Distrik Nikiwar, Kabupaten Teluk Wondama, Papua Bar.","Kabupaten Teluk Wondama, Papua Bar.",PAPUA,,Indonesia,,-2.3805709,134.1277024,https://maps.google.com/?cid=0x0:0x4c6aee3cf47ef92b
supermarket,supermarket,Kios Kurei,"J45F+MRF, Werabur, Distrik Nikiwar, Kabupaten Teluk Wondama, Papua Bar.","Kabupaten Teluk Wondama, Papua Bar.",PAPUA,,Indonesia,,-2.390823,134.1245436,https://maps.google.com/?cid=0x0:0xceeec8cce64f5094
supermarket,supermarket,Kios Rizky,"7GG4+7MR, Wasior II, Distrik Wasior, Kabupaten Teluk Wondama, Papua Bar. 98362","Wasior II, Distrik Wasior, Kabupaten Teluk Wondama",PAPUA,98362.0,Indonesia,,-2.7242502,134.5066512,https://maps.google.com/?cid=0x0:0xa597a86fb80fd52d
supermarket,supermarket,Warung gembira,"7GC5+GJ5, Unnamed Road, Wasior I, Distrik Wasior, Kabupaten Teluk Wondama, Papua Bar. 98362","Unnamed Road, Wasior I, Distrik Wasior, Kabupaten Teluk Wondama",PAPUA,98362.0,Indonesia,,-2.7287309,134.5091155,https://maps.google.com/?cid=0x0:0x243162224ff36a25
supermarket,Toko,Samudra Supermarket,"8PP2+F75, Kroy, Kec. Kaimana, Kabupaten Kaimana, Papua Bar. 98654","Kroy, Kec. Kaimana, Kabupaten Kaimana",PAPUA,98654.0,Indonesia,8113189579.0,-3.6631656,133.7002039,https://maps.google.com/?cid=0x0:0x97575d1c37a98621
supermarket,Pasar,Vanimo Supermarket,"877X+QXF, Vanimo Sandaun Province, Papua Nugini","Vanimo, Papua Nugini",PAPUA,,Indonesia,,-2.6855509,141.2999132,https://maps.google.com/?cid=0x0:0x847c46436536a9a
supermarket,Toko Swalayan,Loka Supermarket Cibubur,"Jl. Alternatif Cibubur No.3, Harjamukti, Kec. Cimanggis, Bekasi, Jawa Barat 16454","Harjamukti, Kec. Cimanggis, Bekasi",PAPUA,16454.0,Indonesia,2121284712.0,-6.3754734,106.9064335,https://maps.google.com/?cid=0x0:0x3da04bb50caaaf10
supermarket,Minimarket,Mu Gung Hwa Supermarket - Cibubur,"Jl. Trace Yogie / Alternatif Cibubur No.9A, Harjamukti, Kec. Cimanggis, Kota Depok, Jawa Barat 16454","Harjamukti, Kec. Cimanggis, Kota Depok",PAPUA,16454.0,Indonesia,8111358156.0,-6.375824,106.899471,https://maps.google.com/?cid=0x0:0xbb1759eab17d5cdc
supermarket,Kedai Kopi,Philocoffee,"Jl. Alternatif Cibubur No.KM 03, Harjamukti, Kec. Cimanggis, Kota Depok, Jawa Barat 16454","Harjamukti, Kec. Cimanggis, Kota Depok",PAPUA,16454.0,Indonesia,2121284724.0,-6.3756278,106.9064891,https://maps.google.com/?cid=0x0:0x729ba5301b95927c
supermarket,supermarket,Distrik Pulau Kurudu,"Kabupaten Kepulauan Yapen, Papua","Kabupaten Kepulauan Yapen, Papua",PAPUA,,Indonesia,,-1.8369897,137.0324636,https://maps.google.com/?cid=0x0:0xa7a245ed4349075
supermarket,supermarket,Papua 98252,"Kabupaten Kepulauan Yapen, Papua","Kabupaten Kepulauan Yapen, Papua",PAPUA,,Indonesia,,-1.7581253,136.5547852,https://maps.google.com/?cid=0x0:0xe52dde0e102e427c
supermarket,Pusat Perbelanjaan,Papua Supermarket  Dept. Store,"4869+F77 Bar, Sawagumu, Kec. Sorong Utara, Kota Sorong, Papua Bar. 98416","Sawagumu, Kec. Sorong Utara, Kota Sorong",PAPUA,98416.0,Indonesia,9513160123.0,-0.888831,131.3181847,https://maps.google.com/?cid=0x0:0x7b5f0926a74ad213
supermarket,supermarket,,,,PAPUA,,Indonesia,81247086162.0,-4.8740403,137.8090696,https://maps.google.com/?cid=0x0:0x8ab1890d08866233
supermarket,supermarket,"Penyewaan perahu Kurudu, Kabupaten Kepulauan Yapen, Papua","525P+W7, Kurudu, Distrik Pulau Kurudu, Kabupaten Kepulauan Yapen, Papua 98252","Kurudu, Distrik Pulau Kurudu, Kabupaten Kepulauan Yapen",PAPUA,98252.0,Indonesia,,-1.8401863,137.0356223,https://maps.google.com/?cid=0x0:0xa5c40f1ce9374cee
supermarket,supermarket,Kec. Pulau Yerui,"Miosnum, Kabupaten Kepulauan Yapen, Papua","Kabupaten Kepulauan Yapen, Papua",PAPUA,,Indonesia,,-1.4878278,135.3337148,https://maps.google.com/?cid=0x0:0xf1f496c1e419df1f
supermarket,Toko Swalayan,Hadi Supermarket,"Jl. Frans Kaisepo No.5, RT. 003/01, Warari, Kec. Yapen Sel., Kabupaten Kepulauan Yapen, Papua 98212","RT. 003/01, Warari, Kec. Yapen Sel., Kabupaten Kepulauan Yapen",PAPUA,98212.0,Indonesia,98334276.0,-1.8751153,136.2490809,https://maps.google.com/?cid=0x0:0xf67310d4ed062031
supermarket,supermarket,KIOS DARNO BUTON,"G85P+888 Pulau Num, Miosnum, Kec. Pulau Yerui, Kabupaten Kepulauan Yapen, Papua","Kabupaten Kepulauan Yapen, Papua",PAPUA,,Indonesia,,-1.4917207,135.3358163,https://maps.google.com/?cid=0x0:0x8dd39c8b381056cc
