Category,Real Category,Business Name,Address,City,State,Postal Code,Country,Phone,Latitude,Longitude,Map Link
perumahan,perumahan,Rumah Y Beroperay,"G88P+PH, Miosnum, Kec. Pulau Yerui, Kabupaten Kepulauan Yapen, Papua","Kabupaten Kepulauan Yapen, Papua",PAPUA,,Indonesia,,-1.483176,135.336402,https://maps.google.com/?cid=0x0:0x9cf4373b02d9f675
perumahan,Perhimpunan Pengembang Perumahan,Wetandei,"7QRG+6JF, Warabori, Yapen Bar., Kabupaten Kepulauan Yapen, Papua 98253","Warabori, Yapen Bar., Kabupaten Kepulauan Yapen",PAPUA,98253.0,Indonesia,,-1.7094386,135.7765543,https://maps.google.com/?cid=0x0:0x13f9f4b51ed8ea5f
perumahan,perumahan,Papua 98253,"Kabupaten Kepulauan Yapen, Papua","Kabupaten Kepulauan Yapen, Papua",PAPUA,,Indonesia,,-1.692705,135.7710559,https://maps.google.com/?cid=0x0:0xe712ef09824c8ae8
perumahan,Komplek perumahan,Ruko bosswill Jawara,"Sawoi Marau Street, Yapen Bar., Kabupaten Kepulauan Yapen, Papua 98253","Yapen Bar., Kabupaten Kepulauan Yapen",PAPUA,98253.0,Indonesia,,-1.697108,135.7337102,https://maps.google.com/?cid=0x0:0xf4bf858922cd94f1
perumahan,Komplek perumahan,Kampung Aryobu,"83Q7+R49, Karawi, Distrik Windesi, Kabupaten Kepulauan Yapen, Papua","Kabupaten Kepulauan Yapen, Papua",PAPUA,,Indonesia,81340986519.0,-1.6604572,136.0628669,https://maps.google.com/?cid=0x0:0xa399d2b183ceeebd
perumahan,Pembangunan Perumahan,Rumah Bpk Yap May,"6WH5+G2, Sasawa, Kabupaten Kepulauan Yapen, Papua","Kabupaten Kepulauan Yapen, Papua",PAPUA,,Indonesia,,-1.7711801,135.907539,https://maps.google.com/?cid=0x0:0xfb24c1924d335fc4
perumahan,Pembangunan Perumahan,Kampung woredua,"6VFW+FR9, Sasawa, Yapen Bar., Kabupaten Kepulauan Yapen, Papua","Kabupaten Kepulauan Yapen, Papua",PAPUA,,Indonesia,,-1.7763318,135.8971037,https://maps.google.com/?cid=0x0:0xb6dec9355798e0fe
perumahan,Perhimpunan Pengembang Perumahan,Wooi,"9F77+9P2, Distrik Wonawa, Kabupaten Kepulauan Yapen, Papua","Kabupaten Kepulauan Yapen, Papua",PAPUA,,Indonesia,,-1.636623,135.4642639,https://maps.google.com/?cid=0x0:0x2ecff9646aab93b8
perumahan,Pembangunan Perumahan,Sasawa,"6W4Q+W2, Sasawa, Kabupaten Kepulauan Yapen, Papua","Kabupaten Kepulauan Yapen, Papua",PAPUA,,Indonesia,,-1.7927058,135.9375983,https://maps.google.com/?cid=0x0:0x93314fdd5e369895
perumahan,Perhimpunan Pengembang Perumahan,Tanah Marau Wombaibabo,"Warabori, Yapen Bar., Kabupaten Kepulauan Yapen, Papua","Kabupaten Kepulauan Yapen, Papua",PAPUA,,Indonesia,,-1.6969005,135.7338507,https://maps.google.com/?cid=0x0:0x9b989a2b00163b5e
perumahan,Komplek perumahan,ANDEI,"6W43+M3, Andei, Kabupaten Kepulauan Yapen, Papua","Kabupaten Kepulauan Yapen, Papua",PAPUA,,Indonesia,,-1.7933125,135.9026875,https://maps.google.com/?cid=0x0:0x2da2155cf196c642
perumahan,perumahan,R. A.Marahole,"G87M+48, Miosnum, Kec. Pulau Yerui, Kabupaten Kepulauan Yapen, Papua","Kabupaten Kepulauan Yapen, Papua",PAPUA,,Indonesia,,-1.4871953,135.3332735,https://maps.google.com/?cid=0x0:0x7bd762ec82e32c9e
perumahan,Komplek perumahan,Kampung Serewen,"9P7H+G3M, Rarisi, Distrik Poom, Kabupaten Kepulauan Yapen, Papua","Kabupaten Kepulauan Yapen, Papua",PAPUA,,Indonesia,,-1.6361594,135.7276605,https://maps.google.com/?cid=0x0:0x59908990e5f5fdfc
perumahan,Komplek perumahan,Yermias Ansanai,"6WJ4+3G, Sasawa, Kabupaten Kepulauan Yapen, Papua","Kabupaten Kepulauan Yapen, Papua",PAPUA,,Indonesia,,-1.7698461,135.906275,https://maps.google.com/?cid=0x0:0x6da244c561bbcf74
perumahan,perumahan,Papua 98211,"Kec. Yapen Sel., Kabupaten Kepulauan Yapen, Papua","Kabupaten Kepulauan Yapen, Papua",PAPUA,,Indonesia,,-1.7995067,136.2570137,https://maps.google.com/?cid=0x0:0xb2b850cfde1935fd
perumahan,Komplek perumahan,Perumahan Zainuddin,"46MR+96M, Jl. Sudirman, Anatorei, Kec. Yapen Sel., Kabupaten Kepulauan Yapen, Papua 98213","Jl. Sudirman, Anatorei, Kec. Yapen Sel., Kabupaten Kepulauan Yapen",PAPUA,98213.0,Indonesia,,-1.866699,136.2399339,https://maps.google.com/?cid=0x0:0x3f413bcb0caf459
perumahan,Perhimpunan Pengembang Perumahan,TUTUMARAI KAMPUNG YAPAN,"562J+RVP, Yapan, Kec. Yapen Sel., Kabupaten Kepulauan Yapen, Papua 98214","Yapan, Kec. Yapen Sel., Kabupaten Kepulauan Yapen",PAPUA,98214.0,Indonesia,,-1.8479123,136.2322155,https://maps.google.com/?cid=0x0:0x69bb1206ba1fecc0
perumahan,Komplek perumahan,Kampung Kandowarira,"46RR+QV7, Jl.Manamanamui Kando, Mantembu, Kec. Yapen Sel., Kabupaten Kepulauan Yapen, Papua 98211","Jl.Manamanamui Kando, Mantembu, Kec. Yapen Sel., Kabupaten Kepulauan Yapen",PAPUA,98211.0,Indonesia,,-1.8587264,136.2425632,https://maps.google.com/?cid=0x0:0x3123530ff649d3b8
perumahan,Perhimpunan Pengembang Perumahan,rumah gaby,"47C3+J87, Warari, Kec. Yapen Sel., Kabupaten Kepulauan Yapen, Papua","Kabupaten Kepulauan Yapen, Papua",PAPUA,,Indonesia,,-1.8784509,136.2532903,https://maps.google.com/?cid=0x0:0x1cce916e93cb4a78
perumahan,Komplek perumahan,RUMAH BP TUA,"46GV+8M4, Gg. KPR, Famboaman, Kec. Yapen Sel., Kabupaten Kepulauan Yapen, Papua 98213","Gg. KPR, Famboaman, Kec. Yapen Sel., Kabupaten Kepulauan Yapen",PAPUA,98213.0,Indonesia,,-1.8742322,136.2441892,https://maps.google.com/?cid=0x0:0x782238e90bdccec3
perumahan,Komplek perumahan,Karawaeni,"47C5+G3, Warari, Kec. Yapen Sel., Kabupaten Kepulauan Yapen, Papua 98211","Warari, Kec. Yapen Sel., Kabupaten Kepulauan Yapen",PAPUA,98211.0,Indonesia,,-1.8785707,136.2577481,https://maps.google.com/?cid=0x0:0xcb1fa6bee1428ed3
perumahan,perumahan,Rumah Dg Ngalle,"46MQ+RWG, Anatorei, Kec. Yapen Sel., Kabupaten Kepulauan Yapen, Papua 98213","Anatorei, Kec. Yapen Sel., Kabupaten Kepulauan Yapen",PAPUA,98213.0,Indonesia,,-1.8654371,136.2397875,https://maps.google.com/?cid=0x0:0xb9ce423a7edd6a65
perumahan,Pembangunan Perumahan,Homey of Dedy Serui,"47C3+MX7, Warari, Kec. Yapen Sel., Kabupaten Kepulauan Yapen, Papua","Kabupaten Kepulauan Yapen, Papua",PAPUA,,Indonesia,,-1.8783483,136.2549132,https://maps.google.com/?cid=0x0:0xb9f43ab7036d162e
perumahan,Komplek perumahan,Ida home,"46MP+F8Q, Wainakawini, Serui Kota, Kec. Yapen Sel., Kabupaten Kepulauan Yapen, Papua","Kabupaten Kepulauan Yapen, Papua",PAPUA,,Indonesia,,-1.8662929,136.2358674,https://maps.google.com/?cid=0x0:0x89808f34615a5d2
perumahan,Komplek perumahan,Perumahan pertamina rumah cet hijau,"46FG+Q9C, Jalan, Mariaderi, Kec. Yapen Sel., Kabupaten Kepulauan Yapen, Papua","Kabupaten Kepulauan Yapen, Papua",PAPUA,,Indonesia,,-1.8755519,136.2259,https://maps.google.com/?cid=0x0:0x6f28db4b70315ad2
perumahan,Komplek perumahan,I LOVE YOU,"46HQ+H3G, Serui Kota, Kec. Yapen Sel., Kabupaten Kepulauan Yapen, Papua 98213","Serui Kota, Kec. Yapen Sel., Kabupaten Kepulauan Yapen",PAPUA,98213.0,Indonesia,81244099188.0,-1.8710573,136.2377053,https://maps.google.com/?cid=0x0:0xf0c53bffa680f2e3
perumahan,Perhimpunan Pengembang Perumahan,Rumah A.sembiring/ E. Sitepu,"46CV+H64, Jl. Mangga, Serui Jaya, Kec. Yapen Sel., Kabupaten Kepulauan Yapen, Papua 98213","Jl. Mangga, Serui Jaya, Kec. Yapen Sel., Kabupaten Kepulauan Yapen",PAPUA,98213.0,Indonesia,,-1.878129,136.24301,https://maps.google.com/?cid=0x0:0xd554e5e9e073e925
perumahan,Pembangunan Perumahan,PONDOK NATAL KUDUS PAM JEMAAT GKI SION MANTEMBU,"562P+357, Mantembu, Kec. Yapen Sel., Kabupaten Kepulauan Yapen, Papua 98214","Mantembu, Kec. Yapen Sel., Kabupaten Kepulauan Yapen",PAPUA,98214.0,Indonesia,,-1.8498435,136.2354199,https://maps.google.com/?cid=0x0:0x4c9d3f98d0bb32fe
perumahan,perumahan,Papua 98212,"Warari, Kec. Yapen Sel., Kabupaten Kepulauan Yapen, Papua","Kabupaten Kepulauan Yapen, Papua",PAPUA,,Indonesia,,-1.8764518,136.2546196,https://maps.google.com/?cid=0x0:0x297f020ff7113bd
perumahan,Komplek perumahan,Perumahan KPR,"46GW+82Q, Frans Kaisiepo Yapen Selatan, Jl. Frans Kaisiepo, Famboaman, Yapen, Kabupaten Kepulauan Yapen, Papua 98213","Frans Kaisiepo Yapen Selatan, Jl. Frans Kaisiepo, Famboaman, Yapen, Kabupaten Kepulauan Yapen",PAPUA,98213.0,Indonesia,,-1.8741624,136.245108,https://maps.google.com/?cid=0x0:0xfddc6bd7236f381
perumahan,Komplek perumahan,Kompleks K2,"47G2+HX9, Warari, Kec. Yapen Sel., Kabupaten Kepulauan Yapen, Papua 98212","Warari, Kec. Yapen Sel., Kabupaten Kepulauan Yapen",PAPUA,98212.0,Indonesia,,-1.873576,136.2524694,https://maps.google.com/?cid=0x0:0x803ccb06cb7b4362
perumahan,Komplek perumahan,Perumahan Zainuddin,"46MR+96M, Jl. Sudirman, Anatorei, Kec. Yapen Sel., Kabupaten Kepulauan Yapen, Papua 98213","Jl. Sudirman, Anatorei, Kec. Yapen Sel., Kabupaten Kepulauan Yapen",PAPUA,98213.0,Indonesia,,-1.866699,136.2399339,https://maps.google.com/?cid=0x0:0x3f413bcb0caf459
perumahan,Perhimpunan Pengembang Perumahan,rumah gaby,"47C3+J87, Warari, Kec. Yapen Sel., Kabupaten Kepulauan Yapen, Papua","Kabupaten Kepulauan Yapen, Papua",PAPUA,,Indonesia,,-1.8784509,136.2532903,https://maps.google.com/?cid=0x0:0x1cce916e93cb4a78
perumahan,Perhimpunan Pengembang Perumahan,RUMAH SAYA,"46GV+FV3, Gg. I KPR, Famboaman, Kec. Yapen Sel., Kabupaten Kepulauan Yapen, Papua 98213","Gg. I KPR, Famboaman, Kec. Yapen Sel., Kabupaten Kepulauan Yapen",PAPUA,98213.0,Indonesia,,-1.8738629,136.2446862,https://maps.google.com/?cid=0x0:0xbe378fdf8c289f10
perumahan,Komplek perumahan,RUMAH BP TUA,"46GV+8M4, Gg. KPR, Famboaman, Kec. Yapen Sel., Kabupaten Kepulauan Yapen, Papua 98213","Gg. KPR, Famboaman, Kec. Yapen Sel., Kabupaten Kepulauan Yapen",PAPUA,98213.0,Indonesia,,-1.8742322,136.2441892,https://maps.google.com/?cid=0x0:0x782238e90bdccec3
perumahan,perumahan,keluarga. W. Bisai,"469V+GXR, JL NANGKA KAMPUNG HARAPAN, Serui Jaya, Kec. Yapen Sel., Kabupaten Kepulauan Yapen, Papua 98021","JL NANGKA KAMPUNG HARAPAN, Serui Jaya, Kec. Yapen Sel., Kabupaten Kepulauan Yapen",PAPUA,98021.0,Indonesia,81227754043.0,-1.881196,136.2454234,https://maps.google.com/?cid=0x0:0xa76e116da10c831f
perumahan,Pembangunan Perumahan,WINNY HOME,"46FX+43G, Warari, Kec. Yapen Sel., Kabupaten Kepulauan Yapen, Papua 98213","Warari, Kec. Yapen Sel., Kabupaten Kepulauan Yapen",PAPUA,98213.0,Indonesia,,-1.8774071,136.2476503,https://maps.google.com/?cid=0x0:0xa008ec56b17b6fa6
perumahan,Komplek perumahan,Kel. M. Mambai,"47G3+H7V, Warari, Kec. Yapen Sel., Kabupaten Kepulauan Yapen, Papua 98212","Warari, Kec. Yapen Sel., Kabupaten Kepulauan Yapen",PAPUA,98212.0,Indonesia,,-1.8735102,136.2531631,https://maps.google.com/?cid=0x0:0x9a7d1a13b09a0d01
perumahan,perumahan,Yanti,"46HV+49W, Jl. KPR, Famboaman, Kec. Yapen Sel., Kabupaten Kepulauan Yapen, Papua 98213","Jl. KPR, Famboaman, Kec. Yapen Sel., Kabupaten Kepulauan Yapen",PAPUA,98213.0,Indonesia,,-1.8721252,136.2434447,https://maps.google.com/?cid=0x0:0x2d4fa268689afbfa
perumahan,Balai masyarakat,Warari,"47F2+J67, Warari, Kec. Yapen Sel., Kabupaten Kepulauan Yapen, Papua","Kabupaten Kepulauan Yapen, Papua",PAPUA,,Indonesia,,-1.8759591,136.2505608,https://maps.google.com/?cid=0x0:0xc77ea01a921d4b04
perumahan,Komplek perumahan,Keluarga.marani,"467W+VQV, Serui Jaya, Kec. Yapen Sel., Kabupaten Kepulauan Yapen, Papua","Kabupaten Kepulauan Yapen, Papua",PAPUA,,Indonesia,81377382169.0,-1.8852557,136.2469094,https://maps.google.com/?cid=0x0:0x4cc86af6ae30a980
perumahan,Komplek perumahan,H. Yusran Subair,"46GV+QVM, Famboaman, Kec. Yapen Sel., Kabupaten Kepulauan Yapen, Papua 98213","Famboaman, Kec. Yapen Sel., Kabupaten Kepulauan Yapen",PAPUA,98213.0,Indonesia,,-1.8730496,136.2446699,https://maps.google.com/?cid=0x0:0x5c47b8a68a3f1448
perumahan,perumahan,Papua 98213,"Kec. Yapen Sel., Kabupaten Kepulauan Yapen, Papua","Kabupaten Kepulauan Yapen, Papua",PAPUA,,Indonesia,,-1.8722668,136.2354713,https://maps.google.com/?cid=0x0:0xf81978a1f9fcf655
perumahan,Komplek perumahan,Perumahan KPR,"46GW+82Q, Frans Kaisiepo Yapen Selatan, Jl. Frans Kaisiepo, Famboaman, Yapen, Kabupaten Kepulauan Yapen, Papua 98213","Frans Kaisiepo Yapen Selatan, Jl. Frans Kaisiepo, Famboaman, Yapen, Kabupaten Kepulauan Yapen",PAPUA,98213.0,Indonesia,,-1.8741624,136.245108,https://maps.google.com/?cid=0x0:0xfddc6bd7236f381
perumahan,Komplek perumahan,Perumahan Zainuddin,"46MR+96M, Jl. Sudirman, Anatorei, Kec. Yapen Sel., Kabupaten Kepulauan Yapen, Papua 98213","Jl. Sudirman, Anatorei, Kec. Yapen Sel., Kabupaten Kepulauan Yapen",PAPUA,98213.0,Indonesia,,-1.866699,136.2399339,https://maps.google.com/?cid=0x0:0x3f413bcb0caf459
perumahan,Perhimpunan Pengembang Perumahan,RUMAH SAYA,"46GV+FV3, Gg. I KPR, Famboaman, Kec. Yapen Sel., Kabupaten Kepulauan Yapen, Papua 98213","Gg. I KPR, Famboaman, Kec. Yapen Sel., Kabupaten Kepulauan Yapen",PAPUA,98213.0,Indonesia,,-1.8738629,136.2446862,https://maps.google.com/?cid=0x0:0xbe378fdf8c289f10
perumahan,Komplek perumahan,RUMAH BP TUA,"46GV+8M4, Gg. KPR, Famboaman, Kec. Yapen Sel., Kabupaten Kepulauan Yapen, Papua 98213","Gg. KPR, Famboaman, Kec. Yapen Sel., Kabupaten Kepulauan Yapen",PAPUA,98213.0,Indonesia,,-1.8742322,136.2441892,https://maps.google.com/?cid=0x0:0x782238e90bdccec3
perumahan,Komplek perumahan,FatinZainHouse,"46HQ+H23, Jl. Sumatera, Serui Kota, Kec. Yapen Sel., Kabupaten Kepulauan Yapen, Papua 98213","Jl. Sumatera, Serui Kota, Kec. Yapen Sel., Kabupaten Kepulauan Yapen",PAPUA,98213.0,Indonesia,,-1.8711002,136.237538,https://maps.google.com/?cid=0x0:0x62f5814b68e64199
perumahan,Perumahan,Padat karya,"46GM+JPF, Serui Kota, Kec. Yapen Sel., Kabupaten Kepulauan Yapen, Papua 98213","Serui Kota, Kec. Yapen Sel., Kabupaten Kepulauan Yapen",PAPUA,98213.0,Indonesia,,-1.8734214,136.2343309,https://maps.google.com/?cid=0x0:0x8f84b51cdb917623
perumahan,Komplek perumahan,Anggafit house,"46HV+R7P, Jl. KPR, Famboaman, Kec. Yapen Sel., Kabupaten Kepulauan Yapen, Papua 98213","Jl. KPR, Famboaman, Kec. Yapen Sel., Kabupaten Kepulauan Yapen",PAPUA,98213.0,Indonesia,85244580661.0,-1.8704126,136.2431903,https://maps.google.com/?cid=0x0:0x7591e2df1c38e3bd
perumahan,perumahan,Rumah Dg Ngalle,"46MQ+RWG, Anatorei, Kec. Yapen Sel., Kabupaten Kepulauan Yapen, Papua 98213","Anatorei, Kec. Yapen Sel., Kabupaten Kepulauan Yapen",PAPUA,98213.0,Indonesia,,-1.8654371,136.2397875,https://maps.google.com/?cid=0x0:0xb9ce423a7edd6a65
perumahan,perumahan,Yanti,"46HV+49W, Jl. KPR, Famboaman, Kec. Yapen Sel., Kabupaten Kepulauan Yapen, Papua 98213","Jl. KPR, Famboaman, Kec. Yapen Sel., Kabupaten Kepulauan Yapen",PAPUA,98213.0,Indonesia,,-1.8721252,136.2434447,https://maps.google.com/?cid=0x0:0x2d4fa268689afbfa
perumahan,Komplek perumahan,Bunga86,"46CV+WVH, Jl. Mangga, Serui Jaya, Kec. Yapen Sel., Kabupaten Kepulauan Yapen, Papua 98213","Jl. Mangga, Serui Jaya, Kec. Yapen Sel., Kabupaten Kepulauan Yapen",PAPUA,98213.0,Indonesia,,-1.8776946,136.2447347,https://maps.google.com/?cid=0x0:0xc02f697566ecff6c
perumahan,Komplek perumahan,Elsa menanti,"46GW+95R, Serui Kota, Kec. Yapen Sel., Kabupaten Kepulauan Yapen, Papua 98213","Serui Kota, Kec. Yapen Sel., Kabupaten Kepulauan Yapen",PAPUA,98213.0,Indonesia,,-1.8740022,136.2453768,https://maps.google.com/?cid=0x0:0xf7c783aaf655dc00
perumahan,Komplek perumahan,I LOVE YOU,"46HQ+H3G, Serui Kota, Kec. Yapen Sel., Kabupaten Kepulauan Yapen, Papua 98213","Serui Kota, Kec. Yapen Sel., Kabupaten Kepulauan Yapen",PAPUA,98213.0,Indonesia,81244099188.0,-1.8710573,136.2377053,https://maps.google.com/?cid=0x0:0xf0c53bffa680f2e3
perumahan,Komplek perumahan,Rumah wahidmk,"46CM+CQ5, Serui Kota, Kec. Yapen Sel., Kabupaten Kepulauan Yapen, Papua 98213","Serui Kota, Kec. Yapen Sel., Kabupaten Kepulauan Yapen",PAPUA,98213.0,Indonesia,,-1.8786134,136.2349759,https://maps.google.com/?cid=0x0:0x4be117b2278c1db7
perumahan,Perhimpunan Pengembang Perumahan,TUTUMARAI KAMPUNG YAPAN,"562J+RVP, Yapan, Kec. Yapen Sel., Kabupaten Kepulauan Yapen, Papua 98214","Yapan, Kec. Yapen Sel., Kabupaten Kepulauan Yapen",PAPUA,98214.0,Indonesia,,-1.8479123,136.2322155,https://maps.google.com/?cid=0x0:0x69bb1206ba1fecc0
perumahan,Komplek perumahan,Perumahan KPR,"46GW+82Q, Frans Kaisiepo Yapen Selatan, Jl. Frans Kaisiepo, Famboaman, Yapen, Kabupaten Kepulauan Yapen, Papua 98213","Frans Kaisiepo Yapen Selatan, Jl. Frans Kaisiepo, Famboaman, Yapen, Kabupaten Kepulauan Yapen",PAPUA,98213.0,Indonesia,,-1.8741624,136.245108,https://maps.google.com/?cid=0x0:0xfddc6bd7236f381
perumahan,perumahan,Papua 98214,"Yapan, Kec. Yapen Sel., Kabupaten Kepulauan Yapen, Papua","Kabupaten Kepulauan Yapen, Papua",PAPUA,,Indonesia,,-1.8312862,136.2426511,https://maps.google.com/?cid=0x0:0x80248e4590702d10
perumahan,Pembangunan Perumahan,PONDOK NATAL KUDUS PAM JEMAAT GKI SION MANTEMBU,"562P+357, Mantembu, Kec. Yapen Sel., Kabupaten Kepulauan Yapen, Papua 98214","Mantembu, Kec. Yapen Sel., Kabupaten Kepulauan Yapen",PAPUA,98214.0,Indonesia,,-1.8498435,136.2354199,https://maps.google.com/?cid=0x0:0x4c9d3f98d0bb32fe
perumahan,Komplek perumahan,Perumahan Zainuddin,"46MR+96M, Jl. Sudirman, Anatorei, Kec. Yapen Sel., Kabupaten Kepulauan Yapen, Papua 98213","Jl. Sudirman, Anatorei, Kec. Yapen Sel., Kabupaten Kepulauan Yapen",PAPUA,98213.0,Indonesia,,-1.866699,136.2399339,https://maps.google.com/?cid=0x0:0x3f413bcb0caf459
perumahan,perumahan,Rumah Dg Ngalle,"46MQ+RWG, Anatorei, Kec. Yapen Sel., Kabupaten Kepulauan Yapen, Papua 98213","Anatorei, Kec. Yapen Sel., Kabupaten Kepulauan Yapen",PAPUA,98213.0,Indonesia,,-1.8654371,136.2397875,https://maps.google.com/?cid=0x0:0xb9ce423a7edd6a65
perumahan,Komplek perumahan,RUMAH KM.KAYAI,"46PQ+F58, Anatorei, Kec. Yapen Sel., Kabupaten Kepulauan Yapen, Papua 98211","Anatorei, Kec. Yapen Sel., Kabupaten Kepulauan Yapen",PAPUA,98211.0,Indonesia,,-1.8641791,136.2372118,https://maps.google.com/?cid=0x0:0x65e8c873ec578409
perumahan,Pembangunan Perumahan,SULA,"46QP+P66, Mantembu, Kec. Yapen Sel., Kabupaten Kepulauan Yapen, Papua 98211","Mantembu, Kec. Yapen Sel., Kabupaten Kepulauan Yapen",PAPUA,98211.0,Indonesia,,-1.8617031,136.2359384,https://maps.google.com/?cid=0x0:0xf2a8154dc2ab446d
perumahan,Komplek perumahan,Kalvin,"46PQ+JVV, Anatorei, Kec. Yapen Sel., Kabupaten Kepulauan Yapen, Papua 98211","Anatorei, Kec. Yapen Sel., Kabupaten Kepulauan Yapen",PAPUA,98211.0,Indonesia,,-1.8628333,136.2402551,https://maps.google.com/?cid=0x0:0x1522b9b0ed584052
perumahan,Komplek perumahan,Poli,"46MW+R2V, Anatorei, Kec. Yapen Sel., Kabupaten Kepulauan Yapen, Papua","Kabupaten Kepulauan Yapen, Papua",PAPUA,,Indonesia,,-1.865396,136.2450446,https://maps.google.com/?cid=0x0:0x47aa19278494b0a7
perumahan,Komplek perumahan,Peternak ayam Telur,"46WP+65, Anatorei, Kec. Yapen Sel., Kabupaten Kepulauan Yapen, Papua","Kabupaten Kepulauan Yapen, Papua",PAPUA,,Indonesia,,-1.8544375,136.2354375,https://maps.google.com/?cid=0x0:0x6e3a6c68a8caf84a
perumahan,Komplek perumahan,Ida home,"46MP+F8Q, Wainakawini, Serui Kota, Kec. Yapen Sel., Kabupaten Kepulauan Yapen, Papua","Kabupaten Kepulauan Yapen, Papua",PAPUA,,Indonesia,,-1.8662929,136.2358674,https://maps.google.com/?cid=0x0:0x89808f34615a5d2
perumahan,Komplek perumahan,J.Imbiri's Home sweet home,"46QR+WJ5 kamp.kandowarira(depan GBI Mawar Sharon, Mantembu, Kec. Yapen Sel., Kabupaten Kepulauan Yapen, Papua 98211","Mantembu, Kec. Yapen Sel., Kabupaten Kepulauan Yapen",PAPUA,98211.0,Indonesia,,-1.8607085,136.2416274,https://maps.google.com/?cid=0x0:0xb7487bb2e9c8d480
perumahan,Komplek perumahan,Perumahan pertamina rumah cet hijau,"46FG+Q9C, Jalan, Mariaderi, Kec. Yapen Sel., Kabupaten Kepulauan Yapen, Papua","Kabupaten Kepulauan Yapen, Papua",PAPUA,,Indonesia,,-1.8755519,136.2259,https://maps.google.com/?cid=0x0:0x6f28db4b70315ad2
perumahan,perumahan,Kec. Yapen Sel.,"Kabupaten Kepulauan Yapen, Papua","Kabupaten Kepulauan Yapen, Papua",PAPUA,,Indonesia,,-1.884104,136.2418748,https://maps.google.com/?cid=0x0:0x3f81bf02f4d4d5c7
perumahan,Komplek perumahan,RUMAH GAMAI,"467R+66C, Pasir Hitam, Kec. Yapen Sel., Kabupaten Kepulauan Yapen, Papua 98215","Pasir Hitam, Kec. Yapen Sel., Kabupaten Kepulauan Yapen",PAPUA,98215.0,Indonesia,,-1.887909,136.2394538,https://maps.google.com/?cid=0x0:0x5176bb10536b862c
perumahan,Komplek perumahan,Perumahan KPR,"46GW+82Q, Frans Kaisiepo Yapen Selatan, Jl. Frans Kaisiepo, Famboaman, Yapen, Kabupaten Kepulauan Yapen, Papua 98213","Frans Kaisiepo Yapen Selatan, Jl. Frans Kaisiepo, Famboaman, Yapen, Kabupaten Kepulauan Yapen",PAPUA,98213.0,Indonesia,,-1.8741624,136.245108,https://maps.google.com/?cid=0x0:0xfddc6bd7236f381
perumahan,perumahan,keluarga. W. Bisai,"469V+GXR, JL NANGKA KAMPUNG HARAPAN, Serui Jaya, Kec. Yapen Sel., Kabupaten Kepulauan Yapen, Papua 98021","JL NANGKA KAMPUNG HARAPAN, Serui Jaya, Kec. Yapen Sel., Kabupaten Kepulauan Yapen",PAPUA,98021.0,Indonesia,81227754043.0,-1.881196,136.2454234,https://maps.google.com/?cid=0x0:0xa76e116da10c831f
perumahan,Komplek perumahan,VI HOME,"468R+9MX, Jl. Sam Ratulangi No.1, Serui Kota, Kec. Yapen Sel., Kabupaten Kepulauan Yapen, Papua 98215","Jl. Sam Ratulangi No.1, Serui Kota, Kec. Yapen Sel., Kabupaten Kepulauan Yapen",PAPUA,98215.0,Indonesia,,-1.8830497,136.2418054,https://maps.google.com/?cid=0x0:0xe39e1e0e29651195
perumahan,Komplek perumahan,MayaHome,"469G+QQH, Mariaderi, Kec. Yapen Sel., Kabupaten Kepulauan Yapen, Papua 98215","Mariaderi, Kec. Yapen Sel., Kabupaten Kepulauan Yapen",PAPUA,98215.0,Indonesia,,-1.880566,136.2269779,https://maps.google.com/?cid=0x0:0xe843f36cb1672669
perumahan,Komplek perumahan,Rumah saya,"467Q+PRX, Serui Kota, Kec. Yapen Sel., Kabupaten Kepulauan Yapen, Papua 98215","Serui Kota, Kec. Yapen Sel., Kabupaten Kepulauan Yapen",PAPUA,98215.0,Indonesia,,-1.8856404,136.2396034,https://maps.google.com/?cid=0x0:0xf5e479a302b57b89
perumahan,Perhimpunan Pengembang Perumahan,Ys,"Jl. Padat Karya No.7, Tarau, Kec. Yapen Sel., Kabupaten Kepulauan Yapen, Papua 98215","Tarau, Kec. Yapen Sel., Kabupaten Kepulauan Yapen",PAPUA,98215.0,Indonesia,,-1.8849759,136.2382616,https://maps.google.com/?cid=0x0:0xa654c94ed2dd5d48
perumahan,Komplek perumahan,Iksan gacorr punya rmh,"468V+8X9, Serui Kota, Kec. Yapen Sel., Kabupaten Kepulauan Yapen, Papua 98215","Serui Kota, Kec. Yapen Sel., Kabupaten Kepulauan Yapen",PAPUA,98215.0,Indonesia,,-1.8842695,136.2456423,https://maps.google.com/?cid=0x0:0x3a9f7cb368244c58
perumahan,Komplek perumahan,RUMAH BP TUA,"46GV+8M4, Gg. KPR, Famboaman, Kec. Yapen Sel., Kabupaten Kepulauan Yapen, Papua 98213","Gg. KPR, Famboaman, Kec. Yapen Sel., Kabupaten Kepulauan Yapen",PAPUA,98213.0,Indonesia,,-1.8742322,136.2441892,https://maps.google.com/?cid=0x0:0x782238e90bdccec3
perumahan,Komplek perumahan,RUMAH AINONG,"467M+5XG, Jl. Padat Karya, Tarau, Kec. Yapen Sel., Kabupaten Kepulauan Yapen, Papua 98215","Jl. Padat Karya, Tarau, Kec. Yapen Sel., Kabupaten Kepulauan Yapen",PAPUA,98215.0,Indonesia,,-1.8868802,136.2342503,https://maps.google.com/?cid=0x0:0x9ad0bdf946e44667
perumahan,Komplek perumahan,Kadiaman Keluarga Lukas Barangkea,"468W+WWW, Serui Jaya, Kec. Yapen Sel., Kabupaten Kepulauan Yapen, Papua 98215","Serui Jaya, Kec. Yapen Sel., Kabupaten Kepulauan Yapen",PAPUA,98215.0,Indonesia,,-1.8826458,136.2473399,https://maps.google.com/?cid=0x0:0x80e4d3ae3a0c2b36
perumahan,perumahan,rumah kel. mudumi,"468Q+C36, Jl. Padat Karya, Tarau, Kec. Yapen Sel., Kabupaten Kepulauan Yapen, Papua 98215","Jl. Padat Karya, Tarau, Kec. Yapen Sel., Kabupaten Kepulauan Yapen",PAPUA,98215.0,Indonesia,,-1.8839749,136.237651,https://maps.google.com/?cid=0x0:0x515143d584a2b13d
perumahan,Komplek perumahan,Rumah MeraHitam,"468P+JGP, Jl. Padat Karya, Tarau, Kec. Yapen Sel., Kabupaten Kepulauan Yapen, Papua 98215","Jl. Padat Karya, Tarau, Kec. Yapen Sel., Kabupaten Kepulauan Yapen",PAPUA,98215.0,Indonesia,82191459186.0,-1.883501,136.23631,https://maps.google.com/?cid=0x0:0x3ed0d2b2fc39064a
perumahan,perumahan,Distrik Yapen Timur,"Kabupaten Kepulauan Yapen, Papua","Kabupaten Kepulauan Yapen, Papua",PAPUA,,Indonesia,,-1.8231626,136.7603579,https://maps.google.com/?cid=0x0:0x8aa6062a086a2ccd
perumahan,Komplek perumahan,Kampung Baru,"5QW6+FWQ, Awunawai, Distrik Yapen Timur, Kabupaten Kepulauan Yapen, Papua 98252","Awunawai, Distrik Yapen Timur, Kabupaten Kepulauan Yapen",PAPUA,98252.0,Indonesia,,-1.803794,136.7623591,https://maps.google.com/?cid=0x0:0xbf8c7a79f5b63b89
perumahan,Komplek perumahan,Kompleks Cendana,"5QH2+W92, Awunawai, Distrik Yapen Timur, Kabupaten Kepulauan Yapen, Papua 98252","Awunawai, Distrik Yapen Timur, Kabupaten Kepulauan Yapen",PAPUA,98252.0,Indonesia,,-1.8202468,136.7508988,https://maps.google.com/?cid=0x0:0x93266cffe02bb976
perumahan,Komplek perumahan,Rumah Kel N. Bawawa,"5PJP+RP, Dawai, Distrik Yapen Timur, Kabupaten Kepulauan Yapen, Papua","Kabupaten Kepulauan Yapen, Papua",PAPUA,,Indonesia,,-1.8179496,136.7368036,https://maps.google.com/?cid=0x0:0xb8a7548dc5c75651
perumahan,Komplek perumahan,Awunawai,"5QH2+2JH, Dawai, Distrik Yapen Timur, Kabupaten Kepulauan Yapen, Papua 98252","Dawai, Distrik Yapen Timur, Kabupaten Kepulauan Yapen",PAPUA,98252.0,Indonesia,,-1.8224341,136.75069,https://maps.google.com/?cid=0x0:0x354a5533c4ccd73c
perumahan,Komplek perumahan,Barak shipping,"5PHW+FFW, Awunawai, Distrik Yapen Timur, Kabupaten Kepulauan Yapen, Papua 98252","Awunawai, Distrik Yapen Timur, Kabupaten Kepulauan Yapen",PAPUA,98252.0,Indonesia,,-1.8212665,136.7462173,https://maps.google.com/?cid=0x0:0xe62419ce93292b5c
perumahan,Komplek perumahan,Kompleks Gaharu,"5QG3+J4Q, Dawai, Distrik Yapen Timur, Kabupaten Kepulauan Yapen, Papua 98252","Dawai, Distrik Yapen Timur, Kabupaten Kepulauan Yapen",PAPUA,98252.0,Indonesia,,-1.8240342,136.7526583,https://maps.google.com/?cid=0x0:0xff4ef2c6e180f527
perumahan,Komplek perumahan,RUMAH MAMA SARAH SAMBER,"5PP5+94, Nunsembai, Distrik Yapen Timur, Kabupaten Kepulauan Yapen, Papua","Kabupaten Kepulauan Yapen, Papua",PAPUA,,Indonesia,,-1.8140731,136.7078574,https://maps.google.com/?cid=0x0:0x8d68ec1059024646
perumahan,Komplek perumahan,Kep yapen,"5QW6+FWQ, Awunawai, Distrik Yapen Timur, Kabupaten Kepulauan Yapen, Papua 98252","Awunawai, Distrik Yapen Timur, Kabupaten Kepulauan Yapen",PAPUA,98252.0,Indonesia,,-1.803794,136.7623591,https://maps.google.com/?cid=0x0:0x649dc54ba84d1e0
perumahan,Komplek perumahan,Barak e raya,"5PHW+GHH, Dawai, Distrik Yapen Timur, Kabupaten Kepulauan Yapen, Papua 98252","Dawai, Distrik Yapen Timur, Kabupaten Kepulauan Yapen",PAPUA,98252.0,Indonesia,,-1.8211907,136.7464881,https://maps.google.com/?cid=0x0:0x996547f959e0500b
perumahan,Komplek perumahan,Kali Yamanisi,"5JCG+HR9, Korombobi, Distrik Yapen Timur, Kabupaten Kepulauan Yapen, Papua 98252","Korombobi, Distrik Yapen Timur, Kabupaten Kepulauan Yapen",PAPUA,98252.0,Indonesia,,-1.8285912,136.6270967,https://maps.google.com/?cid=0x0:0x5550def7f27782a2
perumahan,Komplek perumahan,Kost Bpk. Adam Sudak,"5QP6+8GQ, Awunawai, Distrik Yapen Timur, Kabupaten Kepulauan Yapen, Papua 98252","Awunawai, Distrik Yapen Timur, Kabupaten Kepulauan Yapen",PAPUA,98252.0,Indonesia,,-1.8141502,136.7613473,https://maps.google.com/?cid=0x0:0x76908677297cc39d
perumahan,Perhimpunan Pengembang Perumahan,Muara Dayari,"4JPC+RVJ, Korombobi, Distrik Yapen Timur, Kabupaten Kepulauan Yapen, Papua 98252","Korombobi, Distrik Yapen Timur, Kabupaten Kepulauan Yapen",PAPUA,98252.0,Indonesia,,-1.8629211,136.6221477,https://maps.google.com/?cid=0x0:0xda11bc6099150fae
perumahan,Gereja,Pastori Imanuel Korombobi,"4JPF+6H, Korombobi, Distrik Yapen Timur, Kabupaten Kepulauan Yapen, Papua","Kabupaten Kepulauan Yapen, Papua",PAPUA,,Indonesia,,-1.864465,136.6238967,https://maps.google.com/?cid=0x0:0xcc1a8c0c7a2bdb1b
perumahan,Komplek perumahan,Kompleks Ransarnoni,"48WF+G4J, Menawi, Angkaisera, Kabupaten Kepulauan Yapen, Papua 98255","Menawi, Angkaisera, Kabupaten Kepulauan Yapen",PAPUA,98255.0,Indonesia,,-1.8536566,136.322779,https://maps.google.com/?cid=0x0:0x234f240a642cd8e0
perumahan,Komplek perumahan,Ibu Mara,"574X+P5J, Kontiunai, Angkaisera, Kabupaten Kepulauan Yapen, Papua","Kabupaten Kepulauan Yapen, Papua",PAPUA,,Indonesia,,-1.8437832,136.2973959,https://maps.google.com/?cid=0x0:0x88a093df466e3d83
perumahan,perumahan,Papua 98255,"Kabupaten Kepulauan Yapen, Papua","Kabupaten Kepulauan Yapen, Papua",PAPUA,,Indonesia,,-1.8086855,136.3240951,https://maps.google.com/?cid=0x0:0x438de2bf5d4cd8af
perumahan,Komplek perumahan,Rumah Bpk Y.B Kaiba,"48R6+7G6, Menawi, Angkaisera, Kabupaten Kepulauan Yapen, Papua 98255","Menawi, Angkaisera, Kabupaten Kepulauan Yapen",PAPUA,98255.0,Indonesia,,-1.8593439,136.3112553,https://maps.google.com/?cid=0x0:0x173c79439d25204
perumahan,Perhimpunan Pengembang Perumahan,Mandani,"48Q6+R94 Mandani, Menawi, Angkaisera, Kabupaten Kepulauan Yapen, Papua 98255","Menawi, Angkaisera, Kabupaten Kepulauan Yapen",PAPUA,98255.0,Indonesia,,-1.860478,136.310968,https://maps.google.com/?cid=0x0:0xf69cff6770439955
perumahan,Komplek perumahan,Kalimati Area,"574X+J6Q, Unnamed Road, Kontiunai, Angkaisera, Kabupaten Kepulauan Yapen, Papua 98255","Unnamed Road, Kontiunai, Angkaisera, Kabupaten Kepulauan Yapen",PAPUA,98255.0,Indonesia,,-1.8434143,136.2981228,https://maps.google.com/?cid=0x0:0xd73ab5cc45f15ab5
perumahan,Perhimpunan Pengembang Perumahan,Keluarga.Aronggear/Bonai,"48R6+8FM, Menawi, Angkaisera, Kabupaten Kepulauan Yapen, Papua 98255","Menawi, Angkaisera, Kabupaten Kepulauan Yapen",PAPUA,98255.0,Indonesia,,-1.8579355,136.3112753,https://maps.google.com/?cid=0x0:0x27af96ae9dcb7228
perumahan,Perhimpunan Pengembang Perumahan,rumah gaby,"47C3+J87, Warari, Kec. Yapen Sel., Kabupaten Kepulauan Yapen, Papua","Kabupaten Kepulauan Yapen, Papua",PAPUA,,Indonesia,,-1.8784509,136.2532903,https://maps.google.com/?cid=0x0:0x1cce916e93cb4a78
perumahan,Balai masyarakat,Warari,"47F2+J67, Warari, Kec. Yapen Sel., Kabupaten Kepulauan Yapen, Papua","Kabupaten Kepulauan Yapen, Papua",PAPUA,,Indonesia,,-1.8759591,136.2505608,https://maps.google.com/?cid=0x0:0xc77ea01a921d4b04
perumahan,Pembangunan Perumahan,Akom ( Amerika Kompleks ),"48Q6+XHM, Menawi, Angkaisera, Kabupaten Kepulauan Yapen, Papua 98255","Menawi, Angkaisera, Kabupaten Kepulauan Yapen",PAPUA,98255.0,Indonesia,81336226791.0,-1.8600283,136.3114167,https://maps.google.com/?cid=0x0:0xb46029c727187f06
perumahan,Komplek perumahan,Keluarga Marthen L Bonai,"48R6+26J, Jln. Ramainoty, Menawi, Angkaisera, Kabupaten Kepulauan Yapen, Papua 98255","Jln. Ramainoty, Menawi, Angkaisera, Kabupaten Kepulauan Yapen",PAPUA,98255.0,Indonesia,,-1.8601637,136.3107873,https://maps.google.com/?cid=0x0:0x47f969bcb8c9bdf1
perumahan,Perhimpunan Pengembang Perumahan,RUMAH SAYA,"46GV+FV3, Gg. I KPR, Famboaman, Kec. Yapen Sel., Kabupaten Kepulauan Yapen, Papua 98213","Gg. I KPR, Famboaman, Kec. Yapen Sel., Kabupaten Kepulauan Yapen",PAPUA,98213.0,Indonesia,,-1.8738629,136.2446862,https://maps.google.com/?cid=0x0:0xbe378fdf8c289f10
perumahan,Komplek perumahan,RELISTA,"48Q6+XH9, Roipi, Angkaisera, Kabupaten Kepulauan Yapen, Papua 98255","Roipi, Angkaisera, Kabupaten Kepulauan Yapen",PAPUA,98255.0,Indonesia,,-1.8600938,136.3114778,https://maps.google.com/?cid=0x0:0x474603378426c5dd
perumahan,Komplek perumahan,Sanayoka,"574X+P5J, Kontiunai, Angkaisera, Kabupaten Kepulauan Yapen, Papua","Kabupaten Kepulauan Yapen, Papua",PAPUA,,Indonesia,,-1.8439696,136.2973905,https://maps.google.com/?cid=0x0:0x453d7e00386bab16
perumahan,Komplek perumahan,Kampung Serewen,"9P7H+G3M, Rarisi, Distrik Poom, Kabupaten Kepulauan Yapen, Papua","Kabupaten Kepulauan Yapen, Papua",PAPUA,,Indonesia,,-1.6361594,135.7276605,https://maps.google.com/?cid=0x0:0x59908990e5f5fdfc
perumahan,perumahan,Papua 98254,"Kabupaten Kepulauan Yapen, Papua","Kabupaten Kepulauan Yapen, Papua",PAPUA,,Indonesia,,-1.668696,135.9229866,https://maps.google.com/?cid=0x0:0x786984f83d38aaec
perumahan,Komplek perumahan,Kampung Aryobu,"83Q7+R49, Karawi, Distrik Windesi, Kabupaten Kepulauan Yapen, Papua","Kabupaten Kepulauan Yapen, Papua",PAPUA,,Indonesia,81340986519.0,-1.6604572,136.0628669,https://maps.google.com/?cid=0x0:0xa399d2b183ceeebd
perumahan,Komplek perumahan,Wandimay,"8PWH+X93, Rarisi, Distrik Poom, Kabupaten Kepulauan Yapen, Papua","Kabupaten Kepulauan Yapen, Papua",PAPUA,,Indonesia,,-1.6526052,135.7284124,https://maps.google.com/?cid=0x0:0xb830709ec6643394
perumahan,Pembangunan Perumahan,Kampung Karawi,"72XP+VW6, Karawi, Distrik Windesi, Kabupaten Kepulauan Yapen, Papua","Kabupaten Kepulauan Yapen, Papua",PAPUA,,Indonesia,,-1.7003376,136.0372508,https://maps.google.com/?cid=0x0:0xccdb5d4d8ed242b6
perumahan,Perhimpunan Pengembang Perumahan,Distrik Windesi Kabupaten Kepulauan Yapen,"8WP5+3FX, Windesi, Distrik Windesi, Kabupaten Kepulauan Yapen, Papua 98254","Windesi, Distrik Windesi, Kabupaten Kepulauan Yapen",PAPUA,98254.0,Indonesia,,-1.6647504,135.9087226,https://maps.google.com/?cid=0x0:0xe4a8150ebce933da
perumahan,Komplek perumahan,Kampung Kairawi,"7VHJ+P3P, Kairawi, Yapen Bar., Kabupaten Kepulauan Yapen, Papua 98253","Kairawi, Yapen Bar., Kabupaten Kepulauan Yapen",PAPUA,98253.0,Indonesia,,-1.7206701,135.8802041,https://maps.google.com/?cid=0x0:0x59046114a91da090
perumahan,Perhimpunan Pengembang Perumahan,Wooi,"9F77+9P2, Distrik Wonawa, Kabupaten Kepulauan Yapen, Papua","Kabupaten Kepulauan Yapen, Papua",PAPUA,,Indonesia,,-1.636623,135.4642639,https://maps.google.com/?cid=0x0:0x2ecff9646aab93b8
perumahan,Perhimpunan Pengembang Perumahan,Tanah Marau Wombaibabo,"Warabori, Yapen Bar., Kabupaten Kepulauan Yapen, Papua","Kabupaten Kepulauan Yapen, Papua",PAPUA,,Indonesia,,-1.6969005,135.7338507,https://maps.google.com/?cid=0x0:0x9b989a2b00163b5e
perumahan,Perhimpunan Pengembang Perumahan,Kampung Wooi,"7F8M+2R, Kanaki, Kabupaten Kepulauan Yapen, Papua","Kabupaten Kepulauan Yapen, Papua",PAPUA,,Indonesia,,-1.7349296,135.4846169,https://maps.google.com/?cid=0x0:0xe78d2924cc315070
perumahan,perumahan,Distrik Poom,"Kabupaten Kepulauan Yapen, Papua","Kabupaten Kepulauan Yapen, Papua",PAPUA,,Indonesia,,-1.6286266,135.6921203,https://maps.google.com/?cid=0x0:0x1d3de8f5c26e31bc
perumahan,Praktisi Pengobatan Alternatif,Puskesmas Poom,"9MFR+7Q3, Poom II, Distrik Poom, Kabupaten Kepulauan Yapen, Papua","Kabupaten Kepulauan Yapen, Papua",PAPUA,,Indonesia,,-1.6268728,135.691929,https://maps.google.com/?cid=0x0:0xdbc567825dc23376
perumahan,Perhimpunan Pengembang Perumahan,Kampung Wooinap,"9F78+R8, Woinap, Distrik Wonawa, Kabupaten Kepulauan Yapen, Papua","Kabupaten Kepulauan Yapen, Papua",PAPUA,,Indonesia,,-1.6353953,135.465786,https://maps.google.com/?cid=0x0:0x4c4b38d2f5e7f698
perumahan,Komplek perumahan,Ruko bosswill Jawara,"Sawoi Marau Street, Yapen Bar., Kabupaten Kepulauan Yapen, Papua 98253","Yapen Bar., Kabupaten Kepulauan Yapen",PAPUA,98253.0,Indonesia,,-1.697108,135.7337102,https://maps.google.com/?cid=0x0:0xf4bf858922cd94f1
perumahan,Komplek perumahan,Ariepi 1,"534X+RW, Ariepi, Distrik Kosiwo, Kabupaten Kepulauan Yapen, Papua 98215","Ariepi, Distrik Kosiwo, Kabupaten Kepulauan Yapen",PAPUA,98215.0,Indonesia,,-1.8429614,136.0998883,https://maps.google.com/?cid=0x0:0xed4bc6cfb16a9eb5
perumahan,perumahan,Papua 98215,"Kabupaten Kepulauan Yapen, Papua","Kabupaten Kepulauan Yapen, Papua",PAPUA,,Indonesia,,-1.8017548,136.0944845,https://maps.google.com/?cid=0x0:0xd235688620f2534d
perumahan,Pembangunan Perumahan,Kampung Tatui,"44XJ+JPX, Tatui, Distrik Kosiwo, Kabupaten Kepulauan Yapen, Papua 98215","Tatui, Distrik Kosiwo, Kabupaten Kepulauan Yapen",PAPUA,98215.0,Indonesia,,-1.850876,136.1318718,https://maps.google.com/?cid=0x0:0x613341a8107520f8
perumahan,Kompleks Apartemen,Kabupaten yapen,"55FJ+M5G, Aromarea, Distrik Kosiwo, Kabupaten Kepulauan Yapen, Papua 98215","Aromarea, Distrik Kosiwo, Kabupaten Kepulauan Yapen",PAPUA,98215.0,Indonesia,,-1.8258062,136.1804618,https://maps.google.com/?cid=0x0:0x2c73604cb04eded
perumahan,perumahan,Pertigaan manainin,"65PH+F9M, Ambaidiru, Distrik Kosiwo, Kabupaten Kepulauan Yapen, Papua 98215","Ambaidiru, Distrik Kosiwo, Kabupaten Kepulauan Yapen",PAPUA,98215.0,Indonesia,,-1.7637875,136.1784219,https://maps.google.com/?cid=0x0:0x109c87142e880ccf
perumahan,Komplek perumahan,EL kompleks,"46CH+MM, Mariaderi, Kec. Yapen Sel., Kabupaten Kepulauan Yapen, Papua 98215","Mariaderi, Kec. Yapen Sel., Kabupaten Kepulauan Yapen",PAPUA,98215.0,Indonesia,,-1.8784935,136.229268,https://maps.google.com/?cid=0x0:0x2cb448aa8cf1b4bf
perumahan,Inspektur Tempat Tinggal,Victor Wayangka,"46G7+MWC, Jl. Meredei Serui, Serawandori, Distrik Kosiwo, Kabupaten Kepulauan Yapen, Papua 98215","Jl. Meredei Serui, Serawandori, Distrik Kosiwo, Kabupaten Kepulauan Yapen",PAPUA,98215.0,Indonesia,,-1.873333,136.2147415,https://maps.google.com/?cid=0x0:0x26781300d15fbb81
perumahan,Pembangunan Perumahan,Kanawa,"6XPQ+RR9, Kanawa, Distrik Kosiwo, Kabupaten Kepulauan Yapen, Papua","Kabupaten Kepulauan Yapen, Papua",PAPUA,,Indonesia,,-1.7629706,135.9896078,https://maps.google.com/?cid=0x0:0xc7e54f95b851aa34
perumahan,Komplek perumahan,RUMAH GAMAI,"467R+66C, Pasir Hitam, Kec. Yapen Sel., Kabupaten Kepulauan Yapen, Papua 98215","Pasir Hitam, Kec. Yapen Sel., Kabupaten Kepulauan Yapen",PAPUA,98215.0,Indonesia,,-1.887909,136.2394538,https://maps.google.com/?cid=0x0:0x5176bb10536b862c
perumahan,Komplek perumahan,Kos Ibu Abidin,"467P+J5X, Jl. Padat Karya, Tarau, Kec. Yapen Sel., Kabupaten Kepulauan Yapen, Papua 98215","Jl. Padat Karya, Tarau, Kec. Yapen Sel., Kabupaten Kepulauan Yapen",PAPUA,98215.0,Indonesia,,-1.885883,136.2354841,https://maps.google.com/?cid=0x0:0xc841b00e45b3e4c7
perumahan,Komplek perumahan,Kos Ibu Regi,"753C+69C, Belakang asrama putra, Rosbori, Distrik Windesi, Kabupaten Kepulauan Yapen, Papua","Kabupaten Kepulauan Yapen, Papua",PAPUA,,Indonesia,,-1.7469359,136.1709012,https://maps.google.com/?cid=0x0:0xb5b01c4dae12739c
perumahan,Komplek perumahan,Rumah Kos,"46HP+9QV, Jl. Sumatera, Serui Kota, Kec. Yapen Sel., Kabupaten Kepulauan Yapen, Papua 98211","Jl. Sumatera, Serui Kota, Kec. Yapen Sel., Kabupaten Kepulauan Yapen",PAPUA,98211.0,Indonesia,,-1.8715043,136.2369302,https://maps.google.com/?cid=0x0:0xe69235a22b81bd1d
perumahan,Komplek perumahan,Rumah saya,"467Q+PRX, Serui Kota, Kec. Yapen Sel., Kabupaten Kepulauan Yapen, Papua 98215","Serui Kota, Kec. Yapen Sel., Kabupaten Kepulauan Yapen",PAPUA,98215.0,Indonesia,,-1.8856404,136.2396034,https://maps.google.com/?cid=0x0:0xf5e479a302b57b89
perumahan,perumahan,rumah kel. mudumi,"468Q+C36, Jl. Padat Karya, Tarau, Kec. Yapen Sel., Kabupaten Kepulauan Yapen, Papua 98215","Jl. Padat Karya, Tarau, Kec. Yapen Sel., Kabupaten Kepulauan Yapen",PAPUA,98215.0,Indonesia,,-1.8839749,136.237651,https://maps.google.com/?cid=0x0:0x515143d584a2b13d
perumahan,Pembangunan Perumahan,Perumahan Baru (Lopi),"5G8X+JX8, Waita, Distrik Tlk. Ampimoi, Kabupaten Kepulauan Yapen, Papua","Kabupaten Kepulauan Yapen, Papua",PAPUA,,Indonesia,,-1.8334613,136.5499681,https://maps.google.com/?cid=0x0:0x76d25701fe1ffc86
perumahan,Komplek perumahan,Kompleks Cendana,"5QH2+W92, Awunawai, Distrik Yapen Timur, Kabupaten Kepulauan Yapen, Papua 98252","Awunawai, Distrik Yapen Timur, Kabupaten Kepulauan Yapen",PAPUA,98252.0,Indonesia,,-1.8202468,136.7508988,https://maps.google.com/?cid=0x0:0x93266cffe02bb976
perumahan,perumahan,Papua 98252,"Kabupaten Kepulauan Yapen, Papua","Kabupaten Kepulauan Yapen, Papua",PAPUA,,Indonesia,,-1.7581253,136.5547852,https://maps.google.com/?cid=0x0:0xe52dde0e102e427c
perumahan,Komplek perumahan,Kompleks Medang,"5PHX+FC9, Dawai, Distrik Yapen Timur, Kabupaten Kepulauan Yapen, Papua 98252","Dawai, Distrik Yapen Timur, Kabupaten Kepulauan Yapen",PAPUA,98252.0,Indonesia,,-1.8213496,136.7486085,https://maps.google.com/?cid=0x0:0x897b493e737cb99d
perumahan,Komplek perumahan,Awunawai,"5QH2+2JH, Dawai, Distrik Yapen Timur, Kabupaten Kepulauan Yapen, Papua 98252","Dawai, Distrik Yapen Timur, Kabupaten Kepulauan Yapen",PAPUA,98252.0,Indonesia,,-1.8224341,136.75069,https://maps.google.com/?cid=0x0:0x354a5533c4ccd73c
perumahan,Komplek perumahan,Rumah Kel N. Bawawa,"5PJP+RP, Dawai, Distrik Yapen Timur, Kabupaten Kepulauan Yapen, Papua","Kabupaten Kepulauan Yapen, Papua",PAPUA,,Indonesia,,-1.8179496,136.7368036,https://maps.google.com/?cid=0x0:0xb8a7548dc5c75651
perumahan,Komplek perumahan,Barak shipping,"5PHW+FFW, Awunawai, Distrik Yapen Timur, Kabupaten Kepulauan Yapen, Papua 98252","Awunawai, Distrik Yapen Timur, Kabupaten Kepulauan Yapen",PAPUA,98252.0,Indonesia,,-1.8212665,136.7462173,https://maps.google.com/?cid=0x0:0xe62419ce93292b5c
perumahan,Perhimpunan Pengembang Perumahan,Kampung Soromasen,"7FW6+32, Yobi, distrik Yapen Utara, Kabupaten Kepulauan Yapen, Papua","Kabupaten Kepulauan Yapen, Papua",PAPUA,,Indonesia,,-1.7048052,136.4600481,https://maps.google.com/?cid=0x0:0xa9ee0e46f2083cce
perumahan,Pembangunan Perumahan,Kampung yobi,"7CVX+WM, Yobi, distrik Yapen Utara, Kabupaten Kepulauan Yapen, Papua","Kabupaten Kepulauan Yapen, Papua",PAPUA,,Indonesia,,-1.7052399,136.449177,https://maps.google.com/?cid=0x0:0x22d4127a2ead5373
perumahan,Komplek perumahan,Kampung sewenui,"6RJV+H39, Kororompui, Distrik Raimbawi, Kabupaten Kepulauan Yapen, Papua 98252","Kororompui, Distrik Raimbawi, Kabupaten Kepulauan Yapen",PAPUA,98252.0,Indonesia,,-1.7685846,136.842748,https://maps.google.com/?cid=0x0:0x5b051e913092cf60
perumahan,Komplek perumahan,Kompleks Gaharu,"5QG3+J4Q, Dawai, Distrik Yapen Timur, Kabupaten Kepulauan Yapen, Papua 98252","Dawai, Distrik Yapen Timur, Kabupaten Kepulauan Yapen",PAPUA,98252.0,Indonesia,,-1.8240342,136.7526583,https://maps.google.com/?cid=0x0:0xff4ef2c6e180f527
perumahan,Komplek perumahan,Kep yapen,"5QW6+FWQ, Awunawai, Distrik Yapen Timur, Kabupaten Kepulauan Yapen, Papua 98252","Awunawai, Distrik Yapen Timur, Kabupaten Kepulauan Yapen",PAPUA,98252.0,Indonesia,,-1.803794,136.7623591,https://maps.google.com/?cid=0x0:0x649dc54ba84d1e0
perumahan,Perhimpunan Pengembang Perumahan,Kampung arareni,"4G5Q+69F, Distrik Tlk. Ampimoi, Kabupaten Kepulauan Yapen, Papua","Kabupaten Kepulauan Yapen, Papua",PAPUA,,Indonesia,81312323797.0,-1.8919435,136.5384356,https://maps.google.com/?cid=0x0:0x3a9a84cd18f1fc58
perumahan,Komplek perumahan,RUMAH MAMA SARAH SAMBER,"5PP5+94, Nunsembai, Distrik Yapen Timur, Kabupaten Kepulauan Yapen, Papua","Kabupaten Kepulauan Yapen, Papua",PAPUA,,Indonesia,,-1.8140731,136.7078574,https://maps.google.com/?cid=0x0:0x8d68ec1059024646
perumahan,Komplek perumahan,Kampung sewenui,"6RJV+H39, Kororompui, Distrik Raimbawi, Kabupaten Kepulauan Yapen, Papua 98252","Kororompui, Distrik Raimbawi, Kabupaten Kepulauan Yapen",PAPUA,98252.0,Indonesia,,-1.7685846,136.842748,https://maps.google.com/?cid=0x0:0x5b051e913092cf60
perumahan,Komplek perumahan,Rumah tinggal,"6V25+6MG, Barawai, Distrik Raimbawi, Kabupaten Kepulauan Yapen, Papua","Kabupaten Kepulauan Yapen, Papua",PAPUA,,Indonesia,,-1.7994319,136.8591989,https://maps.google.com/?cid=0x0:0x78d5ebee9b1ae6ac
perumahan,perumahan,Distrik Raimbawi,"Kabupaten Kepulauan Yapen, Papua","Kabupaten Kepulauan Yapen, Papua",PAPUA,,Indonesia,,-1.767849,136.8405357,https://maps.google.com/?cid=0x0:0x5bfe03ebf6ec49ab
perumahan,Komplek perumahan,Saweri,"6RPM+W5, Kororompui, Distrik Raimbawi, Kabupaten Kepulauan Yapen, Papua","Kabupaten Kepulauan Yapen, Papua",PAPUA,,Indonesia,,-1.7626642,136.8328913,https://maps.google.com/?cid=0x0:0x236f2d9577efdee3
perumahan,Komplek perumahan,RONALD RUNABARI,"6RJR+Q6M, Sewenui, Distrik Raimbawi, Kabupaten Kepulauan Yapen, Papua 98252","Sewenui, Distrik Raimbawi, Kabupaten Kepulauan Yapen",PAPUA,98252.0,Indonesia,,-1.768038,136.8405567,https://maps.google.com/?cid=0x0:0x122a5d47048bcc0d
perumahan,Komplek perumahan,Kampung Baru,"5QW6+FWQ, Awunawai, Distrik Yapen Timur, Kabupaten Kepulauan Yapen, Papua 98252","Awunawai, Distrik Yapen Timur, Kabupaten Kepulauan Yapen",PAPUA,98252.0,Indonesia,,-1.803794,136.7623591,https://maps.google.com/?cid=0x0:0xbf8c7a79f5b63b89
perumahan,Pembangunan Perumahan,Perumahan Baru (Lopi),"5G8X+JX8, Waita, Distrik Tlk. Ampimoi, Kabupaten Kepulauan Yapen, Papua","Kabupaten Kepulauan Yapen, Papua",PAPUA,,Indonesia,,-1.8334613,136.5499681,https://maps.google.com/?cid=0x0:0x76d25701fe1ffc86
perumahan,Komplek perumahan,Antorai,"6R4F+3H, Kororompui, Distrik Raimbawi, Kabupaten Kepulauan Yapen, Papua","Kabupaten Kepulauan Yapen, Papua",PAPUA,,Indonesia,,-1.7948438,136.823944,https://maps.google.com/?cid=0x0:0xb9425f9356a5a820
perumahan,Komplek perumahan,Kompleks Medang,"5PHX+FC9, Dawai, Distrik Yapen Timur, Kabupaten Kepulauan Yapen, Papua 98252","Dawai, Distrik Yapen Timur, Kabupaten Kepulauan Yapen",PAPUA,98252.0,Indonesia,,-1.8213496,136.7486085,https://maps.google.com/?cid=0x0:0x897b493e737cb99d
perumahan,Komplek perumahan,Kampung Barawai,"6V25+6MG, Barawai, Distrik Raimbawi, Kabupaten Kepulauan Yapen, Papua","Kabupaten Kepulauan Yapen, Papua",PAPUA,,Indonesia,,-1.7994319,136.8591989,https://maps.google.com/?cid=0x0:0x1ab73d4fe25ff537
perumahan,Komplek perumahan,Awunawai,"5QH2+2JH, Dawai, Distrik Yapen Timur, Kabupaten Kepulauan Yapen, Papua 98252","Dawai, Distrik Yapen Timur, Kabupaten Kepulauan Yapen",PAPUA,98252.0,Indonesia,,-1.8224341,136.75069,https://maps.google.com/?cid=0x0:0x354a5533c4ccd73c
perumahan,Komplek perumahan,Rumah Kel N. Bawawa,"5PJP+RP, Dawai, Distrik Yapen Timur, Kabupaten Kepulauan Yapen, Papua","Kabupaten Kepulauan Yapen, Papua",PAPUA,,Indonesia,,-1.8179496,136.7368036,https://maps.google.com/?cid=0x0:0xb8a7548dc5c75651
perumahan,Komplek perumahan,Cabang kali mampediwai,"6R34+XM, Kororompui, Distrik Raimbawi, Kabupaten Kepulauan Yapen, Papua","Kabupaten Kepulauan Yapen, Papua",PAPUA,,Indonesia,,-1.795117,136.806725,https://maps.google.com/?cid=0x0:0xcf55b4d93b751940
perumahan,Pembangunan Perumahan,WAINDU,"6V9J+6J, Waindu, Distrik Raimbawi, Kabupaten Kepulauan Yapen, Papua","Kabupaten Kepulauan Yapen, Papua",PAPUA,,Indonesia,,-1.7819447,136.8815317,https://maps.google.com/?cid=0x0:0x73221cff9c14539a
perumahan,perumahan,Distrik Tlk. Ampimoi,"Kabupaten Kepulauan Yapen, Papua","Kabupaten Kepulauan Yapen, Papua",PAPUA,,Indonesia,,-1.8521856,136.5246471,https://maps.google.com/?cid=0x0:0x9f8f93e4402acbda
perumahan,Pembangunan Perumahan,Perumahan Baru (Lopi),"5G8X+JX8, Waita, Distrik Tlk. Ampimoi, Kabupaten Kepulauan Yapen, Papua","Kabupaten Kepulauan Yapen, Papua",PAPUA,,Indonesia,,-1.8334613,136.5499681,https://maps.google.com/?cid=0x0:0x76d25701fe1ffc86
perumahan,Perhimpunan Pengembang Perumahan,Teluk Ampimoi,"5G92+5PW, Ampimoi, Distrik Tlk. Ampimoi, Kabupaten Kepulauan Yapen, Papua 98252","Ampimoi, Distrik Tlk. Ampimoi, Kabupaten Kepulauan Yapen",PAPUA,98252.0,Indonesia,,-1.8320023,136.5018235,https://maps.google.com/?cid=0x0:0xd44fc6141ac1091a
perumahan,Pembangunan Perumahan,Kampung ayari distrik teluk Ampimoi,"5GW6+PMJ, Ayari, Distrik Tlk. Ampimoi, Kabupaten Kepulauan Yapen, Papua","Kabupaten Kepulauan Yapen, Papua",PAPUA,,Indonesia,,-1.8031549,136.5116387,https://maps.google.com/?cid=0x0:0x9a12f2724ad207f9
perumahan,Perhimpunan Pengembang Perumahan,Kampung arareni,"4G5Q+69F, Distrik Tlk. Ampimoi, Kabupaten Kepulauan Yapen, Papua","Kabupaten Kepulauan Yapen, Papua",PAPUA,,Indonesia,81312323797.0,-1.8919435,136.5384356,https://maps.google.com/?cid=0x0:0x3a9a84cd18f1fc58
perumahan,Komplek perumahan,Karoaipi,"4GFC+PJM, Ampimoi, Distrik Tlk. Ampimoi, Kabupaten Kepulauan Yapen, Papua 98252","Ampimoi, Distrik Tlk. Ampimoi, Kabupaten Kepulauan Yapen",PAPUA,98252.0,Indonesia,,-1.8756579,136.5215623,https://maps.google.com/?cid=0x0:0xe71148479152d771
perumahan,Komplek perumahan,Karai,"4GH9+W67, Ampimoi, Distrik Tlk. Ampimoi, Kabupaten Kepulauan Yapen, Papua 98252","Ampimoi, Distrik Tlk. Ampimoi, Kabupaten Kepulauan Yapen",PAPUA,98252.0,Indonesia,,-1.8702106,136.5180539,https://maps.google.com/?cid=0x0:0xec29a0ce4e07be89
perumahan,Komplek perumahan,Duwi woroi,"4GH9+5WQ, Ampimoi, Distrik Tlk. Ampimoi, Kabupaten Kepulauan Yapen, Papua 98252","Ampimoi, Distrik Tlk. Ampimoi, Kabupaten Kepulauan Yapen",PAPUA,98252.0,Indonesia,,-1.8720335,136.5198564,https://maps.google.com/?cid=0x0:0xa8aa6f1ad87cebc9
perumahan,Perumahan,Sabari,"4GXG+3M6, Randawaya, Distrik Tlk. Ampimoi, Kabupaten Kepulauan Yapen, Papua 98252","Randawaya, Distrik Tlk. Ampimoi, Kabupaten Kepulauan Yapen",PAPUA,98252.0,Indonesia,,-1.8523373,136.5266556,https://maps.google.com/?cid=0x0:0x16c267b3893360be
perumahan,Komplek perumahan,Erup,"4GJ8+MG, Ampimoi, Kabupaten Kepulauan Yapen, Papua","Kabupaten Kepulauan Yapen, Papua",PAPUA,,Indonesia,,-1.8683572,136.5162559,https://maps.google.com/?cid=0x0:0xf677fdb992632a63
perumahan,Pembangunan Perumahan,Randawaya II,"4GQR+QVV, Waita, Distrik Tlk. Ampimoi, Kabupaten Kepulauan Yapen, Papua 98252","Waita, Distrik Tlk. Ampimoi, Kabupaten Kepulauan Yapen",PAPUA,98252.0,Indonesia,,-1.860514,136.54216,https://maps.google.com/?cid=0x0:0x22b1192f8c655e4b
perumahan,Komplek perumahan,S.R Sineri,"4HQ2+W3, Waita, Distrik Tlk. Ampimoi, Kabupaten Kepulauan Yapen, Papua","Kabupaten Kepulauan Yapen, Papua",PAPUA,,Indonesia,,-1.8602179,136.5502192,https://maps.google.com/?cid=0x0:0x2225f8f4fec7dce7
perumahan,Komplek perumahan,Kompleks wowong timur,"4HQ2+GPJ, Waita, Distrik Tlk. Ampimoi, Kabupaten Kepulauan Yapen, Papua","Kabupaten Kepulauan Yapen, Papua",PAPUA,,Indonesia,,-1.8611508,136.5517652,https://maps.google.com/?cid=0x0:0xd19827010bbc8af0
perumahan,Pembangunan Perumahan,Kompleks lembah winderi,"4HQ2+49X, Waita, Distrik Tlk. Ampimoi, Kabupaten Kepulauan Yapen, Papua","Kabupaten Kepulauan Yapen, Papua",PAPUA,,Indonesia,,-1.8621363,136.5509689,https://maps.google.com/?cid=0x0:0x3133a55fac25338c
perumahan,Komplek perumahan,SOGUN PERMAI F01,"427H+P25, Unnamed Road, Sowi, Distrik Manokwari, Kabupaten Manokwari, Papua Bar. 98315","Unnamed Road, Sowi, Distrik Manokwari, Kabupaten Manokwari",PAPUA,98315.0,Indonesia,,-0.885743,134.0276103,https://maps.google.com/?cid=0x0:0x5b915aa8a1b491c9
perumahan,Komplek perumahan,Sogun Permai 5,"429F+V9J, Jl. Drs Esau Sesa, Sowi, Distrik Manokwari, Kabupaten Manokwari, Papua Bar. 98315","Jl. Drs Esau Sesa, Sowi, Distrik Manokwari, Kabupaten Manokwari",PAPUA,98315.0,Indonesia,,-0.8802862,134.0233934,https://maps.google.com/?cid=0x0:0x9e11038dcbfdad68
perumahan,Komplek perumahan,S.jaflean,"429F+Q5J, Sowi, Distrik Manokwari, Kabupaten Manokwari, Papua Bar.","Kabupaten Manokwari, Papua Bar.",PAPUA,,Indonesia,,-0.8805476,134.0228987,https://maps.google.com/?cid=0x0:0x9c70dcfe422ff8e
perumahan,Sekolah Dasar,Kampung Adiwipi,"3926+R59, Adiwipi, Kec. Kepulauan Ambai, Kabupaten Kepulauan Yapen, Papua","Kabupaten Kepulauan Yapen, Papua",PAPUA,,Indonesia,,-1.9479625,136.3604844,https://maps.google.com/?cid=0x0:0x4760bd8a3c1d2982
perumahan,Komplek perumahan,Tairi,"378X+93, Saweru, Kec. Kepulauan Ambai, Kabupaten Kepulauan Yapen, Papua 98255","Saweru, Kec. Kepulauan Ambai, Kabupaten Kepulauan Yapen",PAPUA,98255.0,Indonesia,,-1.934072,136.297699,https://maps.google.com/?cid=0x0:0x42158344926facb8
perumahan,Komplek perumahan,Ambaruref Island,"39X4+6R8, Kampung Bairei, Kec. Kepulauan Ambai, Kabupaten Kepulauan Yapen, Papua","Kabupaten Kepulauan Yapen, Papua",PAPUA,,Indonesia,,-1.9019625,136.3570781,https://maps.google.com/?cid=0x0:0x7c899d8fcc191105
perumahan,Balai Pertemuan Desa,Balai kampung Bairei,"38MW+8CC, Kampung Bairei, Kec. Kepulauan Ambai, Kabupaten Kepulauan Yapen, Papua","Kabupaten Kepulauan Yapen, Papua",PAPUA,,Indonesia,,-1.9166902,136.3460141,https://maps.google.com/?cid=0x0:0x532b3f123c7ed6fc
perumahan,Perhimpunan Pengembang Perumahan,Kompleks Nuniande,"37MR+WFR, Saweru, Kec. Kepulauan Ambai, Kabupaten Kepulauan Yapen, Papua 98255","Saweru, Kec. Kepulauan Ambai, Kabupaten Kepulauan Yapen",PAPUA,98255.0,Indonesia,,-1.9147314,136.2918528,https://maps.google.com/?cid=0x0:0x7ea838b1432fb9dc
perumahan,Pembangunan Perumahan,markas opm,"pulau urampi, Adiwipi, Kec. Kepulauan Ambai, Kabupaten Kepulauan Yapen, Papua","Kabupaten Kepulauan Yapen, Papua",PAPUA,,Indonesia,,-1.9580441,136.3772406,https://maps.google.com/?cid=0x0:0x8cf46e4726cb1894
perumahan,Perhimpunan Pengembang Perumahan,Andarias Wanggai Pu Rumah,"38QV+C6, Ambai II, Kabupaten Kepulauan Yapen, Papua","Kabupaten Kepulauan Yapen, Papua",PAPUA,,Indonesia,,-1.911835,136.3433,https://maps.google.com/?cid=0x0:0x6879b5e1b7ed84b7
perumahan,perumahan,Distrik Wonawa,"Kabupaten Kepulauan Yapen, Papua","Kabupaten Kepulauan Yapen, Papua",PAPUA,,Indonesia,,-1.6107554,135.4427446,https://maps.google.com/?cid=0x0:0xb73fde2341a96d85
perumahan,Perhimpunan Pengembang Perumahan,Wooi,"9F77+9P2, Distrik Wonawa, Kabupaten Kepulauan Yapen, Papua","Kabupaten Kepulauan Yapen, Papua",PAPUA,,Indonesia,,-1.636623,135.4642639,https://maps.google.com/?cid=0x0:0x2ecff9646aab93b8
perumahan,Perhimpunan Pengembang Perumahan,Kampung Wooinap,"9F78+R8, Woinap, Distrik Wonawa, Kabupaten Kepulauan Yapen, Papua","Kabupaten Kepulauan Yapen, Papua",PAPUA,,Indonesia,,-1.6353953,135.465786,https://maps.google.com/?cid=0x0:0x4c4b38d2f5e7f698
perumahan,Perhimpunan Pengembang Perumahan,Kampung Karemoni,"9F86+R6, Woinap, Distrik Wonawa, Kabupaten Kepulauan Yapen, Papua","Kabupaten Kepulauan Yapen, Papua",PAPUA,,Indonesia,,-1.6329508,135.4605034,https://maps.google.com/?cid=0x0:0xb513c04aad4d6870
perumahan,Perhimpunan Pengembang Perumahan,Kediaman Bapa Pdt Y Kendi,"8GC5+R6, Kanaki, Distrik Wonawa, Kabupaten Kepulauan Yapen, Papua","Kabupaten Kepulauan Yapen, Papua",PAPUA,,Indonesia,,-1.6778949,135.5080952,https://maps.google.com/?cid=0x0:0x8b92329c3539c6a3
perumahan,Pembangunan Perumahan,Kampung woredua,"6VFW+FR9, Sasawa, Yapen Bar., Kabupaten Kepulauan Yapen, Papua","Kabupaten Kepulauan Yapen, Papua",PAPUA,,Indonesia,,-1.7763318,135.8971037,https://maps.google.com/?cid=0x0:0xb6dec9355798e0fe
perumahan,Perhimpunan Pengembang Perumahan,Kampung Wooi,"7F8M+2R, Kanaki, Kabupaten Kepulauan Yapen, Papua","Kabupaten Kepulauan Yapen, Papua",PAPUA,,Indonesia,,-1.7349296,135.4846169,https://maps.google.com/?cid=0x0:0xe78d2924cc315070
perumahan,perumahan,Home Dacosta,"8J47+2F, Aibondeni, Kabupaten Kepulauan Yapen, Papua","Kabupaten Kepulauan Yapen, Papua",PAPUA,,Indonesia,,-1.69497,135.61369,https://maps.google.com/?cid=0x0:0x63ef716f4d06530a
perumahan,perumahan,Papua 98253,"Kabupaten Kepulauan Yapen, Papua","Kabupaten Kepulauan Yapen, Papua",PAPUA,,Indonesia,,-1.692705,135.7710559,https://maps.google.com/?cid=0x0:0xe712ef09824c8ae8
perumahan,Perhimpunan Pengembang Perumahan,Wooi,"9F77+9P2, Distrik Wonawa, Kabupaten Kepulauan Yapen, Papua","Kabupaten Kepulauan Yapen, Papua",PAPUA,,Indonesia,,-1.636623,135.4642639,https://maps.google.com/?cid=0x0:0x2ecff9646aab93b8
perumahan,Perhimpunan Pengembang Perumahan,Distrik Windesi Kabupaten Kepulauan Yapen,"8WP5+3FX, Windesi, Distrik Windesi, Kabupaten Kepulauan Yapen, Papua 98254","Windesi, Distrik Windesi, Kabupaten Kepulauan Yapen",PAPUA,98254.0,Indonesia,,-1.6647504,135.9087226,https://maps.google.com/?cid=0x0:0xe4a8150ebce933da
perumahan,perumahan,Mundaong,"6QRQ+JP7, Wimoni, Yapen Bar., Kabupaten Kepulauan Yapen, Papua","Kabupaten Kepulauan Yapen, Papua",PAPUA,,Indonesia,,-1.758455,135.7892883,https://maps.google.com/?cid=0x0:0xbca4eb491bdb626f
perumahan,Pembangunan Perumahan,Kampung Karawi,"72XP+VW6, Karawi, Distrik Windesi, Kabupaten Kepulauan Yapen, Papua","Kabupaten Kepulauan Yapen, Papua",PAPUA,,Indonesia,,-1.7003376,136.0372508,https://maps.google.com/?cid=0x0:0xccdb5d4d8ed242b6
perumahan,Komplek perumahan,Wandimay,"8PWH+X93, Rarisi, Distrik Poom, Kabupaten Kepulauan Yapen, Papua","Kabupaten Kepulauan Yapen, Papua",PAPUA,,Indonesia,,-1.6526052,135.7284124,https://maps.google.com/?cid=0x0:0xb830709ec6643394
perumahan,Perhimpunan Pengembang Perumahan,Wetandei,"7QRG+6JF, Warabori, Yapen Bar., Kabupaten Kepulauan Yapen, Papua 98253","Warabori, Yapen Bar., Kabupaten Kepulauan Yapen",PAPUA,98253.0,Indonesia,,-1.7094386,135.7765543,https://maps.google.com/?cid=0x0:0x13f9f4b51ed8ea5f
perumahan,perumahan,R. A.Marahole,"G87M+48, Miosnum, Kec. Pulau Yerui, Kabupaten Kepulauan Yapen, Papua","Kabupaten Kepulauan Yapen, Papua",PAPUA,,Indonesia,,-1.4871953,135.3332735,https://maps.google.com/?cid=0x0:0x7bd762ec82e32c9e
perumahan,Komplek perumahan,ANDEI,"6W43+M3, Andei, Kabupaten Kepulauan Yapen, Papua","Kabupaten Kepulauan Yapen, Papua",PAPUA,,Indonesia,,-1.7933125,135.9026875,https://maps.google.com/?cid=0x0:0x2da2155cf196c642
perumahan,perumahan,Home Fam's Z.Korwa,"8FCM+6WH, Kanaki, Distrik Wonawa, Kabupaten Kepulauan Yapen, Papua","Kabupaten Kepulauan Yapen, Papua",PAPUA,,Indonesia,,-1.6794422,135.4848602,https://maps.google.com/?cid=0x0:0xe6fba2231a619981
perumahan,Pembangunan Perumahan,Kampung woredua,"6VFW+FR9, Sasawa, Yapen Bar., Kabupaten Kepulauan Yapen, Papua","Kabupaten Kepulauan Yapen, Papua",PAPUA,,Indonesia,,-1.7763318,135.8971037,https://maps.google.com/?cid=0x0:0xb6dec9355798e0fe
perumahan,perumahan,Rumah Y Beroperay,"G88P+PH, Miosnum, Kec. Pulau Yerui, Kabupaten Kepulauan Yapen, Papua","Kabupaten Kepulauan Yapen, Papua",PAPUA,,Indonesia,,-1.483176,135.336402,https://maps.google.com/?cid=0x0:0x9cf4373b02d9f675
perumahan,Komplek perumahan,Kampung Kairawi,"7VHJ+P3P, Kairawi, Yapen Bar., Kabupaten Kepulauan Yapen, Papua 98253","Kairawi, Yapen Bar., Kabupaten Kepulauan Yapen",PAPUA,98253.0,Indonesia,,-1.7206701,135.8802041,https://maps.google.com/?cid=0x0:0x59046114a91da090
perumahan,Komplek perumahan,Kampung Serewen,"9P7H+G3M, Rarisi, Distrik Poom, Kabupaten Kepulauan Yapen, Papua","Kabupaten Kepulauan Yapen, Papua",PAPUA,,Indonesia,,-1.6361594,135.7276605,https://maps.google.com/?cid=0x0:0x59908990e5f5fdfc
perumahan,perumahan,Papua 98254,"Kabupaten Kepulauan Yapen, Papua","Kabupaten Kepulauan Yapen, Papua",PAPUA,,Indonesia,,-1.668696,135.9229866,https://maps.google.com/?cid=0x0:0x786984f83d38aaec
perumahan,Perhimpunan Pengembang Perumahan,Distrik Windesi Kabupaten Kepulauan Yapen,"8WP5+3FX, Windesi, Distrik Windesi, Kabupaten Kepulauan Yapen, Papua 98254","Windesi, Distrik Windesi, Kabupaten Kepulauan Yapen",PAPUA,98254.0,Indonesia,,-1.6647504,135.9087226,https://maps.google.com/?cid=0x0:0xe4a8150ebce933da
perumahan,Komplek perumahan,Kampung Aryobu,"83Q7+R49, Karawi, Distrik Windesi, Kabupaten Kepulauan Yapen, Papua","Kabupaten Kepulauan Yapen, Papua",PAPUA,,Indonesia,81340986519.0,-1.6604572,136.0628669,https://maps.google.com/?cid=0x0:0xa399d2b183ceeebd
perumahan,Pembangunan Perumahan,Kampung Karawi,"72XP+VW6, Karawi, Distrik Windesi, Kabupaten Kepulauan Yapen, Papua","Kabupaten Kepulauan Yapen, Papua",PAPUA,,Indonesia,,-1.7003376,136.0372508,https://maps.google.com/?cid=0x0:0xccdb5d4d8ed242b6
perumahan,Komplek perumahan,Kampung Serewen,"9P7H+G3M, Rarisi, Distrik Poom, Kabupaten Kepulauan Yapen, Papua","Kabupaten Kepulauan Yapen, Papua",PAPUA,,Indonesia,,-1.6361594,135.7276605,https://maps.google.com/?cid=0x0:0x59908990e5f5fdfc
perumahan,Komplek perumahan,Wandimay,"8PWH+X93, Rarisi, Distrik Poom, Kabupaten Kepulauan Yapen, Papua","Kabupaten Kepulauan Yapen, Papua",PAPUA,,Indonesia,,-1.6526052,135.7284124,https://maps.google.com/?cid=0x0:0xb830709ec6643394
perumahan,Komplek perumahan,Kampung Jenggerai,"F8H8+G49, Sandey, Kec. Windesi, Kabupaten Teluk Wondama, Papua Bar.","Kabupaten Teluk Wondama, Papua Bar.",PAPUA,,Indonesia,,-2.5212171,134.3153705,https://maps.google.com/?cid=0x0:0x8ab81fdd6fcfd420
perumahan,perumahan,Kec. Windesi,"Kabupaten Teluk Wondama, Papua Bar.","Kabupaten Teluk Wondama, Papua Bar.",PAPUA,,Indonesia,,-2.601077,134.1340439,https://maps.google.com/?cid=0x0:0x9b9a2ca4d233e89d
perumahan,Pusat Kesehatan Masyarakat,Puskesmas Windesi,"H69F+8XM, kab desa, Wamesa Tengah, Kec. Windesi, Kabupaten Teluk Wondama, Papua Bar. 98361","kab desa, Wamesa Tengah, Kec. Windesi, Kabupaten Teluk Wondama",PAPUA,98361.0,Indonesia,,-2.4316511,134.2249214,https://maps.google.com/?cid=0x0:0x84b7353d3ba68864
perumahan,Perhimpunan Pengembang Perumahan,Lorong Aise,"GG6R+88Q, Aisandami, Duairi, Kabupaten Teluk Wondama, Papua Bar.","Kabupaten Teluk Wondama, Papua Bar.",PAPUA,,Indonesia,,-2.4891538,134.5408638,https://maps.google.com/?cid=0x0:0xf4198b3da7a7b64a
perumahan,Sekolah,Jlr 4 Kompleks Warayaru,"CF78+679, Sobei, Duairi, Kabupaten Teluk Wondama, Papua Bar. 98362","Sobei, Duairi, Kabupaten Teluk Wondama",PAPUA,98362.0,Indonesia,,-2.5856602,134.4655927,https://maps.google.com/?cid=0x0:0x3669afdff187444d
perumahan,perumahan,Papua Bar. 98361,"Kabupaten Teluk Wondama, Papua Bar.","Kabupaten Teluk Wondama, Papua Bar.",PAPUA,,Indonesia,,-2.4815085,134.2099791,https://maps.google.com/?cid=0x0:0xe298b41c3e32d0eb
perumahan,Komplek perumahan,Kampung Jenggerai,"F8H8+G49, Sandey, Kec. Windesi, Kabupaten Teluk Wondama, Papua Bar.","Kabupaten Teluk Wondama, Papua Bar.",PAPUA,,Indonesia,,-2.5212171,134.3153705,https://maps.google.com/?cid=0x0:0x8ab81fdd6fcfd420
perumahan,Perhimpunan Pengembang Perumahan,Wb Family,"M5Q5+587, Mamisi, Distrik Nikiwar, Kabupaten Teluk Wondama, Papua Bar. 98361","Mamisi, Distrik Nikiwar, Kabupaten Teluk Wondama",PAPUA,98361.0,Indonesia,,-2.3120951,134.1583002,https://maps.google.com/?cid=0x0:0xd34c8beb9887fdb4
perumahan,Komplek perumahan,Kampung Mamisi (Distrik Nikwar),"M5X5+W2C, Mamisi, Distrik Nikiwar, Kabupaten Teluk Wondama, Papua Bar.","Kabupaten Teluk Wondama, Papua Bar.",PAPUA,,Indonesia,,-2.3001993,134.1575071,https://maps.google.com/?cid=0x0:0x24590dd735cb8ba9
perumahan,Perhimpunan Pengembang Perumahan,Kampung Isosembani,"G5X2+56Q, Isosembani, Distrik Nikiwar, Kabupaten Teluk Wondama, Papua Bar. 98361","Isosembani, Distrik Nikiwar, Kabupaten Teluk Wondama",PAPUA,98361.0,Indonesia,,-2.4520364,134.1505977,https://maps.google.com/?cid=0x0:0xe3bd5807a2250f95
perumahan,Perhimpunan Pengembang Perumahan,"WERABUR, NIKIWAR","H4VC+F2X, Werabur, Distrik Nikiwar, Kabupaten Teluk Wondama, Papua Bar.","Kabupaten Teluk Wondama, Papua Bar.",PAPUA,,Indonesia,,-2.4062659,134.1201221,https://maps.google.com/?cid=0x0:0x5980a4c0746d6674
perumahan,Komplek perumahan,Yarapate,"R4R9+68, Yarpate, Wamesa, Kabupaten Teluk Wondama, Papua Bar.","Kabupaten Teluk Wondama, Papua Bar.",PAPUA,,Indonesia,,-2.1594547,134.1182972,https://maps.google.com/?cid=0x0:0xab0c1bd6d12f1b56
perumahan,Perhimpunan Pengembang Perumahan,Lorong Aise,"GG6R+88Q, Aisandami, Duairi, Kabupaten Teluk Wondama, Papua Bar.","Kabupaten Teluk Wondama, Papua Bar.",PAPUA,,Indonesia,,-2.4891538,134.5408638,https://maps.google.com/?cid=0x0:0xf4198b3da7a7b64a
perumahan,Kompleks Apartemen,Yembekiri,"5559+X2R, Yembekiri I, Distrik Rumberpon, Kabupaten Teluk Wondama, Papua Bar. 98361","Yembekiri I, Distrik Rumberpon, Kabupaten Teluk Wondama",PAPUA,98361.0,Indonesia,,-1.8400203,134.1675312,https://maps.google.com/?cid=0x0:0xbff508c6deda7d72
perumahan,Perhimpunan Pengembang Perumahan,"Kampung karuan, wondama","Q47J+GG, Karuan, Wamesa, Kabupaten Teluk Wondama, Papua Bar.","Kabupaten Teluk Wondama, Papua Bar.",PAPUA,,Indonesia,,-2.2362204,134.1313264,https://maps.google.com/?cid=0x0:0x587f409de7c9d749
perumahan,Komplek perumahan,ANGKILO,"543W+5X, Yembekiri II, Distrik Rumberpon, Kabupaten Teluk Wondama, Papua Bar.","Kabupaten Teluk Wondama, Papua Bar.",PAPUA,,Indonesia,,-1.8470662,134.1473921,https://maps.google.com/?cid=0x0:0x9ece5455e604cdad
perumahan,Klinik Medis,RS PRATAMA NIKIWAR,"G4VX+8J, Tamoge, Distrik Nikiwar, Kabupaten Teluk Wondama, Papua Bar.","Kabupaten Teluk Wondama, Papua Bar.",PAPUA,,Indonesia,,-2.456707,134.149001,https://maps.google.com/?cid=0x0:0x1eb51da3e991f15e
perumahan,Otoritas Pelabuhan,Pelabuhan Nordiwar,"V85Q+9WM, Nordiwar, Kabupaten Teluk Wondama",Kabupaten Teluk Wondama,PAPUA,,Indonesia,,-2.1415344,134.3398088,https://maps.google.com/?cid=0x0:0x90a6688765437406
perumahan,Sekolah,Jlr 4 Kompleks Warayaru,"CF78+679, Sobei, Duairi, Kabupaten Teluk Wondama, Papua Bar. 98362","Sobei, Duairi, Kabupaten Teluk Wondama",PAPUA,98362.0,Indonesia,,-2.5856602,134.4655927,https://maps.google.com/?cid=0x0:0x3669afdff187444d
perumahan,perumahan,Distrik Pulau Kurudu,"Kabupaten Kepulauan Yapen, Papua","Kabupaten Kepulauan Yapen, Papua",PAPUA,,Indonesia,,-1.8369897,137.0324636,https://maps.google.com/?cid=0x0:0xa7a245ed4349075
perumahan,Komplek perumahan,Kompleks,"527J+X97, Kurudu, Distrik Pulau Kurudu, Kabupaten Kepulauan Yapen, Papua","Kabupaten Kepulauan Yapen, Papua",PAPUA,,Indonesia,,-1.8350839,137.0317002,https://maps.google.com/?cid=0x0:0x1947fd5855661029
perumahan,Komplek perumahan,Komplek Rumbewas,"527J+X97, Kurudu, Distrik Pulau Kurudu, Kabupaten Kepulauan Yapen, Papua","Kabupaten Kepulauan Yapen, Papua",PAPUA,,Indonesia,,-1.8350935,137.0309275,https://maps.google.com/?cid=0x0:0xa6699ceafb6b213
perumahan,perumahan,Rumah Keluarga (Alm) M. Sumbari,"5X47+87, Kaipuri, Distrik Pulau Kurudu, Kabupaten Kepulauan Yapen, Papua","Kabupaten Kepulauan Yapen, Papua",PAPUA,,Indonesia,,-1.8441371,136.9631453,https://maps.google.com/?cid=0x0:0x86fd9b4a94f6e7d8
perumahan,Komplek perumahan,Rumah BP rumborumbo,"529G+4V, Kurudu, Distrik Pulau Kurudu, Kabupaten Kepulauan Yapen, Papua","Kabupaten Kepulauan Yapen, Papua",PAPUA,,Indonesia,,-1.833285,137.0267144,https://maps.google.com/?cid=0x0:0x58a0b213687c78e3
perumahan,Perhimpunan Pengembang Perumahan,Rumah kades kaipuri,"5X3Q+G3G, Kaipuri, Distrik Pulau Kurudu, Kabupaten Kepulauan Yapen, Papua","Kabupaten Kepulauan Yapen, Papua",PAPUA,,Indonesia,,-1.8461215,136.9880331,https://maps.google.com/?cid=0x0:0x815882359708231b
perumahan,Komplek perumahan,MnuKiba,"528H+HF, Kurudu, Distrik Pulau Kurudu, Kabupaten Kepulauan Yapen, Papua","Kabupaten Kepulauan Yapen, Papua",PAPUA,,Indonesia,,-1.8335083,137.0286623,https://maps.google.com/?cid=0x0:0x7e91f8b8c6cab4c2
perumahan,Perhimpunan Pengembang Perumahan,Kampung masesi,"5X3R+JJP, Kaipuri, Distrik Pulau Kurudu, Kabupaten Kepulauan Yapen, Papua","Kabupaten Kepulauan Yapen, Papua",PAPUA,,Indonesia,,-1.8456125,136.9689376,https://maps.google.com/?cid=0x0:0xeb0f60660f5fb010
perumahan,Perhimpunan Pengembang Perumahan,Kampung mansesi,"5X3R+J2, Kaipuri, Distrik Pulau Kurudu, Kabupaten Kepulauan Yapen, Papua","Kabupaten Kepulauan Yapen, Papua",PAPUA,,Indonesia,,-1.8458964,136.9900947,https://maps.google.com/?cid=0x0:0x17b8ba634f7a7e2a
perumahan,Komplek perumahan,Kristian Gaza Umbora,"523V+P3, Kurudu, Distrik Pulau Kurudu, Kabupaten Kepulauan Yapen, Papua","Kabupaten Kepulauan Yapen, Papua",PAPUA,,Indonesia,,-1.8456376,137.0426793,https://maps.google.com/?cid=0x0:0x8a0b0a4e333cc2e9
perumahan,perumahan,Papua 98252,"Kabupaten Kepulauan Yapen, Papua","Kabupaten Kepulauan Yapen, Papua",PAPUA,,Indonesia,,-1.7581253,136.5547852,https://maps.google.com/?cid=0x0:0xe52dde0e102e427c
perumahan,perumahan,Martinus Sumbari,"5X47+97, Kaipuri, Distrik Pulau Kurudu, Kabupaten Kepulauan Yapen, Papua","Kabupaten Kepulauan Yapen, Papua",PAPUA,,Indonesia,,-1.8441143,136.9631611,https://maps.google.com/?cid=0x0:0x2b16a3524549607b
perumahan,perumahan,Pulau Kurudu,"Distrik Pulau Kurudu, Kabupaten Kepulauan Yapen, Papua","Kabupaten Kepulauan Yapen, Papua",PAPUA,,Indonesia,,-1.8474739,137.0145295,https://maps.google.com/?cid=0x0:0xd793096ee0c6521c
perumahan,perumahan,Kec. Pulau Yerui,"Miosnum, Kabupaten Kepulauan Yapen, Papua","Kabupaten Kepulauan Yapen, Papua",PAPUA,,Indonesia,,-1.4878278,135.3337148,https://maps.google.com/?cid=0x0:0xf1f496c1e419df1f
perumahan,perumahan,Rumah Y Beroperay,"G88P+PH, Miosnum, Kec. Pulau Yerui, Kabupaten Kepulauan Yapen, Papua","Kabupaten Kepulauan Yapen, Papua",PAPUA,,Indonesia,,-1.483176,135.336402,https://maps.google.com/?cid=0x0:0x9cf4373b02d9f675
perumahan,perumahan,R. A.Marahole,"G87M+48, Miosnum, Kec. Pulau Yerui, Kabupaten Kepulauan Yapen, Papua","Kabupaten Kepulauan Yapen, Papua",PAPUA,,Indonesia,,-1.4871953,135.3332735,https://maps.google.com/?cid=0x0:0x7bd762ec82e32c9e
housing complex,housing complex,Papua 98253,"Kabupaten Kepulauan Yapen, Papua","Kabupaten Kepulauan Yapen, Papua",PAPUA,,Indonesia,,-1.692705,135.7710559,https://maps.google.com/?cid=0x0:0xe712ef09824c8ae8
housing complex,Perhimpunan Pengembang Perumahan,Wetandei,"7QRG+6JF, Warabori, Yapen Bar., Kabupaten Kepulauan Yapen, Papua 98253","Warabori, Yapen Bar., Kabupaten Kepulauan Yapen",PAPUA,98253.0,Indonesia,,-1.7094386,135.7765543,https://maps.google.com/?cid=0x0:0x13f9f4b51ed8ea5f
housing complex,housing complex,Rumah Y Beroperay,"G88P+PH, Miosnum, Kec. Pulau Yerui, Kabupaten Kepulauan Yapen, Papua","Kabupaten Kepulauan Yapen, Papua",PAPUA,,Indonesia,,-1.483176,135.336402,https://maps.google.com/?cid=0x0:0x9cf4373b02d9f675
housing complex,Pembangunan Perumahan,Rumah Bpk Yap May,"6WH5+G2, Sasawa, Kabupaten Kepulauan Yapen, Papua","Kabupaten Kepulauan Yapen, Papua",PAPUA,,Indonesia,,-1.7711801,135.907539,https://maps.google.com/?cid=0x0:0xfb24c1924d335fc4
housing complex,housing complex,R. A.Marahole,"G87M+48, Miosnum, Kec. Pulau Yerui, Kabupaten Kepulauan Yapen, Papua","Kabupaten Kepulauan Yapen, Papua",PAPUA,,Indonesia,,-1.4871953,135.3332735,https://maps.google.com/?cid=0x0:0x7bd762ec82e32c9e
housing complex,Perhimpunan Pengembang Perumahan,Kediaman Bapa Pdt Y Kendi,"8GC5+R6, Kanaki, Distrik Wonawa, Kabupaten Kepulauan Yapen, Papua","Kabupaten Kepulauan Yapen, Papua",PAPUA,,Indonesia,,-1.6778949,135.5080952,https://maps.google.com/?cid=0x0:0x8b92329c3539c6a3
housing complex,housing complex,Home Fam's Z.Korwa,"8FCM+6WH, Kanaki, Distrik Wonawa, Kabupaten Kepulauan Yapen, Papua","Kabupaten Kepulauan Yapen, Papua",PAPUA,,Indonesia,,-1.6794422,135.4848602,https://maps.google.com/?cid=0x0:0xe6fba2231a619981
housing complex,Komplek perumahan,ANDEI,"6W43+M3, Andei, Kabupaten Kepulauan Yapen, Papua","Kabupaten Kepulauan Yapen, Papua",PAPUA,,Indonesia,,-1.7933125,135.9026875,https://maps.google.com/?cid=0x0:0x2da2155cf196c642
housing complex,Komplek perumahan,Yermias Ansanai,"6WJ4+3G, Sasawa, Kabupaten Kepulauan Yapen, Papua","Kabupaten Kepulauan Yapen, Papua",PAPUA,,Indonesia,,-1.7698461,135.906275,https://maps.google.com/?cid=0x0:0x6da244c561bbcf74
housing complex,housing complex,Papua 98211,"Kec. Yapen Sel., Kabupaten Kepulauan Yapen, Papua","Kabupaten Kepulauan Yapen, Papua",PAPUA,,Indonesia,,-1.7995067,136.2570137,https://maps.google.com/?cid=0x0:0xb2b850cfde1935fd
housing complex,Komplek perumahan,Drs. Y. de Haan,"46GR+RMX, Famboaman, Kec. Yapen Sel., Kabupaten Kepulauan Yapen, Papua 98213","Famboaman, Kec. Yapen Sel., Kabupaten Kepulauan Yapen",PAPUA,98213.0,Indonesia,,-1.8728809,136.2417481,https://maps.google.com/?cid=0x0:0x37c58d5e9b8f6db1
housing complex,Komplek perumahan,Perumahan Zainuddin,"46MR+96M, Jl. Sudirman, Anatorei, Kec. Yapen Sel., Kabupaten Kepulauan Yapen, Papua 98213","Jl. Sudirman, Anatorei, Kec. Yapen Sel., Kabupaten Kepulauan Yapen",PAPUA,98213.0,Indonesia,,-1.866699,136.2399339,https://maps.google.com/?cid=0x0:0x3f413bcb0caf459
housing complex,Gedung Apartemen,Patrick DZ,"46GW+754, Warari, Kec. Yapen Sel., Kabupaten Kepulauan Yapen, Papua 98213","Warari, Kec. Yapen Sel., Kabupaten Kepulauan Yapen",PAPUA,98213.0,Indonesia,,-1.8743651,136.2454522,https://maps.google.com/?cid=0x0:0xe2de36a743925650
housing complex,Perhimpunan Pengembang Perumahan,RUMAH SAYA,"46GV+FV3, Gg. I KPR, Famboaman, Kec. Yapen Sel., Kabupaten Kepulauan Yapen, Papua 98213","Gg. I KPR, Famboaman, Kec. Yapen Sel., Kabupaten Kepulauan Yapen",PAPUA,98213.0,Indonesia,,-1.8738629,136.2446862,https://maps.google.com/?cid=0x0:0xbe378fdf8c289f10
housing complex,housing complex,Rumah Dg Ngalle,"46MQ+RWG, Anatorei, Kec. Yapen Sel., Kabupaten Kepulauan Yapen, Papua 98213","Anatorei, Kec. Yapen Sel., Kabupaten Kepulauan Yapen",PAPUA,98213.0,Indonesia,,-1.8654371,136.2397875,https://maps.google.com/?cid=0x0:0xb9ce423a7edd6a65
housing complex,Komplek perumahan,AIDE KOMPLEKS,"46XP+83G, Jalan Kawara Gang, Mantembu, Kec. Yapen Sel., Kabupaten Kepulauan Yapen, Papua 98631","Jalan Kawara Gang, Mantembu, Kec. Yapen Sel., Kabupaten Kepulauan Yapen",PAPUA,98631.0,Indonesia,,-1.8516909,136.2351877,https://maps.google.com/?cid=0x0:0x676b1a02e61c69f0
housing complex,Komplek perumahan,Kompleks K2,"47G2+HX9, Warari, Kec. Yapen Sel., Kabupaten Kepulauan Yapen, Papua 98212","Warari, Kec. Yapen Sel., Kabupaten Kepulauan Yapen",PAPUA,98212.0,Indonesia,,-1.873576,136.2524694,https://maps.google.com/?cid=0x0:0x803ccb06cb7b4362
housing complex,Perhimpunan Pengembang Perumahan,Rumah A.sembiring/ E. Sitepu,"46CV+H64, Jl. Mangga, Serui Jaya, Kec. Yapen Sel., Kabupaten Kepulauan Yapen, Papua 98213","Jl. Mangga, Serui Jaya, Kec. Yapen Sel., Kabupaten Kepulauan Yapen",PAPUA,98213.0,Indonesia,,-1.878129,136.24301,https://maps.google.com/?cid=0x0:0xd554e5e9e073e925
housing complex,Komplek perumahan,Ida home,"46MP+F8Q, Wainakawini, Serui Kota, Kec. Yapen Sel., Kabupaten Kepulauan Yapen, Papua","Kabupaten Kepulauan Yapen, Papua",PAPUA,,Indonesia,,-1.8662929,136.2358674,https://maps.google.com/?cid=0x0:0x89808f34615a5d2
housing complex,Komplek perumahan,Home Iklai fam's,"46GR+FQ7, Jl. Gajah Mada, Serui Kota, Kec. Yapen Sel., Kabupaten Kepulauan Yapen, Papua","Kabupaten Kepulauan Yapen, Papua",PAPUA,,Indonesia,,-1.8739095,136.2419408,https://maps.google.com/?cid=0x0:0x7f286db0bd15b01a
housing complex,Komplek perumahan,Perumahan pertamina rumah cet hijau,"46FG+Q9C, Jalan, Mariaderi, Kec. Yapen Sel., Kabupaten Kepulauan Yapen, Papua","Kabupaten Kepulauan Yapen, Papua",PAPUA,,Indonesia,,-1.8755519,136.2259,https://maps.google.com/?cid=0x0:0x6f28db4b70315ad2
housing complex,Komplek perumahan,J.Imbiri's Home sweet home,"46QR+WJ5 kamp.kandowarira(depan GBI Mawar Sharon, Mantembu, Kec. Yapen Sel., Kabupaten Kepulauan Yapen, Papua 98211","Mantembu, Kec. Yapen Sel., Kabupaten Kepulauan Yapen",PAPUA,98211.0,Indonesia,,-1.8607085,136.2416274,https://maps.google.com/?cid=0x0:0xb7487bb2e9c8d480
housing complex,Komplek perumahan,HOME BASE,"46CP+QMV, Jl, Mariaderi, Kec. Yapen Sel., Kabupaten Kepulauan Yapen, Papua","Kabupaten Kepulauan Yapen, Papua",PAPUA,,Indonesia,,-1.878015,136.236664,https://maps.google.com/?cid=0x0:0x81197ea8a5f19546
housing complex,Komplek perumahan,Kompleks K2,"47G2+HX9, Warari, Kec. Yapen Sel., Kabupaten Kepulauan Yapen, Papua 98212","Warari, Kec. Yapen Sel., Kabupaten Kepulauan Yapen",PAPUA,98212.0,Indonesia,,-1.873576,136.2524694,https://maps.google.com/?cid=0x0:0x803ccb06cb7b4362
housing complex,housing complex,Papua 98212,"Warari, Kec. Yapen Sel., Kabupaten Kepulauan Yapen, Papua","Kabupaten Kepulauan Yapen, Papua",PAPUA,,Indonesia,,-1.8764518,136.2546196,https://maps.google.com/?cid=0x0:0x297f020ff7113bd
housing complex,Komplek perumahan,Jeje House,"46GX+XHX, Jl. Nipah, Warari, Kec. Yapen Sel., Kabupaten Kepulauan Yapen, Papua 98212","Jl. Nipah, Warari, Kec. Yapen Sel., Kabupaten Kepulauan Yapen",PAPUA,98212.0,Indonesia,,-1.872521,136.2489778,https://maps.google.com/?cid=0x0:0xeb4ba59c4de59b8
housing complex,Komplek perumahan,Perumahan KPR,"46GW+82Q, Frans Kaisiepo Yapen Selatan, Jl. Frans Kaisiepo, Famboaman, Yapen, Kabupaten Kepulauan Yapen, Papua 98213","Frans Kaisiepo Yapen Selatan, Jl. Frans Kaisiepo, Famboaman, Yapen, Kabupaten Kepulauan Yapen",PAPUA,98213.0,Indonesia,,-1.8741624,136.245108,https://maps.google.com/?cid=0x0:0xfddc6bd7236f381
housing complex,Komplek perumahan,Perumahan Zainuddin,"46MR+96M, Jl. Sudirman, Anatorei, Kec. Yapen Sel., Kabupaten Kepulauan Yapen, Papua 98213","Jl. Sudirman, Anatorei, Kec. Yapen Sel., Kabupaten Kepulauan Yapen",PAPUA,98213.0,Indonesia,,-1.866699,136.2399339,https://maps.google.com/?cid=0x0:0x3f413bcb0caf459
housing complex,Pembangunan Perumahan,WINNY HOME,"46FX+43G, Warari, Kec. Yapen Sel., Kabupaten Kepulauan Yapen, Papua 98213","Warari, Kec. Yapen Sel., Kabupaten Kepulauan Yapen",PAPUA,98213.0,Indonesia,,-1.8774071,136.2476503,https://maps.google.com/?cid=0x0:0xa008ec56b17b6fa6
housing complex,Perhimpunan Pengembang Perumahan,RUMAH SAYA,"46GV+FV3, Gg. I KPR, Famboaman, Kec. Yapen Sel., Kabupaten Kepulauan Yapen, Papua 98213","Gg. I KPR, Famboaman, Kec. Yapen Sel., Kabupaten Kepulauan Yapen",PAPUA,98213.0,Indonesia,,-1.8738629,136.2446862,https://maps.google.com/?cid=0x0:0xbe378fdf8c289f10
housing complex,Gedung Apartemen,Patrick DZ,"46GW+754, Warari, Kec. Yapen Sel., Kabupaten Kepulauan Yapen, Papua 98213","Warari, Kec. Yapen Sel., Kabupaten Kepulauan Yapen",PAPUA,98213.0,Indonesia,,-1.8743651,136.2454522,https://maps.google.com/?cid=0x0:0xe2de36a743925650
housing complex,Komplek perumahan,Iksan gacorr punya rmh,"468V+8X9, Serui Kota, Kec. Yapen Sel., Kabupaten Kepulauan Yapen, Papua 98215","Serui Kota, Kec. Yapen Sel., Kabupaten Kepulauan Yapen",PAPUA,98215.0,Indonesia,,-1.8842695,136.2456423,https://maps.google.com/?cid=0x0:0x3a9f7cb368244c58
housing complex,Komplek perumahan,Kel. M. Mambai,"47G3+H7V, Warari, Kec. Yapen Sel., Kabupaten Kepulauan Yapen, Papua 98212","Warari, Kec. Yapen Sel., Kabupaten Kepulauan Yapen",PAPUA,98212.0,Indonesia,,-1.8735102,136.2531631,https://maps.google.com/?cid=0x0:0x9a7d1a13b09a0d01
housing complex,Komplek perumahan,Keluarga.marani,"467W+VQV, Serui Jaya, Kec. Yapen Sel., Kabupaten Kepulauan Yapen, Papua","Kabupaten Kepulauan Yapen, Papua",PAPUA,,Indonesia,81377382169.0,-1.8852557,136.2469094,https://maps.google.com/?cid=0x0:0x4cc86af6ae30a980
housing complex,housing complex,Rumah Dg Ngalle,"46MQ+RWG, Anatorei, Kec. Yapen Sel., Kabupaten Kepulauan Yapen, Papua 98213","Anatorei, Kec. Yapen Sel., Kabupaten Kepulauan Yapen",PAPUA,98213.0,Indonesia,,-1.8654371,136.2397875,https://maps.google.com/?cid=0x0:0xb9ce423a7edd6a65
housing complex,Perhimpunan Pengembang Perumahan,rumah gaby,"47C3+J87, Warari, Kec. Yapen Sel., Kabupaten Kepulauan Yapen, Papua","Kabupaten Kepulauan Yapen, Papua",PAPUA,,Indonesia,,-1.8784509,136.2532903,https://maps.google.com/?cid=0x0:0x1cce916e93cb4a78
housing complex,Komplek perumahan,H. Yusran Subair,"46GV+QVM, Famboaman, Kec. Yapen Sel., Kabupaten Kepulauan Yapen, Papua 98213","Famboaman, Kec. Yapen Sel., Kabupaten Kepulauan Yapen",PAPUA,98213.0,Indonesia,,-1.8730496,136.2446699,https://maps.google.com/?cid=0x0:0x5c47b8a68a3f1448
housing complex,Komplek perumahan,EL kompleks,"46CH+MM, Mariaderi, Kec. Yapen Sel., Kabupaten Kepulauan Yapen, Papua 98215","Mariaderi, Kec. Yapen Sel., Kabupaten Kepulauan Yapen",PAPUA,98215.0,Indonesia,,-1.8784935,136.229268,https://maps.google.com/?cid=0x0:0x2cb448aa8cf1b4bf
housing complex,housing complex,Papua 98213,"Kec. Yapen Sel., Kabupaten Kepulauan Yapen, Papua","Kabupaten Kepulauan Yapen, Papua",PAPUA,,Indonesia,,-1.8722668,136.2354713,https://maps.google.com/?cid=0x0:0xf81978a1f9fcf655
housing complex,Perhimpunan Pengembang Perumahan,RUMAH SAYA,"46GV+FV3, Gg. I KPR, Famboaman, Kec. Yapen Sel., Kabupaten Kepulauan Yapen, Papua 98213","Gg. I KPR, Famboaman, Kec. Yapen Sel., Kabupaten Kepulauan Yapen",PAPUA,98213.0,Indonesia,,-1.8738629,136.2446862,https://maps.google.com/?cid=0x0:0xbe378fdf8c289f10
housing complex,Komplek perumahan,Perumahan Zainuddin,"46MR+96M, Jl. Sudirman, Anatorei, Kec. Yapen Sel., Kabupaten Kepulauan Yapen, Papua 98213","Jl. Sudirman, Anatorei, Kec. Yapen Sel., Kabupaten Kepulauan Yapen",PAPUA,98213.0,Indonesia,,-1.866699,136.2399339,https://maps.google.com/?cid=0x0:0x3f413bcb0caf459
housing complex,Perhimpunan Pengembang Perumahan,Rumah A.sembiring/ E. Sitepu,"46CV+H64, Jl. Mangga, Serui Jaya, Kec. Yapen Sel., Kabupaten Kepulauan Yapen, Papua 98213","Jl. Mangga, Serui Jaya, Kec. Yapen Sel., Kabupaten Kepulauan Yapen",PAPUA,98213.0,Indonesia,,-1.878129,136.24301,https://maps.google.com/?cid=0x0:0xd554e5e9e073e925
housing complex,Komplek perumahan,Rumah wahidmk,"46CM+CQ5, Serui Kota, Kec. Yapen Sel., Kabupaten Kepulauan Yapen, Papua 98213","Serui Kota, Kec. Yapen Sel., Kabupaten Kepulauan Yapen",PAPUA,98213.0,Indonesia,,-1.8786134,136.2349759,https://maps.google.com/?cid=0x0:0x4be117b2278c1db7
housing complex,housing complex,Rumah Dg Ngalle,"46MQ+RWG, Anatorei, Kec. Yapen Sel., Kabupaten Kepulauan Yapen, Papua 98213","Anatorei, Kec. Yapen Sel., Kabupaten Kepulauan Yapen",PAPUA,98213.0,Indonesia,,-1.8654371,136.2397875,https://maps.google.com/?cid=0x0:0xb9ce423a7edd6a65
housing complex,Komplek perumahan,Jeje House,"46GX+XHX, Jl. Nipah, Warari, Kec. Yapen Sel., Kabupaten Kepulauan Yapen, Papua 98212","Jl. Nipah, Warari, Kec. Yapen Sel., Kabupaten Kepulauan Yapen",PAPUA,98212.0,Indonesia,,-1.872521,136.2489778,https://maps.google.com/?cid=0x0:0xeb4ba59c4de59b8
housing complex,Pembangunan Perumahan,WINNY HOME,"46FX+43G, Warari, Kec. Yapen Sel., Kabupaten Kepulauan Yapen, Papua 98213","Warari, Kec. Yapen Sel., Kabupaten Kepulauan Yapen",PAPUA,98213.0,Indonesia,,-1.8774071,136.2476503,https://maps.google.com/?cid=0x0:0xa008ec56b17b6fa6
housing complex,Gedung Apartemen,Patrick DZ,"46GW+754, Warari, Kec. Yapen Sel., Kabupaten Kepulauan Yapen, Papua 98213","Warari, Kec. Yapen Sel., Kabupaten Kepulauan Yapen",PAPUA,98213.0,Indonesia,,-1.8743651,136.2454522,https://maps.google.com/?cid=0x0:0xe2de36a743925650
housing complex,Komplek perumahan,Bunga86,"46CV+WVH, Jl. Mangga, Serui Jaya, Kec. Yapen Sel., Kabupaten Kepulauan Yapen, Papua 98213","Jl. Mangga, Serui Jaya, Kec. Yapen Sel., Kabupaten Kepulauan Yapen",PAPUA,98213.0,Indonesia,,-1.8776946,136.2447347,https://maps.google.com/?cid=0x0:0xc02f697566ecff6c
housing complex,Komplek perumahan,I LOVE YOU,"46HQ+H3G, Serui Kota, Kec. Yapen Sel., Kabupaten Kepulauan Yapen, Papua 98213","Serui Kota, Kec. Yapen Sel., Kabupaten Kepulauan Yapen",PAPUA,98213.0,Indonesia,81244099188.0,-1.8710573,136.2377053,https://maps.google.com/?cid=0x0:0xf0c53bffa680f2e3
housing complex,Komplek perumahan,KEL.P.Kumbubui,"46HQ+F82, Serui Kota, Kec. Yapen Sel., Kabupaten Kepulauan Yapen, Papua 98213","Serui Kota, Kec. Yapen Sel., Kabupaten Kepulauan Yapen",PAPUA,98213.0,Indonesia,,-1.8713103,136.2385439,https://maps.google.com/?cid=0x0:0x1eb53826cbb68ea8
housing complex,Komplek perumahan,Febby's house,"Jl. Maluku Serui No.28, Serui Kota, Kec. Yapen Sel., Kabupaten Kepulauan Yapen, Papua 98213","Serui Kota, Kec. Yapen Sel., Kabupaten Kepulauan Yapen",PAPUA,98213.0,Indonesia,,-1.8766766,136.2367535,https://maps.google.com/?cid=0x0:0x5d5df1994893bb58
housing complex,Komplek perumahan,Perumahan Zainuddin,"46MR+96M, Jl. Sudirman, Anatorei, Kec. Yapen Sel., Kabupaten Kepulauan Yapen, Papua 98213","Jl. Sudirman, Anatorei, Kec. Yapen Sel., Kabupaten Kepulauan Yapen",PAPUA,98213.0,Indonesia,,-1.866699,136.2399339,https://maps.google.com/?cid=0x0:0x3f413bcb0caf459
housing complex,housing complex,Papua 98214,"Yapan, Kec. Yapen Sel., Kabupaten Kepulauan Yapen, Papua","Kabupaten Kepulauan Yapen, Papua",PAPUA,,Indonesia,,-1.8312862,136.2426511,https://maps.google.com/?cid=0x0:0x80248e4590702d10
housing complex,Komplek perumahan,AIDE KOMPLEKS,"46XP+83G, Jalan Kawara Gang, Mantembu, Kec. Yapen Sel., Kabupaten Kepulauan Yapen, Papua 98631","Jalan Kawara Gang, Mantembu, Kec. Yapen Sel., Kabupaten Kepulauan Yapen",PAPUA,98631.0,Indonesia,,-1.8516909,136.2351877,https://maps.google.com/?cid=0x0:0x676b1a02e61c69f0
housing complex,Komplek perumahan,Dewa House,"46PQ+F58, Anatorei, Kec. Yapen Sel., Kabupaten Kepulauan Yapen, Papua 98211","Anatorei, Kec. Yapen Sel., Kabupaten Kepulauan Yapen",PAPUA,98211.0,Indonesia,,-1.8635897,136.2375863,https://maps.google.com/?cid=0x0:0x1246562b12bd3cce
housing complex,Komplek perumahan,Kompleks Avatar 86,"46PR+CVH, Anatorei, Kec. Yapen Sel., Kabupaten Kepulauan Yapen, Papua 98211","Anatorei, Kec. Yapen Sel., Kabupaten Kepulauan Yapen",PAPUA,98211.0,Indonesia,,-1.8643019,136.2416052,https://maps.google.com/?cid=0x0:0x6a96f3f9660db98b
housing complex,Komplek perumahan,Angga House,"46QR+2WF, Jl. Sotasore, Kelurahan Kandowarira, Anatorei, Kabupaten Kepulauan Yapen, Papua","Kabupaten Kepulauan Yapen, Papua",PAPUA,,Indonesia,,-1.8624476,136.2422956,https://maps.google.com/?cid=0x0:0x9c5da0e47f7b05d
housing complex,Komplek perumahan,Ida home,"46MP+F8Q, Wainakawini, Serui Kota, Kec. Yapen Sel., Kabupaten Kepulauan Yapen, Papua","Kabupaten Kepulauan Yapen, Papua",PAPUA,,Indonesia,,-1.8662929,136.2358674,https://maps.google.com/?cid=0x0:0x89808f34615a5d2
housing complex,Komplek perumahan,J.Imbiri's Home sweet home,"46QR+WJ5 kamp.kandowarira(depan GBI Mawar Sharon, Mantembu, Kec. Yapen Sel., Kabupaten Kepulauan Yapen, Papua 98211","Mantembu, Kec. Yapen Sel., Kabupaten Kepulauan Yapen",PAPUA,98211.0,Indonesia,,-1.8607085,136.2416274,https://maps.google.com/?cid=0x0:0xb7487bb2e9c8d480
housing complex,Komplek perumahan,Timber home,"46MP+P4C, Warari, Kec. Yapen Sel., Kabupaten Kepulauan Yapen, Papua 98213","Warari, Kec. Yapen Sel., Kabupaten Kepulauan Yapen",PAPUA,98213.0,Indonesia,,-1.8659273,136.2352364,https://maps.google.com/?cid=0x0:0x92c08bed18b30663
housing complex,Komplek perumahan,Rmh {Eman),"46MP+P4C, Warari, Kec. Yapen Sel., Kabupaten Kepulauan Yapen, Papua 98213","Warari, Kec. Yapen Sel., Kabupaten Kepulauan Yapen",PAPUA,98213.0,Indonesia,,-1.8656783,136.2349842,https://maps.google.com/?cid=0x0:0x40a37963a5bd27d2
housing complex,Komplek perumahan,Kalvin,"46PQ+JVV, Anatorei, Kec. Yapen Sel., Kabupaten Kepulauan Yapen, Papua 98211","Anatorei, Kec. Yapen Sel., Kabupaten Kepulauan Yapen",PAPUA,98211.0,Indonesia,,-1.8628333,136.2402551,https://maps.google.com/?cid=0x0:0x1522b9b0ed584052
housing complex,Komplek perumahan,"Kel. Yanes D. Arera, S.Pd","46VP+3QP, Mantembu, Kec. Yapen Sel., Kabupaten Kepulauan Yapen, Papua","Kabupaten Kepulauan Yapen, Papua",PAPUA,,Indonesia,,-1.8572858,136.2369639,https://maps.google.com/?cid=0x0:0xdc9a54700bd3ce7f
housing complex,Komplek perumahan,Helda Manisru,"46MM+9HM, Anatorei, Kec. Yapen Sel., Kabupaten Kepulauan Yapen, Papua 98213","Anatorei, Kec. Yapen Sel., Kabupaten Kepulauan Yapen",PAPUA,98213.0,Indonesia,82261244340.0,-1.8665375,136.2339219,https://maps.google.com/?cid=0x0:0x8a814fe165427b24
housing complex,Pembangunan Perumahan,keluarga Y.ambokari,"46XM+6MX, Mantembu, Kec. Yapen Sel., Kabupaten Kepulauan Yapen, Papua","Kabupaten Kepulauan Yapen, Papua",PAPUA,,Indonesia,,-1.851887,136.2342355,https://maps.google.com/?cid=0x0:0xa621a017ff4f8b49
housing complex,Komplek perumahan,Komplex Bandalam,"469G+F5H, Mariaderi, Kec. Yapen Sel., Kabupaten Kepulauan Yapen, Papua 98215","Mariaderi, Kec. Yapen Sel., Kabupaten Kepulauan Yapen",PAPUA,98215.0,Indonesia,,-1.8813076,136.2254725,https://maps.google.com/?cid=0x0:0x24941bcb5ff4c932
housing complex,housing complex,Kec. Yapen Sel.,"Kabupaten Kepulauan Yapen, Papua","Kabupaten Kepulauan Yapen, Papua",PAPUA,,Indonesia,,-1.884104,136.2418748,https://maps.google.com/?cid=0x0:0x3f81bf02f4d4d5c7
housing complex,Komplek perumahan,EL kompleks,"46CH+MM, Mariaderi, Kec. Yapen Sel., Kabupaten Kepulauan Yapen, Papua 98215","Mariaderi, Kec. Yapen Sel., Kabupaten Kepulauan Yapen",PAPUA,98215.0,Indonesia,,-1.8784935,136.229268,https://maps.google.com/?cid=0x0:0x2cb448aa8cf1b4bf
housing complex,Komplek perumahan,MayaHome,"469G+QQH, Mariaderi, Kec. Yapen Sel., Kabupaten Kepulauan Yapen, Papua 98215","Mariaderi, Kec. Yapen Sel., Kabupaten Kepulauan Yapen",PAPUA,98215.0,Indonesia,,-1.880566,136.2269779,https://maps.google.com/?cid=0x0:0xe843f36cb1672669
housing complex,Komplek perumahan,VI HOME,"468R+9MX, Jl. Sam Ratulangi No.1, Serui Kota, Kec. Yapen Sel., Kabupaten Kepulauan Yapen, Papua 98215","Jl. Sam Ratulangi No.1, Serui Kota, Kec. Yapen Sel., Kabupaten Kepulauan Yapen",PAPUA,98215.0,Indonesia,,-1.8830497,136.2418054,https://maps.google.com/?cid=0x0:0xe39e1e0e29651195
housing complex,Komplek perumahan,Rumah wahidmk,"46CM+CQ5, Serui Kota, Kec. Yapen Sel., Kabupaten Kepulauan Yapen, Papua 98213","Serui Kota, Kec. Yapen Sel., Kabupaten Kepulauan Yapen",PAPUA,98213.0,Indonesia,,-1.8786134,136.2349759,https://maps.google.com/?cid=0x0:0x4be117b2278c1db7
housing complex,Komplek perumahan,Iksan gacorr punya rmh,"468V+8X9, Serui Kota, Kec. Yapen Sel., Kabupaten Kepulauan Yapen, Papua 98215","Serui Kota, Kec. Yapen Sel., Kabupaten Kepulauan Yapen",PAPUA,98215.0,Indonesia,,-1.8842695,136.2456423,https://maps.google.com/?cid=0x0:0x3a9f7cb368244c58
housing complex,Komplek perumahan,Home Iklai fam's,"46GR+FQ7, Jl. Gajah Mada, Serui Kota, Kec. Yapen Sel., Kabupaten Kepulauan Yapen, Papua","Kabupaten Kepulauan Yapen, Papua",PAPUA,,Indonesia,,-1.8739095,136.2419408,https://maps.google.com/?cid=0x0:0x7f286db0bd15b01a
housing complex,Perhimpunan Pengembang Perumahan,Rumah A.sembiring/ E. Sitepu,"46CV+H64, Jl. Mangga, Serui Jaya, Kec. Yapen Sel., Kabupaten Kepulauan Yapen, Papua 98213","Jl. Mangga, Serui Jaya, Kec. Yapen Sel., Kabupaten Kepulauan Yapen",PAPUA,98213.0,Indonesia,,-1.878129,136.24301,https://maps.google.com/?cid=0x0:0xd554e5e9e073e925
housing complex,Pembangunan Perumahan,FP,"469W+QPV, Warari, Kec. Yapen Sel., Kabupaten Kepulauan Yapen, Papua 98215","Warari, Kec. Yapen Sel., Kabupaten Kepulauan Yapen",PAPUA,98215.0,Indonesia,,-1.8809574,136.2464906,https://maps.google.com/?cid=0x0:0xdea0acba7f3113f7
housing complex,Komplek perumahan,Bunga86,"46CV+WVH, Jl. Mangga, Serui Jaya, Kec. Yapen Sel., Kabupaten Kepulauan Yapen, Papua 98213","Jl. Mangga, Serui Jaya, Kec. Yapen Sel., Kabupaten Kepulauan Yapen",PAPUA,98213.0,Indonesia,,-1.8776946,136.2447347,https://maps.google.com/?cid=0x0:0xc02f697566ecff6c
housing complex,housing complex,rumah kel. mudumi,"468Q+C36, Jl. Padat Karya, Tarau, Kec. Yapen Sel., Kabupaten Kepulauan Yapen, Papua 98215","Jl. Padat Karya, Tarau, Kec. Yapen Sel., Kabupaten Kepulauan Yapen",PAPUA,98215.0,Indonesia,,-1.8839749,136.237651,https://maps.google.com/?cid=0x0:0x515143d584a2b13d
housing complex,Komplek perumahan,HOME BASE,"46CP+QMV, Jl, Mariaderi, Kec. Yapen Sel., Kabupaten Kepulauan Yapen, Papua","Kabupaten Kepulauan Yapen, Papua",PAPUA,,Indonesia,,-1.878015,136.236664,https://maps.google.com/?cid=0x0:0x81197ea8a5f19546
housing complex,Komplek perumahan,Aldy house,"469R+J56 Polres, Serui Kota, Kec. Yapen Sel., Kabupaten Kepulauan Yapen, Papua","Kabupaten Kepulauan Yapen, Papua",PAPUA,,Indonesia,82187225935.0,-1.8809651,136.2404038,https://maps.google.com/?cid=0x0:0x10f7bcbb2fc24140
housing complex,housing complex,Distrik Yapen Timur,"Kabupaten Kepulauan Yapen, Papua","Kabupaten Kepulauan Yapen, Papua",PAPUA,,Indonesia,,-1.8231626,136.7603579,https://maps.google.com/?cid=0x0:0x8aa6062a086a2ccd
housing complex,Komplek perumahan,Kompleks Cendana,"5QH2+W92, Awunawai, Distrik Yapen Timur, Kabupaten Kepulauan Yapen, Papua 98252","Awunawai, Distrik Yapen Timur, Kabupaten Kepulauan Yapen",PAPUA,98252.0,Indonesia,,-1.8202468,136.7508988,https://maps.google.com/?cid=0x0:0x93266cffe02bb976
housing complex,Komplek perumahan,Kompleks Medang,"5PHX+FC9, Dawai, Distrik Yapen Timur, Kabupaten Kepulauan Yapen, Papua 98252","Dawai, Distrik Yapen Timur, Kabupaten Kepulauan Yapen",PAPUA,98252.0,Indonesia,,-1.8213496,136.7486085,https://maps.google.com/?cid=0x0:0x897b493e737cb99d
housing complex,Komplek perumahan,Kompleks Gaharu,"5QG3+J4Q, Dawai, Distrik Yapen Timur, Kabupaten Kepulauan Yapen, Papua 98252","Dawai, Distrik Yapen Timur, Kabupaten Kepulauan Yapen",PAPUA,98252.0,Indonesia,,-1.8240342,136.7526583,https://maps.google.com/?cid=0x0:0xff4ef2c6e180f527
housing complex,Komplek perumahan,Rumah Kel N. Bawawa,"5PJP+RP, Dawai, Distrik Yapen Timur, Kabupaten Kepulauan Yapen, Papua","Kabupaten Kepulauan Yapen, Papua",PAPUA,,Indonesia,,-1.8179496,136.7368036,https://maps.google.com/?cid=0x0:0xb8a7548dc5c75651
housing complex,Komplek perumahan,Barak e raya,"5PHW+GHH, Dawai, Distrik Yapen Timur, Kabupaten Kepulauan Yapen, Papua 98252","Dawai, Distrik Yapen Timur, Kabupaten Kepulauan Yapen",PAPUA,98252.0,Indonesia,,-1.8211907,136.7464881,https://maps.google.com/?cid=0x0:0x996547f959e0500b
housing complex,Komplek perumahan,Barak shipping,"5PHW+FFW, Awunawai, Distrik Yapen Timur, Kabupaten Kepulauan Yapen, Papua 98252","Awunawai, Distrik Yapen Timur, Kabupaten Kepulauan Yapen",PAPUA,98252.0,Indonesia,,-1.8212665,136.7462173,https://maps.google.com/?cid=0x0:0xe62419ce93292b5c
housing complex,Komplek perumahan,Kep yapen,"5QW6+FWQ, Awunawai, Distrik Yapen Timur, Kabupaten Kepulauan Yapen, Papua 98252","Awunawai, Distrik Yapen Timur, Kabupaten Kepulauan Yapen",PAPUA,98252.0,Indonesia,,-1.803794,136.7623591,https://maps.google.com/?cid=0x0:0x649dc54ba84d1e0
housing complex,Pembangunan Perumahan,Mess Edelweiss Putri,"5QH2+9RQ, Dawai, Distrik Yapen Timur, Kabupaten Kepulauan Yapen, Papua 98252","Dawai, Distrik Yapen Timur, Kabupaten Kepulauan Yapen",PAPUA,98252.0,Indonesia,,-1.8215475,136.7521199,https://maps.google.com/?cid=0x0:0x596c70e61ac4fb49
housing complex,Komplek perumahan,Endock singadji,"5PHX+27C, Dawai, Distrik Yapen Timur, Kabupaten Kepulauan Yapen, Papua","Kabupaten Kepulauan Yapen, Papua",PAPUA,,Indonesia,,-1.822435,136.7481554,https://maps.google.com/?cid=0x0:0x5a3e38c39c04cb7a
housing complex,Komplek perumahan,Kost Bpk. Adam Sudak,"5QP6+8GQ, Awunawai, Distrik Yapen Timur, Kabupaten Kepulauan Yapen, Papua 98252","Awunawai, Distrik Yapen Timur, Kabupaten Kepulauan Yapen",PAPUA,98252.0,Indonesia,,-1.8141502,136.7613473,https://maps.google.com/?cid=0x0:0x76908677297cc39d
housing complex,Pembangunan Perumahan,Mountain Villa,"5QG3+V92, Awunawai, Distrik Yapen Timur, Kabupaten Kepulauan Yapen, Papua 98252","Awunawai, Distrik Yapen Timur, Kabupaten Kepulauan Yapen",PAPUA,98252.0,Indonesia,,-1.822875,136.7533835,https://maps.google.com/?cid=0x0:0xc4bb889383746708
housing complex,Komplek perumahan,RUMAH MAMA SARAH SAMBER,"5PP5+94, Nunsembai, Distrik Yapen Timur, Kabupaten Kepulauan Yapen, Papua","Kabupaten Kepulauan Yapen, Papua",PAPUA,,Indonesia,,-1.8140731,136.7078574,https://maps.google.com/?cid=0x0:0x8d68ec1059024646
housing complex,Komplek perumahan,RUMAH OLTA,"5QMC+442, Rosbori, Distrik Yapen Timur, Kabupaten Kepulauan Yapen, Papua","Kabupaten Kepulauan Yapen, Papua",PAPUA,,Indonesia,,-1.8172306,136.7702567,https://maps.google.com/?cid=0x0:0x8a2e53557dd9ae6
housing complex,Komplek perumahan,Kompleks Ransarnoni,"48WF+G4J, Menawi, Angkaisera, Kabupaten Kepulauan Yapen, Papua 98255","Menawi, Angkaisera, Kabupaten Kepulauan Yapen",PAPUA,98255.0,Indonesia,,-1.8536566,136.322779,https://maps.google.com/?cid=0x0:0x234f240a642cd8e0
housing complex,housing complex,Papua 98255,"Kabupaten Kepulauan Yapen, Papua","Kabupaten Kepulauan Yapen, Papua",PAPUA,,Indonesia,,-1.8086855,136.3240951,https://maps.google.com/?cid=0x0:0x438de2bf5d4cd8af
housing complex,Perhimpunan Pengembang Perumahan,Kompleks Kaimi,"48X4+QVG, Menawi, Angkaisera, Kabupaten Kepulauan Yapen, Papua 98255","Menawi, Angkaisera, Kabupaten Kepulauan Yapen",PAPUA,98255.0,Indonesia,,-1.8505556,136.3072108,https://maps.google.com/?cid=0x0:0x7c250189cb7e75d4
housing complex,Komplek perumahan,Kompleks K2,"47G2+HX9, Warari, Kec. Yapen Sel., Kabupaten Kepulauan Yapen, Papua 98212","Warari, Kec. Yapen Sel., Kabupaten Kepulauan Yapen",PAPUA,98212.0,Indonesia,,-1.873576,136.2524694,https://maps.google.com/?cid=0x0:0x803ccb06cb7b4362
housing complex,Komplek perumahan,Rumah Bpk Y.B Kaiba,"48R6+7G6, Menawi, Angkaisera, Kabupaten Kepulauan Yapen, Papua 98255","Menawi, Angkaisera, Kabupaten Kepulauan Yapen",PAPUA,98255.0,Indonesia,,-1.8593439,136.3112553,https://maps.google.com/?cid=0x0:0x173c79439d25204
housing complex,Perhimpunan Pengembang Perumahan,Keluarga.Aronggear/Bonai,"48R6+8FM, Menawi, Angkaisera, Kabupaten Kepulauan Yapen, Papua 98255","Menawi, Angkaisera, Kabupaten Kepulauan Yapen",PAPUA,98255.0,Indonesia,,-1.8579355,136.3112753,https://maps.google.com/?cid=0x0:0x27af96ae9dcb7228
housing complex,Komplek perumahan,Kel. Ema Bayoa,"48X6+83, Roipi, Angkaisera, Kabupaten Kepulauan Yapen, Papua","Kabupaten Kepulauan Yapen, Papua",PAPUA,,Indonesia,85348881323.0,-1.8516816,136.3101699,https://maps.google.com/?cid=0x0:0x3f9717e54ef3ae38
housing complex,Komplek perumahan,RELISTA,"48Q6+XH9, Roipi, Angkaisera, Kabupaten Kepulauan Yapen, Papua 98255","Roipi, Angkaisera, Kabupaten Kepulauan Yapen",PAPUA,98255.0,Indonesia,,-1.8600938,136.3114778,https://maps.google.com/?cid=0x0:0x474603378426c5dd
housing complex,housing complex,ANINAM HOME,"48VP+WGQ, Kainui I, Angkaisera, Kabupaten Kepulauan Yapen, Papua 98255","Kainui I, Angkaisera, Kabupaten Kepulauan Yapen",PAPUA,98255.0,Indonesia,,-1.8548202,136.3354693,https://maps.google.com/?cid=0x0:0xc870fee0d0d0c080
housing complex,Komplek perumahan,Kalimati Area,"574X+J6Q, Unnamed Road, Kontiunai, Angkaisera, Kabupaten Kepulauan Yapen, Papua 98255","Unnamed Road, Kontiunai, Angkaisera, Kabupaten Kepulauan Yapen",PAPUA,98255.0,Indonesia,,-1.8434143,136.2981228,https://maps.google.com/?cid=0x0:0xd73ab5cc45f15ab5
housing complex,Komplek perumahan,Ibu Mara,"574X+P5J, Kontiunai, Angkaisera, Kabupaten Kepulauan Yapen, Papua","Kabupaten Kepulauan Yapen, Papua",PAPUA,,Indonesia,,-1.8437832,136.2973959,https://maps.google.com/?cid=0x0:0x88a093df466e3d83
housing complex,housing complex,Rumah Dg Ngalle,"46MQ+RWG, Anatorei, Kec. Yapen Sel., Kabupaten Kepulauan Yapen, Papua 98213","Anatorei, Kec. Yapen Sel., Kabupaten Kepulauan Yapen",PAPUA,98213.0,Indonesia,,-1.8654371,136.2397875,https://maps.google.com/?cid=0x0:0xb9ce423a7edd6a65
housing complex,Komplek perumahan,Angga House,"46QR+2WF, Jl. Sotasore, Kelurahan Kandowarira, Anatorei, Kabupaten Kepulauan Yapen, Papua","Kabupaten Kepulauan Yapen, Papua",PAPUA,,Indonesia,,-1.8624476,136.2422956,https://maps.google.com/?cid=0x0:0x9c5da0e47f7b05d
housing complex,Komplek perumahan,Drs. Y. de Haan,"46GR+RMX, Famboaman, Kec. Yapen Sel., Kabupaten Kepulauan Yapen, Papua 98213","Famboaman, Kec. Yapen Sel., Kabupaten Kepulauan Yapen",PAPUA,98213.0,Indonesia,,-1.8728809,136.2417481,https://maps.google.com/?cid=0x0:0x37c58d5e9b8f6db1
housing complex,Perumahan,Kampung Saruman,"9W78+3H8, Saruman, Distrik Windesi, Kabupaten Kepulauan Yapen, Papua 98254","Saruman, Distrik Windesi, Kabupaten Kepulauan Yapen",PAPUA,98254.0,Indonesia,,-1.6373432,135.9164471,https://maps.google.com/?cid=0x0:0xff90965c326b7320
housing complex,housing complex,Papua 98254,"Kabupaten Kepulauan Yapen, Papua","Kabupaten Kepulauan Yapen, Papua",PAPUA,,Indonesia,,-1.668696,135.9229866,https://maps.google.com/?cid=0x0:0x786984f83d38aaec
housing complex,Pembangunan Perumahan,Kampung Karawi,"72XP+VW6, Karawi, Distrik Windesi, Kabupaten Kepulauan Yapen, Papua","Kabupaten Kepulauan Yapen, Papua",PAPUA,,Indonesia,,-1.7003376,136.0372508,https://maps.google.com/?cid=0x0:0xccdb5d4d8ed242b6
housing complex,Komplek perumahan,Kampung Aryobu,"83Q7+R49, Karawi, Distrik Windesi, Kabupaten Kepulauan Yapen, Papua","Kabupaten Kepulauan Yapen, Papua",PAPUA,,Indonesia,81340986519.0,-1.6604572,136.0628669,https://maps.google.com/?cid=0x0:0xa399d2b183ceeebd
housing complex,housing complex,Pertigaan manainin,"65PH+F9M, Ambaidiru, Distrik Kosiwo, Kabupaten Kepulauan Yapen, Papua 98215","Ambaidiru, Distrik Kosiwo, Kabupaten Kepulauan Yapen",PAPUA,98215.0,Indonesia,,-1.7637875,136.1784219,https://maps.google.com/?cid=0x0:0x109c87142e880ccf
housing complex,Perhimpunan Pengembang Perumahan,Distrik Windesi Kabupaten Kepulauan Yapen,"8WP5+3FX, Windesi, Distrik Windesi, Kabupaten Kepulauan Yapen, Papua 98254","Windesi, Distrik Windesi, Kabupaten Kepulauan Yapen",PAPUA,98254.0,Indonesia,,-1.6647504,135.9087226,https://maps.google.com/?cid=0x0:0xe4a8150ebce933da
housing complex,Gedung Apartemen,HIDDEN VALLEY COMPLEX,"R3WX+8Q7, Tembagapura, Kec. Tembagapura, Kabupaten Mimika, Papua 99967","Tembagapura, Kec. Tembagapura, Kabupaten Mimika",PAPUA,99967.0,Indonesia,,-4.1542159,137.0994215,https://maps.google.com/?cid=0x0:0x8f548cbaf64490ca
housing complex,Perhimpunan Pengembang Perumahan,Wooi,"9F77+9P2, Distrik Wonawa, Kabupaten Kepulauan Yapen, Papua","Kabupaten Kepulauan Yapen, Papua",PAPUA,,Indonesia,,-1.636623,135.4642639,https://maps.google.com/?cid=0x0:0x2ecff9646aab93b8
housing complex,Perhimpunan Pengembang Perumahan,Tanah Marau Wombaibabo,"Warabori, Yapen Bar., Kabupaten Kepulauan Yapen, Papua","Kabupaten Kepulauan Yapen, Papua",PAPUA,,Indonesia,,-1.6969005,135.7338507,https://maps.google.com/?cid=0x0:0x9b989a2b00163b5e
housing complex,Komplek perumahan,Hosea sembai,"84XR+J2, Rosbori, Distrik Windesi, Kabupaten Kepulauan Yapen, Papua","Kabupaten Kepulauan Yapen, Papua",PAPUA,,Indonesia,,-1.6509896,136.1400853,https://maps.google.com/?cid=0x0:0x8af07529b335a07
housing complex,Komplek perumahan,Kampung Kairawi,"7VHJ+P3P, Kairawi, Yapen Bar., Kabupaten Kepulauan Yapen, Papua 98253","Kairawi, Yapen Bar., Kabupaten Kepulauan Yapen",PAPUA,98253.0,Indonesia,,-1.7206701,135.8802041,https://maps.google.com/?cid=0x0:0x59046114a91da090
housing complex,housing complex,Mundaong,"6QRQ+JP7, Wimoni, Yapen Bar., Kabupaten Kepulauan Yapen, Papua","Kabupaten Kepulauan Yapen, Papua",PAPUA,,Indonesia,,-1.758455,135.7892883,https://maps.google.com/?cid=0x0:0xbca4eb491bdb626f
housing complex,housing complex,Home Fam's Z.Korwa,"8FCM+6WH, Kanaki, Distrik Wonawa, Kabupaten Kepulauan Yapen, Papua","Kabupaten Kepulauan Yapen, Papua",PAPUA,,Indonesia,,-1.6794422,135.4848602,https://maps.google.com/?cid=0x0:0xe6fba2231a619981
housing complex,Perhimpunan Pengembang Perumahan,Angkasa putih,"753C+69C, Rosbori, Distrik Windesi, Kabupaten Kepulauan Yapen, Papua","Kabupaten Kepulauan Yapen, Papua",PAPUA,,Indonesia,,-1.7469359,136.1709012,https://maps.google.com/?cid=0x0:0xde91902aca1996a8
housing complex,housing complex,Papua 98215,"Kabupaten Kepulauan Yapen, Papua","Kabupaten Kepulauan Yapen, Papua",PAPUA,,Indonesia,,-1.8017548,136.0944845,https://maps.google.com/?cid=0x0:0xd235688620f2534d
housing complex,Komplek perumahan,EL kompleks,"46CH+MM, Mariaderi, Kec. Yapen Sel., Kabupaten Kepulauan Yapen, Papua 98215","Mariaderi, Kec. Yapen Sel., Kabupaten Kepulauan Yapen",PAPUA,98215.0,Indonesia,,-1.8784935,136.229268,https://maps.google.com/?cid=0x0:0x2cb448aa8cf1b4bf
housing complex,Komplek perumahan,Komplex Bandalam,"469G+F5H, Mariaderi, Kec. Yapen Sel., Kabupaten Kepulauan Yapen, Papua 98215","Mariaderi, Kec. Yapen Sel., Kabupaten Kepulauan Yapen",PAPUA,98215.0,Indonesia,,-1.8813076,136.2254725,https://maps.google.com/?cid=0x0:0x24941bcb5ff4c932
housing complex,Komplek perumahan,Iksan gacorr punya rmh,"468V+8X9, Serui Kota, Kec. Yapen Sel., Kabupaten Kepulauan Yapen, Papua 98215","Serui Kota, Kec. Yapen Sel., Kabupaten Kepulauan Yapen",PAPUA,98215.0,Indonesia,,-1.8842695,136.2456423,https://maps.google.com/?cid=0x0:0x3a9f7cb368244c58
housing complex,Inspektur Tempat Tinggal,Victor Wayangka,"46G7+MWC, Jl. Meredei Serui, Serawandori, Distrik Kosiwo, Kabupaten Kepulauan Yapen, Papua 98215","Jl. Meredei Serui, Serawandori, Distrik Kosiwo, Kabupaten Kepulauan Yapen",PAPUA,98215.0,Indonesia,,-1.873333,136.2147415,https://maps.google.com/?cid=0x0:0x26781300d15fbb81
housing complex,housing complex,Rumah Kos Y. Worabai,"469G+Q3J, Mariaderi, Kec. Yapen Sel., Kabupaten Kepulauan Yapen, Papua","Kabupaten Kepulauan Yapen, Papua",PAPUA,,Indonesia,,-1.8803378,136.2250698,https://maps.google.com/?cid=0x0:0x59c89b28fb4ddfad
housing complex,Komplek perumahan,VI HOME,"468R+9MX, Jl. Sam Ratulangi No.1, Serui Kota, Kec. Yapen Sel., Kabupaten Kepulauan Yapen, Papua 98215","Jl. Sam Ratulangi No.1, Serui Kota, Kec. Yapen Sel., Kabupaten Kepulauan Yapen",PAPUA,98215.0,Indonesia,,-1.8830497,136.2418054,https://maps.google.com/?cid=0x0:0xe39e1e0e29651195
housing complex,Pembangunan Perumahan,Kompleks faidura,"46G8+9CX, Mariaderi, Kec. Yapen Sel., Kabupaten Kepulauan Yapen, Papua 98215","Mariaderi, Kec. Yapen Sel., Kabupaten Kepulauan Yapen",PAPUA,98215.0,Indonesia,,-1.8740125,136.2161094,https://maps.google.com/?cid=0x0:0xcf3a45724fa28557
housing complex,Komplek perumahan,Kos Bergerak Bermakna 2,"468P+5G3, Jl. Padat Karya, Tarau, Kec. Yapen Sel., Kabupaten Kepulauan Yapen, Papua 98215","Jl. Padat Karya, Tarau, Kec. Yapen Sel., Kabupaten Kepulauan Yapen",PAPUA,98215.0,Indonesia,,-1.8846167,136.2363028,https://maps.google.com/?cid=0x0:0x8bc4cfb00fd514d4
housing complex,Komplek perumahan,MayaHome,"469G+QQH, Mariaderi, Kec. Yapen Sel., Kabupaten Kepulauan Yapen, Papua 98215","Mariaderi, Kec. Yapen Sel., Kabupaten Kepulauan Yapen",PAPUA,98215.0,Indonesia,,-1.880566,136.2269779,https://maps.google.com/?cid=0x0:0xe843f36cb1672669
housing complex,Komplek perumahan,KEL.P.Kumbubui,"46HQ+F82, Serui Kota, Kec. Yapen Sel., Kabupaten Kepulauan Yapen, Papua 98213","Serui Kota, Kec. Yapen Sel., Kabupaten Kepulauan Yapen",PAPUA,98213.0,Indonesia,,-1.8713103,136.2385439,https://maps.google.com/?cid=0x0:0x1eb53826cbb68ea8
housing complex,Komplek perumahan,AIDE KOMPLEKS,"46XP+83G, Jalan Kawara Gang, Mantembu, Kec. Yapen Sel., Kabupaten Kepulauan Yapen, Papua 98631","Jalan Kawara Gang, Mantembu, Kec. Yapen Sel., Kabupaten Kepulauan Yapen",PAPUA,98631.0,Indonesia,,-1.8516909,136.2351877,https://maps.google.com/?cid=0x0:0x676b1a02e61c69f0
housing complex,housing complex,rumah kel. mudumi,"468Q+C36, Jl. Padat Karya, Tarau, Kec. Yapen Sel., Kabupaten Kepulauan Yapen, Papua 98215","Jl. Padat Karya, Tarau, Kec. Yapen Sel., Kabupaten Kepulauan Yapen",PAPUA,98215.0,Indonesia,,-1.8839749,136.237651,https://maps.google.com/?cid=0x0:0x515143d584a2b13d
housing complex,housing complex,Keluarga Woisiri,"468X+32J, Serui Jaya, Kec. Yapen Sel., Kabupaten Kepulauan Yapen, Papua 98215","Serui Jaya, Kec. Yapen Sel., Kabupaten Kepulauan Yapen",PAPUA,98215.0,Indonesia,,-1.8852037,136.2478294,https://maps.google.com/?cid=0x0:0x418b3a1f9f7e7a55
housing complex,housing complex,Papua 98252,"Kabupaten Kepulauan Yapen, Papua","Kabupaten Kepulauan Yapen, Papua",PAPUA,,Indonesia,,-1.7581253,136.5547852,https://maps.google.com/?cid=0x0:0xe52dde0e102e427c
housing complex,Komplek perumahan,Kompleks Medang,"5PHX+FC9, Dawai, Distrik Yapen Timur, Kabupaten Kepulauan Yapen, Papua 98252","Dawai, Distrik Yapen Timur, Kabupaten Kepulauan Yapen",PAPUA,98252.0,Indonesia,,-1.8213496,136.7486085,https://maps.google.com/?cid=0x0:0x897b493e737cb99d
housing complex,Komplek perumahan,Kompleks Cendana,"5QH2+W92, Awunawai, Distrik Yapen Timur, Kabupaten Kepulauan Yapen, Papua 98252","Awunawai, Distrik Yapen Timur, Kabupaten Kepulauan Yapen",PAPUA,98252.0,Indonesia,,-1.8202468,136.7508988,https://maps.google.com/?cid=0x0:0x93266cffe02bb976
housing complex,Komplek perumahan,Kompleks Gaharu,"5QG3+J4Q, Dawai, Distrik Yapen Timur, Kabupaten Kepulauan Yapen, Papua 98252","Dawai, Distrik Yapen Timur, Kabupaten Kepulauan Yapen",PAPUA,98252.0,Indonesia,,-1.8240342,136.7526583,https://maps.google.com/?cid=0x0:0xff4ef2c6e180f527
housing complex,Komplek perumahan,Kampung Baru,"5QW6+FWQ, Awunawai, Distrik Yapen Timur, Kabupaten Kepulauan Yapen, Papua 98252","Awunawai, Distrik Yapen Timur, Kabupaten Kepulauan Yapen",PAPUA,98252.0,Indonesia,,-1.803794,136.7623591,https://maps.google.com/?cid=0x0:0xbf8c7a79f5b63b89
housing complex,Komplek perumahan,Kep yapen,"5QW6+FWQ, Awunawai, Distrik Yapen Timur, Kabupaten Kepulauan Yapen, Papua 98252","Awunawai, Distrik Yapen Timur, Kabupaten Kepulauan Yapen",PAPUA,98252.0,Indonesia,,-1.803794,136.7623591,https://maps.google.com/?cid=0x0:0x649dc54ba84d1e0
housing complex,Komplek perumahan,Barak shipping,"5PHW+FFW, Awunawai, Distrik Yapen Timur, Kabupaten Kepulauan Yapen, Papua 98252","Awunawai, Distrik Yapen Timur, Kabupaten Kepulauan Yapen",PAPUA,98252.0,Indonesia,,-1.8212665,136.7462173,https://maps.google.com/?cid=0x0:0xe62419ce93292b5c
housing complex,Komplek perumahan,Barak e raya,"5PHW+GHH, Dawai, Distrik Yapen Timur, Kabupaten Kepulauan Yapen, Papua 98252","Dawai, Distrik Yapen Timur, Kabupaten Kepulauan Yapen",PAPUA,98252.0,Indonesia,,-1.8211907,136.7464881,https://maps.google.com/?cid=0x0:0x996547f959e0500b
housing complex,Komplek perumahan,RUMAH OLTA,"5QMC+442, Rosbori, Distrik Yapen Timur, Kabupaten Kepulauan Yapen, Papua","Kabupaten Kepulauan Yapen, Papua",PAPUA,,Indonesia,,-1.8172306,136.7702567,https://maps.google.com/?cid=0x0:0x8a2e53557dd9ae6
housing complex,Komplek perumahan,Endock singadji,"5PHX+27C, Dawai, Distrik Yapen Timur, Kabupaten Kepulauan Yapen, Papua","Kabupaten Kepulauan Yapen, Papua",PAPUA,,Indonesia,,-1.822435,136.7481554,https://maps.google.com/?cid=0x0:0x5a3e38c39c04cb7a
housing complex,Komplek perumahan,Perumahan Zainuddin,"46MR+96M, Jl. Sudirman, Anatorei, Kec. Yapen Sel., Kabupaten Kepulauan Yapen, Papua 98213","Jl. Sudirman, Anatorei, Kec. Yapen Sel., Kabupaten Kepulauan Yapen",PAPUA,98213.0,Indonesia,,-1.866699,136.2399339,https://maps.google.com/?cid=0x0:0x3f413bcb0caf459
housing complex,Komplek perumahan,Kost Bpk. Adam Sudak,"5QP6+8GQ, Awunawai, Distrik Yapen Timur, Kabupaten Kepulauan Yapen, Papua 98252","Awunawai, Distrik Yapen Timur, Kabupaten Kepulauan Yapen",PAPUA,98252.0,Indonesia,,-1.8141502,136.7613473,https://maps.google.com/?cid=0x0:0x76908677297cc39d
housing complex,Komplek perumahan,Jeje House,"46GX+XHX, Jl. Nipah, Warari, Kec. Yapen Sel., Kabupaten Kepulauan Yapen, Papua 98212","Jl. Nipah, Warari, Kec. Yapen Sel., Kabupaten Kepulauan Yapen",PAPUA,98212.0,Indonesia,,-1.872521,136.2489778,https://maps.google.com/?cid=0x0:0xeb4ba59c4de59b8
housing complex,Komplek perumahan,Kompleks K2,"47G2+HX9, Warari, Kec. Yapen Sel., Kabupaten Kepulauan Yapen, Papua 98212","Warari, Kec. Yapen Sel., Kabupaten Kepulauan Yapen",PAPUA,98212.0,Indonesia,,-1.873576,136.2524694,https://maps.google.com/?cid=0x0:0x803ccb06cb7b4362
housing complex,housing complex,Distrik Raimbawi,"Kabupaten Kepulauan Yapen, Papua","Kabupaten Kepulauan Yapen, Papua",PAPUA,,Indonesia,,-1.767849,136.8405357,https://maps.google.com/?cid=0x0:0x5bfe03ebf6ec49ab
housing complex,Komplek perumahan,Kampung sewenui,"6RJV+H39, Kororompui, Distrik Raimbawi, Kabupaten Kepulauan Yapen, Papua 98252","Kororompui, Distrik Raimbawi, Kabupaten Kepulauan Yapen",PAPUA,98252.0,Indonesia,,-1.7685846,136.842748,https://maps.google.com/?cid=0x0:0x5b051e913092cf60
housing complex,Komplek perumahan,Rumah tinggal,"6V25+6MG, Barawai, Distrik Raimbawi, Kabupaten Kepulauan Yapen, Papua","Kabupaten Kepulauan Yapen, Papua",PAPUA,,Indonesia,,-1.7994319,136.8591989,https://maps.google.com/?cid=0x0:0x78d5ebee9b1ae6ac
housing complex,Komplek perumahan,RONALD RUNABARI,"6RJR+Q6M, Sewenui, Distrik Raimbawi, Kabupaten Kepulauan Yapen, Papua 98252","Sewenui, Distrik Raimbawi, Kabupaten Kepulauan Yapen",PAPUA,98252.0,Indonesia,,-1.768038,136.8405567,https://maps.google.com/?cid=0x0:0x122a5d47048bcc0d
housing complex,Komplek perumahan,Kompleks Cendana,"5QH2+W92, Awunawai, Distrik Yapen Timur, Kabupaten Kepulauan Yapen, Papua 98252","Awunawai, Distrik Yapen Timur, Kabupaten Kepulauan Yapen",PAPUA,98252.0,Indonesia,,-1.8202468,136.7508988,https://maps.google.com/?cid=0x0:0x93266cffe02bb976
housing complex,Komplek perumahan,Kompleks Medang,"5PHX+FC9, Dawai, Distrik Yapen Timur, Kabupaten Kepulauan Yapen, Papua 98252","Dawai, Distrik Yapen Timur, Kabupaten Kepulauan Yapen",PAPUA,98252.0,Indonesia,,-1.8213496,136.7486085,https://maps.google.com/?cid=0x0:0x897b493e737cb99d
housing complex,Komplek perumahan,Kampung Andei,"6V3W+MH, Waindu, Distrik Raimbawi, Kabupaten Kepulauan Yapen, Papua","Kabupaten Kepulauan Yapen, Papua",PAPUA,,Indonesia,,-1.7957825,136.8963986,https://maps.google.com/?cid=0x0:0x523bb0f6f41bd98
housing complex,Komplek perumahan,Antorai,"6R4F+3H, Kororompui, Distrik Raimbawi, Kabupaten Kepulauan Yapen, Papua","Kabupaten Kepulauan Yapen, Papua",PAPUA,,Indonesia,,-1.7948438,136.823944,https://maps.google.com/?cid=0x0:0xb9425f9356a5a820
housing complex,Pembangunan Perumahan,WAINDU,"6V9J+6J, Waindu, Distrik Raimbawi, Kabupaten Kepulauan Yapen, Papua","Kabupaten Kepulauan Yapen, Papua",PAPUA,,Indonesia,,-1.7819447,136.8815317,https://maps.google.com/?cid=0x0:0x73221cff9c14539a
housing complex,Komplek perumahan,Kampung Baru,"5QW6+FWQ, Awunawai, Distrik Yapen Timur, Kabupaten Kepulauan Yapen, Papua 98252","Awunawai, Distrik Yapen Timur, Kabupaten Kepulauan Yapen",PAPUA,98252.0,Indonesia,,-1.803794,136.7623591,https://maps.google.com/?cid=0x0:0xbf8c7a79f5b63b89
housing complex,Komplek perumahan,Gru Pilipus Ampasoi,"6RJR+X64, Sewenui, Sawenui, Distrik Raimbawi, Kabupaten Kepulauan Yapen, Papua 98252","Sewenui, Sawenui, Distrik Raimbawi, Kabupaten Kepulauan Yapen",PAPUA,98252.0,Indonesia,,-1.7671091,136.8410036,https://maps.google.com/?cid=0x0:0x69f2b8c3adf4fbfb
housing complex,Komplek perumahan,Kampung Barawai,"6V25+6MG, Barawai, Distrik Raimbawi, Kabupaten Kepulauan Yapen, Papua","Kabupaten Kepulauan Yapen, Papua",PAPUA,,Indonesia,,-1.7994319,136.8591989,https://maps.google.com/?cid=0x0:0x1ab73d4fe25ff537
housing complex,Komplek perumahan,Barak shipping,"5PHW+FFW, Awunawai, Distrik Yapen Timur, Kabupaten Kepulauan Yapen, Papua 98252","Awunawai, Distrik Yapen Timur, Kabupaten Kepulauan Yapen",PAPUA,98252.0,Indonesia,,-1.8212665,136.7462173,https://maps.google.com/?cid=0x0:0xe62419ce93292b5c
housing complex,Komplek perumahan,Rumah Kel N. Bawawa,"5PJP+RP, Dawai, Distrik Yapen Timur, Kabupaten Kepulauan Yapen, Papua","Kabupaten Kepulauan Yapen, Papua",PAPUA,,Indonesia,,-1.8179496,136.7368036,https://maps.google.com/?cid=0x0:0xb8a7548dc5c75651
housing complex,Komplek perumahan,Rumah Bp kalep Ayomi,"4GH9+W67, Ampimoi, Distrik Tlk. Ampimoi, Kabupaten Kepulauan Yapen, Papua 98252","Ampimoi, Distrik Tlk. Ampimoi, Kabupaten Kepulauan Yapen",PAPUA,98252.0,Indonesia,,-1.8692666,136.5182255,https://maps.google.com/?cid=0x0:0xbc2b5ee070464dad
housing complex,housing complex,Distrik Tlk. Ampimoi,"Kabupaten Kepulauan Yapen, Papua","Kabupaten Kepulauan Yapen, Papua",PAPUA,,Indonesia,,-1.8521856,136.5246471,https://maps.google.com/?cid=0x0:0x9f8f93e4402acbda
housing complex,Komplek perumahan,Karoaipi,"4GFC+PJM, Ampimoi, Distrik Tlk. Ampimoi, Kabupaten Kepulauan Yapen, Papua 98252","Ampimoi, Distrik Tlk. Ampimoi, Kabupaten Kepulauan Yapen",PAPUA,98252.0,Indonesia,,-1.8756579,136.5215623,https://maps.google.com/?cid=0x0:0xe71148479152d771
housing complex,Komplek perumahan,Erup,"4GJ8+MG, Ampimoi, Kabupaten Kepulauan Yapen, Papua","Kabupaten Kepulauan Yapen, Papua",PAPUA,,Indonesia,,-1.8683572,136.5162559,https://maps.google.com/?cid=0x0:0xf677fdb992632a63
housing complex,Komplek perumahan,Duwi woroi,"4GH9+5WQ, Ampimoi, Distrik Tlk. Ampimoi, Kabupaten Kepulauan Yapen, Papua 98252","Ampimoi, Distrik Tlk. Ampimoi, Kabupaten Kepulauan Yapen",PAPUA,98252.0,Indonesia,,-1.8720335,136.5198564,https://maps.google.com/?cid=0x0:0xa8aa6f1ad87cebc9
housing complex,Komplek perumahan,Kamp. Siromi,"4GXC+QM3, Randawaya, Distrik Tlk. Ampimoi, Kabupaten Kepulauan Yapen, Papua 98252","Randawaya, Distrik Tlk. Ampimoi, Kabupaten Kepulauan Yapen",PAPUA,98252.0,Indonesia,,-1.8506019,136.5216671,https://maps.google.com/?cid=0x0:0x85f0b0a5b59f832b
housing complex,Perumahan,Sabari,"4GXG+3M6, Randawaya, Distrik Tlk. Ampimoi, Kabupaten Kepulauan Yapen, Papua 98252","Randawaya, Distrik Tlk. Ampimoi, Kabupaten Kepulauan Yapen",PAPUA,98252.0,Indonesia,,-1.8523373,136.5266556,https://maps.google.com/?cid=0x0:0x16c267b3893360be
housing complex,Perhimpunan Pengembang Perumahan,Teluk Ampimoi,"5G92+5PW, Ampimoi, Distrik Tlk. Ampimoi, Kabupaten Kepulauan Yapen, Papua 98252","Ampimoi, Distrik Tlk. Ampimoi, Kabupaten Kepulauan Yapen",PAPUA,98252.0,Indonesia,,-1.8320023,136.5018235,https://maps.google.com/?cid=0x0:0xd44fc6141ac1091a
housing complex,Tujuan Wisata,Menawordei,"5G2F+2H, Randawaya, Distrik Tlk. Ampimoi, Kabupaten Kepulauan Yapen, Papua","Kabupaten Kepulauan Yapen, Papua",PAPUA,,Indonesia,,-1.8498854,136.5239856,https://maps.google.com/?cid=0x0:0x330fc0f7f7ce888d
housing complex,Komplek perumahan,Nuwoaf,"4GP7+WG, Ampimoi, Kabupaten Kepulauan Yapen, Papua","Kabupaten Kepulauan Yapen, Papua",PAPUA,,Indonesia,,-1.8626855,136.513753,https://maps.google.com/?cid=0x0:0x72ec702e06f9d2b6
housing complex,Komplek perumahan,KAMPUNG MAMARIMP Distrik Wabuayar,"4G89+4F7, Kampung Mamarimp, Wabuayar, Kabupaten Kepulauan Yapen, Papua","Kabupaten Kepulauan Yapen, Papua",PAPUA,,Indonesia,,-1.8847029,136.5186688,https://maps.google.com/?cid=0x0:0x7d147f742946f6d3
housing complex,Komplek perumahan,Kampung Wabuayar,"4FP8+C52, Wanampompi, Angkaisera, Kabupaten Kepulauan Yapen, Papua","Kabupaten Kepulauan Yapen, Papua",PAPUA,,Indonesia,,-1.8639868,136.4654057,https://maps.google.com/?cid=0x0:0xf1c13f0d11c3d19e
housing complex,Komplek perumahan,Bobo Akar Mematikan,"4CVW+3G, Wanampompi, Angkaisera, Kabupaten Kepulauan Yapen, Papua","Kabupaten Kepulauan Yapen, Papua",PAPUA,,Indonesia,,-1.8573029,136.4463178,https://maps.google.com/?cid=0x0:0x35fdc725fcd4bb80
housing complex,Komplek perumahan,Kampung Waroser,"4G5Q+8W, Karoaipi, Kabupaten Kepulauan Yapen, Papua","Kabupaten Kepulauan Yapen, Papua",PAPUA,,Indonesia,,-1.8917389,136.5398687,https://maps.google.com/?cid=0x0:0x170e971af5097f8
housing complex,Perhimpunan Pengembang Perumahan,Ambaiisland,"46CP+QMV, Serui Kota, Kec. Yapen Sel., Kabupaten Kepulauan Yapen, Papua","Kabupaten Kepulauan Yapen, Papua",PAPUA,,Indonesia,,-1.878015,136.236664,https://maps.google.com/?cid=0x0:0x2b4e3f74dd660364
housing complex,Pembangunan Perumahan,Home Aninam,"468R+9P5, Serui Kota, Kec. Yapen Sel., Kabupaten Kepulauan Yapen, Papua","Kabupaten Kepulauan Yapen, Papua",PAPUA,,Indonesia,,-1.884104,136.2418748,https://maps.google.com/?cid=0x0:0x2f75b94d93ffcadf
housing complex,housing complex,Papua 98255,"Kabupaten Kepulauan Yapen, Papua","Kabupaten Kepulauan Yapen, Papua",PAPUA,,Indonesia,,-1.8086855,136.3240951,https://maps.google.com/?cid=0x0:0x438de2bf5d4cd8af
housing complex,Balai Pertemuan Desa,Balai kampung Bairei,"38MW+8CC, Kampung Bairei, Kec. Kepulauan Ambai, Kabupaten Kepulauan Yapen, Papua","Kabupaten Kepulauan Yapen, Papua",PAPUA,,Indonesia,,-1.9166902,136.3460141,https://maps.google.com/?cid=0x0:0x532b3f123c7ed6fc
housing complex,Pembangunan Perumahan,markas opm,"pulau urampi, Adiwipi, Kec. Kepulauan Ambai, Kabupaten Kepulauan Yapen, Papua","Kabupaten Kepulauan Yapen, Papua",PAPUA,,Indonesia,,-1.9580441,136.3772406,https://maps.google.com/?cid=0x0:0x8cf46e4726cb1894
housing complex,Perhimpunan Pengembang Perumahan,Kompleks Nuniande,"37MR+WFR, Saweru, Kec. Kepulauan Ambai, Kabupaten Kepulauan Yapen, Papua 98255","Saweru, Kec. Kepulauan Ambai, Kabupaten Kepulauan Yapen",PAPUA,98255.0,Indonesia,,-1.9147314,136.2918528,https://maps.google.com/?cid=0x0:0x7ea838b1432fb9dc
housing complex,Perhimpunan Pengembang Perumahan,Andarias Wanggai Pu Rumah,"38QV+C6, Ambai II, Kabupaten Kepulauan Yapen, Papua","Kabupaten Kepulauan Yapen, Papua",PAPUA,,Indonesia,,-1.911835,136.3433,https://maps.google.com/?cid=0x0:0x6879b5e1b7ed84b7
housing complex,housing complex,Home Fam's Z.Korwa,"8FCM+6WH, Kanaki, Distrik Wonawa, Kabupaten Kepulauan Yapen, Papua","Kabupaten Kepulauan Yapen, Papua",PAPUA,,Indonesia,,-1.6794422,135.4848602,https://maps.google.com/?cid=0x0:0xe6fba2231a619981
housing complex,housing complex,Distrik Wonawa,"Kabupaten Kepulauan Yapen, Papua","Kabupaten Kepulauan Yapen, Papua",PAPUA,,Indonesia,,-1.6107554,135.4427446,https://maps.google.com/?cid=0x0:0xb73fde2341a96d85
housing complex,Perhimpunan Pengembang Perumahan,Wooi,"9F77+9P2, Distrik Wonawa, Kabupaten Kepulauan Yapen, Papua","Kabupaten Kepulauan Yapen, Papua",PAPUA,,Indonesia,,-1.636623,135.4642639,https://maps.google.com/?cid=0x0:0x2ecff9646aab93b8
housing complex,Perhimpunan Pengembang Perumahan,Kediaman Bapa Pdt Y Kendi,"8GC5+R6, Kanaki, Distrik Wonawa, Kabupaten Kepulauan Yapen, Papua","Kabupaten Kepulauan Yapen, Papua",PAPUA,,Indonesia,,-1.6778949,135.5080952,https://maps.google.com/?cid=0x0:0x8b92329c3539c6a3
housing complex,Perhimpunan Pengembang Perumahan,Kampung Karemoni,"9F86+R6, Woinap, Distrik Wonawa, Kabupaten Kepulauan Yapen, Papua","Kabupaten Kepulauan Yapen, Papua",PAPUA,,Indonesia,,-1.6329508,135.4605034,https://maps.google.com/?cid=0x0:0xb513c04aad4d6870
housing complex,housing complex,Home Dacosta,"8J47+2F, Aibondeni, Kabupaten Kepulauan Yapen, Papua","Kabupaten Kepulauan Yapen, Papua",PAPUA,,Indonesia,,-1.69497,135.61369,https://maps.google.com/?cid=0x0:0x63ef716f4d06530a
housing complex,housing complex,Papua 98253,"Kabupaten Kepulauan Yapen, Papua","Kabupaten Kepulauan Yapen, Papua",PAPUA,,Indonesia,,-1.692705,135.7710559,https://maps.google.com/?cid=0x0:0xe712ef09824c8ae8
housing complex,Perhimpunan Pengembang Perumahan,Distrik Windesi Kabupaten Kepulauan Yapen,"8WP5+3FX, Windesi, Distrik Windesi, Kabupaten Kepulauan Yapen, Papua 98254","Windesi, Distrik Windesi, Kabupaten Kepulauan Yapen",PAPUA,98254.0,Indonesia,,-1.6647504,135.9087226,https://maps.google.com/?cid=0x0:0xe4a8150ebce933da
housing complex,Perhimpunan Pengembang Perumahan,Wetandei,"7QRG+6JF, Warabori, Yapen Bar., Kabupaten Kepulauan Yapen, Papua 98253","Warabori, Yapen Bar., Kabupaten Kepulauan Yapen",PAPUA,98253.0,Indonesia,,-1.7094386,135.7765543,https://maps.google.com/?cid=0x0:0x13f9f4b51ed8ea5f
housing complex,housing complex,Home Fam's Z.Korwa,"8FCM+6WH, Kanaki, Distrik Wonawa, Kabupaten Kepulauan Yapen, Papua","Kabupaten Kepulauan Yapen, Papua",PAPUA,,Indonesia,,-1.6794422,135.4848602,https://maps.google.com/?cid=0x0:0xe6fba2231a619981
housing complex,Perhimpunan Pengembang Perumahan,Wooi,"9F77+9P2, Distrik Wonawa, Kabupaten Kepulauan Yapen, Papua","Kabupaten Kepulauan Yapen, Papua",PAPUA,,Indonesia,,-1.636623,135.4642639,https://maps.google.com/?cid=0x0:0x2ecff9646aab93b8
housing complex,housing complex,R. A.Marahole,"G87M+48, Miosnum, Kec. Pulau Yerui, Kabupaten Kepulauan Yapen, Papua","Kabupaten Kepulauan Yapen, Papua",PAPUA,,Indonesia,,-1.4871953,135.3332735,https://maps.google.com/?cid=0x0:0x7bd762ec82e32c9e
housing complex,Komplek perumahan,Wandimay,"8PWH+X93, Rarisi, Distrik Poom, Kabupaten Kepulauan Yapen, Papua","Kabupaten Kepulauan Yapen, Papua",PAPUA,,Indonesia,,-1.6526052,135.7284124,https://maps.google.com/?cid=0x0:0xb830709ec6643394
housing complex,housing complex,Mundaong,"6QRQ+JP7, Wimoni, Yapen Bar., Kabupaten Kepulauan Yapen, Papua","Kabupaten Kepulauan Yapen, Papua",PAPUA,,Indonesia,,-1.758455,135.7892883,https://maps.google.com/?cid=0x0:0xbca4eb491bdb626f
housing complex,Komplek perumahan,ANDEI,"6W43+M3, Andei, Kabupaten Kepulauan Yapen, Papua","Kabupaten Kepulauan Yapen, Papua",PAPUA,,Indonesia,,-1.7933125,135.9026875,https://maps.google.com/?cid=0x0:0x2da2155cf196c642
housing complex,Komplek perumahan,Kampung Aryobu,"83Q7+R49, Karawi, Distrik Windesi, Kabupaten Kepulauan Yapen, Papua","Kabupaten Kepulauan Yapen, Papua",PAPUA,,Indonesia,81340986519.0,-1.6604572,136.0628669,https://maps.google.com/?cid=0x0:0xa399d2b183ceeebd
housing complex,Perhimpunan Pengembang Perumahan,Kediaman Bapa Pdt Y Kendi,"8GC5+R6, Kanaki, Distrik Wonawa, Kabupaten Kepulauan Yapen, Papua","Kabupaten Kepulauan Yapen, Papua",PAPUA,,Indonesia,,-1.6778949,135.5080952,https://maps.google.com/?cid=0x0:0x8b92329c3539c6a3
housing complex,Komplek perumahan,Yermias Ansanai,"6WJ4+3G, Sasawa, Kabupaten Kepulauan Yapen, Papua","Kabupaten Kepulauan Yapen, Papua",PAPUA,,Indonesia,,-1.7698461,135.906275,https://maps.google.com/?cid=0x0:0x6da244c561bbcf74
housing complex,Pembangunan Perumahan,Kampung woredua,"6VFW+FR9, Sasawa, Yapen Bar., Kabupaten Kepulauan Yapen, Papua","Kabupaten Kepulauan Yapen, Papua",PAPUA,,Indonesia,,-1.7763318,135.8971037,https://maps.google.com/?cid=0x0:0xb6dec9355798e0fe
housing complex,Pembangunan Perumahan,Kanawa,"6XPQ+RR9, Kanawa, Distrik Kosiwo, Kabupaten Kepulauan Yapen, Papua","Kabupaten Kepulauan Yapen, Papua",PAPUA,,Indonesia,,-1.7629706,135.9896078,https://maps.google.com/?cid=0x0:0xc7e54f95b851aa34
housing complex,Komplek perumahan,Kampung Aryobu,"83Q7+R49, Karawi, Distrik Windesi, Kabupaten Kepulauan Yapen, Papua","Kabupaten Kepulauan Yapen, Papua",PAPUA,,Indonesia,81340986519.0,-1.6604572,136.0628669,https://maps.google.com/?cid=0x0:0xa399d2b183ceeebd
housing complex,housing complex,Papua 98254,"Kabupaten Kepulauan Yapen, Papua","Kabupaten Kepulauan Yapen, Papua",PAPUA,,Indonesia,,-1.668696,135.9229866,https://maps.google.com/?cid=0x0:0x786984f83d38aaec
housing complex,Perhimpunan Pengembang Perumahan,Distrik Windesi Kabupaten Kepulauan Yapen,"8WP5+3FX, Windesi, Distrik Windesi, Kabupaten Kepulauan Yapen, Papua 98254","Windesi, Distrik Windesi, Kabupaten Kepulauan Yapen",PAPUA,98254.0,Indonesia,,-1.6647504,135.9087226,https://maps.google.com/?cid=0x0:0xe4a8150ebce933da
housing complex,Pembangunan Perumahan,Kampung Karawi,"72XP+VW6, Karawi, Distrik Windesi, Kabupaten Kepulauan Yapen, Papua","Kabupaten Kepulauan Yapen, Papua",PAPUA,,Indonesia,,-1.7003376,136.0372508,https://maps.google.com/?cid=0x0:0xccdb5d4d8ed242b6
housing complex,Komplek perumahan,Hosea sembai,"84XR+J2, Rosbori, Distrik Windesi, Kabupaten Kepulauan Yapen, Papua","Kabupaten Kepulauan Yapen, Papua",PAPUA,,Indonesia,,-1.6509896,136.1400853,https://maps.google.com/?cid=0x0:0x8af07529b335a07
housing complex,Komplek perumahan,Wandimay,"8PWH+X93, Rarisi, Distrik Poom, Kabupaten Kepulauan Yapen, Papua","Kabupaten Kepulauan Yapen, Papua",PAPUA,,Indonesia,,-1.6526052,135.7284124,https://maps.google.com/?cid=0x0:0xb830709ec6643394
housing complex,Perhimpunan Pengembang Perumahan,Angkasa putih,"753C+69C, Rosbori, Distrik Windesi, Kabupaten Kepulauan Yapen, Papua","Kabupaten Kepulauan Yapen, Papua",PAPUA,,Indonesia,,-1.7469359,136.1709012,https://maps.google.com/?cid=0x0:0xde91902aca1996a8
housing complex,Perhimpunan Pengembang Perumahan,Wooi,"9F77+9P2, Distrik Wonawa, Kabupaten Kepulauan Yapen, Papua","Kabupaten Kepulauan Yapen, Papua",PAPUA,,Indonesia,,-1.636623,135.4642639,https://maps.google.com/?cid=0x0:0x2ecff9646aab93b8
housing complex,Komplek perumahan,KELUARGA NARAHA,"753C+69C SMP Negeri 2, Rosbori, Distrik Windesi, Kabupaten Kepulauan Yapen, Papua","Kabupaten Kepulauan Yapen, Papua",PAPUA,,Indonesia,,-1.7469359,136.1709012,https://maps.google.com/?cid=0x0:0xae12f17c604e786b
housing complex,Perhimpunan Pengembang Perumahan,Wetandei,"7QRG+6JF, Warabori, Yapen Bar., Kabupaten Kepulauan Yapen, Papua 98253","Warabori, Yapen Bar., Kabupaten Kepulauan Yapen",PAPUA,98253.0,Indonesia,,-1.7094386,135.7765543,https://maps.google.com/?cid=0x0:0x13f9f4b51ed8ea5f
housing complex,housing complex,Pertigaan manainin,"65PH+F9M, Ambaidiru, Distrik Kosiwo, Kabupaten Kepulauan Yapen, Papua 98215","Ambaidiru, Distrik Kosiwo, Kabupaten Kepulauan Yapen",PAPUA,98215.0,Indonesia,,-1.7637875,136.1784219,https://maps.google.com/?cid=0x0:0x109c87142e880ccf
housing complex,housing complex,Mundaong,"6QRQ+JP7, Wimoni, Yapen Bar., Kabupaten Kepulauan Yapen, Papua","Kabupaten Kepulauan Yapen, Papua",PAPUA,,Indonesia,,-1.758455,135.7892883,https://maps.google.com/?cid=0x0:0xbca4eb491bdb626f
housing complex,housing complex,Kec. Windesi,"Kabupaten Teluk Wondama, Papua Bar.","Kabupaten Teluk Wondama, Papua Bar.",PAPUA,,Indonesia,,-2.601077,134.1340439,https://maps.google.com/?cid=0x0:0x9b9a2ca4d233e89d
housing complex,Komplek perumahan,Kos Ibu Regi,"753C+69C, Belakang asrama putra, Rosbori, Distrik Windesi, Kabupaten Kepulauan Yapen, Papua","Kabupaten Kepulauan Yapen, Papua",PAPUA,,Indonesia,,-1.7469359,136.1709012,https://maps.google.com/?cid=0x0:0xb5b01c4dae12739c
housing complex,Komplek perumahan,Kampung Jenggerai,"F8H8+G49, Sandey, Kec. Windesi, Kabupaten Teluk Wondama, Papua Bar.","Kabupaten Teluk Wondama, Papua Bar.",PAPUA,,Indonesia,,-2.5212171,134.3153705,https://maps.google.com/?cid=0x0:0x8ab81fdd6fcfd420
housing complex,Perhimpunan Pengembang Perumahan,Wb Family,"M5Q5+587, Mamisi, Distrik Nikiwar, Kabupaten Teluk Wondama, Papua Bar. 98361","Mamisi, Distrik Nikiwar, Kabupaten Teluk Wondama",PAPUA,98361.0,Indonesia,,-2.3120951,134.1583002,https://maps.google.com/?cid=0x0:0xd34c8beb9887fdb4
housing complex,housing complex,Papua Bar. 98361,"Kabupaten Teluk Wondama, Papua Bar.","Kabupaten Teluk Wondama, Papua Bar.",PAPUA,,Indonesia,,-2.4815085,134.2099791,https://maps.google.com/?cid=0x0:0xe298b41c3e32d0eb
housing complex,Kompleks Apartemen,Yembekiri,"5559+X2R, Yembekiri I, Distrik Rumberpon, Kabupaten Teluk Wondama, Papua Bar. 98361","Yembekiri I, Distrik Rumberpon, Kabupaten Teluk Wondama",PAPUA,98361.0,Indonesia,,-1.8400203,134.1675312,https://maps.google.com/?cid=0x0:0xbff508c6deda7d72
housing complex,Komplek perumahan,Kampung Mamisi (Distrik Nikwar),"M5X5+W2C, Mamisi, Distrik Nikiwar, Kabupaten Teluk Wondama, Papua Bar.","Kabupaten Teluk Wondama, Papua Bar.",PAPUA,,Indonesia,,-2.3001993,134.1575071,https://maps.google.com/?cid=0x0:0x24590dd735cb8ba9
housing complex,Komplek perumahan,ANGKILO,"543W+5X, Yembekiri II, Distrik Rumberpon, Kabupaten Teluk Wondama, Papua Bar.","Kabupaten Teluk Wondama, Papua Bar.",PAPUA,,Indonesia,,-1.8470662,134.1473921,https://maps.google.com/?cid=0x0:0x9ece5455e604cdad
housing complex,Komplek perumahan,Yarapate,"R4R9+68, Yarpate, Wamesa, Kabupaten Teluk Wondama, Papua Bar.","Kabupaten Teluk Wondama, Papua Bar.",PAPUA,,Indonesia,,-2.1594547,134.1182972,https://maps.google.com/?cid=0x0:0xab0c1bd6d12f1b56
housing complex,Tujuan Wisata,Rumberpon,"45R7+R23, Yembekiri II, Distrik Rumberpon, Kabupaten Teluk Wondama, Papua Bar. 98361","Yembekiri II, Distrik Rumberpon, Kabupaten Teluk Wondama",PAPUA,98361.0,Indonesia,,-1.8579935,134.1625338,https://maps.google.com/?cid=0x0:0xe00aed48d902d296
housing complex,Perhimpunan Pengembang Perumahan,"WERABUR, NIKIWAR","H4VC+F2X, Werabur, Distrik Nikiwar, Kabupaten Teluk Wondama, Papua Bar.","Kabupaten Teluk Wondama, Papua Bar.",PAPUA,,Indonesia,,-2.4062659,134.1201221,https://maps.google.com/?cid=0x0:0x5980a4c0746d6674
housing complex,Perhimpunan Pengembang Perumahan,"Kampung karuan, wondama","Q47J+GG, Karuan, Wamesa, Kabupaten Teluk Wondama, Papua Bar.","Kabupaten Teluk Wondama, Papua Bar.",PAPUA,,Indonesia,,-2.2362204,134.1313264,https://maps.google.com/?cid=0x0:0x587f409de7c9d749
housing complex,Perhimpunan Pengembang Perumahan,Lorong Aise,"GG6R+88Q, Aisandami, Duairi, Kabupaten Teluk Wondama, Papua Bar.","Kabupaten Teluk Wondama, Papua Bar.",PAPUA,,Indonesia,,-2.4891538,134.5408638,https://maps.google.com/?cid=0x0:0xf4198b3da7a7b64a
housing complex,Sekolah,Jlr 4 Kompleks Warayaru,"CF78+679, Sobei, Duairi, Kabupaten Teluk Wondama, Papua Bar. 98362","Sobei, Duairi, Kabupaten Teluk Wondama",PAPUA,98362.0,Indonesia,,-2.5856602,134.4655927,https://maps.google.com/?cid=0x0:0x3669afdff187444d
housing complex,Otoritas Pelabuhan,Pelabuhan Nordiwar,"V85Q+9WM, Nordiwar, Kabupaten Teluk Wondama",Kabupaten Teluk Wondama,PAPUA,,Indonesia,,-2.1415344,134.3398088,https://maps.google.com/?cid=0x0:0x90a6688765437406
housing complex,Komplek perumahan,Sobei,"CFWF+FRJ, Sobei, Duairi, Kabupaten Teluk Wondama, Papua Bar.","Kabupaten Teluk Wondama, Papua Bar.",PAPUA,,Indonesia,,-2.553779,134.474503,https://maps.google.com/?cid=0x0:0xeb7043b5fa65fce4
housing complex,Komplek perumahan,Kompleks,"527J+X97, Kurudu, Distrik Pulau Kurudu, Kabupaten Kepulauan Yapen, Papua","Kabupaten Kepulauan Yapen, Papua",PAPUA,,Indonesia,,-1.8350839,137.0317002,https://maps.google.com/?cid=0x0:0x1947fd5855661029
housing complex,housing complex,Distrik Pulau Kurudu,"Kabupaten Kepulauan Yapen, Papua","Kabupaten Kepulauan Yapen, Papua",PAPUA,,Indonesia,,-1.8369897,137.0324636,https://maps.google.com/?cid=0x0:0xa7a245ed4349075
housing complex,Komplek perumahan,Komplek Rumbewas,"527J+X97, Kurudu, Distrik Pulau Kurudu, Kabupaten Kepulauan Yapen, Papua","Kabupaten Kepulauan Yapen, Papua",PAPUA,,Indonesia,,-1.8350935,137.0309275,https://maps.google.com/?cid=0x0:0xa6699ceafb6b213
housing complex,housing complex,Rumah Keluarga (Alm) M. Sumbari,"5X47+87, Kaipuri, Distrik Pulau Kurudu, Kabupaten Kepulauan Yapen, Papua","Kabupaten Kepulauan Yapen, Papua",PAPUA,,Indonesia,,-1.8441371,136.9631453,https://maps.google.com/?cid=0x0:0x86fd9b4a94f6e7d8
housing complex,Komplek perumahan,MnuKiba,"528H+HF, Kurudu, Distrik Pulau Kurudu, Kabupaten Kepulauan Yapen, Papua","Kabupaten Kepulauan Yapen, Papua",PAPUA,,Indonesia,,-1.8335083,137.0286623,https://maps.google.com/?cid=0x0:0x7e91f8b8c6cab4c2
housing complex,Perhimpunan Pengembang Perumahan,Rumah kades kaipuri,"5X3Q+G3G, Kaipuri, Distrik Pulau Kurudu, Kabupaten Kepulauan Yapen, Papua","Kabupaten Kepulauan Yapen, Papua",PAPUA,,Indonesia,,-1.8461215,136.9880331,https://maps.google.com/?cid=0x0:0x815882359708231b
housing complex,housing complex,Papua 98252,"Kabupaten Kepulauan Yapen, Papua","Kabupaten Kepulauan Yapen, Papua",PAPUA,,Indonesia,,-1.7581253,136.5547852,https://maps.google.com/?cid=0x0:0xe52dde0e102e427c
housing complex,housing complex,Rumah Y Beroperay,"G88P+PH, Miosnum, Kec. Pulau Yerui, Kabupaten Kepulauan Yapen, Papua","Kabupaten Kepulauan Yapen, Papua",PAPUA,,Indonesia,,-1.483176,135.336402,https://maps.google.com/?cid=0x0:0x9cf4373b02d9f675
housing complex,housing complex,Kec. Pulau Yerui,"Miosnum, Kabupaten Kepulauan Yapen, Papua","Kabupaten Kepulauan Yapen, Papua",PAPUA,,Indonesia,,-1.4878278,135.3337148,https://maps.google.com/?cid=0x0:0xf1f496c1e419df1f
housing complex,housing complex,R. A.Marahole,"G87M+48, Miosnum, Kec. Pulau Yerui, Kabupaten Kepulauan Yapen, Papua","Kabupaten Kepulauan Yapen, Papua",PAPUA,,Indonesia,,-1.4871953,135.3332735,https://maps.google.com/?cid=0x0:0x7bd762ec82e32c9e
