Category,Real Category,Business Name,Address,City,State,Postal Code,Country,Phone,Latitude,Longitude,Map Link
cafe,cafe,Kec. Jailolo,"Kabupaten Halmahera Barat, Maluku Utara","Kabupaten Halmahera Barat, Maluku Utara",MALUKU UTARA,,Indonesia,,1.0617618,127.4679849,https://maps.google.com/?cid=0x0:0xf6af1b301ab83fcc
cafe,Kedai Kopi,Wala Coffee,"Acango, Kec. Jailolo, Kabupaten Halmahera Barat, Maluku Utara","Kabupaten Halmahera Barat, Maluku Utara",MALUKU UTARA,,Indonesia,85353948338.0,1.090875,127.4777192,https://maps.google.com/?cid=0x0:0x36c39c7c50dcf33d
cafe,Kafe,D' Saloy Caffee,"Soakonora, Kec. Jailolo, Kabupaten Halmahera Barat, Maluku Utara","Kabupaten Halmahera Barat, Maluku Utara",MALUKU UTARA,,Indonesia,85258713456.0,1.0795197,127.4770321,https://maps.google.com/?cid=0x0:0xac8bf3a6bd72833b
cafe,Kafe,Story coffe timur,"3F69+43H, Jalan Pelabuhan, Gufasa, Jailolo, West Halmahera Regency, North Maluku","Kabupaten Halmahera Barat, Maluku Utara",MALUKU UTARA,,Indonesia,,1.0603002,127.4677292,https://maps.google.com/?cid=0x0:0xd52d09d90ad8fa6
cafe,Kedai Kopi,KiramCoffee,"3FJF+WVM, Hatebicara, Kec. Jailolo, Kabupaten Halmahera Barat, Maluku Utara","Kabupaten Halmahera Barat, Maluku Utara",MALUKU UTARA,,Indonesia,81245712161.0,1.0823451,127.47466,https://maps.google.com/?cid=0x0:0x139c80d3247c3ed7
cafe,Rumah Makan,The Magnify Cafe,"3F59+X4V, Jl. Baru, Kec. Jailolo, Kabupaten Halmahera Barat, Maluku Utara","Kabupaten Halmahera Barat, Maluku Utara",MALUKU UTARA,,Indonesia,,1.0599858,127.4677913,https://maps.google.com/?cid=0x0:0xdf295d1aeabb3aa8
cafe,Kedai Kopi,Che Paxs 2 Caffe,"3FJM+F4Q, Porniti, Kec. Jailolo, Kabupaten Halmahera Barat, Maluku Utara","Kabupaten Halmahera Barat, Maluku Utara",MALUKU UTARA,,Indonesia,,1.0812161,127.4828668,https://maps.google.com/?cid=0x0:0xf9da04ed1da7194a
cafe,Kedai Kopi,RUMAH KOPI,"3FQG+3V, Acango, Kec. Jailolo, Kabupaten Halmahera Barat, Maluku Utara","Kabupaten Halmahera Barat, Maluku Utara",MALUKU UTARA,,Indonesia,85256149230.0,1.0877607,127.4771278,https://maps.google.com/?cid=0x0:0x203bb133d86faf4a
cafe,Musala,JALBON,"3C2X+GXC, Halmahera, Bobanehena, Maluku Utara",Maluku Utara,MALUKU UTARA,,Indonesia,,1.0513091,127.4499048,https://maps.google.com/?cid=0x0:0x5a2e41a9a509f013
cafe,Rumah Makan,RM Makan Saiyo Jailolo,"Kantor Camat Lama, Jl. Puaen No.depan, Gufasa, Jailolo, West Halmahera Regency, North Maluku","Kabupaten Halmahera Barat, Maluku Utara",MALUKU UTARA,,Indonesia,,1.0614184,127.4669057,https://maps.google.com/?cid=0x0:0xf2e1745180e8bb42
cafe,Kafe,Kedaimilkshake42,"3FHF+P64, Unnamed Road, Soakonora, Kec. Jailolo, Kabupaten Halmahera Barat, Maluku Utara","Kabupaten Halmahera Barat, Maluku Utara",MALUKU UTARA,,Indonesia,85267202491.0,1.07927,127.473064,https://maps.google.com/?cid=0x0:0xe72982677e66ecb
cafe,Rumah Makan,Rumah makan airlangga berkah,"Dusun kusumadehe, Soakonora, Kec. Jailolo, Kabupaten Halmahera Barat, Maluku Utara","Kabupaten Halmahera Barat, Maluku Utara",MALUKU UTARA,,Indonesia,82190309189.0,1.0783047,127.4720401,https://maps.google.com/?cid=0x0:0x94d045ceb17567a7
cafe,Kafe,Warkop PUJA~NET,"3FHG+WJ3, Hatebicara, Kec. Jailolo, Kabupaten Halmahera Barat, Maluku Utara","Kabupaten Halmahera Barat, Maluku Utara",MALUKU UTARA,,Indonesia,81340237020.0,1.0797516,127.4765458,https://maps.google.com/?cid=0x0:0xa649e51b321420f3
cafe,Restoran,"RM. Padang Buana Raya, Soakonora, Jailolo, Halmahera Barat, Maluku Utara","Soakonora, Kec. Jailolo, Kabupaten Halmahera Barat, Maluku Utara","Kabupaten Halmahera Barat, Maluku Utara",MALUKU UTARA,,Indonesia,,1.0715411,127.4692697,https://maps.google.com/?cid=0x0:0x904e412d9483bcd5
cafe,cafe,Kec. Loloda,"Kabupaten Halmahera Barat, Maluku Utara","Kabupaten Halmahera Barat, Maluku Utara",MALUKU UTARA,,Indonesia,,1.7053085,127.6066974,https://maps.google.com/?cid=0x0:0xa38ddeb3a91d1272
cafe,Komplek perumahan,Dimbers Village,"JHM2+5F7, Tuguis, Kec. Loloda, Kabupaten Halmahera Barat, Maluku Utara","Kabupaten Halmahera Barat, Maluku Utara",MALUKU UTARA,,Indonesia,85824215366.0,1.6329122,127.5511576,https://maps.google.com/?cid=0x0:0xa2e5c733e59453fa
cafe,Indonesia,RM Jawa Timur,"MHFJ+XJ4, Kedi, Kec. Loloda, Kabupaten Halmahera Barat, Maluku Utara","Kabupaten Halmahera Barat, Maluku Utara",MALUKU UTARA,,Indonesia,82157053466.0,1.6748872,127.5815661,https://maps.google.com/?cid=0x0:0xabd5e7adf9d99484
cafe,Padang,tanjoeng daloha cafe,"RRF4+W54 Bar, Duma, Kec. Galela Bar., Kabupaten Halmahera Utara, Maluku Utara","Kabupaten Halmahera Utara, Maluku Utara",MALUKU UTARA,,Indonesia,81342493853.0,1.8247626,127.8054464,https://maps.google.com/?cid=0x0:0x5130f44a4c48b936
cafe,Kedai Kopi,zona cafe,"FW99+X4, Lelilef Waibulan, Kec. Weda Tengah, Kabupaten Halmahera Tengah, Maluku Utara","Kabupaten Halmahera Tengah, Maluku Utara",MALUKU UTARA,,Indonesia,,0.4699768,127.9177833,https://maps.google.com/?cid=0x0:0x184af3561b5222e9
cafe,Komplek perumahan,Rumah Acel bas,"WPXC+RFP, Baja, Kec. Loloda, Kabupaten Halmahera Barat, Maluku Utara","Kabupaten Halmahera Barat, Maluku Utara",MALUKU UTARA,,Indonesia,,1.9495813,127.7208197,https://maps.google.com/?cid=0x0:0x63f8772fad39af8f
cafe,Bangunan Bersejarah,Rey Lalomo,"PH3W+C95, Bakun, Kec. Loloda, Kabupaten Halmahera Barat, Maluku Utara","Kabupaten Halmahera Barat, Maluku Utara",MALUKU UTARA,,Indonesia,,1.703536,127.595518,https://maps.google.com/?cid=0x0:0x2c71100e07f868a1
cafe,Kedai Kopi,Kedai.SOQ,"RQJC+MF4, Dokulamo, Kec. Galela Bar., Kabupaten Halmahera Utara, Maluku Utara","Kabupaten Halmahera Utara, Maluku Utara",MALUKU UTARA,,Indonesia,82137372791.0,1.8316387,127.7711906,https://maps.google.com/?cid=0x0:0xd1b5c56f1fdd35b8
cafe,Indonesia,Rumah makan,"Desa kira,galela barat, Kec. Galela, Kabupaten Halmahera Utara, Maluku Utara 97761","Kec. Galela, Kabupaten Halmahera Utara",MALUKU UTARA,97761.0,Indonesia,82211109078.0,1.8280485,127.7983839,https://maps.google.com/?cid=0x0:0x1228b09ae4c42c21
cafe,Rumah Makan,Warung Mas Balen,"RQGR+CWX, Dokulamo, Kec. Galela Bar., Kabupaten Halmahera Utara, Maluku Utara","Kabupaten Halmahera Utara, Maluku Utara",MALUKU UTARA,,Indonesia,82349035046.0,1.8261138,127.7923512,https://maps.google.com/?cid=0x0:0xcf10b2dc7f427bc0
cafe,Kafe,Forganza Resto  Cafe,"Kelanit, Kec. Kei Kecil, Kabupaten Maluku Tenggara, Maluku","Kabupaten Maluku Tenggara, Maluku",MALUKU UTARA,,Indonesia,82231789845.0,-5.6575049,132.7029619,https://maps.google.com/?cid=0x0:0x35e7e74d6d2279bc
cafe,Kafe,Jarod Cafe,"Q9MM+C8M, Jl. Stadion, Stadion, Kec. Ternate Tengah, Kota Ternate, Maluku Utara","Kota Ternate, Maluku Utara",MALUKU UTARA,,Indonesia,9213110098.0,0.783593,127.3832983,https://maps.google.com/?cid=0x0:0x110db354f85f7437
cafe,Toko umum,Kios Zhary,"MHCP+XM3, Kedi, Kec. Loloda, Kabupaten Halmahera Barat, Maluku Utara","Kabupaten Halmahera Barat, Maluku Utara",MALUKU UTARA,,Indonesia,,1.6713553,127.5868905,https://maps.google.com/?cid=0x0:0xa3e92b09246482d8
cafe,Restoran,Garage.Coffee,"Jl. Iyantoa RT/RW 001, 001, Sailal, Kec. Maba, Kabupaten Halmahera Timur, Maluku Utara","Kabupaten Halmahera Timur, Maluku Utara",MALUKU UTARA,,Indonesia,85340031999.0,0.8801648,128.2951792,https://maps.google.com/?cid=0x0:0x9cf91ef80cd4283f
cafe,cafe,Maluku Utara,,Maluku Utara,MALUKU UTARA,,Indonesia,,1.5709993,127.8087693,https://maps.google.com/?cid=0x0:0x1030bfbcaf71ac0
cafe,Kedai Kopi,Cafe D'Thaz,"R6FR+X37, Soa Laipoh, Kec. Kota Maba, Kabupaten Halmahera Timur, Maluku Utara","Kabupaten Halmahera Timur, Maluku Utara",MALUKU UTARA,,Indonesia,,0.824794,128.2394308,https://maps.google.com/?cid=0x0:0xa90c6f8574876522
cafe,Kedai Kopi,Cafe Ibu Ibdi,"9PC9+V83, cisasah petir Unnamed Road, Purwasari, Kec. Dramaga, Kabupaten Bogor, Jawa Barat 16680","cisasah petir Unnamed Road, Purwasari, Kec. Dramaga, Kabupaten Bogor",MALUKU UTARA,16680.0,Indonesia,,-6.6278624,106.7183017,https://maps.google.com/?cid=0x0:0xc3ee897e00795667
cafe,Pujasera,R Coffee,"CGMM+8JC, Gamkonora, Kec. Ibu Sel., Kabupaten Halmahera Barat, Maluku Utara","Kabupaten Halmahera Barat, Maluku Utara",MALUKU UTARA,,Indonesia,82195179395.0,1.433325,127.5340121,https://maps.google.com/?cid=0x0:0xed6b4b2356a5e1b5
cafe,Minimarket,Warung Ibu Alvin,"9R95+JC9, Kp. Lebak Sari, RT.04/RW.14, Pamoyanan, Kec. Bogor Sel., Kota Bogor, Jawa Barat 16136","Kp. Lebak Sari, RT.04/RW.14, Pamoyanan, Kec. Bogor Sel., Kota Bogor",MALUKU UTARA,16136.0,Indonesia,,-6.6309595,106.808624,https://maps.google.com/?cid=0x0:0xa04c08c1321fa894
cafe,Nasi,Warung Ibu Harti,"Jl. Pedati Jl. Raya Gn. Putri No.10, Gn. Putri, Kec. Gn. Putri, Kabupaten Bogor, Jawa Barat 16961","Gn. Putri, Kec. Gn. Putri, Kabupaten Bogor",MALUKU UTARA,16961.0,Indonesia,,-6.455135,106.8974528,https://maps.google.com/?cid=0x0:0x611b04df2e7e39cc
cafe,Restoran,Warung Ibu Euis,"9QQW+M2F, Gg. Tengah, RT.01/RW.03, Empang, Kec. Bogor Sel., Kota Bogor, Jawa Barat 16132","Gg. Tengah, RT.01/RW.03, Empang, Kec. Bogor Sel., Kota Bogor",MALUKU UTARA,16132.0,Indonesia,81808778556.0,-6.6108093,106.7950613,https://maps.google.com/?cid=0x0:0x5d9cb0e1d7e8f5e6
cafe,Kedai Kopi,Warung Ibu Umi,"CW5P+455, Karang Tengah, Kec. Babakan Madang, Kabupaten Bogor, Jawa Barat 16810","Karang Tengah, Kec. Babakan Madang, Kabupaten Bogor",MALUKU UTARA,16810.0,Indonesia,,-6.5922258,106.9354952,https://maps.google.com/?cid=0x0:0x31ab92cef76036f5
cafe,Brunch,Warung Ibu Halimah,"Jl. Let. Tata Winata rt.006 rw.002 no. 19, Jl. Kedung Badak, RT.02/RW.06, Kedungbadak, Kec. Tanah Sereal, Kota Bogor, Jawa Barat 16164","Jl. Kedung Badak, RT.02/RW.06, Kedungbadak, Kec. Tanah Sereal, Kota Bogor",MALUKU UTARA,16164.0,Indonesia,85880069591.0,-6.5641004,106.8030917,https://maps.google.com/?cid=0x0:0x5003425fb211e0a6
cafe,Restoran,warung ibu mamah,"Jl. Raya Pertanian No.28, Bendungan, Kec. Ciawi, Kabupaten Bogor, Jawa Barat 16720","Bendungan, Kec. Ciawi, Kabupaten Bogor",MALUKU UTARA,16720.0,Indonesia,89637551110.0,-6.6700483,106.8683172,https://maps.google.com/?cid=0x0:0xc73ebb05e0742734
cafe,Kafe,Kantin Ibu Iceu,"Jl. Selot No.1, RT.04/RW.01, Paledang, Kecamatan Bogor Tengah, Kota Bogor, Jawa Barat 16122","RT.04/RW.01, Paledang, Kecamatan Bogor Tengah, Kota Bogor",MALUKU UTARA,16122.0,Indonesia,,-6.5978887,106.7916943,https://maps.google.com/?cid=0x0:0xf897d3dd2f452c21
cafe,Dapur Umum,Ibu Rizal,"FQWG+PMH, Unnamed Road, Cimanggis, Kecamatan Bojonggede, Kabupaten Bogor, Jawa Barat 16920","Unnamed Road, Cimanggis, Kecamatan Bojonggede, Kabupaten Bogor",MALUKU UTARA,16920.0,Indonesia,89610008620.0,-6.5031958,106.776742,https://maps.google.com/?cid=0x0:0xd07b185bdb111263
cafe,Kedai Kopi,Warung Kopi Ibu Idah,"9WJ5+2X, Bojong Koneng, Kec. Babakan Madang, Kabupaten Bogor, Jawa Barat 16810","Bojong Koneng, Kec. Babakan Madang, Kabupaten Bogor",MALUKU UTARA,16810.0,Indonesia,,-6.6199754,106.9100206,https://maps.google.com/?cid=0x0:0xee5c7d12baefe4a
cafe,Restoran,Kafe ibu iis,"HRP8+6P9, Jl. Mushola Jalan, Ratu Jaya, Kec. Cipayung, Kota Depok, Jawa Barat 16445","Jl. Mushola Jalan, Ratu Jaya, Kec. Cipayung, Kota Depok",MALUKU UTARA,16445.0,Indonesia,89531923505.0,-6.4144595,106.8168559,https://maps.google.com/?cid=0x0:0x7f105f4b4e541bc
cafe,cafe,Kec. Sahu,"Kabupaten Halmahera Barat, Maluku Utara","Kabupaten Halmahera Barat, Maluku Utara",MALUKU UTARA,,Indonesia,,1.1522546,127.4365613,https://maps.google.com/?cid=0x0:0x4fe63422d08c1098
cafe,Kedai Kopi,Kedai aisyah,"4CXJ+PRG, Jarakore, Kec. Sahu, Kabupaten Halmahera Barat, Maluku Utara","Kabupaten Halmahera Barat, Maluku Utara",MALUKU UTARA,,Indonesia,,1.1493141,127.4320897,https://maps.google.com/?cid=0x0:0x4394be170127a257
cafe,Kedai Kopi,Wala Coffee,"Acango, Kec. Jailolo, Kabupaten Halmahera Barat, Maluku Utara","Kabupaten Halmahera Barat, Maluku Utara",MALUKU UTARA,,Indonesia,85353948338.0,1.090875,127.4777192,https://maps.google.com/?cid=0x0:0x36c39c7c50dcf33d
cafe,Kedai Kopi,RUMAH KOPI,"3FQG+3V, Acango, Kec. Jailolo, Kabupaten Halmahera Barat, Maluku Utara","Kabupaten Halmahera Barat, Maluku Utara",MALUKU UTARA,,Indonesia,85256149230.0,1.0877607,127.4771278,https://maps.google.com/?cid=0x0:0x203bb133d86faf4a
cafe,Restoran,Garage.Coffee,"Jl. Iyantoa RT/RW 001, 001, Sailal, Kec. Maba, Kabupaten Halmahera Timur, Maluku Utara","Kabupaten Halmahera Timur, Maluku Utara",MALUKU UTARA,,Indonesia,85340031999.0,0.8801648,128.2951792,https://maps.google.com/?cid=0x0:0x9cf91ef80cd4283f
cafe,Makanan Siap Saji,RM.BAYU PUTRA,"4FHH+432, Unnamed Road, Akelamo, Tim., Akelamo, Kec. Sahu, Kabupaten Halmahera Barat, Maluku Utara","Kabupaten Halmahera Barat, Maluku Utara",MALUKU UTARA,,Indonesia,,1.1277733,127.4776396,https://maps.google.com/?cid=0x0:0xbbf7f31dced77d0e
cafe,Brunch,warung sari rasa,"Air panas, Kec. Sahu Tim., Kabupaten Halmahera Barat, Maluku Utara","Kabupaten Halmahera Barat, Maluku Utara",MALUKU UTARA,,Indonesia,,1.239868,127.5343271,https://maps.google.com/?cid=0x0:0x2a44fc3dc53947bd
cafe,Restoran,Jujaga indah,"Pantai Lapasi, Lako Akelamo, Kec. Sahu, Kabupaten Halmahera Barat, Maluku Utara","Kabupaten Halmahera Barat, Maluku Utara",MALUKU UTARA,,Indonesia,82349510870.0,1.1426036,127.4318864,https://maps.google.com/?cid=0x0:0xea538eee337c2d84
cafe,Hidangan Laut,Rumah Makan Dua Saudara,"5F6X+5CC, Tibobo, Kec. Sahu Tim., Kabupaten Halmahera Barat, Maluku Utara","Kabupaten Halmahera Barat, Maluku Utara",MALUKU UTARA,,Indonesia,,1.1608554,127.4990178,https://maps.google.com/?cid=0x0:0x1f50a070f8a597e5
cafe,Kafetaria,Santui Weda cafe,"8VJG+QQH, Fidi Jaya, Kec. Weda Tengah, Kabupaten Halmahera Tengah, Maluku Utara","Kabupaten Halmahera Tengah, Maluku Utara",MALUKU UTARA,,Indonesia,,0.331947,127.8768595,https://maps.google.com/?cid=0x0:0xb165a3589af98b92
cafe,cafe,Tempat Kopi Enviro Halbar,"3FQG+5W9, Acango, Kec. Jailolo, Kabupaten Halmahera Barat, Maluku Utara","Kabupaten Halmahera Barat, Maluku Utara",MALUKU UTARA,,Indonesia,,1.087912,127.4773744,https://maps.google.com/?cid=0x0:0x8e57d18d406835b6
cafe,Kafe,Warkop LK SHHG,"3FWG+GV5, Acango, Kec. Jailolo, Kabupaten Halmahera Barat, Maluku Utara","Kabupaten Halmahera Barat, Maluku Utara",MALUKU UTARA,,Indonesia,85336000440.0,1.0962619,127.4772388,https://maps.google.com/?cid=0x0:0x4636356e92ce6683
cafe,Toko umum,Kios Husna (Buton),"4FJJ+VHR, Taraudu Kusu, Kec. Sahu Tim., Kabupaten Halmahera Barat, Maluku Utara","Kabupaten Halmahera Barat, Maluku Utara",MALUKU UTARA,,Indonesia,,1.1317371,127.4811103,https://maps.google.com/?cid=0x0:0x99fe6c7c64514bcf
cafe,Toko umum,Kios Heru,"6GFR+G32, Goal, Kec. Sahu Tim., Kabupaten Halmahera Barat, Maluku Utara","Kabupaten Halmahera Barat, Maluku Utara",MALUKU UTARA,,Indonesia,82196641908.0,1.2237536,127.5401507,https://maps.google.com/?cid=0x0:0xe19da58e4b133109
cafe,cafe,Kec. Jailolo Sel.,"Kabupaten Halmahera Barat, Maluku Utara","Kabupaten Halmahera Barat, Maluku Utara",MALUKU UTARA,,Indonesia,,0.8884633,127.5023175,https://maps.google.com/?cid=0x0:0x2aad68de420d770b
cafe,Kedai Kopi,KEDAI KOPI 1999,"VGQ3+3C7, kompeles Kusuma No.RT.05, Sidangoli Dehe, Kec. Jailolo Sel., Kabupaten Halmahera Barat, Maluku Utara 97577","kompeles Kusuma No.RT.05, Sidangoli Dehe, Kec. Jailolo Sel., Kabupaten Halmahera Barat",MALUKU UTARA,97577.0,Indonesia,81293925887.0,0.8878939,127.5034327,https://maps.google.com/?cid=0x0:0x7f9371883c7f16d4
cafe,Komplek perumahan,Cafe ratu,"WG25+VJP, Sidangoli Gam, Kec. Jailolo Sel., Kabupaten Halmahera Barat, Maluku Utara","Kabupaten Halmahera Barat, Maluku Utara",MALUKU UTARA,,Indonesia,,0.9022116,127.5090757,https://maps.google.com/?cid=0x0:0x8880f50803c0e9ee
cafe,Kafe,D' Saloy Caffee,"Soakonora, Kec. Jailolo, Kabupaten Halmahera Barat, Maluku Utara","Kabupaten Halmahera Barat, Maluku Utara",MALUKU UTARA,,Indonesia,85258713456.0,1.0795197,127.4770321,https://maps.google.com/?cid=0x0:0xac8bf3a6bd72833b
cafe,Kafe,Story coffe timur,"3F69+43H, Jalan Pelabuhan, Gufasa, Jailolo, West Halmahera Regency, North Maluku","Kabupaten Halmahera Barat, Maluku Utara",MALUKU UTARA,,Indonesia,,1.0603002,127.4677292,https://maps.google.com/?cid=0x0:0xd52d09d90ad8fa6
cafe,Pembangunan Perumahan,Ruma kalon,"WG46+M6G, Moiso, Kec. Jailolo Sel., Kabupaten Halmahera Barat, Maluku Utara","Kabupaten Halmahera Barat, Maluku Utara",MALUKU UTARA,,Indonesia,,0.9049581,127.5107336,https://maps.google.com/?cid=0x0:0xff0030795522428a
cafe,Kafe,Kedai wizhdanu wi,"WF2X+4Q9, Sidangoli Gam, Kec. Jailolo Sel., Kabupaten Halmahera Barat, Maluku Utara","Kabupaten Halmahera Barat, Maluku Utara",MALUKU UTARA,,Indonesia,81328866397.0,0.900289,127.499496,https://maps.google.com/?cid=0x0:0x87e938f8317b7ff7
cafe,Kedai Kopi,RUMAH KOPI,"3FQG+3V, Acango, Kec. Jailolo, Kabupaten Halmahera Barat, Maluku Utara","Kabupaten Halmahera Barat, Maluku Utara",MALUKU UTARA,,Indonesia,85256149230.0,1.0877607,127.4771278,https://maps.google.com/?cid=0x0:0x203bb133d86faf4a
cafe,Kedai Kopi,Wala Coffee,"Acango, Kec. Jailolo, Kabupaten Halmahera Barat, Maluku Utara","Kabupaten Halmahera Barat, Maluku Utara",MALUKU UTARA,,Indonesia,85353948338.0,1.090875,127.4777192,https://maps.google.com/?cid=0x0:0x36c39c7c50dcf33d
cafe,Padang,Mandiri,"WG58+HJP, Domato, Kec. Jailolo Sel., Kabupaten Halmahera Barat, Maluku Utara","Kabupaten Halmahera Barat, Maluku Utara",MALUKU UTARA,,Indonesia,,0.9089604,127.5165716,https://maps.google.com/?cid=0x0:0x90ef2bfbede75960
cafe,Restoran,Garage.Coffee,"Jl. Iyantoa RT/RW 001, 001, Sailal, Kec. Maba, Kabupaten Halmahera Timur, Maluku Utara","Kabupaten Halmahera Timur, Maluku Utara",MALUKU UTARA,,Indonesia,85340031999.0,0.8801648,128.2951792,https://maps.google.com/?cid=0x0:0x9cf91ef80cd4283f
cafe,Pasar,Pasar Buah Jailolo,"WGP5+F33, Gamlenge, Kec. Jailolo Sel., Kabupaten Halmahera Barat, Maluku Utara","Kabupaten Halmahera Barat, Maluku Utara",MALUKU UTARA,,Indonesia,,0.9361371,127.5076602,https://maps.google.com/?cid=0x0:0xd0bc0c307f12bf3a
cafe,Restoran,Rumah makan sihidangori,"VGQ3+P2P, Sidangoli Gam, Kec. Jailolo Sel., Kabupaten Halmahera Barat, Maluku Utara","Kabupaten Halmahera Barat, Maluku Utara",MALUKU UTARA,,Indonesia,82196232147.0,0.8893462,127.502584,https://maps.google.com/?cid=0x0:0x9ef2eb10eb99e90c
cafe,Rumah Makan,Rumah Makan Handayani,"VFQX+RP3, Sidangoli Gam, Kec. Jailolo Sel., Kabupaten Halmahera Barat, Maluku Utara","Kabupaten Halmahera Barat, Maluku Utara",MALUKU UTARA,,Indonesia,,0.8895185,127.4993101,https://maps.google.com/?cid=0x0:0xe7aa9372f04578ad
cafe,cafe,Kec. Ibu Sel.,"Kabupaten Halmahera Barat, Maluku Utara","Kabupaten Halmahera Barat, Maluku Utara",MALUKU UTARA,,Indonesia,,1.2738487,127.5429084,https://maps.google.com/?cid=0x0:0x2db9c2e627a81f56
cafe,Pujasera,R Coffee,"CGMM+8JC, Gamkonora, Kec. Ibu Sel., Kabupaten Halmahera Barat, Maluku Utara","Kabupaten Halmahera Barat, Maluku Utara",MALUKU UTARA,,Indonesia,82195179395.0,1.433325,127.5340121,https://maps.google.com/?cid=0x0:0xed6b4b2356a5e1b5
cafe,Kedai Kopi,Kedai Sansibar,"CGGC+7WP, Jl. Sangaji Leliatu, Talaga, Kec. Ibu Sel., Kabupaten Halmahera Barat, Maluku Utara","Kabupaten Halmahera Barat, Maluku Utara",MALUKU UTARA,,Indonesia,82116752120.0,1.4257165,127.5223173,https://maps.google.com/?cid=0x0:0x25c6ebdc23e9ea64
cafe,Brunch,warung sari rasa,"Air panas, Kec. Sahu Tim., Kabupaten Halmahera Barat, Maluku Utara","Kabupaten Halmahera Barat, Maluku Utara",MALUKU UTARA,,Indonesia,,1.239868,127.5343271,https://maps.google.com/?cid=0x0:0x2a44fc3dc53947bd
cafe,Kedai Kopi,RM. Kedai Pujasera Gamkonora,"CGPM+4RF, Jl. Trans Halmahera, Gamkonora, Kec. Ibu Sel., Kabupaten Halmahera Barat, Maluku Utara","Kabupaten Halmahera Barat, Maluku Utara",MALUKU UTARA,,Indonesia,,1.4353183,127.5345532,https://maps.google.com/?cid=0x0:0xb741df400c698689
cafe,Rumah Makan,"Kios 3S (Sindi, Sandi, Sani)","Togola Sangir, Kec. Ibu, Kabupaten Halmahera Barat, Maluku Utara","Kabupaten Halmahera Barat, Maluku Utara",MALUKU UTARA,,Indonesia,,1.4623276,127.5460858,https://maps.google.com/?cid=0x0:0xcec2a7b874a69fb6
cafe,Kedai Kopi,Warkop 13,"CGGC+7WP, Jl. Sangaji Leliatu, Talaga, Kec. Ibu Sel., Kabupaten Halmahera Barat, Maluku Utara","Kabupaten Halmahera Barat, Maluku Utara",MALUKU UTARA,,Indonesia,,1.4257022,127.5223297,https://maps.google.com/?cid=0x0:0xffeee303f6cff1b6
cafe,Kedai Kopi,Cafe D'Thaz,"R6FR+X37, Soa Laipoh, Kec. Kota Maba, Kabupaten Halmahera Timur, Maluku Utara","Kabupaten Halmahera Timur, Maluku Utara",MALUKU UTARA,,Indonesia,,0.824794,128.2394308,https://maps.google.com/?cid=0x0:0xa90c6f8574876522
cafe,Toko,Toko agape,"9F5Q+HHR, Baru, Ibu, Kabupaten Halmahera Barat, Maluku Utara","Kabupaten Halmahera Barat, Maluku Utara",MALUKU UTARA,,Indonesia,82187244702.0,1.3589975,127.4888824,https://maps.google.com/?cid=0x0:0x266f73eda42a092b
cafe,Rumah Makan,MAROON Kedai Kopi  Resto,"FWJC+2R7, Lelilef Waibulan, Kec. Weda Tengah, Kabupaten Halmahera Tengah, Maluku Utara","Kabupaten Halmahera Tengah, Maluku Utara",MALUKU UTARA,,Indonesia,85395965579.0,0.4800484,127.922044,https://maps.google.com/?cid=0x0:0x17bbcb54317bed33
cafe,Rumah Makan,W.M.BERTUH MAMA EMBO,"7GMX+226, Tosoa, Kec. Ibu Sel., Kabupaten Halmahera Barat, Maluku Utara","Kabupaten Halmahera Barat, Maluku Utara",MALUKU UTARA,,Indonesia,,1.281686,127.547347,https://maps.google.com/?cid=0x0:0xc1c621dd44c25d62
cafe,Kafe,Shansisters Coffee,"V7HV+XJJ, Unnamed Road, Sailal, Kec. Maba, Kabupaten Halmahera Timur, Maluku Utara","Kabupaten Halmahera Timur, Maluku Utara",MALUKU UTARA,,Indonesia,82290058006.0,0.87996,128.2940155,https://maps.google.com/?cid=0x0:0x5c545f6f76f9e83b
cafe,Pusat Perbelanjaan,CAFE NYALA  HOP MART,"FC39+5J6, Kawasi, Kec. Obi, Kabupaten Halmahera Selatan, Maluku Utara","Kabupaten Halmahera Selatan, Maluku Utara",MALUKU UTARA,,Indonesia,,-1.5463512,127.4189369,https://maps.google.com/?cid=0x0:0xabc7af0a55a84b6d
cafe,cafe,Kec. Sahu Tim.,"Kabupaten Halmahera Barat, Maluku Utara","Kabupaten Halmahera Barat, Maluku Utara",MALUKU UTARA,,Indonesia,,1.1327466,127.4746406,https://maps.google.com/?cid=0x0:0x82d3e0296d19df7
cafe,Kedai Kopi,Wala Coffee,"Acango, Kec. Jailolo, Kabupaten Halmahera Barat, Maluku Utara","Kabupaten Halmahera Barat, Maluku Utara",MALUKU UTARA,,Indonesia,85353948338.0,1.090875,127.4777192,https://maps.google.com/?cid=0x0:0x36c39c7c50dcf33d
cafe,Kedai Kopi,Keluarga,"4FJG+CFP, Akelamo, Kec. Sahu Tim., Kabupaten Halmahera Barat, Maluku Utara","Kabupaten Halmahera Barat, Maluku Utara",MALUKU UTARA,,Indonesia,,1.1310953,127.4762359,https://maps.google.com/?cid=0x0:0xc4f028ce9c802c6c
cafe,Kedai Kopi,RUMAH KOPI,"3FQG+3V, Acango, Kec. Jailolo, Kabupaten Halmahera Barat, Maluku Utara","Kabupaten Halmahera Barat, Maluku Utara",MALUKU UTARA,,Indonesia,85256149230.0,1.0877607,127.4771278,https://maps.google.com/?cid=0x0:0x203bb133d86faf4a
cafe,Restoran,Garage.Coffee,"Jl. Iyantoa RT/RW 001, 001, Sailal, Kec. Maba, Kabupaten Halmahera Timur, Maluku Utara","Kabupaten Halmahera Timur, Maluku Utara",MALUKU UTARA,,Indonesia,85340031999.0,0.8801648,128.2951792,https://maps.google.com/?cid=0x0:0x9cf91ef80cd4283f
cafe,Brunch,warung sari rasa,"Air panas, Kec. Sahu Tim., Kabupaten Halmahera Barat, Maluku Utara","Kabupaten Halmahera Barat, Maluku Utara",MALUKU UTARA,,Indonesia,,1.239868,127.5343271,https://maps.google.com/?cid=0x0:0x2a44fc3dc53947bd
cafe,Kafe,D' Saloy Caffee,"Soakonora, Kec. Jailolo, Kabupaten Halmahera Barat, Maluku Utara","Kabupaten Halmahera Barat, Maluku Utara",MALUKU UTARA,,Indonesia,85258713456.0,1.0795197,127.4770321,https://maps.google.com/?cid=0x0:0xac8bf3a6bd72833b
cafe,Toko umum,Kios Heru,"6GFR+G32, Goal, Kec. Sahu Tim., Kabupaten Halmahera Barat, Maluku Utara","Kabupaten Halmahera Barat, Maluku Utara",MALUKU UTARA,,Indonesia,82196641908.0,1.2237536,127.5401507,https://maps.google.com/?cid=0x0:0xe19da58e4b133109
cafe,Kafe,Shansisters Coffee,"V7HV+XJJ, Unnamed Road, Sailal, Kec. Maba, Kabupaten Halmahera Timur, Maluku Utara","Kabupaten Halmahera Timur, Maluku Utara",MALUKU UTARA,,Indonesia,82290058006.0,0.87996,128.2940155,https://maps.google.com/?cid=0x0:0x5c545f6f76f9e83b
cafe,Makanan Siap Saji,RM.BAYU PUTRA,"4FHH+432, Unnamed Road, Akelamo, Tim., Akelamo, Kec. Sahu, Kabupaten Halmahera Barat, Maluku Utara","Kabupaten Halmahera Barat, Maluku Utara",MALUKU UTARA,,Indonesia,,1.1277733,127.4776396,https://maps.google.com/?cid=0x0:0xbbf7f31dced77d0e
cafe,Warnet,Anharmuchsin,"6H29+8V8, Goal, Kec. Sahu Tim., Kabupaten Halmahera Barat, Maluku Utara","Kabupaten Halmahera Barat, Maluku Utara",MALUKU UTARA,,Indonesia,,1.2007837,127.5697161,https://maps.google.com/?cid=0x0:0xca9fb07efacfbbec
cafe,Kedai Kopi,Sungai akelamo,"4FFH+WQH, Akediri, Kec. Jailolo, Kabupaten Halmahera Barat, Maluku Utara","Kabupaten Halmahera Barat, Maluku Utara",MALUKU UTARA,,Indonesia,81243641032.0,1.123682,127.478749,https://maps.google.com/?cid=0x0:0xe4fb1a45ac18aa37
cafe,Kedai Kopi,Acrual Coffee,"Jalan perumahan DPRD, Belakang RSUD, Kec. Kota Maba, Kabupaten Halmahera Timur, Maluku Utara 97862","Belakang RSUD, Kec. Kota Maba, Kabupaten Halmahera Timur",MALUKU UTARA,97862.0,Indonesia,81298830190.0,0.6855788,128.2940999,https://maps.google.com/?cid=0x0:0xc9f1240dd4753844
cafe,Kedai Kopi,Cafe D'Thaz,"R6FR+X37, Soa Laipoh, Kec. Kota Maba, Kabupaten Halmahera Timur, Maluku Utara","Kabupaten Halmahera Timur, Maluku Utara",MALUKU UTARA,,Indonesia,,0.824794,128.2394308,https://maps.google.com/?cid=0x0:0xa90c6f8574876522
hotel,hotel,Kec. Jailolo,"Kabupaten Halmahera Barat, Maluku Utara","Kabupaten Halmahera Barat, Maluku Utara",MALUKU UTARA,,Indonesia,,1.0617618,127.4679849,https://maps.google.com/?cid=0x0:0xf6af1b301ab83fcc
hotel,hotel,Sabua Gaba,"Jl, Guaemaadu, Kec. Jailolo, Kabupaten Halmahera Barat, Maluku Utara 97752","Guaemaadu, Kec. Jailolo, Kabupaten Halmahera Barat",MALUKU UTARA,97752.0,Indonesia,81244409444.0,1.0567495,127.4613981,https://maps.google.com/?cid=0x0:0xa54e049ccacb61b7
hotel,hotel,d'Hoek Hotel,"3FMF+284, Jl. Soekaro, Hatebicara, Kec. Jailolo, Kabupaten Halmahera Barat, Maluku Utara","Kabupaten Halmahera Barat, Maluku Utara",MALUKU UTARA,,Indonesia,82192706600.0,1.082507,127.4733425,https://maps.google.com/?cid=0x0:0xe6247a11e448d6c5
hotel,hotel,The Batik Hotel,"Jl. Kapitan Pattimura, Stadion, Kec. Ternate Tengah, Kota Ternate, Maluku Utara","Kota Ternate, Maluku Utara",MALUKU UTARA,,Indonesia,8114343343.0,0.7877576,127.3845077,https://maps.google.com/?cid=0x0:0x328d07a18d098e8d
hotel,hotel,,,,MALUKU UTARA,,Indonesia,,,,https://maps.google.com/?cid=0x0:0x328d07a18d098e8d%7C/g/11b7wc8rqw%7Cid-ID
hotel,hotel,Saloi inn,"3FXQ+VR2, Tedeng, Kec. Jailolo, Kabupaten Halmahera Barat, Maluku Utara","Kabupaten Halmahera Barat, Maluku Utara",MALUKU UTARA,,Indonesia,8111020812.0,1.0996348,127.4895301,https://maps.google.com/?cid=0x0:0x1139fc5cb3804c4
hotel,hotel,Wailanga Villa  Resto,"Jl, Takome, Kec. Pulau Ternate, Kota Ternate, Maluku Utara 97714","Takome, Kec. Pulau Ternate, Kota Ternate",MALUKU UTARA,97714.0,Indonesia,81274503218.0,0.8496803,127.3146501,https://maps.google.com/?cid=0x0:0x7661143518a4947d
hotel,hotel,Johana Hotel,"P2F6+F4F, Gosoma, Kec. Tobelo, Kabupaten Halmahera Utara, Maluku Utara","Kabupaten Halmahera Utara, Maluku Utara",MALUKU UTARA,,Indonesia,9242623343.0,1.7236844,128.0102915,https://maps.google.com/?cid=0x0:0x1b997a52170a6c31
hotel,hotel,Juliana Hotel,"Gamsungi, Kec. Tobelo, Kabupaten Halmahera Utara, Maluku Utara","Kabupaten Halmahera Utara, Maluku Utara",MALUKU UTARA,,Indonesia,82191159141.0,1.7272579,128.0105717,https://maps.google.com/?cid=0x0:0x97231ba37bd2cf65
hotel,hotel,Hotel Astonia Tobelo,"Gosoma, Kec. Tobelo, Kabupaten Halmahera Utara, Maluku Utara","Kabupaten Halmahera Utara, Maluku Utara",MALUKU UTARA,,Indonesia,9242621900.0,1.7223761,127.9947995,https://maps.google.com/?cid=0x0:0x99ff7dd9ff5c49af
hotel,hotel,Penginapan RD 03 Dekat Bandara Ternate,"Samping Pos Pengamatan Gunung Gamalama. Jl. Sabia Belakang, Utara, Provinsi, Sangaji Utara, Kec. Kota Ternate Utara, Kota Ternate, Maluku Utara 97723","Utara, Provinsi, Sangaji Utara, Kec. Kota Ternate Utara, Kota Ternate",MALUKU UTARA,97723.0,Indonesia,81143903528.0,0.8127574,127.3800115,https://maps.google.com/?cid=0x0:0xf6375710a7caf548
hotel,hotel,Bianda Hotel,"P2G6+VGM, Jl. Kemakmuran, Gamsungi, Kec. Tobelo, Kabupaten Halmahera Utara, Maluku Utara","Kabupaten Halmahera Utara, Maluku Utara",MALUKU UTARA,,Indonesia,,1.7272204,128.011288,https://maps.google.com/?cid=0x0:0x94545d064d6051e5
hotel,hotel,Hotel Elizabeth,"Jl. Kemakmuran, Gura, Kec. Tobelo, Kabupaten Halmahera Utara, Maluku Utara 97762","Gura, Kec. Tobelo, Kabupaten Halmahera Utara",MALUKU UTARA,97762.0,Indonesia,,1.7308941,128.0102163,https://maps.google.com/?cid=0x0:0x64ae6c4240cbb4c7
hotel,hotel,Kec. Loloda,"Kabupaten Halmahera Barat, Maluku Utara","Kabupaten Halmahera Barat, Maluku Utara",MALUKU UTARA,,Indonesia,,1.7053085,127.6066974,https://maps.google.com/?cid=0x0:0xa38ddeb3a91d1272
hotel,hotel,Juliana Hotel,"Gamsungi, Kec. Tobelo, Kabupaten Halmahera Utara, Maluku Utara","Kabupaten Halmahera Utara, Maluku Utara",MALUKU UTARA,,Indonesia,82191159141.0,1.7272579,128.0105717,https://maps.google.com/?cid=0x0:0x97231ba37bd2cf65
hotel,hotel,Bianda Hotel,"P2G6+VGM, Jl. Kemakmuran, Gamsungi, Kec. Tobelo, Kabupaten Halmahera Utara, Maluku Utara","Kabupaten Halmahera Utara, Maluku Utara",MALUKU UTARA,,Indonesia,,1.7272204,128.011288,https://maps.google.com/?cid=0x0:0x94545d064d6051e5
hotel,hotel,Hotel Astonia Tobelo,"Gosoma, Kec. Tobelo, Kabupaten Halmahera Utara, Maluku Utara","Kabupaten Halmahera Utara, Maluku Utara",MALUKU UTARA,,Indonesia,9242621900.0,1.7223761,127.9947995,https://maps.google.com/?cid=0x0:0x99ff7dd9ff5c49af
hotel,hotel,d'Hoek Hotel,"3FMF+284, Jl. Soekaro, Hatebicara, Kec. Jailolo, Kabupaten Halmahera Barat, Maluku Utara","Kabupaten Halmahera Barat, Maluku Utara",MALUKU UTARA,,Indonesia,82192706600.0,1.082507,127.4733425,https://maps.google.com/?cid=0x0:0xe6247a11e448d6c5
hotel,hotel,Hotel Kusu-Kusu,"M2W5+HC7, Lina Ino, Kec. Tobelo Tengah, Kabupaten Halmahera Utara, Maluku Utara","Kabupaten Halmahera Utara, Maluku Utara",MALUKU UTARA,,Indonesia,,1.6964035,128.0085551,https://maps.google.com/?cid=0x0:0xde51ba868745d615
hotel,hotel,Saloi inn,"3FXQ+VR2, Tedeng, Kec. Jailolo, Kabupaten Halmahera Barat, Maluku Utara","Kabupaten Halmahera Barat, Maluku Utara",MALUKU UTARA,,Indonesia,8111020812.0,1.0996348,127.4895301,https://maps.google.com/?cid=0x0:0x1139fc5cb3804c4
hotel,hotel,D'Lodge Village Tobelo,"PXFM+G47, Jl Dukono, Gamsungi, Kec. Tobelo, Kabupaten Halmahera Utara, Maluku Utara","Kabupaten Halmahera Utara, Maluku Utara",MALUKU UTARA,,Indonesia,82187899793.0,1.7237953,127.9828016,https://maps.google.com/?cid=0x0:0x97255e7444041343
hotel,hotel,Hotel Karunia 2 Jailolo,"Jl. Baru, Kec. Jailolo, Kabupaten Halmahera Barat, Maluku Utara 91131","Kec. Jailolo, Kabupaten Halmahera Barat",MALUKU UTARA,91131.0,Indonesia,895417300072.0,1.0683437,127.4672959,https://maps.google.com/?cid=0x0:0xb93aadacd6fe4456
hotel,hotel,Maluku Utara,,Maluku Utara,MALUKU UTARA,,Indonesia,,1.5709993,127.8087693,https://maps.google.com/?cid=0x0:0x1030bfbcaf71ac0
hotel,hotel,Hotel Molokai Morotai,"Pelabuhan Ferry, Juanga, Kec. Morotai Sel., Kabupaten Pulau Morotai, Maluku Utara","Kabupaten Pulau Morotai, Maluku Utara",MALUKU UTARA,,Indonesia,81342385121.0,2.0160906,128.2818025,https://maps.google.com/?cid=0x0:0x47d19d4d9c14647a
hotel,hotel,Marahai Park Hotel,"Jl. Kemakmuran, Wosia, Kec. Tobelo, Kabupaten Halmahera Utara, Maluku Utara 97762","Wosia, Kec. Tobelo, Kabupaten Halmahera Utara",MALUKU UTARA,97762.0,Indonesia,9242321470.0,1.7123424,128.0113095,https://maps.google.com/?cid=0x0:0x1773edc1a70bea03
hotel,hotel,HOTEL SIMORE WEDA,"depan SPBU kompak, Nurweda, Kec. Weda, Kabupaten Halmahera Tengah, Maluku Utara 97853","Nurweda, Kec. Weda, Kabupaten Halmahera Tengah",MALUKU UTARA,97853.0,Indonesia,85136412778.0,0.3216514,127.8723579,https://maps.google.com/?cid=0x0:0x3e6c86eb9ef28d79
hotel,hotel,The Batik Hotel,"Jl. Kapitan Pattimura, Stadion, Kec. Ternate Tengah, Kota Ternate, Maluku Utara","Kota Ternate, Maluku Utara",MALUKU UTARA,,Indonesia,8114343343.0,0.7877576,127.3845077,https://maps.google.com/?cid=0x0:0x328d07a18d098e8d
hotel,hotel,,,,MALUKU UTARA,,Indonesia,,,,https://maps.google.com/?cid=0x0:0x328d07a18d098e8d%7C/g/11b7wc8rqw%7Cid-ID
hotel,hotel,Hotel Emerald,"Jl. Branjangan No.28, Kalumpang, Kec. Ternate Tengah, Kota Ternate, Maluku Utara","Kota Ternate, Maluku Utara",MALUKU UTARA,,Indonesia,9213128188.0,0.7885727,127.3845146,https://maps.google.com/?cid=0x0:0x33915e2d48a0928b
hotel,hotel,,,,MALUKU UTARA,,Indonesia,,,,https://maps.google.com/?cid=0x0:0x33915e2d48a0928b%7C/g/11b7w73l34%7Cid-ID
hotel,hotel,Hotel Red Budget,"Red Budget Hotel Ternate, Jl. Branjangan No.9 Lt 4, Santiong, Kec. Ternate Tengah, Kota Ternate, Maluku Utara","Kota Ternate, Maluku Utara",MALUKU UTARA,,Indonesia,9216208241.0,0.7899773,127.3846978,https://maps.google.com/?cid=0x0:0xe418d3dddabe9a14
hotel,hotel,The SALT Guest House,"Jl. Trans Halmahera, Geltoli, Kec. Maba, Kabupaten Halmahera Timur, Maluku Utara 97862","Geltoli, Kec. Maba, Kabupaten Halmahera Timur",MALUKU UTARA,97862.0,Indonesia,81399332022.0,0.8941716,128.2947661,https://maps.google.com/?cid=0x0:0x255947e72b8cabc9
hotel,hotel,Ternate City Hotel,"Jl. Nuku No.1, Muhajirin, Kec. Ternate Tengah, Kota Ternate, Maluku Utara 97713","Muhajirin, Kec. Ternate Tengah, Kota Ternate",MALUKU UTARA,97713.0,Indonesia,81327824005.0,0.7831686,127.3881079,https://maps.google.com/?cid=0x0:0xf0a0764df41ded6
hotel,hotel,Bela Hotel Ternate,"Jalan Jati Raya No.500, Jati, Kec. Ternate Sel., Kota Ternate, Maluku Utara","Kota Ternate, Maluku Utara",MALUKU UTARA,,Indonesia,9213121800.0,0.778607,127.376382,https://maps.google.com/?cid=0x0:0xadc0715ea2e729ec
hotel,hotel,,,,MALUKU UTARA,,Indonesia,,,,https://maps.google.com/?cid=0x0:0xadc0715ea2e729ec%7C/g/121hftnj%7Cid-ID
hotel,hotel,Muara Hotel and Mall Ternate,"Jl. Merdeka No.19, Gamalama, Kec. Ternate Tengah, Kota Ternate, Maluku Utara","Kota Ternate, Maluku Utara",MALUKU UTARA,,Indonesia,9213125553.0,0.7911445,127.3861909,https://maps.google.com/?cid=0x0:0x67cf3fcc0f55895
hotel,hotel,Kec. Sahu,"Kabupaten Halmahera Barat, Maluku Utara","Kabupaten Halmahera Barat, Maluku Utara",MALUKU UTARA,,Indonesia,,1.1522546,127.4365613,https://maps.google.com/?cid=0x0:0x4fe63422d08c1098
hotel,hotel,d'Hoek Hotel,"3FMF+284, Jl. Soekaro, Hatebicara, Kec. Jailolo, Kabupaten Halmahera Barat, Maluku Utara","Kabupaten Halmahera Barat, Maluku Utara",MALUKU UTARA,,Indonesia,82192706600.0,1.082507,127.4733425,https://maps.google.com/?cid=0x0:0xe6247a11e448d6c5
hotel,hotel,Sabua Gaba,"Jl, Guaemaadu, Kec. Jailolo, Kabupaten Halmahera Barat, Maluku Utara 97752","Guaemaadu, Kec. Jailolo, Kabupaten Halmahera Barat",MALUKU UTARA,97752.0,Indonesia,81244409444.0,1.0567495,127.4613981,https://maps.google.com/?cid=0x0:0xa54e049ccacb61b7
hotel,hotel,,,,MALUKU UTARA,,Indonesia,,,,https://maps.google.com/?cid=0x0:0xadc0715ea2e729ec%7C/g/121hftnj%7Cid-ID
hotel,hotel,Bela Hotel Ternate,"Jalan Jati Raya No.500, Jati, Kec. Ternate Sel., Kota Ternate, Maluku Utara","Kota Ternate, Maluku Utara",MALUKU UTARA,,Indonesia,9213121800.0,0.778607,127.376382,https://maps.google.com/?cid=0x0:0xadc0715ea2e729ec
hotel,hotel,Hotel Kusu-Kusu,"M2W5+HC7, Lina Ino, Kec. Tobelo Tengah, Kabupaten Halmahera Utara, Maluku Utara","Kabupaten Halmahera Utara, Maluku Utara",MALUKU UTARA,,Indonesia,,1.6964035,128.0085551,https://maps.google.com/?cid=0x0:0xde51ba868745d615
hotel,hotel,Hotel Karunia 2 Jailolo,"Jl. Baru, Kec. Jailolo, Kabupaten Halmahera Barat, Maluku Utara 91131","Kec. Jailolo, Kabupaten Halmahera Barat",MALUKU UTARA,91131.0,Indonesia,895417300072.0,1.0683437,127.4672959,https://maps.google.com/?cid=0x0:0xb93aadacd6fe4456
hotel,Sesuai untuk keluarga,SAHU HOTEL,"Jangala, Odisha 768212, India",Odisha,MALUKU UTARA,768212.0,Indonesia,,21.6559243,84.0518636,https://maps.google.com/?cid=0x0:0x3ab011ea98963338
hotel,Hotel,SAHU HOTEL,"Kailash Nagar, Rajnandgaon, Chhattisgarh 491441, India","Rajnandgaon, Chhattisgarh",MALUKU UTARA,491441.0,Indonesia,,21.0997167,81.0426504,https://maps.google.com/?cid=0x0:0x8ecd73da686332d1
hotel,Sesuai untuk keluarga,SAHU HOTEL,"Odisha 770072, India","Odisha, India",MALUKU UTARA,,Indonesia,,21.9713118,83.9083105,https://maps.google.com/?cid=0x0:0xbe997adedff6e374
hotel,hotel,Hotel Astonia Tobelo,"Gosoma, Kec. Tobelo, Kabupaten Halmahera Utara, Maluku Utara","Kabupaten Halmahera Utara, Maluku Utara",MALUKU UTARA,,Indonesia,9242621900.0,1.7223761,127.9947995,https://maps.google.com/?cid=0x0:0x99ff7dd9ff5c49af
hotel,Sesuai untuk keluarga,SAHU HOTEL,"Marwari Para, Jharsuguda, Odisha 768201, India","Jharsuguda, Odisha",MALUKU UTARA,768201.0,Indonesia,,21.857599,84.0143885,https://maps.google.com/?cid=0x0:0xff8cc49a4231800
hotel,hotel,SAHU HOTEL,"Nawada, Jharkhand 825312, India",Jharkhand,MALUKU UTARA,825312.0,Indonesia,,23.9948841,85.7669064,https://maps.google.com/?cid=0x0:0x9380db8cdd5a6e12
hotel,hotel,Kec. Jailolo Sel.,"Kabupaten Halmahera Barat, Maluku Utara","Kabupaten Halmahera Barat, Maluku Utara",MALUKU UTARA,,Indonesia,,0.8884633,127.5023175,https://maps.google.com/?cid=0x0:0x2aad68de420d770b
hotel,hotel,d'Hoek Hotel,"3FMF+284, Jl. Soekaro, Hatebicara, Kec. Jailolo, Kabupaten Halmahera Barat, Maluku Utara","Kabupaten Halmahera Barat, Maluku Utara",MALUKU UTARA,,Indonesia,82192706600.0,1.082507,127.4733425,https://maps.google.com/?cid=0x0:0xe6247a11e448d6c5
hotel,hotel,Juliana Hotel,"Gamsungi, Kec. Tobelo, Kabupaten Halmahera Utara, Maluku Utara","Kabupaten Halmahera Utara, Maluku Utara",MALUKU UTARA,,Indonesia,82191159141.0,1.7272579,128.0105717,https://maps.google.com/?cid=0x0:0x97231ba37bd2cf65
hotel,hotel,Bianda Hotel,"P2G6+VGM, Jl. Kemakmuran, Gamsungi, Kec. Tobelo, Kabupaten Halmahera Utara, Maluku Utara","Kabupaten Halmahera Utara, Maluku Utara",MALUKU UTARA,,Indonesia,,1.7272204,128.011288,https://maps.google.com/?cid=0x0:0x94545d064d6051e5
hotel,hotel,Saloi inn,"3FXQ+VR2, Tedeng, Kec. Jailolo, Kabupaten Halmahera Barat, Maluku Utara","Kabupaten Halmahera Barat, Maluku Utara",MALUKU UTARA,,Indonesia,8111020812.0,1.0996348,127.4895301,https://maps.google.com/?cid=0x0:0x1139fc5cb3804c4
hotel,hotel,Hotel Astonia Tobelo,"Gosoma, Kec. Tobelo, Kabupaten Halmahera Utara, Maluku Utara","Kabupaten Halmahera Utara, Maluku Utara",MALUKU UTARA,,Indonesia,9242621900.0,1.7223761,127.9947995,https://maps.google.com/?cid=0x0:0x99ff7dd9ff5c49af
hotel,hotel,Johana Hotel,"P2F6+F4F, Gosoma, Kec. Tobelo, Kabupaten Halmahera Utara, Maluku Utara","Kabupaten Halmahera Utara, Maluku Utara",MALUKU UTARA,,Indonesia,9242623343.0,1.7236844,128.0102915,https://maps.google.com/?cid=0x0:0x1b997a52170a6c31
hotel,hotel,Sabua Gaba,"Jl, Guaemaadu, Kec. Jailolo, Kabupaten Halmahera Barat, Maluku Utara 97752","Guaemaadu, Kec. Jailolo, Kabupaten Halmahera Barat",MALUKU UTARA,97752.0,Indonesia,81244409444.0,1.0567495,127.4613981,https://maps.google.com/?cid=0x0:0xa54e049ccacb61b7
hotel,hotel,D'Lodge Village Tobelo,"PXFM+G47, Jl Dukono, Gamsungi, Kec. Tobelo, Kabupaten Halmahera Utara, Maluku Utara","Kabupaten Halmahera Utara, Maluku Utara",MALUKU UTARA,,Indonesia,82187899793.0,1.7237953,127.9828016,https://maps.google.com/?cid=0x0:0x97255e7444041343
hotel,hotel,The Batik Hotel,"Jl. Kapitan Pattimura, Stadion, Kec. Ternate Tengah, Kota Ternate, Maluku Utara","Kota Ternate, Maluku Utara",MALUKU UTARA,,Indonesia,8114343343.0,0.7877576,127.3845077,https://maps.google.com/?cid=0x0:0x328d07a18d098e8d
hotel,hotel,,,,MALUKU UTARA,,Indonesia,,,,https://maps.google.com/?cid=0x0:0x328d07a18d098e8d%7C/g/11b7wc8rqw%7Cid-ID
hotel,hotel,Kec. Ibu Sel.,"Kabupaten Halmahera Barat, Maluku Utara","Kabupaten Halmahera Barat, Maluku Utara",MALUKU UTARA,,Indonesia,,1.2738487,127.5429084,https://maps.google.com/?cid=0x0:0x2db9c2e627a81f56
hotel,Penginapan religi,Penginapan Bionuri,"FGWW+GMX, Tongute Ternate, Kec. Ibu, Kabupaten Halmahera Barat, Maluku Utara","Kabupaten Halmahera Barat, Maluku Utara",MALUKU UTARA,,Indonesia,,1.4963565,127.5467436,https://maps.google.com/?cid=0x0:0xe9234f1f63e31e90
hotel,Bendungan,Bendungan DUBU Sarau,"Jl. Trans Halmahera, Sarau, Kec. Ibu Sel., Kabupaten Halmahera Barat, Maluku Utara","Kabupaten Halmahera Barat, Maluku Utara",MALUKU UTARA,,Indonesia,81340671581.0,1.4426798,127.5488066,https://maps.google.com/?cid=0x0:0x41dfc68168efaa9b
hotel,hotel,Kec. Sahu Tim.,"Kabupaten Halmahera Barat, Maluku Utara","Kabupaten Halmahera Barat, Maluku Utara",MALUKU UTARA,,Indonesia,,1.1327466,127.4746406,https://maps.google.com/?cid=0x0:0x82d3e0296d19df7
hotel,hotel,Sabua Gaba,"Jl, Guaemaadu, Kec. Jailolo, Kabupaten Halmahera Barat, Maluku Utara 97752","Guaemaadu, Kec. Jailolo, Kabupaten Halmahera Barat",MALUKU UTARA,97752.0,Indonesia,81244409444.0,1.0567495,127.4613981,https://maps.google.com/?cid=0x0:0xa54e049ccacb61b7
hotel,hotel,Saloi inn,"3FXQ+VR2, Tedeng, Kec. Jailolo, Kabupaten Halmahera Barat, Maluku Utara","Kabupaten Halmahera Barat, Maluku Utara",MALUKU UTARA,,Indonesia,8111020812.0,1.0996348,127.4895301,https://maps.google.com/?cid=0x0:0x1139fc5cb3804c4
hotel,hotel,Hotel Karunia 2 Jailolo,"Jl. Baru, Kec. Jailolo, Kabupaten Halmahera Barat, Maluku Utara 91131","Kec. Jailolo, Kabupaten Halmahera Barat",MALUKU UTARA,91131.0,Indonesia,895417300072.0,1.0683437,127.4672959,https://maps.google.com/?cid=0x0:0xb93aadacd6fe4456
restaurant,restaurant,Kec. Jailolo,"Kabupaten Halmahera Barat, Maluku Utara","Kabupaten Halmahera Barat, Maluku Utara",MALUKU UTARA,,Indonesia,,1.0617618,127.4679849,https://maps.google.com/?cid=0x0:0xf6af1b301ab83fcc
restaurant,Rumah Makan,RM Makan Saiyo Jailolo,"Kantor Camat Lama, Jl. Puaen No.depan, Gufasa, Jailolo, West Halmahera Regency, North Maluku","Kabupaten Halmahera Barat, Maluku Utara",MALUKU UTARA,,Indonesia,,1.0614184,127.4669057,https://maps.google.com/?cid=0x0:0xf2e1745180e8bb42
restaurant,Restoran,"RM. Padang Buana Raya, Soakonora, Jailolo, Halmahera Barat, Maluku Utara","Soakonora, Kec. Jailolo, Kabupaten Halmahera Barat, Maluku Utara","Kabupaten Halmahera Barat, Maluku Utara",MALUKU UTARA,,Indonesia,,1.0715411,127.4692697,https://maps.google.com/?cid=0x0:0x904e412d9483bcd5
restaurant,Restoran,Rumah Makan Mas Heri,"Unnamed Road, Hatebicara, Kec. Jailolo, Kabupaten Halmahera Barat, Maluku Utara","Kabupaten Halmahera Barat, Maluku Utara",MALUKU UTARA,,Indonesia,82136380801.0,1.0820797,127.4733432,https://maps.google.com/?cid=0x0:0xa0c2e83b7669c02a
restaurant,Rumah Makan,Rumah makan airlangga berkah,"Dusun kusumadehe, Soakonora, Kec. Jailolo, Kabupaten Halmahera Barat, Maluku Utara","Kabupaten Halmahera Barat, Maluku Utara",MALUKU UTARA,,Indonesia,82190309189.0,1.0783047,127.4720401,https://maps.google.com/?cid=0x0:0x94d045ceb17567a7
restaurant,Restoran,Rumah Makan Subur Jailolo,"3FHG+RP9, Desa Jati, Soakonora, Kec. Jailolo, Kabupaten Halmahera Barat, Maluku Utara","Kabupaten Halmahera Barat, Maluku Utara",MALUKU UTARA,,Indonesia,81280595181.0,1.0795413,127.476851,https://maps.google.com/?cid=0x0:0x3d9b6e17493621c3
restaurant,Tujuan Wisata,Limau Jiko Eco Culture Resort,"Bobanehena, Kec. Jailolo, Kabupaten Halmahera Barat, Maluku Utara","Kabupaten Halmahera Barat, Maluku Utara",MALUKU UTARA,,Indonesia,82258085588.0,1.051123,127.446605,https://maps.google.com/?cid=0x0:0xbe87d8ffd59d3fd5
restaurant,Kafe,D' Saloy Caffee,"Soakonora, Kec. Jailolo, Kabupaten Halmahera Barat, Maluku Utara","Kabupaten Halmahera Barat, Maluku Utara",MALUKU UTARA,,Indonesia,85258713456.0,1.0795197,127.4770321,https://maps.google.com/?cid=0x0:0xac8bf3a6bd72833b
restaurant,Rumah Makan,Rumah Makan Maryam,"3F68+FQM Depan Kantor Camat Lama, Gufasa, Kec. Jailolo, Kabupaten Halmahera Barat, Maluku Utara","Kabupaten Halmahera Barat, Maluku Utara",MALUKU UTARA,,Indonesia,85256130339.0,1.0612123,127.4669141,https://maps.google.com/?cid=0x0:0x2bd93e19629e7596
restaurant,restaurant,Caffe and Resto,"Bobanehena, Kec. Jailolo, Kabupaten Halmahera Barat, Maluku Utara 97782","Kec. Jailolo, Kabupaten Halmahera Barat",MALUKU UTARA,97782.0,Indonesia,81242029007.0,1.0513057,127.4432674,https://maps.google.com/?cid=0x0:0xb690bb1d16254cbf
restaurant,Rumah Makan,Rumah makan lolita,"3F57+9V5, Guaemaadu, Kec. Jailolo, Kabupaten Halmahera Barat, Maluku Utara","Kabupaten Halmahera Barat, Maluku Utara",MALUKU UTARA,,Indonesia,81317412434.0,1.0583998,127.4647484,https://maps.google.com/?cid=0x0:0x35731ad8a4fcbff
restaurant,Restoran,RM. WONG SOLO 2 LEK WAH,"Hatebicara, Kec. Jailolo, Maluku Utara 97752",Kec. Jailolo,MALUKU UTARA,97752.0,Indonesia,82190674299.0,1.0863485,127.4741384,https://maps.google.com/?cid=0x0:0xf21a69e9aeac607a
restaurant,Rumah Makan,RM.FAI,"3FXG+4PJ, Acango, Kec. Jailolo, Kabupaten Halmahera Barat, Maluku Utara","Kabupaten Halmahera Barat, Maluku Utara",MALUKU UTARA,,Indonesia,81244563865.0,1.0978277,127.4767769,https://maps.google.com/?cid=0x0:0xab2bdf8f1052c05
restaurant,Brunch,RM. Putri Jaya,"3FMF+2FR, Unnamed Road, Hatebicara, Jailolo, West Halmahera Regency, North Maluku","Kabupaten Halmahera Barat, Maluku Utara",MALUKU UTARA,,Indonesia,81234874440.0,1.0826027,127.4736278,https://maps.google.com/?cid=0x0:0x8d558dffb522692d
restaurant,restaurant,Kec. Loloda,"Kabupaten Halmahera Barat, Maluku Utara","Kabupaten Halmahera Barat, Maluku Utara",MALUKU UTARA,,Indonesia,,1.7053085,127.6066974,https://maps.google.com/?cid=0x0:0xa38ddeb3a91d1272
restaurant,Indonesia,RM Jawa Timur,"MHFJ+XJ4, Kedi, Kec. Loloda, Kabupaten Halmahera Barat, Maluku Utara","Kabupaten Halmahera Barat, Maluku Utara",MALUKU UTARA,,Indonesia,82157053466.0,1.6748872,127.5815661,https://maps.google.com/?cid=0x0:0xabd5e7adf9d99484
restaurant,Komplek perumahan,Dimbers Village,"JHM2+5F7, Tuguis, Kec. Loloda, Kabupaten Halmahera Barat, Maluku Utara","Kabupaten Halmahera Barat, Maluku Utara",MALUKU UTARA,,Indonesia,85824215366.0,1.6329122,127.5511576,https://maps.google.com/?cid=0x0:0xa2e5c733e59453fa
restaurant,restaurant,Maluku Utara,,Maluku Utara,MALUKU UTARA,,Indonesia,,1.5709993,127.8087693,https://maps.google.com/?cid=0x0:0x1030bfbcaf71ac0
restaurant,,Bualawa Resto,"3C3W+4XM, Bobanehena, Kec. Jailolo, Kabupaten Halmahera Barat, Maluku Utara","Kabupaten Halmahera Barat, Maluku Utara",MALUKU UTARA,,Indonesia,,1.0516385,127.4473055,https://maps.google.com/?cid=0x0:0x1072845be258038f
restaurant,Tujuan Wisata,Limau Jiko Eco Culture Resort,"Bobanehena, Kec. Jailolo, Kabupaten Halmahera Barat, Maluku Utara","Kabupaten Halmahera Barat, Maluku Utara",MALUKU UTARA,,Indonesia,82258085588.0,1.051123,127.446605,https://maps.google.com/?cid=0x0:0xbe87d8ffd59d3fd5
restaurant,Rumah Makan,W.M.BERTUH MAMA EMBO,"7GMX+226, Tosoa, Kec. Ibu Sel., Kabupaten Halmahera Barat, Maluku Utara","Kabupaten Halmahera Barat, Maluku Utara",MALUKU UTARA,,Indonesia,,1.281686,127.547347,https://maps.google.com/?cid=0x0:0xc1c621dd44c25d62
restaurant,Nasi,warung nasi ibu Eje,"Jl. Kp. Cincau No.40, RT.03/RW.01, Gudang, Kecamatan Bogor Tengah, Kota Bogor, Jawa Barat 16123","RT.03/RW.01, Gudang, Kecamatan Bogor Tengah, Kota Bogor",MALUKU UTARA,16123.0,Indonesia,89668516851.0,-6.6050111,106.7977168,https://maps.google.com/?cid=0x0:0xb659ee92b8ebe5eb
restaurant,Nasi,Warung makan ibu eny,"Gg. Bojong Neros No.13, RT.02/RW.13, Paledang, Kecamatan Bogor Tengah, Kota Bogor, Jawa Barat 16122","RT.02/RW.13, Paledang, Kecamatan Bogor Tengah, Kota Bogor",MALUKU UTARA,16122.0,Indonesia,,-6.6057149,106.7947004,https://maps.google.com/?cid=0x0:0xde3a40f01c3800af
restaurant,Kafe,Warung ibu euis,"CQCV+645, Jl. Bubulak Gg. Arjuna, RT.03/RW.06, Kb. Pedes, Kec. Tanah Sereal, Kota Bogor, Jawa Barat 16162","Jl. Bubulak Gg. Arjuna, RT.03/RW.06, Kb. Pedes, Kec. Tanah Sereal, Kota Bogor",MALUKU UTARA,16162.0,Indonesia,,-6.5794977,106.7928446,https://maps.google.com/?cid=0x0:0x6fbfb24b119bc227
restaurant,Dapur Umum,warung makan Ibu Isyah,"005, JL.Roda pembangun, kp.ciparengga, RT.3/RW.RW, Cimandala, Kec. Sukaraja, Kabupaten Bogor, Jawa Barat 16710","JL.Roda pembangun, kp.ciparengga, RT.3/RW.RW, Cimandala, Kec. Sukaraja, Kabupaten Bogor",MALUKU UTARA,16710.0,Indonesia,,-6.5212469,106.8285239,https://maps.google.com/?cid=0x0:0x615734d26c1e8248
restaurant,Kedai Kopi,Ibu mpiw,"FPC5+CH3, Rancabungur, Kec. Ranca Bungur, Kabupaten Bogor, Jawa Barat 16310","Rancabungur, Kec. Ranca Bungur, Kabupaten Bogor",MALUKU UTARA,16310.0,Indonesia,,-6.5290705,106.7095227,https://maps.google.com/?cid=0x0:0xd7d8ee91644f407c
restaurant,Nasi,Warung Nasi Ibu Entin,"Ciherang, Cutak, Kabupaten Bogor, Jawa Barat 16610","Cutak, Kabupaten Bogor",MALUKU UTARA,16610.0,Indonesia,,-6.5958321,106.7451059,https://maps.google.com/?cid=0x0:0x432a2f7e3836d534
restaurant,Nasi,warung nasi ibu acong,"CQXF+FVP, Gg. Randu II, RT.04/RW.04, Cibadak, Kec. Tanah Sereal, Kota Bogor, Jawa Barat 16166","Gg. Randu II, RT.04/RW.04, Cibadak, Kec. Tanah Sereal, Kota Bogor",MALUKU UTARA,16166.0,Indonesia,,-6.551295,106.7746942,https://maps.google.com/?cid=0x0:0x66b68e588473b94f
restaurant,Dapur Umum,Warung ibu mimi,"Kp.Sawah, Jl. Pendidikan, Cilebut Bar., Kabupaten Bogor, Jawa Barat 16710","Jl. Pendidikan, Cilebut Bar., Kabupaten Bogor",MALUKU UTARA,16710.0,Indonesia,895627637121.0,-6.5331576,106.7967386,https://maps.google.com/?cid=0x0:0x7bd69a9f6f0d051c
restaurant,Restoran,Warung Nasi Ibu Omah,"9Q54+WJQ, Pasireurih, Kec. Tamansari, Kabupaten Bogor, Jawa Barat 16610","Pasireurih, Kec. Tamansari, Kabupaten Bogor",MALUKU UTARA,16610.0,Indonesia,,-6.6401626,106.7566005,https://maps.google.com/?cid=0x0:0xa8d05e801514d4d9
restaurant,Makanan Siap Saji,RM.BAYU PUTRA,"4FHH+432, Unnamed Road, Akelamo, Tim., Akelamo, Kec. Sahu, Kabupaten Halmahera Barat, Maluku Utara","Kabupaten Halmahera Barat, Maluku Utara",MALUKU UTARA,,Indonesia,,1.1277733,127.4776396,https://maps.google.com/?cid=0x0:0xbbf7f31dced77d0e
restaurant,Brunch,warung sari rasa,"Air panas, Kec. Sahu Tim., Kabupaten Halmahera Barat, Maluku Utara","Kabupaten Halmahera Barat, Maluku Utara",MALUKU UTARA,,Indonesia,,1.239868,127.5343271,https://maps.google.com/?cid=0x0:0x2a44fc3dc53947bd
restaurant,Restoran,Jujaga indah,"Pantai Lapasi, Lako Akelamo, Kec. Sahu, Kabupaten Halmahera Barat, Maluku Utara","Kabupaten Halmahera Barat, Maluku Utara",MALUKU UTARA,,Indonesia,82349510870.0,1.1426036,127.4318864,https://maps.google.com/?cid=0x0:0xea538eee337c2d84
restaurant,restaurant,Kec. Sahu,"Kabupaten Halmahera Barat, Maluku Utara","Kabupaten Halmahera Barat, Maluku Utara",MALUKU UTARA,,Indonesia,,1.1522546,127.4365613,https://maps.google.com/?cid=0x0:0x4fe63422d08c1098
restaurant,Rumah Makan,Rm.Kawanua,"4FGH+9PW, Unnamed Road, Akediri, Kec. Jailolo, Kabupaten Halmahera Barat, Maluku Utara","Kabupaten Halmahera Barat, Maluku Utara",MALUKU UTARA,,Indonesia,81241051007.0,1.1259884,127.4793378,https://maps.google.com/?cid=0x0:0x2f1c127fdfba2237
restaurant,Tujuan Wisata,Limau Jiko Eco Culture Resort,"Bobanehena, Kec. Jailolo, Kabupaten Halmahera Barat, Maluku Utara","Kabupaten Halmahera Barat, Maluku Utara",MALUKU UTARA,,Indonesia,82258085588.0,1.051123,127.446605,https://maps.google.com/?cid=0x0:0xbe87d8ffd59d3fd5
restaurant,Rumah Makan,Rm Lesehan mm Ana,"4F4H+GPR, Akediri, Kec. Jailolo, Kabupaten Halmahera Barat, Maluku Utara","Kabupaten Halmahera Barat, Maluku Utara",MALUKU UTARA,,Indonesia,,1.106371,127.4792594,https://maps.google.com/?cid=0x0:0x6c8405bb4cda3aae
restaurant,Kedai Kopi,Kedai aisyah,"4CXJ+PRG, Jarakore, Kec. Sahu, Kabupaten Halmahera Barat, Maluku Utara","Kabupaten Halmahera Barat, Maluku Utara",MALUKU UTARA,,Indonesia,,1.1493141,127.4320897,https://maps.google.com/?cid=0x0:0x4394be170127a257
restaurant,,Bualawa Resto,"3C3W+4XM, Bobanehena, Kec. Jailolo, Kabupaten Halmahera Barat, Maluku Utara","Kabupaten Halmahera Barat, Maluku Utara",MALUKU UTARA,,Indonesia,,1.0516385,127.4473055,https://maps.google.com/?cid=0x0:0x1072845be258038f
restaurant,Manado,Rm. Bubur Manado Ichen,"4FFH+WRC, Akediri, Kec. Jailolo, Kabupaten Halmahera Barat, Maluku Utara","Kabupaten Halmahera Barat, Maluku Utara",MALUKU UTARA,,Indonesia,85340031479.0,1.1248225,127.479502,https://maps.google.com/?cid=0x0:0xe1a8d034eea2fca5
restaurant,Rumah Makan,RM.FAI,"3FXG+4PJ, Acango, Kec. Jailolo, Kabupaten Halmahera Barat, Maluku Utara","Kabupaten Halmahera Barat, Maluku Utara",MALUKU UTARA,,Indonesia,81244563865.0,1.0978277,127.4767769,https://maps.google.com/?cid=0x0:0xab2bdf8f1052c05
restaurant,Brunch,RM. DUA SAUDARA (Mie Ayam  Bakso),"4FMF+99X, Gamomeng, Kec. Sahu Tim., Kabupaten Halmahera Barat, Maluku Utara","Kabupaten Halmahera Barat, Maluku Utara",MALUKU UTARA,,Indonesia,81373122173.0,1.1334418,127.4734461,https://maps.google.com/?cid=0x0:0x5545e7cd833d48f0
restaurant,Hidangan Laut,Rumah Makan Chokent,"P2F6+QJQ, Gamsungi, Kec. Tobelo, Kabupaten Halmahera Utara, Maluku Utara","Kabupaten Halmahera Utara, Maluku Utara",MALUKU UTARA,,Indonesia,85146223636.0,1.7244736,128.0116017,https://maps.google.com/?cid=0x0:0xb2418c82a0f026be
restaurant,Kedai Kopi,Keluarga,"4FJG+CFP, Akelamo, Kec. Sahu Tim., Kabupaten Halmahera Barat, Maluku Utara","Kabupaten Halmahera Barat, Maluku Utara",MALUKU UTARA,,Indonesia,,1.1310953,127.4762359,https://maps.google.com/?cid=0x0:0xc4f028ce9c802c6c
restaurant,Rumah Makan,Rumah Makan Handayani,"VFQX+RP3, Sidangoli Gam, Kec. Jailolo Sel., Kabupaten Halmahera Barat, Maluku Utara","Kabupaten Halmahera Barat, Maluku Utara",MALUKU UTARA,,Indonesia,,0.8895185,127.4993101,https://maps.google.com/?cid=0x0:0xe7aa9372f04578ad
restaurant,restaurant,Kec. Jailolo Sel.,"Kabupaten Halmahera Barat, Maluku Utara","Kabupaten Halmahera Barat, Maluku Utara",MALUKU UTARA,,Indonesia,,0.8884633,127.5023175,https://maps.google.com/?cid=0x0:0x2aad68de420d770b
restaurant,Padang,Mandiri,"WG58+HJP, Domato, Kec. Jailolo Sel., Kabupaten Halmahera Barat, Maluku Utara","Kabupaten Halmahera Barat, Maluku Utara",MALUKU UTARA,,Indonesia,,0.9089604,127.5165716,https://maps.google.com/?cid=0x0:0x90ef2bfbede75960
restaurant,Restoran,Rumah makan sihidangori,"VGQ3+P2P, Sidangoli Gam, Kec. Jailolo Sel., Kabupaten Halmahera Barat, Maluku Utara","Kabupaten Halmahera Barat, Maluku Utara",MALUKU UTARA,,Indonesia,82196232147.0,0.8893462,127.502584,https://maps.google.com/?cid=0x0:0x9ef2eb10eb99e90c
restaurant,Tujuan Wisata,Limau Jiko Eco Culture Resort,"Bobanehena, Kec. Jailolo, Kabupaten Halmahera Barat, Maluku Utara","Kabupaten Halmahera Barat, Maluku Utara",MALUKU UTARA,,Indonesia,82258085588.0,1.051123,127.446605,https://maps.google.com/?cid=0x0:0xbe87d8ffd59d3fd5
restaurant,,Bualawa Resto,"3C3W+4XM, Bobanehena, Kec. Jailolo, Kabupaten Halmahera Barat, Maluku Utara","Kabupaten Halmahera Barat, Maluku Utara",MALUKU UTARA,,Indonesia,,1.0516385,127.4473055,https://maps.google.com/?cid=0x0:0x1072845be258038f
restaurant,Pasar,Pasar Buah Jailolo,"WGP5+F33, Gamlenge, Kec. Jailolo Sel., Kabupaten Halmahera Barat, Maluku Utara","Kabupaten Halmahera Barat, Maluku Utara",MALUKU UTARA,,Indonesia,,0.9361371,127.5076602,https://maps.google.com/?cid=0x0:0xd0bc0c307f12bf3a
restaurant,Restoran,Rumah Makan Subur Jailolo,"3FHG+RP9, Desa Jati, Soakonora, Kec. Jailolo, Kabupaten Halmahera Barat, Maluku Utara","Kabupaten Halmahera Barat, Maluku Utara",MALUKU UTARA,,Indonesia,81280595181.0,1.0795413,127.476851,https://maps.google.com/?cid=0x0:0x3d9b6e17493621c3
restaurant,Bakso,Bakso Barokah,"VGP2+M3P, Sidangoli Gam, Kec. Jailolo Sel., Kabupaten Halmahera Barat, Maluku Utara","Kabupaten Halmahera Barat, Maluku Utara",MALUKU UTARA,,Indonesia,,0.8869641,127.5007548,https://maps.google.com/?cid=0x0:0xe5388e7c8da699d3
restaurant,Kafe,D' Saloy Caffee,"Soakonora, Kec. Jailolo, Kabupaten Halmahera Barat, Maluku Utara","Kabupaten Halmahera Barat, Maluku Utara",MALUKU UTARA,,Indonesia,85258713456.0,1.0795197,127.4770321,https://maps.google.com/?cid=0x0:0xac8bf3a6bd72833b
restaurant,Rumah Makan,RM sinar ramadan,"Domato, Kec. Jailolo Sel., Kabupaten Halmahera Barat, Maluku Utara 97757","Kec. Jailolo Sel., Kabupaten Halmahera Barat",MALUKU UTARA,97757.0,Indonesia,,0.8906698,127.5045741,https://maps.google.com/?cid=0x0:0x154f0079ea962c05
restaurant,Restoran,Warung Sasadu,"3F69+645, Gufasa, Kec. Jailolo, Kabupaten Halmahera Barat, Maluku Utara","Kabupaten Halmahera Barat, Maluku Utara",MALUKU UTARA,,Indonesia,82188880056.0,1.0605044,127.4678442,https://maps.google.com/?cid=0x0:0x229592a79c6a6548
restaurant,Kedai Kopi,KEDAI KOPI 1999,"VGQ3+3C7, kompeles Kusuma No.RT.05, Sidangoli Dehe, Kec. Jailolo Sel., Kabupaten Halmahera Barat, Maluku Utara 97577","kompeles Kusuma No.RT.05, Sidangoli Dehe, Kec. Jailolo Sel., Kabupaten Halmahera Barat",MALUKU UTARA,97577.0,Indonesia,81293925887.0,0.8878939,127.5034327,https://maps.google.com/?cid=0x0:0x7f9371883c7f16d4
restaurant,Restoran,Ikan bakar teluk jailolo,"3F69+644, Unnamed Road, Gufasa, Kec. Jailolo, Kabupaten Halmahera Barat, Maluku Utara","Kabupaten Halmahera Barat, Maluku Utara",MALUKU UTARA,,Indonesia,,1.0605022,127.4678408,https://maps.google.com/?cid=0x0:0xba24fb859ce88fbc
restaurant,restaurant,Kec. Ibu Sel.,"Kabupaten Halmahera Barat, Maluku Utara","Kabupaten Halmahera Barat, Maluku Utara",MALUKU UTARA,,Indonesia,,1.2738487,127.5429084,https://maps.google.com/?cid=0x0:0x2db9c2e627a81f56
restaurant,Kedai Kopi,RM. Kedai Pujasera Gamkonora,"CGPM+4RF, Jl. Trans Halmahera, Gamkonora, Kec. Ibu Sel., Kabupaten Halmahera Barat, Maluku Utara","Kabupaten Halmahera Barat, Maluku Utara",MALUKU UTARA,,Indonesia,,1.4353183,127.5345532,https://maps.google.com/?cid=0x0:0xb741df400c698689
restaurant,Brunch,warung sari rasa,"Air panas, Kec. Sahu Tim., Kabupaten Halmahera Barat, Maluku Utara","Kabupaten Halmahera Barat, Maluku Utara",MALUKU UTARA,,Indonesia,,1.239868,127.5343271,https://maps.google.com/?cid=0x0:0x2a44fc3dc53947bd
restaurant,Rumah Makan,"Kios 3S (Sindi, Sandi, Sani)","Togola Sangir, Kec. Ibu, Kabupaten Halmahera Barat, Maluku Utara","Kabupaten Halmahera Barat, Maluku Utara",MALUKU UTARA,,Indonesia,,1.4623276,127.5460858,https://maps.google.com/?cid=0x0:0xcec2a7b874a69fb6
restaurant,,Bualawa Resto,"3C3W+4XM, Bobanehena, Kec. Jailolo, Kabupaten Halmahera Barat, Maluku Utara","Kabupaten Halmahera Barat, Maluku Utara",MALUKU UTARA,,Indonesia,,1.0516385,127.4473055,https://maps.google.com/?cid=0x0:0x1072845be258038f
restaurant,Pujasera,R Coffee,"CGMM+8JC, Gamkonora, Kec. Ibu Sel., Kabupaten Halmahera Barat, Maluku Utara","Kabupaten Halmahera Barat, Maluku Utara",MALUKU UTARA,,Indonesia,82195179395.0,1.433325,127.5340121,https://maps.google.com/?cid=0x0:0xed6b4b2356a5e1b5
restaurant,Toko,Toko agape,"9F5Q+HHR, Baru, Ibu, Kabupaten Halmahera Barat, Maluku Utara","Kabupaten Halmahera Barat, Maluku Utara",MALUKU UTARA,,Indonesia,82187244702.0,1.3589975,127.4888824,https://maps.google.com/?cid=0x0:0x266f73eda42a092b
restaurant,Kedai Kopi,Kedai Sansibar,"CGGC+7WP, Jl. Sangaji Leliatu, Talaga, Kec. Ibu Sel., Kabupaten Halmahera Barat, Maluku Utara","Kabupaten Halmahera Barat, Maluku Utara",MALUKU UTARA,,Indonesia,82116752120.0,1.4257165,127.5223173,https://maps.google.com/?cid=0x0:0x25c6ebdc23e9ea64
restaurant,Kedai Kopi,Tempat Ngopi,"CGCC+FV, Bataka, Kec. Ibu Sel., Kabupaten Halmahera Barat, Maluku Utara","Kabupaten Halmahera Barat, Maluku Utara",MALUKU UTARA,,Indonesia,,1.4211875,127.5221875,https://maps.google.com/?cid=0x0:0x6aa2a91f01b7150e
restaurant,Rumah Makan,W.M.BERTUH MAMA EMBO,"7GMX+226, Tosoa, Kec. Ibu Sel., Kabupaten Halmahera Barat, Maluku Utara","Kabupaten Halmahera Barat, Maluku Utara",MALUKU UTARA,,Indonesia,,1.281686,127.547347,https://maps.google.com/?cid=0x0:0xc1c621dd44c25d62
restaurant,Hidangan Laut,Rumah Makan Chokent,"P2F6+QJQ, Gamsungi, Kec. Tobelo, Kabupaten Halmahera Utara, Maluku Utara","Kabupaten Halmahera Utara, Maluku Utara",MALUKU UTARA,,Indonesia,85146223636.0,1.7244736,128.0116017,https://maps.google.com/?cid=0x0:0xb2418c82a0f026be
restaurant,Rumah Makan,resto tapping innana,"9F2J+GH5, Mandaong, Kec. Bacan Sel., Kabupaten Halmahera Selatan, Maluku Utara","Kabupaten Halmahera Selatan, Maluku Utara",MALUKU UTARA,,Indonesia,,-0.6487413,127.4814766,https://maps.google.com/?cid=0x0:0x1ccfcd49e60f678b
restaurant,Restoran,Warung Nasi Kuning Arsy,"FGWX+QFQ, Tongute Ternate, Kec. Ibu, Kabupaten Halmahera Barat, Maluku Utara","Kabupaten Halmahera Barat, Maluku Utara",MALUKU UTARA,,Indonesia,,1.4966995,127.5483751,https://maps.google.com/?cid=0x0:0xc6ae9e2be8b99a35
restaurant,Brunch,warung sari rasa,"Air panas, Kec. Sahu Tim., Kabupaten Halmahera Barat, Maluku Utara","Kabupaten Halmahera Barat, Maluku Utara",MALUKU UTARA,,Indonesia,,1.239868,127.5343271,https://maps.google.com/?cid=0x0:0x2a44fc3dc53947bd
restaurant,Makanan Siap Saji,RM.BAYU PUTRA,"4FHH+432, Unnamed Road, Akelamo, Tim., Akelamo, Kec. Sahu, Kabupaten Halmahera Barat, Maluku Utara","Kabupaten Halmahera Barat, Maluku Utara",MALUKU UTARA,,Indonesia,,1.1277733,127.4776396,https://maps.google.com/?cid=0x0:0xbbf7f31dced77d0e
restaurant,restaurant,Kec. Sahu Tim.,"Kabupaten Halmahera Barat, Maluku Utara","Kabupaten Halmahera Barat, Maluku Utara",MALUKU UTARA,,Indonesia,,1.1327466,127.4746406,https://maps.google.com/?cid=0x0:0x82d3e0296d19df7
restaurant,Hidangan Laut,Rumah Makan Dua Saudara,"5F6X+5CC, Tibobo, Kec. Sahu Tim., Kabupaten Halmahera Barat, Maluku Utara","Kabupaten Halmahera Barat, Maluku Utara",MALUKU UTARA,,Indonesia,,1.1608554,127.4990178,https://maps.google.com/?cid=0x0:0x1f50a070f8a597e5
restaurant,Manado,Rm. Bubur Manado Ichen,"4FFH+WRC, Akediri, Kec. Jailolo, Kabupaten Halmahera Barat, Maluku Utara","Kabupaten Halmahera Barat, Maluku Utara",MALUKU UTARA,,Indonesia,85340031479.0,1.1248225,127.479502,https://maps.google.com/?cid=0x0:0xe1a8d034eea2fca5
restaurant,Kedai Kopi,Keluarga,"4FJG+CFP, Akelamo, Kec. Sahu Tim., Kabupaten Halmahera Barat, Maluku Utara","Kabupaten Halmahera Barat, Maluku Utara",MALUKU UTARA,,Indonesia,,1.1310953,127.4762359,https://maps.google.com/?cid=0x0:0xc4f028ce9c802c6c
restaurant,Tujuan Wisata,Limau Jiko Eco Culture Resort,"Bobanehena, Kec. Jailolo, Kabupaten Halmahera Barat, Maluku Utara","Kabupaten Halmahera Barat, Maluku Utara",MALUKU UTARA,,Indonesia,82258085588.0,1.051123,127.446605,https://maps.google.com/?cid=0x0:0xbe87d8ffd59d3fd5
restaurant,Restoran,Jujaga indah,"Pantai Lapasi, Lako Akelamo, Kec. Sahu, Kabupaten Halmahera Barat, Maluku Utara","Kabupaten Halmahera Barat, Maluku Utara",MALUKU UTARA,,Indonesia,82349510870.0,1.1426036,127.4318864,https://maps.google.com/?cid=0x0:0xea538eee337c2d84
restaurant,Hidangan Laut,SMORGAN Resto,"PXJV+JGQ, Jl. Pemerintahan, depan KODIM, Halut, Mkcm, Tobelo, North Halmahera Regency, North Maluku","Kabupaten Halmahera Utara, Maluku Utara",MALUKU UTARA,,Indonesia,85201115150.0,1.7315784,127.9938588,https://maps.google.com/?cid=0x0:0xd45d6fcd651f0c5c
restaurant,Bakso,Warung Al-barokah,"4F7H+6WQ, Akediri, Kec. Jailolo, Kabupaten Halmahera Barat, Maluku Utara","Kabupaten Halmahera Barat, Maluku Utara",MALUKU UTARA,,Indonesia,85219398094.0,1.1130943,127.4798721,https://maps.google.com/?cid=0x0:0x8a5f8b1d73bf2658
restaurant,Brunch,RM. DUA SAUDARA (Mie Ayam  Bakso),"4FMF+99X, Gamomeng, Kec. Sahu Tim., Kabupaten Halmahera Barat, Maluku Utara","Kabupaten Halmahera Barat, Maluku Utara",MALUKU UTARA,,Indonesia,81373122173.0,1.1334418,127.4734461,https://maps.google.com/?cid=0x0:0x5545e7cd833d48f0
restaurant,Rumah Makan,Rm Lesehan mm Ana,"4F4H+GPR, Akediri, Kec. Jailolo, Kabupaten Halmahera Barat, Maluku Utara","Kabupaten Halmahera Barat, Maluku Utara",MALUKU UTARA,,Indonesia,,1.106371,127.4792594,https://maps.google.com/?cid=0x0:0x6c8405bb4cda3aae
restaurant,Rumah Makan,RM.FAI,"3FXG+4PJ, Acango, Kec. Jailolo, Kabupaten Halmahera Barat, Maluku Utara","Kabupaten Halmahera Barat, Maluku Utara",MALUKU UTARA,,Indonesia,81244563865.0,1.0978277,127.4767769,https://maps.google.com/?cid=0x0:0xab2bdf8f1052c05
restaurant,,Bualawa Resto,"3C3W+4XM, Bobanehena, Kec. Jailolo, Kabupaten Halmahera Barat, Maluku Utara","Kabupaten Halmahera Barat, Maluku Utara",MALUKU UTARA,,Indonesia,,1.0516385,127.4473055,https://maps.google.com/?cid=0x0:0x1072845be258038f
