Category,Real Category,Business Name,Address,City,State,Postal Code,Country,Phone,Latitude,Longitude,Map Link
cafe,Kedai Kopi,Kafe Bejo A95,"2/Yuwanain, Yuwanaim, Kec. Arso, Kabupaten Keerom, Papua 99468","Yuwanaim, Kec. Arso, Kabupaten Keerom",PAPUA,99468.0,Indonesia,82199114114.0,-2.90661,140.7513931,https://maps.google.com/?cid=0x0:0x8476fd6425654b61
cafe,cafe,Papua 99467,"Distrik Waris, Kabupaten Keerom, Papua","Kabupaten Keerom, Papua",PAPUA,,Indonesia,,-3.1279268,140.8872648,https://maps.google.com/?cid=0x0:0xcde9330d1e08a4a3
cafe,Pusat Perbelanjaan,momoyo arso 2,"Jl. Garuda 2, Yuwanaim, Kec. Arso, Kabupaten Keerom, Papua 99468","Yuwanaim, Kec. Arso, Kabupaten Keerom",PAPUA,99468.0,Indonesia,82343574185.0,-2.9033393,140.7513616,https://maps.google.com/?cid=0x0:0x8ccf9ec3689ecd93
cafe,Kafe,D' IFA 88 CAFE,"Arso 2 kampung yuanain jln maleo2, Kabupaten Keerom, Papua 99368",Kabupaten Keerom,PAPUA,99368.0,Indonesia,82349588121.0,-2.8997741,140.7587958,https://maps.google.com/?cid=0x0:0xf31b4f7f22191f5e
cafe,Rumah Makan,Rest Area 76,"WRHJ+PX, Ampas, Distrik Waris, Kabupaten Keerom, Papua","Kabupaten Keerom, Papua",PAPUA,,Indonesia,,-3.0707194,140.8324571,https://maps.google.com/?cid=0x0:0xd51ae504aa5a898d
cafe,cafe,Produsen Kopi Jahe Arso,"2R3G+HV5, Upt Pir IV / Wonorejo, Arso Tim., Kabupaten Keerom, Papua 99467","Upt Pir IV / Wonorejo, Arso Tim., Kabupaten Keerom",PAPUA,99467.0,Indonesia,,-2.9961071,140.8272292,https://maps.google.com/?cid=0x0:0xe13445a735d8002e
cafe,cafe,Warung Kopi Ahyar (Panah 5),"Jl. Jambu No.03, RT.01/RW.01, Upt Pir IV / Wonorejo, Arso Tim., Kabupaten Keerom, Papua 99467","RT.01/RW.01, Upt Pir IV / Wonorejo, Arso Tim., Kabupaten Keerom",PAPUA,99467.0,Indonesia,,-3.0031413,140.8192955,https://maps.google.com/?cid=0x0:0x7aac06f163a39d92
cafe,cafe,Kaka Marlin,"XRXC+HHG, Jl. Jeruk, Upt Pir IV / Wonorejo, Arso Tim., Kabupaten Keerom, Papua 99467","Jl. Jeruk, Upt Pir IV / Wonorejo, Arso Tim., Kabupaten Keerom",PAPUA,99467.0,Indonesia,,-3.0010583,140.8214483,https://maps.google.com/?cid=0x0:0x6a0000e21be68bc4
cafe,Restoran,RM. Musdalifah,"WRHJ+PX, Ampas, Distrik Waris, Kabupaten Keerom, Papua","Kabupaten Keerom, Papua",PAPUA,,Indonesia,,-3.0705892,140.8324353,https://maps.google.com/?cid=0x0:0x1a74a591eda5aac8
cafe,Restoran,Wr.makan TONG PUNYA,"2RV8+33P, Jl. Poros, Upt Pir V. / Yamara, Arso Tim., Kabupaten Keerom, Papua 99468","Jl. Poros, Upt Pir V. / Yamara, Arso Tim., Kabupaten Keerom",PAPUA,99468.0,Indonesia,85244072981.0,-2.9572766,140.8152008,https://maps.google.com/?cid=0x0:0x1d5ad2a041f83ef2
cafe,Toko bahan makanan,Kios Bapak Anti,"Unnamed Road, Wembi, Arso Tim., Kabupaten Keerom, Papua 99467","Wembi, Arso Tim., Kabupaten Keerom",PAPUA,99467.0,Indonesia,82248886889.0,-3.0261205,140.8397802,https://maps.google.com/?cid=0x0:0x592e84c82be9412e
cafe,Kafe,Warung Waris,"MQ84+422, Jl. Cimandiri III, Cipayung, Kec. Ciputat, Kota Tangerang Selatan, Banten 15411","Jl. Cimandiri III, Cipayung, Kec. Ciputat, Kota Tangerang Selatan",PAPUA,15411.0,Indonesia,,-6.3347408,106.7550259,https://maps.google.com/?cid=0x0:0xb4b9f782b62531ed
cafe,Kedai Kopi,Waris Coffee,"Jl. Taman Matraman Timur No.8 13B, RT.8/RW.4, Pegangsaan, Menteng, Central Jakarta City, Jakarta 10320","RT.8/RW.4, Pegangsaan, Menteng, Central Jakarta City",PAPUA,10320.0,Indonesia,85781176371.0,-6.2037483,106.8507638,https://maps.google.com/?cid=0x0:0xcce864ddb7644911
cafe,Kafe,# Cafe Warexx # Om_unyil,"Jl. Peninggaran Timur II No.RT.05, RT.5/RW.9, Kby. Lama Utara, Kec. Kby. Lama, Kota Jakarta Selatan, Daerah Khusus Ibukota Jakarta 12240","RT.5/RW.9, Kby. Lama Utara, Kec. Kby. Lama, Kota Jakarta Selatan",PAPUA,12240.0,Indonesia,83870001945.0,-6.2445232,106.7744184,https://maps.google.com/?cid=0x0:0xf67298e9f5b90191
cafe,cafe,Papua 99468,"Kabupaten Keerom, Papua","Kabupaten Keerom, Papua",PAPUA,,Indonesia,,-2.838126,140.7624493,https://maps.google.com/?cid=0x0:0xb18f169d1a15b8b6
cafe,Pusat Perbelanjaan,momoyo arso 2,"Jl. Garuda 2, Yuwanaim, Kec. Arso, Kabupaten Keerom, Papua 99468","Yuwanaim, Kec. Arso, Kabupaten Keerom",PAPUA,99468.0,Indonesia,82343574185.0,-2.9033393,140.7513616,https://maps.google.com/?cid=0x0:0x8ccf9ec3689ecd93
cafe,Kedai Kopi,Kafe Bejo A95,"2/Yuwanain, Yuwanaim, Kec. Arso, Kabupaten Keerom, Papua 99468","Yuwanaim, Kec. Arso, Kabupaten Keerom",PAPUA,99468.0,Indonesia,82199114114.0,-2.90661,140.7513931,https://maps.google.com/?cid=0x0:0x8476fd6425654b61
cafe,Kedai Kopi,Wiynscoffee,"Jln Elang No 407, Jlr 1 Barat, Arso 2. Kab. Keerom, Yuwanaim, Kec. Arso, Jayapura, Papua 99471","Jlr 1 Barat, Arso 2. Kab. Keerom, Yuwanaim, Kec. Arso, Jayapura",PAPUA,99471.0,Indonesia,82239332032.0,-2.9065657,140.7431997,https://maps.google.com/?cid=0x0:0xa43c42058d3511b0
cafe,Kafe,D' IFA 88 CAFE,"Arso 2 kampung yuanain jln maleo2, Kabupaten Keerom, Papua 99368",Kabupaten Keerom,PAPUA,99368.0,Indonesia,82349588121.0,-2.8997741,140.7587958,https://maps.google.com/?cid=0x0:0xf31b4f7f22191f5e
cafe,Rumah Makan,RM Raja Rasa,"Jl Raya, Arso Kota, Kec. Arso, Kabupaten Keerom, Papua 99468","Arso Kota, Kec. Arso, Kabupaten Keerom",PAPUA,99468.0,Indonesia,85243389900.0,-2.8710868,140.7628414,https://maps.google.com/?cid=0x0:0xee147f533a73802d
cafe,Kedai Kopi,Gyp's Kopi.,"3QX4+9MQ, Yuwanaim, Kec. Arso, Kabupaten Keerom, Papua 99468","Yuwanaim, Kec. Arso, Kabupaten Keerom",PAPUA,99468.0,Indonesia,,-2.9015341,140.7567424,https://maps.google.com/?cid=0x0:0x36dde43ab0802a89
cafe,cafe,Carita kopi,"yuwanain arso 2, Jl garuda, Nawa / Sawanawa, Kec. Arso, Kabupaten Keerom, Papua","Kabupaten Keerom, Papua",PAPUA,,Indonesia,,-3.0833868,140.5964124,https://maps.google.com/?cid=0x0:0x5f7bcb6d34a7e84e
cafe,Rumah Makan,KEDAI AR ROCHMAH,"3PWX+CQC, Yuwanaim, Kec. Arso, Kabupaten Keerom, Papua 99468","Yuwanaim, Kec. Arso, Kabupaten Keerom",PAPUA,99468.0,Indonesia,81291166335.0,-2.9039403,140.7493817,https://maps.google.com/?cid=0x0:0xf9603fdfc12abf8e
cafe,Perhimpunan Pengembang Perumahan,Angkringan Wong Jowo Arso 1,"6Q25+QFM, Arso I. / Sanggaria, Kec. Arso, Kabupaten Keerom, Papua 99468","Arso I. / Sanggaria, Kec. Arso, Kabupaten Keerom",PAPUA,99468.0,Indonesia,85318144041.0,-2.7980401,140.7586666,https://maps.google.com/?cid=0x0:0x7e0283f2cf6f48d3
cafe,Kafe,Kedai Aranda,"3QW2+68G, Yuwanaim, Kec. Arso, Kabupaten Keerom, Papua","Kabupaten Keerom, Papua",PAPUA,,Indonesia,,-2.9044376,140.7508235,https://maps.google.com/?cid=0x0:0x5b19179dafbf42e5
cafe,Es Krim,Rianita pentol kuah,"5M4V+F5C, Upt Arso XI / Ifia-Fia, Kec. Arso, Kabupaten Keerom, Papua 99468","Upt Arso XI / Ifia-Fia, Kec. Arso, Kabupaten Keerom",PAPUA,99468.0,Indonesia,82197718791.0,-2.8438068,140.6928961,https://maps.google.com/?cid=0x0:0x640350505c7d0b3a
cafe,Warnet,4 You Caffee,"Asyaman crossroad, Asiaman, Kec. Arso, Kabupaten Keerom, Papua","Kabupaten Keerom, Papua",PAPUA,,Indonesia,,-2.8701255,140.743652,https://maps.google.com/?cid=0x0:0x63237bb2c3dbc397
cafe,Rumah Makan,Warung Makan NUR HASANAH,"6Q25+37V, Arso I. / Sanggaria, Kec. Arso, Kabupaten Keerom, Papua 99468","Arso I. / Sanggaria, Kec. Arso, Kabupaten Keerom",PAPUA,99468.0,Indonesia,81344232443.0,-2.7997524,140.7581737,https://maps.google.com/?cid=0x0:0x1c359729e45a9dde
cafe,Dapur Umum,RM BRAYEN 88,"HQ4G+678, Senggi, Kabupaten Keerom, Papua","Kabupaten Keerom, Papua",PAPUA,,Indonesia,,-3.444463,140.775696,https://maps.google.com/?cid=0x0:0xe5904f3f3f0e5b26
cafe,Indonesia,RM.sederhana 77 Senggi,"HQ36+8P2, Jalan trans wamena, Senggi, Kabupaten Keerom, Papua","Kabupaten Keerom, Papua",PAPUA,,Indonesia,81251843741.0,-3.446735,140.761774,https://maps.google.com/?cid=0x0:0x8aee081bf3fb4605
cafe,cafe,Senggi,"Senggi, Kabupaten Keerom, Papua","Kabupaten Keerom, Papua",PAPUA,,Indonesia,,-3.444463,140.775696,https://maps.google.com/?cid=0x0:0x6ea1e22b49fe9674
cafe,Kafe,Karariri Coffee  Eatery,"46HQ+7HR, Jl. Hassanudin, Serui Kota, Kec. Yapen Sel., Kabupaten Kepulauan Yapen, Papua","Kabupaten Kepulauan Yapen, Papua",PAPUA,,Indonesia,,-1.8717744,136.2388775,https://maps.google.com/?cid=0x0:0x884a42394257efa9
cafe,Kedai Kopi,Cafe Isasai,"Danau Sentani, Kp. Waena, Kec. Heram, Kota Jayapura, Papua 99351","Kp. Waena, Kec. Heram, Kota Jayapura",PAPUA,99351.0,Indonesia,,-2.598538,140.6244014,https://maps.google.com/?cid=0x0:0xc37a24107e869a96
cafe,Kafe,Cendrawasih 66 Coffee  Gelato,"Jl. Cendrawasih, Kwamki, Kec. Mimika Baru, Kabupaten Mimika, Papua 99910","Kwamki, Kec. Mimika Baru, Kabupaten Mimika",PAPUA,99910.0,Indonesia,82111888366.0,-4.5407413,136.8768388,https://maps.google.com/?cid=0x0:0xc16c97df2ed722b8
cafe,Restoran,GANG SENGGOL,"Jl. Sukapura Tim. 5/9 No.43, RT.9/RW.9, Cakung Bar., Kec. Cakung, Kota Jakarta Timur, Daerah Khusus Ibukota Jakarta 13910","RT.9/RW.9, Cakung Bar., Kec. Cakung, Kota Jakarta Timur",PAPUA,13910.0,Indonesia,,-6.1594821,106.9347786,https://maps.google.com/?cid=0x0:0xa3cb936f5e045b4c
cafe,Kafe,Koffie sijungat,"Blok 7A No 5, Jl. Perumahan Taman Kenari Jagorawi, Puspasari, Kec. Citeureup, Kabupaten Bogor, Jawa Barat 16810","Jl. Perumahan Taman Kenari Jagorawi, Puspasari, Kec. Citeureup, Kabupaten Bogor",PAPUA,16810.0,Indonesia,81298249078.0,-6.4785497,106.8739489,https://maps.google.com/?cid=0x0:0x874421931db460d9
cafe,Kafe,Sangoe Coffee  Roastery,"Jl. H. Taiman No.36, RT.2/RW.9, Gedong, Kec. Ps. Rebo, Kota Jakarta Timur, Daerah Khusus Ibukota Jakarta 13760","RT.2/RW.9, Gedong, Kec. Ps. Rebo, Kota Jakarta Timur",PAPUA,13760.0,Indonesia,81279080900.0,-6.2974605,106.8654313,https://maps.google.com/?cid=0x0:0xf879fb5abf78ade5
cafe,Kafe,Seng cafe,"Jl. Tebet Barat I No.7 11, RT.4/RW.2, West Tebet, Tebet, South Jakarta City, Jakarta 12810","RT.4/RW.2, West Tebet, Tebet, South Jakarta City",PAPUA,12810.0,Indonesia,,-6.2311222,106.8493945,https://maps.google.com/?cid=0x0:0x76d4a7705faa334f
cafe,Kedai Kopi,Kedai Enjing,"Jl. Telekomunikasi, Sukapura, Kec. Dayeuhkolot, Kabupaten Bandung, Jawa Barat","Kabupaten Bandung, Jawa Barat",PAPUA,,Indonesia,83128672428.0,-6.9728832,107.6335391,https://maps.google.com/?cid=0x0:0x987c9ca8e990493b
cafe,Kafe,GANG SENGGOL COFFEE,"Jl. Dasana Indah No.16 Blok SH10, RT.05/RW.014, Bojong Nangka, Kelapa Dua, Tangerang Regency, Banten 15810","RT.05/RW.014, Bojong Nangka, Kelapa Dua, Tangerang Regency",PAPUA,15810.0,Indonesia,8557272356.0,-6.2544818,106.5990175,https://maps.google.com/?cid=0x0:0xa06b8169f45a2f87
cafe,Kafe,Distrik 24,"CJ4R+X9F, Yabansai, Kec. Heram, Kota Jayapura, Papua 99225","Yabansai, Kec. Heram, Kota Jayapura",PAPUA,99225.0,Indonesia,,-2.5926127,140.6409436,https://maps.google.com/?cid=0x0:0x668273c36d8732ed
cafe,Kafe,RESISTANCE CAFE (24 JAM),"Ruko, Jl. Pacific Permai, belakang kantor, KADIN, Papua",Papua,PAPUA,,Indonesia,,-2.5376957,140.7086088,https://maps.google.com/?cid=0x0:0x633297421a426da1
cafe,cafe,,,,PAPUA,,Indonesia,,,,https://maps.google.com/?cid=0x0:0x633297421a426da1u0026onu003dAyam+Gepreu0026midu003d/g/11ght1tcg_
cafe,cafe,,,,PAPUA,,Indonesia,,,,https://maps.google.com/?cid=0x0:0x633297421a426da1u0026onu003dCappuccinou0026midu003d/g/11ght1tcg_
cafe,cafe,,,,PAPUA,,Indonesia,,,,https://maps.google.com/?cid=0x0:0x633297421a426da1u0026onu003dIce+Teau0026midu003d/g/11ght1tcg_
cafe,cafe,,,,PAPUA,,Indonesia,,,,https://maps.google.com/?cid=0x0:0x633297421a426da1u0026onu0026midu003d/g/11ght1tcg_
cafe,cafe,Papua 99466,"Kabupaten Keerom, Papua","Kabupaten Keerom, Papua",PAPUA,,Indonesia,,-3.6008739,140.7624493,https://maps.google.com/?cid=0x0:0x68d0783d81283fe1
cafe,Kafe,# Cafe Warexx # Om_unyil,"Jl. Peninggaran Timur II No.RT.05, RT.5/RW.9, Kby. Lama Utara, Kec. Kby. Lama, Kota Jakarta Selatan, Daerah Khusus Ibukota Jakarta 12240","RT.5/RW.9, Kby. Lama Utara, Kec. Kby. Lama, Kota Jakarta Selatan",PAPUA,12240.0,Indonesia,83870001945.0,-6.2445232,106.7744184,https://maps.google.com/?cid=0x0:0xf67298e9f5b90191
cafe,Kedai Kopi,66 COFFEE,"Jl. Cilangkap Baru No.26 4, RT.4/RW.1, Cilangkap, Kec. Cipayung, Kota Jakarta Timur, Daerah Khusus Ibukota Jakarta 13870","RT.4/RW.1, Cilangkap, Kec. Cipayung, Kota Jakarta Timur",PAPUA,13870.0,Indonesia,895328119824.0,-6.3485583,106.9046672,https://maps.google.com/?cid=0x0:0x2c139faea19f39ad
cafe,Kedai Kopi,Cecemuwe Cafe and Space - Senayan,"Jl. Hang Jebat IX No.6, RT.8/RW.4, Gunung, Kec. Kby. Baru, Kota Jakarta Selatan, Daerah Khusus Ibukota Jakarta 12120","RT.8/RW.4, Gunung, Kec. Kby. Baru, Kota Jakarta Selatan",PAPUA,12120.0,Indonesia,81283388128.0,-6.2361351,106.7933281,https://maps.google.com/?cid=0x0:0x2102ba34ce032fe
cafe,Kafe,oi coffee  eatery,"Ruko River View Jl. Komjen. Pol. M. Jasin No.1, Tugu, Kec. Cimanggis, Kota Depok, Jawa Barat 16451","Tugu, Kec. Cimanggis, Kota Depok",PAPUA,16451.0,Indonesia,2187728888.0,-6.3541917,106.8368023,https://maps.google.com/?cid=0x0:0x31a3503147a83394
cafe,Kafe seni,Mewatu Coffee  Gallery,"Jl. KH. Ahmad Dahlan No.11, RT.1/RW.1, Kramat Pela, Kec. Kby. Baru, Kota Jakarta Selatan, Daerah Khusus Ibukota Jakarta 12130","RT.1/RW.1, Kramat Pela, Kec. Kby. Baru, Kota Jakarta Selatan",PAPUA,12130.0,Indonesia,85219439411.0,-6.2437987,106.79186,https://maps.google.com/?cid=0x0:0x810e1d6cddd280f7
cafe,Kafe,Cafe Thr33,"Seyeon Building, Jl. Adiaksa Raya No.33, RT.7/RW.7, Lb. Bulus, Kec. Cilandak, Kota Jakarta Selatan, Daerah Khusus Ibukota Jakarta 12440","Jl. Adiaksa Raya No.33, RT.7/RW.7, Lb. Bulus, Kec. Cilandak, Kota Jakarta Selatan",PAPUA,12440.0,Indonesia,81388887414.0,-6.2913007,106.7800926,https://maps.google.com/?cid=0x0:0xd20aac6a1865652c
cafe,Kedai Kopi,Caffe Warsal,"Blok Haji Samsuri, Jl. Limo Raya Blok Haji Samsuri No.11, Meruyung, Kec. Limo, Kota Depok, Jawa Barat 16514","Jl. Limo Raya Blok Haji Samsuri No.11, Meruyung, Kec. Limo, Kota Depok",PAPUA,16514.0,Indonesia,,-6.3724037,106.7721806,https://maps.google.com/?cid=0x0:0xa49f1ec67c6980b8
cafe,cafe,Papua 99469,Papua,Papua,PAPUA,,Indonesia,,-2.950166,140.4308159,https://maps.google.com/?cid=0x0:0xbc565fc539165f0b
cafe,Restoran,Restauran MR,"6H8M+8MM, Arsopura, Kec. Skanto, Kabupaten Keerom, Papua 99469","Arsopura, Kec. Skanto, Kabupaten Keerom",PAPUA,99469.0,Indonesia,,-2.7841523,140.584183,https://maps.google.com/?cid=0x0:0x82abae487ea19152
cafe,Kedai Kopi,Kimmy Yummy,"Jl. Kenanga No.160, Upt Arso V. / Wiyantri, Kec. Skanto, Kabupaten Keerom, Papua 99468","Upt Arso V. / Wiyantri, Kec. Skanto, Kabupaten Keerom",PAPUA,99468.0,Indonesia,85244877660.0,-2.8164855,140.623296,https://maps.google.com/?cid=0x0:0xc42128235ac15daa
cafe,Bar,Warung Mba Merry,"6H8J+VX5, Arsopura, Kec. Skanto, Kabupaten Keerom, Papua 99469","Arsopura, Kec. Skanto, Kabupaten Keerom",PAPUA,99469.0,Indonesia,85244925951.0,-2.7828737,140.5824842,https://maps.google.com/?cid=0x0:0xd8d31812ff181816
cafe,Restoran,Kedai ojo lali mampir,"6H9P+FP, Arsopura, Kec. Skanto, Kabupaten Keerom, Papua","Kabupaten Keerom, Papua",PAPUA,,Indonesia,82248429465.0,-2.7812798,140.5868704,https://maps.google.com/?cid=0x0:0x49d3c23cc07b343
cafe,Toko umum,Ruang_Rindu Cafeshop,"Arsopura, Kec. Skanto, Kabupaten Keerom, Papua 99469","Kec. Skanto, Kabupaten Keerom",PAPUA,99469.0,Indonesia,82239212659.0,-2.7800615,140.5782335,https://maps.google.com/?cid=0x0:0xc958a69bf31367b3
cafe,Kafe,Jelly potter arsopura,"6H8M+QJG, Arsopura, Kec. Skanto, Kabupaten Keerom, Papua 99469","Arsopura, Kec. Skanto, Kabupaten Keerom",PAPUA,99469.0,Indonesia,,-2.782606,140.5840008,https://maps.google.com/?cid=0x0:0x7ce7450081451d16
cafe,Rumah Makan,Warung Cindai,"6H9H+QQX, Arsopura, Kec. Skanto, Kabupaten Keerom, Papua 99469","Arsopura, Kec. Skanto, Kabupaten Keerom",PAPUA,99469.0,Indonesia,,-2.7803338,140.5796033,https://maps.google.com/?cid=0x0:0x17e512923bea36d0
cafe,Rumah Makan,Warung Makan BABEH,"6H9H+VPQ, Arsopura, Kec. Skanto, Kabupaten Keerom, Papua 99469","Arsopura, Kec. Skanto, Kabupaten Keerom",PAPUA,99469.0,Indonesia,85254317119.0,-2.7802829,140.5793729,https://maps.google.com/?cid=0x0:0xbc36fbde24efbd48
cafe,Brunch,Jihan Kuliner,"6HFM+67W, Arsopura, Kec. Skanto, Kabupaten Keerom, Papua 99469","Arsopura, Kec. Skanto, Kabupaten Keerom",PAPUA,99469.0,Indonesia,,-2.7768922,140.5832029,https://maps.google.com/?cid=0x0:0x618313456232fc8a
cafe,Peternakan Sapi,Kandang sapi adytra,"6H9W+GR, Arsopura, Kec. Skanto, Kabupaten Keerom, Papua","Kabupaten Keerom, Papua",PAPUA,,Indonesia,,-2.7811851,140.5971154,https://maps.google.com/?cid=0x0:0xa2254f8141917564
cafe,cafe,Carita kopi,"yuwanain arso 2, Jl garuda, Nawa / Sawanawa, Kec. Arso, Kabupaten Keerom, Papua","Kabupaten Keerom, Papua",PAPUA,,Indonesia,,-3.0833868,140.5964124,https://maps.google.com/?cid=0x0:0x5f7bcb6d34a7e84e
cafe,cafe,Rumah ny sarii,"5JHC+2HV, Upt Arso V. / Wiyantri, Kec. Skanto, Kabupaten Keerom, Papua","Kabupaten Keerom, Papua",PAPUA,,Indonesia,,-2.822454,140.620916,https://maps.google.com/?cid=0x0:0x10ee8e822015bf0c
cafe,Pusat Perbelanjaan,momoyo arso 2,"Jl. Garuda 2, Yuwanaim, Kec. Arso, Kabupaten Keerom, Papua 99468","Yuwanaim, Kec. Arso, Kabupaten Keerom",PAPUA,99468.0,Indonesia,82343574185.0,-2.9033393,140.7513616,https://maps.google.com/?cid=0x0:0x8ccf9ec3689ecd93
cafe,Kedai Kopi,Kafe Bejo A95,"2/Yuwanain, Yuwanaim, Kec. Arso, Kabupaten Keerom, Papua 99468","Yuwanaim, Kec. Arso, Kabupaten Keerom",PAPUA,99468.0,Indonesia,82199114114.0,-2.90661,140.7513931,https://maps.google.com/?cid=0x0:0x8476fd6425654b61
cafe,cafe,Arso Tim.,"Kabupaten Keerom, Papua","Kabupaten Keerom, Papua",PAPUA,,Indonesia,,-2.9996892,140.8239949,https://maps.google.com/?cid=0x0:0xae3aa9f54982454a
cafe,Kedai Kopi,Gyp's Kopi.,"3QX4+9MQ, Yuwanaim, Kec. Arso, Kabupaten Keerom, Papua 99468","Yuwanaim, Kec. Arso, Kabupaten Keerom",PAPUA,99468.0,Indonesia,,-2.9015341,140.7567424,https://maps.google.com/?cid=0x0:0x36dde43ab0802a89
cafe,Kedai Kopi,Cafe Salam Satu Jiwa,"6Q36+H2W, Arso I. / Sanggaria, Kec. Arso, Kabupaten Keerom, Papua 99468","Arso I. / Sanggaria, Kec. Arso, Kabupaten Keerom",PAPUA,99468.0,Indonesia,85344637848.0,-2.7957074,140.7599986,https://maps.google.com/?cid=0x0:0xe7e92d20e7ba4c41
cafe,Rumah Makan,KEDAI AR ROCHMAH,"3PWX+CQC, Yuwanaim, Kec. Arso, Kabupaten Keerom, Papua 99468","Yuwanaim, Kec. Arso, Kabupaten Keerom",PAPUA,99468.0,Indonesia,81291166335.0,-2.9039403,140.7493817,https://maps.google.com/?cid=0x0:0xf9603fdfc12abf8e
cafe,Kafe,Kedai Aranda,"3QW2+68G, Yuwanaim, Kec. Arso, Kabupaten Keerom, Papua","Kabupaten Keerom, Papua",PAPUA,,Indonesia,,-2.9044376,140.7508235,https://maps.google.com/?cid=0x0:0x5b19179dafbf42e5
cafe,Kedai Kopi,Wiynscoffee,"Jln Elang No 407, Jlr 1 Barat, Arso 2. Kab. Keerom, Yuwanaim, Kec. Arso, Jayapura, Papua 99471","Jlr 1 Barat, Arso 2. Kab. Keerom, Yuwanaim, Kec. Arso, Jayapura",PAPUA,99471.0,Indonesia,82239332032.0,-2.9065657,140.7431997,https://maps.google.com/?cid=0x0:0xa43c42058d3511b0
cafe,Padang,RM Istana Pagaruyung,"3QX4+63M, Yuwanaim, Kec. Arso, Kabupaten Keerom, Papua 99468","Yuwanaim, Kec. Arso, Kabupaten Keerom",PAPUA,99468.0,Indonesia,,-2.9018338,140.7552749,https://maps.google.com/?cid=0x0:0xf3e85de6e7ddf0
cafe,Brunch,Keerom Fried Chicken,"3QW2+QVC, Jl. Garuda, Yuwanaim, Kec. Arso, Kabupaten Keerom, Papua 99468","Jl. Garuda, Yuwanaim, Kec. Arso, Kabupaten Keerom",PAPUA,99468.0,Indonesia,,-2.903051,140.7521366,https://maps.google.com/?cid=0x0:0xca645d7da4815099
cafe,Kafe,Keday QQ,"3Q99+35H, Yanamaa / Pir I, Kec. Arso, Kabupaten Keerom, Papua","Kabupaten Keerom, Papua",PAPUA,,Indonesia,81344252508.0,-2.932304,140.767986,https://maps.google.com/?cid=0x0:0xc9f63cf5e5da9c0d
cafe,Indonesia,Lalapan Barokah,"3V9W+59W, Pitewi, Kriku, Arso Tim., Kabupaten Keerom, Papua 99468","Pitewi, Kriku, Arso Tim., Kabupaten Keerom",PAPUA,99468.0,Indonesia,,-2.9320205,140.8959545,https://maps.google.com/?cid=0x0:0xcf0c3cba52c3e937
cafe,Indonesia,RM AROMA,"3QX4+FRG, Jl. Garuda, Yuwanaim, Kec. Arso, Kabupaten Keerom, Papua 99468","Jl. Garuda, Yuwanaim, Kec. Arso, Kabupaten Keerom",PAPUA,99468.0,Indonesia,,-2.9013006,140.757084,https://maps.google.com/?cid=0x0:0xe6fb5bf12d9a2ca7
cafe,cafe,Carita kopi,"3QX5+XHF, Jl. Garuda, Yuwanaim, Kec. Arso, Kabupaten Keerom, Papua 99468","Jl. Garuda, Yuwanaim, Kec. Arso, Kabupaten Keerom",PAPUA,99468.0,Indonesia,,-2.9000463,140.7589116,https://maps.google.com/?cid=0x0:0x6dc6a469ec9bc895
cafe,Kafe,D' IFA 88 CAFE,"Arso 2 kampung yuanain jln maleo2, Kabupaten Keerom, Papua 99368",Kabupaten Keerom,PAPUA,99368.0,Indonesia,82349588121.0,-2.8997741,140.7587958,https://maps.google.com/?cid=0x0:0xf31b4f7f22191f5e
cafe,cafe,Papua 99466,"Kabupaten Keerom, Papua","Kabupaten Keerom, Papua",PAPUA,,Indonesia,,-3.6008739,140.7624493,https://maps.google.com/?cid=0x0:0x68d0783d81283fe1
cafe,Kafe,Kakao Kita Papua Cafe,"Jl. Jeruk Nipis No.118, Wahno, Kec. Abepura, Kota Jayapura, Papua 99224","Wahno, Kec. Abepura, Kota Jayapura",PAPUA,99224.0,Indonesia,,-2.5946884,140.6772031,https://maps.google.com/?cid=0x0:0x96446b194f142716
cafe,Restoran,Pit's Corner ( Papua Specialty Coffee ),"Jalan kasuari no.2 Dok V Atas, Mandala, Jayapura Utara, Jayapura City, Papua 99114","Mandala, Jayapura Utara, Jayapura City",PAPUA,99114.0,Indonesia,9675160443.0,-2.5310642,140.71875,https://maps.google.com/?cid=0x0:0xf39f3950a3bf5ed2
cafe,Kafe,Kopu Kopi CafÃ© (Coffee  Eatery),"Jl. Raya Abepura, Wahno, Kec. Abepura, Kota Jayapura, Papua 99224","Wahno, Kec. Abepura, Kota Jayapura",PAPUA,99224.0,Indonesia,81263800182.0,-2.5972248,140.6796506,https://maps.google.com/?cid=0x0:0x55eedda55f616417
cafe,Warnet,4 You Caffee,"Asyaman crossroad, Asiaman, Kec. Arso, Kabupaten Keerom, Papua","Kabupaten Keerom, Papua",PAPUA,,Indonesia,,-2.8701255,140.743652,https://maps.google.com/?cid=0x0:0x63237bb2c3dbc397
cafe,Kafe,cafe bakau holtekam kota jayapura,"9PRF+58, Nafri, Kec. Abepura, Kota Jayapura, Papua","Kota Jayapura, Papua",PAPUA,,Indonesia,8124022007.0,-2.6095335,140.7232587,https://maps.google.com/?cid=0x0:0x440c4543fd3a011e
cafe,Restoran,Wr.makan TONG PUNYA,"2RV8+33P, Jl. Poros, Upt Pir V. / Yamara, Arso Tim., Kabupaten Keerom, Papua 99468","Jl. Poros, Upt Pir V. / Yamara, Arso Tim., Kabupaten Keerom",PAPUA,99468.0,Indonesia,85244072981.0,-2.9572766,140.8152008,https://maps.google.com/?cid=0x0:0x1d5ad2a041f83ef2
cafe,Dapur Umum,RM BRAYEN 88,"HQ4G+678, Senggi, Kabupaten Keerom, Papua","Kabupaten Keerom, Papua",PAPUA,,Indonesia,,-3.444463,140.775696,https://maps.google.com/?cid=0x0:0xe5904f3f3f0e5b26
cafe,Warnet,Didikhotspot,"GPXR+787, Unnamed Road, Woslay, Senggi, Kabupaten Keerom, Papua 99465","Unnamed Road, Woslay, Senggi, Kabupaten Keerom",PAPUA,99465.0,Indonesia,81247549785.0,-3.451838,140.740811,https://maps.google.com/?cid=0x0:0xb65f23b9722da6fa
cafe,cafe,warung makan Musdalifah,"HQ36+3G, Senggi, Kabupaten Keerom, Papua","Kabupaten Keerom, Papua",PAPUA,,Indonesia,8237756987.0,-3.4472749,140.7613035,https://maps.google.com/?cid=0x0:0x93a5797af0f30b7d
cafe,cafe,Warung lalapan,"GPWQ+FF4, Woslay, Senggi, Kabupaten Keerom, Papua 99465","Woslay, Senggi, Kabupaten Keerom",PAPUA,99465.0,Indonesia,,-3.4529335,140.7384118,https://maps.google.com/?cid=0x0:0x37b79fa6c7bea89d
cafe,Warnet,sugeng_hotspot.net,"GPWJ+36X, Woslay, Senggi, Kabupaten Keerom, Papua 99465","Woslay, Senggi, Kabupaten Keerom",PAPUA,99465.0,Indonesia,,-3.4547651,140.7305942,https://maps.google.com/?cid=0x0:0xb03996115b2317e5
cafe,Kedai Kopi,Kafe Bejo A95,"2/Yuwanain, Yuwanaim, Kec. Arso, Kabupaten Keerom, Papua 99468","Yuwanaim, Kec. Arso, Kabupaten Keerom",PAPUA,99468.0,Indonesia,82199114114.0,-2.90661,140.7513931,https://maps.google.com/?cid=0x0:0x8476fd6425654b61
hotel,hotel,Papua 99467,"Distrik Waris, Kabupaten Keerom, Papua","Kabupaten Keerom, Papua",PAPUA,,Indonesia,,-3.1279268,140.8872648,https://maps.google.com/?cid=0x0:0xcde9330d1e08a4a3
hotel,hotel,Grande Arso Hotel,"Yuwanaim, Kec. Arso, Kabupaten Keerom, Papua 99468","Kec. Arso, Kabupaten Keerom",PAPUA,99468.0,Indonesia,8114813333.0,-2.900651,140.7566474,https://maps.google.com/?cid=0x0:0x2446949fbe2c8759
hotel,hotel,Hotel Dafonsoro,"Jl. Percetakan Negara No.20-24, Gurabesi, Kec. Jayapura Utara, Kota Jayapura, Papua 99221","Gurabesi, Kec. Jayapura Utara, Kota Jayapura",PAPUA,99221.0,Indonesia,85788877739.0,-2.5406973,140.7041061,https://maps.google.com/?cid=0x0:0xda20a7d826a77577
hotel,Kantor Pemerintah,Panorama indah sindeka,"G8RF+C2W, Salak II, Kec. Salak, Kabupaten Pakpak Bharat, Sumatera Utara 22272","Salak II, Kec. Salak, Kabupaten Pakpak Bharat",PAPUA,22272.0,Indonesia,,2.5411121,98.3225868,https://maps.google.com/?cid=0x0:0x28be8d5185a1a1e8
hotel,hotel,Waris Hotel,"H84C+8VP, Salak II, Kec. Salak, Kabupaten Pakpak Bharat, Sumatera Utara 22271","Salak II, Kec. Salak, Kabupaten Pakpak Bharat",PAPUA,22271.0,Indonesia,,2.5558366,98.3222059,https://maps.google.com/?cid=0x0:0x16d3413747de5231
hotel,hotel,Grande Arso Hotel,"Yuwanaim, Kec. Arso, Kabupaten Keerom, Papua 99468","Kec. Arso, Kabupaten Keerom",PAPUA,99468.0,Indonesia,8114813333.0,-2.900651,140.7566474,https://maps.google.com/?cid=0x0:0x2446949fbe2c8759
hotel,hotel,Hotel Grand Papua Sentani,"Jalan Sosial No.388, Hinekombe, Kec. Sentani, Kabupaten Jayapura, Papua 99352","Hinekombe, Kec. Sentani, Kabupaten Jayapura",PAPUA,99352.0,Indonesia,8114827899.0,-2.557344,140.4958181,https://maps.google.com/?cid=0x0:0x9afaf186d23bb377
hotel,hotel,Papua 99468,"Kabupaten Keerom, Papua","Kabupaten Keerom, Papua",PAPUA,,Indonesia,,-2.838126,140.7624493,https://maps.google.com/?cid=0x0:0xb18f169d1a15b8b6
hotel,hotel,,,,PAPUA,,Indonesia,,,,https://maps.google.com/?cid=0x0:0xadc84ceab536f6a%7C/g/11btn18jtk%7Cid-ID
hotel,hotel,Grand ABE Hotel Jayapura,"Jl. Raya Abepura, Kotabaru, Kota Baru, Kec. Abepura, Kota Jayapura, Papua 99351","Kotabaru, Kota Baru, Kec. Abepura, Kota Jayapura",PAPUA,99351.0,Indonesia,8114825123.0,-2.6106174,140.6659805,https://maps.google.com/?cid=0x0:0xadc84ceab536f6a
hotel,hotel,Hotel Horison Abepura,"Jl. Raya Abepura - Sentani, Hedam, Kec. Heram, Kota Jayapura, Papua 99351","Hedam, Kec. Heram, Kota Jayapura",PAPUA,99351.0,Indonesia,8114915557.0,-2.6067187,140.6493524,https://maps.google.com/?cid=0x0:0xb60e7c638678e9e9
hotel,hotel,RAFA HOTEL,"9MXC+PQ7, Vim, Kec. Abepura, Kota Jayapura, Papua","Kota Jayapura, Papua",PAPUA,,Indonesia,,-2.6011488,140.6717368,https://maps.google.com/?cid=0x0:0x18c6cc75351cda98
hotel,hotel,GRAND TAHARA SENTANI Hotel  Convention,"Jl. Raya Kemiri, Hinekombe, Kec. Sentani, Kabupaten Jayapura, Papua 99359","Hinekombe, Kec. Sentani, Kabupaten Jayapura",PAPUA,99359.0,Indonesia,82197796699.0,-2.5653049,140.5098925,https://maps.google.com/?cid=0x0:0xdfa507ac6ec552f1
hotel,hotel,Horex,"Jl. Raya Kemiri No.79, Sentani Kota, Kec. Sentani, Kabupaten Jayapura, Papua 99352","Sentani Kota, Kec. Sentani, Kabupaten Jayapura",PAPUA,99352.0,Indonesia,8114896625.0,-2.565165,140.5133463,https://maps.google.com/?cid=0x0:0x15b9d3d794d85f65
hotel,hotel,,,,PAPUA,,Indonesia,,,,https://maps.google.com/?cid=0x0:0x228d0b2bb9d7838c%7C/g/11fr6srn7h%7Cid-ID
hotel,hotel,Mercure Jayapura,"Jl. Ahmad Yani No.12, Gurabesi, Kec. Jayapura Utara, Kota Jayapura, Papua 99111","Gurabesi, Kec. Jayapura Utara, Kota Jayapura",PAPUA,99111.0,Indonesia,9675161888.0,-2.5425064,140.7031376,https://maps.google.com/?cid=0x0:0x228d0b2bb9d7838c
hotel,hotel,Hotel Jasmine Jayapura,"Jl. Percetakan Negara No.8, Gurabesi, Kec. Jayapura Utara, Kota Jayapura, Papua 99111","Gurabesi, Kec. Jayapura Utara, Kota Jayapura",PAPUA,99111.0,Indonesia,967533222.0,-2.5402997,140.704585,https://maps.google.com/?cid=0x0:0x264fddf9f68e3b33
hotel,hotel,,,,PAPUA,,Indonesia,,,,https://maps.google.com/?cid=0x0:0x264fddf9f68e3b33%7C/g/12hl1k3bs%7Cid-ID
hotel,hotel,Hotel Gamalama,"9MP9+G56, Jl. Gerilyawan, Yobe, Kec. Abepura, Kota Jayapura, Papua 99351","Jl. Gerilyawan, Yobe, Kec. Abepura, Kota Jayapura",PAPUA,99351.0,Indonesia,85337358893.0,-2.6137021,140.6678935,https://maps.google.com/?cid=0x0:0xf95001e3d53d211
hotel,hotel,Senggi,"Senggi, Kabupaten Keerom, Papua","Kabupaten Keerom, Papua",PAPUA,,Indonesia,,-3.444463,140.775696,https://maps.google.com/?cid=0x0:0x6ea1e22b49fe9674
hotel,hotel,Hotel Sahid Papua,"Jl. Klp. 2 No.18, Entrop, Distrik Jayapura Selatan, Kota Jayapura, Papua 99221","Entrop, Distrik Jayapura Selatan, Kota Jayapura",PAPUA,99221.0,Indonesia,8114814009.0,-2.5661461,140.6996539,https://maps.google.com/?cid=0x0:0x9c8a2fd141b3aa33
hotel,hotel,,,,PAPUA,,Indonesia,,,,https://maps.google.com/?cid=0x0:0x9c8a2fd141b3aa33%7C/g/11b73kkp76%7Cid-ID
hotel,hotel,Hotel Grand Papua Sentani,"Jalan Sosial No.388, Hinekombe, Kec. Sentani, Kabupaten Jayapura, Papua 99352","Hinekombe, Kec. Sentani, Kabupaten Jayapura",PAPUA,99352.0,Indonesia,8114827899.0,-2.557344,140.4958181,https://maps.google.com/?cid=0x0:0x9afaf186d23bb377
hotel,hotel,Hotel Mutiara,"CM3C+873, Jl. Perkutut, Vim, Kec. Abepura, Kota Jayapura, Papua 99225","Jl. Perkutut, Vim, Kec. Abepura, Kota Jayapura",PAPUA,99225.0,Indonesia,81348430963.0,-2.5967398,140.6706613,https://maps.google.com/?cid=0x0:0xb730b0fce1d80fe4
hotel,Komplek perumahan,Penginapan Sengget,"H239+2W6, Kaibus, Kec. Teminabuan, Kabupaten Sorong Selatan, Papua Bar. 98454","Kaibus, Kec. Teminabuan, Kabupaten Sorong Selatan",PAPUA,98454.0,Indonesia,,-1.4474514,132.0197784,https://maps.google.com/?cid=0x0:0x1a03abad62217da4
hotel,Komplek perumahan,Komplek Sengget,"H238+3RJ, Kaibus, Kec. Teminabuan, Kabupaten Sorong Selatan, Papua Bar. 98454","Kaibus, Kec. Teminabuan, Kabupaten Sorong Selatan",PAPUA,98454.0,Indonesia,,-1.4472789,132.0170144,https://maps.google.com/?cid=0x0:0x409f25249f677a07
hotel,hotel,Papua 99466,"Kabupaten Keerom, Papua","Kabupaten Keerom, Papua",PAPUA,,Indonesia,,-3.6008739,140.7624493,https://maps.google.com/?cid=0x0:0x68d0783d81283fe1
hotel,hotel,Hotel Grand Papua Sentani,"Jalan Sosial No.388, Hinekombe, Kec. Sentani, Kabupaten Jayapura, Papua 99352","Hinekombe, Kec. Sentani, Kabupaten Jayapura",PAPUA,99352.0,Indonesia,8114827899.0,-2.557344,140.4958181,https://maps.google.com/?cid=0x0:0x9afaf186d23bb377
hotel,hotel,Horex,"Jl. Raya Kemiri No.79, Sentani Kota, Kec. Sentani, Kabupaten Jayapura, Papua 99352","Sentani Kota, Kec. Sentani, Kabupaten Jayapura",PAPUA,99352.0,Indonesia,8114896625.0,-2.565165,140.5133463,https://maps.google.com/?cid=0x0:0x15b9d3d794d85f65
hotel,hotel,Papua 99469,Papua,Papua,PAPUA,,Indonesia,,-2.950166,140.4308159,https://maps.google.com/?cid=0x0:0xbc565fc539165f0b
hotel,hotel,,,,PAPUA,,Indonesia,,,,https://maps.google.com/?cid=0x0:0xa7477e43d92fc166%7C/g/11b73qj9kn%7Cid-ID
hotel,hotel,GRAND ALLISON SENTANI,"Jl. Raya Kemiri No.282, Hinekombe, Kec. Sentani, Kabupaten Jayapura, Papua 99359","Hinekombe, Kec. Sentani, Kabupaten Jayapura",PAPUA,99359.0,Indonesia,967592110.0,-2.5639057,140.5014423,https://maps.google.com/?cid=0x0:0xa7477e43d92fc166
hotel,hotel,Hotel Horison Abepura,"Jl. Raya Abepura - Sentani, Hedam, Kec. Heram, Kota Jayapura, Papua 99351","Hedam, Kec. Heram, Kota Jayapura",PAPUA,99351.0,Indonesia,8114915557.0,-2.6067187,140.6493524,https://maps.google.com/?cid=0x0:0xb60e7c638678e9e9
hotel,hotel,Horison Ultima Entrop,"Jl. Klp. 2, Entrop, Distrik Jayapura Selatan, Kota Jayapura, Papua 99224","Entrop, Distrik Jayapura Selatan, Kota Jayapura",PAPUA,99224.0,Indonesia,82248288877.0,-2.5691415,140.7031448,https://maps.google.com/?cid=0x0:0x606edeb95bbfcc9f
hotel,hotel,Mercure Jayapura,"Jl. Ahmad Yani No.12, Gurabesi, Kec. Jayapura Utara, Kota Jayapura, Papua 99111","Gurabesi, Kec. Jayapura Utara, Kota Jayapura",PAPUA,99111.0,Indonesia,9675161888.0,-2.5425064,140.7031376,https://maps.google.com/?cid=0x0:0x228d0b2bb9d7838c
hotel,hotel,,,,PAPUA,,Indonesia,,,,https://maps.google.com/?cid=0x0:0x228d0b2bb9d7838c%7C/g/11fr6srn7h%7Cid-ID
hotel,hotel,ASTON Jayapura Hotel  Convention Center,"Jl. Percetakan Negara No.50 - 58, Gurabesi, Kec. Jayapura Utara, Kota Jayapura, Papua 99111","Gurabesi, Kec. Jayapura Utara, Kota Jayapura",PAPUA,99111.0,Indonesia,967537700.0,-2.5412731,140.7031631,https://maps.google.com/?cid=0x0:0x1a1d78b4fd358a65
hotel,hotel,,,,PAPUA,,Indonesia,,,,https://maps.google.com/?cid=0x0:0x1a1d78b4fd358a65%7C/g/1tctxpcc%7Cid-ID
hotel,hotel,Hotel Best Western Sagita Jayapura,"Jl. Klp. 2, Entrop, Distrik Jayapura Selatan, Kota Jayapura, Papua 99221","Entrop, Distrik Jayapura Selatan, Kota Jayapura",PAPUA,99221.0,Indonesia,9675166888.0,-2.5676407,140.7023793,https://maps.google.com/?cid=0x0:0x741f2100c3f7bc5a
hotel,hotel,GRAND TAHARA SENTANI Hotel  Convention,"Jl. Raya Kemiri, Hinekombe, Kec. Sentani, Kabupaten Jayapura, Papua 99359","Hinekombe, Kec. Sentani, Kabupaten Jayapura",PAPUA,99359.0,Indonesia,82197796699.0,-2.5653049,140.5098925,https://maps.google.com/?cid=0x0:0xdfa507ac6ec552f1
hotel,hotel,Grand ABE Hotel Jayapura,"Jl. Raya Abepura, Kotabaru, Kota Baru, Kec. Abepura, Kota Jayapura, Papua 99351","Kotabaru, Kota Baru, Kec. Abepura, Kota Jayapura",PAPUA,99351.0,Indonesia,8114825123.0,-2.6106174,140.6659805,https://maps.google.com/?cid=0x0:0xadc84ceab536f6a
hotel,hotel,Grande Arso Hotel,"Yuwanaim, Kec. Arso, Kabupaten Keerom, Papua 99468","Kec. Arso, Kabupaten Keerom",PAPUA,99468.0,Indonesia,8114813333.0,-2.900651,140.7566474,https://maps.google.com/?cid=0x0:0x2446949fbe2c8759
hotel,hotel,Arso Tim.,"Kabupaten Keerom, Papua","Kabupaten Keerom, Papua",PAPUA,,Indonesia,,-2.9996892,140.8239949,https://maps.google.com/?cid=0x0:0xae3aa9f54982454a
hotel,Rumah wisata,Tempat nongkrong bersama,"3QMF+FXR, Arso Kota, Kec. Arso, Kabupaten Keerom, Papua 99468","Arso Kota, Kec. Arso, Kabupaten Keerom",PAPUA,99468.0,Indonesia,,-2.916231,140.7749766,https://maps.google.com/?cid=0x0:0xcdc021aaac043b37
hotel,Bandara,Bandar Udara Internasional Sentani (DJJ),"Jl. PLN, Sentani Kota, Kec. Sentani, Kabupaten Jayapura, Papua 99359","Sentani Kota, Kec. Sentani, Kabupaten Jayapura",PAPUA,99359.0,Indonesia,967591168.0,-2.577264,140.5181249,https://maps.google.com/?cid=0x0:0x827c58439ec78b1e
hotel,hotel,Hotel Grand Papua Sentani,"Jalan Sosial No.388, Hinekombe, Kec. Sentani, Kabupaten Jayapura, Papua 99352","Hinekombe, Kec. Sentani, Kabupaten Jayapura",PAPUA,99352.0,Indonesia,8114827899.0,-2.557344,140.4958181,https://maps.google.com/?cid=0x0:0x9afaf186d23bb377
hotel,hotel,Hotel Sahid Papua,"Jl. Klp. 2 No.18, Entrop, Distrik Jayapura Selatan, Kota Jayapura, Papua 99221","Entrop, Distrik Jayapura Selatan, Kota Jayapura",PAPUA,99221.0,Indonesia,8114814009.0,-2.5661461,140.6996539,https://maps.google.com/?cid=0x0:0x9c8a2fd141b3aa33
hotel,hotel,,,,PAPUA,,Indonesia,,,,https://maps.google.com/?cid=0x0:0x9c8a2fd141b3aa33%7C/g/11b73kkp76%7Cid-ID
hotel,hotel,Le Premiere Hotel,"Jl. Raya Kelapa Dua Entop. 18, Ardipura, Entrop, Jayapura Selatan, Jayapura City, Papua 99223","Ardipura, Entrop, Jayapura Selatan, Jayapura City",PAPUA,99223.0,Indonesia,967537999.0,-2.5681482,140.7023628,https://maps.google.com/?cid=0x0:0x6aff806f0b777278
hotel,hotel,Kartini Hotel,"Unnamed Road, Gurabesi, Kec. Jayapura Utara, Kota Jayapura, Papua 99221","Gurabesi, Kec. Jayapura Utara, Kota Jayapura",PAPUA,99221.0,Indonesia,967531557.0,-2.5437639,140.69813,https://maps.google.com/?cid=0x0:0x67ced8468132987b
hotel,hotel,Hotel Mutiara,"CM3C+873, Jl. Perkutut, Vim, Kec. Abepura, Kota Jayapura, Papua 99225","Jl. Perkutut, Vim, Kec. Abepura, Kota Jayapura",PAPUA,99225.0,Indonesia,81348430963.0,-2.5967398,140.6706613,https://maps.google.com/?cid=0x0:0xb730b0fce1d80fe4
hotel,hotel,Penginapan 69,"Kp. Waena, Kec. Heram, Kota Jayapura, Papua 99225","Kec. Heram, Kota Jayapura",PAPUA,99225.0,Indonesia,81248523621.0,-2.593495,140.6310796,https://maps.google.com/?cid=0x0:0x12711ec27878fab8
hotel,hotel,Gerson Hotel Abepura  Cafe,"Jl. Bosnik BTN Kamkey, Awiyo, Kec. Abepura, Kota Jayapura, Papua 99351","Awiyo, Kec. Abepura, Kota Jayapura",PAPUA,99351.0,Indonesia,895417300072.0,-2.6194737,140.6739776,https://maps.google.com/?cid=0x0:0xee11e02b061cf5df
hotel,hotel,JR Homestay,"Deretan kawasaki samping londry care, Padang bulan, Kota Jayapura, Papua 99351","Padang bulan, Kota Jayapura",PAPUA,99351.0,Indonesia,81315480030.0,-2.6072774,140.6453723,https://maps.google.com/?cid=0x0:0xde9a5875814dc9fd
hotel,hotel,ASTON Jayapura Hotel  Convention Center,"Jl. Percetakan Negara No.50 - 58, Gurabesi, Kec. Jayapura Utara, Kota Jayapura, Papua 99111","Gurabesi, Kec. Jayapura Utara, Kota Jayapura",PAPUA,99111.0,Indonesia,967537700.0,-2.5412731,140.7031631,https://maps.google.com/?cid=0x0:0x1a1d78b4fd358a65
hotel,hotel,Papua 99466,"Kabupaten Keerom, Papua","Kabupaten Keerom, Papua",PAPUA,,Indonesia,,-3.6008739,140.7624493,https://maps.google.com/?cid=0x0:0x68d0783d81283fe1
hotel,hotel,,,,PAPUA,,Indonesia,,,,https://maps.google.com/?cid=0x0:0x1a1d78b4fd358a65%7C/g/1tctxpcc%7Cid-ID
hotel,hotel,Patmos Guest House,"Jl. Pos 7 No.53, Sentani Kota, Kec. Sentani, Kabupaten Jayapura, Papua 99352","Sentani Kota, Kec. Sentani, Kabupaten Jayapura",PAPUA,99352.0,Indonesia,81212748790.0,-2.561908,140.5084075,https://maps.google.com/?cid=0x0:0xffe8a74235ae9f69
hotel,hotel,Urbanview Hotel ME Jayapura,"Jl. Belut 13, Kp. Waena, expo, Kota Jayapura, Papua 99351","Kp. Waena, expo, Kota Jayapura",PAPUA,99351.0,Indonesia,895417300072.0,-2.5961874,140.6289663,https://maps.google.com/?cid=0x0:0x71d5532a01326fb7
hotel,hotel,Hotel Sahid Papua,"Jl. Klp. 2 No.18, Entrop, Distrik Jayapura Selatan, Kota Jayapura, Papua 99221","Entrop, Distrik Jayapura Selatan, Kota Jayapura",PAPUA,99221.0,Indonesia,8114814009.0,-2.5661461,140.6996539,https://maps.google.com/?cid=0x0:0x9c8a2fd141b3aa33
hotel,hotel,,,,PAPUA,,Indonesia,,,,https://maps.google.com/?cid=0x0:0x9c8a2fd141b3aa33%7C/g/11b73kkp76%7Cid-ID
hotel,hotel,Numbay Hotel,"Jl. Trikora No.23, Dok V, Trikora, Kec. Jayapura Utara, Kota Jayapura, Papua 99114","Dok V, Trikora, Kec. Jayapura Utara, Kota Jayapura",PAPUA,99114.0,Indonesia,9675166939.0,-2.527363,140.7185297,https://maps.google.com/?cid=0x0:0x2a95e5b69088c98d
hotel,hotel,Edotel Yotefa View Jayapura,"JL. Soa Siu, No. 13, Dok V Bawah, Trikora, Jayaupura, Kota Jayapura, Papua","Kota Jayapura, Papua",PAPUA,,Indonesia,967532044.0,-2.5340282,140.7220391,https://maps.google.com/?cid=0x0:0xa77bef3af66c00e6
hotel,hotel,Hotel Bunga Youtefa,"9MRJ+339, Wai Mhorock, Kec. Abepura, Kota Jayapura, Papua 99225","Wai Mhorock, Kec. Abepura, Kota Jayapura",PAPUA,99225.0,Indonesia,,-2.609849,140.68022,https://maps.google.com/?cid=0x0:0x6ed44eab0b6f0605
hotel,hotel,Penginapan 69,"Kp. Waena, Kec. Heram, Kota Jayapura, Papua 99225","Kec. Heram, Kota Jayapura",PAPUA,99225.0,Indonesia,81248523621.0,-2.593495,140.6310796,https://maps.google.com/?cid=0x0:0x12711ec27878fab8
hotel,hotel,OYO 93073 Penginapan 69,"CM59+9JM, Jl. kp Waena, Vim, Heram, Jayapura City, Papua 99226","Jl. kp Waena, Vim, Heram, Jayapura City",PAPUA,99226.0,Indonesia,817788016.0,-2.5915361,140.6690328,https://maps.google.com/?cid=0x0:0x45a2e9e9e4762fe5
hotel,hotel,Hotel Grand Papua Sentani,"Jalan Sosial No.388, Hinekombe, Kec. Sentani, Kabupaten Jayapura, Papua 99352","Hinekombe, Kec. Sentani, Kabupaten Jayapura",PAPUA,99352.0,Indonesia,8114827899.0,-2.557344,140.4958181,https://maps.google.com/?cid=0x0:0x9afaf186d23bb377
hotel,hotel,"Swiss-Belhotel Jayapura, Papua","Pusat Bisnis Jayapura, Jl. Pacific Permai, Bayangkara, Kec. Jayapura Utara, Kota Jayapura, Papua 99112","Jl. Pacific Permai, Bayangkara, Kec. Jayapura Utara, Kota Jayapura",PAPUA,99112.0,Indonesia,967551888.0,-2.539046,140.711573,https://maps.google.com/?cid=0x0:0xbd14f75af0c6e48b
restaurant,restaurant,Papua 99467,"Distrik Waris, Kabupaten Keerom, Papua","Kabupaten Keerom, Papua",PAPUA,,Indonesia,,-3.1279268,140.8872648,https://maps.google.com/?cid=0x0:0xcde9330d1e08a4a3
restaurant,Rumah Makan,Rest Area 76,"WRHJ+PX, Ampas, Distrik Waris, Kabupaten Keerom, Papua","Kabupaten Keerom, Papua",PAPUA,,Indonesia,,-3.0707194,140.8324571,https://maps.google.com/?cid=0x0:0xd51ae504aa5a898d
restaurant,Restoran,RM. Musdalifah,"WRHJ+PX, Ampas, Distrik Waris, Kabupaten Keerom, Papua","Kabupaten Keerom, Papua",PAPUA,,Indonesia,,-3.0705892,140.8324353,https://maps.google.com/?cid=0x0:0x1a74a591eda5aac8
restaurant,Indonesia,WARIS (warung laris),"Jl. Sutan Syahrir No.1C 7, RT.7/RW.2, Gondangdia, Kec. Menteng, Kota Jakarta Pusat, Daerah Khusus Ibukota Jakarta 10350","RT.7/RW.2, Gondangdia, Kec. Menteng, Kota Jakarta Pusat",PAPUA,10350.0,Indonesia,81311661696.0,-6.196617,106.837723,https://maps.google.com/?cid=0x0:0x95ed539e230af610
restaurant,restaurant,Papua 99468,"Kabupaten Keerom, Papua","Kabupaten Keerom, Papua",PAPUA,,Indonesia,,-2.838126,140.7624493,https://maps.google.com/?cid=0x0:0xb18f169d1a15b8b6
restaurant,Rumah Makan,RM Raja Rasa,"Jl Raya, Arso Kota, Kec. Arso, Kabupaten Keerom, Papua 99468","Arso Kota, Kec. Arso, Kabupaten Keerom",PAPUA,99468.0,Indonesia,85243389900.0,-2.8710868,140.7628414,https://maps.google.com/?cid=0x0:0xee147f533a73802d
restaurant,Indonesia,RM AROMA,"3QX4+FRG, Jl. Garuda, Yuwanaim, Kec. Arso, Kabupaten Keerom, Papua 99468","Jl. Garuda, Yuwanaim, Kec. Arso, Kabupaten Keerom",PAPUA,99468.0,Indonesia,,-2.9013006,140.757084,https://maps.google.com/?cid=0x0:0xe6fb5bf12d9a2ca7
restaurant,Restoran,RM. Abang Zhaki Arso 2,"Arso 2, Jl. Garuda, Yuwanaim, Kec. Arso, Kabupaten Keerom, Papua 99468","Jl. Garuda, Yuwanaim, Kec. Arso, Kabupaten Keerom",PAPUA,99468.0,Indonesia,82198443879.0,-2.9019783,140.7546409,https://maps.google.com/?cid=0x0:0x848e9db8b44884a8
restaurant,Padang,RM Istana Pagaruyung,"3QX4+63M, Yuwanaim, Kec. Arso, Kabupaten Keerom, Papua 99468","Yuwanaim, Kec. Arso, Kabupaten Keerom",PAPUA,99468.0,Indonesia,,-2.9018338,140.7552749,https://maps.google.com/?cid=0x0:0xf3e85de6e7ddf0
restaurant,Rumah Makan,Warung Makan NUR HASANAH,"6Q25+37V, Arso I. / Sanggaria, Kec. Arso, Kabupaten Keerom, Papua 99468","Arso I. / Sanggaria, Kec. Arso, Kabupaten Keerom",PAPUA,99468.0,Indonesia,81344232443.0,-2.7997524,140.7581737,https://maps.google.com/?cid=0x0:0x1c359729e45a9dde
restaurant,Rumah Makan,RM. GROBOGAN (PakDe Kardi),"3PXX+QHM, Yuwanaim, Kec. Arso, Kabupaten Keerom, Papua 99468","Yuwanaim, Kec. Arso, Kabupaten Keerom",PAPUA,99468.0,Indonesia,85243626610.0,-2.9005422,140.7489352,https://maps.google.com/?cid=0x0:0x23c9c1c8d00f3627
restaurant,Rumah Makan,RM Kenanga,"3QX4+F9J, Yuwanaim, Kec. Arso, Kabupaten Keerom, Papua 99468","Yuwanaim, Kec. Arso, Kabupaten Keerom",PAPUA,99468.0,Indonesia,,-2.9012837,140.7558966,https://maps.google.com/?cid=0x0:0x2d1f958763bf13e7
restaurant,Brunch,Wr.Dewa Rasa,"3QX3+6J5, Jl. Garuda, Yuwanaim, Kec. Arso, Kabupaten Keerom, Papua 99468","Jl. Garuda, Yuwanaim, Kec. Arso, Kabupaten Keerom",PAPUA,99468.0,Indonesia,,-2.9019933,140.7540946,https://maps.google.com/?cid=0x0:0x6bfa9be11de1a8cd
restaurant,Indonesia,Lalapan Barokah,"3V9W+59W, Pitewi, Kriku, Arso Tim., Kabupaten Keerom, Papua 99468","Pitewi, Kriku, Arso Tim., Kabupaten Keerom",PAPUA,99468.0,Indonesia,,-2.9320205,140.8959545,https://maps.google.com/?cid=0x0:0xcf0c3cba52c3e937
restaurant,Ayam Goreng,WM CHICKEN ARSO II,"Depan SPBU ARSO II, Jl. Garuda, Yuwanain, Arso II, Kabupaten Keerom, Papua 99468","Jl. Garuda, Yuwanain, Arso II, Kabupaten Keerom",PAPUA,99468.0,Indonesia,85255642340.0,-2.9010609,140.7564863,https://maps.google.com/?cid=0x0:0xc09a34840d5e1488
restaurant,Rumah Makan,Warung makan bujawa,"4PHR+H3J, Asiaman, Kec. Arso, Kabupaten Keerom, Papua 99468","Asiaman, Kec. Arso, Kabupaten Keerom",PAPUA,99468.0,Indonesia,,-2.8705633,140.7396367,https://maps.google.com/?cid=0x0:0xa3b0c56d700c9e24
restaurant,Brunch,rm rahayu,"Jl. Garuda 2, RW.kmpung, yuanaen, Kec. Arso, Kabupaten Keerom, Papua 99468","RW.kmpung, yuanaen, Kec. Arso, Kabupaten Keerom",PAPUA,99468.0,Indonesia,82397364744.0,-2.9007425,140.7577948,https://maps.google.com/?cid=0x0:0xe40617e79902dafb
restaurant,Padang,Rm.kelok Sembilan,"4P92+XRF, lintas, Jl. Poros Arso XIV, Upt Arso X/Yaturaharja, Kec. Arso, Kabupaten Keerom, Papua 99468","lintas, Jl. Poros Arso XIV, Upt Arso X/Yaturaharja, Kec. Arso, Kabupaten Keerom",PAPUA,99468.0,Indonesia,85344949544.0,-2.8800651,140.7020341,https://maps.google.com/?cid=0x0:0x8ca0c918c684613e
restaurant,restaurant,Senggi,"Senggi, Kabupaten Keerom, Papua","Kabupaten Keerom, Papua",PAPUA,,Indonesia,,-3.444463,140.775696,https://maps.google.com/?cid=0x0:0x6ea1e22b49fe9674
restaurant,Indonesia,RM.sederhana 77 Senggi,"HQ36+8P2, Jalan trans wamena, Senggi, Kabupaten Keerom, Papua","Kabupaten Keerom, Papua",PAPUA,,Indonesia,81251843741.0,-3.446735,140.761774,https://maps.google.com/?cid=0x0:0x8aee081bf3fb4605
restaurant,Dapur Umum,RM BRAYEN 88,"HQ4G+678, Senggi, Kabupaten Keerom, Papua","Kabupaten Keerom, Papua",PAPUA,,Indonesia,,-3.444463,140.775696,https://maps.google.com/?cid=0x0:0xe5904f3f3f0e5b26
restaurant,restaurant,Warung Makan Andika,"GPRR+PR, Woslay, Senggi, Kabupaten Keerom, Papua","Kabupaten Keerom, Papua",PAPUA,,Indonesia,,-3.4581576,140.7420917,https://maps.google.com/?cid=0x0:0xffa50727f24d786f
restaurant,Bar,RÅ«mu Private Room Grill,"Jl. Aditiyawarman No.71, Melawai, Kec. Kby. Baru, Kota Jakarta Selatan, Daerah Khusus Ibukota Jakarta 12160","Melawai, Kec. Kby. Baru, Kota Jakarta Selatan",PAPUA,12160.0,Indonesia,82121220009.0,-6.2426774,106.8039087,https://maps.google.com/?cid=0x0:0x94f4bbb640ab4374
restaurant,Dapur Umum,SAYYA Restaurant,"Jl. Panglima Polim V No.36, Melawai, Kec. Kby. Baru, JAKARTA, Daerah Khusus Ibukota Jakarta 12160","Melawai, Kec. Kby. Baru, JAKARTA",PAPUA,12160.0,Indonesia,82258680268.0,-6.2506046,106.7978813,https://maps.google.com/?cid=0x0:0xae73eba9e2b0e89f
restaurant,restaurant,Papua 99466,"Kabupaten Keerom, Papua","Kabupaten Keerom, Papua",PAPUA,,Indonesia,,-3.6008739,140.7624493,https://maps.google.com/?cid=0x0:0x68d0783d81283fe1
restaurant,Restoran,Shally's Dining  Bar Jakarta,"Jl. Jenderal Sudirman No.Kav. 1 Lantai 1, RT.1/RW.8, Karet Tengsin, Kecamatan Tanah Abang, Kota Jakarta Pusat, Daerah Khusus Ibukota Jakarta 10220","RT.1/RW.8, Karet Tengsin, Kecamatan Tanah Abang, Kota Jakarta Pusat",PAPUA,10220.0,Indonesia,81111806326.0,-6.2035439,106.8201733,https://maps.google.com/?cid=0x0:0xc764a92a2654f132
restaurant,Restoran,"Steak 99 , ciledug indah 1 pedurenan","Jl. KH. Hasyim Ashari No.100-1, RT.007/RW.002, Pedurenan, Kec. Karang Tengah, Kota Tangerang, Banten 15157","RT.007/RW.002, Pedurenan, Kec. Karang Tengah, Kota Tangerang",PAPUA,15157.0,Indonesia,,-6.2221155,106.7012988,https://maps.google.com/?cid=0x0:0x154fcaa81fb2900c
restaurant,Sesuai untuk keluarga,"Steak 99, Larangan Kreo ciledug","QP8P+M6G, Jl. HOS Cokroaminoto, RT.001/RW.001, Cipadu, Kec. Larangan, Kota Tangerang, Banten 15155","Jl. HOS Cokroaminoto, RT.001/RW.001, Cipadu, Kec. Larangan, Kota Tangerang",PAPUA,15155.0,Indonesia,,-6.233249,106.7355875,https://maps.google.com/?cid=0x0:0x95a37aa32b2cf0dd
restaurant,Hidangan Laut,Restoran 499,"Jl. A. Yani No.687, Padasuka, Kec. Cibeunying Kidul, Kota Bandung, Jawa Barat 40281","Padasuka, Kec. Cibeunying Kidul, Kota Bandung",PAPUA,40281.0,Indonesia,227100011.0,-6.9069179,107.6462734,https://maps.google.com/?cid=0x0:0x9f66c2b25173b5c7
restaurant,Dapur Umum,OTW Food Street,"Jl. Raya Klp. Kopyor No.1 Blok BA 2, RT.2/RW.9, Klp. Gading Tim., Kec. Klp. Gading, Jkt Utara, Daerah Khusus Ibukota Jakarta 14240","RT.2/RW.9, Klp. Gading Tim., Kec. Klp. Gading, Jkt Utara",PAPUA,14240.0,Indonesia,85716292142.0,-6.1702327,106.9035364,https://maps.google.com/?cid=0x0:0xfc71c6a981b9c901
restaurant,Kafe,FAT TIGER,"Jl. Joglo Raya No.70, RT.6/RW.2, Joglo, Kec. Kembangan, Kota Jakarta Barat, Daerah Khusus Ibukota Jakarta 11640","RT.6/RW.2, Joglo, Kec. Kembangan, Kota Jakarta Barat",PAPUA,11640.0,Indonesia,81270067317.0,-6.2227265,106.7209204,https://maps.google.com/?cid=0x0:0x175a693995bece3e
restaurant,Restoran,Steak 99 Poris,"Jl. Poris Indah No.7B, RT.001/RW.006, Cipondoh Indah, Kec. Cipondoh, Kota Tangerang, Banten 15148","RT.001/RW.006, Cipondoh Indah, Kec. Cipondoh, Kota Tangerang",PAPUA,15148.0,Indonesia,,-6.1795337,106.6881442,https://maps.google.com/?cid=0x0:0x2cf0c7300bd038a4
restaurant,Rumah Makan,Warung Makan BABEH,"6H9H+VPQ, Arsopura, Kec. Skanto, Kabupaten Keerom, Papua 99469","Arsopura, Kec. Skanto, Kabupaten Keerom",PAPUA,99469.0,Indonesia,85254317119.0,-2.7802829,140.5793729,https://maps.google.com/?cid=0x0:0xbc36fbde24efbd48
restaurant,restaurant,Papua 99469,Papua,Papua,PAPUA,,Indonesia,,-2.950166,140.4308159,https://maps.google.com/?cid=0x0:0xbc565fc539165f0b
restaurant,Restoran,Restauran MR,"6H8M+8MM, Arsopura, Kec. Skanto, Kabupaten Keerom, Papua 99469","Arsopura, Kec. Skanto, Kabupaten Keerom",PAPUA,99469.0,Indonesia,,-2.7841523,140.584183,https://maps.google.com/?cid=0x0:0x82abae487ea19152
restaurant,Brunch,Jihan Kuliner,"6HFM+67W, Arsopura, Kec. Skanto, Kabupaten Keerom, Papua 99469","Arsopura, Kec. Skanto, Kabupaten Keerom",PAPUA,99469.0,Indonesia,,-2.7768922,140.5832029,https://maps.google.com/?cid=0x0:0x618313456232fc8a
restaurant,Rumah Makan,Warung Cindai,"6H9H+QQX, Arsopura, Kec. Skanto, Kabupaten Keerom, Papua 99469","Arsopura, Kec. Skanto, Kabupaten Keerom",PAPUA,99469.0,Indonesia,,-2.7803338,140.5796033,https://maps.google.com/?cid=0x0:0x17e512923bea36d0
restaurant,Restoran,RM.Bunda moroseneng,"4MP7+24X, Jl. Silas Papare, Upt Arso XIV / Wulukubun, Kec. Skanto, Kabupaten Keerom, Papua 99468","Jl. Silas Papare, Upt Arso XIV / Wulukubun, Kec. Skanto, Kabupaten Keerom",PAPUA,99468.0,Indonesia,82239146404.0,-2.8648779,140.6628748,https://maps.google.com/?cid=0x0:0x1fb6c96a8214acc0
restaurant,Restoran,Kedai'piiaaa,"6J5G+J3W, Arsopura, Kec. Skanto, Kabupaten Keerom, Papua","Kabupaten Keerom, Papua",PAPUA,,Indonesia,,-2.7908801,140.6252187,https://maps.google.com/?cid=0x0:0xaf303193ddf974e9
restaurant,Indonesia,Mie Ayam Mas Koko,"6H8M+WQF, Unnamed Road, Arsopura, Skanto, Keerom Regency, Papua 99469","Unnamed Road, Arsopura, Skanto, Keerom Regency",PAPUA,99469.0,Indonesia,85244228213.0,-2.7826763,140.5844318,https://maps.google.com/?cid=0x0:0x5db58947f25d1f2c
restaurant,Restoran,Depot Lancar,"6H58+J4G, Arsopura, Kec. Skanto, Kabupaten Keerom, Papua 99469","Arsopura, Kec. Skanto, Kabupaten Keerom",PAPUA,99469.0,Indonesia,,-2.790946,140.5653294,https://maps.google.com/?cid=0x0:0xd47cf89028298e90
restaurant,Kedai Kopi,WARUNG BAKSO ROMLI,"6H8M+5JG, Arsopura, Kec. Skanto, Kabupaten Keerom, Papua 99469","Arsopura, Kec. Skanto, Kabupaten Keerom",PAPUA,99469.0,Indonesia,,-2.7846546,140.5840261,https://maps.google.com/?cid=0x0:0x7f003e10169ae34f
restaurant,Brunch,RM.ALHIF TRI JAYA,"Jaifuri, Kec. Skanto, Kabupaten Keerom, Papua 99468","Kec. Skanto, Kabupaten Keerom",PAPUA,99468.0,Indonesia,85344167344.0,-2.7786149,140.6219823,https://maps.google.com/?cid=0x0:0x63451ed1c02ec476
restaurant,Toko umum,Jual Aneka Barang Rumah cicilan Daeng,"Jalan poros arso 3, Jaifuri, Kec. Skanto, Kabupaten Keerom, Papua 99468","Jaifuri, Kec. Skanto, Kabupaten Keerom",PAPUA,99468.0,Indonesia,8124882643.0,-2.7898431,140.625167,https://maps.google.com/?cid=0x0:0x4fc4a12ebd9227a9
restaurant,Pemasok Air Minum Dalam Kemasan,DEPOT AIR MINUM,"6HCG+2V8, Arsopura, Kec. Skanto, Kabupaten Keerom, Papua 99469","Arsopura, Kec. Skanto, Kabupaten Keerom",PAPUA,99469.0,Indonesia,82199079171.0,-2.7799607,140.5772011,https://maps.google.com/?cid=0x0:0x9107175482e7ed82
restaurant,Makanan Kecil,Gado-Gado Nenek Jaya,"6HCX+56J, Jaifuri, Kec. Skanto, Kabupaten Keerom, Papua","Kabupaten Keerom, Papua",PAPUA,,Indonesia,,-2.7795438,140.5980036,https://maps.google.com/?cid=0x0:0xbc059f5853045e1c
restaurant,Rumah Makan,RM Raja Rasa,"Jl Raya, Arso Kota, Kec. Arso, Kabupaten Keerom, Papua 99468","Arso Kota, Kec. Arso, Kabupaten Keerom",PAPUA,99468.0,Indonesia,85243389900.0,-2.8710868,140.7628414,https://maps.google.com/?cid=0x0:0xee147f533a73802d
restaurant,Indonesia,RM AROMA,"3QX4+FRG, Jl. Garuda, Yuwanaim, Kec. Arso, Kabupaten Keerom, Papua 99468","Jl. Garuda, Yuwanaim, Kec. Arso, Kabupaten Keerom",PAPUA,99468.0,Indonesia,,-2.9013006,140.757084,https://maps.google.com/?cid=0x0:0xe6fb5bf12d9a2ca7
restaurant,restaurant,Arso Tim.,"Kabupaten Keerom, Papua","Kabupaten Keerom, Papua",PAPUA,,Indonesia,,-2.9996892,140.8239949,https://maps.google.com/?cid=0x0:0xae3aa9f54982454a
restaurant,Pusat Perbelanjaan,momoyo arso 2,"Jl. Garuda 2, Yuwanaim, Kec. Arso, Kabupaten Keerom, Papua 99468","Yuwanaim, Kec. Arso, Kabupaten Keerom",PAPUA,99468.0,Indonesia,82343574185.0,-2.9033393,140.7513616,https://maps.google.com/?cid=0x0:0x8ccf9ec3689ecd93
restaurant,Indonesia,Lalapan Barokah,"3V9W+59W, Pitewi, Kriku, Arso Tim., Kabupaten Keerom, Papua 99468","Pitewi, Kriku, Arso Tim., Kabupaten Keerom",PAPUA,99468.0,Indonesia,,-2.9320205,140.8959545,https://maps.google.com/?cid=0x0:0xcf0c3cba52c3e937
restaurant,Padang,RM Istana Pagaruyung,"3QX4+63M, Yuwanaim, Kec. Arso, Kabupaten Keerom, Papua 99468","Yuwanaim, Kec. Arso, Kabupaten Keerom",PAPUA,99468.0,Indonesia,,-2.9018338,140.7552749,https://maps.google.com/?cid=0x0:0xf3e85de6e7ddf0
restaurant,Ayam Goreng,WARUNG AYAM BAKAR RIZKY KEEROM,"Jl. Garuda, Yuwanaim, Kec. Arso, Kabupaten Keerom, Papua 99468","Yuwanaim, Kec. Arso, Kabupaten Keerom",PAPUA,99468.0,Indonesia,81344580988.0,-2.8991794,140.7609568,https://maps.google.com/?cid=0x0:0xba2b40d32b595f4b
restaurant,Rumah Makan,RM. GROBOGAN (PakDe Kardi),"3PXX+QHM, Yuwanaim, Kec. Arso, Kabupaten Keerom, Papua 99468","Yuwanaim, Kec. Arso, Kabupaten Keerom",PAPUA,99468.0,Indonesia,85243626610.0,-2.9005422,140.7489352,https://maps.google.com/?cid=0x0:0x23c9c1c8d00f3627
restaurant,Rumah Makan,RM Kenanga,"3QX4+F9J, Yuwanaim, Kec. Arso, Kabupaten Keerom, Papua 99468","Yuwanaim, Kec. Arso, Kabupaten Keerom",PAPUA,99468.0,Indonesia,,-2.9012837,140.7558966,https://maps.google.com/?cid=0x0:0x2d1f958763bf13e7
restaurant,Restoran,RM. Abang Zhaki Arso 2,"Arso 2, Jl. Garuda, Yuwanaim, Kec. Arso, Kabupaten Keerom, Papua 99468","Jl. Garuda, Yuwanaim, Kec. Arso, Kabupaten Keerom",PAPUA,99468.0,Indonesia,82198443879.0,-2.9019783,140.7546409,https://maps.google.com/?cid=0x0:0x848e9db8b44884a8
restaurant,Brunch,rm rahayu,"Jl. Garuda 2, RW.kmpung, yuanaen, Kec. Arso, Kabupaten Keerom, Papua 99468","RW.kmpung, yuanaen, Kec. Arso, Kabupaten Keerom",PAPUA,99468.0,Indonesia,82397364744.0,-2.9007425,140.7577948,https://maps.google.com/?cid=0x0:0xe40617e79902dafb
restaurant,Kedai Kopi,Kafe Bejo A95,"2/Yuwanain, Yuwanaim, Kec. Arso, Kabupaten Keerom, Papua 99468","Yuwanaim, Kec. Arso, Kabupaten Keerom",PAPUA,99468.0,Indonesia,82199114114.0,-2.90661,140.7513931,https://maps.google.com/?cid=0x0:0x8476fd6425654b61
restaurant,Brunch,Wr.Dewa Rasa,"3QX3+6J5, Jl. Garuda, Yuwanaim, Kec. Arso, Kabupaten Keerom, Papua 99468","Jl. Garuda, Yuwanaim, Kec. Arso, Kabupaten Keerom",PAPUA,99468.0,Indonesia,,-2.9019933,140.7540946,https://maps.google.com/?cid=0x0:0x6bfa9be11de1a8cd
restaurant,Padang,Rumah makan Ranah Minang,"3QX5+XHF, Jl. Garuda, Yuwanaim, Kec. Arso, Kabupaten Keerom, Papua 99468","Jl. Garuda, Yuwanaim, Kec. Arso, Kabupaten Keerom",PAPUA,99468.0,Indonesia,,-2.9000628,140.7589123,https://maps.google.com/?cid=0x0:0xeabcf66e9d0822fd
restaurant,restaurant,Papua 99466,"Kabupaten Keerom, Papua","Kabupaten Keerom, Papua",PAPUA,,Indonesia,,-3.6008739,140.7624493,https://maps.google.com/?cid=0x0:0x68d0783d81283fe1
restaurant,Dapur Umum,RM BRAYEN 88,"HQ4G+678, Senggi, Kabupaten Keerom, Papua","Kabupaten Keerom, Papua",PAPUA,,Indonesia,,-3.444463,140.775696,https://maps.google.com/?cid=0x0:0xe5904f3f3f0e5b26
restaurant,restaurant,warung makan Musdalifah,"HQ36+3G, Senggi, Kabupaten Keerom, Papua","Kabupaten Keerom, Papua",PAPUA,,Indonesia,8237756987.0,-3.4472749,140.7613035,https://maps.google.com/?cid=0x0:0x93a5797af0f30b7d
restaurant,Restoran,Restaurant Yougwa,"CJ63+H23, Jl. Raya Abepura - Sentani, Asei Kecil, Kec. Sentani Tim., Kabupaten Jayapura, Papua 99351","Jl. Raya Abepura - Sentani, Asei Kecil, Kec. Sentani Tim., Kabupaten Jayapura",PAPUA,99351.0,Indonesia,8114801448.0,-2.5886245,140.602559,https://maps.google.com/?cid=0x0:0x65e60fc66014e79c
restaurant,Rumah Makan,RestoCafe Rumah Laut,"Jl. Koti, Numbai, Distrik Jayapura Selatan, Kota Jayapura, Papua 99222","Numbai, Distrik Jayapura Selatan, Kota Jayapura",PAPUA,99222.0,Indonesia,9675160842.0,-2.5443152,140.7078561,https://maps.google.com/?cid=0x0:0xa0b850e17d17f09d
restaurant,China,Twelve Chinese Dining Restaurant,"Jl. Dr. Kusuma Atmaja No.75, Menteng, Kec. Menteng, Jakarta, Daerah Khusus Ibukota Jakarta 10310","Menteng, Kec. Menteng, Jakarta",PAPUA,10310.0,Indonesia,2121237040.0,-6.1980742,106.8244094,https://maps.google.com/?cid=0x0:0x456948e886e869e1
restaurant,Bar,RÅ«mu Private Room Grill,"Jl. Aditiyawarman No.71, Melawai, Kec. Kby. Baru, Kota Jakarta Selatan, Daerah Khusus Ibukota Jakarta 12160","Melawai, Kec. Kby. Baru, Kota Jakarta Selatan",PAPUA,12160.0,Indonesia,82121220009.0,-6.2426774,106.8039087,https://maps.google.com/?cid=0x0:0x94f4bbb640ab4374
restaurant,China,Tong House,"Jl. H. Agus Salim No.8, RT.8/RW.4, Gondangdia, Kec. Menteng, Kota Jakarta Pusat, Daerah Khusus Ibukota Jakarta","Kota Jakarta Pusat, Daerah Khusus Ibukota Jakarta",PAPUA,,Indonesia,2150848869.0,-6.1856008,106.8248977,https://maps.google.com/?cid=0x0:0xfd5de8d317363a72
restaurant,Brunch,THE RESTO,"Jalan Meruyung Raya No.47 RT. 001/003, Jl. Meruyung Raya No.47, Meruyung, Kec. Limo, Kota Depok, Jawa Barat 16532","Jl. Meruyung Raya No.47, Meruyung, Kec. Limo, Kota Depok",PAPUA,16532.0,Indonesia,85161001147.0,-6.3810514,106.7690179,https://maps.google.com/?cid=0x0:0x1686b68616e93b09
restaurant,Restoran,Table8,"Hotel Mulia Jakarta, Jl. Asia Afrika, RT.1/RW.3, Gelora, Kecamatan Tanah Abang, Kota Jakarta Pusat, Daerah Khusus Ibukota Jakarta 10270","Jl. Asia Afrika, RT.1/RW.3, Gelora, Kecamatan Tanah Abang, Kota Jakarta Pusat",PAPUA,10270.0,Indonesia,215753271.0,-6.2151359,106.7971881,https://maps.google.com/?cid=0x0:0x804f4e72512817bc
restaurant,Restoran,PA.SO.LA Restaurant,"Sudirman Central Business District (SCBD, Jl. Jend. Sudirman kav 52-53, RT.5/RW.3, Senayan, Kec. Kby. Baru, Kota Jakarta Selatan, Daerah Khusus Ibukota Jakarta 12190","Jl. Jend. Sudirman kav 52-53, RT.5/RW.3, Senayan, Kec. Kby. Baru, Kota Jakarta Selatan",PAPUA,12190.0,Indonesia,2125501993.0,-6.2235233,106.8097302,https://maps.google.com/?cid=0x0:0x6f8a97dabcb7d15f
restaurant,Korea,DAON KOREAN GRILL  DINING,"Jl. Kertanegara No.70, RT.1/RW.3, Rw. Bar., Kec. Kby. Baru, Kota Jakarta Selatan, Daerah Khusus Ibukota Jakarta 12180","RT.1/RW.3, Rw. Bar., Kec. Kby. Baru, Kota Jakarta Selatan",PAPUA,12180.0,Indonesia,2138250900.0,-6.2336823,106.8118219,https://maps.google.com/?cid=0x0:0x9d011941e9f0bbf1
restaurant,China,Sugar  Spice,"InterContinental Jakarta Pondok Indah, Level 1 Jalan Metro Pondok Indah Kav. IV, 1, RT.1/RW.16, TA, Kec. Kby. Lama, Kota Jakarta Selatan, Daerah Khusus Ibukota Jakarta 12310","Level 1 Jalan Metro Pondok Indah Kav. IV, 1, RT.1/RW.16, TA, Kec. Kby. Lama, Kota Jakarta Selatan",PAPUA,12310.0,Indonesia,2139507355.0,-6.2645466,106.7824862,https://maps.google.com/?cid=0x0:0x9af012019d2158b4
restaurant,Jepang,Edogin,"Jl. Asia Afrika, Senayan, Kecamatan Tanah Abang, Kota Jakarta Pusat, Daerah Khusus Ibukota Jakarta 10270","Senayan, Kecamatan Tanah Abang, Kota Jakarta Pusat",PAPUA,10270.0,Indonesia,215753274.0,-6.2151383,106.7970056,https://maps.google.com/?cid=0x0:0x7a6f43dc1d1d2214
