Category,Real Category,Business Name,Address,City,State,Postal Code,Country,Phone,Latitude,Longitude,Map Link
perumahan,perumahan,Papua 99467,"Distrik Waris, Kabupaten Keerom, Papua","Kabupaten Keerom, Papua",PAPUA,,Indonesia,,-3.1279268,140.8872648,https://maps.google.com/?cid=0x0:0xcde9330d1e08a4a3
perumahan,Komplek perumahan,Kampung Fam,"QXC8+9X9, Kalifam, Distrik Waris, Kabupaten Keerom, Papua 99467","Kalifam, Distrik Waris, Kabupaten Keerom",PAPUA,99467.0,Indonesia,,-3.2290893,140.9674803,https://maps.google.com/?cid=0x0:0x6b0373b708cd1a39
perumahan,Komplek perumahan,Rumah,"XRWF+FV, Upt Pir IV / Wonorejo, Arso Tim., Kabupaten Keerom, Papua","Kabupaten Keerom, Papua",PAPUA,,Indonesia,,-3.0036668,140.8244071,https://maps.google.com/?cid=0x0:0x6f4477903fb4ca96
perumahan,Komplek perumahan,Rumah Daeng Rani,"2R2C+8C3, Upt Pir IV / Wonorejo, Arso Tim., Kabupaten Keerom, Papua 99467","Upt Pir IV / Wonorejo, Arso Tim., Kabupaten Keerom",PAPUA,99467.0,Indonesia,,-2.9992949,140.820648,https://maps.google.com/?cid=0x0:0xee428a8c7c17c6f4
perumahan,Komplek perumahan,Kampung pitiwy,"2R2F+4HH, Jln. Tapal batas, Upt Pir IV / Wonorejo, Arso Tim., Kabupaten Keerom, Papua 99467","Jln. Tapal batas, Upt Pir IV / Wonorejo, Arso Tim., Kabupaten Keerom",PAPUA,99467.0,Indonesia,,-2.9996892,140.8239949,https://maps.google.com/?cid=0x0:0x791a6f874c2dfb63
perumahan,Komplek perumahan,Rumah wambes karigi,"XRRX+P8, Wambes, Arso Tim., Kabupaten Keerom, Papua","Kabupaten Keerom, Papua",PAPUA,,Indonesia,,-3.0081414,140.8483288,https://maps.google.com/?cid=0x0:0x2db150b572498dca
perumahan,Balai masyarakat,Kepala desa,"XRWX+744, Wambes, Arso Tim., Kabupaten Keerom, Papua 99467","Wambes, Arso Tim., Kabupaten Keerom",PAPUA,99467.0,Indonesia,,-3.0038401,140.841463,https://maps.google.com/?cid=0x0:0xfc01865f51efc7d4
perumahan,Pembangunan Perumahan,Dusun Kampung WANGSUR,"2VP6+6FQ, Suskun, Arso Tim., Kabupaten Keerom, Papua","Kabupaten Keerom, Papua",PAPUA,,Indonesia,,-2.9644127,140.8612413,https://maps.google.com/?cid=0x0:0x853582d2d351b001
perumahan,Komplek perumahan,Pak Babinsa Aksan Hukom,"Jl. Mangga No.141, Upt Pir IV / Wonorejo, Arso Tim., Kabupaten Keerom, Papua 99467","Upt Pir IV / Wonorejo, Arso Tim., Kabupaten Keerom",PAPUA,99467.0,Indonesia,,-2.9973873,140.8214419,https://maps.google.com/?cid=0x0:0x9b82bab3bb52592f
perumahan,Pembangunan Perumahan,kampung Suskun,"2VP6+6FQ, Suskun, Arso Tim., Kabupaten Keerom, Papua 99468","Suskun, Arso Tim., Kabupaten Keerom",PAPUA,99468.0,Indonesia,,-2.9644127,140.8612413,https://maps.google.com/?cid=0x0:0x75fa4fc81d87885a
perumahan,perumahan,Dusun WANGSUR,"2V43+Q8V, Suskun, Arso Tim., Kabupaten Keerom, Papua","Kabupaten Keerom, Papua",PAPUA,,Indonesia,,-2.9930054,140.8532969,https://maps.google.com/?cid=0x0:0x8d9214ebac4ec5ca
perumahan,Komplek perumahan,GEORGE B S. WARAMORI,"2Q6V+8F6 Perumahan Pemda, Workwana, Kec. Arso, Kabupaten Keerom, Papua 99467","Workwana, Kec. Arso, Kabupaten Keerom",PAPUA,99467.0,Indonesia,,-2.9892137,140.7936301,https://maps.google.com/?cid=0x0:0x24c029b61bf23555
perumahan,Komplek perumahan,Rumah GUZTIN,"2R3R+W5M, Wambes, Arso Tim., Kabupaten Keerom, Papua","Kabupaten Keerom, Papua",PAPUA,,Indonesia,,-2.9951544,140.8404302,https://maps.google.com/?cid=0x0:0xa063e022e5c10993
perumahan,perumahan,Kampung WIYAFOR,"XRXV+MJ, Wambes, Arso Tim., Kabupaten Keerom, Papua","Kabupaten Keerom, Papua",PAPUA,,Indonesia,,-3.000815,140.8441434,https://maps.google.com/?cid=0x0:0xd0c637baa74e685b
perumahan,perumahan,Papua 99468,"Kabupaten Keerom, Papua","Kabupaten Keerom, Papua",PAPUA,,Indonesia,,-2.838126,140.7624493,https://maps.google.com/?cid=0x0:0xb18f169d1a15b8b6
perumahan,Komplek perumahan,Perumahan Subsidi Apernas Keerom PT Mikro Jaya,"4PXW+729, Asiaman, Kec. Arso, Kabupaten Keerom, Papua 99468","Asiaman, Kec. Arso, Kabupaten Keerom",PAPUA,99468.0,Indonesia,,-2.8518271,140.745118,https://maps.google.com/?cid=0x0:0x317e061146a214e2
perumahan,Komplek perumahan,PERUM APERNAS KEEROM,"5QM3+WQQ, Unnamed Road, Upt Arso VI / Yamua, Kec. Arso, Kabupaten Keerom, Papua 99468","Unnamed Road, Upt Arso VI / Yamua, Kec. Arso, Kabupaten Keerom",PAPUA,99468.0,Indonesia,,-2.815164,140.7544914,https://maps.google.com/?cid=0x0:0x4144c27afac7b8cc
perumahan,Pembangunan Perumahan,Perumahan Pak Dullah,"3QX4+PFF, Yuwanaim, Kec. Arso, Kabupaten Keerom, Papua 99468","Yuwanaim, Kec. Arso, Kabupaten Keerom",PAPUA,99468.0,Indonesia,,-2.9006976,140.7561622,https://maps.google.com/?cid=0x0:0x18707dfe76ff184f
perumahan,Rumah Sakit,Perumahan RSUD KWAINGGA,"4PCV+2WQ, Asiaman, Kec. Arso, Kabupaten Keerom, Papua 99468","Asiaman, Kec. Arso, Kabupaten Keerom",PAPUA,99468.0,Indonesia,,-2.8799031,140.7448627,https://maps.google.com/?cid=0x0:0x1b5ae68dffd0def1
perumahan,Pembangunan Perumahan,Perumahan yuwanain,"3QQ4+GPV, Jalur 5, arso dua, Kec. Arso, Kabupaten Keerom, Papua 99468","Jalur 5, arso dua, Kec. Arso, Kabupaten Keerom",PAPUA,99468.0,Indonesia,,-2.9111333,140.7567896,https://maps.google.com/?cid=0x0:0x3abf70bb83649a10
perumahan,Komplek perumahan,Perumahan Bumi Keerom Permai - Arso Swakarsa,"4PGF+J5C, Unnamed Road, Asiaman, Kec. Arso, Kabupaten Keerom, Papua 99468","Unnamed Road, Asiaman, Kec. Arso, Kabupaten Keerom",PAPUA,99468.0,Indonesia,,-2.8734435,140.7229053,https://maps.google.com/?cid=0x0:0x8aa6c1cbb3fc31f5
perumahan,Pembangunan Perumahan,Yuwanain Permai,"Jl.tekukur Yuwanain arso 2 distrik, Yuwanaim, Kec. Arso, Kabupaten Keerom, Papua 99468","Yuwanaim, Kec. Arso, Kabupaten Keerom",PAPUA,99468.0,Indonesia,81247428559.0,-2.9103328,140.7569255,https://maps.google.com/?cid=0x0:0x1180d29e02d2743a
perumahan,Komplek perumahan,GRAHA ARSO INDAH,"3QV5+JJ6, Yuwanaim, Kec. Arso, Kabupaten Keerom, Papua 99468","Yuwanaim, Kec. Arso, Kabupaten Keerom",PAPUA,99468.0,Indonesia,,-2.9059698,140.7590199,https://maps.google.com/?cid=0x0:0x2f6be63d796e5a06
perumahan,Komplek perumahan,Arso Blue,"3QX4+CF8, Yuwanaim, Kec. Arso, Kabupaten Keerom, Papua 99468","Yuwanaim, Kec. Arso, Kabupaten Keerom",PAPUA,99468.0,Indonesia,,-2.901459,140.7561968,https://maps.google.com/?cid=0x0:0x792efc42f5baca50
perumahan,Masjid,Arso 6,"5P3V+6F, Upt Arso VI / Yamua, Kec. Arso, Kabupaten Keerom, Papua","Kabupaten Keerom, Papua",PAPUA,,Indonesia,82189612070.0,-2.8469552,140.7437177,https://maps.google.com/?cid=0x0:0x9b1c8590c9e902f9
perumahan,Komplek perumahan,Perumahan ALIQA RESIDENCE,"4PHH+CR5 Asyaman, Asiaman, Kec. Arso, Kabupaten Keerom, Papua","Kabupaten Keerom, Papua",PAPUA,,Indonesia,,-2.8714967,140.7296067,https://maps.google.com/?cid=0x0:0x7611070f848790ed
perumahan,Kios,Perumahan mega permai,"4QJ5+7PR, Asiaman, Kec. Arso, Kabupaten Keerom, Papua 99468","Asiaman, Kec. Arso, Kabupaten Keerom",PAPUA,99468.0,Indonesia,,-2.8692555,140.7592647,https://maps.google.com/?cid=0x0:0xcbd75718a636c696
perumahan,Komplek perumahan,Kos Dzaky,"Upt Arso VI / Yamua, Kec. Arso, Kabupaten Keerom, Papua 99468","Kec. Arso, Kabupaten Keerom",PAPUA,99468.0,Indonesia,85244687637.0,-2.8310944,140.7474257,https://maps.google.com/?cid=0x0:0x9b61acf339660a28
perumahan,perumahan,Senggi,"Senggi, Kabupaten Keerom, Papua","Kabupaten Keerom, Papua",PAPUA,,Indonesia,,-3.444463,140.775696,https://maps.google.com/?cid=0x0:0x6ea1e22b49fe9674
perumahan,,Rumah Senggi,"HQ8G+98, Senggi, Kabupaten Keerom, Papua","Kabupaten Keerom, Papua",PAPUA,,Indonesia,,-3.4341096,140.7757918,https://maps.google.com/?cid=0x0:0x9f1e6215af894251
perumahan,perumahan,Distrik senggi,"HQ4G+678, Senggi, Kabupaten Keerom, Papua","Kabupaten Keerom, Papua",PAPUA,,Indonesia,,-3.444463,140.775696,https://maps.google.com/?cid=0x0:0xeaac0b6cd8a26224
perumahan,perumahan,Papua 99466,"Kabupaten Keerom, Papua","Kabupaten Keerom, Papua",PAPUA,,Indonesia,,-3.6008739,140.7624493,https://maps.google.com/?cid=0x0:0x68d0783d81283fe1
perumahan,Komplek perumahan,DUBU,"9PMR+MM3, Dubu, Distrik Web, Kabupaten Keerom, Papua 99466","Dubu, Distrik Web, Kabupaten Keerom",PAPUA,99466.0,Indonesia,,-3.6158553,140.7416707,https://maps.google.com/?cid=0x0:0x2ee5e9342cb95252
perumahan,Komplek perumahan,Kampung Dubu,"CQ83+867, Dubu, Distrik Web, Kabupaten Keerom, Papua 99466","Dubu, Distrik Web, Kabupaten Keerom",PAPUA,99466.0,Indonesia,,-3.5842033,140.7530356,https://maps.google.com/?cid=0x0:0xc4afff9c5f6b94cc
perumahan,Komplek perumahan,Sungai,"9W89+4C, Umuaf, Distrik Web, Kabupaten Keerom, Papua","Kabupaten Keerom, Papua",PAPUA,,Indonesia,,-3.634648,140.918529,https://maps.google.com/?cid=0x0:0xfbded715c04d80d0
perumahan,Bangunan Bersejarah,Akarinda,"9X3P+P36, Akarinda yaffi, Amgotro, Distrik Web, Kabupaten Keerom, Papua","Kabupaten Keerom, Papua",PAPUA,,Indonesia,,-3.6457143,140.9851301,https://maps.google.com/?cid=0x0:0x15ad029e26b4abef
perumahan,perumahan,Papua 99469,Papua,Papua,PAPUA,,Indonesia,,-2.950166,140.4308159,https://maps.google.com/?cid=0x0:0xbc565fc539165f0b
perumahan,Komplek perumahan,Perumahan,"5J8P+9P7, Upt Arso XIII / Naramben, Kec. Skanto, Kabupaten Keerom, Papua 99468","Upt Arso XIII / Naramben, Kec. Skanto, Kabupaten Keerom",PAPUA,99468.0,Indonesia,,-2.835143,140.636369,https://maps.google.com/?cid=0x0:0xfcee62245fbda7d9
perumahan,Toko,Perempatan Jalan Eman,"6H9M+P4C, Arsopura, Kec. Skanto, Kabupaten Keerom, Papua 99469","Arsopura, Kec. Skanto, Kabupaten Keerom",PAPUA,99469.0,Indonesia,,-2.7808098,140.5826811,https://maps.google.com/?cid=0x0:0x421f4a9e5c45e1a2
perumahan,Komplek perumahan,Rumah Gunanto,"5JHF+P3X, Upt Arso V. / Wiyantri, Kec. Skanto, Kabupaten Keerom, Papua 99468","Upt Arso V. / Wiyantri, Kec. Skanto, Kabupaten Keerom",PAPUA,99468.0,Indonesia,,-2.8202888,140.6219614,https://maps.google.com/?cid=0x0:0xc156edcaba567ee1
perumahan,Komplek perumahan,WISMA PUTUT YUGO UTOMO ARSO 4,"Jalan Salam /Jalur 4 A Arso, RW.4, Arsopura, Kec. Skanto, Kabupaten Keerom, Papua 99469","RW.4, Arsopura, Kec. Skanto, Kabupaten Keerom",PAPUA,99469.0,Indonesia,,-2.7798987,140.5784561,https://maps.google.com/?cid=0x0:0x6c3c7a32c7b50bcb
perumahan,Komplek perumahan,Rumah Miftah,"4MJ5+WGP, Upt Arso XIV / Wulukubun, Kec. Skanto, Kabupaten Keerom, Papua 99468","Upt Arso XIV / Wulukubun, Kec. Skanto, Kabupaten Keerom",PAPUA,99468.0,Indonesia,,-2.867724,140.658461,https://maps.google.com/?cid=0x0:0x2da3abe85992d558
perumahan,Komplek perumahan,Jalur 4 barat,"5JHC+M7, Upt Arso V. / Wiyantri, Kec. Skanto, Kabupaten Keerom, Papua","Kabupaten Keerom, Papua",PAPUA,,Indonesia,,-2.8208102,140.6205772,https://maps.google.com/?cid=0x0:0xcff361368c78feda
perumahan,Komplek perumahan,Istana Pak Naraa,"6HFF+W74, Arsopura, Kec. Skanto, Kabupaten Keerom, Papua 99469","Arsopura, Kec. Skanto, Kabupaten Keerom",PAPUA,99469.0,Indonesia,,-2.7752416,140.5732029,https://maps.google.com/?cid=0x0:0x1917583201d74a5c
perumahan,Perhimpunan Pengembang Perumahan,Rumah Kediaman,"6H58+J4G, Arsopura, Kec. Skanto, Kabupaten Keerom, Papua 99469","Arsopura, Kec. Skanto, Kabupaten Keerom",PAPUA,99469.0,Indonesia,,-2.790946,140.5653294,https://maps.google.com/?cid=0x0:0x981cae8e1c0d7269
perumahan,Toko,Rumah pribadi,"6H9J+JHJ, Arsopura, Kec. Skanto, Kabupaten Keerom, Papua 99469","Arsopura, Kec. Skanto, Kabupaten Keerom",PAPUA,99469.0,Indonesia,,-2.7807927,140.5806791,https://maps.google.com/?cid=0x0:0xdb38730bd5ef83fd
perumahan,Komplek perumahan,Rumah Oki Bram,"4MP6+29, Upt Arso XIV / Wulukubun, Kec. Skanto, Kabupaten Keerom, Papua","Kabupaten Keerom, Papua",PAPUA,,Indonesia,,-2.86497,140.660962,https://maps.google.com/?cid=0x0:0x8b19dabeba0c0584
perumahan,Komplek perumahan,Rumah Mang tatang,"5JH9+HCG, Upt Arso V. / Wiyantri, Kec. Skanto, Kabupaten Keerom, Papua","Kabupaten Keerom, Papua",PAPUA,,Indonesia,,-2.8210679,140.618576,https://maps.google.com/?cid=0x0:0x9f48a15666a7424b
perumahan,Komplek perumahan,arisuta,"6HFF+5C9, Arsopura, Kec. Skanto, Kabupaten Keerom, Papua 99469","Arsopura, Kec. Skanto, Kabupaten Keerom",PAPUA,99469.0,Indonesia,,-2.7770792,140.5736138,https://maps.google.com/?cid=0x0:0x76c402206464338c
perumahan,Komplek perumahan,Rumah Sovia,"5J8P+9P7, Upt Arso XIII / Naramben, Kec. Skanto, Kabupaten Keerom, Papua 99468","Upt Arso XIII / Naramben, Kec. Skanto, Kabupaten Keerom",PAPUA,99468.0,Indonesia,,-2.834085,140.636798,https://maps.google.com/?cid=0x0:0x6e7423c898ef8ee6
perumahan,Pembangunan Perumahan,Perumahan Pak Dullah,"3QX4+PFF, Yuwanaim, Kec. Arso, Kabupaten Keerom, Papua 99468","Yuwanaim, Kec. Arso, Kabupaten Keerom",PAPUA,99468.0,Indonesia,,-2.9006976,140.7561622,https://maps.google.com/?cid=0x0:0x18707dfe76ff184f
perumahan,Pembangunan Perumahan,Perumahan yuwanain,"3QQ4+GPV, Jalur 5, arso dua, Kec. Arso, Kabupaten Keerom, Papua 99468","Jalur 5, arso dua, Kec. Arso, Kabupaten Keerom",PAPUA,99468.0,Indonesia,,-2.9111333,140.7567896,https://maps.google.com/?cid=0x0:0x3abf70bb83649a10
perumahan,perumahan,Arso Tim.,"Kabupaten Keerom, Papua","Kabupaten Keerom, Papua",PAPUA,,Indonesia,,-2.9996892,140.8239949,https://maps.google.com/?cid=0x0:0xae3aa9f54982454a
perumahan,Pembangunan Perumahan,kampung Suskun,"2VP6+6FQ, Suskun, Arso Tim., Kabupaten Keerom, Papua 99468","Suskun, Arso Tim., Kabupaten Keerom",PAPUA,99468.0,Indonesia,,-2.9644127,140.8612413,https://maps.google.com/?cid=0x0:0x75fa4fc81d87885a
perumahan,Pembangunan Perumahan,Yuwanain Permai,"Jl.tekukur Yuwanain arso 2 distrik, Yuwanaim, Kec. Arso, Kabupaten Keerom, Papua 99468","Yuwanaim, Kec. Arso, Kabupaten Keerom",PAPUA,99468.0,Indonesia,81247428559.0,-2.9103328,140.7569255,https://maps.google.com/?cid=0x0:0x1180d29e02d2743a
perumahan,Pembangunan Perumahan,Kampung yumumi,"2VX3+C2, Suskun, Arso Tim., Kabupaten Keerom, Papua 99468","Suskun, Arso Tim., Kabupaten Keerom",PAPUA,99468.0,Indonesia,,-2.951478,140.852614,https://maps.google.com/?cid=0x0:0xa4f6b9e5ba8ef9d4
perumahan,Komplek perumahan,GRAHA ARSO INDAH,"3QV5+JJ6, Yuwanaim, Kec. Arso, Kabupaten Keerom, Papua 99468","Yuwanaim, Kec. Arso, Kabupaten Keerom",PAPUA,99468.0,Indonesia,,-2.9059698,140.7590199,https://maps.google.com/?cid=0x0:0x2f6be63d796e5a06
perumahan,Komplek perumahan,Arso Blue,"3QX4+CF8, Yuwanaim, Kec. Arso, Kabupaten Keerom, Papua 99468","Yuwanaim, Kec. Arso, Kabupaten Keerom",PAPUA,99468.0,Indonesia,,-2.901459,140.7561968,https://maps.google.com/?cid=0x0:0x792efc42f5baca50
perumahan,Pembangunan Perumahan,GR SUWAE,"3QV5+MMC, Yuwanaim, Kec. Arso, Kabupaten Keerom, Papua 99468","Yuwanaim, Kec. Arso, Kabupaten Keerom",PAPUA,99468.0,Indonesia,,-2.9058004,140.7591346,https://maps.google.com/?cid=0x0:0xe4c3477b2afe4bf6
perumahan,Perhimpunan Pengembang Perumahan,ASM,"3QCF+MF3, Unnamed Road, Yanamaa / Pir I, Kec. Arso, Kabupaten Keerom, Papua 99468","Unnamed Road, Yanamaa / Pir I, Kec. Arso, Kabupaten Keerom",PAPUA,99468.0,Indonesia,,-2.9283708,140.7736813,https://maps.google.com/?cid=0x0:0x5e46ac12fb97e2b5
perumahan,Komplek perumahan,Anis timur,"Jln tekuku No.442, Yuwanaim, Kec. Arso, Kabupaten Keerom, Papua 99468","Yuwanaim, Kec. Arso, Kabupaten Keerom",PAPUA,99468.0,Indonesia,,-2.9085619,140.7520591,https://maps.google.com/?cid=0x0:0x5af83e598e9cbc26
perumahan,Pembangunan Perumahan,Perumahan Cahaya Keerom Residence,"4PHR+C2W, Asiaman, Kec. Arso, Kabupaten Keerom, Papua 99468","Asiaman, Kec. Arso, Kabupaten Keerom",PAPUA,99468.0,Indonesia,,-2.8713939,140.7400882,https://maps.google.com/?cid=0x0:0xeb50e591fa5e01a2
perumahan,Rumah Sakit,Perumahan RSUD KWAINGGA,"4PCV+2WQ, Asiaman, Kec. Arso, Kabupaten Keerom, Papua 99468","Asiaman, Kec. Arso, Kabupaten Keerom",PAPUA,99468.0,Indonesia,,-2.8799031,140.7448627,https://maps.google.com/?cid=0x0:0x1b5ae68dffd0def1
perumahan,perumahan,Kampung WIYAFOR,"XRXV+MJ, Wambes, Arso Tim., Kabupaten Keerom, Papua","Kabupaten Keerom, Papua",PAPUA,,Indonesia,,-3.000815,140.8441434,https://maps.google.com/?cid=0x0:0xd0c637baa74e685b
perumahan,Kantor Pemerintah,Desa Tepalma satu,"6QJ2+8RM, Tefalma, Distrik Towe, Kabupaten Keerom, Papua 99466","Tefalma, Distrik Towe, Kabupaten Keerom",PAPUA,99466.0,Indonesia,,-3.7691644,140.7520591,https://maps.google.com/?cid=0x0:0xad4161cf98caa2d
perumahan,perumahan,Papua 99466,"Kabupaten Keerom, Papua","Kabupaten Keerom, Papua",PAPUA,,Indonesia,,-3.6008739,140.7624493,https://maps.google.com/?cid=0x0:0x68d0783d81283fe1
perumahan,Komplek perumahan,Perumahan 30,"GQV2+78, Senggi, Kabupaten Keerom, Papua","Kabupaten Keerom, Papua",PAPUA,,Indonesia,,-3.4568508,140.750804,https://maps.google.com/?cid=0x0:0xe702b05a3b967f6b
perumahan,Komplek perumahan,DUBU,"9PMR+MM3, Dubu, Distrik Web, Kabupaten Keerom, Papua 99466","Dubu, Distrik Web, Kabupaten Keerom",PAPUA,99466.0,Indonesia,,-3.6158553,140.7416707,https://maps.google.com/?cid=0x0:0x2ee5e9342cb95252
perumahan,Gereja Katolik,"Gereja Katolik Stasi Santa Bunda Allah, Semografi","7WGX+PW2, Semografi, Distrik Web, Kabupaten Keerom, Papua 99466","Semografi, Distrik Web, Kabupaten Keerom",PAPUA,99466.0,Indonesia,,-3.7232265,140.9497647,https://maps.google.com/?cid=0x0:0x424543ed75e64cd9
perumahan,Pembangunan Perumahan,Jember,"4WM6+546, Towe Hitam, Distrik Towe, Kabupaten Keerom, Papua 99576","Towe Hitam, Distrik Towe, Kabupaten Keerom",PAPUA,99576.0,Indonesia,,-3.8670836,140.910264,https://maps.google.com/?cid=0x0:0xb2134eaab889b7c7
perumahan,Pembangunan Perumahan,Distrik Yaffi,"CVJH+8WV, Kampung Jifanggry, Distrik Yaffi, Kabupaten Keerom, Papua 99466","Kampung Jifanggry, Distrik Yaffi, Kabupaten Keerom",PAPUA,99466.0,Indonesia,,-3.569159,140.8804878,https://maps.google.com/?cid=0x0:0xfccb29251286dfbe
perumahan,perumahan,BPK. Hekman Soom,"HQ8C+8X, Senggi, Kabupaten Keerom, Papua","Kabupaten Keerom, Papua",PAPUA,,Indonesia,,-3.4341283,140.77238,https://maps.google.com/?cid=0x0:0x1fcfb399bccd5a19
perumahan,Bangunan Bersejarah,Akarinda,"9X3P+P36, Akarinda yaffi, Amgotro, Distrik Web, Kabupaten Keerom, Papua","Kabupaten Keerom, Papua",PAPUA,,Indonesia,,-3.6457143,140.9851301,https://maps.google.com/?cid=0x0:0x15ad029e26b4abef
perumahan,Komplek perumahan,Kampung Jifanggri,"FVPH+CX, Yuruf, Distrik Web, Kabupaten Keerom, Papua","Kabupaten Keerom, Papua",PAPUA,,Indonesia,,-3.5139198,140.8798814,https://maps.google.com/?cid=0x0:0x7a2cb3f48400b201
perumahan,Komplek perumahan,Kampung Dubu,"CQ83+867, Dubu, Distrik Web, Kabupaten Keerom, Papua 99466","Dubu, Distrik Web, Kabupaten Keerom",PAPUA,99466.0,Indonesia,,-3.5842033,140.7530356,https://maps.google.com/?cid=0x0:0xc4afff9c5f6b94cc
perumahan,Asosiasi/organisasi,Pos TNI Yabanda,"GVMW+9J7, Jabanda, Senggi, Kabupaten Keerom, Papua 99466","Jabanda, Senggi, Kabupaten Keerom",PAPUA,99466.0,Indonesia,,-3.4665862,140.8965103,https://maps.google.com/?cid=0x0:0xd8907a23049c39b5
perumahan,Pembangunan Perumahan,Tefalma satu,"7P3G+79, Tefalma, Distrik Towe, Kabupaten Keerom, Papua","Kabupaten Keerom, Papua",PAPUA,,Indonesia,,-3.7468596,140.7259912,https://maps.google.com/?cid=0x0:0x7e91ae62e0f5b13
perumahan,,Rumah Senggi,"HQ8G+98, Senggi, Kabupaten Keerom, Papua","Kabupaten Keerom, Papua",PAPUA,,Indonesia,,-3.4341096,140.7757918,https://maps.google.com/?cid=0x0:0x9f1e6215af894251
housing complex,housing complex,Papua 99467,"Distrik Waris, Kabupaten Keerom, Papua","Kabupaten Keerom, Papua",PAPUA,,Indonesia,,-3.1279268,140.8872648,https://maps.google.com/?cid=0x0:0xcde9330d1e08a4a3
housing complex,Komplek perumahan,Kampung Fam,"QXC8+9X9, Kalifam, Distrik Waris, Kabupaten Keerom, Papua 99467","Kalifam, Distrik Waris, Kabupaten Keerom",PAPUA,99467.0,Indonesia,,-3.2290893,140.9674803,https://maps.google.com/?cid=0x0:0x6b0373b708cd1a39
housing complex,Balai masyarakat,Kepala desa,"XRWX+744, Wambes, Arso Tim., Kabupaten Keerom, Papua 99467","Wambes, Arso Tim., Kabupaten Keerom",PAPUA,99467.0,Indonesia,,-3.0038401,140.841463,https://maps.google.com/?cid=0x0:0xfc01865f51efc7d4
housing complex,Komplek perumahan,Rumah,"XRWF+FV, Upt Pir IV / Wonorejo, Arso Tim., Kabupaten Keerom, Papua","Kabupaten Keerom, Papua",PAPUA,,Indonesia,,-3.0036668,140.8244071,https://maps.google.com/?cid=0x0:0x6f4477903fb4ca96
housing complex,housing complex,WORENGGA HIME,"2RF2+825, Workwana, Kec. Arso, Kabupaten Keerom, Papua 99468","Workwana, Kec. Arso, Kabupaten Keerom",PAPUA,99468.0,Indonesia,,-2.977177,140.799476,https://maps.google.com/?cid=0x0:0xf6a825126195c386
housing complex,Pertanian Organik,Gudang kebun jagung,"XRXV+MJ, Wambes, Arso Tim., Kabupaten Keerom, Papua","Kabupaten Keerom, Papua",PAPUA,,Indonesia,,-3.0007942,140.8440962,https://maps.google.com/?cid=0x0:0xeb5a82513be9aaef
housing complex,housing complex,Batas wulilayah kampung nguayaman,"2VP6+6FQ, Suskun, Arso Tim., Kabupaten Keerom, Papua","Kabupaten Keerom, Papua",PAPUA,,Indonesia,,-2.9644127,140.8612413,https://maps.google.com/?cid=0x0:0xb683673d9c89f62e
housing complex,Komplek perumahan,Rumah Daeng Rani,"2R2C+8C3, Upt Pir IV / Wonorejo, Arso Tim., Kabupaten Keerom, Papua 99467","Upt Pir IV / Wonorejo, Arso Tim., Kabupaten Keerom",PAPUA,99467.0,Indonesia,,-2.9992949,140.820648,https://maps.google.com/?cid=0x0:0xee428a8c7c17c6f4
housing complex,Komplek perumahan,Rumah wambes karigi,"XRRX+P8, Wambes, Arso Tim., Kabupaten Keerom, Papua","Kabupaten Keerom, Papua",PAPUA,,Indonesia,,-3.0081414,140.8483288,https://maps.google.com/?cid=0x0:0x2db150b572498dca
housing complex,Balai masyarakat,Wambes,"2R3R+W5M, Wambes, Arso Tim., Kabupaten Keerom, Papua","Kabupaten Keerom, Papua",PAPUA,,Indonesia,,-2.9951544,140.8404302,https://maps.google.com/?cid=0x0:0x6860eed07f1a304
housing complex,Toko bahan makanan,Kios Fitri,"2R2F+4HH, Petewi, Arso Tim., Kabupaten Keerom, Papua","Kabupaten Keerom, Papua",PAPUA,,Indonesia,,-2.9996892,140.8239949,https://maps.google.com/?cid=0x0:0x966addb6b3d29bed
housing complex,Komplek perumahan,Reka home,"2R2C+8C3, Upt Pir IV / Wonorejo, Arso Tim., Kabupaten Keerom, Papua 99467","Upt Pir IV / Wonorejo, Arso Tim., Kabupaten Keerom",PAPUA,99467.0,Indonesia,,-2.9992126,140.8207406,https://maps.google.com/?cid=0x0:0x2d919f5e4f663125
housing complex,Komplek perumahan,Rumah GUZTIN,"2R3R+W5M, Wambes, Arso Tim., Kabupaten Keerom, Papua","Kabupaten Keerom, Papua",PAPUA,,Indonesia,,-2.9951544,140.8404302,https://maps.google.com/?cid=0x0:0xa063e022e5c10993
housing complex,Pembangunan Perumahan,JHON MAILOA,"Jl. Salak No.308, Upt Pir IV / Wonorejo, Arso Tim., Kabupaten Keerom, Papua 99467","Upt Pir IV / Wonorejo, Arso Tim., Kabupaten Keerom",PAPUA,99467.0,Indonesia,,-3.0007624,140.827026,https://maps.google.com/?cid=0x0:0x83da47becd31db27
housing complex,housing complex,Papua 99468,"Kabupaten Keerom, Papua","Kabupaten Keerom, Papua",PAPUA,,Indonesia,,-2.838126,140.7624493,https://maps.google.com/?cid=0x0:0xb18f169d1a15b8b6
housing complex,Pembangunan Perumahan,Perumahan Pak Dullah,"3QX4+PFF, Yuwanaim, Kec. Arso, Kabupaten Keerom, Papua 99468","Yuwanaim, Kec. Arso, Kabupaten Keerom",PAPUA,99468.0,Indonesia,,-2.9006976,140.7561622,https://maps.google.com/?cid=0x0:0x18707dfe76ff184f
housing complex,Komplek perumahan,Kos Dzaky,"Upt Arso VI / Yamua, Kec. Arso, Kabupaten Keerom, Papua 99468","Kec. Arso, Kabupaten Keerom",PAPUA,99468.0,Indonesia,85244687637.0,-2.8310944,140.7474257,https://maps.google.com/?cid=0x0:0x9b61acf339660a28
housing complex,Komplek perumahan,Arso Blue,"3QX4+CF8, Yuwanaim, Kec. Arso, Kabupaten Keerom, Papua 99468","Yuwanaim, Kec. Arso, Kabupaten Keerom",PAPUA,99468.0,Indonesia,,-2.901459,140.7561968,https://maps.google.com/?cid=0x0:0x792efc42f5baca50
housing complex,Komplek perumahan,MONK HOUSE,"6QH8+9MH, Upt Arso VII / Warbo, Kec. Arso, Kabupaten Keerom, Papua 99468","Upt Arso VII / Warbo, Kec. Arso, Kabupaten Keerom",PAPUA,99468.0,Indonesia,,-2.7715507,140.7667477,https://maps.google.com/?cid=0x0:0x8e21d481f7e416aa
housing complex,Komplek perumahan,GRAHA ARSO INDAH,"3QV5+JJ6, Yuwanaim, Kec. Arso, Kabupaten Keerom, Papua 99468","Yuwanaim, Kec. Arso, Kabupaten Keerom",PAPUA,99468.0,Indonesia,,-2.9059698,140.7590199,https://maps.google.com/?cid=0x0:0x2f6be63d796e5a06
housing complex,Pembangunan Perumahan,Yohanes,"5M7R+367, Upt Arso XI / Ifia-Fia, Kec. Arso, Kabupaten Keerom, Papua 99468","Upt Arso XI / Ifia-Fia, Kec. Arso, Kabupaten Keerom",PAPUA,99468.0,Indonesia,,-2.8373496,140.6905535,https://maps.google.com/?cid=0x0:0xd3f54b48416c054
housing complex,Pembangunan Perumahan,GR SUWAE,"3QV5+MMC, Yuwanaim, Kec. Arso, Kabupaten Keerom, Papua 99468","Yuwanaim, Kec. Arso, Kabupaten Keerom",PAPUA,99468.0,Indonesia,,-2.9058004,140.7591346,https://maps.google.com/?cid=0x0:0xe4c3477b2afe4bf6
housing complex,Komplek perumahan,BJA,"4MM4+Q5Q, Upt Arso XIV / Wulukubun, Kec. Skanto, Kabupaten Keerom, Papua 99468","Upt Arso XIV / Wulukubun, Kec. Skanto, Kabupaten Keerom",PAPUA,99468.0,Indonesia,,-2.8655423,140.6554717,https://maps.google.com/?cid=0x0:0x735d0618449be990
housing complex,Toko bahan makanan,Arso 3,"6J6G+J73, Jaifuri, Kec. Skanto, Kabupaten Keerom, Papua 99468","Jaifuri, Kec. Skanto, Kabupaten Keerom",PAPUA,99468.0,Indonesia,,-2.7917066,140.6252022,https://maps.google.com/?cid=0x0:0xc123a3bd4a35784
housing complex,Komplek perumahan,Full House,"Jl.Umsini No.26, Upt Arso VI / Yamua, Kec. Arso, Kabupaten Keerom, Papua","Kabupaten Keerom, Papua",PAPUA,,Indonesia,,-2.8298418,140.7520591,https://maps.google.com/?cid=0x0:0xfd5a6cdc0abd0c2e
housing complex,Komplek perumahan,Kel.Muhammad Asri Jaya,"Unnamed Road JL. TERONG No.44, Asiaman, Kec. Arso, Kabupaten Keerom, Papua 99468","Asiaman, Kec. Arso, Kabupaten Keerom",PAPUA,99468.0,Indonesia,82197908989.0,-2.8646097,140.7364771,https://maps.google.com/?cid=0x0:0x493f1aa1cc2a2979
housing complex,Komplek perumahan,Arson X,"4M9X+WV8, Upt Arso X/Yaturaharja, Kec. Arso, Kabupaten Keerom, Papua 99468","Upt Arso X/Yaturaharja, Kec. Arso, Kabupaten Keerom",PAPUA,99468.0,Indonesia,,-2.8802859,140.6997237,https://maps.google.com/?cid=0x0:0x57fe290399d0efbc
housing complex,Pembangunan Perumahan,Rumah Saras,"3PPV+QGR, Yuwanaim, Kec. Arso, Kabupaten Keerom, Papua 99468","Yuwanaim, Kec. Arso, Kabupaten Keerom",PAPUA,99468.0,Indonesia,,-2.9132537,140.7434219,https://maps.google.com/?cid=0x0:0x6e22451cf24461ea
housing complex,,Rumah Senggi,"HQ8G+98, Senggi, Kabupaten Keerom, Papua","Kabupaten Keerom, Papua",PAPUA,,Indonesia,,-3.4341096,140.7757918,https://maps.google.com/?cid=0x0:0x9f1e6215af894251
housing complex,housing complex,Senggi,"Senggi, Kabupaten Keerom, Papua","Kabupaten Keerom, Papua",PAPUA,,Indonesia,,-3.444463,140.775696,https://maps.google.com/?cid=0x0:0x6ea1e22b49fe9674
housing complex,Komplek perumahan,SMEY,"GXCF+X8J, Jabanda, Senggi, Kabupaten Keerom, Papua","Kabupaten Keerom, Papua",PAPUA,,Indonesia,,-3.4775404,140.9732574,https://maps.google.com/?cid=0x0:0x7a616a176859bf7e
housing complex,Komplek perumahan,DUBU,"9PMR+MM3, Dubu, Distrik Web, Kabupaten Keerom, Papua 99466","Dubu, Distrik Web, Kabupaten Keerom",PAPUA,99466.0,Indonesia,,-3.6158553,140.7416707,https://maps.google.com/?cid=0x0:0x2ee5e9342cb95252
housing complex,housing complex,Papua 99466,"Kabupaten Keerom, Papua","Kabupaten Keerom, Papua",PAPUA,,Indonesia,,-3.6008739,140.7624493,https://maps.google.com/?cid=0x0:0x68d0783d81283fe1
housing complex,Gereja Katolik,"Gereja Katolik Stasi Santa Bunda Allah, Semografi","7WGX+PW2, Semografi, Distrik Web, Kabupaten Keerom, Papua 99466","Semografi, Distrik Web, Kabupaten Keerom",PAPUA,99466.0,Indonesia,,-3.7232265,140.9497647,https://maps.google.com/?cid=0x0:0x424543ed75e64cd9
housing complex,Komplek perumahan,Lapangan bola,"RT 02, Dubu, Distrik Web, Kabupaten Keerom","Kabupaten Keerom, Papua",PAPUA,,Indonesia,,-3.5943205,140.7807757,https://maps.google.com/?cid=0x0:0xf4ffe71739789c6b
housing complex,Bangunan Bersejarah,Akarinda,"9X3P+P36, Akarinda yaffi, Amgotro, Distrik Web, Kabupaten Keerom, Papua","Kabupaten Keerom, Papua",PAPUA,,Indonesia,,-3.6457143,140.9851301,https://maps.google.com/?cid=0x0:0x15ad029e26b4abef
housing complex,Komplek perumahan,Dusu Konggorobu,"9X85+W5C, Amgotro, Distrik Web, Kabupaten Keerom, Papua","Kabupaten Keerom, Papua",PAPUA,,Indonesia,,-3.632699,140.957901,https://maps.google.com/?cid=0x0:0x44304d9b412a889
housing complex,Komplek perumahan,Housing complex,"Jl. Intan No.4 Blok A2A, Pengasinan, Sawangan, Depok City, West Java 16518","Pengasinan, Sawangan, Depok City",PAPUA,16518.0,Indonesia,,-6.4205127,106.7542513,https://maps.google.com/?cid=0x0:0x153d670012329d5b
housing complex,Komplek perumahan,Kinary House,"JMXR+C42, Jl. Ps. Jengkol, RT.005/01, Babakan, Kec. Setu, Kota Tangerang Selatan, Banten 15315","Jl. Ps. Jengkol, RT.005/01, Babakan, Kec. Setu, Kota Tangerang Selatan",PAPUA,15315.0,Indonesia,,-6.3514925,106.6902803,https://maps.google.com/?cid=0x0:0xad897b33b7fc5347
housing complex,Kompleks Townhouse,Ardency House,"MQJF+MJQ, Jl. Gelagah, Pisangan, Kec. Ciputat Tim., Kota Tangerang Selatan, Banten 15419","Jl. Gelagah, Pisangan, Kec. Ciputat Tim., Kota Tangerang Selatan",PAPUA,15419.0,Indonesia,,-6.3182989,106.7741142,https://maps.google.com/?cid=0x0:0xfc0f4c021595b383
housing complex,housing complex,Kavling Ciputat,"Jl. Elang Raya No.7, RW.9, Sawah Lama, Kec. Ciputat, Kota Tangerang Selatan, Banten 15413","RW.9, Sawah Lama, Kec. Ciputat, Kota Tangerang Selatan",PAPUA,15413.0,Indonesia,,-6.303377,106.7341217,https://maps.google.com/?cid=0x0:0xc7e0e689751f36d1
housing complex,Perumahan,Clarity House,"MPWV+W64, Jl. Kihajar Dewantara, RT.02/RW.7, Sawah Lama, Kec. Ciputat, Kota Tangerang Selatan, Banten 15413","Jl. Kihajar Dewantara, RT.02/RW.7, Sawah Lama, Kec. Ciputat, Kota Tangerang Selatan",PAPUA,15413.0,Indonesia,,-6.3027301,106.743069,https://maps.google.com/?cid=0x0:0x1bb7b494ef47b2e8
housing complex,housing complex,Tanah dijual,"PMGR+RG9, Jl. Manunggal V, Parigi Baru, Kec. Pd. Aren, Kota Tangerang Selatan, Banten 15228","Jl. Manunggal V, Parigi Baru, Kec. Pd. Aren, Kota Tangerang Selatan",PAPUA,15228.0,Indonesia,,-6.2729568,106.6913619,https://maps.google.com/?cid=0x0:0xc73db3d5568e267f
housing complex,housing complex,Housing Complex,"Jl. Raya Kalimulya No.57, Kalimulya, Kec. Cilodong, Kota Depok, Jawa Barat 16413","Kalimulya, Kec. Cilodong, Kota Depok",PAPUA,16413.0,Indonesia,,-6.4261661,106.8222845,https://maps.google.com/?cid=0x0:0x2e5a6c17f96767d3
housing complex,housing complex,,,,PAPUA,,Indonesia,,-2.44565,117.8888,https://maps.google.com/?cid=0x0:0xa27d59e10f9ce1c7
housing complex,Komplek perumahan,Mabes,"6H7F+8Q4, Arsopura, Kec. Skanto, Kabupaten Keerom, Papua 99469","Arsopura, Kec. Skanto, Kabupaten Keerom",PAPUA,99469.0,Indonesia,,-2.7867283,140.5744578,https://maps.google.com/?cid=0x0:0x24d8c01730f9b26d
housing complex,housing complex,Papua 99469,Papua,Papua,PAPUA,,Indonesia,,-2.950166,140.4308159,https://maps.google.com/?cid=0x0:0xbc565fc539165f0b
housing complex,Komplek perumahan,WISMA PUTUT YUGO UTOMO ARSO 4,"Jalan Salam /Jalur 4 A Arso, RW.4, Arsopura, Kec. Skanto, Kabupaten Keerom, Papua 99469","RW.4, Arsopura, Kec. Skanto, Kabupaten Keerom",PAPUA,99469.0,Indonesia,,-2.7798987,140.5784561,https://maps.google.com/?cid=0x0:0x6c3c7a32c7b50bcb
housing complex,Toko,Perempatan Jalan Eman,"6H9M+P4C, Arsopura, Kec. Skanto, Kabupaten Keerom, Papua 99469","Arsopura, Kec. Skanto, Kabupaten Keerom",PAPUA,99469.0,Indonesia,,-2.7808098,140.5826811,https://maps.google.com/?cid=0x0:0x421f4a9e5c45e1a2
housing complex,Komplek perumahan,Rumah Gunanto,"5JHF+P3X, Upt Arso V. / Wiyantri, Kec. Skanto, Kabupaten Keerom, Papua 99468","Upt Arso V. / Wiyantri, Kec. Skanto, Kabupaten Keerom",PAPUA,99468.0,Indonesia,,-2.8202888,140.6219614,https://maps.google.com/?cid=0x0:0xc156edcaba567ee1
housing complex,Komplek perumahan,Aditya house,"4JWQ+85P, Skamto, Kec. Skanto, Kabupaten Keerom, Papua 99468","Skamto, Kec. Skanto, Kabupaten Keerom",PAPUA,99468.0,Indonesia,,-2.8543707,140.6378857,https://maps.google.com/?cid=0x0:0x3fbf6d82ee3efed
housing complex,Komplek perumahan,adhy,"5JFF+Q6, Upt Arso V. / Wiyantri, Kec. Skanto, Kabupaten Keerom, Papua","Kabupaten Keerom, Papua",PAPUA,,Indonesia,,-2.8255352,140.6231123,https://maps.google.com/?cid=0x0:0x1088705992f50e27
housing complex,Komplek perumahan,Twins house,"6J6G+J73, Jaifuri, Kec. Skanto, Kabupaten Keerom, Papua 99468","Jaifuri, Kec. Skanto, Kabupaten Keerom",PAPUA,99468.0,Indonesia,,-2.789715,140.6264235,https://maps.google.com/?cid=0x0:0x4b7d2c3b2cc482bb
housing complex,Komplek perumahan,Jalur 4 barat,"5JHC+M7, Upt Arso V. / Wiyantri, Kec. Skanto, Kabupaten Keerom, Papua","Kabupaten Keerom, Papua",PAPUA,,Indonesia,,-2.8208102,140.6205772,https://maps.google.com/?cid=0x0:0xcff361368c78feda
housing complex,Komplek perumahan,Rumah Oki Bram,"4MP6+29, Upt Arso XIV / Wulukubun, Kec. Skanto, Kabupaten Keerom, Papua","Kabupaten Keerom, Papua",PAPUA,,Indonesia,,-2.86497,140.660962,https://maps.google.com/?cid=0x0:0x8b19dabeba0c0584
housing complex,Komplek perumahan,Rumah Miftah,"4MJ5+WGP, Upt Arso XIV / Wulukubun, Kec. Skanto, Kabupaten Keerom, Papua 99468","Upt Arso XIV / Wulukubun, Kec. Skanto, Kabupaten Keerom",PAPUA,99468.0,Indonesia,,-2.867724,140.658461,https://maps.google.com/?cid=0x0:0x2da3abe85992d558
housing complex,Perhimpunan Pengembang Perumahan,RUMAH ENDA JALIL,"6HFJ+78, Arsopura, Kec. Skanto, Kabupaten Keerom, Papua","Kabupaten Keerom, Papua",PAPUA,,Indonesia,,-2.776789,140.580845,https://maps.google.com/?cid=0x0:0xdef6b19648794578
housing complex,Komplek perumahan,Rumah Dimas,"Saefen 4 2, Arsopura, Kec. Skanto, Kabupaten Keerom, Papua 99469","Arsopura, Kec. Skanto, Kabupaten Keerom",PAPUA,99469.0,Indonesia,,-2.7835964,140.5507934,https://maps.google.com/?cid=0x0:0x60cac62c01a2db32
housing complex,Komplek perumahan,BJA,"4MM4+Q5Q, Upt Arso XIV / Wulukubun, Kec. Skanto, Kabupaten Keerom, Papua 99468","Upt Arso XIV / Wulukubun, Kec. Skanto, Kabupaten Keerom",PAPUA,99468.0,Indonesia,,-2.8655423,140.6554717,https://maps.google.com/?cid=0x0:0x735d0618449be990
housing complex,Komplek perumahan,Rumah,"XRWF+FV, Upt Pir IV / Wonorejo, Arso Tim., Kabupaten Keerom, Papua","Kabupaten Keerom, Papua",PAPUA,,Indonesia,,-3.0036668,140.8244071,https://maps.google.com/?cid=0x0:0x6f4477903fb4ca96
housing complex,housing complex,Arso Tim.,"Kabupaten Keerom, Papua","Kabupaten Keerom, Papua",PAPUA,,Indonesia,,-2.9996892,140.8239949,https://maps.google.com/?cid=0x0:0xae3aa9f54982454a
housing complex,Pembangunan Perumahan,Perumahan Pak Dullah,"3QX4+PFF, Yuwanaim, Kec. Arso, Kabupaten Keerom, Papua 99468","Yuwanaim, Kec. Arso, Kabupaten Keerom",PAPUA,99468.0,Indonesia,,-2.9006976,140.7561622,https://maps.google.com/?cid=0x0:0x18707dfe76ff184f
housing complex,,NUR CHOLIS GRAFTING ( Mas Nur Bibit),"Jalur 2 Barat, Desa Yamta, Kec. Arso, Kabupaten Keerom, Papua 99468","Desa Yamta, Kec. Arso, Kabupaten Keerom",PAPUA,99468.0,Indonesia,,-2.9558931,140.773299,https://maps.google.com/?cid=0x0:0x2862070bb57d06ed
housing complex,Komplek perumahan,GRAHA ARSO INDAH,"3QV5+JJ6, Yuwanaim, Kec. Arso, Kabupaten Keerom, Papua 99468","Yuwanaim, Kec. Arso, Kabupaten Keerom",PAPUA,99468.0,Indonesia,,-2.9059698,140.7590199,https://maps.google.com/?cid=0x0:0x2f6be63d796e5a06
housing complex,Pembangunan Perumahan,GR SUWAE,"3QV5+MMC, Yuwanaim, Kec. Arso, Kabupaten Keerom, Papua 99468","Yuwanaim, Kec. Arso, Kabupaten Keerom",PAPUA,99468.0,Indonesia,,-2.9058004,140.7591346,https://maps.google.com/?cid=0x0:0xe4c3477b2afe4bf6
housing complex,Komplek perumahan,Baransano house,"Jln Dieng RT003/RW003Upt, VI / Yamua, Kec. Arso, Kabupaten Keerom, Papua 99468","VI / Yamua, Kec. Arso, Kabupaten Keerom",PAPUA,99468.0,Indonesia,,-2.9333635,140.7833468,https://maps.google.com/?cid=0x0:0xa60b53506a3eba5d
housing complex,Perhimpunan Pengembang Perumahan,ASM,"3QCF+MF3, Unnamed Road, Yanamaa / Pir I, Kec. Arso, Kabupaten Keerom, Papua 99468","Unnamed Road, Yanamaa / Pir I, Kec. Arso, Kabupaten Keerom",PAPUA,99468.0,Indonesia,,-2.9283708,140.7736813,https://maps.google.com/?cid=0x0:0x5e46ac12fb97e2b5
housing complex,Balai masyarakat,Kepala desa,"XRWX+744, Wambes, Arso Tim., Kabupaten Keerom, Papua 99467","Wambes, Arso Tim., Kabupaten Keerom",PAPUA,99467.0,Indonesia,,-3.0038401,140.841463,https://maps.google.com/?cid=0x0:0xfc01865f51efc7d4
housing complex,Komplek perumahan,Arso Blue,"3QX4+CF8, Yuwanaim, Kec. Arso, Kabupaten Keerom, Papua 99468","Yuwanaim, Kec. Arso, Kabupaten Keerom",PAPUA,99468.0,Indonesia,,-2.901459,140.7561968,https://maps.google.com/?cid=0x0:0x792efc42f5baca50
housing complex,Pembangunan Perumahan,Rumah kenes,"3QV4+RGF, Jl. Merak, Yuwanaim, Kec. Arso, Kabupaten Keerom, Papua 99468","Jl. Merak, Yuwanaim, Kec. Arso, Kabupaten Keerom",PAPUA,99468.0,Indonesia,85353925575.0,-2.9054933,140.7563814,https://maps.google.com/?cid=0x0:0x165d16ede97950f0
housing complex,Komplek perumahan,Pak Babinsa Aksan Hukom,"Jl. Mangga No.141, Upt Pir IV / Wonorejo, Arso Tim., Kabupaten Keerom, Papua 99467","Upt Pir IV / Wonorejo, Arso Tim., Kabupaten Keerom",PAPUA,99467.0,Indonesia,,-2.9973873,140.8214419,https://maps.google.com/?cid=0x0:0x9b82bab3bb52592f
housing complex,Komplek perumahan,Rezeldev home,"2QPM+3G5, Workwana, Kec. Arso, Kabupaten Keerom, Papua 99468","Workwana, Kec. Arso, Kabupaten Keerom",PAPUA,99468.0,Indonesia,,-2.9648516,140.7838687,https://maps.google.com/?cid=0x0:0xbd0f3093276eae5c
housing complex,Komplek perumahan,Kos Dzaky,"Upt Arso VI / Yamua, Kec. Arso, Kabupaten Keerom, Papua 99468","Kec. Arso, Kabupaten Keerom",PAPUA,99468.0,Indonesia,85244687637.0,-2.8310944,140.7474257,https://maps.google.com/?cid=0x0:0x9b61acf339660a28
housing complex,Pembangunan Perumahan,Jember,"4WM6+546, Towe Hitam, Distrik Towe, Kabupaten Keerom, Papua 99576","Towe Hitam, Distrik Towe, Kabupaten Keerom",PAPUA,99576.0,Indonesia,,-3.8670836,140.910264,https://maps.google.com/?cid=0x0:0xb2134eaab889b7c7
housing complex,housing complex,Papua 99466,"Kabupaten Keerom, Papua","Kabupaten Keerom, Papua",PAPUA,,Indonesia,,-3.6008739,140.7624493,https://maps.google.com/?cid=0x0:0x68d0783d81283fe1
housing complex,Sekolah Dasar,TOWE HITAM,"3Q9C+J9, Usku, Senggi, Kabupaten Keerom, Papua","Kabupaten Keerom, Papua",PAPUA,,Indonesia,,-3.930924,140.770979,https://maps.google.com/?cid=0x0:0x7fb3bec5ca4d8441
housing complex,Perhimpunan Pengembang Perumahan,Kampung jember,"4WC4+H9C, Kampung jember, Distrik Towe, Kabupaten Keerom, Papua 99576","Kampung jember, Distrik Towe, Kabupaten Keerom",PAPUA,99576.0,Indonesia,,-3.878571,140.905901,https://maps.google.com/?cid=0x0:0x683187315949cafe
housing complex,Pembangunan Perumahan,Tefalma satu,"7P3G+79, Tefalma, Distrik Towe, Kabupaten Keerom, Papua","Kabupaten Keerom, Papua",PAPUA,,Indonesia,,-3.7468596,140.7259912,https://maps.google.com/?cid=0x0:0x7e91ae62e0f5b13
housing complex,Kantor Perusahaan,The H Tower,"Jl. H. R. Rasuna Said No.20, RT.1/RW.5, Karet Kuningan, Kecamatan Setiabudi, Kota Jakarta Selatan, Daerah Khusus Ibukota Jakarta 12940","RT.1/RW.5, Karet Kuningan, Kecamatan Setiabudi, Kota Jakarta Selatan",PAPUA,12940.0,Indonesia,2129533300.0,-6.2196816,106.8320175,https://maps.google.com/?cid=0x0:0xeab1cb9306fa3551
housing complex,Kantor Perusahaan,Thamrin Nine Complex,"Jl. M.H. Thamrin, Kb. Melati, Kecamatan Tanah Abang, Kota Jakarta Pusat, Daerah Khusus Ibukota Jakarta 10230","Kb. Melati, Kecamatan Tanah Abang, Kota Jakarta Pusat",PAPUA,10230.0,Indonesia,2129937299.0,-6.1990606,106.8224284,https://maps.google.com/?cid=0x0:0x5d4d55f654c4c406
housing complex,Perusahaan Asuransi,MATARAM Group,"UOB Plaza Lantai 34 Unit 2, Jalan MH. Thamrin Kav. 8 - 10, RT.14/RW.20, Kb. Melati, Kecamatan Tanah Abang, Kota Jakarta Pusat, Daerah Khusus Ibukota Jakarta 10230","Jalan MH. Thamrin Kav. 8 - 10, RT.14/RW.20, Kb. Melati, Kecamatan Tanah Abang, Kota Jakarta Pusat",PAPUA,10230.0,Indonesia,2153163809.0,-6.1991158,106.8221582,https://maps.google.com/?cid=0x0:0xc5558c3cb51ae98
housing complex,Komplek perumahan,Kinary House,"JMXR+C42, Jl. Ps. Jengkol, RT.005/01, Babakan, Kec. Setu, Kota Tangerang Selatan, Banten 15315","Jl. Ps. Jengkol, RT.005/01, Babakan, Kec. Setu, Kota Tangerang Selatan",PAPUA,15315.0,Indonesia,,-6.3514925,106.6902803,https://maps.google.com/?cid=0x0:0xad897b33b7fc5347
housing complex,Kompleks Townhouse,Ardency House,"MQJF+MJQ, Jl. Gelagah, Pisangan, Kec. Ciputat Tim., Kota Tangerang Selatan, Banten 15419","Jl. Gelagah, Pisangan, Kec. Ciputat Tim., Kota Tangerang Selatan",PAPUA,15419.0,Indonesia,,-6.3182989,106.7741142,https://maps.google.com/?cid=0x0:0xfc0f4c021595b383
housing complex,Perumahan,Clarity House,"MPWV+W64, Jl. Kihajar Dewantara, RT.02/RW.7, Sawah Lama, Kec. Ciputat, Kota Tangerang Selatan, Banten 15413","Jl. Kihajar Dewantara, RT.02/RW.7, Sawah Lama, Kec. Ciputat, Kota Tangerang Selatan",PAPUA,15413.0,Indonesia,,-6.3027301,106.743069,https://maps.google.com/?cid=0x0:0x1bb7b494ef47b2e8
housing complex,Perhimpunan Pengembang Perumahan,Hummingbird House (Perumahan),"Jl. H. Niban Rimin, Buaran, Kec. Serpong, Kota Tangerang Selatan, Banten 15310","Buaran, Kec. Serpong, Kota Tangerang Selatan",PAPUA,15310.0,Indonesia,81542360572.0,-6.3397035,106.6849634,https://maps.google.com/?cid=0x0:0xec5d113760f52545
housing complex,Komplek perumahan,Jagakarsa Signature,"No.38JagakarsaKec, Jl. Raya Jagakarsa No.38, Jagakarsa, Kec. Jagakarsa, Kota Jakarta Selatan, Daerah Khusus Ibukota Jakarta 12620","Jl. Raya Jagakarsa No.38, Jagakarsa, Kec. Jagakarsa, Kota Jakarta Selatan",PAPUA,12620.0,Indonesia,81288850038.0,-6.3272381,106.8143868,https://maps.google.com/?cid=0x0:0x4215443281912720
housing complex,Komplek perumahan,Favoury House - D5,"MM6C+R57, Jl. Balai Desa Lama, Kademangan, Kec. Setu, Kota Tangerang Selatan, Banten 15314","Jl. Balai Desa Lama, Kademangan, Kec. Setu, Kota Tangerang Selatan",PAPUA,15314.0,Indonesia,,-6.3379508,106.6704239,https://maps.google.com/?cid=0x0:0xc4de9f17b544b3de
