Category;Real Category;Business Name;Address;City;State;Postal Code;Country;Phone;Email;Website;Latitude;Longitude;Map Link;Details Link
"hotel";"hotel";"Sumatera Utara 21463";"Kec. Kp. Rakyat, Kab. Labuhanbatu Selatan, Sumatera Utara";"Kab. Labuhanbatu Selatan, Sumatera Utara";"SUMATERA UTARA";"";"Indonesia";"";"";"";"2.0724054";"100.2151578";"https://maps.google.com/?cid=0x0:0x8873c7c00b422839";""
"hotel";"hotel";"Hotel Grand Suma";"W3XX+MF2, Sisumut, Kec. Kota Pinang, Kab. Labuhanbatu Selatan, Sumatera Utara 21464";"Sisumut, Kec. Kota Pinang, Kab. Labuhanbatu Selatan";"SUMATERA UTARA";"21464";"Indonesia";" 062495584";"";"";"1.949149";"100.0986449";"https://maps.google.com/?cid=0x0:0xfc602a435f0f240";""
"hotel";"hotel";"Hotel Tio";"Jl. Lintas Sumatra, Perkebunan Perlabian, Kec. Kp. Rakyat, Kab. Labuhanbatu Selatan, Sumatera Utara 21451";"Perkebunan Perlabian, Kec. Kp. Rakyat, Kab. Labuhanbatu Selatan";"SUMATERA UTARA";"21451";"Indonesia";" 082164982859";"";"";"2.0336694";"100.0749602";"https://maps.google.com/?cid=0x0:0x2657f651132114c2";""
"hotel";"hotel";"N/A";"";"";"SUMATERA UTARA";"";"Indonesia";"";"";"";"";"";"https://maps.google.com/?cid=0x0:0xfd8a71225ec1b8b9%7C/g/1hc1c_9zn%7Cen-ID";""
"hotel";"hotel";"Hotel Istana IX";"Kota Pinang, Kec. Kota Pinang, Kab. Labuhanbatu Selatan, Sumatera Utara 21464";"Kec. Kota Pinang, Kab. Labuhanbatu Selatan";"SUMATERA UTARA";"21464";"Indonesia";" 081160600991";"";"";"1.896335";"100.0767925";"https://maps.google.com/?cid=0x0:0x3a9bdcb8f1ec40af";""
"hotel";"hotel";"Hotel Permata Warna";"Jalan Pejuang No.45, East Aek Kanopan, Kualuh Hulu, North Labuhan Batu Regency, North Sumatra 21273";"East Aek Kanopan, Kualuh Hulu, North Labuhan Batu Regency";"SUMATERA UTARA";"21273";"Indonesia";" 06246941747";"";"";"2.571314";"99.6529359";"https://maps.google.com/?cid=0x0:0x43e3f04a33101711";""
"hotel";"hotel";"SUPER OYO 2200 Hotel Gunung Sari";"Jl. Imam Bonjol, Rantauprapat, Kec. Rantau Utara, Kab. Labuhanbatu, Sumatera Utara 21411";"Rantauprapat, Kec. Rantau Utara, Kab. Labuhanbatu";"SUMATERA UTARA";"21411";"Indonesia";" 02129707601";"";"";"2.099743";"99.825594";"https://maps.google.com/?cid=0x0:0x5a0be9e902b55f47";""
"hotel";"hotel";"N/A";"";"";"SUMATERA UTARA";"";"Indonesia";"";"";"";"";"";"https://maps.google.com/?cid=0x0:0x5a0be9e902b55f47%7C/g/11fm_mgqd0%7Cen-ID";""
"hotel";"hotel";"Hotel Terang";"3X6M+MV2, Pd. Batu, Kec. Bilah Hulu, Kab. Labuhanbatu, Sumatera Utara 21451";"Pd. Batu, Kec. Bilah Hulu, Kab. Labuhanbatu";"SUMATERA UTARA";"21451";"Indonesia";" 083178292665";"";"";"2.0616383";"99.984632";"https://maps.google.com/?cid=0x0:0x930a22b990ec8a12";""
"hotel";"hotel";"Purba Margana Hotel  Resto";"Bandara, Aek Godang, Gunung tua, Kabupaten Padang Lawas Utara, Sumatera Utara 22740";"Aek Godang, Gunung tua, Kabupaten Padang Lawas Utara";"SUMATERA UTARA";"22740";"Indonesia";" 081319009123";"";"";"1.4081582";"99.4218092";"https://maps.google.com/?cid=0x0:0xb9d59df1456583ba";""
"hotel";"hotel";"Hotel Ajiziah";"Jl. Lintas Sumatra No.16, Damuli Pekan, Kec. Kualuh Sel., Kabupaten Labuhanbatu Utara, Sumatera Utara 21457";"Damuli Pekan, Kec. Kualuh Sel., Kabupaten Labuhanbatu Utara";"SUMATERA UTARA";"21457";"Indonesia";" 081374040007";"";"";"2.5069981";"99.6337277";"https://maps.google.com/?cid=0x0:0x6ebf63839f857f4e";""
"hotel";"hotel";"Dhaksina Hotel";"Jl. Sisingamangaraja No.20, RT.02/RW.02, Mesjid, Kec. Medan Kota, Kota Medan, Sumatera Utara 20213";"RT.02/RW.02, Mesjid, Kec. Medan Kota, Kota Medan";"SUMATERA UTARA";"20213";"Indonesia";" 0617320000";"";"";"3.5781335";"98.6864112";"https://maps.google.com/?cid=0x0:0x19d68a5c7ad5c8ea";""
"hotel";"hotel";"N/A";"";"";"SUMATERA UTARA";"";"Indonesia";"";"";"";"";"";"https://maps.google.com/?cid=0x0:0x19d68a5c7ad5c8ea%7C/g/1tf91hx5%7Cen-ID";""
"hotel";"hotel";"Wilgan Hotel";"79X2+VJ6, Sipare-Pare, Kec. Air Putih, Kabupaten Batu Bara, Sumatera Utara 21257";"Sipare-Pare, Kec. Air Putih, Kabupaten Batu Bara";"SUMATERA UTARA";"21257";"Indonesia";" 085362215943";"";"";"3.2996586";"99.3515227";"https://maps.google.com/?cid=0x0:0x7a374e542c606eae";""
"hotel";"hotel";"Hotel Arkemo 3";"Jl. Lintas Sumatra, Tanah Tinggi, Kec. Air Putih, Kabupaten Batu Bara, Sumatera Utara 21256";"Tanah Tinggi, Kec. Air Putih, Kabupaten Batu Bara";"SUMATERA UTARA";"21256";"Indonesia";" 082365048276";"";"";"3.2625746";"99.3777782";"https://maps.google.com/?cid=0x0:0x6a749a4520b342ec";""
"hotel";"hotel";"OYO 90834 Hotel Anugrah";"99, Aek Kanopan, Labuhanbatu Utara, Sumatera Utara, Rantauprapat, Sumatera Utara 21273";"Aek Kanopan, Labuhanbatu Utara, Sumatera Utara, Rantauprapat";"SUMATERA UTARA";"21273";"Indonesia";" 02129707601";"";"";"2.5811219";"99.6556867";"https://maps.google.com/?cid=0x0:0x6d9d43a86b236831";""
"hotel";"hotel";"TR INN (Penginapan KELUARGA)";"5 menit dari Simpang 3, Aek Popo, Jalan Lintas Jl. Raya Merek-Sidikalang No.5, Kec. Merek, Kabupaten Karo, Sumatera Utara 22173";"Aek Popo, Jalan Lintas Jl. Raya Merek-Sidikalang No.5, Kec. Merek, Kabupaten Karo";"SUMATERA UTARA";"22173";"Indonesia";" 081397007796";"";"";"2.931705";"98.4985882";"https://maps.google.com/?cid=0x0:0x4fbb8ae97816eb87";""
"hotel";"hotel";"OYO 92748 Hotel Tepian Batang Hari";"4G8W+42X, Jl. Lintas Sumatra, Poldung, Kec. Aek Natas, Sumatera Utara, 35363";"Jl. Lintas Sumatra, Poldung, Kec. Aek Natas";"SUMATERA UTARA";"35363";"Indonesia";" 082174980897";"";"";"2.115354";"99.545097";"https://maps.google.com/?cid=0x0:0x227b22d2b0d9861a";""
"hotel";"hotel";"Halay Inn";"GPJW+MH5, Jl. Raya Medan Jl. Tj. Morawa, Ujung Serdang, Kec. Tj. Morawa, Kabupaten Deli Serdang, Sumatera Utara 20362";"Jl. Raya Medan Jl. Tj. Morawa, Ujung Serdang, Kec. Tj. Morawa, Kabupaten Deli Serdang";"SUMATERA UTARA";"20362";"Indonesia";" 081269606509";"";"";"3.5316336";"98.7464724";"https://maps.google.com/?cid=0x0:0xceff4e6f90685a44";""
"hotel";"hotel";"Hotel grend ploris";"86R3+W9H, Jl. Lintas Sumatra, Paya Pasir, Kec. Tebing Syahbandar, Kabupaten Serdang Bedagai, Sumatera Utara";"Kabupaten Serdang Bedagai, Sumatera Utara";"SUMATERA UTARA";"";"Indonesia";"";"";"";"3.3423084";"99.203485";"https://maps.google.com/?cid=0x0:0x988ba6170c00703b";""
"hotel";"hotel";"N/A";"";"";"SUMATERA UTARA";"";"Indonesia";"";"";"";"";"";"https://maps.google.com/?cid=0x0:0x6ef11848e2651023%7C/g/1pzsncsbx%7Cen-ID";""
"hotel";"hotel";"Permata Land Hotel  Resort";"Jl. Jend. Ahmad Yani No.133, Kartini, Kec. Rantau Utara, Kab. Labuhanbatu, Sumatera Utara 21411";"Kartini, Kec. Rantau Utara, Kab. Labuhanbatu";"SUMATERA UTARA";"21411";"Indonesia";" 082364407500";"";"";"2.0966402";"99.8336415";"https://maps.google.com/?cid=0x0:0x6ef11848e2651023";""
"hotel";"hotel";"RedDoorz Syariah @ Wisma Kampung Baru Rantauprapat";"Kartini, Jl. Kp. Baru No.18, Rantauprapat, Kec. Rantau Utara, Kab. Labuhanbatu, Sumatera Utara 21411";"Jl. Kp. Baru No.18, Rantauprapat, Kec. Rantau Utara, Kab. Labuhanbatu";"SUMATERA UTARA";"21411";"Indonesia";" 0895417300072";"";"";"2.0980906";"99.8375611";"https://maps.google.com/?cid=0x0:0xd1d574404e9a8ca7";""
"hotel";"hotel";"N/A";"";"";"SUMATERA UTARA";"";"Indonesia";"";"";"";"";"";"https://maps.google.com/?cid=0x0:0xd1d574404e9a8ca7%7C/g/11j4f_2fsk%7Cen-ID";""
"hotel";"hotel";"Super OYO Capital O 92066 Papakoel Hotel  Cafe";"Jl. Sei Putih No.28, Babura, Kec. Medan Baru, Kota Medan, Sumatera Utara 20153";"Babura, Kec. Medan Baru, Kota Medan";"SUMATERA UTARA";"20153";"Indonesia";" 02129707601";"";"";"3.5761922";"98.6568452";"https://maps.google.com/?cid=0x0:0xfb98a3f972037ff8";""
"hotel";"hotel";"Hotel Cahaya Baru";"9PV2+PJC, Bandar Durian, Kec. Aek Natas, Kabupaten Labuhanbatu Utara, Sumatera Utara 21455";"Bandar Durian, Kec. Aek Natas, Kabupaten Labuhanbatu Utara";"SUMATERA UTARA";"21455";"Indonesia";" 082366883304";"";"";"2.3943004";"99.701522";"https://maps.google.com/?cid=0x0:0xa02a390c094baa5f";""
"hotel";"hotel";"Payaloting Hotel";"VHC6+7Q8, Kp. Padang, Kec. Panyabungan, Kabupaten Mandailing Natal, Sumatera Utara 22976";"Kp. Padang, Kec. Panyabungan, Kabupaten Mandailing Natal";"SUMATERA UTARA";"22976";"Indonesia";"";"";"";"0.8706553";"99.5619607";"https://maps.google.com/?cid=0x0:0xb42e973fe5130776";""
"hotel";"hotel";"Hotel Rakasih";"Jl. K.H. Wahid Hasyim No.86, Sei Sikambing D, Kec. Medan Petisah, Kota Medan, Sumatera Utara 20114";"Sei Sikambing D, Kec. Medan Petisah, Kota Medan";"SUMATERA UTARA";"20114";"Indonesia";" 0614155224";"";"";"3.5856203";"98.6573444";"https://maps.google.com/?cid=0x0:0x21663d226ca6c4e5";""
"hotel";"hotel";"Kec. Kota Pinang";"Kab. Labuhanbatu Selatan, Sumatera Utara";"Kab. Labuhanbatu Selatan, Sumatera Utara";"SUMATERA UTARA";"";"Indonesia";"";"";"";"1.8906527";"100.0900259";"https://maps.google.com/?cid=0x0:0xf9d36fe53f57ed24";""
"hotel";"hotel";"Hotel Grand Suma";"W3XX+MF2, Sisumut, Kec. Kota Pinang, Kab. Labuhanbatu Selatan, Sumatera Utara 21464";"Sisumut, Kec. Kota Pinang, Kab. Labuhanbatu Selatan";"SUMATERA UTARA";"21464";"Indonesia";" 062495584";"";"";"1.949149";"100.0986449";"https://maps.google.com/?cid=0x0:0xfc602a435f0f240";""
"hotel";"hotel";"Hotel Istana IX";"Kota Pinang, Kec. Kota Pinang, Kab. Labuhanbatu Selatan, Sumatera Utara 21464";"Kec. Kota Pinang, Kab. Labuhanbatu Selatan";"SUMATERA UTARA";"21464";"Indonesia";" 081160600991";"";"";"1.896335";"100.0767925";"https://maps.google.com/?cid=0x0:0x3a9bdcb8f1ec40af";""
"hotel";"hotel";"SUPER OYO 2200 Hotel Gunung Sari";"Jl. Imam Bonjol, Rantauprapat, Kec. Rantau Utara, Kab. Labuhanbatu, Sumatera Utara 21411";"Rantauprapat, Kec. Rantau Utara, Kab. Labuhanbatu";"SUMATERA UTARA";"21411";"Indonesia";" 02129707601";"";"";"2.099743";"99.825594";"https://maps.google.com/?cid=0x0:0x5a0be9e902b55f47";""
"hotel";"hotel";"N/A";"";"";"SUMATERA UTARA";"";"Indonesia";"";"";"";"";"";"https://maps.google.com/?cid=0x0:0x5a0be9e902b55f47%7C/g/11fm_mgqd0%7Cen-ID";""
"hotel";"hotel";"Hotel Terang";"3X6M+MV2, Pd. Batu, Kec. Bilah Hulu, Kab. Labuhanbatu, Sumatera Utara 21451";"Pd. Batu, Kec. Bilah Hulu, Kab. Labuhanbatu";"SUMATERA UTARA";"21451";"Indonesia";" 083178292665";"";"";"2.0616383";"99.984632";"https://maps.google.com/?cid=0x0:0x930a22b990ec8a12";""
"hotel";"hotel";"Hotel JSN ULOS";"Jl. Jenderal Sudirman No.12, Aek Kanopan Tim., Kec. Kualuh Hulu, Kabupaten Labuhanbatu Utara, Sumatera Utara 21273";"Aek Kanopan Tim., Kec. Kualuh Hulu, Kabupaten Labuhanbatu Utara";"SUMATERA UTARA";"21273";"Indonesia";"";"";"";"2.5775751";"99.6526209";"https://maps.google.com/?cid=0x0:0xb9d59a623b1548a";""
"hotel";"hotel";"Hotel Cahaya Baru";"9PV2+PJC, Bandar Durian, Kec. Aek Natas, Kabupaten Labuhanbatu Utara, Sumatera Utara 21455";"Bandar Durian, Kec. Aek Natas, Kabupaten Labuhanbatu Utara";"SUMATERA UTARA";"21455";"Indonesia";" 082366883304";"";"";"2.3943004";"99.701522";"https://maps.google.com/?cid=0x0:0xa02a390c094baa5f";""
"hotel";"hotel";"OYO 90979 Ryfana Residence Syariah";"3RXQ+G2F, Kartini, Bakaran Batu, Rantauprapat, North Sumatra 21411";"Kartini, Bakaran Batu, Rantauprapat";"SUMATERA UTARA";"21411";"Indonesia";" 08041040040";"";"";"2.098819";"99.837554";"https://maps.google.com/?cid=0x0:0x1a92269927e8de2";""
"hotel";"hotel";"SUZUYA HOTEL RANTAUPRAPAT";"Jl. Jend. Ahmad Yani, Rantauprapat, Kec. Rantau Utara, Kab. Labuhanbatu, Sumatera Utara 21411";"Rantauprapat, Kec. Rantau Utara, Kab. Labuhanbatu";"SUMATERA UTARA";"21411";"Indonesia";" 082360377987";"";"";"2.0974797";"99.8333174";"https://maps.google.com/?cid=0x0:0xbeee33753399aa2";""
"hotel";"hotel";"RedDoorz Syariah @ Wisma Kampung Baru Rantauprapat";"Kartini, Jl. Kp. Baru No.18, Rantauprapat, Kec. Rantau Utara, Kab. Labuhanbatu, Sumatera Utara 21411";"Jl. Kp. Baru No.18, Rantauprapat, Kec. Rantau Utara, Kab. Labuhanbatu";"SUMATERA UTARA";"21411";"Indonesia";" 0895417300072";"";"";"2.0980906";"99.8375611";"https://maps.google.com/?cid=0x0:0xd1d574404e9a8ca7";""
"hotel";"hotel";"N/A";"";"";"SUMATERA UTARA";"";"Indonesia";"";"";"";"";"";"https://maps.google.com/?cid=0x0:0xd1d574404e9a8ca7%7C/g/11j4f_2fsk%7Cen-ID";""
"hotel";"hotel";"Sumatera Utara 21461";"Kec. Silangkitang, Kab. Labuhanbatu Selatan, Sumatera Utara";"Kab. Labuhanbatu Selatan, Sumatera Utara";"SUMATERA UTARA";"";"Indonesia";"";"";"";"1.8427607";"99.9465077";"https://maps.google.com/?cid=0x0:0x235a9827314238c5";""
"hotel";"hotel";"Hotel Grand Suma";"W3XX+MF2, Sisumut, Kec. Kota Pinang, Kab. Labuhanbatu Selatan, Sumatera Utara 21464";"Sisumut, Kec. Kota Pinang, Kab. Labuhanbatu Selatan";"SUMATERA UTARA";"21464";"Indonesia";" 062495584";"";"";"1.949149";"100.0986449";"https://maps.google.com/?cid=0x0:0xfc602a435f0f240";""
"hotel";"hotel";"Permata Land Hotel  Resort";"Jl. Jend. Ahmad Yani No.133, Kartini, Kec. Rantau Utara, Kab. Labuhanbatu, Sumatera Utara 21411";"Kartini, Kec. Rantau Utara, Kab. Labuhanbatu";"SUMATERA UTARA";"21411";"Indonesia";" 082364407500";"";"";"2.0966402";"99.8336415";"https://maps.google.com/?cid=0x0:0x6ef11848e2651023";""
"hotel";"hotel";"SUZUYA HOTEL RANTAUPRAPAT";"Jl. Jend. Ahmad Yani, Rantauprapat, Kec. Rantau Utara, Kab. Labuhanbatu, Sumatera Utara 21411";"Rantauprapat, Kec. Rantau Utara, Kab. Labuhanbatu";"SUMATERA UTARA";"21411";"Indonesia";" 082360377987";"";"";"2.0974797";"99.8333174";"https://maps.google.com/?cid=0x0:0xbeee33753399aa2";""
"hotel";"hotel";"AHZA SYARIAH guest house";"Jl. Syukur, Kartini, Kec. Rantau Utara, Kab. Labuhanbatu, Sumatera Utara 21411";"Kartini, Kec. Rantau Utara, Kab. Labuhanbatu";"SUMATERA UTARA";"21411";"Indonesia";" 082169177040";"";"";"2.0975822";"99.8362281";"https://maps.google.com/?cid=0x0:0x9044beb33c26e24a";""
"hotel";"hotel";"Platinum Hotel Rantauprapat";"Jl. Jend. Ahmad Yani No.28, Bakaran Batu, Kec. Rantau Sel., Kab. Labuhanbatu, Sumatera Utara 21411";"Bakaran Batu, Kec. Rantau Sel., Kab. Labuhanbatu";"SUMATERA UTARA";"21411";"Indonesia";" 085262971383";"";"";"2.090235";"99.8419876";"https://maps.google.com/?cid=0x0:0x960596cea42e5129";""
"hotel";"hotel";"RedDoorz Syariah @ Wisma Kampung Baru Rantauprapat";"Kartini, Jl. Kp. Baru No.18, Rantauprapat, Kec. Rantau Utara, Kab. Labuhanbatu, Sumatera Utara 21411";"Jl. Kp. Baru No.18, Rantauprapat, Kec. Rantau Utara, Kab. Labuhanbatu";"SUMATERA UTARA";"21411";"Indonesia";" 0895417300072";"";"";"2.0980906";"99.8375611";"https://maps.google.com/?cid=0x0:0xd1d574404e9a8ca7";""
"hotel";"hotel";"N/A";"";"";"SUMATERA UTARA";"";"Indonesia";"";"";"";"";"";"https://maps.google.com/?cid=0x0:0xd1d574404e9a8ca7%7C/g/11j4f_2fsk%7Cen-ID";""
"hotel";"hotel";"D'Homestay Rantauprapat";"Jalan Ikabina, AB Jl. Kp. Baru No.6, Rantauprapat, Sumatera Utara 21412";"AB Jl. Kp. Baru No.6, Rantauprapat";"SUMATERA UTARA";"21412";"Indonesia";" 085361912474";"";"";"2.0971282";"99.8414255";"https://maps.google.com/?cid=0x0:0x9cd8fb3d69957bf2";""
"hotel";"hotel";"RedDoorz Syariah @ RPCC Rantauprapat";"Jl. Ika Bina No.6 AB, Rantauprapat, Kec. Rantau Sel., Kab. Labuhanbatu, Sumatera Utara 21411";"Rantauprapat, Kec. Rantau Sel., Kab. Labuhanbatu";"SUMATERA UTARA";"21411";"Indonesia";" 0895417300072";"";"";"2.0970135";"99.8411899";"https://maps.google.com/?cid=0x0:0x45cbbf2c49f19c98";""
"hotel";"hotel";"Green House";"Jl. Cemara Jl. Padang Matinggi No.122, Rantauprapat, Kec. Rantau Utara, Kab. Labuhanbatu, Sumatera Utara 21411";"Rantauprapat, Kec. Rantau Utara, Kab. Labuhanbatu";"SUMATERA UTARA";"21411";"Indonesia";" 0895417300072";"";"";"2.1117495";"99.8297782";"https://maps.google.com/?cid=0x0:0x12a508a05eb9d767";""
"hotel";"hotel";"N/A";"";"";"SUMATERA UTARA";"";"Indonesia";"";"";"";"";"";"https://maps.google.com/?cid=0x0:0x12a508a05eb9d767%7C/g/11n8p52dpj%7Cen-ID";""
"hotel";"hotel";"Hotel Istana IX";"Kota Pinang, Kec. Kota Pinang, Kab. Labuhanbatu Selatan, Sumatera Utara 21464";"Kec. Kota Pinang, Kab. Labuhanbatu Selatan";"SUMATERA UTARA";"21464";"Indonesia";" 081160600991";"";"";"1.896335";"100.0767925";"https://maps.google.com/?cid=0x0:0x3a9bdcb8f1ec40af";""
"hotel";"hotel";"NUANSA HOTEL";"Jl. SM. Raja No.15, Rantauprapat, Kec. Rantau Sel., Kab. Labuhanbatu, Sumatera Utara 22727";"Rantauprapat, Kec. Rantau Sel., Kab. Labuhanbatu";"SUMATERA UTARA";"22727";"Indonesia";" 085296901661";"";"";"2.0908764";"99.8424088";"https://maps.google.com/?cid=0x0:0x18316a4db5c6bca2";""
"hotel";"hotel";"Purba Margana Hotel  Resto";"Bandara, Aek Godang, Gunung tua, Kabupaten Padang Lawas Utara, Sumatera Utara 22740";"Aek Godang, Gunung tua, Kabupaten Padang Lawas Utara";"SUMATERA UTARA";"22740";"Indonesia";" 081319009123";"";"";"1.4081582";"99.4218092";"https://maps.google.com/?cid=0x0:0xb9d59df1456583ba";""
"hotel";"hotel";"Hotel Tio";"Jl. Lintas Sumatra, Perkebunan Perlabian, Kec. Kp. Rakyat, Kab. Labuhanbatu Selatan, Sumatera Utara 21451";"Perkebunan Perlabian, Kec. Kp. Rakyat, Kab. Labuhanbatu Selatan";"SUMATERA UTARA";"21451";"Indonesia";" 082164982859";"";"";"2.0336694";"100.0749602";"https://maps.google.com/?cid=0x0:0x2657f651132114c2";""
"hotel";"hotel";"N/A";"";"";"SUMATERA UTARA";"";"Indonesia";"";"";"";"";"";"https://maps.google.com/?cid=0x0:0xa1b95ba851f1cb96%7C/g/11b75j7ntx%7Cen-ID";""
"hotel";"hotel";"Hotel Silintong";"Tuktuk Siadong, Simanindo, Kabupaten Samosir, Sumatera Utara 22395";"Simanindo, Kabupaten Samosir";"SUMATERA UTARA";"22395";"Indonesia";" 0625451242";"";"";"2.6705399";"98.8615445";"https://maps.google.com/?cid=0x0:0xa1b95ba851f1cb96";""
"hotel";"hotel";"SUPER OYO 2200 Hotel Gunung Sari";"Jl. Imam Bonjol, Rantauprapat, Kec. Rantau Utara, Kab. Labuhanbatu, Sumatera Utara 21411";"Rantauprapat, Kec. Rantau Utara, Kab. Labuhanbatu";"SUMATERA UTARA";"21411";"Indonesia";" 02129707601";"";"";"2.099743";"99.825594";"https://maps.google.com/?cid=0x0:0x5a0be9e902b55f47";""
"hotel";"hotel";"N/A";"";"";"SUMATERA UTARA";"";"Indonesia";"";"";"";"";"";"https://maps.google.com/?cid=0x0:0x5a0be9e902b55f47%7C/g/11fm_mgqd0%7Cen-ID";""
"hotel";"hotel";"Hotel Terang";"3X6M+MV2, Pd. Batu, Kec. Bilah Hulu, Kab. Labuhanbatu, Sumatera Utara 21451";"Pd. Batu, Kec. Bilah Hulu, Kab. Labuhanbatu";"SUMATERA UTARA";"21451";"Indonesia";" 083178292665";"";"";"2.0616383";"99.984632";"https://maps.google.com/?cid=0x0:0x930a22b990ec8a12";""
"hotel";"hotel";"Wisma Putri Deli Hotel";"Rantau Prapat, Jl. SM. Raja No.65, Bakaran Batu, Kec. Rantau Sel., Kab. Labuhanbatu, Sumatera Utara 21411";"Jl. SM. Raja No.65, Bakaran Batu, Kec. Rantau Sel., Kab. Labuhanbatu";"SUMATERA UTARA";"21411";"Indonesia";" 062423188";"";"";"2.0890182";"99.8454004";"https://maps.google.com/?cid=0x0:0xc897e471a165a6e6";""
"hotel";"hotel";"Chantika Hotel Balige";"Sibola Hotangsas, Kec. Balige, Toba, Sumatera Utara 22312";"Kec. Balige, Toba";"SUMATERA UTARA";"22312";"Indonesia";" 085166904208";"";"";"2.3435246";"99.0788078";"https://maps.google.com/?cid=0x0:0xb026dc612f64ea18";""
"hotel";"hotel";"RedDoorz @ MCLOS Syariah Guest House Rantau Perapat";"3RXP+2FQ, Kartini, Kec. Rantau Utara, Kab. Labuhanbatu, Sumatera Utara 21411";"Kartini, Kec. Rantau Utara, Kab. Labuhanbatu";"SUMATERA UTARA";"21411";"Indonesia";" 0895417300072";"";"";"2.0975625";"99.8361875";"https://maps.google.com/?cid=0x0:0xbcf83be0bb2ac771";""
"hotel";"hotel";"Wisma Merlin";"Jl. Bilah No.1 A, Rantauprapat, Kec. Rantau Utara, Kab. Labuhanbatu, Sumatera Utara 21411";"Rantauprapat, Kec. Rantau Utara, Kab. Labuhanbatu";"SUMATERA UTARA";"21411";"Indonesia";" 085360213333";"";"";"2.0997687";"99.8291799";"https://maps.google.com/?cid=0x0:0x1d2b4fe83db58d52";""
"hotel";"hotel";"Hotel Sapadia Gunung Tua";"Simbolon, Kec. Padang Bolak, Kabupaten Padang Lawas Utara, Sumatera Utara 22753";"Kec. Padang Bolak, Kabupaten Padang Lawas Utara";"SUMATERA UTARA";"22753";"Indonesia";" 082163594606";"";"";"1.5341332";"99.6438225";"https://maps.google.com/?cid=0x0:0x405441509e803e6";""
"hotel";"hotel";"Hotel Lingga Mas";"Jl. Sisingamangaraja No.184, Parapat, Kec. Girsang Sipangan Bolon, Kabupaten Simalungun, Sumatera Utara 21174";"Parapat, Kec. Girsang Sipangan Bolon, Kabupaten Simalungun";"SUMATERA UTARA";"21174";"Indonesia";" 085166904208";"";"";"2.6667166";"98.9418343";"https://maps.google.com/?cid=0x0:0xdf10758850af94ef";""
"hotel";"hotel";"Wisma Niagara";"3RXH+7RP, Gg. Diponegoro, Rantauprapat, Kec. Rantau Utara, Kab. Labuhanbatu, Sumatera Utara 21411";"Gg. Diponegoro, Rantauprapat, Kec. Rantau Utara, Kab. Labuhanbatu";"SUMATERA UTARA";"21411";"Indonesia";" 085270075588";"";"";"2.0982249";"99.8295769";"https://maps.google.com/?cid=0x0:0xb87f5f1641142715";""
"hotel";"hotel";"wisma sunshine";"Jl. Urip Sumodiharjo, Bina Raga, Kec. Rantau Utara, Kab. Labuhanbatu, Sumatera Utara 21411";"Bina Raga, Kec. Rantau Utara, Kab. Labuhanbatu";"SUMATERA UTARA";"21411";"Indonesia";" 02129707601";"";"";"2.0972734";"99.826607";"https://maps.google.com/?cid=0x0:0xd9604aa1acdf1fae";""
"hotel";"hotel";"Sumatera Utara 21464";"Kab. Labuhanbatu Selatan, Sumatera Utara";"Kab. Labuhanbatu Selatan, Sumatera Utara";"SUMATERA UTARA";"";"Indonesia";"";"";"";"1.6877896";"100.2151578";"https://maps.google.com/?cid=0x0:0xcb75493cd4919ca3";""
"hotel";"hotel";"Suzuya Plaza Hotel, Bagan Batu";"Jl. Jenderal Sudirman, Bagan Batu, Kec. Bagan Sinembah, Kabupaten Rokan Hilir, Riau 28892";"Bagan Batu, Kec. Bagan Sinembah, Kabupaten Rokan Hilir";"SUMATERA UTARA";"28892";"Indonesia";" 081271825433";"";"";"1.7100599";"100.396066";"https://maps.google.com/?cid=0x0:0x6bce877f70d0e317";""
"hotel";"hotel";"Hotel Grand Suma";"W3XX+MF2, Sisumut, Kec. Kota Pinang, Kab. Labuhanbatu Selatan, Sumatera Utara 21464";"Sisumut, Kec. Kota Pinang, Kab. Labuhanbatu Selatan";"SUMATERA UTARA";"21464";"Indonesia";" 062495584";"";"";"1.949149";"100.0986449";"https://maps.google.com/?cid=0x0:0xfc602a435f0f240";""
"hotel";"hotel";"RedDoorz Syariah @ Wisma Kampung Baru Rantauprapat";"Kartini, Jl. Kp. Baru No.18, Rantauprapat, Kec. Rantau Utara, Kab. Labuhanbatu, Sumatera Utara 21411";"Jl. Kp. Baru No.18, Rantauprapat, Kec. Rantau Utara, Kab. Labuhanbatu";"SUMATERA UTARA";"21411";"Indonesia";" 0895417300072";"";"";"2.0980906";"99.8375611";"https://maps.google.com/?cid=0x0:0xd1d574404e9a8ca7";""
"hotel";"hotel";"N/A";"";"";"SUMATERA UTARA";"";"Indonesia";"";"";"";"";"";"https://maps.google.com/?cid=0x0:0xd1d574404e9a8ca7%7C/g/11j4f_2fsk%7Cen-ID";""
"hotel";"hotel";"Hotel Istana IX";"Kota Pinang, Kec. Kota Pinang, Kab. Labuhanbatu Selatan, Sumatera Utara 21464";"Kec. Kota Pinang, Kab. Labuhanbatu Selatan";"SUMATERA UTARA";"21464";"Indonesia";" 081160600991";"";"";"1.896335";"100.0767925";"https://maps.google.com/?cid=0x0:0x3a9bdcb8f1ec40af";""
"hotel";"hotel";"Hotel Tio";"Jl. Lintas Sumatra, Perkebunan Perlabian, Kec. Kp. Rakyat, Kab. Labuhanbatu Selatan, Sumatera Utara 21451";"Perkebunan Perlabian, Kec. Kp. Rakyat, Kab. Labuhanbatu Selatan";"SUMATERA UTARA";"21451";"Indonesia";" 082164982859";"";"";"2.0336694";"100.0749602";"https://maps.google.com/?cid=0x0:0x2657f651132114c2";""
"hotel";"hotel";"Wisma Teratai Mas Bagan Batu";"Jl. Jenderal Sudirman No.km.1, Bagan Batu, Kec. Torgamba, Kab. Labuhanbatu Selatan, Riau 28992";"Bagan Batu, Kec. Torgamba, Kab. Labuhanbatu Selatan";"SUMATERA UTARA";"28992";"Indonesia";" 082362204637";"";"";"1.6965785";"100.4095425";"https://maps.google.com/?cid=0x0:0xe182ee246101218e";""
"hotel";"hotel";"Hotel Permata Warna";"Jalan Pejuang No.45, East Aek Kanopan, Kualuh Hulu, North Labuhan Batu Regency, North Sumatra 21273";"East Aek Kanopan, Kualuh Hulu, North Labuhan Batu Regency";"SUMATERA UTARA";"21273";"Indonesia";" 06246941747";"";"";"2.571314";"99.6529359";"https://maps.google.com/?cid=0x0:0x43e3f04a33101711";""
"hotel";"hotel";"Purba Margana Hotel  Resto";"Bandara, Aek Godang, Gunung tua, Kabupaten Padang Lawas Utara, Sumatera Utara 22740";"Aek Godang, Gunung tua, Kabupaten Padang Lawas Utara";"SUMATERA UTARA";"22740";"Indonesia";" 081319009123";"";"";"1.4081582";"99.4218092";"https://maps.google.com/?cid=0x0:0xb9d59df1456583ba";""
"hotel";"hotel";"Simarmata Hotel  Cafe";"Perdagangan, Jl. Rajamin Purba, Kabupaten Simalungun, Sumatera Utara 21184";"Jl. Rajamin Purba, Kabupaten Simalungun";"SUMATERA UTARA";"21184";"Indonesia";" 087897968197";"";"";"3.1609207";"99.3145783";"https://maps.google.com/?cid=0x0:0x3bed9071c0e9d507";""
"hotel";"hotel";"SUPER OYO 2200 Hotel Gunung Sari";"Jl. Imam Bonjol, Rantauprapat, Kec. Rantau Utara, Kab. Labuhanbatu, Sumatera Utara 21411";"Rantauprapat, Kec. Rantau Utara, Kab. Labuhanbatu";"SUMATERA UTARA";"21411";"Indonesia";" 02129707601";"";"";"2.099743";"99.825594";"https://maps.google.com/?cid=0x0:0x5a0be9e902b55f47";""
"hotel";"hotel";"N/A";"";"";"SUMATERA UTARA";"";"Indonesia";"";"";"";"";"";"https://maps.google.com/?cid=0x0:0x5a0be9e902b55f47%7C/g/11fm_mgqd0%7Cen-ID";""
"hotel";"hotel";"Dhaksina Hotel";"Jl. Sisingamangaraja No.20, RT.02/RW.02, Mesjid, Kec. Medan Kota, Kota Medan, Sumatera Utara 20213";"RT.02/RW.02, Mesjid, Kec. Medan Kota, Kota Medan";"SUMATERA UTARA";"20213";"Indonesia";" 0617320000";"";"";"3.5781335";"98.6864112";"https://maps.google.com/?cid=0x0:0x19d68a5c7ad5c8ea";""
"hotel";"hotel";"N/A";"";"";"SUMATERA UTARA";"";"Indonesia";"";"";"";"";"";"https://maps.google.com/?cid=0x0:0x19d68a5c7ad5c8ea%7C/g/1tf91hx5%7Cen-ID";""
"hotel";"hotel";"Hotel Ajiziah";"Jl. Lintas Sumatra No.16, Damuli Pekan, Kec. Kualuh Sel., Kabupaten Labuhanbatu Utara, Sumatera Utara 21457";"Damuli Pekan, Kec. Kualuh Sel., Kabupaten Labuhanbatu Utara";"SUMATERA UTARA";"21457";"Indonesia";" 081374040007";"";"";"2.5069981";"99.6337277";"https://maps.google.com/?cid=0x0:0x6ebf63839f857f4e";""
"hotel";"hotel";"Hotel Terang";"3X6M+MV2, Pd. Batu, Kec. Bilah Hulu, Kab. Labuhanbatu, Sumatera Utara 21451";"Pd. Batu, Kec. Bilah Hulu, Kab. Labuhanbatu";"SUMATERA UTARA";"21451";"Indonesia";" 083178292665";"";"";"2.0616383";"99.984632";"https://maps.google.com/?cid=0x0:0x930a22b990ec8a12";""
"hotel";"hotel";"Wilgan Hotel";"79X2+VJ6, Sipare-Pare, Kec. Air Putih, Kabupaten Batu Bara, Sumatera Utara 21257";"Sipare-Pare, Kec. Air Putih, Kabupaten Batu Bara";"SUMATERA UTARA";"21257";"Indonesia";" 085362215943";"";"";"3.2996586";"99.3515227";"https://maps.google.com/?cid=0x0:0x7a374e542c606eae";""
"hotel";"hotel";"Hotel Cahaya Baru";"9PV2+PJC, Bandar Durian, Kec. Aek Natas, Kabupaten Labuhanbatu Utara, Sumatera Utara 21455";"Bandar Durian, Kec. Aek Natas, Kabupaten Labuhanbatu Utara";"SUMATERA UTARA";"21455";"Indonesia";" 082366883304";"";"";"2.3943004";"99.701522";"https://maps.google.com/?cid=0x0:0xa02a390c094baa5f";""
"hotel";"hotel";"Hotel JSN ULOS";"Jl. Jenderal Sudirman No.12, Aek Kanopan Tim., Kec. Kualuh Hulu, Kabupaten Labuhanbatu Utara, Sumatera Utara 21273";"Aek Kanopan Tim., Kec. Kualuh Hulu, Kabupaten Labuhanbatu Utara";"SUMATERA UTARA";"21273";"Indonesia";"";"";"";"2.5775751";"99.6526209";"https://maps.google.com/?cid=0x0:0xb9d59a623b1548a";""
"hotel";"hotel";"TR INN (Penginapan KELUARGA)";"5 menit dari Simpang 3, Aek Popo, Jalan Lintas Jl. Raya Merek-Sidikalang No.5, Kec. Merek, Kabupaten Karo, Sumatera Utara 22173";"Aek Popo, Jalan Lintas Jl. Raya Merek-Sidikalang No.5, Kec. Merek, Kabupaten Karo";"SUMATERA UTARA";"22173";"Indonesia";" 081397007796";"";"";"2.931705";"98.4985882";"https://maps.google.com/?cid=0x0:0x4fbb8ae97816eb87";""
"hotel";"hotel";"Hotel Arkemo 3";"Jl. Lintas Sumatra, Tanah Tinggi, Kec. Air Putih, Kabupaten Batu Bara, Sumatera Utara 21256";"Tanah Tinggi, Kec. Air Putih, Kabupaten Batu Bara";"SUMATERA UTARA";"21256";"Indonesia";" 082365048276";"";"";"3.2625746";"99.3777782";"https://maps.google.com/?cid=0x0:0x6a749a4520b342ec";""
"hotel";"hotel";"OYO 90834 Hotel Anugrah";"99, Aek Kanopan, Labuhanbatu Utara, Sumatera Utara, Rantauprapat, Sumatera Utara 21273";"Aek Kanopan, Labuhanbatu Utara, Sumatera Utara, Rantauprapat";"SUMATERA UTARA";"21273";"Indonesia";" 02129707601";"";"";"2.5811219";"99.6556867";"https://maps.google.com/?cid=0x0:0x6d9d43a86b236831";""
"hotel";"hotel";"SUZUYA HOTEL RANTAUPRAPAT";"Jl. Jend. Ahmad Yani, Rantauprapat, Kec. Rantau Utara, Kab. Labuhanbatu, Sumatera Utara 21411";"Rantauprapat, Kec. Rantau Utara, Kab. Labuhanbatu";"SUMATERA UTARA";"21411";"Indonesia";" 082360377987";"";"";"2.0974797";"99.8333174";"https://maps.google.com/?cid=0x0:0xbeee33753399aa2";""
"hotel";"hotel";"OYO 90979 Ryfana Residence Syariah";"3RXQ+G2F, Kartini, Bakaran Batu, Rantauprapat, North Sumatra 21411";"Kartini, Bakaran Batu, Rantauprapat";"SUMATERA UTARA";"21411";"Indonesia";" 08041040040";"";"";"2.098819";"99.837554";"https://maps.google.com/?cid=0x0:0x1a92269927e8de2";""
"hotel";"hotel";"RPS Hotel";"JX2P+6F6, Banjar XII, Kec. Tanah Putih, Kabupaten Rokan Hilir, Riau 28953";"Banjar XII, Kec. Tanah Putih, Kabupaten Rokan Hilir";"SUMATERA UTARA";"28953";"Indonesia";"";"";"";"1.6005458";"100.9861311";"https://maps.google.com/?cid=0x0:0x31f5334e33b23241";""
"hotel";"hotel";"Wisma Niagara";"3RXH+7RP, Gg. Diponegoro, Rantauprapat, Kec. Rantau Utara, Kab. Labuhanbatu, Sumatera Utara 21411";"Gg. Diponegoro, Rantauprapat, Kec. Rantau Utara, Kab. Labuhanbatu";"SUMATERA UTARA";"21411";"Indonesia";" 085270075588";"";"";"2.0982249";"99.8295769";"https://maps.google.com/?cid=0x0:0xb87f5f1641142715";""
"hotel";"hotel";"Hotel Arkemo Balam km 17";"Bangko Bakti, Kec. Bangko Pusako, Kabupaten Rokan Hilir, Riau 28992";"Kec. Bangko Pusako, Kabupaten Rokan Hilir";"SUMATERA UTARA";"28992";"Indonesia";" 082361946675";"";"";"1.6813464";"100.7375668";"https://maps.google.com/?cid=0x0:0x7ef277fea49d84a5";""
"restaurant";"restaurant";"Sumatera Utara 21463";"Kec. Kp. Rakyat, Kab. Labuhanbatu Selatan, Sumatera Utara";"Kab. Labuhanbatu Selatan, Sumatera Utara";"SUMATERA UTARA";"";"Indonesia";"";"";"";"2.0724054";"100.2151578";"https://maps.google.com/?cid=0x0:0x8873c7c00b422839";""
"restaurant";"Pangsit";"L.A DIMSUM CAFE  RESTO";"W6QW+G3V, Kebun Tlk. Panji, Kec. Kp. Rakyat, Kab. Labuhanbatu Selatan, Sumatera Utara 21463";"Kebun Tlk. Panji, Kec. Kp. Rakyat, Kab. Labuhanbatu Selatan";"SUMATERA UTARA";"21463";"Indonesia";" 082276211023";"";"";"1.9388748";"100.2451783";"https://maps.google.com/?cid=0x0:0xd01338dcc5d04293";""
"restaurant";"Kafe";"RM. Base Camp";"W6FH+FQ5, Unnamed Road, Kebun Teluk Panji, Kampung Rakyat, South Labuhan Batu Regency, North Sumatra 21463";"Unnamed Road, Kebun Teluk Panji, Kampung Rakyat, South Labuhan Batu Regency";"SUMATERA UTARA";"21463";"Indonesia";"";"";"";"1.9236256";"100.2294771";"https://maps.google.com/?cid=0x0:0x4b49147990cb9278";""
"restaurant";"Restoran";"Rumah makan holat";"23GW+GQQ, Dusun bukit, Pekan Tolan, Kec. Kp. Rakyat, Kab. Labuhanbatu Selatan, Sumatera Utara";"Kab. Labuhanbatu Selatan, Sumatera Utara";"SUMATERA UTARA";"";"Indonesia";"";"";"";"2.0263304";"100.0969945";"https://maps.google.com/?cid=0x0:0xa747d315a13054be";""
"restaurant";"Padang";"Rm. Bunda Kandung";"23MG+4WP, Perkebunan Perlabian, Kec. Kp. Rakyat, Kab. Labuhanbatu Selatan, Sumatera Utara 21463";"Perkebunan Perlabian, Kec. Kp. Rakyat, Kab. Labuhanbatu Selatan";"SUMATERA UTARA";"21463";"Indonesia";"";"";"";"2.0328301";"100.0773252";"https://maps.google.com/?cid=0x0:0x3f298dd384237a47";""
"restaurant";"Brunch";"Rm.Tarigan 88";"2422+79V, Jl. Lintas Sumatra, Pekan Tolan, Kec. Kp. Rakyat, Kab. Labuhanbatu Selatan, Sumatera Utara 21463";"Jl. Lintas Sumatra, Pekan Tolan, Kec. Kp. Rakyat, Kab. Labuhanbatu Selatan";"SUMATERA UTARA";"21463";"Indonesia";"";"";"";"2.0007472";"100.1009233";"https://maps.google.com/?cid=0x0:0x9f7724a22592a229";""
"restaurant";"Bakso";"Bakso GL 83 # Pertamni";"6782+8F8 Malinda, Jalan, Tanjung Mulia, Kampung Rakyat, South Labuhan Batu Regency, North Sumatra 21463";"Jalan, Tanjung Mulia, Kampung Rakyat, South Labuhan Batu Regency";"SUMATERA UTARA";"21463";"Indonesia";" 081263158516";"";"";"2.2157999";"100.2512053";"https://maps.google.com/?cid=0x0:0x15c40deae2193fe5";""
"restaurant";"Rumah Makan";"Home Kitchen Family";"344Q+WQ6, Jl. Beringin, Tj. Medan, Kec. Kp. Rakyat, Kab. Labuhanbatu Selatan, Sumatera Utara 21463";"Jl. Beringin, Tj. Medan, Kec. Kp. Rakyat, Kab. Labuhanbatu Selatan";"SUMATERA UTARA";"21463";"Indonesia";" 082365142357";"";"";"2.0572976";"100.13938";"https://maps.google.com/?cid=0x0:0x59d49cf2987ccb37";""
"restaurant";"Restoran";"Warung Rizqi";"X7JC+R59, Tlk. Panji II, Kec. Kp. Rakyat, Kab. Labuhanbatu Selatan, Sumatera Utara 21463";"Tlk. Panji II, Kec. Kp. Rakyat, Kab. Labuhanbatu Selatan";"SUMATERA UTARA";"21463";"Indonesia";" 081263262854";"";"";"1.9820284";"100.270484";"https://maps.google.com/?cid=0x0:0xfc69aad3af3d483c";""
"restaurant";"Padang";"Azizah Street Food";"W6QV+PG4, Kebun Tlk. Panji, Kec. Kp. Rakyat, Kab. Labuhanbatu Selatan, Sumatera Utara 21463";"Kebun Tlk. Panji, Kec. Kp. Rakyat, Kab. Labuhanbatu Selatan";"SUMATERA UTARA";"21463";"Indonesia";" 082273019843";"";"";"1.9386808";"100.2428106";"https://maps.google.com/?cid=0x0:0x905b7bcc2401b887";""
"restaurant";"Padang";"RM.Salero Basamo";"34CV+56V, Jl. Tj. Medan - Tj. Mulia, Tj. Mulia, Kec. Kp. Rakyat, Kab. Labuhanbatu Selatan, Sumatera Utara 21463";"Jl. Tj. Medan - Tj. Mulia, Tj. Mulia, Kec. Kp. Rakyat, Kab. Labuhanbatu Selatan";"SUMATERA UTARA";"21463";"Indonesia";"";"";"";"2.0704788";"100.1430577";"https://maps.google.com/?cid=0x0:0xff2be5721a099ff4";""
"restaurant";"Restoran";"Rm. Salero Basamo jalan besar sidodadi, perkebunan teluk panji";"Jl. Besar Sidodadi perkebunan, Tlk. Panji I, Kec. Kp. Rakyat, Kab. Labuhanbatu Selatan, Sumatera Utara 21463";"Tlk. Panji I, Kec. Kp. Rakyat, Kab. Labuhanbatu Selatan";"SUMATERA UTARA";"21463";"Indonesia";" 082164585850";"";"";"1.9451679";"100.2501459";"https://maps.google.com/?cid=0x0:0xeb2b38633e2edf31";""
"restaurant";"Padang";"Waroeng Ajo Salero Basomo";"24QP+44G, Tj. Medan, Kec. Kp. Rakyat, Kab. Labuhanbatu Selatan, Sumatera Utara 21463";"Tj. Medan, Kec. Kp. Rakyat, Kab. Labuhanbatu Selatan";"SUMATERA UTARA";"21463";"Indonesia";"";"";"";"2.0378141";"100.135335";"https://maps.google.com/?cid=0x0:0xe455115038785815";""
"restaurant";"Restoran";"Rumah makan Saudara";"Kp. Tlk. Panji, Kec. Kp. Rakyat, Kab. Labuhanbatu Selatan, Sumatera Utara 21463";"Kec. Kp. Rakyat, Kab. Labuhanbatu Selatan";"SUMATERA UTARA";"21463";"Indonesia";" 085360073345";"";"";"2.0225952";"100.1894691";"https://maps.google.com/?cid=0x0:0xbd44204221181c3f";""
"restaurant";"Dapur Umum";"Bakso Cari Jodoh";"W7W5+3HG, Unnamed Road, Kebun Tlk. Panji, Kec. Kp. Rakyat, Kab. Labuhanbatu Selatan, Sumatera Utara 21463";"Unnamed Road, Kebun Tlk. Panji, Kec. Kp. Rakyat, Kab. Labuhanbatu Selatan";"SUMATERA UTARA";"21463";"Indonesia";" 081361378661";"";"";"1.9451969";"100.2589457";"https://maps.google.com/?cid=0x0:0x396f49984171d6a1";""
"restaurant";"Kafe";"Cafe Pondok Santai";"Dusun I Sidodadi, Kebun Tlk. Panji, Kec. Kp. Rakyat, Kab. Labuhanbatu Selatan, Sumatera Utara 21463";"Kebun Tlk. Panji, Kec. Kp. Rakyat, Kab. Labuhanbatu Selatan";"SUMATERA UTARA";"21463";"Indonesia";" 085370960483";"";"";"1.9457732";"100.2450684";"https://maps.google.com/?cid=0x0:0xaef7bee4dc2c6c49";""
"restaurant";"Restoran";"Warung Pecal Buk Mira";"W7V7+XCF, Jalan Besar Sidodadi, Kebun Tlk. Panji, Kec. Kp. Rakyat, Kab. Labuhanbatu Selatan, Sumatera Utara 21463";"Jalan Besar Sidodadi, Kebun Tlk. Panji, Kec. Kp. Rakyat, Kab. Labuhanbatu Selatan";"SUMATERA UTARA";"21463";"Indonesia";" 082274674343";"";"";"1.9449367";"100.2635479";"https://maps.google.com/?cid=0x0:0x57dc9679719c8ed4";""
"restaurant";"Restoran";"Warung Risma SP.3";"Jl Poros No.Km.2, Tlk. Panji III, Kec. Kp. Rakyat, Kab. Labuhanbatu Selatan, Sumatera Utara 21464";"Tlk. Panji III, Kec. Kp. Rakyat, Kab. Labuhanbatu Selatan";"SUMATERA UTARA";"21464";"Indonesia";" 081281373678";"";"";"1.9900024";"100.2768388";"https://maps.google.com/?cid=0x0:0x73fa6bb9fec1ab4b";""
"restaurant";"Padang";"RUMAH MAKAN AJO ASKA PUTRA MINANG";"345Q+RHX, Jl. Tj. Medan - Tj. Mulia, Tj. Mulia, Kec. Kp. Rakyat, Kab. Labuhanbatu Selatan, Sumatera Utara 21463";"Jl. Tj. Medan - Tj. Mulia, Tj. Mulia, Kec. Kp. Rakyat, Kab. Labuhanbatu Selatan";"SUMATERA UTARA";"21463";"Indonesia";"";"";"";"2.0596234";"100.1389957";"https://maps.google.com/?cid=0x0:0xc78efec2c0f9adaf";""
"restaurant";"Restoran";"Rumah Makan Sari Ganda";"27Q9+4H9, Unnamed Road, Kp. Tlk. Panji, Kec. Kp. Rakyat, Kab. Labuhanbatu Selatan, Sumatera Utara 21463";"Unnamed Road, Kp. Tlk. Panji, Kec. Kp. Rakyat, Kab. Labuhanbatu Selatan";"SUMATERA UTARA";"21463";"Indonesia";"";"";"";"2.0377964";"100.2689748";"https://maps.google.com/?cid=0x0:0x8c4c5799e4ac04c9";""
"restaurant";"Betawi";"Nasi Uduk 3 Putra";"23GW+MPW, Jl. Lintas Sumatra, Pekan Tolan, Kec. Kp. Rakyat, Kab. Labuhanbatu Selatan, Sumatera Utara 21463";"Jl. Lintas Sumatra, Pekan Tolan, Kec. Kp. Rakyat, Kab. Labuhanbatu Selatan";"SUMATERA UTARA";"21463";"Indonesia";"";"";"";"2.0267327";"100.0968211";"https://maps.google.com/?cid=0x0:0x437d0678b80fbe5b";""
"restaurant";"Rumah Makan";"RUMAH MAKAN TETI";"46CV+9FW, Jl. Tj. Medan - Tj. Mulia, Tj. Mulia, Kec. Kp. Rakyat, Kab. Labuhanbatu Selatan, Sumatera Utara 21463";"Jl. Tj. Medan - Tj. Mulia, Tj. Mulia, Kec. Kp. Rakyat, Kab. Labuhanbatu Selatan";"SUMATERA UTARA";"21463";"Indonesia";" 081362959011";"";"";"2.1209785";"100.2437014";"https://maps.google.com/?cid=0x0:0x9e44f2368d9b5f67";""
"restaurant";"Nasi";"Kantin RISMA Al Hidayah";"27Q9+FFW, Kp. Tlk. Panji, Kec. Kp. Rakyat, Kab. Labuhanbatu Selatan, Sumatera Utara 21463";"Kp. Tlk. Panji, Kec. Kp. Rakyat, Kab. Labuhanbatu Selatan";"SUMATERA UTARA";"21463";"Indonesia";"";"";"";"2.0387716";"100.2685883";"https://maps.google.com/?cid=0x0:0xd51a9a96a40be132";""
"restaurant";"Kafe";"RUMAH MAKAN UNI≫";"W6QP+977, Jl. Besar Tlk. Panji, Kebun Tlk. Panji, Kec. Kp. Rakyat, Kab. Labuhanbatu Selatan, Sumatera Utara 21464";"Jl. Besar Tlk. Panji, Kebun Tlk. Panji, Kec. Kp. Rakyat, Kab. Labuhanbatu Selatan";"SUMATERA UTARA";"21464";"Indonesia";"";"";"";"1.9384228";"100.2356696";"https://maps.google.com/?cid=0x0:0xe8dcd57bb5b5d69e";""
"restaurant";"Rumah Makan";"Jalur Hijau Estate";"6742+5CC Malinda, Jalan, Tanjung Mulia, Kampung Rakyat, South Labuhan Batu Regency, North Sumatra 21463";"Jalan, Tanjung Mulia, Kampung Rakyat, South Labuhan Batu Regency";"SUMATERA UTARA";"21463";"Indonesia";" 082161313553";"";"";"2.2054276";"100.251025";"https://maps.google.com/?cid=0x0:0xe58dfc953e45c582";""
"restaurant";"Dapur Umum";"Fast Food Restaurant";"W6QV+HRP, Jl. Besar Sidodadi Dusun IV, Kebun Tlk. Panji, Kec. Kp. Rakyat, Kab. Labuhanbatu Selatan, Sumatera Utara 21463";"Jl. Besar Sidodadi Dusun IV, Kebun Tlk. Panji, Kec. Kp. Rakyat, Kab. Labuhanbatu Selatan";"SUMATERA UTARA";"21463";"Indonesia";"";"";"";"1.9389526";"100.2445875";"https://maps.google.com/?cid=0x0:0x9575990125e67b51";""
"restaurant";"restaurant";"Kec. Kota Pinang";"Kab. Labuhanbatu Selatan, Sumatera Utara";"Kab. Labuhanbatu Selatan, Sumatera Utara";"SUMATERA UTARA";"";"Indonesia";"";"";"";"1.8906527";"100.0900259";"https://maps.google.com/?cid=0x0:0xf9d36fe53f57ed24";""
"restaurant";"Sesuai untuk keluarga";"Rumah Makan Nusantara";"Jl. Lintas Sumatra No.77, Kota Pinang, Kec. Kota Pinang, Kab. Labuhanbatu Selatan, Sumatera Utara 21464";"Kota Pinang, Kec. Kota Pinang, Kab. Labuhanbatu Selatan";"SUMATERA UTARA";"21464";"Indonesia";"";"";"";"1.890326";"100.0909729";"https://maps.google.com/?cid=0x0:0xe43fc0b498b74f72";""
"restaurant";"Restoran";"Rumah makan khas Batak Samosir Jalinsum Kotapinang";"Jl. Lintas Sumatra, Kota Pinang, Kec. Kota Pinang, Kab. Labuhanbatu Selatan, Sumatera Utara 21464";"Kota Pinang, Kec. Kota Pinang, Kab. Labuhanbatu Selatan";"SUMATERA UTARA";"21464";"Indonesia";" 081260144799";"";"";"1.8873391";"100.1232498";"https://maps.google.com/?cid=0x0:0xc15fd8cc50924a10";""
"restaurant";"Restoran";"PONDOK APUNG";"Kota Pinang, Kec. Kota Pinang, Kab. Labuhanbatu Selatan, Sumatera Utara 21464";"Kec. Kota Pinang, Kab. Labuhanbatu Selatan";"SUMATERA UTARA";"21464";"Indonesia";" 081263642327";"";"";"1.9188023";"100.0989847";"https://maps.google.com/?cid=0x0:0x30f938c090b8ed86";""
"restaurant";"Padang";"Mie Neraka";"Jl. Jend. Ahmad Yani, Kota Pinang, Kec. Kota Pinang, Kab. Labuhanbatu Selatan, Sumatera Utara 21464";"Kota Pinang, Kec. Kota Pinang, Kab. Labuhanbatu Selatan";"SUMATERA UTARA";"21464";"Indonesia";"";"";"";"1.8929661";"100.0920702";"https://maps.google.com/?cid=0x0:0x6bf4c646a7a77245";""
"restaurant";"Padang";"Rumah makan holat Mita br sakibung";"W34Q+8CW, Kota Pinang, Kec. Kota Pinang, Kab. Labuhanbatu Selatan, Sumatera Utara 21464";"Kota Pinang, Kec. Kota Pinang, Kab. Labuhanbatu Selatan";"SUMATERA UTARA";"21464";"Indonesia";" 082168782505";"";"";"1.9058518";"100.0885821";"https://maps.google.com/?cid=0x0:0xdd69803cde81c06";""
"restaurant";"Kedai Kopi";"Cafe Dozer";"No.77, Jl. Lintas Sumatra, Pinang City, Kota Pinang, South Labuhan Batu Regency, North Sumatra 21464";"Jl. Lintas Sumatra, Pinang City, Kota Pinang, South Labuhan Batu Regency";"SUMATERA UTARA";"21464";"Indonesia";"";"";"";"1.8952692";"100.0836376";"https://maps.google.com/?cid=0x0:0x25d0375cd20609e2";""
"restaurant";"Padang";"Rumah Makan Salero Basamo";"Jl. Mitra Halim, Kota Pinang, Kec. Kota Pinang, Kab. Labuhanbatu Selatan, Sumatera Utara 21464";"Kota Pinang, Kec. Kota Pinang, Kab. Labuhanbatu Selatan";"SUMATERA UTARA";"21464";"Indonesia";"";"";"";"1.9030163";"100.087198";"https://maps.google.com/?cid=0x0:0xa715c20d754fa7c2";""
"restaurant";"Kedai Kopi";"Resto Pinang";"V3WM+9GQ, Kota Pinang, Kec. Kota Pinang, Kab. Labuhanbatu Selatan, Sumatera Utara 21464";"Kota Pinang, Kec. Kota Pinang, Kab. Labuhanbatu Selatan";"SUMATERA UTARA";"21464";"Indonesia";"";"";"";"1.8959509";"100.0838567";"https://maps.google.com/?cid=0x0:0x51efd59bfba486fa";""
"restaurant";"Padang";"Rumah Makan Rizky Aulia";"V4R2+9F3, Kota Pinang, Kec. Kota Pinang, Kab. Labuhanbatu Selatan, Sumatera Utara 21464";"Kota Pinang, Kec. Kota Pinang, Kab. Labuhanbatu Selatan";"SUMATERA UTARA";"21464";"Indonesia";"";"";"";"1.8908912";"100.1011816";"https://maps.google.com/?cid=0x0:0xf77d1163b84cd089";""
"restaurant";"Restoran";"Rumah Makan Azizah";"Jl. Lintas Sumatra, Kota Pinang, Kec. Kota Pinang, Kab. Labuhanbatu Selatan, Sumatera Utara 21464";"Kota Pinang, Kec. Kota Pinang, Kab. Labuhanbatu Selatan";"SUMATERA UTARA";"21464";"Indonesia";"";"";"";"1.8898455";"100.0952413";"https://maps.google.com/?cid=0x0:0xf086784e12fae961";""
"restaurant";"Sesuai untuk keluarga";"Restoran Sudi Mampir";"W3XX+QHQ, Sisumut, Kec. Kota Pinang, Kab. Labuhanbatu Selatan, Sumatera Utara 21464";"Sisumut, Kec. Kota Pinang, Kab. Labuhanbatu Selatan";"SUMATERA UTARA";"21464";"Indonesia";"";"";"";"1.9494667";"100.098974";"https://maps.google.com/?cid=0x0:0xd2de9ccf6dd2d6c4";""
"restaurant";"Kafe";"E Club Restaurant";"Jl. Lintas Sumatra No.16, Kota Pinang, Kec. Kota Pinang, Kab. Labuhanbatu Selatan, Sumatera Utara 21464";"Kota Pinang, Kec. Kota Pinang, Kab. Labuhanbatu Selatan";"SUMATERA UTARA";"21464";"Indonesia";" 082167693578";"";"";"1.8959063";"100.0842067";"https://maps.google.com/?cid=0x0:0x9b324efaabc68e13";""
"restaurant";"Restoran";"Rumah Makan Padang Serba Nikmat";"Jl. Jenderal Sudirman No.77, Kota Pinang, Kec. Kota Pinang, Kab. Labuhanbatu Selatan, Sumatera Utara 21464";"Kota Pinang, Kec. Kota Pinang, Kab. Labuhanbatu Selatan";"SUMATERA UTARA";"21464";"Indonesia";" 081260558395";"";"";"1.8912196";"100.0883478";"https://maps.google.com/?cid=0x0:0xf7b2af53773210c2";""
"restaurant";"Padang";"RM Ananda";"X432+CQV, Sisumut, Kec. Kota Pinang, Kab. Labuhanbatu Selatan, Sumatera Utara 21464";"Sisumut, Kec. Kota Pinang, Kab. Labuhanbatu Selatan";"SUMATERA UTARA";"21464";"Indonesia";" 081366813223";"";"";"1.9536012";"100.1019173";"https://maps.google.com/?cid=0x0:0x800d38d8c26c9642";""
"restaurant";"Restoran";"Kota pinang,labuhan batu Selatan";"V3WM+X7P, Kota Pinang, Kec. Kota Pinang, Kab. Labuhanbatu Selatan, Sumatera Utara";"Kab. Labuhanbatu Selatan, Sumatera Utara";"SUMATERA UTARA";"";"Indonesia";"";"";"";"1.897467";"100.0831989";"https://maps.google.com/?cid=0x0:0x541d346d710846bb";""
"restaurant";"Restoran";"Rumah Makan Terong Sombom";"R2R8+QPQ, Jl. Kota Pinang - Gunung Tua, Mampang, Kec. Kota Pinang, Kab. Labuhanbatu Selatan, Sumatera Utara 21464";"Jl. Kota Pinang - Gunung Tua, Mampang, Kec. Kota Pinang, Kab. Labuhanbatu Selatan";"SUMATERA UTARA";"21464";"Indonesia";"";"";"";"1.8419733";"100.0168733";"https://maps.google.com/?cid=0x0:0x4b120c5eccec674b";""
"restaurant";"Restoran";"Waroeng Wanda";"V3WP+PQG, Jl. Perjuangan, Kota Pinang, Kec. Kota Pinang, Kab. Labuhanbatu Selatan, Sumatera Utara 21464";"Jl. Perjuangan, Kota Pinang, Kec. Kota Pinang, Kab. Labuhanbatu Selatan";"SUMATERA UTARA";"21464";"Indonesia";"";"";"";"1.8968108";"100.0869429";"https://maps.google.com/?cid=0x0:0x56278fbf9a2586ee";""
"restaurant";"Padang";"Rumah Makan Pagi Sore";"Jl. Jenderal Sudirman No.07, Kota Pinang, Kec. Kota Pinang, Kab. Labuhanbatu Selatan, Sumatera Utara 21464";"Kota Pinang, Kec. Kota Pinang, Kab. Labuhanbatu Selatan";"SUMATERA UTARA";"21464";"Indonesia";" 085370493517";"";"";"1.8902449";"100.0912143";"https://maps.google.com/?cid=0x0:0x6f07575870c74ec8";""
"restaurant";"Dapur Umum";"Bakso Barokah Blok Songo";"W3QV+HHQ, Jl. Lintas Sumatra, Perk Sei Rumbia, Kec. Kota Pinang, Kab. Labuhanbatu Selatan, Sumatera Utara 21464";"Jl. Lintas Sumatra, Perk Sei Rumbia, Kec. Kota Pinang, Kab. Labuhanbatu Selatan";"SUMATERA UTARA";"21464";"Indonesia";"";"";"";"1.938965";"100.0939812";"https://maps.google.com/?cid=0x0:0xe8a2ed78d17489f6";""
"restaurant";"Mi";"Miso Kana";"V3XR+748, Jl. Lobu, Kota Pinang, Kec. Kota Pinang, Kab. Labuhanbatu Selatan, Sumatera Utara 21464";"Jl. Lobu, Kota Pinang, Kec. Kota Pinang, Kab. Labuhanbatu Selatan";"SUMATERA UTARA";"21464";"Indonesia";"";"";"";"1.898166";"100.0903364";"https://maps.google.com/?cid=0x0:0xd8e0513ee00f048c";""
"restaurant";"Kedai Kopi";"SSS Cafe  Resto";"V3RV+VC4, Jl. H. Yamin, Kota Pinang, Kec. Kota Pinang, Kab. Labuhanbatu Selatan, Sumatera Utara 21464";"Jl. H. Yamin, Kota Pinang, Kec. Kota Pinang, Kab. Labuhanbatu Selatan";"SUMATERA UTARA";"21464";"Indonesia";" 082166655557";"";"";"1.8921358";"100.0935884";"https://maps.google.com/?cid=0x0:0x7475f1ac0ffcd523";""
"restaurant";"restaurant";"Sumatera Utara 21464";"Kab. Labuhanbatu Selatan, Sumatera Utara";"Kab. Labuhanbatu Selatan, Sumatera Utara";"SUMATERA UTARA";"";"Indonesia";"";"";"";"1.6877896";"100.2151578";"https://maps.google.com/?cid=0x0:0xcb75493cd4919ca3";""
"restaurant";"Toko Kue";"Toko Roti.france Bakery Kota Pinang";"Jl. Lintas Sumatra No.77, Kota Pinang, Kec. Kota Pinang, Kab. Labuhanbatu Selatan, Sumatera Utara 21464";"Kota Pinang, Kec. Kota Pinang, Kab. Labuhanbatu Selatan";"SUMATERA UTARA";"21464";"Indonesia";"";"";"";"1.8904694";"100.0902014";"https://maps.google.com/?cid=0x0:0x156c602b36a7682e";""
"restaurant";"Kedai Kopi";"CK Corner Kotapinang";"Jl. Lintas Sumatra, Kota Pinang, Kec. Kota Pinang, Kab. Labuhanbatu Selatan, Sumatera Utara 21464";"Kota Pinang, Kec. Kota Pinang, Kab. Labuhanbatu Selatan";"SUMATERA UTARA";"21464";"Indonesia";" 082294415683";"";"";"1.8933086";"100.0850047";"https://maps.google.com/?cid=0x0:0xd9689762180f014f";""
"restaurant";"Sesuai untuk keluarga";"Kededimsum Kotapinang";"Jl. Kalapane Jl. Lobu No.Simpang, Kota Pinang, Kec. Kota Pinang, Kab. Labuhanbatu Selatan, Sumatera Utara 21464";"Kota Pinang, Kec. Kota Pinang, Kab. Labuhanbatu Selatan";"SUMATERA UTARA";"21464";"Indonesia";" 081269654520";"";"";"1.8978443";"100.089546";"https://maps.google.com/?cid=0x0:0x5a34736cbe61f425";""
"restaurant";"Rumah Makan";"Rumah Makan Budi Doy Kotapinang";"V3RQ+J29, Kota Pinang, Kec. Kota Pinang, Kab. Labuhanbatu Selatan, Sumatera Utara 21464";"Kota Pinang, Kec. Kota Pinang, Kab. Labuhanbatu Selatan";"SUMATERA UTARA";"21464";"Indonesia";"";"";"";"1.8915444";"100.087605";"https://maps.google.com/?cid=0x0:0x22ed09907cf37d9c";""
"restaurant";"Mi";"Take Me Box Kotapinang";"Jl. Bukit Kota Pinang No.128, Kota Pinang, Kec. Kota Pinang, Kab. Labuhanbatu Selatan, Sumatera Utara 21464";"Kota Pinang, Kec. Kota Pinang, Kab. Labuhanbatu Selatan";"SUMATERA UTARA";"21464";"Indonesia";"";"";"";"1.8922939";"100.0864339";"https://maps.google.com/?cid=0x0:0x21132d24f1fc7b71";""
"restaurant";"Kedai Kopi";"SM 77 caferesto";"Jl. Lintas Sumatra No.77, Kota Pinang, Kec. Kota Pinang, Kab. Labuhanbatu Selatan, Sumatera Utara 21464";"Kota Pinang, Kec. Kota Pinang, Kab. Labuhanbatu Selatan";"SUMATERA UTARA";"21464";"Indonesia";"";"";"";"1.889994";"100.0956401";"https://maps.google.com/?cid=0x0:0x23b4fb14d22d8701";""
"restaurant";"restaurant";"Sumatera Utara 21461";"Kec. Silangkitang, Kab. Labuhanbatu Selatan, Sumatera Utara";"Kab. Labuhanbatu Selatan, Sumatera Utara";"SUMATERA UTARA";"";"Indonesia";"";"";"";"1.8427607";"99.9465077";"https://maps.google.com/?cid=0x0:0x235a9827314238c5";""
"restaurant";"Brunch";"WAROENG SOHIB";"Jl. Besar Rintis, Rintis, Kec. Silangkitang, Kab. Labuhanbatu Selatan, Sumatera Utara 21461";"Rintis, Kec. Silangkitang, Kab. Labuhanbatu Selatan";"SUMATERA UTARA";"21461";"Indonesia";" 082370107732";"";"";"1.9070608";"99.9313811";"https://maps.google.com/?cid=0x0:0xc54cc80f6877cf45";""
"restaurant";"Dapur Umum";"Rumah Makan Putri Minang. Masakan Padang";"WW2J+C9G, Ulu Mahuam, Kec. Silangkitang, Kab. Labuhanbatu Selatan, Sumatera Utara 21461";"Ulu Mahuam, Kec. Silangkitang, Kab. Labuhanbatu Selatan";"SUMATERA UTARA";"21461";"Indonesia";" 082273927478";"";"";"1.9010711";"99.9309414";"https://maps.google.com/?cid=0x0:0x59ce5c8d6d46453";""
"restaurant";"Minimarket";"Kedai_88";"XW22+XVF, Jl. Besar Rintis, Rintis, Kec. Silangkitang, Kab. Labuhanbatu Selatan, Sumatera Utara 21451";"Jl. Besar Rintis, Rintis, Kec. Silangkitang, Kab. Labuhanbatu Selatan";"SUMATERA UTARA";"21451";"Indonesia";"";"";"";"1.9524484";"99.9021544";"https://maps.google.com/?cid=0x0:0xabf7fd76b4c6fb0b";""
"restaurant";"Toko Makanan";"Syauqi Kebab  Burger";"WW4J+WGP, Ulu Mahuam, Kec. Silangkitang, Kab. Labuhanbatu Selatan, Sumatera Utara 21461";"Ulu Mahuam, Kec. Silangkitang, Kab. Labuhanbatu Selatan";"SUMATERA UTARA";"21461";"Indonesia";"";"";"";"1.9073436";"99.9313154";"https://maps.google.com/?cid=0x0:0x5233c71b6fde9238";""
"restaurant";"Sarapan";"Monggo Mampir";"VWHP+CPP, Jl. Besar Rintis, Ulu Mahuam, Kec. Silangkitang, Kab. Labuhanbatu Selatan, Sumatera Utara 21461";"Jl. Besar Rintis, Ulu Mahuam, Kec. Silangkitang, Kab. Labuhanbatu Selatan";"SUMATERA UTARA";"21461";"Indonesia";"";"";"";"1.8787843";"99.9365216";"https://maps.google.com/?cid=0x0:0x448bdd4278e27ae0";""
"restaurant";"Rumah Makan";"Warung mas incut";"VW56+MH6, Banjar Tengah, Desa Binanga Dua, Ulu Mahuam, Kec. Silangkitang, Kab. Labuhanbatu Selatan, Sumatera Utara 21461";"Banjar Tengah, Desa Binanga Dua, Ulu Mahuam, Kec. Silangkitang, Kab. Labuhanbatu Selatan";"SUMATERA UTARA";"21461";"Indonesia";"";"";"";"1.8591571";"99.9114004";"https://maps.google.com/?cid=0x0:0x3e94d9bf8539d2e0";""
"restaurant";"Rumah Makan";"Rumah Makan Holat Sabungan";"Jl. Kota Pinang - Gunung Tua No.44444, Sabungan, Kec. Sungai Kanan, Kab. Labuhanbatu Selatan, Sumatera Utara 21464";"Sabungan, Kec. Sungai Kanan, Kab. Labuhanbatu Selatan";"SUMATERA UTARA";"21464";"Indonesia";"";"";"";"1.7571814";"100.0031399";"https://maps.google.com/?cid=0x0:0xefffbbaec01eb913";""
"restaurant";"Ikan Bakar";"Panggang Ikan Bang Adil";"QR8V+QRJ, Huta Godang, Kec. Sungai Kanan, Kab. Labuhanbatu Selatan, Sumatera Utara 21465";"Huta Godang, Kec. Sungai Kanan, Kab. Labuhanbatu Selatan";"SUMATERA UTARA";"21465";"Indonesia";"";"";"";"1.7669576";"99.8445142";"https://maps.google.com/?cid=0x0:0x934fecba3fcd1bf8";""
"restaurant";"Padang";"R.M. Famili Baru Holat Khas Padang Bolak";"V3G2+V2F, Sosopan, Kec. Kota Pinang, Kab. Labuhanbatu Selatan, Sumatera Utara 21464";"Sosopan, Kec. Kota Pinang, Kab. Labuhanbatu Selatan";"SUMATERA UTARA";"21464";"Indonesia";" 082237253600";"";"";"1.8771876";"100.0500602";"https://maps.google.com/?cid=0x0:0xfc710c9f8fa77583";""
"restaurant";"Dapur Umum";"Warung Lontong Sarapan Pagi";"VW43+4F9, Jl. Kp. Dalam - Silangkitang, Aek Goti, Kec. Silangkitang, Kab. Labuhanbatu Selatan, Sumatera Utara 21451";"Jl. Kp. Dalam - Silangkitang, Aek Goti, Kec. Silangkitang, Kab. Labuhanbatu Selatan";"SUMATERA UTARA";"21451";"Indonesia";"";"";"";"1.8550071";"99.9033276";"https://maps.google.com/?cid=0x0:0x378f7682a18d8ec9";""
"restaurant";"Restoran";"Rumah Makan Terong Sombom";"R2R8+QPQ, Jl. Kota Pinang - Gunung Tua, Mampang, Kec. Kota Pinang, Kab. Labuhanbatu Selatan, Sumatera Utara 21464";"Jl. Kota Pinang - Gunung Tua, Mampang, Kec. Kota Pinang, Kab. Labuhanbatu Selatan";"SUMATERA UTARA";"21464";"Indonesia";"";"";"";"1.8419733";"100.0168733";"https://maps.google.com/?cid=0x0:0x4b120c5eccec674b";""
"restaurant";"Dapur Umum";"BSTO Cafe";"VVRR+F7C, Jl, Aek Goti, Kec. Silangkitang, Kab. Labuhanbatu Selatan, Sumatera Utara 21462";"Jl, Aek Goti, Kec. Silangkitang, Kab. Labuhanbatu Selatan";"SUMATERA UTARA";"21462";"Indonesia";" 085279790328";"";"";"1.8911841";"99.890643";"https://maps.google.com/?cid=0x0:0x2f23c47439a82c41";""
"restaurant";"Kafe";"Rinto Chaniago";"WW2J+GCV, Ulu Mahuam, Kec. Silangkitang, Kab. Labuhanbatu Selatan, Sumatera Utara 21461";"Ulu Mahuam, Kec. Silangkitang, Kab. Labuhanbatu Selatan";"SUMATERA UTARA";"21461";"Indonesia";" 085276042323";"";"";"1.9013559";"99.9310475";"https://maps.google.com/?cid=0x0:0xc408f6319e8b47cc";""
"restaurant";"Kafe";"Kantin Mie Ayam Bakso Barokah";"Ulu Mahuam, Kec. Silangkitang, Kab. Labuhanbatu Selatan, Sumatera Utara 21461";"Kec. Silangkitang, Kab. Labuhanbatu Selatan";"SUMATERA UTARA";"21461";"Indonesia";" 081362188146";"";"";"1.8596966";"99.912665";"https://maps.google.com/?cid=0x0:0xab0ea89d508b5d62";""
"restaurant";"Sate";"Sate Takana Juo";"VW54+578, Unnamed Road, Ulu Mahuam, Kec. Silangkitang, Kab. Labuhanbatu Selatan, Sumatera Utara 21461";"Unnamed Road, Ulu Mahuam, Kec. Silangkitang, Kab. Labuhanbatu Selatan";"SUMATERA UTARA";"21461";"Indonesia";" 082284313020";"";"";"1.857925";"99.9056893";"https://maps.google.com/?cid=0x0:0xeb75ea42b7834219";""
"restaurant";"Restoran";"Resto 24";"PW9F+MWV, Hajoran, Kec. Sungai Kanan, Kab. Labuhanbatu Selatan, Sumatera Utara 21465";"Hajoran, Kec. Sungai Kanan, Kab. Labuhanbatu Selatan";"SUMATERA UTARA";"21465";"Indonesia";" 081264879540";"";"";"1.7192375";"99.9247969";"https://maps.google.com/?cid=0x0:0xce238734303ac68";""
"restaurant";"Rumah Makan";"Rumah putra ganteng";"VWGQ+8VQ, Jl. Besar Rintis, Ulu Mahuam, Kec. Silangkitang, Kab. Labuhanbatu Selatan, Sumatera Utara 21461";"Jl. Besar Rintis, Ulu Mahuam, Kec. Silangkitang, Kab. Labuhanbatu Selatan";"SUMATERA UTARA";"21461";"Indonesia";"";"";"";"1.8760516";"99.9396594";"https://maps.google.com/?cid=0x0:0xd2ca5cbb9b1df7ce";""
"restaurant";"Restoran";"Warung Goreng VVIP";"Rintis, Kec. Silangkitang, Kab. Labuhanbatu Selatan, Sumatera Utara 21451";"Kec. Silangkitang, Kab. Labuhanbatu Selatan";"SUMATERA UTARA";"21451";"Indonesia";"";"";"";"1.9619955";"99.9464595";"https://maps.google.com/?cid=0x0:0x4314146a6e53df1d";""
"restaurant";"Dapur Umum";"Luky ardafa";"RW77+J5X, Tandikat 1, Binanga Dua, Kec. Silangkitang, Kab. Labuhanbatu Selatan, Sumatera Utara 21461";"Tandikat 1, Binanga Dua, Kec. Silangkitang, Kab. Labuhanbatu Selatan";"SUMATERA UTARA";"21461";"Indonesia";"";"";"";"1.8141113";"99.9129845";"https://maps.google.com/?cid=0x0:0xeb20250add18c31e";""
"restaurant";"Kafe";"CAFE SENENG MORO";"VW54+CWW, Unnamed Road, Ulu Mahuam, Kec. Silangkitang, Kab. Labuhanbatu Selatan, Sumatera Utara 21461";"Unnamed Road, Ulu Mahuam, Kec. Silangkitang, Kab. Labuhanbatu Selatan";"SUMATERA UTARA";"21461";"Indonesia";" 085297080118";"";"";"1.8586159";"99.9073396";"https://maps.google.com/?cid=0x0:0x7e833131babffc67";""
"restaurant";"Kafe";"Kedai Kopi H.Rasidi";"RW9J+W58, Binanga Dua, Kec. Silangkitang, Kab. Labuhanbatu Selatan, Sumatera Utara 21461";"Binanga Dua, Kec. Silangkitang, Kab. Labuhanbatu Selatan";"SUMATERA UTARA";"21461";"Indonesia";"";"";"";"1.8197944";"99.9304483";"https://maps.google.com/?cid=0x0:0x4f1f81eb80d79439";""
"restaurant";"Dapur Umum";"Warung MITRA JAWA";"XV3W+9M4, Jl. Besar Rintis, Rintis, Kec. Silangkitang, Kab. Labuhanbatu Selatan, Sumatera Utara 21451";"Jl. Besar Rintis, Rintis, Kec. Silangkitang, Kab. Labuhanbatu Selatan";"SUMATERA UTARA";"21451";"Indonesia";" 082210050449";"";"";"1.9533985";"99.8967028";"https://maps.google.com/?cid=0x0:0x1d48cac907a7586f";""
"restaurant";"Kafe";"Bakso Petuk Jodoh";"VW33+92M, Ulu Mahuam, Kec. Silangkitang, Kab. Labuhanbatu Selatan, Sumatera Utara 21461";"Ulu Mahuam, Kec. Silangkitang, Kab. Labuhanbatu Selatan";"SUMATERA UTARA";"21461";"Indonesia";" 083196514203";"";"";"1.8534587";"99.9025429";"https://maps.google.com/?cid=0x0:0xaf4d4e737913e141";""
"restaurant";"restaurant";"Sumatera Utara 21464";"Kab. Labuhanbatu Selatan, Sumatera Utara";"Kab. Labuhanbatu Selatan, Sumatera Utara";"SUMATERA UTARA";"";"Indonesia";"";"";"";"1.6877896";"100.2151578";"https://maps.google.com/?cid=0x0:0xcb75493cd4919ca3";""
"restaurant";"Kafe";"Eighty-Eight cafe and Resto";"V45W+FP, Aek Batu, Kec. Torgamba, Kab. Labuhanbatu Selatan, Sumatera Utara 21464";"Aek Batu, Kec. Torgamba, Kab. Labuhanbatu Selatan";"SUMATERA UTARA";"21464";"Indonesia";"";"";"";"1.8587381";"100.1467708";"https://maps.google.com/?cid=0x0:0x34eb017a44e3aa4d";""
"restaurant";"Rumah Makan";"RM. Tri Tunggal Lestari";"Unnamed Road, Asam Jawa, Kec. Torgamba, Kab. Labuhanbatu Selatan, Sumatera Utara 21464";"Asam Jawa, Kec. Torgamba, Kab. Labuhanbatu Selatan";"SUMATERA UTARA";"21464";"Indonesia";" 08126377591";"";"";"1.8785795";"100.1782576";"https://maps.google.com/?cid=0x0:0x294e3d5d79b180cb";""
"restaurant";"Bakso";"Warung Gondrong";"R59P+7Q3, Aek Batu, Kec. Torgamba, Kab. Labuhanbatu Selatan, Sumatera Utara 21464";"Aek Batu, Kec. Torgamba, Kab. Labuhanbatu Selatan";"SUMATERA UTARA";"21464";"Indonesia";" 085261106898";"";"";"1.8181296";"100.1869257";"https://maps.google.com/?cid=0x0:0x4640942f5c85693d";""
"restaurant";"Mi";"Rumah Makan Berlian Baru";"Q5VV+CXX, Aek Batu, Kec. Torgamba, Kab. Labuhanbatu Selatan, Sumatera Utara 21464";"Aek Batu, Kec. Torgamba, Kab. Labuhanbatu Selatan";"SUMATERA UTARA";"21464";"Indonesia";"";"";"";"1.7936126";"100.1949809";"https://maps.google.com/?cid=0x0:0xfc55adec62981901";""
"restaurant";"Rumah Makan";"BPK WAK LABAN";"Q6J8+GM4, Aek Batu, Kec. Torgamba, Kab. Labuhanbatu Selatan, Sumatera Utara 21464";"Aek Batu, Kec. Torgamba, Kab. Labuhanbatu Selatan";"SUMATERA UTARA";"21464";"Indonesia";" 082364915857";"";"";"1.7818327";"100.216853";"https://maps.google.com/?cid=0x0:0x388b35f3b2d7d427";""
"restaurant";"Sarapan";"RM. PINANG MERAH";"Jl. Lintas Sumatra No.16, Aek Batu, Kec. Torgamba, Kab. Labuhanbatu Selatan, Sumatera Utara 21464";"Aek Batu, Kec. Torgamba, Kab. Labuhanbatu Selatan";"SUMATERA UTARA";"21464";"Indonesia";"";"";"";"1.8028354";"100.1882929";"https://maps.google.com/?cid=0x0:0x40535b7084d92e62";""
"restaurant";"Rumah Makan";"Mie Aceh Torgamba";"Q6P4+WFJ, Aek Batu, Kec. Torgamba, Kab. Labuhanbatu Selatan, Sumatera Utara 21464";"Aek Batu, Kec. Torgamba, Kab. Labuhanbatu Selatan";"SUMATERA UTARA";"21464";"Indonesia";"";"";"";"1.7873496";"100.2061463";"https://maps.google.com/?cid=0x0:0x5e6cc29fd66149a9";""
"restaurant";"Bakso";"KANTIN 67";"Q5QX+7JV, Jl. Lintas Sumatra, Aek Batu, Kec. Torgamba, Kab. Labuhanbatu Selatan, Sumatera Utara 21464";"Jl. Lintas Sumatra, Aek Batu, Kec. Torgamba, Kab. Labuhanbatu Selatan";"SUMATERA UTARA";"21464";"Indonesia";"";"";"";"1.7882438";"100.1990361";"https://maps.google.com/?cid=0x0:0x44346e0557bba9c0";""
"restaurant";"Rumah Makan";"Rumah Makan Lake Toba (Chinese Food)";"Jl. Lintas Sumatra, Aek Batu, Kec. Torgamba, Kab. Labuhanbatu Selatan, Sumatera Utara 21464";"Aek Batu, Kec. Torgamba, Kab. Labuhanbatu Selatan";"SUMATERA UTARA";"21464";"Indonesia";" 081263407474";"";"";"1.7868863";"100.2035148";"https://maps.google.com/?cid=0x0:0x3a36cf76f5f8c372";""
"restaurant";"Restoran";"warung mbak rum";"V5PM+W3C, Asam Jawa, Kec. Torgamba, Kab. Labuhanbatu Selatan, Sumatera Utara 21464";"Asam Jawa, Kec. Torgamba, Kab. Labuhanbatu Selatan";"SUMATERA UTARA";"21464";"Indonesia";" 081396225243";"";"";"1.8873138";"100.1826263";"https://maps.google.com/?cid=0x0:0xb9f672ee494d91f5";""
"restaurant";"Restoran";"RM. Bina Ria";"Jl. Lintas Sumatra, Beringin Jaya, Kec. Torgamba, Kab. Labuhanbatu Selatan, Sumatera Utara";"Kab. Labuhanbatu Selatan, Sumatera Utara";"SUMATERA UTARA";"";"Indonesia";"";"";"";"1.730823";"100.3599952";"https://maps.google.com/?cid=0x0:0x90f978598fec11ed";""
"restaurant";"Restoran";"Rumah Makan Restu Ibu";"R5GP+8CH, Aek Batu, Kec. Torgamba, Kab. Labuhanbatu Selatan, Sumatera Utara 21464";"Aek Batu, Kec. Torgamba, Kab. Labuhanbatu Selatan";"SUMATERA UTARA";"21464";"Indonesia";"";"";"";"1.8258022";"100.1861211";"https://maps.google.com/?cid=0x0:0xf5218c39b60ba8ba";""
"restaurant";"Makanan Siap Saji";"Warung Diva";"Asian Highway No.25, Aek Batu, Torgamba, South Labuhan Batu Regency, North Sumatra 21464";"Aek Batu, Torgamba, South Labuhan Batu Regency";"SUMATERA UTARA";"21464";"Indonesia";"";"";"";"1.7874445";"100.205606";"https://maps.google.com/?cid=0x0:0xa4844dc41d450137";""
"restaurant";"Restoran";"Rumah Makan Bu Nur";"M8CG+CGX, Torgamba, Kec. Torgamba, Kab. Labuhanbatu Selatan, Sumatera Utara 21464";"Torgamba, Kec. Torgamba, Kab. Labuhanbatu Selatan";"SUMATERA UTARA";"21464";"Indonesia";" 082273009964";"";"";"1.6711202";"100.3263491";"https://maps.google.com/?cid=0x0:0xb6fb334da28fdccf";""
"restaurant";"Restoran";"RM.MUTIARA MINANG";"Aek Batu, Kec. Torgamba, Kab. Labuhanbatu Selatan, Sumatera Utara 21464";"Kec. Torgamba, Kab. Labuhanbatu Selatan";"SUMATERA UTARA";"21464";"Indonesia";" 0882016442012";"";"";"1.857765";"100.1476798";"https://maps.google.com/?cid=0x0:0x8468235bc3c8084c";""
"restaurant";"Restoran";"75 Cafe  Resto";"Jl. Lintas Sumatra No.16, Aek Batu, Cikampak, Kab. Labuhanbatu Selatan, Sumatera Utara 21464";"Aek Batu, Cikampak, Kab. Labuhanbatu Selatan";"SUMATERA UTARA";"21464";"Indonesia";" 081219137575";"";"";"1.7875695";"100.2002847";"https://maps.google.com/?cid=0x0:0x4df85e08528fc1bf";""
"restaurant";"Sesuai untuk keluarga";"Rumah Makan Dos Tahi Khas Batak";"Jl. Jenderal Sudirman No.16, Aek Batu, Kec. Torgamba, Kab. Labuhanbatu Selatan, Sumatera Utara 21464";"Aek Batu, Kec. Torgamba, Kab. Labuhanbatu Selatan";"SUMATERA UTARA";"21464";"Indonesia";"";"";"";"1.7999569";"100.1883432";"https://maps.google.com/?cid=0x0:0x1e25373d20c930cb";""
"restaurant";"Betawi";"Waroenk Rakyat Cikampak Pekan";"Q5RW+2XH, Jl. Lintas Sumatra, Aek Batu, Kec. Torgamba, Kab. Labuhanbatu Selatan, Sumatera Utara 21464";"Jl. Lintas Sumatra, Aek Batu, Kec. Torgamba, Kab. Labuhanbatu Selatan";"SUMATERA UTARA";"21464";"Indonesia";" 081267727205";"";"";"1.7900654";"100.1974829";"https://maps.google.com/?cid=0x0:0xd1f2f5bc51fd9e29";""
"restaurant";"Restoran";"Rumah Makan Membot";"R59P+C9M, Aek Batu, Kec. Torgamba, Kab. Labuhanbatu Selatan, Sumatera Utara 21464";"Aek Batu, Kec. Torgamba, Kab. Labuhanbatu Selatan";"SUMATERA UTARA";"21464";"Indonesia";"";"";"";"1.8185881";"100.1859306";"https://maps.google.com/?cid=0x0:0x2e228838044ad492";""
"restaurant";"Bakso";"Rumah Makan Mekar Sari";"R5QJ+9FM, Aek Batu, Kec. Torgamba, Kab. Labuhanbatu Selatan, Sumatera Utara 21464";"Aek Batu, Kec. Torgamba, Kab. Labuhanbatu Selatan";"SUMATERA UTARA";"21464";"Indonesia";" 082168787646";"";"";"1.8384713";"100.1811591";"https://maps.google.com/?cid=0x0:0x346aa7f5ed10cac5";""
"restaurant";"Nasi";"RM Ampek 4 Bersaudara";"MCX4+37X, Jl. Bukit Pembangunan, Torgamba, Kec. Torgamba, Kab. Labuhanbatu Selatan, Sumatera Utara 28992";"Jl. Bukit Pembangunan, Torgamba, Kec. Torgamba, Kab. Labuhanbatu Selatan";"SUMATERA UTARA";"28992";"Indonesia";"";"";"";"1.6977446";"100.4057495";"https://maps.google.com/?cid=0x0:0x3964eee47ba8f2c";""
"restaurant";"Restoran";"Roma";"Asian Highway No.25, Aek Batu, Torgamba, South Labuhan Batu Regency, North Sumatra 21464";"Aek Batu, Torgamba, South Labuhan Batu Regency";"SUMATERA UTARA";"21464";"Indonesia";"";"";"";"1.781606";"100.2152763";"https://maps.google.com/?cid=0x0:0x688a8923d5ca2110";""
"restaurant";"Restoran";"Warung mieso badar";"Q5JW+2WR, Aek Batu, Kec. Torgamba, Kab. Labuhanbatu Selatan, Sumatera Utara 21464";"Aek Batu, Kec. Torgamba, Kab. Labuhanbatu Selatan";"SUMATERA UTARA";"21464";"Indonesia";"";"";"";"1.779793";"100.1963312";"https://maps.google.com/?cid=0x0:0x9ce6e0909a0ca4b";""
"restaurant";"Padang";"RM. Minang Mahimbau";"Asam Jawa, Kec. Torgamba, Kab. Labuhanbatu Selatan, Sumatera Utara 21464";"Kec. Torgamba, Kab. Labuhanbatu Selatan";"SUMATERA UTARA";"21464";"Indonesia";" 082272415827";"";"";"1.8834927";"100.1230929";"https://maps.google.com/?cid=0x0:0xd26980527748e03e";""
"restaurant";"Restoran";"Kafe Yoki";"Q5JQ+8R9, Aek Batu, Kec. Torgamba, Kab. Labuhanbatu Selatan, Sumatera Utara 21464";"Aek Batu, Kec. Torgamba, Kab. Labuhanbatu Selatan";"SUMATERA UTARA";"21464";"Indonesia";" 085297229256";"";"";"1.7807815";"100.1895974";"https://maps.google.com/?cid=0x0:0x79019db7c38c0988";""
"cafe";"cafe";"Sumatera Utara 21463";"Kec. Kp. Rakyat, Kab. Labuhanbatu Selatan, Sumatera Utara";"Kab. Labuhanbatu Selatan, Sumatera Utara";"SUMATERA UTARA";"";"Indonesia";"";"";"";"2.0724054";"100.2151578";"https://maps.google.com/?cid=0x0:0x8873c7c00b422839";""
"cafe";"Kedai Kopi";"Tongkrongan Simpang Tiga";"Asian Highway No.25, Perkebunan Perlabian, Kampung Rakyat, South Labuhan Batu Regency, North Sumatra 21463";"Perkebunan Perlabian, Kampung Rakyat, South Labuhan Batu Regency";"SUMATERA UTARA";"21463";"Indonesia";" 082360575909";"";"";"2.0285003";"100.0954377";"https://maps.google.com/?cid=0x0:0x8f84e5779678fbbf";""
"cafe";"Kafe";"Teraswara";"Kebun Tlk. Panji, Kec. Kp. Rakyat, Kab. Labuhanbatu Selatan, Sumatera Utara 21463";"Kec. Kp. Rakyat, Kab. Labuhanbatu Selatan";"SUMATERA UTARA";"21463";"Indonesia";"";"";"";"1.9381378";"100.2450335";"https://maps.google.com/?cid=0x0:0xdb0b807b45043805";""
"cafe";"Restoran";"Cafe Buk Atik";"W6QW+P3C, Kebun Tlk. Panji, Kec. Kp. Rakyat, Kab. Labuhanbatu Selatan, Sumatera Utara 21463";"Kebun Tlk. Panji, Kec. Kp. Rakyat, Kab. Labuhanbatu Selatan";"SUMATERA UTARA";"21463";"Indonesia";"";"";"";"1.9393104";"100.245141";"https://maps.google.com/?cid=0x0:0x979ea6ac851ffb38";""
"cafe";"Kafe";"Cafe Alzio aska";"W6WW+5G8, Kebun Tlk. Panji, Kec. Kp. Rakyat, Kab. Labuhanbatu Selatan, Sumatera Utara 21463";"Kebun Tlk. Panji, Kec. Kp. Rakyat, Kab. Labuhanbatu Selatan";"SUMATERA UTARA";"21463";"Indonesia";"";"";"";"1.9454158";"100.246313";"https://maps.google.com/?cid=0x0:0x7e30a9373e9692b";""
"cafe";"Kedai Kopi";"PRC (Pohon Roda Comunity)";"349H+JHX, Dusun Aek Gapuk, Tj. Selamat, Kec. Kp. Rakyat, Kab. Labuhanbatu Selatan, Sumatera Utara";"Kab. Labuhanbatu Selatan, Sumatera Utara";"SUMATERA UTARA";"";"Indonesia";"";"";"";"2.0691235";"100.1289768";"https://maps.google.com/?cid=0x0:0xde9c6f0c705e1b26";""
"cafe";"Kafe";"KALA COFFEE";"W6PX+PVH, Kebun Tlk. Panji, Kec. Kp. Rakyat, Kab. Labuhanbatu Selatan, Sumatera Utara 21463";"Kebun Tlk. Panji, Kec. Kp. Rakyat, Kab. Labuhanbatu Selatan";"SUMATERA UTARA";"21463";"Indonesia";" 082273016943";"";"";"1.9368092";"100.249727";"https://maps.google.com/?cid=0x0:0xa05b00359e11ad1f";""
"cafe";"Restoran";"JOGLO RAFIINDAH";"W6RW+HC5, Jl. Besar Sidodadi, Kebun Tlk. Panji, Kec. Kp. Rakyat, Kab. Labuhanbatu Selatan, Sumatera Utara 21463";"Jl. Besar Sidodadi, Kebun Tlk. Panji, Kec. Kp. Rakyat, Kab. Labuhanbatu Selatan";"SUMATERA UTARA";"21463";"Indonesia";" 082368862489";"";"";"1.9413971";"100.2461051";"https://maps.google.com/?cid=0x0:0x3f6e6343ef8ff992";""
"cafe";"Taman";"Iran Bandrek simpang tolan";"23HW+F89, Pekan Tolan, Kec. Kp. Rakyat, Kab. Labuhanbatu Selatan, Sumatera Utara 21463";"Pekan Tolan, Kec. Kp. Rakyat, Kab. Labuhanbatu Selatan";"SUMATERA UTARA";"21463";"Indonesia";" 081375210520";"";"";"2.0283666";"100.0960044";"https://maps.google.com/?cid=0x0:0x654edf4071b77284";""
"cafe";"Restoran";"Kafe Yuni 09";"X6XQ+XXF, Kebun Tlk. Panji, Kec. Kp. Rakyat, Kab. Labuhanbatu Selatan, Sumatera Utara 21463";"Kebun Tlk. Panji, Kec. Kp. Rakyat, Kab. Labuhanbatu Selatan";"SUMATERA UTARA";"21463";"Indonesia";" 085275968855";"";"";"1.9999356";"100.2399113";"https://maps.google.com/?cid=0x0:0x2232b7e0821557c5";""
"cafe";"Kafe";"Sob Buah";"Jl. Pekan Tolan - Tj. Medan, Perkebunan Perlabian, Kec. Kp. Rakyat, Kab. Labuhanbatu Selatan, Sumatera Utara 21463";"Perkebunan Perlabian, Kec. Kp. Rakyat, Kab. Labuhanbatu Selatan";"SUMATERA UTARA";"21463";"Indonesia";" 081262524309";"";"";"2.0288465";"100.0961851";"https://maps.google.com/?cid=0x0:0x6ae54ccb29c98f40";""
"cafe";"Pertanian";"Sumber rezeki baru";"58FC+2JX, Tj. Mulia, Kec. Kp. Rakyat, Kab. Labuhanbatu Selatan, Sumatera Utara 21463";"Tj. Mulia, Kec. Kp. Rakyat, Kab. Labuhanbatu Selatan";"SUMATERA UTARA";"21463";"Indonesia";"";"";"";"2.1726062";"100.321603";"https://maps.google.com/?cid=0x0:0x86fefdec24fe0831";""
"cafe";"Kafe";"Bagasta Cafe, Aqilah_Net  HennaArt";"Unnamed Road, Kebun Tlk. Panji, Kec. Kp. Rakyat, Kab. Labuhanbatu Selatan, Sumatera Utara 21464";"Kebun Tlk. Panji, Kec. Kp. Rakyat, Kab. Labuhanbatu Selatan";"SUMATERA UTARA";"21464";"Indonesia";" 081297100581";"";"";"1.9387825";"100.2298822";"https://maps.google.com/?cid=0x0:0x1b5d966bcc4b386f";""
"cafe";"Kedai Kopi";"Kopi Aceh";"Jl. Lintas Sumatra No.15, Perkebunan Perlabian, Kec. Kp. Rakyat, Kab. Labuhanbatu Selatan, Sumatera Utara 21463";"Perkebunan Perlabian, Kec. Kp. Rakyat, Kab. Labuhanbatu Selatan";"SUMATERA UTARA";"21463";"Indonesia";"";"";"";"2.029489";"100.093639";"https://maps.google.com/?cid=0x0:0x9f468b5caf21311b";""
"cafe";"Kafe";"Cafe Pondok Santai";"Dusun I Sidodadi, Kebun Tlk. Panji, Kec. Kp. Rakyat, Kab. Labuhanbatu Selatan, Sumatera Utara 21463";"Kebun Tlk. Panji, Kec. Kp. Rakyat, Kab. Labuhanbatu Selatan";"SUMATERA UTARA";"21463";"Indonesia";" 085370960483";"";"";"1.9457732";"100.2450684";"https://maps.google.com/?cid=0x0:0xaef7bee4dc2c6c49";""
"cafe";"Kafe";"Teras alba";"W6VR+9G6, Unnamed Road, Kebun Tlk. Panji, Kec. Kp. Rakyat, Kab. Labuhanbatu Selatan, Sumatera Utara 21463";"Unnamed Road, Kebun Tlk. Panji, Kec. Kp. Rakyat, Kab. Labuhanbatu Selatan";"SUMATERA UTARA";"21463";"Indonesia";" 085296128345";"";"";"1.9434027";"100.2412691";"https://maps.google.com/?cid=0x0:0x676175b79f49a68";""
"cafe";"Kedai Kopi";"CAFE DUA PUTRA";"23HW+C75 Dan, SukoarjoTanjung Mulia, Kec. Kp. Rakyat, Kab. Labuhanbatu Selatan, Sumatera Utara";"Kab. Labuhanbatu Selatan, Sumatera Utara";"SUMATERA UTARA";"";"Indonesia";"";"";"";"2.0285188";"100.09572";"https://maps.google.com/?cid=0x0:0x6dd3e2930c14ebe6";""
"cafe";"Kafe";"Rumah Panggung Coffee";"Jalan Kampung Jawa, Tj. Medan, Kec. Kp. Rakyat, Kab. Labuhanbatu Selatan, Sumatera Utara 21463";"Tj. Medan, Kec. Kp. Rakyat, Kab. Labuhanbatu Selatan";"SUMATERA UTARA";"21463";"Indonesia";" 082272591230";"";"";"2.0587844";"100.1394115";"https://maps.google.com/?cid=0x0:0xb2219e3a923b12bc";""
"cafe";"Kafe";"Markas Cafe  Coffe";"W7W7+5J5, Kebun Tlk. Panji, Kec. Kp. Rakyat, Kab. Labuhanbatu Selatan, Sumatera Utara 21463";"Kebun Tlk. Panji, Kec. Kp. Rakyat, Kab. Labuhanbatu Selatan";"SUMATERA UTARA";"21463";"Indonesia";"";"";"";"1.9453951";"100.2641038";"https://maps.google.com/?cid=0x0:0x44e984f8a3130d15";""
"cafe";"Kedai Kopi";"simpang tiga gumen";"33PJ+PV2, Perlabian, Kec. Kp. Rakyat, Kab. Labuhanbatu Selatan, Sumatera Utara 21462";"Perlabian, Kec. Kp. Rakyat, Kab. Labuhanbatu Selatan";"SUMATERA UTARA";"21462";"Indonesia";"";"";"";"2.0867629";"100.082155";"https://maps.google.com/?cid=0x0:0x755e084b324e30ad";""
"cafe";"Restoran";"MieayamBakso Mergo Tresno";"W7V7+XRW, dusun 6, seikalam, Kec. Kp. Rakyat, Kab. Labuhanbatu Selatan, Sumatera Utara 21463";"dusun 6, seikalam, Kec. Kp. Rakyat, Kab. Labuhanbatu Selatan";"SUMATERA UTARA";"21463";"Indonesia";" 082378946481";"";"";"1.945704";"100.2654919";"https://maps.google.com/?cid=0x0:0x9a2eed75a22af488";""
"cafe";"Kedai Kopi";"Waroeng Nongkrong Kita Kita";"24QQ+JP8, Tj. Medan, Kec. Kp. Rakyat, Kab. Labuhanbatu Selatan, Sumatera Utara 21463";"Tj. Medan, Kec. Kp. Rakyat, Kab. Labuhanbatu Selatan";"SUMATERA UTARA";"21463";"Indonesia";"";"";"";"2.039034";"100.1393399";"https://maps.google.com/?cid=0x0:0xc4e0c5f13277b718";""
"cafe";"Pangsit";"L.A DIMSUM CAFE  RESTO";"W6QW+G3V, Kebun Tlk. Panji, Kec. Kp. Rakyat, Kab. Labuhanbatu Selatan, Sumatera Utara 21463";"Kebun Tlk. Panji, Kec. Kp. Rakyat, Kab. Labuhanbatu Selatan";"SUMATERA UTARA";"21463";"Indonesia";" 082276211023";"";"";"1.9388748";"100.2451783";"https://maps.google.com/?cid=0x0:0xd01338dcc5d04293";""
"cafe";"Kafe";"Fauzi Cafe Wifii";"X6VQ+CGF, Sangkunur, Dusun X Pondok Ladang, Tlk. Panji II, Kec. Kp. Rakyat, Kab. Labuhanbatu Selatan, Sumatera Utara 21463";"Sangkunur, Dusun X Pondok Ladang, Tlk. Panji II, Kec. Kp. Rakyat, Kab. Labuhanbatu Selatan";"SUMATERA UTARA";"21463";"Indonesia";" 085276399062";"";"";"1.9935744";"100.2387834";"https://maps.google.com/?cid=0x0:0xbaab7d390b0f3c33";""
"cafe";"Kedai Kopi";"Pondok Sakral Tongkri";"24WR+826, Tj. Medan, Kec. Kp. Rakyat, Kab. Labuhanbatu Selatan, Sumatera Utara 21463";"Tj. Medan, Kec. Kp. Rakyat, Kab. Labuhanbatu Selatan";"SUMATERA UTARA";"21463";"Indonesia";" 082272601557";"";"";"2.0458241";"100.1399539";"https://maps.google.com/?cid=0x0:0xb23e16d35e821345";""
"cafe";"cafe";"Kec. Kota Pinang";"Kab. Labuhanbatu Selatan, Sumatera Utara";"Kab. Labuhanbatu Selatan, Sumatera Utara";"SUMATERA UTARA";"";"Indonesia";"";"";"";"1.8906527";"100.0900259";"https://maps.google.com/?cid=0x0:0xf9d36fe53f57ed24";""
"cafe";"Kedai Kopi";"Cafe Dozer";"No.77, Jl. Lintas Sumatra, Pinang City, Kota Pinang, South Labuhan Batu Regency, North Sumatra 21464";"Jl. Lintas Sumatra, Pinang City, Kota Pinang, South Labuhan Batu Regency";"SUMATERA UTARA";"21464";"Indonesia";"";"";"";"1.8952692";"100.0836376";"https://maps.google.com/?cid=0x0:0x25d0375cd20609e2";""
"cafe";"Kafe";"CAFE HARGI.jln bukit kotapinang";"V3RQ+FJ6, Jl. Lintas Sumatra, Kota Pinang, Kec. Kota Pinang, Kab. Labuhanbatu Selatan, Sumatera Utara 21464";"Jl. Lintas Sumatra, Kota Pinang, Kec. Kota Pinang, Kab. Labuhanbatu Selatan";"SUMATERA UTARA";"21464";"Indonesia";" 081260964748";"";"";"1.8911548";"100.0890243";"https://maps.google.com/?cid=0x0:0x4cfe68561dd025b6";""
"cafe";"Kedai Kopi";"Cafe Biuty";"V3QX+H7X, Jl. Labuhan Baru, Kota Pinang, Kec. Kota Pinang, Kab. Labuhanbatu Selatan, Sumatera Utara 21464";"Jl. Labuhan Baru, Kota Pinang, Kec. Kota Pinang, Kab. Labuhanbatu Selatan";"SUMATERA UTARA";"21464";"Indonesia";" 081375890913";"";"";"1.888992";"100.0982199";"https://maps.google.com/?cid=0x0:0xf3fedc7434264f4b";""
"cafe";"Kedai Kopi";"Tugu";"V3RR+2Q3, Kota Pinang, Kec. Kota Pinang, Kab. Labuhanbatu Selatan, Sumatera Utara 21464";"Kota Pinang, Kec. Kota Pinang, Kab. Labuhanbatu Selatan";"SUMATERA UTARA";"21464";"Indonesia";"";"";"";"1.8900149";"100.0919243";"https://maps.google.com/?cid=0x0:0xde3eee06db88d4d1";""
"cafe";"Kedai Kopi";"SM 77 caferesto";"Jl. Lintas Sumatra No.77, Kota Pinang, Kec. Kota Pinang, Kab. Labuhanbatu Selatan, Sumatera Utara 21464";"Kota Pinang, Kec. Kota Pinang, Kab. Labuhanbatu Selatan";"SUMATERA UTARA";"21464";"Indonesia";"";"";"";"1.889994";"100.0956401";"https://maps.google.com/?cid=0x0:0x23b4fb14d22d8701";""
"cafe";"Kafe";"Satu Jiwa Coffee";"Jl. Jenderal Sudirman No.29, Kota Pinang, Kec. Kota Pinang, Kab. Labuhanbatu Selatan, Sumatera Utara 21464";"Kota Pinang, Kec. Kota Pinang, Kab. Labuhanbatu Selatan";"SUMATERA UTARA";"21464";"Indonesia";" 085232460426";"";"";"1.8902466";"100.0911779";"https://maps.google.com/?cid=0x0:0x900b0c3a40b27072";""
"cafe";"Kedai Kopi";"Bukit Coffe";"V3VM+8XJ, Kota Pinang, Kec. Kota Pinang, Kab. Labuhanbatu Selatan, Sumatera Utara 21464";"Kota Pinang, Kec. Kota Pinang, Kab. Labuhanbatu Selatan";"SUMATERA UTARA";"21464";"Indonesia";" 082360065795";"";"";"1.8933466";"100.0848961";"https://maps.google.com/?cid=0x0:0x779d22e6c84061d4";""
"cafe";"Kedai Kopi";"POKO";"Jl. Lintas Sumatra, Kota Pinang, Kec. Kota Pinang, Kab. Labuhanbatu Selatan, Sumatera Utara 21464";"Kota Pinang, Kec. Kota Pinang, Kab. Labuhanbatu Selatan";"SUMATERA UTARA";"21464";"Indonesia";" 081262057765";"";"";"1.8894722";"100.0945516";"https://maps.google.com/?cid=0x0:0x75d28420bb6185f7";""
"cafe";"Kedai Kopi";"Resto Pinang";"V3WM+9GQ, Kota Pinang, Kec. Kota Pinang, Kab. Labuhanbatu Selatan, Sumatera Utara 21464";"Kota Pinang, Kec. Kota Pinang, Kab. Labuhanbatu Selatan";"SUMATERA UTARA";"21464";"Indonesia";"";"";"";"1.8959509";"100.0838567";"https://maps.google.com/?cid=0x0:0x51efd59bfba486fa";""
"cafe";"Kafe";"Kanopi Kafe";"Jl. Lintas Sumatra, Kota Pinang, Kec. Kota Pinang, Kab. Labuhanbatu Selatan, Sumatera Utara 21464";"Kota Pinang, Kec. Kota Pinang, Kab. Labuhanbatu Selatan";"SUMATERA UTARA";"21464";"Indonesia";"";"";"";"1.9005698";"100.0860158";"https://maps.google.com/?cid=0x0:0x1595c7194e8ecd72";""
"cafe";"Sesuai untuk keluarga";"Rumah Makan Nusantara";"Jl. Lintas Sumatra No.77, Kota Pinang, Kec. Kota Pinang, Kab. Labuhanbatu Selatan, Sumatera Utara 21464";"Kota Pinang, Kec. Kota Pinang, Kab. Labuhanbatu Selatan";"SUMATERA UTARA";"21464";"Indonesia";"";"";"";"1.890326";"100.0909729";"https://maps.google.com/?cid=0x0:0xe43fc0b498b74f72";""
"cafe";"Kedai Kopi";"RESCAFE AR-KEMO";"W34Q+6H4, Kota Pinang, Kec. Kota Pinang, Kab. Labuhanbatu Selatan, Sumatera Utara 21464";"Kota Pinang, Kec. Kota Pinang, Kab. Labuhanbatu Selatan";"SUMATERA UTARA";"21464";"Indonesia";" 081260964748";"";"";"1.9055043";"100.0889459";"https://maps.google.com/?cid=0x0:0x711784e0cc8a1a59";""
"cafe";"Kafe";"Black  White Coffe Resto";"V3RP+W9C, Kota Pinang, Kec. Kota Pinang, Kab. Labuhanbatu Selatan, Sumatera Utara 21464";"Kota Pinang, Kec. Kota Pinang, Kab. Labuhanbatu Selatan";"SUMATERA UTARA";"21464";"Indonesia";" 06244970423";"";"";"1.8923154";"100.085881";"https://maps.google.com/?cid=0x0:0x112c5113d1e600e0";""
"cafe";"Kafe";"Cafe black white coffee";"Jl. Kp. Baru III, Kota Pinang, Kec. Kota Pinang, Kab. Labuhanbatu Selatan, Sumatera Utara 21464";"Kota Pinang, Kec. Kota Pinang, Kab. Labuhanbatu Selatan";"SUMATERA UTARA";"21464";"Indonesia";" 081263198118";"";"";"1.8860773";"100.0925621";"https://maps.google.com/?cid=0x0:0xb01612f719531542";""
"cafe";"Kafe";"CAFE 26";"V3VF+V74, Kota Pinang, Kec. Kota Pinang, Kab. Labuhanbatu Selatan, Sumatera Utara 21464";"Kota Pinang, Kec. Kota Pinang, Kab. Labuhanbatu Selatan";"SUMATERA UTARA";"21464";"Indonesia";" 081376120088";"";"";"1.8946408";"100.073203";"https://maps.google.com/?cid=0x0:0xbb3aebb8fc603bda";""
"cafe";"Kedai Kopi";"CK Corner Kotapinang";"Jl. Lintas Sumatra, Kota Pinang, Kec. Kota Pinang, Kab. Labuhanbatu Selatan, Sumatera Utara 21464";"Kota Pinang, Kec. Kota Pinang, Kab. Labuhanbatu Selatan";"SUMATERA UTARA";"21464";"Indonesia";" 082294415683";"";"";"1.8933086";"100.0850047";"https://maps.google.com/?cid=0x0:0xd9689762180f014f";""
"cafe";"Kafe";"E Club Restaurant";"Jl. Lintas Sumatra No.16, Kota Pinang, Kec. Kota Pinang, Kab. Labuhanbatu Selatan, Sumatera Utara 21464";"Kota Pinang, Kec. Kota Pinang, Kab. Labuhanbatu Selatan";"SUMATERA UTARA";"21464";"Indonesia";" 082167693578";"";"";"1.8959063";"100.0842067";"https://maps.google.com/?cid=0x0:0x9b324efaabc68e13";""
"cafe";"Kedai Kopi";"Teras Kopi";"Jl. Lintas Sumatra, Kota Pinang, Kec. Kota Pinang, Kab. Labuhanbatu Selatan, Sumatera Utara 21464";"Kota Pinang, Kec. Kota Pinang, Kab. Labuhanbatu Selatan";"SUMATERA UTARA";"21464";"Indonesia";"";"";"";"1.892048";"100.0869261";"https://maps.google.com/?cid=0x0:0x7a59d034c7b97ec1";""
"cafe";"Kafe";"Zamrud Cafe";"V3RR+P63, Jl. Kp. Jawa, Kota Pinang, Kec. Kota Pinang, Kab. Labuhanbatu Selatan, Sumatera Utara 21464";"Jl. Kp. Jawa, Kota Pinang, Kec. Kota Pinang, Kab. Labuhanbatu Selatan";"SUMATERA UTARA";"21464";"Indonesia";" 081265269727";"";"";"1.8917727";"100.0905479";"https://maps.google.com/?cid=0x0:0xfa7b5ff282859f1f";""
"cafe";"Kedai Kopi";"Komika coffe shop";"Jl. Kp. Jawa, Kota Pinang, Kec. Kota Pinang, Kab. Labuhanbatu Selatan, Sumatera Utara 21464";"Kota Pinang, Kec. Kota Pinang, Kab. Labuhanbatu Selatan";"SUMATERA UTARA";"21464";"Indonesia";" 08116322303";"";"";"1.892909";"100.0911793";"https://maps.google.com/?cid=0x0:0xc29490105a6668bb";""
"cafe";"Kafe";"Curhat Cafe";"Teluk Pinang, Kota Pinang, Kec. Kota Pinang, Kab. Labuhanbatu Selatan, Sumatera Utara";"Kab. Labuhanbatu Selatan, Sumatera Utara";"SUMATERA UTARA";"";"Indonesia";"";"";"";"1.8914754";"100.1083596";"https://maps.google.com/?cid=0x0:0x6569662ab763873c";""
"cafe";"cafe";"Sumatera Utara 21464";"Kab. Labuhanbatu Selatan, Sumatera Utara";"Kab. Labuhanbatu Selatan, Sumatera Utara";"SUMATERA UTARA";"";"Indonesia";"";"";"";"1.6877896";"100.2151578";"https://maps.google.com/?cid=0x0:0xcb75493cd4919ca3";""
"cafe";"Toko Kue";"Toko Roti.france Bakery Kota Pinang";"Jl. Lintas Sumatra No.77, Kota Pinang, Kec. Kota Pinang, Kab. Labuhanbatu Selatan, Sumatera Utara 21464";"Kota Pinang, Kec. Kota Pinang, Kab. Labuhanbatu Selatan";"SUMATERA UTARA";"21464";"Indonesia";"";"";"";"1.8904694";"100.0902014";"https://maps.google.com/?cid=0x0:0x156c602b36a7682e";""
"cafe";"Kafe";"SMAN-SA Coffee Shop Bakso  Mie Ayam BAROKAH kota Pinang";"V3XM+5R6, Kota Pinang, Kec. Kota Pinang, Kab. Labuhanbatu Selatan, Sumatera Utara 21464";"Kota Pinang, Kec. Kota Pinang, Kab. Labuhanbatu Selatan";"SUMATERA UTARA";"21464";"Indonesia";" 081396810329";"";"";"1.8979194";"100.0845057";"https://maps.google.com/?cid=0x0:0xf7c7617056452c54";""
"cafe";"Mi";"Take Me Box Kotapinang";"Jl. Bukit Kota Pinang No.128, Kota Pinang, Kec. Kota Pinang, Kab. Labuhanbatu Selatan, Sumatera Utara 21464";"Kota Pinang, Kec. Kota Pinang, Kab. Labuhanbatu Selatan";"SUMATERA UTARA";"21464";"Indonesia";"";"";"";"1.8922939";"100.0864339";"https://maps.google.com/?cid=0x0:0x21132d24f1fc7b71";""
"cafe";"Restoran";"ES GAK BERES CAB. KOTA PINANG - LABUSEL";"V3RV+V9P, Jl. Mesjid Raya, Kota Pinang, Kec. Kota Pinang, Kab. Labuhanbatu Selatan, Sumatera Utara 21464";"Jl. Mesjid Raya, Kota Pinang, Kec. Kota Pinang, Kab. Labuhanbatu Selatan";"SUMATERA UTARA";"21464";"Indonesia";" 082370577377";"";"";"1.8922176";"100.0934456";"https://maps.google.com/?cid=0x0:0x3fd4af6941567ff3";""
"cafe";"cafe";"Sumatera Utara 21461";"Kec. Silangkitang, Kab. Labuhanbatu Selatan, Sumatera Utara";"Kab. Labuhanbatu Selatan, Sumatera Utara";"SUMATERA UTARA";"";"Indonesia";"";"";"";"1.8427607";"99.9465077";"https://maps.google.com/?cid=0x0:0x235a9827314238c5";""
"cafe";"Kafe";"CAFE SENENG MORO";"VW54+CWW, Unnamed Road, Ulu Mahuam, Kec. Silangkitang, Kab. Labuhanbatu Selatan, Sumatera Utara 21461";"Unnamed Road, Ulu Mahuam, Kec. Silangkitang, Kab. Labuhanbatu Selatan";"SUMATERA UTARA";"21461";"Indonesia";" 085297080118";"";"";"1.8586159";"99.9073396";"https://maps.google.com/?cid=0x0:0x7e833131babffc67";""
"cafe";"Kedai Kopi";"Cafe Ava Yayak...";"XW32+2V7, Jl. Besar Rintis, Desa:Rintis Dusun:Subur, Kec. Silangkitang, Kab. Labuhanbatu Selatan, Sumatera Utara 21451";"Jl. Besar Rintis, Desa:Rintis Dusun:Subur, Kec. Silangkitang, Kab. Labuhanbatu Selatan";"SUMATERA UTARA";"21451";"Indonesia";" 082160589343";"";"";"1.9525391";"99.9021725";"https://maps.google.com/?cid=0x0:0x9b53820f674dbe48";""
"cafe";"Kafe";"DING MORO CAFE";"WW3J+WHP, Ulu Mahuam, Kec. Silangkitang, Kab. Labuhanbatu Selatan, Sumatera Utara 21461";"Ulu Mahuam, Kec. Silangkitang, Kab. Labuhanbatu Selatan";"SUMATERA UTARA";"21461";"Indonesia";" 081333155552";"";"";"1.9048489";"99.9314466";"https://maps.google.com/?cid=0x0:0xf681a942b2f6dc7";""
"cafe";"Kafe";"Yuni Kp 30";"VWGG+FMP, Ulu Mahuam, Kec. Silangkitang, Kab. Labuhanbatu Selatan, Sumatera Utara 21461";"Ulu Mahuam, Kec. Silangkitang, Kab. Labuhanbatu Selatan";"SUMATERA UTARA";"21461";"Indonesia";"";"";"";"1.8762073";"99.9267103";"https://maps.google.com/?cid=0x0:0xa0f0b9cbea412e39";""
"cafe";"Brunch";"WAROENG SOHIB";"Jl. Besar Rintis, Rintis, Kec. Silangkitang, Kab. Labuhanbatu Selatan, Sumatera Utara 21461";"Rintis, Kec. Silangkitang, Kab. Labuhanbatu Selatan";"SUMATERA UTARA";"21461";"Indonesia";" 082370107732";"";"";"1.9070608";"99.9313811";"https://maps.google.com/?cid=0x0:0xc54cc80f6877cf45";""
"cafe";"Kafe";"Kisah kasih cokelat";"VW33+F3J, Pajak, Ulu Mahuam, Kec. Silangkitang, Kab. Labuhanbatu Selatan, Sumatera Utara 21461";"Pajak, Ulu Mahuam, Kec. Silangkitang, Kab. Labuhanbatu Selatan";"SUMATERA UTARA";"21461";"Indonesia";" 085260204546";"";"";"1.8537033";"99.9026427";"https://maps.google.com/?cid=0x0:0x5641aedc31bdf61e";""
"cafe";"Kedai Kopi";"mx kopi";"VW54+8PC, Ulu Mahuam, Kec. Silangkitang, Kab. Labuhanbatu Selatan, Sumatera Utara 21461";"Ulu Mahuam, Kec. Silangkitang, Kab. Labuhanbatu Selatan";"SUMATERA UTARA";"21461";"Indonesia";"";"";"";"1.8583016";"99.9067501";"https://maps.google.com/?cid=0x0:0x41b58ab33f0b1cdc";""
"cafe";"Kafe";"Kedai Kopi H.Rasidi";"RW9J+W58, Binanga Dua, Kec. Silangkitang, Kab. Labuhanbatu Selatan, Sumatera Utara 21461";"Binanga Dua, Kec. Silangkitang, Kab. Labuhanbatu Selatan";"SUMATERA UTARA";"21461";"Indonesia";"";"";"";"1.8197944";"99.9304483";"https://maps.google.com/?cid=0x0:0x4f1f81eb80d79439";""
"cafe";"Kafe";"Twenty coffe";"Ulu Mahuam, Kec. Silangkitang, Kab. Labuhanbatu Selatan, Sumatera Utara";"Kab. Labuhanbatu Selatan, Sumatera Utara";"SUMATERA UTARA";"";"Indonesia";" 082268613585";"";"";"1.91256";"99.9306746";"https://maps.google.com/?cid=0x0:0x733fa12242ab3b34";""
"cafe";"Kafe";"PANGERANKUFFI";"Q264+6F9, Sabungan, Kec. Sungai Kanan, Kab. Labuhanbatu Selatan, Sumatera Utara 21464";"Sabungan, Kec. Sungai Kanan, Kab. Labuhanbatu Selatan";"SUMATERA UTARA";"21464";"Indonesia";" 082272200042";"";"";"1.7605261";"100.0062344";"https://maps.google.com/?cid=0x0:0x82a64c6b3a2170a1";""
"cafe";"Dapur Umum";"WARUNG SAYUR RAR";"Ulu Mahuam, Kec. Silangkitang, Kab. Labuhanbatu Selatan, Sumatera Utara 21461";"Kec. Silangkitang, Kab. Labuhanbatu Selatan";"SUMATERA UTARA";"21461";"Indonesia";" 082370977305";"";"";"1.8576765";"99.9055042";"https://maps.google.com/?cid=0x0:0x6b1333e8038d0750";""
"cafe";"Kafe";"Basecamp Kita";"Jl. Besar, Padang Bulan, Kec. Silangkitang, Kab. Labuhanbatu Selatan, Sumatera Utara 21461";"Padang Bulan, Kec. Silangkitang, Kab. Labuhanbatu Selatan";"SUMATERA UTARA";"21461";"Indonesia";" 082366021763";"";"";"1.8598943";"99.8944833";"https://maps.google.com/?cid=0x0:0x6ed8ce12f376e673";""
"cafe";"Kafe";"Warung Kamit";"VW55+J93, Pandansari, Kec. Silangkitang, Kab. Labuhanbatu Selatan, Sumatera Utara 21461";"Pandansari, Kec. Silangkitang, Kab. Labuhanbatu Selatan";"SUMATERA UTARA";"21461";"Indonesia";"";"";"";"1.8590248";"99.9084278";"https://maps.google.com/?cid=0x0:0xdd110f66b562586f";""
"cafe";"Kafe";"Lopo Kopi Tulang Nahar Hsb";"Unnamed Road, Binanga Dua, Kec. Silangkitang, Kab. Labuhanbatu Selatan, Sumatera Utara 21461";"Binanga Dua, Kec. Silangkitang, Kab. Labuhanbatu Selatan";"SUMATERA UTARA";"21461";"Indonesia";" 085275225525";"";"";"1.826124";"99.9375204";"https://maps.google.com/?cid=0x0:0xae834d1264af36ab";""
"cafe";"cafe";"Cafe kelapa muda buk nur";"Jalan lintas Jl. Kota Pinang - Gunung Tua, Simatahari, Kec. Kota Pinang, Kab. Labuhanbatu Selatan, Sumatera Utara";"Kab. Labuhanbatu Selatan, Sumatera Utara";"SUMATERA UTARA";"";"Indonesia";"";"";"";"1.7979133";"100.0205267";"https://maps.google.com/?cid=0x0:0x7a166da09ec7bb38";""
"cafe";"Kafe";"Antek_coffee";"WW4J+3JH, Jl. Besar Rintis, Rintis, Kec. Silangkitang, Kab. Labuhanbatu, Sumatera Utara";"Kab. Labuhanbatu, Sumatera Utara";"SUMATERA UTARA";"";"Indonesia";" 082167943217";"";"";"1.905199";"99.9316086";"https://maps.google.com/?cid=0x0:0x9ae542724eb46bd2";""
"cafe";"Kafe";"TULANG KEDE KOPI SIMPANG SUHUT";"XW23+XHG, Unnamed Road, Rintis, Kec. Silangkitang, Kab. Labuhanbatu Selatan, Sumatera Utara 21451";"Unnamed Road, Rintis, Kec. Silangkitang, Kab. Labuhanbatu Selatan";"SUMATERA UTARA";"21451";"Indonesia";"";"";"";"1.95243";"99.903936";"https://maps.google.com/?cid=0x0:0x61778180b816143a";""
"cafe";"Kedai Kopi";"Warkop nek Pandu";"RWG2+GM7, Binanga Dua, Kec. Silangkitang, Kab. Labuhanbatu Selatan, Sumatera Utara 21461";"Binanga Dua, Kec. Silangkitang, Kab. Labuhanbatu Selatan";"SUMATERA UTARA";"21461";"Indonesia";"";"";"";"1.8253471";"99.9018279";"https://maps.google.com/?cid=0x0:0x77bd19e51cc05d77";""
"cafe";"Dapur Umum";"BSTO Cafe";"VVRR+F7C, Jl, Aek Goti, Kec. Silangkitang, Kab. Labuhanbatu Selatan, Sumatera Utara 21462";"Jl, Aek Goti, Kec. Silangkitang, Kab. Labuhanbatu Selatan";"SUMATERA UTARA";"21462";"Indonesia";" 085279790328";"";"";"1.8911841";"99.890643";"https://maps.google.com/?cid=0x0:0x2f23c47439a82c41";""
"cafe";"Kafe";"Cafe Dela";"Unnamed Road, 21465, Sabungan, Kec. Sungai Kanan, Kab. Labuhanbatu Selatan, Sumatera Utara 21465";"21465, Sabungan, Kec. Sungai Kanan, Kab. Labuhanbatu Selatan";"SUMATERA UTARA";"21465";"Indonesia";" 082273169887";"";"";"1.7426902";"99.962188";"https://maps.google.com/?cid=0x0:0xb4f29c987c9c357c";""
"cafe";"Kedai Kopi";"Warkop Berkah Bukit Jengkol";"VX3J+X9, Ulu Mahuam, Kec. Silangkitang, Kab. Labuhanbatu Selatan, Sumatera Utara";"Kab. Labuhanbatu Selatan, Sumatera Utara";"SUMATERA UTARA";"";"Indonesia";"";"";"";"1.8549167";"99.9809633";"https://maps.google.com/?cid=0x0:0x50f6c445610944a";""
"cafe";"Kedai Kopi";"Warung Doremas";"VW54+57F, Unnamed Road, Ulu Mahuam, Kec. Silangkitang, Kab. Labuhanbatu Selatan, Sumatera Utara 21461";"Unnamed Road, Ulu Mahuam, Kec. Silangkitang, Kab. Labuhanbatu Selatan";"SUMATERA UTARA";"21461";"Indonesia";"";"";"";"1.8579293";"99.9056774";"https://maps.google.com/?cid=0x0:0x6fb53604624946bc";""
"cafe";"Brunch";"Warung Kenzie";"XW22+XVF, Jl. Besar Rintis, Rintis, Kec. Silangkitang, Kab. Labuhanbatu Selatan, Sumatera Utara 21451";"Jl. Besar Rintis, Rintis, Kec. Silangkitang, Kab. Labuhanbatu Selatan";"SUMATERA UTARA";"21451";"Indonesia";" 082160589343";"";"";"1.9524432";"99.9021712";"https://maps.google.com/?cid=0x0:0x9ef11692af91d4d3";""
"cafe";"cafe";"Sumatera Utara 21464";"Kab. Labuhanbatu Selatan, Sumatera Utara";"Kab. Labuhanbatu Selatan, Sumatera Utara";"SUMATERA UTARA";"";"Indonesia";"";"";"";"1.6877896";"100.2151578";"https://maps.google.com/?cid=0x0:0xcb75493cd4919ca3";""
"cafe";"Kafe";"Eighty-Eight cafe and Resto";"V45W+FP, Aek Batu, Kec. Torgamba, Kab. Labuhanbatu Selatan, Sumatera Utara 21464";"Aek Batu, Kec. Torgamba, Kab. Labuhanbatu Selatan";"SUMATERA UTARA";"21464";"Indonesia";"";"";"";"1.8587381";"100.1467708";"https://maps.google.com/?cid=0x0:0x34eb017a44e3aa4d";""
"cafe";"Kafe";"Twenty Eight Cafe";"MCV7+F6V, Jl. Jenderal Sudirman, Torgamba, Kec. Torgamba, Kab. Labuhanbatu Selatan, Sumatera Utara 28992";"Jl. Jenderal Sudirman, Torgamba, Kec. Torgamba, Kab. Labuhanbatu Selatan";"SUMATERA UTARA";"28992";"Indonesia";"";"";"";"1.6937342";"100.4130385";"https://maps.google.com/?cid=0x0:0x46fffe4b82ac6ba";""
"cafe";"Kafe";"Kita kita cafe";"P65H+72G, Unnamed Road, Aek Raso, Kec. Torgamba, Kab. Labuhanbatu Selatan, Sumatera Utara 21464";"Unnamed Road, Aek Raso, Kec. Torgamba, Kab. Labuhanbatu Selatan";"SUMATERA UTARA";"21464";"Indonesia";"";"";"";"1.7081808";"100.2275864";"https://maps.google.com/?cid=0x0:0xbb255b320da506a6";""
"cafe";"Kafe";"Babe Cafe";"F96Q+J4H, Sungai Meranti, Kec. Torgamba, Kab. Labuhanbatu Selatan, Sumatera Utara 21464";"Sungai Meranti, Kec. Torgamba, Kab. Labuhanbatu Selatan";"SUMATERA UTARA";"21464";"Indonesia";"";"";"";"1.4615714";"100.3878512";"https://maps.google.com/?cid=0x0:0x274c0578ff890d0a";""
"cafe";"Restoran";"75 Cafe  Resto";"Jl. Lintas Sumatra No.16, Aek Batu, Cikampak, Kab. Labuhanbatu Selatan, Sumatera Utara 21464";"Aek Batu, Cikampak, Kab. Labuhanbatu Selatan";"SUMATERA UTARA";"21464";"Indonesia";" 081219137575";"";"";"1.7875695";"100.2002847";"https://maps.google.com/?cid=0x0:0x4df85e08528fc1bf";""
"cafe";"Kedai Kopi";"Cafe cobar";"Jl. Lintas Sumatra, Asam Jawa, Kec. Torgamba, Kab. Labuhanbatu Selatan, Sumatera Utara 21464";"Asam Jawa, Kec. Torgamba, Kab. Labuhanbatu Selatan";"SUMATERA UTARA";"21464";"Indonesia";" 082361766233";"";"";"1.8611775";"100.1330367";"https://maps.google.com/?cid=0x0:0xeba49c51b0be37e0";""
"cafe";"Kedai Kopi";"Cizeburger";"Jl. Abdi Negara, Asam Jawa, Kec. Torgamba, Kab. Labuhanbatu Selatan, Sumatera Utara 21464";"Asam Jawa, Kec. Torgamba, Kab. Labuhanbatu Selatan";"SUMATERA UTARA";"21464";"Indonesia";" 082274029163";"";"";"1.8619329";"100.1536359";"https://maps.google.com/?cid=0x0:0xcabaf8ad00b1c17b";""
"cafe";"Dapur Umum";"RH COFFEE";"Jl. Jenderal Sudirman No.16, Aek Batu, Kec. Torgamba, Kab. Labuhanbatu Selatan, Sumatera Utara 21464";"Aek Batu, Kec. Torgamba, Kab. Labuhanbatu Selatan";"SUMATERA UTARA";"21464";"Indonesia";"";"";"";"1.7956568";"100.1938819";"https://maps.google.com/?cid=0x0:0x978ffb0f07d50f6a";""
"cafe";"Restoran";"Kafe Yoki";"Q5JQ+8R9, Aek Batu, Kec. Torgamba, Kab. Labuhanbatu Selatan, Sumatera Utara 21464";"Aek Batu, Kec. Torgamba, Kab. Labuhanbatu Selatan";"SUMATERA UTARA";"21464";"Indonesia";" 085297229256";"";"";"1.7807815";"100.1895974";"https://maps.google.com/?cid=0x0:0x79019db7c38c0988";""
"cafe";"Kedai Kopi";"Pusat kumpul tobrut baik";"MCW2+42V, Torgamba, Kec. Torgamba, Kab. Labuhanbatu Selatan, Sumatera Utara 28992";"Torgamba, Kec. Torgamba, Kab. Labuhanbatu Selatan";"SUMATERA UTARA";"28992";"Indonesia";"";"";"";"1.6953861";"100.4000331";"https://maps.google.com/?cid=0x0:0x9745a173f68b9ea5";""
"cafe";"Komplek perumahan";"Bagan Toreh WiFi - Kampoengkoe ID";"Sungai Meranti, Kec. Torgamba, Kab. Labuhanbatu Selatan, Sumatera Utara 21464";"Kec. Torgamba, Kab. Labuhanbatu Selatan";"SUMATERA UTARA";"21464";"Indonesia";" 085269000477";"";"";"1.4963399";"100.3944015";"https://maps.google.com/?cid=0x0:0xa46b2e58662fc6f6";""
"cafe";"Pemasok makanan dan minuman katering";"Putri Tunggal Cafe";"Unnamed Road, Sungai Meranti, Kec. Torgamba, Kab. Labuhanbatu Selatan, Sumatera Utara 21464";"Sungai Meranti, Kec. Torgamba, Kab. Labuhanbatu Selatan";"SUMATERA UTARA";"21464";"Indonesia";" 082389013800";"";"";"1.493668";"100.394734";"https://maps.google.com/?cid=0x0:0x431081dbed5c7cae";""
"cafe";"Restoran";"Warong Bibi karo";"Q752+XX, Beringin Jaya, Kec. Torgamba, Kab. Labuhanbatu Selatan, Sumatera Utara 21464";"Beringin Jaya, Kec. Torgamba, Kab. Labuhanbatu Selatan";"SUMATERA UTARA";"21464";"Indonesia";"";"";"";"1.7596628";"100.2526266";"https://maps.google.com/?cid=0x0:0x62b1417edb458e4e";""
"cafe";"Kafe";"Arion cafe";"V45W+FP, Aek Batu, Kec. Torgamba, Kab. Labuhanbatu Selatan, Sumatera Utara 21464";"Aek Batu, Kec. Torgamba, Kab. Labuhanbatu Selatan";"SUMATERA UTARA";"21464";"Indonesia";" 082168911157";"";"";"1.8587746";"100.1467744";"https://maps.google.com/?cid=0x0:0xa55b18b589044b12";""
"cafe";"Kafe";"Kita-kita Cafe";"P648+JC4 cafe di dekat, Aek Raso, Kec. Torgamba, Kab. Labuhanbatu Selatan, Sumatera Utara 21464";"Aek Raso, Kec. Torgamba, Kab. Labuhanbatu Selatan";"SUMATERA UTARA";"21464";"Indonesia";" 082272454047";"";"";"1.706508";"100.2160664";"https://maps.google.com/?cid=0x0:0x63d134dcd8ae3fb3";""
"cafe";"Kedai Kopi";"Boba LEKKU";"Q6P3+WC3, Aek Batu, Kec. Torgamba, Kab. Labuhanbatu Selatan, Sumatera Utara 21464";"Aek Batu, Kec. Torgamba, Kab. Labuhanbatu Selatan";"SUMATERA UTARA";"21464";"Indonesia";"";"";"";"1.7872528";"100.2035605";"https://maps.google.com/?cid=0x0:0x220991c745b68573";""
"cafe";"Restoran";"Waroenk Glodokan";"P64G+5W7, Aek Raso, Kec. Torgamba, Kab. Labuhanbatu Selatan, Sumatera Utara 21464";"Aek Raso, Kec. Torgamba, Kab. Labuhanbatu Selatan";"SUMATERA UTARA";"21464";"Indonesia";" 082275559320";"";"";"1.7054238";"100.2273079";"https://maps.google.com/?cid=0x0:0x42a2b0cc86d9433e";""
"cafe";"Kedai Kopi";"Warkop Wedang Kopi 257";"Jl. Torganda, Aek Batu, Kec. Torgamba, Kab. Labuhanbatu Selatan, Sumatera Utara 21464";"Aek Batu, Kec. Torgamba, Kab. Labuhanbatu Selatan";"SUMATERA UTARA";"21464";"Indonesia";"";"";"";"1.7911797";"100.1967462";"https://maps.google.com/?cid=0x0:0x3b202c6001337c6d";""
"cafe";"Kedai Kopi";"Kopi Maknek";"Pirbun c, sumberjo, Kec. Torgamba, Kab. Labuhanbatu Selatan, Sumatera Utara 21464";"sumberjo, Kec. Torgamba, Kab. Labuhanbatu Selatan";"SUMATERA UTARA";"21464";"Indonesia";" 081269336912";"";"";"1.8896722";"100.1841043";"https://maps.google.com/?cid=0x0:0x61656623f3276d36";""
"cafe";"Kedai Kopi";"Warung Kopi Kawanku";"Q5QX+V37, Jl. Torganda Desa, Aek Batu, Kec. Torgamba, Kab. Labuhanbatu Selatan, Sumatera Utara 21464";"Jl. Torganda Desa, Aek Batu, Kec. Torgamba, Kab. Labuhanbatu Selatan";"SUMATERA UTARA";"21464";"Indonesia";" 085261968000";"";"";"1.7896743";"100.1976746";"https://maps.google.com/?cid=0x0:0x29742d1c8adf2ddb";""
"cafe";"Restoran";"Cikampak Nasi Uduk Pujakesuma";"Q5QX+6QR, Jl. Torganda, Aek Batu, Kec. Torgamba, Kab. Labuhanbatu Selatan, Sumatera Utara 21464";"Jl. Torganda, Aek Batu, Kec. Torgamba, Kab. Labuhanbatu Selatan";"SUMATERA UTARA";"21464";"Indonesia";" 082364275103";"";"";"1.7881206";"100.1993817";"https://maps.google.com/?cid=0x0:0xa75dea5b98fd7927";""
"cafe";"Kafe";"SETEMPAT FUNSPACE";"Q5XX+7G6, Jl. Dusun Mulya, Aek Batu, Kec. Torgamba, Kab. Labuhanbatu Selatan, Sumatera Utara 21464";"Jl. Dusun Mulya, Aek Batu, Kec. Torgamba, Kab. Labuhanbatu Selatan";"SUMATERA UTARA";"21464";"Indonesia";" 081269426909";"";"";"1.7981678";"100.1987642";"https://maps.google.com/?cid=0x0:0x638f3c51d6b5d20d";""
"cafe";"Kafe";"Waroenk Kita Kita";"Q5QX+F5R, Jalan Lintas Timur cikampak tengah, Aek Batu, Kec. Torgamba, Kab. Labuhanbatu Selatan, Sumatera Utara 21464";"Jalan Lintas Timur cikampak tengah, Aek Batu, Kec. Torgamba, Kab. Labuhanbatu Selatan";"SUMATERA UTARA";"21464";"Indonesia";" 082165777456";"";"";"1.7887471";"100.1979038";"https://maps.google.com/?cid=0x0:0x317ca42093d0fd9e";""
"cafe";"Kafe";"Warung Be siagian";"P3R8+R85, Bangai, Kec. Torgamba, Kab. Labuhanbatu Selatan, Sumatera Utara 21464";"Bangai, Kec. Torgamba, Kab. Labuhanbatu Selatan";"SUMATERA UTARA";"21464";"Indonesia";" 082166026805";"";"";"1.74201";"100.0658647";"https://maps.google.com/?cid=0x0:0x9f758f54c8684460";""
"cafe";"Kafe";"Palanta Minang";"Jl. Torganda, Aek Batu, Kec. Torgamba, Kab. Labuhanbatu Selatan, Sumatera Utara 21464";"Aek Batu, Kec. Torgamba, Kab. Labuhanbatu Selatan";"SUMATERA UTARA";"21464";"Indonesia";" 081260698437";"";"";"1.8329372";"100.1835881";"https://maps.google.com/?cid=0x0:0x91b14d54301dcab2";""
"cafe";"Kedai Teh Tradisional";"BANDREKz AZZAM";"P64H+GH5, Aek Raso, Kec. Torgamba, Kab. Labuhanbatu Selatan, Sumatera Utara 21464";"Aek Raso, Kec. Torgamba, Kab. Labuhanbatu Selatan";"SUMATERA UTARA";"21464";"Indonesia";"";"";"";"1.7062578";"100.2289731";"https://maps.google.com/?cid=0x0:0x810e5ffa573fe84d";""
"cafe";"Kafe";"Warung KEDANTA";"Q5QX+G6F, Jl. Lintas Sumatra Jl. Torganda tengah, Aek Batu, Kec. Torgamba, Kab. Labuhanbatu Selatan, Sumatera Utara 21464";"Jl. Lintas Sumatra Jl. Torganda tengah, Aek Batu, Kec. Torgamba, Kab. Labuhanbatu Selatan";"SUMATERA UTARA";"21464";"Indonesia";"";"";"";"1.7888041";"100.1980467";"https://maps.google.com/?cid=0x0:0xe42bf91cc74afc48";""
