Category;Real Category;Business Name;Address;City;State;Postal Code;Country;Phone;Email;Website;Latitude;Longitude;Map Link;Details Link
"mall";"mall";"Sumatera Utara 21463";"Kec. Kp. Rakyat, Kab. Labuhanbatu Selatan, Sumatera Utara";"Kab. Labuhanbatu Selatan, Sumatera Utara";"SUMATERA UTARA";"";"Indonesia";"";"";"";"2.0724054";"100.2151578";"https://maps.google.com/?cid=0x0:0x8873c7c00b422839";""
"mall";"Toko Elektronik";"GlobalCom";"Tj. Medan, Kec. Kp. Rakyat, Kab. Labuhanbatu Selatan, Sumatera Utara 21463";"Kec. Kp. Rakyat, Kab. Labuhanbatu Selatan";"SUMATERA UTARA";"21463";"Indonesia";" 081260951926";"";"";"2.0606232";"100.1356218";"https://maps.google.com/?cid=0x0:0x5f6b997f0d5a3544";""
"mall";"Toko Swalayan";"Langgananku Toserba";"Unnamed Road III, Kp. Tlk. Panji, Kec. Kp. Rakyat, Kab. Labuhanbatu Selatan, Sumatera Utara 21463";"Kp. Tlk. Panji, Kec. Kp. Rakyat, Kab. Labuhanbatu Selatan";"SUMATERA UTARA";"21463";"Indonesia";" 081362341978";"";"";"2.0238098";"100.2694349";"https://maps.google.com/?cid=0x0:0xbe19e735a87dee98";""
"mall";"Toko bahan makanan";"Kios Tiga Putri";"23JV+299, Perkebunan Perlabian, Kec. Kp. Rakyat, Kab. Labuhanbatu Selatan, Sumatera Utara 21463";"Perkebunan Perlabian, Kec. Kp. Rakyat, Kab. Labuhanbatu Selatan";"SUMATERA UTARA";"21463";"Indonesia";" 081375210520";"";"";"2.0300375";"100.0934762";"https://maps.google.com/?cid=0x0:0xf0cb8db5a11415b9";""
"mall";"Komplek perumahan";"Pasar Tradisional Sidodadi";"W6WX+566, Jl. Besar Sidodadi, Kebun Tlk. Panji, Kec. Kp. Rakyat, Kab. Labuhanbatu Selatan, Sumatera Utara 21463";"Jl. Besar Sidodadi, Kebun Tlk. Panji, Kec. Kp. Rakyat, Kab. Labuhanbatu Selatan";"SUMATERA UTARA";"21463";"Indonesia";"";"";"";"1.9454179";"100.2480021";"https://maps.google.com/?cid=0x0:0x6aab7d8cfbef8c5";""
"mall";"Grosir Sayur dan Buah";"GROSIR POSMA";"Kebun Tlk. Panji, Kec. Kp. Rakyat, Kab. Labuhanbatu Selatan, Sumatera Utara 21463";"Kec. Kp. Rakyat, Kab. Labuhanbatu Selatan";"SUMATERA UTARA";"21463";"Indonesia";" 082360300187";"";"";"2.0029938";"100.2383432";"https://maps.google.com/?cid=0x0:0x5a09be7fa4ae46d9";""
"mall";"Pusat Perbelanjaan";"MANDIRI";"357J+5M7, Tj. Medan, Kec. Kp. Rakyat, Kab. Labuhanbatu Selatan, Sumatera Utara 21463";"Tj. Medan, Kec. Kp. Rakyat, Kab. Labuhanbatu Selatan";"SUMATERA UTARA";"21463";"Indonesia";" 082223935535";"";"";"2.0629182";"100.1816711";"https://maps.google.com/?cid=0x0:0x735570f10a37fb16";""
"mall";"Pusat Perbelanjaan";"Ramdhan Glosir";"W7V3+QJ9, Jl. Besar Sidodadi, Kebun Tlk. Panji, Kec. Kp. Rakyat, Kab. Labuhanbatu Selatan, Sumatera Utara 21463";"Jl. Besar Sidodadi, Kebun Tlk. Panji, Kec. Kp. Rakyat, Kab. Labuhanbatu Selatan";"SUMATERA UTARA";"21463";"Indonesia";"";"";"";"1.9444143";"100.2541189";"https://maps.google.com/?cid=0x0:0x9d0dc8521cbadc52";""
"mall";"Pasar";"Ai Cell";"W7V4+X6V, Dusun VIII, Sidodadi, Kec. Kp. Rakyat, Kab. Labuhanbatu Selatan, Sumatera Utara 21463";"Dusun VIII, Sidodadi, Kec. Kp. Rakyat, Kab. Labuhanbatu Selatan";"SUMATERA UTARA";"21463";"Indonesia";" 085358052261";"";"";"1.9449873";"100.2555422";"https://maps.google.com/?cid=0x0:0xe0659d6343432c52";""
"mall";"Kios";"Hani GiftShop";"343R+4JQ, Tj. Medan, Kec. Kp. Rakyat, Kab. Labuhanbatu Selatan, Sumatera Utara 21463";"Tj. Medan, Kec. Kp. Rakyat, Kab. Labuhanbatu Selatan";"SUMATERA UTARA";"21463";"Indonesia";"";"";"";"2.0527873";"100.1415754";"https://maps.google.com/?cid=0x0:0xfed8004d0c467392";""
"mall";"Toko Swalayan";"Central Mart";"Jl. Poros Sei Kalam(Simp.Titipori, Tlk. Panji I, Kec. Kp. Rakyat, Kab. Labuhanbatu Selatan, Sumatera Utara 21463";"Tlk. Panji I, Kec. Kp. Rakyat, Kab. Labuhanbatu Selatan";"SUMATERA UTARA";"21463";"Indonesia";" 0895346111299";"";"";"1.9446622";"100.2542187";"https://maps.google.com/?cid=0x0:0x70df46f6bedc3b3e";""
"mall";"Pusat Perbelanjaan";"UD. TINGKAT SIREGAR";"W5VW+VCG, Kebun Tlk. Panji, Kec. Kp. Rakyat, Kab. Labuhanbatu Selatan, Sumatera Utara 21464";"Kebun Tlk. Panji, Kec. Kp. Rakyat, Kab. Labuhanbatu Selatan";"SUMATERA UTARA";"21464";"Indonesia";"";"";"";"1.944676";"100.1960628";"https://maps.google.com/?cid=0x0:0xaae10675b12a2cda";""
"mall";"Toko";"TOKO ILHAM";"345Q+49M, Tj. Medan, Kec. Kp. Rakyat, Kab. Labuhanbatu Selatan, Sumatera Utara 21463";"Tj. Medan, Kec. Kp. Rakyat, Kab. Labuhanbatu Selatan";"SUMATERA UTARA";"21463";"Indonesia";"";"";"";"2.0578416";"100.1384248";"https://maps.google.com/?cid=0x0:0xac9e9ca9e375cbda";""
"mall";"Toko";"TOKO NABILA SIREGAR";"343R+4JQ, Tj. Medan, Kec. Kp. Rakyat, Kab. Labuhanbatu Selatan, Sumatera Utara 21463";"Tj. Medan, Kec. Kp. Rakyat, Kab. Labuhanbatu Selatan";"SUMATERA UTARA";"21463";"Indonesia";"";"";"";"2.0528486";"100.141615";"https://maps.google.com/?cid=0x0:0x4c12e775e5d58149";""
"mall";"Pusat Perbelanjaan";"UD. Dendy";"27P2+9F6, Sidomulyo, Kec. Kp. Rakyat, Kab. Labuhanbatu Selatan, Sumatera Utara 21463";"Sidomulyo, Kec. Kp. Rakyat, Kab. Labuhanbatu Selatan";"SUMATERA UTARA";"21463";"Indonesia";" 085275107176";"";"";"2.0359108";"100.2511266";"https://maps.google.com/?cid=0x0:0x3ce4f937754462ed";""
"mall";"";"Riska tri wahyuni";"4599+994, Unnamed Road, Tj. Selamat, Kec. Kp. Rakyat, Kab. Labuhanbatu Selatan, Sumatera Utara 21463";"Unnamed Road, Tj. Selamat, Kec. Kp. Rakyat, Kab. Labuhanbatu Selatan";"SUMATERA UTARA";"21463";"Indonesia";" 082365142357";"";"";"2.1183785";"100.1684502";"https://maps.google.com/?cid=0x0:0x655ba0bf9c4f727a";""
"mall";"Pusat Perbelanjaan";"TokoLelyJaya";"W7W4+2X, Kebun Tlk. Panji, Kec. Kp. Rakyat, Kab. Labuhanbatu Selatan, Sumatera Utara";"Kab. Labuhanbatu Selatan, Sumatera Utara";"SUMATERA UTARA";"";"Indonesia";"";"";"";"1.9450553";"100.2574797";"https://maps.google.com/?cid=0x0:0xc7cd0d6d588b1274";""
"mall";"Pusat Perbelanjaan";"Toko Bang Napi , S";"6752+599, Jl. Tanjung Mulia - Malinda, Tj. Mulia, Kec. Kp. Rakyat, Kab. Labuhanbatu Selatan, Sumatera Utara 21463";"Jl. Tanjung Mulia - Malinda, Tj. Mulia, Kec. Kp. Rakyat, Kab. Labuhanbatu Selatan";"SUMATERA UTARA";"21463";"Indonesia";" 085277770008";"";"";"2.2079055";"100.2509691";"https://maps.google.com/?cid=0x0:0xf89097572fd8b618";""
"mall";"Toko Kesehatan dan Kecantikan";"Agen NASA labuhan Batu";"23GW+P68, Pekan Tolan, Kec. Kp. Rakyat, Kab. Labuhanbatu Selatan, Sumatera Utara 21463";"Pekan Tolan, Kec. Kp. Rakyat, Kab. Labuhanbatu Selatan";"SUMATERA UTARA";"21463";"Indonesia";" 085261716381";"";"";"2.0267834";"100.0955917";"https://maps.google.com/?cid=0x0:0xff792148f6618024";""
"mall";"Toko Ponsel";"FAMILY PONSEL";"Jl. Khamdani, Perlabian, Kec. Kp. Rakyat, Kab. Labuhanbatu Selatan, Sumatera Utara 21462";"Perlabian, Kec. Kp. Rakyat, Kab. Labuhanbatu Selatan";"SUMATERA UTARA";"21462";"Indonesia";" 082166892101";"";"";"2.0765486";"100.0721319";"https://maps.google.com/?cid=0x0:0x3fbf187614117920";""
"mall";"";"Ternak kambing";"W6PX+CG8, Unnamed Road, Dusun 5, Kebun Tlk. Panji, Kec. Kp. Rakyat, Kab. Labuhanbatu Selatan, Sumatera Utara 21463";"Unnamed Road, Dusun 5, Kebun Tlk. Panji, Kec. Kp. Rakyat, Kab. Labuhanbatu Selatan";"SUMATERA UTARA";"21463";"Indonesia";"";"";"";"1.9360293";"100.2488233";"https://maps.google.com/?cid=0x0:0x9b38bf06db8e8e2f";""
"mall";"Pusat Perbelanjaan";"kede jon";"W7V2+V35, dusun sidodadi, Kebun Tlk. Panji, Kec. Kp. Rakyat, Kab. Labuhanbatu Selatan, Sumatera Utara";"Kab. Labuhanbatu Selatan, Sumatera Utara";"SUMATERA UTARA";"";"Indonesia";"";"";"";"1.9446415";"100.250228";"https://maps.google.com/?cid=0x0:0xd8f749f911516101";""
"mall";"Pusat Perbelanjaan";"Azri jaya";"W6PJ+67G Badut Ceria, Jl. Kp. Tempel, Kebun Tlk. Panji, Kec. Torgamba, Kab. Labuhanbatu Selatan, Sumatera Utara 21451";"Jl. Kp. Tempel, Kebun Tlk. Panji, Kec. Torgamba, Kab. Labuhanbatu Selatan";"SUMATERA UTARA";"21451";"Indonesia";" 082275445787";"";"";"1.9355694";"100.2307172";"https://maps.google.com/?cid=0x0:0xbbecb9e9591c85e7";""
"mall";"mall";"Kec. Kota Pinang";"Kab. Labuhanbatu Selatan, Sumatera Utara";"Kab. Labuhanbatu Selatan, Sumatera Utara";"SUMATERA UTARA";"";"Indonesia";"";"";"";"1.8906527";"100.0900259";"https://maps.google.com/?cid=0x0:0xf9d36fe53f57ed24";""
"mall";"Pusat Perbelanjaan";"MINISO RUKO KOTA PINANG";"V3WM+GP9, Kota Pinang, Kec. Kota Pinang, Kab. Labuhanbatu Selatan, Sumatera Utara 21464";"Kota Pinang, Kec. Kota Pinang, Kab. Labuhanbatu Selatan";"SUMATERA UTARA";"21464";"Indonesia";" 081397603332";"";"";"1.8963203";"100.084357";"https://maps.google.com/?cid=0x0:0x8c68555c02e20695";""
"mall";"Toko Pakaian";"Keanu Shop / Mie Level";"Pasir Tuntung, Kec. Kota Pinang, Kab. Labuhanbatu Selatan, Sumatera Utara 21464";"Kec. Kota Pinang, Kab. Labuhanbatu Selatan";"SUMATERA UTARA";"21464";"Indonesia";" 085371152771";"";"";"1.8211588";"100.1318475";"https://maps.google.com/?cid=0x0:0xcc99f70b8e779a32";""
"mall";"Toko bahan makanan";"Aisyah Store";"V3QP+4C3, Jl. Kp. Banjar II, Kota Pinang, Kec. Kota Pinang, Kab. Labuhanbatu Selatan, Sumatera Utara 21464";"Jl. Kp. Banjar II, Kota Pinang, Kec. Kota Pinang, Kab. Labuhanbatu Selatan";"SUMATERA UTARA";"21464";"Indonesia";"";"";"";"1.8877588";"100.0860443";"https://maps.google.com/?cid=0x0:0x23ade83b4912b022";""
"mall";"Toko Ponsel";"Lucky ponsel";"Jl. Bukit Kota Pinang, Kota Pinang, Kec. Kota Pinang, Kab. Labuhanbatu Selatan, Sumatera Utara 21464";"Kota Pinang, Kec. Kota Pinang, Kab. Labuhanbatu Selatan";"SUMATERA UTARA";"21464";"Indonesia";" 085277666666";"";"";"1.891156";"100.0884864";"https://maps.google.com/?cid=0x0:0x40020aac4feee07d";""
"mall";"Pusat Perbelanjaan";"aqilashop/Ella ahmad hasibuan";"Jl. Kp. Malim, Kota Pinang, Kec. Kota Pinang, Kab. Labuhanbatu Selatan, Sumatera Utara 21464";"Kota Pinang, Kec. Kota Pinang, Kab. Labuhanbatu Selatan";"SUMATERA UTARA";"21464";"Indonesia";" 085362100508";"";"";"1.8879593";"100.095979";"https://maps.google.com/?cid=0x0:0x836b961090cb6203";""
"mall";"Toko Ponsel";"Toko Reza";"W3XX+F68, Sisumut, Kec. Kota Pinang, Kab. Labuhanbatu Selatan, Sumatera Utara 21464";"Sisumut, Kec. Kota Pinang, Kab. Labuhanbatu Selatan";"SUMATERA UTARA";"21464";"Indonesia";"";"";"";"1.9485341";"100.0979419";"https://maps.google.com/?cid=0x0:0xca3a138e2a0d1f5d";""
"mall";"Salon Kecantikan";"Queen Salon";"Jl. Jenderal Sudirman No.76, Kota Pinang, Kec. Kota Pinang, Kab. Labuhanbatu Selatan, Sumatera Utara 21464";"Kota Pinang, Kec. Kota Pinang, Kab. Labuhanbatu Selatan";"SUMATERA UTARA";"21464";"Indonesia";" 082368777455";"";"";"1.8911655";"100.088439";"https://maps.google.com/?cid=0x0:0x7d924951b0536193";""
"mall";"Toko Ponsel";"Aset digital";"V3QW+VPF, Jalan, Labuhan Baru, Kota Pinang, South Labuhan Batu Regency, North Sumatra 21464";"Jalan, Labuhan Baru, Kota Pinang, South Labuhan Batu Regency";"SUMATERA UTARA";"21464";"Indonesia";" 082272593193";"";"";"1.889689";"100.0967855";"https://maps.google.com/?cid=0x0:0x925670b5d7d820a8";""
"mall";"Toko";"UD.regar Jaya";"Jl. Kota Pinang - Gunung Tua No.44444, Sabungan, Kec. Sungai Kanan, Kab. Labuhanbatu Selatan, Sumatera Utara 21464";"Sabungan, Kec. Sungai Kanan, Kab. Labuhanbatu Selatan";"SUMATERA UTARA";"21464";"Indonesia";" 081260669449";"";"";"1.7688812";"100.0094537";"https://maps.google.com/?cid=0x0:0x9e9334687c091b44";""
"mall";"Toko Swalayan";"Alfamidi AEK Batu";"Aek Batu, Kec. Torgamba, Kab. Labuhanbatu Selatan, Sumatera Utara 21464";"Kec. Torgamba, Kab. Labuhanbatu Selatan";"SUMATERA UTARA";"21464";"Indonesia";"";"";"";"1.8572667";"100.1499128";"https://maps.google.com/?cid=0x0:0x56d1701ed2056917";""
"mall";"Tukang Kaca";"Toko Kaca Cahaya Baru";"R288+M22, Mampang, Kec. Kota Pinang, Kab. Labuhanbatu Selatan, Sumatera Utara 21464";"Mampang, Kec. Kota Pinang, Kab. Labuhanbatu Selatan";"SUMATERA UTARA";"21464";"Indonesia";" 081375400127";"";"";"1.8166484";"100.0150027";"https://maps.google.com/?cid=0x0:0x7bdb5a40a1985e66";""
"mall";"Toko";"Toko perlengkapan sholat";"V3RR+726, Kota Pinang, Kec. Kota Pinang, Kab. Labuhanbatu Selatan, Sumatera Utara";"Kab. Labuhanbatu Selatan, Sumatera Utara";"SUMATERA UTARA";"";"Indonesia";"";"";"";"1.8906527";"100.0900259";"https://maps.google.com/?cid=0x0:0xcf5de408de60ebe7";""
"mall";"Toko Herbal";"Agen Nasa Labusel";"Dekat Unnamed, Pasir Tuntung, Kec. Kota Pinang, Kab. Labuhanbatu Selatan, Sumatera Utara 21464";"Pasir Tuntung, Kec. Kota Pinang, Kab. Labuhanbatu Selatan";"SUMATERA UTARA";"21464";"Indonesia";" 082166179606";"";"";"1.8753251";"100.1138135";"https://maps.google.com/?cid=0x0:0xa99b39d0b88c0481";""
"mall";"Minimarket";"Alfamidi Bukit Kotapinang";"V3RQ+GFR, Kota Pinang, Kec. Kota Pinang, Kab. Labuhanbatu Selatan, Sumatera Utara 21464";"Kota Pinang, Kec. Kota Pinang, Kab. Labuhanbatu Selatan";"SUMATERA UTARA";"21464";"Indonesia";" 082267167712";"";"";"1.8913694";"100.0886491";"https://maps.google.com/?cid=0x0:0x3d292757fd3fc948";""
"mall";"Perhimpunan Pengembang Perumahan";"Dusun Sidodadi blok 40";"W3VF+73, Perk Sei Rumbia, Kec. Kota Pinang, Kab. Labuhanbatu Selatan, Sumatera Utara";"Kab. Labuhanbatu Selatan, Sumatera Utara";"SUMATERA UTARA";"";"Indonesia";" 082360100179";"";"";"1.9431785";"100.0727104";"https://maps.google.com/?cid=0x0:0xa95191bf03fd0880";""
"mall";"Pusat Perbelanjaan";"Kedai Bang Ateng  Kak Eva";"R5PM+2RM Pinang Awan, Aek Batu, Kec. Torgamba, Kab. Labuhanbatu Selatan, Sumatera Utara 21464";"Aek Batu, Kec. Torgamba, Kab. Labuhanbatu Selatan";"SUMATERA UTARA";"21464";"Indonesia";"";"";"";"1.8350901";"100.1845525";"https://maps.google.com/?cid=0x0:0x370f0f70e392b8cd";""
"mall";"Kedai Kopi";"Kopilaku";"Jl. Bukit Kota Pinang, Kota Pinang, Kec. Kota Pinang, Kab. Labuhanbatu Selatan, Sumatera Utara 21464";"Kota Pinang, Kec. Kota Pinang, Kab. Labuhanbatu Selatan";"SUMATERA UTARA";"21464";"Indonesia";" 085270030710";"";"";"1.8914363";"100.0885635";"https://maps.google.com/?cid=0x0:0x25bdc13f7aba8c34";""
"mall";"Toko Pakaian";"Raycha Butik";"Jl. Lintas Sumatra No.89 Blok Songo, Sisumut, Kec. Kota Pinang, Kab. Labuhanbatu Selatan, Sumatera Utara 21564";"Sisumut, Kec. Kota Pinang, Kab. Labuhanbatu Selatan";"SUMATERA UTARA";"21564";"Indonesia";"";"";"";"1.9203049";"100.0949402";"https://maps.google.com/?cid=0x0:0x5dafc773b1775c10";""
"mall";"Toko bahan makanan";"Kampung mangga";"V5HC+X4C, Asam Jawa, Kec. Torgamba, Kab. Labuhanbatu Selatan, Sumatera Utara";"Kab. Labuhanbatu Selatan, Sumatera Utara";"SUMATERA UTARA";"";"Indonesia";"";"";"";"1.8799387";"100.1702788";"https://maps.google.com/?cid=0x0:0x611d41703a3bef1c";""
"mall";"Asosiasi/organisasi";"PT Asam Jawa";"JL. Sumberjo, Kota Pinang, Kec. Kota Pinang, Kab. Labuhanbatu Selatan, Sumatera Utara 21464";"Kota Pinang, Kec. Kota Pinang, Kab. Labuhanbatu Selatan";"SUMATERA UTARA";"21464";"Indonesia";"";"";"";"1.8983113";"100.1887387";"https://maps.google.com/?cid=0x0:0xbb0f9fc6bca7bcfa";""
"mall";"mall";"Sumatera Utara 21464";"Kab. Labuhanbatu Selatan, Sumatera Utara";"Kab. Labuhanbatu Selatan, Sumatera Utara";"SUMATERA UTARA";"";"Indonesia";"";"";"";"1.6877896";"100.2151578";"https://maps.google.com/?cid=0x0:0xcb75493cd4919ca3";""
"mall";"mall";"Sumatera Utara 21461";"Kec. Silangkitang, Kab. Labuhanbatu Selatan, Sumatera Utara";"Kab. Labuhanbatu Selatan, Sumatera Utara";"SUMATERA UTARA";"";"Indonesia";"";"";"";"1.8427607";"99.9465077";"https://maps.google.com/?cid=0x0:0x235a9827314238c5";""
"mall";"Pusat Perbelanjaan";"Pasar Senen Silang kitang";"VW32+8QC, Jalan Kampung Dalam, Aek Goti, Silangkitang, South Labuhan Batu Regency, North Sumatra 21451";"Jalan Kampung Dalam, Aek Goti, Silangkitang, South Labuhan Batu Regency";"SUMATERA UTARA";"21451";"Indonesia";"";"";"";"1.8533181";"99.901888";"https://maps.google.com/?cid=0x0:0xa80e356f3b240f92";""
"mall";"Pasar";"Pasar impres ujungpadang";"VWRJ+WRH, Jl. Besar Rintis, Ulu Mahuam, Kec. Silangkitang, Kab. Labuhanbatu Selatan, Sumatera Utara 21461";"Jl. Besar Rintis, Ulu Mahuam, Kec. Silangkitang, Kab. Labuhanbatu Selatan";"SUMATERA UTARA";"21461";"Indonesia";"";"";"";"1.8923067";"99.9321033";"https://maps.google.com/?cid=0x0:0x2fbdd0c834c3a007";""
"mall";"Balai Pertemuan Desa";"Pekan Aek Kulim";"RXV4+4MF, Aek Kulim, Mandala Sena, Kec. Silangkitang, Kab. Labuhanbatu Selatan, Sumatera Utara 21461";"Aek Kulim, Mandala Sena, Kec. Silangkitang, Kab. Labuhanbatu Selatan";"SUMATERA UTARA";"21461";"Indonesia";" 085274327654";"";"";"1.8428077";"99.9566874";"https://maps.google.com/?cid=0x0:0xb4114dd6da8f784f";""
"mall";"Masjid";"Suhud Barat desa rintis kecamatan silangkitang kab Labuhan batu selatan";"XW77+9P5, Jl. Dusun Suhud, Rintis, Kec. Silangkitang, Kab. Labuhanbatu Selatan, Sumatera Utara 21451";"Jl. Dusun Suhud, Rintis, Kec. Silangkitang, Kab. Labuhanbatu Selatan";"SUMATERA UTARA";"21451";"Indonesia";"";"";"";"1.9633906";"99.9143555";"https://maps.google.com/?cid=0x0:0xe9d27a62bde8a1a5";""
"mall";"Toko bahan makanan";"Ud. Kiki";"VW54+49J, Ulu Mahuam, Kec. Silangkitang, Kab. Labuhanbatu Selatan, Sumatera Utara 21461";"Ulu Mahuam, Kec. Silangkitang, Kab. Labuhanbatu Selatan";"SUMATERA UTARA";"21461";"Indonesia";"";"";"";"1.8578358";"99.905904";"https://maps.google.com/?cid=0x0:0x8ab67b56b1352428";""
"mall";"Toko bahan makanan";"TOKO ADAM";"VW54+7CC, Unnamed Road, Ulu Mahuam, Kec. Silangkitang, Kab. Labuhanbatu Selatan, Sumatera Utara 21461";"Unnamed Road, Ulu Mahuam, Kec. Silangkitang, Kab. Labuhanbatu Selatan";"SUMATERA UTARA";"21461";"Indonesia";" 081263335030";"";"";"1.8581834";"99.9060211";"https://maps.google.com/?cid=0x0:0xf66e6a09025bdd87";""
"mall";"Toko Makanan Organik";"Kerupuk Bawang Buk Tifa";"RW77+H6X, Binanga Dua, Kec. Silangkitang, Kab. Labuhanbatu Selatan, Sumatera Utara 21461";"Binanga Dua, Kec. Silangkitang, Kab. Labuhanbatu Selatan";"SUMATERA UTARA";"21461";"Indonesia";" 082276615444";"";"";"1.8139913";"99.9130982";"https://maps.google.com/?cid=0x0:0xb6150dd6a0caab9f";""
"mall";"Toko bahan makanan";"Ruko Ririn KS";"RXX2+352, Sumber Sari, Aek Kulim, Mandalasena, Kab. Labuhanbatu Selatan, Sumatera Utara 21461";"Sumber Sari, Aek Kulim, Mandalasena, Kab. Labuhanbatu Selatan";"SUMATERA UTARA";"21461";"Indonesia";" 08126227565";"";"";"1.8476449";"99.9503909";"https://maps.google.com/?cid=0x0:0x16d9261f0213d260";""
"mall";"Pusat Perbelanjaan";"SIMPANG TIGA PEKAN KAMIS";"PXG6+W8G, Jl. Kota Pinang - Gunung Tua, Langga Payung, Kec. Sungai Kanan, Kab. Labuhanbatu Selatan, Sumatera Utara 21465";"Jl. Kota Pinang - Gunung Tua, Langga Payung, Kec. Sungai Kanan, Kab. Labuhanbatu Selatan";"SUMATERA UTARA";"21465";"Indonesia";"";"";"";"1.7273043";"99.9608374";"https://maps.google.com/?cid=0x0:0x394ba02af2e186db";""
"mall";"Pusat Perbelanjaan";"MINISO RUKO KOTA PINANG";"V3WM+GP9, Kota Pinang, Kec. Kota Pinang, Kab. Labuhanbatu Selatan, Sumatera Utara 21464";"Kota Pinang, Kec. Kota Pinang, Kab. Labuhanbatu Selatan";"SUMATERA UTARA";"21464";"Indonesia";" 081397603332";"";"";"1.8963203";"100.084357";"https://maps.google.com/?cid=0x0:0x8c68555c02e20695";""
"mall";"Kantor Pemerintahan Wilayah";"Kede src Anum";"Ujung padang c 2, aek mahuam, Kec. Silangkitang, Kab. Labuhanbatu Selatan, Sumatera Utara";"Kab. Labuhanbatu Selatan, Sumatera Utara";"SUMATERA UTARA";"";"Indonesia";"";"";"";"1.9123197";"99.9305906";"https://maps.google.com/?cid=0x0:0xe9b710c41a76cc69";""
"mall";"Tujuan Wisata";"Pandayangan Indah";"VXG3+M6F, Ulu Mahuam, Kec. Silangkitang, Kab. Labuhanbatu Selatan, Sumatera Utara 21461";"Ulu Mahuam, Kec. Silangkitang, Kab. Labuhanbatu Selatan";"SUMATERA UTARA";"21461";"Indonesia";"";"";"";"1.876691";"99.953061";"https://maps.google.com/?cid=0x0:0xc5ee63a5d9a8d833";""
"mall";"Grosir";"Kedai eva";"WVQG+4PF, Aek Goti, Kec. Silangkitang, Kab. Labuhanbatu Selatan, Sumatera Utara 21451";"Aek Goti, Kec. Silangkitang, Kab. Labuhanbatu Selatan";"SUMATERA UTARA";"21451";"Indonesia";"";"";"";"1.9378091";"99.8767858";"https://maps.google.com/?cid=0x0:0x7d3ed000f7d4218e";""
"mall";"Toko";"Toko Mahdon Rifai. Rambe";"PWX5+JV5, Hajoran, Kec. Sungai Kanan, Kab. Labuhanbatu Selatan, Sumatera Utara 21465";"Hajoran, Kec. Sungai Kanan, Kab. Labuhanbatu Selatan";"SUMATERA UTARA";"21465";"Indonesia";"";"";"";"1.7490122";"99.9097433";"https://maps.google.com/?cid=0x0:0xb6b57479d756830d";""
"mall";"Toko Pakaian";"Toko fashion termurah";"Q288+2Q, Sabungan, Kec. Sungai Kanan, Kab. Labuhanbatu Selatan, Sumatera Utara";"Kab. Labuhanbatu Selatan, Sumatera Utara";"SUMATERA UTARA";"";"Indonesia";"";"";"";"1.7652928";"100.016217";"https://maps.google.com/?cid=0x0:0x2a643cff56ba9605";""
"mall";"Toko Ponsel";"Toko Reza";"W3XX+F68, Sisumut, Kec. Kota Pinang, Kab. Labuhanbatu Selatan, Sumatera Utara 21464";"Sisumut, Kec. Kota Pinang, Kab. Labuhanbatu Selatan";"SUMATERA UTARA";"21464";"Indonesia";"";"";"";"1.9485341";"100.0979419";"https://maps.google.com/?cid=0x0:0xca3a138e2a0d1f5d";""
"mall";"Toko bahan makanan";"Aisyah Store";"V3QP+4C3, Jl. Kp. Banjar II, Kota Pinang, Kec. Kota Pinang, Kab. Labuhanbatu Selatan, Sumatera Utara 21464";"Jl. Kp. Banjar II, Kota Pinang, Kec. Kota Pinang, Kab. Labuhanbatu Selatan";"SUMATERA UTARA";"21464";"Indonesia";"";"";"";"1.8877588";"100.0860443";"https://maps.google.com/?cid=0x0:0x23ade83b4912b022";""
"mall";"Toko";"UD.regar Jaya";"Jl. Kota Pinang - Gunung Tua No.44444, Sabungan, Kec. Sungai Kanan, Kab. Labuhanbatu Selatan, Sumatera Utara 21464";"Sabungan, Kec. Sungai Kanan, Kab. Labuhanbatu Selatan";"SUMATERA UTARA";"21464";"Indonesia";" 081260669449";"";"";"1.7688812";"100.0094537";"https://maps.google.com/?cid=0x0:0x9e9334687c091b44";""
"mall";"Perhimpunan Pengembang Perumahan";"Dusun Sidodadi blok 40";"W3VF+73, Perk Sei Rumbia, Kec. Kota Pinang, Kab. Labuhanbatu Selatan, Sumatera Utara";"Kab. Labuhanbatu Selatan, Sumatera Utara";"SUMATERA UTARA";"";"Indonesia";" 082360100179";"";"";"1.9431785";"100.0727104";"https://maps.google.com/?cid=0x0:0xa95191bf03fd0880";""
"mall";"Pusat Perbelanjaan";"Pelita Jaya";"PXF3+2J5, Langga Payung, Kec. Sungai Kanan, Kab. Labuhanbatu Selatan, Sumatera Utara 21465";"Langga Payung, Kec. Sungai Kanan, Kab. Labuhanbatu Selatan";"SUMATERA UTARA";"21465";"Indonesia";" 081265065128";"";"";"1.7225204";"99.9541045";"https://maps.google.com/?cid=0x0:0x55fa457d5bea45cd";""
"mall";"mall";"Sumatera Utara 21464";"Kab. Labuhanbatu Selatan, Sumatera Utara";"Kab. Labuhanbatu Selatan, Sumatera Utara";"SUMATERA UTARA";"";"Indonesia";"";"";"";"1.6877896";"100.2151578";"https://maps.google.com/?cid=0x0:0xcb75493cd4919ca3";""
"mall";"Pusat Perbelanjaan";"Ademah";"Q5XP+H3J, Aek Batu, Kec. Torgamba, Kab. Labuhanbatu Selatan, Sumatera Utara 21464";"Aek Batu, Kec. Torgamba, Kab. Labuhanbatu Selatan";"SUMATERA UTARA";"21464";"Indonesia";"";"";"";"1.7989651";"100.1851544";"https://maps.google.com/?cid=0x0:0x888303610f225efc";""
"mall";"Toko Ponsel";"RDF Ponsel";"M8CJ+72G, Torgamba, Kec. Torgamba, Kab. Labuhanbatu Selatan, Sumatera Utara 21464";"Torgamba, Kec. Torgamba, Kab. Labuhanbatu Selatan";"SUMATERA UTARA";"21464";"Indonesia";" 081378990321";"";"";"1.6706782";"100.3300884";"https://maps.google.com/?cid=0x0:0xaf0a2fdedf3276b9";""
"mall";"Toko Aksesori Pakaian";"Hendra fashion";"Q6P5+Q24, Aek Batu, Kec. Torgamba, Kab. Labuhanbatu Selatan, Sumatera Utara 21464";"Aek Batu, Kec. Torgamba, Kab. Labuhanbatu Selatan";"SUMATERA UTARA";"21464";"Indonesia";"";"";"";"1.7868909";"100.2075826";"https://maps.google.com/?cid=0x0:0x3dfd3bfbe3a3cce8";""
"mall";"Toko";"Toko azzam";"R55Q+W4H, AH25, Aek Batu, Kec. Torgamba, Kab. Labuhanbatu Selatan, Sumatera Utara 21464";"AH25, Aek Batu, Kec. Torgamba, Kab. Labuhanbatu Selatan";"SUMATERA UTARA";"21464";"Indonesia";" 085271180378";"";"";"1.8098169";"100.1878675";"https://maps.google.com/?cid=0x0:0xfdda5f138ada8f83";""
"mall";"";"Door Smeer Surbakti";"M8CH+586, Torgamba, Kec. Torgamba, Kab. Labuhanbatu Selatan, Sumatera Utara 21464";"Torgamba, Kec. Torgamba, Kab. Labuhanbatu Selatan";"SUMATERA UTARA";"21464";"Indonesia";" 082288253076";"";"";"1.6704047";"100.3282752";"https://maps.google.com/?cid=0x0:0x799df95385d92eaf";""
"mall";"Toko Swalayan";"Alfamidi AEK Batu";"Aek Batu, Kec. Torgamba, Kab. Labuhanbatu Selatan, Sumatera Utara 21464";"Kec. Torgamba, Kab. Labuhanbatu Selatan";"SUMATERA UTARA";"21464";"Indonesia";"";"";"";"1.8572667";"100.1499128";"https://maps.google.com/?cid=0x0:0x56d1701ed2056917";""
"mall";"Pusat Perbelanjaan";"UD. BAKTI SIR";"W5VV+V3Q, Pangarungan, Kec. Torgamba, Kab. Labuhanbatu Selatan, Sumatera Utara 21464";"Pangarungan, Kec. Torgamba, Kab. Labuhanbatu Selatan";"SUMATERA UTARA";"21464";"Indonesia";"";"";"";"1.944722";"100.1927193";"https://maps.google.com/?cid=0x0:0x9f7e60d146955532";""
"mall";"Toko Elektronik";"MITRA ELEKTRONIK  PERABOT";"Q6P5+M7C, Jl. Lintas Sumatra, Aek Batu, Kec. Torgamba, Kab. Labuhanbatu Selatan, Sumatera Utara 21464";"Jl. Lintas Sumatra, Aek Batu, Kec. Torgamba, Kab. Labuhanbatu Selatan";"SUMATERA UTARA";"21464";"Indonesia";"";"";"";"1.7866997";"100.2081281";"https://maps.google.com/?cid=0x0:0x51d8ec07eae4727e";""
"mall";"Toko bahan makanan";"Toko UD Ginting";"Q6Q3+4C9, Aek Batu, Kec. Torgamba, Kab. Labuhanbatu Selatan, Sumatera Utara 21464";"Aek Batu, Kec. Torgamba, Kab. Labuhanbatu Selatan";"SUMATERA UTARA";"21464";"Indonesia";"";"";"";"1.7877889";"100.2036051";"https://maps.google.com/?cid=0x0:0x4739a920aa0c144c";""
"mall";"Toko";"Toko CHANIA SERBA 35 CIKAMPAK";"Q6Q5+37M, Aek Batu, Kec. Torgamba, Kab. Labuhanbatu Selatan, Sumatera Utara 21464";"Aek Batu, Kec. Torgamba, Kab. Labuhanbatu Selatan";"SUMATERA UTARA";"21464";"Indonesia";"";"";"";"1.7868571";"100.2085378";"https://maps.google.com/?cid=0x0:0xf70404f13c7f3585";""
"mall";"Toko Swalayan";"Alfamidi Sudirman,Bagan Batu KM 1";"Jl. Jenderal Sudirman, Torgamba, Kec. Torgamba, Kab. Labuhanbatu Selatan, Sumatera Utara 28992";"Torgamba, Kec. Torgamba, Kab. Labuhanbatu Selatan";"SUMATERA UTARA";"28992";"Indonesia";" 082284993339";"";"";"1.6971025";"100.4099161";"https://maps.google.com/?cid=0x0:0x625f4fae105ee680";""
"mall";"Toko";"Toko Mentari";"R58P+2QG, Jl. Lintas Sumatra, Aek Batu, Kec. Torgamba, Kab. Labuhanbatu Selatan, Sumatera Utara 21464";"Jl. Lintas Sumatra, Aek Batu, Kec. Torgamba, Kab. Labuhanbatu Selatan";"SUMATERA UTARA";"21464";"Indonesia";" 081397873307";"";"";"1.8150511";"100.1869413";"https://maps.google.com/?cid=0x0:0xa866e7985aaf0da4";""
"mall";"Pusat Perbelanjaan";"Kedai Bang Ateng  Kak Eva";"R5PM+2RM Pinang Awan, Aek Batu, Kec. Torgamba, Kab. Labuhanbatu Selatan, Sumatera Utara 21464";"Aek Batu, Kec. Torgamba, Kab. Labuhanbatu Selatan";"SUMATERA UTARA";"21464";"Indonesia";"";"";"";"1.8350901";"100.1845525";"https://maps.google.com/?cid=0x0:0x370f0f70e392b8cd";""
"mall";"Pusat Perbelanjaan";"Pusat Grosir Terbesar DiSumberjo Ud. Raihan Gelembo";"V5FF+CHG, Asam Jawa, Kec. Torgamba, Kab. Labuhanbatu Selatan, Sumatera Utara 21464";"Asam Jawa, Kec. Torgamba, Kab. Labuhanbatu Selatan";"SUMATERA UTARA";"21464";"Indonesia";" 082367253117";"";"";"1.8735517";"100.1739386";"https://maps.google.com/?cid=0x0:0x5c86d995dddaafa9";""
"mall";"Komplek perumahan";"EKAPONSEL";"jln.jend sudirman, pajak lama, Torgamba, Kec. Torgamba, Kab. Labuhanbatu Selatan, Sumatera Utara 28992";"pajak lama, Torgamba, Kec. Torgamba, Kab. Labuhanbatu Selatan";"SUMATERA UTARA";"28992";"Indonesia";"";"";"";"1.6990396";"100.4070108";"https://maps.google.com/?cid=0x0:0x39fc5a95abf3f4b9";""
"mall";"Pusat Perbelanjaan";"TOKO GROSIR INDIA";"R7J5+3X4, Pinang Dame, Kec. Torgamba, Kab. Labuhanbatu Selatan, Sumatera Utara 21464";"Pinang Dame, Kec. Torgamba, Kab. Labuhanbatu Selatan";"SUMATERA UTARA";"21464";"Indonesia";"";"";"";"1.8289641";"100.2599165";"https://maps.google.com/?cid=0x0:0xbc495b9218422133";""
"mall";"Pusat Perbelanjaan";"Wali jaya";"M9WV+2G6, Jl. Ring Road, Torgamba, Kec. Torgamba, Kab. Labuhanbatu Selatan, Sumatera Utara 28992";"Jl. Ring Road, Torgamba, Kec. Torgamba, Kab. Labuhanbatu Selatan";"SUMATERA UTARA";"28992";"Indonesia";"";"";"";"1.6956617";"100.3924983";"https://maps.google.com/?cid=0x0:0x58811a68749b8b8f";""
"mall";"Komplek perumahan";"Cikampak";"Aek Batu, pekan, Kab. Labuhanbatu Selatan, Sumatera Utara 21464";"pekan, Kab. Labuhanbatu Selatan";"SUMATERA UTARA";"21464";"Indonesia";"";"";"";"1.7882542";"100.2032213";"https://maps.google.com/?cid=0x0:0x407867ba550c8f4b";""
"mall";"Toko bahan makanan";"Kampung mangga";"V5HC+X4C, Asam Jawa, Kec. Torgamba, Kab. Labuhanbatu Selatan, Sumatera Utara";"Kab. Labuhanbatu Selatan, Sumatera Utara";"SUMATERA UTARA";"";"Indonesia";"";"";"";"1.8799387";"100.1702788";"https://maps.google.com/?cid=0x0:0x611d41703a3bef1c";""
"mall";"Pusat Perbelanjaan";"MINISO RUKO KOTA PINANG";"V3WM+GP9, Kota Pinang, Kec. Kota Pinang, Kab. Labuhanbatu Selatan, Sumatera Utara 21464";"Kota Pinang, Kec. Kota Pinang, Kab. Labuhanbatu Selatan";"SUMATERA UTARA";"21464";"Indonesia";" 081397603332";"";"";"1.8963203";"100.084357";"https://maps.google.com/?cid=0x0:0x8c68555c02e20695";""
"mall";"Pusat Perbelanjaan";"SUZUYA PLAZA Bagan Batu";"Jl. Jenderal Sudirman, Bagan Batu, Kec. Bagan Sinembah, Kabupaten Rokan Hilir, Riau 28992";"Bagan Batu, Kec. Bagan Sinembah, Kabupaten Rokan Hilir";"SUMATERA UTARA";"28992";"Indonesia";"";"";"";"1.710059";"100.3959655";"https://maps.google.com/?cid=0x0:0xa43880319003a891";""
"mall";"Toko Optik";"Toko Jam Kacamata REGAR JAYA";"Q6P5+P57, Jl. Jenderal Sudirman, cikampak-riau, Kec. Torgamba, Kab. Labuhanbatu Selatan, Sumatera Utara 21464";"Jl. Jenderal Sudirman, cikampak-riau, Kec. Torgamba, Kab. Labuhanbatu Selatan";"SUMATERA UTARA";"21464";"Indonesia";" 081360038260";"";"";"1.7867993";"100.2079242";"https://maps.google.com/?cid=0x0:0x7b56a7ef6646f713";""
"mall";"Dealer Mesin Diesel";"Yanmar Diesel, Bagan Batu";"Jl. Jenderal Sudirman No.597, Bagan Batu, Kec. Bagan Sinembah, Kabupaten Rokan Hilir, Riau 28992";"Bagan Batu, Kec. Bagan Sinembah, Kabupaten Rokan Hilir";"SUMATERA UTARA";"28992";"Indonesia";" 085360996688";"";"";"1.7054936";"100.40101";"https://maps.google.com/?cid=0x0:0x628a9ee34d9366fc";""
"mall";"Pusat Perbelanjaan";"Azri jaya";"W6PJ+67G Badut Ceria, Jl. Kp. Tempel, Kebun Tlk. Panji, Kec. Torgamba, Kab. Labuhanbatu Selatan, Sumatera Utara 21451";"Jl. Kp. Tempel, Kebun Tlk. Panji, Kec. Torgamba, Kab. Labuhanbatu Selatan";"SUMATERA UTARA";"21451";"Indonesia";" 082275445787";"";"";"1.9355694";"100.2307172";"https://maps.google.com/?cid=0x0:0xbbecb9e9591c85e7";""
"supermarket";"supermarket";"Sumatera Utara 21463";"Kec. Kp. Rakyat, Kab. Labuhanbatu Selatan, Sumatera Utara";"Kab. Labuhanbatu Selatan, Sumatera Utara";"SUMATERA UTARA";"";"Indonesia";"";"";"";"2.0724054";"100.2151578";"https://maps.google.com/?cid=0x0:0x8873c7c00b422839";""
"supermarket";"Toko Swalayan";"Boy mart";"Teluk panji 4, Kp. Tlk. Panji, Sumatera Utara";"Kab. Labuhanbatu Selatan, Sumatera Utara";"SUMATERA UTARA";"";"Indonesia";" 082364991318";"";"";"2.0417072";"100.2692132";"https://maps.google.com/?cid=0x0:0xdb880451a66f427b";""
"supermarket";"Toko bahan makanan";"Kedai Buk Siti";"X7HJ+JG, Tlk. Panji II, Kec. Kp. Rakyat, Kab. Labuhanbatu Selatan, Sumatera Utara 21463";"Tlk. Panji II, Kec. Kp. Rakyat, Kab. Labuhanbatu Selatan";"SUMATERA UTARA";"21463";"Indonesia";"";"";"";"1.9790933";"100.2813618";"https://maps.google.com/?cid=0x0:0x985a535175a74f49";""
"supermarket";"Toko bahan makanan";"Bagan batu";"244P+4MP, Air Merah, Kec. Kp. Rakyat, Kab. Labuhanbatu Selatan, Sumatera Utara";"Kab. Labuhanbatu Selatan, Sumatera Utara";"SUMATERA UTARA";"";"Indonesia";"";"";"";"2.005344";"100.1367166";"https://maps.google.com/?cid=0x0:0x1e66a66791c0e842";""
"supermarket";"Minimarket";"Alfamidi Bloksongo";"W3XX+WC7, Sisumut, Kec. Kota Pinang, Kab. Labuhanbatu Selatan, Sumatera Utara 21464";"Sisumut, Kec. Kota Pinang, Kab. Labuhanbatu Selatan";"SUMATERA UTARA";"21464";"Indonesia";"";"";"";"1.9497981";"100.0985602";"https://maps.google.com/?cid=0x0:0xb83af8a767828053";""
"supermarket";"Toko Swalayan";"Ud marbun";"27R9+7MP, IV, Kp. Tlk. Panji, Kec. Kp. Rakyat, Kab. Labuhanbatu Selatan, Sumatera Utara";"Kab. Labuhanbatu Selatan, Sumatera Utara";"SUMATERA UTARA";"";"Indonesia";"";"";"";"2.0404395";"100.2692685";"https://maps.google.com/?cid=0x0:0x2c433814c95cea3";""
"supermarket";"Toko bahan makanan";"Kede kek tanjung";"23JM+HXC, AH25, Perkebunan Perlabian, Kec. Kp. Rakyat, Kab. Labuhanbatu Selatan, Sumatera Utara 21463";"AH25, Perkebunan Perlabian, Kec. Kp. Rakyat, Kab. Labuhanbatu Selatan";"SUMATERA UTARA";"21463";"Indonesia";"";"";"";"2.0310983";"100.085335";"https://maps.google.com/?cid=0x0:0xc5fe8e10b5a7dcc4";""
"supermarket";"Toko bahan makanan";"UD Sekar / Grosir Pujo";"2469+H85, Dsn Bis II, Pekan Tolan, Kec. Kp. Rakyat, Kab. Labuhanbatu Selatan, Sumatera Utara";"Kab. Labuhanbatu Selatan, Sumatera Utara";"SUMATERA UTARA";"";"Indonesia";"";"";"";"2.0113999";"100.1183448";"https://maps.google.com/?cid=0x0:0x2a0e0c7f067c4225";""
"supermarket";"Toko bahan makanan";"Grosir Kecil Bg Yarman";"Unnamed Road Sialanh Pamoran, Ulu Mahuam, Kec. Silangkitang, Kab. Labuhanbatu Selatan, Sumatera Utara 21461";"Ulu Mahuam, Kec. Silangkitang, Kab. Labuhanbatu Selatan";"SUMATERA UTARA";"21461";"Indonesia";" 085156434208";"";"";"1.8962453";"99.9552056";"https://maps.google.com/?cid=0x0:0xf85c6e19f4d0e311";""
"supermarket";"Minimarket";"Indomaret";"AH25, Perkebunan Perlabian, Kec. Kp. Rakyat, Kab. Labuhanbatu Selatan, Sumatera Utara 21463";"Perkebunan Perlabian, Kec. Kp. Rakyat, Kab. Labuhanbatu Selatan";"SUMATERA UTARA";"21463";"Indonesia";" 085373613913";"";"";"2.0284367";"100.0955067";"https://maps.google.com/?cid=0x0:0xcf39520596b27e73";""
"supermarket";"Minimarket";"TOKO A.SINAGA";"33PM+G37, Unnamed Road, Perlabian, Kec. Kp. Rakyat, Kab. Labuhanbatu Selatan, Sumatera Utara 21462";"Unnamed Road, Perlabian, Kec. Kp. Rakyat, Kab. Labuhanbatu Selatan";"SUMATERA UTARA";"21462";"Indonesia";"";"";"";"2.0862976";"100.0826776";"https://maps.google.com/?cid=0x0:0x95092d7a7347cf1";""
"supermarket";"Minimarket";"Alfamidi Bukit Kotapinang";"V3RQ+GFR, Kota Pinang, Kec. Kota Pinang, Kab. Labuhanbatu Selatan, Sumatera Utara 21464";"Kota Pinang, Kec. Kota Pinang, Kab. Labuhanbatu Selatan";"SUMATERA UTARA";"21464";"Indonesia";" 082267167712";"";"";"1.8913694";"100.0886491";"https://maps.google.com/?cid=0x0:0x3d292757fd3fc948";""
"supermarket";"Toko bahan makanan";"HRB HARAHAP";"657X+488, Sei Siarti, Kec. Panai Tengah, Kab. Labuhanbatu, Sumatera Utara 21472";"Sei Siarti, Kec. Panai Tengah, Kab. Labuhanbatu";"SUMATERA UTARA";"21472";"Indonesia";" 081375890395";"";"";"2.2127851";"100.1983431";"https://maps.google.com/?cid=0x0:0x5b73d24b09e923cc";""
"supermarket";"Toko bahan makanan";"Toko Sendal Pak Rudi";"33MC+RWP, Perlabian, Kec. Kp. Rakyat, Kab. Labuhanbatu Selatan, Sumatera Utara 21462";"Perlabian, Kec. Kp. Rakyat, Kab. Labuhanbatu Selatan";"SUMATERA UTARA";"21462";"Indonesia";" 085362763286";"";"";"2.0845832";"100.0723344";"https://maps.google.com/?cid=0x0:0x3b4a706791da91f5";""
"supermarket";"Minimarket";"Alfamidi Bedagai";"W32P+CC5, Kota Pinang, Kec. Kota Pinang, Kab. Labuhanbatu Selatan, Sumatera Utara 21464";"Kota Pinang, Kec. Kota Pinang, Kab. Labuhanbatu Selatan";"SUMATERA UTARA";"21464";"Indonesia";" 083874477158";"";"";"1.9010059";"100.0861169";"https://maps.google.com/?cid=0x0:0x6715a0d7d626440f";""
"supermarket";"Toko bahan makanan";"Ud. Grosir abdul";"Pangarungan 1, Sumatera Utara 21463";"Kab. Labuhanbatu Selatan, Sumatera Utara";"SUMATERA UTARA";"";"Indonesia";"";"";"";"1.9447553";"100.192778";"https://maps.google.com/?cid=0x0:0x519e25bc4abc48ae";""
"supermarket";"Pusat Perbelanjaan";"Alfamidi Labuhan Tomu Kota Pinang";"Jl. Lintas Sumatra No.77, Kota Pinang, Kec. Kota Pinang, Kab. Labuhanbatu Selatan, Sumatera Utara 21464";"Kota Pinang, Kec. Kota Pinang, Kab. Labuhanbatu Selatan";"SUMATERA UTARA";"21464";"Indonesia";" 082273917636";"";"";"1.889298";"100.0939736";"https://maps.google.com/?cid=0x0:0xf523eb0908268d6a";""
"supermarket";"Toko bahan makanan";"KIOS MUSTIKA";"Jl. Lintas Sumatra, Sisumut, Kec. Kota Pinang, Kab. Labuhanbatu Selatan, Sumatera Utara 21464";"Sisumut, Kec. Kota Pinang, Kab. Labuhanbatu Selatan";"SUMATERA UTARA";"21464";"Indonesia";" 082167401717";"";"";"1.9395916";"100.0942227";"https://maps.google.com/?cid=0x0:0xeb1b4bd75aad8401";""
"supermarket";"Toko";"Toko Sibarani";"Jl. Aek Nabara - Negeri Lama No.151, Kp. Padang, Kec. Pangkatan, Kab. Labuhanbatu, Sumatera Utara 21462";"Kp. Padang, Kec. Pangkatan, Kab. Labuhanbatu";"SUMATERA UTARA";"21462";"Indonesia";"";"";"";"2.185038";"100.0315634";"https://maps.google.com/?cid=0x0:0xf35b59dd73c7a078";""
"supermarket";"Toko bahan makanan";"Kios Hj.Rosita";"Asian Highway No.25, Asam Jawa, Torgamba, South Labuhan Batu Regency, North Sumatra 21464";"Asam Jawa, Torgamba, South Labuhan Batu Regency";"SUMATERA UTARA";"21464";"Indonesia";"";"";"";"1.8449792";"100.1696472";"https://maps.google.com/?cid=0x0:0x7aad13da1819f23b";""
"supermarket";"";"Indomaret kampuang rakyat";"Tj. Mulia, Kec. Kp. Rakyat, Kab. Labuhanbatu Selatan, Sumatera Utara";"Kab. Labuhanbatu Selatan, Sumatera Utara";"SUMATERA UTARA";"";"Indonesia";"";"";"";"2.0586621";"100.13798";"https://maps.google.com/?cid=0x0:0xd4bbb77288286888";""
"supermarket";"supermarket";"Kec. Kota Pinang";"Kab. Labuhanbatu Selatan, Sumatera Utara";"Kab. Labuhanbatu Selatan, Sumatera Utara";"SUMATERA UTARA";"";"Indonesia";"";"";"";"1.8906527";"100.0900259";"https://maps.google.com/?cid=0x0:0xf9d36fe53f57ed24";""
"supermarket";"Pusat Perbelanjaan";"Alfamidi Labuhan Tomu Kota Pinang";"Jl. Lintas Sumatra No.77, Kota Pinang, Kec. Kota Pinang, Kab. Labuhanbatu Selatan, Sumatera Utara 21464";"Kota Pinang, Kec. Kota Pinang, Kab. Labuhanbatu Selatan";"SUMATERA UTARA";"21464";"Indonesia";" 082273917636";"";"";"1.889298";"100.0939736";"https://maps.google.com/?cid=0x0:0xf523eb0908268d6a";""
"supermarket";"Minimarket";"Alfamidi Bukit Kotapinang";"V3RQ+GFR, Kota Pinang, Kec. Kota Pinang, Kab. Labuhanbatu Selatan, Sumatera Utara 21464";"Kota Pinang, Kec. Kota Pinang, Kab. Labuhanbatu Selatan";"SUMATERA UTARA";"21464";"Indonesia";" 082267167712";"";"";"1.8913694";"100.0886491";"https://maps.google.com/?cid=0x0:0x3d292757fd3fc948";""
"supermarket";"Pom bensin/SPBU";"Indomart Spbu Kampung Beringin";"V4R5+FW3, Jl. Lintas Sumatra, Kota Pinang, Kec. Kota Pinang, Kab. Labuhanbatu Selatan, Sumatera Utara 21464";"Jl. Lintas Sumatra, Kota Pinang, Kec. Kota Pinang, Kab. Labuhanbatu Selatan";"SUMATERA UTARA";"21464";"Indonesia";"";"";"";"1.8911416";"100.1097963";"https://maps.google.com/?cid=0x0:0x926540a7a56f2b69";""
"supermarket";"Toko bahan makanan";"Toko HAFIZAH";"V3WQ+QVQ, Jl. Perjuangan, Kota Pinang, Kec. Kota Pinang, Kab. Labuhanbatu Selatan, Sumatera Utara 21464";"Jl. Perjuangan, Kota Pinang, Kec. Kota Pinang, Kab. Labuhanbatu Selatan";"SUMATERA UTARA";"21464";"Indonesia";" 082166143210";"";"";"1.896954";"100.0897333";"https://maps.google.com/?cid=0x0:0xdc266d07e7c3b2a0";""
"supermarket";"Minimarket";"Alfamidi Bloksongo";"W3XX+WC7, Sisumut, Kec. Kota Pinang, Kab. Labuhanbatu Selatan, Sumatera Utara 21464";"Sisumut, Kec. Kota Pinang, Kab. Labuhanbatu Selatan";"SUMATERA UTARA";"21464";"Indonesia";"";"";"";"1.9497981";"100.0985602";"https://maps.google.com/?cid=0x0:0xb83af8a767828053";""
"supermarket";"Toko Swalayan";"Toko Muslimah";"R23R+425, Simatahari, Kec. Kota Pinang, Kab. Labuhanbatu Selatan, Sumatera Utara 21464";"Simatahari, Kec. Kota Pinang, Kab. Labuhanbatu Selatan";"SUMATERA UTARA";"21464";"Indonesia";" 081360588151";"";"";"1.8027555";"100.0401125";"https://maps.google.com/?cid=0x0:0xf0f8b8b30762d242";""
"supermarket";"Toko Swalayan";"Mitra Jaya Toserba";"Jl. Jend. Sudirman No.11, Kota Pinang, Kec. Kota Pinang, Kab. Labuhanbatu Selatan, Sumatera Utara 21464";"Kota Pinang, Kec. Kota Pinang, Kab. Labuhanbatu Selatan";"SUMATERA UTARA";"21464";"Indonesia";" 062495103";"";"";"1.8905626";"100.0904847";"https://maps.google.com/?cid=0x0:0x7824d2dec01b1a5b";""
"supermarket";"Minimarket";"Toko Mai Syaroh";"R24G+558, Jl. Kota Pinang - Gunung Tua, Simatahari, Kec. Kota Pinang, Kab. Labuhanbatu Selatan, Sumatera Utara 21464";"Jl. Kota Pinang - Gunung Tua, Simatahari, Kec. Kota Pinang, Kab. Labuhanbatu Selatan";"SUMATERA UTARA";"21464";"Indonesia";"";"";"";"1.8054057";"100.0254664";"https://maps.google.com/?cid=0x0:0x5a740d2eb76f87c7";""
"supermarket";"Toko bahan makanan";"KIOS MUSTIKA";"Jl. Lintas Sumatra, Sisumut, Kec. Kota Pinang, Kab. Labuhanbatu Selatan, Sumatera Utara 21464";"Sisumut, Kec. Kota Pinang, Kab. Labuhanbatu Selatan";"SUMATERA UTARA";"21464";"Indonesia";" 082167401717";"";"";"1.9395916";"100.0942227";"https://maps.google.com/?cid=0x0:0xeb1b4bd75aad8401";""
"supermarket";"Toserba";"Mitra Jaya II Toserba";"V3RR+8WV, Jl. Jenderal Sudirman, Kota Pinang, Kec. Kota Pinang, Kab. Labuhanbatu Selatan, Sumatera Utara 21464";"Jl. Jenderal Sudirman, Kota Pinang, Kec. Kota Pinang, Kab. Labuhanbatu Selatan";"SUMATERA UTARA";"21464";"Indonesia";" 0624496035";"";"";"1.8908701";"100.0922983";"https://maps.google.com/?cid=0x0:0xd4e5659c925abb62";""
"supermarket";"Toko Swalayan";"Alfamart";"Sumut Riau, Jl. Lintas Sumatra, Kota Pinang, Kec. Kota Pinang, Kab. Labuhanbatu Selatan, Sumatera Utara 21464";"Jl. Lintas Sumatra, Kota Pinang, Kec. Kota Pinang, Kab. Labuhanbatu Selatan";"SUMATERA UTARA";"21464";"Indonesia";" 1500959";"";"";"1.8907976";"100.0995695";"https://maps.google.com/?cid=0x0:0xcd2981c2eda30832";""
"supermarket";"Toko Swalayan";"Alfamart";"Jl. Bukit Ii, Kota Pinang, Kec. Kota Pinang, Kab. Labuhanbatu Selatan, Sumatera Utara 21464";"Kota Pinang, Kec. Kota Pinang, Kab. Labuhanbatu Selatan";"SUMATERA UTARA";"21464";"Indonesia";" 1500959";"";"";"1.8942857";"100.0837326";"https://maps.google.com/?cid=0x0:0x55b121f962000dc1";""
"supermarket";"Toko";"AJASA JAYA";"Jl. Kp. Banjar II, Kota Pinang, Kec. Kota Pinang, Kab. Labuhanbatu Selatan, Sumatera Utara 21464";"Kota Pinang, Kec. Kota Pinang, Kab. Labuhanbatu Selatan";"SUMATERA UTARA";"21464";"Indonesia";" 082233032106";"";"";"1.8894591";"100.0893998";"https://maps.google.com/?cid=0x0:0x1115cd7e9b30746d";""
"supermarket";"Toko Makanan";"Toko Sumber Rezeki / ALENG";"Kota Pinang, Kec. Kota Pinang, Kab. Labuhanbatu Selatan, Sumatera Utara 21464";"Kec. Kota Pinang, Kab. Labuhanbatu Selatan";"SUMATERA UTARA";"21464";"Indonesia";" 082272831888";"";"";"1.8916114";"100.0923623";"https://maps.google.com/?cid=0x0:0x15275cd178cac272";""
"supermarket";"Toko";"Toko Bukit Mas";"V3VM+P6J, Jl. Kota Pinang - Gunung Tua, Kota Pinang, Kec. Kota Pinang, Kab. Labuhanbatu Selatan, Sumatera Utara 21464";"Jl. Kota Pinang - Gunung Tua, Kota Pinang, Kec. Kota Pinang, Kab. Labuhanbatu Selatan";"SUMATERA UTARA";"21464";"Indonesia";"";"";"";"1.8943388";"100.0830204";"https://maps.google.com/?cid=0x0:0x2c072151e4888e3f";""
"supermarket";"Toko";"TOKO ABY SS Batuajo";"Batu ajo, Desa, Pasir Tuntung, Kec. Kota Pinang, Kab. Labuhanbatu Selatan, Sumatera Utara 21464";"Desa, Pasir Tuntung, Kec. Kota Pinang, Kab. Labuhanbatu Selatan";"SUMATERA UTARA";"21464";"Indonesia";" 081265013906";"";"";"1.7772327";"100.1213627";"https://maps.google.com/?cid=0x0:0x711de700490a8acd";""
"supermarket";"Toko Buah Kering";"Raya Durian";"X434+3VP, Jl. K. Sari, Sisumut, Kec. Kota Pinang, Kab. Labuhanbatu Selatan, Sumatera Utara 21464";"Jl. K. Sari, Sisumut, Kec. Kota Pinang, Kab. Labuhanbatu Selatan";"SUMATERA UTARA";"21464";"Indonesia";"";"";"";"1.9527173";"100.1072123";"https://maps.google.com/?cid=0x0:0xd7baad1b4a203ddd";""
"supermarket";"Toko bahan makanan";"HNI Nur Aisyah Hrp";"R23P+VJ5, Dusun Perjuangan, Simatahari, Kec. Kota Pinang, Kab. Labuhanbatu Selatan, Sumatera Utara 21464";"Dusun Perjuangan, Simatahari, Kec. Kota Pinang, Kab. Labuhanbatu Selatan";"SUMATERA UTARA";"21464";"Indonesia";" 082274712493";"";"";"1.8046312";"100.036604";"https://maps.google.com/?cid=0x0:0xb865cc8e30b2fe35";""
"supermarket";"Toko";"Toko Bahagia";"Jl. Ps. Kotapinang I No.42, Kota Pinang, Kec. Kota Pinang, Kab. Labuhanbatu Selatan, Sumatera Utara 21464";"Kota Pinang, Kec. Kota Pinang, Kab. Labuhanbatu Selatan";"SUMATERA UTARA";"21464";"Indonesia";"";"";"";"1.8901201";"100.091097";"https://maps.google.com/?cid=0x0:0x79c467dc2a1f2341";""
"supermarket";"Toko Swalayan";"Toko Jangga Harahap";"Q222+QRW, Jl. Kota Pinang - Gunung Tua, Sabungan, Kec. Sungai Kanan, Kab. Labuhanbatu Selatan, Sumatera Utara 21464";"Jl. Kota Pinang - Gunung Tua, Sabungan, Kec. Sungai Kanan, Kab. Labuhanbatu Selatan";"SUMATERA UTARA";"21464";"Indonesia";"";"";"";"1.7519872";"100.0020912";"https://maps.google.com/?cid=0x0:0xbb02f8469051f3a6";""
"supermarket";"Toko";"KIOS DONGAN";"V552+29W, Aek Batu, Kec. Torgamba, Kab. Labuhanbatu Selatan, Sumatera Utara 21464";"Aek Batu, Kec. Torgamba, Kab. Labuhanbatu Selatan";"SUMATERA UTARA";"21464";"Indonesia";"";"";"";"1.8576203";"100.1509562";"https://maps.google.com/?cid=0x0:0xfc7af552fbd0c829";""
"supermarket";"Toko bahan makanan";"Kios Hj.Rosita";"Asian Highway No.25, Asam Jawa, Torgamba, South Labuhan Batu Regency, North Sumatra 21464";"Asam Jawa, Torgamba, South Labuhan Batu Regency";"SUMATERA UTARA";"21464";"Indonesia";"";"";"";"1.8449792";"100.1696472";"https://maps.google.com/?cid=0x0:0x7aad13da1819f23b";""
"supermarket";"Pom bensin/SPBU";"SPBU Pertamina 14.214.231";"V47G+W3G, AH25, Pasir Tuntung, Kec. Kota Pinang, Kab. Labuhanbatu Selatan, Sumatera Utara 21464";"AH25, Pasir Tuntung, Kec. Kota Pinang, Kab. Labuhanbatu Selatan";"SUMATERA UTARA";"21464";"Indonesia";"";"";"";"1.8648037";"100.1252171";"https://maps.google.com/?cid=0x0:0x442508259b355e07";""
"supermarket";"supermarket";"Sumatera Utara 21464";"Kab. Labuhanbatu Selatan, Sumatera Utara";"Kab. Labuhanbatu Selatan, Sumatera Utara";"SUMATERA UTARA";"";"Indonesia";"";"";"";"1.6877896";"100.2151578";"https://maps.google.com/?cid=0x0:0xcb75493cd4919ca3";""
"supermarket";"Toko Herbal";"DC Aisyah HNI HPAI Kotapinang Labusel";"V3QV+WPF, Kota Pinang, Kec. Kota Pinang, Kab. Labuhanbatu Selatan, Sumatera Utara 21464";"Kota Pinang, Kec. Kota Pinang, Kab. Labuhanbatu Selatan";"SUMATERA UTARA";"21464";"Indonesia";" 081314265696";"";"";"1.8898144";"100.0943072";"https://maps.google.com/?cid=0x0:0x76f5c3f18f2cc092";""
"supermarket";"supermarket";"Sumatera Utara 21461";"Kec. Silangkitang, Kab. Labuhanbatu Selatan, Sumatera Utara";"Kab. Labuhanbatu Selatan, Sumatera Utara";"SUMATERA UTARA";"";"Indonesia";"";"";"";"1.8427607";"99.9465077";"https://maps.google.com/?cid=0x0:0x235a9827314238c5";""
"supermarket";"Toko bahan makanan";"Grosir Kecil Bg Yarman";"Unnamed Road Sialanh Pamoran, Ulu Mahuam, Kec. Silangkitang, Kab. Labuhanbatu Selatan, Sumatera Utara 21461";"Ulu Mahuam, Kec. Silangkitang, Kab. Labuhanbatu Selatan";"SUMATERA UTARA";"21461";"Indonesia";" 085156434208";"";"";"1.8962453";"99.9552056";"https://maps.google.com/?cid=0x0:0xf85c6e19f4d0e311";""
"supermarket";"Minimarket";"Mini Market Family";"WW4J+VJ2, Ulu Mahuam, Kec. Silangkitang, Kab. Labuhanbatu Selatan, Sumatera Utara 21461";"Ulu Mahuam, Kec. Silangkitang, Kab. Labuhanbatu Selatan";"SUMATERA UTARA";"21461";"Indonesia";"";"";"";"1.9071255";"99.9315307";"https://maps.google.com/?cid=0x0:0x635922ec8a089d8a";""
"supermarket";"Toko Swalayan";"UD. Tuti Tbn Tanjung Raya";"Tanjung Raya, Binanga Dua, Kec. Silangkitang, Kab. Labuhanbatu Selatan, Sumatera Utara 21461";"Binanga Dua, Kec. Silangkitang, Kab. Labuhanbatu Selatan";"SUMATERA UTARA";"21461";"Indonesia";" 082277284021";"";"";"1.825876";"99.937778";"https://maps.google.com/?cid=0x0:0xd442698a9990e2c7";""
"supermarket";"Toko bahan makanan";"UD. TEURA GUNA";"desa, Aek Goti, Kec. Silangkitang, Kab. Labuhanbatu Selatan, Sumatera Utara 21461";"Aek Goti, Kec. Silangkitang, Kab. Labuhanbatu Selatan";"SUMATERA UTARA";"21461";"Indonesia";" 08126345721";"";"";"1.8532165";"99.9034848";"https://maps.google.com/?cid=0x0:0xddbd55294145d3e4";""
"supermarket";"Toko umum";"Kedai Sembako Dino Silangkitang";"VW23+HQX, Unnamed Road, Binanga Dua, Kec. Silangkitang, Kab. Labuhanbatu Selatan, Sumatera Utara 21461";"Unnamed Road, Binanga Dua, Kec. Silangkitang, Kab. Labuhanbatu Selatan";"SUMATERA UTARA";"21461";"Indonesia";" 085261411297";"";"";"1.8514887";"99.9044777";"https://maps.google.com/?cid=0x0:0x2c6327ca28123ea4";""
"supermarket";"Minimarket";"Alfamidi Bloksongo";"W3XX+WC7, Sisumut, Kec. Kota Pinang, Kab. Labuhanbatu Selatan, Sumatera Utara 21464";"Sisumut, Kec. Kota Pinang, Kab. Labuhanbatu Selatan";"SUMATERA UTARA";"21464";"Indonesia";"";"";"";"1.9497981";"100.0985602";"https://maps.google.com/?cid=0x0:0xb83af8a767828053";""
"supermarket";"Pujasera";"Alfamidi Langga Payung";"Jl. Kota Pinang - Gunung Tua No.184, Langga Payung, Kec. Sungai Kanan, Kab. Labuhanbatu Selatan, Sumatera Utara 21465";"Langga Payung, Kec. Sungai Kanan, Kab. Labuhanbatu Selatan";"SUMATERA UTARA";"21465";"Indonesia";" 082277827370";"";"";"1.7263303";"99.9588922";"https://maps.google.com/?cid=0x0:0x2c6791452b96a7a6";""
"supermarket";"Toko Swalayan";"Toko Anugrah";"Jl. Kota Pinang - Gunung Tua No.184, Langga Payung, Kec. Sungai Kanan, Kab. Labuhanbatu Selatan, Sumatera Utara 21465";"Langga Payung, Kec. Sungai Kanan, Kab. Labuhanbatu Selatan";"SUMATERA UTARA";"21465";"Indonesia";"";"";"";"1.7245477";"99.9576185";"https://maps.google.com/?cid=0x0:0x83e072fe49c71bac";""
"supermarket";"Minimarket";"Alfamidi Bukit Kotapinang";"V3RQ+GFR, Kota Pinang, Kec. Kota Pinang, Kab. Labuhanbatu Selatan, Sumatera Utara 21464";"Kota Pinang, Kec. Kota Pinang, Kab. Labuhanbatu Selatan";"SUMATERA UTARA";"21464";"Indonesia";" 082267167712";"";"";"1.8913694";"100.0886491";"https://maps.google.com/?cid=0x0:0x3d292757fd3fc948";""
"supermarket";"Minimarket";"Alfamidi Bedagai";"W32P+CC5, Kota Pinang, Kec. Kota Pinang, Kab. Labuhanbatu Selatan, Sumatera Utara 21464";"Kota Pinang, Kec. Kota Pinang, Kab. Labuhanbatu Selatan";"SUMATERA UTARA";"21464";"Indonesia";" 083874477158";"";"";"1.9010059";"100.0861169";"https://maps.google.com/?cid=0x0:0x6715a0d7d626440f";""
"supermarket";"Toko bahan makanan";"Toko Kirana lestari";"WV9H+56C, Aek Goti, Kec. Silangkitang, Kab. Labuhanbatu Selatan, Sumatera Utara 21451";"Aek Goti, Kec. Silangkitang, Kab. Labuhanbatu Selatan";"SUMATERA UTARA";"21451";"Indonesia";" 082360666753";"";"";"1.9179405";"99.8780048";"https://maps.google.com/?cid=0x0:0x18c099b5573da249";""
"supermarket";"Toko Swalayan";"Toko Muslimah";"R23R+425, Simatahari, Kec. Kota Pinang, Kab. Labuhanbatu Selatan, Sumatera Utara 21464";"Simatahari, Kec. Kota Pinang, Kab. Labuhanbatu Selatan";"SUMATERA UTARA";"21464";"Indonesia";" 081360588151";"";"";"1.8027555";"100.0401125";"https://maps.google.com/?cid=0x0:0xf0f8b8b30762d242";""
"supermarket";"Minimarket";"Toko Mai Syaroh";"R24G+558, Jl. Kota Pinang - Gunung Tua, Simatahari, Kec. Kota Pinang, Kab. Labuhanbatu Selatan, Sumatera Utara 21464";"Jl. Kota Pinang - Gunung Tua, Simatahari, Kec. Kota Pinang, Kab. Labuhanbatu Selatan";"SUMATERA UTARA";"21464";"Indonesia";"";"";"";"1.8054057";"100.0254664";"https://maps.google.com/?cid=0x0:0x5a740d2eb76f87c7";""
"supermarket";"Minimarket";"Indomaret simpang 3";"PW9F+8JH, Jl. Kota Pinang - Gunung Tua No.18, Langga Payung, Kec. Sungai Kanan, Kab. Labuhanbatu Selatan, Sumatera Utara 21465";"Jl. Kota Pinang - Gunung Tua No.18, Langga Payung, Kec. Sungai Kanan, Kab. Labuhanbatu Selatan";"SUMATERA UTARA";"21465";"Indonesia";"";"";"";"1.7299909";"99.9162873";"https://maps.google.com/?cid=0x0:0xd85aec111225ab6";""
"supermarket";"Minimarket";"TOKO SUKA RAMAI";"PWGR+5CW, Jl. Kota Pinang - Gunung Tua, Langga Payung, Kec. Sungai Kanan, Kab. Labuhanbatu Selatan, Sumatera Utara 21465";"Jl. Kota Pinang - Gunung Tua, Langga Payung, Kec. Sungai Kanan, Kab. Labuhanbatu Selatan";"SUMATERA UTARA";"21465";"Indonesia";"";"";"";"1.7254806";"99.9410917";"https://maps.google.com/?cid=0x0:0x93906b04ef99d4b";""
"supermarket";"Toko bahan makanan";"Toko Ardin";"PXH6+5FC, Langga Payung, Kec. Sungai Kanan, Kab. Labuhanbatu Selatan, Sumatera Utara 21465";"Langga Payung, Kec. Sungai Kanan, Kab. Labuhanbatu Selatan";"SUMATERA UTARA";"21465";"Indonesia";"";"";"";"1.7279452";"99.9611342";"https://maps.google.com/?cid=0x0:0x5025531e27b76f72";""
"supermarket";"Pusat Perbelanjaan";"Alfamidi Labuhan Tomu Kota Pinang";"Jl. Lintas Sumatra No.77, Kota Pinang, Kec. Kota Pinang, Kab. Labuhanbatu Selatan, Sumatera Utara 21464";"Kota Pinang, Kec. Kota Pinang, Kab. Labuhanbatu Selatan";"SUMATERA UTARA";"21464";"Indonesia";" 082273917636";"";"";"1.889298";"100.0939736";"https://maps.google.com/?cid=0x0:0xf523eb0908268d6a";""
"supermarket";"Toko bahan makanan";"KIOS MUSTIKA";"Jl. Lintas Sumatra, Sisumut, Kec. Kota Pinang, Kab. Labuhanbatu Selatan, Sumatera Utara 21464";"Sisumut, Kec. Kota Pinang, Kab. Labuhanbatu Selatan";"SUMATERA UTARA";"21464";"Indonesia";" 082167401717";"";"";"1.9395916";"100.0942227";"https://maps.google.com/?cid=0x0:0xeb1b4bd75aad8401";""
"supermarket";"Toko bahan makanan";"Toko HAFIZAH";"V3WQ+QVQ, Jl. Perjuangan, Kota Pinang, Kec. Kota Pinang, Kab. Labuhanbatu Selatan, Sumatera Utara 21464";"Jl. Perjuangan, Kota Pinang, Kec. Kota Pinang, Kab. Labuhanbatu Selatan";"SUMATERA UTARA";"21464";"Indonesia";" 082166143210";"";"";"1.896954";"100.0897333";"https://maps.google.com/?cid=0x0:0xdc266d07e7c3b2a0";""
"supermarket";"Toko bahan makanan";"Swalayan Maju Bersama";"Jl. Kp. Dalam - Silangkitang, Aek Goti, Kec. Silangkitang, Kab. Labuhanbatu Selatan, Sumatera Utara 21451";"Aek Goti, Kec. Silangkitang, Kab. Labuhanbatu Selatan";"SUMATERA UTARA";"21451";"Indonesia";"";"";"";"1.8564128";"99.8963841";"https://maps.google.com/?cid=0x0:0xcdb7834df089d36a";""
"supermarket";"Toko bahan makanan";"Grosir";"VW32+5R, Ulu Mahuam, Kec. Silangkitang, Kab. Labuhanbatu Selatan, Sumatera Utara 21461";"Ulu Mahuam, Kec. Silangkitang, Kab. Labuhanbatu Selatan";"SUMATERA UTARA";"21461";"Indonesia";"";"";"";"1.8528764";"99.9021192";"https://maps.google.com/?cid=0x0:0xd955f17fd2090c55";""
"supermarket";"Toko bahan makanan";"Toko grosir/Partai/ecer sembako titipan jaya";"PXM7+J6H, Jl. Kota Pinang - Gunung Tua, Langga Payung, Kec. Sungai Kanan, Kab. Labuhanbatu Selatan, Sumatera Utara 21465";"Jl. Kota Pinang - Gunung Tua, Langga Payung, Kec. Sungai Kanan, Kab. Labuhanbatu Selatan";"SUMATERA UTARA";"21465";"Indonesia";" 081283630538";"";"";"1.734068";"99.963113";"https://maps.google.com/?cid=0x0:0xebbde51b35656881";""
"supermarket";"Toko Swalayan";"Toko Jangga Harahap";"Q222+QRW, Jl. Kota Pinang - Gunung Tua, Sabungan, Kec. Sungai Kanan, Kab. Labuhanbatu Selatan, Sumatera Utara 21464";"Jl. Kota Pinang - Gunung Tua, Sabungan, Kec. Sungai Kanan, Kab. Labuhanbatu Selatan";"SUMATERA UTARA";"21464";"Indonesia";"";"";"";"1.7519872";"100.0020912";"https://maps.google.com/?cid=0x0:0xbb02f8469051f3a6";""
"supermarket";"Toko bahan makanan";"UD. Sigit";"VV2X+8CW, Ulu Mahuam, Kec. Silangkitang, Kab. Labuhanbatu Selatan, Sumatera Utara 21461";"Ulu Mahuam, Kec. Silangkitang, Kab. Labuhanbatu Selatan";"SUMATERA UTARA";"21461";"Indonesia";" 081265424344";"";"";"1.8508562";"99.8985824";"https://maps.google.com/?cid=0x0:0x7d77bed8165ca062";""
"supermarket";"Minimarket";"Tokoh Mbak Mingle";"RW77+J5X, Dusun pernantian, Binanga Dua, Kec. Silangkitang, Kab. Labuhanbatu Selatan, Sumatera Utara";"Kab. Labuhanbatu Selatan, Sumatera Utara";"SUMATERA UTARA";"";"Indonesia";"";"";"";"1.8141113";"99.9129845";"https://maps.google.com/?cid=0x0:0xf33a3ddcbda13ba9";""
"supermarket";"Minimarket";"Kedai Fikri";"Jl. Besar Suhud, Rintis, Kec. Silangkitang, Kab. Labuhanbatu Selatan, Sumatera Utara 21451";"Rintis, Kec. Silangkitang, Kab. Labuhanbatu Selatan";"SUMATERA UTARA";"21451";"Indonesia";" 082289644439";"";"";"1.9604836";"99.916169";"https://maps.google.com/?cid=0x0:0x622fbf6adb9829cb";""
"supermarket";"Toko bahan makanan";"Galan Succes Partner Silver Bu Menthel";"XW4X+WVF, Rintis, Kec. Silangkitang, Kab. Labuhanbatu Selatan, Sumatera Utara 21451";"Rintis, Kec. Silangkitang, Kab. Labuhanbatu Selatan";"SUMATERA UTARA";"21451";"Indonesia";"";"";"";"1.957325";"99.9496617";"https://maps.google.com/?cid=0x0:0x2e1cd6305f98aee6";""
"supermarket";"Toko bahan makanan";"Rizky Mart Sungai Kanan";"PXW7+P46, Sabungan, Kec. Sungai Kanan, Kab. Labuhanbatu Selatan, Sumatera Utara 21464";"Sabungan, Kec. Sungai Kanan, Kab. Labuhanbatu Selatan";"SUMATERA UTARA";"21464";"Indonesia";" 081361267942";"";"";"1.746785";"99.9627606";"https://maps.google.com/?cid=0x0:0x7768c58767e5a8d1";""
"supermarket";"supermarket";"Sumatera Utara 21464";"Kab. Labuhanbatu Selatan, Sumatera Utara";"Kab. Labuhanbatu Selatan, Sumatera Utara";"SUMATERA UTARA";"";"Indonesia";"";"";"";"1.6877896";"100.2151578";"https://maps.google.com/?cid=0x0:0xcb75493cd4919ca3";""
"supermarket";"Toko bahan makanan";"DFC Business Official";"P64G+FCF, Aek Raso, Kec. Torgamba, Kab. Labuhanbatu Selatan, Sumatera Utara 21464";"Aek Raso, Kec. Torgamba, Kab. Labuhanbatu Selatan";"SUMATERA UTARA";"21464";"Indonesia";" 083157335000";"";"";"1.7061797";"100.2260433";"https://maps.google.com/?cid=0x0:0xc4792e2a7fc46313";""
"supermarket";"Toko";"KIOS DONGAN";"V552+29W, Aek Batu, Kec. Torgamba, Kab. Labuhanbatu Selatan, Sumatera Utara 21464";"Aek Batu, Kec. Torgamba, Kab. Labuhanbatu Selatan";"SUMATERA UTARA";"21464";"Indonesia";"";"";"";"1.8576203";"100.1509562";"https://maps.google.com/?cid=0x0:0xfc7af552fbd0c829";""
"supermarket";"Toko bahan makanan";"BILQIS RAMBE";"Q6Q3+X22, Jl. Mesjid, Aek Batu, Kec. Torgamba, Kab. Labuhanbatu Selatan, Sumatera Utara 21464";"Jl. Mesjid, Aek Batu, Kec. Torgamba, Kab. Labuhanbatu Selatan";"SUMATERA UTARA";"21464";"Indonesia";"";"";"";"1.7898986";"100.2025091";"https://maps.google.com/?cid=0x0:0x78576c853200dc1f";""
"supermarket";"Toko bahan makanan";"Kios Hj.Rosita";"Asian Highway No.25, Asam Jawa, Torgamba, South Labuhan Batu Regency, North Sumatra 21464";"Asam Jawa, Torgamba, South Labuhan Batu Regency";"SUMATERA UTARA";"21464";"Indonesia";"";"";"";"1.8449792";"100.1696472";"https://maps.google.com/?cid=0x0:0x7aad13da1819f23b";""
"supermarket";"Toko bahan makanan";"Alfamart";"Jl. Lintas Sumatera Utara-Riau, Aek Batu, Kec. Torgamba, Kab. Labuhanbatu Selatan, Sumatera Utara 21464";"Aek Batu, Kec. Torgamba, Kab. Labuhanbatu Selatan";"SUMATERA UTARA";"21464";"Indonesia";" 1500959";"";"";"1.7865362";"100.208321";"https://maps.google.com/?cid=0x0:0xc770e08190237053";""
"supermarket";"Toko bahan makanan";"Alfamidi Cikampak 2";"Q6P4+XR4, Aek Batu, Kec. Torgamba, Kab. Labuhanbatu Selatan, Sumatera Utara";"Kab. Labuhanbatu Selatan, Sumatera Utara";"SUMATERA UTARA";"";"Indonesia";" 082360507089";"";"";"1.7873891";"100.2070666";"https://maps.google.com/?cid=0x0:0xb5f4745bad712331";""
"supermarket";"Toko bahan makanan";"UD Harahap jaya";"Aek Batu, Kec. Torgamba, Kab. Labuhanbatu Selatan, Sumatera Utara 21464";"Kec. Torgamba, Kab. Labuhanbatu Selatan";"SUMATERA UTARA";"21464";"Indonesia";"";"";"";"1.7878249";"100.1990619";"https://maps.google.com/?cid=0x0:0x8fdfdc9331dbd415";""
"supermarket";"Pom bensin/SPBU";"Indomart Spbu Kampung Beringin";"V4R5+FW3, Jl. Lintas Sumatra, Kota Pinang, Kec. Kota Pinang, Kab. Labuhanbatu Selatan, Sumatera Utara 21464";"Jl. Lintas Sumatra, Kota Pinang, Kec. Kota Pinang, Kab. Labuhanbatu Selatan";"SUMATERA UTARA";"21464";"Indonesia";"";"";"";"1.8911416";"100.1097963";"https://maps.google.com/?cid=0x0:0x926540a7a56f2b69";""
"supermarket";"Minimarket";"Alfamidi Bloksongo";"W3XX+WC7, Sisumut, Kec. Kota Pinang, Kab. Labuhanbatu Selatan, Sumatera Utara 21464";"Sisumut, Kec. Kota Pinang, Kab. Labuhanbatu Selatan";"SUMATERA UTARA";"21464";"Indonesia";"";"";"";"1.9497981";"100.0985602";"https://maps.google.com/?cid=0x0:0xb83af8a767828053";""
"supermarket";"Toko Swalayan";"Toko Muslimah";"R23R+425, Simatahari, Kec. Kota Pinang, Kab. Labuhanbatu Selatan, Sumatera Utara 21464";"Simatahari, Kec. Kota Pinang, Kab. Labuhanbatu Selatan";"SUMATERA UTARA";"21464";"Indonesia";" 081360588151";"";"";"1.8027555";"100.0401125";"https://maps.google.com/?cid=0x0:0xf0f8b8b30762d242";""
"supermarket";"Pusat Perbelanjaan";"Alfamidi Labuhan Tomu Kota Pinang";"Jl. Lintas Sumatra No.77, Kota Pinang, Kec. Kota Pinang, Kab. Labuhanbatu Selatan, Sumatera Utara 21464";"Kota Pinang, Kec. Kota Pinang, Kab. Labuhanbatu Selatan";"SUMATERA UTARA";"21464";"Indonesia";" 082273917636";"";"";"1.889298";"100.0939736";"https://maps.google.com/?cid=0x0:0xf523eb0908268d6a";""
"supermarket";"Minimarket";"Alfamidi Bedagai";"W32P+CC5, Kota Pinang, Kec. Kota Pinang, Kab. Labuhanbatu Selatan, Sumatera Utara 21464";"Kota Pinang, Kec. Kota Pinang, Kab. Labuhanbatu Selatan";"SUMATERA UTARA";"21464";"Indonesia";" 083874477158";"";"";"1.9010059";"100.0861169";"https://maps.google.com/?cid=0x0:0x6715a0d7d626440f";""
"supermarket";"Minimarket";"Alfamidi Bukit Kotapinang";"V3RQ+GFR, Kota Pinang, Kec. Kota Pinang, Kab. Labuhanbatu Selatan, Sumatera Utara 21464";"Kota Pinang, Kec. Kota Pinang, Kab. Labuhanbatu Selatan";"SUMATERA UTARA";"21464";"Indonesia";" 082267167712";"";"";"1.8913694";"100.0886491";"https://maps.google.com/?cid=0x0:0x3d292757fd3fc948";""
"supermarket";"Toko Swalayan";"Toko Jangga Harahap";"Q222+QRW, Jl. Kota Pinang - Gunung Tua, Sabungan, Kec. Sungai Kanan, Kab. Labuhanbatu Selatan, Sumatera Utara 21464";"Jl. Kota Pinang - Gunung Tua, Sabungan, Kec. Sungai Kanan, Kab. Labuhanbatu Selatan";"SUMATERA UTARA";"21464";"Indonesia";"";"";"";"1.7519872";"100.0020912";"https://maps.google.com/?cid=0x0:0xbb02f8469051f3a6";""
"supermarket";"Toko bahan makanan";"Toko RD.SEMBAKO";"Aek Batu, Kec. Torgamba, Kab. Labuhanbatu Selatan, Sumatera Utara";"Kab. Labuhanbatu Selatan, Sumatera Utara";"SUMATERA UTARA";"";"Indonesia";" 081348654416";"";"";"1.7874856";"100.2067243";"https://maps.google.com/?cid=0x0:0x527a153981273605";""
"supermarket";"Toko bahan makanan";"Alfamidi Cikampak 3";"Q5QW+XV7, Aek Batu, Kec. Torgamba, Kab. Labuhanbatu Selatan, Sumatera Utara";"Kab. Labuhanbatu Selatan, Sumatera Utara";"SUMATERA UTARA";"";"Indonesia";" 082370892291";"";"";"1.7899207";"100.197183";"https://maps.google.com/?cid=0x0:0x507023b09bf38dfe";""
"supermarket";"Minimarket";"Madani Mart";"V5QM+QQJ, Jalan Sumberjo/Pirbun-Asam Jawa, Kec. Torgamba, Sumberjo, Pirbun, Kab. Labuhanbatu Selatan, Sumatera Utara";"Kab. Labuhanbatu Selatan, Sumatera Utara";"SUMATERA UTARA";"";"Indonesia";"";"";"";"1.8894702";"100.1843818";"https://maps.google.com/?cid=0x0:0xab5e48c904e3e6f";""
"supermarket";"Toko bahan makanan";"toko sembako";"M733+RWR, desa, sumber sari 2, Torgamba, South Labuhan Batu Regency, North Sumatra 21464";"desa, sumber sari 2, Torgamba, South Labuhan Batu Regency";"SUMATERA UTARA";"21464";"Indonesia";"";"";"";"1.654607";"100.2547692";"https://maps.google.com/?cid=0x0:0x6b4409528a44f209";""
"supermarket";"Toko bahan makanan";"KIOS MUSTIKA";"Jl. Lintas Sumatra, Sisumut, Kec. Kota Pinang, Kab. Labuhanbatu Selatan, Sumatera Utara 21464";"Sisumut, Kec. Kota Pinang, Kab. Labuhanbatu Selatan";"SUMATERA UTARA";"21464";"Indonesia";" 082167401717";"";"";"1.9395916";"100.0942227";"https://maps.google.com/?cid=0x0:0xeb1b4bd75aad8401";""
"supermarket";"Toko";"Toko Bou Batak";"Jl. Tusam, Asam Jawa, Kec. Torgamba, Kab. Labuhanbatu Selatan, Sumatera Utara 21464";"Asam Jawa, Kec. Torgamba, Kab. Labuhanbatu Selatan";"SUMATERA UTARA";"21464";"Indonesia";" 085294742228";"";"";"1.8618285";"100.1459579";"https://maps.google.com/?cid=0x0:0x70dc5213271576d4";""
"supermarket";"Minimarket";"Indomaret Cikampak Simpang Tugu";"Q6P3+P7V, Jl. Lintas Sumatra, Aek Batu, Kec. Torgamba, Kab. Labuhanbatu Selatan, Sumatera Utara 21464";"Jl. Lintas Sumatra, Aek Batu, Kec. Torgamba, Kab. Labuhanbatu Selatan";"SUMATERA UTARA";"21464";"Indonesia";"";"";"";"1.7868571";"100.2031606";"https://maps.google.com/?cid=0x0:0xa1483076cf1d9054";""
"supermarket";"Toko";"Toko Serba Ada Tarigan";"Cikampak Tengah, Desa, Aek Batu, Kec. Torgamba, Kab. Labuhanbatu Selatan, Sumatera Utara 21464";"Desa, Aek Batu, Kec. Torgamba, Kab. Labuhanbatu Selatan";"SUMATERA UTARA";"21464";"Indonesia";" 082385389775";"";"";"1.799365";"100.1862092";"https://maps.google.com/?cid=0x0:0xce75ba313488c220";""
"supermarket";"Pusat Perbelanjaan";"UD. BG REGAR";"R5GP+GFF, Jl. Jenderal Sudirman, Aek Batu, Kec. Torgamba, Kab. Labuhanbatu Selatan, Sumatera Utara 21464";"Jl. Jenderal Sudirman, Aek Batu, Kec. Torgamba, Kab. Labuhanbatu Selatan";"SUMATERA UTARA";"21464";"Indonesia";" 085361330472";"";"";"1.8263127";"100.1861709";"https://maps.google.com/?cid=0x0:0x652af4f9a281f0de";""
"supermarket";"Toko bahan makanan";"Kios Miguel";"Q5JQ+5V6, Aek Batu, Kec. Torgamba, Kab. Labuhanbatu Selatan, Sumatera Utara 21464";"Aek Batu, Kec. Torgamba, Kab. Labuhanbatu Selatan";"SUMATERA UTARA";"21464";"Indonesia";" 081324486266";"";"";"1.7800795";"100.1897652";"https://maps.google.com/?cid=0x0:0x43df61eddc5d7daa";""
"supermarket";"Toko bahan makanan";"SUMBER DANA";"V75R+6MJ, Pinang Dame, Kec. Torgamba, Kab. Labuhanbatu Selatan, Sumatera Utara 21464";"Pinang Dame, Kec. Torgamba, Kab. Labuhanbatu Selatan";"SUMATERA UTARA";"21464";"Indonesia";"";"";"";"1.8580878";"100.2916447";"https://maps.google.com/?cid=0x0:0x5bb79a9a8563fe18";""
"supermarket";"Toko bahan makanan";"TOKO KELONTONG 3M";"Q5HW+25C, Jl. Torganda, Aek Batu, Kec. Torgamba, Kab. Labuhanbatu Selatan, Sumatera Utara 21464";"Jl. Torganda, Aek Batu, Kec. Torgamba, Kab. Labuhanbatu Selatan";"SUMATERA UTARA";"21464";"Indonesia";" 081396292695";"";"";"1.7775568";"100.1953979";"https://maps.google.com/?cid=0x0:0x9a50a2b1ff153e04";""
"supermarket";"Brunch";"PASAR PAGI BUK DEWI";"Q4HC+44V, Tlk. Rampah, Kec. Torgamba, Kab. Labuhanbatu Selatan, Sumatera Utara";"Kab. Labuhanbatu Selatan, Sumatera Utara";"SUMATERA UTARA";"";"Indonesia";" 081320682446";"";"";"1.7778566";"100.1202974";"https://maps.google.com/?cid=0x0:0xc12470af12ebca8e";""
"supermarket";"Toko bahan makanan";"Kios Aisyah";"R57G+H86, Aek Batu, Kec. Torgamba, Kab. Labuhanbatu Selatan, Sumatera Utara 21464";"Aek Batu, Kec. Torgamba, Kab. Labuhanbatu Selatan";"SUMATERA UTARA";"21464";"Indonesia";" 085319193929";"";"";"1.8139213";"100.1757528";"https://maps.google.com/?cid=0x0:0x2a599f6f8eeccfd0";""
