Category;Real Category;Business Name;Address;City;State;Postal Code;Country;Phone;Email;Website;Latitude;Longitude;Map Link;Details Link
"komplek housing";"komplek housing";"Sumatera Utara 21463";"Kec. Kp. Rakyat, Kab. Labuhanbatu Selatan, Sumatera Utara";"Kab. Labuhanbatu Selatan, Sumatera Utara";"SUMATERA UTARA";"";"Indonesia";"";"";"";"2.0724054";"100.2151578";"https://maps.google.com/?cid=0x0:0x8873c7c00b422839";""
"komplek housing";"Komplek perumahan";"Kompleks Perumahan Halimah Indah Residence 2";"W7V2+72G, Unnamed Road, Kebun Tlk. Panji, Kec. Kp. Rakyat, Kab. Labuhanbatu Selatan, Sumatera Utara 21463";"Unnamed Road, Kebun Tlk. Panji, Kec. Kp. Rakyat, Kab. Labuhanbatu Selatan";"SUMATERA UTARA";"21463";"Indonesia";" 082366477096";"";"";"1.9431782";"100.2500835";"https://maps.google.com/?cid=0x0:0x4bd3c23ef4e2f5a6";""
"komplek housing";"Perhimpunan Pengembang Perumahan";"Sunardi";"262R+H2V, Kebun Tlk. Panji, Kec. Kp. Rakyat, Kab. Labuhanbatu Selatan, Sumatera Utara 21463";"Kebun Tlk. Panji, Kec. Kp. Rakyat, Kab. Labuhanbatu Selatan";"SUMATERA UTARA";"21463";"Indonesia";"";"";"";"2.0012783";"100.2398492";"https://maps.google.com/?cid=0x0:0xf54a184653420c36";""
"komplek housing";"Pembangunan Perumahan";"Perumahan staff PMKS 2 PT.ABM";"475G+JP5, Tj. Mulia, Kec. Kp. Rakyat, Kab. Labuhanbatu Selatan, Sumatera Utara 21463";"Tj. Mulia, Kec. Kp. Rakyat, Kab. Labuhanbatu Selatan";"SUMATERA UTARA";"21463";"Indonesia";"";"";"";"2.108805";"100.277745";"https://maps.google.com/?cid=0x0:0x9fbdf85939aeb793";""
"komplek housing";"Masjid";"Komplek Mesjid";"24CJ+22G, Perkebunan Tolan I/II, Kec. Kp. Rakyat, Kab. Labuhanbatu Selatan, Sumatera Utara 21463";"Perkebunan Tolan I/II, Kec. Kp. Rakyat, Kab. Labuhanbatu Selatan";"SUMATERA UTARA";"21463";"Indonesia";" 082196512306";"";"";"2.0200716";"100.1300688";"https://maps.google.com/?cid=0x0:0x862a8c94b0933a78";""
"komplek housing";"Komplek perumahan";"Rumah bg Regar";"339Q+545, Perlabian, Kec. Kp. Rakyat, Kab. Labuhanbatu Selatan, Sumatera Utara 21451";"Perlabian, Kec. Kp. Rakyat, Kab. Labuhanbatu Selatan";"SUMATERA UTARA";"21451";"Indonesia";"";"";"";"2.0676231";"100.0882585";"https://maps.google.com/?cid=0x0:0xd55c32833ec4775f";""
"komplek housing";"Komplek perumahan";"Husna's house";"X7R9+FW, Tlk. Panji III, Kec. Kp. Rakyat, Kab. Labuhanbatu Selatan, Sumatera Utara";"Kab. Labuhanbatu Selatan, Sumatera Utara";"SUMATERA UTARA";"";"Indonesia";"";"";"";"1.9912321";"100.2698172";"https://maps.google.com/?cid=0x0:0x24b62f98083144f3";""
"komplek housing";"Komplek perumahan";"Kampung rakyat";"23GQ+9J9, Perkebunan Perlabian, Kec. Kp. Rakyat, Kab. Labuhanbatu Selatan, Sumatera Utara";"Kab. Labuhanbatu Selatan, Sumatera Utara";"SUMATERA UTARA";"";"Indonesia";"";"";"";"2.0259058";"100.0891";"https://maps.google.com/?cid=0x0:0xbc0bc50cc43dfded";""
"komplek housing";"Asosiasi/organisasi";"Anugra Putra Labusel";"347M+H5J, Jl. Arjuna, Tj. Selamat, Kec. Kp. Rakyat, Kab. Labuhanbatu Selatan, Sumatera Utara 21463";"Jl. Arjuna, Tj. Selamat, Kec. Kp. Rakyat, Kab. Labuhanbatu Selatan";"SUMATERA UTARA";"21463";"Indonesia";" 082215754391";"";"";"2.0639653";"100.1328943";"https://maps.google.com/?cid=0x0:0x190ae5fe0a6b1a5b";""
"komplek housing";"Perhimpunan Pengembang Perumahan";"Rumah Puput Novita";"23JF+9XF, Perkebunan Perlabian, Kec. Kp. Rakyat, Kab. Labuhanbatu Selatan, Sumatera Utara";"Kab. Labuhanbatu Selatan, Sumatera Utara";"SUMATERA UTARA";"";"Indonesia";"";"";"";"2.0309499";"100.0749246";"https://maps.google.com/?cid=0x0:0x767e2c4ebec77ba6";""
"komplek housing";"Komplek perumahan";"Fth";"272F+GQC, Tlk. Panji IV, Kec. Kp. Rakyat, Kab. Labuhanbatu Selatan, Sumatera Utara 21463";"Tlk. Panji IV, Kec. Kp. Rakyat, Kab. Labuhanbatu Selatan";"SUMATERA UTARA";"21463";"Indonesia";"";"";"";"2.0013065";"100.274388";"https://maps.google.com/?cid=0x0:0xc7460564823f5f20";""
"komplek housing";"Komplek perumahan";"Rumah azis";"23JP+FVV, Perkebunan Tolan I/II, Kec. Kp. Rakyat, Kab. Labuhanbatu Selatan, Sumatera Utara 21463";"Perkebunan Tolan I/II, Kec. Kp. Rakyat, Kab. Labuhanbatu Selatan";"SUMATERA UTARA";"21463";"Indonesia";"";"";"";"2.0324805";"100.0870562";"https://maps.google.com/?cid=0x0:0xabe8dbc120c0cccc";""
"komplek housing";"Komplek perumahan";"Home Nanda";"W6HX+2GF, Kebun Tlk. Panji, Kec. Kp. Rakyat, Kab. Labuhanbatu Selatan, Sumatera Utara";"Kab. Labuhanbatu Selatan, Sumatera Utara";"SUMATERA UTARA";"";"Indonesia";"";"";"";"1.9275707";"100.2487967";"https://maps.google.com/?cid=0x0:0x113d04a9d96dd3d2";""
"komplek housing";"Komplek perumahan";"Suci Wulandari";"246F+Q99, Air Merah, Kec. Kp. Rakyat, Kab. Labuhanbatu Selatan, Sumatera Utara 21463";"Air Merah, Kec. Kp. Rakyat, Kab. Labuhanbatu Selatan";"SUMATERA UTARA";"21463";"Indonesia";"";"";"";"2.0119134";"100.1234803";"https://maps.google.com/?cid=0x0:0xfd34893a6884e802";""
"komplek housing";"Komplek perumahan";"Rumah Harun";"2749+9Q5, Tlk. Panji II, Kec. Kp. Rakyat, Kab. Labuhanbatu Selatan, Sumatera Utara 21463";"Tlk. Panji II, Kec. Kp. Rakyat, Kab. Labuhanbatu Selatan";"SUMATERA UTARA";"21463";"Indonesia";"";"";"";"2.005889";"100.2694974";"https://maps.google.com/?cid=0x0:0xb8a41e7a4d5c0da0";""
"komplek housing";"Pembangunan Perumahan";"Home Putri Agus Hariani";"X763+FQR, Tlk. Panji I, Kec. Kp. Rakyat, Kab. Labuhanbatu Selatan, Sumatera Utara 21463";"Tlk. Panji I, Kec. Kp. Rakyat, Kab. Labuhanbatu Selatan";"SUMATERA UTARA";"21463";"Indonesia";"";"";"";"1.9612368";"100.2544044";"https://maps.google.com/?cid=0x0:0x3815b018e49484fd";""
"komplek housing";"Komplek perumahan";"Komplek Batu";"33CM+4Q, Perlabian, Kec. Kp. Rakyat, Kab. Labuhanbatu Selatan, Sumatera Utara";"Kab. Labuhanbatu Selatan, Sumatera Utara";"SUMATERA UTARA";"";"Indonesia";"";"";"";"2.0703257";"100.0844585";"https://maps.google.com/?cid=0x0:0x5a9c08ef1521242d";""
"komplek housing";"Masjid";"Sidodadi teluk panji";"Jl. Besar Sidodadi, Tlk. Panji I, Kec. Kp. Rakyat, Kab. Labuhanbatu Selatan, Sumatera Utara 21463";"Tlk. Panji I, Kec. Kp. Rakyat, Kab. Labuhanbatu Selatan";"SUMATERA UTARA";"21463";"Indonesia";"";"";"";"1.9446415";"100.250228";"https://maps.google.com/?cid=0x0:0x56022e5a9f2a15ef";""
"komplek housing";"Komplek perumahan";"Tempat pemukiman";"X7VG+477, Tlk. Panji III, Kec. Kp. Rakyat, Kab. Labuhanbatu Selatan, Sumatera Utara 21463";"Tlk. Panji III, Kec. Kp. Rakyat, Kab. Labuhanbatu Selatan";"SUMATERA UTARA";"21463";"Indonesia";"";"";"";"1.9927837";"100.2756581";"https://maps.google.com/?cid=0x0:0xd35fc39ee5367dfe";""
"komplek housing";"Komplek perumahan";"Rumah milda";"3723+X4J PT ABM, Kp. Tlk. Panji, Kec. Kp. Rakyat, Kab. Labuhanbatu Selatan, Sumatera Utara 21463";"Kp. Tlk. Panji, Kec. Kp. Rakyat, Kab. Labuhanbatu Selatan";"SUMATERA UTARA";"21463";"Indonesia";"";"";"";"2.0524638";"100.2527623";"https://maps.google.com/?cid=0x0:0x995708f534eadf34";""
"komplek housing";"Pembangunan Perumahan";"Lohsari 1 barat";"33MR+4QV, Perlabian, Kec. Kp. Rakyat, Kab. Labuhanbatu Selatan, Sumatera Utara";"Kab. Labuhanbatu Selatan, Sumatera Utara";"SUMATERA UTARA";"";"Indonesia";"";"";"";"2.0828658";"100.0919243";"https://maps.google.com/?cid=0x0:0x8f98a6fe70c1661a";""
"komplek housing";"Pembangunan Perumahan";"Gang Bethlehem Pekan Tolan";"23JJ+P78, Jl. Lintas Sumatra, Perkebunan Perlabian, Kec. Kp. Rakyat, Kab. Labuhanbatu Selatan, Sumatera Utara 21463";"Jl. Lintas Sumatra, Perkebunan Perlabian, Kec. Kp. Rakyat, Kab. Labuhanbatu Selatan";"SUMATERA UTARA";"21463";"Indonesia";"";"";"";"2.0317842";"100.0807061";"https://maps.google.com/?cid=0x0:0x30a85bae5e8b4853";""
"komplek housing";"Komplek perumahan";"Teluk panji I jalur VI";"X7JF+RRG, Tlk. Panji I, Kec. Kp. Rakyat, Kab. Labuhanbatu Selatan, Sumatera Utara 21463";"Tlk. Panji I, Kec. Kp. Rakyat, Kab. Labuhanbatu Selatan";"SUMATERA UTARA";"21463";"Indonesia";"";"";"";"1.9820628";"100.2745736";"https://maps.google.com/?cid=0x0:0x33641a7d40c6d6e0";""
"komplek housing";"Pembangunan Perumahan";"SINAGA";"34C8+V5J, Jl. Arjuna, Tj. Selamat, Kec. Kp. Rakyat, Kab. Labuhanbatu Selatan, Sumatera Utara";"Kab. Labuhanbatu Selatan, Sumatera Utara";"SUMATERA UTARA";"";"Indonesia";"";"";"";"2.072205";"100.1153934";"https://maps.google.com/?cid=0x0:0x2c636b5f0fe5c94a";""
"komplek housing";"komplek housing";"Kec. Kp. Rakyat";"Kab. Labuhanbatu Selatan, Sumatera Utara";"Kab. Labuhanbatu Selatan, Sumatera Utara";"SUMATERA UTARA";"";"Indonesia";"";"";"";"2.0285188";"100.09572";"https://maps.google.com/?cid=0x0:0x4039d80b220ee40";""
"komplek housing";"Perumahan";"Wahyudi";"27M9+6HX, Kp. Tlk. Panji, Kec. Kp. Rakyat, Kab. Labuhanbatu Selatan, Sumatera Utara 21463";"Kp. Tlk. Panji, Kec. Kp. Rakyat, Kab. Labuhanbatu Selatan";"SUMATERA UTARA";"21463";"Indonesia";"";"";"";"2.0330217";"100.2689029";"https://maps.google.com/?cid=0x0:0x9e051e28d04e854b";""
"komplek housing";"Perhimpunan Pengembang Perumahan";"Halawa house";"2424+W5, Pekan Tolan, Kec. Kp. Rakyat, Kab. Labuhanbatu Selatan, Sumatera Utara 21463";"Pekan Tolan, Kec. Kp. Rakyat, Kab. Labuhanbatu Selatan";"SUMATERA UTARA";"21463";"Indonesia";"";"";"";"2.0023125";"100.1054375";"https://maps.google.com/?cid=0x0:0x2f236d5560546fa0";""
"komplek housing";"Komplek perumahan";"Kampung jawa";"X763+FQR, Tlk. Panji I, Kec. Kp. Rakyat, Kab. Labuhanbatu Selatan, Sumatera Utara 21463";"Tlk. Panji I, Kec. Kp. Rakyat, Kab. Labuhanbatu Selatan";"SUMATERA UTARA";"21463";"Indonesia";"";"";"";"1.9612368";"100.2544044";"https://maps.google.com/?cid=0x0:0xd12876e5f74bf9f3";""
"komplek housing";"Komplek perumahan";"PT garuda";"W7V4+MRM, Jl. Besar Sidodadi, Kebun Tlk. Panji, Kec. Kp. Rakyat, Kab. Labuhanbatu Selatan, Sumatera Utara 21463";"Jl. Besar Sidodadi, Kebun Tlk. Panji, Kec. Kp. Rakyat, Kab. Labuhanbatu Selatan";"SUMATERA UTARA";"21463";"Indonesia";"";"";"";"1.943599";"100.2563633";"https://maps.google.com/?cid=0x0:0x31f2152a242ee264";""
"komplek housing";"komplek housing";"Kec. Kota Pinang";"Kab. Labuhanbatu Selatan, Sumatera Utara";"Kab. Labuhanbatu Selatan, Sumatera Utara";"SUMATERA UTARA";"";"Indonesia";"";"";"";"1.8906527";"100.0900259";"https://maps.google.com/?cid=0x0:0xf9d36fe53f57ed24";""
"komplek housing";"Pembangunan Perumahan";"Perumahan AA Residence Kotapinang";"V3WQ+49M, Kota Pinang, Kec. Kota Pinang, Kab. Labuhanbatu Selatan, Sumatera Utara 21464";"Kota Pinang, Kec. Kota Pinang, Kab. Labuhanbatu Selatan";"SUMATERA UTARA";"21464";"Indonesia";" 082260635102";"";"";"1.8953413";"100.0884104";"https://maps.google.com/?cid=0x0:0xeb98b69a8b256c7c";""
"komplek housing";"Pembangunan Perumahan";"Perumahan Ganda Asri";"V3MX+9H9, Kota Pinang, Kec. Kota Pinang, Kab. Labuhanbatu Selatan, Sumatera Utara 21464";"Kota Pinang, Kec. Kota Pinang, Kab. Labuhanbatu Selatan";"SUMATERA UTARA";"21464";"Indonesia";"";"";"";"1.8834218";"100.0989782";"https://maps.google.com/?cid=0x0:0x9d349527c808f3ad";""
"komplek housing";"Komplek perumahan";"Perumahan Siagian Agro Residence";"R2F7+489, Jl. Kota Pinang - Gunung Tua, Mampang, Kec. Kota Pinang, Kab. Labuhanbatu Selatan, Sumatera Utara 21464";"Jl. Kota Pinang - Gunung Tua, Mampang, Kec. Kota Pinang, Kab. Labuhanbatu Selatan";"SUMATERA UTARA";"21464";"Indonesia";"";"";"";"1.8217598";"100.0131218";"https://maps.google.com/?cid=0x0:0xbf84e87ef9356358";""
"komplek housing";"Pembangunan Perumahan";"Perumahan Royal Cattleya";"Unnamed Road, Sosopan, Kec. Kota Pinang, Kab. Labuhanbatu Selatan, Sumatera Utara 21464";"Sosopan, Kec. Kota Pinang, Kab. Labuhanbatu Selatan";"SUMATERA UTARA";"21464";"Indonesia";" 081264592765";"";"";"1.8673679";"100.0379627";"https://maps.google.com/?cid=0x0:0x3024b754ded58d9d";""
"komplek housing";"Komplek perumahan";"Perumahan hadiah permai";"V3RQ+J29, Kota Pinang, Kec. Kota Pinang, Kab. Labuhanbatu Selatan, Sumatera Utara 21464";"Kota Pinang, Kec. Kota Pinang, Kab. Labuhanbatu Selatan";"SUMATERA UTARA";"21464";"Indonesia";"";"";"";"1.8915066";"100.0875076";"https://maps.google.com/?cid=0x0:0x47daad80b2b4a00b";""
"komplek housing";"Komplek perumahan";"Ummi Afif's House";"Perumahan AA Jl. Kp. Banjar II No.4 Blok F, Kota Pinang, Kec. Kota Pinang, Kab. Labuhanbatu Selatan, Sumatera Utara 21464";"Kota Pinang, Kec. Kota Pinang, Kab. Labuhanbatu Selatan";"SUMATERA UTARA";"21464";"Indonesia";"";"";"";"1.8849142";"100.0837755";"https://maps.google.com/?cid=0x0:0xbabcfcc241c925a7";""
"komplek housing";"Masjid";"Mesjid";"V3RR+726, Kota Pinang, Kec. Kota Pinang, Kab. Labuhanbatu Selatan, Sumatera Utara";"Kab. Labuhanbatu Selatan, Sumatera Utara";"SUMATERA UTARA";"";"Indonesia";"";"";"";"1.8906527";"100.0900259";"https://maps.google.com/?cid=0x0:0xe23446f302176dea";""
"komplek housing";"Perhimpunan Pengembang Perumahan";"Perumahan afd 1 HTI JF.";"Q2G8+R3, Sabungan, Kec. Sungai Kanan, Kab. Labuhanbatu Selatan, Sumatera Utara 21464";"Sabungan, Kec. Sungai Kanan, Kab. Labuhanbatu Selatan";"SUMATERA UTARA";"21464";"Indonesia";"";"";"";"1.777048";"100.0152557";"https://maps.google.com/?cid=0x0:0x5f4c1274c3aa136e";""
"komplek housing";"Pembangunan Perumahan";"Perumahan Asisten Lonsum";"V2QM+VV, Perkebunan Nagodang, Kec. Kota Pinang, Kab. Labuhanbatu Selatan, Sumatera Utara";"Kab. Labuhanbatu Selatan, Sumatera Utara";"SUMATERA UTARA";"";"Indonesia";"";"";"";"1.8896307";"100.0347375";"https://maps.google.com/?cid=0x0:0x4b94dd3f8fc68aa6";""
"komplek housing";"Toko Perlengkapan Rumah";"Pulo Mas Sosopan";"V2CW+5WP, Sosopan, Kec. Kota Pinang, Kab. Labuhanbatu Selatan, Sumatera Utara 21464";"Sosopan, Kec. Kota Pinang, Kab. Labuhanbatu Selatan";"SUMATERA UTARA";"21464";"Indonesia";"";"";"";"1.8704629";"100.04733";"https://maps.google.com/?cid=0x0:0xce3d8b0857827cf7";""
"komplek housing";"Perhimpunan Pengembang Perumahan";"Rumah Afni Sihombing";"V3PV+FMR, Jl. Simarkaluang, Kota Pinang, Kec. Kota Pinang, Kab. Labuhanbatu Selatan, Sumatera Utara 21464";"Jl. Simarkaluang, Kota Pinang, Kec. Kota Pinang, Kab. Labuhanbatu Selatan";"SUMATERA UTARA";"21464";"Indonesia";"";"";"";"1.8862291";"100.0941523";"https://maps.google.com/?cid=0x0:0xb6d7533ed256dcde";""
"komplek housing";"Komplek perumahan";"Oppung Aurel Siahaan br. Tambunan";"X423+VHR, Jl. Kenanga, Sisumut, Kec. Kota Pinang, Kab. Labuhanbatu Selatan, Sumatera Utara 21464";"Jl. Kenanga, Sisumut, Kec. Kota Pinang, Kab. Labuhanbatu Selatan";"SUMATERA UTARA";"21464";"Indonesia";"";"";"";"1.9522251";"100.1038951";"https://maps.google.com/?cid=0x0:0x8003cf4434d8c131";""
"komplek housing";"Pembangunan Perumahan";"PONDOK NFO";"W29C+H9, Perkebunan Nagodang, Kec. Kota Pinang, Kab. Labuhanbatu Selatan, Sumatera Utara";"Kab. Labuhanbatu Selatan, Sumatera Utara";"SUMATERA UTARA";"";"Indonesia";"";"";"";"1.918953";"100.0208681";"https://maps.google.com/?cid=0x0:0x986d7ad46702921a";""
"komplek housing";"Perhimpunan Pengembang Perumahan";"Kampung kristen kotapinang";"V3VW+92P, Jalan kamboja Jl. Kp. Kristen, Kota Pinang, Kec. Kota Pinang, Kab. Labuhanbatu Selatan, Sumatera Utara 21464";"Jalan kamboja Jl. Kp. Kristen, Kota Pinang, Kec. Kota Pinang, Kab. Labuhanbatu Selatan";"SUMATERA UTARA";"21464";"Indonesia";" 082288973828";"";"";"1.8934706";"100.0950905";"https://maps.google.com/?cid=0x0:0x97154680c2aa1cd9";""
"komplek housing";"komplek housing";"Perumahan sumberjo,,";"V3RR+726, Kota Pinang, Kec. Kota Pinang, Kab. Labuhanbatu Selatan, Sumatera Utara";"Kab. Labuhanbatu Selatan, Sumatera Utara";"SUMATERA UTARA";"";"Indonesia";"";"";"";"1.8906527";"100.0900259";"https://maps.google.com/?cid=0x0:0x4e1ae07446e81d7f";""
"komplek housing";"Komplek perumahan";"Rumah kiki";"W3VW+7CG, Jl. Lintas Sumatra, Sisumut, Kec. Kota Pinang, Kab. Labuhanbatu Selatan, Sumatera Utara 21464";"Jl. Lintas Sumatra, Sisumut, Kec. Kota Pinang, Kab. Labuhanbatu Selatan";"SUMATERA UTARA";"21464";"Indonesia";"";"";"";"1.9435561";"100.0957321";"https://maps.google.com/?cid=0x0:0x98f211f7f12e8040";""
"komplek housing";"Perhimpunan Pengembang Perumahan";"Rumah pink samping tower";"V3RW+9CR, Jl. Kp. Raja, Kota Pinang, Kec. Kota Pinang, Kab. Labuhanbatu Selatan, Sumatera Utara 21464";"Jl. Kp. Raja, Kota Pinang, Kec. Kota Pinang, Kab. Labuhanbatu Selatan";"SUMATERA UTARA";"21464";"Indonesia";"";"";"";"1.8909958";"100.0960171";"https://maps.google.com/?cid=0x0:0x6509f31dfcc1cd46";""
"komplek housing";"Kompleks Apartemen";"HARAHAP FAMILY";"X45P+V2, Sisumut, Kec. Kota Pinang, Kab. Labuhanbatu Selatan, Sumatera Utara 21464";"Sisumut, Kec. Kota Pinang, Kab. Labuhanbatu Selatan";"SUMATERA UTARA";"21464";"Indonesia";" 082277850384";"";"";"1.9596345";"100.1350359";"https://maps.google.com/?cid=0x0:0x4e56b33a99fc849e";""
"komplek housing";"Komplek perumahan";"Elkesya Harianja";"blok songo, Jl. Pelita, Sisumut, Kota Pinang, South Labuhan Batu Regency, North Sumatra";"Kab. Labuhanbatu Selatan, Sumatera Utara";"SUMATERA UTARA";"";"Indonesia";"";"";"";"1.9501167";"100.0991724";"https://maps.google.com/?cid=0x0:0xd102c911292fa38d";""
"komplek housing";"Komplek perumahan";"Wen";"V3MW+VCM, Jl. Simarkaluang, Kota Pinang, Kec. Kota Pinang, Kab. Labuhanbatu Selatan, Sumatera Utara 21464";"Jl. Simarkaluang, Kota Pinang, Kec. Kota Pinang, Kab. Labuhanbatu Selatan";"SUMATERA UTARA";"21464";"Indonesia";"";"";"";"1.8847102";"100.0960344";"https://maps.google.com/?cid=0x0:0xd7c323620aed6dc7";""
"komplek housing";"Komplek perumahan";"HOME BAYO ANGIN";"Jl. Kalapane Jl. Pancasila, Kota Pinang, Kec. Kota Pinang, Kab. Labuhanbatu Selatan, Sumatera Utara 21464";"Kota Pinang, Kec. Kota Pinang, Kab. Labuhanbatu Selatan";"SUMATERA UTARA";"21464";"Indonesia";"";"";"";"1.898194";"100.0917631";"https://maps.google.com/?cid=0x0:0xade60505fbdc6110";""
"komplek housing";"Komplek perumahan";"Icos house";"Jl. Kalapane No.gg 45, Kota Pinang, Kec. Kota Pinang, Kab. Labuhanbatu Selatan, Sumatera Utara 21464";"Kota Pinang, Kec. Kota Pinang, Kab. Labuhanbatu Selatan";"SUMATERA UTARA";"21464";"Indonesia";"";"";"";"1.8967571";"100.0899693";"https://maps.google.com/?cid=0x0:0xb8f4f064e915fc80";""
"komplek housing";"komplek housing";"Alhamdulillah Zio Wardana (saudara motor)";"V4CC+7CC komplek ULB, Asam Jawa, Kec. Kota Pinang, Kab. Labuhanbatu Selatan, Sumatera Utara 21464";"Asam Jawa, Kec. Kota Pinang, Kab. Labuhanbatu Selatan";"SUMATERA UTARA";"21464";"Indonesia";"";"";"";"1.8706867";"100.1210123";"https://maps.google.com/?cid=0x0:0xd74774eadd5afbfa";""
"komplek housing";"Komplek perumahan";"Hanania iora";"V3WP+V8P, Jl. Perjuangan, Kota Pinang, Kec. Kota Pinang, Kab. Labuhanbatu Selatan, Sumatera Utara 21464";"Jl. Perjuangan, Kota Pinang, Kec. Kota Pinang, Kab. Labuhanbatu Selatan";"SUMATERA UTARA";"21464";"Indonesia";"";"";"";"1.8972148";"100.0858267";"https://maps.google.com/?cid=0x0:0xcf08b0695a065fe5";""
"komplek housing";"Komplek perumahan";"Aida's Home";"V3PW+59Q, Jl. Simarkaluang, Kota Pinang, Kec. Kota Pinang, Kab. Labuhanbatu Selatan, Sumatera Utara 21464";"Jl. Simarkaluang, Kota Pinang, Kec. Kota Pinang, Kab. Labuhanbatu Selatan";"SUMATERA UTARA";"21464";"Indonesia";"";"";"";"1.8854587";"100.0959853";"https://maps.google.com/?cid=0x0:0xfec4f03a5a9db9c5";""
"komplek housing";"Komplek perumahan";"Kompleks Perumahan Staff SRE";"W3GH+7J2, Perk Sei Rumbia, Kec. Kota Pinang, Kab. Labuhanbatu Selatan, Sumatera Utara 21464";"Perk Sei Rumbia, Kec. Kota Pinang, Kab. Labuhanbatu Selatan";"SUMATERA UTARA";"21464";"Indonesia";" 081397818100";"";"";"1.9256483";"100.0790203";"https://maps.google.com/?cid=0x0:0x58dce300efa0e511";""
"komplek housing";"komplek housing";"Sumatera Utara 21461";"Kec. Silangkitang, Kab. Labuhanbatu Selatan, Sumatera Utara";"Kab. Labuhanbatu Selatan, Sumatera Utara";"SUMATERA UTARA";"";"Indonesia";"";"";"";"1.8427607";"99.9465077";"https://maps.google.com/?cid=0x0:0x235a9827314238c5";""
"komplek housing";"Rumah Kayu";"Rumah kita";"VW3W+PG, Ulu Mahuam, Kec. Silangkitang, Kab. Labuhanbatu Selatan, Sumatera Utara";"Kab. Labuhanbatu Selatan, Sumatera Utara";"SUMATERA UTARA";"";"Indonesia";"";"";"";"1.8542762";"99.9462852";"https://maps.google.com/?cid=0x0:0xc803c34e60f9d2af";""
"komplek housing";"Perhimpunan Pengembang Perumahan";"Perumahan afd 1 HTI JF.";"Q2G8+R3, Sabungan, Kec. Sungai Kanan, Kab. Labuhanbatu Selatan, Sumatera Utara 21464";"Sabungan, Kec. Sungai Kanan, Kab. Labuhanbatu Selatan";"SUMATERA UTARA";"21464";"Indonesia";"";"";"";"1.777048";"100.0152557";"https://maps.google.com/?cid=0x0:0x5f4c1274c3aa136e";""
"komplek housing";"Komplek perumahan";"RUMAH BARIONO";"RWG2+GM7, Binanga Dua, Kec. Silangkitang, Kab. Labuhanbatu Selatan, Sumatera Utara 21461";"Binanga Dua, Kec. Silangkitang, Kab. Labuhanbatu Selatan";"SUMATERA UTARA";"21461";"Indonesia";"";"";"";"1.8264402";"99.8998678";"https://maps.google.com/?cid=0x0:0x4895a24c6d5b3d3";""
"komplek housing";"Komplek perumahan";"Perumahan Siagian Agro Residence";"R2F7+489, Jl. Kota Pinang - Gunung Tua, Mampang, Kec. Kota Pinang, Kab. Labuhanbatu Selatan, Sumatera Utara 21464";"Jl. Kota Pinang - Gunung Tua, Mampang, Kec. Kota Pinang, Kab. Labuhanbatu Selatan";"SUMATERA UTARA";"21464";"Indonesia";"";"";"";"1.8217598";"100.0131218";"https://maps.google.com/?cid=0x0:0xbf84e87ef9356358";""
"komplek housing";"Komplek perumahan";"Home";"WV7G+64G, Dusun Harapan Desa Kampung Dalam, Bilah Hulu, Labuhanbatu, Aek Goti, Kec. Silangkitang, Kab. Labuhanbatu Selatan, Sumatera Utara 21451";"Dusun Harapan Desa Kampung Dalam, Bilah Hulu, Labuhanbatu, Aek Goti, Kec. Silangkitang, Kab. Labuhanbatu Selatan";"SUMATERA UTARA";"21451";"Indonesia";"";"";"";"1.913059";"99.875332";"https://maps.google.com/?cid=0x0:0x363e7cdf98b8ba23";""
"komplek housing";"Pembangunan Perumahan";"BENGKEL LAS SANDI JAYA";"VWXJ+8H7, Ulu Mahuam, Kec. Silangkitang, Kab. Labuhanbatu Selatan, Sumatera Utara 21461";"Ulu Mahuam, Kec. Silangkitang, Kab. Labuhanbatu Selatan";"SUMATERA UTARA";"21461";"Indonesia";"";"";"";"1.8982967";"99.9314233";"https://maps.google.com/?cid=0x0:0xbb6c1d7fa413f03";""
"komplek housing";"Perhimpunan Pengembang Perumahan";"Komplek Perkebunan SAA";"VW96+FJ, Ulu Mahuam, Kec. Silangkitang, Kab. Labuhanbatu Selatan, Sumatera Utara";"Kab. Labuhanbatu Selatan, Sumatera Utara";"SUMATERA UTARA";"";"Indonesia";"";"";"";"1.868652";"99.911559";"https://maps.google.com/?cid=0x0:0xa903049ddb0c568d";""
"komplek housing";"Komplek perumahan";"Rumah Yusri Andani";"VW43+6CH, Ulu Mahuam, Kec. Silangkitang, Kab. Labuhanbatu Selatan, Sumatera Utara 21461";"Ulu Mahuam, Kec. Silangkitang, Kab. Labuhanbatu Selatan";"SUMATERA UTARA";"21461";"Indonesia";"";"";"";"1.855679";"99.903956";"https://maps.google.com/?cid=0x0:0xab727b96bbc0cc04";""
"komplek housing";"Komplek perumahan";"Rumah Agung";"RXV2+2V8, Ulu Mahuam, Kec. Silangkitang, Kab. Labuhanbatu Selatan, Sumatera Utara 21461";"Ulu Mahuam, Kec. Silangkitang, Kab. Labuhanbatu Selatan";"SUMATERA UTARA";"21461";"Indonesia";"";"";"";"1.8424738";"99.95366";"https://maps.google.com/?cid=0x0:0x145c94ffcf057a43";""
"komplek housing";"Komplek perumahan";"Rumah mas Robinson";"WWCW+G8, Rintis, Kec. Silangkitang, Kab. Labuhanbatu Selatan, Sumatera Utara";"Kab. Labuhanbatu Selatan, Sumatera Utara";"SUMATERA UTARA";"";"Indonesia";"";"";"";"1.9210545";"99.9467958";"https://maps.google.com/?cid=0x0:0x82a4fad899d3c0c3";""
"komplek housing";"Komplek perumahan";"Pulung rejo";"VXRC+XMJ, Pulung rejo,desa mandalasena, Ulu Mahuam, Kec. Silangkitang, Kab. Labuhanbatu Selatan, Sumatera Utara 21461";"Pulung rejo,desa mandalasena, Ulu Mahuam, Kec. Silangkitang, Kab. Labuhanbatu Selatan";"SUMATERA UTARA";"21461";"Indonesia";"";"";"";"1.892297";"99.9722459";"https://maps.google.com/?cid=0x0:0x65d8c1ef244c9041";""
"komplek housing";"Komplek perumahan";"Rumah Tyas";"VWVM+H3G, Ulu Mahuam, Kec. Silangkitang, Kab. Labuhanbatu Selatan, Sumatera Utara 21461";"Ulu Mahuam, Kec. Silangkitang, Kab. Labuhanbatu Selatan";"SUMATERA UTARA";"21461";"Indonesia";"";"";"";"1.8948859";"99.9335949";"https://maps.google.com/?cid=0x0:0xd2f49a3af9d3c6bd";""
"komplek housing";"Komplek perumahan";"Siku";"V3J3+XPF, Perkebunan Nagodang, Kec. Kota Pinang, Kab. Labuhanbatu Selatan, Sumatera Utara 21464";"Perkebunan Nagodang, Kec. Kota Pinang, Kab. Labuhanbatu Selatan";"SUMATERA UTARA";"21464";"Indonesia";"";"";"";"1.8822833";"100.0554517";"https://maps.google.com/?cid=0x0:0xc9827236e1c02b61";""
"komplek housing";"Komplek perumahan";"Rumah uwek Arsyil";"VXVF+RC, Ulu Mahuam, Kec. Silangkitang, Kab. Labuhanbatu Selatan, Sumatera Utara";"Kab. Labuhanbatu Selatan, Sumatera Utara";"SUMATERA UTARA";"";"Indonesia";"";"";"";"1.894581";"99.973544";"https://maps.google.com/?cid=0x0:0xeffcdf70a44e03bb";""
"komplek housing";"Komplek perumahan";"Rumah Lutfi";"pematang rangkong, Jl. Dusun Suhud, Rintis, Kec. Silangkitang, Kab. Labuhanbatu Selatan, Sumatera Utara 21451";"Jl. Dusun Suhud, Rintis, Kec. Silangkitang, Kab. Labuhanbatu Selatan";"SUMATERA UTARA";"21451";"Indonesia";"";"";"";"1.9607839";"99.9208821";"https://maps.google.com/?cid=0x0:0x741023d0f90bd90e";""
"komplek housing";"Komplek perumahan";"Rumah Aril";"VWRJ+4JJ, Jl. Besar Rintis, Ulu Mahuam, Kec. Silangkitang, Kab. Labuhanbatu Selatan, Sumatera Utara 21461";"Jl. Besar Rintis, Ulu Mahuam, Kec. Silangkitang, Kab. Labuhanbatu Selatan";"SUMATERA UTARA";"21461";"Indonesia";"";"";"";"1.8906691";"99.9318723";"https://maps.google.com/?cid=0x0:0xe88dc3468ee2041d";""
"komplek housing";"Komplek perumahan";"Ummi Afif's House";"Perumahan AA Jl. Kp. Banjar II No.4 Blok F, Kota Pinang, Kec. Kota Pinang, Kab. Labuhanbatu Selatan, Sumatera Utara 21464";"Kota Pinang, Kec. Kota Pinang, Kab. Labuhanbatu Selatan";"SUMATERA UTARA";"21464";"Indonesia";"";"";"";"1.8849142";"100.0837755";"https://maps.google.com/?cid=0x0:0xbabcfcc241c925a7";""
"komplek housing";"Kios";"Kios smart";"VXR9+HQV, Ulu Mahuam, Kec. Silangkitang, Kab. Labuhanbatu Selatan, Sumatera Utara";"Kab. Labuhanbatu Selatan, Sumatera Utara";"SUMATERA UTARA";"";"Indonesia";"";"";"";"1.8914928";"99.9694159";"https://maps.google.com/?cid=0x0:0x8a6ca7fa4c86e01d";""
"komplek housing";"komplek housing";"Kec. Silangkitang";"Kab. Labuhanbatu Selatan, Sumatera Utara";"Kab. Labuhanbatu Selatan, Sumatera Utara";"SUMATERA UTARA";"";"Indonesia";"";"";"";"1.9124677";"99.9307005";"https://maps.google.com/?cid=0x0:0x7796ffe0bf0db6e0";""
"komplek housing";"Komplek perumahan";"Dwi Ramayanti Harahap";"Rintis, Kec. Silangkitang, Kab. Labuhanbatu Selatan, Sumatera Utara 21451";"Kec. Silangkitang, Kab. Labuhanbatu Selatan";"SUMATERA UTARA";"21451";"Indonesia";" 085294921810";"";"";"1.960745";"99.9466009";"https://maps.google.com/?cid=0x0:0x8df56f1523307ae2";""
"komplek housing";"Toko umum";"Rumah Anas";"VWVM+H3G, Ulu Mahuam, Kec. Silangkitang, Kab. Labuhanbatu Selatan, Sumatera Utara 21461";"Ulu Mahuam, Kec. Silangkitang, Kab. Labuhanbatu Selatan";"SUMATERA UTARA";"21461";"Indonesia";"";"";"";"1.8945383";"99.9332217";"https://maps.google.com/?cid=0x0:0xaa59182b9a9a3318";""
"komplek housing";"Komplek perumahan";"Rumah Jamiatullasfikar";"V3XR+J8H, Jl. Kota PinPerumahan Jl. Lobu, Lobu Indah, Kec. Kota Pinang, Kab. Labuhanbatu Selatan, Sumatera Utara 21461";"Jl. Kota PinPerumahan Jl. Lobu, Lobu Indah, Kec. Kota Pinang, Kab. Labuhanbatu Selatan";"SUMATERA UTARA";"21461";"Indonesia";"";"";"";"1.8990602";"100.0908743";"https://maps.google.com/?cid=0x0:0x1482a01c2b32dcc6";""
"komplek housing";"Komplek perumahan";"Rina olsop";"V2RM+XH, Perkebunan Nagodang, Kec. Kota Pinang, Kab. Labuhanbatu Selatan, Sumatera Utara 21461";"Perkebunan Nagodang, Kec. Kota Pinang, Kab. Labuhanbatu Selatan";"SUMATERA UTARA";"21461";"Indonesia";"";"";"";"1.8924165";"100.0339707";"https://maps.google.com/?cid=0x0:0xddab42330ce15107";""
"komplek housing";"Komplek perumahan";"rumah dio";"QWJQ+47F, Hajoran, Kec. Sungai Kanan, Kab. Labuhanbatu Selatan, Sumatera Utara 21461";"Hajoran, Kec. Sungai Kanan, Kab. Labuhanbatu Selatan";"SUMATERA UTARA";"21461";"Indonesia";"";"";"";"1.7808752";"99.9390656";"https://maps.google.com/?cid=0x0:0x3af026e8bdf6790f";""
"komplek housing";"Komplek perumahan";"Rumah idaman";"QWJP+MV2, Hajoran, Kec. Sungai Kanan, Kab. Labuhanbatu Selatan, Sumatera Utara 21461";"Hajoran, Kec. Sungai Kanan, Kab. Labuhanbatu Selatan";"SUMATERA UTARA";"21461";"Indonesia";"";"";"";"1.7815929";"99.9370455";"https://maps.google.com/?cid=0x0:0xc93758d5b1d7c33";""
"komplek housing";"komplek housing";"Sumatera Utara 21464";"Kab. Labuhanbatu Selatan, Sumatera Utara";"Kab. Labuhanbatu Selatan, Sumatera Utara";"SUMATERA UTARA";"";"Indonesia";"";"";"";"1.6877896";"100.2151578";"https://maps.google.com/?cid=0x0:0xcb75493cd4919ca3";""
"komplek housing";"komplek housing";"Perumahan Torgamba Indah";"Q5MV+F3X, Aek Batu, Kec. Torgamba, Kab. Labuhanbatu Selatan, Sumatera Utara 21464";"Aek Batu, Kec. Torgamba, Kab. Labuhanbatu Selatan";"SUMATERA UTARA";"21464";"Indonesia";"";"";"";"1.7837489";"100.1927389";"https://maps.google.com/?cid=0x0:0xbc5acf0570d35cd1";""
"komplek housing";"Komplek perumahan";"AFD VI TORGAMBA";"M8W3+WP, Torgamba, Kec. Torgamba, Kab. Labuhanbatu Selatan, Sumatera Utara";"Kab. Labuhanbatu Selatan, Sumatera Utara";"SUMATERA UTARA";"";"Indonesia";"";"";"";"1.6973131";"100.3042452";"https://maps.google.com/?cid=0x0:0x9ccc4e5fc06ed9c1";""
"komplek housing";"Komplek perumahan";"Oemar Farm";"M7QJ+P3J, Jl. Kebun Torgamba, Torgamba, Kec. Torgamba, Kab. Labuhanbatu Selatan, Sumatera Utara 21464";"Jl. Kebun Torgamba, Torgamba, Kec. Torgamba, Kab. Labuhanbatu Selatan";"SUMATERA UTARA";"21464";"Indonesia";"";"";"";"1.6893275";"100.2801308";"https://maps.google.com/?cid=0x0:0xab43ff74a5998522";""
"komplek housing";"Pembangunan Perumahan";"Perumahan AA Residance";"perumahan AA Residance, 02Cikampak pekan Block P .No, Aek Batu, Kec. Torgamba, Kab. Labuhanbatu Selatan, Sumatera Utara 21464";"02Cikampak pekan Block P .No, Aek Batu, Kec. Torgamba, Kab. Labuhanbatu Selatan";"SUMATERA UTARA";"21464";"Indonesia";"";"";"";"1.7897996";"100.203737";"https://maps.google.com/?cid=0x0:0x6514477083b8e0c8";""
"komplek housing";"Kantor Perusahaan";"KOMPLEK SIAGIAN AGRO PERMAI VII";"Q6M8+R3F, Jl. Cinta Damai, Aek Batu, Kec. Torgamba, Kab. Labuhanbatu Selatan, Sumatera Utara 21464";"Jl. Cinta Damai, Aek Batu, Kec. Torgamba, Kab. Labuhanbatu Selatan";"SUMATERA UTARA";"21464";"Indonesia";"";"";"";"1.783411";"100.215539";"https://maps.google.com/?cid=0x0:0x79d9cffde9362310";""
"komplek housing";"Perhimpunan Pengembang Perumahan";"Rumah Muhyidin";"V5GQ+Q9F, Asam Jawa, Kec. Torgamba, Kab. Labuhanbatu Selatan, Sumatera Utara 21464";"Asam Jawa, Kec. Torgamba, Kab. Labuhanbatu Selatan";"SUMATERA UTARA";"21464";"Indonesia";" 081227241913";"";"";"1.87695";"100.1884363";"https://maps.google.com/?cid=0x0:0x218007e3fc51816d";""
"komplek housing";"Komplek perumahan";"Rumah Abdillah";"M89F+QGW, Torgamba, Kec. Torgamba, Kab. Labuhanbatu Selatan, Sumatera Utara 21464";"Torgamba, Kec. Torgamba, Kab. Labuhanbatu Selatan";"SUMATERA UTARA";"21464";"Indonesia";"";"";"";"1.6693977";"100.3237403";"https://maps.google.com/?cid=0x0:0x4d81539a8dfc8964";""
"komplek housing";"Komplek perumahan";"Perumahan staff Torgamba";"P75G+QF, Torgamba, Kec. Torgamba, Kab. Labuhanbatu Selatan, Sumatera Utara";"Kab. Labuhanbatu Selatan, Sumatera Utara";"SUMATERA UTARA";"";"Indonesia";"";"";"";"1.7093887";"100.2761519";"https://maps.google.com/?cid=0x0:0x395e22dc7b58f77d";""
"komplek housing";"Komplek perumahan";"Rumah B.Siregar";"Rumah B.Siregar, Jl. Pendidikan Budaya Cikampak No.4 Blok H, Aek Batu, Kec. Torgamba, Kab. Labuhanbatu Selatan, Sumatera Utara 21464";"Jl. Pendidikan Budaya Cikampak No.4 Blok H, Aek Batu, Kec. Torgamba, Kab. Labuhanbatu Selatan";"SUMATERA UTARA";"21464";"Indonesia";"";"";"";"1.7856055";"100.2009359";"https://maps.google.com/?cid=0x0:0x93598ff15f69e3c6";""
"komplek housing";"Komplek perumahan";"RAMiN HOME";"Q5MV+F3X kampung jawa, Aek Batu, Kec. Torgamba, Kab. Labuhanbatu Selatan, Sumatera Utara 21464";"Aek Batu, Kec. Torgamba, Kab. Labuhanbatu Selatan";"SUMATERA UTARA";"21464";"Indonesia";"";"";"";"1.7837489";"100.1927389";"https://maps.google.com/?cid=0x0:0xcc7243ccaf48724f";""
"komplek housing";"Komplek perumahan";"Rumah Manguncong Bahasa Indonesia";"Q6M2+6M, Aek Batu, Kec. Torgamba, Kab. Labuhanbatu Selatan, Sumatera Utara 21464";"Aek Batu, Kec. Torgamba, Kab. Labuhanbatu Selatan";"SUMATERA UTARA";"21464";"Indonesia";"";"";"";"1.7830693";"100.2016553";"https://maps.google.com/?cid=0x0:0x8b5b0bcaa4c643ed";""
"komplek housing";"Komplek perumahan";"Afdeling IV Perkebunan Sei Daun";"M8GQ+4M5, Torgamba, Kec. Torgamba, Kab. Labuhanbatu Selatan, Sumatera Utara 21464";"Torgamba, Kec. Torgamba, Kab. Labuhanbatu Selatan";"SUMATERA UTARA";"21464";"Indonesia";" 082298529753";"";"";"1.6752661";"100.33922";"https://maps.google.com/?cid=0x0:0x7a7ea78a5b468aab";""
"komplek housing";"Komplek perumahan";"Afdeling 2 torgamba";"P8P5+MF, Beringin Jaya, Kec. Torgamba, Kab. Labuhanbatu Selatan, Sumatera Utara";"Kab. Labuhanbatu Selatan, Sumatera Utara";"SUMATERA UTARA";"";"Indonesia";"";"";"";"1.7366447";"100.3088167";"https://maps.google.com/?cid=0x0:0x538106e29bab5fd3";""
"komplek housing";"Taman Komunitas";"Perumahan Tani Sawit Indonesia";"R6X4+R73, Pinang Dame, Kec. Torgamba, Kab. Labuhanbatu Selatan, Sumatera Utara 21464";"Pinang Dame, Kec. Torgamba, Kab. Labuhanbatu Selatan";"SUMATERA UTARA";"21464";"Indonesia";"";"";"";"1.8495175";"100.2056801";"https://maps.google.com/?cid=0x0:0x6f08b93ecb1b2f1b";""
"komplek housing";"Pembangunan Perumahan";"Jabu";"Q5PW+3M3, Aek Batu, Kec. Torgamba, Kab. Labuhanbatu Selatan, Sumatera Utara 21464";"Aek Batu, Kec. Torgamba, Kab. Labuhanbatu Selatan";"SUMATERA UTARA";"21464";"Indonesia";"";"";"";"1.7851252";"100.1966784";"https://maps.google.com/?cid=0x0:0xc9f86f9e9784bedc";""
"komplek housing";"Komplek perumahan";"Perumahan NAGALEMAN";"V5HC+X4C, Nagaleman, Kec. Torgamba, Kab. Labuhanbatu Selatan, Sumatera Utara";"Kab. Labuhanbatu Selatan, Sumatera Utara";"SUMATERA UTARA";"";"Indonesia";"";"";"";"1.8799387";"100.1702788";"https://maps.google.com/?cid=0x0:0xd464e23a24abc693";""
"komplek housing";"Kantor Perusahaan";"Kebun torgamba";"Jl. Kebun Torgamba, Torgamba, Kec. Torgamba, Kab. Labuhanbatu Selatan, Sumatera Utara 21464";"Torgamba, Kec. Torgamba, Kab. Labuhanbatu Selatan";"SUMATERA UTARA";"21464";"Indonesia";"";"";"";"1.7130755";"100.2882468";"https://maps.google.com/?cid=0x0:0x44fd74b0a9e97e3c";""
"komplek housing";"Pembangunan Perumahan";"FAT";"Q5MV+F3X, KPIA10052, Aek Batu, Kec. Torgamba, Kab. Labuhanbatu Selatan, Sumatera Utara 21464";"KPIA10052, Aek Batu, Kec. Torgamba, Kab. Labuhanbatu Selatan";"SUMATERA UTARA";"21464";"Indonesia";"";"";"";"1.7837489";"100.1927389";"https://maps.google.com/?cid=0x0:0xdaf518fd6f894bd5";""
"komplek housing";"Komplek perumahan";"Afd 3 torgamba";"P8MP+W9J, Beringin Jaya, Kec. Torgamba, Kab. Labuhanbatu Selatan, Sumatera Utara";"Kab. Labuhanbatu Selatan, Sumatera Utara";"SUMATERA UTARA";"";"Indonesia";"";"";"";"1.7348401";"100.3358844";"https://maps.google.com/?cid=0x0:0x67891dff1c581a72";""
"komplek housing";"Pembangunan Perumahan";"Perumahan Ganda Asri";"V3MX+9H9, Kota Pinang, Kec. Kota Pinang, Kab. Labuhanbatu Selatan, Sumatera Utara 21464";"Kota Pinang, Kec. Kota Pinang, Kab. Labuhanbatu Selatan";"SUMATERA UTARA";"21464";"Indonesia";"";"";"";"1.8834218";"100.0989782";"https://maps.google.com/?cid=0x0:0x9d349527c808f3ad";""
"komplek housing";"Pembangunan Perumahan";"Perumahan Agung Permai I";"V543+2X8, Asam Jawa, Kec. Torgamba, Kab. Labuhanbatu Selatan, Sumatera Utara 21464";"Asam Jawa, Kec. Torgamba, Kab. Labuhanbatu Selatan";"SUMATERA UTARA";"21464";"Indonesia";"";"";"";"1.8550329";"100.1549587";"https://maps.google.com/?cid=0x0:0xe35c1928d5938a54";""
"komplek housing";"Komplek perumahan";"Perumahan Siagian Agro Residence";"R2F7+489, Jl. Kota Pinang - Gunung Tua, Mampang, Kec. Kota Pinang, Kab. Labuhanbatu Selatan, Sumatera Utara 21464";"Jl. Kota Pinang - Gunung Tua, Mampang, Kec. Kota Pinang, Kab. Labuhanbatu Selatan";"SUMATERA UTARA";"21464";"Indonesia";"";"";"";"1.8217598";"100.0131218";"https://maps.google.com/?cid=0x0:0xbf84e87ef9356358";""
"komplek housing";"Perhimpunan Pengembang Perumahan";"Perumahan afd 1 HTI JF.";"Q2G8+R3, Sabungan, Kec. Sungai Kanan, Kab. Labuhanbatu Selatan, Sumatera Utara 21464";"Sabungan, Kec. Sungai Kanan, Kab. Labuhanbatu Selatan";"SUMATERA UTARA";"21464";"Indonesia";"";"";"";"1.777048";"100.0152557";"https://maps.google.com/?cid=0x0:0x5f4c1274c3aa136e";""
"komplek housing";"Perhimpunan Pengembang Perumahan";"Simpang roda";"Q68J+J8R, Aek Batu, Kec. Torgamba, Kab. Labuhanbatu Selatan, Sumatera Utara 21464";"Aek Batu, Kec. Torgamba, Kab. Labuhanbatu Selatan";"SUMATERA UTARA";"21464";"Indonesia";"";"";"";"1.7664412";"100.2307819";"https://maps.google.com/?cid=0x0:0xb1d5022be5b639bc";""
"komplek housing";"Komplek perumahan";"Rumah Putri Purba";"V533+XP7, Asam Jawa, Kec. Torgamba, Kab. Labuhanbatu Selatan, Sumatera Utara 21464";"Asam Jawa, Kec. Torgamba, Kab. Labuhanbatu Selatan";"SUMATERA UTARA";"21464";"Indonesia";"";"";"";"1.8554541";"100.1544782";"https://maps.google.com/?cid=0x0:0xfb2583727aac796b";""
"komplek housing";"Komplek perumahan";"Pras Home";"Q993+754, Jalur 1, Beringin Jaya, Kec. Torgamba, Kab. Labuhanbatu Selatan, Sumatera Utara 28992";"Jalur 1, Beringin Jaya, Kec. Torgamba, Kab. Labuhanbatu Selatan";"SUMATERA UTARA";"28992";"Indonesia";"";"";"";"1.7674567";"100.352805";"https://maps.google.com/?cid=0x0:0xd1c9792f2210ccca";""
"komplek housing";"komplek housing";"Kec. Torgamba";"Kab. Labuhanbatu Selatan, Sumatera Utara";"Kab. Labuhanbatu Selatan, Sumatera Utara";"SUMATERA UTARA";"";"Indonesia";"";"";"";"1.6877896";"100.2151578";"https://maps.google.com/?cid=0x0:0x3624759e91c47f3d";""
"komplek housing";"Komplek perumahan";"Sumberjo Pasar 4";"V5GQ+V9C, Asam Jawa, Kec. Torgamba, Kab. Labuhanbatu Selatan, Sumatera Utara 21464";"Asam Jawa, Kec. Torgamba, Kab. Labuhanbatu Selatan";"SUMATERA UTARA";"21464";"Indonesia";"";"";"";"1.8771903";"100.1884015";"https://maps.google.com/?cid=0x0:0x7d5aaac8df4b0e83";""
"perumahan";"perumahan";"Sumatera Utara 21463";"Kec. Kp. Rakyat, Kab. Labuhanbatu Selatan, Sumatera Utara";"Kab. Labuhanbatu Selatan, Sumatera Utara";"SUMATERA UTARA";"";"Indonesia";"";"";"";"2.0724054";"100.2151578";"https://maps.google.com/?cid=0x0:0x8873c7c00b422839";""
"perumahan";"Komplek perumahan";"Kampung rakyat";"23GQ+9J9, Perkebunan Perlabian, Kec. Kp. Rakyat, Kab. Labuhanbatu Selatan, Sumatera Utara";"Kab. Labuhanbatu Selatan, Sumatera Utara";"SUMATERA UTARA";"";"Indonesia";"";"";"";"2.0259058";"100.0891";"https://maps.google.com/?cid=0x0:0xbc0bc50cc43dfded";""
"perumahan";"Pembangunan Perumahan";"PERUMAHAN ANUGERAH TOLAN RESIDENCE";"23PW+7W6, Perkebunan Perlabian, Kec. Kp. Rakyat, Kab. Labuhanbatu Selatan, Sumatera Utara 21463";"Perkebunan Perlabian, Kec. Kp. Rakyat, Kab. Labuhanbatu Selatan";"SUMATERA UTARA";"21463";"Indonesia";" 081265385977";"";"";"2.0356646";"100.0972794";"https://maps.google.com/?cid=0x0:0x1da0844eca667ac";""
"perumahan";"Komplek perumahan";"Jln.PERUMAHAN TOLAN INDAH";"23JP+FJM, Jl. Lintas Sumatra, Perkebunan Perlabian, Kec. Kp. Rakyat, Kab. Labuhanbatu Selatan, Sumatera Utara 21463";"Jl. Lintas Sumatra, Perkebunan Perlabian, Kec. Kp. Rakyat, Kab. Labuhanbatu Selatan";"SUMATERA UTARA";"21463";"Indonesia";"";"";"";"2.031205";"100.0865567";"https://maps.google.com/?cid=0x0:0xa91565d32b1531c6";""
"perumahan";"Asosiasi/organisasi";"Anugra Putra Labusel";"347M+H5J, Jl. Arjuna, Tj. Selamat, Kec. Kp. Rakyat, Kab. Labuhanbatu Selatan, Sumatera Utara 21463";"Jl. Arjuna, Tj. Selamat, Kec. Kp. Rakyat, Kab. Labuhanbatu Selatan";"SUMATERA UTARA";"21463";"Indonesia";" 082215754391";"";"";"2.0639653";"100.1328943";"https://maps.google.com/?cid=0x0:0x190ae5fe0a6b1a5b";""
"perumahan";"Komplek perumahan";"Rumah azis";"23JP+FVV, Perkebunan Tolan I/II, Kec. Kp. Rakyat, Kab. Labuhanbatu Selatan, Sumatera Utara 21463";"Perkebunan Tolan I/II, Kec. Kp. Rakyat, Kab. Labuhanbatu Selatan";"SUMATERA UTARA";"21463";"Indonesia";"";"";"";"2.0324805";"100.0870562";"https://maps.google.com/?cid=0x0:0xabe8dbc120c0cccc";""
"perumahan";"Perhimpunan Pengembang Perumahan";"Sunardi";"262R+H2V, Kebun Tlk. Panji, Kec. Kp. Rakyat, Kab. Labuhanbatu Selatan, Sumatera Utara 21463";"Kebun Tlk. Panji, Kec. Kp. Rakyat, Kab. Labuhanbatu Selatan";"SUMATERA UTARA";"21463";"Indonesia";"";"";"";"2.0012783";"100.2398492";"https://maps.google.com/?cid=0x0:0xf54a184653420c36";""
"perumahan";"Komplek perumahan";"Rumah Bpk TUGIMIN";"W6PR+Q9, Kebun Tlk. Panji, Kec. Kp. Rakyat, Kab. Labuhanbatu Selatan, Sumatera Utara 21463";"Kebun Tlk. Panji, Kec. Kp. Rakyat, Kab. Labuhanbatu Selatan";"SUMATERA UTARA";"21463";"Indonesia";"";"";"";"1.936904";"100.2409114";"https://maps.google.com/?cid=0x0:0xb331558e83de918d";""
"perumahan";"Komplek perumahan";"SIMPANG PAGUL";"466P+W79 Malinda, Jalan, Tanjung Mulia, Kampung Rakyat, South Labuhan Batu Regency, North Sumatra 21463";"Jalan, Tanjung Mulia, Kampung Rakyat, South Labuhan Batu Regency";"SUMATERA UTARA";"21463";"Indonesia";"";"";"";"2.1122971";"100.2357292";"https://maps.google.com/?cid=0x0:0xa49f7a4448dfd9b3";""
"perumahan";"Kantor Perusahaan";"Perumahan PT ABM PMKS 2 Teluk Panji";"475G+HPP, Tj. Mulia, Kec. Kp. Rakyat, Kab. Labuhanbatu Selatan, Sumatera Utara 21463";"Tj. Mulia, Kec. Kp. Rakyat, Kab. Labuhanbatu Selatan";"SUMATERA UTARA";"21463";"Indonesia";"";"";"";"2.1089601";"100.2768161";"https://maps.google.com/?cid=0x0:0x7c25303abfb6235";""
"perumahan";"Kompleks Bangunan Perusahaan";"Simpang PT HERFINTA";"25R2+XQR, Dusun Perdamean, Kec. Kp. Rakyat, Kab. Labuhanbatu Selatan, Sumatera Utara 21463";"Dusun Perdamean, Kec. Kp. Rakyat, Kab. Labuhanbatu Selatan";"SUMATERA UTARA";"21463";"Indonesia";"";"";"";"2.0424846";"100.151902";"https://maps.google.com/?cid=0x0:0xbab391fe208b2f3b";""
"perumahan";"Komplek perumahan";"Anugrah Panji Residence";"W6PR+RC9, Kebun Tlk. Panji, Kec. Kp. Rakyat, Kab. Labuhanbatu Selatan, Sumatera Utara";"Kab. Labuhanbatu Selatan, Sumatera Utara";"SUMATERA UTARA";"";"Indonesia";"";"";"";"1.9370294";"100.2410948";"https://maps.google.com/?cid=0x0:0x4dcfd2926e61c684";""
"perumahan";"Masjid";"Sidodadi teluk panji";"Jl. Besar Sidodadi, Tlk. Panji I, Kec. Kp. Rakyat, Kab. Labuhanbatu Selatan, Sumatera Utara 21463";"Tlk. Panji I, Kec. Kp. Rakyat, Kab. Labuhanbatu Selatan";"SUMATERA UTARA";"21463";"Indonesia";"";"";"";"1.9446415";"100.250228";"https://maps.google.com/?cid=0x0:0x56022e5a9f2a15ef";""
"perumahan";"Pembangunan Perumahan";"Lohsari 1 barat";"33MR+4QV, Perlabian, Kec. Kp. Rakyat, Kab. Labuhanbatu Selatan, Sumatera Utara";"Kab. Labuhanbatu Selatan, Sumatera Utara";"SUMATERA UTARA";"";"Indonesia";"";"";"";"2.0828658";"100.0919243";"https://maps.google.com/?cid=0x0:0x8f98a6fe70c1661a";""
"perumahan";"Komplek perumahan";"Siahaan Residence";"25R2+XQR, Dusun Perdamean, Tj. Medan, Kec. Kp. Rakyat, Kab. Labuhanbatu Selatan, Sumatera Utara 21463";"Dusun Perdamean, Tj. Medan, Kec. Kp. Rakyat, Kab. Labuhanbatu Selatan";"SUMATERA UTARA";"21463";"Indonesia";"";"";"";"2.0425077";"100.1517659";"https://maps.google.com/?cid=0x0:0x16f00cba4af81c88";""
"perumahan";"Komplek perumahan";"Rumah Azri";"44J4+RW2, Tj. Selamat, Kec. Kp. Rakyat, Kab. Labuhanbatu Selatan, Sumatera Utara 21471";"Tj. Selamat, Kec. Kp. Rakyat, Kab. Labuhanbatu Selatan";"SUMATERA UTARA";"21471";"Indonesia";"";"";"";"2.1311211";"100.1061461";"https://maps.google.com/?cid=0x0:0xc23c7cfcec7c67e3";""
"perumahan";"Pembangunan Perumahan";"Gang Bethlehem Pekan Tolan";"23JJ+P78, Jl. Lintas Sumatra, Perkebunan Perlabian, Kec. Kp. Rakyat, Kab. Labuhanbatu Selatan, Sumatera Utara 21463";"Jl. Lintas Sumatra, Perkebunan Perlabian, Kec. Kp. Rakyat, Kab. Labuhanbatu Selatan";"SUMATERA UTARA";"21463";"Indonesia";"";"";"";"2.0317842";"100.0807061";"https://maps.google.com/?cid=0x0:0x30a85bae5e8b4853";""
"perumahan";"Pembangunan Perumahan";"Perumahan C54 PT ABM";"27FV+FF3, Tlk. Panji IV, Kec. Kp. Rakyat, Kab. Labuhanbatu Selatan, Sumatera Utara 21463";"Tlk. Panji IV, Kec. Kp. Rakyat, Kab. Labuhanbatu Selatan";"SUMATERA UTARA";"21463";"Indonesia";"";"";"";"2.0236408";"100.2936683";"https://maps.google.com/?cid=0x0:0x5b179dae9f96dc2";""
"perumahan";"Komplek perumahan";"Rumah milda";"3723+X4J PT ABM, Kp. Tlk. Panji, Kec. Kp. Rakyat, Kab. Labuhanbatu Selatan, Sumatera Utara 21463";"Kp. Tlk. Panji, Kec. Kp. Rakyat, Kab. Labuhanbatu Selatan";"SUMATERA UTARA";"21463";"Indonesia";"";"";"";"2.0524638";"100.2527623";"https://maps.google.com/?cid=0x0:0x995708f534eadf34";""
"perumahan";"Komplek perumahan";"Perumahan C44";"3799+QW, Tj. Mulia, Kec. Kp. Rakyat, Kab. Labuhanbatu Selatan, Sumatera Utara 21463";"Tj. Mulia, Kec. Kp. Rakyat, Kab. Labuhanbatu Selatan";"SUMATERA UTARA";"21463";"Indonesia";"";"";"";"2.0693781";"100.2698216";"https://maps.google.com/?cid=0x0:0xdf5265cadfdaeee";""
"perumahan";"Pembangunan Perumahan";"Simpang poncol";"33RQ+F5G, Perlabian, Kec. Kp. Rakyat, Kab. Labuhanbatu Selatan, Sumatera Utara 21462";"Perlabian, Kec. Kp. Rakyat, Kab. Labuhanbatu Selatan";"SUMATERA UTARA";"21462";"Indonesia";"";"";"";"2.0911785";"100.0879413";"https://maps.google.com/?cid=0x0:0x752d3f1d3f0bb4e9";""
"perumahan";"perumahan";"Perumahan";"23HW+C75, Perkebunan Perlabian, Kec. Kp. Rakyat, Kab. Labuhanbatu Selatan, Sumatera Utara";"Kab. Labuhanbatu Selatan, Sumatera Utara";"SUMATERA UTARA";"";"Indonesia";"";"";"";"2.0285188";"100.09572";"https://maps.google.com/?cid=0x0:0xedb8d2e57b099675";""
"perumahan";"Komplek perumahan";"Kompleks Perumahan Halimah Indah Residence 2";"W7V2+72G, Unnamed Road, Kebun Tlk. Panji, Kec. Kp. Rakyat, Kab. Labuhanbatu Selatan, Sumatera Utara 21463";"Unnamed Road, Kebun Tlk. Panji, Kec. Kp. Rakyat, Kab. Labuhanbatu Selatan";"SUMATERA UTARA";"21463";"Indonesia";" 082366477096";"";"";"1.9431782";"100.2500835";"https://maps.google.com/?cid=0x0:0x4bd3c23ef4e2f5a6";""
"perumahan";"Komplek perumahan";"Rumah Kadus A. Fuad";"223V+2C8, Gg. Mesjid, Pekan Tolan, Kec. Kp. Rakyat, Kab. Labuhanbatu Selatan, Sumatera Utara 21451";"Gg. Mesjid, Pekan Tolan, Kec. Kp. Rakyat, Kab. Labuhanbatu Selatan";"SUMATERA UTARA";"21451";"Indonesia";"";"";"";"2.0025313";"100.0435932";"https://maps.google.com/?cid=0x0:0x942a17cd0e9a50b0";""
"perumahan";"Dapur Umum";"KANIA WIFI";"Kebun Tlk. Panji, Kec. Kp. Rakyat, Kab. Labuhanbatu Selatan, Sumatera Utara 21463";"Kec. Kp. Rakyat, Kab. Labuhanbatu Selatan";"SUMATERA UTARA";"21463";"Indonesia";" 082282859165";"";"";"2.0012833";"100.2394792";"https://maps.google.com/?cid=0x0:0xeba5d837fb4f126f";""
"perumahan";"Komplek perumahan";"Fth";"272F+GQC, Tlk. Panji IV, Kec. Kp. Rakyat, Kab. Labuhanbatu Selatan, Sumatera Utara 21463";"Tlk. Panji IV, Kec. Kp. Rakyat, Kab. Labuhanbatu Selatan";"SUMATERA UTARA";"21463";"Indonesia";"";"";"";"2.0013065";"100.274388";"https://maps.google.com/?cid=0x0:0xc7460564823f5f20";""
"perumahan";"Perhimpunan Pengembang Perumahan";"Rumah Puput Novita";"23JF+9XF, Perkebunan Perlabian, Kec. Kp. Rakyat, Kab. Labuhanbatu Selatan, Sumatera Utara";"Kab. Labuhanbatu Selatan, Sumatera Utara";"SUMATERA UTARA";"";"Indonesia";"";"";"";"2.0309499";"100.0749246";"https://maps.google.com/?cid=0x0:0x767e2c4ebec77ba6";""
"perumahan";"perumahan";"Kec. Kota Pinang";"Kab. Labuhanbatu Selatan, Sumatera Utara";"Kab. Labuhanbatu Selatan, Sumatera Utara";"SUMATERA UTARA";"";"Indonesia";"";"";"";"1.8906527";"100.0900259";"https://maps.google.com/?cid=0x0:0xf9d36fe53f57ed24";""
"perumahan";"Pembangunan Perumahan";"Perumahan Ganda Asri";"V3MX+9H9, Kota Pinang, Kec. Kota Pinang, Kab. Labuhanbatu Selatan, Sumatera Utara 21464";"Kota Pinang, Kec. Kota Pinang, Kab. Labuhanbatu Selatan";"SUMATERA UTARA";"21464";"Indonesia";"";"";"";"1.8834218";"100.0989782";"https://maps.google.com/?cid=0x0:0x9d349527c808f3ad";""
"perumahan";"Pembangunan Perumahan";"Perumahan AA Residence Kotapinang";"V3WQ+49M, Kota Pinang, Kec. Kota Pinang, Kab. Labuhanbatu Selatan, Sumatera Utara 21464";"Kota Pinang, Kec. Kota Pinang, Kab. Labuhanbatu Selatan";"SUMATERA UTARA";"21464";"Indonesia";" 082260635102";"";"";"1.8953413";"100.0884104";"https://maps.google.com/?cid=0x0:0xeb98b69a8b256c7c";""
"perumahan";"Pembangunan Perumahan";"Perumahan komunitas";"V3M8+5WQ, Kota Pinang, Kec. Kota Pinang, Kab. Labuhanbatu Selatan, Sumatera Utara 21464";"Kota Pinang, Kec. Kota Pinang, Kab. Labuhanbatu Selatan";"SUMATERA UTARA";"21464";"Indonesia";"";"";"";"1.8829693";"100.0673507";"https://maps.google.com/?cid=0x0:0x6aa06e6b83d640a6";""
"perumahan";"Komplek perumahan";"Perumahan Tengku Indah Permai - Kotapinang";"V3WQ+4JH, Jl. Perjuangan, Kota Pinang, Kec. Kota Pinang, Kab. Labuhanbatu Selatan, Sumatera Utara 21464";"Jl. Perjuangan, Kota Pinang, Kec. Kota Pinang, Kab. Labuhanbatu Selatan";"SUMATERA UTARA";"21464";"Indonesia";"";"";"";"1.8953098";"100.0891104";"https://maps.google.com/?cid=0x0:0x429e528fe42aadfb";""
"perumahan";"Pembangunan Perumahan";"Perumahan Cemara Asri Labusel";"W35R+85, Kota Pinang, Kec. Kota Pinang, Kab. Labuhanbatu Selatan, Sumatera Utara 21464";"Kota Pinang, Kec. Kota Pinang, Kab. Labuhanbatu Selatan";"SUMATERA UTARA";"21464";"Indonesia";" 081363197774";"";"";"1.9082561";"100.0903875";"https://maps.google.com/?cid=0x0:0xd043255a12f87874";""
"perumahan";"Pembangunan Perumahan";"Perumahan Royal Cattleya";"Unnamed Road, Sosopan, Kec. Kota Pinang, Kab. Labuhanbatu Selatan, Sumatera Utara 21464";"Sosopan, Kec. Kota Pinang, Kab. Labuhanbatu Selatan";"SUMATERA UTARA";"21464";"Indonesia";" 081264592765";"";"";"1.8673679";"100.0379627";"https://maps.google.com/?cid=0x0:0x3024b754ded58d9d";""
"perumahan";"Panti Jompo";"Perumahan DL Sitorus simarkaluang";"V3MX+5JR, Jl. Simarkaluang, Kota Pinang, Kec. Kota Pinang, Kab. Labuhanbatu Selatan, Sumatera Utara 21464";"Jl. Simarkaluang, Kota Pinang, Kec. Kota Pinang, Kab. Labuhanbatu Selatan";"SUMATERA UTARA";"21464";"Indonesia";"";"";"";"1.882975";"100.0990004";"https://maps.google.com/?cid=0x0:0x3936a908164098dd";""
"perumahan";"Komplek perumahan";"Perumahan pks kmsa";"R26F+PQ8, Mampang, Kec. Kota Pinang, Kab. Labuhanbatu Selatan, Sumatera Utara 21464";"Mampang, Kec. Kota Pinang, Kab. Labuhanbatu Selatan";"SUMATERA UTARA";"21464";"Indonesia";"";"";"";"1.8118553";"100.0247815";"https://maps.google.com/?cid=0x0:0xdb35d7f32b5f69b8";""
"perumahan";"Rumah Sakit";"RSUD Kota Pinang";"V3VV+9HH, Jl. Prof, Jl. H. Yamin Jl. Kota Pinang - Gunung Tua, Kota Pinang, Kec. Kota Pinang, Kab. Labuhanbatu Selatan, Sumatera Utara 21464";"Jl. Prof, Jl. H. Yamin Jl. Kota Pinang - Gunung Tua, Kota Pinang, Kec. Kota Pinang, Kab. Labuhanbatu Selatan";"SUMATERA UTARA";"21464";"Indonesia";" 0624496766";"";"";"1.8934417";"100.093982";"https://maps.google.com/?cid=0x0:0xe24a51ec4ab3bba9";""
"perumahan";"Toko Perlengkapan Rumah";"Pulo Mas Sosopan";"V2CW+5WP, Sosopan, Kec. Kota Pinang, Kab. Labuhanbatu Selatan, Sumatera Utara 21464";"Sosopan, Kec. Kota Pinang, Kab. Labuhanbatu Selatan";"SUMATERA UTARA";"21464";"Indonesia";"";"";"";"1.8704629";"100.04733";"https://maps.google.com/?cid=0x0:0xce3d8b0857827cf7";""
"perumahan";"Komplek perumahan";"Perumahan Siagian Agro Residence";"R2F7+489, Jl. Kota Pinang - Gunung Tua, Mampang, Kec. Kota Pinang, Kab. Labuhanbatu Selatan, Sumatera Utara 21464";"Jl. Kota Pinang - Gunung Tua, Mampang, Kec. Kota Pinang, Kab. Labuhanbatu Selatan";"SUMATERA UTARA";"21464";"Indonesia";"";"";"";"1.8217598";"100.0131218";"https://maps.google.com/?cid=0x0:0xbf84e87ef9356358";""
"perumahan";"Komplek perumahan";"Perumahan Atuang";"V3RV+QPF, Kota Pinang, Kec. Kota Pinang, Kab. Labuhanbatu Selatan, Sumatera Utara 21464";"Kota Pinang, Kec. Kota Pinang, Kab. Labuhanbatu Selatan";"SUMATERA UTARA";"21464";"Indonesia";"";"";"";"1.8919278";"100.0942928";"https://maps.google.com/?cid=0x0:0x5fc8bfc11f44a3b7";""
"perumahan";"Perhimpunan Pengembang Perumahan";"Kampung kristen kotapinang";"V3VW+92P, Jalan kamboja Jl. Kp. Kristen, Kota Pinang, Kec. Kota Pinang, Kab. Labuhanbatu Selatan, Sumatera Utara 21464";"Jalan kamboja Jl. Kp. Kristen, Kota Pinang, Kec. Kota Pinang, Kab. Labuhanbatu Selatan";"SUMATERA UTARA";"21464";"Indonesia";" 082288973828";"";"";"1.8934706";"100.0950905";"https://maps.google.com/?cid=0x0:0x97154680c2aa1cd9";""
"perumahan";"Pembangunan Perumahan";"Perumahan DL Sitorus Tomutua";"V3MX+MMM, Jl. Simarkaluang, Kota Pinang, Kec. Kota Pinang, Kab. Labuhanbatu Selatan, Sumatera Utara 21464";"Jl. Simarkaluang, Kota Pinang, Kec. Kota Pinang, Kab. Labuhanbatu Selatan";"SUMATERA UTARA";"21464";"Indonesia";" 081361327965";"";"";"1.8842054";"100.0991622";"https://maps.google.com/?cid=0x0:0x819393362397b465";""
"perumahan";"Perhimpunan Pengembang Perumahan";"Perumahan Blok Songo Indah";"Sisumut, Kec. Kota Pinang, Kab. Labuhanbatu Selatan, Sumatera Utara 21464";"Kec. Kota Pinang, Kab. Labuhanbatu Selatan";"SUMATERA UTARA";"21464";"Indonesia";"";"";"";"1.9433457";"100.0962833";"https://maps.google.com/?cid=0x0:0xfb2a398a7b3948e9";""
"perumahan";"Perhimpunan Pengembang Perumahan";"karang sari";"V3RR+726, Kota Pinang, Kec. Kota Pinang, Kab. Labuhanbatu Selatan, Sumatera Utara";"Kab. Labuhanbatu Selatan, Sumatera Utara";"SUMATERA UTARA";"";"Indonesia";"";"";"";"1.8906527";"100.0900259";"https://maps.google.com/?cid=0x0:0x466e250ac5111512";""
"perumahan";"Komplek perumahan";"Ummi Afif's House";"Perumahan AA Jl. Kp. Banjar II No.4 Blok F, Kota Pinang, Kec. Kota Pinang, Kab. Labuhanbatu Selatan, Sumatera Utara 21464";"Kota Pinang, Kec. Kota Pinang, Kab. Labuhanbatu Selatan";"SUMATERA UTARA";"21464";"Indonesia";"";"";"";"1.8849142";"100.0837755";"https://maps.google.com/?cid=0x0:0xbabcfcc241c925a7";""
"perumahan";"Komplek perumahan";"SULTAN ARECA CITY";"V3QC+P2P, Kota Pinang, Kec. Kota Pinang, Kab. Labuhanbatu Selatan, Sumatera Utara";"Kab. Labuhanbatu Selatan, Sumatera Utara";"SUMATERA UTARA";"";"Indonesia";"";"";"";"1.8893428";"100.0700768";"https://maps.google.com/?cid=0x0:0x33c68e7d9bd8c628";""
"perumahan";"Perhimpunan Pengembang Perumahan";"Rumah pink samping tower";"V3RW+9CR, Jl. Kp. Raja, Kota Pinang, Kec. Kota Pinang, Kab. Labuhanbatu Selatan, Sumatera Utara 21464";"Jl. Kp. Raja, Kota Pinang, Kec. Kota Pinang, Kab. Labuhanbatu Selatan";"SUMATERA UTARA";"21464";"Indonesia";"";"";"";"1.8909958";"100.0960171";"https://maps.google.com/?cid=0x0:0x6509f31dfcc1cd46";""
"perumahan";"Komplek perumahan";"Rumah kiki";"W3VW+7CG, Jl. Lintas Sumatra, Sisumut, Kec. Kota Pinang, Kab. Labuhanbatu Selatan, Sumatera Utara 21464";"Jl. Lintas Sumatra, Sisumut, Kec. Kota Pinang, Kab. Labuhanbatu Selatan";"SUMATERA UTARA";"21464";"Indonesia";"";"";"";"1.9435561";"100.0957321";"https://maps.google.com/?cid=0x0:0x98f211f7f12e8040";""
"perumahan";"perumahan";"Sumatera Utara 21464";"Kab. Labuhanbatu Selatan, Sumatera Utara";"Kab. Labuhanbatu Selatan, Sumatera Utara";"SUMATERA UTARA";"";"Indonesia";"";"";"";"1.6877896";"100.2151578";"https://maps.google.com/?cid=0x0:0xcb75493cd4919ca3";""
"perumahan";"Agen Properti";"Kota pinang labuhan batu";"V5Q5+RJX, Asam Jawa, Kec. Torgamba, Kab. Labuhanbatu Selatan, Sumatera Utara";"Kab. Labuhanbatu Selatan, Sumatera Utara";"SUMATERA UTARA";"";"Indonesia";"";"";"";"1.8896193";"100.1591213";"https://maps.google.com/?cid=0x0:0xcd486ee690fd708d";""
"perumahan";"Perhimpunan Pengembang Perumahan";"Perumahan bg unggek";"X427+658, Jl. K. Sari, Sisumut, Kec. Kota Pinang, Kab. Labuhanbatu Selatan, Sumatera Utara 21464";"Jl. K. Sari, Sisumut, Kec. Kota Pinang, Kab. Labuhanbatu Selatan";"SUMATERA UTARA";"21464";"Indonesia";" 08125210858";"";"";"1.9505343";"100.1129427";"https://maps.google.com/?cid=0x0:0x2e820728edb0dd67";""
"perumahan";"Gedung Apartemen";"kotapinang labuhan batu selatan";"V3RR+5V4, Jl. Ps. Kotapinang I, Kota Pinang, Kec. Kota Pinang, Kab. Labuhanbatu Selatan, Sumatera Utara 21464";"Jl. Ps. Kotapinang I, Kota Pinang, Kec. Kota Pinang, Kab. Labuhanbatu Selatan";"SUMATERA UTARA";"21464";"Indonesia";"";"";"";"1.890394";"100.0921922";"https://maps.google.com/?cid=0x0:0x549637d61fa50de4";""
"perumahan";"Peternak kucing";"Jual Kelinci Kota Pinang";"Jl. Kp. Jawa No.100, Kota Pinang, Kec. Kota Pinang, Kab. Labuhanbatu Selatan, Sumatera Utara 21464";"Kota Pinang, Kec. Kota Pinang, Kab. Labuhanbatu Selatan";"SUMATERA UTARA";"21464";"Indonesia";" 082272778800";"";"";"1.8938876";"100.0910308";"https://maps.google.com/?cid=0x0:0x6246b99e8b0a8b53";""
"perumahan";"Pembangunan Perumahan";"Kotapinang";"X32X+2MV, Blog songo, Sisumut, Kec. Kota Pinang, Kab. Labuhanbatu Selatan, Sumatera Utara";"Kab. Labuhanbatu Selatan, Sumatera Utara";"SUMATERA UTARA";"";"Indonesia";"";"";"";"1.9501167";"100.0991724";"https://maps.google.com/?cid=0x0:0x2e74cb4521e04138";""
"perumahan";"Gedung Pertemuan";"Lapangan SBBK";"V3VP+74C, Kota Pinang, Kec. Kota Pinang, Kab. Labuhanbatu Selatan, Sumatera Utara 21464";"Kota Pinang, Kec. Kota Pinang, Kab. Labuhanbatu Selatan";"SUMATERA UTARA";"21464";"Indonesia";"";"";"";"1.8931779";"100.0852777";"https://maps.google.com/?cid=0x0:0xe49788b13ee2be67";""
"perumahan";"Pembangunan Perumahan";"Dusun tugusari desa sisimut kecamatan Kotapinang kabupaten Labuhanbatu selatan";"V3RR+726, Dusun tugusari, desa sisimut, Kec. Kota Pinang, Kab. Labuhanbatu Selatan, Sumatera Utara";"Kab. Labuhanbatu Selatan, Sumatera Utara";"SUMATERA UTARA";"";"Indonesia";"";"";"";"1.8906527";"100.0900259";"https://maps.google.com/?cid=0x0:0x3cbd9cecc7f3d773";""
"perumahan";"perumahan";"Sumatera Utara 21461";"Kec. Silangkitang, Kab. Labuhanbatu Selatan, Sumatera Utara";"Kab. Labuhanbatu Selatan, Sumatera Utara";"SUMATERA UTARA";"";"Indonesia";"";"";"";"1.8427607";"99.9465077";"https://maps.google.com/?cid=0x0:0x235a9827314238c5";""
"perumahan";"Perhimpunan Pengembang Perumahan";"Perumahan Binanga Residence";"VW67+RWR, Ulu Mahuam, Kec. Silangkitang, Kab. Labuhanbatu Selatan, Sumatera Utara 21461";"Ulu Mahuam, Kec. Silangkitang, Kab. Labuhanbatu Selatan";"SUMATERA UTARA";"21461";"Indonesia";" 081361512188";"";"";"1.8621223";"99.9147551";"https://maps.google.com/?cid=0x0:0x9e85c0aed406a8ea";""
"perumahan";"Komplek perumahan";"Perumahan Griya Talitha Asri Padang Bulan";"VV3V+PW6, Jalan Kampung Dalam, Aek Goti, Silangkitang, South Labuhan Batu Regency, North Sumatra 21461";"Jalan Kampung Dalam, Aek Goti, Silangkitang, South Labuhan Batu Regency";"SUMATERA UTARA";"21461";"Indonesia";"";"";"";"1.8542886";"99.8947549";"https://maps.google.com/?cid=0x0:0x2154fd1bbc411fc9";""
"perumahan";"Rumah Kayu";"Rumah kita";"VW3W+PG, Ulu Mahuam, Kec. Silangkitang, Kab. Labuhanbatu Selatan, Sumatera Utara";"Kab. Labuhanbatu Selatan, Sumatera Utara";"SUMATERA UTARA";"";"Indonesia";"";"";"";"1.8542762";"99.9462852";"https://maps.google.com/?cid=0x0:0xc803c34e60f9d2af";""
"perumahan";"Komplek perumahan";"Perumahan Simaninggir Permai";"V3R8+FFF, Perkebunan Nagodang, Kec. Kota Pinang, Kab. Labuhanbatu Selatan, Sumatera Utara 21464";"Perkebunan Nagodang, Kec. Kota Pinang, Kab. Labuhanbatu Selatan";"SUMATERA UTARA";"21464";"Indonesia";"";"";"";"1.8911795";"100.0661799";"https://maps.google.com/?cid=0x0:0xa210e0178b2adcf9";""
"perumahan";"Kantor Perusahaan";"Kampung";"RWF2+FP3, Binanga Dua, Kec. Silangkitang, Kab. Labuhanbatu Selatan, Sumatera Utara 21461";"Binanga Dua, Kec. Silangkitang, Kab. Labuhanbatu Selatan";"SUMATERA UTARA";"21461";"Indonesia";"";"";"";"1.8236375";"99.9017969";"https://maps.google.com/?cid=0x0:0xa8ace6a326a101c4";""
"perumahan";"Perhimpunan Pengembang Perumahan";"Kampung tengah perjuangan";"WXPF+3WM, Sukadame, Kec. Silangkitang, Kab. Labuhanbatu Selatan, Sumatera Utara 21461";"Sukadame, Kec. Silangkitang, Kab. Labuhanbatu Selatan";"SUMATERA UTARA";"21461";"Indonesia";"";"";"";"1.9352172";"99.974783";"https://maps.google.com/?cid=0x0:0xcd3dc6ca472030dc";""
"perumahan";"Komplek perumahan";"Rumah YOGI NIRWANTO";"VW43+4MF, Ulu Mahuam, Kec. Silangkitang, Kab. Labuhanbatu Selatan, Sumatera Utara";"Kab. Labuhanbatu Selatan, Sumatera Utara";"SUMATERA UTARA";"";"Indonesia";"";"";"";"1.8553174";"99.904158";"https://maps.google.com/?cid=0x0:0x7e14cd4376875ca4";""
"perumahan";"perumahan";"Silang kitang sebrang";"WW7J+27F, Ulu Mahuam, Kec. Silangkitang, Kab. Labuhanbatu Selatan, Sumatera Utara";"Kab. Labuhanbatu Selatan, Sumatera Utara";"SUMATERA UTARA";"";"Indonesia";"";"";"";"1.91256";"99.9306746";"https://maps.google.com/?cid=0x0:0xbbadb9a2cc8ddd84";""
"perumahan";"Komplek perumahan";"Rumah mas Robinson";"WWCW+G8, Rintis, Kec. Silangkitang, Kab. Labuhanbatu Selatan, Sumatera Utara";"Kab. Labuhanbatu Selatan, Sumatera Utara";"SUMATERA UTARA";"";"Indonesia";"";"";"";"1.9210545";"99.9467958";"https://maps.google.com/?cid=0x0:0x82a4fad899d3c0c3";""
"perumahan";"Perhimpunan Pengembang Perumahan";"Perumahan afd 1 HTI JF.";"Q2G8+R3, Sabungan, Kec. Sungai Kanan, Kab. Labuhanbatu Selatan, Sumatera Utara 21464";"Sabungan, Kec. Sungai Kanan, Kab. Labuhanbatu Selatan";"SUMATERA UTARA";"21464";"Indonesia";"";"";"";"1.777048";"100.0152557";"https://maps.google.com/?cid=0x0:0x5f4c1274c3aa136e";""
"perumahan";"Sarapan";"Jual Paving Blok 3D dan warung sarapan pagi";"Padangbulan B, Jl. Kp. Dalam - Silangkitang, Kec. Silangkitang, Kab. Labuhanbatu Selatan, Sumatera Utara 21461";"Jl. Kp. Dalam - Silangkitang, Kec. Silangkitang, Kab. Labuhanbatu Selatan";"SUMATERA UTARA";"21461";"Indonesia";" 081282062106";"";"";"1.8659808";"99.8942463";"https://maps.google.com/?cid=0x0:0x59c98b4f72272cb2";""
"perumahan";"Komplek perumahan";"Pulung rejo";"VXRC+XMJ, Pulung rejo,desa mandalasena, Ulu Mahuam, Kec. Silangkitang, Kab. Labuhanbatu Selatan, Sumatera Utara 21461";"Pulung rejo,desa mandalasena, Ulu Mahuam, Kec. Silangkitang, Kab. Labuhanbatu Selatan";"SUMATERA UTARA";"21461";"Indonesia";"";"";"";"1.892297";"99.9722459";"https://maps.google.com/?cid=0x0:0x65d8c1ef244c9041";""
"perumahan";"Komplek perumahan";"Rumah Yusri Andani";"VW43+6CH, Ulu Mahuam, Kec. Silangkitang, Kab. Labuhanbatu Selatan, Sumatera Utara 21461";"Ulu Mahuam, Kec. Silangkitang, Kab. Labuhanbatu Selatan";"SUMATERA UTARA";"21461";"Indonesia";"";"";"";"1.855679";"99.903956";"https://maps.google.com/?cid=0x0:0xab727b96bbc0cc04";""
"perumahan";"Pembangunan Perumahan";"Panji_clasik";"XW6C+893, Jl. Dusun Suhud, Rintis, Kec. Silangkitang, Kab. Labuhanbatu Selatan, Sumatera Utara 21451";"Jl. Dusun Suhud, Rintis, Kec. Silangkitang, Kab. Labuhanbatu Selatan";"SUMATERA UTARA";"21451";"Indonesia";"";"";"";"1.960773";"99.9209138";"https://maps.google.com/?cid=0x0:0x14d6312dcafdb643";""
"perumahan";"Kantor Hubungan Masyarakat";"Cabang 2";"WXV7+PVC, Rintis, Kec. Silangkitang, Kab. Labuhanbatu Selatan, Sumatera Utara 21461";"Rintis, Kec. Silangkitang, Kab. Labuhanbatu Selatan";"SUMATERA UTARA";"21461";"Indonesia";"";"";"";"1.9443199";"99.9646417";"https://maps.google.com/?cid=0x0:0x28662dba4352ee90";""
"perumahan";"Komplek perumahan";"Rumah Aril";"VWRJ+4JJ, Jl. Besar Rintis, Ulu Mahuam, Kec. Silangkitang, Kab. Labuhanbatu Selatan, Sumatera Utara 21461";"Jl. Besar Rintis, Ulu Mahuam, Kec. Silangkitang, Kab. Labuhanbatu Selatan";"SUMATERA UTARA";"21461";"Indonesia";"";"";"";"1.8906691";"99.9318723";"https://maps.google.com/?cid=0x0:0xe88dc3468ee2041d";""
"perumahan";"Komplek perumahan";"Rumah Tyas";"VWVM+H3G, Ulu Mahuam, Kec. Silangkitang, Kab. Labuhanbatu Selatan, Sumatera Utara 21461";"Ulu Mahuam, Kec. Silangkitang, Kab. Labuhanbatu Selatan";"SUMATERA UTARA";"21461";"Indonesia";"";"";"";"1.8948859";"99.9335949";"https://maps.google.com/?cid=0x0:0xd2f49a3af9d3c6bd";""
"perumahan";"Komplek perumahan";"Reza Tri Lestari";"VXRF+X2H Mandala Sena, Ulu Mahuam, Kec. Silangkitang, Kab. Labuhanbatu Selatan, Sumatera Utara 21461";"Ulu Mahuam, Kec. Silangkitang, Kab. Labuhanbatu Selatan";"SUMATERA UTARA";"21461";"Indonesia";"";"";"";"1.892446";"99.9725998";"https://maps.google.com/?cid=0x0:0x4dbc81b7683132b8";""
"perumahan";"Komplek perumahan";"Rumah Agung";"RXV2+2V8, Ulu Mahuam, Kec. Silangkitang, Kab. Labuhanbatu Selatan, Sumatera Utara 21461";"Ulu Mahuam, Kec. Silangkitang, Kab. Labuhanbatu Selatan";"SUMATERA UTARA";"21461";"Indonesia";"";"";"";"1.8424738";"99.95366";"https://maps.google.com/?cid=0x0:0x145c94ffcf057a43";""
"perumahan";"Pembangunan Perumahan";"BENGKEL LAS SANDI JAYA";"VWXJ+8H7, Ulu Mahuam, Kec. Silangkitang, Kab. Labuhanbatu Selatan, Sumatera Utara 21461";"Ulu Mahuam, Kec. Silangkitang, Kab. Labuhanbatu Selatan";"SUMATERA UTARA";"21461";"Indonesia";"";"";"";"1.8982967";"99.9314233";"https://maps.google.com/?cid=0x0:0xbb6c1d7fa413f03";""
"perumahan";"Komplek perumahan";"Wonodadi";"VXXG+V6J, Ulu Mahuam, Kec. Silangkitang, Kab. Labuhanbatu Selatan, Sumatera Utara 21461";"Ulu Mahuam, Kec. Silangkitang, Kab. Labuhanbatu Selatan";"SUMATERA UTARA";"21461";"Indonesia";"";"";"";"1.8989134";"99.975761";"https://maps.google.com/?cid=0x0:0x3bcaea729d9fd429";""
"perumahan";"perumahan";"Sumatera Utara 21464";"Kab. Labuhanbatu Selatan, Sumatera Utara";"Kab. Labuhanbatu Selatan, Sumatera Utara";"SUMATERA UTARA";"";"Indonesia";"";"";"";"1.6877896";"100.2151578";"https://maps.google.com/?cid=0x0:0xcb75493cd4919ca3";""
"perumahan";"Komplek perumahan";"PERUMAHAN TORGAMBA INDAH RESIDENCE";"Jl. Torganda, Aek Batu, Kec. Torgamba, Kab. Labuhanbatu Selatan, Sumatera Utara 21464";"Aek Batu, Kec. Torgamba, Kab. Labuhanbatu Selatan";"SUMATERA UTARA";"21464";"Indonesia";" 082164233807";"";"";"1.7824892";"100.2005044";"https://maps.google.com/?cid=0x0:0xf9f1f1e0cef57e9a";""
"perumahan";"perumahan";"Perumahan Torgamba Indah";"Q5MV+F3X, Aek Batu, Kec. Torgamba, Kab. Labuhanbatu Selatan, Sumatera Utara 21464";"Aek Batu, Kec. Torgamba, Kab. Labuhanbatu Selatan";"SUMATERA UTARA";"21464";"Indonesia";"";"";"";"1.7837489";"100.1927389";"https://maps.google.com/?cid=0x0:0xbc5acf0570d35cd1";""
"perumahan";"Perhimpunan Pengembang Perumahan";"Pinang awan, simpang halaman";"R58Q+MM5, Aek Batu, Kec. Torgamba, Kab. Labuhanbatu Selatan, Sumatera Utara 21464";"Aek Batu, Kec. Torgamba, Kab. Labuhanbatu Selatan";"SUMATERA UTARA";"21464";"Indonesia";"";"";"";"1.8166387";"100.1892373";"https://maps.google.com/?cid=0x0:0x13e75b83b9af152a";""
"perumahan";"Komplek perumahan";"Rumah B.Siregar";"Rumah B.Siregar, Jl. Pendidikan Budaya Cikampak No.4 Blok H, Aek Batu, Kec. Torgamba, Kab. Labuhanbatu Selatan, Sumatera Utara 21464";"Jl. Pendidikan Budaya Cikampak No.4 Blok H, Aek Batu, Kec. Torgamba, Kab. Labuhanbatu Selatan";"SUMATERA UTARA";"21464";"Indonesia";"";"";"";"1.7856055";"100.2009359";"https://maps.google.com/?cid=0x0:0x93598ff15f69e3c6";""
"perumahan";"Komplek perumahan";"Perumahan staff Torgamba";"P75G+QF, Torgamba, Kec. Torgamba, Kab. Labuhanbatu Selatan, Sumatera Utara";"Kab. Labuhanbatu Selatan, Sumatera Utara";"SUMATERA UTARA";"";"Indonesia";"";"";"";"1.7093887";"100.2761519";"https://maps.google.com/?cid=0x0:0x395e22dc7b58f77d";""
"perumahan";"Komplek perumahan";"AFD VI TORGAMBA";"M8W3+WP, Torgamba, Kec. Torgamba, Kab. Labuhanbatu Selatan, Sumatera Utara";"Kab. Labuhanbatu Selatan, Sumatera Utara";"SUMATERA UTARA";"";"Indonesia";"";"";"";"1.6973131";"100.3042452";"https://maps.google.com/?cid=0x0:0x9ccc4e5fc06ed9c1";""
"perumahan";"Komplek perumahan";"Rumah Putri Purba";"V533+XP7, Asam Jawa, Kec. Torgamba, Kab. Labuhanbatu Selatan, Sumatera Utara 21464";"Asam Jawa, Kec. Torgamba, Kab. Labuhanbatu Selatan";"SUMATERA UTARA";"21464";"Indonesia";"";"";"";"1.8554541";"100.1544782";"https://maps.google.com/?cid=0x0:0xfb2583727aac796b";""
"perumahan";"Pembangunan Perumahan";"MARGONO";"Q6J7+46G, Jl. Lintas Sumatra, Aek Batu, Kec. Torgamba, Kab. Labuhanbatu Selatan, Sumatera Utara 21464";"Jl. Lintas Sumatra, Aek Batu, Kec. Torgamba, Kab. Labuhanbatu Selatan";"SUMATERA UTARA";"21464";"Indonesia";" 085270566409";"";"";"1.780314";"100.213075";"https://maps.google.com/?cid=0x0:0xc0e39450c6351e91";""
"perumahan";"Komplek perumahan";"Rumah Manguncong Bahasa Indonesia";"Q6M2+6M, Aek Batu, Kec. Torgamba, Kab. Labuhanbatu Selatan, Sumatera Utara 21464";"Aek Batu, Kec. Torgamba, Kab. Labuhanbatu Selatan";"SUMATERA UTARA";"21464";"Indonesia";"";"";"";"1.7830693";"100.2016553";"https://maps.google.com/?cid=0x0:0x8b5b0bcaa4c643ed";""
"perumahan";"Komplek perumahan";"Perumahan Pulo Intan Cikampak";"Q6J5+VRV, Jl. Lintas Sumatra, Aek Batu, Kec. Torgamba, Kab. Labuhanbatu Selatan, Sumatera Utara 21464";"Jl. Lintas Sumatra, Aek Batu, Kec. Torgamba, Kab. Labuhanbatu Selatan";"SUMATERA UTARA";"21464";"Indonesia";"";"";"";"1.78224";"100.209535";"https://maps.google.com/?cid=0x0:0x9d29e4d4eff4786";""
"perumahan";"Komplek perumahan";"Afdeling 2 torgamba";"P8P5+MF, Beringin Jaya, Kec. Torgamba, Kab. Labuhanbatu Selatan, Sumatera Utara";"Kab. Labuhanbatu Selatan, Sumatera Utara";"SUMATERA UTARA";"";"Indonesia";"";"";"";"1.7366447";"100.3088167";"https://maps.google.com/?cid=0x0:0x538106e29bab5fd3";""
"perumahan";"Komplek perumahan";"Oemar Farm";"M7QJ+P3J, Jl. Kebun Torgamba, Torgamba, Kec. Torgamba, Kab. Labuhanbatu Selatan, Sumatera Utara 21464";"Jl. Kebun Torgamba, Torgamba, Kec. Torgamba, Kab. Labuhanbatu Selatan";"SUMATERA UTARA";"21464";"Indonesia";"";"";"";"1.6893275";"100.2801308";"https://maps.google.com/?cid=0x0:0xab43ff74a5998522";""
"perumahan";"Komplek perumahan";"Perumahan";"Q6P2+Q2P, Aek Batu, Kec. Torgamba, Kab. Labuhanbatu Selatan, Sumatera Utara 21464";"Aek Batu, Kec. Torgamba, Kab. Labuhanbatu Selatan";"SUMATERA UTARA";"21464";"Indonesia";"";"";"";"1.7869737";"100.2000644";"https://maps.google.com/?cid=0x0:0x608f0890e2b00180";""
"perumahan";"Pembangunan Perumahan";"PERUMNAS PINANG AWAN RESIDENCE";"Asian Highway No.25, Aek Batu, Torgamba, South Labuhan Batu Regency, North Sumatra 21464";"Aek Batu, Torgamba, South Labuhan Batu Regency";"SUMATERA UTARA";"21464";"Indonesia";" 081260448906";"";"";"1.8398273";"100.1783006";"https://maps.google.com/?cid=0x0:0x9624934a54abe125";""
"perumahan";"Pembangunan Perumahan";"Perumahan AA Residance";"perumahan AA Residance, 02Cikampak pekan Block P .No, Aek Batu, Kec. Torgamba, Kab. Labuhanbatu Selatan, Sumatera Utara 21464";"02Cikampak pekan Block P .No, Aek Batu, Kec. Torgamba, Kab. Labuhanbatu Selatan";"SUMATERA UTARA";"21464";"Indonesia";"";"";"";"1.7897996";"100.203737";"https://maps.google.com/?cid=0x0:0x6514477083b8e0c8";""
"perumahan";"Komplek perumahan";"Rumah Abdillah";"M89F+QGW, Torgamba, Kec. Torgamba, Kab. Labuhanbatu Selatan, Sumatera Utara 21464";"Torgamba, Kec. Torgamba, Kab. Labuhanbatu Selatan";"SUMATERA UTARA";"21464";"Indonesia";"";"";"";"1.6693977";"100.3237403";"https://maps.google.com/?cid=0x0:0x4d81539a8dfc8964";""
"perumahan";"Perhimpunan Pengembang Perumahan";"Simpang roda";"Q68J+J8R, Aek Batu, Kec. Torgamba, Kab. Labuhanbatu Selatan, Sumatera Utara 21464";"Aek Batu, Kec. Torgamba, Kab. Labuhanbatu Selatan";"SUMATERA UTARA";"21464";"Indonesia";"";"";"";"1.7664412";"100.2307819";"https://maps.google.com/?cid=0x0:0xb1d5022be5b639bc";""
"perumahan";"Perhimpunan Pengembang Perumahan";"Rumah Muhyidin";"V5GQ+Q9F, Asam Jawa, Kec. Torgamba, Kab. Labuhanbatu Selatan, Sumatera Utara 21464";"Asam Jawa, Kec. Torgamba, Kab. Labuhanbatu Selatan";"SUMATERA UTARA";"21464";"Indonesia";" 081227241913";"";"";"1.87695";"100.1884363";"https://maps.google.com/?cid=0x0:0x218007e3fc51816d";""
"perumahan";"Perhimpunan Pengembang Perumahan";"Tiara ahmad";"Q6G2+2V6, Aek Batu, Kec. Torgamba, Kab. Labuhanbatu Selatan, Sumatera Utara 21464";"Aek Batu, Kec. Torgamba, Kab. Labuhanbatu Selatan";"SUMATERA UTARA";"21464";"Indonesia";" 081361032177";"";"";"1.7760765";"100.2027757";"https://maps.google.com/?cid=0x0:0x6e329dd7cad417da";""
"perumahan";"Perumahan";"Simpang inpres Aek batu desa asam jawa";"V45W+7WC, Aek Batu, Kec. Torgamba, Kab. Labuhanbatu Selatan, Sumatera Utara 21464";"Aek Batu, Kec. Torgamba, Kab. Labuhanbatu Selatan";"SUMATERA UTARA";"21464";"Indonesia";"";"";"";"1.8581949";"100.1471819";"https://maps.google.com/?cid=0x0:0x6f7857bf16a46c62";""
"perumahan";"perumahan";"Gudang ac";"Q5MV+F3X, Aek Batu, Kec. Torgamba, Kab. Labuhanbatu Selatan, Sumatera Utara 21464";"Aek Batu, Kec. Torgamba, Kab. Labuhanbatu Selatan";"SUMATERA UTARA";"21464";"Indonesia";"";"";"";"1.7837489";"100.1927389";"https://maps.google.com/?cid=0x0:0x5faae83c9006bb45";""
"perumahan";"Otoritas Perumahan";"Afd V sei kebara";"P6CV+QJV, Aek Raso, Kec. Torgamba, Kab. Labuhanbatu Selatan, Sumatera Utara 21464";"Aek Raso, Kec. Torgamba, Kab. Labuhanbatu Selatan";"SUMATERA UTARA";"21464";"Indonesia";"";"";"";"1.7219998";"100.2440392";"https://maps.google.com/?cid=0x0:0xa86ec9f6062d41de";""
"perumahan";"Rumah Sakit";"Rumah Sakit Kebun Torgamba";"Q66X+9XF, Beringin Jaya, Kec. Torgamba, Kab. Labuhanbatu Selatan, Sumatera Utara 21464";"Beringin Jaya, Kec. Torgamba, Kab. Labuhanbatu Selatan";"SUMATERA UTARA";"21464";"Indonesia";" 082272325936";"";"";"1.7609289";"100.2499152";"https://maps.google.com/?cid=0x0:0xb5c9a0b71b7f1a91";""
"perumahan";"Otoritas Perumahan";"PRUMNAS RESIDEN AA 2";"Q6P6+QF, Aek Batu, Kec. Torgamba, Kab. Labuhanbatu Selatan, Sumatera Utara 21464";"Aek Batu, Kec. Torgamba, Kab. Labuhanbatu Selatan";"SUMATERA UTARA";"21464";"Indonesia";"";"";"";"1.7869084";"100.2111381";"https://maps.google.com/?cid=0x0:0xfcb003b3eae3386d";""
"perumahan";"Kantor Perusahaan";"KOMPLEK SIAGIAN AGRO PERMAI VII";"Q6M8+R3F, Jl. Cinta Damai, Aek Batu, Kec. Torgamba, Kab. Labuhanbatu Selatan, Sumatera Utara 21464";"Jl. Cinta Damai, Aek Batu, Kec. Torgamba, Kab. Labuhanbatu Selatan";"SUMATERA UTARA";"21464";"Indonesia";"";"";"";"1.783411";"100.215539";"https://maps.google.com/?cid=0x0:0x79d9cffde9362310";""
"perumahan";"Pembangunan Perumahan";"Kampung Seberang";"P3V8+FCM, Unnamed Road, Bangai, Kec. Torgamba, Kab. Labuhanbatu Selatan, Sumatera Utara 21464";"Unnamed Road, Bangai, Kec. Torgamba, Kab. Labuhanbatu Selatan";"SUMATERA UTARA";"21464";"Indonesia";"";"";"";"1.7437181";"100.0660345";"https://maps.google.com/?cid=0x0:0x933616b0c11f1901";""
"perumahan";"Perhimpunan Pengembang Perumahan";"Maria";"Jl. Dusun Mulya, Aek Batu, Kec. Torgamba, Kab. Labuhanbatu Selatan, Sumatera Utara 21464";"Aek Batu, Kec. Torgamba, Kab. Labuhanbatu Selatan";"SUMATERA UTARA";"21464";"Indonesia";"";"";"";"1.7975324";"100.1986719";"https://maps.google.com/?cid=0x0:0x8d4bfc1b55a438ce";""
