Category,Real Category,Business Name,Address,City,State,Postal Code,Country,Phone,Email,Website,Latitude,Longitude,Map Link,Details Link
perumahan,perumahan,Nusa Tenggara Tim.,,Nusa Tenggara Tim.,NUSA TENGGARA TIMUR,,Indonesia,,,,-8.6573819,121.0793705,https://maps.google.com/?cid=0x0:0x1030bfbcaf71ae0,
perumahan,Pembangunan Perumahan,Perumahan Puri Mas Atambua,"VV6H+HP2, Tukuneno, Kec. Tasifeto Bar., Kabupaten Belu, Nusa Tenggara Tim.","Kabupaten Belu, Nusa Tenggara Tim.",NUSA TENGGARA TIMUR,,Indonesia,,,,-9.1385603,124.8793865,https://maps.google.com/?cid=0x0:0x237a1d233855bba1,
perumahan,Komplek perumahan,Perumahan Belu Sejahtera,"Jl. Lilin II No.5, Tulamalae, Kec. Atambua Bar., Kabupaten Belu, Nusa Tenggara Tim.","Kabupaten Belu, Nusa Tenggara Tim.",NUSA TENGGARA TIMUR,,Indonesia,,,,-9.0945499,124.8925285,https://maps.google.com/?cid=0x0:0x807f61abe32ce65b,
perumahan,Komplek perumahan,Perumahan Belu Regency,"VWMM+6GC, Manleten, Kec. Tasifeto Tim., Kabupaten Belu, Nusa Tenggara Tim.","Kabupaten Belu, Nusa Tenggara Tim.",NUSA TENGGARA TIMUR,,Indonesia,,,,-9.1169396,124.9337549,https://maps.google.com/?cid=0x0:0x47b1164980cb0e39,
perumahan,Pembangunan Perumahan,Wekatimun,"WV3G+8WJ, RT.,27/RW.09 wekatimun, Umanen, Kec. Kota Atambua, Kabupaten Belu, Nusa Tenggara Tim.","Kabupaten Belu, Nusa Tenggara Tim.",NUSA TENGGARA TIMUR,,Indonesia,,,,-9.0966601,124.8772644,https://maps.google.com/?cid=0x0:0x4c9a665e093ebdc0,
perumahan,Toko bahan makanan,Bintang Alami Atambua,"Perumahan bukit emas wekatimun, blok B11, Umanen, Kec. Kota Atambua, Kabupaten Belu, Nusa Tenggara Tim. 85713","blok B11, Umanen, Kec. Kota Atambua, Kabupaten Belu",NUSA TENGGARA TIMUR,85713.0,Indonesia,82141720778.0,,,-9.08765,124.867935,https://maps.google.com/?cid=0x0:0x9f9966a732ff1c10,
perumahan,Komplek perumahan,HALIWEN RESIDENCE,"WWJ5+7MJ, Kabuna, Kec. Kakuluk Mesak, Kabupaten Belu, Nusa Tenggara Tim.","Kabupaten Belu, Nusa Tenggara Tim.",NUSA TENGGARA TIMUR,,Indonesia,,,,-9.0692765,124.9091491,https://maps.google.com/?cid=0x0:0x534897f364591d26,
perumahan,perumahan,Kec. Atambua Bar.,"Kabupaten Belu, Nusa Tenggara Tim.","Kabupaten Belu, Nusa Tenggara Tim.",NUSA TENGGARA TIMUR,,Indonesia,,,,-9.098558,124.8848404,https://maps.google.com/?cid=0x0:0xea2a70c27b8effee,
perumahan,Pembangunan Perumahan,Rumah,"WV4P+8HV, Jl. Lourdes, Tulamalae, Kec. Atambua Bar., Kabupaten Belu, Nusa Tenggara Tim.","Kabupaten Belu, Nusa Tenggara Tim.",NUSA TENGGARA TIMUR,,Indonesia,,,,-9.0941318,124.8864124,https://maps.google.com/?cid=0x0:0x6760503d9959d3da,
perumahan,Pembangunan Perumahan,Perumahan Grand Bukit Lolowa,"RT 24/RW 01 jalan St petrus, Kec, fatukbot, Kec. Atambua Sel., Kabupaten Belu, Nusa Tenggara Tim.","Kabupaten Belu, Nusa Tenggara Tim.",NUSA TENGGARA TIMUR,,Indonesia,81239727789.0,,,-9.0969043,124.8940667,https://maps.google.com/?cid=0x0:0x57e3d2b786f9e1fd,
perumahan,Komplek perumahan,Rumah Manto Eka,"VVXH+6F2, Umanen, Kec. Atambua Bar., Kabupaten Belu, Nusa Tenggara Tim.","Kabupaten Belu, Nusa Tenggara Tim.",NUSA TENGGARA TIMUR,,Indonesia,,,,-9.1019839,124.8786376,https://maps.google.com/?cid=0x0:0x4d30c53d820b9026,
perumahan,Komplek perumahan,Rumah Refry Mau Loe,"VVVW+386, Atambua, Kec. Kota Atambua, Kabupaten Belu, Nusa Tenggara Tim.","Kabupaten Belu, Nusa Tenggara Tim.",NUSA TENGGARA TIMUR,,Indonesia,,,,-9.1073409,124.8957502,https://maps.google.com/?cid=0x0:0x986cfedf705faa2e,
perumahan,Pembangunan Perumahan,Perumahan BTN pos pom,"WV2H+92F, Jl. Surisoro, Umanen, Kec. Atambua Bar., Kabupaten Belu, Nusa Tenggara Tim.","Kabupaten Belu, Nusa Tenggara Tim.",NUSA TENGGARA TIMUR,,Indonesia,,,,-9.0990487,124.8774642,https://maps.google.com/?cid=0x0:0xe49f4e12a6f329a2,
perumahan,Komplek perumahan,rumah feriulu,"WV2P+C4X, Tulamalae, Kec. Atambua Bar., Kabupaten Belu, Nusa Tenggara Tim.","Kabupaten Belu, Nusa Tenggara Tim.",NUSA TENGGARA TIMUR,,Indonesia,,,,-9.0988764,124.8853646,https://maps.google.com/?cid=0x0:0x811d30c68e62b2c,
perumahan,Komplek perumahan,ATAMBUA LINGKUNGAN TORO,"WV3M+PV9, Jl. Ave Maria, Tulamalae, Kec. Atambua Bar., Kabupaten Belu, Nusa Tenggara Tim.","Kabupaten Belu, Nusa Tenggara Tim.",NUSA TENGGARA TIMUR,,Indonesia,,,,-9.0957053,124.8847344,https://maps.google.com/?cid=0x0:0x97512997a6178490,
perumahan,Komplek perumahan,House of destiny atambua,"Jl. Sultan Hamengkubuwono No.IX, Umanen, Kec. Atambua Bar., Kabupaten Belu, Nusa Tenggara Tim.","Kabupaten Belu, Nusa Tenggara Tim.",NUSA TENGGARA TIMUR,,Indonesia,,,,-9.1020235,124.8742822,https://maps.google.com/?cid=0x0:0x1fc3327d2e8e6d46,
perumahan,Komplek perumahan,Nekafehan (WANTED) atambua NTT,"Manumutin, Kec. Kota Atambua, Kabupaten Belu, Nusa Tenggara Tim.","Kabupaten Belu, Nusa Tenggara Tim.",NUSA TENGGARA TIMUR,,Indonesia,,,,-9.0902094,124.8903747,https://maps.google.com/?cid=0x0:0xbded4017cf7b58ef,
perumahan,Komplek perumahan,Kediaman Aje Luan,"VVVQ+F2R, Jl. Loro Wailuku, Beirafu, Kec. Atambua Bar., Kabupaten Belu, Nusa Tenggara Tim.","Kabupaten Belu, Nusa Tenggara Tim.",NUSA TENGGARA TIMUR,,Indonesia,,,,-9.1061725,124.8875049,https://maps.google.com/?cid=0x0:0x569e6165fdb2d2b8,
perumahan,Komplek perumahan,Rumah Dinas Kantor Pajak Lama,"Jl. Letjend Suprapto No.10, Atambua, Kec. Kota Atambua, Kabupaten Belu, Nusa Tenggara Tim.","Kabupaten Belu, Nusa Tenggara Tim.",NUSA TENGGARA TIMUR,,Indonesia,,,,-9.1082235,124.8944463,https://maps.google.com/?cid=0x0:0x3c5c0f81b9f40932,
perumahan,Gedung Apartemen,Marsel Fahik,"WV2H+G5P, Berdao, Kec. Atambua Bar., Kabupaten Belu, Nusa Tenggara Tim.","Kabupaten Belu, Nusa Tenggara Tim.",NUSA TENGGARA TIMUR,,Indonesia,,,,-9.098673,124.8779678,https://maps.google.com/?cid=0x0:0xc809c73e58c079cc,
perumahan,Tempat Religius,GUA Toro atambua,"WV4M+JX5, Jl. Lourdes, Tulamalae, Kec. Atambua Bar., Kabupaten Belu, Nusa Tenggara Tim.","Kabupaten Belu, Nusa Tenggara Tim.",NUSA TENGGARA TIMUR,,Indonesia,,,,-9.0934813,124.8849727,https://maps.google.com/?cid=0x0:0x12ea4e58d8c1889,
perumahan,Komplek perumahan,RUMAH PAK YORDAN,"WV2W+52F, Jl. Marsda Adi Sucipto, Tenukiik, Kec. Kota Atambua, Kabupaten Belu, Nusa Tenggara Tim.","Kabupaten Belu, Nusa Tenggara Tim.",NUSA TENGGARA TIMUR,,Indonesia,,,,-9.09948,124.895058,https://maps.google.com/?cid=0x0:0x219e6461fc8f181c,
perumahan,Komplek perumahan,Rumah saya,"Jl. Ahmad Yani No.19a, Atambua, Kec. Kota Atambua, Kabupaten Belu, Nusa Tenggara Tim.","Kabupaten Belu, Nusa Tenggara Tim.",NUSA TENGGARA TIMUR,,Indonesia,,,,-9.104672,124.8995049,https://maps.google.com/?cid=0x0:0xef38c292f8cae201,
perumahan,Komplek perumahan,Rumah adinero,"VVXH+WG3, Umanen, Kec. Atambua Bar., Kabupaten Belu, Nusa Tenggara Tim.","Kabupaten Belu, Nusa Tenggara Tim.",NUSA TENGGARA TIMUR,,Indonesia,,,,-9.1002296,124.8788065,https://maps.google.com/?cid=0x0:0xd5f94a1d353b677e,
perumahan,Komplek perumahan,Weluli,"VVXR+H9H, Atambua, Berdao, Kec. Atambua Bar., Kabupaten Belu, Nusa Tenggara Tim.","Kabupaten Belu, Nusa Tenggara Tim.",NUSA TENGGARA TIMUR,,Indonesia,,,,-9.101069,124.890999,https://maps.google.com/?cid=0x0:0xa750be8f26ea81c1,
perumahan,Komplek perumahan,Perumahan raibelu 2,"WV5C+8R2, Umanen, Kec. Atambua Bar., Kabupaten Belu, Nusa Tenggara Tim.","Kabupaten Belu, Nusa Tenggara Tim.",NUSA TENGGARA TIMUR,,Indonesia,,,,-9.0917337,124.8720102,https://maps.google.com/?cid=0x0:0x6adcc2f9945b0f0c,
perumahan,Komplek perumahan,Rumah Yusak Kolobani,"WV5R+XHF, Manumutin, Kec. Kota Atambua, Kabupaten Belu, Nusa Tenggara Tim.","Kabupaten Belu, Nusa Tenggara Tim.",NUSA TENGGARA TIMUR,,Indonesia,,,,-9.0900683,124.8912749,https://maps.google.com/?cid=0x0:0xd7421b48fbc5c85,
perumahan,Komplek perumahan,TaniaLoleHome,"WV2H+H3G, Jalan suri soro, wekatimun, Kec. Kota Atambua, Kabupaten Belu, Nusa Tenggara Tim.","Kabupaten Belu, Nusa Tenggara Tim.",NUSA TENGGARA TIMUR,,Indonesia,,,,-9.0985584,124.8776915,https://maps.google.com/?cid=0x0:0xb6ecbbf0da2cdc01,
perumahan,Komplek perumahan,Cabang menuju Raimaten,"Jl. Lilin I No.12, Raimaten, Kec. Atambua Bar., Kabupaten Belu, Nusa Tenggara Tim.","Kabupaten Belu, Nusa Tenggara Tim.",NUSA TENGGARA TIMUR,,Indonesia,,,,-9.0928021,124.8896066,https://maps.google.com/?cid=0x0:0x139a0ae431eb47ff,
perumahan,Gedung Pertemuan,Kirani Mart Atambua,"Jl. Laks. Martadinata, Tulamalae, Kec. Atambua Barat, Kec. Kota Atambua, Kabupaten Belu, Nusa Tenggara Tim. 85714","Tulamalae, Kec. Atambua Barat, Kec. Kota Atambua, Kabupaten Belu",NUSA TENGGARA TIMUR,85714.0,Indonesia,81232049152.0,,,-9.0977108,124.8837143,https://maps.google.com/?cid=0x0:0x9468477abaa79ade,
perumahan,Toko Perlengkapan Rumah,Graha Kirani,"WV2M+MGM, Jl. Laks. Martadinata, Tulamalae, Kec. Atambua Bar., Kabupaten Belu, Nusa Tenggara Tim. 85711","Jl. Laks. Martadinata, Tulamalae, Kec. Atambua Bar., Kabupaten Belu",NUSA TENGGARA TIMUR,85711.0,Indonesia,,,,-9.0982903,124.8837966,https://maps.google.com/?cid=0x0:0x83f3e8dc4ddb2b15,
perumahan,perumahan,Kec. Atambua Bar.,"Kabupaten Belu, Nusa Tenggara Tim.","Kabupaten Belu, Nusa Tenggara Tim.",NUSA TENGGARA TIMUR,,Indonesia,,,,-9.098558,124.8848404,https://maps.google.com/?cid=0x0:0xea2a70c27b8effee,
perumahan,Komplek perumahan,Rumah Manto Eka,"VVXH+6F2, Umanen, Kec. Atambua Bar., Kabupaten Belu, Nusa Tenggara Tim.","Kabupaten Belu, Nusa Tenggara Tim.",NUSA TENGGARA TIMUR,,Indonesia,,,,-9.1019839,124.8786376,https://maps.google.com/?cid=0x0:0x4d30c53d820b9026,
perumahan,Komplek perumahan,Perumahan Belu Sejahtera,"Jl. Lilin II No.5, Tulamalae, Kec. Atambua Bar., Kabupaten Belu, Nusa Tenggara Tim.","Kabupaten Belu, Nusa Tenggara Tim.",NUSA TENGGARA TIMUR,,Indonesia,,,,-9.0945499,124.8925285,https://maps.google.com/?cid=0x0:0x807f61abe32ce65b,
perumahan,Pembangunan Perumahan,Rumah,"WV4P+8HV, Jl. Lourdes, Tulamalae, Kec. Atambua Bar., Kabupaten Belu, Nusa Tenggara Tim.","Kabupaten Belu, Nusa Tenggara Tim.",NUSA TENGGARA TIMUR,,Indonesia,,,,-9.0941318,124.8864124,https://maps.google.com/?cid=0x0:0x6760503d9959d3da,
perumahan,Komplek perumahan,Rumah bob kedati,"WV4Q+QR7, Tulamalae, Kec. Atambua Bar., Kabupaten Belu, Nusa Tenggara Tim.","Kabupaten Belu, Nusa Tenggara Tim.",NUSA TENGGARA TIMUR,,Indonesia,,,,-9.0930959,124.8895372,https://maps.google.com/?cid=0x0:0x67ab827e6632739a,
perumahan,Pembangunan Perumahan,Perumahan BTN pos pom,"WV2H+92F, Jl. Surisoro, Umanen, Kec. Atambua Bar., Kabupaten Belu, Nusa Tenggara Tim.","Kabupaten Belu, Nusa Tenggara Tim.",NUSA TENGGARA TIMUR,,Indonesia,,,,-9.0990487,124.8774642,https://maps.google.com/?cid=0x0:0xe49f4e12a6f329a2,
perumahan,Komplek perumahan,House of destiny atambua,"Jl. Sultan Hamengkubuwono No.IX, Umanen, Kec. Atambua Bar., Kabupaten Belu, Nusa Tenggara Tim.","Kabupaten Belu, Nusa Tenggara Tim.",NUSA TENGGARA TIMUR,,Indonesia,,,,-9.1020235,124.8742822,https://maps.google.com/?cid=0x0:0x1fc3327d2e8e6d46,
perumahan,Komplek perumahan,Nekafehan (WANTED) atambua NTT,"Manumutin, Kec. Kota Atambua, Kabupaten Belu, Nusa Tenggara Tim.","Kabupaten Belu, Nusa Tenggara Tim.",NUSA TENGGARA TIMUR,,Indonesia,,,,-9.0902094,124.8903747,https://maps.google.com/?cid=0x0:0xbded4017cf7b58ef,
perumahan,Komplek perumahan,Rumah Refry Mau Loe,"VVVW+386, Atambua, Kec. Kota Atambua, Kabupaten Belu, Nusa Tenggara Tim.","Kabupaten Belu, Nusa Tenggara Tim.",NUSA TENGGARA TIMUR,,Indonesia,,,,-9.1073409,124.8957502,https://maps.google.com/?cid=0x0:0x986cfedf705faa2e,
perumahan,Pembangunan Perumahan,Perumahan Grand Bukit Lolowa,"RT 24/RW 01 jalan St petrus, Kec, fatukbot, Kec. Atambua Sel., Kabupaten Belu, Nusa Tenggara Tim.","Kabupaten Belu, Nusa Tenggara Tim.",NUSA TENGGARA TIMUR,,Indonesia,81239727789.0,,,-9.0969043,124.8940667,https://maps.google.com/?cid=0x0:0x57e3d2b786f9e1fd,
perumahan,Komplek perumahan,rumah feriulu,"WV2P+C4X, Tulamalae, Kec. Atambua Bar., Kabupaten Belu, Nusa Tenggara Tim.","Kabupaten Belu, Nusa Tenggara Tim.",NUSA TENGGARA TIMUR,,Indonesia,,,,-9.0988764,124.8853646,https://maps.google.com/?cid=0x0:0x811d30c68e62b2c,
perumahan,Komplek perumahan,Kompleks Rumah Dinas KPPN Atambua,"VVXM+99M, Tulamalae, Kec. Atambua Bar., Kabupaten Belu, Nusa Tenggara Tim.","Kabupaten Belu, Nusa Tenggara Tim.",NUSA TENGGARA TIMUR,,Indonesia,,,,-9.1014654,124.8835399,https://maps.google.com/?cid=0x0:0xe43825890a8c1767,
perumahan,Komplek perumahan,ATAMBUA LINGKUNGAN TORO,"WV3M+PV9, Jl. Ave Maria, Tulamalae, Kec. Atambua Bar., Kabupaten Belu, Nusa Tenggara Tim.","Kabupaten Belu, Nusa Tenggara Tim.",NUSA TENGGARA TIMUR,,Indonesia,,,,-9.0957053,124.8847344,https://maps.google.com/?cid=0x0:0x97512997a6178490,
perumahan,Komplek perumahan,Dikontrakkan,"VVRM+MXF, Beirafu, Kec. Atambua Bar., Kabupaten Belu, Nusa Tenggara Tim.","Kabupaten Belu, Nusa Tenggara Tim.",NUSA TENGGARA TIMUR,,Indonesia,,,,-9.1082811,124.8849744,https://maps.google.com/?cid=0x0:0x44291c499276aee5,
perumahan,Komplek perumahan,Weluli,"VVXR+H9H, Atambua, Berdao, Kec. Atambua Bar., Kabupaten Belu, Nusa Tenggara Tim.","Kabupaten Belu, Nusa Tenggara Tim.",NUSA TENGGARA TIMUR,,Indonesia,,,,-9.101069,124.890999,https://maps.google.com/?cid=0x0:0xa750be8f26ea81c1,
perumahan,Komplek perumahan,Cabang menuju Raimaten,"Jl. Lilin I No.12, Raimaten, Kec. Atambua Bar., Kabupaten Belu, Nusa Tenggara Tim.","Kabupaten Belu, Nusa Tenggara Tim.",NUSA TENGGARA TIMUR,,Indonesia,,,,-9.0928021,124.8896066,https://maps.google.com/?cid=0x0:0x139a0ae431eb47ff,
perumahan,Komplek perumahan,Rumah tinggal,"VVVX+9FW, Atambua, Kec. Kota Atambua, Kabupaten Belu, Nusa Tenggara Tim.","Kabupaten Belu, Nusa Tenggara Tim.",NUSA TENGGARA TIMUR,,Indonesia,,,,-9.1065244,124.8987106,https://maps.google.com/?cid=0x0:0xfb8a08343e76f6be,
perumahan,Tempat Religius,GUA Toro atambua,"WV4M+JX5, Jl. Lourdes, Tulamalae, Kec. Atambua Bar., Kabupaten Belu, Nusa Tenggara Tim.","Kabupaten Belu, Nusa Tenggara Tim.",NUSA TENGGARA TIMUR,,Indonesia,,,,-9.0934813,124.8849727,https://maps.google.com/?cid=0x0:0x12ea4e58d8c1889,
perumahan,Perumahan,Rumah PAK PETRUS BERE BRIA,"WV4M+R48, Jl. Lourdes, Tulamalae, Kec. Atambua Bar., Kabupaten Belu, Nusa Tenggara Tim.","Kabupaten Belu, Nusa Tenggara Tim.",NUSA TENGGARA TIMUR,,Indonesia,82146992767.0,,,-9.0929509,124.8828135,https://maps.google.com/?cid=0x0:0xc01a0c863f61c28,
perumahan,Komplek perumahan,Rumah saya,"Jl. Ahmad Yani No.19a, Atambua, Kec. Kota Atambua, Kabupaten Belu, Nusa Tenggara Tim.","Kabupaten Belu, Nusa Tenggara Tim.",NUSA TENGGARA TIMUR,,Indonesia,,,,-9.104672,124.8995049,https://maps.google.com/?cid=0x0:0xef38c292f8cae201,
perumahan,Komplek perumahan,Perumahan raibelu 2,"WV5C+8R2, Umanen, Kec. Atambua Bar., Kabupaten Belu, Nusa Tenggara Tim.","Kabupaten Belu, Nusa Tenggara Tim.",NUSA TENGGARA TIMUR,,Indonesia,,,,-9.0917337,124.8720102,https://maps.google.com/?cid=0x0:0x6adcc2f9945b0f0c,
perumahan,Apartemen sewa liburan,Rumah Kost Dedy Nahak,"VVRQ+CM6, Beirafu, Kec. Atambua Bar., Kabupaten Belu, Nusa Tenggara Tim.","Kabupaten Belu, Nusa Tenggara Tim.",NUSA TENGGARA TIMUR,,Indonesia,,,,-9.1088005,124.8889219,https://maps.google.com/?cid=0x0:0x2dbd84ed82b9d00,
perumahan,Komplek perumahan,Rumah Yusak Kolobani,"WV5R+XHF, Manumutin, Kec. Kota Atambua, Kabupaten Belu, Nusa Tenggara Tim.","Kabupaten Belu, Nusa Tenggara Tim.",NUSA TENGGARA TIMUR,,Indonesia,,,,-9.0900683,124.8912749,https://maps.google.com/?cid=0x0:0xd7421b48fbc5c85,
perumahan,Komplek perumahan,Rumah adinero,"VVXH+WG3, Umanen, Kec. Atambua Bar., Kabupaten Belu, Nusa Tenggara Tim.","Kabupaten Belu, Nusa Tenggara Tim.",NUSA TENGGARA TIMUR,,Indonesia,,,,-9.1002296,124.8788065,https://maps.google.com/?cid=0x0:0xd5f94a1d353b677e,
perumahan,Gedung Apartemen,Marsel Fahik,"WV2H+G5P, Berdao, Kec. Atambua Bar., Kabupaten Belu, Nusa Tenggara Tim.","Kabupaten Belu, Nusa Tenggara Tim.",NUSA TENGGARA TIMUR,,Indonesia,,,,-9.098673,124.8779678,https://maps.google.com/?cid=0x0:0xc809c73e58c079cc,
perumahan,Komplek perumahan,üè° AKBP. JOHNI D. MUSKANAN,"VVWV+MC3, Jl. Proklamasi, Berdao, Kec. Atambua Bar., Kabupaten Belu, Nusa Tenggara Tim.","Kabupaten Belu, Nusa Tenggara Tim.",NUSA TENGGARA TIMUR,,Indonesia,,,,-9.1033529,124.8935532,https://maps.google.com/?cid=0x0:0x289e67282b43aab7,
perumahan,Komplek perumahan,Flipper Gantelar Atambua,"Manuaman, Kec. Atambua Sel., Kabupaten Belu, Nusa Tenggara Tim.","Kabupaten Belu, Nusa Tenggara Tim.",NUSA TENGGARA TIMUR,,Indonesia,,,,-9.1111557,124.8843637,https://maps.google.com/?cid=0x0:0xa4df33624511263e,
perumahan,perumahan,Nusa Tenggara Tim.,,Nusa Tenggara Tim.,NUSA TENGGARA TIMUR,,Indonesia,,,,-8.6573819,121.0793705,https://maps.google.com/?cid=0x0:0x1030bfbcaf71ae0,
perumahan,Pembangunan Perumahan,Perumahan Puri Mas Atambua,"VV6H+HP2, Tukuneno, Kec. Tasifeto Bar., Kabupaten Belu, Nusa Tenggara Tim.","Kabupaten Belu, Nusa Tenggara Tim.",NUSA TENGGARA TIMUR,,Indonesia,,,,-9.1385603,124.8793865,https://maps.google.com/?cid=0x0:0x237a1d233855bba1,
perumahan,Komplek perumahan,Perumahan Bukit Emas Wekatimun,"WV2F+7R8, Jl. Dr. G. A. Siwabessyy, Umanen, Kec. Atambua Bar., Kabupaten Belu, Nusa Tenggara Tim.","Kabupaten Belu, Nusa Tenggara Tim.",NUSA TENGGARA TIMUR,,Indonesia,81234666635.0,,,-9.0993472,124.8745858,https://maps.google.com/?cid=0x0:0x2ff65776b8d7f39e,
perumahan,Pembangunan Perumahan,Wekatimun,"WV3G+8WJ, RT.,27/RW.09 wekatimun, Umanen, Kec. Kota Atambua, Kabupaten Belu, Nusa Tenggara Tim.","Kabupaten Belu, Nusa Tenggara Tim.",NUSA TENGGARA TIMUR,,Indonesia,,,,-9.0966601,124.8772644,https://maps.google.com/?cid=0x0:0x4c9a665e093ebdc0,
perumahan,Komplek perumahan,Perumahan Belu Regency,"VWMM+6GC, Manleten, Kec. Tasifeto Tim., Kabupaten Belu, Nusa Tenggara Tim.","Kabupaten Belu, Nusa Tenggara Tim.",NUSA TENGGARA TIMUR,,Indonesia,,,,-9.1169396,124.9337549,https://maps.google.com/?cid=0x0:0x47b1164980cb0e39,
perumahan,perumahan,Kec. Atambua Bar.,"Kabupaten Belu, Nusa Tenggara Tim.","Kabupaten Belu, Nusa Tenggara Tim.",NUSA TENGGARA TIMUR,,Indonesia,,,,-9.098558,124.8848404,https://maps.google.com/?cid=0x0:0xea2a70c27b8effee,
perumahan,Komplek perumahan,HALIWEN RESIDENCE,"WWJ5+7MJ, Kabuna, Kec. Kakuluk Mesak, Kabupaten Belu, Nusa Tenggara Tim.","Kabupaten Belu, Nusa Tenggara Tim.",NUSA TENGGARA TIMUR,,Indonesia,,,,-9.0692765,124.9091491,https://maps.google.com/?cid=0x0:0x534897f364591d26,
perumahan,Komplek perumahan,ATAMBUA LINGKUNGAN TORO,"WV3M+PV9, Jl. Ave Maria, Tulamalae, Kec. Atambua Bar., Kabupaten Belu, Nusa Tenggara Tim.","Kabupaten Belu, Nusa Tenggara Tim.",NUSA TENGGARA TIMUR,,Indonesia,,,,-9.0957053,124.8847344,https://maps.google.com/?cid=0x0:0x97512997a6178490,
perumahan,Pembangunan Perumahan,Perumahan Grand Bukit Lolowa,"RT 24/RW 01 jalan St petrus, Kec, fatukbot, Kec. Atambua Sel., Kabupaten Belu, Nusa Tenggara Tim.","Kabupaten Belu, Nusa Tenggara Tim.",NUSA TENGGARA TIMUR,,Indonesia,81239727789.0,,,-9.0969043,124.8940667,https://maps.google.com/?cid=0x0:0x57e3d2b786f9e1fd,
perumahan,Pembangunan Perumahan,Perumahan BTN pos pom,"WV2H+92F, Jl. Surisoro, Umanen, Kec. Atambua Bar., Kabupaten Belu, Nusa Tenggara Tim.","Kabupaten Belu, Nusa Tenggara Tim.",NUSA TENGGARA TIMUR,,Indonesia,,,,-9.0990487,124.8774642,https://maps.google.com/?cid=0x0:0xe49f4e12a6f329a2,
perumahan,Gedung Apartemen,Marsel Fahik,"WV2H+G5P, Berdao, Kec. Atambua Bar., Kabupaten Belu, Nusa Tenggara Tim.","Kabupaten Belu, Nusa Tenggara Tim.",NUSA TENGGARA TIMUR,,Indonesia,,,,-9.098673,124.8779678,https://maps.google.com/?cid=0x0:0xc809c73e58c079cc,
perumahan,Komplek perumahan,Nekafehan (WANTED) atambua NTT,"Manumutin, Kec. Kota Atambua, Kabupaten Belu, Nusa Tenggara Tim.","Kabupaten Belu, Nusa Tenggara Tim.",NUSA TENGGARA TIMUR,,Indonesia,,,,-9.0902094,124.8903747,https://maps.google.com/?cid=0x0:0xbded4017cf7b58ef,
perumahan,Komplek perumahan,Rumah Refry Mau Loe,"VVVW+386, Atambua, Kec. Kota Atambua, Kabupaten Belu, Nusa Tenggara Tim.","Kabupaten Belu, Nusa Tenggara Tim.",NUSA TENGGARA TIMUR,,Indonesia,,,,-9.1073409,124.8957502,https://maps.google.com/?cid=0x0:0x986cfedf705faa2e,
perumahan,Pembangunan Perumahan,Rumah,"WV4P+8HV, Jl. Lourdes, Tulamalae, Kec. Atambua Bar., Kabupaten Belu, Nusa Tenggara Tim.","Kabupaten Belu, Nusa Tenggara Tim.",NUSA TENGGARA TIMUR,,Indonesia,,,,-9.0941318,124.8864124,https://maps.google.com/?cid=0x0:0x6760503d9959d3da,
perumahan,Komplek perumahan,rumah feriulu,"WV2P+C4X, Tulamalae, Kec. Atambua Bar., Kabupaten Belu, Nusa Tenggara Tim.","Kabupaten Belu, Nusa Tenggara Tim.",NUSA TENGGARA TIMUR,,Indonesia,,,,-9.0988764,124.8853646,https://maps.google.com/?cid=0x0:0x811d30c68e62b2c,
perumahan,Komplek perumahan,Weluli,"VVXR+H9H, Atambua, Berdao, Kec. Atambua Bar., Kabupaten Belu, Nusa Tenggara Tim.","Kabupaten Belu, Nusa Tenggara Tim.",NUSA TENGGARA TIMUR,,Indonesia,,,,-9.101069,124.890999,https://maps.google.com/?cid=0x0:0xa750be8f26ea81c1,
perumahan,Komplek perumahan,Dikontrakkan,"VVRM+MXF, Beirafu, Kec. Atambua Bar., Kabupaten Belu, Nusa Tenggara Tim.","Kabupaten Belu, Nusa Tenggara Tim.",NUSA TENGGARA TIMUR,,Indonesia,,,,-9.1082811,124.8849744,https://maps.google.com/?cid=0x0:0x44291c499276aee5,
perumahan,Komplek perumahan,Rumah Manto Eka,"VVXH+6F2, Umanen, Kec. Atambua Bar., Kabupaten Belu, Nusa Tenggara Tim.","Kabupaten Belu, Nusa Tenggara Tim.",NUSA TENGGARA TIMUR,,Indonesia,,,,-9.1019839,124.8786376,https://maps.google.com/?cid=0x0:0x4d30c53d820b9026,
perumahan,Komplek perumahan,Rumah Nodja Nahak,"VVQV+WXR, Jl. Yohanes Luan, Atambua, Kec. Kota Atambua, Kabupaten Belu, Nusa Tenggara Tim.","Kabupaten Belu, Nusa Tenggara Tim.",NUSA TENGGARA TIMUR,,Indonesia,,,,-9.1100095,124.8945794,https://maps.google.com/?cid=0x0:0xd6ee3a8b97ce2e1b,
perumahan,Komplek perumahan,House of destiny atambua,"Jl. Sultan Hamengkubuwono No.IX, Umanen, Kec. Atambua Bar., Kabupaten Belu, Nusa Tenggara Tim.","Kabupaten Belu, Nusa Tenggara Tim.",NUSA TENGGARA TIMUR,,Indonesia,,,,-9.1020235,124.8742822,https://maps.google.com/?cid=0x0:0x1fc3327d2e8e6d46,
perumahan,Apartemen sewa liburan,Rumah Kost Dedy Nahak,"VVRQ+CM6, Beirafu, Kec. Atambua Bar., Kabupaten Belu, Nusa Tenggara Tim.","Kabupaten Belu, Nusa Tenggara Tim.",NUSA TENGGARA TIMUR,,Indonesia,,,,-9.1088005,124.8889219,https://maps.google.com/?cid=0x0:0x2dbd84ed82b9d00,
perumahan,Komplek perumahan,üè° AKBP. JOHNI D. MUSKANAN,"VVWV+MC3, Jl. Proklamasi, Berdao, Kec. Atambua Bar., Kabupaten Belu, Nusa Tenggara Tim.","Kabupaten Belu, Nusa Tenggara Tim.",NUSA TENGGARA TIMUR,,Indonesia,,,,-9.1033529,124.8935532,https://maps.google.com/?cid=0x0:0x289e67282b43aab7,
perumahan,Komplek perumahan,Rumah tinggal,"VVVX+9FW, Atambua, Kec. Kota Atambua, Kabupaten Belu, Nusa Tenggara Tim.","Kabupaten Belu, Nusa Tenggara Tim.",NUSA TENGGARA TIMUR,,Indonesia,,,,-9.1065244,124.8987106,https://maps.google.com/?cid=0x0:0xfb8a08343e76f6be,
perumahan,perumahan,Rumah Bone Nabu,"VVWM+2C9, Beirafu, Kec. Atambua Bar., Kabupaten Belu, Nusa Tenggara Tim.","Kabupaten Belu, Nusa Tenggara Tim.",NUSA TENGGARA TIMUR,,Indonesia,,,,-9.1049534,124.8835978,https://maps.google.com/?cid=0x0:0xc85b75f5096e9f3f,
perumahan,Komplek perumahan,Perumahan raibelu 2,"WV5C+8R2, Umanen, Kec. Atambua Bar., Kabupaten Belu, Nusa Tenggara Tim.","Kabupaten Belu, Nusa Tenggara Tim.",NUSA TENGGARA TIMUR,,Indonesia,,,,-9.0917337,124.8720102,https://maps.google.com/?cid=0x0:0x6adcc2f9945b0f0c,
perumahan,Komplek perumahan,Rumah bob kedati,"WV4Q+QR7, Tulamalae, Kec. Atambua Bar., Kabupaten Belu, Nusa Tenggara Tim.","Kabupaten Belu, Nusa Tenggara Tim.",NUSA TENGGARA TIMUR,,Indonesia,,,,-9.0930959,124.8895372,https://maps.google.com/?cid=0x0:0x67ab827e6632739a,
perumahan,Komplek perumahan,Cabang menuju Raimaten,"Jl. Lilin I No.12, Raimaten, Kec. Atambua Bar., Kabupaten Belu, Nusa Tenggara Tim.","Kabupaten Belu, Nusa Tenggara Tim.",NUSA TENGGARA TIMUR,,Indonesia,,,,-9.0928021,124.8896066,https://maps.google.com/?cid=0x0:0x139a0ae431eb47ff,
perumahan,Perumahan,Rumah PAK PETRUS BERE BRIA,"WV4M+R48, Jl. Lourdes, Tulamalae, Kec. Atambua Bar., Kabupaten Belu, Nusa Tenggara Tim.","Kabupaten Belu, Nusa Tenggara Tim.",NUSA TENGGARA TIMUR,,Indonesia,82146992767.0,,,-9.0929509,124.8828135,https://maps.google.com/?cid=0x0:0xc01a0c863f61c28,
perumahan,Komplek perumahan,Kompleks Rumah Dinas KPPN Atambua,"VVXM+99M, Tulamalae, Kec. Atambua Bar., Kabupaten Belu, Nusa Tenggara Tim.","Kabupaten Belu, Nusa Tenggara Tim.",NUSA TENGGARA TIMUR,,Indonesia,,,,-9.1014654,124.8835399,https://maps.google.com/?cid=0x0:0xe43825890a8c1767,
perumahan,perumahan,Nusa Tenggara Tim.,,Nusa Tenggara Tim.,NUSA TENGGARA TIMUR,,Indonesia,,,,-8.6573819,121.0793705,https://maps.google.com/?cid=0x0:0x1030bfbcaf71ae0,
perumahan,Komplek perumahan,Perumahan Bukit Emas Wekatimun,"WV2F+7R8, Jl. Dr. G. A. Siwabessyy, Umanen, Kec. Atambua Bar., Kabupaten Belu, Nusa Tenggara Tim.","Kabupaten Belu, Nusa Tenggara Tim.",NUSA TENGGARA TIMUR,,Indonesia,81234666635.0,,,-9.0993472,124.8745858,https://maps.google.com/?cid=0x0:0x2ff65776b8d7f39e,
perumahan,Pembangunan Perumahan,Homebase BoixosNois Atambua,"Serikat Wifi (SBC, Jl. Meo Abekunatun No.7, Manuaman, Kec. Atambua Sel., Kabupaten Belu, Nusa Tenggara Tim. 85718","Jl. Meo Abekunatun No.7, Manuaman, Kec. Atambua Sel., Kabupaten Belu",NUSA TENGGARA TIMUR,85718.0,Indonesia,,,,-9.1161502,124.8870345,https://maps.google.com/?cid=0x0:0xbb81d248545ee48e,
perumahan,Pembangunan Perumahan,BLOK A NO 47,"PERUMAHAN BUKIT EMAS WEKATIMUN, JALAN Dr. G. A. SIWABESSY, Kec. Kota Atambua, Nusa Tenggara Tim. 85718","JALAN Dr. G. A. SIWABESSY, Kec. Kota Atambua",NUSA TENGGARA TIMUR,85718.0,Indonesia,,,,-9.0992584,124.8739602,https://maps.google.com/?cid=0x0:0x314121194929b26c,
perumahan,Pembangunan Perumahan,Perumahan Puri Mas Atambua,"VV6H+HP2, Tukuneno, Kec. Tasifeto Bar., Kabupaten Belu, Nusa Tenggara Tim.","Kabupaten Belu, Nusa Tenggara Tim.",NUSA TENGGARA TIMUR,,Indonesia,,,,-9.1385603,124.8793865,https://maps.google.com/?cid=0x0:0x237a1d233855bba1,
perumahan,Pembangunan Perumahan,Wekatimun,"WV3G+8WJ, RT.,27/RW.09 wekatimun, Umanen, Kec. Kota Atambua, Kabupaten Belu, Nusa Tenggara Tim.","Kabupaten Belu, Nusa Tenggara Tim.",NUSA TENGGARA TIMUR,,Indonesia,,,,-9.0966601,124.8772644,https://maps.google.com/?cid=0x0:0x4c9a665e093ebdc0,
perumahan,Komplek perumahan,Perumahan Belu Regency,"VWMM+6GC, Manleten, Kec. Tasifeto Tim., Kabupaten Belu, Nusa Tenggara Tim.","Kabupaten Belu, Nusa Tenggara Tim.",NUSA TENGGARA TIMUR,,Indonesia,,,,-9.1169396,124.9337549,https://maps.google.com/?cid=0x0:0x47b1164980cb0e39,
perumahan,Komplek perumahan,HALIWEN RESIDENCE,"WWJ5+7MJ, Kabuna, Kec. Kakuluk Mesak, Kabupaten Belu, Nusa Tenggara Tim.","Kabupaten Belu, Nusa Tenggara Tim.",NUSA TENGGARA TIMUR,,Indonesia,,,,-9.0692765,124.9091491,https://maps.google.com/?cid=0x0:0x534897f364591d26,
perumahan,perumahan,Atambua,"Berdao, Kec. Atambua Bar., Kabupaten Belu, Nusa Tenggara Tim.","Kabupaten Belu, Nusa Tenggara Tim.",NUSA TENGGARA TIMUR,,Indonesia,,,,-9.101069,124.890999,https://maps.google.com/?cid=0x0:0x1c87be0c0edf358f,
perumahan,Komplek perumahan,Weluli,"VVXR+H9H, Atambua, Berdao, Kec. Atambua Bar., Kabupaten Belu, Nusa Tenggara Tim.","Kabupaten Belu, Nusa Tenggara Tim.",NUSA TENGGARA TIMUR,,Indonesia,,,,-9.101069,124.890999,https://maps.google.com/?cid=0x0:0xa750be8f26ea81c1,
perumahan,Perhimpunan Pengembang Perumahan,Fatubenao A,"VVXR+H9H, Berdao, Kec. Atambua Bar., Kabupaten Belu, Nusa Tenggara Tim.","Kabupaten Belu, Nusa Tenggara Tim.",NUSA TENGGARA TIMUR,,Indonesia,,,,-9.101069,124.890999,https://maps.google.com/?cid=0x0:0x8f6ad746a0693c12,
perumahan,Komplek perumahan,Sara Losi,"VVXR+V8R, Waikatimun, Kec. Kota Atambua, Kabupaten Belu, Nusa Tenggara Tim.","Kabupaten Belu, Nusa Tenggara Tim.",NUSA TENGGARA TIMUR,,Indonesia,,,,-9.100275,124.8907629,https://maps.google.com/?cid=0x0:0xa056342187d3c6ea,
perumahan,Komplek perumahan,Gank Setapak,"VVXR+H9H, Berdao, Atambua, Kabupaten Belu, Nusa Tenggara Tim.","Kabupaten Belu, Nusa Tenggara Tim.",NUSA TENGGARA TIMUR,,Indonesia,,,,-9.101069,124.890999,https://maps.google.com/?cid=0x0:0x40d0a03e04b26b4e,
perumahan,perumahan,Mus Manek,"VVXR+Q6G, Tulamalae, Kec. Kota Atambua, Kabupaten Belu, Nusa Tenggara Tim. 85711","Tulamalae, Kec. Kota Atambua, Kabupaten Belu",NUSA TENGGARA TIMUR,85711.0,Indonesia,,,,-9.1006153,124.8903217,https://maps.google.com/?cid=0x0:0x6d1749ca4285c6de,
perumahan,perumahan,Kec. Atambua Bar.,"Kabupaten Belu, Nusa Tenggara Tim.","Kabupaten Belu, Nusa Tenggara Tim.",NUSA TENGGARA TIMUR,,Indonesia,,,,-9.098558,124.8848404,https://maps.google.com/?cid=0x0:0xea2a70c27b8effee,
perumahan,Komplek perumahan,Perumahan Belu Sejahtera,"Jl. Lilin II No.5, Tulamalae, Kec. Atambua Bar., Kabupaten Belu, Nusa Tenggara Tim.","Kabupaten Belu, Nusa Tenggara Tim.",NUSA TENGGARA TIMUR,,Indonesia,,,,-9.0945499,124.8925285,https://maps.google.com/?cid=0x0:0x807f61abe32ce65b,
perumahan,Komplek perumahan,Anna Lien,"WV2R+258, Jl. Ki Hajar Dewantara, RT.020/RW.006, Sesekoe, Kec. Atambua Bar., Kabupaten Belu, Nusa Tenggara Tim.","Kabupaten Belu, Nusa Tenggara Tim.",NUSA TENGGARA TIMUR,,Indonesia,,,,-9.0999597,124.8904493,https://maps.google.com/?cid=0x0:0xa004b820aac042be,
perumahan,Komplek perumahan,Rumah Manto Eka,"VVXH+6F2, Umanen, Kec. Atambua Bar., Kabupaten Belu, Nusa Tenggara Tim.","Kabupaten Belu, Nusa Tenggara Tim.",NUSA TENGGARA TIMUR,,Indonesia,,,,-9.1019839,124.8786376,https://maps.google.com/?cid=0x0:0x4d30c53d820b9026,
perumahan,Komplek perumahan,rumah feriulu,"WV2P+C4X, Tulamalae, Kec. Atambua Bar., Kabupaten Belu, Nusa Tenggara Tim.","Kabupaten Belu, Nusa Tenggara Tim.",NUSA TENGGARA TIMUR,,Indonesia,,,,-9.0988764,124.8853646,https://maps.google.com/?cid=0x0:0x811d30c68e62b2c,
perumahan,perumahan,Rumah Bone Nabu,"VVWM+2C9, Beirafu, Kec. Atambua Bar., Kabupaten Belu, Nusa Tenggara Tim.","Kabupaten Belu, Nusa Tenggara Tim.",NUSA TENGGARA TIMUR,,Indonesia,,,,-9.1049534,124.8835978,https://maps.google.com/?cid=0x0:0xc85b75f5096e9f3f,
perumahan,Komplek perumahan,Perumahan raibelu 2,"WV5C+8R2, Umanen, Kec. Atambua Bar., Kabupaten Belu, Nusa Tenggara Tim.","Kabupaten Belu, Nusa Tenggara Tim.",NUSA TENGGARA TIMUR,,Indonesia,,,,-9.0917337,124.8720102,https://maps.google.com/?cid=0x0:0x6adcc2f9945b0f0c,
perumahan,Pembangunan Perumahan,Rumah,"WV4P+8HV, Jl. Lourdes, Tulamalae, Kec. Atambua Bar., Kabupaten Belu, Nusa Tenggara Tim.","Kabupaten Belu, Nusa Tenggara Tim.",NUSA TENGGARA TIMUR,,Indonesia,,,,-9.0941318,124.8864124,https://maps.google.com/?cid=0x0:0x6760503d9959d3da,
perumahan,Komplek perumahan,ATAMBUA LINGKUNGAN TORO,"WV3M+PV9, Jl. Ave Maria, Tulamalae, Kec. Atambua Bar., Kabupaten Belu, Nusa Tenggara Tim.","Kabupaten Belu, Nusa Tenggara Tim.",NUSA TENGGARA TIMUR,,Indonesia,,,,-9.0957053,124.8847344,https://maps.google.com/?cid=0x0:0x97512997a6178490,
perumahan,Komplek perumahan,Rumah bob kedati,"WV4Q+QR7, Tulamalae, Kec. Atambua Bar., Kabupaten Belu, Nusa Tenggara Tim.","Kabupaten Belu, Nusa Tenggara Tim.",NUSA TENGGARA TIMUR,,Indonesia,,,,-9.0930959,124.8895372,https://maps.google.com/?cid=0x0:0x67ab827e6632739a,
perumahan,Komplek perumahan,Kediaman Aje Luan,"VVVQ+F2R, Jl. Loro Wailuku, Beirafu, Kec. Atambua Bar., Kabupaten Belu, Nusa Tenggara Tim.","Kabupaten Belu, Nusa Tenggara Tim.",NUSA TENGGARA TIMUR,,Indonesia,,,,-9.1061725,124.8875049,https://maps.google.com/?cid=0x0:0x569e6165fdb2d2b8,
perumahan,Komplek perumahan,Cabang menuju Raimaten,"Jl. Lilin I No.12, Raimaten, Kec. Atambua Bar., Kabupaten Belu, Nusa Tenggara Tim.","Kabupaten Belu, Nusa Tenggara Tim.",NUSA TENGGARA TIMUR,,Indonesia,,,,-9.0928021,124.8896066,https://maps.google.com/?cid=0x0:0x139a0ae431eb47ff,
perumahan,Perumahan,Eti Mau,"VVWG+2XP, Jl. El Tari, Umanen, Kec. Atambua Bar., Kabupaten Belu, Nusa Tenggara Tim.","Kabupaten Belu, Nusa Tenggara Tim.",NUSA TENGGARA TIMUR,,Indonesia,,,,-9.1049094,124.8774421,https://maps.google.com/?cid=0x0:0x8f792eabb0e2d86a,
perumahan,Gedung Apartemen,Marsel Fahik,"WV2H+G5P, Berdao, Kec. Atambua Bar., Kabupaten Belu, Nusa Tenggara Tim.","Kabupaten Belu, Nusa Tenggara Tim.",NUSA TENGGARA TIMUR,,Indonesia,,,,-9.098673,124.8779678,https://maps.google.com/?cid=0x0:0xc809c73e58c079cc,
perumahan,Komplek perumahan,Rumah adinero,"VVXH+WG3, Umanen, Kec. Atambua Bar., Kabupaten Belu, Nusa Tenggara Tim.","Kabupaten Belu, Nusa Tenggara Tim.",NUSA TENGGARA TIMUR,,Indonesia,,,,-9.1002296,124.8788065,https://maps.google.com/?cid=0x0:0xd5f94a1d353b677e,
perumahan,perumahan,Kec. Atambua Sel.,"Kabupaten Belu, Nusa Tenggara Tim.","Kabupaten Belu, Nusa Tenggara Tim.",NUSA TENGGARA TIMUR,,Indonesia,,,,-9.1175232,124.8894228,https://maps.google.com/?cid=0x0:0xad40ab1fc8bc6e83,
perumahan,Komplek perumahan,Rumah,"VVJM+W29, Jl. Meo Abekunatun, Lidak, Kec. Atambua Sel., Kabupaten Belu, Nusa Tenggara Tim.","Kabupaten Belu, Nusa Tenggara Tim.",NUSA TENGGARA TIMUR,,Indonesia,,,,-9.118377,124.882581,https://maps.google.com/?cid=0x0:0x8da56442278d6ac4,
perumahan,Perhimpunan Pengembang Perumahan,Djumone,"VVMQ+97Q, Rinbesi, Kec. Atambua Sel., Kabupaten Belu, Nusa Tenggara Tim.","Kabupaten Belu, Nusa Tenggara Tim.",NUSA TENGGARA TIMUR,,Indonesia,,,,-9.1165475,124.8882202,https://maps.google.com/?cid=0x0:0x431e8c1e06d07daa,
perumahan,perumahan,grace,"VVHR+M38, Lidak, Kec. Atambua Sel., Kabupaten Belu, Nusa Tenggara Tim.","Kabupaten Belu, Nusa Tenggara Tim.",NUSA TENGGARA TIMUR,,Indonesia,,,,-9.1208324,124.8902133,https://maps.google.com/?cid=0x0:0xe02432e1180ed495,
perumahan,Komplek perumahan,Reva Atok Home,"VVMM+JH7, Manuaman, Kec. Atambua Sel., Kabupaten Belu, Nusa Tenggara Tim.","Kabupaten Belu, Nusa Tenggara Tim.",NUSA TENGGARA TIMUR,,Indonesia,,,,-9.1159639,124.8839357,https://maps.google.com/?cid=0x0:0xf6e208b8041597c5,
perumahan,Komplek perumahan,Rumah Erlin Nahak,"VVHP+M6J, Jl. Raya Lolowa, Lidak, Kec. Atambua Sel., Kabupaten Belu, Nusa Tenggara Tim.","Kabupaten Belu, Nusa Tenggara Tim.",NUSA TENGGARA TIMUR,,Indonesia,,,,-9.1219847,124.8862739,https://maps.google.com/?cid=0x0:0xaa1fc22f5e34bd4d,
perumahan,perumahan,Kilo 1,"VVQR+CQC, Rinbesi, Kec. Atambua Sel., Kabupaten Belu, Nusa Tenggara Tim.","Kabupaten Belu, Nusa Tenggara Tim.",NUSA TENGGARA TIMUR,,Indonesia,,,,-9.1113962,124.8918664,https://maps.google.com/?cid=0x0:0xafa844de6ad08969,
perumahan,perumahan,Alo kore,"VVJM+QH7, Lidak, Kec. Atambua Sel., Kabupaten Belu, Nusa Tenggara Tim.","Kabupaten Belu, Nusa Tenggara Tim.",NUSA TENGGARA TIMUR,,Indonesia,,,,-9.1180982,124.8839374,https://maps.google.com/?cid=0x0:0xd44e218d4b18fb11,
perumahan,Pembangunan Perumahan,Lolowa Residence,"VVHM+VG9, Lidak, Kec. Atambua Sel., Kabupaten Belu, Nusa Tenggara Tim.","Kabupaten Belu, Nusa Tenggara Tim.",NUSA TENGGARA TIMUR,,Indonesia,81212129820.0,,,-9.1203331,124.883872,https://maps.google.com/?cid=0x0:0xc176e4f9b733a0e1,
perumahan,perumahan,Rumah Bapa Florindo,"VVFW+W67, Fatukbot, Kec. Atambua Sel., Kabupaten Belu, Nusa Tenggara Tim.","Kabupaten Belu, Nusa Tenggara Tim.",NUSA TENGGARA TIMUR,,Indonesia,81339050860.0,,,-9.1252235,124.8955394,https://maps.google.com/?cid=0x0:0x6ea53364b31ee741,
perumahan,Kompleks Apartemen,Kost Kuning,"VVJP+758, Jl. Beringin, Lidak, Kec. Atambua Sel., Kabupaten Belu, Nusa Tenggara Tim.","Kabupaten Belu, Nusa Tenggara Tim.",NUSA TENGGARA TIMUR,,Indonesia,,,,-9.119326,124.8854622,https://maps.google.com/?cid=0x0:0xfda0570f9f967891,
perumahan,Penginapan,Rumah Fitri Radja,"VVMP+MJM, Jl. Meo Abekunatun, Manuaman, Kec. Atambua Sel., Kabupaten Belu, Nusa Tenggara Tim.","Kabupaten Belu, Nusa Tenggara Tim.",NUSA TENGGARA TIMUR,,Indonesia,,,,-9.1157857,124.8865444,https://maps.google.com/?cid=0x0:0xa837c90e1ae92a9c,
perumahan,Pembangunan Perumahan,Fohomea,"VVQR+5P8, Jalan Raya, Atambua, Kota Atambua, Belu Regency, East Nusa Tenggara","Kabupaten Belu, Nusa Tenggara Tim.",NUSA TENGGARA TIMUR,,Indonesia,,,,-9.1120971,124.8918212,https://maps.google.com/?cid=0x0:0xc900ad9ec48d7428,
perumahan,Rumah Kayu,Rumah Dinas Imigrasi Atambua,"VVGQ+VJR, Jl. Raya Atambua, Lidak, Kec. Atambua Sel., Kabupaten Belu, Nusa Tenggara Tim.","Kabupaten Belu, Nusa Tenggara Tim.",NUSA TENGGARA TIMUR,,Indonesia,,,,-9.122753,124.889013,https://maps.google.com/?cid=0x0:0xec4d6be0285d3c5b,
perumahan,Komplek perumahan,"Lafaekfera, Km 2. Atambua-Belu-NTT","VVGM+C78, Jl. Prof. Dr. Soepomo, RT.17/RW.003, Lidak, Kec. Atambua Sel., Kabupaten Belu, Nusa Tenggara Tim.","Kabupaten Belu, Nusa Tenggara Tim.",NUSA TENGGARA TIMUR,,Indonesia,,,,-9.1239589,124.8832129,https://maps.google.com/?cid=0x0:0x35f00871319da616,
perumahan,Komplek perumahan,Sasando Gang,"VVPP+36Q, Manuaman, Kec. Atambua Sel., Kabupaten Belu, Nusa Tenggara Tim.","Kabupaten Belu, Nusa Tenggara Tim.",NUSA TENGGARA TIMUR,,Indonesia,,,,-9.1147982,124.8856108,https://maps.google.com/?cid=0x0:0x734ec2f02076810f,
perumahan,Komplek perumahan,Rumah Del Hale,"VVMM+7M3, Jl. Soepomo, RT.014/RW.003, Manuaman, Kec. Atambua Sel., Kabupaten Belu, Nusa Tenggara Tim.","Kabupaten Belu, Nusa Tenggara Tim.",NUSA TENGGARA TIMUR,,Indonesia,,,,-9.1168591,124.8841872,https://maps.google.com/?cid=0x0:0xf7580237764935c3,
perumahan,Komplek perumahan,Erick Nggere,"VVHJ+JX9, Lidak, Kec. Atambua Sel., Kabupaten Belu, Nusa Tenggara Tim.","Kabupaten Belu, Nusa Tenggara Tim.",NUSA TENGGARA TIMUR,,Indonesia,,,,-9.1209704,124.8824691,https://maps.google.com/?cid=0x0:0x169e41fd32bfc1e1,
perumahan,Komplek perumahan,Rumah Pak Omesh,"VVGP+CWM, Lidak, Kec. Atambua Sel., Kabupaten Belu, Nusa Tenggara Tim.","Kabupaten Belu, Nusa Tenggara Tim.",NUSA TENGGARA TIMUR,,Indonesia,,,,-9.1243356,124.8865385,https://maps.google.com/?cid=0x0:0xd3d90fcf49530cf1,
perumahan,Komplek perumahan,Flipper Gantelar Atambua,"Manuaman, Kec. Atambua Sel., Kabupaten Belu, Nusa Tenggara Tim.","Kabupaten Belu, Nusa Tenggara Tim.",NUSA TENGGARA TIMUR,,Indonesia,,,,-9.1111557,124.8843637,https://maps.google.com/?cid=0x0:0xa4df33624511263e,
perumahan,Komplek perumahan,Rumah Nodja Nahak,"VVQV+WXR, Jl. Yohanes Luan, Atambua, Kec. Kota Atambua, Kabupaten Belu, Nusa Tenggara Tim.","Kabupaten Belu, Nusa Tenggara Tim.",NUSA TENGGARA TIMUR,,Indonesia,,,,-9.1100095,124.8945794,https://maps.google.com/?cid=0x0:0xd6ee3a8b97ce2e1b,
perumahan,Pembangunan Perumahan,Haliren Faustin Gank,"VVJJ+Q7G, Manuaman, Kec. Atambua Sel., Kabupaten Belu, Nusa Tenggara Tim.","Kabupaten Belu, Nusa Tenggara Tim.",NUSA TENGGARA TIMUR,,Indonesia,,,,-9.1180704,124.8806939,https://maps.google.com/?cid=0x0:0x3c0573112445b2cf,
perumahan,Komplek perumahan,Haliren gapura,"VVJJ+P6Q, Manuaman, Kec. Atambua Sel., Kabupaten Belu, Nusa Tenggara Tim.","Kabupaten Belu, Nusa Tenggara Tim.",NUSA TENGGARA TIMUR,,Indonesia,,,,-9.1181595,124.8805993,https://maps.google.com/?cid=0x0:0x44205dc2283b037f,
perumahan,perumahan,Kec. Atambua Sel.,"Kabupaten Belu, Nusa Tenggara Tim.","Kabupaten Belu, Nusa Tenggara Tim.",NUSA TENGGARA TIMUR,,Indonesia,,,,-9.1175232,124.8894228,https://maps.google.com/?cid=0x0:0xad40ab1fc8bc6e83,
perumahan,Komplek perumahan,Perumahan Bukit Emas Wekatimun,"WV2F+7R8, Jl. Dr. G. A. Siwabessyy, Umanen, Kec. Atambua Bar., Kabupaten Belu, Nusa Tenggara Tim.","Kabupaten Belu, Nusa Tenggara Tim.",NUSA TENGGARA TIMUR,,Indonesia,81234666635.0,,,-9.0993472,124.8745858,https://maps.google.com/?cid=0x0:0x2ff65776b8d7f39e,
perumahan,Pembangunan Perumahan,Perumahan Puri Mas Atambua,"VV6H+HP2, Tukuneno, Kec. Tasifeto Bar., Kabupaten Belu, Nusa Tenggara Tim.","Kabupaten Belu, Nusa Tenggara Tim.",NUSA TENGGARA TIMUR,,Indonesia,,,,-9.1385603,124.8793865,https://maps.google.com/?cid=0x0:0x237a1d233855bba1,
perumahan,Komplek perumahan,Rumah,"VVJM+W29, Jl. Meo Abekunatun, Lidak, Kec. Atambua Sel., Kabupaten Belu, Nusa Tenggara Tim.","Kabupaten Belu, Nusa Tenggara Tim.",NUSA TENGGARA TIMUR,,Indonesia,,,,-9.118377,124.882581,https://maps.google.com/?cid=0x0:0x8da56442278d6ac4,
perumahan,Komplek perumahan,Reva Atok Home,"VVMM+JH7, Manuaman, Kec. Atambua Sel., Kabupaten Belu, Nusa Tenggara Tim.","Kabupaten Belu, Nusa Tenggara Tim.",NUSA TENGGARA TIMUR,,Indonesia,,,,-9.1159639,124.8839357,https://maps.google.com/?cid=0x0:0xf6e208b8041597c5,
perumahan,Perhimpunan Pengembang Perumahan,Djumone,"VVMQ+97Q, Rinbesi, Kec. Atambua Sel., Kabupaten Belu, Nusa Tenggara Tim.","Kabupaten Belu, Nusa Tenggara Tim.",NUSA TENGGARA TIMUR,,Indonesia,,,,-9.1165475,124.8882202,https://maps.google.com/?cid=0x0:0x431e8c1e06d07daa,
perumahan,Pembangunan Perumahan,Lolowa Residence,"VVHM+VG9, Lidak, Kec. Atambua Sel., Kabupaten Belu, Nusa Tenggara Tim.","Kabupaten Belu, Nusa Tenggara Tim.",NUSA TENGGARA TIMUR,,Indonesia,81212129820.0,,,-9.1203331,124.883872,https://maps.google.com/?cid=0x0:0xc176e4f9b733a0e1,
perumahan,Komplek perumahan,"Lafaekfera, Km 2. Atambua-Belu-NTT","VVGM+C78, Jl. Prof. Dr. Soepomo, RT.17/RW.003, Lidak, Kec. Atambua Sel., Kabupaten Belu, Nusa Tenggara Tim.","Kabupaten Belu, Nusa Tenggara Tim.",NUSA TENGGARA TIMUR,,Indonesia,,,,-9.1239589,124.8832129,https://maps.google.com/?cid=0x0:0x35f00871319da616,
perumahan,Komplek perumahan,Perumahan Dinas Lapas Atambua,"VVFQ+459, Jl. Ja Soeprapto Jl. Raya Atambua, Lidak, Kec. Atambua Sel., Kabupaten Belu, Nusa Tenggara Tim.","Kabupaten Belu, Nusa Tenggara Tim.",NUSA TENGGARA TIMUR,,Indonesia,,,,-9.1259067,124.8882313,https://maps.google.com/?cid=0x0:0x302e97fcf9079341,
perumahan,Komplek perumahan,Rumah Bpk. Ignatius Ikun,"VVPV+P64, Jl. Apodeti, Rinbesi, Kec. Atambua Sel., Kabupaten Belu, Nusa Tenggara Tim.","Kabupaten Belu, Nusa Tenggara Tim.",NUSA TENGGARA TIMUR,,Indonesia,,,,-9.1132402,124.8930738,https://maps.google.com/?cid=0x0:0x3b91f795acf5c9e3,
perumahan,perumahan,Kilo 1,"VVQR+CQC, Rinbesi, Kec. Atambua Sel., Kabupaten Belu, Nusa Tenggara Tim.","Kabupaten Belu, Nusa Tenggara Tim.",NUSA TENGGARA TIMUR,,Indonesia,,,,-9.1113962,124.8918664,https://maps.google.com/?cid=0x0:0xafa844de6ad08969,
perumahan,Rumah Kayu,Rumah Atambu,"VVQQ+2G4, Rinbesi, Kec. Atambua Sel., Kabupaten Belu, Nusa Tenggara Tim.","Kabupaten Belu, Nusa Tenggara Tim.",NUSA TENGGARA TIMUR,,Indonesia,,,,-9.1127105,124.8889652,https://maps.google.com/?cid=0x0:0xcffa0ae912b5c456,
perumahan,perumahan,grace,"VVHR+M38, Lidak, Kec. Atambua Sel., Kabupaten Belu, Nusa Tenggara Tim.","Kabupaten Belu, Nusa Tenggara Tim.",NUSA TENGGARA TIMUR,,Indonesia,,,,-9.1208324,124.8902133,https://maps.google.com/?cid=0x0:0xe02432e1180ed495,
perumahan,Rumah Kayu,Rumah Dinas Imigrasi Atambua,"VVGQ+VJR, Jl. Raya Atambua, Lidak, Kec. Atambua Sel., Kabupaten Belu, Nusa Tenggara Tim.","Kabupaten Belu, Nusa Tenggara Tim.",NUSA TENGGARA TIMUR,,Indonesia,,,,-9.122753,124.889013,https://maps.google.com/?cid=0x0:0xec4d6be0285d3c5b,
perumahan,Penginapan,Rumah Fitri Radja,"VVMP+MJM, Jl. Meo Abekunatun, Manuaman, Kec. Atambua Sel., Kabupaten Belu, Nusa Tenggara Tim.","Kabupaten Belu, Nusa Tenggara Tim.",NUSA TENGGARA TIMUR,,Indonesia,,,,-9.1157857,124.8865444,https://maps.google.com/?cid=0x0:0xa837c90e1ae92a9c,
perumahan,Komplek perumahan,Rumah Tae Gaspar,"VVPP+38M, Manuaman, Kec. Atambua Sel., Kabupaten Belu, Nusa Tenggara Tim.","Kabupaten Belu, Nusa Tenggara Tim.",NUSA TENGGARA TIMUR,,Indonesia,,,,-9.1149931,124.8859376,https://maps.google.com/?cid=0x0:0xc0c58c10e6495248,
perumahan,Pembangunan Perumahan,Rumah syprianus manek asa,"VVQR+45P, Rinbesi, Kec. Atambua Sel., Kabupaten Belu, Nusa Tenggara Tim.","Kabupaten Belu, Nusa Tenggara Tim.",NUSA TENGGARA TIMUR,,Indonesia,,,,-9.1121732,124.8904672,https://maps.google.com/?cid=0x0:0xe114d36e76d1ec61,
perumahan,Komplek perumahan,Erick Nggere,"VVHJ+JX9, Lidak, Kec. Atambua Sel., Kabupaten Belu, Nusa Tenggara Tim.","Kabupaten Belu, Nusa Tenggara Tim.",NUSA TENGGARA TIMUR,,Indonesia,,,,-9.1209704,124.8824691,https://maps.google.com/?cid=0x0:0x169e41fd32bfc1e1,
perumahan,Komplek perumahan,Rumah Tinggal,"VVHM+G29, Lidak, Kec. Atambua Sel., Kabupaten Belu, Nusa Tenggara Tim.","Kabupaten Belu, Nusa Tenggara Tim.",NUSA TENGGARA TIMUR,,Indonesia,,,,-9.1212211,124.8826182,https://maps.google.com/?cid=0x0:0xbc7621fd6180e63d,
perumahan,Komplek perumahan,Sasando Gang,"VVPP+36Q, Manuaman, Kec. Atambua Sel., Kabupaten Belu, Nusa Tenggara Tim.","Kabupaten Belu, Nusa Tenggara Tim.",NUSA TENGGARA TIMUR,,Indonesia,,,,-9.1147982,124.8856108,https://maps.google.com/?cid=0x0:0x734ec2f02076810f,
perumahan,Komplek perumahan,Flipper Gantelar Atambua,"Manuaman, Kec. Atambua Sel., Kabupaten Belu, Nusa Tenggara Tim.","Kabupaten Belu, Nusa Tenggara Tim.",NUSA TENGGARA TIMUR,,Indonesia,,,,-9.1111557,124.8843637,https://maps.google.com/?cid=0x0:0xa4df33624511263e,
perumahan,Komplek perumahan,Ibu fin,"VVMQ+WM4, Jl. No Amalo, Rinbesi, Kec. Atambua Sel., Kabupaten Belu, Nusa Tenggara Tim.","Kabupaten Belu, Nusa Tenggara Tim.",NUSA TENGGARA TIMUR,,Indonesia,,,,-9.1152413,124.8892103,https://maps.google.com/?cid=0x0:0xb36e0601591b2dbd,
perumahan,Komplek perumahan,Rumah Pak Omesh,"VVGP+CWM, Lidak, Kec. Atambua Sel., Kabupaten Belu, Nusa Tenggara Tim.","Kabupaten Belu, Nusa Tenggara Tim.",NUSA TENGGARA TIMUR,,Indonesia,,,,-9.1243356,124.8865385,https://maps.google.com/?cid=0x0:0xd3d90fcf49530cf1,
perumahan,Komplek perumahan,Rumah Erlin Nahak,"VVHP+M6J, Jl. Raya Lolowa, Lidak, Kec. Atambua Sel., Kabupaten Belu, Nusa Tenggara Tim.","Kabupaten Belu, Nusa Tenggara Tim.",NUSA TENGGARA TIMUR,,Indonesia,,,,-9.1219847,124.8862739,https://maps.google.com/?cid=0x0:0xaa1fc22f5e34bd4d,
perumahan,Komplek perumahan,Rumah Pak Yohanes Luan,"VVHP+WW6, Lidak, Kec. Atambua Sel., Kabupaten Belu, Nusa Tenggara Tim.","Kabupaten Belu, Nusa Tenggara Tim.",NUSA TENGGARA TIMUR,,Indonesia,,,,-9.1202131,124.8872758,https://maps.google.com/?cid=0x0:0xf0fccd7a0e15006e,
perumahan,perumahan,Rumah Bapa Florindo,"VVFW+W67, Fatukbot, Kec. Atambua Sel., Kabupaten Belu, Nusa Tenggara Tim.","Kabupaten Belu, Nusa Tenggara Tim.",NUSA TENGGARA TIMUR,,Indonesia,81339050860.0,,,-9.1252235,124.8955394,https://maps.google.com/?cid=0x0:0x6ea53364b31ee741,
perumahan,perumahan,Kec. Atambua Sel.,"Kabupaten Belu, Nusa Tenggara Tim.","Kabupaten Belu, Nusa Tenggara Tim.",NUSA TENGGARA TIMUR,,Indonesia,,,,-9.1175232,124.8894228,https://maps.google.com/?cid=0x0:0xad40ab1fc8bc6e83,
perumahan,Pembangunan Perumahan,Lolowa Residence,"VVHM+VG9, Lidak, Kec. Atambua Sel., Kabupaten Belu, Nusa Tenggara Tim.","Kabupaten Belu, Nusa Tenggara Tim.",NUSA TENGGARA TIMUR,,Indonesia,81212129820.0,,,-9.1203331,124.883872,https://maps.google.com/?cid=0x0:0xc176e4f9b733a0e1,
perumahan,perumahan,grace,"VVHR+M38, Lidak, Kec. Atambua Sel., Kabupaten Belu, Nusa Tenggara Tim.","Kabupaten Belu, Nusa Tenggara Tim.",NUSA TENGGARA TIMUR,,Indonesia,,,,-9.1208324,124.8902133,https://maps.google.com/?cid=0x0:0xe02432e1180ed495,
perumahan,Komplek perumahan,"Lafaekfera, Km 2. Atambua-Belu-NTT","VVGM+C78, Jl. Prof. Dr. Soepomo, RT.17/RW.003, Lidak, Kec. Atambua Sel., Kabupaten Belu, Nusa Tenggara Tim.","Kabupaten Belu, Nusa Tenggara Tim.",NUSA TENGGARA TIMUR,,Indonesia,,,,-9.1239589,124.8832129,https://maps.google.com/?cid=0x0:0x35f00871319da616,
perumahan,Komplek perumahan,Reva Atok Home,"VVMM+JH7, Manuaman, Kec. Atambua Sel., Kabupaten Belu, Nusa Tenggara Tim.","Kabupaten Belu, Nusa Tenggara Tim.",NUSA TENGGARA TIMUR,,Indonesia,,,,-9.1159639,124.8839357,https://maps.google.com/?cid=0x0:0xf6e208b8041597c5,
perumahan,Komplek perumahan,Rumah cantik,"VVPP+45X, Manuaman, Kec. Atambua Sel., Kabupaten Belu, Nusa Tenggara Tim.","Kabupaten Belu, Nusa Tenggara Tim.",NUSA TENGGARA TIMUR,,Indonesia,,,,-9.1146423,124.885474,https://maps.google.com/?cid=0x0:0x74c964ac08cc959c,
perumahan,perumahan,Rumah Bapa Florindo,"VVFW+W67, Fatukbot, Kec. Atambua Sel., Kabupaten Belu, Nusa Tenggara Tim.","Kabupaten Belu, Nusa Tenggara Tim.",NUSA TENGGARA TIMUR,,Indonesia,81339050860.0,,,-9.1252235,124.8955394,https://maps.google.com/?cid=0x0:0x6ea53364b31ee741,
perumahan,Perhimpunan Pengembang Perumahan,Djumone,"VVMQ+97Q, Rinbesi, Kec. Atambua Sel., Kabupaten Belu, Nusa Tenggara Tim.","Kabupaten Belu, Nusa Tenggara Tim.",NUSA TENGGARA TIMUR,,Indonesia,,,,-9.1165475,124.8882202,https://maps.google.com/?cid=0x0:0x431e8c1e06d07daa,
perumahan,Rumah Kayu,Rumah Dinas Imigrasi Atambua,"VVGQ+VJR, Jl. Raya Atambua, Lidak, Kec. Atambua Sel., Kabupaten Belu, Nusa Tenggara Tim.","Kabupaten Belu, Nusa Tenggara Tim.",NUSA TENGGARA TIMUR,,Indonesia,,,,-9.122753,124.889013,https://maps.google.com/?cid=0x0:0xec4d6be0285d3c5b,
perumahan,Komplek perumahan,Perumahan Dinas Lapas Atambua,"VVFQ+459, Jl. Ja Soeprapto Jl. Raya Atambua, Lidak, Kec. Atambua Sel., Kabupaten Belu, Nusa Tenggara Tim.","Kabupaten Belu, Nusa Tenggara Tim.",NUSA TENGGARA TIMUR,,Indonesia,,,,-9.1259067,124.8882313,https://maps.google.com/?cid=0x0:0x302e97fcf9079341,
perumahan,Pembangunan Perumahan,Fohomea,"VVQR+5P8, Jalan Raya, Atambua, Kota Atambua, Belu Regency, East Nusa Tenggara","Kabupaten Belu, Nusa Tenggara Tim.",NUSA TENGGARA TIMUR,,Indonesia,,,,-9.1120971,124.8918212,https://maps.google.com/?cid=0x0:0xc900ad9ec48d7428,
perumahan,Komplek perumahan,Sasando Gang,"VVPP+36Q, Manuaman, Kec. Atambua Sel., Kabupaten Belu, Nusa Tenggara Tim.","Kabupaten Belu, Nusa Tenggara Tim.",NUSA TENGGARA TIMUR,,Indonesia,,,,-9.1147982,124.8856108,https://maps.google.com/?cid=0x0:0x734ec2f02076810f,
perumahan,Penginapan,Rumah Fitri Radja,"VVMP+MJM, Jl. Meo Abekunatun, Manuaman, Kec. Atambua Sel., Kabupaten Belu, Nusa Tenggara Tim.","Kabupaten Belu, Nusa Tenggara Tim.",NUSA TENGGARA TIMUR,,Indonesia,,,,-9.1157857,124.8865444,https://maps.google.com/?cid=0x0:0xa837c90e1ae92a9c,
perumahan,perumahan,Kilo 1,"VVQR+CQC, Rinbesi, Kec. Atambua Sel., Kabupaten Belu, Nusa Tenggara Tim.","Kabupaten Belu, Nusa Tenggara Tim.",NUSA TENGGARA TIMUR,,Indonesia,,,,-9.1113962,124.8918664,https://maps.google.com/?cid=0x0:0xafa844de6ad08969,
perumahan,Komplek perumahan,Flipper Gantelar Atambua,"Manuaman, Kec. Atambua Sel., Kabupaten Belu, Nusa Tenggara Tim.","Kabupaten Belu, Nusa Tenggara Tim.",NUSA TENGGARA TIMUR,,Indonesia,,,,-9.1111557,124.8843637,https://maps.google.com/?cid=0x0:0xa4df33624511263e,
perumahan,Komplek perumahan,Rumah Tae Gaspar,"VVPP+38M, Manuaman, Kec. Atambua Sel., Kabupaten Belu, Nusa Tenggara Tim.","Kabupaten Belu, Nusa Tenggara Tim.",NUSA TENGGARA TIMUR,,Indonesia,,,,-9.1149931,124.8859376,https://maps.google.com/?cid=0x0:0xc0c58c10e6495248,
perumahan,Komplek perumahan,Antonio Barros,"VVPM+4JV, Jl. Loro Lamaknen, Manuaman, Kec. Atambua Sel., Kabupaten Belu, Nusa Tenggara Tim.","Kabupaten Belu, Nusa Tenggara Tim.",NUSA TENGGARA TIMUR,,Indonesia,,,,-9.1146256,124.8840353,https://maps.google.com/?cid=0x0:0x85946b65d9d0af46,
perumahan,Komplek perumahan,Rumah Bpk. Ignatius Ikun,"VVPV+P64, Jl. Apodeti, Rinbesi, Kec. Atambua Sel., Kabupaten Belu, Nusa Tenggara Tim.","Kabupaten Belu, Nusa Tenggara Tim.",NUSA TENGGARA TIMUR,,Indonesia,,,,-9.1132402,124.8930738,https://maps.google.com/?cid=0x0:0x3b91f795acf5c9e3,
perumahan,Komplek perumahan,Rumah Pak Yohanes Luan,"VVHP+WW6, Lidak, Kec. Atambua Sel., Kabupaten Belu, Nusa Tenggara Tim.","Kabupaten Belu, Nusa Tenggara Tim.",NUSA TENGGARA TIMUR,,Indonesia,,,,-9.1202131,124.8872758,https://maps.google.com/?cid=0x0:0xf0fccd7a0e15006e,
perumahan,Kompleks Kondominium,Rumah Argentina,"VVGM+RFW, Lidak, Kec. Atambua Sel., Kabupaten Belu, Nusa Tenggara Tim.","Kabupaten Belu, Nusa Tenggara Tim.",NUSA TENGGARA TIMUR,,Indonesia,,,,-9.1223212,124.8849152,https://maps.google.com/?cid=0x0:0x4aabaa52f2743348,
perumahan,Komplek perumahan,Erick Nggere,"VVHJ+JX9, Lidak, Kec. Atambua Sel., Kabupaten Belu, Nusa Tenggara Tim.","Kabupaten Belu, Nusa Tenggara Tim.",NUSA TENGGARA TIMUR,,Indonesia,,,,-9.1209704,124.8824691,https://maps.google.com/?cid=0x0:0x169e41fd32bfc1e1,
perumahan,perumahan,Kec. Kakuluk Mesak,"Kabupaten Belu, Nusa Tenggara Tim.","Kabupaten Belu, Nusa Tenggara Tim.",NUSA TENGGARA TIMUR,,Indonesia,,,,-9.0383086,124.8379002,https://maps.google.com/?cid=0x0:0x9874076652f0ab06,
perumahan,Pembangunan Perumahan,Wekiar,"XRMM+GWW, Dualaus, Kec. Kakuluk Mesak, Kabupaten Belu, Nusa Tenggara Tim.","Kabupaten Belu, Nusa Tenggara Tim.",NUSA TENGGARA TIMUR,,Indonesia,,,,-9.0161252,124.834821,https://maps.google.com/?cid=0x0:0x50633ffb20759a2c,
perumahan,Perhimpunan Pengembang Perumahan,Sorosikun Raelio,"WW66+C23, Fatubenao, Kec. Kota Atambua, Kabupaten Belu, Nusa Tenggara Tim.","Kabupaten Belu, Nusa Tenggara Tim.",NUSA TENGGARA TIMUR,,Indonesia,,,,-9.0889887,124.9100577,https://maps.google.com/?cid=0x0:0x221db3b686600c76,
perumahan,Komplek perumahan,Lesepu,"WW73+FRV, Jl. Raya Bandara, Manumutin, Kec. Kota Atambua, Kabupaten Belu, Nusa Tenggara Tim.","Kabupaten Belu, Nusa Tenggara Tim.",NUSA TENGGARA TIMUR,,Indonesia,,,,-9.0804669,124.8970889,https://maps.google.com/?cid=0x0:0x924088714f7ad183,
perumahan,Komplek perumahan,Dusun BAUTASIK,"WWV9+C53, Jl. Marsda Adi Sucipto, Bautasik, Kabuna, Kec. Kakuluk Mesak, Kabupaten Belu, Nusa Tenggara Tim.","Kabupaten Belu, Nusa Tenggara Tim.",NUSA TENGGARA TIMUR,,Indonesia,,,,-9.0541842,124.9207143,https://maps.google.com/?cid=0x0:0xe16f62b49f2061c0,
perumahan,Pembangunan Perumahan,Bantuan Perumahan Murah Dualaus,"XR6H+VX5, Dualaus, Kec. Kakuluk Mesak, Kabupaten Belu, Nusa Tenggara Tim.","Kabupaten Belu, Nusa Tenggara Tim.",NUSA TENGGARA TIMUR,,Indonesia,,,,-9.0378587,124.8299923,https://maps.google.com/?cid=0x0:0x5cf1bc7e07512ff4,
perumahan,Komplek perumahan,Asurakat,"WVQV+QX, Kabuna, Kec. Kakuluk Mesak, Kabupaten Belu, Nusa Tenggara Tim.","Kabupaten Belu, Nusa Tenggara Tim.",NUSA TENGGARA TIMUR,,Indonesia,,,,-9.060563,124.894979,https://maps.google.com/?cid=0x0:0x2486031d5477498e,
perumahan,Pembangunan Perumahan,My home,"2V48+J89, Jenilu, Kec. Kakuluk Mesak, Kabupaten Belu, Nusa Tenggara Tim.","Kabupaten Belu, Nusa Tenggara Tim.",NUSA TENGGARA TIMUR,,Indonesia,,,,-8.9922003,124.8660711,https://maps.google.com/?cid=0x0:0x51dd706d4825c715,
perumahan,Komplek perumahan,Rumah Agus Gomes (Gank Hudilaran_Maubarence99),"XR6R+G9F, Dualaus, Kec. Kakuluk Mesak, Kabupaten Belu, Nusa Tenggara Tim.","Kabupaten Belu, Nusa Tenggara Tim.",NUSA TENGGARA TIMUR,,Indonesia,,,,-9.039279,124.8411434,https://maps.google.com/?cid=0x0:0x985d7d04b0ce5127,
perumahan,Komplek perumahan,Manubure2006,"WWM3+347, Unnamed Road, Kabuna, Kakuluk Mesak, Belu Regency, East Nusa Tenggara","Kabupaten Belu, Nusa Tenggara Tim.",NUSA TENGGARA TIMUR,,Indonesia,,,,-9.0673349,124.902796,https://maps.google.com/?cid=0x0:0x30843897ac7e673e,
perumahan,Pembangunan Perumahan,Rumah Bpk. Marsel Heuk,"2V8H+XV2, Jl. Ki Hajar Dewantara, Kenebibi, Kec. Kakuluk Mesak, Kabupaten Belu, Nusa Tenggara Tim.","Kabupaten Belu, Nusa Tenggara Tim.",NUSA TENGGARA TIMUR,,Indonesia,,,,-8.9822334,124.8797334,https://maps.google.com/?cid=0x0:0x234df61004b7327a,
perumahan,perumahan,Haliwen Residence Blok A,"WWJ5+6HC, Kabuna, Kec. Kakuluk Mesak, Kabupaten Belu, Nusa Tenggara Tim.","Kabupaten Belu, Nusa Tenggara Tim.",NUSA TENGGARA TIMUR,,Indonesia,,,,-9.0694298,124.9088769,https://maps.google.com/?cid=0x0:0xf144ff27014bbdd7,
perumahan,Pembangunan Perumahan,Weraihanek 2,"WWH7+9XQ, Kabuna, Kec. Kakuluk Mesak, Kabupaten Belu, Nusa Tenggara Tim.","Kabupaten Belu, Nusa Tenggara Tim.",NUSA TENGGARA TIMUR,,Indonesia,,,,-9.0715381,124.914995,https://maps.google.com/?cid=0x0:0xab8033fde0626b77,
perumahan,Komplek perumahan,Wekiar casa de gra√ßa,"XRFX+4JH, Jl. Sosial, Dualaus, Kec. Kakuluk Mesak, Kabupaten Belu, Nusa Tenggara Tim.","Kabupaten Belu, Nusa Tenggara Tim.",NUSA TENGGARA TIMUR,,Indonesia,81337443093.0,,,-9.0271905,124.8491223,https://maps.google.com/?cid=0x0:0x3df9e0a34b2f5e5b,
perumahan,Komplek perumahan,"Rumah Gama, Manubaun Bawah","WWP8+PJ8, Kabuna, Kec. Kakuluk Mesak, Kabupaten Belu, Nusa Tenggara Tim.","Kabupaten Belu, Nusa Tenggara Tim.",NUSA TENGGARA TIMUR,,Indonesia,,,,-9.0632172,124.9165757,https://maps.google.com/?cid=0x0:0x7b2cfb6e3a2c74b1,
perumahan,Komplek perumahan,Romanus Mau Billi,"WWC7+PH, Kabuna, Kec. Kakuluk Mesak, Kabupaten Belu, Nusa Tenggara Tim.","Kabupaten Belu, Nusa Tenggara Tim.",NUSA TENGGARA TIMUR,,Indonesia,,,,-9.0781971,124.913957,https://maps.google.com/?cid=0x0:0xf787cc10cc7ff1ed,
perumahan,Pembangunan Perumahan,Decky's House,"XRHR+7JQ, Jl. Raya Atapupu, Dualaus, Kec. Kakuluk Mesak, Kabupaten Belu, Nusa Tenggara Tim.","Kabupaten Belu, Nusa Tenggara Tim.",NUSA TENGGARA TIMUR,,Indonesia,,,,-9.0217922,124.841616,https://maps.google.com/?cid=0x0:0x441a470a69ec3557,
perumahan,Komplek perumahan,ACF GANG,"2V9J+43V, Jl. Nasional Trans Timor, Kenebibi, Kec. Kakuluk Mesak, Kabupaten Belu, Nusa Tenggara Tim.","Kabupaten Belu, Nusa Tenggara Tim.",NUSA TENGGARA TIMUR,,Indonesia,,,,-8.982147,124.8801704,https://maps.google.com/?cid=0x0:0xc0b1256105acf747,
perumahan,Komplek perumahan,Manuel Malikau,"WWH6+R2R, Kabuna, Kec. Kakuluk Mesak, Kabupaten Belu, Nusa Tenggara Tim.","Kabupaten Belu, Nusa Tenggara Tim.",NUSA TENGGARA TIMUR,,Indonesia,,,,-9.0703855,124.9100304,https://maps.google.com/?cid=0x0:0xe52259fa6e791906,
perumahan,Perhimpunan Pengembang Perumahan,Start Jln. Usaha Tani,"WRQH+7X, Fatukety, Kec. Kakuluk Mesak, Kabupaten Belu, Nusa Tenggara Tim.","Kabupaten Belu, Nusa Tenggara Tim.",NUSA TENGGARA TIMUR,,Indonesia,,,,-9.0618558,124.8299013,https://maps.google.com/?cid=0x0:0x6605afc8a696d855,
perumahan,Pembangunan Perumahan,Rumah Mas zanu,"XRGR+QQW, Dualaus, Kec. Kakuluk Mesak, Kabupaten Belu, Nusa Tenggara Tim.","Kabupaten Belu, Nusa Tenggara Tim.",NUSA TENGGARA TIMUR,,Indonesia,,,,-9.0230074,124.8419434,https://maps.google.com/?cid=0x0:0x74899d9ec48e5e04,
perumahan,Komplek perumahan,Rumah kensan,"XRMM+GWW, Dualaus, Kec. Kakuluk Mesak, Kabupaten Belu, Nusa Tenggara Tim.","Kabupaten Belu, Nusa Tenggara Tim.",NUSA TENGGARA TIMUR,,Indonesia,,,,-9.0313331,124.8374479,https://maps.google.com/?cid=0x0:0x886a9d4e8dce6f9d,
perumahan,Pembangunan Perumahan,Lidwina Fouk and Yoseph Seran Residence,"XR7P+4RR, Lakafehan Jl. Nasional Trans Timor, Dualaus, Kakuluk Mesak, Belu Regency, East Nusa Tenggara","Kabupaten Belu, Nusa Tenggara Tim.",NUSA TENGGARA TIMUR,,Indonesia,,,,-9.0371319,124.8370048,https://maps.google.com/?cid=0x0:0xc661266ea6268a40,
perumahan,Pembangunan Perumahan,LUIS HOME,"XR6Q+9J4, Dualaus, Kec. Kakuluk Mesak, Kabupaten Belu, Nusa Tenggara Tim.","Kabupaten Belu, Nusa Tenggara Tim.",NUSA TENGGARA TIMUR,,Indonesia,,,,-9.0391035,124.8390714,https://maps.google.com/?cid=0x0:0x80c0344ff02e2fc2,
perumahan,Komplek perumahan,Lokasi rencana kegiatan Padat Karya,"WWJ6+324, Jl. Marsda Adi Sucipto Haliwen, Kabuna, Kec. Kakuluk Mesak, Kabupaten Belu, Nusa Tenggara Tim.","Kabupaten Belu, Nusa Tenggara Tim.",NUSA TENGGARA TIMUR,,Indonesia,,,,-9.0692135,124.910299,https://maps.google.com/?cid=0x0:0x36d66ae430d43de4,
perumahan,Perhimpunan Pengembang Perumahan,Sukabilaran,"WRQJ+6VQ, Fatukety, Kec. Kakuluk Mesak, Kabupaten Belu, Nusa Tenggara Tim.","Kabupaten Belu, Nusa Tenggara Tim.",NUSA TENGGARA TIMUR,,Indonesia,,,,-9.0618195,124.8313966,https://maps.google.com/?cid=0x0:0x1bf18595008fa519,
perumahan,Komplek perumahan,Rumah Nikodemus moruk,"2V8J+RWH, Kenebibi, Kec. Kakuluk Mesak, Kabupaten Belu, Nusa Tenggara Tim.","Kabupaten Belu, Nusa Tenggara Tim.",NUSA TENGGARA TIMUR,,Indonesia,,,,-8.9829481,124.882367,https://maps.google.com/?cid=0x0:0x8502c1683b11fb22,
perumahan,Komplek perumahan,Rumah Keluarga Naiusu,"WWF7+FJJ, Kabuna, Kec. Kakuluk Mesak, Kabupaten Belu, Nusa Tenggara Tim.","Kabupaten Belu, Nusa Tenggara Tim.",NUSA TENGGARA TIMUR,,Indonesia,,,,-9.076317,124.913941,https://maps.google.com/?cid=0x0:0x3166d1b0da17ee2f,
perumahan,Perhimpunan Pengembang Perumahan,Home kasim,"XVQH+CJ6, Jenilu, Kec. Kakuluk Mesak, Kabupaten Belu, Nusa Tenggara Tim.","Kabupaten Belu, Nusa Tenggara Tim.",NUSA TENGGARA TIMUR,,Indonesia,,,,-9.0114708,124.8790199,https://maps.google.com/?cid=0x0:0xabd70bd35c80a4c6,
perumahan,perumahan,Kec. Kota Atambua,"Kabupaten Belu, Nusa Tenggara Tim.","Kabupaten Belu, Nusa Tenggara Tim.",NUSA TENGGARA TIMUR,,Indonesia,,,,-9.1064894,124.8987786,https://maps.google.com/?cid=0x0:0xd204816086380b60,
perumahan,perumahan,Kilo 1,"VVQR+CQC, Rinbesi, Kec. Atambua Sel., Kabupaten Belu, Nusa Tenggara Tim.","Kabupaten Belu, Nusa Tenggara Tim.",NUSA TENGGARA TIMUR,,Indonesia,,,,-9.1113962,124.8918664,https://maps.google.com/?cid=0x0:0xafa844de6ad08969,
perumahan,Pembangunan Perumahan,Raimaten city,"VVVX+CG2, Atambua, Kec. Kota Atambua, Kabupaten Belu, Nusa Tenggara Tim.","Kabupaten Belu, Nusa Tenggara Tim.",NUSA TENGGARA TIMUR,,Indonesia,81376964451.0,,,-9.1064894,124.8987786,https://maps.google.com/?cid=0x0:0x610a95103e20ed41,
perumahan,Pembangunan Perumahan,Fohomea,"VVQR+5P8, Jalan Raya, Atambua, Kota Atambua, Belu Regency, East Nusa Tenggara","Kabupaten Belu, Nusa Tenggara Tim.",NUSA TENGGARA TIMUR,,Indonesia,,,,-9.1120971,124.8918212,https://maps.google.com/?cid=0x0:0xc900ad9ec48d7428,
perumahan,Komplek perumahan,Rumah Lani,"Jl. Ahmad Yani No.A, RW.No.10, Fatubenao, Kec. Kota Atambua, Kabupaten Belu, Nusa Tenggara Tim.","Kabupaten Belu, Nusa Tenggara Tim.",NUSA TENGGARA TIMUR,,Indonesia,,,,-9.11362,124.901251,https://maps.google.com/?cid=0x0:0xaa338d33c34e4875,
perumahan,Komplek perumahan,üè° AKBP. JOHNI D. MUSKANAN,"VVWV+MC3, Jl. Proklamasi, Berdao, Kec. Atambua Bar., Kabupaten Belu, Nusa Tenggara Tim.","Kabupaten Belu, Nusa Tenggara Tim.",NUSA TENGGARA TIMUR,,Indonesia,,,,-9.1033529,124.8935532,https://maps.google.com/?cid=0x0:0x289e67282b43aab7,
perumahan,Komplek perumahan,Rumah Refry Mau Loe,"VVVW+386, Atambua, Kec. Kota Atambua, Kabupaten Belu, Nusa Tenggara Tim.","Kabupaten Belu, Nusa Tenggara Tim.",NUSA TENGGARA TIMUR,,Indonesia,,,,-9.1073409,124.8957502,https://maps.google.com/?cid=0x0:0x986cfedf705faa2e,
perumahan,Komplek perumahan,Rumah Bpk. Ignatius Ikun,"VVPV+P64, Jl. Apodeti, Rinbesi, Kec. Atambua Sel., Kabupaten Belu, Nusa Tenggara Tim.","Kabupaten Belu, Nusa Tenggara Tim.",NUSA TENGGARA TIMUR,,Indonesia,,,,-9.1132402,124.8930738,https://maps.google.com/?cid=0x0:0x3b91f795acf5c9e3,
perumahan,Komplek perumahan,Zhill home,"VWR5+F89, Fatubenao, Kec. Kota Atambua, Kabupaten Belu, Nusa Tenggara Tim.","Kabupaten Belu, Nusa Tenggara Tim.",NUSA TENGGARA TIMUR,,Indonesia,,,,-9.108834,124.9083563,https://maps.google.com/?cid=0x0:0x41b493663d8df03f,
perumahan,Komplek perumahan,Rumah Anton M Tefbana,"VVQW+GV2, Fatubenao, Kec. Kota Atambua, Kabupaten Belu, Nusa Tenggara Tim.","Kabupaten Belu, Nusa Tenggara Tim.",NUSA TENGGARA TIMUR,,Indonesia,,,,-9.1116148,124.8974785,https://maps.google.com/?cid=0x0:0xec26b06047222e5,
perumahan,Komplek perumahan,Rumah Daud Banakameng,"VWV4+QH5, Fatubenao, Kec. Kota Atambua, Kabupaten Belu, Nusa Tenggara Tim.","Kabupaten Belu, Nusa Tenggara Tim.",NUSA TENGGARA TIMUR,,Indonesia,,,,-9.1056036,124.9064696,https://maps.google.com/?cid=0x0:0x48a63ccb9dd6f657,
perumahan,Perumahan,Lolowa,"VVVX+9FW, Atambua, Kec. Kota Atambua, Kabupaten Belu, Nusa Tenggara Tim.","Kabupaten Belu, Nusa Tenggara Tim.",NUSA TENGGARA TIMUR,,Indonesia,,,,-9.1065245,124.8987106,https://maps.google.com/?cid=0x0:0x6fdb3447678cf624,
perumahan,Komplek perumahan,Rumah Singgah,"VWP4+R8M A Kotaren, Fatubenao, Kec. Kota Atambua, Kabupaten Belu, Nusa Tenggara Tim.","Kabupaten Belu, Nusa Tenggara Tim.",NUSA TENGGARA TIMUR,,Indonesia,,,,-9.1129184,124.9057914,https://maps.google.com/?cid=0x0:0x3bd37e84c7825c87,
perumahan,Komplek perumahan,Rumah saya,"Jl. Ahmad Yani No.19a, Atambua, Kec. Kota Atambua, Kabupaten Belu, Nusa Tenggara Tim.","Kabupaten Belu, Nusa Tenggara Tim.",NUSA TENGGARA TIMUR,,Indonesia,,,,-9.104672,124.8995049,https://maps.google.com/?cid=0x0:0xef38c292f8cae201,
perumahan,Komplek perumahan,Anton Alo.A,"WW32+55F, Jl. Ki Hajar Dewantara, Tenukiik, Kec. Atambua Bar., Kabupaten Belu, Nusa Tenggara Tim.","Kabupaten Belu, Nusa Tenggara Tim.",NUSA TENGGARA TIMUR,,Indonesia,,,,-9.0970722,124.9004769,https://maps.google.com/?cid=0x0:0xb338f983e3ca0528,
perumahan,Komplek perumahan,RUMAH RANDY LOE,"Jl. Ahmad Yani No.A, RW.No.10, Fatubenao, Kec. Kota Atambua, Kabupaten Belu, Nusa Tenggara Tim.","Kabupaten Belu, Nusa Tenggara Tim.",NUSA TENGGARA TIMUR,,Indonesia,,,,-9.1135335,124.901183,https://maps.google.com/?cid=0x0:0xde4a2e448842a92c,
perumahan,Perhimpunan Pengembang Perumahan,Kota baru,"VVVX+9FW, Atambua, Kec. Kota Atambua, Kabupaten Belu, Nusa Tenggara Tim.","Kabupaten Belu, Nusa Tenggara Tim.",NUSA TENGGARA TIMUR,,Indonesia,,,,-9.1065244,124.8987106,https://maps.google.com/?cid=0x0:0xb8a19e40be73b8bc,
perumahan,Pembangunan Perumahan,Kos Mau Meta,"WW32+55F, Jl. Ki Hajar Dewantara, Tenukiik, Kec. Atambua Bar., Kabupaten Belu, Nusa Tenggara Tim.","Kabupaten Belu, Nusa Tenggara Tim.",NUSA TENGGARA TIMUR,,Indonesia,,,,-9.0968816,124.9005751,https://maps.google.com/?cid=0x0:0xf15889e1233da71a,
perumahan,Komplek perumahan,Weluli,"VVXR+H9H, Atambua, Berdao, Kec. Atambua Bar., Kabupaten Belu, Nusa Tenggara Tim.","Kabupaten Belu, Nusa Tenggara Tim.",NUSA TENGGARA TIMUR,,Indonesia,,,,-9.101069,124.890999,https://maps.google.com/?cid=0x0:0xa750be8f26ea81c1,
perumahan,Komplek perumahan,Rumah Inspirasi HCM (Helio Caetano Moniz),"Jl. Merdeka No.40, Atambua, Kec. Kota Atambua, Kabupaten Belu, Nusa Tenggara Tim. 85711","Atambua, Kec. Kota Atambua, Kabupaten Belu",NUSA TENGGARA TIMUR,85711.0,Indonesia,,,,-9.1081861,124.8982719,https://maps.google.com/?cid=0x0:0xd0ab8afb2301ece3,
perumahan,Pabean,PERUMAHAN BEA CUKAI ATAMBUA,"WWC3+J9V, Manumutin, Kec. Kota Atambua, Kabupaten Belu, Nusa Tenggara Tim.","Kabupaten Belu, Nusa Tenggara Tim.",NUSA TENGGARA TIMUR,,Indonesia,,,,-9.07788,124.9039115,https://maps.google.com/?cid=0x0:0xd4eccdf7de3ce31b,
perumahan,Komplek perumahan,ATAMBUA LINGKUNGAN TORO,"WV3M+PV9, Jl. Ave Maria, Tulamalae, Kec. Atambua Bar., Kabupaten Belu, Nusa Tenggara Tim.","Kabupaten Belu, Nusa Tenggara Tim.",NUSA TENGGARA TIMUR,,Indonesia,,,,-9.0957053,124.8847344,https://maps.google.com/?cid=0x0:0x97512997a6178490,
perumahan,Komplek perumahan,Rumah Dinas Kantor Pajak Lama,"Jl. Letjend Suprapto No.10, Atambua, Kec. Kota Atambua, Kabupaten Belu, Nusa Tenggara Tim.","Kabupaten Belu, Nusa Tenggara Tim.",NUSA TENGGARA TIMUR,,Indonesia,,,,-9.1082235,124.8944463,https://maps.google.com/?cid=0x0:0x3c5c0f81b9f40932,
perumahan,Komplek perumahan,Jo√£o Tavares Home,"Jalan Meo Baru Tenukiik, RT.9/RW.3, Tenukiik, Atambua Kota, Kab Belu Nusa Tenggara Timur NTT, Tenukiik, Kota Atambua, Belu Regency, East Nusa Tenggara 85711","RT.9/RW.3, Tenukiik, Atambua Kota, Kab Belu Nusa Tenggara Timur NTT, Tenukiik, Kota Atambua, Belu Regency",NUSA TENGGARA TIMUR,85711.0,Indonesia,,,,-9.0904577,124.8986034,https://maps.google.com/?cid=0x0:0x872a2e2eb3fee7d5,
perumahan,Komplek perumahan,Rumah Nodja Nahak,"VVQV+WXR, Jl. Yohanes Luan, Atambua, Kec. Kota Atambua, Kabupaten Belu, Nusa Tenggara Tim.","Kabupaten Belu, Nusa Tenggara Tim.",NUSA TENGGARA TIMUR,,Indonesia,,,,-9.1100095,124.8945794,https://maps.google.com/?cid=0x0:0xd6ee3a8b97ce2e1b,
perumahan,Pembangunan Perumahan,Atri,"WW32+7J7, Tenukiik, Kec. Kota Atambua, Kabupaten Belu, Nusa Tenggara Tim.","Kabupaten Belu, Nusa Tenggara Tim.",NUSA TENGGARA TIMUR,,Indonesia,,,,-9.0968315,124.9015422,https://maps.google.com/?cid=0x0:0x90496f75a5d69396,
perumahan,Apartemen sewa liburan,Rumah Kost Dedy Nahak,"VVRQ+CM6, Beirafu, Kec. Atambua Bar., Kabupaten Belu, Nusa Tenggara Tim.","Kabupaten Belu, Nusa Tenggara Tim.",NUSA TENGGARA TIMUR,,Indonesia,,,,-9.1088005,124.8889219,https://maps.google.com/?cid=0x0:0x2dbd84ed82b9d00,
perumahan,Pembangunan Perumahan,Rumah Dorce Manek,"VWQ4+RGV, Fatubenao, Kec. Kota Atambua, Kabupaten Belu, Nusa Tenggara Tim.","Kabupaten Belu, Nusa Tenggara Tim.",NUSA TENGGARA TIMUR,,Indonesia,,,,-9.1099754,124.9057598,https://maps.google.com/?cid=0x0:0xd8ffa290cf21bf05,
perumahan,Komplek perumahan,Rumah Oce Laka,"VWX3+6W5, Fatubenao, Kec. Kota Atambua, Kabupaten Belu, Nusa Tenggara Tim.","Kabupaten Belu, Nusa Tenggara Tim.",NUSA TENGGARA TIMUR,,Indonesia,,,,-9.1019968,124.9048636,https://maps.google.com/?cid=0x0:0x9cced05224b5c7d5,
perumahan,perumahan,Kec. Kota Atambua,"Kabupaten Belu, Nusa Tenggara Tim.","Kabupaten Belu, Nusa Tenggara Tim.",NUSA TENGGARA TIMUR,,Indonesia,,,,-9.1064894,124.8987786,https://maps.google.com/?cid=0x0:0xd204816086380b60,
perumahan,Pembangunan Perumahan,Raimaten city,"VVVX+CG2, Atambua, Kec. Kota Atambua, Kabupaten Belu, Nusa Tenggara Tim.","Kabupaten Belu, Nusa Tenggara Tim.",NUSA TENGGARA TIMUR,,Indonesia,81376964451.0,,,-9.1064894,124.8987786,https://maps.google.com/?cid=0x0:0x610a95103e20ed41,
perumahan,Pembangunan Perumahan,Atri,"WW32+7J7, Tenukiik, Kec. Kota Atambua, Kabupaten Belu, Nusa Tenggara Tim.","Kabupaten Belu, Nusa Tenggara Tim.",NUSA TENGGARA TIMUR,,Indonesia,,,,-9.0968315,124.9015422,https://maps.google.com/?cid=0x0:0x90496f75a5d69396,
perumahan,Komplek perumahan,Rumah Refry Mau Loe,"VVVW+386, Atambua, Kec. Kota Atambua, Kabupaten Belu, Nusa Tenggara Tim.","Kabupaten Belu, Nusa Tenggara Tim.",NUSA TENGGARA TIMUR,,Indonesia,,,,-9.1073409,124.8957502,https://maps.google.com/?cid=0x0:0x986cfedf705faa2e,
perumahan,Komplek perumahan,Abanat Home's,"WV4X+378, Jl. M.T. Haryono, Tenukiik, Kec. Kota Atambua, Kabupaten Belu, Nusa Tenggara Tim.","Kabupaten Belu, Nusa Tenggara Tim.",NUSA TENGGARA TIMUR,,Indonesia,,,,-9.0948372,124.8982065,https://maps.google.com/?cid=0x0:0x5266465e324e8995,
perumahan,Komplek perumahan,Rumah Inspirasi HCM (Helio Caetano Moniz),"Jl. Merdeka No.40, Atambua, Kec. Kota Atambua, Kabupaten Belu, Nusa Tenggara Tim. 85711","Atambua, Kec. Kota Atambua, Kabupaten Belu",NUSA TENGGARA TIMUR,85711.0,Indonesia,,,,-9.1081861,124.8982719,https://maps.google.com/?cid=0x0:0xd0ab8afb2301ece3,
perumahan,Komplek perumahan,Rumah Bpk. Ignatius Ikun,"VVPV+P64, Jl. Apodeti, Rinbesi, Kec. Atambua Sel., Kabupaten Belu, Nusa Tenggara Tim.","Kabupaten Belu, Nusa Tenggara Tim.",NUSA TENGGARA TIMUR,,Indonesia,,,,-9.1132402,124.8930738,https://maps.google.com/?cid=0x0:0x3b91f795acf5c9e3,
perumahan,Komplek perumahan,Rumah Daud Banakameng,"VWV4+QH5, Fatubenao, Kec. Kota Atambua, Kabupaten Belu, Nusa Tenggara Tim.","Kabupaten Belu, Nusa Tenggara Tim.",NUSA TENGGARA TIMUR,,Indonesia,,,,-9.1056036,124.9064696,https://maps.google.com/?cid=0x0:0x48a63ccb9dd6f657,
perumahan,Perhimpunan Pengembang Perumahan,Kota baru,"VVVX+9FW, Atambua, Kec. Kota Atambua, Kabupaten Belu, Nusa Tenggara Tim.","Kabupaten Belu, Nusa Tenggara Tim.",NUSA TENGGARA TIMUR,,Indonesia,,,,-9.1065244,124.8987106,https://maps.google.com/?cid=0x0:0xb8a19e40be73b8bc,
perumahan,Komplek perumahan,Rumah Lani,"Jl. Ahmad Yani No.A, RW.No.10, Fatubenao, Kec. Kota Atambua, Kabupaten Belu, Nusa Tenggara Tim.","Kabupaten Belu, Nusa Tenggara Tim.",NUSA TENGGARA TIMUR,,Indonesia,,,,-9.11362,124.901251,https://maps.google.com/?cid=0x0:0xaa338d33c34e4875,
perumahan,Komplek perumahan,Rumah Dinas Kantor Pajak Lama,"Jl. Letjend Suprapto No.10, Atambua, Kec. Kota Atambua, Kabupaten Belu, Nusa Tenggara Tim.","Kabupaten Belu, Nusa Tenggara Tim.",NUSA TENGGARA TIMUR,,Indonesia,,,,-9.1082235,124.8944463,https://maps.google.com/?cid=0x0:0x3c5c0f81b9f40932,
perumahan,Rumah Kayu,Rumah Dinas Imigrasi Atambua,"VVGQ+VJR, Jl. Raya Atambua, Lidak, Kec. Atambua Sel., Kabupaten Belu, Nusa Tenggara Tim.","Kabupaten Belu, Nusa Tenggara Tim.",NUSA TENGGARA TIMUR,,Indonesia,,,,-9.122753,124.889013,https://maps.google.com/?cid=0x0:0xec4d6be0285d3c5b,
perumahan,Komplek perumahan,Taso Gank,"VWR3+94P, Fatubenao, Kec. Kota Atambua, Kabupaten Belu, Nusa Tenggara Tim.","Kabupaten Belu, Nusa Tenggara Tim.",NUSA TENGGARA TIMUR,,Indonesia,,,,-9.1090326,124.9028362,https://maps.google.com/?cid=0x0:0x35e32869df0a8269,
perumahan,Komplek perumahan,ATTAMIMI HOUSE FAMILY,"VVVX+J9J, Atambua, Kec. Kota Atambua, Kabupaten Belu, Nusa Tenggara Tim.","Kabupaten Belu, Nusa Tenggara Tim.",NUSA TENGGARA TIMUR,,Indonesia,,,,-9.1059044,124.898398,https://maps.google.com/?cid=0x0:0x8b59d5f7bc17918d,
perumahan,Perumahan,Lolowa,"VVVX+9FW, Atambua, Kec. Kota Atambua, Kabupaten Belu, Nusa Tenggara Tim.","Kabupaten Belu, Nusa Tenggara Tim.",NUSA TENGGARA TIMUR,,Indonesia,,,,-9.1065245,124.8987106,https://maps.google.com/?cid=0x0:0x6fdb3447678cf624,
perumahan,Komplek perumahan,üè° AKBP. JOHNI D. MUSKANAN,"VVWV+MC3, Jl. Proklamasi, Berdao, Kec. Atambua Bar., Kabupaten Belu, Nusa Tenggara Tim.","Kabupaten Belu, Nusa Tenggara Tim.",NUSA TENGGARA TIMUR,,Indonesia,,,,-9.1033529,124.8935532,https://maps.google.com/?cid=0x0:0x289e67282b43aab7,
perumahan,perumahan,Rmh. Bpa mundus tae,"VVQR+G3M, Rinbesi, Kec. Atambua Sel., Kabupaten Belu, Nusa Tenggara Tim.","Kabupaten Belu, Nusa Tenggara Tim.",NUSA TENGGARA TIMUR,,Indonesia,,,,-9.1113741,124.8900508,https://maps.google.com/?cid=0x0:0xdf184a67f1029e1d,
perumahan,Komplek perumahan,Zhill home,"VWR5+F89, Fatubenao, Kec. Kota Atambua, Kabupaten Belu, Nusa Tenggara Tim.","Kabupaten Belu, Nusa Tenggara Tim.",NUSA TENGGARA TIMUR,,Indonesia,,,,-9.108834,124.9083563,https://maps.google.com/?cid=0x0:0x41b493663d8df03f,
perumahan,Komplek perumahan,Rumah Nodja Nahak,"VVQV+WXR, Jl. Yohanes Luan, Atambua, Kec. Kota Atambua, Kabupaten Belu, Nusa Tenggara Tim.","Kabupaten Belu, Nusa Tenggara Tim.",NUSA TENGGARA TIMUR,,Indonesia,,,,-9.1100095,124.8945794,https://maps.google.com/?cid=0x0:0xd6ee3a8b97ce2e1b,
perumahan,Komplek perumahan,Vita Luan,"VWV3+G3Q B, Fatubenao, Kec. Kota Atambua, Kabupaten Belu, Nusa Tenggara Tim.","Kabupaten Belu, Nusa Tenggara Tim.",NUSA TENGGARA TIMUR,,Indonesia,,,,-9.106171,124.9027346,https://maps.google.com/?cid=0x0:0x80ddbb8089a8cc6b,
perumahan,Pabean,PERUMAHAN BEA CUKAI ATAMBUA,"WWC3+J9V, Manumutin, Kec. Kota Atambua, Kabupaten Belu, Nusa Tenggara Tim.","Kabupaten Belu, Nusa Tenggara Tim.",NUSA TENGGARA TIMUR,,Indonesia,,,,-9.07788,124.9039115,https://maps.google.com/?cid=0x0:0xd4eccdf7de3ce31b,
perumahan,Komplek perumahan,ATAMBUA LINGKUNGAN TORO,"WV3M+PV9, Jl. Ave Maria, Tulamalae, Kec. Atambua Bar., Kabupaten Belu, Nusa Tenggara Tim.","Kabupaten Belu, Nusa Tenggara Tim.",NUSA TENGGARA TIMUR,,Indonesia,,,,-9.0957053,124.8847344,https://maps.google.com/?cid=0x0:0x97512997a6178490,
perumahan,Apartemen sewa liburan,Rumah Kost Dedy Nahak,"VVRQ+CM6, Beirafu, Kec. Atambua Bar., Kabupaten Belu, Nusa Tenggara Tim.","Kabupaten Belu, Nusa Tenggara Tim.",NUSA TENGGARA TIMUR,,Indonesia,,,,-9.1088005,124.8889219,https://maps.google.com/?cid=0x0:0x2dbd84ed82b9d00,
perumahan,perumahan,Rumah Ferdi Liu,"VVQW+8W9, Fatubenao, Kec. Kota Atambua, Kabupaten Belu, Nusa Tenggara Tim.","Kabupaten Belu, Nusa Tenggara Tim.",NUSA TENGGARA TIMUR,,Indonesia,,,,-9.111724,124.8973642,https://maps.google.com/?cid=0x0:0x9451fc694073fe8c,
perumahan,Pembangunan Perumahan,Perumahan Grand Bukit Lolowa,"RT 24/RW 01 jalan St petrus, Kec, fatukbot, Kec. Atambua Sel., Kabupaten Belu, Nusa Tenggara Tim.","Kabupaten Belu, Nusa Tenggara Tim.",NUSA TENGGARA TIMUR,,Indonesia,81239727789.0,,,-9.0969043,124.8940667,https://maps.google.com/?cid=0x0:0x57e3d2b786f9e1fd,
perumahan,perumahan,Hugo,"VWV4+GRW, Fatubenao, Kec. Kota Atambua, Kabupaten Belu, Nusa Tenggara Tim.","Kabupaten Belu, Nusa Tenggara Tim.",NUSA TENGGARA TIMUR,,Indonesia,,,,-9.1061464,124.9070802,https://maps.google.com/?cid=0x0:0x805623f98489bc2d,
perumahan,Komplek perumahan,RUMAH PAK YORDAN,"WV2W+52F, Jl. Marsda Adi Sucipto, Tenukiik, Kec. Kota Atambua, Kabupaten Belu, Nusa Tenggara Tim.","Kabupaten Belu, Nusa Tenggara Tim.",NUSA TENGGARA TIMUR,,Indonesia,,,,-9.09948,124.895058,https://maps.google.com/?cid=0x0:0x219e6461fc8f181c,
perumahan,Komplek perumahan,Rumah Oce Laka,"VWX3+6W5, Fatubenao, Kec. Kota Atambua, Kabupaten Belu, Nusa Tenggara Tim.","Kabupaten Belu, Nusa Tenggara Tim.",NUSA TENGGARA TIMUR,,Indonesia,,,,-9.1019968,124.9048636,https://maps.google.com/?cid=0x0:0x9cced05224b5c7d5,
perumahan,Pembangunan Perumahan,Rumah Dorce Manek,"VWQ4+RGV, Fatubenao, Kec. Kota Atambua, Kabupaten Belu, Nusa Tenggara Tim.","Kabupaten Belu, Nusa Tenggara Tim.",NUSA TENGGARA TIMUR,,Indonesia,,,,-9.1099754,124.9057598,https://maps.google.com/?cid=0x0:0xd8ffa290cf21bf05,
perumahan,perumahan,Kec. Kota Atambua,"Kabupaten Belu, Nusa Tenggara Tim.","Kabupaten Belu, Nusa Tenggara Tim.",NUSA TENGGARA TIMUR,,Indonesia,,,,-9.1064894,124.8987786,https://maps.google.com/?cid=0x0:0xd204816086380b60,
perumahan,Pembangunan Perumahan,Raimaten city,"VVVX+CG2, Atambua, Kec. Kota Atambua, Kabupaten Belu, Nusa Tenggara Tim.","Kabupaten Belu, Nusa Tenggara Tim.",NUSA TENGGARA TIMUR,,Indonesia,81376964451.0,,,-9.1064894,124.8987786,https://maps.google.com/?cid=0x0:0x610a95103e20ed41,
perumahan,Komplek perumahan,Vita Luan,"VWV3+G3Q B, Fatubenao, Kec. Kota Atambua, Kabupaten Belu, Nusa Tenggara Tim.","Kabupaten Belu, Nusa Tenggara Tim.",NUSA TENGGARA TIMUR,,Indonesia,,,,-9.106171,124.9027346,https://maps.google.com/?cid=0x0:0x80ddbb8089a8cc6b,
perumahan,Komplek perumahan,Perumahan Bukit Emas Wekatimun,"WV2F+7R8, Jl. Dr. G. A. Siwabessyy, Umanen, Kec. Atambua Bar., Kabupaten Belu, Nusa Tenggara Tim.","Kabupaten Belu, Nusa Tenggara Tim.",NUSA TENGGARA TIMUR,,Indonesia,81234666635.0,,,-9.0993472,124.8745858,https://maps.google.com/?cid=0x0:0x2ff65776b8d7f39e,
perumahan,Pembangunan Perumahan,Fohomea,"VVQR+5P8, Jalan Raya, Atambua, Kota Atambua, Belu Regency, East Nusa Tenggara","Kabupaten Belu, Nusa Tenggara Tim.",NUSA TENGGARA TIMUR,,Indonesia,,,,-9.1120971,124.8918212,https://maps.google.com/?cid=0x0:0xc900ad9ec48d7428,
perumahan,Komplek perumahan,Rumah Refry Mau Loe,"VVVW+386, Atambua, Kec. Kota Atambua, Kabupaten Belu, Nusa Tenggara Tim.","Kabupaten Belu, Nusa Tenggara Tim.",NUSA TENGGARA TIMUR,,Indonesia,,,,-9.1073409,124.8957502,https://maps.google.com/?cid=0x0:0x986cfedf705faa2e,
perumahan,Komplek perumahan,Rumah Lani,"Jl. Ahmad Yani No.A, RW.No.10, Fatubenao, Kec. Kota Atambua, Kabupaten Belu, Nusa Tenggara Tim.","Kabupaten Belu, Nusa Tenggara Tim.",NUSA TENGGARA TIMUR,,Indonesia,,,,-9.11362,124.901251,https://maps.google.com/?cid=0x0:0xaa338d33c34e4875,
perumahan,Komplek perumahan,Anton Alo.A,"WW32+55F, Jl. Ki Hajar Dewantara, Tenukiik, Kec. Atambua Bar., Kabupaten Belu, Nusa Tenggara Tim.","Kabupaten Belu, Nusa Tenggara Tim.",NUSA TENGGARA TIMUR,,Indonesia,,,,-9.0970722,124.9004769,https://maps.google.com/?cid=0x0:0xb338f983e3ca0528,
perumahan,Komplek perumahan,Rumah Anton M Tefbana,"VVQW+GV2, Fatubenao, Kec. Kota Atambua, Kabupaten Belu, Nusa Tenggara Tim.","Kabupaten Belu, Nusa Tenggara Tim.",NUSA TENGGARA TIMUR,,Indonesia,,,,-9.1116148,124.8974785,https://maps.google.com/?cid=0x0:0xec26b06047222e5,
perumahan,Komplek perumahan,Kediaman Aje Luan,"VVVQ+F2R, Jl. Loro Wailuku, Beirafu, Kec. Atambua Bar., Kabupaten Belu, Nusa Tenggara Tim.","Kabupaten Belu, Nusa Tenggara Tim.",NUSA TENGGARA TIMUR,,Indonesia,,,,-9.1061725,124.8875049,https://maps.google.com/?cid=0x0:0x569e6165fdb2d2b8,
perumahan,Komplek perumahan,Rumah Elfhy Darmono,"VWP5+GR9, Fatubenao, Kec. Kota Atambua, Kabupaten Belu, Nusa Tenggara Tim.","Kabupaten Belu, Nusa Tenggara Tim.",NUSA TENGGARA TIMUR,,Indonesia,,,,-9.1137202,124.9096132,https://maps.google.com/?cid=0x0:0x19197015b4eb6447,
perumahan,Komplek perumahan,Rumah Oce Laka,"VWX3+6W5, Fatubenao, Kec. Kota Atambua, Kabupaten Belu, Nusa Tenggara Tim.","Kabupaten Belu, Nusa Tenggara Tim.",NUSA TENGGARA TIMUR,,Indonesia,,,,-9.1019968,124.9048636,https://maps.google.com/?cid=0x0:0x9cced05224b5c7d5,
perumahan,Komplek perumahan,Rumah Daud Banakameng,"VWV4+QH5, Fatubenao, Kec. Kota Atambua, Kabupaten Belu, Nusa Tenggara Tim.","Kabupaten Belu, Nusa Tenggara Tim.",NUSA TENGGARA TIMUR,,Indonesia,,,,-9.1056036,124.9064696,https://maps.google.com/?cid=0x0:0x48a63ccb9dd6f657,
perumahan,Komplek perumahan,Rumah Dinas Kantor Pajak Lama,"Jl. Letjend Suprapto No.10, Atambua, Kec. Kota Atambua, Kabupaten Belu, Nusa Tenggara Tim.","Kabupaten Belu, Nusa Tenggara Tim.",NUSA TENGGARA TIMUR,,Indonesia,,,,-9.1082235,124.8944463,https://maps.google.com/?cid=0x0:0x3c5c0f81b9f40932,
perumahan,perumahan,Alo Letor Home's,"VVWW+X8P, Atambua, Kec. Kota Atambua, Kabupaten Belu, Nusa Tenggara Tim.","Kabupaten Belu, Nusa Tenggara Tim.",NUSA TENGGARA TIMUR,,Indonesia,,,,-9.1025287,124.8958348,https://maps.google.com/?cid=0x0:0x7eedfb08c9de5d5e,
perumahan,Komplek perumahan,RUMAH RANDY LOE,"Jl. Ahmad Yani No.A, RW.No.10, Fatubenao, Kec. Kota Atambua, Kabupaten Belu, Nusa Tenggara Tim.","Kabupaten Belu, Nusa Tenggara Tim.",NUSA TENGGARA TIMUR,,Indonesia,,,,-9.1135335,124.901183,https://maps.google.com/?cid=0x0:0xde4a2e448842a92c,
perumahan,Komplek perumahan,Abanat Home's,"WV4X+378, Jl. M.T. Haryono, Tenukiik, Kec. Kota Atambua, Kabupaten Belu, Nusa Tenggara Tim.","Kabupaten Belu, Nusa Tenggara Tim.",NUSA TENGGARA TIMUR,,Indonesia,,,,-9.0948372,124.8982065,https://maps.google.com/?cid=0x0:0x5266465e324e8995,
perumahan,Komplek perumahan,Rumah Nodja Nahak,"VVQV+WXR, Jl. Yohanes Luan, Atambua, Kec. Kota Atambua, Kabupaten Belu, Nusa Tenggara Tim.","Kabupaten Belu, Nusa Tenggara Tim.",NUSA TENGGARA TIMUR,,Indonesia,,,,-9.1100095,124.8945794,https://maps.google.com/?cid=0x0:0xd6ee3a8b97ce2e1b,
perumahan,Komplek perumahan,Taso Gank,"VWR3+94P, Fatubenao, Kec. Kota Atambua, Kabupaten Belu, Nusa Tenggara Tim.","Kabupaten Belu, Nusa Tenggara Tim.",NUSA TENGGARA TIMUR,,Indonesia,,,,-9.1090326,124.9028362,https://maps.google.com/?cid=0x0:0x35e32869df0a8269,
perumahan,Pembangunan Perumahan,Atri,"WW32+7J7, Tenukiik, Kec. Kota Atambua, Kabupaten Belu, Nusa Tenggara Tim.","Kabupaten Belu, Nusa Tenggara Tim.",NUSA TENGGARA TIMUR,,Indonesia,,,,-9.0968315,124.9015422,https://maps.google.com/?cid=0x0:0x90496f75a5d69396,
perumahan,Komplek perumahan,RUMAH PAK YORDAN,"WV2W+52F, Jl. Marsda Adi Sucipto, Tenukiik, Kec. Kota Atambua, Kabupaten Belu, Nusa Tenggara Tim.","Kabupaten Belu, Nusa Tenggara Tim.",NUSA TENGGARA TIMUR,,Indonesia,,,,-9.09948,124.895058,https://maps.google.com/?cid=0x0:0x219e6461fc8f181c,
perumahan,Komplek perumahan,Alfons mali,"VWV3+63R, Jl. Lintas, Fatubenao, Kec. Kota Atambua, Kabupaten Belu, Nusa Tenggara Tim.","Kabupaten Belu, Nusa Tenggara Tim.",NUSA TENGGARA TIMUR,,Indonesia,,,,-9.1068788,124.902652,https://maps.google.com/?cid=0x0:0x5e5d6e7c8d655281,
perumahan,perumahan,Kec. Lamaknen,"Kabupaten Belu, Nusa Tenggara Tim.","Kabupaten Belu, Nusa Tenggara Tim.",NUSA TENGGARA TIMUR,,Indonesia,,,,-9.097049,125.106291,https://maps.google.com/?cid=0x0:0xafd8d56d18214706,
perumahan,Komplek perumahan,Rumah Resti,"Rumah Resti, Sisi Fatuberal, Kec. Lamaknen Sel., Kabupaten Belu, Nusa Tenggara Tim.","Kabupaten Belu, Nusa Tenggara Tim.",NUSA TENGGARA TIMUR,,Indonesia,,,,-9.1310165,125.1043305,https://maps.google.com/?cid=0x0:0x8dabba48fb52cc0,
perumahan,Pembangunan Perumahan,Dusun Bora,"W5G6+89J, Mahuitas, Kec. Lamaknen, Kabupaten Belu, Nusa Tenggara Tim.","Kabupaten Belu, Nusa Tenggara Tim.",NUSA TENGGARA TIMUR,,Indonesia,,,,-9.0741576,125.1608993,https://maps.google.com/?cid=0x0:0xc9c04e24f596aa7f,
perumahan,Komplek perumahan,Rumah TayMau,"W443+Q84, Dirun, Kec. Lamaknen, Kabupaten Belu, Nusa Tenggara Tim.","Kabupaten Belu, Nusa Tenggara Tim.",NUSA TENGGARA TIMUR,,Indonesia,,,,-9.0931027,125.103343,https://maps.google.com/?cid=0x0:0xe6147d895a469992,
perumahan,Perhimpunan Pengembang Perumahan,Kompleks Kecamatan,"W443+656, Dirun, Kec. Lamaknen, Kabupaten Belu, Nusa Tenggara Tim.","Kabupaten Belu, Nusa Tenggara Tim.",NUSA TENGGARA TIMUR,,Indonesia,,,,-9.0944655,125.1028774,https://maps.google.com/?cid=0x0:0x88fb8fb31a974cfd,
perumahan,Komplek perumahan,Rumah EL Mugirato,"W443+XQQ, Dirun, Kec. Lamaknen, Kabupaten Belu, Nusa Tenggara Tim.","Kabupaten Belu, Nusa Tenggara Tim.",NUSA TENGGARA TIMUR,,Indonesia,,,,-9.0925468,125.1044769,https://maps.google.com/?cid=0x0:0x837056551efae7,
perumahan,Komplek perumahan,Dusun Holdara,"W566+C7M, Kewar, Kec. Lamaknen, Kabupaten Belu, Nusa Tenggara Tim.","Kabupaten Belu, Nusa Tenggara Tim.",NUSA TENGGARA TIMUR,,Indonesia,,,,-9.0889003,125.1606622,https://maps.google.com/?cid=0x0:0x7f81d3bbc9edd506,
perumahan,Komplek perumahan,Kost,"W425+JVC, Dirun, Kec. Lamaknen, Kabupaten Belu, Nusa Tenggara Tim.","Kabupaten Belu, Nusa Tenggara Tim.",NUSA TENGGARA TIMUR,,Indonesia,,,,-9.0984323,125.1096299,https://maps.google.com/?cid=0x0:0x99a7d45f5d89840b,
perumahan,Komplek perumahan,Rumah Nilan,"V3XR+3F9, Dirun, Kec. Lamaknen, Kabupaten Belu, Nusa Tenggara Tim.","Kabupaten Belu, Nusa Tenggara Tim.",NUSA TENGGARA TIMUR,,Indonesia,,,,-9.1023321,125.0912453,https://maps.google.com/?cid=0x0:0x22ec87bf79097091,
perumahan,Komplek perumahan,Lampu Jalan Berewen,"V3FQ+VQR Sisi, Dirun, Kec. Lamaknen, Kabupaten Belu, Nusa Tenggara Tim. 85772","Dirun, Kec. Lamaknen, Kabupaten Belu",NUSA TENGGARA TIMUR,85772.0,Indonesia,,,,-9.1252615,125.0893923,https://maps.google.com/?cid=0x0:0xd1c9b2dfefe236aa,
perumahan,Perhimpunan Pengembang Perumahan,Rumah Lovhy,"V4VC+QJR, Ekin, Kec. Lamaknen Sel., Kabupaten Belu, Nusa Tenggara Tim.","Kabupaten Belu, Nusa Tenggara Tim.",NUSA TENGGARA TIMUR,,Indonesia,,,,-9.1055036,125.1215311,https://maps.google.com/?cid=0x0:0xb57e3cd7084e3a15,
perumahan,Pembangunan Perumahan,HOLGOTOK,"W46J+F8, Fulur, Kec. Lamaknen, Kabupaten Belu, Nusa Tenggara Tim.","Kabupaten Belu, Nusa Tenggara Tim.",NUSA TENGGARA TIMUR,,Indonesia,,,,-9.0888537,125.1308014,https://maps.google.com/?cid=0x0:0x99d6745c29c4bf48,
perumahan,Pembangunan Perumahan,Baurail,"W49M+42C, Fulur, Kec. Lamaknen, Kabupaten Belu, Nusa Tenggara Tim.","Kabupaten Belu, Nusa Tenggara Tim.",NUSA TENGGARA TIMUR,,Indonesia,,,,-9.0821981,125.1325256,https://maps.google.com/?cid=0x0:0x45c7dfdd99006cad,
perumahan,Komplek perumahan,Rumah Lili Nahak,"V5R6+G2V, Kewar, Kec. Lamaknen, Kabupaten Belu, Nusa Tenggara Tim.","Kabupaten Belu, Nusa Tenggara Tim.",NUSA TENGGARA TIMUR,,Indonesia,,,,-9.1086466,125.1600531,https://maps.google.com/?cid=0x0:0x269d1b491a12b4ef,
perumahan,perumahan,Rm Yayu,"X564+69H Asamau, Lamak Senulu, Kec. Lamaknen, Kabupaten Belu, Nusa Tenggara Tim.","Kabupaten Belu, Nusa Tenggara Tim.",NUSA TENGGARA TIMUR,,Indonesia,,,,-9.0394425,125.1559969,https://maps.google.com/?cid=0x0:0xd26e46c8a1b3177,
perumahan,Komplek perumahan,Rania Metkono,"W45X+W3X, Fulur, Kec. Lamaknen, Kabupaten Belu, Nusa Tenggara Tim.","Kabupaten Belu, Nusa Tenggara Tim.",NUSA TENGGARA TIMUR,,Indonesia,,,,-9.0901423,125.1477352,https://maps.google.com/?cid=0x0:0x1b8d38a6ff065653,
perumahan,Komplek perumahan,Rumah Motpor,"W555+4QF, Kewar, Kec. Lamaknen, Kabupaten Belu, Nusa Tenggara Tim.","Kabupaten Belu, Nusa Tenggara Tim.",NUSA TENGGARA TIMUR,,Indonesia,,,,-9.091655,125.1592051,https://maps.google.com/?cid=0x0:0x188d85ed1c4d3d25,
perumahan,Komplek perumahan,Rumah Elsan,"W426+G3F, Weluli, Dirun, Kec. Lamaknen, Kabupaten Belu, Nusa Tenggara Tim.","Kabupaten Belu, Nusa Tenggara Tim.",NUSA TENGGARA TIMUR,,Indonesia,,,,-9.0986829,125.1101606,https://maps.google.com/?cid=0x0:0xd7452654f51f19d3,
perumahan,Komplek perumahan,Rumah Jennyletto Lakmaras,"R5W7+3JX, Lakmaras, Kec. Lamaknen Sel., Kabupaten Belu, Nusa Tenggara Tim.","Kabupaten Belu, Nusa Tenggara Tim.",NUSA TENGGARA TIMUR,,Indonesia,,,,-9.1547636,125.1641089,https://maps.google.com/?cid=0x0:0x7dd1b5e7ffe94ffb,
perumahan,Komplek perumahan,Gunung bengkok,"W5VC+2F, Makir, Kec. Lamaknen, Kabupaten Belu, Nusa Tenggara Tim.","Kabupaten Belu, Nusa Tenggara Tim.",NUSA TENGGARA TIMUR,,Indonesia,,,,-9.057466,125.171127,https://maps.google.com/?cid=0x0:0xe94e41ed0f87cccd,
perumahan,Komplek perumahan,Rumah Wilco Leto,"W555+P98, Kewar, Kec. Lamaknen, Kabupaten Belu, Nusa Tenggara Tim.","Kabupaten Belu, Nusa Tenggara Tim.",NUSA TENGGARA TIMUR,,Indonesia,,,,-9.0907219,125.1584377,https://maps.google.com/?cid=0x0:0x15b3f91a4996493f,
perumahan,perumahan,RUMAH ERNI,"X563+RWC, Makir, Kec. Lamaknen, Kabupaten Belu, Nusa Tenggara Tim.","Kabupaten Belu, Nusa Tenggara Tim.",NUSA TENGGARA TIMUR,,Indonesia,,,,-9.0379425,125.1547653,https://maps.google.com/?cid=0x0:0xcc581ad910d1d4dc,
perumahan,Komplek perumahan,Rumah Bupati Pertama A.A. Bere Tallo,"W443+6PJ, Weluli, Dirun, Kec. Lamaknen, Kabupaten Belu, Nusa Tenggara Tim.","Kabupaten Belu, Nusa Tenggara Tim.",NUSA TENGGARA TIMUR,,Indonesia,,,,-9.0953531,125.1040857,https://maps.google.com/?cid=0x0:0x35dcb1806f9a62e0,
perumahan,perumahan,Kec. Lamaknen Sel.,"Kabupaten Belu, Nusa Tenggara Tim.","Kabupaten Belu, Nusa Tenggara Tim.",NUSA TENGGARA TIMUR,,Indonesia,,,,-9.1510455,125.1229047,https://maps.google.com/?cid=0x0:0x2603c8a939cac97a,
perumahan,perumahan,Kec. Lamaknen,"Kabupaten Belu, Nusa Tenggara Tim.","Kabupaten Belu, Nusa Tenggara Tim.",NUSA TENGGARA TIMUR,,Indonesia,,,,-9.097049,125.106291,https://maps.google.com/?cid=0x0:0xafd8d56d18214706,
perumahan,perumahan,Kewar,"Kec. Lamaknen, Kabupaten Belu, Nusa Tenggara Tim.","Kabupaten Belu, Nusa Tenggara Tim.",NUSA TENGGARA TIMUR,,Indonesia,,,,-9.0926529,125.1653759,https://maps.google.com/?cid=0x0:0xb34b5b5a1febe02d,
perumahan,perumahan,Lakmaras,"Kec. Lamaknen Sel., Kabupaten Belu, Nusa Tenggara Tim.","Kabupaten Belu, Nusa Tenggara Tim.",NUSA TENGGARA TIMUR,,Indonesia,,,,-9.1512982,125.1433793,https://maps.google.com/?cid=0x0:0x74c2a03922ff7d16,
perumahan,perumahan,Duarato,"Kec. Lamaknen, Kabupaten Belu, Nusa Tenggara Tim.","Kabupaten Belu, Nusa Tenggara Tim.",NUSA TENGGARA TIMUR,,Indonesia,,,,-9.1152418,125.1516287,https://maps.google.com/?cid=0x0:0x2df13795bf58856e,
perumahan,perumahan,Henes,"Kec. Lamaknen Sel., Kabupaten Belu, Nusa Tenggara Tim.","Kabupaten Belu, Nusa Tenggara Tim.",NUSA TENGGARA TIMUR,,Indonesia,,,,-9.1549833,125.1736231,https://maps.google.com/?cid=0x0:0x65e17e845eaae921,
perumahan,Komplek perumahan,Rumah Resti,"Rumah Resti, Sisi Fatuberal, Kec. Lamaknen Sel., Kabupaten Belu, Nusa Tenggara Tim.","Kabupaten Belu, Nusa Tenggara Tim.",NUSA TENGGARA TIMUR,,Indonesia,,,,-9.1310165,125.1043305,https://maps.google.com/?cid=0x0:0x8dabba48fb52cc0,
perumahan,Komplek perumahan,LAKMARAS TAS,"Tas, Lakmaras, Kec. Lamaknen Sel., Kabupaten Belu, Nusa Tenggara Tim.","Kabupaten Belu, Nusa Tenggara Tim.",NUSA TENGGARA TIMUR,,Indonesia,,,,-9.1544785,125.1640463,https://maps.google.com/?cid=0x0:0xb5a5a2ae1ecd73fa,
perumahan,Komplek perumahan,Li'U-Lamaknen Selatan,"R4XF+H5J, Loonuna, Kec. Lamaknen Sel., Kabupaten Belu, Nusa Tenggara Tim.","Kabupaten Belu, Nusa Tenggara Tim.",NUSA TENGGARA TIMUR,,Indonesia,,,,-9.1510455,125.1229047,https://maps.google.com/?cid=0x0:0x5200c56df48f4f4f,
perumahan,Komplek perumahan,Rumah Jennyletto Lakmaras,"R5W7+3JX, Lakmaras, Kec. Lamaknen Sel., Kabupaten Belu, Nusa Tenggara Tim.","Kabupaten Belu, Nusa Tenggara Tim.",NUSA TENGGARA TIMUR,,Indonesia,,,,-9.1547636,125.1641089,https://maps.google.com/?cid=0x0:0x7dd1b5e7ffe94ffb,
perumahan,Perhimpunan Pengembang Perumahan,Rumah Lovhy,"V4VC+QJR, Ekin, Kec. Lamaknen Sel., Kabupaten Belu, Nusa Tenggara Tim.","Kabupaten Belu, Nusa Tenggara Tim.",NUSA TENGGARA TIMUR,,Indonesia,,,,-9.1055036,125.1215311,https://maps.google.com/?cid=0x0:0xb57e3cd7084e3a15,
perumahan,Komplek perumahan,Rumah Ans,"V493+GP, Sisi Fatuberal, Kec. Lamaknen Sel., Kabupaten Belu, Nusa Tenggara Tim.","Kabupaten Belu, Nusa Tenggara Tim.",NUSA TENGGARA TIMUR,,Indonesia,,,,-9.1312197,125.1042933,https://maps.google.com/?cid=0x0:0xfb84591533ecfc0d,
perumahan,Komplek perumahan,Lampu Jalan Berewen,"V3FQ+VQR Sisi, Dirun, Kec. Lamaknen, Kabupaten Belu, Nusa Tenggara Tim. 85772","Dirun, Kec. Lamaknen, Kabupaten Belu",NUSA TENGGARA TIMUR,85772.0,Indonesia,,,,-9.1252615,125.0893923,https://maps.google.com/?cid=0x0:0xd1c9b2dfefe236aa,
perumahan,Komplek perumahan,Rumah gue,"V35H+8W2, Debululik, Kec. Lamaknen Sel., Kabupaten Belu, Nusa Tenggara Tim.","Kabupaten Belu, Nusa Tenggara Tim.",NUSA TENGGARA TIMUR,,Indonesia,,,,-9.1417375,125.0797656,https://maps.google.com/?cid=0x0:0xc968c6f5fa5f258b,
perumahan,Perhimpunan Pengembang Perumahan,Kompleks Kecamatan,"W443+656, Dirun, Kec. Lamaknen, Kabupaten Belu, Nusa Tenggara Tim.","Kabupaten Belu, Nusa Tenggara Tim.",NUSA TENGGARA TIMUR,,Indonesia,,,,-9.0944655,125.1028774,https://maps.google.com/?cid=0x0:0x88fb8fb31a974cfd,
perumahan,Komplek perumahan,Rumah TayMau,"W443+Q84, Dirun, Kec. Lamaknen, Kabupaten Belu, Nusa Tenggara Tim.","Kabupaten Belu, Nusa Tenggara Tim.",NUSA TENGGARA TIMUR,,Indonesia,,,,-9.0931027,125.103343,https://maps.google.com/?cid=0x0:0xe6147d895a469992,
perumahan,Komplek perumahan,Nokarwek,"V49C+V6, Loonuna, Kec. Lamaknen Sel., Kabupaten Belu, Nusa Tenggara Tim.","Kabupaten Belu, Nusa Tenggara Tim.",NUSA TENGGARA TIMUR,,Indonesia,,,,-9.1303444,125.1205517,https://maps.google.com/?cid=0x0:0xa60a4b27a51ce043,
perumahan,Komplek perumahan,Rumah EL Mugirato,"W443+XQQ, Dirun, Kec. Lamaknen, Kabupaten Belu, Nusa Tenggara Tim.","Kabupaten Belu, Nusa Tenggara Tim.",NUSA TENGGARA TIMUR,,Indonesia,,,,-9.0925468,125.1044769,https://maps.google.com/?cid=0x0:0x837056551efae7,
perumahan,Komplek perumahan,Rumah Nilan,"V3XR+3F9, Dirun, Kec. Lamaknen, Kabupaten Belu, Nusa Tenggara Tim.","Kabupaten Belu, Nusa Tenggara Tim.",NUSA TENGGARA TIMUR,,Indonesia,,,,-9.1023321,125.0912453,https://maps.google.com/?cid=0x0:0x22ec87bf79097091,
perumahan,Komplek perumahan,Kost,"W425+JVC, Dirun, Kec. Lamaknen, Kabupaten Belu, Nusa Tenggara Tim.","Kabupaten Belu, Nusa Tenggara Tim.",NUSA TENGGARA TIMUR,,Indonesia,,,,-9.0984323,125.1096299,https://maps.google.com/?cid=0x0:0x99a7d45f5d89840b,
perumahan,Komplek perumahan,Rumah Elsan,"W426+G3F, Weluli, Dirun, Kec. Lamaknen, Kabupaten Belu, Nusa Tenggara Tim.","Kabupaten Belu, Nusa Tenggara Tim.",NUSA TENGGARA TIMUR,,Indonesia,,,,-9.0986829,125.1101606,https://maps.google.com/?cid=0x0:0xd7452654f51f19d3,
perumahan,Komplek perumahan,Rumah Lili Nahak,"V5R6+G2V, Kewar, Kec. Lamaknen, Kabupaten Belu, Nusa Tenggara Tim.","Kabupaten Belu, Nusa Tenggara Tim.",NUSA TENGGARA TIMUR,,Indonesia,,,,-9.1086466,125.1600531,https://maps.google.com/?cid=0x0:0x269d1b491a12b4ef,
perumahan,Komplek perumahan,Vira seran,"V33X+HVF, Desa, lutharato, Lamaknen Selatan, Belu Regency, East Nusa Tenggara","Kabupaten Belu, Nusa Tenggara Tim.",NUSA TENGGARA TIMUR,,Indonesia,,,,-9.1460572,125.0996603,https://maps.google.com/?cid=0x0:0x93db70f5aaa2a0f,
perumahan,Pembangunan Perumahan,Siat,"R4C4+2VP, Loonuna, Kec. Lamaknen Sel., Kabupaten Belu, Nusa Tenggara Tim.","Kabupaten Belu, Nusa Tenggara Tim.",NUSA TENGGARA TIMUR,,Indonesia,,,,-9.1799056,125.1071954,https://maps.google.com/?cid=0x0:0xaaf84899bd390af5,
perumahan,Komplek perumahan,MIKAEL MALI WESAIN,"R3X8+RGQ, Debululik, Kec. Lamaknen Sel., Kabupaten Belu, Nusa Tenggara Tim.","Kabupaten Belu, Nusa Tenggara Tim.",NUSA TENGGARA TIMUR,,Indonesia,,,,-9.1504215,125.0663456,https://maps.google.com/?cid=0x0:0x3407c405e8573191,
perumahan,Komplek perumahan,Lookun,"W33X+9G2, Dirun, Kec. Lamaknen, Kabupaten Belu, Nusa Tenggara Tim.","Kabupaten Belu, Nusa Tenggara Tim.",NUSA TENGGARA TIMUR,,Indonesia,,,,-9.0966211,125.0987518,https://maps.google.com/?cid=0x0:0xbbe19ce24c760cad,
perumahan,Komplek perumahan,Rumah Bupati Pertama A.A. Bere Tallo,"W443+6PJ, Weluli, Dirun, Kec. Lamaknen, Kabupaten Belu, Nusa Tenggara Tim.","Kabupaten Belu, Nusa Tenggara Tim.",NUSA TENGGARA TIMUR,,Indonesia,,,,-9.0953531,125.1040857,https://maps.google.com/?cid=0x0:0x35dcb1806f9a62e0,
perumahan,perumahan,Nusa Tenggara Tim.,,Nusa Tenggara Tim.,NUSA TENGGARA TIMUR,,Indonesia,,,,-8.6573819,121.0793705,https://maps.google.com/?cid=0x0:0x1030bfbcaf71ae0,
perumahan,Komplek perumahan,Rumah Bpk. Stanis dan Mm. Lon,"Bernaba, Kota Atambua, Kabupaten Belu, Nusa Tenggara Tim. 85771","Kota Atambua, Kabupaten Belu",NUSA TENGGARA TIMUR,85771.0,Indonesia,82145005148.0,,,-9.0663892,125.0671251,https://maps.google.com/?cid=0x0:0x6481e45758d63f90,
perumahan,Pembangunan Perumahan,Perumahan Osiloa D 20,"VM2M+WQ9, Tarus, Kec. Kupang Tengah, Kabupaten Kupang, Nusa Tenggara Tim.","Kabupaten Kupang, Nusa Tenggara Tim.",NUSA TENGGARA TIMUR,,Indonesia,,,,-10.1477096,123.6844904,https://maps.google.com/?cid=0x0:0x2134dcbc7c2b8df0,
perumahan,Komplek perumahan,Rumah Pak Ery Batu,"W3G2+R4Q, Fatulotu, Kec. Lasiolat, Kabupaten Belu, Nusa Tenggara Tim.","Kabupaten Belu, Nusa Tenggara Tim.",NUSA TENGGARA TIMUR,,Indonesia,,,,-9.0729247,125.0503497,https://maps.google.com/?cid=0x0:0x18a7a4136310bfad,
perumahan,Komplek perumahan,Ailomea,"W2CQ+JQW, Fatulotu, Kec. Lasiolat, Kabupaten Belu, Nusa Tenggara Tim.","Kabupaten Belu, Nusa Tenggara Tim.",NUSA TENGGARA TIMUR,,Indonesia,,,,-9.0783998,125.0394678,https://maps.google.com/?cid=0x0:0xa3f80742d1d0fcce,
perumahan,Pembangunan Perumahan,Bukit Manis,"W36P+RQ, Raiulun, Kec. Lasiolat, Kabupaten Belu, Nusa Tenggara Tim.","Kabupaten Belu, Nusa Tenggara Tim.",NUSA TENGGARA TIMUR,,Indonesia,,,,-9.0878876,125.0868998,https://maps.google.com/?cid=0x0:0xa5eb21183d82ebb3,
perumahan,Rumah Kaca,Rumah EvyadiDonNela,"W3Q7+W5X, Dualasi, Kec. Lasiolat, Kabupaten Belu, Nusa Tenggara Tim.","Kabupaten Belu, Nusa Tenggara Tim.",NUSA TENGGARA TIMUR,,Indonesia,,,,-9.0601358,125.0629849,https://maps.google.com/?cid=0x0:0x93a6107f7fcad8e4,
perumahan,Komplek perumahan,Rumah Bupati Pertama A.A. Bere Tallo,"W443+6PJ, Weluli, Dirun, Kec. Lamaknen, Kabupaten Belu, Nusa Tenggara Tim.","Kabupaten Belu, Nusa Tenggara Tim.",NUSA TENGGARA TIMUR,,Indonesia,,,,-9.0953531,125.1040857,https://maps.google.com/?cid=0x0:0x35dcb1806f9a62e0,
perumahan,Komplek perumahan,Rumah itho moruck,"W2GX+Q9, Fatulotu, Kec. Lasiolat, Kabupaten Belu, Nusa Tenggara Tim.","Kabupaten Belu, Nusa Tenggara Tim.",NUSA TENGGARA TIMUR,,Indonesia,,,,-9.0728331,125.0490666,https://maps.google.com/?cid=0x0:0xf05de02ad18d3287,
perumahan,Komplek perumahan,Rumah EL Mugirato,"W443+XQQ, Dirun, Kec. Lamaknen, Kabupaten Belu, Nusa Tenggara Tim.","Kabupaten Belu, Nusa Tenggara Tim.",NUSA TENGGARA TIMUR,,Indonesia,,,,-9.0925468,125.1044769,https://maps.google.com/?cid=0x0:0x837056551efae7,
perumahan,Komplek perumahan,Rumah Adat Manewalu,"X338+3GQ, RT.001/RW.001, Dusun Kabanasa, Baudaok, Kec. Lasiolat, Kabupaten Belu, Nusa Tenggara Tim.","Kabupaten Belu, Nusa Tenggara Tim.",NUSA TENGGARA TIMUR,,Indonesia,,,,-9.0472958,125.0663456,https://maps.google.com/?cid=0x0:0xe8077f34b53d87c5,
perumahan,Perhimpunan Pengembang Perumahan,Rumah bpk. Agus mau,"W3RF+XP, Dualasi, Kec. Lasiolat, Kabupaten Belu, Nusa Tenggara Tim.","Kabupaten Belu, Nusa Tenggara Tim.",NUSA TENGGARA TIMUR,,Indonesia,,,,-9.0575072,125.0742723,https://maps.google.com/?cid=0x0:0xe061b2fbe10666e0,
perumahan,Komplek perumahan,Klokes House,"W3Q7+VGV, Jl. Sabuk Merah Perbatasan, Dualasi, Kec. Lasiolat, Kabupaten Belu, Nusa Tenggara Tim.","Kabupaten Belu, Nusa Tenggara Tim.",NUSA TENGGARA TIMUR,,Indonesia,,,,-9.0602682,125.0637988,https://maps.google.com/?cid=0x0:0x9be4c88f6c601988,
perumahan,Komplek perumahan,Rumah manek fatbes,"W2GX+XWW, Fatulotu, Kec. Lasiolat, Kabupaten Belu, Nusa Tenggara Tim.","Kabupaten Belu, Nusa Tenggara Tim.",NUSA TENGGARA TIMUR,,Indonesia,82321208817.0,,,-9.0729555,125.0496919,https://maps.google.com/?cid=0x0:0x54fd9ab40328be22,
perumahan,Komplek perumahan,Aitemuk,"W2CW+MQ2, Fatulotu, Kec. Lasiolat, Kabupaten Belu, Nusa Tenggara Tim.","Kabupaten Belu, Nusa Tenggara Tim.",NUSA TENGGARA TIMUR,,Indonesia,,,,-9.0781781,125.0475016,https://maps.google.com/?cid=0x0:0x351bf366f9ba020,
perumahan,Pembangunan Perumahan,suku uma Tohe,"W3MF+2R9, kota fafuhun, Dualasi, Kec. Lasiolat, Kabupaten Belu, Nusa Tenggara Tim.","Kabupaten Belu, Nusa Tenggara Tim.",NUSA TENGGARA TIMUR,,Indonesia,,,,-9.0674745,125.0746026,https://maps.google.com/?cid=0x0:0xfeab4102dda76b79,
perumahan,Komplek perumahan,Om apong,"W3F6+4F8, Lakanmau, Kec. Lasiolat, Kabupaten Belu, Nusa Tenggara Tim.","Kabupaten Belu, Nusa Tenggara Tim.",NUSA TENGGARA TIMUR,,Indonesia,,,,-9.0772036,125.061213,https://maps.google.com/?cid=0x0:0xeeed0beff8995768,
perumahan,Komplek perumahan,Yosep nahak,"W3RF+XP, Dualasi, Kec. Lasiolat, Kabupaten Belu, Nusa Tenggara Tim.","Kabupaten Belu, Nusa Tenggara Tim.",NUSA TENGGARA TIMUR,,Indonesia,,,,-9.0579148,125.0740011,https://maps.google.com/?cid=0x0:0x960e400bc21599b5,
perumahan,Komplek perumahan,Rumah Eduardus,"W3Q7+VWM, Dualasi, Kec. Lasiolat, Kabupaten Belu, Nusa Tenggara Tim.","Kabupaten Belu, Nusa Tenggara Tim.",NUSA TENGGARA TIMUR,,Indonesia,,,,-9.0602768,125.0647853,https://maps.google.com/?cid=0x0:0x924ccb54647ca493,
perumahan,Komplek perumahan,Rumah TayMau,"W443+Q84, Dirun, Kec. Lamaknen, Kabupaten Belu, Nusa Tenggara Tim.","Kabupaten Belu, Nusa Tenggara Tim.",NUSA TENGGARA TIMUR,,Indonesia,,,,-9.0931027,125.103343,https://maps.google.com/?cid=0x0:0xe6147d895a469992,
perumahan,perumahan,Rumah Bapa Hiro Halek,"W3G8+9C, Dualasi, Kec. Lasiolat, Kabupaten Belu, Nusa Tenggara Tim.","Kabupaten Belu, Nusa Tenggara Tim.",NUSA TENGGARA TIMUR,,Indonesia,,,,-9.0738327,125.0658144,https://maps.google.com/?cid=0x0:0xd37882c2fe9ec2d4,
perumahan,Pembangunan Perumahan,Suku Uma Malae Bernaba,"W2CW+C7G, Bernaba, Dialasi, Kec. Lasiolat, Kabupaten Belu, Nusa Tenggara Tim.","Kabupaten Belu, Nusa Tenggara Tim.",NUSA TENGGARA TIMUR,,Indonesia,,,,-9.0789329,125.0457015,https://maps.google.com/?cid=0x0:0xdb482327c4f2359f,
perumahan,Perhimpunan Pengembang Perumahan,Lamberta Liuk,"X35R+PJ8, Jl. Sabuk Merah Perbatasan, Nutaruik, Asumanu, Kec. Raihat, Kabupaten Belu, Nusa Tenggara Tim.","Kabupaten Belu, Nusa Tenggara Tim.",NUSA TENGGARA TIMUR,,Indonesia,,,,-9.0407141,125.091587,https://maps.google.com/?cid=0x0:0x4bac9165bd572c25,
perumahan,Komplek perumahan,Rumah Resti,"Rumah Resti, Sisi Fatuberal, Kec. Lamaknen Sel., Kabupaten Belu, Nusa Tenggara Tim.","Kabupaten Belu, Nusa Tenggara Tim.",NUSA TENGGARA TIMUR,,Indonesia,,,,-9.1310165,125.1043305,https://maps.google.com/?cid=0x0:0x8dabba48fb52cc0,
perumahan,perumahan,Kec. Nanaet Dubesi,"Kabupaten Belu, Nusa Tenggara Tim.","Kabupaten Belu, Nusa Tenggara Tim.",NUSA TENGGARA TIMUR,,Indonesia,,,,-9.3008055,124.9929924,https://maps.google.com/?cid=0x0:0x516eacf652dbb25e,
perumahan,Komplek perumahan,Halidais,"PXF4+VF3, Nanaet, Kec. Nanaet Dubesi, Kabupaten Belu, Nusa Tenggara Tim.","Kabupaten Belu, Nusa Tenggara Tim.",NUSA TENGGARA TIMUR,,Indonesia,,,,-9.2753731,124.9561748,https://maps.google.com/?cid=0x0:0xaf204673f6071ec3,
perumahan,Komplek perumahan,Kompleks Ibu Dian,"PWRR+8H4 Wekmotis, Nanaet, Kec. Nanaet Dubesi, Kabupaten Belu, Nusa Tenggara Tim.","Kabupaten Belu, Nusa Tenggara Tim.",NUSA TENGGARA TIMUR,,Indonesia,,,,-9.2592304,124.941464,https://maps.google.com/?cid=0x0:0x401d18fcb76e4729,
perumahan,perumahan,PAUD PERMATA MAKOKON,"PX2Q+2MQ, Nanaenoe, Kec. Nanaet Dubesi, Kabupaten Belu, Nusa Tenggara Tim.","Kabupaten Belu, Nusa Tenggara Tim.",NUSA TENGGARA TIMUR,,Indonesia,,,,-9.2999201,124.9892412,https://maps.google.com/?cid=0x0:0xe133ae8c27ccf260,
perumahan,Komplek perumahan,Dalan Rohan,"PXGG+78V, Fohoeka, Kec. Nanaet Dubesi, Kabupaten Belu, Nusa Tenggara Tim.","Kabupaten Belu, Nusa Tenggara Tim.",NUSA TENGGARA TIMUR,,Indonesia,,,,-9.2742694,124.9758099,https://maps.google.com/?cid=0x0:0xc102c39eeeae5686,
perumahan,Komplek perumahan,Kios marselus mauk,"PX2Q+2MQ, Nanaenoe, Kec. Nanaet Dubesi, Kabupaten Belu, Nusa Tenggara Tim.","Kabupaten Belu, Nusa Tenggara Tim.",NUSA TENGGARA TIMUR,,Indonesia,,,,-9.2999201,124.9892412,https://maps.google.com/?cid=0x0:0x8d838bf4c255715e,
perumahan,Komplek perumahan,Kakeu Hun Tolu,"PX2Q+XJ6, Nanaenoe, Kec. Nanaet Dubesi, Kabupaten Belu, Nusa Tenggara Tim.","Kabupaten Belu, Nusa Tenggara Tim.",NUSA TENGGARA TIMUR,,Indonesia,,,,-9.2975918,124.9890051,https://maps.google.com/?cid=0x0:0x4720b2edf8ba5141,
perumahan,Hutan Nasional,Kunir Fehan Village,"PXGH+M84, Fohoeka, Kec. Nanaet Dubesi, Kabupaten Belu, Nusa Tenggara Tim.","Kabupaten Belu, Nusa Tenggara Tim.",NUSA TENGGARA TIMUR,,Indonesia,,,,-9.2733534,124.9783261,https://maps.google.com/?cid=0x0:0x6d9de74ab954220c,
perumahan,Komplek perumahan,Rumah Frans Seran,"QWQX+3VQ, Lookeu, Kec. Tasifeto Bar., Kabupaten Belu, Nusa Tenggara Tim.","Kabupaten Belu, Nusa Tenggara Tim.",NUSA TENGGARA TIMUR,,Indonesia,,,,-9.2122972,124.9497387,https://maps.google.com/?cid=0x0:0xef1e61357e07914b,
perumahan,Komplek perumahan,Rumah Starla,"PWVJ+6W, Bakustulama, Kec. Tasifeto Bar., Kabupaten Belu, Nusa Tenggara Tim.","Kabupaten Belu, Nusa Tenggara Tim.",NUSA TENGGARA TIMUR,,Indonesia,,,,-9.2569003,124.9323895,https://maps.google.com/?cid=0x0:0xfce12bb0aed49ce3,
perumahan,perumahan,Rumah saya,"X4W6+8G, Tohe, Kec. Raihat, Kabupaten Belu, Nusa Tenggara Tim.","Kabupaten Belu, Nusa Tenggara Tim.",NUSA TENGGARA TIMUR,,Indonesia,,,,-9.0039159,125.1125329,https://maps.google.com/?cid=0x0:0x96083ebf6c0cb652,
perumahan,perumahan,Kec. Raihat,"Kabupaten Belu, Nusa Tenggara Tim.","Kabupaten Belu, Nusa Tenggara Tim.",NUSA TENGGARA TIMUR,,Indonesia,,,,-9.0079886,125.111988,https://maps.google.com/?cid=0x0:0x756d080cb85fd016,
perumahan,Pembangunan Perumahan,Kompleks Perumahan Jokowi,"2446+JRP, Tohe, Kec. Raihat, Kabupaten Belu, Nusa Tenggara Tim.","Kabupaten Belu, Nusa Tenggara Tim.",NUSA TENGGARA TIMUR,,Indonesia,,,,-8.9934077,125.1120861,https://maps.google.com/?cid=0x0:0x407a7694f4c5e945,
perumahan,Komplek perumahan,Erni,"W4PP+Q4Q, Aitoun, Kec. Raihat, Kabupaten Belu, Nusa Tenggara Tim.","Kabupaten Belu, Nusa Tenggara Tim.",NUSA TENGGARA TIMUR,,Indonesia,,,,-9.0630362,125.1353506,https://maps.google.com/?cid=0x0:0x20a98420a0c82646,
perumahan,Komplek perumahan,Alex,"X4RF+H3V, Maumutin, Kec. Raihat, Kabupaten Belu, Nusa Tenggara Tim.","Kabupaten Belu, Nusa Tenggara Tim.",NUSA TENGGARA TIMUR,,Indonesia,,,,-9.007962,125.1234626,https://maps.google.com/?cid=0x0:0x55e0ae08692871c8,
perumahan,Komplek perumahan,Asiku,"W4H7+FW, Raifatus, Kec. Raihat, Kabupaten Belu, Nusa Tenggara Tim.","Kabupaten Belu, Nusa Tenggara Tim.",NUSA TENGGARA TIMUR,,Indonesia,,,,-9.0713593,125.1148653,https://maps.google.com/?cid=0x0:0xedc60de0ec79af1a,
perumahan,Pembangunan Perumahan,Kompleks Wemori,"X4H5+825, Tohe, Kec. Raihat, Kabupaten Belu, Nusa Tenggara Tim.","Kabupaten Belu, Nusa Tenggara Tim.",NUSA TENGGARA TIMUR,,Indonesia,,,,-9.0217301,125.1076225,https://maps.google.com/?cid=0x0:0x1e6537b9785c780c,
perumahan,Pembangunan Perumahan,Nunura,"24H8+448, Maumutin, Kec. Raihat, Kabupaten Belu, Nusa Tenggara Tim.","Kabupaten Belu, Nusa Tenggara Tim.",NUSA TENGGARA TIMUR,,Indonesia,,,,-8.9722006,125.1153158,https://maps.google.com/?cid=0x0:0xa312574da17d045c,
perumahan,Perhimpunan Pengembang Perumahan,Ilatlaun,"X4XC+P3P, Maumutin, Kec. Raihat, Kabupaten Belu, Nusa Tenggara Tim.","Kabupaten Belu, Nusa Tenggara Tim.",NUSA TENGGARA TIMUR,,Indonesia,,,,-9.0006722,125.1202025,https://maps.google.com/?cid=0x0:0x3545dd370840eb0,
perumahan,Pembangunan Perumahan,Perumahan Khusus WNI Desa Tohe,"2446+JQQ, Tohe, Kec. Raihat, Kabupaten Belu, Nusa Tenggara Tim.","Kabupaten Belu, Nusa Tenggara Tim.",NUSA TENGGARA TIMUR,,Indonesia,,,,-8.993417,125.1119914,https://maps.google.com/?cid=0x0:0xa5c5a54166ed26e9,
perumahan,Pembangunan Perumahan,rumah Ronal,"2439+HF3, Jl. Bundaran, Tohe, Kec. Raihat, Kabupaten Belu, Nusa Tenggara Tim.","Kabupaten Belu, Nusa Tenggara Tim.",NUSA TENGGARA TIMUR,,Indonesia,,,,-8.9961031,125.118879,https://maps.google.com/?cid=0x0:0xb364c5711f625f28,
perumahan,Komplek perumahan,Rumah josua,"W4XV+X99, Aitoun, Kec. Raihat, Kabupaten Belu, Nusa Tenggara Tim.","Kabupaten Belu, Nusa Tenggara Tim.",NUSA TENGGARA TIMUR,,Indonesia,,,,-9.0500777,125.1434743,https://maps.google.com/?cid=0x0:0x263f4a89545e237e,
perumahan,Komplek perumahan,Kaukehi Nusa tenggara timur,"X42V+M9R, Aitoun, Kec. Raihat, Kabupaten Belu, Nusa Tenggara Tim.","Kabupaten Belu, Nusa Tenggara Tim.",NUSA TENGGARA TIMUR,,Indonesia,,,,-9.0482505,125.1433793,https://maps.google.com/?cid=0x0:0xbe8087c30a5960e6,
perumahan,Komplek perumahan,Gardu RH,"X4QJ+5XR, Maumutin, Kec. Raihat, Kabupaten Belu, Nusa Tenggara Tim.","Kabupaten Belu, Nusa Tenggara Tim.",NUSA TENGGARA TIMUR,,Indonesia,,,,-9.0120161,125.1323788,https://maps.google.com/?cid=0x0:0x4903d063c2f59871,
perumahan,perumahan,Reyz Family,"X4QF+V47, Maumutin, Kec. Raihat, Kabupaten Belu, Nusa Tenggara Tim.","Kabupaten Belu, Nusa Tenggara Tim.",NUSA TENGGARA TIMUR,,Indonesia,,,,-9.0103419,125.1227965,https://maps.google.com/?cid=0x0:0xeb48d3c59b66c9dc,
perumahan,Pusat Kesehatan Masyarakat,Kompleks rumah dinas kesehatan puskesmas haekesak,"Tohe, Kec. Raihat, Kabupaten Belu, Nusa Tenggara Tim.","Kabupaten Belu, Nusa Tenggara Tim.",NUSA TENGGARA TIMUR,,Indonesia,85333613494.0,,,-9.0109191,125.1066834,https://maps.google.com/?cid=0x0:0xae3e8d834f5e4cbd,
perumahan,Pembangunan Perumahan,Ruiwarak,"X4Q4+6X4, Tohe, Kec. Raihat, Kabupaten Belu, Nusa Tenggara Tim.","Kabupaten Belu, Nusa Tenggara Tim.",NUSA TENGGARA TIMUR,,Indonesia,,,,-9.011986,125.1074459,https://maps.google.com/?cid=0x0:0x726734ef41abff8,
perumahan,Komplek perumahan,Monatha,"W4H7+FW, Raifatus, Kec. Raihat, Kabupaten Belu, Nusa Tenggara Tim.","Kabupaten Belu, Nusa Tenggara Tim.",NUSA TENGGARA TIMUR,,Indonesia,,,,-9.0717616,125.1145644,https://maps.google.com/?cid=0x0:0xb6e15f3c87ee209,
perumahan,Komplek perumahan,Rumah Bupati Pertama A.A. Bere Tallo,"W443+6PJ, Weluli, Dirun, Kec. Lamaknen, Kabupaten Belu, Nusa Tenggara Tim.","Kabupaten Belu, Nusa Tenggara Tim.",NUSA TENGGARA TIMUR,,Indonesia,,,,-9.0953531,125.1040857,https://maps.google.com/?cid=0x0:0x35dcb1806f9a62e0,
perumahan,Komplek perumahan,Manek Family(BlasiusRomana),"W4MG+856, Aitoun, Kec. Raihat, Kabupaten Belu, Nusa Tenggara Tim.","Kabupaten Belu, Nusa Tenggara Tim.",NUSA TENGGARA TIMUR,,Indonesia,,,,-9.0667038,125.1253836,https://maps.google.com/?cid=0x0:0x6da22a1faa893374,
perumahan,Komplek perumahan,Uma Sope Bundaran,"2429+WV, Maumutin, Kec. Raihat, Kabupaten Belu, Nusa Tenggara Tim.","Kabupaten Belu, Nusa Tenggara Tim.",NUSA TENGGARA TIMUR,,Indonesia,,,,-8.9968239,125.1192704,https://maps.google.com/?cid=0x0:0xe2b7ef76078c19db,
perumahan,Pembangunan Perumahan,Rumah Bapa Yosep Mauk,"X4W6+8G, Tohe, Kec. Raihat, Kabupaten Belu, Nusa Tenggara Tim.","Kabupaten Belu, Nusa Tenggara Tim.",NUSA TENGGARA TIMUR,,Indonesia,,,,-9.0041525,125.1113673,https://maps.google.com/?cid=0x0:0xa2c931ae8010f3d7,
perumahan,Perhimpunan Pengembang Perumahan,Lamberta Liuk,"X35R+PJ8, Jl. Sabuk Merah Perbatasan, Nutaruik, Asumanu, Kec. Raihat, Kabupaten Belu, Nusa Tenggara Tim.","Kabupaten Belu, Nusa Tenggara Tim.",NUSA TENGGARA TIMUR,,Indonesia,,,,-9.0407141,125.091587,https://maps.google.com/?cid=0x0:0x4bac9165bd572c25,
perumahan,Komplek perumahan,Desa teun,"JVMH+CM5, Pelita, Teun, Kec. Rai Manuk, Kabupaten Belu, Nusa Tenggara Tim.","Kabupaten Belu, Nusa Tenggara Tim.",NUSA TENGGARA TIMUR,,Indonesia,,,,-9.36579,124.879277,https://maps.google.com/?cid=0x0:0x550acb0dbd55cbe,
perumahan,Pembangunan Perumahan,Teun Kecamatan Rai Manuk Nusa Tenggara Timur Indonesia,"JVPG+Q7, Teun, Kec. Rai Manuk, Kabupaten Belu, Nusa Tenggara Tim.","Kabupaten Belu, Nusa Tenggara Tim.",NUSA TENGGARA TIMUR,,Indonesia,,,,-9.363022,124.87569,https://maps.google.com/?cid=0x0:0x25bc324b9142f842,
perumahan,perumahan,Kec. Rai Manuk,"Kabupaten Belu, Nusa Tenggara Tim.","Kabupaten Belu, Nusa Tenggara Tim.",NUSA TENGGARA TIMUR,,Indonesia,,,,-9.3205655,124.8694308,https://maps.google.com/?cid=0x0:0xc0f840855299da0,
perumahan,Komplek perumahan,Rumah shenty,"MVR2+V8F, Leuntolu, Kec. Rai Manuk, Kabupaten Belu, Nusa Tenggara Tim.","Kabupaten Belu, Nusa Tenggara Tim.",NUSA TENGGARA TIMUR,,Indonesia,,,,-9.3078212,124.8508067,https://maps.google.com/?cid=0x0:0x15161c6a1ef5c79d,
perumahan,perumahan,Rumah Opti Ulu,"JWQF+CH4, Mandeu Raimanus, Kec. Rai Manuk, Kabupaten Belu, Nusa Tenggara Tim.","Kabupaten Belu, Nusa Tenggara Tim.",NUSA TENGGARA TIMUR,,Indonesia,,,,-9.3614831,124.9239589,https://maps.google.com/?cid=0x0:0xf61edfddd8a0e6e,
perumahan,Perhimpunan Pengembang Perumahan,Fatuklabobi,"MV57+9P9, Funeno, Tasain, Kec. Rai Manuk, Kabupaten Belu, Nusa Tenggara Tim.","Kabupaten Belu, Nusa Tenggara Tim.",NUSA TENGGARA TIMUR,,Indonesia,,,,-9.3415965,124.8643452,https://maps.google.com/?cid=0x0:0xbf78cf8f9b7ccdbc,
perumahan,Komplek perumahan,Haliamanas,"JWRM+3P6, Renrua, Kec. Rai Manuk, Kabupaten Belu, Nusa Tenggara Tim.","Kabupaten Belu, Nusa Tenggara Tim.",NUSA TENGGARA TIMUR,,Indonesia,,,,-9.3598314,124.9342529,https://maps.google.com/?cid=0x0:0x8cca3f0498b782c4,
perumahan,Komplek perumahan,Dusun Auktuik B,"MR5J+HH9, Tasain, Kec. Rai Manuk, Kabupaten Belu, Nusa Tenggara Tim.","Kabupaten Belu, Nusa Tenggara Tim.",NUSA TENGGARA TIMUR,,Indonesia,,,,-9.3410781,124.8314751,https://maps.google.com/?cid=0x0:0x55f4f1e7a462f7e,
perumahan,Perhimpunan Pengembang Perumahan,Webaha,"MW9H+8V5, Mande'u, Webaha, Faturika, Kec. Rai Manuk, Kabupaten Belu, Nusa Tenggara Tim.","Kabupaten Belu, Nusa Tenggara Tim.",NUSA TENGGARA TIMUR,,Indonesia,,,,-9.3317467,124.9297337,https://maps.google.com/?cid=0x0:0x200f6a53b3b36ab8,
perumahan,Perhimpunan Pengembang Perumahan,Rumah Kepwil Oekofu,"JWHM+RGJ, Renrua, Kec. Rai Manuk, Kabupaten Belu, Nusa Tenggara Tim.","Kabupaten Belu, Nusa Tenggara Tim.",NUSA TENGGARA TIMUR,,Indonesia,,,,-9.3701168,124.9336605,https://maps.google.com/?cid=0x0:0x9c61363c2baad59f,
perumahan,Komplek perumahan,Aryy,"MRWX+529, Leuntolu, Kec. Rai Manuk, Kabupaten Belu, Nusa Tenggara Tim.","Kabupaten Belu, Nusa Tenggara Tim.",NUSA TENGGARA TIMUR,,Indonesia,,,,-9.304578,124.8476189,https://maps.google.com/?cid=0x0:0xeead959fa19162d3,
perumahan,Komplek perumahan,Rumah Yansen,"MVRC+CVW, Mandeu, Kec. Rai Manuk, Kabupaten Belu, Nusa Tenggara Tim.","Kabupaten Belu, Nusa Tenggara Tim.",NUSA TENGGARA TIMUR,,Indonesia,,,,-9.3088307,124.8721185,https://maps.google.com/?cid=0x0:0x100941a27b865e81,
perumahan,Perhimpunan Pengembang Perumahan,Rmh sius Manek,"PV35+7H, Leuntolu, Kec. Rai Manuk, Kabupaten Belu, Nusa Tenggara Tim.","Kabupaten Belu, Nusa Tenggara Tim.",NUSA TENGGARA TIMUR,,Indonesia,,,,-9.2967272,124.8595554,https://maps.google.com/?cid=0x0:0xca3b4cd40d2d5cc,
perumahan,Komplek perumahan,Tyan manek,"MRWX+P32, Jalan Raya, Leuntolu, Kec. Rai Manuk, Kabupaten Belu, Nusa Tenggara Tim.","Kabupaten Belu, Nusa Tenggara Tim.",NUSA TENGGARA TIMUR,,Indonesia,,,,-9.3030617,124.8468706,https://maps.google.com/?cid=0x0:0xb45c8efe5aece7e,
perumahan,Komplek perumahan,Rumah izall,"JVXF+3J4, Teun, Kec. Rai Manuk, Kabupaten Belu, Nusa Tenggara Tim.","Kabupaten Belu, Nusa Tenggara Tim.",NUSA TENGGARA TIMUR,,Indonesia,,,,-9.3523576,124.874092,https://maps.google.com/?cid=0x0:0x222b86385109a829,
perumahan,Komplek perumahan,Rumah ordi,"MVRF+XMF, Mandeu, Kec. Rai Manuk, Kabupaten Belu, Nusa Tenggara Tim.","Kabupaten Belu, Nusa Tenggara Tim.",NUSA TENGGARA TIMUR,,Indonesia,,,,-9.3095086,124.8751519,https://maps.google.com/?cid=0x0:0xec806f1266499517,
perumahan,Komplek perumahan,Fatubesi gank,"JVQF+RX4, Teun, Kec. Rai Manuk, Kabupaten Belu, Nusa Tenggara Tim.","Kabupaten Belu, Nusa Tenggara Tim.",NUSA TENGGARA TIMUR,,Indonesia,,,,-9.3604765,124.8749376,https://maps.google.com/?cid=0x0:0x34de4f92392f0745,
perumahan,Komplek perumahan,Rumah Pak Yoseph Tefa,"MV8C+2J8, Rafae, Kec. Rai Manuk, Kabupaten Belu, Nusa Tenggara Tim.","Kabupaten Belu, Nusa Tenggara Tim.",NUSA TENGGARA TIMUR,,Indonesia,,,,-9.3349713,124.8715721,https://maps.google.com/?cid=0x0:0x6a9b615aa0630fdb,
perumahan,perumahan,Rmh bpk octo bessie,"MRH6+CMF, Tualene, Kec. Biboki Utara, Kabupaten Timor Tengah Utara, Nusa Tenggara Tim.","Kabupaten Timor Tengah Utara, Nusa Tenggara Tim.",NUSA TENGGARA TIMUR,,Indonesia,,,,-9.321441,124.811615,https://maps.google.com/?cid=0x0:0x64c439404caab678,
perumahan,perumahan,Jwalfull,"MVW9+95V, Mandeu, Kec. Rai Manuk, Kabupaten Belu, Nusa Tenggara Tim.","Kabupaten Belu, Nusa Tenggara Tim.",NUSA TENGGARA TIMUR,,Indonesia,,,,-9.3040167,124.8679347,https://maps.google.com/?cid=0x0:0x42b86f659fcbefa7,
perumahan,Komplek perumahan,Acy,"Leuntolu, Kec. Rai Manuk, Kabupaten Belu, Nusa Tenggara Tim.","Kabupaten Belu, Nusa Tenggara Tim.",NUSA TENGGARA TIMUR,,Indonesia,,,,-9.3028899,124.8489909,https://maps.google.com/?cid=0x0:0x5682f966dd7ce52e,
perumahan,perumahan,"wilayah dusun,Haumenin","JRXV+W47, Tasain, Kec. Rai Manuk, Kabupaten Belu, Nusa Tenggara Tim.","Kabupaten Belu, Nusa Tenggara Tim.",NUSA TENGGARA TIMUR,,Indonesia,,,,-9.350505,124.8421422,https://maps.google.com/?cid=0x0:0xcbdd5d37d7bd2207,
perumahan,Perhimpunan Pengembang Perumahan,Rumah Adat Baurrua,"JWP4+983, Mandeu Raimanus, Kec. Rai Manuk, Kabupaten Belu, Nusa Tenggara Tim.","Kabupaten Belu, Nusa Tenggara Tim.",NUSA TENGGARA TIMUR,,Indonesia,,,,-9.364119,124.9057913,https://maps.google.com/?cid=0x0:0x57f51db847da97f3,
perumahan,Inspektur Tempat Tinggal,WBT,"MRVX+Q7X, Leuntolu, Kec. Rai Manuk, Kabupaten Belu, Nusa Tenggara Tim.","Kabupaten Belu, Nusa Tenggara Tim.",NUSA TENGGARA TIMUR,,Indonesia,81239205528.0,,,-9.3055187,124.8482496,https://maps.google.com/?cid=0x0:0x9bbfd6ef9511582c,
perumahan,perumahan,Kec. Tasifeto Bar.,"Kabupaten Belu, Nusa Tenggara Tim.","Kabupaten Belu, Nusa Tenggara Tim.",NUSA TENGGARA TIMUR,,Indonesia,,,,-9.2749822,124.8755868,https://maps.google.com/?cid=0x0:0xed54b1c628a14116,
perumahan,perumahan,Perumahan,"PVJ9+Q92, Naitimu, Kec. Tasifeto Bar., Kabupaten Belu, Nusa Tenggara Tim.","Kabupaten Belu, Nusa Tenggara Tim.",NUSA TENGGARA TIMUR,,Indonesia,,,,-9.2681044,124.8683888,https://maps.google.com/?cid=0x0:0xb82e216577062627,
perumahan,Komplek perumahan,Seo,"PR4X+HV8, Rinbesihat, Kec. Tasifeto Bar., Kabupaten Belu, Nusa Tenggara Tim.","Kabupaten Belu, Nusa Tenggara Tim.",NUSA TENGGARA TIMUR,,Indonesia,,,,-9.2935991,124.8496986,https://maps.google.com/?cid=0x0:0x9f0930380c683c83,
perumahan,Komplek perumahan,Oetfo B - Fonsega Entertainment,"QV65+JQ9, Naekasa, Kec. Tasifeto Bar., Kabupaten Belu, Nusa Tenggara Tim.","Kabupaten Belu, Nusa Tenggara Tim.",NUSA TENGGARA TIMUR,,Indonesia,,,,-9.2384659,124.859479,https://maps.google.com/?cid=0x0:0x1cc2cc018ded390b,
perumahan,Komplek perumahan,Rumah Dewa,"PV7H+GQ, Naitimu, Kec. Tasifeto Bar., Kabupaten Belu, Nusa Tenggara Tim.","Kabupaten Belu, Nusa Tenggara Tim.",NUSA TENGGARA TIMUR,,Indonesia,,,,-9.2852153,124.8790806,https://maps.google.com/?cid=0x0:0xd618dced68cede06,
perumahan,Komplek perumahan,OETFO,"Bakustulama, Kec. Tasifeto Bar., Kabupaten Belu, Nusa Tenggara Tim.","Kabupaten Belu, Nusa Tenggara Tim.",NUSA TENGGARA TIMUR,,Indonesia,81339035574.0,,,-9.2397553,124.8599651,https://maps.google.com/?cid=0x0:0xb760fc4a4cf119f4,
perumahan,Komplek perumahan,Juleta Moru,"PVG8+F7J, Rinbesihat, Kec. Tasifeto Bar., Kabupaten Belu, Nusa Tenggara Tim.","Kabupaten Belu, Nusa Tenggara Tim.",NUSA TENGGARA TIMUR,,Indonesia,,,,-9.2738483,124.8656373,https://maps.google.com/?cid=0x0:0x373e121d54856bcd,
perumahan,perumahan,INGGUREO,"PVJ9+6X6, Naitimu, Kec. Tasifeto Bar., Kabupaten Belu, Nusa Tenggara Tim.","Kabupaten Belu, Nusa Tenggara Tim.",NUSA TENGGARA TIMUR,,Indonesia,,,,-9.2694705,124.8698926,https://maps.google.com/?cid=0x0:0x71574c466eccfd1,
perumahan,perumahan,Cabang Lurasik,"Rinbesihat, Kec. Tasifeto Bar., Kabupaten Belu, Nusa Tenggara Tim.","Kabupaten Belu, Nusa Tenggara Tim.",NUSA TENGGARA TIMUR,,Indonesia,,,,-9.2956379,124.8484635,https://maps.google.com/?cid=0x0:0x7e8151fd2422ec80,
perumahan,Komplek perumahan,GRAHA OETFOO,"QV88+5JW, Naekasa, Kec. Tasifeto Bar., Kabupaten Belu, Nusa Tenggara Tim.","Kabupaten Belu, Nusa Tenggara Tim.",NUSA TENGGARA TIMUR,,Indonesia,,,,-9.2345167,124.8665637,https://maps.google.com/?cid=0x0:0x77a760711f822c0e,
perumahan,Komplek perumahan,Rumah Vinto,"QV74+9C, Naekasa, Kec. Tasifeto Bar., Kabupaten Belu, Nusa Tenggara Tim.","Kabupaten Belu, Nusa Tenggara Tim.",NUSA TENGGARA TIMUR,,Indonesia,,,,-9.2366164,124.8560029,https://maps.google.com/?cid=0x0:0xd0a8694e9767f9e4,
perumahan,Komplek perumahan,Kompleks Perumahan All Sejahtera (PAS),"RV6M+RWX, Jl. Raya Atambua, Naekasa, Kec. Tasifeto Bar., Kabupaten Belu, Nusa Tenggara Tim.","Kabupaten Belu, Nusa Tenggara Tim.",NUSA TENGGARA TIMUR,,Indonesia,,,,-9.187897,124.8848615,https://maps.google.com/?cid=0x0:0xad24543c1c57a42e,
perumahan,Komplek perumahan,Metkono Home,"QVHC+HR9, Bakustulama, Kec. Tasifeto Bar., Kabupaten Belu, Nusa Tenggara Tim.","Kabupaten Belu, Nusa Tenggara Tim.",NUSA TENGGARA TIMUR,,Indonesia,81238684920.0,,,-9.2210932,124.8721213,https://maps.google.com/?cid=0x0:0x93ed6de72aac1cc2,
perumahan,Komplek perumahan,Halikelen,"PVH9+XXV, Naitimu, Kec. Tasifeto Bar., Kabupaten Belu, Nusa Tenggara Tim.","Kabupaten Belu, Nusa Tenggara Tim.",NUSA TENGGARA TIMUR,,Indonesia,,,,-9.269958,124.869393,https://maps.google.com/?cid=0x0:0x864d78edebaa5a31,
perumahan,Pembangunan Perumahan,cabang lurasik belakang toko cakrawala,"PV79+W5M, Rinbesihat, Kec. Tasifeto Bar., Kabupaten Belu, Nusa Tenggara Tim.","Kabupaten Belu, Nusa Tenggara Tim.",NUSA TENGGARA TIMUR,,Indonesia,,,,-9.2851745,124.8679347,https://maps.google.com/?cid=0x0:0xc6dab61d2aca16af,
perumahan,perumahan,RUMAH OSE WAIK,"PVG7+PQR, Rinbesihat, Kec. Tasifeto Bar., Kabupaten Belu, Nusa Tenggara Tim.","Kabupaten Belu, Nusa Tenggara Tim.",NUSA TENGGARA TIMUR,,Indonesia,,,,-9.2731382,124.8643801,https://maps.google.com/?cid=0x0:0x4ba0b809aa98e6a4,
perumahan,Komplek perumahan,Rumah wink,"PV9J+539, Naitimu, Kec. Tasifeto Bar., Kabupaten Belu, Nusa Tenggara Tim.","Kabupaten Belu, Nusa Tenggara Tim.",NUSA TENGGARA TIMUR,,Indonesia,,,,-9.2820836,124.8802465,https://maps.google.com/?cid=0x0:0xeb00742794438cf2,
perumahan,Komplek perumahan,Rumah Silvia,"QV65+PJP, Naekasa, Kec. Tasifeto Bar., Kabupaten Belu, Nusa Tenggara Tim.","Kabupaten Belu, Nusa Tenggara Tim.",NUSA TENGGARA TIMUR,,Indonesia,,,,-9.2381664,124.8590721,https://maps.google.com/?cid=0x0:0x62d23e33d9670ce8,
perumahan,perumahan,RUMAH MERI HALEK,"PVG7+WGH, Rinbesihat, Kec. Tasifeto Bar., Kabupaten Belu, Nusa Tenggara Tim.","Kabupaten Belu, Nusa Tenggara Tim.",NUSA TENGGARA TIMUR,,Indonesia,,,,-9.2726964,124.86386,https://maps.google.com/?cid=0x0:0xac238e3923aea28,
perumahan,Komplek perumahan,Beydasi Tulatudik,"QWPM+HCF, Derok Faturene, Kec. Tasifeto Bar., Kabupaten Belu, Nusa Tenggara Tim.","Kabupaten Belu, Nusa Tenggara Tim.",NUSA TENGGARA TIMUR,,Indonesia,,,,-9.2135741,124.9335365,https://maps.google.com/?cid=0x0:0x25709aab209cc627,
perumahan,Komplek perumahan,Rumah ghoy,"RVHP+7M, Naekasa, Kec. Tasifeto Bar., Kabupaten Belu, Nusa Tenggara Tim.","Kabupaten Belu, Nusa Tenggara Tim.",NUSA TENGGARA TIMUR,,Indonesia,,,,-9.1717931,124.8866781,https://maps.google.com/?cid=0x0:0x3270ecfc467a703c,
perumahan,Komplek perumahan,WBCgang,"RV6W+JJX, Naekasa, Kec. Tasifeto Bar., Kabupaten Belu, Nusa Tenggara Tim.","Kabupaten Belu, Nusa Tenggara Tim.",NUSA TENGGARA TIMUR,,Indonesia,,,,-9.1883845,124.8966199,https://maps.google.com/?cid=0x0:0xee77cce8d3586159,
perumahan,Pembangunan Perumahan,Perumahan Puri Mas Atambua,"VV6H+HP2, Tukuneno, Kec. Tasifeto Bar., Kabupaten Belu, Nusa Tenggara Tim.","Kabupaten Belu, Nusa Tenggara Tim.",NUSA TENGGARA TIMUR,,Indonesia,,,,-9.1385603,124.8793865,https://maps.google.com/?cid=0x0:0x237a1d233855bba1,
perumahan,Komplek perumahan,Kec Tasifeto Timur,"2W7M+8JQ, Silawan, Kec. Tasifeto Tim., Kabupaten Belu, Nusa Tenggara Tim.","Kabupaten Belu, Nusa Tenggara Tim.",NUSA TENGGARA TIMUR,,Indonesia,,,,-8.9866699,124.9341234,https://maps.google.com/?cid=0x0:0xc3771de0db0b0eef,
perumahan,Komplek perumahan,Evania,"PV8J+7F8, Naitimu, Kec. Tasifeto Bar., Kabupaten Belu, Nusa Tenggara Tim.","Kabupaten Belu, Nusa Tenggara Tim.",NUSA TENGGARA TIMUR,,Indonesia,,,,-9.284345,124.8811921,https://maps.google.com/?cid=0x0:0xb094ba84119e8e3a,
perumahan,perumahan,Rumah Bai Matias Muit,"MRCV+CG3, Jl. Raya Belu, Leuntolu, Kec. Rai Manuk, Kabupaten Belu, Nusa Tenggara Tim.","Kabupaten Belu, Nusa Tenggara Tim.",NUSA TENGGARA TIMUR,,Indonesia,,,,-9.3289861,124.8437813,https://maps.google.com/?cid=0x0:0x94d331e2edde9eff,
perumahan,Perhimpunan Pengembang Perumahan,STEFEN BEREK HOME,"PW94+8V7, Laninis, Lawalutolus, Kec. Tasifeto Bar., Kabupaten Belu, Nusa Tenggara Tim.","Kabupaten Belu, Nusa Tenggara Tim.",NUSA TENGGARA TIMUR,,Indonesia,,,,-9.2815027,124.9077816,https://maps.google.com/?cid=0x0:0x2bc7f2f3b36a501c,
perumahan,perumahan,Kec. Tasifeto Tim.,"Kabupaten Belu, Nusa Tenggara Tim.","Kabupaten Belu, Nusa Tenggara Tim.",NUSA TENGGARA TIMUR,,Indonesia,,,,-8.9630143,124.9470677,https://maps.google.com/?cid=0x0:0xa675cfc101a93068,
perumahan,Komplek perumahan,Kec Tasifeto Timur,"2W7M+8JQ, Silawan, Kec. Tasifeto Tim., Kabupaten Belu, Nusa Tenggara Tim.","Kabupaten Belu, Nusa Tenggara Tim.",NUSA TENGGARA TIMUR,,Indonesia,,,,-8.9866699,124.9341234,https://maps.google.com/?cid=0x0:0xc3771de0db0b0eef,
perumahan,Perhimpunan Pengembang Perumahan,Sorosikun Raelio,"WW66+C23, Fatubenao, Kec. Kota Atambua, Kabupaten Belu, Nusa Tenggara Tim.","Kabupaten Belu, Nusa Tenggara Tim.",NUSA TENGGARA TIMUR,,Indonesia,,,,-9.0889887,124.9100577,https://maps.google.com/?cid=0x0:0x221db3b686600c76,
perumahan,Komplek perumahan,Rumah Pribadi,"2WMW+JM, Silawan, Kec. Tasifeto Tim., Kabupaten Belu, Nusa Tenggara Tim.","Kabupaten Belu, Nusa Tenggara Tim.",NUSA TENGGARA TIMUR,,Indonesia,,,,-8.965992,124.946666,https://maps.google.com/?cid=0x0:0x4a7aa815e6b873e8,
perumahan,Perhimpunan Pengembang Perumahan,Weliurai Atambua,"Tulakadi, Kec. Tasifeto Tim., Kabupaten Belu, Nusa Tenggara Tim.","Kabupaten Belu, Nusa Tenggara Tim.",NUSA TENGGARA TIMUR,,Indonesia,,,,-9.0449001,124.9221863,https://maps.google.com/?cid=0x0:0xca2a9bb5fdb65e81,
perumahan,Komplek perumahan,Sadi,"WWQW+R32, Sadi, Kec. Tasifeto Tim., Kabupaten Belu, Nusa Tenggara Tim.","Kabupaten Belu, Nusa Tenggara Tim.",NUSA TENGGARA TIMUR,,Indonesia,,,,-9.0604865,124.9451498,https://maps.google.com/?cid=0x0:0xfb1ae72bbc202d21,
perumahan,Pembangunan Perumahan,Rumah,"2W7M+8JQ, Silawan, Kec. Tasifeto Tim., Kabupaten Belu, Nusa Tenggara Tim.","Kabupaten Belu, Nusa Tenggara Tim.",NUSA TENGGARA TIMUR,,Indonesia,,,,-8.9866699,124.9341234,https://maps.google.com/?cid=0x0:0xd651b50cefcd1f8e,
perumahan,Komplek perumahan,Rumah ponsi saka,"VX93+C8, Manleten, Kec. Tasifeto Tim., Kabupaten Belu, Nusa Tenggara Tim.","Kabupaten Belu, Nusa Tenggara Tim.",NUSA TENGGARA TIMUR,,Indonesia,,,,-9.1314361,124.9532887,https://maps.google.com/?cid=0x0:0xa104e5f14a0baf7e,
perumahan,Komplek perumahan,Kab BELU,"2WPW+QRW, Silawan, Kec. Tasifeto Tim., Kabupaten Belu, Nusa Tenggara Tim.","Kabupaten Belu, Nusa Tenggara Tim.",NUSA TENGGARA TIMUR,,Indonesia,,,,-8.9630143,124.9470677,https://maps.google.com/?cid=0x0:0xa1f8d5e0b92e9e87,
perumahan,Pembangunan Perumahan,"Wedomu, Tasifeto Timur, Belu","VX9M+RFR, Manleten, Kec. Tasifeto Tim., Kabupaten Belu, Nusa Tenggara Tim.","Kabupaten Belu, Nusa Tenggara Tim.",NUSA TENGGARA TIMUR,,Indonesia,,,,-9.1303785,124.983638,https://maps.google.com/?cid=0x0:0x70ab7c5022841bae,
perumahan,Komplek perumahan,Rumah Sann,"VX95+32C, Manleten, Kec. Tasifeto Tim., Kabupaten Belu, Nusa Tenggara Tim.","Kabupaten Belu, Nusa Tenggara Tim.",NUSA TENGGARA TIMUR,,Indonesia,,,,-9.1323001,124.957515,https://maps.google.com/?cid=0x0:0x247157de5769c384,
perumahan,Komplek perumahan,Rumah Marsel Nana,"2WGC+MW, Silawan, Kec. Tasifeto Tim., Kabupaten Belu, Nusa Tenggara Tim.","Kabupaten Belu, Nusa Tenggara Tim.",NUSA TENGGARA TIMUR,,Indonesia,,,,-8.9733125,124.9223125,https://maps.google.com/?cid=0x0:0x94e23a0c3e7c9214,
perumahan,Komplek perumahan,Trans,"2W9F+MGR, Silawan, Kec. Tasifeto Tim., Kabupaten Belu, Nusa Tenggara Tim.","Kabupaten Belu, Nusa Tenggara Tim.",NUSA TENGGARA TIMUR,,Indonesia,,,,-8.9807618,124.9237748,https://maps.google.com/?cid=0x0:0x6eff6fc34d60b4ba,
perumahan,Komplek perumahan,Rahmat Bere,"2WPQ+XWQ, Silawan, Kec. Tasifeto Tim., Kabupaten Belu, Nusa Tenggara Tim.","Kabupaten Belu, Nusa Tenggara Tim.",NUSA TENGGARA TIMUR,,Indonesia,,,,-8.9630903,124.9399674,https://maps.google.com/?cid=0x0:0xdc908c9203ddf66f,
perumahan,perumahan,Haliwen Residence Blok A,"WWJ5+6HC, Kabuna, Kec. Kakuluk Mesak, Kabupaten Belu, Nusa Tenggara Tim.","Kabupaten Belu, Nusa Tenggara Tim.",NUSA TENGGARA TIMUR,,Indonesia,,,,-9.0694298,124.9088769,https://maps.google.com/?cid=0x0:0xf144ff27014bbdd7,
perumahan,Komplek perumahan,Blas Resi,"WWMR+FXH, Jln Nai Kes-Ailora, Sadi, Kec. Tasifeto Tim., Kabupaten Belu, Nusa Tenggara Tim.","Kabupaten Belu, Nusa Tenggara Tim.",NUSA TENGGARA TIMUR,,Indonesia,,,,-9.066322,124.9424852,https://maps.google.com/?cid=0x0:0x88e97119c7fcb084,
perumahan,Komplek perumahan,Rumah HM,"VX84+X43, Jln lamasi, Manleten, Kec. Tasifeto Tim., Kabupaten Belu, Nusa Tenggara Tim.","Kabupaten Belu, Nusa Tenggara Tim.",NUSA TENGGARA TIMUR,,Indonesia,,,,-9.1326127,124.9552878,https://maps.google.com/?cid=0x0:0x85f7fb8571908941,
perumahan,Komplek perumahan,Rumah Tekuwasti,"VXCH+GW, Manleten, Kec. Tasifeto Tim., Kabupaten Belu, Nusa Tenggara Tim.","Kabupaten Belu, Nusa Tenggara Tim.",NUSA TENGGARA TIMUR,,Indonesia,,,,-9.128693,124.979834,https://maps.google.com/?cid=0x0:0xa45ddbb3bc752f58,
perumahan,Komplek perumahan,Rumah Ito Mau Durus,"VX84+X63, Jln lamasi, Manleten, Kec. Tasifeto Tim., Kabupaten Belu, Nusa Tenggara Tim.","Kabupaten Belu, Nusa Tenggara Tim.",NUSA TENGGARA TIMUR,,Indonesia,,,,-9.1326418,124.9562551,https://maps.google.com/?cid=0x0:0xe9c312369300f30d,
perumahan,Komplek perumahan,RUMAH MAMA MARTHA,"2WMW+JM, Silawan, Kec. Tasifeto Tim., Kabupaten Belu, Nusa Tenggara Tim.","Kabupaten Belu, Nusa Tenggara Tim.",NUSA TENGGARA TIMUR,,Indonesia,,,,-8.965642,124.945701,https://maps.google.com/?cid=0x0:0x4a593effe24480db,
perumahan,Komplek perumahan,Rumah Sintus Seran,"WX3V+3Q, Bauho, Kec. Tasifeto Tim., Kabupaten Belu, Nusa Tenggara Tim.","Kabupaten Belu, Nusa Tenggara Tim.",NUSA TENGGARA TIMUR,,Indonesia,,,,-9.0970372,124.995181,https://maps.google.com/?cid=0x0:0xb209af32e5c598b5,
perumahan,perumahan,Rumah Kairos Hadasa,"VWMM+M83, Manleten, Kec. Tasifeto Tim., Kabupaten Belu, Nusa Tenggara Tim.","Kabupaten Belu, Nusa Tenggara Tim.",NUSA TENGGARA TIMUR,,Indonesia,,,,-9.1158531,124.9332961,https://maps.google.com/?cid=0x0:0x61a7d88003dd9324,
perumahan,Komplek perumahan,SALORE,"XW2H+PHG, Jl. Marsda Adi Sucipto, Tulakadi, Kec. Tasifeto Tim., Kabupaten Belu, Nusa Tenggara Tim.","Kabupaten Belu, Nusa Tenggara Tim.",NUSA TENGGARA TIMUR,,Indonesia,,,,-9.0324613,124.9246286,https://maps.google.com/?cid=0x0:0x2755e71a2e922025,
perumahan,Komplek perumahan,TAEKTO'O GANK,"WW5F+Q6, Umaklaran, Kec. Tasifeto Tim., Kabupaten Belu, Nusa Tenggara Tim.","Kabupaten Belu, Nusa Tenggara Tim.",NUSA TENGGARA TIMUR,,Indonesia,,,,-9.0905338,124.923038,https://maps.google.com/?cid=0x0:0xd2ba9e267aaad22d,
perumahan,perumahan,Kec. Tasifeto Tim.,"Kabupaten Belu, Nusa Tenggara Tim.","Kabupaten Belu, Nusa Tenggara Tim.",NUSA TENGGARA TIMUR,,Indonesia,,,,-8.9630143,124.9470677,https://maps.google.com/?cid=0x0:0xa675cfc101a93068,
perumahan,Komplek perumahan,Perumahan Belu Regency,"VWMM+6GC, Manleten, Kec. Tasifeto Tim., Kabupaten Belu, Nusa Tenggara Tim.","Kabupaten Belu, Nusa Tenggara Tim.",NUSA TENGGARA TIMUR,,Indonesia,,,,-9.1169396,124.9337549,https://maps.google.com/?cid=0x0:0x47b1164980cb0e39,
perumahan,Komplek perumahan,Rumah Pribadi,"2WMW+JM, Silawan, Kec. Tasifeto Tim., Kabupaten Belu, Nusa Tenggara Tim.","Kabupaten Belu, Nusa Tenggara Tim.",NUSA TENGGARA TIMUR,,Indonesia,,,,-8.965992,124.946666,https://maps.google.com/?cid=0x0:0x4a7aa815e6b873e8,
perumahan,Perhimpunan Pengembang Perumahan,Weliurai Atambua,"Tulakadi, Kec. Tasifeto Tim., Kabupaten Belu, Nusa Tenggara Tim.","Kabupaten Belu, Nusa Tenggara Tim.",NUSA TENGGARA TIMUR,,Indonesia,,,,-9.0449001,124.9221863,https://maps.google.com/?cid=0x0:0xca2a9bb5fdb65e81,
perumahan,Komplek perumahan,Sadi,"WWQW+R32, Sadi, Kec. Tasifeto Tim., Kabupaten Belu, Nusa Tenggara Tim.","Kabupaten Belu, Nusa Tenggara Tim.",NUSA TENGGARA TIMUR,,Indonesia,,,,-9.0604865,124.9451498,https://maps.google.com/?cid=0x0:0xfb1ae72bbc202d21,
perumahan,Pembangunan Perumahan,Rumah,"2W7M+8JQ, Silawan, Kec. Tasifeto Tim., Kabupaten Belu, Nusa Tenggara Tim.","Kabupaten Belu, Nusa Tenggara Tim.",NUSA TENGGARA TIMUR,,Indonesia,,,,-8.9866699,124.9341234,https://maps.google.com/?cid=0x0:0xd651b50cefcd1f8e,
perumahan,Pembangunan Perumahan,"Wedomu, Tasifeto Timur, Belu","VX9M+RFR, Manleten, Kec. Tasifeto Tim., Kabupaten Belu, Nusa Tenggara Tim.","Kabupaten Belu, Nusa Tenggara Tim.",NUSA TENGGARA TIMUR,,Indonesia,,,,-9.1303785,124.983638,https://maps.google.com/?cid=0x0:0x70ab7c5022841bae,
perumahan,Komplek perumahan,Kab BELU,"2WPW+QRW, Silawan, Kec. Tasifeto Tim., Kabupaten Belu, Nusa Tenggara Tim.","Kabupaten Belu, Nusa Tenggara Tim.",NUSA TENGGARA TIMUR,,Indonesia,,,,-8.9630143,124.9470677,https://maps.google.com/?cid=0x0:0xa1f8d5e0b92e9e87,
perumahan,Komplek perumahan,Rumah Marsel Nana,"2WGC+MW, Silawan, Kec. Tasifeto Tim., Kabupaten Belu, Nusa Tenggara Tim.","Kabupaten Belu, Nusa Tenggara Tim.",NUSA TENGGARA TIMUR,,Indonesia,,,,-8.9733125,124.9223125,https://maps.google.com/?cid=0x0:0x94e23a0c3e7c9214,
perumahan,Komplek perumahan,Blas Resi,"WWMR+FXH, Jln Nai Kes-Ailora, Sadi, Kec. Tasifeto Tim., Kabupaten Belu, Nusa Tenggara Tim.","Kabupaten Belu, Nusa Tenggara Tim.",NUSA TENGGARA TIMUR,,Indonesia,,,,-9.066322,124.9424852,https://maps.google.com/?cid=0x0:0x88e97119c7fcb084,
perumahan,Komplek perumahan,Rumah Sann,"VX95+32C, Manleten, Kec. Tasifeto Tim., Kabupaten Belu, Nusa Tenggara Tim.","Kabupaten Belu, Nusa Tenggara Tim.",NUSA TENGGARA TIMUR,,Indonesia,,,,-9.1323001,124.957515,https://maps.google.com/?cid=0x0:0x247157de5769c384,
perumahan,Komplek perumahan,Rumah Tekuwasti,"VXCH+GW, Manleten, Kec. Tasifeto Tim., Kabupaten Belu, Nusa Tenggara Tim.","Kabupaten Belu, Nusa Tenggara Tim.",NUSA TENGGARA TIMUR,,Indonesia,,,,-9.128693,124.979834,https://maps.google.com/?cid=0x0:0xa45ddbb3bc752f58,
perumahan,Komplek perumahan,Trans,"2W9F+MGR, Silawan, Kec. Tasifeto Tim., Kabupaten Belu, Nusa Tenggara Tim.","Kabupaten Belu, Nusa Tenggara Tim.",NUSA TENGGARA TIMUR,,Indonesia,,,,-8.9807618,124.9237748,https://maps.google.com/?cid=0x0:0x6eff6fc34d60b4ba,
perumahan,perumahan,Haliwen Residence Blok A,"WWJ5+6HC, Kabuna, Kec. Kakuluk Mesak, Kabupaten Belu, Nusa Tenggara Tim.","Kabupaten Belu, Nusa Tenggara Tim.",NUSA TENGGARA TIMUR,,Indonesia,,,,-9.0694298,124.9088769,https://maps.google.com/?cid=0x0:0xf144ff27014bbdd7,
perumahan,Komplek perumahan,Rumah Sintus Seran,"WX3V+3Q, Bauho, Kec. Tasifeto Tim., Kabupaten Belu, Nusa Tenggara Tim.","Kabupaten Belu, Nusa Tenggara Tim.",NUSA TENGGARA TIMUR,,Indonesia,,,,-9.0970372,124.995181,https://maps.google.com/?cid=0x0:0xb209af32e5c598b5,
perumahan,Pembangunan Perumahan,B pu rumah,"VWHQ+5RX, Manleten, Kec. Tasifeto Tim., Kabupaten Belu, Nusa Tenggara Tim.","Kabupaten Belu, Nusa Tenggara Tim.",NUSA TENGGARA TIMUR,,Indonesia,,,,-9.1220165,124.9396097,https://maps.google.com/?cid=0x0:0x40c5628d53a53a4d,
perumahan,Komplek perumahan,Rumah Nonj,"VXGJ+R4C, Manleten, Kec. Tasifeto Tim., Kabupaten Belu, Nusa Tenggara Tim.","Kabupaten Belu, Nusa Tenggara Tim.",NUSA TENGGARA TIMUR,,Indonesia,,,,-9.1229469,124.9802672,https://maps.google.com/?cid=0x0:0x5a245dfe94367afa,
perumahan,Komplek perumahan,Rahmat Bere,"2WPQ+XWQ, Silawan, Kec. Tasifeto Tim., Kabupaten Belu, Nusa Tenggara Tim.","Kabupaten Belu, Nusa Tenggara Tim.",NUSA TENGGARA TIMUR,,Indonesia,,,,-8.9630903,124.9399674,https://maps.google.com/?cid=0x0:0xdc908c9203ddf66f,
perumahan,Komplek perumahan,SALORE,"XW2H+PHG, Jl. Marsda Adi Sucipto, Tulakadi, Kec. Tasifeto Tim., Kabupaten Belu, Nusa Tenggara Tim.","Kabupaten Belu, Nusa Tenggara Tim.",NUSA TENGGARA TIMUR,,Indonesia,,,,-9.0324613,124.9246286,https://maps.google.com/?cid=0x0:0x2755e71a2e922025,
perumahan,Komplek perumahan,Rumah Ito Mau Durus,"VX84+X63, Jln lamasi, Manleten, Kec. Tasifeto Tim., Kabupaten Belu, Nusa Tenggara Tim.","Kabupaten Belu, Nusa Tenggara Tim.",NUSA TENGGARA TIMUR,,Indonesia,,,,-9.1326418,124.9562551,https://maps.google.com/?cid=0x0:0xe9c312369300f30d,
perumahan,Komplek perumahan,Rumah ponsi saka,"VX93+C8, Manleten, Kec. Tasifeto Tim., Kabupaten Belu, Nusa Tenggara Tim.","Kabupaten Belu, Nusa Tenggara Tim.",NUSA TENGGARA TIMUR,,Indonesia,,,,-9.1314361,124.9532887,https://maps.google.com/?cid=0x0:0xa104e5f14a0baf7e,
perumahan,Pembangunan Perumahan,Rumah Efrem,"RXX6+RW5, Dafala, Kec. Tasifeto Tim., Kabupaten Belu, Nusa Tenggara Tim.","Kabupaten Belu, Nusa Tenggara Tim.",NUSA TENGGARA TIMUR,,Indonesia,,,,-9.1509892,124.9628597,https://maps.google.com/?cid=0x0:0x6ad26576a529a544,
perumahan,Komplek perumahan,Rumah HM,"VX84+X43, Jln lamasi, Manleten, Kec. Tasifeto Tim., Kabupaten Belu, Nusa Tenggara Tim.","Kabupaten Belu, Nusa Tenggara Tim.",NUSA TENGGARA TIMUR,,Indonesia,,,,-9.1326127,124.9552878,https://maps.google.com/?cid=0x0:0x85f7fb8571908941,
perumahan,perumahan,Rumah Kairos Hadasa,"VWMM+M83, Manleten, Kec. Tasifeto Tim., Kabupaten Belu, Nusa Tenggara Tim.","Kabupaten Belu, Nusa Tenggara Tim.",NUSA TENGGARA TIMUR,,Indonesia,,,,-9.1158531,124.9332961,https://maps.google.com/?cid=0x0:0x61a7d88003dd9324,
perumahan,Komplek perumahan,TAEKTO'O GANK,"WW5F+Q6, Umaklaran, Kec. Tasifeto Tim., Kabupaten Belu, Nusa Tenggara Tim.","Kabupaten Belu, Nusa Tenggara Tim.",NUSA TENGGARA TIMUR,,Indonesia,,,,-9.0905338,124.923038,https://maps.google.com/?cid=0x0:0xd2ba9e267aaad22d,
perumahan,Komplek perumahan,Fatubesi,"WXM3+95G, Sadi, Kec. Tasifeto Tim., Kabupaten Belu, Nusa Tenggara Tim.","Kabupaten Belu, Nusa Tenggara Tim.",NUSA TENGGARA TIMUR,,Indonesia,,,,-9.0665689,124.9529629,https://maps.google.com/?cid=0x0:0x2453e1f7664baca5,
