Category,Real Category,Business Name,Address,City,State,Postal Code,Country,Phone,Email,Website,Latitude,Longitude,Map Link,Details Link
hotel,hotel,Kec. Namrole,"Kabupaten Buru Selatan, Maluku","Kabupaten Buru Selatan, Maluku",MALUKU,,Indonesia,,,,-38.444.685,1.267.353.848,https://maps.google.com/?cid=0x0:0xe0ed0a265027f75e,
hotel,hotel,Penginapan Puri Indah,"JXVH+VH4, Waenetat, Kec. Waeapo, Kabupaten Buru, Maluku","Kabupaten Buru, Maluku",MALUKU,,Indonesia,85232218791,,,-33.553.641,126.978.959,https://maps.google.com/?cid=0x0:0x217f5e9737904dd6,
hotel,hotel,Airy Maluku City Sudirman Ambon,"85JX+J8C, Jl. Jenderal Sudirman, Hative Kecil, Kec. Sirimau, Kota Ambon, Maluku 97128","Jl. Jenderal Sudirman, Hative Kecil, Kec. Sirimau, Kota Ambon",MALUKU,97128.0,Indonesia,8041112479,,,-36.684.342,1.281.982.566,https://maps.google.com/?cid=0x0:0xd9a527375825a79,
hotel,Hotel,Hotel Golden Alfri's,"5P5Q+738, Jl. Kabupaten, Labuang, Kec. Namrole, Kabupaten Buru Selatan, Maluku","Kabupaten Buru Selatan, Maluku",MALUKU,,Indonesia,91322220,,,-38.418.496,1.267.376.982,https://maps.google.com/?cid=0x0:0xaebb5d6edcf18036,
hotel,Hotel,Penginapan 2 Saudara,"5P2P+57F, Labuang, Kec. Namrole, Kabupaten Buru Selatan, Maluku","Kabupaten Buru Selatan, Maluku",MALUKU,,Indonesia,,,,-38.495.653,126.735.657,https://maps.google.com/?cid=0x0:0xe723b31b241800d4,
hotel,Hotel,penginapan sartika 2,"5P4M+FMC, Jl. Kabupaten, Waenalut, Kec. Namrole, Kabupaten Buru Selatan, Maluku","Kabupaten Buru Selatan, Maluku",MALUKU,,Indonesia,85197065040,,,-38.438.132,12.673.415,https://maps.google.com/?cid=0x0:0xe67b971c3ec02278,
hotel,Pondok,penginapan GRAND SAHLAN,"5P4G+CGP, Unnamed Road, Elfule, Kec. Namrole, Kabupaten Buru Selatan, Maluku","Kabupaten Buru Selatan, Maluku",MALUKU,,Indonesia,85254785892,,,-38.439.099,1.267.263.206,https://maps.google.com/?cid=0x0:0x2dd38f19320f6c31,
hotel,Hotel,Penginapan Syafnur (3rm),"Jalan Karel Satsuitubun, Elfule, Kec. Namrole, Kabupaten Buru Selatan, Maluku","Kabupaten Buru Selatan, Maluku",MALUKU,,Indonesia,81296099193,,,-38.443.117,1.267.230.123,https://maps.google.com/?cid=0x0:0xd16b3d238997a9fe,
hotel,Penginapan religi,Penginapan Marennu,"5P2P+CG7, Labuang, Kec. Namrole, Kabupaten Buru Selatan, Maluku","Kabupaten Buru Selatan, Maluku",MALUKU,,Indonesia,82238172122,,,-38.489.633,12.673.629,https://maps.google.com/?cid=0x0:0x45995872bb00551e,
hotel,Pondok,Penginapan RAMA,"5P4C+6XJ, Jl. Kabupaten, Elfule, Kec. Namrole, Kabupaten Buru Selatan, Maluku","Kabupaten Buru Selatan, Maluku",MALUKU,,Indonesia,,,,-38.444.037,1.267.224.042,https://maps.google.com/?cid=0x0:0xb78fb92bf93c62e2,
hotel,Hotel,Home base,"5P5H+MG9, Elfule, Kec. Namrole, Kabupaten Buru Selatan, Maluku","Kabupaten Buru Selatan, Maluku",MALUKU,,Indonesia,,,,-38.408.353,126.728.859,https://maps.google.com/?cid=0x0:0xdc8cd0e0aa39d681,
hotel,Pondok,Penginapan Ozan,"5P6Q+379, Jl. Kabupaten, Labuang, Kec. Namrole, Kabupaten Buru Selatan, Maluku","Kabupaten Buru Selatan, Maluku",MALUKU,,Indonesia,,,,-38.399.264,1.267.382.236,https://maps.google.com/?cid=0x0:0x56311854a2e39755,
hotel,Pondok,Guest House Erdogan,"5P4M+6XH, Labuang, Kec. Namrole, Kabupaten Buru Selatan, Maluku","Kabupaten Buru Selatan, Maluku",MALUKU,,Indonesia,,,,-38.444.388,1.267.349.909,https://maps.google.com/?cid=0x0:0x6c060cc16cabf723,
hotel,hotel,Maluku,,Maluku,MALUKU,,Indonesia,,,,-32.384.616,1.301.452.734,https://maps.google.com/?cid=0x0:0x5e30e8db04649a51,
hotel,Hotel,KAY'NAWA HOTEL,"Namlea, Kec. Namlea, Kabupaten Buru, Maluku","Kabupaten Buru, Maluku",MALUKU,,Indonesia,82239078260,,,-32.620.241,1.270.970.331,https://maps.google.com/?cid=0x0:0x385a3a28622497df,
hotel,Rumah berlibur,Waelmatai Resort,"G736+R53, Liang, Kec. Salahutu, Kabupaten Maluku Tengah, Maluku","Kabupaten Maluku Tengah, Maluku",MALUKU,,Indonesia,81344203640,,,-34.954.938,1.282.604.197,https://maps.google.com/?cid=0x0:0xd7d7178d3b74f18a,
hotel,hotel,,,,MALUKU,,Indonesia,,,,,,https://maps.google.com/?cid=0x0:0xb66509852ba2428c%7C/g/121qycpm%7Cen-ID,
hotel,hotel,Swiss-Belhotel Ambon,"Jl. Benteng Kapaha No.88, Uritetu, Kec. Sirimau, Kota Ambon, Maluku 97124","Uritetu, Kec. Sirimau, Kota Ambon",MALUKU,97124.0,Indonesia,911322888,,,-36.944.935,1.281.853.354,https://maps.google.com/?cid=0x0:0x80fb28ed089099ce,
hotel,hotel,Pantai Natsepa,"Suli, Kec. Salahutu, Kabupaten Maluku Tengah, Maluku","Kabupaten Maluku Tengah, Maluku",MALUKU,,Indonesia,,,,-36.215.465,1.282.921.198,https://maps.google.com/?cid=0x0:0x4f23bfbc3a9673f2,
hotel,hotel,,,,MALUKU,,Indonesia,,,,,,https://maps.google.com/?cid=0x0:0x80fb28ed089099ce%7C/g/1q67cz98h%7Cen-ID,
hotel,Balai masyarakat,Jembatan Merah Putih,"Jl. Jemb. Merah Putih, Kec. Sirimau, Kota Ambon, Maluku","Kota Ambon, Maluku",MALUKU,,Indonesia,,,,-36.619.296,1.281.982.884,https://maps.google.com/?cid=0x0:0x51809566a7c4728c,
hotel,Tujuan Wisata,Pantai Pintu Kota Ambon,"65H2+QXM, Nusaniwe, Kec. Nusaniwe, Kota Ambon, Maluku","Kota Ambon, Maluku",MALUKU,,Indonesia,,,,-37.705.365,1.281.524.331,https://maps.google.com/?cid=0x0:0x456317295a6201a6,
hotel,hotel,RumaRuma Farvet Residence,"Jl. DR. Kayadoe, Kel Wainitu, Kec. Nusaniwe, Kota Ambon, Maluku 97114","Kel Wainitu, Kec. Nusaniwe, Kota Ambon",MALUKU,97114.0,Indonesia,911320001,,,-37.048.297,1.281.749.829,https://maps.google.com/?cid=0x0:0x157b5f43bce7d2b7,
hotel,hotel,LeGreen Suite Waihaong,"Jl. Sultan Babullah No.48, Kel Waihaong, Kec. Nusaniwe, Kota Ambon, Maluku 97115","Kel Waihaong, Kec. Nusaniwe, Kota Ambon",MALUKU,97115.0,Indonesia,911350068,,,-36.996.254,1.281.756.492,https://maps.google.com/?cid=0x0:0xb21959aef3d161b1,
hotel,hotel,,,,MALUKU,,Indonesia,,,,,,https://maps.google.com/?cid=0x0:0xb21959aef3d161b1%7C/g/11f4wtlgqx%7Cen-ID,
hotel,Hotel Resor,Lisar Bahari Resort,"25RH+PP9, Ceram Sea, Sawai, Kabupaten Maluku Tengah, Maluku","Kabupaten Maluku Tengah, Maluku",MALUKU,,Indonesia,8211181137,,,-29.582.217,1.291.793.679,https://maps.google.com/?cid=0x0:0xf7eacc86a3bfcec0,
hotel,hotel,Maluku Residence Syariah,"De Fretes No.12, Kel Waihaong, Kec. Nusaniwe, Kota Ambon, Maluku","Kota Ambon, Maluku",MALUKU,,Indonesia,,,,-37.011.319,1.281.764.157,https://maps.google.com/?cid=0x0:0x5e6e20d52e229730,
hotel,hotel,Maluku Resort and Spa,"Jl Waititiri, Suli, Salahutu, Central Maluku Regency, Maluku 97582","Suli, Salahutu, Central Maluku Regency",MALUKU,97582.0,Indonesia,911361970,,,-36.167.962,1.282.776.551,https://maps.google.com/?cid=0x0:0x399bf62f92df6277,
hotel,hotel,OYO 2165 Alyah Guest House Syariah,"Jalan De Fretes, Kel Waihaong, Kec. Nusaniwe, Kota Ambon, Maluku 92711","Kel Waihaong, Kec. Nusaniwe, Kota Ambon",MALUKU,92711.0,Indonesia,2129707601,,,-37.010.179,128.175.948,https://maps.google.com/?cid=0x0:0x23d91836a6f828a4,
hotel,hotel,,,,MALUKU,,Indonesia,,,,,,https://maps.google.com/?cid=0x0:0x23d91836a6f828a4%7C/g/11fqp5vdbp%7Cen-ID,
hotel,hotel,"Air Belanda Resort, Near Ora Beach","Bar.,, Saleman, Kec. Seram Utara Bar., Kabupaten Maluku Tengah, Maluku","Kabupaten Maluku Tengah, Maluku",MALUKU,,Indonesia,85343852368,,,-29.696.582,1.291.301.286,https://maps.google.com/?cid=0x0:0x422a9bf330aa0cfd,
hotel,hotel,Pantai Ora,"Jl. Kabupaten, Kec. Seram Utara, Kabupaten Maluku Tengah, Maluku","Kabupaten Maluku Tengah, Maluku",MALUKU,,Indonesia,,,,-29.598.946,1.291.392.275,https://maps.google.com/?cid=0x0:0xf8e9bb942190466b,
hotel,hotel,Baguala Beach,"97MH+63G, Suli, Kec. Salahutu, Kabupaten Maluku Tengah, Maluku","Kabupaten Maluku Tengah, Maluku",MALUKU,,Indonesia,81259490022,,,-36.169.452,1.282.777.185,https://maps.google.com/?cid=0x0:0x632f2cf306fa3e94,
hotel,hotel,MahuLodge Dive Operator | Accomodation,"Ihamahu, Kec. Saparua Timur, Kabupaten Maluku Tengah, Maluku 97585","Kec. Saparua Timur, Kabupaten Maluku Tengah",MALUKU,97585.0,Indonesia,82125254789,,,-35.286.638,1.286.870.896,https://maps.google.com/?cid=0x0:0x66cdc8852940cb13,
hotel,Tujuan Wisata,"Benteng  VOC "" Duurstede Saparua""","Saparua, Kec. Saparua, Kabupaten Maluku Tengah, Maluku","Kabupaten Maluku Tengah, Maluku",MALUKU,,Indonesia,,,,-35.752.083,1.286.591.167,https://maps.google.com/?cid=0x0:0x8bcb1aada430e7aa,
hotel,Hotel,Hotel Awista,"P3PQ+68F, Jl. Dermaga Baru, Namlea, Kec. Namlea, Kabupaten Buru, Maluku 97571","Jl. Dermaga Baru, Namlea, Kec. Namlea, Kabupaten Buru",MALUKU,97571.0,Indonesia,82140872190,,,-32.644.395,1.270.882.915,https://maps.google.com/?cid=0x0:0x453d4db43168e9c9,
hotel,Guest house,Wayame Bay Hotel,"85P8+4RW, Wayame, Kec. Tlk. Ambon, Kota Ambon, Maluku","Kota Ambon, Maluku",MALUKU,,Indonesia,8114789845,,,-36.649.717,1.281.670.112,https://maps.google.com/?cid=0x0:0x468aa37b86386a94,
hotel,hotel,Grand Sarah Hotel,"Jl. Jenderal Ahmad Yani No.18, Namlea, Kec. Namlea, Kabupaten Buru, Maluku 97571","Namlea, Kec. Namlea, Kabupaten Buru",MALUKU,97571.0,Indonesia,91321533,,,-32.749.299,1.270.968.531,https://maps.google.com/?cid=0x0:0x11d0f9858d026afc,
hotel,Tujuan Wisata,Bukit Tatanggo,"P3XM+FV, Namlea, Kec. Namlea, Kabupaten Buru, Maluku","Kabupaten Buru, Maluku",MALUKU,,Indonesia,,,,-32.513.058,127.084.644,https://maps.google.com/?cid=0x0:0xea5427534d4819ed,
hotel,hotel,Hotel Kartika One,"Jl. Raya Lenteng Agung No.18, RT.10/RW.2, Srengseng Sawah, Kec. Jagakarsa, Kota Jakarta Selatan, Daerah Khusus Ibukota Jakarta 12630","RT.10/RW.2, Srengseng Sawah, Kec. Jagakarsa, Kota Jakarta Selatan",MALUKU,12630.0,Indonesia,2172736888,,,-63.446.323,1.068.336.946,https://maps.google.com/?cid=0x0:0xbc75ff41a526e2e,
hotel,hotel,,,,MALUKU,,Indonesia,,,,,,https://maps.google.com/?cid=0x0:0xbc75ff41a526e2e%7C/g/11h_f6hmbq%7Cen-ID,
hotel,hotel,The Margo Hotel Depok,"Jl. Margonda No.358, Kemiri Muka, Kecamatan Beji, Kota Depok, Jawa Barat 16424","Kemiri Muka, Kecamatan Beji, Kota Depok",MALUKU,16424.0,Indonesia,2129515888,,,-63.719.578,106.833.642,https://maps.google.com/?cid=0x0:0xa32b5205cfd6ef6,
hotel,hotel,Maluku Resort and Spa,"Jl Waititiri, Suli, Salahutu, Central Maluku Regency, Maluku 97582","Suli, Salahutu, Central Maluku Regency",MALUKU,97582.0,Indonesia,911361970,,,-36.167.962,1.282.776.551,https://maps.google.com/?cid=0x0:0x399bf62f92df6277,
hotel,hotel,Kec. Ambalau,"Kabupaten Buru Selatan, Maluku","Kabupaten Buru Selatan, Maluku",MALUKU,,Indonesia,,,,-38.899.285,1.272.026.214,https://maps.google.com/?cid=0x0:0x2312ee616bf35f0,
hotel,hotel,Airy Maluku City Sudirman Ambon,"85JX+J8C, Jl. Jenderal Sudirman, Hative Kecil, Kec. Sirimau, Kota Ambon, Maluku 97128","Jl. Jenderal Sudirman, Hative Kecil, Kec. Sirimau, Kota Ambon",MALUKU,97128.0,Indonesia,8041112479,,,-36.684.342,1.281.982.566,https://maps.google.com/?cid=0x0:0xd9a527375825a79,
hotel,hotel,The Natsepa Hotel  Resort,"Jl. Natsepa No.36, Suli, Kec. Salahutu, Kabupaten Maluku Tengah, Maluku 97582","Suli, Kec. Salahutu, Kabupaten Maluku Tengah",MALUKU,97582.0,Indonesia,911362555,,,-36.224.597,1.282.856.783,https://maps.google.com/?cid=0x0:0xb66509852ba2428c,
hotel,hotel,,,,MALUKU,,Indonesia,,,,,,https://maps.google.com/?cid=0x0:0xb66509852ba2428c%7C/g/121qycpm%7Cen-ID,
hotel,hotel,Ambon Residence Syariah,"Sultan babullah sk 30/50, Kel Waihaong, Kec. Nusaniwe, Kota Ambon, Maluku 97112","Kel Waihaong, Kec. Nusaniwe, Kota Ambon",MALUKU,97112.0,Indonesia,85243001169,,,-37.009.901,1.281.759.383,https://maps.google.com/?cid=0x0:0x838abc5d6235d6dc,
hotel,hotel,Hotel amboina,"Uritetu, Kec. Sirimau, Kota Ambon, Maluku","Kota Ambon, Maluku",MALUKU,,Indonesia,82197666991,,,-36.962.935,1.281.833.458,https://maps.google.com/?cid=0x0:0xd0df5cf8364cfadf,
hotel,hotel,Baguala Beach,"97MH+63G, Suli, Kec. Salahutu, Kabupaten Maluku Tengah, Maluku","Kabupaten Maluku Tengah, Maluku",MALUKU,,Indonesia,81259490022,,,-36.169.452,1.282.777.185,https://maps.google.com/?cid=0x0:0x632f2cf306fa3e94,
hotel,hotel,OYO 2221 Masoya Cottage Amboina,"Jl. Dr. J. Leimena, Poka, Kec. Tlk. Ambon, Kota Ambon, Maluku 97233","Poka, Kec. Tlk. Ambon, Kota Ambon",MALUKU,97233.0,Indonesia,2129707601,,,-36.510.707,1.281.960.189,https://maps.google.com/?cid=0x0:0x92ea2daa96082bb5,
hotel,hotel,Kalimantan Barat 78684,"Kabupaten Sintang, Kalimantan Barat","Kabupaten Sintang, Kalimantan Barat",MALUKU,,Indonesia,,,,-0.0687881,1.129.058.802,https://maps.google.com/?cid=0x0:0xc818bb777c60929,
hotel,Guest house,Penginapan Cintana 2,"9892+WR, Nanga Tepuai, Kec. Hulu Gurung, Kabupaten Kapuas Hulu, Kalimantan Barat","Kabupaten Kapuas Hulu, Kalimantan Barat",MALUKU,,Indonesia,81254209200,,,0.3698962,1.123.021.867,https://maps.google.com/?cid=0x0:0xae523f1e913bb20e,
hotel,hotel,"Penginapan Amazon""""","Nanga Tepuai, Kec. Hulu Gurung, Kabupaten Kapuas Hulu, Kalimantan Barat","Kabupaten Kapuas Hulu, Kalimantan Barat",MALUKU,,Indonesia,,,,0.3695659,1.123.037.557,https://maps.google.com/?cid=0x0:0xccfc0a6d931d4fea,
hotel,Penginapan,Penginapan Wijaya,"98C5+FMC, Nanga Tepuai, Kec. Hulu Gurung, Kabupaten Kapuas Hulu, Kalimantan Barat 78764","Nanga Tepuai, Kec. Hulu Gurung, Kabupaten Kapuas Hulu",MALUKU,78764.0,Indonesia,85245889182,,,0.3711853,1.123.091.482,https://maps.google.com/?cid=0x0:0xf1465cb6f90bedbc,
hotel,hotel,Maluku Resort and Spa,"Jl Waititiri, Suli, Salahutu, Central Maluku Regency, Maluku 97582","Suli, Salahutu, Central Maluku Regency",MALUKU,97582.0,Indonesia,911361970,,,-36.167.962,1.282.776.551,https://maps.google.com/?cid=0x0:0x399bf62f92df6277,
hotel,hotel,Kec. Ambalau,"Kabupaten Buru Selatan, Maluku","Kabupaten Buru Selatan, Maluku",MALUKU,,Indonesia,,,,-38.899.285,1.272.026.214,https://maps.google.com/?cid=0x0:0x2312ee616bf35f0,
hotel,hotel,Airy Maluku City Sudirman Ambon,"85JX+J8C, Jl. Jenderal Sudirman, Hative Kecil, Kec. Sirimau, Kota Ambon, Maluku 97128","Jl. Jenderal Sudirman, Hative Kecil, Kec. Sirimau, Kota Ambon",MALUKU,97128.0,Indonesia,8041112479,,,-36.684.342,1.281.982.566,https://maps.google.com/?cid=0x0:0xd9a527375825a79,
hotel,hotel,,,,MALUKU,,Indonesia,,,,,,https://maps.google.com/?cid=0x0:0xb66509852ba2428c%7C/g/121qycpm%7Cen-ID,
hotel,hotel,The Natsepa Hotel  Resort,"Jl. Natsepa No.36, Suli, Kec. Salahutu, Kabupaten Maluku Tengah, Maluku 97582","Suli, Kec. Salahutu, Kabupaten Maluku Tengah",MALUKU,97582.0,Indonesia,911362555,,,-36.224.597,1.282.856.783,https://maps.google.com/?cid=0x0:0xb66509852ba2428c,
hotel,hotel,Hotel amboina,"Uritetu, Kec. Sirimau, Kota Ambon, Maluku","Kota Ambon, Maluku",MALUKU,,Indonesia,82197666991,,,-36.962.935,1.281.833.458,https://maps.google.com/?cid=0x0:0xd0df5cf8364cfadf,
hotel,hotel,Baguala Beach,"97MH+63G, Suli, Kec. Salahutu, Kabupaten Maluku Tengah, Maluku","Kabupaten Maluku Tengah, Maluku",MALUKU,,Indonesia,81259490022,,,-36.169.452,1.282.777.185,https://maps.google.com/?cid=0x0:0x632f2cf306fa3e94,
hotel,hotel,Airy Batu Meja Sirimau 12 Ambon,"Jl. Sirimau No.12, Kel Batu Meja, Kec. Sirimau, Kota Ambon, Maluku 97123","Kel Batu Meja, Kec. Sirimau, Kota Ambon",MALUKU,97123.0,Indonesia,8041112479,,,-36.982.453,1.281.866.202,https://maps.google.com/?cid=0x0:0x9301011cf5cb69ad,
hotel,Hotel,Penginapan 2 Saudara,"5P2P+57F, Labuang, Kec. Namrole, Kabupaten Buru Selatan, Maluku","Kabupaten Buru Selatan, Maluku",MALUKU,,Indonesia,,,,-38.495.653,126.735.657,https://maps.google.com/?cid=0x0:0xe723b31b241800d4,
hotel,Hotel,penginapan sartika 2,"5P4M+FMC, Jl. Kabupaten, Waenalut, Kec. Namrole, Kabupaten Buru Selatan, Maluku","Kabupaten Buru Selatan, Maluku",MALUKU,,Indonesia,85197065040,,,-38.438.132,12.673.415,https://maps.google.com/?cid=0x0:0xe67b971c3ec02278,
hotel,hotel,Grand Sarah Hotel,"Jl. Jenderal Ahmad Yani No.18, Namlea, Kec. Namlea, Kabupaten Buru, Maluku 97571","Namlea, Kec. Namlea, Kabupaten Buru",MALUKU,97571.0,Indonesia,91321533,,,-32.749.299,1.270.968.531,https://maps.google.com/?cid=0x0:0x11d0f9858d026afc,
hotel,Hotel,KAY'NAWA HOTEL,"Namlea, Kec. Namlea, Kabupaten Buru, Maluku","Kabupaten Buru, Maluku",MALUKU,,Indonesia,82239078260,,,-32.620.241,1.270.970.331,https://maps.google.com/?cid=0x0:0x385a3a28622497df,
hotel,Hotel,Hotel Awista,"P3PQ+68F, Jl. Dermaga Baru, Namlea, Kec. Namlea, Kabupaten Buru, Maluku 97571","Jl. Dermaga Baru, Namlea, Kec. Namlea, Kabupaten Buru",MALUKU,97571.0,Indonesia,82140872190,,,-32.644.395,1.270.882.915,https://maps.google.com/?cid=0x0:0x453d4db43168e9c9,
hotel,hotel,Leksula,"Kabupaten Buru Selatan, Maluku","Kabupaten Buru Selatan, Maluku",MALUKU,,Indonesia,,,,-35.795.592,1.263.064.595,https://maps.google.com/?cid=0x0:0xc3381880c2b002c0,
hotel,Hotel,Kel.N.Pattinasarany,"Leksula, Kabupaten Buru Selatan, Maluku","Kabupaten Buru Selatan, Maluku",MALUKU,,Indonesia,,,,-37.778.216,1.265.154.302,https://maps.google.com/?cid=0x0:0x8aa3fd1814307a83,
hotel,Motel,Penginapan Tamariska,"6GC5+9MJ, Leksula, Kabupaten Buru Selatan, Maluku","Kabupaten Buru Selatan, Maluku",MALUKU,,Indonesia,81343252325,,,-37.790.411,1.265.091.459,https://maps.google.com/?cid=0x0:0x3c10f1291d672dc7,
hotel,hotel,RedDoorz near Pantai Falajawa,"Jl. Sultan Nuku No.100, Muhajirin, Kec. Ternate Tengah, Kota Ternate, Maluku Utara","Kota Ternate, Maluku Utara",MALUKU,,Indonesia,"8,95417E+11",,,0.7834077,1.273.878.732,https://maps.google.com/?cid=0x0:0xd410298132550869,
hotel,hotel,Ternate City Hotel,"Jl. Nuku No.1, Muhajirin, Kec. Ternate Tengah, Kota Ternate, Maluku Utara 97713","Muhajirin, Kec. Ternate Tengah, Kota Ternate",MALUKU,97713.0,Indonesia,81327824005,,,0.7831686,1.273.881.079,https://maps.google.com/?cid=0x0:0xf0a0764df41ded6,
hotel,hotel,Grand Majang Hotel Ternate,"Jl. Arnold Mononutu No.275, Stadion, Kec. Ternate Tengah, Kota Ternate, Maluku Utara","Kota Ternate, Maluku Utara",MALUKU,,Indonesia,81289376601,,,0.7836107,1.273.845.012,https://maps.google.com/?cid=0x0:0xf6e7394b3e66015f,
hotel,hotel,D'Wantys Hotel,"Q9HG+WHC RW.Jerbus Kel, Tanah Tinggi Bar., Kec. Ternate Sel., Kota Ternate, Maluku Utara","Kota Ternate, Maluku Utara",MALUKU,,Indonesia,9216203046,,,0.7798217,1.273.763.933,https://maps.google.com/?cid=0x0:0xbcfba8a376993043,
hotel,hotel,AINI HOMESTAY TERNATE,"Jl. Toboleu Koloncucu Gipsy No. 45/703, Kelurahan, RT.16/RW.06, Toboleu, Kec. Kota Ternate Utara, Kota Ternate, Maluku Utara 97716","Kelurahan, RT.16/RW.06, Toboleu, Kec. Kota Ternate Utara, Kota Ternate",MALUKU,97716.0,Indonesia,8124752595,,,0.8067324,1.273.839.976,https://maps.google.com/?cid=0x0:0xed94a780f4cf3705,
hotel,hotel,Boulevard Hotel,"Q9RQ+4WQ, Jalan Ruko Jatiland Jl. Sultan M. Djabir Sjah No.1 - 5, Gamalama, Kec. Kota Ternate Utara, Maluku Utara",Maluku Utara,MALUKU,,Indonesia,9213110666,,,0.7900983,1.273.899.972,https://maps.google.com/?cid=0x0:0x81f2c24d2703d498,
hotel,hotel,Hotel Gamalama Indah,"Q9QQ+RX6, Gamalama, Kec. Ternate Tengah, Kota Ternate, Maluku Utara","Kota Ternate, Maluku Utara",MALUKU,,Indonesia,81380008545,,,0.7895272,1.273.898.938,https://maps.google.com/?cid=0x0:0x2029c9b62509c39,
hotel,hotel,Gn. Gamalama,"Hutan Lindung, Kec. Hutan Lindung, Kota Ternate, Maluku Utara","Kota Ternate, Maluku Utara",MALUKU,,Indonesia,,,,0.8091666,1.273.333.333,https://maps.google.com/?cid=0x0:0x1f13cae0fc042e8,
hotel,Hotel,Hotel Awista,"P3PQ+68F, Jl. Dermaga Baru, Namlea, Kec. Namlea, Kabupaten Buru, Maluku 97571","Jl. Dermaga Baru, Namlea, Kec. Namlea, Kabupaten Buru",MALUKU,97571.0,Indonesia,82140872190,,,-32.644.395,1.270.882.915,https://maps.google.com/?cid=0x0:0x453d4db43168e9c9,
hotel,Hotel,KAY'NAWA HOTEL,"Namlea, Kec. Namlea, Kabupaten Buru, Maluku","Kabupaten Buru, Maluku",MALUKU,,Indonesia,82239078260,,,-32.620.241,1.270.970.331,https://maps.google.com/?cid=0x0:0x385a3a28622497df,
hotel,hotel,F Hotel,"Jl. Panglima Polim No.101 1, RT.1/RW.5, Kramat Pela, Kec. Kby. Baru, Kota Jakarta Selatan, Daerah Khusus Ibukota Jakarta 12160","RT.1/RW.5, Kramat Pela, Kec. Kby. Baru, Kota Jakarta Selatan",MALUKU,12160.0,Indonesia,2127506777,,,-62.470.688,1.067.976.237,https://maps.google.com/?cid=0x0:0x4323d05f63537f5,
hotel,hotel,,,,MALUKU,,Indonesia,,,,,,https://maps.google.com/?cid=0x0:0x4323d05f63537f5%7C/g/11b7q29p9v%7Cen-ID,
hotel,Museum Sejarah Lokal,Monumen Nasional,"Merdeka Square, Jalan Lapangan Monas, Gambir, Kecamatan Gambir, Kota Jakarta Pusat, Daerah Khusus Ibukota Jakarta 10110","Jalan Lapangan Monas, Gambir, Kecamatan Gambir, Kota Jakarta Pusat",MALUKU,10110.0,Indonesia,213853040,,,-61.753.924,1.068.271.528,https://maps.google.com/?cid=0x0:0x3d2ad6e1e0e9bcc8,
hotel,hotel,HAPPY INN - MELAWAI,"Jl. Melawai Raya No.189B 3rd floor, RT.7/RW.5, Kramat Pela, Kec. Kby. Baru, Kota Jakarta Selatan, Daerah Khusus Ibukota Jakarta 12130","RT.7/RW.5, Kramat Pela, Kec. Kby. Baru, Kota Jakarta Selatan",MALUKU,12130.0,Indonesia,2127515670,,,-62.460.261,1.067.962.222,https://maps.google.com/?cid=0x0:0xe742d10c4454f2d6,
hotel,Kantor Perusahaan,Palmerah,"Gelora, Kecamatan Tanah Abang, Kota Jakarta Pusat, Daerah Khusus Ibukota Jakarta","Kota Jakarta Pusat, Daerah Khusus Ibukota Jakarta",MALUKU,,Indonesia,,,,-62.075.944,106.797.382,https://maps.google.com/?cid=0x0:0x116987b9272f716d,
hotel,hotel,,,,MALUKU,,Indonesia,,,,,,https://maps.google.com/?cid=0x0:0xe742d10c4454f2d6%7C/g/11bx5qql3h%7Cen-ID,
hotel,hotel,Holiday Inn Express Jakarta Matraman by IHG,"Jl. Matraman Raya No.57, Palmeriam, Kec. Matraman, Jakarta, Daerah Khusus Ibukota Jakarta 13140","Palmeriam, Kec. Matraman, Jakarta",MALUKU,13140.0,Indonesia,2129776700,,,-62.030.833,1.068.575.303,https://maps.google.com/?cid=0x0:0x487507bdeac5609d,
hotel,hotel,,,,MALUKU,,Indonesia,,,,,,https://maps.google.com/?cid=0x0:0x487507bdeac5609d%7C/g/11f7t51x4w%7Cen-ID,
hotel,hotel,Liberta Hub Blok M Jakarta,"Jl. Sultan Hasanudin No.30, RT.2/RW.1, Melawai, Kec. Kby. Baru, Kota, RT.2/RW.1, Melawai, Kec. Kby. Baru, Jakarta, Daerah Khusus Ibukota Jakarta 12160","RT.2/RW.1, Melawai, Kec. Kby. Baru, Kota, RT.2/RW.1, Melawai, Kec. Kby. Baru, Jakarta",MALUKU,12160.0,Indonesia,217208500,,,-62.428.953,1.068.020.927,https://maps.google.com/?cid=0x0:0x3cc143353c65acf2,
hotel,Layanan Transportasi,Kramat,"dari Jalan Pramuka Jaya Sari, Jl. Penegak Jl. Gugus Depan Gg. II, Paseban, Kec. Senen, Daerah Khusus Ibukota Jakarta 10440","Jl. Penegak Jl. Gugus Depan Gg. II, Paseban, Kec. Senen",MALUKU,10440.0,Indonesia,,,,-619.371,10.685.659,https://maps.google.com/?cid=0x0:0x1b1a874b25622c3b,
hotel,hotel,,,,MALUKU,,Indonesia,,,,,,https://maps.google.com/?cid=0x0:0x3cc143353c65acf2%7C/g/11jpsypxt_%7Cen-ID,
hotel,hotel,Holiday Inn,"Jl. Jababeka Raya No.Kav. A, RW.2, Pasirsari, Cikarang Sel., Kabupaten Bekasi, Jawa Barat 17530","RW.2, Pasirsari, Cikarang Sel., Kabupaten Bekasi",MALUKU,17530.0,Indonesia,2128510000,,,-62.949.277,1.071.455.487,https://maps.google.com/?cid=0x0:0xf3a42d07bdc62910,
hotel,hotel,,,,MALUKU,,Indonesia,,,,,,https://maps.google.com/?cid=0x0:0xf3a42d07bdc62910%7C/g/11b75cnlxk%7Cen-ID,
hotel,Taman Rekreasi Air,WaterBoom Lippo Cikarang,"Jl. Madiun No.Kav. 115, Cibatu, Kabupaten Bekasi, Jawa Barat 17550","Cibatu, Kabupaten Bekasi",MALUKU,17550.0,Indonesia,85283868186,,,-6.331.396,1.071.382.858,https://maps.google.com/?cid=0x0:0xf9931a1b0336f09e,
hotel,Stasiun Kereta,Lemah Abang,"Lemah Abang, Jalan Raya Lemah Abang Blok Lemah Abang No.4, Simpangan, Cikarang Utara, Kabupaten Bekasi, Jawa Barat 17530","Jalan Raya Lemah Abang Blok Lemah Abang No.4, Simpangan, Cikarang Utara, Kabupaten Bekasi",MALUKU,17530.0,Indonesia,,,,-627.054,10.717.984,https://maps.google.com/?cid=0x0:0x71684600c61f9493,
restaurant,Restoran,Rumah Makan A.N. Namrole.,"5P6Q+MQ4, Jl. Kabupaten, Labuang, Kec. Namrole, Kabupaten Buru Selatan, Maluku","Kabupaten Buru Selatan, Maluku",MALUKU,,Indonesia,82299717177,,,-3.838.374,126.739.464,https://maps.google.com/?cid=0x0:0xe9964e9d56424327,
restaurant,restaurant,Kec. Namrole,"Kabupaten Buru Selatan, Maluku","Kabupaten Buru Selatan, Maluku",MALUKU,,Indonesia,,,,-38.444.685,1.267.353.848,https://maps.google.com/?cid=0x0:0xe0ed0a265027f75e,
restaurant,Brunch,RM.MARENNU,"5P7Q+5XM, Jl. Kabupaten, Labuang, Kec. Namrole, Kabupaten Buru Selatan, Maluku","Kabupaten Buru Selatan, Maluku",MALUKU,,Indonesia,,,,-38.370.292,1.267.399.309,https://maps.google.com/?cid=0x0:0x77abbcbefb2f1111,
restaurant,Nasi,"Namrole, kabupaten buru Selatan","7RC7+2P6, Labuang, Kec. Namrole, Kabupaten Buru Selatan, Maluku","Kabupaten Buru Selatan, Maluku",MALUKU,,Indonesia,,,,-37.299.502,1.268.142.605,https://maps.google.com/?cid=0x0:0x5f7ea9ea133113e5,
restaurant,Sate,Rm.khabita,"5P3P+C33, Labuang, Kec. Namrole, Kabupaten Buru Selatan, Maluku","Kabupaten Buru Selatan, Maluku",MALUKU,,Indonesia,82239964788,,,-38.464.884,126.735.187,https://maps.google.com/?cid=0x0:0xf5a0398fbce08604,
restaurant,Sate,Warung Makan Jawa Timur,"5P4P+GRR, Labuang, Kec. Namrole, Kabupaten Buru Selatan, Maluku","Kabupaten Buru Selatan, Maluku",MALUKU,,Indonesia,,,,-38.435.433,1.267.366.692,https://maps.google.com/?cid=0x0:0x34a49688345eb93e,
restaurant,Brunch,Rumah Makan Ayah Namrole,"5P6P+6X8, Labuang, Kec. Namrole, Kabupaten Buru Selatan, Maluku","Kabupaten Buru Selatan, Maluku",MALUKU,,Indonesia,,,,-38.394.567,1.267.374.444,https://maps.google.com/?cid=0x0:0xb108b32ef765709,
restaurant,Brunch,Rumah Makan Diana,"5P4P+RPW, Jl. Kabupaten, Labuang, Kec. Namrole, Kabupaten Buru Selatan, Maluku","Kabupaten Buru Selatan, Maluku",MALUKU,,Indonesia,,,,-38.428.864,1.267.368.164,https://maps.google.com/?cid=0x0:0x360dbdb0eaae70,
restaurant,Rumah Makan,Rm. Dua Putri,"5P3M+F67, Jl. Kabupaten, Labuang, Kec. Namrole, Kabupaten Buru Selatan, Maluku","Kabupaten Buru Selatan, Maluku",MALUKU,,Indonesia,,,,-38.463.311,1.267.330.398,https://maps.google.com/?cid=0x0:0x8105b7351eb6249c,
restaurant,Nasi Goreng,rumah makan dede nasi kuning nasi kelapa,"Elfule, Kec. Namrole, Kabupaten Buru Selatan, Maluku 97544","Kec. Namrole, Kabupaten Buru Selatan",MALUKU,97544.0,Indonesia,,,,-38.453.902,126.725.003,https://maps.google.com/?cid=0x0:0xb52b8138aab01f6b,
restaurant,Sate,RM Safitri,"5P3P+946, Labuang, Kec. Namrole, Kabupaten Buru Selatan, Maluku","Kabupaten Buru Selatan, Maluku",MALUKU,,Indonesia,,,,-38.465.878,1.267.352.621,https://maps.google.com/?cid=0x0:0xe00eb70c5e8b14cc,
restaurant,Rumah Makan,Rumah Makan Indah,"RM Indah (Depan Penginapan Sartika 2, Jl. Km1, Labuang, Kec. Namrole, Kabupaten Buru Selatan, Maluku 97544","Jl. Km1, Labuang, Kec. Namrole, Kabupaten Buru Selatan",MALUKU,97544.0,Indonesia,81249023406,,,-38.442.471,1.267.345.726,https://maps.google.com/?cid=0x0:0x55c6874ba8fa06b3,
restaurant,Restoran,Ulathaha Caffe and rest,"Jl. Baru, Elfule, Kec. Namrole, Kabupaten Buru Selatan, Maluku","Kabupaten Buru Selatan, Maluku",MALUKU,,Indonesia,81344043602,,,-38.416.204,1.267.265.298,https://maps.google.com/?cid=0x0:0x137e54488fd3e418,
restaurant,Brunch,RUMAH MAKAN INA BAHEREN,"KOPRASI BARASEHE 6 ROLE, Labuang, Kec. Namrole, Kabupaten Buru Selatan, Maluku","Kabupaten Buru Selatan, Maluku",MALUKU,,Indonesia,,,,-38.392.149,1.267.360.258,https://maps.google.com/?cid=0x0:0xe61c8cf400a00650,
restaurant,Restoran,Warung Pangkep,"5P4P+32G, Labuang, Kec. Namrole, Kabupaten Buru Selatan, Maluku","Kabupaten Buru Selatan, Maluku",MALUKU,,Indonesia,82187314707,,,-38.448.138,1.267.350.733,https://maps.google.com/?cid=0x0:0xbad199154f9985d3,
restaurant,Restoran,Warung makan Bu Rt,"Jl. Kabupaten, Labuang, Kec. Namrole, Kabupaten Buru Selatan, Maluku","Kabupaten Buru Selatan, Maluku",MALUKU,,Indonesia,,,,-38.444.043,1.267.352.353,https://maps.google.com/?cid=0x0:0x1ab9710d1f9c404b,
restaurant,Restoran,Sop Buah Sulawesi,"5P4P+86F, Labuang, Kec. Namrole, Kabupaten Buru Selatan, Maluku","Kabupaten Buru Selatan, Maluku",MALUKU,,Indonesia,81241494007,,,-38.441.772,1.267.355.384,https://maps.google.com/?cid=0x0:0x9da48b1f996de81f,
restaurant,Kedai Kopi,KEDAI FIKSU NAMROLE,"Kedai Fiksu, Elfule, Kec. Namrole, Kabupaten Buru Selatan, Maluku 97573","Elfule, Kec. Namrole, Kabupaten Buru Selatan",MALUKU,97573.0,Indonesia,82137777184,,,-3.709.484,126.808.877,https://maps.google.com/?cid=0x0:0x1861b21130aa9654,
restaurant,Kafe,Kafe ' LL,"5P5Q+23M, Jl. Kabupaten, Labuang, Kec. Namrole, Kabupaten Buru Selatan, Maluku","Kabupaten Buru Selatan, Maluku",MALUKU,,Indonesia,85244477781,,,-3.842.418,126.737.683,https://maps.google.com/?cid=0x0:0xee253c96eb646544,
restaurant,Rumah Makan,Rumah Makan Umega 2,"5P5Q+XGW, Jl. Kabupaten, Labuang, Kec. Namrole, Kabupaten Buru Selatan, Maluku","Kabupaten Buru Selatan, Maluku",MALUKU,,Indonesia,85244630002,,,-38.400.044,1.267.388.435,https://maps.google.com/?cid=0x0:0xd95f1e190a7ecfd9,
restaurant,Nasi,New Kedai Chaisa,"5P4M+7X6, Unnamed Road, Labuang, Kec. Namrole, Kabupaten Buru Selatan, Maluku","Kabupaten Buru Selatan, Maluku",MALUKU,,Indonesia,85243777734,,,-38.443.254,1.267.348.842,https://maps.google.com/?cid=0x0:0x7b8c7a8f5a6eef59,
restaurant,Kafe,Warung tafana,"5P3J+JR9, Elfule, Kec. Namrole, Kabupaten Buru Selatan, Maluku","Kabupaten Buru Selatan, Maluku",MALUKU,,Indonesia,81344786342,,,-38.459.655,1.267.321.014,https://maps.google.com/?cid=0x0:0x9166ee58569a84b8,
restaurant,restaurant,Maluku,,Maluku,MALUKU,,Indonesia,,,,-32.384.616,1.301.452.734,https://maps.google.com/?cid=0x0:0x5e30e8db04649a51,
restaurant,Ikan Bakar,Walang Resto,"85RX+6R8, Unnamed Road, Poka, Kec. Tlk. Ambon, Kota Ambon, Maluku","Kota Ambon, Maluku",MALUKU,,Indonesia,82248472693,,,-365.947,1.281.995.628,https://maps.google.com/?cid=0x0:0x67c2a9c152347aff,
restaurant,Restoran,Wailela Cafe and Resto | Ambon,"Jl. Kampus, Rumah Tiga, Kec. Tlk. Ambon, Kota Ambon, Maluku","Kota Ambon, Maluku",MALUKU,,Indonesia,82399522113,,,-36.610.624,128.180.609,https://maps.google.com/?cid=0x0:0x3acbc85ce4ef2d6d,
restaurant,Restoran,Rumah Makan Fajrin,"JXFP+FW6, Waenetat, Kec. Waeapo, Kabupaten Buru, Maluku","Kabupaten Buru, Maluku",MALUKU,,Indonesia,,,,-33.763.476,1.269.872.769,https://maps.google.com/?cid=0x0:0xca8d77639c9f4a68,
restaurant,Rumah Makan,Rumah Makan Umega 2,"5P5Q+XGW, Jl. Kabupaten, Labuang, Kec. Namrole, Kabupaten Buru Selatan, Maluku","Kabupaten Buru Selatan, Maluku",MALUKU,,Indonesia,85244630002,,,-38.400.044,1.267.388.435,https://maps.google.com/?cid=0x0:0xd95f1e190a7ecfd9,
restaurant,Restoran,Rumah makan,"Waetina, Namlea, Kabupaten Buru, Maluku 97574","Namlea, Kabupaten Buru",MALUKU,97574.0,Indonesia,,,,-34.842.658,1.269.223.536,https://maps.google.com/?cid=0x0:0xe8c12a7d35a64e45,
restaurant,Nasi Goreng,Warung Mama Eny,"Leksula, Kabupaten Buru Selatan, Maluku 97543",Kabupaten Buru Selatan,MALUKU,97543.0,Indonesia,81378346367,,,-37.785.493,1.265.127.654,https://maps.google.com/?cid=0x0:0xdbd42e2f6d569705,
restaurant,Hidangan Laut,Lateri Beach Restaurant,"Lateri, Kec. Baguala, Kota Ambon, Maluku","Kota Ambon, Maluku",MALUKU,,Indonesia,81240783897,,,-36.479.651,1.282.330.484,https://maps.google.com/?cid=0x0:0x17f2f5444327987a,
restaurant,Indonesia,OLina caferesto,"97H4+2QG, Passo, Kec. Baguala, Kota Ambon, Maluku","Kota Ambon, Maluku",MALUKU,,Indonesia,82199231798,,,-36.225.066,1.282.574.029,https://maps.google.com/?cid=0x0:0xb19ebc731e4d5590,
restaurant,Ikan Bakar,MARTHAFONS WALANG,"86R2+628, Poka, Kec. Tlk. Ambon, Maluku",Maluku,MALUKU,,Indonesia,81343205555,,,-3.659.465,1.282.000.875,https://maps.google.com/?cid=0x0:0xe5c8c8951ea638fa,
restaurant,Dapur Umum,Waeura,"P4G8+CJR, Namlea, Kec. Namlea, Kabupaten Buru, Maluku","Kabupaten Buru, Maluku",MALUKU,,Indonesia,,,,-32.738.979,1.271.165.122,https://maps.google.com/?cid=0x0:0x5bc55664690878dc,
restaurant,Hidangan Laut,Dapor Kole Kole,"853M+V56, Jl. Dana Kopra No.16, Uritetu, Kec. Sirimau, Kota Ambon, Maluku 97124","Jl. Dana Kopra No.16, Uritetu, Kec. Sirimau, Kota Ambon",MALUKU,97124.0,Indonesia,81399266788,,,-36.952.343,1.281.830.069,https://maps.google.com/?cid=0x0:0x29f9db4e2df0a98f,
restaurant,Hidangan Laut,RAJA SEAFOOD RESTAURANT AMBON,"Jl. Wolter Monginsidi No.17-20, Latta, Kec. Baguala, Kota Ambon, Maluku 97231","Latta, Kec. Baguala, Kota Ambon",MALUKU,97231.0,Indonesia,82199813100,,,-36.550.534,1.282.251.124,https://maps.google.com/?cid=0x0:0xe3f5c7a37493c8de,
restaurant,Hidangan Laut,Cili Padi Restaurant,"Said Perintah No.52, Kel Honipopu, Kec. Sirimau, Kota Ambon, Maluku","Kota Ambon, Maluku",MALUKU,,Indonesia,911348736,,,-36.977.926,1.281.806.173,https://maps.google.com/?cid=0x0:0x4da49f6c344ede1a,
restaurant,Hidangan Laut,SMORGAN Resto,"PXJV+JGQ, Jl. Pemerintahan, depan KODIM, Halut, Mkcm, Tobelo, North Halmahera Regency, North Maluku","Kabupaten Halmahera Utara, Maluku Utara",MALUKU,,Indonesia,85201115150,,,17.315.784,1.279.938.588,https://maps.google.com/?cid=0x0:0xd45d6fcd651f0c5c,
restaurant,Mi,"Bakso  Sate Mas Har""""","HW5C+3V3, Grandeng, Kec. Waeapo, Kabupaten Buru, Maluku","Kabupaten Buru, Maluku",MALUKU,,Indonesia,,,,-34.423.644,1.269.221.758,https://maps.google.com/?cid=0x0:0xdcc5fd3af2a74f45,
restaurant,Bar,la anwae,"RT 002, Nanali","Kabupaten Buru Selatan, Maluku",MALUKU,,Indonesia,,,,-32.072.951,1.260.175.972,https://maps.google.com/?cid=0x0:0xb980840712113423,
restaurant,Kafe,INFINITY CAFE  EATERY,"85CV+M7G, Pandan Kasturi, Kec. Sirimau, Kota Ambon, Maluku","Kota Ambon, Maluku",MALUKU,,Indonesia,81241568878,,,-36.783.317,1.281.931.931,https://maps.google.com/?cid=0x0:0x619ec9a16acc810f,
restaurant,Kompleks Kondominium,Beskem remas,"J489+6WC, Masarete, Kec. Waeapo, Kabupaten Buru, Maluku","Kabupaten Buru, Maluku",MALUKU,,Indonesia,,,,-33.844.375,1.271.197.656,https://maps.google.com/?cid=0x0:0xbe20acc16e099ec5,
restaurant,restaurant,Rumah makan wamsisi,"5P5Q+866, Jl. Kabupaten, Labuang, Kec. Namrole, Kabupaten Buru Selatan, Maluku","Kabupaten Buru Selatan, Maluku",MALUKU,,Indonesia,,,,-38.417.248,1.267.380.305,https://maps.google.com/?cid=0x0:0x4944e8d3e4c0a1bd,
restaurant,Martabak,MARTABAKSA,"96CC+G3G, Waiheru, Kec. Baguala, Kota Ambon, Maluku","Kota Ambon, Maluku",MALUKU,,Indonesia,,,,-36.286.798,1.282.201.944,https://maps.google.com/?cid=0x0:0x764d99c1aab60605,
restaurant,Hidangan Laut,Restaurant Sari Gurih Beach,"963M+565, Lateri, Kec. Baguala, Kota Ambon, Maluku","Kota Ambon, Maluku",MALUKU,,Indonesia,8119798598,,,-36.471.037,1.282.330.997,https://maps.google.com/?cid=0x0:0x56400b7db74be6ae,
restaurant,Toko bahan makanan,Baileo Cafe dan Mini Market,"85XQ+GPQ, RT.Udang/RW.1, Tihu, Kec. Tlk. Ambon, Kota Ambon, Maluku","Kota Ambon, Maluku",MALUKU,,Indonesia,,,,-365.115,1.281.893.691,https://maps.google.com/?cid=0x0:0xdc658a57e949c2be,
restaurant,Kafe,Oemah Cafe,"952V+24F, Poka, Kec. Baguala, Kota Ambon, Maluku 97233","Poka, Kec. Baguala, Kota Ambon",MALUKU,97233.0,Indonesia,,,,-36.499.294,1.281.927.815,https://maps.google.com/?cid=0x0:0xc9c73965b7b494f5,
restaurant,Restoran,Dapoer Jumbo Ambon,"Depan Apotek Natsepa, Jl. Said Perintah SK10/2, Kota Ambon, Maluku 97126","Jl. Said Perintah SK10/2, Kota Ambon",MALUKU,97126.0,Indonesia,85254669998,,,-36.974.227,1.281.815.171,https://maps.google.com/?cid=0x0:0x8486f0204bef50c7,
restaurant,Jepang,Ta wan - Maluku City Mall,"Jl. Jenderal Sudirman No.1 Lt. UG, Hative Kecil, Tantui - Ambon, Kota Ambon, Maluku 97128","Hative Kecil, Tantui - Ambon, Kota Ambon",MALUKU,97128.0,Indonesia,,,,-36.722.194,1.281.981.035,https://maps.google.com/?cid=0x0:0x3ccda67bed1be027,
restaurant,restaurant,Resto New CW,"JXFQ+C6Q, Jl. Raya mako, Waenetat, Kec. Waeapo, Kabupaten Buru, Maluku","Kabupaten Buru, Maluku",MALUKU,,Indonesia,,,,-33.764.047,1.269.880.965,https://maps.google.com/?cid=0x0:0x6a06b676316d92b,
restaurant,Betawi,Dapur Fizzul - Rumah Makan Khas Maluku Jakarta No.1 Halal di Dunia,"Food Court Depan Grha Essi, Jl. Raya Ceger No.5, RT.5/RW.1, Ceger, Kec. Cipayung, Kota Jakarta Timur, Daerah Khusus Ibukota Jakarta 13820","Jl. Raya Ceger No.5, RT.5/RW.1, Ceger, Kec. Cipayung, Kota Jakarta Timur",MALUKU,13820.0,Indonesia,82131529069,,,-6.307.207,1.068.886.462,https://maps.google.com/?cid=0x0:0xb39e6e8a1a4f4d03,
restaurant,Komplek perumahan,Rumah bung seul,"55FH+28J ulima, desa, Pulau, Kec. Ambalau, Kabupaten Buru Selatan, Maluku","Kabupaten Buru Selatan, Maluku",MALUKU,,Indonesia,82197975969,,,-38.274.238,1.271.782.587,https://maps.google.com/?cid=0x0:0x79839d70ac51dbac,
restaurant,restaurant,Kec. Ambalau,"Kabupaten Buru Selatan, Maluku","Kabupaten Buru Selatan, Maluku",MALUKU,,Indonesia,,,,-38.899.285,1.272.026.214,https://maps.google.com/?cid=0x0:0x2312ee616bf35f0,
restaurant,restaurant,Pantai Leana.ambalau buru selatan,"36X6+MQQ, Masawoy, Kec. Ambalau, Kabupaten Buru Selatan, Maluku","Kabupaten Buru Selatan, Maluku",MALUKU,,Indonesia,,,,-39.007.847,1.272.119.738,https://maps.google.com/?cid=0x0:0x2f2dd99b8209a207,
restaurant,restaurant,Toko URB,"55FH+Q8Q, Ulima, Kec. Ambalau, Kabupaten Buru Selatan, Maluku","Kabupaten Buru Selatan, Maluku",MALUKU,,Indonesia,,,,-38.255.367,1.271.783.671,https://maps.google.com/?cid=0x0:0xe03b9952bc5ec66c,
restaurant,restaurant,Kalimantan Barat 78684,"Kabupaten Sintang, Kalimantan Barat","Kabupaten Sintang, Kalimantan Barat",MALUKU,,Indonesia,,,,-0.0687881,1.129.058.802,https://maps.google.com/?cid=0x0:0xc818bb777c60929,
restaurant,restaurant,RM.alloy,"VR66+V6F rumah makan alloy, kabupaten, Kec. Ambalau, Kabupaten Sintang, Kalimantan Barat 78684","kabupaten, Kec. Ambalau, Kabupaten Sintang",MALUKU,78684.0,Indonesia,82255181818,,,-0.1378068,1.128.105.512,https://maps.google.com/?cid=0x0:0x7a23e313a3442bd4,
restaurant,Toko,ARSENIO lanting nanga kemangai,"QP46+4G8, Unnamed Road, Nanga Kemangai, Kec. Ambalau, Kabupaten Sintang, Kalimantan Barat 78684","Unnamed Road, Nanga Kemangai, Kec. Ambalau, Kabupaten Sintang",MALUKU,78684.0,Indonesia,82251738100,,,-0.2447244,11.271.134,https://maps.google.com/?cid=0x0:0x99c21199bf932dc7,
restaurant,Padang,RM. Pendi Tepuai,"98F6+79R, Nanga Tepuai, Kec. Hulu Gurung, Kabupaten Kapuas Hulu, Kalimantan Barat 78764","Nanga Tepuai, Kec. Hulu Gurung, Kabupaten Kapuas Hulu",MALUKU,78764.0,Indonesia,,,,0.3732328,1.123.109.026,https://maps.google.com/?cid=0x0:0x9b0d1511745d27e9,
restaurant,Perhimpunan Pengembang Perumahan,Lohpo Tambun,"QP37+V23, Unnamed Road, Nanga Kemangai, Kec. Ambalau, Kabupaten Sintang, Kalimantan Barat 78684","Unnamed Road, Nanga Kemangai, Kec. Ambalau, Kabupaten Sintang",MALUKU,78684.0,Indonesia,82150467237,,,-0.2453748,1.127.125.587,https://maps.google.com/?cid=0x0:0xea983aec6c5a20f3,
restaurant,Brunch,RM. Mulia Abadi,"GQWW+F94, Nanga Mentebah, Kec. Mentebah, Kabupaten Kapuas Hulu, Kalimantan Barat 78757","Nanga Mentebah, Kec. Mentebah, Kabupaten Kapuas Hulu",MALUKU,78757.0,Indonesia,81257100674,,,0.546144,1.127.959.672,https://maps.google.com/?cid=0x0:0x1ebc2e90313718ab,
restaurant,Sarapan,RM. Mas Selamat,"GQ77+P66, Unnamed Road, Nanga Mentebah, Kec. Mentebah, Kabupaten Kapuas Hulu, Kalimantan Barat 78757","Unnamed Road, Nanga Mentebah, Kec. Mentebah, Kabupaten Kapuas Hulu",MALUKU,78757.0,Indonesia,,,,0.5142983,1.127.630.007,https://maps.google.com/?cid=0x0:0x64ebff9a24a38bf5,
restaurant,restaurant,Rumah Makan Padang Sintang,"VR66+V6F, Nanga Sakai, Kec. Ambalau, Kabupaten Sintang, Kalimantan Barat 78684","Nanga Sakai, Kec. Ambalau, Kabupaten Sintang",MALUKU,78684.0,Indonesia,89570712124,,,-0.1378068,1.128.105.512,https://maps.google.com/?cid=0x0:0xbaa1536b6a352ee4,
restaurant,restaurant,Warung Bang Mus,"VR66+V6F, Nanga Sakai, Kec. Ambalau, Kabupaten Sintang, Kalimantan Barat 78684","Nanga Sakai, Kec. Ambalau, Kabupaten Sintang",MALUKU,78684.0,Indonesia,,,,-0.1378068,1.128.105.512,https://maps.google.com/?cid=0x0:0x23701a4f076ba844,
restaurant,restaurant,Nanga Keremoi,"XQHF+VMM, Jl Jungan Pohkung, Nanga Keremoi, Kec. Ambalau, Kabupaten Sintang, Kalimantan Barat 78684","Jl Jungan Pohkung, Nanga Keremoi, Kec. Ambalau, Kabupaten Sintang",MALUKU,78684.0,Indonesia,,,,-0.0202889,1.127.741.788,https://maps.google.com/?cid=0x0:0xb38cd5a10d1ab732,
restaurant,Komplek perumahan,Rumah bung seul,"55FH+28J ulima, desa, Pulau, Kec. Ambalau, Kabupaten Buru Selatan, Maluku","Kabupaten Buru Selatan, Maluku",MALUKU,,Indonesia,82197975969,,,-38.274.238,1.271.782.587,https://maps.google.com/?cid=0x0:0x79839d70ac51dbac,
restaurant,restaurant,Kec. Ambalau,"Kabupaten Buru Selatan, Maluku","Kabupaten Buru Selatan, Maluku",MALUKU,,Indonesia,,,,-38.899.285,1.272.026.214,https://maps.google.com/?cid=0x0:0x2312ee616bf35f0,
restaurant,restaurant,Pantai Leana.ambalau buru selatan,"36X6+MQQ, Masawoy, Kec. Ambalau, Kabupaten Buru Selatan, Maluku","Kabupaten Buru Selatan, Maluku",MALUKU,,Indonesia,,,,-39.007.847,1.272.119.738,https://maps.google.com/?cid=0x0:0x2f2dd99b8209a207,
restaurant,restaurant,Toko URB,"55FH+Q8Q, Ulima, Kec. Ambalau, Kabupaten Buru Selatan, Maluku","Kabupaten Buru Selatan, Maluku",MALUKU,,Indonesia,,,,-38.255.367,1.271.783.671,https://maps.google.com/?cid=0x0:0xe03b9952bc5ec66c,
restaurant,restaurant,Moluccas Restaurant,"Jl. Natsepa No.36, Suli, Kec. Salahutu, Kabupaten Maluku Tengah, Maluku 97582","Suli, Kec. Salahutu, Kabupaten Maluku Tengah",MALUKU,97582.0,Indonesia,,,,-36.228.916,1.282.856.889,https://maps.google.com/?cid=0x0:0xb337eb8a08cdf9c7,
restaurant,restaurant,Kec. Kepala Madan,"Kabupaten Buru Selatan, Maluku","Kabupaten Buru Selatan, Maluku",MALUKU,,Indonesia,,,,-33.690.832,1.260.177.493,https://maps.google.com/?cid=0x0:0x991aa36425e0a2b0,
restaurant,restaurant,INATOTO,"Fogi, Kec. Kepala Madan, Kabupaten Buru Selatan, Maluku 97541","Kec. Kepala Madan, Kabupaten Buru Selatan",MALUKU,97541.0,Indonesia,85972901171,,,-33.690.832,1.260.177.493,https://maps.google.com/?cid=0x0:0xd0dd27774909f0d9,
restaurant,Bar,la anwae,"RT 002, Nanali","Kabupaten Buru Selatan, Maluku",MALUKU,,Indonesia,,,,-32.072.951,1.260.175.972,https://maps.google.com/?cid=0x0:0xb980840712113423,
restaurant,restaurant,Leksula,"Kabupaten Buru Selatan, Maluku","Kabupaten Buru Selatan, Maluku",MALUKU,,Indonesia,,,,-35.795.592,1.263.064.595,https://maps.google.com/?cid=0x0:0xc3381880c2b002c0,
restaurant,Sate,Rm.khabita,"5P3P+C33, Labuang, Kec. Namrole, Kabupaten Buru Selatan, Maluku","Kabupaten Buru Selatan, Maluku",MALUKU,,Indonesia,82239964788,,,-38.464.884,126.735.187,https://maps.google.com/?cid=0x0:0xf5a0398fbce08604,
restaurant,Nasi Goreng,Warung Mama Eny,"Leksula, Kabupaten Buru Selatan, Maluku 97543",Kabupaten Buru Selatan,MALUKU,97543.0,Indonesia,81378346367,,,-37.785.493,1.265.127.654,https://maps.google.com/?cid=0x0:0xdbd42e2f6d569705,
restaurant,restaurant,Liang,"7H53+QG, Liang, Leksula, Kabupaten Buru Selatan, Maluku","Kabupaten Buru Selatan, Maluku",MALUKU,,Indonesia,,,,-37.404.634,1.265.538.509,https://maps.google.com/?cid=0x0:0xb8583dace9483a15,
restaurant,restaurant,Leksula,"Leksula, Kabupaten Buru Selatan, Maluku","Kabupaten Buru Selatan, Maluku",MALUKU,,Indonesia,,,,-36.848.017,1.265.445.805,https://maps.google.com/?cid=0x0:0x2a3c85ee54c75adc,
restaurant,Restoran,Rumah Makan Fajrin,"JXFP+FW6, Waenetat, Kec. Waeapo, Kabupaten Buru, Maluku","Kabupaten Buru, Maluku",MALUKU,,Indonesia,,,,-33.763.476,1.269.872.769,https://maps.google.com/?cid=0x0:0xca8d77639c9f4a68,
restaurant,Restoran,Rumah Makan Padang Ayah Atas Mako,"JXFQ+F72, Jl. Gatot Subroto, Waenetat, Kec. Waeapo, Kabupaten Buru, Maluku","Kabupaten Buru, Maluku",MALUKU,,Indonesia,81321571933,,,-33.763.629,1.269.881.297,https://maps.google.com/?cid=0x0:0xc78c54f81125fa1,
restaurant,Brunch,Kedai Apink,"JXMP+65H, JXMP+657WaenetatKec, Kec. Waeapo, Kabupaten Buru, Maluku","Kabupaten Buru, Maluku",MALUKU,,Indonesia,81228734366,,,-33.669.293,1.269.854.967,https://maps.google.com/?cid=0x0:0xa918df4d07e74d82,
restaurant,Brunch,Rumah Makan Fajrin,"M2W8+MM5, Savanajaya, Kec. Waeapo, Kabupaten Buru, Maluku","Kabupaten Buru, Maluku",MALUKU,,Indonesia,81240232875,,,-3.303.364,1.270.167.401,https://maps.google.com/?cid=0x0:0xcf3913556b1d11ed,
restaurant,restaurant,Maluku,,Maluku,MALUKU,,Indonesia,,,,-32.384.616,1.301.452.734,https://maps.google.com/?cid=0x0:0x5e30e8db04649a51,
restaurant,Kafe,Forganza Resto  Cafe,"Kelanit, Kec. Kei Kecil, Kabupaten Maluku Tenggara, Maluku","Kabupaten Maluku Tenggara, Maluku",MALUKU,,Indonesia,82231789845,,,-56.575.049,1.327.029.619,https://maps.google.com/?cid=0x0:0x35e7e74d6d2279bc,
restaurant,Kafe,FIAN AMBONES Coffee,"Unnamed Road, Namlea, Kec. Namlea, Kabupaten Buru, Maluku","Kabupaten Buru, Maluku",MALUKU,,Indonesia,81248009308,,,-32.762.626,1.271.028.349,https://maps.google.com/?cid=0x0:0x74de8834fab97800,
restaurant,Brunch,Farhan,"P493+662, Namlea, Kec. Namlea, Kabupaten Buru, Maluku","Kabupaten Buru, Maluku",MALUKU,,Indonesia,,,,-32.818.951,1.271.030.117,https://maps.google.com/?cid=0x0:0xc9c261229e70c016,
restaurant,Restoran,Wailela Cafe and Resto | Ambon,"Jl. Kampus, Rumah Tiga, Kec. Tlk. Ambon, Kota Ambon, Maluku","Kota Ambon, Maluku",MALUKU,,Indonesia,82399522113,,,-36.610.624,128.180.609,https://maps.google.com/?cid=0x0:0x3acbc85ce4ef2d6d,
restaurant,Rumah Makan,Rumah Makan Al Azz Family,"P4P3+M3G, Namlea, Kec. Namlea, Kabupaten Buru, Maluku","Kabupaten Buru, Maluku",MALUKU,,Indonesia,,,,-32.633.245,1.271.027.016,https://maps.google.com/?cid=0x0:0x528b829bca2e743a,
restaurant,Kafe,Dluku Cafee  Resort,"Jl. Ir . Mohammad Khosi, Waimital, Kec. Kairatu, Ambon, Maluku 97566","Waimital, Kec. Kairatu, Ambon",MALUKU,97566.0,Indonesia,81240221127,,,-33.135.564,1.283.676.982,https://maps.google.com/?cid=0x0:0xd71b08a0e37ca59a,
restaurant,Restoran,Grand Fatmah MyResto,"Tabahawa, Moya, Kec. Ternate Tengah, Kota Ternate, Maluku Utara 97723","Moya, Kec. Ternate Tengah, Kota Ternate",MALUKU,97723.0,Indonesia,,,,0.800034,1.273.707.126,https://maps.google.com/?cid=0x0:0xfef5142eb63904c7,
restaurant,Indonesia,OLina caferesto,"97H4+2QG, Passo, Kec. Baguala, Kota Ambon, Maluku","Kota Ambon, Maluku",MALUKU,,Indonesia,82199231798,,,-36.225.066,1.282.574.029,https://maps.google.com/?cid=0x0:0xb19ebc731e4d5590,
restaurant,Indonesia,"Warung bakso,sarmento ifa,ar","Jln propinsi desa waplau, Namlea, Waplau, Kabupaten Buru, Maluku 97572","Namlea, Waplau, Kabupaten Buru",MALUKU,97572.0,Indonesia,85243026205,,,-31.205.731,1.268.824.618,https://maps.google.com/?cid=0x0:0x9c8b37da5756dbf5,
restaurant,Betawi,Dapur Fizzul - Rumah Makan Khas Maluku Jakarta No.1 Halal di Dunia,"Food Court Depan Grha Essi, Jl. Raya Ceger No.5, RT.5/RW.1, Ceger, Kec. Cipayung, Kota Jakarta Timur, Daerah Khusus Ibukota Jakarta 13820","Jl. Raya Ceger No.5, RT.5/RW.1, Ceger, Kec. Cipayung, Kota Jakarta Timur",MALUKU,13820.0,Indonesia,82131529069,,,-6.307.207,1.068.886.462,https://maps.google.com/?cid=0x0:0xb39e6e8a1a4f4d03,
restaurant,Restoran,Bukit Air Resto,"Jl. Babakan Encle, Sukaharja, Kec. Ciomas, Kabupaten Bogor, Jawa Barat 16610","Sukaharja, Kec. Ciomas, Kabupaten Bogor",MALUKU,16610.0,Indonesia,82226000439,,,-66.102.505,1.067.420.151,https://maps.google.com/?cid=0x0:0x5f9feb16f43cba4d,
cafe,Kafe,Kafe ' LL,"5P5Q+23M, Jl. Kabupaten, Labuang, Kec. Namrole, Kabupaten Buru Selatan, Maluku","Kabupaten Buru Selatan, Maluku",MALUKU,,Indonesia,85244477781,,,-3.842.418,126.737.683,https://maps.google.com/?cid=0x0:0xee253c96eb646544,
cafe,Restoran,Ulathaha Caffe and rest,"Jl. Baru, Elfule, Kec. Namrole, Kabupaten Buru Selatan, Maluku","Kabupaten Buru Selatan, Maluku",MALUKU,,Indonesia,81344043602,,,-38.416.204,1.267.265.298,https://maps.google.com/?cid=0x0:0x137e54488fd3e418,
cafe,cafe,Kec. Namrole,"Kabupaten Buru Selatan, Maluku","Kabupaten Buru Selatan, Maluku",MALUKU,,Indonesia,,,,-38.444.685,1.267.353.848,https://maps.google.com/?cid=0x0:0xe0ed0a265027f75e,
cafe,Kedai Kopi,KEDAI FIKSU NAMROLE,"Kedai Fiksu, Elfule, Kec. Namrole, Kabupaten Buru Selatan, Maluku 97573","Elfule, Kec. Namrole, Kabupaten Buru Selatan",MALUKU,97573.0,Indonesia,82137777184,,,-3.709.484,126.808.877,https://maps.google.com/?cid=0x0:0x1861b21130aa9654,
cafe,Restoran,Sop Buah Sulawesi,"5P4P+86F, Labuang, Kec. Namrole, Kabupaten Buru Selatan, Maluku","Kabupaten Buru Selatan, Maluku",MALUKU,,Indonesia,81241494007,,,-38.441.772,1.267.355.384,https://maps.google.com/?cid=0x0:0x9da48b1f996de81f,
cafe,Brunch,Warung Anam,"Elfule, Kec. Namrole, Kabupaten Buru Selatan, Maluku","Kabupaten Buru Selatan, Maluku",MALUKU,,Indonesia,81291572738,,,-38.435.901,1.267.322.114,https://maps.google.com/?cid=0x0:0xb0d10e8aace2624a,
cafe,Kafe,BUBBLE BOX,"Jl. Kabupaten, Labuang, Kec. Namrole, Kabupaten Buru Selatan, Maluku","Kabupaten Buru Selatan, Maluku",MALUKU,,Indonesia,,,,-38.369.418,1.267.400.354,https://maps.google.com/?cid=0x0:0xe574cfcdee6b4adf,
cafe,Nasi,"Namrole, kabupaten buru Selatan","7RC7+2P6, Labuang, Kec. Namrole, Kabupaten Buru Selatan, Maluku","Kabupaten Buru Selatan, Maluku",MALUKU,,Indonesia,,,,-37.299.502,1.268.142.605,https://maps.google.com/?cid=0x0:0x5f7ea9ea133113e5,
cafe,Kafe,Kopi ai,"5P7R+62P, Jl. Kabupaten, Labuang, Kec. Namrole, Kabupaten Buru Selatan, Maluku","Kabupaten Buru Selatan, Maluku",MALUKU,,Indonesia,,,,-3.836.912,1.267.400.891,https://maps.google.com/?cid=0x0:0xb8a5b4d52d5cf9fd,
cafe,Restoran,Rumah Makan A.N. Namrole.,"5P6Q+MQ4, Jl. Kabupaten, Labuang, Kec. Namrole, Kabupaten Buru Selatan, Maluku","Kabupaten Buru Selatan, Maluku",MALUKU,,Indonesia,82299717177,,,-3.838.374,126.739.464,https://maps.google.com/?cid=0x0:0xe9964e9d56424327,
cafe,cafe,Kedai Fiksi Namrole,"5P3F+9V, Elfule, Kabupaten Buru Selatan, Maluku","Kabupaten Buru Selatan, Maluku",MALUKU,,Indonesia,,,,-38.465.978,1.267.246.472,https://maps.google.com/?cid=0x0:0xa805bf41e03ded87,
cafe,Kafe,Lemtama namrole,"5P4P+656, Labuang, Kec. Namrole, Kabupaten Buru Selatan, Maluku","Kabupaten Buru Selatan, Maluku",MALUKU,,Indonesia,,,,-38.444.685,1.267.353.848,https://maps.google.com/?cid=0x0:0xc78eb14cf9d5c5ab,
cafe,Brunch,RM.MARENNU,"5P7Q+5XM, Jl. Kabupaten, Labuang, Kec. Namrole, Kabupaten Buru Selatan, Maluku","Kabupaten Buru Selatan, Maluku",MALUKU,,Indonesia,,,,-38.370.292,1.267.399.309,https://maps.google.com/?cid=0x0:0x77abbcbefb2f1111,
cafe,Sate,Warung Makan Jawa Timur,"5P4P+GRR, Labuang, Kec. Namrole, Kabupaten Buru Selatan, Maluku","Kabupaten Buru Selatan, Maluku",MALUKU,,Indonesia,,,,-38.435.433,1.267.366.692,https://maps.google.com/?cid=0x0:0x34a49688345eb93e,
cafe,Brunch,Rumah Makan Ayah Namrole,"5P6P+6X8, Labuang, Kec. Namrole, Kabupaten Buru Selatan, Maluku","Kabupaten Buru Selatan, Maluku",MALUKU,,Indonesia,,,,-38.394.567,1.267.374.444,https://maps.google.com/?cid=0x0:0xb108b32ef765709,
cafe,Kedai Kopi,Warkop nur hayati.f,"5Q98+3GX, Jl. Kabupaten, Wali, Kec. Namrole, Kabupaten Buru Selatan, Maluku","Kabupaten Buru Selatan, Maluku",MALUKU,,Indonesia,81282381779,,,-38.322.671,1.267.663.559,https://maps.google.com/?cid=0x0:0x9f041af89203aea3,
cafe,Nasi Goreng,rumah makan dede nasi kuning nasi kelapa,"Elfule, Kec. Namrole, Kabupaten Buru Selatan, Maluku 97544","Kec. Namrole, Kabupaten Buru Selatan",MALUKU,97544.0,Indonesia,,,,-38.453.902,126.725.003,https://maps.google.com/?cid=0x0:0xb52b8138aab01f6b,
cafe,Kedai Kopi,Kaki.5.Coffe,"Jalan Baru Wainono, Elfule, Kec. Namrole, Kabupaten Buru Selatan, Maluku","Kabupaten Buru Selatan, Maluku",MALUKU,,Indonesia,82197792941,,,-38.405.625,1.267.301.875,https://maps.google.com/?cid=0x0:0x2f3fb85067e30544,
cafe,Kafe,Rumah bang Mudes,"5Q87+XQG, Wali, Kec. Namrole, Kabupaten Buru Selatan, Maluku","Kabupaten Buru Selatan, Maluku",MALUKU,,Indonesia,,,,-38.325.568,126.764.467,https://maps.google.com/?cid=0x0:0x67242b2369ba3c14,
cafe,Rumah Makan,Rm. Dua Putri,"5P3M+F67, Jl. Kabupaten, Labuang, Kec. Namrole, Kabupaten Buru Selatan, Maluku","Kabupaten Buru Selatan, Maluku",MALUKU,,Indonesia,,,,-38.463.311,1.267.330.398,https://maps.google.com/?cid=0x0:0x8105b7351eb6249c,
cafe,Restoran,Warung Pangkep,"5P4P+32G, Labuang, Kec. Namrole, Kabupaten Buru Selatan, Maluku","Kabupaten Buru Selatan, Maluku",MALUKU,,Indonesia,82187314707,,,-38.448.138,1.267.350.733,https://maps.google.com/?cid=0x0:0xbad199154f9985d3,
cafe,Sate,Rm.khabita,"5P3P+C33, Labuang, Kec. Namrole, Kabupaten Buru Selatan, Maluku","Kabupaten Buru Selatan, Maluku",MALUKU,,Indonesia,82239964788,,,-38.464.884,126.735.187,https://maps.google.com/?cid=0x0:0xf5a0398fbce08604,
cafe,cafe,Maluku,,Maluku,MALUKU,,Indonesia,,,,-32.384.616,1.301.452.734,https://maps.google.com/?cid=0x0:0x5e30e8db04649a51,
cafe,Kafe,FIAN AMBONES Coffee,"Unnamed Road, Namlea, Kec. Namlea, Kabupaten Buru, Maluku","Kabupaten Buru, Maluku",MALUKU,,Indonesia,81248009308,,,-32.762.626,1.271.028.349,https://maps.google.com/?cid=0x0:0x74de8834fab97800,
cafe,Kedai Kopi,Kaffe koffie Kesya,"JXRH+2R3, Unnamed Road, Waekasar, Kec. Waeapo, Kabupaten Buru, Maluku","Kabupaten Buru, Maluku",MALUKU,,Indonesia,,,,-33.599.885,1.269.795.467,https://maps.google.com/?cid=0x0:0xf352fdc1b90d144d,
cafe,Restoran,Wailela Cafe and Resto | Ambon,"Jl. Kampus, Rumah Tiga, Kec. Tlk. Ambon, Kota Ambon, Maluku","Kota Ambon, Maluku",MALUKU,,Indonesia,82399522113,,,-36.610.624,128.180.609,https://maps.google.com/?cid=0x0:0x3acbc85ce4ef2d6d,
cafe,Kafe,SEVENTEEN CAFE,"H284+XRM, Desa, Parbulu, Kec. Waeapo, Kabupaten Buru, Maluku","Kabupaten Buru, Maluku",MALUKU,,Indonesia,81247337829,,,-3.432.534,1.270.070.591,https://maps.google.com/?cid=0x0:0x74bbd5924ab48711,
cafe,Brunch,Faizza coffe,"Grandeng, Kec. Waeapo, Kabupaten Buru, Maluku","Kabupaten Buru, Maluku",MALUKU,,Indonesia,81247952084,,,-34.359.682,1.269.225.069,https://maps.google.com/?cid=0x0:0x2f8785422b736ec,
cafe,Kafe,Kedai Medussa,"Tugu Tani, Namlea, Kec. Namlea, Kabupaten Buru, Maluku 97571","Namlea, Kec. Namlea, Kabupaten Buru",MALUKU,97571.0,Indonesia,81312326558,,,-32.585.874,1.270.965.538,https://maps.google.com/?cid=0x0:0x6176a39707d21a51,
cafe,Kedai Kopi,Amvap NAMLEA,"P3JW+FC5, Namlea, Kec. Namlea, Kabupaten Buru, Maluku","Kabupaten Buru, Maluku",MALUKU,,Indonesia,,,,-32.688.509,1.270.960.997,https://maps.google.com/?cid=0x0:0xc2cee102fef215cb,
cafe,Kafe,Forganza Resto  Cafe,"Kelanit, Kec. Kei Kecil, Kabupaten Maluku Tenggara, Maluku","Kabupaten Maluku Tenggara, Maluku",MALUKU,,Indonesia,82231789845,,,-56.575.049,1.327.029.619,https://maps.google.com/?cid=0x0:0x35e7e74d6d2279bc,
cafe,Kafe,Four Palms Cafe,"Jl. Raja, Halong, Baru Atas, Kota Ambon, Maluku","Kota Ambon, Maluku",MALUKU,,Indonesia,811470599,,,-36.551.658,1.282.342.334,https://maps.google.com/?cid=0x0:0x3116d9e359ad016b,
cafe,Kedai Kopi,Walang JO'S,"MW5F+689, Soahuku, Kec. Amahai, Kabupaten Maluku Tengah, Maluku","Kabupaten Maluku Tengah, Maluku",MALUKU,,Indonesia,85243280810,,,-33.419.661,128.923.365,https://maps.google.com/?cid=0x0:0x5ade168a91df07d3,
cafe,Indonesia,VOILA DESSERT  EATERY,"Jl. Jend. A Yani, Kel Batu Meja, Kec. Sirimau, Kota Ambon, Maluku 97125","Kel Batu Meja, Kec. Sirimau, Kota Ambon",MALUKU,97125.0,Indonesia,82229911005,,,-369.803,128.185.768,https://maps.google.com/?cid=0x0:0x263c84f16d8e6461,
cafe,Kafe,D'jasmine,"PX28+544, Namaelo, Kec. Kota Masohi, Kabupaten Maluku Tengah, Maluku","Kabupaten Maluku Tengah, Maluku",MALUKU,,Indonesia,,,,-32.998.616,1.289.655.154,https://maps.google.com/?cid=0x0:0x4628584df1e9eec4,
cafe,Brunch,Warung Sahabat,"Savanajaya, Kec. Waeapo, Kabupaten Buru, Maluku","Kabupaten Buru, Maluku",MALUKU,,Indonesia,,,,-32.991.169,1.270.187.604,https://maps.google.com/?cid=0x0:0x687cf5eedf308bd3,
cafe,Kafe,Waimua Coffee,"WXQM+FFX, Falahu, Kec. Sanana, Kabupaten Kepulauan Sula, Maluku Utara","Kabupaten Kepulauan Sula, Maluku Utara",MALUKU,,Indonesia,,,,-20.612.653,1.259.837.315,https://maps.google.com/?cid=0x0:0x9e2d7fce3f5b893f,
cafe,Kafe,INFINITY CAFE  EATERY,"85CV+M7G, Pandan Kasturi, Kec. Sirimau, Kota Ambon, Maluku","Kota Ambon, Maluku",MALUKU,,Indonesia,81241568878,,,-36.783.317,1.281.931.931,https://maps.google.com/?cid=0x0:0x619ec9a16acc810f,
cafe,Indonesia,OLina caferesto,"97H4+2QG, Passo, Kec. Baguala, Kota Ambon, Maluku","Kota Ambon, Maluku",MALUKU,,Indonesia,82199231798,,,-36.225.066,1.282.574.029,https://maps.google.com/?cid=0x0:0xb19ebc731e4d5590,
cafe,Kedai Kopi,Jafa FoodCoffee,"Jl. Jend. Sudirman - Depan MCM (Lt.2 Alfamidi, Hative Kecil, Kec. Sirimau, Kota Ambon, Maluku 97129","Hative Kecil, Kec. Sirimau, Kota Ambon",MALUKU,97129.0,Indonesia,8114702456,,,-36.704.963,1.281.992.089,https://maps.google.com/?cid=0x0:0xe55af1449944fec3,
cafe,Bakso,Marsawa Coffee dan Resto,"R6CR+GM2, Soa Sangaji, Kec. Kota Maba, Kabupaten Halmahera Timur, Maluku Utara","Kabupaten Halmahera Timur, Maluku Utara",MALUKU,,Indonesia,82214516528,,,0.8212606,1.282.416.349,https://maps.google.com/?cid=0x0:0x88acde884b8e9fbf,
cafe,Kedai Kopi,Rumah bpk ake,"RPGH+J68, Waprea, Waplau, Kabupaten Buru, Maluku","Kabupaten Buru, Maluku",MALUKU,,Indonesia,,,,-31.734.613,1.267.280.692,https://maps.google.com/?cid=0x0:0xf6afb6e85c70fb38,
cafe,Kafe,Coffee88__,"Namlea, Kec. Namlea, Kabupaten Buru, Maluku","Kabupaten Buru, Maluku",MALUKU,,Indonesia,85254209464,,,-32.676.599,1.270.950.814,https://maps.google.com/?cid=0x0:0x1bc59c4071bac8d6,
cafe,Restoran,RIJZEN CAFE  EATERY,"9792+JV8, Passo, Kec. Baguala, Kota Ambon, Maluku","Kota Ambon, Maluku",MALUKU,,Indonesia,8114722204,,,-36.309.924,1.282.521.755,https://maps.google.com/?cid=0x0:0x7e5754a82fd98d7,
cafe,Kedai Kopi,PAKAPAKA COFFEE SHOP,"P3PR+VFP, Namlea, Kec. Namlea, Kabupaten Buru, Maluku","Kabupaten Buru, Maluku",MALUKU,,Indonesia,82198207194,,,-32.627.789,127.091.217,https://maps.google.com/?cid=0x0:0xbc04765a2ae0fca3,
cafe,Kafe,Oemah Cafe,"952V+24F, Poka, Kec. Baguala, Kota Ambon, Maluku 97233","Poka, Kec. Baguala, Kota Ambon",MALUKU,97233.0,Indonesia,,,,-36.499.294,1.281.927.815,https://maps.google.com/?cid=0x0:0xc9c73965b7b494f5,
cafe,Kafe,Cerita Senja Cafe,"85QG+72, Rumah Tiga, Kec. Tlk. Ambon, Kota Ambon, Maluku","Kota Ambon, Maluku",MALUKU,,Indonesia,,,,-36.618.372,1.281.749.931,https://maps.google.com/?cid=0x0:0xb7502dc88c359,
cafe,Toko Roti Grosir,MORIA COFFEE ADVENTURE CAFE,"Jl. Maribaya No.22, Lembang, Kec. Lembang, Kabupaten Bandung Barat, Jawa Barat 40391","Lembang, Kec. Lembang, Kabupaten Bandung Barat",MALUKU,40391.0,Indonesia,82121877049,,,-68.162.078,1.076.262.692,https://maps.google.com/?cid=0x0:0x96e74350bcabcef,
cafe,Restoran,Ulathaha Caffe and rest,"Jl. Baru, Elfule, Kec. Namrole, Kabupaten Buru Selatan, Maluku","Kabupaten Buru Selatan, Maluku",MALUKU,,Indonesia,81344043602,,,-38.416.204,1.267.265.298,https://maps.google.com/?cid=0x0:0x137e54488fd3e418,
cafe,cafe,Kec. Ambalau,"Kabupaten Buru Selatan, Maluku","Kabupaten Buru Selatan, Maluku",MALUKU,,Indonesia,,,,-38.899.285,1.272.026.214,https://maps.google.com/?cid=0x0:0x2312ee616bf35f0,
cafe,Komplek perumahan,Rumah bung seul,"55FH+28J ulima, desa, Pulau, Kec. Ambalau, Kabupaten Buru Selatan, Maluku","Kabupaten Buru Selatan, Maluku",MALUKU,,Indonesia,82197975969,,,-38.274.238,1.271.782.587,https://maps.google.com/?cid=0x0:0x79839d70ac51dbac,
cafe,cafe,Pantai Leana.ambalau buru selatan,"36X6+MQQ, Masawoy, Kec. Ambalau, Kabupaten Buru Selatan, Maluku","Kabupaten Buru Selatan, Maluku",MALUKU,,Indonesia,,,,-39.007.847,1.272.119.738,https://maps.google.com/?cid=0x0:0x2f2dd99b8209a207,
cafe,cafe,Kalimantan Barat 78684,"Kabupaten Sintang, Kalimantan Barat","Kabupaten Sintang, Kalimantan Barat",MALUKU,,Indonesia,,,,-0.0687881,1.129.058.802,https://maps.google.com/?cid=0x0:0xc818bb777c60929,
cafe,Kedai Kopi,Exsy Caffe,"FPQ5+H83 Nanga Semangut, Temuyuk, Kec. Bunut Hulu, Kabupaten Kapuas Hulu, Kalimantan Barat 78762","Temuyuk, Kec. Bunut Hulu, Kabupaten Kapuas Hulu",MALUKU,78762.0,Indonesia,,,,0.4888988,1.127.082.942,https://maps.google.com/?cid=0x0:0x61c399bdd45a72ce,
cafe,cafe,Pak Along,"VR66+V6F, Nanga Sakai, Kec. Ambalau, Kabupaten Sintang, Kalimantan Barat","Kabupaten Sintang, Kalimantan Barat",MALUKU,,Indonesia,,,,-0.1378068,1.128.105.512,https://maps.google.com/?cid=0x0:0x411d40920c42083b,
cafe,Toko,ARSENIO lanting nanga kemangai,"QP46+4G8, Unnamed Road, Nanga Kemangai, Kec. Ambalau, Kabupaten Sintang, Kalimantan Barat 78684","Unnamed Road, Nanga Kemangai, Kec. Ambalau, Kabupaten Sintang",MALUKU,78684.0,Indonesia,82251738100,,,-0.2447244,11.271.134,https://maps.google.com/?cid=0x0:0x99c21199bf932dc7,
cafe,cafe,RM.alloy,"VR66+V6F rumah makan alloy, kabupaten, Kec. Ambalau, Kabupaten Sintang, Kalimantan Barat 78684","kabupaten, Kec. Ambalau, Kabupaten Sintang",MALUKU,78684.0,Indonesia,82255181818,,,-0.1378068,1.128.105.512,https://maps.google.com/?cid=0x0:0x7a23e313a3442bd4,
cafe,Kafe,WB Coffee Studio,"979X+QVF, Nanga Tepuai, Kec. Hulu Gurung, Kabupaten Kapuas Hulu, Kalimantan Barat 78764","Nanga Tepuai, Kec. Hulu Gurung, Kabupaten Kapuas Hulu",MALUKU,78764.0,Indonesia,82251437219,,,0.3694343,1.122.996.724,https://maps.google.com/?cid=0x0:0x6d0cab7f978eaaed,
cafe,Kedai Kopi,Kafe mungguk beranda,"FM85+4M6, Temuyuk, Kec. Bunut Hulu, Kabupaten Kapuas Hulu, Kalimantan Barat 78762","Temuyuk, Kec. Bunut Hulu, Kabupaten Kapuas Hulu",MALUKU,78762.0,Indonesia,,,,0.465283,1.126.591.341,https://maps.google.com/?cid=0x0:0xc19ceca81e96d31f,
cafe,cafe,One Kopi,"QP47+43M, Nanga Kemangai, Kec. Ambalau, Kabupaten Sintang, Kalimantan Barat","Kabupaten Sintang, Kalimantan Barat",MALUKU,,Indonesia,82139248636,,,-0.2446707,112.712.675,https://maps.google.com/?cid=0x0:0x6e6a3bbf98e5e0ab,
cafe,Kafe,CAFFE RIZKY MZ,"FPH3+64Q, Jl. Lintas Selatan Nanga Semangut, Temuyuk, Kec. Bunut Hulu, Kabupaten Kapuas Hulu, Kalimantan Barat 78762","Jl. Lintas Selatan Nanga Semangut, Temuyuk, Kec. Bunut Hulu, Kabupaten Kapuas Hulu",MALUKU,78762.0,Indonesia,85705946899,,,0.478088,1.127.028.665,https://maps.google.com/?cid=0x0:0x5dffb767dae4f71e,
cafe,Kafe,AHZA CAFE,"98C5+9J4, Jl. Lintas Selatan, Nanga Tepuai, Kec. Hulu Gurung, Kabupaten Kapuas Hulu, Kalimantan Barat 78764","Jl. Lintas Selatan, Nanga Tepuai, Kec. Hulu Gurung, Kabupaten Kapuas Hulu",MALUKU,78764.0,Indonesia,,,,0.3708931,1.123.090.737,https://maps.google.com/?cid=0x0:0x89c238a7111553ad,
cafe,Kedai Kopi,Coffeeshop69,"9893+XC2, Nanga Tepuai, Kec. Hulu Gurung, Kabupaten Kapuas Hulu, Kalimantan Barat 78764","Nanga Tepuai, Kec. Hulu Gurung, Kabupaten Kapuas Hulu",MALUKU,78764.0,Indonesia,82157444789,,,0.3698886,112.303.503,https://maps.google.com/?cid=0x0:0x9075cc36e2e5df2c,
cafe,Kedai Kopi,Minimalis Cafe,"FPG3+C42, Jl. Lintas Selatan, Temuyuk, Kec. Bunut Hulu, Kabupaten Kapuas Hulu, Kalimantan Barat 78762","Jl. Lintas Selatan, Temuyuk, Kec. Bunut Hulu, Kabupaten Kapuas Hulu",MALUKU,78762.0,Indonesia,,,,0.476018,1.127.027.592,https://maps.google.com/?cid=0x0:0x7a21f3ac6c91188c,
cafe,Kedai Kopi,Naira Cafe,"Unnamed Road, Nanga Tepuai, Kec. Hulu Gurung, Kabupaten Kapuas Hulu, Kalimantan Barat 78764","Nanga Tepuai, Kec. Hulu Gurung, Kabupaten Kapuas Hulu",MALUKU,78764.0,Indonesia,,,,0.3679995,1.123.099.128,https://maps.google.com/?cid=0x0:0x3c51ca187b480db3,
cafe,Kedai Kopi,Salsabilla Cafe,"98C6+R98, Jl. Lintas Selatan, Nanga Semangut, Kec. Bunut Hulu, Kabupaten Kapuas Hulu, Kalimantan Barat 78764","Jl. Lintas Selatan, Nanga Semangut, Kec. Bunut Hulu, Kabupaten Kapuas Hulu",MALUKU,78764.0,Indonesia,85754707646,,,0.3720376,1.123.109.681,https://maps.google.com/?cid=0x0:0x89fb18ce5e33b6a,
cafe,Tujuan Wisata,semangut,"7JVV+GFP, Nanga Semangut, Kec. Bunut Hulu, Kabupaten Kapuas Hulu, Kalimantan Barat","Kabupaten Kapuas Hulu, Kalimantan Barat",MALUKU,,Indonesia,,,,0.2938379,1.126.437.026,https://maps.google.com/?cid=0x0:0x3df0df344446315,
cafe,cafe,Kec. Ambalau,"Kabupaten Buru Selatan, Maluku","Kabupaten Buru Selatan, Maluku",MALUKU,,Indonesia,,,,-38.899.285,1.272.026.214,https://maps.google.com/?cid=0x0:0x2312ee616bf35f0,
cafe,Komplek perumahan,Rumah bung seul,"55FH+28J ulima, desa, Pulau, Kec. Ambalau, Kabupaten Buru Selatan, Maluku","Kabupaten Buru Selatan, Maluku",MALUKU,,Indonesia,82197975969,,,-38.274.238,1.271.782.587,https://maps.google.com/?cid=0x0:0x79839d70ac51dbac,
cafe,cafe,Pantai Leana.ambalau buru selatan,"36X6+MQQ, Masawoy, Kec. Ambalau, Kabupaten Buru Selatan, Maluku","Kabupaten Buru Selatan, Maluku",MALUKU,,Indonesia,,,,-39.007.847,1.272.119.738,https://maps.google.com/?cid=0x0:0x2f2dd99b8209a207,
cafe,cafe,Kec. Kepala Madan,"Kabupaten Buru Selatan, Maluku","Kabupaten Buru Selatan, Maluku",MALUKU,,Indonesia,,,,-33.690.832,1.260.177.493,https://maps.google.com/?cid=0x0:0x991aa36425e0a2b0,
cafe,cafe,INATOTO,"Fogi, Kec. Kepala Madan, Kabupaten Buru Selatan, Maluku 97541","Kec. Kepala Madan, Kabupaten Buru Selatan",MALUKU,97541.0,Indonesia,85972901171,,,-33.690.832,1.260.177.493,https://maps.google.com/?cid=0x0:0xd0dd27774909f0d9,
cafe,Toko Internet,Rayyan -wifi@net,"J22V+X2R, Waepandan, Kec. Kepala Madan, Kabupaten Buru Selatan, Maluku","Kabupaten Buru Selatan, Maluku",MALUKU,,Indonesia,,,,-33.975.646,1.260.425.082,https://maps.google.com/?cid=0x0:0xbce41483bb4ea9cf,
cafe,Kafe,Kedai Medussa,"Tugu Tani, Namlea, Kec. Namlea, Kabupaten Buru, Maluku 97571","Namlea, Kec. Namlea, Kabupaten Buru",MALUKU,97571.0,Indonesia,81312326558,,,-32.585.874,1.270.965.538,https://maps.google.com/?cid=0x0:0x6176a39707d21a51,
cafe,Kafe,KEDAI MERAH PUTIH,"P3GX+6CW, Namlea, Kec. Namlea, Kabupaten Buru, Maluku","Kabupaten Buru, Maluku",MALUKU,,Indonesia,82196077068,,,-32.743.857,1.270.985.649,https://maps.google.com/?cid=0x0:0x2401960c179519a4,
cafe,Hidangan Laut,Warung Makan Ikan bakar/Toko tingkat,"P39X+648, Jl. Bunga Cengkeh, Pulau, Kec. Namlea, Kabupaten Buru, Maluku","Kabupaten Buru, Maluku",MALUKU,,Indonesia,81343102258,,,-32.819.574,1.270.978.296,https://maps.google.com/?cid=0x0:0x544c6530090885ec,
cafe,Restoran,De View Cafe  Resto Ternate,"Jl. Pertamina, Fitu, Kec. Ternate Sel., Kota Ternate, Maluku Utara 97718","Fitu, Kec. Ternate Sel., Kota Ternate",MALUKU,97718.0,Indonesia,,,,0.7581222,1.273.483.413,https://maps.google.com/?cid=0x0:0x5718f6e4eeed1ac4,
cafe,cafe,Kedai ASIA PASPUT,"Q283+4X7, Pasir Putih, Kec. Kepala Madan, Kabupaten Buru Selatan, Maluku","Kabupaten Buru Selatan, Maluku",MALUKU,,Indonesia,81296890406,,,-32.347.048,1.260.049.324,https://maps.google.com/?cid=0x0:0x4cfb8003dec1934,
cafe,Gereja,EKLESIA.NET,"95RJ+2G, Waemulang, Kabupaten Buru Selatan, Maluku","Kabupaten Buru Selatan, Maluku",MALUKU,,Indonesia,,,,-3.609.919,126.181.349,https://maps.google.com/?cid=0x0:0x85b15abf782bba26,
cafe,Rumah Makan,KEDAI  CAFE A5,"P3VV+2V8, Namlea, Kec. Namlea, Kabupaten Buru, Maluku","Kabupaten Buru, Maluku",MALUKU,,Indonesia,82397074144,,,-32.574.665,1.270.947.126,https://maps.google.com/?cid=0x0:0xe2c2d2d13128eee3,
cafe,cafe,Kedai ASIA,"Q283+5X7, Pasir Putih, Kabupaten Buru Selatan, Maluku","Kabupaten Buru Selatan, Maluku",MALUKU,,Indonesia,,,,-32.345.896,1.260.049.197,https://maps.google.com/?cid=0x0:0xdb9557cbb7163571,
cafe,Kedai Kopi,Kedai Mely,"Namlea, Kec. Namlea, Kabupaten Buru, Maluku 97571","Kec. Namlea, Kabupaten Buru",MALUKU,97571.0,Indonesia,82211156665,,,-32.749.616,1.271.049.369,https://maps.google.com/?cid=0x0:0xe1c80a2c6016d0d4,
cafe,Kafe,CAFE NAMA,"Jl. H.M. Husnie Hentihu, Namlea, Kec. Namlea, Regency, Maluku","Regency, Maluku",MALUKU,,Indonesia,81233564569,,,-32.712,127.107.716,https://maps.google.com/?cid=0x0:0xef58674e0ed124a9,
cafe,Kafe,Hallo Kopi,"Namlea, Kec. Namlea, Kabupaten Buru, Maluku","Kabupaten Buru, Maluku",MALUKU,,Indonesia,,,,-3.260.268,1.270.931.325,https://maps.google.com/?cid=0x0:0x5cb50159c5f44be9,
cafe,Kafe,CAFFE KITA,"P3JW+8CJ, Unnamed Road, Namlea, Kec. Namlea, Kabupaten Buru, Maluku","Kabupaten Buru, Maluku",MALUKU,,Indonesia,81211118852,,,-3.269.161,1.270.960.199,https://maps.google.com/?cid=0x0:0xfd4fb772364ded72,
cafe,Kafe,Warkop Bento,"P4G3+4PW, Jl. Kampus Iqra Buru, Namlea, Kec. Namlea, Kabupaten Buru, Maluku","Kabupaten Buru, Maluku",MALUKU,,Indonesia,81240979102,,,-32.746.297,1.271.043.137,https://maps.google.com/?cid=0x0:0x9d03de3dead5fdca,
cafe,Kafe,KEDAI LIRWANA,"P3WW+223, Unnamed Road, Namlea, Kec. Namlea, Kabupaten Buru, Maluku","Kabupaten Buru, Maluku",MALUKU,,Indonesia,82193356889,,,-32.549.839,1.270.950.499,https://maps.google.com/?cid=0x0:0x5aa77ee6247c4fcd,
cafe,Kafe,Maharu Coffee,"Jl. Mardani Raya, RT.2/RW.5, Johar Baru, Kec. Johar Baru, Kota Jakarta Pusat, Daerah Khusus Ibukota Jakarta 10560","RT.2/RW.5, Johar Baru, Kec. Johar Baru, Kota Jakarta Pusat",MALUKU,10560.0,Indonesia,82125268885,,,-61.823.431,1.068.617.216,https://maps.google.com/?cid=0x0:0xcbec4a1114b37096,
cafe,cafe,Leksula,"Kabupaten Buru Selatan, Maluku","Kabupaten Buru Selatan, Maluku",MALUKU,,Indonesia,,,,-35.795.592,1.263.064.595,https://maps.google.com/?cid=0x0:0xc3381880c2b002c0,
cafe,Restoran,Ulathaha Caffe and rest,"Jl. Baru, Elfule, Kec. Namrole, Kabupaten Buru Selatan, Maluku","Kabupaten Buru Selatan, Maluku",MALUKU,,Indonesia,81344043602,,,-38.416.204,1.267.265.298,https://maps.google.com/?cid=0x0:0x137e54488fd3e418,
cafe,Kafe,Kafe ' LL,"5P5Q+23M, Jl. Kabupaten, Labuang, Kec. Namrole, Kabupaten Buru Selatan, Maluku","Kabupaten Buru Selatan, Maluku",MALUKU,,Indonesia,85244477781,,,-3.842.418,126.737.683,https://maps.google.com/?cid=0x0:0xee253c96eb646544,
cafe,Restoran,Sop Buah Sulawesi,"5P4P+86F, Labuang, Kec. Namrole, Kabupaten Buru Selatan, Maluku","Kabupaten Buru Selatan, Maluku",MALUKU,,Indonesia,81241494007,,,-38.441.772,1.267.355.384,https://maps.google.com/?cid=0x0:0x9da48b1f996de81f,
cafe,Kafe,KEDAI RAKDJAT 56,"Waegeren, Kec. Waeapo, Kabupaten Buru, Maluku","Kabupaten Buru, Maluku",MALUKU,,Indonesia,81299665383,,,-34.125.389,1.269.281.805,https://maps.google.com/?cid=0x0:0x740dbb6b8164dd97,
cafe,Kedai Kopi,Blush Secret Cafe,"P3RQ+8C2, Jl. Bukit Permai BTN Tatanggo, Namlea, Kec. Namlea, Kabupaten Buru, Maluku","Kabupaten Buru, Maluku",MALUKU,,Indonesia,,,,-3.258.678,1.270.885.539,https://maps.google.com/?cid=0x0:0xc0ce8ba96502d04a,
cafe,Kafe,BUBBLE BOX,"Jl. Kabupaten, Labuang, Kec. Namrole, Kabupaten Buru Selatan, Maluku","Kabupaten Buru Selatan, Maluku",MALUKU,,Indonesia,,,,-38.369.418,1.267.400.354,https://maps.google.com/?cid=0x0:0xe574cfcdee6b4adf,
cafe,Kafe,CAFFE KITA,"P3JW+8CJ, Unnamed Road, Namlea, Kec. Namlea, Kabupaten Buru, Maluku","Kabupaten Buru, Maluku",MALUKU,,Indonesia,81211118852,,,-3.269.161,1.270.960.199,https://maps.google.com/?cid=0x0:0xfd4fb772364ded72,
cafe,cafe,CK NAMROLE,"5P4P+656, Labuang, Kec. Namrole, Kabupaten Buru Selatan, Maluku","Kabupaten Buru Selatan, Maluku",MALUKU,,Indonesia,85161191616,,,-38.444.685,1.267.353.848,https://maps.google.com/?cid=0x0:0x1a66510f1a8ff6bd,
cafe,Nasi Goreng,Warung Mama Eny,"Leksula, Kabupaten Buru Selatan, Maluku 97543",Kabupaten Buru Selatan,MALUKU,97543.0,Indonesia,81378346367,,,-37.785.493,1.265.127.654,https://maps.google.com/?cid=0x0:0xdbd42e2f6d569705,
cafe,cafe,Kedai Fiksi Namrole,"5P3F+9V, Elfule, Kabupaten Buru Selatan, Maluku","Kabupaten Buru Selatan, Maluku",MALUKU,,Indonesia,,,,-38.465.978,1.267.246.472,https://maps.google.com/?cid=0x0:0xa805bf41e03ded87,
cafe,Kafe,Hallo Kopi,"Namlea, Kec. Namlea, Kabupaten Buru, Maluku","Kabupaten Buru, Maluku",MALUKU,,Indonesia,,,,-3.260.268,1.270.931.325,https://maps.google.com/?cid=0x0:0x5cb50159c5f44be9,
cafe,Kedai Kopi,Kaki.5.Coffe,"Jalan Baru Wainono, Elfule, Kec. Namrole, Kabupaten Buru Selatan, Maluku","Kabupaten Buru Selatan, Maluku",MALUKU,,Indonesia,82197792941,,,-38.405.625,1.267.301.875,https://maps.google.com/?cid=0x0:0x2f3fb85067e30544,
cafe,Brunch,Warung Anam,"Elfule, Kec. Namrole, Kabupaten Buru Selatan, Maluku","Kabupaten Buru Selatan, Maluku",MALUKU,,Indonesia,81291572738,,,-38.435.901,1.267.322.114,https://maps.google.com/?cid=0x0:0xb0d10e8aace2624a,
cafe,Kafe,Dluku Cafee  Resort,"Jl. Ir . Mohammad Khosi, Waimital, Kec. Kairatu, Ambon, Maluku 97566","Waimital, Kec. Kairatu, Ambon",MALUKU,97566.0,Indonesia,81240221127,,,-33.135.564,1.283.676.982,https://maps.google.com/?cid=0x0:0xd71b08a0e37ca59a,
cafe,Kafe,Kedai Medussa,"Tugu Tani, Namlea, Kec. Namlea, Kabupaten Buru, Maluku 97571","Namlea, Kec. Namlea, Kabupaten Buru",MALUKU,97571.0,Indonesia,81312326558,,,-32.585.874,1.270.965.538,https://maps.google.com/?cid=0x0:0x6176a39707d21a51,
cafe,Nasi,New Kedai Chaisa,"5P4M+7X6, Unnamed Road, Labuang, Kec. Namrole, Kabupaten Buru Selatan, Maluku","Kabupaten Buru Selatan, Maluku",MALUKU,,Indonesia,85243777734,,,-38.443.254,1.267.348.842,https://maps.google.com/?cid=0x0:0x7b8c7a8f5a6eef59,
cafe,Rumah Makan,Rm. Dua Putri,"5P3M+F67, Jl. Kabupaten, Labuang, Kec. Namrole, Kabupaten Buru Selatan, Maluku","Kabupaten Buru Selatan, Maluku",MALUKU,,Indonesia,,,,-38.463.311,1.267.330.398,https://maps.google.com/?cid=0x0:0x8105b7351eb6249c,
cafe,Bar Karaoke,Slita Family Karaoke,"P3WV+CW9, Namlea, Kec. Namlea, Kabupaten Buru, Maluku","Kabupaten Buru, Maluku",MALUKU,,Indonesia,82319086714,,,-32.539.659,1.270.948.445,https://maps.google.com/?cid=0x0:0x8d829555207dee96,
cafe,Sate,Rm.khabita,"5P3P+C33, Labuang, Kec. Namrole, Kabupaten Buru Selatan, Maluku","Kabupaten Buru Selatan, Maluku",MALUKU,,Indonesia,82239964788,,,-38.464.884,126.735.187,https://maps.google.com/?cid=0x0:0xf5a0398fbce08604,
cafe,Kafe,De Ol One Cafe,"P4H5+J6Q, Namlea, Kec. Namlea, Kabupaten Buru, Maluku","Kabupaten Buru, Maluku",MALUKU,,Indonesia,,,,-32.709.152,1.271.080.972,https://maps.google.com/?cid=0x0:0x3679f3f5c127df23,
cafe,Kedai Kopi,Gallery Cafe,"P3GX+GQP, Namlea, Kec. Namlea, Kabupaten Buru, Maluku","Kabupaten Buru, Maluku",MALUKU,,Indonesia,,,,-32.736.511,1.270.994.385,https://maps.google.com/?cid=0x0:0x74e6249936b57e9,
cafe,Kafe,FIAN AMBONES Coffee,"Unnamed Road, Namlea, Kec. Namlea, Kabupaten Buru, Maluku","Kabupaten Buru, Maluku",MALUKU,,Indonesia,81248009308,,,-32.762.626,1.271.028.349,https://maps.google.com/?cid=0x0:0x74de8834fab97800,
cafe,Kafe,Markas Cafe,"P3FX+2GM, Unnamed Road,, Namlea, Kec. Namlea, Kabupaten Buru, Maluku","Kabupaten Buru, Maluku",MALUKU,,Indonesia,85343458686,,,-3.277.402,1.270.987.903,https://maps.google.com/?cid=0x0:0x74fb510d1eb9e9eb,
cafe,Kedai Kopi,Nala Coffee  Eatery,"Jl. Raya Tengah No.5, RT.5/RW.12, Gedong, Kec. Ps. Rebo, Kota Jakarta Timur, Daerah Khusus Ibukota Jakarta 13760","RT.5/RW.12, Gedong, Kec. Ps. Rebo, Kota Jakarta Timur",MALUKU,13760.0,Indonesia,,,,-62.967.386,1.068.611.854,https://maps.google.com/?cid=0x0:0xf5944cf386e6a9ab,
cafe,Kedai Kopi,LEUKA COFFEE SHOP,"Jl. Rambutan 8 No.19-20, Depok Jaya, Kec. Pancoran Mas, Kota Depok, Jawa Barat 16436","Depok Jaya, Kec. Pancoran Mas, Kota Depok",MALUKU,16436.0,Indonesia,81288003112,,,-63.965.131,1.068.103.883,https://maps.google.com/?cid=0x0:0x32a3f79e1acc8d36,
cafe,Kedai Kopi,Lekker Dan Kopi By Lekker Story,"Jl. Tanjung Duren Raya No.17B, RT.1/RW.6, Tj. Duren Sel., Kec. Grogol petamburan, Kota Jakarta Barat, Daerah Khusus Ibukota Jakarta 11470","RT.1/RW.6, Tj. Duren Sel., Kec. Grogol petamburan, Kota Jakarta Barat",MALUKU,11470.0,Indonesia,81211011071,,,-61.802.556,1.067.835.377,https://maps.google.com/?cid=0x0:0x81cd59f09056c6bb,
cafe,Masakan Asia,Kafe Le Sole,"Jl. Sagan No.3, Terban, Kec. Gondokusuman, Kota Yogyakarta, Daerah Istimewa Yogyakarta 55223","Terban, Kec. Gondokusuman, Kota Yogyakarta",MALUKU,55223.0,Indonesia,,,,-77.809.278,1.103.775.195,https://maps.google.com/?cid=0x0:0xca5eb8c84393777c,
cafe,Kedai Kopi,Lekoh Coffee,"Jl. Sindang Sirna No.12, Gegerkalong, Kec. Sukasari, Kota Bandung, Jawa Barat 40153","Gegerkalong, Kec. Sukasari, Kota Bandung",MALUKU,40153.0,Indonesia,81111113889,,,-68.773.846,1.075.938.813,https://maps.google.com/?cid=0x0:0x1925dd0c9cc6a5b4,
cafe,cafe,Maluku,,Maluku,MALUKU,,Indonesia,,,,-32.384.616,1.301.452.734,https://maps.google.com/?cid=0x0:0x5e30e8db04649a51,
cafe,Kafe,FIAN AMBONES Coffee,"Unnamed Road, Namlea, Kec. Namlea, Kabupaten Buru, Maluku","Kabupaten Buru, Maluku",MALUKU,,Indonesia,81248009308,,,-32.762.626,1.271.028.349,https://maps.google.com/?cid=0x0:0x74de8834fab97800,
cafe,Kedai Kopi,KEDAI FIKSU NAMROLE,"Kedai Fiksu, Elfule, Kec. Namrole, Kabupaten Buru Selatan, Maluku 97573","Elfule, Kec. Namrole, Kabupaten Buru Selatan",MALUKU,97573.0,Indonesia,82137777184,,,-3.709.484,126.808.877,https://maps.google.com/?cid=0x0:0x1861b21130aa9654,
cafe,Komplek perumahan,FANAN CAFE,"66QC+WV5, Siwalima, Kec. Pulau-Pulau Aru, Kabupaten Kepulauan Aru, Maluku","Kabupaten Kepulauan Aru, Maluku",MALUKU,,Indonesia,,,,-57.602.278,1.342.222.275,https://maps.google.com/?cid=0x0:0x31c0c75b57ce8cf1,
cafe,Kafe,Coffee88__,"Namlea, Kec. Namlea, Kabupaten Buru, Maluku","Kabupaten Buru, Maluku",MALUKU,,Indonesia,85254209464,,,-32.676.599,1.270.950.814,https://maps.google.com/?cid=0x0:0x1bc59c4071bac8d6,
cafe,Kedai Kopi,WIFI AFAN,"JW2G+HG3, Waegeren, Kec. Waeapo, Kabupaten Buru, Maluku","Kabupaten Buru, Maluku",MALUKU,,Indonesia,,,,-33.986.208,1.269.263.038,https://maps.google.com/?cid=0x0:0x38b605d13198d763,
cafe,Kafe,Forganza Resto  Cafe,"Kelanit, Kec. Kei Kecil, Kabupaten Maluku Tenggara, Maluku","Kabupaten Maluku Tenggara, Maluku",MALUKU,,Indonesia,82231789845,,,-56.575.049,1.327.029.619,https://maps.google.com/?cid=0x0:0x35e7e74d6d2279bc,
cafe,Brunch,Faizza coffe,"Grandeng, Kec. Waeapo, Kabupaten Buru, Maluku","Kabupaten Buru, Maluku",MALUKU,,Indonesia,81247952084,,,-34.359.682,1.269.225.069,https://maps.google.com/?cid=0x0:0x2f8785422b736ec,
cafe,Kedai Kopi,Jafa FoodCoffee,"Jl. Jend. Sudirman - Depan MCM (Lt.2 Alfamidi, Hative Kecil, Kec. Sirimau, Kota Ambon, Maluku 97129","Hative Kecil, Kec. Sirimau, Kota Ambon",MALUKU,97129.0,Indonesia,8114702456,,,-36.704.963,1.281.992.089,https://maps.google.com/?cid=0x0:0xe55af1449944fec3,
cafe,Kafe,Kafena Cafe  Resto,"Jl. Soekarno, Sukur, Kec. Dimembe, Kabupaten Minahasa Utara, Sulawesi Utara 95371","Sukur, Kec. Dimembe, Kabupaten Minahasa Utara",MALUKU,95371.0,Indonesia,85398937256,,,14.655.094,1.249.619.849,https://maps.google.com/?cid=0x0:0x34bd334bb7f248ff,
cafe,Kafe,KEDAI LIRWANA,"P3WW+223, Unnamed Road, Namlea, Kec. Namlea, Kabupaten Buru, Maluku","Kabupaten Buru, Maluku",MALUKU,,Indonesia,82193356889,,,-32.549.839,1.270.950.499,https://maps.google.com/?cid=0x0:0x5aa77ee6247c4fcd,
cafe,Toko,Ajindy WFI,"Waegeren, Kec. Waeapo, Kabupaten Buru, Maluku","Kabupaten Buru, Maluku",MALUKU,,Indonesia,,,,-3.416.197,1.269.202.862,https://maps.google.com/?cid=0x0:0x791ab7936611deca,
cafe,Kafe,Dluku Cafee  Resort,"Jl. Ir . Mohammad Khosi, Waimital, Kec. Kairatu, Ambon, Maluku 97566","Waimital, Kec. Kairatu, Ambon",MALUKU,97566.0,Indonesia,81240221127,,,-33.135.564,1.283.676.982,https://maps.google.com/?cid=0x0:0xd71b08a0e37ca59a,
cafe,Kafe,INFINITY CAFE  EATERY,"85CV+M7G, Pandan Kasturi, Kec. Sirimau, Kota Ambon, Maluku","Kota Ambon, Maluku",MALUKU,,Indonesia,81241568878,,,-36.783.317,1.281.931.931,https://maps.google.com/?cid=0x0:0x619ec9a16acc810f,
