Category,Real Category,Business Name,Address,City,State,Postal Code,Country,Phone,Latitude,Longitude,Map Link
mall,mall,Kec. Ternate Sel.,"Kota Ternate, Maluku Utara","Kota Ternate, Maluku Utara",MALUKU UTARA,,Indonesia,,0.7676108,127.3745474,https://maps.google.com/?cid=0x0:0xd0e23e4e61e3ddd0
mall,Pusat Perbelanjaan,Muara Mall,"Jl. Nukila No.50, Gamalama, Kec. Ternate Tengah, Kota Ternate, Maluku Utara 97722","Gamalama, Kec. Ternate Tengah, Kota Ternate",MALUKU UTARA,97722.0,Indonesia,,0.7912455,127.3864239,https://maps.google.com/?cid=0x0:0x2c6d1f216770a71
mall,Pusat Perbelanjaan,Jatiland Mall,"Jl. Pahlawan Revolusi, Gamalama, Kec. Ternate Tengah, Kota Ternate, Maluku Utara","Kota Ternate, Maluku Utara",MALUKU UTARA,,Indonesia,,0.7913034,127.3904651,https://maps.google.com/?cid=0x0:0xc88fc50abd8f2993
mall,Pusat Perbelanjaan,AL-MART,"Perumahan Louw Permai Blok A No.20, Ngade, Kec. Ternate Sel., Kota Ternate, Maluku Utara","Kota Ternate, Maluku Utara",MALUKU UTARA,,Indonesia,81244310370.0,0.763092,127.353043,https://maps.google.com/?cid=0x0:0x8fbed0742e9aefc7
mall,Pusat Perbelanjaan,Plaza Gamalama Modern,"Q9QQ+MFG, Gamalama, Kec. Ternate Tengah, Kota Ternate, Maluku Utara","Kota Ternate, Maluku Utara",MALUKU UTARA,,Indonesia,,0.7891912,127.3887186,https://maps.google.com/?cid=0x0:0xd055cdf79fc29e27
mall,Pusat Perbelanjaan,Depo Mart,"Q9VQ+G3W, Gamalama, Kec. Ternate Tengah, Kota Ternate, Maluku Utara","Kota Ternate, Maluku Utara",MALUKU UTARA,,Indonesia,,0.7938536,127.3876929,https://maps.google.com/?cid=0x0:0xbb6626eb5b518fae
mall,Toko Swalayan,Seafood,"Q99G+HG7, Bastiong Talangame, Kec. Kota Ternate Utara, Kota Ternate, Maluku Utara","Kota Ternate, Maluku Utara",MALUKU UTARA,,Indonesia,,0.768916,127.3762876,https://maps.google.com/?cid=0x0:0x7cbdadc0dc145225
mall,Toko,Tabahawa kel salahudi,"Q9RF+MRF, Salahuddin, Kec. Ternate Tengah, Kota Ternate, Maluku Utara","Kota Ternate, Maluku Utara",MALUKU UTARA,,Indonesia,,0.7916979,127.3745394,https://maps.google.com/?cid=0x0:0x67cdfb74d3ee1fe8
mall,Toko Ponsel,ALIF SHOP,"Q975+P8Q, alun-alun, Kalumata, Kec. Ternate Sel., Kota Ternate, Maluku Utara","Kota Ternate, Maluku Utara",MALUKU UTARA,,Indonesia,,0.7643383,127.3583441,https://maps.google.com/?cid=0x0:0x49843ae5624258cb
mall,Toko bahan makanan,LARIS I,"Q9VJ+43H, Jl. SKSD Palapa, Salahuddin, Kec. Ternate Tengah, Kota Ternate, Maluku Utara","Kota Ternate, Maluku Utara",MALUKU UTARA,,Indonesia,85210751551.0,0.7928239,127.380229,https://maps.google.com/?cid=0x0:0xfc5f303e6e1b52ff
mall,Toko Pakaian,PASAR SENGGOL,"Q9QQ+9GG, Gamalama, Kec. Ternate Tengah, Kota Ternate, Maluku Utara","Kota Ternate, Maluku Utara",MALUKU UTARA,,Indonesia,82188565888.0,0.7884347,127.388822,https://maps.google.com/?cid=0x0:0x2ef6dfd847a626cd
mall,Toko,Milanello variasi,"Q9FH+QCV, Jl. Raya Mangga Dua, Mangga Dua, Kec. Ternate Sel., Kota Ternate, Maluku Utara","Kota Ternate, Maluku Utara",MALUKU UTARA,,Indonesia,,0.7744803,127.3785486,https://maps.google.com/?cid=0x0:0xce89a4e62bd520f0
mall,Pusat Perbelanjaan,Depot amalia mas,"Stikip Kie Raha, Jalan, Sasa, Ternate Selatan, Ternate City, North Maluku","Kota Ternate, Maluku Utara",MALUKU UTARA,,Indonesia,81340803444.0,0.7595331,127.3260247,https://maps.google.com/?cid=0x0:0x2072630b26e60963
mall,Pusat Perbelanjaan,Informa Jatiland Mall,"Q9RQ+4CW, Jl. Pahlawan Revolusi, Gamalama, Kec. Ternate Tengah, Kota Ternate, Maluku Utara 97721","Jl. Pahlawan Revolusi, Gamalama, Kec. Ternate Tengah, Kota Ternate",MALUKU UTARA,97721.0,Indonesia,81511002000.0,0.7923511,127.3906894,https://maps.google.com/?cid=0x0:0xdae8c2b3de37c036
mall,mall,Kec. Ternate Sel.,"Kota Ternate, Maluku Utara","Kota Ternate, Maluku Utara",MALUKU UTARA,,Indonesia,,0.7676108,127.3745474,https://maps.google.com/?cid=0x0:0xd0e23e4e61e3ddd0
mall,Pusat Perbelanjaan,Muara Mall,"Jl. Nukila No.50, Gamalama, Kec. Ternate Tengah, Kota Ternate, Maluku Utara 97722","Gamalama, Kec. Ternate Tengah, Kota Ternate",MALUKU UTARA,97722.0,Indonesia,,0.7912455,127.3864239,https://maps.google.com/?cid=0x0:0x2c6d1f216770a71
mall,Pusat Perbelanjaan,Jatiland Mall,"Jl. Pahlawan Revolusi, Gamalama, Kec. Ternate Tengah, Kota Ternate, Maluku Utara","Kota Ternate, Maluku Utara",MALUKU UTARA,,Indonesia,,0.7913034,127.3904651,https://maps.google.com/?cid=0x0:0xc88fc50abd8f2993
mall,Pusat Perbelanjaan,Ternate,"Q9RQ+W8M, Gamalama, Kec. Ternate Tengah, Kota Ternate, Maluku Utara","Kota Ternate, Maluku Utara",MALUKU UTARA,,Indonesia,81245770950.0,0.7923382,127.3882935,https://maps.google.com/?cid=0x0:0x60947994a9407cfd
mall,Pusat Perbelanjaan,Depo Mart,"Q9VQ+G3W, Gamalama, Kec. Ternate Tengah, Kota Ternate, Maluku Utara","Kota Ternate, Maluku Utara",MALUKU UTARA,,Indonesia,,0.7938536,127.3876929,https://maps.google.com/?cid=0x0:0xbb6626eb5b518fae
mall,Pusat Perbelanjaan,Plaza Gamalama Modern,"Q9QQ+MFG, Gamalama, Kec. Ternate Tengah, Kota Ternate, Maluku Utara","Kota Ternate, Maluku Utara",MALUKU UTARA,,Indonesia,,0.7891912,127.3887186,https://maps.google.com/?cid=0x0:0xd055cdf79fc29e27
mall,Toko Swalayan,Seafood,"Q99G+HG7, Bastiong Talangame, Kec. Kota Ternate Utara, Kota Ternate, Maluku Utara","Kota Ternate, Maluku Utara",MALUKU UTARA,,Indonesia,,0.768916,127.3762876,https://maps.google.com/?cid=0x0:0x7cbdadc0dc145225
mall,Toko,Milanello variasi,"Q9FH+QCV, Jl. Raya Mangga Dua, Mangga Dua, Kec. Ternate Sel., Kota Ternate, Maluku Utara","Kota Ternate, Maluku Utara",MALUKU UTARA,,Indonesia,,0.7744803,127.3785486,https://maps.google.com/?cid=0x0:0xce89a4e62bd520f0
mall,Toko Ponsel,ALIF SHOP,"Q975+P8Q, alun-alun, Kalumata, Kec. Ternate Sel., Kota Ternate, Maluku Utara","Kota Ternate, Maluku Utara",MALUKU UTARA,,Indonesia,,0.7643383,127.3583441,https://maps.google.com/?cid=0x0:0x49843ae5624258cb
mall,Toko,Tabahawa kel salahudi,"Q9RF+MRF, Salahuddin, Kec. Ternate Tengah, Kota Ternate, Maluku Utara","Kota Ternate, Maluku Utara",MALUKU UTARA,,Indonesia,,0.7916979,127.3745394,https://maps.google.com/?cid=0x0:0x67cdfb74d3ee1fe8
mall,Toko Pakaian,PASAR SENGGOL,"Q9QQ+9GG, Gamalama, Kec. Ternate Tengah, Kota Ternate, Maluku Utara","Kota Ternate, Maluku Utara",MALUKU UTARA,,Indonesia,82188565888.0,0.7884347,127.388822,https://maps.google.com/?cid=0x0:0x2ef6dfd847a626cd
mall,Pusat Perbelanjaan,Informa Jatiland Mall,"Q9RQ+4CW, Jl. Pahlawan Revolusi, Gamalama, Kec. Ternate Tengah, Kota Ternate, Maluku Utara 97721","Jl. Pahlawan Revolusi, Gamalama, Kec. Ternate Tengah, Kota Ternate",MALUKU UTARA,97721.0,Indonesia,81511002000.0,0.7923511,127.3906894,https://maps.google.com/?cid=0x0:0xdae8c2b3de37c036
mall,Pusat Perbelanjaan,Depot amalia mas,"Stikip Kie Raha, Jalan, Sasa, Ternate Selatan, Ternate City, North Maluku","Kota Ternate, Maluku Utara",MALUKU UTARA,,Indonesia,81340803444.0,0.7595331,127.3260247,https://maps.google.com/?cid=0x0:0x2072630b26e60963
mall,Pusat Perbelanjaan,Multimart Ternate,"Q9RR+Q4W, Gamalama, Kota Ternate, Maluku Utara","Kota Ternate, Maluku Utara",MALUKU UTARA,,Indonesia,9213123830.0,0.7919999,127.3903253,https://maps.google.com/?cid=0x0:0x8c3646ec80a5c8c4
mall,mall,Maluku Utara 97716,"Jati, Kec. Ternate Sel., Kota Ternate, Maluku Utara","Kota Ternate, Maluku Utara",MALUKU UTARA,,Indonesia,,0.774964,127.3753239,https://maps.google.com/?cid=0x0:0xd3326394ae1fb547
mall,Pusat Perbelanjaan,Muara Mall,"Jl. Nukila No.50, Gamalama, Kec. Ternate Tengah, Kota Ternate, Maluku Utara 97722","Gamalama, Kec. Ternate Tengah, Kota Ternate",MALUKU UTARA,97722.0,Indonesia,,0.7912455,127.3864239,https://maps.google.com/?cid=0x0:0x2c6d1f216770a71
mall,Pusat Perbelanjaan,Jatiland Mall,"Jl. Pahlawan Revolusi, Gamalama, Kec. Ternate Tengah, Kota Ternate, Maluku Utara","Kota Ternate, Maluku Utara",MALUKU UTARA,,Indonesia,,0.7913034,127.3904651,https://maps.google.com/?cid=0x0:0xc88fc50abd8f2993
mall,Pusat Perbelanjaan,Informa Jatiland Mall,"Q9RQ+4CW, Jl. Pahlawan Revolusi, Gamalama, Kec. Ternate Tengah, Kota Ternate, Maluku Utara 97721","Jl. Pahlawan Revolusi, Gamalama, Kec. Ternate Tengah, Kota Ternate",MALUKU UTARA,97721.0,Indonesia,81511002000.0,0.7923511,127.3906894,https://maps.google.com/?cid=0x0:0xdae8c2b3de37c036
mall,Pusat Perbelanjaan,Hypermart Ternate,"Q9XQ+G5G, Jl. Sultan M. Djabir Sjah Kel, RT.007/RW.004, Soa Sio, Kec. Kota Ternate Utara, Maluku Utara",Maluku Utara,MALUKU UTARA,,Indonesia,9213113010.0,0.7989861,127.3884829,https://maps.google.com/?cid=0x0:0xff03748bad776036
mall,Indonesia,Belakang mall,"Q9RP+FXR, Gamalama, Kec. Ternate Tengah, Kota Ternate, Maluku Utara","Kota Ternate, Maluku Utara",MALUKU UTARA,,Indonesia,,0.7912491,127.3873973,https://maps.google.com/?cid=0x0:0xd5e26eaa7078542a
mall,Toko Kesehatan dan Kecantikan,The Body Shop JATILAND MALL TERNATE,"kawasan reklamasi pantai, Jl. Sultan Djabir Sjah, Kota Ternate, Maluku Utara","Kota Ternate, Maluku Utara",MALUKU UTARA,,Indonesia,,0.7916341,127.3906,https://maps.google.com/?cid=0x0:0x10d6db4714831a5b
mall,mall,Kec. Ternate Sel.,"Kota Ternate, Maluku Utara","Kota Ternate, Maluku Utara",MALUKU UTARA,,Indonesia,,0.7676108,127.3745474,https://maps.google.com/?cid=0x0:0xd0e23e4e61e3ddd0
mall,Pusat Perbelanjaan,AL-MART,"Perumahan Louw Permai Blok A No.20, Ngade, Kec. Ternate Sel., Kota Ternate, Maluku Utara","Kota Ternate, Maluku Utara",MALUKU UTARA,,Indonesia,81244310370.0,0.763092,127.353043,https://maps.google.com/?cid=0x0:0x8fbed0742e9aefc7
mall,Pusat Perbelanjaan,Plaza Gamalama Modern,"Q9QQ+MFG, Gamalama, Kec. Ternate Tengah, Kota Ternate, Maluku Utara","Kota Ternate, Maluku Utara",MALUKU UTARA,,Indonesia,,0.7891912,127.3887186,https://maps.google.com/?cid=0x0:0xd055cdf79fc29e27
mall,Pusat Perbelanjaan,Depo Mart,"Q9VQ+G3W, Gamalama, Kec. Ternate Tengah, Kota Ternate, Maluku Utara","Kota Ternate, Maluku Utara",MALUKU UTARA,,Indonesia,,0.7938536,127.3876929,https://maps.google.com/?cid=0x0:0xbb6626eb5b518fae
mall,Pusat Perbelanjaan,Multimart Ternate,"Q9RR+Q4W, Gamalama, Kota Ternate, Maluku Utara","Kota Ternate, Maluku Utara",MALUKU UTARA,,Indonesia,9213123830.0,0.7919999,127.3903253,https://maps.google.com/?cid=0x0:0x8c3646ec80a5c8c4
mall,Toko bahan makanan,LARIS I,"Q9VJ+43H, Jl. SKSD Palapa, Salahuddin, Kec. Ternate Tengah, Kota Ternate, Maluku Utara","Kota Ternate, Maluku Utara",MALUKU UTARA,,Indonesia,85210751551.0,0.7928239,127.380229,https://maps.google.com/?cid=0x0:0xfc5f303e6e1b52ff
mall,Toko Ponsel,ALIF SHOP,"Q975+P8Q, alun-alun, Kalumata, Kec. Ternate Sel., Kota Ternate, Maluku Utara","Kota Ternate, Maluku Utara",MALUKU UTARA,,Indonesia,,0.7643383,127.3583441,https://maps.google.com/?cid=0x0:0x49843ae5624258cb
mall,mall,Kec. Ternate Sel.,"Kota Ternate, Maluku Utara","Kota Ternate, Maluku Utara",MALUKU UTARA,,Indonesia,,0.7676108,127.3745474,https://maps.google.com/?cid=0x0:0xd0e23e4e61e3ddd0
mall,Pusat Perbelanjaan,Muara Mall,"Jl. Nukila No.50, Gamalama, Kec. Ternate Tengah, Kota Ternate, Maluku Utara 97722","Gamalama, Kec. Ternate Tengah, Kota Ternate",MALUKU UTARA,97722.0,Indonesia,,0.7912455,127.3864239,https://maps.google.com/?cid=0x0:0x2c6d1f216770a71
mall,Pusat Perbelanjaan,Jatiland Mall,"Jl. Pahlawan Revolusi, Gamalama, Kec. Ternate Tengah, Kota Ternate, Maluku Utara","Kota Ternate, Maluku Utara",MALUKU UTARA,,Indonesia,,0.7913034,127.3904651,https://maps.google.com/?cid=0x0:0xc88fc50abd8f2993
mall,Pusat Perbelanjaan,Plaza Gamalama Modern,"Q9QQ+MFG, Gamalama, Kec. Ternate Tengah, Kota Ternate, Maluku Utara","Kota Ternate, Maluku Utara",MALUKU UTARA,,Indonesia,,0.7891912,127.3887186,https://maps.google.com/?cid=0x0:0xd055cdf79fc29e27
mall,Pusat Perbelanjaan,AL-MART,"Perumahan Louw Permai Blok A No.20, Ngade, Kec. Ternate Sel., Kota Ternate, Maluku Utara","Kota Ternate, Maluku Utara",MALUKU UTARA,,Indonesia,81244310370.0,0.763092,127.353043,https://maps.google.com/?cid=0x0:0x8fbed0742e9aefc7
mall,Pusat Perbelanjaan,Depo Mart,"Q9VQ+G3W, Gamalama, Kec. Ternate Tengah, Kota Ternate, Maluku Utara","Kota Ternate, Maluku Utara",MALUKU UTARA,,Indonesia,,0.7938536,127.3876929,https://maps.google.com/?cid=0x0:0xbb6626eb5b518fae
mall,Pusat Perbelanjaan,Multimart Ternate,"Q9RR+Q4W, Gamalama, Kota Ternate, Maluku Utara","Kota Ternate, Maluku Utara",MALUKU UTARA,,Indonesia,9213123830.0,0.7919999,127.3903253,https://maps.google.com/?cid=0x0:0x8c3646ec80a5c8c4
mall,Toko,Tabahawa kel salahudi,"Q9RF+MRF, Salahuddin, Kec. Ternate Tengah, Kota Ternate, Maluku Utara","Kota Ternate, Maluku Utara",MALUKU UTARA,,Indonesia,,0.7916979,127.3745394,https://maps.google.com/?cid=0x0:0x67cdfb74d3ee1fe8
mall,Pusat Perbelanjaan,Depot amalia mas,"Stikip Kie Raha, Jalan, Sasa, Ternate Selatan, Ternate City, North Maluku","Kota Ternate, Maluku Utara",MALUKU UTARA,,Indonesia,81340803444.0,0.7595331,127.3260247,https://maps.google.com/?cid=0x0:0x2072630b26e60963
mall,Toko,Milanello variasi,"Q9FH+QCV, Jl. Raya Mangga Dua, Mangga Dua, Kec. Ternate Sel., Kota Ternate, Maluku Utara","Kota Ternate, Maluku Utara",MALUKU UTARA,,Indonesia,,0.7744803,127.3785486,https://maps.google.com/?cid=0x0:0xce89a4e62bd520f0
mall,Toko Swalayan,Seafood,"Q99G+HG7, Bastiong Talangame, Kec. Kota Ternate Utara, Kota Ternate, Maluku Utara","Kota Ternate, Maluku Utara",MALUKU UTARA,,Indonesia,,0.768916,127.3762876,https://maps.google.com/?cid=0x0:0x7cbdadc0dc145225
mall,Toko Kosmetik,Zalika Kosmetik Ternate,"Bastiong Talangame, Kec. Ternate Sel., Kota Ternate, Maluku Utara","Kota Ternate, Maluku Utara",MALUKU UTARA,,Indonesia,82292377577.0,0.7667282,127.3771941,https://maps.google.com/?cid=0x0:0x7425586f08bd66f4
mall,Pusat Perbelanjaan,Gamalama Town Square,"Q9QQ+MFP, Gamalama, Kec. Ternate Tengah, Kota Ternate, Maluku Utara","Kota Ternate, Maluku Utara",MALUKU UTARA,,Indonesia,,0.789204,127.3886928,https://maps.google.com/?cid=0x0:0x5dbb68daa50e25f7
mall,Pusat Perbelanjaan,Informa Jatiland Mall,"Q9RQ+4CW, Jl. Pahlawan Revolusi, Gamalama, Kec. Ternate Tengah, Kota Ternate, Maluku Utara 97721","Jl. Pahlawan Revolusi, Gamalama, Kec. Ternate Tengah, Kota Ternate",MALUKU UTARA,97721.0,Indonesia,81511002000.0,0.7923511,127.3906894,https://maps.google.com/?cid=0x0:0xdae8c2b3de37c036
mall,mall,Maluku Utara 97718,"Kalumata, Kec. Ternate Sel., Kota Ternate, Maluku Utara","Kota Ternate, Maluku Utara",MALUKU UTARA,,Indonesia,,0.7645594,127.3662047,https://maps.google.com/?cid=0x0:0x663035b682ff1ce5
mall,Pusat Perbelanjaan,Muara Mall,"Jl. Nukila No.50, Gamalama, Kec. Ternate Tengah, Kota Ternate, Maluku Utara 97722","Gamalama, Kec. Ternate Tengah, Kota Ternate",MALUKU UTARA,97722.0,Indonesia,,0.7912455,127.3864239,https://maps.google.com/?cid=0x0:0x2c6d1f216770a71
mall,Pusat Perbelanjaan,Jatiland Mall,"Jl. Pahlawan Revolusi, Gamalama, Kec. Ternate Tengah, Kota Ternate, Maluku Utara","Kota Ternate, Maluku Utara",MALUKU UTARA,,Indonesia,,0.7913034,127.3904651,https://maps.google.com/?cid=0x0:0xc88fc50abd8f2993
mall,Pusat Perbelanjaan,Multimart Ternate,"Q9RR+Q4W, Gamalama, Kota Ternate, Maluku Utara","Kota Ternate, Maluku Utara",MALUKU UTARA,,Indonesia,9213123830.0,0.7919999,127.3903253,https://maps.google.com/?cid=0x0:0x8c3646ec80a5c8c4
mall,Pusat Perbelanjaan,Informa Jatiland Mall,"Q9RQ+4CW, Jl. Pahlawan Revolusi, Gamalama, Kec. Ternate Tengah, Kota Ternate, Maluku Utara 97721","Jl. Pahlawan Revolusi, Gamalama, Kec. Ternate Tengah, Kota Ternate",MALUKU UTARA,97721.0,Indonesia,81511002000.0,0.7923511,127.3906894,https://maps.google.com/?cid=0x0:0xdae8c2b3de37c036
mall,Pusat Perbelanjaan,Hypermart Ternate,"Q9XQ+G5G, Jl. Sultan M. Djabir Sjah Kel, RT.007/RW.004, Soa Sio, Kec. Kota Ternate Utara, Maluku Utara",Maluku Utara,MALUKU UTARA,,Indonesia,9213113010.0,0.7989861,127.3884829,https://maps.google.com/?cid=0x0:0xff03748bad776036
mall,mall,,,,MALUKU UTARA,,Indonesia,,,,https://maps.google.com/?cid=0x0:0x67cf3fcc0f55895%7C/g/11b6d93y9z%7Cid-ID
mall,mall,Muara Hotel and Mall Ternate,"Jl. Merdeka No.19, Gamalama, Kec. Ternate Tengah, Kota Ternate, Maluku Utara","Kota Ternate, Maluku Utara",MALUKU UTARA,,Indonesia,9213125553.0,0.7911445,127.3861909,https://maps.google.com/?cid=0x0:0x67cf3fcc0f55895
mall,mall,Hotel Emerald,"Jl. Branjangan No.28, Kalumpang, Kec. Ternate Tengah, Kota Ternate, Maluku Utara","Kota Ternate, Maluku Utara",MALUKU UTARA,,Indonesia,9213128188.0,0.7885727,127.3845146,https://maps.google.com/?cid=0x0:0x33915e2d48a0928b
mall,mall,Boulevard Hotel,"Q9RQ+4WQ, Jalan Ruko Jatiland Jl. Sultan M. Djabir Sjah No.1 - 5, Gamalama, Kec. Kota Ternate Utara, Maluku Utara",Maluku Utara,MALUKU UTARA,,Indonesia,9213110666.0,0.7900983,127.3899972,https://maps.google.com/?cid=0x0:0x81f2c24d2703d498
mall,mall,Hotel Gamalama Indah,"Q9QQ+RX6, Gamalama, Kec. Ternate Tengah, Kota Ternate, Maluku Utara","Kota Ternate, Maluku Utara",MALUKU UTARA,,Indonesia,81380008545.0,0.7895272,127.3898938,https://maps.google.com/?cid=0x0:0x2029c9b62509c39
mall,mall,The Batik Hotel,"Jl. Kapitan Pattimura, Stadion, Kec. Ternate Tengah, Kota Ternate, Maluku Utara","Kota Ternate, Maluku Utara",MALUKU UTARA,,Indonesia,8114343343.0,0.7877576,127.3845077,https://maps.google.com/?cid=0x0:0x328d07a18d098e8d
mall,mall,Grand Majang Hotel Ternate,"Jl. Arnold Mononutu No.275, Stadion, Kec. Ternate Tengah, Kota Ternate, Maluku Utara","Kota Ternate, Maluku Utara",MALUKU UTARA,,Indonesia,81289376601.0,0.7836107,127.3845012,https://maps.google.com/?cid=0x0:0xf6e7394b3e66015f
mall,mall,Muara Inn Ternate,"Jl. Seruni, Kp. Pisang, Kec. Ternate Tengah, Kota Ternate, Maluku Utara 97712","Kp. Pisang, Kec. Ternate Tengah, Kota Ternate",MALUKU UTARA,97712.0,Indonesia,9216205200.0,0.7834742,127.3826265,https://maps.google.com/?cid=0x0:0x126e3446c8f963cb
mall,mall,Maluku Utara 97719,"Gambesi, Kec. Ternate Sel., Kota Ternate, Maluku Utara","Kota Ternate, Maluku Utara",MALUKU UTARA,,Indonesia,,0.7574825,127.337924,https://maps.google.com/?cid=0x0:0x8c905e5582c8d0aa
mall,Pusat Perbelanjaan,Muara Mall,"Jl. Nukila No.50, Gamalama, Kec. Ternate Tengah, Kota Ternate, Maluku Utara 97722","Gamalama, Kec. Ternate Tengah, Kota Ternate",MALUKU UTARA,97722.0,Indonesia,,0.7912455,127.3864239,https://maps.google.com/?cid=0x0:0x2c6d1f216770a71
mall,Pusat Perbelanjaan,Jatiland Mall,"Jl. Pahlawan Revolusi, Gamalama, Kec. Ternate Tengah, Kota Ternate, Maluku Utara","Kota Ternate, Maluku Utara",MALUKU UTARA,,Indonesia,,0.7913034,127.3904651,https://maps.google.com/?cid=0x0:0xc88fc50abd8f2993
mall,Pusat Perbelanjaan,Informa Jatiland Mall,"Q9RQ+4CW, Jl. Pahlawan Revolusi, Gamalama, Kec. Ternate Tengah, Kota Ternate, Maluku Utara 97721","Jl. Pahlawan Revolusi, Gamalama, Kec. Ternate Tengah, Kota Ternate",MALUKU UTARA,97721.0,Indonesia,81511002000.0,0.7923511,127.3906894,https://maps.google.com/?cid=0x0:0xdae8c2b3de37c036
mall,Pusat Perbelanjaan,Hypermart Ternate,"Q9XQ+G5G, Jl. Sultan M. Djabir Sjah Kel, RT.007/RW.004, Soa Sio, Kec. Kota Ternate Utara, Maluku Utara",Maluku Utara,MALUKU UTARA,,Indonesia,9213113010.0,0.7989861,127.3884829,https://maps.google.com/?cid=0x0:0xff03748bad776036
mall,Toko Kesehatan dan Kecantikan,The Body Shop JATILAND MALL TERNATE,"kawasan reklamasi pantai, Jl. Sultan Djabir Sjah, Kota Ternate, Maluku Utara","Kota Ternate, Maluku Utara",MALUKU UTARA,,Indonesia,,0.7916341,127.3906,https://maps.google.com/?cid=0x0:0x10d6db4714831a5b
mall,Toko Kosmetik,GUARDIAN - Jatiland Mall Ternate,"Jatiland Mall SF, Jl. Sultan M. Djabir Sjah No.02 02 LT, Gamalama, Kec. Ternate Tengah, Kota Ternate, Maluku Utara 97722","Jl. Sultan M. Djabir Sjah No.02 02 LT, Gamalama, Kec. Ternate Tengah, Kota Ternate",MALUKU UTARA,97722.0,Indonesia,,0.7916841,127.3905133,https://maps.google.com/?cid=0x0:0xf47139e340cc67f4
mall,Indonesia,Belakang mall,"Q9RP+FXR, Gamalama, Kec. Ternate Tengah, Kota Ternate, Maluku Utara","Kota Ternate, Maluku Utara",MALUKU UTARA,,Indonesia,,0.7912491,127.3873973,https://maps.google.com/?cid=0x0:0xd5e26eaa7078542a
mall,mall,Muara Hotel and Mall Ternate,"Jl. Merdeka No.19, Gamalama, Kec. Ternate Tengah, Kota Ternate, Maluku Utara","Kota Ternate, Maluku Utara",MALUKU UTARA,,Indonesia,9213125553.0,0.7911445,127.3861909,https://maps.google.com/?cid=0x0:0x67cf3fcc0f55895
mall,mall,,,,MALUKU UTARA,,Indonesia,,,,https://maps.google.com/?cid=0x0:0x67cf3fcc0f55895%7C/g/11b6d93y9z%7Cid-ID
mall,mall,Hotel Emerald,"Jl. Branjangan No.28, Kalumpang, Kec. Ternate Tengah, Kota Ternate, Maluku Utara","Kota Ternate, Maluku Utara",MALUKU UTARA,,Indonesia,9213128188.0,0.7885727,127.3845146,https://maps.google.com/?cid=0x0:0x33915e2d48a0928b
mall,mall,Hotel Gamalama Indah,"Q9QQ+RX6, Gamalama, Kec. Ternate Tengah, Kota Ternate, Maluku Utara","Kota Ternate, Maluku Utara",MALUKU UTARA,,Indonesia,81380008545.0,0.7895272,127.3898938,https://maps.google.com/?cid=0x0:0x2029c9b62509c39
mall,mall,Boulevard Hotel,"Q9RQ+4WQ, Jalan Ruko Jatiland Jl. Sultan M. Djabir Sjah No.1 - 5, Gamalama, Kec. Kota Ternate Utara, Maluku Utara",Maluku Utara,MALUKU UTARA,,Indonesia,9213110666.0,0.7900983,127.3899972,https://maps.google.com/?cid=0x0:0x81f2c24d2703d498
mall,mall,The Batik Hotel,"Jl. Kapitan Pattimura, Stadion, Kec. Ternate Tengah, Kota Ternate, Maluku Utara","Kota Ternate, Maluku Utara",MALUKU UTARA,,Indonesia,8114343343.0,0.7877576,127.3845077,https://maps.google.com/?cid=0x0:0x328d07a18d098e8d
mall,mall,Kec. Ternate Sel.,"Kota Ternate, Maluku Utara","Kota Ternate, Maluku Utara",MALUKU UTARA,,Indonesia,,0.7676108,127.3745474,https://maps.google.com/?cid=0x0:0xd0e23e4e61e3ddd0
mall,Pusat Perbelanjaan,Muara Mall,"Jl. Nukila No.50, Gamalama, Kec. Ternate Tengah, Kota Ternate, Maluku Utara 97722","Gamalama, Kec. Ternate Tengah, Kota Ternate",MALUKU UTARA,97722.0,Indonesia,,0.7912455,127.3864239,https://maps.google.com/?cid=0x0:0x2c6d1f216770a71
mall,Pusat Perbelanjaan,Jatiland Mall,"Jl. Pahlawan Revolusi, Gamalama, Kec. Ternate Tengah, Kota Ternate, Maluku Utara","Kota Ternate, Maluku Utara",MALUKU UTARA,,Indonesia,,0.7913034,127.3904651,https://maps.google.com/?cid=0x0:0xc88fc50abd8f2993
mall,Pusat Perbelanjaan,AL-MART,"Perumahan Louw Permai Blok A No.20, Ngade, Kec. Ternate Sel., Kota Ternate, Maluku Utara","Kota Ternate, Maluku Utara",MALUKU UTARA,,Indonesia,81244310370.0,0.763092,127.353043,https://maps.google.com/?cid=0x0:0x8fbed0742e9aefc7
mall,Pusat Perbelanjaan,Depo Mart,"Q9VQ+G3W, Gamalama, Kec. Ternate Tengah, Kota Ternate, Maluku Utara","Kota Ternate, Maluku Utara",MALUKU UTARA,,Indonesia,,0.7938536,127.3876929,https://maps.google.com/?cid=0x0:0xbb6626eb5b518fae
mall,Pusat Perbelanjaan,Plaza Gamalama Modern,"Q9QQ+MFG, Gamalama, Kec. Ternate Tengah, Kota Ternate, Maluku Utara","Kota Ternate, Maluku Utara",MALUKU UTARA,,Indonesia,,0.7891912,127.3887186,https://maps.google.com/?cid=0x0:0xd055cdf79fc29e27
mall,Toko bahan makanan,LARIS I,"Q9VJ+43H, Jl. SKSD Palapa, Salahuddin, Kec. Ternate Tengah, Kota Ternate, Maluku Utara","Kota Ternate, Maluku Utara",MALUKU UTARA,,Indonesia,85210751551.0,0.7928239,127.380229,https://maps.google.com/?cid=0x0:0xfc5f303e6e1b52ff
mall,Toko Ponsel,ALIF SHOP,"Q975+P8Q, alun-alun, Kalumata, Kec. Ternate Sel., Kota Ternate, Maluku Utara","Kota Ternate, Maluku Utara",MALUKU UTARA,,Indonesia,,0.7643383,127.3583441,https://maps.google.com/?cid=0x0:0x49843ae5624258cb
mall,Toko Swalayan,Seafood,"Q99G+HG7, Bastiong Talangame, Kec. Kota Ternate Utara, Kota Ternate, Maluku Utara","Kota Ternate, Maluku Utara",MALUKU UTARA,,Indonesia,,0.768916,127.3762876,https://maps.google.com/?cid=0x0:0x7cbdadc0dc145225
mall,Pusat Perbelanjaan,Informa Jatiland Mall,"Q9RQ+4CW, Jl. Pahlawan Revolusi, Gamalama, Kec. Ternate Tengah, Kota Ternate, Maluku Utara 97721","Jl. Pahlawan Revolusi, Gamalama, Kec. Ternate Tengah, Kota Ternate",MALUKU UTARA,97721.0,Indonesia,81511002000.0,0.7923511,127.3906894,https://maps.google.com/?cid=0x0:0xdae8c2b3de37c036
mall,Pusat Perbelanjaan,Multimart Ternate,"Q9RR+Q4W, Gamalama, Kota Ternate, Maluku Utara","Kota Ternate, Maluku Utara",MALUKU UTARA,,Indonesia,9213123830.0,0.7919999,127.3903253,https://maps.google.com/?cid=0x0:0x8c3646ec80a5c8c4
mall,Toko,Milanello variasi,"Q9FH+QCV, Jl. Raya Mangga Dua, Mangga Dua, Kec. Ternate Sel., Kota Ternate, Maluku Utara","Kota Ternate, Maluku Utara",MALUKU UTARA,,Indonesia,,0.7744803,127.3785486,https://maps.google.com/?cid=0x0:0xce89a4e62bd520f0
mall,Pusat Perbelanjaan,Depot amalia mas,"Stikip Kie Raha, Jalan, Sasa, Ternate Selatan, Ternate City, North Maluku","Kota Ternate, Maluku Utara",MALUKU UTARA,,Indonesia,81340803444.0,0.7595331,127.3260247,https://maps.google.com/?cid=0x0:0x2072630b26e60963
mall,Toko,Tabahawa kel salahudi,"Q9RF+MRF, Salahuddin, Kec. Ternate Tengah, Kota Ternate, Maluku Utara","Kota Ternate, Maluku Utara",MALUKU UTARA,,Indonesia,,0.7916979,127.3745394,https://maps.google.com/?cid=0x0:0x67cdfb74d3ee1fe8
mall,mall,Maluku Utara 97723,"Muhajirin, Kec. Ternate Tengah, Kota Ternate, Maluku Utara","Kota Ternate, Maluku Utara",MALUKU UTARA,,Indonesia,,0.7858613,127.3882262,https://maps.google.com/?cid=0x0:0xa7775daff08563c
mall,Pusat Perbelanjaan,Muara Mall,"Jl. Nukila No.50, Gamalama, Kec. Ternate Tengah, Kota Ternate, Maluku Utara 97722","Gamalama, Kec. Ternate Tengah, Kota Ternate",MALUKU UTARA,97722.0,Indonesia,,0.7912455,127.3864239,https://maps.google.com/?cid=0x0:0x2c6d1f216770a71
mall,Pusat Perbelanjaan,Ternate,"Q9RQ+W8M, Gamalama, Kec. Ternate Tengah, Kota Ternate, Maluku Utara","Kota Ternate, Maluku Utara",MALUKU UTARA,,Indonesia,81245770950.0,0.7923382,127.3882935,https://maps.google.com/?cid=0x0:0x60947994a9407cfd
mall,Pusat Perbelanjaan,Multimart Ternate,"Q9RR+Q4W, Gamalama, Kota Ternate, Maluku Utara","Kota Ternate, Maluku Utara",MALUKU UTARA,,Indonesia,9213123830.0,0.7919999,127.3903253,https://maps.google.com/?cid=0x0:0x8c3646ec80a5c8c4
mall,Pusat Perbelanjaan,Depo Mart,"Q9VQ+G3W, Gamalama, Kec. Ternate Tengah, Kota Ternate, Maluku Utara","Kota Ternate, Maluku Utara",MALUKU UTARA,,Indonesia,,0.7938536,127.3876929,https://maps.google.com/?cid=0x0:0xbb6626eb5b518fae
mall,mall,Maluku Utara,,Maluku Utara,MALUKU UTARA,,Indonesia,,1.5709993,127.8087693,https://maps.google.com/?cid=0x0:0x1030bfbcaf71ac0
mall,Pusat Perbelanjaan,Plaza Gamalama Modern,"Q9QQ+MFG, Gamalama, Kec. Ternate Tengah, Kota Ternate, Maluku Utara","Kota Ternate, Maluku Utara",MALUKU UTARA,,Indonesia,,0.7891912,127.3887186,https://maps.google.com/?cid=0x0:0xd055cdf79fc29e27
mall,Pusat Perbelanjaan,Hypermart Ternate,"Q9XQ+G5G, Jl. Sultan M. Djabir Sjah Kel, RT.007/RW.004, Soa Sio, Kec. Kota Ternate Utara, Maluku Utara",Maluku Utara,MALUKU UTARA,,Indonesia,9213113010.0,0.7989861,127.3884829,https://maps.google.com/?cid=0x0:0xff03748bad776036
mall,Pusat Perbelanjaan,AL-MART,"Perumahan Louw Permai Blok A No.20, Ngade, Kec. Ternate Sel., Kota Ternate, Maluku Utara","Kota Ternate, Maluku Utara",MALUKU UTARA,,Indonesia,81244310370.0,0.763092,127.353043,https://maps.google.com/?cid=0x0:0x8fbed0742e9aefc7
mall,Pusat Perbelanjaan,Namo Mart,"Pasar Bahari, Berkesan III, Gamalama, Ternate City, North Maluku","Kota Ternate, Maluku Utara",MALUKU UTARA,,Indonesia,81380008545.0,0.7933315,127.3904768,https://maps.google.com/?cid=0x0:0x5119d9cc3dfa750f
mall,Pusat Perbelanjaan,Informa Jatiland Mall,"Q9RQ+4CW, Jl. Pahlawan Revolusi, Gamalama, Kec. Ternate Tengah, Kota Ternate, Maluku Utara 97721","Jl. Pahlawan Revolusi, Gamalama, Kec. Ternate Tengah, Kota Ternate",MALUKU UTARA,97721.0,Indonesia,81511002000.0,0.7923511,127.3906894,https://maps.google.com/?cid=0x0:0xdae8c2b3de37c036
mall,Toko,Tabahawa kel salahudi,"Q9RF+MRF, Salahuddin, Kec. Ternate Tengah, Kota Ternate, Maluku Utara","Kota Ternate, Maluku Utara",MALUKU UTARA,,Indonesia,,0.7916979,127.3745394,https://maps.google.com/?cid=0x0:0x67cdfb74d3ee1fe8
mall,Pusat Perbelanjaan,Pasar Gamalama,"Q9VQ+CGR, Jl. Pahlawan Revolusi No.102, Gamalama, Kec. Ternate Tengah, Kota Ternate, Maluku Utara","Kota Ternate, Maluku Utara",MALUKU UTARA,,Indonesia,,0.7901423,127.3887632,https://maps.google.com/?cid=0x0:0x2d3090f5f80a7f18
mall,Toko,TH OLEH - OLEH TERNATE,"toko biru mangada kalao, Jalan pemuda, Siko lampu merah ( Depan, jalan raya","Kota Ternate, Maluku Utara",MALUKU UTARA,,Indonesia,82190088770.0,0.8109735,127.3858447,https://maps.google.com/?cid=0x0:0x3f45a55de8f1747d
mall,mall,Kec. Kota Ternate Utara,"Kota Ternate, Maluku Utara","Kota Ternate, Maluku Utara",MALUKU UTARA,,Indonesia,,0.8117888,127.386384,https://maps.google.com/?cid=0x0:0xa0affa54fbe679bb
mall,Pusat Perbelanjaan,Muara Mall,"Jl. Nukila No.50, Gamalama, Kec. Ternate Tengah, Kota Ternate, Maluku Utara 97722","Gamalama, Kec. Ternate Tengah, Kota Ternate",MALUKU UTARA,97722.0,Indonesia,,0.7912455,127.3864239,https://maps.google.com/?cid=0x0:0x2c6d1f216770a71
mall,Pusat Perbelanjaan,Jatiland Mall,"Jl. Pahlawan Revolusi, Gamalama, Kec. Ternate Tengah, Kota Ternate, Maluku Utara","Kota Ternate, Maluku Utara",MALUKU UTARA,,Indonesia,,0.7913034,127.3904651,https://maps.google.com/?cid=0x0:0xc88fc50abd8f2993
mall,Pusat Perbelanjaan,Depo Mart,"Q9VQ+G3W, Gamalama, Kec. Ternate Tengah, Kota Ternate, Maluku Utara","Kota Ternate, Maluku Utara",MALUKU UTARA,,Indonesia,,0.7938536,127.3876929,https://maps.google.com/?cid=0x0:0xbb6626eb5b518fae
mall,Pusat Perbelanjaan,Hypermart Ternate,"Q9XQ+G5G, Jl. Sultan M. Djabir Sjah Kel, RT.007/RW.004, Soa Sio, Kec. Kota Ternate Utara, Maluku Utara",Maluku Utara,MALUKU UTARA,,Indonesia,9213113010.0,0.7989861,127.3884829,https://maps.google.com/?cid=0x0:0xff03748bad776036
mall,Pusat Perbelanjaan,Plaza Gamalama Modern,"Q9QQ+MFG, Gamalama, Kec. Ternate Tengah, Kota Ternate, Maluku Utara","Kota Ternate, Maluku Utara",MALUKU UTARA,,Indonesia,,0.7891912,127.3887186,https://maps.google.com/?cid=0x0:0xd055cdf79fc29e27
mall,Pusat Perbelanjaan,Namo Mart,"Pasar Bahari, Berkesan III, Gamalama, Ternate City, North Maluku","Kota Ternate, Maluku Utara",MALUKU UTARA,,Indonesia,81380008545.0,0.7933315,127.3904768,https://maps.google.com/?cid=0x0:0x5119d9cc3dfa750f
mall,Pusat Perbelanjaan,Multimart Ternate,"Q9RR+Q4W, Gamalama, Kota Ternate, Maluku Utara","Kota Ternate, Maluku Utara",MALUKU UTARA,,Indonesia,9213123830.0,0.7919999,127.3903253,https://maps.google.com/?cid=0x0:0x8c3646ec80a5c8c4
mall,Pusat Perbelanjaan,Informa Jatiland Mall,"Q9RQ+4CW, Jl. Pahlawan Revolusi, Gamalama, Kec. Ternate Tengah, Kota Ternate, Maluku Utara 97721","Jl. Pahlawan Revolusi, Gamalama, Kec. Ternate Tengah, Kota Ternate",MALUKU UTARA,97721.0,Indonesia,81511002000.0,0.7923511,127.3906894,https://maps.google.com/?cid=0x0:0xdae8c2b3de37c036
mall,Toko,TH OLEH - OLEH TERNATE,"toko biru mangada kalao, Jalan pemuda, Siko lampu merah ( Depan, jalan raya","Kota Ternate, Maluku Utara",MALUKU UTARA,,Indonesia,82190088770.0,0.8109735,127.3858447,https://maps.google.com/?cid=0x0:0x3f45a55de8f1747d
mall,Toko,Tabahawa kel salahudi,"Q9RF+MRF, Salahuddin, Kec. Ternate Tengah, Kota Ternate, Maluku Utara","Kota Ternate, Maluku Utara",MALUKU UTARA,,Indonesia,,0.7916979,127.3745394,https://maps.google.com/?cid=0x0:0x67cdfb74d3ee1fe8
mall,Toko Swalayan,Nur Asia,"R9HQ+54P, Tafure, Kec. Kota Ternate Utara, Kota Ternate, Maluku Utara","Kota Ternate, Maluku Utara",MALUKU UTARA,,Indonesia,85397581070.0,0.827955,127.3878305,https://maps.google.com/?cid=0x0:0x3a20423f977f7ca7
mall,Pusat Perbelanjaan,ProAs Global Indonesia,"R95J+JG6, Koloncucu, Toboleu, Kec. Kota Ternate Utara, Kota Ternate, Maluku Utara","Kota Ternate, Maluku Utara",MALUKU UTARA,,Indonesia,,0.8089486,127.3812651,https://maps.google.com/?cid=0x0:0x28d7d3d6fcc831c1
mall,Pusat Perbelanjaan,Pasar Gamalama,"Q9VQ+CGR, Jl. Pahlawan Revolusi No.102, Gamalama, Kec. Ternate Tengah, Kota Ternate, Maluku Utara","Kota Ternate, Maluku Utara",MALUKU UTARA,,Indonesia,,0.7901423,127.3887632,https://maps.google.com/?cid=0x0:0x2d3090f5f80a7f18
mall,mall,Kec. Kota Ternate Utara,"Kota Ternate, Maluku Utara","Kota Ternate, Maluku Utara",MALUKU UTARA,,Indonesia,,0.8117888,127.386384,https://maps.google.com/?cid=0x0:0xa0affa54fbe679bb
mall,Pusat Perbelanjaan,Muara Mall,"Jl. Nukila No.50, Gamalama, Kec. Ternate Tengah, Kota Ternate, Maluku Utara 97722","Gamalama, Kec. Ternate Tengah, Kota Ternate",MALUKU UTARA,97722.0,Indonesia,,0.7912455,127.3864239,https://maps.google.com/?cid=0x0:0x2c6d1f216770a71
mall,Pusat Perbelanjaan,Jatiland Mall,"Jl. Pahlawan Revolusi, Gamalama, Kec. Ternate Tengah, Kota Ternate, Maluku Utara","Kota Ternate, Maluku Utara",MALUKU UTARA,,Indonesia,,0.7913034,127.3904651,https://maps.google.com/?cid=0x0:0xc88fc50abd8f2993
mall,Pusat Perbelanjaan,Depo Mart,"Q9VQ+G3W, Gamalama, Kec. Ternate Tengah, Kota Ternate, Maluku Utara","Kota Ternate, Maluku Utara",MALUKU UTARA,,Indonesia,,0.7938536,127.3876929,https://maps.google.com/?cid=0x0:0xbb6626eb5b518fae
mall,Pusat Perbelanjaan,Plaza Gamalama Modern,"Q9QQ+MFG, Gamalama, Kec. Ternate Tengah, Kota Ternate, Maluku Utara","Kota Ternate, Maluku Utara",MALUKU UTARA,,Indonesia,,0.7891912,127.3887186,https://maps.google.com/?cid=0x0:0xd055cdf79fc29e27
mall,Pusat Perbelanjaan,Hypermart Ternate,"Q9XQ+G5G, Jl. Sultan M. Djabir Sjah Kel, RT.007/RW.004, Soa Sio, Kec. Kota Ternate Utara, Maluku Utara",Maluku Utara,MALUKU UTARA,,Indonesia,9213113010.0,0.7989861,127.3884829,https://maps.google.com/?cid=0x0:0xff03748bad776036
mall,Pusat Perbelanjaan,Multimart Ternate,"Q9RR+Q4W, Gamalama, Kota Ternate, Maluku Utara","Kota Ternate, Maluku Utara",MALUKU UTARA,,Indonesia,9213123830.0,0.7919999,127.3903253,https://maps.google.com/?cid=0x0:0x8c3646ec80a5c8c4
mall,Pusat Perbelanjaan,Informa Jatiland Mall,"Q9RQ+4CW, Jl. Pahlawan Revolusi, Gamalama, Kec. Ternate Tengah, Kota Ternate, Maluku Utara 97721","Jl. Pahlawan Revolusi, Gamalama, Kec. Ternate Tengah, Kota Ternate",MALUKU UTARA,97721.0,Indonesia,81511002000.0,0.7923511,127.3906894,https://maps.google.com/?cid=0x0:0xdae8c2b3de37c036
mall,Toko bahan makanan,LARIS I,"Q9VJ+43H, Jl. SKSD Palapa, Salahuddin, Kec. Ternate Tengah, Kota Ternate, Maluku Utara","Kota Ternate, Maluku Utara",MALUKU UTARA,,Indonesia,85210751551.0,0.7928239,127.380229,https://maps.google.com/?cid=0x0:0xfc5f303e6e1b52ff
mall,Toko,Kios SYAHRIL,"R9CQ+5G3, Dufa Dufa, Kec. Kota Ternate Utara, Kota Ternate, Maluku Utara","Kota Ternate, Maluku Utara",MALUKU UTARA,,Indonesia,,0.8203807,127.3887965,https://maps.google.com/?cid=0x0:0xf78d62cddc555e01
mall,Toko,Tabahawa kel salahudi,"Q9RF+MRF, Salahuddin, Kec. Ternate Tengah, Kota Ternate, Maluku Utara","Kota Ternate, Maluku Utara",MALUKU UTARA,,Indonesia,,0.7916979,127.3745394,https://maps.google.com/?cid=0x0:0x67cdfb74d3ee1fe8
mall,Toko,TH OLEH - OLEH TERNATE,"toko biru mangada kalao, Jalan pemuda, Siko lampu merah ( Depan, jalan raya","Kota Ternate, Maluku Utara",MALUKU UTARA,,Indonesia,82190088770.0,0.8109735,127.3858447,https://maps.google.com/?cid=0x0:0x3f45a55de8f1747d
mall,Toko Pakaian,PASAR SENGGOL,"Q9QQ+9GG, Gamalama, Kec. Ternate Tengah, Kota Ternate, Maluku Utara","Kota Ternate, Maluku Utara",MALUKU UTARA,,Indonesia,82188565888.0,0.7884347,127.388822,https://maps.google.com/?cid=0x0:0x2ef6dfd847a626cd
mall,Ahli Herbal,TIENS TERNATE,"R99Q+XQ4, Kel, Dufa Dufa, Kec. Kota Ternate Utara, Kota Ternate, Maluku Utara 97727","Kel, Dufa Dufa, Kec. Kota Ternate Utara, Kota Ternate",MALUKU UTARA,97727.0,Indonesia,82124132983.0,0.8198821,127.3894623,https://maps.google.com/?cid=0x0:0x21b2ce8f4f98586
mall,Pusat Perbelanjaan,Muara Mall,"Jl. Nukila No.50, Gamalama, Kec. Ternate Tengah, Kota Ternate, Maluku Utara 97722","Gamalama, Kec. Ternate Tengah, Kota Ternate",MALUKU UTARA,97722.0,Indonesia,,0.7912455,127.3864239,https://maps.google.com/?cid=0x0:0x2c6d1f216770a71
mall,Pusat Perbelanjaan,Ternate,"Q9RQ+W8M, Gamalama, Kec. Ternate Tengah, Kota Ternate, Maluku Utara","Kota Ternate, Maluku Utara",MALUKU UTARA,,Indonesia,81245770950.0,0.7923382,127.3882935,https://maps.google.com/?cid=0x0:0x60947994a9407cfd
mall,Kafe,ISTANA food court,"Jl. Kutilang, Gamalama, Kec. Ternate Tengah, Kota Ternate, Maluku Utara","Kota Ternate, Maluku Utara",MALUKU UTARA,,Indonesia,82190055776.0,0.7911501,127.3865008,https://maps.google.com/?cid=0x0:0x54bf55d8ca79207c
mall,Pusat Perbelanjaan,Jatiland Mall,"Jl. Pahlawan Revolusi, Gamalama, Kec. Ternate Tengah, Kota Ternate, Maluku Utara","Kota Ternate, Maluku Utara",MALUKU UTARA,,Indonesia,,0.7913034,127.3904651,https://maps.google.com/?cid=0x0:0xc88fc50abd8f2993
mall,Pusat Perbelanjaan,Multimart Ternate,"Q9RR+Q4W, Gamalama, Kota Ternate, Maluku Utara","Kota Ternate, Maluku Utara",MALUKU UTARA,,Indonesia,9213123830.0,0.7919999,127.3903253,https://maps.google.com/?cid=0x0:0x8c3646ec80a5c8c4
mall,mall,Kec. Kota Ternate Utara,"Kota Ternate, Maluku Utara","Kota Ternate, Maluku Utara",MALUKU UTARA,,Indonesia,,0.8117888,127.386384,https://maps.google.com/?cid=0x0:0xa0affa54fbe679bb
mall,Pusat Perbelanjaan,Hypermart Ternate,"Q9XQ+G5G, Jl. Sultan M. Djabir Sjah Kel, RT.007/RW.004, Soa Sio, Kec. Kota Ternate Utara, Maluku Utara",Maluku Utara,MALUKU UTARA,,Indonesia,9213113010.0,0.7989861,127.3884829,https://maps.google.com/?cid=0x0:0xff03748bad776036
mall,Pusat Perbelanjaan,Informa Jatiland Mall,"Q9RQ+4CW, Jl. Pahlawan Revolusi, Gamalama, Kec. Ternate Tengah, Kota Ternate, Maluku Utara 97721","Jl. Pahlawan Revolusi, Gamalama, Kec. Ternate Tengah, Kota Ternate",MALUKU UTARA,97721.0,Indonesia,81511002000.0,0.7923511,127.3906894,https://maps.google.com/?cid=0x0:0xdae8c2b3de37c036
mall,Pusat Perbelanjaan,Depo Mart,"Q9VQ+G3W, Gamalama, Kec. Ternate Tengah, Kota Ternate, Maluku Utara","Kota Ternate, Maluku Utara",MALUKU UTARA,,Indonesia,,0.7938536,127.3876929,https://maps.google.com/?cid=0x0:0xbb6626eb5b518fae
mall,Pusat Perbelanjaan,Plaza Gamalama Modern,"Q9QQ+MFG, Gamalama, Kec. Ternate Tengah, Kota Ternate, Maluku Utara","Kota Ternate, Maluku Utara",MALUKU UTARA,,Indonesia,,0.7891912,127.3887186,https://maps.google.com/?cid=0x0:0xd055cdf79fc29e27
mall,Toko bahan makanan,LARIS I,"Q9VJ+43H, Jl. SKSD Palapa, Salahuddin, Kec. Ternate Tengah, Kota Ternate, Maluku Utara","Kota Ternate, Maluku Utara",MALUKU UTARA,,Indonesia,85210751551.0,0.7928239,127.380229,https://maps.google.com/?cid=0x0:0xfc5f303e6e1b52ff
mall,Pusat Perbelanjaan,Aishcorn_Ternate,"Jl. Bola No.588, Toboleu, Kec. Kota Ternate Utara, Kota Ternate, Maluku Utara 97726","Toboleu, Kec. Kota Ternate Utara, Kota Ternate",MALUKU UTARA,97726.0,Indonesia,81318904121.0,0.8088915,127.3807163,https://maps.google.com/?cid=0x0:0x3271764d4f5ed7d4
mall,Ahli Herbal,TIENS TERNATE,"R99Q+XQ4, Kel, Dufa Dufa, Kec. Kota Ternate Utara, Kota Ternate, Maluku Utara 97727","Kel, Dufa Dufa, Kec. Kota Ternate Utara, Kota Ternate",MALUKU UTARA,97727.0,Indonesia,82124132983.0,0.8198821,127.3894623,https://maps.google.com/?cid=0x0:0x21b2ce8f4f98586
mall,Toko,TH OLEH - OLEH TERNATE,"toko biru mangada kalao, Jalan pemuda, Siko lampu merah ( Depan, jalan raya","Kota Ternate, Maluku Utara",MALUKU UTARA,,Indonesia,82190088770.0,0.8109735,127.3858447,https://maps.google.com/?cid=0x0:0x3f45a55de8f1747d
mall,mall,Kec. Kota Ternate Utara,"Kota Ternate, Maluku Utara","Kota Ternate, Maluku Utara",MALUKU UTARA,,Indonesia,,0.8117888,127.386384,https://maps.google.com/?cid=0x0:0xa0affa54fbe679bb
mall,Pusat Perbelanjaan,Muara Mall,"Jl. Nukila No.50, Gamalama, Kec. Ternate Tengah, Kota Ternate, Maluku Utara 97722","Gamalama, Kec. Ternate Tengah, Kota Ternate",MALUKU UTARA,97722.0,Indonesia,,0.7912455,127.3864239,https://maps.google.com/?cid=0x0:0x2c6d1f216770a71
mall,Pusat Perbelanjaan,Depo Mart,"Q9VQ+G3W, Gamalama, Kec. Ternate Tengah, Kota Ternate, Maluku Utara","Kota Ternate, Maluku Utara",MALUKU UTARA,,Indonesia,,0.7938536,127.3876929,https://maps.google.com/?cid=0x0:0xbb6626eb5b518fae
mall,Pusat Perbelanjaan,Jatiland Mall,"Jl. Pahlawan Revolusi, Gamalama, Kec. Ternate Tengah, Kota Ternate, Maluku Utara","Kota Ternate, Maluku Utara",MALUKU UTARA,,Indonesia,,0.7913034,127.3904651,https://maps.google.com/?cid=0x0:0xc88fc50abd8f2993
mall,Pusat Perbelanjaan,Plaza Gamalama Modern,"Q9QQ+MFG, Gamalama, Kec. Ternate Tengah, Kota Ternate, Maluku Utara","Kota Ternate, Maluku Utara",MALUKU UTARA,,Indonesia,,0.7891912,127.3887186,https://maps.google.com/?cid=0x0:0xd055cdf79fc29e27
mall,Pusat Perbelanjaan,Hypermart Ternate,"Q9XQ+G5G, Jl. Sultan M. Djabir Sjah Kel, RT.007/RW.004, Soa Sio, Kec. Kota Ternate Utara, Maluku Utara",Maluku Utara,MALUKU UTARA,,Indonesia,9213113010.0,0.7989861,127.3884829,https://maps.google.com/?cid=0x0:0xff03748bad776036
mall,Pusat Perbelanjaan,Multimart Ternate,"Q9RR+Q4W, Gamalama, Kota Ternate, Maluku Utara","Kota Ternate, Maluku Utara",MALUKU UTARA,,Indonesia,9213123830.0,0.7919999,127.3903253,https://maps.google.com/?cid=0x0:0x8c3646ec80a5c8c4
mall,Pusat Perbelanjaan,Namo Mart,"Pasar Bahari, Berkesan III, Gamalama, Ternate City, North Maluku","Kota Ternate, Maluku Utara",MALUKU UTARA,,Indonesia,81380008545.0,0.7933315,127.3904768,https://maps.google.com/?cid=0x0:0x5119d9cc3dfa750f
mall,Toko,TH OLEH - OLEH TERNATE,"toko biru mangada kalao, Jalan pemuda, Siko lampu merah ( Depan, jalan raya","Kota Ternate, Maluku Utara",MALUKU UTARA,,Indonesia,82190088770.0,0.8109735,127.3858447,https://maps.google.com/?cid=0x0:0x3f45a55de8f1747d
mall,Pusat Perbelanjaan,Informa Jatiland Mall,"Q9RQ+4CW, Jl. Pahlawan Revolusi, Gamalama, Kec. Ternate Tengah, Kota Ternate, Maluku Utara 97721","Jl. Pahlawan Revolusi, Gamalama, Kec. Ternate Tengah, Kota Ternate",MALUKU UTARA,97721.0,Indonesia,81511002000.0,0.7923511,127.3906894,https://maps.google.com/?cid=0x0:0xdae8c2b3de37c036
mall,Toko Swalayan,Nur Asia,"R9HQ+54P, Tafure, Kec. Kota Ternate Utara, Kota Ternate, Maluku Utara","Kota Ternate, Maluku Utara",MALUKU UTARA,,Indonesia,85397581070.0,0.827955,127.3878305,https://maps.google.com/?cid=0x0:0x3a20423f977f7ca7
mall,Pusat Perbelanjaan,Pasar Gamalama,"Q9VQ+CGR, Jl. Pahlawan Revolusi No.102, Gamalama, Kec. Ternate Tengah, Kota Ternate, Maluku Utara","Kota Ternate, Maluku Utara",MALUKU UTARA,,Indonesia,,0.7901423,127.3887632,https://maps.google.com/?cid=0x0:0x2d3090f5f80a7f18
mall,Ahli Herbal,TIENS TERNATE,"R99Q+XQ4, Kel, Dufa Dufa, Kec. Kota Ternate Utara, Kota Ternate, Maluku Utara 97727","Kel, Dufa Dufa, Kec. Kota Ternate Utara, Kota Ternate",MALUKU UTARA,97727.0,Indonesia,82124132983.0,0.8198821,127.3894623,https://maps.google.com/?cid=0x0:0x21b2ce8f4f98586
mall,Toko bahan makanan,LARIS I,"Q9VJ+43H, Jl. SKSD Palapa, Salahuddin, Kec. Ternate Tengah, Kota Ternate, Maluku Utara","Kota Ternate, Maluku Utara",MALUKU UTARA,,Indonesia,85210751551.0,0.7928239,127.380229,https://maps.google.com/?cid=0x0:0xfc5f303e6e1b52ff
mall,mall,Maluku Utara,,Maluku Utara,MALUKU UTARA,,Indonesia,,1.5709993,127.8087693,https://maps.google.com/?cid=0x0:0x1030bfbcaf71ac0
mall,Pusat Perbelanjaan,Muara Mall,"Jl. Nukila No.50, Gamalama, Kec. Ternate Tengah, Kota Ternate, Maluku Utara 97722","Gamalama, Kec. Ternate Tengah, Kota Ternate",MALUKU UTARA,97722.0,Indonesia,,0.7912455,127.3864239,https://maps.google.com/?cid=0x0:0x2c6d1f216770a71
mall,Pusat Perbelanjaan,Jatiland Mall,"Jl. Pahlawan Revolusi, Gamalama, Kec. Ternate Tengah, Kota Ternate, Maluku Utara","Kota Ternate, Maluku Utara",MALUKU UTARA,,Indonesia,,0.7913034,127.3904651,https://maps.google.com/?cid=0x0:0xc88fc50abd8f2993
mall,Pusat Perbelanjaan,Depo Mart,"Q9VQ+G3W, Gamalama, Kec. Ternate Tengah, Kota Ternate, Maluku Utara","Kota Ternate, Maluku Utara",MALUKU UTARA,,Indonesia,,0.7938536,127.3876929,https://maps.google.com/?cid=0x0:0xbb6626eb5b518fae
mall,Pusat Perbelanjaan,Multimart Ternate,"Q9RR+Q4W, Gamalama, Kota Ternate, Maluku Utara","Kota Ternate, Maluku Utara",MALUKU UTARA,,Indonesia,9213123830.0,0.7919999,127.3903253,https://maps.google.com/?cid=0x0:0x8c3646ec80a5c8c4
mall,Pusat Perbelanjaan,Informa Jatiland Mall,"Q9RQ+4CW, Jl. Pahlawan Revolusi, Gamalama, Kec. Ternate Tengah, Kota Ternate, Maluku Utara 97721","Jl. Pahlawan Revolusi, Gamalama, Kec. Ternate Tengah, Kota Ternate",MALUKU UTARA,97721.0,Indonesia,81511002000.0,0.7923511,127.3906894,https://maps.google.com/?cid=0x0:0xdae8c2b3de37c036
mall,Indonesia,Belakang mall,"Q9RP+FXR, Gamalama, Kec. Ternate Tengah, Kota Ternate, Maluku Utara","Kota Ternate, Maluku Utara",MALUKU UTARA,,Indonesia,,0.7912491,127.3873973,https://maps.google.com/?cid=0x0:0xd5e26eaa7078542a
mall,mall,Kec. Kota Ternate Utara,"Kota Ternate, Maluku Utara","Kota Ternate, Maluku Utara",MALUKU UTARA,,Indonesia,,0.8117888,127.386384,https://maps.google.com/?cid=0x0:0xa0affa54fbe679bb
mall,Pusat Perbelanjaan,Hypermart Ternate,"Q9XQ+G5G, Jl. Sultan M. Djabir Sjah Kel, RT.007/RW.004, Soa Sio, Kec. Kota Ternate Utara, Maluku Utara",Maluku Utara,MALUKU UTARA,,Indonesia,9213113010.0,0.7989861,127.3884829,https://maps.google.com/?cid=0x0:0xff03748bad776036
mall,Pusat Perbelanjaan,Plaza Gamalama Modern,"Q9QQ+MFG, Gamalama, Kec. Ternate Tengah, Kota Ternate, Maluku Utara","Kota Ternate, Maluku Utara",MALUKU UTARA,,Indonesia,,0.7891912,127.3887186,https://maps.google.com/?cid=0x0:0xd055cdf79fc29e27
mall,Pusat Perbelanjaan,Aishcorn_Ternate,"Jl. Bola No.588, Toboleu, Kec. Kota Ternate Utara, Kota Ternate, Maluku Utara 97726","Toboleu, Kec. Kota Ternate Utara, Kota Ternate",MALUKU UTARA,97726.0,Indonesia,81318904121.0,0.8088915,127.3807163,https://maps.google.com/?cid=0x0:0x3271764d4f5ed7d4
mall,Toko bahan makanan,LARIS I,"Q9VJ+43H, Jl. SKSD Palapa, Salahuddin, Kec. Ternate Tengah, Kota Ternate, Maluku Utara","Kota Ternate, Maluku Utara",MALUKU UTARA,,Indonesia,85210751551.0,0.7928239,127.380229,https://maps.google.com/?cid=0x0:0xfc5f303e6e1b52ff
mall,Pusat Perbelanjaan,Gamalama Town Square,"Q9QQ+MFP, Gamalama, Kec. Ternate Tengah, Kota Ternate, Maluku Utara","Kota Ternate, Maluku Utara",MALUKU UTARA,,Indonesia,,0.789204,127.3886928,https://maps.google.com/?cid=0x0:0x5dbb68daa50e25f7
mall,Ahli Herbal,TIENS TERNATE,"R99Q+XQ4, Kel, Dufa Dufa, Kec. Kota Ternate Utara, Kota Ternate, Maluku Utara 97727","Kel, Dufa Dufa, Kec. Kota Ternate Utara, Kota Ternate",MALUKU UTARA,97727.0,Indonesia,82124132983.0,0.8198821,127.3894623,https://maps.google.com/?cid=0x0:0x21b2ce8f4f98586
mall,mall,Pulau Moti,"Kec. Pulau Moti, Kota Ternate, Maluku Utara","Kota Ternate, Maluku Utara",MALUKU UTARA,,Indonesia,,0.4551721,127.4147666,https://maps.google.com/?cid=0x0:0xee739dbd0e45e29d
mall,mall,Kec. Pulau Moti,"Kota Ternate, Maluku Utara","Kota Ternate, Maluku Utara",MALUKU UTARA,,Indonesia,,0.4551721,127.4147666,https://maps.google.com/?cid=0x0:0x9d227851065ecad1
mall,mall,Kec. Pulau Batang Dua,"Kota Ternate, Maluku Utara","Kota Ternate, Maluku Utara",MALUKU UTARA,,Indonesia,,1.3221136,126.3617738,https://maps.google.com/?cid=0x0:0x43a87ce02308f419
mall,Pusat Perbelanjaan,Jatiland Mall,"Jl. Pahlawan Revolusi, Gamalama, Kec. Ternate Tengah, Kota Ternate, Maluku Utara","Kota Ternate, Maluku Utara",MALUKU UTARA,,Indonesia,,0.7913034,127.3904651,https://maps.google.com/?cid=0x0:0xc88fc50abd8f2993
mall,Pusat Perbelanjaan,Ternate,"Q9RQ+W8M, Gamalama, Kec. Ternate Tengah, Kota Ternate, Maluku Utara","Kota Ternate, Maluku Utara",MALUKU UTARA,,Indonesia,81245770950.0,0.7923382,127.3882935,https://maps.google.com/?cid=0x0:0x60947994a9407cfd
mall,Pusat Perbelanjaan,Muara Mall,"Jl. Nukila No.50, Gamalama, Kec. Ternate Tengah, Kota Ternate, Maluku Utara 97722","Gamalama, Kec. Ternate Tengah, Kota Ternate",MALUKU UTARA,97722.0,Indonesia,,0.7912455,127.3864239,https://maps.google.com/?cid=0x0:0x2c6d1f216770a71
mall,Kafe,ISTANA food court,"Jl. Kutilang, Gamalama, Kec. Ternate Tengah, Kota Ternate, Maluku Utara","Kota Ternate, Maluku Utara",MALUKU UTARA,,Indonesia,82190055776.0,0.7911501,127.3865008,https://maps.google.com/?cid=0x0:0x54bf55d8ca79207c
mall,Pusat Perbelanjaan,Ternate,"Q9RQ+W8M, Gamalama, Kec. Ternate Tengah, Kota Ternate, Maluku Utara","Kota Ternate, Maluku Utara",MALUKU UTARA,,Indonesia,81245770950.0,0.7923382,127.3882935,https://maps.google.com/?cid=0x0:0x60947994a9407cfd
mall,Pusat Perbelanjaan,Jatiland Mall,"Jl. Pahlawan Revolusi, Gamalama, Kec. Ternate Tengah, Kota Ternate, Maluku Utara","Kota Ternate, Maluku Utara",MALUKU UTARA,,Indonesia,,0.7913034,127.3904651,https://maps.google.com/?cid=0x0:0xc88fc50abd8f2993
mall,Pusat Perbelanjaan,Depo Mart,"Q9VQ+G3W, Gamalama, Kec. Ternate Tengah, Kota Ternate, Maluku Utara","Kota Ternate, Maluku Utara",MALUKU UTARA,,Indonesia,,0.7938536,127.3876929,https://maps.google.com/?cid=0x0:0xbb6626eb5b518fae
mall,Pusat Perbelanjaan,Plaza Gamalama Modern,"Q9QQ+MFG, Gamalama, Kec. Ternate Tengah, Kota Ternate, Maluku Utara","Kota Ternate, Maluku Utara",MALUKU UTARA,,Indonesia,,0.7891912,127.3887186,https://maps.google.com/?cid=0x0:0xd055cdf79fc29e27
mall,Pusat Perbelanjaan,Multimart Ternate,"Q9RR+Q4W, Gamalama, Kota Ternate, Maluku Utara","Kota Ternate, Maluku Utara",MALUKU UTARA,,Indonesia,9213123830.0,0.7919999,127.3903253,https://maps.google.com/?cid=0x0:0x8c3646ec80a5c8c4
mall,Pusat Perbelanjaan,Namo Mart,"Pasar Bahari, Berkesan III, Gamalama, Ternate City, North Maluku","Kota Ternate, Maluku Utara",MALUKU UTARA,,Indonesia,81380008545.0,0.7933315,127.3904768,https://maps.google.com/?cid=0x0:0x5119d9cc3dfa750f
mall,Pusat Perbelanjaan,Hypermart Ternate,"Q9XQ+G5G, Jl. Sultan M. Djabir Sjah Kel, RT.007/RW.004, Soa Sio, Kec. Kota Ternate Utara, Maluku Utara",Maluku Utara,MALUKU UTARA,,Indonesia,9213113010.0,0.7989861,127.3884829,https://maps.google.com/?cid=0x0:0xff03748bad776036
mall,Toko Pakaian,PASAR SENGGOL,"Q9QQ+9GG, Gamalama, Kec. Ternate Tengah, Kota Ternate, Maluku Utara","Kota Ternate, Maluku Utara",MALUKU UTARA,,Indonesia,82188565888.0,0.7884347,127.388822,https://maps.google.com/?cid=0x0:0x2ef6dfd847a626cd
mall,Toko bahan makanan,LARIS I,"Q9VJ+43H, Jl. SKSD Palapa, Salahuddin, Kec. Ternate Tengah, Kota Ternate, Maluku Utara","Kota Ternate, Maluku Utara",MALUKU UTARA,,Indonesia,85210751551.0,0.7928239,127.380229,https://maps.google.com/?cid=0x0:0xfc5f303e6e1b52ff
mall,Pusat Perbelanjaan,Pasar Gamalama,"Q9VQ+CGR, Jl. Pahlawan Revolusi No.102, Gamalama, Kec. Ternate Tengah, Kota Ternate, Maluku Utara","Kota Ternate, Maluku Utara",MALUKU UTARA,,Indonesia,,0.7901423,127.3887632,https://maps.google.com/?cid=0x0:0x2d3090f5f80a7f18
mall,Pusat Perbelanjaan,Informa Jatiland Mall,"Q9RQ+4CW, Jl. Pahlawan Revolusi, Gamalama, Kec. Ternate Tengah, Kota Ternate, Maluku Utara 97721","Jl. Pahlawan Revolusi, Gamalama, Kec. Ternate Tengah, Kota Ternate",MALUKU UTARA,97721.0,Indonesia,81511002000.0,0.7923511,127.3906894,https://maps.google.com/?cid=0x0:0xdae8c2b3de37c036
mall,Pusat Perbelanjaan,Gamalama Town Square,"Q9QQ+MFP, Gamalama, Kec. Ternate Tengah, Kota Ternate, Maluku Utara","Kota Ternate, Maluku Utara",MALUKU UTARA,,Indonesia,,0.789204,127.3886928,https://maps.google.com/?cid=0x0:0x5dbb68daa50e25f7
mall,mall,Kec. Ternate Tengah,"Kota Ternate, Maluku Utara","Kota Ternate, Maluku Utara",MALUKU UTARA,,Indonesia,,0.78959,127.3860498,https://maps.google.com/?cid=0x0:0x8b6a97877817a839
mall,Pusat Perbelanjaan,Muara Mall,"Jl. Nukila No.50, Gamalama, Kec. Ternate Tengah, Kota Ternate, Maluku Utara 97722","Gamalama, Kec. Ternate Tengah, Kota Ternate",MALUKU UTARA,97722.0,Indonesia,,0.7912455,127.3864239,https://maps.google.com/?cid=0x0:0x2c6d1f216770a71
mall,Pusat Perbelanjaan,Jatiland Mall,"Jl. Pahlawan Revolusi, Gamalama, Kec. Ternate Tengah, Kota Ternate, Maluku Utara","Kota Ternate, Maluku Utara",MALUKU UTARA,,Indonesia,,0.7913034,127.3904651,https://maps.google.com/?cid=0x0:0xc88fc50abd8f2993
mall,Pusat Perbelanjaan,Depo Mart,"Q9VQ+G3W, Gamalama, Kec. Ternate Tengah, Kota Ternate, Maluku Utara","Kota Ternate, Maluku Utara",MALUKU UTARA,,Indonesia,,0.7938536,127.3876929,https://maps.google.com/?cid=0x0:0xbb6626eb5b518fae
mall,Pusat Perbelanjaan,Plaza Gamalama Modern,"Q9QQ+MFG, Gamalama, Kec. Ternate Tengah, Kota Ternate, Maluku Utara","Kota Ternate, Maluku Utara",MALUKU UTARA,,Indonesia,,0.7891912,127.3887186,https://maps.google.com/?cid=0x0:0xd055cdf79fc29e27
mall,Pusat Perbelanjaan,Hypermart Ternate,"Q9XQ+G5G, Jl. Sultan M. Djabir Sjah Kel, RT.007/RW.004, Soa Sio, Kec. Kota Ternate Utara, Maluku Utara",Maluku Utara,MALUKU UTARA,,Indonesia,9213113010.0,0.7989861,127.3884829,https://maps.google.com/?cid=0x0:0xff03748bad776036
mall,Pusat Perbelanjaan,Informa Jatiland Mall,"Q9RQ+4CW, Jl. Pahlawan Revolusi, Gamalama, Kec. Ternate Tengah, Kota Ternate, Maluku Utara 97721","Jl. Pahlawan Revolusi, Gamalama, Kec. Ternate Tengah, Kota Ternate",MALUKU UTARA,97721.0,Indonesia,81511002000.0,0.7923511,127.3906894,https://maps.google.com/?cid=0x0:0xdae8c2b3de37c036
mall,Toko Pakaian,PASAR SENGGOL,"Q9QQ+9GG, Gamalama, Kec. Ternate Tengah, Kota Ternate, Maluku Utara","Kota Ternate, Maluku Utara",MALUKU UTARA,,Indonesia,82188565888.0,0.7884347,127.388822,https://maps.google.com/?cid=0x0:0x2ef6dfd847a626cd
mall,Pusat Perbelanjaan,Multimart Ternate,"Q9RR+Q4W, Gamalama, Kota Ternate, Maluku Utara","Kota Ternate, Maluku Utara",MALUKU UTARA,,Indonesia,9213123830.0,0.7919999,127.3903253,https://maps.google.com/?cid=0x0:0x8c3646ec80a5c8c4
mall,Pusat Perbelanjaan,Namo Mart,"Pasar Bahari, Berkesan III, Gamalama, Ternate City, North Maluku","Kota Ternate, Maluku Utara",MALUKU UTARA,,Indonesia,81380008545.0,0.7933315,127.3904768,https://maps.google.com/?cid=0x0:0x5119d9cc3dfa750f
mall,Toko,Tabahawa kel salahudi,"Q9RF+MRF, Salahuddin, Kec. Ternate Tengah, Kota Ternate, Maluku Utara","Kota Ternate, Maluku Utara",MALUKU UTARA,,Indonesia,,0.7916979,127.3745394,https://maps.google.com/?cid=0x0:0x67cdfb74d3ee1fe8
mall,Toko bahan makanan,LARIS I,"Q9VJ+43H, Jl. SKSD Palapa, Salahuddin, Kec. Ternate Tengah, Kota Ternate, Maluku Utara","Kota Ternate, Maluku Utara",MALUKU UTARA,,Indonesia,85210751551.0,0.7928239,127.380229,https://maps.google.com/?cid=0x0:0xfc5f303e6e1b52ff
mall,mall,Muara Hotel and Mall Ternate,"Jl. Merdeka No.19, Gamalama, Kec. Ternate Tengah, Kota Ternate, Maluku Utara","Kota Ternate, Maluku Utara",MALUKU UTARA,,Indonesia,9213125553.0,0.7911445,127.3861909,https://maps.google.com/?cid=0x0:0x67cf3fcc0f55895
mall,mall,,,,MALUKU UTARA,,Indonesia,,,,https://maps.google.com/?cid=0x0:0x67cf3fcc0f55895%7C/g/11b6d93y9z%7Cid-ID
mall,mall,Kec. Ternate Tengah,"Kota Ternate, Maluku Utara","Kota Ternate, Maluku Utara",MALUKU UTARA,,Indonesia,,0.78959,127.3860498,https://maps.google.com/?cid=0x0:0x8b6a97877817a839
mall,Pusat Perbelanjaan,Muara Mall,"Jl. Nukila No.50, Gamalama, Kec. Ternate Tengah, Kota Ternate, Maluku Utara 97722","Gamalama, Kec. Ternate Tengah, Kota Ternate",MALUKU UTARA,97722.0,Indonesia,,0.7912455,127.3864239,https://maps.google.com/?cid=0x0:0x2c6d1f216770a71
mall,Pusat Perbelanjaan,Jatiland Mall,"Jl. Pahlawan Revolusi, Gamalama, Kec. Ternate Tengah, Kota Ternate, Maluku Utara","Kota Ternate, Maluku Utara",MALUKU UTARA,,Indonesia,,0.7913034,127.3904651,https://maps.google.com/?cid=0x0:0xc88fc50abd8f2993
mall,Pusat Perbelanjaan,Plaza Gamalama Modern,"Q9QQ+MFG, Gamalama, Kec. Ternate Tengah, Kota Ternate, Maluku Utara","Kota Ternate, Maluku Utara",MALUKU UTARA,,Indonesia,,0.7891912,127.3887186,https://maps.google.com/?cid=0x0:0xd055cdf79fc29e27
mall,Pusat Perbelanjaan,Depo Mart,"Q9VQ+G3W, Gamalama, Kec. Ternate Tengah, Kota Ternate, Maluku Utara","Kota Ternate, Maluku Utara",MALUKU UTARA,,Indonesia,,0.7938536,127.3876929,https://maps.google.com/?cid=0x0:0xbb6626eb5b518fae
mall,Pusat Perbelanjaan,Hypermart Ternate,"Q9XQ+G5G, Jl. Sultan M. Djabir Sjah Kel, RT.007/RW.004, Soa Sio, Kec. Kota Ternate Utara, Maluku Utara",Maluku Utara,MALUKU UTARA,,Indonesia,9213113010.0,0.7989861,127.3884829,https://maps.google.com/?cid=0x0:0xff03748bad776036
mall,Pusat Perbelanjaan,Multimart Ternate,"Q9RR+Q4W, Gamalama, Kota Ternate, Maluku Utara","Kota Ternate, Maluku Utara",MALUKU UTARA,,Indonesia,9213123830.0,0.7919999,127.3903253,https://maps.google.com/?cid=0x0:0x8c3646ec80a5c8c4
mall,Toko bahan makanan,LARIS I,"Q9VJ+43H, Jl. SKSD Palapa, Salahuddin, Kec. Ternate Tengah, Kota Ternate, Maluku Utara","Kota Ternate, Maluku Utara",MALUKU UTARA,,Indonesia,85210751551.0,0.7928239,127.380229,https://maps.google.com/?cid=0x0:0xfc5f303e6e1b52ff
mall,Pusat Perbelanjaan,Informa Jatiland Mall,"Q9RQ+4CW, Jl. Pahlawan Revolusi, Gamalama, Kec. Ternate Tengah, Kota Ternate, Maluku Utara 97721","Jl. Pahlawan Revolusi, Gamalama, Kec. Ternate Tengah, Kota Ternate",MALUKU UTARA,97721.0,Indonesia,81511002000.0,0.7923511,127.3906894,https://maps.google.com/?cid=0x0:0xdae8c2b3de37c036
mall,Pusat Perbelanjaan,Gamalama Town Square,"Q9QQ+MFP, Gamalama, Kec. Ternate Tengah, Kota Ternate, Maluku Utara","Kota Ternate, Maluku Utara",MALUKU UTARA,,Indonesia,,0.789204,127.3886928,https://maps.google.com/?cid=0x0:0x5dbb68daa50e25f7
mall,Toko,Tabahawa kel salahudi,"Q9RF+MRF, Salahuddin, Kec. Ternate Tengah, Kota Ternate, Maluku Utara","Kota Ternate, Maluku Utara",MALUKU UTARA,,Indonesia,,0.7916979,127.3745394,https://maps.google.com/?cid=0x0:0x67cdfb74d3ee1fe8
mall,Toko Pakaian,PASAR SENGGOL,"Q9QQ+9GG, Gamalama, Kec. Ternate Tengah, Kota Ternate, Maluku Utara","Kota Ternate, Maluku Utara",MALUKU UTARA,,Indonesia,82188565888.0,0.7884347,127.388822,https://maps.google.com/?cid=0x0:0x2ef6dfd847a626cd
mall,Pusat Perbelanjaan,Pasar Gamalama,"Q9VQ+CGR, Jl. Pahlawan Revolusi No.102, Gamalama, Kec. Ternate Tengah, Kota Ternate, Maluku Utara","Kota Ternate, Maluku Utara",MALUKU UTARA,,Indonesia,,0.7901423,127.3887632,https://maps.google.com/?cid=0x0:0x2d3090f5f80a7f18
mall,Taman Kota,Ternate Landmark,"Q9PQ+6JP, Jl. Pahlawan Revolusi, Muhajirin, Kec. Ternate Tengah, Kota Ternate, Maluku Utara","Kota Ternate, Maluku Utara",MALUKU UTARA,,Indonesia,,0.7855803,127.3890727,https://maps.google.com/?cid=0x0:0xa0ea4c9f6edffae0
mall,mall,Maluku Utara 97714,"Takoma, Kec. Ternate Tengah, Kota Ternate, Maluku Utara","Kota Ternate, Maluku Utara",MALUKU UTARA,,Indonesia,,0.7811008,127.3850519,https://maps.google.com/?cid=0x0:0x8d2ecd03f9db447d
mall,Pusat Perbelanjaan,Jatiland Mall,"Jl. Pahlawan Revolusi, Gamalama, Kec. Ternate Tengah, Kota Ternate, Maluku Utara","Kota Ternate, Maluku Utara",MALUKU UTARA,,Indonesia,,0.7913034,127.3904651,https://maps.google.com/?cid=0x0:0xc88fc50abd8f2993
mall,Pusat Perbelanjaan,Plaza Gamalama Modern,"Q9QQ+MFG, Gamalama, Kec. Ternate Tengah, Kota Ternate, Maluku Utara","Kota Ternate, Maluku Utara",MALUKU UTARA,,Indonesia,,0.7891912,127.3887186,https://maps.google.com/?cid=0x0:0xd055cdf79fc29e27
mall,Pusat Perbelanjaan,Informa Jatiland Mall,"Q9RQ+4CW, Jl. Pahlawan Revolusi, Gamalama, Kec. Ternate Tengah, Kota Ternate, Maluku Utara 97721","Jl. Pahlawan Revolusi, Gamalama, Kec. Ternate Tengah, Kota Ternate",MALUKU UTARA,97721.0,Indonesia,81511002000.0,0.7923511,127.3906894,https://maps.google.com/?cid=0x0:0xdae8c2b3de37c036
mall,Toko Hewan Peliharaan,Petshop terdekat,"Jl. Hasan Esa No.79b, Takoma, Kec. Ternate Tengah, Kota Ternate, Maluku Utara","Kota Ternate, Maluku Utara",MALUKU UTARA,,Indonesia,82190213550.0,0.7821809,127.384419,https://maps.google.com/?cid=0x0:0x856af3535b2476
mall,mall,Kec. Ternate Tengah,"Kota Ternate, Maluku Utara","Kota Ternate, Maluku Utara",MALUKU UTARA,,Indonesia,,0.78959,127.3860498,https://maps.google.com/?cid=0x0:0x8b6a97877817a839
mall,Pusat Perbelanjaan,Muara Mall,"Jl. Nukila No.50, Gamalama, Kec. Ternate Tengah, Kota Ternate, Maluku Utara 97722","Gamalama, Kec. Ternate Tengah, Kota Ternate",MALUKU UTARA,97722.0,Indonesia,,0.7912455,127.3864239,https://maps.google.com/?cid=0x0:0x2c6d1f216770a71
mall,Pusat Perbelanjaan,Ternate,"Q9RQ+W8M, Gamalama, Kec. Ternate Tengah, Kota Ternate, Maluku Utara","Kota Ternate, Maluku Utara",MALUKU UTARA,,Indonesia,81245770950.0,0.7923382,127.3882935,https://maps.google.com/?cid=0x0:0x60947994a9407cfd
mall,Pusat Perbelanjaan,Depo Mart,"Q9VQ+G3W, Gamalama, Kec. Ternate Tengah, Kota Ternate, Maluku Utara","Kota Ternate, Maluku Utara",MALUKU UTARA,,Indonesia,,0.7938536,127.3876929,https://maps.google.com/?cid=0x0:0xbb6626eb5b518fae
mall,Pusat Perbelanjaan,Hypermart Ternate,"Q9XQ+G5G, Jl. Sultan M. Djabir Sjah Kel, RT.007/RW.004, Soa Sio, Kec. Kota Ternate Utara, Maluku Utara",Maluku Utara,MALUKU UTARA,,Indonesia,9213113010.0,0.7989861,127.3884829,https://maps.google.com/?cid=0x0:0xff03748bad776036
mall,Pusat Perbelanjaan,Gamalama Town Square,"Q9QQ+MFP, Gamalama, Kec. Ternate Tengah, Kota Ternate, Maluku Utara","Kota Ternate, Maluku Utara",MALUKU UTARA,,Indonesia,,0.789204,127.3886928,https://maps.google.com/?cid=0x0:0x5dbb68daa50e25f7
mall,Toko,Tabahawa kel salahudi,"Q9RF+MRF, Salahuddin, Kec. Ternate Tengah, Kota Ternate, Maluku Utara","Kota Ternate, Maluku Utara",MALUKU UTARA,,Indonesia,,0.7916979,127.3745394,https://maps.google.com/?cid=0x0:0x67cdfb74d3ee1fe8
mall,Toko bahan makanan,LARIS I,"Q9VJ+43H, Jl. SKSD Palapa, Salahuddin, Kec. Ternate Tengah, Kota Ternate, Maluku Utara","Kota Ternate, Maluku Utara",MALUKU UTARA,,Indonesia,85210751551.0,0.7928239,127.380229,https://maps.google.com/?cid=0x0:0xfc5f303e6e1b52ff
mall,Toko,Informa Electronics,"Jatiland Mall, Jl. Pahlawan Revolusi, Gamalama, Kec. Ternate Tengah, Kota Ternate, Maluku Utara 97714","Jl. Pahlawan Revolusi, Gamalama, Kec. Ternate Tengah, Kota Ternate",MALUKU UTARA,97714.0,Indonesia,85117267450.0,0.7918634,127.3907044,https://maps.google.com/?cid=0x0:0x26156de6c22d335d
mall,mall,Maluku Utara 97721,"Ngade, Kec. Ternate Sel., Kota Ternate, Maluku Utara","Kota Ternate, Maluku Utara",MALUKU UTARA,,Indonesia,,0.7634579,127.3540939,https://maps.google.com/?cid=0x0:0x420e2c525a89ed59
mall,Pusat Perbelanjaan,Muara Mall,"Jl. Nukila No.50, Gamalama, Kec. Ternate Tengah, Kota Ternate, Maluku Utara 97722","Gamalama, Kec. Ternate Tengah, Kota Ternate",MALUKU UTARA,97722.0,Indonesia,,0.7912455,127.3864239,https://maps.google.com/?cid=0x0:0x2c6d1f216770a71
mall,Pusat Perbelanjaan,Jatiland Mall,"Jl. Pahlawan Revolusi, Gamalama, Kec. Ternate Tengah, Kota Ternate, Maluku Utara","Kota Ternate, Maluku Utara",MALUKU UTARA,,Indonesia,,0.7913034,127.3904651,https://maps.google.com/?cid=0x0:0xc88fc50abd8f2993
mall,Pusat Perbelanjaan,Plaza Gamalama Modern,"Q9QQ+MFG, Gamalama, Kec. Ternate Tengah, Kota Ternate, Maluku Utara","Kota Ternate, Maluku Utara",MALUKU UTARA,,Indonesia,,0.7891912,127.3887186,https://maps.google.com/?cid=0x0:0xd055cdf79fc29e27
mall,Pusat Perbelanjaan,Informa Jatiland Mall,"Q9RQ+4CW, Jl. Pahlawan Revolusi, Gamalama, Kec. Ternate Tengah, Kota Ternate, Maluku Utara 97721","Jl. Pahlawan Revolusi, Gamalama, Kec. Ternate Tengah, Kota Ternate",MALUKU UTARA,97721.0,Indonesia,81511002000.0,0.7923511,127.3906894,https://maps.google.com/?cid=0x0:0xdae8c2b3de37c036
mall,mall,Kec. Ternate Tengah,"Kota Ternate, Maluku Utara","Kota Ternate, Maluku Utara",MALUKU UTARA,,Indonesia,,0.78959,127.3860498,https://maps.google.com/?cid=0x0:0x8b6a97877817a839
mall,Pusat Perbelanjaan,Depo Mart,"Q9VQ+G3W, Gamalama, Kec. Ternate Tengah, Kota Ternate, Maluku Utara","Kota Ternate, Maluku Utara",MALUKU UTARA,,Indonesia,,0.7938536,127.3876929,https://maps.google.com/?cid=0x0:0xbb6626eb5b518fae
mall,Pusat Perbelanjaan,Hypermart Ternate,"Q9XQ+G5G, Jl. Sultan M. Djabir Sjah Kel, RT.007/RW.004, Soa Sio, Kec. Kota Ternate Utara, Maluku Utara",Maluku Utara,MALUKU UTARA,,Indonesia,9213113010.0,0.7989861,127.3884829,https://maps.google.com/?cid=0x0:0xff03748bad776036
mall,Toko,Tabahawa kel salahudi,"Q9RF+MRF, Salahuddin, Kec. Ternate Tengah, Kota Ternate, Maluku Utara","Kota Ternate, Maluku Utara",MALUKU UTARA,,Indonesia,,0.7916979,127.3745394,https://maps.google.com/?cid=0x0:0x67cdfb74d3ee1fe8
mall,Pusat Perbelanjaan,Pasar Gamalama,"Q9VQ+CGR, Jl. Pahlawan Revolusi No.102, Gamalama, Kec. Ternate Tengah, Kota Ternate, Maluku Utara","Kota Ternate, Maluku Utara",MALUKU UTARA,,Indonesia,,0.7901423,127.3887632,https://maps.google.com/?cid=0x0:0x2d3090f5f80a7f18
mall,Pusat Perbelanjaan,Multimart Ternate,"Q9RR+Q4W, Gamalama, Kota Ternate, Maluku Utara","Kota Ternate, Maluku Utara",MALUKU UTARA,,Indonesia,9213123830.0,0.7919999,127.3903253,https://maps.google.com/?cid=0x0:0x8c3646ec80a5c8c4
mall,Toko bahan makanan,LARIS I,"Q9VJ+43H, Jl. SKSD Palapa, Salahuddin, Kec. Ternate Tengah, Kota Ternate, Maluku Utara","Kota Ternate, Maluku Utara",MALUKU UTARA,,Indonesia,85210751551.0,0.7928239,127.380229,https://maps.google.com/?cid=0x0:0xfc5f303e6e1b52ff
mall,Pusat Perbelanjaan,Gamalama Town Square,"Q9QQ+MFP, Gamalama, Kec. Ternate Tengah, Kota Ternate, Maluku Utara","Kota Ternate, Maluku Utara",MALUKU UTARA,,Indonesia,,0.789204,127.3886928,https://maps.google.com/?cid=0x0:0x5dbb68daa50e25f7
mall,Toko Pakaian,Imah Olshoptte,"Q9MP+59Q, Jl. Salim Fabanyo, RT.001/RW.001, Muhajirin, Kec. Ternate Tengah, Kota Ternate, Maluku Utara 97721","Jl. Salim Fabanyo, RT.001/RW.001, Muhajirin, Kec. Ternate Tengah, Kota Ternate",MALUKU UTARA,97721.0,Indonesia,85316195700.0,0.7829554,127.3859918,https://maps.google.com/?cid=0x0:0x2f77542de29a7eaf
mall,Pusat Perbelanjaan,Muara Mall,"Jl. Nukila No.50, Gamalama, Kec. Ternate Tengah, Kota Ternate, Maluku Utara 97722","Gamalama, Kec. Ternate Tengah, Kota Ternate",MALUKU UTARA,97722.0,Indonesia,,0.7912455,127.3864239,https://maps.google.com/?cid=0x0:0x2c6d1f216770a71
mall,Pusat Perbelanjaan,Ternate,"Q9RQ+W8M, Gamalama, Kec. Ternate Tengah, Kota Ternate, Maluku Utara","Kota Ternate, Maluku Utara",MALUKU UTARA,,Indonesia,81245770950.0,0.7923382,127.3882935,https://maps.google.com/?cid=0x0:0x60947994a9407cfd
mall,Kafe,ISTANA food court,"Jl. Kutilang, Gamalama, Kec. Ternate Tengah, Kota Ternate, Maluku Utara","Kota Ternate, Maluku Utara",MALUKU UTARA,,Indonesia,82190055776.0,0.7911501,127.3865008,https://maps.google.com/?cid=0x0:0x54bf55d8ca79207c
mall,Pusat Perbelanjaan,Jatiland Mall,"Jl. Pahlawan Revolusi, Gamalama, Kec. Ternate Tengah, Kota Ternate, Maluku Utara","Kota Ternate, Maluku Utara",MALUKU UTARA,,Indonesia,,0.7913034,127.3904651,https://maps.google.com/?cid=0x0:0xc88fc50abd8f2993
mall,Pusat Perbelanjaan,Depo Mart,"Q9VQ+G3W, Gamalama, Kec. Ternate Tengah, Kota Ternate, Maluku Utara","Kota Ternate, Maluku Utara",MALUKU UTARA,,Indonesia,,0.7938536,127.3876929,https://maps.google.com/?cid=0x0:0xbb6626eb5b518fae
mall,Pusat Perbelanjaan,Plaza Gamalama Modern,"Q9QQ+MFG, Gamalama, Kec. Ternate Tengah, Kota Ternate, Maluku Utara","Kota Ternate, Maluku Utara",MALUKU UTARA,,Indonesia,,0.7891912,127.3887186,https://maps.google.com/?cid=0x0:0xd055cdf79fc29e27
mall,Pusat Perbelanjaan,Informa Jatiland Mall,"Q9RQ+4CW, Jl. Pahlawan Revolusi, Gamalama, Kec. Ternate Tengah, Kota Ternate, Maluku Utara 97721","Jl. Pahlawan Revolusi, Gamalama, Kec. Ternate Tengah, Kota Ternate",MALUKU UTARA,97721.0,Indonesia,81511002000.0,0.7923511,127.3906894,https://maps.google.com/?cid=0x0:0xdae8c2b3de37c036
mall,Pusat Perbelanjaan,Hypermart Ternate,"Q9XQ+G5G, Jl. Sultan M. Djabir Sjah Kel, RT.007/RW.004, Soa Sio, Kec. Kota Ternate Utara, Maluku Utara",Maluku Utara,MALUKU UTARA,,Indonesia,9213113010.0,0.7989861,127.3884829,https://maps.google.com/?cid=0x0:0xff03748bad776036
mall,Toko,Tabahawa kel salahudi,"Q9RF+MRF, Salahuddin, Kec. Ternate Tengah, Kota Ternate, Maluku Utara","Kota Ternate, Maluku Utara",MALUKU UTARA,,Indonesia,,0.7916979,127.3745394,https://maps.google.com/?cid=0x0:0x67cdfb74d3ee1fe8
mall,Toko bahan makanan,LARIS I,"Q9VJ+43H, Jl. SKSD Palapa, Salahuddin, Kec. Ternate Tengah, Kota Ternate, Maluku Utara","Kota Ternate, Maluku Utara",MALUKU UTARA,,Indonesia,85210751551.0,0.7928239,127.380229,https://maps.google.com/?cid=0x0:0xfc5f303e6e1b52ff
mall,Toko Kosmetik,GUARDIAN - Jatiland Mall Ternate,"Jatiland Mall SF, Jl. Sultan M. Djabir Sjah No.02 02 LT, Gamalama, Kec. Ternate Tengah, Kota Ternate, Maluku Utara 97722","Jl. Sultan M. Djabir Sjah No.02 02 LT, Gamalama, Kec. Ternate Tengah, Kota Ternate",MALUKU UTARA,97722.0,Indonesia,,0.7916841,127.3905133,https://maps.google.com/?cid=0x0:0xf47139e340cc67f4
mall,Pusat Perbelanjaan,Multimart Ternate,"Q9RR+Q4W, Gamalama, Kota Ternate, Maluku Utara","Kota Ternate, Maluku Utara",MALUKU UTARA,,Indonesia,9213123830.0,0.7919999,127.3903253,https://maps.google.com/?cid=0x0:0x8c3646ec80a5c8c4
mall,Toko Elektronik,Ternate Elektronik,"depan Bank Mandiri, Jl. Nukila No.50, Gamalama, Kec. Ternate Tengah, Kota Ternate, Maluku Utara 97722","Jl. Nukila No.50, Gamalama, Kec. Ternate Tengah, Kota Ternate",MALUKU UTARA,97722.0,Indonesia,81245127871.0,0.7895229,127.3872003,https://maps.google.com/?cid=0x0:0xb3fe2b653b7b0917
mall,Taman Kota,Ternate Landmark,"Q9PQ+6JP, Jl. Pahlawan Revolusi, Muhajirin, Kec. Ternate Tengah, Kota Ternate, Maluku Utara","Kota Ternate, Maluku Utara",MALUKU UTARA,,Indonesia,,0.7855803,127.3890727,https://maps.google.com/?cid=0x0:0xa0ea4c9f6edffae0
mall,mall,Maluku Utara 97723,"Muhajirin, Kec. Ternate Tengah, Kota Ternate, Maluku Utara","Kota Ternate, Maluku Utara",MALUKU UTARA,,Indonesia,,0.7858613,127.3882262,https://maps.google.com/?cid=0x0:0xa7775daff08563c
mall,Pusat Perbelanjaan,Ternate,"Q9RQ+W8M, Gamalama, Kec. Ternate Tengah, Kota Ternate, Maluku Utara","Kota Ternate, Maluku Utara",MALUKU UTARA,,Indonesia,81245770950.0,0.7923382,127.3882935,https://maps.google.com/?cid=0x0:0x60947994a9407cfd
mall,Pusat Perbelanjaan,Muara Mall,"Jl. Nukila No.50, Gamalama, Kec. Ternate Tengah, Kota Ternate, Maluku Utara 97722","Gamalama, Kec. Ternate Tengah, Kota Ternate",MALUKU UTARA,97722.0,Indonesia,,0.7912455,127.3864239,https://maps.google.com/?cid=0x0:0x2c6d1f216770a71
mall,Pusat Perbelanjaan,Multimart Ternate,"Q9RR+Q4W, Gamalama, Kota Ternate, Maluku Utara","Kota Ternate, Maluku Utara",MALUKU UTARA,,Indonesia,9213123830.0,0.7919999,127.3903253,https://maps.google.com/?cid=0x0:0x8c3646ec80a5c8c4
mall,Pusat Perbelanjaan,Plaza Gamalama Modern,"Q9QQ+MFG, Gamalama, Kec. Ternate Tengah, Kota Ternate, Maluku Utara","Kota Ternate, Maluku Utara",MALUKU UTARA,,Indonesia,,0.7891912,127.3887186,https://maps.google.com/?cid=0x0:0xd055cdf79fc29e27
mall,Pusat Perbelanjaan,Informa Jatiland Mall,"Q9RQ+4CW, Jl. Pahlawan Revolusi, Gamalama, Kec. Ternate Tengah, Kota Ternate, Maluku Utara 97721","Jl. Pahlawan Revolusi, Gamalama, Kec. Ternate Tengah, Kota Ternate",MALUKU UTARA,97721.0,Indonesia,81511002000.0,0.7923511,127.3906894,https://maps.google.com/?cid=0x0:0xdae8c2b3de37c036
mall,Taman Kota,Ternate Landmark,"Q9PQ+6JP, Jl. Pahlawan Revolusi, Muhajirin, Kec. Ternate Tengah, Kota Ternate, Maluku Utara","Kota Ternate, Maluku Utara",MALUKU UTARA,,Indonesia,,0.7855803,127.3890727,https://maps.google.com/?cid=0x0:0xa0ea4c9f6edffae0
mall,Toko,Informa Electronics,"Jatiland Mall, Jl. Pahlawan Revolusi, Gamalama, Kec. Ternate Tengah, Kota Ternate, Maluku Utara 97714","Jl. Pahlawan Revolusi, Gamalama, Kec. Ternate Tengah, Kota Ternate",MALUKU UTARA,97714.0,Indonesia,85117267450.0,0.7918634,127.3907044,https://maps.google.com/?cid=0x0:0x26156de6c22d335d
mall,Toko Kesehatan dan Kecantikan,The Body Shop JATILAND MALL TERNATE,"kawasan reklamasi pantai, Jl. Sultan Djabir Sjah, Kota Ternate, Maluku Utara","Kota Ternate, Maluku Utara",MALUKU UTARA,,Indonesia,,0.7916341,127.3906,https://maps.google.com/?cid=0x0:0x10d6db4714831a5b
mall,Toko,Optik Melawai - Jatiland Mall Ternate,"Jatiland Mall, Jl. Pahlawan Revolusi No.28 GF No.16-17, 27, Gamalama, Kec. Ternate Tengah, Kota Ternate, Maluku Utara 97700","Jl. Pahlawan Revolusi No.28 GF No.16-17, 27, Gamalama, Kec. Ternate Tengah, Kota Ternate",MALUKU UTARA,97700.0,Indonesia,8551837356.0,0.7847939,127.3885077,https://maps.google.com/?cid=0x0:0xca8fceace5fea313
mall,Toko Kosmetik,GUARDIAN - Jatiland Mall Ternate,"Jatiland Mall SF, Jl. Sultan M. Djabir Sjah No.02 02 LT, Gamalama, Kec. Ternate Tengah, Kota Ternate, Maluku Utara 97722","Jl. Sultan M. Djabir Sjah No.02 02 LT, Gamalama, Kec. Ternate Tengah, Kota Ternate",MALUKU UTARA,97722.0,Indonesia,,0.7916841,127.3905133,https://maps.google.com/?cid=0x0:0xf47139e340cc67f4
mall,Restoran,Solaria - Jatiland Mall,"Solaria Jatiland Mall, Jl. Sultan M. Djabir Sjah Lantai 1, Gamalama, Kec. Ternate Tengah, Kota Ternate, Maluku Utara 97751","Jl. Sultan M. Djabir Sjah Lantai 1, Gamalama, Kec. Ternate Tengah, Kota Ternate",MALUKU UTARA,97751.0,Indonesia,14099.0,0.7916304,127.3905784,https://maps.google.com/?cid=0x0:0x6953267fa90cb780
mall,Toko Herbal,TIENS TERNATE,"Jln. Kecubung No.58, Tanah Tinggi, Kec. Ternate Sel., Kota Ternate, Maluku Utara","Kota Ternate, Maluku Utara",MALUKU UTARA,,Indonesia,81240594426.0,0.7783433,127.3820395,https://maps.google.com/?cid=0x0:0x9eed6b2dca08dcbb
mall,mall,Kec. Ternate Tengah,"Kota Ternate, Maluku Utara","Kota Ternate, Maluku Utara",MALUKU UTARA,,Indonesia,,0.78959,127.3860498,https://maps.google.com/?cid=0x0:0x8b6a97877817a839
mall,mall,Kec. Ternate Tengah,"Kota Ternate, Maluku Utara","Kota Ternate, Maluku Utara",MALUKU UTARA,,Indonesia,,0.78959,127.3860498,https://maps.google.com/?cid=0x0:0x8b6a97877817a839
mall,Pusat Perbelanjaan,Muara Mall,"Jl. Nukila No.50, Gamalama, Kec. Ternate Tengah, Kota Ternate, Maluku Utara 97722","Gamalama, Kec. Ternate Tengah, Kota Ternate",MALUKU UTARA,97722.0,Indonesia,,0.7912455,127.3864239,https://maps.google.com/?cid=0x0:0x2c6d1f216770a71
mall,Pusat Perbelanjaan,Jatiland Mall,"Jl. Pahlawan Revolusi, Gamalama, Kec. Ternate Tengah, Kota Ternate, Maluku Utara","Kota Ternate, Maluku Utara",MALUKU UTARA,,Indonesia,,0.7913034,127.3904651,https://maps.google.com/?cid=0x0:0xc88fc50abd8f2993
mall,Pusat Perbelanjaan,Depo Mart,"Q9VQ+G3W, Gamalama, Kec. Ternate Tengah, Kota Ternate, Maluku Utara","Kota Ternate, Maluku Utara",MALUKU UTARA,,Indonesia,,0.7938536,127.3876929,https://maps.google.com/?cid=0x0:0xbb6626eb5b518fae
mall,Pusat Perbelanjaan,Plaza Gamalama Modern,"Q9QQ+MFG, Gamalama, Kec. Ternate Tengah, Kota Ternate, Maluku Utara","Kota Ternate, Maluku Utara",MALUKU UTARA,,Indonesia,,0.7891912,127.3887186,https://maps.google.com/?cid=0x0:0xd055cdf79fc29e27
mall,Pusat Perbelanjaan,Hypermart Ternate,"Q9XQ+G5G, Jl. Sultan M. Djabir Sjah Kel, RT.007/RW.004, Soa Sio, Kec. Kota Ternate Utara, Maluku Utara",Maluku Utara,MALUKU UTARA,,Indonesia,9213113010.0,0.7989861,127.3884829,https://maps.google.com/?cid=0x0:0xff03748bad776036
mall,Pusat Perbelanjaan,Multimart Ternate,"Q9RR+Q4W, Gamalama, Kota Ternate, Maluku Utara","Kota Ternate, Maluku Utara",MALUKU UTARA,,Indonesia,9213123830.0,0.7919999,127.3903253,https://maps.google.com/?cid=0x0:0x8c3646ec80a5c8c4
mall,Pusat Perbelanjaan,Informa Jatiland Mall,"Q9RQ+4CW, Jl. Pahlawan Revolusi, Gamalama, Kec. Ternate Tengah, Kota Ternate, Maluku Utara 97721","Jl. Pahlawan Revolusi, Gamalama, Kec. Ternate Tengah, Kota Ternate",MALUKU UTARA,97721.0,Indonesia,81511002000.0,0.7923511,127.3906894,https://maps.google.com/?cid=0x0:0xdae8c2b3de37c036
mall,Toko Pakaian,PASAR SENGGOL,"Q9QQ+9GG, Gamalama, Kec. Ternate Tengah, Kota Ternate, Maluku Utara","Kota Ternate, Maluku Utara",MALUKU UTARA,,Indonesia,82188565888.0,0.7884347,127.388822,https://maps.google.com/?cid=0x0:0x2ef6dfd847a626cd
mall,Pusat Perbelanjaan,Namo Mart,"Pasar Bahari, Berkesan III, Gamalama, Ternate City, North Maluku","Kota Ternate, Maluku Utara",MALUKU UTARA,,Indonesia,81380008545.0,0.7933315,127.3904768,https://maps.google.com/?cid=0x0:0x5119d9cc3dfa750f
mall,mall,,,,MALUKU UTARA,,Indonesia,,,,https://maps.google.com/?cid=0x0:0x67cf3fcc0f55895%7C/g/11b6d93y9z%7Cid-ID
mall,Pusat Perbelanjaan,Muara Hotel and Mall Ternate,"Jl. Merdeka No.19, Gamalama, Kec. Ternate Tengah, Kota Ternate, Maluku Utara","Kota Ternate, Maluku Utara",MALUKU UTARA,,Indonesia,9213125553.0,0.7911445,127.3861909,https://maps.google.com/?cid=0x0:0x67cf3fcc0f55895
mall,mall,The Batik Hotel,"Jl. Kapitan Pattimura, Stadion, Kec. Ternate Tengah, Kota Ternate, Maluku Utara","Kota Ternate, Maluku Utara",MALUKU UTARA,,Indonesia,8114343343.0,0.7877576,127.3845077,https://maps.google.com/?cid=0x0:0x328d07a18d098e8d
mall,Hotel,Hotel Gamalama Indah,"Q9QQ+RX6, Gamalama, Kec. Ternate Tengah, Kota Ternate, Maluku Utara","Kota Ternate, Maluku Utara",MALUKU UTARA,,Indonesia,81380008545.0,0.7895272,127.3898938,https://maps.google.com/?cid=0x0:0x2029c9b62509c39
mall,mall,Kec. Ternate Tengah,"Kota Ternate, Maluku Utara","Kota Ternate, Maluku Utara",MALUKU UTARA,,Indonesia,,0.78959,127.3860498,https://maps.google.com/?cid=0x0:0x8b6a97877817a839
mall,Pusat Perbelanjaan,Muara Mall,"Jl. Nukila No.50, Gamalama, Kec. Ternate Tengah, Kota Ternate, Maluku Utara 97722","Gamalama, Kec. Ternate Tengah, Kota Ternate",MALUKU UTARA,97722.0,Indonesia,,0.7912455,127.3864239,https://maps.google.com/?cid=0x0:0x2c6d1f216770a71
mall,Pusat Perbelanjaan,Ternate,"Q9RQ+W8M, Gamalama, Kec. Ternate Tengah, Kota Ternate, Maluku Utara","Kota Ternate, Maluku Utara",MALUKU UTARA,,Indonesia,81245770950.0,0.7923382,127.3882935,https://maps.google.com/?cid=0x0:0x60947994a9407cfd
mall,mall,Maluku Utara,,Maluku Utara,MALUKU UTARA,,Indonesia,,1.5709993,127.8087693,https://maps.google.com/?cid=0x0:0x1030bfbcaf71ac0
mall,Pusat Perbelanjaan,Informa Jatiland Mall,"Q9RQ+4CW, Jl. Pahlawan Revolusi, Gamalama, Kec. Ternate Tengah, Kota Ternate, Maluku Utara 97721","Jl. Pahlawan Revolusi, Gamalama, Kec. Ternate Tengah, Kota Ternate",MALUKU UTARA,97721.0,Indonesia,81511002000.0,0.7923511,127.3906894,https://maps.google.com/?cid=0x0:0xdae8c2b3de37c036
mall,Pusat Perbelanjaan,Hypermart Ternate,"Q9XQ+G5G, Jl. Sultan M. Djabir Sjah Kel, RT.007/RW.004, Soa Sio, Kec. Kota Ternate Utara, Maluku Utara",Maluku Utara,MALUKU UTARA,,Indonesia,9213113010.0,0.7989861,127.3884829,https://maps.google.com/?cid=0x0:0xff03748bad776036
mall,Pusat Perbelanjaan,Depo Mart,"Q9VQ+G3W, Gamalama, Kec. Ternate Tengah, Kota Ternate, Maluku Utara","Kota Ternate, Maluku Utara",MALUKU UTARA,,Indonesia,,0.7938536,127.3876929,https://maps.google.com/?cid=0x0:0xbb6626eb5b518fae
mall,Indonesia,Belakang mall,"Q9RP+FXR, Gamalama, Kec. Ternate Tengah, Kota Ternate, Maluku Utara","Kota Ternate, Maluku Utara",MALUKU UTARA,,Indonesia,,0.7912491,127.3873973,https://maps.google.com/?cid=0x0:0xd5e26eaa7078542a
mall,Toko bahan makanan,LARIS I,"Q9VJ+43H, Jl. SKSD Palapa, Salahuddin, Kec. Ternate Tengah, Kota Ternate, Maluku Utara","Kota Ternate, Maluku Utara",MALUKU UTARA,,Indonesia,85210751551.0,0.7928239,127.380229,https://maps.google.com/?cid=0x0:0xfc5f303e6e1b52ff
mall,Pusat Perbelanjaan,Plaza Gamalama Modern,"Q9QQ+MFG, Gamalama, Kec. Ternate Tengah, Kota Ternate, Maluku Utara","Kota Ternate, Maluku Utara",MALUKU UTARA,,Indonesia,,0.7891912,127.3887186,https://maps.google.com/?cid=0x0:0xd055cdf79fc29e27
mall,Taman Kota,Ternate Landmark,"Q9PQ+6JP, Jl. Pahlawan Revolusi, Muhajirin, Kec. Ternate Tengah, Kota Ternate, Maluku Utara","Kota Ternate, Maluku Utara",MALUKU UTARA,,Indonesia,,0.7855803,127.3890727,https://maps.google.com/?cid=0x0:0xa0ea4c9f6edffae0
mall,Toko Pakaian,PASAR SENGGOL,"Q9QQ+9GG, Gamalama, Kec. Ternate Tengah, Kota Ternate, Maluku Utara","Kota Ternate, Maluku Utara",MALUKU UTARA,,Indonesia,82188565888.0,0.7884347,127.388822,https://maps.google.com/?cid=0x0:0x2ef6dfd847a626cd
mall,Toko,Tabahawa kel salahudi,"Q9RF+MRF, Salahuddin, Kec. Ternate Tengah, Kota Ternate, Maluku Utara","Kota Ternate, Maluku Utara",MALUKU UTARA,,Indonesia,,0.7916979,127.3745394,https://maps.google.com/?cid=0x0:0x67cdfb74d3ee1fe8
mall,Pusat Perbelanjaan,Multimart Ternate,"Q9RR+Q4W, Gamalama, Kota Ternate, Maluku Utara","Kota Ternate, Maluku Utara",MALUKU UTARA,,Indonesia,9213123830.0,0.7919999,127.3903253,https://maps.google.com/?cid=0x0:0x8c3646ec80a5c8c4
mall,mall,Maluku Utara,,Maluku Utara,MALUKU UTARA,,Indonesia,,1.5709993,127.8087693,https://maps.google.com/?cid=0x0:0x1030bfbcaf71ac0
mall,Pusat Perbelanjaan,Jatiland Mall,"Jl. Pahlawan Revolusi, Gamalama, Kec. Ternate Tengah, Kota Ternate, Maluku Utara","Kota Ternate, Maluku Utara",MALUKU UTARA,,Indonesia,,0.7913034,127.3904651,https://maps.google.com/?cid=0x0:0xc88fc50abd8f2993
mall,Pusat Perbelanjaan,Informa Jatiland Mall,"Q9RQ+4CW, Jl. Pahlawan Revolusi, Gamalama, Kec. Ternate Tengah, Kota Ternate, Maluku Utara 97721","Jl. Pahlawan Revolusi, Gamalama, Kec. Ternate Tengah, Kota Ternate",MALUKU UTARA,97721.0,Indonesia,81511002000.0,0.7923511,127.3906894,https://maps.google.com/?cid=0x0:0xdae8c2b3de37c036
mall,Toko,Informa Electronics,"Jatiland Mall, Jl. Pahlawan Revolusi, Gamalama, Kec. Ternate Tengah, Kota Ternate, Maluku Utara 97714","Jl. Pahlawan Revolusi, Gamalama, Kec. Ternate Tengah, Kota Ternate",MALUKU UTARA,97714.0,Indonesia,85117267450.0,0.7918634,127.3907044,https://maps.google.com/?cid=0x0:0x26156de6c22d335d
mall,Restoran,Solaria - Jatiland Mall,"Solaria Jatiland Mall, Jl. Sultan M. Djabir Sjah Lantai 1, Gamalama, Kec. Ternate Tengah, Kota Ternate, Maluku Utara 97751","Jl. Sultan M. Djabir Sjah Lantai 1, Gamalama, Kec. Ternate Tengah, Kota Ternate",MALUKU UTARA,97751.0,Indonesia,14099.0,0.7916304,127.3905784,https://maps.google.com/?cid=0x0:0x6953267fa90cb780
mall,Toko Kesehatan dan Kecantikan,The Body Shop JATILAND MALL TERNATE,"kawasan reklamasi pantai, Jl. Sultan Djabir Sjah, Kota Ternate, Maluku Utara","Kota Ternate, Maluku Utara",MALUKU UTARA,,Indonesia,,0.7916341,127.3906,https://maps.google.com/?cid=0x0:0x10d6db4714831a5b
mall,mall,Muara Hotel and Mall Ternate,"Jl. Merdeka No.19, Gamalama, Kec. Ternate Tengah, Kota Ternate, Maluku Utara","Kota Ternate, Maluku Utara",MALUKU UTARA,,Indonesia,9213125553.0,0.7911445,127.3861909,https://maps.google.com/?cid=0x0:0x67cf3fcc0f55895
mall,mall,,,,MALUKU UTARA,,Indonesia,,,,https://maps.google.com/?cid=0x0:0x67cf3fcc0f55895%7C/g/11b6d93y9z%7Cid-ID
mall,mall,Hotel Gamalama Indah,"Q9QQ+RX6, Gamalama, Kec. Ternate Tengah, Kota Ternate, Maluku Utara","Kota Ternate, Maluku Utara",MALUKU UTARA,,Indonesia,81380008545.0,0.7895272,127.3898938,https://maps.google.com/?cid=0x0:0x2029c9b62509c39
mall,mall,The Batik Hotel,"Jl. Kapitan Pattimura, Stadion, Kec. Ternate Tengah, Kota Ternate, Maluku Utara","Kota Ternate, Maluku Utara",MALUKU UTARA,,Indonesia,8114343343.0,0.7877576,127.3845077,https://maps.google.com/?cid=0x0:0x328d07a18d098e8d
mall,mall,Boulevard Hotel,"Q9RQ+4WQ, Jalan Ruko Jatiland Jl. Sultan M. Djabir Sjah No.1 - 5, Gamalama, Kec. Kota Ternate Utara, Maluku Utara",Maluku Utara,MALUKU UTARA,,Indonesia,9213110666.0,0.7900983,127.3899972,https://maps.google.com/?cid=0x0:0x81f2c24d2703d498
mall,mall,Grand Majang Hotel Ternate,"Jl. Arnold Mononutu No.275, Stadion, Kec. Ternate Tengah, Kota Ternate, Maluku Utara","Kota Ternate, Maluku Utara",MALUKU UTARA,,Indonesia,81289376601.0,0.7836107,127.3845012,https://maps.google.com/?cid=0x0:0xf6e7394b3e66015f
mall,mall,Muara Inn Ternate,"Jl. Seruni, Kp. Pisang, Kec. Ternate Tengah, Kota Ternate, Maluku Utara 97712","Kp. Pisang, Kec. Ternate Tengah, Kota Ternate",MALUKU UTARA,97712.0,Indonesia,9216205200.0,0.7834742,127.3826265,https://maps.google.com/?cid=0x0:0x126e3446c8f963cb
mall,mall,Hotel Tiara,"Q9PP+QR9, Muhajirin, Kec. Ternate Tengah, Kota Ternate, Maluku Utara","Kota Ternate, Maluku Utara",MALUKU UTARA,,Indonesia,9213111017.0,0.7869048,127.3871126,https://maps.google.com/?cid=0x0:0xa2e1caa79bed4849
mall,Pusat Perbelanjaan,Muara Mall,"Jl. Nukila No.50, Gamalama, Kec. Ternate Tengah, Kota Ternate, Maluku Utara 97722","Gamalama, Kec. Ternate Tengah, Kota Ternate",MALUKU UTARA,97722.0,Indonesia,,0.7912455,127.3864239,https://maps.google.com/?cid=0x0:0x2c6d1f216770a71
mall,Pusat Perbelanjaan,Ternate,"Q9RQ+W8M, Gamalama, Kec. Ternate Tengah, Kota Ternate, Maluku Utara","Kota Ternate, Maluku Utara",MALUKU UTARA,,Indonesia,81245770950.0,0.7923382,127.3882935,https://maps.google.com/?cid=0x0:0x60947994a9407cfd
mall,Pusat Perbelanjaan,Jatiland Mall,"Jl. Pahlawan Revolusi, Gamalama, Kec. Ternate Tengah, Kota Ternate, Maluku Utara","Kota Ternate, Maluku Utara",MALUKU UTARA,,Indonesia,,0.7913034,127.3904651,https://maps.google.com/?cid=0x0:0xc88fc50abd8f2993
mall,Pusat Perbelanjaan,Hypermart Ternate,"Q9XQ+G5G, Jl. Sultan M. Djabir Sjah Kel, RT.007/RW.004, Soa Sio, Kec. Kota Ternate Utara, Maluku Utara",Maluku Utara,MALUKU UTARA,,Indonesia,9213113010.0,0.7989861,127.3884829,https://maps.google.com/?cid=0x0:0xff03748bad776036
mall,Pusat Perbelanjaan,Depo Mart,"Q9VQ+G3W, Gamalama, Kec. Ternate Tengah, Kota Ternate, Maluku Utara","Kota Ternate, Maluku Utara",MALUKU UTARA,,Indonesia,,0.7938536,127.3876929,https://maps.google.com/?cid=0x0:0xbb6626eb5b518fae
mall,Pusat Perbelanjaan,Informa Jatiland Mall,"Q9RQ+4CW, Jl. Pahlawan Revolusi, Gamalama, Kec. Ternate Tengah, Kota Ternate, Maluku Utara 97721","Jl. Pahlawan Revolusi, Gamalama, Kec. Ternate Tengah, Kota Ternate",MALUKU UTARA,97721.0,Indonesia,81511002000.0,0.7923511,127.3906894,https://maps.google.com/?cid=0x0:0xdae8c2b3de37c036
mall,Toko bahan makanan,LARIS I,"Q9VJ+43H, Jl. SKSD Palapa, Salahuddin, Kec. Ternate Tengah, Kota Ternate, Maluku Utara","Kota Ternate, Maluku Utara",MALUKU UTARA,,Indonesia,85210751551.0,0.7928239,127.380229,https://maps.google.com/?cid=0x0:0xfc5f303e6e1b52ff
mall,mall,Muara Hotel and Mall Ternate,"Jl. Merdeka No.19, Gamalama, Kec. Ternate Tengah, Kota Ternate, Maluku Utara","Kota Ternate, Maluku Utara",MALUKU UTARA,,Indonesia,9213125553.0,0.7911445,127.3861909,https://maps.google.com/?cid=0x0:0x67cf3fcc0f55895
mall,mall,,,,MALUKU UTARA,,Indonesia,,,,https://maps.google.com/?cid=0x0:0x67cf3fcc0f55895%7C/g/11b6d93y9z%7Cid-ID
mall,mall,The Batik Hotel,"Jl. Kapitan Pattimura, Stadion, Kec. Ternate Tengah, Kota Ternate, Maluku Utara","Kota Ternate, Maluku Utara",MALUKU UTARA,,Indonesia,8114343343.0,0.7877576,127.3845077,https://maps.google.com/?cid=0x0:0x328d07a18d098e8d
mall,mall,Hotel Gamalama Indah,"Q9QQ+RX6, Gamalama, Kec. Ternate Tengah, Kota Ternate, Maluku Utara","Kota Ternate, Maluku Utara",MALUKU UTARA,,Indonesia,81380008545.0,0.7895272,127.3898938,https://maps.google.com/?cid=0x0:0x2029c9b62509c39
mall,mall,Boulevard Hotel,"Q9RQ+4WQ, Jalan Ruko Jatiland Jl. Sultan M. Djabir Sjah No.1 - 5, Gamalama, Kec. Kota Ternate Utara, Maluku Utara",Maluku Utara,MALUKU UTARA,,Indonesia,9213110666.0,0.7900983,127.3899972,https://maps.google.com/?cid=0x0:0x81f2c24d2703d498
mall,mall,Grand Majang Hotel Ternate,"Jl. Arnold Mononutu No.275, Stadion, Kec. Ternate Tengah, Kota Ternate, Maluku Utara","Kota Ternate, Maluku Utara",MALUKU UTARA,,Indonesia,81289376601.0,0.7836107,127.3845012,https://maps.google.com/?cid=0x0:0xf6e7394b3e66015f
mall,mall,Muara Inn Ternate,"Jl. Seruni, Kp. Pisang, Kec. Ternate Tengah, Kota Ternate, Maluku Utara 97712","Kp. Pisang, Kec. Ternate Tengah, Kota Ternate",MALUKU UTARA,97712.0,Indonesia,9216205200.0,0.7834742,127.3826265,https://maps.google.com/?cid=0x0:0x126e3446c8f963cb
supermarket,supermarket,Maluku Utara,,Maluku Utara,MALUKU UTARA,,Indonesia,,1.5709993,127.8087693,https://maps.google.com/?cid=0x0:0x1030bfbcaf71ac0
supermarket,Toko,Dua Sekawan Swalayan,"Jl. Jati Besar No.502, Mangga Dua Utara, Kec. Ternate Sel., Kota Ternate, Maluku Utara","Kota Ternate, Maluku Utara",MALUKU UTARA,,Indonesia,9213127268.0,0.7775638,127.3767447,https://maps.google.com/?cid=0x0:0xce14aca6705f0fc
supermarket,Toko Bahan Bangunan,Makmur Utama Supermarket Bahan Bangunan,"Jl. Yasin Gamsungi No.2 Kec. ternate tengah, Kel, Makassar Tim., Makassar Timur, Kota Ternate, Maluku Utara 97724","Kel, Makassar Tim., Makassar Timur, Kota Ternate",MALUKU UTARA,97724.0,Indonesia,8114313799.0,0.7940352,127.3876695,https://maps.google.com/?cid=0x0:0x2f492ae87bf64247
supermarket,Toko Swalayan,Tara No Ate : Oleh-oleh Khas Ternate,"Jl. Tapak Raya II, Gamalama, Maluku Utara",Maluku Utara,MALUKU UTARA,,Indonesia,,0.7902013,127.390588,https://maps.google.com/?cid=0x0:0x147e3e170043ea32
supermarket,Minimarket,Dua Sekawan Sabia (DS09),"R95P+W62, Sangaji, Kec. Kota Ternate Utara, Kota Ternate, Maluku Utara","Kota Ternate, Maluku Utara",MALUKU UTARA,,Indonesia,,0.8097614,127.385506,https://maps.google.com/?cid=0x0:0xd760b3bd99fd7562
supermarket,Toserba,Super Toko,"Jl. Ps. Inpres Bastiong No.02, RT.02/RW.RW, Maliaro, Kec. Ternate Tengah, Kota Ternate, Maluku Utara","Kota Ternate, Maluku Utara",MALUKU UTARA,,Indonesia,92123428.0,0.7880544,127.3772047,https://maps.google.com/?cid=0x0:0xf075989f2d0a6871
supermarket,Toko Ponsel,Jipang Store Indonesia,"Perumahan Jan Rivaldo, Tabona, Kec. Ternate Sel., Kota Ternate, Maluku Utara 97713","Tabona, Kec. Ternate Sel., Kota Ternate",MALUKU UTARA,97713.0,Indonesia,85255551994.0,0.7776969,127.3641748,https://maps.google.com/?cid=0x0:0x2a199ac0b4d81dfd
supermarket,Toko Alat Tulis Kantor,Garuda Elok Toko,"Jl. Pahlawan Revolusi No.123, Gamalama, Kec. Ternate Tengah, Kota Ternate, Maluku Utara","Kota Ternate, Maluku Utara",MALUKU UTARA,,Indonesia,92121437.0,0.7898763,127.3882938,https://maps.google.com/?cid=0x0:0xd0e5a678764cb440
supermarket,Toko Bahan Bangunan,Toko makmur utama,"Jl. Pahlawan Revolusi No.132, Gamalama, Kec. Ternate Tengah, Kota Ternate, Maluku Utara","Kota Ternate, Maluku Utara",MALUKU UTARA,,Indonesia,,0.7876953,127.3886512,https://maps.google.com/?cid=0x0:0x5f7b6138c97f4e8
supermarket,Toko Roti,Stinmas Bakery Warung Pojok,"Q9MQ+36G, Jl. Pahlawan Revolusi, Muhajirin, Kec. Ternate Tengah, Kota Ternate, Maluku Utara 97713","Jl. Pahlawan Revolusi, Muhajirin, Kec. Ternate Tengah, Kota Ternate",MALUKU UTARA,97713.0,Indonesia,82130309030.0,0.7826858,127.3880721,https://maps.google.com/?cid=0x0:0x89ac8062002132e2
supermarket,Toko Mebel,Tobololo Meubel,"V933+23, Jl. Pertamina, Tobololo, Kec. Pulau Ternate, Kota Ternate, Maluku Utara","Kota Ternate, Maluku Utara",MALUKU UTARA,,Indonesia,,0.8534001,127.3526013,https://maps.google.com/?cid=0x0:0xf80e415d4121df54
supermarket,Kafe,Natural Caffeine,"Jl. Pahlawan Revolusi, Muhajirin, Kec. Ternate Tengah, Kota Ternate, Maluku Utara 97713","Muhajirin, Kec. Ternate Tengah, Kota Ternate",MALUKU UTARA,97713.0,Indonesia,82291805599.0,0.7848562,127.3885497,https://maps.google.com/?cid=0x0:0x29f55d78f2331bcd
supermarket,ATM,Bank BRI ATM - MINIMARKET RAJAWALI,"Q84G+4RV, Sasa, Kec. Ternate Sel., Kota Ternate, Maluku Utara","Kota Ternate, Maluku Utara",MALUKU UTARA,,Indonesia,2114017.0,0.7553622,127.3270472,https://maps.google.com/?cid=0x0:0x1aceb9ebb0f65f7d
supermarket,supermarket,Jati,"Kec. Ternate Sel., Kota Ternate, Maluku Utara","Kota Ternate, Maluku Utara",MALUKU UTARA,,Indonesia,,0.7776245,127.3733748,https://maps.google.com/?cid=0x0:0xfaa8823b5f551a4e
supermarket,supermarket,Kec. Ternate Sel.,"Kota Ternate, Maluku Utara","Kota Ternate, Maluku Utara",MALUKU UTARA,,Indonesia,,0.7676108,127.3745474,https://maps.google.com/?cid=0x0:0xd0e23e4e61e3ddd0
supermarket,Toko,Dua Sekawan Swalayan,"Jl. Jati Besar No.502, Mangga Dua Utara, Kec. Ternate Sel., Kota Ternate, Maluku Utara","Kota Ternate, Maluku Utara",MALUKU UTARA,,Indonesia,9213127268.0,0.7775638,127.3767447,https://maps.google.com/?cid=0x0:0xce14aca6705f0fc
supermarket,Minimarket,kalumata Indah,"Q968+CHW, Jl. Santo Pedro, Kalumata, Kec. Ternate Sel., Kota Ternate, Maluku Utara","Kota Ternate, Maluku Utara",MALUKU UTARA,,Indonesia,8121964499.0,0.7611243,127.3664591,https://maps.google.com/?cid=0x0:0x94ad005767f61e78
supermarket,Pusat Perbelanjaan,Hypermart Ternate,"Q9XQ+G5G, Jl. Sultan M. Djabir Sjah Kel, RT.007/RW.004, Soa Sio, Kec. Kota Ternate Utara, Maluku Utara",Maluku Utara,MALUKU UTARA,,Indonesia,9213113010.0,0.7989861,127.3884829,https://maps.google.com/?cid=0x0:0xff03748bad776036
supermarket,Toko Perhiasan,Rajawali Mart,"Q84G+5CW, Jl. Pertamina, Sasa, Kec. Ternate Sel., Kota Ternate, Maluku Utara","Kota Ternate, Maluku Utara",MALUKU UTARA,,Indonesia,,0.7553693,127.3271529,https://maps.google.com/?cid=0x0:0x496ae344da74a5a2
supermarket,Toko Swalayan,Toko Rizky,"Q968+XRR, Kalumata, Kec. Ternate Sel., Kota Ternate, Maluku Utara","Kota Ternate, Maluku Utara",MALUKU UTARA,,Indonesia,81243576349.0,0.7624858,127.3670257,https://maps.google.com/?cid=0x0:0x5afc272adbc29eed
supermarket,Toko Swalayan,Tara No Ate : Oleh-oleh Khas Ternate,"Jl. Tapak Raya II, Gamalama, Maluku Utara",Maluku Utara,MALUKU UTARA,,Indonesia,,0.7902013,127.390588,https://maps.google.com/?cid=0x0:0x147e3e170043ea32
supermarket,Toko Swalayan,Rafa Mart TERNATE,"Q9QH+Q3H, Kalumpang, Kec. Ternate Tengah, Kota Ternate, Maluku Utara","Kota Ternate, Maluku Utara",MALUKU UTARA,,Indonesia,81342782399.0,0.7894273,127.3777316,https://maps.google.com/?cid=0x0:0xb76d56a22409784f
supermarket,Toko Swalayan,Selecta mini market,"Q9QP+PWX, Jl. Nukila, Gamalama, Kec. Ternate Tengah, Kota Ternate, Maluku Utara","Kota Ternate, Maluku Utara",MALUKU UTARA,,Indonesia,9213121869.0,0.7893521,127.3873567,https://maps.google.com/?cid=0x0:0xfb02d513f6556bf1
supermarket,Toko Swalayan,Eko.wahyudi,"Q968+F4P, Jl. Santo Pedro, Kalumata, Kec. Ternate Sel., Kota Ternate, Maluku Utara","Kota Ternate, Maluku Utara",MALUKU UTARA,,Indonesia,81243916824.0,0.7612128,127.3653412,https://maps.google.com/?cid=0x0:0x7c954899cb915219
supermarket,Toko makanan beku,Top_produk,"kartika, Bastiong Talangame, Kec. Ternate Sel., Kota Ternate, Maluku Utara 97716","Bastiong Talangame, Kec. Ternate Sel., Kota Ternate",MALUKU UTARA,97716.0,Indonesia,82196905151.0,0.7697882,127.3739048,https://maps.google.com/?cid=0x0:0x544146df7493c568
supermarket,Toko Swalayan,SAKINAH MART,"Q994+367, Jl. Pesantren, Kalumata, Kec. Ternate Sel., Kota Ternate, Maluku Utara","Kota Ternate, Maluku Utara",MALUKU UTARA,,Indonesia,,0.7676609,127.3555514,https://maps.google.com/?cid=0x0:0xd13bd2b9318a5210
supermarket,Toko Swalayan,Alfamidi Jati Lurus,"Q9FF+CM6, Jati, Kec. Ternate Sel., Kota Ternate, Maluku Utara","Kota Ternate, Maluku Utara",MALUKU UTARA,,Indonesia,81325838734.0,0.7735362,127.3741472,https://maps.google.com/?cid=0x0:0xc269e77483278a8d
supermarket,Toko Swalayan,toko serba ada,"Jl. Raya Bastiong No.9, Bastiong Talangame, Kec. Ternate Sel., Kota Ternate, Maluku Utara","Kota Ternate, Maluku Utara",MALUKU UTARA,,Indonesia,,0.7706619,127.3755754,https://maps.google.com/?cid=0x0:0x23d37e503e510a2e
supermarket,supermarket,Maluku Utara 97716,"Jati, Kec. Ternate Sel., Kota Ternate, Maluku Utara","Kota Ternate, Maluku Utara",MALUKU UTARA,,Indonesia,,0.774964,127.3753239,https://maps.google.com/?cid=0x0:0xd3326394ae1fb547
supermarket,Toko,Dua Sekawan Swalayan,"Jl. Jati Besar No.502, Mangga Dua Utara, Kec. Ternate Sel., Kota Ternate, Maluku Utara","Kota Ternate, Maluku Utara",MALUKU UTARA,,Indonesia,9213127268.0,0.7775638,127.3767447,https://maps.google.com/?cid=0x0:0xce14aca6705f0fc
supermarket,Toko Swalayan,Alfamidi Jati Lurus,"Q9FF+CM6, Jati, Kec. Ternate Sel., Kota Ternate, Maluku Utara","Kota Ternate, Maluku Utara",MALUKU UTARA,,Indonesia,81325838734.0,0.7735362,127.3741472,https://maps.google.com/?cid=0x0:0xc269e77483278a8d
supermarket,Toko Swalayan,Tara No Ate : Oleh-oleh Khas Ternate,"Jl. Tapak Raya II, Gamalama, Maluku Utara",Maluku Utara,MALUKU UTARA,,Indonesia,,0.7902013,127.390588,https://maps.google.com/?cid=0x0:0x147e3e170043ea32
supermarket,Toko Bahan Bangunan,Makmur Utama Supermarket Bahan Bangunan,"Jl. Yasin Gamsungi No.2 Kec. ternate tengah, Kel, Makassar Tim., Makassar Timur, Kota Ternate, Maluku Utara 97724","Kel, Makassar Tim., Makassar Timur, Kota Ternate",MALUKU UTARA,97724.0,Indonesia,8114313799.0,0.7940352,127.3876695,https://maps.google.com/?cid=0x0:0x2f492ae87bf64247
supermarket,Toko Perhiasan,Rajawali Mart,"Q84G+5CW, Jl. Pertamina, Sasa, Kec. Ternate Sel., Kota Ternate, Maluku Utara","Kota Ternate, Maluku Utara",MALUKU UTARA,,Indonesia,,0.7553693,127.3271529,https://maps.google.com/?cid=0x0:0x496ae344da74a5a2
supermarket,Grosir Buah,Pasar Buah,"Q9VQ+FRV, Jl. Sultan M. Djabir Sjah, Kota Ternate, Maluku Utara","Kota Ternate, Maluku Utara",MALUKU UTARA,,Indonesia,,0.7937353,127.3895485,https://maps.google.com/?cid=0x0:0x6eb3d7b4ad46c6d5
supermarket,Toko Swalayan,Alfamidi Mangga Dua,"Q9CG+WP4, Mangga Dua, Kec. Ternate Sel., Kota Ternate, Maluku Utara","Kota Ternate, Maluku Utara",MALUKU UTARA,,Indonesia,81340561606.0,0.7722536,127.3768385,https://maps.google.com/?cid=0x0:0xab8de07e53ba2b93
supermarket,Minimarket,INDOMARET PEMUDA,"R94P+X3M, Toboleu, Kec. Kota Ternate Utara, Kota Ternate, Maluku Utara","Kota Ternate, Maluku Utara",MALUKU UTARA,,Indonesia,81340561606.0,0.8074711,127.3851563,https://maps.google.com/?cid=0x0:0x80f8e0ce56b5aee8
supermarket,Toko Roti,Depot Muhajirin,"Kampung kodok, lingk Jl. Falajawa No.1, Muhajirin, Kec. Ternate Tengah, Kota Ternate, Maluku Utara","Kota Ternate, Maluku Utara",MALUKU UTARA,,Indonesia,81342078864.0,0.7846045,127.3875048,https://maps.google.com/?cid=0x0:0x21548cac79a613af
supermarket,Minimarket,INDOMARET KAPITAN PATTIMURA,"Q9QJ+25G, Jl. Kapitan Pattimura, Kalumpang, Kec. Ternate Tengah, Kota Ternate, Maluku Utara","Kota Ternate, Maluku Utara",MALUKU UTARA,,Indonesia,,0.7875708,127.3804582,https://maps.google.com/?cid=0x0:0xec76bd435e35274e
supermarket,Pusat Perbelanjaan,Informa Jatiland Mall,"Q9RQ+4CW, Jl. Pahlawan Revolusi, Gamalama, Kec. Ternate Tengah, Kota Ternate, Maluku Utara 97721","Jl. Pahlawan Revolusi, Gamalama, Kec. Ternate Tengah, Kota Ternate",MALUKU UTARA,97721.0,Indonesia,81511002000.0,0.7923511,127.3906894,https://maps.google.com/?cid=0x0:0xdae8c2b3de37c036
supermarket,Pusat Perbelanjaan,Muara Mall,"Jl. Nukila No.50, Gamalama, Kec. Ternate Tengah, Kota Ternate, Maluku Utara 97722","Gamalama, Kec. Ternate Tengah, Kota Ternate",MALUKU UTARA,97722.0,Indonesia,,0.7912455,127.3864239,https://maps.google.com/?cid=0x0:0x2c6d1f216770a71
supermarket,Toko Ponsel,Jipang Store Indonesia,"Perumahan Jan Rivaldo, Tabona, Kec. Ternate Sel., Kota Ternate, Maluku Utara 97713","Tabona, Kec. Ternate Sel., Kota Ternate",MALUKU UTARA,97713.0,Indonesia,85255551994.0,0.7776969,127.3641748,https://maps.google.com/?cid=0x0:0x2a199ac0b4d81dfd
supermarket,supermarket,Kec. Ternate Sel.,"Kota Ternate, Maluku Utara","Kota Ternate, Maluku Utara",MALUKU UTARA,,Indonesia,,0.7676108,127.3745474,https://maps.google.com/?cid=0x0:0xd0e23e4e61e3ddd0
supermarket,Toko,Dua Sekawan Swalayan,"Jl. Jati Besar No.502, Mangga Dua Utara, Kec. Ternate Sel., Kota Ternate, Maluku Utara","Kota Ternate, Maluku Utara",MALUKU UTARA,,Indonesia,9213127268.0,0.7775638,127.3767447,https://maps.google.com/?cid=0x0:0xce14aca6705f0fc
supermarket,Minimarket,kalumata Indah,"Q968+CHW, Jl. Santo Pedro, Kalumata, Kec. Ternate Sel., Kota Ternate, Maluku Utara","Kota Ternate, Maluku Utara",MALUKU UTARA,,Indonesia,8121964499.0,0.7611243,127.3664591,https://maps.google.com/?cid=0x0:0x94ad005767f61e78
supermarket,Pusat Perbelanjaan,Hypermart Ternate,"Q9XQ+G5G, Jl. Sultan M. Djabir Sjah Kel, RT.007/RW.004, Soa Sio, Kec. Kota Ternate Utara, Maluku Utara",Maluku Utara,MALUKU UTARA,,Indonesia,9213113010.0,0.7989861,127.3884829,https://maps.google.com/?cid=0x0:0xff03748bad776036
supermarket,Toko Perhiasan,Rajawali Mart,"Q84G+5CW, Jl. Pertamina, Sasa, Kec. Ternate Sel., Kota Ternate, Maluku Utara","Kota Ternate, Maluku Utara",MALUKU UTARA,,Indonesia,,0.7553693,127.3271529,https://maps.google.com/?cid=0x0:0x496ae344da74a5a2
supermarket,Toko Swalayan,Eko.wahyudi,"Q968+F4P, Jl. Santo Pedro, Kalumata, Kec. Ternate Sel., Kota Ternate, Maluku Utara","Kota Ternate, Maluku Utara",MALUKU UTARA,,Indonesia,81243916824.0,0.7612128,127.3653412,https://maps.google.com/?cid=0x0:0x7c954899cb915219
supermarket,Toko Swalayan,Toko Ekalista,"Q97C+4JG, Jl. Raya Bastiong, Kayu Merah, Kec. Ternate Sel., Kota Ternate, Maluku Utara","Kota Ternate, Maluku Utara",MALUKU UTARA,,Indonesia,82193982212.0,0.7628142,127.3715663,https://maps.google.com/?cid=0x0:0x3b7e8406d22cc64d
supermarket,Toko Swalayan,Tara No Ate : Oleh-oleh Khas Ternate,"Jl. Tapak Raya II, Gamalama, Maluku Utara",Maluku Utara,MALUKU UTARA,,Indonesia,,0.7902013,127.390588,https://maps.google.com/?cid=0x0:0x147e3e170043ea32
supermarket,Toko Swalayan,toko serba ada,"Jl. Raya Bastiong No.9, Bastiong Talangame, Kec. Ternate Sel., Kota Ternate, Maluku Utara","Kota Ternate, Maluku Utara",MALUKU UTARA,,Indonesia,,0.7706619,127.3755754,https://maps.google.com/?cid=0x0:0x23d37e503e510a2e
supermarket,Pusat Perbelanjaan,Fish Mart Dan Toko Oleh-Oleh Maluku Utara,"Q99G+GVQ Kompleks PPN, Bastiong Talangame, Kec. Ternate Sel., Kota Ternate, Maluku Utara","Kota Ternate, Maluku Utara",MALUKU UTARA,,Indonesia,811436062.0,0.7688449,127.3772471,https://maps.google.com/?cid=0x0:0x91b15b3a099b55e9
supermarket,Toko Swalayan,Alfamidi Jati Lurus,"Q9FF+CM6, Jati, Kec. Ternate Sel., Kota Ternate, Maluku Utara","Kota Ternate, Maluku Utara",MALUKU UTARA,,Indonesia,81325838734.0,0.7735362,127.3741472,https://maps.google.com/?cid=0x0:0xc269e77483278a8d
supermarket,Toko makanan beku,Top_produk,"kartika, Bastiong Talangame, Kec. Ternate Sel., Kota Ternate, Maluku Utara 97716","Bastiong Talangame, Kec. Ternate Sel., Kota Ternate",MALUKU UTARA,97716.0,Indonesia,82196905151.0,0.7697882,127.3739048,https://maps.google.com/?cid=0x0:0x544146df7493c568
supermarket,Toko Bahan Bangunan,Makmur Utama Supermarket Bahan Bangunan,"Jl. Yasin Gamsungi No.2 Kec. ternate tengah, Kel, Makassar Tim., Makassar Timur, Kota Ternate, Maluku Utara 97724","Kel, Makassar Tim., Makassar Timur, Kota Ternate",MALUKU UTARA,97724.0,Indonesia,8114313799.0,0.7940352,127.3876695,https://maps.google.com/?cid=0x0:0x2f492ae87bf64247
supermarket,Pasar bahan bangunan,Intisari Warehouse,"Q99F+9C3, Bastiong Talangame, Kec. Ternate Sel., Kota Ternate, Maluku Utara","Kota Ternate, Maluku Utara",MALUKU UTARA,,Indonesia,9213122968.0,0.7683759,127.373549,https://maps.google.com/?cid=0x0:0x9f7e80833f6bb536
supermarket,supermarket,Kec. Ternate Sel.,"Kota Ternate, Maluku Utara","Kota Ternate, Maluku Utara",MALUKU UTARA,,Indonesia,,0.7676108,127.3745474,https://maps.google.com/?cid=0x0:0xd0e23e4e61e3ddd0
supermarket,Toko,Dua Sekawan Swalayan,"Jl. Jati Besar No.502, Mangga Dua Utara, Kec. Ternate Sel., Kota Ternate, Maluku Utara","Kota Ternate, Maluku Utara",MALUKU UTARA,,Indonesia,9213127268.0,0.7775638,127.3767447,https://maps.google.com/?cid=0x0:0xce14aca6705f0fc
supermarket,Minimarket,kalumata Indah,"Q968+CHW, Jl. Santo Pedro, Kalumata, Kec. Ternate Sel., Kota Ternate, Maluku Utara","Kota Ternate, Maluku Utara",MALUKU UTARA,,Indonesia,8121964499.0,0.7611243,127.3664591,https://maps.google.com/?cid=0x0:0x94ad005767f61e78
supermarket,Toko Swalayan,Toko Rizky,"Q968+XRR, Kalumata, Kec. Ternate Sel., Kota Ternate, Maluku Utara","Kota Ternate, Maluku Utara",MALUKU UTARA,,Indonesia,81243576349.0,0.7624858,127.3670257,https://maps.google.com/?cid=0x0:0x5afc272adbc29eed
supermarket,Toko Perhiasan,Rajawali Mart,"Q84G+5CW, Jl. Pertamina, Sasa, Kec. Ternate Sel., Kota Ternate, Maluku Utara","Kota Ternate, Maluku Utara",MALUKU UTARA,,Indonesia,,0.7553693,127.3271529,https://maps.google.com/?cid=0x0:0x496ae344da74a5a2
supermarket,Toko Swalayan,Runimidwife,"Kalumata, Kec. Ternate Sel., Kota Ternate, Maluku Utara 97718","Kec. Ternate Sel., Kota Ternate",MALUKU UTARA,97718.0,Indonesia,85236871877.0,0.7609139,127.3634155,https://maps.google.com/?cid=0x0:0xa1a1e37e35ce44ae
supermarket,Toko makanan beku,Top_produk,"kartika, Bastiong Talangame, Kec. Ternate Sel., Kota Ternate, Maluku Utara 97716","Bastiong Talangame, Kec. Ternate Sel., Kota Ternate",MALUKU UTARA,97716.0,Indonesia,82196905151.0,0.7697882,127.3739048,https://maps.google.com/?cid=0x0:0x544146df7493c568
supermarket,Toko Swalayan,Alfamidi Jati Lurus,"Q9FF+CM6, Jati, Kec. Ternate Sel., Kota Ternate, Maluku Utara","Kota Ternate, Maluku Utara",MALUKU UTARA,,Indonesia,81325838734.0,0.7735362,127.3741472,https://maps.google.com/?cid=0x0:0xc269e77483278a8d
supermarket,Pusat Perbelanjaan,Hypermart Ternate,"Q9XQ+G5G, Jl. Sultan M. Djabir Sjah Kel, RT.007/RW.004, Soa Sio, Kec. Kota Ternate Utara, Maluku Utara",Maluku Utara,MALUKU UTARA,,Indonesia,9213113010.0,0.7989861,127.3884829,https://maps.google.com/?cid=0x0:0xff03748bad776036
supermarket,Toko Swalayan,toko serba ada,"Jl. Raya Bastiong No.9, Bastiong Talangame, Kec. Ternate Sel., Kota Ternate, Maluku Utara","Kota Ternate, Maluku Utara",MALUKU UTARA,,Indonesia,,0.7706619,127.3755754,https://maps.google.com/?cid=0x0:0x23d37e503e510a2e
supermarket,Pusat Perbelanjaan,Fish Mart Dan Toko Oleh-Oleh Maluku Utara,"Q99G+GVQ Kompleks PPN, Bastiong Talangame, Kec. Ternate Sel., Kota Ternate, Maluku Utara","Kota Ternate, Maluku Utara",MALUKU UTARA,,Indonesia,811436062.0,0.7688449,127.3772471,https://maps.google.com/?cid=0x0:0x91b15b3a099b55e9
supermarket,Toko Swalayan,Toko Ekalista,"Q97C+4JG, Jl. Raya Bastiong, Kayu Merah, Kec. Ternate Sel., Kota Ternate, Maluku Utara","Kota Ternate, Maluku Utara",MALUKU UTARA,,Indonesia,82193982212.0,0.7628142,127.3715663,https://maps.google.com/?cid=0x0:0x3b7e8406d22cc64d
supermarket,Toko Bahan Bangunan,Makmur Utama Supermarket Bahan Bangunan,"Jl. Yasin Gamsungi No.2 Kec. ternate tengah, Kel, Makassar Tim., Makassar Timur, Kota Ternate, Maluku Utara 97724","Kel, Makassar Tim., Makassar Timur, Kota Ternate",MALUKU UTARA,97724.0,Indonesia,8114313799.0,0.7940352,127.3876695,https://maps.google.com/?cid=0x0:0x2f492ae87bf64247
supermarket,Pasar bahan bangunan,Intisari Warehouse,"Q99F+9C3, Bastiong Talangame, Kec. Ternate Sel., Kota Ternate, Maluku Utara","Kota Ternate, Maluku Utara",MALUKU UTARA,,Indonesia,9213122968.0,0.7683759,127.373549,https://maps.google.com/?cid=0x0:0x9f7e80833f6bb536
supermarket,supermarket,Kec. Ternate Sel.,"Kota Ternate, Maluku Utara","Kota Ternate, Maluku Utara",MALUKU UTARA,,Indonesia,,0.7676108,127.3745474,https://maps.google.com/?cid=0x0:0xd0e23e4e61e3ddd0
supermarket,Toko,Dua Sekawan Swalayan,"Jl. Jati Besar No.502, Mangga Dua Utara, Kec. Ternate Sel., Kota Ternate, Maluku Utara","Kota Ternate, Maluku Utara",MALUKU UTARA,,Indonesia,9213127268.0,0.7775638,127.3767447,https://maps.google.com/?cid=0x0:0xce14aca6705f0fc
supermarket,Toko Swalayan,Toko Rizky,"Q968+XRR, Kalumata, Kec. Ternate Sel., Kota Ternate, Maluku Utara","Kota Ternate, Maluku Utara",MALUKU UTARA,,Indonesia,81243576349.0,0.7624858,127.3670257,https://maps.google.com/?cid=0x0:0x5afc272adbc29eed
supermarket,Toko makanan beku,Top_produk,"kartika, Bastiong Talangame, Kec. Ternate Sel., Kota Ternate, Maluku Utara 97716","Bastiong Talangame, Kec. Ternate Sel., Kota Ternate",MALUKU UTARA,97716.0,Indonesia,82196905151.0,0.7697882,127.3739048,https://maps.google.com/?cid=0x0:0x544146df7493c568
supermarket,Toko Swalayan,Alfamidi Jati Lurus,"Q9FF+CM6, Jati, Kec. Ternate Sel., Kota Ternate, Maluku Utara","Kota Ternate, Maluku Utara",MALUKU UTARA,,Indonesia,81325838734.0,0.7735362,127.3741472,https://maps.google.com/?cid=0x0:0xc269e77483278a8d
supermarket,Toko Swalayan,toko serba ada,"Jl. Raya Bastiong No.9, Bastiong Talangame, Kec. Ternate Sel., Kota Ternate, Maluku Utara","Kota Ternate, Maluku Utara",MALUKU UTARA,,Indonesia,,0.7706619,127.3755754,https://maps.google.com/?cid=0x0:0x23d37e503e510a2e
supermarket,Pusat Perbelanjaan,Fish Mart Dan Toko Oleh-Oleh Maluku Utara,"Q99G+GVQ Kompleks PPN, Bastiong Talangame, Kec. Ternate Sel., Kota Ternate, Maluku Utara","Kota Ternate, Maluku Utara",MALUKU UTARA,,Indonesia,811436062.0,0.7688449,127.3772471,https://maps.google.com/?cid=0x0:0x91b15b3a099b55e9
supermarket,Toko Swalayan,Toko Ekalista,"Q97C+4JG, Jl. Raya Bastiong, Kayu Merah, Kec. Ternate Sel., Kota Ternate, Maluku Utara","Kota Ternate, Maluku Utara",MALUKU UTARA,,Indonesia,82193982212.0,0.7628142,127.3715663,https://maps.google.com/?cid=0x0:0x3b7e8406d22cc64d
supermarket,Minimarket,Alfamidi Gambesi,"Q84M+QXQ, Gambesi, Kec. Ternate Sel., Kota Ternate, Maluku Utara","Kota Ternate, Maluku Utara",MALUKU UTARA,,Indonesia,81354669558.0,0.7569597,127.3349742,https://maps.google.com/?cid=0x0:0x24274bb1b483ab6
supermarket,Toko Swalayan,Alfamidi Jati 2,"Q9GG+PFF, Jati, Kec. Ternate Sel., Kota Ternate, Maluku Utara","Kota Ternate, Maluku Utara",MALUKU UTARA,,Indonesia,,0.7768043,127.3761699,https://maps.google.com/?cid=0x0:0xa97305cd97ee7cef
supermarket,Toko Bahan Bangunan,Makmur Utama Supermarket Bahan Bangunan,"Jl. Yasin Gamsungi No.2 Kec. ternate tengah, Kel, Makassar Tim., Makassar Timur, Kota Ternate, Maluku Utara 97724","Kel, Makassar Tim., Makassar Timur, Kota Ternate",MALUKU UTARA,97724.0,Indonesia,8114313799.0,0.7940352,127.3876695,https://maps.google.com/?cid=0x0:0x2f492ae87bf64247
supermarket,Pasar bahan bangunan,Intisari Warehouse,"Q99F+9C3, Bastiong Talangame, Kec. Ternate Sel., Kota Ternate, Maluku Utara","Kota Ternate, Maluku Utara",MALUKU UTARA,,Indonesia,9213122968.0,0.7683759,127.373549,https://maps.google.com/?cid=0x0:0x9f7e80833f6bb536
supermarket,Toko bahan makanan,Alfamidi Kayu Merah,"Q969+PJ6, Kayu Merah, Kec. Ternate Sel., Kota Ternate, Maluku Utara","Kota Ternate, Maluku Utara",MALUKU UTARA,,Indonesia,,0.7617912,127.3690059,https://maps.google.com/?cid=0x0:0x2586311f87460ed9
supermarket,Toko bahan makanan,PT Berkat Anugrah Abadi,"Bastiong Talangame, Kec. Ternate Sel., Kota Ternate, Maluku Utara 97731","Kec. Ternate Sel., Kota Ternate",MALUKU UTARA,97731.0,Indonesia,9216202695.0,0.7665855,127.37592,https://maps.google.com/?cid=0x0:0x3de53bb220c9a1c6
supermarket,supermarket,Kec. Ternate Sel.,"Kota Ternate, Maluku Utara","Kota Ternate, Maluku Utara",MALUKU UTARA,,Indonesia,,0.7676108,127.3745474,https://maps.google.com/?cid=0x0:0xd0e23e4e61e3ddd0
supermarket,Toko,Dua Sekawan Swalayan,"Jl. Jati Besar No.502, Mangga Dua Utara, Kec. Ternate Sel., Kota Ternate, Maluku Utara","Kota Ternate, Maluku Utara",MALUKU UTARA,,Indonesia,9213127268.0,0.7775638,127.3767447,https://maps.google.com/?cid=0x0:0xce14aca6705f0fc
supermarket,Pusat Perbelanjaan,Hypermart Ternate,"Q9XQ+G5G, Jl. Sultan M. Djabir Sjah Kel, RT.007/RW.004, Soa Sio, Kec. Kota Ternate Utara, Maluku Utara",Maluku Utara,MALUKU UTARA,,Indonesia,9213113010.0,0.7989861,127.3884829,https://maps.google.com/?cid=0x0:0xff03748bad776036
supermarket,Toko Bahan Bangunan,Makmur Utama Supermarket Bahan Bangunan,"Jl. Yasin Gamsungi No.2 Kec. ternate tengah, Kel, Makassar Tim., Makassar Timur, Kota Ternate, Maluku Utara 97724","Kel, Makassar Tim., Makassar Timur, Kota Ternate",MALUKU UTARA,97724.0,Indonesia,8114313799.0,0.7940352,127.3876695,https://maps.google.com/?cid=0x0:0x2f492ae87bf64247
supermarket,Minimarket,kalumata Indah,"Q968+CHW, Jl. Santo Pedro, Kalumata, Kec. Ternate Sel., Kota Ternate, Maluku Utara","Kota Ternate, Maluku Utara",MALUKU UTARA,,Indonesia,8121964499.0,0.7611243,127.3664591,https://maps.google.com/?cid=0x0:0x94ad005767f61e78
supermarket,Toko Swalayan,Toko Rizky,"Q968+XRR, Kalumata, Kec. Ternate Sel., Kota Ternate, Maluku Utara","Kota Ternate, Maluku Utara",MALUKU UTARA,,Indonesia,81243576349.0,0.7624858,127.3670257,https://maps.google.com/?cid=0x0:0x5afc272adbc29eed
supermarket,Toko Swalayan,Eko.wahyudi,"Q968+F4P, Jl. Santo Pedro, Kalumata, Kec. Ternate Sel., Kota Ternate, Maluku Utara","Kota Ternate, Maluku Utara",MALUKU UTARA,,Indonesia,81243916824.0,0.7612128,127.3653412,https://maps.google.com/?cid=0x0:0x7c954899cb915219
supermarket,Toko makanan beku,Top_produk,"kartika, Bastiong Talangame, Kec. Ternate Sel., Kota Ternate, Maluku Utara 97716","Bastiong Talangame, Kec. Ternate Sel., Kota Ternate",MALUKU UTARA,97716.0,Indonesia,82196905151.0,0.7697882,127.3739048,https://maps.google.com/?cid=0x0:0x544146df7493c568
supermarket,Toko Swalayan,Alfamidi Jati Lurus,"Q9FF+CM6, Jati, Kec. Ternate Sel., Kota Ternate, Maluku Utara","Kota Ternate, Maluku Utara",MALUKU UTARA,,Indonesia,81325838734.0,0.7735362,127.3741472,https://maps.google.com/?cid=0x0:0xc269e77483278a8d
supermarket,Toko Swalayan,toko serba ada,"Jl. Raya Bastiong No.9, Bastiong Talangame, Kec. Ternate Sel., Kota Ternate, Maluku Utara","Kota Ternate, Maluku Utara",MALUKU UTARA,,Indonesia,,0.7706619,127.3755754,https://maps.google.com/?cid=0x0:0x23d37e503e510a2e
supermarket,Pusat Perbelanjaan,Fish Mart Dan Toko Oleh-Oleh Maluku Utara,"Q99G+GVQ Kompleks PPN, Bastiong Talangame, Kec. Ternate Sel., Kota Ternate, Maluku Utara","Kota Ternate, Maluku Utara",MALUKU UTARA,,Indonesia,811436062.0,0.7688449,127.3772471,https://maps.google.com/?cid=0x0:0x91b15b3a099b55e9
supermarket,Toko Swalayan,Toko Ekalista,"Q97C+4JG, Jl. Raya Bastiong, Kayu Merah, Kec. Ternate Sel., Kota Ternate, Maluku Utara","Kota Ternate, Maluku Utara",MALUKU UTARA,,Indonesia,82193982212.0,0.7628142,127.3715663,https://maps.google.com/?cid=0x0:0x3b7e8406d22cc64d
supermarket,Toko Swalayan,Alfamidi Jati 2,"Q9GG+PFF, Jati, Kec. Ternate Sel., Kota Ternate, Maluku Utara","Kota Ternate, Maluku Utara",MALUKU UTARA,,Indonesia,,0.7768043,127.3761699,https://maps.google.com/?cid=0x0:0xa97305cd97ee7cef
supermarket,Pasar bahan bangunan,Intisari Warehouse,"Q99F+9C3, Bastiong Talangame, Kec. Ternate Sel., Kota Ternate, Maluku Utara","Kota Ternate, Maluku Utara",MALUKU UTARA,,Indonesia,9213122968.0,0.7683759,127.373549,https://maps.google.com/?cid=0x0:0x9f7e80833f6bb536
supermarket,supermarket,Maluku Utara,,Maluku Utara,MALUKU UTARA,,Indonesia,,1.5709993,127.8087693,https://maps.google.com/?cid=0x0:0x1030bfbcaf71ac0
supermarket,Toko Bahan Bangunan,Makmur Utama Supermarket Bahan Bangunan,"Jl. Yasin Gamsungi No.2 Kec. ternate tengah, Kel, Makassar Tim., Makassar Timur, Kota Ternate, Maluku Utara 97724","Kel, Makassar Tim., Makassar Timur, Kota Ternate",MALUKU UTARA,97724.0,Indonesia,8114313799.0,0.7940352,127.3876695,https://maps.google.com/?cid=0x0:0x2f492ae87bf64247
supermarket,Toko,Dua Sekawan Swalayan,"Jl. Jati Besar No.502, Mangga Dua Utara, Kec. Ternate Sel., Kota Ternate, Maluku Utara","Kota Ternate, Maluku Utara",MALUKU UTARA,,Indonesia,9213127268.0,0.7775638,127.3767447,https://maps.google.com/?cid=0x0:0xce14aca6705f0fc
supermarket,Pusat Perbelanjaan,Hypermart Ternate,"Q9XQ+G5G, Jl. Sultan M. Djabir Sjah Kel, RT.007/RW.004, Soa Sio, Kec. Kota Ternate Utara, Maluku Utara",Maluku Utara,MALUKU UTARA,,Indonesia,9213113010.0,0.7989861,127.3884829,https://maps.google.com/?cid=0x0:0xff03748bad776036
supermarket,Toko Swalayan,Tara No Ate : Oleh-oleh Khas Ternate,"Jl. Tapak Raya II, Gamalama, Maluku Utara",Maluku Utara,MALUKU UTARA,,Indonesia,,0.7902013,127.390588,https://maps.google.com/?cid=0x0:0x147e3e170043ea32
supermarket,Toko Perhiasan,Rajawali Mart,"Q84G+5CW, Jl. Pertamina, Sasa, Kec. Ternate Sel., Kota Ternate, Maluku Utara","Kota Ternate, Maluku Utara",MALUKU UTARA,,Indonesia,,0.7553693,127.3271529,https://maps.google.com/?cid=0x0:0x496ae344da74a5a2
supermarket,Toko Swalayan,Alfamidi Jati Lurus,"Q9FF+CM6, Jati, Kec. Ternate Sel., Kota Ternate, Maluku Utara","Kota Ternate, Maluku Utara",MALUKU UTARA,,Indonesia,81325838734.0,0.7735362,127.3741472,https://maps.google.com/?cid=0x0:0xc269e77483278a8d
supermarket,Grosir Buah,Pasar Buah,"Q9VQ+FRV, Jl. Sultan M. Djabir Sjah, Kota Ternate, Maluku Utara","Kota Ternate, Maluku Utara",MALUKU UTARA,,Indonesia,,0.7937353,127.3895485,https://maps.google.com/?cid=0x0:0x6eb3d7b4ad46c6d5
supermarket,Minimarket,INDOMARET PEMUDA,"R94P+X3M, Toboleu, Kec. Kota Ternate Utara, Kota Ternate, Maluku Utara","Kota Ternate, Maluku Utara",MALUKU UTARA,,Indonesia,81340561606.0,0.8074711,127.3851563,https://maps.google.com/?cid=0x0:0x80f8e0ce56b5aee8
supermarket,Minimarket,Alfamidi Kota Baru,"Q9HM+HWM, Jl. Perikanan, Kota Baru, Kec. Ternate Tengah, Kota Ternate, Maluku Utara","Kota Ternate, Maluku Utara",MALUKU UTARA,,Indonesia,,0.7789717,127.3847892,https://maps.google.com/?cid=0x0:0xca1b01a7fad46fbf
supermarket,Minimarket,INDOMARET POINT - Bandara Sultan Babullah,"R9MG+8G5, Tabam, Kec. Kota Ternate Utara, Kota Ternate, Maluku Utara","Kota Ternate, Maluku Utara",MALUKU UTARA,,Indonesia,,0.8332719,127.376355,https://maps.google.com/?cid=0x0:0xd1f945aa5465735a
supermarket,Minimarket,INDOMARET KAPITAN PATTIMURA,"Q9QJ+25G, Jl. Kapitan Pattimura, Kalumpang, Kec. Ternate Tengah, Kota Ternate, Maluku Utara","Kota Ternate, Maluku Utara",MALUKU UTARA,,Indonesia,,0.7875708,127.3804582,https://maps.google.com/?cid=0x0:0xec76bd435e35274e
supermarket,Toko Swalayan,Alfamidi Mangga Dua,"Q9CG+WP4, Mangga Dua, Kec. Ternate Sel., Kota Ternate, Maluku Utara","Kota Ternate, Maluku Utara",MALUKU UTARA,,Indonesia,81340561606.0,0.7722536,127.3768385,https://maps.google.com/?cid=0x0:0xab8de07e53ba2b93
supermarket,Pusat Perbelanjaan,Muara Mall,"Jl. Nukila No.50, Gamalama, Kec. Ternate Tengah, Kota Ternate, Maluku Utara 97722","Gamalama, Kec. Ternate Tengah, Kota Ternate",MALUKU UTARA,97722.0,Indonesia,,0.7912455,127.3864239,https://maps.google.com/?cid=0x0:0x2c6d1f216770a71
supermarket,supermarket,Kec. Kota Ternate Utara,"Kota Ternate, Maluku Utara","Kota Ternate, Maluku Utara",MALUKU UTARA,,Indonesia,,0.8117888,127.386384,https://maps.google.com/?cid=0x0:0xa0affa54fbe679bb
supermarket,Pusat Perbelanjaan,Hypermart Ternate,"Q9XQ+G5G, Jl. Sultan M. Djabir Sjah Kel, RT.007/RW.004, Soa Sio, Kec. Kota Ternate Utara, Maluku Utara",Maluku Utara,MALUKU UTARA,,Indonesia,9213113010.0,0.7989861,127.3884829,https://maps.google.com/?cid=0x0:0xff03748bad776036
supermarket,Toko Swalayan,Rafa Mart TERNATE,"Q9QH+Q3H, Kalumpang, Kec. Ternate Tengah, Kota Ternate, Maluku Utara","Kota Ternate, Maluku Utara",MALUKU UTARA,,Indonesia,81342782399.0,0.7894273,127.3777316,https://maps.google.com/?cid=0x0:0xb76d56a22409784f
supermarket,Toko Bahan Bangunan,Makmur Utama Supermarket Bahan Bangunan,"Jl. Yasin Gamsungi No.2 Kec. ternate tengah, Kel, Makassar Tim., Makassar Timur, Kota Ternate, Maluku Utara 97724","Kel, Makassar Tim., Makassar Timur, Kota Ternate",MALUKU UTARA,97724.0,Indonesia,8114313799.0,0.7940352,127.3876695,https://maps.google.com/?cid=0x0:0x2f492ae87bf64247
supermarket,Toko,Dua Sekawan Swalayan,"Jl. Jati Besar No.502, Mangga Dua Utara, Kec. Ternate Sel., Kota Ternate, Maluku Utara","Kota Ternate, Maluku Utara",MALUKU UTARA,,Indonesia,9213127268.0,0.7775638,127.3767447,https://maps.google.com/?cid=0x0:0xce14aca6705f0fc
supermarket,Minimarket,INDOMARET - RAYA BATU ANGUS 170,"R9FP+92P, Akehuda, Kec. Kota Ternate Utara, Kota Ternate, Maluku Utara","Kota Ternate, Maluku Utara",MALUKU UTARA,,Indonesia,,0.8234514,127.3850807,https://maps.google.com/?cid=0x0:0xf25a9f98ba6124ad
supermarket,Toko bahan makanan,ifamoy Ternate,"R9GM+6MF, Akehuda, Kec. Kota Ternate Utara, Kota Ternate, Maluku Utara","Kota Ternate, Maluku Utara",MALUKU UTARA,,Indonesia,,0.8255545,127.3841771,https://maps.google.com/?cid=0x0:0xab60adde3f346b07
supermarket,Toko bahan makanan,Toko Sempana Prima,"Jl. Pemuda No.20, Sangaji, Kec. Kota Ternate Utara, Kota Ternate, Maluku Utara","Kota Ternate, Maluku Utara",MALUKU UTARA,,Indonesia,,0.810068,127.3852797,https://maps.google.com/?cid=0x0:0xa6399c66a7d02690
supermarket,Toko bahan makanan,Alfamidi Pemuda,"R95P+Q34, Jl. Pemuda, Sangaji, Kec. Kota Ternate Utara, Kota Ternate, Maluku Utara","Kota Ternate, Maluku Utara",MALUKU UTARA,,Indonesia,81340561606.0,0.8093756,127.3852063,https://maps.google.com/?cid=0x0:0x4bb2d1f4d9705b89
supermarket,Pusat Perbelanjaan,Multimart Ternate,"Q9RR+Q4W, Gamalama, Kota Ternate, Maluku Utara","Kota Ternate, Maluku Utara",MALUKU UTARA,,Indonesia,9213123830.0,0.7919999,127.3903253,https://maps.google.com/?cid=0x0:0x8c3646ec80a5c8c4
supermarket,Toko Swalayan,Alfamidi Salero,"Jl. Pemuda No.67, Salero, Kec. Kota Ternate Utara, Kota Ternate, Maluku Utara 97725","Salero, Kec. Kota Ternate Utara, Kota Ternate",MALUKU UTARA,97725.0,Indonesia,,0.8037896,127.3850164,https://maps.google.com/?cid=0x0:0x99851eada6cb6b24
supermarket,Pusat Perbelanjaan,Dufa Dufa,"R98Q+6Q7, Dufa Dufa, Kec. Kota Ternate Utara, Kota Ternate, Maluku Utara","Kota Ternate, Maluku Utara",MALUKU UTARA,,Indonesia,85255137892.0,0.8155311,127.3894242,https://maps.google.com/?cid=0x0:0xfedb7b144fc69d61
supermarket,Toko bahan makanan,Toko naya,"R96J+7VV, Sangaji, Kec. Kota Ternate Utara, Kota Ternate, Maluku Utara","Kota Ternate, Maluku Utara",MALUKU UTARA,,Indonesia,,0.8107408,127.3821654,https://maps.google.com/?cid=0x0:0x546ac410fd0a8f6f
supermarket,Toko Swalayan,Toko Putera Tunggal,"R98P+P3C, Dufa Dufa, Kec. Kota Ternate Utara, Kota Ternate, Maluku Utara","Kota Ternate, Maluku Utara",MALUKU UTARA,,Indonesia,85256483380.0,0.8168142,127.3851407,https://maps.google.com/?cid=0x0:0xf41b2a607d4d112e
supermarket,supermarket,Maluku Utara,,Maluku Utara,MALUKU UTARA,,Indonesia,,1.5709993,127.8087693,https://maps.google.com/?cid=0x0:0x1030bfbcaf71ac0
supermarket,Toko,Dua Sekawan Swalayan,"Jl. Jati Besar No.502, Mangga Dua Utara, Kec. Ternate Sel., Kota Ternate, Maluku Utara","Kota Ternate, Maluku Utara",MALUKU UTARA,,Indonesia,9213127268.0,0.7775638,127.3767447,https://maps.google.com/?cid=0x0:0xce14aca6705f0fc
supermarket,Toko Bahan Bangunan,Makmur Utama Supermarket Bahan Bangunan,"Jl. Yasin Gamsungi No.2 Kec. ternate tengah, Kel, Makassar Tim., Makassar Timur, Kota Ternate, Maluku Utara 97724","Kel, Makassar Tim., Makassar Timur, Kota Ternate",MALUKU UTARA,97724.0,Indonesia,8114313799.0,0.7940352,127.3876695,https://maps.google.com/?cid=0x0:0x2f492ae87bf64247
supermarket,Pusat Perbelanjaan,Hypermart Ternate,"Q9XQ+G5G, Jl. Sultan M. Djabir Sjah Kel, RT.007/RW.004, Soa Sio, Kec. Kota Ternate Utara, Maluku Utara",Maluku Utara,MALUKU UTARA,,Indonesia,9213113010.0,0.7989861,127.3884829,https://maps.google.com/?cid=0x0:0xff03748bad776036
supermarket,Toko Swalayan,Tara No Ate : Oleh-oleh Khas Ternate,"Jl. Tapak Raya II, Gamalama, Maluku Utara",Maluku Utara,MALUKU UTARA,,Indonesia,,0.7902013,127.390588,https://maps.google.com/?cid=0x0:0x147e3e170043ea32
supermarket,Toko Perhiasan,Rajawali Mart,"Q84G+5CW, Jl. Pertamina, Sasa, Kec. Ternate Sel., Kota Ternate, Maluku Utara","Kota Ternate, Maluku Utara",MALUKU UTARA,,Indonesia,,0.7553693,127.3271529,https://maps.google.com/?cid=0x0:0x496ae344da74a5a2
supermarket,Toko Swalayan,Alfamidi Jati Lurus,"Q9FF+CM6, Jati, Kec. Ternate Sel., Kota Ternate, Maluku Utara","Kota Ternate, Maluku Utara",MALUKU UTARA,,Indonesia,81325838734.0,0.7735362,127.3741472,https://maps.google.com/?cid=0x0:0xc269e77483278a8d
supermarket,Grosir Buah,Pasar Buah,"Q9VQ+FRV, Jl. Sultan M. Djabir Sjah, Kota Ternate, Maluku Utara","Kota Ternate, Maluku Utara",MALUKU UTARA,,Indonesia,,0.7937353,127.3895485,https://maps.google.com/?cid=0x0:0x6eb3d7b4ad46c6d5
supermarket,Minimarket,INDOMARET PEMUDA,"R94P+X3M, Toboleu, Kec. Kota Ternate Utara, Kota Ternate, Maluku Utara","Kota Ternate, Maluku Utara",MALUKU UTARA,,Indonesia,81340561606.0,0.8074711,127.3851563,https://maps.google.com/?cid=0x0:0x80f8e0ce56b5aee8
supermarket,Minimarket,Alfamidi Kota Baru,"Q9HM+HWM, Jl. Perikanan, Kota Baru, Kec. Ternate Tengah, Kota Ternate, Maluku Utara","Kota Ternate, Maluku Utara",MALUKU UTARA,,Indonesia,,0.7789717,127.3847892,https://maps.google.com/?cid=0x0:0xca1b01a7fad46fbf
supermarket,Minimarket,Muara Swalayan Ternate,"Muara Mall lt.1, Gamalama, Ternate Tengah, Ternate City, North Maluku","Kota Ternate, Maluku Utara",MALUKU UTARA,,Indonesia,,0.7911652,127.3864505,https://maps.google.com/?cid=0x0:0x37df62f5aa672f62
supermarket,Toko bahan makanan,Muara Mini Market,"Q9QQ+3FC, Jl. Pahlawan Revolusi, Gamalama, Kec. Ternate Tengah, Kota Ternate, Maluku Utara","Kota Ternate, Maluku Utara",MALUKU UTARA,,Indonesia,9213123515.0,0.7876975,127.3886416,https://maps.google.com/?cid=0x0:0x9ab4ec6e159d8f08
supermarket,Toko Swalayan,INDOMARET - FOLARAHA,"Q984+3XC, Jl. Folaraha, Kalumata, Kec. Ternate Sel., Kota Ternate, Maluku Utara","Kota Ternate, Maluku Utara",MALUKU UTARA,,Indonesia,,0.7651751,127.3573955,https://maps.google.com/?cid=0x0:0x3caace661927146
supermarket,Minimarket,INDOMARET KAPITAN PATTIMURA,"Q9QJ+25G, Jl. Kapitan Pattimura, Kalumpang, Kec. Ternate Tengah, Kota Ternate, Maluku Utara","Kota Ternate, Maluku Utara",MALUKU UTARA,,Indonesia,,0.7875708,127.3804582,https://maps.google.com/?cid=0x0:0xec76bd435e35274e
supermarket,supermarket,Maluku Utara,,Maluku Utara,MALUKU UTARA,,Indonesia,,1.5709993,127.8087693,https://maps.google.com/?cid=0x0:0x1030bfbcaf71ac0
supermarket,Pusat Perbelanjaan,Hypermart Ternate,"Q9XQ+G5G, Jl. Sultan M. Djabir Sjah Kel, RT.007/RW.004, Soa Sio, Kec. Kota Ternate Utara, Maluku Utara",Maluku Utara,MALUKU UTARA,,Indonesia,9213113010.0,0.7989861,127.3884829,https://maps.google.com/?cid=0x0:0xff03748bad776036
supermarket,Minimarket,kalumata Indah,"Q968+CHW, Jl. Santo Pedro, Kalumata, Kec. Ternate Sel., Kota Ternate, Maluku Utara","Kota Ternate, Maluku Utara",MALUKU UTARA,,Indonesia,8121964499.0,0.7611243,127.3664591,https://maps.google.com/?cid=0x0:0x94ad005767f61e78
supermarket,Toko Bahan Bangunan,Makmur Utama Supermarket Bahan Bangunan,"Jl. Yasin Gamsungi No.2 Kec. ternate tengah, Kel, Makassar Tim., Makassar Timur, Kota Ternate, Maluku Utara 97724","Kel, Makassar Tim., Makassar Timur, Kota Ternate",MALUKU UTARA,97724.0,Indonesia,8114313799.0,0.7940352,127.3876695,https://maps.google.com/?cid=0x0:0x2f492ae87bf64247
supermarket,Toko Perhiasan,Rajawali Mart,"Q84G+5CW, Jl. Pertamina, Sasa, Kec. Ternate Sel., Kota Ternate, Maluku Utara","Kota Ternate, Maluku Utara",MALUKU UTARA,,Indonesia,,0.7553693,127.3271529,https://maps.google.com/?cid=0x0:0x496ae344da74a5a2
supermarket,Toko Swalayan,Rafa Mart TERNATE,"Q9QH+Q3H, Kalumpang, Kec. Ternate Tengah, Kota Ternate, Maluku Utara","Kota Ternate, Maluku Utara",MALUKU UTARA,,Indonesia,81342782399.0,0.7894273,127.3777316,https://maps.google.com/?cid=0x0:0xb76d56a22409784f
supermarket,Minimarket,Muara Swalayan Ternate,"Muara Mall lt.1, Gamalama, Ternate Tengah, Ternate City, North Maluku","Kota Ternate, Maluku Utara",MALUKU UTARA,,Indonesia,,0.7911652,127.3864505,https://maps.google.com/?cid=0x0:0x37df62f5aa672f62
supermarket,supermarket,Halal mart Tubo,"RT.006/RW.002, Tubo, Kec. Kota Ternate Utara, Kota Ternate, Maluku Utara 97727","Tubo, Kec. Kota Ternate Utara, Kota Ternate",MALUKU UTARA,97727.0,Indonesia,81243271523.0,0.8244515,127.3750498,https://maps.google.com/?cid=0x0:0xbe843161da412215
supermarket,Minimarket,Toko Amril Tte,"Q9VQ+5HM, Gamalama, Kec. Ternate Tengah, Kota Ternate, Maluku Utara","Kota Ternate, Maluku Utara",MALUKU UTARA,,Indonesia,,0.7929382,127.388906,https://maps.google.com/?cid=0x0:0x94ba0a04858cef1b
supermarket,Minimarket,Dua Sekawan Salero (DS10),"R93M+5X6, Jl. Pemuda, Salero, Kec. Kota Ternate Utara, Kota Ternate, Maluku Utara 97727","Jl. Pemuda, Salero, Kec. Kota Ternate Utara, Kota Ternate",MALUKU UTARA,97727.0,Indonesia,,0.8029229,127.3849,https://maps.google.com/?cid=0x0:0xf98112aa605c6f70
supermarket,Toko Alat Tulis Kantor,Garuda Elok Toko,"Jl. Pahlawan Revolusi No.123, Gamalama, Kec. Ternate Tengah, Kota Ternate, Maluku Utara","Kota Ternate, Maluku Utara",MALUKU UTARA,,Indonesia,92121437.0,0.7898763,127.3882938,https://maps.google.com/?cid=0x0:0xd0e5a678764cb440
supermarket,Toko Pakaian,Atala's Store,"Jl. Pertamina, Tabam, Kec. Kota Ternate Utara, Kota Ternate, Maluku Utara 97727","Tabam, Kec. Kota Ternate Utara, Kota Ternate",MALUKU UTARA,97727.0,Indonesia,,0.8344324,127.3817572,https://maps.google.com/?cid=0x0:0x8bd74854005a1ff5
supermarket,Minimarket,Dua Sekawan Sabia (DS09),"R95P+W62, Sangaji, Kec. Kota Ternate Utara, Kota Ternate, Maluku Utara","Kota Ternate, Maluku Utara",MALUKU UTARA,,Indonesia,,0.8097614,127.385506,https://maps.google.com/?cid=0x0:0xd760b3bd99fd7562
supermarket,supermarket,NR Frozen,"Jl. Pemuda, Sangaji, Kec. Kota Ternate Utara, Kota Ternate, Maluku Utara 97727","Sangaji, Kec. Kota Ternate Utara, Kota Ternate",MALUKU UTARA,97727.0,Indonesia,82188170757.0,0.809,127.3852186,https://maps.google.com/?cid=0x0:0x12ef15cf898e538e
supermarket,supermarket,Maluku Utara,,Maluku Utara,MALUKU UTARA,,Indonesia,,1.5709993,127.8087693,https://maps.google.com/?cid=0x0:0x1030bfbcaf71ac0
supermarket,Toko,Dua Sekawan Swalayan,"Jl. Jati Besar No.502, Mangga Dua Utara, Kec. Ternate Sel., Kota Ternate, Maluku Utara","Kota Ternate, Maluku Utara",MALUKU UTARA,,Indonesia,9213127268.0,0.7775638,127.3767447,https://maps.google.com/?cid=0x0:0xce14aca6705f0fc
supermarket,Toko Swalayan,Rafa Mart TERNATE,"Q9QH+Q3H, Kalumpang, Kec. Ternate Tengah, Kota Ternate, Maluku Utara","Kota Ternate, Maluku Utara",MALUKU UTARA,,Indonesia,81342782399.0,0.7894273,127.3777316,https://maps.google.com/?cid=0x0:0xb76d56a22409784f
supermarket,Pusat Perbelanjaan,Hypermart Ternate,"Q9XQ+G5G, Jl. Sultan M. Djabir Sjah Kel, RT.007/RW.004, Soa Sio, Kec. Kota Ternate Utara, Maluku Utara",Maluku Utara,MALUKU UTARA,,Indonesia,9213113010.0,0.7989861,127.3884829,https://maps.google.com/?cid=0x0:0xff03748bad776036
supermarket,Toko Swalayan,Tara No Ate : Oleh-oleh Khas Ternate,"Jl. Tapak Raya II, Gamalama, Maluku Utara",Maluku Utara,MALUKU UTARA,,Indonesia,,0.7902013,127.390588,https://maps.google.com/?cid=0x0:0x147e3e170043ea32
supermarket,Minimarket,kalumata Indah,"Q968+CHW, Jl. Santo Pedro, Kalumata, Kec. Ternate Sel., Kota Ternate, Maluku Utara","Kota Ternate, Maluku Utara",MALUKU UTARA,,Indonesia,8121964499.0,0.7611243,127.3664591,https://maps.google.com/?cid=0x0:0x94ad005767f61e78
supermarket,Toko Perhiasan,Rajawali Mart,"Q84G+5CW, Jl. Pertamina, Sasa, Kec. Ternate Sel., Kota Ternate, Maluku Utara","Kota Ternate, Maluku Utara",MALUKU UTARA,,Indonesia,,0.7553693,127.3271529,https://maps.google.com/?cid=0x0:0x496ae344da74a5a2
supermarket,Minimarket,Muara Swalayan Ternate,"Muara Mall lt.1, Gamalama, Ternate Tengah, Ternate City, North Maluku","Kota Ternate, Maluku Utara",MALUKU UTARA,,Indonesia,,0.7911652,127.3864505,https://maps.google.com/?cid=0x0:0x37df62f5aa672f62
supermarket,Toko bahan makanan,Muara Mini Market,"Q9QQ+3FC, Jl. Pahlawan Revolusi, Gamalama, Kec. Ternate Tengah, Kota Ternate, Maluku Utara","Kota Ternate, Maluku Utara",MALUKU UTARA,,Indonesia,9213123515.0,0.7876975,127.3886416,https://maps.google.com/?cid=0x0:0x9ab4ec6e159d8f08
supermarket,Minimarket,Alfamidi Kota Baru,"Q9HM+HWM, Jl. Perikanan, Kota Baru, Kec. Ternate Tengah, Kota Ternate, Maluku Utara","Kota Ternate, Maluku Utara",MALUKU UTARA,,Indonesia,,0.7789717,127.3847892,https://maps.google.com/?cid=0x0:0xca1b01a7fad46fbf
supermarket,Toko Swalayan,Toko Dewangga,"Salero, Kec. Kota Ternate Utara, Kota Ternate, Maluku Utara","Kota Ternate, Maluku Utara",MALUKU UTARA,,Indonesia,,0.8028452,127.3859495,https://maps.google.com/?cid=0x0:0x976140bc4dedf822
supermarket,Toko Swalayan,INDOMARET - FOLARAHA,"Q984+3XC, Jl. Folaraha, Kalumata, Kec. Ternate Sel., Kota Ternate, Maluku Utara","Kota Ternate, Maluku Utara",MALUKU UTARA,,Indonesia,,0.7651751,127.3573955,https://maps.google.com/?cid=0x0:0x3caace661927146
supermarket,Minimarket,Toko Amril Tte,"Q9VQ+5HM, Gamalama, Kec. Ternate Tengah, Kota Ternate, Maluku Utara","Kota Ternate, Maluku Utara",MALUKU UTARA,,Indonesia,,0.7929382,127.388906,https://maps.google.com/?cid=0x0:0x94ba0a04858cef1b
supermarket,Toko Swalayan,Alfamidi,"Q9PG+MJ2, Maliaro, Kec. Ternate Tengah, Kota Ternate, Maluku Utara","Kota Ternate, Maluku Utara",MALUKU UTARA,,Indonesia,,0.7866011,127.3773621,https://maps.google.com/?cid=0x0:0xe6fe65cfdc018f13
supermarket,supermarket,Maluku Utara,,Maluku Utara,MALUKU UTARA,,Indonesia,,1.5709993,127.8087693,https://maps.google.com/?cid=0x0:0x1030bfbcaf71ac0
supermarket,Toko,Dua Sekawan Swalayan,"Jl. Jati Besar No.502, Mangga Dua Utara, Kec. Ternate Sel., Kota Ternate, Maluku Utara","Kota Ternate, Maluku Utara",MALUKU UTARA,,Indonesia,9213127268.0,0.7775638,127.3767447,https://maps.google.com/?cid=0x0:0xce14aca6705f0fc
supermarket,Toko Swalayan,Rafa Mart TERNATE,"Q9QH+Q3H, Kalumpang, Kec. Ternate Tengah, Kota Ternate, Maluku Utara","Kota Ternate, Maluku Utara",MALUKU UTARA,,Indonesia,81342782399.0,0.7894273,127.3777316,https://maps.google.com/?cid=0x0:0xb76d56a22409784f
supermarket,Toko Bahan Bangunan,Makmur Utama Supermarket Bahan Bangunan,"Jambula, Kec. Pulau Ternate, Kota Ternate, Maluku Utara","Kota Ternate, Maluku Utara",MALUKU UTARA,,Indonesia,8114313899.0,0.7581804,127.3220409,https://maps.google.com/?cid=0x0:0xe3a01731f7851efa
supermarket,Pusat Perbelanjaan,Hypermart Ternate,"Q9XQ+G5G, Jl. Sultan M. Djabir Sjah Kel, RT.007/RW.004, Soa Sio, Kec. Kota Ternate Utara, Maluku Utara",Maluku Utara,MALUKU UTARA,,Indonesia,9213113010.0,0.7989861,127.3884829,https://maps.google.com/?cid=0x0:0xff03748bad776036
supermarket,Toko Swalayan,Tara No Ate : Oleh-oleh Khas Ternate,"Jl. Tapak Raya II, Gamalama, Maluku Utara",Maluku Utara,MALUKU UTARA,,Indonesia,,0.7902013,127.390588,https://maps.google.com/?cid=0x0:0x147e3e170043ea32
supermarket,Toko Swalayan,Selecta mini market,"Q9QP+PWX, Jl. Nukila, Gamalama, Kec. Ternate Tengah, Kota Ternate, Maluku Utara","Kota Ternate, Maluku Utara",MALUKU UTARA,,Indonesia,9213121869.0,0.7893521,127.3873567,https://maps.google.com/?cid=0x0:0xfb02d513f6556bf1
supermarket,Toko Perhiasan,Rajawali Mart,"Q84G+5CW, Jl. Pertamina, Sasa, Kec. Ternate Sel., Kota Ternate, Maluku Utara","Kota Ternate, Maluku Utara",MALUKU UTARA,,Indonesia,,0.7553693,127.3271529,https://maps.google.com/?cid=0x0:0x496ae344da74a5a2
supermarket,Minimarket,Muara Swalayan Ternate,"Muara Mall lt.1, Gamalama, Ternate Tengah, Ternate City, North Maluku","Kota Ternate, Maluku Utara",MALUKU UTARA,,Indonesia,,0.7911652,127.3864505,https://maps.google.com/?cid=0x0:0x37df62f5aa672f62
supermarket,Minimarket,Toko Amril Tte,"Q9VQ+5HM, Gamalama, Kec. Ternate Tengah, Kota Ternate, Maluku Utara","Kota Ternate, Maluku Utara",MALUKU UTARA,,Indonesia,,0.7929382,127.388906,https://maps.google.com/?cid=0x0:0x94ba0a04858cef1b
supermarket,Minimarket,Dua Sekawan Sabia (DS09),"R95P+W62, Sangaji, Kec. Kota Ternate Utara, Kota Ternate, Maluku Utara","Kota Ternate, Maluku Utara",MALUKU UTARA,,Indonesia,,0.8097614,127.385506,https://maps.google.com/?cid=0x0:0xd760b3bd99fd7562
supermarket,Toko Alat Tulis Kantor,Garuda Elok Toko,"Jl. Pahlawan Revolusi No.123, Gamalama, Kec. Ternate Tengah, Kota Ternate, Maluku Utara","Kota Ternate, Maluku Utara",MALUKU UTARA,,Indonesia,92121437.0,0.7898763,127.3882938,https://maps.google.com/?cid=0x0:0xd0e5a678764cb440
supermarket,Lapangan Football,Malut United Official Store Ternate,"Jl. Juma Puasa No.19, Santiong, Kec. Ternate Tengah, Kota Ternate, Maluku Utara 97722","Santiong, Kec. Ternate Tengah, Kota Ternate",MALUKU UTARA,97722.0,Indonesia,82114321604.0,0.7910477,127.3850613,https://maps.google.com/?cid=0x0:0xbd3fc81f4266fd3e
supermarket,Toko Bahan Bangunan,Toko makmur utama,"Jl. Pahlawan Revolusi No.132, Gamalama, Kec. Ternate Tengah, Kota Ternate, Maluku Utara","Kota Ternate, Maluku Utara",MALUKU UTARA,,Indonesia,,0.7876953,127.3886512,https://maps.google.com/?cid=0x0:0x5f7b6138c97f4e8
supermarket,supermarket,Maluku Utara,,Maluku Utara,MALUKU UTARA,,Indonesia,,1.5709993,127.8087693,https://maps.google.com/?cid=0x0:0x1030bfbcaf71ac0
supermarket,Toko Swalayan,Rafa Mart TERNATE,"Q9QH+Q3H, Kalumpang, Kec. Ternate Tengah, Kota Ternate, Maluku Utara","Kota Ternate, Maluku Utara",MALUKU UTARA,,Indonesia,81342782399.0,0.7894273,127.3777316,https://maps.google.com/?cid=0x0:0xb76d56a22409784f
supermarket,Toko,Dua Sekawan Swalayan,"Jl. Jati Besar No.502, Mangga Dua Utara, Kec. Ternate Sel., Kota Ternate, Maluku Utara","Kota Ternate, Maluku Utara",MALUKU UTARA,,Indonesia,9213127268.0,0.7775638,127.3767447,https://maps.google.com/?cid=0x0:0xce14aca6705f0fc
supermarket,Toko Bahan Bangunan,Makmur Utama Supermarket Bahan Bangunan,"Jl. Yasin Gamsungi No.2 Kec. ternate tengah, Kel, Makassar Tim., Makassar Timur, Kota Ternate, Maluku Utara 97724","Kel, Makassar Tim., Makassar Timur, Kota Ternate",MALUKU UTARA,97724.0,Indonesia,8114313799.0,0.7940352,127.3876695,https://maps.google.com/?cid=0x0:0x2f492ae87bf64247
supermarket,Minimarket,Muara Swalayan Ternate,"Muara Mall lt.1, Gamalama, Ternate Tengah, Ternate City, North Maluku","Kota Ternate, Maluku Utara",MALUKU UTARA,,Indonesia,,0.7911652,127.3864505,https://maps.google.com/?cid=0x0:0x37df62f5aa672f62
supermarket,Toko Swalayan,Selecta mini market,"Q9QP+PWX, Jl. Nukila, Gamalama, Kec. Ternate Tengah, Kota Ternate, Maluku Utara","Kota Ternate, Maluku Utara",MALUKU UTARA,,Indonesia,9213121869.0,0.7893521,127.3873567,https://maps.google.com/?cid=0x0:0xfb02d513f6556bf1
supermarket,Toko Bahan Bangunan,Makmur Utama Supermarket Bahan Bangunan,"Jambula, Kec. Pulau Ternate, Kota Ternate, Maluku Utara","Kota Ternate, Maluku Utara",MALUKU UTARA,,Indonesia,8114313899.0,0.7581804,127.3220409,https://maps.google.com/?cid=0x0:0xe3a01731f7851efa
supermarket,Toko Perhiasan,Rajawali Mart,"Q84G+5CW, Jl. Pertamina, Sasa, Kec. Ternate Sel., Kota Ternate, Maluku Utara","Kota Ternate, Maluku Utara",MALUKU UTARA,,Indonesia,,0.7553693,127.3271529,https://maps.google.com/?cid=0x0:0x496ae344da74a5a2
supermarket,Toko bahan makanan,Muara Mini Market,"Q9QQ+3FC, Jl. Pahlawan Revolusi, Gamalama, Kec. Ternate Tengah, Kota Ternate, Maluku Utara","Kota Ternate, Maluku Utara",MALUKU UTARA,,Indonesia,9213123515.0,0.7876975,127.3886416,https://maps.google.com/?cid=0x0:0x9ab4ec6e159d8f08
supermarket,Toserba,Super Toko,"Jl. Ps. Inpres Bastiong No.02, RT.02/RW.RW, Maliaro, Kec. Ternate Tengah, Kota Ternate, Maluku Utara","Kota Ternate, Maluku Utara",MALUKU UTARA,,Indonesia,92123428.0,0.7880544,127.3772047,https://maps.google.com/?cid=0x0:0xf075989f2d0a6871
supermarket,Toko Bahan Bangunan,Toko makmur utama,"Jl. Pahlawan Revolusi No.132, Gamalama, Kec. Ternate Tengah, Kota Ternate, Maluku Utara","Kota Ternate, Maluku Utara",MALUKU UTARA,,Indonesia,,0.7876953,127.3886512,https://maps.google.com/?cid=0x0:0x5f7b6138c97f4e8
supermarket,Minimarket,INDOMARET SULTAN KHAIRUN,"Q9WP+437, Jl. Sultan Khairun, Makassar Tim., Kec. Ternate Tengah, Kota Ternate, Maluku Utara","Kota Ternate, Maluku Utara",MALUKU UTARA,,Indonesia,81340561606.0,0.7952947,127.3851704,https://maps.google.com/?cid=0x0:0x5f41352557a73237
supermarket,Toko Alat Tulis Kantor,Garuda Elok Toko,"Jl. Pahlawan Revolusi No.123, Gamalama, Kec. Ternate Tengah, Kota Ternate, Maluku Utara","Kota Ternate, Maluku Utara",MALUKU UTARA,,Indonesia,92121437.0,0.7898763,127.3882938,https://maps.google.com/?cid=0x0:0xd0e5a678764cb440
supermarket,Minimarket,Toko Amril Tte,"Q9VQ+5HM, Gamalama, Kec. Ternate Tengah, Kota Ternate, Maluku Utara","Kota Ternate, Maluku Utara",MALUKU UTARA,,Indonesia,,0.7929382,127.388906,https://maps.google.com/?cid=0x0:0x94ba0a04858cef1b
supermarket,supermarket,Pulau Moti,"Kec. Pulau Moti, Kota Ternate, Maluku Utara","Kota Ternate, Maluku Utara",MALUKU UTARA,,Indonesia,,0.4551721,127.4147666,https://maps.google.com/?cid=0x0:0xee739dbd0e45e29d
supermarket,supermarket,Moti Nanas,"FC4P+625, Tadenas, Kec. Pulau Moti, Kota Ternate, Maluku Utara","Kota Ternate, Maluku Utara",MALUKU UTARA,,Indonesia,,0.4555141,127.4351031,https://maps.google.com/?cid=0x0:0xeb98013b6af12161
supermarket,supermarket,Kios Om Hafid,"CCM8+FRJ, Takofi, Kec. Pulau Moti, Kota Ternate, Maluku Utara","Kota Ternate, Maluku Utara",MALUKU UTARA,,Indonesia,,0.4337184,127.4170266,https://maps.google.com/?cid=0x0:0x3ca070527b428090
supermarket,supermarket,Kec. Pulau Batang Dua,"Kota Ternate, Maluku Utara","Kota Ternate, Maluku Utara",MALUKU UTARA,,Indonesia,,1.3221136,126.3617738,https://maps.google.com/?cid=0x0:0x43a87ce02308f419
supermarket,Toko,Dua Sekawan Swalayan,"Jl. Jati Besar No.502, Mangga Dua Utara, Kec. Ternate Sel., Kota Ternate, Maluku Utara","Kota Ternate, Maluku Utara",MALUKU UTARA,,Indonesia,9213127268.0,0.7775638,127.3767447,https://maps.google.com/?cid=0x0:0xce14aca6705f0fc
supermarket,supermarket,Kios PpaLio,"89F5+872, Mayau, Kec. Pulau Batang Dua, Kota Ternate, Maluku Utara","Kota Ternate, Maluku Utara",MALUKU UTARA,,Indonesia,81242730392.0,1.3232537,126.3581465,https://maps.google.com/?cid=0x0:0x5fe73fab11509c23
supermarket,Toko,Rumah Juan Balak,"89C5+R86, Mayau, Kec. Pulau Batang Dua, Kota Ternate, Maluku Utara","Kota Ternate, Maluku Utara",MALUKU UTARA,,Indonesia,,1.322051,126.358284,https://maps.google.com/?cid=0x0:0xbab55920e488075
supermarket,Toko Bahan Bangunan,Makmur Utama Supermarket Bahan Bangunan,"Jl. Yasin Gamsungi No.2 Kec. ternate tengah, Kel, Makassar Tim., Makassar Timur, Kota Ternate, Maluku Utara 97724","Kel, Makassar Tim., Makassar Timur, Kota Ternate",MALUKU UTARA,97724.0,Indonesia,8114313799.0,0.7940352,127.3876695,https://maps.google.com/?cid=0x0:0x2f492ae87bf64247
supermarket,supermarket,Mayau,"Kec. Pulau Batang Dua, Kota Ternate, Maluku Utara","Kota Ternate, Maluku Utara",MALUKU UTARA,,Indonesia,,1.3378563,126.3768911,https://maps.google.com/?cid=0x0:0xb639e5a35a4710bb
supermarket,Minimarket,Dua Sekawan Sabia (DS09),"R95P+W62, Sangaji, Kec. Kota Ternate Utara, Kota Ternate, Maluku Utara","Kota Ternate, Maluku Utara",MALUKU UTARA,,Indonesia,,0.8097614,127.385506,https://maps.google.com/?cid=0x0:0xd760b3bd99fd7562
supermarket,supermarket,KEDAI NONAKO,"Lelewi, Kec. Pulau Batang Dua, Kota Ternate, Maluku Utara 07727","Kec. Pulau Batang Dua, Kota Ternate",MALUKU UTARA,7727.0,Indonesia,85336000499.0,1.3190544,126.3669001,https://maps.google.com/?cid=0x0:0x675dadfbb15ef6d8
supermarket,Toko Bahan Bangunan,Makmur Utama Supermarket Bahan Bangunan,"Jl. Yasin Gamsungi No.2 Kec. ternate tengah, Kel, Makassar Tim., Makassar Timur, Kota Ternate, Maluku Utara 97724","Kel, Makassar Tim., Makassar Timur, Kota Ternate",MALUKU UTARA,97724.0,Indonesia,8114313799.0,0.7940352,127.3876695,https://maps.google.com/?cid=0x0:0x2f492ae87bf64247
supermarket,supermarket,Kec. Ternate Tengah,"Kota Ternate, Maluku Utara","Kota Ternate, Maluku Utara",MALUKU UTARA,,Indonesia,,0.78959,127.3860498,https://maps.google.com/?cid=0x0:0x8b6a97877817a839
supermarket,Toko,Dua Sekawan Swalayan,"Jl. Jati Besar No.502, Mangga Dua Utara, Kec. Ternate Sel., Kota Ternate, Maluku Utara","Kota Ternate, Maluku Utara",MALUKU UTARA,,Indonesia,9213127268.0,0.7775638,127.3767447,https://maps.google.com/?cid=0x0:0xce14aca6705f0fc
supermarket,supermarket,Maluku Utara,,Maluku Utara,MALUKU UTARA,,Indonesia,,1.5709993,127.8087693,https://maps.google.com/?cid=0x0:0x1030bfbcaf71ac0
supermarket,Toko Bahan Bangunan,Toko makmur utama,"Jl. Pahlawan Revolusi No.132, Gamalama, Kec. Ternate Tengah, Kota Ternate, Maluku Utara","Kota Ternate, Maluku Utara",MALUKU UTARA,,Indonesia,,0.7876953,127.3886512,https://maps.google.com/?cid=0x0:0x5f7b6138c97f4e8
supermarket,Toko Swalayan,Oleh Oleh Khas Ternate Maluku Utara | FALA TANAWAN,"Maliaro, Kec. Ternate Tengah, Kota Ternate, Maluku Utara 97711","Kec. Ternate Tengah, Kota Ternate",MALUKU UTARA,97711.0,Indonesia,82114147402.0,0.7833097,127.3753374,https://maps.google.com/?cid=0x0:0xe0b389f77d63d8e
supermarket,Kantor Perusahaan,Agen Milagros,"Jl. Cempaka Depan Musalla Poltekkes, Maliaro, Kec. Ternate Tengah, Kota Ternate, Maluku Utara 97711","Maliaro, Kec. Ternate Tengah, Kota Ternate",MALUKU UTARA,97711.0,Indonesia,82145951668.0,0.783154,127.3740671,https://maps.google.com/?cid=0x0:0xfb41f5ab2406577f
supermarket,Toko Ponsel,Gamalama Store,"Jl. Cengkeh Afo Perigaan, Marikurubu, BTN, Kota Ternate, Maluku Utara 97711","Marikurubu, BTN, Kota Ternate",MALUKU UTARA,97711.0,Indonesia,81355705530.0,0.7867624,127.3755956,https://maps.google.com/?cid=0x0:0xccf23f69695eaeeb
supermarket,Toko Pakaian,Eiger Adventure Store Ternate,"JL. PAHLAWAN REVOLUSI. KEL. GAMALAMA, KEC. KOTA, Kec. Ternate Tengah, Kota Ternate, Maluku Utara 97711","KEC. KOTA, Kec. Ternate Tengah, Kota Ternate",MALUKU UTARA,97711.0,Indonesia,81120008341.0,0.7888355,127.3885274,https://maps.google.com/?cid=0x0:0x3ce6dbbb6ebc673e
supermarket,Minimarket,Toko Ternate Bugis MABA,"P72Q+MP3, Unnamed Road, Maba Sangaji, Kec. Kota Maba, Kabupaten Halmahera Timur, Maluku Utara","Kabupaten Halmahera Timur, Maluku Utara",MALUKU UTARA,,Indonesia,,0.7016406,128.289286,https://maps.google.com/?cid=0x0:0x577064f111cfb0c6
supermarket,Kantor Perusahaan,Loket dan Travel FT,"jalan cengkeh afo kelurahan marikurubu RT/RW.002/001, Marikurubu, Kec. Ternate Tengah, Kota Ternate, Maluku Utara 97711","Marikurubu, Kec. Ternate Tengah, Kota Ternate",MALUKU UTARA,97711.0,Indonesia,82343870766.0,0.7890583,127.3713292,https://maps.google.com/?cid=0x0:0xf0af9b02da794f56
supermarket,Toko Alat Tulis Kantor,Garuda Elok Toko,"Jl. Pahlawan Revolusi No.123, Gamalama, Kec. Ternate Tengah, Kota Ternate, Maluku Utara","Kota Ternate, Maluku Utara",MALUKU UTARA,,Indonesia,92121437.0,0.7898763,127.3882938,https://maps.google.com/?cid=0x0:0xd0e5a678764cb440
supermarket,Toko Rokok Elektrik,True Vape Bar Ternate,"Jl. Sultan Khairun, Soa Sio, Kec. Kota Ternate Utara, Kota Ternate, Maluku Utara 97723","Soa Sio, Kec. Kota Ternate Utara, Kota Ternate",MALUKU UTARA,97723.0,Indonesia,,0.7975941,127.3845212,https://maps.google.com/?cid=0x0:0x8d04008327a683c9
supermarket,Toko bahan makanan,Kedai_AA Ternate,"rumah ke 5 sebelah kanan, BTN Gang Kelapa 2, Kelurahan Marikuribu, Kec. Ternate Tengah, Kota Ternate, Maluku Utara 97711","BTN Gang Kelapa 2, Kelurahan Marikuribu, Kec. Ternate Tengah, Kota Ternate",MALUKU UTARA,97711.0,Indonesia,82195152780.0,0.7919693,127.3700888,https://maps.google.com/?cid=0x0:0x8b5da3d12f3efeb0
supermarket,supermarket,Kec. Ternate Tengah,"Kota Ternate, Maluku Utara","Kota Ternate, Maluku Utara",MALUKU UTARA,,Indonesia,,0.78959,127.3860498,https://maps.google.com/?cid=0x0:0x8b6a97877817a839
supermarket,Pusat Perbelanjaan,Hypermart Ternate,"Q9XQ+G5G, Jl. Sultan M. Djabir Sjah Kel, RT.007/RW.004, Soa Sio, Kec. Kota Ternate Utara, Maluku Utara",Maluku Utara,MALUKU UTARA,,Indonesia,9213113010.0,0.7989861,127.3884829,https://maps.google.com/?cid=0x0:0xff03748bad776036
supermarket,Toko Roti,Gloria Mini Market,"Q9QQ+X6P, JL. Boesoiri, Gamalama, Kec. Ternate Tengah, Kota Ternate, Maluku Utara 97721","JL. Boesoiri, Gamalama, Kec. Ternate Tengah, Kota Ternate",MALUKU UTARA,97721.0,Indonesia,92121863.0,0.7899547,127.3880914,https://maps.google.com/?cid=0x0:0x22e5e4a77f48969a
supermarket,Toko,Dua Sekawan Swalayan,"Jl. Jati Besar No.502, Mangga Dua Utara, Kec. Ternate Sel., Kota Ternate, Maluku Utara","Kota Ternate, Maluku Utara",MALUKU UTARA,,Indonesia,9213127268.0,0.7775638,127.3767447,https://maps.google.com/?cid=0x0:0xce14aca6705f0fc
supermarket,Toko Swalayan,Tara No Ate : Oleh-oleh Khas Ternate,"Jl. Tapak Raya II, Gamalama, Maluku Utara",Maluku Utara,MALUKU UTARA,,Indonesia,,0.7902013,127.390588,https://maps.google.com/?cid=0x0:0x147e3e170043ea32
supermarket,Toko Swalayan,Rafa Mart TERNATE,"Q9QH+Q3H, Kalumpang, Kec. Ternate Tengah, Kota Ternate, Maluku Utara","Kota Ternate, Maluku Utara",MALUKU UTARA,,Indonesia,81342782399.0,0.7894273,127.3777316,https://maps.google.com/?cid=0x0:0xb76d56a22409784f
supermarket,Toko Swalayan,Selecta mini market,"Q9QP+PWX, Jl. Nukila, Gamalama, Kec. Ternate Tengah, Kota Ternate, Maluku Utara","Kota Ternate, Maluku Utara",MALUKU UTARA,,Indonesia,9213121869.0,0.7893521,127.3873567,https://maps.google.com/?cid=0x0:0xfb02d513f6556bf1
supermarket,Toko Swalayan,CV. Benefit F15+on,"Q9QM+6HG, Kalumpang, Kec. Ternate Tengah, Kota Ternate, Maluku Utara","Kota Ternate, Maluku Utara",MALUKU UTARA,,Indonesia,81340100173.0,0.7880613,127.3839426,https://maps.google.com/?cid=0x0:0xe1b98689609d40c9
supermarket,Minimarket,Mato Kios,"Q9PQ+Q2C, Muhajirin, Kec. Ternate Tengah, Kota Ternate, Maluku Utara","Kota Ternate, Maluku Utara",MALUKU UTARA,,Indonesia,82190212190.0,0.7869495,127.3875234,https://maps.google.com/?cid=0x0:0x33c894a15dcbd69c
supermarket,Minimarket,INDOMARET - SANTIONG,"Q9RM+CW8, Jl. Branjangan, Santiong, Kec. Ternate Tengah, Kota Ternate, Maluku Utara","Kota Ternate, Maluku Utara",MALUKU UTARA,,Indonesia,,0.791071,127.3847429,https://maps.google.com/?cid=0x0:0x5240624ff5933483
supermarket,Minimarket,Alfamidi Kota Baru,"Q9HM+HWM, Jl. Perikanan, Kota Baru, Kec. Ternate Tengah, Kota Ternate, Maluku Utara","Kota Ternate, Maluku Utara",MALUKU UTARA,,Indonesia,,0.7789717,127.3847892,https://maps.google.com/?cid=0x0:0xca1b01a7fad46fbf
supermarket,Toko Swalayan,Toko Anugerah,"Q9MQ+47J, Jl. Pahlawan Revolusi, Muhajirin, Kec. Ternate Tengah, Kota Ternate, Maluku Utara","Kota Ternate, Maluku Utara",MALUKU UTARA,,Indonesia,8114343056.0,0.782834,127.388145,https://maps.google.com/?cid=0x0:0x16150624d2aae5b2
supermarket,Toko Swalayan,Toko Kota Baru Indah,"Q9HP+J2H, Kota Baru, Kec. Ternate Tengah, Kota Ternate, Maluku Utara","Kota Ternate, Maluku Utara",MALUKU UTARA,,Indonesia,,0.7790518,127.385099,https://maps.google.com/?cid=0x0:0x50ab8e8260ed25a5
supermarket,Minimarket,Muara Swalayan Ternate,"Muara Mall lt.1, Gamalama, Ternate Tengah, Ternate City, North Maluku","Kota Ternate, Maluku Utara",MALUKU UTARA,,Indonesia,,0.7911652,127.3864505,https://maps.google.com/?cid=0x0:0x37df62f5aa672f62
supermarket,supermarket,Maluku Utara,,Maluku Utara,MALUKU UTARA,,Indonesia,,1.5709993,127.8087693,https://maps.google.com/?cid=0x0:0x1030bfbcaf71ac0
supermarket,Toko,Dua Sekawan Swalayan,"Jl. Jati Besar No.502, Mangga Dua Utara, Kec. Ternate Sel., Kota Ternate, Maluku Utara","Kota Ternate, Maluku Utara",MALUKU UTARA,,Indonesia,9213127268.0,0.7775638,127.3767447,https://maps.google.com/?cid=0x0:0xce14aca6705f0fc
supermarket,Toko Bahan Bangunan,Makmur Utama Supermarket Bahan Bangunan,"Jl. Yasin Gamsungi No.2 Kec. ternate tengah, Kel, Makassar Tim., Makassar Timur, Kota Ternate, Maluku Utara 97724","Kel, Makassar Tim., Makassar Timur, Kota Ternate",MALUKU UTARA,97724.0,Indonesia,8114313799.0,0.7940352,127.3876695,https://maps.google.com/?cid=0x0:0x2f492ae87bf64247
supermarket,Toko Swalayan,Rafa Mart TERNATE,"Q9QH+Q3H, Kalumpang, Kec. Ternate Tengah, Kota Ternate, Maluku Utara","Kota Ternate, Maluku Utara",MALUKU UTARA,,Indonesia,81342782399.0,0.7894273,127.3777316,https://maps.google.com/?cid=0x0:0xb76d56a22409784f
supermarket,Pusat Perbelanjaan,Hypermart Ternate,"Q9XQ+G5G, Jl. Sultan M. Djabir Sjah Kel, RT.007/RW.004, Soa Sio, Kec. Kota Ternate Utara, Maluku Utara",Maluku Utara,MALUKU UTARA,,Indonesia,9213113010.0,0.7989861,127.3884829,https://maps.google.com/?cid=0x0:0xff03748bad776036
supermarket,Toko Swalayan,Tara No Ate : Oleh-oleh Khas Ternate,"Jl. Tapak Raya II, Gamalama, Maluku Utara",Maluku Utara,MALUKU UTARA,,Indonesia,,0.7902013,127.390588,https://maps.google.com/?cid=0x0:0x147e3e170043ea32
supermarket,Toko Perhiasan,Rajawali Mart,"Q84G+5CW, Jl. Pertamina, Sasa, Kec. Ternate Sel., Kota Ternate, Maluku Utara","Kota Ternate, Maluku Utara",MALUKU UTARA,,Indonesia,,0.7553693,127.3271529,https://maps.google.com/?cid=0x0:0x496ae344da74a5a2
supermarket,Minimarket,Alfamidi Kota Baru,"Q9HM+HWM, Jl. Perikanan, Kota Baru, Kec. Ternate Tengah, Kota Ternate, Maluku Utara","Kota Ternate, Maluku Utara",MALUKU UTARA,,Indonesia,,0.7789717,127.3847892,https://maps.google.com/?cid=0x0:0xca1b01a7fad46fbf
supermarket,Toserba,Super Toko,"Jl. Ps. Inpres Bastiong No.02, RT.02/RW.RW, Maliaro, Kec. Ternate Tengah, Kota Ternate, Maluku Utara","Kota Ternate, Maluku Utara",MALUKU UTARA,,Indonesia,92123428.0,0.7880544,127.3772047,https://maps.google.com/?cid=0x0:0xf075989f2d0a6871
supermarket,Minimarket,Dua Sekawan Sabia (DS09),"R95P+W62, Sangaji, Kec. Kota Ternate Utara, Kota Ternate, Maluku Utara","Kota Ternate, Maluku Utara",MALUKU UTARA,,Indonesia,,0.8097614,127.385506,https://maps.google.com/?cid=0x0:0xd760b3bd99fd7562
supermarket,Toko Alat Tulis Kantor,Garuda Elok Toko,"Jl. Pahlawan Revolusi No.123, Gamalama, Kec. Ternate Tengah, Kota Ternate, Maluku Utara","Kota Ternate, Maluku Utara",MALUKU UTARA,,Indonesia,92121437.0,0.7898763,127.3882938,https://maps.google.com/?cid=0x0:0xd0e5a678764cb440
supermarket,Toko Ponsel,Jipang Store Indonesia,"Perumahan Jan Rivaldo, Tabona, Kec. Ternate Sel., Kota Ternate, Maluku Utara 97713","Tabona, Kec. Ternate Sel., Kota Ternate",MALUKU UTARA,97713.0,Indonesia,85255551994.0,0.7776969,127.3641748,https://maps.google.com/?cid=0x0:0x2a199ac0b4d81dfd
supermarket,Toko Bahan Bangunan,Toko makmur utama,"Jl. Pahlawan Revolusi No.132, Gamalama, Kec. Ternate Tengah, Kota Ternate, Maluku Utara","Kota Ternate, Maluku Utara",MALUKU UTARA,,Indonesia,,0.7876953,127.3886512,https://maps.google.com/?cid=0x0:0x5f7b6138c97f4e8
supermarket,Toko Swalayan,Ifamoy Pusat Oleh-oleh Khas Maluku Utara,"Jl. Balibunga, RT.06/RW.02, Tabona, Kec. Ternate Sel., Kota Ternate, Maluku Utara 97713","RT.06/RW.02, Tabona, Kec. Ternate Sel., Kota Ternate",MALUKU UTARA,97713.0,Indonesia,81340054052.0,0.7709661,127.3679721,https://maps.google.com/?cid=0x0:0xf921a85ff3db106a
supermarket,supermarket,Maluku Utara 97714,"Takoma, Kec. Ternate Tengah, Kota Ternate, Maluku Utara","Kota Ternate, Maluku Utara",MALUKU UTARA,,Indonesia,,0.7811008,127.3850519,https://maps.google.com/?cid=0x0:0x8d2ecd03f9db447d
supermarket,Toko,Dua Sekawan Swalayan,"Jl. Jati Besar No.502, Mangga Dua Utara, Kec. Ternate Sel., Kota Ternate, Maluku Utara","Kota Ternate, Maluku Utara",MALUKU UTARA,,Indonesia,9213127268.0,0.7775638,127.3767447,https://maps.google.com/?cid=0x0:0xce14aca6705f0fc
supermarket,Toko Bahan Bangunan,Makmur Utama Supermarket Bahan Bangunan,"Jl. Yasin Gamsungi No.2 Kec. ternate tengah, Kel, Makassar Tim., Makassar Timur, Kota Ternate, Maluku Utara 97724","Kel, Makassar Tim., Makassar Timur, Kota Ternate",MALUKU UTARA,97724.0,Indonesia,8114313799.0,0.7940352,127.3876695,https://maps.google.com/?cid=0x0:0x2f492ae87bf64247
supermarket,Toko Swalayan,Tara No Ate : Oleh-oleh Khas Ternate,"Jl. Tapak Raya II, Gamalama, Maluku Utara",Maluku Utara,MALUKU UTARA,,Indonesia,,0.7902013,127.390588,https://maps.google.com/?cid=0x0:0x147e3e170043ea32
supermarket,Toko Perhiasan,Rajawali Mart,"Q84G+5CW, Jl. Pertamina, Sasa, Kec. Ternate Sel., Kota Ternate, Maluku Utara","Kota Ternate, Maluku Utara",MALUKU UTARA,,Indonesia,,0.7553693,127.3271529,https://maps.google.com/?cid=0x0:0x496ae344da74a5a2
supermarket,Toko umum,Src Kios Takoma Indah,"Q9JM+QP7, Jl. Hasan Esa, Takoma, Kec. Ternate Tengah, Kota Ternate, Maluku Utara","Kota Ternate, Maluku Utara",MALUKU UTARA,,Indonesia,81243109406.0,0.7819208,127.3842876,https://maps.google.com/?cid=0x0:0x4f4eb693e373c6dd
supermarket,Toko Peralatan Olahraga,Zhafira Sports Ternate,"Q9JM+JJH, Jalan Hasan Esa, Takoma, Ternate Tengah, Takoma, Ternate, Kota Ternate, Maluku Utara","Kota Ternate, Maluku Utara",MALUKU UTARA,,Indonesia,85280841428.0,0.7815525,127.3841008,https://maps.google.com/?cid=0x0:0x62be7761cdbd6709
supermarket,Toko umum,Indomaret Takoma,"Jl. Hasan Esa No.5, Takoma, Kec. Ternate Tengah, Kota Ternate, Maluku Utara 97714","Takoma, Kec. Ternate Tengah, Kota Ternate",MALUKU UTARA,97714.0,Indonesia,81143702728.0,0.78149,127.3839889,https://maps.google.com/?cid=0x0:0xc893d21ee22ad6c3
supermarket,Pusat Perbelanjaan,Multimart Ternate,"Q9RR+Q4W, Gamalama, Kota Ternate, Maluku Utara","Kota Ternate, Maluku Utara",MALUKU UTARA,,Indonesia,9213123830.0,0.7919999,127.3903253,https://maps.google.com/?cid=0x0:0x8c3646ec80a5c8c4
supermarket,Toko Alat Tulis Kantor,Garuda Elok Toko,"Jl. Pahlawan Revolusi No.123, Gamalama, Kec. Ternate Tengah, Kota Ternate, Maluku Utara","Kota Ternate, Maluku Utara",MALUKU UTARA,,Indonesia,92121437.0,0.7898763,127.3882938,https://maps.google.com/?cid=0x0:0xd0e5a678764cb440
supermarket,Toserba,Toko Tunggal Jaya,"Q9JM+79M, Takoma, Kec. Ternate Tengah, Kota Ternate, Maluku Utara","Kota Ternate, Maluku Utara",MALUKU UTARA,,Indonesia,92122524.0,0.7807015,127.3834322,https://maps.google.com/?cid=0x0:0xcba1ff71d598dacf
supermarket,Toko Bahan Bangunan,Toko makmur utama,"Jl. Pahlawan Revolusi No.132, Gamalama, Kec. Ternate Tengah, Kota Ternate, Maluku Utara","Kota Ternate, Maluku Utara",MALUKU UTARA,,Indonesia,,0.7876953,127.3886512,https://maps.google.com/?cid=0x0:0x5f7b6138c97f4e8
supermarket,Bakso,Mie Basah Salero,"Q9JP+V43, Takoma, Kec. Ternate Tengah, Kota Ternate, Maluku Utara","Kota Ternate, Maluku Utara",MALUKU UTARA,,Indonesia,81217044283.0,0.7821508,127.3853052,https://maps.google.com/?cid=0x0:0xbe44aa9db33f681a
supermarket,Toko Suku Cadang Mobil,Pranatan Helm 2,"Jl. Zainal Abidin Syah, Kota Baru, Kec. Ternate Tengah, Kota Ternate, Maluku Utara","Kota Ternate, Maluku Utara",MALUKU UTARA,,Indonesia,,0.7804986,127.3848924,https://maps.google.com/?cid=0x0:0xf1bb2b05706b18ae
supermarket,supermarket,Maluku Utara 97721,"Ngade, Kec. Ternate Sel., Kota Ternate, Maluku Utara","Kota Ternate, Maluku Utara",MALUKU UTARA,,Indonesia,,0.7634579,127.3540939,https://maps.google.com/?cid=0x0:0x420e2c525a89ed59
supermarket,Toko Swalayan,Rafa Mart TERNATE,"Q9QH+Q3H, Kalumpang, Kec. Ternate Tengah, Kota Ternate, Maluku Utara","Kota Ternate, Maluku Utara",MALUKU UTARA,,Indonesia,81342782399.0,0.7894273,127.3777316,https://maps.google.com/?cid=0x0:0xb76d56a22409784f
supermarket,Toko,Dua Sekawan Swalayan,"Jl. Jati Besar No.502, Mangga Dua Utara, Kec. Ternate Sel., Kota Ternate, Maluku Utara","Kota Ternate, Maluku Utara",MALUKU UTARA,,Indonesia,9213127268.0,0.7775638,127.3767447,https://maps.google.com/?cid=0x0:0xce14aca6705f0fc
supermarket,Toko Bahan Bangunan,Makmur Utama Supermarket Bahan Bangunan,"Jl. Yasin Gamsungi No.2 Kec. ternate tengah, Kel, Makassar Tim., Makassar Timur, Kota Ternate, Maluku Utara 97724","Kel, Makassar Tim., Makassar Timur, Kota Ternate",MALUKU UTARA,97724.0,Indonesia,8114313799.0,0.7940352,127.3876695,https://maps.google.com/?cid=0x0:0x2f492ae87bf64247
supermarket,Minimarket,kalumata Indah,"Q968+CHW, Jl. Santo Pedro, Kalumata, Kec. Ternate Sel., Kota Ternate, Maluku Utara","Kota Ternate, Maluku Utara",MALUKU UTARA,,Indonesia,8121964499.0,0.7611243,127.3664591,https://maps.google.com/?cid=0x0:0x94ad005767f61e78
supermarket,Pusat Perbelanjaan,Hypermart Ternate,"Q9XQ+G5G, Jl. Sultan M. Djabir Sjah Kel, RT.007/RW.004, Soa Sio, Kec. Kota Ternate Utara, Maluku Utara",Maluku Utara,MALUKU UTARA,,Indonesia,9213113010.0,0.7989861,127.3884829,https://maps.google.com/?cid=0x0:0xff03748bad776036
supermarket,Toko Bahan Bangunan,Makmur Utama Supermarket Bahan Bangunan,"Jambula, Kec. Pulau Ternate, Kota Ternate, Maluku Utara","Kota Ternate, Maluku Utara",MALUKU UTARA,,Indonesia,8114313899.0,0.7581804,127.3220409,https://maps.google.com/?cid=0x0:0xe3a01731f7851efa
supermarket,Toko Swalayan,Tara No Ate : Oleh-oleh Khas Ternate,"Jl. Tapak Raya II, Gamalama, Maluku Utara",Maluku Utara,MALUKU UTARA,,Indonesia,,0.7902013,127.390588,https://maps.google.com/?cid=0x0:0x147e3e170043ea32
supermarket,Toko Perhiasan,Rajawali Mart,"Q84G+5CW, Jl. Pertamina, Sasa, Kec. Ternate Sel., Kota Ternate, Maluku Utara","Kota Ternate, Maluku Utara",MALUKU UTARA,,Indonesia,,0.7553693,127.3271529,https://maps.google.com/?cid=0x0:0x496ae344da74a5a2
supermarket,Minimarket,Muara Swalayan Ternate,"Muara Mall lt.1, Gamalama, Ternate Tengah, Ternate City, North Maluku","Kota Ternate, Maluku Utara",MALUKU UTARA,,Indonesia,,0.7911652,127.3864505,https://maps.google.com/?cid=0x0:0x37df62f5aa672f62
supermarket,Toko Pakaian,Siantar Family Ternate,"Q973+7HX, Ngade, Kec. Ternate Sel., Kota Ternate, Maluku Utara","Kota Ternate, Maluku Utara",MALUKU UTARA,,Indonesia,,0.7632251,127.3539813,https://maps.google.com/?cid=0x0:0xf5a29a7c0b3dde74
supermarket,Pusat Perbelanjaan,Multimart Ternate,"Q9RR+Q4W, Gamalama, Kota Ternate, Maluku Utara","Kota Ternate, Maluku Utara",MALUKU UTARA,,Indonesia,9213123830.0,0.7919999,127.3903253,https://maps.google.com/?cid=0x0:0x8c3646ec80a5c8c4
supermarket,Toko Bahan Bangunan,Toko makmur utama,"Jl. Pahlawan Revolusi No.132, Gamalama, Kec. Ternate Tengah, Kota Ternate, Maluku Utara","Kota Ternate, Maluku Utara",MALUKU UTARA,,Indonesia,,0.7876953,127.3886512,https://maps.google.com/?cid=0x0:0x5f7b6138c97f4e8
supermarket,Minimarket,Dua Sekawan Sabia (DS09),"R95P+W62, Sangaji, Kec. Kota Ternate Utara, Kota Ternate, Maluku Utara","Kota Ternate, Maluku Utara",MALUKU UTARA,,Indonesia,,0.8097614,127.385506,https://maps.google.com/?cid=0x0:0xd760b3bd99fd7562
supermarket,supermarket,Maluku Utara,,Maluku Utara,MALUKU UTARA,,Indonesia,,1.5709993,127.8087693,https://maps.google.com/?cid=0x0:0x1030bfbcaf71ac0
supermarket,Toko,Dua Sekawan Swalayan,"Jl. Jati Besar No.502, Mangga Dua Utara, Kec. Ternate Sel., Kota Ternate, Maluku Utara","Kota Ternate, Maluku Utara",MALUKU UTARA,,Indonesia,9213127268.0,0.7775638,127.3767447,https://maps.google.com/?cid=0x0:0xce14aca6705f0fc
supermarket,Toko Swalayan,Rafa Mart TERNATE,"Q9QH+Q3H, Kalumpang, Kec. Ternate Tengah, Kota Ternate, Maluku Utara","Kota Ternate, Maluku Utara",MALUKU UTARA,,Indonesia,81342782399.0,0.7894273,127.3777316,https://maps.google.com/?cid=0x0:0xb76d56a22409784f
supermarket,Pusat Perbelanjaan,Hypermart Ternate,"Q9XQ+G5G, Jl. Sultan M. Djabir Sjah Kel, RT.007/RW.004, Soa Sio, Kec. Kota Ternate Utara, Maluku Utara",Maluku Utara,MALUKU UTARA,,Indonesia,9213113010.0,0.7989861,127.3884829,https://maps.google.com/?cid=0x0:0xff03748bad776036
supermarket,Toko Swalayan,Tara No Ate : Oleh-oleh Khas Ternate,"Jl. Tapak Raya II, Gamalama, Maluku Utara",Maluku Utara,MALUKU UTARA,,Indonesia,,0.7902013,127.390588,https://maps.google.com/?cid=0x0:0x147e3e170043ea32
supermarket,Toko Perhiasan,Rajawali Mart,"Q84G+5CW, Jl. Pertamina, Sasa, Kec. Ternate Sel., Kota Ternate, Maluku Utara","Kota Ternate, Maluku Utara",MALUKU UTARA,,Indonesia,,0.7553693,127.3271529,https://maps.google.com/?cid=0x0:0x496ae344da74a5a2
supermarket,Minimarket,Muara Swalayan Ternate,"Muara Mall lt.1, Gamalama, Ternate Tengah, Ternate City, North Maluku","Kota Ternate, Maluku Utara",MALUKU UTARA,,Indonesia,,0.7911652,127.3864505,https://maps.google.com/?cid=0x0:0x37df62f5aa672f62
supermarket,Toko Swalayan,Toko Dewangga,"Salero, Kec. Kota Ternate Utara, Kota Ternate, Maluku Utara","Kota Ternate, Maluku Utara",MALUKU UTARA,,Indonesia,,0.8028452,127.3859495,https://maps.google.com/?cid=0x0:0x976140bc4dedf822
supermarket,Minimarket,Alfamidi Kota Baru,"Q9HM+HWM, Jl. Perikanan, Kota Baru, Kec. Ternate Tengah, Kota Ternate, Maluku Utara","Kota Ternate, Maluku Utara",MALUKU UTARA,,Indonesia,,0.7789717,127.3847892,https://maps.google.com/?cid=0x0:0xca1b01a7fad46fbf
supermarket,Minimarket,Toko Ternate Bugis MABA,"P72Q+MP3, Unnamed Road, Maba Sangaji, Kec. Kota Maba, Kabupaten Halmahera Timur, Maluku Utara","Kabupaten Halmahera Timur, Maluku Utara",MALUKU UTARA,,Indonesia,,0.7016406,128.289286,https://maps.google.com/?cid=0x0:0x577064f111cfb0c6
supermarket,Pusat Perbelanjaan,Muara Mall,"Jl. Nukila No.50, Gamalama, Kec. Ternate Tengah, Kota Ternate, Maluku Utara 97722","Gamalama, Kec. Ternate Tengah, Kota Ternate",MALUKU UTARA,97722.0,Indonesia,,0.7912455,127.3864239,https://maps.google.com/?cid=0x0:0x2c6d1f216770a71
supermarket,Minimarket,Toko Amril Tte,"Q9VQ+5HM, Gamalama, Kec. Ternate Tengah, Kota Ternate, Maluku Utara","Kota Ternate, Maluku Utara",MALUKU UTARA,,Indonesia,,0.7929382,127.388906,https://maps.google.com/?cid=0x0:0x94ba0a04858cef1b
supermarket,Toko Elektronik,Ternate Elektronik,"depan Bank Mandiri, Jl. Nukila No.50, Gamalama, Kec. Ternate Tengah, Kota Ternate, Maluku Utara 97722","Jl. Nukila No.50, Gamalama, Kec. Ternate Tengah, Kota Ternate",MALUKU UTARA,97722.0,Indonesia,81245127871.0,0.7895229,127.3872003,https://maps.google.com/?cid=0x0:0xb3fe2b653b7b0917
supermarket,Toko Swalayan,Alfamidi,"Q9PG+MJ2, Maliaro, Kec. Ternate Tengah, Kota Ternate, Maluku Utara","Kota Ternate, Maluku Utara",MALUKU UTARA,,Indonesia,,0.7866011,127.3773621,https://maps.google.com/?cid=0x0:0xe6fe65cfdc018f13
supermarket,supermarket,Kec. Ternate Tengah,"Kota Ternate, Maluku Utara","Kota Ternate, Maluku Utara",MALUKU UTARA,,Indonesia,,0.78959,127.3860498,https://maps.google.com/?cid=0x0:0x8b6a97877817a839
supermarket,Toko Bahan Bangunan,Makmur Utama Supermarket Bahan Bangunan,"Jl. Yasin Gamsungi No.2 Kec. ternate tengah, Kel, Makassar Tim., Makassar Timur, Kota Ternate, Maluku Utara 97724","Kel, Makassar Tim., Makassar Timur, Kota Ternate",MALUKU UTARA,97724.0,Indonesia,8114313799.0,0.7940352,127.3876695,https://maps.google.com/?cid=0x0:0x2f492ae87bf64247
supermarket,Toko Swalayan,Rafa Mart TERNATE,"Q9QH+Q3H, Kalumpang, Kec. Ternate Tengah, Kota Ternate, Maluku Utara","Kota Ternate, Maluku Utara",MALUKU UTARA,,Indonesia,81342782399.0,0.7894273,127.3777316,https://maps.google.com/?cid=0x0:0xb76d56a22409784f
supermarket,Pusat Perbelanjaan,Hypermart Ternate,"Q9XQ+G5G, Jl. Sultan M. Djabir Sjah Kel, RT.007/RW.004, Soa Sio, Kec. Kota Ternate Utara, Maluku Utara",Maluku Utara,MALUKU UTARA,,Indonesia,9213113010.0,0.7989861,127.3884829,https://maps.google.com/?cid=0x0:0xff03748bad776036
supermarket,Toko,Dua Sekawan Swalayan,"Jl. Jati Besar No.502, Mangga Dua Utara, Kec. Ternate Sel., Kota Ternate, Maluku Utara","Kota Ternate, Maluku Utara",MALUKU UTARA,,Indonesia,9213127268.0,0.7775638,127.3767447,https://maps.google.com/?cid=0x0:0xce14aca6705f0fc
supermarket,Toko Swalayan,Selecta mini market,"Q9QP+PWX, Jl. Nukila, Gamalama, Kec. Ternate Tengah, Kota Ternate, Maluku Utara","Kota Ternate, Maluku Utara",MALUKU UTARA,,Indonesia,9213121869.0,0.7893521,127.3873567,https://maps.google.com/?cid=0x0:0xfb02d513f6556bf1
supermarket,Toko Swalayan,Tara No Ate : Oleh-oleh Khas Ternate,"Jl. Tapak Raya II, Gamalama, Maluku Utara",Maluku Utara,MALUKU UTARA,,Indonesia,,0.7902013,127.390588,https://maps.google.com/?cid=0x0:0x147e3e170043ea32
supermarket,Toko Swalayan,Toko Kota Baru Indah,"Q9HP+J2H, Kota Baru, Kec. Ternate Tengah, Kota Ternate, Maluku Utara","Kota Ternate, Maluku Utara",MALUKU UTARA,,Indonesia,,0.7790518,127.385099,https://maps.google.com/?cid=0x0:0x50ab8e8260ed25a5
supermarket,Minimarket,Mato Kios,"Q9PQ+Q2C, Muhajirin, Kec. Ternate Tengah, Kota Ternate, Maluku Utara","Kota Ternate, Maluku Utara",MALUKU UTARA,,Indonesia,82190212190.0,0.7869495,127.3875234,https://maps.google.com/?cid=0x0:0x33c894a15dcbd69c
supermarket,Minimarket,Alfamidi Kota Baru,"Q9HM+HWM, Jl. Perikanan, Kota Baru, Kec. Ternate Tengah, Kota Ternate, Maluku Utara","Kota Ternate, Maluku Utara",MALUKU UTARA,,Indonesia,,0.7789717,127.3847892,https://maps.google.com/?cid=0x0:0xca1b01a7fad46fbf
supermarket,Toko Swalayan,Oleh Oleh Khas Ternate Maluku Utara | FALA TANAWAN,"Maliaro, Kec. Ternate Tengah, Kota Ternate, Maluku Utara 97711","Kec. Ternate Tengah, Kota Ternate",MALUKU UTARA,97711.0,Indonesia,82114147402.0,0.7833097,127.3753374,https://maps.google.com/?cid=0x0:0xe0b389f77d63d8e
supermarket,Toko Swalayan,Toko Anugerah,"Q9MQ+47J, Jl. Pahlawan Revolusi, Muhajirin, Kec. Ternate Tengah, Kota Ternate, Maluku Utara","Kota Ternate, Maluku Utara",MALUKU UTARA,,Indonesia,8114343056.0,0.782834,127.388145,https://maps.google.com/?cid=0x0:0x16150624d2aae5b2
supermarket,Minimarket,Muara Swalayan Ternate,"Muara Mall lt.1, Gamalama, Ternate Tengah, Ternate City, North Maluku","Kota Ternate, Maluku Utara",MALUKU UTARA,,Indonesia,,0.7911652,127.3864505,https://maps.google.com/?cid=0x0:0x37df62f5aa672f62
supermarket,Toko Swalayan,CV. Benefit F15+on,"Q9QM+6HG, Kalumpang, Kec. Ternate Tengah, Kota Ternate, Maluku Utara","Kota Ternate, Maluku Utara",MALUKU UTARA,,Indonesia,81340100173.0,0.7880613,127.3839426,https://maps.google.com/?cid=0x0:0xe1b98689609d40c9
supermarket,supermarket,Kec. Ternate Tengah,"Kota Ternate, Maluku Utara","Kota Ternate, Maluku Utara",MALUKU UTARA,,Indonesia,,0.78959,127.3860498,https://maps.google.com/?cid=0x0:0x8b6a97877817a839
supermarket,Pusat Perbelanjaan,Hypermart Ternate,"Q9XQ+G5G, Jl. Sultan M. Djabir Sjah Kel, RT.007/RW.004, Soa Sio, Kec. Kota Ternate Utara, Maluku Utara",Maluku Utara,MALUKU UTARA,,Indonesia,9213113010.0,0.7989861,127.3884829,https://maps.google.com/?cid=0x0:0xff03748bad776036
supermarket,Toko Swalayan,Rafa Mart TERNATE,"Q9QH+Q3H, Kalumpang, Kec. Ternate Tengah, Kota Ternate, Maluku Utara","Kota Ternate, Maluku Utara",MALUKU UTARA,,Indonesia,81342782399.0,0.7894273,127.3777316,https://maps.google.com/?cid=0x0:0xb76d56a22409784f
supermarket,Toko Bahan Bangunan,Makmur Utama Supermarket Bahan Bangunan,"Jl. Yasin Gamsungi No.2 Kec. ternate tengah, Kel, Makassar Tim., Makassar Timur, Kota Ternate, Maluku Utara 97724","Kel, Makassar Tim., Makassar Timur, Kota Ternate",MALUKU UTARA,97724.0,Indonesia,8114313799.0,0.7940352,127.3876695,https://maps.google.com/?cid=0x0:0x2f492ae87bf64247
supermarket,Toko Swalayan,Selecta mini market,"Q9QP+PWX, Jl. Nukila, Gamalama, Kec. Ternate Tengah, Kota Ternate, Maluku Utara","Kota Ternate, Maluku Utara",MALUKU UTARA,,Indonesia,9213121869.0,0.7893521,127.3873567,https://maps.google.com/?cid=0x0:0xfb02d513f6556bf1
supermarket,Toko Roti,Gloria Mini Market,"Q9QQ+X6P, JL. Boesoiri, Gamalama, Kec. Ternate Tengah, Kota Ternate, Maluku Utara 97721","JL. Boesoiri, Gamalama, Kec. Ternate Tengah, Kota Ternate",MALUKU UTARA,97721.0,Indonesia,92121863.0,0.7899547,127.3880914,https://maps.google.com/?cid=0x0:0x22e5e4a77f48969a
supermarket,Toko,Dua Sekawan Swalayan,"Jl. Jati Besar No.502, Mangga Dua Utara, Kec. Ternate Sel., Kota Ternate, Maluku Utara","Kota Ternate, Maluku Utara",MALUKU UTARA,,Indonesia,9213127268.0,0.7775638,127.3767447,https://maps.google.com/?cid=0x0:0xce14aca6705f0fc
supermarket,Minimarket,Muara Swalayan Ternate,"Muara Mall lt.1, Gamalama, Ternate Tengah, Ternate City, North Maluku","Kota Ternate, Maluku Utara",MALUKU UTARA,,Indonesia,,0.7911652,127.3864505,https://maps.google.com/?cid=0x0:0x37df62f5aa672f62
supermarket,Minimarket,Mato Kios,"Q9PQ+Q2C, Muhajirin, Kec. Ternate Tengah, Kota Ternate, Maluku Utara","Kota Ternate, Maluku Utara",MALUKU UTARA,,Indonesia,82190212190.0,0.7869495,127.3875234,https://maps.google.com/?cid=0x0:0x33c894a15dcbd69c
supermarket,Toko Swalayan,Toko Anugerah,"Q9MQ+47J, Jl. Pahlawan Revolusi, Muhajirin, Kec. Ternate Tengah, Kota Ternate, Maluku Utara","Kota Ternate, Maluku Utara",MALUKU UTARA,,Indonesia,8114343056.0,0.782834,127.388145,https://maps.google.com/?cid=0x0:0x16150624d2aae5b2
supermarket,Pusat Perbelanjaan,Multimart Ternate,"Q9RR+Q4W, Gamalama, Kota Ternate, Maluku Utara","Kota Ternate, Maluku Utara",MALUKU UTARA,,Indonesia,9213123830.0,0.7919999,127.3903253,https://maps.google.com/?cid=0x0:0x8c3646ec80a5c8c4
supermarket,Toserba,Super Toko,"Jl. Ps. Inpres Bastiong No.02, RT.02/RW.RW, Maliaro, Kec. Ternate Tengah, Kota Ternate, Maluku Utara","Kota Ternate, Maluku Utara",MALUKU UTARA,,Indonesia,92123428.0,0.7880544,127.3772047,https://maps.google.com/?cid=0x0:0xf075989f2d0a6871
supermarket,Minimarket,Alfamidi Kota Baru,"Q9HM+HWM, Jl. Perikanan, Kota Baru, Kec. Ternate Tengah, Kota Ternate, Maluku Utara","Kota Ternate, Maluku Utara",MALUKU UTARA,,Indonesia,,0.7789717,127.3847892,https://maps.google.com/?cid=0x0:0xca1b01a7fad46fbf
supermarket,Restoran,Warung Pojok Ternate,"Jalan Ahmad Yani, Muhajirin, Ternate Tengah, Muhajirin, Kec. Ternate Tengah, Kota Ternate, Maluku Utara","Kota Ternate, Maluku Utara",MALUKU UTARA,,Indonesia,81340442177.0,0.7826664,127.3881403,https://maps.google.com/?cid=0x0:0x36ea16db643a4649
supermarket,Toko Swalayan,Rafa Mart TERNATE,"Q9QH+Q3H, Kalumpang, Kec. Ternate Tengah, Kota Ternate, Maluku Utara","Kota Ternate, Maluku Utara",MALUKU UTARA,,Indonesia,81342782399.0,0.7894273,127.3777316,https://maps.google.com/?cid=0x0:0xb76d56a22409784f
supermarket,Minimarket,kalumata Indah,"Q968+CHW, Jl. Santo Pedro, Kalumata, Kec. Ternate Sel., Kota Ternate, Maluku Utara","Kota Ternate, Maluku Utara",MALUKU UTARA,,Indonesia,8121964499.0,0.7611243,127.3664591,https://maps.google.com/?cid=0x0:0x94ad005767f61e78
supermarket,supermarket,Maluku Utara,,Maluku Utara,MALUKU UTARA,,Indonesia,,1.5709993,127.8087693,https://maps.google.com/?cid=0x0:0x1030bfbcaf71ac0
supermarket,Toko Bahan Bangunan,Makmur Utama Supermarket Bahan Bangunan,"Jl. Yasin Gamsungi No.2 Kec. ternate tengah, Kel, Makassar Tim., Makassar Timur, Kota Ternate, Maluku Utara 97724","Kel, Makassar Tim., Makassar Timur, Kota Ternate",MALUKU UTARA,97724.0,Indonesia,8114313799.0,0.7940352,127.3876695,https://maps.google.com/?cid=0x0:0x2f492ae87bf64247
supermarket,Pusat Perbelanjaan,Hypermart Ternate,"Q9XQ+G5G, Jl. Sultan M. Djabir Sjah Kel, RT.007/RW.004, Soa Sio, Kec. Kota Ternate Utara, Maluku Utara",Maluku Utara,MALUKU UTARA,,Indonesia,9213113010.0,0.7989861,127.3884829,https://maps.google.com/?cid=0x0:0xff03748bad776036
supermarket,Toko Perhiasan,Rajawali Mart,"Q84G+5CW, Jl. Pertamina, Sasa, Kec. Ternate Sel., Kota Ternate, Maluku Utara","Kota Ternate, Maluku Utara",MALUKU UTARA,,Indonesia,,0.7553693,127.3271529,https://maps.google.com/?cid=0x0:0x496ae344da74a5a2
supermarket,Minimarket,Muara Swalayan Ternate,"Muara Mall lt.1, Gamalama, Ternate Tengah, Ternate City, North Maluku","Kota Ternate, Maluku Utara",MALUKU UTARA,,Indonesia,,0.7911652,127.3864505,https://maps.google.com/?cid=0x0:0x37df62f5aa672f62
supermarket,Toko makanan beku,Chicken Mart,"Mangga Dua, Kec. Ternate Sel., Kota Ternate, Maluku Utara","Kota Ternate, Maluku Utara",MALUKU UTARA,,Indonesia,8114315529.0,0.7739443,127.3781799,https://maps.google.com/?cid=0x0:0x3d155b2ff319ca4d
supermarket,Grosir Beras,CV Guna Makmur,"Dacomib, Jl. Anggrek, Kota Baru, Kota Ternate, Maluku Utara 97751","Jl. Anggrek, Kota Baru, Kota Ternate",MALUKU UTARA,97751.0,Indonesia,82191799179.0,0.7815815,127.3867198,https://maps.google.com/?cid=0x0:0xc129904e9a943395
supermarket,Toko Bahan Bangunan,Toko makmur utama,"Jl. Pahlawan Revolusi No.132, Gamalama, Kec. Ternate Tengah, Kota Ternate, Maluku Utara","Kota Ternate, Maluku Utara",MALUKU UTARA,,Indonesia,,0.7876953,127.3886512,https://maps.google.com/?cid=0x0:0x5f7b6138c97f4e8
supermarket,Toko Alat Tulis Kantor,Garuda Elok Toko,"Jl. Pahlawan Revolusi No.123, Gamalama, Kec. Ternate Tengah, Kota Ternate, Maluku Utara","Kota Ternate, Maluku Utara",MALUKU UTARA,,Indonesia,92121437.0,0.7898763,127.3882938,https://maps.google.com/?cid=0x0:0xd0e5a678764cb440
supermarket,Minimarket,Dua Sekawan Sabia (DS09),"R95P+W62, Sangaji, Kec. Kota Ternate Utara, Kota Ternate, Maluku Utara","Kota Ternate, Maluku Utara",MALUKU UTARA,,Indonesia,,0.8097614,127.385506,https://maps.google.com/?cid=0x0:0xd760b3bd99fd7562
supermarket,Toserba,Super Toko,"Jl. Ps. Inpres Bastiong No.02, RT.02/RW.RW, Maliaro, Kec. Ternate Tengah, Kota Ternate, Maluku Utara","Kota Ternate, Maluku Utara",MALUKU UTARA,,Indonesia,92123428.0,0.7880544,127.3772047,https://maps.google.com/?cid=0x0:0xf075989f2d0a6871
supermarket,Minimarket,King Chicken Kayu Merah,"SAMPING BENTENG KALAMATA, Jl. Melati, RT.02/RW.01, Kayu Merah, Kota Ternate, Maluku Utara 97751","Jl. Melati, RT.02/RW.01, Kayu Merah, Kota Ternate",MALUKU UTARA,97751.0,Indonesia,82226528551.0,0.7630121,127.3729427,https://maps.google.com/?cid=0x0:0x23e0cccf8177973b
supermarket,supermarket,Maluku Utara,,Maluku Utara,MALUKU UTARA,,Indonesia,,1.5709993,127.8087693,https://maps.google.com/?cid=0x0:0x1030bfbcaf71ac0
supermarket,Toko,Dua Sekawan Swalayan,"Jl. Jati Besar No.502, Mangga Dua Utara, Kec. Ternate Sel., Kota Ternate, Maluku Utara","Kota Ternate, Maluku Utara",MALUKU UTARA,,Indonesia,9213127268.0,0.7775638,127.3767447,https://maps.google.com/?cid=0x0:0xce14aca6705f0fc
supermarket,Pusat Perbelanjaan,Hypermart Ternate,"Q9XQ+G5G, Jl. Sultan M. Djabir Sjah Kel, RT.007/RW.004, Soa Sio, Kec. Kota Ternate Utara, Maluku Utara",Maluku Utara,MALUKU UTARA,,Indonesia,9213113010.0,0.7989861,127.3884829,https://maps.google.com/?cid=0x0:0xff03748bad776036
supermarket,Toko makanan beku,Chicken Mart,"Mangga Dua, Kec. Ternate Sel., Kota Ternate, Maluku Utara","Kota Ternate, Maluku Utara",MALUKU UTARA,,Indonesia,8114315529.0,0.7739443,127.3781799,https://maps.google.com/?cid=0x0:0x3d155b2ff319ca4d
supermarket,Toko,Kios jumiyati,"Jambula, Kec. Pulau Ternate, Kota Ternate, Maluku Utara 97751","Kec. Pulau Ternate, Kota Ternate",MALUKU UTARA,97751.0,Indonesia,82338989898.0,0.7598866,127.3173338,https://maps.google.com/?cid=0x0:0x321ede34b98742bc
supermarket,Toko Alat Tulis Kantor,Garuda Elok Toko,"Jl. Pahlawan Revolusi No.123, Gamalama, Kec. Ternate Tengah, Kota Ternate, Maluku Utara","Kota Ternate, Maluku Utara",MALUKU UTARA,,Indonesia,92121437.0,0.7898763,127.3882938,https://maps.google.com/?cid=0x0:0xd0e5a678764cb440
supermarket,Tujuan Wisata,"Baru Ma Adu, Tomajiko Pulau Hiri","V8X3+J9W, Jalan Alamat, Abdul Basir, Tomajiko, Kec. Pulau Hiri, Kota Ternate, Maluku Utara","Kota Ternate, Maluku Utara",MALUKU UTARA,,Indonesia,,0.8991126,127.3034686,https://maps.google.com/?cid=0x0:0xb172ba8775b42df1
supermarket,Pastri,CAKE  COOKIES ROFITA,"Jambula, Kec. Pulau Ternate, Kota Ternate, Maluku Utara 97751","Kec. Pulau Ternate, Kota Ternate",MALUKU UTARA,97751.0,Indonesia,81247123057.0,0.755176,127.3236768,https://maps.google.com/?cid=0x0:0x17310a49f4a1d10c
supermarket,Minimarket,King Chicken Kayu Merah,"SAMPING BENTENG KALAMATA, Jl. Melati, RT.02/RW.01, Kayu Merah, Kota Ternate, Maluku Utara 97751","Jl. Melati, RT.02/RW.01, Kayu Merah, Kota Ternate",MALUKU UTARA,97751.0,Indonesia,82226528551.0,0.7630121,127.3729427,https://maps.google.com/?cid=0x0:0x23e0cccf8177973b
supermarket,Grosir Beras,CV Guna Makmur,"Dacomib, Jl. Anggrek, Kota Baru, Kota Ternate, Maluku Utara 97751","Jl. Anggrek, Kota Baru, Kota Ternate",MALUKU UTARA,97751.0,Indonesia,82191799179.0,0.7815815,127.3867198,https://maps.google.com/?cid=0x0:0xc129904e9a943395
supermarket,Toko Perlengkapan Rumah,Choco Living,"Jalan Seroja No.:48, Kayu Merah, Kec. Ternate Sel., Kota Ternate, Maluku Utara 97751","Kayu Merah, Kec. Ternate Sel., Kota Ternate",MALUKU UTARA,97751.0,Indonesia,82348053828.0,0.7633494,127.369628,https://maps.google.com/?cid=0x0:0x9d0822e3bdf8a1e9
supermarket,Toko Ponsel,vivo Store,"Jl. Sultan M. Djabir Sjah No.5 LT Dasar, Akehuda, Kec. Kota Ternate Utara, Kota Ternate, Maluku Utara 97751","Akehuda, Kec. Kota Ternate Utara, Kota Ternate",MALUKU UTARA,97751.0,Indonesia,85156199600.0,0.7976448,127.3883319,https://maps.google.com/?cid=0x0:0xf366ab444e4082d9
supermarket,Toko Ponsel,Maju Jaya Shop,"Jl. Sultan M. Djabir Sjah, Kota Ternate, Maluku Utara 97751",Kota Ternate,MALUKU UTARA,97751.0,Indonesia,,0.7897869,127.3901039,https://maps.google.com/?cid=0x0:0x2a7069fc0b67c42b
supermarket,Toko Kue,Choco Brownis,"Jalan Seroja No.48 RT/RW 004/002, Kayu Merah, Kec. Ternate Sel., Kota Ternate, Maluku Utara 97751","Kayu Merah, Kec. Ternate Sel., Kota Ternate",MALUKU UTARA,97751.0,Indonesia,82348053828.0,0.7633953,127.3695724,https://maps.google.com/?cid=0x0:0x3665029cf5668162
supermarket,Pusat Perbelanjaan,Hypermart Ternate,"Q9XQ+G5G, Jl. Sultan M. Djabir Sjah Kel, RT.007/RW.004, Soa Sio, Kec. Kota Ternate Utara, Maluku Utara",Maluku Utara,MALUKU UTARA,,Indonesia,9213113010.0,0.7989861,127.3884829,https://maps.google.com/?cid=0x0:0xff03748bad776036
supermarket,Toko Swalayan,Rafa Mart TERNATE,"Q9QH+Q3H, Kalumpang, Kec. Ternate Tengah, Kota Ternate, Maluku Utara","Kota Ternate, Maluku Utara",MALUKU UTARA,,Indonesia,81342782399.0,0.7894273,127.3777316,https://maps.google.com/?cid=0x0:0xb76d56a22409784f
supermarket,Toko Swalayan,Selecta mini market,"Q9QP+PWX, Jl. Nukila, Gamalama, Kec. Ternate Tengah, Kota Ternate, Maluku Utara","Kota Ternate, Maluku Utara",MALUKU UTARA,,Indonesia,9213121869.0,0.7893521,127.3873567,https://maps.google.com/?cid=0x0:0xfb02d513f6556bf1
supermarket,Toko Roti,Gloria Mini Market,"Q9QQ+X6P, JL. Boesoiri, Gamalama, Kec. Ternate Tengah, Kota Ternate, Maluku Utara 97721","JL. Boesoiri, Gamalama, Kec. Ternate Tengah, Kota Ternate",MALUKU UTARA,97721.0,Indonesia,92121863.0,0.7899547,127.3880914,https://maps.google.com/?cid=0x0:0x22e5e4a77f48969a
supermarket,Minimarket,Muara Swalayan Ternate,"Muara Mall lt.1, Gamalama, Ternate Tengah, Ternate City, North Maluku","Kota Ternate, Maluku Utara",MALUKU UTARA,,Indonesia,,0.7911652,127.3864505,https://maps.google.com/?cid=0x0:0x37df62f5aa672f62
supermarket,Toko Bahan Bangunan,Makmur Utama Supermarket Bahan Bangunan,"Jl. Yasin Gamsungi No.2 Kec. ternate tengah, Kel, Makassar Tim., Makassar Timur, Kota Ternate, Maluku Utara 97724","Kel, Makassar Tim., Makassar Timur, Kota Ternate",MALUKU UTARA,97724.0,Indonesia,8114313799.0,0.7940352,127.3876695,https://maps.google.com/?cid=0x0:0x2f492ae87bf64247
supermarket,Toko bahan makanan,Alfamidi Pemuda,"R95P+Q34, Jl. Pemuda, Sangaji, Kec. Kota Ternate Utara, Kota Ternate, Maluku Utara","Kota Ternate, Maluku Utara",MALUKU UTARA,,Indonesia,81340561606.0,0.8093756,127.3852063,https://maps.google.com/?cid=0x0:0x4bb2d1f4d9705b89
supermarket,Toko Bahan Bangunan,Makmur Utama Supermarket Bahan Bangunan,"Jambula, Kec. Pulau Ternate, Kota Ternate, Maluku Utara","Kota Ternate, Maluku Utara",MALUKU UTARA,,Indonesia,8114313899.0,0.7581804,127.3220409,https://maps.google.com/?cid=0x0:0xe3a01731f7851efa
supermarket,Toko bahan makanan,Alfamidi Pahlawan Revolusi,"Q9VQ+849, Jl. Pahlawan Revolusi, Gamalama, Kec. Ternate Tengah, Kota Ternate, Maluku Utara","Kota Ternate, Maluku Utara",MALUKU UTARA,,Indonesia,81354669558.0,0.7932887,127.3878531,https://maps.google.com/?cid=0x0:0xdc7c79bb58996dd2
supermarket,Toko Perhiasan,Rajawali Mart,"Q84G+5CW, Jl. Pertamina, Sasa, Kec. Ternate Sel., Kota Ternate, Maluku Utara","Kota Ternate, Maluku Utara",MALUKU UTARA,,Indonesia,,0.7553693,127.3271529,https://maps.google.com/?cid=0x0:0x496ae344da74a5a2
supermarket,Pusat jajanan kaki lima,"Jln.yos Sudarso,ko pisang kec.tetnste tengah kota Ternate Maluku utara","Q9MJ+F7Q, Kp. Pisang, Kec. Ternate Tengah, Kota Ternate, Maluku Utara","Kota Ternate, Maluku Utara",MALUKU UTARA,,Indonesia,,0.7837124,127.3807417,https://maps.google.com/?cid=0x0:0xfe24db1269113490
supermarket,Minimarket,INDOMARET - RAYA BATU ANGUS 170,"R9FP+92P, Akehuda, Kec. Kota Ternate Utara, Kota Ternate, Maluku Utara","Kota Ternate, Maluku Utara",MALUKU UTARA,,Indonesia,,0.8234514,127.3850807,https://maps.google.com/?cid=0x0:0xf25a9f98ba6124ad
supermarket,Grosir,Toko Harian Indah,"R93M+3X6, Salero, Kec. Kota Ternate Utara, Kota Ternate, Maluku Utara","Kota Ternate, Maluku Utara",MALUKU UTARA,,Indonesia,,0.802662,127.3848817,https://maps.google.com/?cid=0x0:0xd87c75f4bc42b373
supermarket,Toko Swalayan,Oleh Oleh Khas Ternate Maluku Utara | FALA TANAWAN,"Maliaro, Kec. Ternate Tengah, Kota Ternate, Maluku Utara 97711","Kec. Ternate Tengah, Kota Ternate",MALUKU UTARA,97711.0,Indonesia,82114147402.0,0.7833097,127.3753374,https://maps.google.com/?cid=0x0:0xe0b389f77d63d8e
