Category,Real Category,Business Name,Address,City,State,Postal Code,Country,Phone,Latitude,Longitude,Map Link
perumahan,perumahan,Kec. Ternate Sel.,"Kota Ternate, Maluku Utara","Kota Ternate, Maluku Utara",MALUKU UTARA,,Indonesia,,0.7676108,127.3745474,https://maps.google.com/?cid=0x0:0xd0e23e4e61e3ddd0
perumahan,Komplek perumahan,Perumahan BTN Tantibar,"Q9JF+J9M, Unnamed Road, Tanah Tinggi Bar., Kec. Ternate Sel., Kota Ternate, Maluku Utara","Kota Ternate, Maluku Utara",MALUKU UTARA,,Indonesia,,0.7815768,127.3734253,https://maps.google.com/?cid=0x0:0xe216b9184fea97e5
perumahan,Komplek perumahan,Perumahan Griya Mandiri kalumata Ternate Selatan,"Perumahan Griya Mandiri Tenate Selatan Jln, Tugu Makugawene Belakang Kantor DPRD, Blok A, No 30, Jl. Raya Kalumata Puncak, RT.008/RW.003, Kalumata, Kec. Ternate Sel., Kota Ternate, Maluku Utara","Kota Ternate, Maluku Utara",MALUKU UTARA,,Indonesia,81242922995.0,0.7666197,127.362294,https://maps.google.com/?cid=0x0:0x5679019753acccea
perumahan,Pembangunan Perumahan,Perumahan Kalumata Grand Village,"Unnamed Road, Kayu Merah, Kec. Ternate Sel., Kota Ternate, Maluku Utara","Kota Ternate, Maluku Utara",MALUKU UTARA,,Indonesia,,0.7681828,127.3634891,https://maps.google.com/?cid=0x0:0xde8cc897f45d8c7c
perumahan,Komplek perumahan,Perumahan Jan rivaldo,"Q9G7+WP2, Tabona, Kec. Ternate Sel., Kota Ternate, Maluku Utara","Kota Ternate, Maluku Utara",MALUKU UTARA,,Indonesia,,0.7772549,127.3642637,https://maps.google.com/?cid=0x0:0x971a0f97df25f95f
perumahan,Komplek perumahan,Rumah Angler,"Kode Pos 97713, Jl. JAN Perumahan Bukit Rivaldo RT 11 RW 004 Nom A.33, Tabona, Kec. Ternate Sel., Kota Ternate, Maluku Utara","Kota Ternate, Maluku Utara",MALUKU UTARA,,Indonesia,,0.7779193,127.3640604,https://maps.google.com/?cid=0x0:0x925acdf68cee6d6e
perumahan,Komplek perumahan,Ngade Kompleks Garuda,"Q973+2P6, Jalan Kalibobo, Ngade, Kec. Ternate Sel., Kota Ternate, Maluku Utara","Kota Ternate, Maluku Utara",MALUKU UTARA,,Indonesia,8114331478.0,0.7625408,127.3542807,https://maps.google.com/?cid=0x0:0xa1b089390c773973
perumahan,Pembangunan Perumahan,Perumahan Makmur Utama,"Q9F7+MHR, Tabona, Kec. Ternate Sel., Kota Ternate, Maluku Utara","Kota Ternate, Maluku Utara",MALUKU UTARA,,Indonesia,,0.7741538,127.3639823,https://maps.google.com/?cid=0x0:0xaceed34c57927d9f
perumahan,Komplek perumahan,RUMAH MUL,"Q98F+8XW, Bastiong Karance, Kec. Ternate Sel., Kota Ternate, Maluku Utara","Kota Ternate, Maluku Utara",MALUKU UTARA,,Indonesia,,0.766565,127.374876,https://maps.google.com/?cid=0x0:0x9a3215a9ebee761f
perumahan,Gedung Apartemen,Rumah Ayu,"Q98C+HWC, Bastiong Karance, Kec. Ternate Sel., Kota Ternate, Maluku Utara","Kota Ternate, Maluku Utara",MALUKU UTARA,,Indonesia,,0.7664395,127.3722559,https://maps.google.com/?cid=0x0:0x1136aa3c95eb259b
perumahan,Komplek perumahan,Kontrakanku,"Bastiong Talangame, Kec. Ternate Sel., Kota Ternate, Maluku Utara","Kota Ternate, Maluku Utara",MALUKU UTARA,,Indonesia,,0.7710283,127.3710724,https://maps.google.com/?cid=0x0:0x445dabc0b0607aa3
perumahan,Perhimpunan Pengembang Perumahan,Perumahan bella Blok A No 3,"Q9GG+5FG, Jl. Jati, Jati, Kec. Ternate Sel., Kota Ternate, Maluku Utara","Kota Ternate, Maluku Utara",MALUKU UTARA,,Indonesia,,0.7754275,127.3762125,https://maps.google.com/?cid=0x0:0x492704ce53bf2f34
perumahan,Pembangunan Perumahan,Perumahan Gria Tabona,"Q9F8+G42, Perumahan Gria, Tabona, Kec. Ternate Sel., Kota Ternate, Maluku Utara","Kota Ternate, Maluku Utara",MALUKU UTARA,,Indonesia,,0.773771,127.3652557,https://maps.google.com/?cid=0x0:0xa14fd22abd77e1e6
perumahan,Komplek perumahan,Prince Residence Kalumata,"Jl. Santo Pedro No.37, Kalumata, Kec. Ternate Sel., Kota Ternate, Maluku Utara 97715","Kalumata, Kec. Ternate Sel., Kota Ternate",MALUKU UTARA,97715.0,Indonesia,,0.7618315,127.359564,https://maps.google.com/?cid=0x0:0x1d98007cacdba3de
perumahan,perumahan,Kec. Ternate Sel.,"Kota Ternate, Maluku Utara","Kota Ternate, Maluku Utara",MALUKU UTARA,,Indonesia,,0.7676108,127.3745474,https://maps.google.com/?cid=0x0:0xd0e23e4e61e3ddd0
perumahan,Pembangunan Perumahan,Perumahan Makmur Megah Residence,"Q9F7+MHR, Tabona, Kec. Ternate Sel., Kota Ternate, Maluku Utara","Kota Ternate, Maluku Utara",MALUKU UTARA,,Indonesia,,0.7742371,127.3639036,https://maps.google.com/?cid=0x0:0xaee5a3ecc4ae59fc
perumahan,Komplek perumahan,Perumahan BTN Tantibar,"Q9JF+J9M, Unnamed Road, Tanah Tinggi Bar., Kec. Ternate Sel., Kota Ternate, Maluku Utara","Kota Ternate, Maluku Utara",MALUKU UTARA,,Indonesia,,0.7815768,127.3734253,https://maps.google.com/?cid=0x0:0xe216b9184fea97e5
perumahan,Pembangunan Perumahan,Perumahan Makmur Utama,"Q9F7+MHR, Tabona, Kec. Ternate Sel., Kota Ternate, Maluku Utara","Kota Ternate, Maluku Utara",MALUKU UTARA,,Indonesia,,0.7741538,127.3639823,https://maps.google.com/?cid=0x0:0xaceed34c57927d9f
perumahan,perumahan,Abdullah kamarullah,"Q9CF+285, Bastiong Talangame, Kec. Ternate Sel., Kota Ternate, Maluku Utara","Kota Ternate, Maluku Utara",MALUKU UTARA,,Indonesia,,0.7697038,127.3733183,https://maps.google.com/?cid=0x0:0xb316e88a20f0c657
perumahan,Komplek perumahan,Perumahan Sahid Bela,"Q9GG+6C4, Jl. Jati Besar, Jati, Kec. Ternate Sel., Kota Ternate, Maluku Utara","Kota Ternate, Maluku Utara",MALUKU UTARA,,Indonesia,,0.7755231,127.3760821,https://maps.google.com/?cid=0x0:0xdcc65631637b5b6a
perumahan,Pembangunan Perumahan,Rumah Jabatan Kepala PPN Ternate,"Q99G+3HH, Bastiong Talangame, Kec. Ternate Sel., Kota Ternate, Maluku Utara","Kota Ternate, Maluku Utara",MALUKU UTARA,,Indonesia,,0.7676985,127.376487,https://maps.google.com/?cid=0x0:0xae7701eda65cec96
perumahan,Komplek perumahan,Prince Residence Kalumata,"Jl. Santo Pedro No.37, Kalumata, Kec. Ternate Sel., Kota Ternate, Maluku Utara 97715","Kalumata, Kec. Ternate Sel., Kota Ternate",MALUKU UTARA,97715.0,Indonesia,,0.7618315,127.359564,https://maps.google.com/?cid=0x0:0x1d98007cacdba3de
perumahan,Pembangunan Perumahan,Perumahan Gria Tabona,"Q9F8+G42, Perumahan Gria, Tabona, Kec. Ternate Sel., Kota Ternate, Maluku Utara","Kota Ternate, Maluku Utara",MALUKU UTARA,,Indonesia,,0.773771,127.3652557,https://maps.google.com/?cid=0x0:0xa14fd22abd77e1e6
perumahan,Perhimpunan Pengembang Perumahan,Perumahan bella Blok A No 3,"Q9GG+5FG, Jl. Jati, Jati, Kec. Ternate Sel., Kota Ternate, Maluku Utara","Kota Ternate, Maluku Utara",MALUKU UTARA,,Indonesia,,0.7754275,127.3762125,https://maps.google.com/?cid=0x0:0x492704ce53bf2f34
perumahan,Komplek perumahan,Perumahan Jan rivaldo,"Q9G7+WP2, Tabona, Kec. Ternate Sel., Kota Ternate, Maluku Utara","Kota Ternate, Maluku Utara",MALUKU UTARA,,Indonesia,,0.7772549,127.3642637,https://maps.google.com/?cid=0x0:0x971a0f97df25f95f
perumahan,Pembangunan Perumahan,Perumahan,"Q984+44P, Ngade, Kec. Ternate Sel., Kota Ternate, Maluku Utara","Kota Ternate, Maluku Utara",MALUKU UTARA,,Indonesia,,0.7650539,127.3553995,https://maps.google.com/?cid=0x0:0x5ab397056fa8333b
perumahan,Komplek perumahan,RUMAH MUL,"Q98F+8XW, Bastiong Karance, Kec. Ternate Sel., Kota Ternate, Maluku Utara","Kota Ternate, Maluku Utara",MALUKU UTARA,,Indonesia,,0.766565,127.374876,https://maps.google.com/?cid=0x0:0x9a3215a9ebee761f
perumahan,Pembangunan Perumahan,Perumahan Kalumata Grand Village,"Unnamed Road, Kayu Merah, Kec. Ternate Sel., Kota Ternate, Maluku Utara","Kota Ternate, Maluku Utara",MALUKU UTARA,,Indonesia,,0.7681828,127.3634891,https://maps.google.com/?cid=0x0:0xde8cc897f45d8c7c
perumahan,perumahan,Maluku Utara 97716,"Jati, Kec. Ternate Sel., Kota Ternate, Maluku Utara","Kota Ternate, Maluku Utara",MALUKU UTARA,,Indonesia,,0.774964,127.3753239,https://maps.google.com/?cid=0x0:0xd3326394ae1fb547
perumahan,Pembangunan Perumahan,Perumahan Makmur Utama,"Q9F7+MHR, Tabona, Kec. Ternate Sel., Kota Ternate, Maluku Utara","Kota Ternate, Maluku Utara",MALUKU UTARA,,Indonesia,,0.7741538,127.3639823,https://maps.google.com/?cid=0x0:0xaceed34c57927d9f
perumahan,Komplek perumahan,Perumahan Sahid Bela,"Q9GG+6C4, Jl. Jati Besar, Jati, Kec. Ternate Sel., Kota Ternate, Maluku Utara","Kota Ternate, Maluku Utara",MALUKU UTARA,,Indonesia,,0.7755231,127.3760821,https://maps.google.com/?cid=0x0:0xdcc65631637b5b6a
perumahan,Komplek perumahan,Perumahan Bukit Maliaro (Depomart),"Q9J8+CXV, Unnamed Road, Tanah Tinggi Bar., Kec. Ternate Sel., Kota Ternate, Maluku Utara","Kota Ternate, Maluku Utara",MALUKU UTARA,,Indonesia,,0.7811228,127.3674069,https://maps.google.com/?cid=0x0:0x291a5b74f6ad307e
perumahan,Komplek perumahan,"Perumahan Jati Permai, Kanwil Ditjen Perbendaharaan Maluku Utara","Q9GG+JMF, Jl. Jati Inpres, Jati, Kec. Ternate Sel., Kota Ternate, Maluku Utara","Kota Ternate, Maluku Utara",MALUKU UTARA,,Indonesia,,0.7765596,127.3766758,https://maps.google.com/?cid=0x0:0x8f9b23a26cbc22a2
perumahan,Komplek perumahan,Rumah,"Q9GG+GMC, Jl. Jati Inpres, Jati, Kec. Ternate Sel., Kota Ternate, Maluku Utara","Kota Ternate, Maluku Utara",MALUKU UTARA,,Indonesia,,0.7762039,127.3766721,https://maps.google.com/?cid=0x0:0xa6b8ac2800162eae
perumahan,Perhimpunan Pengembang Perumahan,Perumahan bella Blok A No 3,"Q9GG+5FG, Jl. Jati, Jati, Kec. Ternate Sel., Kota Ternate, Maluku Utara","Kota Ternate, Maluku Utara",MALUKU UTARA,,Indonesia,,0.7754275,127.3762125,https://maps.google.com/?cid=0x0:0x492704ce53bf2f34
perumahan,Komplek perumahan,TAA,"Q9GG+7QR, Jati, Kec. Ternate Sel., Kota Ternate, Maluku Utara","Kota Ternate, Maluku Utara",MALUKU UTARA,,Indonesia,,0.7757375,127.376883,https://maps.google.com/?cid=0x0:0x725f89146d9a3d64
perumahan,Pembangunan Perumahan,Perumahan,"Q984+44P, Ngade, Kec. Ternate Sel., Kota Ternate, Maluku Utara","Kota Ternate, Maluku Utara",MALUKU UTARA,,Indonesia,,0.7650539,127.3553995,https://maps.google.com/?cid=0x0:0x5ab397056fa8333b
perumahan,Kompleks Bangunan Perusahaan,Ditjen Perbendaharaan Kementrian Keuangan,"Jl. Jati Inpres No.7, Jati, Kec. Ternate Sel., Kota Ternate, Maluku Utara","Kota Ternate, Maluku Utara",MALUKU UTARA,,Indonesia,,0.7757444,127.377191,https://maps.google.com/?cid=0x0:0x9d29cd743f1d77e6
perumahan,Masjid,Kelurahan Jati Kota Ternate Selatan,"Q9GG+738, RT.004/RW.02, Jati, Kec. Ternate Sel., Kota Ternate, Maluku Utara","Kota Ternate, Maluku Utara",MALUKU UTARA,,Indonesia,,0.7756551,127.3752073,https://maps.google.com/?cid=0x0:0x86ddf3cd5193c0f4
perumahan,Komplek perumahan,Queen HomeBase,"Q9FG+W6P Perumahan Bela Jati Residence, Jl. Jati Besar, Jati, Ternate Selatan, Ternate City, North Maluku","Kota Ternate, Maluku Utara",MALUKU UTARA,,Indonesia,,0.7748418,127.3755739,https://maps.google.com/?cid=0x0:0x8f3334443240b553
perumahan,Kantor Perusahaan,Lulu Pratama Residence Maliaro,"Jl. Cempaka No.722, Tanah Tinggi Bar., Kec. Ternate Sel., Kota Ternate, Maluku Utara","Kota Ternate, Maluku Utara",MALUKU UTARA,,Indonesia,,0.7840735,127.3658601,https://maps.google.com/?cid=0x0:0x9a05dbc775c4a057
perumahan,Komplek perumahan,Maliaro puncak,"Maliaro, Kec. Ternate Tengah, Kota Ternate, Maluku Utara","Kota Ternate, Maluku Utara",MALUKU UTARA,,Indonesia,,0.78959,127.3860498,https://maps.google.com/?cid=0x0:0xc0fcd795a331418f
perumahan,perumahan,Kec. Ternate Sel.,"Kota Ternate, Maluku Utara","Kota Ternate, Maluku Utara",MALUKU UTARA,,Indonesia,,0.7676108,127.3745474,https://maps.google.com/?cid=0x0:0xd0e23e4e61e3ddd0
perumahan,Pembangunan Perumahan,Perumahan Kalumata Grand Village,"Unnamed Road, Kayu Merah, Kec. Ternate Sel., Kota Ternate, Maluku Utara","Kota Ternate, Maluku Utara",MALUKU UTARA,,Indonesia,,0.7681828,127.3634891,https://maps.google.com/?cid=0x0:0xde8cc897f45d8c7c
perumahan,perumahan,Abdullah kamarullah,"Q9CF+285, Bastiong Talangame, Kec. Ternate Sel., Kota Ternate, Maluku Utara","Kota Ternate, Maluku Utara",MALUKU UTARA,,Indonesia,,0.7697038,127.3733183,https://maps.google.com/?cid=0x0:0xb316e88a20f0c657
perumahan,Komplek perumahan,Perumahan Griya Mandiri kalumata Ternate Selatan,"Perumahan Griya Mandiri Tenate Selatan Jln, Tugu Makugawene Belakang Kantor DPRD, Blok A, No 30, Jl. Raya Kalumata Puncak, RT.008/RW.003, Kalumata, Kec. Ternate Sel., Kota Ternate, Maluku Utara","Kota Ternate, Maluku Utara",MALUKU UTARA,,Indonesia,81242922995.0,0.7666197,127.362294,https://maps.google.com/?cid=0x0:0x5679019753acccea
perumahan,Komplek perumahan,Rumah Natalia,"Q988+89G, Kayu Merah, Kec. Ternate Sel., Kota Ternate, Maluku Utara","Kota Ternate, Maluku Utara",MALUKU UTARA,,Indonesia,,0.7658102,127.3659538,https://maps.google.com/?cid=0x0:0x2f33ccb4019dfb56
perumahan,Komplek perumahan,Ngade Kompleks Garuda,"Q973+2P6, Jalan Kalibobo, Ngade, Kec. Ternate Sel., Kota Ternate, Maluku Utara","Kota Ternate, Maluku Utara",MALUKU UTARA,,Indonesia,8114331478.0,0.7625408,127.3542807,https://maps.google.com/?cid=0x0:0xa1b089390c773973
perumahan,Pembangunan Perumahan,Perumahan Gria Tabona,"Q9F8+G42, Perumahan Gria, Tabona, Kec. Ternate Sel., Kota Ternate, Maluku Utara","Kota Ternate, Maluku Utara",MALUKU UTARA,,Indonesia,,0.773771,127.3652557,https://maps.google.com/?cid=0x0:0xa14fd22abd77e1e6
perumahan,Komplek perumahan,RUMAH MUL,"Q98F+8XW, Bastiong Karance, Kec. Ternate Sel., Kota Ternate, Maluku Utara","Kota Ternate, Maluku Utara",MALUKU UTARA,,Indonesia,,0.766565,127.374876,https://maps.google.com/?cid=0x0:0x9a3215a9ebee761f
perumahan,Komplek perumahan,Perumahan Jan rivaldo,"Q9G7+WP2, Tabona, Kec. Ternate Sel., Kota Ternate, Maluku Utara","Kota Ternate, Maluku Utara",MALUKU UTARA,,Indonesia,,0.7772549,127.3642637,https://maps.google.com/?cid=0x0:0x971a0f97df25f95f
perumahan,Pembangunan Perumahan,Perumahan Makmur Utama,"Q9F7+MHR, Tabona, Kec. Ternate Sel., Kota Ternate, Maluku Utara","Kota Ternate, Maluku Utara",MALUKU UTARA,,Indonesia,,0.7741538,127.3639823,https://maps.google.com/?cid=0x0:0xaceed34c57927d9f
perumahan,Komplek perumahan,Perumahan BTN Tantibar,"Q9JF+J9M, Unnamed Road, Tanah Tinggi Bar., Kec. Ternate Sel., Kota Ternate, Maluku Utara","Kota Ternate, Maluku Utara",MALUKU UTARA,,Indonesia,,0.7815768,127.3734253,https://maps.google.com/?cid=0x0:0xe216b9184fea97e5
perumahan,Komplek perumahan,Rumah GMSamadan,"Marikurubu, Kec. Ternate Tengah, Kota Ternate, Maluku Utara","Kota Ternate, Maluku Utara",MALUKU UTARA,,Indonesia,81242955224.0,0.7914572,127.3661891,https://maps.google.com/?cid=0x0:0x3ffcee5951c06a14
perumahan,Gedung Apartemen,Rumah Ayu,"Q98C+HWC, Bastiong Karance, Kec. Ternate Sel., Kota Ternate, Maluku Utara","Kota Ternate, Maluku Utara",MALUKU UTARA,,Indonesia,,0.7664395,127.3722559,https://maps.google.com/?cid=0x0:0x1136aa3c95eb259b
perumahan,Komplek perumahan,ISMAIL BANDA,"Q99C+PWP, Bastiong Talangame, Kec. Ternate Sel., Kota Ternate, Maluku Utara","Kota Ternate, Maluku Utara",MALUKU UTARA,,Indonesia,81342357226.0,0.769338,127.3723203,https://maps.google.com/?cid=0x0:0x6419213f00ebf45b
perumahan,perumahan,Maluku Utara 97718,"Kalumata, Kec. Ternate Sel., Kota Ternate, Maluku Utara","Kota Ternate, Maluku Utara",MALUKU UTARA,,Indonesia,,0.7645594,127.3662047,https://maps.google.com/?cid=0x0:0x663035b682ff1ce5
perumahan,Komplek perumahan,Home,"Jl. Raya Kalumata Puncak A No.4, Kalumata, Kec. Ternate Sel., Kota Ternate, Maluku Utara 97718","Kalumata, Kec. Ternate Sel., Kota Ternate",MALUKU UTARA,97718.0,Indonesia,,0.7648369,127.3666786,https://maps.google.com/?cid=0x0:0x64a0753efb4c0569
perumahan,Pembangunan Perumahan,Perumahan Makmur Utama,"Q9F7+MHR, Tabona, Kec. Ternate Sel., Kota Ternate, Maluku Utara","Kota Ternate, Maluku Utara",MALUKU UTARA,,Indonesia,,0.7741538,127.3639823,https://maps.google.com/?cid=0x0:0xaceed34c57927d9f
perumahan,perumahan,Rumah Idris  Sabaria,"RT.007/RW.003, Kalumata, Kec. Ternate Sel., Kota Ternate, Maluku Utara 97718","Kalumata, Kec. Ternate Sel., Kota Ternate",MALUKU UTARA,97718.0,Indonesia,,0.7645085,127.3661856,https://maps.google.com/?cid=0x0:0x9b5b3f2ad9298cae
perumahan,Pembangunan Perumahan,PERUMAHAN DAGYMOI GREEN VILLAGE - SOA PUNCAK,"Soa Puncak, Kec. Kota Ternate Utara, Kota Ternate, Maluku Utara","Kota Ternate, Maluku Utara",MALUKU UTARA,,Indonesia,82190066007.0,0.8014446,127.3738425,https://maps.google.com/?cid=0x0:0x9cc9734035a1d90d
perumahan,Kantor Perusahaan,Lulu Pratama Residence Maliaro,"Jl. Cempaka No.722, Tanah Tinggi Bar., Kec. Ternate Sel., Kota Ternate, Maluku Utara","Kota Ternate, Maluku Utara",MALUKU UTARA,,Indonesia,,0.7840735,127.3658601,https://maps.google.com/?cid=0x0:0x9a05dbc775c4a057
perumahan,Komplek perumahan,Perumahan Bukit Maliaro (Depomart),"Q9J8+CXV, Unnamed Road, Tanah Tinggi Bar., Kec. Ternate Sel., Kota Ternate, Maluku Utara","Kota Ternate, Maluku Utara",MALUKU UTARA,,Indonesia,,0.7811228,127.3674069,https://maps.google.com/?cid=0x0:0x291a5b74f6ad307e
perumahan,Pembangunan Perumahan,Perumahan,"Q984+44P, Ngade, Kec. Ternate Sel., Kota Ternate, Maluku Utara","Kota Ternate, Maluku Utara",MALUKU UTARA,,Indonesia,,0.7650539,127.3553995,https://maps.google.com/?cid=0x0:0x5ab397056fa8333b
perumahan,Komplek perumahan,Rumah Al,"Q978+H55, Jl. Raya Kalumata Puncak, Kalumata, Kec. Ternate Sel., Kota Ternate, Maluku Utara","Kota Ternate, Maluku Utara",MALUKU UTARA,,Indonesia,,0.7638987,127.3654836,https://maps.google.com/?cid=0x0:0xb2b350f65f50b2d4
perumahan,Komplek perumahan,Rumah loloda badja,"Q978+M4M, Kalumata, Kec. Ternate Sel., Kota Ternate, Maluku Utara","Kota Ternate, Maluku Utara",MALUKU UTARA,,Indonesia,,0.7642074,127.3652969,https://maps.google.com/?cid=0x0:0xbe463d8ca3c2a82d
perumahan,Komplek perumahan,Prince Residence Kalumata,"Jl. Santo Pedro No.37, Kalumata, Kec. Ternate Sel., Kota Ternate, Maluku Utara 97715","Kalumata, Kec. Ternate Sel., Kota Ternate",MALUKU UTARA,97715.0,Indonesia,,0.7618315,127.359564,https://maps.google.com/?cid=0x0:0x1d98007cacdba3de
perumahan,Komplek perumahan,Rumah Ma Hj Aty,"Q978+GC2, Kalumata, Kec. Ternate Sel., Kota Ternate, Maluku Utara","Kota Ternate, Maluku Utara",MALUKU UTARA,,Indonesia,,0.7637749,127.3660203,https://maps.google.com/?cid=0x0:0xbc6df9af73dcce45
perumahan,Komplek perumahan,Maliaro puncak,"Maliaro, Kec. Ternate Tengah, Kota Ternate, Maluku Utara","Kota Ternate, Maluku Utara",MALUKU UTARA,,Indonesia,,0.78959,127.3860498,https://maps.google.com/?cid=0x0:0xc0fcd795a331418f
perumahan,Perumahan,Hunian ibu suryani,"Q977+JPJ, Kalumata, Kec. Ternate Sel., Kota Ternate, Maluku Utara","Kota Ternate, Maluku Utara",MALUKU UTARA,,Indonesia,,0.7640559,127.3641834,https://maps.google.com/?cid=0x0:0x21a97a54e0b79e74
perumahan,perumahan,Maluku Utara 97719,"Gambesi, Kec. Ternate Sel., Kota Ternate, Maluku Utara","Kota Ternate, Maluku Utara",MALUKU UTARA,,Indonesia,,0.7574825,127.337924,https://maps.google.com/?cid=0x0:0x8c905e5582c8d0aa
perumahan,Pembangunan Perumahan,Perumahan Makmur Utama,"Q9F7+MHR, Tabona, Kec. Ternate Sel., Kota Ternate, Maluku Utara","Kota Ternate, Maluku Utara",MALUKU UTARA,,Indonesia,,0.7741538,127.3639823,https://maps.google.com/?cid=0x0:0xaceed34c57927d9f
perumahan,Komplek perumahan,Rumah jum,"Q85Q+23G, Gambesi, Kec. Ternate Sel., Kota Ternate, Maluku Utara","Kota Ternate, Maluku Utara",MALUKU UTARA,,Indonesia,,0.7575504,127.3377001,https://maps.google.com/?cid=0x0:0xa81027b9691e4fb4
perumahan,Komplek perumahan,Prince Residence Kalumata,"Jl. Santo Pedro No.37, Kalumata, Kec. Ternate Sel., Kota Ternate, Maluku Utara 97715","Kalumata, Kec. Ternate Sel., Kota Ternate",MALUKU UTARA,97715.0,Indonesia,,0.7618315,127.359564,https://maps.google.com/?cid=0x0:0x1d98007cacdba3de
perumahan,Komplek perumahan,Lokasi wisuda,"Q84Q+JQW, Gambesi, Kec. Ternate Sel., Kota Ternate, Maluku Utara","Kota Ternate, Maluku Utara",MALUKU UTARA,,Indonesia,,0.7566124,127.3394538,https://maps.google.com/?cid=0x0:0x49661b0b3e8af504
perumahan,Komplek perumahan,Perumahan Bukit Maliaro (Depomart),"Q9J8+CXV, Unnamed Road, Tanah Tinggi Bar., Kec. Ternate Sel., Kota Ternate, Maluku Utara","Kota Ternate, Maluku Utara",MALUKU UTARA,,Indonesia,,0.7811228,127.3674069,https://maps.google.com/?cid=0x0:0x291a5b74f6ad307e
perumahan,Pertanian,KOSAN 3 BERSAUDARA. ALSPORTS TERNATE,"Q84Q+W6V, Gambesi, Kec. Ternate Sel., Kota Ternate, Maluku Utara","Kota Ternate, Maluku Utara",MALUKU UTARA,,Indonesia,,0.7573599,127.3380502,https://maps.google.com/?cid=0x0:0xf60326f28f0a5f1c
perumahan,Asrama Pelajar,Blakan asrama Nuku,"Q84Q+JHH, Gambesi, Kec. Ternate Sel., Kota Ternate, Maluku Utara","Kota Ternate, Maluku Utara",MALUKU UTARA,,Indonesia,,0.7565626,127.3389691,https://maps.google.com/?cid=0x0:0x525d0a832cf083e2
perumahan,perumahan,Kec. Ternate Sel.,"Kota Ternate, Maluku Utara","Kota Ternate, Maluku Utara",MALUKU UTARA,,Indonesia,,0.7676108,127.3745474,https://maps.google.com/?cid=0x0:0xd0e23e4e61e3ddd0
perumahan,Komplek perumahan,Perumahan Griya Mandiri kalumata Ternate Selatan,"Perumahan Griya Mandiri Tenate Selatan Jln, Tugu Makugawene Belakang Kantor DPRD, Blok A, No 30, Jl. Raya Kalumata Puncak, RT.008/RW.003, Kalumata, Kec. Ternate Sel., Kota Ternate, Maluku Utara","Kota Ternate, Maluku Utara",MALUKU UTARA,,Indonesia,81242922995.0,0.7666197,127.362294,https://maps.google.com/?cid=0x0:0x5679019753acccea
perumahan,Pembangunan Perumahan,Perumahan Kalumata Grand Village,"Unnamed Road, Kayu Merah, Kec. Ternate Sel., Kota Ternate, Maluku Utara","Kota Ternate, Maluku Utara",MALUKU UTARA,,Indonesia,,0.7681828,127.3634891,https://maps.google.com/?cid=0x0:0xde8cc897f45d8c7c
perumahan,Komplek perumahan,Ngade Kompleks Garuda,"Q973+2P6, Jalan Kalibobo, Ngade, Kec. Ternate Sel., Kota Ternate, Maluku Utara","Kota Ternate, Maluku Utara",MALUKU UTARA,,Indonesia,8114331478.0,0.7625408,127.3542807,https://maps.google.com/?cid=0x0:0xa1b089390c773973
perumahan,Komplek perumahan,Perumahan Jan rivaldo,"Q9G7+WP2, Tabona, Kec. Ternate Sel., Kota Ternate, Maluku Utara","Kota Ternate, Maluku Utara",MALUKU UTARA,,Indonesia,,0.7772549,127.3642637,https://maps.google.com/?cid=0x0:0x971a0f97df25f95f
perumahan,Komplek perumahan,Perumahan BTN Tantibar,"Q9JF+J9M, Unnamed Road, Tanah Tinggi Bar., Kec. Ternate Sel., Kota Ternate, Maluku Utara","Kota Ternate, Maluku Utara",MALUKU UTARA,,Indonesia,,0.7815768,127.3734253,https://maps.google.com/?cid=0x0:0xe216b9184fea97e5
perumahan,Pembangunan Perumahan,Perumahan Makmur Megah Residence,"Q9F7+MHR, Tabona, Kec. Ternate Sel., Kota Ternate, Maluku Utara","Kota Ternate, Maluku Utara",MALUKU UTARA,,Indonesia,,0.7742371,127.3639036,https://maps.google.com/?cid=0x0:0xaee5a3ecc4ae59fc
perumahan,perumahan,Kec. Ternate Sel.,"Kota Ternate, Maluku Utara","Kota Ternate, Maluku Utara",MALUKU UTARA,,Indonesia,,0.7676108,127.3745474,https://maps.google.com/?cid=0x0:0xd0e23e4e61e3ddd0
perumahan,Pembangunan Perumahan,Perumahan Makmur Utama,"Q9F7+MHR, Tabona, Kec. Ternate Sel., Kota Ternate, Maluku Utara","Kota Ternate, Maluku Utara",MALUKU UTARA,,Indonesia,,0.7741538,127.3639823,https://maps.google.com/?cid=0x0:0xaceed34c57927d9f
perumahan,Perumahan,Perumahan Tabona Indah,"Jl. Jan, Tabona, Kec. Ternate Sel., Kota Ternate, Maluku Utara","Kota Ternate, Maluku Utara",MALUKU UTARA,,Indonesia,,0.7730637,127.3671462,https://maps.google.com/?cid=0x0:0x2609c46a4a21a26c
perumahan,Komplek perumahan,Perumahan Bukit Jan Residence,"Jl. Balibunga, Tabona, Kec. Ternate Sel., Kota Ternate, Maluku Utara","Kota Ternate, Maluku Utara",MALUKU UTARA,,Indonesia,,0.7748387,127.3654294,https://maps.google.com/?cid=0x0:0x937b7c130dace91e
perumahan,Komplek perumahan,Perumahan BTN Tantibar,"Q9JF+J9M, Unnamed Road, Tanah Tinggi Bar., Kec. Ternate Sel., Kota Ternate, Maluku Utara","Kota Ternate, Maluku Utara",MALUKU UTARA,,Indonesia,,0.7815768,127.3734253,https://maps.google.com/?cid=0x0:0xe216b9184fea97e5
perumahan,Pembangunan Perumahan,Perumahan Kalumata Grand Village,"Unnamed Road, Kayu Merah, Kec. Ternate Sel., Kota Ternate, Maluku Utara","Kota Ternate, Maluku Utara",MALUKU UTARA,,Indonesia,,0.7681828,127.3634891,https://maps.google.com/?cid=0x0:0xde8cc897f45d8c7c
perumahan,perumahan,Abdullah kamarullah,"Q9CF+285, Bastiong Talangame, Kec. Ternate Sel., Kota Ternate, Maluku Utara","Kota Ternate, Maluku Utara",MALUKU UTARA,,Indonesia,,0.7697038,127.3733183,https://maps.google.com/?cid=0x0:0xb316e88a20f0c657
perumahan,Komplek perumahan,Prince Residence Kalumata,"Jl. Santo Pedro No.37, Kalumata, Kec. Ternate Sel., Kota Ternate, Maluku Utara 97715","Kalumata, Kec. Ternate Sel., Kota Ternate",MALUKU UTARA,97715.0,Indonesia,,0.7618315,127.359564,https://maps.google.com/?cid=0x0:0x1d98007cacdba3de
perumahan,Pembangunan Perumahan,Perumahan Gria Tabona,"Q9F8+G42, Perumahan Gria, Tabona, Kec. Ternate Sel., Kota Ternate, Maluku Utara","Kota Ternate, Maluku Utara",MALUKU UTARA,,Indonesia,,0.773771,127.3652557,https://maps.google.com/?cid=0x0:0xa14fd22abd77e1e6
perumahan,Komplek perumahan,Perumahan Jan rivaldo,"Q9G7+WP2, Tabona, Kec. Ternate Sel., Kota Ternate, Maluku Utara","Kota Ternate, Maluku Utara",MALUKU UTARA,,Indonesia,,0.7772549,127.3642637,https://maps.google.com/?cid=0x0:0x971a0f97df25f95f
perumahan,Pembangunan Perumahan,Rumah Jabatan Kepala PPN Ternate,"Q99G+3HH, Bastiong Talangame, Kec. Ternate Sel., Kota Ternate, Maluku Utara","Kota Ternate, Maluku Utara",MALUKU UTARA,,Indonesia,,0.7676985,127.376487,https://maps.google.com/?cid=0x0:0xae7701eda65cec96
perumahan,Kantor Perusahaan,Perumahan Bukit Lestari Jan,"Q9F9+V4P, Unnamed Road, Tabona, Kec. Ternate Sel., Kota Ternate, Maluku Utara","Kota Ternate, Maluku Utara",MALUKU UTARA,,Indonesia,,0.7747046,127.3678317,https://maps.google.com/?cid=0x0:0xedb611fc61e57d8b
perumahan,Komplek perumahan,Perumahan Syariah SASA,"Stikip Kie Raha, Jalan, Sasa, Ternate Selatan, Ternate City, North Maluku","Kota Ternate, Maluku Utara",MALUKU UTARA,,Indonesia,,0.7624843,127.3233565,https://maps.google.com/?cid=0x0:0xd65e0356fa3e7991
perumahan,perumahan,Maluku Utara 97723,"Muhajirin, Kec. Ternate Tengah, Kota Ternate, Maluku Utara","Kota Ternate, Maluku Utara",MALUKU UTARA,,Indonesia,,0.7858613,127.3882262,https://maps.google.com/?cid=0x0:0xa7775daff08563c
perumahan,Komplek perumahan,Perum Depo Mart,"Q9J9+F7Q, Tanah Tinggi Bar., Kec. Ternate Sel., Kota Ternate, Maluku Utara","Kota Ternate, Maluku Utara",MALUKU UTARA,,Indonesia,,0.7812157,127.3682211,https://maps.google.com/?cid=0x0:0xfd545cab625acc57
perumahan,Pembangunan Perumahan,Perumahan Makmur Utama,"Q9F7+MHR, Tabona, Kec. Ternate Sel., Kota Ternate, Maluku Utara","Kota Ternate, Maluku Utara",MALUKU UTARA,,Indonesia,,0.7741538,127.3639823,https://maps.google.com/?cid=0x0:0xaceed34c57927d9f
perumahan,Penginapan,Griya Sangaji Kota Ternate,"R96F+CJC, Sangaji, Kec. Kota Ternate Utara, Kota Ternate, Maluku Utara","Kota Ternate, Maluku Utara",MALUKU UTARA,,Indonesia,81340007717.0,0.811055,127.374007,https://maps.google.com/?cid=0x0:0xfe23702f070b6674
perumahan,Pembangunan Perumahan,Ternate,"R97M+69F, Jl. Darul Khairaat, Sangaji Utara, Kec. Kota Ternate Utara, Kota Ternate, Maluku Utara","Kota Ternate, Maluku Utara",MALUKU UTARA,,Indonesia,,0.813069,127.3834137,https://maps.google.com/?cid=0x0:0x1429f4faf10a79a3
perumahan,Pembangunan Perumahan,Rumah Keluarga Genlet,"Q9RJ+292, Kalumpang, Kec. Kota Ternate Utara, Kota Ternate, Maluku Utara","Kota Ternate, Maluku Utara",MALUKU UTARA,,Indonesia,,0.7900223,127.3808848,https://maps.google.com/?cid=0x0:0x869a006b2395ac9
perumahan,Komplek perumahan,To,"Sangaji Utara, Kec. Kota Ternate Utara, Kota Ternate, Maluku Utara","Kota Ternate, Maluku Utara",MALUKU UTARA,,Indonesia,,0.8127475,127.3853893,https://maps.google.com/?cid=0x0:0xfea3051faa926d65
perumahan,Pembangunan Perumahan,PERUMAHAN DAGYMOI GREEN VILLAGE - SOA PUNCAK,"Soa Puncak, Kec. Kota Ternate Utara, Kota Ternate, Maluku Utara","Kota Ternate, Maluku Utara",MALUKU UTARA,,Indonesia,82190066007.0,0.8014446,127.3738425,https://maps.google.com/?cid=0x0:0x9cc9734035a1d90d
perumahan,Kompleks Apartemen,"Komplek Rusunawa, Kota Ternate","R96G+JQ9, Jl. Pemuda, Sangaji, Kec. Kota Ternate Utara, Kota Ternate, Maluku Utara","Kota Ternate, Maluku Utara",MALUKU UTARA,,Indonesia,81377586660.0,0.8115352,127.3769692,https://maps.google.com/?cid=0x0:0x4e364fd163a7e864
perumahan,Komplek perumahan,Rumah,"R97J+QX3, Sangaji Utara, Kec. Kota Ternate Utara, Kota Ternate, Maluku Utara","Kota Ternate, Maluku Utara",MALUKU UTARA,,Indonesia,,0.8144453,127.3825083,https://maps.google.com/?cid=0x0:0x28324e4aaffbf27
perumahan,Komplek perumahan,Rumdis Imigrasi Ternate,"Q9JP+RR5, Jl. Anggrek, Kota Baru, Kec. Ternate Tengah, Kota Ternate, Maluku Utara","Kota Ternate, Maluku Utara",MALUKU UTARA,,Indonesia,,0.7818326,127.3870512,https://maps.google.com/?cid=0x0:0x431c2b4f73aecccb
perumahan,Komplek perumahan,"Home MaPia dan Azan""","R96Q+C44, Sangaji, Kec. Kota Ternate Utara, Kota Ternate, Maluku Utara","Kota Ternate, Maluku Utara",MALUKU UTARA,,Indonesia,,0.8103981,127.388214,https://maps.google.com/?cid=0x0:0xcf3bbd0ba3fd1dcb
perumahan,perumahan,Tempat Pangkalan Minyak,"R96P+V2F, Jl. Darul Khairaat, Utara, Kec. Kota Ternate Utara, Kota Ternate, Maluku Utara","Kota Ternate, Maluku Utara",MALUKU UTARA,,Indonesia,,0.8121983,127.3850544,https://maps.google.com/?cid=0x0:0xabeb14f66fc244d3
perumahan,Komplek perumahan,Rumah Dwi,"R96M+Q25, Sangaji Utara, Kec. Kota Ternate Utara, Kota Ternate, Maluku Utara","Kota Ternate, Maluku Utara",MALUKU UTARA,,Indonesia,,0.8122411,127.3817544,https://maps.google.com/?cid=0x0:0x91ab773947893eef
perumahan,perumahan,Maluku Utara,,Maluku Utara,MALUKU UTARA,,Indonesia,,1.5709993,127.8087693,https://maps.google.com/?cid=0x0:0x1030bfbcaf71ac0
perumahan,Pembangunan Perumahan,Perumahan Makmur Utama,"Q9F7+MHR, Tabona, Kec. Ternate Sel., Kota Ternate, Maluku Utara","Kota Ternate, Maluku Utara",MALUKU UTARA,,Indonesia,,0.7741538,127.3639823,https://maps.google.com/?cid=0x0:0xaceed34c57927d9f
perumahan,Komplek perumahan,Perumahan Syariah SASA,"Stikip Kie Raha, Jalan, Sasa, Ternate Selatan, Ternate City, North Maluku","Kota Ternate, Maluku Utara",MALUKU UTARA,,Indonesia,,0.7624843,127.3233565,https://maps.google.com/?cid=0x0:0xd65e0356fa3e7991
perumahan,Kantor Perusahaan,Lulu Pratama Residence Maliaro,"Jl. Cempaka No.722, Tanah Tinggi Bar., Kec. Ternate Sel., Kota Ternate, Maluku Utara","Kota Ternate, Maluku Utara",MALUKU UTARA,,Indonesia,,0.7840735,127.3658601,https://maps.google.com/?cid=0x0:0x9a05dbc775c4a057
perumahan,Pembangunan Perumahan,Perumahan,"Q984+44P, Ngade, Kec. Ternate Sel., Kota Ternate, Maluku Utara","Kota Ternate, Maluku Utara",MALUKU UTARA,,Indonesia,,0.7650539,127.3553995,https://maps.google.com/?cid=0x0:0x5ab397056fa8333b
perumahan,Komplek perumahan,Perumahan Graha Permata Gosoma,"PX7X+746, Gosoma, Kec. Tobelo, Kabupaten Halmahera Utara, Maluku Utara","Kabupaten Halmahera Utara, Maluku Utara",MALUKU UTARA,,Indonesia,,1.7131615,127.9977515,https://maps.google.com/?cid=0x0:0xad790bc0b97dc95
perumahan,Komplek perumahan,ngade,"Q964+HP3, Ngade, Kec. Ternate Sel., Kota Ternate, Maluku Utara","Kota Ternate, Maluku Utara",MALUKU UTARA,,Indonesia,,0.7613992,127.3568008,https://maps.google.com/?cid=0x0:0x323234176a63e447
perumahan,perumahan,Perumahan,"Q997+34J, Kalumata, Kec. Ternate Sel., Kota Ternate, Maluku Utara","Kota Ternate, Maluku Utara",MALUKU UTARA,,Indonesia,,0.7673724,127.3622056,https://maps.google.com/?cid=0x0:0xd370ca605dd550d
perumahan,Komplek perumahan,Rumah sayuti,"Jl. Semangka No.8, Kasturian, Kec. Kota Ternate Utara, Kota Ternate, Maluku Utara 97725","Kasturian, Kec. Kota Ternate Utara, Kota Ternate",MALUKU UTARA,97725.0,Indonesia,,0.8027694,127.3784267,https://maps.google.com/?cid=0x0:0x99e0ec41f5a25d23
perumahan,Komplek perumahan,RUMAH SUROTO,"Jl. Soa Puncak No.1, RT.014/RW.006, Soa, Kec. Kota Ternate Utara, Kota Ternate, Maluku Utara 97725","RT.014/RW.006, Soa, Kec. Kota Ternate Utara, Kota Ternate",MALUKU UTARA,97725.0,Indonesia,,0.8007696,127.3764626,https://maps.google.com/?cid=0x0:0x2f7f5ab7d119cc2a
perumahan,Komplek perumahan,ROBI IPA,"RT.001/RW.001, Tubo, Kec. Kota Ternate Utara, Kota Ternate, Maluku Utara 97725","Tubo, Kec. Kota Ternate Utara, Kota Ternate",MALUKU UTARA,97725.0,Indonesia,,0.8223627,127.3791757,https://maps.google.com/?cid=0x0:0xdb2fcfdb34d4cb6c
perumahan,Toko Elektronik,Toko Labobar,"R92M+CXG, Jl. Pemuda No.3, Salero, Kec. Kota Ternate Utara, Kota Ternate, Maluku Utara 97725","Jl. Pemuda No.3, Salero, Kec. Kota Ternate Utara, Kota Ternate",MALUKU UTARA,97725.0,Indonesia,,0.8010606,127.3849624,https://maps.google.com/?cid=0x0:0xcbd939e29baa6891
perumahan,Toko Perlengkapan Rumah,Koloncucu,"R94M+5MH, Toboleu, Kec. Kota Ternate Utara, Kota Ternate, Maluku Utara","Kota Ternate, Maluku Utara",MALUKU UTARA,,Indonesia,,0.8081761,127.3851885,https://maps.google.com/?cid=0x0:0x6a9e88ecef429c17
perumahan,Komplek perumahan,Lingk. Tanah Mesjid,"Q9VJ+85V, Salahuddin, Kec. Ternate Tengah, Kota Ternate, Maluku Utara","Kota Ternate, Maluku Utara",MALUKU UTARA,,Indonesia,,0.7933531,127.3804351,https://maps.google.com/?cid=0x0:0x2176d75c7d5bc1d7
perumahan,perumahan,Maluku Utara 97726,"Toboleu, Kec. Kota Ternate Utara, Kota Ternate, Maluku Utara","Kota Ternate, Maluku Utara",MALUKU UTARA,,Indonesia,,0.8084596,127.3834584,https://maps.google.com/?cid=0x0:0x96c06c96ba4540f2
perumahan,Pembangunan Perumahan,Perumahan Makmur Utama,"Q9F7+MHR, Tabona, Kec. Ternate Sel., Kota Ternate, Maluku Utara","Kota Ternate, Maluku Utara",MALUKU UTARA,,Indonesia,,0.7741538,127.3639823,https://maps.google.com/?cid=0x0:0xaceed34c57927d9f
perumahan,Komplek perumahan,Rumah,"R94J+XXJ, Toboleu, Kec. Kota Ternate Utara, Kota Ternate, Maluku Utara","Kota Ternate, Maluku Utara",MALUKU UTARA,,Indonesia,,0.8079511,127.3831713,https://maps.google.com/?cid=0x0:0x543f55b719d2ab4d
perumahan,Komplek perumahan,Perumahan Syariah SASA,"Stikip Kie Raha, Jalan, Sasa, Ternate Selatan, Ternate City, North Maluku","Kota Ternate, Maluku Utara",MALUKU UTARA,,Indonesia,,0.7624843,127.3233565,https://maps.google.com/?cid=0x0:0xd65e0356fa3e7991
perumahan,Pembangunan Perumahan,Perumahan,"Q984+44P, Ngade, Kec. Ternate Sel., Kota Ternate, Maluku Utara","Kota Ternate, Maluku Utara",MALUKU UTARA,,Indonesia,,0.7650539,127.3553995,https://maps.google.com/?cid=0x0:0x5ab397056fa8333b
perumahan,perumahan,Rumah Anggur,"R95M+4GR, Jl. Bola, Toboleu, Kec. Kota Ternate Utara, Kota Ternate, Maluku Utara","Kota Ternate, Maluku Utara",MALUKU UTARA,,Indonesia,,0.8078569,127.3837666,https://maps.google.com/?cid=0x0:0x8d824e9aae793746
perumahan,Komplek perumahan,Gamayou Blok H,"Q9WF+5H3, Makassar Bar., Kec. Ternate Tengah, Kota Ternate, Maluku Utara","Kota Ternate, Maluku Utara",MALUKU UTARA,,Indonesia,,0.7953964,127.3739094,https://maps.google.com/?cid=0x0:0xaf4850963e13057e
perumahan,Komplek perumahan,Rumah Oton,"R95M+458, Jl. Bola, Toboleu, Kec. Kota Ternate Utara, Kota Ternate, Maluku Utara","Kota Ternate, Maluku Utara",MALUKU UTARA,,Indonesia,,0.807798,127.3829379,https://maps.google.com/?cid=0x0:0x739d0cede712f7ad
perumahan,Pembangunan Perumahan,My home,"R95M+2GX, Toboleu, Kec. Kota Ternate Utara, Kota Ternate, Maluku Utara","Kota Ternate, Maluku Utara",MALUKU UTARA,,Indonesia,,0.8076078,127.3838688,https://maps.google.com/?cid=0x0:0x8952ed2dca2e2cfe
perumahan,Komplek perumahan,Rizal Yunus House,"R95M+FM8, Toboleu, Kec. Kota Ternate Utara, Kota Ternate, Maluku Utara","Kota Ternate, Maluku Utara",MALUKU UTARA,,Indonesia,,0.808658,127.3841921,https://maps.google.com/?cid=0x0:0x4b43ba3036ab9fa
perumahan,Komplek perumahan,Wolonburung,"ian ,rt14 rw03, Jl. Bola, Toboleu, Kec. Kota Ternate Utara, Kota Ternate, Maluku Utara","Kota Ternate, Maluku Utara",MALUKU UTARA,,Indonesia,,0.8087096,127.3834926,https://maps.google.com/?cid=0x0:0xe9b9aa1272c725d4
perumahan,Toko Perlengkapan Rumah,Koloncucu,"R94M+5MH, Toboleu, Kec. Kota Ternate Utara, Kota Ternate, Maluku Utara","Kota Ternate, Maluku Utara",MALUKU UTARA,,Indonesia,,0.8081761,127.3851885,https://maps.google.com/?cid=0x0:0x6a9e88ecef429c17
perumahan,Komplek perumahan,Pokdakan Toboleu,"R95M+F9Q, Toboleu, Kec. Kota Ternate Utara, Kota Ternate, Maluku Utara","Kota Ternate, Maluku Utara",MALUKU UTARA,,Indonesia,,0.8087096,127.3834926,https://maps.google.com/?cid=0x0:0x573dc7e3f4ee2f0b
perumahan,Komplek perumahan,Ghifar nenek home,"Jl. Bola No.459-567, Toboleu, Kec. Kota Ternate Utara, Kota Ternate, Maluku Utara","Kota Ternate, Maluku Utara",MALUKU UTARA,,Indonesia,,0.807403,127.3829485,https://maps.google.com/?cid=0x0:0xbe7c164966d6310e
perumahan,perumahan,Maluku Utara,,Maluku Utara,MALUKU UTARA,,Indonesia,,1.5709993,127.8087693,https://maps.google.com/?cid=0x0:0x1030bfbcaf71ac0
perumahan,Komplek perumahan,Perumahan Syariah SASA,"Stikip Kie Raha, Jalan, Sasa, Ternate Selatan, Ternate City, North Maluku","Kota Ternate, Maluku Utara",MALUKU UTARA,,Indonesia,,0.7624843,127.3233565,https://maps.google.com/?cid=0x0:0xd65e0356fa3e7991
perumahan,Pembangunan Perumahan,Perumahan Makmur Utama,"Q9F7+MHR, Tabona, Kec. Ternate Sel., Kota Ternate, Maluku Utara","Kota Ternate, Maluku Utara",MALUKU UTARA,,Indonesia,,0.7741538,127.3639823,https://maps.google.com/?cid=0x0:0xaceed34c57927d9f
perumahan,Pembangunan Perumahan,Perumahan,"Q984+44P, Ngade, Kec. Ternate Sel., Kota Ternate, Maluku Utara","Kota Ternate, Maluku Utara",MALUKU UTARA,,Indonesia,,0.7650539,127.3553995,https://maps.google.com/?cid=0x0:0x5ab397056fa8333b
perumahan,Komplek perumahan,Gamayou Blok H,"Q9WF+5H3, Makassar Bar., Kec. Ternate Tengah, Kota Ternate, Maluku Utara","Kota Ternate, Maluku Utara",MALUKU UTARA,,Indonesia,,0.7953964,127.3739094,https://maps.google.com/?cid=0x0:0xaf4850963e13057e
perumahan,Komplek perumahan,nginap,"Q9CF+246, Bastiong Talangame, Kec. Ternate Sel., Kota Ternate, Maluku Utara","Kota Ternate, Maluku Utara",MALUKU UTARA,,Indonesia,,0.7705007,127.3727206,https://maps.google.com/?cid=0x0:0xb5c30bc226dd4d94
perumahan,Komplek perumahan,ngade,"Q964+HP3, Ngade, Kec. Ternate Sel., Kota Ternate, Maluku Utara","Kota Ternate, Maluku Utara",MALUKU UTARA,,Indonesia,,0.7613992,127.3568008,https://maps.google.com/?cid=0x0:0x323234176a63e447
perumahan,Komplek perumahan,Perumahan Medium Residence Tobelo,"WKO, Kec. Tobelo Tengah, Kabupaten Halmahera Utara, Maluku Utara","Kabupaten Halmahera Utara, Maluku Utara",MALUKU UTARA,,Indonesia,82349218735.0,1.6999512,128.0052527,https://maps.google.com/?cid=0x0:0x895ac3e3c78a1fe1
perumahan,Komplek perumahan,Nisraland Residence,"PXCR+RFH, Gamsungi, Kec. Tobelo, Kabupaten Halmahera Utara, Maluku Utara","Kabupaten Halmahera Utara, Maluku Utara",MALUKU UTARA,,Indonesia,82310322186.0,1.7220511,127.9912226,https://maps.google.com/?cid=0x0:0x5f78782c129a4b75
perumahan,Komplek perumahan,Gipsy puncak,"R95C+5V, Toboleu, Kec. Kota Ternate Utara, Kota Ternate, Maluku Utara","Kota Ternate, Maluku Utara",MALUKU UTARA,,Indonesia,,0.8079441,127.3722566,https://maps.google.com/?cid=0x0:0x8c579e8771ceb4ab
perumahan,perumahan,Perumahan,"Q997+34J, Kalumata, Kec. Ternate Sel., Kota Ternate, Maluku Utara","Kota Ternate, Maluku Utara",MALUKU UTARA,,Indonesia,,0.7673724,127.3622056,https://maps.google.com/?cid=0x0:0xd370ca605dd550d
perumahan,Komplek perumahan,rumah IRAMASUKHA,"Pacei, Sangaji Utara, Kec. Kota Ternate Utara, Kota Ternate, Maluku Utara 97727","Sangaji Utara, Kec. Kota Ternate Utara, Kota Ternate",MALUKU UTARA,97727.0,Indonesia,,0.8130757,127.3808403,https://maps.google.com/?cid=0x0:0xed1e808a16967ea0
perumahan,Komplek perumahan,rumah faqih,"R97G+CJ4, Sangaji Utara, Kec. Kota Ternate Utara, Kota Ternate, Maluku Utara 97727","Sangaji Utara, Kec. Kota Ternate Utara, Kota Ternate",MALUKU UTARA,97727.0,Indonesia,,0.8135325,127.3766623,https://maps.google.com/?cid=0x0:0xae521b408c45ec9b
perumahan,perumahan,Kec. Kota Ternate Utara,"Kota Ternate, Maluku Utara","Kota Ternate, Maluku Utara",MALUKU UTARA,,Indonesia,,0.8117888,127.386384,https://maps.google.com/?cid=0x0:0xa0affa54fbe679bb
perumahan,perumahan,Kec. Kota Ternate Utara,"Kota Ternate, Maluku Utara","Kota Ternate, Maluku Utara",MALUKU UTARA,,Indonesia,,0.8117888,127.386384,https://maps.google.com/?cid=0x0:0xa0affa54fbe679bb
perumahan,Komplek perumahan,To,"Sangaji Utara, Kec. Kota Ternate Utara, Kota Ternate, Maluku Utara","Kota Ternate, Maluku Utara",MALUKU UTARA,,Indonesia,,0.8127475,127.3853893,https://maps.google.com/?cid=0x0:0xfea3051faa926d65
perumahan,Komplek perumahan,Perumahan Dokter,"Q9XJ+6V6, Jl. Ngofa Ngare, Soa, Kec. Kota Ternate Utara, Kota Ternate, Maluku Utara","Kota Ternate, Maluku Utara",MALUKU UTARA,,Indonesia,,0.7980464,127.3821371,https://maps.google.com/?cid=0x0:0xcf21d8d74e8b8043
perumahan,Kompleks Apartemen,"Komplek Rusunawa, Kota Ternate","R96G+JQ9, Jl. Pemuda, Sangaji, Kec. Kota Ternate Utara, Kota Ternate, Maluku Utara","Kota Ternate, Maluku Utara",MALUKU UTARA,,Indonesia,81377586660.0,0.8115352,127.3769692,https://maps.google.com/?cid=0x0:0x4e364fd163a7e864
perumahan,Pembangunan Perumahan,PERUMAHAN DAGYMOI GREEN VILLAGE - SOA PUNCAK,"Soa Puncak, Kec. Kota Ternate Utara, Kota Ternate, Maluku Utara","Kota Ternate, Maluku Utara",MALUKU UTARA,,Indonesia,82190066007.0,0.8014446,127.3738425,https://maps.google.com/?cid=0x0:0x9cc9734035a1d90d
perumahan,Komplek perumahan,Rumah,"R97J+QX3, Sangaji Utara, Kec. Kota Ternate Utara, Kota Ternate, Maluku Utara","Kota Ternate, Maluku Utara",MALUKU UTARA,,Indonesia,,0.8144453,127.3825083,https://maps.google.com/?cid=0x0:0x28324e4aaffbf27
perumahan,Komplek perumahan,Rumah saya,"R95Q+V7J, gamcim, Kec. Kota Ternate Utara, Kota Ternate, Maluku Utara","Kota Ternate, Maluku Utara",MALUKU UTARA,,Indonesia,,0.8097248,127.3881401,https://maps.google.com/?cid=0x0:0x9ba27834e1e785af
perumahan,Komplek perumahan,Perumahan Pondok Kanada,"R93J+58G, Kasturian, Kec. Kota Ternate Utara, Kota Ternate, Maluku Utara","Kota Ternate, Maluku Utara",MALUKU UTARA,,Indonesia,,0.8029253,127.3808268,https://maps.google.com/?cid=0x0:0x21ff14eac5a4a034
perumahan,Komplek perumahan,Rumah Mecca,"R96Q+969, Sangaji, Kec. Kota Ternate Utara, Kota Ternate, Maluku Utara","Kota Ternate, Maluku Utara",MALUKU UTARA,,Indonesia,,0.8109097,127.3881222,https://maps.google.com/?cid=0x0:0x6a17abfe8b5319b4
perumahan,Komplek perumahan,Rumah,"R98J+JXC, Dufa Dufa, Kec. Kota Ternate Utara, Kota Ternate, Maluku Utara","Kota Ternate, Maluku Utara",MALUKU UTARA,,Indonesia,,0.8165562,127.3824013,https://maps.google.com/?cid=0x0:0xd17701d6956a87c0
perumahan,Komplek perumahan,PERUMAHAN DAGYMOI GREEN PARK - TUBO,"Lingkungan Jl. Raya Tubo, Tubo, Kec. Kota Ternate Utara, Kota Ternate, Maluku Utara 97751","Tubo, Kec. Kota Ternate Utara, Kota Ternate",MALUKU UTARA,97751.0,Indonesia,82190066007.0,0.8260622,127.3732749,https://maps.google.com/?cid=0x0:0x5d85e692a0357dae
perumahan,Pembangunan Perumahan,Damruddin,"R97M+XPV, Sangaji Utara, Kec. Kota Ternate Utara, Kota Ternate, Maluku Utara","Kota Ternate, Maluku Utara",MALUKU UTARA,,Indonesia,,0.8149775,127.3842826,https://maps.google.com/?cid=0x0:0x2d071f607efc36bb
perumahan,Vila,Perumahan Griya Sabia,"R96C+GWF, Unnamed Road, Sangaji, Kec. Kota Ternate Utara, Kota Ternate, Maluku Utara","Kota Ternate, Maluku Utara",MALUKU UTARA,,Indonesia,,0.8113183,127.3722991,https://maps.google.com/?cid=0x0:0x35965e03c6bd1708
perumahan,Komplek perumahan,rumah IRAMASUKHA,"Pacei, Sangaji Utara, Kec. Kota Ternate Utara, Kota Ternate, Maluku Utara 97727","Sangaji Utara, Kec. Kota Ternate Utara, Kota Ternate",MALUKU UTARA,97727.0,Indonesia,,0.8130757,127.3808403,https://maps.google.com/?cid=0x0:0xed1e808a16967ea0
perumahan,perumahan,Kec. Kota Ternate Utara,"Kota Ternate, Maluku Utara","Kota Ternate, Maluku Utara",MALUKU UTARA,,Indonesia,,0.8117888,127.386384,https://maps.google.com/?cid=0x0:0xa0affa54fbe679bb
perumahan,Komplek perumahan,To,"Sangaji Utara, Kec. Kota Ternate Utara, Kota Ternate, Maluku Utara","Kota Ternate, Maluku Utara",MALUKU UTARA,,Indonesia,,0.8127475,127.3853893,https://maps.google.com/?cid=0x0:0xfea3051faa926d65
perumahan,Komplek perumahan,Perumahan Dokter,"Q9XJ+6V6, Jl. Ngofa Ngare, Soa, Kec. Kota Ternate Utara, Kota Ternate, Maluku Utara","Kota Ternate, Maluku Utara",MALUKU UTARA,,Indonesia,,0.7980464,127.3821371,https://maps.google.com/?cid=0x0:0xcf21d8d74e8b8043
perumahan,Penginapan,Griya Sangaji Kota Ternate,"R96F+CJC, Sangaji, Kec. Kota Ternate Utara, Kota Ternate, Maluku Utara","Kota Ternate, Maluku Utara",MALUKU UTARA,,Indonesia,81340007717.0,0.811055,127.374007,https://maps.google.com/?cid=0x0:0xfe23702f070b6674
perumahan,Kompleks Apartemen,"Komplek Rusunawa, Kota Ternate","R96G+JQ9, Jl. Pemuda, Sangaji, Kec. Kota Ternate Utara, Kota Ternate, Maluku Utara","Kota Ternate, Maluku Utara",MALUKU UTARA,,Indonesia,81377586660.0,0.8115352,127.3769692,https://maps.google.com/?cid=0x0:0x4e364fd163a7e864
perumahan,Komplek perumahan,Perum Depo Mart,"Q9J9+F7Q, Tanah Tinggi Bar., Kec. Ternate Sel., Kota Ternate, Maluku Utara","Kota Ternate, Maluku Utara",MALUKU UTARA,,Indonesia,,0.7812157,127.3682211,https://maps.google.com/?cid=0x0:0xfd545cab625acc57
perumahan,Komplek perumahan,Rumah,"R98J+JXC, Dufa Dufa, Kec. Kota Ternate Utara, Kota Ternate, Maluku Utara","Kota Ternate, Maluku Utara",MALUKU UTARA,,Indonesia,,0.8165562,127.3824013,https://maps.google.com/?cid=0x0:0xd17701d6956a87c0
perumahan,Komplek perumahan,Rumah,"R97J+QX3, Sangaji Utara, Kec. Kota Ternate Utara, Kota Ternate, Maluku Utara","Kota Ternate, Maluku Utara",MALUKU UTARA,,Indonesia,,0.8144453,127.3825083,https://maps.google.com/?cid=0x0:0x28324e4aaffbf27
perumahan,Agen Properti,PERUM. PESONA DAHLIA TERNATE,"R96M+Q25, Sangaji Utara, Kec. Kota Ternate Utara, Kota Ternate, Maluku Utara","Kota Ternate, Maluku Utara",MALUKU UTARA,,Indonesia,82187059999.0,0.8123752,127.3820051,https://maps.google.com/?cid=0x0:0xd87e46711c67b74f
perumahan,Pembangunan Perumahan,Ternate,"R97M+69F, Jl. Darul Khairaat, Sangaji Utara, Kec. Kota Ternate Utara, Kota Ternate, Maluku Utara","Kota Ternate, Maluku Utara",MALUKU UTARA,,Indonesia,,0.813069,127.3834137,https://maps.google.com/?cid=0x0:0x1429f4faf10a79a3
perumahan,Komplek perumahan,"Home MaPia dan Azan""","R96Q+C44, Sangaji, Kec. Kota Ternate Utara, Kota Ternate, Maluku Utara","Kota Ternate, Maluku Utara",MALUKU UTARA,,Indonesia,,0.8103981,127.388214,https://maps.google.com/?cid=0x0:0xcf3bbd0ba3fd1dcb
perumahan,Pembangunan Perumahan,Damruddin,"R97M+XPV, Sangaji Utara, Kec. Kota Ternate Utara, Kota Ternate, Maluku Utara","Kota Ternate, Maluku Utara",MALUKU UTARA,,Indonesia,,0.8149775,127.3842826,https://maps.google.com/?cid=0x0:0x2d071f607efc36bb
perumahan,Komplek perumahan,Rumah GMSamadan,"Marikurubu, Kec. Ternate Tengah, Kota Ternate, Maluku Utara","Kota Ternate, Maluku Utara",MALUKU UTARA,,Indonesia,81242955224.0,0.7914572,127.3661891,https://maps.google.com/?cid=0x0:0x3ffcee5951c06a14
perumahan,Pembangunan Perumahan,GamCim Sangaji Ternate,"R95Q+V6X, Jl. Mutiara, Sangaji, Kec. Kota Ternate Utara, Kota Ternate, Maluku Utara","Kota Ternate, Maluku Utara",MALUKU UTARA,,Indonesia,,0.8097266,127.3881188,https://maps.google.com/?cid=0x0:0xf9135a597a9d7452
perumahan,perumahan,Maluku Utara,,Maluku Utara,MALUKU UTARA,,Indonesia,,1.5709993,127.8087693,https://maps.google.com/?cid=0x0:0x1030bfbcaf71ac0
perumahan,Pembangunan Perumahan,Perumahan Makmur Utama,"Q9F7+MHR, Tabona, Kec. Ternate Sel., Kota Ternate, Maluku Utara","Kota Ternate, Maluku Utara",MALUKU UTARA,,Indonesia,,0.7741538,127.3639823,https://maps.google.com/?cid=0x0:0xaceed34c57927d9f
perumahan,Pembangunan Perumahan,PERUMAHAN DAGYMOI GREEN VILLAGE - SOA PUNCAK,"Soa Puncak, Kec. Kota Ternate Utara, Kota Ternate, Maluku Utara","Kota Ternate, Maluku Utara",MALUKU UTARA,,Indonesia,82190066007.0,0.8014446,127.3738425,https://maps.google.com/?cid=0x0:0x9cc9734035a1d90d
perumahan,Komplek perumahan,PERUMAHAN DAGYMOI GREEN PARK - TUBO,"Lingkungan Jl. Raya Tubo, Tubo, Kec. Kota Ternate Utara, Kota Ternate, Maluku Utara 97751","Tubo, Kec. Kota Ternate Utara, Kota Ternate",MALUKU UTARA,97751.0,Indonesia,82190066007.0,0.8260622,127.3732749,https://maps.google.com/?cid=0x0:0x5d85e692a0357dae
perumahan,Komplek perumahan,Perum Depo Mart,"Q9J9+F7Q, Tanah Tinggi Bar., Kec. Ternate Sel., Kota Ternate, Maluku Utara","Kota Ternate, Maluku Utara",MALUKU UTARA,,Indonesia,,0.7812157,127.3682211,https://maps.google.com/?cid=0x0:0xfd545cab625acc57
perumahan,Komplek perumahan,Maliaro puncak,"Maliaro, Kec. Ternate Tengah, Kota Ternate, Maluku Utara","Kota Ternate, Maluku Utara",MALUKU UTARA,,Indonesia,,0.78959,127.3860498,https://maps.google.com/?cid=0x0:0xc0fcd795a331418f
perumahan,Komplek perumahan,Perumahan Bukit Maliaro (Depomart),"Q9J8+CXV, Unnamed Road, Tanah Tinggi Bar., Kec. Ternate Sel., Kota Ternate, Maluku Utara","Kota Ternate, Maluku Utara",MALUKU UTARA,,Indonesia,,0.7811228,127.3674069,https://maps.google.com/?cid=0x0:0x291a5b74f6ad307e
perumahan,Pembangunan Perumahan,Perumahan,"Q984+44P, Ngade, Kec. Ternate Sel., Kota Ternate, Maluku Utara","Kota Ternate, Maluku Utara",MALUKU UTARA,,Indonesia,,0.7650539,127.3553995,https://maps.google.com/?cid=0x0:0x5ab397056fa8333b
perumahan,Vila,Perumahan Griya Sabia,"R96C+GWF, Unnamed Road, Sangaji, Kec. Kota Ternate Utara, Kota Ternate, Maluku Utara","Kota Ternate, Maluku Utara",MALUKU UTARA,,Indonesia,,0.8113183,127.3722991,https://maps.google.com/?cid=0x0:0x35965e03c6bd1708
perumahan,Kantor Perusahaan,Lulu Pratama Residence Maliaro,"Jl. Cempaka No.722, Tanah Tinggi Bar., Kec. Ternate Sel., Kota Ternate, Maluku Utara","Kota Ternate, Maluku Utara",MALUKU UTARA,,Indonesia,,0.7840735,127.3658601,https://maps.google.com/?cid=0x0:0x9a05dbc775c4a057
perumahan,Komplek perumahan,Gamayou Blok H,"Q9WF+5H3, Makassar Bar., Kec. Ternate Tengah, Kota Ternate, Maluku Utara","Kota Ternate, Maluku Utara",MALUKU UTARA,,Indonesia,,0.7953964,127.3739094,https://maps.google.com/?cid=0x0:0xaf4850963e13057e
perumahan,Komplek perumahan,Perumahan Maliaro Graha Estate,"Q9PC+4RF, Maliaro, Kec. Ternate Tengah, Kota Ternate, Maluku Utara","Kota Ternate, Maluku Utara",MALUKU UTARA,,Indonesia,,0.7853183,127.3720324,https://maps.google.com/?cid=0x0:0x7a2c3ec4e3f6db91
perumahan,Kantor Pemerintah,"Kelurahan Moti Kota, Kec. Moti","Kota Moti, Kec. Pulau Moti, Kota Ternate, Maluku Utara 97751","Kec. Pulau Moti, Kota Ternate",MALUKU UTARA,97751.0,Indonesia,,0.4716875,127.4253125,https://maps.google.com/?cid=0x0:0x6bb52e322a4f2523
perumahan,Komplek perumahan,Perumahan Graha Permata Gosoma,"PX7X+746, Gosoma, Kec. Tobelo, Kabupaten Halmahera Utara, Maluku Utara","Kabupaten Halmahera Utara, Maluku Utara",MALUKU UTARA,,Indonesia,,1.7131615,127.9977515,https://maps.google.com/?cid=0x0:0xad790bc0b97dc95
perumahan,perumahan,Pulau Moti,"Kec. Pulau Moti, Kota Ternate, Maluku Utara","Kota Ternate, Maluku Utara",MALUKU UTARA,,Indonesia,,0.4551721,127.4147666,https://maps.google.com/?cid=0x0:0xee739dbd0e45e29d
perumahan,Komplek perumahan,Zoel Moti,"FC7J+49Q, Tadenas, Kec. Pulau Moti, Kota Ternate, Maluku Utara","Kota Ternate, Maluku Utara",MALUKU UTARA,,Indonesia,,0.4628473,127.4309932,https://maps.google.com/?cid=0x0:0x2db16fd0fc02fc60
perumahan,Kantor Pemerintah,"Kelurahan Moti Kota, Kec. Moti","Kota Moti, Kec. Pulau Moti, Kota Ternate, Maluku Utara 97751","Kec. Pulau Moti, Kota Ternate",MALUKU UTARA,97751.0,Indonesia,,0.4716875,127.4253125,https://maps.google.com/?cid=0x0:0x6bb52e322a4f2523
perumahan,Komplek perumahan,Rumah Chcaaprukn,"FCG9+XG6, Kota Moti, Kec. Pulau Moti, Kota Ternate, Maluku Utara","Kota Ternate, Maluku Utara",MALUKU UTARA,,Indonesia,,0.4775118,127.4188928,https://maps.google.com/?cid=0x0:0x662d5d3042b5687
perumahan,Komplek perumahan,Phapada,"CCM8+FRQ, Takofi, Kec. Pulau Moti, Kota Ternate, Maluku Utara","Kota Ternate, Maluku Utara",MALUKU UTARA,,Indonesia,,0.4339387,127.4168855,https://maps.google.com/?cid=0x0:0x30d456f9aadee314
perumahan,perumahan,Rumah Rasna Ilham,"FC7J+4C3, Tadenas, Kec. Pulau Moti, Kota Ternate, Maluku Utara","Kota Ternate, Maluku Utara",MALUKU UTARA,,Indonesia,,0.4627625,127.4310469,https://maps.google.com/?cid=0x0:0xf4fe8c9f4b85352e
perumahan,perumahan,Kec. Pulau Moti,"Kota Ternate, Maluku Utara","Kota Ternate, Maluku Utara",MALUKU UTARA,,Indonesia,,0.4551721,127.4147666,https://maps.google.com/?cid=0x0:0x9d227851065ecad1
perumahan,Pembangunan Perumahan,jiko besar,"FCG9+5HC, Jalan, Kota Moti, Kec. Pulau Moti, Kota Ternate, Maluku Utara","Kota Ternate, Maluku Utara",MALUKU UTARA,,Indonesia,,0.4754972,127.419016,https://maps.google.com/?cid=0x0:0xfa654b26929849c3
perumahan,Rumah Kaca,Rumah Pak Rohim IUQI,"FC6J+GQ8, Tadenas, Kec. Pulau Moti, Kota Ternate, Maluku Utara","Kota Ternate, Maluku Utara",MALUKU UTARA,,Indonesia,,0.4610805,127.4321228,https://maps.google.com/?cid=0x0:0xc199584ed44e4b6e
perumahan,Komplek perumahan,Rumah Oces,"C9MX+CF9, Takofi, Kec. Pulau Moti, Kota Ternate, Maluku Utara","Kota Ternate, Maluku Utara",MALUKU UTARA,,Indonesia,,0.4338261,127.3990914,https://maps.google.com/?cid=0x0:0x6d785ca63f10721e
perumahan,Komplek perumahan,Sumur masyarakat,"C9MW+XRP, Takofi, Kec. Pulau Moti, Kota Ternate, Maluku Utara","Kota Ternate, Maluku Utara",MALUKU UTARA,,Indonesia,,0.4349727,127.3970881,https://maps.google.com/?cid=0x0:0x9d182bcf350bb42
perumahan,Komplek perumahan,M. Harjun,"FCG9+VCX, Kota Moti, Kec. Pulau Moti, Kota Ternate, Maluku Utara","Kota Ternate, Maluku Utara",MALUKU UTARA,,Indonesia,,0.4777556,127.4181826,https://maps.google.com/?cid=0x0:0xf3b9728c1d386e28
perumahan,Komplek perumahan,Rumah Dinas SMP N 9,"C9MX+X8F, Takofi, Kec. Pulau Moti, Kota Ternate, Maluku Utara","Kota Ternate, Maluku Utara",MALUKU UTARA,,Indonesia,,0.4349458,127.398308,https://maps.google.com/?cid=0x0:0xe381c42197cf0aea
perumahan,Perusahaan Konstruksi,Bengkel Las Supera,"FCH9+F4R, RT.001/RW.001, Kota Moti, Kec. Pulau Moti, Kota Ternate, Maluku Utara","Kota Ternate, Maluku Utara",MALUKU UTARA,,Indonesia,,0.4787392,127.4177509,https://maps.google.com/?cid=0x0:0x15a3b5a36fdc540f
perumahan,perumahan,Kec. Pulau Batang Dua,"Kota Ternate, Maluku Utara","Kota Ternate, Maluku Utara",MALUKU UTARA,,Indonesia,,1.3221136,126.3617738,https://maps.google.com/?cid=0x0:0x43a87ce02308f419
perumahan,Komplek perumahan,Kelurahan Bido,"8CQ3+P5V, Bido, Kec. Pulau Batang Dua, Kota Ternate, Maluku Utara","Kota Ternate, Maluku Utara",MALUKU UTARA,,Indonesia,,1.339649,126.403126,https://maps.google.com/?cid=0x0:0x14d37f1b29f59801
perumahan,Komplek perumahan,Kelurahan Tifure,"X49W+J9, Tifure, Kec. Pulau Batang Dua, Kota Ternate, Maluku Utara","Kota Ternate, Maluku Utara",MALUKU UTARA,,Indonesia,,0.96911,126.1459898,https://maps.google.com/?cid=0x0:0xbdbd6ee50b7d0bfc
perumahan,perumahan,Tifure,"X4GX+94C, Tifure, Kec. Pulau Batang Dua, Kota Ternate, Maluku Utara","Kota Ternate, Maluku Utara",MALUKU UTARA,,Indonesia,,0.9759347,126.1477513,https://maps.google.com/?cid=0x0:0x777d2deaafc7ba52
perumahan,perumahan,RINDY,"89C5+CGF, Mayau, Kec. Pulau Batang Dua, Kota Ternate, Maluku Utara","Kota Ternate, Maluku Utara",MALUKU UTARA,,Indonesia,,1.3210536,126.358808,https://maps.google.com/?cid=0x0:0x6a654e1743f8e2bd
perumahan,perumahan,Rumah Hopni Salu,"89F5+872, Mayau, Kec. Pulau Batang Dua, Kota Ternate, Maluku Utara","Kota Ternate, Maluku Utara",MALUKU UTARA,,Indonesia,,1.3232625,126.3581406,https://maps.google.com/?cid=0x0:0x1e67b02ba0113955
perumahan,Komplek perumahan,Rumah Riny  Lio,"89F5+872, Mayau, Kec. Pulau Batang Dua, Kota Ternate, Maluku Utara","Kota Ternate, Maluku Utara",MALUKU UTARA,,Indonesia,,1.3232276,126.3581224,https://maps.google.com/?cid=0x0:0x1ec16b7679469a4f
perumahan,perumahan,Rumah keluarga Salu Taliawo,"8CQ3+P5V, Bido, Kec. Pulau Batang Dua, Kota Ternate, Maluku Utara","Kota Ternate, Maluku Utara",MALUKU UTARA,,Indonesia,,1.3390182,126.4021264,https://maps.google.com/?cid=0x0:0x271c4334c6462680
perumahan,Taman,Gunung Salib,"89F5+4CC, Mayau, Kec. Pulau Batang Dua, Kota Ternate, Maluku Utara","Kota Ternate, Maluku Utara",MALUKU UTARA,,Indonesia,,1.3228033,126.3585277,https://maps.google.com/?cid=0x0:0xfa68140b0e70a357
perumahan,Komplek perumahan,Pattipeilohy Bersaudara,"89H5+HC5, Perum Bersatu, Kec. Pulau Batang Dua, Kota Ternate, Maluku Utara","Kota Ternate, Maluku Utara",MALUKU UTARA,,Indonesia,,1.3288787,126.3586122,https://maps.google.com/?cid=0x0:0xbcb760a72682449e
perumahan,perumahan,Rumah ketua Sinode,"89F5+9V6, Mayau, Kec. Pulau Batang Dua, Kota Ternate, Maluku Utara","Kota Ternate, Maluku Utara",MALUKU UTARA,,Indonesia,,1.3235018,126.3598668,https://maps.google.com/?cid=0x0:0x74fe1186904ad7b5
perumahan,Perhimpunan Pengembang Perumahan,Jalur Evajuasi,"89C5+J5C, Mayau, Kec. Pulau Batang Dua, Kota Ternate, Maluku Utara","Kota Ternate, Maluku Utara",MALUKU UTARA,,Indonesia,,1.3215623,126.3579015,https://maps.google.com/?cid=0x0:0x47edd164076e4ccd
perumahan,perumahan,RUMAH EVAN LETTE,"899C+696, Lelewi, Kec. Pulau Batang Dua, Kota Ternate, Maluku Utara","Kota Ternate, Maluku Utara",MALUKU UTARA,,Indonesia,,1.3180429,126.3708803,https://maps.google.com/?cid=0x0:0xc1457e371b73ee3f
perumahan,Perhimpunan Pengembang Perumahan,Gilbert fatty,"89F5+FR6, Mayau, Kec. Pulau Batang Dua, Kota Ternate, Maluku Utara","Kota Ternate, Maluku Utara",MALUKU UTARA,,Indonesia,,1.3236634,126.3595128,https://maps.google.com/?cid=0x0:0xc63a923d276e70a0
perumahan,perumahan,Kec. Ternate Tengah,"Kota Ternate, Maluku Utara","Kota Ternate, Maluku Utara",MALUKU UTARA,,Indonesia,,0.78959,127.3860498,https://maps.google.com/?cid=0x0:0x8b6a97877817a839
perumahan,Komplek perumahan,Perumahan Dokter,"Q9XJ+6V6, Jl. Ngofa Ngare, Soa, Kec. Kota Ternate Utara, Kota Ternate, Maluku Utara","Kota Ternate, Maluku Utara",MALUKU UTARA,,Indonesia,,0.7980464,127.3821371,https://maps.google.com/?cid=0x0:0xcf21d8d74e8b8043
perumahan,Pembangunan Perumahan,Perumahan Makmur Megah Residence,"Q9F7+MHR, Tabona, Kec. Ternate Sel., Kota Ternate, Maluku Utara","Kota Ternate, Maluku Utara",MALUKU UTARA,,Indonesia,,0.7742371,127.3639036,https://maps.google.com/?cid=0x0:0xaee5a3ecc4ae59fc
perumahan,Komplek perumahan,Maliaro puncak,"Maliaro, Kec. Ternate Tengah, Kota Ternate, Maluku Utara","Kota Ternate, Maluku Utara",MALUKU UTARA,,Indonesia,,0.78959,127.3860498,https://maps.google.com/?cid=0x0:0xc0fcd795a331418f
perumahan,Komplek perumahan,Perumahan Maliaro Graha Estate,"Q9PC+4RF, Maliaro, Kec. Ternate Tengah, Kota Ternate, Maluku Utara","Kota Ternate, Maluku Utara",MALUKU UTARA,,Indonesia,,0.7853183,127.3720324,https://maps.google.com/?cid=0x0:0x7a2c3ec4e3f6db91
perumahan,Pembangunan Perumahan,PERUMAHAN DAGYMOI GREEN VILLAGE - SOA PUNCAK,"Soa Puncak, Kec. Kota Ternate Utara, Kota Ternate, Maluku Utara","Kota Ternate, Maluku Utara",MALUKU UTARA,,Indonesia,82190066007.0,0.8014446,127.3738425,https://maps.google.com/?cid=0x0:0x9cc9734035a1d90d
perumahan,perumahan,RUMAH ASRA,"Jl. Cempaka No.617kel, Maliaro, Kec. Ternate Tengah, Kota Ternate, Maluku Utara 97711","Maliaro, Kec. Ternate Tengah, Kota Ternate",MALUKU UTARA,97711.0,Indonesia,,0.782841,127.376571,https://maps.google.com/?cid=0x0:0x7cfff54e095dbcc
perumahan,Pembangunan Perumahan,Perumahan Makmur Utama,"Q9F7+MHR, Tabona, Kec. Ternate Sel., Kota Ternate, Maluku Utara","Kota Ternate, Maluku Utara",MALUKU UTARA,,Indonesia,,0.7741538,127.3639823,https://maps.google.com/?cid=0x0:0xaceed34c57927d9f
perumahan,Komplek perumahan,Perumahan Bukit Maliaro (Depomart),"Q9J8+CXV, Unnamed Road, Tanah Tinggi Bar., Kec. Ternate Sel., Kota Ternate, Maluku Utara","Kota Ternate, Maluku Utara",MALUKU UTARA,,Indonesia,,0.7811228,127.3674069,https://maps.google.com/?cid=0x0:0x291a5b74f6ad307e
perumahan,Kantor Perusahaan,Lulu Pratama Residence Maliaro,"Jl. Cempaka No.722, Tanah Tinggi Bar., Kec. Ternate Sel., Kota Ternate, Maluku Utara","Kota Ternate, Maluku Utara",MALUKU UTARA,,Indonesia,,0.7840735,127.3658601,https://maps.google.com/?cid=0x0:0x9a05dbc775c4a057
perumahan,perumahan,Depot dandi Makmur,"rumah makan bu idah 502, Jl. Juma Puasa, Santiong, Kec. Ternate Tengah, Kota Ternate, Maluku Utara","Kota Ternate, Maluku Utara",MALUKU UTARA,,Indonesia,,0.7917404,127.3838269,https://maps.google.com/?cid=0x0:0xacd9ccf9859b8f2f
perumahan,Komplek perumahan,Perumahan winstar blok L gamayou,"Moya, Kec. Ternate Tengah, Kota Ternate, Maluku Utara","Kota Ternate, Maluku Utara",MALUKU UTARA,,Indonesia,,0.7960081,127.3729113,https://maps.google.com/?cid=0x0:0xfad45a47c85d69c
perumahan,Komplek perumahan,My Home Ternate,"Q9MJ+FPQ, Jl. Seruni, Kp. Pisang, Kec. Ternate Tengah, Kota Ternate, Maluku Utara","Kota Ternate, Maluku Utara",MALUKU UTARA,,Indonesia,,0.7837835,127.3818262,https://maps.google.com/?cid=0x0:0xf5aaadd49bca0a1a
perumahan,perumahan,Kos 502,"Jl. Juma Puasa, Santiong, Kec. Ternate Tengah, Kota Ternate, Maluku Utara","Kota Ternate, Maluku Utara",MALUKU UTARA,,Indonesia,,0.7913224,127.3832249,https://maps.google.com/?cid=0x0:0x888f1e46ab822be3
perumahan,perumahan,Maluku Utara,,Maluku Utara,MALUKU UTARA,,Indonesia,,1.5709993,127.8087693,https://maps.google.com/?cid=0x0:0x1030bfbcaf71ac0
perumahan,Pembangunan Perumahan,Perumahan Makmur Utama,"Q9F7+MHR, Tabona, Kec. Ternate Sel., Kota Ternate, Maluku Utara","Kota Ternate, Maluku Utara",MALUKU UTARA,,Indonesia,,0.7741538,127.3639823,https://maps.google.com/?cid=0x0:0xaceed34c57927d9f
perumahan,Pembangunan Perumahan,Perumahan,"Q984+44P, Ngade, Kec. Ternate Sel., Kota Ternate, Maluku Utara","Kota Ternate, Maluku Utara",MALUKU UTARA,,Indonesia,,0.7650539,127.3553995,https://maps.google.com/?cid=0x0:0x5ab397056fa8333b
perumahan,Komplek perumahan,Perumahan Bukit Maliaro (Depomart),"Q9J8+CXV, Unnamed Road, Tanah Tinggi Bar., Kec. Ternate Sel., Kota Ternate, Maluku Utara","Kota Ternate, Maluku Utara",MALUKU UTARA,,Indonesia,,0.7811228,127.3674069,https://maps.google.com/?cid=0x0:0x291a5b74f6ad307e
perumahan,Pembangunan Perumahan,PERUMAHAN DAGYMOI GREEN VILLAGE - SOA PUNCAK,"Soa Puncak, Kec. Kota Ternate Utara, Kota Ternate, Maluku Utara","Kota Ternate, Maluku Utara",MALUKU UTARA,,Indonesia,82190066007.0,0.8014446,127.3738425,https://maps.google.com/?cid=0x0:0x9cc9734035a1d90d
perumahan,Kantor Perusahaan,Lulu Pratama Residence Maliaro,"Jl. Cempaka No.722, Tanah Tinggi Bar., Kec. Ternate Sel., Kota Ternate, Maluku Utara","Kota Ternate, Maluku Utara",MALUKU UTARA,,Indonesia,,0.7840735,127.3658601,https://maps.google.com/?cid=0x0:0x9a05dbc775c4a057
perumahan,Komplek perumahan,Prince Residence Kalumata,"Jl. Santo Pedro No.37, Kalumata, Kec. Ternate Sel., Kota Ternate, Maluku Utara 97715","Kalumata, Kec. Ternate Sel., Kota Ternate",MALUKU UTARA,97715.0,Indonesia,,0.7618315,127.359564,https://maps.google.com/?cid=0x0:0x1d98007cacdba3de
perumahan,Komplek perumahan,Maliaro puncak,"Maliaro, Kec. Ternate Tengah, Kota Ternate, Maluku Utara","Kota Ternate, Maluku Utara",MALUKU UTARA,,Indonesia,,0.78959,127.3860498,https://maps.google.com/?cid=0x0:0xc0fcd795a331418f
perumahan,Komplek perumahan,PERUMAHAN DAGYMOI GREEN PARK - TUBO,"Lingkungan Jl. Raya Tubo, Tubo, Kec. Kota Ternate Utara, Kota Ternate, Maluku Utara 97751","Tubo, Kec. Kota Ternate Utara, Kota Ternate",MALUKU UTARA,97751.0,Indonesia,82190066007.0,0.8260622,127.3732749,https://maps.google.com/?cid=0x0:0x5d85e692a0357dae
perumahan,Komplek perumahan,Perumahan Maliaro Graha Estate,"Q9PC+4RF, Maliaro, Kec. Ternate Tengah, Kota Ternate, Maluku Utara","Kota Ternate, Maluku Utara",MALUKU UTARA,,Indonesia,,0.7853183,127.3720324,https://maps.google.com/?cid=0x0:0x7a2c3ec4e3f6db91
perumahan,Vila,Perumahan Griya Sabia,"R96C+GWF, Unnamed Road, Sangaji, Kec. Kota Ternate Utara, Kota Ternate, Maluku Utara","Kota Ternate, Maluku Utara",MALUKU UTARA,,Indonesia,,0.8113183,127.3722991,https://maps.google.com/?cid=0x0:0x35965e03c6bd1708
perumahan,Perumahan,Perumahan Umum Asri Tobelo,"P293+2XM, Gosoma, Kec. Tobelo, Kabupaten Halmahera Utara, Maluku Utara","Kabupaten Halmahera Utara, Maluku Utara",MALUKU UTARA,,Indonesia,,1.7175998,128.0049345,https://maps.google.com/?cid=0x0:0x4b42560a20000ced
perumahan,Toko Perlengkapan Rumah,Perumahan,"3FP8+H55, Hatebicara, Kec. Jailolo, Kabupaten Halmahera Barat, Maluku Utara","Kabupaten Halmahera Barat, Maluku Utara",MALUKU UTARA,,Indonesia,,1.0863839,127.4654719,https://maps.google.com/?cid=0x0:0xcc8c1599bfa68868
perumahan,Komplek perumahan,Lorong Cempaka Putih,"Lorong Cempaka Putih RT10, RT.10/RW03/RW.03, Maliaro, Ternate Tengah, Kota Terbate, North Maluku 97712","RT.10/RW03/RW.03, Maliaro, Ternate Tengah, Kota Terbate",MALUKU UTARA,97712.0,Indonesia,81241185959.0,0.7857779,127.3740946,https://maps.google.com/?cid=0x0:0x65b99b7da9cc4152
perumahan,perumahan,Kec. Ternate Tengah,"Kota Ternate, Maluku Utara","Kota Ternate, Maluku Utara",MALUKU UTARA,,Indonesia,,0.78959,127.3860498,https://maps.google.com/?cid=0x0:0x8b6a97877817a839
perumahan,Komplek perumahan,Perumahan BTN Tantibar,"Q9JF+J9M, Unnamed Road, Tanah Tinggi Bar., Kec. Ternate Sel., Kota Ternate, Maluku Utara","Kota Ternate, Maluku Utara",MALUKU UTARA,,Indonesia,,0.7815768,127.3734253,https://maps.google.com/?cid=0x0:0xe216b9184fea97e5
perumahan,Komplek perumahan,Perum Depo Mart,"Q9J9+F7Q, Tanah Tinggi Bar., Kec. Ternate Sel., Kota Ternate, Maluku Utara","Kota Ternate, Maluku Utara",MALUKU UTARA,,Indonesia,,0.7812157,127.3682211,https://maps.google.com/?cid=0x0:0xfd545cab625acc57
perumahan,Pembangunan Perumahan,PERUMAHAN DAGYMOI GREEN VILLAGE - SOA PUNCAK,"Soa Puncak, Kec. Kota Ternate Utara, Kota Ternate, Maluku Utara","Kota Ternate, Maluku Utara",MALUKU UTARA,,Indonesia,82190066007.0,0.8014446,127.3738425,https://maps.google.com/?cid=0x0:0x9cc9734035a1d90d
perumahan,Komplek perumahan,Rumdin03,"Q9VJ+35W, Jl. SKSD Palapa, Salahuddin, Kec. Ternate Tengah, Kota Ternate, Maluku Utara","Kota Ternate, Maluku Utara",MALUKU UTARA,,Indonesia,,0.7927422,127.380455,https://maps.google.com/?cid=0x0:0x38dbfa6ef55cf1ff
perumahan,Komplek perumahan,Fajrin R Teng,"Q9RM+P93, Jl. Juma Puasa, Santiong, Kec. Ternate Tengah, Kota Ternate, Maluku Utara","Kota Ternate, Maluku Utara",MALUKU UTARA,,Indonesia,,0.7916573,127.3833713,https://maps.google.com/?cid=0x0:0xfb9f65c91f8c1a
perumahan,Komplek perumahan,Mabes Pgs,"Q9VM+498, Santiong, Kec. Ternate Tengah, Kota Ternate, Maluku Utara","Kota Ternate, Maluku Utara",MALUKU UTARA,,Indonesia,,0.7927931,127.383463,https://maps.google.com/?cid=0x0:0x11c86fda0e05fc0a
perumahan,Komplek perumahan,Rumah GMSamadan,"Marikurubu, Kec. Ternate Tengah, Kota Ternate, Maluku Utara","Kota Ternate, Maluku Utara",MALUKU UTARA,,Indonesia,81242955224.0,0.7914572,127.3661891,https://maps.google.com/?cid=0x0:0x3ffcee5951c06a14
perumahan,Komplek perumahan,Perumahan Bukit Maliaro (Depomart),"Q9J8+CXV, Unnamed Road, Tanah Tinggi Bar., Kec. Ternate Sel., Kota Ternate, Maluku Utara","Kota Ternate, Maluku Utara",MALUKU UTARA,,Indonesia,,0.7811228,127.3674069,https://maps.google.com/?cid=0x0:0x291a5b74f6ad307e
perumahan,Pembangunan Perumahan,Perumahan Makmur Utama,"Q9F7+MHR, Tabona, Kec. Ternate Sel., Kota Ternate, Maluku Utara","Kota Ternate, Maluku Utara",MALUKU UTARA,,Indonesia,,0.7741538,127.3639823,https://maps.google.com/?cid=0x0:0xaceed34c57927d9f
perumahan,Komplek perumahan,Maliaro puncak,"Maliaro, Kec. Ternate Tengah, Kota Ternate, Maluku Utara","Kota Ternate, Maluku Utara",MALUKU UTARA,,Indonesia,,0.78959,127.3860498,https://maps.google.com/?cid=0x0:0xc0fcd795a331418f
perumahan,Komplek perumahan,Rumah Chia,"Q9PG+XX4, Maliaro, Kec. Ternate Tengah, Kota Ternate, Maluku Utara","Kota Ternate, Maluku Utara",MALUKU UTARA,,Indonesia,,0.7874128,127.3774024,https://maps.google.com/?cid=0x0:0x25790f4cd04f6fab
perumahan,Komplek perumahan,My Home Ternate,"Q9MJ+FPQ, Jl. Seruni, Kp. Pisang, Kec. Ternate Tengah, Kota Ternate, Maluku Utara","Kota Ternate, Maluku Utara",MALUKU UTARA,,Indonesia,,0.7837835,127.3818262,https://maps.google.com/?cid=0x0:0xf5aaadd49bca0a1a
perumahan,Komplek perumahan,Rumah Tinggal,"Q9MP+FQ9, Muhajirin, Kec. Ternate Tengah, Kota Ternate, Maluku Utara","Kota Ternate, Maluku Utara",MALUKU UTARA,,Indonesia,,0.7836596,127.3869971,https://maps.google.com/?cid=0x0:0xdf8897713d26d08d
perumahan,perumahan,Maluku Utara 97714,"Takoma, Kec. Ternate Tengah, Kota Ternate, Maluku Utara","Kota Ternate, Maluku Utara",MALUKU UTARA,,Indonesia,,0.7811008,127.3850519,https://maps.google.com/?cid=0x0:0x8d2ecd03f9db447d
perumahan,Komplek perumahan,Takoma lorong,"Q9HJ+WW7, Jl. Hasan Esa No.02, Takoma, Kec. Ternate Tengah, Kota Ternate, Maluku Utara 97714","Jl. Hasan Esa No.02, Takoma, Kec. Ternate Tengah, Kota Ternate",MALUKU UTARA,97714.0,Indonesia,,0.7813332,127.3833046,https://maps.google.com/?cid=0x0:0x4eacc17566371af1
perumahan,Pembangunan Perumahan,Perumahan Makmur Utama,"Q9F7+MHR, Tabona, Kec. Ternate Sel., Kota Ternate, Maluku Utara","Kota Ternate, Maluku Utara",MALUKU UTARA,,Indonesia,,0.7741538,127.3639823,https://maps.google.com/?cid=0x0:0xaceed34c57927d9f
perumahan,Komplek perumahan,Maliaro puncak,"Maliaro, Kec. Ternate Tengah, Kota Ternate, Maluku Utara","Kota Ternate, Maluku Utara",MALUKU UTARA,,Indonesia,,0.78959,127.3860498,https://maps.google.com/?cid=0x0:0xc0fcd795a331418f
perumahan,Komplek perumahan,Perumahan Maliaro Graha Estate,"Q9PC+4RF, Maliaro, Kec. Ternate Tengah, Kota Ternate, Maluku Utara","Kota Ternate, Maluku Utara",MALUKU UTARA,,Indonesia,,0.7853183,127.3720324,https://maps.google.com/?cid=0x0:0x7a2c3ec4e3f6db91
perumahan,Komplek perumahan,Jln. Sedap Malam . Mauza,"Jl. Pohon Pala No.109, Takoma, Kec. Ternate Sel., Kota Ternate, Maluku Utara 97714","Takoma, Kec. Ternate Sel., Kota Ternate",MALUKU UTARA,97714.0,Indonesia,,0.781547,127.3845466,https://maps.google.com/?cid=0x0:0x1e201fbbf90aeb3a
perumahan,Pembangunan Perumahan,Perumahan,"Q984+44P, Ngade, Kec. Ternate Sel., Kota Ternate, Maluku Utara","Kota Ternate, Maluku Utara",MALUKU UTARA,,Indonesia,,0.7650539,127.3553995,https://maps.google.com/?cid=0x0:0x5ab397056fa8333b
perumahan,Pembangunan Perumahan,PERUMAHAN DAGYMOI GREEN VILLAGE - SOA PUNCAK,"Soa Puncak, Kec. Kota Ternate Utara, Kota Ternate, Maluku Utara","Kota Ternate, Maluku Utara",MALUKU UTARA,,Indonesia,82190066007.0,0.8014446,127.3738425,https://maps.google.com/?cid=0x0:0x9cc9734035a1d90d
perumahan,Komplek perumahan,Rumah Kediaman MaMa Dar,"Jl. Sedap Malam, Takoma, Kec. Ternate Tengah, Kota Ternate, Maluku Utara","Kota Ternate, Maluku Utara",MALUKU UTARA,,Indonesia,,0.781315,127.384814,https://maps.google.com/?cid=0x0:0x47cec97979210fb
perumahan,perumahan,Kec. Ternate Tengah,"Kota Ternate, Maluku Utara","Kota Ternate, Maluku Utara",MALUKU UTARA,,Indonesia,,0.78959,127.3860498,https://maps.google.com/?cid=0x0:0x8b6a97877817a839
perumahan,Komplek perumahan,Perumahan BTN Tantibar,"Q9JF+J9M, Unnamed Road, Tanah Tinggi Bar., Kec. Ternate Sel., Kota Ternate, Maluku Utara","Kota Ternate, Maluku Utara",MALUKU UTARA,,Indonesia,,0.7815768,127.3734253,https://maps.google.com/?cid=0x0:0xe216b9184fea97e5
perumahan,Rumah wisata,Nava paviliun,"Q9PH+G77, Jl. Cengkeh Afo, Marikurubu, Kec. Ternate Tengah, Kota Ternate, Maluku Utara","Kota Ternate, Maluku Utara",MALUKU UTARA,,Indonesia,82330867877.0,0.7863182,127.3781603,https://maps.google.com/?cid=0x0:0x281db79ec36212ed
perumahan,Komplek perumahan,Perumahan winstar blok L gamayou,"Moya, Kec. Ternate Tengah, Kota Ternate, Maluku Utara","Kota Ternate, Maluku Utara",MALUKU UTARA,,Indonesia,,0.7960081,127.3729113,https://maps.google.com/?cid=0x0:0xfad45a47c85d69c
perumahan,Komplek perumahan,Perumahan Dokter,"Q9XJ+6V6, Jl. Ngofa Ngare, Soa, Kec. Kota Ternate Utara, Kota Ternate, Maluku Utara","Kota Ternate, Maluku Utara",MALUKU UTARA,,Indonesia,,0.7980464,127.3821371,https://maps.google.com/?cid=0x0:0xcf21d8d74e8b8043
perumahan,perumahan,Maluku Utara 97721,"Ngade, Kec. Ternate Sel., Kota Ternate, Maluku Utara","Kota Ternate, Maluku Utara",MALUKU UTARA,,Indonesia,,0.7634579,127.3540939,https://maps.google.com/?cid=0x0:0x420e2c525a89ed59
perumahan,Pembangunan Perumahan,Perumahan Makmur Megah Residence,"Q9F7+MHR, Tabona, Kec. Ternate Sel., Kota Ternate, Maluku Utara","Kota Ternate, Maluku Utara",MALUKU UTARA,,Indonesia,,0.7742371,127.3639036,https://maps.google.com/?cid=0x0:0xaee5a3ecc4ae59fc
perumahan,Pembangunan Perumahan,Perumahan Makmur Utama,"Q9F7+MHR, Tabona, Kec. Ternate Sel., Kota Ternate, Maluku Utara","Kota Ternate, Maluku Utara",MALUKU UTARA,,Indonesia,,0.7741538,127.3639823,https://maps.google.com/?cid=0x0:0xaceed34c57927d9f
perumahan,Perumahan,Perumahan Tabona Indah,"Jl. Jan, Tabona, Kec. Ternate Sel., Kota Ternate, Maluku Utara","Kota Ternate, Maluku Utara",MALUKU UTARA,,Indonesia,,0.7730637,127.3671462,https://maps.google.com/?cid=0x0:0x2609c46a4a21a26c
perumahan,Komplek perumahan,Gamayou Blok H,"Q9WF+5H3, Makassar Bar., Kec. Ternate Tengah, Kota Ternate, Maluku Utara","Kota Ternate, Maluku Utara",MALUKU UTARA,,Indonesia,,0.7953964,127.3739094,https://maps.google.com/?cid=0x0:0xaf4850963e13057e
perumahan,Komplek perumahan,Ngade Kompleks Garuda,"Q973+2P6, Jalan Kalibobo, Ngade, Kec. Ternate Sel., Kota Ternate, Maluku Utara","Kota Ternate, Maluku Utara",MALUKU UTARA,,Indonesia,8114331478.0,0.7625408,127.3542807,https://maps.google.com/?cid=0x0:0xa1b089390c773973
perumahan,Komplek perumahan,PERUMAHAN DAGYMOI GREEN PARK - TUBO,"Lingkungan Jl. Raya Tubo, Tubo, Kec. Kota Ternate Utara, Kota Ternate, Maluku Utara 97751","Tubo, Kec. Kota Ternate Utara, Kota Ternate",MALUKU UTARA,97751.0,Indonesia,82190066007.0,0.8260622,127.3732749,https://maps.google.com/?cid=0x0:0x5d85e692a0357dae
perumahan,Pembangunan Perumahan,Perumahan,"Q984+44P, Ngade, Kec. Ternate Sel., Kota Ternate, Maluku Utara","Kota Ternate, Maluku Utara",MALUKU UTARA,,Indonesia,,0.7650539,127.3553995,https://maps.google.com/?cid=0x0:0x5ab397056fa8333b
perumahan,Komplek perumahan,Perumahan Syariah SASA,"Stikip Kie Raha, Jalan, Sasa, Ternate Selatan, Ternate City, North Maluku","Kota Ternate, Maluku Utara",MALUKU UTARA,,Indonesia,,0.7624843,127.3233565,https://maps.google.com/?cid=0x0:0xd65e0356fa3e7991
perumahan,Perumahan,Perumahan Tabona Indah,"Q99F+2RV, Q9F8+5RXTabonaKec, Kec. Ternate Sel., Kota Ternate, Maluku Utara","Kota Ternate, Maluku Utara",MALUKU UTARA,,Indonesia,,0.7676108,127.3745474,https://maps.google.com/?cid=0x0:0x72a93faf9f9c068a
perumahan,Penginapan,Shafira Residence Ngade,"Q983+54F Shafira Residence, Ngade, Kec. Ternate Sel., Kota Ternate, Maluku Utara","Kota Ternate, Maluku Utara",MALUKU UTARA,,Indonesia,,0.7654424,127.3528027,https://maps.google.com/?cid=0x0:0x477f463ec65999aa
perumahan,Komplek perumahan,Perumahan Sahid Bela,"Q9GG+6C4, Jl. Jati Besar, Jati, Kec. Ternate Sel., Kota Ternate, Maluku Utara","Kota Ternate, Maluku Utara",MALUKU UTARA,,Indonesia,,0.7755231,127.3760821,https://maps.google.com/?cid=0x0:0xdcc65631637b5b6a
perumahan,Otoritas Perumahan,Rumah Rizky B,"Q963+QXG Komplek Garuda, Ngade, Kec. Ternate Sel., Kota Ternate, Maluku Utara","Kota Ternate, Maluku Utara",MALUKU UTARA,,Indonesia,,0.762388,127.3550874,https://maps.google.com/?cid=0x0:0x18038be1828f895c
perumahan,Komplek perumahan,RUMAH NGADE,"Kompleks Garuda NOMOR No.RUMAH 33, RT.05/RW.03, Ngade, Kec. Ternate Sel., Kota Ternate, Maluku Utara","Kota Ternate, Maluku Utara",MALUKU UTARA,,Indonesia,,0.7622489,127.3549395,https://maps.google.com/?cid=0x0:0x6abbec73f9243923
perumahan,perumahan,Kec. Ternate Tengah,"Kota Ternate, Maluku Utara","Kota Ternate, Maluku Utara",MALUKU UTARA,,Indonesia,,0.78959,127.3860498,https://maps.google.com/?cid=0x0:0x8b6a97877817a839
perumahan,perumahan,RUMAH ASRA,"Jl. Cempaka No.617kel, Maliaro, Kec. Ternate Tengah, Kota Ternate, Maluku Utara 97711","Maliaro, Kec. Ternate Tengah, Kota Ternate",MALUKU UTARA,97711.0,Indonesia,,0.782841,127.376571,https://maps.google.com/?cid=0x0:0x7cfff54e095dbcc
perumahan,Komplek perumahan,Perumahan Dokter,"Q9XJ+6V6, Jl. Ngofa Ngare, Soa, Kec. Kota Ternate Utara, Kota Ternate, Maluku Utara","Kota Ternate, Maluku Utara",MALUKU UTARA,,Indonesia,,0.7980464,127.3821371,https://maps.google.com/?cid=0x0:0xcf21d8d74e8b8043
perumahan,perumahan,Depot dandi Makmur,"rumah makan bu idah 502, Jl. Juma Puasa, Santiong, Kec. Ternate Tengah, Kota Ternate, Maluku Utara","Kota Ternate, Maluku Utara",MALUKU UTARA,,Indonesia,,0.7917404,127.3838269,https://maps.google.com/?cid=0x0:0xacd9ccf9859b8f2f
perumahan,Pembangunan Perumahan,Perumahan Makmur Utama,"Q9F7+MHR, Tabona, Kec. Ternate Sel., Kota Ternate, Maluku Utara","Kota Ternate, Maluku Utara",MALUKU UTARA,,Indonesia,,0.7741538,127.3639823,https://maps.google.com/?cid=0x0:0xaceed34c57927d9f
perumahan,Komplek perumahan,Perumahan winstar blok L gamayou,"Moya, Kec. Ternate Tengah, Kota Ternate, Maluku Utara","Kota Ternate, Maluku Utara",MALUKU UTARA,,Indonesia,,0.7960081,127.3729113,https://maps.google.com/?cid=0x0:0xfad45a47c85d69c
perumahan,Komplek perumahan,Rumah Chia,"Q9PG+XX4, Maliaro, Kec. Ternate Tengah, Kota Ternate, Maluku Utara","Kota Ternate, Maluku Utara",MALUKU UTARA,,Indonesia,,0.7874128,127.3774024,https://maps.google.com/?cid=0x0:0x25790f4cd04f6fab
perumahan,Komplek perumahan,PERUMAHAN DAGYMOI GREEN PARK - TUBO,"Lingkungan Jl. Raya Tubo, Tubo, Kec. Kota Ternate Utara, Kota Ternate, Maluku Utara 97751","Tubo, Kec. Kota Ternate Utara, Kota Ternate",MALUKU UTARA,97751.0,Indonesia,82190066007.0,0.8260622,127.3732749,https://maps.google.com/?cid=0x0:0x5d85e692a0357dae
perumahan,perumahan,Kos 502,"Jl. Juma Puasa, Santiong, Kec. Ternate Tengah, Kota Ternate, Maluku Utara","Kota Ternate, Maluku Utara",MALUKU UTARA,,Indonesia,,0.7913224,127.3832249,https://maps.google.com/?cid=0x0:0x888f1e46ab822be3
perumahan,perumahan,RUMAH TERCIN,"Q9MH+73H, Maliaro, Kec. Ternate Tengah, Kota Ternate, Maluku Utara","Kota Ternate, Maluku Utara",MALUKU UTARA,,Indonesia,,0.7832638,127.3775911,https://maps.google.com/?cid=0x0:0x27c163d43174bb8a
perumahan,Komplek perumahan,Perumahan BTN Tantibar,"Q9JF+J9M, Unnamed Road, Tanah Tinggi Bar., Kec. Ternate Sel., Kota Ternate, Maluku Utara","Kota Ternate, Maluku Utara",MALUKU UTARA,,Indonesia,,0.7815768,127.3734253,https://maps.google.com/?cid=0x0:0xe216b9184fea97e5
perumahan,Komplek perumahan,Rumah GMSamadan,"Marikurubu, Kec. Ternate Tengah, Kota Ternate, Maluku Utara","Kota Ternate, Maluku Utara",MALUKU UTARA,,Indonesia,81242955224.0,0.7914572,127.3661891,https://maps.google.com/?cid=0x0:0x3ffcee5951c06a14
perumahan,Komplek perumahan,Mabes Pgs,"Q9VM+498, Santiong, Kec. Ternate Tengah, Kota Ternate, Maluku Utara","Kota Ternate, Maluku Utara",MALUKU UTARA,,Indonesia,,0.7927931,127.383463,https://maps.google.com/?cid=0x0:0x11c86fda0e05fc0a
perumahan,perumahan,Rumah,"Q9RJ+2M5, Kalumpang, Kec. Ternate Tengah, Kota Ternate, Maluku Utara","Kota Ternate, Maluku Utara",MALUKU UTARA,,Indonesia,,0.7900019,127.3817227,https://maps.google.com/?cid=0x0:0x1c3b83da020756d8
perumahan,Komplek perumahan,Perum Depo Mart,"Q9J9+F7Q, Tanah Tinggi Bar., Kec. Ternate Sel., Kota Ternate, Maluku Utara","Kota Ternate, Maluku Utara",MALUKU UTARA,,Indonesia,,0.7812157,127.3682211,https://maps.google.com/?cid=0x0:0xfd545cab625acc57
perumahan,perumahan,Maluku Utara 97723,"Muhajirin, Kec. Ternate Tengah, Kota Ternate, Maluku Utara","Kota Ternate, Maluku Utara",MALUKU UTARA,,Indonesia,,0.7858613,127.3882262,https://maps.google.com/?cid=0x0:0xa7775daff08563c
perumahan,Pembangunan Perumahan,Perumahan Makmur Utama,"Q9F7+MHR, Tabona, Kec. Ternate Sel., Kota Ternate, Maluku Utara","Kota Ternate, Maluku Utara",MALUKU UTARA,,Indonesia,,0.7741538,127.3639823,https://maps.google.com/?cid=0x0:0xaceed34c57927d9f
perumahan,Komplek perumahan,Rumah Tinggal,"Q9MP+FQ9, Muhajirin, Kec. Ternate Tengah, Kota Ternate, Maluku Utara","Kota Ternate, Maluku Utara",MALUKU UTARA,,Indonesia,,0.7836596,127.3869971,https://maps.google.com/?cid=0x0:0xdf8897713d26d08d
perumahan,perumahan,Kec. Ternate Tengah,"Kota Ternate, Maluku Utara","Kota Ternate, Maluku Utara",MALUKU UTARA,,Indonesia,,0.78959,127.3860498,https://maps.google.com/?cid=0x0:0x8b6a97877817a839
perumahan,Komplek perumahan,Perumahan Dokter,"Q9XJ+6V6, Jl. Ngofa Ngare, Soa, Kec. Kota Ternate Utara, Kota Ternate, Maluku Utara","Kota Ternate, Maluku Utara",MALUKU UTARA,,Indonesia,,0.7980464,127.3821371,https://maps.google.com/?cid=0x0:0xcf21d8d74e8b8043
perumahan,Komplek perumahan,Perumahan winstar blok L gamayou,"Moya, Kec. Ternate Tengah, Kota Ternate, Maluku Utara","Kota Ternate, Maluku Utara",MALUKU UTARA,,Indonesia,,0.7960081,127.3729113,https://maps.google.com/?cid=0x0:0xfad45a47c85d69c
perumahan,Pembangunan Perumahan,Rumah Keluarga Genlet,"Q9RJ+292, Kalumpang, Kec. Kota Ternate Utara, Kota Ternate, Maluku Utara","Kota Ternate, Maluku Utara",MALUKU UTARA,,Indonesia,,0.7900223,127.3808848,https://maps.google.com/?cid=0x0:0x869a006b2395ac9
perumahan,Rumah wisata,Nava paviliun,"Q9PH+G77, Jl. Cengkeh Afo, Marikurubu, Kec. Ternate Tengah, Kota Ternate, Maluku Utara","Kota Ternate, Maluku Utara",MALUKU UTARA,,Indonesia,82330867877.0,0.7863182,127.3781603,https://maps.google.com/?cid=0x0:0x281db79ec36212ed
perumahan,Komplek perumahan,Jln kihajar dewantara,"Q9MJ+428, Jl. KH. Dewantoro, Takoma, Kec. Ternate Tengah, Kota Ternate, Maluku Utara 97714","Jl. KH. Dewantoro, Takoma, Kec. Ternate Tengah, Kota Ternate",MALUKU UTARA,97714.0,Indonesia,,0.782915,127.3800872,https://maps.google.com/?cid=0x0:0xc909984c7f6b7478
perumahan,Komplek perumahan,Perumahan BTN Tantibar,"Q9JF+J9M, Unnamed Road, Tanah Tinggi Bar., Kec. Ternate Sel., Kota Ternate, Maluku Utara","Kota Ternate, Maluku Utara",MALUKU UTARA,,Indonesia,,0.7815768,127.3734253,https://maps.google.com/?cid=0x0:0xe216b9184fea97e5
perumahan,Kantor Hubungan Masyarakat,SEKERTARIAT KKSS MALUKU UTARA,"Q9PJ+X3M, Jl. Kapitan Pattimura, Kalumpang, Kec. Ternate Tengah, Kota Ternate, Maluku Utara","Kota Ternate, Maluku Utara",MALUKU UTARA,,Indonesia,,0.7874346,127.3801278,https://maps.google.com/?cid=0x0:0xaf5307d101f96881
perumahan,Komplek perumahan,Gamayou Blok H,"Q9WF+5H3, Makassar Bar., Kec. Ternate Tengah, Kota Ternate, Maluku Utara","Kota Ternate, Maluku Utara",MALUKU UTARA,,Indonesia,,0.7953964,127.3739094,https://maps.google.com/?cid=0x0:0xaf4850963e13057e
perumahan,perumahan,RUMAH ASRA,"Jl. Cempaka No.617kel, Maliaro, Kec. Ternate Tengah, Kota Ternate, Maluku Utara 97711","Maliaro, Kec. Ternate Tengah, Kota Ternate",MALUKU UTARA,97711.0,Indonesia,,0.782841,127.376571,https://maps.google.com/?cid=0x0:0x7cfff54e095dbcc
perumahan,perumahan,Kec. Ternate Tengah,"Kota Ternate, Maluku Utara","Kota Ternate, Maluku Utara",MALUKU UTARA,,Indonesia,,0.78959,127.3860498,https://maps.google.com/?cid=0x0:0x8b6a97877817a839
perumahan,Komplek perumahan,Perumahan Dokter,"Q9XJ+6V6, Jl. Ngofa Ngare, Soa, Kec. Kota Ternate Utara, Kota Ternate, Maluku Utara","Kota Ternate, Maluku Utara",MALUKU UTARA,,Indonesia,,0.7980464,127.3821371,https://maps.google.com/?cid=0x0:0xcf21d8d74e8b8043
perumahan,perumahan,Kos 502,"Jl. Juma Puasa, Santiong, Kec. Ternate Tengah, Kota Ternate, Maluku Utara","Kota Ternate, Maluku Utara",MALUKU UTARA,,Indonesia,,0.7913224,127.3832249,https://maps.google.com/?cid=0x0:0x888f1e46ab822be3
perumahan,perumahan,RUMAH ASRA,"Jl. Cempaka No.617kel, Maliaro, Kec. Ternate Tengah, Kota Ternate, Maluku Utara 97711","Maliaro, Kec. Ternate Tengah, Kota Ternate",MALUKU UTARA,97711.0,Indonesia,,0.782841,127.376571,https://maps.google.com/?cid=0x0:0x7cfff54e095dbcc
perumahan,Komplek perumahan,Perumahan BTN Tantibar,"Q9JF+J9M, Unnamed Road, Tanah Tinggi Bar., Kec. Ternate Sel., Kota Ternate, Maluku Utara","Kota Ternate, Maluku Utara",MALUKU UTARA,,Indonesia,,0.7815768,127.3734253,https://maps.google.com/?cid=0x0:0xe216b9184fea97e5
perumahan,Komplek perumahan,Rumah Chia,"Q9PG+XX4, Maliaro, Kec. Ternate Tengah, Kota Ternate, Maluku Utara","Kota Ternate, Maluku Utara",MALUKU UTARA,,Indonesia,,0.7874128,127.3774024,https://maps.google.com/?cid=0x0:0x25790f4cd04f6fab
perumahan,perumahan,RUMAH TERCIN,"Q9MH+73H, Maliaro, Kec. Ternate Tengah, Kota Ternate, Maluku Utara","Kota Ternate, Maluku Utara",MALUKU UTARA,,Indonesia,,0.7832638,127.3775911,https://maps.google.com/?cid=0x0:0x27c163d43174bb8a
perumahan,Pembangunan Perumahan,Perumahan Makmur Utama,"Q9F7+MHR, Tabona, Kec. Ternate Sel., Kota Ternate, Maluku Utara","Kota Ternate, Maluku Utara",MALUKU UTARA,,Indonesia,,0.7741538,127.3639823,https://maps.google.com/?cid=0x0:0xaceed34c57927d9f
perumahan,Pembangunan Perumahan,PERUMAHAN DAGYMOI GREEN VILLAGE - SOA PUNCAK,"Soa Puncak, Kec. Kota Ternate Utara, Kota Ternate, Maluku Utara","Kota Ternate, Maluku Utara",MALUKU UTARA,,Indonesia,82190066007.0,0.8014446,127.3738425,https://maps.google.com/?cid=0x0:0x9cc9734035a1d90d
perumahan,Komplek perumahan,My Home Ternate,"Q9MJ+FPQ, Jl. Seruni, Kp. Pisang, Kec. Ternate Tengah, Kota Ternate, Maluku Utara","Kota Ternate, Maluku Utara",MALUKU UTARA,,Indonesia,,0.7837835,127.3818262,https://maps.google.com/?cid=0x0:0xf5aaadd49bca0a1a
perumahan,Komplek perumahan,Rumah Tinggal,"Q9MP+FQ9, Muhajirin, Kec. Ternate Tengah, Kota Ternate, Maluku Utara","Kota Ternate, Maluku Utara",MALUKU UTARA,,Indonesia,,0.7836596,127.3869971,https://maps.google.com/?cid=0x0:0xdf8897713d26d08d
perumahan,Komplek perumahan,Perumahan winstar blok L gamayou,"Moya, Kec. Ternate Tengah, Kota Ternate, Maluku Utara","Kota Ternate, Maluku Utara",MALUKU UTARA,,Indonesia,,0.7960081,127.3729113,https://maps.google.com/?cid=0x0:0xfad45a47c85d69c
perumahan,perumahan,Rumah,"Q9WJ+5G4, Makassar Bar., Kec. Ternate Tengah, Kota Ternate, Maluku Utara","Kota Ternate, Maluku Utara",MALUKU UTARA,,Indonesia,,0.7953923,127.3813305,https://maps.google.com/?cid=0x0:0x437fe7b8d60eaa9c
perumahan,Pembangunan Perumahan,Aiyina,"Q9VM+45F, Santiong, Kec. Ternate Tengah, Kota Ternate, Maluku Utara","Kota Ternate, Maluku Utara",MALUKU UTARA,,Indonesia,,0.792803,127.3829361,https://maps.google.com/?cid=0x0:0x73df89fdc5f09eaf
perumahan,perumahan,Maluku Utara,,Maluku Utara,MALUKU UTARA,,Indonesia,,1.5709993,127.8087693,https://maps.google.com/?cid=0x0:0x1030bfbcaf71ac0
perumahan,Pembangunan Perumahan,Perumahan Makmur Megah Residence,"Q9F7+MHR, Tabona, Kec. Ternate Sel., Kota Ternate, Maluku Utara","Kota Ternate, Maluku Utara",MALUKU UTARA,,Indonesia,,0.7742371,127.3639036,https://maps.google.com/?cid=0x0:0xaee5a3ecc4ae59fc
perumahan,Pembangunan Perumahan,Perumahan Makmur Utama,"Q9F7+MHR, Tabona, Kec. Ternate Sel., Kota Ternate, Maluku Utara","Kota Ternate, Maluku Utara",MALUKU UTARA,,Indonesia,,0.7741538,127.3639823,https://maps.google.com/?cid=0x0:0xaceed34c57927d9f
perumahan,Pembangunan Perumahan,PERUMAHAN DAGYMOI GREEN VILLAGE - SOA PUNCAK,"Soa Puncak, Kec. Kota Ternate Utara, Kota Ternate, Maluku Utara","Kota Ternate, Maluku Utara",MALUKU UTARA,,Indonesia,82190066007.0,0.8014446,127.3738425,https://maps.google.com/?cid=0x0:0x9cc9734035a1d90d
perumahan,Pembangunan Perumahan,Perumahan Kastela,"Kastela, Kec. Pulau Ternate, Kota Ternate, Maluku Utara","Kota Ternate, Maluku Utara",MALUKU UTARA,,Indonesia,,0.7658562,127.309282,https://maps.google.com/?cid=0x0:0x73bf4a14bb3b6e9c
perumahan,Komplek perumahan,Perum Depo Mart,"Q9J9+F7Q, Tanah Tinggi Bar., Kec. Ternate Sel., Kota Ternate, Maluku Utara","Kota Ternate, Maluku Utara",MALUKU UTARA,,Indonesia,,0.7812157,127.3682211,https://maps.google.com/?cid=0x0:0xfd545cab625acc57
perumahan,Perumahan,Perumahan Tabona Indah,"Jl. Jan, Tabona, Kec. Ternate Sel., Kota Ternate, Maluku Utara","Kota Ternate, Maluku Utara",MALUKU UTARA,,Indonesia,,0.7730637,127.3671462,https://maps.google.com/?cid=0x0:0x2609c46a4a21a26c
perumahan,Komplek perumahan,Facei,"R97G+3W8 Facei, Sangaji Utara, Kec. Kota Ternate Utara, Kota Ternate, Maluku Utara","Kota Ternate, Maluku Utara",MALUKU UTARA,,Indonesia,,0.8126683,127.3773256,https://maps.google.com/?cid=0x0:0xe2a85c85222f05d
perumahan,Komplek perumahan,Perumahan Syariah SASA,"Stikip Kie Raha, Jalan, Sasa, Ternate Selatan, Ternate City, North Maluku","Kota Ternate, Maluku Utara",MALUKU UTARA,,Indonesia,,0.7624843,127.3233565,https://maps.google.com/?cid=0x0:0xd65e0356fa3e7991
perumahan,Komplek perumahan,Prince Residence Kalumata,"Jl. Santo Pedro No.37, Kalumata, Kec. Ternate Sel., Kota Ternate, Maluku Utara 97715","Kalumata, Kec. Ternate Sel., Kota Ternate",MALUKU UTARA,97715.0,Indonesia,,0.7618315,127.359564,https://maps.google.com/?cid=0x0:0x1d98007cacdba3de
perumahan,Pembangunan Perumahan,Perumahan,"Q984+44P, Ngade, Kec. Ternate Sel., Kota Ternate, Maluku Utara","Kota Ternate, Maluku Utara",MALUKU UTARA,,Indonesia,,0.7650539,127.3553995,https://maps.google.com/?cid=0x0:0x5ab397056fa8333b
perumahan,Komplek perumahan,Perumahan Bukit Maliaro (Depomart),"Q9J8+CXV, Unnamed Road, Tanah Tinggi Bar., Kec. Ternate Sel., Kota Ternate, Maluku Utara","Kota Ternate, Maluku Utara",MALUKU UTARA,,Indonesia,,0.7811228,127.3674069,https://maps.google.com/?cid=0x0:0x291a5b74f6ad307e
perumahan,Perumahan,Perumahan Tabona Indah,"Q99F+2RV, Q9F8+5RXTabonaKec, Kec. Ternate Sel., Kota Ternate, Maluku Utara","Kota Ternate, Maluku Utara",MALUKU UTARA,,Indonesia,,0.7676108,127.3745474,https://maps.google.com/?cid=0x0:0x72a93faf9f9c068a
perumahan,Komplek perumahan,Perumahan Sahid Bela,"Q9GG+6C4, Jl. Jati Besar, Jati, Kec. Ternate Sel., Kota Ternate, Maluku Utara","Kota Ternate, Maluku Utara",MALUKU UTARA,,Indonesia,,0.7755231,127.3760821,https://maps.google.com/?cid=0x0:0xdcc65631637b5b6a
perumahan,perumahan,Kec. Pulau Hiri,"Kota Ternate, Maluku Utara","Kota Ternate, Maluku Utara",MALUKU UTARA,,Indonesia,,0.9085941,127.3141639,https://maps.google.com/?cid=0x0:0x52b41fc10a483509
perumahan,Komplek perumahan,Rumah Naqib,"V8M7+MMJ, Dorari Isa, Kec. Pulau Ternate, Kota Ternate, Maluku Utara","Kota Ternate, Maluku Utara",MALUKU UTARA,,Indonesia,,0.8842057,127.3141485,https://maps.google.com/?cid=0x0:0xd8be7a82e8b34cd7
perumahan,Pembangunan Perumahan,Saudrea home,"W857+MXF, Faudu, Kec. Pulau Hiri, Kota Ternate, Maluku Utara","Kota Ternate, Maluku Utara",MALUKU UTARA,,Indonesia,,0.909175,127.3147924,https://maps.google.com/?cid=0x0:0xe7d8ab240fc38372
perumahan,Komplek perumahan,RAJIM HOME,"W857+CM6, Faudu, Kec. Pulau Hiri, Kota Ternate, Maluku Utara","Kota Ternate, Maluku Utara",MALUKU UTARA,,Indonesia,,0.9084506,127.3142249,https://maps.google.com/?cid=0x0:0xed6573185ec93852
perumahan,Pembangunan Perumahan,Lokasi talud,"V8PG+FPQ, Togolobe, Kec. Pulau Hiri, Kota Ternate, Maluku Utara","Kota Ternate, Maluku Utara",MALUKU UTARA,,Indonesia,,0.8862186,127.3268622,https://maps.google.com/?cid=0x0:0xd31ec3d02da6a25d
perumahan,Komplek perumahan,Sofyan Ramzan home stay,"W857+Q7M, Faudu, Kec. Pulau Hiri, Kota Ternate, Maluku Utara","Kota Ternate, Maluku Utara",MALUKU UTARA,,Indonesia,,0.9094429,127.3131331,https://maps.google.com/?cid=0x0:0x385bb44875ee9e94
perumahan,Balai Kota,mado,"W857+CM6, Faudu, Kec. Pulau Hiri, Kota Ternate, Maluku Utara","Kota Ternate, Maluku Utara",MALUKU UTARA,,Indonesia,,0.9085364,127.314154,https://maps.google.com/?cid=0x0:0xafe58aafcaf27aef
perumahan,Komplek perumahan,Fitriyani Tinamba,"Jln Kapok, Blkang, Mado, Kec. Pulau Hiri, Kota Ternate, Maluku Utara","Kota Ternate, Maluku Utara",MALUKU UTARA,,Indonesia,,0.9085364,127.314154,https://maps.google.com/?cid=0x0:0xe350f6c3a2db36dc
perumahan,Komplek perumahan,Fala Dahlan Tuniku,"V8R7+6RG, Dorari Isa, Kec. Pulau Hiri, Kota Ternate, Maluku Utara","Kota Ternate, Maluku Utara",MALUKU UTARA,,Indonesia,,0.8905711,127.3145838,https://maps.google.com/?cid=0x0:0x7abcd9edf8523b5a
perumahan,Komplek perumahan,Maku Dudara,"V8MG+X7H, Togolobe, Kec. Pulau Hiri, Kota Ternate, Maluku Utara","Kota Ternate, Maluku Utara",MALUKU UTARA,,Indonesia,,0.8849379,127.3257283,https://maps.google.com/?cid=0x0:0x18b07ebf97b80ea6
perumahan,perumahan,Pulau Hiri,"Kec. Pulau Hiri, Kota Ternate, Maluku Utara","Kota Ternate, Maluku Utara",MALUKU UTARA,,Indonesia,,0.8972314,127.3159205,https://maps.google.com/?cid=0x0:0x9e982be70fd9ba2f
perumahan,Kantor Perusahaan,Rumah Sahabat Anak dan Perpustakan Kelurahan Mado,"V8VJ+2FV, Mado, Kec. Pulau Hiri, Kota Ternate, Maluku Utara","Kota Ternate, Maluku Utara",MALUKU UTARA,,Indonesia,,0.8926179,127.3311757,https://maps.google.com/?cid=0x0:0xe5ae52c986145d19
perumahan,Pembangunan Perumahan,Perumahan Makmur Utama,"Q9F7+MHR, Tabona, Kec. Ternate Sel., Kota Ternate, Maluku Utara","Kota Ternate, Maluku Utara",MALUKU UTARA,,Indonesia,,0.7741538,127.3639823,https://maps.google.com/?cid=0x0:0xaceed34c57927d9f
perumahan,perumahan,Baswan Kader,"V8XH+VHX, Jalan kuburan, RT.04/RW.02, Mado, Kec. Pulau Hiri, Kota Ternate, Maluku Utara","Kota Ternate, Maluku Utara",MALUKU UTARA,,Indonesia,,0.8997449,127.3289744,https://maps.google.com/?cid=0x0:0xf0f2d13b02462588
perumahan,Penginapan,Griya Sangaji Kota Ternate,"R96F+CJC, Sangaji, Kec. Kota Ternate Utara, Kota Ternate, Maluku Utara","Kota Ternate, Maluku Utara",MALUKU UTARA,,Indonesia,81340007717.0,0.811055,127.374007,https://maps.google.com/?cid=0x0:0xfe23702f070b6674
perumahan,Pembangunan Perumahan,Perumahan Makmur Megah Residence,"Q9F7+MHR, Tabona, Kec. Ternate Sel., Kota Ternate, Maluku Utara","Kota Ternate, Maluku Utara",MALUKU UTARA,,Indonesia,,0.7742371,127.3639036,https://maps.google.com/?cid=0x0:0xaee5a3ecc4ae59fc
perumahan,Komplek perumahan,Kota ternate,"Q9W6+8G9, Marikurubu, Kec. Ternate Tengah, Kota Ternate, Maluku Utara","Kota Ternate, Maluku Utara",MALUKU UTARA,,Indonesia,85216539495.0,0.7957999,127.3613533,https://maps.google.com/?cid=0x0:0xff0f29c69e731782
perumahan,Pembangunan Perumahan,Perumahan Makmur Utama,"Q9F7+MHR, Tabona, Kec. Ternate Sel., Kota Ternate, Maluku Utara","Kota Ternate, Maluku Utara",MALUKU UTARA,,Indonesia,,0.7741538,127.3639823,https://maps.google.com/?cid=0x0:0xaceed34c57927d9f
perumahan,Pembangunan Perumahan,PERUMAHAN DAGYMOI GREEN VILLAGE - SOA PUNCAK,"Soa Puncak, Kec. Kota Ternate Utara, Kota Ternate, Maluku Utara","Kota Ternate, Maluku Utara",MALUKU UTARA,,Indonesia,82190066007.0,0.8014446,127.3738425,https://maps.google.com/?cid=0x0:0x9cc9734035a1d90d
perumahan,Komplek perumahan,Perumahan Pegawai LAPAS Kelas IIA Ternate,"Q85F+JH7, Jambula, Kec. Pulau Ternate, Kota Ternate, Maluku Utara","Kota Ternate, Maluku Utara",MALUKU UTARA,,Indonesia,,0.7590479,127.32391,https://maps.google.com/?cid=0x0:0x5b812f1f68986de6
perumahan,Komplek perumahan,Customer 1,"Q85G+6RJ, Sasa, Kec. Ternate Sel., Kota Ternate, Maluku Utara","Kota Ternate, Maluku Utara",MALUKU UTARA,,Indonesia,,0.7580802,127.327022,https://maps.google.com/?cid=0x0:0x6af76df9371a97c0
perumahan,Komplek perumahan,Perum Depo Mart,"Q9J9+F7Q, Tanah Tinggi Bar., Kec. Ternate Sel., Kota Ternate, Maluku Utara","Kota Ternate, Maluku Utara",MALUKU UTARA,,Indonesia,,0.7812157,127.3682211,https://maps.google.com/?cid=0x0:0xfd545cab625acc57
perumahan,Pembangunan Perumahan,Rumah Fahrudin Hadji,"Q9WC+4HF, Moya, Kec. Ternate Tengah, Kota Ternate, Maluku Utara","Kota Ternate, Maluku Utara",MALUKU UTARA,,Indonesia,,0.7953998,127.3713507,https://maps.google.com/?cid=0x0:0xfb88d831869d5a73
perumahan,Perhimpunan Pengembang Perumahan,Perumahan Griya Ngade Indah,"Q9C2+26C, Kelurah Ngade, Kecamatan, Ngade, Kec. Ternate Sel., Kota Ternate, Maluku Utara","Kota Ternate, Maluku Utara",MALUKU UTARA,,Indonesia,,0.770054,127.350525,https://maps.google.com/?cid=0x0:0x7908924531b7e156
perumahan,Komplek perumahan,Rumah husen,"Jl. Stikip Kie Raha No.51, Jambula, Kec. Pulau Ternate, Kota Ternate, Maluku Utara","Kota Ternate, Maluku Utara",MALUKU UTARA,,Indonesia,82293680616.0,0.7638376,127.3205703,https://maps.google.com/?cid=0x0:0x44678de97b404987
perumahan,Komplek perumahan,PERUMAHAN DAGYMOI GREEN PARK - TUBO,"Lingkungan Jl. Raya Tubo, Tubo, Kec. Kota Ternate Utara, Kota Ternate, Maluku Utara 97751","Tubo, Kec. Kota Ternate Utara, Kota Ternate",MALUKU UTARA,97751.0,Indonesia,82190066007.0,0.8260622,127.3732749,https://maps.google.com/?cid=0x0:0x5d85e692a0357dae
perumahan,Komplek perumahan,Faizah,"Q85F+8CJ, Jambula, Kec. Pulau Ternate, Kota Ternate, Maluku Utara","Kota Ternate, Maluku Utara",MALUKU UTARA,,Indonesia,,0.7583366,127.3235082,https://maps.google.com/?cid=0x0:0x8401761f9296409b
perumahan,perumahan,Moya kota ternate,"R929+FJJ, Moya, Kec. Ternate Tengah, Kota Ternate, Maluku Utara","Kota Ternate, Maluku Utara",MALUKU UTARA,,Indonesia,,0.8015342,127.3698748,https://maps.google.com/?cid=0x0:0xffd855b3d66a4d9b
housing complex,housing complex,Kec. Ternate Sel.,"Kota Ternate, Maluku Utara","Kota Ternate, Maluku Utara",MALUKU UTARA,,Indonesia,,0.7676108,127.3745474,https://maps.google.com/?cid=0x0:0xd0e23e4e61e3ddd0
housing complex,Komplek perumahan,Prince Residence Kalumata,"Jl. Santo Pedro No.37, Kalumata, Kec. Ternate Sel., Kota Ternate, Maluku Utara 97715","Kalumata, Kec. Ternate Sel., Kota Ternate",MALUKU UTARA,97715.0,Indonesia,,0.7618315,127.359564,https://maps.google.com/?cid=0x0:0x1d98007cacdba3de
housing complex,Komplek perumahan,nginap,"Q9CF+246, Bastiong Talangame, Kec. Ternate Sel., Kota Ternate, Maluku Utara","Kota Ternate, Maluku Utara",MALUKU UTARA,,Indonesia,,0.7705007,127.3727206,https://maps.google.com/?cid=0x0:0xb5c30bc226dd4d94
housing complex,Komplek perumahan,Teras Ngade Shafira Residence blok i8,"Shafira Residence, blok i8, Ngade, Kec. Ternate Sel., Kota Ternate, Maluku Utara 97713","blok i8, Ngade, Kec. Ternate Sel., Kota Ternate",MALUKU UTARA,97713.0,Indonesia,82225503240.0,0.7652102,127.3526423,https://maps.google.com/?cid=0x0:0x827088e57f850d06
housing complex,Kantor Perusahaan,Lulu Pratama Residence Maliaro,"Jl. Cempaka No.722, Tanah Tinggi Bar., Kec. Ternate Sel., Kota Ternate, Maluku Utara","Kota Ternate, Maluku Utara",MALUKU UTARA,,Indonesia,,0.7840735,127.3658601,https://maps.google.com/?cid=0x0:0x9a05dbc775c4a057
housing complex,Komplek perumahan,rumah rava cantik,"Q9H7+265, Jl. Jan, Tabona, Kec. Ternate Sel., Kota Ternate, Maluku Utara 97713","Jl. Jan, Tabona, Kec. Ternate Sel., Kota Ternate",MALUKU UTARA,97713.0,Indonesia,,0.7771563,127.363134,https://maps.google.com/?cid=0x0:0x13b44b5110c98710
housing complex,Komplek perumahan,Yuud Yamani,"Q9H7+265, Jl. Jan, Tabona, Kec. Ternate Sel., Kota Ternate, Maluku Utara 97713","Jl. Jan, Tabona, Kec. Ternate Sel., Kota Ternate",MALUKU UTARA,97713.0,Indonesia,,0.777517,127.3634807,https://maps.google.com/?cid=0x0:0xb1e0bcd9f681d7c8
housing complex,Komplek perumahan,Perumahan Bukit Jan Residence,"Jl. Balibunga, Tabona, Kec. Ternate Sel., Kota Ternate, Maluku Utara","Kota Ternate, Maluku Utara",MALUKU UTARA,,Indonesia,,0.7748387,127.3654294,https://maps.google.com/?cid=0x0:0x937b7c130dace91e
housing complex,Perhimpunan Pengembang Perumahan,Ibu ju rumah,"Q973+36Q, Jl. Raya Sahabat, Ngade, Kec. Ternate Sel., Kota Ternate, Maluku Utara 97713","Jl. Raya Sahabat, Ngade, Kec. Ternate Sel., Kota Ternate",MALUKU UTARA,97713.0,Indonesia,,0.7626906,127.3530447,https://maps.google.com/?cid=0x0:0xb8752eab16ad6c61
housing complex,Pembangunan Perumahan,Perumahan Makmur Utama,"Q9F7+MHR, Tabona, Kec. Ternate Sel., Kota Ternate, Maluku Utara","Kota Ternate, Maluku Utara",MALUKU UTARA,,Indonesia,,0.7741538,127.3639823,https://maps.google.com/?cid=0x0:0xaceed34c57927d9f
housing complex,Perhimpunan Pengembang Perumahan,RUMAH ATO,"Q9CC+RXM, Jati Perumnas, Kec. Ternate Sel., Kota Ternate, Maluku Utara 97713","Jati Perumnas, Kec. Ternate Sel., Kota Ternate",MALUKU UTARA,97713.0,Indonesia,,0.7720948,127.3724342,https://maps.google.com/?cid=0x0:0xfd732d70ccf90e6d
housing complex,Pembangunan Perumahan,Perumahan,"Q984+44P, Ngade, Kec. Ternate Sel., Kota Ternate, Maluku Utara","Kota Ternate, Maluku Utara",MALUKU UTARA,,Indonesia,,0.7650539,127.3553995,https://maps.google.com/?cid=0x0:0x5ab397056fa8333b
housing complex,Perhimpunan Pengembang Perumahan,Andi Sumar Karman,"Perumahan Griya Majang Asri No.Kelurahan Blok B, No. 1, Ngade, Kec. Ternate Sel., Kota Ternate, Maluku Utara 97713","No. 1, Ngade, Kec. Ternate Sel., Kota Ternate",MALUKU UTARA,97713.0,Indonesia,,0.7671488,127.35244,https://maps.google.com/?cid=0x0:0xbfe75c6ad8f4f695
housing complex,housing complex,Kec. Ternate Sel.,"Kota Ternate, Maluku Utara","Kota Ternate, Maluku Utara",MALUKU UTARA,,Indonesia,,0.7676108,127.3745474,https://maps.google.com/?cid=0x0:0xd0e23e4e61e3ddd0
housing complex,Komplek perumahan,Prince Residence Kalumata,"Jl. Santo Pedro No.37, Kalumata, Kec. Ternate Sel., Kota Ternate, Maluku Utara 97715","Kalumata, Kec. Ternate Sel., Kota Ternate",MALUKU UTARA,97715.0,Indonesia,,0.7618315,127.359564,https://maps.google.com/?cid=0x0:0x1d98007cacdba3de
housing complex,Kantor Perusahaan,RUMAH DINAS PELINDO,"Q9JH+C6Q, Jl. Jati, Tanah Tinggi, Kec. Ternate Sel., Kota Ternate, Maluku Utara 97715","Jl. Jati, Tanah Tinggi, Kec. Ternate Sel., Kota Ternate",MALUKU UTARA,97715.0,Indonesia,,0.7810791,127.3780994,https://maps.google.com/?cid=0x0:0xc683a12fac1d529f
housing complex,Kantor Perusahaan,Lulu Pratama Residence Maliaro,"Jl. Cempaka No.722, Tanah Tinggi Bar., Kec. Ternate Sel., Kota Ternate, Maluku Utara","Kota Ternate, Maluku Utara",MALUKU UTARA,,Indonesia,,0.7840735,127.3658601,https://maps.google.com/?cid=0x0:0x9a05dbc775c4a057
housing complex,Komplek perumahan,PS,"Kompleks Alun-Alun, Jl. Folaraha, RT.015/RW.06, Kalumata, Kec. Ternate Sel., Kota Ternate, Maluku Utara","Kota Ternate, Maluku Utara",MALUKU UTARA,,Indonesia,,0.7638715,127.3591422,https://maps.google.com/?cid=0x0:0x2a7dac30b4e40b6
housing complex,Komplek perumahan,Sekretaris Gama Waitina,"Lrg. Melati No.1, RT.15/RW.15, Tanah Tinggi, Kec. Ternate Sel., Kota Ternate, Maluku Utara 97715","RT.15/RW.15, Tanah Tinggi, Kec. Ternate Sel., Kota Ternate",MALUKU UTARA,97715.0,Indonesia,,0.7805555,127.3783201,https://maps.google.com/?cid=0x0:0x6e63725c68450706
housing complex,Komplek perumahan,nginap,"Q9CF+246, Bastiong Talangame, Kec. Ternate Sel., Kota Ternate, Maluku Utara","Kota Ternate, Maluku Utara",MALUKU UTARA,,Indonesia,,0.7705007,127.3727206,https://maps.google.com/?cid=0x0:0xb5c30bc226dd4d94
housing complex,Komplek perumahan,Perumahan Bukit Jan Residence,"Jl. Balibunga, Tabona, Kec. Ternate Sel., Kota Ternate, Maluku Utara","Kota Ternate, Maluku Utara",MALUKU UTARA,,Indonesia,,0.7748387,127.3654294,https://maps.google.com/?cid=0x0:0x937b7c130dace91e
housing complex,Komplek perumahan,Mama Sisca,"Jl. Yos Sudarso No.555, Maliaro, Kec. Ternate Tengah, Kota Ternate, Maluku Utara","Kota Ternate, Maluku Utara",MALUKU UTARA,,Indonesia,,0.783253,127.3773356,https://maps.google.com/?cid=0x0:0x25423cc0271def56
housing complex,Komplek perumahan,Sybil Nenek home,"Jl. Nusa Indah No.173, RT./RW/RW.08/02, Tanah Tinggi, Kec. TernateSelatan, Kota Ternate, Maluku Utara 97715","RT./RW/RW.08/02, Tanah Tinggi, Kec. TernateSelatan, Kota Ternate",MALUKU UTARA,97715.0,Indonesia,,0.7782998,127.3803039,https://maps.google.com/?cid=0x0:0x64edb29f271a86eb
housing complex,Pembangunan Perumahan,Perumahan Makmur Utama,"Q9F7+MHR, Tabona, Kec. Ternate Sel., Kota Ternate, Maluku Utara","Kota Ternate, Maluku Utara",MALUKU UTARA,,Indonesia,,0.7741538,127.3639823,https://maps.google.com/?cid=0x0:0xaceed34c57927d9f
housing complex,Komplek perumahan,Rumah Tinggal,"Q9MP+FQ9, Muhajirin, Kec. Ternate Tengah, Kota Ternate, Maluku Utara","Kota Ternate, Maluku Utara",MALUKU UTARA,,Indonesia,,0.7836596,127.3869971,https://maps.google.com/?cid=0x0:0xdf8897713d26d08d
housing complex,Pembangunan Perumahan,Perumahan,"Q984+44P, Ngade, Kec. Ternate Sel., Kota Ternate, Maluku Utara","Kota Ternate, Maluku Utara",MALUKU UTARA,,Indonesia,,0.7650539,127.3553995,https://maps.google.com/?cid=0x0:0x5ab397056fa8333b
housing complex,Komplek perumahan,Ramadhan,"Q988+5PR, Kayu Merah, Kec. Ternate Sel., Kota Ternate, Maluku Utara 97721","Kayu Merah, Kec. Ternate Sel., Kota Ternate",MALUKU UTARA,97721.0,Indonesia,,0.765365,127.3665317,https://maps.google.com/?cid=0x0:0x65e5a933d135afd0
housing complex,housing complex,Maluku Utara 97716,"Jati, Kec. Ternate Sel., Kota Ternate, Maluku Utara","Kota Ternate, Maluku Utara",MALUKU UTARA,,Indonesia,,0.774964,127.3753239,https://maps.google.com/?cid=0x0:0xd3326394ae1fb547
housing complex,Komplek perumahan,Prince Residence Kalumata,"Jl. Santo Pedro No.37, Kalumata, Kec. Ternate Sel., Kota Ternate, Maluku Utara 97715","Kalumata, Kec. Ternate Sel., Kota Ternate",MALUKU UTARA,97715.0,Indonesia,,0.7618315,127.359564,https://maps.google.com/?cid=0x0:0x1d98007cacdba3de
housing complex,Komplek perumahan,nginap,"Q9CF+246, Bastiong Talangame, Kec. Ternate Sel., Kota Ternate, Maluku Utara","Kota Ternate, Maluku Utara",MALUKU UTARA,,Indonesia,,0.7705007,127.3727206,https://maps.google.com/?cid=0x0:0xb5c30bc226dd4d94
housing complex,Masjid,Kelurahan Jati Kota Ternate Selatan,"Q9GG+738, RT.004/RW.02, Jati, Kec. Ternate Sel., Kota Ternate, Maluku Utara","Kota Ternate, Maluku Utara",MALUKU UTARA,,Indonesia,,0.7756551,127.3752073,https://maps.google.com/?cid=0x0:0x86ddf3cd5193c0f4
housing complex,Pembangunan Perumahan,Perumahan Makmur Utama,"Q9F7+MHR, Tabona, Kec. Ternate Sel., Kota Ternate, Maluku Utara","Kota Ternate, Maluku Utara",MALUKU UTARA,,Indonesia,,0.7741538,127.3639823,https://maps.google.com/?cid=0x0:0xaceed34c57927d9f
housing complex,Pembangunan Perumahan,Perumahan,"Q984+44P, Ngade, Kec. Ternate Sel., Kota Ternate, Maluku Utara","Kota Ternate, Maluku Utara",MALUKU UTARA,,Indonesia,,0.7650539,127.3553995,https://maps.google.com/?cid=0x0:0x5ab397056fa8333b
housing complex,Komplek perumahan,Rumah Tinggal,"Q9MP+FQ9, Muhajirin, Kec. Ternate Tengah, Kota Ternate, Maluku Utara","Kota Ternate, Maluku Utara",MALUKU UTARA,,Indonesia,,0.7836596,127.3869971,https://maps.google.com/?cid=0x0:0xdf8897713d26d08d
housing complex,Komplek perumahan,Queen HomeBase,"Q9FG+W6P Perumahan Bela Jati Residence, Jl. Jati Besar, Jati, Ternate Selatan, Ternate City, North Maluku","Kota Ternate, Maluku Utara",MALUKU UTARA,,Indonesia,,0.7748418,127.3755739,https://maps.google.com/?cid=0x0:0x8f3334443240b553
housing complex,Komplek perumahan,Rumah,"Q9GG+GMC, Jl. Jati Inpres, Jati, Kec. Ternate Sel., Kota Ternate, Maluku Utara","Kota Ternate, Maluku Utara",MALUKU UTARA,,Indonesia,,0.7762039,127.3766721,https://maps.google.com/?cid=0x0:0xa6b8ac2800162eae
housing complex,Perhimpunan Pengembang Perumahan,Perumahan bella Blok A No 3,"Q9GG+5FG, Jl. Jati, Jati, Kec. Ternate Sel., Kota Ternate, Maluku Utara","Kota Ternate, Maluku Utara",MALUKU UTARA,,Indonesia,,0.7754275,127.3762125,https://maps.google.com/?cid=0x0:0x492704ce53bf2f34
housing complex,Komplek perumahan,Perumahan Bukit Jan Residence,"Jl. Balibunga, Tabona, Kec. Ternate Sel., Kota Ternate, Maluku Utara","Kota Ternate, Maluku Utara",MALUKU UTARA,,Indonesia,,0.7748387,127.3654294,https://maps.google.com/?cid=0x0:0x937b7c130dace91e
housing complex,Komplek perumahan,TAA,"Q9GG+7QR, Jati, Kec. Ternate Sel., Kota Ternate, Maluku Utara","Kota Ternate, Maluku Utara",MALUKU UTARA,,Indonesia,,0.7757375,127.376883,https://maps.google.com/?cid=0x0:0x725f89146d9a3d64
housing complex,Komplek perumahan,Dapur momsky jati,"Q9GG+F8H, Jati, Kec. Ternate Sel., Kota Ternate, Maluku Utara","Kota Ternate, Maluku Utara",MALUKU UTARA,,Indonesia,,0.7761846,127.3758444,https://maps.google.com/?cid=0x0:0x64a2ef765881024e
housing complex,Komplek perumahan,"Dr Maryam Sun Dunggio, Dokter Kulit","Perumahan Bela Jati Residence Blok A2 No.8, Jati, Kec. Ternate Sel., Kota Ternate, 97716","Jati, Kec. Ternate Sel.",MALUKU UTARA,97716.0,Indonesia,,0.7757449,127.3766852,https://maps.google.com/?cid=0x0:0xb8d7566ee417e568
housing complex,Komplek perumahan,Prince Residence Kalumata,"Jl. Santo Pedro No.37, Kalumata, Kec. Ternate Sel., Kota Ternate, Maluku Utara 97715","Kalumata, Kec. Ternate Sel., Kota Ternate",MALUKU UTARA,97715.0,Indonesia,,0.7618315,127.359564,https://maps.google.com/?cid=0x0:0x1d98007cacdba3de
housing complex,Komplek perumahan,Home,"Jl. Raya Kalumata Puncak A No.4, Kalumata, Kec. Ternate Sel., Kota Ternate, Maluku Utara 97718","Kalumata, Kec. Ternate Sel., Kota Ternate",MALUKU UTARA,97718.0,Indonesia,,0.7648369,127.3666786,https://maps.google.com/?cid=0x0:0x64a0753efb4c0569
housing complex,Agen Sewa Mobil,Kalumata foloraha,"Q967+M94, Jl. Folaraha, Kalumata, Kec. Ternate Sel., Kota Ternate, Maluku Utara","Kota Ternate, Maluku Utara",MALUKU UTARA,,Indonesia,81355214175.0,0.7616313,127.3634683,https://maps.google.com/?cid=0x0:0x33526bcdf7a5b56b
housing complex,Kantor Perusahaan,Lulu Pratama Residence Maliaro,"Jl. Cempaka No.722, Tanah Tinggi Bar., Kec. Ternate Sel., Kota Ternate, Maluku Utara","Kota Ternate, Maluku Utara",MALUKU UTARA,,Indonesia,,0.7840735,127.3658601,https://maps.google.com/?cid=0x0:0x9a05dbc775c4a057
housing complex,Komplek perumahan,nginap,"Q9CF+246, Bastiong Talangame, Kec. Ternate Sel., Kota Ternate, Maluku Utara","Kota Ternate, Maluku Utara",MALUKU UTARA,,Indonesia,,0.7705007,127.3727206,https://maps.google.com/?cid=0x0:0xb5c30bc226dd4d94
housing complex,Komplek perumahan,Perumahan Bukit Jan Residence,"Jl. Balibunga, Tabona, Kec. Ternate Sel., Kota Ternate, Maluku Utara","Kota Ternate, Maluku Utara",MALUKU UTARA,,Indonesia,,0.7748387,127.3654294,https://maps.google.com/?cid=0x0:0x937b7c130dace91e
housing complex,Pembangunan Perumahan,Perumahan Makmur Utama,"Q9F7+MHR, Tabona, Kec. Ternate Sel., Kota Ternate, Maluku Utara","Kota Ternate, Maluku Utara",MALUKU UTARA,,Indonesia,,0.7741538,127.3639823,https://maps.google.com/?cid=0x0:0xaceed34c57927d9f
housing complex,Pembangunan Perumahan,Kompleks Pohon Pala,"Q9JP+73C, Jl. Pohon Pala, Kota Baru, Kec. Ternate Tengah, Kota Ternate, Maluku Utara","Kota Ternate, Maluku Utara",MALUKU UTARA,,Indonesia,,0.780699,127.3851378,https://maps.google.com/?cid=0x0:0xfd2fb68ff3acb3cf
housing complex,Pembangunan Perumahan,Perumahan,"Q984+44P, Ngade, Kec. Ternate Sel., Kota Ternate, Maluku Utara","Kota Ternate, Maluku Utara",MALUKU UTARA,,Indonesia,,0.7650539,127.3553995,https://maps.google.com/?cid=0x0:0x5ab397056fa8333b
housing complex,Komplek perumahan,Rumah Tinggal,"Q9MP+FQ9, Muhajirin, Kec. Ternate Tengah, Kota Ternate, Maluku Utara","Kota Ternate, Maluku Utara",MALUKU UTARA,,Indonesia,,0.7836596,127.3869971,https://maps.google.com/?cid=0x0:0xdf8897713d26d08d
housing complex,housing complex,Maluku Utara 97718,"Kalumata, Kec. Ternate Sel., Kota Ternate, Maluku Utara","Kota Ternate, Maluku Utara",MALUKU UTARA,,Indonesia,,0.7645594,127.3662047,https://maps.google.com/?cid=0x0:0x663035b682ff1ce5
housing complex,Komplek perumahan,Prince Residence Kalumata,"Jl. Santo Pedro No.37, Kalumata, Kec. Ternate Sel., Kota Ternate, Maluku Utara 97715","Kalumata, Kec. Ternate Sel., Kota Ternate",MALUKU UTARA,97715.0,Indonesia,,0.7618315,127.359564,https://maps.google.com/?cid=0x0:0x1d98007cacdba3de
housing complex,Komplek perumahan,Perumahan Bukit Jan Residence,"Jl. Balibunga, Tabona, Kec. Ternate Sel., Kota Ternate, Maluku Utara","Kota Ternate, Maluku Utara",MALUKU UTARA,,Indonesia,,0.7748387,127.3654294,https://maps.google.com/?cid=0x0:0x937b7c130dace91e
housing complex,Pembangunan Perumahan,Perumahan Makmur Utama,"Q9F7+MHR, Tabona, Kec. Ternate Sel., Kota Ternate, Maluku Utara","Kota Ternate, Maluku Utara",MALUKU UTARA,,Indonesia,,0.7741538,127.3639823,https://maps.google.com/?cid=0x0:0xaceed34c57927d9f
housing complex,Pembangunan Perumahan,Perumahan,"Q984+44P, Ngade, Kec. Ternate Sel., Kota Ternate, Maluku Utara","Kota Ternate, Maluku Utara",MALUKU UTARA,,Indonesia,,0.7650539,127.3553995,https://maps.google.com/?cid=0x0:0x5ab397056fa8333b
housing complex,Komplek perumahan,nginap,"Q9CF+246, Bastiong Talangame, Kec. Ternate Sel., Kota Ternate, Maluku Utara","Kota Ternate, Maluku Utara",MALUKU UTARA,,Indonesia,,0.7705007,127.3727206,https://maps.google.com/?cid=0x0:0xb5c30bc226dd4d94
housing complex,Komplek perumahan,Home,"Jl. Raya Kalumata Puncak A No.4, Kalumata, Kec. Ternate Sel., Kota Ternate, Maluku Utara 97718","Kalumata, Kec. Ternate Sel., Kota Ternate",MALUKU UTARA,97718.0,Indonesia,,0.7648369,127.3666786,https://maps.google.com/?cid=0x0:0x64a0753efb4c0569
housing complex,Komplek perumahan,Rumah Pak Harun,"Q977+HWC, Kalumata, Kec. Ternate Sel., Kota Ternate, Maluku Utara","Kota Ternate, Maluku Utara",MALUKU UTARA,,Indonesia,,0.764098,127.365225,https://maps.google.com/?cid=0x0:0xe6d0e88689530dfa
housing complex,Komplek perumahan,H. ABDUL HAJI BODE,"Q977+WWH, Kalumata, Kec. Ternate Sel., Kota Ternate, Maluku Utara","Kota Ternate, Maluku Utara",MALUKU UTARA,,Indonesia,,0.7648052,127.3648617,https://maps.google.com/?cid=0x0:0xbbb48b3af6d6eb89
housing complex,housing complex,Rumah Idris  Sabaria,"RT.007/RW.003, Kalumata, Kec. Ternate Sel., Kota Ternate, Maluku Utara 97718","Kalumata, Kec. Ternate Sel., Kota Ternate",MALUKU UTARA,97718.0,Indonesia,,0.7645085,127.3661856,https://maps.google.com/?cid=0x0:0x9b5b3f2ad9298cae
housing complex,Komplek perumahan,KOS HIJAU MUDALI,"Q987+3PR, Jl. Tugu Maku Gawene, Kalumata, Kec. Ternate Sel., Kota Ternate, Maluku Utara","Kota Ternate, Maluku Utara",MALUKU UTARA,,Indonesia,,0.7652438,127.3642698,https://maps.google.com/?cid=0x0:0x941356b1591019c9
housing complex,Komplek perumahan,Dura House,"Q978+W22, Jl. Raya Kalumata Puncak, Kalumata, Kec. Ternate Sel., Kota Ternate, Maluku Utara","Kota Ternate, Maluku Utara",MALUKU UTARA,,Indonesia,,0.7646241,127.3649321,https://maps.google.com/?cid=0x0:0xace83a761629ea91
housing complex,Komplek perumahan,Rumah Al,"Q978+H55, Jl. Raya Kalumata Puncak, Kalumata, Kec. Ternate Sel., Kota Ternate, Maluku Utara","Kota Ternate, Maluku Utara",MALUKU UTARA,,Indonesia,,0.7638987,127.3654836,https://maps.google.com/?cid=0x0:0xb2b350f65f50b2d4
housing complex,Komplek perumahan,RUMAH GHAZI,"Q987+3PV, Jl. Raya Kalumata Puncak, Kalumata, Kec. Ternate Sel., Kota Ternate, Maluku Utara","Kota Ternate, Maluku Utara",MALUKU UTARA,,Indonesia,,0.7652319,127.3643051,https://maps.google.com/?cid=0x0:0x91a5ce923e7752e9
housing complex,housing complex,Maluku Utara 97719,"Gambesi, Kec. Ternate Sel., Kota Ternate, Maluku Utara","Kota Ternate, Maluku Utara",MALUKU UTARA,,Indonesia,,0.7574825,127.337924,https://maps.google.com/?cid=0x0:0x8c905e5582c8d0aa
housing complex,Komplek perumahan,Perumahan Bukit Jan Residence,"Jl. Balibunga, Tabona, Kec. Ternate Sel., Kota Ternate, Maluku Utara","Kota Ternate, Maluku Utara",MALUKU UTARA,,Indonesia,,0.7748387,127.3654294,https://maps.google.com/?cid=0x0:0x937b7c130dace91e
housing complex,Komplek perumahan,Prince Residence Kalumata,"Jl. Santo Pedro No.37, Kalumata, Kec. Ternate Sel., Kota Ternate, Maluku Utara 97715","Kalumata, Kec. Ternate Sel., Kota Ternate",MALUKU UTARA,97715.0,Indonesia,,0.7618315,127.359564,https://maps.google.com/?cid=0x0:0x1d98007cacdba3de
housing complex,Komplek perumahan,nginap,"Q9CF+246, Bastiong Talangame, Kec. Ternate Sel., Kota Ternate, Maluku Utara","Kota Ternate, Maluku Utara",MALUKU UTARA,,Indonesia,,0.7705007,127.3727206,https://maps.google.com/?cid=0x0:0xb5c30bc226dd4d94
housing complex,Pembangunan Perumahan,Perumahan,"Q984+44P, Ngade, Kec. Ternate Sel., Kota Ternate, Maluku Utara","Kota Ternate, Maluku Utara",MALUKU UTARA,,Indonesia,,0.7650539,127.3553995,https://maps.google.com/?cid=0x0:0x5ab397056fa8333b
housing complex,Komplek perumahan,ngade,"Q964+HP3, Ngade, Kec. Ternate Sel., Kota Ternate, Maluku Utara","Kota Ternate, Maluku Utara",MALUKU UTARA,,Indonesia,,0.7613992,127.3568008,https://maps.google.com/?cid=0x0:0x323234176a63e447
housing complex,housing complex,om egar kios japut,"perumahan ngade low permai, Kalumata, Kec. Ternate Sel., Kota Ternate, Maluku Utara","Kota Ternate, Maluku Utara",MALUKU UTARA,,Indonesia,,0.7646442,127.3557788,https://maps.google.com/?cid=0x0:0xde8ec5baba901f80
housing complex,Komplek perumahan,Lokasi wisuda,"Q84Q+JQW, Gambesi, Kec. Ternate Sel., Kota Ternate, Maluku Utara","Kota Ternate, Maluku Utara",MALUKU UTARA,,Indonesia,,0.7566124,127.3394538,https://maps.google.com/?cid=0x0:0x49661b0b3e8af504
housing complex,Komplek perumahan,Rumah jum,"Q85Q+23G, Gambesi, Kec. Ternate Sel., Kota Ternate, Maluku Utara","Kota Ternate, Maluku Utara",MALUKU UTARA,,Indonesia,,0.7575504,127.3377001,https://maps.google.com/?cid=0x0:0xa81027b9691e4fb4
housing complex,housing complex,Kec. Ternate Sel.,"Kota Ternate, Maluku Utara","Kota Ternate, Maluku Utara",MALUKU UTARA,,Indonesia,,0.7676108,127.3745474,https://maps.google.com/?cid=0x0:0xd0e23e4e61e3ddd0
housing complex,Kantor Perusahaan,Lulu Pratama Residence Maliaro,"Jl. Cempaka No.722, Tanah Tinggi Bar., Kec. Ternate Sel., Kota Ternate, Maluku Utara","Kota Ternate, Maluku Utara",MALUKU UTARA,,Indonesia,,0.7840735,127.3658601,https://maps.google.com/?cid=0x0:0x9a05dbc775c4a057
housing complex,Komplek perumahan,Perumahan Bukit Jan Residence,"Jl. Balibunga, Tabona, Kec. Ternate Sel., Kota Ternate, Maluku Utara","Kota Ternate, Maluku Utara",MALUKU UTARA,,Indonesia,,0.7748387,127.3654294,https://maps.google.com/?cid=0x0:0x937b7c130dace91e
housing complex,Pembangunan Perumahan,Perumahan,"Q984+44P, Ngade, Kec. Ternate Sel., Kota Ternate, Maluku Utara","Kota Ternate, Maluku Utara",MALUKU UTARA,,Indonesia,,0.7650539,127.3553995,https://maps.google.com/?cid=0x0:0x5ab397056fa8333b
housing complex,Kantor Pemerintahan Regional,Sentra Wasana Bahagia Ternate,"Jl. Santo Pedro No.1, Kalumata, Kec. Ternate Sel., Kota Ternate, Maluku Utara 97718","Kalumata, Kec. Ternate Sel., Kota Ternate",MALUKU UTARA,97718.0,Indonesia,85174336100.0,0.7611868,127.3682524,https://maps.google.com/?cid=0x0:0xfd6ddfb38ee5d2c8
housing complex,Komplek perumahan,nginap,"Q9CF+246, Bastiong Talangame, Kec. Ternate Sel., Kota Ternate, Maluku Utara","Kota Ternate, Maluku Utara",MALUKU UTARA,,Indonesia,,0.7705007,127.3727206,https://maps.google.com/?cid=0x0:0xb5c30bc226dd4d94
housing complex,Pembangunan Perumahan,Kompleks Pohon Pala,"Q9JP+73C, Jl. Pohon Pala, Kota Baru, Kec. Ternate Tengah, Kota Ternate, Maluku Utara","Kota Ternate, Maluku Utara",MALUKU UTARA,,Indonesia,,0.780699,127.3851378,https://maps.google.com/?cid=0x0:0xfd2fb68ff3acb3cf
housing complex,housing complex,Penginapan RD 01,"Perumahan BI Lama No.610, Maliaro, Kec. Ternate Tengah, Kota Ternate, Maluku Utara 97711","Maliaro, Kec. Ternate Tengah, Kota Ternate",MALUKU UTARA,97711.0,Indonesia,81143903528.0,0.7823152,127.3769593,https://maps.google.com/?cid=0x0:0x384f065b5f4b8fda
housing complex,housing complex,Gn. Gamalama,"Hutan Lindung, Kec. Hutan Lindung, Kota Ternate, Maluku Utara","Kota Ternate, Maluku Utara",MALUKU UTARA,,Indonesia,,0.8091666,127.3333333,https://maps.google.com/?cid=0x0:0x1f13cae0fc042e8
housing complex,Bank,Perumahan Bank Indonesia Provinsi Maluku Utara,"Q9JG+HV8, Tanah Tinggi Bar., Kec. Ternate Sel., Kota Ternate, Maluku Utara","Kota Ternate, Maluku Utara",MALUKU UTARA,,Indonesia,,0.7814246,127.3771962,https://maps.google.com/?cid=0x0:0xc3febb4bd39c4346
housing complex,housing complex,,,,MALUKU UTARA,,Indonesia,,,,https://maps.google.com/?cid=0x0:0xadc0715ea2e729ec%7C/g/121hftnj%7Cid-ID
housing complex,housing complex,Bela Hotel Ternate,"Jalan Jati Raya No.500, Jati, Kec. Ternate Sel., Kota Ternate, Maluku Utara","Kota Ternate, Maluku Utara",MALUKU UTARA,,Indonesia,9213121800.0,0.778607,127.376382,https://maps.google.com/?cid=0x0:0xadc0715ea2e729ec
housing complex,Masjid,Masjid AL KHALIQ,"Q9JP+H23, Jl. Sedap Malam Kompleks Pohon Pala, Takoma, Kec. Ternate Sel., Kota Ternate, Maluku Utara 97714","Jl. Sedap Malam Kompleks Pohon Pala, Takoma, Kec. Ternate Sel., Kota Ternate",MALUKU UTARA,97714.0,Indonesia,,0.7813804,127.385053,https://maps.google.com/?cid=0x0:0xbfb16c954328947f
housing complex,Pembangunan Perumahan,Gamayou blok G,"Q9XF+5RQ, Makassar Bar., Kec. Ternate Tengah, Kota Ternate, Maluku Utara","Kota Ternate, Maluku Utara",MALUKU UTARA,,Indonesia,,0.7979513,127.3746227,https://maps.google.com/?cid=0x0:0x50a1010663cfc037
housing complex,Komplek perumahan,Gamayou Blok H,"Q9WF+5H3, Makassar Bar., Kec. Ternate Tengah, Kota Ternate, Maluku Utara","Kota Ternate, Maluku Utara",MALUKU UTARA,,Indonesia,,0.7953964,127.3739094,https://maps.google.com/?cid=0x0:0xaf4850963e13057e
housing complex,Komplek perumahan,Rumah Ama taslim,"Kel Jl. Gamayou No.46, Makassar Bar., Kec. Ternate Tengah, Kota Ternate, Maluku Utara","Kota Ternate, Maluku Utara",MALUKU UTARA,,Indonesia,,0.7958103,127.3739752,https://maps.google.com/?cid=0x0:0x7ebdf7af3e5db9a3
housing complex,housing complex,om egar kios japut,"perumahan ngade low permai, Kalumata, Kec. Ternate Sel., Kota Ternate, Maluku Utara","Kota Ternate, Maluku Utara",MALUKU UTARA,,Indonesia,,0.7646442,127.3557788,https://maps.google.com/?cid=0x0:0xde8ec5baba901f80
housing complex,Komplek perumahan,ngade,"Q964+HP3, Ngade, Kec. Ternate Sel., Kota Ternate, Maluku Utara","Kota Ternate, Maluku Utara",MALUKU UTARA,,Indonesia,,0.7613992,127.3568008,https://maps.google.com/?cid=0x0:0x323234176a63e447
housing complex,Pembangunan Perumahan,Gamayou blok G,"Q9XF+5RQ, Makassar Bar., Kec. Ternate Tengah, Kota Ternate, Maluku Utara","Kota Ternate, Maluku Utara",MALUKU UTARA,,Indonesia,,0.7979513,127.3746227,https://maps.google.com/?cid=0x0:0x50a1010663cfc037
housing complex,Komplek perumahan,Gamayou Blok H,"Q9WF+5H3, Makassar Bar., Kec. Ternate Tengah, Kota Ternate, Maluku Utara","Kota Ternate, Maluku Utara",MALUKU UTARA,,Indonesia,,0.7953964,127.3739094,https://maps.google.com/?cid=0x0:0xaf4850963e13057e
housing complex,Komplek perumahan,Rumah Ama taslim,"Kel Jl. Gamayou No.46, Makassar Bar., Kec. Ternate Tengah, Kota Ternate, Maluku Utara","Kota Ternate, Maluku Utara",MALUKU UTARA,,Indonesia,,0.7958103,127.3739752,https://maps.google.com/?cid=0x0:0x7ebdf7af3e5db9a3
housing complex,Komplek perumahan,Rumah sayuti,"Jl. Semangka No.8, Kasturian, Kec. Kota Ternate Utara, Kota Ternate, Maluku Utara 97725","Kasturian, Kec. Kota Ternate Utara, Kota Ternate",MALUKU UTARA,97725.0,Indonesia,,0.8027694,127.3784267,https://maps.google.com/?cid=0x0:0x99e0ec41f5a25d23
housing complex,Komplek perumahan,Ternate Maluku Utara,"R8VV+C3C, Tobololo, Kec. Pulau Ternate, Kota Ternate, Maluku Utara","Kota Ternate, Maluku Utara",MALUKU UTARA,,Indonesia,,0.8435603,127.3426492,https://maps.google.com/?cid=0x0:0x2b2cf671ca2915d7
housing complex,Kantor Perusahaan,Lulu Pratama Residence Maliaro,"Jl. Cempaka No.722, Tanah Tinggi Bar., Kec. Ternate Sel., Kota Ternate, Maluku Utara","Kota Ternate, Maluku Utara",MALUKU UTARA,,Indonesia,,0.7840735,127.3658601,https://maps.google.com/?cid=0x0:0x9a05dbc775c4a057
housing complex,Komplek perumahan,RUMAH SUROTO,"Jl. Soa Puncak No.1, RT.014/RW.006, Soa, Kec. Kota Ternate Utara, Kota Ternate, Maluku Utara 97725","RT.014/RW.006, Soa, Kec. Kota Ternate Utara, Kota Ternate",MALUKU UTARA,97725.0,Indonesia,,0.8007696,127.3764626,https://maps.google.com/?cid=0x0:0x2f7f5ab7d119cc2a
housing complex,Komplek perumahan,ROBI IPA,"RT.001/RW.001, Tubo, Kec. Kota Ternate Utara, Kota Ternate, Maluku Utara 97725","Tubo, Kec. Kota Ternate Utara, Kota Ternate",MALUKU UTARA,97725.0,Indonesia,,0.8223627,127.3791757,https://maps.google.com/?cid=0x0:0xdb2fcfdb34d4cb6c
housing complex,Komplek perumahan,Gamayou Blok H,"Q9WF+5H3, Makassar Bar., Kec. Ternate Tengah, Kota Ternate, Maluku Utara","Kota Ternate, Maluku Utara",MALUKU UTARA,,Indonesia,,0.7953964,127.3739094,https://maps.google.com/?cid=0x0:0xaf4850963e13057e
housing complex,Pembangunan Perumahan,Gamayou blok G,"Q9XF+5RQ, Makassar Bar., Kec. Ternate Tengah, Kota Ternate, Maluku Utara","Kota Ternate, Maluku Utara",MALUKU UTARA,,Indonesia,,0.7979513,127.3746227,https://maps.google.com/?cid=0x0:0x50a1010663cfc037
housing complex,Komplek perumahan,Rumah Ama taslim,"Kel Jl. Gamayou No.46, Makassar Bar., Kec. Ternate Tengah, Kota Ternate, Maluku Utara","Kota Ternate, Maluku Utara",MALUKU UTARA,,Indonesia,,0.7958103,127.3739752,https://maps.google.com/?cid=0x0:0x7ebdf7af3e5db9a3
housing complex,Komplek perumahan,Rizal Yunus House,"R95M+FM8, Toboleu, Kec. Kota Ternate Utara, Kota Ternate, Maluku Utara","Kota Ternate, Maluku Utara",MALUKU UTARA,,Indonesia,,0.808658,127.3841921,https://maps.google.com/?cid=0x0:0x4b43ba3036ab9fa
housing complex,Pembangunan Perumahan,My home,"R95M+2GX, Toboleu, Kec. Kota Ternate Utara, Kota Ternate, Maluku Utara","Kota Ternate, Maluku Utara",MALUKU UTARA,,Indonesia,,0.8076078,127.3838688,https://maps.google.com/?cid=0x0:0x8952ed2dca2e2cfe
housing complex,Komplek perumahan,Rumah,"R94J+XXJ, Toboleu, Kec. Kota Ternate Utara, Kota Ternate, Maluku Utara","Kota Ternate, Maluku Utara",MALUKU UTARA,,Indonesia,,0.8079511,127.3831713,https://maps.google.com/?cid=0x0:0x543f55b719d2ab4d
housing complex,housing complex,Rumah Anggur,"R95M+4GR, Jl. Bola, Toboleu, Kec. Kota Ternate Utara, Kota Ternate, Maluku Utara","Kota Ternate, Maluku Utara",MALUKU UTARA,,Indonesia,,0.8078569,127.3837666,https://maps.google.com/?cid=0x0:0x8d824e9aae793746
housing complex,Komplek perumahan,Wolonburung,"ian ,rt14 rw03, Jl. Bola, Toboleu, Kec. Kota Ternate Utara, Kota Ternate, Maluku Utara","Kota Ternate, Maluku Utara",MALUKU UTARA,,Indonesia,,0.8087096,127.3834926,https://maps.google.com/?cid=0x0:0xe9b9aa1272c725d4
housing complex,Komplek perumahan,Rumah Oton,"R95M+458, Jl. Bola, Toboleu, Kec. Kota Ternate Utara, Kota Ternate, Maluku Utara","Kota Ternate, Maluku Utara",MALUKU UTARA,,Indonesia,,0.807798,127.3829379,https://maps.google.com/?cid=0x0:0x739d0cede712f7ad
housing complex,Komplek perumahan,Ghifar nenek home,"Jl. Bola No.459-567, Toboleu, Kec. Kota Ternate Utara, Kota Ternate, Maluku Utara","Kota Ternate, Maluku Utara",MALUKU UTARA,,Indonesia,,0.807403,127.3829485,https://maps.google.com/?cid=0x0:0xbe7c164966d6310e
housing complex,housing complex,Pangkalan Mnyak Tanah Ain Bsa,"Jalan cempedak No.150, Kasturian, Kec. Kota Ternate Utara, Kota Ternate, Maluku Utara 97726","Kasturian, Kec. Kota Ternate Utara, Kota Ternate",MALUKU UTARA,97726.0,Indonesia,,0.8084596,127.3834584,https://maps.google.com/?cid=0x0:0x8f26e117626920a7
housing complex,Komplek perumahan,Pokdakan Toboleu,"R95M+F9Q, Toboleu, Kec. Kota Ternate Utara, Kota Ternate, Maluku Utara","Kota Ternate, Maluku Utara",MALUKU UTARA,,Indonesia,,0.8087096,127.3834926,https://maps.google.com/?cid=0x0:0x573dc7e3f4ee2f0b
housing complex,Toko Perlengkapan Rumah,Koloncucu,"R94M+5MH, Toboleu, Kec. Kota Ternate Utara, Kota Ternate, Maluku Utara","Kota Ternate, Maluku Utara",MALUKU UTARA,,Indonesia,,0.8081761,127.3851885,https://maps.google.com/?cid=0x0:0x6a9e88ecef429c17
housing complex,Komplek perumahan,Fala Om rizal dan ci aeng,"R95M+F9Q, Jl. Bola, Toboleu, Kec. Kota Ternate Utara, Kota Ternate, Maluku Utara","Kota Ternate, Maluku Utara",MALUKU UTARA,,Indonesia,,0.8087096,127.3834926,https://maps.google.com/?cid=0x0:0x916b255caf746ddc
housing complex,Komplek perumahan,Gamayou Blok H,"Q9WF+5H3, Makassar Bar., Kec. Ternate Tengah, Kota Ternate, Maluku Utara","Kota Ternate, Maluku Utara",MALUKU UTARA,,Indonesia,,0.7953964,127.3739094,https://maps.google.com/?cid=0x0:0xaf4850963e13057e
housing complex,Pembangunan Perumahan,Gamayou blok G,"Q9XF+5RQ, Makassar Bar., Kec. Ternate Tengah, Kota Ternate, Maluku Utara","Kota Ternate, Maluku Utara",MALUKU UTARA,,Indonesia,,0.7979513,127.3746227,https://maps.google.com/?cid=0x0:0x50a1010663cfc037
housing complex,Komplek perumahan,Rumah Ama taslim,"Kel Jl. Gamayou No.46, Makassar Bar., Kec. Ternate Tengah, Kota Ternate, Maluku Utara","Kota Ternate, Maluku Utara",MALUKU UTARA,,Indonesia,,0.7958103,127.3739752,https://maps.google.com/?cid=0x0:0x7ebdf7af3e5db9a3
housing complex,Komplek perumahan,rumah IRAMASUKHA,"Pacei, Sangaji Utara, Kec. Kota Ternate Utara, Kota Ternate, Maluku Utara 97727","Sangaji Utara, Kec. Kota Ternate Utara, Kota Ternate",MALUKU UTARA,97727.0,Indonesia,,0.8130757,127.3808403,https://maps.google.com/?cid=0x0:0xed1e808a16967ea0
housing complex,Komplek perumahan,rumah faqih,"R97G+CJ4, Sangaji Utara, Kec. Kota Ternate Utara, Kota Ternate, Maluku Utara 97727","Sangaji Utara, Kec. Kota Ternate Utara, Kota Ternate",MALUKU UTARA,97727.0,Indonesia,,0.8135325,127.3766623,https://maps.google.com/?cid=0x0:0xae521b408c45ec9b
housing complex,Kantor Perusahaan,Lulu Pratama Residence Maliaro,"Jl. Cempaka No.722, Tanah Tinggi Bar., Kec. Ternate Sel., Kota Ternate, Maluku Utara","Kota Ternate, Maluku Utara",MALUKU UTARA,,Indonesia,,0.7840735,127.3658601,https://maps.google.com/?cid=0x0:0x9a05dbc775c4a057
housing complex,Komplek perumahan,Gamayou Blok H,"Q9WF+5H3, Makassar Bar., Kec. Ternate Tengah, Kota Ternate, Maluku Utara","Kota Ternate, Maluku Utara",MALUKU UTARA,,Indonesia,,0.7953964,127.3739094,https://maps.google.com/?cid=0x0:0xaf4850963e13057e
housing complex,Pembangunan Perumahan,Gamayou blok G,"Q9XF+5RQ, Makassar Bar., Kec. Ternate Tengah, Kota Ternate, Maluku Utara","Kota Ternate, Maluku Utara",MALUKU UTARA,,Indonesia,,0.7979513,127.3746227,https://maps.google.com/?cid=0x0:0x50a1010663cfc037
housing complex,Komplek perumahan,Rumah Ama taslim,"Kel Jl. Gamayou No.46, Makassar Bar., Kec. Ternate Tengah, Kota Ternate, Maluku Utara","Kota Ternate, Maluku Utara",MALUKU UTARA,,Indonesia,,0.7958103,127.3739752,https://maps.google.com/?cid=0x0:0x7ebdf7af3e5db9a3
housing complex,Komplek perumahan,Sukarni,"Jl. Batu Angus No.97728, Akehuda, Kec. Kota Ternate Utara, Kota Ternate, Maluku Utara","Kota Ternate, Maluku Utara",MALUKU UTARA,,Indonesia,,0.8204197,127.3824733,https://maps.google.com/?cid=0x0:0xeb786afe8100dccd
housing complex,Komplek perumahan,KMN,"Q9RM+VF4, Jl jalan, Santiong, Kec. Ternate Tengah, Kota Ternate, Maluku Utara 97728","Jl jalan, Santiong, Kec. Ternate Tengah, Kota Ternate",MALUKU UTARA,97728.0,Indonesia,,0.7921676,127.3837511,https://maps.google.com/?cid=0x0:0xaf90db203b22aa0b
housing complex,Komplek perumahan,Rumah,"Q9RM+VF4, Jl jalan, Santiong, Kec. Ternate Tengah, Kota Ternate, Maluku Utara 97728","Jl jalan, Santiong, Kec. Ternate Tengah, Kota Ternate",MALUKU UTARA,97728.0,Indonesia,,0.7921685,127.3837435,https://maps.google.com/?cid=0x0:0x6a780f00d93a1709
housing complex,Komplek perumahan,Gamayou Blok H,"Q9WF+5H3, Makassar Bar., Kec. Ternate Tengah, Kota Ternate, Maluku Utara","Kota Ternate, Maluku Utara",MALUKU UTARA,,Indonesia,,0.7953964,127.3739094,https://maps.google.com/?cid=0x0:0xaf4850963e13057e
housing complex,Pembangunan Perumahan,Gamayou blok G,"Q9XF+5RQ, Makassar Bar., Kec. Ternate Tengah, Kota Ternate, Maluku Utara","Kota Ternate, Maluku Utara",MALUKU UTARA,,Indonesia,,0.7979513,127.3746227,https://maps.google.com/?cid=0x0:0x50a1010663cfc037
housing complex,Komplek perumahan,Rumah Ama taslim,"Kel Jl. Gamayou No.46, Makassar Bar., Kec. Ternate Tengah, Kota Ternate, Maluku Utara","Kota Ternate, Maluku Utara",MALUKU UTARA,,Indonesia,,0.7958103,127.3739752,https://maps.google.com/?cid=0x0:0x7ebdf7af3e5db9a3
housing complex,Kantor Perusahaan,Lulu Pratama Residence Maliaro,"Jl. Cempaka No.722, Tanah Tinggi Bar., Kec. Ternate Sel., Kota Ternate, Maluku Utara","Kota Ternate, Maluku Utara",MALUKU UTARA,,Indonesia,,0.7840735,127.3658601,https://maps.google.com/?cid=0x0:0x9a05dbc775c4a057
housing complex,Pembangunan Perumahan,Perumahan Makmur Utama,"Q9F7+MHR, Tabona, Kec. Ternate Sel., Kota Ternate, Maluku Utara","Kota Ternate, Maluku Utara",MALUKU UTARA,,Indonesia,,0.7741538,127.3639823,https://maps.google.com/?cid=0x0:0xaceed34c57927d9f
housing complex,Toko Perlengkapan Rumah,Koloncucu,"R94M+5MH, Toboleu, Kec. Kota Ternate Utara, Kota Ternate, Maluku Utara","Kota Ternate, Maluku Utara",MALUKU UTARA,,Indonesia,,0.8081761,127.3851885,https://maps.google.com/?cid=0x0:0x6a9e88ecef429c17
housing complex,Pembangunan Perumahan,Perumahan,"Q984+44P, Ngade, Kec. Ternate Sel., Kota Ternate, Maluku Utara","Kota Ternate, Maluku Utara",MALUKU UTARA,,Indonesia,,0.7650539,127.3553995,https://maps.google.com/?cid=0x0:0x5ab397056fa8333b
housing complex,Komplek perumahan,Gipsy puncak,"R95C+5V, Toboleu, Kec. Kota Ternate Utara, Kota Ternate, Maluku Utara","Kota Ternate, Maluku Utara",MALUKU UTARA,,Indonesia,,0.8079441,127.3722566,https://maps.google.com/?cid=0x0:0x8c579e8771ceb4ab
housing complex,Komplek perumahan,Gamayou Blok H,"Q9WF+5H3, Makassar Bar., Kec. Ternate Tengah, Kota Ternate, Maluku Utara","Kota Ternate, Maluku Utara",MALUKU UTARA,,Indonesia,,0.7953964,127.3739094,https://maps.google.com/?cid=0x0:0xaf4850963e13057e
housing complex,Pembangunan Perumahan,Gamayou blok G,"Q9XF+5RQ, Makassar Bar., Kec. Ternate Tengah, Kota Ternate, Maluku Utara","Kota Ternate, Maluku Utara",MALUKU UTARA,,Indonesia,,0.7979513,127.3746227,https://maps.google.com/?cid=0x0:0x50a1010663cfc037
housing complex,Komplek perumahan,Rumah Ama taslim,"Kel Jl. Gamayou No.46, Makassar Bar., Kec. Ternate Tengah, Kota Ternate, Maluku Utara","Kota Ternate, Maluku Utara",MALUKU UTARA,,Indonesia,,0.7958103,127.3739752,https://maps.google.com/?cid=0x0:0x7ebdf7af3e5db9a3
housing complex,Kantor Perusahaan,Lulu Pratama Residence Maliaro,"Jl. Cempaka No.722, Tanah Tinggi Bar., Kec. Ternate Sel., Kota Ternate, Maluku Utara","Kota Ternate, Maluku Utara",MALUKU UTARA,,Indonesia,,0.7840735,127.3658601,https://maps.google.com/?cid=0x0:0x9a05dbc775c4a057
housing complex,Komplek perumahan,Ternate Maluku Utara,"R8VV+C3C, Tobololo, Kec. Pulau Ternate, Kota Ternate, Maluku Utara","Kota Ternate, Maluku Utara",MALUKU UTARA,,Indonesia,,0.8435603,127.3426492,https://maps.google.com/?cid=0x0:0x2b2cf671ca2915d7
housing complex,Pembangunan Perumahan,Perumahan Makmur Utama,"Q9F7+MHR, Tabona, Kec. Ternate Sel., Kota Ternate, Maluku Utara","Kota Ternate, Maluku Utara",MALUKU UTARA,,Indonesia,,0.7741538,127.3639823,https://maps.google.com/?cid=0x0:0xaceed34c57927d9f
housing complex,Pembangunan Perumahan,Kompleks Pohon Pala,"Q9JP+73C, Jl. Pohon Pala, Kota Baru, Kec. Ternate Tengah, Kota Ternate, Maluku Utara","Kota Ternate, Maluku Utara",MALUKU UTARA,,Indonesia,,0.780699,127.3851378,https://maps.google.com/?cid=0x0:0xfd2fb68ff3acb3cf
housing complex,Pembangunan Perumahan,Perumahan,"Q984+44P, Ngade, Kec. Ternate Sel., Kota Ternate, Maluku Utara","Kota Ternate, Maluku Utara",MALUKU UTARA,,Indonesia,,0.7650539,127.3553995,https://maps.google.com/?cid=0x0:0x5ab397056fa8333b
housing complex,Vila,Perumahan Griya Sabia,"R96C+GWF, Unnamed Road, Sangaji, Kec. Kota Ternate Utara, Kota Ternate, Maluku Utara","Kota Ternate, Maluku Utara",MALUKU UTARA,,Indonesia,,0.8113183,127.3722991,https://maps.google.com/?cid=0x0:0x35965e03c6bd1708
housing complex,Pembangunan Perumahan,Perumahan Kastela,"Kastela, Kec. Pulau Ternate, Kota Ternate, Maluku Utara","Kota Ternate, Maluku Utara",MALUKU UTARA,,Indonesia,,0.7658562,127.309282,https://maps.google.com/?cid=0x0:0x73bf4a14bb3b6e9c
housing complex,Rumah wisata,Kost Paradiso,"Q9RH+QRV, Jl. Salahudin, Salahuddin, Kec. Ternate Tengah, Kota Ternate, Maluku Utara","Kota Ternate, Maluku Utara",MALUKU UTARA,,Indonesia,8124456478.0,0.7919796,127.3795538,https://maps.google.com/?cid=0x0:0xae556efb6df27530
housing complex,housing complex,AINI HOMESTAY TERNATE,"Jl. Toboleu Koloncucu Gipsy No. 45/703, Kelurahan, RT.16/RW.06, Toboleu, Kec. Kota Ternate Utara, Kota Ternate, Maluku Utara 97716","Kelurahan, RT.16/RW.06, Toboleu, Kec. Kota Ternate Utara, Kota Ternate",MALUKU UTARA,97716.0,Indonesia,8124752595.0,0.8067324,127.3839976,https://maps.google.com/?cid=0x0:0xed94a780f4cf3705
housing complex,Benteng,Benteng Portugis Tolukko,"R97Q+G7M, Sangaji Utara, Kec. Kota Ternate Utara, Kota Ternate, Maluku Utara","Kota Ternate, Maluku Utara",MALUKU UTARA,,Indonesia,,0.813836,127.3881708,https://maps.google.com/?cid=0x0:0x6f64a496870d0188
housing complex,Kantor Pemerintah,KPKNL Ternate,"Jl. Yos Sudarso No.333, RT.008/RW.004, Kp. Pisang, Kec. Ternate Tengah, Kota Ternate, Maluku Utara 97712","RT.008/RW.004, Kp. Pisang, Kec. Ternate Tengah, Kota Ternate",MALUKU UTARA,97712.0,Indonesia,8114482333.0,0.7829852,127.378593,https://maps.google.com/?cid=0x0:0x7fcb72af38f4e8a1
housing complex,Kantor Pemerintah,"Kelurahan Moti Kota, Kec. Moti","Kota Moti, Kec. Pulau Moti, Kota Ternate, Maluku Utara 97751","Kec. Pulau Moti, Kota Ternate",MALUKU UTARA,97751.0,Indonesia,,0.4716875,127.4253125,https://maps.google.com/?cid=0x0:0x6bb52e322a4f2523
housing complex,Komplek perumahan,Kantor lurah moti kota,"FCCG+H24, Jl. Lingkar, Kota Moti, Kec. Pulau Moti, Kota Ternate, Maluku Utara","Kota Ternate, Maluku Utara",MALUKU UTARA,,Indonesia,,0.4716876,127.4253093,https://maps.google.com/?cid=0x0:0xa02e7a7da59dd9b5
housing complex,housing complex,Kec. Pulau Batang Dua,"Kota Ternate, Maluku Utara","Kota Ternate, Maluku Utara",MALUKU UTARA,,Indonesia,,1.3221136,126.3617738,https://maps.google.com/?cid=0x0:0x43a87ce02308f419
housing complex,housing complex,Kec. Ternate Tengah,"Kota Ternate, Maluku Utara","Kota Ternate, Maluku Utara",MALUKU UTARA,,Indonesia,,0.78959,127.3860498,https://maps.google.com/?cid=0x0:0x8b6a97877817a839
housing complex,Kantor Perusahaan,Lulu Pratama Residence Maliaro,"Jl. Cempaka No.722, Tanah Tinggi Bar., Kec. Ternate Sel., Kota Ternate, Maluku Utara","Kota Ternate, Maluku Utara",MALUKU UTARA,,Indonesia,,0.7840735,127.3658601,https://maps.google.com/?cid=0x0:0x9a05dbc775c4a057
housing complex,Pembangunan Perumahan,PERUMAHAN DAGYMOI GREEN VILLAGE - SOA PUNCAK,"Soa Puncak, Kec. Kota Ternate Utara, Kota Ternate, Maluku Utara","Kota Ternate, Maluku Utara",MALUKU UTARA,,Indonesia,82190066007.0,0.8014446,127.3738425,https://maps.google.com/?cid=0x0:0x9cc9734035a1d90d
housing complex,Komplek perumahan,Perumahan Maliaro Graha Estate,"Q9PC+4RF, Maliaro, Kec. Ternate Tengah, Kota Ternate, Maluku Utara","Kota Ternate, Maluku Utara",MALUKU UTARA,,Indonesia,,0.7853183,127.3720324,https://maps.google.com/?cid=0x0:0x7a2c3ec4e3f6db91
housing complex,Komplek perumahan,Prince Residence Kalumata,"Jl. Santo Pedro No.37, Kalumata, Kec. Ternate Sel., Kota Ternate, Maluku Utara 97715","Kalumata, Kec. Ternate Sel., Kota Ternate",MALUKU UTARA,97715.0,Indonesia,,0.7618315,127.359564,https://maps.google.com/?cid=0x0:0x1d98007cacdba3de
housing complex,Komplek perumahan,Ternate Maluku Utara,"R8VV+C3C, Tobololo, Kec. Pulau Ternate, Kota Ternate, Maluku Utara","Kota Ternate, Maluku Utara",MALUKU UTARA,,Indonesia,,0.8435603,127.3426492,https://maps.google.com/?cid=0x0:0x2b2cf671ca2915d7
housing complex,Pembangunan Perumahan,fala Astengko,"Q9W8+QPQ, Jl. Torano Belakang futsal, Marikurubu, Kec. Ternate Tengah, Kota Ternate, Maluku Utara 97711","Jl. Torano Belakang futsal, Marikurubu, Kec. Ternate Tengah, Kota Ternate",MALUKU UTARA,97711.0,Indonesia,,0.795879,127.366251,https://maps.google.com/?cid=0x0:0xe44c6ce54ea2035f
housing complex,housing complex,RUMAH ASRA,"Jl. Cempaka No.617kel, Maliaro, Kec. Ternate Tengah, Kota Ternate, Maluku Utara 97711","Maliaro, Kec. Ternate Tengah, Kota Ternate",MALUKU UTARA,97711.0,Indonesia,,0.782841,127.376571,https://maps.google.com/?cid=0x0:0x7cfff54e095dbcc
housing complex,housing complex,Kec. Ternate Tengah,"Kota Ternate, Maluku Utara","Kota Ternate, Maluku Utara",MALUKU UTARA,,Indonesia,,0.78959,127.3860498,https://maps.google.com/?cid=0x0:0x8b6a97877817a839
housing complex,Komplek perumahan,rumah cahyo,"Q9VJ+F4X, Jl. Raya Skep, Salahuddin, Kec. Ternate Tengah, Kota Ternate, Maluku Utara","Kota Ternate, Maluku Utara",MALUKU UTARA,,Indonesia,81342314924.0,0.793733,127.380364,https://maps.google.com/?cid=0x0:0xf207f1fb181401dc
housing complex,Komplek perumahan,Mama Sisca,"Jl. Yos Sudarso No.555, Maliaro, Kec. Ternate Tengah, Kota Ternate, Maluku Utara","Kota Ternate, Maluku Utara",MALUKU UTARA,,Indonesia,,0.783253,127.3773356,https://maps.google.com/?cid=0x0:0x25423cc0271def56
housing complex,Komplek perumahan,Exo,"Q9VH+8HH, Jl. Raya Skep, Salahuddin, Kec. Ternate Tengah, Kota Ternate, Maluku Utara","Kota Ternate, Maluku Utara",MALUKU UTARA,,Indonesia,,0.7933233,127.3789697,https://maps.google.com/?cid=0x0:0x7ff0080f97b5d34a
housing complex,Komplek perumahan,Lorong Cempaka Putih,"Lorong Cempaka Putih RT10, RT.10/RW03/RW.03, Maliaro, Ternate Tengah, Kota Terbate, North Maluku 97712","RT.10/RW03/RW.03, Maliaro, Ternate Tengah, Kota Terbate",MALUKU UTARA,97712.0,Indonesia,81241185959.0,0.7857779,127.3740946,https://maps.google.com/?cid=0x0:0x65b99b7da9cc4152
housing complex,Komplek perumahan,Rumah,"Q9JG+QPW, Jl. Cempaka, Tanah Tinggi Bar., Kec. Ternate Sel., Kota Ternate, Maluku Utara 97721","Jl. Cempaka, Tanah Tinggi Bar., Kec. Ternate Sel., Kota Ternate",MALUKU UTARA,97721.0,Indonesia,,0.7819833,127.3768185,https://maps.google.com/?cid=0x0:0x6b31e79c8336d11b
housing complex,housing complex,Kec. Ternate Tengah,"Kota Ternate, Maluku Utara","Kota Ternate, Maluku Utara",MALUKU UTARA,,Indonesia,,0.78959,127.3860498,https://maps.google.com/?cid=0x0:0x8b6a97877817a839
housing complex,Komplek perumahan,Gamayou Blok H,"Q9WF+5H3, Makassar Bar., Kec. Ternate Tengah, Kota Ternate, Maluku Utara","Kota Ternate, Maluku Utara",MALUKU UTARA,,Indonesia,,0.7953964,127.3739094,https://maps.google.com/?cid=0x0:0xaf4850963e13057e
housing complex,Pembangunan Perumahan,PERUMAHAN DAGYMOI GREEN VILLAGE - SOA PUNCAK,"Soa Puncak, Kec. Kota Ternate Utara, Kota Ternate, Maluku Utara","Kota Ternate, Maluku Utara",MALUKU UTARA,,Indonesia,82190066007.0,0.8014446,127.3738425,https://maps.google.com/?cid=0x0:0x9cc9734035a1d90d
housing complex,Komplek perumahan,Rumah Tinggal,"Q9MP+FQ9, Muhajirin, Kec. Ternate Tengah, Kota Ternate, Maluku Utara","Kota Ternate, Maluku Utara",MALUKU UTARA,,Indonesia,,0.7836596,127.3869971,https://maps.google.com/?cid=0x0:0xdf8897713d26d08d
housing complex,Komplek perumahan,Prince Residence Kalumata,"Jl. Santo Pedro No.37, Kalumata, Kec. Ternate Sel., Kota Ternate, Maluku Utara 97715","Kalumata, Kec. Ternate Sel., Kota Ternate",MALUKU UTARA,97715.0,Indonesia,,0.7618315,127.359564,https://maps.google.com/?cid=0x0:0x1d98007cacdba3de
housing complex,Komplek perumahan,Rumah Angler,"Kode Pos 97713, Jl. JAN Perumahan Bukit Rivaldo RT 11 RW 004 Nom A.33, Tabona, Kec. Ternate Sel., Kota Ternate, Maluku Utara","Kota Ternate, Maluku Utara",MALUKU UTARA,,Indonesia,,0.7779193,127.3640604,https://maps.google.com/?cid=0x0:0x925acdf68cee6d6e
housing complex,Pembangunan Perumahan,Perumahan Makmur Utama,"Q9F7+MHR, Tabona, Kec. Ternate Sel., Kota Ternate, Maluku Utara","Kota Ternate, Maluku Utara",MALUKU UTARA,,Indonesia,,0.7741538,127.3639823,https://maps.google.com/?cid=0x0:0xaceed34c57927d9f
housing complex,Komplek perumahan,Rumah Saiful H Drakel,"R98C+JW6, Lingkungan, facei, Kec. Kota Ternate Utara, Kota Ternate, Maluku Utara 97713","Lingkungan, facei, Kec. Kota Ternate Utara, Kota Ternate",MALUKU UTARA,97713.0,Indonesia,,0.8165354,127.3722633,https://maps.google.com/?cid=0x0:0x6e2fdaa49b023bd
housing complex,Komplek perumahan,rumah rava cantik,"Q9H7+265, Jl. Jan, Tabona, Kec. Ternate Sel., Kota Ternate, Maluku Utara 97713","Jl. Jan, Tabona, Kec. Ternate Sel., Kota Ternate",MALUKU UTARA,97713.0,Indonesia,,0.7771563,127.363134,https://maps.google.com/?cid=0x0:0x13b44b5110c98710
housing complex,Komplek perumahan,Yuud Yamani,"Q9H7+265, Jl. Jan, Tabona, Kec. Ternate Sel., Kota Ternate, Maluku Utara 97713","Jl. Jan, Tabona, Kec. Ternate Sel., Kota Ternate",MALUKU UTARA,97713.0,Indonesia,,0.777517,127.3634807,https://maps.google.com/?cid=0x0:0xb1e0bcd9f681d7c8
housing complex,Komplek perumahan,PERUMAHAN DAGYMOI GREEN PARK - TUBO,"Lingkungan Jl. Raya Tubo, Tubo, Kec. Kota Ternate Utara, Kota Ternate, Maluku Utara 97751","Tubo, Kec. Kota Ternate Utara, Kota Ternate",MALUKU UTARA,97751.0,Indonesia,82190066007.0,0.8260622,127.3732749,https://maps.google.com/?cid=0x0:0x5d85e692a0357dae
housing complex,Komplek perumahan,nginap,"Q9CF+246, Bastiong Talangame, Kec. Ternate Sel., Kota Ternate, Maluku Utara","Kota Ternate, Maluku Utara",MALUKU UTARA,,Indonesia,,0.7705007,127.3727206,https://maps.google.com/?cid=0x0:0xb5c30bc226dd4d94
housing complex,Pembangunan Perumahan,Perumahan,"Q984+44P, Ngade, Kec. Ternate Sel., Kota Ternate, Maluku Utara","Kota Ternate, Maluku Utara",MALUKU UTARA,,Indonesia,,0.7650539,127.3553995,https://maps.google.com/?cid=0x0:0x5ab397056fa8333b
housing complex,Perhimpunan Pengembang Perumahan,RUMAH ATO,"Q9CC+RXM, Jati Perumnas, Kec. Ternate Sel., Kota Ternate, Maluku Utara 97713","Jati Perumnas, Kec. Ternate Sel., Kota Ternate",MALUKU UTARA,97713.0,Indonesia,,0.7720948,127.3724342,https://maps.google.com/?cid=0x0:0xfd732d70ccf90e6d
housing complex,housing complex,Maluku Utara 97714,"Takoma, Kec. Ternate Tengah, Kota Ternate, Maluku Utara","Kota Ternate, Maluku Utara",MALUKU UTARA,,Indonesia,,0.7811008,127.3850519,https://maps.google.com/?cid=0x0:0x8d2ecd03f9db447d
housing complex,Komplek perumahan,Prince Residence Kalumata,"Jl. Santo Pedro No.37, Kalumata, Kec. Ternate Sel., Kota Ternate, Maluku Utara 97715","Kalumata, Kec. Ternate Sel., Kota Ternate",MALUKU UTARA,97715.0,Indonesia,,0.7618315,127.359564,https://maps.google.com/?cid=0x0:0x1d98007cacdba3de
housing complex,Komplek perumahan,Maliaro puncak,"Maliaro, Kec. Ternate Tengah, Kota Ternate, Maluku Utara","Kota Ternate, Maluku Utara",MALUKU UTARA,,Indonesia,,0.78959,127.3860498,https://maps.google.com/?cid=0x0:0xc0fcd795a331418f
housing complex,Kantor Perusahaan,Lulu Pratama Residence Maliaro,"Jl. Cempaka No.722, Tanah Tinggi Bar., Kec. Ternate Sel., Kota Ternate, Maluku Utara","Kota Ternate, Maluku Utara",MALUKU UTARA,,Indonesia,,0.7840735,127.3658601,https://maps.google.com/?cid=0x0:0x9a05dbc775c4a057
housing complex,Komplek perumahan,nginap,"Q9CF+246, Bastiong Talangame, Kec. Ternate Sel., Kota Ternate, Maluku Utara","Kota Ternate, Maluku Utara",MALUKU UTARA,,Indonesia,,0.7705007,127.3727206,https://maps.google.com/?cid=0x0:0xb5c30bc226dd4d94
housing complex,Komplek perumahan,Ternate Maluku Utara,"R8VV+C3C, Tobololo, Kec. Pulau Ternate, Kota Ternate, Maluku Utara","Kota Ternate, Maluku Utara",MALUKU UTARA,,Indonesia,,0.8435603,127.3426492,https://maps.google.com/?cid=0x0:0x2b2cf671ca2915d7
housing complex,Komplek perumahan,Perumahan Maliaro Graha Estate,"Q9PC+4RF, Maliaro, Kec. Ternate Tengah, Kota Ternate, Maluku Utara","Kota Ternate, Maluku Utara",MALUKU UTARA,,Indonesia,,0.7853183,127.3720324,https://maps.google.com/?cid=0x0:0x7a2c3ec4e3f6db91
housing complex,Komplek perumahan,Takoma lorong,"Q9HJ+WW7, Jl. Hasan Esa No.02, Takoma, Kec. Ternate Tengah, Kota Ternate, Maluku Utara 97714","Jl. Hasan Esa No.02, Takoma, Kec. Ternate Tengah, Kota Ternate",MALUKU UTARA,97714.0,Indonesia,,0.7813332,127.3833046,https://maps.google.com/?cid=0x0:0x4eacc17566371af1
housing complex,Komplek perumahan,Jln. Sedap Malam . Mauza,"Jl. Pohon Pala No.109, Takoma, Kec. Ternate Sel., Kota Ternate, Maluku Utara 97714","Takoma, Kec. Ternate Sel., Kota Ternate",MALUKU UTARA,97714.0,Indonesia,,0.781547,127.3845466,https://maps.google.com/?cid=0x0:0x1e201fbbf90aeb3a
housing complex,Perhimpunan Pengembang Perumahan,Ezis house,"Q9JM+R57, Jl. Ms. Djahir, Takoma, Kec. Ternate Tengah, Kota Ternate, Maluku Utara","Kota Ternate, Maluku Utara",MALUKU UTARA,,Indonesia,,0.7820526,127.3829362,https://maps.google.com/?cid=0x0:0xfa8183b46c35938b
housing complex,Komplek perumahan,Rumah HI Ismail Hadadi,"Jl. Ms. Djahir No.252, Takoma, Kec. Ternate Tengah, Kota Ternate, Maluku Utara 97714","Takoma, Kec. Ternate Tengah, Kota Ternate",MALUKU UTARA,97714.0,Indonesia,,0.7820448,127.3830565,https://maps.google.com/?cid=0x0:0xac09ce495ff93ef7
housing complex,Pembangunan Perumahan,Kompleks Pohon Pala,"Q9JP+73C, Jl. Pohon Pala, Kota Baru, Kec. Ternate Tengah, Kota Ternate, Maluku Utara","Kota Ternate, Maluku Utara",MALUKU UTARA,,Indonesia,,0.780699,127.3851378,https://maps.google.com/?cid=0x0:0xfd2fb68ff3acb3cf
housing complex,Kantor Perusahaan,Mess Taiwi Barito,"Q9JM+Q54, Takoma, Kec. Ternate Tengah, Kota Ternate, Maluku Utara 97714","Takoma, Kec. Ternate Tengah, Kota Ternate",MALUKU UTARA,97714.0,Indonesia,,0.7818937,127.3829517,https://maps.google.com/?cid=0x0:0x89bd1bba2ef3b66c
housing complex,Komplek perumahan,Rumah Kediaman MaMa Dar,"Jl. Sedap Malam, Takoma, Kec. Ternate Tengah, Kota Ternate, Maluku Utara","Kota Ternate, Maluku Utara",MALUKU UTARA,,Indonesia,,0.781315,127.384814,https://maps.google.com/?cid=0x0:0x47cec97979210fb
housing complex,Pembangunan Perumahan,Gamayou blok G,"Q9XF+5RQ, Makassar Bar., Kec. Ternate Tengah, Kota Ternate, Maluku Utara","Kota Ternate, Maluku Utara",MALUKU UTARA,,Indonesia,,0.7979513,127.3746227,https://maps.google.com/?cid=0x0:0x50a1010663cfc037
housing complex,Komplek perumahan,Gamayou Blok H,"Q9WF+5H3, Makassar Bar., Kec. Ternate Tengah, Kota Ternate, Maluku Utara","Kota Ternate, Maluku Utara",MALUKU UTARA,,Indonesia,,0.7953964,127.3739094,https://maps.google.com/?cid=0x0:0xaf4850963e13057e
housing complex,Komplek perumahan,Rumah Ama taslim,"Kel Jl. Gamayou No.46, Makassar Bar., Kec. Ternate Tengah, Kota Ternate, Maluku Utara","Kota Ternate, Maluku Utara",MALUKU UTARA,,Indonesia,,0.7958103,127.3739752,https://maps.google.com/?cid=0x0:0x7ebdf7af3e5db9a3
housing complex,Komplek perumahan,Kim Inda Home,"Belakang Kantor Kemenkumham, Jl. Batu Anteru, Maliaro, Kec. Ternate Tengah, Kota Ternate, Maluku Utara 97721","Jl. Batu Anteru, Maliaro, Kec. Ternate Tengah, Kota Ternate",MALUKU UTARA,97721.0,Indonesia,85255004097.0,0.7864718,127.3781238,https://maps.google.com/?cid=0x0:0x65b3e323407ea81b
housing complex,Komplek perumahan,Rumah,"Q9JG+QPW, Jl. Cempaka, Tanah Tinggi Bar., Kec. Ternate Sel., Kota Ternate, Maluku Utara 97721","Jl. Cempaka, Tanah Tinggi Bar., Kec. Ternate Sel., Kota Ternate",MALUKU UTARA,97721.0,Indonesia,,0.7819833,127.3768185,https://maps.google.com/?cid=0x0:0x6b31e79c8336d11b
housing complex,housing complex,JOESOEF ABDURACHMAN,,,MALUKU UTARA,,Indonesia,81241812342.0,-2.44565,117.8888,https://maps.google.com/?cid=0x0:0xa9b8c3708507552b
housing complex,Pembangunan Perumahan,Perumahan Makmur Utama,"Q9F7+MHR, Tabona, Kec. Ternate Sel., Kota Ternate, Maluku Utara","Kota Ternate, Maluku Utara",MALUKU UTARA,,Indonesia,,0.7741538,127.3639823,https://maps.google.com/?cid=0x0:0xaceed34c57927d9f
housing complex,Pusat Perbelanjaan,Plaza Gamalama Modern,"Q9QQ+MFG, Gamalama, Kec. Ternate Tengah, Kota Ternate, Maluku Utara","Kota Ternate, Maluku Utara",MALUKU UTARA,,Indonesia,,0.7891912,127.3887186,https://maps.google.com/?cid=0x0:0xd055cdf79fc29e27
housing complex,Pembangunan Perumahan,PERUMAHAN DAGYMOI GREEN VILLAGE - SOA PUNCAK,"Soa Puncak, Kec. Kota Ternate Utara, Kota Ternate, Maluku Utara","Kota Ternate, Maluku Utara",MALUKU UTARA,,Indonesia,82190066007.0,0.8014446,127.3738425,https://maps.google.com/?cid=0x0:0x9cc9734035a1d90d
housing complex,Komplek perumahan,PERUMAHAN DAGYMOI GREEN PARK - TUBO,"Lingkungan Jl. Raya Tubo, Tubo, Kec. Kota Ternate Utara, Kota Ternate, Maluku Utara 97751","Tubo, Kec. Kota Ternate Utara, Kota Ternate",MALUKU UTARA,97751.0,Indonesia,82190066007.0,0.8260622,127.3732749,https://maps.google.com/?cid=0x0:0x5d85e692a0357dae
housing complex,Toko Roti,iBuk Ambon Lontar,"masjid al-hadi belik kanan rumah paling bawah pagar besi putih, Perumahan dagymoi blok K- 28, Soa, Kec. Kota Ternate Utara, Kota Ternate, Maluku Utara","Kota Ternate, Maluku Utara",MALUKU UTARA,,Indonesia,,0.8020781,127.3739026,https://maps.google.com/?cid=0x0:0xe7aecf6881851df9
housing complex,Komplek perumahan,Gamayou Blok H,"Q9WF+5H3, Makassar Bar., Kec. Ternate Tengah, Kota Ternate, Maluku Utara","Kota Ternate, Maluku Utara",MALUKU UTARA,,Indonesia,,0.7953964,127.3739094,https://maps.google.com/?cid=0x0:0xaf4850963e13057e
housing complex,Komplek perumahan,nginap,"Q9CF+246, Bastiong Talangame, Kec. Ternate Sel., Kota Ternate, Maluku Utara","Kota Ternate, Maluku Utara",MALUKU UTARA,,Indonesia,,0.7705007,127.3727206,https://maps.google.com/?cid=0x0:0xb5c30bc226dd4d94
housing complex,housing complex,Maluku Utara 97723,"Muhajirin, Kec. Ternate Tengah, Kota Ternate, Maluku Utara","Kota Ternate, Maluku Utara",MALUKU UTARA,,Indonesia,,0.7858613,127.3882262,https://maps.google.com/?cid=0x0:0xa7775daff08563c
housing complex,Komplek perumahan,Gamayou Blok H,"Q9WF+5H3, Makassar Bar., Kec. Ternate Tengah, Kota Ternate, Maluku Utara","Kota Ternate, Maluku Utara",MALUKU UTARA,,Indonesia,,0.7953964,127.3739094,https://maps.google.com/?cid=0x0:0xaf4850963e13057e
housing complex,Pembangunan Perumahan,PERUMAHAN DAGYMOI GREEN VILLAGE - SOA PUNCAK,"Soa Puncak, Kec. Kota Ternate Utara, Kota Ternate, Maluku Utara","Kota Ternate, Maluku Utara",MALUKU UTARA,,Indonesia,82190066007.0,0.8014446,127.3738425,https://maps.google.com/?cid=0x0:0x9cc9734035a1d90d
housing complex,Komplek perumahan,nginap,"Q9CF+246, Bastiong Talangame, Kec. Ternate Sel., Kota Ternate, Maluku Utara","Kota Ternate, Maluku Utara",MALUKU UTARA,,Indonesia,,0.7705007,127.3727206,https://maps.google.com/?cid=0x0:0xb5c30bc226dd4d94
housing complex,Pembangunan Perumahan,Perumahan Makmur Utama,"Q9F7+MHR, Tabona, Kec. Ternate Sel., Kota Ternate, Maluku Utara","Kota Ternate, Maluku Utara",MALUKU UTARA,,Indonesia,,0.7741538,127.3639823,https://maps.google.com/?cid=0x0:0xaceed34c57927d9f
housing complex,Pembangunan Perumahan,Perumahan,"Q984+44P, Ngade, Kec. Ternate Sel., Kota Ternate, Maluku Utara","Kota Ternate, Maluku Utara",MALUKU UTARA,,Indonesia,,0.7650539,127.3553995,https://maps.google.com/?cid=0x0:0x5ab397056fa8333b
housing complex,Toko Perlengkapan Rumah,Koloncucu,"R94M+5MH, Toboleu, Kec. Kota Ternate Utara, Kota Ternate, Maluku Utara","Kota Ternate, Maluku Utara",MALUKU UTARA,,Indonesia,,0.8081761,127.3851885,https://maps.google.com/?cid=0x0:0x6a9e88ecef429c17
housing complex,Hotel,Kantor Kecamatan Ternate Tengah,"Q9VF+5CJ, Salahuddin, Kec. Ternate Tengah, Kota Ternate, Maluku Utara","Kota Ternate, Maluku Utara",MALUKU UTARA,,Indonesia,,0.7929668,127.3735132,https://maps.google.com/?cid=0x0:0xfb694004615001bf
housing complex,housing complex,Kontrakan,"Q987+QMC, Jl. Tugu Maku Gawene, Kayu Merah, Kec. Ternate Sel., Kota Ternate, Maluku Utara","Kota Ternate, Maluku Utara",MALUKU UTARA,,Indonesia,,0.766932,127.3641553,https://maps.google.com/?cid=0x0:0xc7167f99bb51c363
housing complex,housing complex,Kec. Ternate Tengah,"Kota Ternate, Maluku Utara","Kota Ternate, Maluku Utara",MALUKU UTARA,,Indonesia,,0.78959,127.3860498,https://maps.google.com/?cid=0x0:0x8b6a97877817a839
housing complex,Komplek perumahan,Gamayou Blok H,"Q9WF+5H3, Makassar Bar., Kec. Ternate Tengah, Kota Ternate, Maluku Utara","Kota Ternate, Maluku Utara",MALUKU UTARA,,Indonesia,,0.7953964,127.3739094,https://maps.google.com/?cid=0x0:0xaf4850963e13057e
housing complex,Komplek perumahan,Mama Sisca,"Jl. Yos Sudarso No.555, Maliaro, Kec. Ternate Tengah, Kota Ternate, Maluku Utara","Kota Ternate, Maluku Utara",MALUKU UTARA,,Indonesia,,0.783253,127.3773356,https://maps.google.com/?cid=0x0:0x25423cc0271def56
housing complex,Komplek perumahan,Ches,"Jl. Rambutan Lingk Ngidi No.163, RT.001/RW.003, Makassar Bar., Kec. Ternate Tengah, Kota Ternate, Maluku Utara 97724","RT.001/RW.003, Makassar Bar., Kec. Ternate Tengah, Kota Ternate",MALUKU UTARA,97724.0,Indonesia,,0.7951174,127.3838961,https://maps.google.com/?cid=0x0:0x238e837c65cb726c
housing complex,Komplek perumahan,Lokasi acara H,"Q9WQ+QCM, Jl. Batu Meja, Makassar Tim., Kec. Ternate Tengah, Kota Ternate, Maluku Utara 97724","Jl. Batu Meja, Makassar Tim., Kec. Ternate Tengah, Kota Ternate",MALUKU UTARA,97724.0,Indonesia,,0.7969691,127.3885481,https://maps.google.com/?cid=0x0:0xf7eed80abefb4ccb
housing complex,Komplek perumahan,Arsa Home,"Jl. Sultan Babullah No.47, Makassar Tim., Kec. Ternate Tengah, Kota Ternate, Maluku Utara 97724","Makassar Tim., Kec. Ternate Tengah, Kota Ternate",MALUKU UTARA,97724.0,Indonesia,,0.7973072,127.3858944,https://maps.google.com/?cid=0x0:0x9df496e2c83cd376
housing complex,Komplek perumahan,Rumah,"Q9PF+39R, Maliaro, Kec. Ternate Tengah, Kota Ternate, Maluku Utara","Kota Ternate, Maluku Utara",MALUKU UTARA,,Indonesia,,0.7852457,127.3734032,https://maps.google.com/?cid=0x0:0xfe2fd3dc64da402
housing complex,Komplek perumahan,Home Sweet Home,"R92F+HJG, Soa, Kec. Kota Ternate Utara, Kota Ternate, Maluku Utara","Kota Ternate, Maluku Utara",MALUKU UTARA,,Indonesia,,0.8014347,127.3740664,https://maps.google.com/?cid=0x0:0xf7a953145b74cf00
housing complex,Komplek perumahan,Gamayou Blok H,"Q9WF+5H3, Makassar Bar., Kec. Ternate Tengah, Kota Ternate, Maluku Utara","Kota Ternate, Maluku Utara",MALUKU UTARA,,Indonesia,,0.7953964,127.3739094,https://maps.google.com/?cid=0x0:0xaf4850963e13057e
housing complex,Pembangunan Perumahan,Gamayou blok G,"Q9XF+5RQ, Makassar Bar., Kec. Ternate Tengah, Kota Ternate, Maluku Utara","Kota Ternate, Maluku Utara",MALUKU UTARA,,Indonesia,,0.7979513,127.3746227,https://maps.google.com/?cid=0x0:0x50a1010663cfc037
housing complex,Komplek perumahan,Rumah Ama taslim,"Kel Jl. Gamayou No.46, Makassar Bar., Kec. Ternate Tengah, Kota Ternate, Maluku Utara","Kota Ternate, Maluku Utara",MALUKU UTARA,,Indonesia,,0.7958103,127.3739752,https://maps.google.com/?cid=0x0:0x7ebdf7af3e5db9a3
housing complex,Pembangunan Perumahan,PERUMAHAN DAGYMOI GREEN VILLAGE - SOA PUNCAK,"Soa Puncak, Kec. Kota Ternate Utara, Kota Ternate, Maluku Utara","Kota Ternate, Maluku Utara",MALUKU UTARA,,Indonesia,82190066007.0,0.8014446,127.3738425,https://maps.google.com/?cid=0x0:0x9cc9734035a1d90d
housing complex,Kantor Perusahaan,Lulu Pratama Residence Maliaro,"Jl. Cempaka No.722, Tanah Tinggi Bar., Kec. Ternate Sel., Kota Ternate, Maluku Utara","Kota Ternate, Maluku Utara",MALUKU UTARA,,Indonesia,,0.7840735,127.3658601,https://maps.google.com/?cid=0x0:0x9a05dbc775c4a057
housing complex,Komplek perumahan,Exo,"Q9VH+8HH, Jl. Raya Skep, Salahuddin, Kec. Ternate Tengah, Kota Ternate, Maluku Utara","Kota Ternate, Maluku Utara",MALUKU UTARA,,Indonesia,,0.7933233,127.3789697,https://maps.google.com/?cid=0x0:0x7ff0080f97b5d34a
housing complex,Pembangunan Perumahan,Kompleks Pohon Pala,"Q9JP+73C, Jl. Pohon Pala, Kota Baru, Kec. Ternate Tengah, Kota Ternate, Maluku Utara","Kota Ternate, Maluku Utara",MALUKU UTARA,,Indonesia,,0.780699,127.3851378,https://maps.google.com/?cid=0x0:0xfd2fb68ff3acb3cf
housing complex,Komplek perumahan,PERUMAHAN DAGYMOI GREEN PARK - TUBO,"Lingkungan Jl. Raya Tubo, Tubo, Kec. Kota Ternate Utara, Kota Ternate, Maluku Utara 97751","Tubo, Kec. Kota Ternate Utara, Kota Ternate",MALUKU UTARA,97751.0,Indonesia,82190066007.0,0.8260622,127.3732749,https://maps.google.com/?cid=0x0:0x5d85e692a0357dae
housing complex,Pembangunan Perumahan,Perumahan Makmur Utama,"Q9F7+MHR, Tabona, Kec. Ternate Sel., Kota Ternate, Maluku Utara","Kota Ternate, Maluku Utara",MALUKU UTARA,,Indonesia,,0.7741538,127.3639823,https://maps.google.com/?cid=0x0:0xaceed34c57927d9f
housing complex,Pembangunan Perumahan,Perumahan,"Q984+44P, Ngade, Kec. Ternate Sel., Kota Ternate, Maluku Utara","Kota Ternate, Maluku Utara",MALUKU UTARA,,Indonesia,,0.7650539,127.3553995,https://maps.google.com/?cid=0x0:0x5ab397056fa8333b
housing complex,Komplek perumahan,Ternate Maluku Utara,"R8VV+C3C, Tobololo, Kec. Pulau Ternate, Kota Ternate, Maluku Utara","Kota Ternate, Maluku Utara",MALUKU UTARA,,Indonesia,,0.8435603,127.3426492,https://maps.google.com/?cid=0x0:0x2b2cf671ca2915d7
housing complex,Vila,Perumahan Griya Sabia,"R96C+GWF, Unnamed Road, Sangaji, Kec. Kota Ternate Utara, Kota Ternate, Maluku Utara","Kota Ternate, Maluku Utara",MALUKU UTARA,,Indonesia,,0.8113183,127.3722991,https://maps.google.com/?cid=0x0:0x35965e03c6bd1708
housing complex,Hotel,Kantor Kecamatan Ternate Tengah,"Q9VF+5CJ, Salahuddin, Kec. Ternate Tengah, Kota Ternate, Maluku Utara","Kota Ternate, Maluku Utara",MALUKU UTARA,,Indonesia,,0.7929668,127.3735132,https://maps.google.com/?cid=0x0:0xfb694004615001bf
housing complex,housing complex,Penginapan RD 01,"Perumahan BI Lama No.610, Maliaro, Kec. Ternate Tengah, Kota Ternate, Maluku Utara 97711","Maliaro, Kec. Ternate Tengah, Kota Ternate",MALUKU UTARA,97711.0,Indonesia,81143903528.0,0.7823152,127.3769593,https://maps.google.com/?cid=0x0:0x384f065b5f4b8fda
housing complex,Pembangunan Perumahan,PERUMAHAN DAGYMOI GREEN VILLAGE - SOA PUNCAK,"Soa Puncak, Kec. Kota Ternate Utara, Kota Ternate, Maluku Utara","Kota Ternate, Maluku Utara",MALUKU UTARA,,Indonesia,82190066007.0,0.8014446,127.3738425,https://maps.google.com/?cid=0x0:0x9cc9734035a1d90d
housing complex,housing complex,Kec. Pulau Hiri,"Kota Ternate, Maluku Utara","Kota Ternate, Maluku Utara",MALUKU UTARA,,Indonesia,,0.9085941,127.3141639,https://maps.google.com/?cid=0x0:0x52b41fc10a483509
housing complex,Kantor Perusahaan,Lulu Pratama Residence Maliaro,"Jl. Cempaka No.722, Tanah Tinggi Bar., Kec. Ternate Sel., Kota Ternate, Maluku Utara","Kota Ternate, Maluku Utara",MALUKU UTARA,,Indonesia,,0.7840735,127.3658601,https://maps.google.com/?cid=0x0:0x9a05dbc775c4a057
housing complex,Komplek perumahan,Prince Residence Kalumata,"Jl. Santo Pedro No.37, Kalumata, Kec. Ternate Sel., Kota Ternate, Maluku Utara 97715","Kalumata, Kec. Ternate Sel., Kota Ternate",MALUKU UTARA,97715.0,Indonesia,,0.7618315,127.359564,https://maps.google.com/?cid=0x0:0x1d98007cacdba3de
housing complex,Komplek perumahan,PERUMAHAN DAGYMOI GREEN PARK - TUBO,"Lingkungan Jl. Raya Tubo, Tubo, Kec. Kota Ternate Utara, Kota Ternate, Maluku Utara 97751","Tubo, Kec. Kota Ternate Utara, Kota Ternate",MALUKU UTARA,97751.0,Indonesia,82190066007.0,0.8260622,127.3732749,https://maps.google.com/?cid=0x0:0x5d85e692a0357dae
housing complex,housing complex,Kec. Pulau Ternate,"Kota Ternate, Maluku Utara","Kota Ternate, Maluku Utara",MALUKU UTARA,,Indonesia,,0.7569376,127.3222463,https://maps.google.com/?cid=0x0:0x2f458542de34e406
housing complex,housing complex,Ternate,"Kota Ternate, Maluku Utara","Kota Ternate, Maluku Utara",MALUKU UTARA,,Indonesia,,0.7957999,127.3613533,https://maps.google.com/?cid=0x0:0xbbfce0fd52d156f9
housing complex,Kantor Perusahaan,Lulu Pratama Residence Maliaro,"Jl. Cempaka No.722, Tanah Tinggi Bar., Kec. Ternate Sel., Kota Ternate, Maluku Utara","Kota Ternate, Maluku Utara",MALUKU UTARA,,Indonesia,,0.7840735,127.3658601,https://maps.google.com/?cid=0x0:0x9a05dbc775c4a057
housing complex,Pembangunan Perumahan,Perumahan Makmur Utama,"Q9F7+MHR, Tabona, Kec. Ternate Sel., Kota Ternate, Maluku Utara","Kota Ternate, Maluku Utara",MALUKU UTARA,,Indonesia,,0.7741538,127.3639823,https://maps.google.com/?cid=0x0:0xaceed34c57927d9f
housing complex,Komplek perumahan,Ternate Maluku Utara,"R8VV+C3C, Tobololo, Kec. Pulau Ternate, Kota Ternate, Maluku Utara","Kota Ternate, Maluku Utara",MALUKU UTARA,,Indonesia,,0.8435603,127.3426492,https://maps.google.com/?cid=0x0:0x2b2cf671ca2915d7
housing complex,Pembangunan Perumahan,Perumahan,"Q984+44P, Ngade, Kec. Ternate Sel., Kota Ternate, Maluku Utara","Kota Ternate, Maluku Utara",MALUKU UTARA,,Indonesia,,0.7650539,127.3553995,https://maps.google.com/?cid=0x0:0x5ab397056fa8333b
housing complex,Pembangunan Perumahan,Kompleks Pohon Pala,"Q9JP+73C, Jl. Pohon Pala, Kota Baru, Kec. Ternate Tengah, Kota Ternate, Maluku Utara","Kota Ternate, Maluku Utara",MALUKU UTARA,,Indonesia,,0.780699,127.3851378,https://maps.google.com/?cid=0x0:0xfd2fb68ff3acb3cf
housing complex,Pembangunan Perumahan,Perumahan Kastela,"Kastela, Kec. Pulau Ternate, Kota Ternate, Maluku Utara","Kota Ternate, Maluku Utara",MALUKU UTARA,,Indonesia,,0.7658562,127.309282,https://maps.google.com/?cid=0x0:0x73bf4a14bb3b6e9c
