Category,Real Category,Business Name,Address,City,State,Postal Code,Country,Phone,Email,Website,Latitude,Longitude,Map Link,Details Link
mall,mall,Bali 82161,"Kabupaten Tabanan, Bali","Kabupaten Tabanan, Bali",BALI,,Indonesia,,,,-8.5496836,115.0584612,https://maps.google.com/?cid=0x0:0x1c00c5eb6016c200,
mall,Gedung Parkir,TAMAN MAS,"F485+QGC, Jl. Raya Kutuh, Samsam, Kec. Kerambitan, Kabupaten Tabanan, Bali 82161","Jl. Raya Kutuh, Samsam, Kec. Kerambitan, Kabupaten Tabanan",BALI,82161.0,Indonesia, 0361831700,,,-8.5330552,115.1087658,https://maps.google.com/?cid=0x0:0xe0624f7a813c4601,
mall,Toko,Chandra Yadnya,"Belumbang, Kec. Kerambitan, Kabupaten Tabanan, Bali 82161","Kec. Kerambitan, Kabupaten Tabanan",BALI,82161.0,Indonesia, 081936604252,,,-8.556872,115.052885,https://maps.google.com/?cid=0x0:0x299b719639048c38,
mall,Toko grosir,Intan Style Bali,"C3P8+HWJ, Jl. Kelating, Kelating, Kec. Kerambitan, Kabupaten Tabanan, Bali 82161","Jl. Kelating, Kelating, Kec. Kerambitan, Kabupaten Tabanan",BALI,82161.0,Indonesia, 081999169377,,,-8.5635488,115.067266,https://maps.google.com/?cid=0x0:0x4681c3107133fb4c,
mall,Pusat Perbelanjaan,Store Beauty.id,"G37V+3J6, Desa Timpag Banjar, munduk, Kec. Kerambitan, Kabupaten Tabanan, Bali 82161","Desa Timpag Banjar, munduk, Kec. Kerambitan, Kabupaten Tabanan",BALI,82161.0,Indonesia, 081238875250,,,-8.4873413,115.0940227,https://maps.google.com/?cid=0x0:0xa803f8624df14288,
mall,Pusat Perbelanjaan,Indososis krambitan,"F33H+CCR, Jalan Tista banjar Wani Pasut, Kerambitan, Kec. Kerambitan, Kabupaten Tabanan, Bali 82161","Jalan Tista banjar Wani Pasut, Kerambitan, Kec. Kerambitan, Kabupaten Tabanan",BALI,82161.0,Indonesia, 081237555536,,,-8.5463941,115.0785051,https://maps.google.com/?cid=0x0:0xd7489f469eb0692a,
mall,Toko Akuarium,DEWA AQuarium Tabanan,"Jl. Raya Denpasar - Gilimanuk No.51, Samsam, Kec. Kerambitan, Kabupaten Tabanan, Bali 82161","Samsam, Kec. Kerambitan, Kabupaten Tabanan",BALI,82161.0,Indonesia, 087761818843,,,-8.5239269,115.0995924,https://maps.google.com/?cid=0x0:0x1c1a545ca48091da,
mall,Pusat Perbelanjaan,Balai Banjar Sambiyan Pengayahan,"G33V+C6X, Timpag, Kec. Kerambitan, Kabupaten Tabanan, Bali 82161","Timpag, Kec. Kerambitan, Kabupaten Tabanan",BALI,82161.0,Indonesia,,,,-8.4963847,115.0931199,https://maps.google.com/?cid=0x0:0xcd92e372c94bca92,
mall,Pusat Perbelanjaan,POM MIGO KAORI WR. AW,"F33H+6P3, Jalan Raya, Kerambitan, Tabanan Regency, Bali 82161","Jalan Raya, Kerambitan, Tabanan Regency",BALI,82161.0,Indonesia,,,,-8.5469829,115.0793079,https://maps.google.com/?cid=0x0:0x40d30815b09552f2,
mall,Toko,Toko Yasana,"F36V+2XC, Kukuh, Kec. Kerambitan, Kabupaten Tabanan, Bali 82161","Kukuh, Kec. Kerambitan, Kabupaten Tabanan",BALI,82161.0,Indonesia, 087855809103,,,-8.539941,115.094884,https://maps.google.com/?cid=0x0:0x863c7dff9e517b54,
mall,Butik,Bintang colletion,"Jl. Merdeka Gg. VI No.20, Samsam, Kec. Kerambitan, Kabupaten Tabanan, Bali 82111","Samsam, Kec. Kerambitan, Kabupaten Tabanan",BALI,82111.0,Indonesia,,,,-8.5364407,115.1082122,https://maps.google.com/?cid=0x0:0x2d177fe58cab0a22,
mall,Pusat Perbelanjaan,Distributor NASA Kerambitan,"G36V+C55, Jl. Raya Timpag, Timpag, Kec. Kerambitan, Kabupaten Tabanan, Bali 82161","Jl. Raya Timpag, Timpag, Kec. Kerambitan, Kabupaten Tabanan",BALI,82161.0,Indonesia, 087860649190,,,-8.4889842,115.0929764,https://maps.google.com/?cid=0x0:0x44a52cc59f53a02a,
mall,Toko,Maria Komang,"F3JF+4W5, Meliling, Kec. Kerambitan, Kabupaten Tabanan, Bali 82181","Meliling, Kec. Kerambitan, Kabupaten Tabanan",BALI,82181.0,Indonesia,,,,-8.5197314,115.074847,https://maps.google.com/?cid=0x0:0xb8a0121cf091e4e7,
mall,Tujuan Wisata,Pondok Indah (Bonkelapa),"F349+QQF, Unnamed Road, Belumbang, Kec. Kerambitan, Kabupaten Tabanan, Bali 82161","Unnamed Road, Belumbang, Kec. Kerambitan, Kabupaten Tabanan",BALI,82161.0,Indonesia, 081238573565,,,-8.5430578,115.0694358,https://maps.google.com/?cid=0x0:0xba0ba5aa5f1c2f74,
mall,Toko,UD. Mita Sari,"F3JG+H34, Unnamed Road, Meliling, Kerambitan, Tabanan Regency, Bali 82181","Unnamed Road, Meliling, Kerambitan, Tabanan Regency",BALI,82181.0,Indonesia, 081913652104,,,-8.5186128,115.0751907,https://maps.google.com/?cid=0x0:0xb9716ed77926cbcb,
mall,Toko,Pande Besi Meliling Gatrem Satu,"F3QM+599, Meliling, Kec. Kerambitan, Kabupaten Tabanan, Bali 82161","Meliling, Kec. Kerambitan, Kabupaten Tabanan",BALI,82161.0,Indonesia,,,,-8.5120778,115.0834706,https://maps.google.com/?cid=0x0:0xd0d9d4237a82b5d3,
mall,Salon Kecantikan,"She Collection, Tabanan","Jl. Mawar No.26 A, Delod Peken, Kec. Tabanan, Kabupaten Tabanan, Bali 82121","Delod Peken, Kec. Tabanan, Kabupaten Tabanan",BALI,82121.0,Indonesia, 03617991639,,,-8.5462499,115.1243265,https://maps.google.com/?cid=0x0:0x7fc403869b7ba239,
mall,,Sunari Gong,"Jl. Raya Denpasar - Gilimanuk No.45, Samsam, Kec. Tabanan, Kabupaten Tabanan, Bali 82114","Samsam, Kec. Tabanan, Kabupaten Tabanan",BALI,82114.0,Indonesia, 081237224346,,,-8.5335696,115.111028,https://maps.google.com/?cid=0x0:0xd4d7c3c22ab19ce8,
mall,Toko Herbal,Stokis Green World,"F3MH+RMQ, Br Meliling Kawan, Meliling, Kec. Kerambitan, Kabupaten Tabanan, Bali 82161","Br Meliling Kawan, Meliling, Kec. Kerambitan, Kabupaten Tabanan",BALI,82161.0,Indonesia, 08236649888,,,-8.5154103,115.0792189,https://maps.google.com/?cid=0x0:0x4af4c66f5d1b0395,
mall,Toko Barang Keagamaan,Dwik Yadnya,"Jl. Raya Kerambitan, Pangkung Karung, Kec. Kerambitan, Kabupaten Tabanan, Bali 82115","Pangkung Karung, Kec. Kerambitan, Kabupaten Tabanan",BALI,82115.0,Indonesia, 081237582033,,,-8.5463495,115.096105,https://maps.google.com/?cid=0x0:0x761ff341d9791282,
mall,Toko,Warung MANGKU MELA,"C3M7+8CP, Jl. Tibu Biyu, Kelating, Kec. Kerambitan, Kabupaten Tabanan, Bali 82161","Jl. Tibu Biyu, Kelating, Kec. Kerambitan, Kabupaten Tabanan",BALI,82161.0,Indonesia,,,,-8.5666597,115.0635763,https://maps.google.com/?cid=0x0:0x3af0fe249f7ed81a,
mall,Minimarket,MALL GARAM MURNI,"C3PC+QG5, Penarukan, Kec. Kerambitan, Kabupaten Tabanan, Bali 82161","Penarukan, Kec. Kerambitan, Kabupaten Tabanan",BALI,82161.0,Indonesia,,,,-8.5631315,115.0713999,https://maps.google.com/?cid=0x0:0x5724c399d8e4faaa,
mall,mall,Kerambitan,"Kec. Kerambitan, Kabupaten Tabanan, Bali","Kabupaten Tabanan, Bali",BALI,,Indonesia,,,,-8.5521491,115.0777363,https://maps.google.com/?cid=0x0:0xf3ed753dae423357,
mall,Pasar,Pasar Umum Kerambitan,"Kerambitan, Kec. Kerambitan, Kabupaten Tabanan, Bali 82161","Kec. Kerambitan, Kabupaten Tabanan",BALI,82161.0,Indonesia,,,,-8.546278,115.0792809,https://maps.google.com/?cid=0x0:0x3dbef607ec5ef459,
mall,Toko,Nugget Rahayu Mesari,"F33G+574 Br.Lebah, Tista, Kec. Kerambitan, Kabupaten Tabanan, Bali 82161","Tista, Kec. Kerambitan, Kabupaten Tabanan",BALI,82161.0,Indonesia, 082247041786,,,-8.5471148,115.0757035,https://maps.google.com/?cid=0x0:0x65743a88f972f9ed,
mall,Toko Perlengkapan Rumah,Warung pak o,"F33H+CCR, Kerambitan, Kec. Kerambitan, Kabupaten Tabanan, Bali 82161","Kerambitan, Kec. Kerambitan, Kabupaten Tabanan",BALI,82161.0,Indonesia, 085935093043,,,-8.5463881,115.0785091,https://maps.google.com/?cid=0x0:0x651a425007b96693,
mall,Toko Pakaian Wanita,Suplier_id,"F3QQ+863, Sembung Gede, Kec. Kerambitan, Kabupaten Tabanan, Bali 82161","Sembung Gede, Kec. Kerambitan, Kabupaten Tabanan",BALI,82161.0,Indonesia, 087860198337,,,-8.5117362,115.0880317,https://maps.google.com/?cid=0x0:0xb45dd3897060b3b3,
mall,Toko,Toko Dupa Wagi Lokal D Ipor. Eceran D Grosir,"F33H+CCM, Unnamed Road, Kerambitan, Kec. Kerambitan, Kabupaten Tabanan, Bali 82161","Unnamed Road, Kerambitan, Kec. Kerambitan, Kabupaten Tabanan",BALI,82161.0,Indonesia, 081248376747,,,-8.5464094,115.0785562,https://maps.google.com/?cid=0x0:0x526143d6cc2914ea,
mall,Kios,Swara Pulsa,"F5M8+GR6, Jl. Wisnu Belayu, Peken, Kec. Marga, Kabupaten Tabanan, Bali 82181","Jl. Wisnu Belayu, Peken, Kec. Marga, Kabupaten Tabanan",BALI,82181.0,Indonesia, 03618584760,,,-8.5162245,115.1670163,https://maps.google.com/?cid=0x0:0x827e5535a48d63d2,
mall,mall,Bali 82181,"Kabupaten Tabanan, Bali","Kabupaten Tabanan, Bali",BALI,,Indonesia,,,,-8.4623737,115.1533426,https://maps.google.com/?cid=0x0:0x1c00c5eb6016c240,
mall,Pusat Perbelanjaan,Discovery Mall Bali,"Jl. Kartika Plaza, Kuta, Kec. Kuta, Kabupaten Badung, Bali 80361","Kuta, Kec. Kuta, Kabupaten Badung",BALI,80361.0,Indonesia, 0361755522,,,-8.7289661,115.1685057,https://maps.google.com/?cid=0x0:0x8fc4fb036e5763c9,
mall,Toko,San stan garden,"H52G+29C, Petiga, Kec. Marga, Kabupaten Tabanan, Bali 82181","Petiga, Kec. Marga, Kabupaten Tabanan",BALI,82181.0,Indonesia, 081916459081,,,-8.4499301,115.1758908,https://maps.google.com/?cid=0x0:0x5ba44c9959ebd136,
mall,Pusat Perbelanjaan,Toko Rp Jaya,"G5WF+3WC, Jl. Raya Marga-Apuan, Petiga, Kec. Marga, Kabupaten Tabanan, Bali 82181","Jl. Raya Marga-Apuan, Petiga, Kec. Marga, Kabupaten Tabanan",BALI,82181.0,Indonesia, 085739016027,,,-8.4548045,115.1747797,https://maps.google.com/?cid=0x0:0xa271cac356d478ac,
mall,Pusat Perbelanjaan,lovepalet,"Marga, Kec. Marga, Kabupaten Tabanan, Bali 82181","Kec. Marga, Kabupaten Tabanan",BALI,82181.0,Indonesia, 085969054366,,,-8.5030649,115.1683992,https://maps.google.com/?cid=0x0:0xceeaddb928a46666,
mall,Pusat Perbelanjaan,Kembang Bintang,"H55H+52Q, Petiga, Kec. Marga, Kabupaten Tabanan, Bali 82181","Petiga, Kec. Marga, Kabupaten Tabanan",BALI,82181.0,Indonesia, 087866196632,,,-8.4420485,115.1776037,https://maps.google.com/?cid=0x0:0x870c1e407a6d6108,
mall,Toko Jam,Seiko,"Jl. Wisnu Marga No.11, Marga, Kec. Marga, Kabupaten Tabanan, Bali 82181","Marga, Kec. Marga, Kabupaten Tabanan",BALI,82181.0,Indonesia,,,,-8.4715544,115.1692726,https://maps.google.com/?cid=0x0:0x483e7508c61ec299,
mall,Pusat Perbelanjaan,Mal Bali Galeria,"Jl. Bypass Ngurah Rai, Kuta, Kec. Kuta, Kabupaten Badung, Bali 80361","Kuta, Kec. Kuta, Kabupaten Badung",BALI,80361.0,Indonesia, 0361755277,,,-8.7232236,115.1843392,https://maps.google.com/?cid=0x0:0x165e0786352e0779,
mall,Grosir Perlengkapan Rumah Tangga,Toko Perabot Rumah Tangga,"G5H9+R7H, Jl. Wisnu Marga, Marga, Kec. Marga, Kabupaten Tabanan, Bali 82181","Jl. Wisnu Marga, Marga, Kec. Marga, Kabupaten Tabanan",BALI,82181.0,Indonesia,,,,-8.470441,115.1682348,https://maps.google.com/?cid=0x0:0xf897d12e87d200a0,
mall,Pusat Perbelanjaan,warung putra jaya,"G5G9+9X8, Jl. Wisnu Marga, Marga, Kec. Marga, Kabupaten Tabanan, Bali 82181","Jl. Wisnu Marga, Marga, Kec. Marga, Kabupaten Tabanan",BALI,82181.0,Indonesia, 085237784814,,,-8.4740804,115.1699557,https://maps.google.com/?cid=0x0:0x4a3ab0e5461a678f,
mall,Pusat Perbelanjaan,sever intan jaya,"G5MG+VGJ, Jl. Kekeran Manikgunung, Selanbawak, Kec. Marga, Kabupaten Tabanan, Bali 82181","Jl. Kekeran Manikgunung, Selanbawak, Kec. Marga, Kabupaten Tabanan",BALI,82181.0,Indonesia, 081239245262,,,-8.4652997,115.1762668,https://maps.google.com/?cid=0x0:0x285a94403010bd27,
mall,Pusat Perbelanjaan,Cening bagus,"H5RQ+5HV, Tua, Kec. Marga, Kabupaten Tabanan, Bali","Kabupaten Tabanan, Bali",BALI,,Indonesia,,,,-8.4095178,115.188916,https://maps.google.com/?cid=0x0:0x2d9777d990d4bc40,
mall,Pusat Perbelanjaan,Wr. Bali Suci,"Jl. Veteran, Sobangan, Kec. Mengwi, Kabupaten Badung, Bali 80352","Sobangan, Kec. Mengwi, Kabupaten Badung",BALI,80352.0,Indonesia,,,,-8.4991707,115.1932734,https://maps.google.com/?cid=0x0:0x65f9d95f0bb72f2,
mall,Toko,Puspadewi Ukir,"F5M7+3R9, Peken, Kec. Marga, Kabupaten Tabanan, Bali 82181","Peken, Kec. Marga, Kabupaten Tabanan",BALI,82181.0,Indonesia,,,,-8.5173499,115.1646221,https://maps.google.com/?cid=0x0:0xa448e7a0e6558519,
mall,Toko,Toko Simpang,"Jl. Tunjuk, Tunjuk, Kec. Tabanan, Kabupaten Tabanan, Bali 82181","Tunjuk, Kec. Tabanan, Kabupaten Tabanan",BALI,82181.0,Indonesia,,,,-8.4818877,115.151625,https://maps.google.com/?cid=0x0:0xd653906b6c875d12,
mall,Donat,DoNo Sukla,"Jl. Beringkit Abiantuwung No.31, Beringkit, Kec. Marga, Kabupaten Tabanan, Bali 82181","Beringkit, Kec. Marga, Kabupaten Tabanan",BALI,82181.0,Indonesia, 082144702031,,,-8.5209692,115.1630271,https://maps.google.com/?cid=0x0:0xac6110d4b962a716,
mall,Pusat Perbelanjaan,Gunbetta_Dewata,"G5HG+X6W, Jl. Kekeran Manikgunung, Selanbawak, Kec. Marga, Kabupaten Tabanan, Bali 82181","Jl. Kekeran Manikgunung, Selanbawak, Kec. Marga, Kabupaten Tabanan",BALI,82181.0,Indonesia, 08873471624,,,-8.4700177,115.1755724,https://maps.google.com/?cid=0x0:0x7b5c8599a2fe15c9,
mall,Kafe,SENSASI DRINK,"G5CC+C5C, Jl. Wisnu Marga, Marga, Kec. Marga, Kabupaten Tabanan, Bali 82181","Jl. Wisnu Marga, Marga, Kec. Marga, Kabupaten Tabanan",BALI,82181.0,Indonesia,,,,-8.4789254,115.1703837,https://maps.google.com/?cid=0x0:0x9403c725028e2d9d,
mall,Kafe,Agus Satria Wibawa,"H5GF+XWW, Petiga, Kec. Marga, Kabupaten Tabanan, Bali 82181","Petiga, Kec. Marga, Kabupaten Tabanan",BALI,82181.0,Indonesia, 083117271480,,,-8.422501,115.1748347,https://maps.google.com/?cid=0x0:0xe7116c47cd3f73cf,
mall,Toko Parfum,Talkme Parfum Bali,"Wanasari, Kec. Tabanan, Kabupaten Tabanan, Bali 82181","Kec. Tabanan, Kabupaten Tabanan",BALI,82181.0,Indonesia, 085739234667,,,-8.483027,115.1348016,https://maps.google.com/?cid=0x0:0x85577c7b496a87a0,
mall,Hotel,Yeh Panes Point,"Jl. Buruan - Penatahan No.35, Jegu, Kec. Penebel, Kabupaten Tabanan, Bali 82181","Jegu, Kec. Penebel, Kabupaten Tabanan",BALI,82181.0,Indonesia, 085337700807,,,-8.4463414,115.1338631,https://maps.google.com/?cid=0x0:0xaeb455749b7b6524,
mall,Pusat Perbelanjaan,Pondok Bonsai,"Banjar Dinas Adeng, Jl. Bangsawan No.1, Tegaljadi, Kec. Marga, Kabupaten Tabanan, Bali 82181","Jl. Bangsawan No.1, Tegaljadi, Kec. Marga, Kabupaten Tabanan",BALI,82181.0,Indonesia,,,,-8.4915124,115.1587819,https://maps.google.com/?cid=0x0:0x66b2fdab3db06e66,
mall,Pusat Perbelanjaan,MargoCity,"Jl. Margonda Raya No.358, Kemiri Muka, Kecamatan Beji, Kota Depok, Jawa Barat 16423","Kemiri Muka, Kecamatan Beji, Kota Depok",BALI,16423.0,Indonesia, 02178870888,,,-6.372967,106.8344235,https://maps.google.com/?cid=0x0:0xd3365350a2ebe2f,
mall,Pusat Perbelanjaan,Citimall Cimanggis,"Jl. Raya Bogor KM 29 No. 29, Mekarsari, Kec. Cimanggis, Kota Depok, Jawa Barat 16452","Mekarsari, Kec. Cimanggis, Kota Depok",BALI,16452.0,Indonesia, 02129378293,,,-6.357264,106.859793,https://maps.google.com/?cid=0x0:0x2336a1d160990b0f,
mall,Jepang,Marugame Udon Margonda Raya,"Jl. Margonda No.356, Kemiri Muka, Kecamatan Beji, Kota Depok, Jawa Barat 16423","Kemiri Muka, Kecamatan Beji, Kota Depok",BALI,16423.0,Indonesia, 081132045245,,,-6.3727838,106.8331441,https://maps.google.com/?cid=0x0:0x642a42ce1980f128,
mall,Vietnam,Pho Ba Ba Margo City,"Jl. Margonda No.358, Kemiri Muka, Kecamatan Beji, Kota Depok, Jawa Barat 16423","Kemiri Muka, Kecamatan Beji, Kota Depok",BALI,16423.0,Indonesia, 085946891480,,,-6.3729567,106.8348932,https://maps.google.com/?cid=0x0:0xb158707c6d0fd73c,
mall,Jepang,SUSHI TEI,"Jl. Margonda No.358, Kemiri Muka, Kecamatan Beji, Kota Depok, Jawa Barat 16423","Kemiri Muka, Kecamatan Beji, Kota Depok",BALI,16423.0,Indonesia, 02178870840,,,-6.3732342,106.834795,https://maps.google.com/?cid=0x0:0x401b84e439b8fcca,
mall,Toko Suvenir,Joger baturiti,"Jl. Mekarsari - Baturiti Bedugul No.575, Mekarsari, Kec. Baturiti, Kabupaten Tabanan, Bali 82191","Mekarsari, Kec. Baturiti, Kabupaten Tabanan",BALI,82191.0,Indonesia,,,,-8.3872732,115.1947054,https://maps.google.com/?cid=0x0:0xdbb66a77d5612fda,
mall,mall,Bali 82191,"Kabupaten Tabanan, Bali","Kabupaten Tabanan, Bali",BALI,,Indonesia,,,,-8.3413877,115.1533426,https://maps.google.com/?cid=0x0:0x1c00c5eb6016c250,
mall,Toko,Bali Bagus,"Jl. Mekarsari - Baturiti Bedugul No.575, Mekarsari, Kec. Baturiti, Kabupaten Tabanan, Bali 82191","Mekarsari, Kec. Baturiti, Kabupaten Tabanan",BALI,82191.0,Indonesia, 03682033302,,,-8.3870458,115.1953569,https://maps.google.com/?cid=0x0:0xc88ffc63b6a627e3,
mall,Toko bahan makanan,Toko Bli Wayan,"J52W+7F8, Jl. Raya Denpasar, Luwus, Kec. Baturiti, Kabupaten Tabanan, Bali 82191","Jl. Raya Denpasar, Luwus, Kec. Baturiti, Kabupaten Tabanan",BALI,82191.0,Indonesia, 081239363738,,,-8.3993344,115.1962185,https://maps.google.com/?cid=0x0:0xde433b58d71cafab,
mall,Pasar,PAPA MARKET,"Jl. Raya Baturiti No.99, Batunya, Kec. Baturiti, Kabupaten Tabanan, Bali 82191","Batunya, Kec. Baturiti, Kabupaten Tabanan",BALI,82191.0,Indonesia, 087800044376,,,-8.312934,115.1817716,https://maps.google.com/?cid=0x0:0x4ffe98510fbe981c,
mall,mall,Secret Garden Village,"Jl. Raya Denpasar Bedugul km. 36, Mekarsari, Baturiti, Mekarsari, Tabanan, Mekarsari, Kec. Baturiti, Kabupaten Tabanan, Bali 82191","Mekarsari, Baturiti, Mekarsari, Tabanan, Mekarsari, Kec. Baturiti, Kabupaten Tabanan",BALI,82191.0,Indonesia, 03682033363,,,-8.3726305,115.1933824,https://maps.google.com/?cid=0x0:0xabd3c3b7c8f647ef,
mall,Toko Lampu,Philips,"M5FP+W2P, Jl. Raya Baturiti, Baturiti, Kec. Baturiti, Kabupaten Tabanan, Bali 82191","Jl. Raya Baturiti, Baturiti, Kec. Baturiti, Kabupaten Tabanan",BALI,82191.0,Indonesia, 036821788,,,-8.3251564,115.1850708,https://maps.google.com/?cid=0x0:0xb4ed95bde1547b8b,
mall,Toko Pakaian,Bedugul Fashion,"P597+62G, Jl. Raya Bedugul, Candikuning, Kec. Baturiti, Kabupaten Tabanan, Bali 82191","Jl. Raya Bedugul, Candikuning, Kec. Baturiti, Kabupaten Tabanan",BALI,82191.0,Indonesia,,,,-8.2819409,115.1625896,https://maps.google.com/?cid=0x0:0xa5298d90fb111723,
mall,Toko Kesehatan dan Kecantikan,Tiens Baturiti,"J5MW+9HX, Mekarsari, Kec. Baturiti, Kabupaten Tabanan, Bali 82191","Mekarsari, Kec. Baturiti, Kabupaten Tabanan",BALI,82191.0,Indonesia, 081916284215,,,-8.3665191,115.1964864,https://maps.google.com/?cid=0x0:0xc5a7435ada9798a5,
mall,Pasar,Pasar Tradisional Bedugul,"Jl. Kebun Raya No.7, Candikuning, Kec. Baturiti, Kabupaten Tabanan, Bali 82191","Candikuning, Kec. Baturiti, Kabupaten Tabanan",BALI,82191.0,Indonesia,,,,-8.2825171,115.1622531,https://maps.google.com/?cid=0x0:0x3c94afd0e710cc03,
mall,Pusat Perbelanjaan,Petik Pani_purna strawbery(langsung),"P5V6+543, Gg. Arjuna, Candikuning, Kec. Baturiti, Kabupaten Tabanan, Bali 82191","Gg. Arjuna, Candikuning, Kec. Baturiti, Kabupaten Tabanan",BALI,82191.0,Indonesia, 087702505251,,,-8.2571248,115.160292,https://maps.google.com/?cid=0x0:0xdce0f7d1b758a9fb,
mall,Pusat Perbelanjaan,MANIK Strawbery,"P5V6+C6, Candikuning, Kec. Baturiti, Kabupaten Tabanan, Bali 82191","Candikuning, Kec. Baturiti, Kabupaten Tabanan",BALI,82191.0,Indonesia, 087861316064,,,-8.2563829,115.160579,https://maps.google.com/?cid=0x0:0xf3e6474a922395fc,
mall,Toko Pakaian,KYL,"H5WW+PHG, Jl. Perean Tengah, Luwus, Kec. Baturiti, Kabupaten Tabanan, Bali 82191","Jl. Perean Tengah, Luwus, Kec. Baturiti, Kabupaten Tabanan",BALI,82191.0,Indonesia,,,,-8.4031973,115.1964634,https://maps.google.com/?cid=0x0:0x54ad8a3a7319bc2b,
mall,Toko Pakaian,RAJA DEVATA MART,"Jl. Raya Apuan Senganan - Baturiti No.552, Apuan, Kec. Baturiti, Kabupaten Tabanan, Bali 82191","Apuan, Kec. Baturiti, Kabupaten Tabanan",BALI,82191.0,Indonesia, 081933046655,,,-8.3701819,115.1728647,https://maps.google.com/?cid=0x0:0x7e6027fb37b7a677,
mall,Pusat Perbelanjaan,Nugraha,"H5HV+4XG, Unnamed Road, Perean, Kec. Baturiti, Kabupaten Tabanan, Bali 82191","Unnamed Road, Perean, Kec. Baturiti, Kabupaten Tabanan",BALI,82191.0,Indonesia, 081237233302,,,-8.4221933,115.1949609,https://maps.google.com/?cid=0x0:0x6f9e364b28fe9515,
mall,Pasar,Duren Murah Enak... RM Gula Bali,"Jl. Mekarsari - Baturiti Bedugul No.5, Mekarsari, Kec. Baturiti, Kabupaten Tabanan, Bali 82191","Mekarsari, Kec. Baturiti, Kabupaten Tabanan",BALI,82191.0,Indonesia,,,,-8.3607759,115.191303,https://maps.google.com/?cid=0x0:0x4fbf2a43998819ec,
mall,Tujuan Wisata,Cocoa Land Bali,"Jl Raya Denpasar Bedugul, Mekarsari, Kec. Baturiti, Kabupaten Tabanan, Bali 82191","Mekarsari, Kec. Baturiti, Kabupaten Tabanan",BALI,82191.0,Indonesia, 085176712229,,,-8.37801,115.1946114,https://maps.google.com/?cid=0x0:0x19eb71a85aa240e1,
mall,Pusat Perbelanjaan,Petik strawberry langganan,"Candikuning, Kec. Baturiti, Kabupaten Tabanan, Bali 82191","Kec. Baturiti, Kabupaten Tabanan",BALI,82191.0,Indonesia,,,,-8.2567486,115.1591725,https://maps.google.com/?cid=0x0:0x6ef6ca87e4107869,
mall,Kebun Buah,06. Dhani Strawberry (Kawasan Petik Strawberry)),"Jl. Gatotkaca, Pancasari, Kec. Baturiti, Kabupaten Tabanan, Bali 82191","Pancasari, Kec. Baturiti, Kabupaten Tabanan",BALI,82191.0,Indonesia, 087761072946,,,-8.2569413,115.158961,https://maps.google.com/?cid=0x0:0xa90fa69ec1692e45,
mall,Toko,Toko anik,"Jl. Perean Tengah No.78, Perean Tengah, Kec. Baturiti, Kabupaten Tabanan, Bali 82191","Perean Tengah, Kec. Baturiti, Kabupaten Tabanan",BALI,82191.0,Indonesia,,,,-8.4214144,115.2002352,https://maps.google.com/?cid=0x0:0x24b1c8eb265a5243,
mall,Peternakan Ayam,Mudarma chiken farm,"H5XX+XPV, Luwus, Kec. Baturiti, Kabupaten Tabanan, Bali 82191","Luwus, Kec. Baturiti, Kabupaten Tabanan",BALI,82191.0,Indonesia, 087850585731,,,-8.4000023,115.1993041,https://maps.google.com/?cid=0x0:0x6dd340aef9fd75f5,
mall,Pusat Perbelanjaan,mila orchid,"M5HV+MWW br.abing, Batunya, Kec. Baturiti, Kabupaten Tabanan, Bali 82191","Batunya, Kec. Baturiti, Kabupaten Tabanan",BALI,82191.0,Indonesia, 085829129962,,,-8.320766,115.1948298,https://maps.google.com/?cid=0x0:0x134fb20b7c885944,
mall,Pusat Perbelanjaan,Pusat Inovasl Pertanian,"P596+J2M, Unnamed Road, Candikuning, Kec. Baturiti, Kabupaten Tabanan, Bali 82191","Unnamed Road, Candikuning, Kec. Baturiti, Kabupaten Tabanan",BALI,82191.0,Indonesia, 081338648473,,,-8.2809052,115.1600335,https://maps.google.com/?cid=0x0:0xa61978dc3d6a8542,
mall,Pusat Perbelanjaan,twiishop,"H5CW+H2M, Br. Perean, Perean, Kec. Baturiti, Kabupaten Tabanan, Bali 82191","Br. Perean, Perean, Kec. Baturiti, Kabupaten Tabanan",BALI,82191.0,Indonesia, 085857914787,,,-8.4285358,115.1950372,https://maps.google.com/?cid=0x0:0x563ec20edbfe0aab,
mall,mall,Bali 82152,"Kec. Penebel, Kabupaten Tabanan, Bali","Kabupaten Tabanan, Bali",BALI,,Indonesia,,,,-8.3941828,115.1177654,https://maps.google.com/?cid=0x0:0x1c00c5eb6016c1f0,
mall,Pusat Perbelanjaan,Ayuliashop Penebel,"H4GV+3G9, Penebel, Kec. Penebel, Kabupaten Tabanan, Bali","Kabupaten Tabanan, Bali",BALI,,Indonesia, 081342001901,,,-8.4248399,115.1440232,https://maps.google.com/?cid=0x0:0x7098fc7b28ecffdd,
mall,Toko,Stockist NASA DK.1503 PENEBEL TABANAN,"H4GP+5HW, Pitra, Kec. Penebel, Kabupaten Tabanan, Bali 82152","Pitra, Kec. Penebel, Kabupaten Tabanan",BALI,82152.0,Indonesia, 082247353637,,,-8.4245141,115.1364675,https://maps.google.com/?cid=0x0:0xbbe414cc58ace028,
mall,Pusat Perbelanjaan,Diana Nasa Bali,"H4GX+FFH, Penebel, karadan, Kabupaten Tabanan, Bali 82181","Penebel, karadan, Kabupaten Tabanan",BALI,82181.0,Indonesia, 085736011473,,,-8.4238068,115.1487309,https://maps.google.com/?cid=0x0:0x5f73a0e0304b345e,
mall,Hotel,Yeh Panes Point,"Jl. Buruan - Penatahan No.35, Jegu, Kec. Penebel, Kabupaten Tabanan, Bali 82181","Jegu, Kec. Penebel, Kabupaten Tabanan",BALI,82181.0,Indonesia, 085337700807,,,-8.4463414,115.1338631,https://maps.google.com/?cid=0x0:0xaeb455749b7b6524,
mall,Toko,Warung Men Risma,"Jl. Pura Batukaru No.59, Penatahan, Kec. Penebel, Kabupaten Tabanan, Bali 82152","Penatahan, Kec. Penebel, Kabupaten Tabanan",BALI,82152.0,Indonesia,,,,-8.4369199,115.1250805,https://maps.google.com/?cid=0x0:0x51987c9a327ea80b,
mall,Pusat Perbelanjaan,Ayuliashopbali,"Jl. Raya Senganan, Senganan, Kec. Penebel, Kabupaten Tabanan, Bali 82191","Senganan, Kec. Penebel, Kabupaten Tabanan",BALI,82191.0,Indonesia, 085739513336,,,-8.3708972,115.161413,https://maps.google.com/?cid=0x0:0xf8a69eb1ea6f27d2,
mall,Toko bahan makanan,TOKO HARUM SARI,"Jl. Raya Babahan Senganan No.18, Penebel, Kec. Penebel, Kabupaten Tabanan, Bali 82181","Penebel, Kec. Penebel, Kabupaten Tabanan",BALI,82181.0,Indonesia, 085738055942,,,-8.423449,115.1446645,https://maps.google.com/?cid=0x0:0x7ba52537c590cf7f,
mall,Pusat Perbelanjaan,Petelor agus dan miko,"H45P+W88, Pitra, Kec. Penebel, Kabupaten Tabanan, Bali 82181","Pitra, Kec. Penebel, Kabupaten Tabanan",BALI,82181.0,Indonesia, 081999513222,,,-8.4402054,115.1358299,https://maps.google.com/?cid=0x0:0xaf3bcc435a3bee4f,
mall,Toko bahan makanan,Warung Restu,"H3VM+R45, Unnamed Road, Sangketan, Kec. Penebel, Kabupaten Tabanan, Bali 82152","Unnamed Road, Sangketan, Kec. Penebel, Kabupaten Tabanan",BALI,82152.0,Indonesia,,,,-8.405476,115.0828452,https://maps.google.com/?cid=0x0:0x573e9ef55b50a197,
mall,Toko,SuniyaArt,"G4JQ+R3P, Jl. Batukaru, Buruan, Kec. Penebel, Kabupaten Tabanan, Bali 82181","Jl. Batukaru, Buruan, Kec. Penebel, Kabupaten Tabanan",BALI,82181.0,Indonesia, 085739968916,,,-8.4679034,115.1377071,https://maps.google.com/?cid=0x0:0x26552e4ca084de6d,
mall,Pusat Perbelanjaan,Warung Desak Dila,"H3QM+2FV, Unnamed Road, Sangketan, Kec. Penebel, Kabupaten Tabanan, Bali 82152","Unnamed Road, Sangketan, Kec. Penebel, Kabupaten Tabanan",BALI,82152.0,Indonesia,,,,-8.412393,115.0836834,https://maps.google.com/?cid=0x0:0x967aebb2bfabcc77,
mall,Rumah Makan,Warung Manik,"H3JV+F4, Sangketan, Kec. Penebel, Kabupaten Tabanan, Bali","Kabupaten Tabanan, Bali",BALI,,Indonesia,,,,-8.4188436,115.0928827,https://maps.google.com/?cid=0x0:0x1ab8496768f2dd32,
mall,Pusat Perbelanjaan,Warung mangku pekandelan,"H3PV+856, Sangketan, Kec. Penebel, Kabupaten Tabanan, Bali 82152","Sangketan, Kec. Penebel, Kabupaten Tabanan",BALI,82152.0,Indonesia,,,,-8.4142204,115.0928881,https://maps.google.com/?cid=0x0:0x9d300583a62cedff,
mall,Balai masyarakat,Br periyukti ds wanasari tabanan,"G46J+FJJ, Jl. Priyukti Wanasari, Wanasari, Kec. Tabanan, Kabupaten Tabanan, Bali 82181","Jl. Priyukti Wanasari, Wanasari, Kec. Tabanan, Kabupaten Tabanan",BALI,82181.0,Indonesia,,,,-8.4887854,115.131516,https://maps.google.com/?cid=0x0:0x31f60261cbd3122,
mall,Pusat Perbelanjaan,WG,"Jl. Merpati, Tajen, Kec. Penebel, Kabupaten Tabanan, Bali 82181","Tajen, Kec. Penebel, Kabupaten Tabanan",BALI,82181.0,Indonesia, 081239039234,,,-8.4383022,115.1532919,https://maps.google.com/?cid=0x0:0xfa079a38fbefeb89,
mall,Toko,PM Shop,"Br, Cacab, Biaung, Kec. Penebel, Kabupaten Tabanan, Bali 82181","Cacab, Biaung, Kec. Penebel, Kabupaten Tabanan",BALI,82181.0,Indonesia, 087849370071,,,-8.4208992,115.1634248,https://maps.google.com/?cid=0x0:0xfc15a628e3dfb5ce,
mall,Kantor Pemerintah Distrik,Desa Senganan Kanginan,"J5H2+GP3, Senganan, Kec. Penebel, Kabupaten Tabanan, Bali 82152","Senganan, Kec. Penebel, Kabupaten Tabanan",BALI,82152.0,Indonesia, 085378673199,,,-8.3712297,115.1518109,https://maps.google.com/?cid=0x0:0x214d6ac636057645,
mall,Toko,Warung Bu Andi,"H48W+V5C, Unnamed Road, Pitra, Kec. Penebel, Kabupaten Tabanan, Bali 82181","Unnamed Road, Pitra, Kec. Penebel, Kabupaten Tabanan",BALI,82181.0,Indonesia,,,,-8.4328239,115.1453866,https://maps.google.com/?cid=0x0:0xa134b1606b96eb8d,
mall,Pusat Perbelanjaan,Manikshop,"G497+VRC, Unnamed Road, Kesiut, Kec. Kerambitan, Kabupaten Tabanan, Bali 82111","Unnamed Road, Kesiut, Kec. Kerambitan, Kabupaten Tabanan",BALI,82111.0,Indonesia, 087849765138,,,-8.4803005,115.1145034,https://maps.google.com/?cid=0x0:0x6d8666d3ba2876c2,
mall,Pusat Perbelanjaan,Store Beauty.id,"G37V+3J6, Desa Timpag Banjar, munduk, Kec. Kerambitan, Kabupaten Tabanan, Bali 82161","Desa Timpag Banjar, munduk, Kec. Kerambitan, Kabupaten Tabanan",BALI,82161.0,Indonesia, 081238875250,,,-8.4873413,115.0940227,https://maps.google.com/?cid=0x0:0xa803f8624df14288,
mall,Salon Kecantikan,"She Collection, Tabanan","Jl. Mawar No.26 A, Delod Peken, Kec. Tabanan, Kabupaten Tabanan, Bali 82121","Delod Peken, Kec. Tabanan, Kabupaten Tabanan",BALI,82121.0,Indonesia, 03617991639,,,-8.5462499,115.1243265,https://maps.google.com/?cid=0x0:0x7fc403869b7ba239,
mall,mall,Bali 82121,"Kec. Kediri, Kabupaten Tabanan, Bali","Kabupaten Tabanan, Bali",BALI,,Indonesia,,,,-8.5649981,115.1296249,https://maps.google.com/?cid=0x0:0x3da7e6c755bd7d06,
mall,Pusat Perbelanjaan,POLO Kampoeng Lot,"Jalan By Pass Tanah Lot No. 10, Kediri, Beraban, Kec. Tabanan, Kabupaten Tabanan, Bali 82121","Kediri, Beraban, Kec. Tabanan, Kabupaten Tabanan",BALI,82121.0,Indonesia, 082112288397,,,-8.6065059,115.1078266,https://maps.google.com/?cid=0x0:0x3478ee62d5c5e3b5,
mall,Minimarket,Jepun Bali Mart,"C49H+CQ3, Jl. Tanah Lot, Pandak Bandung, Kec. Kediri, Kabupaten Tabanan, Bali 82121","Jl. Tanah Lot, Pandak Bandung, Kec. Kediri, Kabupaten Tabanan",BALI,82121.0,Indonesia, 085100949787,,,-8.5814989,115.1294164,https://maps.google.com/?cid=0x0:0x26da88e41418bc55,
mall,Toko Swalayan,Clandy's Mart Tabanan 3,"Jl. Dr. Ir. Soekarno No.8, Delod Peken, Kec. Tabanan, Kabupaten Tabanan, Bali 82121","Delod Peken, Kec. Tabanan, Kabupaten Tabanan",BALI,82121.0,Indonesia, 081937920256,,,-8.5506257,115.1259101,https://maps.google.com/?cid=0x0:0x520d719cf629042b,
mall,Minimarket,Toko Crystal Tabanan,"Jl. Ngurah Rai No.72, Banjar Anyar, Kec. Kediri, Kabupaten Tabanan, Bali 82121","Banjar Anyar, Kec. Kediri, Kabupaten Tabanan",BALI,82121.0,Indonesia, 081338846682,,,-8.5525902,115.140841,https://maps.google.com/?cid=0x0:0xae4da35b74742fa,
mall,Pusat Perbelanjaan,atd.bali,"Jl. Tendean No.68, Banjar Anyar, Kec. Kediri, Kabupaten Tabanan, Bali 82121","Banjar Anyar, Kec. Kediri, Kabupaten Tabanan",BALI,82121.0,Indonesia, 085951386529,,,-8.5381989,115.1457554,https://maps.google.com/?cid=0x0:0xe2b9cbf92d8b161b,
mall,Toko,Made Di Bali,"93JQ+M98, Jl. Tanah Lot, Beraban, Kec. Kediri, Kabupaten Tabanan, Bali 82121","Jl. Tanah Lot, Beraban, Kec. Kediri, Kabupaten Tabanan",BALI,82121.0,Indonesia, 081999538223,,,-8.6183369,115.0884505,https://maps.google.com/?cid=0x0:0xebe4db135ebd8461,
mall,Pusat Perbelanjaan,Bali Okane,"Jl. Mawar No.116, Delod Peken, Kec. Tabanan, Kabupaten Tabanan, Bali 82121","Delod Peken, Kec. Tabanan, Kabupaten Tabanan",BALI,82121.0,Indonesia, 085955099778,,,-8.5552487,115.1218231,https://maps.google.com/?cid=0x0:0xdcb2f708217bc8e3,
mall,Toko Swalayan,Coco Express Kediri,"C4XJ+54M, Jl. Dr. Ir. Soekarno, Banjar Anyar, Kec. Kediri, Kabupaten Tabanan, Bali 82121","Jl. Dr. Ir. Soekarno, Banjar Anyar, Kec. Kediri, Kabupaten Tabanan",BALI,82121.0,Indonesia, 03618941558,,,-8.5520279,115.1302828,https://maps.google.com/?cid=0x0:0x90f45b3fa70555af,
mall,Pusat Perbelanjaan,toko kasih kediri,"Jl. Wagimin No.9, Kediri, Kec. Kediri, Kabupaten Tabanan, Bali 82121","Kediri, Kec. Kediri, Kabupaten Tabanan",BALI,82121.0,Indonesia, 081246578271,,,-8.559431,115.1400956,https://maps.google.com/?cid=0x0:0x198f05dcd67f072d,
mall,Pasar,Pasar Pandak Gede,"Jl. Tanah Lot No.84, Pandak Gede, Kec. Kediri, Kabupaten Tabanan, Bali 82121","Pandak Gede, Kec. Kediri, Kabupaten Tabanan",BALI,82121.0,Indonesia,,,,-8.592113,115.1212652,https://maps.google.com/?cid=0x0:0xa6081190bab6947,
mall,Toko Pakaian,D’Shary Hijab  Fashion,"Jl. Ahmad Yani No.64, Banjar Anyar, Kec. Kediri, Kabupaten Tabanan, Bali 82121","Banjar Anyar, Kec. Kediri, Kabupaten Tabanan",BALI,82121.0,Indonesia, 081239306951,,,-8.5549644,115.1416019,https://maps.google.com/?cid=0x0:0x496cf6c6576de44,
mall,Toko,Artasedana Tabanan,"Jl. Dr. Ir. Soekarno No.50 X, Banjar Anyar, Kec. Kediri, Kabupaten Tabanan, Bali 82121","Banjar Anyar, Kec. Kediri, Kabupaten Tabanan",BALI,82121.0,Indonesia,,,,-8.5523855,115.1336288,https://maps.google.com/?cid=0x0:0x3a54beae5afa1331,
mall,Pusat Perbelanjaan,Handa Store Bali,"Jl. Ngurah Rai No.56, Banjar Anyar, Kec. Kediri, Kabupaten Tabanan, Bali 82121","Banjar Anyar, Kec. Kediri, Kabupaten Tabanan",BALI,82121.0,Indonesia,,,,-8.551137,115.1413534,https://maps.google.com/?cid=0x0:0x173b6e6f37bcadb1,
mall,Dapur Umum,Dapur In Bali,"F43P+9WG, Banjar Anyar, Kec. Kediri, Kabupaten Tabanan, Bali 82121","Banjar Anyar, Kec. Kediri, Kabupaten Tabanan",BALI,82121.0,Indonesia,,,,-8.5465625,115.1373353,https://maps.google.com/?cid=0x0:0x5af4a8769a6da288,
mall,Toko,Elite Footwear Supply,"Jl. Ahmad Yani No.82, Banjar Anyar, Kec. Kediri, Kabupaten Tabanan, Bali 82121","Banjar Anyar, Kec. Kediri, Kabupaten Tabanan",BALI,82121.0,Indonesia, 087760345615,,,-8.5547679,115.1410661,https://maps.google.com/?cid=0x0:0x9c5fea9e153532a5,
mall,Pusat Perbelanjaan,Sri merta,"C4F4+RXR, Pejaten, Kec. Kediri, Kabupaten Tabanan, Bali 82121","Pejaten, Kec. Kediri, Kabupaten Tabanan",BALI,82121.0,Indonesia, 081236643054,,,-8.57538,115.1073879,https://maps.google.com/?cid=0x0:0x7c37b54959c9217e,
mall,Toko Suvenir,Toko Kadek Kediri,"No. 82171, Jl. MH. Thamrin No.96, Kediri, Kec. Kediri, Kabupaten Tabanan, Bali 82121","Jl. MH. Thamrin No.96, Kediri, Kec. Kediri, Kabupaten Tabanan",BALI,82121.0,Indonesia,,,,-8.5579165,115.1390669,https://maps.google.com/?cid=0x0:0xfcf6a3fe76b85c08,
mall,Pusat Perbelanjaan,Alpha casual,"Jl. Terunajaya No.20, Kediri, Kec. Kediri, Kabupaten Tabanan, Bali 82121","Kediri, Kec. Kediri, Kabupaten Tabanan",BALI,82121.0,Indonesia, 087862979829,,,-8.5667393,115.1338869,https://maps.google.com/?cid=0x0:0x3c7ab4db859c7578,
mall,Toko,Ithashop,"C4HH+MJ7, Jl. Terunajaya, Kediri, Kec. Kediri, Kabupaten Tabanan, Bali 82121","Jl. Terunajaya, Kediri, Kec. Kediri, Kabupaten Tabanan",BALI,82121.0,Indonesia, 0895630476754,,,-8.5708498,115.1290354,https://maps.google.com/?cid=0x0:0x11a9a8bb4d9d522d,
mall,Pusat Perbelanjaan,RATU UNGGAS BALI,"Perumahan Lebah Asri No. 79 Jalan Banjar Dajan Tenten, Banjar Anyar, Kec. Kediri, Kabupaten Tabanan, Bali 82121","Banjar Anyar, Kec. Kediri, Kabupaten Tabanan",BALI,82121.0,Indonesia, 085101496521,,,-8.5427545,115.1476188,https://maps.google.com/?cid=0x0:0xb4beec78947d38a9,
mall,Pusat Perbelanjaan,Kediri Mall,"Jl. Hayam Wuruk No.46, Dandangan, Kec. Kota, Kabupaten Kediri, Jawa Timur 64122","Dandangan, Kec. Kota, Kabupaten Kediri",BALI,64122.0,Indonesia, 085785349963,,,-7.8156449,112.0189881,https://maps.google.com/?cid=0x0:0x2994dfd9f3dbdfa5,
mall,Toko,Toko Miranda,"F43R+XMH, Jl. Gatot Subroto, Banjar Anyar, Kec. Kediri, Kabupaten Tabanan, Bali 82121","Jl. Gatot Subroto, Banjar Anyar, Kec. Kediri, Kabupaten Tabanan",BALI,82121.0,Indonesia, 0361812362,,,-8.5450741,115.1417355,https://maps.google.com/?cid=0x0:0xce5180c7369d855e,
mall,mall,Lokasi terkini,"C4JM+RC9, Kediri, Kec. Kediri, Kabupaten Tabanan, Bali 82121","Kediri, Kec. Kediri, Kabupaten Tabanan",BALI,82121.0,Indonesia,,,,-8.567958,115.1336156,https://maps.google.com/?cid=0x0:0x2c60be2d6f0483fc,
mall,Pusat Perbelanjaan,Kediri Town Square,"Jl. Hasanudin No.2, Balowerti, Kec. Kota, Kota Kediri, Jawa Timur 64129","Balowerti, Kec. Kota, Kota Kediri",BALI,64129.0,Indonesia, 0354673838,,,-7.8129067,112.0157793,https://maps.google.com/?cid=0x0:0x238b1d6bc49da7ac,
mall,Toko Pakaian,Matahari Kediri Town Square,"Jl. Hasanudin No.2, Balowerti, Kec. Kota, Kota Kediri, Jawa Timur 64129","Balowerti, Kec. Kota, Kota Kediri",BALI,64129.0,Indonesia, 0354673900,,,-7.8129774,112.0157512,https://maps.google.com/?cid=0x0:0x761885e8fa5ab61e,
mall,Toko,Ramayana Mall Kediri,"Jl. Panglima Sudirman, Ringin Anom, Kec. Kota, Kota Kediri, Jawa Timur 64129","Ringin Anom, Kec. Kota, Kota Kediri",BALI,64129.0,Indonesia,,,,-7.8226431,112.0111854,https://maps.google.com/?cid=0x0:0x9ddfffc6d75c6e07,
mall,Pusat Perbelanjaan,Transmart Kediri Mall,"Sriratu, Lt. 3 Mall, Jl. Joyoboyo No.10, Dandangan, Kec. Kota, Kota Kediri, Jawa Timur 64129","Lt. 3 Mall, Jl. Joyoboyo No.10, Dandangan, Kec. Kota, Kota Kediri",BALI,64129.0,Indonesia, 082208255186,,,-7.8160578,112.0197418,https://maps.google.com/?cid=0x0:0x92797bd63ac16b4f,
mall,Pusat Perbelanjaan,MINISO KEDIRI MALL,"Dandangan, Kec. Kota, Kota Kediri, Jawa Timur","Kota Kediri, Jawa Timur",BALI,,Indonesia, 085855320354,,,-7.8156262,112.0191102,https://maps.google.com/?cid=0x0:0x71b16d9b00001dba,
mall,mall,Bali 82123,"Kabupaten Tabanan, Bali","Kabupaten Tabanan, Bali",BALI,,Indonesia,,,,-8.5214417,115.1385192,https://maps.google.com/?cid=0x0:0x4b5bcd1e9a57a1dc,
mall,Pusat Perbelanjaan,POLO Kampoeng Lot,"Jalan By Pass Tanah Lot No. 10, Kediri, Beraban, Kec. Tabanan, Kabupaten Tabanan, Bali 82121","Kediri, Beraban, Kec. Tabanan, Kabupaten Tabanan",BALI,82121.0,Indonesia, 082112288397,,,-8.6065059,115.1078266,https://maps.google.com/?cid=0x0:0x3478ee62d5c5e3b5,
mall,Toko Swalayan,Clandy's Mart Tabanan 3,"Jl. Dr. Ir. Soekarno No.8, Delod Peken, Kec. Tabanan, Kabupaten Tabanan, Bali 82121","Delod Peken, Kec. Tabanan, Kabupaten Tabanan",BALI,82121.0,Indonesia, 081937920256,,,-8.5506257,115.1259101,https://maps.google.com/?cid=0x0:0x520d719cf629042b,
mall,Pusat Perbelanjaan,Beauty Skin by Sintya,"F4GW+PPX, Jl. Ciung Wanara, Banjar Anyar, Kec. Kediri, Kabupaten Tabanan, Bali 82123","Jl. Ciung Wanara, Banjar Anyar, Kec. Kediri, Kabupaten Tabanan",BALI,82123.0,Indonesia, 085792315598,,,-8.5231496,115.14685,https://maps.google.com/?cid=0x0:0xa58ed4f5a2c6397c,
mall,Pusat Perbelanjaan,affilio,"blok 28 nomor 11, Jl. Tukad Yeh Nu, Banjar Anyar, Kec. Kediri, Kabupaten Tabanan, Bali 82123","Jl. Tukad Yeh Nu, Banjar Anyar, Kec. Kediri, Kabupaten Tabanan",BALI,82123.0,Indonesia, 087777064595,,,-8.5343358,115.1395152,https://maps.google.com/?cid=0x0:0xa12943112057933,
mall,Pusat Perbelanjaan,Jesslyn_csm,"F4CX+23M, Banjar Anyar, Kec. Kediri, Kabupaten Tabanan, Bali 82121","Banjar Anyar, Kec. Kediri, Kabupaten Tabanan",BALI,82121.0,Indonesia,,,,-8.5299155,115.1476591,https://maps.google.com/?cid=0x0:0x66da2cd123b1d1fb,
mall,Toko,Made Di Bali,"93JQ+M98, Jl. Tanah Lot, Beraban, Kec. Kediri, Kabupaten Tabanan, Bali 82121","Jl. Tanah Lot, Beraban, Kec. Kediri, Kabupaten Tabanan",BALI,82121.0,Indonesia, 081999538223,,,-8.6183369,115.0884505,https://maps.google.com/?cid=0x0:0xebe4db135ebd8461,
mall,Pusat Perbelanjaan,TYMALL.CO,"F49X+V7G, Jl. Raya Alas Kedaton, Banjar Anyar, pemenang, Kabupaten Tabanan, Bali 82121","Jl. Raya Alas Kedaton, Banjar Anyar, pemenang, Kabupaten Tabanan",BALI,82121.0,Indonesia,,,,-8.5303138,115.1482116,https://maps.google.com/?cid=0x0:0xe5a97f3169f84d77,
mall,Pusat Perbelanjaan,Warung Biang Sinta,"F4HX+P6F, Banjar Anyar, Kec. Kediri, Kabupaten Tabanan, Bali 82123","Banjar Anyar, Kec. Kediri, Kabupaten Tabanan",BALI,82123.0,Indonesia,,,,-8.5206896,115.1480494,https://maps.google.com/?cid=0x0:0x972ab34168dd4fbb,
mall,Pemasok bangunan taman,GedeWahyugarden,"F49W+52M, Banjar Anyar, Kec. Kediri, Kabupaten Tabanan, Bali 82121","Banjar Anyar, Kec. Kediri, Kabupaten Tabanan",BALI,82121.0,Indonesia, 087863555004,,,-8.5320467,115.1450423,https://maps.google.com/?cid=0x0:0x5d84d65112969f75,
mall,Minimarket,Indomaret Majapahit Tabanan,"F4FP+C5H, Jl. Majapahit, Denbantas, Kec. Tabanan, Kabupaten Tabanan, Bali 82121","Jl. Majapahit, Denbantas, Kec. Tabanan, Kabupaten Tabanan",BALI,82121.0,Indonesia,,,,-8.526432,115.1354819,https://maps.google.com/?cid=0x0:0xf318625881fdc046,
mall,Toko,Artasedana Tabanan,"Jl. Dr. Ir. Soekarno No.50 X, Banjar Anyar, Kec. Kediri, Kabupaten Tabanan, Bali 82121","Banjar Anyar, Kec. Kediri, Kabupaten Tabanan",BALI,82121.0,Indonesia,,,,-8.5523855,115.1336288,https://maps.google.com/?cid=0x0:0x3a54beae5afa1331,
mall,Pasar,Pasar tradisional tabanan,"Jl. Gunung Semeru No.68, Delod Peken, Kec. Tabanan, Kabupaten Tabanan, Bali 82121","Delod Peken, Kec. Tabanan, Kabupaten Tabanan",BALI,82121.0,Indonesia,,,,-8.5385512,115.1259958,https://maps.google.com/?cid=0x0:0xc6b257bb9400760a,
mall,Toserba,Toko Matahari,"C4WR+63J, Jl. By Pass Kediri, Banjar Anyar, Kec. Kediri, Kabupaten Tabanan, Bali 82121","Jl. By Pass Kediri, Banjar Anyar, Kec. Kediri, Kabupaten Tabanan",BALI,82121.0,Indonesia, 076689725,,,-8.5544011,115.1401274,https://maps.google.com/?cid=0x0:0x9af771e7a4676111,
mall,Toko Pakaian,Toko Nyoman,"Jalan Mohammad haji Thamrin, No. 52 Kediri Kediri Kediri, Kediri, Kec. Kota Kediri, Kabupaten Tabanan, Bali 82171","No. 52 Kediri Kediri Kediri, Kediri, Kec. Kota Kediri, Kabupaten Tabanan",BALI,82171.0,Indonesia, 0361811622,,,-8.5561447,115.1396577,https://maps.google.com/?cid=0x0:0x2afc64fb5907591c,
mall,Pasar,Pasar Besar Tabanan,"F46G+GJ4, Delod Peken, Kec. Tabanan, Kabupaten Tabanan, Bali 82113","Delod Peken, Kec. Tabanan, Kabupaten Tabanan",BALI,82113.0,Indonesia,,,,-8.5387351,115.126571,https://maps.google.com/?cid=0x0:0xa389eef062b8d7d,
mall,Pusat Perbelanjaan,MEDyShop,"Jl. Majapahit Gg VIII, BTN Kamasan Permai No C24, Gg. III, Dajan Peken, Tabanan, Tabanan Regency, Bali 82121","BTN Kamasan Permai No C24, Gg. III, Dajan Peken, Tabanan, Tabanan Regency",BALI,82121.0,Indonesia, 085857554001,,,-8.5283246,115.13665,https://maps.google.com/?cid=0x0:0x1b4ba40f074d5af6,
mall,Pusat Perbelanjaan,Warung ajik desta,"F4MW+3XF, Jl. Raya Desa Jadi, Banjar Anyar, Kec. Kediri, Kabupaten Tabanan, Bali 82123","Jl. Raya Desa Jadi, Banjar Anyar, Kec. Kediri, Kabupaten Tabanan",BALI,82123.0,Indonesia, 087751006439,,,-8.5173083,115.1474267,https://maps.google.com/?cid=0x0:0xc01d1564734fa1bd,
mall,Toko,Toko Indra Jaya 3,"Jl. Tukad Yeh Ho, Banjar Anyar, Kec. Kediri, Kabupaten Tabanan, Bali 75513","Banjar Anyar, Kec. Kediri, Kabupaten Tabanan",BALI,75513.0,Indonesia, 087861815187,,,-8.5324185,115.1405627,https://maps.google.com/?cid=0x0:0xcc1e6b2eb8977ed1,
mall,Pusat Perbelanjaan,Ayam potong B.sinta,"F49V+92F, Unnamed Road, Banjar Anyar, Kec. Kediri, Kabupaten Tabanan, Bali 82121","Unnamed Road, Banjar Anyar, Kec. Kediri, Kabupaten Tabanan",BALI,82121.0,Indonesia,,,,-8.531565,115.1425333,https://maps.google.com/?cid=0x0:0x9e6d47524299ff1e,
mall,Pusat Perbelanjaan,Kediri Mall,"Jl. Hayam Wuruk No.46, Dandangan, Kec. Kota, Kabupaten Kediri, Jawa Timur 64122","Dandangan, Kec. Kota, Kabupaten Kediri",BALI,64122.0,Indonesia, 085785349963,,,-7.8156449,112.0189881,https://maps.google.com/?cid=0x0:0x2994dfd9f3dbdfa5,
mall,Toko Swalayan,Coco Express Kediri,"C4XJ+54M, Jl. Dr. Ir. Soekarno, Banjar Anyar, Kec. Kediri, Kabupaten Tabanan, Bali 82121","Jl. Dr. Ir. Soekarno, Banjar Anyar, Kec. Kediri, Kabupaten Tabanan",BALI,82121.0,Indonesia, 03618941558,,,-8.5520279,115.1302828,https://maps.google.com/?cid=0x0:0x90f45b3fa70555af,
mall,Toko Pakaian,Wsp Konveksi,"Jl. Ciung Wanara, Banjar Anyar, Kec. Kediri, Kabupaten Tabanan, Bali 82123","Banjar Anyar, Kec. Kediri, Kabupaten Tabanan",BALI,82123.0,Indonesia, 0887750660124,,,-8.5172361,115.1487507,https://maps.google.com/?cid=0x0:0x116ed76439b9c2b1,
mall,Pusat Perbelanjaan,Raka Koi and Tilapia Farm,"Green Garden Residence, Jl. Majapahit Jl. Bakisan No.14, Denbantas, Tabanan, Tabanan Regency, Bali 82123","Jl. Majapahit Jl. Bakisan No.14, Denbantas, Tabanan, Tabanan Regency",BALI,82123.0,Indonesia, 089657037367,,,-8.5141182,115.1423257,https://maps.google.com/?cid=0x0:0x3cd8788331309a63,
mall,Toko,Depo Air Minum Ozzy,"Jl. Majapahit No.41, Dajan Peken, Kec. Tabanan, Kabupaten Tabanan, Bali 82121","Dajan Peken, Kec. Tabanan, Kabupaten Tabanan",BALI,82121.0,Indonesia, 087848393000,,,-8.5273934,115.1336505,https://maps.google.com/?cid=0x0:0x5bc738fcdce8010c,
mall,Minimarket,Jepun Bali Mart,"C49H+CQ3, Jl. Tanah Lot, Pandak Bandung, Kec. Kediri, Kabupaten Tabanan, Bali 82121","Jl. Tanah Lot, Pandak Bandung, Kec. Kediri, Kabupaten Tabanan",BALI,82121.0,Indonesia, 085100949787,,,-8.5814989,115.1294164,https://maps.google.com/?cid=0x0:0x26da88e41418bc55,
mall,Pusat Perbelanjaan,Kediri Town Square,"Jl. Hasanudin No.2, Balowerti, Kec. Kota, Kota Kediri, Jawa Timur 64129","Balowerti, Kec. Kota, Kota Kediri",BALI,64129.0,Indonesia, 0354673838,,,-7.8129067,112.0157793,https://maps.google.com/?cid=0x0:0x238b1d6bc49da7ac,
mall,Pusat Perbelanjaan,UD Sari Sedana,"F4HP+3WC, Jl. Majapahit, Denbantas, Kec. Tabanan, Kabupaten Tabanan, Bali 82123","Jl. Majapahit, Denbantas, Kec. Tabanan, Kabupaten Tabanan",BALI,82123.0,Indonesia,,,,-8.5223154,115.1372659,https://maps.google.com/?cid=0x0:0xb0bc61e6f95a5454,
mall,Toko Pakaian,Matahari Kediri Town Square,"Jl. Hasanudin No.2, Balowerti, Kec. Kota, Kota Kediri, Jawa Timur 64129","Balowerti, Kec. Kota, Kota Kediri",BALI,64129.0,Indonesia, 0354673900,,,-7.8129774,112.0157512,https://maps.google.com/?cid=0x0:0x761885e8fa5ab61e,
mall,Pusat Perbelanjaan,POLO Kampoeng Lot,"Jalan By Pass Tanah Lot No. 10, Kediri, Beraban, Kec. Tabanan, Kabupaten Tabanan, Bali 82121","Kediri, Beraban, Kec. Tabanan, Kabupaten Tabanan",BALI,82121.0,Indonesia, 082112288397,,,-8.6065059,115.1078266,https://maps.google.com/?cid=0x0:0x3478ee62d5c5e3b5,
mall,mall,Kec. Kediri,"Kabupaten Tabanan, Bali","Kabupaten Tabanan, Bali",BALI,,Indonesia,,,,-8.5545614,115.1402899,https://maps.google.com/?cid=0x0:0x4030bfbca7d2e90,
mall,Minimarket,Toko Crystal Tabanan,"Jl. Ngurah Rai No.72, Banjar Anyar, Kec. Kediri, Kabupaten Tabanan, Bali 82121","Banjar Anyar, Kec. Kediri, Kabupaten Tabanan",BALI,82121.0,Indonesia, 081338846682,,,-8.5525902,115.140841,https://maps.google.com/?cid=0x0:0xae4da35b74742fa,
mall,Minimarket,Jepun Bali Mart,"C49H+CQ3, Jl. Tanah Lot, Pandak Bandung, Kec. Kediri, Kabupaten Tabanan, Bali 82121","Jl. Tanah Lot, Pandak Bandung, Kec. Kediri, Kabupaten Tabanan",BALI,82121.0,Indonesia, 085100949787,,,-8.5814989,115.1294164,https://maps.google.com/?cid=0x0:0x26da88e41418bc55,
mall,Toko Swalayan,Clandy's Mart Tabanan 3,"Jl. Dr. Ir. Soekarno No.8, Delod Peken, Kec. Tabanan, Kabupaten Tabanan, Bali 82121","Delod Peken, Kec. Tabanan, Kabupaten Tabanan",BALI,82121.0,Indonesia, 081937920256,,,-8.5506257,115.1259101,https://maps.google.com/?cid=0x0:0x520d719cf629042b,
mall,Toko Swalayan,Coco Express Kediri,"C4XJ+54M, Jl. Dr. Ir. Soekarno, Banjar Anyar, Kec. Kediri, Kabupaten Tabanan, Bali 82121","Jl. Dr. Ir. Soekarno, Banjar Anyar, Kec. Kediri, Kabupaten Tabanan",BALI,82121.0,Indonesia, 03618941558,,,-8.5520279,115.1302828,https://maps.google.com/?cid=0x0:0x90f45b3fa70555af,
mall,Pusat Perbelanjaan,Alpha casual,"Jl. Terunajaya No.20, Kediri, Kec. Kediri, Kabupaten Tabanan, Bali 82121","Kediri, Kec. Kediri, Kabupaten Tabanan",BALI,82121.0,Indonesia, 087862979829,,,-8.5667393,115.1338869,https://maps.google.com/?cid=0x0:0x3c7ab4db859c7578,
mall,Toko Pakaian,D’Shary Hijab  Fashion,"Jl. Ahmad Yani No.64, Banjar Anyar, Kec. Kediri, Kabupaten Tabanan, Bali 82121","Banjar Anyar, Kec. Kediri, Kabupaten Tabanan",BALI,82121.0,Indonesia, 081239306951,,,-8.5549644,115.1416019,https://maps.google.com/?cid=0x0:0x496cf6c6576de44,
mall,Pusat Perbelanjaan,toko kasih kediri,"Jl. Wagimin No.9, Kediri, Kec. Kediri, Kabupaten Tabanan, Bali 82121","Kediri, Kec. Kediri, Kabupaten Tabanan",BALI,82121.0,Indonesia, 081246578271,,,-8.559431,115.1400956,https://maps.google.com/?cid=0x0:0x198f05dcd67f072d,
mall,Pusat Perbelanjaan,RATU UNGGAS BALI,"Perumahan Lebah Asri No. 79 Jalan Banjar Dajan Tenten, Banjar Anyar, Kec. Kediri, Kabupaten Tabanan, Bali 82121","Banjar Anyar, Kec. Kediri, Kabupaten Tabanan",BALI,82121.0,Indonesia, 085101496521,,,-8.5427545,115.1476188,https://maps.google.com/?cid=0x0:0xb4beec78947d38a9,
mall,Pusat Perbelanjaan,Sari Luwih 2,"Jl. Gatot Subroto II No.99, Banjar Anyar, Kec. Kediri, Kabupaten Tabanan, Bali 82121","Banjar Anyar, Kec. Kediri, Kabupaten Tabanan",BALI,82121.0,Indonesia, 087863205486,,,-8.5438693,115.1401842,https://maps.google.com/?cid=0x0:0x5854bc8c2485e30d,
mall,Toko Pakaian,Pasar kodok,"Jl. Anggrek Gg. I No.14, Dauh Peken, Kec. Tabanan, Kabupaten Tabanan, Bali 82113","Dauh Peken, Kec. Tabanan, Kabupaten Tabanan",BALI,82113.0,Indonesia,,,,-8.5450556,115.1222022,https://maps.google.com/?cid=0x0:0x2d8bc6147be0e94c,
mall,Toko Tas Tangan,Suplaer rattan bags bali indonesia,"F45M+QPM, Jl. Gatot Subroto, Delod Peken, Kec. Tabanan, Kabupaten Tabanan, Bali 82121","Jl. Gatot Subroto, Delod Peken, Kec. Tabanan, Kabupaten Tabanan",BALI,82121.0,Indonesia, 085239504348,,,-8.5405367,115.1343069,https://maps.google.com/?cid=0x0:0x6ce4dd810f10dc0a,
mall,Toko,Toko Miranda,"F43R+XMH, Jl. Gatot Subroto, Banjar Anyar, Kec. Kediri, Kabupaten Tabanan, Bali 82121","Jl. Gatot Subroto, Banjar Anyar, Kec. Kediri, Kabupaten Tabanan",BALI,82121.0,Indonesia, 0361812362,,,-8.5450741,115.1417355,https://maps.google.com/?cid=0x0:0xce5180c7369d855e,
mall,Toko Suvenir,Sambilan Gifts Tabanan,"Jl. Ahmad Yani V No.2, Abian Tuwung, Kec. Kediri, Kabupaten Tabanan, Bali 82121","Abian Tuwung, Kec. Kediri, Kabupaten Tabanan",BALI,82121.0,Indonesia, 085858305516,,,-8.5588492,115.1466231,https://maps.google.com/?cid=0x0:0x911e96970946e56b,
mall,Toko Suvenir,Toko Kadek Kediri,"No. 82171, Jl. MH. Thamrin No.96, Kediri, Kec. Kediri, Kabupaten Tabanan, Bali 82121","Jl. MH. Thamrin No.96, Kediri, Kec. Kediri, Kabupaten Tabanan",BALI,82121.0,Indonesia,,,,-8.5579165,115.1390669,https://maps.google.com/?cid=0x0:0xfcf6a3fe76b85c08,
mall,Pusat Perbelanjaan,GENTA SIDE,"F46X+89M, Banjar Anyar, Kec. Kediri, Kabupaten Tabanan, Bali 82121","Banjar Anyar, Kec. Kediri, Kabupaten Tabanan",BALI,82121.0,Indonesia,,,,-8.5391317,115.1484204,https://maps.google.com/?cid=0x0:0x40aa76317e73409f,
mall,mall,Lokasi terkini,"C4JM+RC9, Kediri, Kec. Kediri, Kabupaten Tabanan, Bali 82121","Kediri, Kec. Kediri, Kabupaten Tabanan",BALI,82121.0,Indonesia,,,,-8.567958,115.1336156,https://maps.google.com/?cid=0x0:0x2c60be2d6f0483fc,
mall,Pusat Perbelanjaan,atd.bali,"Jl. Tendean No.68, Banjar Anyar, Kec. Kediri, Kabupaten Tabanan, Bali 82121","Banjar Anyar, Kec. Kediri, Kabupaten Tabanan",BALI,82121.0,Indonesia, 085951386529,,,-8.5381989,115.1457554,https://maps.google.com/?cid=0x0:0xe2b9cbf92d8b161b,
mall,Toko Pakaian,GUNGGEK SHIO,"C4RR+XCW, Jl. Wagimin, Kediri, Kec. Kediri, Kabupaten Tabanan, Bali 82121","Jl. Wagimin, Kediri, Kec. Kediri, Kabupaten Tabanan",BALI,82121.0,Indonesia,,,,-8.5574734,115.1410616,https://maps.google.com/?cid=0x0:0x9345b7a91cbb00d0,
mall,Pusat Perbelanjaan,Kediri Mall,"Jl. Hayam Wuruk No.46, Dandangan, Kec. Kota, Kabupaten Kediri, Jawa Timur 64122","Dandangan, Kec. Kota, Kabupaten Kediri",BALI,64122.0,Indonesia, 085785349963,,,-7.8156449,112.0189881,https://maps.google.com/?cid=0x0:0x2994dfd9f3dbdfa5,
mall,Pusat Perbelanjaan,Kediri Town Square,"Jl. Hasanudin No.2, Balowerti, Kec. Kota, Kota Kediri, Jawa Timur 64129","Balowerti, Kec. Kota, Kota Kediri",BALI,64129.0,Indonesia, 0354673838,,,-7.8129067,112.0157793,https://maps.google.com/?cid=0x0:0x238b1d6bc49da7ac,
mall,Toko,Elite Footwear Supply,"Jl. Ahmad Yani No.82, Banjar Anyar, Kec. Kediri, Kabupaten Tabanan, Bali 82121","Banjar Anyar, Kec. Kediri, Kabupaten Tabanan",BALI,82121.0,Indonesia, 087760345615,,,-8.5547679,115.1410661,https://maps.google.com/?cid=0x0:0x9c5fea9e153532a5,
mall,Pusat Perbelanjaan,Warung Mogi Mesari,"Jl. MH. Thamrin No.115-113, Kediri, Kec. Kediri, Kabupaten Tabanan, Bali 82121","Kediri, Kec. Kediri, Kabupaten Tabanan",BALI,82121.0,Indonesia, 085738359049,,,-8.5582067,115.1390247,https://maps.google.com/?cid=0x0:0xcb69c1c1811916b2,
mall,Pusat Perbelanjaan,Transmart Kediri Mall,"Sriratu, Lt. 3 Mall, Jl. Joyoboyo No.10, Dandangan, Kec. Kota, Kota Kediri, Jawa Timur 64129","Lt. 3 Mall, Jl. Joyoboyo No.10, Dandangan, Kec. Kota, Kota Kediri",BALI,64129.0,Indonesia, 082208255186,,,-7.8160578,112.0197418,https://maps.google.com/?cid=0x0:0x92797bd63ac16b4f,
mall,Toko Pakaian,Matahari Kediri Town Square,"Jl. Hasanudin No.2, Balowerti, Kec. Kota, Kota Kediri, Jawa Timur 64129","Balowerti, Kec. Kota, Kota Kediri",BALI,64129.0,Indonesia, 0354673900,,,-7.8129774,112.0157512,https://maps.google.com/?cid=0x0:0x761885e8fa5ab61e,
mall,Pusat Perbelanjaan,Dhoho Plaza Kediri,"Jl. Brigjen Katamso No.1A, Kp. Dalem, Kec. Kota, Kota Kediri, Jawa Timur 64129","Kp. Dalem, Kec. Kota, Kota Kediri",BALI,64129.0,Indonesia,,,,-7.8277156,112.0107688,https://maps.google.com/?cid=0x0:0x5c6352d797c1c863,
mall,Toko,Ramayana Mall Kediri,"Jl. Panglima Sudirman, Ringin Anom, Kec. Kota, Kota Kediri, Jawa Timur 64129","Ringin Anom, Kec. Kota, Kota Kediri",BALI,64129.0,Indonesia,,,,-7.8226431,112.0111854,https://maps.google.com/?cid=0x0:0x9ddfffc6d75c6e07,
mall,Pusat Perbelanjaan,MINISO KEDIRI MALL,"Dandangan, Kec. Kota, Kota Kediri, Jawa Timur","Kota Kediri, Jawa Timur",BALI,,Indonesia, 085855320354,,,-7.8156262,112.0191102,https://maps.google.com/?cid=0x0:0x71b16d9b00001dba,
mall,mall,Bali 82163,"Kec. Pupuan, Kabupaten Tabanan, Bali","Kabupaten Tabanan, Bali",BALI,,Indonesia,,,,-8.360244,115.0228736,https://maps.google.com/?cid=0x0:0x1c00c5eb6016c220,
mall,Pembangunan Perumahan,Anggasari Pupuan,"JXQ6+PW7, Anggasari, Kec. Pupuan, Kabupaten Tabanan, Bali 82163","Anggasari, Kec. Pupuan, Kabupaten Tabanan",BALI,82163.0,Indonesia,,,,-8.3607028,114.9622969,https://maps.google.com/?cid=0x0:0x715f8d8d2216c65b,
mall,Pusat Perbelanjaan,ERA COLLECTION,"M2FH+2W4, Pujungan, Kec. Pupuan, Kabupaten Tabanan, Bali 82163","Pujungan, Kec. Pupuan, Kabupaten Tabanan",BALI,82163.0,Indonesia,,,,-8.3274881,115.0298193,https://maps.google.com/?cid=0x0:0x3909ee275e6b49eb,
mall,Pusat Perbelanjaan,Toko Nova Belimbing,"Belimbing, Kec. Pupuan, Kabupaten Tabanan, Bali 82163","Kec. Pupuan, Kabupaten Tabanan",BALI,82163.0,Indonesia, 081337244362,,,-8.3879336,115.0342899,https://maps.google.com/?cid=0x0:0xd6bae2e1a5ed9d32,
mall,Pusat Perbelanjaan,Pak Eldi's Mart,"JXCQ+PF6, Kb. Padangan, Kec. Pupuan, Kabupaten Tabanan, Bali 82163","Kb. Padangan, Kec. Pupuan, Kabupaten Tabanan",BALI,82163.0,Indonesia, 087753212424,,,-8.3782216,114.988637,https://maps.google.com/?cid=0x0:0x4861146f14354f8,
mall,Pusat Perbelanjaan,UD. Bangsing Indah,"Jl. Bangsing No.16, Batungsel, Kec. Pupuan, Kabupaten Tabanan, Bali 82163","Batungsel, Kec. Pupuan, Kabupaten Tabanan",BALI,82163.0,Indonesia, 087761569363,,,-8.3419574,115.0299042,https://maps.google.com/?cid=0x0:0xca5c0836b51538c6,
mall,Pusat Perbelanjaan,Thin Nick Bird Farm,"JX84+M99, Munduk Temu, Kec. Pupuan, Kabupaten Tabanan, Bali 82163","Munduk Temu, Kec. Pupuan, Kabupaten Tabanan",BALI,82163.0,Indonesia, 085737674454,,,-8.3833259,114.9559791,https://maps.google.com/?cid=0x0:0xdc295e5f839cb330,
mall,Toko Perlengkapan Rumah,UD KRISNA JAYA,"J253+4HH, Jelijih Punggung, Kec. Pupuan, Kabupaten Tabanan, Bali 82163","Jelijih Punggung, Kec. Pupuan, Kabupaten Tabanan",BALI,82163.0,Indonesia,,,,-8.392157,115.0038884,https://maps.google.com/?cid=0x0:0x23ef6d18737d186f,
mall,Toko,Jerink bonzai,"MXRR+P33, Jl. Raya Bantiran, Bantiran, Kec. Pupuan, Kabupaten Tabanan, Bali 82163","Jl. Raya Bantiran, Bantiran, Kec. Pupuan, Kabupaten Tabanan",BALI,82163.0,Indonesia, 087860606700,,,-8.3082404,114.990179,https://maps.google.com/?cid=0x0:0xee9d508462ee8c4,
mall,Mesin Sangrai Kopi,KOPI PUJUNGSARI,"M2CH+96X, Pujungan, Kec. Pupuan, Kabupaten Tabanan, Bali 82163","Pujungan, Kec. Pupuan, Kabupaten Tabanan",BALI,82163.0,Indonesia, 087860220760,,,-8.329011,115.0281076,https://maps.google.com/?cid=0x0:0xe9ad6765c83db62f,
mall,Toko Pakaian,Busana kebaya sri,"M2FJ+25W, Pujungan, Kec. Pupuan, Kabupaten Tabanan, Bali 82163","Pujungan, Kec. Pupuan, Kabupaten Tabanan",BALI,82163.0,Indonesia, 081999984889,,,-8.3273912,115.030464,https://maps.google.com/?cid=0x0:0x5b866aaca3e59003,
mall,Pusat Perbelanjaan,Usaha Warung Buk Ayu,"M2MV+WC2, Pujungan, Kec. Pupuan, Kabupaten Tabanan, Bali 82163","Pujungan, Kec. Pupuan, Kabupaten Tabanan",BALI,82163.0,Indonesia, 085847167773,,,-8.3152299,115.043521,https://maps.google.com/?cid=0x0:0xfb0f7fc4c81436e8,
mall,Pusat Perbelanjaan,Maco Dharma,"J2VH+F8V, Jl. Dahlia Raya, Batungsel, Kec. Pupuan, Kabupaten Tabanan, Bali 82163","Jl. Dahlia Raya, Batungsel, Kec. Pupuan, Kabupaten Tabanan",BALI,82163.0,Indonesia,,,,-8.3562533,115.0283,https://maps.google.com/?cid=0x0:0x1e706f4d8f1f077e,
mall,Pusat Perbelanjaan,Mbk Tut Kedaidoemba,"M24H+VH4, Jl. Bangsing, Batungsel, Kec. Pupuan, Kabupaten Tabanan, Bali 82163","Jl. Bangsing, Batungsel, Kec. Pupuan, Kabupaten Tabanan",BALI,82163.0,Indonesia, 081236424230,,,-8.3428679,115.02895,https://maps.google.com/?cid=0x0:0xf5461bf2eda9cc42,
mall,Pusat Perbelanjaan,Eldi's Waserba,"JXCQ+PF2, Jl. Galiukir Kaja, Kb. Padangan, Kec. Pupuan, Kabupaten Tabanan, Bali 82163","Jl. Galiukir Kaja, Kb. Padangan, Kec. Pupuan, Kabupaten Tabanan",BALI,82163.0,Indonesia, 087862686688,,,-8.3782441,114.9886453,https://maps.google.com/?cid=0x0:0xe3229cd90e9449d4,
mall,Pusat Perbelanjaan,Bumdes Karya Mesari. Desa Karya Sari,"H2XR+MH5, Karya Sari, Kec. Pupuan, Kabupaten Tabanan, Bali 82163","Karya Sari, Kec. Pupuan, Kabupaten Tabanan",BALI,82163.0,Indonesia, 081228618125,,,-8.4008668,115.0414704,https://maps.google.com/?cid=0x0:0xafa046eff0a8a43a,
mall,Toko umum,CANTIK MART,"HXGG+W4M BR.Dinas pengedan, Mundeh, Kec. Selemadeg Bar., Kabupaten Tabanan, Bali 82162","Mundeh, Kec. Selemadeg Bar., Kabupaten Tabanan",BALI,82162.0,Indonesia, 081239325647,,,-8.4226688,114.9752818,https://maps.google.com/?cid=0x0:0xd20396202d99bec4,
mall,Toko,UD.Wija Murthi,"Jl. Antosari Pupuan, Belimbing, Kec. Pupuan, Kabupaten Tabanan, Bali 82163","Belimbing, Kec. Pupuan, Kabupaten Tabanan",BALI,82163.0,Indonesia, 082144013195,,,-8.4364193,115.0269878,https://maps.google.com/?cid=0x0:0x9d07ead534c3a25f,
mall,Pusat Perbelanjaan,Warung Buk Winda,"JXG6+RG, Munduk Temu, Kec. Pupuan, Kabupaten Tabanan, Bali 82163","Munduk Temu, Kec. Pupuan, Kabupaten Tabanan",BALI,82163.0,Indonesia,,,,-8.3736853,114.9613338,https://maps.google.com/?cid=0x0:0x59dc9e7aec39f74e,
mall,Pusat Perbelanjaan,Rahayu Shop,"M2CH+HW9, mertasari, Pujungan, Kec. Pupuan, Kabupaten Tabanan, Bali 82163","mertasari, Pujungan, Kec. Pupuan, Kabupaten Tabanan",BALI,82163.0,Indonesia,,,,-8.3285862,115.0298632,https://maps.google.com/?cid=0x0:0x2ad48aa47bd63fe6,
mall,mall,Rindik Bali,"F2WQ+V9H, Sarampingan, Kec. Selemadeg, Kabupaten Tabanan, Bali 82162","Sarampingan, Kec. Selemadeg, Kabupaten Tabanan",BALI,82162.0,Indonesia, 081805342226,,,-8.5028006,115.038474,https://maps.google.com/?cid=0x0:0x4f68196b77f792bf,
mall,mall,Selemadeg,"Selemadeg, Kec. Selemadeg, Kabupaten Tabanan, Bali","Kabupaten Tabanan, Bali",BALI,,Indonesia,,,,-8.491588,115.0457,https://maps.google.com/?cid=0x0:0xc12bf47119051a54,
mall,Pusat Perbelanjaan,PREFIX STORE,"G227+4HQ, Antosari, Kec. Selemadeg Bar., Kabupaten Tabanan, Bali 82162","Antosari, Kec. Selemadeg Bar., Kabupaten Tabanan",BALI,82162.0,Indonesia, 087860000753,,,-8.4996608,115.0139761,https://maps.google.com/?cid=0x0:0x1e40dc0c368bce3,
mall,Salon Kecantikan,"She Collection, Tabanan","Jl. Mawar No.26 A, Delod Peken, Kec. Tabanan, Kabupaten Tabanan, Bali 82121","Delod Peken, Kec. Tabanan, Kabupaten Tabanan",BALI,82121.0,Indonesia, 03617991639,,,-8.5462499,115.1243265,https://maps.google.com/?cid=0x0:0x7fc403869b7ba239,
mall,Toko Swalayan,Clandy's Mart Tabanan 3,"Jl. Dr. Ir. Soekarno No.8, Delod Peken, Kec. Tabanan, Kabupaten Tabanan, Bali 82121","Delod Peken, Kec. Tabanan, Kabupaten Tabanan",BALI,82121.0,Indonesia, 081937920256,,,-8.5506257,115.1259101,https://maps.google.com/?cid=0x0:0x520d719cf629042b,
mall,Pusat Perbelanjaan,POLO Kampoeng Lot,"Jalan By Pass Tanah Lot No. 10, Kediri, Beraban, Kec. Tabanan, Kabupaten Tabanan, Bali 82121","Kediri, Beraban, Kec. Tabanan, Kabupaten Tabanan",BALI,82121.0,Indonesia, 082112288397,,,-8.6065059,115.1078266,https://maps.google.com/?cid=0x0:0x3478ee62d5c5e3b5,
mall,mall,Selemadeg,"Selemadeg, Kec. Selemadeg, Kabupaten Tabanan, Bali","Kabupaten Tabanan, Bali",BALI,,Indonesia,,,,-8.491588,115.0457,https://maps.google.com/?cid=0x0:0xc12bf47119051a54,
mall,mall,Rindik Bali,"F2WQ+V9H, Sarampingan, Kec. Selemadeg, Kabupaten Tabanan, Bali 82162","Sarampingan, Kec. Selemadeg, Kabupaten Tabanan",BALI,82162.0,Indonesia, 081805342226,,,-8.5028006,115.038474,https://maps.google.com/?cid=0x0:0x4f68196b77f792bf,
mall,Toko umum,CANTIK MART,"HXGG+W4M BR.Dinas pengedan, Mundeh, Kec. Selemadeg Bar., Kabupaten Tabanan, Bali 82162","Mundeh, Kec. Selemadeg Bar., Kabupaten Tabanan",BALI,82162.0,Indonesia, 081239325647,,,-8.4226688,114.9752818,https://maps.google.com/?cid=0x0:0xd20396202d99bec4,
mall,Toko Swalayan,Clandy's Mart Tabanan 3,"Jl. Dr. Ir. Soekarno No.8, Delod Peken, Kec. Tabanan, Kabupaten Tabanan, Bali 82121","Delod Peken, Kec. Tabanan, Kabupaten Tabanan",BALI,82121.0,Indonesia, 081937920256,,,-8.5506257,115.1259101,https://maps.google.com/?cid=0x0:0x520d719cf629042b,
mall,Hotel,Bali Organic Center,"Jl.Rajawali, Banjar Menungul, Bajera Utara, Kec. Selemadeg, Kabupaten Tabanan, Bali","Kabupaten Tabanan, Bali",BALI,,Indonesia, 082146578428,,,-8.4748748,115.0363828,https://maps.google.com/?cid=0x0:0x4a88dbdecad4b6a0,
mall,mall,Selemadeg,"Selemadeg, Kec. Selemadeg, Kabupaten Tabanan, Bali","Kabupaten Tabanan, Bali",BALI,,Indonesia,,,,-8.491588,115.0457,https://maps.google.com/?cid=0x0:0xc12bf47119051a54,
mall,Salon Kecantikan,"She Collection, Tabanan","Jl. Mawar No.26 A, Delod Peken, Kec. Tabanan, Kabupaten Tabanan, Bali 82121","Delod Peken, Kec. Tabanan, Kabupaten Tabanan",BALI,82121.0,Indonesia, 03617991639,,,-8.5462499,115.1243265,https://maps.google.com/?cid=0x0:0x7fc403869b7ba239,
mall,Toko Swalayan,Clandy's Mart Tabanan 3,"Jl. Dr. Ir. Soekarno No.8, Delod Peken, Kec. Tabanan, Kabupaten Tabanan, Bali 82121","Delod Peken, Kec. Tabanan, Kabupaten Tabanan",BALI,82121.0,Indonesia, 081937920256,,,-8.5506257,115.1259101,https://maps.google.com/?cid=0x0:0x520d719cf629042b,
mall,mall,Bali 82111,"Dauh Peken, Kec. Tabanan, Kabupaten Tabanan, Bali","Kabupaten Tabanan, Bali",BALI,,Indonesia,,,,-8.5409595,115.1238186,https://maps.google.com/?cid=0x0:0xbf92027fe4bf1db1,
mall,Salon Kecantikan,"She Collection, Tabanan","Jl. Mawar No.26 A, Delod Peken, Kec. Tabanan, Kabupaten Tabanan, Bali 82121","Delod Peken, Kec. Tabanan, Kabupaten Tabanan",BALI,82121.0,Indonesia, 03617991639,,,-8.5462499,115.1243265,https://maps.google.com/?cid=0x0:0x7fc403869b7ba239,
mall,Pusat Perbelanjaan,Bali Okane,"Jl. Mawar No.116, Delod Peken, Kec. Tabanan, Kabupaten Tabanan, Bali 82121","Delod Peken, Kec. Tabanan, Kabupaten Tabanan",BALI,82121.0,Indonesia, 085955099778,,,-8.5552487,115.1218231,https://maps.google.com/?cid=0x0:0xdcb2f708217bc8e3,
mall,Pasar,Pasar tradisional tabanan,"Jl. Gunung Semeru No.68, Delod Peken, Kec. Tabanan, Kabupaten Tabanan, Bali 82121","Delod Peken, Kec. Tabanan, Kabupaten Tabanan",BALI,82121.0,Indonesia,,,,-8.5385512,115.1259958,https://maps.google.com/?cid=0x0:0xc6b257bb9400760a,
mall,mall,Mataram Mall Tabanan,"F46F+XVG, Delod Peken, Kec. Tabanan, Kabupaten Tabanan, Bali 82113","Delod Peken, Kec. Tabanan, Kabupaten Tabanan",BALI,82113.0,Indonesia,,,,-8.5375566,115.1246918,https://maps.google.com/?cid=0x0:0x38d8c7e0846206e,
mall,mall,Bali 82112,"Bongan, Kec. Tabanan, Kabupaten Tabanan, Bali","Kabupaten Tabanan, Bali",BALI,,Indonesia,,,,-8.5588496,115.1088704,https://maps.google.com/?cid=0x0:0xfa710f41553e98e9,
mall,Salon Kecantikan,"She Collection, Tabanan","Jl. Mawar No.26 A, Delod Peken, Kec. Tabanan, Kabupaten Tabanan, Bali 82121","Delod Peken, Kec. Tabanan, Kabupaten Tabanan",BALI,82121.0,Indonesia, 03617991639,,,-8.5462499,115.1243265,https://maps.google.com/?cid=0x0:0x7fc403869b7ba239,
mall,Pusat Perbelanjaan,Bali Okane,"Jl. Mawar No.116, Delod Peken, Kec. Tabanan, Kabupaten Tabanan, Bali 82121","Delod Peken, Kec. Tabanan, Kabupaten Tabanan",BALI,82121.0,Indonesia, 085955099778,,,-8.5552487,115.1218231,https://maps.google.com/?cid=0x0:0xdcb2f708217bc8e3,
mall,Pusat Perbelanjaan,Denanashopp,"pala Jalan Kebo Iwa No.br, Bongan, Kec. Tabanan, Kabupaten Tabanan, Bali 82112","Bongan, Kec. Tabanan, Kabupaten Tabanan",BALI,82112.0,Indonesia, 08385525799,,,-8.5563276,115.1181082,https://maps.google.com/?cid=0x0:0x2e2f308ee9e68be8,
mall,Pusat Perbelanjaan,POLO Kampoeng Lot,"Jalan By Pass Tanah Lot No. 10, Kediri, Beraban, Kec. Tabanan, Kabupaten Tabanan, Bali 82121","Kediri, Beraban, Kec. Tabanan, Kabupaten Tabanan",BALI,82121.0,Indonesia, 082112288397,,,-8.6065059,115.1078266,https://maps.google.com/?cid=0x0:0x3478ee62d5c5e3b5,
mall,Pusat Perbelanjaan,CemalCemil_Tbn,"Jl. Graha Pertiwi No.42 Blok D, Bongan, Kec. Tabanan, Kabupaten Tabanan, Bali 82112","Bongan, Kec. Tabanan, Kabupaten Tabanan",BALI,82112.0,Indonesia,,,,-8.5557713,115.1110933,https://maps.google.com/?cid=0x0:0x4ba34d5869a8f3f8,
mall,Pasar,Pasar tradisional tabanan,"Jl. Gunung Semeru No.68, Delod Peken, Kec. Tabanan, Kabupaten Tabanan, Bali 82121","Delod Peken, Kec. Tabanan, Kabupaten Tabanan",BALI,82121.0,Indonesia,,,,-8.5385512,115.1259958,https://maps.google.com/?cid=0x0:0xc6b257bb9400760a,
mall,Pusat Perbelanjaan,Agung Yadnya,"Jl. Anyelir, bongan kauh, Kec. Tabanan, Kabupaten Tabanan, Bali 82112","bongan kauh, Kec. Tabanan, Kabupaten Tabanan",BALI,82112.0,Indonesia, 081936577099,,,-8.5554484,115.1083618,https://maps.google.com/?cid=0x0:0x438ec1911d39e14b,
mall,Toko Pakaian,Toko Jegus,"Jl. Kebo Iwa Bongan, Bongan, Kec. Tabanan, Kabupaten Tabanan, Bali 82112","Bongan, Kec. Tabanan, Kabupaten Tabanan",BALI,82112.0,Indonesia, 081339519726,,,-8.5619884,115.1105157,https://maps.google.com/?cid=0x0:0x7a4e904237d0afb2,
mall,Toko,Wr. Buk Okta,"C4R4+82, Bongan, Kec. Tabanan, Kabupaten Tabanan, Bali 82112","Bongan, Kec. Tabanan, Kabupaten Tabanan",BALI,82112.0,Indonesia,,,,-8.5591838,115.1050754,https://maps.google.com/?cid=0x0:0x6c068bcb64352aeb,
mall,Toko Barang Antik,Margi keris,"C4Q2+456, Unnamed Road, Gubug, Tabanan, Tabanan Regency, Bali 82115","Unnamed Road, Gubug, Tabanan, Tabanan Regency",BALI,82115.0,Indonesia, 081338094747,,,-8.5622131,115.1003772,https://maps.google.com/?cid=0x0:0xb3d3cb35c9e36d6f,
mall,Toko Kosmetik,ertos tabanan,"C4WF+WV4, Jl. Ceroring, Delod Peken, Kec. Tabanan, Kabupaten Tabanan, Bali 82121","Jl. Ceroring, Delod Peken, Kec. Tabanan, Kabupaten Tabanan",BALI,82121.0,Indonesia, 08980736899,,,-8.5527374,115.1247131,https://maps.google.com/?cid=0x0:0xfbb53df9ff8715cd,
mall,Toko,Paduma Fresh 2,"BR Pekraman Adat Tanah Pegat Gg. No.01, Gubug, Kec. Tabanan, Kabupaten Tabanan, Bali 82112","Gubug, Kec. Tabanan, Kabupaten Tabanan",BALI,82112.0,Indonesia, 081338804533,,,-8.5537734,115.1028129,https://maps.google.com/?cid=0x0:0xc54ccb91de59a5ec,
mall,Toko bahan makanan,VISTA GROSIR ECERAN,"Jl. Pulau Batam No.33, Dauh Peken, Kec. Tabanan, Kabupaten Tabanan, Bali 82111","Dauh Peken, Kec. Tabanan, Kabupaten Tabanan",BALI,82111.0,Indonesia, 082218404243,,,-8.5359516,115.1126627,https://maps.google.com/?cid=0x0:0xaa40c9287a2a1a4a,
mall,Kantor Pemerintahan Daerah,Mal Pelayanan Publik Kabupaten Tabanan (Sanggulan),"Jl. Nakula No.17, Delod Peken, Kec. Tabanan, Kabupaten Tabanan, Bali 82121","Delod Peken, Kec. Tabanan, Kabupaten Tabanan",BALI,82121.0,Indonesia,,,,-8.5432008,115.1388609,https://maps.google.com/?cid=0x0:0xcb2df2ba262ebf4b,
mall,Pusat Perbelanjaan,Sri merta,"C4F4+RXR, Pejaten, Kec. Kediri, Kabupaten Tabanan, Bali 82121","Pejaten, Kec. Kediri, Kabupaten Tabanan",BALI,82121.0,Indonesia, 081236643054,,,-8.57538,115.1073879,https://maps.google.com/?cid=0x0:0x7c37b54959c9217e,
mall,Toko Percetakan,Delia Design And Printing,"C3JX+XM2, br wanasara kelod, bongan, Bongan, Kec. Tabanan, Kabupaten Tabanan, Bali 82112","br wanasara kelod, bongan, Bongan, Kec. Tabanan, Kabupaten Tabanan",BALI,82112.0,Indonesia, 085738922259,,,-8.5676222,115.0991485,https://maps.google.com/?cid=0x0:0x61c89ec0717e4ae5,
mall,Toko,Elite Footwear Supply,"Jl. Ahmad Yani No.82, Banjar Anyar, Kec. Kediri, Kabupaten Tabanan, Bali 82121","Banjar Anyar, Kec. Kediri, Kabupaten Tabanan",BALI,82121.0,Indonesia, 087760345615,,,-8.5547679,115.1410661,https://maps.google.com/?cid=0x0:0x9c5fea9e153532a5,
mall,Toserba,Ukm Mart Desa Pejaten,"C4F4+5GC, Banjar, Pejaten, Kec. Kediri, Kabupaten Tabanan, Bali 82121","Banjar, Pejaten, Kec. Kediri, Kabupaten Tabanan",BALI,82121.0,Indonesia,,,,-8.5770676,115.1062722,https://maps.google.com/?cid=0x0:0x55aeeeeece729afa,
mall,Kafe,Cengolo Corner,"C3GQ+R35, Jalan Yeh Gangga, Desa Sudimara, Banjar, Cengolo, Kec. Tabanan, Kabupaten Tabanan, Bali 82121","Jalan Yeh Gangga, Desa Sudimara, Banjar, Cengolo, Kec. Tabanan, Kabupaten Tabanan",BALI,82121.0,Indonesia, 085935129523,,,-8.5729908,115.0877475,https://maps.google.com/?cid=0x0:0xd6aee903d0abb25a,
mall,Pusat Perbelanjaan,WR Ibu Aska,"C4J6+3MM, Bongan, Kec. Tabanan, Kabupaten Tabanan, Bali 82121","Bongan, Kec. Tabanan, Kabupaten Tabanan",BALI,82121.0,Indonesia, 087846324254,,,-8.5697948,115.111681,https://maps.google.com/?cid=0x0:0x5132a89671cb1cac,
mall,Layanan B2B,Paloma Shopway DS Gek Widya Tabanan,"C4C3+8J5, Banjar Simpangan, Desa, Pejaten, Kec. Kediri, Kabupaten Tabanan, Bali 82121","Banjar Simpangan, Desa, Pejaten, Kec. Kediri, Kabupaten Tabanan",BALI,82121.0,Indonesia, 081338441253,,,-8.5792364,115.104111,https://maps.google.com/?cid=0x0:0xfeb10e5a4741944e,
mall,Bengkel Sepeda Motor,KaratMotorcycle Tabanan,"Bongan, Kec. Tabanan, Kabupaten Tabanan, Bali 82115","Kec. Tabanan, Kabupaten Tabanan",BALI,82115.0,Indonesia, 081916622899,,,-8.5750332,115.0965552,https://maps.google.com/?cid=0x0:0x2d1f8f10d1082ca1,
mall,Salon Kecantikan,"She Collection, Tabanan","Jl. Mawar No.26 A, Delod Peken, Kec. Tabanan, Kabupaten Tabanan, Bali 82121","Delod Peken, Kec. Tabanan, Kabupaten Tabanan",BALI,82121.0,Indonesia, 03617991639,,,-8.5462499,115.1243265,https://maps.google.com/?cid=0x0:0x7fc403869b7ba239,
mall,mall,Bali 82113,"Dauh Peken, Kec. Tabanan, Kabupaten Tabanan, Bali","Kabupaten Tabanan, Bali",BALI,,Indonesia,,,,-8.5442373,115.1192478,https://maps.google.com/?cid=0x0:0x55f8251245920e90,
mall,Toko Swalayan,Clandy's Mart Tabanan 3,"Jl. Dr. Ir. Soekarno No.8, Delod Peken, Kec. Tabanan, Kabupaten Tabanan, Bali 82121","Delod Peken, Kec. Tabanan, Kabupaten Tabanan",BALI,82121.0,Indonesia, 081937920256,,,-8.5506257,115.1259101,https://maps.google.com/?cid=0x0:0x520d719cf629042b,
mall,Toko Pakaian,Pasar kodok,"Jl. Anggrek Gg. I No.14, Dauh Peken, Kec. Tabanan, Kabupaten Tabanan, Bali 82113","Dauh Peken, Kec. Tabanan, Kabupaten Tabanan",BALI,82113.0,Indonesia,,,,-8.5450556,115.1222022,https://maps.google.com/?cid=0x0:0x2d8bc6147be0e94c,
mall,Pasar,Pasar tradisional tabanan,"Jl. Gunung Semeru No.68, Delod Peken, Kec. Tabanan, Kabupaten Tabanan, Bali 82121","Delod Peken, Kec. Tabanan, Kabupaten Tabanan",BALI,82121.0,Indonesia,,,,-8.5385512,115.1259958,https://maps.google.com/?cid=0x0:0xc6b257bb9400760a,
mall,Pusat Perbelanjaan,POLO Kampoeng Lot,"Jalan By Pass Tanah Lot No. 10, Kediri, Beraban, Kec. Tabanan, Kabupaten Tabanan, Bali 82121","Kediri, Beraban, Kec. Tabanan, Kabupaten Tabanan",BALI,82121.0,Indonesia, 082112288397,,,-8.6065059,115.1078266,https://maps.google.com/?cid=0x0:0x3478ee62d5c5e3b5,
mall,Pasar,Pasar Besar Tabanan,"F46G+GJ4, Delod Peken, Kec. Tabanan, Kabupaten Tabanan, Bali 82113","Delod Peken, Kec. Tabanan, Kabupaten Tabanan",BALI,82113.0,Indonesia,,,,-8.5387351,115.126571,https://maps.google.com/?cid=0x0:0xa389eef062b8d7d,
mall,Pasar,Pasar Senggol Tabanan,"F46F+CVW, Jl. Gajah Mada, Delod Peken, Kec. Tabanan, Kabupaten Tabanan, Bali 82113","Jl. Gajah Mada, Delod Peken, Kec. Tabanan, Kabupaten Tabanan",BALI,82113.0,Indonesia,,,,-8.5388903,115.1247149,https://maps.google.com/?cid=0x0:0x238963059b3a6886,
mall,Toko Elektronik,Toko Sampurna,"Jl. Gajah Mada No.85, Delod Peken, Kec. Tabanan, Kabupaten Tabanan, Bali 82113","Delod Peken, Kec. Tabanan, Kabupaten Tabanan",BALI,82113.0,Indonesia, 0361811570,,,-8.5391217,115.1249029,https://maps.google.com/?cid=0x0:0x29af6965f0b31858,
mall,Toko bahan makanan,Agung Mart,"no, Jl. Nuri No.18, Dauh Peken, Kec. Tabanan, Kabupaten Tabanan, Bali 82114","Jl. Nuri No.18, Dauh Peken, Kec. Tabanan, Kabupaten Tabanan",BALI,82114.0,Indonesia, 082339936478,,,-8.5366857,115.1212206,https://maps.google.com/?cid=0x0:0x2022dad23f22c59a,
mall,Pusat Perbelanjaan,Decanbetta,"Jl. Taruma Negara No.7, Delod Peken, Kec. Tabanan, Kabupaten Tabanan, Bali 82121","Delod Peken, Kec. Tabanan, Kabupaten Tabanan",BALI,82121.0,Indonesia, 082146576096,,,-8.5379016,115.1295707,https://maps.google.com/?cid=0x0:0x5e58abd7fb2ce696,
mall,Kantor Pemerintahan Daerah,Mal Pelayanan Publik Kabupaten Tabanan (Sanggulan),"Jl. Nakula No.17, Delod Peken, Kec. Tabanan, Kabupaten Tabanan, Bali 82121","Delod Peken, Kec. Tabanan, Kabupaten Tabanan",BALI,82121.0,Indonesia,,,,-8.5432008,115.1388609,https://maps.google.com/?cid=0x0:0xcb2df2ba262ebf4b,
mall,Toko bahan makanan,VISTA GROSIR ECERAN,"Jl. Pulau Batam No.33, Dauh Peken, Kec. Tabanan, Kabupaten Tabanan, Bali 82111","Dauh Peken, Kec. Tabanan, Kabupaten Tabanan",BALI,82111.0,Indonesia, 082218404243,,,-8.5359516,115.1126627,https://maps.google.com/?cid=0x0:0xaa40c9287a2a1a4a,
mall,Toko Kosmetik,ARP BeautyCare,"Jl. Bedugul Sel. Asri No.8, Dauh Peken, Kec. Tabanan, Kabupaten Tabanan, Bali 82113","Dauh Peken, Kec. Tabanan, Kabupaten Tabanan",BALI,82113.0,Indonesia, 085738399254,,,-8.5493864,115.1190793,https://maps.google.com/?cid=0x0:0xcea5c35e2caacfbd,
mall,Toko,Vana Jaya,"Jl. Gajah Mada No.26, Delod Peken, Kec. Tabanan, Kabupaten Tabanan, Bali 82121","Delod Peken, Kec. Tabanan, Kabupaten Tabanan",BALI,82121.0,Indonesia, 081558971747,,,-8.5394491,115.1263281,https://maps.google.com/?cid=0x0:0x2bc708b43e61980c,
mall,Toko,PRO7xTabanan Sticker,"Asian Highway No.2, Dauh Peken, Kec. Tabanan, Kabupaten Tabanan, Bali 82113","Dauh Peken, Kec. Tabanan, Kabupaten Tabanan",BALI,82113.0,Indonesia, 082111121127,,,-8.5480652,115.1200773,https://maps.google.com/?cid=0x0:0x31d6fce5c7043529,
mall,Toko Kosmetik,ertos tabanan,"C4WF+WV4, Jl. Ceroring, Delod Peken, Kec. Tabanan, Kabupaten Tabanan, Bali 82121","Jl. Ceroring, Delod Peken, Kec. Tabanan, Kabupaten Tabanan",BALI,82121.0,Indonesia, 08980736899,,,-8.5527374,115.1247131,https://maps.google.com/?cid=0x0:0xfbb53df9ff8715cd,
mall,Toko,Dunia Baut,"F46C+RGP, Jl. Pulau Menjangan, Dauh Peken, Kec. Tabanan, Kabupaten Tabanan, Bali 82113","Jl. Pulau Menjangan, Dauh Peken, Kec. Tabanan, Kabupaten Tabanan",BALI,82113.0,Indonesia, 0361811181,,,-8.5379045,115.1213151,https://maps.google.com/?cid=0x0:0x789b0c19ec4154f4,
mall,Toko Tas Tangan,Suplaer rattan bags bali indonesia,"F45M+QPM, Jl. Gatot Subroto, Delod Peken, Kec. Tabanan, Kabupaten Tabanan, Bali 82121","Jl. Gatot Subroto, Delod Peken, Kec. Tabanan, Kabupaten Tabanan",BALI,82121.0,Indonesia, 085239504348,,,-8.5405367,115.1343069,https://maps.google.com/?cid=0x0:0x6ce4dd810f10dc0a,
mall,Pusat Perbelanjaan,Toko Pandak,"F46F+HGW, Jl. Gajah Mada, Dauh Peken, Kec. Tabanan, Kabupaten Tabanan, Bali 82113","Jl. Gajah Mada, Dauh Peken, Kec. Tabanan, Kabupaten Tabanan",BALI,82113.0,Indonesia, 0361811566,,,-8.5385176,115.1238324,https://maps.google.com/?cid=0x0:0xb1f2fa8b38a42d1b,
mall,,Ud.Paras Gede,"F44C+59M, Jl. Jepun, Dauh Peken, Kec. Tabanan, Kabupaten Tabanan, Bali 82113","Jl. Jepun, Dauh Peken, Kec. Tabanan, Kabupaten Tabanan",BALI,82113.0,Indonesia, 08123833152,,,-8.5445493,115.1209361,https://maps.google.com/?cid=0x0:0x7cfada82a5ef577e,
mall,Pusat Perbelanjaan,Sari Luwih 1,"Jl. Nangka No.2, Delod Peken, Kec. Tabanan, Kabupaten Tabanan, Bali 82121","Delod Peken, Kec. Tabanan, Kabupaten Tabanan",BALI,82121.0,Indonesia, 087863205486,,,-8.5447604,115.1261877,https://maps.google.com/?cid=0x0:0xeb84151c4c0cc715,
mall,mall,Bali 82114,"Kec. Tabanan, Kabupaten Tabanan, Bali","Kabupaten Tabanan, Bali",BALI,,Indonesia,,,,-8.5327676,115.1207303,https://maps.google.com/?cid=0x0:0x8fec3962d30a3ca9,
mall,Salon Kecantikan,"She Collection, Tabanan","Jl. Mawar No.26 A, Delod Peken, Kec. Tabanan, Kabupaten Tabanan, Bali 82121","Delod Peken, Kec. Tabanan, Kabupaten Tabanan",BALI,82121.0,Indonesia, 03617991639,,,-8.5462499,115.1243265,https://maps.google.com/?cid=0x0:0x7fc403869b7ba239,
mall,Toko Swalayan,Clandy's Mart Tabanan 3,"Jl. Dr. Ir. Soekarno No.8, Delod Peken, Kec. Tabanan, Kabupaten Tabanan, Bali 82121","Delod Peken, Kec. Tabanan, Kabupaten Tabanan",BALI,82121.0,Indonesia, 081937920256,,,-8.5506257,115.1259101,https://maps.google.com/?cid=0x0:0x520d719cf629042b,
mall,Toko bahan makanan,Agung Mart,"no, Jl. Nuri No.18, Dauh Peken, Kec. Tabanan, Kabupaten Tabanan, Bali 82114","Jl. Nuri No.18, Dauh Peken, Kec. Tabanan, Kabupaten Tabanan",BALI,82114.0,Indonesia, 082339936478,,,-8.5366857,115.1212206,https://maps.google.com/?cid=0x0:0x2022dad23f22c59a,
mall,Pusat Perbelanjaan,POLO Kampoeng Lot,"Jalan By Pass Tanah Lot No. 10, Kediri, Beraban, Kec. Tabanan, Kabupaten Tabanan, Bali 82121","Kediri, Beraban, Kec. Tabanan, Kabupaten Tabanan",BALI,82121.0,Indonesia, 082112288397,,,-8.6065059,115.1078266,https://maps.google.com/?cid=0x0:0x3478ee62d5c5e3b5,
mall,Pasar,Pasar tradisional tabanan,"Jl. Gunung Semeru No.68, Delod Peken, Kec. Tabanan, Kabupaten Tabanan, Bali 82121","Delod Peken, Kec. Tabanan, Kabupaten Tabanan",BALI,82121.0,Indonesia,,,,-8.5385512,115.1259958,https://maps.google.com/?cid=0x0:0xc6b257bb9400760a,
mall,Toko bahan makanan,VISTA GROSIR ECERAN,"Jl. Pulau Batam No.33, Dauh Peken, Kec. Tabanan, Kabupaten Tabanan, Bali 82111","Dauh Peken, Kec. Tabanan, Kabupaten Tabanan",BALI,82111.0,Indonesia, 082218404243,,,-8.5359516,115.1126627,https://maps.google.com/?cid=0x0:0xaa40c9287a2a1a4a,
mall,,Sunari Gong,"Jl. Raya Denpasar - Gilimanuk No.45, Samsam, Kec. Tabanan, Kabupaten Tabanan, Bali 82114","Samsam, Kec. Tabanan, Kabupaten Tabanan",BALI,82114.0,Indonesia, 081237224346,,,-8.5335696,115.111028,https://maps.google.com/?cid=0x0:0xd4d7c3c22ab19ce8,
mall,Toko,Cahya Shop,"F4CG+4G5, Jl. Bangau, Dajan Peken, Kec. Tabanan, Kabupaten Tabanan, Bali 82114","Jl. Bangau, Dajan Peken, Kec. Tabanan, Kabupaten Tabanan",BALI,82114.0,Indonesia, 085238660063,,,-8.5297279,115.1263677,https://maps.google.com/?cid=0x0:0x93e9eb3075d2277a,
mall,Kantor Pemerintahan Daerah,Mal Pelayanan Publik Kabupaten Tabanan (Sanggulan),"Jl. Nakula No.17, Delod Peken, Kec. Tabanan, Kabupaten Tabanan, Bali 82121","Delod Peken, Kec. Tabanan, Kabupaten Tabanan",BALI,82121.0,Indonesia,,,,-8.5432008,115.1388609,https://maps.google.com/?cid=0x0:0xcb2df2ba262ebf4b,
mall,Pusat Perbelanjaan,Decanbetta,"Jl. Taruma Negara No.7, Delod Peken, Kec. Tabanan, Kabupaten Tabanan, Bali 82121","Delod Peken, Kec. Tabanan, Kabupaten Tabanan",BALI,82121.0,Indonesia, 082146576096,,,-8.5379016,115.1295707,https://maps.google.com/?cid=0x0:0x5e58abd7fb2ce696,
mall,Toko,Vana Jaya,"Jl. Gajah Mada No.26, Delod Peken, Kec. Tabanan, Kabupaten Tabanan, Bali 82121","Delod Peken, Kec. Tabanan, Kabupaten Tabanan",BALI,82121.0,Indonesia, 081558971747,,,-8.5394491,115.1263281,https://maps.google.com/?cid=0x0:0x2bc708b43e61980c,
mall,Pasar,Pasar Besar Tabanan,"F46G+GJ4, Delod Peken, Kec. Tabanan, Kabupaten Tabanan, Bali 82113","Delod Peken, Kec. Tabanan, Kabupaten Tabanan",BALI,82113.0,Indonesia,,,,-8.5387351,115.126571,https://maps.google.com/?cid=0x0:0xa389eef062b8d7d,
mall,Pasar,Pasar Senggol Tabanan,"F46F+CVW, Jl. Gajah Mada, Delod Peken, Kec. Tabanan, Kabupaten Tabanan, Bali 82113","Jl. Gajah Mada, Delod Peken, Kec. Tabanan, Kabupaten Tabanan",BALI,82113.0,Indonesia,,,,-8.5388903,115.1247149,https://maps.google.com/?cid=0x0:0x238963059b3a6886,
mall,Gedung Parkir,TAMAN MAS,"F485+QGC, Jl. Raya Kutuh, Samsam, Kec. Kerambitan, Kabupaten Tabanan, Bali 82161","Jl. Raya Kutuh, Samsam, Kec. Kerambitan, Kabupaten Tabanan",BALI,82161.0,Indonesia, 0361831700,,,-8.5330552,115.1087658,https://maps.google.com/?cid=0x0:0xe0624f7a813c4601,
mall,Pusat Perbelanjaan,Qiran Shop,"Jl. Rajawali No.F, Dauh Peken, Kec. Tabanan, Kabupaten Tabanan, Bali 82114","Dauh Peken, Kec. Tabanan, Kabupaten Tabanan",BALI,82114.0,Indonesia, 082235046730,,,-8.5298996,115.1171952,https://maps.google.com/?cid=0x0:0x5c4828bf250b540d,
mall,Minimarket,Indomaret Majapahit Tabanan,"F4FP+C5H, Jl. Majapahit, Denbantas, Kec. Tabanan, Kabupaten Tabanan, Bali 82121","Jl. Majapahit, Denbantas, Kec. Tabanan, Kabupaten Tabanan",BALI,82121.0,Indonesia,,,,-8.526432,115.1354819,https://maps.google.com/?cid=0x0:0xf318625881fdc046,
mall,Toko Elektronik,Toko Sampurna,"Jl. Gajah Mada No.85, Delod Peken, Kec. Tabanan, Kabupaten Tabanan, Bali 82113","Delod Peken, Kec. Tabanan, Kabupaten Tabanan",BALI,82113.0,Indonesia, 0361811570,,,-8.5391217,115.1249029,https://maps.google.com/?cid=0x0:0x29af6965f0b31858,
mall,Butik,Bintang colletion,"Jl. Merdeka Gg. VI No.20, Samsam, Kec. Kerambitan, Kabupaten Tabanan, Bali 82111","Samsam, Kec. Kerambitan, Kabupaten Tabanan",BALI,82111.0,Indonesia,,,,-8.5364407,115.1082122,https://maps.google.com/?cid=0x0:0x2d177fe58cab0a22,
mall,Toko Buah dan Sayur,Jual Buah-Buahan,"F479+34Q, Jl. Pulau Menjangan, Dauh Peken, Kec. Tabanan, Kabupaten Tabanan, Bali 82114","Jl. Pulau Menjangan, Dauh Peken, Kec. Tabanan, Kabupaten Tabanan",BALI,82114.0,Indonesia, 085122388587,,,-8.537291,115.117854,https://maps.google.com/?cid=0x0:0x50e31f7764f72b52,
mall,Toko,Dunia Baut,"F46C+RGP, Jl. Pulau Menjangan, Dauh Peken, Kec. Tabanan, Kabupaten Tabanan, Bali 82113","Jl. Pulau Menjangan, Dauh Peken, Kec. Tabanan, Kabupaten Tabanan",BALI,82113.0,Indonesia, 0361811181,,,-8.5379045,115.1213151,https://maps.google.com/?cid=0x0:0x789b0c19ec4154f4,
mall,Toko Pakaian Wanita,Ananda shop,"Jln rajawali. Perumahan, Jl. Pesona Rajawali Blk. H No.4, Dauh Peken, ta, Kabupaten Tabanan, Bali 82114","Jl. Pesona Rajawali Blk. H No.4, Dauh Peken, ta, Kabupaten Tabanan",BALI,82114.0,Indonesia,,,,-8.5332019,115.1178758,https://maps.google.com/?cid=0x0:0x30a4a84d0ec6713,
mall,Toko,Toko Manik,"Jl. Kakatua No.49, Dajan Peken, Kec. Tabanan, Kabupaten Tabanan, Bali 82114","Dajan Peken, Kec. Tabanan, Kabupaten Tabanan",BALI,82114.0,Indonesia,,,,-8.529208,115.126827,https://maps.google.com/?cid=0x0:0x7a39309461a438c8,
mall,Salon Kecantikan,"She Collection, Tabanan","Jl. Mawar No.26 A, Delod Peken, Kec. Tabanan, Kabupaten Tabanan, Bali 82121","Delod Peken, Kec. Tabanan, Kabupaten Tabanan",BALI,82121.0,Indonesia, 03617991639,,,-8.5462499,115.1243265,https://maps.google.com/?cid=0x0:0x7fc403869b7ba239,
mall,mall,Bali 82115,"Kec. Tabanan, Kabupaten Tabanan, Bali","Kabupaten Tabanan, Bali",BALI,,Indonesia,,,,-8.5729191,115.0881146,https://maps.google.com/?cid=0x0:0xb93a88842abea4b2,
mall,Pusat Perbelanjaan,Bali Okane,"Jl. Mawar No.116, Delod Peken, Kec. Tabanan, Kabupaten Tabanan, Bali 82121","Delod Peken, Kec. Tabanan, Kabupaten Tabanan",BALI,82121.0,Indonesia, 085955099778,,,-8.5552487,115.1218231,https://maps.google.com/?cid=0x0:0xdcb2f708217bc8e3,
mall,Pusat Perbelanjaan,POLO Kampoeng Lot,"Jalan By Pass Tanah Lot No. 10, Kediri, Beraban, Kec. Tabanan, Kabupaten Tabanan, Bali 82121","Kediri, Beraban, Kec. Tabanan, Kabupaten Tabanan",BALI,82121.0,Indonesia, 082112288397,,,-8.6065059,115.1078266,https://maps.google.com/?cid=0x0:0x3478ee62d5c5e3b5,
mall,Pusat Perbelanjaan,Bali Ukir,"Jl. Tanah Lot, Beraban, Kec. Kediri, Kabupaten Tabanan, Bali 82121","Beraban, Kec. Kediri, Kabupaten Tabanan",BALI,82121.0,Indonesia, 085739938881,,,-8.6180788,115.0883882,https://maps.google.com/?cid=0x0:0x686eff1f98cdcad9,
mall,Kerajinan,Store tabanan woodcraft,"Jl. Beji, Pangkung Tibah, Kec. Kediri, Kabupaten Tabanan, Bali 82115","Pangkung Tibah, Kec. Kediri, Kabupaten Tabanan",BALI,82115.0,Indonesia, 085737156115,,,-8.5950197,115.0911521,https://maps.google.com/?cid=0x0:0xc7cacbbf8b5df0b8,
mall,Pusat Perbelanjaan,Denanashopp,"pala Jalan Kebo Iwa No.br, Bongan, Kec. Tabanan, Kabupaten Tabanan, Bali 82112","Bongan, Kec. Tabanan, Kabupaten Tabanan",BALI,82112.0,Indonesia, 08385525799,,,-8.5563276,115.1181082,https://maps.google.com/?cid=0x0:0x2e2f308ee9e68be8,
mall,Toko Akuarium,DEWA AQuarium Tabanan,"Jl. Raya Denpasar - Gilimanuk No.51, Samsam, Kec. Kerambitan, Kabupaten Tabanan, Bali 82161","Samsam, Kec. Kerambitan, Kabupaten Tabanan",BALI,82161.0,Indonesia, 087761818843,,,-8.5239269,115.0995924,https://maps.google.com/?cid=0x0:0x1c1a545ca48091da,
mall,Pasar,Pasar tradisional tabanan,"Jl. Gunung Semeru No.68, Delod Peken, Kec. Tabanan, Kabupaten Tabanan, Bali 82121","Delod Peken, Kec. Tabanan, Kabupaten Tabanan",BALI,82121.0,Indonesia,,,,-8.5385512,115.1259958,https://maps.google.com/?cid=0x0:0xc6b257bb9400760a,
mall,Pusat Perbelanjaan,Pusat Oleh - Oleh Tanah Lot Bali,"93JQ+P84, Jl. Tanah Lot, Beraban, Kec. Kediri, Kabupaten Tabanan, Bali 82121","Jl. Tanah Lot, Beraban, Kec. Kediri, Kabupaten Tabanan",BALI,82121.0,Indonesia,,,,-8.6182289,115.0883327,https://maps.google.com/?cid=0x0:0x40fb2242462abb6c,
mall,Toko Pakaian,Pasar kodok,"Jl. Anggrek Gg. I No.14, Dauh Peken, Kec. Tabanan, Kabupaten Tabanan, Bali 82113","Dauh Peken, Kec. Tabanan, Kabupaten Tabanan",BALI,82113.0,Indonesia,,,,-8.5450556,115.1222022,https://maps.google.com/?cid=0x0:0x2d8bc6147be0e94c,
mall,Toko bahan makanan,VISTA GROSIR ECERAN,"Jl. Pulau Batam No.33, Dauh Peken, Kec. Tabanan, Kabupaten Tabanan, Bali 82111","Dauh Peken, Kec. Tabanan, Kabupaten Tabanan",BALI,82111.0,Indonesia, 082218404243,,,-8.5359516,115.1126627,https://maps.google.com/?cid=0x0:0xaa40c9287a2a1a4a,
mall,Kantor Pemerintahan Daerah,Mal Pelayanan Publik Kabupaten Tabanan (Sanggulan),"Jl. Nakula No.17, Delod Peken, Kec. Tabanan, Kabupaten Tabanan, Bali 82121","Delod Peken, Kec. Tabanan, Kabupaten Tabanan",BALI,82121.0,Indonesia,,,,-8.5432008,115.1388609,https://maps.google.com/?cid=0x0:0xcb2df2ba262ebf4b,
mall,Pasar,Pasar Besar Tabanan,"F46G+GJ4, Delod Peken, Kec. Tabanan, Kabupaten Tabanan, Bali 82113","Delod Peken, Kec. Tabanan, Kabupaten Tabanan",BALI,82113.0,Indonesia,,,,-8.5387351,115.126571,https://maps.google.com/?cid=0x0:0xa389eef062b8d7d,
mall,Pusat Perbelanjaan,Ad_shop5,"C3VQ+4CQ, br.curah, Gubug, Kec. Tabanan, Kabupaten Tabanan, Bali 82115","br.curah, Gubug, Kec. Tabanan, Kabupaten Tabanan",BALI,82115.0,Indonesia, 083114323706,,,-8.5571614,115.0886016,https://maps.google.com/?cid=0x0:0x176ac7d0808c1820,
mall,Toko Barang Antik,Margi keris,"C4Q2+456, Unnamed Road, Gubug, Tabanan, Tabanan Regency, Bali 82115","Unnamed Road, Gubug, Tabanan, Tabanan Regency",BALI,82115.0,Indonesia, 081338094747,,,-8.5622131,115.1003772,https://maps.google.com/?cid=0x0:0xb3d3cb35c9e36d6f,
mall,Toko,Artasedana Tabanan,"Jl. Dr. Ir. Soekarno No.50 X, Banjar Anyar, Kec. Kediri, Kabupaten Tabanan, Bali 82121","Banjar Anyar, Kec. Kediri, Kabupaten Tabanan",BALI,82121.0,Indonesia,,,,-8.5523855,115.1336288,https://maps.google.com/?cid=0x0:0x3a54beae5afa1331,
mall,Pusat Perbelanjaan,CemalCemil_Tbn,"Jl. Graha Pertiwi No.42 Blok D, Bongan, Kec. Tabanan, Kabupaten Tabanan, Bali 82112","Bongan, Kec. Tabanan, Kabupaten Tabanan",BALI,82112.0,Indonesia,,,,-8.5557713,115.1110933,https://maps.google.com/?cid=0x0:0x4ba34d5869a8f3f8,
mall,Layanan B2B,Paloma Shopway DS Gek Widya Tabanan,"C4C3+8J5, Banjar Simpangan, Desa, Pejaten, Kec. Kediri, Kabupaten Tabanan, Bali 82121","Banjar Simpangan, Desa, Pejaten, Kec. Kediri, Kabupaten Tabanan",BALI,82121.0,Indonesia, 081338441253,,,-8.5792364,115.104111,https://maps.google.com/?cid=0x0:0xfeb10e5a4741944e,
mall,Kantor Pemerintahan Daerah,Mall Pelayanan Publik Kabupaten Tabanan,"F46G+RG8, Jl. D. Buyan, Delod Peken, Kec. Tabanan, Kabupaten Tabanan, Bali 82121","Jl. D. Buyan, Delod Peken, Kec. Tabanan, Kabupaten Tabanan",BALI,82121.0,Indonesia,,,,-8.5379612,115.1263188,https://maps.google.com/?cid=0x0:0x73f7f2c6cdf872fc,
mall,Kantor Pemerintah,Dinas Penanaman Modal dan Pelayanan Terpadu Satu Pintu Daerah Pemerintah Kabupaten Tabanan,"F44Q+PHR, Jl. D. Buyan, Delod Peken, Kec. Kediri, Kabupaten Tabanan, Bali 82121","Jl. D. Buyan, Delod Peken, Kec. Kediri, Kabupaten Tabanan",BALI,82121.0,Indonesia, 03617802677,,,-8.5431475,115.1388903,https://maps.google.com/?cid=0x0:0x628e8189e578b861,
mall,Kantor Pemerintahan Kota,Mal Pelayanan Publik Kabupaten Tabanan,"Jl. Gatot Subroto II, Banjar Anyar, Kec. Kediri, Kabupaten Tabanan, Bali 82121","Banjar Anyar, Kec. Kediri, Kabupaten Tabanan",BALI,82121.0,Indonesia, 087871473353,,,-8.5431919,115.1388913,https://maps.google.com/?cid=0x0:0xc654ae926ec9a0b1,
supermarket,supermarket,Bali 82161,"Kabupaten Tabanan, Bali","Kabupaten Tabanan, Bali",BALI,,Indonesia,,,,-8.5496836,115.0584612,https://maps.google.com/?cid=0x0:0x1c00c5eb6016c200,
supermarket,Toko grosir,Dwita Grosir,"C3VF+9VQ, Kerambitan, Kec. Kerambitan, Kabupaten Tabanan, Bali 82161","Kerambitan, Kec. Kerambitan, Kabupaten Tabanan",BALI,82161.0,Indonesia, 081238434031,,,-8.5565265,115.0747376,https://maps.google.com/?cid=0x0:0xeee1480e203dd1a,
supermarket,Toko bahan makanan,Toko Yunita Kerambitan,"F33J+6FH, br tengah kangin kerambitan, Kerambitan, Kec. Tabanan, Kabupaten Tabanan, Bali 82161","br tengah kangin kerambitan, Kerambitan, Kec. Tabanan, Kabupaten Tabanan",BALI,82161.0,Indonesia, 082247757998,,,-8.5469408,115.0812483,https://maps.google.com/?cid=0x0:0x6484f8ee20f9fe88,
supermarket,Minimarket,Indomaret Meliling,"F3RJ+769, Jl. Raya Denpasar - Gilimanuk, Meliling, Kec. Kerambitan, Kabupaten Tabanan, Bali 82161","Jl. Raya Denpasar - Gilimanuk, Meliling, Kec. Kerambitan, Kabupaten Tabanan",BALI,82161.0,Indonesia,,,,-8.5093295,115.080616,https://maps.google.com/?cid=0x0:0xced7a2b809b84627,
supermarket,Toko bahan makanan,TOKO LE GROSIR SEMBAKO,"Jl. Cemp. Kuning No.79x, Samsam, Kec. Kerambitan, Kabupaten Tabanan, Bali 82161","Samsam, Kec. Kerambitan, Kabupaten Tabanan",BALI,82161.0,Indonesia, 088222111777,,,-8.5267036,115.1042087,https://maps.google.com/?cid=0x0:0x8afc9be0d68c9e6,
supermarket,Minimarket,Alfamart,"Link, Jl. Raya Denpasar - Gilimanuk, Sembung Gede, Kec. Kerambitan, Kab. Tabanan, Bali 82161","Jl. Raya Denpasar - Gilimanuk, Sembung Gede, Kec. Kerambitan, Kab. Tabanan",BALI,82161.0,Indonesia, 1500959,,,-8.5111515,115.086715,https://maps.google.com/?cid=0x0:0x6b583b84b2273543,
supermarket,Kios,Toko Yanti,"C3VG+X4V, Kerambitan, Kec. Kerambitan, Kabupaten Tabanan, Bali 82161","Kerambitan, Kec. Kerambitan, Kabupaten Tabanan",BALI,82161.0,Indonesia,,,,-8.5550169,115.0753002,https://maps.google.com/?cid=0x0:0x98a3950191930360,
supermarket,Toko bahan makanan,Warung Men Cica (WMC),"F32H+9WP, Unnamed Rd,, Kerambitan, Kec. Kerambitan, Kabupaten Tabanan, Bali 82161","Unnamed Rd,, Kerambitan, Kec. Kerambitan, Kabupaten Tabanan",BALI,82161.0,Indonesia,,,,-8.54903,115.0798289,https://maps.google.com/?cid=0x0:0x6831144dc43b6dd7,
supermarket,Toko bahan makanan,Zamzami Mart,"F33H+G58, Unnamed Rd, Kerambitan, Kec. Kerambitan, Kabupaten Tabanan, Bali 82161","Unnamed Rd, Kerambitan, Kec. Kerambitan, Kabupaten Tabanan",BALI,82161.0,Indonesia,,,,-8.5462002,115.0779554,https://maps.google.com/?cid=0x0:0x9ca58bfd92997d9e,
supermarket,Toko bahan makanan,UD. Bali Bagus,"Jl. Yeh Gangga I No.11X, Gubug, Kec. Tabanan, Kabupaten Tabanan, Bali 82115","Gubug, Kec. Tabanan, Kabupaten Tabanan",BALI,82115.0,Indonesia,,,,-8.5658967,115.0905069,https://maps.google.com/?cid=0x0:0x7e415d3d82003178,
supermarket,Toko,Toko Empat Putra Jaya,"F33H+8M9, Jl. Jurusan Kerambitan, Kerambitan, Kec. Kerambitan, Kabupaten Tabanan, Bali 82161","Jl. Jurusan Kerambitan, Kerambitan, Kec. Kerambitan, Kabupaten Tabanan",BALI,82161.0,Indonesia,,,,-8.5467028,115.079246,https://maps.google.com/?cid=0x0:0x216f034862f11f4c,
supermarket,Toko,Saur Nyoman,"Jl. Jurusan Kerambitan, Puri Agung, Kerambitan, Kec. Kerambitan, Kabupaten Tabanan, Bali 82161","Puri Agung, Kerambitan, Kec. Kerambitan, Kabupaten Tabanan",BALI,82161.0,Indonesia, 081236841309,,,-8.5474048,115.080128,https://maps.google.com/?cid=0x0:0x297c4562e357e419,
supermarket,Minimarket,Alfamart Sembung Meranggi,"Jl. Raya Denpasar - Gilimanuk Lingk. Sembung Meranggi, Sembung Gede, Kec. Kerambitan, Kab. Tabanan, Bali 82161","Sembung Gede, Kec. Kerambitan, Kab. Tabanan",BALI,82161.0,Indonesia, 0211500959,,,-8.5145033,115.0910132,https://maps.google.com/?cid=0x0:0x4e599b23edeae758,
supermarket,Toko bahan makanan,Alfamart Penyalin,"Jl. Denpasar Gilimanuk Lingk, Jl. Raya Penyalin, Samsam, Kec. Kerambitan, Kab. Tabanan, Bali 82161","Jl. Raya Penyalin, Samsam, Kec. Kerambitan, Kab. Tabanan",BALI,82161.0,Indonesia, 1500959,,,-8.5335078,115.1088976,https://maps.google.com/?cid=0x0:0xc9b326f390690156,
supermarket,Toko bahan makanan,Alfamart,"Jl. Garuda, Banjar Dinas Selingsing Kaja, Kec. Kerambitan, Kabupaten Tabanan, Bali 82161","Banjar Dinas Selingsing Kaja, Kec. Kerambitan, Kabupaten Tabanan",BALI,82161.0,Indonesia, 1500959,,,-8.5395063,115.1063545,https://maps.google.com/?cid=0x0:0x32323e3b497a83c3,
supermarket,Toko bahan makanan,WP(WarungPrima),"C2QQ+F9H, Tibubiu, Kec. Kerambitan, Kabupaten Tabanan, Bali","Kabupaten Tabanan, Bali",BALI,,Indonesia, 081916661141,,,-8.5613107,115.0384721,https://maps.google.com/?cid=0x0:0xb37a65413cf4b461,
supermarket,Minimarket,Warung Saya Mungkin,"F433+W68, Jl. Garuda, Pangkung Karung, Kec. Kerambitan, Kabupaten Tabanan, Bali 82115","Jl. Garuda, Pangkung Karung, Kec. Kerambitan, Kabupaten Tabanan",BALI,82115.0,Indonesia,,,,-8.5452112,115.1030727,https://maps.google.com/?cid=0x0:0x14ec18d72d3c98b2,
supermarket,Toko bahan makanan,Wr.mek Dika,"F349+PVC, Unnamed Road, Belumbang, Kec. Kerambitan, Kabupaten Tabanan, Bali 82161","Unnamed Road, Belumbang, Kec. Kerambitan, Kabupaten Tabanan",BALI,82161.0,Indonesia,,,,-8.5431775,115.069639,https://maps.google.com/?cid=0x0:0x900e38b52e0beede,
supermarket,Toko bahan makanan,Warung Buk Kawi,"F34P+J5X, Jl. Pahlawan Lejeh, Kukuh, Kec. Kerambitan, Kabupaten Tabanan, Bali 82161","Jl. Pahlawan Lejeh, Kukuh, Kec. Kerambitan, Kabupaten Tabanan",BALI,82161.0,Indonesia, 0361815052,,,-8.5433825,115.0854813,https://maps.google.com/?cid=0x0:0x8c626b3cb7137495,
supermarket,Toko Swalayan,Mini Market Manik Arta,"Jl. Yudistira, Meliling, Kec. Kerambitan, Kabupaten Tabanan, Bali 82181","Meliling, Kec. Kerambitan, Kabupaten Tabanan",BALI,82181.0,Indonesia, 08123867627,,,-8.5181347,115.0838434,https://maps.google.com/?cid=0x0:0xa74152fd55475b96,
supermarket,Toko Swalayan,Blidupa Tabanan 1,"F4V2+733, Sembung Gede Batuaji kawan Kelod kecamatan, Sembung Gede, Kerambitan, Tabanan Regency, Bali 82161","Sembung Gede Batuaji kawan Kelod kecamatan, Sembung Gede, Kerambitan, Tabanan Regency",BALI,82161.0,Indonesia,,,,-8.506871,115.10016,https://maps.google.com/?cid=0x0:0xbc85f6e114bf9711,
supermarket,supermarket,Kerambitan,"Kec. Kerambitan, Kabupaten Tabanan, Bali","Kabupaten Tabanan, Bali",BALI,,Indonesia,,,,-8.5521491,115.0777363,https://maps.google.com/?cid=0x0:0xf3ed753dae423357,
supermarket,Toko bahan makanan,Wr. Legend,"Pangkung Karung, Kec. Kerambitan, Kabupaten Tabanan, Bali 82161","Kec. Kerambitan, Kabupaten Tabanan",BALI,82161.0,Indonesia,,,,-8.5538844,115.086433,https://maps.google.com/?cid=0x0:0x7387c1d8ac070fd9,
supermarket,Komplek perumahan,My home,"F33J+CG3, Kerambitan, Kec. Kerambitan, Kabupaten Tabanan, Bali 82161","Kerambitan, Kec. Kerambitan, Kabupaten Tabanan",BALI,82161.0,Indonesia,,,,-8.5464106,115.0813523,https://maps.google.com/?cid=0x0:0xb62acbc57c45c51,
supermarket,Toko,Warung Wiwin,"C3PF+F3X, Penarukan, Kec. Kerambitan, Kabupaten Tabanan, Bali 82161","Penarukan, Kec. Kerambitan, Kabupaten Tabanan",BALI,82161.0,Indonesia,,,,-8.5637618,115.0727253,https://maps.google.com/?cid=0x0:0x2aff07293679f624,
supermarket,Minimarket,Karya Sari Tabanan,"Jl. By Pass Kediri No.8-9, Delod Peken, Kec. Tabanan, Kabupaten Tabanan, Bali 82121","Delod Peken, Kec. Tabanan, Kabupaten Tabanan",BALI,82121.0,Indonesia, 03617991681,,,-8.5504229,115.1242282,https://maps.google.com/?cid=0x0:0xa2e78542843119dd,
supermarket,Minimarket,ULAN BALI TABANAN,"F34J+XWH, Baturiti, Kec. Kerambitan, Kabupaten Tabanan, Bali 82161","Baturiti, Kec. Kerambitan, Kabupaten Tabanan",BALI,82161.0,Indonesia, 083114995957,,,-8.542551,115.0823588,https://maps.google.com/?cid=0x0:0x21d2757d691faed4,
supermarket,Toko bahan makanan,Warung Buk Gede Rusma,"F34P+V52, Kukuh, Kec. Kerambitan, Kabupaten Tabanan, Bali 82161","Kukuh, Kec. Kerambitan, Kabupaten Tabanan",BALI,82161.0,Indonesia, 087860774878,,,-8.5428564,115.0853964,https://maps.google.com/?cid=0x0:0xcdbee162065c2f8d,
supermarket,,Rumah Winayasa,"Jl. Batu Belig No.18, Tista, Kec. Kerambitan, Kabupaten Tabanan, Bali 82161","Tista, Kec. Kerambitan, Kabupaten Tabanan",BALI,82161.0,Indonesia, 085737381994,,,-8.5414958,115.0751621,https://maps.google.com/?cid=0x0:0xab19583f99e2e049,
supermarket,Minimarket,Toko Made Marga,"Jl. Wisnu Marga, Marga, Kec. Marga, Kabupaten Tabanan, Bali 82181","Marga, Kec. Marga, Kabupaten Tabanan",BALI,82181.0,Indonesia, 085954139245,,,-8.4700797,115.1678121,https://maps.google.com/?cid=0x0:0x76bf3e68bd5a97a2,
supermarket,supermarket,Bali 82181,"Kabupaten Tabanan, Bali","Kabupaten Tabanan, Bali",BALI,,Indonesia,,,,-8.4623737,115.1533426,https://maps.google.com/?cid=0x0:0x1c00c5eb6016c240,
supermarket,Toko Swalayan,UD SRI MAKMUR,"Jl. Beringkit Abiantuwung No.28, Beringkit, Kec. Marga, Kabupaten Tabanan, Bali 82181","Beringkit, Kec. Marga, Kabupaten Tabanan",BALI,82181.0,Indonesia, 082339943123,,,-8.5205322,115.1645651,https://maps.google.com/?cid=0x0:0xbbf2eeefa89a4487,
supermarket,Minimarket,Kresna Mart,"G4XQ+GPG, Jl. Raya Buruan, Tajen, Kec. Penebel, Kabupaten Tabanan, Bali 82181","Jl. Raya Buruan, Tajen, Kec. Penebel, Kabupaten Tabanan",BALI,82181.0,Indonesia, 085792909688,,,-8.4511943,115.1393406,https://maps.google.com/?cid=0x0:0xe7911ca13fd8c38d,
supermarket,Toko Swalayan,Ud. Rasta,"Jl. Ciung Wanara No.28, Marga Dauh Puri, Kec. Marga, Kabupaten Tabanan, Bali 82181","Marga Dauh Puri, Kec. Marga, Kabupaten Tabanan",BALI,82181.0,Indonesia,,,,-8.4694193,115.1593045,https://maps.google.com/?cid=0x0:0x5dd1f5b43632f7ae,
supermarket,Minimarket,BALI'S MART,"G5HM+2PF, Jl. Raya Denpasar, Sembung, Kec. Mengwi, Kabupaten Badung, Bali 80351","Jl. Raya Denpasar, Sembung, Kec. Mengwi, Kabupaten Badung",BALI,80351.0,Indonesia, 085737311858,,,-8.4724339,115.184305,https://maps.google.com/?cid=0x0:0xbd7e2857f3d4c88c,
supermarket,Minimarket,Tu Mart,"Jl. Raya Babahan Senganan No.10, Penebel, Kec. Penebel, Kabupaten Tabanan, Bali 82181","Penebel, Kec. Penebel, Kabupaten Tabanan",BALI,82181.0,Indonesia, 085238551623,,,-8.4234762,115.144931,https://maps.google.com/?cid=0x0:0xb18e9f0558a0fa33,
supermarket,Toko bahan makanan,PPG Mart Swalayan,"Jl. Proklamasi No.1, Sobangan, Kec. Mengwi, Kabupaten Badung, Bali 80351","Sobangan, Kec. Mengwi, Kabupaten Badung",BALI,80351.0,Indonesia, 03618944911,,,-8.4977395,115.1932635,https://maps.google.com/?cid=0x0:0xda75fe5dca19b629,
supermarket,supermarket,Foodmart Supermarket Beachwalk,"Jl. Pantai Kuta, Kuta, Kec. Kuta, Kabupaten Badung, Bali 80361","Kuta, Kec. Kuta, Kabupaten Badung",BALI,80361.0,Indonesia, 081237922593,,,-8.7164477,115.1691307,https://maps.google.com/?cid=0x0:0x44f505f1235b2398,
supermarket,Minimarket,MUTIARA MART,"H5GG+3XW, Jl. Raya Marga-Apuan, Tua, Kec. Marga, Kabupaten Tabanan, Bali 82181","Jl. Raya Marga-Apuan, Tua, Kec. Marga, Kabupaten Tabanan",BALI,82181.0,Indonesia,,,,-8.4247698,115.1774626,https://maps.google.com/?cid=0x0:0xb8f4a2b9ce007cd8,
supermarket,Toko bahan makanan,Frestive Kerobokan - Supermarket,"Jl. Raya Kerobokan, Banjar, Taman, Kabupaten Badung, Bali 80361","Banjar, Taman, Kabupaten Badung",BALI,80361.0,Indonesia, 087861718854,,,-8.6733495,115.1650827,https://maps.google.com/?cid=0x0:0x6f83634b6a7faaba,
supermarket,Toko bahan makanan,UD. SEDANA AGUNG,"Peken, Kec. Marga, Kabupaten Tabanan, Bali 82181","Kec. Marga, Kabupaten Tabanan",BALI,82181.0,Indonesia, 087860925400,,,-8.5166164,115.1656826,https://maps.google.com/?cid=0x0:0x541a28552ea06913,
supermarket,Toko,Rama Laksamana Grocery Store,"G564+GQ9, Tegaljadi, Kec. Marga, Kabupaten Tabanan, Bali 82181","Tegaljadi, Kec. Marga, Kabupaten Tabanan",BALI,82181.0,Indonesia,,,,-8.4887112,115.1569871,https://maps.google.com/?cid=0x0:0xa672d2882c297d83,
supermarket,Minimarket,Vista Grosir Sandan,"Jl. Batukaru No.72, Wanasari, Kec. Penebel, Kabupaten Tabanan, Bali 82181","Wanasari, Kec. Penebel, Kabupaten Tabanan",BALI,82181.0,Indonesia,,,,-8.4747732,115.1362252,https://maps.google.com/?cid=0x0:0xd5dc824f6048fc5c,
supermarket,Toko Swalayan,Grand Lucky Supermarket,"Jl. Sunset Road No.29, Kuta, Kec. Kuta, Kabupaten Badung, Bali 80361","Kuta, Kec. Kuta, Kabupaten Badung",BALI,80361.0,Indonesia, 0361762308,,,-8.7071714,115.1837175,https://maps.google.com/?cid=0x0:0xf625ece1b610a74c,
supermarket,Minimarket,Alfamart,"Jl. Wisnu Marga, Link Basa, Kec. Marga, Kab. Tabanan, Bali 82181","Link Basa, Kec. Marga, Kab. Tabanan",BALI,82181.0,Indonesia, 1500959,,,-8.4726928,115.1698275,https://maps.google.com/?cid=0x0:0xf6b66e1ff204e824,
supermarket,Toko bahan makanan,Indomaret batannyuh tbn,"G529+9RV, Jl. Wisnu Marga, Kuwum, Kec. Marga, Kabupaten Tabanan, Bali 82181","Jl. Wisnu Marga, Kuwum, Kec. Marga, Kabupaten Tabanan",BALI,82181.0,Indonesia,,,,-8.4990201,115.1695577,https://maps.google.com/?cid=0x0:0x8ae42fa6431d420e,
supermarket,Minimarket,Toko Taman,"Jl. Raya Wanasari No.46, Wanasari, Kec. Tabanan, Kabupaten Tabanan, Bali 82181","Wanasari, Kec. Tabanan, Kabupaten Tabanan",BALI,82181.0,Indonesia, 083114108510,,,-8.4863291,115.1349934,https://maps.google.com/?cid=0x0:0xc481d81aa68f08e0,
supermarket,Toko Swalayan,Frestive,"Jl. Pemelisan Agung Banjar Berawa, desa No.20, Tibubeneng, Kec. Kuta Utara, Kabupaten Badung, Bali","Kabupaten Badung, Bali",BALI,,Indonesia, 081913460992,,,-8.6596301,115.1389377,https://maps.google.com/?cid=0x0:0x19949921ae3f6e5a,
supermarket,Toko bahan makanan,warung ratih mesari,"Unnamed Road, 82181, Payangan, Kec. Marga, Kabupaten Tabanan, Bali 82181","82181, Payangan, Kec. Marga, Kabupaten Tabanan",BALI,82181.0,Indonesia, 082177489999,,,-8.4378513,115.1672598,https://maps.google.com/?cid=0x0:0x7e538862b446f88b,
supermarket,Toko umum,Warung Kartini,"Jl. Wisnu Marga No.52-46, Batannyuh, Kec. Marga, Kabupaten Tabanan, Bali 82181","Batannyuh, Kec. Marga, Kabupaten Tabanan",BALI,82181.0,Indonesia, 085938372927,,,-8.5078493,115.1675647,https://maps.google.com/?cid=0x0:0x5f3b2eea86455afa,
supermarket,Toko Pertanian,Griya Tani,"Jl. Raya Babahan Senganan No.96, Penebel, Kec. Penebel, Kabupaten Tabanan, Bali 82181","Penebel, Kec. Penebel, Kabupaten Tabanan",BALI,82181.0,Indonesia,,,,-8.4237484,115.1448002,https://maps.google.com/?cid=0x0:0xc0a687571a8ddf6b,
supermarket,Toko makanan beku,LOUIS FROZEN FOOD,"Gg. Polopalo, Pangkalan Jati, Kec. Cinere, Kota Depok, Jawa Barat 16513","Pangkalan Jati, Kec. Cinere, Kota Depok",BALI,16513.0,Indonesia, 089521766652,,,-6.324112,106.7938567,https://maps.google.com/?cid=0x0:0x7674507f665a162f,
supermarket,Toko Perlengkapan Rumah,Louis Frozen food Dua Pangkalan jati raya,"samping warteg Sudi mampir, Jl. Pangkalan Jati 1 No.124, Pangkalan Jati, Kec. Cinere, Kota Depok, Jawa Barat 16513","Jl. Pangkalan Jati 1 No.124, Pangkalan Jati, Kec. Cinere, Kota Depok",BALI,16513.0,Indonesia, 089521766652,,,-6.3181182,106.7953694,https://maps.google.com/?cid=0x0:0x4d67c9efa3ba1cfa,
supermarket,Minimarket,Indomaret Rest Area Taman Tanda,"P569+669, Jl. Baturiti Bedugul, Batunya, Kec. Baturiti, Kabupaten Tabanan, Bali 82191","Jl. Baturiti Bedugul, Batunya, Kec. Baturiti, Kabupaten Tabanan",BALI,82191.0,Indonesia,,,,-8.2894681,115.1681016,https://maps.google.com/?cid=0x0:0x88f67a8d5ef80cd4,
supermarket,supermarket,Bali 82191,"Kabupaten Tabanan, Bali","Kabupaten Tabanan, Bali",BALI,,Indonesia,,,,-8.3413877,115.1533426,https://maps.google.com/?cid=0x0:0x1c00c5eb6016c250,
supermarket,Toko bahan makanan,Willy Mart,"Mekarsari, Kec. Baturiti, Kabupaten Tabanan, Bali 82191","Kec. Baturiti, Kabupaten Tabanan",BALI,82191.0,Indonesia,,,,-8.3848304,115.1953887,https://maps.google.com/?cid=0x0:0xe3be61f2c1021eaf,
supermarket,Toko Buah dan Sayuran,Sudar Sayur baturiti,"M5MM+R5J, Jalan Raya, Batunya, Baturiti, Tabanan Regency, Bali 82191","Jalan Raya, Batunya, Baturiti, Tabanan Regency",BALI,82191.0,Indonesia, 081945587211,,,-8.3154146,115.1828856,https://maps.google.com/?cid=0x0:0x907803652f28dac3,
supermarket,Toko,DR-Mart (Danan Raga Mart),"J5HH+Q9W, Apuan, Kec. Baturiti, Kabupaten Tabanan, Bali 82191","Apuan, Kec. Baturiti, Kabupaten Tabanan",BALI,82191.0,Indonesia, 081529671909,,,-8.3706108,115.1784074,https://maps.google.com/?cid=0x0:0x48f38b5097c98725,
supermarket,Pasar,PAPA MARKET,"Jl. Raya Baturiti No.99, Batunya, Kec. Baturiti, Kabupaten Tabanan, Bali 82191","Batunya, Kec. Baturiti, Kabupaten Tabanan",BALI,82191.0,Indonesia, 087800044376,,,-8.312934,115.1817716,https://maps.google.com/?cid=0x0:0x4ffe98510fbe981c,
supermarket,Pasar,Pasar Baturiti ᬧᭂᬓᭂᬦ᭄u200bᬩᬢᬸᬭᬶᬢᬶ᭟u200b,"M5FP+X67, Jl. Baturiti - Mekarsari, Buahan Kaja, Kec. Baturiti, Kabupaten Tabanan, Bali 82191","Jl. Baturiti - Mekarsari, Buahan Kaja, Kec. Baturiti, Kabupaten Tabanan",BALI,82191.0,Indonesia,,,,-8.3250899,115.18556,https://maps.google.com/?cid=0x0:0x39fcb3be52c8cc9,
supermarket,Minimarket,Indomaret Pacung,"Jl. Baturiti - Mekarsari No.28, Baturiti, Kec. Baturiti, Kabupaten Tabanan, Bali 82191","Baturiti, Kec. Baturiti, Kabupaten Tabanan",BALI,82191.0,Indonesia,,,,-8.3404225,115.188815,https://maps.google.com/?cid=0x0:0x5e02873454623aa2,
supermarket,Minimarket,Indomaret Bedugul,"Candikuning, Kec. Baturiti, Kabupaten Tabanan, Bali 82191","Kec. Baturiti, Kabupaten Tabanan",BALI,82191.0,Indonesia, 03682301004,,,-8.276973,115.1648011,https://maps.google.com/?cid=0x0:0x5be8eb10225a56dc,
supermarket,Minimarket,Family mart,"P595+GVF Jalan Kabun Raya, Gg. Rosela Jl. Raya Bedugul, Candikuning, Kec. Baturiti, Kabupaten Tabanan, Bali 82191","Gg. Rosela Jl. Raya Bedugul, Candikuning, Kec. Baturiti, Kabupaten Tabanan",BALI,82191.0,Indonesia, 087860855444,,,-8.2811908,115.1596798,https://maps.google.com/?cid=0x0:0x6a2d3b7fd3e83a13,
supermarket,Toko Swalayan,UD.Aditya Apuan,"J5HF+PPP, Jl. Apuan, Apuan, Kec. Baturiti, Kabupaten Tabanan, Bali 82191","Jl. Apuan, Apuan, Kec. Baturiti, Kabupaten Tabanan",BALI,82191.0,Indonesia,,,,-8.3706563,115.1743397,https://maps.google.com/?cid=0x0:0x812277f60fcca897,
supermarket,Minimarket,PRADNYA HE-MART BATURITI,"M5WG+Q7R, Batunya, Kec. Baturiti, Kabupaten Tabanan, Bali 82191","Batunya, Kec. Baturiti, Kabupaten Tabanan",BALI,82191.0,Indonesia,,,,-8.3030029,115.1756296,https://maps.google.com/?cid=0x0:0x9a8a6d7589d23eee,
supermarket,Toko Swalayan,Dewi Anugrah,"Banjar berteh, Perean Tengah, Kec. Baturiti, Kabupaten Tabanan, Bali 82191","Perean Tengah, Kec. Baturiti, Kabupaten Tabanan",BALI,82191.0,Indonesia, 081934966195,,,-8.432873,115.2004384,https://maps.google.com/?cid=0x0:0x43ebeecd77425942,
supermarket,Toko,Perwira Mart,"J5WX+MC, Antapan, Kec. Baturiti, Kabupaten Tabanan, Bali 82191","Antapan, Kec. Baturiti, Kabupaten Tabanan",BALI,82191.0,Indonesia,,,,-8.3532808,115.1985091,https://maps.google.com/?cid=0x0:0x4d3177b80732eb4f,
supermarket,Toko bahan makanan,UD Kembar,"J58J+6R6, Jl. Raya Marga-Apuan, Apuan, Kec. Baturiti, Kabupaten Tabanan, Bali 82191","Jl. Raya Marga-Apuan, Apuan, Kec. Baturiti, Kabupaten Tabanan",BALI,82191.0,Indonesia, 085738354099,,,-8.384475,115.182009,https://maps.google.com/?cid=0x0:0x25636e96ddcd0ef7,
supermarket,Toko Kelontong Asia,Warung Pojok Baturiti Bedugul,"M5GP+58V, Jalan Raya, Baturiti, Tabanan Regency, Bali 82191","Jalan Raya, Baturiti, Tabanan Regency",BALI,82191.0,Indonesia, 087861686888,,,-8.3245002,115.1857989,https://maps.google.com/?cid=0x0:0xa36879c7b7bbfc08,
supermarket,Toko bahan makanan,Warung Wayan Sampun,"H5WW+CPR, Luwus, Kec. Baturiti, Kabupaten Tabanan, Bali 82191","Luwus, Kec. Baturiti, Kabupaten Tabanan",BALI,82191.0,Indonesia,,,,-8.4038807,115.1967762,https://maps.google.com/?cid=0x0:0x4fff290f01840317,
supermarket,Minimarket,Iwaka Mart Rest Area,"P559+X8X, Jl. Baturiti Bedugul, Batunya, Kec. Baturiti, Kabupaten Tabanan, Bali 82191","Jl. Baturiti Bedugul, Batunya, Kec. Baturiti, Kabupaten Tabanan",BALI,82191.0,Indonesia,,,,-8.2900024,115.1683537,https://maps.google.com/?cid=0x0:0x2a6229e6634d241c,
supermarket,Toko bahan makanan,Sumaartaa,"M5HM+8W2, Baturiti, Kec. Baturiti, Kabupaten Tabanan, Bali 82191","Baturiti, Kec. Baturiti, Kabupaten Tabanan",BALI,82191.0,Indonesia, 08385520294,,,-8.3217481,115.1847522,https://maps.google.com/?cid=0x0:0xb966b846d66e96f4,
supermarket,Toko bahan makanan,Toko Rahayu Nadi,"J5R7+HH8, Unnamed Road, Bangli, Kec. Baturiti, Kabupaten Tabanan, Bali 82191","Unnamed Road, Bangli, Kec. Baturiti, Kabupaten Tabanan",BALI,82191.0,Indonesia, 081338961728,,,-8.3585988,115.1639469,https://maps.google.com/?cid=0x0:0xf5eeb4936a90523a,
supermarket,Minimarket,Indomaret Perean Tengah,"Jl. Raya Denpasar No.102, Perean Tengah, Kec. Baturiti, Kabupaten Tabanan, Bali 82191","Perean Tengah, Kec. Baturiti, Kabupaten Tabanan",BALI,82191.0,Indonesia,,,,-8.4356927,115.197506,https://maps.google.com/?cid=0x0:0xa173f247e2e86e77,
supermarket,Toko,Toko Setya Kawan (TYAKA),"M5WG+X82, Br Pekarangan, Batunya, Kec. Baturiti, Kabupaten Tabanan, Bali 82191","Br Pekarangan, Batunya, Kec. Baturiti, Kabupaten Tabanan",BALI,82191.0,Indonesia,,,,-8.3026097,115.1757753,https://maps.google.com/?cid=0x0:0xc52e6e2d1afffdf5,
supermarket,Minimarket,Alfamart Candikuning Selatan,"Jl. Raya Candikuning Lngk, Candikuning, Kec. Baturiti, Kab. Tabanan, Bali 82191","Candikuning, Kec. Baturiti, Kab. Tabanan",BALI,82191.0,Indonesia, 1500959,,,-8.2722655,115.1634039,https://maps.google.com/?cid=0x0:0xd43f7fd3ebcbcddc,
supermarket,Toko,UD. Giri Sari,"Jl. Apuan No.552, Apuan, Kec. Baturiti, Kabupaten Tabanan, Bali 82191","Apuan, Kec. Baturiti, Kabupaten Tabanan",BALI,82191.0,Indonesia, 081353225608,,,-8.37038,115.1725793,https://maps.google.com/?cid=0x0:0x957d5292beda90ac,
supermarket,Minimarket,Kresna Mart,"G4XQ+GPG, Jl. Raya Buruan, Tajen, Kec. Penebel, Kabupaten Tabanan, Bali 82181","Jl. Raya Buruan, Tajen, Kec. Penebel, Kabupaten Tabanan",BALI,82181.0,Indonesia, 085792909688,,,-8.4511943,115.1393406,https://maps.google.com/?cid=0x0:0xe7911ca13fd8c38d,
supermarket,supermarket,Bali 82152,"Kec. Penebel, Kabupaten Tabanan, Bali","Kabupaten Tabanan, Bali",BALI,,Indonesia,,,,-8.3941828,115.1177654,https://maps.google.com/?cid=0x0:0x1c00c5eb6016c1f0,
supermarket,Pasar,Pasar Penebel,"Jl. Raya Babahan Senganan No.12, Penebel, Kec. Penebel, Kabupaten Tabanan, Bali 82181","Penebel, Kec. Penebel, Kabupaten Tabanan",BALI,82181.0,Indonesia,,,,-8.4235137,115.144684,https://maps.google.com/?cid=0x0:0x5e7351ae4c143ecc,
supermarket,Toko Pertanian,Griya Tani,"Jl. Raya Babahan Senganan No.96, Penebel, Kec. Penebel, Kabupaten Tabanan, Bali 82181","Penebel, Kec. Penebel, Kabupaten Tabanan",BALI,82181.0,Indonesia,,,,-8.4237484,115.1448002,https://maps.google.com/?cid=0x0:0xc0a687571a8ddf6b,
supermarket,Toko,GS Mart Grosir,"Senganan, Kec. Penebel, Kabupaten Tabanan, Bali 82191","Kec. Penebel, Kabupaten Tabanan",BALI,82191.0,Indonesia, 085792370056,,,-8.3709229,115.1607999,https://maps.google.com/?cid=0x0:0x3f387abc9bd12f89,
supermarket,Minimarket,Nadi Mart,"H4GV+MVX, pasar umum, Penebel, Kec. Penebel, Kabupaten Tabanan, Bali 82181","pasar umum, Penebel, Kec. Penebel, Kabupaten Tabanan",BALI,82181.0,Indonesia,,,,-8.4232675,115.1447262,https://maps.google.com/?cid=0x0:0x46a6a059513213e2,
supermarket,Toko bahan makanan,Warung Sarinah,"Jl. Penatahan - Wongayagede, Penatahan, Kec. Penebel, Kabupaten Tabanan, Bali 82152","Penatahan, Kec. Penebel, Kabupaten Tabanan",BALI,82152.0,Indonesia, 083870741762,,,-8.4140208,115.1218956,https://maps.google.com/?cid=0x0:0x9cd90b2491d11c63,
supermarket,Minimarket,mertha sari (mm)5758,"J552+PMP, Jl. Raya Senganan, Babahan, Kec. Penebel, Kabupaten Tabanan, Bali 82152","Jl. Raya Senganan, Babahan, Kec. Penebel, Kabupaten Tabanan",BALI,82152.0,Indonesia,,,,-8.3906611,115.1517002,https://maps.google.com/?cid=0x0:0x6feea95add63c8db,
supermarket,Toko bahan makanan,Toko Tiara,"J4GG+VX3, Jatiluwih, Kec. Penebel, Kabupaten Tabanan, Bali 82152","Jatiluwih, Kec. Penebel, Kabupaten Tabanan",BALI,82152.0,Indonesia, 081338715062,,,-8.3726368,115.1270434,https://maps.google.com/?cid=0x0:0x8a365d952eaec024,
supermarket,Toko,Sidhi Becik Bugbugan,"J5Q2+XHV, Senganan, Kec. Penebel, Kabupaten Tabanan, Bali 82191","Senganan, Kec. Penebel, Kabupaten Tabanan",BALI,82191.0,Indonesia,,,,-8.3597334,115.1514101,https://maps.google.com/?cid=0x0:0x9880bffcd90ffd8b,
supermarket,Toko,Warung Bu Dhilan,"G4XM+F35, Unnamed Road, Jegu, Kec. Penebel, Kabupaten Tabanan, Bali 82181","Unnamed Road, Jegu, Kec. Penebel, Kabupaten Tabanan",BALI,82181.0,Indonesia, 082266305376,,,-8.4513565,115.1327261,https://maps.google.com/?cid=0x0:0x10628d68fe18b145,
supermarket,Toko Swalayan,Toko lancar sembako,"H4GR+8CJ, Unnamed Road, Penebel, Kec. Penebel, Kabupaten Tabanan, Bali 82181","Unnamed Road, Penebel, Kec. Penebel, Kabupaten Tabanan",BALI,82181.0,Indonesia,,,,-8.424171,115.1410277,https://maps.google.com/?cid=0x0:0xd94960503bbfafc3,
supermarket,Toko bahan makanan,WARUNG BUNGA,"Jl. Raya Buruan No.114, Tajen, Kec. Penebel, Kabupaten Tabanan, Bali 82181","Tajen, Kec. Penebel, Kabupaten Tabanan",BALI,82181.0,Indonesia, 085857227157,,,-8.4414,115.1414482,https://maps.google.com/?cid=0x0:0xbf66f993d5341601,
supermarket,Toko bahan makanan,Audadi Mart,"Jl. Raya Buruan No.53, Penebel, kelod, Kabupaten Tabanan, Bali 82181","Penebel, kelod, Kabupaten Tabanan",BALI,82181.0,Indonesia, 087861878785,,,-8.4278212,115.1444547,https://maps.google.com/?cid=0x0:0x8dffad0f28651a5f,
supermarket,Toko Pakaian,Toko Bagus,"H4HW+J6V, Jl. Raya Babahan Senganan, Penebel, Kec. Penebel, Kabupaten Tabanan, Bali 82152","Jl. Raya Babahan Senganan, Penebel, Kec. Penebel, Kabupaten Tabanan",BALI,82152.0,Indonesia, 085646927474,,,-8.4208961,115.1455321,https://maps.google.com/?cid=0x0:0xa854baef37f4eb36,
supermarket,Toko,MNM Family Mart,"Jl. Raya Buruan No.107, Penebel, Kec. Penebel, Kabupaten Tabanan, Bali 82181","Penebel, Kec. Penebel, Kabupaten Tabanan",BALI,82181.0,Indonesia, 088703065634,,,-8.4275082,115.1440777,https://maps.google.com/?cid=0x0:0xbf75558164965da8,
supermarket,Toko Aksesori Pakaian,Toko Luhur Rahyu,"H47G+7HH, Jl. Pura Batukaru No.55, Penatahan, Kec. Penebel, Kabupaten Tabanan, Bali 82152","Jl. Pura Batukaru No.55, Penatahan, Kec. Penebel, Kabupaten Tabanan",BALI,82152.0,Indonesia, 085829126721,,,-8.4365805,115.1264502,https://maps.google.com/?cid=0x0:0xcae0bc5083fdcbca,
supermarket,Minimarket,Vista Grosir Sandan,"Jl. Batukaru No.72, Wanasari, Kec. Penebel, Kabupaten Tabanan, Bali 82181","Wanasari, Kec. Penebel, Kabupaten Tabanan",BALI,82181.0,Indonesia,,,,-8.4747732,115.1362252,https://maps.google.com/?cid=0x0:0xd5dc824f6048fc5c,
supermarket,Toko grosir,Gunung Sari Mart Jatiluwih,"Jl. Batu Luwih Kawan, Jatiluwih, Kec. Penebel, Kabupaten Tabanan, Bali 82152","Jatiluwih, Kec. Penebel, Kabupaten Tabanan",BALI,82152.0,Indonesia,,,,-8.3687656,115.1298609,https://maps.google.com/?cid=0x0:0x3fc96888596480bb,
supermarket,Toko,Waroeng Tegal Sari,"J5Q2+XCX, Jl. Batu Luwih Kawan, Senganan, Kec. Penebel, Kabupaten Tabanan, Bali 82191","Jl. Batu Luwih Kawan, Senganan, Kec. Penebel, Kabupaten Tabanan",BALI,82191.0,Indonesia,,,,-8.3600226,115.1511236,https://maps.google.com/?cid=0x0:0x7c8e16ccde34bbb5,
supermarket,Minimarket,Sepakat Toko,"Pasar, Jl. Ps. Hewan, Penebel, Kec. Penebel, Kabupaten Tabanan, Bali 82181","Jl. Ps. Hewan, Penebel, Kec. Penebel, Kabupaten Tabanan",BALI,82181.0,Indonesia, 0362812891,,,-8.4235931,115.1448739,https://maps.google.com/?cid=0x0:0xdb17f3f55951463b,
supermarket,Toko Kelontong Asia,Toko Agung Dio,"H47G+6P9, Jl. Pura Batukaru, Penatahan, Kec. Penebel, Kabupaten Tabanan, Bali 82152","Jl. Pura Batukaru, Penatahan, Kec. Penebel, Kabupaten Tabanan",BALI,82152.0,Indonesia, 08123632396,,,-8.4369738,115.1268716,https://maps.google.com/?cid=0x0:0xd7399908418d959c,
supermarket,Toko Kelontong Asia,Warung Bintang,"H496+H6G, Sangketan, Kec. Penebel, Kabupaten Tabanan, Bali 82152","Sangketan, Kec. Penebel, Kabupaten Tabanan",BALI,82152.0,Indonesia, 081236383329,,,-8.4310551,115.1105672,https://maps.google.com/?cid=0x0:0x80ae46550ad34cca,
supermarket,Pusat Perbelanjaan,Toko Pojok Sari,"H4MV+CVW, Jl. Raya Babahan Senganan, Penebel, Kec. Penebel, Kabupaten Tabanan, Bali 82152","Jl. Raya Babahan Senganan, Penebel, Kec. Penebel, Kabupaten Tabanan",BALI,82152.0,Indonesia, 085940756661,,,-8.4163813,115.144696,https://maps.google.com/?cid=0x0:0x91aced8ba648e8c2,
supermarket,Toko,Warung Merta Arum,"H3QR+684, Sangketan, Kec. Penebel, Kabupaten Tabanan, Bali 82152","Sangketan, Kec. Penebel, Kabupaten Tabanan",BALI,82152.0,Indonesia, 081246713817,,,-8.4119953,115.0908382,https://maps.google.com/?cid=0x0:0x2a2ac27c583b6fce,
supermarket,supermarket,Bali 82121,"Kec. Kediri, Kabupaten Tabanan, Bali","Kabupaten Tabanan, Bali",BALI,,Indonesia,,,,-8.5649981,115.1296249,https://maps.google.com/?cid=0x0:0x3da7e6c755bd7d06,
supermarket,Toko Swalayan,Pepito Market Kediri,"Jl. Dr. Ir. Soekarno No.88, Banjar Anyar, Kec. Kediri, Kabupaten Tabanan, Bali 82121","Banjar Anyar, Kec. Kediri, Kabupaten Tabanan",BALI,82121.0,Indonesia, 087800526113,,,-8.5529349,115.1345187,https://maps.google.com/?cid=0x0:0x36f473c6f55fd34c,
supermarket,Toko Swalayan,Clandy's Mart Tabanan 1,"F44R+85V, Jl. Gatot Subroto No.99X, Banjar Anyar, Kec. Kediri, Kabupaten Tabanan, Bali 82121","Jl. Gatot Subroto No.99X, Banjar Anyar, Kec. Kediri, Kabupaten Tabanan",BALI,82121.0,Indonesia, 087761299121,,,-8.5438795,115.1406883,https://maps.google.com/?cid=0x0:0xea8d92cc69c6bcb1,
supermarket,Minimarket,Karya Sari Tabanan,"Jl. By Pass Kediri No.8-9, Delod Peken, Kec. Tabanan, Kabupaten Tabanan, Bali 82121","Delod Peken, Kec. Tabanan, Kabupaten Tabanan",BALI,82121.0,Indonesia, 03617991681,,,-8.5504229,115.1242282,https://maps.google.com/?cid=0x0:0xa2e78542843119dd,
supermarket,Minimarket,Coco Supermarket Kampung Lot,"Beraban, Kec. Kediri, Kabupaten Tabanan, Bali 82121","Kec. Kediri, Kabupaten Tabanan",BALI,82121.0,Indonesia, 087776740999,,,-8.6063814,115.1078751,https://maps.google.com/?cid=0x0:0x117480d572fa56b8,
supermarket,Minimarket,Mini Market Jaya Kerti,"JL. A. YANI KEDIRI TABANAN, TABANAN, Abian Tuwung, Kec. Kediri, Kabupaten Tabanan, Bali 82121","TABANAN, Abian Tuwung, Kec. Kediri, Kabupaten Tabanan",BALI,82121.0,Indonesia, 03619314375,,,-8.5564255,115.1442215,https://maps.google.com/?cid=0x0:0x26589728fe432922,
supermarket,Toko Swalayan,Pepito Market Buwit,"Jl. By Pass Tanah Lot, Buwit, Kec. Kediri, Kabupaten Tabanan, Bali 80351","Buwit, Kec. Kediri, Kabupaten Tabanan",BALI,80351.0,Indonesia, 087700067888,,,-8.6157579,115.1153628,https://maps.google.com/?cid=0x0:0xb17a688b2ae59d4a,
supermarket,Minimarket,Toko Putra Rejeki,"C4JJ+737, Jl. Terunajaya, Kediri, Kec. Kediri, Kabupaten Tabanan, Bali 82121","Jl. Terunajaya, Kediri, Kec. Kediri, Kabupaten Tabanan",BALI,82121.0,Indonesia, 03617995982,,,-8.5693325,115.1301641,https://maps.google.com/?cid=0x0:0x52aa02613ee47587,
supermarket,Toko Swalayan,D'sawah mart,"Jl. Pantai Kedungu No.1, Nyitdah, Kec. Kediri, Kabupaten Tabanan, Bali 82121","Nyitdah, Kec. Kediri, Kabupaten Tabanan",BALI,82121.0,Indonesia,,,,-8.5802894,115.1108852,https://maps.google.com/?cid=0x0:0x57073f5f7ad62e6a,
supermarket,Toko,Artasedana Tabanan,"Jl. Dr. Ir. Soekarno No.50 X, Banjar Anyar, Kec. Kediri, Kabupaten Tabanan, Bali 82121","Banjar Anyar, Kec. Kediri, Kabupaten Tabanan",BALI,82121.0,Indonesia,,,,-8.5523855,115.1336288,https://maps.google.com/?cid=0x0:0x3a54beae5afa1331,
supermarket,Minimarket,Toko Gita,"C4JM+V4M, Jl. Terunajaya, Kediri, Kec. Kediri, Kabupaten Tabanan, Bali 82121","Jl. Terunajaya, Kediri, Kec. Kediri, Kabupaten Tabanan",BALI,82121.0,Indonesia, 081999757271,,,-8.5677754,115.1327896,https://maps.google.com/?cid=0x0:0xb2f09bd4de69f7c2,
supermarket,Toko Perlengkapan Rumah,Star Mart 2,"Jl. Pantai Kedungu No.65, Nyitdah, Kec. Kediri, Kabupaten Tabanan, Bali 82121","Nyitdah, Kec. Kediri, Kabupaten Tabanan",BALI,82121.0,Indonesia, 087861814666,,,-8.5778489,115.1157765,https://maps.google.com/?cid=0x0:0x94794b6d11f21d31,
supermarket,Toko Alat Tulis,Global Mart Tabanan,"Jl. Gatot Subroto No.2A, Banjar Anyar, Kec. Kediri, Kabupaten Tabanan, Bali 82121","Banjar Anyar, Kec. Kediri, Kabupaten Tabanan",BALI,82121.0,Indonesia, 081237277978,,,-8.5451769,115.1429099,https://maps.google.com/?cid=0x0:0xb1e33717430090f8,
supermarket,Minimarket,Indomaret Kediri,"Jl. Ngurah Rai No.85, Banjar Anyar, Kec. Tabanan, Kabupaten Tabanan, Bali 82121","Banjar Anyar, Kec. Tabanan, Kabupaten Tabanan",BALI,82121.0,Indonesia,,,,-8.5532208,115.1408082,https://maps.google.com/?cid=0x0:0x4b23ffb7e16bf5ae,
supermarket,Pusat Perbelanjaan,Aisyah Store Kediri Tabanan Bali,"Perum puskopad senampahan puskopad IX/UDY, Blok C5, Banjar Anyar, Kec. Kediri, Kabupaten Tabanan, Bali 82121","Blok C5, Banjar Anyar, Kec. Kediri, Kabupaten Tabanan",BALI,82121.0,Indonesia, 085330130650,,,-8.5302686,115.1429556,https://maps.google.com/?cid=0x0:0xfab6f4af362f1ae1,
supermarket,Toko Swalayan,Toko Cahaya,"C4MM+49V, Jl. Terunajaya, Kediri, Kec. Kediri, Kabupaten Tabanan, Bali 82121","Jl. Terunajaya, Kediri, Kec. Kediri, Kabupaten Tabanan",BALI,82121.0,Indonesia, 085101150596,,,-8.5671378,115.1334107,https://maps.google.com/?cid=0x0:0xe6c981479dbed017,
supermarket,Pusat Perbelanjaan,Sixhill Partner Coco Express - Kediri,"F43Q+M8X, Jl. Dr. Ir. Soekarno, Banjar Anyar, Kec. Kediri, Kabupaten Tabanan, Bali 82121","Jl. Dr. Ir. Soekarno, Banjar Anyar, Kec. Kediri, Kabupaten Tabanan",BALI,82121.0,Indonesia,,,,-8.5457553,115.1383669,https://maps.google.com/?cid=0x0:0xeb8d6b0f4370d448,
supermarket,Pasar,Pasar Tradisional Tanah Lot,"Pasar tradisional, Beraban, Kec. Kediri, Kabupaten Tabanan, Bali","Kabupaten Tabanan, Bali",BALI,,Indonesia,,,,-8.6016702,115.105648,https://maps.google.com/?cid=0x0:0x7eca37e9421e1ffd,
supermarket,Toko bahan makanan,Dhita Fresh Fruit Market Cab.bali,"Jl. Ahmad Yani No.55, Abian Tuwung, Kec. Kediri, Kabupaten Tabanan, Bali 82121","Abian Tuwung, Kec. Kediri, Kabupaten Tabanan",BALI,82121.0,Indonesia,,,,-8.5562359,115.1438891,https://maps.google.com/?cid=0x0:0x2e1e6a020e6c60b3,
supermarket,Toko bahan makanan,Wilia Akusara Mart,"C4JJ+QV5, Br, Delod Puri, Kec. Kediri, Kabupaten Tabanan, Bali 82121","Br, Delod Puri, Kec. Kediri, Kabupaten Tabanan",BALI,82121.0,Indonesia, 085237957343,,,-8.5681213,115.1322319,https://maps.google.com/?cid=0x0:0x67d6bd7cacaa3ce9,
supermarket,Toko bahan makanan,Lenon Mart,"C33V+9RR, Jl. Pantai Kedungu, Belalang, Kec. Kediri, Kabupaten Tabanan, Bali 82121","Jl. Pantai Kedungu, Belalang, Kec. Kediri, Kabupaten Tabanan",BALI,82121.0,Indonesia, 08123806473,,,-8.5965203,115.0945162,https://maps.google.com/?cid=0x0:0x2fadbaa084d8a81,
supermarket,Toko Pakaian Wanita,Candy Project Store Tabanan,"Jl. Dr. Ir. Soekarno No.25, Kediri, Kec. Kediri, Kediri, Bali 82123","Kediri, Kec. Kediri, Kediri",BALI,82123.0,Indonesia, 087705111998,,,-8.5542723,115.1392106,https://maps.google.com/?cid=0x0:0x78b786f4f5896291,
supermarket,Toko Makanan,Wira Setia 2 (Pusat Cemilan Kediri-Tabanan-Bali),"C4MP+HR4, Jl. Teuku Umar, Kediri, Kec. Kediri, Kabupaten Tabanan, Bali 82121","Jl. Teuku Umar, Kediri, Kec. Kediri, Kabupaten Tabanan",BALI,82121.0,Indonesia, 081246743451,,,-8.5661243,115.1370886,https://maps.google.com/?cid=0x0:0xc2a8ae9713ecf5c7,
supermarket,Pasar bahan bangunan,Toko Bangunan IB Home Kediri,"Jl. By Pass Kediri, Banjar Anyar, Kec. Kediri, Kabupaten Tabanan, Bali 82121","Banjar Anyar, Kec. Kediri, Kabupaten Tabanan",BALI,82121.0,Indonesia, 08113860088,,,-8.5544411,115.1395243,https://maps.google.com/?cid=0x0:0x2d55b238be1aab45,
supermarket,Supermarket Diskon,Golden Swalayan Kediri,"Jl. Hayam Wuruk No.121-125, Dandangan, Kec. Kota, Kota Kediri, Jawa Timur 64122","Dandangan, Kec. Kota, Kota Kediri",BALI,64122.0,Indonesia, 0354684665,,,-7.8149461,112.0190665,https://maps.google.com/?cid=0x0:0xffcb01289db7ed37,
supermarket,Toko,Samudera Supermarket Kediri,"Jl. Brigjen Katamso No.1, Kaliombo, Kec. Kota, Kota Kediri, Jawa Timur 64129","Kaliombo, Kec. Kota, Kota Kediri",BALI,64129.0,Indonesia, 087753851785,,,-7.8273937,112.0106548,https://maps.google.com/?cid=0x0:0xe5def6ef5b14d422,
supermarket,Supermarket Diskon,Hypermart Kediri,"Jl. Hasanudin No.2, Balowerti, Kec. Kota, Kota Kediri, Jawa Timur 64129","Balowerti, Kec. Kota, Kota Kediri",BALI,64129.0,Indonesia,,,,-7.8131936,112.0157918,https://maps.google.com/?cid=0x0:0x7b2a1125f6c9f3c8,
supermarket,Toko,Budi Swalayan,"42W5+M48, Jl. Kebangkitan, Manisrenggo, Kec. Kota, Kota Kediri, Jawa Timur 64129","Jl. Kebangkitan, Manisrenggo, Kec. Kota, Kota Kediri",BALI,64129.0,Indonesia,,,,-7.8533329,112.0078169,https://maps.google.com/?cid=0x0:0xb9e0d27136fafeb1,
supermarket,Toko Perlengkapan Rumah,Borobudur Swalayan,"Jl. Dhoho No.110 - 116, Setono Gedong, Kec. Kota, Kota Kediri, Jawa Timur 64129","Setono Gedong, Kec. Kota, Kota Kediri",BALI,64129.0,Indonesia, 0354681492,,,-7.817443,112.013013,https://maps.google.com/?cid=0x0:0x9aea7d4fa8d91656,
supermarket,Toko Swalayan,Pepito Market Kediri,"Jl. Dr. Ir. Soekarno No.88, Banjar Anyar, Kec. Kediri, Kabupaten Tabanan, Bali 82121","Banjar Anyar, Kec. Kediri, Kabupaten Tabanan",BALI,82121.0,Indonesia, 087800526113,,,-8.5529349,115.1345187,https://maps.google.com/?cid=0x0:0x36f473c6f55fd34c,
supermarket,supermarket,Bali 82123,"Kabupaten Tabanan, Bali","Kabupaten Tabanan, Bali",BALI,,Indonesia,,,,-8.5214417,115.1385192,https://maps.google.com/?cid=0x0:0x4b5bcd1e9a57a1dc,
supermarket,Toko,Vista Grosir,"C4WQ+C5C, Jl. By Pass Kediri, Kediri, Kec. Kediri, Kabupaten Tabanan, Bali 82121","Jl. By Pass Kediri, Kediri, Kec. Kediri, Kabupaten Tabanan",BALI,82121.0,Indonesia, 082141998131,,,-8.5539269,115.1378986,https://maps.google.com/?cid=0x0:0xfd65f589004b9fdc,
supermarket,Minimarket,Srikandi Mart,"Banjar Anyar, Kec. Kediri, Kabupaten Tabanan, Bali 82121","Kec. Kediri, Kabupaten Tabanan",BALI,82121.0,Indonesia, 081358594788,,,-8.5294334,115.140668,https://maps.google.com/?cid=0x0:0x80c1065360ee2c57,
supermarket,Toko,Artasedana Tabanan,"Jl. Dr. Ir. Soekarno No.50 X, Banjar Anyar, Kec. Kediri, Kabupaten Tabanan, Bali 82121","Banjar Anyar, Kec. Kediri, Kabupaten Tabanan",BALI,82121.0,Indonesia,,,,-8.5523855,115.1336288,https://maps.google.com/?cid=0x0:0x3a54beae5afa1331,
supermarket,Toko,Kawan Supermarket,"Pasar Tabanan, 2nd Floor, JL Gunung Semeru, Tabanan, Delod Peken, Tabanan, Tabanan Regency, Bali 82121","2nd Floor, JL Gunung Semeru, Tabanan, Delod Peken, Tabanan, Tabanan Regency",BALI,82121.0,Indonesia, 0362812687,,,-8.5394589,115.1269452,https://maps.google.com/?cid=0x0:0x4548d9cef36d18e2,
supermarket,Pusat Perbelanjaan,Aisyah Store Kediri Tabanan Bali,"Perum puskopad senampahan puskopad IX/UDY, Blok C5, Banjar Anyar, Kec. Kediri, Kabupaten Tabanan, Bali 82121","Blok C5, Banjar Anyar, Kec. Kediri, Kabupaten Tabanan",BALI,82121.0,Indonesia, 085330130650,,,-8.5302686,115.1429556,https://maps.google.com/?cid=0x0:0xfab6f4af362f1ae1,
supermarket,Toko Swalayan,Pepito Market Buwit,"Jl. By Pass Tanah Lot, Buwit, Kec. Kediri, Kabupaten Tabanan, Bali 80351","Buwit, Kec. Kediri, Kabupaten Tabanan",BALI,80351.0,Indonesia, 087700067888,,,-8.6157579,115.1153628,https://maps.google.com/?cid=0x0:0xb17a688b2ae59d4a,
supermarket,Toko Kelontong Asia,Warung Sri Rejeki Bu Jaya,"F4FV+W2M, Jl. Tukad Yeh Ho, Banjar Anyar, Kec. Kediri, Kabupaten Tabanan, Bali 82123","Jl. Tukad Yeh Ho, Banjar Anyar, Kec. Kediri, Kabupaten Tabanan",BALI,82123.0,Indonesia, 083115345234,,,-8.525169,115.142552,https://maps.google.com/?cid=0x0:0xe1d512abfce15656,
supermarket,Toko bahan makanan,YangDe Mart,"Jl. Gunung Agung No.124, Dajan Peken, Kec. Tabanan, Kabupaten Tabanan, Bali 82121","Dajan Peken, Kec. Tabanan, Kabupaten Tabanan",BALI,82121.0,Indonesia, 085247041141,,,-8.5253563,115.130098,https://maps.google.com/?cid=0x0:0x22d59dc0183224db,
supermarket,Toko Swalayan,Toko Sari Karya,"Jl. Batukaru No.202, Denbantas, Kec. Tabanan, Kabupaten Tabanan, Bali 82115","Denbantas, Kec. Tabanan, Kabupaten Tabanan",BALI,82115.0,Indonesia, 082145325498,,,-8.509747,115.1327213,https://maps.google.com/?cid=0x0:0xf13383937e3dad3e,
supermarket,Toko Swalayan,Toko Kebon Mesari,"Br. Jadi Babakan, Perumahan Griya Multi Jadi Exclusive 3 No.1, Jl. Ciung Wanara, Banjar Anyar, Kec. Kediri, Kabupaten Tabanan, Bali 82123","Perumahan Griya Multi Jadi Exclusive 3 No.1, Jl. Ciung Wanara, Banjar Anyar, Kec. Kediri, Kabupaten Tabanan",BALI,82123.0,Indonesia,,,,-8.5224257,115.1449926,https://maps.google.com/?cid=0x0:0x6c9c53ab3ca7d49b,
supermarket,Toko,Toko KINASIH GROSIR,"F49R+PC7Banjar AnyarKec, Kec. Kediri, Kabupaten Tabanan, Bali 82121","Kec. Kediri, Kabupaten Tabanan",BALI,82121.0,Indonesia, 085829025795,,,-8.530706,115.1410009,https://maps.google.com/?cid=0x0:0x81b540d20eda62ac,
supermarket,Pembangunan Perumahan,Griya Manik Asri Jadi 2 - Tabanan,"F4GV+J78, Jl. Tukad Yeh Ho, Banjar Anyar, Kec. Kediri, Kabupaten Tabanan, Bali 82123","Jl. Tukad Yeh Ho, Banjar Anyar, Kec. Kediri, Kabupaten Tabanan",BALI,82123.0,Indonesia,,,,-8.5235976,115.1434371,https://maps.google.com/?cid=0x0:0xcad0f1ef197f023e,
supermarket,Minimarket,Indomaret Kediri,"Jl. Ngurah Rai No.85, Banjar Anyar, Kec. Tabanan, Kabupaten Tabanan, Bali 82121","Banjar Anyar, Kec. Tabanan, Kabupaten Tabanan",BALI,82121.0,Indonesia,,,,-8.5532208,115.1408082,https://maps.google.com/?cid=0x0:0x4b23ffb7e16bf5ae,
supermarket,Toko makanan beku,CeMeals Shop Sanggulan - Tabanan,"F4GV+J78, Jl. Tukad Yeh Ho, Banjar Anyar, Kec. Kediri, Kabupaten Tabanan, Bali 82123","Jl. Tukad Yeh Ho, Banjar Anyar, Kec. Kediri, Kabupaten Tabanan",BALI,82123.0,Indonesia, 087708220085,,,-8.5236574,115.1434159,https://maps.google.com/?cid=0x0:0x52e09b8dd67e11d2,
supermarket,Toko,Warung Di Karang,"Banjar Anyar, Kec. Kediri, Kabupaten Tabanan, Bali 82123","Kec. Kediri, Kabupaten Tabanan",BALI,82123.0,Indonesia,,,,-8.5201735,115.1457444,https://maps.google.com/?cid=0x0:0x5d1e31cf2b1a088,
supermarket,Toko Kelontong Asia,Toko Mertha Natha,"F4FR+GVH, Jl. Tukad Yeh Ho, Banjar Anyar, Kec. Kediri, Kabupaten Tabanan, Bali 82123","Jl. Tukad Yeh Ho, Banjar Anyar, Kec. Kediri, Kabupaten Tabanan",BALI,82123.0,Indonesia, 03618456221,,,-8.5261767,115.1422374,https://maps.google.com/?cid=0x0:0xb492545ba04c9a83,
supermarket,Toko Perlengkapan Rumah,Bali Retail Mandiri,"Jl. Ahmad Yani No.V / I, Abian Tuwung, Kec. Kediri, Kabupaten Tabanan, Bali 82123","Abian Tuwung, Kec. Kediri, Kabupaten Tabanan",BALI,82123.0,Indonesia, 081238567940,,,-8.5581701,115.1475268,https://maps.google.com/?cid=0x0:0x9b5ffbbeff92b465,
supermarket,Toko Swalayan,BLI DUPA TABANAN 4,"Jl. Majapahit No.16, Dajan Peken, Kec. Tabanan, Kabupaten Tabanan, Bali 82121","Dajan Peken, Kec. Tabanan, Kabupaten Tabanan",BALI,82121.0,Indonesia,,,,-8.5305957,115.134405,https://maps.google.com/?cid=0x0:0x5ac7ec6b3d6894cd,
supermarket,Minimarket,Ud Kawi Mart,"F48R+F6V, Jl. Tukad Yeh Empas, Banjar Anyar, Kec. Kediri, Kabupaten Tabanan, Bali 82121","Jl. Tukad Yeh Empas, Banjar Anyar, Kec. Kediri, Kabupaten Tabanan",BALI,82121.0,Indonesia, 03618743892,,,-8.5337587,115.1405322,https://maps.google.com/?cid=0x0:0xeef28a775cbb699d,
supermarket,Minimarket,Mini Market Jaya Kerti,"JL. A. YANI KEDIRI TABANAN, TABANAN, Abian Tuwung, Kec. Kediri, Kabupaten Tabanan, Bali 82121","TABANAN, Abian Tuwung, Kec. Kediri, Kabupaten Tabanan",BALI,82121.0,Indonesia, 03619314375,,,-8.5564255,115.1442215,https://maps.google.com/?cid=0x0:0x26589728fe432922,
supermarket,Toko Ponsel,Jadi Indah Cell,"F4HW+3W2, Banjar Anyar, Kec. Kediri, Kabupaten Tabanan, Bali 82123","Banjar Anyar, Kec. Kediri, Kabupaten Tabanan",BALI,82123.0,Indonesia, 085238894420,,,-8.52235,115.1472765,https://maps.google.com/?cid=0x0:0x6f222166508734f1,
supermarket,Minimarket,Alfamart Alas Kedaton,"Jl. Raya Alas Kedaton, Kukuh, Kec. Marga, Kab. Tabanan, Bali 82181","Kukuh, Kec. Marga, Kab. Tabanan",BALI,82181.0,Indonesia, 1500959,,,-8.5250776,115.1511393,https://maps.google.com/?cid=0x0:0xe1af4fe6939c6de9,
supermarket,Toko Kelontong Asia,WARUNG SEMBAKO BUK YONGKI SINDI,"PERUM GRIYA MULTI JADI BLOK 8 NO 21 KEDIRI SANGGULAN, Banjar Anyar, Kediri, Tabanan Regency, Bali 82121","Banjar Anyar, Kediri, Tabanan Regency",BALI,82121.0,Indonesia, 089610995455,,,-8.5294556,115.1427739,https://maps.google.com/?cid=0x0:0xda7d0ebb4f82b65f,
supermarket,Toko Alat Kecantikan,Pomade Bali Shop,"Banjar Anyar, Kec. Kediri, Kabupaten Tabanan, Bali 82123","Kec. Kediri, Kabupaten Tabanan",BALI,82123.0,Indonesia, 083114207452,,,-8.5248332,115.1430162,https://maps.google.com/?cid=0x0:0xc85ae3a49681ed64,
supermarket,Supermarket Diskon,Golden Swalayan Kediri,"Jl. Hayam Wuruk No.121-125, Dandangan, Kec. Kota, Kota Kediri, Jawa Timur 64122","Dandangan, Kec. Kota, Kota Kediri",BALI,64122.0,Indonesia, 0354684665,,,-7.8149461,112.0190665,https://maps.google.com/?cid=0x0:0xffcb01289db7ed37,
supermarket,Toko,Samudera Supermarket Kediri,"Jl. Brigjen Katamso No.1, Kaliombo, Kec. Kota, Kota Kediri, Jawa Timur 64129","Kaliombo, Kec. Kota, Kota Kediri",BALI,64129.0,Indonesia, 087753851785,,,-7.8273937,112.0106548,https://maps.google.com/?cid=0x0:0xe5def6ef5b14d422,
supermarket,Supermarket Diskon,Hypermart Kediri,"Jl. Hasanudin No.2, Balowerti, Kec. Kota, Kota Kediri, Jawa Timur 64129","Balowerti, Kec. Kota, Kota Kediri",BALI,64129.0,Indonesia,,,,-7.8131936,112.0157918,https://maps.google.com/?cid=0x0:0x7b2a1125f6c9f3c8,
supermarket,supermarket,Kec. Kediri,"Kabupaten Tabanan, Bali","Kabupaten Tabanan, Bali",BALI,,Indonesia,,,,-8.5545614,115.1402899,https://maps.google.com/?cid=0x0:0x4030bfbca7d2e90,
supermarket,Toko,Vista Grosir,"C4WQ+C5C, Jl. By Pass Kediri, Kediri, Kec. Kediri, Kabupaten Tabanan, Bali 82121","Jl. By Pass Kediri, Kediri, Kec. Kediri, Kabupaten Tabanan",BALI,82121.0,Indonesia, 082141998131,,,-8.5539269,115.1378986,https://maps.google.com/?cid=0x0:0xfd65f589004b9fdc,
supermarket,Toko Swalayan,Pepito Market Kediri,"Jl. Dr. Ir. Soekarno No.88, Banjar Anyar, Kec. Kediri, Kabupaten Tabanan, Bali 82121","Banjar Anyar, Kec. Kediri, Kabupaten Tabanan",BALI,82121.0,Indonesia, 087800526113,,,-8.5529349,115.1345187,https://maps.google.com/?cid=0x0:0x36f473c6f55fd34c,
supermarket,Minimarket,Karya Sari Tabanan,"Jl. By Pass Kediri No.8-9, Delod Peken, Kec. Tabanan, Kabupaten Tabanan, Bali 82121","Delod Peken, Kec. Tabanan, Kabupaten Tabanan",BALI,82121.0,Indonesia, 03617991681,,,-8.5504229,115.1242282,https://maps.google.com/?cid=0x0:0xa2e78542843119dd,
supermarket,Minimarket,Mini Market Jaya Kerti,"JL. A. YANI KEDIRI TABANAN, TABANAN, Abian Tuwung, Kec. Kediri, Kabupaten Tabanan, Bali 82121","TABANAN, Abian Tuwung, Kec. Kediri, Kabupaten Tabanan",BALI,82121.0,Indonesia, 03619314375,,,-8.5564255,115.1442215,https://maps.google.com/?cid=0x0:0x26589728fe432922,
supermarket,Toko Swalayan,Pepito Market Buwit,"Jl. By Pass Tanah Lot, Buwit, Kec. Kediri, Kabupaten Tabanan, Bali 80351","Buwit, Kec. Kediri, Kabupaten Tabanan",BALI,80351.0,Indonesia, 087700067888,,,-8.6157579,115.1153628,https://maps.google.com/?cid=0x0:0xb17a688b2ae59d4a,
supermarket,Toko,Artasedana Tabanan,"Jl. Dr. Ir. Soekarno No.50 X, Banjar Anyar, Kec. Kediri, Kabupaten Tabanan, Bali 82121","Banjar Anyar, Kec. Kediri, Kabupaten Tabanan",BALI,82121.0,Indonesia,,,,-8.5523855,115.1336288,https://maps.google.com/?cid=0x0:0x3a54beae5afa1331,
supermarket,Pasar,Pasar Besar Tabanan,"F46G+GJ4, Delod Peken, Kec. Tabanan, Kabupaten Tabanan, Bali 82113","Delod Peken, Kec. Tabanan, Kabupaten Tabanan",BALI,82113.0,Indonesia,,,,-8.5387351,115.126571,https://maps.google.com/?cid=0x0:0xa389eef062b8d7d,
supermarket,Minimarket,Toko Crystal Tabanan,"Jl. Ngurah Rai No.72, Banjar Anyar, Kec. Kediri, Kabupaten Tabanan, Bali 82121","Banjar Anyar, Kec. Kediri, Kabupaten Tabanan",BALI,82121.0,Indonesia, 081338846682,,,-8.5525902,115.140841,https://maps.google.com/?cid=0x0:0xae4da35b74742fa,
supermarket,Toko Kelontong Asia,Wr.Mesari,"C4RP+QWV, Jl. Pulau Bawean, Kediri, Kec. Kediri, Kabupaten Tabanan, Bali 82121","Jl. Pulau Bawean, Kediri, Kec. Kediri, Kabupaten Tabanan",BALI,82121.0,Indonesia,,,,-8.5580186,115.1372995,https://maps.google.com/?cid=0x0:0x85689a95fe52c932,
supermarket,Minimarket,Indomaret Kediri,"Jl. Ngurah Rai No.85, Banjar Anyar, Kec. Tabanan, Kabupaten Tabanan, Bali 82121","Banjar Anyar, Kec. Tabanan, Kabupaten Tabanan",BALI,82121.0,Indonesia,,,,-8.5532208,115.1408082,https://maps.google.com/?cid=0x0:0x4b23ffb7e16bf5ae,
supermarket,Toko Pakaian Wanita,Candy Project Store Tabanan,"Jl. Dr. Ir. Soekarno No.25, Kediri, Kec. Kediri, Kediri, Bali 82123","Kediri, Kec. Kediri, Kediri",BALI,82123.0,Indonesia, 087705111998,,,-8.5542723,115.1392106,https://maps.google.com/?cid=0x0:0x78b786f4f5896291,
supermarket,Toko bahan makanan,Dhita Fresh Fruit Market Cab.bali,"Jl. Ahmad Yani No.55, Abian Tuwung, Kec. Kediri, Kabupaten Tabanan, Bali 82121","Abian Tuwung, Kec. Kediri, Kabupaten Tabanan",BALI,82121.0,Indonesia,,,,-8.5562359,115.1438891,https://maps.google.com/?cid=0x0:0x2e1e6a020e6c60b3,
supermarket,Toko sembako pemerintah,Waroeng ROHIBAH,"C4VR+CW9, Abian Tuwung, Kec. Kediri, Kabupaten Tabanan, Bali 82121","Abian Tuwung, Kec. Kediri, Kabupaten Tabanan",BALI,82121.0,Indonesia, 087860066692,,,-8.5564687,115.1423537,https://maps.google.com/?cid=0x0:0x5e8e5d46d5057399,
supermarket,Toko Perlengkapan Rumah,Bali Retail Mandiri,"Jl. Ahmad Yani No.V / I, Abian Tuwung, Kec. Kediri, Kabupaten Tabanan, Bali 82123","Abian Tuwung, Kec. Kediri, Kabupaten Tabanan",BALI,82123.0,Indonesia, 081238567940,,,-8.5581701,115.1475268,https://maps.google.com/?cid=0x0:0x9b5ffbbeff92b465,
supermarket,Minimarket,Alfamart,"Jl. A Yani Lingk, Taman Sekar, Kec. Kediri, Kab. Tabanan, Bali 82121","Taman Sekar, Kec. Kediri, Kab. Tabanan",BALI,82121.0,Indonesia, 1500959,,,-8.5559545,115.143935,https://maps.google.com/?cid=0x0:0xa989f55ec98cf190,
supermarket,Toko Pakan Hewan,Toko setia ternak,"C4VQ+CRP, Jl. MH. Thamrin, Kediri, Kec. Kediri, Kabupaten Tabanan, Bali 82126","Jl. MH. Thamrin, Kediri, Kec. Kediri, Kabupaten Tabanan",BALI,82126.0,Indonesia, 0361811299,,,-8.5564082,115.1395718,https://maps.google.com/?cid=0x0:0xbeeaaa7e4a930420,
supermarket,Toko bahan makanan,Toko marcioes,"Jl. Ahmad Yani X, Banjar Anyar, Kec. Kediri, Kabupaten Tabanan, Bali 82121","Banjar Anyar, Kec. Kediri, Kabupaten Tabanan",BALI,82121.0,Indonesia, 082121227264,,,-8.5515842,115.1428607,https://maps.google.com/?cid=0x0:0x33b27b66b6ab315e,
supermarket,Toko Kelontong Asia,Toko 77,"Jl. MH. Thamrin No.62, Kediri, Kec. Kediri, Kabupaten Tabanan, Bali 82171","Kediri, Kec. Kediri, Kabupaten Tabanan",BALI,82171.0,Indonesia, 087888000079,,,-8.5565251,115.1395439,https://maps.google.com/?cid=0x0:0x14789d4ab53dc2c5,
supermarket,Toko Swalayan,Bintang Supermarket - Hayam Wuruk Denpasar,"Jl. Hayam Wuruk No.177, Sumerta Kelod, Kec. Denpasar Tim., Kota Denpasar, Bali 80239","Sumerta Kelod, Kec. Denpasar Tim., Kota Denpasar",BALI,80239.0,Indonesia, 0361252680,,,-8.6608309,115.2398343,https://maps.google.com/?cid=0x0:0x3f67942d46cc7299,
supermarket,Toko,Toko Rejeki,"C4VQ+XMC, Jl. MH. Thamrin Gang Sekar Jepun No.6, Kediri, Kec. Kediri, Kabupaten Tabanan, Bali 82121","Jl. MH. Thamrin Gang Sekar Jepun No.6, Kediri, Kec. Kediri, Kabupaten Tabanan",BALI,82121.0,Indonesia, 087861379898,,,-8.5553024,115.139121,https://maps.google.com/?cid=0x0:0xbe94b9b52a1fda32,
supermarket,Pasar bahan bangunan,Toko Bangunan IB Home Kediri,"Jl. By Pass Kediri, Banjar Anyar, Kec. Kediri, Kabupaten Tabanan, Bali 82121","Banjar Anyar, Kec. Kediri, Kabupaten Tabanan",BALI,82121.0,Indonesia, 08113860088,,,-8.5544411,115.1395243,https://maps.google.com/?cid=0x0:0x2d55b238be1aab45,
supermarket,Toko Pakaian,Toko Nyoman,"Jalan Mohammad haji Thamrin, No. 52 Kediri Kediri Kediri, Kediri, Kec. Kota Kediri, Kabupaten Tabanan, Bali 82171","No. 52 Kediri Kediri Kediri, Kediri, Kec. Kota Kediri, Kabupaten Tabanan",BALI,82171.0,Indonesia, 0361811622,,,-8.5561447,115.1396577,https://maps.google.com/?cid=0x0:0x2afc64fb5907591c,
supermarket,Supermarket Diskon,Golden Swalayan Kediri,"Jl. Hayam Wuruk No.121-125, Dandangan, Kec. Kota, Kota Kediri, Jawa Timur 64122","Dandangan, Kec. Kota, Kota Kediri",BALI,64122.0,Indonesia, 0354684665,,,-7.8149461,112.0190665,https://maps.google.com/?cid=0x0:0xffcb01289db7ed37,
supermarket,Toko,Samudera Supermarket Kediri,"Jl. Brigjen Katamso No.1, Kaliombo, Kec. Kota, Kota Kediri, Jawa Timur 64129","Kaliombo, Kec. Kota, Kota Kediri",BALI,64129.0,Indonesia, 087753851785,,,-7.8273937,112.0106548,https://maps.google.com/?cid=0x0:0xe5def6ef5b14d422,
supermarket,Toko Kelontong Asia,Toko Sumber Jaya,"Jl. Dr. Ir. Soekarno No.12 A, Kediri, Kec. Kediri, Kabupaten Tabanan, Bali 82121","Kediri, Kec. Kediri, Kabupaten Tabanan",BALI,82121.0,Indonesia, 0361815269,,,-8.55443,115.1395039,https://maps.google.com/?cid=0x0:0x57198c67781b5b98,
supermarket,Toko Perlengkapan Rumah,Borobudur Swalayan,"Jl. Dhoho No.110 - 116, Setono Gedong, Kec. Kota, Kota Kediri, Jawa Timur 64129","Setono Gedong, Kec. Kota, Kota Kediri",BALI,64129.0,Indonesia, 0354681492,,,-7.817443,112.013013,https://maps.google.com/?cid=0x0:0x9aea7d4fa8d91656,
supermarket,Grosir Barang Kelontong,Marwahmart Swalayan Kediri,"Jl. Raya Kediri - Pare No.246, Area Sawah/Kebun, Adan-Adan, Kec. Gurah, Kabupaten Kediri, Jawa Timur 64181","Area Sawah/Kebun, Adan-Adan, Kec. Gurah, Kabupaten Kediri",BALI,64181.0,Indonesia, 0895622240690,,,-7.7806543,112.1229249,https://maps.google.com/?cid=0x0:0x3937c3916dd2ee60,
supermarket,Minimarket,JMart Kediri,"Jl. Tgh. Ibrahim Al-Khalidy No.168, Kediri, Kec. Kediri, Kabupaten Lombok Barat, Nusa Tenggara Bar. 83362","Kediri, Kec. Kediri, Kabupaten Lombok Barat",BALI,83362.0,Indonesia, 0370671109,,,-8.6313583,116.1500224,https://maps.google.com/?cid=0x0:0x311e7dc2ffcf74c9,
supermarket,supermarket,Bali 82163,"Kec. Pupuan, Kabupaten Tabanan, Bali","Kabupaten Tabanan, Bali",BALI,,Indonesia,,,,-8.360244,115.0228736,https://maps.google.com/?cid=0x0:0x1c00c5eb6016c220,
supermarket,Toko bahan makanan,TOKO PANDYA,"Dusun Batungsel Kelod, Batungsel, Kec. Pupuan, Kabupaten Tabanan, Bali 82163","Batungsel, Kec. Pupuan, Kabupaten Tabanan",BALI,82163.0,Indonesia, 087877533526,,,-8.3477315,115.0299579,https://maps.google.com/?cid=0x0:0xdbc619d3c5a4244d,
supermarket,Minimarket,ALFAMART PUPUAN,"Jl. Gajah Mada, Pupuan, Kec. Pupuan, Kab. Tabanan, Bali 82163","Pupuan, Kec. Pupuan, Kab. Tabanan",BALI,82163.0,Indonesia, 1500959,,,-8.3178858,115.0074687,https://maps.google.com/?cid=0x0:0x8c9c2311d59b42ec,
supermarket,Pasar,Pasar Tradisional Pupuan - ᬧᬲᬃᬢ᭄ᬭᬤᬶᬲ᭄ᬬᭀᬦᬮ᭄ ᬧᬸᬧ᭄ᬯᬦ᭄᭟,"Jl. Gajah Mada No.10, Pupuan, Kec. Pupuan, Kabupaten Tabanan, Bali 82163","Pupuan, Kec. Pupuan, Kabupaten Tabanan",BALI,82163.0,Indonesia, 083117276758,,,-8.317403,115.0059306,https://maps.google.com/?cid=0x0:0x37347f5da787cf74,
supermarket,Toko Swalayan,Warung Dude,"JX7X+RPF, Jelijih Punggung, Kec. Pupuan, Kabupaten Tabanan, Bali 82163","Jelijih Punggung, Kec. Pupuan, Kabupaten Tabanan",BALI,82163.0,Indonesia, 081999416359,,,-8.3854498,114.9992976,https://maps.google.com/?cid=0x0:0x96e9610697ae9ae0,
supermarket,Kafe,Warung Bu Vina,"M2H4+RF2, Pupuan, Kec. Pupuan, Kabupaten Tabanan, Bali 82163","Pupuan, Kec. Pupuan, Kabupaten Tabanan",BALI,82163.0,Indonesia,,,,-8.3204793,115.0061314,https://maps.google.com/?cid=0x0:0xefbf1af70911b8ae,
supermarket,Toko umum,Saktu Mart,"MX5R+M5C, Pajahan, Kec. Pupuan, Kabupaten Tabanan, Bali 82163","Pajahan, Kec. Pupuan, Kabupaten Tabanan",BALI,82163.0,Indonesia, 08123624895,,,-8.3408133,114.990389,https://maps.google.com/?cid=0x0:0xe5376587fb8f4a10,
supermarket,Toko bahan makanan,Indomaret Pupuan,"No., Jl. Gajah Mada No.64, Pupuan, Kec. Pupuan, Kabupaten Tabanan, Bali 82163","Jl. Gajah Mada No.64, Pupuan, Kec. Pupuan, Kabupaten Tabanan",BALI,82163.0,Indonesia, 036271883,,,-8.317853,115.0064944,https://maps.google.com/?cid=0x0:0xbd10c5af026eebd2,
supermarket,Toko Swalayan,UD.Mulya (2),"M2H2+P69, Jl. Simpang Sai Palace, Pupuan, Kec. Pupuan, Kabupaten Tabanan, Bali 82163","Jl. Simpang Sai Palace, Pupuan, Kec. Pupuan, Kabupaten Tabanan",BALI,82163.0,Indonesia, 087862967345,,,-8.3207024,115.0006096,https://maps.google.com/?cid=0x0:0x9e8fb244637f4afc,
supermarket,Toko Swalayan,Warung sayur bu natih,"J2V7+FWW, Unnamed Road, Padangan, Kec. Pupuan, Kabupaten Tabanan, Bali 82163","Unnamed Road, Padangan, Kec. Pupuan, Kabupaten Tabanan",BALI,82163.0,Indonesia,,,,-8.3562706,115.0148402,https://maps.google.com/?cid=0x0:0x7bba553df757cf70,
supermarket,Pasar,Pasar Desa Belimbing,"J26M+RXX, Belimbing, Kec. Pupuan, Kabupaten Tabanan, Bali 82163","Belimbing, Kec. Pupuan, Kabupaten Tabanan",BALI,82163.0,Indonesia,,,,-8.3878779,115.0349769,https://maps.google.com/?cid=0x0:0xaac2295e0aa2a66b,
supermarket,Toko Swalayan,Mrc 24 mart,"H2CH+7XH, Jl. Antosari Pupuan, Belimbing, Kec. Pupuan, Kabupaten Tabanan, Bali 82162","Jl. Antosari Pupuan, Belimbing, Kec. Pupuan, Kabupaten Tabanan",BALI,82162.0,Indonesia,,,,-8.4293027,115.0299997,https://maps.google.com/?cid=0x0:0x2e5b67f2f0517d06,
supermarket,Toko Swalayan,Cinta Toserba,"M26J+5X8, Batungsel, Kec. Pupuan, Kabupaten Tabanan, Bali 82163","Batungsel, Kec. Pupuan, Kabupaten Tabanan",BALI,82163.0,Indonesia,,,,-8.3395934,115.0324655,https://maps.google.com/?cid=0x0:0xb1cb6317f144561d,
supermarket,Komplek perumahan,markas besar RIMBA BARA (WARUNG AGUS),"MX7P+M9R, Pajahan, Kec. Pupuan, Kabupaten Tabanan, Bali 82163","Pajahan, Kec. Pupuan, Kabupaten Tabanan",BALI,82163.0,Indonesia,,,,-8.3357659,114.9858879,https://maps.google.com/?cid=0x0:0x8ff05ab1ac163cbb,
supermarket,Toko Swalayan,UD.Mulya,"UD.Mulya, Pasar Tradisional, Jl. Gajah Mada, Pupuan, Kec. Pupuan, Kabupaten Tabanan, Bali 82163","Pasar Tradisional, Jl. Gajah Mada, Pupuan, Kec. Pupuan, Kabupaten Tabanan",BALI,82163.0,Indonesia, 085857349268,,,-8.3172913,115.0059727,https://maps.google.com/?cid=0x0:0x548b4d7f36b7af9f,
supermarket,Toko Swalayan,Toko DANTI,"Jl. Raya Pupuan, Pupuan, Kec. Pupuan, Kabupaten Tabanan, Bali 82163","Pupuan, Kec. Pupuan, Kabupaten Tabanan",BALI,82163.0,Indonesia, 081558064711,,,-8.3175665,115.005922,https://maps.google.com/?cid=0x0:0x281d4fcf2cf69f9,
supermarket,Toko Swalayan,Warung dek oka,"JX7X+VG6, Jelijih Punggung, Kec. Pupuan, Kabupaten Tabanan, Bali 82163","Jelijih Punggung, Kec. Pupuan, Kabupaten Tabanan",BALI,82163.0,Indonesia,,,,-8.3853289,114.99876,https://maps.google.com/?cid=0x0:0x8b097dcacc0e920c,
supermarket,Toko Swalayan,Warung Buk Hendra,"J234+794, Jelijih Punggung, Kec. Pupuan, Kabupaten Tabanan, Bali 82163","Jelijih Punggung, Kec. Pupuan, Kabupaten Tabanan",BALI,82163.0,Indonesia,,,,-8.3968656,115.0059637,https://maps.google.com/?cid=0x0:0xe1e5352a7868f86,
supermarket,Toko,Warung Bu Susi,"J2V8+QQM, Unnamed Road, Padangan, Kec. Pupuan, Kabupaten Tabanan, Bali 82163","Unnamed Road, Padangan, Kec. Pupuan, Kabupaten Tabanan",BALI,82163.0,Indonesia, 087771837202,,,-8.3555469,115.0169152,https://maps.google.com/?cid=0x0:0x6fbe475dd8603ca7,
supermarket,Toko bahan makanan,Pogok Market,"H2RV+7F3, Selemadeg, Wanagiri Kauh, Desa Kebon Anyar, Wanagiri Kauh, Kec. Selemadeg, Kabupaten Tabanan, Bali 82163","Selemadeg, Wanagiri Kauh, Desa Kebon Anyar, Wanagiri Kauh, Kec. Selemadeg, Kabupaten Tabanan",BALI,82163.0,Indonesia, 085737081213,,,-8.4093719,115.0436743,https://maps.google.com/?cid=0x0:0xa664769e067760f5,
supermarket,Toko Swalayan,Warung gauri,"Munduk Temu, Kec. Pupuan, Kabupaten Tabanan, Bali 82163","Kec. Pupuan, Kabupaten Tabanan",BALI,82163.0,Indonesia, 087864633683,,,-8.3570935,114.9603953,https://maps.google.com/?cid=0x0:0x8cd46a7babbd42d9,
supermarket,Toko Kelontong Asia,Warung Buk Tut Garing,"Jl. Desa Sai No.Br, yeh tua, Kec. Pupuan, Kabupaten Tabanan, Bali 82163","yeh tua, Kec. Pupuan, Kabupaten Tabanan",BALI,82163.0,Indonesia, 085858737236,,,-8.3241799,114.9989902,https://maps.google.com/?cid=0x0:0x62ac7610ec2b02ae,
supermarket,supermarket,Selemadeg,"Selemadeg, Kec. Selemadeg, Kabupaten Tabanan, Bali","Kabupaten Tabanan, Bali",BALI,,Indonesia,,,,-8.491588,115.0457,https://maps.google.com/?cid=0x0:0xc12bf47119051a54,
supermarket,Toko,Toko Alfamart Merthasari,"Jl. Raya Denpasar - Gilimanuk No.401, Lalanglinggah, Kec. Selemadeg Bar., Kabupaten Tabanan, Bali 82162","Lalanglinggah, Kec. Selemadeg Bar., Kabupaten Tabanan",BALI,82162.0,Indonesia,,,,-8.4944994,114.9631882,https://maps.google.com/?cid=0x0:0x495ae0178dd3772f,
supermarket,Toko,Warung Mita,"G2Q8+3HX, Bar.,, Angkah, Kec. Selemadeg Bar., Kabupaten Tabanan, Bali 82162","Bar.,, Angkah, Kec. Selemadeg Bar., Kabupaten Tabanan",BALI,82162.0,Indonesia,,,,-8.4622585,115.0164753,https://maps.google.com/?cid=0x0:0x32bad4e65e35ecab,
supermarket,Toko bahan makanan,MY WAY BALI,"G25P+3H5, Jl. Raya Denpasar - Gilimanuk, Selemadeg, Kec. Selemadeg Tim., Kabupaten Tabanan, Bali 82162","Jl. Raya Denpasar - Gilimanuk, Selemadeg, Kec. Selemadeg Tim., Kabupaten Tabanan",BALI,82162.0,Indonesia,,,,-8.492354,115.0364916,https://maps.google.com/?cid=0x0:0x9e03c9f4a384e7ab,
supermarket,Minimarket,Indomaret Megati,"Jl. Raya Denpasar - Gilimanuk No.28, Megati, Kec. Selemadeg Tim., Kabupaten Tabanan, Bali 82162","Megati, Kec. Selemadeg Tim., Kabupaten Tabanan",BALI,82162.0,Indonesia,,,,-8.4979166,115.0550663,https://maps.google.com/?cid=0x0:0x1b91530491b7e487,
supermarket,Toko,Toko sari galuh,"F2G5+76, Antap, Kec. Selemadeg, Kabupaten Tabanan, Bali 82162","Antap, Kec. Selemadeg, Kabupaten Tabanan",BALI,82162.0,Indonesia,,,,-8.524302,115.0081105,https://maps.google.com/?cid=0x0:0xe5d702ce7ad4dce3,
supermarket,Toko bahan makanan,WIDI STORE,"Tim., Bantas, Kec. Selemadeg Tim., Kabupaten Tabanan, Bali 82162","Bantas, Kec. Selemadeg Tim., Kabupaten Tabanan",BALI,82162.0,Indonesia,,,,-8.4982012,115.0547619,https://maps.google.com/?cid=0x0:0xecbe0c3a2597cdf6,
supermarket,Pusat Perbelanjaan,Warung odelia,"H344+VCV, Manikyang, Kec. Selemadeg, Kabupaten Tabanan, Bali 82162","Manikyang, Kec. Selemadeg, Kabupaten Tabanan",BALI,82162.0,Indonesia,,,,-8.4429358,115.0569465,https://maps.google.com/?cid=0x0:0xfba460ab3bdefc25,
supermarket,Toko bahan makanan,Toko Klirin,"F2VG+XMP, Bajera, Kec. Selemadeg, Kabupaten Tabanan, Bali 82162","Bajera, Kec. Selemadeg, Kabupaten Tabanan",BALI,82162.0,Indonesia,,,,-8.5050411,115.0267071,https://maps.google.com/?cid=0x0:0xefd88ec64208a1f5,
supermarket,Toko grosir,Dwita Grosir,"F3X6+G95, Unnamed Road, Bantas, Selemadeg Timur, Tabanan Regency, Bali 82162","Unnamed Road, Bantas, Selemadeg Timur, Tabanan Regency",BALI,82162.0,Indonesia,,,,-8.501238,115.0609698,https://maps.google.com/?cid=0x0:0xea3a48f2339fd150,
supermarket,Toko bahan makanan,I KETUT NARSA,"GWHG+4X6, Jl. Raya Denpasar - Gilimanuk, Selabih, Kec. Selemadeg Bar., Kabupaten Tabanan, Bali 82162","Jl. Raya Denpasar - Gilimanuk, Selabih, Kec. Selemadeg Bar., Kabupaten Tabanan",BALI,82162.0,Indonesia,,,,-8.4722031,114.9273775,https://maps.google.com/?cid=0x0:0x7a05a9c72b31a373,
supermarket,Toko Swalayan,Investama Grosir,"F2WH+P29, Jl. Raya Denpasar - Gilimanuk, Bajera, Kec. Selemadeg, Kabupaten Tabanan, Bali 82162","Jl. Raya Denpasar - Gilimanuk, Bajera, Kec. Selemadeg, Kabupaten Tabanan",BALI,82162.0,Indonesia, 081336493924,,,-8.5032007,115.0276027,https://maps.google.com/?cid=0x0:0x8ecf9338953e7a0f,
supermarket,Toko bahan makanan,Warung Yuli,"HX8J+WGC, Jl. Banjar Surabrata, Mundeh, Kec. Selemadeg Bar., Kabupaten Tabanan, Bali 82162","Jl. Banjar Surabrata, Mundeh, Kec. Selemadeg Bar., Kabupaten Tabanan",BALI,82162.0,Indonesia,,,,-8.4326955,114.9812585,https://maps.google.com/?cid=0x0:0xe451235b1b91c191,
supermarket,Toko Swalayan,Warung Djumahan De Adi,"Jl. Raya Denpasar - Gilimanuk No.8, Megati, Kec. Selemadeg Tim., Kabupaten Tabanan, Bali 82162","Megati, Kec. Selemadeg Tim., Kabupaten Tabanan",BALI,82162.0,Indonesia, 085706819775,,,-8.496023,115.047964,https://maps.google.com/?cid=0x0:0x32ce5e5ded5bb0d7,
supermarket,Toko grosir,Dwita Grosir,"G22M+W8J, Berembeng, Kec. Selemadeg, Kabupaten Tabanan, Bali","Kabupaten Tabanan, Bali",BALI,,Indonesia, 081236480899,,,-8.4976729,115.0332566,https://maps.google.com/?cid=0x0:0x832b62a3ee0c300f,
supermarket,Toko Swalayan,Pepito Market Buwit,"Jl. By Pass Tanah Lot, Buwit, Kec. Kediri, Kabupaten Tabanan, Bali 80351","Buwit, Kec. Kediri, Kabupaten Tabanan",BALI,80351.0,Indonesia, 087700067888,,,-8.6157579,115.1153628,https://maps.google.com/?cid=0x0:0xb17a688b2ae59d4a,
supermarket,Toko Swalayan,Warung Adi,"F377+WMC, mambang celuk kelod, Mambang, Kec. Selemadeg Tim., Kabupaten Tabanan, Bali 82161","mambang celuk kelod, Mambang, Kec. Selemadeg Tim., Kabupaten Tabanan",BALI,82161.0,Indonesia, 0819362254532,,,-8.5351801,115.0641469,https://maps.google.com/?cid=0x0:0x5de85e9ba32f18e6,
supermarket,Toko Swalayan,Grand Lucky Supermarket,"Jl. Sunset Road No.29, Kuta, Kec. Kuta, Kabupaten Badung, Bali 80361","Kuta, Kec. Kuta, Kabupaten Badung",BALI,80361.0,Indonesia, 0361762308,,,-8.7071714,115.1837175,https://maps.google.com/?cid=0x0:0xf625ece1b610a74c,
supermarket,Toko Buah Kering,Manggis Super 15,"Br Dinas, Wanagiri, Kec. Selemadeg, Kabupaten Tabanan, Bali 82162","Wanagiri, Kec. Selemadeg, Kabupaten Tabanan",BALI,82162.0,Indonesia, 085792853794,,,-8.4229202,115.0591545,https://maps.google.com/?cid=0x0:0xc67df6d1016f6958,
supermarket,Minimarket,Karya Sari Tabanan,"Jl. By Pass Kediri No.8-9, Delod Peken, Kec. Tabanan, Kabupaten Tabanan, Bali 82121","Delod Peken, Kec. Tabanan, Kabupaten Tabanan",BALI,82121.0,Indonesia, 03617991681,,,-8.5504229,115.1242282,https://maps.google.com/?cid=0x0:0xa2e78542843119dd,
supermarket,supermarket,Selemadeg,"Selemadeg, Kec. Selemadeg, Kabupaten Tabanan, Bali","Kabupaten Tabanan, Bali",BALI,,Indonesia,,,,-8.491588,115.0457,https://maps.google.com/?cid=0x0:0xc12bf47119051a54,
supermarket,Toko bahan makanan,Alfamart Megati,"Jl. Denpasar Gilimanuk Lingk, Jelijih Tegeh, Kec. Selemadeg, Kab. Tabanan, Bali 82162","Jelijih Tegeh, Kec. Selemadeg, Kab. Tabanan",BALI,82162.0,Indonesia, 0211500959,,,-8.4953291,115.0487731,https://maps.google.com/?cid=0x0:0x5beff8cc9c594f2a,
supermarket,Toko bahan makanan,MY WAY BALI,"G25P+3H5, Jl. Raya Denpasar - Gilimanuk, Selemadeg, Kec. Selemadeg Tim., Kabupaten Tabanan, Bali 82162","Jl. Raya Denpasar - Gilimanuk, Selemadeg, Kec. Selemadeg Tim., Kabupaten Tabanan",BALI,82162.0,Indonesia,,,,-8.492354,115.0364916,https://maps.google.com/?cid=0x0:0x9e03c9f4a384e7ab,
supermarket,Minimarket,Toko Bintang Tiga,"F3F3+2M2, Br.Dukuh Pulu Kaja, Sudimara, Kec. Selemadeg Tim., Kabupaten Tabanan, Bali 82161","Br.Dukuh Pulu Kaja, Sudimara, Kec. Selemadeg Tim., Kabupaten Tabanan",BALI,82161.0,Indonesia,,,,-8.5274957,115.0541519,https://maps.google.com/?cid=0x0:0x69c28779a9dcdb89,
supermarket,Toko,Toko Alfamart Merthasari,"Jl. Raya Denpasar - Gilimanuk No.401, Lalanglinggah, Kec. Selemadeg Bar., Kabupaten Tabanan, Bali 82162","Lalanglinggah, Kec. Selemadeg Bar., Kabupaten Tabanan",BALI,82162.0,Indonesia,,,,-8.4944994,114.9631882,https://maps.google.com/?cid=0x0:0x495ae0178dd3772f,
supermarket,Toko bahan makanan,WIDI STORE,"Tim., Bantas, Kec. Selemadeg Tim., Kabupaten Tabanan, Bali 82162","Bantas, Kec. Selemadeg Tim., Kabupaten Tabanan",BALI,82162.0,Indonesia,,,,-8.4982012,115.0547619,https://maps.google.com/?cid=0x0:0xecbe0c3a2597cdf6,
supermarket,Toko Swalayan,Warung Sedani Rejeki,"F2MH+G89, Berembeng, Kec. Selemadeg, Kabupaten Tabanan, Bali 82162","Berembeng, Kec. Selemadeg, Kabupaten Tabanan",BALI,82162.0,Indonesia, 0811399770,,,-8.5162079,115.0283542,https://maps.google.com/?cid=0x0:0xb34074b39487b456,
supermarket,Toko Swalayan,Warung Djumahan De Adi,"Jl. Raya Denpasar - Gilimanuk No.8, Megati, Kec. Selemadeg Tim., Kabupaten Tabanan, Bali 82162","Megati, Kec. Selemadeg Tim., Kabupaten Tabanan",BALI,82162.0,Indonesia, 085706819775,,,-8.496023,115.047964,https://maps.google.com/?cid=0x0:0x32ce5e5ded5bb0d7,
supermarket,Toko,Warung Mita,"G2Q8+3HX, Bar.,, Angkah, Kec. Selemadeg Bar., Kabupaten Tabanan, Bali 82162","Bar.,, Angkah, Kec. Selemadeg Bar., Kabupaten Tabanan",BALI,82162.0,Indonesia,,,,-8.4622585,115.0164753,https://maps.google.com/?cid=0x0:0x32bad4e65e35ecab,
supermarket,Toko bahan makanan,Toko divta,"F3W9+XF8, Bantas, Kec. Selemadeg Tim., Kabupaten Tabanan, Bali 82161","Bantas, Kec. Selemadeg Tim., Kabupaten Tabanan",BALI,82161.0,Indonesia, 081339191986,,,-8.5025764,115.0687076,https://maps.google.com/?cid=0x0:0x3485e02ba288b6f6,
supermarket,Toko grosir,Dwita Grosir,"F3X6+G95, Unnamed Road, Bantas, Selemadeg Timur, Tabanan Regency, Bali 82162","Unnamed Road, Bantas, Selemadeg Timur, Tabanan Regency",BALI,82162.0,Indonesia,,,,-8.501238,115.0609698,https://maps.google.com/?cid=0x0:0xea3a48f2339fd150,
supermarket,Toko grosir,Dwita Grosir,"G22M+W8J, Berembeng, Kec. Selemadeg, Kabupaten Tabanan, Bali","Kabupaten Tabanan, Bali",BALI,,Indonesia, 081236480899,,,-8.4976729,115.0332566,https://maps.google.com/?cid=0x0:0x832b62a3ee0c300f,
supermarket,Toko bahan makanan,Toko Klirin,"F2VG+XMP, Bajera, Kec. Selemadeg, Kabupaten Tabanan, Bali 82162","Bajera, Kec. Selemadeg, Kabupaten Tabanan",BALI,82162.0,Indonesia,,,,-8.5050411,115.0267071,https://maps.google.com/?cid=0x0:0xefd88ec64208a1f5,
supermarket,Toko,Toko sari galuh,"F2G5+76, Antap, Kec. Selemadeg, Kabupaten Tabanan, Bali 82162","Antap, Kec. Selemadeg, Kabupaten Tabanan",BALI,82162.0,Indonesia,,,,-8.524302,115.0081105,https://maps.google.com/?cid=0x0:0xe5d702ce7ad4dce3,
supermarket,Pusat Perbelanjaan,Warung odelia,"H344+VCV, Manikyang, Kec. Selemadeg, Kabupaten Tabanan, Bali 82162","Manikyang, Kec. Selemadeg, Kabupaten Tabanan",BALI,82162.0,Indonesia,,,,-8.4429358,115.0569465,https://maps.google.com/?cid=0x0:0xfba460ab3bdefc25,
supermarket,Toko bahan makanan,I KETUT NARSA,"GWHG+4X6, Jl. Raya Denpasar - Gilimanuk, Selabih, Kec. Selemadeg Bar., Kabupaten Tabanan, Bali 82162","Jl. Raya Denpasar - Gilimanuk, Selabih, Kec. Selemadeg Bar., Kabupaten Tabanan",BALI,82162.0,Indonesia,,,,-8.4722031,114.9273775,https://maps.google.com/?cid=0x0:0x7a05a9c72b31a373,
supermarket,Toko Swalayan,Investama Grosir,"F2WH+P29, Jl. Raya Denpasar - Gilimanuk, Bajera, Kec. Selemadeg, Kabupaten Tabanan, Bali 82162","Jl. Raya Denpasar - Gilimanuk, Bajera, Kec. Selemadeg, Kabupaten Tabanan",BALI,82162.0,Indonesia, 081336493924,,,-8.5032007,115.0276027,https://maps.google.com/?cid=0x0:0x8ecf9338953e7a0f,
supermarket,Toko Swalayan,Warung Adi,"F377+WMC, mambang celuk kelod, Mambang, Kec. Selemadeg Tim., Kabupaten Tabanan, Bali 82161","mambang celuk kelod, Mambang, Kec. Selemadeg Tim., Kabupaten Tabanan",BALI,82161.0,Indonesia, 0819362254532,,,-8.5351801,115.0641469,https://maps.google.com/?cid=0x0:0x5de85e9ba32f18e6,
supermarket,Toko bahan makanan,Warung Yuli,"HX8J+WGC, Jl. Banjar Surabrata, Mundeh, Kec. Selemadeg Bar., Kabupaten Tabanan, Bali 82162","Jl. Banjar Surabrata, Mundeh, Kec. Selemadeg Bar., Kabupaten Tabanan",BALI,82162.0,Indonesia,,,,-8.4326955,114.9812585,https://maps.google.com/?cid=0x0:0xe451235b1b91c191,
supermarket,Toko Swalayan,Pepito Market Buwit,"Jl. By Pass Tanah Lot, Buwit, Kec. Kediri, Kabupaten Tabanan, Bali 80351","Buwit, Kec. Kediri, Kabupaten Tabanan",BALI,80351.0,Indonesia, 087700067888,,,-8.6157579,115.1153628,https://maps.google.com/?cid=0x0:0xb17a688b2ae59d4a,
supermarket,Toko,Toko Surya Kencana,"H35J+Q6R, Dalang, Kec. Selemadeg Tim., Kabupaten Tabanan, Bali 82152","Dalang, Kec. Selemadeg Tim., Kabupaten Tabanan",BALI,82152.0,Indonesia,,,,-8.4405148,115.0805218,https://maps.google.com/?cid=0x0:0x6f0de32fa9f57910,
supermarket,Minimarket,Alfamart Bajera,"Jl Raya, Bajera, Kec. Selemadeg, Kab. Tabanan, Bali 82162","Bajera, Kec. Selemadeg, Kab. Tabanan",BALI,82162.0,Indonesia, 1500959,,,-8.50379,115.02962,https://maps.google.com/?cid=0x0:0xe9e546b8da9e517c,
supermarket,Toko,Toko Alfamart Merthasari,"Jl. Raya Denpasar - Gilimanuk No.401, Lalanglinggah, Kec. Selemadeg Bar., Kabupaten Tabanan, Bali 82162","Lalanglinggah, Kec. Selemadeg Bar., Kabupaten Tabanan",BALI,82162.0,Indonesia,,,,-8.4944994,114.9631882,https://maps.google.com/?cid=0x0:0x495ae0178dd3772f,
supermarket,supermarket,Selemadeg,"Selemadeg, Kec. Selemadeg, Kabupaten Tabanan, Bali","Kabupaten Tabanan, Bali",BALI,,Indonesia,,,,-8.491588,115.0457,https://maps.google.com/?cid=0x0:0xc12bf47119051a54,
supermarket,Toko bahan makanan,MY WAY BALI,"G25P+3H5, Jl. Raya Denpasar - Gilimanuk, Selemadeg, Kec. Selemadeg Tim., Kabupaten Tabanan, Bali 82162","Jl. Raya Denpasar - Gilimanuk, Selemadeg, Kec. Selemadeg Tim., Kabupaten Tabanan",BALI,82162.0,Indonesia,,,,-8.492354,115.0364916,https://maps.google.com/?cid=0x0:0x9e03c9f4a384e7ab,
supermarket,Toko bahan makanan,WIDI STORE,"Tim., Bantas, Kec. Selemadeg Tim., Kabupaten Tabanan, Bali 82162","Bantas, Kec. Selemadeg Tim., Kabupaten Tabanan",BALI,82162.0,Indonesia,,,,-8.4982012,115.0547619,https://maps.google.com/?cid=0x0:0xecbe0c3a2597cdf6,
supermarket,Toko,Toko sari galuh,"F2G5+76, Antap, Kec. Selemadeg, Kabupaten Tabanan, Bali 82162","Antap, Kec. Selemadeg, Kabupaten Tabanan",BALI,82162.0,Indonesia,,,,-8.524302,115.0081105,https://maps.google.com/?cid=0x0:0xe5d702ce7ad4dce3,
supermarket,Toko grosir,Dwita Grosir,"G22M+W8J, Berembeng, Kec. Selemadeg, Kabupaten Tabanan, Bali","Kabupaten Tabanan, Bali",BALI,,Indonesia, 081236480899,,,-8.4976729,115.0332566,https://maps.google.com/?cid=0x0:0x832b62a3ee0c300f,
supermarket,Toko bahan makanan,I KETUT NARSA,"GWHG+4X6, Jl. Raya Denpasar - Gilimanuk, Selabih, Kec. Selemadeg Bar., Kabupaten Tabanan, Bali 82162","Jl. Raya Denpasar - Gilimanuk, Selabih, Kec. Selemadeg Bar., Kabupaten Tabanan",BALI,82162.0,Indonesia,,,,-8.4722031,114.9273775,https://maps.google.com/?cid=0x0:0x7a05a9c72b31a373,
supermarket,Toko bahan makanan,Warung Yuli,"HX8J+WGC, Jl. Banjar Surabrata, Mundeh, Kec. Selemadeg Bar., Kabupaten Tabanan, Bali 82162","Jl. Banjar Surabrata, Mundeh, Kec. Selemadeg Bar., Kabupaten Tabanan",BALI,82162.0,Indonesia,,,,-8.4326955,114.9812585,https://maps.google.com/?cid=0x0:0xe451235b1b91c191,
supermarket,Minimarket,WBN Mini mart ( warung buk nita ),"Unnamed Road, Mundeh Kangin, Kec. Selemadeg Bar., Kabupaten Tabanan, Bali 82162","Mundeh Kangin, Kec. Selemadeg Bar., Kabupaten Tabanan",BALI,82162.0,Indonesia, 085737030955,,,-8.4232456,114.9918896,https://maps.google.com/?cid=0x0:0x84e9ebf78000bd17,
supermarket,Minimarket,Karya Sari Tabanan,"Jl. By Pass Kediri No.8-9, Delod Peken, Kec. Tabanan, Kabupaten Tabanan, Bali 82121","Delod Peken, Kec. Tabanan, Kabupaten Tabanan",BALI,82121.0,Indonesia, 03617991681,,,-8.5504229,115.1242282,https://maps.google.com/?cid=0x0:0xa2e78542843119dd,
supermarket,supermarket,Bali 82111,"Dauh Peken, Kec. Tabanan, Kabupaten Tabanan, Bali","Kabupaten Tabanan, Bali",BALI,,Indonesia,,,,-8.5409595,115.1238186,https://maps.google.com/?cid=0x0:0xbf92027fe4bf1db1,
supermarket,Toko,Kawan Supermarket,"Pasar Tabanan, 2nd Floor, JL Gunung Semeru, Tabanan, Delod Peken, Tabanan, Tabanan Regency, Bali 82121","2nd Floor, JL Gunung Semeru, Tabanan, Delod Peken, Tabanan, Tabanan Regency",BALI,82121.0,Indonesia, 0362812687,,,-8.5394589,115.1269452,https://maps.google.com/?cid=0x0:0x4548d9cef36d18e2,
supermarket,Toko Swalayan,Pepito Market Kediri,"Jl. Dr. Ir. Soekarno No.88, Banjar Anyar, Kec. Kediri, Kabupaten Tabanan, Bali 82121","Banjar Anyar, Kec. Kediri, Kabupaten Tabanan",BALI,82121.0,Indonesia, 087800526113,,,-8.5529349,115.1345187,https://maps.google.com/?cid=0x0:0x36f473c6f55fd34c,
supermarket,Toko Kelontong Asia,Rafi's Shop,"Jl. Kamboja No.21, Dauh Peken, Kec. Tabanan, Kabupaten Tabanan, Bali 82111","Dauh Peken, Kec. Tabanan, Kabupaten Tabanan",BALI,82111.0,Indonesia,,,,-8.541233,115.1247238,https://maps.google.com/?cid=0x0:0xbd674f67945295c4,
supermarket,Minimarket,Minimart,"Jl. Dr. Ir. Soekarno No.1935, Dauh Peken, Kec. Tabanan, Kabupaten Tabanan, Bali 82113","Dauh Peken, Kec. Tabanan, Kabupaten Tabanan",BALI,82113.0,Indonesia,,,,-8.5386718,115.1114393,https://maps.google.com/?cid=0x0:0x9e7cc8e19ae63cb6,
supermarket,Toko Buah dan Sayur,Kadek Buah,"Jl. Gajah Mada No.130-122, Dauh Peken, Kec. Tabanan, Kabupaten Tabanan, Bali 82113","Dauh Peken, Kec. Tabanan, Kabupaten Tabanan",BALI,82113.0,Indonesia, 087740513213,,,-8.5384698,115.1236471,https://maps.google.com/?cid=0x0:0xaba2c3d75bf20c13,
supermarket,Pasar,Pasar Besar Tabanan,"F46G+GJ4, Delod Peken, Kec. Tabanan, Kabupaten Tabanan, Bali 82113","Delod Peken, Kec. Tabanan, Kabupaten Tabanan",BALI,82113.0,Indonesia,,,,-8.5387351,115.126571,https://maps.google.com/?cid=0x0:0xa389eef062b8d7d,
supermarket,Toko Alat Tulis,Global Mart Tabanan,"Jl. Gatot Subroto No.2A, Banjar Anyar, Kec. Kediri, Kabupaten Tabanan, Bali 82121","Banjar Anyar, Kec. Kediri, Kabupaten Tabanan",BALI,82121.0,Indonesia, 081237277978,,,-8.5451769,115.1429099,https://maps.google.com/?cid=0x0:0xb1e33717430090f8,
supermarket,Toko Swalayan,Pepito Market Buwit,"Jl. By Pass Tanah Lot, Buwit, Kec. Kediri, Kabupaten Tabanan, Bali 80351","Buwit, Kec. Kediri, Kabupaten Tabanan",BALI,80351.0,Indonesia, 087700067888,,,-8.6157579,115.1153628,https://maps.google.com/?cid=0x0:0xb17a688b2ae59d4a,
supermarket,Toko Swalayan,Poppits Tabanan,"Jl. Gajah Mada No.27, Delod Peken, Kec. Tabanan, Kabupaten Tabanan, Bali 82121","Delod Peken, Kec. Tabanan, Kabupaten Tabanan",BALI,82121.0,Indonesia,,,,-8.5398163,115.1265458,https://maps.google.com/?cid=0x0:0xd0b2d9b14accb32e,
supermarket,Toko Swalayan,Giri Kencana Super Market,"Jl. Kalanganyar Sudimara No.184, Sudimara, Kec. Tabanan, Kabupaten Tabanan, Bali 82115","Sudimara, Kec. Tabanan, Kabupaten Tabanan",BALI,82115.0,Indonesia, 082340007674,,,-8.5690279,115.0809647,https://maps.google.com/?cid=0x0:0x6d8e729d02a7da9,
supermarket,Toko Swalayan,Clandy's Mart Tabanan 3,"Jl. Dr. Ir. Soekarno No.8, Delod Peken, Kec. Tabanan, Kabupaten Tabanan, Bali 82121","Delod Peken, Kec. Tabanan, Kabupaten Tabanan",BALI,82121.0,Indonesia, 081937920256,,,-8.5506257,115.1259101,https://maps.google.com/?cid=0x0:0x520d719cf629042b,
supermarket,Pasar,Pasar tradisional tabanan,"Jl. Gunung Semeru No.68, Delod Peken, Kec. Tabanan, Kabupaten Tabanan, Bali 82121","Delod Peken, Kec. Tabanan, Kabupaten Tabanan",BALI,82121.0,Indonesia,,,,-8.5385512,115.1259958,https://maps.google.com/?cid=0x0:0xc6b257bb9400760a,
supermarket,Salon Kecantikan,"She Collection, Tabanan","Jl. Mawar No.26 A, Delod Peken, Kec. Tabanan, Kabupaten Tabanan, Bali 82121","Delod Peken, Kec. Tabanan, Kabupaten Tabanan",BALI,82121.0,Indonesia, 03617991639,,,-8.5462499,115.1243265,https://maps.google.com/?cid=0x0:0x7fc403869b7ba239,
supermarket,Toko Buku,Toko Buku Indah - Tabanan,"Jl. Rambutan No.26, Delod Peken, Kec. Tabanan, Kabupaten Tabanan, Bali 82113","Delod Peken, Kec. Tabanan, Kabupaten Tabanan",BALI,82113.0,Indonesia, 0361819673,,,-8.5528298,115.1265432,https://maps.google.com/?cid=0x0:0x27a52279911416d7,
supermarket,Pusat Perbelanjaan,OB Fitness  Health - supermarket karya sari tabanan,"Jl. By Pass Kediri No.9c, Delod Peken, Kec. Tabanan, Kabupaten Tabanan, Bali 82121","Delod Peken, Kec. Tabanan, Kabupaten Tabanan",BALI,82121.0,Indonesia, 08164711020,,,-8.5504045,115.1245192,https://maps.google.com/?cid=0x0:0x9cd24d487d102e41,
supermarket,Toko Elektronik,Toko Suara Indah,"Jl. Melati No.9, Delod Peken, Kec. Tabanan, Kabupaten Tabanan, Bali 82121","Delod Peken, Kec. Tabanan, Kabupaten Tabanan",BALI,82121.0,Indonesia, 03617991430,,,-8.5399599,115.1263544,https://maps.google.com/?cid=0x0:0x18ba638f3c4c49a1,
supermarket,Toko Swalayan,Kurnia Agungmulia Sejahtera,"Jl. Pulau Menjangan No.79, Dauh Peken, Kec. Tabanan, Kabupaten Tabanan, Bali 82113","Dauh Peken, Kec. Tabanan, Kabupaten Tabanan",BALI,82113.0,Indonesia, 082144413901,,,-8.5371773,115.1175638,https://maps.google.com/?cid=0x0:0xd6fe154a5a16dca,
supermarket,Toko bahan makanan,Lenon Mart,"C33V+9RR, Jl. Pantai Kedungu, Belalang, Kec. Kediri, Kabupaten Tabanan, Bali 82121","Jl. Pantai Kedungu, Belalang, Kec. Kediri, Kabupaten Tabanan",BALI,82121.0,Indonesia, 08123806473,,,-8.5965203,115.0945162,https://maps.google.com/?cid=0x0:0x2fadbaa084d8a81,
supermarket,Toko,Sumber sari,"Delod Peken no 5, Delod Peken, Kec. Tabanan, Kabupaten Tabanan, Bali 82121","Delod Peken, Kec. Tabanan, Kabupaten Tabanan",BALI,82121.0,Indonesia, 085792985544,,,-8.5404531,115.1256763,https://maps.google.com/?cid=0x0:0x20030a848456bcd8,
supermarket,Kedai Kopi,Teras Temu Kopi,"Jl. Kamboja No.9, Delod Peken, Kec. Tabanan, Kabupaten Tabanan, Bali 82113","Delod Peken, Kec. Tabanan, Kabupaten Tabanan",BALI,82113.0,Indonesia, 081339403917,,,-8.54032,115.12503,https://maps.google.com/?cid=0x0:0x22b58c5f744dd5c6,
supermarket,Toko Peralatan Olahraga,Piton Gym Store,"Jl. Melati No.11, Delod Peken, Kec. Tabanan, Kabupaten Tabanan, Bali 82113","Delod Peken, Kec. Tabanan, Kabupaten Tabanan",BALI,82113.0,Indonesia, 087857196363,,,-8.5425047,115.1255065,https://maps.google.com/?cid=0x0:0xe77d24118a37a1ce,
supermarket,Toko bahan makanan,Oka Jaya,"Jl. Melati No.30, Delod Peken, Kec. Tabanan, Kabupaten Tabanan, Bali 82121","Delod Peken, Kec. Tabanan, Kabupaten Tabanan",BALI,82121.0,Indonesia, 081999096581,,,-8.5421332,115.1252738,https://maps.google.com/?cid=0x0:0x5e9d157282752b26,
supermarket,Minimarket,Agen BRILINK Kyuu Dessert,"F45F+JX4, Jl. Belimbing, Dauh Peken, Kec. Tabanan, Kabupaten Tabanan, Bali 82113","Jl. Belimbing, Dauh Peken, Kec. Tabanan, Kabupaten Tabanan",BALI,82113.0,Indonesia,,,,-8.5409781,115.1249527,https://maps.google.com/?cid=0x0:0x2b948c07ded09b6d,
supermarket,Toko Mainan,King Toys,"F42F+9H2, Jl. Mawar, Delod Peken, Kec. Tabanan, Kabupaten Tabanan, Bali 82121","Jl. Mawar, Delod Peken, Kec. Tabanan, Kabupaten Tabanan",BALI,82121.0,Indonesia, 085100949075,,,-8.5491101,115.123878,https://maps.google.com/?cid=0x0:0x1634299c39af469,
supermarket,Minimarket,Karya Sari Tabanan,"Jl. By Pass Kediri No.8-9, Delod Peken, Kec. Tabanan, Kabupaten Tabanan, Bali 82121","Delod Peken, Kec. Tabanan, Kabupaten Tabanan",BALI,82121.0,Indonesia, 03617991681,,,-8.5504229,115.1242282,https://maps.google.com/?cid=0x0:0xa2e78542843119dd,
supermarket,supermarket,Bali 82112,"Bongan, Kec. Tabanan, Kabupaten Tabanan, Bali","Kabupaten Tabanan, Bali",BALI,,Indonesia,,,,-8.5588496,115.1088704,https://maps.google.com/?cid=0x0:0xfa710f41553e98e9,
supermarket,Toko Swalayan,D'sawah mart,"Jl. Pantai Kedungu No.1, Nyitdah, Kec. Kediri, Kabupaten Tabanan, Bali 82121","Nyitdah, Kec. Kediri, Kabupaten Tabanan",BALI,82121.0,Indonesia,,,,-8.5802894,115.1108852,https://maps.google.com/?cid=0x0:0x57073f5f7ad62e6a,
supermarket,Toko bahan makanan,UD. Bali Bagus,"Jl. Yeh Gangga I No.11X, Gubug, Kec. Tabanan, Kabupaten Tabanan, Bali 82115","Gubug, Kec. Tabanan, Kabupaten Tabanan",BALI,82115.0,Indonesia,,,,-8.5658967,115.0905069,https://maps.google.com/?cid=0x0:0x7e415d3d82003178,
supermarket,Toko Alat Tulis,Nadhi Mart Stationery Bali,"Dauh Peken, Kec. Tabanan, Kabupaten Tabanan, Bali 82113","Kec. Tabanan, Kabupaten Tabanan",BALI,82113.0,Indonesia, 089602766717,,,-8.5455237,115.1149086,https://maps.google.com/?cid=0x0:0xf634788b1917963d,
supermarket,Toko bahan makanan,Toko Wanyu,"C4R7+782, Bongan, Kec. Tabanan, Kabupaten Tabanan, Bali 82112","Bongan, Kec. Tabanan, Kabupaten Tabanan",BALI,82112.0,Indonesia,,,,-8.5593558,115.1132585,https://maps.google.com/?cid=0x0:0xc4c2a698f590998b,
supermarket,Minimarket,Indomaret Anyelir,"C4W6+P58, Bongan, Kec. Tabanan, Kabupaten Tabanan, Bali 82112","Bongan, Kec. Tabanan, Kabupaten Tabanan",BALI,82112.0,Indonesia,,,,-8.5532031,115.1104464,https://maps.google.com/?cid=0x0:0xdac36ff6d1e9490a,
supermarket,Toko,Jaya Warsa Jl Kebo Iwo Bongan Tabanan,"C4Q6+HPV, Bongan, Kec. Tabanan, Kabupaten Tabanan, Bali 82112","Bongan, Kec. Tabanan, Kabupaten Tabanan",BALI,82112.0,Indonesia, 081997729726,,,-8.561008,115.1117893,https://maps.google.com/?cid=0x0:0x2882cd70cf0a7f6d,
supermarket,Toko Kelontong Asia,Toko Danny,"C4W2+947, Gubug, Kec. Tabanan, Kabupaten Tabanan, Bali 82115","Gubug, Kec. Tabanan, Kabupaten Tabanan",BALI,82115.0,Indonesia, 03617992427,,,-8.5540892,115.1002964,https://maps.google.com/?cid=0x0:0x9ad8a1084da93318,
supermarket,Toko Perlengkapan Rumah,Star Mart 2,"Jl. Pantai Kedungu No.65, Nyitdah, Kec. Kediri, Kabupaten Tabanan, Bali 82121","Nyitdah, Kec. Kediri, Kabupaten Tabanan",BALI,82121.0,Indonesia, 087861814666,,,-8.5778489,115.1157765,https://maps.google.com/?cid=0x0:0x94794b6d11f21d31,
supermarket,Toko,Kawan Supermarket,"Pasar Tabanan, 2nd Floor, JL Gunung Semeru, Tabanan, Delod Peken, Tabanan, Tabanan Regency, Bali 82121","2nd Floor, JL Gunung Semeru, Tabanan, Delod Peken, Tabanan, Tabanan Regency",BALI,82121.0,Indonesia, 0362812687,,,-8.5394589,115.1269452,https://maps.google.com/?cid=0x0:0x4548d9cef36d18e2,
supermarket,Minimarket,Warung Saya Mungkin,"F433+W68, Jl. Garuda, Pangkung Karung, Kec. Kerambitan, Kabupaten Tabanan, Bali 82115","Jl. Garuda, Pangkung Karung, Kec. Kerambitan, Kabupaten Tabanan",BALI,82115.0,Indonesia,,,,-8.5452112,115.1030727,https://maps.google.com/?cid=0x0:0x14ec18d72d3c98b2,
supermarket,Toko,Indra Jaya,"F426+2W5, Jl. Anyelir, Bongan, Kec. Tabanan, Kabupaten Tabanan, Bali 82112","Jl. Anyelir, Bongan, Kec. Tabanan, Kabupaten Tabanan",BALI,82112.0,Indonesia, 087862181169,,,-8.549985,115.1123565,https://maps.google.com/?cid=0x0:0x6a121ff2622a6252,
supermarket,Toko,TOKO BERKAT,"C4V8+CPW, Bongan, Kec. Tabanan, Kabupaten Tabanan, Bali 82112","Bongan, Kec. Tabanan, Kabupaten Tabanan",BALI,82112.0,Indonesia, 085237192921,,,-8.5563998,115.1168311,https://maps.google.com/?cid=0x0:0xc8006d00829eb932,
supermarket,Toko Pakaian,Happy Mart,"C4X3+4PF, Jl. Yeh Gangga I, Gubug, Kec. Tabanan, Kabupaten Tabanan, Bali 82115","Jl. Yeh Gangga I, Gubug, Kec. Tabanan, Kabupaten Tabanan",BALI,82115.0,Indonesia, 0361819613,,,-8.5521882,115.1043124,https://maps.google.com/?cid=0x0:0xbfadd2448c4c2da0,
supermarket,Toko Swalayan,Bali Bagus Bongan,"Bongan, Kec. Tabanan, Kabupaten Tabanan, Bali 82112","Kec. Tabanan, Kabupaten Tabanan",BALI,82112.0,Indonesia, 085737356566,,,-8.5586686,115.1141852,https://maps.google.com/?cid=0x0:0x54542cb746a2eb29,
supermarket,Minimarket,Indomaret Bongan,"Jl. Mawar No.142, Bongan, Kec. Tabanan, Kabupaten Tabanan, Bali 82121","Bongan, Kec. Tabanan, Kabupaten Tabanan",BALI,82121.0,Indonesia,,,,-8.5570641,115.121195,https://maps.google.com/?cid=0x0:0xaf5fd92c8723b981,
supermarket,Toko Layang-layang,21 Jaya Kite Tabanan,"C4P4+RMX, Bongan, Kec. Tabanan, Kabupaten Tabanan, Bali 82112","Bongan, Kec. Tabanan, Kabupaten Tabanan",BALI,82112.0,Indonesia,,,,-8.5628797,115.1067338,https://maps.google.com/?cid=0x0:0x11dc1841f170e74c,
supermarket,Kafe,"Dinda,Wr","C4J2+W3C, Unnamed Road, Bongan, Kec. Tabanan, Kabupaten Tabanan, Bali 82112","Unnamed Road, Bongan, Kec. Tabanan, Kabupaten Tabanan",BALI,82112.0,Indonesia,,,,-8.5676781,115.1001485,https://maps.google.com/?cid=0x0:0xeed15f0f324a4c5,
supermarket,Minimarket,Alfamart Tanah Pegat,"Lingk, Jl. Yeh Gangga I, Gubug, Kec. Tabanan, Kab. Tabanan, Bali 82151","Jl. Yeh Gangga I, Gubug, Kec. Tabanan, Kab. Tabanan",BALI,82151.0,Indonesia, 1500959,,,-8.5533615,115.1033121,https://maps.google.com/?cid=0x0:0xd86c9972024bc886,
supermarket,Minimarket,Minimart,"Jl. Dr. Ir. Soekarno No.1935, Dauh Peken, Kec. Tabanan, Kabupaten Tabanan, Bali 82113","Dauh Peken, Kec. Tabanan, Kabupaten Tabanan",BALI,82113.0,Indonesia,,,,-8.5386718,115.1114393,https://maps.google.com/?cid=0x0:0x9e7cc8e19ae63cb6,
supermarket,Minimarket,Jin's mart jln raya kebo Iwa Bongan puseh,"Jl. Kebo Iwa Bongan, Bongan, puseh, Kabupaten Tabanan, Bali 82111","Bongan, puseh, Kabupaten Tabanan",BALI,82111.0,Indonesia,,,,-8.5617156,115.1076566,https://maps.google.com/?cid=0x0:0xb90a542889a7fb17,
supermarket,Toko,Toko Tirta Dewata,"C4Q4+8XC, Bongan, Kec. Tabanan, Kabupaten Tabanan, Bali 82112","Bongan, Kec. Tabanan, Kabupaten Tabanan",BALI,82112.0,Indonesia, 081999492111,,,-8.5616877,115.1073931,https://maps.google.com/?cid=0x0:0x46f1b01947d84ce,
supermarket,Toko bahan makanan,Warung Teratai,"C4V9+82Q, Banjar Bongan Pala, Bongan, Kec. Tabanan, Kabupaten Tabanan, Bali 82112","Banjar Bongan Pala, Bongan, Kec. Tabanan, Kabupaten Tabanan",BALI,82112.0,Indonesia, 085953801389,,,-8.556657,115.1176118,https://maps.google.com/?cid=0x0:0xb83365c1d135b08a,
supermarket,Minimarket,Alfamart Mawar,"Jl. Mawar Link Gerogak No.Kel, Delod Peken, Kab, Kabupaten Tabanan, Bali 82113","Delod Peken, Kab, Kabupaten Tabanan",BALI,82113.0,Indonesia, 1500959,,,-8.5557297,115.1216545,https://maps.google.com/?cid=0x0:0x308df7d84e2504da,
supermarket,supermarket,Bali 82113,"Dauh Peken, Kec. Tabanan, Kabupaten Tabanan, Bali","Kabupaten Tabanan, Bali",BALI,,Indonesia,,,,-8.5442373,115.1192478,https://maps.google.com/?cid=0x0:0x55f8251245920e90,
supermarket,Toko,Vista Grosir,"Jl. Dr. Ir. Soekarno No.1935, Gubug, Kec. Tabanan, Kabupaten Tabanan, Bali 82113","Gubug, Kec. Tabanan, Kabupaten Tabanan",BALI,82113.0,Indonesia, 087761008995,,,-8.5398796,115.1118681,https://maps.google.com/?cid=0x0:0x76868955c2f1095,
supermarket,Minimarket,Karya Sari Tabanan,"Jl. By Pass Kediri No.8-9, Delod Peken, Kec. Tabanan, Kabupaten Tabanan, Bali 82121","Delod Peken, Kec. Tabanan, Kabupaten Tabanan",BALI,82121.0,Indonesia, 03617991681,,,-8.5504229,115.1242282,https://maps.google.com/?cid=0x0:0xa2e78542843119dd,
supermarket,Toko Swalayan,Clandy's Mart Tabanan 2,"Jl. Pulau Batam No.31, Dauh Peken, Kec. Tabanan, Kabupaten Tabanan, Bali 82114","Dauh Peken, Kec. Tabanan, Kabupaten Tabanan",BALI,82114.0,Indonesia, 087761299131,,,-8.5357021,115.1130263,https://maps.google.com/?cid=0x0:0xd880f7b4190c71d3,
supermarket,Toko Alat Tulis,Nadhi Mart Stationery Bali,"Dauh Peken, Kec. Tabanan, Kabupaten Tabanan, Bali 82113","Kec. Tabanan, Kabupaten Tabanan",BALI,82113.0,Indonesia, 089602766717,,,-8.5455237,115.1149086,https://maps.google.com/?cid=0x0:0xf634788b1917963d,
supermarket,Minimarket,Minimart,"Jl. Dr. Ir. Soekarno No.1935, Dauh Peken, Kec. Tabanan, Kabupaten Tabanan, Bali 82113","Dauh Peken, Kec. Tabanan, Kabupaten Tabanan",BALI,82113.0,Indonesia,,,,-8.5386718,115.1114393,https://maps.google.com/?cid=0x0:0x9e7cc8e19ae63cb6,
supermarket,Toko Kelontong Asia,Toko Aneka Jaya,"Jl. Pulau Menjangan No.54, Dauh Peken, Kec. Tabanan, Kabupaten Tabanan, Bali 82113","Dauh Peken, Kec. Tabanan, Kabupaten Tabanan",BALI,82113.0,Indonesia,,,,-8.5377289,115.1187255,https://maps.google.com/?cid=0x0:0xaa320732ce3b4ada,
supermarket,Toko,Kawan Supermarket,"Pasar Tabanan, 2nd Floor, JL Gunung Semeru, Tabanan, Delod Peken, Tabanan, Tabanan Regency, Bali 82121","2nd Floor, JL Gunung Semeru, Tabanan, Delod Peken, Tabanan, Tabanan Regency",BALI,82121.0,Indonesia, 0362812687,,,-8.5394589,115.1269452,https://maps.google.com/?cid=0x0:0x4548d9cef36d18e2,
supermarket,Toko,Artasedana Tabanan,"Jl. Dr. Ir. Soekarno No.50 X, Banjar Anyar, Kec. Kediri, Kabupaten Tabanan, Bali 82121","Banjar Anyar, Kec. Kediri, Kabupaten Tabanan",BALI,82121.0,Indonesia,,,,-8.5523855,115.1336288,https://maps.google.com/?cid=0x0:0x3a54beae5afa1331,
supermarket,Pusat Perbelanjaan,Toko Agung Market,"Jl. Teratai No.38, Dauh Peken, Kec. Tabanan, Kabupaten Tabanan, Bali 82113","Dauh Peken, Kec. Tabanan, Kabupaten Tabanan",BALI,82113.0,Indonesia, 082302040508,,,-8.5426447,115.1164314,https://maps.google.com/?cid=0x0:0x254d3a7e776444f7,
supermarket,Minimarket,Indomaret Point,"Jl. Dr. Ir. Soekarno No.75X, Dauh Peken, Kec. Tabanan, Kabupaten Tabanan, Bali 82113","Dauh Peken, Kec. Tabanan, Kabupaten Tabanan",BALI,82113.0,Indonesia,,,,-8.548318,115.120017,https://maps.google.com/?cid=0x0:0x20e76838a2df975f,
supermarket,Toko,Toko Dio Makmur,"Jl. Dukuh No.11, Dauh Peken, Kec. Tabanan, Kabupaten Tabanan, Bali 82113","Dauh Peken, Kec. Tabanan, Kabupaten Tabanan",BALI,82113.0,Indonesia, 081237074401,,,-8.5425678,115.1190708,https://maps.google.com/?cid=0x0:0xce70e5aa16bd091f,
supermarket,Toko bahan makanan,Lenon Mart,"C33V+9RR, Jl. Pantai Kedungu, Belalang, Kec. Kediri, Kabupaten Tabanan, Bali 82121","Jl. Pantai Kedungu, Belalang, Kec. Kediri, Kabupaten Tabanan",BALI,82121.0,Indonesia, 08123806473,,,-8.5965203,115.0945162,https://maps.google.com/?cid=0x0:0x2fadbaa084d8a81,
supermarket,Toko Elektronik,Tabanan Elektronik,"Jl. Gajah Mada No.65, Delod Peken, Kec. Tabanan, Kabupaten Tabanan, Bali 82113","Delod Peken, Kec. Tabanan, Kabupaten Tabanan",BALI,82113.0,Indonesia, 087762576682,,,-8.5393108,115.1254233,https://maps.google.com/?cid=0x0:0xfc1b7dc8833cd100,
supermarket,Toko Swalayan,Vista Mini Market,"F429+WGG, JL. By Pass Kediri, Dauh Peken, Kec. Tabanan, Kabupaten Tabanan, Bali 82113","JL. By Pass Kediri, Dauh Peken, Kec. Tabanan, Kabupaten Tabanan",BALI,82113.0,Indonesia, 0362813233,,,-8.5476911,115.1188405,https://maps.google.com/?cid=0x0:0x50920072db55465c,
supermarket,Toko Roti,Toko Kurnia,"Jl. Pulau Menjangan No.34, Dauh Peken, Kec. Tabanan, Kabupaten Tabanan, Bali 82113","Dauh Peken, Kec. Tabanan, Kabupaten Tabanan",BALI,82113.0,Indonesia, 0361811182,,,-8.537521,115.120955,https://maps.google.com/?cid=0x0:0x13a15ee8c6aa13e4,
supermarket,Toko Buah dan Sayur,Kadek Buah,"Jl. Gajah Mada No.130-122, Dauh Peken, Kec. Tabanan, Kabupaten Tabanan, Bali 82113","Dauh Peken, Kec. Tabanan, Kabupaten Tabanan",BALI,82113.0,Indonesia, 087740513213,,,-8.5384698,115.1236471,https://maps.google.com/?cid=0x0:0xaba2c3d75bf20c13,
supermarket,Toko Swalayan,Poppits Tabanan,"Jl. Gajah Mada No.27, Delod Peken, Kec. Tabanan, Kabupaten Tabanan, Bali 82121","Delod Peken, Kec. Tabanan, Kabupaten Tabanan",BALI,82121.0,Indonesia,,,,-8.5398163,115.1265458,https://maps.google.com/?cid=0x0:0xd0b2d9b14accb32e,
supermarket,Pasar,Pasar Besar Tabanan,"F46G+GJ4, Delod Peken, Kec. Tabanan, Kabupaten Tabanan, Bali 82113","Delod Peken, Kec. Tabanan, Kabupaten Tabanan",BALI,82113.0,Indonesia,,,,-8.5387351,115.126571,https://maps.google.com/?cid=0x0:0xa389eef062b8d7d,
supermarket,Toko Pakaian Wanita,Secondmate thrift shop,"F43C+WRJ, Jalan umapala Pasar kodok, Dauh Peken, Kec. Tabanan, Kabupaten Tabanan, Bali 82113","Jalan umapala Pasar kodok, Dauh Peken, Kec. Tabanan, Kabupaten Tabanan",BALI,82113.0,Indonesia, 089688003918,,,-8.544992,115.1222899,https://maps.google.com/?cid=0x0:0xb1d641c82cf5a033,
supermarket,Toko Kosmetik,Murni Cosmetics Tabanan,"Jl. Dr. Ir. Soekarno No.168, Dauh Peken, Kec. Tabanan, Kabupaten Tabanan, Bali 82113","Dauh Peken, Kec. Tabanan, Kabupaten Tabanan",BALI,82113.0,Indonesia, 082145736475,,,-8.5495013,115.1221936,https://maps.google.com/?cid=0x0:0x50cb03e42de443e2,
supermarket,Toko Elektronik,Toko Bumi Mas Elektronik,"Jl. Gajah Mada No.67, Delod Peken, Kec. Tabanan, Kabupaten Tabanan, Bali 82113","Delod Peken, Kec. Tabanan, Kabupaten Tabanan",BALI,82113.0,Indonesia, 0361813939,,,-8.5392554,115.1252646,https://maps.google.com/?cid=0x0:0x5d0a7ceaa8c8e396,
supermarket,Toko Swalayan,Clandy's Mart Tabanan 3,"Jl. Dr. Ir. Soekarno No.8, Delod Peken, Kec. Tabanan, Kabupaten Tabanan, Bali 82121","Delod Peken, Kec. Tabanan, Kabupaten Tabanan",BALI,82121.0,Indonesia, 081937920256,,,-8.5506257,115.1259101,https://maps.google.com/?cid=0x0:0x520d719cf629042b,
supermarket,supermarket,Bali 82114,"Kec. Tabanan, Kabupaten Tabanan, Bali","Kabupaten Tabanan, Bali",BALI,,Indonesia,,,,-8.5327676,115.1207303,https://maps.google.com/?cid=0x0:0x8fec3962d30a3ca9,
supermarket,Toko Swalayan,Clandy's Mart Tabanan 2,"Jl. Pulau Batam No.31, Dauh Peken, Kec. Tabanan, Kabupaten Tabanan, Bali 82114","Dauh Peken, Kec. Tabanan, Kabupaten Tabanan",BALI,82114.0,Indonesia, 087761299131,,,-8.5357021,115.1130263,https://maps.google.com/?cid=0x0:0xd880f7b4190c71d3,
supermarket,Toko bahan makanan,Toko Adex's,"Jl. Diponegoro No.30, Dajan Peken, Kec. Tabanan, Kabupaten Tabanan, Bali 82114","Dajan Peken, Kec. Tabanan, Kabupaten Tabanan",BALI,82114.0,Indonesia, 0361811372,,,-8.5353443,115.1327657,https://maps.google.com/?cid=0x0:0x385b5ef4396f4859,
supermarket,Minimarket,Karya Sari Tabanan,"Jl. By Pass Kediri No.8-9, Delod Peken, Kec. Tabanan, Kabupaten Tabanan, Bali 82121","Delod Peken, Kec. Tabanan, Kabupaten Tabanan",BALI,82121.0,Indonesia, 03617991681,,,-8.5504229,115.1242282,https://maps.google.com/?cid=0x0:0xa2e78542843119dd,
supermarket,Toko bahan makanan,Cakra Toko,"Jl. Gajah Mada No.103, Dauh Peken, Kec. Tabanan, Kabupaten Tabanan, Bali 82113","Dauh Peken, Kec. Tabanan, Kabupaten Tabanan",BALI,82113.0,Indonesia, 0361811252,,,-8.5389322,115.1244517,https://maps.google.com/?cid=0x0:0x1fc61b6b092980c3,
supermarket,Minimarket,Minimart,"Jl. Dr. Ir. Soekarno No.1935, Dauh Peken, Kec. Tabanan, Kabupaten Tabanan, Bali 82113","Dauh Peken, Kec. Tabanan, Kabupaten Tabanan",BALI,82113.0,Indonesia,,,,-8.5386718,115.1114393,https://maps.google.com/?cid=0x0:0x9e7cc8e19ae63cb6,
supermarket,Toko,Kawan Supermarket,"Pasar Tabanan, 2nd Floor, JL Gunung Semeru, Tabanan, Delod Peken, Tabanan, Tabanan Regency, Bali 82121","2nd Floor, JL Gunung Semeru, Tabanan, Delod Peken, Tabanan, Tabanan Regency",BALI,82121.0,Indonesia, 0362812687,,,-8.5394589,115.1269452,https://maps.google.com/?cid=0x0:0x4548d9cef36d18e2,
supermarket,Minimarket,Alfamart Diponegoro Tabanan,"Jl. Diponegoro No.Kel, Dajan Peken, Kab, Kabupaten Tabanan, Bali 82114","Dajan Peken, Kab, Kabupaten Tabanan",BALI,82114.0,Indonesia, 1500959,,,-8.5346902,115.1328017,https://maps.google.com/?cid=0x0:0xd2c1f926b4f4c933,
supermarket,Toko bahan makanan,TOM Mart,"Jl. Raya Kutuh No.27, Samsam, Kec. Kerambitan, Kabupaten Tabanan, Bali 82114","Samsam, Kec. Kerambitan, Kabupaten Tabanan",BALI,82114.0,Indonesia, 081238454431,,,-8.5280868,115.1114257,https://maps.google.com/?cid=0x0:0x6ebd63d7078d9c3c,
supermarket,Grosir Perlengkapan Rumah Tangga,Toko Serbu,"F478+MP6, Dauh Peken, Kec. Tabanan, Kabupaten Tabanan, Bali 82114","Dauh Peken, Kec. Tabanan, Kabupaten Tabanan",BALI,82114.0,Indonesia,,,,-8.5358346,115.1167761,https://maps.google.com/?cid=0x0:0xa25237ddd805c799,
supermarket,Toko Swalayan,BLI DUPA TABANAN 4,"Jl. Majapahit No.16, Dajan Peken, Kec. Tabanan, Kabupaten Tabanan, Bali 82121","Dajan Peken, Kec. Tabanan, Kabupaten Tabanan",BALI,82121.0,Indonesia,,,,-8.5305957,115.134405,https://maps.google.com/?cid=0x0:0x5ac7ec6b3d6894cd,
supermarket,Toko Sepatu,KAENKO SECOND BALI,"F4C8+2XW, Dauh Peken, Kec. Tabanan, Kabupaten Tabanan, Bali 82114","Dauh Peken, Kec. Tabanan, Kabupaten Tabanan",BALI,82114.0,Indonesia,,,,-8.5298211,115.1174787,https://maps.google.com/?cid=0x0:0x3f1d526b61d7ffdc,
supermarket,supermarket,Toko Udayani Guna,"Jl. P. Seribu No.17, Dauh Peken, Kec. Tabanan, Kabupaten Tabanan, Bali 82114","Dauh Peken, Kec. Tabanan, Kabupaten Tabanan",BALI,82114.0,Indonesia,,,,-8.5370906,115.1195144,https://maps.google.com/?cid=0x0:0x4ff0ab92012826c1,
supermarket,Toko Swalayan,Poppits Tabanan,"Jl. Gajah Mada No.27, Delod Peken, Kec. Tabanan, Kabupaten Tabanan, Bali 82121","Delod Peken, Kec. Tabanan, Kabupaten Tabanan",BALI,82121.0,Indonesia,,,,-8.5398163,115.1265458,https://maps.google.com/?cid=0x0:0xd0b2d9b14accb32e,
supermarket,Toko,Griya Dupa Dewata,"Dajan Peken, Kec. Tabanan, Kabupaten Tabanan, Bali 82121","Kec. Tabanan, Kabupaten Tabanan",BALI,82121.0,Indonesia, 0818351106,,,-8.5332225,115.1270008,https://maps.google.com/?cid=0x0:0xdff77af4c2e26494,
supermarket,Toko Pakaian,Handmad Store Tabanan,"Jl. Gunung Agung No.28, Dajan Peken, Kec. Tabanan, Kabupaten Tabanan, Bali 82114","Dajan Peken, Kec. Tabanan, Kabupaten Tabanan",BALI,82114.0,Indonesia, 081246518080,,,-8.5354912,115.1266871,https://maps.google.com/?cid=0x0:0x502375737d87a30d,
supermarket,Pusat Perbelanjaan,Paras Signature,"Lorong II No.10, Dauh Peken, Kec. Tabanan, Kabupaten Tabanan, Bali 82114","Dauh Peken, Kec. Tabanan, Kabupaten Tabanan",BALI,82114.0,Indonesia, 081933106676,,,-8.5358514,115.1220795,https://maps.google.com/?cid=0x0:0x10082aac632a0ab6,
supermarket,Perhimpunan Pengembang Perumahan,"Banjar Lebah , kota Tabanan","F47G+CHP, Banjar lebah Jl. Gunung Agung, Dajan Peken, Kec. Tabanan, Kabupaten Tabanan, Bali 82114","Banjar lebah Jl. Gunung Agung, Dajan Peken, Kec. Tabanan, Kabupaten Tabanan",BALI,82114.0,Indonesia,,,,-8.5364147,115.1264433,https://maps.google.com/?cid=0x0:0x66f1a94901d05354,
supermarket,Toko Swalayan,Toko Kenzo,"F456+X7M, Jl. Merdeka, Gubug, Kec. Tabanan, Kabupaten Tabanan, Bali 82111","Jl. Merdeka, Gubug, Kec. Tabanan, Kabupaten Tabanan",BALI,82111.0,Indonesia, 08113999344,,,-8.5400293,115.1106568,https://maps.google.com/?cid=0x0:0xd800031f16b259ec,
supermarket,Toko Swalayan,Pepito Market Buwit,"Jl. By Pass Tanah Lot, Buwit, Kec. Kediri, Kabupaten Tabanan, Bali 80351","Buwit, Kec. Kediri, Kabupaten Tabanan",BALI,80351.0,Indonesia, 087700067888,,,-8.6157579,115.1153628,https://maps.google.com/?cid=0x0:0xb17a688b2ae59d4a,
supermarket,Toko bahan makanan,Lenon Mart,"C33V+9RR, Jl. Pantai Kedungu, Belalang, Kec. Kediri, Kabupaten Tabanan, Bali 82121","Jl. Pantai Kedungu, Belalang, Kec. Kediri, Kabupaten Tabanan",BALI,82121.0,Indonesia, 08123806473,,,-8.5965203,115.0945162,https://maps.google.com/?cid=0x0:0x2fadbaa084d8a81,
supermarket,Toko Roti,Toko Kurnia,"Jl. Pulau Menjangan No.34, Dauh Peken, Kec. Tabanan, Kabupaten Tabanan, Bali 82113","Dauh Peken, Kec. Tabanan, Kabupaten Tabanan",BALI,82113.0,Indonesia, 0361811182,,,-8.537521,115.120955,https://maps.google.com/?cid=0x0:0x13a15ee8c6aa13e4,
supermarket,Toko Swalayan,Toko K-ITA,"Jl. Patimura No.16, Delod Peken, Kec. Tabanan, Kabupaten Tabanan, Bali 82121","Delod Peken, Kec. Tabanan, Kabupaten Tabanan",BALI,82121.0,Indonesia, 087862453287,,,-8.5372753,115.1330655,https://maps.google.com/?cid=0x0:0xda23e6f0ffce7d40,
supermarket,Toko bahan makanan,Alfamart Penyalin,"Jl. Denpasar Gilimanuk Lingk, Jl. Raya Penyalin, Samsam, Kec. Kerambitan, Kab. Tabanan, Bali 82161","Jl. Raya Penyalin, Samsam, Kec. Kerambitan, Kab. Tabanan",BALI,82161.0,Indonesia, 1500959,,,-8.5335078,115.1088976,https://maps.google.com/?cid=0x0:0xc9b326f390690156,
supermarket,Toko Kelontong Asia,Toko Aneka Jaya,"Jl. Pulau Menjangan No.54, Dauh Peken, Kec. Tabanan, Kabupaten Tabanan, Bali 82113","Dauh Peken, Kec. Tabanan, Kabupaten Tabanan",BALI,82113.0,Indonesia,,,,-8.5377289,115.1187255,https://maps.google.com/?cid=0x0:0xaa320732ce3b4ada,
supermarket,Toko bahan makanan,UD. Bali Bagus,"Jl. Yeh Gangga I No.11X, Gubug, Kec. Tabanan, Kabupaten Tabanan, Bali 82115","Gubug, Kec. Tabanan, Kabupaten Tabanan",BALI,82115.0,Indonesia,,,,-8.5658967,115.0905069,https://maps.google.com/?cid=0x0:0x7e415d3d82003178,
supermarket,supermarket,Bali 82115,"Kec. Tabanan, Kabupaten Tabanan, Bali","Kabupaten Tabanan, Bali",BALI,,Indonesia,,,,-8.5729191,115.0881146,https://maps.google.com/?cid=0x0:0xb93a88842abea4b2,
supermarket,Toko,Sari Dharma Mart,"C37V+VW2, Bengkel, Kec. Kediri, Kabupaten Tabanan, Bali 82115","Bengkel, Kec. Kediri, Kabupaten Tabanan",BALI,82115.0,Indonesia, 03617995690,,,-8.5853527,115.094773,https://maps.google.com/?cid=0x0:0x8383358a019ba0d6,
supermarket,Toko grosir,Dwita Grosir,"C3VF+9VQ, Kerambitan, Kec. Kerambitan, Kabupaten Tabanan, Bali 82161","Kerambitan, Kec. Kerambitan, Kabupaten Tabanan",BALI,82161.0,Indonesia, 081238434031,,,-8.5565265,115.0747376,https://maps.google.com/?cid=0x0:0xeee1480e203dd1a,
supermarket,Minimarket,Karya Sari Tabanan,"Jl. By Pass Kediri No.8-9, Delod Peken, Kec. Tabanan, Kabupaten Tabanan, Bali 82121","Delod Peken, Kec. Tabanan, Kabupaten Tabanan",BALI,82121.0,Indonesia, 03617991681,,,-8.5504229,115.1242282,https://maps.google.com/?cid=0x0:0xa2e78542843119dd,
supermarket,Toko Swalayan,D'sawah mart,"Jl. Pantai Kedungu No.1, Nyitdah, Kec. Kediri, Kabupaten Tabanan, Bali 82121","Nyitdah, Kec. Kediri, Kabupaten Tabanan",BALI,82121.0,Indonesia,,,,-8.5802894,115.1108852,https://maps.google.com/?cid=0x0:0x57073f5f7ad62e6a,
supermarket,Toko Swalayan,Pepito Market Kediri,"Jl. Dr. Ir. Soekarno No.88, Banjar Anyar, Kec. Kediri, Kabupaten Tabanan, Bali 82121","Banjar Anyar, Kec. Kediri, Kabupaten Tabanan",BALI,82121.0,Indonesia, 087800526113,,,-8.5529349,115.1345187,https://maps.google.com/?cid=0x0:0x36f473c6f55fd34c,
supermarket,Minimarket,Minimart,"Jl. Dr. Ir. Soekarno No.1935, Dauh Peken, Kec. Tabanan, Kabupaten Tabanan, Bali 82113","Dauh Peken, Kec. Tabanan, Kabupaten Tabanan",BALI,82113.0,Indonesia,,,,-8.5386718,115.1114393,https://maps.google.com/?cid=0x0:0x9e7cc8e19ae63cb6,
supermarket,Toko,Kawan Supermarket,"Pasar Tabanan, 2nd Floor, JL Gunung Semeru, Tabanan, Delod Peken, Tabanan, Tabanan Regency, Bali 82121","2nd Floor, JL Gunung Semeru, Tabanan, Delod Peken, Tabanan, Tabanan Regency",BALI,82121.0,Indonesia, 0362812687,,,-8.5394589,115.1269452,https://maps.google.com/?cid=0x0:0x4548d9cef36d18e2,
supermarket,Toko Kelontong Asia,Toko Danny,"C4W2+947, Gubug, Kec. Tabanan, Kabupaten Tabanan, Bali 82115","Gubug, Kec. Tabanan, Kabupaten Tabanan",BALI,82115.0,Indonesia, 03617992427,,,-8.5540892,115.1002964,https://maps.google.com/?cid=0x0:0x9ad8a1084da93318,
supermarket,Toko Swalayan,Giri Kencana Super Market,"Jl. Kalanganyar Sudimara No.184, Sudimara, Kec. Tabanan, Kabupaten Tabanan, Bali 82115","Sudimara, Kec. Tabanan, Kabupaten Tabanan",BALI,82115.0,Indonesia, 082340007674,,,-8.5690279,115.0809647,https://maps.google.com/?cid=0x0:0x6d8e729d02a7da9,
supermarket,Toko Swalayan,Toko UD. SRI GEDE,"C3HP+P74, Jl. Kalanganyar Sudimara, Sudimara, Kec. Tabanan, Kabupaten Tabanan, Bali 82115","Jl. Kalanganyar Sudimara, Sudimara, Kec. Tabanan, Kabupaten Tabanan",BALI,82115.0,Indonesia, 08179710520,,,-8.5707454,115.0857053,https://maps.google.com/?cid=0x0:0x867574e62abe2efc,
supermarket,Toko Pakaian,Happy Mart,"C4X3+4PF, Jl. Yeh Gangga I, Gubug, Kec. Tabanan, Kabupaten Tabanan, Bali 82115","Jl. Yeh Gangga I, Gubug, Kec. Tabanan, Kabupaten Tabanan",BALI,82115.0,Indonesia, 0361819613,,,-8.5521882,115.1043124,https://maps.google.com/?cid=0x0:0xbfadd2448c4c2da0,
supermarket,Minimarket,Coco Supermarket Kampung Lot,"Beraban, Kec. Kediri, Kabupaten Tabanan, Bali 82121","Kec. Kediri, Kabupaten Tabanan",BALI,82121.0,Indonesia, 087776740999,,,-8.6063814,115.1078751,https://maps.google.com/?cid=0x0:0x117480d572fa56b8,
supermarket,Minimarket,Alfamart Gubug Belodan,"Jl Pantai Yeh Gangga Lingk. Gubug Belodan, Kel, Denbantas, Kec. Tabanan, Kab. Tabanan, Bali 82115","Kel, Denbantas, Kec. Tabanan, Kab. Tabanan",BALI,82115.0,Indonesia, 1500959,,,-8.5609588,115.0949299,https://maps.google.com/?cid=0x0:0x70ab13e085dea1f2,
supermarket,Supermarket Diskon,Kencana Mart,"C3FW+RM8, Banjar Bedha, Bongan, Kec. Tabanan, Kabupaten Tabanan, Bali","Kabupaten Tabanan, Bali",BALI,,Indonesia,,,,-8.5754603,115.0967056,https://maps.google.com/?cid=0x0:0x6209f49359dae22c,
supermarket,Minimarket,Warung Saya Mungkin,"F433+W68, Jl. Garuda, Pangkung Karung, Kec. Kerambitan, Kabupaten Tabanan, Bali 82115","Jl. Garuda, Pangkung Karung, Kec. Kerambitan, Kabupaten Tabanan",BALI,82115.0,Indonesia,,,,-8.5452112,115.1030727,https://maps.google.com/?cid=0x0:0x14ec18d72d3c98b2,
supermarket,Toko bahan makanan,Warung by. Yudha,"Jl. Kalanganyar Sudimara No.21, Sudimara, Kec. Tabanan, Kabupaten Tabanan, Bali 82115","Sudimara, Kec. Tabanan, Kabupaten Tabanan",BALI,82115.0,Indonesia,,,,-8.5772563,115.0860205,https://maps.google.com/?cid=0x0:0x46b4a24af689d48c,
supermarket,Minimarket,Indomaret,"C4X4+J6C, Gubug, Kec. Tabanan, Kabupaten Tabanan, Bali 82115","Gubug, Kec. Tabanan, Kabupaten Tabanan",BALI,82115.0,Indonesia,,,,-8.5509277,115.1055025,https://maps.google.com/?cid=0x0:0xfcffab8ba8e1754d,
supermarket,Toko Swalayan,Pepito Market Buwit,"Jl. By Pass Tanah Lot, Buwit, Kec. Kediri, Kabupaten Tabanan, Bali 80351","Buwit, Kec. Kediri, Kabupaten Tabanan",BALI,80351.0,Indonesia, 087700067888,,,-8.6157579,115.1153628,https://maps.google.com/?cid=0x0:0xb17a688b2ae59d4a,
supermarket,Minimarket,Alfamart Tanah Pegat,"Lingk, Jl. Yeh Gangga I, Gubug, Kec. Tabanan, Kab. Tabanan, Bali 82151","Jl. Yeh Gangga I, Gubug, Kec. Tabanan, Kab. Tabanan",BALI,82151.0,Indonesia, 1500959,,,-8.5533615,115.1033121,https://maps.google.com/?cid=0x0:0xd86c9972024bc886,
supermarket,Toko Perlengkapan Rumah,Star Mart 2,"Jl. Pantai Kedungu No.65, Nyitdah, Kec. Kediri, Kabupaten Tabanan, Bali 82121","Nyitdah, Kec. Kediri, Kabupaten Tabanan",BALI,82121.0,Indonesia, 087861814666,,,-8.5778489,115.1157765,https://maps.google.com/?cid=0x0:0x94794b6d11f21d31,
supermarket,Pasar,Pasar Besar Tabanan,"F46G+GJ4, Delod Peken, Kec. Tabanan, Kabupaten Tabanan, Bali 82113","Delod Peken, Kec. Tabanan, Kabupaten Tabanan",BALI,82113.0,Indonesia,,,,-8.5387351,115.126571,https://maps.google.com/?cid=0x0:0xa389eef062b8d7d,
supermarket,Toko bahan makanan,Warung Nang Paling,"C3PF+88G, Penarukan, Kec. Kerambitan, Kabupaten Tabanan, Bali 82161","Penarukan, Kec. Kerambitan, Kabupaten Tabanan",BALI,82161.0,Indonesia, 085737100635,,,-8.5641862,115.073326,https://maps.google.com/?cid=0x0:0x66645b67cd17b7d0,
supermarket,Toko bahan makanan,Wr.KopiManisAyuBeautyLashBali,"C3GQ+P63, Jl. Yeh Gangga I, Sudimara, Kec. Tabanan, Kabupaten Tabanan, Bali 82115","Jl. Yeh Gangga I, Sudimara, Kec. Tabanan, Kabupaten Tabanan",BALI,82115.0,Indonesia, 087761487968,,,-8.5732409,115.0880472,https://maps.google.com/?cid=0x0:0xfcdb7d84e8fb6ead,
