Category,Real Category,Business Name,Address,City,State,Postal Code,Country,Phone,Email,Website,Latitude,Longitude,Map Link,Details Link
perumahan,Tujuan Wisata,Puri Anyar,"F35M+396, Baturiti, Kec. Kerambitan, Kabupaten Tabanan, Bali 82161","Baturiti, Kec. Kerambitan, Kabupaten Tabanan",BALI,82161.0,Indonesia,,,,-8.5423361,115.0833992,https://maps.google.com/?cid=0x0:0x5633547d131f93bc,
perumahan,Tujuan Wisata,Puri Agung Kerambitan,"F33H+5XJ, Jl. Jurusan Kerambitan, Kerambitan, Kec. Kerambitan, Kabupaten Tabanan, Bali 82161","Jl. Jurusan Kerambitan, Kerambitan, Kec. Kerambitan, Kabupaten Tabanan",BALI,82161.0,Indonesia, 08123926720,,,-8.5470255,115.079887,https://maps.google.com/?cid=0x0:0xc30c2c19422036d6,
perumahan,Komplek perumahan,Jero kelating kerambitan,"F33H+9H8, Kerambitan, Kec. Kerambitan, Kabupaten Tabanan, Bali 82161","Kerambitan, Kec. Kerambitan, Kabupaten Tabanan",BALI,82161.0,Indonesia,,,,-8.5465993,115.0789601,https://maps.google.com/?cid=0x0:0x540358a96925c445,
perumahan,Pembangunan Perumahan,Jero Jelae Kerambitan,"F35M+396, Baturiti, Kec. Kerambitan, Kabupaten Tabanan, Bali 82161","Baturiti, Kec. Kerambitan, Kabupaten Tabanan",BALI,82161.0,Indonesia,,,,-8.542377,115.083418,https://maps.google.com/?cid=0x0:0xfc92b958675af0af,
perumahan,Pembangunan Perumahan,Belumbang,"F339+98R, Belumbang, Kec. Kerambitan, Kabupaten Tabanan, Bali 82161","Belumbang, Kec. Kerambitan, Kabupaten Tabanan",BALI,82161.0,Indonesia,,,,-8.5471519,115.0681212,https://maps.google.com/?cid=0x0:0xced955a3ed346542,
perumahan,Komplek perumahan,Tabanan,"C3QC+HWJ, Jl. Penarukan Kaja, Penarukan, Kec. Kerambitan, Kabupaten Tabanan, Bali 82161","Jl. Penarukan Kaja, Penarukan, Kec. Kerambitan, Kabupaten Tabanan",BALI,82161.0,Indonesia,,,,-8.5610336,115.0722638,https://maps.google.com/?cid=0x0:0x893569ee28a429d5,
perumahan,Komplek perumahan,"Saren Kauh Jero Kajanan, Kerambitan","F33J+H5H, Kerambitan, Kec. Kerambitan, Kabupaten Tabanan, Bali 82161","Kerambitan, Kec. Kerambitan, Kabupaten Tabanan",BALI,82161.0,Indonesia,,,,-8.5460549,115.0804768,https://maps.google.com/?cid=0x0:0x7606e18f859cbb1b,
perumahan,Komplek perumahan,Jero Marga Kerambitan,"Kerambitan, Kec. Kerambitan, Kabupaten Tabanan, Bali 82161","Kec. Kerambitan, Kabupaten Tabanan",BALI,82161.0,Indonesia,,,,-8.5444415,115.0807865,https://maps.google.com/?cid=0x0:0xca78c76e272d7873,
perumahan,Komplek perumahan,"Jero Kukuh, Kerambitan","F32H+XJM, Jl. Raya Kerambitan, Kerambitan, Kec. Kerambitan, Kabupaten Tabanan, Bali 82161","Jl. Raya Kerambitan, Kerambitan, Kec. Kerambitan, Kabupaten Tabanan",BALI,82161.0,Indonesia,,,,-8.5475419,115.0790496,https://maps.google.com/?cid=0x0:0x6289494ff568d58b,
perumahan,Komplek perumahan,Home,"F32J+764, Jl. Pekandelan, Kerambitan, Kec. Kerambitan, Kabupaten Tabanan, Bali 82161","Jl. Pekandelan, Kerambitan, Kec. Kerambitan, Kabupaten Tabanan",BALI,82161.0,Indonesia,,,,-8.5493553,115.0805786,https://maps.google.com/?cid=0x0:0x87c7e4b5dc2aac5,
perumahan,Komplek perumahan,Ananda@home,"F337+4XG, Belumbang, Kec. Kerambitan, Kabupaten Tabanan, Bali 82161","Belumbang, Kec. Kerambitan, Kabupaten Tabanan",BALI,82161.0,Indonesia,,,,-8.5472644,115.0641878,https://maps.google.com/?cid=0x0:0xa22a843643d2eb78,
perumahan,Inspektur Tempat Tinggal,Titik nol kerambitan,"F33H+5XJ, Jl. Jurusan Kerambitan, Kerambitan, Kec. Kerambitan, Kabupaten Tabanan, Bali 82161","Jl. Jurusan Kerambitan, Kerambitan, Kec. Kerambitan, Kabupaten Tabanan",BALI,82161.0,Indonesia,,,,-8.5475111,115.079704,https://maps.google.com/?cid=0x0:0x7a2511aa8476dea8,
perumahan,Penginapan,Griya kediri kerambitan,"Jl. Wirabumi No.2, Kerambitan, Kec. Kerambitan, Kabupaten Tabanan, Bali 82161","Kerambitan, Kec. Kerambitan, Kabupaten Tabanan",BALI,82161.0,Indonesia,,,,-8.54641,115.081145,https://maps.google.com/?cid=0x0:0x10462109253b16f7,
perumahan,Komplek perumahan,Rumah Agung Sunia,"C3XG+6JH, Jl. Raya Br. Wani, Kerambitan, Kec. Kerambitan, Kabupaten Tabanan, Bali 82161","Jl. Raya Br. Wani, Kerambitan, Kec. Kerambitan, Kabupaten Tabanan",BALI,82161.0,Indonesia,,,,-8.5519485,115.0766192,https://maps.google.com/?cid=0x0:0x6ae8e3c4deececf8,
perumahan,Komplek perumahan,Rumah (Pintu Belakang),"F32H+CVR, Jl. Pekandelan, Kerambitan, Kec. Kerambitan, Kabupaten Tabanan, Bali 82161","Jl. Pekandelan, Kerambitan, Kec. Kerambitan, Kabupaten Tabanan",BALI,82161.0,Indonesia,,,,-8.5485086,115.0792195,https://maps.google.com/?cid=0x0:0x54095e147f20baf1,
perumahan,Komplek perumahan,Home,"C3RF+PC6, Jl. Penarukan Kaja, Penarukan, Kec. Kerambitan, Kabupaten Tabanan, Bali 82161","Jl. Penarukan Kaja, Penarukan, Kec. Kerambitan, Kabupaten Tabanan",BALI,82161.0,Indonesia,,,,-8.5582141,115.0735058,https://maps.google.com/?cid=0x0:0xfd20c40699151657,
perumahan,Komplek perumahan,adi santika,"F32J+P3P, Kerambitan, Kec. Kerambitan, Kabupaten Tabanan, Bali 82161","Kerambitan, Kec. Kerambitan, Kabupaten Tabanan",BALI,82161.0,Indonesia,,,,-8.5481654,115.0802101,https://maps.google.com/?cid=0x0:0x34504caf870ab4e8,
perumahan,Komplek perumahan,"Jero Kekeran, Kerambitan","F34M+G29, Jl. Wirabumi, Kukuh, Kec. Kerambitan, Kabupaten Tabanan, Bali 82161","Jl. Wirabumi, Kukuh, Kec. Kerambitan, Kabupaten Tabanan",BALI,82161.0,Indonesia,,,,-8.5436847,115.0825575,https://maps.google.com/?cid=0x0:0x3af2324837b27c24,
perumahan,Pembangunan Perumahan,Jero Bongan Kerambitan,"F33J+8C7, Kerambitan, Kec. Kerambitan, Kabupaten Tabanan, Bali 82161","Kerambitan, Kec. Kerambitan, Kabupaten Tabanan",BALI,82161.0,Indonesia,,,,-8.5466834,115.0810035,https://maps.google.com/?cid=0x0:0x2d054bfcf656fc0b,
perumahan,Komplek perumahan,Jero Tegal Kerambitan,"F33J+8C7, Kerambitan, Kec. Kerambitan, Kabupaten Tabanan, Bali 82161","Kerambitan, Kec. Kerambitan, Kabupaten Tabanan",BALI,82161.0,Indonesia,,,,-8.5467153,115.0810493,https://maps.google.com/?cid=0x0:0xab7b8182ad7a3476,
perumahan,Tempat Religius,Griya Agung Kemoning Sari Manuaba Kerambitan,"F35M+9FP, Jl. Pabean, Kukuh, Kec. Kerambitan, Kabupaten Tabanan, Bali 82161","Jl. Pabean, Kukuh, Kec. Kerambitan, Kabupaten Tabanan",BALI,82161.0,Indonesia,,,,-8.5415291,115.0837036,https://maps.google.com/?cid=0x0:0x215401944ad2df93,
perumahan,perumahan,Rumah Dewa Aji Sekar,"Jl. Penarukan Kaja, Penarukan, Kec. Kerambitan, Kabupaten Tabanan, Bali 82161","Penarukan, Kec. Kerambitan, Kabupaten Tabanan",BALI,82161.0,Indonesia,,,,-8.5591971,115.0732922,https://maps.google.com/?cid=0x0:0x19b18b5caf53c503,
perumahan,Gedung Apartemen,Tude Copy Home,"C3XJ+FFX, Kerambitan, Kec. Kerambitan, Kabupaten Tabanan, Bali 82161","Kerambitan, Kec. Kerambitan, Kabupaten Tabanan",BALI,82161.0,Indonesia,,,,-8.551436,115.080679,https://maps.google.com/?cid=0x0:0x67ee57a8207f94d1,
perumahan,Komplek perumahan,Amara Village - BSA Land,"Jl. Pisang Raya, Parung Panjang, Kec. Parung Panjang, Kabupaten Bogor, Jawa Barat 16360","Parung Panjang, Kec. Parung Panjang, Kabupaten Bogor",BALI,16360.0,Indonesia, 02154289999,,,-6.3584442,106.567352,https://maps.google.com/?cid=0x0:0x8b1650ed1afe29d4,
perumahan,Komplek perumahan,Perum Griya Bhuana Asri,"G566+57X, Kuwum, Kec. Marga, Kabupaten Tabanan, Bali 82181","Kuwum, Kec. Marga, Kabupaten Tabanan",BALI,82181.0,Indonesia,,,,-8.4895328,115.1600774,https://maps.google.com/?cid=0x0:0x906e5c8072e0029c,
perumahan,Komplek perumahan,Grand Sukatani Townhouse,"Jl. Al Hidayah, Sukatani, Kec. Tapos, Kota Depok, Jawa Barat 16454","Sukatani, Kec. Tapos, Kota Depok",BALI,16454.0,Indonesia, 081212999972,,,-6.3911391,106.8807714,https://maps.google.com/?cid=0x0:0xfe8ecef4487bef94,
perumahan,Komplek perumahan,Bali,"G5M7+QG9, Marga Dauh Puri, Kec. Marga, Kabupaten Tabanan, Bali 82181","Marga Dauh Puri, Kec. Marga, Kabupaten Tabanan",BALI,82181.0,Indonesia,,,,-8.4655751,115.163852,https://maps.google.com/?cid=0x0:0x20a4a07eb2c0cb59,
perumahan,Komplek perumahan,rumah agus saka,"G5H9+8VC, Jl. Wisnu Marga, Marga, Kec. Marga, Kabupaten Tabanan, Bali 82181","Jl. Wisnu Marga, Marga, Kec. Marga, Kabupaten Tabanan",BALI,82181.0,Indonesia, 082145745998,,,-8.4716775,115.1696502,https://maps.google.com/?cid=0x0:0x7f4c7f6154984e0b,
perumahan,Rumah Kayu,Pondok Gonjeng,"G5J8+FMP, Unnamed Road, Marga, Tabanan Regency, Bali 82181","Unnamed Road, Marga, Tabanan Regency",BALI,82181.0,Indonesia,,,,-8.468799,115.1666939,https://maps.google.com/?cid=0x0:0xcbceb020bf5e15ab,
perumahan,Komplek perumahan,Jero Bebalang Marga,"Jl. Raya Marga-Apuan No.15, Marga Dajan Puri, Kec. Marga, Kabupaten Tabanan, Bali 82181","Marga Dajan Puri, Kec. Marga, Kabupaten Tabanan",BALI,82181.0,Indonesia,,,,-8.467215,115.1686983,https://maps.google.com/?cid=0x0:0x4f70b788c6e0890d,
perumahan,Pura,Banjar Lebah Marga,"G5H8+5VF, Marga, Kec. Marga, Kabupaten Tabanan, Bali","Kabupaten Tabanan, Bali",BALI,,Indonesia,,,,-8.4720529,115.1671729,https://maps.google.com/?cid=0x0:0xe13ed768a4f15ce4,
perumahan,Komplek perumahan,"Dewata Asri, Marga","Jl. Wisnu Marga No.Br, Tembau, Kec. Tabanan, Kabupaten Tabanan, Bali 82181","Tembau, Kec. Tabanan, Kabupaten Tabanan",BALI,82181.0,Indonesia,,,,-8.4683524,115.1661114,https://maps.google.com/?cid=0x0:0x6096f0e08266c784,
perumahan,Perhimpunan Pengembang Perumahan,Rumah,"G5J8+3W3, Jl. Wisnu Marga, Marga, Kec. Marga, Kabupaten Tabanan, Bali 82181","Jl. Wisnu Marga, Marga, Kec. Marga, Kabupaten Tabanan",BALI,82181.0,Indonesia,,,,-8.4697983,115.167198,https://maps.google.com/?cid=0x0:0xe6679fe2e4f2b83e,
perumahan,Perhimpunan Pengembang Perumahan,Campuhan View Marga,"Jl. Wisnu Marga No.2, Marga Dauh Puri, Kec. Marga, Kabupaten Tabanan, Bali 82181","Marga Dauh Puri, Kec. Marga, Kabupaten Tabanan",BALI,82181.0,Indonesia,,,,-8.4693678,115.1665141,https://maps.google.com/?cid=0x0:0xcc557756f3439abf,
perumahan,Perhimpunan Pengembang Perumahan,Rumah,"G5F9+P35, Marga, Kec. Marga, Kabupaten Tabanan, Bali 82181","Marga, Kec. Marga, Kabupaten Tabanan",BALI,82181.0,Indonesia,,,,-8.4752245,115.1667219,https://maps.google.com/?cid=0x0:0x32d679682cc8ddae,
perumahan,Komplek perumahan,Rumah Bucu Kelaci,"Jl. Pesenetan No.19, Marga, Kec. Marga, Kabupaten Tabanan, Bali 82181","Marga, Kec. Marga, Kabupaten Tabanan",BALI,82181.0,Indonesia,,,,-8.4675134,115.1646805,https://maps.google.com/?cid=0x0:0xf12b36058c32515d,
perumahan,Komplek perumahan,Jroanyar MARGA,"G559+PHX, Jl. Wisnu Marga, Marga, Kec. Marga, Kabupaten Tabanan, Bali 82181","Jl. Wisnu Marga, Marga, Kec. Marga, Kabupaten Tabanan",BALI,82181.0,Indonesia,,,,-8.4906488,115.1689791,https://maps.google.com/?cid=0x0:0xf18ec4aa4dd39ca7,
perumahan,Komplek perumahan,Griya Daha Ayu,"Jl. Wisnu Marga, Marga, Kec. Tabanan, Kabupaten Tabanan, Bali 82181","Marga, Kec. Tabanan, Kabupaten Tabanan",BALI,82181.0,Indonesia,,,,-8.4738148,115.1699621,https://maps.google.com/?cid=0x0:0xc244928caa6c6195,
perumahan,Pembangunan Perumahan,GUNANTRA,"Jl. Wisnu Marga, Marga, Kec. Marga, Kabupaten Tabanan, Bali 82181","Marga, Kec. Marga, Kabupaten Tabanan",BALI,82181.0,Indonesia,,,,-8.4725285,115.1686079,https://maps.google.com/?cid=0x0:0xf744e308fa62959d,
perumahan,perumahan,Bali 82181,"Kabupaten Tabanan, Bali","Kabupaten Tabanan, Bali",BALI,,Indonesia,,,,-8.4623737,115.1533426,https://maps.google.com/?cid=0x0:0x1c00c5eb6016c240,
perumahan,Pembangunan Perumahan,Aset Blayu Marga,"G549+7FP, Kuwum, Kec. Marga, Kabupaten Tabanan, Bali 82181","Kuwum, Kec. Marga, Kabupaten Tabanan",BALI,82181.0,Indonesia,,,,-8.4945781,115.1679725,https://maps.google.com/?cid=0x0:0xefa66e91e472072,
perumahan,Komplek perumahan,Perumahan Kuwum Asri,"Perumahan Kuwum Asri, Jalan kuwum 4, Peken, Jl. Wisnu Marga, Kuwum, Kec. Marga, Kabupaten Tabanan, Bali 82181","Jalan kuwum 4, Peken, Jl. Wisnu Marga, Kuwum, Kec. Marga, Kabupaten Tabanan",BALI,82181.0,Indonesia, 085333578163,,,-8.4945394,115.1661396,https://maps.google.com/?cid=0x0:0x5240adf59507b33c,
perumahan,Komplek perumahan,Pondok 788 tridatu marga dajan puri,"G5PC+9VC, Gg. Swadaya, Marga Dajan Puri, Kec. Marga, Kabupaten Tabanan, Bali 82181","Gg. Swadaya, Marga Dajan Puri, Kec. Marga, Kabupaten Tabanan",BALI,82181.0,Indonesia,,,,-8.4640717,115.172145,https://maps.google.com/?cid=0x0:0x5c2c6455fe0b1ba7,
perumahan,Komplek perumahan,Marga,"Jl. Beringkit Abiantuwung No.43, Peken, Kec. Marga, Kabupaten Tabanan, Bali 82181","Peken, Kec. Marga, Kabupaten Tabanan",BALI,82181.0,Indonesia,,,,-8.516795,115.1658366,https://maps.google.com/?cid=0x0:0x74f81ff4c7069c84,
perumahan,Komplek perumahan,Rumah wahyu mahardika,"G523+293, Tegaljadi, Kec. Marga, Kabupaten Tabanan, Bali 82181","Tegaljadi, Kec. Marga, Kabupaten Tabanan",BALI,82181.0,Indonesia,,,,-8.4999847,115.1534132,https://maps.google.com/?cid=0x0:0xfbf4340de9f4be43,
perumahan,Komplek perumahan,Ravindra home,"G5XC+PWV, Geluntung, Kec. Marga, Kabupaten Tabanan, Bali 82181","Geluntung, Kec. Marga, Kabupaten Tabanan",BALI,82181.0,Indonesia,,,,-8.4506468,115.172311,https://maps.google.com/?cid=0x0:0x8393a68db415343d,
perumahan,Pusat Spiritis,GedE housE,"G5V5+6RQ, Jl. Gelagah, Payangan, Kec. Marga, Kabupaten Tabanan, Bali 82181","Jl. Gelagah, Payangan, Kec. Marga, Kabupaten Tabanan",BALI,82181.0,Indonesia,,,,-8.4569982,115.1595879,https://maps.google.com/?cid=0x0:0xae6d6d161ecc15f0,
perumahan,Gedung Apartemen,Bali,"J5GV+V3P, Jl. Mekarsari - Baturiti Bedugul, Mekarsari, Kec. Baturiti, Kabupaten Tabanan, Bali 82191","Jl. Mekarsari - Baturiti Bedugul, Mekarsari, Kec. Baturiti, Kabupaten Tabanan",BALI,82191.0,Indonesia,,,,-8.3760306,115.193765,https://maps.google.com/?cid=0x0:0x786848390d4c63d0,
perumahan,perumahan,Bali 82191,"Kabupaten Tabanan, Bali","Kabupaten Tabanan, Bali",BALI,,Indonesia,,,,-8.3413877,115.1533426,https://maps.google.com/?cid=0x0:0x1c00c5eb6016c250,
perumahan,Perhimpunan Pengembang Perumahan,BALON,"M5H7+9W2, Bangli, Kec. Baturiti, Kabupaten Tabanan, Bali 82191","Bangli, Kec. Baturiti, Kabupaten Tabanan",BALI,82191.0,Indonesia, 082125319635,,,-8.3216206,115.16477,https://maps.google.com/?cid=0x0:0x8b34142439db5706,
perumahan,Taman,Gunung Tambleg,"J5WM+5Q5, Baturiti, Kec. Baturiti, Kabupaten Tabanan, Bali 82191","Baturiti, Kec. Baturiti, Kabupaten Tabanan",BALI,82191.0,Indonesia,,,,-8.3546507,115.184557,https://maps.google.com/?cid=0x0:0x37410dbe9a909c00,
perumahan,,Griya sekargula,"Jl. Mekarsari - Baturiti Bedugul No.37, Mekarsari, Kec. Baturiti, Kabupaten Tabanan, Bali 82191","Mekarsari, Kec. Baturiti, Kabupaten Tabanan",BALI,82191.0,Indonesia,,,,-8.3666308,115.1919132,https://maps.google.com/?cid=0x0:0x749a22777dee0f8f,
perumahan,Komplek perumahan,Rumah p ryan,"J5FF+6CG, Apuan, Kec. Baturiti, Kabupaten Tabanan, Bali 82191","Apuan, Kec. Baturiti, Kabupaten Tabanan",BALI,82191.0,Indonesia,,,,-8.3764527,115.1736645,https://maps.google.com/?cid=0x0:0xe5403fd59df78bcf,
perumahan,Pembangunan Perumahan,Apri home,"M5G7+WV4, Angseri, Kec. Baturiti, Kabupaten Tabanan, Bali 82191","Angseri, Kec. Baturiti, Kabupaten Tabanan",BALI,82191.0,Indonesia,,,,-8.322085,115.1648719,https://maps.google.com/?cid=0x0:0xf122261e3cd4c8ef,
perumahan,Gedung Apartemen,"Tebe kauh, br jelantik Apuan Baturiti","J5CJ+7F5, Jl. Raya Apuan -Baturiti, Tua, Kec. Baturiti, Kabupaten Tabanan, Bali 82191","Jl. Raya Apuan -Baturiti, Tua, Kec. Baturiti, Kabupaten Tabanan",BALI,82191.0,Indonesia,,,,-8.3794771,115.1809162,https://maps.google.com/?cid=0x0:0xd329a444e5c1905e,
perumahan,Vila,Rumah Desa Wisnu,"Apuan, Kec. Baturiti, Kabupaten Tabanan, Bali 82191","Kec. Baturiti, Kabupaten Tabanan",BALI,82191.0,Indonesia, 085337860300,,,-8.3701566,115.1787755,https://maps.google.com/?cid=0x0:0xa60ae96fdc5b8ae,
perumahan,Komplek perumahan,Griya Gede Mas Baturiti,"M5HM+HHJ, Jalan Raya, Baturiti, Tabanan Regency, Bali 82191","Jalan Raya, Baturiti, Tabanan Regency",BALI,82191.0,Indonesia,,,,-8.321033,115.183902,https://maps.google.com/?cid=0x0:0x208d30b3ff69fe7d,
perumahan,Komplek perumahan,The Blue Door - Apuan,"J5GJ+V2X, Apuan, Kec. Baturiti, Kabupaten Tabanan, Bali 82191","Apuan, Kec. Baturiti, Kabupaten Tabanan",BALI,82191.0,Indonesia,,,,-8.3727562,115.1801236,https://maps.google.com/?cid=0x0:0xaee79819bdae909f,
perumahan,Komplek perumahan,Dangin bale agung,"J5W3+8QR, Bangli, Kec. Baturiti, Kabupaten Tabanan, Bali 82191","Bangli, Kec. Baturiti, Kabupaten Tabanan",BALI,82191.0,Indonesia,,,,-8.3539877,115.1547415,https://maps.google.com/?cid=0x0:0x3b9e6b8d6942f10e,
perumahan,Asosiasi pemilik rumah,Rumah Andika,"J5MV+V6X, Mekarsari, Kec. Baturiti, Kabupaten Tabanan, Bali 82191","Mekarsari, Kec. Baturiti, Kabupaten Tabanan",BALI,82191.0,Indonesia,,,,-8.3651664,115.1934418,https://maps.google.com/?cid=0x0:0x260683d246d4a741,
perumahan,Komplek perumahan,Tampa's House Tinungan,"J5FF+RC9, Apuan, Kec. Baturiti, Kabupaten Tabanan, Bali 82191","Apuan, Kec. Baturiti, Kabupaten Tabanan",BALI,82191.0,Indonesia,,,,-8.3753989,115.1735891,https://maps.google.com/?cid=0x0:0x7fc5bd1337ef39b0,
perumahan,Komplek perumahan,Agus,"M56G+P7M, Angseri, Kec. Baturiti, Kabupaten Tabanan, Bali 82191","Angseri, Kec. Baturiti, Kabupaten Tabanan",BALI,82191.0,Indonesia,,,,-8.3381607,115.1756604,https://maps.google.com/?cid=0x0:0x2f0162d5babd675c,
perumahan,Komplek perumahan,DEWA KETUT RUDITHA,"J5R9+VW5, Angseri, Kec. Baturiti, Kabupaten Tabanan, Bali 82191","Angseri, Kec. Baturiti, Kabupaten Tabanan",BALI,82191.0,Indonesia,,,,-8.3578714,115.1698597,https://maps.google.com/?cid=0x0:0xe0124b8cd9991781,
perumahan,Pembangunan Perumahan,RHome Homestay,"J5QG+7MJ, Jalan Raya Tampakkarang, Apuan, Baturiti, Tabanan Regency, Bali 82191","Jalan Raya Tampakkarang, Apuan, Baturiti, Tabanan Regency",BALI,82191.0,Indonesia,,,,-8.361776,115.176631,https://maps.google.com/?cid=0x0:0x49f8321740753a3d,
perumahan,Komplek perumahan,Deblo  nadi house,"J5FF+R86, Tinungan, Apuan, Kec. Baturiti, Kabupaten Tabanan, Bali 82191","Tinungan, Apuan, Kec. Baturiti, Kabupaten Tabanan",BALI,82191.0,Indonesia,,,,-8.3754682,115.1732746,https://maps.google.com/?cid=0x0:0x4730e5f074c9c9d8,
perumahan,Komplek perumahan,Umah cung,"Jl. Apuan, Apuan, Kec. Baturiti, Kabupaten Tabanan, Bali 82191","Apuan, Kec. Baturiti, Kabupaten Tabanan",BALI,82191.0,Indonesia,,,,-8.3686305,115.1773442,https://maps.google.com/?cid=0x0:0x6f6bb4e2a1c2fbf,
perumahan,Komplek perumahan,Jeroan Tinungan,"J5FF+M8W, Apuan, Kec. Baturiti, Kabupaten Tabanan, Bali 82191","Apuan, Kec. Baturiti, Kabupaten Tabanan",BALI,82191.0,Indonesia,,,,-8.3755767,115.1731659,https://maps.google.com/?cid=0x0:0x4a3c96d2d3dbdab0,
perumahan,Komplek perumahan,"Dream Land, Baturiti Bedugul","M5WM+373, Batunya, Kec. Baturiti, Kabupaten Tabanan, Bali 82191","Batunya, Kec. Baturiti, Kabupaten Tabanan",BALI,82191.0,Indonesia, 0811385859,,,-8.3054506,115.1827564,https://maps.google.com/?cid=0x0:0x118ad8d290d778b9,
perumahan,Komplek perumahan,Kubu batusesa,"P565+5QJ, Candikuning, Kec. Baturiti, Kabupaten Tabanan, Bali 82191","Candikuning, Kec. Baturiti, Kabupaten Tabanan",BALI,82191.0,Indonesia,,,,-8.2895305,115.1593866,https://maps.google.com/?cid=0x0:0xf422da722b26ee16,
perumahan,Komplek perumahan,Alnho baturiti,"M5VC+HPF, Baturiti, Kec. Baturiti, Kabupaten Tabanan, Bali 82161","Baturiti, Kec. Baturiti, Kabupaten Tabanan",BALI,82161.0,Indonesia,,,,-8.3060532,115.1718101,https://maps.google.com/?cid=0x0:0x291010f905fca57c,
perumahan,perumahan,Bali 82152,"Kec. Penebel, Kabupaten Tabanan, Bali","Kabupaten Tabanan, Bali",BALI,,Indonesia,,,,-8.3941828,115.1177654,https://maps.google.com/?cid=0x0:0x1c00c5eb6016c1f0,
perumahan,Komplek perumahan,Rumah Bali Kati,"Jalan Banjar Bengkel, Wongaya Gede, Penebel, Tabanan Regency, Bali 82152","Wongaya Gede, Penebel, Tabanan Regency",BALI,82152.0,Indonesia,,,,-8.3959673,115.1002566,https://maps.google.com/?cid=0x0:0xc10336ffa6323683,
perumahan,perumahan,Rumah Dek tike,"J35J+633, Sangketan, Kec. Selemadeg Tim., Kabupaten Tabanan, Bali 82152","Sangketan, Kec. Selemadeg Tim., Kabupaten Tabanan",BALI,82152.0,Indonesia,,,,-8.392155,115.0803022,https://maps.google.com/?cid=0x0:0xb57b2828fdfe60bc,
perumahan,Komplek perumahan,Hery Pranata,"Jl. Raya Babahan Senganan, Babahan, Kec. Penebel, Kabupaten Tabanan, Bali 82152","Babahan, Kec. Penebel, Kabupaten Tabanan",BALI,82152.0,Indonesia, 083129363749,,,-8.3924315,115.1516816,https://maps.google.com/?cid=0x0:0xc8cc1d44723a558e,
perumahan,Komplek perumahan,Gung_House,"H4HR+59H, Penebel, Kec. Penebel, Kabupaten Tabanan, Bali 82152","Penebel, Kec. Penebel, Kabupaten Tabanan",BALI,82152.0,Indonesia, 087861671261,,,-8.4220746,115.1409949,https://maps.google.com/?cid=0x0:0xe6dfce0838819e1d,
perumahan,Pembangunan Perumahan,GPS Property,"H49G+4RV, Jl. Penatahan - Wongayagede, Penatahan, Kec. Penebel, Kabupaten Tabanan, Bali 82152","Jl. Penatahan - Wongayagede, Penatahan, Kec. Penebel, Kabupaten Tabanan",BALI,82152.0,Indonesia, 085109212999,,,-8.4321294,115.1270611,https://maps.google.com/?cid=0x0:0xb5c5905331ba663e,
perumahan,Komplek perumahan,Rumah Peltu. I Nengah Sumindra ( Kak Badung ),"J4HF+RV4, Unnamed Road, Jatiluwih, Penebel, Tabanan Regency, Bali 82152","Unnamed Road, Jatiluwih, Penebel, Tabanan Regency",BALI,82152.0,Indonesia,,,,-8.370497,115.1246964,https://maps.google.com/?cid=0x0:0xecee4a8608867925,
perumahan,Komplek perumahan,Rumah Wirata,"J422+2FM, Wongaya Gede, Kec. Penebel, Kabupaten Tabanan, Bali 82152","Wongaya Gede, Kec. Penebel, Kabupaten Tabanan",BALI,82152.0,Indonesia,,,,-8.3999168,115.1011765,https://maps.google.com/?cid=0x0:0xbbbe36a3519488d9,
perumahan,Pembangunan Perumahan,Jatiluwih -Mengesta 38,"Jl. Jatiluwih-Mengesta No.38, Mengesta, Kec. Penebel, Kabupaten Tabanan, Bali 82152","Mengesta, Kec. Penebel, Kabupaten Tabanan",BALI,82152.0,Indonesia,,,,-8.40754,115.1404535,https://maps.google.com/?cid=0x0:0xae73f66c1b280853,
perumahan,Komplek perumahan,Rumah Risma,"H496+J8Q, Tegayang, Penatahan, Kec. Penebel, Kabupaten Tabanan, Bali","Kabupaten Tabanan, Bali",BALI,,Indonesia,,,,-8.4309968,115.1107235,https://maps.google.com/?cid=0x0:0x7815daad1d5fc1f5,
perumahan,Komplek perumahan,Rumah dede,"H467+PF3, Penatahan, Kec. Penebel, Kabupaten Tabanan, Bali 82152","Penatahan, Kec. Penebel, Kabupaten Tabanan",BALI,82152.0,Indonesia,,,,-8.4383196,115.1128002,https://maps.google.com/?cid=0x0:0xe2f165be5c06e26d,
perumahan,Vila,Rumah WisnuPradika,"J4JR+RFW, Babahan, Kec. Penebel, Kabupaten Tabanan, Bali","Kabupaten Tabanan, Bali",BALI,,Indonesia,,,,-8.3678839,115.1411909,https://maps.google.com/?cid=0x0:0xa5c4875596b948db,
perumahan,Komplek perumahan,Perumahan Permata Kencana,"C3MX+26W, Bongan, Kec. Tabanan, Kabupaten Tabanan, Bali 82115","Bongan, Kec. Tabanan, Kabupaten Tabanan",BALI,82115.0,Indonesia,,,,-8.5673918,115.0980801,https://maps.google.com/?cid=0x0:0xa473511f01ac5cbd,
perumahan,Perhimpunan Pengembang Perumahan,Bhujangga Waisnawa Senganan Kawan,"Jl. Raya Senganan No.53, Senganan, Kec. Penebel, Kabupaten Tabanan, Bali 82152","Senganan, Kec. Penebel, Kabupaten Tabanan",BALI,82152.0,Indonesia,,,,-8.3770852,115.1574589,https://maps.google.com/?cid=0x0:0x3b67dc03a2171e69,
perumahan,Komplek perumahan,Rumah tinggal,"G4Q8+6VV, Rejasa, Kec. Penebel, Kabupaten Tabanan, Bali","Kabupaten Tabanan, Bali",BALI,,Indonesia,,,,-8.4619,115.1171849,https://maps.google.com/?cid=0x0:0xcd94e8a58b08501,
perumahan,Komplek perumahan,Rumah Agus Sukerta,"Jl. Banjar Pacung-Senganan No.82152, Senganan, Kec. Penebel, Kabupaten Tabanan, Bali 82152","Senganan, Kec. Penebel, Kabupaten Tabanan",BALI,82152.0,Indonesia,,,,-8.3867588,115.1605354,https://maps.google.com/?cid=0x0:0x43c3ed759f57f4d4,
perumahan,Komplek perumahan,Pak Nengah Home,"H467+PF3, Penatahan, Kec. Penebel, Kabupaten Tabanan, Bali 82152","Penatahan, Kec. Penebel, Kabupaten Tabanan",BALI,82152.0,Indonesia,,,,-8.4383077,115.1133299,https://maps.google.com/?cid=0x0:0x46394cbc7f1d3d74,
perumahan,Komplek perumahan,Rumah emi suastini,"J582+7RC, Babahan, Kec. Penebel, Kabupaten Tabanan, Bali 82152","Babahan, Kec. Penebel, Kabupaten Tabanan",BALI,82152.0,Indonesia,,,,-8.3838293,115.1514518,https://maps.google.com/?cid=0x0:0x27659dc47a0871cc,
perumahan,Perhimpunan Pengembang Perumahan,Puakan shortland,"H4M7+P3P, Tengkudak, Kec. Penebel, Kabupaten Tabanan, Bali 82152","Tengkudak, Kec. Penebel, Kabupaten Tabanan",BALI,82152.0,Indonesia,,,,-8.4155771,115.1130107,https://maps.google.com/?cid=0x0:0x61d99dd972cb5c3c,
perumahan,Komplek perumahan,Rumah Aprina,"Unnamed Road, Tengkudak, Kec. Penebel, Kabupaten Tabanan, Bali 82152","Tengkudak, Kec. Penebel, Kabupaten Tabanan",BALI,82152.0,Indonesia,,,,-8.4213065,115.1201889,https://maps.google.com/?cid=0x0:0x57baa73252ee8709,
perumahan,Taman,Pondok GErindem,"H4MH+6PG, Unnamed Road, Mengesta, Penebel, Tabanan Regency, Bali 82152","Unnamed Road, Mengesta, Penebel, Tabanan Regency",BALI,82152.0,Indonesia,,,,-8.4169441,115.1293165,https://maps.google.com/?cid=0x0:0xd9c02b62bd20c3a7,
perumahan,Komplek perumahan,Jro Mangku Rambut Sedana,"Jl. Batu Luwih Kawan No.43, Jatiluwih, Kec. Penebel, Kabupaten Tabanan, Bali 82152","Jatiluwih, Kec. Penebel, Kabupaten Tabanan",BALI,82152.0,Indonesia,,,,-8.3694547,115.1286246,https://maps.google.com/?cid=0x0:0x6bedd13add1ff512,
perumahan,Komplek perumahan,"Pondok Dr. I Made Danu Tirta, M.Ag.","J34P+V8F, Sangketan, Kec. Penebel, Kabupaten Tabanan, Bali 82152","Sangketan, Kec. Penebel, Kabupaten Tabanan",BALI,82152.0,Indonesia,,,,-8.392849,115.085874,https://maps.google.com/?cid=0x0:0x6e13d3c28cdf7543,
perumahan,Perhimpunan Pengembang Perumahan,Pak mando,"Banjar ubung no 15, Penebel, Kec. Penebel, Kabupaten Tabanan, Bali 82152","Penebel, Kec. Penebel, Kabupaten Tabanan",BALI,82152.0,Indonesia,,,,-8.4184552,115.1446051,https://maps.google.com/?cid=0x0:0x18b5bf848a1bc8a4,
perumahan,Komplek perumahan,Kajanan Dadia,"H5X5+HFJ, Senganan, Kec. Penebel, Kabupaten Tabanan, Bali 82152","Senganan, Kec. Penebel, Kabupaten Tabanan",BALI,82152.0,Indonesia, 087781093265,,,-8.4010484,115.1586337,https://maps.google.com/?cid=0x0:0xedf57d35c693d2da,
perumahan,Komplek perumahan,"Perumahan Tanjung Asri, Kediri, Tabanan","C4MR+2H7, Jl. Trisula, Kediri, Kec. Kediri, Kabupaten Tabanan, Bali 82121","Jl. Trisula, Kediri, Kec. Kediri, Kabupaten Tabanan",BALI,82121.0,Indonesia,,,,-8.5674604,115.1414159,https://maps.google.com/?cid=0x0:0xcf1bde602003ea17,
perumahan,perumahan,Bali 82121,"Kec. Kediri, Kabupaten Tabanan, Bali","Kabupaten Tabanan, Bali",BALI,,Indonesia,,,,-8.5649981,115.1296249,https://maps.google.com/?cid=0x0:0x3da7e6c755bd7d06,
perumahan,Komplek perumahan,IONE BALI RESIDENCE,"Jl. I Wayan Terunga, Banjar Anyar, Kec. Kediri, Kabupaten Tabanan, Bali 82121","Banjar Anyar, Kec. Kediri, Kabupaten Tabanan",BALI,82121.0,Indonesia, 081558069777,,,-8.5413679,115.1480631,https://maps.google.com/?cid=0x0:0x7cdd89a955a3006,
perumahan,Komplek perumahan,Perumahan Nyitdah Indah 1,"C473+HJR, Belalang, Kec. Kediri, Kabupaten Tabanan, Bali 82121","Belalang, Kec. Kediri, Kabupaten Tabanan",BALI,82121.0,Indonesia,,,,-8.5860176,115.1040236,https://maps.google.com/?cid=0x0:0xe8b13fdb94333200,
perumahan,Komplek perumahan,Nyitdah Residence,"C487+FWR, Jl. Pantai Kedungu No.43, Nyitdah, Kec. Kediri, Kabupaten Tabanan, Bali 82121","Jl. Pantai Kedungu No.43, Nyitdah, Kec. Kediri, Kabupaten Tabanan",BALI,82121.0,Indonesia, 085935242492,,,-8.5768934,115.1182041,https://maps.google.com/?cid=0x0:0x169fc816d396ee7a,
perumahan,Pembangunan Perumahan,Puri Residence Kediri Tabanan,"Jl. Terunajaya No.36, Kediri, Kec. Kediri, Kabupaten Tabanan, Bali 82121","Kediri, Kec. Kediri, Kabupaten Tabanan",BALI,82121.0,Indonesia,,,,-8.5695618,115.1318294,https://maps.google.com/?cid=0x0:0xe058868ce53b2812,
perumahan,Perumahan,Perumahan Taman Tirta Residence,"C4HF+63F, Jl. Pantai Kedungu, Nyitdah, Kec. Kediri, Kabupaten Tabanan, Bali 82121","Jl. Pantai Kedungu, Nyitdah, Kec. Kediri, Kabupaten Tabanan",BALI,82121.0,Indonesia,,,,-8.5719438,115.1226842,https://maps.google.com/?cid=0x0:0x6149035cbffdb9d,
perumahan,Komplek perumahan,Kediri Boulevard Residence,"C4JH+3RF, Kediri, Kec. Kediri, Kabupaten Tabanan, Bali","Kabupaten Tabanan, Bali",BALI,,Indonesia,,,,-8.5698076,115.1295318,https://maps.google.com/?cid=0x0:0x3540f4e98cc7cc32,
perumahan,Perhimpunan Pengembang Perumahan,Perumahan Griya Asri Kediri,"C4XQ+VCM, Banjar Anyar, Kec. Kediri, Kabupaten Tabanan, Bali 82121","Banjar Anyar, Kec. Kediri, Kabupaten Tabanan",BALI,82121.0,Indonesia, 081953647572,,,-8.5502934,115.1385564,https://maps.google.com/?cid=0x0:0x9df9e785662e3a5e,
perumahan,Perumahan,Perumahan Panorama Sanggulan,"F42Q+WM5, Banjar Anyar, Kec. Kediri, Kabupaten Tabanan, Bali 82121","Banjar Anyar, Kec. Kediri, Kabupaten Tabanan",BALI,82121.0,Indonesia,,,,-8.5477282,115.1392286,https://maps.google.com/?cid=0x0:0x6fcc4808451fdc18,
perumahan,Perhimpunan Pengembang Perumahan,Perumahan kembang fajar No. 6 Kediri Tabanan Bali,"C4QV+X9V, Kediri, Kec. Kediri, Kabupaten Tabanan, Bali 82121","Kediri, Kec. Kediri, Kabupaten Tabanan",BALI,82121.0,Indonesia,,,,-8.5599616,115.1433653,https://maps.google.com/?cid=0x0:0xfd0124364f8e775,
perumahan,Komplek perumahan,UMA KEBON RESIDENCE,"Jl. Pantai Kedungu, Nyitdah, Kec. Kediri, Kabupaten Tabanan, Bali 82121","Nyitdah, Kec. Kediri, Kabupaten Tabanan",BALI,82121.0,Indonesia, 081946444456,,,-8.5852772,115.1048922,https://maps.google.com/?cid=0x0:0xbd7231be04683708,
perumahan,Perumahan,Perumahan Karang Bali,"C4CP+444, Jl. Tanah Lot, Pandak Bandung, Kec. Kediri, Kabupaten Tabanan, Bali 82121","Jl. Tanah Lot, Pandak Bandung, Kec. Kediri, Kabupaten Tabanan",BALI,82121.0,Indonesia, 087862190675,,,-8.5797382,115.1353334,https://maps.google.com/?cid=0x0:0x3a4c4a992dfc483c,
perumahan,Pembangunan Perumahan,Bayur Nyitdah Residence,"C497+RFV, Nyitdah, Kec. Kediri, Kabupaten Tabanan, Bali 82121","Nyitdah, Kec. Kediri, Kabupaten Tabanan",BALI,82121.0,Indonesia,,,,-8.5803774,115.1136608,https://maps.google.com/?cid=0x0:0x71d8b6e010eeb3ad,
perumahan,Perumahan,PERUM NYITDAH PERMAI,"C4QJ+48J, Kediri, Kec. Kediri, Kabupaten Tabanan, Bali 82121","Kediri, Kec. Kediri, Kabupaten Tabanan",BALI,82121.0,Indonesia, 081327147220,,,-8.562163,115.130752,https://maps.google.com/?cid=0x0:0x4d4b1897442c9064,
perumahan,Panti sosial,Jalan Puri Residence I,"Jl. Puri Residence I, Kediri, Kec. Kediri, Kabupaten Tabanan, Bali 82121","Kediri, Kec. Kediri, Kabupaten Tabanan",BALI,82121.0,Indonesia,,,,-8.5701878,115.1304628,https://maps.google.com/?cid=0x0:0x1b926611d07e2068,
perumahan,Panti sosial,Perumahan Puri Panti Graha,"Perumahan Puri Panti Graha, Kediri, Kec. Kediri, Kabupaten Tabanan, Bali 82121","Kediri, Kec. Kediri, Kabupaten Tabanan",BALI,82121.0,Indonesia,,,,-8.5668115,115.1315515,https://maps.google.com/?cid=0x0:0x5b97a4b774b61ecf,
perumahan,Perumahan,PERUMAHAN KARANG SHANTI RESIDENCE,"C4GQ+97H, Jl. Tanah Lot, Pandak Bandung, Kec. Kediri, Kabupaten Tabanan, Bali 82121","Jl. Tanah Lot, Pandak Bandung, Kec. Kediri, Kabupaten Tabanan",BALI,82121.0,Indonesia, 081339484955,,,-8.5740608,115.1382389,https://maps.google.com/?cid=0x0:0xca48107a62136f01,
perumahan,Penginapan,Rumah kediri,"Jl. Trisula Perumahan tanjung asri No.40, Kediri, Kec. Kediri, Kabupaten Tabanan, Bali 82121","Kediri, Kec. Kediri, Kabupaten Tabanan",BALI,82121.0,Indonesia,,,,-8.568437,115.142497,https://maps.google.com/?cid=0x0:0xc32ba59c2557dc88,
perumahan,Komplek perumahan,Perumahan di kediri,"C4QJ+JV5, Kediri, Kec. Kediri, Kabupaten Tabanan, Bali 82121","Kediri, Kec. Kediri, Kabupaten Tabanan",BALI,82121.0,Indonesia,,,,-8.5609877,115.1322263,https://maps.google.com/?cid=0x0:0xa69696b4aa6ad04d,
perumahan,Kantor Perusahaan,"Perum Kembang Fajar Regency No. 5, Kediri, Tabanan, Bali","C4RV+28J, Kediri, Kec. Kediri, Kabupaten Tabanan, Bali 82121","Kediri, Kec. Kediri, Kabupaten Tabanan",BALI,82121.0,Indonesia,,,,-8.5599106,115.143267,https://maps.google.com/?cid=0x0:0x7f7a22a2499b1eb5,
perumahan,Komplek perumahan,villa,"C4HH+JMR, Kediri, Kec. Kediri, Kabupaten Tabanan, Bali 82121","Kediri, Kec. Kediri, Kabupaten Tabanan",BALI,82121.0,Indonesia,,,,-8.570901,115.129603,https://maps.google.com/?cid=0x0:0x556c229b8ff2dd1c,
perumahan,Komplek perumahan,Perumahan Dati River Side,"Perum Dati Riverside, Jl. Pulau Bawean No.9, Kediri, Kec. Kediri, Kabupaten Tabanan, Bali 82121","Jl. Pulau Bawean No.9, Kediri, Kec. Kediri, Kabupaten Tabanan",BALI,82121.0,Indonesia,,,,-8.5572526,115.1355014,https://maps.google.com/?cid=0x0:0x9ed07fc626ad5963,
perumahan,Panti sosial,Puri Estate Kediri,"C4JJ+7JG, Kediri, Kec. Kediri, Kabupaten Tabanan, Bali 82121","Kediri, Kec. Kediri, Kabupaten Tabanan",BALI,82121.0,Indonesia,,,,-8.5694187,115.1316963,https://maps.google.com/?cid=0x0:0xbc1190092a693256,
perumahan,Komplek perumahan,Griya Devasya,"Jl. Cendrawasih, Kediri, Kec. Kediri, Kabupaten Tabanan, Bali 82121","Kediri, Kec. Kediri, Kabupaten Tabanan",BALI,82121.0,Indonesia, 087761873977,,,-8.5698772,115.1323622,https://maps.google.com/?cid=0x0:0x961fc17cb7d64a4f,
perumahan,Kantor Perusahaan,Kediri Family Residence,"Jl. Bangsore, Sobo, Nambaan, Kec. Ngasem, Kabupaten Kediri, Jawa Timur 64182","Sobo, Nambaan, Kec. Ngasem, Kabupaten Kediri",BALI,64182.0,Indonesia, 082233456345,,,-7.787361,112.0402765,https://maps.google.com/?cid=0x0:0x5fd39977119669a1,
perumahan,Komplek perumahan,Perumahan Griya Permata Rejomulyo,"Jl. Sumber No.65, Rejomulyo, Kec. Kota, Kabupaten Kediri, Jawa Timur 64129","Rejomulyo, Kec. Kota, Kabupaten Kediri",BALI,64129.0,Indonesia,,,,-7.8507723,112.0192338,https://maps.google.com/?cid=0x0:0x5a96eaf03183af61,
perumahan,Komplek perumahan,Perum GADING RAYA PERMAI 1,"Jl. Harmoni, Ngronggo, Kec. Kota, Kota Kediri, Jawa Timur 64129","Ngronggo, Kec. Kota, Kota Kediri",BALI,64129.0,Indonesia,,,,-7.8504331,112.0175732,https://maps.google.com/?cid=0x0:0x2ed77cb2ba40cec6,
perumahan,Komplek perumahan,Perumahan Dhoho Harmoni,"Jl. Harmoni, Ngronggo, Kec. Kota, Kota Kediri, Jawa Timur 64182","Ngronggo, Kec. Kota, Kota Kediri",BALI,64182.0,Indonesia, 082283830077,,,-7.8498439,112.0162653,https://maps.google.com/?cid=0x0:0x7648f31fea2667b4,
perumahan,perumahan,Bali 82123,"Kabupaten Tabanan, Bali","Kabupaten Tabanan, Bali",BALI,,Indonesia,,,,-8.5214417,115.1385192,https://maps.google.com/?cid=0x0:0x4b5bcd1e9a57a1dc,
perumahan,Perhimpunan Pengembang Perumahan,Perumahan BCA MULTI JADI IX tahap II nomor 33,"Perumahan BCA Multi Jadi IX Tahap 1 No. 9, Kabupaten Tabanan, Bali 82123",Kabupaten Tabanan,BALI,82123.0,Indonesia, 03619313991,,,-8.527557,115.1421688,https://maps.google.com/?cid=0x0:0xa2ff7d51ddfbaa1b,
perumahan,Komplek perumahan,Perumahan Andika Graha 3,"Perumahan Andika Graha 3, Br. Jadi Pisah, Banjar Anyar, Kediri, Tabanan Regency, Bali 82123","Br. Jadi Pisah, Banjar Anyar, Kediri, Tabanan Regency",BALI,82123.0,Indonesia, 081339655630,,,-8.5241386,115.1413491,https://maps.google.com/?cid=0x0:0x33e174db443359ff,
perumahan,Komplek perumahan,Perumahan Griya Multi Jadi,"Jl. Raya Desa Jadi, Banjar Anyar, Kec. Kediri, Kabupaten Tabanan, Bali 82123","Banjar Anyar, Kec. Kediri, Kabupaten Tabanan",BALI,82123.0,Indonesia,,,,-8.5307991,115.1411739,https://maps.google.com/?cid=0x0:0xcb40f7ed7f663434,
perumahan,Komplek perumahan,Perumahan Andika Graha - Tabanan,"Jl. Bisma, Banjar Anyar, Kec. Kediri, Kabupaten Tabanan, Bali 82123","Banjar Anyar, Kec. Kediri, Kabupaten Tabanan",BALI,82123.0,Indonesia,,,,-8.5261661,115.1420865,https://maps.google.com/?cid=0x0:0x3ddc7ea70770d74e,
perumahan,Perumahan,Perumahan Puri Jadi Lestari,"F4HW+83M, Jl. Ciung Wanara, Banjar Anyar, Kec. Kediri, Kabupaten Tabanan, Bali 82123","Jl. Ciung Wanara, Banjar Anyar, Kec. Kediri, Kabupaten Tabanan",BALI,82123.0,Indonesia,,,,-8.5216608,115.1451664,https://maps.google.com/?cid=0x0:0x883abb0e5e2a15d9,
perumahan,,Perum BCA PESONA Jadi,"Banjar Anyar, Kec. Kediri, Kabupaten Tabanan, Bali 82123","Kec. Kediri, Kabupaten Tabanan",BALI,82123.0,Indonesia, 03619313991,,,-8.5247082,115.1429427,https://maps.google.com/?cid=0x0:0x771bce63dc45332e,
perumahan,Komplek perumahan,Rumah Maha,"F4HW+33M, Jl. Ciung Wanara, Banjar Anyar, Kec. Kediri, Kabupaten Tabanan, Bali 82123","Jl. Ciung Wanara, Banjar Anyar, Kec. Kediri, Kabupaten Tabanan",BALI,82123.0,Indonesia,,,,-8.5223203,115.1452556,https://maps.google.com/?cid=0x0:0x721af2b073bb5ebe,
perumahan,Pembangunan Perumahan,PERUM GRAHA PERSADA TABANAN,"Jl. Graha Persada No.9, Denbantas, Kec. Tabanan, Kabupaten Tabanan, Bali 82123","Denbantas, Kec. Tabanan, Kabupaten Tabanan",BALI,82123.0,Indonesia,,,,-8.5191318,115.1381139,https://maps.google.com/?cid=0x0:0xdcbefba769349f92,
perumahan,Komplek perumahan,Perumahan Griya Multi Jadi Blok XI/C5,"Perumahan Griya Multi Jadi, Blk.XI No.C5, Banjar Anyar, Kec. Kediri, Kabupaten Tabanan, Bali 82123","Blk.XI No.C5, Banjar Anyar, Kec. Kediri, Kabupaten Tabanan",BALI,82123.0,Indonesia,,,,-8.532642,115.1456287,https://maps.google.com/?cid=0x0:0x4c4a6eaa0da8ff1,
perumahan,Komplek perumahan,Jadi Hills Residence B05,"Desa JADI sanggulan, Banjar Anyar, Kec. Kediri, Kabupaten Tabanan, Bali 82121","Banjar Anyar, Kec. Kediri, Kabupaten Tabanan",BALI,82121.0,Indonesia, 085851266330,,,-8.5278226,115.1404219,https://maps.google.com/?cid=0x0:0xc70d431d84ece6b5,
perumahan,Komplek perumahan,Perumahan Jadi Hills Residence 1 Block H03,"Banjar Anyar, sanggulan, Kec. Kediri, Kabupaten Tabanan, Bali 82123","sanggulan, Kec. Kediri, Kabupaten Tabanan",BALI,82123.0,Indonesia,,,,-8.5274626,115.1400082,https://maps.google.com/?cid=0x0:0x38843dd1b4f05977,
perumahan,Komplek perumahan,Kediri Boulevard Residence,"C4JH+3RF, Kediri, Kec. Kediri, Kabupaten Tabanan, Bali","Kabupaten Tabanan, Bali",BALI,,Indonesia,,,,-8.5698076,115.1295318,https://maps.google.com/?cid=0x0:0x3540f4e98cc7cc32,
perumahan,Komplek perumahan,Perumahan,"Perum Andika grahaJl, Jl. Kunti No.11, Banjar Anyar, Kec. Kediri, Kabupaten Tabanan, Bali 82123","Jl. Kunti No.11, Banjar Anyar, Kec. Kediri, Kabupaten Tabanan",BALI,82123.0,Indonesia,,,,-8.5263753,115.139932,https://maps.google.com/?cid=0x0:0xa556c8054c06be79,
perumahan,Komplek perumahan,Private home,"F4GV+2GQ, Banjar Anyar, Kec. Kediri, Kabupaten Tabanan, Bali 82123","Banjar Anyar, Kec. Kediri, Kabupaten Tabanan",BALI,82123.0,Indonesia,,,,-8.5249493,115.1438484,https://maps.google.com/?cid=0x0:0x2d935f5844abba8c,
perumahan,Kantor Perusahaan,Perumahan subsidi,"F49V+5XP, Banjar Anyar, Kec. Kediri, Kabupaten Tabanan, Bali 82121","Banjar Anyar, Kec. Kediri, Kabupaten Tabanan",BALI,82121.0,Indonesia,,,,-8.5320347,115.1449542,https://maps.google.com/?cid=0x0:0x8cbcb1c00acbd465,
perumahan,Komplek perumahan,Jalan Bima,"Perum Andika Graha, blok A81, Banjar Anyar, Kec. Kediri, Kabupaten Tabanan, Bali 82123","blok A81, Banjar Anyar, Kec. Kediri, Kabupaten Tabanan",BALI,82123.0,Indonesia,,,,-8.524488,115.1407939,https://maps.google.com/?cid=0x0:0xdde655d81d77ae1a,
perumahan,Perumahan,Desa jadi,"F4HV+P39, Jl. Setra Ganda Mayu, Banjar Anyar, Kec. Kediri, Kabupaten Tabanan, Bali 82123","Jl. Setra Ganda Mayu, Banjar Anyar, Kec. Kediri, Kabupaten Tabanan",BALI,82123.0,Indonesia,,,,-8.5201497,115.142284,https://maps.google.com/?cid=0x0:0x8d581811550ff7ca,
perumahan,Komplek perumahan,Efata House,"Jl. Karna No.B12, Banjar Anyar, Kec. Kediri, Kabupaten Tabanan, Bali 82123","Banjar Anyar, Kec. Kediri, Kabupaten Tabanan",BALI,82123.0,Indonesia,,,,-8.5240033,115.1406568,https://maps.google.com/?cid=0x0:0xda0c02ccb792925d,
perumahan,Perhimpunan Pengembang Perumahan,Perumahan Griya Asri Kediri,"C4XQ+VCM, Banjar Anyar, Kec. Kediri, Kabupaten Tabanan, Bali 82121","Banjar Anyar, Kec. Kediri, Kabupaten Tabanan",BALI,82121.0,Indonesia, 081953647572,,,-8.5502934,115.1385564,https://maps.google.com/?cid=0x0:0x9df9e785662e3a5e,
perumahan,Komplek perumahan,Rumah Bagus Sanjaya,"Jl. Raya Desa Jadi No.48, Banjar Anyar, Kec. Kediri, Kabupaten Tabanan, Bali 82123","Banjar Anyar, Kec. Kediri, Kabupaten Tabanan",BALI,82123.0,Indonesia,,,,-8.5184719,115.1484155,https://maps.google.com/?cid=0x0:0xf5c1da117714ad73,
perumahan,Komplek perumahan,Perumahan Griya Alam Denbantas,"F4MR+99M Perum Griya Alam, Denbantas, Kec. Tabanan, Kabupaten Tabanan, Bali 82123","Denbantas, Kec. Tabanan, Kabupaten Tabanan",BALI,82123.0,Indonesia,,,,-8.5165335,115.1409343,https://maps.google.com/?cid=0x0:0xbeb8a1a947973020,
perumahan,Rumah wisata,Perum Giri Kencana I,"Jl. Jadi 82123, Gg. Jati, Banjar Anyar, Kec. Kediri, Kabupaten Badung, Bali 80351","Gg. Jati, Banjar Anyar, Kec. Kediri, Kabupaten Badung",BALI,80351.0,Indonesia,,,,-8.5203848,115.1477265,https://maps.google.com/?cid=0x0:0x41216995f3fa6645,
perumahan,Perhimpunan Pengembang Perumahan,Galileo House,"F4GW+QC6, Jl. Raya Desa Jadi, Banjar Anyar, Kec. Kediri, Kabupaten Tabanan, Bali 82123","Jl. Raya Desa Jadi, Banjar Anyar, Kec. Kediri, Kabupaten Tabanan",BALI,82123.0,Indonesia, 08999433717,,,-8.5230968,115.1459915,https://maps.google.com/?cid=0x0:0x59eb20bef2402a54,
perumahan,Komplek perumahan,GSA Pesona Jadi,"Blk. B No.9, Banjar Anyar, Kec. Kediri, Kabupaten Tabanan, Bali 82123","Banjar Anyar, Kec. Kediri, Kabupaten Tabanan",BALI,82123.0,Indonesia,,,,-8.5246279,115.1442155,https://maps.google.com/?cid=0x0:0x598488d8ddda6aae,
perumahan,Komplek perumahan,Perum andika graha 4,"F4FR+C68, Banjar Anyar, Kec. Kediri, Kabupaten Tabanan, Bali 82123","Banjar Anyar, Kec. Kediri, Kabupaten Tabanan",BALI,82123.0,Indonesia,,,,-8.5264625,115.1405781,https://maps.google.com/?cid=0x0:0x8337c1f042481c74,
perumahan,Komplek perumahan,Perumahan di kediri,"C4QJ+JV5, Kediri, Kec. Kediri, Kabupaten Tabanan, Bali 82121","Kediri, Kec. Kediri, Kabupaten Tabanan",BALI,82121.0,Indonesia,,,,-8.5609877,115.1322263,https://maps.google.com/?cid=0x0:0xa69696b4aa6ad04d,
perumahan,Perumahan,Dapoer Dita,"Perum ayana residence, Blk. I No.12, Kaliombo, Kec. Kota, Kota Kediri, Jawa Timur 64182","Blk. I No.12, Kaliombo, Kec. Kota, Kota Kediri",BALI,64182.0,Indonesia, 082152592656,,,-7.8352996,112.0133457,https://maps.google.com/?cid=0x0:0x608987091f82d320,
perumahan,Komplek perumahan,Rumah Adi  Vica,"F4GV+J78, Banjar Anyar, Kec. Kediri, Kabupaten Tabanan, Bali 82123","Banjar Anyar, Kec. Kediri, Kabupaten Tabanan",BALI,82123.0,Indonesia,,,,-8.523495,115.14326,https://maps.google.com/?cid=0x0:0xbdd074cbd89e7a62,
perumahan,perumahan,Kec. Kediri,"Kabupaten Tabanan, Bali","Kabupaten Tabanan, Bali",BALI,,Indonesia,,,,-8.5545614,115.1402899,https://maps.google.com/?cid=0x0:0x4030bfbca7d2e90,
perumahan,Komplek perumahan,Perumahan Griya Multi Jadi,"Jl. Raya Desa Jadi, Banjar Anyar, Kec. Kediri, Kabupaten Tabanan, Bali 82123","Banjar Anyar, Kec. Kediri, Kabupaten Tabanan",BALI,82123.0,Indonesia,,,,-8.5307991,115.1411739,https://maps.google.com/?cid=0x0:0xcb40f7ed7f663434,
perumahan,Komplek perumahan,"Perumahan Tanjung Asri, Kediri, Tabanan","C4MR+2H7, Jl. Trisula, Kediri, Kec. Kediri, Kabupaten Tabanan, Bali 82121","Jl. Trisula, Kediri, Kec. Kediri, Kabupaten Tabanan",BALI,82121.0,Indonesia,,,,-8.5674604,115.1414159,https://maps.google.com/?cid=0x0:0xcf1bde602003ea17,
perumahan,Perumahan,Perumahan Panorama Sanggulan,"F42Q+WM5, Banjar Anyar, Kec. Kediri, Kabupaten Tabanan, Bali 82121","Banjar Anyar, Kec. Kediri, Kabupaten Tabanan",BALI,82121.0,Indonesia,,,,-8.5477282,115.1392286,https://maps.google.com/?cid=0x0:0x6fcc4808451fdc18,
perumahan,Perhimpunan Pengembang Perumahan,Perumahan Griya Asri Kediri,"C4XQ+VCM, Banjar Anyar, Kec. Kediri, Kabupaten Tabanan, Bali 82121","Banjar Anyar, Kec. Kediri, Kabupaten Tabanan",BALI,82121.0,Indonesia, 081953647572,,,-8.5502934,115.1385564,https://maps.google.com/?cid=0x0:0x9df9e785662e3a5e,
perumahan,Rumah Kayu,Perumahan Br. Taman Sekar,"Jl. Kartini, Banjar Anyar, Kec. Kediri, Kabupaten Tabanan, Bali 82121","Banjar Anyar, Kec. Kediri, Kabupaten Tabanan",BALI,82121.0,Indonesia,,,,-8.5560461,115.1442479,https://maps.google.com/?cid=0x0:0xc8220e65f3ddf0f,
perumahan,Perhimpunan Pengembang Perumahan,Perumahan kembang fajar No. 6 Kediri Tabanan Bali,"C4QV+X9V, Kediri, Kec. Kediri, Kabupaten Tabanan, Bali 82121","Kediri, Kec. Kediri, Kabupaten Tabanan",BALI,82121.0,Indonesia,,,,-8.5599616,115.1433653,https://maps.google.com/?cid=0x0:0xfd0124364f8e775,
perumahan,Panti sosial,Perumahan Puri Panti Graha,"Perumahan Puri Panti Graha, Kediri, Kec. Kediri, Kabupaten Tabanan, Bali 82121","Kediri, Kec. Kediri, Kabupaten Tabanan",BALI,82121.0,Indonesia,,,,-8.5668115,115.1315515,https://maps.google.com/?cid=0x0:0x5b97a4b774b61ecf,
perumahan,Komplek perumahan,Perumahan Dati River Side,"Perum Dati Riverside, Jl. Pulau Bawean No.9, Kediri, Kec. Kediri, Kabupaten Tabanan, Bali 82121","Jl. Pulau Bawean No.9, Kediri, Kec. Kediri, Kabupaten Tabanan",BALI,82121.0,Indonesia,,,,-8.5572526,115.1355014,https://maps.google.com/?cid=0x0:0x9ed07fc626ad5963,
perumahan,Perumahan,Perumahan Taman Tirta Residence,"C4HF+63F, Jl. Pantai Kedungu, Nyitdah, Kec. Kediri, Kabupaten Tabanan, Bali 82121","Jl. Pantai Kedungu, Nyitdah, Kec. Kediri, Kabupaten Tabanan",BALI,82121.0,Indonesia,,,,-8.5719438,115.1226842,https://maps.google.com/?cid=0x0:0x6149035cbffdb9d,
perumahan,Penginapan,Rumah kediri,"Jl. Trisula Perumahan tanjung asri No.40, Kediri, Kec. Kediri, Kabupaten Tabanan, Bali 82121","Kediri, Kec. Kediri, Kabupaten Tabanan",BALI,82121.0,Indonesia,,,,-8.568437,115.142497,https://maps.google.com/?cid=0x0:0xc32ba59c2557dc88,
perumahan,Kantor Perusahaan,Perumahan subsidi,"F49V+5XP, Banjar Anyar, Kec. Kediri, Kabupaten Tabanan, Bali 82121","Banjar Anyar, Kec. Kediri, Kabupaten Tabanan",BALI,82121.0,Indonesia,,,,-8.5320347,115.1449542,https://maps.google.com/?cid=0x0:0x8cbcb1c00acbd465,
perumahan,Pembangunan Perumahan,Perumahan Villa Demung Permai no.6,"Jl. Garuda perumahan villa demung permai. No6, Kediri, Kec. Kediri, Kabupaten Tabanan, Bali 82121","Kediri, Kec. Kediri, Kabupaten Tabanan",BALI,82121.0,Indonesia,,,,-8.5603382,115.1322747,https://maps.google.com/?cid=0x0:0x272bf2f88328145,
perumahan,Kantor Perusahaan,"Perum Kembang Fajar Regency No. 5, Kediri, Tabanan, Bali","C4RV+28J, Kediri, Kec. Kediri, Kabupaten Tabanan, Bali 82121","Kediri, Kec. Kediri, Kabupaten Tabanan",BALI,82121.0,Indonesia,,,,-8.5599106,115.143267,https://maps.google.com/?cid=0x0:0x7f7a22a2499b1eb5,
perumahan,Perumahan,Perumahan Dati River View,"C4RM+9V3, Jl. Pulau Bawean, Kediri, Kec. Kediri, Kabupaten Tabanan, Bali 82121","Jl. Pulau Bawean, Kediri, Kec. Kediri, Kabupaten Tabanan",BALI,82121.0,Indonesia,,,,-8.5591008,115.1346736,https://maps.google.com/?cid=0x0:0x81c0d52df9b711e6,
perumahan,Toko Perlengkapan Rumah,Banjar Taman Sari Anyar Kediri Tabanan,"Jl. Ngurah Rai No.63, Banjar Anyar, Kec. Kediri, Kabupaten Tabanan, Bali 82121","Banjar Anyar, Kec. Kediri, Kabupaten Tabanan",BALI,82121.0,Indonesia,,,,-8.5525264,115.1416244,https://maps.google.com/?cid=0x0:0x40d250b129db911a,
perumahan,Pembangunan Perumahan,Saggezza,"C4RP+JJ2, Kediri, Kec. Kediri, Kabupaten Tabanan, Bali 82121","Kediri, Kec. Kediri, Kabupaten Tabanan",BALI,82121.0,Indonesia,,,,-8.5583769,115.136367,https://maps.google.com/?cid=0x0:0xba93ae45a815572f,
perumahan,,Rumah jevin,"Jl. A.Yani VIII, Abian Tuwung, Kec. Kediri, Kabupaten Tabanan, Bali 82121","Abian Tuwung, Kec. Kediri, Kabupaten Tabanan",BALI,82121.0,Indonesia,,,,-8.5539109,115.1490358,https://maps.google.com/?cid=0x0:0xc6e519090958e651,
perumahan,Komplek perumahan,Rumah Moriz,"Gg. Melati No.13, banjar puseh, Kec. Kediri, Kabupaten Tabanan, Bali 82121","banjar puseh, Kec. Kediri, Kabupaten Tabanan",BALI,82121.0,Indonesia,,,,-8.5499029,115.1395941,https://maps.google.com/?cid=0x0:0x4e9657bccf9c1d55,
perumahan,Komplek perumahan,Perumahan di kediri,"C4QJ+JV5, Kediri, Kec. Kediri, Kabupaten Tabanan, Bali 82121","Kediri, Kec. Kediri, Kabupaten Tabanan",BALI,82121.0,Indonesia,,,,-8.5609877,115.1322263,https://maps.google.com/?cid=0x0:0xa69696b4aa6ad04d,
perumahan,Komplek perumahan,GG's Home,"Jl. Ahmad Yani X No.45, Banjar Anyar, Kec. Kediri, Kabupaten Tabanan, Bali 82121","Banjar Anyar, Kec. Kediri, Kabupaten Tabanan",BALI,82121.0,Indonesia,,,,-8.5514542,115.1439175,https://maps.google.com/?cid=0x0:0xcfe7c2313f0886cf,
perumahan,Komplek perumahan,Graha Sanggulan,"F44P+745, Jl. Gatot Subroto II No.13, Banjar Anyar, Kec. Kediri, Kabupaten Tabanan, Bali 82121","Jl. Gatot Subroto II No.13, Banjar Anyar, Kec. Kediri, Kabupaten Tabanan",BALI,82121.0,Indonesia, 085237778038,,,-8.5456368,115.1368344,https://maps.google.com/?cid=0x0:0x5e51a48f03947f5a,
perumahan,Pembangunan Perumahan,Green Boulevard Residence,"C4VJ+G86, Kediri, Kec. Kediri, Kabupaten Tabanan, Bali 82121","Kediri, Kec. Kediri, Kabupaten Tabanan",BALI,82121.0,Indonesia,,,,-8.5562142,115.1307683,https://maps.google.com/?cid=0x0:0x74ae4b663b0a7e97,
perumahan,Pusat Kegiatan Warga,Puri Kediri-Saren Kaja,"Jl. MH. Thamrin No.69, Kediri, Kec. Kediri, Kabupaten Tabanan, Bali 82121","Kediri, Kec. Kediri, Kabupaten Tabanan",BALI,82121.0,Indonesia,,,,-8.5561511,115.1394066,https://maps.google.com/?cid=0x0:0xea4141df1cad6977,
perumahan,Perumahan,Rumah,"Jl. Garuda perumahan villa demung permai No.7, Kediri, Kec. Kediri, Kabupaten Tabanan, Bali 82121","Kediri, Kec. Kediri, Kabupaten Tabanan",BALI,82121.0,Indonesia,,,,-8.5603554,115.1324537,https://maps.google.com/?cid=0x0:0x78bd8163ecc7d2ae,
perumahan,Perumahan,PERUMAHAN PURI ASRI KALIOMBO,"Jl. Padang Padi Gg. Asri No.3 Blok B, Kaliombo, Kota, Kota Kediri, East Java 64129","Kaliombo, Kota, Kota Kediri",BALI,64129.0,Indonesia, 085257223900,,,-7.8368889,112.0196603,https://maps.google.com/?cid=0x0:0x76aefcd10b7ee7d5,
perumahan,Komplek perumahan,Perumahan BTN Rejomulyo,"42XH+F2C, Jalan Kapten Tendean, Rejomulyo, Kec. Kota, Kota Kediri, Jawa Timur 64129","Jalan Kapten Tendean, Rejomulyo, Kec. Kota, Kota Kediri",BALI,64129.0,Indonesia,,,,-7.851303,112.027524,https://maps.google.com/?cid=0x0:0x7110954955350387,
perumahan,Agen Pemasaran,Perumahan Graha Mukti Regency,"42WJ+427, Perumahan Graha Mukti Regency cakarsi, Tosaren, Kec. Pesantren, Kota Kediri, Jawa Timur 64133","Perumahan Graha Mukti Regency cakarsi, Tosaren, Kec. Pesantren, Kota Kediri",BALI,64133.0,Indonesia,,,,-7.8547013,112.0300535,https://maps.google.com/?cid=0x0:0x7fa81f589be8111a,
perumahan,Kompleks Townhouse,Perum Mawar Jingga Manisrenggo,"42X6+VVH, Manisrenggo, Kec. Kota, Kabupaten Kediri, Jawa Timur 64129","Manisrenggo, Kec. Kota, Kabupaten Kediri",BALI,64129.0,Indonesia,,,,-7.8503032,112.0122306,https://maps.google.com/?cid=0x0:0x78bdd65a0e46302d,
perumahan,Komplek perumahan,Anggasari Pupuan Tabanan-Balii,"JXP6+VW2, Munduk Temu, Kec. Pupuan, Kabupaten Tabanan, Bali 82163","Munduk Temu, Kec. Pupuan, Kabupaten Tabanan",BALI,82163.0,Indonesia,,,,-8.3633949,114.9619482,https://maps.google.com/?cid=0x0:0xe0bac2236434397d,
perumahan,Pembangunan Perumahan,Rumah Gede Sunadi,"Gg. Zamrud, Pupuan, Kec. Pupuan, Kabupaten Tabanan, Bali 82163","Pupuan, Kec. Pupuan, Kabupaten Tabanan",BALI,82163.0,Indonesia, 085935241079,,,-8.3177978,115.0043423,https://maps.google.com/?cid=0x0:0xe8931461d3b88698,
perumahan,perumahan,Bali 82163,"Kec. Pupuan, Kabupaten Tabanan, Bali","Kabupaten Tabanan, Bali",BALI,,Indonesia,,,,-8.360244,115.0228736,https://maps.google.com/?cid=0x0:0x1c00c5eb6016c220,
perumahan,Komplek perumahan,KAMPUNG PUPUAN,"MXJX+P3R, Bantiran, Kec. Pupuan, Kabupaten Tabanan, Bali 82163","Bantiran, Kec. Pupuan, Kabupaten Tabanan",BALI,82163.0,Indonesia,,,,-8.3181295,114.9976558,https://maps.google.com/?cid=0x0:0xfcaaa44dd9fe6af3,
perumahan,Perhimpunan Pengembang Perumahan,Perumahan,"M2FV+RF8, Jl. Gn. Batukaru, Pujungan, Kec. Pupuan, Kabupaten Tabanan, Bali 82163","Jl. Gn. Batukaru, Pujungan, Kec. Pupuan, Kabupaten Tabanan",BALI,82163.0,Indonesia,,,,-8.32541,115.04372,https://maps.google.com/?cid=0x0:0x4bda3cc6e31f2e03,
perumahan,Komplek perumahan,Rumah Bagus Qian,"MX7P+RF7, Jl. Dauh Pangkung, Pajahan, Kec. Pupuan, Kabupaten Tabanan, Bali 82163","Jl. Dauh Pangkung, Pajahan, Kec. Pupuan, Kabupaten Tabanan",BALI,82163.0,Indonesia,,,,-8.3354532,114.9861859,https://maps.google.com/?cid=0x0:0x6889f12e8e85865e,
perumahan,Komplek perumahan,WahyuTama Family,"Jl. Pekutatan - Pupuan No.21, Pujungan, Kec. Pupuan, Kabupaten Tabanan, Bali 82163","Pujungan, Kec. Pupuan, Kabupaten Tabanan",BALI,82163.0,Indonesia, 085847961007,,,-8.3290168,115.0301184,https://maps.google.com/?cid=0x0:0x48f1060e92d89888,
perumahan,Pembangunan Perumahan,Rumah gusdi,"M22M+88R, Jl. Raya Pupuan Kaja, Batungsel, Kec. Pupuan, Kabupaten Tabanan, Bali 82163","Jl. Raya Pupuan Kaja, Batungsel, Kec. Pupuan, Kabupaten Tabanan",BALI,82163.0,Indonesia,,,,-8.3491393,115.0332569,https://maps.google.com/?cid=0x0:0x5738304ee4fb7584,
perumahan,Pembangunan Perumahan,DRMP 76,"J28X+3F, Karya Sari, Kec. Pupuan, Kabupaten Tabanan, Bali","Kabupaten Tabanan, Bali",BALI,,Indonesia,,,,-8.3847696,115.0486286,https://maps.google.com/?cid=0x0:0x54ac085ca4fc9ef5,
perumahan,Komplek perumahan,Rumah Deva arta dinata ane bagus genjing,"M2GJ+R4C, Pujungan, Kec. Pupuan, Kabupaten Tabanan, Bali 82163","Pujungan, Kec. Pupuan, Kabupaten Tabanan",BALI,82163.0,Indonesia,,,,-8.3230119,115.0302327,https://maps.google.com/?cid=0x0:0x862eb115737aef7d,
perumahan,Komplek perumahan,Village House,"M2P2+4PX, Pupuan, Kec. Pupuan, Kabupaten Tabanan, Bali 82163","Pupuan, Kec. Pupuan, Kabupaten Tabanan",BALI,82163.0,Indonesia,,,,-8.3146644,115.0017316,https://maps.google.com/?cid=0x0:0x6f330d5a6cb7920d,
perumahan,Komplek perumahan,Rumah Nova,"JXGX+PGM, Kb. Padangan, Kec. Pupuan, Kabupaten Tabanan, Bali 82163","Kb. Padangan, Kec. Pupuan, Kabupaten Tabanan",BALI,82163.0,Indonesia,,,,-8.372365,114.998046,https://maps.google.com/?cid=0x0:0x4c5bf3a132af23b7,
perumahan,Perhimpunan Pengembang Perumahan,Rumah Putu Adi,"MX3W+QX7, Jl. Bantas, Pajahan, Kec. Pupuan, Kabupaten Tabanan, Bali 82163","Jl. Bantas, Pajahan, Kec. Pupuan, Kabupaten Tabanan",BALI,82163.0,Indonesia,,,,-8.3455918,114.9974085,https://maps.google.com/?cid=0x0:0xa40e753a6bf3e91d,
perumahan,Komplek perumahan,rumah Ari,"M2M5+9F9, Pupuan, Kec. Pupuan, Kabupaten Tabanan, Bali 82163","Pupuan, Kec. Pupuan, Kabupaten Tabanan",BALI,82163.0,Indonesia,,,,-8.3166151,115.008484,https://maps.google.com/?cid=0x0:0xe78183159ca99ad1,
perumahan,Komplek perumahan,Rumah Bagaskara Panji,"JX7X+4X7, Unnamed Road, Jelijih Punggung, Kec. Pupuan, Kabupaten Tabanan, Bali 82163","Unnamed Road, Jelijih Punggung, Kec. Pupuan, Kabupaten Tabanan",BALI,82163.0,Indonesia,,,,-8.3872056,114.9999247,https://maps.google.com/?cid=0x0:0xd3c0c6afbb6fc4fd,
perumahan,Komplek perumahan,Riris,"MXCX+JMP, Pajahan, Kec. Pupuan, Kabupaten Tabanan, Bali 82163","Pajahan, Kec. Pupuan, Kabupaten Tabanan",BALI,82163.0,Indonesia,,,,-8.3284025,114.9992168,https://maps.google.com/?cid=0x0:0x44d50101500ebd99,
perumahan,Komplek perumahan,Yudhapudel Hometown,"M2J5+RC2, Jl. Gajah Mada, Pupuan, Kec. Pupuan, Kabupaten Tabanan, Bali 82163","Jl. Gajah Mada, Pupuan, Kec. Pupuan, Kabupaten Tabanan",BALI,82163.0,Indonesia,,,,-8.3179958,115.0085248,https://maps.google.com/?cid=0x0:0x9ff4d361527d18f2,
perumahan,Komplek perumahan,Rumah Bu Putu Sintya,"M2HM+F3M, Pujungan, Kec. Pupuan, Kabupaten Tabanan, Bali 82163","Pujungan, Kec. Pupuan, Kabupaten Tabanan",BALI,82163.0,Indonesia,,,,-8.3216937,115.0320235,https://maps.google.com/?cid=0x0:0x6f0374138dea25af,
perumahan,Perhimpunan Pengembang Perumahan,Kubu Betel Padangan,"J2XC+3G, Padangan, Kec. Pupuan, Kabupaten Tabanan, Bali 82163","Padangan, Kec. Pupuan, Kabupaten Tabanan",BALI,82163.0,Indonesia,,,,-8.3522978,115.0212948,https://maps.google.com/?cid=0x0:0x295801a60f9fc55d,
perumahan,perumahan,Rumah Permana,"M2CH+7C7, Pujungan, Kec. Pupuan, Kabupaten Tabanan, Bali 82163","Pujungan, Kec. Pupuan, Kabupaten Tabanan",BALI,82163.0,Indonesia,,,,-8.3287869,115.0344579,https://maps.google.com/?cid=0x0:0xab1153658cfd5726,
perumahan,Komplek perumahan,Kusuma Antara House,"JX7J+349, Jl. Dayang Galiukir, Kb. Padangan, Kec. Pupuan, Kabupaten Tabanan, Bali 82163","Jl. Dayang Galiukir, Kb. Padangan, Kec. Pupuan, Kabupaten Tabanan",BALI,82163.0,Indonesia, 08873317454,,,-8.387339,114.980347,https://maps.google.com/?cid=0x0:0x5c91b44e9ae6e45f,
perumahan,Komplek perumahan,Lioni Familys,"J26W+VP, Karya Sari, Kec. Pupuan, Kabupaten Tabanan, Bali 82163","Karya Sari, Kec. Pupuan, Kabupaten Tabanan",BALI,82163.0,Indonesia,,,,-8.3877479,115.0468026,https://maps.google.com/?cid=0x0:0x22c162c7bb033ca7,
perumahan,Komplek perumahan,Rumah Gus Dody,"Jl. Batungsel, Batungsel, Kec. Pupuan, Kabupaten Tabanan, Bali 82163","Batungsel, Kec. Pupuan, Kabupaten Tabanan",BALI,82163.0,Indonesia,,,,-8.3481872,115.0341504,https://maps.google.com/?cid=0x0:0x5bd7f439aab115d0,
perumahan,Pembangunan Perumahan,Pondok Dewa Aji,"MX7Q+39W, Unnamed Road, Pajahan, Kec. Pupuan, Kabupaten Tabanan, Bali 82163","Unnamed Road, Pajahan, Kec. Pupuan, Kabupaten Tabanan",BALI,82163.0,Indonesia,,,,-8.337257,114.988438,https://maps.google.com/?cid=0x0:0xcf10361b06be326b,
perumahan,Pembangunan Perumahan,Ind hometown,"M2CH+MHH, Jl. Tri Kahyangan, Pujungan, Kec. Pupuan, Kabupaten Tabanan, Bali 82163","Jl. Tri Kahyangan, Pujungan, Kec. Pupuan, Kabupaten Tabanan",BALI,82163.0,Indonesia,,,,-8.3283125,115.0289885,https://maps.google.com/?cid=0x0:0x6f5d7216778dad77,
perumahan,Pembangunan Perumahan,Kak Bek Bersatu,"MXHV+XQ4, Jl. Pajahan Pupuan, Bantiran, Kec. Pupuan, Kabupaten Tabanan, Bali 82163","Jl. Pajahan Pupuan, Bantiran, Kec. Pupuan, Kabupaten Tabanan",BALI,82163.0,Indonesia,,,,-8.3203496,114.9942026,https://maps.google.com/?cid=0x0:0x88697f55ef082efb,
perumahan,Komplek perumahan,Pondok pak kori,"MXJR+J4G Br palisan, Bantiran, Kec. Pupuan, Kabupaten Tabanan, Bali 82163","Bantiran, Kec. Pupuan, Kabupaten Tabanan",BALI,82163.0,Indonesia,,,,-8.3184421,114.9903365,https://maps.google.com/?cid=0x0:0x73ac20cd14945f67,
perumahan,perumahan,Selemadeg,"Selemadeg, Kec. Selemadeg, Kabupaten Tabanan, Bali","Kabupaten Tabanan, Bali",BALI,,Indonesia,,,,-8.491588,115.0457,https://maps.google.com/?cid=0x0:0xc12bf47119051a54,
perumahan,Komplek perumahan,rumah tu riski,"G25W+987, Selemadeg, Kec. Selemadeg, Kabupaten Tabanan, Bali","Kabupaten Tabanan, Bali",BALI,,Indonesia,,,,-8.4915885,115.045796,https://maps.google.com/?cid=0x0:0xd31e320c9535a0cb,
perumahan,Perumahan,Rumah dek cendol,"G26W+2CQ Br dinas sukawati, Selemadeg, Kec. Selemadeg, Kabupaten Tabanan, Bali","Kabupaten Tabanan, Bali",BALI,,Indonesia,,,,-8.4899181,115.0461235,https://maps.google.com/?cid=0x0:0x1519dbb438775cc9,
perumahan,Komplek perumahan,Desa Adat Sukawati,"G25W+987, Desa Adat Sukawati, Desa, Selemadeg, Kec. Selemadeg, Kabupaten Tabanan, Bali 82162","Desa Adat Sukawati, Desa, Selemadeg, Kec. Selemadeg, Kabupaten Tabanan",BALI,82162.0,Indonesia, 082144435749,,,-8.4915886,115.0457961,https://maps.google.com/?cid=0x0:0xdb234ae2caf45f66,
perumahan,Komplek perumahan,Desa Adat Sukawati,"G25W+987, Desa Adat Sukawati, Desa, Selemadeg, Kec. Selemadeg, Kabupaten Tabanan, Bali 82162","Desa Adat Sukawati, Desa, Selemadeg, Kec. Selemadeg, Kabupaten Tabanan",BALI,82162.0,Indonesia, 082144435749,,,-8.4915886,115.0457961,https://maps.google.com/?cid=0x0:0xdb234ae2caf45f66,
perumahan,perumahan,Selemadeg,"Selemadeg, Kec. Selemadeg, Kabupaten Tabanan, Bali","Kabupaten Tabanan, Bali",BALI,,Indonesia,,,,-8.491588,115.0457,https://maps.google.com/?cid=0x0:0xc12bf47119051a54,
perumahan,Perumahan,Rumah dek cendol,"G26W+2CQ Br dinas sukawati, Selemadeg, Kec. Selemadeg, Kabupaten Tabanan, Bali","Kabupaten Tabanan, Bali",BALI,,Indonesia,,,,-8.4899181,115.0461235,https://maps.google.com/?cid=0x0:0x1519dbb438775cc9,
perumahan,Komplek perumahan,rumah tu riski,"G25W+987, Selemadeg, Kec. Selemadeg, Kabupaten Tabanan, Bali","Kabupaten Tabanan, Bali",BALI,,Indonesia,,,,-8.4915885,115.045796,https://maps.google.com/?cid=0x0:0xd31e320c9535a0cb,
perumahan,Pembangunan Perumahan,Perumahan Gamongan,"G28Q+RV, Selemadeg, Kec. Selemadeg, Kabupaten Tabanan, Bali 82162","Selemadeg, Kec. Selemadeg, Kabupaten Tabanan",BALI,82162.0,Indonesia,,,,-8.482879,115.0396467,https://maps.google.com/?cid=0x0:0xc9513d1c926c3d8,
perumahan,perumahan,Selemadeg,"Selemadeg, Kec. Selemadeg, Kabupaten Tabanan, Bali","Kabupaten Tabanan, Bali",BALI,,Indonesia,,,,-8.491588,115.0457,https://maps.google.com/?cid=0x0:0xc12bf47119051a54,
perumahan,Komplek perumahan,Desa Adat Sukawati,"G25W+987, Desa Adat Sukawati, Desa, Selemadeg, Kec. Selemadeg, Kabupaten Tabanan, Bali 82162","Desa Adat Sukawati, Desa, Selemadeg, Kec. Selemadeg, Kabupaten Tabanan",BALI,82162.0,Indonesia, 082144435749,,,-8.4915886,115.0457961,https://maps.google.com/?cid=0x0:0xdb234ae2caf45f66,
perumahan,Komplek perumahan,rumah tu riski,"G25W+987, Selemadeg, Kec. Selemadeg, Kabupaten Tabanan, Bali","Kabupaten Tabanan, Bali",BALI,,Indonesia,,,,-8.4915885,115.045796,https://maps.google.com/?cid=0x0:0xd31e320c9535a0cb,
perumahan,Rumah Berhantu,Karma House,"G25W+P7W, Selemadeg, Kec. Selemadeg, Kabupaten Tabanan, Bali","Kabupaten Tabanan, Bali",BALI,,Indonesia,,,,-8.4906446,115.0456926,https://maps.google.com/?cid=0x0:0xf8a2f0744ee007b9,
perumahan,Perumahan,Rumah dek cendol,"G26W+2CQ Br dinas sukawati, Selemadeg, Kec. Selemadeg, Kabupaten Tabanan, Bali","Kabupaten Tabanan, Bali",BALI,,Indonesia,,,,-8.4899181,115.0461235,https://maps.google.com/?cid=0x0:0x1519dbb438775cc9,
perumahan,Pembangunan Perumahan,PERUM GRAHA PERSADA TABANAN,"Jl. Graha Persada No.9, Denbantas, Kec. Tabanan, Kabupaten Tabanan, Bali 82123","Denbantas, Kec. Tabanan, Kabupaten Tabanan",BALI,82123.0,Indonesia,,,,-8.5191318,115.1381139,https://maps.google.com/?cid=0x0:0xdcbefba769349f92,
perumahan,Komplek perumahan,Perumahan Multi Griya Sandan Sari,"F49Q+GMC, Banjar Anyar, Kec. Kediri, Kabupaten Tabanan, Bali 82121","Banjar Anyar, Kec. Kediri, Kabupaten Tabanan",BALI,82121.0,Indonesia,,,,-8.5311841,115.1391393,https://maps.google.com/?cid=0x0:0xb2069fe765cdafd8,
perumahan,perumahan,Bali 82111,"Dauh Peken, Kec. Tabanan, Kabupaten Tabanan, Bali","Kabupaten Tabanan, Bali",BALI,,Indonesia,,,,-8.5409595,115.1238186,https://maps.google.com/?cid=0x0:0xbf92027fe4bf1db1,
perumahan,Komplek perumahan,Perumahan Permata Kencana,"C3MX+26W, Bongan, Kec. Tabanan, Kabupaten Tabanan, Bali 82115","Bongan, Kec. Tabanan, Kabupaten Tabanan",BALI,82115.0,Indonesia,,,,-8.5673918,115.0980801,https://maps.google.com/?cid=0x0:0xa473511f01ac5cbd,
perumahan,,Perum BCA PESONA Jadi,"Banjar Anyar, Kec. Kediri, Kabupaten Tabanan, Bali 82123","Kec. Kediri, Kabupaten Tabanan",BALI,82123.0,Indonesia, 03619313991,,,-8.5247082,115.1429427,https://maps.google.com/?cid=0x0:0x771bce63dc45332e,
perumahan,Komplek perumahan,Jz14BFH/9CKK,"Wanasari tengah No.40, Dauh Peken, Kec. Tabanan, Kabupaten Tabanan, Bali 82111","Dauh Peken, Kec. Tabanan, Kabupaten Tabanan",BALI,82111.0,Indonesia,,,,-8.5409366,115.1237836,https://maps.google.com/?cid=0x0:0x4150359c79c9a24d,
perumahan,Komplek perumahan,Perum Yeh Dulang,"F4XM+4GQ, Wanasari, Kec. Tabanan, Kabupaten Tabanan, Bali 82181","Wanasari, Kec. Tabanan, Kabupaten Tabanan",BALI,82181.0,Indonesia,,,,-8.5021619,115.1338643,https://maps.google.com/?cid=0x0:0xc9718a0c90af05b8,
perumahan,Kantor Perusahaan,Perumahan subsidi,"F49V+5XP, Banjar Anyar, Kec. Kediri, Kabupaten Tabanan, Bali 82121","Banjar Anyar, Kec. Kediri, Kabupaten Tabanan",BALI,82121.0,Indonesia,,,,-8.5320347,115.1449542,https://maps.google.com/?cid=0x0:0x8cbcb1c00acbd465,
perumahan,Komplek perumahan,Perumahan Taman pesona Residence,"F444+HHM, Jl. Pd. Shanti, Pangkung Karung, Kec. Kerambitan, Kabupaten Tabanan, Bali","Kabupaten Tabanan, Bali",BALI,,Indonesia,,,,-8.5435415,115.1064111,https://maps.google.com/?cid=0x0:0x19f50c7ebc1b4048,
perumahan,Komplek perumahan,Perumahan Taman Indah Lestari,"Jl. Manik Galih, Kukuh, Kec. Kerambitan, Kabupaten Tabanan, Bali 82161","Kukuh, Kec. Kerambitan, Kabupaten Tabanan",BALI,82161.0,Indonesia,,,,-8.5358323,115.0919118,https://maps.google.com/?cid=0x0:0x47f94264ea13e7b5,
perumahan,Pembangunan Perumahan,Citra Kencana Residence,"Jl. Yeh Gangga I No.2, Gubug, Kec. Tabanan, Kabupaten Tabanan, Bali 82115","Gubug, Kec. Tabanan, Kabupaten Tabanan",BALI,82115.0,Indonesia,,,,-8.5574462,115.0978985,https://maps.google.com/?cid=0x0:0x19c1397ba3885912,
perumahan,Komplek perumahan,Perumahan Mandung Asri 2,"Perumahan Mandung Asri, Sembung Gede, Kec. Kerambitan, Kabupaten Tabanan, Bali 82181","Sembung Gede, Kec. Kerambitan, Kabupaten Tabanan",BALI,82181.0,Indonesia,,,,-8.5235781,115.0936564,https://maps.google.com/?cid=0x0:0xf2ae7462216716af,
perumahan,Komplek perumahan,tunggal sari R97,"F45F+8HQ, Gg. IV, Dauh Peken, Kec. Tabanan, Kabupaten Tabanan, Bali 82113","Gg. IV, Dauh Peken, Kec. Tabanan, Kabupaten Tabanan",BALI,82113.0,Indonesia,,,,-8.5415983,115.1240689,https://maps.google.com/?cid=0x0:0x21f7958318153310,
perumahan,Pembangunan Perumahan,Kantor Pemasaran Rumah Subsidi Tabanan,"F42F+C3C, Jl. Pd. Indah, Dauh Peken, Kec. Tabanan, Kabupaten Tabanan, Bali 82121","Jl. Pd. Indah, Dauh Peken, Kec. Tabanan, Kabupaten Tabanan",BALI,82121.0,Indonesia,,,,-8.5489301,115.1226397,https://maps.google.com/?cid=0x0:0x7161f29d25e22e47,
perumahan,Komplek perumahan,MRH,"Jl. Kamboja Gg.IV/A No.08, Dauh Peken, Kec. Tabanan, Kabupaten Tabanan, Bali 82113","Dauh Peken, Kec. Tabanan, Kabupaten Tabanan",BALI,82113.0,Indonesia,,,,-8.5411375,115.1240878,https://maps.google.com/?cid=0x0:0x7a13cb89167359f5,
perumahan,Komplek perumahan,Kediri Boulevard Residence,"C4JH+3RF, Kediri, Kec. Kediri, Kabupaten Tabanan, Bali","Kabupaten Tabanan, Bali",BALI,,Indonesia,,,,-8.5698076,115.1295318,https://maps.google.com/?cid=0x0:0x3540f4e98cc7cc32,
perumahan,Komplek perumahan,Perumahan Sri Harta Utama,"F4MJ+J7J, Denbantas, Kec. Tabanan, Kabupaten Tabanan, Bali","Kabupaten Tabanan, Bali",BALI,,Indonesia,,,,-8.5159067,115.1306313,https://maps.google.com/?cid=0x0:0x8ca2486d381ee6cf,
perumahan,Komplek perumahan,Rumah pak ripin yusup,"Jl. Kamboja No.18, Dauh Peken, Kec. Tabanan, Kabupaten Tabanan, Bali 82113","Dauh Peken, Kec. Tabanan, Kabupaten Tabanan",BALI,82113.0,Indonesia,,,,-8.5412553,115.1242857,https://maps.google.com/?cid=0x0:0x5e602e1224ac0c6a,
perumahan,Komplek perumahan,Perumahan Green Hill Mansion,"F4GW+6HC, Banjar Anyar, Kec. Kediri, Kabupaten Tabanan, Bali 82123","Banjar Anyar, Kec. Kediri, Kabupaten Tabanan",BALI,82123.0,Indonesia,,,,-8.524438,115.1463854,https://maps.google.com/?cid=0x0:0x7d279654b850b42c,
perumahan,Perumahan,BCA Land,"C4Q5+H9J, Unnamed Road, Bongan, Kec. Tabanan, Kabupaten Tabanan, Bali 82112","Unnamed Road, Bongan, Kec. Tabanan, Kabupaten Tabanan",BALI,82112.0,Indonesia,,,,-8.561047,115.1084025,https://maps.google.com/?cid=0x0:0x6414d51d8f874c91,
perumahan,Perhimpunan Pengembang Perumahan,RUMAH SI IMIT,"F45F+CHG, kampung jawa, Kec. Tabanan, Kabupaten Tabanan, Bali","Kabupaten Tabanan, Bali",BALI,,Indonesia,,,,-8.5414299,115.1239518,https://maps.google.com/?cid=0x0:0xc13cd97e58cedcf1,
perumahan,Komplek perumahan,Gerokgak Kencana Residence,"F43G+6QG, Gg. III, Delod Peken, Kec. Tabanan, Kabupaten Tabanan, Bali","Kabupaten Tabanan, Bali",BALI,,Indonesia, 089502855777,,,-8.5469318,115.1269498,https://maps.google.com/?cid=0x0:0xd49c8912d17e44dd,
perumahan,Komplek perumahan,Perumahan Graha Kita II,"F3Q7+WVX, Jl. Banjar Dinas Gelogor, Bantas, Selemadeg Timur, Tabanan Regency, Bali 82162","Jl. Banjar Dinas Gelogor, Bantas, Selemadeg Timur, Tabanan Regency",BALI,82162.0,Indonesia, 082145327149,,,-8.5101331,115.0647415,https://maps.google.com/?cid=0x0:0xcf253de409861fd2,
perumahan,Perumahan,Perumahan Taman Tirta Residence,"C4HF+63F, Jl. Pantai Kedungu, Nyitdah, Kec. Kediri, Kabupaten Tabanan, Bali 82121","Jl. Pantai Kedungu, Nyitdah, Kec. Kediri, Kabupaten Tabanan",BALI,82121.0,Indonesia,,,,-8.5719438,115.1226842,https://maps.google.com/?cid=0x0:0x6149035cbffdb9d,
perumahan,Komplek perumahan,tunggal sari 098,"F45F+PHH, Dauh Peken, Kec. Tabanan, Kabupaten Tabanan, Bali 82113","Dauh Peken, Kec. Tabanan, Kabupaten Tabanan",BALI,82113.0,Indonesia,,,,-8.5407129,115.1239054,https://maps.google.com/?cid=0x0:0x85e7fd3c055482bc,
perumahan,Komplek perumahan,Griya Taman Ayu,"Jln. Griya Taman Ayu, Banjar Anyar, Kec. Kediri, Kabupaten Tabanan, Bali","Kabupaten Tabanan, Bali",BALI,,Indonesia, 085333007997,,,-8.5185284,115.144474,https://maps.google.com/?cid=0x0:0x11e82eb612e8682e,
perumahan,Komplek perumahan,NIRAVADHI RESIDENCE,"Unnamed Road, Batuaji, Kerambitan, Tabanan Regency, Bali 82115","Batuaji, Kerambitan, Tabanan Regency",BALI,82115.0,Indonesia, 081338192358,,,-8.5183174,115.1113672,https://maps.google.com/?cid=0x0:0x64b61170aa42f870,
perumahan,Komplek perumahan,GRIYA TAMAN AYU SELINGSING,"F444+649, Jl. Palma, Pangkung Karung, Kec. Kerambitan, Kabupaten Tabanan, Bali","Kabupaten Tabanan, Bali",BALI,,Indonesia, 085333007997,,,-8.5444677,115.10529,https://maps.google.com/?cid=0x0:0x4fdd75371dfd54d6,
perumahan,perumahan,Bali 82112,"Bongan, Kec. Tabanan, Kabupaten Tabanan, Bali","Kabupaten Tabanan, Bali",BALI,,Indonesia,,,,-8.5588496,115.1088704,https://maps.google.com/?cid=0x0:0xfa710f41553e98e9,
perumahan,Otoritas Perumahan,Perumahan Candra Buana Asri,"C4V8+748, Unnamed Road, Bongan, Kec. Tabanan, Kabupaten Tabanan, Bali 82112","Unnamed Road, Bongan, Kec. Tabanan, Kabupaten Tabanan",BALI,82112.0,Indonesia,,,,-8.5568484,115.1153157,https://maps.google.com/?cid=0x0:0x69b1198514bf1512,
perumahan,Perhimpunan Pengembang Perumahan,Perumahan Bongan Asri,"C4W7+3F4, Munduk, Bongan, Kec. Tabanan, Kabupaten Tabanan, Bali 82112","Munduk, Bongan, Kec. Tabanan, Kabupaten Tabanan",BALI,82112.0,Indonesia,,,,-8.5548707,115.1136935,https://maps.google.com/?cid=0x0:0xe74360a6a10dd3e,
perumahan,Pembangunan Perumahan,STANA RESIDENCE,"C4R5+JH7, Jl. Kebo Iwa Bongan, Bongan, Kec. Tabanan, Kabupaten Tabanan, Bali 82112","Jl. Kebo Iwa Bongan, Bongan, Kec. Tabanan, Kabupaten Tabanan",BALI,82112.0,Indonesia, 087878888357,,,-8.5584532,115.1089366,https://maps.google.com/?cid=0x0:0x5fad03d23908bf52,
perumahan,Komplek perumahan,villAira,"C4W5+Q4R, Bongan, Kec. Tabanan, Kabupaten Tabanan, Bali 82112","Bongan, Kec. Tabanan, Kabupaten Tabanan",BALI,82112.0,Indonesia,,,,-8.5530221,115.1077646,https://maps.google.com/?cid=0x0:0x5021b146dfc7a888,
perumahan,Komplek perumahan,Perumahan Taman Sri Devi 2,"C4Q5+83X, Bongan, Kec. Tabanan, Kabupaten Tabanan, Bali 82112","Bongan, Kec. Tabanan, Kabupaten Tabanan",BALI,82112.0,Indonesia,,,,-8.5616364,115.1077316,https://maps.google.com/?cid=0x0:0x81d8d2511e8b6ba8,
perumahan,Perumahan,BCA Land,"C4Q5+H9J, Unnamed Road, Bongan, Kec. Tabanan, Kabupaten Tabanan, Bali 82112","Unnamed Road, Bongan, Kec. Tabanan, Kabupaten Tabanan",BALI,82112.0,Indonesia,,,,-8.561047,115.1084025,https://maps.google.com/?cid=0x0:0x6414d51d8f874c91,
perumahan,Otoritas Perumahan,Perum. Vilas Residance,"C4V8+25P, Jl. Kebo Iwa, Bongan, Kec. Tabanan, Kabupaten Tabanan, Bali 82112","Jl. Kebo Iwa, Bongan, Kec. Tabanan, Kabupaten Tabanan",BALI,82112.0,Indonesia,,,,-8.5574022,115.1154536,https://maps.google.com/?cid=0x0:0x90cf34d4598dab09,
perumahan,perumahan,Tarra House,"C4Q6+GPP, Bongan, Kec. Tabanan, Kabupaten Tabanan, Bali","Kabupaten Tabanan, Bali",BALI,,Indonesia,,,,-8.5611722,115.1118354,https://maps.google.com/?cid=0x0:0x1e086b86ea576715,
perumahan,Pembangunan Perumahan,Balivie Jewellry,"Straits, Perumahan Blok D/7, Bongan, Kec. Tabanan, Kabupaten Tabanan, Bali 82112","Perumahan Blok D/7, Bongan, Kec. Tabanan, Kabupaten Tabanan",BALI,82112.0,Indonesia,,,,-8.5564387,115.1173716,https://maps.google.com/?cid=0x0:0xbd1836ad1390b729,
perumahan,Otoritas Perumahan,PERUMAHAN CEMARA ASRI,"C4W4+3F8, Gubug, Kec. Tabanan, Kabupaten Tabanan, Bali 82112","Gubug, Kec. Tabanan, Kabupaten Tabanan",BALI,82112.0,Indonesia,,,,-8.5548486,115.1061992,https://maps.google.com/?cid=0x0:0x9cab8923de8ca6c0,
perumahan,Komplek perumahan,Rumah RASA,"Straits Residence, Bongan, Blk. E No.8, Bongan, Kabupaten Tabanan, Bali 82112","Bongan, Blk. E No.8, Bongan, Kabupaten Tabanan",BALI,82112.0,Indonesia,,,,-8.555829,115.1176423,https://maps.google.com/?cid=0x0:0x99d519a04b7edd72,
perumahan,Komplek perumahan,Purimas Bedha Residence,"perum purimas bedha, banjar bedha, Bongan, Kec. Tabanan, Kabupaten Tabanan, Bali 82112","banjar bedha, Bongan, Kec. Tabanan, Kabupaten Tabanan",BALI,82112.0,Indonesia,,,,-8.5750617,115.0976182,https://maps.google.com/?cid=0x0:0x70600b3f58226fe5,
perumahan,Perumahan,Istana Residence tabanan bali,"C4R5+JHX, Jl. Kebo Iwa, Bongan, Kec. Tabanan, Kabupaten Tabanan, Bali 82112","Jl. Kebo Iwa, Bongan, Kec. Tabanan, Kabupaten Tabanan",BALI,82112.0,Indonesia, 081290015557,,,-8.5583918,115.1089974,https://maps.google.com/?cid=0x0:0x4e1aa94a7fe53bd0,
perumahan,Komplek perumahan,Anyelir Residence,"C4X6+HQG, Jl. Anyelir, Bongan, Kec. Tabanan, Kabupaten Tabanan, Bali 82112","Jl. Anyelir, Bongan, Kec. Tabanan, Kabupaten Tabanan",BALI,82112.0,Indonesia,,,,-8.551063,115.1119602,https://maps.google.com/?cid=0x0:0x377835a2e967649b,
perumahan,Komplek perumahan,Kliniktech,"perum bongan asri 1X, Bongan, Tabanan, Tabanan Regency, Bali 82112","Bongan, Tabanan, Tabanan Regency",BALI,82112.0,Indonesia,,,,-8.5556386,115.1134923,https://maps.google.com/?cid=0x0:0x34169a4fd2fb3e21,
perumahan,,Perumahan nuansa asri pesona,"C4W5+M7W, Bongan, Kec. Tabanan, Kabupaten Tabanan, Bali 82112","Bongan, Kec. Tabanan, Kabupaten Tabanan",BALI,82112.0,Indonesia,,,,-8.5532575,115.1082169,https://maps.google.com/?cid=0x0:0x2c417aa67e4642f2,
perumahan,Otoritas Perumahan,Perumahan Pondok Lestari - Tanah Pegat,"C4W3+3QF, Unnamed Road, Gubug, Kec. Tabanan, Kabupaten Tabanan, Bali 82112","Unnamed Road, Gubug, Kec. Tabanan, Kabupaten Tabanan",BALI,82112.0,Indonesia,,,,-8.5548008,115.1044217,https://maps.google.com/?cid=0x0:0x48cbaeb06ef4611,
perumahan,Komplek perumahan,"Graha Citra Lestari, Bongan","Graha Citra Lestari Blok C No.4, Kabupaten Tabanan, Bali 82112",Kabupaten Tabanan,BALI,82112.0,Indonesia,,,,-8.5637451,115.107485,https://maps.google.com/?cid=0x0:0x65e7e2856b5419f7,
perumahan,Komplek perumahan,"Perumahan Tanjung Asri, Kediri, Tabanan","C4MR+2H7, Jl. Trisula, Kediri, Kec. Kediri, Kabupaten Tabanan, Bali 82121","Jl. Trisula, Kediri, Kec. Kediri, Kabupaten Tabanan",BALI,82121.0,Indonesia,,,,-8.5674604,115.1414159,https://maps.google.com/?cid=0x0:0xcf1bde602003ea17,
perumahan,Komplek perumahan,Perumahan Mandung Asri 2,"Perumahan Mandung Asri, Sembung Gede, Kec. Kerambitan, Kabupaten Tabanan, Bali 82181","Sembung Gede, Kec. Kerambitan, Kabupaten Tabanan",BALI,82181.0,Indonesia,,,,-8.5235781,115.0936564,https://maps.google.com/?cid=0x0:0xf2ae7462216716af,
perumahan,Komplek perumahan,InBhram,"C4Q5+QRR, Jl. Kebo Iwa Bongan, Bongan, Kec. Tabanan, Kabupaten Tabanan, Bali 82112","Jl. Kebo Iwa Bongan, Bongan, Kec. Tabanan, Kabupaten Tabanan",BALI,82112.0,Indonesia,,,,-8.5595154,115.1097461,https://maps.google.com/?cid=0x0:0xb820b5924657bdc4,
perumahan,Komplek perumahan,ANYELIR MANSION TABANAN,"C4R4+82, Bongan, Kec. Tabanan, Kabupaten Tabanan, Bali 82112","Bongan, Kec. Tabanan, Kabupaten Tabanan",BALI,82112.0,Indonesia, 085851266330,,,-8.5591438,115.1050791,https://maps.google.com/?cid=0x0:0x4169b75fef0f2454,
perumahan,Komplek perumahan,Rumah Pak Marcel,"C4R3+C82, Bongan, Kec. Tabanan, Kabupaten Tabanan, Bali 82112","Bongan, Kec. Tabanan, Kabupaten Tabanan",BALI,82112.0,Indonesia,,,,-8.5589667,115.1032578,https://maps.google.com/?cid=0x0:0xf16af3c88a12b2be,
perumahan,Komplek perumahan,Rumah YY,"C4W7+85V, Bongan, Kec. Tabanan, Kabupaten Tabanan, Bali 82112","Bongan, Kec. Tabanan, Kabupaten Tabanan",BALI,82112.0,Indonesia,,,,-8.5541434,115.1129168,https://maps.google.com/?cid=0x0:0xb8a11991e33effb4,
perumahan,Komplek perumahan,The Royal Griya Loka,"Jl. Raya Denpasar - Gilimanuk No.45, Samsam, Kec. Tabanan, Kabupaten Tabanan, Bali 82114","Samsam, Kec. Tabanan, Kabupaten Tabanan",BALI,82114.0,Indonesia,,,,-8.5302289,115.1146666,https://maps.google.com/?cid=0x0:0x3858e4b883708df6,
perumahan,perumahan,Bali 82113,"Dauh Peken, Kec. Tabanan, Kabupaten Tabanan, Bali","Kabupaten Tabanan, Bali",BALI,,Indonesia,,,,-8.5442373,115.1192478,https://maps.google.com/?cid=0x0:0x55f8251245920e90,
perumahan,Kantor Perusahaan,Perumahan Artha Puri Pesiapan,"F466+96Q, Jl. Dr. Ir Soekarno I Pesiapan Tabanan, Dauh Peken, Kec. Tabanan, Kabupaten Tabanan, Bali 82113","Jl. Dr. Ir Soekarno I Pesiapan Tabanan, Dauh Peken, Kec. Tabanan, Kabupaten Tabanan",BALI,82113.0,Indonesia,,,,-8.5390303,115.1105966,https://maps.google.com/?cid=0x0:0xe8ff2361d34c2a5c,
perumahan,Komplek perumahan,"Perumahan Artha puri Dukuh, anyelir 12,tabanan","F426+5GR, Jl. Anyelir 12, Dauh Peken, Kec. Tabanan, Kabupaten Tabanan, Bali 82113","Jl. Anyelir 12, Dauh Peken, Kec. Tabanan, Kabupaten Tabanan",BALI,82113.0,Indonesia, 087758484448,,,-8.5495211,115.1112812,https://maps.google.com/?cid=0x0:0xcb05669fee02dfe1,
perumahan,Pembangunan Perumahan,PERUM GRAHA PERSADA TABANAN,"Jl. Graha Persada No.9, Denbantas, Kec. Tabanan, Kabupaten Tabanan, Bali 82123","Denbantas, Kec. Tabanan, Kabupaten Tabanan",BALI,82123.0,Indonesia,,,,-8.5191318,115.1381139,https://maps.google.com/?cid=0x0:0xdcbefba769349f92,
perumahan,Komplek perumahan,Perumahan Beji pancoran Keller,"Perumahan pancoran keler, Anyelir VII, Dauh Peken, Kec. Tabanan, Kabupaten Tabanan, Bali 82113","Anyelir VII, Dauh Peken, Kec. Tabanan, Kabupaten Tabanan",BALI,82113.0,Indonesia, 082144739491,,,-8.5511576,115.114425,https://maps.google.com/?cid=0x0:0xb80edbfc4509d350,
perumahan,Perhimpunan Pengembang Perumahan,Perumahan Bongan Asri,"C4W7+3F4, Munduk, Bongan, Kec. Tabanan, Kabupaten Tabanan, Bali 82112","Munduk, Bongan, Kec. Tabanan, Kabupaten Tabanan",BALI,82112.0,Indonesia,,,,-8.5548707,115.1136935,https://maps.google.com/?cid=0x0:0xe74360a6a10dd3e,
perumahan,Perumahan,Perumahan Golden Land,"Jl. Garuda No.4, Samsam, Kec. Kerambitan, Kabupaten Tabanan, Bali 82111","Samsam, Kec. Kerambitan, Kabupaten Tabanan",BALI,82111.0,Indonesia,,,,-8.5366834,115.107247,https://maps.google.com/?cid=0x0:0x6567e0bb692b84ba,
perumahan,Perumahan,dupasukla.bali (Merta Pudak Wangi),"Perum Surya Graha lestari, Blk. J No.3, Jambe, Kec. Tabanan, Kabupaten Tabanan, Bali 82113","Blk. J No.3, Jambe, Kec. Tabanan, Kabupaten Tabanan",BALI,82113.0,Indonesia, 085738128444,,,-8.5337558,115.1198549,https://maps.google.com/?cid=0x0:0xf80e885026003a29,
perumahan,Kompleks Apartemen,Alit House Tabanan Bali,"Jl. Anyelir No.10, Dauh Peken, Kec. Tabanan, Kabupaten Tabanan, Bali 82113","Dauh Peken, Kec. Tabanan, Kabupaten Tabanan",BALI,82113.0,Indonesia,,,,-8.5461536,115.1145975,https://maps.google.com/?cid=0x0:0x69c35b59d8635f8e,
perumahan,Komplek perumahan,Perumahan Kota Tabanan,"Delod Peken, Kec. Tabanan, Kabupaten Tabanan, Bali 82121","Kec. Tabanan, Kabupaten Tabanan",BALI,82121.0,Indonesia,,,,-8.5469243,115.1273324,https://maps.google.com/?cid=0x0:0xdf45c846908ec1aa,
perumahan,Perumahan,Sarang Kupu-Kupu,"Jl. Cemp. Putih No.52, Tegal Belodan, Dauh Peken, Kec. Tabanan, Kabupaten Tabanan, Bali 82113","Tegal Belodan, Dauh Peken, Kec. Tabanan, Kabupaten Tabanan",BALI,82113.0,Indonesia,,,,-8.5511843,115.1170857,https://maps.google.com/?cid=0x0:0xba237206aa89e66,
perumahan,Komplek perumahan,Perumahan Pondok Shanti,"F444+JQF Perum Pondok Shanti, Pangkung Karung, Kec. Kerambitan, Kabupaten Tabanan, Bali","Kabupaten Tabanan, Bali",BALI,,Indonesia,,,,-8.5434369,115.106937,https://maps.google.com/?cid=0x0:0x12f636810cb3f74c,
perumahan,Komplek perumahan,Pusat Jro Djambe Agung Tabanan,"Jl. Kaswari No.10, Dauh Peken, Kec. Tabanan, Kabupaten Tabanan, Bali 82113","Dauh Peken, Kec. Tabanan, Kabupaten Tabanan",BALI,82113.0,Indonesia,,,,-8.5378485,115.1240252,https://maps.google.com/?cid=0x0:0x90812786b2a2007,
perumahan,Komplek perumahan,Rumah Heru Karsono,"Jl. Anyelir I Perumahan Anyelir No.8, Dukuh, Dauh Peken, Kec. Tabanan, Kabupaten Tabanan, Bali 82113","Dukuh, Dauh Peken, Kec. Tabanan, Kabupaten Tabanan",BALI,82113.0,Indonesia, 081558882868,,,-8.5471427,115.115246,https://maps.google.com/?cid=0x0:0x54b5496f2a7a390e,
perumahan,Perhimpunan Pengembang Perumahan,Perum Cendana Asri,"F45C+3C7, Dauh Peken, Kec. Tabanan, Kabupaten Tabanan, Bali 82113","Dauh Peken, Kec. Tabanan, Kabupaten Tabanan",BALI,82113.0,Indonesia,,,,-8.5423452,115.1210599,https://maps.google.com/?cid=0x0:0x65d0cfc1a482e41c,
perumahan,Komplek perumahan,KECOT HOME,"Gg. XI No.9a, Dauh Peken, Kec. Tabanan, Kabupaten Tabanan, Bali 82113","Dauh Peken, Kec. Tabanan, Kabupaten Tabanan",BALI,82113.0,Indonesia,,,,-8.541502,115.1139817,https://maps.google.com/?cid=0x0:0xa86c781f86a49ec6,
perumahan,Komplek perumahan,Rumah Telur Bulan,"Gg. III No.7, Delod Peken, Kec. Tabanan, Kabupaten Tabanan, Bali 82121","Delod Peken, Kec. Tabanan, Kabupaten Tabanan",BALI,82121.0,Indonesia,,,,-8.545876,115.1252804,https://maps.google.com/?cid=0x0:0xedc79feaac101294,
perumahan,Komplek perumahan,Rumah mangayu,"Jl. Anyelir No.1 no.7, Banjar Dukuh, Dauh Peken, Kec. Tabanan, Kabupaten Tabanan, Bali 82113","Banjar Dukuh, Dauh Peken, Kec. Tabanan, Kabupaten Tabanan",BALI,82113.0,Indonesia,,,,-8.5413589,115.1178827,https://maps.google.com/?cid=0x0:0xfc7427408e445a8,
perumahan,Komplek perumahan,Rumah Jasika,"Jl. Bedugul Sel. Asri Jl. Cemp. Putih No.11, Dauh Peken, Kec. Tabanan, Kabupaten Tabanan, Bali 82113","Dauh Peken, Kec. Tabanan, Kabupaten Tabanan",BALI,82113.0,Indonesia, +61422908383,,,-8.5502301,115.1156433,https://maps.google.com/?cid=0x0:0xc2c1d2ebb2a39cb8,
perumahan,Vila,Beji Villa Tabanan,"F466+H7F, Jl. Dr. Ir. Soekarno No.I, Dauh Peken, Kec. Tabanan, Kabupaten Tabanan, Bali 82111","Jl. Dr. Ir. Soekarno No.I, Dauh Peken, Kec. Tabanan, Kabupaten Tabanan",BALI,82111.0,Indonesia, 082359396556,,,-8.538784,115.1100202,https://maps.google.com/?cid=0x0:0x90ff5ee8584413ae,
perumahan,Komplek perumahan,Tanah Ridhoi,"F428+3GX, Dauh Peken, Kec. Tabanan, Kabupaten Tabanan, Bali 82113","Dauh Peken, Kec. Tabanan, Kabupaten Tabanan",BALI,82113.0,Indonesia, 081936157570,,,-8.5493812,115.1167258,https://maps.google.com/?cid=0x0:0xeee95bb8d0d08731,
perumahan,Komplek perumahan,Aditya Sentana Residence,"Jl. Cemp. Kuning, Batuaji, Kec. Kerambitan, Kabupaten Tabanan, Bali","Kabupaten Tabanan, Bali",BALI,,Indonesia, 081916644469,,,-8.5251254,115.1050466,https://maps.google.com/?cid=0x0:0x4bdbb587897ab350,
perumahan,Komplek perumahan,Prikitiw,"F458+8QP, Dauh Peken, Kec. Tabanan, Kabupaten Tabanan, Bali 82113","Dauh Peken, Kec. Tabanan, Kabupaten Tabanan",BALI,82113.0,Indonesia,,,,-8.5416634,115.1169556,https://maps.google.com/?cid=0x0:0xd1cee6432b3a9335,
perumahan,Komplek perumahan,Rumah Tua Ibu Melati,"F469+Q4H, Jl. Bikes Only, Dauh Peken, Kec. Tabanan, Kabupaten Tabanan, Bali 82113","Jl. Bikes Only, Dauh Peken, Kec. Tabanan, Kabupaten Tabanan",BALI,82113.0,Indonesia,,,,-8.53806,115.1178601,https://maps.google.com/?cid=0x0:0xbddea1885e8bb90b,
perumahan,Pembangunan Perumahan,Rumah kakyang ita,"Jl. Pulau We No.16.B, Gubug, Kec. Tabanan, Kabupaten Tabanan, Bali 82113","Gubug, Kec. Tabanan, Kabupaten Tabanan",BALI,82113.0,Indonesia,,,,-8.5398798,115.1113958,https://maps.google.com/?cid=0x0:0x2f4c5fd29022effd,
perumahan,Komplek perumahan,Perumahan Graha Asri Persada II,"Jl. Merdeka, Pangkung Karung, Kec. Kerambitan, Kabupaten Tabanan, Bali 82161","Pangkung Karung, Kec. Kerambitan, Kabupaten Tabanan",BALI,82161.0,Indonesia,,,,-8.5405676,115.1081128,https://maps.google.com/?cid=0x0:0xdb0aa57df0eac6c1,
perumahan,Tempat Religius,pemondokan griya peningal,"Jl. Bedugul Sel. Asri, Dauh Peken, Kec. Tabanan, Kabupaten Tabanan, Bali 82113","Dauh Peken, Kec. Tabanan, Kabupaten Tabanan",BALI,82113.0,Indonesia,,,,-8.5498492,115.1174897,https://maps.google.com/?cid=0x0:0xd6e709d6b37137e5,
perumahan,Komplek perumahan,Zufraidy Family,"C4X8+WV9, Dauh Peken, Kec. Tabanan, Kabupaten Tabanan, Bali 82113","Dauh Peken, Kec. Tabanan, Kabupaten Tabanan",BALI,82113.0,Indonesia,,,,-8.5502238,115.1172322,https://maps.google.com/?cid=0x0:0x86ad399c1799dc49,
perumahan,perumahan,Bali 82114,"Kec. Tabanan, Kabupaten Tabanan, Bali","Kabupaten Tabanan, Bali",BALI,,Indonesia,,,,-8.5327676,115.1207303,https://maps.google.com/?cid=0x0:0x8fec3962d30a3ca9,
perumahan,Komplek perumahan,The Royal Griya Loka,"Jl. Raya Denpasar - Gilimanuk No.45, Samsam, Kec. Tabanan, Kabupaten Tabanan, Bali 82114","Samsam, Kec. Tabanan, Kabupaten Tabanan",BALI,82114.0,Indonesia,,,,-8.5302289,115.1146666,https://maps.google.com/?cid=0x0:0x3858e4b883708df6,
perumahan,Perumahan,perumahan graha pertiwi,"F499+GJX, Unnamed Road, Dauh Peken, Kec. Tabanan, Kabupaten Tabanan, Bali 82114","Unnamed Road, Dauh Peken, Kec. Tabanan, Kabupaten Tabanan",BALI,82114.0,Indonesia,,,,-8.5311395,115.1191225,https://maps.google.com/?cid=0x0:0x361ce2b94be2a4b4,
perumahan,Perumahan,Perumahan Griya Asri Utama Lestari (GAUL),"F4C4+6X3, Jl. Raya Samsam, Samsam, Kec. Kerambitan, Kabupaten Tabanan, Bali 82161","Jl. Raya Samsam, Samsam, Kec. Kerambitan, Kabupaten Tabanan",BALI,82161.0,Indonesia, 081293939958,,,-8.5294752,115.1074227,https://maps.google.com/?cid=0x0:0xe3c7f34b4f73b06b,
perumahan,Pembangunan Perumahan,Perumahan Puri Bukit Kelong Residence - Tabanan,"F4CF+JXW, Jl. Gelatik Dajan Peken, Dajan Peken, Kec. Tabanan, Kabupaten Tabanan, Bali 82114","Jl. Gelatik Dajan Peken, Dajan Peken, Kec. Tabanan, Kabupaten Tabanan",BALI,82114.0,Indonesia,,,,-8.5283997,115.1249618,https://maps.google.com/?cid=0x0:0x588a9d7706f94f1,
perumahan,Komplek perumahan,Perumahan Puri Bukit Gelis Residence,"F4CF+9WM, Perumahan Puri Bukit Gelis, Jl. Gelatik, Br. Pasekan Baleran, Dajan Peken, Kec. Tabanan, Kabupaten Tabanan, Bali 82114","Perumahan Puri Bukit Gelis, Jl. Gelatik, Br. Pasekan Baleran, Dajan Peken, Kec. Tabanan, Kabupaten Tabanan",BALI,82114.0,Indonesia,,,,-8.5290265,115.1248073,https://maps.google.com/?cid=0x0:0x17a13722571f2649,
perumahan,Komplek perumahan,Perum Surya Graha Lestari (Jambe belodan),"Blk. B No.15, Dauh Peken, Kec. Tabanan, Kabupaten Tabanan, Bali 82114","Dauh Peken, Kec. Tabanan, Kabupaten Tabanan",BALI,82114.0,Indonesia,,,,-8.53421,115.1204957,https://maps.google.com/?cid=0x0:0x688cfde4c2ce363a,
perumahan,Agen Properti Komersial,Perum Graha Arta Permai,"Jl. Rajawali No.29, Subamia, Kec. Tabanan, Kabupaten Tabanan, Bali 82114","Subamia, Kec. Tabanan, Kabupaten Tabanan",BALI,82114.0,Indonesia,,,,-8.529103,115.1197432,https://maps.google.com/?cid=0x0:0x564aa557541cbaa5,
perumahan,Pembangunan Perumahan,Kutuh Residence,"F4F7+3F5, Unnamed Road, Samsam, Kerambitan, Tabanan Regency, Bali 82115","Unnamed Road, Samsam, Kerambitan, Tabanan Regency",BALI,82115.0,Indonesia, 085739632026,,,-8.527369,115.1137424,https://maps.google.com/?cid=0x0:0x3feeda1af6d5b81d,
perumahan,Komplek perumahan,Perumahan Graha Asri Persada II,"Jl. Merdeka, Pangkung Karung, Kec. Kerambitan, Kabupaten Tabanan, Bali 82161","Pangkung Karung, Kec. Kerambitan, Kabupaten Tabanan",BALI,82161.0,Indonesia,,,,-8.5405676,115.1081128,https://maps.google.com/?cid=0x0:0xdb0aa57df0eac6c1,
perumahan,Komplek perumahan,Perum Graha Pertiwi E 58,"Perum Graha Pertiwi, Jl. Rajawali, Dauh Peken, Tabanan, Tabanan Regency, Bali 82114","Jl. Rajawali, Dauh Peken, Tabanan, Tabanan Regency",BALI,82114.0,Indonesia,,,,-8.5311911,115.1194576,https://maps.google.com/?cid=0x0:0xd4b668fd745c388b,
perumahan,Tempat Ibadah,Perum Graha Pasekan,"F4CH+H8F, Jl. Kakatua, Dajan Peken, Kec. Tabanan, Kabupaten Tabanan, Bali 82114","Jl. Kakatua, Dajan Peken, Kec. Tabanan, Kabupaten Tabanan",BALI,82114.0,Indonesia,,,,-8.5285692,115.1282935,https://maps.google.com/?cid=0x0:0x2cda7a3641ba273b,
perumahan,Komplek perumahan,YO FAMILYS,"perumahan PESONA VILLAGE, Jl. Rajawali blok F13, Dauh Peken, Kec. Tabanan, Kabupaten Tabanan, Bali 82114","Jl. Rajawali blok F13, Dauh Peken, Kec. Tabanan, Kabupaten Tabanan",BALI,82114.0,Indonesia, 085792928724,,,-8.5299664,115.117751,https://maps.google.com/?cid=0x0:0x390c413999786705,
perumahan,Komplek perumahan,R60,"F47C+R5M, Dauh Peken, Kec. Tabanan, Kabupaten Tabanan, Bali 82114","Dauh Peken, Kec. Tabanan, Kabupaten Tabanan",BALI,82114.0,Indonesia,,,,-8.5354149,115.1204312,https://maps.google.com/?cid=0x0:0x689c16903a7359d2,
perumahan,Kantor Perusahaan,Perumahan Artha Puri Pesiapan,"F466+96Q, Jl. Dr. Ir Soekarno I Pesiapan Tabanan, Dauh Peken, Kec. Tabanan, Kabupaten Tabanan, Bali 82113","Jl. Dr. Ir Soekarno I Pesiapan Tabanan, Dauh Peken, Kec. Tabanan, Kabupaten Tabanan",BALI,82113.0,Indonesia,,,,-8.5390303,115.1105966,https://maps.google.com/?cid=0x0:0xe8ff2361d34c2a5c,
perumahan,Perumahan,dupasukla.bali (Merta Pudak Wangi),"Perum Surya Graha lestari, Blk. J No.3, Jambe, Kec. Tabanan, Kabupaten Tabanan, Bali 82113","Blk. J No.3, Jambe, Kec. Tabanan, Kabupaten Tabanan",BALI,82113.0,Indonesia, 085738128444,,,-8.5337558,115.1198549,https://maps.google.com/?cid=0x0:0xf80e885026003a29,
perumahan,Perumahan,BTN Graha Pertiwi Kutuh Kelod,"Jl. Raya Kutuh, Samsam, Kec. Kerambitan, Kabupaten Tabanan, Bali 82114","Samsam, Kec. Kerambitan, Kabupaten Tabanan",BALI,82114.0,Indonesia,,,,-8.5297487,115.110765,https://maps.google.com/?cid=0x0:0xd7acfa24e7bdb2b5,
perumahan,Penginapan,Rumah burcil,"Perum graha pertiwi Jl. Rajawali No.50, Dauh Peken, Kec. Tabanan, Kabupaten Tabanan, Bali 82114","Dauh Peken, Kec. Tabanan, Kabupaten Tabanan",BALI,82114.0,Indonesia, 085707564298,,,-8.5311867,115.119336,https://maps.google.com/?cid=0x0:0x6366b0b386e677bd,
perumahan,Komplek perumahan,Perumahan Vista Rahayu,"Jl. Merdeka No.c-17, Samsam, Kec. Kerambitan, Kabupaten Tabanan, Bali 82111","Samsam, Kec. Kerambitan, Kabupaten Tabanan",BALI,82111.0,Indonesia, 082144417208,,,-8.5403387,115.1082453,https://maps.google.com/?cid=0x0:0xef7c4396dd24b3ef,
perumahan,Komplek perumahan,LUFITA HOME,"F487+7PJ, Dauh Peken, Kec. Tabanan, Kabupaten Tabanan, Bali 82114","Dauh Peken, Kec. Tabanan, Kabupaten Tabanan",BALI,82114.0,Indonesia,,,,-8.5341043,115.1141365,https://maps.google.com/?cid=0x0:0x938d75771933c32,
perumahan,Kantor Perusahaan,Perum Puri Ganesa Tabanan,"Jl. Gunung Agung No.130, Dajan Peken, Kec. Tabanan, Kabupaten Tabanan, Bali 82121","Dajan Peken, Kec. Tabanan, Kabupaten Tabanan",BALI,82121.0,Indonesia,,,,-8.5254471,115.1316928,https://maps.google.com/?cid=0x0:0x5901bb44086ffe15,
perumahan,Komplek perumahan,Gang IX,"F49F+GH9, Jl. Gelatik Dajan Peken Gg. 9, Dajan Peken, Kec. Tabanan, Kabupaten Tabanan, Bali 82114","Jl. Gelatik Dajan Peken Gg. 9, Dajan Peken, Kec. Tabanan, Kabupaten Tabanan",BALI,82114.0,Indonesia,,,,-8.531201,115.123997,https://maps.google.com/?cid=0x0:0x42f01fde0a912833,
perumahan,perumahan,H. Suwanto Home,"Jl. Pesona Rajawali Blk. M No.14, Dauh Peken, Kec. Tabanan, Kabupaten Tabanan, Bali 82114","Dauh Peken, Kec. Tabanan, Kabupaten Tabanan",BALI,82114.0,Indonesia,,,,-8.5330561,115.1181113,https://maps.google.com/?cid=0x0:0xa5a0eaa110c4620b,
perumahan,Pembangunan Perumahan,PERUM GRAHA PERSADA TABANAN,"Jl. Graha Persada No.9, Denbantas, Kec. Tabanan, Kabupaten Tabanan, Bali 82123","Denbantas, Kec. Tabanan, Kabupaten Tabanan",BALI,82123.0,Indonesia,,,,-8.5191318,115.1381139,https://maps.google.com/?cid=0x0:0xdcbefba769349f92,
perumahan,Pembangunan Perumahan,Suardana,"Jl. Walet No.2, Dajan Peken, Kec. Tabanan, Kabupaten Tabanan, Bali 82114","Dajan Peken, Kec. Tabanan, Kabupaten Tabanan",BALI,82114.0,Indonesia,,,,-8.5314052,115.1259001,https://maps.google.com/?cid=0x0:0x8f682c3f191619e8,
perumahan,Perumahan,Rumah Pak Gunawan,"F489+XG8, Jl. Rajawali Marthapuri Asri, Dauh Peken, Kec. Tabanan, Kabupaten Tabanan, Bali 82114","Jl. Rajawali Marthapuri Asri, Dauh Peken, Kec. Tabanan, Kabupaten Tabanan",BALI,82114.0,Indonesia,,,,-8.532581,115.1188338,https://maps.google.com/?cid=0x0:0x6ea3787fe2da076a,
perumahan,perumahan,Bali 82115,"Kec. Tabanan, Kabupaten Tabanan, Bali","Kabupaten Tabanan, Bali",BALI,,Indonesia,,,,-8.5729191,115.0881146,https://maps.google.com/?cid=0x0:0xb93a88842abea4b2,
perumahan,Komplek perumahan,Perumahan Mandung Asri 2,"Perumahan Mandung Asri, Sembung Gede, Kec. Kerambitan, Kabupaten Tabanan, Bali 82181","Sembung Gede, Kec. Kerambitan, Kabupaten Tabanan",BALI,82181.0,Indonesia,,,,-8.5235781,115.0936564,https://maps.google.com/?cid=0x0:0xf2ae7462216716af,
perumahan,Komplek perumahan,Perumahan Permata Kencana,"C3MX+26W, Bongan, Kec. Tabanan, Kabupaten Tabanan, Bali 82115","Bongan, Kec. Tabanan, Kabupaten Tabanan",BALI,82115.0,Indonesia,,,,-8.5673918,115.0980801,https://maps.google.com/?cid=0x0:0xa473511f01ac5cbd,
perumahan,Perumahan,Perumahan Puri Indah Tabanan,"Jl. Yeh Gangga I Blok B No.26, Br. Gubug Belodan, Kec. Tabanan, Kabupaten Tabanan, Bali 82115","Br. Gubug Belodan, Kec. Tabanan, Kabupaten Tabanan",BALI,82115.0,Indonesia,,,,-8.5644557,115.0934716,https://maps.google.com/?cid=0x0:0x3bb1dfcdf00b7bb9,
perumahan,Pembangunan Perumahan,Perumahan Griya Wanasara Asri Permai,"C3JV+JWM, Gg. Cemp., Bongan, Kec. Tabanan, Kabupaten Tabanan, Bali 82115","Gg. Cemp., Bongan, Kec. Tabanan, Kabupaten Tabanan",BALI,82115.0,Indonesia,,,,-8.5684158,115.0948069,https://maps.google.com/?cid=0x0:0xc582a6c8bbbb2928,
perumahan,Otoritas Perumahan,Perumahan Jati Residence 2,"Br. Bedha, Bongan, Kec. Tabanan, Kabupaten Tabanan, Bali 82115","Bongan, Kec. Tabanan, Kabupaten Tabanan",BALI,82115.0,Indonesia, 087761873977,,,-8.5758726,115.0973312,https://maps.google.com/?cid=0x0:0xa0fac0829a493593,
perumahan,Komplek perumahan,Griya Anyar Residence,"Bongan, Kec. Tabanan, Kabupaten Tabanan, Bali 82115","Kec. Tabanan, Kabupaten Tabanan",BALI,82115.0,Indonesia,,,,-8.5723684,115.0958131,https://maps.google.com/?cid=0x0:0x27fcc2affacd64bb,
perumahan,Pembangunan Perumahan,Taman Beji Regency,"C3FW+R8H, Bongan, Kec. Tabanan, Kabupaten Tabanan, Bali 82115","Bongan, Kec. Tabanan, Kabupaten Tabanan",BALI,82115.0,Indonesia,,,,-8.5754413,115.0958523,https://maps.google.com/?cid=0x0:0xa3f732c272780e96,
perumahan,Komplek perumahan,Perumahan Puri Agung,"Jl. Yeh Gangga I No.11, Gubug, Kec. Tabanan, Kabupaten Tabanan, Bali 82115","Gubug, Kec. Tabanan, Kabupaten Tabanan",BALI,82115.0,Indonesia,,,,-8.5672256,115.0900051,https://maps.google.com/?cid=0x0:0x41a2fefb5792c4b2,
perumahan,Komplek perumahan,Perumahan Puri Mansion Residence,"Bongan, Kec. Tabanan, Kabupaten Tabanan, Bali 82115","Kec. Tabanan, Kabupaten Tabanan",BALI,82115.0,Indonesia, 082144417208,,,-8.5755615,115.0971563,https://maps.google.com/?cid=0x0:0xa117a64391d9037c,
perumahan,Komplek perumahan,Rumah Kampung drg. Windha,"C3PM+WXF, JL Cengolo, Sudimara, Kec. Tabanan, Kabupaten Tabanan, Bali 82115","JL Cengolo, Sudimara, Kec. Tabanan, Kabupaten Tabanan",BALI,82115.0,Indonesia,,,,-8.561316,115.0850369,https://maps.google.com/?cid=0x0:0x25341fa469b688a5,
perumahan,Pembangunan Perumahan,PERUM GRAHA PERSADA TABANAN,"Jl. Graha Persada No.9, Denbantas, Kec. Tabanan, Kabupaten Tabanan, Bali 82123","Denbantas, Kec. Tabanan, Kabupaten Tabanan",BALI,82123.0,Indonesia,,,,-8.5191318,115.1381139,https://maps.google.com/?cid=0x0:0xdcbefba769349f92,
perumahan,Komplek perumahan,Perum Permata Hijau,"C3GW+4VC, Jl. Yeh Gangga I, Bongan, Kec. Tabanan, Kabupaten Tabanan, Bali 82115","Jl. Yeh Gangga I, Bongan, Kec. Tabanan, Kabupaten Tabanan",BALI,82115.0,Indonesia,,,,-8.5746793,115.0971495,https://maps.google.com/?cid=0x0:0x23f049963695d823,
perumahan,Komplek perumahan,NIRAVADHI RESIDENCE,"Unnamed Road, Batuaji, Kerambitan, Tabanan Regency, Bali 82115","Batuaji, Kerambitan, Tabanan Regency",BALI,82115.0,Indonesia, 081338192358,,,-8.5183174,115.1113672,https://maps.google.com/?cid=0x0:0x64b61170aa42f870,
perumahan,Komplek perumahan,Gubug Amartha Regency,"Jl. Yeh Gangga I No.1, Gubug, Kec. Tabanan, Kabupaten Tabanan, Bali 82115","Gubug, Kec. Tabanan, Kabupaten Tabanan",BALI,82115.0,Indonesia, 085237247140,,,-8.5655664,115.0890982,https://maps.google.com/?cid=0x0:0xe79b22a84a7f4154,
perumahan,Komplek perumahan,Perumahan Taman Bunga,"F443+2JH, Pangkung Karung, Kec. Kerambitan, Kabupaten Tabanan, Bali 82115","Pangkung Karung, Kec. Kerambitan, Kabupaten Tabanan",BALI,82115.0,Indonesia,,,,-8.5449269,115.1041034,https://maps.google.com/?cid=0x0:0xe3343a84701620f9,
perumahan,Komplek perumahan,Luna Piena,"Gubug Residence, Jl. Sarwa Genep No.12 Blok D, Gubug, Kec. Tabanan, Kabupaten Tabanan, Bali 82115","Jl. Sarwa Genep No.12 Blok D, Gubug, Kec. Tabanan, Kabupaten Tabanan",BALI,82115.0,Indonesia,,,,-8.5620338,115.095693,https://maps.google.com/?cid=0x0:0x28fc8e9189880d30,
perumahan,Perumahan,BCA Land,"C4Q5+H9J, Unnamed Road, Bongan, Kec. Tabanan, Kabupaten Tabanan, Bali 82112","Unnamed Road, Bongan, Kec. Tabanan, Kabupaten Tabanan",BALI,82112.0,Indonesia,,,,-8.561047,115.1084025,https://maps.google.com/?cid=0x0:0x6414d51d8f874c91,
perumahan,Komplek perumahan,Moyo Surf Bungalow,"Perum Permata Sarwa Indah Blok I No. 8 B, Gubug, Kec. Tabanan, Kabupaten Tabanan, Bali 82115","Gubug, Kec. Tabanan, Kabupaten Tabanan",BALI,82115.0,Indonesia,,,,-8.570476,115.0908984,https://maps.google.com/?cid=0x0:0xdff06578ff584c16,
perumahan,Perhimpunan Pengembang Perumahan,Perumahan Nuansa Indah,"C37W+RX4, Belalang, Kec. Kediri, Kabupaten Tabanan, Bali 82115","Belalang, Kec. Kediri, Kabupaten Tabanan",BALI,82115.0,Indonesia,,,,-8.5854898,115.0974462,https://maps.google.com/?cid=0x0:0x8f33ce367b76c499,
perumahan,Komplek perumahan,Gubug Residence,"C3PW+6MG, Jl. Sarwa Genep, Gubug, Kec. Tabanan, Kabupaten Tabanan, Bali 82115","Jl. Sarwa Genep, Gubug, Kec. Tabanan, Kabupaten Tabanan",BALI,82115.0,Indonesia,,,,-8.5640969,115.0963331,https://maps.google.com/?cid=0x0:0xe4113d818720bdf6,
perumahan,Pembangunan Perumahan,Citra Kencana Residence,"Jl. Yeh Gangga I No.2, Gubug, Kec. Tabanan, Kabupaten Tabanan, Bali 82115","Gubug, Kec. Tabanan, Kabupaten Tabanan",BALI,82115.0,Indonesia,,,,-8.5574462,115.0978985,https://maps.google.com/?cid=0x0:0x19c1397ba3885912,
perumahan,Otoritas Perumahan,Tempat tinggal,"Perumahan permata sarwah indah, Jl. Sarwa Genep No.9 blok D, Gubug, Kec. Tabanan, Kabupaten Tabanan, Bali 82115","Jl. Sarwa Genep No.9 blok D, Gubug, Kec. Tabanan, Kabupaten Tabanan",BALI,82115.0,Indonesia,,,,-8.5696741,115.0910803,https://maps.google.com/?cid=0x0:0xf0329d74eec2b52e,
