Category;Real Category;Business Name;Address;City;State;Postal Code;Country;Phone;Email;Website;Latitude;Longitude;Map Link;Details Link
restaurant;restaurant;RUMAH MAKAN KHAS NIAS;"DESA, SALO'O, Kec. Ulu Moro'o, Kabupaten Nias Barat, Sumatera Utara 22892";"SALO'O, Kec. Ulu Moro'o, Kabupaten Nias Barat";SUMATERA UTARA;22892;Indonesia;085270979839;;;10.113.263;975.416.979;https://maps.google.com/?cid=0x0:0xc6ec372adc14723;
hotel;hotel;Jl. Lahömi;"Lologundre, Kec. Lahomi, Kabupaten Nias Barat, Sumatera Utara 22864";"Kec. Lahomi, Kabupaten Nias Barat";SUMATERA UTARA;22864;Indonesia;;;;0.986949;975.036.587;https://maps.google.com/?cid=0x0:0x6409da5bc64f976c;
hotel;hotel;Go Nias Capsule Hostel;"Jl. Raya Pelud Binaka No.219, Binaka, Kec. Gido, Kota Gunungsitoli, Sumatera Utara 22870";"Binaka, Kec. Gido, Kota Gunungsitoli";SUMATERA UTARA;22870;Indonesia;081260274444;;;116.952;976.931.475;https://maps.google.com/?cid=0x0:0x2124a496eba277d1;
hotel;Tujuan Wisata;Air Terjun Humogo;"Jalan Tola Maera, desa Fadoro, GunungSitoli Idanoi, 22851, Dahana, Kec. GunungSitoli Idanoi, Kota Gunungsitoli, Sumatera Utara 22871";"desa Fadoro, GunungSitoli Idanoi,";SUMATERA UTARA;22851;Indonesia;;;;11.912.331;976.441.847;https://maps.google.com/?cid=0x0:0x1e03dc06ac3a5a85;
hotel;Taman Kota;Taman Yaahowu;"7JR9+4FH, Unnamed Road, Saombo, Kec. Gunungsitoli, Kota Gunungsitoli, Sumatera Utara 22814";"Unnamed Road, Saombo, Kec. Gunungsitoli, Kota Gunungsitoli";SUMATERA UTARA;22814;Indonesia;;;;12.902.273;976.193.682;https://maps.google.com/?cid=0x0:0x4a8b2398a75e060f;
hotel;Toko;Tokosa Hotel;"2F2V+HHJ, Onolimbu, Kec. Lahomi, Kabupaten Nias Barat, Sumatera Utara 22864";"Onolimbu, Kec. Lahomi, Kabupaten Nias Barat";SUMATERA UTARA;22864;Indonesia;08126266664;;;10.014.734;974.938.945;https://maps.google.com/?cid=0x0:0x9ecfeb9870857c1a;
hotel;Toko;UD. Tokosa;"2F2V+MMQ, Onolimbu, Kec. Lahomi, Kabupaten Nias Barat, Sumatera Utara 22864";"Onolimbu, Kec. Lahomi, Kabupaten Nias Barat";SUMATERA UTARA;22864;Indonesia;;;;10.016.836;974.942.479;https://maps.google.com/?cid=0x0:0x6e2b09be800cc12d;
hotel;hotel;Sumatera Utara 22875;"Kec. Lolofitu Moi, Kabupaten Nias Barat, Sumatera Utara";"Kabupaten Nias Barat, Sumatera Utara";SUMATERA UTARA;;Indonesia;;;;10.588.624;975.788.975;https://maps.google.com/?cid=0x0:0x9c54d35d78ab160f;
hotel;hotel;Hotel Nasional;"Jl. Kelapa No.55, Ps. Gn. Sitoli, Kec. Gunungsitoli, Kota Gunungsitoli, Sumatera Utara 22815";"Ps. Gn. Sitoli, Kec. Gunungsitoli, Kota Gunungsitoli";SUMATERA UTARA;22815;Indonesia;08116585577;;;12.864.364;976.245.224;https://maps.google.com/?cid=0x0:0x2875c5a273fc311;
hotel;hotel;Go Nias Capsule Hostel;"Jl. Raya Pelud Binaka No.219, Binaka, Kec. Gido, Kota Gunungsitoli, Sumatera Utara 22870";"Binaka, Kec. Gido, Kota Gunungsitoli";SUMATERA UTARA;22870;Indonesia;081260274444;;;116.952;976.931.475;https://maps.google.com/?cid=0x0:0x2124a496eba277d1;
hotel;hotel;Dian Otomosi Hotel;"Jl. Yos Sudarso Ujung No.Km. 3, 2, Ombolata Ulu, Kec. Gunungsitoli, Kota Gunungsitoli, Sumatera Utara 22811";"2, Ombolata Ulu, Kec. Gunungsitoli, Kota Gunungsitoli";SUMATERA UTARA;22811;Indonesia;081370571116;;;13.137.076;976.071.069;https://maps.google.com/?cid=0x0:0xddaf487f8d4d296e;
hotel;hotel;Ina Silvi Cottage;"Pulau asu, Asu island, Kabupaten Nias Barat, Sumatera Utara";"Kabupaten Nias Barat, Sumatera Utara";SUMATERA UTARA;;Indonesia;081263165649;;;0.9057043;972.788.176;https://maps.google.com/?cid=0x0:0x874fd68b28ac8180;
hotel;hotel;Sumatera Utara 22862;"Kabupaten Nias Barat, Sumatera Utara";"Kabupaten Nias Barat, Sumatera Utara";SUMATERA UTARA;;Indonesia;;;;10.305.654;975.030.669;https://maps.google.com/?cid=0x0:0x343297d388925be1;
hotel;hotel;Hotel Dan Penginapan Sthree;"7JFM+72H, Ilir, Kec. Gunungsitoli, Kota Gunungsitoli, Sumatera Utara";"Kota Gunungsitoli, Sumatera Utara";SUMATERA UTARA;;Indonesia;0639323454;;;12.731.834;976.326.165;https://maps.google.com/?cid=0x0:0x7ec2828e78e03dc9;
hotel;hotel;Harus damai inn ( Lagundri beach );"HPJM+36V, Tlk, Lagundri, Kec. Tlk. Dalam, Kabupaten Nias Selatan, Sumatera Utara 22865";"Tlk, Lagundri, Kec. Tlk. Dalam, Kabupaten Nias Selatan";SUMATERA UTARA;22865;Indonesia;081237382039;;;0.5802358;97.733.043;https://maps.google.com/?cid=0x0:0x1074ec14f8241c32;
hotel;hotel;Go Nias Capsule Hostel;"Jl. Raya Pelud Binaka No.219, Binaka, Kec. Gido, Kota Gunungsitoli, Sumatera Utara 22870";"Binaka, Kec. Gido, Kota Gunungsitoli";SUMATERA UTARA;22870;Indonesia;081260274444;;;116.952;976.931.475;https://maps.google.com/?cid=0x0:0x2124a496eba277d1;
hotel;hotel;Summarend Hotel RedPartner;"HR59+WHP, Hilitobara, Kec. Tlk. Dalam, Kabupaten Nias Selatan, Sumatera Utara 22865";"Hilitobara, Kec. Tlk. Dalam, Kabupaten Nias Selatan";SUMATERA UTARA;22865;Indonesia;0895417300072;;;0.5598125;978.189.375;https://maps.google.com/?cid=0x0:0x3e2f97102d2d9304;
hotel;hotel;Tundreheni Hill Hotel And Restaurant;"Jl. IR. Soekarno No.22, Saombo, Kec. Gunungsitoli, Kep. Nias, Sumatera Utara 22810";"Saombo, Kec. Gunungsitoli, Kep. Nias";SUMATERA UTARA;22810;Indonesia;085277688821;;;12.887.752;976.170.351;https://maps.google.com/?cid=0x0:0x24217d2c2ac61815;
hotel;hotel;Puri Asu Resort;"Asu Island, Sumatera Utara";"Kabupaten Nias Barat, Sumatera Utara";SUMATERA UTARA;;Indonesia;085166903759;;;0.9074329;972.779.043;https://maps.google.com/?cid=0x0:0xc806bf8d4e651a1c;
hotel;hotel;Sozinhos Surf Lodge;"Bawosaloo, Kec. Sirombu, Kabupaten Nias Barat, Sumatera Utara";"Kabupaten Nias Barat, Sumatera Utara";SUMATERA UTARA;;Indonesia;082163141694;;;0.9143637;972.709.675;https://maps.google.com/?cid=0x0:0x63717fc8bc8d3a0c;
hotel;hotel;Hotel Sere Nauli;"Jl. Sisingamangaraja No.1, Ps. Laguboti, Kec. Laguboti, Toba, Sumatera Utara 22381";"Ps. Laguboti, Kec. Laguboti, Toba";SUMATERA UTARA;22381;Indonesia;0632331003;;;23.528.556;991.217.736;https://maps.google.com/?cid=0x0:0xabb98d75781aff78;
hotel;hotel;N/A;;;SUMATERA UTARA;;Indonesia;;;;;;https://maps.google.com/?cid=0x0:0xabb98d75781aff78%7C/g/11b6nrb67w%7Cen-ID;
hotel;hotel;Dian Otomosi Hotel;"Jl. Yos Sudarso Ujung No.Km. 3, 2, Ombolata Ulu, Kec. Gunungsitoli, Kota Gunungsitoli, Sumatera Utara 22811";"2, Ombolata Ulu, Kec. Gunungsitoli, Kota Gunungsitoli";SUMATERA UTARA;22811;Indonesia;081370571116;;;13.137.076;976.071.069;https://maps.google.com/?cid=0x0:0xddaf487f8d4d296e;
hotel;hotel;NIDA Rooms Pasar Buah Medan Tuntungan at Lonari Hotel;"Jalan Letjen Jamin Ginting Km 8-9, Namo Simpur, Medan, Deli Serdang Regency, North Sumatra 20138";"Namo Simpur, Medan, Deli Serdang Regency";SUMATERA UTARA;20138;Indonesia;02180630755;;;3.494.196;986.043;https://maps.google.com/?cid=0x0:0x4cfd7e69ea5b4fd;
hotel;hotel;Kec. Mandrehe Bar.;"Kabupaten Nias Barat, Sumatera Utara";"Kabupaten Nias Barat, Sumatera Utara";SUMATERA UTARA;;Indonesia;;;;0.998808;974.182.241;https://maps.google.com/?cid=0x0:0x7de90688f484314d;
hotel;hotel;Sumatera Utara 22867;"Kabupaten Nias Selatan, Sumatera Utara";"Kabupaten Nias Selatan, Sumatera Utara";SUMATERA UTARA;;Indonesia;;;;0.9212063;976.710.889;https://maps.google.com/?cid=0x0:0xe28ccee9e4064a40;
hotel;hotel;Hotel Dan Penginapan Sthree;"7JFM+72H, Ilir, Kec. Gunungsitoli, Kota Gunungsitoli, Sumatera Utara";"Kota Gunungsitoli, Sumatera Utara";SUMATERA UTARA;;Indonesia;0639323454;;;12.731.834;976.326.165;https://maps.google.com/?cid=0x0:0x7ec2828e78e03dc9;
hotel;hotel;Harus damai inn ( Lagundri beach );"HPJM+36V, Tlk, Lagundri, Kec. Tlk. Dalam, Kabupaten Nias Selatan, Sumatera Utara 22865";"Tlk, Lagundri, Kec. Tlk. Dalam, Kabupaten Nias Selatan";SUMATERA UTARA;22865;Indonesia;081237382039;;;0.5802358;97.733.043;https://maps.google.com/?cid=0x0:0x1074ec14f8241c32;
hotel;hotel;Summarend Hotel RedPartner;"HR59+WHP, Hilitobara, Kec. Tlk. Dalam, Kabupaten Nias Selatan, Sumatera Utara 22865";"Hilitobara, Kec. Tlk. Dalam, Kabupaten Nias Selatan";SUMATERA UTARA;22865;Indonesia;0895417300072;;;0.5598125;978.189.375;https://maps.google.com/?cid=0x0:0x3e2f97102d2d9304;
hotel;hotel;Tundreheni Hill Hotel And Restaurant;"Jl. IR. Soekarno No.22, Saombo, Kec. Gunungsitoli, Kep. Nias, Sumatera Utara 22810";"Saombo, Kec. Gunungsitoli, Kep. Nias";SUMATERA UTARA;22810;Indonesia;085277688821;;;12.887.752;976.170.351;https://maps.google.com/?cid=0x0:0x24217d2c2ac61815;
hotel;hotel;Dian Otomosi Hotel;"Jl. Yos Sudarso Ujung No.Km. 3, 2, Ombolata Ulu, Kec. Gunungsitoli, Kota Gunungsitoli, Sumatera Utara 22811";"2, Ombolata Ulu, Kec. Gunungsitoli, Kota Gunungsitoli";SUMATERA UTARA;22811;Indonesia;081370571116;;;13.137.076;976.071.069;https://maps.google.com/?cid=0x0:0xddaf487f8d4d296e;
hotel;hotel;Kec. Mandrehe Bar.;"Kabupaten Nias Barat, Sumatera Utara";"Kabupaten Nias Barat, Sumatera Utara";SUMATERA UTARA;;Indonesia;;;;0.998808;974.182.241;https://maps.google.com/?cid=0x0:0x7de90688f484314d;
hotel;hotel;Ina Silvi Cottage;"Pulau asu, Asu island, Kabupaten Nias Barat, Sumatera Utara";"Kabupaten Nias Barat, Sumatera Utara";SUMATERA UTARA;;Indonesia;081263165649;;;0.9057043;972.788.176;https://maps.google.com/?cid=0x0:0x874fd68b28ac8180;
hotel;hotel;Sozinhos Surf Lodge;"Bawosaloo, Kec. Sirombu, Kabupaten Nias Barat, Sumatera Utara";"Kabupaten Nias Barat, Sumatera Utara";SUMATERA UTARA;;Indonesia;082163141694;;;0.9143637;972.709.675;https://maps.google.com/?cid=0x0:0x63717fc8bc8d3a0c;
hotel;hotel;Puri Asu Resort;"Asu Island, Sumatera Utara";"Kabupaten Nias Barat, Sumatera Utara";SUMATERA UTARA;;Indonesia;085166903759;;;0.9074329;972.779.043;https://maps.google.com/?cid=0x0:0xc806bf8d4e651a1c;
hotel;hotel;Sumatera Utara 22812;"Kabupaten Nias Barat, Sumatera Utara";"Kabupaten Nias Barat, Sumatera Utara";SUMATERA UTARA;;Indonesia;;;;10.164.701;974.435.441;https://maps.google.com/?cid=0x0:0xd11190b65d8d63eb;
hotel;hotel;Hotel Dan Penginapan Sthree;"7JFM+72H, Ilir, Kec. Gunungsitoli, Kota Gunungsitoli, Sumatera Utara";"Kota Gunungsitoli, Sumatera Utara";SUMATERA UTARA;;Indonesia;0639323454;;;12.731.834;976.326.165;https://maps.google.com/?cid=0x0:0x7ec2828e78e03dc9;
hotel;hotel;Hotel Soliga;"Jl. Pangeran Diponegoro No.432, Miga, Kec. Gunungsitoli, Nias, Sumatera Utara 22815";"Miga, Kec. Gunungsitoli, Nias";SUMATERA UTARA;22815;Indonesia;081370291919;;;12.629.184;976.383.988;https://maps.google.com/?cid=0x0:0xe1786f17668a934a;
hotel;hotel;Ina Silvi Cottage;"Pulau asu, Asu island, Kabupaten Nias Barat, Sumatera Utara";"Kabupaten Nias Barat, Sumatera Utara";SUMATERA UTARA;;Indonesia;081263165649;;;0.9057043;972.788.176;https://maps.google.com/?cid=0x0:0x874fd68b28ac8180;
hotel;hotel;Hotel Nasional;"Jl. Kelapa No.55, Ps. Gn. Sitoli, Kec. Gunungsitoli, Kota Gunungsitoli, Sumatera Utara 22815";"Ps. Gn. Sitoli, Kec. Gunungsitoli, Kota Gunungsitoli";SUMATERA UTARA;22815;Indonesia;08116585577;;;12.864.364;976.245.224;https://maps.google.com/?cid=0x0:0x2875c5a273fc311;
hotel;hotel;Hotel Kaliki;"Jl. Yos Sudarso Ujung No.43, Ombolata Ulu, Kec. Gunungsitoli, Kota Gunungsitoli, Sumatera Utara 22811";"Ombolata Ulu, Kec. Gunungsitoli, Kota Gunungsitoli";SUMATERA UTARA;22811;Indonesia;085261924076;;;13.115.065;976.096.907;https://maps.google.com/?cid=0x0:0xd8a96c35f191556a;
hotel;hotel;Nias Palace Hotel;"Jl. Moh. Hatta No.42, Kel. Pasar, Kec. Gunungsitoli, Kota Gunungsitoli, Sumatera Utara";"Kota Gunungsitoli, Sumatera Utara";SUMATERA UTARA;;Indonesia;063921336;;;12.880.567;976.149.151;https://maps.google.com/?cid=0x0:0x685742aa9cde534b;
hotel;hotel;Tundreheni Hill Hotel And Restaurant;"Jl. IR. Soekarno No.22, Saombo, Kec. Gunungsitoli, Kep. Nias, Sumatera Utara 22810";"Saombo, Kec. Gunungsitoli, Kep. Nias";SUMATERA UTARA;22810;Indonesia;085277688821;;;12.887.752;976.170.351;https://maps.google.com/?cid=0x0:0x24217d2c2ac61815;
hotel;hotel;Museum Pusaka Nias;"No. 134-A, Jl. Yos Sudarso Ujung, Iraonogeba, Kec. Gunungsitoli, Kota Gunungsitoli, Sumatera Utara 22812";"Jl. Yos Sudarso Ujung, Iraonogeba, Kec. Gunungsitoli, Kota Gunungsitoli";SUMATERA UTARA;22812;Indonesia;082396049557;;;12.986.641;976.080.542;https://maps.google.com/?cid=0x0:0x26f817428b618831;
hotel;hotel;Libi Hotel;"Jl. Diponegoro No.103C, Ps. Gn. Sitoli, Kec. Gunungsitoli, Kota Gunungsitoli, Sumatera Utara";"Kota Gunungsitoli, Sumatera Utara";SUMATERA UTARA;;Indonesia;082364504422;;;12.872.759;976.226.138;https://maps.google.com/?cid=0x0:0x21b5893418c07b46;
hotel;hotel;Go Nias Capsule Hostel;"Jl. Raya Pelud Binaka No.219, Binaka, Kec. Gido, Kota Gunungsitoli, Sumatera Utara 22870";"Binaka, Kec. Gido, Kota Gunungsitoli";SUMATERA UTARA;22870;Indonesia;081260274444;;;116.952;976.931.475;https://maps.google.com/?cid=0x0:0x2124a496eba277d1;
hotel;hotel;Dian Otomosi Hotel;"Jl. Yos Sudarso Ujung No.Km. 3, 2, Ombolata Ulu, Kec. Gunungsitoli, Kota Gunungsitoli, Sumatera Utara 22811";"2, Ombolata Ulu, Kec. Gunungsitoli, Kota Gunungsitoli";SUMATERA UTARA;22811;Indonesia;081370571116;;;13.137.076;976.071.069;https://maps.google.com/?cid=0x0:0xddaf487f8d4d296e;
hotel;hotel;Mega Nasional Hotel  Restaurant;"Jalan Raya Pelud Binaka km.8 Desa Laraga Luaha Laraga Gunungsitoli Selatan, Luaha Laraga, Gunungsitoli, Kabupaten Nias, Sumatera Utara 22851";"Luaha Laraga, Gunungsitoli, Kabupaten Nias";SUMATERA UTARA;22851;Indonesia;082163336663;;;12.396.038;976.509.534;https://maps.google.com/?cid=0x0:0x7166cae3352b50d;
hotel;hotel;Sozinhos Surf Lodge;"Bawosaloo, Kec. Sirombu, Kabupaten Nias Barat, Sumatera Utara";"Kabupaten Nias Barat, Sumatera Utara";SUMATERA UTARA;;Indonesia;082163141694;;;0.9143637;972.709.675;https://maps.google.com/?cid=0x0:0x63717fc8bc8d3a0c;
hotel;hotel;Wisma Sangehao;"Tab, Jl. Diponegoro No.391, Sifalaete Tabaloho, Kec. Gunungsitoli, Kota Gunungsitoli, Sumatera Utara 22811";"Jl. Diponegoro No.391, Sifalaete Tabaloho, Kec. Gunungsitoli, Kota Gunungsitoli";SUMATERA UTARA;22811;Indonesia;085297583255;;;12.715.684;976.343.797;https://maps.google.com/?cid=0x0:0x17b9ae5389d4d32b;
hotel;hotel;Kec. Mandrehe Bar.;"Kabupaten Nias Barat, Sumatera Utara";"Kabupaten Nias Barat, Sumatera Utara";SUMATERA UTARA;;Indonesia;;;;0.998808;974.182.241;https://maps.google.com/?cid=0x0:0x7de90688f484314d;
hotel;hotel;Puri Asu Resort;"Asu Island, Sumatera Utara";"Kabupaten Nias Barat, Sumatera Utara";SUMATERA UTARA;;Indonesia;085166903759;;;0.9074329;972.779.043;https://maps.google.com/?cid=0x0:0xc806bf8d4e651a1c;
hotel;hotel;Sumatera Utara 22814;"Saombo, Kec. Gunungsitoli, Kota Gunungsitoli, Sumatera Utara";"Kota Gunungsitoli, Sumatera Utara";SUMATERA UTARA;;Indonesia;;;;12.897.758;976.188.016;https://maps.google.com/?cid=0x0:0x72677cb0cc3dbd55;
hotel;hotel;Hotel Nasional;"Jl. Kelapa No.55, Ps. Gn. Sitoli, Kec. Gunungsitoli, Kota Gunungsitoli, Sumatera Utara 22815";"Ps. Gn. Sitoli, Kec. Gunungsitoli, Kota Gunungsitoli";SUMATERA UTARA;22815;Indonesia;08116585577;;;12.864.364;976.245.224;https://maps.google.com/?cid=0x0:0x2875c5a273fc311;
hotel;hotel;Hotel Dan Penginapan Sthree;"7JFM+72H, Ilir, Kec. Gunungsitoli, Kota Gunungsitoli, Sumatera Utara";"Kota Gunungsitoli, Sumatera Utara";SUMATERA UTARA;;Indonesia;0639323454;;;12.731.834;976.326.165;https://maps.google.com/?cid=0x0:0x7ec2828e78e03dc9;
hotel;hotel;Hotel Soliga;"Jl. Pangeran Diponegoro No.432, Miga, Kec. Gunungsitoli, Nias, Sumatera Utara 22815";"Miga, Kec. Gunungsitoli, Nias";SUMATERA UTARA;22815;Indonesia;081370291919;;;12.629.184;976.383.988;https://maps.google.com/?cid=0x0:0xe1786f17668a934a;
hotel;hotel;Tundreheni Hill Hotel And Restaurant;"Jl. IR. Soekarno No.22, Saombo, Kec. Gunungsitoli, Kep. Nias, Sumatera Utara 22810";"Saombo, Kec. Gunungsitoli, Kep. Nias";SUMATERA UTARA;22810;Indonesia;085277688821;;;12.887.752;976.170.351;https://maps.google.com/?cid=0x0:0x24217d2c2ac61815;
hotel;hotel;Libi Hotel;"Jl. Diponegoro No.103C, Ps. Gn. Sitoli, Kec. Gunungsitoli, Kota Gunungsitoli, Sumatera Utara";"Kota Gunungsitoli, Sumatera Utara";SUMATERA UTARA;;Indonesia;082364504422;;;12.872.759;976.226.138;https://maps.google.com/?cid=0x0:0x21b5893418c07b46;
hotel;hotel;Nias Palace Hotel;"Jl. Moh. Hatta No.42, Kel. Pasar, Kec. Gunungsitoli, Kota Gunungsitoli, Sumatera Utara";"Kota Gunungsitoli, Sumatera Utara";SUMATERA UTARA;;Indonesia;063921336;;;12.880.567;976.149.151;https://maps.google.com/?cid=0x0:0x685742aa9cde534b;
hotel;hotel;Hotel Kaliki;"Jl. Yos Sudarso Ujung No.43, Ombolata Ulu, Kec. Gunungsitoli, Kota Gunungsitoli, Sumatera Utara 22811";"Ombolata Ulu, Kec. Gunungsitoli, Kota Gunungsitoli";SUMATERA UTARA;22811;Indonesia;085261924076;;;13.115.065;976.096.907;https://maps.google.com/?cid=0x0:0xd8a96c35f191556a;
hotel;hotel;Hotel Toho Nias;"Sorake beach Kec.Luahagundre Nias island, Sumatera Utara 22865";"Kabupaten Nias Selatan, Sumatera Utara";SUMATERA UTARA;;Indonesia;081397634604;;;0.5736353;977.317.801;https://maps.google.com/?cid=0x0:0x3fab47b914649c59;
hotel;hotel;Museum Pusaka Nias;"No. 134-A, Jl. Yos Sudarso Ujung, Iraonogeba, Kec. Gunungsitoli, Kota Gunungsitoli, Sumatera Utara 22812";"Jl. Yos Sudarso Ujung, Iraonogeba, Kec. Gunungsitoli, Kota Gunungsitoli";SUMATERA UTARA;22812;Indonesia;082396049557;;;12.986.641;976.080.542;https://maps.google.com/?cid=0x0:0x26f817428b618831;
hotel;hotel;Dian Otomosi Hotel;"Jl. Yos Sudarso Ujung No.Km. 3, 2, Ombolata Ulu, Kec. Gunungsitoli, Kota Gunungsitoli, Sumatera Utara 22811";"2, Ombolata Ulu, Kec. Gunungsitoli, Kota Gunungsitoli";SUMATERA UTARA;22811;Indonesia;081370571116;;;13.137.076;976.071.069;https://maps.google.com/?cid=0x0:0xddaf487f8d4d296e;
hotel;hotel;Wisma Sangehao;"Tab, Jl. Diponegoro No.391, Sifalaete Tabaloho, Kec. Gunungsitoli, Kota Gunungsitoli, Sumatera Utara 22811";"Jl. Diponegoro No.391, Sifalaete Tabaloho, Kec. Gunungsitoli, Kota Gunungsitoli";SUMATERA UTARA;22811;Indonesia;085297583255;;;12.715.684;976.343.797;https://maps.google.com/?cid=0x0:0x17b9ae5389d4d32b;
hotel;hotel;Baloho Beach Resort Nias;"Jl. Pantai Baloho, Hiligeho, Telukdalem, Kabupaten Nias Selatan, Sumatera Utara 22865";"Hiligeho, Telukdalem, Kabupaten Nias Selatan";SUMATERA UTARA;22865;Indonesia;082281611789;;;0.5584583;978.053.486;https://maps.google.com/?cid=0x0:0xcf67a1d24c81a219;
hotel;hotel;Harus damai inn ( Lagundri beach );"HPJM+36V, Tlk, Lagundri, Kec. Tlk. Dalam, Kabupaten Nias Selatan, Sumatera Utara 22865";"Tlk, Lagundri, Kec. Tlk. Dalam, Kabupaten Nias Selatan";SUMATERA UTARA;22865;Indonesia;081237382039;;;0.5802358;97.733.043;https://maps.google.com/?cid=0x0:0x1074ec14f8241c32;
hotel;hotel;Sumatera Utara 22862;"Kabupaten Nias Barat, Sumatera Utara";"Kabupaten Nias Barat, Sumatera Utara";SUMATERA UTARA;;Indonesia;;;;10.305.654;975.030.669;https://maps.google.com/?cid=0x0:0x343297d388925be1;
hotel;hotel;Labersa Hotel  Convention Center Samosir;"Simarmata, Simanindo, Kabupaten Samosir, Sumatera Utara 22395";"Simanindo, Kabupaten Samosir";SUMATERA UTARA;22395;Indonesia;08116063555;;;27.416.459;987.095.258;https://maps.google.com/?cid=0x0:0x6fd34e6bdf43b7af;
hotel;hotel;Ina Silvi Cottage;"Pulau asu, Asu island, Kabupaten Nias Barat, Sumatera Utara";"Kabupaten Nias Barat, Sumatera Utara";SUMATERA UTARA;;Indonesia;081263165649;;;0.9057043;972.788.176;https://maps.google.com/?cid=0x0:0x874fd68b28ac8180;
hotel;hotel;Go Nias Capsule Hostel;"Jl. Raya Pelud Binaka No.219, Binaka, Kec. Gido, Kota Gunungsitoli, Sumatera Utara 22870";"Binaka, Kec. Gido, Kota Gunungsitoli";SUMATERA UTARA;22870;Indonesia;081260274444;;;116.952;976.931.475;https://maps.google.com/?cid=0x0:0x2124a496eba277d1;
hotel;hotel;Summarend Hotel RedPartner;"HR59+WHP, Hilitobara, Kec. Tlk. Dalam, Kabupaten Nias Selatan, Sumatera Utara 22865";"Hilitobara, Kec. Tlk. Dalam, Kabupaten Nias Selatan";SUMATERA UTARA;22865;Indonesia;0895417300072;;;0.5598125;978.189.375;https://maps.google.com/?cid=0x0:0x3e2f97102d2d9304;
hotel;hotel;Sozinhos Surf Lodge;"Bawosaloo, Kec. Sirombu, Kabupaten Nias Barat, Sumatera Utara";"Kabupaten Nias Barat, Sumatera Utara";SUMATERA UTARA;;Indonesia;082163141694;;;0.9143637;972.709.675;https://maps.google.com/?cid=0x0:0x63717fc8bc8d3a0c;
hotel;hotel;Puri Asu Resort;"Asu Island, Sumatera Utara";"Kabupaten Nias Barat, Sumatera Utara";SUMATERA UTARA;;Indonesia;085166903759;;;0.9074329;972.779.043;https://maps.google.com/?cid=0x0:0xc806bf8d4e651a1c;
hotel;hotel;Toba Sunset;"Tuktuk Siadong, Simanindo, Kabupaten Samosir, Sumatera Utara";"Kabupaten Samosir, Sumatera Utara";SUMATERA UTARA;;Indonesia;081262304284;;;2.672.788;988.513.017;https://maps.google.com/?cid=0x0:0x21df695475a08999;
hotel;hotel;Sirombu;"Sirombu, Kec. Sirombu, Kabupaten Nias Barat, Sumatera Utara";"Kabupaten Nias Barat, Sumatera Utara";SUMATERA UTARA;;Indonesia;;;;0.952816;97.418.171;https://maps.google.com/?cid=0x0:0x4039d80b2210500;
hotel;hotel;Ina Silvi Cottage;"Pulau asu, Asu island, Kabupaten Nias Barat, Sumatera Utara";"Kabupaten Nias Barat, Sumatera Utara";SUMATERA UTARA;;Indonesia;081263165649;;;0.9057043;972.788.176;https://maps.google.com/?cid=0x0:0x874fd68b28ac8180;
hotel;hotel;Hotel Dan Penginapan Sthree;"7JFM+72H, Ilir, Kec. Gunungsitoli, Kota Gunungsitoli, Sumatera Utara";"Kota Gunungsitoli, Sumatera Utara";SUMATERA UTARA;;Indonesia;0639323454;;;12.731.834;976.326.165;https://maps.google.com/?cid=0x0:0x7ec2828e78e03dc9;
hotel;hotel;Hotel Nasional;"Jl. Kelapa No.55, Ps. Gn. Sitoli, Kec. Gunungsitoli, Kota Gunungsitoli, Sumatera Utara 22815";"Ps. Gn. Sitoli, Kec. Gunungsitoli, Kota Gunungsitoli";SUMATERA UTARA;22815;Indonesia;08116585577;;;12.864.364;976.245.224;https://maps.google.com/?cid=0x0:0x2875c5a273fc311;
hotel;hotel;Sopo Almonsari;"Jl. S.M.Simanjuntak No.Desa, Tangga Batu Bar., Kec. Tampahan, Toba, Sumatera Utara 22312";"Tangga Batu Bar., Kec. Tampahan, Toba";SUMATERA UTARA;22312;Indonesia;081212124341;;;22.872.982;99.008.317;https://maps.google.com/?cid=0x0:0xe2938ee973b966a3;
hotel;hotel;Summarend Hotel RedPartner;"HR59+WHP, Hilitobara, Kec. Tlk. Dalam, Kabupaten Nias Selatan, Sumatera Utara 22865";"Hilitobara, Kec. Tlk. Dalam, Kabupaten Nias Selatan";SUMATERA UTARA;22865;Indonesia;0895417300072;;;0.5598125;978.189.375;https://maps.google.com/?cid=0x0:0x3e2f97102d2d9304;
hotel;hotel;Puri Asu Resort;"Asu Island, Sumatera Utara";"Kabupaten Nias Barat, Sumatera Utara";SUMATERA UTARA;;Indonesia;085166903759;;;0.9074329;972.779.043;https://maps.google.com/?cid=0x0:0xc806bf8d4e651a1c;
hotel;hotel;N/A;;;SUMATERA UTARA;;Indonesia;;;;;;https://maps.google.com/?cid=0x0:0xabb98d75781aff78%7C/g/11b6nrb67w%7Cen-ID;
hotel;hotel;Hotel Sere Nauli;"Jl. Sisingamangaraja No.1, Ps. Laguboti, Kec. Laguboti, Toba, Sumatera Utara 22381";"Ps. Laguboti, Kec. Laguboti, Toba";SUMATERA UTARA;22381;Indonesia;0632331003;;;23.528.556;991.217.736;https://maps.google.com/?cid=0x0:0xabb98d75781aff78;
hotel;hotel;Sozinhos Surf Lodge;"Bawosaloo, Kec. Sirombu, Kabupaten Nias Barat, Sumatera Utara";"Kabupaten Nias Barat, Sumatera Utara";SUMATERA UTARA;;Indonesia;082163141694;;;0.9143637;972.709.675;https://maps.google.com/?cid=0x0:0x63717fc8bc8d3a0c;
hotel;hotel;Tbi Hotel  Resort;"Jl. Baloho Indah, Hiligeho, Kec. Tlk. Dalam, Kabupaten Nias Selatan, Sumatera Utara 22865";"Hiligeho, Kec. Tlk. Dalam, Kabupaten Nias Selatan";SUMATERA UTARA;22865;Indonesia;081348341726;;;0.5605392;978.020.019;https://maps.google.com/?cid=0x0:0x3404c8b1c706b789;
hotel;hotel;Hotel Keitaro;"HRCF+943 Depan Kejaksaan Negeri, Jl. Diponegoro, Ps. Tlk. Dalam, Kec. Tlk. Dalam, Kabupaten Nias Selatan, Sumatera Utara 22865";"Jl. Diponegoro, Ps. Tlk. Dalam, Kec. Tlk. Dalam, Kabupaten Nias Selatan";SUMATERA UTARA;22865;Indonesia;082365558138;;;0.5708816;978.227.984;https://maps.google.com/?cid=0x0:0x3edd5a39b5afd226;
hotel;hotel;Dian Otomosi Hotel;"Jl. Yos Sudarso Ujung No.Km. 3, 2, Ombolata Ulu, Kec. Gunungsitoli, Kota Gunungsitoli, Sumatera Utara 22811";"2, Ombolata Ulu, Kec. Gunungsitoli, Kota Gunungsitoli";SUMATERA UTARA;22811;Indonesia;081370571116;;;13.137.076;976.071.069;https://maps.google.com/?cid=0x0:0xddaf487f8d4d296e;
hotel;hotel;Crusoes losmen;"HPFJ+6WR, Pantai sorake Tlk. Dalam, Botohilisorake, Kec. Fanayama, Kabupaten Nias Selatan, Sumatera Utara 22865";"Pantai sorake Tlk. Dalam, Botohilisorake, Kec. Fanayama, Kabupaten Nias Selatan";SUMATERA UTARA;22865;Indonesia;;;;0.5731015;977.322.786;https://maps.google.com/?cid=0x0:0xdf35647adfe32bde;
hotel;hotel;Sanali Losmen;"HPCJ+9P6, Botohilitano, Kec. Tlk. Dalam, Kabupaten Nias Selatan, Sumatera Utara 22865";"Botohilitano, Kec. Tlk. Dalam, Kabupaten Nias Selatan";SUMATERA UTARA;22865;Indonesia;081265160312;;;0.570924;977.317.576;https://maps.google.com/?cid=0x0:0x9ffd58477cc96d18;
hotel;hotel;Kec. Ulu Moro'o;"Kabupaten Nias Barat, Sumatera Utara";"Kabupaten Nias Barat, Sumatera Utara";SUMATERA UTARA;;Indonesia;;;;10.144.644;975.333.185;https://maps.google.com/?cid=0x0:0xcabc6a3673d44b2d;
hotel;Hotel;barang;"Onolimbu, Kec. Lahomi, Kabupaten Nias Barat, Sumatera Utara 22863";"Kec. Lahomi, Kabupaten Nias Barat";SUMATERA UTARA;22863;Indonesia;082271559867;;;0.994984;975.057.737;https://maps.google.com/?cid=0x0:0x23b3d3d288d6ba14;
hotel;Toko;Tokosa Hotel;"2F2V+HHJ, Onolimbu, Kec. Lahomi, Kabupaten Nias Barat, Sumatera Utara 22864";"Onolimbu, Kec. Lahomi, Kabupaten Nias Barat";SUMATERA UTARA;22864;Indonesia;08126266664;;;10.014.734;974.938.945;https://maps.google.com/?cid=0x0:0x9ecfeb9870857c1a;
restaurant;restaurant;Jl. Lahömi;"Lologundre, Kec. Lahomi, Kabupaten Nias Barat, Sumatera Utara 22864";"Kec. Lahomi, Kabupaten Nias Barat";SUMATERA UTARA;22864;Indonesia;;;;0.986949;975.036.587;https://maps.google.com/?cid=0x0:0x6409da5bc64f976c;
restaurant;Brunch;WARUNG HIERO;"XFWW+9MC, Jl. Raya Onolimbu - Lahomi, Onolimbu, Kec. Lahomi, Kabupaten Nias Barat, Sumatera Utara 22864";"Jl. Raya Onolimbu - Lahomi, Onolimbu, Kec. Lahomi, Kabupaten Nias Barat";SUMATERA UTARA;22864;Indonesia;;;;0.9959167;974.966.944;https://maps.google.com/?cid=0x0:0xaf45609e00605667;
restaurant;Restoran;Lasara Point;"Jl. Karet No.58, Ilir, Kec. Gunungsitoli, Kota Gunungsitoli, Sumatera Utara";"Kota Gunungsitoli, Sumatera Utara";SUMATERA UTARA;;Indonesia;081375039799;;;12.818.005;976.240.192;https://maps.google.com/?cid=0x0:0x56ae63d7b8d9daf3;
restaurant;Rumah Makan;Rumah Makan AURELL;"XFXV+HMC, Jl. Raya Onolimbu - Lahomi, Onolimbu, Kec. Lahomi, Kabupaten Nias Barat, Sumatera Utara";"Kabupaten Nias Barat, Sumatera Utara";SUMATERA UTARA;;Indonesia;;;;0.9989271;974.941.269;https://maps.google.com/?cid=0x0:0xc5a590168aac71a8;
restaurant;Rumah Makan;Warung Mie Winis;"2F5V+Q34, Onolimbu, Kec. Lahomi, Kabupaten Nias Barat, Sumatera Utara 22862";"Onolimbu, Kec. Lahomi, Kabupaten Nias Barat";SUMATERA UTARA;22862;Indonesia;;;;10.094.588;974.926.875;https://maps.google.com/?cid=0x0:0x9d500321b85707fa;
restaurant;Rumah Makan;Warung Sabata;"XGM2+9CP, Lologundre, Kec. Lahomi, Kabupaten Nias Barat, Sumatera Utara 22864";"Lologundre, Kec. Lahomi, Kabupaten Nias Barat";SUMATERA UTARA;22864;Indonesia;;;;0.9834538;975.010.713;https://maps.google.com/?cid=0x0:0xb67e35bdb4d1c73d;
restaurant;Rumah Makan;Rumah Makan Sihola;"Jl. Lahömi, Fadoro, Kec. Sirombu, Kabupaten Nias Barat, Sumatera Utara 22863";"Fadoro, Kec. Sirombu, Kabupaten Nias Barat";SUMATERA UTARA;22863;Indonesia;082244010122;;;0.9672374;974.656.874;https://maps.google.com/?cid=0x0:0xa52063b194d1658e;
restaurant;restaurant;Sumatera Utara 22875;"Kec. Lolofitu Moi, Kabupaten Nias Barat, Sumatera Utara";"Kabupaten Nias Barat, Sumatera Utara";SUMATERA UTARA;;Indonesia;;;;10.588.624;975.788.975;https://maps.google.com/?cid=0x0:0x9c54d35d78ab160f;
restaurant;Nasi;PONDOK MAKAN ARJUNA;"Jalan Nias Tengah No.Km 34, Lolofitu, Kec. Lolofitu Moi, Kabupaten Nias Barat, Sumatera Utara 22875";"Lolofitu, Kec. Lolofitu Moi, Kabupaten Nias Barat";SUMATERA UTARA;22875;Indonesia;082373906901;;;10.998.431;975.785.052;https://maps.google.com/?cid=0x0:0x8603f228b84c19;
restaurant;Brunch;RM. Muslim SUCI;"Hiliuso, Kec. Lolofitu Moi, Kabupaten Nias Barat, Sumatera Utara 22875";"Kec. Lolofitu Moi, Kabupaten Nias Barat";SUMATERA UTARA;22875;Indonesia;;;;10.901.355;975.767.397;https://maps.google.com/?cid=0x0:0x1adb37205eb5b943;
restaurant;Rumah Makan;Warung Bang Yoga;"4H2J+62P, Unnamed Road, Lolofaoso, Kec. Lolofitu Moi, Kabupaten Nias Barat, Sumatera Utara 22864";"Unnamed Road, Lolofaoso, Kec. Lolofitu Moi, Kabupaten Nias Barat";SUMATERA UTARA;22864;Indonesia;082132181897;;;11.005.838;975.800.923;https://maps.google.com/?cid=0x0:0x30e02250fccfc260;
restaurant;Rumah Makan;WARUNG MAKAN GULTOM;"3J6V+C56, Hilimbowo Mau, Kec. Lolofitu Moi, Kabupaten Nias Barat, Sumatera Utara";"Kabupaten Nias Barat, Sumatera Utara";SUMATERA UTARA;;Indonesia;;;;10.610.482;976.428.758;https://maps.google.com/?cid=0x0:0x2fe60337c21be229;
restaurant;restaurant;Kec. Lolofitu Moi;"Kabupaten Nias Barat, Sumatera Utara";"Kabupaten Nias Barat, Sumatera Utara";SUMATERA UTARA;;Indonesia;;;;11.004.325;975.801.753;https://maps.google.com/?cid=0x0:0x955959013251a8d;
restaurant;Rumah Makan;UD Sahabat Sabarman;"4H4M+46J Moi, Hiliuso, Kec. Lolofitu Moi, Kabupaten Nias Barat, Sumatera Utara 22864";"Hiliuso, Kec. Lolofitu Moi, Kabupaten Nias Barat";SUMATERA UTARA;22864;Indonesia;085275572421;;;11.053.364;975.830.149;https://maps.google.com/?cid=0x0:0x214caae6df9d15f;
restaurant;Rumah Makan;RM. RAMADHAN;"Desa lologolu kecamatan mandrehe kabupaten nias barat, Kota Gunungsitoli, Sumatera Utara 22862";Kota Gunungsitoli;SUMATERA UTARA;22862;Indonesia;085261794704;;;10.588.476;975.462.037;https://maps.google.com/?cid=0x0:0xaaeb8e65d07d99bf;
restaurant;restaurant;Sumatera Utara 22862;"Kabupaten Nias Barat, Sumatera Utara";"Kabupaten Nias Barat, Sumatera Utara";SUMATERA UTARA;;Indonesia;;;;10.305.654;975.030.669;https://maps.google.com/?cid=0x0:0x343297d388925be1;
restaurant;Mi;Kedai Mie Febri Mandrehe;"2FXR+P69, Fadoro, Kec. Mandrehe, Kabupaten Nias Barat, Sumatera Utara 22862";"Fadoro, Kec. Mandrehe, Kabupaten Nias Barat";SUMATERA UTARA;22862;Indonesia;;;;10.492.907;974.906.062;https://maps.google.com/?cid=0x0:0xbd8128a4b85a6a20;
restaurant;Dapur Umum;RM. Princes;"3F2R+259, Jl. Ir. Soekarno, Fadoro, Kec. Mandrehe, Kabupaten Nias Barat, Sumatera Utara 22862";"Jl. Ir. Soekarno, Fadoro, Kec. Mandrehe, Kabupaten Nias Barat";SUMATERA UTARA;22862;Indonesia;;;;10.500.475;974.904.693;https://maps.google.com/?cid=0x0:0x14926961008f8a3a;
restaurant;Rumah Makan;RM. RAMADHAN;"Desa lologolu kecamatan mandrehe kabupaten nias barat, Kota Gunungsitoli, Sumatera Utara 22862";Kota Gunungsitoli;SUMATERA UTARA;22862;Indonesia;085261794704;;;10.588.476;975.462.037;https://maps.google.com/?cid=0x0:0xaaeb8e65d07d99bf;
restaurant;Rumah Makan;RUMAH MAKAN YULLIA;"3F2R+26W, Fadoro, Kec. Mandrehe, Kabupaten Nias Barat, Sumatera Utara 22862";"Fadoro, Kec. Mandrehe, Kabupaten Nias Barat";SUMATERA UTARA;22862;Indonesia;082364199004;;;10.501.141;97.490.569;https://maps.google.com/?cid=0x0:0xb14070be4ca751a8;
restaurant;Brunch;RM. Novi;"3G77+2GJ, Doli Doli, Kec. Mandrehe, Kabupaten Nias Barat, Sumatera Utara 22862";"Doli Doli, Kec. Mandrehe, Kabupaten Nias Barat";SUMATERA UTARA;22862;Indonesia;;;;10.625.875;975.137.656;https://maps.google.com/?cid=0x0:0x373c4174c037353;
restaurant;Rumah Makan;"RM.UD.ARMAN_Sedia B1, BIAWAK, dll.";"Dusun 3 Aramba_Ds, Fadoro, Kec. Mandrehe, Kabupaten Nias Barat, Sumatera Utara 22862";"Fadoro, Kec. Mandrehe, Kabupaten Nias Barat";SUMATERA UTARA;22862;Indonesia;085371938400;;;10.467.389;974.864.617;https://maps.google.com/?cid=0x0:0xd7d212a45508d81b;
restaurant;Kedai Kopi;Cafe;"3F2G+HC3, Jl. Tetehosi, Tetehosi, Kec. Mandrehe, Kabupaten Nias Barat, Sumatera Utara 22862";"Jl. Tetehosi, Tetehosi, Kec. Mandrehe, Kabupaten Nias Barat";SUMATERA UTARA;22862;Indonesia;;;;10.513.814;97.476.043;https://maps.google.com/?cid=0x0:0x9b47f7565554804a;
restaurant;Brunch;Lapo Tupa;"2FXR+PC3, Fadoro, Kec. Mandrehe Bar., Kabupaten Nias Barat, Sumatera Utara 22862";"Fadoro, Kec. Mandrehe Bar., Kabupaten Nias Barat";SUMATERA UTARA;22862;Indonesia;082294082854;;;10.492.504;974.910.349;https://maps.google.com/?cid=0x0:0xf4ce9b7e61a3479f;
restaurant;Rumah Makan;Darni;"3GCM+84Q, Tuhemberua, Kec. Mandrehe, Kabupaten Nias Barat, Sumatera Utara";"Kabupaten Nias Barat, Sumatera Utara";SUMATERA UTARA;;Indonesia;;;;1.070.848;975.328.476;https://maps.google.com/?cid=0x0:0x14f92be5a943a272;
restaurant;Rumah Makan;UD. SAHABAT RASA;"Onolimbu, Kec. Lahomi, Kabupaten Nias Barat, Sumatera Utara 22864";"Kec. Lahomi, Kabupaten Nias Barat";SUMATERA UTARA;22864;Indonesia;;;;10.089.469;97.492.823;https://maps.google.com/?cid=0x0:0xe4056b6ea1cf38f;
restaurant;Mi;Warung mie delon;"Jl. Ir. Soekarno No.2, Fadoro, Kec. Mandrehe, Kabupaten Nias Barat, Sumatera Utara 22862";"Fadoro, Kec. Mandrehe, Kabupaten Nias Barat";SUMATERA UTARA;22862;Indonesia;;;;10.502.242;974.907.171;https://maps.google.com/?cid=0x0:0xf04b6ed1fda9113f;
restaurant;Brunch;UD. WENDA;"2CMH+WG6, Lasara Faga, Kec. Mandrehe Bar., Kabupaten Nias Barat, Sumatera Utara 22812";"Lasara Faga, Kec. Mandrehe Bar., Kabupaten Nias Barat";SUMATERA UTARA;22812;Indonesia;;;;10.349.998;974.288.724;https://maps.google.com/?cid=0x0:0x5f0e9f265af5881d;
restaurant;Kafe;Abam's Cafe;"2FXR+R77, Fadoro, Kec. Mandrehe, Kabupaten Nias Barat, Sumatera Utara 22862";"Fadoro, Kec. Mandrehe, Kabupaten Nias Barat";SUMATERA UTARA;22862;Indonesia;;;;10.495.136;974.906.437;https://maps.google.com/?cid=0x0:0x2762fb56edc5ffdb;
restaurant;Kedai Kopi;Warung Angel;"2FC6+GM8, Lolohia Mandrehe Bar., Sisobambowo, Kec. Mandrehe, Kabupaten Nias Barat, Sumatera Utara 22862";"Lolohia Mandrehe Bar., Sisobambowo, Kec. Mandrehe, Kabupaten Nias Barat";SUMATERA UTARA;22862;Indonesia;;;;10.212.956;974.617.035;https://maps.google.com/?cid=0x0:0xde8e9615a0ac873d;
restaurant;Rumah Makan;RM. Haga;"Jalan Onolimbu, Onolimbu, Kec. Lahomi, Kabupaten Nias Barat, Sumatera Utara 22864";"Onolimbu, Kec. Lahomi, Kabupaten Nias Barat";SUMATERA UTARA;22864;Indonesia;085373527222;;;10.014.637;974.943.025;https://maps.google.com/?cid=0x0:0x4fa41b0c506c97ef;
restaurant;Rumah Makan;Kedai Nasi Yani;"2FXR+M67, Fadoro, Kec. Mandrehe, Kabupaten Nias Barat, Sumatera Utara 22862";"Fadoro, Kec. Mandrehe, Kabupaten Nias Barat";SUMATERA UTARA;22862;Indonesia;085361798840;;;10.491.544;974.905.388;https://maps.google.com/?cid=0x0:0x5331df7175470ed;
restaurant;Restoran;AGK Nias Barat;"2F5Q+9PQ, Onowaembo, Kec. Lahomi, Kabupaten Nias Barat, Sumatera Utara 22862";"Onowaembo, Kec. Lahomi, Kabupaten Nias Barat";SUMATERA UTARA;22862;Indonesia;085262612884;;;10.084.538;974.893.629;https://maps.google.com/?cid=0x0:0x637ed306442b99d6;
restaurant;Brunch;UD NAULI;"XFWW+MM7, Jalan Raya, Onolimbu, Kec. Lahomi, Kabupaten Nias Barat, Sumatera Utara 22864";"Jalan Raya, Onolimbu, Kec. Lahomi, Kabupaten Nias Barat";SUMATERA UTARA;22864;Indonesia;;;;0.9964501;974.969.298;https://maps.google.com/?cid=0x0:0x96c30af441ee7830;
restaurant;Rumah Kayu;AMOSI GULO;"3GCH+PMR, Unnamed Road, Doli Doli, Kec. Mandrehe, Kabupaten Nias Barat, Sumatera Utara";"Kabupaten Nias Barat, Sumatera Utara";SUMATERA UTARA;;Indonesia;085360081120;;;10.718.565;975.291.324;https://maps.google.com/?cid=0x0:0x24f5e057a3eb4ee3;
restaurant;Indonesia;Amar Dining;"Jl. Kemang Raya No.45aa, RT.9/RW.1, Bangka, Kec. Mampang Prpt., Kota Jakarta Selatan, Daerah Khusus Ibukota Jakarta 12730";"RT.9/RW.1, Bangka, Kec. Mampang Prpt., Kota Jakarta Selatan";SUMATERA UTARA;12730;Indonesia;081917190000;;;-62.647.473;1.068.163.751;https://maps.google.com/?cid=0x0:0xa10f1434b4d29b0d;
restaurant;restaurant;Sumatera Utara 22867;"Kabupaten Nias Selatan, Sumatera Utara";"Kabupaten Nias Selatan, Sumatera Utara";SUMATERA UTARA;;Indonesia;;;;0.9212063;976.710.889;https://maps.google.com/?cid=0x0:0xe28ccee9e4064a40;
restaurant;Rumah Makan;Amarawati Nduru;"VMHM+WJX, kecamatan, Orahili Ulunoyo, Kecamatan Ulunoyo, Kabupaten Nias Selatan, Sumatera Utara 22867";"kecamatan, Orahili Ulunoyo, Kecamatan Ulunoyo, Kabupaten Nias Selatan";SUMATERA UTARA;22867;Indonesia;;;;0.8798742;976.841.047;https://maps.google.com/?cid=0x0:0xb219a9e2e3bd297f;
restaurant;Rumah Makan;Warung Makan Sederhana A.Melfa Waruwu;"WH6P+C55, Lolomoyo, Kec. Lalowau, Kabupaten Nias Selatan, Sumatera Utara";"Kabupaten Nias Selatan, Sumatera Utara";SUMATERA UTARA;;Indonesia;082166886087;;;0.9110125;975.854.844;https://maps.google.com/?cid=0x0:0xc281de731f42cc0b;
restaurant;Restoran;Soledua dua;"WJJ6+JCX, Lauso, Soledua, Kabupaten Nias Selatan, Sumatera Utara 22864";"Lauso, Soledua, Kabupaten Nias Selatan";SUMATERA UTARA;22864;Indonesia;081362746194;;;0.9316142;97.611.099;https://maps.google.com/?cid=0x0:0xb38d2d7cae90806d;
restaurant;Kafe;Gunung Sifatuoniha Albertcpd;"WJ86+5W9, Soledua, Kec. Hilimegai, Kabupaten Nias Selatan, Sumatera Utara 22864";"Soledua, Kec. Hilimegai, Kabupaten Nias Selatan";SUMATERA UTARA;22864;Indonesia;085270679835;;;0.9154231;976.123.667;https://maps.google.com/?cid=0x0:0x36050b8c5c9da7e9;
restaurant;Rumah Makan;Rumah Makan SAHABAT SOLINA;"Jln. Lolowa'u, Hilifadolo, Lolowa'u, Kabupaten Nias Selatan, Sumatera Utara";"Kabupaten Nias Selatan, Sumatera Utara";SUMATERA UTARA;;Indonesia;085260060258;;;0.9075462;975.833.498;https://maps.google.com/?cid=0x0:0x769b671351a8b30f;
restaurant;Indonesia;SOLEDUA SATU;"WJG7+X36, Lauso, Kec. Lalowau, Kabupaten Nias Selatan, Sumatera Utara 22864";"Lauso, Kec. Lalowau, Kabupaten Nias Selatan";SUMATERA UTARA;22864;Indonesia;;;;0.9274054;976.126.289;https://maps.google.com/?cid=0x0:0xf99210e9fb5d1da;
restaurant;Kedai Kopi;SIMANE COFEE_DA;"WJ69+26F, Jl. Soliga, Soledua, Kec. Lalowau, Kabupaten Nias Selatan, Sumatera Utara 22864";"Jl. Soliga, Soledua, Kec. Lalowau, Kabupaten Nias Selatan";SUMATERA UTARA;22864;Indonesia;081221941426;;;0.9100621;976.180.323;https://maps.google.com/?cid=0x0:0x92d0f65e17320746;
restaurant;Toko bahan makanan;Jualan Indomie;"Jalan Solotu Desa, Sukamaju, Kecamatan Ulunoyo, Kabupaten Nias Selatan, Sumatera Utara 22867";"Sukamaju, Kecamatan Ulunoyo, Kabupaten Nias Selatan";SUMATERA UTARA;22867;Indonesia;;;;0.9212063;976.710.889;https://maps.google.com/?cid=0x0:0xbbec44821c6c9311;
restaurant;Kafe;"Pemancar Wifi 5,8 Albert Cpd";"WJ86+Q8F, Soledua, Kec. Hilimegai, Kabupaten Nias Selatan, Sumatera Utara 22864";"Soledua, Kec. Hilimegai, Kabupaten Nias Selatan";SUMATERA UTARA;22864;Indonesia;085270679835;;;0.916949;97.610.803;https://maps.google.com/?cid=0x0:0xa7e7723a5ed367b4;
restaurant;Rumah Makan;UD. Febri;"VHRJ+V5R, Desa, Lolowau, Kec. Lalowau, Kabupaten Nias Selatan, Sumatera Utara 22864";"Desa, Lolowau, Kec. Lalowau, Kabupaten Nias Selatan";SUMATERA UTARA;22864;Indonesia;081396139932;;;0.8922423;97.580.388;https://maps.google.com/?cid=0x0:0x1f2ee43cd577e49d;
restaurant;Kolam Renang;OSE SOLOMOITÖ LIMA BERSAUDARA;"Togizita Satu, Kec. Hilimegai, Kabupaten Nias Selatan, Sumatera Utara 22864";"Kec. Hilimegai, Kabupaten Nias Selatan";SUMATERA UTARA;22864;Indonesia;081360920977;;;0.9162744;976.184.235;https://maps.google.com/?cid=0x0:0xf0234db519dcbd99;
restaurant;Rumah Makan;Woroeng mie gomak nias;"Jl.desa, lauso atas balai, desa lauso, Kota Gunungsitoli, Sumatera Utara 22864";"lauso atas balai, desa lauso, Kota Gunungsitoli";SUMATERA UTARA;22864;Indonesia;081328102241;;;0.9633584;975.805.553;https://maps.google.com/?cid=0x0:0x8755018ec1526316;
restaurant;Rumah Makan;RUMAH MAKAN RIA;"VHXJ+55C, Lolowau, Kec. Lalowau, Kabupaten Nias Selatan, Sumatera Utara 22864";"Lolowau, Kec. Lalowau, Kabupaten Nias Selatan";SUMATERA UTARA;22864;Indonesia;;;;0.8979266;975.803.837;https://maps.google.com/?cid=0x0:0x3fd65326e3baa1cf;
restaurant;Kedai Kopi;Kedai Paci Ome;"WMHP+4RQ, Marao, Kecamatan Ulunoyo, Kabupaten Nias Selatan, Sumatera Utara 22861";"Marao, Kecamatan Ulunoyo, Kabupaten Nias Selatan";SUMATERA UTARA;22861;Indonesia;082366750657;;;0.9278328;976.871.151;https://maps.google.com/?cid=0x0:0xd3457171b8ae4e72;
restaurant;Restoran;UD SIDU NDRURU;"VHRJ+J6W, Jl. Hilifadölö, Lolowau, Kec. Lalowau, Kabupaten Nias Selatan, Sumatera Utara 22864";"Jl. Hilifadölö, Lolowau, Kec. Lalowau, Kabupaten Nias Selatan";SUMATERA UTARA;22864;Indonesia;082121576169;;;0.8916175;975.805.781;https://maps.google.com/?cid=0x0:0x99d0107b5b56af92;
restaurant;Rumah Makan;Rumah Makan Hermin;"VHPJ+GR7, Botohilitano, Tlk. Dalam, Lolowau, Kec. Lalowau, Kabupaten Nias Selatan, Sumatera Utara 22864";"Botohilitano, Tlk. Dalam, Lolowau, Kec. Lalowau, Kabupaten Nias Selatan";SUMATERA UTARA;22864;Indonesia;085234099451;;;0.8862917;975.820.564;https://maps.google.com/?cid=0x0:0x1cc03b00787f66ec;
restaurant;Rumah Makan;UD ASTRID;"Lolomoyo, Kec. Lalowau, Kabupaten Nias Selatan, Sumatera Utara 22864";"Kec. Lalowau, Kabupaten Nias Selatan";SUMATERA UTARA;22864;Indonesia;081265076287;;;0.913981;97.583.949;https://maps.google.com/?cid=0x0:0x4d264132a154edbd;
restaurant;Minimarket;UD. Yullcom Hulu (Warung Kelontong  Warung Mie);"Desa Hilikara No.Km. 55, Lauso, Kec. Onohazumba, Kabupaten Nias Selatan, Sumatera Utara 22864";"Lauso, Kec. Onohazumba, Kabupaten Nias Selatan";SUMATERA UTARA;22864;Indonesia;082165071651;;;0.9325015;975.917.353;https://maps.google.com/?cid=0x0:0xedaec44eeefe8aa0;
restaurant;restaurant;Bebalaji lombu;"2H3F+VGV, Fadoro Ewo, Kec. Ulu Moro'o, Kabupaten Nias Selatan, Sumatera Utara 22864";"Fadoro Ewo, Kec. Ulu Moro'o, Kabupaten Nias Selatan";SUMATERA UTARA;22864;Indonesia;;;;10.054.228;975.738.905;https://maps.google.com/?cid=0x0:0x2abced45d541b59b;
restaurant;Gereja;DAO.DAO SALO.O INA TERINGA NDURU;"VJ7R+63R, Unnamed Road, Hiliwaebu, Kecamatan Ulunoyo, Kabupaten Nias Selatan, Sumatera Utara 22864";"Unnamed Road, Hiliwaebu, Kecamatan Ulunoyo, Kabupaten Nias Selatan";SUMATERA UTARA;22864;Indonesia;081317219517;;;0.8631213;976.401.426;https://maps.google.com/?cid=0x0:0x8c43d486a355bae3;
restaurant;Dapur Umum;RM. Princes;"3F2R+259, Jl. Ir. Soekarno, Fadoro, Kec. Mandrehe, Kabupaten Nias Barat, Sumatera Utara 22862";"Jl. Ir. Soekarno, Fadoro, Kec. Mandrehe, Kabupaten Nias Barat";SUMATERA UTARA;22862;Indonesia;;;;10.500.475;974.904.693;https://maps.google.com/?cid=0x0:0x14926961008f8a3a;
restaurant;Mi;Kedai Mie Febri Mandrehe;"2FXR+P69, Fadoro, Kec. Mandrehe, Kabupaten Nias Barat, Sumatera Utara 22862";"Fadoro, Kec. Mandrehe, Kabupaten Nias Barat";SUMATERA UTARA;22862;Indonesia;;;;10.492.907;974.906.062;https://maps.google.com/?cid=0x0:0xbd8128a4b85a6a20;
restaurant;Rumah Makan;UD. Citra;"2FXR+W3G, Fadoro, Kec. Mandrehe, Kabupaten Nias Barat, Sumatera Utara 22862";"Fadoro, Kec. Mandrehe, Kabupaten Nias Barat";SUMATERA UTARA;22862;Indonesia;081269124175;;;10.498.226;974.902.018;https://maps.google.com/?cid=0x0:0x5427dd8bcfba8fc3;
restaurant;Rumah Makan;RUMAH MAKAN YULLIA;"3F2R+26W, Fadoro, Kec. Mandrehe, Kabupaten Nias Barat, Sumatera Utara 22862";"Fadoro, Kec. Mandrehe, Kabupaten Nias Barat";SUMATERA UTARA;22862;Indonesia;082364199004;;;10.501.141;97.490.569;https://maps.google.com/?cid=0x0:0xb14070be4ca751a8;
restaurant;Indonesia;Amar Dining;"Jl. Kemang Raya No.45aa, RT.9/RW.1, Bangka, Kec. Mampang Prpt., Kota Jakarta Selatan, Daerah Khusus Ibukota Jakarta 12730";"RT.9/RW.1, Bangka, Kec. Mampang Prpt., Kota Jakarta Selatan";SUMATERA UTARA;12730;Indonesia;081917190000;;;-62.647.473;1.068.163.751;https://maps.google.com/?cid=0x0:0xa10f1434b4d29b0d;
restaurant;Rumah Makan;"RM.UD.ARMAN_Sedia B1, BIAWAK, dll.";"Dusun 3 Aramba_Ds, Fadoro, Kec. Mandrehe, Kabupaten Nias Barat, Sumatera Utara 22862";"Fadoro, Kec. Mandrehe, Kabupaten Nias Barat";SUMATERA UTARA;22862;Indonesia;085371938400;;;10.467.389;974.864.617;https://maps.google.com/?cid=0x0:0xd7d212a45508d81b;
restaurant;Rumah Makan;UD. SAHABAT RASA;"Onolimbu, Kec. Lahomi, Kabupaten Nias Barat, Sumatera Utara 22864";"Kec. Lahomi, Kabupaten Nias Barat";SUMATERA UTARA;22864;Indonesia;;;;10.089.469;97.492.823;https://maps.google.com/?cid=0x0:0xe4056b6ea1cf38f;
restaurant;Brunch;UD. WENDA;"2CMH+WG6, Lasara Faga, Kec. Mandrehe Bar., Kabupaten Nias Barat, Sumatera Utara 22812";"Lasara Faga, Kec. Mandrehe Bar., Kabupaten Nias Barat";SUMATERA UTARA;22812;Indonesia;;;;10.349.998;974.288.724;https://maps.google.com/?cid=0x0:0x5f0e9f265af5881d;
restaurant;Rumah Makan;RDW Cafe  Resto;"XC29+F3V, Jl. Tetesua, Sirombu, Kec. Sirombu, Kabupaten Nias Barat, Sumatera Utara 22863";"Jl. Tetesua, Sirombu, Kec. Sirombu, Kabupaten Nias Barat";SUMATERA UTARA;22863;Indonesia;082261058112;;;0.9511843;974.180.483;https://maps.google.com/?cid=0x0:0x29248e86562d719a;
restaurant;restaurant;Sumatera Utara 22812;"Kabupaten Nias Barat, Sumatera Utara";"Kabupaten Nias Barat, Sumatera Utara";SUMATERA UTARA;;Indonesia;;;;10.164.701;974.435.441;https://maps.google.com/?cid=0x0:0xd11190b65d8d63eb;
restaurant;Restoran;RM CEMARA;"Sirombu, Kec. Sirombu, Kabupaten Nias Barat, Sumatera Utara";"Kabupaten Nias Barat, Sumatera Utara";SUMATERA UTARA;;Indonesia;082173849334;;;0.9556543;974.109.073;https://maps.google.com/?cid=0x0:0xb6fdbf23398ee330;
restaurant;Rumah Makan;UD. Citra;"2FXR+W3G, Fadoro, Kec. Mandrehe, Kabupaten Nias Barat, Sumatera Utara 22862";"Fadoro, Kec. Mandrehe, Kabupaten Nias Barat";SUMATERA UTARA;22862;Indonesia;081269124175;;;10.498.226;974.902.018;https://maps.google.com/?cid=0x0:0x5427dd8bcfba8fc3;
restaurant;Mi;Kedai Mie Febri Mandrehe;"2FXR+P69, Fadoro, Kec. Mandrehe, Kabupaten Nias Barat, Sumatera Utara 22862";"Fadoro, Kec. Mandrehe, Kabupaten Nias Barat";SUMATERA UTARA;22862;Indonesia;;;;10.492.907;974.906.062;https://maps.google.com/?cid=0x0:0xbd8128a4b85a6a20;
restaurant;Rumah Makan;RM. Haga;"Jalan Onolimbu, Onolimbu, Kec. Lahomi, Kabupaten Nias Barat, Sumatera Utara 22864";"Onolimbu, Kec. Lahomi, Kabupaten Nias Barat";SUMATERA UTARA;22864;Indonesia;085373527222;;;10.014.637;974.943.025;https://maps.google.com/?cid=0x0:0x4fa41b0c506c97ef;
restaurant;Betawi;TOZIRO RESTO;"WCW5+6WR, Unnamed Road, Sirombu, Sirombu, Kec. Sirombu, Kabupaten Nias Barat, Sumatera Utara 22863";"Unnamed Road, Sirombu, Sirombu, Kec. Sirombu, Kabupaten Nias Barat";SUMATERA UTARA;22863;Indonesia;;;;0.9456058;974.097.654;https://maps.google.com/?cid=0x0:0xb731fc51fa352be3;
restaurant;Kedai Kopi;Coffee Saitö;"Jl. Raya Onolimbu - Lahomi, Simaeasi, Kec. Mandrehe, Kabupaten Nias Barat, Sumatera Utara 22862";"Simaeasi, Kec. Mandrehe, Kabupaten Nias Barat";SUMATERA UTARA;22862;Indonesia;082267386171;;;10.284.432;974.849.966;https://maps.google.com/?cid=0x0:0x80a5bc7ce397a21d;
restaurant;Kedai Kopi;Fazaeli Zebua;"2CMH+P8M, Sisobandrao, Kec. Mandrehe Bar., Kabupaten Nias Barat, Sumatera Utara";"Kabupaten Nias Barat, Sumatera Utara";SUMATERA UTARA;;Indonesia;;;;10.343.481;974.283.008;https://maps.google.com/?cid=0x0:0x3903c5a2242f6e2f;
restaurant;Dapur Umum;Kedai LYNI;"7JJ4+F35, Jl. Fondrako, Saombo, Kec. Gunungsitoli, Kota Gunungsitoli, Sumatera Utara";"Kota Gunungsitoli, Sumatera Utara";SUMATERA UTARA;;Indonesia;082163503099;;;12.811.366;976.052.299;https://maps.google.com/?cid=0x0:0xc16a0613954cd097;
restaurant;Dapur Umum;RM. Princes;"3F2R+259, Jl. Ir. Soekarno, Fadoro, Kec. Mandrehe, Kabupaten Nias Barat, Sumatera Utara 22862";"Jl. Ir. Soekarno, Fadoro, Kec. Mandrehe, Kabupaten Nias Barat";SUMATERA UTARA;22862;Indonesia;;;;10.500.475;974.904.693;https://maps.google.com/?cid=0x0:0x14926961008f8a3a;
restaurant;Rumah Makan;Kantin Babe DITA;"2CQM+63F, Lasara Faga, Kec. Mandrehe Bar., Kabupaten Nias Barat, Sumatera Utara";"Kabupaten Nias Barat, Sumatera Utara";SUMATERA UTARA;;Indonesia;;;;1.038.278;97.432.888;https://maps.google.com/?cid=0x0:0xcfc7e260b01ef855;
restaurant;Rumah Makan;Warkop Ama Mira;"XC6J+XF5, Togideu, Kec. Sirombu, Kabupaten Nias Barat, Sumatera Utara 22863";"Togideu, Kec. Sirombu, Kabupaten Nias Barat";SUMATERA UTARA;22863;Indonesia;;;;0.9623879;974.312.292;https://maps.google.com/?cid=0x0:0x62f7267e8ce30147;
restaurant;Brunch;UD. WENDA;"2CMH+WG6, Lasara Faga, Kec. Mandrehe Bar., Kabupaten Nias Barat, Sumatera Utara 22812";"Lasara Faga, Kec. Mandrehe Bar., Kabupaten Nias Barat";SUMATERA UTARA;22812;Indonesia;;;;10.349.998;974.288.724;https://maps.google.com/?cid=0x0:0x5f0e9f265af5881d;
restaurant;Hostel;RPJ Beach;"Jl. Tetesua, Sirombu, Kec. Sirombu, Kabupaten Nias Barat, Sumatera Utara 22863";"Sirombu, Kec. Sirombu, Kabupaten Nias Barat";SUMATERA UTARA;22863;Indonesia;082320944480;;;0.9496896;974.134.807;https://maps.google.com/?cid=0x0:0xe7329a54aea98c9d;
restaurant;Restoran;RM. Bersama;"2F4V+C2X, Jln. Soekarno Hatta, No, Onowaembo, Kec. Lahomi, Kabupaten Nias Barat, Sumatera Utara 22864";"Jln. Soekarno Hatta, No, Onowaembo, Kec. Lahomi, Kabupaten Nias Barat";SUMATERA UTARA;22864;Indonesia;;;;10.061.185;974.926.202;https://maps.google.com/?cid=0x0:0x41f78b7d24e529da;
restaurant;Rumah Makan;Hilouse;"2F6J+MH3, Iraono Gambo, Kec. Mandrehe, Kabupaten Nias Barat, Sumatera Utara";"Kabupaten Nias Barat, Sumatera Utara";SUMATERA UTARA;;Indonesia;;;;10.116.383;974.814.163;https://maps.google.com/?cid=0x0:0xb01ef51a8e305516;
restaurant;Kedai Kopi;Rumah Silver Zebua;"2CPH+MQ6, Sisobandrao, Kec. Mandrehe Bar., Kabupaten Nias Barat, Sumatera Utara";"Kabupaten Nias Barat, Sumatera Utara";SUMATERA UTARA;;Indonesia;;;;10.366.608;974.293.817;https://maps.google.com/?cid=0x0:0xcea652c7700b5334;
restaurant;Kedai Kopi;Warung Angel;"2FC6+GM8, Lolohia Mandrehe Bar., Sisobambowo, Kec. Mandrehe, Kabupaten Nias Barat, Sumatera Utara 22862";"Lolohia Mandrehe Bar., Sisobambowo, Kec. Mandrehe, Kabupaten Nias Barat";SUMATERA UTARA;22862;Indonesia;;;;10.212.956;974.617.035;https://maps.google.com/?cid=0x0:0xde8e9615a0ac873d;
restaurant;Rumah Makan;FB GARA BOZA;"XC5F+7X, Sirombu, Kec. Sirombu, Kabupaten Nias Barat, Sumatera Utara";"Kabupaten Nias Barat, Sumatera Utara";SUMATERA UTARA;;Indonesia;088211546368;;;0.9582972;97.424.935;https://maps.google.com/?cid=0x0:0xbfd8e63c15110dd0;
restaurant;Rumah Makan;UD. SAHABAT RASA;"Onolimbu, Kec. Lahomi, Kabupaten Nias Barat, Sumatera Utara 22864";"Kec. Lahomi, Kabupaten Nias Barat";SUMATERA UTARA;22864;Indonesia;;;;10.089.469;97.492.823;https://maps.google.com/?cid=0x0:0xe4056b6ea1cf38f;
restaurant;Kedai Kopi;Cafe;"3F2G+HC3, Jl. Tetehosi, Tetehosi, Kec. Mandrehe, Kabupaten Nias Barat, Sumatera Utara 22862";"Jl. Tetehosi, Tetehosi, Kec. Mandrehe, Kabupaten Nias Barat";SUMATERA UTARA;22862;Indonesia;;;;10.513.814;97.476.043;https://maps.google.com/?cid=0x0:0x9b47f7565554804a;
restaurant;Toko;Heros Daely;"Tigaserangkai, Kec. Lahomi, Kabupaten Nias Barat, Sumatera Utara 22864";"Kec. Lahomi, Kabupaten Nias Barat";SUMATERA UTARA;22864;Indonesia;085212219509;;;0.9771662;974.823.556;https://maps.google.com/?cid=0x0:0x9eacb9d9a6403b88;
restaurant;Rumah Makan;RM. RAMADHAN;"Desa lologolu kecamatan mandrehe kabupaten nias barat, Kota Gunungsitoli, Sumatera Utara 22862";Kota Gunungsitoli;SUMATERA UTARA;22862;Indonesia;085261794704;;;10.588.476;975.462.037;https://maps.google.com/?cid=0x0:0xaaeb8e65d07d99bf;
restaurant;Brunch;UD. TERA;"2CMH+WG6, Lasara Faga, Kec. Mandrehe Bar., Kabupaten Nias Barat, Sumatera Utara 22812";"Lasara Faga, Kec. Mandrehe Bar., Kabupaten Nias Barat";SUMATERA UTARA;22812;Indonesia;;;;10.349.735;974.286.663;https://maps.google.com/?cid=0x0:0xbf217b2c45612530;
restaurant;restaurant;Kec. Mandrehe Bar.;"Kabupaten Nias Barat, Sumatera Utara";"Kabupaten Nias Barat, Sumatera Utara";SUMATERA UTARA;;Indonesia;;;;0.998808;974.182.241;https://maps.google.com/?cid=0x0:0x7de90688f484314d;
restaurant;Restoran;Rumah Makan Stabat;"XFXV+RXX, Onowaembo, Kec. Lahomi, Kabupaten Nias Barat, Sumatera Utara 22864";"Onowaembo, Kec. Lahomi, Kabupaten Nias Barat";SUMATERA UTARA;22864;Indonesia;081396847314;;;0.9996049;974.949.759;https://maps.google.com/?cid=0x0:0xaf6554fb541741af;
restaurant;Klub Malam;FAN;"2CQJ+22, Lasara Faga, Kec. Mandrehe Bar., Kabupaten Nias Barat, Sumatera Utara";"Kabupaten Nias Barat, Sumatera Utara";SUMATERA UTARA;;Indonesia;;;;1.038.479;974.308.606;https://maps.google.com/?cid=0x0:0xae5d88acdb0845f7;
restaurant;Brunch;LAPO TUPA 2;"2F5R+QX4, Onolimbu, Kec. Lahomi, Kabupaten Nias Barat, Sumatera Utara 22862";"Onolimbu, Kec. Lahomi, Kabupaten Nias Barat";SUMATERA UTARA;22862;Indonesia;082294082854;;;10.094.494;974.925.433;https://maps.google.com/?cid=0x0:0x7a8c8264d38856f4;
restaurant;restaurant;Sumatera Utara 22814;"Saombo, Kec. Gunungsitoli, Kota Gunungsitoli, Sumatera Utara";"Kota Gunungsitoli, Sumatera Utara";SUMATERA UTARA;;Indonesia;;;;12.897.758;976.188.016;https://maps.google.com/?cid=0x0:0x72677cb0cc3dbd55;
restaurant;Indonesia;RM PUTRI;"7JR9+595, Pelabuhan Lama G.Sitoli, Saombo, Kec. Gunungsitoli, Kota Gunungsitoli, Sumatera Utara 22814";"Pelabuhan Lama G.Sitoli, Saombo, Kec. Gunungsitoli, Kota Gunungsitoli";SUMATERA UTARA;22814;Indonesia;;;;12.903.753;976.184.769;https://maps.google.com/?cid=0x0:0xb3aa548575b7117d;
restaurant;Restoran;KITCHEN157;"7JQ9+JPG, Jl. Sirao, Saombo, Kec. Gunungsitoli, Kota Gunungsitoli, Sumatera Utara";"Kota Gunungsitoli, Sumatera Utara";SUMATERA UTARA;;Indonesia;082162139857;;;12.890.554;976.193.194;https://maps.google.com/?cid=0x0:0x680e7e09b2dae0af;
restaurant;Restoran;Restoran Aneka Rasa Mak Ita;"7JPC+WVQ, Ps. Gn. Sitoli, Kec. Gunungsitoli, Kota Gunungsitoli, Sumatera Utara";"Kota Gunungsitoli, Sumatera Utara";SUMATERA UTARA;;Indonesia;;;;12.873.381;976.222.218;https://maps.google.com/?cid=0x0:0xa9e3acaef0231558;
restaurant;Kedai Kopi;Cafe 57 / JANJI JIWA 738 / LIMAU;"Jl. Lagundri No.57, Saombo, Kec. Gunungsitoli, Kota Gunungsitoli, Sumatera Utara 22815";"Saombo, Kec. Gunungsitoli, Kota Gunungsitoli";SUMATERA UTARA;22815;Indonesia;08116511738;;;12.898.054;976.198.463;https://maps.google.com/?cid=0x0:0x2134072effea5877;
restaurant;Indonesia;MAMAYAM;"Pertokoan Jadi Jaya, Jl. Lagundri No.6, Saombo, Kec. Gunungsitoli, Kota Gunungsitoli, Sumatera Utara 22814";"Jl. Lagundri No.6, Saombo, Kec. Gunungsitoli, Kota Gunungsitoli";SUMATERA UTARA;22814;Indonesia;085388548788;;;12.892.914;976.196.232;https://maps.google.com/?cid=0x0:0x981c62edb3c6b634;
restaurant;Sesuai untuk keluarga;Rapi Seafood Restaurant;"7JQC+8MV, Jl. Kelapa, Ps. Gn. Sitoli, Kec. Gunungsitoli, Kota Gunungsitoli, Sumatera Utara";"Kota Gunungsitoli, Sumatera Utara";SUMATERA UTARA;;Indonesia;085359900289;;;128.837;976.216.873;https://maps.google.com/?cid=0x0:0xb38637e907492a8d;
restaurant;Restoran;Kedai Laris Manis;"Pasar Kota, Jl. Sirao Jl. Lagundri No.38, Saombo, Kec. Gunungsitoli, Kota Gunungsitoli, Sumatera Utara 22814";"Jl. Sirao Jl. Lagundri No.38, Saombo, Kec. Gunungsitoli, Kota Gunungsitoli";SUMATERA UTARA;22814;Indonesia;081376441216;;;12.899.187;97.619.445;https://maps.google.com/?cid=0x0:0xdf04df302ebd7df1;
restaurant;Restoran;Rumah Makan Pak Gaek;"Jl. Sirao No.69 B, Saombo, Kec. Gunungsitoli, Kota Gunungsitoli, Sumatera Utara 22814";"Saombo, Kec. Gunungsitoli, Kota Gunungsitoli";SUMATERA UTARA;22814;Indonesia;;;;12.901.944;976.175;https://maps.google.com/?cid=0x0:0x2dacc31bf19e9589;
restaurant;Jawa;Warung MIAMI;"Jl. Sirao No.139, Ps. Gn. Sitoli, Kec. Gunungsitoli, Kota Gunungsitoli, Sumatera Utara 22814";"Ps. Gn. Sitoli, Kec. Gunungsitoli, Kota Gunungsitoli";SUMATERA UTARA;22814;Indonesia;082274873993;;;12.896.152;97.619.115;https://maps.google.com/?cid=0x0:0x7fb47cfed0119a4;
restaurant;Kafe;Pujasera Yaahowu;"7JR9+4FH, Saombo, Kec. Gunungsitoli, Kota Gunungsitoli, Sumatera Utara 22814";"Saombo, Kec. Gunungsitoli, Kota Gunungsitoli";SUMATERA UTARA;22814;Indonesia;;;;12.903.113;976.187.172;https://maps.google.com/?cid=0x0:0xd006e1200983392f;
restaurant;Masakan Asia;M two Foodcourt;"7JQ9+PW7, Jl. Lagundri Pasar, Saombo, Kec. Gunungsitoli, Kota Gunungsitoli, Sumatera Utara 22814";"Jl. Lagundri Pasar, Saombo, Kec. Gunungsitoli, Kota Gunungsitoli";SUMATERA UTARA;22814;Indonesia;;;;12.893.514;976.197.676;https://maps.google.com/?cid=0x0:0x36101a8fefcd3f0c;
restaurant;Hidangan Laut;Rumah Makan Nasional;"Jl. Sirao No.87, Saombo, Kec. Gunungsitoli, Kota Gunungsitoli, Sumatera Utara 22814";"Saombo, Kec. Gunungsitoli, Kota Gunungsitoli";SUMATERA UTARA;22814;Indonesia;081361463601;;;1.290.176;976.176.323;https://maps.google.com/?cid=0x0:0x1d79ded07760249d;
restaurant;Padang;RM. SALERO BASAMO;"Jl. Tepi Pantai, Ps. Gn. Sitoli, Saombo, Kec. Gunungsitoli, Kota Gunungsitoli, Sumatera Utara 22814";"Ps. Gn. Sitoli, Saombo, Kec. Gunungsitoli, Kota Gunungsitoli";SUMATERA UTARA;22814;Indonesia;081267677776;;;12.905.106;976.180.518;https://maps.google.com/?cid=0x0:0xd4a1ff94b6334e1f;
restaurant;Kafe;Cafe The_Angkringan;"Jl. Sirao No.139, Ps. Gn. Sitoli, Kec. Gunungsitoli, Kota Gunungsitoli, Sumatera Utara 22814";"Ps. Gn. Sitoli, Kec. Gunungsitoli, Kota Gunungsitoli";SUMATERA UTARA;22814;Indonesia;;;;12.896.152;97.619.115;https://maps.google.com/?cid=0x0:0xa2bd7f246fe2d122;
restaurant;Kafe;Kopi Vespa Bung Joe;"7JR8+8Q5 Taman Yaahowu, Saombo, Kec. Gunungsitoli, Kota Gunungsitoli, Sumatera Utara";"Kota Gunungsitoli, Sumatera Utara";SUMATERA UTARA;;Indonesia;082213282329;;;12.907.733;976.169.925;https://maps.google.com/?cid=0x0:0x63aad9ec0edc1491;
restaurant;Indonesia;Kantin Luaha Bethany;"pasar ya'ahowu, Jl. Lagundri blok C nias lantai 2, Saombo, Gunungsitoli, Gunungsitoli City, North Sumatra 22814";"Jl. Lagundri blok C nias lantai 2, Saombo, Gunungsitoli, Gunungsitoli City";SUMATERA UTARA;22814;Indonesia;085277695006;;;12.898.046;976.196.241;https://maps.google.com/?cid=0x0:0x32c3bd0f4ea99b45;
restaurant;Brunch;Waroeng D'labrasso;"7JQ9+VVG, Jl. Lagundri, Saombo, Kec. Gunungsitoli, Kota Gunungsitoli, Sumatera Utara 22814";"Jl. Lagundri, Saombo, Kec. Gunungsitoli, Kota Gunungsitoli";SUMATERA UTARA;22814;Indonesia;;;;12.896.908;976.197.007;https://maps.google.com/?cid=0x0:0xd8e17218febcc993;
restaurant;Makanan Kecil;Warung Oke;"7JR9+2QJ, Saombo, Kec. Gunungsitoli, Kota Gunungsitoli, Sumatera Utara 22814";"Saombo, Kec. Gunungsitoli, Kota Gunungsitoli";SUMATERA UTARA;22814;Indonesia;085261171818;;;12.900.797;976.193.888;https://maps.google.com/?cid=0x0:0x338d7d528e6b505f;
restaurant;restaurant;Tundreheni Hill Hotel And Restaurant;"Jl. IR. Soekarno No.22, Saombo, Kec. Gunungsitoli, Kep. Nias, Sumatera Utara 22810";"Saombo, Kec. Gunungsitoli, Kep. Nias";SUMATERA UTARA;22810;Indonesia;085277688821;;;12.887.752;976.170.351;https://maps.google.com/?cid=0x0:0x24217d2c2ac61815;
restaurant;restaurant;Hotel Nasional;"Jl. Kelapa No.55, Ps. Gn. Sitoli, Kec. Gunungsitoli, Kota Gunungsitoli, Sumatera Utara 22815";"Ps. Gn. Sitoli, Kec. Gunungsitoli, Kota Gunungsitoli";SUMATERA UTARA;22815;Indonesia;08116585577;;;12.864.364;976.245.224;https://maps.google.com/?cid=0x0:0x2875c5a273fc311;
restaurant;restaurant;Hotel Dan Penginapan Sthree;"7JFM+72H, Ilir, Kec. Gunungsitoli, Kota Gunungsitoli, Sumatera Utara";"Kota Gunungsitoli, Sumatera Utara";SUMATERA UTARA;;Indonesia;0639323454;;;12.731.834;976.326.165;https://maps.google.com/?cid=0x0:0x7ec2828e78e03dc9;
restaurant;restaurant;Nias Palace Hotel;"Jl. Moh. Hatta No.42, Kel. Pasar, Kec. Gunungsitoli, Kota Gunungsitoli, Sumatera Utara";"Kota Gunungsitoli, Sumatera Utara";SUMATERA UTARA;;Indonesia;063921336;;;12.880.567;976.149.151;https://maps.google.com/?cid=0x0:0x685742aa9cde534b;
restaurant;restaurant;Libi Hotel;"Jl. Diponegoro No.103C, Ps. Gn. Sitoli, Kec. Gunungsitoli, Kota Gunungsitoli, Sumatera Utara";"Kota Gunungsitoli, Sumatera Utara";SUMATERA UTARA;;Indonesia;082364504422;;;12.872.759;976.226.138;https://maps.google.com/?cid=0x0:0x21b5893418c07b46;
restaurant;restaurant;Hotel Kaliki;"Jl. Yos Sudarso Ujung No.43, Ombolata Ulu, Kec. Gunungsitoli, Kota Gunungsitoli, Sumatera Utara 22811";"Ombolata Ulu, Kec. Gunungsitoli, Kota Gunungsitoli";SUMATERA UTARA;22811;Indonesia;085261924076;;;13.115.065;976.096.907;https://maps.google.com/?cid=0x0:0xd8a96c35f191556a;
restaurant;restaurant;Hotel Soliga;"Jl. Pangeran Diponegoro No.432, Miga, Kec. Gunungsitoli, Nias, Sumatera Utara 22815";"Miga, Kec. Gunungsitoli, Nias";SUMATERA UTARA;22815;Indonesia;081370291919;;;12.629.184;976.383.988;https://maps.google.com/?cid=0x0:0xe1786f17668a934a;
restaurant;restaurant;Mega Nasional Hotel  Restaurant;"Jalan Raya Pelud Binaka km.8 Desa Laraga Luaha Laraga Gunungsitoli Selatan, Luaha Laraga, Gunungsitoli, Kabupaten Nias, Sumatera Utara 22851";"Luaha Laraga, Gunungsitoli, Kabupaten Nias";SUMATERA UTARA;22851;Indonesia;082163336663;;;12.396.038;976.509.534;https://maps.google.com/?cid=0x0:0x7166cae3352b50d;
restaurant;restaurant;Wisma Sangehao;"Tab, Jl. Diponegoro No.391, Sifalaete Tabaloho, Kec. Gunungsitoli, Kota Gunungsitoli, Sumatera Utara 22811";"Jl. Diponegoro No.391, Sifalaete Tabaloho, Kec. Gunungsitoli, Kota Gunungsitoli";SUMATERA UTARA;22811;Indonesia;085297583255;;;12.715.684;976.343.797;https://maps.google.com/?cid=0x0:0x17b9ae5389d4d32b;
restaurant;restaurant;Dian Otomosi Hotel;"Jl. Yos Sudarso Ujung No.Km. 3, 2, Ombolata Ulu, Kec. Gunungsitoli, Kota Gunungsitoli, Sumatera Utara 22811";"2, Ombolata Ulu, Kec. Gunungsitoli, Kota Gunungsitoli";SUMATERA UTARA;22811;Indonesia;081370571116;;;13.137.076;976.071.069;https://maps.google.com/?cid=0x0:0xddaf487f8d4d296e;
restaurant;restaurant;Sumatera Utara 22862;"Kabupaten Nias Barat, Sumatera Utara";"Kabupaten Nias Barat, Sumatera Utara";SUMATERA UTARA;;Indonesia;;;;10.305.654;975.030.669;https://maps.google.com/?cid=0x0:0x343297d388925be1;
restaurant;Kedai Kopi;STAND KOPI AECHULA SMKN.2 ULU MORO'O;"3F2R+96J, Fadoro, Kec. Mandrehe, Kabupaten Nias Barat, Sumatera Utara";"Kabupaten Nias Barat, Sumatera Utara";SUMATERA UTARA;;Indonesia;;;;10.509.673;974.905.092;https://maps.google.com/?cid=0x0:0xfa0ca8dbba8f40f8;
restaurant;Betawi;TOZIRO RESTO;"WCW5+6WR, Unnamed Road, Sirombu, Sirombu, Kec. Sirombu, Kabupaten Nias Barat, Sumatera Utara 22863";"Unnamed Road, Sirombu, Sirombu, Kec. Sirombu, Kabupaten Nias Barat";SUMATERA UTARA;22863;Indonesia;;;;0.9456058;974.097.654;https://maps.google.com/?cid=0x0:0xb731fc51fa352be3;
restaurant;Kedai Kopi;"Loloana'a Daso, Moroö";"3C8F+VQ5, Jl. Fabaliwa - Sirombu, Hilisoromi, Kec. Moro'o, Kabupaten Nias Barat, Sumatera Utara 22862";"Jl. Fabaliwa - Sirombu, Hilisoromi, Kec. Moro'o, Kabupaten Nias Barat";SUMATERA UTARA;22862;Indonesia;082284972257;;;10.671.367;974.244.834;https://maps.google.com/?cid=0x0:0xc41dfcb2acc593e1;
restaurant;Kedai Kopi;CAFE KHODA FEFU;"3F66+PVV, Gn. Baru, Kec. Moro'o, Kabupaten Nias Barat, Sumatera Utara 22862";"Gn. Baru, Kec. Moro'o, Kabupaten Nias Barat";SUMATERA UTARA;22862;Indonesia;;;;10.618.633;974.621.767;https://maps.google.com/?cid=0x0:0x5cfe79fb390a747b;
restaurant;Bakso;RM PODO MORO;"Jl. Sibolga - Tarutung No.KM 11, Dolok Nauli, Kec. Adian Koting, Kabupaten Tapanuli Utara, Sumatera Utara 22461";"Dolok Nauli, Kec. Adian Koting, Kabupaten Tapanuli Utara";SUMATERA UTARA;22461;Indonesia;;;;19.387.338;98.932.156;https://maps.google.com/?cid=0x0:0x783641cefdf0136c;
restaurant;restaurant;RUMAH MAKAN KHAS NIAS;"DESA, SALO'O, Kec. Ulu Moro'o, Kabupaten Nias Barat, Sumatera Utara 22892";"SALO'O, Kec. Ulu Moro'o, Kabupaten Nias Barat";SUMATERA UTARA;22892;Indonesia;085270979839;;;10.113.263;975.416.979;https://maps.google.com/?cid=0x0:0xc6ec372adc14723;
restaurant;Restoran;AGK Nias Barat;"2F5Q+9PQ, Onowaembo, Kec. Lahomi, Kabupaten Nias Barat, Sumatera Utara 22862";"Onowaembo, Kec. Lahomi, Kabupaten Nias Barat";SUMATERA UTARA;22862;Indonesia;085262612884;;;10.084.538;974.893.629;https://maps.google.com/?cid=0x0:0x637ed306442b99d6;
restaurant;Rumah Makan;RDW Cafe  Resto;"XC29+F3V, Jl. Tetesua, Sirombu, Kec. Sirombu, Kabupaten Nias Barat, Sumatera Utara 22863";"Jl. Tetesua, Sirombu, Kec. Sirombu, Kabupaten Nias Barat";SUMATERA UTARA;22863;Indonesia;082261058112;;;0.9511843;974.180.483;https://maps.google.com/?cid=0x0:0x29248e86562d719a;
restaurant;Nasi;Rumah Makan Devon;"3HXH+XC9, Lolofaoso, Kec. Lolofitu Moi, Kabupaten Nias Barat, Sumatera Utara 22864";"Lolofaoso, Kec. Lolofitu Moi, Kabupaten Nias Barat";SUMATERA UTARA;22864;Indonesia;;;;10.999.164;975.786.186;https://maps.google.com/?cid=0x0:0xb9b0862b93fd3118;
restaurant;Rumah Makan;"RM.UD.ARMAN_Sedia B1, BIAWAK, dll.";"Dusun 3 Aramba_Ds, Fadoro, Kec. Mandrehe, Kabupaten Nias Barat, Sumatera Utara 22862";"Fadoro, Kec. Mandrehe, Kabupaten Nias Barat";SUMATERA UTARA;22862;Indonesia;085371938400;;;10.467.389;974.864.617;https://maps.google.com/?cid=0x0:0xd7d212a45508d81b;
restaurant;Rumah Makan;RM. RAMADHAN;"Desa lologolu kecamatan mandrehe kabupaten nias barat, Kota Gunungsitoli, Sumatera Utara 22862";Kota Gunungsitoli;SUMATERA UTARA;22862;Indonesia;085261794704;;;10.588.476;975.462.037;https://maps.google.com/?cid=0x0:0xaaeb8e65d07d99bf;
restaurant;Kafe;Pojok Kota;"2F2W+MMG, Onolimbu, Kec. Lahomi, Kabupaten Nias Barat, Sumatera Utara 22864";"Onolimbu, Kec. Lahomi, Kabupaten Nias Barat";SUMATERA UTARA;22864;Indonesia;085157358225;;;10.003.642;974.949.583;https://maps.google.com/?cid=0x0:0xc9e01e98b9e306e5;
restaurant;Rumah Makan;RM Podo Moro;"599H+V67, Mangkai Baru, Kec. Lima Puluh, Kabupaten Batu Bara, Sumatera Utara 21184";"Mangkai Baru, Kec. Lima Puluh, Kabupaten Batu Bara";SUMATERA UTARA;21184;Indonesia;;;;31.696.613;99.378.033;https://maps.google.com/?cid=0x0:0x1d86b1b679e6f63b;
restaurant;Kedai Kopi;"BEWEGALI, LOLOANA'A MOROÖ";"3C8G+MQF, Jl. Fabaliwa - Sirombu, Hilisoromi, Kec. Moro'o, Kabupaten Nias Barat, Sumatera Utara 22862";"Jl. Fabaliwa - Sirombu, Hilisoromi, Kec. Moro'o, Kabupaten Nias Barat";SUMATERA UTARA;22862;Indonesia;;;;10.666.764;974.269.143;https://maps.google.com/?cid=0x0:0x22d55ece4cddc2b;
restaurant;Restoran;Hai Kou Restaurant Wajir;"Jl. Kol. Sugiono No.14d, A U R, Kec. Medan Maimun, Kota Medan, Sumatera Utara 20212";"A U R, Kec. Medan Maimun, Kota Medan";SUMATERA UTARA;20212;Indonesia;081264312188;;;35.821.444;986.808.902;https://maps.google.com/?cid=0x0:0x7259f62a894d73b5;
restaurant;Brunch;RM. Muslim SUCI;"Hiliuso, Kec. Lolofitu Moi, Kabupaten Nias Barat, Sumatera Utara 22875";"Kec. Lolofitu Moi, Kabupaten Nias Barat";SUMATERA UTARA;22875;Indonesia;;;;10.901.355;975.767.397;https://maps.google.com/?cid=0x0:0x1adb37205eb5b943;
restaurant;Rumah Makan;Kedai Ina Listen;"2G6R+GPF, Bukit Tinggi, Kec. Ulu Moro'o, Kabupaten Nias Barat, Sumatera Utara 22862";"Bukit Tinggi, Kec. Ulu Moro'o, Kabupaten Nias Barat";SUMATERA UTARA;22862;Indonesia;;;;10.113.002;975.418.013;https://maps.google.com/?cid=0x0:0xa7ae7ce89995beb7;
restaurant;restaurant;Bebalaji lombu;"2H3F+VGV, Fadoro Ewo, Kec. Ulu Moro'o, Kabupaten Nias Selatan, Sumatera Utara 22864";"Fadoro Ewo, Kec. Ulu Moro'o, Kabupaten Nias Selatan";SUMATERA UTARA;22864;Indonesia;;;;10.054.228;975.738.905;https://maps.google.com/?cid=0x0:0x2abced45d541b59b;
restaurant;Rumah Makan;RM. Haga;"Jalan Onolimbu, Onolimbu, Kec. Lahomi, Kabupaten Nias Barat, Sumatera Utara 22864";"Onolimbu, Kec. Lahomi, Kabupaten Nias Barat";SUMATERA UTARA;22864;Indonesia;085373527222;;;10.014.637;974.943.025;https://maps.google.com/?cid=0x0:0x4fa41b0c506c97ef;
restaurant;Restoran;Rumah Makan Podo Moro Spesial Ikan Bakar;"848V+7MF, Jl. Medan - Pematang Siantar, Lubuk Raya, Kec. Padang Hulu, Kota Tebing Tinggi, Sumatera Utara 20631";"Jl. Medan - Pematang Siantar, Lubuk Raya, Kec. Padang Hulu, Kota Tebing Tinggi";SUMATERA UTARA;20631;Indonesia;;;;33.156.911;991.441.697;https://maps.google.com/?cid=0x0:0xf8362e0bd68e3d5a;
restaurant;Padang;Rumah Makan Podo Moro;"JPX8+8R2, Jl. Irian Barat Desa Sampali, Sampali, Kec. Percut Sei Tuan, Kabupaten Deli Serdang, Sumatera Utara 20371";"Jl. Irian Barat Desa Sampali, Sampali, Kec. Percut Sei Tuan, Kabupaten Deli Serdang";SUMATERA UTARA;20371;Indonesia;085360141000;;;36.482.543;987.170.029;https://maps.google.com/?cid=0x0:0xfb30bf642d3663fc;
restaurant;Kedai Kopi;Tafar;"Unnamed Road, Sidua Hili, Kec. Moro'o, Kabupaten Nias Barat, Sumatera Utara 22862";"Sidua Hili, Kec. Moro'o, Kabupaten Nias Barat";SUMATERA UTARA;22862;Indonesia;;;;10.662.344;974.228.123;https://maps.google.com/?cid=0x0:0x341dd1b0c878c236;
restaurant;Brunch;WARUNG HIERO;"XFWW+9MC, Jl. Raya Onolimbu - Lahomi, Onolimbu, Kec. Lahomi, Kabupaten Nias Barat, Sumatera Utara 22864";"Jl. Raya Onolimbu - Lahomi, Onolimbu, Kec. Lahomi, Kabupaten Nias Barat";SUMATERA UTARA;22864;Indonesia;;;;0.9959167;974.966.944;https://maps.google.com/?cid=0x0:0xaf45609e00605667;
restaurant;Brunch;LAPO TUPA 2;"2F5R+QX4, Onolimbu, Kec. Lahomi, Kabupaten Nias Barat, Sumatera Utara 22862";"Onolimbu, Kec. Lahomi, Kabupaten Nias Barat";SUMATERA UTARA;22862;Indonesia;082294082854;;;10.094.494;974.925.433;https://maps.google.com/?cid=0x0:0x7a8c8264d38856f4;
restaurant;Restoran;Moro Moro Restaurant;"Ruko The Element Jalur Sutera Kavling 25BC Blok C1, Banten 15320";"Kota Tangerang Selatan, Banten";SUMATERA UTARA;;Indonesia;085814770474;;;-62.317.792;1.066.595.137;https://maps.google.com/?cid=0x0:0xae7d4009d5b5de9a;
restaurant;Restoran;D'Moro - Resto  Cafe;"Jl. Danau Singkarak No.23 Blok E3, Tegallega, Bogor Baru, Kota Bogor, Jawa Barat 16129";"Tegallega, Bogor Baru, Kota Bogor";SUMATERA UTARA;16129;Indonesia;;;;-65.970.831;1.068.115.869;https://maps.google.com/?cid=0x0:0x323a97a986482007;
restaurant;Brunch;Lapo Tupa;"2FXR+PC3, Fadoro, Kec. Mandrehe Bar., Kabupaten Nias Barat, Sumatera Utara 22862";"Fadoro, Kec. Mandrehe Bar., Kabupaten Nias Barat";SUMATERA UTARA;22862;Indonesia;082294082854;;;10.492.504;974.910.349;https://maps.google.com/?cid=0x0:0xf4ce9b7e61a3479f;
restaurant;Dapur Umum;RM. Princes;"3F2R+259, Jl. Ir. Soekarno, Fadoro, Kec. Mandrehe, Kabupaten Nias Barat, Sumatera Utara 22862";"Jl. Ir. Soekarno, Fadoro, Kec. Mandrehe, Kabupaten Nias Barat";SUMATERA UTARA;22862;Indonesia;;;;10.500.475;974.904.693;https://maps.google.com/?cid=0x0:0x14926961008f8a3a;
restaurant;restaurant;Sirombu;"Sirombu, Kec. Sirombu, Kabupaten Nias Barat, Sumatera Utara";"Kabupaten Nias Barat, Sumatera Utara";SUMATERA UTARA;;Indonesia;;;;0.952816;97.418.171;https://maps.google.com/?cid=0x0:0x4039d80b2210500;
restaurant;Betawi;TOZIRO RESTO;"WCW5+6WR, Unnamed Road, Sirombu, Sirombu, Kec. Sirombu, Kabupaten Nias Barat, Sumatera Utara 22863";"Unnamed Road, Sirombu, Sirombu, Kec. Sirombu, Kabupaten Nias Barat";SUMATERA UTARA;22863;Indonesia;;;;0.9456058;974.097.654;https://maps.google.com/?cid=0x0:0xb731fc51fa352be3;
restaurant;Nasi;Warung Betawi Sirombu;"Jl. Pendidikan Tete Sua No.Desa, Togideu, Kec. Sirombu, Kabupaten Nias Barat, Sumatera Utara 22863";"Togideu, Kec. Sirombu, Kabupaten Nias Barat";SUMATERA UTARA;22863;Indonesia;081268473111;;;0.9616169;974.312.901;https://maps.google.com/?cid=0x0:0x4b38b336de8c589f;
restaurant;Mi;Warung Lamongan;"XC6G+2GR, Sirombu, Kec. Sirombu, Kabupaten Nias Barat, Sumatera Utara 22863";"Sirombu, Kec. Sirombu, Kabupaten Nias Barat";SUMATERA UTARA;22863;Indonesia;081376786354;;;0.9601173;974.262.595;https://maps.google.com/?cid=0x0:0x78b0b22ba00971d8;
restaurant;Kedai Kopi;CoFFee Rest Ama SeSiL;"Jalan Pelabuhan No. 10 Pasar, Sirombu, Kec. Sirombu, Kabupaten Nias Barat, Sumatera Utara 22863";"Sirombu, Kec. Sirombu, Kabupaten Nias Barat";SUMATERA UTARA;22863;Indonesia;082364069552;;;0.949361;974.125.379;https://maps.google.com/?cid=0x0:0xb5a78de92357e194;
restaurant;restaurant;Kec. Ulu Moro'o;"Kabupaten Nias Barat, Sumatera Utara";"Kabupaten Nias Barat, Sumatera Utara";SUMATERA UTARA;;Indonesia;;;;10.144.644;975.333.185;https://maps.google.com/?cid=0x0:0xcabc6a3673d44b2d;
restaurant;Kedai Kopi;STAND KOPI AECHULA SMKN.2 ULU MORO'O;"3F2R+96J, Fadoro, Kec. Mandrehe, Kabupaten Nias Barat, Sumatera Utara";"Kabupaten Nias Barat, Sumatera Utara";SUMATERA UTARA;;Indonesia;;;;10.509.673;974.905.092;https://maps.google.com/?cid=0x0:0xfa0ca8dbba8f40f8;
restaurant;Rumah Makan;Kedai Ina Listen;"2G6R+GPF, Bukit Tinggi, Kec. Ulu Moro'o, Kabupaten Nias Barat, Sumatera Utara 22862";"Bukit Tinggi, Kec. Ulu Moro'o, Kabupaten Nias Barat";SUMATERA UTARA;22862;Indonesia;;;;10.113.002;975.418.013;https://maps.google.com/?cid=0x0:0xa7ae7ce89995beb7;
restaurant;restaurant;Nince R. Gulo;"2H93+CRJ, Saloo, Kec. Ulu Moro'o, Kabupaten Nias Barat, Sumatera Utara";"Kabupaten Nias Barat, Sumatera Utara";SUMATERA UTARA;;Indonesia;;;;10.185.827;975.545.143;https://maps.google.com/?cid=0x0:0xd3eb62cff2b03892;
cafe;cafe;Jl. Lahömi;"Lologundre, Kec. Lahomi, Kabupaten Nias Barat, Sumatera Utara 22864";"Kec. Lahomi, Kabupaten Nias Barat";SUMATERA UTARA;22864;Indonesia;;;;0.986949;975.036.587;https://maps.google.com/?cid=0x0:0x6409da5bc64f976c;
cafe;Kedai Kopi;WARUNG KOPI SIFAOMA KHÓDA;"Jl. Raya Onolimbu - Lahomi, Onolimbu, Kec. Lahomi, Kabupaten Nias Barat, Sumatera Utara 22864";"Onolimbu, Kec. Lahomi, Kabupaten Nias Barat";SUMATERA UTARA;22864;Indonesia;081269423648;;;10.096.035;974.925.839;https://maps.google.com/?cid=0x0:0x905bb9d1b846ff31;
cafe;Mi;Kedai Mi Sop/Mi Goreng James;"XGJ3+QMQ, Bawadasi, Lologundre, Kec. Lahomi, Kabupaten Nias Barat, Sumatera Utara 22864";"Bawadasi, Lologundre, Kec. Lahomi, Kabupaten Nias Barat";SUMATERA UTARA;22864;Indonesia;;;;0.9819707;975.042.421;https://maps.google.com/?cid=0x0:0x126960d6a397021d;
cafe;Brunch;Lapo Kopi Cafe;"7JM9+73J, Jl. Pattimura, Mudik, Kec. Gunungsitoli, Kota Gunungsitoli, Sumatera Utara";"Kota Gunungsitoli, Sumatera Utara";SUMATERA UTARA;;Indonesia;;;;12.832.241;976.176.446;https://maps.google.com/?cid=0x0:0x494c03e78944b85e;
cafe;Kafe;Lafo-Lafo Faemaö;"3HH9+J83, Hilimbuasi, Kec. Lolofitu Moi, Kabupaten Nias Barat, Sumatera Utara";"Kabupaten Nias Barat, Sumatera Utara";SUMATERA UTARA;;Indonesia;081260087122;;;10.790.087;975.682.954;https://maps.google.com/?cid=0x0:0x398eacb25c376595;
cafe;Rumah Makan;Warung Sabata;"XGM2+9CP, Lologundre, Kec. Lahomi, Kabupaten Nias Barat, Sumatera Utara 22864";"Lologundre, Kec. Lahomi, Kabupaten Nias Barat";SUMATERA UTARA;22864;Indonesia;;;;0.9834538;975.010.713;https://maps.google.com/?cid=0x0:0xb67e35bdb4d1c73d;
cafe;Brunch;WARUNG HIERO;"XFWW+9MC, Jl. Raya Onolimbu - Lahomi, Onolimbu, Kec. Lahomi, Kabupaten Nias Barat, Sumatera Utara 22864";"Jl. Raya Onolimbu - Lahomi, Onolimbu, Kec. Lahomi, Kabupaten Nias Barat";SUMATERA UTARA;22864;Indonesia;;;;0.9959167;974.966.944;https://maps.google.com/?cid=0x0:0xaf45609e00605667;
cafe;Kedai Kopi;Free Wife;"XG89+GQC, Sisobaoho, Kec. Lahomi, Kabupaten Nias Barat, Sumatera Utara";"Kabupaten Nias Barat, Sumatera Utara";SUMATERA UTARA;;Indonesia;;;;0.9663172;975.193.902;https://maps.google.com/?cid=0x0:0xc8c41f8434d4bd1a;
cafe;Kedai Kopi;Cafe;"3F2G+HC3, Jl. Tetehosi, Tetehosi, Kec. Mandrehe, Kabupaten Nias Barat, Sumatera Utara 22862";"Jl. Tetehosi, Tetehosi, Kec. Mandrehe, Kabupaten Nias Barat";SUMATERA UTARA;22862;Indonesia;;;;10.513.814;97.476.043;https://maps.google.com/?cid=0x0:0x9b47f7565554804a;
cafe;cafe;Sumatera Utara 22862;"Kabupaten Nias Barat, Sumatera Utara";"Kabupaten Nias Barat, Sumatera Utara";SUMATERA UTARA;;Indonesia;;;;10.305.654;975.030.669;https://maps.google.com/?cid=0x0:0x343297d388925be1;
cafe;Kafe;Abam's Cafe;"2FXR+R77, Fadoro, Kec. Mandrehe, Kabupaten Nias Barat, Sumatera Utara 22862";"Fadoro, Kec. Mandrehe, Kabupaten Nias Barat";SUMATERA UTARA;22862;Indonesia;;;;10.495.136;974.906.437;https://maps.google.com/?cid=0x0:0x2762fb56edc5ffdb;
cafe;Kedai Kopi;STAND KOPI AECHULA SMKN.2 ULU MORO'O;"3F2R+96J, Fadoro, Kec. Mandrehe, Kabupaten Nias Barat, Sumatera Utara";"Kabupaten Nias Barat, Sumatera Utara";SUMATERA UTARA;;Indonesia;;;;10.509.673;974.905.092;https://maps.google.com/?cid=0x0:0xfa0ca8dbba8f40f8;
cafe;Kedai Kopi;Coffee Saitö;"Jl. Raya Onolimbu - Lahomi, Simaeasi, Kec. Mandrehe, Kabupaten Nias Barat, Sumatera Utara 22862";"Simaeasi, Kec. Mandrehe, Kabupaten Nias Barat";SUMATERA UTARA;22862;Indonesia;082267386171;;;10.284.432;974.849.966;https://maps.google.com/?cid=0x0:0x80a5bc7ce397a21d;
cafe;Kedai Kopi;CAFE KHODA FEFU;"3F66+PVV, Gn. Baru, Kec. Moro'o, Kabupaten Nias Barat, Sumatera Utara 22862";"Gn. Baru, Kec. Moro'o, Kabupaten Nias Barat";SUMATERA UTARA;22862;Indonesia;;;;10.618.633;974.621.767;https://maps.google.com/?cid=0x0:0x5cfe79fb390a747b;
cafe;Kedai Kopi;Kedai Niha Khoda;"3G4W+2X6, Lologulo, Kec. Mandrehe, Kabupaten Nias Barat, Sumatera Utara";"Kabupaten Nias Barat, Sumatera Utara";SUMATERA UTARA;;Indonesia;082246729119;;;10.550.444;975.473.908;https://maps.google.com/?cid=0x0:0x36f0bd3f5cc59428;
cafe;Kedai Kopi;Warung Angel;"2FC6+GM8, Lolohia Mandrehe Bar., Sisobambowo, Kec. Mandrehe, Kabupaten Nias Barat, Sumatera Utara 22862";"Lolohia Mandrehe Bar., Sisobambowo, Kec. Mandrehe, Kabupaten Nias Barat";SUMATERA UTARA;22862;Indonesia;;;;10.212.956;974.617.035;https://maps.google.com/?cid=0x0:0xde8e9615a0ac873d;
cafe;Rumah Makan;UD. Citra;"2FXR+W3G, Fadoro, Kec. Mandrehe, Kabupaten Nias Barat, Sumatera Utara 22862";"Fadoro, Kec. Mandrehe, Kabupaten Nias Barat";SUMATERA UTARA;22862;Indonesia;081269124175;;;10.498.226;974.902.018;https://maps.google.com/?cid=0x0:0x5427dd8bcfba8fc3;
cafe;Toko umum;UD. PUTRA JAYA;"3HH9+639, Jl. Raya Tuwuna, Tuwuna, Kec. Mandrehe, Kabupaten Nias Barat, Sumatera Utara 22875";"Jl. Raya Tuwuna, Tuwuna, Kec. Mandrehe, Kabupaten Nias Barat";SUMATERA UTARA;22875;Indonesia;;;;10.780.449;975.677.242;https://maps.google.com/?cid=0x0:0x21c90c24f4512d9b;
cafe;Dapur Umum;RM. Princes;"3F2R+259, Jl. Ir. Soekarno, Fadoro, Kec. Mandrehe, Kabupaten Nias Barat, Sumatera Utara 22862";"Jl. Ir. Soekarno, Fadoro, Kec. Mandrehe, Kabupaten Nias Barat";SUMATERA UTARA;22862;Indonesia;;;;10.500.475;974.904.693;https://maps.google.com/?cid=0x0:0x14926961008f8a3a;
cafe;Rumah Makan;RM. RAMADHAN;"Desa lologolu kecamatan mandrehe kabupaten nias barat, Kota Gunungsitoli, Sumatera Utara 22862";Kota Gunungsitoli;SUMATERA UTARA;22862;Indonesia;085261794704;;;10.588.476;975.462.037;https://maps.google.com/?cid=0x0:0xaaeb8e65d07d99bf;
cafe;Brunch;Lapo Tupa;"2FXR+PC3, Fadoro, Kec. Mandrehe Bar., Kabupaten Nias Barat, Sumatera Utara 22862";"Fadoro, Kec. Mandrehe Bar., Kabupaten Nias Barat";SUMATERA UTARA;22862;Indonesia;082294082854;;;10.492.504;974.910.349;https://maps.google.com/?cid=0x0:0xf4ce9b7e61a3479f;
cafe;Kedai Kopi;CK (Coffee Khoda);"3G3X+824, Jl. Lölögolu, Lolozirugi, Kec. Mandrehe, Kabupaten Nias Barat, Sumatera Utara 22852";"Jl. Lölögolu, Lolozirugi, Kec. Mandrehe, Kabupaten Nias Barat";SUMATERA UTARA;22852;Indonesia;082370197788;;;10.533.954;975.476.418;https://maps.google.com/?cid=0x0:0x2666969e4d3060f8;
cafe;Rumah Makan;RUMAH MAKAN YULLIA;"3F2R+26W, Fadoro, Kec. Mandrehe, Kabupaten Nias Barat, Sumatera Utara 22862";"Fadoro, Kec. Mandrehe, Kabupaten Nias Barat";SUMATERA UTARA;22862;Indonesia;082364199004;;;10.501.141;97.490.569;https://maps.google.com/?cid=0x0:0xb14070be4ca751a8;
cafe;Restoran;AGK Nias Barat;"2F5Q+9PQ, Onowaembo, Kec. Lahomi, Kabupaten Nias Barat, Sumatera Utara 22862";"Onowaembo, Kec. Lahomi, Kabupaten Nias Barat";SUMATERA UTARA;22862;Indonesia;085262612884;;;10.084.538;974.893.629;https://maps.google.com/?cid=0x0:0x637ed306442b99d6;
cafe;Rumah Makan;Darni;"3GCM+84Q, Tuhemberua, Kec. Mandrehe, Kabupaten Nias Barat, Sumatera Utara";"Kabupaten Nias Barat, Sumatera Utara";SUMATERA UTARA;;Indonesia;;;;1.070.848;975.328.476;https://maps.google.com/?cid=0x0:0x14f92be5a943a272;
cafe;Kedai Kopi;Cafe dan percetakan abg;"Onolimbu, Kec. Lahomi, Kabupaten Nias Barat, Sumatera Utara 22862";"Kec. Lahomi, Kabupaten Nias Barat";SUMATERA UTARA;22862;Indonesia;082140219243;;;10.095.587;974.925.099;https://maps.google.com/?cid=0x0:0x30ce7a28b5175025;
cafe;Brunch;RM. Novi;"3G77+2GJ, Doli Doli, Kec. Mandrehe, Kabupaten Nias Barat, Sumatera Utara 22862";"Doli Doli, Kec. Mandrehe, Kabupaten Nias Barat";SUMATERA UTARA;22862;Indonesia;;;;10.625.875;975.137.656;https://maps.google.com/?cid=0x0:0x373c4174c037353;
cafe;Toko bahan makanan;Kantin A. Uru Gulo;"3G86+VG6, Jl. Dolidoli, Fadoro, Kec. Mandrehe, Kabupaten Nias Barat, Sumatera Utara 22814";"Jl. Dolidoli, Fadoro, Kec. Mandrehe, Kabupaten Nias Barat";SUMATERA UTARA;22814;Indonesia;;;;10.671.658;975.112.621;https://maps.google.com/?cid=0x0:0xce97a5e9940f6098;
cafe;cafe;Kec. Mandrehe Bar.;"Kabupaten Nias Barat, Sumatera Utara";"Kabupaten Nias Barat, Sumatera Utara";SUMATERA UTARA;;Indonesia;;;;0.998808;974.182.241;https://maps.google.com/?cid=0x0:0x7de90688f484314d;
cafe;Kedai Kopi;Tafar;"Unnamed Road, Sidua Hili, Kec. Moro'o, Kabupaten Nias Barat, Sumatera Utara 22862";"Sidua Hili, Kec. Moro'o, Kabupaten Nias Barat";SUMATERA UTARA;22862;Indonesia;;;;10.662.344;974.228.123;https://maps.google.com/?cid=0x0:0x341dd1b0c878c236;
cafe;Kedai Kopi;Fazaeli Zebua;"2CMH+P8M, Sisobandrao, Kec. Mandrehe Bar., Kabupaten Nias Barat, Sumatera Utara";"Kabupaten Nias Barat, Sumatera Utara";SUMATERA UTARA;;Indonesia;;;;10.343.481;974.283.008;https://maps.google.com/?cid=0x0:0x3903c5a2242f6e2f;
cafe;Kedai Kopi;Lafo Kering Mati;"2CHR+88P, Mazingo, Kec. Mandrehe Bar., Kabupaten Nias Barat, Sumatera Utara";"Kabupaten Nias Barat, Sumatera Utara";SUMATERA UTARA;;Indonesia;;;;10.283.392;974.408.397;https://maps.google.com/?cid=0x0:0xaed634b2e374ec5d;
cafe;Kedai Kopi;Rumah Silver Zebua;"2CPH+MQ6, Sisobandrao, Kec. Mandrehe Bar., Kabupaten Nias Barat, Sumatera Utara";"Kabupaten Nias Barat, Sumatera Utara";SUMATERA UTARA;;Indonesia;;;;10.366.608;974.293.817;https://maps.google.com/?cid=0x0:0xcea652c7700b5334;
cafe;Rumah Makan;"RM.UD.ARMAN_Sedia B1, BIAWAK, dll.";"Dusun 3 Aramba_Ds, Fadoro, Kec. Mandrehe, Kabupaten Nias Barat, Sumatera Utara 22862";"Fadoro, Kec. Mandrehe, Kabupaten Nias Barat";SUMATERA UTARA;22862;Indonesia;085371938400;;;10.467.389;974.864.617;https://maps.google.com/?cid=0x0:0xd7d212a45508d81b;
cafe;Rumah Makan;UD. SAHABAT RASA;"Onolimbu, Kec. Lahomi, Kabupaten Nias Barat, Sumatera Utara 22864";"Kec. Lahomi, Kabupaten Nias Barat";SUMATERA UTARA;22864;Indonesia;;;;10.089.469;97.492.823;https://maps.google.com/?cid=0x0:0xe4056b6ea1cf38f;
cafe;Mi;Warung mie delon;"Jl. Ir. Soekarno No.2, Fadoro, Kec. Mandrehe, Kabupaten Nias Barat, Sumatera Utara 22862";"Fadoro, Kec. Mandrehe, Kabupaten Nias Barat";SUMATERA UTARA;22862;Indonesia;;;;10.502.242;974.907.171;https://maps.google.com/?cid=0x0:0xf04b6ed1fda9113f;
cafe;cafe;Sumatera Utara 22867;"Kabupaten Nias Selatan, Sumatera Utara";"Kabupaten Nias Selatan, Sumatera Utara";SUMATERA UTARA;;Indonesia;;;;0.9212063;976.710.889;https://maps.google.com/?cid=0x0:0xe28ccee9e4064a40;
cafe;Kafe;Abam's Cafe;"2FXR+R77, Fadoro, Kec. Mandrehe, Kabupaten Nias Barat, Sumatera Utara 22862";"Fadoro, Kec. Mandrehe, Kabupaten Nias Barat";SUMATERA UTARA;22862;Indonesia;;;;10.495.136;974.906.437;https://maps.google.com/?cid=0x0:0x2762fb56edc5ffdb;
cafe;Kedai Kopi;SIMANE COFEE_DA;"WJ69+26F, Jl. Soliga, Soledua, Kec. Lalowau, Kabupaten Nias Selatan, Sumatera Utara 22864";"Jl. Soliga, Soledua, Kec. Lalowau, Kabupaten Nias Selatan";SUMATERA UTARA;22864;Indonesia;081221941426;;;0.9100621;976.180.323;https://maps.google.com/?cid=0x0:0x92d0f65e17320746;
cafe;Kedai Kopi;STAND KOPI AECHULA SMKN.2 ULU MORO'O;"3F2R+96J, Fadoro, Kec. Mandrehe, Kabupaten Nias Barat, Sumatera Utara";"Kabupaten Nias Barat, Sumatera Utara";SUMATERA UTARA;;Indonesia;;;;10.509.673;974.905.092;https://maps.google.com/?cid=0x0:0xfa0ca8dbba8f40f8;
cafe;Kedai Kopi;Warung Angel;"2FC6+GM8, Lolohia Mandrehe Bar., Sisobambowo, Kec. Mandrehe, Kabupaten Nias Barat, Sumatera Utara 22862";"Lolohia Mandrehe Bar., Sisobambowo, Kec. Mandrehe, Kabupaten Nias Barat";SUMATERA UTARA;22862;Indonesia;;;;10.212.956;974.617.035;https://maps.google.com/?cid=0x0:0xde8e9615a0ac873d;
cafe;Kafe;Gunung Sifatuoniha Albertcpd;"WJ86+5W9, Soledua, Kec. Hilimegai, Kabupaten Nias Selatan, Sumatera Utara 22864";"Soledua, Kec. Hilimegai, Kabupaten Nias Selatan";SUMATERA UTARA;22864;Indonesia;085270679835;;;0.9154231;976.123.667;https://maps.google.com/?cid=0x0:0x36050b8c5c9da7e9;
cafe;Kedai Kopi;Kedai Paci Ome;"WMHP+4RQ, Marao, Kecamatan Ulunoyo, Kabupaten Nias Selatan, Sumatera Utara 22861";"Marao, Kecamatan Ulunoyo, Kabupaten Nias Selatan";SUMATERA UTARA;22861;Indonesia;082366750657;;;0.9278328;976.871.151;https://maps.google.com/?cid=0x0:0xd3457171b8ae4e72;
cafe;Rumah Makan;Amarawati Nduru;"VMHM+WJX, kecamatan, Orahili Ulunoyo, Kecamatan Ulunoyo, Kabupaten Nias Selatan, Sumatera Utara 22867";"kecamatan, Orahili Ulunoyo, Kecamatan Ulunoyo, Kabupaten Nias Selatan";SUMATERA UTARA;22867;Indonesia;;;;0.8798742;976.841.047;https://maps.google.com/?cid=0x0:0xb219a9e2e3bd297f;
cafe;Restoran;Kedai A/I. Rindu Laia;"WJJQ+JW7 Caritas Sogawunasi, Hiliwaebu, Kec. Lolomatua, Kabupaten Nias Selatan, Sumatera Utara 22867";"Hiliwaebu, Kec. Lolomatua, Kabupaten Nias Selatan";SUMATERA UTARA;22867;Indonesia;;;;0.9315284;976.397.963;https://maps.google.com/?cid=0x0:0x4184ebb0774d5e83;
cafe;Kedai Kopi;COFFE_D@;"VHWH+PW7, Lolowau, Kec. Lalowau, Kabupaten Nias Selatan, Sumatera Utara 22864";"Lolowau, Kec. Lalowau, Kabupaten Nias Selatan";SUMATERA UTARA;22864;Indonesia;082288241719;;;0.8982008;9.758.061;https://maps.google.com/?cid=0x0:0x2f60c77ee1508760;
cafe;Restoran;Soledua dua;"WJJ6+JCX, Lauso, Soledua, Kabupaten Nias Selatan, Sumatera Utara 22864";"Lauso, Soledua, Kabupaten Nias Selatan";SUMATERA UTARA;22864;Indonesia;081362746194;;;0.9316142;97.611.099;https://maps.google.com/?cid=0x0:0xb38d2d7cae90806d;
cafe;Menara komunikasi;Tower Lölömatua;"WJWP+3W5, Hiliotalua, Kec. Lolomatua, Kabupaten Nias Selatan, Sumatera Utara 22867";"Hiliotalua, Kec. Lolomatua, Kabupaten Nias Selatan";SUMATERA UTARA;22867;Indonesia;;;;0.9451304;976.373.538;https://maps.google.com/?cid=0x0:0xc1330a302981e3d9;
cafe;Indonesia;SOLEDUA SATU;"WJG7+X36, Lauso, Kec. Lalowau, Kabupaten Nias Selatan, Sumatera Utara 22864";"Lauso, Kec. Lalowau, Kabupaten Nias Selatan";SUMATERA UTARA;22864;Indonesia;;;;0.9274054;976.126.289;https://maps.google.com/?cid=0x0:0xf99210e9fb5d1da;
cafe;Toko bahan makanan;Jualan Indomie;"Jalan Solotu Desa, Sukamaju, Kecamatan Ulunoyo, Kabupaten Nias Selatan, Sumatera Utara 22867";"Sukamaju, Kecamatan Ulunoyo, Kabupaten Nias Selatan";SUMATERA UTARA;22867;Indonesia;;;;0.9212063;976.710.889;https://maps.google.com/?cid=0x0:0xbbec44821c6c9311;
cafe;Kolam Renang;OSE SOLOMOITÖ LIMA BERSAUDARA;"Togizita Satu, Kec. Hilimegai, Kabupaten Nias Selatan, Sumatera Utara 22864";"Kec. Hilimegai, Kabupaten Nias Selatan";SUMATERA UTARA;22864;Indonesia;081360920977;;;0.9162744;976.184.235;https://maps.google.com/?cid=0x0:0xf0234db519dcbd99;
cafe;Kedai Kopi;Pak halawa;"WJ59+R6V, Sisarahili Oyo, Kec. Onohazumba, Kabupaten Nias Selatan, Sumatera Utara 22864";"Sisarahili Oyo, Kec. Onohazumba, Kabupaten Nias Selatan";SUMATERA UTARA;22864;Indonesia;;;;0.909614;976.180.405;https://maps.google.com/?cid=0x0:0x5534aad25d64989c;
cafe;Gereja;DAO.DAO SALO.O INA TERINGA NDURU;"VJ7R+63R, Unnamed Road, Hiliwaebu, Kecamatan Ulunoyo, Kabupaten Nias Selatan, Sumatera Utara 22864";"Unnamed Road, Hiliwaebu, Kecamatan Ulunoyo, Kabupaten Nias Selatan";SUMATERA UTARA;22864;Indonesia;081317219517;;;0.8631213;976.401.426;https://maps.google.com/?cid=0x0:0x8c43d486a355bae3;
cafe;Kedai Kopi;Warkop Refider Halawa;"Tuhegafoa, Kec. Lalowau, Kabupaten Nias Selatan, Sumatera Utara 22864";"Kec. Lalowau, Kabupaten Nias Selatan";SUMATERA UTARA;22864;Indonesia;081396119884;;;0.8748603;975.822.198;https://maps.google.com/?cid=0x0:0x3412c6a495970837;
cafe;Kedai Kopi;Menrabic Coffee Indonesia;"Jl. Bahagia By Pass No.11 / 35, Sudirejo I, Kec. Medan Kota, Kota Medan, Sumatera Utara 20226";"Sudirejo I, Kec. Medan Kota, Kota Medan";SUMATERA UTARA;20226;Indonesia;081260001772;;;35.583.579;987.030.793;https://maps.google.com/?cid=0x0:0xdbe2261611b7439d;
cafe;cafe;UD.Jesra;"VHWJ+R5, Lolowau, Kec. Lalowau, Kabupaten Nias Selatan, Sumatera Utara";"Kabupaten Nias Selatan, Sumatera Utara";SUMATERA UTARA;;Indonesia;;;;0.8974063;97.580.841;https://maps.google.com/?cid=0x0:0x55adee0b18f69458;
cafe;Kedai Kopi;Cafe;"3F2G+HC3, Jl. Tetehosi, Tetehosi, Kec. Mandrehe, Kabupaten Nias Barat, Sumatera Utara 22862";"Jl. Tetehosi, Tetehosi, Kec. Mandrehe, Kabupaten Nias Barat";SUMATERA UTARA;22862;Indonesia;;;;10.513.814;97.476.043;https://maps.google.com/?cid=0x0:0x9b47f7565554804a;
cafe;Rumah Makan;Woroeng mie gomak nias;"Jl.desa, lauso atas balai, desa lauso, Kota Gunungsitoli, Sumatera Utara 22864";"lauso atas balai, desa lauso, Kota Gunungsitoli";SUMATERA UTARA;22864;Indonesia;081328102241;;;0.9633584;975.805.553;https://maps.google.com/?cid=0x0:0x8755018ec1526316;
cafe;cafe;Kec. Mandrehe Bar.;"Kabupaten Nias Barat, Sumatera Utara";"Kabupaten Nias Barat, Sumatera Utara";SUMATERA UTARA;;Indonesia;;;;0.998808;974.182.241;https://maps.google.com/?cid=0x0:0x7de90688f484314d;
cafe;Kedai Kopi;CAFE KHODA FEFU;"3F66+PVV, Gn. Baru, Kec. Moro'o, Kabupaten Nias Barat, Sumatera Utara 22862";"Gn. Baru, Kec. Moro'o, Kabupaten Nias Barat";SUMATERA UTARA;22862;Indonesia;;;;10.618.633;974.621.767;https://maps.google.com/?cid=0x0:0x5cfe79fb390a747b;
cafe;Mi;Kedai Mie Febri Mandrehe;"2FXR+P69, Fadoro, Kec. Mandrehe, Kabupaten Nias Barat, Sumatera Utara 22862";"Fadoro, Kec. Mandrehe, Kabupaten Nias Barat";SUMATERA UTARA;22862;Indonesia;;;;10.492.907;974.906.062;https://maps.google.com/?cid=0x0:0xbd8128a4b85a6a20;
cafe;Kedai Kopi;Coffee Saitö;"Jl. Raya Onolimbu - Lahomi, Simaeasi, Kec. Mandrehe, Kabupaten Nias Barat, Sumatera Utara 22862";"Simaeasi, Kec. Mandrehe, Kabupaten Nias Barat";SUMATERA UTARA;22862;Indonesia;082267386171;;;10.284.432;974.849.966;https://maps.google.com/?cid=0x0:0x80a5bc7ce397a21d;
cafe;Kedai Kopi;Fazaeli Zebua;"2CMH+P8M, Sisobandrao, Kec. Mandrehe Bar., Kabupaten Nias Barat, Sumatera Utara";"Kabupaten Nias Barat, Sumatera Utara";SUMATERA UTARA;;Indonesia;;;;10.343.481;974.283.008;https://maps.google.com/?cid=0x0:0x3903c5a2242f6e2f;
cafe;Kedai Kopi;Lafo Kering Mati;"2CHR+88P, Mazingo, Kec. Mandrehe Bar., Kabupaten Nias Barat, Sumatera Utara";"Kabupaten Nias Barat, Sumatera Utara";SUMATERA UTARA;;Indonesia;;;;10.283.392;974.408.397;https://maps.google.com/?cid=0x0:0xaed634b2e374ec5d;
cafe;Rumah Makan;UD. SAHABAT RASA;"Onolimbu, Kec. Lahomi, Kabupaten Nias Barat, Sumatera Utara 22864";"Kec. Lahomi, Kabupaten Nias Barat";SUMATERA UTARA;22864;Indonesia;;;;10.089.469;97.492.823;https://maps.google.com/?cid=0x0:0xe4056b6ea1cf38f;
cafe;cafe;Sumatera Utara 22812;"Kabupaten Nias Barat, Sumatera Utara";"Kabupaten Nias Barat, Sumatera Utara";SUMATERA UTARA;;Indonesia;;;;10.164.701;974.435.441;https://maps.google.com/?cid=0x0:0xd11190b65d8d63eb;
cafe;Kedai Kopi;Coffee Saitö;"Jl. Raya Onolimbu - Lahomi, Simaeasi, Kec. Mandrehe, Kabupaten Nias Barat, Sumatera Utara 22862";"Simaeasi, Kec. Mandrehe, Kabupaten Nias Barat";SUMATERA UTARA;22862;Indonesia;082267386171;;;10.284.432;974.849.966;https://maps.google.com/?cid=0x0:0x80a5bc7ce397a21d;
cafe;Kedai Kopi;Cafe;"3F2G+HC3, Jl. Tetehosi, Tetehosi, Kec. Mandrehe, Kabupaten Nias Barat, Sumatera Utara 22862";"Jl. Tetehosi, Tetehosi, Kec. Mandrehe, Kabupaten Nias Barat";SUMATERA UTARA;22862;Indonesia;;;;10.513.814;97.476.043;https://maps.google.com/?cid=0x0:0x9b47f7565554804a;
cafe;Kedai Kopi;Warung Angel;"2FC6+GM8, Lolohia Mandrehe Bar., Sisobambowo, Kec. Mandrehe, Kabupaten Nias Barat, Sumatera Utara 22862";"Lolohia Mandrehe Bar., Sisobambowo, Kec. Mandrehe, Kabupaten Nias Barat";SUMATERA UTARA;22862;Indonesia;;;;10.212.956;974.617.035;https://maps.google.com/?cid=0x0:0xde8e9615a0ac873d;
cafe;Kedai Kopi;STAND KOPI AECHULA SMKN.2 ULU MORO'O;"3F2R+96J, Fadoro, Kec. Mandrehe, Kabupaten Nias Barat, Sumatera Utara";"Kabupaten Nias Barat, Sumatera Utara";SUMATERA UTARA;;Indonesia;;;;10.509.673;974.905.092;https://maps.google.com/?cid=0x0:0xfa0ca8dbba8f40f8;
cafe;Kafe;Abam's Cafe;"2FXR+R77, Fadoro, Kec. Mandrehe, Kabupaten Nias Barat, Sumatera Utara 22862";"Fadoro, Kec. Mandrehe, Kabupaten Nias Barat";SUMATERA UTARA;22862;Indonesia;;;;10.495.136;974.906.437;https://maps.google.com/?cid=0x0:0x2762fb56edc5ffdb;
cafe;Kedai Kopi;CoFFee Rest Ama SeSiL;"Jalan Pelabuhan No. 10 Pasar, Sirombu, Kec. Sirombu, Kabupaten Nias Barat, Sumatera Utara 22863";"Sirombu, Kec. Sirombu, Kabupaten Nias Barat";SUMATERA UTARA;22863;Indonesia;082364069552;;;0.949361;974.125.379;https://maps.google.com/?cid=0x0:0xb5a78de92357e194;
cafe;Kedai Kopi;Fazaeli Zebua;"2CMH+P8M, Sisobandrao, Kec. Mandrehe Bar., Kabupaten Nias Barat, Sumatera Utara";"Kabupaten Nias Barat, Sumatera Utara";SUMATERA UTARA;;Indonesia;;;;10.343.481;974.283.008;https://maps.google.com/?cid=0x0:0x3903c5a2242f6e2f;
cafe;Rumah Makan;Kantin Babe DITA;"2CQM+63F, Lasara Faga, Kec. Mandrehe Bar., Kabupaten Nias Barat, Sumatera Utara";"Kabupaten Nias Barat, Sumatera Utara";SUMATERA UTARA;;Indonesia;;;;1.038.278;97.432.888;https://maps.google.com/?cid=0x0:0xcfc7e260b01ef855;
cafe;Rumah Makan;RDW Cafe  Resto;"XC29+F3V, Jl. Tetesua, Sirombu, Kec. Sirombu, Kabupaten Nias Barat, Sumatera Utara 22863";"Jl. Tetesua, Sirombu, Kec. Sirombu, Kabupaten Nias Barat";SUMATERA UTARA;22863;Indonesia;082261058112;;;0.9511843;974.180.483;https://maps.google.com/?cid=0x0:0x29248e86562d719a;
cafe;Kedai Kopi;Lafo Kering Mati;"2CHR+88P, Mazingo, Kec. Mandrehe Bar., Kabupaten Nias Barat, Sumatera Utara";"Kabupaten Nias Barat, Sumatera Utara";SUMATERA UTARA;;Indonesia;;;;10.283.392;974.408.397;https://maps.google.com/?cid=0x0:0xaed634b2e374ec5d;
cafe;Toko umum;UD. PUTRA JAYA;"3HH9+639, Jl. Raya Tuwuna, Tuwuna, Kec. Mandrehe, Kabupaten Nias Barat, Sumatera Utara 22875";"Jl. Raya Tuwuna, Tuwuna, Kec. Mandrehe, Kabupaten Nias Barat";SUMATERA UTARA;22875;Indonesia;;;;10.780.449;975.677.242;https://maps.google.com/?cid=0x0:0x21c90c24f4512d9b;
cafe;Kedai Kopi;Rumah Manahati Zebua;"2CMH+P8M, Sisobandrao, Kec. Mandrehe Bar., Kabupaten Nias Barat, Sumatera Utara";"Kabupaten Nias Barat, Sumatera Utara";SUMATERA UTARA;;Indonesia;;;;10.342.767;974.283.668;https://maps.google.com/?cid=0x0:0x301439c92b46ba6c;
cafe;Rumah Makan;UD. Citra;"2FXR+W3G, Fadoro, Kec. Mandrehe, Kabupaten Nias Barat, Sumatera Utara 22862";"Fadoro, Kec. Mandrehe, Kabupaten Nias Barat";SUMATERA UTARA;22862;Indonesia;081269124175;;;10.498.226;974.902.018;https://maps.google.com/?cid=0x0:0x5427dd8bcfba8fc3;
cafe;Kedai Kopi;CAFE KHODA FEFU;"3F66+PVV, Gn. Baru, Kec. Moro'o, Kabupaten Nias Barat, Sumatera Utara 22862";"Gn. Baru, Kec. Moro'o, Kabupaten Nias Barat";SUMATERA UTARA;22862;Indonesia;;;;10.618.633;974.621.767;https://maps.google.com/?cid=0x0:0x5cfe79fb390a747b;
cafe;Restoran;XieXieBoba_Sirombu;"XC8J+4PF, Jl. Fabaliwa - Sirombu, Togideu, Kec. Sirombu, Kabupaten Nias Barat, Sumatera Utara 22863";"Jl. Fabaliwa - Sirombu, Togideu, Kec. Sirombu, Kabupaten Nias Barat";SUMATERA UTARA;22863;Indonesia;085358588407;;;0.9653048;97.431.797;https://maps.google.com/?cid=0x0:0x2cabd89cd6179295;
cafe;Kedai Kopi;Kedai Niha Khoda;"3G4W+2X6, Lologulo, Kec. Mandrehe, Kabupaten Nias Barat, Sumatera Utara";"Kabupaten Nias Barat, Sumatera Utara";SUMATERA UTARA;;Indonesia;082246729119;;;10.550.444;975.473.908;https://maps.google.com/?cid=0x0:0x36f0bd3f5cc59428;
cafe;Kedai Kopi;ANDI NISTO BUANA ZEBUA;"2C3F+PRC, Ononamolo III, Kec. Mandrehe Bar., Kabupaten Nias Barat, Sumatera Utara";"Kabupaten Nias Barat, Sumatera Utara";SUMATERA UTARA;;Indonesia;;;;10.043.054;974.245.101;https://maps.google.com/?cid=0x0:0xaa1c9b0b1d498c17;
cafe;Brunch;UD. WENDA;"2CMH+WG6, Lasara Faga, Kec. Mandrehe Bar., Kabupaten Nias Barat, Sumatera Utara 22812";"Lasara Faga, Kec. Mandrehe Bar., Kabupaten Nias Barat";SUMATERA UTARA;22812;Indonesia;;;;10.349.998;974.288.724;https://maps.google.com/?cid=0x0:0x5f0e9f265af5881d;
cafe;Kedai Kopi;Selvianus;"2CPH+9H5, Lasara Faga, Kec. Mandrehe Bar., Kabupaten Nias Barat, Sumatera Utara";"Kabupaten Nias Barat, Sumatera Utara";SUMATERA UTARA;;Indonesia;085210467397;;;10.358.808;974.289.983;https://maps.google.com/?cid=0x0:0xc4aaa0b195973ef9;
cafe;cafe;UD. Kakek RIMA;"2CVM+FQP, Jl. Fabaliwa - Sirombu, Lasara Faga, Kec. Mandrehe Bar., Kabupaten Nias Barat, Sumatera Utara 22812";"Jl. Fabaliwa - Sirombu, Lasara Faga, Kec. Mandrehe Bar., Kabupaten Nias Barat";SUMATERA UTARA;22812;Indonesia;;;;10.436.233;974.345.329;https://maps.google.com/?cid=0x0:0x29beebf5865d99f0;
cafe;cafe;Kec. Mandrehe Bar.;"Kabupaten Nias Barat, Sumatera Utara";"Kabupaten Nias Barat, Sumatera Utara";SUMATERA UTARA;;Indonesia;;;;0.998808;974.182.241;https://maps.google.com/?cid=0x0:0x7de90688f484314d;
cafe;Kedai Kopi;Rumah Silver Zebua;"2CPH+MQ6, Sisobandrao, Kec. Mandrehe Bar., Kabupaten Nias Barat, Sumatera Utara";"Kabupaten Nias Barat, Sumatera Utara";SUMATERA UTARA;;Indonesia;;;;10.366.608;974.293.817;https://maps.google.com/?cid=0x0:0xcea652c7700b5334;
cafe;Restoran;AGK Nias Barat;"2F5Q+9PQ, Onowaembo, Kec. Lahomi, Kabupaten Nias Barat, Sumatera Utara 22862";"Onowaembo, Kec. Lahomi, Kabupaten Nias Barat";SUMATERA UTARA;22862;Indonesia;085262612884;;;10.084.538;974.893.629;https://maps.google.com/?cid=0x0:0x637ed306442b99d6;
cafe;Kedai Kopi;Tafar;"Unnamed Road, Sidua Hili, Kec. Moro'o, Kabupaten Nias Barat, Sumatera Utara 22862";"Sidua Hili, Kec. Moro'o, Kabupaten Nias Barat";SUMATERA UTARA;22862;Indonesia;;;;10.662.344;974.228.123;https://maps.google.com/?cid=0x0:0x341dd1b0c878c236;
cafe;Kedai Kopi;Rumah hikmat waruwu;"2CPG+4XM, Lasara Faga, Kec. Mandrehe Bar., Kabupaten Nias Barat, Sumatera Utara";"Kabupaten Nias Barat, Sumatera Utara";SUMATERA UTARA;;Indonesia;082312529577;;;10.353.385;974.274.333;https://maps.google.com/?cid=0x0:0xb1afc1f6b4b4da22;
cafe;Rumah Makan;UD. SAHABAT RASA;"Onolimbu, Kec. Lahomi, Kabupaten Nias Barat, Sumatera Utara 22864";"Kec. Lahomi, Kabupaten Nias Barat";SUMATERA UTARA;22864;Indonesia;;;;10.089.469;97.492.823;https://maps.google.com/?cid=0x0:0xe4056b6ea1cf38f;
cafe;cafe;Sumatera Utara 22814;"Saombo, Kec. Gunungsitoli, Kota Gunungsitoli, Sumatera Utara";"Kota Gunungsitoli, Sumatera Utara";SUMATERA UTARA;;Indonesia;;;;12.897.758;976.188.016;https://maps.google.com/?cid=0x0:0x72677cb0cc3dbd55;
cafe;Kedai Kopi;Cafe 57 / JANJI JIWA 738 / LIMAU;"Jl. Lagundri No.57, Saombo, Kec. Gunungsitoli, Kota Gunungsitoli, Sumatera Utara 22815";"Saombo, Kec. Gunungsitoli, Kota Gunungsitoli";SUMATERA UTARA;22815;Indonesia;08116511738;;;12.898.054;976.198.463;https://maps.google.com/?cid=0x0:0x2134072effea5877;
cafe;Kafe;Kopi Vespa Bung Joe;"7JR8+8Q5 Taman Yaahowu, Saombo, Kec. Gunungsitoli, Kota Gunungsitoli, Sumatera Utara";"Kota Gunungsitoli, Sumatera Utara";SUMATERA UTARA;;Indonesia;082213282329;;;12.907.733;976.169.925;https://maps.google.com/?cid=0x0:0x63aad9ec0edc1491;
cafe;Kafe;Silalahi Cafe / A.Parman;"7JQC+PVX, Jl. Kelapa, Ps. Gn. Sitoli, Kec. Gunungsitoli, Kota Gunungsitoli, Sumatera Utara";"Kota Gunungsitoli, Sumatera Utara";SUMATERA UTARA;;Indonesia;;;;12.893.688;976.222.399;https://maps.google.com/?cid=0x0:0x901dfdaf88a6a892;
cafe;Indonesia;Kantin Luaha Bethany;"pasar ya'ahowu, Jl. Lagundri blok C nias lantai 2, Saombo, Gunungsitoli, Gunungsitoli City, North Sumatra 22814";"Jl. Lagundri blok C nias lantai 2, Saombo, Gunungsitoli, Gunungsitoli City";SUMATERA UTARA;22814;Indonesia;085277695006;;;12.898.046;976.196.241;https://maps.google.com/?cid=0x0:0x32c3bd0f4ea99b45;
cafe;Masakan Asia;Havanna Grill Pork;"Jalan Sirao. 133, Nias, Jl. Sirao No.133 lantai 1 dan 2, Saombo, Kec. Gunungsitoli, Kota Gunungsitoli, Sumatera Utara 22814";"Nias, Jl. Sirao No.133 lantai 1 dan 2, Saombo, Kec. Gunungsitoli, Kota Gunungsitoli";SUMATERA UTARA;22814;Indonesia;081262542229;;;12.899.116;976.190.786;https://maps.google.com/?cid=0x0:0x2464c3952183efa0;
cafe;Rumah Makan;Cz Cafe;"Jl. Sudirman Depan Ps. Beringin No.20, Saombo, Kec. Gunungsitoli, Kota Gunungsitoli, Sumatera Utara 22815";"Saombo, Kec. Gunungsitoli, Kota Gunungsitoli";SUMATERA UTARA;22815;Indonesia;;;;12.875.051;976.178.401;https://maps.google.com/?cid=0x0:0x37aeb342a654ab45;
cafe;Kafe;Kini Cheese Tea Nias;"7JR8+7W3, Saombo, Kec. Gunungsitoli, Kota Gunungsitoli, Sumatera Utara";"Kota Gunungsitoli, Sumatera Utara";SUMATERA UTARA;;Indonesia;;;;12.906.387;976.173.025;https://maps.google.com/?cid=0x0:0x79ba0577f899d036;
cafe;Kantor Perusahaan;BBLC Camp;"7JQC+HG2, Ps. Gn. Sitoli, Kec. Gunungsitoli, Kota Gunungsitoli, Sumatera Utara 22851";"Ps. Gn. Sitoli, Kec. Gunungsitoli, Kota Gunungsitoli";SUMATERA UTARA;22851;Indonesia;;;;12.888.752;976.212.797;https://maps.google.com/?cid=0x0:0xab69751454a044c3;
cafe;Toko umum;Pojok Akak ()u003e~;"7JR9+24R, jalan gereja, pojok, Gunungsitoli, Nias Regency, North Sumatra";"Kabupaten Nias, Sumatera Utara";SUMATERA UTARA;;Indonesia;081319790071;;;12.901.067;976.177.657;https://maps.google.com/?cid=0x0:0x65c530c1296b5030;
cafe;Restoran;KITCHEN157;"7JQ9+JPG, Jl. Sirao, Saombo, Kec. Gunungsitoli, Kota Gunungsitoli, Sumatera Utara";"Kota Gunungsitoli, Sumatera Utara";SUMATERA UTARA;;Indonesia;082162139857;;;12.890.554;976.193.194;https://maps.google.com/?cid=0x0:0x680e7e09b2dae0af;
cafe;Indonesia;MAMAYAM;"Pertokoan Jadi Jaya, Jl. Lagundri No.6, Saombo, Kec. Gunungsitoli, Kota Gunungsitoli, Sumatera Utara 22814";"Jl. Lagundri No.6, Saombo, Kec. Gunungsitoli, Kota Gunungsitoli";SUMATERA UTARA;22814;Indonesia;085388548788;;;12.892.914;976.196.232;https://maps.google.com/?cid=0x0:0x981c62edb3c6b634;
cafe;Kafe;Kova Coffee;"7JQ9+GX2, Saombo, Kec. Gunungsitoli, Kota Gunungsitoli, Sumatera Utara";"Kota Gunungsitoli, Sumatera Utara";SUMATERA UTARA;;Indonesia;081222668852;;;12.887.742;976.198.802;https://maps.google.com/?cid=0x0:0x11f439aee3ec6a8b;
cafe;Makanan Kecil;Coffee Box dan pempek palembang pusat jajanan malam;"Jl.pelabuhan lama, Saombo, kecamatan, Kota Gunungsitoli, Sumatera Utara 22811";"Saombo, kecamatan, Kota Gunungsitoli";SUMATERA UTARA;22811;Indonesia;085239510902;;;12.907.639;976.170.219;https://maps.google.com/?cid=0x0:0x169ff73761c5ebe;
cafe;Kedai Kopi;Coffee Point;"Jln Lagundri, Pasa Yaahowu, Blok B Lt.II No 1, Saombo, Kec. Gunungsitoli, Kota Gunungsitoli, Sumatera Utara";"Kota Gunungsitoli, Sumatera Utara";SUMATERA UTARA;;Indonesia;82165779619;;;12.891.517;976.198.869;https://maps.google.com/?cid=0x0:0xdb7a37d51ea45679;
cafe;Restoran;Kedai Laris Manis;"Pasar Kota, Jl. Sirao Jl. Lagundri No.38, Saombo, Kec. Gunungsitoli, Kota Gunungsitoli, Sumatera Utara 22814";"Jl. Sirao Jl. Lagundri No.38, Saombo, Kec. Gunungsitoli, Kota Gunungsitoli";SUMATERA UTARA;22814;Indonesia;081376441216;;;12.899.187;97.619.445;https://maps.google.com/?cid=0x0:0xdf04df302ebd7df1;
cafe;Jawa;Warung MIAMI;"Jl. Sirao No.139, Ps. Gn. Sitoli, Kec. Gunungsitoli, Kota Gunungsitoli, Sumatera Utara 22814";"Ps. Gn. Sitoli, Kec. Gunungsitoli, Kota Gunungsitoli";SUMATERA UTARA;22814;Indonesia;082274873993;;;12.896.152;97.619.115;https://maps.google.com/?cid=0x0:0x7fb47cfed0119a4;
cafe;Indonesia;RM PUTRI;"7JR9+595, Pelabuhan Lama G.Sitoli, Saombo, Kec. Gunungsitoli, Kota Gunungsitoli, Sumatera Utara 22814";"Pelabuhan Lama G.Sitoli, Saombo, Kec. Gunungsitoli, Kota Gunungsitoli";SUMATERA UTARA;22814;Indonesia;;;;12.903.753;976.184.769;https://maps.google.com/?cid=0x0:0xb3aa548575b7117d;
cafe;Kafe;NONANG COFFEE SHOP;"Jl. Lagundri No.19, Saombo, Kec. Gunungsitoli, Kota Gunungsitoli, Sumatera Utara 22811";"Saombo, Kec. Gunungsitoli, Kota Gunungsitoli";SUMATERA UTARA;22811;Indonesia;082166239029;;;12.894.775;976.193.979;https://maps.google.com/?cid=0x0:0x6d771dd150de2bde;
cafe;Kafe;Pujasera Yaahowu;"7JR9+4FH, Saombo, Kec. Gunungsitoli, Kota Gunungsitoli, Sumatera Utara 22814";"Saombo, Kec. Gunungsitoli, Kota Gunungsitoli";SUMATERA UTARA;22814;Indonesia;;;;12.903.113;976.187.172;https://maps.google.com/?cid=0x0:0xd006e1200983392f;
cafe;Makanan Kecil;Warung Oke;"7JR9+2QJ, Saombo, Kec. Gunungsitoli, Kota Gunungsitoli, Sumatera Utara 22814";"Saombo, Kec. Gunungsitoli, Kota Gunungsitoli";SUMATERA UTARA;22814;Indonesia;085261171818;;;12.900.797;976.193.888;https://maps.google.com/?cid=0x0:0x338d7d528e6b505f;
cafe;Restoran;Rumah Makan Pak Gaek;"Jl. Sirao No.69 B, Saombo, Kec. Gunungsitoli, Kota Gunungsitoli, Sumatera Utara 22814";"Saombo, Kec. Gunungsitoli, Kota Gunungsitoli";SUMATERA UTARA;22814;Indonesia;;;;12.901.944;976.175;https://maps.google.com/?cid=0x0:0x2dacc31bf19e9589;
cafe;Kafe;Kopi Janji jiwa Nias;"7JQ9+XW8, Jalan pelabuhan lama, Saombo, Gunungsitoli, Gunungsitoli City, North Sumatra";"Kota Gunungsitoli, Sumatera Utara";SUMATERA UTARA;;Indonesia;;;;12.899.199;9.761.984;https://maps.google.com/?cid=0x0:0x9f3f6e6359b442c3;
cafe;Restoran;Mister Cafe;"Jl. Sirao No.21, Saombo, Kec. Gunungsitoli, Kota Gunungsitoli, Sumatera Utara";"Kota Gunungsitoli, Sumatera Utara";SUMATERA UTARA;;Indonesia;081262885068;;;12.904.955;976.161.405;https://maps.google.com/?cid=0x0:0x701f555a73222137;
cafe;Kedai Kopi;Kopi Dari Hati Gunungsitoli;"Jl. Kelapa No.55, Ps. Gn. Sitoli, Kec. Gunungsitoli, Kota Gunungsitoli, Sumatera Utara 22815";"Ps. Gn. Sitoli, Kec. Gunungsitoli, Kota Gunungsitoli";SUMATERA UTARA;22815;Indonesia;082361584775;;;12.864.153;976.245.534;https://maps.google.com/?cid=0x0:0x6c92f4ed5787e513;
cafe;cafe;Sumatera Utara 22862;"Kabupaten Nias Barat, Sumatera Utara";"Kabupaten Nias Barat, Sumatera Utara";SUMATERA UTARA;;Indonesia;;;;10.305.654;975.030.669;https://maps.google.com/?cid=0x0:0x343297d388925be1;
cafe;Kedai Kopi;STAND KOPI AECHULA SMKN.2 ULU MORO'O;"3F2R+96J, Fadoro, Kec. Mandrehe, Kabupaten Nias Barat, Sumatera Utara";"Kabupaten Nias Barat, Sumatera Utara";SUMATERA UTARA;;Indonesia;;;;10.509.673;974.905.092;https://maps.google.com/?cid=0x0:0xfa0ca8dbba8f40f8;
cafe;Kedai Kopi;CAFE KHODA FEFU;"3F66+PVV, Gn. Baru, Kec. Moro'o, Kabupaten Nias Barat, Sumatera Utara 22862";"Gn. Baru, Kec. Moro'o, Kabupaten Nias Barat";SUMATERA UTARA;22862;Indonesia;;;;10.618.633;974.621.767;https://maps.google.com/?cid=0x0:0x5cfe79fb390a747b;
cafe;Kedai Kopi;"Coffee Bike cafe  eatery, Medan";"Jl. T. Amir Hamzah No.67, Helvetia Tim., Kec. Medan Helvetia, Kota Medan, Sumatera Utara 20114";"Helvetia Tim., Kec. Medan Helvetia, Kota Medan";SUMATERA UTARA;20114;Indonesia;;;;36.082.271;986.496.202;https://maps.google.com/?cid=0x0:0x950eb5a668930d9d;
cafe;Kedai Kopi;Tafar;"Unnamed Road, Sidua Hili, Kec. Moro'o, Kabupaten Nias Barat, Sumatera Utara 22862";"Sidua Hili, Kec. Moro'o, Kabupaten Nias Barat";SUMATERA UTARA;22862;Indonesia;;;;10.662.344;974.228.123;https://maps.google.com/?cid=0x0:0x341dd1b0c878c236;
cafe;Kedai Kopi;Morias Cafe;"RQ9H+X76, Jl. Simarjarunjung, Tiga Runggu, Kec. Dolok Pardamean, Kabupaten Simalungun, Sumatera Utara";"Kabupaten Simalungun, Sumatera Utara";SUMATERA UTARA;;Indonesia;;;;28.199.037;987.781.265;https://maps.google.com/?cid=0x0:0x77f150937cdc0c5;
cafe;Kedai Kopi;"BEWEGALI, LOLOANA'A MOROÖ";"3C8G+MQF, Jl. Fabaliwa - Sirombu, Hilisoromi, Kec. Moro'o, Kabupaten Nias Barat, Sumatera Utara 22862";"Jl. Fabaliwa - Sirombu, Hilisoromi, Kec. Moro'o, Kabupaten Nias Barat";SUMATERA UTARA;22862;Indonesia;;;;10.666.764;974.269.143;https://maps.google.com/?cid=0x0:0x22d55ece4cddc2b;
cafe;Kedai Kopi;Kedai kopi Bang Jaya;"3CG3+GC, Dangagari Dusun 2, Sitolu Banua Fadoro, Kec. Moro'o, Kabupaten Nias Barat, Sumatera Utara 22862";"Dangagari Dusun 2, Sitolu Banua Fadoro, Kec. Moro'o, Kabupaten Nias Barat";SUMATERA UTARA;22862;Indonesia;082210017357;;;10.765.957;974.065.121;https://maps.google.com/?cid=0x0:0x4e37e5366740c6df;
cafe;cafe;Nince R. Gulo;"2H93+CRJ, Saloo, Kec. Ulu Moro'o, Kabupaten Nias Barat, Sumatera Utara";"Kabupaten Nias Barat, Sumatera Utara";SUMATERA UTARA;;Indonesia;;;;10.185.827;975.545.143;https://maps.google.com/?cid=0x0:0xd3eb62cff2b03892;
cafe;Kedai Kopi;TOMORO COFFEE - SPBU Singapore Station Belawan;"QMJQ+M5J, Belawan I, Medan Kota Belawan, Kota Medan, Sumatera Utara";"Kota Medan, Sumatera Utara";SUMATERA UTARA;;Indonesia;;;;378.171;98.687.834;https://maps.google.com/?cid=0x0:0x59600031d5f2af53;
cafe;Kedai Kopi;Marsaor coffee and resto;"Jl. Siborongborong - Parapat No.15, Sangkar Nihuta, Kec. Balige, Toba, Sumatera Utara 22312";"Sangkar Nihuta, Kec. Balige, Toba";SUMATERA UTARA;22312;Indonesia;082360456467;;;23.296.459;990.549.803;https://maps.google.com/?cid=0x0:0x4cd323d829465803;
cafe;Kedai Kopi;TOMORO COFFEE - UMSU;"Jl. Kapten Muchtar Basri No.126, Glugur Darat II, Kec. Medan Tim., Kota Medan, Sumatera Utara 20238";"Glugur Darat II, Kec. Medan Tim., Kota Medan";SUMATERA UTARA;20238;Indonesia;;;;36.162.812;986.759.627;https://maps.google.com/?cid=0x0:0xe9b9ed0ccbeba58;
cafe;Restoran;AGK Nias Barat;"2F5Q+9PQ, Onowaembo, Kec. Lahomi, Kabupaten Nias Barat, Sumatera Utara 22862";"Onowaembo, Kec. Lahomi, Kabupaten Nias Barat";SUMATERA UTARA;22862;Indonesia;085262612884;;;10.084.538;974.893.629;https://maps.google.com/?cid=0x0:0x637ed306442b99d6;
cafe;Kafe;Abam's Cafe;"2FXR+R77, Fadoro, Kec. Mandrehe, Kabupaten Nias Barat, Sumatera Utara 22862";"Fadoro, Kec. Mandrehe, Kabupaten Nias Barat";SUMATERA UTARA;22862;Indonesia;;;;10.495.136;974.906.437;https://maps.google.com/?cid=0x0:0x2762fb56edc5ffdb;
cafe;Kafe;CAFE SENENG MORO;"VW54+CWW, Unnamed Road, Ulu Mahuam, Kec. Silangkitang, Kab. Labuhanbatu Selatan, Sumatera Utara 21461";"Unnamed Road, Ulu Mahuam, Kec. Silangkitang, Kab. Labuhanbatu Selatan";SUMATERA UTARA;21461;Indonesia;085297080118;;;18.586.159;999.073.396;https://maps.google.com/?cid=0x0:0x7e833131babffc67;
cafe;Kedai Kopi;CAFE VALDO (Kafe Politik);"XFXW+6GM Sebelah Kiri BSG, Onolimbu Rd, Onolimbu, Lahomi, West Nias Regency, North Sumatra 22864";"Onolimbu Rd, Onolimbu, Lahomi, West Nias Regency";SUMATERA UTARA;22864;Indonesia;;;;0.9980897;974.963.082;https://maps.google.com/?cid=0x0:0xd77018c297f5e852;
cafe;Kafe;Kitara Arta;"Jl. Sei Asahan No.38A, Tj. Rejo, Kec. Medan Sunggal, Kota Medan, Sumatera Utara 20154";"Tj. Rejo, Kec. Medan Sunggal, Kota Medan";SUMATERA UTARA;20154;Indonesia;085211762217;;;35.715.511;986.460.591;https://maps.google.com/?cid=0x0:0x27f2e8e0d24e1e28;
cafe;Kedai Kopi;Coffee Saitö;"Jl. Raya Onolimbu - Lahomi, Simaeasi, Kec. Mandrehe, Kabupaten Nias Barat, Sumatera Utara 22862";"Simaeasi, Kec. Mandrehe, Kabupaten Nias Barat";SUMATERA UTARA;22862;Indonesia;082267386171;;;10.284.432;974.849.966;https://maps.google.com/?cid=0x0:0x80a5bc7ce397a21d;
cafe;Restoran;Barokah358 | One Stop Service;"Jl. Lintas Medan - Tj. Balai KM. 12, Simpang Kawat, Sipaku Area, Simpang Empat, Sipaku Area, Simpang Empat, Asahan Regency, North Sumatra 21271";"Simpang Kawat, Sipaku Area, Simpang Empat, Sipaku Area, Simpang Empat, Asahan Regency";SUMATERA UTARA;21271;Indonesia;08116522358;;;2.919.557;9.971.947;https://maps.google.com/?cid=0x0:0x18aae20b8250417a;
cafe;Betawi;TOZIRO RESTO;"WCW5+6WR, Unnamed Road, Sirombu, Sirombu, Kec. Sirombu, Kabupaten Nias Barat, Sumatera Utara 22863";"Unnamed Road, Sirombu, Sirombu, Kec. Sirombu, Kabupaten Nias Barat";SUMATERA UTARA;22863;Indonesia;;;;0.9456058;974.097.654;https://maps.google.com/?cid=0x0:0xb731fc51fa352be3;
cafe;Kedai Kopi;Cafe dan percetakan abg;"Onolimbu, Kec. Lahomi, Kabupaten Nias Barat, Sumatera Utara 22862";"Kec. Lahomi, Kabupaten Nias Barat";SUMATERA UTARA;22862;Indonesia;082140219243;;;10.095.587;974.925.099;https://maps.google.com/?cid=0x0:0x30ce7a28b5175025;
cafe;Kedai Kopi;KEDAI KOPI CHRISTHAN ZEBUA;"ANDI NISTO BUANA ZEBUA, Ononamolo III, Kec. Moro'o, Kabupaten Nias Barat, Sumatera Utara 22862";"Ononamolo III, Kec. Moro'o, Kabupaten Nias Barat";SUMATERA UTARA;22862;Indonesia;082280503610;;;10.043.064;974.245.102;https://maps.google.com/?cid=0x0:0xef1008cec6e99987;
cafe;Kedai Kopi;Cafe;"3F2G+HC3, Jl. Tetehosi, Tetehosi, Kec. Mandrehe, Kabupaten Nias Barat, Sumatera Utara 22862";"Jl. Tetehosi, Tetehosi, Kec. Mandrehe, Kabupaten Nias Barat";SUMATERA UTARA;22862;Indonesia;;;;10.513.814;97.476.043;https://maps.google.com/?cid=0x0:0x9b47f7565554804a;
cafe;Kedai Kopi;Warung Angel;"2FC6+GM8, Lolohia Mandrehe Bar., Sisobambowo, Kec. Mandrehe, Kabupaten Nias Barat, Sumatera Utara 22862";"Lolohia Mandrehe Bar., Sisobambowo, Kec. Mandrehe, Kabupaten Nias Barat";SUMATERA UTARA;22862;Indonesia;;;;10.212.956;974.617.035;https://maps.google.com/?cid=0x0:0xde8e9615a0ac873d;
cafe;Kedai Kopi;Kedai Niha Khoda;"3G4W+2X6, Lologulo, Kec. Mandrehe, Kabupaten Nias Barat, Sumatera Utara";"Kabupaten Nias Barat, Sumatera Utara";SUMATERA UTARA;;Indonesia;082246729119;;;10.550.444;975.473.908;https://maps.google.com/?cid=0x0:0x36f0bd3f5cc59428;
cafe;Restoran;D'Moro - Resto  Cafe;"Jl. Danau Singkarak No.23 Blok E3, Tegallega, Bogor Baru, Kota Bogor, Jawa Barat 16129";"Tegallega, Bogor Baru, Kota Bogor";SUMATERA UTARA;16129;Indonesia;;;;-65.970.831;1.068.115.869;https://maps.google.com/?cid=0x0:0x323a97a986482007;
cafe;Bar Kopi Espresso;Warkop Moro"";"Jl. Raden Patah No.44 2, RT.2/RW.1, Selong, Kec. Kby. Baru, Kota Jakarta Selatan, Daerah Khusus Ibukota Jakarta 12110";"RT.2/RW.1, Selong, Kec. Kby. Baru, Kota Jakarta Selatan";SUMATERA UTARA;12110;Indonesia;;;;-62.360.079;1.067.995.715;https://maps.google.com/?cid=0x0:0x783adc0c8f217ce4;
cafe;Kedai Kopi;Rumah Makan Termos;"3G42+CQW, Jl. Mandrehe, desa bawa, salo'o, Kabupaten Nias Barat, Sumatera Utara 22862";"Jl. Mandrehe, desa bawa, salo'o, Kabupaten Nias Barat";SUMATERA UTARA;22862;Indonesia;;;;10.556.983;975.013.293;https://maps.google.com/?cid=0x0:0xcc402ebb6a6f6ec0;
cafe;cafe;Revision gulo (Reon);"3C8G+MP5, Jl. Fabaliwa - Sirombu, Hilisoromi, Kec. Moro'o, Kabupaten Nias Barat, Sumatera Utara 22862";"Jl. Fabaliwa - Sirombu, Hilisoromi, Kec. Moro'o, Kabupaten Nias Barat";SUMATERA UTARA;22862;Indonesia;;;;10.670.803;974.265.556;https://maps.google.com/?cid=0x0:0xaac0e11cf59aceb9;
cafe;cafe;Sirombu;"Sirombu, Kec. Sirombu, Kabupaten Nias Barat, Sumatera Utara";"Kabupaten Nias Barat, Sumatera Utara";SUMATERA UTARA;;Indonesia;;;;0.952816;97.418.171;https://maps.google.com/?cid=0x0:0x4039d80b2210500;
cafe;Kedai Kopi;CoFFee Rest Ama SeSiL;"Jalan Pelabuhan No. 10 Pasar, Sirombu, Kec. Sirombu, Kabupaten Nias Barat, Sumatera Utara 22863";"Sirombu, Kec. Sirombu, Kabupaten Nias Barat";SUMATERA UTARA;22863;Indonesia;082364069552;;;0.949361;974.125.379;https://maps.google.com/?cid=0x0:0xb5a78de92357e194;
cafe;Restoran;XieXieBoba_Sirombu;"XC8J+4PF, Jl. Fabaliwa - Sirombu, Togideu, Kec. Sirombu, Kabupaten Nias Barat, Sumatera Utara 22863";"Jl. Fabaliwa - Sirombu, Togideu, Kec. Sirombu, Kabupaten Nias Barat";SUMATERA UTARA;22863;Indonesia;085358588407;;;0.9653048;97.431.797;https://maps.google.com/?cid=0x0:0x2cabd89cd6179295;
cafe;Kafe;Eze Warkop;"Jl. Tetesua, Sirombu, Kec. Sirombu, Kabupaten Nias Barat, Sumatera Utara 22863";"Sirombu, Kec. Sirombu, Kabupaten Nias Barat";SUMATERA UTARA;22863;Indonesia;082272415710;;;0.9507587;974.147.398;https://maps.google.com/?cid=0x0:0xa0990257e1df35e0;
cafe;Kafe;Warung Kopi Muaro;"XC4F+WW8, Jl. Tetesua, Sirombu, Kec. Sirombu, Kabupaten Nias Barat, Sumatera Utara 22863";"Jl. Tetesua, Sirombu, Kec. Sirombu, Kabupaten Nias Barat";SUMATERA UTARA;22863;Indonesia;;;;0.9572794;974.248.126;https://maps.google.com/?cid=0x0:0x13e9da64d137adfd;
cafe;Kedai Kopi;WarKop SS Simon;"WCX6+JPW, Sirombu, Kec. Sirombu, Kabupaten Nias Barat, Sumatera Utara 22863";"Sirombu, Kec. Sirombu, Kabupaten Nias Barat";SUMATERA UTARA;22863;Indonesia;085359929394;;;0.9491243;974.118.321;https://maps.google.com/?cid=0x0:0xe3a855ff8e1b1812;
cafe;Salon Rambut;Pangkas idola;"XC7M+GJ2, Jl. Fabaliwa - Sirombu, desa togide'i, Kec. Sirombu, Kabupaten Nias Barat, Sumatera Utara 22863";"Jl. Fabaliwa - Sirombu, desa togide'i, Kec. Sirombu, Kabupaten Nias Barat";SUMATERA UTARA;22863;Indonesia;;;;0.9637685;974.340.256;https://maps.google.com/?cid=0x0:0x7dcc033c40492209;
cafe;Restoran;WARKOP TETESUA;"XC7M+C3R, Tetesua Desa, Togideu, Kec. Sirombu, kab.Nias Barat, Sumatera Utara 22863";"Tetesua Desa, Togideu, Kec. Sirombu, kab.Nias Barat";SUMATERA UTARA;22863;Indonesia;;;;0.9636206;974.326.364;https://maps.google.com/?cid=0x0:0xd2d36fffc336018b;
cafe;cafe;Kec. Ulu Moro'o;"Kabupaten Nias Barat, Sumatera Utara";"Kabupaten Nias Barat, Sumatera Utara";SUMATERA UTARA;;Indonesia;;;;10.144.644;975.333.185;https://maps.google.com/?cid=0x0:0xcabc6a3673d44b2d;
cafe;Kedai Kopi;STAND KOPI AECHULA SMKN.2 ULU MORO'O;"3F2R+96J, Fadoro, Kec. Mandrehe, Kabupaten Nias Barat, Sumatera Utara";"Kabupaten Nias Barat, Sumatera Utara";SUMATERA UTARA;;Indonesia;;;;10.509.673;974.905.092;https://maps.google.com/?cid=0x0:0xfa0ca8dbba8f40f8;
cafe;cafe;Nince R. Gulo;"2H93+CRJ, Saloo, Kec. Ulu Moro'o, Kabupaten Nias Barat, Sumatera Utara";"Kabupaten Nias Barat, Sumatera Utara";SUMATERA UTARA;;Indonesia;;;;10.185.827;975.545.143;https://maps.google.com/?cid=0x0:0xd3eb62cff2b03892;
cafe;Kafe;Kantin INA EPI GULÖ;"22862, Saloo, Kec. Ulu Moro'o, Kabupaten Nias Barat, Sumatera Utara 22862";"Saloo, Kec. Ulu Moro'o, Kabupaten Nias Barat";SUMATERA UTARA;22862;Indonesia;085261275089;;;10.113.984;975.417.662;https://maps.google.com/?cid=0x0:0xcc3180de27b89cec;
cafe;Rumah Makan;Kedai Ina Listen;"2G6R+GPF, Bukit Tinggi, Kec. Ulu Moro'o, Kabupaten Nias Barat, Sumatera Utara 22862";"Bukit Tinggi, Kec. Ulu Moro'o, Kabupaten Nias Barat";SUMATERA UTARA;22862;Indonesia;;;;10.113.002;975.418.013;https://maps.google.com/?cid=0x0:0xa7ae7ce89995beb7;
cafe;Kedai Kopi;"Loloana'a Daso, Moroö";"3C8F+VQ5, Jl. Fabaliwa - Sirombu, Hilisoromi, Kec. Moro'o, Kabupaten Nias Barat, Sumatera Utara 22862";"Jl. Fabaliwa - Sirombu, Hilisoromi, Kec. Moro'o, Kabupaten Nias Barat";SUMATERA UTARA;22862;Indonesia;082284972257;;;10.671.367;974.244.834;https://maps.google.com/?cid=0x0:0xc41dfcb2acc593e1;
cafe;Kedai Kopi;Kedai Niha Khoda;"3G4W+2X6, Lologulo, Kec. Mandrehe, Kabupaten Nias Barat, Sumatera Utara";"Kabupaten Nias Barat, Sumatera Utara";SUMATERA UTARA;;Indonesia;082246729119;;;10.550.444;975.473.908;https://maps.google.com/?cid=0x0:0x36f0bd3f5cc59428;
cafe;cafe;Bebalaji lombu;"2H3F+VGV, Fadoro Ewo, Kec. Ulu Moro'o, Kabupaten Nias Selatan, Sumatera Utara 22864";"Fadoro Ewo, Kec. Ulu Moro'o, Kabupaten Nias Selatan";SUMATERA UTARA;22864;Indonesia;;;;10.054.228;975.738.905;https://maps.google.com/?cid=0x0:0x2abced45d541b59b;
cafe;Kedai Kopi;Titik Teduh Nias Barat;"2F2W+234, Onolimbu, Kec. Lahomi, Kabupaten Nias Barat, Sumatera Utara 22864";"Onolimbu, Kec. Lahomi, Kabupaten Nias Barat";SUMATERA UTARA;22864;Indonesia;;;;0.9998245;974.951.367;https://maps.google.com/?cid=0x0:0x48e26cf197e193ac;
