Category;Real Category;Business Name;Address;City;State;Postal Code;Country;Phone;Email;Website;Latitude;Longitude;Map Link;Details Link
"building materials";"Kontraktor Insulasi";"PT Tali Rejeki";"Jl. Taruma Jaya No.11, Setia Asih, Kec. Tarumajaya, Kota Bks, Jawa Barat 17215";"Setia Asih, Kec. Tarumajaya, Kota Bks";"SUMATERA UTARA";"17215";"Indonesia";" 02122889956";"";"";"-6.1652412";"106.9900241";"https://maps.google.com/?cid=0x0:0x15898fadc067eab7";""
"building materials";"Pemasok Pipa";"Surya Utama Metalindo PT.";"Jl. Gunung Sahari Raya no.1 Mangga Dua Square lt 2 blok C 61, RT.11/RW.6, Ancol, Kec. Pademangan, Jkt Utara, Daerah Khusus Ibukota Jakarta 14420";"RT.11/RW.6, Ancol, Kec. Pademangan, Jkt Utara";"SUMATERA UTARA";"14420";"Indonesia";" 082310999956";"";"";"-6.1387824";"106.8314329";"https://maps.google.com/?cid=0x0:0x213f9340f3f4865";""
"building materials";"building materials";"Jl. Lahömi";"Lologundre, Kec. Lahomi, Kabupaten Nias Barat, Sumatera Utara 22864";"Kec. Lahomi, Kabupaten Nias Barat";"SUMATERA UTARA";"22864";"Indonesia";"";"";"";"0.986949";"97.5036587";"https://maps.google.com/?cid=0x0:0x6409da5bc64f976c";""
"building materials";"building materials";"Sumatera Utara 22875";"Kec. Lolofitu Moi, Kabupaten Nias Barat, Sumatera Utara";"Kabupaten Nias Barat, Sumatera Utara";"SUMATERA UTARA";"";"Indonesia";"";"";"";"1.0588624";"97.5788975";"https://maps.google.com/?cid=0x0:0x9c54d35d78ab160f";""
"building materials";"Toko Bahan Bangunan";"SANGEHAO";"4H3J+3C7, Jl. Gunungsitoli, Lolofaoso, Kec. Lolofitu Moi, Kabupaten Nias Barat, Sumatera Utara 22864";"Jl. Gunungsitoli, Lolofaoso, Kec. Lolofitu Moi, Kabupaten Nias Barat";"SUMATERA UTARA";"22864";"Indonesia";" 081287458656";"";"";"1.1026685";"97.5810422";"https://maps.google.com/?cid=0x0:0xbf83c9d7284d1ad7";""
"building materials";"building materials";"UD may nerfan";"3G6V+JQM dusun 2 Hiligo'o, Lakhene, Kec. Mandrehe, Kabupaten Nias Barat, Sumatera Utara 22862";"Lakhene, Kec. Mandrehe, Kabupaten Nias Barat";"SUMATERA UTARA";"22862";"Indonesia";"";"";"";"1.0615992";"97.5444337";"https://maps.google.com/?cid=0x0:0xa9fc1d5ff161abd4";""
"building materials";"building materials";"Ud.Infoz";"3G6W+5W2, jl. menuju, Lologulo, Kec. Mandrehe, Kabupaten Nias Barat, Sumatera Utara 22862";"jl. menuju, Lologulo, Kec. Mandrehe, Kabupaten Nias Barat";"SUMATERA UTARA";"22862";"Indonesia";" 085276568877";"";"";"1.0607899";"97.548066";"https://maps.google.com/?cid=0x0:0xa9abc99f30a4ccc";""
"building materials";"building materials";"Kec. Lolofitu Moi";"Kabupaten Nias Barat, Sumatera Utara";"Kabupaten Nias Barat, Sumatera Utara";"SUMATERA UTARA";"";"Indonesia";"";"";"";"1.1004325";"97.5801753";"https://maps.google.com/?cid=0x0:0x955959013251a8d";""
"building materials";"building materials";"Sumatera Utara 22862";"Kabupaten Nias Barat, Sumatera Utara";"Kabupaten Nias Barat, Sumatera Utara";"SUMATERA UTARA";"";"Indonesia";"";"";"";"1.0305654";"97.5030669";"https://maps.google.com/?cid=0x0:0x343297d388925be1";""
"building materials";"building materials";"UD may nerfan";"3G6V+JQM dusun 2 Hiligo'o, Lakhene, Kec. Mandrehe, Kabupaten Nias Barat, Sumatera Utara 22862";"Lakhene, Kec. Mandrehe, Kabupaten Nias Barat";"SUMATERA UTARA";"22862";"Indonesia";"";"";"";"1.0615992";"97.5444337";"https://maps.google.com/?cid=0x0:0xa9fc1d5ff161abd4";""
"building materials";"Pusat Perbelanjaan";"UD. Iman";"2FXQ+WX2, Fadoro, Kec. Mandrehe, Kabupaten Nias Barat, Sumatera Utara 22862";"Fadoro, Kec. Mandrehe, Kabupaten Nias Barat";"SUMATERA UTARA";"22862";"Indonesia";" 081370985334";"";"";"1.0497659";"97.489902";"https://maps.google.com/?cid=0x0:0xca610322b1e413c3";""
"building materials";"Toko";"Afo Keramik";"XFVW+VV3, Onolimbu, Kec. Lahomi, Kabupaten Nias Barat, Sumatera Utara 22864";"Onolimbu, Kec. Lahomi, Kabupaten Nias Barat";"SUMATERA UTARA";"22864";"Indonesia";" 081287458656";"";"";"0.9945887";"97.4971783";"https://maps.google.com/?cid=0x0:0x4f35716c086d1586";""
"building materials";"Toko";"UD. Merry";"XF4C+8QP, Sisobandrao, Kec. Sirombu, Kabupaten Nias Barat, Sumatera Utara 22863";"Sisobandrao, Kec. Sirombu, Kabupaten Nias Barat";"SUMATERA UTARA";"22863";"Indonesia";"";"";"";"0.9560947";"97.4724321";"https://maps.google.com/?cid=0x0:0x1a2a9ad6f3670a1b";""
"building materials";"building materials";"Usaha Sendroro";"3H96+WQW, Jl. Raya Tuwuna, Tuwuna, Kec. Mandrehe, Kabupaten Nias Barat, Sumatera Utara 22875";"Jl. Raya Tuwuna, Tuwuna, Kec. Mandrehe, Kabupaten Nias Barat";"SUMATERA UTARA";"22875";"Indonesia";" 085275466922";"";"";"1.0698693";"97.5619609";"https://maps.google.com/?cid=0x0:0xd43eb8012b6158b4";""
"building materials";"building materials";"Ud.Infoz";"3G6W+5W2, jl. menuju, Lologulo, Kec. Mandrehe, Kabupaten Nias Barat, Sumatera Utara 22862";"jl. menuju, Lologulo, Kec. Mandrehe, Kabupaten Nias Barat";"SUMATERA UTARA";"22862";"Indonesia";" 085276568877";"";"";"1.0607899";"97.548066";"https://maps.google.com/?cid=0x0:0xa9abc99f30a4ccc";""
"building materials";"building materials";"UD. TIBERS";"3G77+4J5, Fadoro, Kec. Mandrehe, Kabupaten Nias Barat, Sumatera Utara";"Kabupaten Nias Barat, Sumatera Utara";"SUMATERA UTARA";"";"Indonesia";"";"";"";"1.0627591";"97.5141208";"https://maps.google.com/?cid=0x0:0x249c55b4beea3def";""
"building materials";"Kontraktor Insulasi";"PT Tali Rejeki";"Jl. Taruma Jaya No.11, Setia Asih, Kec. Tarumajaya, Kota Bks, Jawa Barat 17215";"Setia Asih, Kec. Tarumajaya, Kota Bks";"SUMATERA UTARA";"17215";"Indonesia";" 02122889956";"";"";"-6.1652412";"106.9900241";"https://maps.google.com/?cid=0x0:0x15898fadc067eab7";""
"building materials";"building materials";"Sumatera Utara 22867";"Kabupaten Nias Selatan, Sumatera Utara";"Kabupaten Nias Selatan, Sumatera Utara";"SUMATERA UTARA";"";"Indonesia";"";"";"";"0.9212063";"97.6710889";"https://maps.google.com/?cid=0x0:0xe28ccee9e4064a40";""
"building materials";"Toko Elektronik";"UD. SEDERHANA ELECTRIC";"WJWP+9JQ, Koendrafo, Kec. Lolomatua, Kabupaten Nias Selatan, Sumatera Utara 22867";"Koendrafo, Kec. Lolomatua, Kabupaten Nias Selatan";"SUMATERA UTARA";"22867";"Indonesia";" 081287458656";"";"";"0.9459738";"97.6366155";"https://maps.google.com/?cid=0x0:0xf311ab55dbaf7faf";""
"building materials";"building materials";"Usaha Sendroro";"3H96+WQW, Jl. Raya Tuwuna, Tuwuna, Kec. Mandrehe, Kabupaten Nias Barat, Sumatera Utara 22875";"Jl. Raya Tuwuna, Tuwuna, Kec. Mandrehe, Kabupaten Nias Barat";"SUMATERA UTARA";"22875";"Indonesia";" 085275466922";"";"";"1.0698693";"97.5619609";"https://maps.google.com/?cid=0x0:0xd43eb8012b6158b4";""
"building materials";"building materials";"Kec. Mandrehe Bar.";"Kabupaten Nias Barat, Sumatera Utara";"Kabupaten Nias Barat, Sumatera Utara";"SUMATERA UTARA";"";"Indonesia";"";"";"";"0.998808";"97.4182241";"https://maps.google.com/?cid=0x0:0x7de90688f484314d";""
"building materials";"Toko";"UD. CEMERLANG";"Jl. Raya Onolimbu - Lahomi No.7, Onolimbu, Kec. Lahomi, Kabupaten Nias Barat, Sumatera Utara 22864";"Onolimbu, Kec. Lahomi, Kabupaten Nias Barat";"SUMATERA UTARA";"22864";"Indonesia";" 081287458656";"";"";"1.0096416";"97.4925114";"https://maps.google.com/?cid=0x0:0x81401eb2dfac7be5";""
"building materials";"Pusat Perbelanjaan";"UD. Iman";"2FXQ+WX2, Fadoro, Kec. Mandrehe, Kabupaten Nias Barat, Sumatera Utara 22862";"Fadoro, Kec. Mandrehe, Kabupaten Nias Barat";"SUMATERA UTARA";"22862";"Indonesia";" 081370985334";"";"";"1.0497659";"97.489902";"https://maps.google.com/?cid=0x0:0xca610322b1e413c3";""
"building materials";"Toko";"UD. Merry";"XF4C+8QP, Sisobandrao, Kec. Sirombu, Kabupaten Nias Barat, Sumatera Utara 22863";"Sisobandrao, Kec. Sirombu, Kabupaten Nias Barat";"SUMATERA UTARA";"22863";"Indonesia";"";"";"";"0.9560947";"97.4724321";"https://maps.google.com/?cid=0x0:0x1a2a9ad6f3670a1b";""
"building materials";"Toko";"Afo Keramik";"XFVW+VV3, Onolimbu, Kec. Lahomi, Kabupaten Nias Barat, Sumatera Utara 22864";"Onolimbu, Kec. Lahomi, Kabupaten Nias Barat";"SUMATERA UTARA";"22864";"Indonesia";" 081287458656";"";"";"0.9945887";"97.4971783";"https://maps.google.com/?cid=0x0:0x4f35716c086d1586";""
"building materials";"building materials";"Sumatera Utara 22812";"Kabupaten Nias Barat, Sumatera Utara";"Kabupaten Nias Barat, Sumatera Utara";"SUMATERA UTARA";"";"Indonesia";"";"";"";"1.0164701";"97.4435441";"https://maps.google.com/?cid=0x0:0xd11190b65d8d63eb";""
"building materials";"Toko";"UD. Merry";"XF4C+8QP, Sisobandrao, Kec. Sirombu, Kabupaten Nias Barat, Sumatera Utara 22863";"Sisobandrao, Kec. Sirombu, Kabupaten Nias Barat";"SUMATERA UTARA";"22863";"Indonesia";"";"";"";"0.9560947";"97.4724321";"https://maps.google.com/?cid=0x0:0x1a2a9ad6f3670a1b";""
"building materials";"building materials";"UD may nerfan";"3G6V+JQM dusun 2 Hiligo'o, Lakhene, Kec. Mandrehe, Kabupaten Nias Barat, Sumatera Utara 22862";"Lakhene, Kec. Mandrehe, Kabupaten Nias Barat";"SUMATERA UTARA";"22862";"Indonesia";"";"";"";"1.0615992";"97.5444337";"https://maps.google.com/?cid=0x0:0xa9fc1d5ff161abd4";""
"building materials";"Toko";"UD. CEMERLANG";"Jl. Raya Onolimbu - Lahomi No.7, Onolimbu, Kec. Lahomi, Kabupaten Nias Barat, Sumatera Utara 22864";"Onolimbu, Kec. Lahomi, Kabupaten Nias Barat";"SUMATERA UTARA";"22864";"Indonesia";" 081287458656";"";"";"1.0096416";"97.4925114";"https://maps.google.com/?cid=0x0:0x81401eb2dfac7be5";""
"building materials";"Toko Elektronik";"UD Niat";"Bawosalo'o, Tugala, Kec. Sirombu, Kabupaten Nias Barat, Sumatera Utara 22863";"Tugala, Kec. Sirombu, Kabupaten Nias Barat";"SUMATERA UTARA";"22863";"Indonesia";" 082288777575";"";"";"0.9641613";"97.438363";"https://maps.google.com/?cid=0x0:0xe16f98227744705c";""
"building materials";"";"UD.78";"Jl. Yos Sudarso Ujung No.26B, Saombo, Kec. Gunungsitoli, Kota Gunungsitoli, Sumatera Utara";"Kota Gunungsitoli, Sumatera Utara";"SUMATERA UTARA";"";"Indonesia";" 082274686060";"";"";"1.2946077";"97.6094872";"https://maps.google.com/?cid=0x0:0x7beb4b64cda0563a";""
"building materials";"Sekolah";"Ombelata ulu";"Jl. Elang I, Ombolata Ulu, Kec. Gunungsitoli, Kota Gunungsitoli, Sumatera Utara";"Kota Gunungsitoli, Sumatera Utara";"SUMATERA UTARA";"";"Indonesia";" 085270925384";"";"";"1.3103813";"97.6089595";"https://maps.google.com/?cid=0x0:0xb8397e83cda6db56";""
"building materials";"Toko";"UD. RAHMAT (Panglong)";"7JM5+84R, Jl. Fondrako, Boyo, Kec. Gunungsitoli, Kota Gunungsitoli, Sumatera Utara";"Kota Gunungsitoli, Sumatera Utara";"SUMATERA UTARA";"";"Indonesia";" 082282403347";"";"";"1.2833649";"97.6077764";"https://maps.google.com/?cid=0x0:0x820ab11d721e11ed";""
"building materials";"Toko Mebel";"JJ FURNITURE";"Onozitoli Siforoasi, Kec. Gunungsitoli, Kota Gunungsitoli, Sumatera Utara 22851";"Kec. Gunungsitoli, Kota Gunungsitoli";"SUMATERA UTARA";"22851";"Indonesia";"";"";"";"1.2651869";"97.605572";"https://maps.google.com/?cid=0x0:0x235fb4aed92976e0";""
"building materials";"Toko Bahan Bangunan";"Toko Material Bangunan Daniel";"5HW9+W7R, Dahadano Botombawo, Kec. HiliSerangkai, Kabupaten Nias, Sumatera Utara 22851";"Dahadano Botombawo, Kec. HiliSerangkai, Kabupaten Nias";"SUMATERA UTARA";"22851";"Indonesia";" 083114785308";"";"";"1.1975201";"97.5674987";"https://maps.google.com/?cid=0x0:0x5ac67810e5b018cd";""
"building materials";"Toko";"UD.BOY HULU";"6CGC+986, Jl. Fulölö, Loloana'a, Kec. Tugala Oyo, Kabupaten Nias Utara, Sumatera Utara 22814";"Jl. Fulölö, Loloana'a, Kec. Tugala Oyo, Kabupaten Nias Utara";"SUMATERA UTARA";"22814";"Indonesia";"";"";"";"1.225908";"97.4207507";"https://maps.google.com/?cid=0x0:0x437140e514a420ca";""
"building materials";"Toko";"Afo Keramik";"XFVW+VV3, Onolimbu, Kec. Lahomi, Kabupaten Nias Barat, Sumatera Utara 22864";"Onolimbu, Kec. Lahomi, Kabupaten Nias Barat";"SUMATERA UTARA";"22864";"Indonesia";" 081287458656";"";"";"0.9945887";"97.4971783";"https://maps.google.com/?cid=0x0:0x4f35716c086d1586";""
"building materials";"Toko Mebel";"OMODA INTERIOR";"Keluarahan No.80, Saombo, Kec. Gunungsitoli, Kota Gunungsitoli, Sumatera Utara 22814";"Saombo, Kec. Gunungsitoli, Kota Gunungsitoli";"SUMATERA UTARA";"22814";"Indonesia";" 082298369968";"";"";"1.2953159";"97.6090955";"https://maps.google.com/?cid=0x0:0xaaab9b6fcf21fc3d";""
"building materials";"Toko Bahan Bangunan";"Batu Bata Pres";"Jl. Fondrako No.145, Hilina A, Kec. Gunungsitoli, Kota Gunungsitoli, Sumatera Utara 22811";"Hilina A, Kec. Gunungsitoli, Kota Gunungsitoli";"SUMATERA UTARA";"22811";"Indonesia";"";"";"";"1.2802848";"97.6006548";"https://maps.google.com/?cid=0x0:0xf2dc1b95f86b90f4";""
"building materials";"Toko Bahan Bangunan";"UD. ZULFAN";"Hili Hao, Kec. Gunungsitoli, Kota Gunungsitoli, Sumatera Utara";"Kota Gunungsitoli, Sumatera Utara";"SUMATERA UTARA";"";"Indonesia";"";"";"";"1.3315433";"97.5960085";"https://maps.google.com/?cid=0x0:0xa85b7c1070ec1d4a";""
"building materials";"Toko";"Tokosa Hall";"2F2V+MFC, Onowaembo, Kec. Lahomi, Kabupaten Nias Barat, Sumatera Utara 22864";"Onowaembo, Kec. Lahomi, Kabupaten Nias Barat";"SUMATERA UTARA";"22864";"Indonesia";"";"";"";"1.0016964";"97.4936431";"https://maps.google.com/?cid=0x0:0xd337d012546c08da";""
"building materials";"Toko Bahan Bangunan";"Bintang Gemilang";"8J74+PGQ, Jl. Yos Sudarso Ujung, Ombolata Ulu, Kec. Gunungsitoli, Kota Gunungsitoli, Sumatera Utara";"Kota Gunungsitoli, Sumatera Utara";"SUMATERA UTARA";"";"Indonesia";" 082363345222";"";"";"1.3143268";"97.6063735";"https://maps.google.com/?cid=0x0:0xbd93f14995b591";""
"building materials";"Toko Alat-Alat";"UD. Start Jaya";"Jl. Yos Sudarso Ujung No.KM. 5,6, Hili Hao, Kec. Gunungsitoli, Kota Gunungsitoli, Sumatera Utara";"Kota Gunungsitoli, Sumatera Utara";"SUMATERA UTARA";"";"Indonesia";" 081231645392";"";"";"1.3320776";"97.5957471";"https://maps.google.com/?cid=0x0:0xb80213d4744667a1";""
"building materials";"Toko Bahan Bangunan";"Bata Pres Nias Santo Lase";"Iraono Lase, Kec. Gunungsitoli Alo'oa, Kota Gunungsitoli, Sumatera Utara 22851";"Kec. Gunungsitoli Alo'oa, Kota Gunungsitoli";"SUMATERA UTARA";"22851";"Indonesia";" 082233533407";"";"";"1.3114966";"97.5733412";"https://maps.google.com/?cid=0x0:0xb9e5b7fcc4157eed";""
"building materials";"Toko Bahan Bangunan";"UD. SANGEHAO";"Jl. Nias Tengah No.Km. 33, Hiliuso, Kec. HiliSerangkai, Kabupaten Nias, Sumatera Utara";"Kabupaten Nias, Sumatera Utara";"SUMATERA UTARA";"";"Indonesia";"";"";"";"1.1830273";"97.5809173";"https://maps.google.com/?cid=0x0:0xa9b531138d56902";""
"building materials";"building materials";"Kec. Mandrehe Bar.";"Kabupaten Nias Barat, Sumatera Utara";"Kabupaten Nias Barat, Sumatera Utara";"SUMATERA UTARA";"";"Indonesia";"";"";"";"0.998808";"97.4182241";"https://maps.google.com/?cid=0x0:0x7de90688f484314d";""
"building materials";"building materials";"UD. TIBERS";"3G77+4J5, Fadoro, Kec. Mandrehe, Kabupaten Nias Barat, Sumatera Utara";"Kabupaten Nias Barat, Sumatera Utara";"SUMATERA UTARA";"";"Indonesia";"";"";"";"1.0627591";"97.5141208";"https://maps.google.com/?cid=0x0:0x249c55b4beea3def";""
"building materials";"building materials";"Sumatera Utara 22814";"Saombo, Kec. Gunungsitoli, Kota Gunungsitoli, Sumatera Utara";"Kota Gunungsitoli, Sumatera Utara";"SUMATERA UTARA";"";"Indonesia";"";"";"";"1.2897758";"97.6188016";"https://maps.google.com/?cid=0x0:0x72677cb0cc3dbd55";""
"building materials";"Toko Alat-Alat";"Toko Karya Baru";"Jl. Sudirman Pasar No.30, Saombo, Kec. Gunungsitoli, Kota Gunungsitoli, Sumatera Utara";"Kota Gunungsitoli, Sumatera Utara";"SUMATERA UTARA";"";"Indonesia";" 08179025265";"";"";"1.2872793";"97.6175534";"https://maps.google.com/?cid=0x0:0x3f78a2a9624e44a5";""
"building materials";"Toko";"Toko Setia Jaya";"JL Sirao, No. 116, Pasar Kota, Saombo, Kec. Gunungsitoli, Kota Gunungsitoli, Sumatera Utara 22814";"No. 116, Pasar Kota, Saombo, Kec. Gunungsitoli, Kota Gunungsitoli";"SUMATERA UTARA";"22814";"Indonesia";" 063922526";"";"";"1.2900876";"97.6170381";"https://maps.google.com/?cid=0x0:0xef3b5a98bce917c8";""
"building materials";"Toko Bahan Bangunan";"Toko Bangun";"Jl. Sirao No.46D, Pasar, Kec. Gunungsitoli, Kota Gunungsitoli, Sumatera Utara 22815";"Pasar, Kec. Gunungsitoli, Kota Gunungsitoli";"SUMATERA UTARA";"22815";"Indonesia";" 081361694919";"";"";"1.2899006";"97.6176682";"https://maps.google.com/?cid=0x0:0x9ce61f651849b821";""
"building materials";"Toko Bahan Bangunan";"Metro jaya";"Jl. Sudirman No.5, Saombo, Kec. Gunungsitoli, Kota Gunungsitoli, Sumatera Utara";"Kota Gunungsitoli, Sumatera Utara";"SUMATERA UTARA";"";"Indonesia";"";"";"";"1.2876696";"97.6184053";"https://maps.google.com/?cid=0x0:0xf94d19040b837d3b";""
"building materials";"Toko Elektronik";"Toko Nusantara";"Jl. Sirao No.115, Saombo, Kec. Gunungsitoli, Kota Gunungsitoli, Sumatera Utara 22814";"Saombo, Kec. Gunungsitoli, Kota Gunungsitoli";"SUMATERA UTARA";"22814";"Indonesia";" 081990000098";"";"";"1.2900245";"97.6185133";"https://maps.google.com/?cid=0x0:0xd9db49ea734acc60";""
"building materials";"Toko Bahan Bangunan";"Toko Karya Rezeki";"JL Diponegoro, No. 83, Lingkungan 2, Ilir, Gunungsitoli, Ps. Gn. Sitoli, Kec. Gunungsitoli, Kota Gunungsitoli, Sumatera Utara";"Kota Gunungsitoli, Sumatera Utara";"SUMATERA UTARA";"";"Indonesia";" 063922198";"";"";"1.2875646";"97.6221646";"https://maps.google.com/?cid=0x0:0x973cc7bf514e3b95";""
"building materials";"building materials";"UD. TIBERS";"3G77+4J5, Fadoro, Kec. Mandrehe, Kabupaten Nias Barat, Sumatera Utara";"Kabupaten Nias Barat, Sumatera Utara";"SUMATERA UTARA";"";"Indonesia";"";"";"";"1.0627591";"97.5141208";"https://maps.google.com/?cid=0x0:0x249c55b4beea3def";""
"building materials";"building materials";"UD may nerfan";"3G6V+JQM dusun 2 Hiligo'o, Lakhene, Kec. Mandrehe, Kabupaten Nias Barat, Sumatera Utara 22862";"Lakhene, Kec. Mandrehe, Kabupaten Nias Barat";"SUMATERA UTARA";"22862";"Indonesia";"";"";"";"1.0615992";"97.5444337";"https://maps.google.com/?cid=0x0:0xa9fc1d5ff161abd4";""
"building materials";"Pemasok Pipa";"Surya Utama Metalindo PT.";"Jl. Gunung Sahari Raya no.1 Mangga Dua Square lt 2 blok C 61, RT.11/RW.6, Ancol, Kec. Pademangan, Jkt Utara, Daerah Khusus Ibukota Jakarta 14420";"RT.11/RW.6, Ancol, Kec. Pademangan, Jkt Utara";"SUMATERA UTARA";"14420";"Indonesia";" 082310999956";"";"";"-6.1387824";"106.8314329";"https://maps.google.com/?cid=0x0:0x213f9340f3f4865";""
"building materials";"Kontraktor Insulasi";"PT Tali Rejeki";"Jl. Taruma Jaya No.11, Setia Asih, Kec. Tarumajaya, Kota Bks, Jawa Barat 17215";"Setia Asih, Kec. Tarumajaya, Kota Bks";"SUMATERA UTARA";"17215";"Indonesia";" 02122889956";"";"";"-6.1652412";"106.9900241";"https://maps.google.com/?cid=0x0:0x15898fadc067eab7";""
"building materials";"Pusat Perbelanjaan";"UD. Iman";"2FXQ+WX2, Fadoro, Kec. Mandrehe, Kabupaten Nias Barat, Sumatera Utara 22862";"Fadoro, Kec. Mandrehe, Kabupaten Nias Barat";"SUMATERA UTARA";"22862";"Indonesia";" 081370985334";"";"";"1.0497659";"97.489902";"https://maps.google.com/?cid=0x0:0xca610322b1e413c3";""
"building materials";"Toko";"UD. Merry";"XF4C+8QP, Sisobandrao, Kec. Sirombu, Kabupaten Nias Barat, Sumatera Utara 22863";"Sisobandrao, Kec. Sirombu, Kabupaten Nias Barat";"SUMATERA UTARA";"22863";"Indonesia";"";"";"";"0.9560947";"97.4724321";"https://maps.google.com/?cid=0x0:0x1a2a9ad6f3670a1b";""
"building materials";"Toko Bahan Bangunan";"SANGEHAO";"4H3J+3C7, Jl. Gunungsitoli, Lolofaoso, Kec. Lolofitu Moi, Kabupaten Nias Barat, Sumatera Utara 22864";"Jl. Gunungsitoli, Lolofaoso, Kec. Lolofitu Moi, Kabupaten Nias Barat";"SUMATERA UTARA";"22864";"Indonesia";" 081287458656";"";"";"1.1026685";"97.5810422";"https://maps.google.com/?cid=0x0:0xbf83c9d7284d1ad7";""
"building materials";"building materials";"Usaha Sendroro";"3H96+WQW, Jl. Raya Tuwuna, Tuwuna, Kec. Mandrehe, Kabupaten Nias Barat, Sumatera Utara 22875";"Jl. Raya Tuwuna, Tuwuna, Kec. Mandrehe, Kabupaten Nias Barat";"SUMATERA UTARA";"22875";"Indonesia";" 085275466922";"";"";"1.0698693";"97.5619609";"https://maps.google.com/?cid=0x0:0xd43eb8012b6158b4";""
"building materials";"building materials";"Ud.Infoz";"3G6W+5W2, jl. menuju, Lologulo, Kec. Mandrehe, Kabupaten Nias Barat, Sumatera Utara 22862";"jl. menuju, Lologulo, Kec. Mandrehe, Kabupaten Nias Barat";"SUMATERA UTARA";"22862";"Indonesia";" 085276568877";"";"";"1.0607899";"97.548066";"https://maps.google.com/?cid=0x0:0xa9abc99f30a4ccc";""
"building materials";"building materials";"Sumatera Utara 22862";"Kabupaten Nias Barat, Sumatera Utara";"Kabupaten Nias Barat, Sumatera Utara";"SUMATERA UTARA";"";"Indonesia";"";"";"";"1.0305654";"97.5030669";"https://maps.google.com/?cid=0x0:0x343297d388925be1";""
"building materials";"Toko Bahan Bangunan";"Building materials";"Jl. Perbatasan No.8, Tj. Mulia, Kec. Medan Deli, Kota Medan, Sumatera Utara 20241";"Tj. Mulia, Kec. Medan Deli, Kota Medan";"SUMATERA UTARA";"20241";"Indonesia";"";"";"";"3.6399905";"98.686993";"https://maps.google.com/?cid=0x0:0x2eb97cc0104af33";""
"building materials";"building materials";"UD may nerfan";"3G6V+JQM dusun 2 Hiligo'o, Lakhene, Kec. Mandrehe, Kabupaten Nias Barat, Sumatera Utara 22862";"Lakhene, Kec. Mandrehe, Kabupaten Nias Barat";"SUMATERA UTARA";"22862";"Indonesia";"";"";"";"1.0615992";"97.5444337";"https://maps.google.com/?cid=0x0:0xa9fc1d5ff161abd4";""
"building materials";"Toko";"Tokosa Hall";"2F2V+MFC, Onowaembo, Kec. Lahomi, Kabupaten Nias Barat, Sumatera Utara 22864";"Onowaembo, Kec. Lahomi, Kabupaten Nias Barat";"SUMATERA UTARA";"22864";"Indonesia";"";"";"";"1.0016964";"97.4936431";"https://maps.google.com/?cid=0x0:0xd337d012546c08da";""
"building materials";"Jembatan";"Jembatan Moro'o Tetehosi";"2FXJ+7VQ, Jl. Tetehosi, Tetehosi, Kec. Mandrehe, Kabupaten Nias Barat, Sumatera Utara 22862";"Jl. Tetehosi, Tetehosi, Kec. Mandrehe, Kabupaten Nias Barat";"SUMATERA UTARA";"22862";"Indonesia";"";"";"";"1.0482108";"97.4822467";"https://maps.google.com/?cid=0x0:0x3703a5aa9555089a";""
"building materials";"Toko";"Afo Keramik";"XFVW+VV3, Onolimbu, Kec. Lahomi, Kabupaten Nias Barat, Sumatera Utara 22864";"Onolimbu, Kec. Lahomi, Kabupaten Nias Barat";"SUMATERA UTARA";"22864";"Indonesia";" 081287458656";"";"";"0.9945887";"97.4971783";"https://maps.google.com/?cid=0x0:0x4f35716c086d1586";""
"building materials";"Toko";"UD. Merry";"XF4C+8QP, Sisobandrao, Kec. Sirombu, Kabupaten Nias Barat, Sumatera Utara 22863";"Sisobandrao, Kec. Sirombu, Kabupaten Nias Barat";"SUMATERA UTARA";"22863";"Indonesia";"";"";"";"0.9560947";"97.4724321";"https://maps.google.com/?cid=0x0:0x1a2a9ad6f3670a1b";""
"building materials";"Pusat Perbelanjaan";"UD. Iman";"2FXQ+WX2, Fadoro, Kec. Mandrehe, Kabupaten Nias Barat, Sumatera Utara 22862";"Fadoro, Kec. Mandrehe, Kabupaten Nias Barat";"SUMATERA UTARA";"22862";"Indonesia";" 081370985334";"";"";"1.0497659";"97.489902";"https://maps.google.com/?cid=0x0:0xca610322b1e413c3";""
"building materials";"Toko Elektronik";"UD Niat";"Bawosalo'o, Tugala, Kec. Sirombu, Kabupaten Nias Barat, Sumatera Utara 22863";"Tugala, Kec. Sirombu, Kabupaten Nias Barat";"SUMATERA UTARA";"22863";"Indonesia";" 082288777575";"";"";"0.9641613";"97.438363";"https://maps.google.com/?cid=0x0:0xe16f98227744705c";""
"building materials";"Toko Bahan Bangunan";"SANGEHAO";"4H3J+3C7, Jl. Gunungsitoli, Lolofaoso, Kec. Lolofitu Moi, Kabupaten Nias Barat, Sumatera Utara 22864";"Jl. Gunungsitoli, Lolofaoso, Kec. Lolofitu Moi, Kabupaten Nias Barat";"SUMATERA UTARA";"22864";"Indonesia";" 081287458656";"";"";"1.1026685";"97.5810422";"https://maps.google.com/?cid=0x0:0xbf83c9d7284d1ad7";""
"building materials";"building materials";"Usaha Sendroro";"3H96+WQW, Jl. Raya Tuwuna, Tuwuna, Kec. Mandrehe, Kabupaten Nias Barat, Sumatera Utara 22875";"Jl. Raya Tuwuna, Tuwuna, Kec. Mandrehe, Kabupaten Nias Barat";"SUMATERA UTARA";"22875";"Indonesia";" 085275466922";"";"";"1.0698693";"97.5619609";"https://maps.google.com/?cid=0x0:0xd43eb8012b6158b4";""
"building materials";"building materials";"Ud.Infoz";"3G6W+5W2, jl. menuju, Lologulo, Kec. Mandrehe, Kabupaten Nias Barat, Sumatera Utara 22862";"jl. menuju, Lologulo, Kec. Mandrehe, Kabupaten Nias Barat";"SUMATERA UTARA";"22862";"Indonesia";" 085276568877";"";"";"1.0607899";"97.548066";"https://maps.google.com/?cid=0x0:0xa9abc99f30a4ccc";""
"building materials";"building materials";"Kec. Moro'o";"Kabupaten Nias Barat, Sumatera Utara";"Kabupaten Nias Barat, Sumatera Utara";"SUMATERA UTARA";"";"Indonesia";"";"";"";"1.0879938";"97.4392868";"https://maps.google.com/?cid=0x0:0x2a217c06abcb5de2";""
"building materials";"Toko Bahan Bangunan";"UD. Riol Gorong-gorong Sitorus Pane";"F4QR+X37, Nalela, Kec. Porsea, Toba, Sumatera Utara 22386";"Nalela, Kec. Porsea, Toba";"SUMATERA UTARA";"22386";"Indonesia";"";"";"";"2.4899108";"99.1401764";"https://maps.google.com/?cid=0x0:0xf50d90a6ce47ee2";""
"building materials";"Toko";"Morawala Building Material";"Nakheel Road, Deira - Dubai - Uni Emirat Arab";"Dubai - Uni Emirat Arab";"SUMATERA UTARA";"";"Indonesia";" +97142294395";"";"";"25.2732455";"55.3118208";"https://maps.google.com/?cid=0x0:0x35fa416dcac166b6";""
"building materials";"Toko Bahan Bangunan";"Dalfaa Building Material Trading";"Al Nakheel Street - Naif - Dubai - Uni Emirat Arab";"Dubai - Uni Emirat Arab";"SUMATERA UTARA";"";"Indonesia";" +97142280959";"";"";"25.2730228";"55.3114592";"https://maps.google.com/?cid=0x0:0xf4b670d1d03dd20c";""
"building materials";"Toko Bahan Bangunan";"Misar Trading Company LLC";"Al Burj St - Deira - Dubai - Uni Emirat Arab";"Dubai - Uni Emirat Arab";"SUMATERA UTARA";"";"Indonesia";" +97143205786";"";"";"25.26965";"55.305406";"https://maps.google.com/?cid=0x0:0xb04a944640342f5b";""
"building materials";"Toko Bahan Bangunan";"Al Madhalla Trading LLC";"78F6+GGP - Nakheel Road Deira - Dubai - Uni Emirat Arab";"Dubai - Uni Emirat Arab";"SUMATERA UTARA";"";"Indonesia";" +97142223585";"";"";"25.273839";"55.3113368";"https://maps.google.com/?cid=0x0:0x7f80e8027db3dcac";""
"building materials";"Toko Pakaian Wanita";"Old Sabkha Grocery";"78F6+8PG - Naif - Dubai - Uni Emirat Arab";"Dubai - Uni Emirat Arab";"SUMATERA UTARA";"";"Indonesia";" +971581031075";"";"";"25.2733053";"55.3118253";"https://maps.google.com/?cid=0x0:0x2dab9daaa4afcfcf";""
"building materials";"Toko";"UD. Merry";"XF4C+8QP, Sisobandrao, Kec. Sirombu, Kabupaten Nias Barat, Sumatera Utara 22863";"Sisobandrao, Kec. Sirombu, Kabupaten Nias Barat";"SUMATERA UTARA";"22863";"Indonesia";"";"";"";"0.9560947";"97.4724321";"https://maps.google.com/?cid=0x0:0x1a2a9ad6f3670a1b";""
"building materials";"Toko bahan makanan";"UD. MELAYANI";"XF4C+R38, Sisobandrao, Kec. Sirombu, Kabupaten Nias Barat, Sumatera Utara 22863";"Sisobandrao, Kec. Sirombu, Kabupaten Nias Barat";"SUMATERA UTARA";"22863";"Indonesia";"";"";"";"0.9570251";"97.4701882";"https://maps.google.com/?cid=0x0:0x79fd860b3ba38491";""
"building materials";"building materials";"Ud.Infoz";"3G6W+5W2, jl. menuju, Lologulo, Kec. Mandrehe, Kabupaten Nias Barat, Sumatera Utara 22862";"jl. menuju, Lologulo, Kec. Mandrehe, Kabupaten Nias Barat";"SUMATERA UTARA";"22862";"Indonesia";" 085276568877";"";"";"1.0607899";"97.548066";"https://maps.google.com/?cid=0x0:0xa9abc99f30a4ccc";""
"building materials";"building materials";"Kec. Ulu Moro'o";"Kabupaten Nias Barat, Sumatera Utara";"Kabupaten Nias Barat, Sumatera Utara";"SUMATERA UTARA";"";"Indonesia";"";"";"";"1.0144644";"97.5333185";"https://maps.google.com/?cid=0x0:0xcabc6a3673d44b2d";""
"toko bangunan";"toko bangunan";"Jl. Lahömi";"Lologundre, Kec. Lahomi, Kabupaten Nias Barat, Sumatera Utara 22864";"Kec. Lahomi, Kabupaten Nias Barat";"SUMATERA UTARA";"22864";"Indonesia";"";"";"";"0.986949";"97.5036587";"https://maps.google.com/?cid=0x0:0x6409da5bc64f976c";""
"toko bangunan";"Toko Bahan Bangunan";"Toko Sejahtera";"Jl. Diponegoro No.218, Ilir, Kec. Gunungsitoli, Kota Gunungsitoli, Sumatera Utara";"Kota Gunungsitoli, Sumatera Utara";"SUMATERA UTARA";"";"Indonesia";" 08179025265";"";"";"1.2832148";"97.6263947";"https://maps.google.com/?cid=0x0:0x465e75de58cb5644";""
"toko bangunan";"Rumah Kayu";"Hilidohona";"RV44+X8P, Hilidohona, Kec. Sidua'ori, Kabupaten Nias Selatan, Sumatera Utara";"Kabupaten Nias Selatan, Sumatera Utara";"SUMATERA UTARA";"";"Indonesia";"";"";"";"0.8074682";"97.8558357";"https://maps.google.com/?cid=0x0:0xf0aba6c25707af74";""
"toko bangunan";"Toko Bahan Bangunan";"SANGEHAO";"4H3J+3C7, Jl. Gunungsitoli, Lolofaoso, Kec. Lolofitu Moi, Kabupaten Nias Barat, Sumatera Utara 22864";"Jl. Gunungsitoli, Lolofaoso, Kec. Lolofitu Moi, Kabupaten Nias Barat";"SUMATERA UTARA";"22864";"Indonesia";" 081287458656";"";"";"1.1026685";"97.5810422";"https://maps.google.com/?cid=0x0:0xbf83c9d7284d1ad7";""
"toko bangunan";"Toko Alat-Alat";"UD. Start Jaya";"Jl. Yos Sudarso Ujung No.KM. 5,6, Hili Hao, Kec. Gunungsitoli, Kota Gunungsitoli, Sumatera Utara";"Kota Gunungsitoli, Sumatera Utara";"SUMATERA UTARA";"";"Indonesia";" 081231645392";"";"";"1.3320776";"97.5957471";"https://maps.google.com/?cid=0x0:0xb80213d4744667a1";""
"toko bangunan";"Toko Kayu";"Panglong UD Fortuna desa dahadano gawu-gawu,jln sutomo no.101 kota gunungsitoli nias";"Jl. Sutomo No.101, Dahadano Gawu Gawu, Kec. Gunungsitoli, Kota Gunungsitoli, Sumatera Utara 22810";"Dahadano Gawu Gawu, Kec. Gunungsitoli, Kota Gunungsitoli";"SUMATERA UTARA";"22810";"Indonesia";" 081231645392";"";"";"1.2678817";"97.6136189";"https://maps.google.com/?cid=0x0:0x33c97b0eecf5a043";""
"toko bangunan";"Toko Bahan Bangunan";"TOKO BANGUNAN 123";"7J3Q+RM6, Jl. Diponegoro, Fodo, Kec. Gunungsitoli, Kota Gunungsitoli, Sumatera Utara";"Kota Gunungsitoli, Sumatera Utara";"SUMATERA UTARA";"";"Indonesia";"";"";"";"1.2545367";"97.639141";"https://maps.google.com/?cid=0x0:0x92a58f55691c5b21";""
"toko bangunan";"Toko Bahan Bangunan";"Star jaya";"8HJW+R68, Unnamed Road, Hili Hao, Kec. Gunungsitoli, Kota Gunungsitoli, Sumatera Utara 22871";"Unnamed Road, Hili Hao, Kec. Gunungsitoli, Kota Gunungsitoli";"SUMATERA UTARA";"22871";"Indonesia";" 082282403347";"";"";"1.3320331";"97.5955906";"https://maps.google.com/?cid=0x0:0x6913cd5225353fdf";""
"toko bangunan";"Toko Bahan Bangunan";"Toko Bangunan Adinda";"Jl. Letda Sujono No.42 kel, Bandar Selamat, Kec. Medan Tembung, Kota Medan, Sumatera Utara 20223";"Bandar Selamat, Kec. Medan Tembung, Kota Medan";"SUMATERA UTARA";"20223";"Indonesia";" 083186603738";"";"";"3.5975478";"98.7140284";"https://maps.google.com/?cid=0x0:0x9e9973da2917133e";""
"toko bangunan";"Toko Bahan Bangunan";"Toko Pelita Jaya";"JL Diponegoro, No. 103A, Lingkungan 2, Ilir, Ps. Gn. Sitoli, Kec. Gunungsitoli, Kota Gunungsitoli, Sumatera Utara";"Kota Gunungsitoli, Sumatera Utara";"SUMATERA UTARA";"";"Indonesia";" 085769908768";"";"";"1.2872189";"97.6226985";"https://maps.google.com/?cid=0x0:0x2843cde41dbb3cca";""
"toko bangunan";"Toko Bahan Bangunan";"Total Bangunan 696";"Jalan Gunungsitoli -Lahewa No.km.14, RW.5, Muara Indah, Kec. Gunungsitoli Utara, Kota Gunungsitoli, Sumatera Utara 22851";"RW.5, Muara Indah, Kec. Gunungsitoli Utara, Kota Gunungsitoli";"SUMATERA UTARA";"22851";"Indonesia";" 082364705520";"";"";"1.3839234";"97.5375444";"https://maps.google.com/?cid=0x0:0x9e5edcc3989bea1d";""
"toko bangunan";"Toko Bahan Bangunan";"Toko Material Bangunan Daniel";"5HW9+W7R, Dahadano Botombawo, Kec. HiliSerangkai, Kabupaten Nias, Sumatera Utara 22851";"Dahadano Botombawo, Kec. HiliSerangkai, Kabupaten Nias";"SUMATERA UTARA";"22851";"Indonesia";" 083114785308";"";"";"1.1975201";"97.5674987";"https://maps.google.com/?cid=0x0:0x5ac67810e5b018cd";""
"toko bangunan";"Toko";"UD. RAHMAT (Panglong)";"7JM5+84R, Jl. Fondrako, Boyo, Kec. Gunungsitoli, Kota Gunungsitoli, Sumatera Utara";"Kota Gunungsitoli, Sumatera Utara";"SUMATERA UTARA";"";"Indonesia";" 082282403347";"";"";"1.2833649";"97.6077764";"https://maps.google.com/?cid=0x0:0x820ab11d721e11ed";""
"toko bangunan";"Toko Bahan Bangunan";"UD. SANGEHAO";"Jl. Nias Tengah No.Km. 33, Hiliuso, Kec. HiliSerangkai, Kabupaten Nias, Sumatera Utara";"Kabupaten Nias, Sumatera Utara";"SUMATERA UTARA";"";"Indonesia";"";"";"";"1.1830273";"97.5809173";"https://maps.google.com/?cid=0x0:0xa9b531138d56902";""
"toko bangunan";"Toko Bahan Bangunan";"Tokoh Bangunan HLD";"8Q63+QCX, Desa, Padang garugur jae, Kec. Aek Nabara Barumun, Kabupaten Padang Lawas, Sumatera Utara";"Kabupaten Padang Lawas, Sumatera Utara";"SUMATERA UTARA";"";"Indonesia";" 082210235876";"";"";"1.312";"99.7536001";"https://maps.google.com/?cid=0x0:0xf60492cf1cc1863b";""
"toko bangunan";"Toko Bahan Bangunan";"Toko Rayhan Bangunan";"X3C9+J2X, Ladang Panjang, Kec. Tigo Nagari, Kabupaten Pasaman, Sumatera Barat 26353";"Ladang Panjang, Kec. Tigo Nagari, Kabupaten Pasaman";"SUMATERA UTARA";"26353";"Indonesia";" 085814747384";"";"";"-0.0283863";"100.0676248";"https://maps.google.com/?cid=0x0:0x9e2284241e1ca7ea";""
"toko bangunan";"toko bangunan";"Sumatera Utara 22875";"Kec. Lolofitu Moi, Kabupaten Nias Barat, Sumatera Utara";"Kabupaten Nias Barat, Sumatera Utara";"SUMATERA UTARA";"";"Indonesia";"";"";"";"1.0588624";"97.5788975";"https://maps.google.com/?cid=0x0:0x9c54d35d78ab160f";""
"toko bangunan";"Toko Bahan Bangunan";"SANGEHAO";"4H3J+3C7, Jl. Gunungsitoli, Lolofaoso, Kec. Lolofitu Moi, Kabupaten Nias Barat, Sumatera Utara 22864";"Jl. Gunungsitoli, Lolofaoso, Kec. Lolofitu Moi, Kabupaten Nias Barat";"SUMATERA UTARA";"22864";"Indonesia";" 081287458656";"";"";"1.1026685";"97.5810422";"https://maps.google.com/?cid=0x0:0xbf83c9d7284d1ad7";""
"toko bangunan";"toko bangunan";"UD may nerfan";"3G6V+JQM dusun 2 Hiligo'o, Lakhene, Kec. Mandrehe, Kabupaten Nias Barat, Sumatera Utara 22862";"Lakhene, Kec. Mandrehe, Kabupaten Nias Barat";"SUMATERA UTARA";"22862";"Indonesia";"";"";"";"1.0615992";"97.5444337";"https://maps.google.com/?cid=0x0:0xa9fc1d5ff161abd4";""
"toko bangunan";"toko bangunan";"Sumatera Utara 22862";"Kabupaten Nias Barat, Sumatera Utara";"Kabupaten Nias Barat, Sumatera Utara";"SUMATERA UTARA";"";"Indonesia";"";"";"";"1.0305654";"97.5030669";"https://maps.google.com/?cid=0x0:0x343297d388925be1";""
"toko bangunan";"Pusat Perbelanjaan";"UD. Iman";"2FXQ+WX2, Fadoro, Kec. Mandrehe, Kabupaten Nias Barat, Sumatera Utara 22862";"Fadoro, Kec. Mandrehe, Kabupaten Nias Barat";"SUMATERA UTARA";"22862";"Indonesia";" 081370985334";"";"";"1.0497659";"97.489902";"https://maps.google.com/?cid=0x0:0xca610322b1e413c3";""
"toko bangunan";"toko bangunan";"UD may nerfan";"3G6V+JQM dusun 2 Hiligo'o, Lakhene, Kec. Mandrehe, Kabupaten Nias Barat, Sumatera Utara 22862";"Lakhene, Kec. Mandrehe, Kabupaten Nias Barat";"SUMATERA UTARA";"22862";"Indonesia";"";"";"";"1.0615992";"97.5444337";"https://maps.google.com/?cid=0x0:0xa9fc1d5ff161abd4";""
"toko bangunan";"Pusat Perbelanjaan";"UD. Cemerlang";"2FXR+RGC, Fadoro, Kec. Mandrehe, Kabupaten Nias Barat, Sumatera Utara 22862";"Fadoro, Kec. Mandrehe, Kabupaten Nias Barat";"SUMATERA UTARA";"22862";"Indonesia";"";"";"";"1.049557";"97.4912757";"https://maps.google.com/?cid=0x0:0x20023c00eed1204b";""
"toko bangunan";"Toko";"UD. CEMERLANG";"Jl. Raya Onolimbu - Lahomi No.7, Onolimbu, Kec. Lahomi, Kabupaten Nias Barat, Sumatera Utara 22864";"Onolimbu, Kec. Lahomi, Kabupaten Nias Barat";"SUMATERA UTARA";"22864";"Indonesia";" 081287458656";"";"";"1.0096416";"97.4925114";"https://maps.google.com/?cid=0x0:0x81401eb2dfac7be5";""
"toko bangunan";"Toko";"Afo Keramik";"XFVW+VV3, Onolimbu, Kec. Lahomi, Kabupaten Nias Barat, Sumatera Utara 22864";"Onolimbu, Kec. Lahomi, Kabupaten Nias Barat";"SUMATERA UTARA";"22864";"Indonesia";" 081287458656";"";"";"0.9945887";"97.4971783";"https://maps.google.com/?cid=0x0:0x4f35716c086d1586";""
"toko bangunan";"Toko";"UD. Merry";"XF4C+8QP, Sisobandrao, Kec. Sirombu, Kabupaten Nias Barat, Sumatera Utara 22863";"Sisobandrao, Kec. Sirombu, Kabupaten Nias Barat";"SUMATERA UTARA";"22863";"Indonesia";"";"";"";"0.9560947";"97.4724321";"https://maps.google.com/?cid=0x0:0x1a2a9ad6f3670a1b";""
"toko bangunan";"toko bangunan";"Ud.Infoz";"3G6W+5W2, jl. menuju, Lologulo, Kec. Mandrehe, Kabupaten Nias Barat, Sumatera Utara 22862";"jl. menuju, Lologulo, Kec. Mandrehe, Kabupaten Nias Barat";"SUMATERA UTARA";"22862";"Indonesia";" 085276568877";"";"";"1.0607899";"97.548066";"https://maps.google.com/?cid=0x0:0xa9abc99f30a4ccc";""
"toko bangunan";"toko bangunan";"UD. TIBERS";"3G77+4J5, Fadoro, Kec. Mandrehe, Kabupaten Nias Barat, Sumatera Utara";"Kabupaten Nias Barat, Sumatera Utara";"SUMATERA UTARA";"";"Indonesia";"";"";"";"1.0627591";"97.5141208";"https://maps.google.com/?cid=0x0:0x249c55b4beea3def";""
"toko bangunan";"Toko Elektronik";"UD. SEDERHANA ELECTRIC";"WJWP+9JQ, Koendrafo, Kec. Lolomatua, Kabupaten Nias Selatan, Sumatera Utara 22867";"Koendrafo, Kec. Lolomatua, Kabupaten Nias Selatan";"SUMATERA UTARA";"22867";"Indonesia";" 081287458656";"";"";"0.9459738";"97.6366155";"https://maps.google.com/?cid=0x0:0xf311ab55dbaf7faf";""
"toko bangunan";"Toko Elektronik";"UD.Bersama";"WHRX+J9G, Sisarahili Oyo, Kec. Onohazumba, Kabupaten Nias Selatan, Sumatera Utara 22864";"Sisarahili Oyo, Kec. Onohazumba, Kabupaten Nias Selatan";"SUMATERA UTARA";"22864";"Indonesia";" 085275133112";"";"";"0.9415563";"97.5984456";"https://maps.google.com/?cid=0x0:0xea06ec67531415e4";""
"toko bangunan";"toko bangunan";"Sumatera Utara 22812";"Kabupaten Nias Barat, Sumatera Utara";"Kabupaten Nias Barat, Sumatera Utara";"SUMATERA UTARA";"";"Indonesia";"";"";"";"1.0164701";"97.4435441";"https://maps.google.com/?cid=0x0:0xd11190b65d8d63eb";""
"toko bangunan";"Toko Bahan Bangunan";"Toko Bangunan Indo teknik Karya Baru";"7JP7+532, Saombo, Kec. Gunungsitoli, Kota Gunungsitoli, Sumatera Utara";"Kota Gunungsitoli, Sumatera Utara";"SUMATERA UTARA";"";"Indonesia";" 083186603738";"";"";"1.2853834";"97.6126406";"https://maps.google.com/?cid=0x0:0xa57b2f8afbafa993";""
"toko bangunan";"";"UD.78";"Jl. Yos Sudarso Ujung No.26B, Saombo, Kec. Gunungsitoli, Kota Gunungsitoli, Sumatera Utara";"Kota Gunungsitoli, Sumatera Utara";"SUMATERA UTARA";"";"Indonesia";" 082274686060";"";"";"1.2946077";"97.6094872";"https://maps.google.com/?cid=0x0:0x7beb4b64cda0563a";""
"toko bangunan";"Pusat Perbelanjaan";"UD. Iman";"2FXQ+WX2, Fadoro, Kec. Mandrehe, Kabupaten Nias Barat, Sumatera Utara 22862";"Fadoro, Kec. Mandrehe, Kabupaten Nias Barat";"SUMATERA UTARA";"22862";"Indonesia";" 081370985334";"";"";"1.0497659";"97.489902";"https://maps.google.com/?cid=0x0:0xca610322b1e413c3";""
"toko bangunan";"Toko Bahan Bangunan";"Toko Pelita Jaya";"JL Diponegoro, No. 103A, Lingkungan 2, Ilir, Ps. Gn. Sitoli, Kec. Gunungsitoli, Kota Gunungsitoli, Sumatera Utara";"Kota Gunungsitoli, Sumatera Utara";"SUMATERA UTARA";"";"Indonesia";" 085769908768";"";"";"1.2872189";"97.6226985";"https://maps.google.com/?cid=0x0:0x2843cde41dbb3cca";""
"toko bangunan";"Pusat Perbelanjaan";"Pasar Mandrehe";"Fadoro, Kec. Mandrehe, Kabupaten Nias Barat, Sumatera Utara 22862";"Kec. Mandrehe, Kabupaten Nias Barat";"SUMATERA UTARA";"22862";"Indonesia";" 082370874876";"";"";"1.0498175";"97.4906554";"https://maps.google.com/?cid=0x0:0xe3813b2a2e2967d2";""
"toko bangunan";"Toko Bahan Bangunan";"Toko Material Bangunan Daniel";"5HW9+W7R, Dahadano Botombawo, Kec. HiliSerangkai, Kabupaten Nias, Sumatera Utara 22851";"Dahadano Botombawo, Kec. HiliSerangkai, Kabupaten Nias";"SUMATERA UTARA";"22851";"Indonesia";" 083114785308";"";"";"1.1975201";"97.5674987";"https://maps.google.com/?cid=0x0:0x5ac67810e5b018cd";""
"toko bangunan";"Toko Elektronik";"UD Niat";"Bawosalo'o, Tugala, Kec. Sirombu, Kabupaten Nias Barat, Sumatera Utara 22863";"Tugala, Kec. Sirombu, Kabupaten Nias Barat";"SUMATERA UTARA";"22863";"Indonesia";" 082288777575";"";"";"0.9641613";"97.438363";"https://maps.google.com/?cid=0x0:0xe16f98227744705c";""
"toko bangunan";"Toko";"UD. CEMERLANG";"Jl. Raya Onolimbu - Lahomi No.7, Onolimbu, Kec. Lahomi, Kabupaten Nias Barat, Sumatera Utara 22864";"Onolimbu, Kec. Lahomi, Kabupaten Nias Barat";"SUMATERA UTARA";"22864";"Indonesia";" 081287458656";"";"";"1.0096416";"97.4925114";"https://maps.google.com/?cid=0x0:0x81401eb2dfac7be5";""
"toko bangunan";"Toko";"UD. RAHMAT (Panglong)";"7JM5+84R, Jl. Fondrako, Boyo, Kec. Gunungsitoli, Kota Gunungsitoli, Sumatera Utara";"Kota Gunungsitoli, Sumatera Utara";"SUMATERA UTARA";"";"Indonesia";" 082282403347";"";"";"1.2833649";"97.6077764";"https://maps.google.com/?cid=0x0:0x820ab11d721e11ed";""
"toko bangunan";"Toko Bahan Bangunan";"TOKO BANGUNAN 123";"7J3Q+RM6, Jl. Diponegoro, Fodo, Kec. Gunungsitoli, Kota Gunungsitoli, Sumatera Utara";"Kota Gunungsitoli, Sumatera Utara";"SUMATERA UTARA";"";"Indonesia";"";"";"";"1.2545367";"97.639141";"https://maps.google.com/?cid=0x0:0x92a58f55691c5b21";""
"toko bangunan";"Pusat Perbelanjaan";"UD. Cemerlang";"2FXR+RGC, Fadoro, Kec. Mandrehe, Kabupaten Nias Barat, Sumatera Utara 22862";"Fadoro, Kec. Mandrehe, Kabupaten Nias Barat";"SUMATERA UTARA";"22862";"Indonesia";"";"";"";"1.049557";"97.4912757";"https://maps.google.com/?cid=0x0:0x20023c00eed1204b";""
"toko bangunan";"Toko Bahan Bangunan";"UD. ZULFAN";"Hili Hao, Kec. Gunungsitoli, Kota Gunungsitoli, Sumatera Utara";"Kota Gunungsitoli, Sumatera Utara";"SUMATERA UTARA";"";"Indonesia";"";"";"";"1.3315433";"97.5960085";"https://maps.google.com/?cid=0x0:0xa85b7c1070ec1d4a";""
"toko bangunan";"toko bangunan";"UD may nerfan";"3G6V+JQM dusun 2 Hiligo'o, Lakhene, Kec. Mandrehe, Kabupaten Nias Barat, Sumatera Utara 22862";"Lakhene, Kec. Mandrehe, Kabupaten Nias Barat";"SUMATERA UTARA";"22862";"Indonesia";"";"";"";"1.0615992";"97.5444337";"https://maps.google.com/?cid=0x0:0xa9fc1d5ff161abd4";""
"toko bangunan";"Toko Bahan Bangunan";"Batu Bata Pres";"Jl. Fondrako No.145, Hilina A, Kec. Gunungsitoli, Kota Gunungsitoli, Sumatera Utara 22811";"Hilina A, Kec. Gunungsitoli, Kota Gunungsitoli";"SUMATERA UTARA";"22811";"Indonesia";"";"";"";"1.2802848";"97.6006548";"https://maps.google.com/?cid=0x0:0xf2dc1b95f86b90f4";""
"toko bangunan";"Toko Mebel";"JJ FURNITURE";"Onozitoli Siforoasi, Kec. Gunungsitoli, Kota Gunungsitoli, Sumatera Utara 22851";"Kec. Gunungsitoli, Kota Gunungsitoli";"SUMATERA UTARA";"22851";"Indonesia";"";"";"";"1.2651869";"97.605572";"https://maps.google.com/?cid=0x0:0x235fb4aed92976e0";""
"toko bangunan";"Grosir";"Ud. 99 Gunung Sitoli";"7JV6+85Q, Jl. Yos Sudarso Ujung, Iraonogeba, Kec. Gunungsitoli, Kota Gunungsitoli, Sumatera Utara";"Kota Gunungsitoli, Sumatera Utara";"SUMATERA UTARA";"";"Indonesia";" 082361093252";"";"";"1.2933366";"97.6104717";"https://maps.google.com/?cid=0x0:0xcf603407bb7b4f3c";""
"toko bangunan";"Sekolah";"Ombelata ulu";"Jl. Elang I, Ombolata Ulu, Kec. Gunungsitoli, Kota Gunungsitoli, Sumatera Utara";"Kota Gunungsitoli, Sumatera Utara";"SUMATERA UTARA";"";"Indonesia";" 085270925384";"";"";"1.3103813";"97.6089595";"https://maps.google.com/?cid=0x0:0xb8397e83cda6db56";""
"toko bangunan";"Toko Bahan Bangunan";"Bintang Gemilang";"8J74+PGQ, Jl. Yos Sudarso Ujung, Ombolata Ulu, Kec. Gunungsitoli, Kota Gunungsitoli, Sumatera Utara";"Kota Gunungsitoli, Sumatera Utara";"SUMATERA UTARA";"";"Indonesia";" 082363345222";"";"";"1.3143268";"97.6063735";"https://maps.google.com/?cid=0x0:0xbd93f14995b591";""
"toko bangunan";"Toko Alat-Alat";"UD. Start Jaya";"Jl. Yos Sudarso Ujung No.KM. 5,6, Hili Hao, Kec. Gunungsitoli, Kota Gunungsitoli, Sumatera Utara";"Kota Gunungsitoli, Sumatera Utara";"SUMATERA UTARA";"";"Indonesia";" 081231645392";"";"";"1.3320776";"97.5957471";"https://maps.google.com/?cid=0x0:0xb80213d4744667a1";""
"toko bangunan";"Toko";"Afo Keramik";"XFVW+VV3, Onolimbu, Kec. Lahomi, Kabupaten Nias Barat, Sumatera Utara 22864";"Onolimbu, Kec. Lahomi, Kabupaten Nias Barat";"SUMATERA UTARA";"22864";"Indonesia";" 081287458656";"";"";"0.9945887";"97.4971783";"https://maps.google.com/?cid=0x0:0x4f35716c086d1586";""
"toko bangunan";"toko bangunan";"Kec. Mandrehe Bar.";"Kabupaten Nias Barat, Sumatera Utara";"Kabupaten Nias Barat, Sumatera Utara";"SUMATERA UTARA";"";"Indonesia";"";"";"";"0.998808";"97.4182241";"https://maps.google.com/?cid=0x0:0x7de90688f484314d";""
"toko bangunan";"Toko Alat-Alat";"Toko Karya Baru";"Jl. Sudirman Pasar No.30, Saombo, Kec. Gunungsitoli, Kota Gunungsitoli, Sumatera Utara";"Kota Gunungsitoli, Sumatera Utara";"SUMATERA UTARA";"";"Indonesia";" 08179025265";"";"";"1.2872793";"97.6175534";"https://maps.google.com/?cid=0x0:0x3f78a2a9624e44a5";""
"toko bangunan";"toko bangunan";"Sumatera Utara 22814";"Saombo, Kec. Gunungsitoli, Kota Gunungsitoli, Sumatera Utara";"Kota Gunungsitoli, Sumatera Utara";"SUMATERA UTARA";"";"Indonesia";"";"";"";"1.2897758";"97.6188016";"https://maps.google.com/?cid=0x0:0x72677cb0cc3dbd55";""
"toko bangunan";"Toko";"Toko Setia Jaya";"JL Sirao, No. 116, Pasar Kota, Saombo, Kec. Gunungsitoli, Kota Gunungsitoli, Sumatera Utara 22814";"No. 116, Pasar Kota, Saombo, Kec. Gunungsitoli, Kota Gunungsitoli";"SUMATERA UTARA";"22814";"Indonesia";" 063922526";"";"";"1.2900876";"97.6170381";"https://maps.google.com/?cid=0x0:0xef3b5a98bce917c8";""
"toko bangunan";"Toko Bahan Bangunan";"Mitra Baru";"JL Diponegoro, No. 69A, Lingkungan 2, Ilir, Gunungsitoli, Ps. Gn. Sitoli, Kec. Gunungsitoli, Kota Gunungsitoli, Sumatera Utara";"Kota Gunungsitoli, Sumatera Utara";"SUMATERA UTARA";"";"Indonesia";" 083170586111";"";"";"1.2877738";"97.6216442";"https://maps.google.com/?cid=0x0:0xf1149cf92c41909a";""
"toko bangunan";"Toko Bahan Bangunan";"Metro jaya";"Jl. Sudirman No.5, Saombo, Kec. Gunungsitoli, Kota Gunungsitoli, Sumatera Utara";"Kota Gunungsitoli, Sumatera Utara";"SUMATERA UTARA";"";"Indonesia";"";"";"";"1.2876696";"97.6184053";"https://maps.google.com/?cid=0x0:0xf94d19040b837d3b";""
"toko bangunan";"Toko Bahan Bangunan";"Toko Karya Rezeki";"JL Diponegoro, No. 83, Lingkungan 2, Ilir, Gunungsitoli, Ps. Gn. Sitoli, Kec. Gunungsitoli, Kota Gunungsitoli, Sumatera Utara";"Kota Gunungsitoli, Sumatera Utara";"SUMATERA UTARA";"";"Indonesia";" 063922198";"";"";"1.2875646";"97.6221646";"https://maps.google.com/?cid=0x0:0x973cc7bf514e3b95";""
"toko bangunan";"toko bangunan";"Kec. Mandrehe Utara";"Kabupaten Nias Barat, Sumatera Utara";"Kabupaten Nias Barat, Sumatera Utara";"SUMATERA UTARA";"";"Indonesia";"";"";"";"1.1278924";"97.535927";"https://maps.google.com/?cid=0x0:0xaa4f2aa38746626";""
"toko bangunan";"toko bangunan";"Kec. Mandrehe";"Kabupaten Nias Barat, Sumatera Utara";"Kabupaten Nias Barat, Sumatera Utara";"SUMATERA UTARA";"";"Indonesia";"";"";"";"1.0502205";"97.490564";"https://maps.google.com/?cid=0x0:0x5575236955039e3e";""
"toko bangunan";"Toko Alat-Alat";"UD. Start Jaya";"Jl. Yos Sudarso Ujung No.KM. 5,6, Hili Hao, Kec. Gunungsitoli, Kota Gunungsitoli, Sumatera Utara";"Kota Gunungsitoli, Sumatera Utara";"SUMATERA UTARA";"";"Indonesia";" 081231645392";"";"";"1.3320776";"97.5957471";"https://maps.google.com/?cid=0x0:0xb80213d4744667a1";""
"toko bangunan";"Toko Bahan Bangunan";"Star jaya";"8HJW+R68, Unnamed Road, Hili Hao, Kec. Gunungsitoli, Kota Gunungsitoli, Sumatera Utara 22871";"Unnamed Road, Hili Hao, Kec. Gunungsitoli, Kota Gunungsitoli";"SUMATERA UTARA";"22871";"Indonesia";" 082282403347";"";"";"1.3320331";"97.5955906";"https://maps.google.com/?cid=0x0:0x6913cd5225353fdf";""
"toko bangunan";"toko bangunan";"Sumatera Utara 22862";"Kabupaten Nias Barat, Sumatera Utara";"Kabupaten Nias Barat, Sumatera Utara";"SUMATERA UTARA";"";"Indonesia";"";"";"";"1.0305654";"97.5030669";"https://maps.google.com/?cid=0x0:0x343297d388925be1";""
"toko bangunan";"Toko";"UD. CEMERLANG";"Jl. Raya Onolimbu - Lahomi No.7, Onolimbu, Kec. Lahomi, Kabupaten Nias Barat, Sumatera Utara 22864";"Onolimbu, Kec. Lahomi, Kabupaten Nias Barat";"SUMATERA UTARA";"22864";"Indonesia";" 081287458656";"";"";"1.0096416";"97.4925114";"https://maps.google.com/?cid=0x0:0x81401eb2dfac7be5";""
"toko bangunan";"toko bangunan";"UD may nerfan";"3G6V+JQM dusun 2 Hiligo'o, Lakhene, Kec. Mandrehe, Kabupaten Nias Barat, Sumatera Utara 22862";"Lakhene, Kec. Mandrehe, Kabupaten Nias Barat";"SUMATERA UTARA";"22862";"Indonesia";"";"";"";"1.0615992";"97.5444337";"https://maps.google.com/?cid=0x0:0xa9fc1d5ff161abd4";""
"toko bangunan";"Toko Elektronik";"UD Niat";"Bawosalo'o, Tugala, Kec. Sirombu, Kabupaten Nias Barat, Sumatera Utara 22863";"Tugala, Kec. Sirombu, Kabupaten Nias Barat";"SUMATERA UTARA";"22863";"Indonesia";" 082288777575";"";"";"0.9641613";"97.438363";"https://maps.google.com/?cid=0x0:0xe16f98227744705c";""
"toko bangunan";"Toko";"UD. Merry";"XF4C+8QP, Sisobandrao, Kec. Sirombu, Kabupaten Nias Barat, Sumatera Utara 22863";"Sisobandrao, Kec. Sirombu, Kabupaten Nias Barat";"SUMATERA UTARA";"22863";"Indonesia";"";"";"";"0.9560947";"97.4724321";"https://maps.google.com/?cid=0x0:0x1a2a9ad6f3670a1b";""
"toko bangunan";"Pusat Perbelanjaan";"UD. Iman";"2FXQ+WX2, Fadoro, Kec. Mandrehe, Kabupaten Nias Barat, Sumatera Utara 22862";"Fadoro, Kec. Mandrehe, Kabupaten Nias Barat";"SUMATERA UTARA";"22862";"Indonesia";" 081370985334";"";"";"1.0497659";"97.489902";"https://maps.google.com/?cid=0x0:0xca610322b1e413c3";""
"toko bangunan";"Pusat Perbelanjaan";"UD. Cemerlang";"2FXR+RGC, Fadoro, Kec. Mandrehe, Kabupaten Nias Barat, Sumatera Utara 22862";"Fadoro, Kec. Mandrehe, Kabupaten Nias Barat";"SUMATERA UTARA";"22862";"Indonesia";"";"";"";"1.049557";"97.4912757";"https://maps.google.com/?cid=0x0:0x20023c00eed1204b";""
"toko bangunan";"Toko Bahan Bangunan";"SANGEHAO";"4H3J+3C7, Jl. Gunungsitoli, Lolofaoso, Kec. Lolofitu Moi, Kabupaten Nias Barat, Sumatera Utara 22864";"Jl. Gunungsitoli, Lolofaoso, Kec. Lolofitu Moi, Kabupaten Nias Barat";"SUMATERA UTARA";"22864";"Indonesia";" 081287458656";"";"";"1.1026685";"97.5810422";"https://maps.google.com/?cid=0x0:0xbf83c9d7284d1ad7";""
"toko bangunan";"toko bangunan";"Usaha Sendroro";"3H96+WQW, Jl. Raya Tuwuna, Tuwuna, Kec. Mandrehe, Kabupaten Nias Barat, Sumatera Utara 22875";"Jl. Raya Tuwuna, Tuwuna, Kec. Mandrehe, Kabupaten Nias Barat";"SUMATERA UTARA";"22875";"Indonesia";" 085275466922";"";"";"1.0698693";"97.5619609";"https://maps.google.com/?cid=0x0:0xd43eb8012b6158b4";""
"toko bangunan";"toko bangunan";"Ud.Infoz";"3G6W+5W2, jl. menuju, Lologulo, Kec. Mandrehe, Kabupaten Nias Barat, Sumatera Utara 22862";"jl. menuju, Lologulo, Kec. Mandrehe, Kabupaten Nias Barat";"SUMATERA UTARA";"22862";"Indonesia";" 085276568877";"";"";"1.0607899";"97.548066";"https://maps.google.com/?cid=0x0:0xa9abc99f30a4ccc";""
"toko bangunan";"Toko Bahan Bangunan";"Toko ANEKA BANGUNAN";"depan rumah makan beringin baru, Jl. Sirao No.6, Saombo, Kec. Gunungsitoli, Kabupaten Nias, Sumatera Utara";"Kabupaten Nias, Sumatera Utara";"SUMATERA UTARA";"";"Indonesia";" 081231645392";"";"";"1.2903411";"97.6158857";"https://maps.google.com/?cid=0x0:0x53ca275b69ef0d2c";""
"toko bangunan";"Toko Bahan Bangunan";"TB. Artomoro";"Jl. Fajar Raya No.6 3, RT.3/RW.8, Kartini, Kecamatan Sawah Besar, Kota Jakarta Pusat, Daerah Khusus Ibukota Jakarta 10750";"RT.3/RW.8, Kartini, Kecamatan Sawah Besar, Kota Jakarta Pusat";"SUMATERA UTARA";"10750";"Indonesia";" 083164413604";"";"";"-6.1543141";"106.8315284";"https://maps.google.com/?cid=0x0:0x5a920b3408388cd9";""
"toko bangunan";"Toko Bahan Bangunan";"Toko Bangunan Sumber Rejeki Artomoro";"Jl. Raya Pondok Randu Jl. Tanah Koja, RT.12/RW.2, Duri Kosambi, Kecamatan Cengkareng, Jakarta, Daerah Khusus Ibukota Jakarta 11750";"RT.12/RW.2, Duri Kosambi, Kecamatan Cengkareng, Jakarta";"SUMATERA UTARA";"11750";"Indonesia";" 0811108433";"";"";"-6.1776784";"106.7227579";"https://maps.google.com/?cid=0x0:0x68405b63ae147dbe";""
"toko bangunan";"Toko Bahan Bangunan";"TOKO BANGUNAN PODOMORO";"Pd. Pucung, Kec. Karang Tengah, Kota Tangerang, Banten";"Kota Tangerang, Banten";"SUMATERA UTARA";"";"Indonesia";" 08192008838";"";"";"-6.2194548";"106.7017692";"https://maps.google.com/?cid=0x0:0xbb9f9f148b252f64";""
"toko bangunan";"Toko Bahan Bangunan";"Pd. Moro Jaya";"Kragilan, Kec. Kragilan, Kabupaten Serang, Banten";"Kabupaten Serang, Banten";"SUMATERA UTARA";"";"Indonesia";"";"";"";"-6.1398997";"106.2838816";"https://maps.google.com/?cid=0x0:0xc4d5ef77e5543fd6";""
"toko bangunan";"Toko Bahan Bangunan";"PODO MORO ceramik";"PJJ7+FG6, Jalan Raya Kelurahan, Medang, Pagedangan, Tangerang Regency, Banten 15334";"Jalan Raya Kelurahan, Medang, Pagedangan, Tangerang Regency";"SUMATERA UTARA";"15334";"Indonesia";"";"";"";"-6.2688326";"106.6137785";"https://maps.google.com/?cid=0x0:0x74d2458416781b6";""
"toko bangunan";"Toko Bahan Bangunan";"Sumber Makmur Toko";"Sebelum lampu merah. Hook sebelah alfamart, Jl. H. Samanhudi, RT.13/RW.5, Ps. Baru, Kecamatan Sawah Besar, Kota Jakarta Pusat, Daerah Khusus Ibukota Jakarta 10710";"Jl. H. Samanhudi, RT.13/RW.5, Ps. Baru, Kecamatan Sawah Besar, Kota Jakarta Pusat";"SUMATERA UTARA";"10710";"Indonesia";" 083164413604";"";"";"-6.1592556";"106.8368577";"https://maps.google.com/?cid=0x0:0x5baf71b458fc8808";""
"toko bangunan";"Toko Bahan Bangunan";"Toko Bangunan Moro Jodo Putra";"94JF+J93 Pesan Antar Chat WA T0K0 Kami O  7  • 3 9 6 2 • 2 9 1 9. TOKO, Selourik, Girimulyo, Kec. Ngargoyoso, Kabupaten Karanganyar, Jawa Tengah 57793";"Selourik, Girimulyo, Kec. Ngargoyoso, Kabupaten Karanganyar";"SUMATERA UTARA";"57793";"Indonesia";" 085225006268";"";"";"-7.6184875";"111.1234219";"https://maps.google.com/?cid=0x0:0xe1202c4d568eb860";""
"toko bangunan";"Toko Bahan Bangunan";"TOKO BANGUNAN ARTO MORO";"QQQG+VQW, dusun 03, Kp. Baru, Kec. Mesuji Makmur, Kabupaten Ogan Komering Ilir, Sumatera Selatan 30681";"dusun 03, Kp. Baru, Kec. Mesuji Makmur, Kabupaten Ogan Komering Ilir";"SUMATERA UTARA";"30681";"Indonesia";"";"";"";"-4.2102727";"104.7769557";"https://maps.google.com/?cid=0x0:0x686696baf31ce7c9";""
"toko bangunan";"Toko Bahan Bangunan";"TB. MORO BANGUN";"CM5P+4H5, Jembrung Satu, Bulusari, Kec. Gempol, Pasuruan, Jawa Timur 67155";"Jembrung Satu, Bulusari, Kec. Gempol, Pasuruan";"SUMATERA UTARA";"67155";"Indonesia";"";"";"";"-7.5922446";"112.6864945";"https://maps.google.com/?cid=0x0:0xb438d2dfdd0e7b4d";""
"toko bangunan";"Pemasok Bahan Bangunan";"Toko Bangunan Arto Moro";"Jl. Mayjen HR. Muhammad No.263, Pradahkalikendal, Kec. Dukuhpakis, Surabaya, Jawa Timur 60226";"Pradahkalikendal, Kec. Dukuhpakis, Surabaya";"SUMATERA UTARA";"60226";"Indonesia";" 0317312572";"";"";"-7.284009";"112.690357";"https://maps.google.com/?cid=0x0:0xf8e683d62362ccbc";""
"toko bangunan";"toko bangunan";"Toko Bangunan Arto Moro";"Kota Bangun II, Kec. Kota Bangun, Kabupaten Kutai Kartanegara, Kalimantan Timur";"Kabupaten Kutai Kartanegara, Kalimantan Timur";"SUMATERA UTARA";"";"Indonesia";"";"";"";"-0.3812213";"116.539417";"https://maps.google.com/?cid=0x0:0xf793e0614377868f";""
"toko bangunan";"toko bangunan";"toko arto moro";"QWQR+PGP, RT.8/RW.4, Penggilingan, Kec. Cakung, Kota Jakarta Timur, Daerah Khusus Ibukota Jakarta 13940";"RT.8/RW.4, Penggilingan, Kec. Cakung, Kota Jakarta Timur";"SUMATERA UTARA";"13940";"Indonesia";"";"";"";"-6.2106698";"106.9413297";"https://maps.google.com/?cid=0x0:0xbbb3d7cdaec93aab";""
"toko bangunan";"Toko bahan makanan";"UD. MELAYANI";"XF4C+R38, Sisobandrao, Kec. Sirombu, Kabupaten Nias Barat, Sumatera Utara 22863";"Sisobandrao, Kec. Sirombu, Kabupaten Nias Barat";"SUMATERA UTARA";"22863";"Indonesia";"";"";"";"0.9570251";"97.4701882";"https://maps.google.com/?cid=0x0:0x79fd860b3ba38491";""
"toko bangunan";"Toko";"UD. Merry";"XF4C+8QP, Sisobandrao, Kec. Sirombu, Kabupaten Nias Barat, Sumatera Utara 22863";"Sisobandrao, Kec. Sirombu, Kabupaten Nias Barat";"SUMATERA UTARA";"22863";"Indonesia";"";"";"";"0.9560947";"97.4724321";"https://maps.google.com/?cid=0x0:0x1a2a9ad6f3670a1b";""
"toko bangunan";"Toko Bahan Bangunan";"Toko ANEKA BANGUNAN";"depan rumah makan beringin baru, Jl. Sirao No.6, Saombo, Kec. Gunungsitoli, Kabupaten Nias, Sumatera Utara";"Kabupaten Nias, Sumatera Utara";"SUMATERA UTARA";"";"Indonesia";" 081231645392";"";"";"1.2903411";"97.6158857";"https://maps.google.com/?cid=0x0:0x53ca275b69ef0d2c";""
"toko bangunan";"toko bangunan";"Kec. Ulu Moro'o";"Kabupaten Nias Barat, Sumatera Utara";"Kabupaten Nias Barat, Sumatera Utara";"SUMATERA UTARA";"";"Indonesia";"";"";"";"1.0144644";"97.5333185";"https://maps.google.com/?cid=0x0:0xcabc6a3673d44b2d";""
"toko bangunan";"toko bangunan";"UD may nerfan";"3G6V+JQM dusun 2 Hiligo'o, Lakhene, Kec. Mandrehe, Kabupaten Nias Barat, Sumatera Utara 22862";"Lakhene, Kec. Mandrehe, Kabupaten Nias Barat";"SUMATERA UTARA";"22862";"Indonesia";"";"";"";"1.0615992";"97.5444337";"https://maps.google.com/?cid=0x0:0xa9fc1d5ff161abd4";""
"toko bangunan";"Toko Bahan Bangunan";"Rekan Bangunan";"Jl. H. Nonon Sonthanie No.8-9, RT.006/RW.002, Duren Jaya, Kec. Bekasi Tim., Kota Bks, Jawa Barat 17111";"RT.006/RW.002, Duren Jaya, Kec. Bekasi Tim., Kota Bks";"SUMATERA UTARA";"17111";"Indonesia";" 0817100844";"";"";"-6.2426518";"107.0145379";"https://maps.google.com/?cid=0x0:0x7dc0dd11c341e824";""
"toko bangunan";"Toko Bahan Bangunan";"TB. Bumi Baru";"Jl. Dalang No.20, RT.006/RW.001, Bojong Rawalumbu, Kec. Rawalumbu, Kota Bks, Jawa Barat 17116";"RT.006/RW.001, Bojong Rawalumbu, Kec. Rawalumbu, Kota Bks";"SUMATERA UTARA";"17116";"Indonesia";" 02182433067";"";"";"-6.2809316";"106.997577";"https://maps.google.com/?cid=0x0:0x28fa17098e6bd1a7";""
"toko bangunan";"Toko Bahan Bangunan";"TB Kita Galaxy";"Jl. Taman Galaxy Raya, Jaka Setia, Kec. Bekasi Sel., Kota Bks, Jawa Barat 17147";"Jaka Setia, Kec. Bekasi Sel., Kota Bks";"SUMATERA UTARA";"17147";"Indonesia";" 0817100844";"";"";"-6.255634";"106.9688314";"https://maps.google.com/?cid=0x0:0x1311a8dfe7fb3f09";""
"toko bangunan";"toko bangunan";"Toko Bangunan Arto Moro";"Kota Bangun II, Kec. Kota Bangun, Kabupaten Kutai Kartanegara, Kalimantan Timur";"Kabupaten Kutai Kartanegara, Kalimantan Timur";"SUMATERA UTARA";"";"Indonesia";"";"";"";"-0.3812213";"116.539417";"https://maps.google.com/?cid=0x0:0xf793e0614377868f";""
"toko bangunan";"Toko Bahan Bangunan";"Toko Bahan Bangunan Cipta Guna 1";"Jl. Mirah Delima Raya No.339 blok 4, RT.003/RW.005, Bojong Rawalumbu, Rawa Lumbu, Bekasi, West Java 17116";"RT.003/RW.005, Bojong Rawalumbu, Rawa Lumbu, Bekasi";"SUMATERA UTARA";"17116";"Indonesia";" 081574797312";"";"";"-6.2913745";"106.9939717";"https://maps.google.com/?cid=0x0:0xae6bc747c58fc09c";""
"toko bangunan";"Toko Bahan Bangunan";"Super Ceramic Pusat Bahan Bangunan (Narogong)";"Jl. Raya Narogong No.99, RT.002/RW.001, Bojong Rawalumbu, Kec. Rawalumbu, Kota Bks, Jawa Barat 17115";"RT.002/RW.001, Bojong Rawalumbu, Kec. Rawalumbu, Kota Bks";"SUMATERA UTARA";"17115";"Indonesia";" 02182428206";"";"";"-6.2868817";"106.9867746";"https://maps.google.com/?cid=0x0:0xb86b5289f391c369";""
"toko bangunan";"toko bangunan";"toko bangunan";"Blok, Jl. Lumbu Utara Raya Blok 4 No.19, RT.004/RW.026, Bojong Rawalumbu, Rawa Lumbu, Bekasi, West Java 17116";"Jl. Lumbu Utara Raya Blok 4 No.19, RT.004/RW.026, Bojong Rawalumbu, Rawa Lumbu, Bekasi";"SUMATERA UTARA";"17116";"Indonesia";"";"";"";"-6.2839482";"106.9979303";"https://maps.google.com/?cid=0x0:0x23f961e458e87a28";""
"hardware store";"hardware store";"Kec. Lahomi";"Kabupaten Nias Barat, Sumatera Utara";"Kabupaten Nias Barat, Sumatera Utara";"SUMATERA UTARA";"";"Indonesia";"";"";"";"0.9829723";"97.5021778";"https://maps.google.com/?cid=0x0:0x27f98a91d94e74be";""
"hardware store";"hardware store";"Jl. Lahömi";"Lologundre, Kec. Lahomi, Kabupaten Nias Barat, Sumatera Utara 22864";"Kec. Lahomi, Kabupaten Nias Barat";"SUMATERA UTARA";"22864";"Indonesia";"";"";"";"0.986949";"97.5036587";"https://maps.google.com/?cid=0x0:0x6409da5bc64f976c";""
"hardware store";"Toko Alat Tulis Kantor";"UD. TALENTA";"Jl. Pattimura No.2, Onolimbu, Kec. Lahomi, Kabupaten Nias Barat, Sumatera Utara 22864";"Onolimbu, Kec. Lahomi, Kabupaten Nias Barat";"SUMATERA UTARA";"22864";"Indonesia";"";"";"";"1.0053696";"97.4923617";"https://maps.google.com/?cid=0x0:0x3867609c85801da8";""
"hardware store";"Toko Alat Tulis Kantor";"UD. Adil";"2F5V+Q34, Onolimbu, Kec. Lahomi, Kabupaten Nias Barat, Sumatera Utara 22862";"Onolimbu, Kec. Lahomi, Kabupaten Nias Barat";"SUMATERA UTARA";"22862";"Indonesia";" 082274852472";"";"";"1.0094052";"97.4927288";"https://maps.google.com/?cid=0x0:0xf6e20f2c1fb19b75";""
"hardware store";"hardware store";"Sumatera Utara 22875";"Kec. Lolofitu Moi, Kabupaten Nias Barat, Sumatera Utara";"Kabupaten Nias Barat, Sumatera Utara";"SUMATERA UTARA";"";"Indonesia";"";"";"";"1.0588624";"97.5788975";"https://maps.google.com/?cid=0x0:0x9c54d35d78ab160f";""
"hardware store";"Toko Alat Tulis Kantor";"UD. SEmLove";"Jl. Nias Tengah No.Km. 33, Hiliuso, Kec. Lolofitu Moi, Kabupaten Nias Barat, Sumatera Utara 22875";"Hiliuso, Kec. Lolofitu Moi, Kabupaten Nias Barat";"SUMATERA UTARA";"22875";"Indonesia";"";"";"";"1.1058017";"97.5825448";"https://maps.google.com/?cid=0x0:0x5d9c1865e0168d2f";""
"hardware store";"Toko Alat Tulis Kantor";"UD. SEmLove";"3HGJ+5JX, Hiliuso, Kec. Lolofitu Moi, Kabupaten Nias Barat, Sumatera Utara";"Kabupaten Nias Barat, Sumatera Utara";"SUMATERA UTARA";"";"Indonesia";"";"";"";"1.0754767";"97.5816073";"https://maps.google.com/?cid=0x0:0xa231d5374f989357";""
"hardware store";"hardware store";"Sumatera Utara 22862";"Kabupaten Nias Barat, Sumatera Utara";"Kabupaten Nias Barat, Sumatera Utara";"SUMATERA UTARA";"";"Indonesia";"";"";"";"1.0305654";"97.5030669";"https://maps.google.com/?cid=0x0:0x343297d388925be1";""
"hardware store";"Toko Alat Tulis Kantor";"UD. FEIVEL";"Jl. Lolomboli, Desa Siduahili, Sidua Hili, Kec. Moro'o, Kabupaten Nias Barat, Sumatera Utara 22862";"Desa Siduahili, Sidua Hili, Kec. Moro'o, Kabupaten Nias Barat";"SUMATERA UTARA";"22862";"Indonesia";" 082258818361";"";"";"1.0619718";"97.4104009";"https://maps.google.com/?cid=0x0:0x2b1640e35d39b6f4";""
"hardware store";"Toko Alat Tulis Kantor";"UD. ALDO";"2FHM+CVH, Simaeasi, Kec. Mandrehe, Kabupaten Nias Barat, Sumatera Utara 22862";"Simaeasi, Kec. Mandrehe, Kabupaten Nias Barat";"SUMATERA UTARA";"22862";"Indonesia";" 081396490730";"";"";"1.0285595";"97.484726";"https://maps.google.com/?cid=0x0:0x2a9c39c24b85995";""
"hardware store";"Toko Alat Tulis Kantor";"UD. TEXOTEL";"Jl. Sisobaholi, Gn. Baru, Kec. Moro'o, Kabupaten Nias Barat, Sumatera Utara 22862";"Gn. Baru, Kec. Moro'o, Kabupaten Nias Barat";"SUMATERA UTARA";"22862";"Indonesia";" 081264510503";"";"";"1.0649573";"97.4558412";"https://maps.google.com/?cid=0x0:0x12e23ad71468fb81";""
"hardware store";"Toko Alat Tulis Kantor";"UD. Adil";"2F5V+Q34, Onolimbu, Kec. Lahomi, Kabupaten Nias Barat, Sumatera Utara 22862";"Onolimbu, Kec. Lahomi, Kabupaten Nias Barat";"SUMATERA UTARA";"22862";"Indonesia";" 082274852472";"";"";"1.0094052";"97.4927288";"https://maps.google.com/?cid=0x0:0xf6e20f2c1fb19b75";""
"hardware store";"Toko Elektronik";"UD. Central Elektrik Mandrehe";"Fadoro, Kec. Mandrehe, Kabupaten Nias Barat, Sumatera Utara 22862";"Kec. Mandrehe, Kabupaten Nias Barat";"SUMATERA UTARA";"22862";"Indonesia";"";"";"";"1.0505104";"97.4905759";"https://maps.google.com/?cid=0x0:0xf10cf1914d8999ad";""
"hardware store";"Toko Elektronik";"UD. Diel Elektronik";"2FXQ+JV7, Unnamed Road, Fadoro, Kec. Mandrehe, Kabupaten Nias Barat, Sumatera Utara 22862";"Unnamed Road, Fadoro, Kec. Mandrehe, Kabupaten Nias Barat";"SUMATERA UTARA";"22862";"Indonesia";" 082370115565";"";"";"1.0490278";"97.4896814";"https://maps.google.com/?cid=0x0:0x1e098bf2649e0b99";""
"hardware store";"Toko Elektronik";"REALSON";"Gereja ONKP, 150 Meter Simpang Tiga Lahomi, Depan, Simpang Tiga, Kec. Lahomi, Kabupaten Nias Barat, Sumatera Utara 22863";"150 Meter Simpang Tiga Lahomi, Depan, Simpang Tiga, Kec. Lahomi, Kabupaten Nias Barat";"SUMATERA UTARA";"22863";"Indonesia";" 081260086904";"";"";"0.9685545";"97.4663348";"https://maps.google.com/?cid=0x0:0x88b54525265607fb";""
"hardware store";"Toko Elektronik";"UD. Tallys Servis Eletronik";"Lologulo, Kec. Mandrehe, Kabupaten Nias Barat, Sumatera Utara 22862";"Kec. Mandrehe, Kabupaten Nias Barat";"SUMATERA UTARA";"22862";"Indonesia";" 082160687417";"";"";"1.0563969";"97.5468529";"https://maps.google.com/?cid=0x0:0x15afd4f8aa6f2400";""
"hardware store";"Toko Bahan Bangunan";"Medan Hardware  Trading Sdn. Bhd. (812440-K)";"No. 6, Galleria Pantai, Jalan Pantai Murni Lembah Pantai, 59200 Wilayah Persekutuan, Wilayah Persekutuan Kuala Lumpur, Malaysia";"Wilayah Persekutuan";"SUMATERA UTARA";"59200";"Indonesia";" +60162766284";"";"";"3.1072593";"101.6663174";"https://maps.google.com/?cid=0x0:0x84e8f7f42864de7c";""
"hardware store";"Toko Bahan Bangunan";"REGNO DIY Hardware and Electrical Shop";"14-0-3, Block, 14, Jalan 5/112a, Taman Bukit Angkasa, 59200 Kuala Lumpur, Wilayah Persekutuan Kuala Lumpur, Malaysia";"Kuala Lumpur";"SUMATERA UTARA";"59200";"Indonesia";"";"";"";"3.1087561";"101.6701446";"https://maps.google.com/?cid=0x0:0x43a22f36769cf49f";""
"hardware store";"Toko Perkakas";"CUCKOO PANTAI DALAM,KL (Agent Sah CUCKOO 2024)";"Jln Pantai Murni 6, Pantai Dalam, 59200 Kuala Lumpur, Wilayah Persekutuan Kuala Lumpur, Malaysia";"Kuala Lumpur";"SUMATERA UTARA";"59200";"Indonesia";" +60134031687";"";"";"3.1071176";"101.666075";"https://maps.google.com/?cid=0x0:0x98b5c1ea402ddb12";""
"hardware store";"Toko Elektronik";"UD. Central Elektrik Mandrehe";"Fadoro, Kec. Mandrehe, Kabupaten Nias Barat, Sumatera Utara 22862";"Kec. Mandrehe, Kabupaten Nias Barat";"SUMATERA UTARA";"22862";"Indonesia";"";"";"";"1.0505104";"97.4905759";"https://maps.google.com/?cid=0x0:0xf10cf1914d8999ad";""
"hardware store";"Toko Elektronik";"UD. Diel Elektronik";"2FXQ+JV7, Unnamed Road, Fadoro, Kec. Mandrehe, Kabupaten Nias Barat, Sumatera Utara 22862";"Unnamed Road, Fadoro, Kec. Mandrehe, Kabupaten Nias Barat";"SUMATERA UTARA";"22862";"Indonesia";" 082370115565";"";"";"1.0490278";"97.4896814";"https://maps.google.com/?cid=0x0:0x1e098bf2649e0b99";""
"hardware store";"hardware store";"Kec. Mandrehe Bar.";"Kabupaten Nias Barat, Sumatera Utara";"Kabupaten Nias Barat, Sumatera Utara";"SUMATERA UTARA";"";"Indonesia";"";"";"";"0.998808";"97.4182241";"https://maps.google.com/?cid=0x0:0x7de90688f484314d";""
"hardware store";"Toko Alat Tulis Kantor";"UD. ALDO";"2FHM+CVH, Simaeasi, Kec. Mandrehe, Kabupaten Nias Barat, Sumatera Utara 22862";"Simaeasi, Kec. Mandrehe, Kabupaten Nias Barat";"SUMATERA UTARA";"22862";"Indonesia";" 081396490730";"";"";"1.0285595";"97.484726";"https://maps.google.com/?cid=0x0:0x2a9c39c24b85995";""
"hardware store";"Toko Alat Tulis Kantor";"UD. FEIVEL";"Jl. Lolomboli, Desa Siduahili, Sidua Hili, Kec. Moro'o, Kabupaten Nias Barat, Sumatera Utara 22862";"Desa Siduahili, Sidua Hili, Kec. Moro'o, Kabupaten Nias Barat";"SUMATERA UTARA";"22862";"Indonesia";" 082258818361";"";"";"1.0619718";"97.4104009";"https://maps.google.com/?cid=0x0:0x2b1640e35d39b6f4";""
"hardware store";"Toko Alat Tulis Kantor";"UD. TALENTA";"Jl. Pattimura No.2, Onolimbu, Kec. Lahomi, Kabupaten Nias Barat, Sumatera Utara 22864";"Onolimbu, Kec. Lahomi, Kabupaten Nias Barat";"SUMATERA UTARA";"22864";"Indonesia";"";"";"";"1.0053696";"97.4923617";"https://maps.google.com/?cid=0x0:0x3867609c85801da8";""
"hardware store";"Toko Alat Tulis Kantor";"UD. TEXOTEL";"Jl. Sisobaholi, Gn. Baru, Kec. Moro'o, Kabupaten Nias Barat, Sumatera Utara 22862";"Gn. Baru, Kec. Moro'o, Kabupaten Nias Barat";"SUMATERA UTARA";"22862";"Indonesia";" 081264510503";"";"";"1.0649573";"97.4558412";"https://maps.google.com/?cid=0x0:0x12e23ad71468fb81";""
"hardware store";"Toko Alat Tulis Kantor";"UD. Adil";"2F5V+Q34, Onolimbu, Kec. Lahomi, Kabupaten Nias Barat, Sumatera Utara 22862";"Onolimbu, Kec. Lahomi, Kabupaten Nias Barat";"SUMATERA UTARA";"22862";"Indonesia";" 082274852472";"";"";"1.0094052";"97.4927288";"https://maps.google.com/?cid=0x0:0xf6e20f2c1fb19b75";""
"hardware store";"hardware store";"Sumatera Utara 22812";"Kabupaten Nias Barat, Sumatera Utara";"Kabupaten Nias Barat, Sumatera Utara";"SUMATERA UTARA";"";"Indonesia";"";"";"";"1.0164701";"97.4435441";"https://maps.google.com/?cid=0x0:0xd11190b65d8d63eb";""
"hardware store";"Toko Elektronik";"UD. Central Elektrik Mandrehe";"Fadoro, Kec. Mandrehe, Kabupaten Nias Barat, Sumatera Utara 22862";"Kec. Mandrehe, Kabupaten Nias Barat";"SUMATERA UTARA";"22862";"Indonesia";"";"";"";"1.0505104";"97.4905759";"https://maps.google.com/?cid=0x0:0xf10cf1914d8999ad";""
"hardware store";"Toko Elektronik";"UD. Diel Elektronik";"2FXQ+JV7, Unnamed Road, Fadoro, Kec. Mandrehe, Kabupaten Nias Barat, Sumatera Utara 22862";"Unnamed Road, Fadoro, Kec. Mandrehe, Kabupaten Nias Barat";"SUMATERA UTARA";"22862";"Indonesia";" 082370115565";"";"";"1.0490278";"97.4896814";"https://maps.google.com/?cid=0x0:0x1e098bf2649e0b99";""
"hardware store";"Toko Alat Tulis Kantor";"UD. ALDO";"2FHM+CVH, Simaeasi, Kec. Mandrehe, Kabupaten Nias Barat, Sumatera Utara 22862";"Simaeasi, Kec. Mandrehe, Kabupaten Nias Barat";"SUMATERA UTARA";"22862";"Indonesia";" 081396490730";"";"";"1.0285595";"97.484726";"https://maps.google.com/?cid=0x0:0x2a9c39c24b85995";""
"hardware store";"Toko Mebel";"OMODA INTERIOR";"Keluarahan No.80, Saombo, Kec. Gunungsitoli, Kota Gunungsitoli, Sumatera Utara 22814";"Saombo, Kec. Gunungsitoli, Kota Gunungsitoli";"SUMATERA UTARA";"22814";"Indonesia";" 082298369968";"";"";"1.2953159";"97.6090955";"https://maps.google.com/?cid=0x0:0xaaab9b6fcf21fc3d";""
"hardware store";"Toko Alat Tulis Kantor";"UD. FEIVEL";"Jl. Lolomboli, Desa Siduahili, Sidua Hili, Kec. Moro'o, Kabupaten Nias Barat, Sumatera Utara 22862";"Desa Siduahili, Sidua Hili, Kec. Moro'o, Kabupaten Nias Barat";"SUMATERA UTARA";"22862";"Indonesia";" 082258818361";"";"";"1.0619718";"97.4104009";"https://maps.google.com/?cid=0x0:0x2b1640e35d39b6f4";""
"hardware store";"Toko Bahan Bangunan";"Bata Pres Nias Santo Lase";"Iraono Lase, Kec. Gunungsitoli Alo'oa, Kota Gunungsitoli, Sumatera Utara 22851";"Kec. Gunungsitoli Alo'oa, Kota Gunungsitoli";"SUMATERA UTARA";"22851";"Indonesia";" 082233533407";"";"";"1.3114966";"97.5733412";"https://maps.google.com/?cid=0x0:0xb9e5b7fcc4157eed";""
"hardware store";"hardware store";"Kec. Mandrehe Bar.";"Kabupaten Nias Barat, Sumatera Utara";"Kabupaten Nias Barat, Sumatera Utara";"SUMATERA UTARA";"";"Indonesia";"";"";"";"0.998808";"97.4182241";"https://maps.google.com/?cid=0x0:0x7de90688f484314d";""
"hardware store";"Toko Alat Tulis Kantor";"UD. TALENTA";"Jl. Pattimura No.2, Onolimbu, Kec. Lahomi, Kabupaten Nias Barat, Sumatera Utara 22864";"Onolimbu, Kec. Lahomi, Kabupaten Nias Barat";"SUMATERA UTARA";"22864";"Indonesia";"";"";"";"1.0053696";"97.4923617";"https://maps.google.com/?cid=0x0:0x3867609c85801da8";""
"hardware store";"Toko Alat Tulis Kantor";"UD. TEXOTEL";"Jl. Sisobaholi, Gn. Baru, Kec. Moro'o, Kabupaten Nias Barat, Sumatera Utara 22862";"Gn. Baru, Kec. Moro'o, Kabupaten Nias Barat";"SUMATERA UTARA";"22862";"Indonesia";" 081264510503";"";"";"1.0649573";"97.4558412";"https://maps.google.com/?cid=0x0:0x12e23ad71468fb81";""
"hardware store";"Toko Alat Tulis Kantor";"UD. Adil";"2F5V+Q34, Onolimbu, Kec. Lahomi, Kabupaten Nias Barat, Sumatera Utara 22862";"Onolimbu, Kec. Lahomi, Kabupaten Nias Barat";"SUMATERA UTARA";"22862";"Indonesia";" 082274852472";"";"";"1.0094052";"97.4927288";"https://maps.google.com/?cid=0x0:0xf6e20f2c1fb19b75";""
"hardware store";"Toko Bahan Bangunan";"Toko Bangun";"Jl. Sirao No.46D, Pasar, Kec. Gunungsitoli, Kota Gunungsitoli, Sumatera Utara 22815";"Pasar, Kec. Gunungsitoli, Kota Gunungsitoli";"SUMATERA UTARA";"22815";"Indonesia";" 081361694919";"";"";"1.2899006";"97.6176682";"https://maps.google.com/?cid=0x0:0x9ce61f651849b821";""
"hardware store";"Toko Bahan Bangunan";"Toko ANEKA BANGUNAN";"depan rumah makan beringin baru, Jl. Sirao No.6, Saombo, Kec. Gunungsitoli, Kabupaten Nias, Sumatera Utara";"Kabupaten Nias, Sumatera Utara";"SUMATERA UTARA";"";"Indonesia";" 081231645392";"";"";"1.2903411";"97.6158857";"https://maps.google.com/?cid=0x0:0x53ca275b69ef0d2c";""
"hardware store";"Toko Elektronik";"UD. Central Elektrik Mandrehe";"Fadoro, Kec. Mandrehe, Kabupaten Nias Barat, Sumatera Utara 22862";"Kec. Mandrehe, Kabupaten Nias Barat";"SUMATERA UTARA";"22862";"Indonesia";"";"";"";"1.0505104";"97.4905759";"https://maps.google.com/?cid=0x0:0xf10cf1914d8999ad";""
"hardware store";"Toko Alat Tulis Kantor";"UD. TALENTA";"Jl. Pattimura No.2, Onolimbu, Kec. Lahomi, Kabupaten Nias Barat, Sumatera Utara 22864";"Onolimbu, Kec. Lahomi, Kabupaten Nias Barat";"SUMATERA UTARA";"22864";"Indonesia";"";"";"";"1.0053696";"97.4923617";"https://maps.google.com/?cid=0x0:0x3867609c85801da8";""
"hardware store";"hardware store";"Maner Hardware";"178, Kurundwad, Maharashtra 416106, India";"Kurundwad, Maharashtra";"SUMATERA UTARA";"416106";"Indonesia";" +918624992482";"";"";"16.6529808";"74.5990464";"https://maps.google.com/?cid=0x0:0x69052e6930000000";""
"hardware store";"hardware store";"Sumatera Utara 22862";"Kabupaten Nias Barat, Sumatera Utara";"Kabupaten Nias Barat, Sumatera Utara";"SUMATERA UTARA";"";"Indonesia";"";"";"";"1.0305654";"97.5030669";"https://maps.google.com/?cid=0x0:0x343297d388925be1";""
"hardware store";"Toko Alat Tulis Kantor";"UD. FEIVEL";"Jl. Lolomboli, Desa Siduahili, Sidua Hili, Kec. Moro'o, Kabupaten Nias Barat, Sumatera Utara 22862";"Desa Siduahili, Sidua Hili, Kec. Moro'o, Kabupaten Nias Barat";"SUMATERA UTARA";"22862";"Indonesia";" 082258818361";"";"";"1.0619718";"97.4104009";"https://maps.google.com/?cid=0x0:0x2b1640e35d39b6f4";""
"hardware store";"Toko Alat Tulis Kantor";"UD. TEXOTEL";"Jl. Sisobaholi, Gn. Baru, Kec. Moro'o, Kabupaten Nias Barat, Sumatera Utara 22862";"Gn. Baru, Kec. Moro'o, Kabupaten Nias Barat";"SUMATERA UTARA";"22862";"Indonesia";" 081264510503";"";"";"1.0649573";"97.4558412";"https://maps.google.com/?cid=0x0:0x12e23ad71468fb81";""
"hardware store";"Toko Pakaian Wanita";"Hardware";"Thamrin Plaza, Sei Rengas II, Kec. Medan Area, Kota Medan, Sumatera Utara 20211";"Sei Rengas II, Kec. Medan Area, Kota Medan";"SUMATERA UTARA";"20211";"Indonesia";"";"";"";"3.5866274";"98.6924667";"https://maps.google.com/?cid=0x0:0xdffc1498d143449d";""
"hardware store";"Toko Alat Tulis Kantor";"UD. TALENTA";"Jl. Pattimura No.2, Onolimbu, Kec. Lahomi, Kabupaten Nias Barat, Sumatera Utara 22864";"Onolimbu, Kec. Lahomi, Kabupaten Nias Barat";"SUMATERA UTARA";"22864";"Indonesia";"";"";"";"1.0053696";"97.4923617";"https://maps.google.com/?cid=0x0:0x3867609c85801da8";""
"hardware store";"Toko Bahan Bangunan";"Medan Hardware  Trading Sdn. Bhd. (812440-K)";"No. 6, Galleria Pantai, Jalan Pantai Murni Lembah Pantai, 59200 Wilayah Persekutuan, Wilayah Persekutuan Kuala Lumpur, Malaysia";"Wilayah Persekutuan";"SUMATERA UTARA";"59200";"Indonesia";" +60162766284";"";"";"3.1072593";"101.6663174";"https://maps.google.com/?cid=0x0:0x84e8f7f42864de7c";""
"hardware store";"Toko Bahan Bangunan";"Hardware Clothing Thamrin Plaza Medan";"Jl. M.H Thamrin No.75, Pandau Hulu I, Kec. Medan Kota, Kota Medan, Sumatera Utara 20211";"Pandau Hulu I, Kec. Medan Kota, Kota Medan";"SUMATERA UTARA";"20211";"Indonesia";"";"";"";"3.5868937";"98.6914049";"https://maps.google.com/?cid=0x0:0xbc4675193a1b18f0";""
"hardware store";"Toko Alat Tulis Kantor";"UD. Adil";"2F5V+Q34, Onolimbu, Kec. Lahomi, Kabupaten Nias Barat, Sumatera Utara 22862";"Onolimbu, Kec. Lahomi, Kabupaten Nias Barat";"SUMATERA UTARA";"22862";"Indonesia";" 082274852472";"";"";"1.0094052";"97.4927288";"https://maps.google.com/?cid=0x0:0xf6e20f2c1fb19b75";""
"hardware store";"Minimarket";"GINTING GROSIR";"Jl. Garuda No.50, RT.004/RW.002, Jurumudi Baru, Kec. Benda, Kota Tangerang, Banten 15124";"RT.004/RW.002, Jurumudi Baru, Kec. Benda, Kota Tangerang";"SUMATERA UTARA";"15124";"Indonesia";" 085282018449";"";"";"-6.1544378";"106.6714124";"https://maps.google.com/?cid=0x0:0x7f7af901bc6b3e0";""
"hardware store";"Toko sembako pemerintah";"Ginting grosir";"VM45+2WP, Jl. Adi Sucipto, RT.001/RW.008, Belendung, Kec. Benda, Kota Tangerang, Banten 15123";"Jl. Adi Sucipto, RT.001/RW.008, Belendung, Kec. Benda, Kota Tangerang";"SUMATERA UTARA";"15123";"Indonesia";"";"";"";"-6.1449031";"106.6598457";"https://maps.google.com/?cid=0x0:0xb11af87f24e6fac4";""
"hardware store";"Toko";"UD. Merry";"XF4C+8QP, Sisobandrao, Kec. Sirombu, Kabupaten Nias Barat, Sumatera Utara 22863";"Sisobandrao, Kec. Sirombu, Kabupaten Nias Barat";"SUMATERA UTARA";"22863";"Indonesia";"";"";"";"0.9560947";"97.4724321";"https://maps.google.com/?cid=0x0:0x1a2a9ad6f3670a1b";""
"hardware store";"Toko bahan makanan";"UD. MELAYANI";"XF4C+R38, Sisobandrao, Kec. Sirombu, Kabupaten Nias Barat, Sumatera Utara 22863";"Sisobandrao, Kec. Sirombu, Kabupaten Nias Barat";"SUMATERA UTARA";"22863";"Indonesia";"";"";"";"0.9570251";"97.4701882";"https://maps.google.com/?cid=0x0:0x79fd860b3ba38491";""
"hardware store";"hardware store";"Sirombu";"Sirombu, Kec. Sirombu, Kabupaten Nias Barat, Sumatera Utara";"Kabupaten Nias Barat, Sumatera Utara";"SUMATERA UTARA";"";"Indonesia";"";"";"";"0.952816";"97.418171";"https://maps.google.com/?cid=0x0:0x4039d80b2210500";""
"hardware store";"Toko Alat Tulis Kantor";"UD. SEmLove";"3HGJ+5JX, Hiliuso, Kec. Lolofitu Moi, Kabupaten Nias Barat, Sumatera Utara";"Kabupaten Nias Barat, Sumatera Utara";"SUMATERA UTARA";"";"Indonesia";"";"";"";"1.0754767";"97.5816073";"https://maps.google.com/?cid=0x0:0xa231d5374f989357";""
"hardware store";"Toko Alat Tulis Kantor";"UD. FEIVEL";"Jl. Lolomboli, Desa Siduahili, Sidua Hili, Kec. Moro'o, Kabupaten Nias Barat, Sumatera Utara 22862";"Desa Siduahili, Sidua Hili, Kec. Moro'o, Kabupaten Nias Barat";"SUMATERA UTARA";"22862";"Indonesia";" 082258818361";"";"";"1.0619718";"97.4104009";"https://maps.google.com/?cid=0x0:0x2b1640e35d39b6f4";""
"hardware store";"hardware store";"Kec. Ulu Moro'o";"Kabupaten Nias Barat, Sumatera Utara";"Kabupaten Nias Barat, Sumatera Utara";"SUMATERA UTARA";"";"Indonesia";"";"";"";"1.0144644";"97.5333185";"https://maps.google.com/?cid=0x0:0xcabc6a3673d44b2d";""
"home improvement";"home improvement";"Jl. Lahömi";"Lologundre, Kec. Lahomi, Kabupaten Nias Barat, Sumatera Utara 22864";"Kec. Lahomi, Kabupaten Nias Barat";"SUMATERA UTARA";"22864";"Indonesia";"";"";"";"0.986949";"97.5036587";"https://maps.google.com/?cid=0x0:0x6409da5bc64f976c";""
"home improvement";"Toko Bahan Bangunan";"Homega HPL, PVC Sheet  Vinyl Floor";"Jl. Nusa Indah No.21 13, RT.13/RW.1, Kapuk, Kecamatan Cengkareng, Kota Jakarta Barat, Daerah Khusus Ibukota Jakarta 11720";"RT.13/RW.1, Kapuk, Kecamatan Cengkareng, Kota Jakarta Barat";"SUMATERA UTARA";"11720";"Indonesia";" 087848437743";"";"";"-6.1447897";"106.7737816";"https://maps.google.com/?cid=0x0:0xff511affcfef33b5";""
"home improvement";"Toko Bahan Bangunan";"Homega Hpl  Flooring";"Jelambar Baru, Kec. Grogol petamburan, Kota Jakarta Barat, Daerah Khusus Ibukota Jakarta";"Kota Jakarta Barat, Daerah Khusus Ibukota Jakarta";"SUMATERA UTARA";"";"Indonesia";"";"";"";"-6.1439583";"106.7839978";"https://maps.google.com/?cid=0x0:0xb618508423189e86";""
"home improvement";"home improvement";"Sumatera Utara 22875";"Kec. Lolofitu Moi, Kabupaten Nias Barat, Sumatera Utara";"Kabupaten Nias Barat, Sumatera Utara";"SUMATERA UTARA";"";"Indonesia";"";"";"";"1.0588624";"97.5788975";"https://maps.google.com/?cid=0x0:0x9c54d35d78ab160f";""
"home improvement";"Rumah Kayu";"Rumah elmart";"3H6W+PJ, Lolofitu, Kec. Lolofitu Moi, Kabupaten Nias Barat, Sumatera Utara";"Kabupaten Nias Barat, Sumatera Utara";"SUMATERA UTARA";"";"Indonesia";"";"";"";"1.0618429";"97.5965929";"https://maps.google.com/?cid=0x0:0x56d3427f2df87bbe";""
"home improvement";"Toko Mebel";"Bapa sipa";"3G3W+MX7, Lologolu, dusun 3, simanaere, Kabupaten Nias Barat";"Kabupaten Nias Barat, Sumatera Utara";"SUMATERA UTARA";"";"Indonesia";"";"";"";"1.0541677";"97.5474153";"https://maps.google.com/?cid=0x0:0xbc9799a88cbfceb3";""
"home improvement";"home improvement";"Sumatera Utara 22862";"Kabupaten Nias Barat, Sumatera Utara";"Kabupaten Nias Barat, Sumatera Utara";"SUMATERA UTARA";"";"Indonesia";"";"";"";"1.0305654";"97.5030669";"https://maps.google.com/?cid=0x0:0x343297d388925be1";""
"home improvement";"Perajin furnitur";"UD.LEON-ZAI PERABOT KAYU";"2C8H+5MQ, Hilidaura, Kec. Mandrehe Bar., Kabupaten Nias Barat, Sumatera Utara 22812";"Hilidaura, Kec. Mandrehe Bar., Kabupaten Nias Barat";"SUMATERA UTARA";"22812";"Indonesia";" 082362445718";"";"";"1.0154548";"97.42924";"https://maps.google.com/?cid=0x0:0x606782024276e925";""
"home improvement";"Toko Mebel";"Bapa sipa";"3G3W+MX7, Lologolu, dusun 3, simanaere, Kabupaten Nias Barat";"Kabupaten Nias Barat, Sumatera Utara";"SUMATERA UTARA";"";"Indonesia";"";"";"";"1.0541677";"97.5474153";"https://maps.google.com/?cid=0x0:0xbc9799a88cbfceb3";""
"home improvement";"Toko Percetakan";"William Grafika";"2FMP+5H9, Lasara Bahili, Kec. Mandrehe, Kabupaten Nias Barat, Sumatera Utara";"Kabupaten Nias Barat, Sumatera Utara";"SUMATERA UTARA";"";"Indonesia";" 085358128907";"";"";"1.0329244";"97.4864718";"https://maps.google.com/?cid=0x0:0x1dc5971ad3d9b8aa";""
"home improvement";"home improvement";"Studioteknik";"";"";"SUMATERA UTARA";"";"Indonesia";" 082181964227";"";"";"0.4514394";"97.99475";"https://maps.google.com/?cid=0x0:0xff7b481fbf840072";""
"home improvement";"Kantor Perusahaan";"ASKENA COMPANY";"Saitagari Desa Botonaai Kecamatan Tugala Oyo, Kab, Kabupaten Nias Utara, Sumatera Utara 22861";"Kab, Kabupaten Nias Utara";"SUMATERA UTARA";"22861";"Indonesia";" 081284444489";"";"";"1.1002386";"97.4685683";"https://maps.google.com/?cid=0x0:0x539553c0ad1ef82d";""
"home improvement";"Toko Mebel";"Panglon UD.Abert";"2FVP+PJC, Desa fadoro, dusun 3, aramba, Kec. Mandrehe, Kabupaten Nias Barat, Sumatera Utara";"Kabupaten Nias Barat, Sumatera Utara";"SUMATERA UTARA";"";"Indonesia";"";"";"";"1.0443152";"97.4865276";"https://maps.google.com/?cid=0x0:0xba08fd2d6ac01d27";""
"home improvement";"Toko Perlengkapan Rumah";"UD. Kreasi Bersama (Jual beli Kayu)";"XC7J+57Q, Togideu, Kec. Sirombu, Kabupaten Nias Barat, Sumatera Utara 22863";"Togideu, Kec. Sirombu, Kabupaten Nias Barat";"SUMATERA UTARA";"22863";"Indonesia";" 081397767793";"";"";"0.9629724";"97.4307494";"https://maps.google.com/?cid=0x0:0x1135157c1ed96f8";""
"home improvement";"Toko Mebel";"UD. OSG";"2G89+GP7, Bukit Tinggi, Kec. Ulu Moro'o, Kabupaten Nias Barat, Sumatera Utara 22862";"Bukit Tinggi, Kec. Ulu Moro'o, Kabupaten Nias Barat";"SUMATERA UTARA";"22862";"Indonesia";"";"";"";"1.0162936";"97.5193093";"https://maps.google.com/?cid=0x0:0xa7e345ad737a2c";""
"home improvement";"home improvement";"Kec. Mandrehe Bar.";"Kabupaten Nias Barat, Sumatera Utara";"Kabupaten Nias Barat, Sumatera Utara";"SUMATERA UTARA";"";"Indonesia";"";"";"";"0.998808";"97.4182241";"https://maps.google.com/?cid=0x0:0x7de90688f484314d";""
"home improvement";"home improvement";"Sumatera Utara 22867";"Kabupaten Nias Selatan, Sumatera Utara";"Kabupaten Nias Selatan, Sumatera Utara";"SUMATERA UTARA";"";"Indonesia";"";"";"";"0.9212063";"97.6710889";"https://maps.google.com/?cid=0x0:0xe28ccee9e4064a40";""
"home improvement";"Grosir Mebel";"UD. MARVEL";"WM56+M9G, Unnamed Road, Hiliwaebu, Kecamatan Ulunoyo, Kabupaten Nias Selatan, Sumatera Utara 22867";"Unnamed Road, Hiliwaebu, Kecamatan Ulunoyo, Kabupaten Nias Selatan";"SUMATERA UTARA";"22867";"Indonesia";"";"";"";"0.9091787";"97.6609616";"https://maps.google.com/?cid=0x0:0xd21928e146275b5c";""
"home improvement";"Toko Perlengkapan Rumah";"Perabot";"WM47+7XM, Amorosa, Kecamatan Ulunoyo, Kabupaten Nias Selatan, Sumatera Utara";"Kabupaten Nias Selatan, Sumatera Utara";"SUMATERA UTARA";"";"Indonesia";"";"";"";"0.905718";"97.6649278";"https://maps.google.com/?cid=0x0:0x7893fdfd9715f1c9";""
"home improvement";"home improvement";"Sumatera Utara 22812";"Kabupaten Nias Barat, Sumatera Utara";"Kabupaten Nias Barat, Sumatera Utara";"SUMATERA UTARA";"";"Indonesia";"";"";"";"1.0164701";"97.4435441";"https://maps.google.com/?cid=0x0:0xd11190b65d8d63eb";""
"home improvement";"Perajin furnitur";"UD.LEON-ZAI PERABOT KAYU";"2C8H+5MQ, Hilidaura, Kec. Mandrehe Bar., Kabupaten Nias Barat, Sumatera Utara 22812";"Hilidaura, Kec. Mandrehe Bar., Kabupaten Nias Barat";"SUMATERA UTARA";"22812";"Indonesia";" 082362445718";"";"";"1.0154548";"97.42924";"https://maps.google.com/?cid=0x0:0x606782024276e925";""
"home improvement";"Toko Mebel";"Bapa sipa";"3G3W+MX7, Lologolu, dusun 3, simanaere, Kabupaten Nias Barat";"Kabupaten Nias Barat, Sumatera Utara";"SUMATERA UTARA";"";"Indonesia";"";"";"";"1.0541677";"97.5474153";"https://maps.google.com/?cid=0x0:0xbc9799a88cbfceb3";""
"home improvement";"Toko Perlengkapan Rumah";"UD. Kreasi Bersama (Jual beli Kayu)";"XC7J+57Q, Togideu, Kec. Sirombu, Kabupaten Nias Barat, Sumatera Utara 22863";"Togideu, Kec. Sirombu, Kabupaten Nias Barat";"SUMATERA UTARA";"22863";"Indonesia";" 081397767793";"";"";"0.9629724";"97.4307494";"https://maps.google.com/?cid=0x0:0x1135157c1ed96f8";""
"home improvement";"Toko Mebel";"Panglon UD.Abert";"2FVP+PJC, Desa fadoro, dusun 3, aramba, Kec. Mandrehe, Kabupaten Nias Barat, Sumatera Utara";"Kabupaten Nias Barat, Sumatera Utara";"SUMATERA UTARA";"";"Indonesia";"";"";"";"1.0443152";"97.4865276";"https://maps.google.com/?cid=0x0:0xba08fd2d6ac01d27";""
"home improvement";"home improvement";"Studioteknik";"";"";"SUMATERA UTARA";"";"Indonesia";" 082181964227";"";"";"0.4514394";"97.99475";"https://maps.google.com/?cid=0x0:0xff7b481fbf840072";""
"home improvement";"Toko Mebel";"UD.FRANS";"Jl. Nias Tengah, Dahadano Botombawo, Kec. Botomuzoi, Kabupaten Nias, Sumatera Utara 22811";"Dahadano Botombawo, Kec. Botomuzoi, Kabupaten Nias";"SUMATERA UTARA";"22811";"Indonesia";" 082370375787";"";"";"1.1959077";"97.5587159";"https://maps.google.com/?cid=0x0:0x44e57674427ea493";""
"home improvement";"home improvement";"Kec. Mandrehe Bar.";"Kabupaten Nias Barat, Sumatera Utara";"Kabupaten Nias Barat, Sumatera Utara";"SUMATERA UTARA";"";"Indonesia";"";"";"";"0.998808";"97.4182241";"https://maps.google.com/?cid=0x0:0x7de90688f484314d";""
"home improvement";"home improvement";"Hotel Nasional";"Jl. Kelapa No.55, Ps. Gn. Sitoli, Kec. Gunungsitoli, Kota Gunungsitoli, Sumatera Utara 22815";"Ps. Gn. Sitoli, Kec. Gunungsitoli, Kota Gunungsitoli";"SUMATERA UTARA";"22815";"Indonesia";" 08116585577";"";"";"1.2864364";"97.6245224";"https://maps.google.com/?cid=0x0:0x2875c5a273fc311";""
"home improvement";"home improvement";"Sumatera Utara 22814";"Saombo, Kec. Gunungsitoli, Kota Gunungsitoli, Sumatera Utara";"Kota Gunungsitoli, Sumatera Utara";"SUMATERA UTARA";"";"Indonesia";"";"";"";"1.2897758";"97.6188016";"https://maps.google.com/?cid=0x0:0x72677cb0cc3dbd55";""
"home improvement";"home improvement";"Kec. Mandrehe";"Kabupaten Nias Barat, Sumatera Utara";"Kabupaten Nias Barat, Sumatera Utara";"SUMATERA UTARA";"";"Indonesia";"";"";"";"1.0502205";"97.490564";"https://maps.google.com/?cid=0x0:0x5575236955039e3e";""
"home improvement";"Toko Mebel";"Panglon UD.Abert";"2FVP+PJC, Desa fadoro, dusun 3, aramba, Kec. Mandrehe, Kabupaten Nias Barat, Sumatera Utara";"Kabupaten Nias Barat, Sumatera Utara";"SUMATERA UTARA";"";"Indonesia";"";"";"";"1.0443152";"97.4865276";"https://maps.google.com/?cid=0x0:0xba08fd2d6ac01d27";""
"home improvement";"Toko Mebel";"UD. OSG";"2G89+GP7, Bukit Tinggi, Kec. Ulu Moro'o, Kabupaten Nias Barat, Sumatera Utara 22862";"Bukit Tinggi, Kec. Ulu Moro'o, Kabupaten Nias Barat";"SUMATERA UTARA";"22862";"Indonesia";"";"";"";"1.0162936";"97.5193093";"https://maps.google.com/?cid=0x0:0xa7e345ad737a2c";""
"home improvement";"home improvement";"Sumatera Utara 22862";"Kabupaten Nias Barat, Sumatera Utara";"Kabupaten Nias Barat, Sumatera Utara";"SUMATERA UTARA";"";"Indonesia";"";"";"";"1.0305654";"97.5030669";"https://maps.google.com/?cid=0x0:0x343297d388925be1";""
"home improvement";"home improvement";"Sirombu";"Sirombu, Kec. Sirombu, Kabupaten Nias Barat, Sumatera Utara";"Kabupaten Nias Barat, Sumatera Utara";"SUMATERA UTARA";"";"Indonesia";"";"";"";"0.952816";"97.418171";"https://maps.google.com/?cid=0x0:0x4039d80b2210500";""
"home improvement";"Pembangunan Perumahan";"IVAN's Home";"XF86+Q3Q, Fadoro, Kec. Sirombu, Kabupaten Nias Barat, Sumatera Utara 22863";"Fadoro, Kec. Sirombu, Kabupaten Nias Barat";"SUMATERA UTARA";"22863";"Indonesia";"";"";"";"0.9669545";"97.4602355";"https://maps.google.com/?cid=0x0:0x3949bf5716a8135b";""
"home improvement";"home improvement";"Kec. Tebet";"Kota Jakarta Selatan, Daerah Khusus Ibukota Jakarta";"Kota Jakarta Selatan, Daerah Khusus Ibukota Jakarta";"SUMATERA UTARA";"";"Indonesia";"";"";"";"-6.2251223";"106.8549881";"https://maps.google.com/?cid=0x0:0xd575e31c807295f9";""
"home improvement";"Perhimpunan Pengembang Perumahan";"Lilin Home";"XC5P+CGG, Tugalagawu, Kec. Sirombu, Kabupaten Nias Barat, Sumatera Utara 22863";"Tugalagawu, Kec. Sirombu, Kabupaten Nias Barat";"SUMATERA UTARA";"22863";"Indonesia";"";"";"";"0.9585736";"97.4363313";"https://maps.google.com/?cid=0x0:0xd1d4430448bd1bea";""
"home improvement";"Toko Mebel";"UD. OSG";"2G89+GP7, Bukit Tinggi, Kec. Ulu Moro'o, Kabupaten Nias Barat, Sumatera Utara 22862";"Bukit Tinggi, Kec. Ulu Moro'o, Kabupaten Nias Barat";"SUMATERA UTARA";"22862";"Indonesia";"";"";"";"1.0162936";"97.5193093";"https://maps.google.com/?cid=0x0:0xa7e345ad737a2c";""
"home improvement";"home improvement";"Kec. Ulu Moro'o";"Kabupaten Nias Barat, Sumatera Utara";"Kabupaten Nias Barat, Sumatera Utara";"SUMATERA UTARA";"";"Indonesia";"";"";"";"1.0144644";"97.5333185";"https://maps.google.com/?cid=0x0:0xcabc6a3673d44b2d";""
"home improvement";"Toko Mebel";"Panglon UD.Abert";"2FVP+PJC, Desa fadoro, dusun 3, aramba, Kec. Mandrehe, Kabupaten Nias Barat, Sumatera Utara";"Kabupaten Nias Barat, Sumatera Utara";"SUMATERA UTARA";"";"Indonesia";"";"";"";"1.0443152";"97.4865276";"https://maps.google.com/?cid=0x0:0xba08fd2d6ac01d27";""
