Category;Real Category;Business Name;Address;City;State;Postal Code;Country;Phone;Email;Website;Latitude;Longitude;Map Link;Details Link
"mall";"mall";"Jl. Lahömi";"Lologundre, Kec. Lahomi, Kabupaten Nias Barat, Sumatera Utara 22864";"Kec. Lahomi, Kabupaten Nias Barat";"SUMATERA UTARA";"22864";"Indonesia";"";"";"";"0.986949";"97.5036587";"https://maps.google.com/?cid=0x0:0x6409da5bc64f976c";""
"mall";"Pasar";"Harimbale Miga, Gunungsitoli";"7J4Q+2WG, Fodo, Kec. Gunungsitoli, Kota Gunungsitoli, Sumatera Utara";"Kota Gunungsitoli, Sumatera Utara";"SUMATERA UTARA";"";"Indonesia";" 081268250773";"";"";"1.2550578";"97.6398204";"https://maps.google.com/?cid=0x0:0x4d04a4f9f73c8f97";""
"mall";"Pasar";"Pasar Gomo";"7JQ8+RW7, Jl. Gomo, Saombo, Kec. Gunungsitoli, Kota Gunungsitoli, Sumatera Utara";"Kota Gunungsitoli, Sumatera Utara";"SUMATERA UTARA";"";"Indonesia";"";"";"";"1.2895364";"97.6172875";"https://maps.google.com/?cid=0x0:0x50ef939c84cf05b4";""
"mall";"mall";"Rido Laowo";"Jl. Helefanikha Desa, Sifalaete, Kec. GunungSitoli Idanoi, Kota Gunungsitoli, Sumatera Utara 22870";"Sifalaete, Kec. GunungSitoli Idanoi, Kota Gunungsitoli";"SUMATERA UTARA";"22870";"Indonesia";" 085363221641";"";"";"1.2023743";"97.653342";"https://maps.google.com/?cid=0x0:0xb91f5367b98a917e";""
"mall";"Pasar";"Pekan So'onogeu Hilisimaetano";"MPCM+3M4, Desa Pekan, Hilisimaetano, Kec. Maniamolo, Kabupaten Nias Selatan, Sumatera Utara 22866";"Desa Pekan, Hilisimaetano, Kec. Maniamolo, Kabupaten Nias Selatan";"SUMATERA UTARA";"22866";"Indonesia";"";"";"";"0.6701341";"97.7342094";"https://maps.google.com/?cid=0x0:0xe183ccc071d8e3a4";""
"mall";"Tujuan Wisata";"Hiligeo Majinge, Fadoro";"CC3X+2HG, Umbubalodano, Kec. Sitolu Ori, Kabupaten Nias Utara, Sumatera Utara 22852";"Umbubalodano, Kec. Sitolu Ori, Kabupaten Nias Utara";"SUMATERA UTARA";"22852";"Indonesia";" 081372351165";"";"";"1.4025503";"97.4489531";"https://maps.google.com/?cid=0x0:0xf2c9d1a8888daf9b";""
"mall";"mall";"Sumatera Utara 22875";"Kec. Lolofitu Moi, Kabupaten Nias Barat, Sumatera Utara";"Kabupaten Nias Barat, Sumatera Utara";"SUMATERA UTARA";"";"Indonesia";"";"";"";"1.0588624";"97.5788975";"https://maps.google.com/?cid=0x0:0x9c54d35d78ab160f";""
"mall";"mall";"Kec. Lolofitu Moi";"Kabupaten Nias Barat, Sumatera Utara";"Kabupaten Nias Barat, Sumatera Utara";"SUMATERA UTARA";"";"Indonesia";"";"";"";"1.1004325";"97.5801753";"https://maps.google.com/?cid=0x0:0x955959013251a8d";""
"mall";"Kantor Catatan Sipil";"Kantor Kecamatan Lolofitu Moi";"jln. nias tengah km. 34, desa lolofitu, kec, Lolofitu, kab, Kabupaten Nias Barat, Sumatera Utara 22875";"desa lolofitu, kec, Lolofitu, kab, Kabupaten Nias Barat";"SUMATERA UTARA";"22875";"Indonesia";"";"";"";"1.1008905";"97.5781896";"https://maps.google.com/?cid=0x0:0x24e1d054cfc1f602";""
"mall";"Pasar tradisional";"Harimbale Duria";"2JJ4+GR4, Jl. Lōlōwa'u, Ehosakhozi, Lolowau, Kabupaten Nias Selatan, Sumatera Utara 22852";"Jl. Lōlōwa'u, Ehosakhozi, Lolowau, Kabupaten Nias Selatan";"SUMATERA UTARA";"22852";"Indonesia";" 083879305604";"";"";"1.0312725";"97.6070851";"https://maps.google.com/?cid=0x0:0x6a6b9f47203b7d0e";""
"mall";"Pusat Perbelanjaan";"Mall Of Indonesia";"Jl. Boulevard Bar. Raya No.12, RT.18/RW.19, Klp. Gading Bar., Kec. Klp. Gading, Jkt Utara, Daerah Khusus Ibukota Jakarta 14240";"RT.18/RW.19, Klp. Gading Bar., Kec. Klp. Gading, Jkt Utara";"SUMATERA UTARA";"14240";"Indonesia";" 02145867888";"";"";"-6.1514549";"106.8918949";"https://maps.google.com/?cid=0x0:0x3431c7aaadd1f1b6";""
"mall";"Pusat Perbelanjaan";"Lotte Shopping Avenue Mall";"Jl. Prof. DR. Satrio No.Kav.3, RW.5, Kuningan, Karet Kuningan, Kecamatan Setiabudi, Kota Jakarta Selatan, Daerah Khusus Ibukota Jakarta 12940";"RW.5, Kuningan, Karet Kuningan, Kecamatan Setiabudi, Kota Jakarta Selatan";"SUMATERA UTARA";"12940";"Indonesia";" 02129889292";"";"";"-6.2233644";"106.8232981";"https://maps.google.com/?cid=0x0:0xe8323175da8b9770";""
"mall";"mall";"UD. BETRIS";"4H5J+6P9, Hiliuso, Kec. Lolofitu Moi, Kabupaten Nias Barat, Sumatera Utara";"Kabupaten Nias Barat, Sumatera Utara";"SUMATERA UTARA";"";"Indonesia";"";"";"";"1.108876";"97.582908";"https://maps.google.com/?cid=0x0:0x75b63a5e25693d4";""
"mall";"Toko";"UD. MANDIRI";"3G3X+J36, Lologulo, Kec. Mandrehe, Kabupaten Nias Barat, Sumatera Utara 22862";"Lologulo, Kec. Mandrehe, Kabupaten Nias Barat";"SUMATERA UTARA";"22862";"Indonesia";" 081262130008";"";"";"1.0540265";"97.5476276";"https://maps.google.com/?cid=0x0:0x57472c56e72ce063";""
"mall";"mall";"Lologulo";"Kec. Mandrehe, Kabupaten Nias Barat, Sumatera Utara";"Kabupaten Nias Barat, Sumatera Utara";"SUMATERA UTARA";"";"Indonesia";"";"";"";"1.056535";"97.5599321";"https://maps.google.com/?cid=0x0:0x629b728c04f786e5";""
"mall";"Toko";"UD.BALOIDO";"2JMG+83V, Balodano, Kec. Ma'u, Kabupaten Nias, Sumatera Utara 22852";"Balodano, Kec. Ma'u, Kabupaten Nias";"SUMATERA UTARA";"22852";"Indonesia";"";"";"";"1.0333733";"97.6251581";"https://maps.google.com/?cid=0x0:0x854480e49851876b";""
"mall";"Pusat Perbelanjaan";"MOI Kelapa Gading";"Mall Of Indonesia, Jl. Boulevard Bar. Raya Lt. 2, RT.18/RW.8, Klp. Gading Bar., Kec. Klp. Gading, Jkt Utara, Daerah Khusus Ibukota Jakarta 14240";"Jl. Boulevard Bar. Raya Lt. 2, RT.18/RW.8, Klp. Gading Bar., Kec. Klp. Gading, Jkt Utara";"SUMATERA UTARA";"14240";"Indonesia";" 081217393609";"";"";"-6.1506741";"106.8908571";"https://maps.google.com/?cid=0x0:0x11e13e124ce7f530";""
"mall";"Pusat Perbelanjaan";"UD. THEODORUS";"3G3G+W8V, Lolozirugi, Kec. Mandrehe, Kabupaten Nias Barat, Sumatera Utara";"Kabupaten Nias Barat, Sumatera Utara";"SUMATERA UTARA";"";"Indonesia";"";"";"";"1.0548596";"97.525782";"https://maps.google.com/?cid=0x0:0xff9c3b522a4fdcd6";""
"mall";"Sekolah menengah";"SMAN. 1 LOLOFITU MOI";"2JM5+P6V, Jl. Lōlōwa'u, Ehosakhozi, Kec. Lolofitu Moi, Kabupaten Nias Selatan, Sumatera Utara";"Kabupaten Nias Selatan, Sumatera Utara";"SUMATERA UTARA";"";"Indonesia";"";"";"";"1.0343573";"97.6080595";"https://maps.google.com/?cid=0x0:0xe781754197013d39";""
"mall";"Perhimpunan Pengembang Perumahan";"Desa wango";"3JF4+FCG, Wangi, Kec. Lolofitu Moi, Kabupaten Nias Barat, Sumatera Utara";"Kabupaten Nias Barat, Sumatera Utara";"SUMATERA UTARA";"";"Indonesia";"";"";"";"1.0736861";"97.6060823";"https://maps.google.com/?cid=0x0:0x82bfe818967c52d9";""
"mall";"mall";"UD. DEVEN";"3H6R+FXP, Lolofitu, Kec. Lolofitu Moi, Kabupaten Nias Barat, Sumatera Utara 22875";"Lolofitu, Kec. Lolofitu Moi, Kabupaten Nias Barat";"SUMATERA UTARA";"22875";"Indonesia";"";"";"";"1.061203";"97.5924474";"https://maps.google.com/?cid=0x0:0xa44ae0253b7c86fe";""
"mall";"mall";"Sumatera Utara 22862";"Kabupaten Nias Barat, Sumatera Utara";"Kabupaten Nias Barat, Sumatera Utara";"SUMATERA UTARA";"";"Indonesia";"";"";"";"1.0305654";"97.5030669";"https://maps.google.com/?cid=0x0:0x343297d388925be1";""
"mall";"Pusat Perbelanjaan";"Pasar Mandrehe";"Fadoro, Kec. Mandrehe, Kabupaten Nias Barat, Sumatera Utara 22862";"Kec. Mandrehe, Kabupaten Nias Barat";"SUMATERA UTARA";"22862";"Indonesia";" 082370874876";"";"";"1.0498175";"97.4906554";"https://maps.google.com/?cid=0x0:0xe3813b2a2e2967d2";""
"mall";"Pusat Perbelanjaan";"Galeri Micha";"3G57+JH2, Fadoro, Kec. Mandrehe, Kabupaten Nias Barat, Sumatera Utara 22862";"Fadoro, Kec. Mandrehe, Kabupaten Nias Barat";"SUMATERA UTARA";"22862";"Indonesia";" 082273520801";"";"";"1.0590215";"97.5138947";"https://maps.google.com/?cid=0x0:0x828ac47400d0404b";""
"mall";"Pusat Perbelanjaan";"UD. Iman";"2FXQ+WX2, Fadoro, Kec. Mandrehe, Kabupaten Nias Barat, Sumatera Utara 22862";"Fadoro, Kec. Mandrehe, Kabupaten Nias Barat";"SUMATERA UTARA";"22862";"Indonesia";" 081370985334";"";"";"1.0497659";"97.489902";"https://maps.google.com/?cid=0x0:0xca610322b1e413c3";""
"mall";"Pusat Perbelanjaan";"Micha 2";"3F2R+947, Jl. Ir. Soekarno, Fadoro, Kec. Mandrehe, Kabupaten Nias Barat, Sumatera Utara 22862";"Jl. Ir. Soekarno, Fadoro, Kec. Mandrehe, Kabupaten Nias Barat";"SUMATERA UTARA";"22862";"Indonesia";"";"";"";"1.0522657";"97.4913189";"https://maps.google.com/?cid=0x0:0xb5abde78c10ff820";""
"mall";"Pusat Perbelanjaan";"UD. Cemerlang";"2FXR+RGC, Fadoro, Kec. Mandrehe, Kabupaten Nias Barat, Sumatera Utara 22862";"Fadoro, Kec. Mandrehe, Kabupaten Nias Barat";"SUMATERA UTARA";"22862";"Indonesia";"";"";"";"1.049557";"97.4912757";"https://maps.google.com/?cid=0x0:0x20023c00eed1204b";""
"mall";"Pusat Perbelanjaan";"UD.DEPA";"2FXR+P9J, Fadoro, Kec. Mandrehe, Kabupaten Nias Barat, Sumatera Utara 22862";"Fadoro, Kec. Mandrehe, Kabupaten Nias Barat";"SUMATERA UTARA";"22862";"Indonesia";"";"";"";"1.0495899";"97.4908948";"https://maps.google.com/?cid=0x0:0xae64fd2924b1efe9";""
"mall";"Pusat Perbelanjaan";"UD. MELONA";"39CR+H79, II Dusun III, Iraono Gambo, Mandrehe, West Nias Regency, North Sumatra 22862";"II Dusun III, Iraono Gambo, Mandrehe, West Nias Regency";"SUMATERA UTARA";"22862";"Indonesia";"";"";"";"1.0714041";"97.3907265";"https://maps.google.com/?cid=0x0:0x54ab6b2016cf58b3";""
"mall";"Toko";"UD. MANDIRI";"3G3X+J36, Lologulo, Kec. Mandrehe, Kabupaten Nias Barat, Sumatera Utara 22862";"Lologulo, Kec. Mandrehe, Kabupaten Nias Barat";"SUMATERA UTARA";"22862";"Indonesia";" 081262130008";"";"";"1.0540265";"97.5476276";"https://maps.google.com/?cid=0x0:0x57472c56e72ce063";""
"mall";"Toko";"UD. Berkat";"3G3G+MFR, Lolozirugi, Kec. Mandrehe, Kabupaten Nias Barat, Sumatera Utara 22862";"Lolozirugi, Kec. Mandrehe, Kabupaten Nias Barat";"SUMATERA UTARA";"22862";"Indonesia";"";"";"";"1.0537443";"97.526423";"https://maps.google.com/?cid=0x0:0xc9f2ada1fc4a5d95";""
"mall";"Pusat Perbelanjaan";"UD. Mardin";"3G4F+PGW, Lolozirugi, Kec. Mandrehe, Kabupaten Nias Barat, Sumatera Utara 22862";"Lolozirugi, Kec. Mandrehe, Kabupaten Nias Barat";"SUMATERA UTARA";"22862";"Indonesia";"";"";"";"1.0568739";"97.5238424";"https://maps.google.com/?cid=0x0:0x9a2ed662a9c6d225";""
"mall";"Pusat Perbelanjaan";"UD. THEODORUS";"3G3G+W8V, Lolozirugi, Kec. Mandrehe, Kabupaten Nias Barat, Sumatera Utara";"Kabupaten Nias Barat, Sumatera Utara";"SUMATERA UTARA";"";"Indonesia";"";"";"";"1.0548596";"97.525782";"https://maps.google.com/?cid=0x0:0xff9c3b522a4fdcd6";""
"mall";"Pusat Perbelanjaan";"UD. Setia";"3F3C+24P, Tetehosi, Kec. Mandrehe, Kabupaten Nias Barat, Sumatera Utara";"Kabupaten Nias Barat, Sumatera Utara";"SUMATERA UTARA";"";"Indonesia";" 082299869902";"";"";"1.0525959";"97.4703266";"https://maps.google.com/?cid=0x0:0xa7869bcbd34f652f";""
"mall";"Pusat Perbelanjaan";"UD.IMANUEL";"2F6V+625, Unnamed Road, Onolimbu, Kec. Lahomi, Kabupaten Nias Barat, Sumatera Utara 22862";"Unnamed Road, Onolimbu, Kec. Lahomi, Kabupaten Nias Barat";"SUMATERA UTARA";"22862";"Indonesia";" 081370937165";"";"";"1.0105019";"97.4926171";"https://maps.google.com/?cid=0x0:0xfc3d32fdfab36122";""
"mall";"Pusat Perbelanjaan";"UD. SONORAMA";"3F3X+P3C, Fadoro, Kec. Mandrehe, Kabupaten Nias Barat, Sumatera Utara";"Kabupaten Nias Barat, Sumatera Utara";"SUMATERA UTARA";"";"Indonesia";"";"";"";"1.0543126";"97.4976536";"https://maps.google.com/?cid=0x0:0x6f779f7297fc5b92";""
"mall";"Komplek perumahan";"Rumah Putri Waruwu";"2FRR+JV8, Simaeasi, Kec. Mandrehe, Kabupaten Nias Barat, Sumatera Utara 22862";"Simaeasi, Kec. Mandrehe, Kabupaten Nias Barat";"SUMATERA UTARA";"22862";"Indonesia";"";"";"";"1.0415319";"97.4921903";"https://maps.google.com/?cid=0x0:0x56f89e8ac4983d7";""
"mall";"Toko Fotokopi";"Fotocopy UD. Yuman";"3G68+H4P, Jl. Lakhene, Lolozirugi, Kec. Mandrehe, Kabupaten Nias Barat, Sumatera Utara 22862";"Jl. Lakhene, Lolozirugi, Kec. Mandrehe, Kabupaten Nias Barat";"SUMATERA UTARA";"22862";"Indonesia";" 082166152076";"";"";"1.0614674";"97.5153364";"https://maps.google.com/?cid=0x0:0x298b9b667e80c500";""
"mall";"Pusat Perbelanjaan";"Ud Hepy";"2F6R+6W9, Unnamed Road, Onolimbu, Kec. Lahomi, Kabupaten Nias Barat, Sumatera Utara 22862";"Unnamed Road, Onolimbu, Kec. Lahomi, Kabupaten Nias Barat";"SUMATERA UTARA";"22862";"Indonesia";" 081265777779";"";"";"1.0105305";"97.4923482";"https://maps.google.com/?cid=0x0:0x6abd79dd16be1c54";""
"mall";"Toko";"UD .Ivan";"Alamat Hilifadolo, Kecamatan Moro'o Kabupaten Nias Barat, Desa Lasarabahili Dusun III No.01, Hilisoromi, Kec. Moro'o, Kabupaten Nias Barat, Sumatera Utara 22862";"Kecamatan Moro'o Kabupaten Nias Barat, Desa Lasarabahili Dusun III No.01, Hilisoromi, Kec. Moro'o, Kabupaten Nias Barat";"SUMATERA UTARA";"22862";"Indonesia";" 081377462223";"";"";"1.07599";"97.4353942";"https://maps.google.com/?cid=0x0:0x5984df575bde4cc2";""
"mall";"Toko";"UD. Zainal";"Depan Pasar Pekan, Lawelu, Kec. Ulu Moro'o, Kabupaten Nias Barat, Sumatera Utara 22862";"Lawelu, Kec. Ulu Moro'o, Kabupaten Nias Barat";"SUMATERA UTARA";"22862";"Indonesia";" 085370948288";"";"";"1.012439";"97.5349202";"https://maps.google.com/?cid=0x0:0xe7cc2d57c74e9013";""
"mall";"mall";"Kec. Mandrehe Bar.";"Kabupaten Nias Barat, Sumatera Utara";"Kabupaten Nias Barat, Sumatera Utara";"SUMATERA UTARA";"";"Indonesia";"";"";"";"0.998808";"97.4182241";"https://maps.google.com/?cid=0x0:0x7de90688f484314d";""
"mall";"Pusat Perbelanjaan";"UD. VANNY";"2C29+2WX, Dusun III, Ononamolo III, Kec. Mandrehe Bar., Kabupaten Nias Barat, Sumatera Utara 22812";"Dusun III, Ononamolo III, Kec. Mandrehe Bar., Kabupaten Nias Barat";"SUMATERA UTARA";"22812";"Indonesia";"";"";"";"1.0001163";"97.4198548";"https://maps.google.com/?cid=0x0:0xafd8dd6b3b86a21b";""
"mall";"Pusat Perbelanjaan";"UD.Taro";"2C3F+477, Ononamolo lll, Kec. Mandrehe Bar., Kabupaten Nias Barat, Sumatera Utara";"Kabupaten Nias Barat, Sumatera Utara";"SUMATERA UTARA";"";"Indonesia";"";"";"";"1.0027805";"97.4231854";"https://maps.google.com/?cid=0x0:0x75b66253420424be";""
"mall";"mall";"UD. BENNY";"2CMH+VC2 UD. BENNY, Jl, Lasara Faga, Kec. Mandrehe Bar., Kabupaten Nias Barat, Sumatera Utara 22812";"Jl, Lasara Faga, Kec. Mandrehe Bar., Kabupaten Nias Barat";"SUMATERA UTARA";"22812";"Indonesia";"";"";"";"1.0346317";"97.4285116";"https://maps.google.com/?cid=0x0:0xe00479e27bec8c2e";""
"mall";"Pusat Perbelanjaan";"Pasar Loloanaa";"Loloana'a, Desa, Halifadolo, Kec. Moro'o, Kabupaten Nias Barat, Sumatera Utara 22862";"Desa, Halifadolo, Kec. Moro'o, Kabupaten Nias Barat";"SUMATERA UTARA";"22862";"Indonesia";"";"";"";"1.0603899";"97.4340667";"https://maps.google.com/?cid=0x0:0x9d68e27112add1";""
"mall";"Pasar";"Loloana'a, Moro'ö Nias Barat";"Halifadolo, Kec. Moro'o, Kabupaten Nias Barat, Sumatera Utara";"Kabupaten Nias Barat, Sumatera Utara";"SUMATERA UTARA";"";"Indonesia";"";"";"";"1.0628261";"97.4308039";"https://maps.google.com/?cid=0x0:0x466680e31bf1f6e3";""
"mall";"mall";"Sumatera Utara 22867";"Kabupaten Nias Selatan, Sumatera Utara";"Kabupaten Nias Selatan, Sumatera Utara";"SUMATERA UTARA";"";"Indonesia";"";"";"";"0.9212063";"97.6710889";"https://maps.google.com/?cid=0x0:0xe28ccee9e4064a40";""
"mall";"Pusat Perbelanjaan";"Galeri Micha";"3G57+JH2, Fadoro, Kec. Mandrehe, Kabupaten Nias Barat, Sumatera Utara 22862";"Fadoro, Kec. Mandrehe, Kabupaten Nias Barat";"SUMATERA UTARA";"22862";"Indonesia";" 082273520801";"";"";"1.0590215";"97.5138947";"https://maps.google.com/?cid=0x0:0x828ac47400d0404b";""
"mall";"Pusat Perbelanjaan";"Micha 2";"3F2R+947, Jl. Ir. Soekarno, Fadoro, Kec. Mandrehe, Kabupaten Nias Barat, Sumatera Utara 22862";"Jl. Ir. Soekarno, Fadoro, Kec. Mandrehe, Kabupaten Nias Barat";"SUMATERA UTARA";"22862";"Indonesia";"";"";"";"1.0522657";"97.4913189";"https://maps.google.com/?cid=0x0:0xb5abde78c10ff820";""
"mall";"Pusat Perbelanjaan";"UD. SABDANI";"WJWP+HJH, Jl. Ulunoyo, Koendrafo, Pekan Hililaza, Kabupaten Nias Selatan, Sumatera Utara 22867";"Jl. Ulunoyo, Koendrafo, Pekan Hililaza, Kabupaten Nias Selatan";"SUMATERA UTARA";"22867";"Indonesia";"";"";"";"0.9464456";"97.6366125";"https://maps.google.com/?cid=0x0:0x7ffba5cab50921a2";""
"mall";"Toko umum";"UD Nanda Ndr";"WJ59+X47, Satu, Togizita, Hilimegai, South Nias Regency, North Sumatra 22864";"Satu, Togizita, Hilimegai, South Nias Regency";"SUMATERA UTARA";"22864";"Indonesia";" 081362415596";"";"";"0.9099197";"97.6178029";"https://maps.google.com/?cid=0x0:0x65494df3626addb3";""
"mall";"Pasar";"Pasar Togizita";"WJ3C+QGF, Togizita, Kec. Hilimegai, Kabupaten Nias Selatan, Sumatera Utara 22864";"Togizita, Kec. Hilimegai, Kabupaten Nias Selatan";"SUMATERA UTARA";"22864";"Indonesia";"";"";"";"0.9044462";"97.6212821";"https://maps.google.com/?cid=0x0:0xf33ec7719d9407a6";""
"mall";"Toko Swalayan";"Kedai STEPHAN";"VHQJ+3G8, Lolowau, Kec. Lalowau, Kabupaten Nias Selatan, Sumatera Utara 22864";"Lolowau, Kec. Lalowau, Kabupaten Nias Selatan";"SUMATERA UTARA";"22864";"Indonesia";" 082161257585";"";"";"0.8876504";"97.5813298";"https://maps.google.com/?cid=0x0:0x70c32a4a8ec47fb5";""
"mall";"Pusat Pendidikan";"Ud.Charas";"Jl. Umbunasi, Hiliwaebu, Kec. Lolomatua, Kabupaten Nias Selatan, Sumatera Utara 22852";"Hiliwaebu, Kec. Lolomatua, Kabupaten Nias Selatan";"SUMATERA UTARA";"22852";"Indonesia";" 081315370001";"";"";"0.9159644";"97.6570509";"https://maps.google.com/?cid=0x0:0x295af1e9e18e2afe";""
"mall";"Pusat Perbelanjaan";"UD Micha";"2FXR+R2P, pasar, Kec. Mandrehe, Kabupaten Nias Barat, Sumatera Utara 22862";"pasar, Kec. Mandrehe, Kabupaten Nias Barat";"SUMATERA UTARA";"22862";"Indonesia";" 082273520801";"";"";"1.0495936";"97.4900915";"https://maps.google.com/?cid=0x0:0x6df5b01076fea49d";""
"mall";"Pusat Perbelanjaan";"Pames Mend";"Law-lawa, Jl. Nias Tengah, Lolowua, Kec. HiliSerangkai, Kabupaten Nias, Sumatera Utara 22851";"Jl. Nias Tengah, Lolowua, Kec. HiliSerangkai, Kabupaten Nias";"SUMATERA UTARA";"22851";"Indonesia";" 085275290088";"";"";"1.1811384";"97.582569";"https://maps.google.com/?cid=0x0:0x44f205d447b92368";""
"mall";"mall";"Kec. Mandrehe Bar.";"Kabupaten Nias Barat, Sumatera Utara";"Kabupaten Nias Barat, Sumatera Utara";"SUMATERA UTARA";"";"Indonesia";"";"";"";"0.998808";"97.4182241";"https://maps.google.com/?cid=0x0:0x7de90688f484314d";""
"mall";"Pusat Perbelanjaan";"Pasar Mandrehe";"Fadoro, Kec. Mandrehe, Kabupaten Nias Barat, Sumatera Utara 22862";"Kec. Mandrehe, Kabupaten Nias Barat";"SUMATERA UTARA";"22862";"Indonesia";" 082370874876";"";"";"1.0498175";"97.4906554";"https://maps.google.com/?cid=0x0:0xe3813b2a2e2967d2";""
"mall";"Pusat Perbelanjaan";"UD. VANNY";"2C29+2WX, Dusun III, Ononamolo III, Kec. Mandrehe Bar., Kabupaten Nias Barat, Sumatera Utara 22812";"Dusun III, Ononamolo III, Kec. Mandrehe Bar., Kabupaten Nias Barat";"SUMATERA UTARA";"22812";"Indonesia";"";"";"";"1.0001163";"97.4198548";"https://maps.google.com/?cid=0x0:0xafd8dd6b3b86a21b";""
"mall";"Pusat Perbelanjaan";"UD. Iman";"2FXQ+WX2, Fadoro, Kec. Mandrehe, Kabupaten Nias Barat, Sumatera Utara 22862";"Fadoro, Kec. Mandrehe, Kabupaten Nias Barat";"SUMATERA UTARA";"22862";"Indonesia";" 081370985334";"";"";"1.0497659";"97.489902";"https://maps.google.com/?cid=0x0:0xca610322b1e413c3";""
"mall";"Pusat Perbelanjaan";"UD.DEPA";"2FXR+P9J, Fadoro, Kec. Mandrehe, Kabupaten Nias Barat, Sumatera Utara 22862";"Fadoro, Kec. Mandrehe, Kabupaten Nias Barat";"SUMATERA UTARA";"22862";"Indonesia";"";"";"";"1.0495899";"97.4908948";"https://maps.google.com/?cid=0x0:0xae64fd2924b1efe9";""
"mall";"Pusat Perbelanjaan";"UD. Setia";"3F3C+24P, Tetehosi, Kec. Mandrehe, Kabupaten Nias Barat, Sumatera Utara";"Kabupaten Nias Barat, Sumatera Utara";"SUMATERA UTARA";"";"Indonesia";" 082299869902";"";"";"1.0525959";"97.4703266";"https://maps.google.com/?cid=0x0:0xa7869bcbd34f652f";""
"mall";"Pusat Perbelanjaan";"UD. Cemerlang";"2FXR+RGC, Fadoro, Kec. Mandrehe, Kabupaten Nias Barat, Sumatera Utara 22862";"Fadoro, Kec. Mandrehe, Kabupaten Nias Barat";"SUMATERA UTARA";"22862";"Indonesia";"";"";"";"1.049557";"97.4912757";"https://maps.google.com/?cid=0x0:0x20023c00eed1204b";""
"mall";"Pusat Perbelanjaan";"UD.Taro";"2C3F+477, Ononamolo lll, Kec. Mandrehe Bar., Kabupaten Nias Barat, Sumatera Utara";"Kabupaten Nias Barat, Sumatera Utara";"SUMATERA UTARA";"";"Indonesia";"";"";"";"1.0027805";"97.4231854";"https://maps.google.com/?cid=0x0:0x75b66253420424be";""
"mall";"Pusat Perbelanjaan";"UD.IMANUEL";"2F6V+625, Unnamed Road, Onolimbu, Kec. Lahomi, Kabupaten Nias Barat, Sumatera Utara 22862";"Unnamed Road, Onolimbu, Kec. Lahomi, Kabupaten Nias Barat";"SUMATERA UTARA";"22862";"Indonesia";" 081370937165";"";"";"1.0105019";"97.4926171";"https://maps.google.com/?cid=0x0:0xfc3d32fdfab36122";""
"mall";"mall";"UD. BENNY";"2CMH+VC2 UD. BENNY, Jl, Lasara Faga, Kec. Mandrehe Bar., Kabupaten Nias Barat, Sumatera Utara 22812";"Jl, Lasara Faga, Kec. Mandrehe Bar., Kabupaten Nias Barat";"SUMATERA UTARA";"22812";"Indonesia";"";"";"";"1.0346317";"97.4285116";"https://maps.google.com/?cid=0x0:0xe00479e27bec8c2e";""
"mall";"Pusat Perbelanjaan";"UD. SONORAMA";"3F3X+P3C, Fadoro, Kec. Mandrehe, Kabupaten Nias Barat, Sumatera Utara";"Kabupaten Nias Barat, Sumatera Utara";"SUMATERA UTARA";"";"Indonesia";"";"";"";"1.0543126";"97.4976536";"https://maps.google.com/?cid=0x0:0x6f779f7297fc5b92";""
"mall";"Pusat Perbelanjaan";"Ud Hepy";"2F6R+6W9, Unnamed Road, Onolimbu, Kec. Lahomi, Kabupaten Nias Barat, Sumatera Utara 22862";"Unnamed Road, Onolimbu, Kec. Lahomi, Kabupaten Nias Barat";"SUMATERA UTARA";"22862";"Indonesia";" 081265777779";"";"";"1.0105305";"97.4923482";"https://maps.google.com/?cid=0x0:0x6abd79dd16be1c54";""
"mall";"Pusat Perbelanjaan";"Pasar Loloanaa";"Loloana'a, Desa, Halifadolo, Kec. Moro'o, Kabupaten Nias Barat, Sumatera Utara 22862";"Desa, Halifadolo, Kec. Moro'o, Kabupaten Nias Barat";"SUMATERA UTARA";"22862";"Indonesia";"";"";"";"1.0603899";"97.4340667";"https://maps.google.com/?cid=0x0:0x9d68e27112add1";""
"mall";"Pasar";"Loloana'a, Moro'ö Nias Barat";"Halifadolo, Kec. Moro'o, Kabupaten Nias Barat, Sumatera Utara";"Kabupaten Nias Barat, Sumatera Utara";"SUMATERA UTARA";"";"Indonesia";"";"";"";"1.0628261";"97.4308039";"https://maps.google.com/?cid=0x0:0x466680e31bf1f6e3";""
"mall";"Komplek perumahan";"Rumah Putri Waruwu";"2FRR+JV8, Simaeasi, Kec. Mandrehe, Kabupaten Nias Barat, Sumatera Utara 22862";"Simaeasi, Kec. Mandrehe, Kabupaten Nias Barat";"SUMATERA UTARA";"22862";"Indonesia";"";"";"";"1.0415319";"97.4921903";"https://maps.google.com/?cid=0x0:0x56f89e8ac4983d7";""
"mall";"mall";"Sumatera Utara 22812";"Kabupaten Nias Barat, Sumatera Utara";"Kabupaten Nias Barat, Sumatera Utara";"SUMATERA UTARA";"";"Indonesia";"";"";"";"1.0164701";"97.4435441";"https://maps.google.com/?cid=0x0:0xd11190b65d8d63eb";""
"mall";"Pusat Perbelanjaan";"Pasar Mandrehe";"Fadoro, Kec. Mandrehe, Kabupaten Nias Barat, Sumatera Utara 22862";"Kec. Mandrehe, Kabupaten Nias Barat";"SUMATERA UTARA";"22862";"Indonesia";" 082370874876";"";"";"1.0498175";"97.4906554";"https://maps.google.com/?cid=0x0:0xe3813b2a2e2967d2";""
"mall";"Pusat Perbelanjaan";"UD. VANNY";"2C29+2WX, Dusun III, Ononamolo III, Kec. Mandrehe Bar., Kabupaten Nias Barat, Sumatera Utara 22812";"Dusun III, Ononamolo III, Kec. Mandrehe Bar., Kabupaten Nias Barat";"SUMATERA UTARA";"22812";"Indonesia";"";"";"";"1.0001163";"97.4198548";"https://maps.google.com/?cid=0x0:0xafd8dd6b3b86a21b";""
"mall";"Pusat Perbelanjaan";"Galeri Micha";"3G57+JH2, Fadoro, Kec. Mandrehe, Kabupaten Nias Barat, Sumatera Utara 22862";"Fadoro, Kec. Mandrehe, Kabupaten Nias Barat";"SUMATERA UTARA";"22862";"Indonesia";" 082273520801";"";"";"1.0590215";"97.5138947";"https://maps.google.com/?cid=0x0:0x828ac47400d0404b";""
"mall";"Pusat Perbelanjaan";"UD. Iman";"2FXQ+WX2, Fadoro, Kec. Mandrehe, Kabupaten Nias Barat, Sumatera Utara 22862";"Fadoro, Kec. Mandrehe, Kabupaten Nias Barat";"SUMATERA UTARA";"22862";"Indonesia";" 081370985334";"";"";"1.0497659";"97.489902";"https://maps.google.com/?cid=0x0:0xca610322b1e413c3";""
"mall";"Pusat Perbelanjaan";"Micha 2";"3F2R+947, Jl. Ir. Soekarno, Fadoro, Kec. Mandrehe, Kabupaten Nias Barat, Sumatera Utara 22862";"Jl. Ir. Soekarno, Fadoro, Kec. Mandrehe, Kabupaten Nias Barat";"SUMATERA UTARA";"22862";"Indonesia";"";"";"";"1.0522657";"97.4913189";"https://maps.google.com/?cid=0x0:0xb5abde78c10ff820";""
"mall";"Pusat Perbelanjaan";"UD.Taro";"2C3F+477, Ononamolo lll, Kec. Mandrehe Bar., Kabupaten Nias Barat, Sumatera Utara";"Kabupaten Nias Barat, Sumatera Utara";"SUMATERA UTARA";"";"Indonesia";"";"";"";"1.0027805";"97.4231854";"https://maps.google.com/?cid=0x0:0x75b66253420424be";""
"mall";"Pusat Perbelanjaan";"UD. Cemerlang";"2FXR+RGC, Fadoro, Kec. Mandrehe, Kabupaten Nias Barat, Sumatera Utara 22862";"Fadoro, Kec. Mandrehe, Kabupaten Nias Barat";"SUMATERA UTARA";"22862";"Indonesia";"";"";"";"1.049557";"97.4912757";"https://maps.google.com/?cid=0x0:0x20023c00eed1204b";""
"mall";"mall";"UD. BENNY";"2CMH+VC2 UD. BENNY, Jl, Lasara Faga, Kec. Mandrehe Bar., Kabupaten Nias Barat, Sumatera Utara 22812";"Jl, Lasara Faga, Kec. Mandrehe Bar., Kabupaten Nias Barat";"SUMATERA UTARA";"22812";"Indonesia";"";"";"";"1.0346317";"97.4285116";"https://maps.google.com/?cid=0x0:0xe00479e27bec8c2e";""
"mall";"Pusat Perbelanjaan";"UD. MELONA";"39CR+H79, II Dusun III, Iraono Gambo, Mandrehe, West Nias Regency, North Sumatra 22862";"II Dusun III, Iraono Gambo, Mandrehe, West Nias Regency";"SUMATERA UTARA";"22862";"Indonesia";"";"";"";"1.0714041";"97.3907265";"https://maps.google.com/?cid=0x0:0x54ab6b2016cf58b3";""
"mall";"Pusat Perbelanjaan";"UD.DEPA";"2FXR+P9J, Fadoro, Kec. Mandrehe, Kabupaten Nias Barat, Sumatera Utara 22862";"Fadoro, Kec. Mandrehe, Kabupaten Nias Barat";"SUMATERA UTARA";"22862";"Indonesia";"";"";"";"1.0495899";"97.4908948";"https://maps.google.com/?cid=0x0:0xae64fd2924b1efe9";""
"mall";"Pusat Perbelanjaan";"UD. Setia";"3F3C+24P, Tetehosi, Kec. Mandrehe, Kabupaten Nias Barat, Sumatera Utara";"Kabupaten Nias Barat, Sumatera Utara";"SUMATERA UTARA";"";"Indonesia";" 082299869902";"";"";"1.0525959";"97.4703266";"https://maps.google.com/?cid=0x0:0xa7869bcbd34f652f";""
"mall";"Toko";"UD. Berkat";"3G3G+MFR, Lolozirugi, Kec. Mandrehe, Kabupaten Nias Barat, Sumatera Utara 22862";"Lolozirugi, Kec. Mandrehe, Kabupaten Nias Barat";"SUMATERA UTARA";"22862";"Indonesia";"";"";"";"1.0537443";"97.526423";"https://maps.google.com/?cid=0x0:0xc9f2ada1fc4a5d95";""
"mall";"Toko";"UD. MANDIRI";"3G3X+J36, Lologulo, Kec. Mandrehe, Kabupaten Nias Barat, Sumatera Utara 22862";"Lologulo, Kec. Mandrehe, Kabupaten Nias Barat";"SUMATERA UTARA";"22862";"Indonesia";" 081262130008";"";"";"1.0540265";"97.5476276";"https://maps.google.com/?cid=0x0:0x57472c56e72ce063";""
"mall";"Toko";"UD. Berkah Jaya";"7JW5+V58, Jl. Yos Sudarso Ujung, Iraonogeba, Kec. Gunungsitoli, Kota Gunungsitoli, Sumatera Utara 22811";"Jl. Yos Sudarso Ujung, Iraonogeba, Kec. Gunungsitoli, Kota Gunungsitoli";"SUMATERA UTARA";"22811";"Indonesia";" 081361460766";"";"";"1.2971737";"97.6079579";"https://maps.google.com/?cid=0x0:0xea58fdb86b8f520f";""
"mall";"Pusat Perbelanjaan";"UD. Mardin";"3G4F+PGW, Lolozirugi, Kec. Mandrehe, Kabupaten Nias Barat, Sumatera Utara 22862";"Lolozirugi, Kec. Mandrehe, Kabupaten Nias Barat";"SUMATERA UTARA";"22862";"Indonesia";"";"";"";"1.0568739";"97.5238424";"https://maps.google.com/?cid=0x0:0x9a2ed662a9c6d225";""
"mall";"Pusat Perbelanjaan";"UD. THEODORUS";"3G3G+W8V, Lolozirugi, Kec. Mandrehe, Kabupaten Nias Barat, Sumatera Utara";"Kabupaten Nias Barat, Sumatera Utara";"SUMATERA UTARA";"";"Indonesia";"";"";"";"1.0548596";"97.525782";"https://maps.google.com/?cid=0x0:0xff9c3b522a4fdcd6";""
"mall";"Pusat Perbelanjaan";"UD.IMANUEL";"2F6V+625, Unnamed Road, Onolimbu, Kec. Lahomi, Kabupaten Nias Barat, Sumatera Utara 22862";"Unnamed Road, Onolimbu, Kec. Lahomi, Kabupaten Nias Barat";"SUMATERA UTARA";"22862";"Indonesia";" 081370937165";"";"";"1.0105019";"97.4926171";"https://maps.google.com/?cid=0x0:0xfc3d32fdfab36122";""
"mall";"Pusat Perbelanjaan";"UD. SONORAMA";"3F3X+P3C, Fadoro, Kec. Mandrehe, Kabupaten Nias Barat, Sumatera Utara";"Kabupaten Nias Barat, Sumatera Utara";"SUMATERA UTARA";"";"Indonesia";"";"";"";"1.0543126";"97.4976536";"https://maps.google.com/?cid=0x0:0x6f779f7297fc5b92";""
"mall";"Pusat Perbelanjaan";"Warung UD.VINCE";"7H7X+XG4, Fadoro Lasara, Kec. Gunungsitoli, Kota Gunungsitoli, Sumatera Utara 22812";"Fadoro Lasara, Kec. Gunungsitoli, Kota Gunungsitoli";"SUMATERA UTARA";"22812";"Indonesia";"";"";"";"1.2648809";"97.5988263";"https://maps.google.com/?cid=0x0:0xd65a2eead3d0d4f8";""
"mall";"mall";"Kec. Mandrehe Bar.";"Kabupaten Nias Barat, Sumatera Utara";"Kabupaten Nias Barat, Sumatera Utara";"SUMATERA UTARA";"";"Indonesia";"";"";"";"0.998808";"97.4182241";"https://maps.google.com/?cid=0x0:0x7de90688f484314d";""
"mall";"Pusat Perbelanjaan";"Ud Hepy";"2F6R+6W9, Unnamed Road, Onolimbu, Kec. Lahomi, Kabupaten Nias Barat, Sumatera Utara 22862";"Unnamed Road, Onolimbu, Kec. Lahomi, Kabupaten Nias Barat";"SUMATERA UTARA";"22862";"Indonesia";" 081265777779";"";"";"1.0105305";"97.4923482";"https://maps.google.com/?cid=0x0:0x6abd79dd16be1c54";""
"mall";"Pusat Perbelanjaan";"Pasar Loloanaa";"Loloana'a, Desa, Halifadolo, Kec. Moro'o, Kabupaten Nias Barat, Sumatera Utara 22862";"Desa, Halifadolo, Kec. Moro'o, Kabupaten Nias Barat";"SUMATERA UTARA";"22862";"Indonesia";"";"";"";"1.0603899";"97.4340667";"https://maps.google.com/?cid=0x0:0x9d68e27112add1";""
"mall";"Pasar";"Loloana'a, Moro'ö Nias Barat";"Halifadolo, Kec. Moro'o, Kabupaten Nias Barat, Sumatera Utara";"Kabupaten Nias Barat, Sumatera Utara";"SUMATERA UTARA";"";"Indonesia";"";"";"";"1.0628261";"97.4308039";"https://maps.google.com/?cid=0x0:0x466680e31bf1f6e3";""
"mall";"Komplek perumahan";"Rumah Putri Waruwu";"2FRR+JV8, Simaeasi, Kec. Mandrehe, Kabupaten Nias Barat, Sumatera Utara 22862";"Simaeasi, Kec. Mandrehe, Kabupaten Nias Barat";"SUMATERA UTARA";"22862";"Indonesia";"";"";"";"1.0415319";"97.4921903";"https://maps.google.com/?cid=0x0:0x56f89e8ac4983d7";""
"mall";"Toko";"UD .Ivan";"Alamat Hilifadolo, Kecamatan Moro'o Kabupaten Nias Barat, Desa Lasarabahili Dusun III No.01, Hilisoromi, Kec. Moro'o, Kabupaten Nias Barat, Sumatera Utara 22862";"Kecamatan Moro'o Kabupaten Nias Barat, Desa Lasarabahili Dusun III No.01, Hilisoromi, Kec. Moro'o, Kabupaten Nias Barat";"SUMATERA UTARA";"22862";"Indonesia";" 081377462223";"";"";"1.07599";"97.4353942";"https://maps.google.com/?cid=0x0:0x5984df575bde4cc2";""
"mall";"mall";"Sumatera Utara 22814";"Saombo, Kec. Gunungsitoli, Kota Gunungsitoli, Sumatera Utara";"Kota Gunungsitoli, Sumatera Utara";"SUMATERA UTARA";"";"Indonesia";"";"";"";"1.2897758";"97.6188016";"https://maps.google.com/?cid=0x0:0x72677cb0cc3dbd55";""
"mall";"Pusat Perbelanjaan";"Pasar Mandrehe";"Fadoro, Kec. Mandrehe, Kabupaten Nias Barat, Sumatera Utara 22862";"Kec. Mandrehe, Kabupaten Nias Barat";"SUMATERA UTARA";"22862";"Indonesia";" 082370874876";"";"";"1.0498175";"97.4906554";"https://maps.google.com/?cid=0x0:0xe3813b2a2e2967d2";""
"mall";"Pusat Perbelanjaan";"UD Micha";"2FXR+R2P, pasar, Kec. Mandrehe, Kabupaten Nias Barat, Sumatera Utara 22862";"pasar, Kec. Mandrehe, Kabupaten Nias Barat";"SUMATERA UTARA";"22862";"Indonesia";" 082273520801";"";"";"1.0495936";"97.4900915";"https://maps.google.com/?cid=0x0:0x6df5b01076fea49d";""
"mall";"Pusat Perbelanjaan";"Pames Mend";"Law-lawa, Jl. Nias Tengah, Lolowua, Kec. HiliSerangkai, Kabupaten Nias, Sumatera Utara 22851";"Jl. Nias Tengah, Lolowua, Kec. HiliSerangkai, Kabupaten Nias";"SUMATERA UTARA";"22851";"Indonesia";" 085275290088";"";"";"1.1811384";"97.582569";"https://maps.google.com/?cid=0x0:0x44f205d447b92368";""
"mall";"Pusat Perbelanjaan";"Ud.Rospita";"7JQ9+593, Saombo, Kec. Gunungsitoli, Kota Gunungsitoli, Sumatera Utara 22814";"Saombo, Kec. Gunungsitoli, Kota Gunungsitoli";"SUMATERA UTARA";"22814";"Indonesia";" 081260591158";"";"";"1.2878808";"97.6184244";"https://maps.google.com/?cid=0x0:0xaaa73f8bcce47171";""
"mall";"Toko Tas";"Toko Mata Air Grosir Eceran Tas";"7JQ9+WR4 pasar ya'ahowu, Jl. Lagundri blok c nias, Saombo, Kec. Gunungsitoli, Kota Gunungsitoli, Sumatera Utara 22814";"Jl. Lagundri blok c nias, Saombo, Kec. Gunungsitoli, Kota Gunungsitoli";"SUMATERA UTARA";"22814";"Indonesia";" 085270109589";"";"";"1.2897637";"97.6195852";"https://maps.google.com/?cid=0x0:0x8adea43a1d3962e5";""
"mall";"Pusat Perbelanjaan";"Micha 2";"3F2R+947, Jl. Ir. Soekarno, Fadoro, Kec. Mandrehe, Kabupaten Nias Barat, Sumatera Utara 22862";"Jl. Ir. Soekarno, Fadoro, Kec. Mandrehe, Kabupaten Nias Barat";"SUMATERA UTARA";"22862";"Indonesia";"";"";"";"1.0522657";"97.4913189";"https://maps.google.com/?cid=0x0:0xb5abde78c10ff820";""
"mall";"mall";"Kec. Mandrehe";"Kabupaten Nias Barat, Sumatera Utara";"Kabupaten Nias Barat, Sumatera Utara";"SUMATERA UTARA";"";"Indonesia";"";"";"";"1.0502205";"97.490564";"https://maps.google.com/?cid=0x0:0x5575236955039e3e";""
"mall";"Toko";"Mom's 3G Santan  Bumbu";"Jl. Lagundri No.61, Saombo, Kec. Gunungsitoli, Kota Gunungsitoli, Sumatera Utara";"Kota Gunungsitoli, Sumatera Utara";"SUMATERA UTARA";"";"Indonesia";" 081365653535";"";"";"1.2896155";"97.6201837";"https://maps.google.com/?cid=0x0:0x2e352d1efca8959a";""
"mall";"Toko Swalayan";"4LL_VAPOR";"7JQ9+VX4, Jl. Lagundri, Saombo, Kec. Gunungsitoli, Kota Gunungsitoli, Sumatera Utara";"Kota Gunungsitoli, Sumatera Utara";"SUMATERA UTARA";"";"Indonesia";" 085358648412";"";"";"1.2896253";"97.6199646";"https://maps.google.com/?cid=0x0:0x1759b5b2362ec436";""
"mall";"";"Toko Kaca Amri Ali";"7JQC+35P, Jl. Gomo, Ps. Gn. Sitoli, Kec. Gunungsitoli, Kota Gunungsitoli, Sumatera Utara";"Kota Gunungsitoli, Sumatera Utara";"SUMATERA UTARA";"";"Indonesia";" 081263071179";"";"";"1.2877028";"97.6204513";"https://maps.google.com/?cid=0x0:0x821825f7deb35045";""
"mall";"mall";"Kec. Mandrehe Utara";"Kabupaten Nias Barat, Sumatera Utara";"Kabupaten Nias Barat, Sumatera Utara";"SUMATERA UTARA";"";"Indonesia";"";"";"";"1.1278924";"97.535927";"https://maps.google.com/?cid=0x0:0xaa4f2aa38746626";""
"mall";"Pusat Perbelanjaan";"TOKO CAN - CAN AKSESORIS";"Jl. Karet No.No, Kampung Baru, Kec. Gunungsitoli, Kota Gunungsitoli, Sumatera Utara";"Kota Gunungsitoli, Sumatera Utara";"SUMATERA UTARA";"";"Indonesia";"";"";"";"1.2874122";"97.6213175";"https://maps.google.com/?cid=0x0:0xfe7cc8d96fa37f61";""
"mall";"Toko";"UD. MISKA";"Jl. Sudirman No.07, Ps. Gn. Sitoli, Kec. Gunungsitoli, Kota Gunungsitoli, Sumatera Utara";"Kota Gunungsitoli, Sumatera Utara";"SUMATERA UTARA";"";"Indonesia";" 085262321754";"";"";"1.2878005";"97.6191852";"https://maps.google.com/?cid=0x0:0xbea556e00eea384b";""
"mall";"Pusat Perbelanjaan";"Toko EMPAT SAUDARA";"7JQ9+J95, Jl. Gomo, Saombo, Kec. Gunungsitoli, Kota Gunungsitoli, Sumatera Utara";"Kota Gunungsitoli, Sumatera Utara";"SUMATERA UTARA";"";"Indonesia";" 085371073905";"";"";"1.2890063";"97.6184951";"https://maps.google.com/?cid=0x0:0x98eea827e3b2ea4a";""
"mall";"Toko Pakaian";"Ud Rimbun Grosir  Eceran";"Jl. Sirao No.167, Saombo, Kec. Gunungsitoli, Kota Gunungsitoli, Sumatera Utara";"Kota Gunungsitoli, Sumatera Utara";"SUMATERA UTARA";"";"Indonesia";" 082162027042";"";"";"1.2887856";"97.6193967";"https://maps.google.com/?cid=0x0:0x39985d478b6260bc";""
"mall";"mall";"Toko Misyka Foot Cloth Distributor";"Jl. Sirao No.93 135 pasar, Saombo, Gunungsitoli, Gunungsitoli City, North Sumatra 22814";"Saombo, Gunungsitoli, Gunungsitoli City";"SUMATERA UTARA";"22814";"Indonesia";"";"";"";"1.2901111";"97.6179167";"https://maps.google.com/?cid=0x0:0x36984424a46a7798";""
"mall";"mall";"Store juang";"Jl, Hilimbowo Kare, Kec. Alasa Talumuzoi, Kabupaten Nias Utara, Sumatera Utara 22814";"Hilimbowo Kare, Kec. Alasa Talumuzoi, Kabupaten Nias Utara";"SUMATERA UTARA";"22814";"Indonesia";" 085371162546";"";"";"1.2896926";"97.6187708";"https://maps.google.com/?cid=0x0:0x12a44482c78adb19";""
"mall";"Pusat Perbelanjaan";"UD.DEPA";"2FXR+P9J, Fadoro, Kec. Mandrehe, Kabupaten Nias Barat, Sumatera Utara 22862";"Fadoro, Kec. Mandrehe, Kabupaten Nias Barat";"SUMATERA UTARA";"22862";"Indonesia";"";"";"";"1.0495899";"97.4908948";"https://maps.google.com/?cid=0x0:0xae64fd2924b1efe9";""
"mall";"Pusat Perbelanjaan";"Galeri Micha";"3G57+JH2, Fadoro, Kec. Mandrehe, Kabupaten Nias Barat, Sumatera Utara 22862";"Fadoro, Kec. Mandrehe, Kabupaten Nias Barat";"SUMATERA UTARA";"22862";"Indonesia";" 082273520801";"";"";"1.0590215";"97.5138947";"https://maps.google.com/?cid=0x0:0x828ac47400d0404b";""
"mall";"Pusat Perbelanjaan";"UD. Iman";"2FXQ+WX2, Fadoro, Kec. Mandrehe, Kabupaten Nias Barat, Sumatera Utara 22862";"Fadoro, Kec. Mandrehe, Kabupaten Nias Barat";"SUMATERA UTARA";"22862";"Indonesia";" 081370985334";"";"";"1.0497659";"97.489902";"https://maps.google.com/?cid=0x0:0xca610322b1e413c3";""
"mall";"Pusat Perbelanjaan";"UD. Cemerlang";"2FXR+RGC, Fadoro, Kec. Mandrehe, Kabupaten Nias Barat, Sumatera Utara 22862";"Fadoro, Kec. Mandrehe, Kabupaten Nias Barat";"SUMATERA UTARA";"22862";"Indonesia";"";"";"";"1.049557";"97.4912757";"https://maps.google.com/?cid=0x0:0x20023c00eed1204b";""
"mall";"Pusat Perbelanjaan";"UD. VANNY";"2C29+2WX, Dusun III, Ononamolo III, Kec. Mandrehe Bar., Kabupaten Nias Barat, Sumatera Utara 22812";"Dusun III, Ononamolo III, Kec. Mandrehe Bar., Kabupaten Nias Barat";"SUMATERA UTARA";"22812";"Indonesia";"";"";"";"1.0001163";"97.4198548";"https://maps.google.com/?cid=0x0:0xafd8dd6b3b86a21b";""
"mall";"Pusat Perbelanjaan";"UD. Setia";"3F3C+24P, Tetehosi, Kec. Mandrehe, Kabupaten Nias Barat, Sumatera Utara";"Kabupaten Nias Barat, Sumatera Utara";"SUMATERA UTARA";"";"Indonesia";" 082299869902";"";"";"1.0525959";"97.4703266";"https://maps.google.com/?cid=0x0:0xa7869bcbd34f652f";""
"mall";"Toko";"UD. Berkat";"3G3G+MFR, Lolozirugi, Kec. Mandrehe, Kabupaten Nias Barat, Sumatera Utara 22862";"Lolozirugi, Kec. Mandrehe, Kabupaten Nias Barat";"SUMATERA UTARA";"22862";"Indonesia";"";"";"";"1.0537443";"97.526423";"https://maps.google.com/?cid=0x0:0xc9f2ada1fc4a5d95";""
"mall";"Pusat Perbelanjaan";"UD. THEODORUS";"3G3G+W8V, Lolozirugi, Kec. Mandrehe, Kabupaten Nias Barat, Sumatera Utara";"Kabupaten Nias Barat, Sumatera Utara";"SUMATERA UTARA";"";"Indonesia";"";"";"";"1.0548596";"97.525782";"https://maps.google.com/?cid=0x0:0xff9c3b522a4fdcd6";""
"mall";"Toko";"UD. MANDIRI";"3G3X+J36, Lologulo, Kec. Mandrehe, Kabupaten Nias Barat, Sumatera Utara 22862";"Lologulo, Kec. Mandrehe, Kabupaten Nias Barat";"SUMATERA UTARA";"22862";"Indonesia";" 081262130008";"";"";"1.0540265";"97.5476276";"https://maps.google.com/?cid=0x0:0x57472c56e72ce063";""
"mall";"Pusat Perbelanjaan";"UD.IMANUEL";"2F6V+625, Unnamed Road, Onolimbu, Kec. Lahomi, Kabupaten Nias Barat, Sumatera Utara 22862";"Unnamed Road, Onolimbu, Kec. Lahomi, Kabupaten Nias Barat";"SUMATERA UTARA";"22862";"Indonesia";" 081370937165";"";"";"1.0105019";"97.4926171";"https://maps.google.com/?cid=0x0:0xfc3d32fdfab36122";""
"mall";"Pusat Perbelanjaan";"UD. Mardin";"3G4F+PGW, Lolozirugi, Kec. Mandrehe, Kabupaten Nias Barat, Sumatera Utara 22862";"Lolozirugi, Kec. Mandrehe, Kabupaten Nias Barat";"SUMATERA UTARA";"22862";"Indonesia";"";"";"";"1.0568739";"97.5238424";"https://maps.google.com/?cid=0x0:0x9a2ed662a9c6d225";""
"mall";"mall";"Sumatera Utara 22862";"Kabupaten Nias Barat, Sumatera Utara";"Kabupaten Nias Barat, Sumatera Utara";"SUMATERA UTARA";"";"Indonesia";"";"";"";"1.0305654";"97.5030669";"https://maps.google.com/?cid=0x0:0x343297d388925be1";""
"mall";"Toko";"UD .Ivan";"Alamat Hilifadolo, Kecamatan Moro'o Kabupaten Nias Barat, Desa Lasarabahili Dusun III No.01, Hilisoromi, Kec. Moro'o, Kabupaten Nias Barat, Sumatera Utara 22862";"Kecamatan Moro'o Kabupaten Nias Barat, Desa Lasarabahili Dusun III No.01, Hilisoromi, Kec. Moro'o, Kabupaten Nias Barat";"SUMATERA UTARA";"22862";"Indonesia";" 081377462223";"";"";"1.07599";"97.4353942";"https://maps.google.com/?cid=0x0:0x5984df575bde4cc2";""
"mall";"Pusat Perbelanjaan";"Pasar Loloanaa";"Loloana'a, Desa, Halifadolo, Kec. Moro'o, Kabupaten Nias Barat, Sumatera Utara 22862";"Desa, Halifadolo, Kec. Moro'o, Kabupaten Nias Barat";"SUMATERA UTARA";"22862";"Indonesia";"";"";"";"1.0603899";"97.4340667";"https://maps.google.com/?cid=0x0:0x9d68e27112add1";""
"mall";"Pasar";"Loloana'a, Moro'ö Nias Barat";"Halifadolo, Kec. Moro'o, Kabupaten Nias Barat, Sumatera Utara";"Kabupaten Nias Barat, Sumatera Utara";"SUMATERA UTARA";"";"Indonesia";"";"";"";"1.0628261";"97.4308039";"https://maps.google.com/?cid=0x0:0x466680e31bf1f6e3";""
"mall";"Toko Swalayan";"DeliPark Mall";"Jl. Putri Hijau Dalam No.1 Blok OPQ, Kesawan, Kec. Medan Bar., Kota Medan, Sumatera Utara 20111";"Kesawan, Kec. Medan Bar., Kota Medan";"SUMATERA UTARA";"20111";"Indonesia";" 06188812888";"";"";"3.5945606";"98.6744074";"https://maps.google.com/?cid=0x0:0xc035ba4fa455d423";""
"mall";"Toko Fotokopi";"Fotocopy UD. Yuman";"3G68+H4P, Jl. Lakhene, Lolozirugi, Kec. Mandrehe, Kabupaten Nias Barat, Sumatera Utara 22862";"Jl. Lakhene, Lolozirugi, Kec. Mandrehe, Kabupaten Nias Barat";"SUMATERA UTARA";"22862";"Indonesia";" 082166152076";"";"";"1.0614674";"97.5153364";"https://maps.google.com/?cid=0x0:0x298b9b667e80c500";""
"mall";"Pusat Perbelanjaan";"UD. Cemerlang";"2FXR+RGC, Fadoro, Kec. Mandrehe, Kabupaten Nias Barat, Sumatera Utara 22862";"Fadoro, Kec. Mandrehe, Kabupaten Nias Barat";"SUMATERA UTARA";"22862";"Indonesia";"";"";"";"1.049557";"97.4912757";"https://maps.google.com/?cid=0x0:0x20023c00eed1204b";""
"mall";"Bioskop";"Ring Road City Walks Mall";"Jl. Ring Road No.28, Tj. Rejo, Kec. Medan Sunggal, Kota Medan, Sumatera Utara 20122";"Tj. Rejo, Kec. Medan Sunggal, Kota Medan";"SUMATERA UTARA";"20122";"Indonesia";" 0618449395";"";"";"3.5758749";"98.6255185";"https://maps.google.com/?cid=0x0:0xf9064ef56353c81";""
"mall";"Pusat Perbelanjaan";"Lippo Plaza Medan";"Jl. Imam Bonjol No.6, Suka Damai, Kec. Medan Polonia, Kota Medan, Sumatera Utara 20112";"Suka Damai, Kec. Medan Polonia, Kota Medan";"SUMATERA UTARA";"20112";"Indonesia";" 06180511111";"";"";"3.5864512";"98.6733531";"https://maps.google.com/?cid=0x0:0xb3196f95b6d5cdd4";""
"mall";"Pusat Perbelanjaan";"UD. Mardin";"3G4F+PGW, Lolozirugi, Kec. Mandrehe, Kabupaten Nias Barat, Sumatera Utara 22862";"Lolozirugi, Kec. Mandrehe, Kabupaten Nias Barat";"SUMATERA UTARA";"22862";"Indonesia";"";"";"";"1.0568739";"97.5238424";"https://maps.google.com/?cid=0x0:0x9a2ed662a9c6d225";""
"mall";"Pusat Perbelanjaan";"UD. MELONA";"39CR+H79, II Dusun III, Iraono Gambo, Mandrehe, West Nias Regency, North Sumatra 22862";"II Dusun III, Iraono Gambo, Mandrehe, West Nias Regency";"SUMATERA UTARA";"22862";"Indonesia";"";"";"";"1.0714041";"97.3907265";"https://maps.google.com/?cid=0x0:0x54ab6b2016cf58b3";""
"mall";"Toko";"UD. Zainal";"Depan Pasar Pekan, Lawelu, Kec. Ulu Moro'o, Kabupaten Nias Barat, Sumatera Utara 22862";"Lawelu, Kec. Ulu Moro'o, Kabupaten Nias Barat";"SUMATERA UTARA";"22862";"Indonesia";" 085370948288";"";"";"1.012439";"97.5349202";"https://maps.google.com/?cid=0x0:0xe7cc2d57c74e9013";""
"mall";"Pusat Perbelanjaan";"UD Micha";"2FXR+R2P, pasar, Kec. Mandrehe, Kabupaten Nias Barat, Sumatera Utara 22862";"pasar, Kec. Mandrehe, Kabupaten Nias Barat";"SUMATERA UTARA";"22862";"Indonesia";" 082273520801";"";"";"1.0495936";"97.4900915";"https://maps.google.com/?cid=0x0:0x6df5b01076fea49d";""
"mall";"Pusat Perbelanjaan";"Galeri Micha";"3G57+JH2, Fadoro, Kec. Mandrehe, Kabupaten Nias Barat, Sumatera Utara 22862";"Fadoro, Kec. Mandrehe, Kabupaten Nias Barat";"SUMATERA UTARA";"22862";"Indonesia";" 082273520801";"";"";"1.0590215";"97.5138947";"https://maps.google.com/?cid=0x0:0x828ac47400d0404b";""
"mall";"Pusat Perbelanjaan";"Pasar Mandrehe";"Fadoro, Kec. Mandrehe, Kabupaten Nias Barat, Sumatera Utara 22862";"Kec. Mandrehe, Kabupaten Nias Barat";"SUMATERA UTARA";"22862";"Indonesia";" 082370874876";"";"";"1.0498175";"97.4906554";"https://maps.google.com/?cid=0x0:0xe3813b2a2e2967d2";""
"mall";"Pusat Perbelanjaan";"Micha 2";"3F2R+947, Jl. Ir. Soekarno, Fadoro, Kec. Mandrehe, Kabupaten Nias Barat, Sumatera Utara 22862";"Jl. Ir. Soekarno, Fadoro, Kec. Mandrehe, Kabupaten Nias Barat";"SUMATERA UTARA";"22862";"Indonesia";"";"";"";"1.0522657";"97.4913189";"https://maps.google.com/?cid=0x0:0xb5abde78c10ff820";""
"mall";"Pasar tradisional";"Harimbale Duria";"2JJ4+GR4, Jl. Lōlōwa'u, Ehosakhozi, Lolowau, Kabupaten Nias Selatan, Sumatera Utara 22852";"Jl. Lōlōwa'u, Ehosakhozi, Lolowau, Kabupaten Nias Selatan";"SUMATERA UTARA";"22852";"Indonesia";" 083879305604";"";"";"1.0312725";"97.6070851";"https://maps.google.com/?cid=0x0:0x6a6b9f47203b7d0e";""
"mall";"Toko";"UD. Berkat";"3G3G+MFR, Lolozirugi, Kec. Mandrehe, Kabupaten Nias Barat, Sumatera Utara 22862";"Lolozirugi, Kec. Mandrehe, Kabupaten Nias Barat";"SUMATERA UTARA";"22862";"Indonesia";"";"";"";"1.0537443";"97.526423";"https://maps.google.com/?cid=0x0:0xc9f2ada1fc4a5d95";""
"mall";"Pusat Perbelanjaan";"UD. Setia";"3F3C+24P, Tetehosi, Kec. Mandrehe, Kabupaten Nias Barat, Sumatera Utara";"Kabupaten Nias Barat, Sumatera Utara";"SUMATERA UTARA";"";"Indonesia";" 082299869902";"";"";"1.0525959";"97.4703266";"https://maps.google.com/?cid=0x0:0xa7869bcbd34f652f";""
"mall";"Pusat Perbelanjaan";"UD.IMANUEL";"2F6V+625, Unnamed Road, Onolimbu, Kec. Lahomi, Kabupaten Nias Barat, Sumatera Utara 22862";"Unnamed Road, Onolimbu, Kec. Lahomi, Kabupaten Nias Barat";"SUMATERA UTARA";"22862";"Indonesia";" 081370937165";"";"";"1.0105019";"97.4926171";"https://maps.google.com/?cid=0x0:0xfc3d32fdfab36122";""
"mall";"Pusat Perbelanjaan";"Medan Mall";"Jl. M. T. Haryono No.8, Pusat Ps., Kec. Medan Kota, Kota Medan, Sumatera Utara 20212";"Pusat Ps., Kec. Medan Kota, Kota Medan";"SUMATERA UTARA";"20212";"Indonesia";" 0614531800";"";"";"3.58767";"98.6867939";"https://maps.google.com/?cid=0x0:0x19be424c62eb0f57";""
"mall";"Pusat Perbelanjaan";"UD.DEPA";"2FXR+P9J, Fadoro, Kec. Mandrehe, Kabupaten Nias Barat, Sumatera Utara 22862";"Fadoro, Kec. Mandrehe, Kabupaten Nias Barat";"SUMATERA UTARA";"22862";"Indonesia";"";"";"";"1.0495899";"97.4908948";"https://maps.google.com/?cid=0x0:0xae64fd2924b1efe9";""
"mall";"Pusat Perbelanjaan";"SUN PLAZA";"Jl. KH. Zainul Arifin No.7, Madras Hulu, Kec. Medan Polonia, Kota Medan, Sumatera Utara 20152";"Madras Hulu, Kec. Medan Polonia, Kota Medan";"SUMATERA UTARA";"20152";"Indonesia";" 0614501000";"";"";"3.5833872";"98.6715272";"https://maps.google.com/?cid=0x0:0xf4a6500e549d1a82";""
"mall";"Komplek perumahan";"Rumah Putri Waruwu";"2FRR+JV8, Simaeasi, Kec. Mandrehe, Kabupaten Nias Barat, Sumatera Utara 22862";"Simaeasi, Kec. Mandrehe, Kabupaten Nias Barat";"SUMATERA UTARA";"22862";"Indonesia";"";"";"";"1.0415319";"97.4921903";"https://maps.google.com/?cid=0x0:0x56f89e8ac4983d7";""
"mall";"mall";"Sirombu";"Sirombu, Kec. Sirombu, Kabupaten Nias Barat, Sumatera Utara";"Kabupaten Nias Barat, Sumatera Utara";"SUMATERA UTARA";"";"Indonesia";"";"";"";"0.952816";"97.418171";"https://maps.google.com/?cid=0x0:0x4039d80b2210500";""
"mall";"Otoritas Pelabuhan";"Pelabuhan Sirombu";"WCR6+RVM, Pantai, Kec. Sirombu, Kabupaten Nias Barat, Sumatera Utara 22863";"Pantai, Kec. Sirombu, Kabupaten Nias Barat";"SUMATERA UTARA";"22863";"Indonesia";" 085255497278";"";"";"0.9420754";"97.4121736";"https://maps.google.com/?cid=0x0:0x47b3fa455114ebe";""
"mall";"mall";"Gawuna'a";"XC39+47F, Sirombu, Kec. Sirombu, Kabupaten Nias Barat, Sumatera Utara";"Kabupaten Nias Barat, Sumatera Utara";"SUMATERA UTARA";"";"Indonesia";"";"";"";"0.952816";"97.418171";"https://maps.google.com/?cid=0x0:0x4384ed244c3a999a";""
"mall";"mall";"Kec. Ulu Moro'o";"Kabupaten Nias Barat, Sumatera Utara";"Kabupaten Nias Barat, Sumatera Utara";"SUMATERA UTARA";"";"Indonesia";"";"";"";"1.0144644";"97.5333185";"https://maps.google.com/?cid=0x0:0xcabc6a3673d44b2d";""
"mall";"Toko";"UD. Zainal";"Depan Pasar Pekan, Lawelu, Kec. Ulu Moro'o, Kabupaten Nias Barat, Sumatera Utara 22862";"Lawelu, Kec. Ulu Moro'o, Kabupaten Nias Barat";"SUMATERA UTARA";"22862";"Indonesia";" 085370948288";"";"";"1.012439";"97.5349202";"https://maps.google.com/?cid=0x0:0xe7cc2d57c74e9013";""
"mall";"Pasar tradisional";"Harimbale Duria";"2JJ4+GR4, Jl. Lōlōwa'u, Ehosakhozi, Lolowau, Kabupaten Nias Selatan, Sumatera Utara 22852";"Jl. Lōlōwa'u, Ehosakhozi, Lolowau, Kabupaten Nias Selatan";"SUMATERA UTARA";"22852";"Indonesia";" 083879305604";"";"";"1.0312725";"97.6070851";"https://maps.google.com/?cid=0x0:0x6a6b9f47203b7d0e";""
"mall";"Toko";"UD. MANDIRI";"3G3X+J36, Lologulo, Kec. Mandrehe, Kabupaten Nias Barat, Sumatera Utara 22862";"Lologulo, Kec. Mandrehe, Kabupaten Nias Barat";"SUMATERA UTARA";"22862";"Indonesia";" 081262130008";"";"";"1.0540265";"97.5476276";"https://maps.google.com/?cid=0x0:0x57472c56e72ce063";""
"mall";"Pusat Perbelanjaan";"UD. USAHA BARU";"2JM4+9HV, Sisobawino II, Kec. Lolofitu Moi, Kabupaten Nias Barat, Sumatera Utara 22852";"Sisobawino II, Kec. Lolofitu Moi, Kabupaten Nias Barat";"SUMATERA UTARA";"22852";"Indonesia";"";"";"";"1.0334893";"97.6064207";"https://maps.google.com/?cid=0x0:0xa807eddac4dc4b38";""
"mall";"mall";"Pasar Rakyat Lawelu";"2G7M+P8P, Unnamed Road, Lawelu, Kec. Ulu Moro'o, Kabupaten Nias Barat, Sumatera Utara 22862";"Unnamed Road, Lawelu, Kec. Ulu Moro'o, Kabupaten Nias Barat";"SUMATERA UTARA";"22862";"Indonesia";"";"";"";"1.0143383";"97.5333163";"https://maps.google.com/?cid=0x0:0x21d188d3aa458e4a";""
"mall";"Pusat Perbelanjaan";"UD. THEODORUS";"3G3G+W8V, Lolozirugi, Kec. Mandrehe, Kabupaten Nias Barat, Sumatera Utara";"Kabupaten Nias Barat, Sumatera Utara";"SUMATERA UTARA";"";"Indonesia";"";"";"";"1.0548596";"97.525782";"https://maps.google.com/?cid=0x0:0xff9c3b522a4fdcd6";""
"mall";"Pusat Perbelanjaan";"UD. Mardin";"3G4F+PGW, Lolozirugi, Kec. Mandrehe, Kabupaten Nias Barat, Sumatera Utara 22862";"Lolozirugi, Kec. Mandrehe, Kabupaten Nias Barat";"SUMATERA UTARA";"22862";"Indonesia";"";"";"";"1.0568739";"97.5238424";"https://maps.google.com/?cid=0x0:0x9a2ed662a9c6d225";""
"mall";"Toko";"UD. Berkat";"3G3G+MFR, Lolozirugi, Kec. Mandrehe, Kabupaten Nias Barat, Sumatera Utara 22862";"Lolozirugi, Kec. Mandrehe, Kabupaten Nias Barat";"SUMATERA UTARA";"22862";"Indonesia";"";"";"";"1.0537443";"97.526423";"https://maps.google.com/?cid=0x0:0xc9f2ada1fc4a5d95";""
"mall";"Pasar";"Loloana'a, Moro'ö Nias Barat";"Halifadolo, Kec. Moro'o, Kabupaten Nias Barat, Sumatera Utara";"Kabupaten Nias Barat, Sumatera Utara";"SUMATERA UTARA";"";"Indonesia";"";"";"";"1.0628261";"97.4308039";"https://maps.google.com/?cid=0x0:0x466680e31bf1f6e3";""
"mall";"Toko Bahan Bangunan";"BATU BATA PRESS";"XGH5+5CQ, Sitolubanua, Kec. Lahomi, Kabupaten Nias Barat, Sumatera Utara 22864";"Sitolubanua, Kec. Lahomi, Kabupaten Nias Barat";"SUMATERA UTARA";"22864";"Indonesia";" 082273504883";"";"";"0.9779625";"97.5086094";"https://maps.google.com/?cid=0x0:0xb9b85e721ba5e54";""
"mall";"Toko Fotokopi";"Fotocopy UD. Yuman";"3G68+H4P, Jl. Lakhene, Lolozirugi, Kec. Mandrehe, Kabupaten Nias Barat, Sumatera Utara 22862";"Jl. Lakhene, Lolozirugi, Kec. Mandrehe, Kabupaten Nias Barat";"SUMATERA UTARA";"22862";"Indonesia";" 082166152076";"";"";"1.0614674";"97.5153364";"https://maps.google.com/?cid=0x0:0x298b9b667e80c500";""
"supermarket";"supermarket";"Jl. Lahömi";"Lologundre, Kec. Lahomi, Kabupaten Nias Barat, Sumatera Utara 22864";"Kec. Lahomi, Kabupaten Nias Barat";"SUMATERA UTARA";"22864";"Indonesia";"";"";"";"0.986949";"97.5036587";"https://maps.google.com/?cid=0x0:0x6409da5bc64f976c";""
"supermarket";"Toko bahan makanan";"Swalayan Materna Pasar Yaahowu";"7JQC+H38, Saombo, Kec. Gunungsitoli, Kota Gunungsitoli, Sumatera Utara";"Kota Gunungsitoli, Sumatera Utara";"SUMATERA UTARA";"";"Indonesia";"";"";"";"1.2889207";"97.6202038";"https://maps.google.com/?cid=0x0:0xcf3c204cb3ef9412";""
"supermarket";"Pusat Perbelanjaan";"UD. Laow";"Jl. Bakaru, Lolozasai, Kec. Gido, Kabupaten Nias, Sumatera Utara 22871";"Lolozasai, Kec. Gido, Kabupaten Nias";"SUMATERA UTARA";"22871";"Indonesia";"";"";"";"1.1456205";"97.7087923";"https://maps.google.com/?cid=0x0:0x95eabf3a96303b18";""
"supermarket";"supermarket";"Toko delisa winza";"Taman raya rajeg k21 No.2, Mekarsari, Kec. Rajeg, Kabupaten Tangerang, Banten";"Kabupaten Tangerang, Banten";"SUMATERA UTARA";"";"Indonesia";"";"";"";"-6.1285324";"106.5318062";"https://maps.google.com/?cid=0x0:0xde61c82090af2472";""
"supermarket";"supermarket";"Sumatera Utara 22875";"Kec. Lolofitu Moi, Kabupaten Nias Barat, Sumatera Utara";"Kabupaten Nias Barat, Sumatera Utara";"SUMATERA UTARA";"";"Indonesia";"";"";"";"1.0588624";"97.5788975";"https://maps.google.com/?cid=0x0:0x9c54d35d78ab160f";""
"supermarket";"Toko bahan makanan";"KEDAI SYALOM";"4H6J+6W, Onombongi, Kec. Lolofitu Moi, Kabupaten Nias Barat, Sumatera Utara";"Kabupaten Nias Barat, Sumatera Utara";"SUMATERA UTARA";"";"Indonesia";"";"";"";"1.1105625";"97.5823125";"https://maps.google.com/?cid=0x0:0xb3d2ba743a226753";""
"supermarket";"Toko";"Toko Frans";"2JQ4+84, Sisobawino II, Kec. Lolofitu Moi, Kabupaten Nias Barat, Sumatera Utara";"Kabupaten Nias Barat, Sumatera Utara";"SUMATERA UTARA";"";"Indonesia";" 085275198881";"";"";"1.0382504";"97.6052745";"https://maps.google.com/?cid=0x0:0x244e6d99c4bb24ae";""
"supermarket";"Pembangunan Perumahan";"Rumah A Alfin Laia";"3HGX+54H, Wango, Kec. Lolofitu Moi, Kabupaten Nias Barat, Sumatera Utara 22875";"Wango, Kec. Lolofitu Moi, Kabupaten Nias Barat";"SUMATERA UTARA";"22875";"Indonesia";"";"";"";"1.075436";"97.5978681";"https://maps.google.com/?cid=0x0:0xee2f66b9b154aed1";""
"supermarket";"Toko bahan makanan";"UD UKI";"3G3X+824, Jl. Lölögolu, Lolozirugi, Kec. Mandrehe, Kabupaten Nias Barat, Sumatera Utara 22852";"Jl. Lölögolu, Lolozirugi, Kec. Mandrehe, Kabupaten Nias Barat";"SUMATERA UTARA";"22852";"Indonesia";" 085351655419";"";"";"1.0532703";"97.5475853";"https://maps.google.com/?cid=0x0:0x3eefa08fedd34135";""
"supermarket";"Sekolah menengah";"SMAN. 1 LOLOFITU MOI";"2JM5+P6V, Jl. Lōlōwa'u, Ehosakhozi, Kec. Lolofitu Moi, Kabupaten Nias Selatan, Sumatera Utara";"Kabupaten Nias Selatan, Sumatera Utara";"SUMATERA UTARA";"";"Indonesia";"";"";"";"1.0343573";"97.6080595";"https://maps.google.com/?cid=0x0:0xe781754197013d39";""
"supermarket";"Toko bahan makanan";"UD uki";"3G5X+XRQ, jl. menuju, Lologulo, Kec. Mandrehe, Kabupaten Nias Barat, Sumatera Utara 22862";"jl. menuju, Lologulo, Kec. Mandrehe, Kabupaten Nias Barat";"SUMATERA UTARA";"22862";"Indonesia";"";"";"";"1.059973";"97.5496047";"https://maps.google.com/?cid=0x0:0xdc22a38c44d14b16";""
"supermarket";"Sekolah Menengah Atas";"SMK Negeri 1 Lolofitu Moi";"jl. Nias tengah km 36.5, desa lolofitu, kecamatan lolofitu moi, kab nias barat, kode pos, Hiliuso, Kec. Lolofitu Moi, Kabupaten Nias Barat, Sumatera Utara 22875";"desa lolofitu, kecamatan lolofitu moi, kab nias barat, kode pos, Hiliuso, Kec. Lolofitu Moi, Kabupaten Nias Barat";"SUMATERA UTARA";"22875";"Indonesia";"";"";"";"1.0859889";"97.5783985";"https://maps.google.com/?cid=0x0:0x97f7dcd6998aeddf";""
"supermarket";"Pusat Perbelanjaan";"Pasar Mandrehe";"Fadoro, Kec. Mandrehe, Kabupaten Nias Barat, Sumatera Utara 22862";"Kec. Mandrehe, Kabupaten Nias Barat";"SUMATERA UTARA";"22862";"Indonesia";" 082370874876";"";"";"1.0498175";"97.4906554";"https://maps.google.com/?cid=0x0:0xe3813b2a2e2967d2";""
"supermarket";"supermarket";"Sumatera Utara 22862";"Kabupaten Nias Barat, Sumatera Utara";"Kabupaten Nias Barat, Sumatera Utara";"SUMATERA UTARA";"";"Indonesia";"";"";"";"1.0305654";"97.5030669";"https://maps.google.com/?cid=0x0:0x343297d388925be1";""
"supermarket";"Toko Swalayan";"UD. SEZ6";"2CMH+8CQ, Jln, Lasara Faga, Kec. Mandrehe Bar., Kabupaten Nias Barat, Sumatera Utara 22812";"Jln, Lasara Faga, Kec. Mandrehe Bar., Kabupaten Nias Barat";"SUMATERA UTARA";"22812";"Indonesia";"";"";"";"1.0334601";"97.4281841";"https://maps.google.com/?cid=0x0:0x2f0e183709fa2a1b";""
"supermarket";"Toko umum";"UD. Tesa";"2C6X+QPQ, Sisobambowo, Mandrehe, Kabupaten Nias Barat, Sumatera Utara, Kode, Sisobambowo, Kec. Mandrehe, Kabupaten Nias Barat, Sumatera Utara 22862";"Sisobambowo, Mandrehe, Kabupaten Nias Barat, Sumatera Utara, Kode, Sisobambowo, Kec. Mandrehe, Kabupaten Nias Barat";"SUMATERA UTARA";"22862";"Indonesia";"";"";"";"1.0119664";"97.4493543";"https://maps.google.com/?cid=0x0:0xe3123b86857c60e";""
"supermarket";"Minimarket";"UD. ZOAR";"Lolohia, Kec. Mandrehe, Kabupaten Nias Barat, Sumatera Utara 22861";"Kec. Mandrehe, Kabupaten Nias Barat";"SUMATERA UTARA";"22861";"Indonesia";" 081396206400";"";"";"1.0214349";"97.463328";"https://maps.google.com/?cid=0x0:0x618e5e3f286fcc5d";""
"supermarket";"Toko Swalayan";"UD. Ferdi";"4C23+R7, Siwawo, Kec. Tugala Oyo, Kabupaten Nias Utara, Sumatera Utara";"Kabupaten Nias Utara, Sumatera Utara";"SUMATERA UTARA";"";"Indonesia";" 081265446515";"";"";"1.1014946";"97.4033817";"https://maps.google.com/?cid=0x0:0x7f0a288c6cb998ba";""
"supermarket";"supermarket";"UD.RICKY";"2FC6+783, Lolohia Mandrehe Bar., Sisobambowo, Kec. Mandrehe, Kabupaten Nias Barat, Sumatera Utara 22862";"Lolohia Mandrehe Bar., Sisobambowo, Kec. Mandrehe, Kabupaten Nias Barat";"SUMATERA UTARA";"22862";"Indonesia";"";"";"";"1.0206339";"97.4607976";"https://maps.google.com/?cid=0x0:0xab00d0a4c373cbc0";""
"supermarket";"supermarket";"Kec. Mandrehe Bar.";"Kabupaten Nias Barat, Sumatera Utara";"Kabupaten Nias Barat, Sumatera Utara";"SUMATERA UTARA";"";"Indonesia";"";"";"";"0.998808";"97.4182241";"https://maps.google.com/?cid=0x0:0x7de90688f484314d";""
"supermarket";"Toko umum";"UD. CHAIN";"2FC6+864, Lolohia, Kec. Mandrehe Bar., Kabupaten Nias Barat, Sumatera Utara 22862";"Lolohia, Kec. Mandrehe Bar., Kabupaten Nias Barat";"SUMATERA UTARA";"22862";"Indonesia";"";"";"";"1.0207558";"97.4605687";"https://maps.google.com/?cid=0x0:0x1a1a3e93e3197b05";""
"supermarket";"Minimarket";"UD SUKMA ZEB";"2C7X+2PV, Sisobambowo, Kec. Mandrehe, Kabupaten Nias Barat, Sumatera Utara 22812";"Sisobambowo, Kec. Mandrehe, Kabupaten Nias Barat";"SUMATERA UTARA";"22812";"Indonesia";"";"";"";"1.0126086";"97.4492924";"https://maps.google.com/?cid=0x0:0x2f945095054f6492";""
"supermarket";"Toko";"UD. SOSMI HIA";"2FXV+34J Ulu Moro'ö (Moro'o, Jalan, Sianaa, Mandrehe, West Nias Regency, North Sumatra 22862";"Jalan, Sianaa, Mandrehe, West Nias Regency";"SUMATERA UTARA";"22862";"Indonesia";" 081260492177";"";"";"1.0477147";"97.492777";"https://maps.google.com/?cid=0x0:0x751f911b59d730ce";""
"supermarket";"Kafe";"Warung. N.GULO";"2CVM+XQM, Orahili Badalu, Kec. Mandrehe Bar., Kabupaten Nias Barat, Sumatera Utara 22812";"Orahili Badalu, Kec. Mandrehe Bar., Kabupaten Nias Barat";"SUMATERA UTARA";"22812";"Indonesia";"";"";"";"1.0449601";"97.4344334";"https://maps.google.com/?cid=0x0:0x6bf7bb914d3da110";""
"supermarket";"Toko Swalayan";"UD Gavra";"2F2V+8RJ, Onowaembo, Kec. Lahomi, Kabupaten Nias Barat, Sumatera Utara 22864";"Onowaembo, Kec. Lahomi, Kabupaten Nias Barat";"SUMATERA UTARA";"22864";"Indonesia";"";"";"";"1.0008496";"97.4945275";"https://maps.google.com/?cid=0x0:0x559061c9a56b0ea7";""
"supermarket";"supermarket";"Warung";"2F2W+234, Onolimbu, Kec. Lahomi, Kabupaten Nias Barat, Sumatera Utara 22864";"Onolimbu, Kec. Lahomi, Kabupaten Nias Barat";"SUMATERA UTARA";"22864";"Indonesia";"";"";"";"0.999992";"97.4951582";"https://maps.google.com/?cid=0x0:0x2acddafa74f057e7";""
"supermarket";"Kedai Kopi";"Kedai bersama";"3CG4+JH2, Sitolu Banua Fadoro, Kec. Moro'o, Kabupaten Nias Barat, Sumatera Utara 22862";"Sitolu Banua Fadoro, Kec. Moro'o, Kabupaten Nias Barat";"SUMATERA UTARA";"22862";"Indonesia";"";"";"";"1.0764366";"97.4057591";"https://maps.google.com/?cid=0x0:0xd4e1f05e70f2283c";""
"supermarket";"Minimarket";"UD. TATA";"XF98+8CR, Jl. Lahömi, Sisobandrao, Kec. Sirombu, Kabupaten Nias Barat, Sumatera Utara 22863";"Jl. Lahömi, Sisobandrao, Kec. Sirombu, Kabupaten Nias Barat";"SUMATERA UTARA";"22863";"Indonesia";"";"";"";"0.9683537";"97.4660173";"https://maps.google.com/?cid=0x0:0x431804bbb3b8efce";""
"supermarket";"Toko";"UD. Collin";"XFVX+P3G, Onolimbu, Kec. Lahomi, Kabupaten Nias Barat, Sumatera Utara";"Kabupaten Nias Barat, Sumatera Utara";"SUMATERA UTARA";"";"Indonesia";"";"";"";"0.9943156";"97.4976987";"https://maps.google.com/?cid=0x0:0x774f9b7599546a04";""
"supermarket";"Grosir Barang Kelontong";"UD. J-TRI";"Jln. Soekarno-Hatta, Onowaembo, Kec. Lahomi, Kabupaten Nias Barat, Sumatera Utara 22864";"Onowaembo, Kec. Lahomi, Kabupaten Nias Barat";"SUMATERA UTARA";"22864";"Indonesia";" 081315358818";"";"";"0.9930903";"97.4990035";"https://maps.google.com/?cid=0x0:0x5f26307acab06d64";""
"supermarket";"supermarket";"N/A";"";"";"SUMATERA UTARA";"";"Indonesia";" 081265995800";"";"";"0.9823165";"97.457437";"https://maps.google.com/?cid=0x0:0xec149f46b4a32d56";""
"supermarket";"supermarket";"Sumatera Utara 22867";"Kabupaten Nias Selatan, Sumatera Utara";"Kabupaten Nias Selatan, Sumatera Utara";"SUMATERA UTARA";"";"Indonesia";"";"";"";"0.9212063";"97.6710889";"https://maps.google.com/?cid=0x0:0xe28ccee9e4064a40";""
"supermarket";"Pusat Perbelanjaan";"Pasar Mandrehe";"Fadoro, Kec. Mandrehe, Kabupaten Nias Barat, Sumatera Utara 22862";"Kec. Mandrehe, Kabupaten Nias Barat";"SUMATERA UTARA";"22862";"Indonesia";" 082370874876";"";"";"1.0498175";"97.4906554";"https://maps.google.com/?cid=0x0:0xe3813b2a2e2967d2";""
"supermarket";"Pusat Perbelanjaan";"UD. RETHA";"WH2J+GXG, Lolowau, Kec. Lalowau, Kabupaten Nias Selatan, Sumatera Utara 22864";"Lolowau, Kec. Lalowau, Kabupaten Nias Selatan";"SUMATERA UTARA";"22864";"Indonesia";" 081384503929";"";"";"0.9013094";"97.5824423";"https://maps.google.com/?cid=0x0:0xceba32412dbd9bff";""
"supermarket";"Grosir Mebel";"UD. MARVEL";"WM56+M9G, Unnamed Road, Hiliwaebu, Kecamatan Ulunoyo, Kabupaten Nias Selatan, Sumatera Utara 22867";"Unnamed Road, Hiliwaebu, Kecamatan Ulunoyo, Kabupaten Nias Selatan";"SUMATERA UTARA";"22867";"Indonesia";"";"";"";"0.9091787";"97.6609616";"https://maps.google.com/?cid=0x0:0xd21928e146275b5c";""
"supermarket";"Komplek perumahan";"Rumah Stephan Gulo";"XJW9+53X, Jl. Lōlōwa'u, Ehosakhozi, Kec. Huruna, Kabupaten Nias Selatan, Sumatera Utara 22852";"Jl. Lōlōwa'u, Ehosakhozi, Kec. Huruna, Kabupaten Nias Selatan";"SUMATERA UTARA";"22852";"Indonesia";"";"";"";"0.9953803";"97.6178279";"https://maps.google.com/?cid=0x0:0x7f49955f40605a9a";""
"supermarket";"Toko Swalayan";"UD.RAFIQ GAS";"VHVJ+PC7, Jl. Nias Tengah, Lolowau, Kec. Lalowau, Kabupaten Nias Selatan, Sumatera Utara 22864";"Jl. Nias Tengah, Lolowau, Kec. Lalowau, Kabupaten Nias Selatan";"SUMATERA UTARA";"22864";"Indonesia";" 082369773183";"";"";"0.8942813";"97.5810531";"https://maps.google.com/?cid=0x0:0xe62c4c4c711412be";""
"supermarket";"Minimarket";"UD. ZOAR";"Lolohia, Kec. Mandrehe, Kabupaten Nias Barat, Sumatera Utara 22861";"Kec. Mandrehe, Kabupaten Nias Barat";"SUMATERA UTARA";"22861";"Indonesia";" 081396206400";"";"";"1.0214349";"97.463328";"https://maps.google.com/?cid=0x0:0x618e5e3f286fcc5d";""
"supermarket";"Toko bahan makanan";"UD. DESI PENGECER BBM";"VHGJ+VPQ, Tuhegafoa, Kec. Lalowau, Kabupaten Nias Selatan, Sumatera Utara 22864";"Tuhegafoa, Kec. Lalowau, Kabupaten Nias Selatan";"SUMATERA UTARA";"22864";"Indonesia";"";"";"";"0.8772238";"97.5818541";"https://maps.google.com/?cid=0x0:0x7cf5c53be272eead";""
"supermarket";"Toko";"UD. Vide";"2CVM+95R, Orahili Badalu, Kec. Mandrehe Bar., Kabupaten Nias Barat, Sumatera Utara 22862";"Orahili Badalu, Kec. Mandrehe Bar., Kabupaten Nias Barat";"SUMATERA UTARA";"22862";"Indonesia";" 082276995851";"";"";"1.0434785";"97.4328889";"https://maps.google.com/?cid=0x0:0xf8a5d3e8b3e9c93a";""
"supermarket";"supermarket";"Kec. Mandrehe Bar.";"Kabupaten Nias Barat, Sumatera Utara";"Kabupaten Nias Barat, Sumatera Utara";"SUMATERA UTARA";"";"Indonesia";"";"";"";"0.998808";"97.4182241";"https://maps.google.com/?cid=0x0:0x7de90688f484314d";""
"supermarket";"Toko umum";"UD. Tesa";"2C6X+QPQ, Sisobambowo, Mandrehe, Kabupaten Nias Barat, Sumatera Utara, Kode, Sisobambowo, Kec. Mandrehe, Kabupaten Nias Barat, Sumatera Utara 22862";"Sisobambowo, Mandrehe, Kabupaten Nias Barat, Sumatera Utara, Kode, Sisobambowo, Kec. Mandrehe, Kabupaten Nias Barat";"SUMATERA UTARA";"22862";"Indonesia";"";"";"";"1.0119664";"97.4493543";"https://maps.google.com/?cid=0x0:0xe3123b86857c60e";""
"supermarket";"Toko Swalayan";"UD. SEZ6";"2CMH+8CQ, Jln, Lasara Faga, Kec. Mandrehe Bar., Kabupaten Nias Barat, Sumatera Utara 22812";"Jln, Lasara Faga, Kec. Mandrehe Bar., Kabupaten Nias Barat";"SUMATERA UTARA";"22812";"Indonesia";"";"";"";"1.0334601";"97.4281841";"https://maps.google.com/?cid=0x0:0x2f0e183709fa2a1b";""
"supermarket";"Toko umum";"UD. CHAIN";"2FC6+864, Lolohia, Kec. Mandrehe Bar., Kabupaten Nias Barat, Sumatera Utara 22862";"Lolohia, Kec. Mandrehe Bar., Kabupaten Nias Barat";"SUMATERA UTARA";"22862";"Indonesia";"";"";"";"1.0207558";"97.4605687";"https://maps.google.com/?cid=0x0:0x1a1a3e93e3197b05";""
"supermarket";"Minimarket";"UD SUKMA ZEB";"2C7X+2PV, Sisobambowo, Kec. Mandrehe, Kabupaten Nias Barat, Sumatera Utara 22812";"Sisobambowo, Kec. Mandrehe, Kabupaten Nias Barat";"SUMATERA UTARA";"22812";"Indonesia";"";"";"";"1.0126086";"97.4492924";"https://maps.google.com/?cid=0x0:0x2f945095054f6492";""
"supermarket";"Kafe";"Warung. N.GULO";"2CVM+XQM, Orahili Badalu, Kec. Mandrehe Bar., Kabupaten Nias Barat, Sumatera Utara 22812";"Orahili Badalu, Kec. Mandrehe Bar., Kabupaten Nias Barat";"SUMATERA UTARA";"22812";"Indonesia";"";"";"";"1.0449601";"97.4344334";"https://maps.google.com/?cid=0x0:0x6bf7bb914d3da110";""
"supermarket";"Toko";"UD. SOSMI HIA";"2FXV+34J Ulu Moro'ö (Moro'o, Jalan, Sianaa, Mandrehe, West Nias Regency, North Sumatra 22862";"Jalan, Sianaa, Mandrehe, West Nias Regency";"SUMATERA UTARA";"22862";"Indonesia";" 081260492177";"";"";"1.0477147";"97.492777";"https://maps.google.com/?cid=0x0:0x751f911b59d730ce";""
"supermarket";"Toko Swalayan";"UD Gavra";"2F2V+8RJ, Onowaembo, Kec. Lahomi, Kabupaten Nias Barat, Sumatera Utara 22864";"Onowaembo, Kec. Lahomi, Kabupaten Nias Barat";"SUMATERA UTARA";"22864";"Indonesia";"";"";"";"1.0008496";"97.4945275";"https://maps.google.com/?cid=0x0:0x559061c9a56b0ea7";""
"supermarket";"Kedai Kopi";"Kedai bersama";"3CG4+JH2, Sitolu Banua Fadoro, Kec. Moro'o, Kabupaten Nias Barat, Sumatera Utara 22862";"Sitolu Banua Fadoro, Kec. Moro'o, Kabupaten Nias Barat";"SUMATERA UTARA";"22862";"Indonesia";"";"";"";"1.0764366";"97.4057591";"https://maps.google.com/?cid=0x0:0xd4e1f05e70f2283c";""
"supermarket";"supermarket";"Warung";"2F2W+234, Onolimbu, Kec. Lahomi, Kabupaten Nias Barat, Sumatera Utara 22864";"Onolimbu, Kec. Lahomi, Kabupaten Nias Barat";"SUMATERA UTARA";"22864";"Indonesia";"";"";"";"0.999992";"97.4951582";"https://maps.google.com/?cid=0x0:0x2acddafa74f057e7";""
"supermarket";"Toko";"UD. Collin";"XFVX+P3G, Onolimbu, Kec. Lahomi, Kabupaten Nias Barat, Sumatera Utara";"Kabupaten Nias Barat, Sumatera Utara";"SUMATERA UTARA";"";"Indonesia";"";"";"";"0.9943156";"97.4976987";"https://maps.google.com/?cid=0x0:0x774f9b7599546a04";""
"supermarket";"Minimarket";"UD. TATA";"XF98+8CR, Jl. Lahömi, Sisobandrao, Kec. Sirombu, Kabupaten Nias Barat, Sumatera Utara 22863";"Jl. Lahömi, Sisobandrao, Kec. Sirombu, Kabupaten Nias Barat";"SUMATERA UTARA";"22863";"Indonesia";"";"";"";"0.9683537";"97.4660173";"https://maps.google.com/?cid=0x0:0x431804bbb3b8efce";""
"supermarket";"Grosir Barang Kelontong";"UD. J-TRI";"Jln. Soekarno-Hatta, Onowaembo, Kec. Lahomi, Kabupaten Nias Barat, Sumatera Utara 22864";"Onowaembo, Kec. Lahomi, Kabupaten Nias Barat";"SUMATERA UTARA";"22864";"Indonesia";" 081315358818";"";"";"0.9930903";"97.4990035";"https://maps.google.com/?cid=0x0:0x5f26307acab06d64";""
"supermarket";"Mi";"KEDAI MIE AYAM PRAPATAN";"2F2W+72C, Jl. Proklamasi, Onolimbu, Kec. Lahomi, Kabupaten Nias Barat, Sumatera Utara";"Kabupaten Nias Barat, Sumatera Utara";"SUMATERA UTARA";"";"Indonesia";"";"";"";"1.0006788";"97.4950023";"https://maps.google.com/?cid=0x0:0xa328a0ce546d7127";""
"supermarket";"supermarket";"N/A";"";"";"SUMATERA UTARA";"";"Indonesia";" 081265995800";"";"";"0.9823165";"97.457437";"https://maps.google.com/?cid=0x0:0xec149f46b4a32d56";""
"supermarket";"supermarket";"Sumatera Utara 22812";"Kabupaten Nias Barat, Sumatera Utara";"Kabupaten Nias Barat, Sumatera Utara";"SUMATERA UTARA";"";"Indonesia";"";"";"";"1.0164701";"97.4435441";"https://maps.google.com/?cid=0x0:0xd11190b65d8d63eb";""
"supermarket";"Toko umum";"UD. Tesa";"2C6X+QPQ, Sisobambowo, Mandrehe, Kabupaten Nias Barat, Sumatera Utara, Kode, Sisobambowo, Kec. Mandrehe, Kabupaten Nias Barat, Sumatera Utara 22862";"Sisobambowo, Mandrehe, Kabupaten Nias Barat, Sumatera Utara, Kode, Sisobambowo, Kec. Mandrehe, Kabupaten Nias Barat";"SUMATERA UTARA";"22862";"Indonesia";"";"";"";"1.0119664";"97.4493543";"https://maps.google.com/?cid=0x0:0xe3123b86857c60e";""
"supermarket";"Pusat Perbelanjaan";"Pasar Mandrehe";"Fadoro, Kec. Mandrehe, Kabupaten Nias Barat, Sumatera Utara 22862";"Kec. Mandrehe, Kabupaten Nias Barat";"SUMATERA UTARA";"22862";"Indonesia";" 082370874876";"";"";"1.0498175";"97.4906554";"https://maps.google.com/?cid=0x0:0xe3813b2a2e2967d2";""
"supermarket";"Toko";"UD. Vide";"2CVM+95R, Orahili Badalu, Kec. Mandrehe Bar., Kabupaten Nias Barat, Sumatera Utara 22862";"Orahili Badalu, Kec. Mandrehe Bar., Kabupaten Nias Barat";"SUMATERA UTARA";"22862";"Indonesia";" 082276995851";"";"";"1.0434785";"97.4328889";"https://maps.google.com/?cid=0x0:0xf8a5d3e8b3e9c93a";""
"supermarket";"Toko umum";"UD. CHAIN";"2FC6+864, Lolohia, Kec. Mandrehe Bar., Kabupaten Nias Barat, Sumatera Utara 22862";"Lolohia, Kec. Mandrehe Bar., Kabupaten Nias Barat";"SUMATERA UTARA";"22862";"Indonesia";"";"";"";"1.0207558";"97.4605687";"https://maps.google.com/?cid=0x0:0x1a1a3e93e3197b05";""
"supermarket";"Minimarket";"UD SUKMA ZEB";"2C7X+2PV, Sisobambowo, Kec. Mandrehe, Kabupaten Nias Barat, Sumatera Utara 22812";"Sisobambowo, Kec. Mandrehe, Kabupaten Nias Barat";"SUMATERA UTARA";"22812";"Indonesia";"";"";"";"1.0126086";"97.4492924";"https://maps.google.com/?cid=0x0:0x2f945095054f6492";""
"supermarket";"Kafe";"Warung. N.GULO";"2CVM+XQM, Orahili Badalu, Kec. Mandrehe Bar., Kabupaten Nias Barat, Sumatera Utara 22812";"Orahili Badalu, Kec. Mandrehe Bar., Kabupaten Nias Barat";"SUMATERA UTARA";"22812";"Indonesia";"";"";"";"1.0449601";"97.4344334";"https://maps.google.com/?cid=0x0:0x6bf7bb914d3da110";""
"supermarket";"Minimarket";"UD. ZOAR";"Lolohia, Kec. Mandrehe, Kabupaten Nias Barat, Sumatera Utara 22861";"Kec. Mandrehe, Kabupaten Nias Barat";"SUMATERA UTARA";"22861";"Indonesia";" 081396206400";"";"";"1.0214349";"97.463328";"https://maps.google.com/?cid=0x0:0x618e5e3f286fcc5d";""
"supermarket";"supermarket";"UD.RICKY";"2FC6+783, Lolohia Mandrehe Bar., Sisobambowo, Kec. Mandrehe, Kabupaten Nias Barat, Sumatera Utara 22862";"Lolohia Mandrehe Bar., Sisobambowo, Kec. Mandrehe, Kabupaten Nias Barat";"SUMATERA UTARA";"22862";"Indonesia";"";"";"";"1.0206339";"97.4607976";"https://maps.google.com/?cid=0x0:0xab00d0a4c373cbc0";""
"supermarket";"supermarket";"Warung";"2F2W+234, Onolimbu, Kec. Lahomi, Kabupaten Nias Barat, Sumatera Utara 22864";"Onolimbu, Kec. Lahomi, Kabupaten Nias Barat";"SUMATERA UTARA";"22864";"Indonesia";"";"";"";"0.999992";"97.4951582";"https://maps.google.com/?cid=0x0:0x2acddafa74f057e7";""
"supermarket";"supermarket";"Kec. Mandrehe Bar.";"Kabupaten Nias Barat, Sumatera Utara";"Kabupaten Nias Barat, Sumatera Utara";"SUMATERA UTARA";"";"Indonesia";"";"";"";"0.998808";"97.4182241";"https://maps.google.com/?cid=0x0:0x7de90688f484314d";""
"supermarket";"Toko Swalayan";"UD Gavra";"2F2V+8RJ, Onowaembo, Kec. Lahomi, Kabupaten Nias Barat, Sumatera Utara 22864";"Onowaembo, Kec. Lahomi, Kabupaten Nias Barat";"SUMATERA UTARA";"22864";"Indonesia";"";"";"";"1.0008496";"97.4945275";"https://maps.google.com/?cid=0x0:0x559061c9a56b0ea7";""
"supermarket";"Toko";"UD. SOSMI HIA";"2FXV+34J Ulu Moro'ö (Moro'o, Jalan, Sianaa, Mandrehe, West Nias Regency, North Sumatra 22862";"Jalan, Sianaa, Mandrehe, West Nias Regency";"SUMATERA UTARA";"22862";"Indonesia";" 081260492177";"";"";"1.0477147";"97.492777";"https://maps.google.com/?cid=0x0:0x751f911b59d730ce";""
"supermarket";"Minimarket";"UD. TATA";"XF98+8CR, Jl. Lahömi, Sisobandrao, Kec. Sirombu, Kabupaten Nias Barat, Sumatera Utara 22863";"Jl. Lahömi, Sisobandrao, Kec. Sirombu, Kabupaten Nias Barat";"SUMATERA UTARA";"22863";"Indonesia";"";"";"";"0.9683537";"97.4660173";"https://maps.google.com/?cid=0x0:0x431804bbb3b8efce";""
"supermarket";"Toko";"UD. Collin";"XFVX+P3G, Onolimbu, Kec. Lahomi, Kabupaten Nias Barat, Sumatera Utara";"Kabupaten Nias Barat, Sumatera Utara";"SUMATERA UTARA";"";"Indonesia";"";"";"";"0.9943156";"97.4976987";"https://maps.google.com/?cid=0x0:0x774f9b7599546a04";""
"supermarket";"supermarket";"N/A";"";"";"SUMATERA UTARA";"";"Indonesia";" 081265995800";"";"";"0.9823165";"97.457437";"https://maps.google.com/?cid=0x0:0xec149f46b4a32d56";""
"supermarket";"Kedai Kopi";"Kedai bersama";"3CG4+JH2, Sitolu Banua Fadoro, Kec. Moro'o, Kabupaten Nias Barat, Sumatera Utara 22862";"Sitolu Banua Fadoro, Kec. Moro'o, Kabupaten Nias Barat";"SUMATERA UTARA";"22862";"Indonesia";"";"";"";"1.0764366";"97.4057591";"https://maps.google.com/?cid=0x0:0xd4e1f05e70f2283c";""
"supermarket";"Pusat Perbelanjaan";"Pasar Mandrehe";"Fadoro, Kec. Mandrehe, Kabupaten Nias Barat, Sumatera Utara 22862";"Kec. Mandrehe, Kabupaten Nias Barat";"SUMATERA UTARA";"22862";"Indonesia";" 082370874876";"";"";"1.0498175";"97.4906554";"https://maps.google.com/?cid=0x0:0xe3813b2a2e2967d2";""
"supermarket";"Pusat Perbelanjaan";"UD Micha";"2FXR+R2P, pasar, Kec. Mandrehe, Kabupaten Nias Barat, Sumatera Utara 22862";"pasar, Kec. Mandrehe, Kabupaten Nias Barat";"SUMATERA UTARA";"22862";"Indonesia";" 082273520801";"";"";"1.0495936";"97.4900915";"https://maps.google.com/?cid=0x0:0x6df5b01076fea49d";""
"supermarket";"supermarket";"ina tika misopp";"2FXR+W73, Fadoro, Kec. Mandrehe Bar., Kabupaten Nias Barat, Sumatera Utara";"Kabupaten Nias Barat, Sumatera Utara";"SUMATERA UTARA";"";"Indonesia";"";"";"";"1.0497548";"97.4906766";"https://maps.google.com/?cid=0x0:0x25a107932b078080";""
"supermarket";"Toko bahan makanan";"Swalayan Materna Pasar Yaahowu";"7JQC+H38, Saombo, Kec. Gunungsitoli, Kota Gunungsitoli, Sumatera Utara";"Kota Gunungsitoli, Sumatera Utara";"SUMATERA UTARA";"";"Indonesia";"";"";"";"1.2889207";"97.6202038";"https://maps.google.com/?cid=0x0:0xcf3c204cb3ef9412";""
"supermarket";"Toko bahan makanan";"City Mart";"JL Gomo, No. 8, Pasar, Saombo, Kec. Gunungsitoli, Kota Gunungsitoli, Sumatera Utara";"Kota Gunungsitoli, Sumatera Utara";"SUMATERA UTARA";"";"Indonesia";"";"";"";"1.2887554";"97.6184731";"https://maps.google.com/?cid=0x0:0xc8233bdb3cd696b5";""
"supermarket";"Toko umum";"UD. Tesa";"2C6X+QPQ, Sisobambowo, Mandrehe, Kabupaten Nias Barat, Sumatera Utara, Kode, Sisobambowo, Kec. Mandrehe, Kabupaten Nias Barat, Sumatera Utara 22862";"Sisobambowo, Mandrehe, Kabupaten Nias Barat, Sumatera Utara, Kode, Sisobambowo, Kec. Mandrehe, Kabupaten Nias Barat";"SUMATERA UTARA";"22862";"Indonesia";"";"";"";"1.0119664";"97.4493543";"https://maps.google.com/?cid=0x0:0xe3123b86857c60e";""
"supermarket";"Toko Elektronik";"All Vapor";"7JQ9+RXH, Saombo, Kec. Gunungsitoli, Kota Gunungsitoli, Sumatera Utara";"Kota Gunungsitoli, Sumatera Utara";"SUMATERA UTARA";"";"Indonesia";"";"";"";"1.2895595";"97.6199802";"https://maps.google.com/?cid=0x0:0x1633e85982eb1d37";""
"supermarket";"Toko Swalayan";"UD. SEZ6";"2CMH+8CQ, Jln, Lasara Faga, Kec. Mandrehe Bar., Kabupaten Nias Barat, Sumatera Utara 22812";"Jln, Lasara Faga, Kec. Mandrehe Bar., Kabupaten Nias Barat";"SUMATERA UTARA";"22812";"Indonesia";"";"";"";"1.0334601";"97.4281841";"https://maps.google.com/?cid=0x0:0x2f0e183709fa2a1b";""
"supermarket";"Minimarket";"UD SUKMA ZEB";"2C7X+2PV, Sisobambowo, Kec. Mandrehe, Kabupaten Nias Barat, Sumatera Utara 22812";"Sisobambowo, Kec. Mandrehe, Kabupaten Nias Barat";"SUMATERA UTARA";"22812";"Indonesia";"";"";"";"1.0126086";"97.4492924";"https://maps.google.com/?cid=0x0:0x2f945095054f6492";""
"supermarket";"Toko";"UD. Vide";"2CVM+95R, Orahili Badalu, Kec. Mandrehe Bar., Kabupaten Nias Barat, Sumatera Utara 22862";"Orahili Badalu, Kec. Mandrehe Bar., Kabupaten Nias Barat";"SUMATERA UTARA";"22862";"Indonesia";" 082276995851";"";"";"1.0434785";"97.4328889";"https://maps.google.com/?cid=0x0:0xf8a5d3e8b3e9c93a";""
"supermarket";"Toko umum";"UD. CHAIN";"2FC6+864, Lolohia, Kec. Mandrehe Bar., Kabupaten Nias Barat, Sumatera Utara 22862";"Lolohia, Kec. Mandrehe Bar., Kabupaten Nias Barat";"SUMATERA UTARA";"22862";"Indonesia";"";"";"";"1.0207558";"97.4605687";"https://maps.google.com/?cid=0x0:0x1a1a3e93e3197b05";""
"supermarket";"Toko";"UD. SOSMI HIA";"2FXV+34J Ulu Moro'ö (Moro'o, Jalan, Sianaa, Mandrehe, West Nias Regency, North Sumatra 22862";"Jalan, Sianaa, Mandrehe, West Nias Regency";"SUMATERA UTARA";"22862";"Indonesia";" 081260492177";"";"";"1.0477147";"97.492777";"https://maps.google.com/?cid=0x0:0x751f911b59d730ce";""
"supermarket";"Toko bahan makanan";"UD uki";"3G5X+XRQ, jl. menuju, Lologulo, Kec. Mandrehe, Kabupaten Nias Barat, Sumatera Utara 22862";"jl. menuju, Lologulo, Kec. Mandrehe, Kabupaten Nias Barat";"SUMATERA UTARA";"22862";"Indonesia";"";"";"";"1.059973";"97.5496047";"https://maps.google.com/?cid=0x0:0xdc22a38c44d14b16";""
"supermarket";"Minimarket";"UD. ZOAR";"Lolohia, Kec. Mandrehe, Kabupaten Nias Barat, Sumatera Utara 22861";"Kec. Mandrehe, Kabupaten Nias Barat";"SUMATERA UTARA";"22861";"Indonesia";" 081396206400";"";"";"1.0214349";"97.463328";"https://maps.google.com/?cid=0x0:0x618e5e3f286fcc5d";""
"supermarket";"Toko Swalayan";"UD Gavra";"2F2V+8RJ, Onowaembo, Kec. Lahomi, Kabupaten Nias Barat, Sumatera Utara 22864";"Onowaembo, Kec. Lahomi, Kabupaten Nias Barat";"SUMATERA UTARA";"22864";"Indonesia";"";"";"";"1.0008496";"97.4945275";"https://maps.google.com/?cid=0x0:0x559061c9a56b0ea7";""
"supermarket";"Kantor Perusahaan";"UD. DESMAN";"5H3V+9GH, Fulolo Lalai, Kec. HiliSerangkai, Kabupaten Nias, Sumatera Utara";"Kabupaten Nias, Sumatera Utara";"SUMATERA UTARA";"";"Indonesia";"";"";"";"1.154079";"97.5937579";"https://maps.google.com/?cid=0x0:0xbcc4231aa2b7a520";""
"supermarket";"Toko bahan makanan";"UD UKI";"3G3X+824, Jl. Lölögolu, Lolozirugi, Kec. Mandrehe, Kabupaten Nias Barat, Sumatera Utara 22852";"Jl. Lölögolu, Lolozirugi, Kec. Mandrehe, Kabupaten Nias Barat";"SUMATERA UTARA";"22852";"Indonesia";" 085351655419";"";"";"1.0532703";"97.5475853";"https://maps.google.com/?cid=0x0:0x3eefa08fedd34135";""
"supermarket";"supermarket";"Sumatera Utara 22862";"Kabupaten Nias Barat, Sumatera Utara";"Kabupaten Nias Barat, Sumatera Utara";"SUMATERA UTARA";"";"Indonesia";"";"";"";"1.0305654";"97.5030669";"https://maps.google.com/?cid=0x0:0x343297d388925be1";""
"supermarket";"Kedai Kopi";"Kedai bersama";"3CG4+JH2, Sitolu Banua Fadoro, Kec. Moro'o, Kabupaten Nias Barat, Sumatera Utara 22862";"Sitolu Banua Fadoro, Kec. Moro'o, Kabupaten Nias Barat";"SUMATERA UTARA";"22862";"Indonesia";"";"";"";"1.0764366";"97.4057591";"https://maps.google.com/?cid=0x0:0xd4e1f05e70f2283c";""
"supermarket";"Toko";"UD. SOSMI HIA";"2FXV+34J Ulu Moro'ö (Moro'o, Jalan, Sianaa, Mandrehe, West Nias Regency, North Sumatra 22862";"Jalan, Sianaa, Mandrehe, West Nias Regency";"SUMATERA UTARA";"22862";"Indonesia";" 081260492177";"";"";"1.0477147";"97.492777";"https://maps.google.com/?cid=0x0:0x751f911b59d730ce";""
"supermarket";"Toko umum";"UD. GETI";"2GFH+M34, Bukit Tinggi, Kec. Ulu Moro'o, Kabupaten Nias Barat, Sumatera Utara 22862";"Bukit Tinggi, Kec. Ulu Moro'o, Kabupaten Nias Barat";"SUMATERA UTARA";"22862";"Indonesia";"";"";"";"1.0241399";"97.5277027";"https://maps.google.com/?cid=0x0:0x399128d556409f92";""
"supermarket";"Toko umum";"UD. CHAIN";"2FC6+864, Lolohia, Kec. Mandrehe Bar., Kabupaten Nias Barat, Sumatera Utara 22862";"Lolohia, Kec. Mandrehe Bar., Kabupaten Nias Barat";"SUMATERA UTARA";"22862";"Indonesia";"";"";"";"1.0207558";"97.4605687";"https://maps.google.com/?cid=0x0:0x1a1a3e93e3197b05";""
"supermarket";"Toko";"UD. Vide";"2CVM+95R, Orahili Badalu, Kec. Mandrehe Bar., Kabupaten Nias Barat, Sumatera Utara 22862";"Orahili Badalu, Kec. Mandrehe Bar., Kabupaten Nias Barat";"SUMATERA UTARA";"22862";"Indonesia";" 082276995851";"";"";"1.0434785";"97.4328889";"https://maps.google.com/?cid=0x0:0xf8a5d3e8b3e9c93a";""
"supermarket";"Minimarket";"Smarco Superstore Supermarket";"Jl. Gagak Hitam No.28, Tj. Rejo, Kec. Medan Sunggal, Kota Medan, Sumatera Utara 20122";"Tj. Rejo, Kec. Medan Sunggal, Kota Medan";"SUMATERA UTARA";"20122";"Indonesia";" 081239883655";"";"";"3.5754968";"98.6257062";"https://maps.google.com/?cid=0x0:0x66794b77627be68d";""
"supermarket";"Toko Swalayan";"UD. SEZ6";"2CMH+8CQ, Jln, Lasara Faga, Kec. Mandrehe Bar., Kabupaten Nias Barat, Sumatera Utara 22812";"Jln, Lasara Faga, Kec. Mandrehe Bar., Kabupaten Nias Barat";"SUMATERA UTARA";"22812";"Indonesia";"";"";"";"1.0334601";"97.4281841";"https://maps.google.com/?cid=0x0:0x2f0e183709fa2a1b";""
"supermarket";"Minimarket";"UD SUKMA ZEB";"2C7X+2PV, Sisobambowo, Kec. Mandrehe, Kabupaten Nias Barat, Sumatera Utara 22812";"Sisobambowo, Kec. Mandrehe, Kabupaten Nias Barat";"SUMATERA UTARA";"22812";"Indonesia";"";"";"";"1.0126086";"97.4492924";"https://maps.google.com/?cid=0x0:0x2f945095054f6492";""
"supermarket";"Toko Swalayan";"UD. Ferdi";"4C23+R7, Siwawo, Kec. Tugala Oyo, Kabupaten Nias Utara, Sumatera Utara";"Kabupaten Nias Utara, Sumatera Utara";"SUMATERA UTARA";"";"Indonesia";" 081265446515";"";"";"1.1014946";"97.4033817";"https://maps.google.com/?cid=0x0:0x7f0a288c6cb998ba";""
"supermarket";"Minimarket";"Go Market Store - Rest Area Km 7";"Jl. Asahan No.Km 07, Dolok Hataran, Kec. Siantar, Kabupaten Simalungun, Sumatera Utara 21151";"Dolok Hataran, Kec. Siantar, Kabupaten Simalungun";"SUMATERA UTARA";"21151";"Indonesia";" 081234595502";"";"";"2.9636778";"99.1386084";"https://maps.google.com/?cid=0x0:0x38e27954116d5ed4";""
"supermarket";"Toko Buah dan Sayuran";"Brastagi Supermarket";"Jl. Gatot Subroto No.288, Sei Putih Tengah, Kec. Medan Petisah, Kota Medan, Sumatera Utara 20113";"Sei Putih Tengah, Kec. Medan Petisah, Kota Medan";"SUMATERA UTARA";"20113";"Indonesia";" 0614572371";"";"";"3.5909151";"98.6547992";"https://maps.google.com/?cid=0x0:0x9c8d28a69d64b4f";""
"supermarket";"ATM";"ATM BII Brastagi Supermarket";"Jl. Gatot Subroto No. 288, Simpang Tanjung, Medan Sunggal, Sei Putih Tengah, Kec. Medan Petisah, Kota Medan, Sumatera Utara 20112";"Simpang Tanjung, Medan Sunggal, Sei Putih Tengah, Kec. Medan Petisah, Kota Medan";"SUMATERA UTARA";"20112";"Indonesia";" 0211500611";"";"";"3.5910718";"98.6547617";"https://maps.google.com/?cid=0x0:0xa75db4a24b6ceb82";""
"supermarket";"Minimarket";"UD. ZOAR";"Lolohia, Kec. Mandrehe, Kabupaten Nias Barat, Sumatera Utara 22861";"Kec. Mandrehe, Kabupaten Nias Barat";"SUMATERA UTARA";"22861";"Indonesia";" 081396206400";"";"";"1.0214349";"97.463328";"https://maps.google.com/?cid=0x0:0x618e5e3f286fcc5d";""
"supermarket";"Toko";"UD. Collin";"XFVX+P3G, Onolimbu, Kec. Lahomi, Kabupaten Nias Barat, Sumatera Utara";"Kabupaten Nias Barat, Sumatera Utara";"SUMATERA UTARA";"";"Indonesia";"";"";"";"0.9943156";"97.4976987";"https://maps.google.com/?cid=0x0:0x774f9b7599546a04";""
"supermarket";"supermarket";"Warung";"2F2W+234, Onolimbu, Kec. Lahomi, Kabupaten Nias Barat, Sumatera Utara 22864";"Onolimbu, Kec. Lahomi, Kabupaten Nias Barat";"SUMATERA UTARA";"22864";"Indonesia";"";"";"";"0.999992";"97.4951582";"https://maps.google.com/?cid=0x0:0x2acddafa74f057e7";""
"supermarket";"Grosir Barang Kelontong";"UD. J-TRI";"Jln. Soekarno-Hatta, Onowaembo, Kec. Lahomi, Kabupaten Nias Barat, Sumatera Utara 22864";"Onowaembo, Kec. Lahomi, Kabupaten Nias Barat";"SUMATERA UTARA";"22864";"Indonesia";" 081315358818";"";"";"0.9930903";"97.4990035";"https://maps.google.com/?cid=0x0:0x5f26307acab06d64";""
"supermarket";"Kafe";"Warung. N.GULO";"2CVM+XQM, Orahili Badalu, Kec. Mandrehe Bar., Kabupaten Nias Barat, Sumatera Utara 22812";"Orahili Badalu, Kec. Mandrehe Bar., Kabupaten Nias Barat";"SUMATERA UTARA";"22812";"Indonesia";"";"";"";"1.0449601";"97.4344334";"https://maps.google.com/?cid=0x0:0x6bf7bb914d3da110";""
"supermarket";"Minimarket";"Horas Sitorus";"Jl. Gereja No.18 Dusun I, Patane I, Siraituruk, Kec. Porsea, Toba, Sumatera Utara 22384";"Patane I, Siraituruk, Kec. Porsea, Toba";"SUMATERA UTARA";"22384";"Indonesia";" 081325526816";"";"";"2.4694129";"99.1449237";"https://maps.google.com/?cid=0x0:0xae116ba7bfa3a677";""
"supermarket";"Toko Swalayan";"UD Gavra";"2F2V+8RJ, Onowaembo, Kec. Lahomi, Kabupaten Nias Barat, Sumatera Utara 22864";"Onowaembo, Kec. Lahomi, Kabupaten Nias Barat";"SUMATERA UTARA";"22864";"Indonesia";"";"";"";"1.0008496";"97.4945275";"https://maps.google.com/?cid=0x0:0x559061c9a56b0ea7";""
"supermarket";"Toko bahan makanan";"UD UKI";"3G3X+824, Jl. Lölögolu, Lolozirugi, Kec. Mandrehe, Kabupaten Nias Barat, Sumatera Utara 22852";"Jl. Lölögolu, Lolozirugi, Kec. Mandrehe, Kabupaten Nias Barat";"SUMATERA UTARA";"22852";"Indonesia";" 085351655419";"";"";"1.0532703";"97.5475853";"https://maps.google.com/?cid=0x0:0x3eefa08fedd34135";""
"supermarket";"Toko bahan makanan";"UD uki";"3G5X+XRQ, jl. menuju, Lologulo, Kec. Mandrehe, Kabupaten Nias Barat, Sumatera Utara 22862";"jl. menuju, Lologulo, Kec. Mandrehe, Kabupaten Nias Barat";"SUMATERA UTARA";"22862";"Indonesia";"";"";"";"1.059973";"97.5496047";"https://maps.google.com/?cid=0x0:0xdc22a38c44d14b16";""
"supermarket";"Toko Swalayan";"Mandiri Supermarket";"Jl. Kapten Muslim No.8, Helvetia, Kec. Medan Helvetia, Kota Medan, Sumatera Utara 20124";"Helvetia, Kec. Medan Helvetia, Kota Medan";"SUMATERA UTARA";"20124";"Indonesia";" 0618472603";"";"";"3.6050235";"98.6452267";"https://maps.google.com/?cid=0x0:0xf01ae23c91420cc4";""
"supermarket";"Toko";"Warung Elsy";"39RV+8G5, Humene Siheneasi, Kec. Tugala Oyo, Kabupaten Nias Utara, Sumatera Utara 22861";"Humene Siheneasi, Kec. Tugala Oyo, Kabupaten Nias Utara";"SUMATERA UTARA";"22861";"Indonesia";" 082370020115";"";"";"1.090968";"97.393785";"https://maps.google.com/?cid=0x0:0xd3c4eded3581415a";""
"supermarket";"Minimarket";"UD. TATA";"XF98+8CR, Jl. Lahömi, Sisobandrao, Kec. Sirombu, Kabupaten Nias Barat, Sumatera Utara 22863";"Jl. Lahömi, Sisobandrao, Kec. Sirombu, Kabupaten Nias Barat";"SUMATERA UTARA";"22863";"Indonesia";"";"";"";"0.9683537";"97.4660173";"https://maps.google.com/?cid=0x0:0x431804bbb3b8efce";""
"supermarket";"Toko bahan makanan";"KEDAI SYALOM";"4H6J+6W, Onombongi, Kec. Lolofitu Moi, Kabupaten Nias Barat, Sumatera Utara";"Kabupaten Nias Barat, Sumatera Utara";"SUMATERA UTARA";"";"Indonesia";"";"";"";"1.1105625";"97.5823125";"https://maps.google.com/?cid=0x0:0xb3d2ba743a226753";""
"supermarket";"Toko Obat";"AGEN SR12 SIROMBU NIAS BARAT";"Perumahan Redcross 2, Sirombu, Kec. Sirombu, Kabupaten Nias Barat, Sumatera Utara 22863";"Sirombu, Kec. Sirombu, Kabupaten Nias Barat";"SUMATERA UTARA";"22863";"Indonesia";" 081398580942";"";"";"0.9596835";"97.423552";"https://maps.google.com/?cid=0x0:0x74200ee90e15a75b";""
"supermarket";"Apotek";"Toko SINAR";"Jl.soekarno, Fadoro, Kec. Mandrehe, Kabupaten Nias Barat, Sumatera Utara 22862";"Fadoro, Kec. Mandrehe, Kabupaten Nias Barat";"SUMATERA UTARA";"22862";"Indonesia";" 085373119926";"";"";"1.0499207";"97.4909433";"https://maps.google.com/?cid=0x0:0x983f2c4e681451e6";""
"supermarket";"Minimarket";"Smarco Superstore Supermarket";"Jl. Gagak Hitam No.28, Tj. Rejo, Kec. Medan Sunggal, Kota Medan, Sumatera Utara 20122";"Tj. Rejo, Kec. Medan Sunggal, Kota Medan";"SUMATERA UTARA";"20122";"Indonesia";" 081239883655";"";"";"3.5754968";"98.6257062";"https://maps.google.com/?cid=0x0:0x66794b77627be68d";""
"supermarket";"supermarket";"Kec. Ulu Moro'o";"Kabupaten Nias Barat, Sumatera Utara";"Kabupaten Nias Barat, Sumatera Utara";"SUMATERA UTARA";"";"Indonesia";"";"";"";"1.0144644";"97.5333185";"https://maps.google.com/?cid=0x0:0xcabc6a3673d44b2d";""
