Category;Real Category;Business Name;Address;City;State;Postal Code;Country;Phone;Email;Website;Latitude;Longitude;Map Link;Details Link
"komplek housing";"komplek housing";"Jl. Lahömi";"Lologundre, Kec. Lahomi, Kabupaten Nias Barat, Sumatera Utara 22864";"Kec. Lahomi, Kabupaten Nias Barat";"SUMATERA UTARA";"22864";"Indonesia";"";"";"";"0.986949";"97.5036587";"https://maps.google.com/?cid=0x0:0x6409da5bc64f976c";""
"komplek housing";"Komplek perumahan";"Home";"4HJP+7HJ, Jl. Gunungsitoli, Fadoro Hunogoa, Kec. HiliSerangkai, Kabupaten Nias Barat, Sumatera Utara 22815";"Jl. Gunungsitoli, Fadoro Hunogoa, Kec. HiliSerangkai, Kabupaten Nias Barat";"SUMATERA UTARA";"22815";"Indonesia";"";"";"";"1.1307074";"97.5863881";"https://maps.google.com/?cid=0x0:0xbb9c109655820ffa";""
"komplek housing";"komplek housing";"Kec. Lahomi";"Kabupaten Nias Barat, Sumatera Utara";"Kabupaten Nias Barat, Sumatera Utara";"SUMATERA UTARA";"";"Indonesia";"";"";"";"0.9829723";"97.5021778";"https://maps.google.com/?cid=0x0:0x27f98a91d94e74be";""
"komplek housing";"Pembangunan Perumahan";"Lahomi";"873J+2HQ, Sisobahili, Kec. Afulu, Kabupaten Nias Utara, Sumatera Utara";"Kabupaten Nias Utara, Sumatera Utara";"SUMATERA UTARA";"";"Indonesia";"";"";"";"1.3025995";"97.2814718";"https://maps.google.com/?cid=0x0:0x70452986b3ba4e46";""
"komplek housing";"Komplek perumahan";"Rumah ama alfa laowo";"5MX2+9XW, Jl. Hiligara, Sifalaete, Kec. GunungSitoli Idanoi, Kota Gunungsitoli, Sumatera Utara 22871";"Jl. Hiligara, Sifalaete, Kec. GunungSitoli Idanoi, Kota Gunungsitoli";"SUMATERA UTARA";"22871";"Indonesia";"";"";"";"1.198499";"97.6524615";"https://maps.google.com/?cid=0x0:0x2bd1f239989ede19";""
"komplek housing";"Komplek perumahan";"Hezisokhi Laoli";"4QQQ+V2Q, Dusun III Netemburune Desa somi, botogo'o, Kec. Gido, Kabupaten Nias, Sumatera Utara";"Kabupaten Nias, Sumatera Utara";"SUMATERA UTARA";"";"Indonesia";"";"";"";"1.1397143";"97.7876154";"https://maps.google.com/?cid=0x0:0xfee1beec3dd31c45";""
"komplek housing";"Komplek perumahan";"Fesilimus Hia";"XGH7+FPC, Jl. Hiligeo, Bawozamaiwo, Kec. Lahomi, Kabupaten Nias Barat, Sumatera Utara 22864";"Jl. Hiligeo, Bawozamaiwo, Kec. Lahomi, Kabupaten Nias Barat";"SUMATERA UTARA";"22864";"Indonesia";"";"";"";"0.9786932";"97.5142752";"https://maps.google.com/?cid=0x0:0x65416a42bbd8c438";""
"komplek housing";"Pembangunan Perumahan";"A/I SAFAT HIA";"XGJ8+GPM, Jl. Hiligeo, Bawozamaiwo, Kec. Lahomi, Kabupaten Nias Barat, Sumatera Utara 22864";"Jl. Hiligeo, Bawozamaiwo, Kec. Lahomi, Kabupaten Nias Barat";"SUMATERA UTARA";"22864";"Indonesia";"";"";"";"0.98134";"97.5167949";"https://maps.google.com/?cid=0x0:0xd40e94209cdd763b";""
"komplek housing";"Komplek perumahan";"Rumah Ama Emi Halawa";"XH74+PF9, Umbuasi, Kec. Hilisalawa'ahe, Kabupaten Nias Selatan, Sumatera Utara 22864";"Umbuasi, Kec. Hilisalawa'ahe, Kabupaten Nias Selatan";"SUMATERA UTARA";"22864";"Indonesia";"";"";"";"0.9642851";"97.5562312";"https://maps.google.com/?cid=0x0:0x19515fa4d974d44a";""
"komplek housing";"Komplek perumahan";"Rumah Krisman Hia";"XFCV+384, Iraonogaila, Kec. Lahomi, Kabupaten Nias Barat, Sumatera Utara 22864";"Iraonogaila, Kec. Lahomi, Kabupaten Nias Barat";"SUMATERA UTARA";"22864";"Indonesia";"";"";"";"0.97047";"97.493229";"https://maps.google.com/?cid=0x0:0x5499386de8eac818";""
"komplek housing";"Area Mendaki";"Villa-SastraHia OseHilimberua";"XG39+3G4, Sisobaoho, Kec. Lahomi, Kabupaten Nias Barat, Sumatera Utara";"Kabupaten Nias Barat, Sumatera Utara";"SUMATERA UTARA";"";"Indonesia";"";"";"";"0.9526436";"97.5188273";"https://maps.google.com/?cid=0x0:0xbebb594a5032a164";""
"komplek housing";"Komplek perumahan";"A/I CERLIN DAELI";"XGJ8+64R Rumah A/I Cerlin Daeli, Jl. Hiligeo, Onolimbu, Kec. Lahomi, Kabupaten Nias Barat, Sumatera Utara 22864";"Jl. Hiligeo, Onolimbu, Kec. Lahomi, Kabupaten Nias Barat";"SUMATERA UTARA";"22864";"Indonesia";"";"";"";"0.9806235";"97.5152812";"https://maps.google.com/?cid=0x0:0xd418abf77125b315";""
"komplek housing";"komplek housing";"A/I Keyva Hia";"XGJ8+755, Jl. Hiligeo, Onolimbu, Kec. Lahomi, Kabupaten Nias Barat, Sumatera Utara 22864";"Jl. Hiligeo, Onolimbu, Kec. Lahomi, Kabupaten Nias Barat";"SUMATERA UTARA";"22864";"Indonesia";"";"";"";"0.980628";"97.5154913";"https://maps.google.com/?cid=0x0:0xfe0baea1a6ef8410";""
"komplek housing";"Komplek perumahan";"Rumah Krisven Hia";"XFFX+M37, Lologundre, Kec. Lahomi, Kabupaten Nias Barat, Sumatera Utara 22864";"Lologundre, Kec. Lahomi, Kabupaten Nias Barat";"SUMATERA UTARA";"22864";"Indonesia";" 082168692796";"";"";"0.974493";"97.49744";"https://maps.google.com/?cid=0x0:0x3edc89990c5c5bf5";""
"komplek housing";"Komplek perumahan";"A/I.Cherish Hia";"2F4P+FJ8, Onowaembo, Kec. Lahomi, Kabupaten Nias Barat, Sumatera Utara 22862";"Onowaembo, Kec. Lahomi, Kabupaten Nias Barat";"SUMATERA UTARA";"22862";"Indonesia";"";"";"";"1.0061158";"97.4864633";"https://maps.google.com/?cid=0x0:0x8d285f8d7c374717";""
"komplek housing";"Pembangunan Perumahan";"Desa Hiliadulo";"XGX4+8Q3, Onolimbu, Kec. Lahomi, Kabupaten Nias Barat, Sumatera Utara 22864";"Onolimbu, Kec. Lahomi, Kabupaten Nias Barat";"SUMATERA UTARA";"22864";"Indonesia";"";"";"";"0.998189";"97.506431";"https://maps.google.com/?cid=0x0:0xd7d3733ff836f120";""
"komplek housing";"Perhimpunan Pengembang Perumahan";"Anwar Hia";"XF8V+PC3, Iraonogaila, Kec. Lahomi, Kabupaten Nias Barat, Sumatera Utara";"Kabupaten Nias Barat, Sumatera Utara";"SUMATERA UTARA";"";"Indonesia";"";"";"";"0.966751";"97.4935474";"https://maps.google.com/?cid=0x0:0x11e51df3198aec1b";""
"komplek housing";"Pembangunan Perumahan";"Rumah Carles Hia";"XFFX+M37, Lologundre, Kec. Lahomi, Kabupaten Nias Barat, Sumatera Utara 22864";"Lologundre, Kec. Lahomi, Kabupaten Nias Barat";"SUMATERA UTARA";"22864";"Indonesia";"";"";"";"0.9741682";"97.4976757";"https://maps.google.com/?cid=0x0:0x80df9071d2f564b4";""
"komplek housing";"Komplek perumahan";"Nevan's House";"Jalan Demokrasi Jl. Raya Onolimbu - Lahomi No.9, Onolimbu, Kec. Lahomi, Kabupaten Nias Barat, Sumatera Utara 22864";"Onolimbu, Kec. Lahomi, Kabupaten Nias Barat";"SUMATERA UTARA";"22864";"Indonesia";"";"";"";"1.0025886";"97.4953276";"https://maps.google.com/?cid=0x0:0x2cc6a1d148a7bf7a";""
"komplek housing";"Pembangunan Perumahan";"RUMAH";"XFVR+7XG, Onowaembo, Kec. Lahomi, Kabupaten Nias Barat, Sumatera Utara 22864";"Onowaembo, Kec. Lahomi, Kabupaten Nias Barat";"SUMATERA UTARA";"22864";"Indonesia";"";"";"";"0.9932555";"97.4924738";"https://maps.google.com/?cid=0x0:0x93b47d5a47b8184d";""
"komplek housing";"Komplek perumahan";"Rumah Ama Andalan Hia";"XFXV+MV4, Jalan Raya, Onolimbu, Kec. Lahomi, Kabupaten Nias Barat, Sumatera Utara 22864";"Jalan Raya, Onolimbu, Kec. Lahomi, Kabupaten Nias Barat";"SUMATERA UTARA";"22864";"Indonesia";"";"";"";"0.9991182";"97.4944853";"https://maps.google.com/?cid=0x0:0x331f804608c0aad3";""
"komplek housing";"Perhimpunan Pengembang Perumahan";"Hilihoy";"2F6J+MH3, Hilihoya, Kec. Mandrehe, Kabupaten Nias Barat, Sumatera Utara";"Kabupaten Nias Barat, Sumatera Utara";"SUMATERA UTARA";"";"Indonesia";"";"";"";"1.0116383";"97.4814163";"https://maps.google.com/?cid=0x0:0x43f1e501aeb449a3";""
"komplek housing";"Komplek perumahan";"Rumah I. Kharis Gulo";"2FHP+W38, Simaeasi, Kec. Mandrehe, Kabupaten Nias Barat, Sumatera Utara 22862";"Simaeasi, Kec. Mandrehe, Kabupaten Nias Barat";"SUMATERA UTARA";"22862";"Indonesia";"";"";"";"1.0297868";"97.4852132";"https://maps.google.com/?cid=0x0:0xebe42061807b9591";""
"komplek housing";"Perhimpunan Pengembang Perumahan";"Rumah A/I. Hariati Daeli";"2F6V+7FV, Onolimbu, Kec. Lahomi, Kabupaten Nias Barat, Sumatera Utara 22862";"Onolimbu, Kec. Lahomi, Kabupaten Nias Barat";"SUMATERA UTARA";"22862";"Indonesia";"";"";"";"1.0108492";"97.4937259";"https://maps.google.com/?cid=0x0:0x2db40cfd97d773d6";""
"komplek housing";"Pembangunan Perumahan";"Etorius Daeli";"XGQ3+PH7, Jl. Raya Onolimbu - Lahomi, Sisobambowo, Kec. Lahomi, Kabupaten Nias Barat, Sumatera Utara 22864";"Jl. Raya Onolimbu - Lahomi, Sisobambowo, Kec. Lahomi, Kabupaten Nias Barat";"SUMATERA UTARA";"22864";"Indonesia";"";"";"";"0.989317";"97.5039042";"https://maps.google.com/?cid=0x0:0xb55c6514e1b66275";""
"komplek housing";"Komplek perumahan";"DOLIDEXELFEL";"XFVR+7XG, Onowaembo, Kec. Lahomi, Kabupaten Nias Barat, Sumatera Utara 22864";"Onowaembo, Kec. Lahomi, Kabupaten Nias Barat";"SUMATERA UTARA";"22864";"Indonesia";"";"";"";"0.9931899";"97.4924501";"https://maps.google.com/?cid=0x0:0xcbfb074728e805e4";""
"komplek housing";"Pembangunan Perumahan";"Rumah Tri Handayani Daeli";"XGM2+6FR, Lologundre, Kec. Lahomi, Kabupaten Nias Barat, Sumatera Utara 22864";"Lologundre, Kec. Lahomi, Kabupaten Nias Barat";"SUMATERA UTARA";"22864";"Indonesia";"";"";"";"0.9831376";"97.5013215";"https://maps.google.com/?cid=0x0:0x57aaa562ca6a3808";""
"komplek housing";"Komplek perumahan";"Rumah A/I Brian Gulo";"Jalan Demokrasi No.7, Onolimbu, Kec. Lahomi, Kabupaten Nias Barat, Sumatera Utara 22864";"Onolimbu, Kec. Lahomi, Kabupaten Nias Barat";"SUMATERA UTARA";"22864";"Indonesia";"";"";"";"1.0025783";"97.4953427";"https://maps.google.com/?cid=0x0:0x2c259d5a1c701838";""
"komplek housing";"Perhimpunan Pengembang Perumahan";"Kesa Daeli";"Onowaembo, Kec. Lahomi, Kabupaten Nias Barat, Sumatera Utara 22864";"Kec. Lahomi, Kabupaten Nias Barat";"SUMATERA UTARA";"22864";"Indonesia";" 081316685869";"";"";"0.9772893";"97.483722";"https://maps.google.com/?cid=0x0:0x6f7bebfdde524fd8";""
"komplek housing";"komplek housing";"Sumatera Utara 22875";"Kec. Lolofitu Moi, Kabupaten Nias Barat, Sumatera Utara";"Kabupaten Nias Barat, Sumatera Utara";"SUMATERA UTARA";"";"Indonesia";"";"";"";"1.0588624";"97.5788975";"https://maps.google.com/?cid=0x0:0x9c54d35d78ab160f";""
"komplek housing";"Komplek perumahan";"Komplek Perumahan";"3H5V+WG5, Jl. Tuhembuasi, Lolofitu, Kec. Lolofitu Moi, Kabupaten Nias Barat, Sumatera Utara 22875";"Jl. Tuhembuasi, Lolofitu, Kec. Lolofitu Moi, Kabupaten Nias Barat";"SUMATERA UTARA";"22875";"Indonesia";"";"";"";"1.0599989";"97.593749";"https://maps.google.com/?cid=0x0:0xe26ebd849d620665";""
"komplek housing";"Komplek perumahan";"SOIIWA";"3H6V+2GJ, Jl. Tuhembuasi, Lolofitu, Kec. Lolofitu Moi, Kabupaten Nias Barat, Sumatera Utara 22875";"Jl. Tuhembuasi, Lolofitu, Kec. Lolofitu Moi, Kabupaten Nias Barat";"SUMATERA UTARA";"22875";"Indonesia";"";"";"";"1.0600783";"97.5937752";"https://maps.google.com/?cid=0x0:0xdbb4fc7763c78e31";""
"komplek housing";"Perumahan";"Febi Zai";"Dusun 1 soromaasi, Hilimbuasi, Kec. Lolofitu Moi, Kabupaten Nias Barat";"Kabupaten Nias Barat, Sumatera Utara";"SUMATERA UTARA";"";"Indonesia";"";"";"";"1.0517081";"97.5924474";"https://maps.google.com/?cid=0x0:0x522d915c7ee895b0";""
"komplek housing";"Perhimpunan Pengembang Perumahan";"Rumah A. Mareli Hal";"3JV5+X83, Onombongi, Kec. Lolofitu Moi, Kabupaten Nias Barat, Sumatera Utara";"Kabupaten Nias Barat, Sumatera Utara";"SUMATERA UTARA";"";"Indonesia";"";"";"";"1.0952239";"97.6081784";"https://maps.google.com/?cid=0x0:0x86bd4e7fb4d48dce";""
"komplek housing";"Komplek perumahan";"Rumah Meyman Halawa";"4H2J+488, Lolofitu, Kec. Lolofitu Moi, Kabupaten Nias Barat, Sumatera Utara";"Kabupaten Nias Barat, Sumatera Utara";"SUMATERA UTARA";"";"Indonesia";"";"";"";"1.1002918";"97.5808392";"https://maps.google.com/?cid=0x0:0x52972020a5b23514";""
"komplek housing";"komplek housing";"Rumah Ina Gamara Halawa";"3JV7+8W7, Wango, Kec. Lolofitu Moi, Kabupaten Nias Barat, Sumatera Utara";"Kabupaten Nias Barat, Sumatera Utara";"SUMATERA UTARA";"";"Indonesia";"";"";"";"1.0932936";"97.6148088";"https://maps.google.com/?cid=0x0:0xa28fe247cf23e38a";""
"komplek housing";"Komplek perumahan";"RUMAH A. ELSIE GULO";"2HHV+9C9, Jl, Sisobawino II, Kec. Lolofitu Moi, Kabupaten Nias Barat, Sumatera Utara 22875";"Jl, Sisobawino II, Kec. Lolofitu Moi, Kabupaten Nias Barat";"SUMATERA UTARA";"22875";"Indonesia";"";"";"";"1.0284141";"97.593621";"https://maps.google.com/?cid=0x0:0x247ee83dd70cb440";""
"komplek housing";"Pembangunan Perumahan";"Ina fini";"3HQM+M4, Hiliuso, Kec. Lolofitu Moi, Kabupaten Nias Barat, Sumatera Utara";"Kabupaten Nias Barat, Sumatera Utara";"SUMATERA UTARA";"";"Indonesia";"";"";"";"1.089175";"97.582765";"https://maps.google.com/?cid=0x0:0xf738669fd1d110ff";""
"komplek housing";"Komplek perumahan";"Rumah Pak Lovelly";"3JQ9+VR3, Orahili Idanoi, Kec. Lolofitu Moi, Kabupaten Nias Barat, Sumatera Utara";"Kabupaten Nias Barat, Sumatera Utara";"SUMATERA UTARA";"";"Indonesia";"";"";"";"1.0896322";"97.6195551";"https://maps.google.com/?cid=0x0:0x1cf4e53b0400ad5b";""
"komplek housing";"Pembangunan Perumahan";"A/I PASKA WAR";"3H5V+WHC, Jl. Tuhembuasi, Lolofitu, Kec. Lolofitu Moi, Kabupaten Nias Barat, Sumatera Utara 22875";"Jl. Tuhembuasi, Lolofitu, Kec. Lolofitu Moi, Kabupaten Nias Barat";"SUMATERA UTARA";"22875";"Indonesia";"";"";"";"1.0598722";"97.5938889";"https://maps.google.com/?cid=0x0:0x7f4870bc56be9ded";""
"komplek housing";"Perumahan";"Rumah I Gaferi";"3JR2+5FJ, Wango, Kec. Lolofitu Moi, Kabupaten Nias Barat, Sumatera Utara 22875";"Wango, Kec. Lolofitu Moi, Kabupaten Nias Barat";"SUMATERA UTARA";"22875";"Indonesia";"";"";"";"1.0904536";"97.6011323";"https://maps.google.com/?cid=0x0:0xd145d16f3b2053af";""
"komplek housing";"Komplek perumahan";"Rumah A.Suherman Halawa";"4H2H+FXW, Jl. Gunungsitoli, Lolofaoso, Kec. Lolofitu Moi, Kabupaten Nias Barat, Sumatera Utara 22864";"Jl. Gunungsitoli, Lolofaoso, Kec. Lolofitu Moi, Kabupaten Nias Barat";"SUMATERA UTARA";"22864";"Indonesia";"";"";"";"1.1012392";"97.5799602";"https://maps.google.com/?cid=0x0:0xeac28a174dad065b";""
"komplek housing";"Pembangunan Perumahan";"Rumah oak.Opi halawa";"3JX9+8RW, Awela, Kec. Lolofitu Moi, Kabupaten Nias Barat, Sumatera Utara";"Kabupaten Nias Barat, Sumatera Utara";"SUMATERA UTARA";"";"Indonesia";"";"";"";"1.098373";"97.6195699";"https://maps.google.com/?cid=0x0:0x40a90f83fb82ae7b";""
"komplek housing";"Komplek perumahan";"TEMSON WARUWU";"3H6V+38H, Lolofitu, Kec. Lolofitu Moi, Kabupaten Nias Barat, Sumatera Utara";"Kabupaten Nias Barat, Sumatera Utara";"SUMATERA UTARA";"";"Indonesia";"";"";"";"1.0601871";"97.5933559";"https://maps.google.com/?cid=0x0:0x7164c74e0ad9b738";""
"komplek housing";"Komplek perumahan";"Hiliweto kecamatan onohanzumba desa soroma asi";"2H7R+XWJ, Fadoro Ewo, Kec. Onohazumba, Kabupaten Nias Selatan, Sumatera Utara 22864";"Fadoro Ewo, Kec. Onohazumba, Kabupaten Nias Selatan";"SUMATERA UTARA";"22864";"Indonesia";"";"";"";"1.0149696";"97.5922759";"https://maps.google.com/?cid=0x0:0xb3cf5296911d99a5";""
"komplek housing";"Komplek perumahan";"Rumah A.Nela";"3JV8+WM8, Dusun I, Awela, Kec. Lolofitu Moi, Kabupaten Nias Barat, Sumatera Utara";"Kabupaten Nias Barat, Sumatera Utara";"SUMATERA UTARA";"";"Indonesia";"";"";"";"1.0947899";"97.6167092";"https://maps.google.com/?cid=0x0:0xc0ca7777dbce5f4a";""
"komplek housing";"Komplek perumahan";"Rumah Ama Erni Halawa";"3HGX+54H, Wango, Kec. Lolofitu Moi, Kabupaten Nias Barat, Sumatera Utara 22875";"Wango, Kec. Lolofitu Moi, Kabupaten Nias Barat";"SUMATERA UTARA";"22875";"Indonesia";"";"";"";"1.075436";"97.5978681";"https://maps.google.com/?cid=0x0:0xc3c8b999e028d702";""
"komplek housing";"komplek housing";"Rumah Ina Ceria Halawa";"3JR7+XJM, Wango, Kec. Lolofitu Moi, Kabupaten Nias Barat, Sumatera Utara";"Kabupaten Nias Barat, Sumatera Utara";"SUMATERA UTARA";"";"Indonesia";"";"";"";"1.0924633";"97.6140557";"https://maps.google.com/?cid=0x0:0x5d274fbb5542e1b2";""
"komplek housing";"Komplek perumahan";"A/i. Gasua Gulo";"4J2R+F6R, Atualuo, Kec. Lolofitu Moi, Kabupaten Nias, Sumatera Utara";"Kabupaten Nias, Sumatera Utara";"SUMATERA UTARA";"";"Indonesia";"";"";"";"1.10125";"97.6405166";"https://maps.google.com/?cid=0x0:0xbc04d607a778b55a";""
"komplek housing";"komplek housing";"Kec. Lolofitu Moi";"Kabupaten Nias Barat, Sumatera Utara";"Kabupaten Nias Barat, Sumatera Utara";"SUMATERA UTARA";"";"Indonesia";"";"";"";"1.1004325";"97.5801753";"https://maps.google.com/?cid=0x0:0x955959013251a8d";""
"komplek housing";"komplek housing";"Hilda";"3H6V+2HV, Jl. Tuhembuasi, Lolofitu, Kec. Lolofitu Moi, Kabupaten Nias Barat, Sumatera Utara 22875";"Jl. Tuhembuasi, Lolofitu, Kec. Lolofitu Moi, Kabupaten Nias Barat";"SUMATERA UTARA";"22875";"Indonesia";"";"";"";"1.0601187";"97.5939342";"https://maps.google.com/?cid=0x0:0xe2c16286c177e04";""
"komplek housing";"komplek housing";"Sumatera Utara 22862";"Kabupaten Nias Barat, Sumatera Utara";"Kabupaten Nias Barat, Sumatera Utara";"SUMATERA UTARA";"";"Indonesia";"";"";"";"1.0305654";"97.5030669";"https://maps.google.com/?cid=0x0:0x343297d388925be1";""
"komplek housing";"Pembangunan Perumahan";"Cael Gulo";"2FXQ+9JH, Fadoro, Kec. Mandrehe, Kabupaten Nias Barat, Sumatera Utara 22862";"Fadoro, Kec. Mandrehe, Kabupaten Nias Barat";"SUMATERA UTARA";"22862";"Indonesia";"";"";"";"1.0484327";"97.489095";"https://maps.google.com/?cid=0x0:0x1a0d1213ed34c212";""
"komplek housing";"Jasa Potong Rumput";"PANGKAS PLANET";"2FXQ+9JH, Fadoro, Kec. Mandrehe, Kabupaten Nias Barat, Sumatera Utara 22862";"Fadoro, Kec. Mandrehe, Kabupaten Nias Barat";"SUMATERA UTARA";"22862";"Indonesia";"";"";"";"1.0483904";"97.4890813";"https://maps.google.com/?cid=0x0:0x28d8a40eb107c749";""
"komplek housing";"Komplek perumahan";"Rumah A/I Selvi Gulo";"3F3F+WVM, Tetehosi, Kec. Mandrehe, Kabupaten Nias Barat, Sumatera Utara 22862";"Tetehosi, Kec. Mandrehe, Kabupaten Nias Barat";"SUMATERA UTARA";"22862";"Indonesia";"";"";"";"1.0548264";"97.4746859";"https://maps.google.com/?cid=0x0:0x962b955cf34000af";""
"komplek housing";"Komplek perumahan";"Rumah I. Kharis Gulo";"2FHP+W38, Simaeasi, Kec. Mandrehe, Kabupaten Nias Barat, Sumatera Utara 22862";"Simaeasi, Kec. Mandrehe, Kabupaten Nias Barat";"SUMATERA UTARA";"22862";"Indonesia";"";"";"";"1.0297868";"97.4852132";"https://maps.google.com/?cid=0x0:0xebe42061807b9591";""
"komplek housing";"Perumahan";"BESOKHI GULO";"2CVM+XMX, Orahili Badalu, Kec. Mandrehe Bar., Kabupaten Nias Barat, Sumatera Utara 22862";"Orahili Badalu, Kec. Mandrehe Bar., Kabupaten Nias Barat";"SUMATERA UTARA";"22862";"Indonesia";" 082237124174";"";"";"1.044979";"97.4342298";"https://maps.google.com/?cid=0x0:0x25777d846ee827d1";""
"komplek housing";"Asosiasi pemilik rumah";"Mr. Rini's";"Lolohia Mandrehe Bar. No.22, Sisobambowo, Kec. Mandrehe, Kabupaten Nias Barat, Sumatera Utara 22862";"Sisobambowo, Kec. Mandrehe, Kabupaten Nias Barat";"SUMATERA UTARA";"22862";"Indonesia";"";"";"";"1.021621";"97.4634311";"https://maps.google.com/?cid=0x0:0x7d93f06d4c0bea65";""
"komplek housing";"Komplek perumahan";"Rumah Orang Tua Oloheta Hia";"2C4V+WXF, Sisobambowo, Kec. Mandrehe, Kabupaten Nias Barat, Sumatera Utara 22812";"Sisobambowo, Kec. Mandrehe, Kabupaten Nias Barat";"SUMATERA UTARA";"22812";"Indonesia";"";"";"";"1.0075162";"97.4445704";"https://maps.google.com/?cid=0x0:0x2199f0f685b7bd02";""
"komplek housing";"Komplek perumahan";"elsaa hulu";"2FGX+83J, Simaeasi, Kec. Mandrehe, Kabupaten Nias Barat, Sumatera Utara 22862";"Simaeasi, Kec. Mandrehe, Kabupaten Nias Barat";"SUMATERA UTARA";"22862";"Indonesia";"";"";"";"1.025833";"97.4976536";"https://maps.google.com/?cid=0x0:0x77c64cf546cd6016";""
"komplek housing";"Komplek perumahan";"Pertapakan tanah milik dinema waruwu";"2FRR+X8Q, Fadoro, Kec. Mandrehe, Kabupaten Nias Barat, Sumatera Utara 22862";"Fadoro, Kec. Mandrehe, Kabupaten Nias Barat";"SUMATERA UTARA";"22862";"Indonesia";"";"";"";"1.0424571";"97.4908445";"https://maps.google.com/?cid=0x0:0xed2e986f63681721";""
"komplek housing";"Komplek perumahan";"Rumah I. Fersi Gulo";"2FMP+2F5, Dusan 1 Lasarabahili, Simaeasi, Mandrehe, West Nias Regency, North Sumatra 22862";"Dusan 1 Lasarabahili, Simaeasi, Mandrehe, West Nias Regency";"SUMATERA UTARA";"22862";"Indonesia";"";"";"";"1.0325248";"97.4862378";"https://maps.google.com/?cid=0x0:0xfd991c7d245317fd";""
"komplek housing";"Komplek perumahan";"Rumah A. Wita Gulo";"Jl. Tetehosi, Tetehosi, Kec. Mandrehe, Kabupaten Nias Barat, Sumatera Utara 22862";"Tetehosi, Kec. Mandrehe, Kabupaten Nias Barat";"SUMATERA UTARA";"22862";"Indonesia";"";"";"";"1.0494558";"97.4769446";"https://maps.google.com/?cid=0x0:0xfe54fa09283b15cb";""
"komplek housing";"Komplek perumahan";"Rumah A/I.Befi Gulo";"2FRV+VR9, Sianaa, Kec. Mandrehe, Kabupaten Nias Barat, Sumatera Utara 22862";"Sianaa, Kec. Mandrehe, Kabupaten Nias Barat";"SUMATERA UTARA";"22862";"Indonesia";"";"";"";"1.0421534";"97.4945962";"https://maps.google.com/?cid=0x0:0xdfb096a9324cd329";""
"komplek housing";"Toko";"Rumah A/I HAYATI HIA";"XCMQ+9X, Ononamolo III, Kec. Mandrehe Bar., Kabupaten Nias Barat, Sumatera Utara";"Kabupaten Nias Barat, Sumatera Utara";"SUMATERA UTARA";"";"Indonesia";"";"";"";"0.9834701";"97.43996";"https://maps.google.com/?cid=0x0:0x39565c9485fd8293";""
"komplek housing";"Perhimpunan Pengembang Perumahan";"Rumah A. Mechris Zebua";"2CPH+WWF, Lasara Faga, Kec. Mandrehe Bar., Kabupaten Nias Barat, Sumatera Utara";"Kabupaten Nias Barat, Sumatera Utara";"SUMATERA UTARA";"";"Indonesia";"";"";"";"1.0373004";"97.4297867";"https://maps.google.com/?cid=0x0:0x60cc2d22809bf56a";""
"komplek housing";"Komplek perumahan";"Gayung lope";"3F3R+2V6, Fadoro, Kec. Mandrehe, Kabupaten Nias Barat, Sumatera Utara 22862";"Fadoro, Kec. Mandrehe, Kabupaten Nias Barat";"SUMATERA UTARA";"22862";"Indonesia";"";"";"";"1.0526597";"97.492129";"https://maps.google.com/?cid=0x0:0x6d57037f4a145c19";""
"komplek housing";"Komplek perumahan";"Rumah Ama Wita Gulo";"3G77+3QQ, Jl. Lakhene, Doli Doli, Kec. Mandrehe, Kabupaten Nias Barat, Sumatera Utara 22862";"Jl. Lakhene, Doli Doli, Kec. Mandrehe, Kabupaten Nias Barat";"SUMATERA UTARA";"22862";"Indonesia";"";"";"";"1.0627087";"97.5144805";"https://maps.google.com/?cid=0x0:0x9f3385333b07d05";""
"komplek housing";"komplek housing";"Rumah Ama Ina Jasver Gulo (Toko JPR)";"2FXR+JXX, Fadoro, Kec. Mandrehe, Kabupaten Nias Barat, Sumatera Utara 22862";"Fadoro, Kec. Mandrehe, Kabupaten Nias Barat";"SUMATERA UTARA";"22862";"Indonesia";"";"";"";"1.0495329";"97.4927405";"https://maps.google.com/?cid=0x0:0x678b7c043162b3f4";""
"komplek housing";"Komplek perumahan";"Cece Gulo";"2CWJ+GFG, Orahili Badalu, Kec. Mandrehe Bar., Kabupaten Nias Barat, Sumatera Utara 22862";"Orahili Badalu, Kec. Mandrehe Bar., Kabupaten Nias Barat";"SUMATERA UTARA";"22862";"Indonesia";"";"";"";"1.0463235";"97.4311979";"https://maps.google.com/?cid=0x0:0x7fc13eba88582e34";""
"komplek housing";"Perumahan";"Rumah ina Surya";"3F6P+VFH, Sisarahili I, Kec. Mandrehe, Kabupaten Nias Barat, Sumatera Utara";"Kabupaten Nias Barat, Sumatera Utara";"SUMATERA UTARA";"";"Indonesia";"";"";"";"1.0621771";"97.4862294";"https://maps.google.com/?cid=0x0:0xbba0c5081ed8df2d";""
"komplek housing";"komplek housing";"Ina Silvi Cottage";"Pulau asu, Asu island, Kabupaten Nias Barat, Sumatera Utara";"Kabupaten Nias Barat, Sumatera Utara";"SUMATERA UTARA";"";"Indonesia";" 081263165649";"";"";"0.9057043";"97.2788176";"https://maps.google.com/?cid=0x0:0x874fd68b28ac8180";""
"komplek housing";"komplek housing";"Kec. Mandrehe Bar.";"Kabupaten Nias Barat, Sumatera Utara";"Kabupaten Nias Barat, Sumatera Utara";"SUMATERA UTARA";"";"Indonesia";"";"";"";"0.998808";"97.4182241";"https://maps.google.com/?cid=0x0:0x7de90688f484314d";""
"komplek housing";"Komplek perumahan";"Rumah Fidelis Gulo/ama fide";"3CC7+XCM, Sidua Hili, Kec. Moro'o, Kabupaten Nias Barat, Sumatera Utara 22862";"Sidua Hili, Kec. Moro'o, Kabupaten Nias Barat";"SUMATERA UTARA";"22862";"Indonesia";"";"";"";"1.0721092";"97.4148438";"https://maps.google.com/?cid=0x0:0x2883ca6d99113fe9";""
"komplek housing";"Komplek perumahan";"Rumah Ina lia gulo";"2F7R+996, Simaeasi, Kec. Mandrehe, Kabupaten Nias Barat, Sumatera Utara 22862";"Simaeasi, Kec. Mandrehe, Kabupaten Nias Barat";"SUMATERA UTARA";"22862";"Indonesia";"";"";"";"1.0134125";"97.490877";"https://maps.google.com/?cid=0x0:0xa3bcc49cfd200681";""
"komplek housing";"Perhimpunan Pengembang Perumahan";"Rumah A/I. Hariati Daeli";"2F6V+7FV, Onolimbu, Kec. Lahomi, Kabupaten Nias Barat, Sumatera Utara 22862";"Onolimbu, Kec. Lahomi, Kabupaten Nias Barat";"SUMATERA UTARA";"22862";"Indonesia";"";"";"";"1.0108492";"97.4937259";"https://maps.google.com/?cid=0x0:0x2db40cfd97d773d6";""
"komplek housing";"Komplek perumahan";"A/I.Cherish Hia";"2F4P+FJ8, Onowaembo, Kec. Lahomi, Kabupaten Nias Barat, Sumatera Utara 22862";"Onowaembo, Kec. Lahomi, Kabupaten Nias Barat";"SUMATERA UTARA";"22862";"Indonesia";"";"";"";"1.0061158";"97.4864633";"https://maps.google.com/?cid=0x0:0x8d285f8d7c374717";""
"komplek housing";"Komplek perumahan";"Rumah memorius waruwu";"2FHF+2MH, dusun dua, togimbuaya, Kec. Mandrehe, Kabupaten Nias Barat, Sumatera Utara 22862";"dusun dua, togimbuaya, Kec. Mandrehe, Kabupaten Nias Barat";"SUMATERA UTARA";"22862";"Indonesia";"";"";"";"1.0275512";"97.474365";"https://maps.google.com/?cid=0x0:0x1ea7f47bb2e267d3";""
"komplek housing";"Komplek perumahan";"Rumah Ronaldus Laia";"2F8P+H4Q, Jl. Raya Onolimbu - Lahomi, Iraono Gambo, Kec. Mandrehe, Kabupaten Nias Barat, Sumatera Utara 22862";"Jl. Raya Onolimbu - Lahomi, Iraono Gambo, Kec. Mandrehe, Kabupaten Nias Barat";"SUMATERA UTARA";"22862";"Indonesia";"";"";"";"1.0164589";"97.4853925";"https://maps.google.com/?cid=0x0:0xa77a7f57883e309e";""
"komplek housing";"Komplek perumahan";"Rumah A. Berkat Gulo";"2FHP+W38, Simaeasi, Kec. Mandrehe, Kabupaten Nias Barat, Sumatera Utara 22862";"Simaeasi, Kec. Mandrehe, Kabupaten Nias Barat";"SUMATERA UTARA";"22862";"Indonesia";"";"";"";"1.0303621";"97.4855836";"https://maps.google.com/?cid=0x0:0xde3f372f1b94f30e";""
"komplek housing";"komplek housing";"Sumatera Utara 22867";"Kabupaten Nias Selatan, Sumatera Utara";"Kabupaten Nias Selatan, Sumatera Utara";"SUMATERA UTARA";"";"Indonesia";"";"";"";"0.9212063";"97.6710889";"https://maps.google.com/?cid=0x0:0xe28ccee9e4064a40";""
"komplek housing";"Komplek perumahan";"Rumah Pak Feberman Ndruru";"Jalan Ulunoyo, Hiliotalua, Kec. Lolomatua, Kabupaten Nias Selatan, Sumatera Utara 22867";"Hiliotalua, Kec. Lolomatua, Kabupaten Nias Selatan";"SUMATERA UTARA";"22867";"Indonesia";"";"";"";"0.9425669";"97.6412489";"https://maps.google.com/?cid=0x0:0x6259e9577c4a1781";""
"komplek housing";"Komplek perumahan";"El. Laia";"XJ6C+MV, Hilisangowola, Kec. Lolomatua, Kabupaten Nias Selatan, Sumatera Utara";"Kabupaten Nias Selatan, Sumatera Utara";"SUMATERA UTARA";"";"Indonesia";"";"";"";"0.9617114";"97.6222302";"https://maps.google.com/?cid=0x0:0xedde2ae9c002211e";""
"komplek housing";"komplek housing";"Rumah Ama Yulfit Giawa";"VHXJ+F8R, Desa Hilikara, Kec. Lalowau, Kabupaten Nias Selatan, Sumatera Utara 22864";"Desa Hilikara, Kec. Lalowau, Kabupaten Nias Selatan";"SUMATERA UTARA";"22864";"Indonesia";"";"";"";"0.8987401";"97.5807578";"https://maps.google.com/?cid=0x0:0x96698a8175730337";""
"komplek housing";"Komplek perumahan";"Rumah Ama Erwin Halawa";"WMJ2+47F, Jl. Tuhemberua, Hiliwaebu, Kecamatan Ulunoyo, Kabupaten Nias Selatan, Sumatera Utara 22867";"Jl. Tuhemberua, Hiliwaebu, Kecamatan Ulunoyo, Kabupaten Nias Selatan";"SUMATERA UTARA";"22867";"Indonesia";"";"";"";"0.9303248";"97.6506857";"https://maps.google.com/?cid=0x0:0xd0bf6da072cb2c5";""
"komplek housing";"Perumahan";"Rmh ama mefi ndruru";"WMWH+J9X, Hiliuso, Kec. Lolomatua, Kabupaten Nias Selatan, Sumatera Utara 22861";"Hiliuso, Kec. Lolomatua, Kabupaten Nias Selatan";"SUMATERA UTARA";"22861";"Indonesia";"";"";"";"0.9465868";"97.678468";"https://maps.google.com/?cid=0x0:0xefe288b9f87f01e";""
"komplek housing";"Komplek perumahan";"Rumah A.Derman Halawa";"XJP9+GQG, Jl. Soliga, Desa Olayama, Kec. Huruna, Kabupaten Nias Selatan, Sumatera Utara 22864";"Jl. Soliga, Desa Olayama, Kec. Huruna, Kabupaten Nias Selatan";"SUMATERA UTARA";"22864";"Indonesia";"";"";"";"0.9863076";"97.6194402";"https://maps.google.com/?cid=0x0:0x7993ea95565fb6fb";""
"komplek housing";"Pembangunan Perumahan";"A.Evy";"WJM5+FFW, Dusun I, Soledua, Induk, Sisobahili, Kec. Hilimegai, Kabupaten Nias Selatan";"Kabupaten Nias Selatan, Sumatera Utara";"SUMATERA UTARA";"";"Indonesia";"";"";"";"0.9337436";"97.6086896";"https://maps.google.com/?cid=0x0:0xd3eacc6269c6d7cc";""
"komplek housing";"Pembangunan Perumahan";"Lolomatua";"WM79+J9R, Amorosa, Kecamatan Ulunoyo, Kabupaten Nias Selatan, Sumatera Utara 22867";"Amorosa, Kecamatan Ulunoyo, Kabupaten Nias Selatan";"SUMATERA UTARA";"22867";"Indonesia";"";"";"";"0.9141163";"97.6683756";"https://maps.google.com/?cid=0x0:0xcbb965aef8ef4632";""
"komplek housing";"Pembangunan Perumahan";"Rumah KIM HAL";"XJP9+GQG, Jl. Soliga, Desa Olayama, Kec. Huruna, Kabupaten Nias Selatan, Sumatera Utara 22864";"Jl. Soliga, Desa Olayama, Kec. Huruna, Kabupaten Nias Selatan";"SUMATERA UTARA";"22864";"Indonesia";"";"";"";"0.9862405";"97.6198158";"https://maps.google.com/?cid=0x0:0xbd45046ea11c2038";""
"komplek housing";"Komplek perumahan";"R. FAFORI L";"WM95+R3R, Dusun 4, Tuhemberua, Kecamatan Ulunoyo, Kabupaten Nias Selatan, Sumatera Utara";"Kabupaten Nias Selatan, Sumatera Utara";"SUMATERA UTARA";"";"Indonesia";"";"";"";"0.9196055";"97.6576383";"https://maps.google.com/?cid=0x0:0xb42357333aa82f18";""
"komplek housing";"Kantor Pemerintah";"Orudua Sibohou";"VM3V+6MV, Oladano,Orudua Sibohou, Fondrakoraya, Kec. Ulususua, Kabupaten Nias Selatan, Sumatera Utara 22866";"Oladano,Orudua Sibohou, Fondrakoraya, Kec. Ulususua, Kabupaten Nias Selatan";"SUMATERA UTARA";"22866";"Indonesia";"";"";"";"0.853101";"97.694161";"https://maps.google.com/?cid=0x0:0x74211a474d5fc1dd";""
"komplek housing";"Komplek perumahan";"Delisman";"XJ37+PWG, Hilisangowola, Kec. Lolomatua, Kabupaten Nias Selatan, Sumatera Utara";"Kabupaten Nias Selatan, Sumatera Utara";"SUMATERA UTARA";"";"Indonesia";"";"";"";"0.9543096";"97.6148253";"https://maps.google.com/?cid=0x0:0xb832051c3c32f1f0";""
"komplek housing";"Otoritas Perumahan";"KELUARGA STEPHAN";"XJW9+53X, Jl. Lōlōwa'u, Ehosakhozi, Kec. Huruna, Kabupaten Nias Selatan, Sumatera Utara 22852";"Jl. Lōlōwa'u, Ehosakhozi, Kec. Huruna, Kabupaten Nias Selatan";"SUMATERA UTARA";"22852";"Indonesia";"";"";"";"0.995373";"97.6178328";"https://maps.google.com/?cid=0x0:0x1d44e4ee88d5e714";""
"komplek housing";"Balai masyarakat";"Rumah Ina Lenny Ndruru";"WMF2+MQM, Hiliwaebu, Kec. Lolomatua, Kabupaten Nias Selatan, Sumatera Utara";"Kabupaten Nias Selatan, Sumatera Utara";"SUMATERA UTARA";"";"Indonesia";"";"";"";"0.9242166";"97.6519165";"https://maps.google.com/?cid=0x0:0x7cca45f0dc7c0fa4";""
"komplek housing";"Pembangunan Perumahan";"Meidar Ndruru";"WMF2+PPF, Hiliwaebu, Kecamatan Ulunoyo, Kabupaten Nias Selatan, Sumatera Utara";"Kabupaten Nias Selatan, Sumatera Utara";"SUMATERA UTARA";"";"Indonesia";"";"";"";"0.9243184";"97.6517942";"https://maps.google.com/?cid=0x0:0x337e26c506580442";""
"komplek housing";"Komplek perumahan";"Rumah A. EDU LAIA";"WJWP+HPG, Jl. Ulunoyo Desa Koendrafo (Pekan, Jl. Hililaza, Hiliotalua, Kec. Lolomatua, Kabupaten Nias Selatan, Sumatera Utara 22864";"Jl. Ulunoyo Desa Koendrafo (Pekan, Jl. Hililaza, Hiliotalua, Kec. Lolomatua, Kabupaten Nias Selatan";"SUMATERA UTARA";"22864";"Indonesia";"";"";"";"0.9466473";"97.6368603";"https://maps.google.com/?cid=0x0:0xc4187cc8c32adbc3";""
"komplek housing";"Perhimpunan Pengembang Perumahan";"Pusman ndruru";"WJVP+HMX, Hiliotalua, Kec. Lolomatua, Kabupaten Nias Selatan, Sumatera Utara";"Kabupaten Nias Selatan, Sumatera Utara";"SUMATERA UTARA";"";"Indonesia";"";"";"";"0.9439993";"97.6367272";"https://maps.google.com/?cid=0x0:0xc7f415e9df551f52";""
"komplek housing";"Komplek perumahan";"A.sesi ndr";"XJ28+WQV, Hilisangowola, Kec. Lolomatua, Kabupaten Nias Selatan, Sumatera Utara";"Kabupaten Nias Selatan, Sumatera Utara";"SUMATERA UTARA";"";"Indonesia";"";"";"";"0.9523606";"97.6169211";"https://maps.google.com/?cid=0x0:0x79f711545e920c60";""
"komplek housing";"komplek housing";"Kec. Mandrehe Bar.";"Kabupaten Nias Barat, Sumatera Utara";"Kabupaten Nias Barat, Sumatera Utara";"SUMATERA UTARA";"";"Indonesia";"";"";"";"0.998808";"97.4182241";"https://maps.google.com/?cid=0x0:0x7de90688f484314d";""
"komplek housing";"komplek housing";"Sumatera Utara 22812";"Kabupaten Nias Barat, Sumatera Utara";"Kabupaten Nias Barat, Sumatera Utara";"SUMATERA UTARA";"";"Indonesia";"";"";"";"1.0164701";"97.4435441";"https://maps.google.com/?cid=0x0:0xd11190b65d8d63eb";""
"komplek housing";"Perhimpunan Pengembang Perumahan";"PERTIGAAN MA'U- KEC. MANDREHE UTARA";"Jl. Ononamölö No.1, Sisarahili II, Kec. Mandrehe Utara, Kabupaten Nias Barat, Sumatera Utara 22861";"Sisarahili II, Kec. Mandrehe Utara, Kabupaten Nias Barat";"SUMATERA UTARA";"22861";"Indonesia";"";"";"";"0.9997224";"97.4193359";"https://maps.google.com/?cid=0x0:0xe70d89e9a6a73";""
"komplek housing";"Komplek perumahan";"Rumah Orang Tua Oloheta Hia";"2C4V+WXF, Sisobambowo, Kec. Mandrehe, Kabupaten Nias Barat, Sumatera Utara 22812";"Sisobambowo, Kec. Mandrehe, Kabupaten Nias Barat";"SUMATERA UTARA";"22812";"Indonesia";"";"";"";"1.0075162";"97.4445704";"https://maps.google.com/?cid=0x0:0x2199f0f685b7bd02";""
"komplek housing";"Komplek perumahan";"Rumah Tito Hia";"2F62+9RC, Jl. Desa, Sisobambowo, Kec. Mandrehe, Kabupaten Nias Barat, Sumatera Utara 22812";"Jl. Desa, Sisobambowo, Kec. Mandrehe, Kabupaten Nias Barat";"SUMATERA UTARA";"22812";"Indonesia";"";"";"";"1.0108539";"97.4520382";"https://maps.google.com/?cid=0x0:0xb32d0e10a6c5d02d";""
"komplek housing";"Komplek perumahan";"Perumahan tegide'u City";"XCCJ+WQV, Togideu, Kec. Sirombu, Kabupaten Nias Barat, Sumatera Utara 22812";"Togideu, Kec. Sirombu, Kabupaten Nias Barat";"SUMATERA UTARA";"22812";"Indonesia";"";"";"";"0.9716537";"97.4316897";"https://maps.google.com/?cid=0x0:0x6f8c901501e16afd";""
"komplek housing";"Komplek perumahan";"TIAN HIAZZ";"2C4R+QV7, Sisobambowo, Kec. Mandrehe, Kabupaten Nias Barat, Sumatera Utara 22812";"Sisobambowo, Kec. Mandrehe, Kabupaten Nias Barat";"SUMATERA UTARA";"22812";"Indonesia";"";"";"";"1.0069068";"97.4421845";"https://maps.google.com/?cid=0x0:0x5a716192af984093";""
"komplek housing";"Komplek perumahan";"Abng da adi";"XCP8+QJG, Sisarahili II, Kec. Mandrehe Bar., Kabupaten Nias Barat, Sumatera Utara 22812";"Sisarahili II, Kec. Mandrehe Bar., Kabupaten Nias Barat";"SUMATERA UTARA";"22812";"Indonesia";"";"";"";"0.9869378";"97.4165901";"https://maps.google.com/?cid=0x0:0xe10cfc7f3907c3ad";""
"komplek housing";"Toko";"Rumah A/I HAYATI HIA";"XCMQ+9X, Ononamolo III, Kec. Mandrehe Bar., Kabupaten Nias Barat, Sumatera Utara";"Kabupaten Nias Barat, Sumatera Utara";"SUMATERA UTARA";"";"Indonesia";"";"";"";"0.9834701";"97.43996";"https://maps.google.com/?cid=0x0:0x39565c9485fd8293";""
"komplek housing";"Perhimpunan Pengembang Perumahan";"Rumah A. Mechris Zebua";"2CPH+WWF, Lasara Faga, Kec. Mandrehe Bar., Kabupaten Nias Barat, Sumatera Utara";"Kabupaten Nias Barat, Sumatera Utara";"SUMATERA UTARA";"";"Indonesia";"";"";"";"1.0373004";"97.4297867";"https://maps.google.com/?cid=0x0:0x60cc2d22809bf56a";""
"komplek housing";"Asosiasi pemilik rumah";"Mr. Rini's";"Lolohia Mandrehe Bar. No.22, Sisobambowo, Kec. Mandrehe, Kabupaten Nias Barat, Sumatera Utara 22862";"Sisobambowo, Kec. Mandrehe, Kabupaten Nias Barat";"SUMATERA UTARA";"22862";"Indonesia";"";"";"";"1.021621";"97.4634311";"https://maps.google.com/?cid=0x0:0x7d93f06d4c0bea65";""
"komplek housing";"Komplek perumahan";"Rumah A/i Cris Zebua";"2CGR+629, Mazingo, Kec. Mandrehe Bar., Kabupaten Nias Barat, Sumatera Utara 22812";"Mazingo, Kec. Mandrehe Bar., Kabupaten Nias Barat";"SUMATERA UTARA";"22812";"Indonesia";"";"";"";"1.026687";"97.439465";"https://maps.google.com/?cid=0x0:0x3b3b3f7beddc61e4";""
"komplek housing";"Sekolah";"Lasarafaga";"2CHG+G7M, Lasara Faga, Kec. Mandrehe Bar., Kabupaten Nias Barat, Sumatera Utara 22812";"Lasara Faga, Kec. Mandrehe Bar., Kabupaten Nias Barat";"SUMATERA UTARA";"22812";"Indonesia";"";"";"";"1.0298077";"97.4261862";"https://maps.google.com/?cid=0x0:0x47738fd2dd5f8608";""
"komplek housing";"Komplek perumahan";"Rumah Nining Zebua";"XCX9+RFR, Sisarahili II, Kec. Mandrehe Bar., Kabupaten Nias Barat, Sumatera Utara 22812";"Sisarahili II, Kec. Mandrehe Bar., Kabupaten Nias Barat";"SUMATERA UTARA";"22812";"Indonesia";"";"";"";"0.9996192";"97.4185755";"https://maps.google.com/?cid=0x0:0xdb57f62cac91b15b";""
"komplek housing";"Perumahan";"Rumah Abell Hia";"2FC6+9QV, Lolohia, Kec. Mandrehe, Kabupaten Nias Barat, Sumatera Utara";"Kabupaten Nias Barat, Sumatera Utara";"SUMATERA UTARA";"";"Indonesia";"";"";"";"1.0209952";"97.4619254";"https://maps.google.com/?cid=0x0:0xf01717f508fe5f42";""
"komplek housing";"Komplek perumahan";"Rumah jones";"2CWM+3V5, Orahili Badalu, Kec. Mandrehe Bar., Kabupaten Nias Barat, Sumatera Utara 22812";"Orahili Badalu, Kec. Mandrehe Bar., Kabupaten Nias Barat";"SUMATERA UTARA";"22812";"Indonesia";"";"";"";"1.0451436";"97.43473";"https://maps.google.com/?cid=0x0:0xb7f7cf0a0d95d134";""
"komplek housing";"Perhimpunan Pengembang Perumahan";"Hilihoy";"2F6J+MH3, Hilihoya, Kec. Mandrehe, Kabupaten Nias Barat, Sumatera Utara";"Kabupaten Nias Barat, Sumatera Utara";"SUMATERA UTARA";"";"Indonesia";"";"";"";"1.0116383";"97.4814163";"https://maps.google.com/?cid=0x0:0x43f1e501aeb449a3";""
"komplek housing";"komplek housing";"Rumah Ama juli Gulo";"2C46+36J, Sisarahili II, Kec. Mandrehe Bar., Kabupaten Nias Barat, Sumatera Utara 22812";"Sisarahili II, Kec. Mandrehe Bar., Kabupaten Nias Barat";"SUMATERA UTARA";"22812";"Indonesia";"";"";"";"1.0052176";"97.4105197";"https://maps.google.com/?cid=0x0:0xa5e3d5c4cc70a349";""
"komplek housing";"Perhimpunan Pengembang Perumahan";"Hiliwaito city";"XCP7+4C, Sisarahili II, Kec. Mandrehe Bar., Kabupaten Nias Barat, Sumatera Utara";"Kabupaten Nias Barat, Sumatera Utara";"SUMATERA UTARA";"";"Indonesia";"";"";"";"0.9853301";"97.4134869";"https://maps.google.com/?cid=0x0:0x58f9bf1f15a72cf1";""
"komplek housing";"Komplek perumahan";"Advendio Bestedi Zebua";"2CFF+GX8, Jl. Fabaliwa - Sirombu, Sisobandrao, Kec. Mandrehe Bar., Kabupaten Nias Barat, Sumatera Utara 22812";"Jl. Fabaliwa - Sirombu, Sisobandrao, Kec. Mandrehe Bar., Kabupaten Nias Barat";"SUMATERA UTARA";"22812";"Indonesia";"";"";"";"1.0234061";"97.4243955";"https://maps.google.com/?cid=0x0:0x2ea5cf76eaccf32c";""
"komplek housing";"Perumahan";"BESOKHI GULO";"2CVM+XMX, Orahili Badalu, Kec. Mandrehe Bar., Kabupaten Nias Barat, Sumatera Utara 22862";"Orahili Badalu, Kec. Mandrehe Bar., Kabupaten Nias Barat";"SUMATERA UTARA";"22862";"Indonesia";" 082237124174";"";"";"1.044979";"97.4342298";"https://maps.google.com/?cid=0x0:0x25777d846ee827d1";""
"komplek housing";"komplek housing";"Kec. Mandrehe Bar.";"Kabupaten Nias Barat, Sumatera Utara";"Kabupaten Nias Barat, Sumatera Utara";"SUMATERA UTARA";"";"Indonesia";"";"";"";"0.998808";"97.4182241";"https://maps.google.com/?cid=0x0:0x7de90688f484314d";""
"komplek housing";"Komplek perumahan";"YUSUFRONI ZILIWU";"XCJ7+H7R, Jl. Gawuhao, Onolimburaya, Kec. Mandrehe Bar., Kabupaten Nias Barat, Sumatera Utara 22812";"Jl. Gawuhao, Onolimburaya, Kec. Mandrehe Bar., Kabupaten Nias Barat";"SUMATERA UTARA";"22812";"Indonesia";"";"";"";"0.9814921";"97.4131263";"https://maps.google.com/?cid=0x0:0xfa4e486cf6de92f2";""
"komplek housing";"Komplek perumahan";"Fadoro kec Mandrehe Kab Nias barat";"2FWV+FQH, Fadoro, Kec. Mandrehe, Kabupaten Nias Barat, Sumatera Utara 22862";"Fadoro, Kec. Mandrehe, Kabupaten Nias Barat";"SUMATERA UTARA";"22862";"Indonesia";"";"";"";"1.045733";"97.494167";"https://maps.google.com/?cid=0x0:0x3dd9dcd0521e3e57";""
"komplek housing";"komplek housing";"Rumah Ama Ella Zai";"2CFF+GX8, Jl. Fabaliwa - Sirombu, Sisobandrao, Kec. Mandrehe Bar., Kabupaten Nias Barat, Sumatera Utara 22812";"Jl. Fabaliwa - Sirombu, Sisobandrao, Kec. Mandrehe Bar., Kabupaten Nias Barat";"SUMATERA UTARA";"22812";"Indonesia";"";"";"";"1.0236871";"97.4248103";"https://maps.google.com/?cid=0x0:0x8fc31cc15bfd32a9";""
"komplek housing";"komplek housing";"Rumah ERWIN LAOLI";"7JQ9+8Q6, Ps. Gn. Sitoli, Kec. Gunungsitoli, Kota Gunungsitoli, Sumatera Utara";"Kota Gunungsitoli, Sumatera Utara";"SUMATERA UTARA";"";"Indonesia";"";"";"";"1.2882883";"97.6193977";"https://maps.google.com/?cid=0x0:0x481fdf22aff69f8f";""
"komplek housing";"komplek housing";"Sumatera Utara 22814";"Saombo, Kec. Gunungsitoli, Kota Gunungsitoli, Sumatera Utara";"Kota Gunungsitoli, Sumatera Utara";"SUMATERA UTARA";"";"Indonesia";"";"";"";"1.2897758";"97.6188016";"https://maps.google.com/?cid=0x0:0x72677cb0cc3dbd55";""
"komplek housing";"Komplek perumahan";"Rijen";"Jl. Imam Bonjol, Saombo, Kec. Gunungsitoli, Kota Gunungsitoli, Sumatera Utara";"Kota Gunungsitoli, Sumatera Utara";"SUMATERA UTARA";"";"Indonesia";"";"";"";"1.2897906";"97.6171237";"https://maps.google.com/?cid=0x0:0x91f9a77996667213";""
"komplek housing";"komplek housing";"Kec. Mandrehe";"Kabupaten Nias Barat, Sumatera Utara";"Kabupaten Nias Barat, Sumatera Utara";"SUMATERA UTARA";"";"Indonesia";"";"";"";"1.0502205";"97.490564";"https://maps.google.com/?cid=0x0:0x5575236955039e3e";""
"komplek housing";"komplek housing";"Sumatera Utara 22862";"Kabupaten Nias Barat, Sumatera Utara";"Kabupaten Nias Barat, Sumatera Utara";"SUMATERA UTARA";"";"Indonesia";"";"";"";"1.0305654";"97.5030669";"https://maps.google.com/?cid=0x0:0x343297d388925be1";""
"komplek housing";"Komplek perumahan";"Rumah Dinas Kesehatan Moro'o";"3CGP+953, Halifadolo, Kec. Moro'o, Kabupaten Nias Barat, Sumatera Utara";"Kabupaten Nias Barat, Sumatera Utara";"SUMATERA UTARA";"";"Indonesia";"";"";"";"1.0758948";"97.4354141";"https://maps.google.com/?cid=0x0:0x8a170792a86cad1";""
"komplek housing";"Komplek perumahan";"Moro'o";"3C76+JC5, Sidua Hili, Kec. Moro'o, Kabupaten Nias Barat, Sumatera Utara 22862";"Sidua Hili, Kec. Moro'o, Kabupaten Nias Barat";"SUMATERA UTARA";"22862";"Indonesia";"";"";"";"1.0640204";"97.4110988";"https://maps.google.com/?cid=0x0:0xf7462cab553a9e0a";""
"komplek housing";"Pembangunan Perumahan";"ATJ House";"2G6P+JPQ, Bukit Tinggi, Kec. Ulu Moro'o, Kabupaten Nias Barat, Sumatera Utara 22862";"Bukit Tinggi, Kec. Ulu Moro'o, Kabupaten Nias Barat";"SUMATERA UTARA";"22862";"Indonesia";"";"";"";"1.0107356";"97.5362971";"https://maps.google.com/?cid=0x0:0x324e12cc1d5ff394";""
"komplek housing";"Komplek perumahan";"Rumah Fidelis Gulo/ama fide";"3CC7+XCM, Sidua Hili, Kec. Moro'o, Kabupaten Nias Barat, Sumatera Utara 22862";"Sidua Hili, Kec. Moro'o, Kabupaten Nias Barat";"SUMATERA UTARA";"22862";"Indonesia";"";"";"";"1.0721092";"97.4148438";"https://maps.google.com/?cid=0x0:0x2883ca6d99113fe9";""
"komplek housing";"Komplek perumahan";"Desa Hilifadolo Kec.Moro'o Kab.Nias Barat";"3C6J+JHV, Rumah Ama Lilis Gulo Dusun I (satu) Loloana'a, Halifadolo, Kec. Moro'o";"Kabupaten Nias Barat, Sumatera Utara";"SUMATERA UTARA";"";"Indonesia";"";"";"";"1.0616047";"97.4314368";"https://maps.google.com/?cid=0x0:0x59bfe1d84df6e4ed";""
"komplek housing";"Komplek perumahan";"R. Esa gulo";"3C3G+RH7, Sidua Hili, Kec. Moro'o, Kabupaten Nias Barat, Sumatera Utara";"Kabupaten Nias Barat, Sumatera Utara";"SUMATERA UTARA";"";"Indonesia";"";"";"";"1.053164";"97.426477";"https://maps.google.com/?cid=0x0:0x5a8791d8df828184";""
"komplek housing";"Komplek perumahan";"Angorudua Balaekha";"3C8P+G5M, Hilisoromi, Kec. Moro'o, Kabupaten Nias Barat, Sumatera Utara 22862";"Hilisoromi, Kec. Moro'o, Kabupaten Nias Barat";"SUMATERA UTARA";"22862";"Indonesia";"";"";"";"1.0663366";"97.4354313";"https://maps.google.com/?cid=0x0:0x60b5204d383a77e";""
"komplek housing";"Perumahan";"Feli waruwu";"2CW2+247, Jl. Fadoro Dusun II, Onozalukhu You, Kec. Moro'o, Kabupaten Nias Barat, Sumatera Utara";"Kabupaten Nias Barat, Sumatera Utara";"SUMATERA UTARA";"";"Indonesia";"";"";"";"1.0450493";"97.4002872";"https://maps.google.com/?cid=0x0:0xade6d8bbcf02f073";""
"komplek housing";"Komplek perumahan";"𝑫𝒂𝒐 - 𝑫𝒂𝒐";"3CJX+G3, Hiliwaloo II, Kec. Moro'o, Kabupaten Nias Barat, Sumatera Utara";"Kabupaten Nias Barat, Sumatera Utara";"SUMATERA UTARA";"";"Indonesia";"";"";"";"1.081561";"97.448089";"https://maps.google.com/?cid=0x0:0xf47d3e5f5223eda0";""
"komplek housing";"Perumahan";"A.jeni waruwu";"3C6J+R78, Jl. Fabaliwa - Sirombu, Hilisoromi, Kec. Moro'o, Kabupaten Nias Barat, Sumatera Utara 22862";"Jl. Fabaliwa - Sirombu, Hilisoromi, Kec. Moro'o, Kabupaten Nias Barat";"SUMATERA UTARA";"22862";"Indonesia";"";"";"";"1.0620388";"97.4306948";"https://maps.google.com/?cid=0x0:0x2709cb84ee96c676";""
"komplek housing";"Komplek perumahan";"Sitolubanufadoro dangagari";"3CG5+QM4, Sitolu Banua Fadoro, Kec. Moro'o, Kabupaten Nias Barat, Sumatera Utara";"Kabupaten Nias Barat, Sumatera Utara";"SUMATERA UTARA";"";"Indonesia";"";"";"";"1.0768955";"97.4092054";"https://maps.google.com/?cid=0x0:0x7780829386ce5f39";""
"komplek housing";"Komplek perumahan";"🏠 S.B Gulö S.Kom";"2G8J+6XF, Lawelu, Kec. Ulu Moro'o, Kabupaten Nias Barat, Sumatera Utara";"Kabupaten Nias Barat, Sumatera Utara";"SUMATERA UTARA";"";"Indonesia";"";"";"";"1.015639";"97.5328234";"https://maps.google.com/?cid=0x0:0xa243fbfad37ef38c";""
"komplek housing";"Komplek perumahan";"Rumah A.Arlan Gulo";"3C92+RM2, Sidua Hili, Kec. Moro'o, Kabupaten Nias Barat, Sumatera Utara 22862";"Sidua Hili, Kec. Moro'o, Kabupaten Nias Barat";"SUMATERA UTARA";"22862";"Indonesia";"";"";"";"1.0695143";"97.4016356";"https://maps.google.com/?cid=0x0:0x68c5ceb186b672f";""
"komplek housing";"Komplek perumahan";"Rumah a/fini gulo";"2G89+X22, Bukit Tinggi, Kec. Ulu Moro'o, Kabupaten Nias Barat, Sumatera Utara 22862";"Bukit Tinggi, Kec. Ulu Moro'o, Kabupaten Nias Barat";"SUMATERA UTARA";"22862";"Indonesia";"";"";"";"1.0173859";"97.5175016";"https://maps.google.com/?cid=0x0:0xc38f1307af6242ba";""
"komplek housing";"Perhimpunan Pengembang Perumahan";"Rumah G";"2G7G+VXG, Bukit Tinggi, Kec. Ulu Moro'o, Kabupaten Nias Barat, Sumatera Utara";"Kabupaten Nias Barat, Sumatera Utara";"SUMATERA UTARA";"";"Indonesia";"";"";"";"1.0146938";"97.5274619";"https://maps.google.com/?cid=0x0:0x2d7486c8423c8331";""
"komplek housing";"Komplek perumahan";"Fendrianus gulo";"2G5V+GFR, Bukit Tinggi, Kec. Ulu Moro'o, Kabupaten Nias Barat, Sumatera Utara 22862";"Bukit Tinggi, Kec. Ulu Moro'o, Kabupaten Nias Barat";"SUMATERA UTARA";"22862";"Indonesia";"";"";"";"1.0088742";"97.5436253";"https://maps.google.com/?cid=0x0:0xd69eac5d5f326140";""
"komplek housing";"Komplek perumahan";"Rumah ROROGO GULO";"39MR+HV, Sitolu Banua Fadoro, Kec. Moro'o, Kabupaten Nias Barat, Sumatera Utara";"Kabupaten Nias Barat, Sumatera Utara";"SUMATERA UTARA";"";"Indonesia";"";"";"";"1.083907";"97.392175";"https://maps.google.com/?cid=0x0:0x7e4f6bae2ae25422";""
"komplek housing";"Perumahan";"BESOKHI GULO";"2CVM+XMX, Orahili Badalu, Kec. Mandrehe Bar., Kabupaten Nias Barat, Sumatera Utara 22862";"Orahili Badalu, Kec. Mandrehe Bar., Kabupaten Nias Barat";"SUMATERA UTARA";"22862";"Indonesia";" 082237124174";"";"";"1.044979";"97.4342298";"https://maps.google.com/?cid=0x0:0x25777d846ee827d1";""
"komplek housing";"Komplek perumahan";"RM. Joyko";"2G7M+P8W, Lawelu, Kec. Ulu Moro'o, Kabupaten Nias Barat, Sumatera Utara";"Kabupaten Nias Barat, Sumatera Utara";"SUMATERA UTARA";"";"Indonesia";"";"";"";"1.0143585";"97.5333143";"https://maps.google.com/?cid=0x0:0xc96ad31f64703eb7";""
"komplek housing";"komplek housing";"Kec. Moro'o";"Kabupaten Nias Barat, Sumatera Utara";"Kabupaten Nias Barat, Sumatera Utara";"SUMATERA UTARA";"";"Indonesia";"";"";"";"1.0879938";"97.4392868";"https://maps.google.com/?cid=0x0:0x2a217c06abcb5de2";""
"komplek housing";"Komplek perumahan";"Pondok Gede Housing II";"Housing II, Jl. Raya Hankam, RT.001/RW.004, Jatirahayu, Pondok Gede, Bekasi, West Java";"Kota Bks, Jawa Barat";"SUMATERA UTARA";"";"Indonesia";"";"";"";"-6.2876701";"106.9147674";"https://maps.google.com/?cid=0x0:0x2a52e601c20d18f2";""
"komplek housing";"Komplek perumahan";"Pondok Gede Housing 1";"Jl. Cipta Raya No.45-3, RT.001/RW.003, Jatirahayu, Kec. Pd. Melati, Kota Bks, Jawa Barat 17414";"RT.001/RW.003, Jatirahayu, Kec. Pd. Melati, Kota Bks";"SUMATERA UTARA";"17414";"Indonesia";"";"";"";"-6.2852504";"106.9163397";"https://maps.google.com/?cid=0x0:0x3132afedbf38cd61";""
"komplek housing";"Komplek perumahan";"White House";"Jl. Komp. Pd. Gede Housing.II Blok FF. 1A, Jatirahayu, Pondok Melati, Bekasi, West Java 17414";"Jatirahayu, Pondok Melati, Bekasi";"SUMATERA UTARA";"17414";"Indonesia";"";"";"";"-6.2883969";"106.9160196";"https://maps.google.com/?cid=0x0:0x2bf8b8029130581f";""
"komplek housing";"Perumahan";"Redcross I Sirombu";"XC39+47F, Sirombu, Kec. Sirombu, Kabupaten Nias Barat, Sumatera Utara";"Kabupaten Nias Barat, Sumatera Utara";"SUMATERA UTARA";"";"Indonesia";"";"";"";"0.952816";"97.418171";"https://maps.google.com/?cid=0x0:0x15e2364422338dff";""
"komplek housing";"Komplek perumahan";"Perum Red Cross 1 Delasiga";"XC4G+Q3W, Sirombu, Kec. Sirombu, Kabupaten Nias Barat, Sumatera Utara 22863";"Sirombu, Kec. Sirombu, Kabupaten Nias Barat";"SUMATERA UTARA";"22863";"Indonesia";"";"";"";"0.9569905";"97.4251958";"https://maps.google.com/?cid=0x0:0x975dd7d3e1dbfa10";""
"komplek housing";"komplek housing";"Sirombu";"Sirombu, Kec. Sirombu, Kabupaten Nias Barat, Sumatera Utara";"Kabupaten Nias Barat, Sumatera Utara";"SUMATERA UTARA";"";"Indonesia";"";"";"";"0.952816";"97.418171";"https://maps.google.com/?cid=0x0:0x4039d80b2210500";""
"komplek housing";"komplek housing";"Kec. Ulu Moro'o";"Kabupaten Nias Barat, Sumatera Utara";"Kabupaten Nias Barat, Sumatera Utara";"SUMATERA UTARA";"";"Indonesia";"";"";"";"1.0144644";"97.5333185";"https://maps.google.com/?cid=0x0:0xcabc6a3673d44b2d";""
"komplek housing";"Perhimpunan Pengembang Perumahan";"Hiliwase";"2G89+GP7, Bukit Tinggi, Kec. Ulu Moro'o, Kabupaten Nias Barat, Sumatera Utara 22862";"Bukit Tinggi, Kec. Ulu Moro'o, Kabupaten Nias Barat";"SUMATERA UTARA";"22862";"Indonesia";"";"";"";"1.0162936";"97.5193093";"https://maps.google.com/?cid=0x0:0xfaf3e086e7dea864";""
"komplek housing";"komplek housing";"Rumah bou ena";"2HGF+799, Hilisangawola, Kec. Ulu Moro'o, Kabupaten Nias Barat, Sumatera Utara";"Kabupaten Nias Barat, Sumatera Utara";"SUMATERA UTARA";"";"Indonesia";"";"";"";"1.0256535";"97.5734783";"https://maps.google.com/?cid=0x0:0xc3066358ab8a270c";""
"komplek housing";"Perhimpunan Pengembang Perumahan";"Rumah G";"2G7G+VXG, Bukit Tinggi, Kec. Ulu Moro'o, Kabupaten Nias Barat, Sumatera Utara";"Kabupaten Nias Barat, Sumatera Utara";"SUMATERA UTARA";"";"Indonesia";"";"";"";"1.0146938";"97.5274619";"https://maps.google.com/?cid=0x0:0x2d7486c8423c8331";""
"komplek housing";"Komplek perumahan";"A.Martin Gulo";"2G8J+6XF, Lawelu, Kec. Ulu Moro'o, Kabupaten Nias Barat, Sumatera Utara";"Kabupaten Nias Barat, Sumatera Utara";"SUMATERA UTARA";"";"Indonesia";"";"";"";"1.0155696";"97.5324268";"https://maps.google.com/?cid=0x0:0x1c9a96371762deaf";""
"komplek housing";"Komplek perumahan";"Rumah a/fini gulo";"2G89+X22, Bukit Tinggi, Kec. Ulu Moro'o, Kabupaten Nias Barat, Sumatera Utara 22862";"Bukit Tinggi, Kec. Ulu Moro'o, Kabupaten Nias Barat";"SUMATERA UTARA";"22862";"Indonesia";"";"";"";"1.0173859";"97.5175016";"https://maps.google.com/?cid=0x0:0xc38f1307af6242ba";""
"komplek housing";"Komplek perumahan";"🏠 S.B Gulö S.Kom";"2G8J+6XF, Lawelu, Kec. Ulu Moro'o, Kabupaten Nias Barat, Sumatera Utara";"Kabupaten Nias Barat, Sumatera Utara";"SUMATERA UTARA";"";"Indonesia";"";"";"";"1.015639";"97.5328234";"https://maps.google.com/?cid=0x0:0xa243fbfad37ef38c";""
"komplek housing";"Komplek perumahan";"Rumah Joy M Gulo";"2G7M+P7G, Lawelu, Kec. Ulu Moro'o, Kabupaten Nias Barat, Sumatera Utara";"Kabupaten Nias Barat, Sumatera Utara";"SUMATERA UTARA";"";"Indonesia";"";"";"";"1.0143137";"97.5332061";"https://maps.google.com/?cid=0x0:0x2fd1ec3247ffab8e";""
"komplek housing";"Komplek perumahan";"Floren waruwu";"2HGF+799, Hilisangawola, Kec. Ulu Moro'o, Kabupaten Nias Barat, Sumatera Utara";"Kabupaten Nias Barat, Sumatera Utara";"SUMATERA UTARA";"";"Indonesia";"";"";"";"1.0256535";"97.5734783";"https://maps.google.com/?cid=0x0:0x2f1e7f55d9d4ea79";""
"komplek housing";"Komplek perumahan";"RM. Joyko";"2G7M+P8W, Lawelu, Kec. Ulu Moro'o, Kabupaten Nias Barat, Sumatera Utara";"Kabupaten Nias Barat, Sumatera Utara";"SUMATERA UTARA";"";"Indonesia";"";"";"";"1.0143585";"97.5333143";"https://maps.google.com/?cid=0x0:0xc96ad31f64703eb7";""
"komplek housing";"Komplek perumahan";"Fendrianus gulo";"2G5V+GFR, Bukit Tinggi, Kec. Ulu Moro'o, Kabupaten Nias Barat, Sumatera Utara 22862";"Bukit Tinggi, Kec. Ulu Moro'o, Kabupaten Nias Barat";"SUMATERA UTARA";"22862";"Indonesia";"";"";"";"1.0088742";"97.5436253";"https://maps.google.com/?cid=0x0:0xd69eac5d5f326140";""
"komplek housing";"Komplek perumahan";"A.Yusu Hulu";"2G85+832, Jln.Ra Kartini dusun 3, lolomoyo, Kec. Mandrehe, Kabupaten Nias Barat, Sumatera Utara";"Kabupaten Nias Barat, Sumatera Utara";"SUMATERA UTARA";"";"Indonesia";"";"";"";"1.0157734";"97.5076264";"https://maps.google.com/?cid=0x0:0xfe36767ace3e5388";""
"komplek housing";"Komplek perumahan";"Komplek Perumahan";"3H5V+WG5, Jl. Tuhembuasi, Lolofitu, Kec. Lolofitu Moi, Kabupaten Nias Barat, Sumatera Utara 22875";"Jl. Tuhembuasi, Lolofitu, Kec. Lolofitu Moi, Kabupaten Nias Barat";"SUMATERA UTARA";"22875";"Indonesia";"";"";"";"1.0599989";"97.593749";"https://maps.google.com/?cid=0x0:0xe26ebd849d620665";""
"komplek housing";"Komplek perumahan";"Hiliweto kecamatan onohanzumba desa soroma asi";"2H7R+XWJ, Fadoro Ewo, Kec. Onohazumba, Kabupaten Nias Selatan, Sumatera Utara 22864";"Fadoro Ewo, Kec. Onohazumba, Kabupaten Nias Selatan";"SUMATERA UTARA";"22864";"Indonesia";"";"";"";"1.0149696";"97.5922759";"https://maps.google.com/?cid=0x0:0xb3cf5296911d99a5";""
"komplek housing";"Komplek perumahan";"Rumah pak Wana Gulo";"2G4X+WC5, Saloo, Kec. Ulu Moro'o, Kabupaten Nias Barat, Sumatera Utara 22862";"Saloo, Kec. Ulu Moro'o, Kabupaten Nias Barat";"SUMATERA UTARA";"22862";"Indonesia";"";"";"";"1.007251";"97.5486146";"https://maps.google.com/?cid=0x0:0x123c69f13a0c2f94";""
"komplek housing";"Kantor Perusahaan";"Desa hilibadalu tugala";"2HVF+V95, Hilibadalu, Kec. Ulu Moro'o, Kabupaten Nias Barat, Sumatera Utara";"Kabupaten Nias Barat, Sumatera Utara";"SUMATERA UTARA";"";"Indonesia";"";"";"";"1.0446343";"97.5734783";"https://maps.google.com/?cid=0x0:0x158bbf726cdccf1f";""
"komplek housing";"Bumi perkemahan";"Kost Tante Tiena Gulo";"2G7J+9P8, Lawelu, Kec. Ulu Moro'o, Kabupaten Nias Barat, Sumatera Utara 22862";"Lawelu, Kec. Ulu Moro'o, Kabupaten Nias Barat";"SUMATERA UTARA";"22862";"Indonesia";"";"";"";"1.0134037";"97.5318375";"https://maps.google.com/?cid=0x0:0x24bdd455d00b8ccf";""
"komplek housing";"Pembangunan Perumahan";"Desa Hiliadulo";"XGX4+8Q3, Onolimbu, Kec. Lahomi, Kabupaten Nias Barat, Sumatera Utara 22864";"Onolimbu, Kec. Lahomi, Kabupaten Nias Barat";"SUMATERA UTARA";"22864";"Indonesia";"";"";"";"0.998189";"97.506431";"https://maps.google.com/?cid=0x0:0xd7d3733ff836f120";""
"komplek housing";"Komplek perumahan";"RUMAH A. ELSIE GULO";"2HHV+9C9, Jl, Sisobawino II, Kec. Lolofitu Moi, Kabupaten Nias Barat, Sumatera Utara 22875";"Jl, Sisobawino II, Kec. Lolofitu Moi, Kabupaten Nias Barat";"SUMATERA UTARA";"22875";"Indonesia";"";"";"";"1.0284141";"97.593621";"https://maps.google.com/?cid=0x0:0x247ee83dd70cb440";""
"komplek housing";"Komplek perumahan";"Rumah Ina Roti Gulo";"3G4F+PGW, Lolozirugi, Kec. Mandrehe, Kabupaten Nias Barat, Sumatera Utara 22862";"Lolozirugi, Kec. Mandrehe, Kabupaten Nias Barat";"SUMATERA UTARA";"22862";"Indonesia";"";"";"";"1.0581655";"97.5235148";"https://maps.google.com/?cid=0x0:0xaeb2f4e5f0d8a311";""
"perumahan";"Pembangunan Perumahan";"Lahomi";"873J+2HQ, Sisobahili, Kec. Afulu, Kabupaten Nias Utara, Sumatera Utara";"Kabupaten Nias Utara, Sumatera Utara";"SUMATERA UTARA";"";"Indonesia";"";"";"";"1.3025995";"97.2814718";"https://maps.google.com/?cid=0x0:0x70452986b3ba4e46";""
"perumahan";"Komplek perumahan";"Sisobahili";"8775+6M, Lauru Lahewa, Kec. Afulu, Kabupaten Nias Utara, Sumatera Utara";"Kabupaten Nias Utara, Sumatera Utara";"SUMATERA UTARA";"";"Indonesia";"";"";"";"1.3130161";"97.2592346";"https://maps.google.com/?cid=0x0:0xe6b98129dd4279d4";""
"perumahan";"perumahan";"Jl. Lahömi";"Lologundre, Kec. Lahomi, Kabupaten Nias Barat, Sumatera Utara 22864";"Kec. Lahomi, Kabupaten Nias Barat";"SUMATERA UTARA";"22864";"Indonesia";"";"";"";"0.986949";"97.5036587";"https://maps.google.com/?cid=0x0:0x6409da5bc64f976c";""
"perumahan";"Pembangunan Perumahan";"Etorius Daeli";"XGQ3+PH7, Jl. Raya Onolimbu - Lahomi, Sisobambowo, Kec. Lahomi, Kabupaten Nias Barat, Sumatera Utara 22864";"Jl. Raya Onolimbu - Lahomi, Sisobambowo, Kec. Lahomi, Kabupaten Nias Barat";"SUMATERA UTARA";"22864";"Indonesia";"";"";"";"0.989317";"97.5039042";"https://maps.google.com/?cid=0x0:0xb55c6514e1b66275";""
"perumahan";"Kantor Perusahaan";"Desa Sisobambowo";"XGQ3+PH7, Jl. Raya Onolimbu - Lahomi, Sisobambowo, Kec. Lahomi, Kabupaten Nias Barat, Sumatera Utara 22864";"Jl. Raya Onolimbu - Lahomi, Sisobambowo, Kec. Lahomi, Kabupaten Nias Barat";"SUMATERA UTARA";"22864";"Indonesia";"";"";"";"0.9892976";"97.5039373";"https://maps.google.com/?cid=0x0:0x57b7a71ac6096215";""
"perumahan";"perumahan";"Sumatera Utara 22875";"Kec. Lolofitu Moi, Kabupaten Nias Barat, Sumatera Utara";"Kabupaten Nias Barat, Sumatera Utara";"SUMATERA UTARA";"";"Indonesia";"";"";"";"1.0588624";"97.5788975";"https://maps.google.com/?cid=0x0:0x9c54d35d78ab160f";""
"perumahan";"Komplek perumahan";"Komplek Perumahan";"3H5V+WG5, Jl. Tuhembuasi, Lolofitu, Kec. Lolofitu Moi, Kabupaten Nias Barat, Sumatera Utara 22875";"Jl. Tuhembuasi, Lolofitu, Kec. Lolofitu Moi, Kabupaten Nias Barat";"SUMATERA UTARA";"22875";"Indonesia";"";"";"";"1.0599989";"97.593749";"https://maps.google.com/?cid=0x0:0xe26ebd849d620665";""
"perumahan";"Komplek perumahan";"SOIIWA";"3H6V+2GJ, Jl. Tuhembuasi, Lolofitu, Kec. Lolofitu Moi, Kabupaten Nias Barat, Sumatera Utara 22875";"Jl. Tuhembuasi, Lolofitu, Kec. Lolofitu Moi, Kabupaten Nias Barat";"SUMATERA UTARA";"22875";"Indonesia";"";"";"";"1.0600783";"97.5937752";"https://maps.google.com/?cid=0x0:0xdbb4fc7763c78e31";""
"perumahan";"Komplek perumahan";"RUMAH A. ELSIE GULO";"2HHV+9C9, Jl, Sisobawino II, Kec. Lolofitu Moi, Kabupaten Nias Barat, Sumatera Utara 22875";"Jl, Sisobawino II, Kec. Lolofitu Moi, Kabupaten Nias Barat";"SUMATERA UTARA";"22875";"Indonesia";"";"";"";"1.0284141";"97.593621";"https://maps.google.com/?cid=0x0:0x247ee83dd70cb440";""
"perumahan";"Perumahan";"Rumah I Gaferi";"3JR2+5FJ, Wango, Kec. Lolofitu Moi, Kabupaten Nias Barat, Sumatera Utara 22875";"Wango, Kec. Lolofitu Moi, Kabupaten Nias Barat";"SUMATERA UTARA";"22875";"Indonesia";"";"";"";"1.0904536";"97.6011323";"https://maps.google.com/?cid=0x0:0xd145d16f3b2053af";""
"perumahan";"Perhimpunan Pengembang Perumahan";"Desa wango";"3JF4+FCG, Wangi, Kec. Lolofitu Moi, Kabupaten Nias Barat, Sumatera Utara";"Kabupaten Nias Barat, Sumatera Utara";"SUMATERA UTARA";"";"Indonesia";"";"";"";"1.0736861";"97.6060823";"https://maps.google.com/?cid=0x0:0x82bfe818967c52d9";""
"perumahan";"Komplek perumahan";"Rumah Pak Lovelly";"3JQ9+VR3, Orahili Idanoi, Kec. Lolofitu Moi, Kabupaten Nias Barat, Sumatera Utara";"Kabupaten Nias Barat, Sumatera Utara";"SUMATERA UTARA";"";"Indonesia";"";"";"";"1.0896322";"97.6195551";"https://maps.google.com/?cid=0x0:0x1cf4e53b0400ad5b";""
"perumahan";"Perumahan";"Febi Zai";"Dusun 1 soromaasi, Hilimbuasi, Kec. Lolofitu Moi, Kabupaten Nias Barat";"Kabupaten Nias Barat, Sumatera Utara";"SUMATERA UTARA";"";"Indonesia";"";"";"";"1.0517081";"97.5924474";"https://maps.google.com/?cid=0x0:0x522d915c7ee895b0";""
"perumahan";"Komplek perumahan";"Rumah Meyman Halawa";"4H2J+488, Lolofitu, Kec. Lolofitu Moi, Kabupaten Nias Barat, Sumatera Utara";"Kabupaten Nias Barat, Sumatera Utara";"SUMATERA UTARA";"";"Indonesia";"";"";"";"1.1002918";"97.5808392";"https://maps.google.com/?cid=0x0:0x52972020a5b23514";""
"perumahan";"perumahan";"Rumah A/I Alva ndraha";"4G8X+4H, Tarahoso, Kec. Mandrehe Utara, Kabupaten Nias Barat, Sumatera Utara";"Kabupaten Nias Barat, Sumatera Utara";"SUMATERA UTARA";"";"Indonesia";"";"";"";"1.1152655";"97.5489063";"https://maps.google.com/?cid=0x0:0x68234d7002a4a2f9";""
"perumahan";"Pembangunan Perumahan";"Keluarga A/i Gasada Halawa";"3JR3+QX, Lolofaoso, Kec. Lolofitu Moi, Kabupaten Nias Barat, Sumatera Utara";"Kabupaten Nias Barat, Sumatera Utara";"SUMATERA UTARA";"";"Indonesia";"";"";"";"1.091964";"97.604978";"https://maps.google.com/?cid=0x0:0x2c5c0dad9b45659d";""
"perumahan";"Perhimpunan Pengembang Perumahan";"Rumah A. Mareli Hal";"3JV5+X83, Onombongi, Kec. Lolofitu Moi, Kabupaten Nias Barat, Sumatera Utara";"Kabupaten Nias Barat, Sumatera Utara";"SUMATERA UTARA";"";"Indonesia";"";"";"";"1.0952239";"97.6081784";"https://maps.google.com/?cid=0x0:0x86bd4e7fb4d48dce";""
"perumahan";"Komplek perumahan";"A/i. Gasua Gulo";"4J2R+F6R, Atualuo, Kec. Lolofitu Moi, Kabupaten Nias, Sumatera Utara";"Kabupaten Nias, Sumatera Utara";"SUMATERA UTARA";"";"Indonesia";"";"";"";"1.10125";"97.6405166";"https://maps.google.com/?cid=0x0:0xbc04d607a778b55a";""
"perumahan";"perumahan";"Rumah Ina Gamara Halawa";"3JV7+8W7, Wango, Kec. Lolofitu Moi, Kabupaten Nias Barat, Sumatera Utara";"Kabupaten Nias Barat, Sumatera Utara";"SUMATERA UTARA";"";"Indonesia";"";"";"";"1.0932936";"97.6148088";"https://maps.google.com/?cid=0x0:0xa28fe247cf23e38a";""
"perumahan";"Rumah Kayu";"RUMAH A. NELDA HALAWA";"Jl. Nias Tengah No.Km. 34, Lolofitu, Kec. Lolofitu Moi, Kabupaten Nias Barat, Sumatera Utara 22875";"Lolofitu, Kec. Lolofitu Moi, Kabupaten Nias Barat";"SUMATERA UTARA";"22875";"Indonesia";"";"";"";"1.0914058";"97.5760919";"https://maps.google.com/?cid=0x0:0x2638e0000a1730b6";""
"perumahan";"Pembangunan Perumahan";"A/I PASKA WAR";"3H5V+WHC, Jl. Tuhembuasi, Lolofitu, Kec. Lolofitu Moi, Kabupaten Nias Barat, Sumatera Utara 22875";"Jl. Tuhembuasi, Lolofitu, Kec. Lolofitu Moi, Kabupaten Nias Barat";"SUMATERA UTARA";"22875";"Indonesia";"";"";"";"1.0598722";"97.5938889";"https://maps.google.com/?cid=0x0:0x7f4870bc56be9ded";""
"perumahan";"Pembangunan Perumahan";"Ina fini";"3HQM+M4, Hiliuso, Kec. Lolofitu Moi, Kabupaten Nias Barat, Sumatera Utara";"Kabupaten Nias Barat, Sumatera Utara";"SUMATERA UTARA";"";"Indonesia";"";"";"";"1.089175";"97.582765";"https://maps.google.com/?cid=0x0:0xf738669fd1d110ff";""
"perumahan";"Komplek perumahan";"Rumah A.Nela";"3JV8+WM8, Dusun I, Awela, Kec. Lolofitu Moi, Kabupaten Nias Barat, Sumatera Utara";"Kabupaten Nias Barat, Sumatera Utara";"SUMATERA UTARA";"";"Indonesia";"";"";"";"1.0947899";"97.6167092";"https://maps.google.com/?cid=0x0:0xc0ca7777dbce5f4a";""
"perumahan";"Pembangunan Perumahan";"Rumah oak.Opi halawa";"3JX9+8RW, Awela, Kec. Lolofitu Moi, Kabupaten Nias Barat, Sumatera Utara";"Kabupaten Nias Barat, Sumatera Utara";"SUMATERA UTARA";"";"Indonesia";"";"";"";"1.098373";"97.6195699";"https://maps.google.com/?cid=0x0:0x40a90f83fb82ae7b";""
"perumahan";"Komplek perumahan";"Rumah A.Suherman Halawa";"4H2H+FXW, Jl. Gunungsitoli, Lolofaoso, Kec. Lolofitu Moi, Kabupaten Nias Barat, Sumatera Utara 22864";"Jl. Gunungsitoli, Lolofaoso, Kec. Lolofitu Moi, Kabupaten Nias Barat";"SUMATERA UTARA";"22864";"Indonesia";"";"";"";"1.1012392";"97.5799602";"https://maps.google.com/?cid=0x0:0xeac28a174dad065b";""
"perumahan";"Komplek perumahan";"Rumah Ama Erni Halawa";"3HGX+54H, Wango, Kec. Lolofitu Moi, Kabupaten Nias Barat, Sumatera Utara 22875";"Wango, Kec. Lolofitu Moi, Kabupaten Nias Barat";"SUMATERA UTARA";"22875";"Indonesia";"";"";"";"1.075436";"97.5978681";"https://maps.google.com/?cid=0x0:0xc3c8b999e028d702";""
"perumahan";"perumahan";"Sumatera Utara 22862";"Kabupaten Nias Barat, Sumatera Utara";"Kabupaten Nias Barat, Sumatera Utara";"SUMATERA UTARA";"";"Indonesia";"";"";"";"1.0305654";"97.5030669";"https://maps.google.com/?cid=0x0:0x343297d388925be1";""
"perumahan";"Komplek perumahan";"Fadoro kec Mandrehe Kab Nias barat";"2FWV+FQH, Fadoro, Kec. Mandrehe, Kabupaten Nias Barat, Sumatera Utara 22862";"Fadoro, Kec. Mandrehe, Kabupaten Nias Barat";"SUMATERA UTARA";"22862";"Indonesia";"";"";"";"1.045733";"97.494167";"https://maps.google.com/?cid=0x0:0x3dd9dcd0521e3e57";""
"perumahan";"Pembangunan Perumahan";"DNGulõ";"3G77+7M, Doli Doli, Kec. Mandrehe, Kabupaten Nias Barat, Sumatera Utara";"Kabupaten Nias Barat, Sumatera Utara";"SUMATERA UTARA";"";"Indonesia";" 082276446454";"";"";"1.0631341";"97.5141636";"https://maps.google.com/?cid=0x0:0xdcc17f74a537fc";""
"perumahan";"Pom bensin/SPBU";"SPBU mandrehe";"Jl. Sisarahili No.1 Dusun 3, Lolomoyo, Kec. Mandrehe Bar., Kabupaten Nias Barat, Sumatera Utara";"Kabupaten Nias Barat, Sumatera Utara";"SUMATERA UTARA";"";"Indonesia";"";"";"";"1.0757052";"97.4895345";"https://maps.google.com/?cid=0x0:0x67a7460c7ca21674";""
"perumahan";"Jasa Potong Rumput";"PANGKAS PLANET";"2FXQ+9JH, Fadoro, Kec. Mandrehe, Kabupaten Nias Barat, Sumatera Utara 22862";"Fadoro, Kec. Mandrehe, Kabupaten Nias Barat";"SUMATERA UTARA";"22862";"Indonesia";"";"";"";"1.0483904";"97.4890813";"https://maps.google.com/?cid=0x0:0x28d8a40eb107c749";""
"perumahan";"Komplek perumahan";"NATANAELI GULO";"2FXJ+C72, Tetehosi, Kec. Mandrehe, Kabupaten Nias Barat, Sumatera Utara 22862";"Tetehosi, Kec. Mandrehe, Kabupaten Nias Barat";"SUMATERA UTARA";"22862";"Indonesia";"";"";"";"1.0485053";"97.4806254";"https://maps.google.com/?cid=0x0:0x3b5afc95dfe297fe";""
"perumahan";"Pembangunan Perumahan";"Cael Gulo";"2FXQ+9JH, Fadoro, Kec. Mandrehe, Kabupaten Nias Barat, Sumatera Utara 22862";"Fadoro, Kec. Mandrehe, Kabupaten Nias Barat";"SUMATERA UTARA";"22862";"Indonesia";"";"";"";"1.0484327";"97.489095";"https://maps.google.com/?cid=0x0:0x1a0d1213ed34c212";""
"perumahan";"Komplek perumahan";"Rumah I. Kharis Gulo";"2FHP+W38, Simaeasi, Kec. Mandrehe, Kabupaten Nias Barat, Sumatera Utara 22862";"Simaeasi, Kec. Mandrehe, Kabupaten Nias Barat";"SUMATERA UTARA";"22862";"Indonesia";"";"";"";"1.0297868";"97.4852132";"https://maps.google.com/?cid=0x0:0xebe42061807b9591";""
"perumahan";"Komplek perumahan";"Rumah A/I Selvi Gulo";"3F3F+WVM, Tetehosi, Kec. Mandrehe, Kabupaten Nias Barat, Sumatera Utara 22862";"Tetehosi, Kec. Mandrehe, Kabupaten Nias Barat";"SUMATERA UTARA";"22862";"Indonesia";"";"";"";"1.0548264";"97.4746859";"https://maps.google.com/?cid=0x0:0x962b955cf34000af";""
"perumahan";"Asosiasi pemilik rumah";"Mr. Rini's";"Lolohia Mandrehe Bar. No.22, Sisobambowo, Kec. Mandrehe, Kabupaten Nias Barat, Sumatera Utara 22862";"Sisobambowo, Kec. Mandrehe, Kabupaten Nias Barat";"SUMATERA UTARA";"22862";"Indonesia";"";"";"";"1.021621";"97.4634311";"https://maps.google.com/?cid=0x0:0x7d93f06d4c0bea65";""
"perumahan";"Pembangunan Perumahan";"A/I, LIJEN GULO";"2FGC+35, Iraono Gambo, Kec. Mandrehe, Kabupaten Nias Barat, Sumatera Utara 22862";"Iraono Gambo, Kec. Mandrehe, Kabupaten Nias Barat";"SUMATERA UTARA";"22862";"Indonesia";"";"";"";"1.0251392";"97.4703953";"https://maps.google.com/?cid=0x0:0x40dcf1567ace528";""
"perumahan";"Komplek perumahan";"Rumah A/I.Glory Hia";"2FXR+7V7, Fadoro, Kec. Mandrehe, Kabupaten Nias Barat, Sumatera Utara 22862";"Fadoro, Kec. Mandrehe, Kabupaten Nias Barat";"SUMATERA UTARA";"22862";"Indonesia";"";"";"";"1.04792";"97.4924267";"https://maps.google.com/?cid=0x0:0x3d3b6ab62199750c";""
"perumahan";"Komplek perumahan";"Rumah A/I.Befi Gulo";"2FRV+VR9, Sianaa, Kec. Mandrehe, Kabupaten Nias Barat, Sumatera Utara 22862";"Sianaa, Kec. Mandrehe, Kabupaten Nias Barat";"SUMATERA UTARA";"22862";"Indonesia";"";"";"";"1.0421534";"97.4945962";"https://maps.google.com/?cid=0x0:0xdfb096a9324cd329";""
"perumahan";"Perumahan";"BESOKHI GULO";"2CVM+XMX, Orahili Badalu, Kec. Mandrehe Bar., Kabupaten Nias Barat, Sumatera Utara 22862";"Orahili Badalu, Kec. Mandrehe Bar., Kabupaten Nias Barat";"SUMATERA UTARA";"22862";"Indonesia";" 082237124174";"";"";"1.044979";"97.4342298";"https://maps.google.com/?cid=0x0:0x25777d846ee827d1";""
"perumahan";"Komplek perumahan";"Rumah I. Fersi Gulo";"2FMP+2F5, Dusan 1 Lasarabahili, Simaeasi, Mandrehe, West Nias Regency, North Sumatra 22862";"Dusan 1 Lasarabahili, Simaeasi, Mandrehe, West Nias Regency";"SUMATERA UTARA";"22862";"Indonesia";"";"";"";"1.0325248";"97.4862378";"https://maps.google.com/?cid=0x0:0xfd991c7d245317fd";""
"perumahan";"Komplek perumahan";"elsaa hulu";"2FGX+83J, Simaeasi, Kec. Mandrehe, Kabupaten Nias Barat, Sumatera Utara 22862";"Simaeasi, Kec. Mandrehe, Kabupaten Nias Barat";"SUMATERA UTARA";"22862";"Indonesia";"";"";"";"1.025833";"97.4976536";"https://maps.google.com/?cid=0x0:0x77c64cf546cd6016";""
"perumahan";"Komplek perumahan";"Rumah A. Wita Gulo";"Jl. Tetehosi, Tetehosi, Kec. Mandrehe, Kabupaten Nias Barat, Sumatera Utara 22862";"Tetehosi, Kec. Mandrehe, Kabupaten Nias Barat";"SUMATERA UTARA";"22862";"Indonesia";"";"";"";"1.0494558";"97.4769446";"https://maps.google.com/?cid=0x0:0xfe54fa09283b15cb";""
"perumahan";"Perhimpunan Pengembang Perumahan";"Dasoge'e";"2F3F+8W7, Lolohia, Kec. Mandrehe Bar., Kabupaten Nias Barat, Sumatera Utara";"Kabupaten Nias Barat, Sumatera Utara";"SUMATERA UTARA";"";"Indonesia";" 082275128583";"";"";"1.0032758";"97.4747839";"https://maps.google.com/?cid=0x0:0x1e144bff6dba5520";""
"perumahan";"Komplek perumahan";"Pertapakan tanah milik dinema waruwu";"2FRR+X8Q, Fadoro, Kec. Mandrehe, Kabupaten Nias Barat, Sumatera Utara 22862";"Fadoro, Kec. Mandrehe, Kabupaten Nias Barat";"SUMATERA UTARA";"22862";"Indonesia";"";"";"";"1.0424571";"97.4908445";"https://maps.google.com/?cid=0x0:0xed2e986f63681721";""
"perumahan";"Pembangunan Perumahan";"A.Ajlan Gulo";"2FC7+HFJ, Lolohia Mandrehe Bar., Iraono Gambo, Kec. Mandrehe, Kabupaten Nias Barat, Sumatera Utara 22862";"Lolohia Mandrehe Bar., Iraono Gambo, Kec. Mandrehe, Kabupaten Nias Barat";"SUMATERA UTARA";"22862";"Indonesia";" 085262920547";"";"";"1.0214531";"97.4636453";"https://maps.google.com/?cid=0x0:0x13cd53adde6212c";""
"perumahan";"Perhimpunan Pengembang Perumahan";"Hiliwase";"2G89+GP7, Bukit Tinggi, Kec. Ulu Moro'o, Kabupaten Nias Barat, Sumatera Utara 22862";"Bukit Tinggi, Kec. Ulu Moro'o, Kabupaten Nias Barat";"SUMATERA UTARA";"22862";"Indonesia";"";"";"";"1.0162936";"97.5193093";"https://maps.google.com/?cid=0x0:0xfaf3e086e7dea864";""
"perumahan";"Pusat Kesehatan Masyarakat";"Lawelu Raya";"2G7M+4JR, jln, Lawelu, Kec. Ulu Moro'o, Kabupaten Nias Barat, Sumatera Utara 22862";"jln, Lawelu, Kec. Ulu Moro'o, Kabupaten Nias Barat";"SUMATERA UTARA";"22862";"Indonesia";" 082200049980";"";"";"1.0128562";"97.5340071";"https://maps.google.com/?cid=0x0:0xe8c3e4c0f6ce9e13";""
"perumahan";"Komplek perumahan";"Rumah Ama.Yoha Gulo";"2GP5+R2J, Hiliwaloo II, Kec. Mandrehe, Kabupaten Nias Barat, Sumatera Utara 22862";"Hiliwaloo II, Kec. Mandrehe, Kabupaten Nias Barat";"SUMATERA UTARA";"22862";"Indonesia";"";"";"";"1.0375451";"97.5070169";"https://maps.google.com/?cid=0x0:0xe90c8f8610cd7162";""
"perumahan";"Pusat Perbelanjaan";"Pasar Mandrehe";"Fadoro, Kec. Mandrehe, Kabupaten Nias Barat, Sumatera Utara 22862";"Kec. Mandrehe, Kabupaten Nias Barat";"SUMATERA UTARA";"22862";"Indonesia";" 082370874876";"";"";"1.0498175";"97.4906554";"https://maps.google.com/?cid=0x0:0xe3813b2a2e2967d2";""
"perumahan";"perumahan";"Rumah Ama Ina Jasver Gulo (Toko JPR)";"2FXR+JXX, Fadoro, Kec. Mandrehe, Kabupaten Nias Barat, Sumatera Utara 22862";"Fadoro, Kec. Mandrehe, Kabupaten Nias Barat";"SUMATERA UTARA";"22862";"Indonesia";"";"";"";"1.0495329";"97.4927405";"https://maps.google.com/?cid=0x0:0x678b7c043162b3f4";""
"perumahan";"Rumah Sakit";"Puskesmas mandrehe";"2FXX+377, Fadoro, Kec. Mandrehe, Kabupaten Nias Barat, Sumatera Utara 22862";"Fadoro, Kec. Mandrehe, Kabupaten Nias Barat";"SUMATERA UTARA";"22862";"Indonesia";"";"";"";"1.0476694";"97.4981834";"https://maps.google.com/?cid=0x0:0x249e1d8134e42d70";""
"perumahan";"perumahan";"Sumatera Utara 22867";"Kabupaten Nias Selatan, Sumatera Utara";"Kabupaten Nias Selatan, Sumatera Utara";"SUMATERA UTARA";"";"Indonesia";"";"";"";"0.9212063";"97.6710889";"https://maps.google.com/?cid=0x0:0xe28ccee9e4064a40";""
"perumahan";"perumahan";"Rumah Ama Yulfit Giawa";"VHXJ+F8R, Desa Hilikara, Kec. Lalowau, Kabupaten Nias Selatan, Sumatera Utara 22864";"Desa Hilikara, Kec. Lalowau, Kabupaten Nias Selatan";"SUMATERA UTARA";"22864";"Indonesia";"";"";"";"0.8987401";"97.5807578";"https://maps.google.com/?cid=0x0:0x96698a8175730337";""
"perumahan";"Komplek perumahan";"Rumah Pak Feberman Ndruru";"Jalan Ulunoyo, Hiliotalua, Kec. Lolomatua, Kabupaten Nias Selatan, Sumatera Utara 22867";"Hiliotalua, Kec. Lolomatua, Kabupaten Nias Selatan";"SUMATERA UTARA";"22867";"Indonesia";"";"";"";"0.9425669";"97.6412489";"https://maps.google.com/?cid=0x0:0x6259e9577c4a1781";""
"perumahan";"Komplek perumahan";"Rumah Ama Erwin Halawa";"WMJ2+47F, Jl. Tuhemberua, Hiliwaebu, Kecamatan Ulunoyo, Kabupaten Nias Selatan, Sumatera Utara 22867";"Jl. Tuhemberua, Hiliwaebu, Kecamatan Ulunoyo, Kabupaten Nias Selatan";"SUMATERA UTARA";"22867";"Indonesia";"";"";"";"0.9303248";"97.6506857";"https://maps.google.com/?cid=0x0:0xd0bf6da072cb2c5";""
"perumahan";"Perumahan rakyat";"Denis Harefa";"XJ3Q+3JP, Jl. Sogawunasi, Lawa-Lawa Luo, Kec. Lolomatua, Kabupaten Nias Selatan, Sumatera Utara 22864";"Jl. Sogawunasi, Lawa-Lawa Luo, Kec. Lolomatua, Kabupaten Nias Selatan";"SUMATERA UTARA";"22864";"Indonesia";" 085275477745";"";"";"0.9527089";"97.6390744";"https://maps.google.com/?cid=0x0:0x48e47de971bdfb6f";""
"perumahan";"Komplek perumahan";"Rumah A/I Kristiani laia";"WJWP+CPG, Jl. Hililaza, Hiliotalua, Kec. Lolomatua, Kabupaten Nias Selatan, Sumatera Utara 22867";"Jl. Hililaza, Hiliotalua, Kec. Lolomatua, Kabupaten Nias Selatan";"SUMATERA UTARA";"22867";"Indonesia";"";"";"";"0.9457023";"97.6371403";"https://maps.google.com/?cid=0x0:0x44e2d9c45b5301be";""
"perumahan";"Komplek perumahan";"Rumah A.Derman Halawa";"XJP9+GQG, Jl. Soliga, Desa Olayama, Kec. Huruna, Kabupaten Nias Selatan, Sumatera Utara 22864";"Jl. Soliga, Desa Olayama, Kec. Huruna, Kabupaten Nias Selatan";"SUMATERA UTARA";"22864";"Indonesia";"";"";"";"0.9863076";"97.6194402";"https://maps.google.com/?cid=0x0:0x7993ea95565fb6fb";""
"perumahan";"Komplek perumahan";"A. Rn Laia";"XJ4J+W98, Hilisangowola, Kec. Lolomatua, Kabupaten Nias Selatan, Sumatera Utara 22867";"Hilisangowola, Kec. Lolomatua, Kabupaten Nias Selatan";"SUMATERA UTARA";"22867";"Indonesia";"";"";"";"0.9572952";"97.6309427";"https://maps.google.com/?cid=0x0:0xc6edb40a363e86c4";""
"perumahan";"Pembangunan Perumahan";"A.Evy";"WJM5+FFW, Dusun I, Soledua, Induk, Sisobahili, Kec. Hilimegai, Kabupaten Nias Selatan";"Kabupaten Nias Selatan, Sumatera Utara";"SUMATERA UTARA";"";"Indonesia";"";"";"";"0.9337436";"97.6086896";"https://maps.google.com/?cid=0x0:0xd3eacc6269c6d7cc";""
"perumahan";"Perhimpunan Pengembang Perumahan";"Mr Jack Halawa";"VMGP+6H4, Sambulu, Kecamatan Ulunoyo, Kabupaten Nias Selatan, Sumatera Utara 22867";"Sambulu, Kecamatan Ulunoyo, Kabupaten Nias Selatan";"SUMATERA UTARA";"22867";"Indonesia";"";"";"";"0.8755097";"97.686461";"https://maps.google.com/?cid=0x0:0xcd0032439f0fa4b3";""
"perumahan";"Pembangunan Perumahan";"Rumah KIM HAL";"XJP9+GQG, Jl. Soliga, Desa Olayama, Kec. Huruna, Kabupaten Nias Selatan, Sumatera Utara 22864";"Jl. Soliga, Desa Olayama, Kec. Huruna, Kabupaten Nias Selatan";"SUMATERA UTARA";"22864";"Indonesia";"";"";"";"0.9862405";"97.6198158";"https://maps.google.com/?cid=0x0:0xbd45046ea11c2038";""
"perumahan";"Perumahan";"Rmh ama mefi ndruru";"WMWH+J9X, Hiliuso, Kec. Lolomatua, Kabupaten Nias Selatan, Sumatera Utara 22861";"Hiliuso, Kec. Lolomatua, Kabupaten Nias Selatan";"SUMATERA UTARA";"22861";"Indonesia";"";"";"";"0.9465868";"97.678468";"https://maps.google.com/?cid=0x0:0xefe288b9f87f01e";""
"perumahan";"Komplek perumahan";"Jalan Dusun";"WMCC+FCP, Suka Maju, Kecamatan Ulunoyo, Kabupaten Nias Selatan, Sumatera Utara 22867";"Suka Maju, Kecamatan Ulunoyo, Kabupaten Nias Selatan";"SUMATERA UTARA";"22867";"Indonesia";"";"";"";"0.9212063";"97.6710889";"https://maps.google.com/?cid=0x0:0x2d875181d8b09bb4";""
"perumahan";"perumahan";"Rumah BP.A.NICE NDRURU";"WJGJ+8W, Hiliotalua, Kec. Lolomatua, Kabupaten Nias Selatan, Sumatera Utara";"Kabupaten Nias Selatan, Sumatera Utara";"SUMATERA UTARA";"";"Indonesia";"";"";"";"0.925752";"97.632268";"https://maps.google.com/?cid=0x0:0x707f38be0b92bffa";""
"perumahan";"Komplek perumahan";"El. Laia";"XJ6C+MV, Hilisangowola, Kec. Lolomatua, Kabupaten Nias Selatan, Sumatera Utara";"Kabupaten Nias Selatan, Sumatera Utara";"SUMATERA UTARA";"";"Indonesia";"";"";"";"0.9617114";"97.6222302";"https://maps.google.com/?cid=0x0:0xedde2ae9c002211e";""
"perumahan";"Komplek perumahan";"R. FAFORI L";"WM95+R3R, Dusun 4, Tuhemberua, Kecamatan Ulunoyo, Kabupaten Nias Selatan, Sumatera Utara";"Kabupaten Nias Selatan, Sumatera Utara";"SUMATERA UTARA";"";"Indonesia";"";"";"";"0.9196055";"97.6576383";"https://maps.google.com/?cid=0x0:0xb42357333aa82f18";""
"perumahan";"Pembangunan Perumahan";"Lolomatua";"WM79+J9R, Amorosa, Kecamatan Ulunoyo, Kabupaten Nias Selatan, Sumatera Utara 22867";"Amorosa, Kecamatan Ulunoyo, Kabupaten Nias Selatan";"SUMATERA UTARA";"22867";"Indonesia";"";"";"";"0.9141163";"97.6683756";"https://maps.google.com/?cid=0x0:0xcbb965aef8ef4632";""
"perumahan";"Komplek perumahan";"Rumah Simponi Halawa";"WJM5+7FX, Lauso, Kec. Onohazumba, Kabupaten Nias Selatan, Sumatera Utara";"Kabupaten Nias Selatan, Sumatera Utara";"SUMATERA UTARA";"";"Indonesia";"";"";"";"0.932975";"97.609266";"https://maps.google.com/?cid=0x0:0x7901ae403dc2b5ef";""
"perumahan";"Balai masyarakat";"Rumah Ina Lenny Ndruru";"WMF2+MQM, Hiliwaebu, Kec. Lolomatua, Kabupaten Nias Selatan, Sumatera Utara";"Kabupaten Nias Selatan, Sumatera Utara";"SUMATERA UTARA";"";"Indonesia";"";"";"";"0.9242166";"97.6519165";"https://maps.google.com/?cid=0x0:0x7cca45f0dc7c0fa4";""
"perumahan";"Komplek perumahan";"Rumah A. Risna Gulo";"XJR9+X7X, Jl. Lōlōwa'u, Ehosakhozi, Kec. Lalowau, Kabupaten Nias Selatan, Sumatera Utara 22852";"Jl. Lōlōwa'u, Ehosakhozi, Kec. Lalowau, Kabupaten Nias Selatan";"SUMATERA UTARA";"22852";"Indonesia";"";"";"";"0.9924777";"97.6182236";"https://maps.google.com/?cid=0x0:0xaacb09883a78b30a";""
"perumahan";"Pembangunan Perumahan";"Beatus Ndruru";"WJ2P+RWH, Hiliwaebu, Kecamatan Ulunoyo, Kabupaten Nias Selatan, Sumatera Utara 22815";"Hiliwaebu, Kecamatan Ulunoyo, Kabupaten Nias Selatan";"SUMATERA UTARA";"22815";"Indonesia";"";"";"";"0.9020739";"97.6373451";"https://maps.google.com/?cid=0x0:0x115ae900bf98fa2b";""
"perumahan";"Komplek perumahan";"Rumah A. EDU LAIA";"WJWP+HPG, Jl. Ulunoyo Desa Koendrafo (Pekan, Jl. Hililaza, Hiliotalua, Kec. Lolomatua, Kabupaten Nias Selatan, Sumatera Utara 22864";"Jl. Ulunoyo Desa Koendrafo (Pekan, Jl. Hililaza, Hiliotalua, Kec. Lolomatua, Kabupaten Nias Selatan";"SUMATERA UTARA";"22864";"Indonesia";"";"";"";"0.9466473";"97.6368603";"https://maps.google.com/?cid=0x0:0xc4187cc8c32adbc3";""
"perumahan";"perumahan";"Sumatera Utara 22812";"Kabupaten Nias Barat, Sumatera Utara";"Kabupaten Nias Barat, Sumatera Utara";"SUMATERA UTARA";"";"Indonesia";"";"";"";"1.0164701";"97.4435441";"https://maps.google.com/?cid=0x0:0xd11190b65d8d63eb";""
"perumahan";"Perhimpunan Pengembang Perumahan";"PERTIGAAN MA'U- KEC. MANDREHE UTARA";"Jl. Ononamölö No.1, Sisarahili II, Kec. Mandrehe Utara, Kabupaten Nias Barat, Sumatera Utara 22861";"Sisarahili II, Kec. Mandrehe Utara, Kabupaten Nias Barat";"SUMATERA UTARA";"22861";"Indonesia";"";"";"";"0.9997224";"97.4193359";"https://maps.google.com/?cid=0x0:0xe70d89e9a6a73";""
"perumahan";"Komplek perumahan";"Rumah Orang Tua Oloheta Hia";"2C4V+WXF, Sisobambowo, Kec. Mandrehe, Kabupaten Nias Barat, Sumatera Utara 22812";"Sisobambowo, Kec. Mandrehe, Kabupaten Nias Barat";"SUMATERA UTARA";"22812";"Indonesia";"";"";"";"1.0075162";"97.4445704";"https://maps.google.com/?cid=0x0:0x2199f0f685b7bd02";""
"perumahan";"Komplek perumahan";"Abng da adi";"XCP8+QJG, Sisarahili II, Kec. Mandrehe Bar., Kabupaten Nias Barat, Sumatera Utara 22812";"Sisarahili II, Kec. Mandrehe Bar., Kabupaten Nias Barat";"SUMATERA UTARA";"22812";"Indonesia";"";"";"";"0.9869378";"97.4165901";"https://maps.google.com/?cid=0x0:0xe10cfc7f3907c3ad";""
"perumahan";"Asosiasi pemilik rumah";"Mr. Rini's";"Lolohia Mandrehe Bar. No.22, Sisobambowo, Kec. Mandrehe, Kabupaten Nias Barat, Sumatera Utara 22862";"Sisobambowo, Kec. Mandrehe, Kabupaten Nias Barat";"SUMATERA UTARA";"22862";"Indonesia";"";"";"";"1.021621";"97.4634311";"https://maps.google.com/?cid=0x0:0x7d93f06d4c0bea65";""
"perumahan";"Perumahan";"Rumah Eze";"Hilidaura, Kec. Mandrehe Bar., Kabupaten Nias Barat, Sumatera Utara 22812";"Kec. Mandrehe Bar., Kabupaten Nias Barat";"SUMATERA UTARA";"22812";"Indonesia";"";"";"";"1.0138509";"97.4355367";"https://maps.google.com/?cid=0x0:0xaa6f0ca677371758";""
"perumahan";"Perhimpunan Pengembang Perumahan";"Dasoge'e";"2F3F+8W7, Lolohia, Kec. Mandrehe Bar., Kabupaten Nias Barat, Sumatera Utara";"Kabupaten Nias Barat, Sumatera Utara";"SUMATERA UTARA";"";"Indonesia";" 082275128583";"";"";"1.0032758";"97.4747839";"https://maps.google.com/?cid=0x0:0x1e144bff6dba5520";""
"perumahan";"Pembangunan Perumahan";"Rumah Keluarga Fedieli Hia";"XCXF+X2, Sisarahili II, Kec. Mandrehe Bar., Kabupaten Nias Barat, Sumatera Utara 22812";"Sisarahili II, Kec. Mandrehe Bar., Kabupaten Nias Barat";"SUMATERA UTARA";"22812";"Indonesia";"";"";"";"0.9998818";"97.4225742";"https://maps.google.com/?cid=0x0:0xa836a66a67cf4f42";""
"perumahan";"Pembangunan Perumahan";"Ononamolo lll";"XCX8+FXM, Jl. Ononamölö lll, Sisarahili II, Kec. Mandrehe Bar., Kabupaten Nias Barat, Sumatera Utara 22812";"Jl. Ononamölö lll, Sisarahili II, Kec. Mandrehe Bar., Kabupaten Nias Barat";"SUMATERA UTARA";"22812";"Indonesia";" 082164759494";"";"";"0.9987088";"97.4174127";"https://maps.google.com/?cid=0x0:0x19f4fc61d6fef255";""
"perumahan";"Perhimpunan Pengembang Perumahan";"Rumah A. Mechris Zebua";"2CPH+WWF, Lasara Faga, Kec. Mandrehe Bar., Kabupaten Nias Barat, Sumatera Utara";"Kabupaten Nias Barat, Sumatera Utara";"SUMATERA UTARA";"";"Indonesia";"";"";"";"1.0373004";"97.4297867";"https://maps.google.com/?cid=0x0:0x60cc2d22809bf56a";""
"perumahan";"Komplek perumahan";"Fadoro kec Mandrehe Kab Nias barat";"2FWV+FQH, Fadoro, Kec. Mandrehe, Kabupaten Nias Barat, Sumatera Utara 22862";"Fadoro, Kec. Mandrehe, Kabupaten Nias Barat";"SUMATERA UTARA";"22862";"Indonesia";"";"";"";"1.045733";"97.494167";"https://maps.google.com/?cid=0x0:0x3dd9dcd0521e3e57";""
"perumahan";"Komplek perumahan";"TIAN HIAZZ";"2C4R+QV7, Sisobambowo, Kec. Mandrehe, Kabupaten Nias Barat, Sumatera Utara 22812";"Sisobambowo, Kec. Mandrehe, Kabupaten Nias Barat";"SUMATERA UTARA";"22812";"Indonesia";"";"";"";"1.0069068";"97.4421845";"https://maps.google.com/?cid=0x0:0x5a716192af984093";""
"perumahan";"Komplek perumahan";"Rumah A/i Cris Zebua";"2CGR+629, Mazingo, Kec. Mandrehe Bar., Kabupaten Nias Barat, Sumatera Utara 22812";"Mazingo, Kec. Mandrehe Bar., Kabupaten Nias Barat";"SUMATERA UTARA";"22812";"Indonesia";"";"";"";"1.026687";"97.439465";"https://maps.google.com/?cid=0x0:0x3b3b3f7beddc61e4";""
"perumahan";"Komplek perumahan";"Rumah Nining Zebua";"XCX9+RFR, Sisarahili II, Kec. Mandrehe Bar., Kabupaten Nias Barat, Sumatera Utara 22812";"Sisarahili II, Kec. Mandrehe Bar., Kabupaten Nias Barat";"SUMATERA UTARA";"22812";"Indonesia";"";"";"";"0.9996192";"97.4185755";"https://maps.google.com/?cid=0x0:0xdb57f62cac91b15b";""
"perumahan";"Sekolah";"Lasarafaga";"2CHG+G7M, Lasara Faga, Kec. Mandrehe Bar., Kabupaten Nias Barat, Sumatera Utara 22812";"Lasara Faga, Kec. Mandrehe Bar., Kabupaten Nias Barat";"SUMATERA UTARA";"22812";"Indonesia";"";"";"";"1.0298077";"97.4261862";"https://maps.google.com/?cid=0x0:0x47738fd2dd5f8608";""
"perumahan";"Perumahan guru";"Rumah Dinas Guru - II MB";"2CQM+45V, Lasara Faga, Kec. Mandrehe Bar., Kabupaten Nias Barat, Sumatera Utara 22812";"Lasara Faga, Kec. Mandrehe Bar., Kabupaten Nias Barat";"SUMATERA UTARA";"22812";"Indonesia";"";"";"";"1.0378891";"97.4332709";"https://maps.google.com/?cid=0x0:0x106b5aed63253717";""
"perumahan";"perumahan";"Rumah Ama juli Gulo";"2C46+36J, Sisarahili II, Kec. Mandrehe Bar., Kabupaten Nias Barat, Sumatera Utara 22812";"Sisarahili II, Kec. Mandrehe Bar., Kabupaten Nias Barat";"SUMATERA UTARA";"22812";"Indonesia";"";"";"";"1.0052176";"97.4105197";"https://maps.google.com/?cid=0x0:0xa5e3d5c4cc70a349";""
"perumahan";"Toko";"Rumah A/I HAYATI HIA";"XCMQ+9X, Ononamolo III, Kec. Mandrehe Bar., Kabupaten Nias Barat, Sumatera Utara";"Kabupaten Nias Barat, Sumatera Utara";"SUMATERA UTARA";"";"Indonesia";"";"";"";"0.9834701";"97.43996";"https://maps.google.com/?cid=0x0:0x39565c9485fd8293";""
"perumahan";"Komplek perumahan";"Perum. Delasiga";"Sirombu, Kec. Sirombu, Kabupaten Nias Barat, Sumatera Utara 22863";"Kec. Sirombu, Kabupaten Nias Barat";"SUMATERA UTARA";"22863";"Indonesia";" 081396324969";"";"";"0.9567508";"97.423001";"https://maps.google.com/?cid=0x0:0xf2ce2d842e13d14d";""
"perumahan";"Komplek perumahan";"RUMAH HARRIS DAELI";"XFGJ+VCP, Tigaserangkai, Kec. Lahomi, Kabupaten Nias Barat, Sumatera Utara 22864";"Tigaserangkai, Kec. Lahomi, Kabupaten Nias Barat";"SUMATERA UTARA";"22864";"Indonesia";"";"";"";"0.9773217";"97.4808439";"https://maps.google.com/?cid=0x0:0xaa541a2e7e37e9c0";""
"perumahan";"Komplek perumahan";"YUSUFRONI ZILIWU";"XCJ7+H7R, Jl. Gawuhao, Onolimburaya, Kec. Mandrehe Bar., Kabupaten Nias Barat, Sumatera Utara 22812";"Jl. Gawuhao, Onolimburaya, Kec. Mandrehe Bar., Kabupaten Nias Barat";"SUMATERA UTARA";"22812";"Indonesia";"";"";"";"0.9814921";"97.4131263";"https://maps.google.com/?cid=0x0:0xfa4e486cf6de92f2";""
"perumahan";"Komplek perumahan";"Rumah jones";"2CWM+3V5, Orahili Badalu, Kec. Mandrehe Bar., Kabupaten Nias Barat, Sumatera Utara 22812";"Orahili Badalu, Kec. Mandrehe Bar., Kabupaten Nias Barat";"SUMATERA UTARA";"22812";"Indonesia";"";"";"";"1.0451436";"97.43473";"https://maps.google.com/?cid=0x0:0xb7f7cf0a0d95d134";""
"perumahan";"Rumah Sakit";"PUSKESMAS MANDREHE BARAT";"2CMH+WG6, Lasara Faga, Kec. Mandrehe Bar., Kabupaten Nias Barat, Sumatera Utara 22812";"Lasara Faga, Kec. Mandrehe Bar., Kabupaten Nias Barat";"SUMATERA UTARA";"22812";"Indonesia";"";"";"";"1.0347876";"97.4287587";"https://maps.google.com/?cid=0x0:0x685746592dba29ae";""
"perumahan";"Komplek perumahan";"Advendio Bestedi Zebua";"2CFF+GX8, Jl. Fabaliwa - Sirombu, Sisobandrao, Kec. Mandrehe Bar., Kabupaten Nias Barat, Sumatera Utara 22812";"Jl. Fabaliwa - Sirombu, Sisobandrao, Kec. Mandrehe Bar., Kabupaten Nias Barat";"SUMATERA UTARA";"22812";"Indonesia";"";"";"";"1.0234061";"97.4243955";"https://maps.google.com/?cid=0x0:0x2ea5cf76eaccf32c";""
"perumahan";"perumahan";"Sumatera Utara 22814";"Saombo, Kec. Gunungsitoli, Kota Gunungsitoli, Sumatera Utara";"Kota Gunungsitoli, Sumatera Utara";"SUMATERA UTARA";"";"Indonesia";"";"";"";"1.2897758";"97.6188016";"https://maps.google.com/?cid=0x0:0x72677cb0cc3dbd55";""
"perumahan";"Komplek perumahan";"Fadoro kec Mandrehe Kab Nias barat";"2FWV+FQH, Fadoro, Kec. Mandrehe, Kabupaten Nias Barat, Sumatera Utara 22862";"Fadoro, Kec. Mandrehe, Kabupaten Nias Barat";"SUMATERA UTARA";"22862";"Indonesia";"";"";"";"1.045733";"97.494167";"https://maps.google.com/?cid=0x0:0x3dd9dcd0521e3e57";""
"perumahan";"Komplek perumahan";"Rijen";"Jl. Imam Bonjol, Saombo, Kec. Gunungsitoli, Kota Gunungsitoli, Sumatera Utara";"Kota Gunungsitoli, Sumatera Utara";"SUMATERA UTARA";"";"Indonesia";"";"";"";"1.2897906";"97.6171237";"https://maps.google.com/?cid=0x0:0x91f9a77996667213";""
"perumahan";"perumahan";"Rumah ERWIN LAOLI";"7JQ9+8Q6, Ps. Gn. Sitoli, Kec. Gunungsitoli, Kota Gunungsitoli, Sumatera Utara";"Kota Gunungsitoli, Sumatera Utara";"SUMATERA UTARA";"";"Indonesia";"";"";"";"1.2882883";"97.6193977";"https://maps.google.com/?cid=0x0:0x481fdf22aff69f8f";""
"perumahan";"Toko Pakaian Anak";"TOKO RUMAH ANAK";"7JQ9+WMX, Saombo, Kec. Gunungsitoli, Kota Gunungsitoli, Sumatera Utara 22814";"Saombo, Kec. Gunungsitoli, Kota Gunungsitoli";"SUMATERA UTARA";"22814";"Indonesia";"";"";"";"1.2898658";"97.6192489";"https://maps.google.com/?cid=0x0:0x78f724118324bc8b";""
"perumahan";"perumahan";"kos kosan";"7JR9+5V6, Saombo, Taman, Kota Gunungsitoli, Sumatera Utara";"Kota Gunungsitoli, Sumatera Utara";"SUMATERA UTARA";"";"Indonesia";" 081385661720";"";"";"1.290412";"97.6196449";"https://maps.google.com/?cid=0x0:0x133698a230a2d8f";""
"perumahan";"Hidangan Laut";"Rumah Makan Nasional";"Jl. Sirao No.87, Saombo, Kec. Gunungsitoli, Kota Gunungsitoli, Sumatera Utara 22814";"Saombo, Kec. Gunungsitoli, Kota Gunungsitoli";"SUMATERA UTARA";"22814";"Indonesia";" 081361463601";"";"";"1.290176";"97.6176323";"https://maps.google.com/?cid=0x0:0x1d79ded07760249d";""
"perumahan";"Restoran";"Rumah Makan Pak Gaek";"Jl. Sirao No.69 B, Saombo, Kec. Gunungsitoli, Kota Gunungsitoli, Sumatera Utara 22814";"Saombo, Kec. Gunungsitoli, Kota Gunungsitoli";"SUMATERA UTARA";"22814";"Indonesia";"";"";"";"1.2901944";"97.6175";"https://maps.google.com/?cid=0x0:0x2dacc31bf19e9589";""
"perumahan";"Toko Bahan Bangunan";"Toko SEJATI";"Jl. Sirao No.118, Ps. Gn. Sitoli, Kec. Gunungsitoli, Kota Gunungsitoli, Sumatera Utara 22814";"Ps. Gn. Sitoli, Kec. Gunungsitoli, Kota Gunungsitoli";"SUMATERA UTARA";"22814";"Indonesia";"";"";"";"1.2886541";"97.6191848";"https://maps.google.com/?cid=0x0:0xd2db58abc550eee1";""
"perumahan";"Grosir Perlengkapan Rumah Tangga";"Toko Era Baru";"Jl. Sirao No.147, Saombo, Kec. Gunungsitoli, Kota Gunungsitoli, Sumatera Utara 22811";"Saombo, Kec. Gunungsitoli, Kota Gunungsitoli";"SUMATERA UTARA";"22811";"Indonesia";"";"";"";"1.2893722";"97.6191514";"https://maps.google.com/?cid=0x0:0x1c30484a294d74a4";""
"perumahan";"Toko";"TOKO SAMUDRA JAYA";"Jl. Sirao No.90, Saombo, Kec. Gunungsitoli, Kota Gunungsitoli, Sumatera Utara 22814";"Saombo, Kec. Gunungsitoli, Kota Gunungsitoli";"SUMATERA UTARA";"22814";"Indonesia";" 085261363333";"";"";"1.2894013";"97.618924";"https://maps.google.com/?cid=0x0:0xa6c487a8dbcbf7a7";""
"perumahan";"Kantor Pemerintah";"Rumah Kepling VIII Ilir";"7JQC+CH7, Jl. Kelapa, Ps. Gn. Sitoli, Kec. Gunungsitoli, Kota Gunungsitoli, Sumatera Utara";"Kota Gunungsitoli, Sumatera Utara";"SUMATERA UTARA";"";"Indonesia";"";"";"";"1.2885476";"97.6214228";"https://maps.google.com/?cid=0x0:0x77df44f09c1208c2";""
"perumahan";"Rumah wisata";"Elisabeth";"Jl. Sirao No.24, Saombo, Kec. Gunungsitoli, Kota Gunungsitoli, Sumatera Utara 22814";"Saombo, Kec. Gunungsitoli, Kota Gunungsitoli";"SUMATERA UTARA";"22814";"Indonesia";" 081385661720";"";"";"1.290156";"97.6168511";"https://maps.google.com/?cid=0x0:0xf15484240a291af7";""
"perumahan";"Dokter Kandungan";"Klinik Stela Gracia";"Jl. Sirao No.139, Ps. Gn. Sitoli, Ps. Gn. Sitoli, Kec. Gunungsitoli, Kota Gunungsitoli, Sumatera Utara 22814";"Ps. Gn. Sitoli, Ps. Gn. Sitoli, Kec. Gunungsitoli, Kota Gunungsitoli";"SUMATERA UTARA";"22814";"Indonesia";"";"";"";"1.2898291";"97.6181154";"https://maps.google.com/?cid=0x0:0xea26399dad0d74aa";""
"perumahan";"perumahan";"Kec. Mandrehe Utara";"Kabupaten Nias Barat, Sumatera Utara";"Kabupaten Nias Barat, Sumatera Utara";"SUMATERA UTARA";"";"Indonesia";"";"";"";"1.1278924";"97.535927";"https://maps.google.com/?cid=0x0:0xaa4f2aa38746626";""
"perumahan";"perumahan";"Sumatera Utara 22862";"Kabupaten Nias Barat, Sumatera Utara";"Kabupaten Nias Barat, Sumatera Utara";"SUMATERA UTARA";"";"Indonesia";"";"";"";"1.0305654";"97.5030669";"https://maps.google.com/?cid=0x0:0x343297d388925be1";""
"perumahan";"Komplek perumahan";"Moro'o";"3C76+JC5, Sidua Hili, Kec. Moro'o, Kabupaten Nias Barat, Sumatera Utara 22862";"Sidua Hili, Kec. Moro'o, Kabupaten Nias Barat";"SUMATERA UTARA";"22862";"Indonesia";"";"";"";"1.0640204";"97.4110988";"https://maps.google.com/?cid=0x0:0xf7462cab553a9e0a";""
"perumahan";"Komplek perumahan";"Rumah Dinas Kesehatan Moro'o";"3CGP+953, Halifadolo, Kec. Moro'o, Kabupaten Nias Barat, Sumatera Utara";"Kabupaten Nias Barat, Sumatera Utara";"SUMATERA UTARA";"";"Indonesia";"";"";"";"1.0758948";"97.4354141";"https://maps.google.com/?cid=0x0:0x8a170792a86cad1";""
"perumahan";"Komplek perumahan";"Desa Hiliwalo'o I";"2GQ3+WFM Ulu Moro'ö (Moro'o, Jalan, Sianaa, Mandrehe, West Nias Regency, North Sumatra 22862";"Jalan, Sianaa, Mandrehe, West Nias Regency";"SUMATERA UTARA";"22862";"Indonesia";"";"";"";"1.039838";"97.503663";"https://maps.google.com/?cid=0x0:0xcb91fb8fc7712526";""
"perumahan";"Perhimpunan Pengembang Perumahan";"Hiliwase";"2G89+GP7, Bukit Tinggi, Kec. Ulu Moro'o, Kabupaten Nias Barat, Sumatera Utara 22862";"Bukit Tinggi, Kec. Ulu Moro'o, Kabupaten Nias Barat";"SUMATERA UTARA";"22862";"Indonesia";"";"";"";"1.0162936";"97.5193093";"https://maps.google.com/?cid=0x0:0xfaf3e086e7dea864";""
"perumahan";"Komplek perumahan";"Vegard";"3C7J+6C7, Loloana'a Desa Hilifadolo, Kec. Moro'o, Kab, Hilisoromi, Kec. Moro'o, Kabupaten Nias Barat, Sumatera Utara 22862";"Loloana'a Desa Hilifadolo, Kec. Moro'o, Kab, Hilisoromi, Kec. Moro'o, Kabupaten Nias Barat";"SUMATERA UTARA";"22862";"Indonesia";"";"";"";"1.0628673";"97.4308857";"https://maps.google.com/?cid=0x0:0xf9bd565913ddce15";""
"perumahan";"Komplek perumahan";"Rumah Fidelis Gulo/ama fide";"3CC7+XCM, Sidua Hili, Kec. Moro'o, Kabupaten Nias Barat, Sumatera Utara 22862";"Sidua Hili, Kec. Moro'o, Kabupaten Nias Barat";"SUMATERA UTARA";"22862";"Indonesia";"";"";"";"1.0721092";"97.4148438";"https://maps.google.com/?cid=0x0:0x2883ca6d99113fe9";""
"perumahan";"Komplek perumahan";"R. Esa gulo";"3C3G+RH7, Sidua Hili, Kec. Moro'o, Kabupaten Nias Barat, Sumatera Utara";"Kabupaten Nias Barat, Sumatera Utara";"SUMATERA UTARA";"";"Indonesia";"";"";"";"1.053164";"97.426477";"https://maps.google.com/?cid=0x0:0x5a8791d8df828184";""
"perumahan";"Perhimpunan Pengembang Perumahan";"Rumah G";"2G7G+VXG, Bukit Tinggi, Kec. Ulu Moro'o, Kabupaten Nias Barat, Sumatera Utara";"Kabupaten Nias Barat, Sumatera Utara";"SUMATERA UTARA";"";"Indonesia";"";"";"";"1.0146938";"97.5274619";"https://maps.google.com/?cid=0x0:0x2d7486c8423c8331";""
"perumahan";"Komplek perumahan";"Rumah A/I Tema Gl";"2GHG+FG6, Bukit Tinggi, Kec. Ulu Moro'o, Kabupaten Nias Barat, Sumatera Utara";"Kabupaten Nias Barat, Sumatera Utara";"SUMATERA UTARA";"";"Indonesia";"";"";"";"1.0286607";"97.5262523";"https://maps.google.com/?cid=0x0:0x5d817bb4a2f279fb";""
"perumahan";"Komplek perumahan";"Rumah a/fini gulo";"2G89+X22, Bukit Tinggi, Kec. Ulu Moro'o, Kabupaten Nias Barat, Sumatera Utara 22862";"Bukit Tinggi, Kec. Ulu Moro'o, Kabupaten Nias Barat";"SUMATERA UTARA";"22862";"Indonesia";"";"";"";"1.0173859";"97.5175016";"https://maps.google.com/?cid=0x0:0xc38f1307af6242ba";""
"perumahan";"Komplek perumahan";"Angorudua Balaekha";"3C8P+G5M, Hilisoromi, Kec. Moro'o, Kabupaten Nias Barat, Sumatera Utara 22862";"Hilisoromi, Kec. Moro'o, Kabupaten Nias Barat";"SUMATERA UTARA";"22862";"Indonesia";"";"";"";"1.0663366";"97.4354313";"https://maps.google.com/?cid=0x0:0x60b5204d383a77e";""
"perumahan";"Perumahan";"Feli waruwu";"2CW2+247, Jl. Fadoro Dusun II, Onozalukhu You, Kec. Moro'o, Kabupaten Nias Barat, Sumatera Utara";"Kabupaten Nias Barat, Sumatera Utara";"SUMATERA UTARA";"";"Indonesia";"";"";"";"1.0450493";"97.4002872";"https://maps.google.com/?cid=0x0:0xade6d8bbcf02f073";""
"perumahan";"Pembangunan Perumahan";"Briel Gulo Bewegali";"3C8G+MP5, Jl. Fabaliwa - Sirombu, Hilisoromi, Kec. Moro'o, Kabupaten Nias Barat, Sumatera Utara 22862";"Jl. Fabaliwa - Sirombu, Hilisoromi, Kec. Moro'o, Kabupaten Nias Barat";"SUMATERA UTARA";"22862";"Indonesia";"";"";"";"1.0666403";"97.4268638";"https://maps.google.com/?cid=0x0:0x3ec7f5135a896879";""
"perumahan";"Perhimpunan Pengembang Perumahan";"Bebby";"3F78+VWJ, Jl. Zuzundrao, Gn. Baru, Kec. Moro'o, Kabupaten Nias Barat, Sumatera Utara 22862";"Jl. Zuzundrao, Gn. Baru, Kec. Moro'o, Kabupaten Nias Barat";"SUMATERA UTARA";"22862";"Indonesia";"";"";"";"1.0650854";"97.467639";"https://maps.google.com/?cid=0x0:0x371ce2b2cdfcb4db";""
"perumahan";"Komplek perumahan";"Rumah A/I Selvi Gulo";"3F3F+WVM, Tetehosi, Kec. Mandrehe, Kabupaten Nias Barat, Sumatera Utara 22862";"Tetehosi, Kec. Mandrehe, Kabupaten Nias Barat";"SUMATERA UTARA";"22862";"Indonesia";"";"";"";"1.0548264";"97.4746859";"https://maps.google.com/?cid=0x0:0x962b955cf34000af";""
"perumahan";"perumahan";"Rumah Ama Ina Jasver Gulo (Toko JPR)";"2FXR+JXX, Fadoro, Kec. Mandrehe, Kabupaten Nias Barat, Sumatera Utara 22862";"Fadoro, Kec. Mandrehe, Kabupaten Nias Barat";"SUMATERA UTARA";"22862";"Indonesia";"";"";"";"1.0495329";"97.4927405";"https://maps.google.com/?cid=0x0:0x678b7c043162b3f4";""
"perumahan";"Komplek perumahan";"𝑫𝒂𝒐 - 𝑫𝒂𝒐";"3CJX+G3, Hiliwaloo II, Kec. Moro'o, Kabupaten Nias Barat, Sumatera Utara";"Kabupaten Nias Barat, Sumatera Utara";"SUMATERA UTARA";"";"Indonesia";"";"";"";"1.081561";"97.448089";"https://maps.google.com/?cid=0x0:0xf47d3e5f5223eda0";""
"perumahan";"Komplek perumahan";"Bukittinggi";"2G88+WVJ, Bukit Tinggi, Kec. Ulu Moro'o, Kabupaten Nias Barat, Sumatera Utara 22862";"Bukit Tinggi, Kec. Ulu Moro'o, Kabupaten Nias Barat";"SUMATERA UTARA";"22862";"Indonesia";"";"";"";"1.017292";"97.5171382";"https://maps.google.com/?cid=0x0:0x2942bf33c3f4b285";""
"perumahan";"Komplek perumahan";"Sideric gulo";"3C6C+37, Sidua Hili, Kec. Moro'o, Kabupaten Nias Barat, Sumatera Utara 22862";"Sidua Hili, Kec. Moro'o, Kabupaten Nias Barat";"SUMATERA UTARA";"22862";"Indonesia";"";"";"";"1.060142";"97.420744";"https://maps.google.com/?cid=0x0:0xfe8bc99b91289259";""
"perumahan";"Komplek perumahan";"Desa Hilifadolo Kec.Moro'o Kab.Nias Barat";"3C6J+JHV, Rumah Ama Lilis Gulo Dusun I (satu) Loloana'a, Halifadolo, Kec. Moro'o";"Kabupaten Nias Barat, Sumatera Utara";"SUMATERA UTARA";"";"Indonesia";"";"";"";"1.0616047";"97.4314368";"https://maps.google.com/?cid=0x0:0x59bfe1d84df6e4ed";""
"perumahan";"Komplek perumahan";"Rumah A.Arlan Gulo";"3C92+RM2, Sidua Hili, Kec. Moro'o, Kabupaten Nias Barat, Sumatera Utara 22862";"Sidua Hili, Kec. Moro'o, Kabupaten Nias Barat";"SUMATERA UTARA";"22862";"Indonesia";"";"";"";"1.0695143";"97.4016356";"https://maps.google.com/?cid=0x0:0x68c5ceb186b672f";""
"perumahan";"Komplek perumahan";"Rumah ROROGO GULO";"39MR+HV, Sitolu Banua Fadoro, Kec. Moro'o, Kabupaten Nias Barat, Sumatera Utara";"Kabupaten Nias Barat, Sumatera Utara";"SUMATERA UTARA";"";"Indonesia";"";"";"";"1.083907";"97.392175";"https://maps.google.com/?cid=0x0:0x7e4f6bae2ae25422";""
"perumahan";"Komplek perumahan";"Rumah Joy M Gulo";"2G7M+P7G, Lawelu, Kec. Ulu Moro'o, Kabupaten Nias Barat, Sumatera Utara";"Kabupaten Nias Barat, Sumatera Utara";"SUMATERA UTARA";"";"Indonesia";"";"";"";"1.0143137";"97.5332061";"https://maps.google.com/?cid=0x0:0x2fd1ec3247ffab8e";""
"perumahan";"Pembangunan Perumahan";"Moro Cluster 2";"JQ7H+PHF, Jl. Mandor Basar, Rangkapan Jaya, Kec. Pancoran Mas, Kota Depok, Jawa Barat 16435";"Jl. Mandor Basar, Rangkapan Jaya, Kec. Pancoran Mas, Kota Depok";"SUMATERA UTARA";"16435";"Indonesia";"";"";"";"-6.3856984";"106.7789154";"https://maps.google.com/?cid=0x0:0x66fc84b880eed536";""
"perumahan";"Pembangunan Perumahan";"ATJ House";"2G6P+JPQ, Bukit Tinggi, Kec. Ulu Moro'o, Kabupaten Nias Barat, Sumatera Utara 22862";"Bukit Tinggi, Kec. Ulu Moro'o, Kabupaten Nias Barat";"SUMATERA UTARA";"22862";"Indonesia";"";"";"";"1.0107356";"97.5362971";"https://maps.google.com/?cid=0x0:0x324e12cc1d5ff394";""
"perumahan";"Komplek perumahan";"Rumah I. Kharis Gulo";"2FHP+W38, Simaeasi, Kec. Mandrehe, Kabupaten Nias Barat, Sumatera Utara 22862";"Simaeasi, Kec. Mandrehe, Kabupaten Nias Barat";"SUMATERA UTARA";"22862";"Indonesia";"";"";"";"1.0297868";"97.4852132";"https://maps.google.com/?cid=0x0:0xebe42061807b9591";""
"perumahan";"Komplek perumahan";"Rumah a. Rekar gulo";"3C6J+R78, Jl. Fabaliwa - Sirombu, Hilisoromi, Kec. Moro'o, Kabupaten Nias Barat, Sumatera Utara 22862";"Jl. Fabaliwa - Sirombu, Hilisoromi, Kec. Moro'o, Kabupaten Nias Barat";"SUMATERA UTARA";"22862";"Indonesia";"";"";"";"1.0621308";"97.4308294";"https://maps.google.com/?cid=0x0:0x281c823168f85246";""
"perumahan";"perumahan";"Sirombu";"Sirombu, Kec. Sirombu, Kabupaten Nias Barat, Sumatera Utara";"Kabupaten Nias Barat, Sumatera Utara";"SUMATERA UTARA";"";"Indonesia";"";"";"";"0.952816";"97.418171";"https://maps.google.com/?cid=0x0:0x4039d80b2210500";""
"perumahan";"Komplek perumahan";"Perum Red Cross 1 Delasiga";"XC4G+Q3W, Sirombu, Kec. Sirombu, Kabupaten Nias Barat, Sumatera Utara 22863";"Sirombu, Kec. Sirombu, Kabupaten Nias Barat";"SUMATERA UTARA";"22863";"Indonesia";"";"";"";"0.9569905";"97.4251958";"https://maps.google.com/?cid=0x0:0x975dd7d3e1dbfa10";""
"perumahan";"Perumahan";"Redcross I Sirombu";"XC39+47F, Sirombu, Kec. Sirombu, Kabupaten Nias Barat, Sumatera Utara";"Kabupaten Nias Barat, Sumatera Utara";"SUMATERA UTARA";"";"Indonesia";"";"";"";"0.952816";"97.418171";"https://maps.google.com/?cid=0x0:0x15e2364422338dff";""
"perumahan";"Komplek perumahan";"Perum. Delasiga";"Sirombu, Kec. Sirombu, Kabupaten Nias Barat, Sumatera Utara 22863";"Kec. Sirombu, Kabupaten Nias Barat";"SUMATERA UTARA";"22863";"Indonesia";" 081396324969";"";"";"0.9567508";"97.423001";"https://maps.google.com/?cid=0x0:0xf2ce2d842e13d14d";""
"perumahan";"perumahan";"Kec. Ulu Moro'o";"Kabupaten Nias Barat, Sumatera Utara";"Kabupaten Nias Barat, Sumatera Utara";"SUMATERA UTARA";"";"Indonesia";"";"";"";"1.0144644";"97.5333185";"https://maps.google.com/?cid=0x0:0xcabc6a3673d44b2d";""
"perumahan";"Komplek perumahan";"Desa Hiliwalo'o I";"2GQ3+WFM Ulu Moro'ö (Moro'o, Jalan, Sianaa, Mandrehe, West Nias Regency, North Sumatra 22862";"Jalan, Sianaa, Mandrehe, West Nias Regency";"SUMATERA UTARA";"22862";"Indonesia";"";"";"";"1.039838";"97.503663";"https://maps.google.com/?cid=0x0:0xcb91fb8fc7712526";""
"perumahan";"perumahan";"Rumah bou ena";"2HGF+799, Hilisangawola, Kec. Ulu Moro'o, Kabupaten Nias Barat, Sumatera Utara";"Kabupaten Nias Barat, Sumatera Utara";"SUMATERA UTARA";"";"Indonesia";"";"";"";"1.0256535";"97.5734783";"https://maps.google.com/?cid=0x0:0xc3066358ab8a270c";""
"perumahan";"Perhimpunan Pengembang Perumahan";"Hiliwase";"2G89+GP7, Bukit Tinggi, Kec. Ulu Moro'o, Kabupaten Nias Barat, Sumatera Utara 22862";"Bukit Tinggi, Kec. Ulu Moro'o, Kabupaten Nias Barat";"SUMATERA UTARA";"22862";"Indonesia";"";"";"";"1.0162936";"97.5193093";"https://maps.google.com/?cid=0x0:0xfaf3e086e7dea864";""
"perumahan";"Perhimpunan Pengembang Perumahan";"Rumah G";"2G7G+VXG, Bukit Tinggi, Kec. Ulu Moro'o, Kabupaten Nias Barat, Sumatera Utara";"Kabupaten Nias Barat, Sumatera Utara";"SUMATERA UTARA";"";"Indonesia";"";"";"";"1.0146938";"97.5274619";"https://maps.google.com/?cid=0x0:0x2d7486c8423c8331";""
"perumahan";"Komplek perumahan";"Rumah a/fini gulo";"2G89+X22, Bukit Tinggi, Kec. Ulu Moro'o, Kabupaten Nias Barat, Sumatera Utara 22862";"Bukit Tinggi, Kec. Ulu Moro'o, Kabupaten Nias Barat";"SUMATERA UTARA";"22862";"Indonesia";"";"";"";"1.0173859";"97.5175016";"https://maps.google.com/?cid=0x0:0xc38f1307af6242ba";""
"perumahan";"Komplek perumahan";"A.Martin Gulo";"2G8J+6XF, Lawelu, Kec. Ulu Moro'o, Kabupaten Nias Barat, Sumatera Utara";"Kabupaten Nias Barat, Sumatera Utara";"SUMATERA UTARA";"";"Indonesia";"";"";"";"1.0155696";"97.5324268";"https://maps.google.com/?cid=0x0:0x1c9a96371762deaf";""
"perumahan";"Komplek perumahan";"🏠 S.B Gulö S.Kom";"2G8J+6XF, Lawelu, Kec. Ulu Moro'o, Kabupaten Nias Barat, Sumatera Utara";"Kabupaten Nias Barat, Sumatera Utara";"SUMATERA UTARA";"";"Indonesia";"";"";"";"1.015639";"97.5328234";"https://maps.google.com/?cid=0x0:0xa243fbfad37ef38c";""
"perumahan";"Komplek perumahan";"Rumah Joy M Gulo";"2G7M+P7G, Lawelu, Kec. Ulu Moro'o, Kabupaten Nias Barat, Sumatera Utara";"Kabupaten Nias Barat, Sumatera Utara";"SUMATERA UTARA";"";"Indonesia";"";"";"";"1.0143137";"97.5332061";"https://maps.google.com/?cid=0x0:0x2fd1ec3247ffab8e";""
"perumahan";"Komplek perumahan";"Fendrianus gulo";"2G5V+GFR, Bukit Tinggi, Kec. Ulu Moro'o, Kabupaten Nias Barat, Sumatera Utara 22862";"Bukit Tinggi, Kec. Ulu Moro'o, Kabupaten Nias Barat";"SUMATERA UTARA";"22862";"Indonesia";"";"";"";"1.0088742";"97.5436253";"https://maps.google.com/?cid=0x0:0xd69eac5d5f326140";""
"perumahan";"Komplek perumahan";"Floren waruwu";"2HGF+799, Hilisangawola, Kec. Ulu Moro'o, Kabupaten Nias Barat, Sumatera Utara";"Kabupaten Nias Barat, Sumatera Utara";"SUMATERA UTARA";"";"Indonesia";"";"";"";"1.0256535";"97.5734783";"https://maps.google.com/?cid=0x0:0x2f1e7f55d9d4ea79";""
"perumahan";"Komplek perumahan";"Bukittinggi";"2G88+WVJ, Bukit Tinggi, Kec. Ulu Moro'o, Kabupaten Nias Barat, Sumatera Utara 22862";"Bukit Tinggi, Kec. Ulu Moro'o, Kabupaten Nias Barat";"SUMATERA UTARA";"22862";"Indonesia";"";"";"";"1.017292";"97.5171382";"https://maps.google.com/?cid=0x0:0x2942bf33c3f4b285";""
"perumahan";"Pembangunan Perumahan";"ATJ House";"2G6P+JPQ, Bukit Tinggi, Kec. Ulu Moro'o, Kabupaten Nias Barat, Sumatera Utara 22862";"Bukit Tinggi, Kec. Ulu Moro'o, Kabupaten Nias Barat";"SUMATERA UTARA";"22862";"Indonesia";"";"";"";"1.0107356";"97.5362971";"https://maps.google.com/?cid=0x0:0x324e12cc1d5ff394";""
"perumahan";"Komplek perumahan";"Rumah pak Wana Gulo";"2G4X+WC5, Saloo, Kec. Ulu Moro'o, Kabupaten Nias Barat, Sumatera Utara 22862";"Saloo, Kec. Ulu Moro'o, Kabupaten Nias Barat";"SUMATERA UTARA";"22862";"Indonesia";"";"";"";"1.007251";"97.5486146";"https://maps.google.com/?cid=0x0:0x123c69f13a0c2f94";""
"perumahan";"Komplek perumahan";"A.Yusu Hulu";"2G85+832, Jln.Ra Kartini dusun 3, lolomoyo, Kec. Mandrehe, Kabupaten Nias Barat, Sumatera Utara";"Kabupaten Nias Barat, Sumatera Utara";"SUMATERA UTARA";"";"Indonesia";"";"";"";"1.0157734";"97.5076264";"https://maps.google.com/?cid=0x0:0xfe36767ace3e5388";""
"perumahan";"Pusat Kesehatan Masyarakat";"UPT PUSKESMAS ULU MORO'O";"2G6Q+M48 Moro'o, Desa, Lawelu, Kecamatan Ulu, Kabupaten Nias Barat, Sumatera Utara";"Kabupaten Nias Barat, Sumatera Utara";"SUMATERA UTARA";"";"Indonesia";"";"";"";"1.0116674";"97.5378168";"https://maps.google.com/?cid=0x0:0x66ac0ceffe16ed00";""
"perumahan";"Komplek perumahan";"Kota Nias";"Lawelu, Kec. Ulu Moro'o, Kabupaten Nias Barat, Sumatera Utara";"Kabupaten Nias Barat, Sumatera Utara";"SUMATERA UTARA";"";"Indonesia";"";"";"";"1.0328674";"97.5328476";"https://maps.google.com/?cid=0x0:0xb214af0202527eed";""
"perumahan";"Komplek perumahan";"Rumah A.Windel ST GULO";"2G7H+V7J, Bukit Tinggi, Kec. Ulu Moro'o, Kabupaten Nias Barat, Sumatera Utara 22862";"Bukit Tinggi, Kec. Ulu Moro'o, Kabupaten Nias Barat";"SUMATERA UTARA";"22862";"Indonesia";"";"";"";"1.0147198";"97.5281329";"https://maps.google.com/?cid=0x0:0x4a45eb3111254a1c";""
"perumahan";"Pembangunan Perumahan";"Simpang 3 Hilihambawa";"2HM5+GW, Saloo, Kec. Ulu Moro'o, Kabupaten Nias Barat, Sumatera Utara 22862";"Saloo, Kec. Ulu Moro'o, Kabupaten Nias Barat";"SUMATERA UTARA";"22862";"Indonesia";"";"";"";"1.0337266";"97.5598237";"https://maps.google.com/?cid=0x0:0x7e3382131c4d0768";""
"perumahan";"Komplek perumahan";"RM. Joyko";"2G7M+P8W, Lawelu, Kec. Ulu Moro'o, Kabupaten Nias Barat, Sumatera Utara";"Kabupaten Nias Barat, Sumatera Utara";"SUMATERA UTARA";"";"Indonesia";"";"";"";"1.0143585";"97.5333143";"https://maps.google.com/?cid=0x0:0xc96ad31f64703eb7";""
