Category,Real Category,Business Name,Address,City,State,Postal Code,Country,Phone,Email,Website,Latitude,Longitude,Map Link,Details Link
toko bangunan,Toko,Toko Borneo,"WM3X+X66, Pa Kemut, Krayan, Kabupaten Nunukan, Kalimantan Utara 77456","Pa Kemut, Krayan, Kabupaten Nunukan",KALIMANTAN UTARA,77456.0,Indonesia,,,,3.9049024,115.6980072,https://maps.google.com/?cid=0x0:0x69b68bca084b87d,
toko bangunan,Toko,71,"Jl. Long Bawan, Pa Kemut, Krayan, Kabupaten Nunukan, Kalimantan Utara 77456","Pa Kemut, Krayan, Kabupaten Nunukan",KALIMANTAN UTARA,77456.0,Indonesia,81337777421.0,,,3.9044303,115.697338,https://maps.google.com/?cid=0x0:0xbb32e366a5b8a04d,
toko bangunan,Toko,Toko Borneo,"WM3X+X66, Pa Kemut, Krayan, Kabupaten Nunukan, Kalimantan Utara 77456","Pa Kemut, Krayan, Kabupaten Nunukan",KALIMANTAN UTARA,77456.0,Indonesia,,,,3.9049024,115.6980072,https://maps.google.com/?cid=0x0:0x69b68bca084b87d,
toko bangunan,Toko,71,"Jl. Long Bawan, Pa Kemut, Krayan, Kabupaten Nunukan, Kalimantan Utara 77456","Pa Kemut, Krayan, Kabupaten Nunukan",KALIMANTAN UTARA,77456.0,Indonesia,81337777421.0,,,3.9044303,115.697338,https://maps.google.com/?cid=0x0:0xbb32e366a5b8a04d,
toko bangunan,toko bangunan,Kec. Lumbis,"Kabupaten Nunukan, Kalimantan Utara","Kabupaten Nunukan, Kalimantan Utara",KALIMANTAN UTARA,,Indonesia,,,,3.7539235,116.7420499,https://maps.google.com/?cid=0x0:0xd64a09322f304639,
toko bangunan,toko bangunan,Kalimantan Utara 77457,"Kabupaten Nunukan, Kalimantan Utara","Kabupaten Nunukan, Kalimantan Utara",KALIMANTAN UTARA,,Indonesia,,,,4.0104303,116.5137964,https://maps.google.com/?cid=0x0:0x82344e1d8c5acb7d,
toko bangunan,Minimarket,Toko Bangunan NAM,"Desa Sanur SP1, Jl. Cermai No.RT 10, Tetaban, Tulin Onsoi, Kabupaten Nunukan, Kalimantan Utara 77485","Jl. Cermai No.RT 10, Tetaban, Tulin Onsoi, Kabupaten Nunukan",KALIMANTAN UTARA,77485.0,Indonesia,82156952199.0,,,4.0310322,116.9832116,https://maps.google.com/?cid=0x0:0xc6591a61906bf637,
toko bangunan,Toko Bahan Bangunan,Toko Bangunan YULIANA,"JW66+244, Tideng Pale, Kec. Sesayap, Kabupaten Tana Tidung, Kalimantan Utara 77152","Tideng Pale, Kec. Sesayap, Kabupaten Tana Tidung",KALIMANTAN UTARA,77152.0,Indonesia,81818202362.0,,,3.6100226,116.910315,https://maps.google.com/?cid=0x0:0x98d76d6b9dbbcb5a,
toko bangunan,Toko Perlengkapan Rumah,Toko Bangunan / Bir,"HWXC+4PM, Sebidai, Kec. Sesayap, Kabupaten Tana Tidung, Kalimantan Utara 77152","Sebidai, Kec. Sesayap, Kabupaten Tana Tidung",KALIMANTAN UTARA,77152.0,Indonesia,,,,3.5978353,116.921808,https://maps.google.com/?cid=0x0:0xf70b582cf3d79925,
toko bangunan,Toko Bahan Bangunan,Toko 88 bahan bangunan,"Malinau Kota, Kec. Malinau Kota, Kabupaten Malinau, Kalimantan Utara 77554","Kec. Malinau Kota, Kabupaten Malinau",KALIMANTAN UTARA,77554.0,Indonesia,83833052031.0,,,3.5837482,116.6245706,https://maps.google.com/?cid=0x0:0x995ee965ba072027,
toko bangunan,Toko Bahan Bangunan,Pelangi Jaya Toko Bangunan,"HJF3+MX9, Malinau Hulu, Kec. Malinau Kota, Kabupaten Malinau, Kalimantan Utara 77554","Malinau Hulu, Kec. Malinau Kota, Kabupaten Malinau",KALIMANTAN UTARA,77554.0,Indonesia,85169995912.0,,,3.5741683,116.6049787,https://maps.google.com/?cid=0x0:0xc4b9090c68b73393,
toko bangunan,Toko,Toko Borneo,"WM3X+X66, Pa Kemut, Krayan, Kabupaten Nunukan, Kalimantan Utara 77456","Pa Kemut, Krayan, Kabupaten Nunukan",KALIMANTAN UTARA,77456.0,Indonesia,,,,3.9049024,115.6980072,https://maps.google.com/?cid=0x0:0x69b68bca084b87d,
toko bangunan,Toko Bahan Bangunan,Toko Mitra Jaya Bangunan,"HJG9+X3C Bandara RA Besing, Malinau Kota, Kec. Malinau Kota, Kabupaten Malinau, Kalimantan Utara 77554","Malinau Kota, Kec. Malinau Kota, Kabupaten Malinau",KALIMANTAN UTARA,77554.0,Indonesia,85169995912.0,,,3.5774367,116.617652,https://maps.google.com/?cid=0x0:0xea81baa680d48aa2,
toko bangunan,Toko Bahan Bangunan,Toko Abadi Jaya,"Jl. Panembahan No.3, RT.3, Malinau Kota, Kec. Malinau Kota, Kabupaten Malinau, Kalimantan Utara 77554","RT.3, Malinau Kota, Kec. Malinau Kota, Kabupaten Malinau",KALIMANTAN UTARA,77554.0,Indonesia,85169995912.0,,,3.5921656,116.6259137,https://maps.google.com/?cid=0x0:0xe025ea1ba7944119,
toko bangunan,Toko Perlengkapan Rumah,Toko Bangunan UD. IRMA,"4WF9+2RH, Sungai Nyamuk, Kec. Sebatik, Kabupaten Nunukan, Kalimantan Utara 77483","Sungai Nyamuk, Kec. Sebatik, Kabupaten Nunukan",KALIMANTAN UTARA,77483.0,Indonesia,8161999912.0,,,4.1225665,117.9196,https://maps.google.com/?cid=0x0:0x1b845c09bfb3955d,
toko bangunan,Toko Bahan Bangunan,TOKO WIJAYA,"Malinau Kota, Kec. Malinau Kota, Kabupaten Malinau, Kalimantan Utara 77554","Kec. Malinau Kota, Kabupaten Malinau",KALIMANTAN UTARA,77554.0,Indonesia,85169995912.0,,,3.577103,116.6175225,https://maps.google.com/?cid=0x0:0x20964ed7ac14e551,
toko bangunan,Toko Bahan Bangunan,Tb.Tunas Jaya,"HJF5+RV9, Jl. Raja Pandita, Pelita Kanaan, Kec. Malinau Kota, Kabupaten Malinau, Kalimantan Utara 77554","Jl. Raja Pandita, Pelita Kanaan, Kec. Malinau Kota, Kabupaten Malinau",KALIMANTAN UTARA,77554.0,Indonesia,85169995912.0,,,3.5745336,116.6097442,https://maps.google.com/?cid=0x0:0x9df0f4d85fe85645,
toko bangunan,Toko Bahan Bangunan,Toko Makmur Jaya,"Jl. Panembahan No.RT.07 No.14, Malinau Kota, Kec. Malinau Kota, Kabupaten Malinau, Kalimantan Utara 77554","Malinau Kota, Kec. Malinau Kota, Kabupaten Malinau",KALIMANTAN UTARA,77554.0,Indonesia,85169995912.0,,,3.5894549,116.6227126,https://maps.google.com/?cid=0x0:0xec9717eadaeb8588,
toko bangunan,Rumah Kayu,Toko Surya Baru,"JW29+CJ9, Jl. Padat Karya, Tideng Pale Tim., Kec. Sesayap, Kabupaten Tana Tidung, Kalimantan Utara 77152","Jl. Padat Karya, Tideng Pale Tim., Kec. Sesayap, Kabupaten Tana Tidung",KALIMANTAN UTARA,77152.0,Indonesia,,,,3.6010278,116.9191185,https://maps.google.com/?cid=0x0:0x9f2b336e8f1103da,
toko bangunan,Grosir sayur,Toko sinar indah malinau seberang,"JJ4G+V8Q, Malinau Seberang, Kec. Malinau Utara, Kabupaten Malinau, Kalimantan Utara 77554","Malinau Seberang, Kec. Malinau Utara, Kabupaten Malinau",KALIMANTAN UTARA,77554.0,Indonesia,,,,3.6072064,116.6258551,https://maps.google.com/?cid=0x0:0xd896d8dc7f3388b,
toko bangunan,Toko Bahan Bangunan,Toko Sinar Baru,"HJJC+MQH, Malinau Kota, Kec. Malinau Kota, Kabupaten Malinau, Kalimantan Utara 77554","Malinau Kota, Kec. Malinau Kota, Kabupaten Malinau",KALIMANTAN UTARA,77554.0,Indonesia,85169995912.0,,,3.5816905,116.6219794,https://maps.google.com/?cid=0x0:0x5a4d212c62ec0cc6,
toko bangunan,Toko Swalayan,Jaya Indah 1,"HJF3+MW6, Malinau Hulu, Kec. Malinau Kota, Kabupaten Malinau, Kalimantan Utara 77554","Malinau Hulu, Kec. Malinau Kota, Kabupaten Malinau",KALIMANTAN UTARA,77554.0,Indonesia,85169995912.0,,,3.574152,116.604778,https://maps.google.com/?cid=0x0:0xc37b0bb236fb881f,
toko bangunan,Kantor Perusahaan,Inhutani PT Persero,"HJPC+F3M, Jl. Panembahan, Malinau Kota, Kec. Malinau Kota, Kabupaten Malinau, Kalimantan Utara 77554","Jl. Panembahan, Malinau Kota, Kec. Malinau Kota, Kabupaten Malinau",KALIMANTAN UTARA,77554.0,Indonesia,55321115.0,,,3.5862177,116.6201853,https://maps.google.com/?cid=0x0:0xc77cd90a207de541,
toko bangunan,Toko Bahan Bangunan,Toko Cahaya Mulia Teknik,"HJ35+VG6, Malinau Hulu, Kec. Malinau Kota, Kabupaten Malinau, Kalimantan Utara 77554","Malinau Hulu, Kec. Malinau Kota, Kabupaten Malinau",KALIMANTAN UTARA,77554.0,Indonesia,83114785308.0,,,3.5546521,116.608772,https://maps.google.com/?cid=0x0:0xc27cc09e2878cb2d,
toko bangunan,Toko Bahan Bangunan,Toko bangunan Sinar Bugis,"Jalan laning, muara, Mansapa, Nunukan Sel., Kabupaten Nunukan, Kalimantan Utara 77482","muara, Mansapa, Nunukan Sel., Kabupaten Nunukan",KALIMANTAN UTARA,77482.0,Indonesia,818390267.0,,,4.0656577,117.7398807,https://maps.google.com/?cid=0x0:0xea1bae64c137bed2,
toko bangunan,Komplek perumahan,BPK.Ingge Nainggolan,"JV2R+G65, Jl. Wisma, Sedulun, Kec. Sesayap, Kabupaten Tana Tidung, Kalimantan Utara 77152","Jl. Wisma, Sedulun, Kec. Sesayap, Kabupaten Tana Tidung",KALIMANTAN UTARA,77152.0,Indonesia,82158289797.0,,,3.601254,116.8906103,https://maps.google.com/?cid=0x0:0x5dbc1786d33995a,
toko bangunan,Toko Bahan Bangunan,Bata merah berkualitas,"JJ2C+HQ6, Malinau Seberang, Kec. Malinau Utara, Kabupaten Malinau, Kalimantan Utara 77554","Malinau Seberang, Kec. Malinau Utara, Kabupaten Malinau",KALIMANTAN UTARA,77554.0,Indonesia,,,,3.6014152,116.6218969,https://maps.google.com/?cid=0x0:0x587c9cc39d7970c5,
toko bangunan,toko bangunan,Nunukan,"Nunukan Tim., Kec. Nunukan, Kabupaten Nunukan, Kalimantan Timur","Kabupaten Nunukan, Kalimantan Timur",KALIMANTAN UTARA,,Indonesia,,,,4.1393382,117.6496257,https://maps.google.com/?cid=0x0:0xc3fd6e9667d03afd,
toko bangunan,Toko Bahan Bangunan,TOKO INDAH JAYA,"4MQ2+PG7, Jl. Pattimura, Nunukan Tim., Kec. Nunukan, Kabupaten Nunukan, Kalimantan Utara 77482","Jl. Pattimura, Nunukan Tim., Kec. Nunukan, Kabupaten Nunukan",KALIMANTAN UTARA,77482.0,Indonesia,83821475758.0,,,4.1392983,117.6512938,https://maps.google.com/?cid=0x0:0xba23e0629164681b,
toko bangunan,Toko Bahan Bangunan,Toko Harapan Jaya Baru,"Jl. Jend. Sudirman No.RT. 002, Nunukan Tim., Kec. Nunukan, Kabupaten Nunukan, Kalimantan Utara 77482","Nunukan Tim., Kec. Nunukan, Kabupaten Nunukan",KALIMANTAN UTARA,77482.0,Indonesia,83160635264.0,,,4.1414283,117.649552,https://maps.google.com/?cid=0x0:0x47bca639ce0ba627,
toko bangunan,Toko Bahan Bangunan,Toko Sinar Jaya,"4MR4+4R4, Nunukan Tim., Kec. Nunukan, Kabupaten Nunukan, Kalimantan Utara 77482","Nunukan Tim., Kec. Nunukan, Kabupaten Nunukan",KALIMANTAN UTARA,77482.0,Indonesia,818390267.0,,,4.1402595,117.657079,https://maps.google.com/?cid=0x0:0x37677197e24b2b6b,
toko bangunan,Toko Bahan Bangunan,Toko Rajawali,"Nunukan Tim., Kec. Nunukan, Kabupaten Nunukan, Kalimantan Utara 77482","Kec. Nunukan, Kabupaten Nunukan",KALIMANTAN UTARA,77482.0,Indonesia,82252122134.0,,,4.142132,117.6540685,https://maps.google.com/?cid=0x0:0x519bc8420e7cb1da,
toko bangunan,Toko Bahan Bangunan,Toko bangunan Sinar Bugis,"Jalan laning, muara, Mansapa, Nunukan Sel., Kabupaten Nunukan, Kalimantan Utara 77482","muara, Mansapa, Nunukan Sel., Kabupaten Nunukan",KALIMANTAN UTARA,77482.0,Indonesia,818390267.0,,,4.0656577,117.7398807,https://maps.google.com/?cid=0x0:0xea1bae64c137bed2,
toko bangunan,Toko Bahan Bangunan,Toko Maju Jaya,"4JRW+J87, Jl. Jamaker, Nunukan Tim., Kec. Nunukan, Kabupaten Nunukan, Kalimantan Utara 77482","Jl. Jamaker, Nunukan Tim., Kec. Nunukan, Kabupaten Nunukan",KALIMANTAN UTARA,77482.0,Indonesia,,,,4.1415412,117.6457928,https://maps.google.com/?cid=0x0:0x478114f6ba1fa990,
toko bangunan,Toko Perlengkapan Rumah,Toko Cahaya Logam,"4MP2+Q23 Toko BANGUNAN, Jl. Bhayangkara, RT.11/RW.no.25, Nunukan Tengah, Kec. Nunukan, Kabupaten Nunukan, Kalimantan Utara 77422","Jl. Bhayangkara, RT.11/RW.no.25, Nunukan Tengah, Kec. Nunukan, Kabupaten Nunukan",KALIMANTAN UTARA,77422.0,Indonesia,81385661699.0,,,4.1368787,117.6500348,https://maps.google.com/?cid=0x0:0x1e06a7fb01192577,
toko bangunan,Toko Bahan Bangunan,TB. Cahaya Terang Nunukan,"Jl. Pattimura No.RT.08, Nunukan Tim., Kec. Nunukan, Kabupaten Nunukan, Kalimantan Utara 77482","Nunukan Tim., Kec. Nunukan, Kabupaten Nunukan",KALIMANTAN UTARA,77482.0,Indonesia,85789077202.0,,,4.1400846,117.6611091,https://maps.google.com/?cid=0x0:0x543dfe799c38c1fb,
toko bangunan,Toko Bahan Bangunan,Toko Putoy Shop Sempurna Raya,"4JVW+5QR, Nunukan Tim., Kec. Nunukan, Kabupaten Nunukan, Kalimantan Utara 77482","Nunukan Tim., Kec. Nunukan, Kabupaten Nunukan",KALIMANTAN UTARA,77482.0,Indonesia,,,,4.1429912,117.6468795,https://maps.google.com/?cid=0x0:0x913566d60ac49cd0,
toko bangunan,Toko,Toko sinar mamolo,"2PMP+RVG, Lkr. Pulau Nunukan (mamolo, Tj. Harapan, Nunukan Sel., Kabupaten Nunukan, Kalimantan Utara 77482","Lkr. Pulau Nunukan (mamolo, Tj. Harapan, Nunukan Sel., Kabupaten Nunukan",KALIMANTAN UTARA,77482.0,Indonesia,85246671599.0,,,4.0345749,117.7372078,https://maps.google.com/?cid=0x0:0xaeba7a31dc3eeaef,
toko bangunan,toko bangunan,Pulau Nunukan,"Kabupaten Nunukan, Kalimantan Utara","Kabupaten Nunukan, Kalimantan Utara",KALIMANTAN UTARA,,Indonesia,,,,4.0609227,117.666952,https://maps.google.com/?cid=0x0:0xa3a4d934edf96a69,
toko bangunan,Toko Bahan Bangunan,TOKO INDAH JAYA,"4MQ2+PG7, Jl. Pattimura, Nunukan Tim., Kec. Nunukan, Kabupaten Nunukan, Kalimantan Utara 77482","Jl. Pattimura, Nunukan Tim., Kec. Nunukan, Kabupaten Nunukan",KALIMANTAN UTARA,77482.0,Indonesia,83821475758.0,,,4.1392983,117.6512938,https://maps.google.com/?cid=0x0:0xba23e0629164681b,
toko bangunan,Toko Bahan Bangunan,Toko Harapan Jaya Baru,"Jl. Jend. Sudirman No.RT. 002, Nunukan Tim., Kec. Nunukan, Kabupaten Nunukan, Kalimantan Utara 77482","Nunukan Tim., Kec. Nunukan, Kabupaten Nunukan",KALIMANTAN UTARA,77482.0,Indonesia,83160635264.0,,,4.1414283,117.649552,https://maps.google.com/?cid=0x0:0x47bca639ce0ba627,
toko bangunan,Toko Bahan Bangunan,Toko bangunan Sinar Bugis,"Jalan laning, muara, Mansapa, Nunukan Sel., Kabupaten Nunukan, Kalimantan Utara 77482","muara, Mansapa, Nunukan Sel., Kabupaten Nunukan",KALIMANTAN UTARA,77482.0,Indonesia,818390267.0,,,4.0656577,117.7398807,https://maps.google.com/?cid=0x0:0xea1bae64c137bed2,
toko bangunan,Toko Bahan Bangunan,Toko CAHAYA JAYA,"Jl. Taman Makam Pahlawan No.33, RT 8, Nunukan Tim., Kec. Nunukan, Kabupaten Nunukan, Kalimantan Utara 66319","RT 8, Nunukan Tim., Kec. Nunukan, Kabupaten Nunukan",KALIMANTAN UTARA,66319.0,Indonesia,55621155.0,,,4.1382492,117.6475488,https://maps.google.com/?cid=0x0:0xe16497742cb3c274,
toko bangunan,Toko Bahan Bangunan,Toko Rajawali,"Nunukan Tim., Kec. Nunukan, Kabupaten Nunukan, Kalimantan Utara 77482","Kec. Nunukan, Kabupaten Nunukan",KALIMANTAN UTARA,77482.0,Indonesia,82252122134.0,,,4.142132,117.6540685,https://maps.google.com/?cid=0x0:0x519bc8420e7cb1da,
toko bangunan,Toko Perlengkapan Rumah,Toko Cahaya Logam,"4MP2+Q23 Toko BANGUNAN, Jl. Bhayangkara, RT.11/RW.no.25, Nunukan Tengah, Kec. Nunukan, Kabupaten Nunukan, Kalimantan Utara 77422","Jl. Bhayangkara, RT.11/RW.no.25, Nunukan Tengah, Kec. Nunukan, Kabupaten Nunukan",KALIMANTAN UTARA,77422.0,Indonesia,81385661699.0,,,4.1368787,117.6500348,https://maps.google.com/?cid=0x0:0x1e06a7fb01192577,
toko bangunan,Toko,Toko sinar mamolo,"2PMP+RVG, Lkr. Pulau Nunukan (mamolo, Tj. Harapan, Nunukan Sel., Kabupaten Nunukan, Kalimantan Utara 77482","Lkr. Pulau Nunukan (mamolo, Tj. Harapan, Nunukan Sel., Kabupaten Nunukan",KALIMANTAN UTARA,77482.0,Indonesia,85246671599.0,,,4.0345749,117.7372078,https://maps.google.com/?cid=0x0:0xaeba7a31dc3eeaef,
toko bangunan,Toko Bahan Bangunan,Toko Maju Jaya,"4JRW+J87, Jl. Jamaker, Nunukan Tim., Kec. Nunukan, Kabupaten Nunukan, Kalimantan Utara 77482","Jl. Jamaker, Nunukan Tim., Kec. Nunukan, Kabupaten Nunukan",KALIMANTAN UTARA,77482.0,Indonesia,,,,4.1415412,117.6457928,https://maps.google.com/?cid=0x0:0x478114f6ba1fa990,
toko bangunan,Toko Reparasi Elektronik,"CV.BORNEO JAYA SUKSES ( service AC,kulkas,dan mesin cuci)","Jl. Ujang Dewa, Selisun, Nunukan Sel., Kabupaten Nunukan, Kalimantan Utara 77482","Selisun, Nunukan Sel., Kabupaten Nunukan",KALIMANTAN UTARA,77482.0,Indonesia,82251155333.0,,,4.1297696,117.6707248,https://maps.google.com/?cid=0x0:0xcdbb0799f81c9271,
toko bangunan,Pemasok Bahan Bangunan,GUDANG BATA MERAH ( AGR ),"3PC9+6P, Mansapa, Nunukan Sel., Kabupaten Nunukan, Kalimantan Utara","Kabupaten Nunukan, Kalimantan Utara",KALIMANTAN UTARA,,Indonesia,89602349841.0,,,4.0705967,117.7193117,https://maps.google.com/?cid=0x0:0xe519b0ff12aacc18,
toko bangunan,toko bangunan,Kalimantan Utara 77482,"Kabupaten Nunukan, Kalimantan Utara","Kabupaten Nunukan, Kalimantan Utara",KALIMANTAN UTARA,,Indonesia,,,,4.1377066,117.0794082,https://maps.google.com/?cid=0x0:0xe448c81886e99c56,
toko bangunan,toko bangunan,Kalimantan Utara 77483,"Kabupaten Nunukan, Kalimantan Utara","Kabupaten Nunukan, Kalimantan Utara",KALIMANTAN UTARA,,Indonesia,,,,4.1288838,117.8076959,https://maps.google.com/?cid=0x0:0x196bc50d99899ad,
toko bangunan,Toko Perlengkapan Rumah,Toko Bangunan Sei Pancang,"5W24+X2V, Pancang, Kec. Sebatik, Kabupaten Nunukan, Kalimantan Utara 77483","Pancang, Kec. Sebatik, Kabupaten Nunukan",KALIMANTAN UTARA,77483.0,Indonesia,,,,4.1524876,117.9050498,https://maps.google.com/?cid=0x0:0x4cd403cf27cf0ea6,
toko bangunan,Toko Perlengkapan Rumah,Toko Bangunan UD. IRMA,"4WF9+2RH, Sungai Nyamuk, Kec. Sebatik, Kabupaten Nunukan, Kalimantan Utara 77483","Sungai Nyamuk, Kec. Sebatik, Kabupaten Nunukan",KALIMANTAN UTARA,77483.0,Indonesia,8161999912.0,,,4.1225665,117.9196,https://maps.google.com/?cid=0x0:0x1b845c09bfb3955d,
toko bangunan,Grosir,Toko bangunan Cv.berkah abadi,"4WR7+XG9, Jl. Ahmad Yani, Pancang, Sebatik, Kabupaten Nunukan, Kalimantan Utara 77483","Jl. Ahmad Yani, Pancang, Sebatik, Kabupaten Nunukan",KALIMANTAN UTARA,77483.0,Indonesia,82154012207.0,,,4.1424221,117.9138686,https://maps.google.com/?cid=0x0:0x7361fa1584ee5d66,
toko bangunan,Toko Perlengkapan Rumah,toko bangunan amir,"Setabu, Kec. Sebatik Bar., mantikas tidung, Kalimantan Utara 77483","Kec. Sebatik Bar., mantikas tidung",KALIMANTAN UTARA,77483.0,Indonesia,,,,4.0917819,117.7848369,https://maps.google.com/?cid=0x0:0xf846e7f8c86fa6fc,
toko bangunan,Toko,TOKO BINA USAHA,"Binalawan, Kec. Sebatik Bar., Kabupaten Nunukan, Kalimantan Utara 77483","Kec. Sebatik Bar., Kabupaten Nunukan",KALIMANTAN UTARA,77483.0,Indonesia,811599725.0,,,4.0997554,117.7659059,https://maps.google.com/?cid=0x0:0x89fb853a90a59c58,
toko bangunan,Toko Alat Kelautan,TOKO DANIL,"Tanjung Aru, 4W9C+RCM, Sebatik, Tanjung Aru, Sebatik Timur, Nunukan Regency, North Kalimantan 77483","4W9C+RCM, Sebatik, Tanjung Aru, Sebatik Timur, Nunukan Regency",KALIMANTAN UTARA,77483.0,Indonesia,,,,4.1192129,117.9199435,https://maps.google.com/?cid=0x0:0xada4ddd6a8d3c681,
toko bangunan,Toko Perlengkapan Rumah,Karya Indah,"4WW6+9W2, Jl. Bhayangkara, Sungai Nyamuk, Kec. Sebatik, Kabupaten Nunukan, Kalimantan Utara 77483","Jl. Bhayangkara, Sungai Nyamuk, Kec. Sebatik, Kabupaten Nunukan",KALIMANTAN UTARA,77483.0,Indonesia,81348308756.0,,,4.1458764,117.9122539,https://maps.google.com/?cid=0x0:0x32c09209e3e72b63,
toko bangunan,Toko Bahan Bangunan,Toko Sinar Jaya,"4MR4+4R4, Nunukan Tim., Kec. Nunukan, Kabupaten Nunukan, Kalimantan Utara 77482","Nunukan Tim., Kec. Nunukan, Kabupaten Nunukan",KALIMANTAN UTARA,77482.0,Indonesia,818390267.0,,,4.1402595,117.657079,https://maps.google.com/?cid=0x0:0x37677197e24b2b6b,
toko bangunan,Toko Bahan Bangunan,Toko bangunan Sinar Bugis,"Jalan laning, muara, Mansapa, Nunukan Sel., Kabupaten Nunukan, Kalimantan Utara 77482","muara, Mansapa, Nunukan Sel., Kabupaten Nunukan",KALIMANTAN UTARA,77482.0,Indonesia,818390267.0,,,4.0656577,117.7398807,https://maps.google.com/?cid=0x0:0xea1bae64c137bed2,
toko bangunan,Toko Bahan Bangunan,Toko CAHAYA JAYA,"Jl. Taman Makam Pahlawan No.33, RT 8, Nunukan Tim., Kec. Nunukan, Kabupaten Nunukan, Kalimantan Utara 66319","RT 8, Nunukan Tim., Kec. Nunukan, Kabupaten Nunukan",KALIMANTAN UTARA,66319.0,Indonesia,55621155.0,,,4.1382492,117.6475488,https://maps.google.com/?cid=0x0:0xe16497742cb3c274,
toko bangunan,Toko Perlengkapan Rumah,Ud alif jaya mandiri,"4WQ8+CH7, Jl. Ahmad Yani, Sungai Nyamuk, Kec. Sebatik Timur, Kabupaten Nunukan, Kalimantan Utara 77483","Jl. Ahmad Yani, Sungai Nyamuk, Kec. Sebatik Timur, Kabupaten Nunukan",KALIMANTAN UTARA,77483.0,Indonesia,,,,4.1386817,117.9163324,https://maps.google.com/?cid=0x0:0xb48e63411a498432,
toko bangunan,Toko Bahan Bangunan,TOKO INDAH JAYA,"4MQ2+PG7, Jl. Pattimura, Nunukan Tim., Kec. Nunukan, Kabupaten Nunukan, Kalimantan Utara 77482","Jl. Pattimura, Nunukan Tim., Kec. Nunukan, Kabupaten Nunukan",KALIMANTAN UTARA,77482.0,Indonesia,83821475758.0,,,4.1392983,117.6512938,https://maps.google.com/?cid=0x0:0xba23e0629164681b,
toko bangunan,Toko bahan makanan,SUPERMARKET Kebalen Jaya,"4WV7+947, Pancang, Kec. Sebatik, Kabupaten Nunukan, Kalimantan Utara 77483","Pancang, Kec. Sebatik, Kabupaten Nunukan",KALIMANTAN UTARA,77483.0,Indonesia,,,,4.1434241,117.912801,https://maps.google.com/?cid=0x0:0x732ba6619d517464,
toko bangunan,Pemasok peralatan penanganan material,CV. Nita Abadi,"Jl. Gembira No.RT. 08, Desa Bukit Aru Indah, Kec. Sebatik Timur, Kabupaten Nunukan, Kalimantan Utara 77435","Desa Bukit Aru Indah, Kec. Sebatik Timur, Kabupaten Nunukan",KALIMANTAN UTARA,77435.0,Indonesia,85245695080.0,,,4.1261563,117.9210907,https://maps.google.com/?cid=0x0:0x249966fa0cc02d85,
toko bangunan,toko bangunan,Kec. Sebatik Bar.,"Kabupaten Nunukan, Kalimantan Utara","Kabupaten Nunukan, Kalimantan Utara",KALIMANTAN UTARA,,Indonesia,,,,4.0915863,117.7869756,https://maps.google.com/?cid=0x0:0x568a0785aa87a25d,
toko bangunan,Toko Perlengkapan Rumah,toko bangunan amir,"Setabu, Kec. Sebatik Bar., mantikas tidung, Kalimantan Utara 77483","Kec. Sebatik Bar., mantikas tidung",KALIMANTAN UTARA,77483.0,Indonesia,,,,4.0917819,117.7848369,https://maps.google.com/?cid=0x0:0xf846e7f8c86fa6fc,
toko bangunan,Toko Perlengkapan Rumah,Toko Bangunan UD. IRMA,"4WF9+2RH, Sungai Nyamuk, Kec. Sebatik, Kabupaten Nunukan, Kalimantan Utara 77483","Sungai Nyamuk, Kec. Sebatik, Kabupaten Nunukan",KALIMANTAN UTARA,77483.0,Indonesia,8161999912.0,,,4.1225665,117.9196,https://maps.google.com/?cid=0x0:0x1b845c09bfb3955d,
toko bangunan,Toko Perlengkapan Rumah,Toko Bangunan Sei Pancang,"5W24+X2V, Pancang, Kec. Sebatik, Kabupaten Nunukan, Kalimantan Utara 77483","Pancang, Kec. Sebatik, Kabupaten Nunukan",KALIMANTAN UTARA,77483.0,Indonesia,,,,4.1524876,117.9050498,https://maps.google.com/?cid=0x0:0x4cd403cf27cf0ea6,
toko bangunan,Toko Bahan Bangunan,UD.KALIMAN JAYA Toko Bangunan,"5V77+3F8, Pancang, Kec. Sebatik, Kabupaten Nunukan, Kalimantan Utara 77483","Pancang, Kec. Sebatik, Kabupaten Nunukan",KALIMANTAN UTARA,77483.0,Indonesia,8161999912.0,,,4.1626601,117.8637123,https://maps.google.com/?cid=0x0:0x25833a1e789fdbfd,
toko bangunan,Grosir,Toko bangunan Cv.berkah abadi,"4WR7+XG9, Jl. Ahmad Yani, Pancang, Sebatik, Kabupaten Nunukan, Kalimantan Utara 77483","Jl. Ahmad Yani, Pancang, Sebatik, Kabupaten Nunukan",KALIMANTAN UTARA,77483.0,Indonesia,82154012207.0,,,4.1424221,117.9138686,https://maps.google.com/?cid=0x0:0x7361fa1584ee5d66,
toko bangunan,Toko Bahan Bangunan,Toko bangunan Sinar Bugis,"Jalan laning, muara, Mansapa, Nunukan Sel., Kabupaten Nunukan, Kalimantan Utara 77482","muara, Mansapa, Nunukan Sel., Kabupaten Nunukan",KALIMANTAN UTARA,77482.0,Indonesia,818390267.0,,,4.0656577,117.7398807,https://maps.google.com/?cid=0x0:0xea1bae64c137bed2,
toko bangunan,Katering,UD. DAPOER BUCIN MANTIKAS (DBM),"Jl. Imam Amin RT.02 Mantikas Tidung, Kode Pos: 77468, Desa, Setabu, Kec. Sebatik Bar., Kabupaten Nunukan, Kalimantan Utara",Kode Pos:,KALIMANTAN UTARA,77468.0,Indonesia,81345452223.0,,,4.0884697,117.7893636,https://maps.google.com/?cid=0x0:0xb820def0067af50d,
toko bangunan,Toko Bahan Bangunan,Toko Sinar Jaya,"4MR4+4R4, Nunukan Tim., Kec. Nunukan, Kabupaten Nunukan, Kalimantan Utara 77482","Nunukan Tim., Kec. Nunukan, Kabupaten Nunukan",KALIMANTAN UTARA,77482.0,Indonesia,818390267.0,,,4.1402595,117.657079,https://maps.google.com/?cid=0x0:0x37677197e24b2b6b,
toko bangunan,Toko Bahan Bangunan,Toko CAHAYA JAYA,"Jl. Taman Makam Pahlawan No.33, RT 8, Nunukan Tim., Kec. Nunukan, Kabupaten Nunukan, Kalimantan Utara 66319","RT 8, Nunukan Tim., Kec. Nunukan, Kabupaten Nunukan",KALIMANTAN UTARA,66319.0,Indonesia,55621155.0,,,4.1382492,117.6475488,https://maps.google.com/?cid=0x0:0xe16497742cb3c274,
toko bangunan,Toko bahan makanan,TOKO HAMDANA,"3R3R+HH6, Tj. Karang, Kec. Sebatik, Kabupaten Nunukan, Kalimantan Utara 77483","Tj. Karang, Kec. Sebatik, Kabupaten Nunukan",KALIMANTAN UTARA,77483.0,Indonesia,,,,4.0539158,117.8413792,https://maps.google.com/?cid=0x0:0xe070b28b4136e58f,
toko bangunan,Toko Alat Kelautan,TOKO DANIL,"Tanjung Aru, 4W9C+RCM, Sebatik, Tanjung Aru, Sebatik Timur, Nunukan Regency, North Kalimantan 77483","4W9C+RCM, Sebatik, Tanjung Aru, Sebatik Timur, Nunukan Regency",KALIMANTAN UTARA,77483.0,Indonesia,,,,4.1192129,117.9199435,https://maps.google.com/?cid=0x0:0xada4ddd6a8d3c681,
toko bangunan,Toko bahan makanan,Toko Perbatasan,"Jln. Perbatasan rt.03 dusun abadi 1 desa, Aji Kuning, Kec. Sebatik Bar., Kabupaten Nunukan, Kalimantan Utara 77483","Aji Kuning, Kec. Sebatik Bar., Kabupaten Nunukan",KALIMANTAN UTARA,77483.0,Indonesia,81347434347.0,,,4.137595,117.8194197,https://maps.google.com/?cid=0x0:0x63b1a0cd4ffa0b24,
toko bangunan,toko bangunan,Kec. Sebatik Tengah,"Aji Kuning, Kabupaten Nunukan, Kalimantan Utara","Kabupaten Nunukan, Kalimantan Utara",KALIMANTAN UTARA,,Indonesia,,,,4.1551007,117.7860818,https://maps.google.com/?cid=0x0:0xb6cdfa4159ca968c,
toko bangunan,Toko Perlengkapan Rumah,Toko Bangunan UD. IRMA,"4WF9+2RH, Sungai Nyamuk, Kec. Sebatik, Kabupaten Nunukan, Kalimantan Utara 77483","Sungai Nyamuk, Kec. Sebatik, Kabupaten Nunukan",KALIMANTAN UTARA,77483.0,Indonesia,8161999912.0,,,4.1225665,117.9196,https://maps.google.com/?cid=0x0:0x1b845c09bfb3955d,
toko bangunan,Toko Bahan Bangunan,UD.KALIMAN JAYA Toko Bangunan,"5V77+3F8, Pancang, Kec. Sebatik, Kabupaten Nunukan, Kalimantan Utara 77483","Pancang, Kec. Sebatik, Kabupaten Nunukan",KALIMANTAN UTARA,77483.0,Indonesia,8161999912.0,,,4.1626601,117.8637123,https://maps.google.com/?cid=0x0:0x25833a1e789fdbfd,
toko bangunan,Toko Perlengkapan Rumah,toko bangunan amir,"Setabu, Kec. Sebatik Bar., mantikas tidung, Kalimantan Utara 77483","Kec. Sebatik Bar., mantikas tidung",KALIMANTAN UTARA,77483.0,Indonesia,,,,4.0917819,117.7848369,https://maps.google.com/?cid=0x0:0xf846e7f8c86fa6fc,
toko bangunan,Grosir,Toko bangunan Cv.berkah abadi,"4WR7+XG9, Jl. Ahmad Yani, Pancang, Sebatik, Kabupaten Nunukan, Kalimantan Utara 77483","Jl. Ahmad Yani, Pancang, Sebatik, Kabupaten Nunukan",KALIMANTAN UTARA,77483.0,Indonesia,82154012207.0,,,4.1424221,117.9138686,https://maps.google.com/?cid=0x0:0x7361fa1584ee5d66,
toko bangunan,Toko,TOKO BINA USAHA,"Binalawan, Kec. Sebatik Bar., Kabupaten Nunukan, Kalimantan Utara 77483","Kec. Sebatik Bar., Kabupaten Nunukan",KALIMANTAN UTARA,77483.0,Indonesia,811599725.0,,,4.0997554,117.7659059,https://maps.google.com/?cid=0x0:0x89fb853a90a59c58,
toko bangunan,Toko Bahan Bangunan,Toko bangunan Sinar Bugis,"Jalan laning, muara, Mansapa, Nunukan Sel., Kabupaten Nunukan, Kalimantan Utara 77482","muara, Mansapa, Nunukan Sel., Kabupaten Nunukan",KALIMANTAN UTARA,77482.0,Indonesia,818390267.0,,,4.0656577,117.7398807,https://maps.google.com/?cid=0x0:0xea1bae64c137bed2,
toko bangunan,Toko Bahan Bangunan,Toko Sinar Jaya,"4MR4+4R4, Nunukan Tim., Kec. Nunukan, Kabupaten Nunukan, Kalimantan Utara 77482","Nunukan Tim., Kec. Nunukan, Kabupaten Nunukan",KALIMANTAN UTARA,77482.0,Indonesia,818390267.0,,,4.1402595,117.657079,https://maps.google.com/?cid=0x0:0x37677197e24b2b6b,
toko bangunan,Toko bahan makanan,Toko Perbatasan,"Jln. Perbatasan rt.03 dusun abadi 1 desa, Aji Kuning, Kec. Sebatik Bar., Kabupaten Nunukan, Kalimantan Utara 77483","Aji Kuning, Kec. Sebatik Bar., Kabupaten Nunukan",KALIMANTAN UTARA,77483.0,Indonesia,81347434347.0,,,4.137595,117.8194197,https://maps.google.com/?cid=0x0:0x63b1a0cd4ffa0b24,
toko bangunan,Toko Bahan Bangunan,Toko CAHAYA JAYA,"Jl. Taman Makam Pahlawan No.33, RT 8, Nunukan Tim., Kec. Nunukan, Kabupaten Nunukan, Kalimantan Utara 66319","RT 8, Nunukan Tim., Kec. Nunukan, Kabupaten Nunukan",KALIMANTAN UTARA,66319.0,Indonesia,55621155.0,,,4.1382492,117.6475488,https://maps.google.com/?cid=0x0:0xe16497742cb3c274,
toko bangunan,Toko Alat Kelautan,TOKO DANIL,"Tanjung Aru, 4W9C+RCM, Sebatik, Tanjung Aru, Sebatik Timur, Nunukan Regency, North Kalimantan 77483","4W9C+RCM, Sebatik, Tanjung Aru, Sebatik Timur, Nunukan Regency",KALIMANTAN UTARA,77483.0,Indonesia,,,,4.1192129,117.9199435,https://maps.google.com/?cid=0x0:0xada4ddd6a8d3c681,
toko bangunan,toko bangunan,Kec. Sebatik Timur,"Kabupaten Nunukan, Kalimantan Utara","Kabupaten Nunukan, Kalimantan Utara",KALIMANTAN UTARA,,Indonesia,,,,4.1222149,117.9196102,https://maps.google.com/?cid=0x0:0xdfc5b0e5643d3ea7,
toko bangunan,Toko Perlengkapan Rumah,Toko Bangunan UD. IRMA,"4WF9+2RH, Sungai Nyamuk, Kec. Sebatik, Kabupaten Nunukan, Kalimantan Utara 77483","Sungai Nyamuk, Kec. Sebatik, Kabupaten Nunukan",KALIMANTAN UTARA,77483.0,Indonesia,8161999912.0,,,4.1225665,117.9196,https://maps.google.com/?cid=0x0:0x1b845c09bfb3955d,
toko bangunan,Toko Perlengkapan Rumah,Toko Bangunan Sei Pancang,"5W24+X2V, Pancang, Kec. Sebatik, Kabupaten Nunukan, Kalimantan Utara 77483","Pancang, Kec. Sebatik, Kabupaten Nunukan",KALIMANTAN UTARA,77483.0,Indonesia,,,,4.1524876,117.9050498,https://maps.google.com/?cid=0x0:0x4cd403cf27cf0ea6,
toko bangunan,Toko Bahan Bangunan,UD.KALIMAN JAYA Toko Bangunan,"5V77+3F8, Pancang, Kec. Sebatik, Kabupaten Nunukan, Kalimantan Utara 77483","Pancang, Kec. Sebatik, Kabupaten Nunukan",KALIMANTAN UTARA,77483.0,Indonesia,8161999912.0,,,4.1626601,117.8637123,https://maps.google.com/?cid=0x0:0x25833a1e789fdbfd,
toko bangunan,Toko Perlengkapan Rumah,Karya Indah,"4WW6+9W2, Jl. Bhayangkara, Sungai Nyamuk, Kec. Sebatik, Kabupaten Nunukan, Kalimantan Utara 77483","Jl. Bhayangkara, Sungai Nyamuk, Kec. Sebatik, Kabupaten Nunukan",KALIMANTAN UTARA,77483.0,Indonesia,81348308756.0,,,4.1458764,117.9122539,https://maps.google.com/?cid=0x0:0x32c09209e3e72b63,
toko bangunan,Toko Alat Kelautan,TOKO DANIL,"Tanjung Aru, 4W9C+RCM, Sebatik, Tanjung Aru, Sebatik Timur, Nunukan Regency, North Kalimantan 77483","4W9C+RCM, Sebatik, Tanjung Aru, Sebatik Timur, Nunukan Regency",KALIMANTAN UTARA,77483.0,Indonesia,,,,4.1192129,117.9199435,https://maps.google.com/?cid=0x0:0xada4ddd6a8d3c681,
toko bangunan,Toko Perlengkapan Rumah,toko bangunan amir,"Setabu, Kec. Sebatik Bar., mantikas tidung, Kalimantan Utara 77483","Kec. Sebatik Bar., mantikas tidung",KALIMANTAN UTARA,77483.0,Indonesia,,,,4.0917819,117.7848369,https://maps.google.com/?cid=0x0:0xf846e7f8c86fa6fc,
toko bangunan,Pemasok peralatan penanganan material,CV. Nita Abadi,"Jl. Gembira No.RT. 08, Desa Bukit Aru Indah, Kec. Sebatik Timur, Kabupaten Nunukan, Kalimantan Utara 77435","Desa Bukit Aru Indah, Kec. Sebatik Timur, Kabupaten Nunukan",KALIMANTAN UTARA,77435.0,Indonesia,85245695080.0,,,4.1261563,117.9210907,https://maps.google.com/?cid=0x0:0x249966fa0cc02d85,
toko bangunan,Toko Perlengkapan Rumah,Ud alif jaya mandiri,"4WQ8+CH7, Jl. Ahmad Yani, Sungai Nyamuk, Kec. Sebatik Timur, Kabupaten Nunukan, Kalimantan Utara 77483","Jl. Ahmad Yani, Sungai Nyamuk, Kec. Sebatik Timur, Kabupaten Nunukan",KALIMANTAN UTARA,77483.0,Indonesia,,,,4.1386817,117.9163324,https://maps.google.com/?cid=0x0:0xb48e63411a498432,
toko bangunan,toko bangunan,Kalimantan Utara 77483,"Kabupaten Nunukan, Kalimantan Utara","Kabupaten Nunukan, Kalimantan Utara",KALIMANTAN UTARA,,Indonesia,,,,4.1288838,117.8076959,https://maps.google.com/?cid=0x0:0x196bc50d99899ad,
toko bangunan,Toko,TOKO BINA USAHA,"Binalawan, Kec. Sebatik Bar., Kabupaten Nunukan, Kalimantan Utara 77483","Kec. Sebatik Bar., Kabupaten Nunukan",KALIMANTAN UTARA,77483.0,Indonesia,811599725.0,,,4.0997554,117.7659059,https://maps.google.com/?cid=0x0:0x89fb853a90a59c58,
toko bangunan,Toko Bahan Bangunan,Toko Sinar Jaya,"4MR4+4R4, Nunukan Tim., Kec. Nunukan, Kabupaten Nunukan, Kalimantan Utara 77482","Nunukan Tim., Kec. Nunukan, Kabupaten Nunukan",KALIMANTAN UTARA,77482.0,Indonesia,818390267.0,,,4.1402595,117.657079,https://maps.google.com/?cid=0x0:0x37677197e24b2b6b,
toko bangunan,Toko Bahan Bangunan,Toko CAHAYA JAYA,"Jl. Taman Makam Pahlawan No.33, RT 8, Nunukan Tim., Kec. Nunukan, Kabupaten Nunukan, Kalimantan Utara 66319","RT 8, Nunukan Tim., Kec. Nunukan, Kabupaten Nunukan",KALIMANTAN UTARA,66319.0,Indonesia,55621155.0,,,4.1382492,117.6475488,https://maps.google.com/?cid=0x0:0xe16497742cb3c274,
toko bangunan,Toko Bahan Bangunan,TOKO INDAH JAYA,"4MQ2+PG7, Jl. Pattimura, Nunukan Tim., Kec. Nunukan, Kabupaten Nunukan, Kalimantan Utara 77482","Jl. Pattimura, Nunukan Tim., Kec. Nunukan, Kabupaten Nunukan",KALIMANTAN UTARA,77482.0,Indonesia,83821475758.0,,,4.1392983,117.6512938,https://maps.google.com/?cid=0x0:0xba23e0629164681b,
toko bangunan,Toko Bahan Bangunan,Toko bangunan Sinar Bugis,"Jalan laning, muara, Mansapa, Nunukan Sel., Kabupaten Nunukan, Kalimantan Utara 77482","muara, Mansapa, Nunukan Sel., Kabupaten Nunukan",KALIMANTAN UTARA,77482.0,Indonesia,818390267.0,,,4.0656577,117.7398807,https://maps.google.com/?cid=0x0:0xea1bae64c137bed2,
toko bangunan,Toko bahan makanan,SUPERMARKET Kebalen Jaya,"4WV7+947, Pancang, Kec. Sebatik, Kabupaten Nunukan, Kalimantan Utara 77483","Pancang, Kec. Sebatik, Kabupaten Nunukan",KALIMANTAN UTARA,77483.0,Indonesia,,,,4.1434241,117.912801,https://maps.google.com/?cid=0x0:0x732ba6619d517464,
toko bangunan,Masjid,Masjid Nurul Yaqin Sebatik Utara,"5V6G+H6H, Desa Seberang, Pancang, Lumbis Ogong, Kabupaten Nunukan, Kalimantan Utara 77483","Desa Seberang, Pancang, Lumbis Ogong, Kabupaten Nunukan",KALIMANTAN UTARA,77483.0,Indonesia,,,,4.1614422,117.875623,https://maps.google.com/?cid=0x0:0x98ec2b145619b01b,
toko bangunan,Toko Perlengkapan Rumah,Toko Bangunan UD. IRMA,"4WF9+2RH, Sungai Nyamuk, Kec. Sebatik, Kabupaten Nunukan, Kalimantan Utara 77483","Sungai Nyamuk, Kec. Sebatik, Kabupaten Nunukan",KALIMANTAN UTARA,77483.0,Indonesia,8161999912.0,,,4.1225665,117.9196,https://maps.google.com/?cid=0x0:0x1b845c09bfb3955d,
toko bangunan,Toko Bahan Bangunan,UD.KALIMAN JAYA Toko Bangunan,"5V77+3F8, Pancang, Kec. Sebatik, Kabupaten Nunukan, Kalimantan Utara 77483","Pancang, Kec. Sebatik, Kabupaten Nunukan",KALIMANTAN UTARA,77483.0,Indonesia,8161999912.0,,,4.1626601,117.8637123,https://maps.google.com/?cid=0x0:0x25833a1e789fdbfd,
toko bangunan,Grosir,Toko bangunan Cv.berkah abadi,"4WR7+XG9, Jl. Ahmad Yani, Pancang, Sebatik, Kabupaten Nunukan, Kalimantan Utara 77483","Jl. Ahmad Yani, Pancang, Sebatik, Kabupaten Nunukan",KALIMANTAN UTARA,77483.0,Indonesia,82154012207.0,,,4.1424221,117.9138686,https://maps.google.com/?cid=0x0:0x7361fa1584ee5d66,
toko bangunan,Toko Perlengkapan Rumah,toko bangunan amir,"Setabu, Kec. Sebatik Bar., mantikas tidung, Kalimantan Utara 77483","Kec. Sebatik Bar., mantikas tidung",KALIMANTAN UTARA,77483.0,Indonesia,,,,4.0917819,117.7848369,https://maps.google.com/?cid=0x0:0xf846e7f8c86fa6fc,
toko bangunan,Toko Bahan Bangunan,Toko bangunan Sinar Bugis,"Jalan laning, muara, Mansapa, Nunukan Sel., Kabupaten Nunukan, Kalimantan Utara 77482","muara, Mansapa, Nunukan Sel., Kabupaten Nunukan",KALIMANTAN UTARA,77482.0,Indonesia,818390267.0,,,4.0656577,117.7398807,https://maps.google.com/?cid=0x0:0xea1bae64c137bed2,
toko bangunan,Toko Bahan Bangunan,Toko Sinar Jaya,"4MR4+4R4, Nunukan Tim., Kec. Nunukan, Kabupaten Nunukan, Kalimantan Utara 77482","Nunukan Tim., Kec. Nunukan, Kabupaten Nunukan",KALIMANTAN UTARA,77482.0,Indonesia,818390267.0,,,4.1402595,117.657079,https://maps.google.com/?cid=0x0:0x37677197e24b2b6b,
toko bangunan,Toko Bahan Bangunan,Toko CAHAYA JAYA,"Jl. Taman Makam Pahlawan No.33, RT 8, Nunukan Tim., Kec. Nunukan, Kabupaten Nunukan, Kalimantan Utara 66319","RT 8, Nunukan Tim., Kec. Nunukan, Kabupaten Nunukan",KALIMANTAN UTARA,66319.0,Indonesia,55621155.0,,,4.1382492,117.6475488,https://maps.google.com/?cid=0x0:0xe16497742cb3c274,
toko bangunan,Toko Alat Kelautan,TOKO DANIL,"Tanjung Aru, 4W9C+RCM, Sebatik, Tanjung Aru, Sebatik Timur, Nunukan Regency, North Kalimantan 77483","4W9C+RCM, Sebatik, Tanjung Aru, Sebatik Timur, Nunukan Regency",KALIMANTAN UTARA,77483.0,Indonesia,,,,4.1192129,117.9199435,https://maps.google.com/?cid=0x0:0xada4ddd6a8d3c681,
toko bangunan,toko bangunan,Kec. Sebatik,"Tj. Karang, Kabupaten Nunukan, Kalimantan Utara","Kabupaten Nunukan, Kalimantan Utara",KALIMANTAN UTARA,,Indonesia,,,,4.0615122,117.9207553,https://maps.google.com/?cid=0x0:0x30b78c1487327b7d,
toko bangunan,Toko Perlengkapan Rumah,Ud alif jaya mandiri,"4WQ8+CH7, Jl. Ahmad Yani, Sungai Nyamuk, Kec. Sebatik Timur, Kabupaten Nunukan, Kalimantan Utara 77483","Jl. Ahmad Yani, Sungai Nyamuk, Kec. Sebatik Timur, Kabupaten Nunukan",KALIMANTAN UTARA,77483.0,Indonesia,,,,4.1386817,117.9163324,https://maps.google.com/?cid=0x0:0xb48e63411a498432,
toko bangunan,toko bangunan,Kalimantan Utara 77483,"Kabupaten Nunukan, Kalimantan Utara","Kabupaten Nunukan, Kalimantan Utara",KALIMANTAN UTARA,,Indonesia,,,,4.1288838,117.8076959,https://maps.google.com/?cid=0x0:0x196bc50d99899ad,
toko bangunan,Toko,TOKO BINA USAHA,"Binalawan, Kec. Sebatik Bar., Kabupaten Nunukan, Kalimantan Utara 77483","Kec. Sebatik Bar., Kabupaten Nunukan",KALIMANTAN UTARA,77483.0,Indonesia,811599725.0,,,4.0997554,117.7659059,https://maps.google.com/?cid=0x0:0x89fb853a90a59c58,
toko bangunan,Toko Perlengkapan Rumah,Karya Indah,"4WW6+9W2, Jl. Bhayangkara, Sungai Nyamuk, Kec. Sebatik, Kabupaten Nunukan, Kalimantan Utara 77483","Jl. Bhayangkara, Sungai Nyamuk, Kec. Sebatik, Kabupaten Nunukan",KALIMANTAN UTARA,77483.0,Indonesia,81348308756.0,,,4.1458764,117.9122539,https://maps.google.com/?cid=0x0:0x32c09209e3e72b63,
toko bangunan,Toko bahan makanan,SUPERMARKET Kebalen Jaya,"4WV7+947, Pancang, Kec. Sebatik, Kabupaten Nunukan, Kalimantan Utara 77483","Pancang, Kec. Sebatik, Kabupaten Nunukan",KALIMANTAN UTARA,77483.0,Indonesia,,,,4.1434241,117.912801,https://maps.google.com/?cid=0x0:0x732ba6619d517464,
toko bangunan,Pemasok peralatan penanganan material,CV. Nita Abadi,"Jl. Gembira No.RT. 08, Desa Bukit Aru Indah, Kec. Sebatik Timur, Kabupaten Nunukan, Kalimantan Utara 77435","Desa Bukit Aru Indah, Kec. Sebatik Timur, Kabupaten Nunukan",KALIMANTAN UTARA,77435.0,Indonesia,85245695080.0,,,4.1261563,117.9210907,https://maps.google.com/?cid=0x0:0x249966fa0cc02d85,
toko bangunan,toko bangunan,Kalimantan Utara 77482,"Kabupaten Nunukan, Kalimantan Utara","Kabupaten Nunukan, Kalimantan Utara",KALIMANTAN UTARA,,Indonesia,,,,4.1377066,117.0794082,https://maps.google.com/?cid=0x0:0xe448c81886e99c56,
toko bangunan,Minimarket,Toko Bangunan NAM,"Desa Sanur SP1, Jl. Cermai No.RT 10, Tetaban, Tulin Onsoi, Kabupaten Nunukan, Kalimantan Utara 77485","Jl. Cermai No.RT 10, Tetaban, Tulin Onsoi, Kabupaten Nunukan",KALIMANTAN UTARA,77485.0,Indonesia,82156952199.0,,,4.0310322,116.9832116,https://maps.google.com/?cid=0x0:0xc6591a61906bf637,
toko bangunan,Pemasok Peralatan Konstruksi,Toko Jaya Pernik,"2XPP+HJP, Tetaban, Kec. Sebuku, Kabupaten Nunukan, Kalimantan Utara 77482","Tetaban, Kec. Sebuku, Kabupaten Nunukan",KALIMANTAN UTARA,77482.0,Indonesia,81351372209.0,,,4.0364556,116.9865765,https://maps.google.com/?cid=0x0:0xa40c478ec7b5244c,
toko bangunan,Toko Bahan Bangunan,Toko bangunan Sinar Bugis,"Jalan laning, muara, Mansapa, Nunukan Sel., Kabupaten Nunukan, Kalimantan Utara 77482","muara, Mansapa, Nunukan Sel., Kabupaten Nunukan",KALIMANTAN UTARA,77482.0,Indonesia,818390267.0,,,4.0656577,117.7398807,https://maps.google.com/?cid=0x0:0xea1bae64c137bed2,
toko bangunan,Toko Bahan Bangunan,Toko Harapan Jaya Baru,"Jl. Jend. Sudirman No.RT. 002, Nunukan Tim., Kec. Nunukan, Kabupaten Nunukan, Kalimantan Utara 77482","Nunukan Tim., Kec. Nunukan, Kabupaten Nunukan",KALIMANTAN UTARA,77482.0,Indonesia,83160635264.0,,,4.1414283,117.649552,https://maps.google.com/?cid=0x0:0x47bca639ce0ba627,
toko bangunan,Toko Bahan Bangunan,Toko Sinar Jaya,"4MR4+4R4, Nunukan Tim., Kec. Nunukan, Kabupaten Nunukan, Kalimantan Utara 77482","Nunukan Tim., Kec. Nunukan, Kabupaten Nunukan",KALIMANTAN UTARA,77482.0,Indonesia,818390267.0,,,4.1402595,117.657079,https://maps.google.com/?cid=0x0:0x37677197e24b2b6b,
toko bangunan,Toko Bahan Bangunan,Toko Rajawali,"Nunukan Tim., Kec. Nunukan, Kabupaten Nunukan, Kalimantan Utara 77482","Kec. Nunukan, Kabupaten Nunukan",KALIMANTAN UTARA,77482.0,Indonesia,82252122134.0,,,4.142132,117.6540685,https://maps.google.com/?cid=0x0:0x519bc8420e7cb1da,
toko bangunan,Toko Bahan Bangunan,Toko CAHAYA JAYA,"Jl. Taman Makam Pahlawan No.33, RT 8, Nunukan Tim., Kec. Nunukan, Kabupaten Nunukan, Kalimantan Utara 66319","RT 8, Nunukan Tim., Kec. Nunukan, Kabupaten Nunukan",KALIMANTAN UTARA,66319.0,Indonesia,55621155.0,,,4.1382492,117.6475488,https://maps.google.com/?cid=0x0:0xe16497742cb3c274,
toko bangunan,Toko Perlengkapan Rumah,Toko Cahaya Logam,"4MP2+Q23 Toko BANGUNAN, Jl. Bhayangkara, RT.11/RW.no.25, Nunukan Tengah, Kec. Nunukan, Kabupaten Nunukan, Kalimantan Utara 77422","Jl. Bhayangkara, RT.11/RW.no.25, Nunukan Tengah, Kec. Nunukan, Kabupaten Nunukan",KALIMANTAN UTARA,77422.0,Indonesia,81385661699.0,,,4.1368787,117.6500348,https://maps.google.com/?cid=0x0:0x1e06a7fb01192577,
toko bangunan,Toko Bahan Bangunan,Toko Cahaya Kanduangan,"6C2C+W3, Nunukan Utara, Kec. Nunukan, Kabupaten Nunukan, Kalimantan Utara","Kabupaten Nunukan, Kalimantan Utara",KALIMANTAN UTARA,,Indonesia,,,,4.2023398,117.4201444,https://maps.google.com/?cid=0x0:0xd02b16c3f4897100,
toko bangunan,Toko,Toko sinar mamolo,"2PMP+RVG, Lkr. Pulau Nunukan (mamolo, Tj. Harapan, Nunukan Sel., Kabupaten Nunukan, Kalimantan Utara 77482","Lkr. Pulau Nunukan (mamolo, Tj. Harapan, Nunukan Sel., Kabupaten Nunukan",KALIMANTAN UTARA,77482.0,Indonesia,85246671599.0,,,4.0345749,117.7372078,https://maps.google.com/?cid=0x0:0xaeba7a31dc3eeaef,
toko bangunan,Toko Bahan Bangunan,BATA MERAH MDK,"4J7J+FH6, Jl. Ujang Fatimah, Binusan, Kec. Nunukan, Kabupaten Nunukan, Kalimantan Utara 77482","Jl. Ujang Fatimah, Binusan, Kec. Nunukan, Kabupaten Nunukan",KALIMANTAN UTARA,77482.0,Indonesia,82237705997.0,,,4.1136601,117.6313927,https://maps.google.com/?cid=0x0:0x16cdd22929f86d2e,
toko bangunan,Toko Bahan Bangunan,TB. Cahaya Terang Nunukan,"Jl. Pattimura No.RT.08, Nunukan Tim., Kec. Nunukan, Kabupaten Nunukan, Kalimantan Utara 77482","Nunukan Tim., Kec. Nunukan, Kabupaten Nunukan",KALIMANTAN UTARA,77482.0,Indonesia,85789077202.0,,,4.1400846,117.6611091,https://maps.google.com/?cid=0x0:0x543dfe799c38c1fb,
toko bangunan,Toko Bahan Bangunan,Toko Maju Jaya,"4JRW+J87, Jl. Jamaker, Nunukan Tim., Kec. Nunukan, Kabupaten Nunukan, Kalimantan Utara 77482","Jl. Jamaker, Nunukan Tim., Kec. Nunukan, Kabupaten Nunukan",KALIMANTAN UTARA,77482.0,Indonesia,,,,4.1415412,117.6457928,https://maps.google.com/?cid=0x0:0x478114f6ba1fa990,
toko bangunan,Toko Perlengkapan Rumah,Fitfanfah Al Chantara CV,"Jl. Tien Soharto No.64, Binusan, Kec. Nunukan, Kabupaten Nunukan, Kalimantan Utara 77482","Binusan, Kec. Nunukan, Kabupaten Nunukan",KALIMANTAN UTARA,77482.0,Indonesia,55621557.0,,,4.068042,117.661114,https://maps.google.com/?cid=0x0:0xe345ede53cd4ca4,
toko bangunan,Toko Bahan Bangunan,Toko Putoy Shop Sempurna Raya,"4JVW+5QR, Nunukan Tim., Kec. Nunukan, Kabupaten Nunukan, Kalimantan Utara 77482","Nunukan Tim., Kec. Nunukan, Kabupaten Nunukan",KALIMANTAN UTARA,77482.0,Indonesia,,,,4.1429912,117.6468795,https://maps.google.com/?cid=0x0:0x913566d60ac49cd0,
toko bangunan,Pemasok Bahan Bangunan,GUDANG BATA MERAH ( AGR ),"3PC9+6P, Mansapa, Nunukan Sel., Kabupaten Nunukan, Kalimantan Utara","Kabupaten Nunukan, Kalimantan Utara",KALIMANTAN UTARA,,Indonesia,89602349841.0,,,4.0705967,117.7193117,https://maps.google.com/?cid=0x0:0xe519b0ff12aacc18,
toko bangunan,Toko Perlengkapan Rumah,Toko Bangunan Sei Pancang,"5W24+X2V, Pancang, Kec. Sebatik, Kabupaten Nunukan, Kalimantan Utara 77483","Pancang, Kec. Sebatik, Kabupaten Nunukan",KALIMANTAN UTARA,77483.0,Indonesia,,,,4.1524876,117.9050498,https://maps.google.com/?cid=0x0:0x4cd403cf27cf0ea6,
toko bangunan,Toko Reparasi Elektronik,"CV.BORNEO JAYA SUKSES ( service AC,kulkas,dan mesin cuci)","Jl. Ujang Dewa, Selisun, Nunukan Sel., Kabupaten Nunukan, Kalimantan Utara 77482","Selisun, Nunukan Sel., Kabupaten Nunukan",KALIMANTAN UTARA,77482.0,Indonesia,82251155333.0,,,4.1297696,117.6707248,https://maps.google.com/?cid=0x0:0xcdbb0799f81c9271,
toko bangunan,Kantor Perusahaan,Inhutani I PT Persero,"Jl. Radio No.RT. 010, Binusan, Kec. Nunukan, Kabupaten Nunukan, Kalimantan Utara 77482","Binusan, Kec. Nunukan, Kabupaten Nunukan",KALIMANTAN UTARA,77482.0,Indonesia,55621787.0,,,4.068042,117.661114,https://maps.google.com/?cid=0x0:0xc450c6084ac9cb94,
toko bangunan,Rumah Kayu,Sebuku,"2XCC+9X4, Tetaban, Kec. Sebuku, Kabupaten Nunukan, Kalimantan Utara 77482","Tetaban, Kec. Sebuku, Kabupaten Nunukan",KALIMANTAN UTARA,77482.0,Indonesia,,,,4.02089,116.9724375,https://maps.google.com/?cid=0x0:0x7e5abc5ab8a75138,
toko bangunan,Toko Kayu,JUAL BELI KAYU OLAHAN.UD.RAFAUZAN JAYA,"4JMR+PHC, Jl. Sungai Bilal, Nunukan Bar., Kec. Nunukan, Kabupaten Nunukan, Kalimantan Utara 77482","Jl. Sungai Bilal, Nunukan Bar., Kec. Nunukan, Kabupaten Nunukan",KALIMANTAN UTARA,77482.0,Indonesia,81255715977.0,,,4.1343169,117.6413762,https://maps.google.com/?cid=0x0:0xcdbf144a1cc10e73,
toko bangunan,Toko Bahan Bangunan,Plafon PVC Arjuna Nunukan,"Jl. Bhayangkara, Nunukan Tim., Kec. Nunukan, Kabupaten Nunukan, Kalimantan Utara 17431","Nunukan Tim., Kec. Nunukan, Kabupaten Nunukan",KALIMANTAN UTARA,17431.0,Indonesia,81388191689.0,,,4.1350974,117.6514268,https://maps.google.com/?cid=0x0:0x99469cbd0a57215a,
toko bangunan,Toko Bahan Bangunan,Total One - Stop Tools Station,"4MR6+C2C, Jl. Pattimura, Nunukan Tim., Kec. Nunukan, Kabupaten Nunukan, Kalimantan Utara 77482","Jl. Pattimura, Nunukan Tim., Kec. Nunukan, Kabupaten Nunukan",KALIMANTAN UTARA,77482.0,Indonesia,,,,4.1410621,117.6600131,https://maps.google.com/?cid=0x0:0x38fc7bf3d60ded0d,
toko bangunan,toko bangunan,Kec. Sei Menggaris,"Kabupaten Nunukan, Kalimantan Utara","Kabupaten Nunukan, Kalimantan Utara",KALIMANTAN UTARA,,Indonesia,,,,4.2053503,117.2483455,https://maps.google.com/?cid=0x0:0x96ec2cb6aa3777fa,
toko bangunan,Toko Bahan Bangunan,Toko bangunan Sinar Bugis,"Jalan laning, muara, Mansapa, Nunukan Sel., Kabupaten Nunukan, Kalimantan Utara 77482","muara, Mansapa, Nunukan Sel., Kabupaten Nunukan",KALIMANTAN UTARA,77482.0,Indonesia,818390267.0,,,4.0656577,117.7398807,https://maps.google.com/?cid=0x0:0xea1bae64c137bed2,
toko bangunan,Toko Perlengkapan Rumah,Toko Bangunan UD. IRMA,"4WF9+2RH, Sungai Nyamuk, Kec. Sebatik, Kabupaten Nunukan, Kalimantan Utara 77483","Sungai Nyamuk, Kec. Sebatik, Kabupaten Nunukan",KALIMANTAN UTARA,77483.0,Indonesia,8161999912.0,,,4.1225665,117.9196,https://maps.google.com/?cid=0x0:0x1b845c09bfb3955d,
toko bangunan,Toko Bahan Bangunan,Toko Cahaya Kanduangan,"6C2C+W3, Nunukan Utara, Kec. Nunukan, Kabupaten Nunukan, Kalimantan Utara","Kabupaten Nunukan, Kalimantan Utara",KALIMANTAN UTARA,,Indonesia,,,,4.2023398,117.4201444,https://maps.google.com/?cid=0x0:0xd02b16c3f4897100,
toko bangunan,Pembangunan Perumahan,Simpang Korea,"753Q+2CM, Tabur Lestari, Kec. Sei Menggaris, Kabupaten Nunukan, Kalimantan Utara 77482","Tabur Lestari, Kec. Sei Menggaris, Kabupaten Nunukan",KALIMANTAN UTARA,77482.0,Indonesia,,,,4.2525912,117.1885352,https://maps.google.com/?cid=0x0:0x7c9a03e16e7dab30,
toko bangunan,Toko Perlengkapan Rumah,Toko Bangunan Sei Pancang,"5W24+X2V, Pancang, Kec. Sebatik, Kabupaten Nunukan, Kalimantan Utara 77483","Pancang, Kec. Sebatik, Kabupaten Nunukan",KALIMANTAN UTARA,77483.0,Indonesia,,,,4.1524876,117.9050498,https://maps.google.com/?cid=0x0:0x4cd403cf27cf0ea6,
toko bangunan,Toko Bahan Bangunan,UD.KALIMAN JAYA Toko Bangunan,"5V77+3F8, Pancang, Kec. Sebatik, Kabupaten Nunukan, Kalimantan Utara 77483","Pancang, Kec. Sebatik, Kabupaten Nunukan",KALIMANTAN UTARA,77483.0,Indonesia,8161999912.0,,,4.1626601,117.8637123,https://maps.google.com/?cid=0x0:0x25833a1e789fdbfd,
toko bangunan,toko bangunan,Toko pilihan,"5747+5QM, Tabur Lestari, Kec. Nunukan, Kabupaten Nunukan, Kalimantan Utara 77482","Tabur Lestari, Kec. Nunukan, Kabupaten Nunukan",KALIMANTAN UTARA,77482.0,Indonesia,81350628262.0,,,4.1554182,117.2643019,https://maps.google.com/?cid=0x0:0x4ebd3ce1bcf40710,
toko bangunan,Pusat Kesehatan Masyarakat,Puskesmas Kec. Sei-Menggaris,"573H+4G3, Tabur Lestari, Kec. Nunukan, Kabupaten Nunukan, Kalimantan Utara 77482","Tabur Lestari, Kec. Nunukan, Kabupaten Nunukan",KALIMANTAN UTARA,77482.0,Indonesia,,,,4.152772,117.278791,https://maps.google.com/?cid=0x0:0xd4b3011f83ce88d6,
toko bangunan,Sekolah Menengah Umum,SMK NEGERI 1 Sei Menggaris,"47X6+F74, Tabur Lestari, Kec. Nunukan, Kabupaten Nunukan, Kalimantan Utara 77482","Tabur Lestari, Kec. Nunukan, Kabupaten Nunukan",KALIMANTAN UTARA,77482.0,Indonesia,85248505791.0,,,4.1486411,117.2606999,https://maps.google.com/?cid=0x0:0xb5bfb45a73caa319,
toko bangunan,Sekolah menengah,SD Negeri 003 Sei-Menggaris,"574H+2PH, Tabur Lestari, Kec. Nunukan, Kabupaten Nunukan, Kalimantan Utara 77482","Tabur Lestari, Kec. Nunukan, Kabupaten Nunukan",KALIMANTAN UTARA,77482.0,Indonesia,,,,4.1550553,117.2793534,https://maps.google.com/?cid=0x0:0x83ed747be24128be,
toko bangunan,toko bangunan,Kalimantan Utara 77453,Kalimantan Utara,Kalimantan Utara,KALIMANTAN UTARA,,Indonesia,,,,3.7262935,117.3146351,https://maps.google.com/?cid=0x0:0x2f07ec6e726dbdda,
toko bangunan,Minimarket,Toko Bangunan NAM,"Desa Sanur SP1, Jl. Cermai No.RT 10, Tetaban, Tulin Onsoi, Kabupaten Nunukan, Kalimantan Utara 77485","Jl. Cermai No.RT 10, Tetaban, Tulin Onsoi, Kabupaten Nunukan",KALIMANTAN UTARA,77485.0,Indonesia,82156952199.0,,,4.0310322,116.9832116,https://maps.google.com/?cid=0x0:0xc6591a61906bf637,
toko bangunan,Toko Bahan Bangunan,Toko Sinar Lancar,"JW24+5C8, Tideng Pale, Kec. Sesayap, Kabupaten Tana Tidung, Kalimantan Utara 77152","Tideng Pale, Kec. Sesayap, Kabupaten Tana Tidung",KALIMANTAN UTARA,77152.0,Indonesia,81385661699.0,,,3.6004138,116.906064,https://maps.google.com/?cid=0x0:0x3dd4bcfa17b3af8b,
toko bangunan,Toko Perlengkapan Rumah,Toko Bangunan / Bir,"HWXC+4PM, Sebidai, Kec. Sesayap, Kabupaten Tana Tidung, Kalimantan Utara 77152","Sebidai, Kec. Sesayap, Kabupaten Tana Tidung",KALIMANTAN UTARA,77152.0,Indonesia,,,,3.5978353,116.921808,https://maps.google.com/?cid=0x0:0xf70b582cf3d79925,
toko bangunan,Toko Bahan Bangunan,Toko bangunan Sinar Bugis,"Jalan laning, muara, Mansapa, Nunukan Sel., Kabupaten Nunukan, Kalimantan Utara 77482","muara, Mansapa, Nunukan Sel., Kabupaten Nunukan",KALIMANTAN UTARA,77482.0,Indonesia,818390267.0,,,4.0656577,117.7398807,https://maps.google.com/?cid=0x0:0xea1bae64c137bed2,
toko bangunan,Toko Perlengkapan Rumah,Toko Bangunan Sei Pancang,"5W24+X2V, Pancang, Kec. Sebatik, Kabupaten Nunukan, Kalimantan Utara 77483","Pancang, Kec. Sebatik, Kabupaten Nunukan",KALIMANTAN UTARA,77483.0,Indonesia,,,,4.1524876,117.9050498,https://maps.google.com/?cid=0x0:0x4cd403cf27cf0ea6,
toko bangunan,Minimarket,Za'Fa Mandiri,"MGFW+5X7, Unnamed Road, Sambungan, Kec. Tana Lia, Kabupaten Tana Tidung, Kalimantan Utara 77453","Unnamed Road, Sambungan, Kec. Tana Lia, Kabupaten Tana Tidung",KALIMANTAN UTARA,77453.0,Indonesia,85960359859.0,,,3.6729099,117.5474101,https://maps.google.com/?cid=0x0:0x6eb81aed682a4374,
toko bangunan,Toko Bahan Bangunan,Toko Sinar Jaya,"4MR4+4R4, Nunukan Tim., Kec. Nunukan, Kabupaten Nunukan, Kalimantan Utara 77482","Nunukan Tim., Kec. Nunukan, Kabupaten Nunukan",KALIMANTAN UTARA,77482.0,Indonesia,818390267.0,,,4.1402595,117.657079,https://maps.google.com/?cid=0x0:0x37677197e24b2b6b,
toko bangunan,Grosir,Toko bangunan Cv.berkah abadi,"4WR7+XG9, Jl. Ahmad Yani, Pancang, Sebatik, Kabupaten Nunukan, Kalimantan Utara 77483","Jl. Ahmad Yani, Pancang, Sebatik, Kabupaten Nunukan",KALIMANTAN UTARA,77483.0,Indonesia,82154012207.0,,,4.1424221,117.9138686,https://maps.google.com/?cid=0x0:0x7361fa1584ee5d66,
toko bangunan,Toko Bahan Bangunan,TOKO INDAH JAYA,"4MQ2+PG7, Jl. Pattimura, Nunukan Tim., Kec. Nunukan, Kabupaten Nunukan, Kalimantan Utara 77482","Jl. Pattimura, Nunukan Tim., Kec. Nunukan, Kabupaten Nunukan",KALIMANTAN UTARA,77482.0,Indonesia,83821475758.0,,,4.1392983,117.6512938,https://maps.google.com/?cid=0x0:0xba23e0629164681b,
toko bangunan,Toko Perlengkapan Rumah,Toko Bangunan UD. IRMA,"4WF9+2RH, Sungai Nyamuk, Kec. Sebatik, Kabupaten Nunukan, Kalimantan Utara 77483","Sungai Nyamuk, Kec. Sebatik, Kabupaten Nunukan",KALIMANTAN UTARA,77483.0,Indonesia,8161999912.0,,,4.1225665,117.9196,https://maps.google.com/?cid=0x0:0x1b845c09bfb3955d,
toko bangunan,Toko,Toko Mega Jaya,"Jl. Astrali, Seludau, Kec. Sesayap Hilir, Kabupaten Tana Tidung, Kalimantan Utara 77152","Seludau, Kec. Sesayap Hilir, Kabupaten Tana Tidung",KALIMANTAN UTARA,77152.0,Indonesia,85349725199.0,,,3.5699169,116.9982473,https://maps.google.com/?cid=0x0:0x37c3cc3e1dfbbcf2,
toko bangunan,Kantor Perusahaan,PT. SAGO PRIMA PRATAMA,"W766+RPG Seruyung Project, Harapan, Kec. Sebuku, Kabupaten Nunukan, Kalimantan Utara 77482","Harapan, Kec. Sebuku, Kabupaten Nunukan",KALIMANTAN UTARA,77482.0,Indonesia,,,,3.912074,117.2618179,https://maps.google.com/?cid=0x0:0xbec96b1aa5c51321,
toko bangunan,Rumah Kayu,Toko Surya Baru,"JW29+CJ9, Jl. Padat Karya, Tideng Pale Tim., Kec. Sesayap, Kabupaten Tana Tidung, Kalimantan Utara 77152","Jl. Padat Karya, Tideng Pale Tim., Kec. Sesayap, Kabupaten Tana Tidung",KALIMANTAN UTARA,77152.0,Indonesia,,,,3.6010278,116.9191185,https://maps.google.com/?cid=0x0:0x9f2b336e8f1103da,
toko bangunan,Toko Bahan Bangunan,Toko CAHAYA JAYA,"Jl. Taman Makam Pahlawan No.33, RT 8, Nunukan Tim., Kec. Nunukan, Kabupaten Nunukan, Kalimantan Utara 66319","RT 8, Nunukan Tim., Kec. Nunukan, Kabupaten Nunukan",KALIMANTAN UTARA,66319.0,Indonesia,55621155.0,,,4.1382492,117.6475488,https://maps.google.com/?cid=0x0:0xe16497742cb3c274,
toko bangunan,Toko,Toko sinar mamolo,"2PMP+RVG, Lkr. Pulau Nunukan (mamolo, Tj. Harapan, Nunukan Sel., Kabupaten Nunukan, Kalimantan Utara 77482","Lkr. Pulau Nunukan (mamolo, Tj. Harapan, Nunukan Sel., Kabupaten Nunukan",KALIMANTAN UTARA,77482.0,Indonesia,85246671599.0,,,4.0345749,117.7372078,https://maps.google.com/?cid=0x0:0xaeba7a31dc3eeaef,
toko bangunan,Toko Bahan Bangunan,Toko Rajawali,"Nunukan Tim., Kec. Nunukan, Kabupaten Nunukan, Kalimantan Utara 77482","Kec. Nunukan, Kabupaten Nunukan",KALIMANTAN UTARA,77482.0,Indonesia,82252122134.0,,,4.142132,117.6540685,https://maps.google.com/?cid=0x0:0x519bc8420e7cb1da,
toko bangunan,Toko Bahan Bangunan,Toko Harapan Jaya Baru,"Jl. Jend. Sudirman No.RT. 002, Nunukan Tim., Kec. Nunukan, Kabupaten Nunukan, Kalimantan Utara 77482","Nunukan Tim., Kec. Nunukan, Kabupaten Nunukan",KALIMANTAN UTARA,77482.0,Indonesia,83160635264.0,,,4.1414283,117.649552,https://maps.google.com/?cid=0x0:0x47bca639ce0ba627,
toko bangunan,Toko Perlengkapan Rumah,toko bangunan amir,"Setabu, Kec. Sebatik Bar., mantikas tidung, Kalimantan Utara 77483","Kec. Sebatik Bar., mantikas tidung",KALIMANTAN UTARA,77483.0,Indonesia,,,,4.0917819,117.7848369,https://maps.google.com/?cid=0x0:0xf846e7f8c86fa6fc,
toko bangunan,Toko Bahan Bangunan,Toko 88 bahan bangunan,"Malinau Kota, Kec. Malinau Kota, Kabupaten Malinau, Kalimantan Utara 77554","Kec. Malinau Kota, Kabupaten Malinau",KALIMANTAN UTARA,77554.0,Indonesia,83833052031.0,,,3.5837482,116.6245706,https://maps.google.com/?cid=0x0:0x995ee965ba072027,
toko bangunan,toko bangunan,Office Baru MIP,"P6CJ+97F, Jl. Office Baru, Plaju, Sembakung, Nunukan Regency, North Kalimantan 77453","Jl. Office Baru, Plaju, Sembakung, Nunukan Regency",KALIMANTAN UTARA,77453.0,Indonesia,,,,3.7209275,117.2306613,https://maps.google.com/?cid=0x0:0x1d255a94b9bee09,
toko bangunan,Pemasok Peralatan Konstruksi,Toko Jaya Pernik,"2XPP+HJP, Tetaban, Kec. Sebuku, Kabupaten Nunukan, Kalimantan Utara 77482","Tetaban, Kec. Sebuku, Kabupaten Nunukan",KALIMANTAN UTARA,77482.0,Indonesia,81351372209.0,,,4.0364556,116.9865765,https://maps.google.com/?cid=0x0:0xa40c478ec7b5244c,
toko bangunan,toko bangunan,Kalimantan Utara 77482,"Kabupaten Nunukan, Kalimantan Utara","Kabupaten Nunukan, Kalimantan Utara",KALIMANTAN UTARA,,Indonesia,,,,4.1377066,117.0794082,https://maps.google.com/?cid=0x0:0xe448c81886e99c56,
toko bangunan,Minimarket,Toko Bangunan NAM,"Desa Sanur SP1, Jl. Cermai No.RT 10, Tetaban, Tulin Onsoi, Kabupaten Nunukan, Kalimantan Utara 77485","Jl. Cermai No.RT 10, Tetaban, Tulin Onsoi, Kabupaten Nunukan",KALIMANTAN UTARA,77485.0,Indonesia,82156952199.0,,,4.0310322,116.9832116,https://maps.google.com/?cid=0x0:0xc6591a61906bf637,
toko bangunan,Toko Bahan Bangunan,TOKO INDAH JAYA,"4MQ2+PG7, Jl. Pattimura, Nunukan Tim., Kec. Nunukan, Kabupaten Nunukan, Kalimantan Utara 77482","Jl. Pattimura, Nunukan Tim., Kec. Nunukan, Kabupaten Nunukan",KALIMANTAN UTARA,77482.0,Indonesia,83821475758.0,,,4.1392983,117.6512938,https://maps.google.com/?cid=0x0:0xba23e0629164681b,
toko bangunan,Pemasok Peralatan Konstruksi,Toko Jaya Pernik,"2XPP+HJP, Tetaban, Kec. Sebuku, Kabupaten Nunukan, Kalimantan Utara 77482","Tetaban, Kec. Sebuku, Kabupaten Nunukan",KALIMANTAN UTARA,77482.0,Indonesia,81351372209.0,,,4.0364556,116.9865765,https://maps.google.com/?cid=0x0:0xa40c478ec7b5244c,
toko bangunan,Toko Bahan Bangunan,Toko Rajawali,"Nunukan Tim., Kec. Nunukan, Kabupaten Nunukan, Kalimantan Utara 77482","Kec. Nunukan, Kabupaten Nunukan",KALIMANTAN UTARA,77482.0,Indonesia,82252122134.0,,,4.142132,117.6540685,https://maps.google.com/?cid=0x0:0x519bc8420e7cb1da,
toko bangunan,Toko Bahan Bangunan,Toko Sinar Jaya,"4MR4+4R4, Nunukan Tim., Kec. Nunukan, Kabupaten Nunukan, Kalimantan Utara 77482","Nunukan Tim., Kec. Nunukan, Kabupaten Nunukan",KALIMANTAN UTARA,77482.0,Indonesia,818390267.0,,,4.1402595,117.657079,https://maps.google.com/?cid=0x0:0x37677197e24b2b6b,
toko bangunan,Toko Bahan Bangunan,Toko bangunan Sinar Bugis,"Jalan laning, muara, Mansapa, Nunukan Sel., Kabupaten Nunukan, Kalimantan Utara 77482","muara, Mansapa, Nunukan Sel., Kabupaten Nunukan",KALIMANTAN UTARA,77482.0,Indonesia,818390267.0,,,4.0656577,117.7398807,https://maps.google.com/?cid=0x0:0xea1bae64c137bed2,
toko bangunan,Toko Perlengkapan Rumah,Toko Cahaya Logam,"4MP2+Q23 Toko BANGUNAN, Jl. Bhayangkara, RT.11/RW.no.25, Nunukan Tengah, Kec. Nunukan, Kabupaten Nunukan, Kalimantan Utara 77422","Jl. Bhayangkara, RT.11/RW.no.25, Nunukan Tengah, Kec. Nunukan, Kabupaten Nunukan",KALIMANTAN UTARA,77422.0,Indonesia,81385661699.0,,,4.1368787,117.6500348,https://maps.google.com/?cid=0x0:0x1e06a7fb01192577,
toko bangunan,Toko Bahan Bangunan,Toko CAHAYA JAYA,"Jl. Taman Makam Pahlawan No.33, RT 8, Nunukan Tim., Kec. Nunukan, Kabupaten Nunukan, Kalimantan Utara 66319","RT 8, Nunukan Tim., Kec. Nunukan, Kabupaten Nunukan",KALIMANTAN UTARA,66319.0,Indonesia,55621155.0,,,4.1382492,117.6475488,https://maps.google.com/?cid=0x0:0xe16497742cb3c274,
toko bangunan,Toko Bahan Bangunan,Toko Cahaya Kanduangan,"6C2C+W3, Nunukan Utara, Kec. Nunukan, Kabupaten Nunukan, Kalimantan Utara","Kabupaten Nunukan, Kalimantan Utara",KALIMANTAN UTARA,,Indonesia,,,,4.2023398,117.4201444,https://maps.google.com/?cid=0x0:0xd02b16c3f4897100,
toko bangunan,Toko,Toko sinar mamolo,"2PMP+RVG, Lkr. Pulau Nunukan (mamolo, Tj. Harapan, Nunukan Sel., Kabupaten Nunukan, Kalimantan Utara 77482","Lkr. Pulau Nunukan (mamolo, Tj. Harapan, Nunukan Sel., Kabupaten Nunukan",KALIMANTAN UTARA,77482.0,Indonesia,85246671599.0,,,4.0345749,117.7372078,https://maps.google.com/?cid=0x0:0xaeba7a31dc3eeaef,
toko bangunan,Toko Bahan Bangunan,Total One - Stop Tools Station,"4MR6+C2C, Jl. Pattimura, Nunukan Tim., Kec. Nunukan, Kabupaten Nunukan, Kalimantan Utara 77482","Jl. Pattimura, Nunukan Tim., Kec. Nunukan, Kabupaten Nunukan",KALIMANTAN UTARA,77482.0,Indonesia,,,,4.1410621,117.6600131,https://maps.google.com/?cid=0x0:0x38fc7bf3d60ded0d,
toko bangunan,Toko Bahan Bangunan,TB. Cahaya Terang Nunukan,"Jl. Pattimura No.RT.08, Nunukan Tim., Kec. Nunukan, Kabupaten Nunukan, Kalimantan Utara 77482","Nunukan Tim., Kec. Nunukan, Kabupaten Nunukan",KALIMANTAN UTARA,77482.0,Indonesia,85789077202.0,,,4.1400846,117.6611091,https://maps.google.com/?cid=0x0:0x543dfe799c38c1fb,
toko bangunan,Toko Bahan Bangunan,Toko Maju Jaya,"4JRW+J87, Jl. Jamaker, Nunukan Tim., Kec. Nunukan, Kabupaten Nunukan, Kalimantan Utara 77482","Jl. Jamaker, Nunukan Tim., Kec. Nunukan, Kabupaten Nunukan",KALIMANTAN UTARA,77482.0,Indonesia,,,,4.1415412,117.6457928,https://maps.google.com/?cid=0x0:0x478114f6ba1fa990,
toko bangunan,Toko Bahan Bangunan,Toko Putoy Shop Sempurna Raya,"4JVW+5QR, Nunukan Tim., Kec. Nunukan, Kabupaten Nunukan, Kalimantan Utara 77482","Nunukan Tim., Kec. Nunukan, Kabupaten Nunukan",KALIMANTAN UTARA,77482.0,Indonesia,,,,4.1429912,117.6468795,https://maps.google.com/?cid=0x0:0x913566d60ac49cd0,
toko bangunan,Kantor Perusahaan,Inhutani I PT Persero,"Jl. Radio No.RT. 010, Binusan, Kec. Nunukan, Kabupaten Nunukan, Kalimantan Utara 77482","Binusan, Kec. Nunukan, Kabupaten Nunukan",KALIMANTAN UTARA,77482.0,Indonesia,55621787.0,,,4.068042,117.661114,https://maps.google.com/?cid=0x0:0xc450c6084ac9cb94,
toko bangunan,Toko Perlengkapan Rumah,Fitfanfah Al Chantara CV,"Jl. Tien Soharto No.64, Binusan, Kec. Nunukan, Kabupaten Nunukan, Kalimantan Utara 77482","Binusan, Kec. Nunukan, Kabupaten Nunukan",KALIMANTAN UTARA,77482.0,Indonesia,55621557.0,,,4.068042,117.661114,https://maps.google.com/?cid=0x0:0xe345ede53cd4ca4,
toko bangunan,Toko Bahan Bangunan,BATA MERAH MDK,"4J7J+FH6, Jl. Ujang Fatimah, Binusan, Kec. Nunukan, Kabupaten Nunukan, Kalimantan Utara 77482","Jl. Ujang Fatimah, Binusan, Kec. Nunukan, Kabupaten Nunukan",KALIMANTAN UTARA,77482.0,Indonesia,82237705997.0,,,4.1136601,117.6313927,https://maps.google.com/?cid=0x0:0x16cdd22929f86d2e,
toko bangunan,Toko Bahan Bangunan,Plafon PVC Arjuna Nunukan,"Jl. Bhayangkara, Nunukan Tim., Kec. Nunukan, Kabupaten Nunukan, Kalimantan Utara 17431","Nunukan Tim., Kec. Nunukan, Kabupaten Nunukan",KALIMANTAN UTARA,17431.0,Indonesia,81388191689.0,,,4.1350974,117.6514268,https://maps.google.com/?cid=0x0:0x99469cbd0a57215a,
toko bangunan,Pemasok Bahan Bangunan,GUDANG BATA MERAH ( AGR ),"3PC9+6P, Mansapa, Nunukan Sel., Kabupaten Nunukan, Kalimantan Utara","Kabupaten Nunukan, Kalimantan Utara",KALIMANTAN UTARA,,Indonesia,89602349841.0,,,4.0705967,117.7193117,https://maps.google.com/?cid=0x0:0xe519b0ff12aacc18,
toko bangunan,Toko Bahan Bangunan,Jotun MCC Nunukan,"4JQX+747, Jl. TM Pahlawan, Nunukan Tim., Baiturrahman, Kota Banda Aceh, Aceh","Kota Banda Aceh, Aceh",KALIMANTAN UTARA,,Indonesia,55621155.0,,,4.1381658,117.6477873,https://maps.google.com/?cid=0x0:0xd782f131a7d292ad,
hardware store,Toko,Toko Borneo,"WM3X+X66, Pa Kemut, Krayan, Kabupaten Nunukan, Kalimantan Utara 77456","Pa Kemut, Krayan, Kabupaten Nunukan",KALIMANTAN UTARA,77456.0,Indonesia,,,,3.9049024,115.6980072,https://maps.google.com/?cid=0x0:0x69b68bca084b87d,
hardware store,Toko,71,"Jl. Long Bawan, Pa Kemut, Krayan, Kabupaten Nunukan, Kalimantan Utara 77456","Pa Kemut, Krayan, Kabupaten Nunukan",KALIMANTAN UTARA,77456.0,Indonesia,81337777421.0,,,3.9044303,115.697338,https://maps.google.com/?cid=0x0:0xbb32e366a5b8a04d,
hardware store,Toko,Toko Borneo,"WM3X+X66, Pa Kemut, Krayan, Kabupaten Nunukan, Kalimantan Utara 77456","Pa Kemut, Krayan, Kabupaten Nunukan",KALIMANTAN UTARA,77456.0,Indonesia,,,,3.9049024,115.6980072,https://maps.google.com/?cid=0x0:0x69b68bca084b87d,
hardware store,Toko,71,"Jl. Long Bawan, Pa Kemut, Krayan, Kabupaten Nunukan, Kalimantan Utara 77456","Pa Kemut, Krayan, Kabupaten Nunukan",KALIMANTAN UTARA,77456.0,Indonesia,81337777421.0,,,3.9044303,115.697338,https://maps.google.com/?cid=0x0:0xbb32e366a5b8a04d,
hardware store,hardware store,Kec. Lumbis,"Kabupaten Nunukan, Kalimantan Utara","Kabupaten Nunukan, Kalimantan Utara",KALIMANTAN UTARA,,Indonesia,,,,3.7539235,116.7420499,https://maps.google.com/?cid=0x0:0xd64a09322f304639,
hardware store,Toko Bahan Bangunan,T.B Berkat Jaya,"GGG8+R57, Pulau Sapi, Kec. Mentarang, Kabupaten Malinau, Kalimantan Utara 77554","Pulau Sapi, Kec. Mentarang, Kabupaten Malinau",KALIMANTAN UTARA,77554.0,Indonesia,8161999912.0,,,3.5270288,116.5154093,https://maps.google.com/?cid=0x0:0x4f9de76d4268b507,
hardware store,Toko Bahan Bangunan,Tb.Tunas Jaya,"HJF5+RV9, Jl. Raja Pandita, Pelita Kanaan, Kec. Malinau Kota, Kabupaten Malinau, Kalimantan Utara 77554","Jl. Raja Pandita, Pelita Kanaan, Kec. Malinau Kota, Kabupaten Malinau",KALIMANTAN UTARA,77554.0,Indonesia,85169995912.0,,,3.5745336,116.6097442,https://maps.google.com/?cid=0x0:0x9df0f4d85fe85645,
hardware store,Toko,PING HARDWARE,"Jl. Duku, Tj. Selor Hilir, Kec. Tj. Selor, Kabupaten Bulungan, Kalimantan Utara 77212","Tj. Selor Hilir, Kec. Tj. Selor, Kabupaten Bulungan",KALIMANTAN UTARA,77212.0,Indonesia,85249690313.0,,,2.8482523,117.3702225,https://maps.google.com/?cid=0x0:0xe2884f6f1c8c1586,
hardware store,Toko Bahan Bangunan,Toko Sinar Jaya,"R9WC+72G, Jl. Langsat, Tj. Selor Hilir, Kec. Tj. Selor, Kabupaten Bulungan, Kalimantan Utara 77214","Jl. Langsat, Tj. Selor Hilir, Kec. Tj. Selor, Kabupaten Bulungan",KALIMANTAN UTARA,77214.0,Indonesia,83114785308.0,,,2.8456888,117.3700648,https://maps.google.com/?cid=0x0:0xccdd66a61ae0c64a,
hardware store,hardware store,Kalimantan Utara 77457,"Kabupaten Nunukan, Kalimantan Utara","Kabupaten Nunukan, Kalimantan Utara",KALIMANTAN UTARA,,Indonesia,,,,4.0104303,116.5137964,https://maps.google.com/?cid=0x0:0x82344e1d8c5acb7d,
hardware store,Toko,Toko Borneo,"WM3X+X66, Pa Kemut, Krayan, Kabupaten Nunukan, Kalimantan Utara 77456","Pa Kemut, Krayan, Kabupaten Nunukan",KALIMANTAN UTARA,77456.0,Indonesia,,,,3.9049024,115.6980072,https://maps.google.com/?cid=0x0:0x69b68bca084b87d,
hardware store,Toko Suku Cadang Mobil,Toko Muria Jaya Teknik,"HJMG+9VF, Malinau Kota, Kec. Malinau Kota, Kabupaten Malinau, Kalimantan Utara 77554","Malinau Kota, Kec. Malinau Kota, Kabupaten Malinau",KALIMANTAN UTARA,77554.0,Indonesia,55321659.0,,,3.583429,116.6271654,https://maps.google.com/?cid=0x0:0xb20de50d976930c9,
hardware store,Toko Bahan Bangunan,Pelangi Jaya Toko Bangunan,"HJF3+MX9, Malinau Hulu, Kec. Malinau Kota, Kabupaten Malinau, Kalimantan Utara 77554","Malinau Hulu, Kec. Malinau Kota, Kabupaten Malinau",KALIMANTAN UTARA,77554.0,Indonesia,85169995912.0,,,3.5741683,116.6049787,https://maps.google.com/?cid=0x0:0xc4b9090c68b73393,
hardware store,Toko Bahan Bangunan,Toko Makmur Jaya,"Jl. Panembahan No.RT.07 No.14, Malinau Kota, Kec. Malinau Kota, Kabupaten Malinau, Kalimantan Utara 77554","Malinau Kota, Kec. Malinau Kota, Kabupaten Malinau",KALIMANTAN UTARA,77554.0,Indonesia,85169995912.0,,,3.5894549,116.6227126,https://maps.google.com/?cid=0x0:0xec9717eadaeb8588,
hardware store,Toko Bahan Bangunan,GOLDEN HARDWARE - Toko Kunci  Keran (Pinangsia),"Jl. Pinangsia Raya No.57, Pinangsia, Kec. Taman Sari, Kota Jakarta Barat, Daerah Khusus Ibukota Jakarta 11110","Pinangsia, Kec. Taman Sari, Kota Jakarta Barat",KALIMANTAN UTARA,11110.0,Indonesia,87772726357.0,,,-6.141081,106.815394,https://maps.google.com/?cid=0x0:0x4311d9981de91e69,
hardware store,Toko Bahan Bangunan,GERAI KUNCI - Toko Kunci  Keran,"Jl. Pinangsia Raya No.63 C 6, RT.6/RW.5, Pinangsia, Kec. Taman Sari, Kota Jakarta Barat, Daerah Khusus Ibukota Jakarta 11110","RT.6/RW.5, Pinangsia, Kec. Taman Sari, Kota Jakarta Barat",KALIMANTAN UTARA,11110.0,Indonesia,216253387.0,,,-6.140499,106.815387,https://maps.google.com/?cid=0x0:0xb9db744b7c380328,
hardware store,Toko Bahan Bangunan,Jaya Interior,"Jl. Pinangsia Raya No.16G, Pinangsia, Kec. Taman Sari, Kota tua, Daerah Khusus Ibukota Jakarta 11110","Pinangsia, Kec. Taman Sari, Kota tua",KALIMANTAN UTARA,11110.0,Indonesia,8535399669.0,,,-6.1410765,106.81575,https://maps.google.com/?cid=0x0:0xda83db4af502c9ff,
hardware store,hardware store,Nunukan,"Nunukan Tim., Kec. Nunukan, Kabupaten Nunukan, Kalimantan Timur","Kabupaten Nunukan, Kalimantan Timur",KALIMANTAN UTARA,,Indonesia,,,,4.1393382,117.6496257,https://maps.google.com/?cid=0x0:0xc3fd6e9667d03afd,
hardware store,Toko Komputer,TRI MITRA COMPUTER,"Jl. TM Pahlawan No.57, RT.06/RW/RW.No.57, Nunukan Bar., Kec. Nunukan, Kabupaten Nunukan, Kalimantan Utara 77482","RT.06/RW/RW.No.57, Nunukan Bar., Kec. Nunukan, Kabupaten Nunukan",KALIMANTAN UTARA,77482.0,Indonesia,85389532365.0,,,4.1396426,117.6463239,https://maps.google.com/?cid=0x0:0x4690d6d9dae6bc50,
hardware store,Toko Elektronik,Toko Bintar Cell,"4MR7+442, East, Nunukan Tim., Kec. Nunukan, Kabupaten Nunukan, Kalimantan Utara 77482","East, Nunukan Tim., Kec. Nunukan, Kabupaten Nunukan",KALIMANTAN UTARA,77482.0,Indonesia,81347474141.0,,,4.1402529,117.6627732,https://maps.google.com/?cid=0x0:0xbf7d7b141e2731ff,
hardware store,Toko Elektronik,Sumber Disc Elektronik,"Nunukan Tim., Kec. Nunukan, Kabupaten Nunukan, Kalimantan Utara 77482","Kec. Nunukan, Kabupaten Nunukan",KALIMANTAN UTARA,77482.0,Indonesia,85250076003.0,,,4.1394963,117.6524605,https://maps.google.com/?cid=0x0:0xeb001e8f6a855736,
hardware store,Toko Pakaian,Nunukan Second Store,"4MQ4+Q87, Jl. Pattimura, Nunukan Tim., Kec. Nunukan, Kabupaten Nunukan, Kalimantan Utara 77482","Jl. Pattimura, Nunukan Tim., Kec. Nunukan, Kabupaten Nunukan",KALIMANTAN UTARA,77482.0,Indonesia,,,,4.1394165,117.6557884,https://maps.google.com/?cid=0x0:0xec2c66546659ff5f,
hardware store,Toko Elektronik,Bintar cell service,"4MM8+27J, Nunukan Tim., Kec. Nunukan, Kabupaten Nunukan, Kalimantan Utara 77482","Nunukan Tim., Kec. Nunukan, Kabupaten Nunukan",KALIMANTAN UTARA,77482.0,Indonesia,82184918373.0,,,4.1325761,117.6656429,https://maps.google.com/?cid=0x0:0x4aee0346355133a6,
hardware store,Toko Elektronik,Hokky Elektronik  Furniture,"4JQW+JG8, Nunukan Tim., Kec. Nunukan, Kabupaten Nunukan, Kalimantan Utara","Kabupaten Nunukan, Kalimantan Utara",KALIMANTAN UTARA,,Indonesia,85350589999.0,,,4.1400221,117.6616018,https://maps.google.com/?cid=0x0:0x85ed666c1eed4819,
hardware store,Pembangunan Perumahan,Nunukan Kalimantan Utara,"4MV3+49C, Nunukan Tim., Kec. Nunukan, Kabupaten Nunukan, Kalimantan Utara 77482","Nunukan Tim., Kec. Nunukan, Kabupaten Nunukan",KALIMANTAN UTARA,77482.0,Indonesia,81253330400.0,,,4.1428235,117.6533876,https://maps.google.com/?cid=0x0:0x9105e7cfeb532a70,
hardware store,Toko,MARIO JAYA CELL,"Jl. Pattimura, Nunukan Tim., Kec. Nunukan, Kabupaten Nunukan, Kalimantan Utara 77482","Nunukan Tim., Kec. Nunukan, Kabupaten Nunukan",KALIMANTAN UTARA,77482.0,Indonesia,82254797979.0,,,4.1398372,117.6509885,https://maps.google.com/?cid=0x0:0x7a4acb809b0e134a,
hardware store,Toko Ponsel,AZNAN Cellular,"4JVW+6H7, Nunukan Tim., Kec. Nunukan, Kabupaten Nunukan, Kalimantan Utara 77482","Nunukan Tim., Kec. Nunukan, Kabupaten Nunukan",KALIMANTAN UTARA,77482.0,Indonesia,,,,4.1430309,117.646411,https://maps.google.com/?cid=0x0:0xa8b68e6874f18407,
hardware store,Toko Mebel,Toko Arikah Furniture,"Pulau Nunukan, Kec. Nunukan, Kabupaten Nunukan, Kalimantan Utara 77482","Kec. Nunukan, Kabupaten Nunukan",KALIMANTAN UTARA,77482.0,Indonesia,82194523201.0,,,4.1393102,117.6464647,https://maps.google.com/?cid=0x0:0x8ceae5471778188e,
hardware store,Pemasok Komponen Elektronik,UD Narman ElekComp (NarmanNet),"4MR7+JVV, Nunukan Tim., Kec. Nunukan, Kabupaten Nunukan, Kalimantan Utara 77482","Nunukan Tim., Kec. Nunukan, Kabupaten Nunukan",KALIMANTAN UTARA,77482.0,Indonesia,55622776.0,,,4.1416054,117.6646778,https://maps.google.com/?cid=0x0:0xbf9e5ac5b827c449,
hardware store,Toko,Toko Dunia Walet Kaltara,"Apotik Bening Jl. Ahmad Yani RT. 02 Kel, Nunukan Tengah, Kec. Nunukan, Kabupaten Nunukan, Kalimantan Utara 77482","Nunukan Tengah, Kec. Nunukan, Kabupaten Nunukan",KALIMANTAN UTARA,77482.0,Indonesia,,,,4.1387893,117.6509142,https://maps.google.com/?cid=0x0:0xe98420ceba175e20,
hardware store,Toko,PING HARDWARE,"Jl. Duku, Tj. Selor Hilir, Kec. Tj. Selor, Kabupaten Bulungan, Kalimantan Utara 77212","Tj. Selor Hilir, Kec. Tj. Selor, Kabupaten Bulungan",KALIMANTAN UTARA,77212.0,Indonesia,85249690313.0,,,2.8482523,117.3702225,https://maps.google.com/?cid=0x0:0xe2884f6f1c8c1586,
hardware store,Toko Elektronik,PUTRA CELL,"4JQX+5FV, Nunukan Tim., Kec. Nunukan, Kabupaten Nunukan, Kalimantan Utara 77482","Nunukan Tim., Kec. Nunukan, Kabupaten Nunukan",KALIMANTAN UTARA,77482.0,Indonesia,,,,4.1379802,117.6486791,https://maps.google.com/?cid=0x0:0x705618bf0c9113bd,
hardware store,Toko Bahan Bangunan,Toko CAHAYA JAYA,"Jl. Taman Makam Pahlawan No.33, RT 8, Nunukan Tim., Kec. Nunukan, Kabupaten Nunukan, Kalimantan Utara 66319","RT 8, Nunukan Tim., Kec. Nunukan, Kabupaten Nunukan",KALIMANTAN UTARA,66319.0,Indonesia,55621155.0,,,4.1382492,117.6475488,https://maps.google.com/?cid=0x0:0xe16497742cb3c274,
hardware store,Toko,kios zhident,"4MV4+77M, Jl. Ps. Baru, Nunukan Tim., Kec. Nunukan, Kabupaten Nunukan, Kalimantan Utara 77482","Jl. Ps. Baru, Nunukan Tim., Kec. Nunukan, Kabupaten Nunukan",KALIMANTAN UTARA,77482.0,Indonesia,8115373004.0,,,4.143201,117.6556868,https://maps.google.com/?cid=0x0:0x5d748549a00477fa,
hardware store,hardware store,Pulau Nunukan,"Kabupaten Nunukan, Kalimantan Utara","Kabupaten Nunukan, Kalimantan Utara",KALIMANTAN UTARA,,Indonesia,,,,4.0609227,117.666952,https://maps.google.com/?cid=0x0:0xa3a4d934edf96a69,
hardware store,Toko Elektronik,Toko Bintar Cell,"4MR7+442, East, Nunukan Tim., Kec. Nunukan, Kabupaten Nunukan, Kalimantan Utara 77482","East, Nunukan Tim., Kec. Nunukan, Kabupaten Nunukan",KALIMANTAN UTARA,77482.0,Indonesia,81347474141.0,,,4.1402529,117.6627732,https://maps.google.com/?cid=0x0:0xbf7d7b141e2731ff,
hardware store,Toko Komputer,TRI MITRA COMPUTER,"Jl. TM Pahlawan No.57, RT.06/RW/RW.No.57, Nunukan Bar., Kec. Nunukan, Kabupaten Nunukan, Kalimantan Utara 77482","RT.06/RW/RW.No.57, Nunukan Bar., Kec. Nunukan, Kabupaten Nunukan",KALIMANTAN UTARA,77482.0,Indonesia,85389532365.0,,,4.1396426,117.6463239,https://maps.google.com/?cid=0x0:0x4690d6d9dae6bc50,
hardware store,Toko Elektronik,Toko Bintar Jaya Elektrik,"Jl. Yos Sudarso No. 22, RT. 03, Kec. Nunukan Utara, Nunukan Tim., Kec. Nunukan, Kabupaten Nunukan, Kalimantan Utara 77482","RT. 03, Kec. Nunukan Utara, Nunukan Tim., Kec. Nunukan, Kabupaten Nunukan",KALIMANTAN UTARA,77482.0,Indonesia,81347474157.0,,,4.1409303,117.6502403,https://maps.google.com/?cid=0x0:0x203e06d2c2ff1f99,
hardware store,Toko Ponsel,AZNAN Cellular,"4JVW+6H7, Nunukan Tim., Kec. Nunukan, Kabupaten Nunukan, Kalimantan Utara 77482","Nunukan Tim., Kec. Nunukan, Kabupaten Nunukan",KALIMANTAN UTARA,77482.0,Indonesia,,,,4.1430309,117.646411,https://maps.google.com/?cid=0x0:0xa8b68e6874f18407,
hardware store,Toko Elektronik,Hokky Elektronik  Furniture,"4JQW+JG8, Nunukan Tim., Kec. Nunukan, Kabupaten Nunukan, Kalimantan Utara","Kabupaten Nunukan, Kalimantan Utara",KALIMANTAN UTARA,,Indonesia,85350589999.0,,,4.1400221,117.6616018,https://maps.google.com/?cid=0x0:0x85ed666c1eed4819,
hardware store,Toko,MARIO JAYA CELL,"Jl. Pattimura, Nunukan Tim., Kec. Nunukan, Kabupaten Nunukan, Kalimantan Utara 77482","Nunukan Tim., Kec. Nunukan, Kabupaten Nunukan",KALIMANTAN UTARA,77482.0,Indonesia,82254797979.0,,,4.1398372,117.6509885,https://maps.google.com/?cid=0x0:0x7a4acb809b0e134a,
hardware store,Pemasok Komponen Elektronik,UD Narman ElekComp (NarmanNet),"4MR7+JVV, Nunukan Tim., Kec. Nunukan, Kabupaten Nunukan, Kalimantan Utara 77482","Nunukan Tim., Kec. Nunukan, Kabupaten Nunukan",KALIMANTAN UTARA,77482.0,Indonesia,55622776.0,,,4.1416054,117.6646778,https://maps.google.com/?cid=0x0:0xbf9e5ac5b827c449,
hardware store,Pembangunan Perumahan,Nunukan Kalimantan Utara,"4MV3+49C, Nunukan Tim., Kec. Nunukan, Kabupaten Nunukan, Kalimantan Utara 77482","Nunukan Tim., Kec. Nunukan, Kabupaten Nunukan",KALIMANTAN UTARA,77482.0,Indonesia,81253330400.0,,,4.1428235,117.6533876,https://maps.google.com/?cid=0x0:0x9105e7cfeb532a70,
hardware store,Toko,Toko Dunia Walet Kaltara,"Apotik Bening Jl. Ahmad Yani RT. 02 Kel, Nunukan Tengah, Kec. Nunukan, Kabupaten Nunukan, Kalimantan Utara 77482","Nunukan Tengah, Kec. Nunukan, Kabupaten Nunukan",KALIMANTAN UTARA,77482.0,Indonesia,,,,4.1387893,117.6509142,https://maps.google.com/?cid=0x0:0xe98420ceba175e20,
hardware store,Otoritas Pelabuhan,Sungai bolong menu ju lapas nunukan,"4JQX+PVC, Nunukan Tim., Kec. Nunukan, Kabupaten Nunukan, Kalimantan Utara","Kabupaten Nunukan, Kalimantan Utara",KALIMANTAN UTARA,,Indonesia,,,,4.1393225,117.649648,https://maps.google.com/?cid=0x0:0x4146ea3cf223e385,
hardware store,Toko,PING HARDWARE,"Jl. Duku, Tj. Selor Hilir, Kec. Tj. Selor, Kabupaten Bulungan, Kalimantan Utara 77212","Tj. Selor Hilir, Kec. Tj. Selor, Kabupaten Bulungan",KALIMANTAN UTARA,77212.0,Indonesia,85249690313.0,,,2.8482523,117.3702225,https://maps.google.com/?cid=0x0:0xe2884f6f1c8c1586,
hardware store,Toko Elektronik,PUTRA CELL,"4JQX+5FV, Nunukan Tim., Kec. Nunukan, Kabupaten Nunukan, Kalimantan Utara 77482","Nunukan Tim., Kec. Nunukan, Kabupaten Nunukan",KALIMANTAN UTARA,77482.0,Indonesia,,,,4.1379802,117.6486791,https://maps.google.com/?cid=0x0:0x705618bf0c9113bd,
hardware store,Sekolah Menengah Pertama,SMPN 1 Nunukan Selatan,"4MCJ+H3V, JL. Selisun, Nunukan Tim., Kec. Nunukan, Kabupaten Nunukan, Kalimantan Utara 77482","JL. Selisun, Nunukan Tim., Kec. Nunukan, Kabupaten Nunukan",KALIMANTAN UTARA,77482.0,Indonesia,5562026034.0,,,4.1214974,117.680182,https://maps.google.com/?cid=0x0:0x9de2272860fa8e2d,
hardware store,Asosiasi/organisasi,Bandar Udara Nunukan,"Jl. Arief Rahman Hakim No.14, Nunukan Tim., Kec. Nunukan, Kabupaten Nunukan, Kalimantan Utara 77482","Nunukan Tim., Kec. Nunukan, Kabupaten Nunukan",KALIMANTAN UTARA,77482.0,Indonesia,55621710.0,,,4.1368413,117.6669399,https://maps.google.com/?cid=0x0:0xe03a83c8d3e6a920,
hardware store,hardware store,Kalimantan Utara 77482,"Kabupaten Nunukan, Kalimantan Utara","Kabupaten Nunukan, Kalimantan Utara",KALIMANTAN UTARA,,Indonesia,,,,4.1377066,117.0794082,https://maps.google.com/?cid=0x0:0xe448c81886e99c56,
hardware store,Toko Pakaian,Nunukan Second Store,"4MQ4+Q87, Jl. Pattimura, Nunukan Tim., Kec. Nunukan, Kabupaten Nunukan, Kalimantan Utara 77482","Jl. Pattimura, Nunukan Tim., Kec. Nunukan, Kabupaten Nunukan",KALIMANTAN UTARA,77482.0,Indonesia,,,,4.1394165,117.6557884,https://maps.google.com/?cid=0x0:0xec2c66546659ff5f,
hardware store,Toko,Toko Nurhasanah,"Jl. Ujang Dewa, RT.002/RW.001, Nunukan Sel., Kabupaten Nunukan, Kalimantan Utara 77482","RT.002/RW.001, Nunukan Sel., Kabupaten Nunukan",KALIMANTAN UTARA,77482.0,Indonesia,82213510040.0,,,4.0842781,117.7177724,https://maps.google.com/?cid=0x0:0x6c0a65b271b3721e,
hardware store,Toko Alat Tulis Kantor,Foto copy K2 jaya,"4MFG+4V5, Selisun, Nunukan Sel., Kabupaten Nunukan, Kalimantan Utara 77482","Selisun, Nunukan Sel., Kabupaten Nunukan",KALIMANTAN UTARA,77482.0,Indonesia,,,,4.1230859,117.6763742,https://maps.google.com/?cid=0x0:0x8edc9aa1500d38d5,
hardware store,hardware store,Nunukan Sel.,"Kabupaten Nunukan, Kalimantan Utara","Kabupaten Nunukan, Kalimantan Utara",KALIMANTAN UTARA,,Indonesia,,,,4.0591834,117.7138785,https://maps.google.com/?cid=0x0:0x387c6400b26993a1,
hardware store,Toko Bahan Bangunan,Total One - Stop Tools Station,"4MR6+C2C, Jl. Pattimura, Nunukan Tim., Kec. Nunukan, Kabupaten Nunukan, Kalimantan Utara 77482","Jl. Pattimura, Nunukan Tim., Kec. Nunukan, Kabupaten Nunukan",KALIMANTAN UTARA,77482.0,Indonesia,,,,4.1410621,117.6600131,https://maps.google.com/?cid=0x0:0x38fc7bf3d60ded0d,
hardware store,Toko Bahan Bangunan,Toko CAHAYA JAYA,"Jl. Taman Makam Pahlawan No.33, RT 8, Nunukan Tim., Kec. Nunukan, Kabupaten Nunukan, Kalimantan Utara 66319","RT 8, Nunukan Tim., Kec. Nunukan, Kabupaten Nunukan",KALIMANTAN UTARA,66319.0,Indonesia,55621155.0,,,4.1382492,117.6475488,https://maps.google.com/?cid=0x0:0xe16497742cb3c274,
hardware store,Toko Kelontong Asia,TOKO RITA NUNUKAN,"Jalan Tanjung, East Nunukan, North Kalimantan, Nunukan Tim., Kec. Nunukan, Kabupaten Nunukan, Kalimantan Utara 77482","East Nunukan, North Kalimantan, Nunukan Tim., Kec. Nunukan, Kabupaten Nunukan",KALIMANTAN UTARA,77482.0,Indonesia,82197309525.0,,,4.1419185,117.6457258,https://maps.google.com/?cid=0x0:0xe7f69f707881b42c,
hardware store,hardware store,Kalimantan Utara 77483,"Kabupaten Nunukan, Kalimantan Utara","Kabupaten Nunukan, Kalimantan Utara",KALIMANTAN UTARA,,Indonesia,,,,4.1288838,117.8076959,https://maps.google.com/?cid=0x0:0x196bc50d99899ad,
hardware store,Toko umum,MR.DIY,"Jl. Ahmad Yani No.RT 12, Sungai Nyamuk, Kec. Sebatik Timur, Kabupaten Nunukan, Kalimantan Utara 77488","Sungai Nyamuk, Kec. Sebatik Timur, Kabupaten Nunukan",KALIMANTAN UTARA,77488.0,Indonesia,,,,4.1254895,117.9190236,https://maps.google.com/?cid=0x0:0x310e2d09e06d68fa,
hardware store,Toko Alat Kelautan,TOKO DANIL,"Tanjung Aru, 4W9C+RCM, Sebatik, Tanjung Aru, Sebatik Timur, Nunukan Regency, North Kalimantan 77483","4W9C+RCM, Sebatik, Tanjung Aru, Sebatik Timur, Nunukan Regency",KALIMANTAN UTARA,77483.0,Indonesia,,,,4.1192129,117.9199435,https://maps.google.com/?cid=0x0:0xada4ddd6a8d3c681,
hardware store,Toko Bahan Bangunan,Toko Perlengkapan Nelayan UD. DANIEL,"4WCF+XVQ, Tj. Aru, Kec. Sebatik, Kabupaten Nunukan, Kalimantan Utara 77483","Tj. Aru, Kec. Sebatik, Kabupaten Nunukan",KALIMANTAN UTARA,77483.0,Indonesia,,,,4.1224695,117.9247226,https://maps.google.com/?cid=0x0:0x8a0d8257dd116021,
hardware store,Pemasok peralatan penanganan material,CV. Nita Abadi,"Jl. Gembira No.RT. 08, Desa Bukit Aru Indah, Kec. Sebatik Timur, Kabupaten Nunukan, Kalimantan Utara 77435","Desa Bukit Aru Indah, Kec. Sebatik Timur, Kabupaten Nunukan",KALIMANTAN UTARA,77435.0,Indonesia,85245695080.0,,,4.1261563,117.9210907,https://maps.google.com/?cid=0x0:0x249966fa0cc02d85,
hardware store,Toko,Toko ATK Mart,"Jl. Ahmad Yani Desa No.RT.001, Sungai Nyamuk, Kec. Sebatik Timur, Kabupaten Nunukan, Kalimantan Utara 77483","Sungai Nyamuk, Kec. Sebatik Timur, Kabupaten Nunukan",KALIMANTAN UTARA,77483.0,Indonesia,85347007662.0,,,4.1473358,117.909746,https://maps.google.com/?cid=0x0:0x9b1aaf4cc99d7a1d,
hardware store,Toko bahan makanan,TOKO HAMDANA,"3R3R+HH6, Tj. Karang, Kec. Sebatik, Kabupaten Nunukan, Kalimantan Utara 77483","Tj. Karang, Kec. Sebatik, Kabupaten Nunukan",KALIMANTAN UTARA,77483.0,Indonesia,,,,4.0539158,117.8413792,https://maps.google.com/?cid=0x0:0xe070b28b4136e58f,
hardware store,Katering,UD. DAPOER BUCIN MANTIKAS (DBM),"Jl. Imam Amin RT.02 Mantikas Tidung, Kode Pos: 77468, Desa, Setabu, Kec. Sebatik Bar., Kabupaten Nunukan, Kalimantan Utara",Kode Pos:,KALIMANTAN UTARA,77468.0,Indonesia,81345452223.0,,,4.0884697,117.7893636,https://maps.google.com/?cid=0x0:0xb820def0067af50d,
hardware store,Toko Bahan Bangunan,Total One - Stop Tools Station,"4MR6+C2C, Jl. Pattimura, Nunukan Tim., Kec. Nunukan, Kabupaten Nunukan, Kalimantan Utara 77482","Jl. Pattimura, Nunukan Tim., Kec. Nunukan, Kabupaten Nunukan",KALIMANTAN UTARA,77482.0,Indonesia,,,,4.1410621,117.6600131,https://maps.google.com/?cid=0x0:0x38fc7bf3d60ded0d,
hardware store,Toko Alat Tulis Kantor,Toko Anin Najwa,"jl. pendidikan, Binalawan, Kec. Sebatik Bar., Kabupaten Nunukan, Kalimantan Utara 77483","Binalawan, Kec. Sebatik Bar., Kabupaten Nunukan",KALIMANTAN UTARA,77483.0,Indonesia,,,,4.0951031,117.7746197,https://maps.google.com/?cid=0x0:0xfd3c4f98d77dd3f8,
hardware store,Apotek,Toko obat,"5V77+2PF, Jalan Lingkar Pulau, Pancang, Sebatik, Nunukan Regency, North Kalimantan 77483","Jalan Lingkar Pulau, Pancang, Sebatik, Nunukan Regency",KALIMANTAN UTARA,77483.0,Indonesia,,,,4.1625719,117.8642963,https://maps.google.com/?cid=0x0:0x3b23fc4a76873b21,
hardware store,Toko Bahan Bangunan,Toko CAHAYA JAYA,"Jl. Taman Makam Pahlawan No.33, RT 8, Nunukan Tim., Kec. Nunukan, Kabupaten Nunukan, Kalimantan Utara 66319","RT 8, Nunukan Tim., Kec. Nunukan, Kabupaten Nunukan",KALIMANTAN UTARA,66319.0,Indonesia,55621155.0,,,4.1382492,117.6475488,https://maps.google.com/?cid=0x0:0xe16497742cb3c274,
hardware store,Toko Perlengkapan Rumah,Toko Bangunan Sei Pancang,"5W24+X2V, Pancang, Kec. Sebatik, Kabupaten Nunukan, Kalimantan Utara 77483","Pancang, Kec. Sebatik, Kabupaten Nunukan",KALIMANTAN UTARA,77483.0,Indonesia,,,,4.1524876,117.9050498,https://maps.google.com/?cid=0x0:0x4cd403cf27cf0ea6,
hardware store,Toko Bahan Bangunan,Syarikat Teck Loong Hardware Sdn. Bhd.-federal paint,"91000, TB 212  213, Jln. St Patrick, 91000 Tawau, Sabah, Malaysia",Tawau,KALIMANTAN UTARA,91000.0,Indonesia,601116865300.0,,,4.2491944,117.8934214,https://maps.google.com/?cid=0x0:0x98cc3ed4b2cbd992,
hardware store,Toko Bahan Bangunan,TB. Surya Jaya,"Jl. Merdeka No.69, Abadijaya, Kec. Sukmajaya, Kota Depok, Jawa Barat 16417","Abadijaya, Kec. Sukmajaya, Kota Depok",KALIMANTAN UTARA,16417.0,Indonesia,82388888212.0,,,-6.3967221,106.8476491,https://maps.google.com/?cid=0x0:0x7d6eff65fd6c1d64,
hardware store,Toko Perlengkapan Rumah,MR. DIY,"4WP8+8VH, Sungai Nyamuk, Kec. Sebatik Timur, Kabupaten Nunukan, Kalimantan Utara 77483","Sungai Nyamuk, Kec. Sebatik Timur, Kabupaten Nunukan",KALIMANTAN UTARA,77483.0,Indonesia,,,,4.135824,117.9172351,https://maps.google.com/?cid=0x0:0x40263dfd9e77296c,
hardware store,hardware store,Kec. Sebatik Bar.,"Kabupaten Nunukan, Kalimantan Utara","Kabupaten Nunukan, Kalimantan Utara",KALIMANTAN UTARA,,Indonesia,,,,4.0915863,117.7869756,https://maps.google.com/?cid=0x0:0x568a0785aa87a25d,
hardware store,Katering,UD. DAPOER BUCIN MANTIKAS (DBM),"Jl. Imam Amin RT.02 Mantikas Tidung, Kode Pos: 77468, Desa, Setabu, Kec. Sebatik Bar., Kabupaten Nunukan, Kalimantan Utara",Kode Pos:,KALIMANTAN UTARA,77468.0,Indonesia,81345452223.0,,,4.0884697,117.7893636,https://maps.google.com/?cid=0x0:0xb820def0067af50d,
hardware store,Toko bahan makanan,TOKO HAMDANA,"3R3R+HH6, Tj. Karang, Kec. Sebatik, Kabupaten Nunukan, Kalimantan Utara 77483","Tj. Karang, Kec. Sebatik, Kabupaten Nunukan",KALIMANTAN UTARA,77483.0,Indonesia,,,,4.0539158,117.8413792,https://maps.google.com/?cid=0x0:0xe070b28b4136e58f,
hardware store,Toko Alat Tulis Kantor,Toko Anin Najwa,"jl. pendidikan, Binalawan, Kec. Sebatik Bar., Kabupaten Nunukan, Kalimantan Utara 77483","Binalawan, Kec. Sebatik Bar., Kabupaten Nunukan",KALIMANTAN UTARA,77483.0,Indonesia,,,,4.0951031,117.7746197,https://maps.google.com/?cid=0x0:0xfd3c4f98d77dd3f8,
hardware store,Toko Perlengkapan Rumah,Toko Bangunan UD. IRMA,"4WF9+2RH, Sungai Nyamuk, Kec. Sebatik, Kabupaten Nunukan, Kalimantan Utara 77483","Sungai Nyamuk, Kec. Sebatik, Kabupaten Nunukan",KALIMANTAN UTARA,77483.0,Indonesia,8161999912.0,,,4.1225665,117.9196,https://maps.google.com/?cid=0x0:0x1b845c09bfb3955d,
hardware store,Toko Alat Kelautan,TOKO DANIL,"Tanjung Aru, 4W9C+RCM, Sebatik, Tanjung Aru, Sebatik Timur, Nunukan Regency, North Kalimantan 77483","4W9C+RCM, Sebatik, Tanjung Aru, Sebatik Timur, Nunukan Regency",KALIMANTAN UTARA,77483.0,Indonesia,,,,4.1192129,117.9199435,https://maps.google.com/?cid=0x0:0xada4ddd6a8d3c681,
hardware store,hardware store,Kec. Sebatik Tengah,"Aji Kuning, Kabupaten Nunukan, Kalimantan Utara","Kabupaten Nunukan, Kalimantan Utara",KALIMANTAN UTARA,,Indonesia,,,,4.1551007,117.7860818,https://maps.google.com/?cid=0x0:0xb6cdfa4159ca968c,
hardware store,Toko Perlengkapan Rumah,Toko Bangunan UD. IRMA,"4WF9+2RH, Sungai Nyamuk, Kec. Sebatik, Kabupaten Nunukan, Kalimantan Utara 77483","Sungai Nyamuk, Kec. Sebatik, Kabupaten Nunukan",KALIMANTAN UTARA,77483.0,Indonesia,8161999912.0,,,4.1225665,117.9196,https://maps.google.com/?cid=0x0:0x1b845c09bfb3955d,
hardware store,Toko Alat Kelautan,TOKO DANIL,"Tanjung Aru, 4W9C+RCM, Sebatik, Tanjung Aru, Sebatik Timur, Nunukan Regency, North Kalimantan 77483","4W9C+RCM, Sebatik, Tanjung Aru, Sebatik Timur, Nunukan Regency",KALIMANTAN UTARA,77483.0,Indonesia,,,,4.1192129,117.9199435,https://maps.google.com/?cid=0x0:0xada4ddd6a8d3c681,
hardware store,Toko Alat Tulis Kantor,Toko Anin Najwa,"jl. pendidikan, Binalawan, Kec. Sebatik Bar., Kabupaten Nunukan, Kalimantan Utara 77483","Binalawan, Kec. Sebatik Bar., Kabupaten Nunukan",KALIMANTAN UTARA,77483.0,Indonesia,,,,4.0951031,117.7746197,https://maps.google.com/?cid=0x0:0xfd3c4f98d77dd3f8,
hardware store,Toko Swalayan,Toko Senyum 5000,"Nunukan Tim., Kec. Nunukan, Kabupaten Nunukan, Kalimantan Utara 77482","Kec. Nunukan, Kabupaten Nunukan",KALIMANTAN UTARA,77482.0,Indonesia,,,,4.1413773,117.65958,https://maps.google.com/?cid=0x0:0x4978756f5899178c,
hardware store,Toko,Foto Copy dan ATK Putra Putri,"4RHX+6CM, Aji Kuning, Kec. Sebatik Tengah, Kabupaten Nunukan, Kalimantan Utara 77483","Aji Kuning, Kec. Sebatik Tengah, Kabupaten Nunukan",KALIMANTAN UTARA,77483.0,Indonesia,,,,4.1272893,117.8486228,https://maps.google.com/?cid=0x0:0xbc353fa98f74f41a,
hardware store,Apotek,Toko obat,"5V77+2PF, Jalan Lingkar Pulau, Pancang, Sebatik, Nunukan Regency, North Kalimantan 77483","Jalan Lingkar Pulau, Pancang, Sebatik, Nunukan Regency",KALIMANTAN UTARA,77483.0,Indonesia,,,,4.1625719,117.8642963,https://maps.google.com/?cid=0x0:0x3b23fc4a76873b21,
hardware store,Toko Bahan Bangunan,UD.KALIMAN JAYA Toko Bangunan,"5V77+3F8, Pancang, Kec. Sebatik, Kabupaten Nunukan, Kalimantan Utara 77483","Pancang, Kec. Sebatik, Kabupaten Nunukan",KALIMANTAN UTARA,77483.0,Indonesia,8161999912.0,,,4.1626601,117.8637123,https://maps.google.com/?cid=0x0:0x25833a1e789fdbfd,
hardware store,Toko Perlengkapan Rumah,Toko Bangunan Sei Pancang,"5W24+X2V, Pancang, Kec. Sebatik, Kabupaten Nunukan, Kalimantan Utara 77483","Pancang, Kec. Sebatik, Kabupaten Nunukan",KALIMANTAN UTARA,77483.0,Indonesia,,,,4.1524876,117.9050498,https://maps.google.com/?cid=0x0:0x4cd403cf27cf0ea6,
hardware store,Toko umum,MR.DIY,"Jl. Ahmad Yani No.RT 12, Sungai Nyamuk, Kec. Sebatik Timur, Kabupaten Nunukan, Kalimantan Utara 77488","Sungai Nyamuk, Kec. Sebatik Timur, Kabupaten Nunukan",KALIMANTAN UTARA,77488.0,Indonesia,,,,4.1254895,117.9190236,https://maps.google.com/?cid=0x0:0x310e2d09e06d68fa,
hardware store,Toko Ponsel,Toko HOMEComputer Sebatik(flasherphone),"Jl. Dermaga, Sungai Nyamuk, Kec. Sebatik Timur, kab.nunukan, Kalimantan Utara 77483","Sungai Nyamuk, Kec. Sebatik Timur, kab.nunukan",KALIMANTAN UTARA,77483.0,Indonesia,85347007636.0,,,4.1462759,117.9106782,https://maps.google.com/?cid=0x0:0xc7b4aefb4de31106,
hardware store,Toko Bahan Bangunan,Toko Perlengkapan Nelayan UD. DANIEL,"4WCF+XVQ, Tj. Aru, Kec. Sebatik, Kabupaten Nunukan, Kalimantan Utara 77483","Tj. Aru, Kec. Sebatik, Kabupaten Nunukan",KALIMANTAN UTARA,77483.0,Indonesia,,,,4.1224695,117.9247226,https://maps.google.com/?cid=0x0:0x8a0d8257dd116021,
hardware store,hardware store,Kec. Sebatik Timur,"Kabupaten Nunukan, Kalimantan Utara","Kabupaten Nunukan, Kalimantan Utara",KALIMANTAN UTARA,,Indonesia,,,,4.1222149,117.9196102,https://maps.google.com/?cid=0x0:0xdfc5b0e5643d3ea7,
hardware store,Toko umum,MR.DIY,"Jl. Ahmad Yani No.RT 12, Sungai Nyamuk, Kec. Sebatik Timur, Kabupaten Nunukan, Kalimantan Utara 77488","Sungai Nyamuk, Kec. Sebatik Timur, Kabupaten Nunukan",KALIMANTAN UTARA,77488.0,Indonesia,,,,4.1254895,117.9190236,https://maps.google.com/?cid=0x0:0x310e2d09e06d68fa,
hardware store,Toko Perlengkapan Rumah,MR. DIY,"4WP8+8VH, Sungai Nyamuk, Kec. Sebatik Timur, Kabupaten Nunukan, Kalimantan Utara 77483","Sungai Nyamuk, Kec. Sebatik Timur, Kabupaten Nunukan",KALIMANTAN UTARA,77483.0,Indonesia,,,,4.135824,117.9172351,https://maps.google.com/?cid=0x0:0x40263dfd9e77296c,
hardware store,Toko Alat Kelautan,TOKO DANIL,"Tanjung Aru, 4W9C+RCM, Sebatik, Tanjung Aru, Sebatik Timur, Nunukan Regency, North Kalimantan 77483","4W9C+RCM, Sebatik, Tanjung Aru, Sebatik Timur, Nunukan Regency",KALIMANTAN UTARA,77483.0,Indonesia,,,,4.1192129,117.9199435,https://maps.google.com/?cid=0x0:0xada4ddd6a8d3c681,
hardware store,Pemasok peralatan penanganan material,CV. Nita Abadi,"Jl. Gembira No.RT. 08, Desa Bukit Aru Indah, Kec. Sebatik Timur, Kabupaten Nunukan, Kalimantan Utara 77435","Desa Bukit Aru Indah, Kec. Sebatik Timur, Kabupaten Nunukan",KALIMANTAN UTARA,77435.0,Indonesia,85245695080.0,,,4.1261563,117.9210907,https://maps.google.com/?cid=0x0:0x249966fa0cc02d85,
hardware store,Toko,Toko ATK Mart,"Jl. Ahmad Yani Desa No.RT.001, Sungai Nyamuk, Kec. Sebatik Timur, Kabupaten Nunukan, Kalimantan Utara 77483","Sungai Nyamuk, Kec. Sebatik Timur, Kabupaten Nunukan",KALIMANTAN UTARA,77483.0,Indonesia,85347007662.0,,,4.1473358,117.909746,https://maps.google.com/?cid=0x0:0x9b1aaf4cc99d7a1d,
hardware store,Toko Ponsel,Toko HOMEComputer Sebatik(flasherphone),"Jl. Dermaga, Sungai Nyamuk, Kec. Sebatik Timur, kab.nunukan, Kalimantan Utara 77483","Sungai Nyamuk, Kec. Sebatik Timur, kab.nunukan",KALIMANTAN UTARA,77483.0,Indonesia,85347007636.0,,,4.1462759,117.9106782,https://maps.google.com/?cid=0x0:0xc7b4aefb4de31106,
hardware store,Toko Bahan Bangunan,Toko Perlengkapan Nelayan UD. DANIEL,"4WCF+XVQ, Tj. Aru, Kec. Sebatik, Kabupaten Nunukan, Kalimantan Utara 77483","Tj. Aru, Kec. Sebatik, Kabupaten Nunukan",KALIMANTAN UTARA,77483.0,Indonesia,,,,4.1224695,117.9247226,https://maps.google.com/?cid=0x0:0x8a0d8257dd116021,
hardware store,Masjid,Masjid Nurul Yaqin Sebatik Utara,"5V6G+H6H, Desa Seberang, Pancang, Lumbis Ogong, Kabupaten Nunukan, Kalimantan Utara 77483","Desa Seberang, Pancang, Lumbis Ogong, Kabupaten Nunukan",KALIMANTAN UTARA,77483.0,Indonesia,,,,4.1614422,117.875623,https://maps.google.com/?cid=0x0:0x98ec2b145619b01b,
hardware store,Toko Perlengkapan Rumah,Toko Bangunan UD. IRMA,"4WF9+2RH, Sungai Nyamuk, Kec. Sebatik, Kabupaten Nunukan, Kalimantan Utara 77483","Sungai Nyamuk, Kec. Sebatik, Kabupaten Nunukan",KALIMANTAN UTARA,77483.0,Indonesia,8161999912.0,,,4.1225665,117.9196,https://maps.google.com/?cid=0x0:0x1b845c09bfb3955d,
hardware store,Toko Bahan Bangunan,UD.KALIMAN JAYA Toko Bangunan,"5V77+3F8, Pancang, Kec. Sebatik, Kabupaten Nunukan, Kalimantan Utara 77483","Pancang, Kec. Sebatik, Kabupaten Nunukan",KALIMANTAN UTARA,77483.0,Indonesia,8161999912.0,,,4.1626601,117.8637123,https://maps.google.com/?cid=0x0:0x25833a1e789fdbfd,
hardware store,Toko Alat Kelautan,TOKO DANIL,"Tanjung Aru, 4W9C+RCM, Sebatik, Tanjung Aru, Sebatik Timur, Nunukan Regency, North Kalimantan 77483","4W9C+RCM, Sebatik, Tanjung Aru, Sebatik Timur, Nunukan Regency",KALIMANTAN UTARA,77483.0,Indonesia,,,,4.1192129,117.9199435,https://maps.google.com/?cid=0x0:0xada4ddd6a8d3c681,
hardware store,Apotek,Toko obat,"5V77+2PF, Jalan Lingkar Pulau, Pancang, Sebatik, Nunukan Regency, North Kalimantan 77483","Jalan Lingkar Pulau, Pancang, Sebatik, Nunukan Regency",KALIMANTAN UTARA,77483.0,Indonesia,,,,4.1625719,117.8642963,https://maps.google.com/?cid=0x0:0x3b23fc4a76873b21,
hardware store,hardware store,Kec. Sebatik,"Tj. Karang, Kabupaten Nunukan, Kalimantan Utara","Kabupaten Nunukan, Kalimantan Utara",KALIMANTAN UTARA,,Indonesia,,,,4.0615122,117.9207553,https://maps.google.com/?cid=0x0:0x30b78c1487327b7d,
hardware store,Toko Perlengkapan Rumah,MR. DIY,"4WP8+8VH, Sungai Nyamuk, Kec. Sebatik Timur, Kabupaten Nunukan, Kalimantan Utara 77483","Sungai Nyamuk, Kec. Sebatik Timur, Kabupaten Nunukan",KALIMANTAN UTARA,77483.0,Indonesia,,,,4.135824,117.9172351,https://maps.google.com/?cid=0x0:0x40263dfd9e77296c,
hardware store,Toko Bahan Bangunan,Toko Perlengkapan Nelayan UD. DANIEL,"4WCF+XVQ, Tj. Aru, Kec. Sebatik, Kabupaten Nunukan, Kalimantan Utara 77483","Tj. Aru, Kec. Sebatik, Kabupaten Nunukan",KALIMANTAN UTARA,77483.0,Indonesia,,,,4.1224695,117.9247226,https://maps.google.com/?cid=0x0:0x8a0d8257dd116021,
hardware store,Toko Bahan Bangunan,Total One - Stop Tools Station,"4MR6+C2C, Jl. Pattimura, Nunukan Tim., Kec. Nunukan, Kabupaten Nunukan, Kalimantan Utara 77482","Jl. Pattimura, Nunukan Tim., Kec. Nunukan, Kabupaten Nunukan",KALIMANTAN UTARA,77482.0,Indonesia,,,,4.1410621,117.6600131,https://maps.google.com/?cid=0x0:0x38fc7bf3d60ded0d,
hardware store,Toko Bahan Bangunan,Toko Rajawali,"Nunukan Tim., Kec. Nunukan, Kabupaten Nunukan, Kalimantan Utara 77482","Kec. Nunukan, Kabupaten Nunukan",KALIMANTAN UTARA,77482.0,Indonesia,82252122134.0,,,4.142132,117.6540685,https://maps.google.com/?cid=0x0:0x519bc8420e7cb1da,
hardware store,hardware store,Kalimantan Utara 77482,"Kabupaten Nunukan, Kalimantan Utara","Kabupaten Nunukan, Kalimantan Utara",KALIMANTAN UTARA,,Indonesia,,,,4.1377066,117.0794082,https://maps.google.com/?cid=0x0:0xe448c81886e99c56,
hardware store,Toko Kelontong Asia,TOKO RITA NUNUKAN,"Jalan Tanjung, East Nunukan, North Kalimantan, Nunukan Tim., Kec. Nunukan, Kabupaten Nunukan, Kalimantan Utara 77482","East Nunukan, North Kalimantan, Nunukan Tim., Kec. Nunukan, Kabupaten Nunukan",KALIMANTAN UTARA,77482.0,Indonesia,82197309525.0,,,4.1419185,117.6457258,https://maps.google.com/?cid=0x0:0xe7f69f707881b42c,
hardware store,Toko Perlengkapan Rumah,MR D.I.Y,"4JQX+338, Jl. Taman Makam Pahlawan, Nunukan Bar., Kec. Nunukan, Kabupaten Nunukan, Kalimantan Utara 77482","Jl. Taman Makam Pahlawan, Nunukan Bar., Kec. Nunukan, Kabupaten Nunukan",KALIMANTAN UTARA,77482.0,Indonesia,,,,4.1377062,117.6476855,https://maps.google.com/?cid=0x0:0x9b33fa7424aec7aa,
hardware store,hardware store,Toko pilihan,"5747+5QM, Tabur Lestari, Kec. Nunukan, Kabupaten Nunukan, Kalimantan Utara 77482","Tabur Lestari, Kec. Nunukan, Kabupaten Nunukan",KALIMANTAN UTARA,77482.0,Indonesia,81350628262.0,,,4.1554182,117.2643019,https://maps.google.com/?cid=0x0:0x4ebd3ce1bcf40710,
hardware store,hardware store,Kec. Sei Menggaris,"Kabupaten Nunukan, Kalimantan Utara","Kabupaten Nunukan, Kalimantan Utara",KALIMANTAN UTARA,,Indonesia,,,,4.2053503,117.2483455,https://maps.google.com/?cid=0x0:0x96ec2cb6aa3777fa,
hardware store,Pusat Kesehatan Masyarakat,Puskesmas Kec. Sei-Menggaris,"573H+4G3, Tabur Lestari, Kec. Nunukan, Kabupaten Nunukan, Kalimantan Utara 77482","Tabur Lestari, Kec. Nunukan, Kabupaten Nunukan",KALIMANTAN UTARA,77482.0,Indonesia,,,,4.152772,117.278791,https://maps.google.com/?cid=0x0:0xd4b3011f83ce88d6,
hardware store,hardware store,Kalimantan Utara 77453,Kalimantan Utara,Kalimantan Utara,KALIMANTAN UTARA,,Indonesia,,,,3.7262935,117.3146351,https://maps.google.com/?cid=0x0:0x2f07ec6e726dbdda,
hardware store,Toko,Store Sembakung,"X276+GFJ, Makmur, Kec. Sebuku, Kabupaten Nunukan, Kalimantan Utara 77482","Makmur, Kec. Sebuku, Kabupaten Nunukan",KALIMANTAN UTARA,77482.0,Indonesia,,,,3.9638419,117.011151,https://maps.google.com/?cid=0x0:0x9a022dd67fe221cf,
hardware store,Toko Bahan Bangunan,Toko Bangunan YULIANA,"JW66+244, Tideng Pale, Kec. Sesayap, Kabupaten Tana Tidung, Kalimantan Utara 77152","Tideng Pale, Kec. Sesayap, Kabupaten Tana Tidung",KALIMANTAN UTARA,77152.0,Indonesia,81818202362.0,,,3.6100226,116.910315,https://maps.google.com/?cid=0x0:0x98d76d6b9dbbcb5a,
hardware store,Toko Perabot Supermarket,MR. D.I.Y Nunukan,"4MR4+4VW, Jl. Pattimura, Nunukan Tim., Kec. Nunukan, Kabupaten Nunukan, Kalimantan Utara 77482","Jl. Pattimura, Nunukan Tim., Kec. Nunukan, Kabupaten Nunukan",KALIMANTAN UTARA,77482.0,Indonesia,,,,4.1402904,117.6571765,https://maps.google.com/?cid=0x0:0x8726b04c14904fc5,
hardware store,Toko Buku >>u0026 Alat Sekolah,Tk.Sumber Teknik,"Jalan Methanol No.9, Bunyu Bar., Bunyu, Kabupaten Bulungan, Kalimantan Utara 77281","Bunyu Bar., Bunyu, Kabupaten Bulungan",KALIMANTAN UTARA,77281.0,Indonesia,,,,3.4592979,117.843251,https://maps.google.com/?cid=0x0:0x6a0993219cef4dc3,
hardware store,Toko umum,MR.DIY,"Jl. Ahmad Yani No.RT 12, Sungai Nyamuk, Kec. Sebatik Timur, Kabupaten Nunukan, Kalimantan Utara 77488","Sungai Nyamuk, Kec. Sebatik Timur, Kabupaten Nunukan",KALIMANTAN UTARA,77488.0,Indonesia,,,,4.1254895,117.9190236,https://maps.google.com/?cid=0x0:0x310e2d09e06d68fa,
hardware store,Toko Bahan Bangunan,Toko Rajawali,"Nunukan Tim., Kec. Nunukan, Kabupaten Nunukan, Kalimantan Utara 77482","Kec. Nunukan, Kabupaten Nunukan",KALIMANTAN UTARA,77482.0,Indonesia,82252122134.0,,,4.142132,117.6540685,https://maps.google.com/?cid=0x0:0x519bc8420e7cb1da,
hardware store,Toko Bahan Bangunan,Toko CAHAYA JAYA,"Jl. Taman Makam Pahlawan No.33, RT 8, Nunukan Tim., Kec. Nunukan, Kabupaten Nunukan, Kalimantan Utara 66319","RT 8, Nunukan Tim., Kec. Nunukan, Kabupaten Nunukan",KALIMANTAN UTARA,66319.0,Indonesia,55621155.0,,,4.1382492,117.6475488,https://maps.google.com/?cid=0x0:0xe16497742cb3c274,
hardware store,Katering,UD. DAPOER BUCIN MANTIKAS (DBM),"Jl. Imam Amin RT.02 Mantikas Tidung, Kode Pos: 77468, Desa, Setabu, Kec. Sebatik Bar., Kabupaten Nunukan, Kalimantan Utara",Kode Pos:,KALIMANTAN UTARA,77468.0,Indonesia,81345452223.0,,,4.0884697,117.7893636,https://maps.google.com/?cid=0x0:0xb820def0067af50d,
hardware store,Toko Perlengkapan Rumah,MR D.I.Y,"4JQX+338, Jl. Taman Makam Pahlawan, Nunukan Bar., Kec. Nunukan, Kabupaten Nunukan, Kalimantan Utara 77482","Jl. Taman Makam Pahlawan, Nunukan Bar., Kec. Nunukan, Kabupaten Nunukan",KALIMANTAN UTARA,77482.0,Indonesia,,,,4.1377062,117.6476855,https://maps.google.com/?cid=0x0:0x9b33fa7424aec7aa,
hardware store,Toko Perlengkapan Rumah,MR. DIY,"4WP8+8VH, Sungai Nyamuk, Kec. Sebatik Timur, Kabupaten Nunukan, Kalimantan Utara 77483","Sungai Nyamuk, Kec. Sebatik Timur, Kabupaten Nunukan",KALIMANTAN UTARA,77483.0,Indonesia,,,,4.135824,117.9172351,https://maps.google.com/?cid=0x0:0x40263dfd9e77296c,
hardware store,Toko Kelontong Asia,TOKO RITA NUNUKAN,"Jalan Tanjung, East Nunukan, North Kalimantan, Nunukan Tim., Kec. Nunukan, Kabupaten Nunukan, Kalimantan Utara 77482","East Nunukan, North Kalimantan, Nunukan Tim., Kec. Nunukan, Kabupaten Nunukan",KALIMANTAN UTARA,77482.0,Indonesia,82197309525.0,,,4.1419185,117.6457258,https://maps.google.com/?cid=0x0:0xe7f69f707881b42c,
hardware store,Toko Elektronik,Sumber Disc Elektronik,"Nunukan Tim., Kec. Nunukan, Kabupaten Nunukan, Kalimantan Utara 77482","Kec. Nunukan, Kabupaten Nunukan",KALIMANTAN UTARA,77482.0,Indonesia,85250076003.0,,,4.1394963,117.6524605,https://maps.google.com/?cid=0x0:0xeb001e8f6a855736,
hardware store,Toko Bahan Bangunan,Total One - Stop Tools Station,"4MR6+C2C, Jl. Pattimura, Nunukan Tim., Kec. Nunukan, Kabupaten Nunukan, Kalimantan Utara 77482","Jl. Pattimura, Nunukan Tim., Kec. Nunukan, Kabupaten Nunukan",KALIMANTAN UTARA,77482.0,Indonesia,,,,4.1410621,117.6600131,https://maps.google.com/?cid=0x0:0x38fc7bf3d60ded0d,
hardware store,Pemasok peralatan penanganan material,CV. Nita Abadi,"Jl. Gembira No.RT. 08, Desa Bukit Aru Indah, Kec. Sebatik Timur, Kabupaten Nunukan, Kalimantan Utara 77435","Desa Bukit Aru Indah, Kec. Sebatik Timur, Kabupaten Nunukan",KALIMANTAN UTARA,77435.0,Indonesia,85245695080.0,,,4.1261563,117.9210907,https://maps.google.com/?cid=0x0:0x249966fa0cc02d85,
hardware store,Toko,Toko ATK Mart,"Jl. Ahmad Yani Desa No.RT.001, Sungai Nyamuk, Kec. Sebatik Timur, Kabupaten Nunukan, Kalimantan Utara 77483","Sungai Nyamuk, Kec. Sebatik Timur, Kabupaten Nunukan",KALIMANTAN UTARA,77483.0,Indonesia,85347007662.0,,,4.1473358,117.909746,https://maps.google.com/?cid=0x0:0x9b1aaf4cc99d7a1d,
hardware store,Toko Perlengkapan Rumah,MR. DIY Terminal Baru Malinau,"Malinau Kota, Kec. Malinau Kota, Kabupaten Malinau, Kalimantan Utara 77554","Kec. Malinau Kota, Kabupaten Malinau",KALIMANTAN UTARA,77554.0,Indonesia,,,,3.5911713,116.6361383,https://maps.google.com/?cid=0x0:0x69529a1e51a6b9ca,
hardware store,Toko Elektronik,Hokky Elektronik  Furniture,"4JQW+JG8, Nunukan Tim., Kec. Nunukan, Kabupaten Nunukan, Kalimantan Utara","Kabupaten Nunukan, Kalimantan Utara",KALIMANTAN UTARA,,Indonesia,85350589999.0,,,4.1400221,117.6616018,https://maps.google.com/?cid=0x0:0x85ed666c1eed4819,
hardware store,Toko Elektronik,Toko Bintar Jaya Elektrik,"Jl. Yos Sudarso No. 22, RT. 03, Kec. Nunukan Utara, Nunukan Tim., Kec. Nunukan, Kabupaten Nunukan, Kalimantan Utara 77482","RT. 03, Kec. Nunukan Utara, Nunukan Tim., Kec. Nunukan, Kabupaten Nunukan",KALIMANTAN UTARA,77482.0,Indonesia,81347474157.0,,,4.1409303,117.6502403,https://maps.google.com/?cid=0x0:0x203e06d2c2ff1f99,
hardware store,Toko Alat Kelautan,TOKO DANIL,"Tanjung Aru, 4W9C+RCM, Sebatik, Tanjung Aru, Sebatik Timur, Nunukan Regency, North Kalimantan 77483","4W9C+RCM, Sebatik, Tanjung Aru, Sebatik Timur, Nunukan Regency",KALIMANTAN UTARA,77483.0,Indonesia,,,,4.1192129,117.9199435,https://maps.google.com/?cid=0x0:0xada4ddd6a8d3c681,
hardware store,Toko Swalayan,Toko Senyum 5000,"Nunukan Tim., Kec. Nunukan, Kabupaten Nunukan, Kalimantan Utara 77482","Kec. Nunukan, Kabupaten Nunukan",KALIMANTAN UTARA,77482.0,Indonesia,,,,4.1413773,117.65958,https://maps.google.com/?cid=0x0:0x4978756f5899178c,
hardware store,Toko bahan makanan,Makmur,"X23C+4QH, Makmur, Kec. Sebuku, Kabupaten Nunukan, Kalimantan Utara 77482","Makmur, Kec. Sebuku, Kabupaten Nunukan",KALIMANTAN UTARA,77482.0,Indonesia,,,,3.9528138,117.0219848,https://maps.google.com/?cid=0x0:0x56b2f624572ccfc5,
hardware store,hardware store,Kalimantan Utara 77482,"Kabupaten Nunukan, Kalimantan Utara","Kabupaten Nunukan, Kalimantan Utara",KALIMANTAN UTARA,,Indonesia,,,,4.1377066,117.0794082,https://maps.google.com/?cid=0x0:0xe448c81886e99c56,
hardware store,Toko Perabot Supermarket,MR. D.I.Y Nunukan,"4MR4+4VW, Jl. Pattimura, Nunukan Tim., Kec. Nunukan, Kabupaten Nunukan, Kalimantan Utara 77482","Jl. Pattimura, Nunukan Tim., Kec. Nunukan, Kabupaten Nunukan",KALIMANTAN UTARA,77482.0,Indonesia,,,,4.1402904,117.6571765,https://maps.google.com/?cid=0x0:0x8726b04c14904fc5,
hardware store,Toko Bahan Bangunan,Total One - Stop Tools Station,"4MR6+C2C, Jl. Pattimura, Nunukan Tim., Kec. Nunukan, Kabupaten Nunukan, Kalimantan Utara 77482","Jl. Pattimura, Nunukan Tim., Kec. Nunukan, Kabupaten Nunukan",KALIMANTAN UTARA,77482.0,Indonesia,,,,4.1410621,117.6600131,https://maps.google.com/?cid=0x0:0x38fc7bf3d60ded0d,
building materials,Toko,Toko Borneo,"WM3X+X66, Pa Kemut, Krayan, Kabupaten Nunukan, Kalimantan Utara 77456","Pa Kemut, Krayan, Kabupaten Nunukan",KALIMANTAN UTARA,77456.0,Indonesia,,,,3.9049024,115.6980072,https://maps.google.com/?cid=0x0:0x69b68bca084b87d,
building materials,Toko,Toko Borneo,"WM3X+X66, Pa Kemut, Krayan, Kabupaten Nunukan, Kalimantan Utara 77456","Pa Kemut, Krayan, Kabupaten Nunukan",KALIMANTAN UTARA,77456.0,Indonesia,,,,3.9049024,115.6980072,https://maps.google.com/?cid=0x0:0x69b68bca084b87d,
building materials,building materials,Kec. Lumbis,"Kabupaten Nunukan, Kalimantan Utara","Kabupaten Nunukan, Kalimantan Utara",KALIMANTAN UTARA,,Indonesia,,,,3.7539235,116.7420499,https://maps.google.com/?cid=0x0:0xd64a09322f304639,
building materials,Toko Perlengkapan Rumah,Toko Anggun Mubarok,"Libang, Kec. Lumbis, Kabupaten Nunukan, Kalimantan Utara 77457","Kec. Lumbis, Kabupaten Nunukan",KALIMANTAN UTARA,77457.0,Indonesia,,,,3.7600209,116.7450384,https://maps.google.com/?cid=0x0:0xfb66e34700806bf6,
building materials,Perusahaan Bioteknologi,NBS Nunukan Bara Sukses,"XRX9+Q8, Sujau, Kec. Sebuku, Kabupaten Nunukan, Kalimantan Utara","Kabupaten Nunukan, Kalimantan Utara",KALIMANTAN UTARA,,Indonesia,,,,3.9994933,116.8183,https://maps.google.com/?cid=0x0:0x8ec9527cf6cd04ac,
building materials,building materials,Kalimantan Utara 77457,"Kabupaten Nunukan, Kalimantan Utara","Kabupaten Nunukan, Kalimantan Utara",KALIMANTAN UTARA,,Indonesia,,,,4.0104303,116.5137964,https://maps.google.com/?cid=0x0:0x82344e1d8c5acb7d,
building materials,Toko Perlengkapan Rumah,Toko Anggun Mubarok,"Libang, Kec. Lumbis, Kabupaten Nunukan, Kalimantan Utara 77457","Kec. Lumbis, Kabupaten Nunukan",KALIMANTAN UTARA,77457.0,Indonesia,,,,3.7600209,116.7450384,https://maps.google.com/?cid=0x0:0xfb66e34700806bf6,
building materials,Kantor Perusahaan,PT.NBS,"PT Nbs, Unnamed Road No.77482, Sujau, Kec. Sebuku, Kabupaten Nunukan, Kalimantan Utara 77482","Unnamed Road No.77482, Sujau, Kec. Sebuku, Kabupaten Nunukan",KALIMANTAN UTARA,77482.0,Indonesia,,,,4.0061703,116.8003999,https://maps.google.com/?cid=0x0:0x6d31e1b26443d55f,
building materials,Toko,Toko Borneo,"WM3X+X66, Pa Kemut, Krayan, Kabupaten Nunukan, Kalimantan Utara 77456","Pa Kemut, Krayan, Kabupaten Nunukan",KALIMANTAN UTARA,77456.0,Indonesia,,,,3.9049024,115.6980072,https://maps.google.com/?cid=0x0:0x69b68bca084b87d,
building materials,building materials,Lumbis Ogong,"Kabupaten Nunukan, Kalimantan Utara","Kabupaten Nunukan, Kalimantan Utara",KALIMANTAN UTARA,,Indonesia,,,,4.158316,116.5137964,https://maps.google.com/?cid=0x0:0x20a478a00ef5cc48,
building materials,Toko Mebel,CV.CAHAYA RAPPANG,"5V7V+95X, Jl. Utama, Sungai Nyamuk, Lumbis Ogong, Kabupaten Nunukan, Kalimantan Utara","Kabupaten Nunukan, Kalimantan Utara",KALIMANTAN UTARA,,Indonesia,,,,4.1634842,117.8929744,https://maps.google.com/?cid=0x0:0xe44e9acaaa32c5fd,
building materials,Toko Perlengkapan Rumah,Toko Bangunan UD. IRMA,"4WF9+2RH, Sungai Nyamuk, Kec. Sebatik, Kabupaten Nunukan, Kalimantan Utara 77483","Sungai Nyamuk, Kec. Sebatik, Kabupaten Nunukan",KALIMANTAN UTARA,77483.0,Indonesia,,,,4.1225665,117.9196,https://maps.google.com/?cid=0x0:0x1b845c09bfb3955d,
building materials,Toko Perlengkapan Rumah,Karya Indah,"4WW6+9W2, Jl. Bhayangkara, Sungai Nyamuk, Kec. Sebatik, Kabupaten Nunukan, Kalimantan Utara 77483","Jl. Bhayangkara, Sungai Nyamuk, Kec. Sebatik, Kabupaten Nunukan",KALIMANTAN UTARA,77483.0,Indonesia,81348308756.0,,,4.1458764,117.9122539,https://maps.google.com/?cid=0x0:0x32c09209e3e72b63,
building materials,Toko Perlengkapan Rumah,Ud alif jaya mandiri,"4WQ8+CH7, Jl. Ahmad Yani, Sungai Nyamuk, Kec. Sebatik Timur, Kabupaten Nunukan, Kalimantan Utara 77483","Jl. Ahmad Yani, Sungai Nyamuk, Kec. Sebatik Timur, Kabupaten Nunukan",KALIMANTAN UTARA,77483.0,Indonesia,,,,4.1386817,117.9163324,https://maps.google.com/?cid=0x0:0xb48e63411a498432,
building materials,Pemasok peralatan penanganan material,CV. Nita Abadi,"Jl. Gembira No.RT. 08, Desa Bukit Aru Indah, Kec. Sebatik Timur, Kabupaten Nunukan, Kalimantan Utara 77435","Desa Bukit Aru Indah, Kec. Sebatik Timur, Kabupaten Nunukan",KALIMANTAN UTARA,77435.0,Indonesia,85245695080.0,,,4.1261563,117.9210907,https://maps.google.com/?cid=0x0:0x249966fa0cc02d85,
building materials,building materials,Toko alat bangunan,"jln, Liang Bunyu, binasalam, Kabupaten Nunukan, Kalimantan Utara 77441","Liang Bunyu, binasalam, Kabupaten Nunukan",KALIMANTAN UTARA,77441.0,Indonesia,,,,4.1594834,117.7256083,https://maps.google.com/?cid=0x0:0xb082845ad9315cd4,
building materials,Toko Perlengkapan Rumah,Toko Cahaya Logam,"4MP2+Q23 Toko BANGUNAN, Jl. Bhayangkara, RT.11/RW.no.25, Nunukan Tengah, Kec. Nunukan, Kabupaten Nunukan, Kalimantan Utara 77422","Jl. Bhayangkara, RT.11/RW.no.25, Nunukan Tengah, Kec. Nunukan, Kabupaten Nunukan",KALIMANTAN UTARA,77422.0,Indonesia,,,,4.1368787,117.6500348,https://maps.google.com/?cid=0x0:0x1e06a7fb01192577,
building materials,building materials,Nunukan,"Nunukan Tim., Kec. Nunukan, Kabupaten Nunukan, Kalimantan Timur","Kabupaten Nunukan, Kalimantan Timur",KALIMANTAN UTARA,,Indonesia,,,,4.1393382,117.6496257,https://maps.google.com/?cid=0x0:0xc3fd6e9667d03afd,
building materials,Toko Bahan Bangunan,TOKO INDAH JAYA,"4MQ2+PG7, Jl. Pattimura, Nunukan Tim., Kec. Nunukan, Kabupaten Nunukan, Kalimantan Utara 77482","Jl. Pattimura, Nunukan Tim., Kec. Nunukan, Kabupaten Nunukan",KALIMANTAN UTARA,77482.0,Indonesia,8125404609.0,,,4.1392983,117.6512938,https://maps.google.com/?cid=0x0:0xba23e0629164681b,
building materials,Toko Bahan Bangunan,Toko CAHAYA JAYA,"Jl. Taman Makam Pahlawan No.33, RT 8, Nunukan Tim., Kec. Nunukan, Kabupaten Nunukan, Kalimantan Utara 66319","RT 8, Nunukan Tim., Kec. Nunukan, Kabupaten Nunukan",KALIMANTAN UTARA,66319.0,Indonesia,55621155.0,,,4.1382492,117.6475488,https://maps.google.com/?cid=0x0:0xe16497742cb3c274,
building materials,Toko Bahan Bangunan,Toko Rajawali,"Nunukan Tim., Kec. Nunukan, Kabupaten Nunukan, Kalimantan Utara 77482","Kec. Nunukan, Kabupaten Nunukan",KALIMANTAN UTARA,77482.0,Indonesia,82252122134.0,,,4.142132,117.6540685,https://maps.google.com/?cid=0x0:0x519bc8420e7cb1da,
building materials,Kantor Perusahaan,Inhutani I PT Persero,"Jl. Radio No.RT. 010, Binusan, Kec. Nunukan, Kabupaten Nunukan, Kalimantan Utara 77482","Binusan, Kec. Nunukan, Kabupaten Nunukan",KALIMANTAN UTARA,77482.0,Indonesia,55621787.0,,,4.068042,117.661114,https://maps.google.com/?cid=0x0:0xc450c6084ac9cb94,
building materials,building materials,Pulau Nunukan,"Kabupaten Nunukan, Kalimantan Utara","Kabupaten Nunukan, Kalimantan Utara",KALIMANTAN UTARA,,Indonesia,,,,4.0609227,117.666952,https://maps.google.com/?cid=0x0:0xa3a4d934edf96a69,
building materials,Toko Bahan Bangunan,Toko CAHAYA JAYA,"Jl. Taman Makam Pahlawan No.33, RT 8, Nunukan Tim., Kec. Nunukan, Kabupaten Nunukan, Kalimantan Utara 66319","RT 8, Nunukan Tim., Kec. Nunukan, Kabupaten Nunukan",KALIMANTAN UTARA,66319.0,Indonesia,55621155.0,,,4.1382492,117.6475488,https://maps.google.com/?cid=0x0:0xe16497742cb3c274,
building materials,Toko Bahan Bangunan,Toko bangunan Sinar Bugis,"Jalan laning, muara, Mansapa, Nunukan Sel., Kabupaten Nunukan, Kalimantan Utara 77482","muara, Mansapa, Nunukan Sel., Kabupaten Nunukan",KALIMANTAN UTARA,77482.0,Indonesia,,,,4.0656577,117.7398807,https://maps.google.com/?cid=0x0:0xea1bae64c137bed2,
building materials,Minimarket,Toko Bangunan NAM,"Desa Sanur SP1, Jl. Cermai No.RT 10, Tetaban, Tulin Onsoi, Kabupaten Nunukan, Kalimantan Utara 77485","Jl. Cermai No.RT 10, Tetaban, Tulin Onsoi, Kabupaten Nunukan",KALIMANTAN UTARA,77485.0,Indonesia,82156952199.0,,,4.0310322,116.9832116,https://maps.google.com/?cid=0x0:0xc6591a61906bf637,
building materials,Toko Perlengkapan Rumah,Toko Bangunan UD. IRMA,"4WF9+2RH, Sungai Nyamuk, Kec. Sebatik, Kabupaten Nunukan, Kalimantan Utara 77483","Sungai Nyamuk, Kec. Sebatik, Kabupaten Nunukan",KALIMANTAN UTARA,77483.0,Indonesia,,,,4.1225665,117.9196,https://maps.google.com/?cid=0x0:0x1b845c09bfb3955d,
building materials,building materials,Kalimantan Utara 77482,"Kabupaten Nunukan, Kalimantan Utara","Kabupaten Nunukan, Kalimantan Utara",KALIMANTAN UTARA,,Indonesia,,,,4.1377066,117.0794082,https://maps.google.com/?cid=0x0:0xe448c81886e99c56,
building materials,Toko Bahan Bangunan,TOKO INDAH JAYA,"4MQ2+PG7, Jl. Pattimura, Nunukan Tim., Kec. Nunukan, Kabupaten Nunukan, Kalimantan Utara 77482","Jl. Pattimura, Nunukan Tim., Kec. Nunukan, Kabupaten Nunukan",KALIMANTAN UTARA,77482.0,Indonesia,8125404609.0,,,4.1392983,117.6512938,https://maps.google.com/?cid=0x0:0xba23e0629164681b,
building materials,Toko Perlengkapan Rumah,Toko Cahaya Logam,"4MP2+Q23 Toko BANGUNAN, Jl. Bhayangkara, RT.11/RW.no.25, Nunukan Tengah, Kec. Nunukan, Kabupaten Nunukan, Kalimantan Utara 77422","Jl. Bhayangkara, RT.11/RW.no.25, Nunukan Tengah, Kec. Nunukan, Kabupaten Nunukan",KALIMANTAN UTARA,77422.0,Indonesia,,,,4.1368787,117.6500348,https://maps.google.com/?cid=0x0:0x1e06a7fb01192577,
building materials,Toko,Toko sinar mamolo,"2PMP+RVG, Lkr. Pulau Nunukan (mamolo, Tj. Harapan, Nunukan Sel., Kabupaten Nunukan, Kalimantan Utara 77482","Lkr. Pulau Nunukan (mamolo, Tj. Harapan, Nunukan Sel., Kabupaten Nunukan",KALIMANTAN UTARA,77482.0,Indonesia,85246671599.0,,,4.0345749,117.7372078,https://maps.google.com/?cid=0x0:0xaeba7a31dc3eeaef,
building materials,Kantor Perusahaan,PLTMG Nunukan 2 - 10 MW,"3P9Q+XGF, Mansapa, Nunukan Sel., Kabupaten Nunukan, Kalimantan Utara 77482","Mansapa, Nunukan Sel., Kabupaten Nunukan",KALIMANTAN UTARA,77482.0,Indonesia,,,,4.0699352,117.7387817,https://maps.google.com/?cid=0x0:0xbb16df9871381700,
building materials,Toko Reparasi Elektronik,"CV.BORNEO JAYA SUKSES ( service AC,kulkas,dan mesin cuci)","Jl. Ujang Dewa, Selisun, Nunukan Sel., Kabupaten Nunukan, Kalimantan Utara 77482","Selisun, Nunukan Sel., Kabupaten Nunukan",KALIMANTAN UTARA,77482.0,Indonesia,82251155333.0,,,4.1297696,117.6707248,https://maps.google.com/?cid=0x0:0xcdbb0799f81c9271,
building materials,Toko,Toko Amy Rahmat Jaya,"2PRP+9G7, Lkr. Pulau Nunukan (Mansapa), Tj. Harapan, Nunukan Sel., Kabupaten Nunukan, Kalimantan Utara 77482","Lkr. Pulau Nunukan (Mansapa), Tj. Harapan, Nunukan Sel., Kabupaten Nunukan",KALIMANTAN UTARA,77482.0,Indonesia,,,,4.0409039,117.7362937,https://maps.google.com/?cid=0x0:0x346352eca3bdf00b,
building materials,Kantor Perusahaan,PT.DUTA TAMBANG REKAYASA.,"Sebakis Site, Semunad, Tulin Onsoi, Kabupaten Nunukan, Kalimantan Utara 77482","Semunad, Tulin Onsoi, Kabupaten Nunukan",KALIMANTAN UTARA,77482.0,Indonesia,,,,4.1315004,117.1932484,https://maps.google.com/?cid=0x0:0x30d70b36cd7dc464,
building materials,Toko Perlengkapan Rumah,Toko Bangunan UD. IRMA,"4WF9+2RH, Sungai Nyamuk, Kec. Sebatik, Kabupaten Nunukan, Kalimantan Utara 77483","Sungai Nyamuk, Kec. Sebatik, Kabupaten Nunukan",KALIMANTAN UTARA,77483.0,Indonesia,,,,4.1225665,117.9196,https://maps.google.com/?cid=0x0:0x1b845c09bfb3955d,
building materials,Grosir,Toko bangunan Cv.berkah abadi,"4WR7+XG9, Jl. Ahmad Yani, Pancang, Sebatik, Kabupaten Nunukan, Kalimantan Utara 77483","Jl. Ahmad Yani, Pancang, Sebatik, Kabupaten Nunukan",KALIMANTAN UTARA,77483.0,Indonesia,82154012207.0,,,4.1424221,117.9138686,https://maps.google.com/?cid=0x0:0x7361fa1584ee5d66,
building materials,Toko Perlengkapan Rumah,Toko Bangunan Sei Pancang,"5W24+X2V, Pancang, Kec. Sebatik, Kabupaten Nunukan, Kalimantan Utara 77483","Pancang, Kec. Sebatik, Kabupaten Nunukan",KALIMANTAN UTARA,77483.0,Indonesia,,,,4.1524876,117.9050498,https://maps.google.com/?cid=0x0:0x4cd403cf27cf0ea6,
building materials,Toko Bahan Bangunan,UD.KALIMAN JAYA Toko Bangunan,"5V77+3F8, Pancang, Kec. Sebatik, Kabupaten Nunukan, Kalimantan Utara 77483","Pancang, Kec. Sebatik, Kabupaten Nunukan",KALIMANTAN UTARA,77483.0,Indonesia,85346888134.0,,,4.1626601,117.8637123,https://maps.google.com/?cid=0x0:0x25833a1e789fdbfd,
building materials,Kantor Perusahaan,RAJA PAVING SEBATIK,"Jl. Bhayangkara, Sungai Nyamuk, Sebatik, Kabupaten Nunukan, Kalimantan Utara 77183","Sungai Nyamuk, Sebatik, Kabupaten Nunukan",KALIMANTAN UTARA,77183.0,Indonesia,81350619339.0,,,4.1424094,117.9148122,https://maps.google.com/?cid=0x0:0x69a8c263812869cf,
building materials,building materials,Jasa pertukangan bangunan,"Jl. Ahmad Yani, lingkar, Kec. Sebatik Timur, Kabupaten Nunukan, Kalimantan Utara 77435","lingkar, Kec. Sebatik Timur, Kabupaten Nunukan",KALIMANTAN UTARA,77435.0,Indonesia,82373644446.0,,,4.1254895,117.9190236,https://maps.google.com/?cid=0x0:0x3819ad0f1525dc48,
building materials,Pemasok peralatan penanganan material,CV. Nita Abadi,"Jl. Gembira No.RT. 08, Desa Bukit Aru Indah, Kec. Sebatik Timur, Kabupaten Nunukan, Kalimantan Utara 77435","Desa Bukit Aru Indah, Kec. Sebatik Timur, Kabupaten Nunukan",KALIMANTAN UTARA,77435.0,Indonesia,85245695080.0,,,4.1261563,117.9210907,https://maps.google.com/?cid=0x0:0x249966fa0cc02d85,
building materials,building materials,UD. NORANI,"5W43+3G9, Pancang, Kec. Sebatik, Kabupaten Nunukan, Kalimantan Utara 77483","Pancang, Kec. Sebatik, Kabupaten Nunukan",KALIMANTAN UTARA,77483.0,Indonesia,,,,4.1551573,117.9038606,https://maps.google.com/?cid=0x0:0x999fb40b5755122a,
building materials,Toko Perlengkapan Rumah,Karya Indah,"4WW6+9W2, Jl. Bhayangkara, Sungai Nyamuk, Kec. Sebatik, Kabupaten Nunukan, Kalimantan Utara 77483","Jl. Bhayangkara, Sungai Nyamuk, Kec. Sebatik, Kabupaten Nunukan",KALIMANTAN UTARA,77483.0,Indonesia,81348308756.0,,,4.1458764,117.9122539,https://maps.google.com/?cid=0x0:0x32c09209e3e72b63,
building materials,Toko,TOKO BINA USAHA,"Binalawan, Kec. Sebatik Bar., Kabupaten Nunukan, Kalimantan Utara 77483","Kec. Sebatik Bar., Kabupaten Nunukan",KALIMANTAN UTARA,77483.0,Indonesia,811599725.0,,,4.0997554,117.7659059,https://maps.google.com/?cid=0x0:0x89fb853a90a59c58,
building materials,building materials,Kalimanjaya 2,"3QRG+RRF, Binalawan, Kec. Sebatik Bar., Kabupaten Nunukan, Kalimantan Utara 77483","Binalawan, Kec. Sebatik Bar., Kabupaten Nunukan",KALIMANTAN UTARA,77483.0,Indonesia,,,,4.092661,117.777284,https://maps.google.com/?cid=0x0:0xe2364e26c9e5a4a5,
building materials,building materials,Kec. Sebatik Bar.,"Kabupaten Nunukan, Kalimantan Utara","Kabupaten Nunukan, Kalimantan Utara",KALIMANTAN UTARA,,Indonesia,,,,4.0915863,117.7869756,https://maps.google.com/?cid=0x0:0x568a0785aa87a25d,
building materials,Toko,TOKO BINA USAHA,"Binalawan, Kec. Sebatik Bar., Kabupaten Nunukan, Kalimantan Utara 77483","Kec. Sebatik Bar., Kabupaten Nunukan",KALIMANTAN UTARA,77483.0,Indonesia,811599725.0,,,4.0997554,117.7659059,https://maps.google.com/?cid=0x0:0x89fb853a90a59c58,
building materials,Toko Perlengkapan Rumah,Toko Bangunan UD. IRMA,"4WF9+2RH, Sungai Nyamuk, Kec. Sebatik, Kabupaten Nunukan, Kalimantan Utara 77483","Sungai Nyamuk, Kec. Sebatik, Kabupaten Nunukan",KALIMANTAN UTARA,77483.0,Indonesia,,,,4.1225665,117.9196,https://maps.google.com/?cid=0x0:0x1b845c09bfb3955d,
building materials,Toko Perlengkapan Rumah,Toko Dilmansyah,"3RJ2+PHX, Setabu, Kec. Sebatik Bar., Kabupaten Nunukan, Kalimantan Utara 77483","Setabu, Kec. Sebatik Bar., Kabupaten Nunukan",KALIMANTAN UTARA,77483.0,Indonesia,,,,4.0818539,117.8014969,https://maps.google.com/?cid=0x0:0xb86d410375669605,
building materials,building materials,Toko alat bangunan,"jln, Liang Bunyu, binasalam, Kabupaten Nunukan, Kalimantan Utara 77441","Liang Bunyu, binasalam, Kabupaten Nunukan",KALIMANTAN UTARA,77441.0,Indonesia,,,,4.1594834,117.7256083,https://maps.google.com/?cid=0x0:0xb082845ad9315cd4,
building materials,Grosir,Toko bangunan Cv.berkah abadi,"4WR7+XG9, Jl. Ahmad Yani, Pancang, Sebatik, Kabupaten Nunukan, Kalimantan Utara 77483","Jl. Ahmad Yani, Pancang, Sebatik, Kabupaten Nunukan",KALIMANTAN UTARA,77483.0,Indonesia,82154012207.0,,,4.1424221,117.9138686,https://maps.google.com/?cid=0x0:0x7361fa1584ee5d66,
building materials,Sekolah Menengah Kejuruan,SMK NEGERI 1 Sebatik Barat,"4PHH+GJG, Liang Bunyu, Kec. Sebatik Bar., Kabupaten Nunukan, Kalimantan Utara 77483","Liang Bunyu, Kec. Sebatik Bar., Kabupaten Nunukan",KALIMANTAN UTARA,77483.0,Indonesia,,,,4.1288059,117.7290785,https://maps.google.com/?cid=0x0:0x5116f6f797939872,
building materials,building materials,Jasa pertukangan bangunan,"Jl. Ahmad Yani, lingkar, Kec. Sebatik Timur, Kabupaten Nunukan, Kalimantan Utara 77435","lingkar, Kec. Sebatik Timur, Kabupaten Nunukan",KALIMANTAN UTARA,77435.0,Indonesia,82373644446.0,,,4.1254895,117.9190236,https://maps.google.com/?cid=0x0:0x3819ad0f1525dc48,
building materials,Kantor Perusahaan,RAJA PAVING SEBATIK,"Jl. Bhayangkara, Sungai Nyamuk, Sebatik, Kabupaten Nunukan, Kalimantan Utara 77183","Sungai Nyamuk, Sebatik, Kabupaten Nunukan",KALIMANTAN UTARA,77183.0,Indonesia,81350619339.0,,,4.1424094,117.9148122,https://maps.google.com/?cid=0x0:0x69a8c263812869cf,
building materials,Pemasok Bahan Bangunan,GUDANG BATA MERAH ( AGR ),"3PC9+6P, Mansapa, Nunukan Sel., Kabupaten Nunukan, Kalimantan Utara","Kabupaten Nunukan, Kalimantan Utara",KALIMANTAN UTARA,,Indonesia,89602349841.0,,,4.0705967,117.7193117,https://maps.google.com/?cid=0x0:0xe519b0ff12aacc18,
building materials,Toko Alat Tulis Kantor,Toko Anin Najwa,"jl. pendidikan, Binalawan, Kec. Sebatik Bar., Kabupaten Nunukan, Kalimantan Utara 77483","Binalawan, Kec. Sebatik Bar., Kabupaten Nunukan",KALIMANTAN UTARA,77483.0,Indonesia,,,,4.0951031,117.7746197,https://maps.google.com/?cid=0x0:0xfd3c4f98d77dd3f8,
building materials,Toko Perlengkapan Rumah,Toko Bangunan Sei Pancang,"5W24+X2V, Pancang, Kec. Sebatik, Kabupaten Nunukan, Kalimantan Utara 77483","Pancang, Kec. Sebatik, Kabupaten Nunukan",KALIMANTAN UTARA,77483.0,Indonesia,,,,4.1524876,117.9050498,https://maps.google.com/?cid=0x0:0x4cd403cf27cf0ea6,
building materials,building materials,Kalimanjaya 2,"3QRG+RRF, Binalawan, Kec. Sebatik Bar., Kabupaten Nunukan, Kalimantan Utara 77483","Binalawan, Kec. Sebatik Bar., Kabupaten Nunukan",KALIMANTAN UTARA,77483.0,Indonesia,,,,4.092661,117.777284,https://maps.google.com/?cid=0x0:0xe2364e26c9e5a4a5,
building materials,building materials,UD. NORANI,"5W43+3G9, Pancang, Kec. Sebatik, Kabupaten Nunukan, Kalimantan Utara 77483","Pancang, Kec. Sebatik, Kabupaten Nunukan",KALIMANTAN UTARA,77483.0,Indonesia,,,,4.1551573,117.9038606,https://maps.google.com/?cid=0x0:0x999fb40b5755122a,
building materials,Toko Bahan Bangunan,UD.KALIMAN JAYA Toko Bangunan,"5V77+3F8, Pancang, Kec. Sebatik, Kabupaten Nunukan, Kalimantan Utara 77483","Pancang, Kec. Sebatik, Kabupaten Nunukan",KALIMANTAN UTARA,77483.0,Indonesia,85346888134.0,,,4.1626601,117.8637123,https://maps.google.com/?cid=0x0:0x25833a1e789fdbfd,
building materials,Toko bahan makanan,TOKO HAMDANA,"3R3R+HH6, Tj. Karang, Kec. Sebatik, Kabupaten Nunukan, Kalimantan Utara 77483","Tj. Karang, Kec. Sebatik, Kabupaten Nunukan",KALIMANTAN UTARA,77483.0,Indonesia,,,,4.0539158,117.8413792,https://maps.google.com/?cid=0x0:0xe070b28b4136e58f,
building materials,Tempat Fitness,Lapangan Bola Tembaring,"3R3P+R7F Pulau Sebatik, Setabu, Kec. Sebatik Bar., Kabupaten Nunukan, Kalimantan Utara","Kabupaten Nunukan, Kalimantan Utara",KALIMANTAN UTARA,,Indonesia,,,,4.0545534,117.8356771,https://maps.google.com/?cid=0x0:0x97e00c9d4f81d00a,
building materials,Toko Bahan Bangunan,Toko bangunan Sinar Bugis,"Jalan laning, muara, Mansapa, Nunukan Sel., Kabupaten Nunukan, Kalimantan Utara 77482","muara, Mansapa, Nunukan Sel., Kabupaten Nunukan",KALIMANTAN UTARA,77482.0,Indonesia,,,,4.0656577,117.7398807,https://maps.google.com/?cid=0x0:0xea1bae64c137bed2,
building materials,Kantor Perusahaan,Inhutani I PT Persero,"Jl. Radio No.RT. 010, Binusan, Kec. Nunukan, Kabupaten Nunukan, Kalimantan Utara 77482","Binusan, Kec. Nunukan, Kabupaten Nunukan",KALIMANTAN UTARA,77482.0,Indonesia,55621787.0,,,4.068042,117.661114,https://maps.google.com/?cid=0x0:0xc450c6084ac9cb94,
building materials,building materials,TOKO SUMBER TANI AJI KUNING,"5V77+9FG, Aji Kuning, Kec. Sebatik Bar., Kabupaten Nunukan, Kalimantan Utara 77483","Aji Kuning, Kec. Sebatik Bar., Kabupaten Nunukan",KALIMANTAN UTARA,77483.0,Indonesia,,,,4.1634455,117.8636995,https://maps.google.com/?cid=0x0:0xbca50271f6391359,
building materials,Toko Reparasi Elektronik,"CV.BORNEO JAYA SUKSES ( service AC,kulkas,dan mesin cuci)","Jl. Ujang Dewa, Selisun, Nunukan Sel., Kabupaten Nunukan, Kalimantan Utara 77482","Selisun, Nunukan Sel., Kabupaten Nunukan",KALIMANTAN UTARA,77482.0,Indonesia,82251155333.0,,,4.1297696,117.6707248,https://maps.google.com/?cid=0x0:0xcdbb0799f81c9271,
building materials,Toko Perlengkapan Rumah,Fitfanfah Al Chantara CV,"Jl. Tien Soharto No.64, Binusan, Kec. Nunukan, Kabupaten Nunukan, Kalimantan Utara 77482","Binusan, Kec. Nunukan, Kabupaten Nunukan",KALIMANTAN UTARA,77482.0,Indonesia,55621557.0,,,4.068042,117.661114,https://maps.google.com/?cid=0x0:0xe345ede53cd4ca4,
building materials,building materials,Kec. Sebatik Tengah,"Aji Kuning, Kabupaten Nunukan, Kalimantan Utara","Kabupaten Nunukan, Kalimantan Utara",KALIMANTAN UTARA,,Indonesia,,,,4.1551007,117.7860818,https://maps.google.com/?cid=0x0:0xb6cdfa4159ca968c,
building materials,Toko Perlengkapan Rumah,Toko Bangunan UD. IRMA,"4WF9+2RH, Sungai Nyamuk, Kec. Sebatik, Kabupaten Nunukan, Kalimantan Utara 77483","Sungai Nyamuk, Kec. Sebatik, Kabupaten Nunukan",KALIMANTAN UTARA,77483.0,Indonesia,,,,4.1225665,117.9196,https://maps.google.com/?cid=0x0:0x1b845c09bfb3955d,
building materials,Grosir,Toko bangunan Cv.berkah abadi,"4WR7+XG9, Jl. Ahmad Yani, Pancang, Sebatik, Kabupaten Nunukan, Kalimantan Utara 77483","Jl. Ahmad Yani, Pancang, Sebatik, Kabupaten Nunukan",KALIMANTAN UTARA,77483.0,Indonesia,82154012207.0,,,4.1424221,117.9138686,https://maps.google.com/?cid=0x0:0x7361fa1584ee5d66,
building materials,Toko Bahan Bangunan,UD.KALIMAN JAYA Toko Bangunan,"5V77+3F8, Pancang, Kec. Sebatik, Kabupaten Nunukan, Kalimantan Utara 77483","Pancang, Kec. Sebatik, Kabupaten Nunukan",KALIMANTAN UTARA,77483.0,Indonesia,85346888134.0,,,4.1626601,117.8637123,https://maps.google.com/?cid=0x0:0x25833a1e789fdbfd,
building materials,Toko Perlengkapan Rumah,Toko Bangunan Sei Pancang,"5W24+X2V, Pancang, Kec. Sebatik, Kabupaten Nunukan, Kalimantan Utara 77483","Pancang, Kec. Sebatik, Kabupaten Nunukan",KALIMANTAN UTARA,77483.0,Indonesia,,,,4.1524876,117.9050498,https://maps.google.com/?cid=0x0:0x4cd403cf27cf0ea6,
building materials,building materials,Kalimanjaya 2,"3QRG+RRF, Binalawan, Kec. Sebatik Bar., Kabupaten Nunukan, Kalimantan Utara 77483","Binalawan, Kec. Sebatik Bar., Kabupaten Nunukan",KALIMANTAN UTARA,77483.0,Indonesia,,,,4.092661,117.777284,https://maps.google.com/?cid=0x0:0xe2364e26c9e5a4a5,
building materials,building materials,UD. NORANI,"5W43+3G9, Pancang, Kec. Sebatik, Kabupaten Nunukan, Kalimantan Utara 77483","Pancang, Kec. Sebatik, Kabupaten Nunukan",KALIMANTAN UTARA,77483.0,Indonesia,,,,4.1551573,117.9038606,https://maps.google.com/?cid=0x0:0x999fb40b5755122a,
building materials,building materials,TOKO SUMBER TANI AJI KUNING,"5V77+9FG, Aji Kuning, Kec. Sebatik Bar., Kabupaten Nunukan, Kalimantan Utara 77483","Aji Kuning, Kec. Sebatik Bar., Kabupaten Nunukan",KALIMANTAN UTARA,77483.0,Indonesia,,,,4.1634455,117.8636995,https://maps.google.com/?cid=0x0:0xbca50271f6391359,
building materials,building materials,Kec. Sebatik Timur,"Kabupaten Nunukan, Kalimantan Utara","Kabupaten Nunukan, Kalimantan Utara",KALIMANTAN UTARA,,Indonesia,,,,4.1222149,117.9196102,https://maps.google.com/?cid=0x0:0xdfc5b0e5643d3ea7,
building materials,Toko Perlengkapan Rumah,Toko Bangunan UD. IRMA,"4WF9+2RH, Sungai Nyamuk, Kec. Sebatik, Kabupaten Nunukan, Kalimantan Utara 77483","Sungai Nyamuk, Kec. Sebatik, Kabupaten Nunukan",KALIMANTAN UTARA,77483.0,Indonesia,,,,4.1225665,117.9196,https://maps.google.com/?cid=0x0:0x1b845c09bfb3955d,
building materials,Toko Perlengkapan Rumah,Karya Indah,"4WW6+9W2, Jl. Bhayangkara, Sungai Nyamuk, Kec. Sebatik, Kabupaten Nunukan, Kalimantan Utara 77483","Jl. Bhayangkara, Sungai Nyamuk, Kec. Sebatik, Kabupaten Nunukan",KALIMANTAN UTARA,77483.0,Indonesia,81348308756.0,,,4.1458764,117.9122539,https://maps.google.com/?cid=0x0:0x32c09209e3e72b63,
building materials,Toko Perlengkapan Rumah,Ud alif jaya mandiri,"4WQ8+CH7, Jl. Ahmad Yani, Sungai Nyamuk, Kec. Sebatik Timur, Kabupaten Nunukan, Kalimantan Utara 77483","Jl. Ahmad Yani, Sungai Nyamuk, Kec. Sebatik Timur, Kabupaten Nunukan",KALIMANTAN UTARA,77483.0,Indonesia,,,,4.1386817,117.9163324,https://maps.google.com/?cid=0x0:0xb48e63411a498432,
building materials,Pemasok peralatan penanganan material,CV. Nita Abadi,"Jl. Gembira No.RT. 08, Desa Bukit Aru Indah, Kec. Sebatik Timur, Kabupaten Nunukan, Kalimantan Utara 77435","Desa Bukit Aru Indah, Kec. Sebatik Timur, Kabupaten Nunukan",KALIMANTAN UTARA,77435.0,Indonesia,85245695080.0,,,4.1261563,117.9210907,https://maps.google.com/?cid=0x0:0x249966fa0cc02d85,
building materials,Toko umum,MR.DIY,"Jl. Ahmad Yani No.RT 12, Sungai Nyamuk, Kec. Sebatik Timur, Kabupaten Nunukan, Kalimantan Utara 77488","Sungai Nyamuk, Kec. Sebatik Timur, Kabupaten Nunukan",KALIMANTAN UTARA,77488.0,Indonesia,,,,4.1254895,117.9190236,https://maps.google.com/?cid=0x0:0x310e2d09e06d68fa,
building materials,building materials,UD. NORANI,"5W43+3G9, Pancang, Kec. Sebatik, Kabupaten Nunukan, Kalimantan Utara 77483","Pancang, Kec. Sebatik, Kabupaten Nunukan",KALIMANTAN UTARA,77483.0,Indonesia,,,,4.1551573,117.9038606,https://maps.google.com/?cid=0x0:0x999fb40b5755122a,
building materials,Gudang,CV. BADANNU SEBATIK,"Jl. H. Badannu, Desa Kecamatan No.RT. 02, Sungai Nyamuk, Kec. Sebatik Timur, Kabupaten Nunukan, Kalimantan Utara 77483","Desa Kecamatan No.RT. 02, Sungai Nyamuk, Kec. Sebatik Timur, Kabupaten Nunukan",KALIMANTAN UTARA,77483.0,Indonesia,8115371762.0,,,4.1475357,117.905999,https://maps.google.com/?cid=0x0:0x5d792fbd421a6025,
building materials,Toko Perlengkapan Rumah,Toko Bangunan Sei Pancang,"5W24+X2V, Pancang, Kec. Sebatik, Kabupaten Nunukan, Kalimantan Utara 77483","Pancang, Kec. Sebatik, Kabupaten Nunukan",KALIMANTAN UTARA,77483.0,Indonesia,,,,4.1524876,117.9050498,https://maps.google.com/?cid=0x0:0x4cd403cf27cf0ea6,
building materials,Toko Bahan Bangunan,UD.KALIMAN JAYA Toko Bangunan,"5V77+3F8, Pancang, Kec. Sebatik, Kabupaten Nunukan, Kalimantan Utara 77483","Pancang, Kec. Sebatik, Kabupaten Nunukan",KALIMANTAN UTARA,77483.0,Indonesia,85346888134.0,,,4.1626601,117.8637123,https://maps.google.com/?cid=0x0:0x25833a1e789fdbfd,
building materials,Masjid,Masjid Nurul Yaqin Sebatik Utara,"5V6G+H6H, Desa Seberang, Pancang, Lumbis Ogong, Kabupaten Nunukan, Kalimantan Utara 77483","Desa Seberang, Pancang, Lumbis Ogong, Kabupaten Nunukan",KALIMANTAN UTARA,77483.0,Indonesia,,,,4.1614422,117.875623,https://maps.google.com/?cid=0x0:0x98ec2b145619b01b,
building materials,Toko Perlengkapan Rumah,Toko Bangunan UD. IRMA,"4WF9+2RH, Sungai Nyamuk, Kec. Sebatik, Kabupaten Nunukan, Kalimantan Utara 77483","Sungai Nyamuk, Kec. Sebatik, Kabupaten Nunukan",KALIMANTAN UTARA,77483.0,Indonesia,,,,4.1225665,117.9196,https://maps.google.com/?cid=0x0:0x1b845c09bfb3955d,
building materials,Grosir,Toko bangunan Cv.berkah abadi,"4WR7+XG9, Jl. Ahmad Yani, Pancang, Sebatik, Kabupaten Nunukan, Kalimantan Utara 77483","Jl. Ahmad Yani, Pancang, Sebatik, Kabupaten Nunukan",KALIMANTAN UTARA,77483.0,Indonesia,82154012207.0,,,4.1424221,117.9138686,https://maps.google.com/?cid=0x0:0x7361fa1584ee5d66,
building materials,Toko Bahan Bangunan,UD.KALIMAN JAYA Toko Bangunan,"5V77+3F8, Pancang, Kec. Sebatik, Kabupaten Nunukan, Kalimantan Utara 77483","Pancang, Kec. Sebatik, Kabupaten Nunukan",KALIMANTAN UTARA,77483.0,Indonesia,85346888134.0,,,4.1626601,117.8637123,https://maps.google.com/?cid=0x0:0x25833a1e789fdbfd,
building materials,building materials,Jasa pertukangan bangunan,"Jl. Ahmad Yani, lingkar, Kec. Sebatik Timur, Kabupaten Nunukan, Kalimantan Utara 77435","lingkar, Kec. Sebatik Timur, Kabupaten Nunukan",KALIMANTAN UTARA,77435.0,Indonesia,82373644446.0,,,4.1254895,117.9190236,https://maps.google.com/?cid=0x0:0x3819ad0f1525dc48,
building materials,Kantor Perusahaan,RAJA PAVING SEBATIK,"Jl. Bhayangkara, Sungai Nyamuk, Sebatik, Kabupaten Nunukan, Kalimantan Utara 77183","Sungai Nyamuk, Sebatik, Kabupaten Nunukan",KALIMANTAN UTARA,77183.0,Indonesia,81350619339.0,,,4.1424094,117.9148122,https://maps.google.com/?cid=0x0:0x69a8c263812869cf,
building materials,building materials,UD. NORANI,"5W43+3G9, Pancang, Kec. Sebatik, Kabupaten Nunukan, Kalimantan Utara 77483","Pancang, Kec. Sebatik, Kabupaten Nunukan",KALIMANTAN UTARA,77483.0,Indonesia,,,,4.1551573,117.9038606,https://maps.google.com/?cid=0x0:0x999fb40b5755122a,
building materials,building materials,Kec. Sebatik,"Tj. Karang, Kabupaten Nunukan, Kalimantan Utara","Kabupaten Nunukan, Kalimantan Utara",KALIMANTAN UTARA,,Indonesia,,,,4.0615122,117.9207553,https://maps.google.com/?cid=0x0:0x30b78c1487327b7d,
building materials,Toko Perlengkapan Rumah,Ud alif jaya mandiri,"4WQ8+CH7, Jl. Ahmad Yani, Sungai Nyamuk, Kec. Sebatik Timur, Kabupaten Nunukan, Kalimantan Utara 77483","Jl. Ahmad Yani, Sungai Nyamuk, Kec. Sebatik Timur, Kabupaten Nunukan",KALIMANTAN UTARA,77483.0,Indonesia,,,,4.1386817,117.9163324,https://maps.google.com/?cid=0x0:0xb48e63411a498432,
building materials,building materials,PD GAUL BANGUNAN,"4V8Q+JVX, Sungai Nyamuk, Kec. Sebatik Timur, Kabupaten Nunukan, Kalimantan Utara 77483","Sungai Nyamuk, Kec. Sebatik Timur, Kabupaten Nunukan",KALIMANTAN UTARA,77483.0,Indonesia,,,,4.1166242,117.8897468,https://maps.google.com/?cid=0x0:0xe75fc28e7f01aa4c,
building materials,building materials,Kalimantan Utara 77482,"Kabupaten Nunukan, Kalimantan Utara","Kabupaten Nunukan, Kalimantan Utara",KALIMANTAN UTARA,,Indonesia,,,,4.1377066,117.0794082,https://maps.google.com/?cid=0x0:0xe448c81886e99c56,
building materials,Pemasok Peralatan Konstruksi,Toko Jaya Pernik,"2XPP+HJP, Tetaban, Kec. Sebuku, Kabupaten Nunukan, Kalimantan Utara 77482","Tetaban, Kec. Sebuku, Kabupaten Nunukan",KALIMANTAN UTARA,77482.0,Indonesia,81351372209.0,,,4.0364556,116.9865765,https://maps.google.com/?cid=0x0:0xa40c478ec7b5244c,
building materials,Toko Bahan Bangunan,BATA MERAH MDK,"4J7J+FH6, Jl. Ujang Fatimah, Binusan, Kec. Nunukan, Kabupaten Nunukan, Kalimantan Utara 77482","Jl. Ujang Fatimah, Binusan, Kec. Nunukan, Kabupaten Nunukan",KALIMANTAN UTARA,77482.0,Indonesia,82237705997.0,,,4.1136601,117.6313927,https://maps.google.com/?cid=0x0:0x16cdd22929f86d2e,
building materials,Toko Bahan Bangunan,Toko Sinar Jaya,"4MR4+4R4, Nunukan Tim., Kec. Nunukan, Kabupaten Nunukan, Kalimantan Utara 77482","Nunukan Tim., Kec. Nunukan, Kabupaten Nunukan",KALIMANTAN UTARA,77482.0,Indonesia,,,,4.1402595,117.657079,https://maps.google.com/?cid=0x0:0x37677197e24b2b6b,
building materials,Perusahaan Konstruksi,Block c,"W34M+59, Kunyit, Kec. Sebuku, Kabupaten Nunukan, Kalimantan Utara 77482","Kunyit, Kec. Sebuku, Kabupaten Nunukan",KALIMANTAN UTARA,77482.0,Indonesia,,,,3.9054092,117.0834536,https://maps.google.com/?cid=0x0:0xe1a8bc85e771bc88,
building materials,Toko Bahan Bangunan,Toko Harapan Jaya Baru,"Jl. Jend. Sudirman No.RT. 002, Nunukan Tim., Kec. Nunukan, Kabupaten Nunukan, Kalimantan Utara 77482","Nunukan Tim., Kec. Nunukan, Kabupaten Nunukan",KALIMANTAN UTARA,77482.0,Indonesia,55621075.0,,,4.1414283,117.649552,https://maps.google.com/?cid=0x0:0x47bca639ce0ba627,
building materials,Toko Bahan Bangunan,Toko CAHAYA JAYA,"Jl. Taman Makam Pahlawan No.33, RT 8, Nunukan Tim., Kec. Nunukan, Kabupaten Nunukan, Kalimantan Utara 66319","RT 8, Nunukan Tim., Kec. Nunukan, Kabupaten Nunukan",KALIMANTAN UTARA,66319.0,Indonesia,55621155.0,,,4.1382492,117.6475488,https://maps.google.com/?cid=0x0:0xe16497742cb3c274,
building materials,Pemasok Bahan Bangunan,GUDANG BATA MERAH ( AGR ),"3PC9+6P, Mansapa, Nunukan Sel., Kabupaten Nunukan, Kalimantan Utara","Kabupaten Nunukan, Kalimantan Utara",KALIMANTAN UTARA,,Indonesia,89602349841.0,,,4.0705967,117.7193117,https://maps.google.com/?cid=0x0:0xe519b0ff12aacc18,
building materials,Gudang,TB Sinar Agung,"4MR2+76V, Nunukan Tim., Kec. Nunukan, Kabupaten Nunukan, Kalimantan Utara 77482","Nunukan Tim., Kec. Nunukan, Kabupaten Nunukan",KALIMANTAN UTARA,77482.0,Indonesia,55621391.0,,,4.1407434,117.6505568,https://maps.google.com/?cid=0x0:0x94d2157f116bb30f,
building materials,Toko,Toko sinar mamolo,"2PMP+RVG, Lkr. Pulau Nunukan (mamolo, Tj. Harapan, Nunukan Sel., Kabupaten Nunukan, Kalimantan Utara 77482","Lkr. Pulau Nunukan (mamolo, Tj. Harapan, Nunukan Sel., Kabupaten Nunukan",KALIMANTAN UTARA,77482.0,Indonesia,85246671599.0,,,4.0345749,117.7372078,https://maps.google.com/?cid=0x0:0xaeba7a31dc3eeaef,
building materials,Toko Perlengkapan Rumah,Toko Cahaya Logam,"4MP2+Q23 Toko BANGUNAN, Jl. Bhayangkara, RT.11/RW.no.25, Nunukan Tengah, Kec. Nunukan, Kabupaten Nunukan, Kalimantan Utara 77422","Jl. Bhayangkara, RT.11/RW.no.25, Nunukan Tengah, Kec. Nunukan, Kabupaten Nunukan",KALIMANTAN UTARA,77422.0,Indonesia,,,,4.1368787,117.6500348,https://maps.google.com/?cid=0x0:0x1e06a7fb01192577,
building materials,Toko Bahan Bangunan,Toko Cahaya Kanduangan,"6C2C+W3, Nunukan Utara, Kec. Nunukan, Kabupaten Nunukan, Kalimantan Utara","Kabupaten Nunukan, Kalimantan Utara",KALIMANTAN UTARA,,Indonesia,,,,4.2023398,117.4201444,https://maps.google.com/?cid=0x0:0xd02b16c3f4897100,
building materials,Toko Bahan Bangunan,Toko Rajawali,"Nunukan Tim., Kec. Nunukan, Kabupaten Nunukan, Kalimantan Utara 77482","Kec. Nunukan, Kabupaten Nunukan",KALIMANTAN UTARA,77482.0,Indonesia,82252122134.0,,,4.142132,117.6540685,https://maps.google.com/?cid=0x0:0x519bc8420e7cb1da,
building materials,Kantor Perusahaan,Inhutani I PT Persero,"Jl. Radio No.RT. 010, Binusan, Kec. Nunukan, Kabupaten Nunukan, Kalimantan Utara 77482","Binusan, Kec. Nunukan, Kabupaten Nunukan",KALIMANTAN UTARA,77482.0,Indonesia,55621787.0,,,4.068042,117.661114,https://maps.google.com/?cid=0x0:0xc450c6084ac9cb94,
building materials,Toko Bahan Bangunan,Toko Putoy Shop Sempurna Raya,"4JVW+5QR, Nunukan Tim., Kec. Nunukan, Kabupaten Nunukan, Kalimantan Utara 77482","Nunukan Tim., Kec. Nunukan, Kabupaten Nunukan",KALIMANTAN UTARA,77482.0,Indonesia,,,,4.1429912,117.6468795,https://maps.google.com/?cid=0x0:0x913566d60ac49cd0,
building materials,Toko Bahan Bangunan,Total One - Stop Tools Station,"4MR6+C2C, Jl. Pattimura, Nunukan Tim., Kec. Nunukan, Kabupaten Nunukan, Kalimantan Utara 77482","Jl. Pattimura, Nunukan Tim., Kec. Nunukan, Kabupaten Nunukan",KALIMANTAN UTARA,77482.0,Indonesia,,,,4.1410621,117.6600131,https://maps.google.com/?cid=0x0:0x38fc7bf3d60ded0d,
building materials,Toko Reparasi Elektronik,"CV.BORNEO JAYA SUKSES ( service AC,kulkas,dan mesin cuci)","Jl. Ujang Dewa, Selisun, Nunukan Sel., Kabupaten Nunukan, Kalimantan Utara 77482","Selisun, Nunukan Sel., Kabupaten Nunukan",KALIMANTAN UTARA,77482.0,Indonesia,82251155333.0,,,4.1297696,117.6707248,https://maps.google.com/?cid=0x0:0xcdbb0799f81c9271,
building materials,Toko Perlengkapan Rumah,Fitfanfah Al Chantara CV,"Jl. Tien Soharto No.64, Binusan, Kec. Nunukan, Kabupaten Nunukan, Kalimantan Utara 77482","Binusan, Kec. Nunukan, Kabupaten Nunukan",KALIMANTAN UTARA,77482.0,Indonesia,55621557.0,,,4.068042,117.661114,https://maps.google.com/?cid=0x0:0xe345ede53cd4ca4,
building materials,building materials,Toko alat bangunan,"jln, Liang Bunyu, binasalam, Kabupaten Nunukan, Kalimantan Utara 77441","Liang Bunyu, binasalam, Kabupaten Nunukan",KALIMANTAN UTARA,77441.0,Indonesia,,,,4.1594834,117.7256083,https://maps.google.com/?cid=0x0:0xb082845ad9315cd4,
building materials,Rumah Kayu,Sebuku,"XX4F+PFJ, Tetaban, Kec. Sebuku, Kabupaten Nunukan, Kalimantan Utara 77482","Tetaban, Kec. Sebuku, Kabupaten Nunukan",KALIMANTAN UTARA,77482.0,Indonesia,,,,3.9568272,116.9736524,https://maps.google.com/?cid=0x0:0x7e5abc5ab8a75138,
building materials,Sekolah menengah,Sebuku,"2XPQ+4QV, Makmur, Tulin Onsoi, Kabupaten Nunukan, Kalimantan Utara 77482","Makmur, Tulin Onsoi, Kabupaten Nunukan",KALIMANTAN UTARA,77482.0,Indonesia,,,,4.0353687,116.9894335,https://maps.google.com/?cid=0x0:0x1261dfe38ad5e59e,
building materials,Toko Bahan Bangunan,Toko Maju Jaya,"4JRW+J87, Jl. Jamaker, Nunukan Tim., Kec. Nunukan, Kabupaten Nunukan, Kalimantan Utara 77482","Jl. Jamaker, Nunukan Tim., Kec. Nunukan, Kabupaten Nunukan",KALIMANTAN UTARA,77482.0,Indonesia,,,,4.1415412,117.6457928,https://maps.google.com/?cid=0x0:0x478114f6ba1fa990,
building materials,building materials,Kec. Sei Menggaris,"Kabupaten Nunukan, Kalimantan Utara","Kabupaten Nunukan, Kalimantan Utara",KALIMANTAN UTARA,,Indonesia,,,,4.2053503,117.2483455,https://maps.google.com/?cid=0x0:0x96ec2cb6aa3777fa,
building materials,Toko Bahan Bangunan,Toko Cahaya Kanduangan,"6C2C+W3, Nunukan Utara, Kec. Nunukan, Kabupaten Nunukan, Kalimantan Utara","Kabupaten Nunukan, Kalimantan Utara",KALIMANTAN UTARA,,Indonesia,,,,4.2023398,117.4201444,https://maps.google.com/?cid=0x0:0xd02b16c3f4897100,
building materials,Pemasok Peralatan Konstruksi,Toko Jaya Pernik,"2XPP+HJP, Tetaban, Kec. Sebuku, Kabupaten Nunukan, Kalimantan Utara 77482","Tetaban, Kec. Sebuku, Kabupaten Nunukan",KALIMANTAN UTARA,77482.0,Indonesia,81351372209.0,,,4.0364556,116.9865765,https://maps.google.com/?cid=0x0:0xa40c478ec7b5244c,
building materials,building materials,Toko pilihan,"5747+5QM, Tabur Lestari, Kec. Nunukan, Kabupaten Nunukan, Kalimantan Utara 77482","Tabur Lestari, Kec. Nunukan, Kabupaten Nunukan",KALIMANTAN UTARA,77482.0,Indonesia,81350628262.0,,,4.1554182,117.2643019,https://maps.google.com/?cid=0x0:0x4ebd3ce1bcf40710,
building materials,Kantor Pemerintah,ATAP SEMBAKUNG,"V24V+JW5, Pagar, Kec. Sembakung, Kabupaten Nunukan, Kalimantan Utara","Kabupaten Nunukan, Kalimantan Utara",KALIMANTAN UTARA,,Indonesia,,,,3.8565013,117.044851,https://maps.google.com/?cid=0x0:0x73e635bc0030ed8b,
building materials,Minimarket,Toko Bangunan NAM,"Desa Sanur SP1, Jl. Cermai No.RT 10, Tetaban, Tulin Onsoi, Kabupaten Nunukan, Kalimantan Utara 77485","Jl. Cermai No.RT 10, Tetaban, Tulin Onsoi, Kabupaten Nunukan",KALIMANTAN UTARA,77485.0,Indonesia,82156952199.0,,,4.0310322,116.9832116,https://maps.google.com/?cid=0x0:0xc6591a61906bf637,
building materials,Toko Bahan Bangunan,Toko Sinar Jaya,"4MR4+4R4, Nunukan Tim., Kec. Nunukan, Kabupaten Nunukan, Kalimantan Utara 77482","Nunukan Tim., Kec. Nunukan, Kabupaten Nunukan",KALIMANTAN UTARA,77482.0,Indonesia,,,,4.1402595,117.657079,https://maps.google.com/?cid=0x0:0x37677197e24b2b6b,
building materials,Toko Bahan Bangunan,Toko CAHAYA JAYA,"Jl. Taman Makam Pahlawan No.33, RT 8, Nunukan Tim., Kec. Nunukan, Kabupaten Nunukan, Kalimantan Utara 66319","RT 8, Nunukan Tim., Kec. Nunukan, Kabupaten Nunukan",KALIMANTAN UTARA,66319.0,Indonesia,55621155.0,,,4.1382492,117.6475488,https://maps.google.com/?cid=0x0:0xe16497742cb3c274,
building materials,Gudang,TB Sinar Agung,"4MR2+76V, Nunukan Tim., Kec. Nunukan, Kabupaten Nunukan, Kalimantan Utara 77482","Nunukan Tim., Kec. Nunukan, Kabupaten Nunukan",KALIMANTAN UTARA,77482.0,Indonesia,55621391.0,,,4.1407434,117.6505568,https://maps.google.com/?cid=0x0:0x94d2157f116bb30f,
building materials,Toko Bahan Bangunan,BATA MERAH MDK,"4J7J+FH6, Jl. Ujang Fatimah, Binusan, Kec. Nunukan, Kabupaten Nunukan, Kalimantan Utara 77482","Jl. Ujang Fatimah, Binusan, Kec. Nunukan, Kabupaten Nunukan",KALIMANTAN UTARA,77482.0,Indonesia,82237705997.0,,,4.1136601,117.6313927,https://maps.google.com/?cid=0x0:0x16cdd22929f86d2e,
building materials,Toko Perlengkapan Rumah,Ud alif jaya mandiri,"4WQ8+CH7, Jl. Ahmad Yani, Sungai Nyamuk, Kec. Sebatik Timur, Kabupaten Nunukan, Kalimantan Utara 77483","Jl. Ahmad Yani, Sungai Nyamuk, Kec. Sebatik Timur, Kabupaten Nunukan",KALIMANTAN UTARA,77483.0,Indonesia,,,,4.1386817,117.9163324,https://maps.google.com/?cid=0x0:0xb48e63411a498432,
building materials,Toko Bahan Bangunan,Toko Putoy Shop Sempurna Raya,"4JVW+5QR, Nunukan Tim., Kec. Nunukan, Kabupaten Nunukan, Kalimantan Utara 77482","Nunukan Tim., Kec. Nunukan, Kabupaten Nunukan",KALIMANTAN UTARA,77482.0,Indonesia,,,,4.1429912,117.6468795,https://maps.google.com/?cid=0x0:0x913566d60ac49cd0,
building materials,Toko Perlengkapan Rumah,Toko Bangunan UD. IRMA,"4WF9+2RH, Sungai Nyamuk, Kec. Sebatik, Kabupaten Nunukan, Kalimantan Utara 77483","Sungai Nyamuk, Kec. Sebatik, Kabupaten Nunukan",KALIMANTAN UTARA,77483.0,Indonesia,,,,4.1225665,117.9196,https://maps.google.com/?cid=0x0:0x1b845c09bfb3955d,
building materials,Pemasok Peralatan Konstruksi,Toko Jaya Pernik,"2XPP+HJP, Tetaban, Kec. Sebuku, Kabupaten Nunukan, Kalimantan Utara 77482","Tetaban, Kec. Sebuku, Kabupaten Nunukan",KALIMANTAN UTARA,77482.0,Indonesia,81351372209.0,,,4.0364556,116.9865765,https://maps.google.com/?cid=0x0:0xa40c478ec7b5244c,
building materials,building materials,Toko alat bangunan,"jln, Liang Bunyu, binasalam, Kabupaten Nunukan, Kalimantan Utara 77441","Liang Bunyu, binasalam, Kabupaten Nunukan",KALIMANTAN UTARA,77441.0,Indonesia,,,,4.1594834,117.7256083,https://maps.google.com/?cid=0x0:0xb082845ad9315cd4,
building materials,building materials,Kalimantan Utara 77482,"Kabupaten Nunukan, Kalimantan Utara","Kabupaten Nunukan, Kalimantan Utara",KALIMANTAN UTARA,,Indonesia,,,,4.1377066,117.0794082,https://maps.google.com/?cid=0x0:0xe448c81886e99c56,
building materials,Minimarket,Toko Bangunan NAM,"Desa Sanur SP1, Jl. Cermai No.RT 10, Tetaban, Tulin Onsoi, Kabupaten Nunukan, Kalimantan Utara 77485","Jl. Cermai No.RT 10, Tetaban, Tulin Onsoi, Kabupaten Nunukan",KALIMANTAN UTARA,77485.0,Indonesia,82156952199.0,,,4.0310322,116.9832116,https://maps.google.com/?cid=0x0:0xc6591a61906bf637,
building materials,Toko Bahan Bangunan,Total One - Stop Tools Station,"4MR6+C2C, Jl. Pattimura, Nunukan Tim., Kec. Nunukan, Kabupaten Nunukan, Kalimantan Utara 77482","Jl. Pattimura, Nunukan Tim., Kec. Nunukan, Kabupaten Nunukan",KALIMANTAN UTARA,77482.0,Indonesia,,,,4.1410621,117.6600131,https://maps.google.com/?cid=0x0:0x38fc7bf3d60ded0d,
building materials,Toko Bahan Bangunan,TOKO INDAH JAYA,"4MQ2+PG7, Jl. Pattimura, Nunukan Tim., Kec. Nunukan, Kabupaten Nunukan, Kalimantan Utara 77482","Jl. Pattimura, Nunukan Tim., Kec. Nunukan, Kabupaten Nunukan",KALIMANTAN UTARA,77482.0,Indonesia,8125404609.0,,,4.1392983,117.6512938,https://maps.google.com/?cid=0x0:0xba23e0629164681b,
building materials,Kantor Perusahaan,Inhutani I PT Persero,"Jl. Radio No.RT. 010, Binusan, Kec. Nunukan, Kabupaten Nunukan, Kalimantan Utara 77482","Binusan, Kec. Nunukan, Kabupaten Nunukan",KALIMANTAN UTARA,77482.0,Indonesia,55621787.0,,,4.068042,117.661114,https://maps.google.com/?cid=0x0:0xc450c6084ac9cb94,
building materials,Pemasok Peralatan Konstruksi,Toko Jaya Pernik,"2XPP+HJP, Tetaban, Kec. Sebuku, Kabupaten Nunukan, Kalimantan Utara 77482","Tetaban, Kec. Sebuku, Kabupaten Nunukan",KALIMANTAN UTARA,77482.0,Indonesia,81351372209.0,,,4.0364556,116.9865765,https://maps.google.com/?cid=0x0:0xa40c478ec7b5244c,
building materials,Gudang,TB Sinar Agung,"4MR2+76V, Nunukan Tim., Kec. Nunukan, Kabupaten Nunukan, Kalimantan Utara 77482","Nunukan Tim., Kec. Nunukan, Kabupaten Nunukan",KALIMANTAN UTARA,77482.0,Indonesia,55621391.0,,,4.1407434,117.6505568,https://maps.google.com/?cid=0x0:0x94d2157f116bb30f,
building materials,Toko Bahan Bangunan,Toko CAHAYA JAYA,"Jl. Taman Makam Pahlawan No.33, RT 8, Nunukan Tim., Kec. Nunukan, Kabupaten Nunukan, Kalimantan Utara 66319","RT 8, Nunukan Tim., Kec. Nunukan, Kabupaten Nunukan",KALIMANTAN UTARA,66319.0,Indonesia,55621155.0,,,4.1382492,117.6475488,https://maps.google.com/?cid=0x0:0xe16497742cb3c274,
building materials,Toko Bahan Bangunan,Toko Sinar Jaya,"4MR4+4R4, Nunukan Tim., Kec. Nunukan, Kabupaten Nunukan, Kalimantan Utara 77482","Nunukan Tim., Kec. Nunukan, Kabupaten Nunukan",KALIMANTAN UTARA,77482.0,Indonesia,,,,4.1402595,117.657079,https://maps.google.com/?cid=0x0:0x37677197e24b2b6b,
building materials,Toko Bahan Bangunan,BATA MERAH MDK,"4J7J+FH6, Jl. Ujang Fatimah, Binusan, Kec. Nunukan, Kabupaten Nunukan, Kalimantan Utara 77482","Jl. Ujang Fatimah, Binusan, Kec. Nunukan, Kabupaten Nunukan",KALIMANTAN UTARA,77482.0,Indonesia,82237705997.0,,,4.1136601,117.6313927,https://maps.google.com/?cid=0x0:0x16cdd22929f86d2e,
building materials,Toko Perlengkapan Rumah,Toko Cahaya Logam,"4MP2+Q23 Toko BANGUNAN, Jl. Bhayangkara, RT.11/RW.no.25, Nunukan Tengah, Kec. Nunukan, Kabupaten Nunukan, Kalimantan Utara 77422","Jl. Bhayangkara, RT.11/RW.no.25, Nunukan Tengah, Kec. Nunukan, Kabupaten Nunukan",KALIMANTAN UTARA,77422.0,Indonesia,,,,4.1368787,117.6500348,https://maps.google.com/?cid=0x0:0x1e06a7fb01192577,
building materials,Toko,Toko sinar mamolo,"2PMP+RVG, Lkr. Pulau Nunukan (mamolo, Tj. Harapan, Nunukan Sel., Kabupaten Nunukan, Kalimantan Utara 77482","Lkr. Pulau Nunukan (mamolo, Tj. Harapan, Nunukan Sel., Kabupaten Nunukan",KALIMANTAN UTARA,77482.0,Indonesia,85246671599.0,,,4.0345749,117.7372078,https://maps.google.com/?cid=0x0:0xaeba7a31dc3eeaef,
building materials,Toko Bahan Bangunan,Toko Rajawali,"Nunukan Tim., Kec. Nunukan, Kabupaten Nunukan, Kalimantan Utara 77482","Kec. Nunukan, Kabupaten Nunukan",KALIMANTAN UTARA,77482.0,Indonesia,82252122134.0,,,4.142132,117.6540685,https://maps.google.com/?cid=0x0:0x519bc8420e7cb1da,
building materials,Toko Bahan Bangunan,Toko Putoy Shop Sempurna Raya,"4JVW+5QR, Nunukan Tim., Kec. Nunukan, Kabupaten Nunukan, Kalimantan Utara 77482","Nunukan Tim., Kec. Nunukan, Kabupaten Nunukan",KALIMANTAN UTARA,77482.0,Indonesia,,,,4.1429912,117.6468795,https://maps.google.com/?cid=0x0:0x913566d60ac49cd0,
building materials,Toko Bahan Bangunan,Toko Cahaya Kanduangan,"6C2C+W3, Nunukan Utara, Kec. Nunukan, Kabupaten Nunukan, Kalimantan Utara","Kabupaten Nunukan, Kalimantan Utara",KALIMANTAN UTARA,,Indonesia,,,,4.2023398,117.4201444,https://maps.google.com/?cid=0x0:0xd02b16c3f4897100,
building materials,Pemasok Bahan Bangunan,GUDANG BATA MERAH ( AGR ),"3PC9+6P, Mansapa, Nunukan Sel., Kabupaten Nunukan, Kalimantan Utara","Kabupaten Nunukan, Kalimantan Utara",KALIMANTAN UTARA,,Indonesia,89602349841.0,,,4.0705967,117.7193117,https://maps.google.com/?cid=0x0:0xe519b0ff12aacc18,
building materials,Toko Bahan Bangunan,Plafon PVC Arjuna Nunukan,"Jl. Bhayangkara, Nunukan Tim., Kec. Nunukan, Kabupaten Nunukan, Kalimantan Utara 17431","Nunukan Tim., Kec. Nunukan, Kabupaten Nunukan",KALIMANTAN UTARA,17431.0,Indonesia,81388191689.0,,,4.1350974,117.6514268,https://maps.google.com/?cid=0x0:0x99469cbd0a57215a,
building materials,Kantor Pemerintah Distrik,Desa balatikon,"5X73+RQH, Tinampak II, Tulin Onsoi, Kabupaten Nunukan, Kalimantan Utara 77482","Tinampak II, Tulin Onsoi, Kabupaten Nunukan",KALIMANTAN UTARA,77482.0,Indonesia,,,,4.1645591,116.9544961,https://maps.google.com/?cid=0x0:0x8b1cd36d793cb9f4,
building materials,Toko Perlengkapan Rumah,Fitfanfah Al Chantara CV,"Jl. Tien Soharto No.64, Binusan, Kec. Nunukan, Kabupaten Nunukan, Kalimantan Utara 77482","Binusan, Kec. Nunukan, Kabupaten Nunukan",KALIMANTAN UTARA,77482.0,Indonesia,55621557.0,,,4.068042,117.661114,https://maps.google.com/?cid=0x0:0xe345ede53cd4ca4,
building materials,Sekolah Dasar,SDN 008 TULIN ONSOI,"22V3+4M8, Jl.Poros Makmur Kalas, Makmur, Kec. Sebuku, Kabupaten Nunukan, Kalimantan Utara 77482","Jl.Poros Makmur Kalas, Makmur, Kec. Sebuku, Kabupaten Nunukan",KALIMANTAN UTARA,77482.0,Indonesia,,,,4.042791,117.0041887,https://maps.google.com/?cid=0x0:0xdf20c96c181cbe55,
building materials,Toko Bahan Bangunan,Toko Maju Jaya,"4JRW+J87, Jl. Jamaker, Nunukan Tim., Kec. Nunukan, Kabupaten Nunukan, Kalimantan Utara 77482","Jl. Jamaker, Nunukan Tim., Kec. Nunukan, Kabupaten Nunukan",KALIMANTAN UTARA,77482.0,Indonesia,,,,4.1415412,117.6457928,https://maps.google.com/?cid=0x0:0x478114f6ba1fa990,
