Category,Real Category,Business Name,Address,City,State,Postal Code,Country,Phone,Email,Website,Latitude,Longitude,Map Link,Details Link
komplek housing,komplek housing,Kalimantan Utara 77456,"Kabupaten Nunukan, Kalimantan Utara","Kabupaten Nunukan, Kalimantan Utara",KALIMANTAN UTARA,,Indonesia,,,,3.7401357,115.7575196,https://maps.google.com/?cid=0x0:0x678bdac28fa14afd,
komplek housing,Kantor Pemerintah,Komplek BMKG,"Jl. Long Bawan, Pa Kemut, Krayan, Kabupaten Nunukan, Kalimantan Utara 77456","Pa Kemut, Krayan, Kabupaten Nunukan",KALIMANTAN UTARA,77456.0,Indonesia,,,,3.905646,115.6969028,https://maps.google.com/?cid=0x0:0xde62be89c59100d3,
komplek housing,Komplek perumahan,Berian Baru,"VJMX+7VP, Berian Baru, Krayan, Kabupaten Nunukan, Kalimantan Utara 77456","Berian Baru, Krayan, Kabupaten Nunukan",KALIMANTAN UTARA,77456.0,Indonesia,,,,3.883212,115.6497186,https://maps.google.com/?cid=0x0:0xa25b98f36ff02515,
komplek housing,Komplek perumahan,jemmy,"WPQW+9V6, Lembudud, Krayan, Kabupaten Nunukan, Kalimantan Utara 77456","Lembudud, Krayan, Kabupaten Nunukan",KALIMANTAN UTARA,77456.0,Indonesia,,,,3.9384298,115.7470917,https://maps.google.com/?cid=0x0:0xd77e86253d0febcb,
komplek housing,Perhimpunan Pengembang Perumahan,Rumah Gat Khaleb A,"HP7X+VX2, Unnamed Road, Pa Tera, South Krayan, Nunukan Regency, North Kalimantan 77456","Unnamed Road, Pa Tera, South Krayan, Nunukan Regency",KALIMANTAN UTARA,77456.0,Indonesia,,,,3.5646472,115.7498969,https://maps.google.com/?cid=0x0:0xcd1558698606955e,
komplek housing,Komplek perumahan,Alung,"VMM2+73Q, Berian Baru, Krayan, Kabupaten Nunukan, Kalimantan Utara","Kabupaten Nunukan, Kalimantan Utara",KALIMANTAN UTARA,,Indonesia,,,,3.8825712,115.6506832,https://maps.google.com/?cid=0x0:0x32ec992d606724c1,
komplek housing,Komplek perumahan,Rumah darius benung,"VPWH+4Q3, Pa Kemut, Krayan, Kabupaten Nunukan, Kalimantan Utara","Kabupaten Nunukan, Kalimantan Utara",KALIMANTAN UTARA,,Indonesia,,,,3.8950986,115.7306326,https://maps.google.com/?cid=0x0:0x58a696182fc7a67b,
komplek housing,Komplek perumahan,Rumah Alvaro,"VPRM+G4C, Pa Kemut, Krayan, Kabupaten Nunukan, Kalimantan Utara 77456","Pa Kemut, Krayan, Kabupaten Nunukan",KALIMANTAN UTARA,77456.0,Indonesia,,,,3.891322,115.7327636,https://maps.google.com/?cid=0x0:0xcac4e71520242675,
komplek housing,Komplek perumahan,martinus.k,"WPQW+9V6, Lembudud, Krayan, Kabupaten Nunukan, Kalimantan Utara 77456","Lembudud, Krayan, Kabupaten Nunukan",KALIMANTAN UTARA,77456.0,Indonesia,,,,3.9393062,115.7471201,https://maps.google.com/?cid=0x0:0xc2f89beea1d1d3b0,
komplek housing,Komplek perumahan,Markelius,"5V89+WXF, Long Umung, Krayan, Kabupaten Nunukan, Kalimantan Utara 77456","Long Umung, Krayan, Kabupaten Nunukan",KALIMANTAN UTARA,77456.0,Indonesia,,,,4.1673241,115.8699209,https://maps.google.com/?cid=0x0:0x6c9ec33e9a31b35e,
komplek housing,komplek housing,Toko alat dan aksesoris motor,"8XJQ+877, Liang Butan, Krayan, Kabupaten Nunukan, Kalimantan Utara","Kabupaten Nunukan, Kalimantan Utara",KALIMANTAN UTARA,,Indonesia,,,,4.3307833,115.9881867,https://maps.google.com/?cid=0x0:0x842e397b28337dc9,
komplek housing,Komplek perumahan,Rumah hendrik balng,"WJHC+VV, Pa Butal, Krayan, Kabupaten Nunukan, Kalimantan Utara","Kabupaten Nunukan, Kalimantan Utara",KALIMANTAN UTARA,,Indonesia,,,,3.929655,115.622235,https://maps.google.com/?cid=0x0:0x5b1ab22bea3ac2ab,
komplek housing,Komplek perumahan,Liang bua berian baru,"3PXH+45M, Liang Bua, Krayan, Kabupaten Nunukan, Kalimantan Utara 77456","Liang Bua, Krayan, Kabupaten Nunukan",KALIMANTAN UTARA,77456.0,Indonesia,,,,4.0978284,115.7279326,https://maps.google.com/?cid=0x0:0xd343556d0d32dc65,
komplek housing,Pembangunan Perumahan,Ba'liku raya,"QVV4+5HH, Ba'Liku, Krayan Tengah, Kabupaten Nunukan, Kalimantan Utara","Kabupaten Nunukan, Kalimantan Utara",KALIMANTAN UTARA,,Indonesia,,,,3.7929319,115.8564899,https://maps.google.com/?cid=0x0:0xcb883e49a70dea33,
komplek housing,Pembangunan Perumahan,pa' padi,"RP9R+2Q, Buduk Kubul, Krayan, Kabupaten Nunukan, Kalimantan Utara","Kabupaten Nunukan, Kalimantan Utara",KALIMANTAN UTARA,,Indonesia,,,,3.8176111,115.742,https://maps.google.com/?cid=0x0:0x524889be787262b7,
komplek housing,Komplek perumahan,Soleman daut,"WPQX+MR, Lembudud, Krayan, Kabupaten Nunukan, Kalimantan Utara","Kabupaten Nunukan, Kalimantan Utara",KALIMANTAN UTARA,,Indonesia,,,,3.9391252,115.7495914,https://maps.google.com/?cid=0x0:0x52cc05c7b6d3d13c,
komplek housing,Perhimpunan Pengembang Perumahan,Desa Bungayan,"WRVQ+4Q, Long Puak, Desa Bungayan, Kabupaten Nunukan, Kalimantan Utara","Kabupaten Nunukan, Kalimantan Utara",KALIMANTAN UTARA,,Indonesia,,,,3.942776,115.8393764,https://maps.google.com/?cid=0x0:0x20569b67805c2144,
komplek housing,Pembangunan Perumahan,Long Midang,"7V9V+HCG, RT.001, Liang Tuer, Krayan, Kabupaten Nunukan, Kalimantan Utara","Kabupaten Nunukan, Kalimantan Utara",KALIMANTAN UTARA,,Indonesia,,,,4.2689412,115.8935783,https://maps.google.com/?cid=0x0:0xb3f1ea6d3dcda1dd,
komplek housing,komplek housing,Krayan,"Kabupaten Nunukan, Kalimantan Utara","Kabupaten Nunukan, Kalimantan Utara",KALIMANTAN UTARA,,Indonesia,,,,4.0719488,115.8048521,https://maps.google.com/?cid=0x0:0x81dfeaec9c95acae,
komplek housing,komplek housing,Kalimantan Utara 77456,"Kabupaten Nunukan, Kalimantan Utara","Kabupaten Nunukan, Kalimantan Utara",KALIMANTAN UTARA,,Indonesia,,,,3.7401357,115.7575196,https://maps.google.com/?cid=0x0:0x678bdac28fa14afd,
komplek housing,Komplek perumahan,Berian Baru,"VJMX+7VP, Berian Baru, Krayan, Kabupaten Nunukan, Kalimantan Utara 77456","Berian Baru, Krayan, Kabupaten Nunukan",KALIMANTAN UTARA,77456.0,Indonesia,,,,3.883212,115.6497186,https://maps.google.com/?cid=0x0:0xa25b98f36ff02515,
komplek housing,Komplek perumahan,jemmy,"WPQW+9V6, Lembudud, Krayan, Kabupaten Nunukan, Kalimantan Utara 77456","Lembudud, Krayan, Kabupaten Nunukan",KALIMANTAN UTARA,77456.0,Indonesia,,,,3.9384298,115.7470917,https://maps.google.com/?cid=0x0:0xd77e86253d0febcb,
komplek housing,Komplek perumahan,Alung,"VMM2+73Q, Berian Baru, Krayan, Kabupaten Nunukan, Kalimantan Utara","Kabupaten Nunukan, Kalimantan Utara",KALIMANTAN UTARA,,Indonesia,,,,3.8825712,115.6506832,https://maps.google.com/?cid=0x0:0x32ec992d606724c1,
komplek housing,Perhimpunan Pengembang Perumahan,Rumah Gat Khaleb A,"HP7X+VX2, Unnamed Road, Pa Tera, South Krayan, Nunukan Regency, North Kalimantan 77456","Unnamed Road, Pa Tera, South Krayan, Nunukan Regency",KALIMANTAN UTARA,77456.0,Indonesia,,,,3.5646472,115.7498969,https://maps.google.com/?cid=0x0:0xcd1558698606955e,
komplek housing,Komplek perumahan,Markelius,"5V89+WXF, Long Umung, Krayan, Kabupaten Nunukan, Kalimantan Utara 77456","Long Umung, Krayan, Kabupaten Nunukan",KALIMANTAN UTARA,77456.0,Indonesia,,,,4.1673241,115.8699209,https://maps.google.com/?cid=0x0:0x6c9ec33e9a31b35e,
komplek housing,komplek housing,Toko alat dan aksesoris motor,"8XJQ+877, Liang Butan, Krayan, Kabupaten Nunukan, Kalimantan Utara","Kabupaten Nunukan, Kalimantan Utara",KALIMANTAN UTARA,,Indonesia,,,,4.3307833,115.9881867,https://maps.google.com/?cid=0x0:0x842e397b28337dc9,
komplek housing,Komplek perumahan,Rumah Alvaro,"VPRM+G4C, Pa Kemut, Krayan, Kabupaten Nunukan, Kalimantan Utara 77456","Pa Kemut, Krayan, Kabupaten Nunukan",KALIMANTAN UTARA,77456.0,Indonesia,,,,3.891322,115.7327636,https://maps.google.com/?cid=0x0:0xcac4e71520242675,
komplek housing,Komplek perumahan,Rumah darius benung,"VPWH+4Q3, Pa Kemut, Krayan, Kabupaten Nunukan, Kalimantan Utara","Kabupaten Nunukan, Kalimantan Utara",KALIMANTAN UTARA,,Indonesia,,,,3.8950986,115.7306326,https://maps.google.com/?cid=0x0:0x58a696182fc7a67b,
komplek housing,Komplek perumahan,martinus.k,"WPQW+9V6, Lembudud, Krayan, Kabupaten Nunukan, Kalimantan Utara 77456","Lembudud, Krayan, Kabupaten Nunukan",KALIMANTAN UTARA,77456.0,Indonesia,,,,3.9393062,115.7471201,https://maps.google.com/?cid=0x0:0xc2f89beea1d1d3b0,
komplek housing,Komplek perumahan,Rumah hendrik balng,"WJHC+VV, Pa Butal, Krayan, Kabupaten Nunukan, Kalimantan Utara","Kabupaten Nunukan, Kalimantan Utara",KALIMANTAN UTARA,,Indonesia,,,,3.929655,115.622235,https://maps.google.com/?cid=0x0:0x5b1ab22bea3ac2ab,
komplek housing,Komplek perumahan,Liang bua berian baru,"3PXH+45M, Liang Bua, Krayan, Kabupaten Nunukan, Kalimantan Utara 77456","Liang Bua, Krayan, Kabupaten Nunukan",KALIMANTAN UTARA,77456.0,Indonesia,,,,4.0978284,115.7279326,https://maps.google.com/?cid=0x0:0xd343556d0d32dc65,
komplek housing,Pembangunan Perumahan,pa' padi,"RP9R+2Q, Buduk Kubul, Krayan, Kabupaten Nunukan, Kalimantan Utara","Kabupaten Nunukan, Kalimantan Utara",KALIMANTAN UTARA,,Indonesia,,,,3.8176111,115.742,https://maps.google.com/?cid=0x0:0x524889be787262b7,
komplek housing,Pembangunan Perumahan,Ba'liku raya,"QVV4+5HH, Ba'Liku, Krayan Tengah, Kabupaten Nunukan, Kalimantan Utara","Kabupaten Nunukan, Kalimantan Utara",KALIMANTAN UTARA,,Indonesia,,,,3.7929319,115.8564899,https://maps.google.com/?cid=0x0:0xcb883e49a70dea33,
komplek housing,Komplek perumahan,Soleman daut,"WPQX+MR, Lembudud, Krayan, Kabupaten Nunukan, Kalimantan Utara","Kabupaten Nunukan, Kalimantan Utara",KALIMANTAN UTARA,,Indonesia,,,,3.9391252,115.7495914,https://maps.google.com/?cid=0x0:0x52cc05c7b6d3d13c,
komplek housing,komplek housing,Krayan Sel.,"Kabupaten Nunukan, Kalimantan Utara","Kabupaten Nunukan, Kalimantan Utara",KALIMANTAN UTARA,,Indonesia,,,,3.5927103,115.7575196,https://maps.google.com/?cid=0x0:0x77945ad88fd632ea,
komplek housing,komplek housing,Kec. Lumbis,"Kabupaten Nunukan, Kalimantan Utara","Kabupaten Nunukan, Kalimantan Utara",KALIMANTAN UTARA,,Indonesia,,,,3.7539235,116.7420499,https://maps.google.com/?cid=0x0:0xd64a09322f304639,
komplek housing,Komplek perumahan,Acasha Homes,"M2MH+R2X, RT.004/RW.007, Cimuning, Kec. Mustika Jaya, Kota Bks, Jawa Barat","Kota Bks, Jawa Barat",KALIMANTAN UTARA,,Indonesia,,,,-6.315162,107.0274339,https://maps.google.com/?cid=0x0:0xd3991005a576b7c,
komplek housing,Komplek perumahan,SaSha,"M2Q9+4P8, RT.004/RW.023, Padurenan, Kec. Mustika Jaya, Kota Bks, Jawa Barat 17156","RT.004/RW.023, Padurenan, Kec. Mustika Jaya, Kota Bks",KALIMANTAN UTARA,17156.0,Indonesia,,,,-6.3122137,107.0193253,https://maps.google.com/?cid=0x0:0x380e26c3344798cb,
komplek housing,komplek housing,Kalimantan Utara 77457,"Kabupaten Nunukan, Kalimantan Utara","Kabupaten Nunukan, Kalimantan Utara",KALIMANTAN UTARA,,Indonesia,,,,4.0104303,116.5137964,https://maps.google.com/?cid=0x0:0x82344e1d8c5acb7d,
komplek housing,Komplek perumahan,Desa Jukup,"3F29+FRM, Jukup, Lumbis Ogong, Kabupaten Nunukan, Kalimantan Utara 77457","Jukup, Lumbis Ogong, Kabupaten Nunukan",KALIMANTAN UTARA,77457.0,Indonesia,,,,4.051221,116.4695477,https://maps.google.com/?cid=0x0:0x4fcdb2733a4ae255,
komplek housing,Komplek perumahan,Rumah Kost Rambutan,"QP5Q+4CQ, Libang, Kec. Lumbis, Kabupaten Nunukan, Kalimantan Utara 77457","Libang, Kec. Lumbis, Kabupaten Nunukan",KALIMANTAN UTARA,77457.0,Indonesia,,,,3.7577287,116.7384203,https://maps.google.com/?cid=0x0:0xafe044aaf49c23cd,
komplek housing,Pembangunan Perumahan,Desa Pulu Bulawan,"RMRP+G3Q, Sedongon, Kec. Lumbis, Kabupaten Nunukan, Kalimantan Utara 77457","Sedongon, Kec. Lumbis, Kabupaten Nunukan",KALIMANTAN UTARA,77457.0,Indonesia,,,,3.8413495,116.6852291,https://maps.google.com/?cid=0x0:0x5ed7e06c148d3497,
komplek housing,Dapur Umum,Kalimantan Utara,"3JJ5+97M, Linsayung, Lumbis Ogong, Kabupaten Nunukan, Kalimantan Utara","Kabupaten Nunukan, Kalimantan Utara",KALIMANTAN UTARA,,Indonesia,,,,4.0809649,116.6081653,https://maps.google.com/?cid=0x0:0xf9e703783a0aa459,
komplek housing,Pembangunan Perumahan,Desa sasibu,"49XG+PQ, Langgason, Lumbis Ogong, Kabupaten Nunukan, Kalimantan Utara","Kabupaten Nunukan, Kalimantan Utara",KALIMANTAN UTARA,,Indonesia,,,,4.149308,116.376973,https://maps.google.com/?cid=0x0:0xa06fae0c5949d033,
komplek housing,Perumahan,Desa Nainsid,"Kelompok Kalampising, Jln. Pembagunan, Desa Nainsid, Kec. Lumbis, Kabupaten Nunukan, Kalimantan Utara","Kabupaten Nunukan, Kalimantan Utara",KALIMANTAN UTARA,,Indonesia,,,,3.7486531,116.7512365,https://maps.google.com/?cid=0x0:0x1344e92d8dc70099,
komplek housing,Komplek perumahan,Desa Dabulon,"PPRJ+MJ, Dabulon, Kec. Lumbis, Kabupaten Nunukan, Kalimantan Utara","Kabupaten Nunukan, Kalimantan Utara",KALIMANTAN UTARA,,Indonesia,,,,3.741691,116.7328826,https://maps.google.com/?cid=0x0:0xe9262f5fc5b76952,
komplek housing,komplek housing,Rumah saya,"PPVJ+JR, Libang, Kec. Lumbis, Kabupaten Nunukan, Kalimantan Utara","Kabupaten Nunukan, Kalimantan Utara",KALIMANTAN UTARA,,Indonesia,,,,3.7440428,116.7321172,https://maps.google.com/?cid=0x0:0x69516b82136c8dc7,
komplek housing,Komplek perumahan,Rumah Pak Yunus,"PP67+2R, Libang, Kec. Lumbis, Kabupaten Nunukan, Kalimantan Utara","Kabupaten Nunukan, Kalimantan Utara",KALIMANTAN UTARA,,Indonesia,,,,3.7100717,116.7145356,https://maps.google.com/?cid=0x0:0xfc43de4e5f87b78,
komplek housing,Pembangunan Perumahan,Villa Moko,"PPXP+G5W, Libang, Kec. Lumbis, Kabupaten Nunukan, Kalimantan Utara 77457","Libang, Kec. Lumbis, Kabupaten Nunukan",KALIMANTAN UTARA,77457.0,Indonesia,,,,3.7488533,116.7354377,https://maps.google.com/?cid=0x0:0x59f1b9ad30dfc2a0,
komplek housing,Pembangunan Perumahan,Desa Tmabalang Hilir,"2FGM+4PF, Tambalang Hilir, Lumbis Ogong, Kabupaten Nunukan, Kalimantan Utara 77457","Tambalang Hilir, Lumbis Ogong, Kabupaten Nunukan",KALIMANTAN UTARA,77457.0,Indonesia,,,,4.0253045,116.4842982,https://maps.google.com/?cid=0x0:0xbe32777e22a623f1,
komplek housing,Komplek perumahan,rumah toy,"RP5Q+R4Q, Kalampising, Kec. Lumbis, Kabupaten Nunukan, Kalimantan Utara 77457","Kalampising, Kec. Lumbis, Kabupaten Nunukan",KALIMANTAN UTARA,77457.0,Indonesia,,,,3.8095834,116.7378585,https://maps.google.com/?cid=0x0:0xa3304fedfad0c339,
komplek housing,Pembangunan Perumahan,Rumah yampat,"QP6R+FP9, Libang, Kec. Lumbis, Kabupaten Nunukan, Kalimantan Utara","Kabupaten Nunukan, Kalimantan Utara",KALIMANTAN UTARA,,Indonesia,,,,3.7611534,116.7418709,https://maps.google.com/?cid=0x0:0xadff67e7d0729097,
komplek housing,Perhimpunan Pengembang Perumahan,Rumah marsela,"PQX3+79Q, Libang, Kec. Lumbis, Kabupaten Nunukan, Kalimantan Utara 77457","Libang, Kec. Lumbis, Kabupaten Nunukan",KALIMANTAN UTARA,77457.0,Indonesia,,,,3.7482109,116.7534823,https://maps.google.com/?cid=0x0:0xa97bb3906deaf37f,
komplek housing,Komplek perumahan,Keluarga Terhormat R.Lauma.Kohongia,"3JJ5+97M, Linsayung, Lumbis Ogong, Kabupaten Nunukan, Kalimantan Utara 77457","Linsayung, Lumbis Ogong, Kabupaten Nunukan",KALIMANTAN UTARA,77457.0,Indonesia,,,,4.0809649,116.6081653,https://maps.google.com/?cid=0x0:0xdfdd338a23aa1218,
komplek housing,Komplek perumahan,Pendasi ilyas,"3JJ5+97M, Linsayung, Lumbis Ogong, Kabupaten Nunukan, Kalimantan Utara","Kabupaten Nunukan, Kalimantan Utara",KALIMANTAN UTARA,,Indonesia,,,,4.0809649,116.6081653,https://maps.google.com/?cid=0x0:0xe21cbe8597bafae,
komplek housing,Perhimpunan Pengembang Perumahan,Desa piang,"RT 01, Liang","Kabupaten Nunukan, Kalimantan Utara",KALIMANTAN UTARA,,Indonesia,,,,3.9014218,116.6022684,https://maps.google.com/?cid=0x0:0x21bfd9fc547593ce,
komplek housing,Perhimpunan Pengembang Perumahan,Rahmatsyah,"QP3W+8W8, Mansalong, Libang, Kec. Lumbis, Kabupaten Nunukan, Kalimantan Utara 77457","Mansalong, Libang, Kec. Lumbis, Kabupaten Nunukan",KALIMANTAN UTARA,77457.0,Indonesia,,,,3.7532863,116.7473362,https://maps.google.com/?cid=0x0:0xc522dbde9419586d,
komplek housing,Komplek perumahan,Rumah suhardi,"QPFR+5CW, Libang, Kec. Lumbis, Kabupaten Nunukan, Kalimantan Utara 77457","Libang, Kec. Lumbis, Kabupaten Nunukan",KALIMANTAN UTARA,77457.0,Indonesia,,,,3.7730425,116.7395156,https://maps.google.com/?cid=0x0:0x51b917fa2b828188,
komplek housing,komplek housing,Lumbis Ogong,"Kabupaten Nunukan, Kalimantan Utara","Kabupaten Nunukan, Kalimantan Utara",KALIMANTAN UTARA,,Indonesia,,,,4.158316,116.5137964,https://maps.google.com/?cid=0x0:0x20a478a00ef5cc48,
komplek housing,Komplek perumahan,Eril putra,"RP5Q+R4Q, Kalampising, Kec. Lumbis, Kabupaten Nunukan, Kalimantan Utara 77457","Kalampising, Kec. Lumbis, Kabupaten Nunukan",KALIMANTAN UTARA,77457.0,Indonesia,,,,3.8095834,116.7378585,https://maps.google.com/?cid=0x0:0x5d7589cdee593262,
komplek housing,Komplek perumahan,Rumah cilan,"QQG9+X5, Liuk Bulu, Kec. Sembakung, Kabupaten Nunukan, Kalimantan Utara 77457","Liuk Bulu, Kec. Sembakung, Kabupaten Nunukan",KALIMANTAN UTARA,77457.0,Indonesia,,,,3.7774071,116.7679893,https://maps.google.com/?cid=0x0:0xc1e5c4fa2979561f,
komplek housing,Komplek perumahan,Rumah Toni,"QQFC+QQ9, Liuk Bulu, Kec. Sembakung, Kabupaten Nunukan, Kalimantan Utara 77457","Liuk Bulu, Kec. Sembakung, Kabupaten Nunukan",KALIMANTAN UTARA,77457.0,Indonesia,,,,3.7744038,116.7719902,https://maps.google.com/?cid=0x0:0xedbd307d046ad95c,
komplek housing,komplek housing,Nunukan,"Nunukan Tim., Kec. Nunukan, Kabupaten Nunukan, Kalimantan Timur","Kabupaten Nunukan, Kalimantan Timur",KALIMANTAN UTARA,,Indonesia,,,,4.1393382,117.6496257,https://maps.google.com/?cid=0x0:0xc3fd6e9667d03afd,
komplek housing,Komplek perumahan,Rumah ambo asse,"4JQX+PVC, Nunukan Tim., Kec. Nunukan, Kabupaten Nunukan, Kalimantan Utara","Kabupaten Nunukan, Kalimantan Utara",KALIMANTAN UTARA,,Indonesia,,,,4.1393225,117.649648,https://maps.google.com/?cid=0x0:0xb09a944ec52e4705,
komplek housing,komplek housing,Nunuhkniti,"4JQX+PVJ, Nunukan Tim., Kec. Nunukan, Kabupaten Nunukan, Kalimantan Timur","Kabupaten Nunukan, Kalimantan Timur",KALIMANTAN UTARA,,Indonesia,,,,4.1393382,117.6496257,https://maps.google.com/?cid=0x0:0x294d25d698817c1a,
komplek housing,Pembangunan Perumahan,Sutanto,"Jl. Sutanto No.79-100, Nunukan Tim., Kec. Nunukan, Kabupaten Nunukan, Kalimantan Utara 77482","Nunukan Tim., Kec. Nunukan, Kabupaten Nunukan",KALIMANTAN UTARA,77482.0,Indonesia,,,,4.1376083,117.6522165,https://maps.google.com/?cid=0x0:0xf026f2c1371e2c6c,
komplek housing,Perumahan,Griya antasari baru,"4JQX+PVC, Nunukan Tim., Kec. Nunukan, Kabupaten Nunukan, Kalimantan Utara","Kabupaten Nunukan, Kalimantan Utara",KALIMANTAN UTARA,,Indonesia,,,,4.1393225,117.649648,https://maps.google.com/?cid=0x0:0x1befb796faea1be6,
komplek housing,Pembangunan Perumahan,Sungay Patimah,"4JQX+PVC, Nunukan Tim., Kec. Nunukan, Kabupaten Nunukan, Kalimantan Utara","Kabupaten Nunukan, Kalimantan Utara",KALIMANTAN UTARA,,Indonesia,,,,4.1393225,117.649648,https://maps.google.com/?cid=0x0:0x52995c384eabb53f,
komplek housing,Komplek perumahan,Kos ank krayan,"4JQX+PVC, Nunukan Tim., Kec. Nunukan, Kabupaten Nunukan, Kalimantan Utara","Kabupaten Nunukan, Kalimantan Utara",KALIMANTAN UTARA,,Indonesia,,,,4.1393225,117.649648,https://maps.google.com/?cid=0x0:0xa7cef07ccf66e04a,
komplek housing,Komplek perumahan,Mama David,"4MQ2+5V9, Nunukan Tim., Kec. Nunukan, Kabupaten Nunukan, Kalimantan Utara","Kabupaten Nunukan, Kalimantan Utara",KALIMANTAN UTARA,,Indonesia,,,,4.1379204,117.6522399,https://maps.google.com/?cid=0x0:0xe74c6a80937e4a46,
komplek housing,Pembangunan Perumahan,Rumah nunukan,"Jl. Pattimura Samping Bandara Masuk Depan Masjid ada Belokan, masuk belokan rmh ke 3, Selisun, Nunukan Sel., Kabupaten Nunukan, Kalimantan Utara 77482","masuk belokan rmh ke 3, Selisun, Nunukan Sel., Kabupaten Nunukan",KALIMANTAN UTARA,77482.0,Indonesia,,,,4.1360188,117.6717231,https://maps.google.com/?cid=0x0:0x445ef4df9f7ba019,
komplek housing,Perumahan,Griya antasari baru,"4JQX+PVC, Nunukan Tim., Kec. Nunukan, Kabupaten Nunukan, Kalimantan Utara","Kabupaten Nunukan, Kalimantan Utara",KALIMANTAN UTARA,,Indonesia,,,,4.1393225,117.649648,https://maps.google.com/?cid=0x0:0x1befb796faea1be6,
komplek housing,Pembangunan Perumahan,PERUMAHAN GRIYA PERMAI,"3PM4+FW7, Jl. Ujang Dewa, Nunukan Sel., Kabupaten Nunukan, Kalimantan Utara 77482","Jl. Ujang Dewa, Nunukan Sel., Kabupaten Nunukan",KALIMANTAN UTARA,77482.0,Indonesia,,,,4.0836534,117.7073053,https://maps.google.com/?cid=0x0:0x9997c769846e437e,
komplek housing,komplek housing,Kalimantan Utara 77482,"Kabupaten Nunukan, Kalimantan Utara","Kabupaten Nunukan, Kalimantan Utara",KALIMANTAN UTARA,,Indonesia,,,,4.1377066,117.0794082,https://maps.google.com/?cid=0x0:0xe448c81886e99c56,
komplek housing,komplek housing,Bahar Family House,"Jl. Pesantren, Hidayatullah, Nunukan Sel., Kabupaten Nunukan, Kalimantan Utara 77482","Hidayatullah, Nunukan Sel., Kabupaten Nunukan",KALIMANTAN UTARA,77482.0,Indonesia,,,,4.1383841,117.6592401,https://maps.google.com/?cid=0x0:0x3fdfc4912864cf8a,
komplek housing,Komplek perumahan,Home Fam'G (Cake),"4M6F+9M, Selisun, Nunukan Sel., Kabupaten Nunukan, Kalimantan Utara","Kabupaten Nunukan, Kalimantan Utara",KALIMANTAN UTARA,,Indonesia,,,,4.1108976,117.6742337,https://maps.google.com/?cid=0x0:0x9bee4a3e90c31604,
komplek housing,Pembangunan Perumahan,AHMI,"Jl. Ujang Dewa, Nunukan Sel., Kabupaten Nunukan, Kalimantan Utara 77482","Nunukan Sel., Kabupaten Nunukan",KALIMANTAN UTARA,77482.0,Indonesia,,,,4.095904,117.7093062,https://maps.google.com/?cid=0x0:0xb2aec578d9a615f7,
komplek housing,Komplek perumahan,Jl. Wa Aka,"4M5V+9VG, Selisun, Nunukan Sel., Kabupaten Nunukan, Kalimantan Utara 77482","Selisun, Nunukan Sel., Kabupaten Nunukan",KALIMANTAN UTARA,77482.0,Indonesia,,,,4.1085777,117.6942164,https://maps.google.com/?cid=0x0:0x52154aec8937888a,
komplek housing,Komplek perumahan,Guder,"4MJC+35M, Selisun, Nunukan Sel., Kabupaten Nunukan, Kalimantan Utara","Kabupaten Nunukan, Kalimantan Utara",KALIMANTAN UTARA,,Indonesia,,,,4.1308574,117.6716983,https://maps.google.com/?cid=0x0:0xc365e8104d79b7e7,
komplek housing,Komplek perumahan,CINTAYANG HOUSE,"4M9Q+3H5, Jalan Imam Samaila, Selisun, Nunukan Sel., Kabupaten Nunukan, Kalimantan Utara 77482","Jalan Imam Samaila, Selisun, Nunukan Sel., Kabupaten Nunukan",KALIMANTAN UTARA,77482.0,Indonesia,,,,4.1176392,117.6889825,https://maps.google.com/?cid=0x0:0x9f3b99c1b4f0af5d,
komplek housing,Komplek perumahan,Rumah Bu Hj. Cici,"Gang Hikmah No.7, Nunukan Sel., Kabupaten Nunukan, Kalimantan Utara","Kabupaten Nunukan, Kalimantan Utara",KALIMANTAN UTARA,,Indonesia,,,,4.0820269,117.7137036,https://maps.google.com/?cid=0x0:0x6055b504ed0bbb18,
komplek housing,Komplek perumahan,Rumah condeng,"3PMF+F94, Nunukan Sel., Kabupaten Nunukan, Kalimantan Utara 77482","Nunukan Sel., Kabupaten Nunukan",KALIMANTAN UTARA,77482.0,Indonesia,,,,4.0836383,117.7234637,https://maps.google.com/?cid=0x0:0xc677227eae5d2545,
komplek housing,Komplek perumahan,Rumah ku,"4MFP+J29, Selisun, Nunukan Sel., Kabupaten Nunukan, Kalimantan Utara 77482","Selisun, Nunukan Sel., Kabupaten Nunukan",KALIMANTAN UTARA,77482.0,Indonesia,,,,4.1247355,117.685399,https://maps.google.com/?cid=0x0:0xf4ac0b6b5de69d1,
komplek housing,Komplek perumahan,Jasmin,"4M8H+55, Selisun, Nunukan Sel., Kabupaten Nunukan, Kalimantan Utara 77482","Selisun, Nunukan Sel., Kabupaten Nunukan",KALIMANTAN UTARA,77482.0,Indonesia,,,,4.1154811,117.677975,https://maps.google.com/?cid=0x0:0xcda47705627379de,
komplek housing,Pembangunan Perumahan,Ali Home,"Jl. Ujang Dewa No.RT 008, RT.001, Nunukan Sel., Kabupaten Nunukan, Kalimantan Utara 77411","RT.001, Nunukan Sel., Kabupaten Nunukan",KALIMANTAN UTARA,77411.0,Indonesia,,,,4.104017,117.6974643,https://maps.google.com/?cid=0x0:0x5e97b100916c0584,
komplek housing,Komplek perumahan,Mardati Muthia Home,"3PR4+3R3, Nunukan Sel., Kabupaten Nunukan, Kalimantan Utara","Kabupaten Nunukan, Kalimantan Utara",KALIMANTAN UTARA,,Indonesia,,,,4.0904459,117.7066944,https://maps.google.com/?cid=0x0:0x2b2b96525c66528b,
komplek housing,Perhimpunan Pengembang Perumahan,Mansapa,"3P7V+7RM, Mansapa, Nunukan Sel., Kabupaten Nunukan, Kalimantan Utara 77482","Mansapa, Nunukan Sel., Kabupaten Nunukan",KALIMANTAN UTARA,77482.0,Indonesia,,,,4.0632144,117.7445419,https://maps.google.com/?cid=0x0:0x99183d15f282611a,
komplek housing,Komplek perumahan,Rumah kuchh,"4M8P+H4, Selisun, Nunukan Sel., Kabupaten Nunukan, Kalimantan Utara","Kabupaten Nunukan, Kalimantan Utara",KALIMANTAN UTARA,,Indonesia,,,,4.1165028,117.6852982,https://maps.google.com/?cid=0x0:0xfe784c0b5620ac8e,
komplek housing,Pembangunan Perumahan,Subchansyah,"3PM3+HC, Nunukan Sel., Kabupaten Nunukan, Kalimantan Utara 77482","Nunukan Sel., Kabupaten Nunukan",KALIMANTAN UTARA,77482.0,Indonesia,,,,4.0831484,117.7037517,https://maps.google.com/?cid=0x0:0x5d01951a668323a5,
komplek housing,Komplek perumahan,Pondok Oyen,"3PR4+8V3, Jl. Ujang Dewa, Nunukan Sel., Kabupaten Nunukan, Kalimantan Utara 77482","Jl. Ujang Dewa, Nunukan Sel., Kabupaten Nunukan",KALIMANTAN UTARA,77482.0,Indonesia,,,,4.0907546,117.7071628,https://maps.google.com/?cid=0x0:0x3b854d2a4bd95bbd,
komplek housing,komplek housing,Home Irwan,"3PR4+6WJ, Nunukan Sel., Kabupaten Nunukan, Kalimantan Utara 77482","Nunukan Sel., Kabupaten Nunukan",KALIMANTAN UTARA,77482.0,Indonesia,,,,4.0905837,117.707256,https://maps.google.com/?cid=0x0:0x420b194f4c9c43b5,
komplek housing,komplek housing,Kurniawan Hendarto,"4M6F+9M, Selisun, Nunukan Sel., Kabupaten Nunukan, Kalimantan Utara","Kabupaten Nunukan, Kalimantan Utara",KALIMANTAN UTARA,,Indonesia,,,,4.1115028,117.6749612,https://maps.google.com/?cid=0x0:0xd73f753a06b68b02,
komplek housing,Perhimpunan Pengembang Perumahan,Kantor Operasional Kelapa PANDAWA,"Nunukan Sel., Kabupaten Nunukan, Kalimantan Utara","Kabupaten Nunukan, Kalimantan Utara",KALIMANTAN UTARA,,Indonesia,82352234608.0,,,4.1002749,117.6986247,https://maps.google.com/?cid=0x0:0x516125b2b9424de1,
komplek housing,komplek housing,Nunukan Sel.,"Kabupaten Nunukan, Kalimantan Utara","Kabupaten Nunukan, Kalimantan Utara",KALIMANTAN UTARA,,Indonesia,,,,4.0591834,117.7138785,https://maps.google.com/?cid=0x0:0x387c6400b26993a1,
komplek housing,komplek housing,Kediaman Bahar,"4MGJ+347 Hidayatullah, Jl. Pesantren, Selisun, Nunukan Sel., Kabupaten Nunukan, Kalimantan Utara 77482","Jl. Pesantren, Selisun, Nunukan Sel., Kabupaten Nunukan",KALIMANTAN UTARA,77482.0,Indonesia,,,,4.1251331,117.6801908,https://maps.google.com/?cid=0x0:0x86f797751a4599d,
komplek housing,Komplek perumahan,Oline and her home,"4MC4+CWW, Jl. Pongtiku, Nunukan Tengah, Kec. Nunukan, Kabupaten Nunukan, Kalimantan Utara 77482","Jl. Pongtiku, Nunukan Tengah, Kec. Nunukan, Kabupaten Nunukan",KALIMANTAN UTARA,77482.0,Indonesia,,,,4.1211249,117.65733,https://maps.google.com/?cid=0x0:0xa76f93b1815a3e57,
komplek housing,Pembangunan Perumahan,Home surya,"4JHV+37W, Nunukan Island, Kec. Nunukan, Kabupaten Nunukan, Kalimantan Utara 77482","Nunukan Island, Kec. Nunukan, Kabupaten Nunukan",KALIMANTAN UTARA,77482.0,Indonesia,,,,4.1275823,117.6431031,https://maps.google.com/?cid=0x0:0x8e2337c7b14bc2e9,
komplek housing,Otoritas Perumahan,Alby Grape's,"Perumahan GSP, Nunukan Sel., Kabupaten Nunukan, Kalimantan Utara 77482","Nunukan Sel., Kabupaten Nunukan",KALIMANTAN UTARA,77482.0,Indonesia,,,,4.0842691,117.7064257,https://maps.google.com/?cid=0x0:0x104dd4d35ac2cdc4,
komplek housing,Komplek perumahan,Rumahku,"Jl. Pattimura No.68, Nunukan Tim., Kec. Nunukan, Kabupaten Nunukan, Kalimantan Utara 77482","Nunukan Tim., Kec. Nunukan, Kabupaten Nunukan",KALIMANTAN UTARA,77482.0,Indonesia,,,,4.1421756,117.6574641,https://maps.google.com/?cid=0x0:0x7802fee86186984f,
komplek housing,Komplek perumahan,Home Rafathar,"4MGJ+GRM, Selisun, Nunukan Sel., Kabupaten Nunukan, Kalimantan Utara 77482","Selisun, Nunukan Sel., Kabupaten Nunukan",KALIMANTAN UTARA,77482.0,Indonesia,,,,4.1271268,117.6822833,https://maps.google.com/?cid=0x0:0x66f77a700b42aeb9,
komplek housing,komplek housing,Kalimantan Utara 77483,"Kabupaten Nunukan, Kalimantan Utara","Kabupaten Nunukan, Kalimantan Utara",KALIMANTAN UTARA,,Indonesia,,,,4.1288838,117.8076959,https://maps.google.com/?cid=0x0:0x196bc50d99899ad,
komplek housing,Rumah Sakit,Perumahan Dinas RS Pratama Sebatik,"3W58+22P, Tj. Karang, Kec. Sebatik, Kabupaten Nunukan, Kalimantan Utara 77483","Tj. Karang, Kec. Sebatik, Kabupaten Nunukan",KALIMANTAN UTARA,77483.0,Indonesia,,,,4.0575866,117.9150842,https://maps.google.com/?cid=0x0:0xab5aafe578f2984e,
komplek housing,Perhimpunan Pengembang Perumahan,Perumahan PKM Sei. Taiwan,"Jln. Lujoh No.RT.05, Desa Sei. Manurung, Kec. Sebatik, Kabupaten Nunukan, Kalimantan Utara 77484","Desa Sei. Manurung, Kec. Sebatik, Kabupaten Nunukan",KALIMANTAN UTARA,77484.0,Indonesia,,,,4.0704425,117.9067632,https://maps.google.com/?cid=0x0:0xed6420c36944cd70,
komplek housing,Komplek perumahan,Rumah Ice Cream Sebatik,"4WF9+QVX, Sungai Nyamuk, Kec. Sebatik, Kabupaten Nunukan, Kalimantan Utara 77483","Sungai Nyamuk, Kec. Sebatik, Kabupaten Nunukan",KALIMANTAN UTARA,77483.0,Indonesia,,,,4.1247532,117.9198026,https://maps.google.com/?cid=0x0:0xc208c6db32ec9e48,
komplek housing,Pembangunan Perumahan,D'LABUHANFAMILY,"5W33+5WR, Jalan Pantai, Pancang, Kec. Sebatik, Kabupaten Nunukan, Kalimantan Utara 77483","Jalan Pantai, Pancang, Kec. Sebatik, Kabupaten Nunukan",KALIMANTAN UTARA,77483.0,Indonesia,,,,4.1533181,117.904568,https://maps.google.com/?cid=0x0:0x9606ad88ada4b140,
komplek housing,Komplek perumahan,Moh. Sahir,"4WG9+57C, Belakang pasar, kampung baru, Sebatik Timur, Nunukan Regency, North Kalimantan","Kabupaten Nunukan, Kalimantan Utara",KALIMANTAN UTARA,,Indonesia,,,,4.1254367,117.9181306,https://maps.google.com/?cid=0x0:0x1b4b61db8964f1ae,
komplek housing,komplek housing,Nur Aisyah,"3QWV+663, Setabu, Kec. Sebatik Bar., Kabupaten Nunukan, Kalimantan Utara","Kabupaten Nunukan, Kalimantan Utara",KALIMANTAN UTARA,,Indonesia,,,,4.0955087,117.7930381,https://maps.google.com/?cid=0x0:0x5c44af33184d137e,
komplek housing,Pembangunan Perumahan,Home Dg.Pabetta/Abd.Haring,"4WC9+VRQ Rumah Panggung Warna Hijau, Jl. Diponegoro, BAI, Kec. Sebatik Timur, Kabupaten Nunukan, Kalimantan Utara","Kabupaten Nunukan, Kalimantan Utara",KALIMANTAN UTARA,,Indonesia,,,,4.1222149,117.9196102,https://maps.google.com/?cid=0x0:0x8794d4f597a76810,
komplek housing,Komplek perumahan,Rumah keluarga Bahri Sitti,"4WV6+J29, Jl. Ahmad Yani, Sungai Nyamuk, Kec. Sebatik, Kabupaten Nunukan, Kalimantan Utara 77483","Jl. Ahmad Yani, Sungai Nyamuk, Kec. Sebatik, Kabupaten Nunukan",KALIMANTAN UTARA,77483.0,Indonesia,,,,4.1444579,117.9099844,https://maps.google.com/?cid=0x0:0x6c64c1a4a178ae8,
komplek housing,Komplek perumahan,JL.PETTA CENNING,"3R6H+3F8, Jl. Lkr. Pulau Sebatik, Setabu, Kec. Sebatik Bar., Kabupaten Nunukan, Kalimantan Utara 77483","Jl. Lkr. Pulau Sebatik, Setabu, Kec. Sebatik Bar., Kabupaten Nunukan",KALIMANTAN UTARA,77483.0,Indonesia,,,,4.0601674,117.8287175,https://maps.google.com/?cid=0x0:0xa90643ba1faf841,
komplek housing,Perhimpunan Pengembang Perumahan,üè†amirakuu,"3W6F+842, Tj. Karang, Kec. Sebatik, Kabupaten Nunukan, Kalimantan Utara 77483","Tj. Karang, Kec. Sebatik, Kabupaten Nunukan",KALIMANTAN UTARA,77483.0,Indonesia,,,,4.0607578,117.9227592,https://maps.google.com/?cid=0x0:0x2844420c3361a649,
komplek housing,Komplek perumahan,Rumah kembar,"4WR8+2QX, Jl. Bhayangkara, Sungai Nyamuk, Kec. Sebatik Timur, Kabupaten Nunukan, Kalimantan Utara 77483","Jl. Bhayangkara, Sungai Nyamuk, Kec. Sebatik Timur, Kabupaten Nunukan",KALIMANTAN UTARA,77483.0,Indonesia,,,,4.1399221,117.9172083,https://maps.google.com/?cid=0x0:0x1d87a3a874cf63ee,
komplek housing,Komplek perumahan,Rumah saury,"Jl. Ahmad Yani No.14, Sungai Nyamuk, Kec. Sebatik Timur, Kabupaten Nunukan, Kalimantan Utara 77483","Sungai Nyamuk, Kec. Sebatik Timur, Kabupaten Nunukan",KALIMANTAN UTARA,77483.0,Indonesia,,,,4.1464379,117.9093678,https://maps.google.com/?cid=0x0:0xb12ef036458b4586,
komplek housing,Pembangunan Perumahan,ERTIGA SEBATIK,"3QW8+8JP, Binalawan, Kabupaten Nunukan, Kalimantan Utara 77483","Binalawan, Kabupaten Nunukan",KALIMANTAN UTARA,77483.0,Indonesia,,,,4.0962501,117.7663809,https://maps.google.com/?cid=0x0:0x90207580e2df9667,
komplek housing,Komplek perumahan,Rumah Erni dan Arifin,"4PWC+5R, Liang Bunyu, Kec. Sebatik Bar., Kabupaten Nunukan, Kalimantan Timur","Kabupaten Nunukan, Kalimantan Timur",KALIMANTAN UTARA,,Indonesia,,,,4.1454481,117.7220836,https://maps.google.com/?cid=0x0:0x3c8f11534ee70087,
komplek housing,Komplek perumahan,( KANSAS _area ),"4Q87+MC5, Liang Bunyu, Kec. Sebatik Bar., Kabupaten Nunukan, Kalimantan Utara 77483","Liang Bunyu, Kec. Sebatik Bar., Kabupaten Nunukan",KALIMANTAN UTARA,77483.0,Indonesia,,,,4.1166341,117.7635983,https://maps.google.com/?cid=0x0:0x783a785248e62d0a,
komplek housing,Komplek perumahan,Pemondokan Kafilah Sebatik Barat (Ibu Sukana (alm) ),"3W7C+VGH, Tj. Karang, Kec. Sebatik, Kabupaten Nunukan, Kalimantan Utara 77483","Tj. Karang, Kec. Sebatik, Kabupaten Nunukan",KALIMANTAN UTARA,77483.0,Indonesia,,,,4.0646976,117.9213471,https://maps.google.com/?cid=0x0:0xa2414d1c4694d3df,
komplek housing,Komplek perumahan,Pemondokan Kafilah Sebatik Tengah,"Jl. Lkr. Pulau Sebatik No.Desa, Padaidi, Kec. Sebatik, Kabupaten Nunukan, Kalimantan Utara 77483","Padaidi, Kec. Sebatik, Kabupaten Nunukan",KALIMANTAN UTARA,77483.0,Indonesia,,,,4.0926297,117.9138372,https://maps.google.com/?cid=0x0:0xd72649496533cbb2,
komplek housing,Komplek perumahan,Suharti's home,"4WH4+FRH, Sungai Nyamuk, Kec. Sebatik Timur, Kabupaten Nunukan, Kalimantan Utara 77483","Sungai Nyamuk, Kec. Sebatik Timur, Kabupaten Nunukan",KALIMANTAN UTARA,77483.0,Indonesia,,,,4.1286892,117.9071208,https://maps.google.com/?cid=0x0:0x3ae15908bf2f5bd4,
komplek housing,Komplek perumahan,Pemondokan Kafilah Sebatik Utara (H. Abigurdi),"3WV6+P3R, Tj. Aru, Kec. Sebatik, Kabupaten Nunukan, Kalimantan Utara 77483","Tj. Aru, Kec. Sebatik, Kabupaten Nunukan",KALIMANTAN UTARA,77483.0,Indonesia,,,,4.0942925,117.9099399,https://maps.google.com/?cid=0x0:0x66eb3528cfb548ed,
komplek housing,Komplek perumahan,Rumah Sakit Sebatik,"3W57+7Q5, Tj. Karang, Kec. Sebatik, Kabupaten Nunukan, Kalimantan Utara 77483","Tj. Karang, Kec. Sebatik, Kabupaten Nunukan",KALIMANTAN UTARA,77483.0,Indonesia,,,,4.0581469,117.9144766,https://maps.google.com/?cid=0x0:0xe46ed7b202b2f2ea,
komplek housing,Komplek perumahan,Pemondokan Sebatik Timur,"4W27+969, Jl. Lkr. Pulau Sebatik, Padaidi, Kec. Sebatik Timur, Kabupaten Nunukan, Kalimantan Utara 77483","Jl. Lkr. Pulau Sebatik, Padaidi, Kec. Sebatik Timur, Kabupaten Nunukan",KALIMANTAN UTARA,77483.0,Indonesia,,,,4.1009179,117.9131126,https://maps.google.com/?cid=0x0:0x3afc0ae01acdd2f0,
komplek housing,Komplek perumahan,Kediamana Usman,"3R99+92V, Setabu, Kec. Sebatik Bar., Kabupaten Nunukan, Kalimantan Utara 77483","Setabu, Kec. Sebatik Bar., Kabupaten Nunukan",KALIMANTAN UTARA,77483.0,Indonesia,,,,4.0680734,117.8170489,https://maps.google.com/?cid=0x0:0xc3ef820064614946,
komplek housing,Pembangunan Perumahan,RUMDIS KECAMATAN SEBATIK BARAT,"3RV5+4QH, Setabu, Kec. Sebatik Bar., Kabupaten Nunukan, Kalimantan Utara 77483","Setabu, Kec. Sebatik Bar., Kabupaten Nunukan",KALIMANTAN UTARA,77483.0,Indonesia,,,,4.0928025,117.8094915,https://maps.google.com/?cid=0x0:0x9f57af5a1e0f1490,
komplek housing,Komplek perumahan,Lea,"4WP9+GXV, Jl. Bhayangkara, Sungai Nyamuk, Kec. Sebatik Timur, Kabupaten Nunukan, Kalimantan Utara 77483","Jl. Bhayangkara, Sungai Nyamuk, Kec. Sebatik Timur, Kabupaten Nunukan",KALIMANTAN UTARA,77483.0,Indonesia,,,,4.1363594,117.9199277,https://maps.google.com/?cid=0x0:0xc8dc6b5ac0a906f3,
komplek housing,Komplek perumahan,Rumah zhy,"Jln. Hb.Rahim, Rt 009 Sei Pancang, Sebatik Utara, Pancang, Lumbis Ogong, Kabupaten Nunukan, Kalimantan Utara 77483","Rt 009 Sei Pancang, Sebatik Utara, Pancang, Lumbis Ogong, Kabupaten Nunukan",KALIMANTAN UTARA,77483.0,Indonesia,,,,4.1568637,117.9001303,https://maps.google.com/?cid=0x0:0x92011802008a0c48,
komplek housing,Pembangunan Perumahan,Rumah Abah Jumain,"3QRQ+78R, Setabu, Kec. Sebatik Bar., Kabupaten Nunukan, Kalimantan Utara 77483","Setabu, Kec. Sebatik Bar., Kabupaten Nunukan",KALIMANTAN UTARA,77483.0,Indonesia,,,,4.0907473,117.7882749,https://maps.google.com/?cid=0x0:0x36e70a9b4bf2f645,
komplek housing,Komplek perumahan,Rumahku,"4WH4+FRH, Sungai Nyamuk, Kec. Sebatik Timur, Kabupaten Nunukan, Kalimantan Utara 77483","Sungai Nyamuk, Kec. Sebatik Timur, Kabupaten Nunukan",KALIMANTAN UTARA,77483.0,Indonesia,,,,4.1283892,117.9071084,https://maps.google.com/?cid=0x0:0x1ab2cf931f7e61da,
komplek housing,komplek housing,Kec. Sebatik Bar.,"Kabupaten Nunukan, Kalimantan Utara","Kabupaten Nunukan, Kalimantan Utara",KALIMANTAN UTARA,,Indonesia,,,,4.0915863,117.7869756,https://maps.google.com/?cid=0x0:0x568a0785aa87a25d,
komplek housing,komplek housing,Nur Aisyah,"3QWV+663, Setabu, Kec. Sebatik Bar., Kabupaten Nunukan, Kalimantan Utara","Kabupaten Nunukan, Kalimantan Utara",KALIMANTAN UTARA,,Indonesia,,,,4.0955087,117.7930381,https://maps.google.com/?cid=0x0:0x5c44af33184d137e,
komplek housing,Komplek perumahan,JL.PETTA CENNING,"3R6H+3F8, Jl. Lkr. Pulau Sebatik, Setabu, Kec. Sebatik Bar., Kabupaten Nunukan, Kalimantan Utara 77483","Jl. Lkr. Pulau Sebatik, Setabu, Kec. Sebatik Bar., Kabupaten Nunukan",KALIMANTAN UTARA,77483.0,Indonesia,,,,4.0601674,117.8287175,https://maps.google.com/?cid=0x0:0xa90643ba1faf841,
komplek housing,Komplek perumahan,( KANSAS _area ),"4Q87+MC5, Liang Bunyu, Kec. Sebatik Bar., Kabupaten Nunukan, Kalimantan Utara 77483","Liang Bunyu, Kec. Sebatik Bar., Kabupaten Nunukan",KALIMANTAN UTARA,77483.0,Indonesia,,,,4.1166341,117.7635983,https://maps.google.com/?cid=0x0:0x783a785248e62d0a,
komplek housing,Komplek perumahan,Rumah Erni dan Arifin,"4PWC+5R, Liang Bunyu, Kec. Sebatik Bar., Kabupaten Nunukan, Kalimantan Timur","Kabupaten Nunukan, Kalimantan Timur",KALIMANTAN UTARA,,Indonesia,,,,4.1454481,117.7220836,https://maps.google.com/?cid=0x0:0x3c8f11534ee70087,
komplek housing,Komplek perumahan,Kediamana Usman,"3R99+92V, Setabu, Kec. Sebatik Bar., Kabupaten Nunukan, Kalimantan Utara 77483","Setabu, Kec. Sebatik Bar., Kabupaten Nunukan",KALIMANTAN UTARA,77483.0,Indonesia,,,,4.0680734,117.8170489,https://maps.google.com/?cid=0x0:0xc3ef820064614946,
komplek housing,Pembangunan Perumahan,ERTIGA SEBATIK,"3QW8+8JP, Binalawan, Kabupaten Nunukan, Kalimantan Utara 77483","Binalawan, Kabupaten Nunukan",KALIMANTAN UTARA,77483.0,Indonesia,,,,4.0962501,117.7663809,https://maps.google.com/?cid=0x0:0x90207580e2df9667,
komplek housing,Pembangunan Perumahan,Rumah Abah Jumain,"3QRQ+78R, Setabu, Kec. Sebatik Bar., Kabupaten Nunukan, Kalimantan Utara 77483","Setabu, Kec. Sebatik Bar., Kabupaten Nunukan",KALIMANTAN UTARA,77483.0,Indonesia,,,,4.0907473,117.7882749,https://maps.google.com/?cid=0x0:0x36e70a9b4bf2f645,
komplek housing,Pembangunan Perumahan,Kompi markas,"3RG5+9VQ, Setabu, Kec. Sebatik Bar., Kabupaten Nunukan, Kalimantan Utara 77483","Setabu, Kec. Sebatik Bar., Kabupaten Nunukan",KALIMANTAN UTARA,77483.0,Indonesia,,,,4.07597,117.8097432,https://maps.google.com/?cid=0x0:0xb9d5b345fcf82af6,
komplek housing,Komplek perumahan,Rumah PETRUS,"Jl H.Bakri No.08, RT.04, Sungai Nyamuk, Kec. Sebatik Timur, Kabupaten Nunukan, Kalimantan Utara 77483","RT.04, Sungai Nyamuk, Kec. Sebatik Timur, Kabupaten Nunukan",KALIMANTAN UTARA,77483.0,Indonesia,,,,4.1175121,117.8663075,https://maps.google.com/?cid=0x0:0x88b2a70724c1f0dc,
komplek housing,komplek housing,R.zubaidah,"4P5X+2W8, RT.5, Liang Bunyu, Kec. Sebatik Bar., 77483","RT.5, Liang Bunyu",KALIMANTAN UTARA,77483.0,Indonesia,,,,4.1066981,117.7496151,https://maps.google.com/?cid=0x0:0x5a7fa341691615f7,
komplek housing,Komplek perumahan,Rumah mdr.yusup,"Jl bukit keramat No.RT 007, Desa Bambangan, Kec. Sebatik Bar., Kabupaten Nunukan, Kalimantan Timur 77483","Desa Bambangan, Kec. Sebatik Bar., Kabupaten Nunukan",KALIMANTAN UTARA,77483.0,Indonesia,,,,4.1599817,117.7516097,https://maps.google.com/?cid=0x0:0x8f9f8552936a580e,
komplek housing,Pembangunan Perumahan,PONDOK CANGKOME,"3RP7+XCV, Setabu, Kec. Sebatik Bar., Kabupaten Nunukan, Kalimantan Utara 77483","Setabu, Kec. Sebatik Bar., Kabupaten Nunukan",KALIMANTAN UTARA,77483.0,Indonesia,,,,4.0874828,117.8135579,https://maps.google.com/?cid=0x0:0x5eef0c135d943b8b,
komplek housing,komplek housing,Basecamp Amrye,"5P54+F7R, Liang Bunyu, Kec. Sebatik Bar., Kabupaten Nunukan, Kalimantan Timur 77483","Liang Bunyu, Kec. Sebatik Bar., Kabupaten Nunukan",KALIMANTAN UTARA,77483.0,Indonesia,,,,4.158739,117.705645,https://maps.google.com/?cid=0x0:0x41f0625a4e2d4ac2,
komplek housing,Gedung Apartemen,Rumah bode,"3QRC+5XM, Jl. Dermaga Liang Bunyu, Binalawan, Kec. Sebatik Bar., Kabupaten Nunukan, Kalimantan Utara 77483","Jl. Dermaga Liang Bunyu, Binalawan, Kec. Sebatik Bar., Kabupaten Nunukan",KALIMANTAN UTARA,77483.0,Indonesia,,,,4.0905067,117.7724321,https://maps.google.com/?cid=0x0:0x2cb90712273f8b1e,
komplek housing,Komplek perumahan,RAJAK SCUAD,"5P54+2HC, Liang Bunyu, Kec. Sebatik Bar., Kabupaten Nunukan, Kalimantan Utara 77483","Liang Bunyu, Kec. Sebatik Bar., Kabupaten Nunukan",KALIMANTAN UTARA,77483.0,Indonesia,,,,4.1575526,117.7063913,https://maps.google.com/?cid=0x0:0x7289a2cd0ef3909f,
komplek housing,Komplek perumahan,Rumah cemmondeng,"3QWF+6G5, Binalawan, Kec. Sebatik Bar., Kabupaten Nunukan, Kalimantan Utara 77483","Binalawan, Kec. Sebatik Bar., Kabupaten Nunukan",KALIMANTAN UTARA,77483.0,Indonesia,,,,4.095911,117.7742432,https://maps.google.com/?cid=0x0:0xc10d23a53bfa2484,
komplek housing,Komplek perumahan,Rumah Hairuddin,"4PJM+JWF, RT.01, Liang Bunyu, Kec. Sebatik Bar., Kabupaten Nunukan, Kalimantan Utara 77483","RT.01, Liang Bunyu, Kec. Sebatik Bar., Kabupaten Nunukan",KALIMANTAN UTARA,77483.0,Indonesia,,,,4.1315664,117.7347899,https://maps.google.com/?cid=0x0:0xf53982d553523e06,
komplek housing,Perhimpunan Pengembang Perumahan,Sumur Kampung Enrekang,"4Q2M+RFR, Binalawan, Kec. Sebatik Bar., Kabupaten Nunukan, Kalimantan Utara 77483","Binalawan, Kec. Sebatik Bar., Kabupaten Nunukan",KALIMANTAN UTARA,77483.0,Indonesia,,,,4.1021051,117.7836322,https://maps.google.com/?cid=0x0:0x63c6e15790196386,
komplek housing,Pembangunan Perumahan,Rumah kasman,"4Q86+C5, Liang Bunyu, Kec. Sebatik Bar., Kabupaten Nunukan, Kalimantan Utara 77483","Liang Bunyu, Kec. Sebatik Bar., Kabupaten Nunukan",KALIMANTAN UTARA,77483.0,Indonesia,,,,4.1168347,117.7608097,https://maps.google.com/?cid=0x0:0xa8e6056b9ad3736f,
komplek housing,Komplek perumahan,Kristina klobong,"5Q64+5C2, Jalan Bukit Keramat, Liang Bunyu, Kec. Sebatik Bar., Kabupaten Nunukan, Kalimantan Utara 77483","Jalan Bukit Keramat, Liang Bunyu, Kec. Sebatik Bar., Kabupaten Nunukan",KALIMANTAN UTARA,77483.0,Indonesia,,,,4.1614462,117.7564499,https://maps.google.com/?cid=0x0:0x682692a379ba2caa,
komplek housing,Masjid,Masjid Nurul iman,"Jl. Lkr. Pulau Sebatik, Setabu, Kec. Sebatik Bar., Kabupaten Nunukan, Kalimantan Utara","Kabupaten Nunukan, Kalimantan Utara",KALIMANTAN UTARA,,Indonesia,,,,4.0823936,117.8098092,https://maps.google.com/?cid=0x0:0x7a189d14f1938860,
komplek housing,Pembangunan Perumahan,Binalawan,"3QRP+JQQ, Setabu, Kec. Sebatik Bar., Kabupaten Nunukan, Kalimantan Utara 77483","Setabu, Kec. Sebatik Bar., Kabupaten Nunukan",KALIMANTAN UTARA,77483.0,Indonesia,,,,4.0915863,117.7869756,https://maps.google.com/?cid=0x0:0x4916da31bf44092,
komplek housing,Kompleks Kondominium,Rumah pak khairul,"5P33+34Q, Kec. Sebatik Bar., Kabupaten Nunukan, Kalimantan Utara 77483","Kec. Sebatik Bar., Kabupaten Nunukan",KALIMANTAN UTARA,77483.0,Indonesia,,,,4.1535515,117.7029226,https://maps.google.com/?cid=0x0:0x819d6e16a17cf1be,
komplek housing,Komplek perumahan,Rumahnya Asis Heni,"5P33+5M8, Bambangan, Kec. Sebatik Bar., Kabupaten Nunukan, Kalimantan Utara 77483","Bambangan, Kec. Sebatik Bar., Kabupaten Nunukan",KALIMANTAN UTARA,77483.0,Indonesia,,,,4.1528583,117.7046348,https://maps.google.com/?cid=0x0:0x176ac3ee425c7cf9,
komplek housing,komplek housing,RUMAH AMBOTANG,"3RP7+XCV, Setabu, Kec. Sebatik Bar., Kabupaten Nunukan, Kalimantan Utara 77483","Setabu, Kec. Sebatik Bar., Kabupaten Nunukan",KALIMANTAN UTARA,77483.0,Indonesia,,,,4.0874828,117.8135579,https://maps.google.com/?cid=0x0:0x6a845dbe3a9ec8bd,
komplek housing,Komplek perumahan,Rumah bujang,"5P33+9MG, Liang Bunyu, Kec. Sebatik Bar., Kabupaten Nunukan, Kalimantan Utara 77483","Liang Bunyu, Kec. Sebatik Bar., Kabupaten Nunukan",KALIMANTAN UTARA,77483.0,Indonesia,,,,4.1531364,117.7054775,https://maps.google.com/?cid=0x0:0xe3cfd5945a17956a,
komplek housing,komplek housing,Kec. Sebatik Tengah,"Aji Kuning, Kabupaten Nunukan, Kalimantan Utara","Kabupaten Nunukan, Kalimantan Utara",KALIMANTAN UTARA,,Indonesia,,,,4.1551007,117.7860818,https://maps.google.com/?cid=0x0:0xb6cdfa4159ca968c,
komplek housing,Komplek perumahan,M.Noor,"4RHX+6CM, Aji Kuning, Kec. Sebatik Tengah, Kabupaten Nunukan, Kalimantan Utara 77483","Aji Kuning, Kec. Sebatik Tengah, Kabupaten Nunukan",KALIMANTAN UTARA,77483.0,Indonesia,,,,4.1284474,117.8485353,https://maps.google.com/?cid=0x0:0xdde29956c9ab4fb0,
komplek housing,Komplek perumahan,Rumah PETRUS,"Jl H.Bakri No.08, RT.04, Sungai Nyamuk, Kec. Sebatik Timur, Kabupaten Nunukan, Kalimantan Utara 77483","RT.04, Sungai Nyamuk, Kec. Sebatik Timur, Kabupaten Nunukan",KALIMANTAN UTARA,77483.0,Indonesia,,,,4.1175121,117.8663075,https://maps.google.com/?cid=0x0:0x88b2a70724c1f0dc,
komplek housing,Komplek perumahan,Rumah Gemoy,"4VC3+GQ, Sungai Nyamuk, Kec. Sebatik Timur, Kabupaten Nunukan, Kalimantan Utara","Kabupaten Nunukan, Kalimantan Utara",KALIMANTAN UTARA,,Indonesia,,,,4.1212463,117.8544105,https://maps.google.com/?cid=0x0:0xe0532e8e929c8582,
komplek housing,Komplek perumahan,Tajjo,"4RQG+RQ, Aji Kuning, Kec. Sebatik Tengah, Kabupaten Nunukan, Kalimantan Timur","Kabupaten Nunukan, Kalimantan Timur",KALIMANTAN UTARA,,Indonesia,,,,4.1394903,117.826939,https://maps.google.com/?cid=0x0:0x3882176090c176b3,
komplek housing,Komplek perumahan,Kristina klobong,"5Q64+5C2, Jalan Bukit Keramat, Liang Bunyu, Kec. Sebatik Bar., Kabupaten Nunukan, Kalimantan Utara 77483","Jalan Bukit Keramat, Liang Bunyu, Kec. Sebatik Bar., Kabupaten Nunukan",KALIMANTAN UTARA,77483.0,Indonesia,,,,4.1614462,117.7564499,https://maps.google.com/?cid=0x0:0x682692a379ba2caa,
komplek housing,komplek housing,Nur Aisyah,"3QWV+663, Setabu, Kec. Sebatik Bar., Kabupaten Nunukan, Kalimantan Utara","Kabupaten Nunukan, Kalimantan Utara",KALIMANTAN UTARA,,Indonesia,,,,4.0955087,117.7930381,https://maps.google.com/?cid=0x0:0x5c44af33184d137e,
komplek housing,Komplek perumahan,Rumah tiar aisyah,"4V98+2G3, Sungai Nyamuk, Kec. Sebatik Timur, Kabupaten Nunukan, Kalimantan Utara 77483","Sungai Nyamuk, Kec. Sebatik Timur, Kabupaten Nunukan",KALIMANTAN UTARA,77483.0,Indonesia,,,,4.1175121,117.8663075,https://maps.google.com/?cid=0x0:0x83669822a1153ec2,
komplek housing,Komplek perumahan,Rumah mdr.yusup,"Jl bukit keramat No.RT 007, Desa Bambangan, Kec. Sebatik Bar., Kabupaten Nunukan, Kalimantan Timur 77483","Desa Bambangan, Kec. Sebatik Bar., Kabupaten Nunukan",KALIMANTAN UTARA,77483.0,Indonesia,,,,4.1599817,117.7516097,https://maps.google.com/?cid=0x0:0x8f9f8552936a580e,
komplek housing,Pembangunan Perumahan,RUMDIS KECAMATAN SEBATIK BARAT,"3RV5+4QH, Setabu, Kec. Sebatik Bar., Kabupaten Nunukan, Kalimantan Utara 77483","Setabu, Kec. Sebatik Bar., Kabupaten Nunukan",KALIMANTAN UTARA,77483.0,Indonesia,,,,4.0928025,117.8094915,https://maps.google.com/?cid=0x0:0x9f57af5a1e0f1490,
komplek housing,Komplek perumahan,( KANSAS _area ),"4Q87+MC5, Liang Bunyu, Kec. Sebatik Bar., Kabupaten Nunukan, Kalimantan Utara 77483","Liang Bunyu, Kec. Sebatik Bar., Kabupaten Nunukan",KALIMANTAN UTARA,77483.0,Indonesia,,,,4.1166341,117.7635983,https://maps.google.com/?cid=0x0:0x783a785248e62d0a,
komplek housing,Komplek perumahan,Suangi nyamuk,"4V98+2G3, Sungai Nyamuk, Kec. Sebatik Timur, Kabupaten Nunukan, Kalimantan Utara 77483","Sungai Nyamuk, Kec. Sebatik Timur, Kabupaten Nunukan",KALIMANTAN UTARA,77483.0,Indonesia,,,,4.1175121,117.8663075,https://maps.google.com/?cid=0x0:0xbd4b7ddae18aab78,
komplek housing,Pembangunan Perumahan,Rumah Abah Jumain,"3QRQ+78R, Setabu, Kec. Sebatik Bar., Kabupaten Nunukan, Kalimantan Utara 77483","Setabu, Kec. Sebatik Bar., Kabupaten Nunukan",KALIMANTAN UTARA,77483.0,Indonesia,,,,4.0907473,117.7882749,https://maps.google.com/?cid=0x0:0x36e70a9b4bf2f645,
komplek housing,Pembangunan Perumahan,Kompi markas,"3RG5+9VQ, Setabu, Kec. Sebatik Bar., Kabupaten Nunukan, Kalimantan Utara 77483","Setabu, Kec. Sebatik Bar., Kabupaten Nunukan",KALIMANTAN UTARA,77483.0,Indonesia,,,,4.07597,117.8097432,https://maps.google.com/?cid=0x0:0xb9d5b345fcf82af6,
komplek housing,Pembangunan Perumahan,ERTIGA SEBATIK,"3QW8+8JP, Binalawan, Kabupaten Nunukan, Kalimantan Utara 77483","Binalawan, Kabupaten Nunukan",KALIMANTAN UTARA,77483.0,Indonesia,,,,4.0962501,117.7663809,https://maps.google.com/?cid=0x0:0x90207580e2df9667,
komplek housing,Pembangunan Perumahan,PONDOK CANGKOME,"3RP7+XCV, Setabu, Kec. Sebatik Bar., Kabupaten Nunukan, Kalimantan Utara 77483","Setabu, Kec. Sebatik Bar., Kabupaten Nunukan",KALIMANTAN UTARA,77483.0,Indonesia,,,,4.0874828,117.8135579,https://maps.google.com/?cid=0x0:0x5eef0c135d943b8b,
komplek housing,Perhimpunan Pengembang Perumahan,Sumur Kampung Enrekang,"4Q2M+RFR, Binalawan, Kec. Sebatik Bar., Kabupaten Nunukan, Kalimantan Utara 77483","Binalawan, Kec. Sebatik Bar., Kabupaten Nunukan",KALIMANTAN UTARA,77483.0,Indonesia,,,,4.1021051,117.7836322,https://maps.google.com/?cid=0x0:0x63c6e15790196386,
komplek housing,komplek housing,RUMAH AMBOTANG,"3RP7+XCV, Setabu, Kec. Sebatik Bar., Kabupaten Nunukan, Kalimantan Utara 77483","Setabu, Kec. Sebatik Bar., Kabupaten Nunukan",KALIMANTAN UTARA,77483.0,Indonesia,,,,4.0874828,117.8135579,https://maps.google.com/?cid=0x0:0x6a845dbe3a9ec8bd,
komplek housing,Komplek perumahan,Rumah cemmondeng,"3QWF+6G5, Binalawan, Kec. Sebatik Bar., Kabupaten Nunukan, Kalimantan Utara 77483","Binalawan, Kec. Sebatik Bar., Kabupaten Nunukan",KALIMANTAN UTARA,77483.0,Indonesia,,,,4.095911,117.7742432,https://maps.google.com/?cid=0x0:0xc10d23a53bfa2484,
komplek housing,Gedung Apartemen,Rumah bode,"3QRC+5XM, Jl. Dermaga Liang Bunyu, Binalawan, Kec. Sebatik Bar., Kabupaten Nunukan, Kalimantan Utara 77483","Jl. Dermaga Liang Bunyu, Binalawan, Kec. Sebatik Bar., Kabupaten Nunukan",KALIMANTAN UTARA,77483.0,Indonesia,,,,4.0905067,117.7724321,https://maps.google.com/?cid=0x0:0x2cb90712273f8b1e,
komplek housing,Pembangunan Perumahan,Binalawan,"3QRP+JQQ, Setabu, Kec. Sebatik Bar., Kabupaten Nunukan, Kalimantan Utara 77483","Setabu, Kec. Sebatik Bar., Kabupaten Nunukan",KALIMANTAN UTARA,77483.0,Indonesia,,,,4.0915863,117.7869756,https://maps.google.com/?cid=0x0:0x4916da31bf44092,
komplek housing,komplek housing,R.zubaidah,"4P5X+2W8, RT.5, Liang Bunyu, Kec. Sebatik Bar., 77483","RT.5, Liang Bunyu",KALIMANTAN UTARA,77483.0,Indonesia,,,,4.1066981,117.7496151,https://maps.google.com/?cid=0x0:0x5a7fa341691615f7,
komplek housing,Komplek perumahan,Aji kuning,"4RQ9+2QM, Aji Kuning, Kec. Sebatik Tengah, Kabupaten Nunukan, Kalimantan Utara 77483","Aji Kuning, Kec. Sebatik Tengah, Kabupaten Nunukan",KALIMANTAN UTARA,77483.0,Indonesia,,,,4.137595,117.8194197,https://maps.google.com/?cid=0x0:0xac94d8414eeb00d1,
komplek housing,Pembangunan Perumahan,Rumah kasman,"4Q86+C5, Liang Bunyu, Kec. Sebatik Bar., Kabupaten Nunukan, Kalimantan Utara 77483","Liang Bunyu, Kec. Sebatik Bar., Kabupaten Nunukan",KALIMANTAN UTARA,77483.0,Indonesia,,,,4.1168347,117.7608097,https://maps.google.com/?cid=0x0:0xa8e6056b9ad3736f,
komplek housing,komplek housing,Kec. Sebatik Timur,"Kabupaten Nunukan, Kalimantan Utara","Kabupaten Nunukan, Kalimantan Utara",KALIMANTAN UTARA,,Indonesia,,,,4.1222149,117.9196102,https://maps.google.com/?cid=0x0:0xdfc5b0e5643d3ea7,
komplek housing,Perhimpunan Pengembang Perumahan,Perumahan PKM Sei. Taiwan,"Jln. Lujoh No.RT.05, Desa Sei. Manurung, Kec. Sebatik, Kabupaten Nunukan, Kalimantan Utara 77484","Desa Sei. Manurung, Kec. Sebatik, Kabupaten Nunukan",KALIMANTAN UTARA,77484.0,Indonesia,,,,4.0704425,117.9067632,https://maps.google.com/?cid=0x0:0xed6420c36944cd70,
komplek housing,Komplek perumahan,Rumah PETRUS,"Jl H.Bakri No.08, RT.04, Sungai Nyamuk, Kec. Sebatik Timur, Kabupaten Nunukan, Kalimantan Utara 77483","RT.04, Sungai Nyamuk, Kec. Sebatik Timur, Kabupaten Nunukan",KALIMANTAN UTARA,77483.0,Indonesia,,,,4.1175121,117.8663075,https://maps.google.com/?cid=0x0:0x88b2a70724c1f0dc,
komplek housing,Pembangunan Perumahan,Home Dg.Pabetta/Abd.Haring,"4WC9+VRQ Rumah Panggung Warna Hijau, Jl. Diponegoro, BAI, Kec. Sebatik Timur, Kabupaten Nunukan, Kalimantan Utara","Kabupaten Nunukan, Kalimantan Utara",KALIMANTAN UTARA,,Indonesia,,,,4.1222149,117.9196102,https://maps.google.com/?cid=0x0:0x8794d4f597a76810,
komplek housing,Komplek perumahan,Rumah kembar,"4WR8+2QX, Jl. Bhayangkara, Sungai Nyamuk, Kec. Sebatik Timur, Kabupaten Nunukan, Kalimantan Utara 77483","Jl. Bhayangkara, Sungai Nyamuk, Kec. Sebatik Timur, Kabupaten Nunukan",KALIMANTAN UTARA,77483.0,Indonesia,,,,4.1399221,117.9172083,https://maps.google.com/?cid=0x0:0x1d87a3a874cf63ee,
komplek housing,Rumah Sakit,Perumahan Dinas RS Pratama Sebatik,"3W58+22P, Tj. Karang, Kec. Sebatik, Kabupaten Nunukan, Kalimantan Utara 77483","Tj. Karang, Kec. Sebatik, Kabupaten Nunukan",KALIMANTAN UTARA,77483.0,Indonesia,,,,4.0575866,117.9150842,https://maps.google.com/?cid=0x0:0xab5aafe578f2984e,
komplek housing,Komplek perumahan,Pemondokan Sebatik Timur,"4W27+969, Jl. Lkr. Pulau Sebatik, Padaidi, Kec. Sebatik Timur, Kabupaten Nunukan, Kalimantan Utara 77483","Jl. Lkr. Pulau Sebatik, Padaidi, Kec. Sebatik Timur, Kabupaten Nunukan",KALIMANTAN UTARA,77483.0,Indonesia,,,,4.1009179,117.9131126,https://maps.google.com/?cid=0x0:0x3afc0ae01acdd2f0,
komplek housing,Komplek perumahan,Rumahku,"4WH4+FRH, Sungai Nyamuk, Kec. Sebatik Timur, Kabupaten Nunukan, Kalimantan Utara 77483","Sungai Nyamuk, Kec. Sebatik Timur, Kabupaten Nunukan",KALIMANTAN UTARA,77483.0,Indonesia,,,,4.1283892,117.9071084,https://maps.google.com/?cid=0x0:0x1ab2cf931f7e61da,
komplek housing,Komplek perumahan,Suharti's home,"4WH4+FRH, Sungai Nyamuk, Kec. Sebatik Timur, Kabupaten Nunukan, Kalimantan Utara 77483","Sungai Nyamuk, Kec. Sebatik Timur, Kabupaten Nunukan",KALIMANTAN UTARA,77483.0,Indonesia,,,,4.1286892,117.9071208,https://maps.google.com/?cid=0x0:0x3ae15908bf2f5bd4,
komplek housing,Komplek perumahan,Rumah Ice Cream Sebatik,"4WF9+QVX, Sungai Nyamuk, Kec. Sebatik, Kabupaten Nunukan, Kalimantan Utara 77483","Sungai Nyamuk, Kec. Sebatik, Kabupaten Nunukan",KALIMANTAN UTARA,77483.0,Indonesia,,,,4.1247532,117.9198026,https://maps.google.com/?cid=0x0:0xc208c6db32ec9e48,
komplek housing,Komplek perumahan,Rumah saury,"Jl. Ahmad Yani No.14, Sungai Nyamuk, Kec. Sebatik Timur, Kabupaten Nunukan, Kalimantan Utara 77483","Sungai Nyamuk, Kec. Sebatik Timur, Kabupaten Nunukan",KALIMANTAN UTARA,77483.0,Indonesia,,,,4.1464379,117.9093678,https://maps.google.com/?cid=0x0:0xb12ef036458b4586,
komplek housing,Komplek perumahan,Rumah Gemoy,"4VC3+GQ, Sungai Nyamuk, Kec. Sebatik Timur, Kabupaten Nunukan, Kalimantan Utara","Kabupaten Nunukan, Kalimantan Utara",KALIMANTAN UTARA,,Indonesia,,,,4.1212463,117.8544105,https://maps.google.com/?cid=0x0:0xe0532e8e929c8582,
komplek housing,Komplek perumahan,Rumah keluarga Bahri Sitti,"4WV6+J29, Jl. Ahmad Yani, Sungai Nyamuk, Kec. Sebatik, Kabupaten Nunukan, Kalimantan Utara 77483","Jl. Ahmad Yani, Sungai Nyamuk, Kec. Sebatik, Kabupaten Nunukan",KALIMANTAN UTARA,77483.0,Indonesia,,,,4.1444579,117.9099844,https://maps.google.com/?cid=0x0:0x6c64c1a4a178ae8,
komplek housing,Komplek perumahan,Tiar home,"4WC9+VRQ, Sungai Nyamuk, Kec. Sebatik Timur, Kabupaten Nunukan, Kalimantan Utara","Kabupaten Nunukan, Kalimantan Utara",KALIMANTAN UTARA,,Indonesia,,,,4.1222149,117.9196102,https://maps.google.com/?cid=0x0:0x1fa62b3dc549b416,
komplek housing,Komplek perumahan,Lea,"4WP9+GXV, Jl. Bhayangkara, Sungai Nyamuk, Kec. Sebatik Timur, Kabupaten Nunukan, Kalimantan Utara 77483","Jl. Bhayangkara, Sungai Nyamuk, Kec. Sebatik Timur, Kabupaten Nunukan",KALIMANTAN UTARA,77483.0,Indonesia,,,,4.1363594,117.9199277,https://maps.google.com/?cid=0x0:0xc8dc6b5ac0a906f3,
komplek housing,Pembangunan Perumahan,Hasrul,"4WJC+WF, Sungai Nyamuk, Kec. Sebatik Timur, Kabupaten Nunukan, Kalimantan Utara","Kabupaten Nunukan, Kalimantan Utara",KALIMANTAN UTARA,,Indonesia,,,,4.1323918,117.9213112,https://maps.google.com/?cid=0x0:0xf346f3cfff0b7a9d,
komplek housing,Komplek perumahan,Rumah tiar aisyah,"4V98+2G3, Sungai Nyamuk, Kec. Sebatik Timur, Kabupaten Nunukan, Kalimantan Utara 77483","Sungai Nyamuk, Kec. Sebatik Timur, Kabupaten Nunukan",KALIMANTAN UTARA,77483.0,Indonesia,,,,4.1175121,117.8663075,https://maps.google.com/?cid=0x0:0x83669822a1153ec2,
komplek housing,Pembangunan Perumahan,D'LABUHANFAMILY,"5W33+5WR, Jalan Pantai, Pancang, Kec. Sebatik, Kabupaten Nunukan, Kalimantan Utara 77483","Jalan Pantai, Pancang, Kec. Sebatik, Kabupaten Nunukan",KALIMANTAN UTARA,77483.0,Indonesia,,,,4.1533181,117.904568,https://maps.google.com/?cid=0x0:0x9606ad88ada4b140,
komplek housing,Komplek perumahan,Pemondokan Kafilah Sebatik Tengah,"Jl. Lkr. Pulau Sebatik No.Desa, Padaidi, Kec. Sebatik, Kabupaten Nunukan, Kalimantan Utara 77483","Padaidi, Kec. Sebatik, Kabupaten Nunukan",KALIMANTAN UTARA,77483.0,Indonesia,,,,4.0926297,117.9138372,https://maps.google.com/?cid=0x0:0xd72649496533cbb2,
komplek housing,Komplek perumahan,P.J.S,"Jl. Bhayangkara No.RT11, Sungai Nyamuk, Kec. Sebatik Timur, Kabupaten Nunukan, Kalimantan Utara 77483","Sungai Nyamuk, Kec. Sebatik Timur, Kabupaten Nunukan",KALIMANTAN UTARA,77483.0,Indonesia,,,,4.1327564,117.9227314,https://maps.google.com/?cid=0x0:0x9b3f120cef793f0f,
komplek housing,Komplek perumahan,Riss‚Äôs Home,"4WJ9+HF6, Jl. Ahmad Yani, Sungai Nyamuk, Kec. Sebatik, Kabupaten Nunukan, Kalimantan Utara 77483","Jl. Ahmad Yani, Sungai Nyamuk, Kec. Sebatik, Kabupaten Nunukan",KALIMANTAN UTARA,77483.0,Indonesia,,,,4.1313326,117.9189017,https://maps.google.com/?cid=0x0:0xcef83563f241f9db,
komplek housing,Komplek perumahan,M.Noor,"4RHX+6CM, Aji Kuning, Kec. Sebatik Tengah, Kabupaten Nunukan, Kalimantan Utara 77483","Aji Kuning, Kec. Sebatik Tengah, Kabupaten Nunukan",KALIMANTAN UTARA,77483.0,Indonesia,,,,4.1284474,117.8485353,https://maps.google.com/?cid=0x0:0xdde29956c9ab4fb0,
komplek housing,Pembangunan Perumahan,Simpang sekolah SD,"3WW6+GX2, Tj. Aru, Kec. Sebatik Timur, Kabupaten Nunukan, Kalimantan Utara 77483","Tj. Aru, Kec. Sebatik Timur, Kabupaten Nunukan",KALIMANTAN UTARA,77483.0,Indonesia,,,,4.0965571,117.9116035,https://maps.google.com/?cid=0x0:0x455dda2587d1f44e,
komplek housing,Pembangunan Perumahan,"Rumah desi,agus,hasbi","4WF7+GGM, Jl. KH. Agus Salim, Sungai Nyamuk, Kec. Sebatik Timur, Kabupaten Nunukan, Kalimantan Utara 77483","Jl. KH. Agus Salim, Sungai Nyamuk, Kec. Sebatik Timur, Kabupaten Nunukan",KALIMANTAN UTARA,77483.0,Indonesia,,,,4.1238466,117.9137854,https://maps.google.com/?cid=0x0:0x21e83c1832b56dc5,
komplek housing,Komplek perumahan,Suangi nyamuk,"4V98+2G3, Sungai Nyamuk, Kec. Sebatik Timur, Kabupaten Nunukan, Kalimantan Utara 77483","Sungai Nyamuk, Kec. Sebatik Timur, Kabupaten Nunukan",KALIMANTAN UTARA,77483.0,Indonesia,,,,4.1175121,117.8663075,https://maps.google.com/?cid=0x0:0xbd4b7ddae18aab78,
komplek housing,Komplek perumahan,Rumah Bersama Pak Rahman,"4WFC+8Q7, Sungai Nyamuk, Kec. Sebatik Timur, Kabupaten Nunukan, Kalimantan Utara 77483","Sungai Nyamuk, Kec. Sebatik Timur, Kabupaten Nunukan",KALIMANTAN UTARA,77483.0,Indonesia,,,,4.1232887,117.9219182,https://maps.google.com/?cid=0x0:0x8bc95fa7cc1a56c8,
komplek housing,Komplek perumahan,Pemondokan Kafilah Sebatik Utara (H. Abigurdi),"3WV6+P3R, Tj. Aru, Kec. Sebatik, Kabupaten Nunukan, Kalimantan Utara 77483","Tj. Aru, Kec. Sebatik, Kabupaten Nunukan",KALIMANTAN UTARA,77483.0,Indonesia,,,,4.0942925,117.9099399,https://maps.google.com/?cid=0x0:0x66eb3528cfb548ed,
komplek housing,Komplek perumahan,BASE DAMACO NUNUKAN,"3WW6+GX2, Tj. Aru, Kec. Sebatik Timur, Kabupaten Nunukan, Kalimantan Utara 77483","Tj. Aru, Kec. Sebatik Timur, Kabupaten Nunukan",KALIMANTAN UTARA,77483.0,Indonesia,,,,4.0958494,117.9109372,https://maps.google.com/?cid=0x0:0xc62d822afc88e7fd,
komplek housing,Masjid,Masjid Nurul Yaqin Sebatik Utara,"5V6G+H6H, Desa Seberang, Pancang, Lumbis Ogong, Kabupaten Nunukan, Kalimantan Utara 77483","Desa Seberang, Pancang, Lumbis Ogong, Kabupaten Nunukan",KALIMANTAN UTARA,77483.0,Indonesia,,,,4.1614422,117.875623,https://maps.google.com/?cid=0x0:0x98ec2b145619b01b,
komplek housing,Masjid,MASJID NURUL HUDA,"4WW5+RPF, Pancang, Kec. Sebatik, Kabupaten Nunukan, Kalimantan Utara 77483","Pancang, Kec. Sebatik, Kabupaten Nunukan",KALIMANTAN UTARA,77483.0,Indonesia,,,,4.1470519,117.9092907,https://maps.google.com/?cid=0x0:0x7140cb23ace07c88,
komplek housing,komplek housing,Kec. Sebatik,"Tj. Karang, Kabupaten Nunukan, Kalimantan Utara","Kabupaten Nunukan, Kalimantan Utara",KALIMANTAN UTARA,,Indonesia,,,,4.0615122,117.9207553,https://maps.google.com/?cid=0x0:0x30b78c1487327b7d,
komplek housing,Komplek perumahan,Pemondokan Kafilah Sebatik Utara (H. Abigurdi),"3WV6+P3R, Tj. Aru, Kec. Sebatik, Kabupaten Nunukan, Kalimantan Utara 77483","Tj. Aru, Kec. Sebatik, Kabupaten Nunukan",KALIMANTAN UTARA,77483.0,Indonesia,,,,4.0942925,117.9099399,https://maps.google.com/?cid=0x0:0x66eb3528cfb548ed,
komplek housing,Perhimpunan Pengembang Perumahan,üè†amirakuu,"3W6F+842, Tj. Karang, Kec. Sebatik, Kabupaten Nunukan, Kalimantan Utara 77483","Tj. Karang, Kec. Sebatik, Kabupaten Nunukan",KALIMANTAN UTARA,77483.0,Indonesia,,,,4.0607578,117.9227592,https://maps.google.com/?cid=0x0:0x2844420c3361a649,
komplek housing,Komplek perumahan,JL.PETTA CENNING,"3R6H+3F8, Jl. Lkr. Pulau Sebatik, Setabu, Kec. Sebatik Bar., Kabupaten Nunukan, Kalimantan Utara 77483","Jl. Lkr. Pulau Sebatik, Setabu, Kec. Sebatik Bar., Kabupaten Nunukan",KALIMANTAN UTARA,77483.0,Indonesia,,,,4.0601674,117.8287175,https://maps.google.com/?cid=0x0:0xa90643ba1faf841,
komplek housing,Komplek perumahan,Rumah PETRUS,"Jl H.Bakri No.08, RT.04, Sungai Nyamuk, Kec. Sebatik Timur, Kabupaten Nunukan, Kalimantan Utara 77483","RT.04, Sungai Nyamuk, Kec. Sebatik Timur, Kabupaten Nunukan",KALIMANTAN UTARA,77483.0,Indonesia,,,,4.1175121,117.8663075,https://maps.google.com/?cid=0x0:0x88b2a70724c1f0dc,
komplek housing,Komplek perumahan,Pemondokan Kafilah Sebatik Barat (Ibu Sukana (alm) ),"3W7C+VGH, Tj. Karang, Kec. Sebatik, Kabupaten Nunukan, Kalimantan Utara 77483","Tj. Karang, Kec. Sebatik, Kabupaten Nunukan",KALIMANTAN UTARA,77483.0,Indonesia,,,,4.0646976,117.9213471,https://maps.google.com/?cid=0x0:0xa2414d1c4694d3df,
komplek housing,Pembangunan Perumahan,Bos genk,"Jl. Hamdu, RT4, Sei. Manurung, Tj. Karang, Kec. Sebatik, Kabupaten Nunukan, Kalimantan Utara 77483","RT4, Sei. Manurung, Tj. Karang, Kec. Sebatik, Kabupaten Nunukan",KALIMANTAN UTARA,77483.0,Indonesia,85346857650.0,,,4.0651987,117.9209182,https://maps.google.com/?cid=0x0:0x76a3ac7802e203bb,
komplek housing,Pembangunan Perumahan,Rumah Aishwa,"3R3R+F94, Tj. Karang, Kec. Sebatik, Kabupaten Nunukan, Kalimantan Utara 77483","Tj. Karang, Kec. Sebatik, Kabupaten Nunukan",KALIMANTAN UTARA,77483.0,Indonesia,,,,4.0536222,117.8406999,https://maps.google.com/?cid=0x0:0x9e744c40464cdc58,
komplek housing,Komplek perumahan,Kediamana Usman,"3R99+92V, Setabu, Kec. Sebatik Bar., Kabupaten Nunukan, Kalimantan Utara 77483","Setabu, Kec. Sebatik Bar., Kabupaten Nunukan",KALIMANTAN UTARA,77483.0,Indonesia,,,,4.0680734,117.8170489,https://maps.google.com/?cid=0x0:0xc3ef820064614946,
komplek housing,Komplek perumahan,Rumah Ice Cream Sebatik,"4WF9+QVX, Sungai Nyamuk, Kec. Sebatik, Kabupaten Nunukan, Kalimantan Utara 77483","Sungai Nyamuk, Kec. Sebatik, Kabupaten Nunukan",KALIMANTAN UTARA,77483.0,Indonesia,,,,4.1247532,117.9198026,https://maps.google.com/?cid=0x0:0xc208c6db32ec9e48,
komplek housing,Komplek perumahan,Pemondokan Kafilah Sebatik Tengah,"Jl. Lkr. Pulau Sebatik No.Desa, Padaidi, Kec. Sebatik, Kabupaten Nunukan, Kalimantan Utara 77483","Padaidi, Kec. Sebatik, Kabupaten Nunukan",KALIMANTAN UTARA,77483.0,Indonesia,,,,4.0926297,117.9138372,https://maps.google.com/?cid=0x0:0xd72649496533cbb2,
komplek housing,Komplek perumahan,Rumah kembar,"4WR8+2QX, Jl. Bhayangkara, Sungai Nyamuk, Kec. Sebatik Timur, Kabupaten Nunukan, Kalimantan Utara 77483","Jl. Bhayangkara, Sungai Nyamuk, Kec. Sebatik Timur, Kabupaten Nunukan",KALIMANTAN UTARA,77483.0,Indonesia,,,,4.1399221,117.9172083,https://maps.google.com/?cid=0x0:0x1d87a3a874cf63ee,
komplek housing,Komplek perumahan,Suharti's home,"4WH4+FRH, Sungai Nyamuk, Kec. Sebatik Timur, Kabupaten Nunukan, Kalimantan Utara 77483","Sungai Nyamuk, Kec. Sebatik Timur, Kabupaten Nunukan",KALIMANTAN UTARA,77483.0,Indonesia,,,,4.1286892,117.9071208,https://maps.google.com/?cid=0x0:0x3ae15908bf2f5bd4,
komplek housing,Perhimpunan Pengembang Perumahan,Rumah Mizi,"3R3R+F94, Tj. Karang, Kec. Sebatik, Kabupaten Nunukan, Kalimantan Utara 77483","Tj. Karang, Kec. Sebatik, Kabupaten Nunukan",KALIMANTAN UTARA,77483.0,Indonesia,,,,4.053961,117.840946,https://maps.google.com/?cid=0x0:0xe5c45dd84abc171d,
komplek housing,Komplek perumahan,Rumah tiar aisyah,"4V98+2G3, Sungai Nyamuk, Kec. Sebatik Timur, Kabupaten Nunukan, Kalimantan Utara 77483","Sungai Nyamuk, Kec. Sebatik Timur, Kabupaten Nunukan",KALIMANTAN UTARA,77483.0,Indonesia,,,,4.1175121,117.8663075,https://maps.google.com/?cid=0x0:0x83669822a1153ec2,
komplek housing,Komplek perumahan,Rumahku,"4WH4+FRH, Sungai Nyamuk, Kec. Sebatik Timur, Kabupaten Nunukan, Kalimantan Utara 77483","Sungai Nyamuk, Kec. Sebatik Timur, Kabupaten Nunukan",KALIMANTAN UTARA,77483.0,Indonesia,,,,4.1283892,117.9071084,https://maps.google.com/?cid=0x0:0x1ab2cf931f7e61da,
komplek housing,Komplek perumahan,M.Noor,"4RHX+6CM, Aji Kuning, Kec. Sebatik Tengah, Kabupaten Nunukan, Kalimantan Utara 77483","Aji Kuning, Kec. Sebatik Tengah, Kabupaten Nunukan",KALIMANTAN UTARA,77483.0,Indonesia,,,,4.1284474,117.8485353,https://maps.google.com/?cid=0x0:0xdde29956c9ab4fb0,
komplek housing,Pembangunan Perumahan,RUMDIS KECAMATAN SEBATIK BARAT,"3RV5+4QH, Setabu, Kec. Sebatik Bar., Kabupaten Nunukan, Kalimantan Utara 77483","Setabu, Kec. Sebatik Bar., Kabupaten Nunukan",KALIMANTAN UTARA,77483.0,Indonesia,,,,4.0928025,117.8094915,https://maps.google.com/?cid=0x0:0x9f57af5a1e0f1490,
komplek housing,Komplek perumahan,Pemondokan Sebatik Timur,"4W27+969, Jl. Lkr. Pulau Sebatik, Padaidi, Kec. Sebatik Timur, Kabupaten Nunukan, Kalimantan Utara 77483","Jl. Lkr. Pulau Sebatik, Padaidi, Kec. Sebatik Timur, Kabupaten Nunukan",KALIMANTAN UTARA,77483.0,Indonesia,,,,4.1009179,117.9131126,https://maps.google.com/?cid=0x0:0x3afc0ae01acdd2f0,
komplek housing,Pembangunan Perumahan,"Rumah desi,agus,hasbi","4WF7+GGM, Jl. KH. Agus Salim, Sungai Nyamuk, Kec. Sebatik Timur, Kabupaten Nunukan, Kalimantan Utara 77483","Jl. KH. Agus Salim, Sungai Nyamuk, Kec. Sebatik Timur, Kabupaten Nunukan",KALIMANTAN UTARA,77483.0,Indonesia,,,,4.1238466,117.9137854,https://maps.google.com/?cid=0x0:0x21e83c1832b56dc5,
komplek housing,komplek housing,Kalimantan Utara 77482,"Kabupaten Nunukan, Kalimantan Utara","Kabupaten Nunukan, Kalimantan Utara",KALIMANTAN UTARA,,Indonesia,,,,4.1377066,117.0794082,https://maps.google.com/?cid=0x0:0xe448c81886e99c56,
komplek housing,komplek housing,R. Abner,"WXV5+4C5, Jl. Trans Sebuku, Tetaban, Kec. Sebuku, Kabupaten Nunukan, Kalimantan Utara 77482","Jl. Trans Sebuku, Tetaban, Kec. Sebuku, Kabupaten Nunukan",KALIMANTAN UTARA,77482.0,Indonesia,,,,3.9427691,116.9586193,https://maps.google.com/?cid=0x0:0x5a0d68448ad7ad2c,
komplek housing,Pembangunan Perumahan,"Perumahan salungan, Bensin jontona","2X43+QM, Tetaban, Kec. Sebuku, Kabupaten Nunukan, Kalimantan Utara","Kabupaten Nunukan, Kalimantan Utara",KALIMANTAN UTARA,,Indonesia,,,,4.006927,116.954158,https://maps.google.com/?cid=0x0:0xafaf26104625b277,
komplek housing,Komplek perumahan,Secret YVCI SEBUKU,"22X5+C27, Sanur, Tulin Onsoi, Kabupaten Nunukan, Kalimantan Utara 77482","Sanur, Tulin Onsoi, Kabupaten Nunukan",KALIMANTAN UTARA,77482.0,Indonesia,,,,4.048539,117.0075599,https://maps.google.com/?cid=0x0:0x448b3577df6c5ff0,
komplek housing,Komplek perumahan,Perumahan Staf Kempas Estate,"56HC+RV3, Tabur Lestari, Kec. Nunukan, Kabupaten Nunukan, Kalimantan Utara 77482","Tabur Lestari, Kec. Nunukan, Kabupaten Nunukan",KALIMANTAN UTARA,77482.0,Indonesia,,,,4.1795052,117.2221671,https://maps.google.com/?cid=0x0:0x3ab89de4d99c66e3,
komplek housing,komplek housing,R. Chelsya Lisfi,"WXV5+4C4, Tetaban, Kec. Sebuku, Kabupaten Nunukan, Kalimantan Utara","Kabupaten Nunukan, Kalimantan Utara",KALIMANTAN UTARA,,Indonesia,,,,3.9427744,116.958568,https://maps.google.com/?cid=0x0:0xa260bc2e0d7060b,
komplek housing,Perhimpunan Pengembang Perumahan,"Sinar Blok E, Desa Harapan","BLOK E, Desa Harapan, Kec. Sebuku, Kabupaten Nunukan, Kalimantan Utara","Kabupaten Nunukan, Kalimantan Utara",KALIMANTAN UTARA,,Indonesia,,,,3.9989117,116.9682601,https://maps.google.com/?cid=0x0:0x8a605c70c6cf34fa,
komplek housing,komplek housing,Bahar Family House,"Jl. Pesantren, Hidayatullah, Nunukan Sel., Kabupaten Nunukan, Kalimantan Utara 77482","Hidayatullah, Nunukan Sel., Kabupaten Nunukan",KALIMANTAN UTARA,77482.0,Indonesia,,,,4.1383841,117.6592401,https://maps.google.com/?cid=0x0:0x3fdfc4912864cf8a,
komplek housing,Komplek perumahan,Shidiq'House,"22Q3+3R, Makmur, Tulin Onsoi, Kabupaten Nunukan, Kalimantan Utara","Kabupaten Nunukan, Kalimantan Utara",KALIMANTAN UTARA,,Indonesia,,,,4.037714,117.004554,https://maps.google.com/?cid=0x0:0x24d11a0483c42e57,
komplek housing,Perhimpunan Pengembang Perumahan,Kepala Desa,"XXXC+PF5, Jl. Simpas Tiga Apas, Tetaban, Kec. Sebuku, Kabupaten Nunukan, Kalimantan Utara 77482","Jl. Simpas Tiga Apas, Tetaban, Kec. Sebuku, Kabupaten Nunukan",KALIMANTAN UTARA,77482.0,Indonesia,,,,3.9992616,116.9712478,https://maps.google.com/?cid=0x0:0xe15fdda5ab291d22,
komplek housing,Kantor Perusahaan,Perumahan Executive PT.Nunukan Jaya Lestari,"665V+QFV, Tabur Lestari, Kec. Sei Menggaris, Kabupaten Nunukan, Kalimantan Utara 77482","Tabur Lestari, Kec. Sei Menggaris, Kabupaten Nunukan",KALIMANTAN UTARA,77482.0,Indonesia,,,,4.2094946,117.2436675,https://maps.google.com/?cid=0x0:0x8fb2f5add6e1fa05,
komplek housing,Perhimpunan Pengembang Perumahan,Guest house PT .BSI,"68VJ+GWJ, Nunukan Utara, Kec. Nunukan, Kabupaten Nunukan, Kalimantan Utara 77482","Nunukan Utara, Kec. Nunukan, Kabupaten Nunukan",KALIMANTAN UTARA,77482.0,Indonesia,,,,4.2438298,117.3322795,https://maps.google.com/?cid=0x0:0xf1c68976a2b81250,
komplek housing,Komplek perumahan,Rumah pak Halim Sebuku,"22X4+5P, Sanur, Tulin Onsoi, Kabupaten Nunukan, Kalimantan Utara 77482","Sanur, Tulin Onsoi, Kabupaten Nunukan",KALIMANTAN UTARA,77482.0,Indonesia,,,,4.0479473,117.0068749,https://maps.google.com/?cid=0x0:0x47c1723a1e185e31,
komplek housing,Komplek perumahan,CINTAYANG HOUSE,"4M9Q+3H5, Jalan Imam Samaila, Selisun, Nunukan Sel., Kabupaten Nunukan, Kalimantan Utara 77482","Jalan Imam Samaila, Selisun, Nunukan Sel., Kabupaten Nunukan",KALIMANTAN UTARA,77482.0,Indonesia,,,,4.1176392,117.6889825,https://maps.google.com/?cid=0x0:0x9f3b99c1b4f0af5d,
komplek housing,Komplek perumahan,Toko,"XV3C+VG3, Lulu, Kec. Sebuku, Kabupaten Nunukan, Kalimantan Utara 77482","Lulu, Kec. Sebuku, Kabupaten Nunukan",KALIMANTAN UTARA,77482.0,Indonesia,,,,3.9546307,116.871312,https://maps.google.com/?cid=0x0:0x86daf89cc584208f,
komplek housing,komplek housing,Kec. Sebuku,"Kabupaten Nunukan, Kalimantan Utara","Kabupaten Nunukan, Kalimantan Utara",KALIMANTAN UTARA,,Indonesia,,,,3.9521753,117.1264753,https://maps.google.com/?cid=0x0:0x477cbd5e048fa374,
komplek housing,Komplek perumahan,RUMAH PAK MAHMUDIN,"2XFH+965, Tetaban, Kec. Sebuku, Kabupaten Nunukan, Kalimantan Utara 77482","Tetaban, Kec. Sebuku, Kabupaten Nunukan",KALIMANTAN UTARA,77482.0,Indonesia,,,,4.0233934,116.9780977,https://maps.google.com/?cid=0x0:0xf34935f4394a51db,
komplek housing,Komplek perumahan,Kristiyono,"2XMP+RMG, Sanur, Kec. Sebuku, Kabupaten Nunukan, Kalimantan Utara 77482","Sanur, Kec. Sebuku, Kabupaten Nunukan",KALIMANTAN UTARA,77482.0,Indonesia,,,,4.0345268,116.9867199,https://maps.google.com/?cid=0x0:0x5db78fb8ae99e4b,
komplek housing,Komplek perumahan,Pondok jaringan,"5X4M+2XR, Tinampak II, Kec. Sebuku, Kabupaten Nunukan, Kalimantan Utara 77482","Tinampak II, Kec. Sebuku, Kabupaten Nunukan",KALIMANTAN UTARA,77482.0,Indonesia,,,,4.1545283,116.9849144,https://maps.google.com/?cid=0x0:0xbaf701907caa4369,
komplek housing,Komplek perumahan,Rumah Filipus Degha,"Jln jambu No.Rt07 Desa, Sanur, Tulin Onsoi, Kabupaten Nunukan, Kalimantan Utara 77482","Sanur, Tulin Onsoi, Kabupaten Nunukan",KALIMANTAN UTARA,77482.0,Indonesia,,,,4.0330333,116.9914582,https://maps.google.com/?cid=0x0:0x12a6fe1ee76f7a92,
komplek housing,Perhimpunan Pengembang Perumahan,Stefanus Janggu,"XX29+4C9, Tetaban, Kec. Sebuku, Kabupaten Nunukan, Kalimantan Utara 77482","Tetaban, Kec. Sebuku, Kabupaten Nunukan",KALIMANTAN UTARA,77482.0,Indonesia,,,,3.9493542,116.9682422,https://maps.google.com/?cid=0x0:0x9972c5ae52cff191,
komplek housing,Komplek perumahan,Oa manis,"XXXR+WC9, Jl. Trans Sebuku, Tetaban, Kec. Sebuku, Kabupaten Nunukan, Kalimantan Utara 77482","Jl. Trans Sebuku, Tetaban, Kec. Sebuku, Kabupaten Nunukan",KALIMANTAN UTARA,77482.0,Indonesia,,,,4.0001405,116.9872068,https://maps.google.com/?cid=0x0:0xf418f34f9971fa03,
komplek housing,Komplek perumahan,Azis Muqaddam,"223P+67G, Kunyit, Kec. Sebuku, Kabupaten Nunukan, Kalimantan Utara 77482","Kunyit, Kec. Sebuku, Kabupaten Nunukan",KALIMANTAN UTARA,77482.0,Indonesia,,,,4.002943,117.0358153,https://maps.google.com/?cid=0x0:0xbdaf895e4822cb7d,
komplek housing,Indonesia,Mess Sing Sing NBS Mill,"2R88+HQ5, Sujau, Kec. Sebuku, Kabupaten Nunukan, Kalimantan Utara 77482","Sujau, Kec. Sebuku, Kabupaten Nunukan",KALIMANTAN UTARA,77482.0,Indonesia,,,,4.0163797,116.8169785,https://maps.google.com/?cid=0x0:0x3b361c979b0ad1e0,
komplek housing,Komplek perumahan,Mess Sahril,"4539+6FF, Semunad, Kec. Sebuku, Kabupaten Nunukan, Kalimantan Utara 77482","Semunad, Kec. Sebuku, Kabupaten Nunukan",KALIMANTAN UTARA,77482.0,Indonesia,,,,4.1030653,117.1686623,https://maps.google.com/?cid=0x0:0xf2ffbd74cfc09a1c,
komplek housing,Pembangunan Perumahan,Edo.p,"2X3F+99W, Tetaban, Kec. Sebuku, Kabupaten Nunukan, Kalimantan Utara 77482","Tetaban, Kec. Sebuku, Kabupaten Nunukan",KALIMANTAN UTARA,77482.0,Indonesia,,,,4.0034948,116.9734685,https://maps.google.com/?cid=0x0:0x9f20b67c18282741,
komplek housing,Komplek perumahan,R.Intan Lujiati,"2XRX+X6J, Makmur, Tulin Onsoi, Kabupaten Nunukan, Kalimantan Utara 77482","Makmur, Tulin Onsoi, Kabupaten Nunukan",KALIMANTAN UTARA,77482.0,Indonesia,,,,4.0424509,116.9980055,https://maps.google.com/?cid=0x0:0xa2e0cf6c6bda6c9,
komplek housing,Komplek perumahan,rumaahnya nony cantiii rorrrr,"22R2+R4X, Jl. Garuda, Makmur, Tulin Onsoi, Kabupaten Nunukan, Kalimantan Utara 77482","Jl. Garuda, Makmur, Tulin Onsoi, Kabupaten Nunukan",KALIMANTAN UTARA,77482.0,Indonesia,,,,4.0421171,117.0003622,https://maps.google.com/?cid=0x0:0x4ea1e9dd34c4b626,
komplek housing,Perhimpunan Pengembang Perumahan,R.Fajar Handika,"2XRX+Q6F, Makmur, Tulin Onsoi, Kabupaten Nunukan, Kalimantan Utara 77482","Makmur, Tulin Onsoi, Kabupaten Nunukan",KALIMANTAN UTARA,77482.0,Indonesia,,,,4.0419379,116.9980471,https://maps.google.com/?cid=0x0:0xe69a53bfdd939c1e,
komplek housing,komplek housing,Kec. Sei Menggaris,"Kabupaten Nunukan, Kalimantan Utara","Kabupaten Nunukan, Kalimantan Utara",KALIMANTAN UTARA,,Indonesia,,,,4.2053503,117.2483455,https://maps.google.com/?cid=0x0:0x96ec2cb6aa3777fa,
komplek housing,Grosir pakaian dan kain,IdhulQ,"6742+8C, Tabur Lestari, Kec. Sei Menggaris, Kabupaten Nunukan, Kalimantan Utara","Kabupaten Nunukan, Kalimantan Utara",KALIMANTAN UTARA,,Indonesia,,,,4.2061809,117.2506056,https://maps.google.com/?cid=0x0:0xc40b3fa8ae706249,
komplek housing,Kantor Perusahaan,Perumahan Executive PT.Nunukan Jaya Lestari,"665V+QFV, Tabur Lestari, Kec. Sei Menggaris, Kabupaten Nunukan, Kalimantan Utara 77482","Tabur Lestari, Kec. Sei Menggaris, Kabupaten Nunukan",KALIMANTAN UTARA,77482.0,Indonesia,,,,4.2094946,117.2436675,https://maps.google.com/?cid=0x0:0x8fb2f5add6e1fa05,
komplek housing,Perhimpunan Pengembang Perumahan,Guest house PT .BSI,"68VJ+GWJ, Nunukan Utara, Kec. Nunukan, Kabupaten Nunukan, Kalimantan Utara 77482","Nunukan Utara, Kec. Nunukan, Kabupaten Nunukan",KALIMANTAN UTARA,77482.0,Indonesia,,,,4.2438298,117.3322795,https://maps.google.com/?cid=0x0:0xf1c68976a2b81250,
komplek housing,Komplek perumahan,Rusli,"5754+6QX, Tabur Lestari, Kec. Sei Menggaris, Kabupaten Nunukan, Kalimantan Utara 77482","Tabur Lestari, Kec. Sei Menggaris, Kabupaten Nunukan",KALIMANTAN UTARA,77482.0,Indonesia,,,,4.1580949,117.2576179,https://maps.google.com/?cid=0x0:0x8f39bf86ffeb32c7,
komplek housing,Produsen,Jati Estate (PT. Nunukan Jaya Lestari),"Tabur Lestari, Kec. Sei Menggaris, Kabupaten Nunukan, Kalimantan Utara 77482","Kec. Sei Menggaris, Kabupaten Nunukan",KALIMANTAN UTARA,77482.0,Indonesia,82226111756.0,,,4.1803053,117.2222039,https://maps.google.com/?cid=0x0:0x88e40096e32c53d4,
komplek housing,Pusat Perbelanjaan,RUMAH ANDI ASRI,"5748+6QG, Tabur Lestari, Kec. Sei Menggaris, Kabupaten Nunukan, Kalimantan Utara 77482","Tabur Lestari, Kec. Sei Menggaris, Kabupaten Nunukan",KALIMANTAN UTARA,77482.0,Indonesia,,,,4.1555342,117.2671109,https://maps.google.com/?cid=0x0:0xb3afe27e24b79eba,
komplek housing,Komplek perumahan,Ishak mustapa,"664X+FWJ, Tabur Lestari, Kec. Sei Menggaris, Kabupaten Nunukan, Kalimantan Utara 77482","Tabur Lestari, Kec. Sei Menggaris, Kabupaten Nunukan",KALIMANTAN UTARA,77482.0,Indonesia,,,,4.2064168,117.2500389,https://maps.google.com/?cid=0x0:0x6cfe16cc593f2420,
komplek housing,Komplek perumahan,Riz-one,"5754+6QX, Tabur Lestari, Kec. Sei Menggaris, Kabupaten Nunukan, Kalimantan Utara 77482","Tabur Lestari, Kec. Sei Menggaris, Kabupaten Nunukan",KALIMANTAN UTARA,77482.0,Indonesia,,,,4.1580789,117.2578321,https://maps.google.com/?cid=0x0:0xdd614ae94516fd63,
komplek housing,Rumah Kayu,Rumah Bahtiar,"56PV+PJ5, Tabur Lestari, Kec. Sei Menggaris, Kabupaten Nunukan, Kalimantan Utara","Kabupaten Nunukan, Kalimantan Utara",KALIMANTAN UTARA,,Indonesia,,,,4.1867657,117.2441109,https://maps.google.com/?cid=0x0:0x381073fa9f9819fd,
komplek housing,Komplek perumahan,Abry,"6742+9F7, Tabur Lestari, Kec. Sei Menggaris, Kabupaten Nunukan, Kalimantan Utara 77482","Tabur Lestari, Kec. Sei Menggaris, Kabupaten Nunukan",KALIMANTAN UTARA,77482.0,Indonesia,,,,4.2060123,117.2513031,https://maps.google.com/?cid=0x0:0xfe93df06ce3641bc,
komplek housing,Pembangunan Perumahan,Rumah Osman,"Jln.ph3 rt.10 Belian Estate, Tabur Lestari","Kabupaten Nunukan, Kalimantan Utara",KALIMANTAN UTARA,,Indonesia,,,,4.13687,117.2100901,https://maps.google.com/?cid=0x0:0x13b4d07dda5deef,
komplek housing,Komplek perumahan,Andreas namang,"664X+FWJ, Tabur Lestari, Kec. Sei Menggaris, Kabupaten Nunukan, Kalimantan Utara 77482","Tabur Lestari, Kec. Sei Menggaris, Kabupaten Nunukan",KALIMANTAN UTARA,77482.0,Indonesia,,,,4.2064508,117.2498452,https://maps.google.com/?cid=0x0:0xdef1e0ccf7b1ff94,
komplek housing,Komplek perumahan,Mess PT Perdana jaya Cemerlang,"46QQ+5VF, Tabur Lestari, Kec. Sei Menggaris, Kabupaten Nunukan, Kalimantan Utara","Kabupaten Nunukan, Kalimantan Utara",KALIMANTAN UTARA,,Indonesia,,,,4.1388149,117.2391666,https://maps.google.com/?cid=0x0:0x9bb88644d712fcc4,
komplek housing,Komplek perumahan,Matiro bulu,"Jl. Poros No.RT 14, Tabur Lestari, Kec. Sei Menggaris, Kabupaten Nunukan, Kalimantan Utara","Kabupaten Nunukan, Kalimantan Utara",KALIMANTAN UTARA,,Indonesia,,,,4.1868526,117.2440957,https://maps.google.com/?cid=0x0:0x757ef2b0b33b5fdf,
komplek housing,Komplek perumahan,Bang One,"663X+QJJ, Tabur Lestari, Kec. Sei Menggaris, Kabupaten Nunukan, Kalimantan Utara","Kabupaten Nunukan, Kalimantan Utara",KALIMANTAN UTARA,,Indonesia,,,,4.2044742,117.2490233,https://maps.google.com/?cid=0x0:0x2d40d5a40ee6098a,
komplek housing,Komplek perumahan,Shidiq'House,"22Q3+3R, Makmur, Tulin Onsoi, Kabupaten Nunukan, Kalimantan Utara","Kabupaten Nunukan, Kalimantan Utara",KALIMANTAN UTARA,,Indonesia,,,,4.037714,117.004554,https://maps.google.com/?cid=0x0:0x24d11a0483c42e57,
komplek housing,Pos Pertolongan Pertama,Pos SATPAM PT.NJL,"56XX+6PF, Tabur Lestari, Kec. Sei Menggaris, Kabupaten Nunukan, Kalimantan Utara 77482","Tabur Lestari, Kec. Sei Menggaris, Kabupaten Nunukan",KALIMANTAN UTARA,77482.0,Indonesia,,,,4.1980657,117.249305,https://maps.google.com/?cid=0x0:0x440dbcb940e2a74a,
komplek housing,Lapangan Football,Lapangan Njl,"56HC+76H, Tabur Lestari, Kec. Sei Menggaris, Kabupaten Nunukan, Kalimantan Utara","Kabupaten Nunukan, Kalimantan Utara",KALIMANTAN UTARA,,Indonesia,,,,4.178178,117.2206171,https://maps.google.com/?cid=0x0:0xb93a5d879a5f521b,
komplek housing,Komplek perumahan,Rumah Filipus Degha,"Jln jambu No.Rt07 Desa, Sanur, Tulin Onsoi, Kabupaten Nunukan, Kalimantan Utara 77482","Sanur, Tulin Onsoi, Kabupaten Nunukan",KALIMANTAN UTARA,77482.0,Indonesia,,,,4.0330333,116.9914582,https://maps.google.com/?cid=0x0:0x12a6fe1ee76f7a92,
komplek housing,Perhimpunan Pengembang Perumahan,HOMESTAY,"5749+F69, Tabur Lestari, Kec. Nunukan, Kabupaten Nunukan, Kalimantan Utara 77482","Tabur Lestari, Kec. Nunukan, Kabupaten Nunukan",KALIMANTAN UTARA,77482.0,Indonesia,,,,4.1559073,117.2681314,https://maps.google.com/?cid=0x0:0x934c6d4dc0d36a39,
komplek housing,Perhimpunan Pengembang Perumahan,Pos bsi,"68J9+CP5, Nunukan Utara, Kec. Nunukan, Kabupaten Nunukan, Kalimantan Utara 77482","Nunukan Utara, Kec. Nunukan, Kabupaten Nunukan",KALIMANTAN UTARA,77482.0,Indonesia,,,,4.2310001,117.3193496,https://maps.google.com/?cid=0x0:0xdd8f94539f06cc34,
komplek housing,Komplek perumahan,Rumah pak tumijan,"5744+8XX, Tabur Lestari, Kec. Nunukan, Kabupaten Nunukan, Kalimantan Utara 77482","Tabur Lestari, Kec. Nunukan, Kabupaten Nunukan",KALIMANTAN UTARA,77482.0,Indonesia,,,,4.1561565,117.257533,https://maps.google.com/?cid=0x0:0x3a53ae57459b1426,
komplek housing,komplek housing,SUKUR,"6742+9F7, Tabur Lestari, Kec. Sei Menggaris, Kabupaten Nunukan, Kalimantan Utara 77482","Tabur Lestari, Kec. Sei Menggaris, Kabupaten Nunukan",KALIMANTAN UTARA,77482.0,Indonesia,,,,4.2065845,117.2511454,https://maps.google.com/?cid=0x0:0x5c207aea77f91718,
komplek housing,komplek housing,Kalimantan Utara 77453,Kalimantan Utara,Kalimantan Utara,KALIMANTAN UTARA,,Indonesia,,,,3.7262935,117.3146351,https://maps.google.com/?cid=0x0:0x2f07ec6e726dbdda,
komplek housing,Komplek perumahan,Kompleks Mess Baru,"P752+6RJ, Plaju, Kec. Sembakung, Kabupaten Nunukan, Kalimantan Utara 77453","Plaju, Kec. Sembakung, Kabupaten Nunukan",KALIMANTAN UTARA,77453.0,Indonesia,,,,3.7084962,117.2519742,https://maps.google.com/?cid=0x0:0xbd244f0f0a117055,
komplek housing,Komplek perumahan,Mess Blok N,"P752+6RJ, Plaju, Kec. Sembakung, Kabupaten Nunukan, Kalimantan Utara 77453","Plaju, Kec. Sembakung, Kabupaten Nunukan",KALIMANTAN UTARA,77453.0,Indonesia,,,,3.7071536,117.2523245,https://maps.google.com/?cid=0x0:0x43b4249ebbb9f114,
komplek housing,Komplek perumahan,Mess Blok L,"P752+6RJ, Plaju, Kec. Sembakung, Kabupaten Nunukan, Kalimantan Utara 77453","Plaju, Kec. Sembakung, Kabupaten Nunukan",KALIMANTAN UTARA,77453.0,Indonesia,,,,3.7071594,117.252123,https://maps.google.com/?cid=0x0:0x64eebcd26b787132,
komplek housing,Komplek perumahan,Rumah Baharuddin,"V25R+3M2, Tujung, Kec. Sembakung, Kabupaten Nunukan, Kalimantan Utara 77453","Tujung, Kec. Sembakung, Kabupaten Nunukan",KALIMANTAN UTARA,77453.0,Indonesia,,,,3.8576289,117.0416357,https://maps.google.com/?cid=0x0:0xb08114b3650a1caa,
komplek housing,Pembangunan Perumahan,LUBAKAN/KANAL,"R62C+X6P, Plaju, Kec. Sembakung, Kabupaten Nunukan, Kalimantan Utara","Kabupaten Nunukan, Kalimantan Utara",KALIMANTAN UTARA,,Indonesia,,,,3.8024611,117.2205771,https://maps.google.com/?cid=0x0:0xc97de49cd1873980,
komplek housing,Komplek perumahan,Rumah Arul,"V26P+2Q, Pagar, Kec. Sembakung, Kabupaten Nunukan, Kalimantan Utara 77453","Pagar, Kec. Sembakung, Kabupaten Nunukan",KALIMANTAN UTARA,77453.0,Indonesia,,,,3.8601161,117.0368349,https://maps.google.com/?cid=0x0:0xc8bdb42d690439e9,
komplek housing,Rumah Pondokan,House Nessy (Ning),"R2X2+JFV, Butas Bagu, Kec. Sembakung, Kabupaten Nunukan, Kalimantan Utara 77453","Butas Bagu, Kec. Sembakung, Kabupaten Nunukan",KALIMANTAN UTARA,77453.0,Indonesia,,,,3.850092,117.00155,https://maps.google.com/?cid=0x0:0xff69e894dc4ae099,
komplek housing,Perusahaan Konstruksi,Gunung marica,"RWPC+659, Mambulu, Kec. Sembakung, Kabupaten Nunukan, Kalimantan Utara","Kabupaten Nunukan, Kalimantan Utara",KALIMANTAN UTARA,,Indonesia,,,,3.8355275,116.9204787,https://maps.google.com/?cid=0x0:0x8a11ffb383b97ecf,
komplek housing,Komplek perumahan,home Jamalfams,"V332+QXM, Tujung, Kec. Sembakung, Kabupaten Nunukan, Kalimantan Utara 77453","Tujung, Kec. Sembakung, Kabupaten Nunukan",KALIMANTAN UTARA,77453.0,Indonesia,,,,3.8535705,117.0538374,https://maps.google.com/?cid=0x0:0xcde5b014e0887a87,
komplek housing,Kantor Perusahaan,Mest 4B PT Mandala karya prima,"P752+824, Plaju, Kec. Sembakung, Kabupaten Nunukan, Kalimantan Utara 77453","Plaju, Kec. Sembakung, Kabupaten Nunukan",KALIMANTAN UTARA,77453.0,Indonesia,,,,3.7080991,117.2500862,https://maps.google.com/?cid=0x0:0x1217c95996fa34ce,
komplek housing,Komplek perumahan,RUMDIS,"V23X+X28, Tujung, Kec. Sembakung, Kabupaten Nunukan, Kalimantan Utara 77453","Tujung, Kec. Sembakung, Kabupaten Nunukan",KALIMANTAN UTARA,77453.0,Indonesia,,,,3.8549213,117.0475723,https://maps.google.com/?cid=0x0:0x63c66e4d33249155,
komplek housing,Penjahit,Penjahit wadime,"V326+C5, Tujung, Kec. Sembakung, Kabupaten Nunukan, Kalimantan Utara","Kabupaten Nunukan, Kalimantan Utara",KALIMANTAN UTARA,,Indonesia,,,,3.8510625,117.0604375,https://maps.google.com/?cid=0x0:0xedaa766d6273665a,
komplek housing,Kantor Perusahaan,Pagaluyon,"QWCJ+CW6, Pagaluyon, Kec. Sembakung, Kabupaten Nunukan, Kalimantan Utara 77453","Pagaluyon, Kec. Sembakung, Kabupaten Nunukan",KALIMANTAN UTARA,77453.0,Indonesia,,,,3.7710323,116.9322553,https://maps.google.com/?cid=0x0:0xa59f2908da47ad77,
komplek housing,komplek housing,Kec. Sembakung,"Kabupaten Nunukan, Kalimantan Utara","Kabupaten Nunukan, Kalimantan Utara",KALIMANTAN UTARA,,Indonesia,,,,3.8024611,117.2205771,https://maps.google.com/?cid=0x0:0x5af5b4f71cdabb8b,
komplek housing,komplek housing,Kalimantan Utara 77482,"Kabupaten Nunukan, Kalimantan Utara","Kabupaten Nunukan, Kalimantan Utara",KALIMANTAN UTARA,,Indonesia,,,,4.1377066,117.0794082,https://maps.google.com/?cid=0x0:0xe448c81886e99c56,
komplek housing,Komplek perumahan,Shidiq'House,"22Q3+3R, Makmur, Tulin Onsoi, Kabupaten Nunukan, Kalimantan Utara","Kabupaten Nunukan, Kalimantan Utara",KALIMANTAN UTARA,,Indonesia,,,,4.037714,117.004554,https://maps.google.com/?cid=0x0:0x24d11a0483c42e57,
komplek housing,Komplek perumahan,Mus,"32W4+78X, Tinampak II, Tulin Onsoi, Kabupaten Nunukan, Kalimantan Utara 77482","Tinampak II, Tulin Onsoi, Kabupaten Nunukan",KALIMANTAN UTARA,77482.0,Indonesia,,,,4.0957375,117.0058594,https://maps.google.com/?cid=0x0:0xb43ccde2514e8c4f,
komplek housing,Komplek perumahan,rumaahnya nony cantiii rorrrr,"22R2+R4X, Jl. Garuda, Makmur, Tulin Onsoi, Kabupaten Nunukan, Kalimantan Utara 77482","Jl. Garuda, Makmur, Tulin Onsoi, Kabupaten Nunukan",KALIMANTAN UTARA,77482.0,Indonesia,,,,4.0421171,117.0003622,https://maps.google.com/?cid=0x0:0x4ea1e9dd34c4b626,
komplek housing,Komplek perumahan,Secret YVCI SEBUKU,"22X5+C27, Sanur, Tulin Onsoi, Kabupaten Nunukan, Kalimantan Utara 77482","Sanur, Tulin Onsoi, Kabupaten Nunukan",KALIMANTAN UTARA,77482.0,Indonesia,,,,4.048539,117.0075599,https://maps.google.com/?cid=0x0:0x448b3577df6c5ff0,
komplek housing,komplek housing,R. Chelsya Lisfi,"WXV5+4C4, Tetaban, Kec. Sebuku, Kabupaten Nunukan, Kalimantan Utara","Kabupaten Nunukan, Kalimantan Utara",KALIMANTAN UTARA,,Indonesia,,,,3.9427744,116.958568,https://maps.google.com/?cid=0x0:0xa260bc2e0d7060b,
komplek housing,Komplek perumahan,Kristiyono,"Jl. Cendrawasih No.rt 012, Makmur, Tulin Onsoi, Kabupaten Nunukan, Kalimantan Utara 77482","Makmur, Tulin Onsoi, Kabupaten Nunukan",KALIMANTAN UTARA,77482.0,Indonesia,,,,4.0500681,117.0045058,https://maps.google.com/?cid=0x0:0xcbae9670afa21c9d,
komplek housing,Komplek perumahan,Rumah Filipus Degha,"Jln jambu No.Rt07 Desa, Sanur, Tulin Onsoi, Kabupaten Nunukan, Kalimantan Utara 77482","Sanur, Tulin Onsoi, Kabupaten Nunukan",KALIMANTAN UTARA,77482.0,Indonesia,,,,4.0330333,116.9914582,https://maps.google.com/?cid=0x0:0x12a6fe1ee76f7a92,
komplek housing,komplek housing,Rumah Sudirman,"2279+8P, Makmur, Tulin Onsoi, Kabupaten Nunukan, Kalimantan Utara","Kabupaten Nunukan, Kalimantan Utara",KALIMANTAN UTARA,,Indonesia,,,,4.0133252,117.0193686,https://maps.google.com/?cid=0x0:0xbd67b66bda2adb4d,
komplek housing,Komplek perumahan,R.Intan Lujiati,"2XRX+X6J, Makmur, Tulin Onsoi, Kabupaten Nunukan, Kalimantan Utara 77482","Makmur, Tulin Onsoi, Kabupaten Nunukan",KALIMANTAN UTARA,77482.0,Indonesia,,,,4.0424509,116.9980055,https://maps.google.com/?cid=0x0:0xa2e0cf6c6bda6c9,
komplek housing,Komplek perumahan,Rumah Desi,"3X5W+4RJ, Sanur, Tulin Onsoi, Kabupaten Nunukan, Kalimantan Utara","Kabupaten Nunukan, Kalimantan Utara",KALIMANTAN UTARA,,Indonesia,,,,4.0578406,116.9970153,https://maps.google.com/?cid=0x0:0x37bd8542108e5f6a,
komplek housing,Komplek perumahan,Rumah pak Halim Sebuku,"22X4+5P, Sanur, Tulin Onsoi, Kabupaten Nunukan, Kalimantan Utara 77482","Sanur, Tulin Onsoi, Kabupaten Nunukan",KALIMANTAN UTARA,77482.0,Indonesia,,,,4.0479473,117.0068749,https://maps.google.com/?cid=0x0:0x47c1723a1e185e31,
komplek housing,Perhimpunan Pengembang Perumahan,R.Fajar Handika,"2XRX+Q6F, Makmur, Tulin Onsoi, Kabupaten Nunukan, Kalimantan Utara 77482","Makmur, Tulin Onsoi, Kabupaten Nunukan",KALIMANTAN UTARA,77482.0,Indonesia,,,,4.0419379,116.9980471,https://maps.google.com/?cid=0x0:0xe69a53bfdd939c1e,
komplek housing,Komplek perumahan,Oline and her home,"4MC4+CWW, Jl. Pongtiku, Nunukan Tengah, Kec. Nunukan, Kabupaten Nunukan, Kalimantan Utara 77482","Jl. Pongtiku, Nunukan Tengah, Kec. Nunukan, Kabupaten Nunukan",KALIMANTAN UTARA,77482.0,Indonesia,,,,4.1211249,117.65733,https://maps.google.com/?cid=0x0:0xa76f93b1815a3e57,
komplek housing,Komplek perumahan,Rumah Maleo,"22X6+QXF, Jl. Maleo, Makmur, Tulin Onsoi, Kabupaten Nunukan, Kalimantan Utara 77482","Jl. Maleo, Makmur, Tulin Onsoi, Kabupaten Nunukan",KALIMANTAN UTARA,77482.0,Indonesia,,,,4.049427,117.012413,https://maps.google.com/?cid=0x0:0x324aa7e30bb1691,
komplek housing,komplek housing,Amin Santoso,"2XRX+6GM, Makmur, Tulin Onsoi, Kabupaten Nunukan, Kalimantan Utara 77482","Makmur, Tulin Onsoi, Kabupaten Nunukan",KALIMANTAN UTARA,77482.0,Indonesia,,,,4.040082,116.999166,https://maps.google.com/?cid=0x0:0xd02288ad94105cd7,
komplek housing,Perhimpunan Pengembang Perumahan,DPC PARTAI PKS,"22R2+V7G, Jl. Garuda, Makmur, Tulin Onsoi, Kabupaten Nunukan, Kalimantan Utara 77482","Jl. Garuda, Makmur, Tulin Onsoi, Kabupaten Nunukan",KALIMANTAN UTARA,77482.0,Indonesia,85871040612.0,,,4.0421812,117.0007035,https://maps.google.com/?cid=0x0:0x8562b7f954b996ba,
komplek housing,Komplek perumahan,Rumah Mbak nunuk,"2XMW+M4, Makmur, Tulin Onsoi, Kabupaten Nunukan, Kalimantan Utara","Kabupaten Nunukan, Kalimantan Utara",KALIMANTAN UTARA,,Indonesia,,,,4.0341838,116.9953515,https://maps.google.com/?cid=0x0:0xd64f33cea04b1957,
komplek housing,Komplek perumahan,Rumah mantri rahmat,"3X5W+4RJ, Sanur, Tulin Onsoi, Kabupaten Nunukan, Kalimantan Utara 77482","Sanur, Tulin Onsoi, Kabupaten Nunukan",KALIMANTAN UTARA,77482.0,Indonesia,,,,4.0578406,116.9970153,https://maps.google.com/?cid=0x0:0x36e5ab8f74102534,
komplek housing,Perhimpunan Pengembang Perumahan,Guest house PT .BSI,"68VJ+GWJ, Nunukan Utara, Kec. Nunukan, Kabupaten Nunukan, Kalimantan Utara 77482","Nunukan Utara, Kec. Nunukan, Kabupaten Nunukan",KALIMANTAN UTARA,77482.0,Indonesia,,,,4.2438298,117.3322795,https://maps.google.com/?cid=0x0:0xf1c68976a2b81250,
komplek housing,komplek housing,Tulin Onsoi,"Kabupaten Nunukan, Kalimantan Utara","Kabupaten Nunukan, Kalimantan Utara",KALIMANTAN UTARA,,Indonesia,,,,4.2537006,116.9381434,https://maps.google.com/?cid=0x0:0x94636be25dcdbb6d,
komplek housing,Dokter,Rompok Sim Kuring,"2XJM+43J, Jl. Cermai, Desa Sanur, Tulin Onsoi, Kabupaten Nunukan, Kalimantan Utara 77482","Jl. Cermai, Desa Sanur, Tulin Onsoi, Kabupaten Nunukan",KALIMANTAN UTARA,77482.0,Indonesia,,,,4.0303431,116.9826359,https://maps.google.com/?cid=0x0:0xb32d5b64cef33eff,
perumahan,perumahan,Kalimantan Utara 77456,"Kabupaten Nunukan, Kalimantan Utara","Kabupaten Nunukan, Kalimantan Utara",KALIMANTAN UTARA,,Indonesia,,,,3.7401357,115.7575196,https://maps.google.com/?cid=0x0:0x678bdac28fa14afd,
perumahan,Perhimpunan Pengembang Perumahan,Kampung Baru Krayan,"4QRP+WRH, Kp. Baru, Kecamatan Krayan Timur, Kabupaten Nunukan, Kalimantan Utara 77456","Kp. Baru, Kecamatan Krayan Timur, Kabupaten Nunukan",KALIMANTAN UTARA,77456.0,Indonesia,,,,4.1423031,115.7871034,https://maps.google.com/?cid=0x0:0x52918a09105addc5,
perumahan,Kantor Pemerintah Distrik,Krayan Selatan,"JP72+C3F, Pa Dalan, Krayan Sel., Kabupaten Nunukan, Kalimantan Utara 77456","Pa Dalan, Krayan Sel., Kabupaten Nunukan",KALIMANTAN UTARA,77456.0,Indonesia,,,,3.6135713,115.7001568,https://maps.google.com/?cid=0x0:0x6ba95f92fac81f31,
perumahan,Komplek perumahan,Berian Baru,"VJMX+7VP, Berian Baru, Krayan, Kabupaten Nunukan, Kalimantan Utara 77456","Berian Baru, Krayan, Kabupaten Nunukan",KALIMANTAN UTARA,77456.0,Indonesia,,,,3.883212,115.6497186,https://maps.google.com/?cid=0x0:0xa25b98f36ff02515,
perumahan,Komplek perumahan,UMA' KADANG PA'TERA,"JPRF+86X, Desa, Pa Tera, Krayan Sel., Kabupaten Nunukan, Kalimantan Utara 77456","Desa, Pa Tera, Krayan Sel., Kabupaten Nunukan",KALIMANTAN UTARA,77456.0,Indonesia,,,,3.6408674,115.7231058,https://maps.google.com/?cid=0x0:0xeb3fbc31a58a75ee,
perumahan,Komplek perumahan,Pa'padi,"2RHM+MQ7, Pa Padi, Krayan, Kabupaten Nunukan, Kalimantan Utara","Kabupaten Nunukan, Kalimantan Utara",KALIMANTAN UTARA,,Indonesia,,,,4.029153,115.8344308,https://maps.google.com/?cid=0x0:0x3d22ec434feb21eb,
perumahan,Komplek perumahan,Rumah darius benung,"VPWH+4Q3, Pa Kemut, Krayan, Kabupaten Nunukan, Kalimantan Utara","Kabupaten Nunukan, Kalimantan Utara",KALIMANTAN UTARA,,Indonesia,,,,3.8950986,115.7306326,https://maps.google.com/?cid=0x0:0x58a696182fc7a67b,
perumahan,Area Mendaki,Tang Paye,"VJCP+4H6, Pa Butal, Krayan, Kabupaten Nunukan, Kalimantan Utara","Kabupaten Nunukan, Kalimantan Utara",KALIMANTAN UTARA,,Indonesia,,,,3.8702772,115.6363814,https://maps.google.com/?cid=0x0:0x68afd345158d4240,
perumahan,Pembangunan Perumahan,Wa' Yagung,"5W88+7V9, Wa Yagung, Krayan, Kabupaten Nunukan, Kalimantan Utara","Kabupaten Nunukan, Kalimantan Utara",KALIMANTAN UTARA,,Indonesia,,,,4.1656598,115.9172336,https://maps.google.com/?cid=0x0:0x910641f473a7a4db,
perumahan,Perhimpunan Pengembang Perumahan,Rumah Gat Khaleb A,"HP7X+VX2, Unnamed Road, Pa Tera, South Krayan, Nunukan Regency, North Kalimantan 77456","Unnamed Road, Pa Tera, South Krayan, Nunukan Regency",KALIMANTAN UTARA,77456.0,Indonesia,,,,3.5646472,115.7498969,https://maps.google.com/?cid=0x0:0xcd1558698606955e,
perumahan,Komplek perumahan,Rumah Alvaro,"VPRM+G4C, Pa Kemut, Krayan, Kabupaten Nunukan, Kalimantan Utara 77456","Pa Kemut, Krayan, Kabupaten Nunukan",KALIMANTAN UTARA,77456.0,Indonesia,,,,3.891322,115.7327636,https://maps.google.com/?cid=0x0:0xcac4e71520242675,
perumahan,Komplek perumahan,Alung,"VMM2+73Q, Berian Baru, Krayan, Kabupaten Nunukan, Kalimantan Utara","Kabupaten Nunukan, Kalimantan Utara",KALIMANTAN UTARA,,Indonesia,,,,3.8825712,115.6506832,https://maps.google.com/?cid=0x0:0x32ec992d606724c1,
perumahan,Komplek perumahan,Olinten,"WPQX+54, Lembudud, Krayan, Kabupaten Nunukan, Kalimantan Utara 77456","Lembudud, Krayan, Kabupaten Nunukan",KALIMANTAN UTARA,77456.0,Indonesia,,,,3.9367537,115.7486326,https://maps.google.com/?cid=0x0:0xa7ac9014e0b36d58,
perumahan,Komplek perumahan,jemmy,"WPQW+9V6, Lembudud, Krayan, Kabupaten Nunukan, Kalimantan Utara 77456","Lembudud, Krayan, Kabupaten Nunukan",KALIMANTAN UTARA,77456.0,Indonesia,,,,3.9384298,115.7470917,https://maps.google.com/?cid=0x0:0xd77e86253d0febcb,
perumahan,Komplek perumahan,The Gavin Home,"JV87+RJC, Pa Upan, Krayan Sel., Kabupaten Nunukan, Kalimantan Utara 77456","Pa Upan, Krayan Sel., Kabupaten Nunukan",KALIMANTAN UTARA,77456.0,Indonesia,,,,3.6170722,115.8640062,https://maps.google.com/?cid=0x0:0x1477eaeccbe56de3,
perumahan,Kantor Pemerintah,Kantor Desa Pa' Kebuan,"WPQX+54, Lembudud, Krayan, Kabupaten Nunukan, Kalimantan Utara 77456","Lembudud, Krayan, Kabupaten Nunukan",KALIMANTAN UTARA,77456.0,Indonesia,,,,3.9377374,115.7479365,https://maps.google.com/?cid=0x0:0xd4da76ed99aadb12,
perumahan,perumahan,Perumahan Guru SMP,"XQC8+J7W, Lembudud, Krayan, Kabupaten Nunukan, Kalimantan Utara 77456","Lembudud, Krayan, Kabupaten Nunukan",KALIMANTAN UTARA,77456.0,Indonesia,,,,3.9716244,115.7656937,https://maps.google.com/?cid=0x0:0xffe0adea3a1c0b12,
perumahan,perumahan,Krayan,"Kabupaten Nunukan, Kalimantan Utara","Kabupaten Nunukan, Kalimantan Utara",KALIMANTAN UTARA,,Indonesia,,,,4.0719488,115.8048521,https://maps.google.com/?cid=0x0:0x81dfeaec9c95acae,
perumahan,Perhimpunan Pengembang Perumahan,Long Layu,"JP83+PV, Pa Dalan, Krayan Sel., Kabupaten Nunukan, Kalimantan Utara","Kabupaten Nunukan, Kalimantan Utara",KALIMANTAN UTARA,,Indonesia,,,,3.6168179,115.7046577,https://maps.google.com/?cid=0x0:0x2221345d2e4af5cf,
perumahan,Bandara,"Binuang, Kec. Krayan Tengah","QVF4+VRP, Long Mutan, Binuang, Kabupaten Nunukan, Kalimantan Utara","Kabupaten Nunukan, Kalimantan Utara",KALIMANTAN UTARA,,Indonesia,,,,3.7747159,115.8570796,https://maps.google.com/?cid=0x0:0xf20f1fd1bb58e2ba,
perumahan,Komplek perumahan,Markelius,"5V89+WXF, Long Umung, Krayan, Kabupaten Nunukan, Kalimantan Utara 77456","Long Umung, Krayan, Kabupaten Nunukan",KALIMANTAN UTARA,77456.0,Indonesia,,,,4.1673241,115.8699209,https://maps.google.com/?cid=0x0:0x6c9ec33e9a31b35e,
perumahan,Komplek perumahan,Gguest House JM,"RJ3V+9H5, Jl. Pararel Perbatasan (Krayan), Long Kabid, Krayan, Kabupaten Nunukan, Kalimantan Utara 77456","Jl. Pararel Perbatasan (Krayan), Long Kabid, Krayan, Kabupaten Nunukan",KALIMANTAN UTARA,77456.0,Indonesia,,,,3.8025423,115.6441407,https://maps.google.com/?cid=0x0:0xac0f903db8bd644a,
perumahan,Komplek perumahan,martinus.k,"WPQW+9V6, Lembudud, Krayan, Kabupaten Nunukan, Kalimantan Utara 77456","Lembudud, Krayan, Kabupaten Nunukan",KALIMANTAN UTARA,77456.0,Indonesia,,,,3.9393062,115.7471201,https://maps.google.com/?cid=0x0:0xc2f89beea1d1d3b0,
perumahan,perumahan,Kalimantan Utara 77456,"Kabupaten Nunukan, Kalimantan Utara","Kabupaten Nunukan, Kalimantan Utara",KALIMANTAN UTARA,,Indonesia,,,,3.7401357,115.7575196,https://maps.google.com/?cid=0x0:0x678bdac28fa14afd,
perumahan,Perhimpunan Pengembang Perumahan,Kampung Baru Krayan,"4QRP+WRH, Kp. Baru, Kecamatan Krayan Timur, Kabupaten Nunukan, Kalimantan Utara 77456","Kp. Baru, Kecamatan Krayan Timur, Kabupaten Nunukan",KALIMANTAN UTARA,77456.0,Indonesia,,,,4.1423031,115.7871034,https://maps.google.com/?cid=0x0:0x52918a09105addc5,
perumahan,Kantor Pemerintah Distrik,Krayan Selatan,"JP72+C3F, Pa Dalan, Krayan Sel., Kabupaten Nunukan, Kalimantan Utara 77456","Pa Dalan, Krayan Sel., Kabupaten Nunukan",KALIMANTAN UTARA,77456.0,Indonesia,,,,3.6135713,115.7001568,https://maps.google.com/?cid=0x0:0x6ba95f92fac81f31,
perumahan,Komplek perumahan,Berian Baru,"VJMX+7VP, Berian Baru, Krayan, Kabupaten Nunukan, Kalimantan Utara 77456","Berian Baru, Krayan, Kabupaten Nunukan",KALIMANTAN UTARA,77456.0,Indonesia,,,,3.883212,115.6497186,https://maps.google.com/?cid=0x0:0xa25b98f36ff02515,
perumahan,Komplek perumahan,UMA' KADANG PA'TERA,"JPRF+86X, Desa, Pa Tera, Krayan Sel., Kabupaten Nunukan, Kalimantan Utara 77456","Desa, Pa Tera, Krayan Sel., Kabupaten Nunukan",KALIMANTAN UTARA,77456.0,Indonesia,,,,3.6408674,115.7231058,https://maps.google.com/?cid=0x0:0xeb3fbc31a58a75ee,
perumahan,Komplek perumahan,Pa'padi,"2RHM+MQ7, Pa Padi, Krayan, Kabupaten Nunukan, Kalimantan Utara","Kabupaten Nunukan, Kalimantan Utara",KALIMANTAN UTARA,,Indonesia,,,,4.029153,115.8344308,https://maps.google.com/?cid=0x0:0x3d22ec434feb21eb,
perumahan,Perhimpunan Pengembang Perumahan,Long Layu,"JP83+PV, Pa Dalan, Krayan Sel., Kabupaten Nunukan, Kalimantan Utara","Kabupaten Nunukan, Kalimantan Utara",KALIMANTAN UTARA,,Indonesia,,,,3.6168179,115.7046577,https://maps.google.com/?cid=0x0:0x2221345d2e4af5cf,
perumahan,Area Mendaki,Tang Paye,"VJCP+4H6, Pa Butal, Krayan, Kabupaten Nunukan, Kalimantan Utara","Kabupaten Nunukan, Kalimantan Utara",KALIMANTAN UTARA,,Indonesia,,,,3.8702772,115.6363814,https://maps.google.com/?cid=0x0:0x68afd345158d4240,
perumahan,Komplek perumahan,The Gavin Home,"JV87+RJC, Pa Upan, Krayan Sel., Kabupaten Nunukan, Kalimantan Utara 77456","Pa Upan, Krayan Sel., Kabupaten Nunukan",KALIMANTAN UTARA,77456.0,Indonesia,,,,3.6170722,115.8640062,https://maps.google.com/?cid=0x0:0x1477eaeccbe56de3,
perumahan,Komplek perumahan,Rumah darius benung,"VPWH+4Q3, Pa Kemut, Krayan, Kabupaten Nunukan, Kalimantan Utara","Kabupaten Nunukan, Kalimantan Utara",KALIMANTAN UTARA,,Indonesia,,,,3.8950986,115.7306326,https://maps.google.com/?cid=0x0:0x58a696182fc7a67b,
perumahan,perumahan,Perumahan Guru SMP,"XQC8+J7W, Lembudud, Krayan, Kabupaten Nunukan, Kalimantan Utara 77456","Lembudud, Krayan, Kabupaten Nunukan",KALIMANTAN UTARA,77456.0,Indonesia,,,,3.9716244,115.7656937,https://maps.google.com/?cid=0x0:0xffe0adea3a1c0b12,
perumahan,Tujuan Wisata,Rumah Panjang Payeh Purub,"HMMR+8P, Long Budung, Krayan Sel., Kabupaten Nunukan, Kalimantan Utara","Kabupaten Nunukan, Kalimantan Utara",KALIMANTAN UTARA,,Indonesia,,,,3.5832965,115.6918143,https://maps.google.com/?cid=0x0:0xc7acb6e6de25b889,
perumahan,Perhimpunan Pengembang Perumahan,Rumah Gat Khaleb A,"HP7X+VX2, Unnamed Road, Pa Tera, South Krayan, Nunukan Regency, North Kalimantan 77456","Unnamed Road, Pa Tera, South Krayan, Nunukan Regency",KALIMANTAN UTARA,77456.0,Indonesia,,,,3.5646472,115.7498969,https://maps.google.com/?cid=0x0:0xcd1558698606955e,
perumahan,Komplek perumahan,Olinten,"WPQX+54, Lembudud, Krayan, Kabupaten Nunukan, Kalimantan Utara 77456","Lembudud, Krayan, Kabupaten Nunukan",KALIMANTAN UTARA,77456.0,Indonesia,,,,3.9367537,115.7486326,https://maps.google.com/?cid=0x0:0xa7ac9014e0b36d58,
perumahan,Komplek perumahan,jemmy,"WPQW+9V6, Lembudud, Krayan, Kabupaten Nunukan, Kalimantan Utara 77456","Lembudud, Krayan, Kabupaten Nunukan",KALIMANTAN UTARA,77456.0,Indonesia,,,,3.9384298,115.7470917,https://maps.google.com/?cid=0x0:0xd77e86253d0febcb,
perumahan,Komplek perumahan,Rumah Alvaro,"VPRM+G4C, Pa Kemut, Krayan, Kabupaten Nunukan, Kalimantan Utara 77456","Pa Kemut, Krayan, Kabupaten Nunukan",KALIMANTAN UTARA,77456.0,Indonesia,,,,3.891322,115.7327636,https://maps.google.com/?cid=0x0:0xcac4e71520242675,
perumahan,Komplek perumahan,Alung,"VMM2+73Q, Berian Baru, Krayan, Kabupaten Nunukan, Kalimantan Utara","Kabupaten Nunukan, Kalimantan Utara",KALIMANTAN UTARA,,Indonesia,,,,3.8825712,115.6506832,https://maps.google.com/?cid=0x0:0x32ec992d606724c1,
perumahan,Pembangunan Perumahan,Wa' Yagung,"5W88+7V9, Wa Yagung, Krayan, Kabupaten Nunukan, Kalimantan Utara","Kabupaten Nunukan, Kalimantan Utara",KALIMANTAN UTARA,,Indonesia,,,,4.1656598,115.9172336,https://maps.google.com/?cid=0x0:0x910641f473a7a4db,
perumahan,Komplek perumahan,Markelius,"5V89+WXF, Long Umung, Krayan, Kabupaten Nunukan, Kalimantan Utara 77456","Long Umung, Krayan, Kabupaten Nunukan",KALIMANTAN UTARA,77456.0,Indonesia,,,,4.1673241,115.8699209,https://maps.google.com/?cid=0x0:0x6c9ec33e9a31b35e,
perumahan,Kantor Pemerintah,Kantor Desa Pa' Kebuan,"WPQX+54, Lembudud, Krayan, Kabupaten Nunukan, Kalimantan Utara 77456","Lembudud, Krayan, Kabupaten Nunukan",KALIMANTAN UTARA,77456.0,Indonesia,,,,3.9377374,115.7479365,https://maps.google.com/?cid=0x0:0xd4da76ed99aadb12,
perumahan,Perhimpunan Pengembang Perumahan,Asrma polisi,"3VHQ+933, Jl.kasmir foret, Long Katung, Krayan, Kabupaten Nunukan, Kalimantan Utara 77456","Jl.kasmir foret, Long Katung, Krayan, Kabupaten Nunukan",KALIMANTAN UTARA,77456.0,Indonesia,,,,4.0783942,115.8876641,https://maps.google.com/?cid=0x0:0x1f466f6587b1591a,
perumahan,perumahan,Kec. Lumbis,"Kabupaten Nunukan, Kalimantan Utara","Kabupaten Nunukan, Kalimantan Utara",KALIMANTAN UTARA,,Indonesia,,,,3.7539235,116.7420499,https://maps.google.com/?cid=0x0:0xd64a09322f304639,
perumahan,perumahan,Kalimantan Utara 77457,"Kabupaten Nunukan, Kalimantan Utara","Kabupaten Nunukan, Kalimantan Utara",KALIMANTAN UTARA,,Indonesia,,,,4.0104303,116.5137964,https://maps.google.com/?cid=0x0:0x82344e1d8c5acb7d,
perumahan,Komplek perumahan,Desa Jukup,"3F29+FRM, Jukup, Lumbis Ogong, Kabupaten Nunukan, Kalimantan Utara 77457","Jukup, Lumbis Ogong, Kabupaten Nunukan",KALIMANTAN UTARA,77457.0,Indonesia,,,,4.051221,116.4695477,https://maps.google.com/?cid=0x0:0x4fcdb2733a4ae255,
perumahan,Pembangunan Perumahan,Desa Semata,"XGFJ+2G, Semata, Lumbis Ogong, Kabupaten Nunukan, Kalimantan Utara","Kabupaten Nunukan, Kalimantan Utara",KALIMANTAN UTARA,,Indonesia,,,,3.9725625,116.5313125,https://maps.google.com/?cid=0x0:0xca2d77dc9cf1bae3,
perumahan,Komplek perumahan,Rumah Kost Rambutan,"QP5Q+4CQ, Libang, Kec. Lumbis, Kabupaten Nunukan, Kalimantan Utara 77457","Libang, Kec. Lumbis, Kabupaten Nunukan",KALIMANTAN UTARA,77457.0,Indonesia,,,,3.7577287,116.7384203,https://maps.google.com/?cid=0x0:0xafe044aaf49c23cd,
perumahan,Kantor Pemerintah,Mess Kecamatan,"QP4V+8VC, Libang, Kec. Lumbis, Kabupaten Nunukan, Kalimantan Utara 77457","Libang, Kec. Lumbis, Kabupaten Nunukan",KALIMANTAN UTARA,77457.0,Indonesia,,,,3.7557501,116.7446031,https://maps.google.com/?cid=0x0:0x68103d0abea1e588,
perumahan,Pembangunan Perumahan,Desa Kalampising,"PQW4+X69, Desa, Kalampising, Kec. Lumbis, Kabupaten Nunukan, Kalimantan Utara","Kabupaten Nunukan, Kalimantan Utara",KALIMANTAN UTARA,,Indonesia,,,,3.7474026,116.7555938,https://maps.google.com/?cid=0x0:0xbac27ecd423d4452,
perumahan,Pembangunan Perumahan,Desa siawang,"PQW2+PHM, Libang, Kec. Lumbis, Kabupaten Nunukan, Kalimantan Utara 77457","Libang, Kec. Lumbis, Kabupaten Nunukan",KALIMANTAN UTARA,77457.0,Indonesia,,,,3.7468287,116.7514224,https://maps.google.com/?cid=0x0:0x5891850b58f06e4d,
perumahan,Pembangunan Perumahan,Desa Sumalumung,"QPCR+M55, Libang, Kec. Lumbis, Kabupaten Nunukan, Kalimantan Utara","Kabupaten Nunukan, Kalimantan Utara",KALIMANTAN UTARA,,Indonesia,,,,3.7716427,116.7404691,https://maps.google.com/?cid=0x0:0x32ed846c3f83c6d5,
perumahan,Komplek perumahan,Desa duyan kecamatan lumbis,"47Q8+Q92, Duyan, Lumbis Ogong, Kabupaten Nunukan, Kalimantan Utara 77457","Duyan, Lumbis Ogong, Kabupaten Nunukan",KALIMANTAN UTARA,77457.0,Indonesia,,,,4.1393984,116.2658968,https://maps.google.com/?cid=0x0:0xb93107b4e9ef7640,
perumahan,Dapur Umum,Kalimantan Utara,"3JJ5+97M, Linsayung, Lumbis Ogong, Kabupaten Nunukan, Kalimantan Utara","Kabupaten Nunukan, Kalimantan Utara",KALIMANTAN UTARA,,Indonesia,,,,4.0809649,116.6081653,https://maps.google.com/?cid=0x0:0xf9e703783a0aa459,
perumahan,Perumahan,KANTOR DESA KALAMPISING,"RP5Q+R4Q, Kalampising, Kec. Lumbis, Kabupaten Nunukan, Kalimantan Utara","Kabupaten Nunukan, Kalimantan Utara",KALIMANTAN UTARA,,Indonesia,,,,3.8095834,116.7378585,https://maps.google.com/?cid=0x0:0xfd71066993f45f4,
perumahan,Komplek perumahan,Tukulon kecamatan lumbis ogong,"WFMW+3C9, Tukulon, Lumbis Ogong, Kabupaten Nunukan, Kalimantan Utara 77457","Tukulon, Lumbis Ogong, Kabupaten Nunukan",KALIMANTAN UTARA,77457.0,Indonesia,,,,3.9326591,116.4960979,https://maps.google.com/?cid=0x0:0xa46ce90cdd2f172f,
perumahan,Pembangunan Perumahan,Desa Semata,"3HFF+54V, Semata, Lumbis Ogong, Kabupaten Nunukan, Kalimantan Utara 77457","Semata, Lumbis Ogong, Kabupaten Nunukan",KALIMANTAN UTARA,77457.0,Indonesia,,,,4.0729851,116.5727815,https://maps.google.com/?cid=0x0:0x3d0b40bae1b5ff6b,
perumahan,Perumahan,Desa Nainsid,"Kelompok Kalampising, Jln. Pembagunan, Desa Nainsid, Kec. Lumbis, Kabupaten Nunukan, Kalimantan Utara","Kabupaten Nunukan, Kalimantan Utara",KALIMANTAN UTARA,,Indonesia,,,,3.7486531,116.7512365,https://maps.google.com/?cid=0x0:0x1344e92d8dc70099,
perumahan,Pembangunan Perumahan,Desa Sasibu,"PQW2+WMG, Jl. Sasibu, Libang, Kec. Lumbis, Kabupaten Nunukan, Kalimantan Utara","Kabupaten Nunukan, Kalimantan Utara",KALIMANTAN UTARA,,Indonesia,,,,3.7473146,116.7516931,https://maps.google.com/?cid=0x0:0xffea7aec5e7f9f84,
perumahan,Pembangunan Perumahan,Desa sasibu,"49XG+PQ, Langgason, Lumbis Ogong, Kabupaten Nunukan, Kalimantan Utara","Kabupaten Nunukan, Kalimantan Utara",KALIMANTAN UTARA,,Indonesia,,,,4.149308,116.376973,https://maps.google.com/?cid=0x0:0xa06fae0c5949d033,
perumahan,perumahan,Rumah saya,"PPVJ+JR, Libang, Kec. Lumbis, Kabupaten Nunukan, Kalimantan Utara","Kabupaten Nunukan, Kalimantan Utara",KALIMANTAN UTARA,,Indonesia,,,,3.7440428,116.7321172,https://maps.google.com/?cid=0x0:0x69516b82136c8dc7,
perumahan,Komplek perumahan,rumah toy,"RP5Q+R4Q, Kalampising, Kec. Lumbis, Kabupaten Nunukan, Kalimantan Utara 77457","Kalampising, Kec. Lumbis, Kabupaten Nunukan",KALIMANTAN UTARA,77457.0,Indonesia,,,,3.8095834,116.7378585,https://maps.google.com/?cid=0x0:0xa3304fedfad0c339,
perumahan,Komplek perumahan,Rumah Pak Yunus,"PP67+2R, Libang, Kec. Lumbis, Kabupaten Nunukan, Kalimantan Utara","Kabupaten Nunukan, Kalimantan Utara",KALIMANTAN UTARA,,Indonesia,,,,3.7100717,116.7145356,https://maps.google.com/?cid=0x0:0xfc43de4e5f87b78,
perumahan,Pembangunan Perumahan,Desa Tmabalang Hilir,"2FGM+4PF, Tambalang Hilir, Lumbis Ogong, Kabupaten Nunukan, Kalimantan Utara 77457","Tambalang Hilir, Lumbis Ogong, Kabupaten Nunukan",KALIMANTAN UTARA,77457.0,Indonesia,,,,4.0253045,116.4842982,https://maps.google.com/?cid=0x0:0xbe32777e22a623f1,
perumahan,Pembangunan Perumahan,Villa Moko,"PPXP+G5W, Libang, Kec. Lumbis, Kabupaten Nunukan, Kalimantan Utara 77457","Libang, Kec. Lumbis, Kabupaten Nunukan",KALIMANTAN UTARA,77457.0,Indonesia,,,,3.7488533,116.7354377,https://maps.google.com/?cid=0x0:0x59f1b9ad30dfc2a0,
perumahan,Komplek perumahan,Desa Dabulon,"PPRJ+MJ, Dabulon, Kec. Lumbis, Kabupaten Nunukan, Kalimantan Utara","Kabupaten Nunukan, Kalimantan Utara",KALIMANTAN UTARA,,Indonesia,,,,3.741691,116.7328826,https://maps.google.com/?cid=0x0:0xe9262f5fc5b76952,
perumahan,Perhimpunan Pengembang Perumahan,Rumah marsela,"PQX3+79Q, Libang, Kec. Lumbis, Kabupaten Nunukan, Kalimantan Utara 77457","Libang, Kec. Lumbis, Kabupaten Nunukan",KALIMANTAN UTARA,77457.0,Indonesia,,,,3.7482109,116.7534823,https://maps.google.com/?cid=0x0:0xa97bb3906deaf37f,
perumahan,Komplek perumahan,Sebatik desa sungai limau,"3JJ5+97M, Linsayung, Lumbis Ogong, Kabupaten Nunukan, Kalimantan Utara","Kabupaten Nunukan, Kalimantan Utara",KALIMANTAN UTARA,,Indonesia,,,,4.0809649,116.6081653,https://maps.google.com/?cid=0x0:0xad3f1ec21fc45553,
perumahan,Komplek perumahan,Keluarga Terhormat R.Lauma.Kohongia,"3JJ5+97M, Linsayung, Lumbis Ogong, Kabupaten Nunukan, Kalimantan Utara 77457","Linsayung, Lumbis Ogong, Kabupaten Nunukan",KALIMANTAN UTARA,77457.0,Indonesia,,,,4.0809649,116.6081653,https://maps.google.com/?cid=0x0:0xdfdd338a23aa1218,
perumahan,Komplek perumahan,Rumah suhardi,"QPFR+5CW, Libang, Kec. Lumbis, Kabupaten Nunukan, Kalimantan Utara 77457","Libang, Kec. Lumbis, Kabupaten Nunukan",KALIMANTAN UTARA,77457.0,Indonesia,,,,3.7730425,116.7395156,https://maps.google.com/?cid=0x0:0x51b917fa2b828188,
perumahan,Pembangunan Perumahan,Desa Pa'lemumut,"PP46+9G, Pa, lemumut, Lumbis Ogong, Kabupaten Nunukan, Kalimantan Utara","Kabupaten Nunukan, Kalimantan Utara",KALIMANTAN UTARA,,Indonesia,,,,4.1059375,116.6113125,https://maps.google.com/?cid=0x0:0x594fba9dd73965cd,
perumahan,perumahan,Nunukan,"Nunukan Tim., Kec. Nunukan, Kabupaten Nunukan, Kalimantan Timur","Kabupaten Nunukan, Kalimantan Timur",KALIMANTAN UTARA,,Indonesia,,,,4.1393382,117.6496257,https://maps.google.com/?cid=0x0:0xc3fd6e9667d03afd,
perumahan,Komplek perumahan,KAMPUNG REL,"4JQX+7XC, Jl. Bhayangkara, Nunukan Tim., Kec. Nunukan, Kabupaten Nunukan, Kalimantan Utara 77482","Jl. Bhayangkara, Nunukan Tim., Kec. Nunukan, Kabupaten Nunukan",KALIMANTAN UTARA,77482.0,Indonesia,,,,4.1381782,117.6498815,https://maps.google.com/?cid=0x0:0xa69e823e3d2e5f8f,
perumahan,Perumahan,Griya antasari baru,"4JQX+PVC, Nunukan Tim., Kec. Nunukan, Kabupaten Nunukan, Kalimantan Utara","Kabupaten Nunukan, Kalimantan Utara",KALIMANTAN UTARA,,Indonesia,,,,4.1393225,117.649648,https://maps.google.com/?cid=0x0:0x1befb796faea1be6,
perumahan,Otoritas Pelabuhan,Sungai bolong menu ju lapas nunukan,"4JQX+PVC, Nunukan Tim., Kec. Nunukan, Kabupaten Nunukan, Kalimantan Utara","Kabupaten Nunukan, Kalimantan Utara",KALIMANTAN UTARA,,Indonesia,,,,4.1393225,117.649648,https://maps.google.com/?cid=0x0:0x4146ea3cf223e385,
perumahan,Pembangunan Perumahan,Sutanto,"Jl. Sutanto No.79-100, Nunukan Tim., Kec. Nunukan, Kabupaten Nunukan, Kalimantan Utara 77482","Nunukan Tim., Kec. Nunukan, Kabupaten Nunukan",KALIMANTAN UTARA,77482.0,Indonesia,,,,4.1376083,117.6522165,https://maps.google.com/?cid=0x0:0xf026f2c1371e2c6c,
perumahan,Komplek perumahan,Dabulon,"4JQX+PVC, Nunukan Tim., Kec. Nunukan, Kabupaten Nunukan, Kalimantan Utara","Kabupaten Nunukan, Kalimantan Utara",KALIMANTAN UTARA,,Indonesia,,,,4.1393225,117.649648,https://maps.google.com/?cid=0x0:0x74ee1167184deafa,
perumahan,Komplek perumahan,budi,"4JQX+PVC, jln lumba lumba lorong 1, Nunukan Tim., Kec. Nunukan, Kabupaten Nunukan, Kalimantan Utara","Kabupaten Nunukan, Kalimantan Utara",KALIMANTAN UTARA,,Indonesia,,,,4.1393225,117.649648,https://maps.google.com/?cid=0x0:0x3a9cd5fa8cf22be9,
perumahan,Pembangunan Perumahan,Tembok shigashina,"4JQX+PVC, Nunukan Tim., Kec. Nunukan, Kabupaten Nunukan, Kalimantan Utara","Kabupaten Nunukan, Kalimantan Utara",KALIMANTAN UTARA,,Indonesia,,,,4.1393225,117.649648,https://maps.google.com/?cid=0x0:0x2877d3367ed7a372,
perumahan,Komplek perumahan,Rumah ryan,"4MP2+QQ8, Jl. RA. Kartini, Nunukan Tim., Kec. Nunukan, Kabupaten Nunukan, Kalimantan Utara 77482","Jl. RA. Kartini, Nunukan Tim., Kec. Nunukan, Kabupaten Nunukan",KALIMANTAN UTARA,77482.0,Indonesia,,,,4.1378469,117.6512329,https://maps.google.com/?cid=0x0:0xebb049826549f987,
perumahan,perumahan,Nunuhkniti,"4JQX+PVJ, Nunukan Tim., Kec. Nunukan, Kabupaten Nunukan, Kalimantan Timur","Kabupaten Nunukan, Kalimantan Timur",KALIMANTAN UTARA,,Indonesia,,,,4.1393382,117.6496257,https://maps.google.com/?cid=0x0:0x294d25d698817c1a,
perumahan,Kantor Pemerintah,Asrama Brimob,"4JQX+PVG, Jln alm. Bharatu Moh Aldy, Nunukan Tim., Kec. Nunukan, Kabupaten Nunukan, Kalimantan Utara 77482","Jln alm. Bharatu Moh Aldy, Nunukan Tim., Kec. Nunukan, Kabupaten Nunukan",KALIMANTAN UTARA,77482.0,Indonesia,,,,4.1393223,117.649694,https://maps.google.com/?cid=0x0:0x6bff7be7c9ef0058,
perumahan,Pembangunan Perumahan,Sungay Patimah,"4JQX+PVC, Nunukan Tim., Kec. Nunukan, Kabupaten Nunukan, Kalimantan Utara","Kabupaten Nunukan, Kalimantan Utara",KALIMANTAN UTARA,,Indonesia,,,,4.1393225,117.649648,https://maps.google.com/?cid=0x0:0x52995c384eabb53f,
perumahan,Gedung Apartemen,Rumah Dinas Kakanim Nunukan,"Jl. A. Yani No.13, Nunukan Tim., Kec. Nunukan, Kabupaten Nunukan, Kalimantan Utara 77482","Nunukan Tim., Kec. Nunukan, Kabupaten Nunukan",KALIMANTAN UTARA,77482.0,Indonesia,,,,4.1385746,117.6509179,https://maps.google.com/?cid=0x0:0x773481d25ed5ad28,
perumahan,Komplek perumahan,Kos ank krayan,"4JQX+PVC, Nunukan Tim., Kec. Nunukan, Kabupaten Nunukan, Kalimantan Utara","Kabupaten Nunukan, Kalimantan Utara",KALIMANTAN UTARA,,Indonesia,,,,4.1393225,117.649648,https://maps.google.com/?cid=0x0:0xa7cef07ccf66e04a,
perumahan,Jasa Konstruksi dan Bangunan,Sp 3,"4JQX+PVC Sp3, jalan cempaka, Nunukan Tim., Kec. Nunukan, Kabupaten Nunukan, Kalimantan Utara","Kabupaten Nunukan, Kalimantan Utara",KALIMANTAN UTARA,,Indonesia,,,,4.1393225,117.649648,https://maps.google.com/?cid=0x0:0xa82a1b17372d8c7f,
perumahan,Pembangunan Perumahan,Pasang pukat jangkar,"4JQX+PVC, Nunukan Tim., Kec. Nunukan, Kabupaten Nunukan, Kalimantan Timur","Kabupaten Nunukan, Kalimantan Timur",KALIMANTAN UTARA,,Indonesia,,,,4.1393225,117.649648,https://maps.google.com/?cid=0x0:0xa2c9c9edbcce1021,
perumahan,Komplek perumahan,Mama David,"4MQ2+5V9, Nunukan Tim., Kec. Nunukan, Kabupaten Nunukan, Kalimantan Utara","Kabupaten Nunukan, Kalimantan Utara",KALIMANTAN UTARA,,Indonesia,,,,4.1379204,117.6522399,https://maps.google.com/?cid=0x0:0xe74c6a80937e4a46,
perumahan,Pembangunan Perumahan,Rumah Bumn Nunukan,"Nunukan Tim., Kec. Nunukan, Kabupaten Nunukan, Kalimantan Utara","Kabupaten Nunukan, Kalimantan Utara",KALIMANTAN UTARA,,Indonesia,,,,4.1389578,117.650908,https://maps.google.com/?cid=0x0:0xa991fee2c7f0381f,
perumahan,Rumah Kayu,Aswar,"4JQX+JWF, Nunukan Tim., Kec. Nunukan, Kabupaten Nunukan, Kalimantan Utara 77482","Nunukan Tim., Kec. Nunukan, Kabupaten Nunukan",KALIMANTAN UTARA,77482.0,Indonesia,,,,4.1386858,117.649674,https://maps.google.com/?cid=0x0:0xaea88e4b12bf52c0,
perumahan,Toko umum,Toko Suara Cipta,"4MQ2+JFR, Nunukan Tim., Kec. Nunukan, Kabupaten Nunukan, Kalimantan Utara 77482","Nunukan Tim., Kec. Nunukan, Kabupaten Nunukan",KALIMANTAN UTARA,77482.0,Indonesia,81253144744.0,,,4.1391002,117.6511328,https://maps.google.com/?cid=0x0:0xc7940a55266efbeb,
perumahan,perumahan,Pulau Nunukan,"Kabupaten Nunukan, Kalimantan Utara","Kabupaten Nunukan, Kalimantan Utara",KALIMANTAN UTARA,,Indonesia,,,,4.0609227,117.666952,https://maps.google.com/?cid=0x0:0xa3a4d934edf96a69,
perumahan,Komplek perumahan,Rusunawa Nunukan,"4P23+QVQ, Nunukan Sel., Kabupaten Nunukan, Kalimantan Utara 77482","Nunukan Sel., Kabupaten Nunukan",KALIMANTAN UTARA,77482.0,Indonesia,,,,4.1019722,117.7047491,https://maps.google.com/?cid=0x0:0xce065292e6402aa9,
perumahan,Perumahan,Griya antasari baru,"4JQX+PVC, Nunukan Tim., Kec. Nunukan, Kabupaten Nunukan, Kalimantan Utara","Kabupaten Nunukan, Kalimantan Utara",KALIMANTAN UTARA,,Indonesia,,,,4.1393225,117.649648,https://maps.google.com/?cid=0x0:0x1befb796faea1be6,
perumahan,perumahan,Nunukan Sel.,"Kabupaten Nunukan, Kalimantan Utara","Kabupaten Nunukan, Kalimantan Utara",KALIMANTAN UTARA,,Indonesia,,,,4.0591834,117.7138785,https://maps.google.com/?cid=0x0:0x387c6400b26993a1,
perumahan,Kantor Perusahaan,RRI Nunukan,"Selisun, Nunukan Sel., Kabupaten Nunukan, Kalimantan Utara 77482","Nunukan Sel., Kabupaten Nunukan",KALIMANTAN UTARA,77482.0,Indonesia,55623505.0,,,4.1219573,117.6711296,https://maps.google.com/?cid=0x0:0xa2369c8c4113f481,
perumahan,Padang,Rumah Makan NURHASANAH,"3PM9+M3W, Nunukan Sel., Kabupaten Nunukan, Kalimantan Utara 77482","Nunukan Sel., Kabupaten Nunukan",KALIMANTAN UTARA,77482.0,Indonesia,,,,4.0842298,117.717708,https://maps.google.com/?cid=0x0:0xf21894806d345e31,
perumahan,perumahan,Kalimantan Utara 77482,"Kabupaten Nunukan, Kalimantan Utara","Kabupaten Nunukan, Kalimantan Utara",KALIMANTAN UTARA,,Indonesia,,,,4.1377066,117.0794082,https://maps.google.com/?cid=0x0:0xe448c81886e99c56,
perumahan,Pembangunan Perumahan,Nunukan selatan,"3P57+MHC, Mansapa, Nunukan Sel., Kabupaten Nunukan, Kalimantan Utara","Kabupaten Nunukan, Kalimantan Utara",KALIMANTAN UTARA,,Indonesia,,,,4.0591834,117.7138785,https://maps.google.com/?cid=0x0:0x2346e4acf524cf61,
perumahan,Pembangunan Perumahan,Perumahan Bumi Nunukan Adil,"4M7Q+GW6, Selisun, Nunukan Sel., Kabupaten Nunukan, Kalimantan Utara 77482","Selisun, Nunukan Sel., Kabupaten Nunukan",KALIMANTAN UTARA,77482.0,Indonesia,,,,4.1137974,117.6897784,https://maps.google.com/?cid=0x0:0x43bd6ceb2e51db24,
perumahan,Otoritas Perumahan,Sedadap Ujung,"3PMF+89M, Nunukan Sel., Kabupaten Nunukan, Kalimantan Utara 77482","Nunukan Sel., Kabupaten Nunukan",KALIMANTAN UTARA,77482.0,Indonesia,,,,4.0834157,117.724573,https://maps.google.com/?cid=0x0:0x9fba2480be3e61bc,
perumahan,Pembangunan Perumahan,Rumah Firda,"3PMF+6J9, Nunukan Sel., Kabupaten Nunukan, Kalimantan Utara 77482","Nunukan Sel., Kabupaten Nunukan",KALIMANTAN UTARA,77482.0,Indonesia,,,,4.0830485,117.7241214,https://maps.google.com/?cid=0x0:0xf7d49841bbd656e2,
perumahan,Otoritas Perumahan,Perumahan APERNAS,"Unnamed Road, Tj. Harapan, Nunukan Sel., Kabupaten Nunukan, Kalimantan Utara 77482","Tj. Harapan, Nunukan Sel., Kabupaten Nunukan",KALIMANTAN UTARA,77482.0,Indonesia,,,,4.0412951,117.723623,https://maps.google.com/?cid=0x0:0x5c981722389f7da0,
perumahan,Perumahan,Perumahan Abdi Praja,"3PP9+RGP, Jl. Ujang Dewa, RT.001/RW.001, Nunukan Sel., Kabupaten Nunukan, Kalimantan Utara 77482","Jl. Ujang Dewa, RT.001/RW.001, Nunukan Sel., Kabupaten Nunukan",KALIMANTAN UTARA,77482.0,Indonesia,,,,4.0870916,117.7188163,https://maps.google.com/?cid=0x0:0x1c050d0a5c25439a,
perumahan,Pembangunan Perumahan,PERUMAHAN GRIYA PERMAI,"3PM4+FW7, Jl. Ujang Dewa, Nunukan Sel., Kabupaten Nunukan, Kalimantan Utara 77482","Jl. Ujang Dewa, Nunukan Sel., Kabupaten Nunukan",KALIMANTAN UTARA,77482.0,Indonesia,,,,4.0836534,117.7073053,https://maps.google.com/?cid=0x0:0x9997c769846e437e,
perumahan,Pembangunan Perumahan,Sudi,"3PH4+J33, Nunukan Sel., Kabupaten Nunukan, Kalimantan Utara 77482","Nunukan Sel., Kabupaten Nunukan",KALIMANTAN UTARA,77482.0,Indonesia,,,,4.0790009,117.7051776,https://maps.google.com/?cid=0x0:0xc8f17a2ddc062064,
perumahan,Perhimpunan Pengembang Perumahan,Mansapa,"3P7V+7RM, Mansapa, Nunukan Sel., Kabupaten Nunukan, Kalimantan Utara 77482","Mansapa, Nunukan Sel., Kabupaten Nunukan",KALIMANTAN UTARA,77482.0,Indonesia,,,,4.0632144,117.7445419,https://maps.google.com/?cid=0x0:0x99183d15f282611a,
perumahan,Perumahan,PERUM GRIYA SEJAHTRA,"3PQ5+3M6, Jl. Ujang Dewa, Nunukan Sel., Kabupaten Nunukan, Kalimantan Utara 77482","Jl. Ujang Dewa, Nunukan Sel., Kabupaten Nunukan",KALIMANTAN UTARA,77482.0,Indonesia,,,,4.0876568,117.7091456,https://maps.google.com/?cid=0x0:0xadfe053a539a97f8,
perumahan,Komplek perumahan,Guder,"4MJC+35M, Selisun, Nunukan Sel., Kabupaten Nunukan, Kalimantan Utara","Kabupaten Nunukan, Kalimantan Utara",KALIMANTAN UTARA,,Indonesia,,,,4.1308574,117.6716983,https://maps.google.com/?cid=0x0:0xc365e8104d79b7e7,
perumahan,Komplek perumahan,Home Daeng,"3PH5+G7V, Jl. Ujang Dewa, Nunukan Sel., Kabupaten Nunukan, Kalimantan Utara 77482","Jl. Ujang Dewa, Nunukan Sel., Kabupaten Nunukan",KALIMANTAN UTARA,77482.0,Indonesia,81253727856.0,,,4.0788698,117.708172,https://maps.google.com/?cid=0x0:0x8905ca66b3752ee,
perumahan,Komplek perumahan,Jl. Wa Aka,"4M5V+9VG, Selisun, Nunukan Sel., Kabupaten Nunukan, Kalimantan Utara 77482","Selisun, Nunukan Sel., Kabupaten Nunukan",KALIMANTAN UTARA,77482.0,Indonesia,,,,4.1085777,117.6942164,https://maps.google.com/?cid=0x0:0x52154aec8937888a,
perumahan,Komplek perumahan,Home Fam'G (Cake),"4M6F+9M, Selisun, Nunukan Sel., Kabupaten Nunukan, Kalimantan Utara","Kabupaten Nunukan, Kalimantan Utara",KALIMANTAN UTARA,,Indonesia,,,,4.1108976,117.6742337,https://maps.google.com/?cid=0x0:0x9bee4a3e90c31604,
perumahan,Pembangunan Perumahan,Perumahan GSP,"3PP6+JQ9, Sedadap, Nunukan Sel., Kabupaten Nunukan, Kalimantan Utara 77482","Sedadap, Nunukan Sel., Kabupaten Nunukan",KALIMANTAN UTARA,77482.0,Indonesia,,,,4.0865281,117.711974,https://maps.google.com/?cid=0x0:0xdbe64ccb00697438,
perumahan,Pembangunan Perumahan,Rose's family,"4M7Q+GMP, Selisun, Nunukan Sel., Kabupaten Nunukan, Kalimantan Utara 77482","Selisun, Nunukan Sel., Kabupaten Nunukan",KALIMANTAN UTARA,77482.0,Indonesia,,,,4.1138368,117.6892037,https://maps.google.com/?cid=0x0:0x3c981a24f4c53b58,
perumahan,Pembangunan Perumahan,Muh nur family,"3PMF+89M, Nunukan Sel., Kabupaten Nunukan, Kalimantan Utara 77482","Nunukan Sel., Kabupaten Nunukan",KALIMANTAN UTARA,77482.0,Indonesia,,,,4.0831779,117.7244785,https://maps.google.com/?cid=0x0:0x41ad2ffe782b12c5,
perumahan,Komplek perumahan,Rumah condeng,"3PMF+F94, Nunukan Sel., Kabupaten Nunukan, Kalimantan Utara 77482","Nunukan Sel., Kabupaten Nunukan",KALIMANTAN UTARA,77482.0,Indonesia,,,,4.0836383,117.7234637,https://maps.google.com/?cid=0x0:0xc677227eae5d2545,
perumahan,Pembangunan Perumahan,AHMI,"Jl. Ujang Dewa, Nunukan Sel., Kabupaten Nunukan, Kalimantan Utara 77482","Nunukan Sel., Kabupaten Nunukan",KALIMANTAN UTARA,77482.0,Indonesia,,,,4.095904,117.7093062,https://maps.google.com/?cid=0x0:0xb2aec578d9a615f7,
perumahan,Komplek perumahan,Rumah ku,"4MFP+J29, Selisun, Nunukan Sel., Kabupaten Nunukan, Kalimantan Utara 77482","Selisun, Nunukan Sel., Kabupaten Nunukan",KALIMANTAN UTARA,77482.0,Indonesia,,,,4.1247355,117.685399,https://maps.google.com/?cid=0x0:0xf4ac0b6b5de69d1,
perumahan,Komplek perumahan,Asnisar,"4MGJ+347, Jl. Pesantren Hidayatullah, Selisun, Nunukan Sel., Kabupaten Nunukan, Kalimantan Utara 77482","Jl. Pesantren Hidayatullah, Selisun, Nunukan Sel., Kabupaten Nunukan",KALIMANTAN UTARA,77482.0,Indonesia,,,,4.1251574,117.6802817,https://maps.google.com/?cid=0x0:0xa74f086e459d0a59,
perumahan,perumahan,Kalimantan Utara 77483,"Kabupaten Nunukan, Kalimantan Utara","Kabupaten Nunukan, Kalimantan Utara",KALIMANTAN UTARA,,Indonesia,,,,4.1288838,117.8076959,https://maps.google.com/?cid=0x0:0x196bc50d99899ad,
perumahan,perumahan,L A Hotel,"38, Jalan Haji Karim, Bandar Tawau, 91000 Tawau, Sabah, Malaysia",Tawau,KALIMANTAN UTARA,91000.0,Indonesia,6089762299.0,,,4.2464986,117.8932796,https://maps.google.com/?cid=0x0:0x1cf24748593f61dd,
perumahan,Bangunan Bersejarah,Wisata Rumah Dua Negara,"77483 Tawau, Sabah, Malaysia",Tawau,KALIMANTAN UTARA,77483.0,Indonesia,,,,4.1667212,117.8638561,https://maps.google.com/?cid=0x0:0xcef633e4f840bfac,
perumahan,Pembangunan Perumahan,ERTIGA SEBATIK,"3QW8+8JP, Binalawan, Kabupaten Nunukan, Kalimantan Utara 77483","Binalawan, Kabupaten Nunukan",KALIMANTAN UTARA,77483.0,Indonesia,,,,4.0962501,117.7663809,https://maps.google.com/?cid=0x0:0x90207580e2df9667,
perumahan,Balai masyarakat,"Kampung Lourdes, Sebatik Tengah, Nunukan, kaltara","5Q4P+2CW, Aji Kuning, Kec. Sebatik Tengah, Kabupaten Nunukan, Kalimantan Utara 77483","Aji Kuning, Kec. Sebatik Tengah, Kabupaten Nunukan",KALIMANTAN UTARA,77483.0,Indonesia,82350281078.0,,,4.1551111,117.7860798,https://maps.google.com/?cid=0x0:0x9d0e62fd234cf809,
perumahan,Pembangunan Perumahan,PERUMAHAN BUMI PERKASA,"5V5X+X2X, Jl. Sultan Hasanuddin, Pancang, Kec. Sebatik, Kabupaten Nunukan, Kalimantan Utara 77483","Jl. Sultan Hasanuddin, Pancang, Kec. Sebatik, Kabupaten Nunukan",KALIMANTAN UTARA,77483.0,Indonesia,,,,4.1599813,117.8976043,https://maps.google.com/?cid=0x0:0xa1b0deeabd83c717,
perumahan,Pembangunan Perumahan,Sungai baru,"3R99+92V, Setabu, Kec. Sebatik Bar., Kabupaten Nunukan, Kalimantan Utara 77483","Setabu, Kec. Sebatik Bar., Kabupaten Nunukan",KALIMANTAN UTARA,77483.0,Indonesia,,,,4.0684861,117.8175595,https://maps.google.com/?cid=0x0:0x4b04abca8d13564a,
perumahan,Komplek perumahan,Binasalm,"4Q87+MC5, Liang Bunyu, Kec. Sebatik Bar., Kabupaten Nunukan, Kalimantan Utara 77483","Liang Bunyu, Kec. Sebatik Bar., Kabupaten Nunukan",KALIMANTAN UTARA,77483.0,Indonesia,,,,4.117658,117.762627,https://maps.google.com/?cid=0x0:0xafca64313c96410e,
perumahan,Pembangunan Perumahan,Home,"3QPQ+VQM, Setabu, Kec. Sebatik Bar., Kabupaten Nunukan, Kalimantan Utara 77483","Setabu, Kec. Sebatik Bar., Kabupaten Nunukan",KALIMANTAN UTARA,77483.0,Indonesia,,,,4.0881852,117.7897934,https://maps.google.com/?cid=0x0:0x2f156d612daf51f4,
perumahan,Komplek perumahan,Rumah saury,"Jl. Ahmad Yani No.14, Sungai Nyamuk, Kec. Sebatik Timur, Kabupaten Nunukan, Kalimantan Utara 77483","Sungai Nyamuk, Kec. Sebatik Timur, Kabupaten Nunukan",KALIMANTAN UTARA,77483.0,Indonesia,,,,4.1464379,117.9093678,https://maps.google.com/?cid=0x0:0xb12ef036458b4586,
perumahan,Komplek perumahan,Rumah PETRUS,"Jl H.Bakri No.08, RT.04, Sungai Nyamuk, Kec. Sebatik Timur, Kabupaten Nunukan, Kalimantan Utara 77483","RT.04, Sungai Nyamuk, Kec. Sebatik Timur, Kabupaten Nunukan",KALIMANTAN UTARA,77483.0,Indonesia,,,,4.1175121,117.8663075,https://maps.google.com/?cid=0x0:0x88b2a70724c1f0dc,
perumahan,Perhimpunan Pengembang Perumahan,Perumahan PKM Sei. Taiwan,"Jln. Lujoh No.RT.05, Desa Sei. Manurung, Kec. Sebatik, Kabupaten Nunukan, Kalimantan Utara 77484","Desa Sei. Manurung, Kec. Sebatik, Kabupaten Nunukan",KALIMANTAN UTARA,77484.0,Indonesia,,,,4.0704425,117.9067632,https://maps.google.com/?cid=0x0:0xed6420c36944cd70,
perumahan,Pembangunan Perumahan,Sahruddin Adhy,"3RP7+XCV, Jl Sei Kebakil, Setabu, Kec. Sebatik Bar., Kabupaten Nunukan, Kalimantan Utara 77483","Jl Sei Kebakil, Setabu, Kec. Sebatik Bar., Kabupaten Nunukan",KALIMANTAN UTARA,77483.0,Indonesia,,,,4.0874828,117.8135579,https://maps.google.com/?cid=0x0:0xae8929f83d4c0607,
perumahan,Pembangunan Perumahan,Elvi,"RT.003/RW.003, sai. Lappio, Setabu, Kec. Sebatik Bar., Kabupaten Nunukan, Kalimantan Utara 77483","sai. Lappio, Setabu, Kec. Sebatik Bar., Kabupaten Nunukan",KALIMANTAN UTARA,77483.0,Indonesia,,,,4.0928106,117.8205632,https://maps.google.com/?cid=0x0:0xe8bea7a5b5365f79,
perumahan,Komplek perumahan,Rumah kembar,"4WR8+2QX, Jl. Bhayangkara, Sungai Nyamuk, Kec. Sebatik Timur, Kabupaten Nunukan, Kalimantan Utara 77483","Jl. Bhayangkara, Sungai Nyamuk, Kec. Sebatik Timur, Kabupaten Nunukan",KALIMANTAN UTARA,77483.0,Indonesia,,,,4.1399221,117.9172083,https://maps.google.com/?cid=0x0:0x1d87a3a874cf63ee,
perumahan,Komplek perumahan,Rumah keluarga Bahri Sitti,"4WV6+J29, Jl. Ahmad Yani, Sungai Nyamuk, Kec. Sebatik, Kabupaten Nunukan, Kalimantan Utara 77483","Jl. Ahmad Yani, Sungai Nyamuk, Kec. Sebatik, Kabupaten Nunukan",KALIMANTAN UTARA,77483.0,Indonesia,,,,4.1444579,117.9099844,https://maps.google.com/?cid=0x0:0x6c64c1a4a178ae8,
perumahan,Komplek perumahan,Mastura Home,"Jl. Cut Nyak Dien, Sungai Nyamuk, Kec. Sebatik, Kabupaten Nunukan, Kalimantan Utara 77483","Sungai Nyamuk, Kec. Sebatik, Kabupaten Nunukan",KALIMANTAN UTARA,77483.0,Indonesia,,,,4.1229225,117.921817,https://maps.google.com/?cid=0x0:0x4ac2da97fbfdd853,
perumahan,Toko bahan makanan,Lapio,"3QJX+F9J, Setabu, Kec. Sebatik Bar., Kabupaten Nunukan, Kalimantan Utara 77483","Setabu, Kec. Sebatik Bar., Kabupaten Nunukan",KALIMANTAN UTARA,77483.0,Indonesia,,,,4.0812592,117.7984235,https://maps.google.com/?cid=0x0:0xf5dddb292c361a57,
perumahan,Perhimpunan Pengembang Perumahan,Ruma,"4WJF+H49, Sungai Nyamuk, Kec. Sebatik, Kabupaten Nunukan, Kalimantan Utara 77483","Sungai Nyamuk, Kec. Sebatik, Kabupaten Nunukan",KALIMANTAN UTARA,77483.0,Indonesia,,,,4.1314776,117.9229004,https://maps.google.com/?cid=0x0:0x3a00782ac9f76e6f,
perumahan,Taman Komunitas,KUB.BATU LAMAMPU,"3W5C+M83, Unnamed Road, Tj. Karang, Kec. Sebatik, Kabupaten Nunukan, Kalimantan Utara 77483","Unnamed Road, Tj. Karang, Kec. Sebatik, Kabupaten Nunukan",KALIMANTAN UTARA,77483.0,Indonesia,,,,4.059147,117.920784,https://maps.google.com/?cid=0x0:0x609fa7dc38c002b,
perumahan,Pembangunan Perumahan,D'LABUHANFAMILY,"5W33+5WR, Jalan Pantai, Pancang, Kec. Sebatik, Kabupaten Nunukan, Kalimantan Utara 77483","Jalan Pantai, Pancang, Kec. Sebatik, Kabupaten Nunukan",KALIMANTAN UTARA,77483.0,Indonesia,,,,4.1533181,117.904568,https://maps.google.com/?cid=0x0:0x9606ad88ada4b140,
perumahan,Komplek perumahan,Rumah Erni dan Arifin,"4PWC+5R, Liang Bunyu, Kec. Sebatik Bar., Kabupaten Nunukan, Kalimantan Timur","Kabupaten Nunukan, Kalimantan Timur",KALIMANTAN UTARA,,Indonesia,,,,4.1454481,117.7220836,https://maps.google.com/?cid=0x0:0x3c8f11534ee70087,
perumahan,Pembangunan Perumahan,RUMDIS KECAMATAN SEBATIK BARAT,"3RV5+4QH, Setabu, Kec. Sebatik Bar., Kabupaten Nunukan, Kalimantan Utara 77483","Setabu, Kec. Sebatik Bar., Kabupaten Nunukan",KALIMANTAN UTARA,77483.0,Indonesia,,,,4.0928025,117.8094915,https://maps.google.com/?cid=0x0:0x9f57af5a1e0f1490,
perumahan,Komplek perumahan,Rumah zhy,"Jln. Hb.Rahim, Rt 009 Sei Pancang, Sebatik Utara, Pancang, Lumbis Ogong, Kabupaten Nunukan, Kalimantan Utara 77483","Rt 009 Sei Pancang, Sebatik Utara, Pancang, Lumbis Ogong, Kabupaten Nunukan",KALIMANTAN UTARA,77483.0,Indonesia,,,,4.1568637,117.9001303,https://maps.google.com/?cid=0x0:0x92011802008a0c48,
perumahan,Komplek perumahan,Lokasi Acara,"4WPC+GCC, Sungai Nyamuk, Kec. Sebatik Timur, Kabupaten Nunukan, Kalimantan Utara 77483","Sungai Nyamuk, Kec. Sebatik Timur, Kabupaten Nunukan",KALIMANTAN UTARA,77483.0,Indonesia,,,,4.1363108,117.9210003,https://maps.google.com/?cid=0x0:0xee1a9c7fdf0f1d4f,
perumahan,Komplek perumahan,Rumah Ice Cream Sebatik,"4WF9+QVX, Sungai Nyamuk, Kec. Sebatik, Kabupaten Nunukan, Kalimantan Utara 77483","Sungai Nyamuk, Kec. Sebatik, Kabupaten Nunukan",KALIMANTAN UTARA,77483.0,Indonesia,,,,4.1247532,117.9198026,https://maps.google.com/?cid=0x0:0xc208c6db32ec9e48,
perumahan,perumahan,Kec. Sebatik Bar.,"Kabupaten Nunukan, Kalimantan Utara","Kabupaten Nunukan, Kalimantan Utara",KALIMANTAN UTARA,,Indonesia,,,,4.0915863,117.7869756,https://maps.google.com/?cid=0x0:0x568a0785aa87a25d,
perumahan,Komplek perumahan,Binasalm,"4Q87+MC5, Liang Bunyu, Kec. Sebatik Bar., Kabupaten Nunukan, Kalimantan Utara 77483","Liang Bunyu, Kec. Sebatik Bar., Kabupaten Nunukan",KALIMANTAN UTARA,77483.0,Indonesia,,,,4.117658,117.762627,https://maps.google.com/?cid=0x0:0xafca64313c96410e,
perumahan,Pembangunan Perumahan,Sungai baru,"3R99+92V, Setabu, Kec. Sebatik Bar., Kabupaten Nunukan, Kalimantan Utara 77483","Setabu, Kec. Sebatik Bar., Kabupaten Nunukan",KALIMANTAN UTARA,77483.0,Indonesia,,,,4.0684861,117.8175595,https://maps.google.com/?cid=0x0:0x4b04abca8d13564a,
perumahan,Pembangunan Perumahan,dua putri HOME,"3RH5+FWP, Setabu, Kec. Sebatik Bar., Kabupaten Nunukan, Kalimantan Utara 77483","Setabu, Kec. Sebatik Bar., Kabupaten Nunukan",KALIMANTAN UTARA,77483.0,Indonesia,,,,4.077978,117.808953,https://maps.google.com/?cid=0x0:0x7c3b6b6060bcbb6c,
perumahan,Pembangunan Perumahan,RUMDIS KECAMATAN SEBATIK BARAT,"3RV5+4QH, Setabu, Kec. Sebatik Bar., Kabupaten Nunukan, Kalimantan Utara 77483","Setabu, Kec. Sebatik Bar., Kabupaten Nunukan",KALIMANTAN UTARA,77483.0,Indonesia,,,,4.0928025,117.8094915,https://maps.google.com/?cid=0x0:0x9f57af5a1e0f1490,
perumahan,Pembangunan Perumahan,Elvi,"RT.003/RW.003, sai. Lappio, Setabu, Kec. Sebatik Bar., Kabupaten Nunukan, Kalimantan Utara 77483","sai. Lappio, Setabu, Kec. Sebatik Bar., Kabupaten Nunukan",KALIMANTAN UTARA,77483.0,Indonesia,,,,4.0928106,117.8205632,https://maps.google.com/?cid=0x0:0xe8bea7a5b5365f79,
perumahan,Balai masyarakat,"Kampung Lourdes, Sebatik Tengah, Nunukan, kaltara","5Q4P+2CW, Aji Kuning, Kec. Sebatik Tengah, Kabupaten Nunukan, Kalimantan Utara 77483","Aji Kuning, Kec. Sebatik Tengah, Kabupaten Nunukan",KALIMANTAN UTARA,77483.0,Indonesia,82350281078.0,,,4.1551111,117.7860798,https://maps.google.com/?cid=0x0:0x9d0e62fd234cf809,
perumahan,Pembangunan Perumahan,Sahruddin Adhy,"3RP7+XCV, Jl Sei Kebakil, Setabu, Kec. Sebatik Bar., Kabupaten Nunukan, Kalimantan Utara 77483","Jl Sei Kebakil, Setabu, Kec. Sebatik Bar., Kabupaten Nunukan",KALIMANTAN UTARA,77483.0,Indonesia,,,,4.0874828,117.8135579,https://maps.google.com/?cid=0x0:0xae8929f83d4c0607,
perumahan,Pembangunan Perumahan,ERTIGA SEBATIK,"3QW8+8JP, Binalawan, Kabupaten Nunukan, Kalimantan Utara 77483","Binalawan, Kabupaten Nunukan",KALIMANTAN UTARA,77483.0,Indonesia,,,,4.0962501,117.7663809,https://maps.google.com/?cid=0x0:0x90207580e2df9667,
perumahan,Pembangunan Perumahan,Sebarik barat,"5P5G+Q6X, Liang Bunyu, Kec. Sebatik Bar., Kabupaten Nunukan, Kalimantan Utara","Kabupaten Nunukan, Kalimantan Utara",KALIMANTAN UTARA,,Indonesia,,,,4.1594834,117.7256083,https://maps.google.com/?cid=0x0:0x3ceb847421317931,
perumahan,Toko bahan makanan,Lapio,"3QJX+F9J, Setabu, Kec. Sebatik Bar., Kabupaten Nunukan, Kalimantan Utara 77483","Setabu, Kec. Sebatik Bar., Kabupaten Nunukan",KALIMANTAN UTARA,77483.0,Indonesia,,,,4.0812592,117.7984235,https://maps.google.com/?cid=0x0:0xf5dddb292c361a57,
perumahan,Pembangunan Perumahan,Lubok batung,"5P5G+Q6X, Liang Bunyu, Kec. Sebatik Bar., Kabupaten Nunukan, Kalimantan Utara","Kabupaten Nunukan, Kalimantan Utara",KALIMANTAN UTARA,,Indonesia,,,,4.1594834,117.7256083,https://maps.google.com/?cid=0x0:0x31e125b4cdfa638e,
perumahan,Komplek perumahan,Rumah Erni dan Arifin,"4PWC+5R, Liang Bunyu, Kec. Sebatik Bar., Kabupaten Nunukan, Kalimantan Timur","Kabupaten Nunukan, Kalimantan Timur",KALIMANTAN UTARA,,Indonesia,,,,4.1454481,117.7220836,https://maps.google.com/?cid=0x0:0x3c8f11534ee70087,
perumahan,Komplek perumahan,JL.PETTA CENNING,"3R6H+3F8, Jl. Lkr. Pulau Sebatik, Setabu, Kec. Sebatik Bar., Kabupaten Nunukan, Kalimantan Utara 77483","Jl. Lkr. Pulau Sebatik, Setabu, Kec. Sebatik Bar., Kabupaten Nunukan",KALIMANTAN UTARA,77483.0,Indonesia,,,,4.0601674,117.8287175,https://maps.google.com/?cid=0x0:0xa90643ba1faf841,
perumahan,Perhimpunan Pengembang Perumahan,AMRI,"4Q52+3RW, Liang Bunyu, Kec. Sebatik Bar., Kabupaten Nunukan, Kalimantan Timur","Kabupaten Nunukan, Kalimantan Timur",KALIMANTAN UTARA,,Indonesia,,,,4.1076546,117.7519939,https://maps.google.com/?cid=0x0:0x850f1096e36df864,
perumahan,Komplek perumahan,( KANSAS _area ),"4Q87+MC5, Liang Bunyu, Kec. Sebatik Bar., Kabupaten Nunukan, Kalimantan Utara 77483","Liang Bunyu, Kec. Sebatik Bar., Kabupaten Nunukan",KALIMANTAN UTARA,77483.0,Indonesia,,,,4.1166341,117.7635983,https://maps.google.com/?cid=0x0:0x783a785248e62d0a,
perumahan,Perhimpunan Pengembang Perumahan,Sebatik barat,"4P22+6R6, Nunukan Sel., Kabupaten Nunukan, Kalimantan Utara 77482","Nunukan Sel., Kabupaten Nunukan",KALIMANTAN UTARA,77482.0,Indonesia,,,,4.1005411,117.7020151,https://maps.google.com/?cid=0x0:0x21ace67acf04123a,
perumahan,Perhimpunan Pengembang Perumahan,Zain Atharauf Azizi,"4PGM+V9R, Liang Bunyu, Kec. Sebatik Bar., Kabupaten Nunukan, Kalimantan Utara 77483","Liang Bunyu, Kec. Sebatik Bar., Kabupaten Nunukan",KALIMANTAN UTARA,77483.0,Indonesia,82253993473.0,,,4.1272489,117.7333794,https://maps.google.com/?cid=0x0:0x30294d4666c8ac14,
perumahan,Pembangunan Perumahan,Syila,"3QQQ+X7P, Setabu, Kec. Sebatik Bar., Kabupaten Nunukan, Kalimantan Utara 77483","Setabu, Kec. Sebatik Bar., Kabupaten Nunukan",KALIMANTAN UTARA,77483.0,Indonesia,,,,4.090998,117.7881061,https://maps.google.com/?cid=0x0:0xc4c3da5ce101fd4c,
perumahan,perumahan,Desa Tembaring,"3QRP+JQQ, Setabu, Kec. Sebatik Bar., Kabupaten Nunukan, Kalimantan Utara 77483","Setabu, Kec. Sebatik Bar., Kabupaten Nunukan",KALIMANTAN UTARA,77483.0,Indonesia,,,,4.0915863,117.7869756,https://maps.google.com/?cid=0x0:0x9b229650a8e49daa,
perumahan,Komplek perumahan,jln borneo,"3QRJ+8M, Binalawan, Kec. Sebatik Bar., Kabupaten Nunukan, Kalimantan Utara 77483","Binalawan, Kec. Sebatik Bar., Kabupaten Nunukan",KALIMANTAN UTARA,77483.0,Indonesia,,,,4.0907463,117.7811026,https://maps.google.com/?cid=0x0:0xb9ba2a456fbd9aba,
perumahan,perumahan,Nur Aisyah,"3QWV+663, Setabu, Kec. Sebatik Bar., Kabupaten Nunukan, Kalimantan Utara","Kabupaten Nunukan, Kalimantan Utara",KALIMANTAN UTARA,,Indonesia,,,,4.0955087,117.7930381,https://maps.google.com/?cid=0x0:0x5c44af33184d137e,
perumahan,Komplek perumahan,Rumah mdr.yusup,"Jl bukit keramat No.RT 007, Desa Bambangan, Kec. Sebatik Bar., Kabupaten Nunukan, Kalimantan Timur 77483","Desa Bambangan, Kec. Sebatik Bar., Kabupaten Nunukan",KALIMANTAN UTARA,77483.0,Indonesia,,,,4.1599817,117.7516097,https://maps.google.com/?cid=0x0:0x8f9f8552936a580e,
perumahan,Komplek perumahan,Rauamah PkSUL,"4Q87+MC5, Liang Bunyu, Kec. Sebatik Bar., Kabupaten Nunukan, Kalimantan Utara 77483","Liang Bunyu, Kec. Sebatik Bar., Kabupaten Nunukan",KALIMANTAN UTARA,77483.0,Indonesia,81242254450.0,,,4.1175942,117.7626989,https://maps.google.com/?cid=0x0:0xf3d0b11b68475830,
perumahan,Komplek perumahan,Rumah bujang,"5P33+9MG, Liang Bunyu, Kec. Sebatik Bar., Kabupaten Nunukan, Kalimantan Utara 77483","Liang Bunyu, Kec. Sebatik Bar., Kabupaten Nunukan",KALIMANTAN UTARA,77483.0,Indonesia,,,,4.1531364,117.7054775,https://maps.google.com/?cid=0x0:0xe3cfd5945a17956a,
perumahan,perumahan,Kec. Sebatik Tengah,"Aji Kuning, Kabupaten Nunukan, Kalimantan Utara","Kabupaten Nunukan, Kalimantan Utara",KALIMANTAN UTARA,,Indonesia,,,,4.1551007,117.7860818,https://maps.google.com/?cid=0x0:0xb6cdfa4159ca968c,
perumahan,Balai masyarakat,"Kampung Lourdes, Sebatik Tengah, Nunukan, kaltara","5Q4P+2CW, Aji Kuning, Kec. Sebatik Tengah, Kabupaten Nunukan, Kalimantan Utara 77483","Aji Kuning, Kec. Sebatik Tengah, Kabupaten Nunukan",KALIMANTAN UTARA,77483.0,Indonesia,82350281078.0,,,4.1551111,117.7860798,https://maps.google.com/?cid=0x0:0x9d0e62fd234cf809,
perumahan,Pembangunan Perumahan,Elvi,"RT.003/RW.003, sai. Lappio, Setabu, Kec. Sebatik Bar., Kabupaten Nunukan, Kalimantan Utara 77483","sai. Lappio, Setabu, Kec. Sebatik Bar., Kabupaten Nunukan",KALIMANTAN UTARA,77483.0,Indonesia,,,,4.0928106,117.8205632,https://maps.google.com/?cid=0x0:0xe8bea7a5b5365f79,
perumahan,Komplek perumahan,Rumah PETRUS,"Jl H.Bakri No.08, RT.04, Sungai Nyamuk, Kec. Sebatik Timur, Kabupaten Nunukan, Kalimantan Utara 77483","RT.04, Sungai Nyamuk, Kec. Sebatik Timur, Kabupaten Nunukan",KALIMANTAN UTARA,77483.0,Indonesia,,,,4.1175121,117.8663075,https://maps.google.com/?cid=0x0:0x88b2a70724c1f0dc,
perumahan,Komplek perumahan,Binasalm,"4Q87+MC5, Liang Bunyu, Kec. Sebatik Bar., Kabupaten Nunukan, Kalimantan Utara 77483","Liang Bunyu, Kec. Sebatik Bar., Kabupaten Nunukan",KALIMANTAN UTARA,77483.0,Indonesia,,,,4.117658,117.762627,https://maps.google.com/?cid=0x0:0xafca64313c96410e,
perumahan,Pembangunan Perumahan,Rumah Ahmad,"5R67+QQ7, Jl. Lkr. Pulau Sebatik, Aji Kuning, Kec. Sebatik Tengah, Kabupaten Nunukan, Kalimantan Utara 77483","Jl. Lkr. Pulau Sebatik, Aji Kuning, Kec. Sebatik Tengah, Kabupaten Nunukan",KALIMANTAN UTARA,77483.0,Indonesia,,,,4.1614021,117.8146755,https://maps.google.com/?cid=0x0:0x41998235a1e4fa39,
perumahan,Pembangunan Perumahan,dua putri HOME,"3RH5+FWP, Setabu, Kec. Sebatik Bar., Kabupaten Nunukan, Kalimantan Utara 77483","Setabu, Kec. Sebatik Bar., Kabupaten Nunukan",KALIMANTAN UTARA,77483.0,Indonesia,,,,4.077978,117.808953,https://maps.google.com/?cid=0x0:0x7c3b6b6060bcbb6c,
perumahan,Bangunan Bersejarah,Wisata Rumah Dua Negara,"77483 Tawau, Sabah, Malaysia",Tawau,KALIMANTAN UTARA,77483.0,Indonesia,,,,4.1667212,117.8638561,https://maps.google.com/?cid=0x0:0xcef633e4f840bfac,
perumahan,Pembangunan Perumahan,Sahruddin Adhy,"3RP7+XCV, Jl Sei Kebakil, Setabu, Kec. Sebatik Bar., Kabupaten Nunukan, Kalimantan Utara 77483","Jl Sei Kebakil, Setabu, Kec. Sebatik Bar., Kabupaten Nunukan",KALIMANTAN UTARA,77483.0,Indonesia,,,,4.0874828,117.8135579,https://maps.google.com/?cid=0x0:0xae8929f83d4c0607,
perumahan,Komplek perumahan,M.Noor,"4RHX+6CM, Aji Kuning, Kec. Sebatik Tengah, Kabupaten Nunukan, Kalimantan Utara 77483","Aji Kuning, Kec. Sebatik Tengah, Kabupaten Nunukan",KALIMANTAN UTARA,77483.0,Indonesia,,,,4.1284474,117.8485353,https://maps.google.com/?cid=0x0:0xdde29956c9ab4fb0,
perumahan,Komplek perumahan,Rumah Gemoy,"4VC3+GQ, Sungai Nyamuk, Kec. Sebatik Timur, Kabupaten Nunukan, Kalimantan Utara","Kabupaten Nunukan, Kalimantan Utara",KALIMANTAN UTARA,,Indonesia,,,,4.1212463,117.8544105,https://maps.google.com/?cid=0x0:0xe0532e8e929c8582,
perumahan,Pembangunan Perumahan,ERTIGA SEBATIK,"3QW8+8JP, Binalawan, Kabupaten Nunukan, Kalimantan Utara 77483","Binalawan, Kabupaten Nunukan",KALIMANTAN UTARA,77483.0,Indonesia,,,,4.0962501,117.7663809,https://maps.google.com/?cid=0x0:0x90207580e2df9667,
perumahan,Toko bahan makanan,Lapio,"3QJX+F9J, Setabu, Kec. Sebatik Bar., Kabupaten Nunukan, Kalimantan Utara 77483","Setabu, Kec. Sebatik Bar., Kabupaten Nunukan",KALIMANTAN UTARA,77483.0,Indonesia,,,,4.0812592,117.7984235,https://maps.google.com/?cid=0x0:0xf5dddb292c361a57,
perumahan,Pembangunan Perumahan,RUMDIS KECAMATAN SEBATIK BARAT,"3RV5+4QH, Setabu, Kec. Sebatik Bar., Kabupaten Nunukan, Kalimantan Utara 77483","Setabu, Kec. Sebatik Bar., Kabupaten Nunukan",KALIMANTAN UTARA,77483.0,Indonesia,,,,4.0928025,117.8094915,https://maps.google.com/?cid=0x0:0x9f57af5a1e0f1490,
perumahan,Pembangunan Perumahan,Salmiah Wali,"Jalan dg pasanre No.RT 11, Sungai Nyamuk, Kec. Sebatik Timur, Kabupaten Nunukan, Kalimantan Utara 77483","Sungai Nyamuk, Kec. Sebatik Timur, Kabupaten Nunukan",KALIMANTAN UTARA,77483.0,Indonesia,,,,4.1175121,117.8663075,https://maps.google.com/?cid=0x0:0x1fdae736274b9231,
perumahan,Komplek perumahan,Rumah Lasbol,"5R2F+F2, Aji Kuning, Kec. Sebatik Tengah, Kabupaten Nunukan, Kalimantan Timur","Kabupaten Nunukan, Kalimantan Timur",KALIMANTAN UTARA,,Indonesia,,,,4.1512419,117.8225471,https://maps.google.com/?cid=0x0:0x27605c0c4da2b8e9,
perumahan,Komplek perumahan,Andri Wijaya,"5V66+RJG, Jl. Lkr. Pulau Sebatik, Pulau, Pancang, Kec. Sebatik, Kabupaten Nunukan, Kalimantan Utara 77483","Jl. Lkr. Pulau Sebatik, Pulau, Pancang, Kec. Sebatik, Kabupaten Nunukan",KALIMANTAN UTARA,77483.0,Indonesia,,,,4.1606708,117.8614133,https://maps.google.com/?cid=0x0:0xbbb3b77c8c0afd94,
perumahan,Komplek perumahan,Rumah Pacik Wuwur,"5Q3P+V7Q, Kampung Loudres, Kec. Sebatik Tengah, Kabupaten Nunukan, Kalimantan Utara 77483","Kampung Loudres, Kec. Sebatik Tengah, Kabupaten Nunukan",KALIMANTAN UTARA,77483.0,Indonesia,,,,4.1550367,117.7855229,https://maps.google.com/?cid=0x0:0x7ff15e4fefa413a9,
perumahan,Pembangunan Perumahan,Fatmawati Habibi,"5R7R+9Q7, Jl. Lkr. Pulau Sebatik, Aji Kuning, Kec. Sebatik Tengah, Kabupaten Nunukan, Kalimantan Utara 77483","Jl. Lkr. Pulau Sebatik, Aji Kuning, Kec. Sebatik Tengah, Kabupaten Nunukan",KALIMANTAN UTARA,77483.0,Indonesia,,,,4.1634402,117.8410436,https://maps.google.com/?cid=0x0:0xda496ff4651afd34,
perumahan,Komplek perumahan,Rumah mdr.yusup,"Jl bukit keramat No.RT 007, Desa Bambangan, Kec. Sebatik Bar., Kabupaten Nunukan, Kalimantan Timur 77483","Desa Bambangan, Kec. Sebatik Bar., Kabupaten Nunukan",KALIMANTAN UTARA,77483.0,Indonesia,,,,4.1599817,117.7516097,https://maps.google.com/?cid=0x0:0x8f9f8552936a580e,
perumahan,Komplek perumahan,Kristina klobong,"5Q64+5C2, Jalan Bukit Keramat, Liang Bunyu, Kec. Sebatik Bar., Kabupaten Nunukan, Kalimantan Utara 77483","Jalan Bukit Keramat, Liang Bunyu, Kec. Sebatik Bar., Kabupaten Nunukan",KALIMANTAN UTARA,77483.0,Indonesia,,,,4.1614462,117.7564499,https://maps.google.com/?cid=0x0:0x682692a379ba2caa,
perumahan,Komplek perumahan,Tajjo,"4RQG+RQ, Aji Kuning, Kec. Sebatik Tengah, Kabupaten Nunukan, Kalimantan Timur","Kabupaten Nunukan, Kalimantan Timur",KALIMANTAN UTARA,,Indonesia,,,,4.1394903,117.826939,https://maps.google.com/?cid=0x0:0x3882176090c176b3,
perumahan,Perhimpunan Pengembang Perumahan,Peternakan Dahlia LaEnre,"5R29+7H, Aji Kuning, Kec. Sebatik Bar., Kabupaten Nunukan, Kalimantan Utara","Kabupaten Nunukan, Kalimantan Utara",KALIMANTAN UTARA,,Indonesia,,,,4.1506453,117.8189422,https://maps.google.com/?cid=0x0:0xbe6e55d72c2144fd,
perumahan,perumahan,Kec. Sebatik Timur,"Kabupaten Nunukan, Kalimantan Utara","Kabupaten Nunukan, Kalimantan Utara",KALIMANTAN UTARA,,Indonesia,,,,4.1222149,117.9196102,https://maps.google.com/?cid=0x0:0xdfc5b0e5643d3ea7,
perumahan,Komplek perumahan,Rumah PETRUS,"Jl H.Bakri No.08, RT.04, Sungai Nyamuk, Kec. Sebatik Timur, Kabupaten Nunukan, Kalimantan Utara 77483","RT.04, Sungai Nyamuk, Kec. Sebatik Timur, Kabupaten Nunukan",KALIMANTAN UTARA,77483.0,Indonesia,,,,4.1175121,117.8663075,https://maps.google.com/?cid=0x0:0x88b2a70724c1f0dc,
perumahan,Komplek perumahan,Rumah kembar,"4WR8+2QX, Jl. Bhayangkara, Sungai Nyamuk, Kec. Sebatik Timur, Kabupaten Nunukan, Kalimantan Utara 77483","Jl. Bhayangkara, Sungai Nyamuk, Kec. Sebatik Timur, Kabupaten Nunukan",KALIMANTAN UTARA,77483.0,Indonesia,,,,4.1399221,117.9172083,https://maps.google.com/?cid=0x0:0x1d87a3a874cf63ee,
perumahan,Komplek perumahan,Pemondokan Sebatik Timur,"4W27+969, Jl. Lkr. Pulau Sebatik, Padaidi, Kec. Sebatik Timur, Kabupaten Nunukan, Kalimantan Utara 77483","Jl. Lkr. Pulau Sebatik, Padaidi, Kec. Sebatik Timur, Kabupaten Nunukan",KALIMANTAN UTARA,77483.0,Indonesia,,,,4.1009179,117.9131126,https://maps.google.com/?cid=0x0:0x3afc0ae01acdd2f0,
perumahan,Komplek perumahan,Mastura Home,"Jl. Cut Nyak Dien, Sungai Nyamuk, Kec. Sebatik, Kabupaten Nunukan, Kalimantan Utara 77483","Sungai Nyamuk, Kec. Sebatik, Kabupaten Nunukan",KALIMANTAN UTARA,77483.0,Indonesia,,,,4.1229225,117.921817,https://maps.google.com/?cid=0x0:0x4ac2da97fbfdd853,
perumahan,Jasa Konstruksi dan Bangunan,Sumber jaya Aluminium,"4WJ9+CCH, Sungai Nyamuk, Kec. Sebatik Timur, Kabupaten Nunukan, Kalimantan Utara 77483","Sungai Nyamuk, Kec. Sebatik Timur, Kabupaten Nunukan",KALIMANTAN UTARA,77483.0,Indonesia,81341930005.0,,,4.131053,117.9186069,https://maps.google.com/?cid=0x0:0x7ebe46d054c0c5fc,
perumahan,Komplek perumahan,Lokasi Acara,"4WPC+GCC, Sungai Nyamuk, Kec. Sebatik Timur, Kabupaten Nunukan, Kalimantan Utara 77483","Sungai Nyamuk, Kec. Sebatik Timur, Kabupaten Nunukan",KALIMANTAN UTARA,77483.0,Indonesia,,,,4.1363108,117.9210003,https://maps.google.com/?cid=0x0:0xee1a9c7fdf0f1d4f,
perumahan,Perhimpunan Pengembang Perumahan,Perumahan PKM Sei. Taiwan,"Jln. Lujoh No.RT.05, Desa Sei. Manurung, Kec. Sebatik, Kabupaten Nunukan, Kalimantan Utara 77484","Desa Sei. Manurung, Kec. Sebatik, Kabupaten Nunukan",KALIMANTAN UTARA,77484.0,Indonesia,,,,4.0704425,117.9067632,https://maps.google.com/?cid=0x0:0xed6420c36944cd70,
perumahan,Komplek perumahan,Rumah keluarga Bahri Sitti,"4WV6+J29, Jl. Ahmad Yani, Sungai Nyamuk, Kec. Sebatik, Kabupaten Nunukan, Kalimantan Utara 77483","Jl. Ahmad Yani, Sungai Nyamuk, Kec. Sebatik, Kabupaten Nunukan",KALIMANTAN UTARA,77483.0,Indonesia,,,,4.1444579,117.9099844,https://maps.google.com/?cid=0x0:0x6c64c1a4a178ae8,
perumahan,Perhimpunan Pengembang Perumahan,Ruma,"4WJF+H49, Sungai Nyamuk, Kec. Sebatik, Kabupaten Nunukan, Kalimantan Utara 77483","Sungai Nyamuk, Kec. Sebatik, Kabupaten Nunukan",KALIMANTAN UTARA,77483.0,Indonesia,,,,4.1314776,117.9229004,https://maps.google.com/?cid=0x0:0x3a00782ac9f76e6f,
perumahan,Komplek perumahan,Rumah Ice Cream Sebatik,"4WF9+QVX, Sungai Nyamuk, Kec. Sebatik, Kabupaten Nunukan, Kalimantan Utara 77483","Sungai Nyamuk, Kec. Sebatik, Kabupaten Nunukan",KALIMANTAN UTARA,77483.0,Indonesia,,,,4.1247532,117.9198026,https://maps.google.com/?cid=0x0:0xc208c6db32ec9e48,
perumahan,Komplek perumahan,Rumah Gemoy,"4VC3+GQ, Sungai Nyamuk, Kec. Sebatik Timur, Kabupaten Nunukan, Kalimantan Utara","Kabupaten Nunukan, Kalimantan Utara",KALIMANTAN UTARA,,Indonesia,,,,4.1212463,117.8544105,https://maps.google.com/?cid=0x0:0xe0532e8e929c8582,
perumahan,Rumah Sakit,Perumahan Dinas RS Pratama Sebatik,"3W58+22P, Tj. Karang, Kec. Sebatik, Kabupaten Nunukan, Kalimantan Utara 77483","Tj. Karang, Kec. Sebatik, Kabupaten Nunukan",KALIMANTAN UTARA,77483.0,Indonesia,,,,4.0575866,117.9150842,https://maps.google.com/?cid=0x0:0xab5aafe578f2984e,
perumahan,Komplek perumahan,Moh. Sahir,"4WG9+57C, Belakang pasar, kampung baru, Sebatik Timur, Nunukan Regency, North Kalimantan","Kabupaten Nunukan, Kalimantan Utara",KALIMANTAN UTARA,,Indonesia,,,,4.1254367,117.9181306,https://maps.google.com/?cid=0x0:0x1b4b61db8964f1ae,
perumahan,Komplek perumahan,Fajrul,"4WGF+4X7, Jl. Mulawarman, rt04, Kec. Sebatik Timur, Kabupaten Nunukan, Kalimantan Utara 77483","Jl. Mulawarman, rt04, Kec. Sebatik Timur, Kabupaten Nunukan",KALIMANTAN UTARA,77483.0,Indonesia,,,,4.1252848,117.9249084,https://maps.google.com/?cid=0x0:0x91cea757e0f9f417,
perumahan,Komplek perumahan,Rumah Lhina Bte Zakariah,"4WJC+67V, Tj. Harapan, Kec. Sebatik Timur, Kabupaten Nunukan, Kalimantan Utara 77483","Tj. Harapan, Kec. Sebatik Timur, Kabupaten Nunukan",KALIMANTAN UTARA,77483.0,Indonesia,,,,4.1305972,117.9196563,https://maps.google.com/?cid=0x0:0xfb8faa43af7c4fe4,
perumahan,Komplek perumahan,Rumahku,"4WH4+FRH, Sungai Nyamuk, Kec. Sebatik Timur, Kabupaten Nunukan, Kalimantan Utara 77483","Sungai Nyamuk, Kec. Sebatik Timur, Kabupaten Nunukan",KALIMANTAN UTARA,77483.0,Indonesia,,,,4.1283892,117.9071084,https://maps.google.com/?cid=0x0:0x1ab2cf931f7e61da,
perumahan,Komplek perumahan,Pemondokan Kafilah Sebatik Tengah,"Jl. Lkr. Pulau Sebatik No.Desa, Padaidi, Kec. Sebatik, Kabupaten Nunukan, Kalimantan Utara 77483","Padaidi, Kec. Sebatik, Kabupaten Nunukan",KALIMANTAN UTARA,77483.0,Indonesia,,,,4.0926297,117.9138372,https://maps.google.com/?cid=0x0:0xd72649496533cbb2,
perumahan,Komplek perumahan,Rumah tiar aisyah,"4V98+2G3, Sungai Nyamuk, Kec. Sebatik Timur, Kabupaten Nunukan, Kalimantan Utara 77483","Sungai Nyamuk, Kec. Sebatik Timur, Kabupaten Nunukan",KALIMANTAN UTARA,77483.0,Indonesia,,,,4.1175121,117.8663075,https://maps.google.com/?cid=0x0:0x83669822a1153ec2,
perumahan,Pembangunan Perumahan,Pt nyoma,"4WGG+P2W, Sungai Nyamuk, Kec. Sebatik Timur, Kabupaten Nunukan, Kalimantan Utara 77483","Sungai Nyamuk, Kec. Sebatik Timur, Kabupaten Nunukan",KALIMANTAN UTARA,77483.0,Indonesia,,,,4.1268565,117.9250715,https://maps.google.com/?cid=0x0:0x5d623437dedb83b5,
perumahan,Pembangunan Perumahan,Tanah Kavling Qolby,"4WFC+2RV, Tj. Aru, Sebatik, Kabupaten Nunukan, Kalimantan Utara 77483","Tj. Aru, Sebatik, Kabupaten Nunukan",KALIMANTAN UTARA,77483.0,Indonesia,,,,4.12269,117.922599,https://maps.google.com/?cid=0x0:0xbd903405c2e5a1a1,
perumahan,Perhimpunan Pengembang Perumahan,rumah nenek,"4WMF+62X, Jl. Bhayangkara, Sungai Nyamuk, Kec. Sebatik Timur, Kabupaten Nunukan, Kalimantan Utara 77483","Jl. Bhayangkara, Sungai Nyamuk, Kec. Sebatik Timur, Kabupaten Nunukan",KALIMANTAN UTARA,77483.0,Indonesia,,,,4.1331073,117.9226167,https://maps.google.com/?cid=0x0:0xaf4d76ecd0565420,
perumahan,Komplek perumahan,Rumah Bersama Pak Rahman,"4WFC+8Q7, Sungai Nyamuk, Kec. Sebatik Timur, Kabupaten Nunukan, Kalimantan Utara 77483","Sungai Nyamuk, Kec. Sebatik Timur, Kabupaten Nunukan",KALIMANTAN UTARA,77483.0,Indonesia,,,,4.1232887,117.9219182,https://maps.google.com/?cid=0x0:0x8bc95fa7cc1a56c8,
perumahan,Masjid,Masjid Nurul Yaqin Sebatik Utara,"5V6G+H6H, Desa Seberang, Pancang, Lumbis Ogong, Kabupaten Nunukan, Kalimantan Utara 77483","Desa Seberang, Pancang, Lumbis Ogong, Kabupaten Nunukan",KALIMANTAN UTARA,77483.0,Indonesia,,,,4.1614422,117.875623,https://maps.google.com/?cid=0x0:0x98ec2b145619b01b,
perumahan,Masjid,MASJID NURUL HUDA,"4WW5+RPF, Pancang, Kec. Sebatik, Kabupaten Nunukan, Kalimantan Utara 77483","Pancang, Kec. Sebatik, Kabupaten Nunukan",KALIMANTAN UTARA,77483.0,Indonesia,,,,4.1470519,117.9092907,https://maps.google.com/?cid=0x0:0x7140cb23ace07c88,
perumahan,perumahan,Kalimantan Utara 77483,"Kabupaten Nunukan, Kalimantan Utara","Kabupaten Nunukan, Kalimantan Utara",KALIMANTAN UTARA,,Indonesia,,,,4.1288838,117.8076959,https://maps.google.com/?cid=0x0:0x196bc50d99899ad,
perumahan,Komplek perumahan,Pemondokan Kafilah Sebatik Utara (H. Abigurdi),"3WV6+P3R, Tj. Aru, Kec. Sebatik, Kabupaten Nunukan, Kalimantan Utara 77483","Tj. Aru, Kec. Sebatik, Kabupaten Nunukan",KALIMANTAN UTARA,77483.0,Indonesia,,,,4.0942925,117.9099399,https://maps.google.com/?cid=0x0:0x66eb3528cfb548ed,
perumahan,Pembangunan Perumahan,PERUMAHAN BUMI PERKASA,"5V5X+X2X, Jl. Sultan Hasanuddin, Pancang, Kec. Sebatik, Kabupaten Nunukan, Kalimantan Utara 77483","Jl. Sultan Hasanuddin, Pancang, Kec. Sebatik, Kabupaten Nunukan",KALIMANTAN UTARA,77483.0,Indonesia,,,,4.1599813,117.8976043,https://maps.google.com/?cid=0x0:0xa1b0deeabd83c717,
perumahan,Pusat Kesehatan Masyarakat,Puskesmas Sebatik,"5V8V+8GR, Pancang, Kec. Sebatik, Kabupaten Nunukan, Kalimantan Utara 77483","Pancang, Kec. Sebatik, Kabupaten Nunukan",KALIMANTAN UTARA,77483.0,Indonesia,,,,4.1658652,117.8937782,https://maps.google.com/?cid=0x0:0x1dc36fe704412e4c,
perumahan,Toko bahan makanan,Lapio,"3QJX+F9J, Setabu, Kec. Sebatik Bar., Kabupaten Nunukan, Kalimantan Utara 77483","Setabu, Kec. Sebatik Bar., Kabupaten Nunukan",KALIMANTAN UTARA,77483.0,Indonesia,,,,4.0812592,117.7984235,https://maps.google.com/?cid=0x0:0xf5dddb292c361a57,
perumahan,Bangunan Bersejarah,Wisata Rumah Dua Negara,"77483 Tawau, Sabah, Malaysia",Tawau,KALIMANTAN UTARA,77483.0,Indonesia,,,,4.1667212,117.8638561,https://maps.google.com/?cid=0x0:0xcef633e4f840bfac,
perumahan,Rumah Sakit,Perumahan Dinas RS Pratama Sebatik,"3W58+22P, Tj. Karang, Kec. Sebatik, Kabupaten Nunukan, Kalimantan Utara 77483","Tj. Karang, Kec. Sebatik, Kabupaten Nunukan",KALIMANTAN UTARA,77483.0,Indonesia,,,,4.0575866,117.9150842,https://maps.google.com/?cid=0x0:0xab5aafe578f2984e,
perumahan,Pembangunan Perumahan,Home,"3QPQ+VQM, Setabu, Kec. Sebatik Bar., Kabupaten Nunukan, Kalimantan Utara 77483","Setabu, Kec. Sebatik Bar., Kabupaten Nunukan",KALIMANTAN UTARA,77483.0,Indonesia,,,,4.0881852,117.7897934,https://maps.google.com/?cid=0x0:0x2f156d612daf51f4,
perumahan,Komplek perumahan,Rumah zhy,"Jln. Hb.Rahim, Rt 009 Sei Pancang, Sebatik Utara, Pancang, Lumbis Ogong, Kabupaten Nunukan, Kalimantan Utara 77483","Rt 009 Sei Pancang, Sebatik Utara, Pancang, Lumbis Ogong, Kabupaten Nunukan",KALIMANTAN UTARA,77483.0,Indonesia,,,,4.1568637,117.9001303,https://maps.google.com/?cid=0x0:0x92011802008a0c48,
perumahan,Pembangunan Perumahan,dua putri HOME,"3RH5+FWP, Setabu, Kec. Sebatik Bar., Kabupaten Nunukan, Kalimantan Utara 77483","Setabu, Kec. Sebatik Bar., Kabupaten Nunukan",KALIMANTAN UTARA,77483.0,Indonesia,,,,4.077978,117.808953,https://maps.google.com/?cid=0x0:0x7c3b6b6060bcbb6c,
perumahan,Pembangunan Perumahan,Sungai baru,"3R99+92V, Setabu, Kec. Sebatik Bar., Kabupaten Nunukan, Kalimantan Utara 77483","Setabu, Kec. Sebatik Bar., Kabupaten Nunukan",KALIMANTAN UTARA,77483.0,Indonesia,,,,4.0684861,117.8175595,https://maps.google.com/?cid=0x0:0x4b04abca8d13564a,
perumahan,Komplek perumahan,Binasalm,"4Q87+MC5, Liang Bunyu, Kec. Sebatik Bar., Kabupaten Nunukan, Kalimantan Utara 77483","Liang Bunyu, Kec. Sebatik Bar., Kabupaten Nunukan",KALIMANTAN UTARA,77483.0,Indonesia,,,,4.117658,117.762627,https://maps.google.com/?cid=0x0:0xafca64313c96410e,
perumahan,Pembangunan Perumahan,ERTIGA SEBATIK,"3QW8+8JP, Binalawan, Kabupaten Nunukan, Kalimantan Utara 77483","Binalawan, Kabupaten Nunukan",KALIMANTAN UTARA,77483.0,Indonesia,,,,4.0962501,117.7663809,https://maps.google.com/?cid=0x0:0x90207580e2df9667,
perumahan,Komplek perumahan,Rumah PETRUS,"Jl H.Bakri No.08, RT.04, Sungai Nyamuk, Kec. Sebatik Timur, Kabupaten Nunukan, Kalimantan Utara 77483","RT.04, Sungai Nyamuk, Kec. Sebatik Timur, Kabupaten Nunukan",KALIMANTAN UTARA,77483.0,Indonesia,,,,4.1175121,117.8663075,https://maps.google.com/?cid=0x0:0x88b2a70724c1f0dc,
perumahan,Pembangunan Perumahan,Elvi,"RT.003/RW.003, sai. Lappio, Setabu, Kec. Sebatik Bar., Kabupaten Nunukan, Kalimantan Utara 77483","sai. Lappio, Setabu, Kec. Sebatik Bar., Kabupaten Nunukan",KALIMANTAN UTARA,77483.0,Indonesia,,,,4.0928106,117.8205632,https://maps.google.com/?cid=0x0:0xe8bea7a5b5365f79,
perumahan,Komplek perumahan,Rumah saury,"Jl. Ahmad Yani No.14, Sungai Nyamuk, Kec. Sebatik Timur, Kabupaten Nunukan, Kalimantan Utara 77483","Sungai Nyamuk, Kec. Sebatik Timur, Kabupaten Nunukan",KALIMANTAN UTARA,77483.0,Indonesia,,,,4.1464379,117.9093678,https://maps.google.com/?cid=0x0:0xb12ef036458b4586,
perumahan,Komplek perumahan,Rumah kembar,"4WR8+2QX, Jl. Bhayangkara, Sungai Nyamuk, Kec. Sebatik Timur, Kabupaten Nunukan, Kalimantan Utara 77483","Jl. Bhayangkara, Sungai Nyamuk, Kec. Sebatik Timur, Kabupaten Nunukan",KALIMANTAN UTARA,77483.0,Indonesia,,,,4.1399221,117.9172083,https://maps.google.com/?cid=0x0:0x1d87a3a874cf63ee,
perumahan,Komplek perumahan,Mastura Home,"Jl. Cut Nyak Dien, Sungai Nyamuk, Kec. Sebatik, Kabupaten Nunukan, Kalimantan Utara 77483","Sungai Nyamuk, Kec. Sebatik, Kabupaten Nunukan",KALIMANTAN UTARA,77483.0,Indonesia,,,,4.1229225,117.921817,https://maps.google.com/?cid=0x0:0x4ac2da97fbfdd853,
perumahan,Pembangunan Perumahan,RUMDIS KECAMATAN SEBATIK BARAT,"3RV5+4QH, Setabu, Kec. Sebatik Bar., Kabupaten Nunukan, Kalimantan Utara 77483","Setabu, Kec. Sebatik Bar., Kabupaten Nunukan",KALIMANTAN UTARA,77483.0,Indonesia,,,,4.0928025,117.8094915,https://maps.google.com/?cid=0x0:0x9f57af5a1e0f1490,
perumahan,Komplek perumahan,Rumah Ice Cream Sebatik,"4WF9+QVX, Sungai Nyamuk, Kec. Sebatik, Kabupaten Nunukan, Kalimantan Utara 77483","Sungai Nyamuk, Kec. Sebatik, Kabupaten Nunukan",KALIMANTAN UTARA,77483.0,Indonesia,,,,4.1247532,117.9198026,https://maps.google.com/?cid=0x0:0xc208c6db32ec9e48,
perumahan,Komplek perumahan,Rumah sebatik,"2VR3+3J, Tj. Karang, Kec. Sebatik, Kabupaten Nunukan, Kalimantan Utara","Kabupaten Nunukan, Kalimantan Utara",KALIMANTAN UTARA,,Indonesia,,,,4.0412113,117.8539666,https://maps.google.com/?cid=0x0:0xf289423d5232f8c7,
perumahan,Komplek perumahan,Lokasi Acara,"4WPC+GCC, Sungai Nyamuk, Kec. Sebatik Timur, Kabupaten Nunukan, Kalimantan Utara 77483","Sungai Nyamuk, Kec. Sebatik Timur, Kabupaten Nunukan",KALIMANTAN UTARA,77483.0,Indonesia,,,,4.1363108,117.9210003,https://maps.google.com/?cid=0x0:0xee1a9c7fdf0f1d4f,
perumahan,Komplek perumahan,Pemondokan Kafilah Sebatik Tengah,"Jl. Lkr. Pulau Sebatik No.Desa, Padaidi, Kec. Sebatik, Kabupaten Nunukan, Kalimantan Utara 77483","Padaidi, Kec. Sebatik, Kabupaten Nunukan",KALIMANTAN UTARA,77483.0,Indonesia,,,,4.0926297,117.9138372,https://maps.google.com/?cid=0x0:0xd72649496533cbb2,
perumahan,Komplek perumahan,Pemondokan Sebatik Timur,"4W27+969, Jl. Lkr. Pulau Sebatik, Padaidi, Kec. Sebatik Timur, Kabupaten Nunukan, Kalimantan Utara 77483","Jl. Lkr. Pulau Sebatik, Padaidi, Kec. Sebatik Timur, Kabupaten Nunukan",KALIMANTAN UTARA,77483.0,Indonesia,,,,4.1009179,117.9131126,https://maps.google.com/?cid=0x0:0x3afc0ae01acdd2f0,
perumahan,Komplek perumahan,JL.PETTA CENNING,"3R6H+3F8, Jl. Lkr. Pulau Sebatik, Setabu, Kec. Sebatik Bar., Kabupaten Nunukan, Kalimantan Utara 77483","Jl. Lkr. Pulau Sebatik, Setabu, Kec. Sebatik Bar., Kabupaten Nunukan",KALIMANTAN UTARA,77483.0,Indonesia,,,,4.0601674,117.8287175,https://maps.google.com/?cid=0x0:0xa90643ba1faf841,
perumahan,Pembangunan Perumahan,Lubok batung,"5P5G+Q6X, Liang Bunyu, Kec. Sebatik Bar., Kabupaten Nunukan, Kalimantan Utara","Kabupaten Nunukan, Kalimantan Utara",KALIMANTAN UTARA,,Indonesia,,,,4.1594834,117.7256083,https://maps.google.com/?cid=0x0:0x31e125b4cdfa638e,
perumahan,perumahan,Kalimantan Utara 77482,"Kabupaten Nunukan, Kalimantan Utara","Kabupaten Nunukan, Kalimantan Utara",KALIMANTAN UTARA,,Indonesia,,,,4.1377066,117.0794082,https://maps.google.com/?cid=0x0:0xe448c81886e99c56,
perumahan,perumahan,R. Abner,"WXV5+4C5, Jl. Trans Sebuku, Tetaban, Kec. Sebuku, Kabupaten Nunukan, Kalimantan Utara 77482","Jl. Trans Sebuku, Tetaban, Kec. Sebuku, Kabupaten Nunukan",KALIMANTAN UTARA,77482.0,Indonesia,,,,3.9427691,116.9586193,https://maps.google.com/?cid=0x0:0x5a0d68448ad7ad2c,
perumahan,Komplek perumahan,Secret YVCI SEBUKU,"22X5+C27, Sanur, Tulin Onsoi, Kabupaten Nunukan, Kalimantan Utara 77482","Sanur, Tulin Onsoi, Kabupaten Nunukan",KALIMANTAN UTARA,77482.0,Indonesia,,,,4.048539,117.0075599,https://maps.google.com/?cid=0x0:0x448b3577df6c5ff0,
perumahan,Pembangunan Perumahan,Amir S.Pd,"2XGC+7G, Tetaban, Kec. Sebuku, Kabupaten Nunukan, Kalimantan Utara","Kabupaten Nunukan, Kalimantan Utara",KALIMANTAN UTARA,,Indonesia,,,,4.0256875,116.9713125,https://maps.google.com/?cid=0x0:0xa9977f1ad4d189db,
perumahan,perumahan,R. Chelsya Lisfi,"WXV5+4C4, Tetaban, Kec. Sebuku, Kabupaten Nunukan, Kalimantan Utara","Kabupaten Nunukan, Kalimantan Utara",KALIMANTAN UTARA,,Indonesia,,,,3.9427744,116.958568,https://maps.google.com/?cid=0x0:0xa260bc2e0d7060b,
perumahan,Komplek perumahan,Rumah bujang,"27C6+F9, Pembeliangan, Kec. Sebuku, Kabupaten Nunukan, Kalimantan Utara","Kabupaten Nunukan, Kalimantan Utara",KALIMANTAN UTARA,,Indonesia,,,,4.0211905,117.2611503,https://maps.google.com/?cid=0x0:0x4b7627619c5d54da,
perumahan,Pembangunan Perumahan,"Perumahan salungan, Bensin jontona","2X43+QM, Tetaban, Kec. Sebuku, Kabupaten Nunukan, Kalimantan Utara","Kabupaten Nunukan, Kalimantan Utara",KALIMANTAN UTARA,,Indonesia,,,,4.006927,116.954158,https://maps.google.com/?cid=0x0:0xafaf26104625b277,
perumahan,Pembangunan Perumahan,DESA SUJA,"XRHF+WX, Sujau, Kec. Sebuku, Kabupaten Nunukan, Kalimantan Utara","Kabupaten Nunukan, Kalimantan Utara",KALIMANTAN UTARA,,Indonesia,,,,3.9798125,116.8249375,https://maps.google.com/?cid=0x0:0xa8e7622d24df0c08,
perumahan,Komplek perumahan,Perumahan Staf Kempas Estate,"56HC+RV3, Tabur Lestari, Kec. Nunukan, Kabupaten Nunukan, Kalimantan Utara 77482","Tabur Lestari, Kec. Nunukan, Kabupaten Nunukan",KALIMANTAN UTARA,77482.0,Indonesia,,,,4.1795052,117.2221671,https://maps.google.com/?cid=0x0:0x3ab89de4d99c66e3,
perumahan,Komplek perumahan,Rumah Mama Desi,"2X5C+8V, Tetaban, Kec. Sebuku, Kabupaten Nunukan, Kalimantan Utara","Kabupaten Nunukan, Kalimantan Utara",KALIMANTAN UTARA,,Indonesia,,,,4.0083133,116.9727887,https://maps.google.com/?cid=0x0:0xabb9d73475c17431,
perumahan,Perhimpunan Pengembang Perumahan,Kepala Desa,"XXXC+PF5, Jl. Simpas Tiga Apas, Tetaban, Kec. Sebuku, Kabupaten Nunukan, Kalimantan Utara 77482","Jl. Simpas Tiga Apas, Tetaban, Kec. Sebuku, Kabupaten Nunukan",KALIMANTAN UTARA,77482.0,Indonesia,,,,3.9992616,116.9712478,https://maps.google.com/?cid=0x0:0xe15fdda5ab291d22,
perumahan,Komplek perumahan,Perumahan Afdeling L,"XQG8+7WM, Sujau, Kec. Sebuku, Kabupaten Nunukan, Kalimantan Utara","Kabupaten Nunukan, Kalimantan Utara",KALIMANTAN UTARA,,Indonesia,,,,3.9757206,116.7672997,https://maps.google.com/?cid=0x0:0xc0720d28102c6108,
perumahan,Perhimpunan Pengembang Perumahan,"Sinar Blok E, Desa Harapan","BLOK E, Desa Harapan, Kec. Sebuku, Kabupaten Nunukan, Kalimantan Utara","Kabupaten Nunukan, Kalimantan Utara",KALIMANTAN UTARA,,Indonesia,,,,3.9989117,116.9682601,https://maps.google.com/?cid=0x0:0x8a605c70c6cf34fa,
perumahan,Komplek perumahan,Cape Town,"2XQJ+V4V, Tetaban, Kec. Sebuku, Kabupaten Nunukan, Kalimantan Utara 77482","Tetaban, Kec. Sebuku, Kabupaten Nunukan",KALIMANTAN UTARA,77482.0,Indonesia,,,,4.0397429,116.9803059,https://maps.google.com/?cid=0x0:0x26231a4b07a3c443,
perumahan,Komplek perumahan,Rumah Tujuh Tiga,"4JPV+P57, Nunukan Bar., Kec. Nunukan, Kabupaten Nunukan, Kalimantan Utara 77482","Nunukan Bar., Kec. Nunukan, Kabupaten Nunukan",KALIMANTAN UTARA,77482.0,Indonesia,,,,4.1367984,117.642916,https://maps.google.com/?cid=0x0:0xdf89f2c51149d489,
perumahan,Gedung Apartemen,Rumah Bang ILHAM Ganteng,"2X4C+4X, Tetaban, Kec. Sebuku, Kabupaten Nunukan, Kalimantan Utara","Kabupaten Nunukan, Kalimantan Utara",KALIMANTAN UTARA,,Indonesia,,,,4.0053554,116.972411,https://maps.google.com/?cid=0x0:0x47fe7175df873028,
perumahan,Komplek perumahan,Rumah Alm. Andi Ansar,"Jl. Pembangunan No.Rt10, Nunukan Bar., Kec. Nunukan, Kabupaten Nunukan, Kalimantan Utara 77482","Nunukan Bar., Kec. Nunukan, Kabupaten Nunukan",KALIMANTAN UTARA,77482.0,Indonesia,,,,4.134242,117.644156,https://maps.google.com/?cid=0x0:0xef6a09e6ab9e77a3,
perumahan,Komplek perumahan,RONIS,"2X2P+3V4, Jl. Trans Sebuku desa, Kekayap, Kec. Sebuku, Kabupaten Nunukan, Kalimantan Utara 77482","Jl. Trans Sebuku desa, Kekayap, Kec. Sebuku, Kabupaten Nunukan",KALIMANTAN UTARA,77482.0,Indonesia,82252356212.0,,,4.0001405,116.9872068,https://maps.google.com/?cid=0x0:0x6b541d6ac2f8dff5,
perumahan,Dokter,Perumahan Dinas Puskesmas,"223P+25C, Unnamed Road, Kunyit, Kec. Sebuku, Kabupaten Nunukan, Kalimantan Utara 77482","Unnamed Road, Kunyit, Kec. Sebuku, Kabupaten Nunukan",KALIMANTAN UTARA,77482.0,Indonesia,,,,4.0025723,117.0353952,https://maps.google.com/?cid=0x0:0x7530466841d9618e,
perumahan,Kantor Perusahaan,Perumahan Executive PT.Nunukan Jaya Lestari,"665V+QFV, Tabur Lestari, Kec. Sei Menggaris, Kabupaten Nunukan, Kalimantan Utara 77482","Tabur Lestari, Kec. Sei Menggaris, Kabupaten Nunukan",KALIMANTAN UTARA,77482.0,Indonesia,,,,4.2094946,117.2436675,https://maps.google.com/?cid=0x0:0x8fb2f5add6e1fa05,
perumahan,Komplek perumahan,RUMAH BP SAMIDI,"5738+JF, Tabur Lestari, Kec. Sei Menggaris, Kabupaten Nunukan, Kalimantan Utara 77482","Tabur Lestari, Kec. Sei Menggaris, Kabupaten Nunukan",KALIMANTAN UTARA,77482.0,Indonesia,,,,4.154049,117.266135,https://maps.google.com/?cid=0x0:0xbf8bc51b07d2d31,
perumahan,Pembangunan Perumahan,PERUMAHAN GRIYA PERMAI,"3PM4+FW7, Jl. Ujang Dewa, Nunukan Sel., Kabupaten Nunukan, Kalimantan Utara 77482","Jl. Ujang Dewa, Nunukan Sel., Kabupaten Nunukan",KALIMANTAN UTARA,77482.0,Indonesia,,,,4.0836534,117.7073053,https://maps.google.com/?cid=0x0:0x9997c769846e437e,
perumahan,Komplek perumahan,Rumah pak Halim Sebuku,"22X4+5P, Sanur, Tulin Onsoi, Kabupaten Nunukan, Kalimantan Utara 77482","Sanur, Tulin Onsoi, Kabupaten Nunukan",KALIMANTAN UTARA,77482.0,Indonesia,,,,4.0479473,117.0068749,https://maps.google.com/?cid=0x0:0x47c1723a1e185e31,
perumahan,perumahan,Kec. Sei Menggaris,"Kabupaten Nunukan, Kalimantan Utara","Kabupaten Nunukan, Kalimantan Utara",KALIMANTAN UTARA,,Indonesia,,,,4.2053503,117.2483455,https://maps.google.com/?cid=0x0:0x96ec2cb6aa3777fa,
perumahan,Komplek perumahan,RUMAH BP SAMIDI,"5738+JF, Tabur Lestari, Kec. Sei Menggaris, Kabupaten Nunukan, Kalimantan Utara 77482","Tabur Lestari, Kec. Sei Menggaris, Kabupaten Nunukan",KALIMANTAN UTARA,77482.0,Indonesia,,,,4.154049,117.266135,https://maps.google.com/?cid=0x0:0xbf8bc51b07d2d31,
perumahan,Grosir pakaian dan kain,IdhulQ,"6742+8C, Tabur Lestari, Kec. Sei Menggaris, Kabupaten Nunukan, Kalimantan Utara","Kabupaten Nunukan, Kalimantan Utara",KALIMANTAN UTARA,,Indonesia,,,,4.2061809,117.2506056,https://maps.google.com/?cid=0x0:0xc40b3fa8ae706249,
perumahan,Bangunan Bersejarah,Sei Menggaris Simpang Korea Tonghap,"752F+Q5, Tabur Lestari, Kec. Sei Menggaris, Kabupaten Nunukan, Kalimantan Utara","Kabupaten Nunukan, Kalimantan Utara",KALIMANTAN UTARA,,Indonesia,,,,4.2519121,117.172905,https://maps.google.com/?cid=0x0:0xb9c35d3390cb2b99,
perumahan,Kantor Perusahaan,Perumahan Executive PT.Nunukan Jaya Lestari,"665V+QFV, Tabur Lestari, Kec. Sei Menggaris, Kabupaten Nunukan, Kalimantan Utara 77482","Tabur Lestari, Kec. Sei Menggaris, Kabupaten Nunukan",KALIMANTAN UTARA,77482.0,Indonesia,,,,4.2094946,117.2436675,https://maps.google.com/?cid=0x0:0x8fb2f5add6e1fa05,
perumahan,Komplek perumahan,Rusli,"5754+6QX, Tabur Lestari, Kec. Sei Menggaris, Kabupaten Nunukan, Kalimantan Utara 77482","Tabur Lestari, Kec. Sei Menggaris, Kabupaten Nunukan",KALIMANTAN UTARA,77482.0,Indonesia,,,,4.1580949,117.2576179,https://maps.google.com/?cid=0x0:0x8f39bf86ffeb32c7,
perumahan,Komplek perumahan,Mama Halimah,"56PV+PJX, Tabur Lestari, Kec. Sei Menggaris, Kabupaten Nunukan, Kalimantan Utara","Kabupaten Nunukan, Kalimantan Utara",KALIMANTAN UTARA,,Indonesia,,,,4.1868526,117.2440957,https://maps.google.com/?cid=0x0:0x716206b58115da7f,
perumahan,Pusat Perbelanjaan,RUMAH ANDI ASRI,"5748+6QG, Tabur Lestari, Kec. Sei Menggaris, Kabupaten Nunukan, Kalimantan Utara 77482","Tabur Lestari, Kec. Sei Menggaris, Kabupaten Nunukan",KALIMANTAN UTARA,77482.0,Indonesia,,,,4.1555342,117.2671109,https://maps.google.com/?cid=0x0:0xb3afe27e24b79eba,
perumahan,Komplek perumahan,Rumah Hariyanto,"46Q5+8M, Tabur Lestari, Kec. Sei Menggaris, Kabupaten Nunukan, Kalimantan Utara 77482","Tabur Lestari, Kec. Sei Menggaris, Kabupaten Nunukan",KALIMANTAN UTARA,77482.0,Indonesia,,,,4.1383223,117.2091255,https://maps.google.com/?cid=0x0:0x1f1c3be5fa9e83c0,
perumahan,Komplek perumahan,R. Ms_Dayat,"5755+X4, Tabur Lestari, Kec. Sei Menggaris, Kabupaten Nunukan, Kalimantan Utara","Kabupaten Nunukan, Kalimantan Utara",KALIMANTAN UTARA,,Indonesia,,,,4.159887,117.257806,https://maps.google.com/?cid=0x0:0xf5c9e37e24cdf188,
perumahan,Komplek perumahan,Perumahan Staf Kempas Estate,"56HC+RV3, Tabur Lestari, Kec. Nunukan, Kabupaten Nunukan, Kalimantan Utara 77482","Tabur Lestari, Kec. Nunukan, Kabupaten Nunukan",KALIMANTAN UTARA,77482.0,Indonesia,,,,4.1795052,117.2221671,https://maps.google.com/?cid=0x0:0x3ab89de4d99c66e3,
perumahan,Komplek perumahan,Abry,"6742+9F7, Tabur Lestari, Kec. Sei Menggaris, Kabupaten Nunukan, Kalimantan Utara 77482","Tabur Lestari, Kec. Sei Menggaris, Kabupaten Nunukan",KALIMANTAN UTARA,77482.0,Indonesia,,,,4.2060123,117.2513031,https://maps.google.com/?cid=0x0:0xfe93df06ce3641bc,
perumahan,Produsen,Jati Estate (PT. Nunukan Jaya Lestari),"Tabur Lestari, Kec. Sei Menggaris, Kabupaten Nunukan, Kalimantan Utara 77482","Kec. Sei Menggaris, Kabupaten Nunukan",KALIMANTAN UTARA,77482.0,Indonesia,82226111756.0,,,4.1803053,117.2222039,https://maps.google.com/?cid=0x0:0x88e40096e32c53d4,
perumahan,Rumah Kayu,Rumah Bahtiar,"56PV+PJ5, Tabur Lestari, Kec. Sei Menggaris, Kabupaten Nunukan, Kalimantan Utara","Kabupaten Nunukan, Kalimantan Utara",KALIMANTAN UTARA,,Indonesia,,,,4.1867657,117.2441109,https://maps.google.com/?cid=0x0:0x381073fa9f9819fd,
perumahan,Komplek perumahan,Riz-one,"5754+6QX, Tabur Lestari, Kec. Sei Menggaris, Kabupaten Nunukan, Kalimantan Utara 77482","Tabur Lestari, Kec. Sei Menggaris, Kabupaten Nunukan",KALIMANTAN UTARA,77482.0,Indonesia,,,,4.1580789,117.2578321,https://maps.google.com/?cid=0x0:0xdd614ae94516fd63,
perumahan,Komplek perumahan,Ishak mustapa,"664X+FWJ, Tabur Lestari, Kec. Sei Menggaris, Kabupaten Nunukan, Kalimantan Utara 77482","Tabur Lestari, Kec. Sei Menggaris, Kabupaten Nunukan",KALIMANTAN UTARA,77482.0,Indonesia,,,,4.2064168,117.2500389,https://maps.google.com/?cid=0x0:0x6cfe16cc593f2420,
perumahan,Pembangunan Perumahan,Rumah Osman,"Jln.ph3 rt.10 Belian Estate, Tabur Lestari","Kabupaten Nunukan, Kalimantan Utara",KALIMANTAN UTARA,,Indonesia,,,,4.13687,117.2100901,https://maps.google.com/?cid=0x0:0x13b4d07dda5deef,
perumahan,Komplek perumahan,Andreas namang,"664X+FWJ, Tabur Lestari, Kec. Sei Menggaris, Kabupaten Nunukan, Kalimantan Utara 77482","Tabur Lestari, Kec. Sei Menggaris, Kabupaten Nunukan",KALIMANTAN UTARA,77482.0,Indonesia,,,,4.2064508,117.2498452,https://maps.google.com/?cid=0x0:0xdef1e0ccf7b1ff94,
perumahan,Perhimpunan Pengembang Perumahan,Guest house PT .BSI,"68VJ+GWJ, Nunukan Utara, Kec. Nunukan, Kabupaten Nunukan, Kalimantan Utara 77482","Nunukan Utara, Kec. Nunukan, Kabupaten Nunukan",KALIMANTAN UTARA,77482.0,Indonesia,,,,4.2438298,117.3322795,https://maps.google.com/?cid=0x0:0xf1c68976a2b81250,
perumahan,Komplek perumahan,Aslyna olshop,"jln p.diponegoro Desa tabur lestari RT 04, Tabur Lestari, Kec. Sei Menggaris, Kabupaten Nunukan, Kalimantan Utara 77482","Tabur Lestari, Kec. Sei Menggaris, Kabupaten Nunukan",KALIMANTAN UTARA,77482.0,Indonesia,85396871142.0,,,4.1538732,117.2677933,https://maps.google.com/?cid=0x0:0xa7b0e91e4a8a86c,
perumahan,Komplek perumahan,Matiro bulu,"Jl. Poros No.RT 14, Tabur Lestari, Kec. Sei Menggaris, Kabupaten Nunukan, Kalimantan Utara","Kabupaten Nunukan, Kalimantan Utara",KALIMANTAN UTARA,,Indonesia,,,,4.1868526,117.2440957,https://maps.google.com/?cid=0x0:0x757ef2b0b33b5fdf,
perumahan,perumahan,Kalimantan Utara 77453,Kalimantan Utara,Kalimantan Utara,KALIMANTAN UTARA,,Indonesia,,,,3.7262935,117.3146351,https://maps.google.com/?cid=0x0:0x2f07ec6e726dbdda,
perumahan,Komplek perumahan,Kompleks Mess Baru,"P752+6RJ, Plaju, Kec. Sembakung, Kabupaten Nunukan, Kalimantan Utara 77453","Plaju, Kec. Sembakung, Kabupaten Nunukan",KALIMANTAN UTARA,77453.0,Indonesia,,,,3.7084962,117.2519742,https://maps.google.com/?cid=0x0:0xbd244f0f0a117055,
perumahan,Pembangunan Perumahan,Sembakung,"V25W+P2, Pagar, Kec. Sembakung, Kabupaten Nunukan, Kalimantan Utara","Kabupaten Nunukan, Kalimantan Utara",KALIMANTAN UTARA,,Indonesia,,,,3.8593386,117.0451011,https://maps.google.com/?cid=0x0:0xba6005b23b325f2e,
perumahan,Komplek perumahan,Mess Blok N,"P752+6RJ, Plaju, Kec. Sembakung, Kabupaten Nunukan, Kalimantan Utara 77453","Plaju, Kec. Sembakung, Kabupaten Nunukan",KALIMANTAN UTARA,77453.0,Indonesia,,,,3.7071536,117.2523245,https://maps.google.com/?cid=0x0:0x43b4249ebbb9f114,
perumahan,Perhimpunan Pengembang Perumahan,Tana merah,"MC9R+J8W, Tepian, Kec. Sembakung, Kabupaten Nunukan, Kalimantan Utara 77453","Tepian, Kec. Sembakung, Kabupaten Nunukan",KALIMANTAN UTARA,77453.0,Indonesia,,,,3.6691022,117.4408349,https://maps.google.com/?cid=0x0:0x161d041c0eb3d983,
perumahan,Komplek perumahan,Rumah Arul,"V26P+2Q, Pagar, Kec. Sembakung, Kabupaten Nunukan, Kalimantan Utara 77453","Pagar, Kec. Sembakung, Kabupaten Nunukan",KALIMANTAN UTARA,77453.0,Indonesia,,,,3.8601161,117.0368349,https://maps.google.com/?cid=0x0:0xc8bdb42d690439e9,
perumahan,Pembangunan Perumahan,LUBAKAN/KANAL,"R62C+X6P, Plaju, Kec. Sembakung, Kabupaten Nunukan, Kalimantan Utara","Kabupaten Nunukan, Kalimantan Utara",KALIMANTAN UTARA,,Indonesia,,,,3.8024611,117.2205771,https://maps.google.com/?cid=0x0:0xc97de49cd1873980,
perumahan,Komplek perumahan,Desa Lubakan (Kanal),"V4C7+4J5, Lubakan, Kec. Sembakung, Kabupaten Nunukan, Kalimantan Utara","Kabupaten Nunukan, Kalimantan Utara",KALIMANTAN UTARA,,Indonesia,,,,3.8702574,117.11412,https://maps.google.com/?cid=0x0:0x819ea6655ebfa582,
perumahan,Komplek perumahan,Rumah Baharuddin,"V25R+3M2, Tujung, Kec. Sembakung, Kabupaten Nunukan, Kalimantan Utara 77453","Tujung, Kec. Sembakung, Kabupaten Nunukan",KALIMANTAN UTARA,77453.0,Indonesia,,,,3.8576289,117.0416357,https://maps.google.com/?cid=0x0:0xb08114b3650a1caa,
perumahan,Perusahaan Konstruksi,Gunung marica,"RWPC+659, Mambulu, Kec. Sembakung, Kabupaten Nunukan, Kalimantan Utara","Kabupaten Nunukan, Kalimantan Utara",KALIMANTAN UTARA,,Indonesia,,,,3.8355275,116.9204787,https://maps.google.com/?cid=0x0:0x8a11ffb383b97ecf,
perumahan,Komplek perumahan,Rumah khairul,"V24V+F5V, Unnamed Road, Pagar, Kec. Sembakung, Kabupaten Nunukan, Kalimantan Utara 77453","Unnamed Road, Pagar, Kec. Sembakung, Kabupaten Nunukan",KALIMANTAN UTARA,77453.0,Indonesia,,,,3.8562423,117.042907,https://maps.google.com/?cid=0x0:0x8045bcf8b930a7e4,
perumahan,Perhimpunan Pengembang Perumahan,Andi Musik,"R2VH+V4F, Jl. Atap, Pagar, Kec. Sembakung, Kabupaten Nunukan, Kalimantan Utara 77453","Jl. Atap, Pagar, Kec. Sembakung, Kabupaten Nunukan",KALIMANTAN UTARA,77453.0,Indonesia,,,,3.8446994,117.0278035,https://maps.google.com/?cid=0x0:0x8955137aa13b31d5,
perumahan,Perhimpunan Pengembang Perumahan,Tatakalai,"QG8P+M4, Tepian, Kec. Sembakung, Kabupaten Nunukan, Kalimantan Utara 77453","Tepian, Kec. Sembakung, Kabupaten Nunukan",KALIMANTAN UTARA,77453.0,Indonesia,,,,3.766656,117.535257,https://maps.google.com/?cid=0x0:0x270e0a900dde05c7,
perumahan,Komplek perumahan,Mess Blok L,"P752+6RJ, Plaju, Kec. Sembakung, Kabupaten Nunukan, Kalimantan Utara 77453","Plaju, Kec. Sembakung, Kabupaten Nunukan",KALIMANTAN UTARA,77453.0,Indonesia,,,,3.7071594,117.252123,https://maps.google.com/?cid=0x0:0x64eebcd26b787132,
perumahan,Pembangunan Perumahan,Desa Butas Bagu,"RVC8+PJP, Tulang, Kec. Sembakung, Kabupaten Nunukan, Kalimantan Utara 77453","Tulang, Kec. Sembakung, Kabupaten Nunukan",KALIMANTAN UTARA,77453.0,Indonesia,,,,3.8218285,116.8665665,https://maps.google.com/?cid=0x0:0xc4f2d624f8e375bd,
perumahan,Kantor Perusahaan,Mest 4B PT Mandala karya prima,"P752+824, Plaju, Kec. Sembakung, Kabupaten Nunukan, Kalimantan Utara 77453","Plaju, Kec. Sembakung, Kabupaten Nunukan",KALIMANTAN UTARA,77453.0,Indonesia,,,,3.7080991,117.2500862,https://maps.google.com/?cid=0x0:0x1217c95996fa34ce,
perumahan,Komplek perumahan,Hendri,"Q2VX+RX9, Pagar, Kec. Sembakung, Kabupaten Nunukan, Kalimantan Utara","Kabupaten Nunukan, Kalimantan Utara",KALIMANTAN UTARA,,Indonesia,,,,3.7945294,117.0499859,https://maps.google.com/?cid=0x0:0xe7a3920e5e8cf0d7,
perumahan,Komplek perumahan,RUMDIS,"V23X+X28, Tujung, Kec. Sembakung, Kabupaten Nunukan, Kalimantan Utara 77453","Tujung, Kec. Sembakung, Kabupaten Nunukan",KALIMANTAN UTARA,77453.0,Indonesia,,,,3.8549213,117.0475723,https://maps.google.com/?cid=0x0:0x63c66e4d33249155,
perumahan,Perumahan,Rumah Yasmine  Anya,"Jl. Atap No.8, Pagar, Kec. Sembakung, Kabupaten Nunukan, Kalimantan Utara 77453","Pagar, Kec. Sembakung, Kabupaten Nunukan",KALIMANTAN UTARA,77453.0,Indonesia,,,,3.8451954,117.0279663,https://maps.google.com/?cid=0x0:0xb193318b1fe6264d,
perumahan,Kantor Perusahaan,Pagaluyon,"QWCJ+CW6, Pagaluyon, Kec. Sembakung, Kabupaten Nunukan, Kalimantan Utara 77453","Pagaluyon, Kec. Sembakung, Kabupaten Nunukan",KALIMANTAN UTARA,77453.0,Indonesia,,,,3.7710323,116.9322553,https://maps.google.com/?cid=0x0:0xa59f2908da47ad77,
perumahan,Komplek perumahan,home Jamalfams,"V332+QXM, Tujung, Kec. Sembakung, Kabupaten Nunukan, Kalimantan Utara 77453","Tujung, Kec. Sembakung, Kabupaten Nunukan",KALIMANTAN UTARA,77453.0,Indonesia,,,,3.8535705,117.0538374,https://maps.google.com/?cid=0x0:0xcde5b014e0887a87,
perumahan,perumahan,Kalimantan Utara 77482,"Kabupaten Nunukan, Kalimantan Utara","Kabupaten Nunukan, Kalimantan Utara",KALIMANTAN UTARA,,Indonesia,,,,4.1377066,117.0794082,https://maps.google.com/?cid=0x0:0xe448c81886e99c56,
perumahan,Komplek perumahan,Secret YVCI SEBUKU,"22X5+C27, Sanur, Tulin Onsoi, Kabupaten Nunukan, Kalimantan Utara 77482","Sanur, Tulin Onsoi, Kabupaten Nunukan",KALIMANTAN UTARA,77482.0,Indonesia,,,,4.048539,117.0075599,https://maps.google.com/?cid=0x0:0x448b3577df6c5ff0,
perumahan,perumahan,R. Abner,"WXV5+4C5, Jl. Trans Sebuku, Tetaban, Kec. Sebuku, Kabupaten Nunukan, Kalimantan Utara 77482","Jl. Trans Sebuku, Tetaban, Kec. Sebuku, Kabupaten Nunukan",KALIMANTAN UTARA,77482.0,Indonesia,,,,3.9427691,116.9586193,https://maps.google.com/?cid=0x0:0x5a0d68448ad7ad2c,
perumahan,Komplek perumahan,rumaahnya nony cantiii rorrrr,"22R2+R4X, Jl. Garuda, Makmur, Tulin Onsoi, Kabupaten Nunukan, Kalimantan Utara 77482","Jl. Garuda, Makmur, Tulin Onsoi, Kabupaten Nunukan",KALIMANTAN UTARA,77482.0,Indonesia,,,,4.0421171,117.0003622,https://maps.google.com/?cid=0x0:0x4ea1e9dd34c4b626,
perumahan,Komplek perumahan,Rumah Filipus Degha,"Jln jambu No.Rt07 Desa, Sanur, Tulin Onsoi, Kabupaten Nunukan, Kalimantan Utara 77482","Sanur, Tulin Onsoi, Kabupaten Nunukan",KALIMANTAN UTARA,77482.0,Indonesia,,,,4.0330333,116.9914582,https://maps.google.com/?cid=0x0:0x12a6fe1ee76f7a92,
perumahan,Komplek perumahan,Mus,"32W4+78X, Tinampak II, Tulin Onsoi, Kabupaten Nunukan, Kalimantan Utara 77482","Tinampak II, Tulin Onsoi, Kabupaten Nunukan",KALIMANTAN UTARA,77482.0,Indonesia,,,,4.0957375,117.0058594,https://maps.google.com/?cid=0x0:0xb43ccde2514e8c4f,
perumahan,Komplek perumahan,Shidiq'House,"22Q3+3R, Makmur, Tulin Onsoi, Kabupaten Nunukan, Kalimantan Utara","Kabupaten Nunukan, Kalimantan Utara",KALIMANTAN UTARA,,Indonesia,,,,4.037714,117.004554,https://maps.google.com/?cid=0x0:0x24d11a0483c42e57,
perumahan,Pembangunan Perumahan,Celen Sekikilan,"3XVQ+3QC, Sekikilan, Tulin Onsoi, Kabupaten Nunukan, Kalimantan Utara 77482","Sekikilan, Tulin Onsoi, Kabupaten Nunukan",KALIMANTAN UTARA,77482.0,Indonesia,,,,4.0926956,116.9893963,https://maps.google.com/?cid=0x0:0x69bc099517df8138,
perumahan,perumahan,Rumah Sudirman,"2279+8P, Makmur, Tulin Onsoi, Kabupaten Nunukan, Kalimantan Utara","Kabupaten Nunukan, Kalimantan Utara",KALIMANTAN UTARA,,Indonesia,,,,4.0133252,117.0193686,https://maps.google.com/?cid=0x0:0xbd67b66bda2adb4d,
perumahan,Komplek perumahan,R.Intan Lujiati,"2XRX+X6J, Makmur, Tulin Onsoi, Kabupaten Nunukan, Kalimantan Utara 77482","Makmur, Tulin Onsoi, Kabupaten Nunukan",KALIMANTAN UTARA,77482.0,Indonesia,,,,4.0424509,116.9980055,https://maps.google.com/?cid=0x0:0xa2e0cf6c6bda6c9,
perumahan,Komplek perumahan,Kristiyono,"Jl. Cendrawasih No.rt 012, Makmur, Tulin Onsoi, Kabupaten Nunukan, Kalimantan Utara 77482","Makmur, Tulin Onsoi, Kabupaten Nunukan",KALIMANTAN UTARA,77482.0,Indonesia,,,,4.0500681,117.0045058,https://maps.google.com/?cid=0x0:0xcbae9670afa21c9d,
perumahan,Komplek perumahan,Mimi home,"2XPV+45C, Sanur, Tulin Onsoi, Kabupaten Nunukan, Kalimantan Utara 77482","Sanur, Tulin Onsoi, Kabupaten Nunukan",KALIMANTAN UTARA,77482.0,Indonesia,,,,4.0353172,116.9928976,https://maps.google.com/?cid=0x0:0x50d656ef5c2b6efb,
perumahan,Komplek perumahan,Rumah Desi,"3X5W+4RJ, Sanur, Tulin Onsoi, Kabupaten Nunukan, Kalimantan Utara","Kabupaten Nunukan, Kalimantan Utara",KALIMANTAN UTARA,,Indonesia,,,,4.0578406,116.9970153,https://maps.google.com/?cid=0x0:0x37bd8542108e5f6a,
perumahan,Komplek perumahan,Rumah pak Halim Sebuku,"22X4+5P, Sanur, Tulin Onsoi, Kabupaten Nunukan, Kalimantan Utara 77482","Sanur, Tulin Onsoi, Kabupaten Nunukan",KALIMANTAN UTARA,77482.0,Indonesia,,,,4.0479473,117.0068749,https://maps.google.com/?cid=0x0:0x47c1723a1e185e31,
perumahan,Komplek perumahan,Arhaz,"22V2+JG, Sanur, Tulin Onsoi, Kabupaten Nunukan, Kalimantan Utara 77482","Sanur, Tulin Onsoi, Kabupaten Nunukan",KALIMANTAN UTARA,77482.0,Indonesia,,,,4.0440905,117.0012413,https://maps.google.com/?cid=0x0:0xb22a6d4fb8e3b864,
perumahan,Komplek perumahan,Garuda,"22R2+Q5X, Jl. Garuda, Makmur, Tulin Onsoi, Kabupaten Nunukan, Kalimantan Utara 77482","Jl. Garuda, Makmur, Tulin Onsoi, Kabupaten Nunukan",KALIMANTAN UTARA,77482.0,Indonesia,,,,4.0419788,117.0004842,https://maps.google.com/?cid=0x0:0xcdd9ac85fd14a982,
perumahan,Pembangunan Perumahan,Villa Bramantya,"2XMR+279, Unnamed Road, Makmur, Tulin Onsoi, Kabupaten Nunukan, Kalimantan Utara 77482","Unnamed Road, Makmur, Tulin Onsoi, Kabupaten Nunukan",KALIMANTAN UTARA,77482.0,Indonesia,811720001.0,,,4.0325423,116.9907288,https://maps.google.com/?cid=0x0:0xc89a0c10ed7e952a,
perumahan,Pembangunan Perumahan,Kalimantan utara,"725C+W6M, Salang, Tulin Onsoi, Kabupaten Nunukan, Kalimantan Utara 77482","Salang, Tulin Onsoi, Kabupaten Nunukan",KALIMANTAN UTARA,77482.0,Indonesia,,,,4.2598374,117.0205594,https://maps.google.com/?cid=0x0:0xf035810750708da6,
perumahan,Kantor Pemerintah Distrik,Desa balatikon,"5X73+RQH, Tinampak II, Tulin Onsoi, Kabupaten Nunukan, Kalimantan Utara 77482","Tinampak II, Tulin Onsoi, Kabupaten Nunukan",KALIMANTAN UTARA,77482.0,Indonesia,,,,4.1645591,116.9544961,https://maps.google.com/?cid=0x0:0x8b1cd36d793cb9f4,
perumahan,Komplek perumahan,Rumah Maleo,"22X6+QXF, Jl. Maleo, Makmur, Tulin Onsoi, Kabupaten Nunukan, Kalimantan Utara 77482","Jl. Maleo, Makmur, Tulin Onsoi, Kabupaten Nunukan",KALIMANTAN UTARA,77482.0,Indonesia,,,,4.049427,117.012413,https://maps.google.com/?cid=0x0:0x324aa7e30bb1691,
perumahan,Pembangunan Perumahan,Perumahan Bumi Nunukan Adil,"4M7Q+GW6, Selisun, Nunukan Sel., Kabupaten Nunukan, Kalimantan Utara 77482","Selisun, Nunukan Sel., Kabupaten Nunukan",KALIMANTAN UTARA,77482.0,Indonesia,,,,4.1137974,117.6897784,https://maps.google.com/?cid=0x0:0x43bd6ceb2e51db24,
perumahan,Perhimpunan Pengembang Perumahan,Zidane_azhar,"Jln.jambu No.RT 007, RT.007/RW.RT 007, Sanur, Tulin Onsoi, Kabupaten Nunukan, Kalimantan Utara 77482","RT.007/RW.RT 007, Sanur, Tulin Onsoi, Kabupaten Nunukan",KALIMANTAN UTARA,77482.0,Indonesia,81257758214.0,,,4.0318382,116.9901211,https://maps.google.com/?cid=0x0:0x820decb651ca3eb4,
perumahan,Pembangunan Perumahan,Wahyu kuense,"3XVQ+3QC, Sekikilan, Tulin Onsoi, Kabupaten Nunukan, Kalimantan Utara 77482","Sekikilan, Tulin Onsoi, Kabupaten Nunukan",KALIMANTAN UTARA,77482.0,Indonesia,,,,4.0927976,116.9894318,https://maps.google.com/?cid=0x0:0xbc0345f66674e5ba,
perumahan,Komplek perumahan,Rumah mantri rahmat,"3X5W+4RJ, Sanur, Tulin Onsoi, Kabupaten Nunukan, Kalimantan Utara 77482","Sanur, Tulin Onsoi, Kabupaten Nunukan",KALIMANTAN UTARA,77482.0,Indonesia,,,,4.0578406,116.9970153,https://maps.google.com/?cid=0x0:0x36e5ab8f74102534,
