Category,Real Category,Business Name,Address,City,State,Postal Code,Country,Phone,Email,Website,Latitude,Longitude,Map Link,Details Link
hotel,hotel,SwissÃ´tel Nusantara,"Lot No.1.Co.20, Bumi Harapan, Sepaku, Penajam North Paser Regency, East Kalimantan 76147","Bumi Harapan, Sepaku, Penajam North Paser Regency",KALIMANTAN TIMUR,76147.0,Indonesia,5428258888.0,,,-0.970002,116.709842,https://maps.google.com/?cid=0x0:0xf44092a0b8b58487,
hotel,Bangunan Bersejarah,Titik Nol IKN Nusantara,"Pemaluan, Kec. Sepaku, Kabupaten Penajam Paser Utara, Kalimantan Timur","Kabupaten Penajam Paser Utara, Kalimantan Timur",KALIMANTAN TIMUR,,Indonesia,,,,-0.9729866,116.7088379,https://maps.google.com/?cid=0x0:0x593aee2ae36416b6,
hotel,Perhentian bus,Bandar Udara Internasional Sultan Aji Muhammad Sulaiman Sepinggan Balikpapan (BPN),"Jl. Marsma R. Iswahyudi, Sepinggan, Kecamatan Balikpapan Selatan, Kota Balikpapan, Kalimantan Timur 76115","Sepinggan, Kecamatan Balikpapan Selatan, Kota Balikpapan",KALIMANTAN TIMUR,76115.0,Indonesia,542766886.0,,,-1.2677976,116.894224,https://maps.google.com/?cid=0x0:0x3c24197833beca60,
hotel,hotel,,,,KALIMANTAN TIMUR,,Indonesia,,,,,,https://maps.google.com/?cid=0x0:0x6c75cbbfa7ba00f8%7C/g/11g3ysfd_r%7Cen-ID,
hotel,hotel,Celia Hotel Samarinda,"Jl. Delima Dalam No.07 Blok D, Sidodadi, Kec. Samarinda Ulu, Kota Samarinda, Kalimantan Timur 75243","Sidodadi, Kec. Samarinda Ulu, Kota Samarinda",KALIMANTAN TIMUR,75243.0,Indonesia,5416211418.0,,,-0.4786377,117.1407687,https://maps.google.com/?cid=0x0:0x3f4bc409151a678e,
hotel,hotel,Raudhah Guesthouse,"Jl. Pramuka I No.1, Sempaja Sel., Kec. Samarinda Ulu, Kota Samarinda, Kalimantan Timur 75123","Sempaja Sel., Kec. Samarinda Ulu, Kota Samarinda",KALIMANTAN TIMUR,75123.0,Indonesia,85750046060.0,,,-0.4625895,117.1508576,https://maps.google.com/?cid=0x0:0xd5a7683028d2897d,
hotel,hotel,Hotel Kumala,"Jl. Ir. H. Juanda No.185, Sidodadi, Kec. Samarinda Ulu, Kota Samarinda, Kalimantan Timur 75124","Sidodadi, Kec. Samarinda Ulu, Kota Samarinda",KALIMANTAN TIMUR,75124.0,Indonesia,2129707601.0,,,-0.480399,117.135814,https://maps.google.com/?cid=0x0:0x2179f3ea63d07f5a,
hotel,hotel,Graha Balfas,"Jl. Mayjend Jl. Mayor Jendral S. Parman No.45, Temindung Permai, Sungai Pinang, Samarinda City, East Kalimantan 75242","Temindung Permai, Sungai Pinang, Samarinda City",KALIMANTAN TIMUR,75242.0,Indonesia,85200000899.0,,,-0.4768936,117.1512706,https://maps.google.com/?cid=0x0:0x64ac8c5bf464a78c,
hotel,hotel,The Hotel,"Jl. S. Parman No.20, Temindung Permai, Kec. Sungai Pinang, Kota Samarinda, Kalimantan Timur 75123","Temindung Permai, Kec. Sungai Pinang, Kota Samarinda",KALIMANTAN TIMUR,75123.0,Indonesia,81373981730.0,,,-0.4777999,117.1527644,https://maps.google.com/?cid=0x0:0x418a99b20c02dd89,
hotel,hotel,Hotel bone indah,"Jl. Ir. H. Juanda, Sidodadi, Kec. Samarinda Ulu, Kota Samarinda, Kalimantan Timur 75243","Sidodadi, Kec. Samarinda Ulu, Kota Samarinda",KALIMANTAN TIMUR,75243.0,Indonesia,2129707601.0,,,-0.4727075,117.1386072,https://maps.google.com/?cid=0x0:0x6c2c90990edea188,
hotel,hotel,Aulia Homestay Samarinda Syariah,"Jl. Belatuk II No.65, Temindung Permai, Kec. Sungai Pinang, Kota Samarinda, Kalimantan Timur 75242","Temindung Permai, Kec. Sungai Pinang, Kota Samarinda",KALIMANTAN TIMUR,75242.0,Indonesia,2129707601.0,,,-0.4752263,117.1522741,https://maps.google.com/?cid=0x0:0x1ba024d8df0edaae,
hotel,hotel,OYO 3286 Ramania Residence,"49, Jl. Ramania II No.49, Sidodadi, Kec. Samarinda Ulu, Kota Samarinda, Kalimantan Timur 75243","Jl. Ramania II No.49, Sidodadi, Kec. Samarinda Ulu, Kota Samarinda",KALIMANTAN TIMUR,75243.0,Indonesia,2129707601.0,,,-0.4775554,117.1435262,https://maps.google.com/?cid=0x0:0x7839274449dc9739,
hotel,hotel,JustSleep Guesthouse,"Sempaja Sel., Kec. Samarinda Utara, Kota Samarinda, Kalimantan Timur 75243","Kec. Samarinda Utara, Kota Samarinda",KALIMANTAN TIMUR,75243.0,Indonesia,81348555258.0,,,-0.4532542,117.153046,https://maps.google.com/?cid=0x0:0xa8567c3fc0b2e561,
hotel,,Masjid Baitul Muttaqien - Islamic Center Kaltim,"Jl. Slamet Riyadi No.1, Tlk. Lerong Ulu, Kec. Sungai Kunjang, Kota Samarinda, Kalimantan Timur 75243","Tlk. Lerong Ulu, Kec. Sungai Kunjang, Kota Samarinda",KALIMANTAN TIMUR,75243.0,Indonesia,,,,-0.502312,117.1201332,https://maps.google.com/?cid=0x0:0x7666aadb9294c007,
hotel,hotel,,,,KALIMANTAN TIMUR,,Indonesia,,,,,,https://maps.google.com/?cid=0x0:0xda0c69ef94dc3e4a%7C/g/11h9fngvb6%7Cen-ID,
hotel,hotel,Super Townhouse 75779 The Royal Retreat,"MC35+2CJ, 64, Milan nagar Belghoria Expy, Durga Nagar, Vidyasagar Pally, Doctor Bagan, Alipore, Nimta, North Dumdum, Kolkata, West Bengal 700049, India","Milan nagar Belghoria Expy, Durga Nagar, Vidyasagar Pally, Doctor Bagan, Alipore, Nimta, North Dumdum, Kolkata, West Bengal",KALIMANTAN TIMUR,700049.0,Indonesia,911246201612.0,,,22.6523639,88.4081422,https://maps.google.com/?cid=0x0:0xda0c69ef94dc3e4a,
hotel,hotel,Super OYO Flagship Airport Comfort Stay,"opposite to Hotel Moon Light, Bediapara, North Dumdum, Kolkata, North Dumdum, West Bengal 700065, India","Bediapara, North Dumdum, Kolkata, North Dumdum, West Bengal",KALIMANTAN TIMUR,700065.0,Indonesia,911246201612.0,,,22.6520625,88.4064375,https://maps.google.com/?cid=0x0:0xfd5d400966c98957,
hotel,hotel,OYO 12803 Moon Light Hotel,"Belghoria Expy, Doctor Bagan, Alipore, North Dumdum, West Bengal 700065, India","Doctor Bagan, Alipore, North Dumdum, West Bengal",KALIMANTAN TIMUR,700065.0,Indonesia,911246201612.0,,,22.6525603,88.4067107,https://maps.google.com/?cid=0x0:0xff591cf8bde5c5d5,
hotel,hotel,Hotel O DumDum Thana More formerly Bimla Regency,"Ward no 19, 01, 69  70, Dr. S. P. Mukherjee Rd, Gora Bazar, Rajbari, Dum Dum, North Dumdum, Kolkata, West Bengal 700028, India","Dr. S. P. Mukherjee Rd, Gora Bazar, Rajbari, Dum Dum, North Dumdum, Kolkata, West Bengal",KALIMANTAN TIMUR,700028.0,Indonesia,911244330599.0,,,22.6357761,88.4159956,https://maps.google.com/?cid=0x0:0x6ebb8a2debc9ff41,
hotel,hotel,Hotel Royal Crowne,"No 1 Enter, the Mandir Masjid Road and take, 86, Ramakrishna Road Italgacha Main Road, the 2nd right, near Airport Gate, 2nd Cross, Kolkata, West Bengal 700079, India","Kolkata, West Bengal",KALIMANTAN TIMUR,700079.0,Indonesia,917001561189.0,,,22.6433757,88.4304441,https://maps.google.com/?cid=0x0:0x8174f68bb899bc1a,
hotel,hotel,OYO Flagship 65121 Hotel Maharaja,"550, 1, PK Guha Rd, Radha Nagar, Arabinda Sarani, Rajbari, Dum Dum, Kolkata, West Bengal 700028, India","PK Guha Rd, Radha Nagar, Arabinda Sarani, Rajbari, Dum Dum, Kolkata, West Bengal",KALIMANTAN TIMUR,700028.0,Indonesia,911246201612.0,,,22.6433105,88.4261732,https://maps.google.com/?cid=0x0:0xcdb012afa6b3494f,
hotel,hotel,Collection O Shree Krishna International Near Kolkata Airport,"PK Guha Rd, Arabinda Sarani, Rajbari, Dum Dum, Kolkata, West Bengal 700079, India","Arabinda Sarani, Rajbari, Dum Dum, Kolkata, West Bengal",KALIMANTAN TIMUR,700079.0,Indonesia,911246201612.0,,,22.6433842,88.4288093,https://maps.google.com/?cid=0x0:0xb2ee6a2c47af3032,
hotel,hotel,OYO Flagship 5930 Dum Dum,"39/1, Post Office Rd, Mahendra Colony, Gora Bazar, Rajbari, Dum Dum, Kolkata, North Dumdum, West Bengal 700028, India","Post Office Rd, Mahendra Colony, Gora Bazar, Rajbari, Dum Dum, Kolkata, North Dumdum, West Bengal",KALIMANTAN TIMUR,700028.0,Indonesia,911246201612.0,,,22.633065,88.416169,https://maps.google.com/?cid=0x0:0x91a75d90eae2bd64,
hotel,Perhentian bus,Vidyasagar Pally,"Bediapara, North Dumdum, Bengala Bar. 700065, India","North Dumdum, Bengala Bar.",KALIMANTAN TIMUR,700065.0,Indonesia,,,,22.65228,88.407399,https://maps.google.com/?cid=0x0:0xe8fb0d04123a157d,
hotel,Pura,Dakshineswar Kali Temple,"Dakshineswar, Kolkata, West Bengal 700076, India","Kolkata, West Bengal",KALIMANTAN TIMUR,700076.0,Indonesia,913325645222.0,,,22.6549345,88.3577424,https://maps.google.com/?cid=0x0:0xffa380efed305d4c,
hotel,hotel,Long Apari,"Kutai Barat, Kalimantan Timur","Kutai Barat, Kalimantan Timur",KALIMANTAN TIMUR,,Indonesia,,,,0.7748481,114.2716271,https://maps.google.com/?cid=0x0:0xfa8d948e14172c9e,
hotel,hotel,Kalimantan Timur 75769,"Mahakam Ulu, Kalimantan Timur","Mahakam Ulu, Kalimantan Timur",KALIMANTAN TIMUR,,Indonesia,,,,1.0352372,114.2390498,https://maps.google.com/?cid=0x0:0xc1c20922ba42e267,
hotel,Area Mendaki,Kampung Long Apari,"W3CJ+GH, Long Apari, Kutai Barat, Kalimantan Timur","Kutai Barat, Kalimantan Timur",KALIMANTAN TIMUR,,Indonesia,,,,0.9212776,114.081467,https://maps.google.com/?cid=0x0:0x9296c79e0011dcf1,
hotel,Komplek perumahan,Kampung Long Kerioq,"Q7FG+PH, Long Penaneh I, Long Apari, Kabupaten Kutai Barat, Kalimantan Timur","Kabupaten Kutai Barat, Kalimantan Timur",KALIMANTAN TIMUR,,Indonesia,,,,0.7741851,114.2763885,https://maps.google.com/?cid=0x0:0x438c32c05d7a077b,
hotel,hotel,Hotel Mahakam Asri,"Jl. Pattimura, Melak Ulu, Kec. Melak, Kabupaten Kutai Barat, Kalimantan Timur 75775","Melak Ulu, Kec. Melak, Kabupaten Kutai Barat",KALIMANTAN TIMUR,75775.0,Indonesia,54541973.0,,,-0.2328657,115.8041013,https://maps.google.com/?cid=0x0:0x30852e273edce9ad,
hotel,,Danau Barong,"Melak Ilir, Kec. Melak, Kabupaten Kutai Barat, Kalimantan Timur 75775","Kec. Melak, Kabupaten Kutai Barat",KALIMANTAN TIMUR,75775.0,Indonesia,,,,-0.2453721,115.8290847,https://maps.google.com/?cid=0x0:0xa173b1b789207e4f,
hotel,hotel,kost nora,"XH44+WR, Long Isun, Long Pahangai, Kutai Barat, Kalimantan Timur","Kutai Barat, Kalimantan Timur",KALIMANTAN TIMUR,,Indonesia,83890777151.0,,,0.957344,114.557109,https://maps.google.com/?cid=0x0:0x8594d05bca399cba,
hotel,hotel,Kalimantan Timur 75767,"Mahakam Ulu, Kalimantan Timur","Mahakam Ulu, Kalimantan Timur",KALIMANTAN TIMUR,,Indonesia,,,,0.887309,115.3785719,https://maps.google.com/?cid=0x0:0xbeb09fe3cccebd68,
hotel,Hotel,Penginapan Empat Bintang,"G6GQ+HH3, RT.06, Ujoh Bilang, Kec. Long Bagun, Mahakam Ulu, Kalimantan Timur 75767","RT.06, Ujoh Bilang, Kec. Long Bagun, Mahakam Ulu",KALIMANTAN TIMUR,75767.0,Indonesia,81350292906.0,,,0.5263895,115.2389086,https://maps.google.com/?cid=0x0:0x72f93e8298781845,
hotel,Pondok,Penginapan Polewali,"G6X4+4C7, Long Bagun Ulu, Kec. Long Bagun, Kabupaten Kutai Barat, Kalimantan Timur 75767","Long Bagun Ulu, Kec. Long Bagun, Kabupaten Kutai Barat",KALIMANTAN TIMUR,75767.0,Indonesia,,,,0.5477893,115.2060388,https://maps.google.com/?cid=0x0:0xe6a541b47748a1a9,
hotel,Pondok,Penginapan Descha Mahulu,"RT. 3, Ujoh Bilang, Kec. Long Bagun, Mahakam Ulu, Kalimantan Timur 75767","Ujoh Bilang, Kec. Long Bagun, Mahakam Ulu",KALIMANTAN TIMUR,75767.0,Indonesia,81264683855.0,,,0.5265704,115.2378742,https://maps.google.com/?cid=0x0:0x7edafcbcbcee0188,
hotel,Hotel,Marissa Hotel  Restaurant,"Ujoh Bilang, Kec. Long Bagun, Kabupaten Kutai Barat, Kalimantan Timur 75767","Kec. Long Bagun, Kabupaten Kutai Barat",KALIMANTAN TIMUR,75767.0,Indonesia,85250024230.0,,,0.5266684,115.2387075,https://maps.google.com/?cid=0x0:0x629eb8dc3bf786e1,
hotel,Pondok,Penginapan NURJANNAH,"Simpang pelabuhan No.RT./05, Ujoh Bilang, Kec. Long Bagun, Mahakam Ulu, Kalimantan Timur 75767","Ujoh Bilang, Kec. Long Bagun, Mahakam Ulu",KALIMANTAN TIMUR,75767.0,Indonesia,85388144101.0,,,0.5269521,115.2384124,https://maps.google.com/?cid=0x0:0x770d930ce5401b2c,
hotel,Bed >>u0026 Breakfast,Penginapan Wong Khinay And Travel Jelajah Borneo 99,"H638+66C, Unnamed Road, Batu Majang, Kec. Long Bagun, Mahakam Ulu, Kalimantan Timur 75767","Unnamed Road, Batu Majang, Kec. Long Bagun, Mahakam Ulu",KALIMANTAN TIMUR,75767.0,Indonesia,85248675903.0,,,0.55307,115.2155227,https://maps.google.com/?cid=0x0:0x462e1aa679e92cb0,
hotel,Hotel,BANGSALAN SEBENAQ,"Dekat kantor BPBD kab. mahulu, Jalan Apo Medo No.RT 11, Kec. Long Bagun, Kabupaten Kutai Barat, Kalimantan Timur 75767","Jalan Apo Medo No.RT 11, Kec. Long Bagun, Kabupaten Kutai Barat",KALIMANTAN TIMUR,75767.0,Indonesia,82143316276.0,,,0.4581011,115.2503703,https://maps.google.com/?cid=0x0:0xe30de67ab8e5003,
hotel,Hotel,Bangsalan Kuning,"G6W5+Q42, Bangsalan Kuning, Kec. Long Bagun, Mahakam Ulu, Kalimantan Timur 75767","Bangsalan Kuning, Kec. Long Bagun, Mahakam Ulu",KALIMANTAN TIMUR,75767.0,Indonesia,,,,0.5468941,115.2077537,https://maps.google.com/?cid=0x0:0xd9c8f8b602315cd5,
hotel,Hotel,Bangsalan SEBENAQ,"Jalan Poros Ujoh Bilang-Lome RT 15, Kec. Long Bagun, Mahakam Ulu","Mahakam Ulu, Kalimantan Timur",KALIMANTAN TIMUR,,Indonesia,,,,0.5011153,115.2719048,https://maps.google.com/?cid=0x0:0x794b475b1fde9f31,
hotel,Hotel,LAMIN KITA,"M776+J2F, Batu Majang, Kec. Long Bagun, Mahakam Ulu, Kalimantan Timur 75767","Batu Majang, Kec. Long Bagun, Mahakam Ulu",KALIMANTAN TIMUR,75767.0,Indonesia,,,,0.6640691,115.2600506,https://maps.google.com/?cid=0x0:0x366504c2282e71e2,
hotel,Pondok,Penginapan BERKAT 08,"G72C+CQR, Ujoh Bilang, Kec. Long Bagun, Mahakam Ulu, Kalimantan Timur","Mahakam Ulu, Kalimantan Timur",KALIMANTAN TIMUR,,Indonesia,,,,0.5011153,115.2719048,https://maps.google.com/?cid=0x0:0xa73a62eb074cffeb,
hotel,Hotel,Penginapan MAYANG SARI,"G6GQ+P8Q, Ujoh Bilang, Kec. Long Bagun, Mahakam Ulu, Kalimantan Timur 75767","Ujoh Bilang, Kec. Long Bagun, Mahakam Ulu",KALIMANTAN TIMUR,75767.0,Indonesia,85245536852.0,,,0.5268478,115.2383527,https://maps.google.com/?cid=0x0:0xe853313e5585ee82,
hotel,Hotel,Vion nomate,"C7F6+H43, Long Melaham, Kec. Long Bagun, Kabupaten Kutai Barat, Kalimantan Timur 75779","Long Melaham, Kec. Long Bagun, Kabupaten Kutai Barat",KALIMANTAN TIMUR,75779.0,Indonesia,82190058803.0,,,0.423879,115.2602858,https://maps.google.com/?cid=0x0:0x8592439a2fe86b82,
hotel,hotel,Kalimantan Timur 75779,"Mahakam Ulu, Kalimantan Timur","Mahakam Ulu, Kalimantan Timur",KALIMANTAN TIMUR,,Indonesia,,,,0.2034371,114.9991464,https://maps.google.com/?cid=0x0:0x91d6ed1ceac71e17,
hotel,Losmen,Penginapan Sainal Abidin,"6FJ6+874, Datah Bilang Ilir, Kec. Long Hubung, Mahakam Ulu, Kalimantan Timur 75766","Datah Bilang Ilir, Kec. Long Hubung, Mahakam Ulu",KALIMANTAN TIMUR,75766.0,Indonesia,,,,0.230768,115.46069,https://maps.google.com/?cid=0x0:0x726670a981e0171f,
hotel,hotel,Penginapan VIDA,"F72J+PC6, Long Melaham, Kec. Long Bagun, Mahakam Ulu, Kalimantan Timur","Mahakam Ulu, Kalimantan Timur",KALIMANTAN TIMUR,,Indonesia,,,,0.4504308,115.2810796,https://maps.google.com/?cid=0x0:0x676925763a2a75cc,
hotel,Hotel,Vion nomate,"C7F6+H43, Long Melaham, Kec. Long Bagun, Kabupaten Kutai Barat, Kalimantan Timur 75779","Long Melaham, Kec. Long Bagun, Kabupaten Kutai Barat",KALIMANTAN TIMUR,75779.0,Indonesia,82190058803.0,,,0.423879,115.2602858,https://maps.google.com/?cid=0x0:0x8592439a2fe86b82,
hotel,hotel,Kalimantan Timur 75768,"Long Pahangai, Mahakam Ulu, Kalimantan Timur","Mahakam Ulu, Kalimantan Timur",KALIMANTAN TIMUR,,Indonesia,,,,1.0321219,114.6192899,https://maps.google.com/?cid=0x0:0xe12e316d94532820,
hotel,Pondok,Penginapan Polewali,"G6X4+4C7, Long Bagun Ulu, Kec. Long Bagun, Kabupaten Kutai Barat, Kalimantan Timur 75767","Long Bagun Ulu, Kec. Long Bagun, Kabupaten Kutai Barat",KALIMANTAN TIMUR,75767.0,Indonesia,,,,0.5477893,115.2060388,https://maps.google.com/?cid=0x0:0xe6a541b47748a1a9,
hotel,Bed >>u0026 Breakfast,Penginapan Wong Khinay And Travel Jelajah Borneo 99,"H638+66C, Unnamed Road, Batu Majang, Kec. Long Bagun, Mahakam Ulu, Kalimantan Timur 75767","Unnamed Road, Batu Majang, Kec. Long Bagun, Mahakam Ulu",KALIMANTAN TIMUR,75767.0,Indonesia,85248675903.0,,,0.55307,115.2155227,https://maps.google.com/?cid=0x0:0x462e1aa679e92cb0,
hotel,,Long pahangai-I,"VMPR+XJ4, Long Pahangai I, Long Pahangai, Mahakam Ulu, Kalimantan Timur","Mahakam Ulu, Kalimantan Timur",KALIMANTAN TIMUR,,Indonesia,,,,0.8879295,114.6911113,https://maps.google.com/?cid=0x0:0x6b344a4e3fd98378,
restaurant,restaurant,Laham Kohana,"9C7H+PQ2, Long Hurai, Kec. Long Bagun, Mahakam Ulu, Kalimantan Timur","Mahakam Ulu, Kalimantan Timur",KALIMANTAN TIMUR,,Indonesia,,,,0.364271,115.429398,https://maps.google.com/?cid=0x0:0xb02773b7dcd14d70,
restaurant,restaurant,Laham,"Long Hurai, Kec. Long Bagun, Mahakam Ulu, Kalimantan Timur","Mahakam Ulu, Kalimantan Timur",KALIMANTAN TIMUR,,Indonesia,,,,0.364271,115.429398,https://maps.google.com/?cid=0x0:0x41b99f3dcadfc8b3,
restaurant,Indonesia,Bogarasa Delisindo. PT,"Hotel Grand Mahakam Mezanine Basement Floor, JL Mahakam 1, 6, Jakarta, 12130, RT.1/RW.7, Kramat Pela, Kebayoran Baru, South Jakarta City, Jakarta 12130","Jakarta,",KALIMANTAN TIMUR,12130.0,Indonesia,217258382.0,,,-6.244348,106.795478,https://maps.google.com/?cid=0x0:0xbb63dcefa7830d90,
restaurant,restaurant,Amelshop,"9C7H+PQ2, Long Hurai, Kec. Long Bagun, Kabupaten Kutai Barat, Kalimantan Timur 75779","Long Hurai, Kec. Long Bagun, Kabupaten Kutai Barat",KALIMANTAN TIMUR,75779.0,Indonesia,,,,0.364271,115.429398,https://maps.google.com/?cid=0x0:0xb0f96d30f8443116,
restaurant,Kafe,Gram - Cafe and Pancakes,"Tulodong Atlas 1 No.3 5, RT.8/RW.4, Senayan, Kec. Kby. Baru, Kota Jakarta Selatan, Daerah Khusus Ibukota Jakarta 12190","RT.8/RW.4, Senayan, Kec. Kby. Baru, Kota Jakarta Selatan",KALIMANTAN TIMUR,12190.0,Indonesia,,,,-6.2284449,106.8069486,https://maps.google.com/?cid=0x0:0xdee4320048a74a51,
restaurant,Restoran,Lagoon Cafe - The Sultan Hotel  Residence Jakarta,"The Sultan Complex, Jl. Gatot Subroto, RT.2/RW.1, Gelora, Kecamatan Tanah Abang, Kota Jakarta Pusat, Daerah Khusus Ibukota Jakarta 10270","Jl. Gatot Subroto, RT.2/RW.1, Gelora, Kecamatan Tanah Abang, Kota Jakarta Pusat",KALIMANTAN TIMUR,10270.0,Indonesia,215703600.0,,,-6.2181787,106.8091629,https://maps.google.com/?cid=0x0:0x8d0b694bbb3e856c,
restaurant,restaurant,,,,KALIMANTAN TIMUR,,Indonesia,,,,,,https://maps.google.com/?cid=0x0:0xaf6de80a6520e301u0026onu003dKue+Apeu0026midu003d/g/11vwq12xbn,
restaurant,restaurant,,,,KALIMANTAN TIMUR,,Indonesia,,,,,,https://maps.google.com/?cid=0x0:0xaf6de80a6520e301u0026onu003dBeefu0026midu003d/g/11vwq12xbn,
restaurant,restaurant,,,,KALIMANTAN TIMUR,,Indonesia,,,,,,https://maps.google.com/?cid=0x0:0xaf6de80a6520e301u0026onu003dSushi+and+Sashimi+Combou0026midu003d/g/11vwq12xbn,
restaurant,restaurant,,,,KALIMANTAN TIMUR,,Indonesia,,,,,,https://maps.google.com/?cid=0x0:0xaf6de80a6520e301u0026onu0026midu003d/g/11vwq12xbn,
restaurant,restaurant,Kalimantan Timur 75769,"Mahakam Ulu, Kalimantan Timur","Mahakam Ulu, Kalimantan Timur",KALIMANTAN TIMUR,,Indonesia,,,,1.0352372,114.2390498,https://maps.google.com/?cid=0x0:0xc1c20922ba42e267,
restaurant,restaurant,Long Apari,"Kutai Barat, Kalimantan Timur","Kutai Barat, Kalimantan Timur",KALIMANTAN TIMUR,,Indonesia,,,,0.7748481,114.2716271,https://maps.google.com/?cid=0x0:0xfa8d948e14172c9e,
restaurant,restaurant,Nasi Padang Simpang Tigo Kalimantan,"MR6V+X5J, Tanjunglokang, Kec. Hulu Kapuas, Kabupaten Kapuas Hulu, Kalimantan Barat 78752","Tanjunglokang, Kec. Hulu Kapuas, Kabupaten Kapuas Hulu",KALIMANTAN TIMUR,78752.0,Indonesia,,,,0.6624512,113.8428809,https://maps.google.com/?cid=0x0:0x39aac94382043e87,
restaurant,restaurant,Kedai ORLANDO,"Kampung Tiong Bu'u, Long Penaneh III, Long Apari, Mahakam Ulu, Kalimantan Timur 75769","Long Penaneh III, Long Apari, Mahakam Ulu",KALIMANTAN TIMUR,75769.0,Indonesia,81327527980.0,,,0.7766996,114.2721917,https://maps.google.com/?cid=0x0:0x88d42fa7bc95e551,
restaurant,restaurant,Kalimantan Timur 75767,"Mahakam Ulu, Kalimantan Timur","Mahakam Ulu, Kalimantan Timur",KALIMANTAN TIMUR,,Indonesia,,,,0.887309,115.3785719,https://maps.google.com/?cid=0x0:0xbeb09fe3cccebd68,
restaurant,Restoran,WARUNG BUTET,"G6JG+83P, Unnamed Road, Ujoh Bilang, Kec. Long Bagun, Mahakam Ulu, Kalimantan Timur 75767","Unnamed Road, Ujoh Bilang, Kec. Long Bagun, Mahakam Ulu",KALIMANTAN TIMUR,75767.0,Indonesia,,,,0.5308296,115.2252152,https://maps.google.com/?cid=0x0:0x183d7f6f6747726,
restaurant,Hotel,Marissa Hotel  Restaurant,"Ujoh Bilang, Kec. Long Bagun, Kabupaten Kutai Barat, Kalimantan Timur 75767","Kec. Long Bagun, Kabupaten Kutai Barat",KALIMANTAN TIMUR,75767.0,Indonesia,85250024230.0,,,0.5266684,115.2387075,https://maps.google.com/?cid=0x0:0x629eb8dc3bf786e1,
restaurant,Nasi,LESEHAN SHISHA,"G6X5+6CR, Unnamed Road, Long Bagun Ulu, Long Bagun, Mahakam Ulu Regency, East Kalimantan 75767","Unnamed Road, Long Bagun Ulu, Long Bagun, Mahakam Ulu Regency",KALIMANTAN TIMUR,75767.0,Indonesia,82358485559.0,,,0.5481217,115.2085283,https://maps.google.com/?cid=0x0:0x949f746c407322bc,
restaurant,Nasi,Rumah makan Wong Solo,"G6X4+4FQ, Unnamed Road, Long Bagun Ulu, Kec. Long Bagun, Mahakam Ulu, Kalimantan Timur 75767","Unnamed Road, Long Bagun Ulu, Kec. Long Bagun, Mahakam Ulu",KALIMANTAN TIMUR,75767.0,Indonesia,,,,0.5478312,115.2062429,https://maps.google.com/?cid=0x0:0xf2b9709b504cb979,
restaurant,Makanan Kecil,Warung Acil,"G67R+C68, Ujoh Bilang, Kec. Long Bagun, Mahakam Ulu, Kalimantan Timur","Mahakam Ulu, Kalimantan Timur",KALIMANTAN TIMUR,,Indonesia,,,,0.5140334,115.2404002,https://maps.google.com/?cid=0x0:0x1a3397c4e2e27a0b,
restaurant,Rumah Makan,Warung Prima Rasa Blitar,"Ujoh Bilang, Kec. Long Bagun, Mahakam Ulu, Kalimantan Timur 75767","Kec. Long Bagun, Mahakam Ulu",KALIMANTAN TIMUR,75767.0,Indonesia,81256130032.0,,,0.5258018,115.2360654,https://maps.google.com/?cid=0x0:0xfacce5f6681ede05,
restaurant,Makanan Kecil,Warung makan PHP,"Ujoh bilang RT 007, Ujoh Bilang, Kec. Long Bagun, Mahakam Ulu, Kalimantan Timur 75767","Ujoh Bilang, Kec. Long Bagun, Mahakam Ulu",KALIMANTAN TIMUR,75767.0,Indonesia,,,,0.5245225,115.2401293,https://maps.google.com/?cid=0x0:0xe0e51af1a6664a4,
restaurant,Rumah Makan,Rumah,"G6W6+7Q3, Long Bagun Ilir, Kec. Long Bagun, Mahakam Ulu, Kalimantan Timur 75767","Long Bagun Ilir, Kec. Long Bagun, Mahakam Ulu",KALIMANTAN TIMUR,75767.0,Indonesia,,,,0.5456302,115.2119312,https://maps.google.com/?cid=0x0:0x24a63d32d97a66e5,
restaurant,Rumah Makan,Warung Sederhana Mbak Sum,"G6GQ+R6V, Unnamed Road, Ujoh Bilang, Kec. Long Bagun, Mahakam Ulu, Kalimantan Timur 75767","Unnamed Road, Ujoh Bilang, Kec. Long Bagun, Mahakam Ulu",KALIMANTAN TIMUR,75767.0,Indonesia,82254962576.0,,,0.5271224,115.2380593,https://maps.google.com/?cid=0x0:0x43993f4a031bd8df,
restaurant,Nasi,Warung Nasi goreng SB,"G6W6+478, Long Bagun Ilir, Kec. Long Bagun, Mahakam Ulu, Kalimantan Timur 75767","Long Bagun Ilir, Kec. Long Bagun, Mahakam Ulu",KALIMANTAN TIMUR,75767.0,Indonesia,,,,0.545131,115.2104047,https://maps.google.com/?cid=0x0:0x2ab0765f58c2cd6c,
restaurant,Kedai Kopi,Coffee Kah,"G66V+XMM, Ujoh Bilang, Kec. Long Bagun, Mahakam Ulu, Kalimantan Timur 75767","Ujoh Bilang, Kec. Long Bagun, Mahakam Ulu",KALIMANTAN TIMUR,75767.0,Indonesia,81331427517.0,,,0.5124644,115.2441787,https://maps.google.com/?cid=0x0:0x3fb896313276c9f4,
restaurant,Tujuan Wisata,Mulai.Cerita,"F6CR+8R8, Unnamed Road, Long Melaham, Long Bagun, Mahakam Ulu Regency, East Kalimantan 75767","Unnamed Road, Long Melaham, Long Bagun, Mahakam Ulu Regency",KALIMANTAN TIMUR,75767.0,Indonesia,,,,0.4707844,115.2420689,https://maps.google.com/?cid=0x0:0x4f7447e809d1eccc,
restaurant,Kedai Kopi,Ujoh bilang long bagun kabupaten Mahakam ulu,"G6FJ+9FC, Ujoh Bilang, Kec. Long Bagun, Mahakam Ulu, Kalimantan Timur","Mahakam Ulu, Kalimantan Timur",KALIMANTAN TIMUR,,Indonesia,,,,0.523425,115.23114,https://maps.google.com/?cid=0x0:0x3b10807328e25873,
restaurant,Restoran,Warung Bude penyet,"Ujoh Bilang, Kec. Long Bagun, Mahakam Ulu, Kalimantan Timur 57676","Kec. Long Bagun, Mahakam Ulu",KALIMANTAN TIMUR,57676.0,Indonesia,81217785999.0,,,0.5159281,115.2427504,https://maps.google.com/?cid=0x0:0x7cbee37cee36d294,
restaurant,Kedai Kopi,ANGKRINGAN ZINTHA,"G6W6+478, Long Bagun Ilir, Kec. Long Bagun, Mahakam Ulu, Kalimantan Timur 75767","Long Bagun Ilir, Kec. Long Bagun, Mahakam Ulu",KALIMANTAN TIMUR,75767.0,Indonesia,81258761778.0,,,0.5446804,115.2101412,https://maps.google.com/?cid=0x0:0x858ef64eea3ac9f6,
restaurant,restaurant,GoNing,"CCX6+W8F, Long Merah, Kec. Long Bagun, Mahakam Ulu, Kalimantan Timur","Mahakam Ulu, Kalimantan Timur",KALIMANTAN TIMUR,,Indonesia,,,,0.44981,115.410797,https://maps.google.com/?cid=0x0:0x7c5f6b093af57a27,
restaurant,Restoran,Warung Hijau,"Ujoh Bilang, Kec. Long Bagun, Mahakam Ulu, Kalimantan Timur 75767","Kec. Long Bagun, Mahakam Ulu",KALIMANTAN TIMUR,75767.0,Indonesia,82140327140.0,,,0.5245935,115.2401909,https://maps.google.com/?cid=0x0:0x705b3258f3fa0442,
restaurant,Restoran,Kedai putri mahulu,"G6FR+F7G, Ujoh Bilang, Kec. Long Bagun, Mahakam Ulu, Kalimantan Timur 75767","Ujoh Bilang, Kec. Long Bagun, Mahakam Ulu",KALIMANTAN TIMUR,75767.0,Indonesia,85250701388.0,,,0.5233306,115.2405752,https://maps.google.com/?cid=0x0:0xac24451ab174168b,
restaurant,Nasi,Kedai PM Teras Rumah,"Jalan mangga No.RT 15, Ujoh Bilang, Kec. Long Bagun, Mahakam Ulu, Kalimantan Timur 75767","Ujoh Bilang, Kec. Long Bagun, Mahakam Ulu",KALIMANTAN TIMUR,75767.0,Indonesia,85250554577.0,,,0.5153691,115.2421145,https://maps.google.com/?cid=0x0:0x25b73e0f78c9f20a,
restaurant,Restoran,PENTOL ARROHMAN,"Unnamed Road, Ujoh Bilang, Kec. Long Bagun, Mahakam Ulu, Kalimantan Timur 75767","Ujoh Bilang, Kec. Long Bagun, Mahakam Ulu",KALIMANTAN TIMUR,75767.0,Indonesia,,,,0.5174853,115.242723,https://maps.google.com/?cid=0x0:0x3366531c7d30add0,
restaurant,restaurant,Kalimantan Timur 75779,"Mahakam Ulu, Kalimantan Timur","Mahakam Ulu, Kalimantan Timur",KALIMANTAN TIMUR,,Indonesia,,,,0.2034371,114.9991464,https://maps.google.com/?cid=0x0:0x91d6ed1ceac71e17,
restaurant,Restoran,Warung Apung Tepian MAHYUNI,"6FJ6+X3M, Datah Bilang Ulu, Kec. Long Hubung, Kabupaten Kutai Barat, Kalimantan Timur 75766","Datah Bilang Ulu, Kec. Long Hubung, Kabupaten Kutai Barat",KALIMANTAN TIMUR,75766.0,Indonesia,,,,0.2324721,115.4601861,https://maps.google.com/?cid=0x0:0x9a59077ddd4014e9,
restaurant,restaurant,Kec. Long Hubung,"Mahakam Ulu, Kalimantan Timur","Mahakam Ulu, Kalimantan Timur",KALIMANTAN TIMUR,,Indonesia,,,,0.2595275,115.4263644,https://maps.google.com/?cid=0x0:0x354143813a13d3e8,
restaurant,Makanan Kecil,Warung makan PHP,"Ujoh bilang RT 007, Ujoh Bilang, Kec. Long Bagun, Mahakam Ulu, Kalimantan Timur 75767","Ujoh Bilang, Kec. Long Bagun, Mahakam Ulu",KALIMANTAN TIMUR,75767.0,Indonesia,,,,0.5245225,115.2401293,https://maps.google.com/?cid=0x0:0xe0e51af1a6664a4,
restaurant,Indonesia,warung mas edo,"Memahak Teboq, Kec. Long Hubung, Mahakam Ulu, Kalimantan Timur 75766","Kec. Long Hubung, Mahakam Ulu",KALIMANTAN TIMUR,75766.0,Indonesia,,,,0.164617,115.519132,https://maps.google.com/?cid=0x0:0x2ec8c203152e23b7,
restaurant,Makanan Kecil,Warung Acil,"G67R+C68, Ujoh Bilang, Kec. Long Bagun, Mahakam Ulu, Kalimantan Timur","Mahakam Ulu, Kalimantan Timur",KALIMANTAN TIMUR,,Indonesia,,,,0.5140334,115.2404002,https://maps.google.com/?cid=0x0:0x1a3397c4e2e27a0b,
restaurant,Kedai Kopi,Angkringan WJ,"Jln.Gang Belakang Masjid Ar-rahman, Datah Bilang Ilir, Kalimantan Timur 75770",Datah Bilang Ilir,KALIMANTAN TIMUR,75770.0,Indonesia,,,,0.2271462,115.4635319,https://maps.google.com/?cid=0x0:0xdea220032bf9c6c5,
restaurant,restaurant,Warung halim,"C7WM+94, Long Melaham, Kec. Long Bagun, Mahakam Ulu, Kalimantan Timur","Mahakam Ulu, Kalimantan Timur",KALIMANTAN TIMUR,,Indonesia,,,,0.445891,115.2828077,https://maps.google.com/?cid=0x0:0x24208a20c72be241,
restaurant,restaurant,GoNing,"CCX6+W8F, Long Merah, Kec. Long Bagun, Mahakam Ulu, Kalimantan Timur","Mahakam Ulu, Kalimantan Timur",KALIMANTAN TIMUR,,Indonesia,,,,0.44981,115.410797,https://maps.google.com/?cid=0x0:0x7c5f6b093af57a27,
restaurant,restaurant,Warung makan terapung,"7C8P+644, Long Hubung, Kec. Long Hubung, Kabupaten Kutai Barat, Kalimantan Timur 75779","Long Hubung, Kec. Long Hubung, Kabupaten Kutai Barat",KALIMANTAN TIMUR,75779.0,Indonesia,,,,0.2655173,115.4353405,https://maps.google.com/?cid=0x0:0xd12a2c1fedc6538d,
restaurant,restaurant,WARUNG NENEK CONG,"7C8M+44P, Long Hubung, Kec. Long Hubung, Kabupaten Kutai Barat, Kalimantan Timur 75779","Long Hubung, Kec. Long Hubung, Kabupaten Kutai Barat",KALIMANTAN TIMUR,75779.0,Indonesia,,,,0.2653315,115.4328158,https://maps.google.com/?cid=0x0:0xbc9ec7228ec3eb7a,
restaurant,Restoran,WARUNG BUTET,"G6JG+83P, Unnamed Road, Ujoh Bilang, Kec. Long Bagun, Mahakam Ulu, Kalimantan Timur 75767","Unnamed Road, Ujoh Bilang, Kec. Long Bagun, Mahakam Ulu",KALIMANTAN TIMUR,75767.0,Indonesia,,,,0.5308296,115.2252152,https://maps.google.com/?cid=0x0:0x183d7f6f6747726,
restaurant,restaurant,Kalimantan Timur 75768,"Long Pahangai, Mahakam Ulu, Kalimantan Timur","Mahakam Ulu, Kalimantan Timur",KALIMANTAN TIMUR,,Indonesia,,,,1.0321219,114.6192899,https://maps.google.com/?cid=0x0:0xe12e316d94532820,
restaurant,restaurant,Restoran,"PHHM+8F3, Long Lunuk, Long Pahangai, Kabupaten Kutai Barat, Kalimantan Timur 75768","Long Lunuk, Long Pahangai, Kabupaten Kutai Barat",KALIMANTAN TIMUR,75768.0,Indonesia,,,,0.7282548,114.583658,https://maps.google.com/?cid=0x0:0xea04f7f20af6b2be,
restaurant,restaurant,Long Pahangai,"Mahakam Ulu, Kalimantan Timur","Mahakam Ulu, Kalimantan Timur",KALIMANTAN TIMUR,,Indonesia,,,,0.8872219,114.6915922,https://maps.google.com/?cid=0x0:0xba1c1086297281da,
restaurant,Nasi,LESEHAN SHISHA,"G6X5+6CR, Unnamed Road, Long Bagun Ulu, Long Bagun, Mahakam Ulu Regency, East Kalimantan 75767","Unnamed Road, Long Bagun Ulu, Long Bagun, Mahakam Ulu Regency",KALIMANTAN TIMUR,75767.0,Indonesia,82358485559.0,,,0.5481217,115.2085283,https://maps.google.com/?cid=0x0:0x949f746c407322bc,
restaurant,Nasi,Rumah makan Wong Solo,"G6X4+4FQ, Unnamed Road, Long Bagun Ulu, Kec. Long Bagun, Mahakam Ulu, Kalimantan Timur 75767","Unnamed Road, Long Bagun Ulu, Kec. Long Bagun, Mahakam Ulu",KALIMANTAN TIMUR,75767.0,Indonesia,,,,0.5478312,115.2062429,https://maps.google.com/?cid=0x0:0xf2b9709b504cb979,
restaurant,Rumah Makan,Rumah,"G6W6+7Q3, Long Bagun Ilir, Kec. Long Bagun, Mahakam Ulu, Kalimantan Timur 75767","Long Bagun Ilir, Kec. Long Bagun, Mahakam Ulu",KALIMANTAN TIMUR,75767.0,Indonesia,,,,0.5456302,115.2119312,https://maps.google.com/?cid=0x0:0x24a63d32d97a66e5,
restaurant,restaurant,Kantor Brainking,"XH73+9CR, Long Isun, Balikpapan, Kota Balikpapan, Kalimantan Timur","Kota Balikpapan, Kalimantan Timur",KALIMANTAN TIMUR,,Indonesia,,,,0.9634829,114.5535053,https://maps.google.com/?cid=0x0:0x31e0dddad79e543e,
restaurant,Rumah Makan,Warung makan IBU JUM,"G6X3+PVX, Long Bagun Ulu, Kec. Long Bagun, Kabupaten Kutai Barat, Kalimantan Timur","Kabupaten Kutai Barat, Kalimantan Timur",KALIMANTAN TIMUR,,Indonesia,82157384718.0,,,0.549372,115.2047325,https://maps.google.com/?cid=0x0:0x196230bd56dab5d6,
restaurant,restaurant,PT. LARIST MITRA LESTARI,"Long Lunuk Baru, Long Pahangai, Kabupaten Kutai Barat, Kalimantan Timur 75768","Long Pahangai, Kabupaten Kutai Barat",KALIMANTAN TIMUR,75768.0,Indonesia,81347671789.0,,,0.745992,114.5123841,https://maps.google.com/?cid=0x0:0xbb77150cd2da80d5,
restaurant,Nasi,Warung Makan Goyang Lidah,"H629+74H, Batu Majang, Kec. Long Bagun, Mahakam Ulu, Kalimantan Timur 75767","Batu Majang, Kec. Long Bagun, Mahakam Ulu",KALIMANTAN TIMUR,75767.0,Indonesia,,,,0.5513242,115.2184369,https://maps.google.com/?cid=0x0:0xd6f51810dbd1ead6,
restaurant,restaurant,Rumah Yosep Tingang Kueng,"QF84+64V, Delang Kerohong, Long Pahangai, Kutai Barat, Kalimantan Timur","Kutai Barat, Kalimantan Timur",KALIMANTAN TIMUR,,Indonesia,,,,0.7656245,114.4553119,https://maps.google.com/?cid=0x0:0xdb4a5dd3320bf7c6,
restaurant,restaurant,Warung Makan Tiga Saudara,"VXXM+MR4, Unnamed Road, Long Tuyoq, Long Pahangai, Mahakam Ulu, Kalimantan Timur 75768","Unnamed Road, Long Tuyoq, Long Pahangai, Mahakam Ulu",KALIMANTAN TIMUR,75768.0,Indonesia,,,,0.8991485,114.9845714,https://maps.google.com/?cid=0x0:0x50f7cadc1f84fce9,
restaurant,restaurant,Warung Makan Fadhil,"XH63+QW5, Long Isun, Long Pahangai, Kabupaten Kutai Barat, Kalimantan Timur 75768","Long Isun, Long Pahangai, Kabupaten Kutai Barat",KALIMANTAN TIMUR,75768.0,Indonesia,,,,0.9618834,114.5548495,https://maps.google.com/?cid=0x0:0x4403e56efd5944cc,
cafe,cafe,Laham,"Long Hurai, Kec. Long Bagun, Mahakam Ulu, Kalimantan Timur","Mahakam Ulu, Kalimantan Timur",KALIMANTAN TIMUR,,Indonesia,,,,0.364271,115.429398,https://maps.google.com/?cid=0x0:0x41b99f3dcadfc8b3,
cafe,Kedai Kopi,Talisayan,"8G4R+8W, Wana Pariq, Kec. Long Hubung, Mahakam Ulu, Kalimantan Timur","Mahakam Ulu, Kalimantan Timur",KALIMANTAN TIMUR,,Indonesia,,,,0.30576,115.5423233,https://maps.google.com/?cid=0x0:0x237a0786b3d1fae7,
cafe,cafe,Amelshop,"9C7H+PQ2, Long Hurai, Kec. Long Bagun, Kabupaten Kutai Barat, Kalimantan Timur 75779","Long Hurai, Kec. Long Bagun, Kabupaten Kutai Barat",KALIMANTAN TIMUR,75779.0,Indonesia,,,,0.364271,115.429398,https://maps.google.com/?cid=0x0:0xb0f96d30f8443116,
cafe,cafe,Kalimantan Timur 75769,"Mahakam Ulu, Kalimantan Timur","Mahakam Ulu, Kalimantan Timur",KALIMANTAN TIMUR,,Indonesia,,,,1.0352372,114.2390498,https://maps.google.com/?cid=0x0:0xc1c20922ba42e267,
cafe,cafe,Kedai ORLANDO,"Kampung Tiong Bu'u, Long Penaneh III, Long Apari, Mahakam Ulu, Kalimantan Timur 75769","Long Penaneh III, Long Apari, Mahakam Ulu",KALIMANTAN TIMUR,75769.0,Indonesia,81327527980.0,,,0.7766996,114.2721917,https://maps.google.com/?cid=0x0:0x88d42fa7bc95e551,
cafe,cafe,"Ruko, Warung Makan Yohana Putri","QF96+76, Long Pakaq Baru, Long Pahangai, Mahakam Ulu, Kalimantan Timur","Mahakam Ulu, Kalimantan Timur",KALIMANTAN TIMUR,,Indonesia,81348233185.0,,,0.7691064,114.4623926,https://maps.google.com/?cid=0x0:0x3381841550c21d95,
cafe,Kedai Kopi,Tepian Dacoffe,"Gg. Al Ikhlas No.rt 16, Sungai Keledang, Kec. Samarinda Seberang, Kota Samarinda, Kalimantan Timur 75243","Sungai Keledang, Kec. Samarinda Seberang, Kota Samarinda",KALIMANTAN TIMUR,75243.0,Indonesia,,,,-0.5171701,117.1228724,https://maps.google.com/?cid=0x0:0xc7d9f14138f3273,
cafe,cafe,Rumah Yosep Tingang Kueng,"QF84+64V, Delang Kerohong, Long Pahangai, Kutai Barat, Kalimantan Timur","Kutai Barat, Kalimantan Timur",KALIMANTAN TIMUR,,Indonesia,,,,0.7656245,114.4553119,https://maps.google.com/?cid=0x0:0xdb4a5dd3320bf7c6,
cafe,cafe,Kalimantan Timur 75767,"Mahakam Ulu, Kalimantan Timur","Mahakam Ulu, Kalimantan Timur",KALIMANTAN TIMUR,,Indonesia,,,,0.887309,115.3785719,https://maps.google.com/?cid=0x0:0xbeb09fe3cccebd68,
cafe,Kedai Kopi,Coffee Kah,"G66V+XMM, Ujoh Bilang, Kec. Long Bagun, Mahakam Ulu, Kalimantan Timur 75767","Ujoh Bilang, Kec. Long Bagun, Mahakam Ulu",KALIMANTAN TIMUR,75767.0,Indonesia,81331427517.0,,,0.5124644,115.2441787,https://maps.google.com/?cid=0x0:0x3fb896313276c9f4,
cafe,Tujuan Wisata,Mulai.Cerita,"F6CR+8R8, Unnamed Road, Long Melaham, Long Bagun, Mahakam Ulu Regency, East Kalimantan 75767","Unnamed Road, Long Melaham, Long Bagun, Mahakam Ulu Regency",KALIMANTAN TIMUR,75767.0,Indonesia,,,,0.4707844,115.2420689,https://maps.google.com/?cid=0x0:0x4f7447e809d1eccc,
cafe,Kedai Kopi,Ujoh bilang long bagun kabupaten Mahakam ulu,"G6FJ+9FC, Ujoh Bilang, Kec. Long Bagun, Mahakam Ulu, Kalimantan Timur","Mahakam Ulu, Kalimantan Timur",KALIMANTAN TIMUR,,Indonesia,,,,0.523425,115.23114,https://maps.google.com/?cid=0x0:0x3b10807328e25873,
cafe,Kedai Kopi,Coffeevespapora,"G6MG+383, Ujoh Bilang, Kec. Long Bagun, Kabupaten Kutai Barat, Kalimantan Timur","Kabupaten Kutai Barat, Kalimantan Timur",KALIMANTAN TIMUR,,Indonesia,,,,0.5326381,115.2258097,https://maps.google.com/?cid=0x0:0x8d96031e7753daf4,
cafe,Nasi,LESEHAN SHISHA,"G6X5+6CR, Unnamed Road, Long Bagun Ulu, Long Bagun, Mahakam Ulu Regency, East Kalimantan 75767","Unnamed Road, Long Bagun Ulu, Long Bagun, Mahakam Ulu Regency",KALIMANTAN TIMUR,75767.0,Indonesia,82358485559.0,,,0.5481217,115.2085283,https://maps.google.com/?cid=0x0:0x949f746c407322bc,
cafe,Kedai Kopi,ANGKRINGAN ZINTHA,"G6W6+478, Long Bagun Ilir, Kec. Long Bagun, Mahakam Ulu, Kalimantan Timur 75767","Long Bagun Ilir, Kec. Long Bagun, Mahakam Ulu",KALIMANTAN TIMUR,75767.0,Indonesia,81258761778.0,,,0.5446804,115.2101412,https://maps.google.com/?cid=0x0:0x858ef64eea3ac9f6,
cafe,Kedai Kopi,OASIS cafe  grill,"G6CQ+JF, Ujoh Bilang, Kec. Long Bagun, Kabupaten Kutai Barat, Kalimantan Timur","Kabupaten Kutai Barat, Kalimantan Timur",KALIMANTAN TIMUR,,Indonesia,8125542204.0,,,0.5215212,115.2386434,https://maps.google.com/?cid=0x0:0x6010624d2e2ddf17,
cafe,Kedai Kopi,Kedai Bukit Senja Ujoh Bilang,"G6GP+83G, Jl. Cempedak, Ujoh Bilang, Kec. Long Bagun, Mahakam Ulu, Kalimantan Timur","Mahakam Ulu, Kalimantan Timur",KALIMANTAN TIMUR,,Indonesia,81349622188.0,,,0.5258226,115.2351904,https://maps.google.com/?cid=0x0:0xb784d589d5335cf3,
cafe,Restoran,WARUNG BUTET,"G6JG+83P, Unnamed Road, Ujoh Bilang, Kec. Long Bagun, Mahakam Ulu, Kalimantan Timur 75767","Unnamed Road, Ujoh Bilang, Kec. Long Bagun, Mahakam Ulu",KALIMANTAN TIMUR,75767.0,Indonesia,,,,0.5308296,115.2252152,https://maps.google.com/?cid=0x0:0x183d7f6f6747726,
cafe,Kedai Kopi,Cangkrukan,"G6GQ+V6C, Ujoh Bilang, Kec. Long Bagun, Mahakam Ulu, Kalimantan Timur 75767","Ujoh Bilang, Kec. Long Bagun, Mahakam Ulu",KALIMANTAN TIMUR,75767.0,Indonesia,,,,0.5271915,115.2380288,https://maps.google.com/?cid=0x0:0xfcfe57dfa808b6cb,
cafe,Nasi,Rumah makan Wong Solo,"G6X4+4FQ, Unnamed Road, Long Bagun Ulu, Kec. Long Bagun, Mahakam Ulu, Kalimantan Timur 75767","Unnamed Road, Long Bagun Ulu, Kec. Long Bagun, Mahakam Ulu",KALIMANTAN TIMUR,75767.0,Indonesia,,,,0.5478312,115.2062429,https://maps.google.com/?cid=0x0:0xf2b9709b504cb979,
cafe,Hotel,Marissa Hotel  Restaurant,"Ujoh Bilang, Kec. Long Bagun, Kabupaten Kutai Barat, Kalimantan Timur 75767","Kec. Long Bagun, Kabupaten Kutai Barat",KALIMANTAN TIMUR,75767.0,Indonesia,85250024230.0,,,0.5266684,115.2387075,https://maps.google.com/?cid=0x0:0x629eb8dc3bf786e1,
cafe,Makanan Kecil,Warung Acil,"G67R+C68, Ujoh Bilang, Kec. Long Bagun, Mahakam Ulu, Kalimantan Timur","Mahakam Ulu, Kalimantan Timur",KALIMANTAN TIMUR,,Indonesia,,,,0.5140334,115.2404002,https://maps.google.com/?cid=0x0:0x1a3397c4e2e27a0b,
cafe,Kedai Kopi,Warung Manin,"G67V+CM8, Ujoh Bilang, Kec. Long Bagun, Mahakam Ulu, Kalimantan Timur","Mahakam Ulu, Kalimantan Timur",KALIMANTAN TIMUR,,Indonesia,,,,0.5135302,115.2442126,https://maps.google.com/?cid=0x0:0xce7df72fa8d1f8d7,
cafe,Makanan Kecil,Warung makan PHP,"Ujoh bilang RT 007, Ujoh Bilang, Kec. Long Bagun, Mahakam Ulu, Kalimantan Timur 75767","Ujoh Bilang, Kec. Long Bagun, Mahakam Ulu",KALIMANTAN TIMUR,75767.0,Indonesia,,,,0.5245225,115.2401293,https://maps.google.com/?cid=0x0:0xe0e51af1a6664a4,
cafe,Rumah Makan,Rumah,"G6W6+7Q3, Long Bagun Ilir, Kec. Long Bagun, Mahakam Ulu, Kalimantan Timur 75767","Long Bagun Ilir, Kec. Long Bagun, Mahakam Ulu",KALIMANTAN TIMUR,75767.0,Indonesia,,,,0.5456302,115.2119312,https://maps.google.com/?cid=0x0:0x24a63d32d97a66e5,
cafe,Rumah Makan,Warung Sederhana Mbak Sum,"G6GQ+R6V, Unnamed Road, Ujoh Bilang, Kec. Long Bagun, Mahakam Ulu, Kalimantan Timur 75767","Unnamed Road, Ujoh Bilang, Kec. Long Bagun, Mahakam Ulu",KALIMANTAN TIMUR,75767.0,Indonesia,82254962576.0,,,0.5271224,115.2380593,https://maps.google.com/?cid=0x0:0x43993f4a031bd8df,
cafe,Rumah Makan,RM UNI Dan Bofet UNI.masakan Padang,"Ujoh Bilang, Kec. Long Bagun, Mahakam Ulu, Kalimantan Timur 75767","Kec. Long Bagun, Mahakam Ulu",KALIMANTAN TIMUR,75767.0,Indonesia,81349377701.0,,,0.5271851,115.2375842,https://maps.google.com/?cid=0x0:0xe8913b33959f610b,
cafe,Pusat Perbelanjaan,Depo Air Minum Tikah Jaya,"G6HC+9MV, Ujoh Bilang, Kec. Long Bagun, Mahakam Ulu, Kalimantan Timur 75767","Ujoh Bilang, Kec. Long Bagun, Mahakam Ulu",KALIMANTAN TIMUR,75767.0,Indonesia,,,,0.5290723,115.2219537,https://maps.google.com/?cid=0x0:0xb3a3d41ba84a92d,
cafe,Kedai Kopi,Angkringan MEMO,"JL. poros Kampung No.RT.02, Ujoh Bilang, Kec. Long Bagun, Mahakam Ulu, Kalimantan Timur 75767","Ujoh Bilang, Kec. Long Bagun, Mahakam Ulu",KALIMANTAN TIMUR,75767.0,Indonesia,,,,0.5276454,115.2368064,https://maps.google.com/?cid=0x0:0x7ad1ca2b0f51c00a,
cafe,Restoran,Kedai putri mahulu,"G6FR+F7G, Ujoh Bilang, Kec. Long Bagun, Mahakam Ulu, Kalimantan Timur 75767","Ujoh Bilang, Kec. Long Bagun, Mahakam Ulu",KALIMANTAN TIMUR,75767.0,Indonesia,85250701388.0,,,0.5233306,115.2405752,https://maps.google.com/?cid=0x0:0xac24451ab174168b,
cafe,cafe,Kalimantan Timur 75779,"Mahakam Ulu, Kalimantan Timur","Mahakam Ulu, Kalimantan Timur",KALIMANTAN TIMUR,,Indonesia,,,,0.2034371,114.9991464,https://maps.google.com/?cid=0x0:0x91d6ed1ceac71e17,
cafe,Kedai Kopi,Talisayan,"8G4R+8W, Wana Pariq, Kec. Long Hubung, Mahakam Ulu, Kalimantan Timur","Mahakam Ulu, Kalimantan Timur",KALIMANTAN TIMUR,,Indonesia,,,,0.30576,115.5423233,https://maps.google.com/?cid=0x0:0x237a0786b3d1fae7,
cafe,Kedai Kopi,Kedai Dpojok,"Jl.apo medo No.Rt.11, Ujoh Bilang, Kec. Long Bagun, Mahakam Ulu, Kalimantan Timur 75767","Ujoh Bilang, Kec. Long Bagun, Mahakam Ulu",KALIMANTAN TIMUR,75767.0,Indonesia,82253361240.0,,,0.5158202,115.2430433,https://maps.google.com/?cid=0x0:0x2b57e01487054fe7,
cafe,Kedai Kopi,Ujoh bilang long bagun kabupaten Mahakam ulu,"G6FJ+9FC, Ujoh Bilang, Kec. Long Bagun, Mahakam Ulu, Kalimantan Timur","Mahakam Ulu, Kalimantan Timur",KALIMANTAN TIMUR,,Indonesia,,,,0.523425,115.23114,https://maps.google.com/?cid=0x0:0x3b10807328e25873,
cafe,Tujuan Wisata,Mulai.Cerita,"F6CR+8R8, Unnamed Road, Long Melaham, Long Bagun, Mahakam Ulu Regency, East Kalimantan 75767","Unnamed Road, Long Melaham, Long Bagun, Mahakam Ulu Regency",KALIMANTAN TIMUR,75767.0,Indonesia,,,,0.4707844,115.2420689,https://maps.google.com/?cid=0x0:0x4f7447e809d1eccc,
cafe,Restoran,Warung Apung Tepian MAHYUNI,"6FJ6+X3M, Datah Bilang Ulu, Kec. Long Hubung, Kabupaten Kutai Barat, Kalimantan Timur 75766","Datah Bilang Ulu, Kec. Long Hubung, Kabupaten Kutai Barat",KALIMANTAN TIMUR,75766.0,Indonesia,,,,0.2324721,115.4601861,https://maps.google.com/?cid=0x0:0x9a59077ddd4014e9,
cafe,Kedai Kopi,Angkringan WJ,"Jln.Gang Belakang Masjid Ar-rahman, Datah Bilang Ilir, Kalimantan Timur 75770",Datah Bilang Ilir,KALIMANTAN TIMUR,75770.0,Indonesia,,,,0.2271462,115.4635319,https://maps.google.com/?cid=0x0:0xdea220032bf9c6c5,
cafe,cafe,GoNing,"CCX6+W8F, Long Merah, Kec. Long Bagun, Mahakam Ulu, Kalimantan Timur","Mahakam Ulu, Kalimantan Timur",KALIMANTAN TIMUR,,Indonesia,,,,0.44981,115.410797,https://maps.google.com/?cid=0x0:0x7c5f6b093af57a27,
cafe,Kedai Kopi,Warung Manin,"G67V+CM8, Ujoh Bilang, Kec. Long Bagun, Mahakam Ulu, Kalimantan Timur","Mahakam Ulu, Kalimantan Timur",KALIMANTAN TIMUR,,Indonesia,,,,0.5135302,115.2442126,https://maps.google.com/?cid=0x0:0xce7df72fa8d1f8d7,
cafe,Nasi,Dapur Umum RTC,"5G98+HP5, Memahak Teboq, Kec. Long Hubung, Mahakam Ulu, Kalimantan Timur 75766","Memahak Teboq, Kec. Long Hubung, Mahakam Ulu",KALIMANTAN TIMUR,75766.0,Indonesia,,,,0.1694118,115.5172107,https://maps.google.com/?cid=0x0:0x552c8da4260e2ca2,
cafe,Makanan Kecil,Warung makan PHP,"Ujoh bilang RT 007, Ujoh Bilang, Kec. Long Bagun, Mahakam Ulu, Kalimantan Timur 75767","Ujoh Bilang, Kec. Long Bagun, Mahakam Ulu",KALIMANTAN TIMUR,75767.0,Indonesia,,,,0.5245225,115.2401293,https://maps.google.com/?cid=0x0:0xe0e51af1a6664a4,
cafe,Kedai Kopi,OASIS cafe  grill,"G6CQ+JF, Ujoh Bilang, Kec. Long Bagun, Kabupaten Kutai Barat, Kalimantan Timur","Kabupaten Kutai Barat, Kalimantan Timur",KALIMANTAN TIMUR,,Indonesia,8125542204.0,,,0.5215212,115.2386434,https://maps.google.com/?cid=0x0:0x6010624d2e2ddf17,
cafe,cafe,Toko Raisa alya,"F66R+2XJ, Long Melaham, Sebenaq, Mahakam Ulu, Kalimantan Timur 75779","Long Melaham, Sebenaq, Mahakam Ulu",KALIMANTAN TIMUR,75779.0,Indonesia,,,,0.4600888,115.2423964,https://maps.google.com/?cid=0x0:0x81e2a9b53345e782,
cafe,Kedai Kopi,Coffeevespapora,"G6MG+383, Ujoh Bilang, Kec. Long Bagun, Kabupaten Kutai Barat, Kalimantan Timur","Kabupaten Kutai Barat, Kalimantan Timur",KALIMANTAN TIMUR,,Indonesia,,,,0.5326381,115.2258097,https://maps.google.com/?cid=0x0:0x8d96031e7753daf4,
cafe,Indonesia,warung mas edo,"Memahak Teboq, Kec. Long Hubung, Mahakam Ulu, Kalimantan Timur 75766","Kec. Long Hubung, Mahakam Ulu",KALIMANTAN TIMUR,75766.0,Indonesia,,,,0.164617,115.519132,https://maps.google.com/?cid=0x0:0x2ec8c203152e23b7,
cafe,Kedai Kopi,Cangkrukan,"G6GQ+V6C, Ujoh Bilang, Kec. Long Bagun, Mahakam Ulu, Kalimantan Timur 75767","Ujoh Bilang, Kec. Long Bagun, Mahakam Ulu",KALIMANTAN TIMUR,75767.0,Indonesia,,,,0.5271915,115.2380288,https://maps.google.com/?cid=0x0:0xfcfe57dfa808b6cb,
cafe,Makanan Kecil,Warung Acil,"G67R+C68, Ujoh Bilang, Kec. Long Bagun, Mahakam Ulu, Kalimantan Timur","Mahakam Ulu, Kalimantan Timur",KALIMANTAN TIMUR,,Indonesia,,,,0.5140334,115.2404002,https://maps.google.com/?cid=0x0:0x1a3397c4e2e27a0b,
cafe,Sekolah menengah,SMAN 1 LONG HUBUNG,"6FJ2+P68, Datah Bilang Ulu, Kec. Long Hubung, Kabupaten Kutai Barat, Kalimantan Timur 75766","Datah Bilang Ulu, Kec. Long Hubung, Kabupaten Kutai Barat",KALIMANTAN TIMUR,75766.0,Indonesia,,,,0.2317952,115.450564,https://maps.google.com/?cid=0x0:0x57fc93d0a43ae19e,
cafe,Restoran,Kedai putri mahulu,"G6FR+F7G, Ujoh Bilang, Kec. Long Bagun, Mahakam Ulu, Kalimantan Timur 75767","Ujoh Bilang, Kec. Long Bagun, Mahakam Ulu",KALIMANTAN TIMUR,75767.0,Indonesia,85250701388.0,,,0.5233306,115.2405752,https://maps.google.com/?cid=0x0:0xac24451ab174168b,
cafe,Kedai Kopi,Kedai Bukit Senja Ujoh Bilang,"G6GP+83G, Jl. Cempedak, Ujoh Bilang, Kec. Long Bagun, Mahakam Ulu, Kalimantan Timur","Mahakam Ulu, Kalimantan Timur",KALIMANTAN TIMUR,,Indonesia,81349622188.0,,,0.5258226,115.2351904,https://maps.google.com/?cid=0x0:0xb784d589d5335cf3,
cafe,cafe,Kalimantan Timur 75768,"Long Pahangai, Mahakam Ulu, Kalimantan Timur","Mahakam Ulu, Kalimantan Timur",KALIMANTAN TIMUR,,Indonesia,,,,1.0321219,114.6192899,https://maps.google.com/?cid=0x0:0xe12e316d94532820,
cafe,cafe,"Ruko, Warung Makan Yohana Putri","QF96+76, Long Pakaq Baru, Long Pahangai, Mahakam Ulu, Kalimantan Timur","Mahakam Ulu, Kalimantan Timur",KALIMANTAN TIMUR,,Indonesia,81348233185.0,,,0.7691064,114.4623926,https://maps.google.com/?cid=0x0:0x3381841550c21d95,
cafe,Nasi,LESEHAN SHISHA,"G6X5+6CR, Unnamed Road, Long Bagun Ulu, Long Bagun, Mahakam Ulu Regency, East Kalimantan 75767","Unnamed Road, Long Bagun Ulu, Long Bagun, Mahakam Ulu Regency",KALIMANTAN TIMUR,75767.0,Indonesia,82358485559.0,,,0.5481217,115.2085283,https://maps.google.com/?cid=0x0:0x949f746c407322bc,
cafe,Kedai Kopi,Cafe pesona mahakam,"HXXQ+JRH, Jl. AM. Sangaji, Baru, Kec. Tenggarong, Kabupaten Kutai Kartanegara, Kalimantan Timur 75513","Jl. AM. Sangaji, Baru, Kec. Tenggarong, Kabupaten Kutai Kartanegara",KALIMANTAN TIMUR,75513.0,Indonesia,81348502766.0,,,-0.400937,116.9896085,https://maps.google.com/?cid=0x0:0x6a9d82a31d0122b3,
cafe,Tujuan Wisata,Mulai.Cerita,"F6CR+8R8, Unnamed Road, Long Melaham, Long Bagun, Mahakam Ulu Regency, East Kalimantan 75767","Unnamed Road, Long Melaham, Long Bagun, Mahakam Ulu Regency",KALIMANTAN TIMUR,75767.0,Indonesia,,,,0.4707844,115.2420689,https://maps.google.com/?cid=0x0:0x4f7447e809d1eccc,
cafe,cafe,PT. LARIST MITRA LESTARI,"Long Lunuk Baru, Long Pahangai, Kabupaten Kutai Barat, Kalimantan Timur 75768","Long Pahangai, Kabupaten Kutai Barat",KALIMANTAN TIMUR,75768.0,Indonesia,81347671789.0,,,0.745992,114.5123841,https://maps.google.com/?cid=0x0:0xbb77150cd2da80d5,
cafe,cafe,Kantor Brainking,"XH73+9CR, Long Isun, Balikpapan, Kota Balikpapan, Kalimantan Timur","Kota Balikpapan, Kalimantan Timur",KALIMANTAN TIMUR,,Indonesia,,,,0.9634829,114.5535053,https://maps.google.com/?cid=0x0:0x31e0dddad79e543e,
cafe,cafe,Rumah Yosep Tingang Kueng,"QF84+64V, Delang Kerohong, Long Pahangai, Kutai Barat, Kalimantan Timur","Kutai Barat, Kalimantan Timur",KALIMANTAN TIMUR,,Indonesia,,,,0.7656245,114.4553119,https://maps.google.com/?cid=0x0:0xdb4a5dd3320bf7c6,
cafe,cafe,Warung Makan Tiga Saudara,"VXXM+MR4, Unnamed Road, Long Tuyoq, Long Pahangai, Mahakam Ulu, Kalimantan Timur 75768","Unnamed Road, Long Tuyoq, Long Pahangai, Mahakam Ulu",KALIMANTAN TIMUR,75768.0,Indonesia,,,,0.8991485,114.9845714,https://maps.google.com/?cid=0x0:0x50f7cadc1f84fce9,
cafe,cafe,warkop temu kadang,"XGVM+WCX, Jl. Fattahillah Tengah, Long Isun, Kabupaten Nunukan, Kalimantan Utara","Kabupaten Nunukan, Kalimantan Utara",KALIMANTAN TIMUR,,Indonesia,82139211650.0,,,0.9948658,114.5335966,https://maps.google.com/?cid=0x0:0x3cb682da817d6dd9,
cafe,cafe,Warung Makan Fadhil,"XH63+QW5, Long Isun, Long Pahangai, Kabupaten Kutai Barat, Kalimantan Timur 75768","Long Isun, Long Pahangai, Kabupaten Kutai Barat",KALIMANTAN TIMUR,75768.0,Indonesia,,,,0.9618834,114.5548495,https://maps.google.com/?cid=0x0:0x4403e56efd5944cc,
