Category,Real Category,Business Name,Address,City,State,Postal Code,Country,Phone,Email,Website,Latitude,Longitude,Map Link,Details Link
hotel,hotel,Kalimantan Tengah 73862,Kalimantan Tengah,Kalimantan Tengah,KALIMANTAN TENGAH,,Indonesia,,,,-1.3062588,115.188916,https://maps.google.com/?cid=0x0:0x13b0d131c6a71cf5,
hotel,hotel,Hayak Tamara Syariah Hotel,"Jl. Ahmad Yani No.7B, Melayu, Kec. Teweh Tengah, Kabupaten Barito Utara, Kalimantan Tengah 73811","Melayu, Kec. Teweh Tengah, Kabupaten Barito Utara",KALIMANTAN TENGAH,73811.0,Indonesia,811136371.0,,,-0.9485481,114.9001119,https://maps.google.com/?cid=0x0:0xbf6b813b7367e025,
hotel,hotel,JnB Hotel Muara Teweh,"Jl. Pramuka No.3, Lanjas, Kec. Teweh Tengah, Kabupaten Barito Utara, Kalimantan Tengah 73814","Lanjas, Kec. Teweh Tengah, Kabupaten Barito Utara",KALIMANTAN TENGAH,73814.0,Indonesia,51922791.0,,,-0.946905,114.8972119,https://maps.google.com/?cid=0x0:0xa5e909397841ffbf,
hotel,hotel,Hotel Matahari,"JL. Tumenggung Surapati, Melayu, Teweh Tengah, 73811, Melayu, Kec. Teweh Tengah, Kabupaten Barito Utara, Kalimantan Tengah 73814","Melayu, Teweh Tengah,",KALIMANTAN TENGAH,73811.0,Indonesia,51921103.0,,,-0.9589617,114.9005487,https://maps.google.com/?cid=0x0:0x72c3250b8b65e416,
hotel,hotel,Hotel Gita,"9H48+P99, Beriwit, Kec. Murung, Kabupaten Murung Raya, Kalimantan Tengah 73911","Beriwit, Kec. Murung, Kabupaten Murung Raya",KALIMANTAN TENGAH,73911.0,Indonesia,,,,-0.6432245,114.5659853,https://maps.google.com/?cid=0x0:0x6aa1d3ff79a2e133,
hotel,hotel,Gn. Purei,"Kabupaten Barito Utara, Kalimantan Tengah","Kabupaten Barito Utara, Kalimantan Tengah",KALIMANTAN TENGAH,,Indonesia,,,,-1.197196,115.6154732,https://maps.google.com/?cid=0x0:0x69c079e04d4ca140,
hotel,hotel,Kalimantan Tengah 73871,"Kabupaten Barito Utara, Kalimantan Tengah","Kabupaten Barito Utara, Kalimantan Tengah",KALIMANTAN TENGAH,,Indonesia,,,,-1.197196,115.6154732,https://maps.google.com/?cid=0x0:0x6d60d15ecdbf488b,
hotel,hotel,Losmen Karunia,"P8HQ+WQR, Pegatan Hilir, Kec. Katingan Kuala, Kabupaten Katingan, Kalimantan Tengah 74463","Pegatan Hilir, Kec. Katingan Kuala, Kabupaten Katingan",KALIMANTAN TENGAH,74463.0,Indonesia,,,,-3.2701382,113.3393974,https://maps.google.com/?cid=0x0:0xce3d4ec99c2b7e05,
hotel,Hotel,Penginapan Nusantara I,"2VPQ+P27, Jl. Yetro Sinseng, Lanjas, Kec. Teweh Tengah, Kabupaten Barito Utara, Kalimantan Tengah 73814","Jl. Yetro Sinseng, Lanjas, Kec. Teweh Tengah, Kabupaten Barito Utara",KALIMANTAN TENGAH,73814.0,Indonesia,,,,-0.9632141,114.8875409,https://maps.google.com/?cid=0x0:0x195504e8e0d192a5,
hotel,hotel,Kalimantan Tengah 73852,"Kec. Lahei, Kabupaten Barito Utara, Kalimantan Tengah","Kabupaten Barito Utara, Kalimantan Tengah",KALIMANTAN TENGAH,,Indonesia,,,,-0.6129045,115.188916,https://maps.google.com/?cid=0x0:0xf279ed86a55323d0,
hotel,hotel,Hayak Tamara Syariah Hotel,"Jl. Ahmad Yani No.7B, Melayu, Kec. Teweh Tengah, Kabupaten Barito Utara, Kalimantan Tengah 73811","Melayu, Kec. Teweh Tengah, Kabupaten Barito Utara",KALIMANTAN TENGAH,73811.0,Indonesia,811136371.0,,,-0.9485481,114.9001119,https://maps.google.com/?cid=0x0:0xbf6b813b7367e025,
hotel,hotel,Hotel Matahari,"JL. Tumenggung Surapati, Melayu, Teweh Tengah, 73811, Melayu, Kec. Teweh Tengah, Kabupaten Barito Utara, Kalimantan Tengah 73814","Melayu, Teweh Tengah,",KALIMANTAN TENGAH,73811.0,Indonesia,51921103.0,,,-0.9589617,114.9005487,https://maps.google.com/?cid=0x0:0x72c3250b8b65e416,
hotel,hotel,JnB Hotel Muara Teweh,"Jl. Pramuka No.3, Lanjas, Kec. Teweh Tengah, Kabupaten Barito Utara, Kalimantan Tengah 73814","Lanjas, Kec. Teweh Tengah, Kabupaten Barito Utara",KALIMANTAN TENGAH,73814.0,Indonesia,51922791.0,,,-0.946905,114.8972119,https://maps.google.com/?cid=0x0:0xa5e909397841ffbf,
hotel,hotel,Kec. Lahei Barat,"Kabupaten Barito Utara, Kalimantan Tengah","Kabupaten Barito Utara, Kalimantan Tengah",KALIMANTAN TENGAH,,Indonesia,,,,-0.7935062,114.9382498,https://maps.google.com/?cid=0x0:0x5adc4924308bea72,
hotel,hotel,Hayak Tamara Syariah Hotel,"Jl. Ahmad Yani No.7B, Melayu, Kec. Teweh Tengah, Kabupaten Barito Utara, Kalimantan Tengah 73811","Melayu, Kec. Teweh Tengah, Kabupaten Barito Utara",KALIMANTAN TENGAH,73811.0,Indonesia,811136371.0,,,-0.9485481,114.9001119,https://maps.google.com/?cid=0x0:0xbf6b813b7367e025,
hotel,hotel,JnB Hotel Muara Teweh,"Jl. Pramuka No.3, Lanjas, Kec. Teweh Tengah, Kabupaten Barito Utara, Kalimantan Tengah 73814","Lanjas, Kec. Teweh Tengah, Kabupaten Barito Utara",KALIMANTAN TENGAH,73814.0,Indonesia,51922791.0,,,-0.946905,114.8972119,https://maps.google.com/?cid=0x0:0xa5e909397841ffbf,
hotel,hotel,HOTEL PUTRI PURUK CAHU,"Beriwit, Kec. Murung, Kabupaten Murung Raya, Kalimantan Tengah 73911","Kec. Murung, Kabupaten Murung Raya",KALIMANTAN TENGAH,73911.0,Indonesia,82148307222.0,,,-0.6448163,114.5647459,https://maps.google.com/?cid=0x0:0x5b6afb3a52ddaaa,
hotel,hotel,Hotel Matahari,"JL. Tumenggung Surapati, Melayu, Teweh Tengah, 73811, Melayu, Kec. Teweh Tengah, Kabupaten Barito Utara, Kalimantan Tengah 73814","Melayu, Teweh Tengah,",KALIMANTAN TENGAH,73811.0,Indonesia,51921103.0,,,-0.9589617,114.9005487,https://maps.google.com/?cid=0x0:0x72c3250b8b65e416,
hotel,hotel,Hotel Gita,"9H48+P99, Beriwit, Kec. Murung, Kabupaten Murung Raya, Kalimantan Tengah 73911","Beriwit, Kec. Murung, Kabupaten Murung Raya",KALIMANTAN TENGAH,73911.0,Indonesia,,,,-0.6432245,114.5659853,https://maps.google.com/?cid=0x0:0x6aa1d3ff79a2e133,
hotel,hotel,Kec. Montallat,"Kabupaten Barito Utara, Kalimantan Tengah","Kabupaten Barito Utara, Kalimantan Tengah",KALIMANTAN TENGAH,,Indonesia,,,,-1.3271553,114.8390377,https://maps.google.com/?cid=0x0:0xaee00abe123121b3,
hotel,Hotel,PENGINAPAN BARKAH,"MRGC+RFP, Jl. Raya Lintas Kota, Tumpung Laung II, Kec. Montallat, Kabupaten Barito Utara, Kalimantan Tengah 73861","Jl. Raya Lintas Kota, Tumpung Laung II, Kec. Montallat, Kabupaten Barito Utara",KALIMANTAN TENGAH,73861.0,Indonesia,,,,-1.322905,114.8212002,https://maps.google.com/?cid=0x0:0x6a5f737c109f4256,
hotel,Penginapan,Kost elit,"QQQW+M86, Paring Lahung, Kec. Montallat, Kabupaten Barito Utara, Kalimantan Tengah 73861","Paring Lahung, Kec. Montallat, Kabupaten Barito Utara",KALIMANTAN TENGAH,73861.0,Indonesia,81385661719.0,,,-1.2108448,114.7957567,https://maps.google.com/?cid=0x0:0x9ca0ea9e70c5d25f,
hotel,hotel,Hotel Walet,"Jl. Tumenggung Surapati No.RT. 12A, Melayu, Kec. Teweh Tengah, Kabupaten Barito Utara, Kalimantan Tengah 73814","Melayu, Kec. Teweh Tengah, Kabupaten Barito Utara",KALIMANTAN TENGAH,73814.0,Indonesia,,,,-0.9589699,114.9003342,https://maps.google.com/?cid=0x0:0xfa44d12c1bf92675,
hotel,hotel,Hotel Matahari,"JL. Tumenggung Surapati, Melayu, Teweh Tengah, 73811, Melayu, Kec. Teweh Tengah, Kabupaten Barito Utara, Kalimantan Tengah 73814","Melayu, Teweh Tengah,",KALIMANTAN TENGAH,73811.0,Indonesia,51921103.0,,,-0.9589617,114.9005487,https://maps.google.com/?cid=0x0:0x72c3250b8b65e416,
hotel,Jembatan,"Jembatan K.H. Hasan Basri, Muara Teweh","2VMM+WVP, Jl. Yetro Sinseng, Lanjas, Kec. Teweh Tengah, Kabupaten Barito Utara, Kalimantan Tengah 73814","Jl. Yetro Sinseng, Lanjas, Kec. Teweh Tengah, Kabupaten Barito Utara",KALIMANTAN TENGAH,73814.0,Indonesia,82238919589.0,,,-0.9651577,114.8847101,https://maps.google.com/?cid=0x0:0xc4fa236c70549865,
hotel,hotel,Kalimantan Tengah 73813,"Jambu, Kec. Teweh Baru, Kabupaten Barito Utara, Kalimantan Tengah","Kabupaten Barito Utara, Kalimantan Tengah",KALIMANTAN TENGAH,,Indonesia,,,,-0.8856163,115.0169419,https://maps.google.com/?cid=0x0:0x20b84a66bae62c5e,
hotel,hotel,Hayak Tamara Syariah Hotel,"Jl. Ahmad Yani No.7B, Melayu, Kec. Teweh Tengah, Kabupaten Barito Utara, Kalimantan Tengah 73811","Melayu, Kec. Teweh Tengah, Kabupaten Barito Utara",KALIMANTAN TENGAH,73811.0,Indonesia,811136371.0,,,-0.9485481,114.9001119,https://maps.google.com/?cid=0x0:0xbf6b813b7367e025,
hotel,hotel,JnB Hotel Muara Teweh,"Jl. Pramuka No.3, Lanjas, Kec. Teweh Tengah, Kabupaten Barito Utara, Kalimantan Tengah 73814","Lanjas, Kec. Teweh Tengah, Kabupaten Barito Utara",KALIMANTAN TENGAH,73814.0,Indonesia,51922791.0,,,-0.946905,114.8972119,https://maps.google.com/?cid=0x0:0xa5e909397841ffbf,
hotel,hotel,Hotel Matahari,"JL. Tumenggung Surapati, Melayu, Teweh Tengah, 73811, Melayu, Kec. Teweh Tengah, Kabupaten Barito Utara, Kalimantan Tengah 73814","Melayu, Teweh Tengah,",KALIMANTAN TENGAH,73811.0,Indonesia,51921103.0,,,-0.9589617,114.9005487,https://maps.google.com/?cid=0x0:0x72c3250b8b65e416,
hotel,hotel,Hotel Gita,"9H48+P99, Beriwit, Kec. Murung, Kabupaten Murung Raya, Kalimantan Tengah 73911","Beriwit, Kec. Murung, Kabupaten Murung Raya",KALIMANTAN TENGAH,73911.0,Indonesia,,,,-0.6432245,114.5659853,https://maps.google.com/?cid=0x0:0x6aa1d3ff79a2e133,
hotel,hotel,Kalimantan Tengah 73814,"Kabupaten Barito Utara, Kalimantan Tengah","Kabupaten Barito Utara, Kalimantan Tengah",KALIMANTAN TENGAH,,Indonesia,,,,-0.8914468,114.8092691,https://maps.google.com/?cid=0x0:0xb5548f39346751af,
hotel,hotel,Hayak Tamara Syariah Hotel,"Jl. Ahmad Yani No.7B, Melayu, Kec. Teweh Tengah, Kabupaten Barito Utara, Kalimantan Tengah 73811","Melayu, Kec. Teweh Tengah, Kabupaten Barito Utara",KALIMANTAN TENGAH,73811.0,Indonesia,811136371.0,,,-0.9485481,114.9001119,https://maps.google.com/?cid=0x0:0xbf6b813b7367e025,
hotel,hotel,JnB Hotel Muara Teweh,"Jl. Pramuka No.3, Lanjas, Kec. Teweh Tengah, Kabupaten Barito Utara, Kalimantan Tengah 73814","Lanjas, Kec. Teweh Tengah, Kabupaten Barito Utara",KALIMANTAN TENGAH,73814.0,Indonesia,51922791.0,,,-0.946905,114.8972119,https://maps.google.com/?cid=0x0:0xa5e909397841ffbf,
hotel,hotel,Hotel Matahari,"JL. Tumenggung Surapati, Melayu, Teweh Tengah, 73811, Melayu, Kec. Teweh Tengah, Kabupaten Barito Utara, Kalimantan Tengah 73814","Melayu, Teweh Tengah,",KALIMANTAN TENGAH,73811.0,Indonesia,51921103.0,,,-0.9589617,114.9005487,https://maps.google.com/?cid=0x0:0x72c3250b8b65e416,
hotel,hotel,Hotel Gita,"9H48+P99, Beriwit, Kec. Murung, Kabupaten Murung Raya, Kalimantan Tengah 73911","Beriwit, Kec. Murung, Kabupaten Murung Raya",KALIMANTAN TENGAH,73911.0,Indonesia,,,,-0.6432245,114.5659853,https://maps.google.com/?cid=0x0:0x6aa1d3ff79a2e133,
hotel,hotel,Kalimantan Tengah 73881,"Kabupaten Barito Utara, Kalimantan Tengah","Kabupaten Barito Utara, Kalimantan Tengah",KALIMANTAN TENGAH,,Indonesia,,,,-1.0257651,115.3785719,https://maps.google.com/?cid=0x0:0x8bd4f30ba12eadec,
hotel,hotel,JnB Hotel Muara Teweh,"Jl. Pramuka No.3, Lanjas, Kec. Teweh Tengah, Kabupaten Barito Utara, Kalimantan Tengah 73814","Lanjas, Kec. Teweh Tengah, Kabupaten Barito Utara",KALIMANTAN TENGAH,73814.0,Indonesia,51922791.0,,,-0.946905,114.8972119,https://maps.google.com/?cid=0x0:0xa5e909397841ffbf,
hotel,hotel,Hotel Walet,"Jl. Tumenggung Surapati No.RT. 12A, Melayu, Kec. Teweh Tengah, Kabupaten Barito Utara, Kalimantan Tengah 73814","Melayu, Kec. Teweh Tengah, Kabupaten Barito Utara",KALIMANTAN TENGAH,73814.0,Indonesia,,,,-0.9589699,114.9003342,https://maps.google.com/?cid=0x0:0xfa44d12c1bf92675,
hotel,hotel,Hotel Gita,"9H48+P99, Beriwit, Kec. Murung, Kabupaten Murung Raya, Kalimantan Tengah 73911","Beriwit, Kec. Murung, Kabupaten Murung Raya",KALIMANTAN TENGAH,73911.0,Indonesia,,,,-0.6432245,114.5659853,https://maps.google.com/?cid=0x0:0x6aa1d3ff79a2e133,
hotel,hotel,Hayak Tamara Syariah Hotel,"Jl. Ahmad Yani No.7B, Melayu, Kec. Teweh Tengah, Kabupaten Barito Utara, Kalimantan Tengah 73811","Melayu, Kec. Teweh Tengah, Kabupaten Barito Utara",KALIMANTAN TENGAH,73811.0,Indonesia,811136371.0,,,-0.9485481,114.9001119,https://maps.google.com/?cid=0x0:0xbf6b813b7367e025,
hotel,hotel,Kec. Tewen Selatan,"Kabupaten Barito Utara, Kalimantan Tengah","Kabupaten Barito Utara, Kalimantan Tengah",KALIMANTAN TENGAH,,Indonesia,,,,-1.0409446,114.8984173,https://maps.google.com/?cid=0x0:0x9c139c9a4035a708,
hotel,hotel,Hayak Tamara Syariah Hotel,"Jl. Ahmad Yani No.7B, Melayu, Kec. Teweh Tengah, Kabupaten Barito Utara, Kalimantan Tengah 73811","Melayu, Kec. Teweh Tengah, Kabupaten Barito Utara",KALIMANTAN TENGAH,73811.0,Indonesia,811136371.0,,,-0.9485481,114.9001119,https://maps.google.com/?cid=0x0:0xbf6b813b7367e025,
hotel,hotel,JnB Hotel Muara Teweh,"Jl. Pramuka No.3, Lanjas, Kec. Teweh Tengah, Kabupaten Barito Utara, Kalimantan Tengah 73814","Lanjas, Kec. Teweh Tengah, Kabupaten Barito Utara",KALIMANTAN TENGAH,73814.0,Indonesia,51922791.0,,,-0.946905,114.8972119,https://maps.google.com/?cid=0x0:0xa5e909397841ffbf,
hotel,hotel,Hotel Matahari,"JL. Tumenggung Surapati, Melayu, Teweh Tengah, 73811, Melayu, Kec. Teweh Tengah, Kabupaten Barito Utara, Kalimantan Tengah 73814","Melayu, Teweh Tengah,",KALIMANTAN TENGAH,73811.0,Indonesia,51921103.0,,,-0.9589617,114.9005487,https://maps.google.com/?cid=0x0:0x72c3250b8b65e416,
hotel,hotel,Hotel Gita,"9H48+P99, Beriwit, Kec. Murung, Kabupaten Murung Raya, Kalimantan Tengah 73911","Beriwit, Kec. Murung, Kabupaten Murung Raya",KALIMANTAN TENGAH,73911.0,Indonesia,,,,-0.6432245,114.5659853,https://maps.google.com/?cid=0x0:0x6aa1d3ff79a2e133,
hotel,hotel,Kalimantan Tengah 73811,"Juju Baru, Kec. Lahei, Kabupaten Barito Utara, Kalimantan Tengah","Kabupaten Barito Utara, Kalimantan Tengah",KALIMANTAN TENGAH,,Indonesia,,,,-0.8295559,114.9872821,https://maps.google.com/?cid=0x0:0x483ad48a5b01a50d,
hotel,hotel,Hayak Tamara Syariah Hotel,"Jl. Ahmad Yani No.7B, Melayu, Kec. Teweh Tengah, Kabupaten Barito Utara, Kalimantan Tengah 73811","Melayu, Kec. Teweh Tengah, Kabupaten Barito Utara",KALIMANTAN TENGAH,73811.0,Indonesia,811136371.0,,,-0.9485481,114.9001119,https://maps.google.com/?cid=0x0:0xbf6b813b7367e025,
hotel,hotel,JnB Hotel Muara Teweh,"Jl. Pramuka No.3, Lanjas, Kec. Teweh Tengah, Kabupaten Barito Utara, Kalimantan Tengah 73814","Lanjas, Kec. Teweh Tengah, Kabupaten Barito Utara",KALIMANTAN TENGAH,73814.0,Indonesia,51922791.0,,,-0.946905,114.8972119,https://maps.google.com/?cid=0x0:0xa5e909397841ffbf,
hotel,hotel,Hotel Matahari,"JL. Tumenggung Surapati, Melayu, Teweh Tengah, 73811, Melayu, Kec. Teweh Tengah, Kabupaten Barito Utara, Kalimantan Tengah 73814","Melayu, Teweh Tengah,",KALIMANTAN TENGAH,73811.0,Indonesia,51921103.0,,,-0.9589617,114.9005487,https://maps.google.com/?cid=0x0:0x72c3250b8b65e416,
hotel,hotel,Hotel Gita,"9H48+P99, Beriwit, Kec. Murung, Kabupaten Murung Raya, Kalimantan Tengah 73911","Beriwit, Kec. Murung, Kabupaten Murung Raya",KALIMANTAN TENGAH,73911.0,Indonesia,,,,-0.6432245,114.5659853,https://maps.google.com/?cid=0x0:0x6aa1d3ff79a2e133,
hotel,hotel,HOTEL PUTRI PURUK CAHU,"Beriwit, Kec. Murung, Kabupaten Murung Raya, Kalimantan Tengah 73911","Kec. Murung, Kabupaten Murung Raya",KALIMANTAN TENGAH,73911.0,Indonesia,82148307222.0,,,-0.6448163,114.5647459,https://maps.google.com/?cid=0x0:0x5b6afb3a52ddaaa,
hotel,hotel,Kalimantan Tengah 73812,"Kabupaten Barito Utara, Kalimantan Tengah","Kabupaten Barito Utara, Kalimantan Tengah",KALIMANTAN TENGAH,,Indonesia,,,,-0.8255092,114.945754,https://maps.google.com/?cid=0x0:0xaf5eb4cc7e2c2286,
hotel,hotel,Hayak Tamara Syariah Hotel,"Jl. Ahmad Yani No.7B, Melayu, Kec. Teweh Tengah, Kabupaten Barito Utara, Kalimantan Tengah 73811","Melayu, Kec. Teweh Tengah, Kabupaten Barito Utara",KALIMANTAN TENGAH,73811.0,Indonesia,811136371.0,,,-0.9485481,114.9001119,https://maps.google.com/?cid=0x0:0xbf6b813b7367e025,
hotel,hotel,JnB Hotel Muara Teweh,"Jl. Pramuka No.3, Lanjas, Kec. Teweh Tengah, Kabupaten Barito Utara, Kalimantan Tengah 73814","Lanjas, Kec. Teweh Tengah, Kabupaten Barito Utara",KALIMANTAN TENGAH,73814.0,Indonesia,51922791.0,,,-0.946905,114.8972119,https://maps.google.com/?cid=0x0:0xa5e909397841ffbf,
hotel,hotel,Hotel Matahari,"JL. Tumenggung Surapati, Melayu, Teweh Tengah, 73811, Melayu, Kec. Teweh Tengah, Kabupaten Barito Utara, Kalimantan Tengah 73814","Melayu, Teweh Tengah,",KALIMANTAN TENGAH,73811.0,Indonesia,51921103.0,,,-0.9589617,114.9005487,https://maps.google.com/?cid=0x0:0x72c3250b8b65e416,
hotel,hotel,Kalimantan Tengah 73814,"Kabupaten Barito Utara, Kalimantan Tengah","Kabupaten Barito Utara, Kalimantan Tengah",KALIMANTAN TENGAH,,Indonesia,,,,-0.8914468,114.8092691,https://maps.google.com/?cid=0x0:0xb5548f39346751af,
hotel,hotel,Hayak Tamara Syariah Hotel,"Jl. Ahmad Yani No.7B, Melayu, Kec. Teweh Tengah, Kabupaten Barito Utara, Kalimantan Tengah 73811","Melayu, Kec. Teweh Tengah, Kabupaten Barito Utara",KALIMANTAN TENGAH,73811.0,Indonesia,811136371.0,,,-0.9485481,114.9001119,https://maps.google.com/?cid=0x0:0xbf6b813b7367e025,
hotel,hotel,JnB Hotel Muara Teweh,"Jl. Pramuka No.3, Lanjas, Kec. Teweh Tengah, Kabupaten Barito Utara, Kalimantan Tengah 73814","Lanjas, Kec. Teweh Tengah, Kabupaten Barito Utara",KALIMANTAN TENGAH,73814.0,Indonesia,51922791.0,,,-0.946905,114.8972119,https://maps.google.com/?cid=0x0:0xa5e909397841ffbf,
hotel,hotel,Hotel Matahari,"JL. Tumenggung Surapati, Melayu, Teweh Tengah, 73811, Melayu, Kec. Teweh Tengah, Kabupaten Barito Utara, Kalimantan Tengah 73814","Melayu, Teweh Tengah,",KALIMANTAN TENGAH,73811.0,Indonesia,51921103.0,,,-0.9589617,114.9005487,https://maps.google.com/?cid=0x0:0x72c3250b8b65e416,
hotel,hotel,HOTEL PUTRI PURUK CAHU,"Beriwit, Kec. Murung, Kabupaten Murung Raya, Kalimantan Tengah 73911","Kec. Murung, Kabupaten Murung Raya",KALIMANTAN TENGAH,73911.0,Indonesia,82148307222.0,,,-0.6448163,114.5647459,https://maps.google.com/?cid=0x0:0x5b6afb3a52ddaaa,
hotel,hotel,Hotel Gita,"9H48+P99, Beriwit, Kec. Murung, Kabupaten Murung Raya, Kalimantan Tengah 73911","Beriwit, Kec. Murung, Kabupaten Murung Raya",KALIMANTAN TENGAH,73911.0,Indonesia,,,,-0.6432245,114.5659853,https://maps.google.com/?cid=0x0:0x6aa1d3ff79a2e133,
hotel,Losmen,Penginapan andung kencana,"Jl. Panglima Batur No.77, Melayu, Kec. Teweh Tengah, Kabupaten Barito Utara, Kalimantan Tengah 73814","Melayu, Kec. Teweh Tengah, Kabupaten Barito Utara",KALIMANTAN TENGAH,73814.0,Indonesia,,,,-0.9601216,114.9054541,https://maps.google.com/?cid=0x0:0x86644c92e7af8629,
hotel,Hostel,Penginapan Barito,"Jl. Panglima Batur No.43, Melayu, Kec. Teweh Tengah, Kabupaten Barito Utara, Kalimantan Tengah 73811","Melayu, Kec. Teweh Tengah, Kabupaten Barito Utara",KALIMANTAN TENGAH,73811.0,Indonesia,82189295495.0,,,-0.9610592,114.9033008,https://maps.google.com/?cid=0x0:0xdcaf8dbebf27a08,
hotel,hotel,Kalimantan Tengah 73881,"Kabupaten Barito Utara, Kalimantan Tengah","Kabupaten Barito Utara, Kalimantan Tengah",KALIMANTAN TENGAH,,Indonesia,,,,-1.0257651,115.3785719,https://maps.google.com/?cid=0x0:0x8bd4f30ba12eadec,
hotel,hotel,Hotel Walet,"Jl. Tumenggung Surapati No.RT. 12A, Melayu, Kec. Teweh Tengah, Kabupaten Barito Utara, Kalimantan Tengah 73814","Melayu, Kec. Teweh Tengah, Kabupaten Barito Utara",KALIMANTAN TENGAH,73814.0,Indonesia,,,,-0.9589699,114.9003342,https://maps.google.com/?cid=0x0:0xfa44d12c1bf92675,
hotel,hotel,Hotel Matahari,"JL. Tumenggung Surapati, Melayu, Teweh Tengah, 73811, Melayu, Kec. Teweh Tengah, Kabupaten Barito Utara, Kalimantan Tengah 73814","Melayu, Teweh Tengah,",KALIMANTAN TENGAH,73811.0,Indonesia,51921103.0,,,-0.9589617,114.9005487,https://maps.google.com/?cid=0x0:0x72c3250b8b65e416,
hotel,hotel,Hotel Gita,"9H48+P99, Beriwit, Kec. Murung, Kabupaten Murung Raya, Kalimantan Tengah 73911","Beriwit, Kec. Murung, Kabupaten Murung Raya",KALIMANTAN TENGAH,73911.0,Indonesia,,,,-0.6432245,114.5659853,https://maps.google.com/?cid=0x0:0x6aa1d3ff79a2e133,
restaurant,restaurant,Kalimantan Tengah 73862,Kalimantan Tengah,Kalimantan Tengah,KALIMANTAN TENGAH,,Indonesia,,,,-1.3062588,115.188916,https://maps.google.com/?cid=0x0:0x13b0d131c6a71cf5,
restaurant,Restoran,Pondok Dahar Barokah,"Unnamed Road, Kandui, Kec. Gn. Timang, Kabupaten Barito Utara, Kalimantan Tengah 73862","Kandui, Kec. Gn. Timang, Kabupaten Barito Utara",KALIMANTAN TENGAH,73862.0,Indonesia,81229968422.0,,,-1.2473298,115.1129993,https://maps.google.com/?cid=0x0:0x233b245d081600c6,
restaurant,Padang,Warung Padang,"P4RC+QR9, Kandui, Kec. Gn. Timang, Kabupaten Barito Utara, Kalimantan Tengah 73862","Kandui, Kec. Gn. Timang, Kabupaten Barito Utara",KALIMANTAN TENGAH,73862.0,Indonesia,,,,-1.2580933,115.1221132,https://maps.google.com/?cid=0x0:0x84e196b80461be49,
restaurant,Restoran,R.m PANJANG KANDANGAN Ds.KANDUI,"Q3VW+5WR, Unnamed Road, Majangkan, Kec. Gn. Timang, Kabupaten Barito Utara, Kalimantan Tengah 73862","Unnamed Road, Majangkan, Kec. Gn. Timang, Kabupaten Barito Utara",KALIMANTAN TENGAH,73862.0,Indonesia,,,,-1.2070181,115.0972554,https://maps.google.com/?cid=0x0:0x294c5205fa0d0529,
restaurant,Indonesia,Warung Makan Sunda UMI ASLAJA,"P4V8+VW3, Kandui, Kec. Gn. Timang, Kabupaten Barito Utara, Kalimantan Tengah 73862","Kandui, Kec. Gn. Timang, Kabupaten Barito Utara",KALIMANTAN TENGAH,73862.0,Indonesia,82252797782.0,,,-1.2553507,115.1173019,https://maps.google.com/?cid=0x0:0xfd64bf7fa394580e,
restaurant,Pasar,Simpang Pasar Kandui,"P4RC+VHV, Kandui, Kec. Gn. Timang, Kabupaten Barito Utara, Kalimantan Tengah 73862","Kandui, Kec. Gn. Timang, Kabupaten Barito Utara",KALIMANTAN TENGAH,73862.0,Indonesia,85389801090.0,,,-1.257766,115.1214238,https://maps.google.com/?cid=0x0:0x86cb4e535b875c91,
restaurant,Tempat Budi Daya Makanan Laut,WARUNG LAMONGAN DO'A IBU,"P4RC+VRJ, Jl. Ahmad Yani, Kandui, Kec. Gn. Timang, Kabupaten Barito Utara, Kalimantan Tengah 73862","Jl. Ahmad Yani, Kandui, Kec. Gn. Timang, Kabupaten Barito Utara",KALIMANTAN TENGAH,73862.0,Indonesia,,,,-1.2578149,115.1220135,https://maps.google.com/?cid=0x0:0x984283cec2f8a4ef,
restaurant,Restoran,Mie Ayam Mekar Sari,"P4QC+9Q7, Kandui, Kec. Gn. Timang, Kabupaten Barito Utara, Kalimantan Tengah 73862","Kandui, Kec. Gn. Timang, Kabupaten Barito Utara",KALIMANTAN TENGAH,73862.0,Indonesia,,,,-1.2615814,115.1219084,https://maps.google.com/?cid=0x0:0x232107ed866a4f60,
restaurant,Kafe,"Warung Kekinian Fi, Two","W3FM+GQ9, Jl. Lintas Kalimantan Poros Tengah, Sikui, Kec. Teweh Tengah, Kabupaten Barito Utara, Kalimantan Tengah 73814","Jl. Lintas Kalimantan Poros Tengah, Sikui, Kec. Teweh Tengah, Kabupaten Barito Utara",KALIMANTAN TENGAH,73814.0,Indonesia,,,,-1.0762007,115.0844714,https://maps.google.com/?cid=0x0:0xb9036279658cefd,
restaurant,Restoran,Nasi Goreng Butterfly,"P4V9+3WG, Kandui, Kec. Gn. Timang, Kabupaten Barito Utara, Kalimantan Tengah 73862","Kandui, Kec. Gn. Timang, Kabupaten Barito Utara",KALIMANTAN TENGAH,73862.0,Indonesia,81349003042.0,,,-1.2573239,115.1198431,https://maps.google.com/?cid=0x0:0xabe24e90df56eaaf,
restaurant,Bakso,Warung Makan Halimah,"02, ds. sikui km 27/34 no RT.08 rt, Sikui, Teweh Tengah, Kabupaten Barito Utara, Kalimantan Tengah 73814","ds. sikui km 27/34 no RT.08 rt, Sikui, Teweh Tengah, Kabupaten Barito Utara",KALIMANTAN TENGAH,73814.0,Indonesia,82157077554.0,,,-1.0777929,115.085569,https://maps.google.com/?cid=0x0:0x996047380645a889,
restaurant,Rumah Makan,RUMAH MAKAN MAMA DAYAT KANDUI,"P4PC+JF9, Kandui, Kec. Gn. Timang, Kabupaten Barito Utara, Kalimantan Tengah 73862","Kandui, Kec. Gn. Timang, Kabupaten Barito Utara",KALIMANTAN TENGAH,73862.0,Indonesia,82251708863.0,,,-1.2634548,115.1212327,https://maps.google.com/?cid=0x0:0x3f6cf267f24b675b,
restaurant,Restoran,WARUNG WAHYU KANDU,"P4RC+MW4, Jl. Ahmad Yani, Kandui, Kec. Gn. Timang, Kabupaten Barito Utara, Kalimantan Tengah 73862","Jl. Ahmad Yani, Kandui, Kec. Gn. Timang, Kabupaten Barito Utara",KALIMANTAN TENGAH,73862.0,Indonesia,,,,-1.2583518,115.1223212,https://maps.google.com/?cid=0x0:0x494a03629c4b059a,
restaurant,Kafe,Gorengan Zidan,"P4VC+PH6, Kandui, Kec. Gn. Timang, Kabupaten Barito Utara, Kalimantan Tengah 73862","Kandui, Kec. Gn. Timang, Kabupaten Barito Utara",KALIMANTAN TENGAH,73862.0,Indonesia,,,,-1.2557135,115.1213875,https://maps.google.com/?cid=0x0:0xc5700ca44101fbab,
restaurant,Restoran,RM. Barokah,"jalan negara No 02 Rt 02.km 27, Sikui, Kec. Teweh Baru, Kabupaten Barito Utara, Kalimantan Tengah 73814","Sikui, Kec. Teweh Baru, Kabupaten Barito Utara",KALIMANTAN TENGAH,73814.0,Indonesia,82154070045.0,,,-1.0772847,115.0849906,https://maps.google.com/?cid=0x0:0x1c96d6b178bf89d4,
restaurant,Padang,Rumah Makan Mama Wilda,"P4J9+HRM, Jl. Ahmad Yani, Kandui, Kec. Gn. Timang, Kabupaten Barito Utara, Kalimantan Tengah 73862","Jl. Ahmad Yani, Kandui, Kec. Gn. Timang, Kabupaten Barito Utara",KALIMANTAN TENGAH,73862.0,Indonesia,,,,-1.2685252,115.1195533,https://maps.google.com/?cid=0x0:0xa5edfb53b1e61602,
restaurant,Rumah Makan,Warung Mandar Najiba,"XX3X+8WJ, Jl. Lintas Kalimantan Poros Tengah, Hajak, Kec. Teweh Tengah, Kabupaten Barito Utara, Kalimantan Tengah 73814","Jl. Lintas Kalimantan Poros Tengah, Hajak, Kec. Teweh Tengah, Kabupaten Barito Utara",KALIMANTAN TENGAH,73814.0,Indonesia,,,,-1.0466533,114.9997788,https://maps.google.com/?cid=0x0:0x4e34499b9540c24b,
restaurant,Indonesia,DEPOT HALIZA,"Unnamed Road, Kandui, Kec. Gn. Timang, Kabupaten Barito Utara, Kalimantan Tengah 73862","Kandui, Kec. Gn. Timang, Kabupaten Barito Utara",KALIMANTAN TENGAH,73862.0,Indonesia,85248925940.0,,,-1.2636902,115.1212327,https://maps.google.com/?cid=0x0:0xb9f474f44476db55,
restaurant,Toko bahan makanan,Toko.FaizFajar,"PCX2+9W2, Batu Raya I, Kec. Gn. Timang, Kabupaten Barito Utara, Kalimantan Tengah 73862","Batu Raya I, Kec. Gn. Timang, Kabupaten Barito Utara",KALIMANTAN TENGAH,73862.0,Indonesia,81545372282.0,,,-1.2516069,115.4022706,https://maps.google.com/?cid=0x0:0xf8131ec14d270b32,
restaurant,Restoran,Warung cacapan barabai,"R4H3+VV7, Majangkan, Kec. Gn. Timang, Kabupaten Barito Utara, Kalimantan Tengah 73862","Majangkan, Kec. Gn. Timang, Kabupaten Barito Utara",KALIMANTAN TENGAH,73862.0,Indonesia,,,,-1.1703434,115.104659,https://maps.google.com/?cid=0x0:0xf402041062236cab,
restaurant,Restoran,ROTI BAKAR RASA SAYANG,"Kandui, Kec. Gn. Timang, Kabupaten Barito Utara, Kalimantan Tengah 73862","Kec. Gn. Timang, Kabupaten Barito Utara",KALIMANTAN TENGAH,73862.0,Indonesia,81211888104.0,,,-1.2456816,115.1296249,https://maps.google.com/?cid=0x0:0x771ef971d86f2979,
restaurant,Dapur Umum,Warung adibah,"Lampeong II, Gn. Purei, Kabupaten Barito Utara, Kalimantan Tengah 73871","Gn. Purei, Kabupaten Barito Utara",KALIMANTAN TENGAH,73871.0,Indonesia,,,,-1.1373065,115.6048756,https://maps.google.com/?cid=0x0:0xe0fc00d97566fd88,
restaurant,Rumah Makan,Warung makan kemala dewi,"VJ73+3GR, Lampeong II, Gn. Purei, Kabupaten Barito Utara, Kalimantan Tengah 73871","Lampeong II, Gn. Purei, Kabupaten Barito Utara",KALIMANTAN TENGAH,73871.0,Indonesia,85348649830.0,,,-1.1372725,115.6039314,https://maps.google.com/?cid=0x0:0x4f1c2c8258650cb5,
restaurant,restaurant,Kalimantan Tengah 73852,"Kec. Lahei, Kabupaten Barito Utara, Kalimantan Tengah","Kabupaten Barito Utara, Kalimantan Tengah",KALIMANTAN TENGAH,,Indonesia,,,,-0.6129045,115.188916,https://maps.google.com/?cid=0x0:0xf279ed86a55323d0,
restaurant,Restoran,Rumah makan terapung benao lestari,"Benao Hilir, Kec. Lahei Barat, Kabupaten Barito Utara, Kalimantan Tengah 73852","Kec. Lahei Barat, Kabupaten Barito Utara",KALIMANTAN TENGAH,73852.0,Indonesia,82150232164.0,,,-0.7487008,114.8938996,https://maps.google.com/?cid=0x0:0x10dd3ad1ae4cd33b,
restaurant,Restoran,CAFE POBA (Pondok Bambu),"Jalan Lintas Kecamatan Samping PDAM, Desa, Teluk Malewai, Kec. Lahei Barat, Kabupaten Barito Utara, Kalimantan Tengah 73852","Desa, Teluk Malewai, Kec. Lahei Barat, Kabupaten Barito Utara",KALIMANTAN TENGAH,73852.0,Indonesia,85754105002.0,,,-0.7419984,114.8990028,https://maps.google.com/?cid=0x0:0x3197a701b02a09c9,
restaurant,Kedai Kopi,Warung UMi,"94HP+9JP, Unnamed Road, Muara Pari, Kec. Lahei, Kabupaten Barito Utara, Kalimantan Tengah 73852","Unnamed Road, Muara Pari, Kec. Lahei, Kabupaten Barito Utara",KALIMANTAN TENGAH,73852.0,Indonesia,,,,-0.6215334,115.1365702,https://maps.google.com/?cid=0x0:0x85e6678c9677bb09,
restaurant,Batak,Alpianda,"6W4Q+H7X, Luwe Hulu, Kec. Lahei Barat, Kabupaten Barito Utara, Kalimantan Tengah","Kabupaten Barito Utara, Kalimantan Tengah",KALIMANTAN TENGAH,,Indonesia,,,,-0.7935062,114.9382498,https://maps.google.com/?cid=0x0:0x815d7317012e3e45,
restaurant,Restoran,Warung bakso dan mie ayam barokah (Bu Titik),"7V4W+8GV, Benao Hulu, Kec. Lahei Barat, Kabupaten Barito Utara, Kalimantan Tengah 73852","Benao Hulu, Kec. Lahei Barat, Kabupaten Barito Utara",KALIMANTAN TENGAH,73852.0,Indonesia,85755214063.0,,,-0.7439967,114.8957773,https://maps.google.com/?cid=0x0:0x3e18b4a8a953c300,
restaurant,Restoran,"Rumah Makan Pondok Stadion, Muara Teweh","2VVW+QCW, Jl. Ahmad Yani, Melayu, Kec. Teweh Tengah, Kabupaten Barito Utara, Kalimantan Tengah 73814","Jl. Ahmad Yani, Melayu, Kec. Teweh Tengah, Kabupaten Barito Utara",KALIMANTAN TENGAH,73814.0,Indonesia,,,,-0.9555141,114.8960736,https://maps.google.com/?cid=0x0:0xf8e93e75c512b29,
restaurant,Kedai Kopi,Warung KM 27,"PT.WIKI, Jalan, Muara Pari, Lahei, North Barito Regency, Central Kalimantan 73852","Jalan, Muara Pari, Lahei, North Barito Regency",KALIMANTAN TENGAH,73852.0,Indonesia,,,,-0.6582647,115.054038,https://maps.google.com/?cid=0x0:0x7cb01968d839b194,
restaurant,Restoran,Rumah Makan B2 RW  Beer House,"3V6H+Q5G, Unnamed Road, Lanjas, Kec. Teweh Tengah, Kabupaten Barito Utara, Kalimantan Tengah 73814","Unnamed Road, Lanjas, Kec. Teweh Tengah, Kabupaten Barito Utara",KALIMANTAN TENGAH,73814.0,Indonesia,85285295201.0,,,-0.9380553,114.8779512,https://maps.google.com/?cid=0x0:0xe54259a4b3275d89,
restaurant,Restoran,Warung bakso Olivia,"94HP+WQ7, Karendan, Kec. Lahei, Kabupaten Barito Utara, Kalimantan Tengah","Kabupaten Barito Utara, Kalimantan Tengah",KALIMANTAN TENGAH,,Indonesia,,,,-0.6202139,115.136935,https://maps.google.com/?cid=0x0:0x411de8b69e36f5b8,
restaurant,Restoran,Warung LA Indah,"3W22+W2G, Jl. Lintas Kalimantan Poros Tengah, Melayu, Kec. Teweh Tengah, Kabupaten Barito Utara, Kalimantan Tengah 73814","Jl. Lintas Kalimantan Poros Tengah, Melayu, Kec. Teweh Tengah, Kabupaten Barito Utara",KALIMANTAN TENGAH,73814.0,Indonesia,,,,-0.9476943,114.900063,https://maps.google.com/?cid=0x0:0x2c4143beaa58b734,
restaurant,Rumah Makan,Thira Cafe,"3V5W+C6C, Jl. Pendreh, Melayu, Kec. Teweh Tengah, Kabupaten Barito Utara, Kalimantan Tengah 73814","Jl. Pendreh, Melayu, Kec. Teweh Tengah, Kabupaten Barito Utara",KALIMANTAN TENGAH,73814.0,Indonesia,,,,-0.9414261,114.8955154,https://maps.google.com/?cid=0x0:0x47dd9c711a295cae,
restaurant,Rumah Makan,Cafe Serasa,"Jl. Rapen, Lanjas, Kec. Teweh Tengah, Kabupaten Barito Utara, Kalimantan Tengah 73814","Lanjas, Kec. Teweh Tengah, Kabupaten Barito Utara",KALIMANTAN TENGAH,73814.0,Indonesia,81263391803.0,,,-0.9531146,114.8848959,https://maps.google.com/?cid=0x0:0x2cd1c0066a87955,
restaurant,Kafe,Ps Cafe  Resto,"Jl. Pramuka, Lanjas, Kec. Teweh Tengah, Kabupaten Barito Utara, Kalimantan Tengah 73814","Lanjas, Kec. Teweh Tengah, Kabupaten Barito Utara",KALIMANTAN TENGAH,73814.0,Indonesia,81289502305.0,,,-0.94636,114.8977386,https://maps.google.com/?cid=0x0:0x1167b90d45d90702,
restaurant,Restoran,kedai mama tares,"Lahei II, Kec. Lahei, Kabupaten Barito Utara, Kalimantan Tengah","Kabupaten Barito Utara, Kalimantan Tengah",KALIMANTAN TENGAH,,Indonesia,,,,-0.8678273,114.931304,https://maps.google.com/?cid=0x0:0x2ccca892af605da,
restaurant,Batak,Lapo Horas jln permata ungu.,"Jln. Permata Ungu, Lanjas, Kec. Teweh Tengah, Kabupaten Barito Utara, Kalimantan Tengah 73814","Lanjas, Kec. Teweh Tengah, Kabupaten Barito Utara",KALIMANTAN TENGAH,73814.0,Indonesia,81256108559.0,,,-0.9405535,114.8863714,https://maps.google.com/?cid=0x0:0x53188cd766d069a8,
restaurant,Restoran,TALA COFFEE AND EATERY,"2VWP+H5, Lanjas, Kec. Teweh Tengah, Kabupaten Barito Utara, Kalimantan Tengah","Kabupaten Barito Utara, Kalimantan Tengah",KALIMANTAN TENGAH,,Indonesia,,,,-0.9535925,114.8854631,https://maps.google.com/?cid=0x0:0x4b74965aec5eef7e,
restaurant,Rumah Makan,Warung Barokah,"Jl.Smp 2, Melayu, Kec. Lahei, Kabupaten Barito Utara, Kalimantan Tengah 73852","Melayu, Kec. Lahei, Kabupaten Barito Utara",KALIMANTAN TENGAH,73852.0,Indonesia,85755214063.0,,,-0.9349425,114.8985047,https://maps.google.com/?cid=0x0:0x10f157edd1eafff1,
restaurant,Sarapan,Nasi kuning mama jalan gagah lurus kalimantan tengah,"Jalan gagah lurus No.RT 04, Muara Pari, Kec. Lahei, Kabupaten Barito Utara, Kalimantan Tengah 73852","Muara Pari, Kec. Lahei, Kabupaten Barito Utara",KALIMANTAN TENGAH,73852.0,Indonesia,,,,-0.6119488,115.1879609,https://maps.google.com/?cid=0x0:0xa0ee4617dedf3558,
restaurant,Jawa,Warung Makan Pasar Sabtu,"9RG8+6VM, Unnamed Road, Muara Tuhup, Kec. Laung Tuhup, Kabupaten Murung Raya, Kalimantan Tengah 73991","Unnamed Road, Muara Tuhup, Kec. Laung Tuhup, Kabupaten Murung Raya",KALIMANTAN TENGAH,73991.0,Indonesia,,,,-0.6244143,114.8171573,https://maps.google.com/?cid=0x0:0x6121c03e84bcc72e,
restaurant,Nasi,Bude MPG sungsang,"6P4R+4V, Karamuan, Kec. Lahei Barat, Kabupaten Barito Utara, Kalimantan Tengah","Kabupaten Barito Utara, Kalimantan Tengah",KALIMANTAN TENGAH,,Indonesia,,,,-0.7946309,114.7422111,https://maps.google.com/?cid=0x0:0x3de23cbf277de48f,
restaurant,restaurant,Cafe Induk,"7W43+5FJ, Benao Hilir, Kec. Lahei, Kabupaten Barito Utara, Kalimantan Tengah 73852","Benao Hilir, Kec. Lahei, Kabupaten Barito Utara",KALIMANTAN TENGAH,73852.0,Indonesia,,,,-0.7439687,114.9024472,https://maps.google.com/?cid=0x0:0xf44e388129399f54,
restaurant,Bakso,Warung bakso barokah,"82J3+3XG, Tlk. Malewai, Kec. Lahei Barat, Kabupaten Barito Utara, Kalimantan Tengah 73852","Tlk. Malewai, Kec. Lahei Barat, Kabupaten Barito Utara",KALIMANTAN TENGAH,73852.0,Indonesia,85755214063.0,,,-0.6698094,115.0049636,https://maps.google.com/?cid=0x0:0xface62053c71e675,
restaurant,Rumah Makan,Penyedia Layanan Masakan / Chatering,"Kapten Piere Tendean, Kelurahan melayu, Kec. Lahei, Kabupaten Barito Utara, Kalimantan Tengah 73811","Kelurahan melayu, Kec. Lahei, Kabupaten Barito Utara",KALIMANTAN TENGAH,73811.0,Indonesia,82152034069.0,,,-0.8295559,114.9872821,https://maps.google.com/?cid=0x0:0x475e305e551cd8a7,
restaurant,Batak,RM KHAS MEDAN BORSAM NAULI,"Jalan lingkar kota Jl. Rapen No.rt 25, Lanjas, Kec. Teweh Tengah, Kabupaten Barito Utara, Kalimantan Tengah 73814","Lanjas, Kec. Teweh Tengah, Kabupaten Barito Utara",KALIMANTAN TENGAH,73814.0,Indonesia,82153038338.0,,,-0.9398187,114.8839009,https://maps.google.com/?cid=0x0:0xdc4aa7852d854530,
restaurant,Restoran,Rumah makan B1/B2 Hemalia ripina Putri,"3W32+HG8, Melayu, Kec. Teweh Tengah, Kabupaten Barito Utara, Kalimantan Tengah 73814","Melayu, Kec. Teweh Tengah, Kabupaten Barito Utara",KALIMANTAN TENGAH,73814.0,Indonesia,81220154327.0,,,-0.9460997,114.9013153,https://maps.google.com/?cid=0x0:0x23bcf02694ef456b,
restaurant,restaurant,Kec. Lahei Barat,"Kabupaten Barito Utara, Kalimantan Tengah","Kabupaten Barito Utara, Kalimantan Tengah",KALIMANTAN TENGAH,,Indonesia,,,,-0.7935062,114.9382498,https://maps.google.com/?cid=0x0:0x5adc4924308bea72,
restaurant,Restoran,Rumah makan terapung benao lestari,"Benao Hilir, Kec. Lahei Barat, Kabupaten Barito Utara, Kalimantan Tengah 73852","Kec. Lahei Barat, Kabupaten Barito Utara",KALIMANTAN TENGAH,73852.0,Indonesia,82150232164.0,,,-0.7487008,114.8938996,https://maps.google.com/?cid=0x0:0x10dd3ad1ae4cd33b,
restaurant,Toko,Warung Simpang Tiga Bersaudara,"6W82+72, Nihan Hulu, Kec. Lahei Barat, Kabupaten Barito Utara, Kalimantan Tengah","Kabupaten Barito Utara, Kalimantan Tengah",KALIMANTAN TENGAH,,Indonesia,,,,-0.78435,114.9000383,https://maps.google.com/?cid=0x0:0xcfee1246ea076f4a,
restaurant,Batak,Alpianda,"6W4Q+H7X, Luwe Hulu, Kec. Lahei Barat, Kabupaten Barito Utara, Kalimantan Tengah","Kabupaten Barito Utara, Kalimantan Tengah",KALIMANTAN TENGAH,,Indonesia,,,,-0.7935062,114.9382498,https://maps.google.com/?cid=0x0:0x815d7317012e3e45,
restaurant,Bakso,Bakso Bakumpai,"Jl. Lintas Kalimantan Poros Tengah, Nihan Hilir, Kec. Lahei Barat, Kabupaten Barito Utara, Kalimantan Tengah","Kabupaten Barito Utara, Kalimantan Tengah",KALIMANTAN TENGAH,,Indonesia,,,,-0.8160221,114.7667871,https://maps.google.com/?cid=0x0:0x2002ba77b90c7df3,
restaurant,Restoran,Rumah Makan B2 RW  Beer House,"3V6H+Q5G, Unnamed Road, Lanjas, Kec. Teweh Tengah, Kabupaten Barito Utara, Kalimantan Tengah 73814","Unnamed Road, Lanjas, Kec. Teweh Tengah, Kabupaten Barito Utara",KALIMANTAN TENGAH,73814.0,Indonesia,85285295201.0,,,-0.9380553,114.8779512,https://maps.google.com/?cid=0x0:0xe54259a4b3275d89,
restaurant,Restoran,Warung bakso dan mie ayam barokah (Bu Titik),"7V4W+8GV, Benao Hulu, Kec. Lahei Barat, Kabupaten Barito Utara, Kalimantan Tengah 73852","Benao Hulu, Kec. Lahei Barat, Kabupaten Barito Utara",KALIMANTAN TENGAH,73852.0,Indonesia,85755214063.0,,,-0.7439967,114.8957773,https://maps.google.com/?cid=0x0:0x3e18b4a8a953c300,
restaurant,Restoran,Warung LA Indah,"3W22+W2G, Jl. Lintas Kalimantan Poros Tengah, Melayu, Kec. Teweh Tengah, Kabupaten Barito Utara, Kalimantan Tengah 73814","Jl. Lintas Kalimantan Poros Tengah, Melayu, Kec. Teweh Tengah, Kabupaten Barito Utara",KALIMANTAN TENGAH,73814.0,Indonesia,,,,-0.9476943,114.900063,https://maps.google.com/?cid=0x0:0x2c4143beaa58b734,
restaurant,Kedai Kopi,Yellow Cafe,"6W2P+8PX, Unnamed Road, Luwe Hulu, Kec. Lahei Barat, Kabupaten Barito Utara, Kalimantan Tengah 73812","Unnamed Road, Luwe Hulu, Kec. Lahei Barat, Kabupaten Barito Utara",KALIMANTAN TENGAH,73812.0,Indonesia,,,,-0.7991333,114.9368745,https://maps.google.com/?cid=0x0:0xd33a0c633fd1ebc8,
restaurant,Rumah Makan,Thira Cafe,"3V5W+C6C, Jl. Pendreh, Melayu, Kec. Teweh Tengah, Kabupaten Barito Utara, Kalimantan Tengah 73814","Jl. Pendreh, Melayu, Kec. Teweh Tengah, Kabupaten Barito Utara",KALIMANTAN TENGAH,73814.0,Indonesia,,,,-0.9414261,114.8955154,https://maps.google.com/?cid=0x0:0x47dd9c711a295cae,
restaurant,Restoran,kedai mama tares,"Lahei II, Kec. Lahei, Kabupaten Barito Utara, Kalimantan Tengah","Kabupaten Barito Utara, Kalimantan Tengah",KALIMANTAN TENGAH,,Indonesia,,,,-0.8678273,114.931304,https://maps.google.com/?cid=0x0:0x2ccca892af605da,
restaurant,Rumah Makan,Cafe Serasa,"Jl. Rapen, Lanjas, Kec. Teweh Tengah, Kabupaten Barito Utara, Kalimantan Tengah 73814","Lanjas, Kec. Teweh Tengah, Kabupaten Barito Utara",KALIMANTAN TENGAH,73814.0,Indonesia,81263391803.0,,,-0.9531146,114.8848959,https://maps.google.com/?cid=0x0:0x2cd1c0066a87955,
restaurant,Brunch,Warung Nasi Kuning RIFQI,"Jl. Ahmad Yani No.rt-16b, Lanjas, Kec. Teweh Tengah, Kabupaten Barito Utara, Kalimantan Tengah 73811","Lanjas, Kec. Teweh Tengah, Kabupaten Barito Utara",KALIMANTAN TENGAH,73811.0,Indonesia,,,,-0.9499501,114.8992706,https://maps.google.com/?cid=0x0:0x59465893f018c513,
restaurant,Kafe,Ps Cafe  Resto,"Jl. Pramuka, Lanjas, Kec. Teweh Tengah, Kabupaten Barito Utara, Kalimantan Tengah 73814","Lanjas, Kec. Teweh Tengah, Kabupaten Barito Utara",KALIMANTAN TENGAH,73814.0,Indonesia,81289502305.0,,,-0.94636,114.8977386,https://maps.google.com/?cid=0x0:0x1167b90d45d90702,
restaurant,restaurant,Cafe Induk,"7W43+5FJ, Benao Hilir, Kec. Lahei, Kabupaten Barito Utara, Kalimantan Tengah 73852","Benao Hilir, Kec. Lahei, Kabupaten Barito Utara",KALIMANTAN TENGAH,73852.0,Indonesia,,,,-0.7439687,114.9024472,https://maps.google.com/?cid=0x0:0xf44e388129399f54,
restaurant,Bakso,Warung bakso barokah,"82J3+3XG, Tlk. Malewai, Kec. Lahei Barat, Kabupaten Barito Utara, Kalimantan Tengah 73852","Tlk. Malewai, Kec. Lahei Barat, Kabupaten Barito Utara",KALIMANTAN TENGAH,73852.0,Indonesia,85755214063.0,,,-0.6698094,115.0049636,https://maps.google.com/?cid=0x0:0xface62053c71e675,
restaurant,Rumah Makan,Penyedia Layanan Masakan / Chatering,"Kapten Piere Tendean, Kelurahan melayu, Kec. Lahei, Kabupaten Barito Utara, Kalimantan Tengah 73811","Kelurahan melayu, Kec. Lahei, Kabupaten Barito Utara",KALIMANTAN TENGAH,73811.0,Indonesia,82152034069.0,,,-0.8295559,114.9872821,https://maps.google.com/?cid=0x0:0x475e305e551cd8a7,
restaurant,Kafe,2D Cafe molandahera,"7V3R+84R, Benao Hulu, Kec. Lahei Barat, Kabupaten Barito Utara, Kalimantan Tengah 73852","Benao Hulu, Kec. Lahei Barat, Kabupaten Barito Utara",KALIMANTAN TENGAH,73852.0,Indonesia,,,,-0.7466329,114.8902605,https://maps.google.com/?cid=0x0:0xff828e2c6a6311f2,
restaurant,Nasi,Bude MPG sungsang,"6P4R+4V, Karamuan, Kec. Lahei Barat, Kabupaten Barito Utara, Kalimantan Tengah","Kabupaten Barito Utara, Kalimantan Tengah",KALIMANTAN TENGAH,,Indonesia,,,,-0.7946309,114.7422111,https://maps.google.com/?cid=0x0:0x3de23cbf277de48f,
restaurant,Rumah Makan,Warung Barokah,"Jl.Smp 2, Melayu, Kec. Lahei, Kabupaten Barito Utara, Kalimantan Tengah 73852","Melayu, Kec. Lahei, Kabupaten Barito Utara",KALIMANTAN TENGAH,73852.0,Indonesia,85755214063.0,,,-0.9349425,114.8985047,https://maps.google.com/?cid=0x0:0x10f157edd1eafff1,
restaurant,Rumah Makan,Cafe Telaga RORO,"3V4V+PF4, Jl. Taman Remaja, Lanjas, Kec. Teweh Tengah, Kabupaten Barito Utara, Kalimantan Tengah 73814","Jl. Taman Remaja, Lanjas, Kec. Teweh Tengah, Kabupaten Barito Utara",KALIMANTAN TENGAH,73814.0,Indonesia,82216161000.0,,,-0.9432453,114.8937155,https://maps.google.com/?cid=0x0:0xa30124624f276bd2,
restaurant,Restoran,"Rumah Makan Pondok Stadion, Muara Teweh","2VVW+QCW, Jl. Ahmad Yani, Melayu, Kec. Teweh Tengah, Kabupaten Barito Utara, Kalimantan Tengah 73814","Jl. Ahmad Yani, Melayu, Kec. Teweh Tengah, Kabupaten Barito Utara",KALIMANTAN TENGAH,73814.0,Indonesia,,,,-0.9555141,114.8960736,https://maps.google.com/?cid=0x0:0xf8e93e75c512b29,
restaurant,Restoran,Rumah makan B1/B2 Hemalia ripina Putri,"3W32+HG8, Melayu, Kec. Teweh Tengah, Kabupaten Barito Utara, Kalimantan Tengah 73814","Melayu, Kec. Teweh Tengah, Kabupaten Barito Utara",KALIMANTAN TENGAH,73814.0,Indonesia,81220154327.0,,,-0.9460997,114.9013153,https://maps.google.com/?cid=0x0:0x23bcf02694ef456b,
restaurant,restaurant,SAMATAKA (RUMAH MAKAN B2),"Jl. Pendreh Gang Wira abadi, Melayu, Kec. Teweh Tengah, Kabupaten Barito Utara, Kalimantan Tengah 73812","Melayu, Kec. Teweh Tengah, Kabupaten Barito Utara",KALIMANTAN TENGAH,73812.0,Indonesia,82152519363.0,,,-0.9380518,114.892945,https://maps.google.com/?cid=0x0:0x887bccae5010ffd5,
restaurant,restaurant,Kec. Montallat,"Kabupaten Barito Utara, Kalimantan Tengah","Kabupaten Barito Utara, Kalimantan Tengah",KALIMANTAN TENGAH,,Indonesia,,,,-1.3271553,114.8390377,https://maps.google.com/?cid=0x0:0xaee00abe123121b3,
restaurant,Bakso,Warung Bakso Mama Yasin Tumpung Laung,"Tumpung Laung I, Kec. Montallat, Kabupaten Barito Utara, Kalimantan Tengah 73861","Kec. Montallat, Kabupaten Barito Utara",KALIMANTAN TENGAH,73861.0,Indonesia,82256262121.0,,,-1.3231464,114.8389443,https://maps.google.com/?cid=0x0:0x7360e0760a72ae23,
restaurant,Kedai Kopi,Kedai Rumah Julak,"MRGG+CVQ, Jl. Raya Lintas Kota, Tumpung Laung II, Kec. Montallat, Kabupaten Barito Utara, Kalimantan Tengah 73861","Jl. Raya Lintas Kota, Tumpung Laung II, Kec. Montallat, Kabupaten Barito Utara",KALIMANTAN TENGAH,73861.0,Indonesia,,,,-1.3239184,114.8272191,https://maps.google.com/?cid=0x0:0x8a0f4cbad256f132,
restaurant,Bakso,Bakso Muncul,"Jl. Raya Lintas Kota, Tumpung Laung II, Kec. Montallat, Kabupaten Barito Utara, Kalimantan Tengah 73861","Tumpung Laung II, Kec. Montallat, Kabupaten Barito Utara",KALIMANTAN TENGAH,73861.0,Indonesia,82325717753.0,,,-1.3223678,114.8212853,https://maps.google.com/?cid=0x0:0x2a0dc8f5f857c32c,
restaurant,Padang,Amay servis montallat II,"Montallat II, Kec. Montallat, Kabupaten Barito Utara, Kalimantan Tengah 73861","Kec. Montallat, Kabupaten Barito Utara",KALIMANTAN TENGAH,73861.0,Indonesia,82211022506.0,,,-1.3215679,114.9041494,https://maps.google.com/?cid=0x0:0xe5dbff16cd245606,
restaurant,Toko bahan makanan,Warung Papadaan,"MVGX+F3R, RW.Siwakkk, Montallat II, Kec. Montallat, Kabupaten Barito Utara, Kalimantan Tengah 73862","RW.Siwakkk, Montallat II, Kec. Montallat, Kabupaten Barito Utara",KALIMANTAN TENGAH,73862.0,Indonesia,,,,-1.3243146,114.8962842,https://maps.google.com/?cid=0x0:0x40d2151ec1fe528,
restaurant,Sekolah Menengah Atas,SMPN 1 MONTALLAT,"MRG9+GV5, Tumpung Laung II, Kec. Montallat, Kabupaten Barito Utara, Kalimantan Tengah 73861","Tumpung Laung II, Kec. Montallat, Kabupaten Barito Utara",KALIMANTAN TENGAH,73861.0,Indonesia,,,,-1.3237421,114.81974,https://maps.google.com/?cid=0x0:0x8f3563cc0762d86f,
restaurant,Restoran,WARUNG MAKAN PAK DE LAMONGAN,"VW6X+XFF, Pandran Permai, Kec. Tewen Selatan, Kabupaten Barito Utara, Kalimantan Tengah 73861","Pandran Permai, Kec. Tewen Selatan, Kabupaten Barito Utara",KALIMANTAN TENGAH,73861.0,Indonesia,82150531474.0,,,-1.1375555,114.9486851,https://maps.google.com/?cid=0x0:0x6bee92df5db92bde,
restaurant,Dapur Umum,Dapur Mama Wak,"Jalan K.H Dewan Tara,Rt 05,Tumpung Laung II,Kec. Montallat, Bartito Utara, Kabupaten Barito Utara, Kalimantan Tengah 73861","Bartito Utara, Kabupaten Barito Utara",KALIMANTAN TENGAH,73861.0,Indonesia,82149570652.0,,,-1.3238187,114.8273425,https://maps.google.com/?cid=0x0:0xf5476db3786b6fed,
restaurant,restaurant,Wr makan mbak hotijah Banyuwangi,"VW5C+7W, Buntok Baru, Kec. Tewen Selatan, Kabupaten Barito Utara, Kalimantan Tengah","Kabupaten Barito Utara, Kalimantan Tengah",KALIMANTAN TENGAH,,Indonesia,,,,-1.1418477,114.9223103,https://maps.google.com/?cid=0x0:0xfd381d1157894440,
restaurant,Dapur Umum,Warung makan mama Hengki mb,"jalan mitra barito No.RT 4, Paring Lahung, Kec. Montallat, Kabupaten Barito Utara, Kalimantan Tengah 73767","Paring Lahung, Kec. Montallat, Kabupaten Barito Utara",KALIMANTAN TENGAH,73767.0,Indonesia,82111121212.0,,,-1.2142513,114.7736556,https://maps.google.com/?cid=0x0:0x8fd2bc05051193e,
restaurant,Bar,Mada ino,"MRGG+P9C, Jl. Raya Lintas Kota, Tumpung Laung II, Kec. Montallat, Kabupaten Barito Utara, Kalimantan Tengah 73861","Jl. Raya Lintas Kota, Tumpung Laung II, Kec. Montallat, Kabupaten Barito Utara",KALIMANTAN TENGAH,73861.0,Indonesia,,,,-1.3231961,114.8258942,https://maps.google.com/?cid=0x0:0x46c388b8581a2b4a,
restaurant,Kedai Kopi,Wrong,"PVG4+4M5 Puskesmas Tp. Laung, Sikan, Kec. Montallat, Kabupaten Barito Utara, Kalimantan Tengah 73861","Sikan, Kec. Montallat, Kabupaten Barito Utara",KALIMANTAN TENGAH,73861.0,Indonesia,81256658882.0,,,-1.2747293,114.8567482,https://maps.google.com/?cid=0x0:0x26ab34962c934b50,
restaurant,Toko,Warung Acil Jawa,"QRP2+6MH, Paring Lahung, Kec. Montallat, Kabupaten Barito Utara, Kalimantan Tengah 73861","Paring Lahung, Kec. Montallat, Kabupaten Barito Utara",KALIMANTAN TENGAH,73861.0,Indonesia,,,,-1.2151881,114.8013451,https://maps.google.com/?cid=0x0:0x7f7ba55c94c109f0,
restaurant,Kedai Kopi,Cafe Pelangi,"MRHC+2J4, Tumpung Laung II, Kec. Montallat, Kabupaten Barito Utara, Kalimantan Tengah","Kabupaten Barito Utara, Kalimantan Tengah",KALIMANTAN TENGAH,,Indonesia,,,,-1.3224985,114.8215911,https://maps.google.com/?cid=0x0:0x54f8c82605d9331e,
restaurant,Nasi Goreng,Nasi Goreng Bintang Jaya,"Jl. H. A. Dj. Nihin No.86, Bukit Sawit, Kec. Tewen Selatan, Kabupaten Barito Utara, Kalimantan Tengah 73861","Bukit Sawit, Kec. Tewen Selatan, Kabupaten Barito Utara",KALIMANTAN TENGAH,73861.0,Indonesia,85828238314.0,,,-1.1378058,114.9523223,https://maps.google.com/?cid=0x0:0xec1c9af94105d695,
restaurant,Restoran,"Rumah Makan Pondok Stadion, Muara Teweh","2VVW+QCW, Jl. Ahmad Yani, Melayu, Kec. Teweh Tengah, Kabupaten Barito Utara, Kalimantan Tengah 73814","Jl. Ahmad Yani, Melayu, Kec. Teweh Tengah, Kabupaten Barito Utara",KALIMANTAN TENGAH,73814.0,Indonesia,,,,-0.9555141,114.8960736,https://maps.google.com/?cid=0x0:0xf8e93e75c512b29,
restaurant,Komplek perumahan,Rumah Norjenah,"MWJ8+RCG, Montallat II, Kec. Montallat, Kabupaten Barito Utara, Kalimantan Tengah","Kabupaten Barito Utara, Kalimantan Tengah",KALIMANTAN TENGAH,,Indonesia,,,,-1.3179362,114.916088,https://maps.google.com/?cid=0x0:0x47b6fb36b3bd23a9,
restaurant,Kedai Kopi,Kedai Nafaz,"PQXX+G6F, Paring Lahung, Kec. Montallat, Kabupaten Barito Utara, Kalimantan Tengah 73861","Paring Lahung, Kec. Montallat, Kabupaten Barito Utara",KALIMANTAN TENGAH,73861.0,Indonesia,,,,-1.2511762,114.7980436,https://maps.google.com/?cid=0x0:0xb8e4f56aaf35939c,
restaurant,Sarapan,Warung nasi kuning km7 TOP,"QQPF+7FR, Paring Lahung, Kec. Montallat, Kabupaten Barito Utara, Kalimantan Tengah 73861","Paring Lahung, Kec. Montallat, Kabupaten Barito Utara",KALIMANTAN TENGAH,73861.0,Indonesia,,,,-1.2142513,114.7736556,https://maps.google.com/?cid=0x0:0xd386ee397fefdba5,
restaurant,Restoran,Dapoer Aiza Zahra,"Jl, Pandran Permai, Muara teweh, Kabupaten Barito Utara, Kalimantan Tengah 73814","Pandran Permai, Muara teweh, Kabupaten Barito Utara",KALIMANTAN TENGAH,73814.0,Indonesia,81348700355.0,,,-1.1526706,114.96066,https://maps.google.com/?cid=0x0:0x68bf14102816d66b,
restaurant,restaurant,Kalimantan Tengah 73813,"Jambu, Kec. Teweh Baru, Kabupaten Barito Utara, Kalimantan Tengah","Kabupaten Barito Utara, Kalimantan Tengah",KALIMANTAN TENGAH,,Indonesia,,,,-0.8856163,115.0169419,https://maps.google.com/?cid=0x0:0x20b84a66bae62c5e,
restaurant,Restoran,"Rumah Makan Pondok Stadion, Muara Teweh","2VVW+QCW, Jl. Ahmad Yani, Melayu, Kec. Teweh Tengah, Kabupaten Barito Utara, Kalimantan Tengah 73814","Jl. Ahmad Yani, Melayu, Kec. Teweh Tengah, Kabupaten Barito Utara",KALIMANTAN TENGAH,73814.0,Indonesia,,,,-0.9555141,114.8960736,https://maps.google.com/?cid=0x0:0xf8e93e75c512b29,
restaurant,Restoran,"Cafe Tarera, Muara Teweh","3V4W+64W, Lanjas, Kec. Teweh Tengah, Kabupaten Barito Utara, Kalimantan Tengah 73814","Lanjas, Kec. Teweh Tengah, Kabupaten Barito Utara",KALIMANTAN TENGAH,73814.0,Indonesia,81351980533.0,,,-0.9443919,114.8953284,https://maps.google.com/?cid=0x0:0x53cec34a1f33c002,
restaurant,Rumah Makan,Cafe Serasa,"Jl. Rapen, Lanjas, Kec. Teweh Tengah, Kabupaten Barito Utara, Kalimantan Tengah 73814","Lanjas, Kec. Teweh Tengah, Kabupaten Barito Utara",KALIMANTAN TENGAH,73814.0,Indonesia,81263391803.0,,,-0.9531146,114.8848959,https://maps.google.com/?cid=0x0:0x2cd1c0066a87955,
restaurant,Makanan Kecil,Warung Bang RONNY,"3W23+C86, Jl. Pertiwi, Melayu, Kec. Teweh Tengah, Kabupaten Barito Utara, Kalimantan Tengah 73814","Jl. Pertiwi, Melayu, Kec. Teweh Tengah, Kabupaten Barito Utara",KALIMANTAN TENGAH,73814.0,Indonesia,82350915318.0,,,-0.9489515,114.9032766,https://maps.google.com/?cid=0x0:0xb392dca4eb0f262c,
restaurant,Padang,"Rumah Makan Bofet Saiyo (Masakan Padang), Muara Teweh","Jl. Pramuka, Lanjas, Kec. Teweh Tengah, Kabupaten Barito Utara, Kalimantan Tengah 73812","Lanjas, Kec. Teweh Tengah, Kabupaten Barito Utara",KALIMANTAN TENGAH,73812.0,Indonesia,81347373727.0,,,-0.9524036,114.8935737,https://maps.google.com/?cid=0x0:0xa7a6faa6d97c7171,
restaurant,Restoran,Warung Makan Adem Ayem,"3V6R+QX3, Jl. Pendreh, Melayu, Kec. Teweh Tengah, Kabupaten Barito Utara, Kalimantan Tengah 73814","Jl. Pendreh, Melayu, Kec. Teweh Tengah, Kabupaten Barito Utara",KALIMANTAN TENGAH,73814.0,Indonesia,,,,-0.9381025,114.8924285,https://maps.google.com/?cid=0x0:0xbe9a38e56c45b798,
restaurant,Bar Karaoke,HOLYWISH CAFE  KARAOKE,"Jl. Rapen, Lingkar Kota, Kec. Teweh Tengah, Kabupaten Barito Utara, Kalimantan Tengah 73812","Lingkar Kota, Kec. Teweh Tengah, Kabupaten Barito Utara",KALIMANTAN TENGAH,73812.0,Indonesia,82154263309.0,,,-0.9444526,114.8845602,https://maps.google.com/?cid=0x0:0x709a7bebf4f582f1,
restaurant,Padang,"Rumah Makan Lintau Indah (Masakan Padang), Muara Teweh","3V2X+6J6, Lanjas, Kec. Teweh Tengah, Kabupaten Barito Utara, Kalimantan Tengah 73814","Lanjas, Kec. Teweh Tengah, Kabupaten Barito Utara",KALIMANTAN TENGAH,73814.0,Indonesia,51921721.0,,,-0.9494589,114.8990278,https://maps.google.com/?cid=0x0:0xe98159825bc934b5,
restaurant,Restoran,RM. BATARA KUIN,"Jl. Ahmad Yani, Lanjas, Kec. Teweh Tengah, Kabupaten Barito Utara, Kalimantan Tengah 73814","Lanjas, Kec. Teweh Tengah, Kabupaten Barito Utara",KALIMANTAN TENGAH,73814.0,Indonesia,81258895878.0,,,-0.9603893,114.9049005,https://maps.google.com/?cid=0x0:0x454503489fbb58ca,
restaurant,Nasi Goreng,"Nasi Itik Gambut, Teweh","2VQW+XQ5, Jl. Ahmad Yani, Lanjas, Kec. Teweh Tengah, Kabupaten Barito Utara, Kalimantan Tengah 73814","Jl. Ahmad Yani, Lanjas, Kec. Teweh Tengah, Kabupaten Barito Utara",KALIMANTAN TENGAH,73814.0,Indonesia,85349141616.0,,,-0.9601152,114.8969948,https://maps.google.com/?cid=0x0:0x573a35f7d1db956b,
restaurant,Padang,"Rumah Makan Bofet Saiyo (Masakan Padang), Muara Teweh","Jl. Pramuka, RT.26/RW.07, Lanjas, Kec. Teweh Tengah, Kabupaten Barito Utara, Kalimantan Tengah 73812","RT.26/RW.07, Lanjas, Kec. Teweh Tengah, Kabupaten Barito Utara",KALIMANTAN TENGAH,73812.0,Indonesia,,,,-0.9524556,114.8936657,https://maps.google.com/?cid=0x0:0x3f53a62a8aecb585,
restaurant,Hostel,Penginapan Barito,"Jl. Panglima Batur No.43, Melayu, Kec. Teweh Tengah, Kabupaten Barito Utara, Kalimantan Tengah 73811","Melayu, Kec. Teweh Tengah, Kabupaten Barito Utara",KALIMANTAN TENGAH,73811.0,Indonesia,82189295495.0,,,-0.9610592,114.9033008,https://maps.google.com/?cid=0x0:0xdcaf8dbebf27a08,
restaurant,Bakso,Bakso Urat Malang,"3V3X+MG4, Jl. Jend. Sudirman, Melayu, Kec. Teweh Tengah, Kabupaten Barito Utara, Kalimantan Tengah 73814","Jl. Jend. Sudirman, Melayu, Kec. Teweh Tengah, Kabupaten Barito Utara",KALIMANTAN TENGAH,73814.0,Indonesia,81349268529.0,,,-0.9458635,114.8988383,https://maps.google.com/?cid=0x0:0x33948df20010e78b,
restaurant,Tujuan Wisata,Water Front City Muara Teweh Kalimantan Tengah,"2WQ3+MQQ, Melayu, Kec. Teweh Tengah, Kabupaten Barito Utara, Kalimantan Tengah 73814","Melayu, Kec. Teweh Tengah, Kabupaten Barito Utara",KALIMANTAN TENGAH,73814.0,Indonesia,81251280888.0,,,-0.9607994,114.9044969,https://maps.google.com/?cid=0x0:0xa67419f15361deb9,
restaurant,Sarapan,Lontong Sayur  Nasi Kuning,"Jl. Ahmad Yani No.143, Melayu, Kec. Teweh Tengah, Kabupaten Barito Utara, Kalimantan Tengah 73811","Melayu, Kec. Teweh Tengah, Kabupaten Barito Utara",KALIMANTAN TENGAH,73811.0,Indonesia,,,,-0.9495679,114.8990556,https://maps.google.com/?cid=0x0:0xf387136496eacdce,
restaurant,Toko bahan makanan,Itah Tewei,"Jl. Simpang Stadion, RT.11/RW.No. 12, Lanjas, Kec. Teweh Tengah, Kabupaten Barito Utara, Kalimantan Tengah 73814","RT.11/RW.No. 12, Lanjas, Kec. Teweh Tengah, Kabupaten Barito Utara",KALIMANTAN TENGAH,73814.0,Indonesia,82252016765.0,,,-0.9349425,114.8985047,https://maps.google.com/?cid=0x0:0x27e0ed50383ffd27,
restaurant,Pembangunan Perumahan,Pararawen Conservation Area,"2RHH+RF6, Unnamed Road, Lemo II, Kec. Teweh Tengah, Kabupaten Barito Utara, Kalimantan Tengah 73814","Unnamed Road, Lemo II, Kec. Teweh Tengah, Kabupaten Barito Utara",KALIMANTAN TENGAH,73814.0,Indonesia,,,,-0.970474,114.8286536,https://maps.google.com/?cid=0x0:0x45e2612fa3bf38a7,
restaurant,restaurant,Bengkel Lingkar Kota,"Jl. Ringroad, Lanjas, Kec. Teweh Tengah, Kabupaten Barito Utara, Kalimantan Tengah 73814","Lanjas, Kec. Teweh Tengah, Kabupaten Barito Utara",KALIMANTAN TENGAH,73814.0,Indonesia,85753184421.0,,,-0.9375014,114.8774537,https://maps.google.com/?cid=0x0:0xd8ae04ea03ec9467,
restaurant,Kafe,Warung Eksafarizqy,"4352+W2, Juju Baru, Kec. Lahei, Kabupaten Barito Utara, Kalimantan Tengah","Kabupaten Barito Utara, Kalimantan Tengah",KALIMANTAN TENGAH,,Indonesia,,,,-0.8901417,115.050065,https://maps.google.com/?cid=0x0:0x52e5e8eea6763e5c,
restaurant,Kafe,Ps Cafe  Resto,"Jl. Pramuka, Lanjas, Kec. Teweh Tengah, Kabupaten Barito Utara, Kalimantan Tengah 73814","Lanjas, Kec. Teweh Tengah, Kabupaten Barito Utara",KALIMANTAN TENGAH,73814.0,Indonesia,81289502305.0,,,-0.94636,114.8977386,https://maps.google.com/?cid=0x0:0x1167b90d45d90702,
restaurant,Kedai Kopi,Lorong Tengah,"2VPQ+Q89, Lanjas, Kec. Teweh Tengah, Kabupaten Barito Utara, Kalimantan Tengah 73814","Lanjas, Kec. Teweh Tengah, Kabupaten Barito Utara",KALIMANTAN TENGAH,73814.0,Indonesia,,,,-0.9630757,114.8883533,https://maps.google.com/?cid=0x0:0xaf7bc34a0fc8fc92,
restaurant,Kafe,Maynd,"2VQR+8XQ, Jl. Yetro Sinseng, Lanjas, Kec. Teweh Tengah, Kabupaten Barito Utara, Kalimantan Tengah 73814","Jl. Yetro Sinseng, Lanjas, Kec. Teweh Tengah, Kabupaten Barito Utara",KALIMANTAN TENGAH,73814.0,Indonesia,51921819.0,,,-0.9616636,114.8924808,https://maps.google.com/?cid=0x0:0x8ff93b004e93333,
restaurant,Restoran,"Tetes Kopi, Muara Teweh","Jl. Pesona No.3, RT.29/RW.03, Lanjas, Kec. Teweh Tengah, Kabupaten Barito Utara, Kalimantan Tengah 73814","RT.29/RW.03, Lanjas, Kec. Teweh Tengah, Kabupaten Barito Utara",KALIMANTAN TENGAH,73814.0,Indonesia,,,,-0.9432198,114.8915334,https://maps.google.com/?cid=0x0:0xa6c0501729060363,
restaurant,Kafe,Beranda Kohv,"Lanjas, Kec. Teweh Tengah, Kabupaten Barito Utara, Kalimantan Tengah 73814","Kec. Teweh Tengah, Kabupaten Barito Utara",KALIMANTAN TENGAH,73814.0,Indonesia,,,,-0.9379473,114.8780173,https://maps.google.com/?cid=0x0:0x28d60c36895fac2c,
restaurant,Kedai Kopi,Kopi Itah,"Jl. Taman Remaja, Lanjas, Kec. Teweh Tengah, Kabupaten Barito Utara, Kalimantan Tengah 73811","Lanjas, Kec. Teweh Tengah, Kabupaten Barito Utara",KALIMANTAN TENGAH,73811.0,Indonesia,81347413342.0,,,-0.9438474,114.8914641,https://maps.google.com/?cid=0x0:0x82efe99234d63c1e,
restaurant,Indonesia,Rumah Makan Global,"3V3X+F49, Jl. Pramuka, Lanjas, Kec. Teweh Tengah, Kabupaten Barito Utara, Kalimantan Tengah 73814","Jl. Pramuka, Lanjas, Kec. Teweh Tengah, Kabupaten Barito Utara",KALIMANTAN TENGAH,73814.0,Indonesia,,,,-0.9463258,114.8978484,https://maps.google.com/?cid=0x0:0xfd1ef8c5c1bc4280,
restaurant,Balai Kota,Balai Antang,"Melayu, Kec. Teweh Tengah, Kabupaten Barito Utara, Kalimantan Tengah 73814","Kec. Teweh Tengah, Kabupaten Barito Utara",KALIMANTAN TENGAH,73814.0,Indonesia,,,,-0.95296,114.8993342,https://maps.google.com/?cid=0x0:0x70402076c37a0162,
restaurant,restaurant,Kalimantan Tengah 73814,"Kabupaten Barito Utara, Kalimantan Tengah","Kabupaten Barito Utara, Kalimantan Tengah",KALIMANTAN TENGAH,,Indonesia,,,,-0.8914468,114.8092691,https://maps.google.com/?cid=0x0:0xb5548f39346751af,
restaurant,Kedai Kopi,Sky Cafe,"Jl. Negara No.km 1, Jingah, Kec. Teweh Baru, Kabupaten Barito Utara, Kalimantan Tengah 73814","Jingah, Kec. Teweh Baru, Kabupaten Barito Utara",KALIMANTAN TENGAH,73814.0,Indonesia,85393649914.0,,,-0.9706366,114.8864298,https://maps.google.com/?cid=0x0:0x79f133e4f8b615c6,
restaurant,Restoran,"Rumah Makan Pondok Stadion, Muara Teweh","2VVW+QCW, Jl. Ahmad Yani, Melayu, Kec. Teweh Tengah, Kabupaten Barito Utara, Kalimantan Tengah 73814","Jl. Ahmad Yani, Melayu, Kec. Teweh Tengah, Kabupaten Barito Utara",KALIMANTAN TENGAH,73814.0,Indonesia,,,,-0.9555141,114.8960736,https://maps.google.com/?cid=0x0:0xf8e93e75c512b29,
restaurant,Restoran,"Cafe Tarera, Muara Teweh","3V4W+64W, Lanjas, Kec. Teweh Tengah, Kabupaten Barito Utara, Kalimantan Tengah 73814","Lanjas, Kec. Teweh Tengah, Kabupaten Barito Utara",KALIMANTAN TENGAH,73814.0,Indonesia,81351980533.0,,,-0.9443919,114.8953284,https://maps.google.com/?cid=0x0:0x53cec34a1f33c002,
restaurant,Ikan Bakar,"Warung Makan Cepu 88 (Lalapan  Penyetan), Muara Teweh","Lanjas, Kec. Teweh Tengah, Kabupaten Barito Utara, Kalimantan Tengah 73814","Kec. Teweh Tengah, Kabupaten Barito Utara",KALIMANTAN TENGAH,73814.0,Indonesia,,,,-0.9551707,114.8950357,https://maps.google.com/?cid=0x0:0xb51038e17fc3df2c,
restaurant,Kafe,Ps Cafe  Resto,"Jl. Pramuka, Lanjas, Kec. Teweh Tengah, Kabupaten Barito Utara, Kalimantan Tengah 73814","Lanjas, Kec. Teweh Tengah, Kabupaten Barito Utara",KALIMANTAN TENGAH,73814.0,Indonesia,81289502305.0,,,-0.94636,114.8977386,https://maps.google.com/?cid=0x0:0x1167b90d45d90702,
restaurant,Restoran,Pondok Bambu BANAMA,"Jingah, Kec. Teweh Baru, Kabupaten Barito Utara, Kalimantan Tengah 73814","Kec. Teweh Baru, Kabupaten Barito Utara",KALIMANTAN TENGAH,73814.0,Indonesia,81351277583.0,,,-0.9705238,114.8858816,https://maps.google.com/?cid=0x0:0x72ab4c5219b413fe,
restaurant,Rumah Makan,Cafe Serasa,"Jl. Rapen, Lanjas, Kec. Teweh Tengah, Kabupaten Barito Utara, Kalimantan Tengah 73814","Lanjas, Kec. Teweh Tengah, Kabupaten Barito Utara",KALIMANTAN TENGAH,73814.0,Indonesia,81263391803.0,,,-0.9531146,114.8848959,https://maps.google.com/?cid=0x0:0x2cd1c0066a87955,
restaurant,Restoran,"RM Wayang Pelangi, Muara Teweh","2VHP+QFP, Jl. Lintas Kalimantan Poros Tengah, Jingah, Kec. Teweh Tengah, Kabupaten Barito Utara, Kalimantan Tengah 73814","Jl. Lintas Kalimantan Poros Tengah, Jingah, Kec. Teweh Tengah, Kabupaten Barito Utara",KALIMANTAN TENGAH,73814.0,Indonesia,,,,-0.9705381,114.8862092,https://maps.google.com/?cid=0x0:0x1af77a325742c69,
restaurant,Bar >>u0026 Grill,KEDAI BETTA KOREAN JAPAN FOOD,"Lanjas, Kec. Teweh Tengah, Kabupaten Barito Utara, Kalimantan Tengah 73814","Kec. Teweh Tengah, Kabupaten Barito Utara",KALIMANTAN TENGAH,73814.0,Indonesia,82154976894.0,,,-0.960033,114.883481,https://maps.google.com/?cid=0x0:0x5d77f6d51520f994,
restaurant,Rumah Makan,Thira Cafe,"3V5W+C6C, Jl. Pendreh, Melayu, Kec. Teweh Tengah, Kabupaten Barito Utara, Kalimantan Tengah 73814","Jl. Pendreh, Melayu, Kec. Teweh Tengah, Kabupaten Barito Utara",KALIMANTAN TENGAH,73814.0,Indonesia,,,,-0.9414261,114.8955154,https://maps.google.com/?cid=0x0:0x47dd9c711a295cae,
restaurant,Restoran,TALA COFFEE AND EATERY,"2VWP+H5, Lanjas, Kec. Teweh Tengah, Kabupaten Barito Utara, Kalimantan Tengah","Kabupaten Barito Utara, Kalimantan Tengah",KALIMANTAN TENGAH,,Indonesia,,,,-0.9535925,114.8854631,https://maps.google.com/?cid=0x0:0x4b74965aec5eef7e,
restaurant,Padang,"Rumah Makan Bagadang (Masakan Padang), Muara Teweh","2VVW+28G, Jl. Lintas Kalimantan Poros Tengah, Lanjas, Kec. Teweh Tengah, Kabupaten Barito Utara, Kalimantan Tengah 73814","Jl. Lintas Kalimantan Poros Tengah, Lanjas, Kec. Teweh Tengah, Kabupaten Barito Utara",KALIMANTAN TENGAH,73814.0,Indonesia,81348355880.0,,,-0.9574372,114.8958157,https://maps.google.com/?cid=0x0:0x3672e1275a4455ee,
restaurant,Padang,"Rumah Makan Lintau Indah (Masakan Padang), Muara Teweh","3V2X+6J6, Lanjas, Kec. Teweh Tengah, Kabupaten Barito Utara, Kalimantan Tengah 73814","Lanjas, Kec. Teweh Tengah, Kabupaten Barito Utara",KALIMANTAN TENGAH,73814.0,Indonesia,51921721.0,,,-0.9494589,114.8990278,https://maps.google.com/?cid=0x0:0xe98159825bc934b5,
restaurant,Restoran,Warung Makan Banjar,"3V3X+M9G, Jl. Pramuka, Melayu, Kec. Teweh Tengah, Kabupaten Barito Utara, Kalimantan Tengah 73814","Jl. Pramuka, Melayu, Kec. Teweh Tengah, Kabupaten Barito Utara",KALIMANTAN TENGAH,73814.0,Indonesia,,,,-0.9458247,114.898465,https://maps.google.com/?cid=0x0:0x80a8134bc4680050,
restaurant,Rumah Makan,RM.Abang Halil,"3V3X+H7C, Jl. Pramuka, Melayu, Kec. Teweh Tengah, Kabupaten Barito Utara, Kalimantan Tengah 73814","Jl. Pramuka, Melayu, Kec. Teweh Tengah, Kabupaten Barito Utara",KALIMANTAN TENGAH,73814.0,Indonesia,82150841783.0,,,-0.9460583,114.8981376,https://maps.google.com/?cid=0x0:0x9d62f54c3fa91df8,
restaurant,Indonesia,Rumah Makan Sabar Menanti,"3V2X+5PQ, Jl. Lintas Kalimantan Poros Tengah, Melayu, Kec. Teweh Tengah, Kabupaten Barito Utara, Kalimantan Tengah 73814","Jl. Lintas Kalimantan Poros Tengah, Melayu, Kec. Teweh Tengah, Kabupaten Barito Utara",KALIMANTAN TENGAH,73814.0,Indonesia,85248504427.0,,,-0.9495277,114.8993554,https://maps.google.com/?cid=0x0:0x851c540abb162e21,
restaurant,Restoran,Rumah Makan B2 RW  Beer House,"3V6H+Q5G, Unnamed Road, Lanjas, Kec. Teweh Tengah, Kabupaten Barito Utara, Kalimantan Tengah 73814","Unnamed Road, Lanjas, Kec. Teweh Tengah, Kabupaten Barito Utara",KALIMANTAN TENGAH,73814.0,Indonesia,85285295201.0,,,-0.9380553,114.8779512,https://maps.google.com/?cid=0x0:0xe54259a4b3275d89,
restaurant,Padang,"Rumah Makan Barito Jempol (Masakan Padang), Muara Teweh","2WQ4+V2C, Melayu, Kec. Teweh Tengah, Kabupaten Barito Utara, Kalimantan Tengah 73814","Melayu, Kec. Teweh Tengah, Kabupaten Barito Utara",KALIMANTAN TENGAH,73814.0,Indonesia,,,,-0.9603178,114.9050048,https://maps.google.com/?cid=0x0:0x17fad895052746d,
restaurant,Makanan Kecil,Warung Bang RONNY,"3W23+C86, Jl. Pertiwi, Melayu, Kec. Teweh Tengah, Kabupaten Barito Utara, Kalimantan Tengah 73814","Jl. Pertiwi, Melayu, Kec. Teweh Tengah, Kabupaten Barito Utara",KALIMANTAN TENGAH,73814.0,Indonesia,82350915318.0,,,-0.9489515,114.9032766,https://maps.google.com/?cid=0x0:0xb392dca4eb0f262c,
restaurant,Restoran,Warung Bang Kumis,"Jl. Pramuka No.23, Lanjas, Kec. Teweh Tengah, Kabupaten Barito Utara, Kalimantan Tengah 73814","Lanjas, Kec. Teweh Tengah, Kabupaten Barito Utara",KALIMANTAN TENGAH,73814.0,Indonesia,,,,-0.9532707,114.8934654,https://maps.google.com/?cid=0x0:0x3f871bd14c282c22,
restaurant,Nasi Goreng,"Rumah Makan Nasi Goreng Stadion, Muara Teweh","Jl. Stadion Swakarya No.123, Lanjas, Kec. Teweh Tengah, Kabupaten Barito Utara, Kalimantan Tengah 73814","Lanjas, Kec. Teweh Tengah, Kabupaten Barito Utara",KALIMANTAN TENGAH,73814.0,Indonesia,,,,-0.9564565,114.8940449,https://maps.google.com/?cid=0x0:0x4a57ada29c3ebac1,
restaurant,Restoran,Warung Makan Adem Ayem,"3V6R+QX3, Jl. Pendreh, Melayu, Kec. Teweh Tengah, Kabupaten Barito Utara, Kalimantan Tengah 73814","Jl. Pendreh, Melayu, Kec. Teweh Tengah, Kabupaten Barito Utara",KALIMANTAN TENGAH,73814.0,Indonesia,,,,-0.9381025,114.8924285,https://maps.google.com/?cid=0x0:0xbe9a38e56c45b798,
restaurant,Kedai Kopi,"Jakarta Coffee and Space, Muara Teweh","Jalan Taman Rekreasi Remaja, Lanjas, Kec. Teweh Tengah, Kabupaten Barito Utara, Kalimantan Tengah 73812","Lanjas, Kec. Teweh Tengah, Kabupaten Barito Utara",KALIMANTAN TENGAH,73812.0,Indonesia,82352301911.0,,,-0.9445481,114.8956042,https://maps.google.com/?cid=0x0:0x639505783a809af7,
restaurant,restaurant,Kalimantan Tengah 73881,"Kabupaten Barito Utara, Kalimantan Tengah","Kabupaten Barito Utara, Kalimantan Tengah",KALIMANTAN TENGAH,,Indonesia,,,,-1.0257651,115.3785719,https://maps.google.com/?cid=0x0:0x8bd4f30ba12eadec,
restaurant,Nasi,itm,"4CCG+H4J, Benangin 5, Kec. Teweh Tim., Kabupaten Barito Utara, Kalimantan Tengah 73881","Benangin 5, Kec. Teweh Tim., Kabupaten Barito Utara",KALIMANTAN TENGAH,73881.0,Indonesia,,,,-0.8785449,115.4252709,https://maps.google.com/?cid=0x0:0xa93ce5e6494f67a0,
restaurant,Perhimpunan Pengembang Perumahan,Simpang Lampanang (Mtw-Kubar),"39XF+XV, Benangin 5, Kec. Teweh Tim., Kabupaten Barito Utara, Kalimantan Tengah","Kabupaten Barito Utara, Kalimantan Tengah",KALIMANTAN TENGAH,,Indonesia,,,,-0.9000319,115.3746391,https://maps.google.com/?cid=0x0:0xe5f76d12003d89a6,
restaurant,Restoran,"Rumah Makan Pondok Stadion, Muara Teweh","2VVW+QCW, Jl. Ahmad Yani, Melayu, Kec. Teweh Tengah, Kabupaten Barito Utara, Kalimantan Tengah 73814","Jl. Ahmad Yani, Melayu, Kec. Teweh Tengah, Kabupaten Barito Utara",KALIMANTAN TENGAH,73814.0,Indonesia,,,,-0.9555141,114.8960736,https://maps.google.com/?cid=0x0:0xf8e93e75c512b29,
restaurant,Restoran,Rumah Berie Atmajaya,"W476+Q8, Sikui, Kec. Teweh Baru, Kabupaten Barito Utara, Kalimantan Tengah","Kabupaten Barito Utara, Kalimantan Tengah",KALIMANTAN TENGAH,,Indonesia,,,,-1.0855779,115.1108161,https://maps.google.com/?cid=0x0:0x35f85f80db7be832,
restaurant,Indonesia,Depot bakso(ALTAZA),"jalan 76, Benangin I, Kec. Teweh Tim., Muara tewe, Kalimantan Tengah 73881","Benangin I, Kec. Teweh Tim., Muara tewe",KALIMANTAN TENGAH,73881.0,Indonesia,81351503133.0,,,-0.9936725,115.3709255,https://maps.google.com/?cid=0x0:0xf87d22d5587b68aa,
restaurant,Klub Malam,Cafe  Studio Arepa,"V8QG+27V, Mampuak II, Kec. Teweh Tim., Kabupaten Barito Utara, Kalimantan Tengah 73881","Mampuak II, Kec. Teweh Tim., Kabupaten Barito Utara",KALIMANTAN TENGAH,73881.0,Indonesia,,,,-1.1123934,115.3256693,https://maps.google.com/?cid=0x0:0x71e225cc16eece9e,
restaurant,Restoran,"Cafe Tarera, Muara Teweh","3V4W+64W, Lanjas, Kec. Teweh Tengah, Kabupaten Barito Utara, Kalimantan Tengah 73814","Lanjas, Kec. Teweh Tengah, Kabupaten Barito Utara",KALIMANTAN TENGAH,73814.0,Indonesia,81351980533.0,,,-0.9443919,114.8953284,https://maps.google.com/?cid=0x0:0x53cec34a1f33c002,
restaurant,Toko bahan makanan,Toko.FaizFajar,"PCX2+9W2, Batu Raya I, Kec. Gn. Timang, Kabupaten Barito Utara, Kalimantan Tengah 73862","Batu Raya I, Kec. Gn. Timang, Kabupaten Barito Utara",KALIMANTAN TENGAH,73862.0,Indonesia,81545372282.0,,,-1.2516069,115.4022706,https://maps.google.com/?cid=0x0:0xf8131ec14d270b32,
restaurant,Kafe,Ps Cafe  Resto,"Jl. Pramuka, Lanjas, Kec. Teweh Tengah, Kabupaten Barito Utara, Kalimantan Tengah 73814","Lanjas, Kec. Teweh Tengah, Kabupaten Barito Utara",KALIMANTAN TENGAH,73814.0,Indonesia,81289502305.0,,,-0.94636,114.8977386,https://maps.google.com/?cid=0x0:0x1167b90d45d90702,
restaurant,restaurant,"RM JATIM, Sikui KM.28","KM.28, Sikui","Kabupaten Barito Utara, Kalimantan Tengah",KALIMANTAN TENGAH,,Indonesia,,,,-1.0795373,115.0970224,https://maps.google.com/?cid=0x0:0xf069e49e8f917746,
restaurant,Padang,"Rumah Makan Bofet Saiyo (Masakan Padang), Muara Teweh","Jl. Pramuka, Lanjas, Kec. Teweh Tengah, Kabupaten Barito Utara, Kalimantan Tengah 73812","Lanjas, Kec. Teweh Tengah, Kabupaten Barito Utara",KALIMANTAN TENGAH,73812.0,Indonesia,81347373727.0,,,-0.9524036,114.8935737,https://maps.google.com/?cid=0x0:0xa7a6faa6d97c7171,
restaurant,Padang,Sembako dan Kuliner,"Jl.Poros simpang, Mampuak II, Kec. Teweh Tim., Kabupaten Barito Utara, Kalimantan Tengah 73881","Mampuak II, Kec. Teweh Tim., Kabupaten Barito Utara",KALIMANTAN TENGAH,73881.0,Indonesia,81255820567.0,,,-1.1033364,115.3288015,https://maps.google.com/?cid=0x0:0x5f55c6e36fe98b1a,
restaurant,Rumah Makan,Cafe Serasa,"Jl. Rapen, Lanjas, Kec. Teweh Tengah, Kabupaten Barito Utara, Kalimantan Tengah 73814","Lanjas, Kec. Teweh Tengah, Kabupaten Barito Utara",KALIMANTAN TENGAH,73814.0,Indonesia,81263391803.0,,,-0.9531146,114.8848959,https://maps.google.com/?cid=0x0:0x2cd1c0066a87955,
restaurant,Makanan Kecil,Warung Bang RONNY,"3W23+C86, Jl. Pertiwi, Melayu, Kec. Teweh Tengah, Kabupaten Barito Utara, Kalimantan Tengah 73814","Jl. Pertiwi, Melayu, Kec. Teweh Tengah, Kabupaten Barito Utara",KALIMANTAN TENGAH,73814.0,Indonesia,82350915318.0,,,-0.9489515,114.9032766,https://maps.google.com/?cid=0x0:0xb392dca4eb0f262c,
restaurant,Kafe,Blokpasir caffe,"V8R8+H9, Mampuak II, Kec. Teweh Tim., Kabupaten Barito Utara, Kalimantan Tengah","Kabupaten Barito Utara, Kalimantan Tengah",KALIMANTAN TENGAH,,Indonesia,,,,-1.1085341,115.3159067,https://maps.google.com/?cid=0x0:0x35cbcd8458e487f1,
restaurant,Restoran,Warung Makan Oktapadia,"Benangin 5, Kec. Teweh Tim., Kabupaten Barito Utara, Kalimantan Tengah","Kabupaten Barito Utara, Kalimantan Tengah",KALIMANTAN TENGAH,,Indonesia,,,,-0.9935818,115.3706631,https://maps.google.com/?cid=0x0:0x85f4de453a3926db,
restaurant,Restoran,Warung Makan Adem Ayem,"3V6R+QX3, Jl. Pendreh, Melayu, Kec. Teweh Tengah, Kabupaten Barito Utara, Kalimantan Tengah 73814","Jl. Pendreh, Melayu, Kec. Teweh Tengah, Kabupaten Barito Utara",KALIMANTAN TENGAH,73814.0,Indonesia,,,,-0.9381025,114.8924285,https://maps.google.com/?cid=0x0:0xbe9a38e56c45b798,
restaurant,restaurant,Warung Makan KEDAI 28,"Jl.negara No.km 28, RT.03, Sikui, Kec. Teweh Baru, Kabupaten Barito Utara, Kalimantan Tengah","Kabupaten Barito Utara, Kalimantan Tengah",KALIMANTAN TENGAH,,Indonesia,82255477166.0,,,-1.1063517,115.1059054,https://maps.google.com/?cid=0x0:0x930399e3a3ba6d27,
restaurant,Brunch,WARUNG AZMI(mama ainun),"V9J4+6GC, Mampuak I, Kec. Teweh Tim., Kabupaten Barito Utara, Kalimantan Tengah 73881","Mampuak I, Kec. Teweh Tim., Kabupaten Barito Utara",KALIMANTAN TENGAH,73881.0,Indonesia,,,,-1.1194352,115.3562505,https://maps.google.com/?cid=0x0:0x7396081314e7c5dc,
restaurant,Bar Karaoke,HOLYWISH CAFE  KARAOKE,"Jl. Rapen, Lingkar Kota, Kec. Teweh Tengah, Kabupaten Barito Utara, Kalimantan Tengah 73812","Lingkar Kota, Kec. Teweh Tengah, Kabupaten Barito Utara",KALIMANTAN TENGAH,73812.0,Indonesia,82154263309.0,,,-0.9444526,114.8845602,https://maps.google.com/?cid=0x0:0x709a7bebf4f582f1,
restaurant,restaurant,Kec. Tewen Selatan,"Kabupaten Barito Utara, Kalimantan Tengah","Kabupaten Barito Utara, Kalimantan Tengah",KALIMANTAN TENGAH,,Indonesia,,,,-1.0409446,114.8984173,https://maps.google.com/?cid=0x0:0x9c139c9a4035a708,
restaurant,Kedai Kopi,Sky Cafe,"Jl. Negara No.km 1, Jingah, Kec. Teweh Baru, Kabupaten Barito Utara, Kalimantan Tengah 73814","Jingah, Kec. Teweh Baru, Kabupaten Barito Utara",KALIMANTAN TENGAH,73814.0,Indonesia,85393649914.0,,,-0.9706366,114.8864298,https://maps.google.com/?cid=0x0:0x79f133e4f8b615c6,
restaurant,Restoran,"Rumah Makan Pondok Stadion, Muara Teweh","2VVW+QCW, Jl. Ahmad Yani, Melayu, Kec. Teweh Tengah, Kabupaten Barito Utara, Kalimantan Tengah 73814","Jl. Ahmad Yani, Melayu, Kec. Teweh Tengah, Kabupaten Barito Utara",KALIMANTAN TENGAH,73814.0,Indonesia,,,,-0.9555141,114.8960736,https://maps.google.com/?cid=0x0:0xf8e93e75c512b29,
restaurant,Restoran,"RM Wayang Pelangi, Muara Teweh","2VHP+QFP, Jl. Lintas Kalimantan Poros Tengah, Jingah, Kec. Teweh Tengah, Kabupaten Barito Utara, Kalimantan Tengah 73814","Jl. Lintas Kalimantan Poros Tengah, Jingah, Kec. Teweh Tengah, Kabupaten Barito Utara",KALIMANTAN TENGAH,73814.0,Indonesia,,,,-0.9705381,114.8862092,https://maps.google.com/?cid=0x0:0x1af77a325742c69,
restaurant,Soto Ayam,RM. Soto Semarang,"2VCG+8RH, Jingah, Kec. Teweh Tengah, Kabupaten Barito Utara, Kalimantan Tengah 73814","Jingah, Kec. Teweh Tengah, Kabupaten Barito Utara",KALIMANTAN TENGAH,73814.0,Indonesia,,,,-0.979199,114.877116,https://maps.google.com/?cid=0x0:0x66d9d7d58285f830,
restaurant,Restoran,TALA COFFEE AND EATERY,"2VWP+H5, Lanjas, Kec. Teweh Tengah, Kabupaten Barito Utara, Kalimantan Tengah","Kabupaten Barito Utara, Kalimantan Tengah",KALIMANTAN TENGAH,,Indonesia,,,,-0.9535925,114.8854631,https://maps.google.com/?cid=0x0:0x4b74965aec5eef7e,
restaurant,Ikan Bakar,"Warung Makan Cepu 88 (Lalapan  Penyetan), Muara Teweh","Lanjas, Kec. Teweh Tengah, Kabupaten Barito Utara, Kalimantan Tengah 73814","Kec. Teweh Tengah, Kabupaten Barito Utara",KALIMANTAN TENGAH,73814.0,Indonesia,,,,-0.9551707,114.8950357,https://maps.google.com/?cid=0x0:0xb51038e17fc3df2c,
restaurant,Nasi,Warung Seafood Simpang Gestrek,"2VCV+3GR, Jalan, Jingah, Central Teweh, North Barito Regency, Central Kalimantan 73814","Jalan, Jingah, Central Teweh, North Barito Regency",KALIMANTAN TENGAH,73814.0,Indonesia,82157747357.0,,,-0.9797688,114.893765,https://maps.google.com/?cid=0x0:0xdea2dcadad30bb65,
restaurant,Pujasera,Warung Latik-Latik,"2VQR+G95, Lanjas, Kec. Teweh Tengah, Kabupaten Barito Utara, Kalimantan Tengah 73814","Lanjas, Kec. Teweh Tengah, Kabupaten Barito Utara",KALIMANTAN TENGAH,73814.0,Indonesia,8125186733.0,,,-0.9612489,114.8909691,https://maps.google.com/?cid=0x0:0xaac47b2dba2e99d1,
restaurant,Hidangan Laut,"Rumah Makan Asyifa (Aneka Bakaran, Lalapan  Sambal), Muara Teweh","2VXV+FM5, Jl. Pramuka, Lanjas, Kec. Teweh Tengah, Kabupaten Barito Utara, Kalimantan Tengah 73814","Jl. Pramuka, Lanjas, Kec. Teweh Tengah, Kabupaten Barito Utara",KALIMANTAN TENGAH,73814.0,Indonesia,81253098340.0,,,-0.951375,114.8942326,https://maps.google.com/?cid=0x0:0x667a4317a6900a08,
restaurant,Rumah Makan,Cafe Serasa,"Jl. Rapen, Lanjas, Kec. Teweh Tengah, Kabupaten Barito Utara, Kalimantan Tengah 73814","Lanjas, Kec. Teweh Tengah, Kabupaten Barito Utara",KALIMANTAN TENGAH,73814.0,Indonesia,81263391803.0,,,-0.9531146,114.8848959,https://maps.google.com/?cid=0x0:0x2cd1c0066a87955,
restaurant,Kafe,Ps Cafe  Resto,"Jl. Pramuka, Lanjas, Kec. Teweh Tengah, Kabupaten Barito Utara, Kalimantan Tengah 73814","Lanjas, Kec. Teweh Tengah, Kabupaten Barito Utara",KALIMANTAN TENGAH,73814.0,Indonesia,81289502305.0,,,-0.94636,114.8977386,https://maps.google.com/?cid=0x0:0x1167b90d45d90702,
restaurant,Bar >>u0026 Grill,KEDAI BETTA KOREAN JAPAN FOOD,"Lanjas, Kec. Teweh Tengah, Kabupaten Barito Utara, Kalimantan Tengah 73814","Kec. Teweh Tengah, Kabupaten Barito Utara",KALIMANTAN TENGAH,73814.0,Indonesia,82154976894.0,,,-0.960033,114.883481,https://maps.google.com/?cid=0x0:0x5d77f6d51520f994,
restaurant,Padang,"Rumah Makan Bagadang (Masakan Padang), Muara Teweh","2VVW+28G, Jl. Lintas Kalimantan Poros Tengah, Lanjas, Kec. Teweh Tengah, Kabupaten Barito Utara, Kalimantan Tengah 73814","Jl. Lintas Kalimantan Poros Tengah, Lanjas, Kec. Teweh Tengah, Kabupaten Barito Utara",KALIMANTAN TENGAH,73814.0,Indonesia,81348355880.0,,,-0.9574372,114.8958157,https://maps.google.com/?cid=0x0:0x3672e1275a4455ee,
restaurant,Restoran,Fast Food Restaurant,"2VCW+QGF, Jalan, Jingah, Central Teweh, North Barito Regency, Central Kalimantan 73814","Jalan, Jingah, Central Teweh, North Barito Regency",KALIMANTAN TENGAH,73814.0,Indonesia,,,,-0.9780737,114.8963101,https://maps.google.com/?cid=0x0:0xd54f7677a9dfaa9,
restaurant,Padang,"Rumah Makan Barito Jempol (Masakan Padang), Muara Teweh","2WQ4+V2C, Melayu, Kec. Teweh Tengah, Kabupaten Barito Utara, Kalimantan Tengah 73814","Melayu, Kec. Teweh Tengah, Kabupaten Barito Utara",KALIMANTAN TENGAH,73814.0,Indonesia,,,,-0.9603178,114.9050048,https://maps.google.com/?cid=0x0:0x17fad895052746d,
restaurant,Nasi Goreng,"Rumah Makan Nasi Goreng Stadion, Muara Teweh","Jl. Stadion Swakarya No.123, Lanjas, Kec. Teweh Tengah, Kabupaten Barito Utara, Kalimantan Tengah 73814","Lanjas, Kec. Teweh Tengah, Kabupaten Barito Utara",KALIMANTAN TENGAH,73814.0,Indonesia,,,,-0.9564565,114.8940449,https://maps.google.com/?cid=0x0:0x4a57ada29c3ebac1,
restaurant,Restoran,RM. BATARA KUIN,"Jl. Ahmad Yani, Lanjas, Kec. Teweh Tengah, Kabupaten Barito Utara, Kalimantan Tengah 73814","Lanjas, Kec. Teweh Tengah, Kabupaten Barito Utara",KALIMANTAN TENGAH,73814.0,Indonesia,81258895878.0,,,-0.9603893,114.9049005,https://maps.google.com/?cid=0x0:0x454503489fbb58ca,
restaurant,Restoran,RM KAGANANGAN,"2VJM+HV8, Jl. Lintas Kalimantan Poros Tengah, Jingah, Kec. Teweh Tengah, Kabupaten Barito Utara, Kalimantan Tengah 73814","Jl. Lintas Kalimantan Poros Tengah, Jingah, Kec. Teweh Tengah, Kabupaten Barito Utara",KALIMANTAN TENGAH,73814.0,Indonesia,82256831979.0,,,-0.9685851,114.8847148,https://maps.google.com/?cid=0x0:0xfb6871efa5910801,
restaurant,Nasi Goreng,"Nasi Itik Gambut, Teweh","2VQW+XQ5, Jl. Ahmad Yani, Lanjas, Kec. Teweh Tengah, Kabupaten Barito Utara, Kalimantan Tengah 73814","Jl. Ahmad Yani, Lanjas, Kec. Teweh Tengah, Kabupaten Barito Utara",KALIMANTAN TENGAH,73814.0,Indonesia,85349141616.0,,,-0.9601152,114.8969948,https://maps.google.com/?cid=0x0:0x573a35f7d1db956b,
restaurant,Restoran,Pondok Bambu Wayang Pelangi,"Jl. Lintas Kalimantan Poros Tengah, Jingah, Kec. Teweh Tengah, Kabupaten Barito Utara, Kalimantan Tengah 73814","Jingah, Kec. Teweh Tengah, Kabupaten Barito Utara",KALIMANTAN TENGAH,73814.0,Indonesia,82358887529.0,,,-0.9705431,114.8861995,https://maps.google.com/?cid=0x0:0x44ad7b1868668407,
restaurant,Restoran,RM. LA.INDAH,"Jl. Yetro Sinseng, Lanjas, Kec. Teweh Tengah, Kabupaten Barito Utara, Kalimantan Tengah 73814","Lanjas, Kec. Teweh Tengah, Kabupaten Barito Utara",KALIMANTAN TENGAH,73814.0,Indonesia,81336160006.0,,,-0.9615658,114.8910139,https://maps.google.com/?cid=0x0:0x3490448df8a5b6c8,
restaurant,Restoran,Depot Aulia,"2VCV+5JQ, Jalan, Jingah, Central Teweh, North Barito Regency, Central Kalimantan 73814","Jalan, Jingah, Central Teweh, North Barito Regency",KALIMANTAN TENGAH,73814.0,Indonesia,,,,-0.9795438,114.8941079,https://maps.google.com/?cid=0x0:0xbe5022e0e3093e77,
restaurant,Hidangan Laut,Sea Food Mas Broo,"jl.negara km7,, Jingah, Kec. Teweh Tengah, Kabupaten Barito Utara, Kalimantan Tengah 73814","Jingah, Kec. Teweh Tengah, Kabupaten Barito Utara",KALIMANTAN TENGAH,73814.0,Indonesia,81255511776.0,,,-0.9751354,114.896256,https://maps.google.com/?cid=0x0:0xe771abcfe85359c9,
restaurant,Ayam,Sonic Chicken Muara Teweh,"2VRX+9J4, Jl. Rajawali Samping SMAN 1, Melayu, Kec. Teweh Tengah, Kabupaten Barito Utara, Kalimantan Tengah 73814","Jl. Rajawali Samping SMAN 1, Melayu, Kec. Teweh Tengah, Kabupaten Barito Utara",KALIMANTAN TENGAH,73814.0,Indonesia,82357575244.0,,,-0.9591199,114.8990636,https://maps.google.com/?cid=0x0:0xc59a29816097efac,
restaurant,Kafe,Warung Bakaran mama Yeyen BTN,"Jln kuptu Marlan RT 03, Bintang Ninggi I, Kec. Teweh selatan, Kabupaten Barito Utara, Kalimantan Tengah 73814","Bintang Ninggi I, Kec. Teweh selatan, Kabupaten Barito Utara",KALIMANTAN TENGAH,73814.0,Indonesia,,,,-1.0592125,114.8586283,https://maps.google.com/?cid=0x0:0x1f3a17c48dea97cf,
restaurant,restaurant,Kalimantan Tengah 73811,"Juju Baru, Kec. Lahei, Kabupaten Barito Utara, Kalimantan Tengah","Kabupaten Barito Utara, Kalimantan Tengah",KALIMANTAN TENGAH,,Indonesia,,,,-0.8295559,114.9872821,https://maps.google.com/?cid=0x0:0x483ad48a5b01a50d,
restaurant,Restoran,TALA COFFEE AND EATERY,"2VWP+H5, Lanjas, Kec. Teweh Tengah, Kabupaten Barito Utara, Kalimantan Tengah","Kabupaten Barito Utara, Kalimantan Tengah",KALIMANTAN TENGAH,,Indonesia,,,,-0.9535925,114.8854631,https://maps.google.com/?cid=0x0:0x4b74965aec5eef7e,
restaurant,Restoran,"Rumah Makan Pondok Stadion, Muara Teweh","2VVW+QCW, Jl. Ahmad Yani, Melayu, Kec. Teweh Tengah, Kabupaten Barito Utara, Kalimantan Tengah 73814","Jl. Ahmad Yani, Melayu, Kec. Teweh Tengah, Kabupaten Barito Utara",KALIMANTAN TENGAH,73814.0,Indonesia,,,,-0.9555141,114.8960736,https://maps.google.com/?cid=0x0:0xf8e93e75c512b29,
restaurant,Ikan Bakar,"Warung Makan Cepu 88 (Lalapan  Penyetan), Muara Teweh","Lanjas, Kec. Teweh Tengah, Kabupaten Barito Utara, Kalimantan Tengah 73814","Kec. Teweh Tengah, Kabupaten Barito Utara",KALIMANTAN TENGAH,73814.0,Indonesia,,,,-0.9551707,114.8950357,https://maps.google.com/?cid=0x0:0xb51038e17fc3df2c,
restaurant,Kedai Kopi,"Jakarta Coffee and Space, Muara Teweh","Jalan Taman Rekreasi Remaja, Lanjas, Kec. Teweh Tengah, Kabupaten Barito Utara, Kalimantan Tengah 73812","Lanjas, Kec. Teweh Tengah, Kabupaten Barito Utara",KALIMANTAN TENGAH,73812.0,Indonesia,82352301911.0,,,-0.9445481,114.8956042,https://maps.google.com/?cid=0x0:0x639505783a809af7,
restaurant,Bar Karaoke,HOLYWISH CAFE  KARAOKE,"Jl. Rapen, Lingkar Kota, Kec. Teweh Tengah, Kabupaten Barito Utara, Kalimantan Tengah 73812","Lingkar Kota, Kec. Teweh Tengah, Kabupaten Barito Utara",KALIMANTAN TENGAH,73812.0,Indonesia,82154263309.0,,,-0.9444526,114.8845602,https://maps.google.com/?cid=0x0:0x709a7bebf4f582f1,
restaurant,Rumah Makan,Cafe Serasa,"Jl. Rapen, Lanjas, Kec. Teweh Tengah, Kabupaten Barito Utara, Kalimantan Tengah 73814","Lanjas, Kec. Teweh Tengah, Kabupaten Barito Utara",KALIMANTAN TENGAH,73814.0,Indonesia,81263391803.0,,,-0.9531146,114.8848959,https://maps.google.com/?cid=0x0:0x2cd1c0066a87955,
restaurant,Restoran,Warung Makan Adem Ayem,"3V6R+QX3, Jl. Pendreh, Melayu, Kec. Teweh Tengah, Kabupaten Barito Utara, Kalimantan Tengah 73814","Jl. Pendreh, Melayu, Kec. Teweh Tengah, Kabupaten Barito Utara",KALIMANTAN TENGAH,73814.0,Indonesia,,,,-0.9381025,114.8924285,https://maps.google.com/?cid=0x0:0xbe9a38e56c45b798,
restaurant,Padang,"Rumah Makan Lintau Indah (Masakan Padang), Muara Teweh","3V2X+6J6, Lanjas, Kec. Teweh Tengah, Kabupaten Barito Utara, Kalimantan Tengah 73814","Lanjas, Kec. Teweh Tengah, Kabupaten Barito Utara",KALIMANTAN TENGAH,73814.0,Indonesia,51921721.0,,,-0.9494589,114.8990278,https://maps.google.com/?cid=0x0:0xe98159825bc934b5,
restaurant,Kedai Kopi,Lorong Tengah,"2VPQ+Q89, Lanjas, Kec. Teweh Tengah, Kabupaten Barito Utara, Kalimantan Tengah 73814","Lanjas, Kec. Teweh Tengah, Kabupaten Barito Utara",KALIMANTAN TENGAH,73814.0,Indonesia,,,,-0.9630757,114.8883533,https://maps.google.com/?cid=0x0:0xaf7bc34a0fc8fc92,
restaurant,Kedai Kopi,Kopi Itah,"Jl. Taman Remaja, Lanjas, Kec. Teweh Tengah, Kabupaten Barito Utara, Kalimantan Tengah 73811","Lanjas, Kec. Teweh Tengah, Kabupaten Barito Utara",KALIMANTAN TENGAH,73811.0,Indonesia,81347413342.0,,,-0.9438474,114.8914641,https://maps.google.com/?cid=0x0:0x82efe99234d63c1e,
restaurant,Makanan Kecil,Warung Bang RONNY,"3W23+C86, Jl. Pertiwi, Melayu, Kec. Teweh Tengah, Kabupaten Barito Utara, Kalimantan Tengah 73814","Jl. Pertiwi, Melayu, Kec. Teweh Tengah, Kabupaten Barito Utara",KALIMANTAN TENGAH,73814.0,Indonesia,82350915318.0,,,-0.9489515,114.9032766,https://maps.google.com/?cid=0x0:0xb392dca4eb0f262c,
restaurant,Padang,"Rumah Makan Bofet Saiyo (Masakan Padang), Muara Teweh","Jl. Pramuka, Lanjas, Kec. Teweh Tengah, Kabupaten Barito Utara, Kalimantan Tengah 73812","Lanjas, Kec. Teweh Tengah, Kabupaten Barito Utara",KALIMANTAN TENGAH,73812.0,Indonesia,81347373727.0,,,-0.9524036,114.8935737,https://maps.google.com/?cid=0x0:0xa7a6faa6d97c7171,
restaurant,Nasi Goreng,"Nasi Itik Gambut, Teweh","2VQW+XQ5, Jl. Ahmad Yani, Lanjas, Kec. Teweh Tengah, Kabupaten Barito Utara, Kalimantan Tengah 73814","Jl. Ahmad Yani, Lanjas, Kec. Teweh Tengah, Kabupaten Barito Utara",KALIMANTAN TENGAH,73814.0,Indonesia,85349141616.0,,,-0.9601152,114.8969948,https://maps.google.com/?cid=0x0:0x573a35f7d1db956b,
restaurant,Padang,"Rumah Makan Bofet Saiyo (Masakan Padang), Muara Teweh","Jl. Pramuka, RT.26/RW.07, Lanjas, Kec. Teweh Tengah, Kabupaten Barito Utara, Kalimantan Tengah 73812","RT.26/RW.07, Lanjas, Kec. Teweh Tengah, Kabupaten Barito Utara",KALIMANTAN TENGAH,73812.0,Indonesia,,,,-0.9524556,114.8936657,https://maps.google.com/?cid=0x0:0x3f53a62a8aecb585,
restaurant,Hostel,Penginapan Barito,"Jl. Panglima Batur No.43, Melayu, Kec. Teweh Tengah, Kabupaten Barito Utara, Kalimantan Tengah 73811","Melayu, Kec. Teweh Tengah, Kabupaten Barito Utara",KALIMANTAN TENGAH,73811.0,Indonesia,82189295495.0,,,-0.9610592,114.9033008,https://maps.google.com/?cid=0x0:0xdcaf8dbebf27a08,
restaurant,Bakso,Bakso Urat Malang,"3V3X+MG4, Jl. Jend. Sudirman, Melayu, Kec. Teweh Tengah, Kabupaten Barito Utara, Kalimantan Tengah 73814","Jl. Jend. Sudirman, Melayu, Kec. Teweh Tengah, Kabupaten Barito Utara",KALIMANTAN TENGAH,73814.0,Indonesia,81349268529.0,,,-0.9458635,114.8988383,https://maps.google.com/?cid=0x0:0x33948df20010e78b,
restaurant,Sarapan,Lontong Sayur  Nasi Kuning,"Jl. Ahmad Yani No.143, Melayu, Kec. Teweh Tengah, Kabupaten Barito Utara, Kalimantan Tengah 73811","Melayu, Kec. Teweh Tengah, Kabupaten Barito Utara",KALIMANTAN TENGAH,73811.0,Indonesia,,,,-0.9495679,114.8990556,https://maps.google.com/?cid=0x0:0xf387136496eacdce,
restaurant,Tujuan Wisata,Water Front City Muara Teweh Kalimantan Tengah,"2WQ3+MQQ, Melayu, Kec. Teweh Tengah, Kabupaten Barito Utara, Kalimantan Tengah 73814","Melayu, Kec. Teweh Tengah, Kabupaten Barito Utara",KALIMANTAN TENGAH,73814.0,Indonesia,81251280888.0,,,-0.9607994,114.9044969,https://maps.google.com/?cid=0x0:0xa67419f15361deb9,
restaurant,Tujuan Wisata,"Bundaran Buah, Muara Teweh","2VVW+883, Jl. Ahmad Yani, Lanjas, Kec. Teweh Tengah, Kabupaten Barito Utara, Kalimantan Tengah 73814","Jl. Ahmad Yani, Lanjas, Kec. Teweh Tengah, Kabupaten Barito Utara",KALIMANTAN TENGAH,73814.0,Indonesia,85652422005.0,,,-0.9567287,114.8958098,https://maps.google.com/?cid=0x0:0x4d6310c738236a4,
restaurant,Hidangan Laut,"Rumah Makan Asyifa (Aneka Bakaran, Lalapan  Sambal), Muara Teweh","2VXV+FM5, Jl. Pramuka, Lanjas, Kec. Teweh Tengah, Kabupaten Barito Utara, Kalimantan Tengah 73814","Jl. Pramuka, Lanjas, Kec. Teweh Tengah, Kabupaten Barito Utara",KALIMANTAN TENGAH,73814.0,Indonesia,81253098340.0,,,-0.951375,114.8942326,https://maps.google.com/?cid=0x0:0x667a4317a6900a08,
restaurant,Kafe,Ps Cafe  Resto,"Jl. Pramuka, Lanjas, Kec. Teweh Tengah, Kabupaten Barito Utara, Kalimantan Tengah 73814","Lanjas, Kec. Teweh Tengah, Kabupaten Barito Utara",KALIMANTAN TENGAH,73814.0,Indonesia,81289502305.0,,,-0.94636,114.8977386,https://maps.google.com/?cid=0x0:0x1167b90d45d90702,
restaurant,Padang,"Rumah Makan Bagadang (Masakan Padang), Muara Teweh","2VVW+28G, Jl. Lintas Kalimantan Poros Tengah, Lanjas, Kec. Teweh Tengah, Kabupaten Barito Utara, Kalimantan Tengah 73814","Jl. Lintas Kalimantan Poros Tengah, Lanjas, Kec. Teweh Tengah, Kabupaten Barito Utara",KALIMANTAN TENGAH,73814.0,Indonesia,81348355880.0,,,-0.9574372,114.8958157,https://maps.google.com/?cid=0x0:0x3672e1275a4455ee,
restaurant,Kafe,Maynd,"2VQR+8XQ, Jl. Yetro Sinseng, Lanjas, Kec. Teweh Tengah, Kabupaten Barito Utara, Kalimantan Tengah 73814","Jl. Yetro Sinseng, Lanjas, Kec. Teweh Tengah, Kabupaten Barito Utara",KALIMANTAN TENGAH,73814.0,Indonesia,51921819.0,,,-0.9616636,114.8924808,https://maps.google.com/?cid=0x0:0x8ff93b004e93333,
restaurant,Padang,"Rumah Makan Barito Jempol (Masakan Padang), Muara Teweh","2WQ4+V2C, Melayu, Kec. Teweh Tengah, Kabupaten Barito Utara, Kalimantan Tengah 73814","Melayu, Kec. Teweh Tengah, Kabupaten Barito Utara",KALIMANTAN TENGAH,73814.0,Indonesia,,,,-0.9603178,114.9050048,https://maps.google.com/?cid=0x0:0x17fad895052746d,
restaurant,Restoran,RM. BATARA KUIN,"Jl. Ahmad Yani, Lanjas, Kec. Teweh Tengah, Kabupaten Barito Utara, Kalimantan Tengah 73814","Lanjas, Kec. Teweh Tengah, Kabupaten Barito Utara",KALIMANTAN TENGAH,73814.0,Indonesia,81258895878.0,,,-0.9603893,114.9049005,https://maps.google.com/?cid=0x0:0x454503489fbb58ca,
restaurant,Restoran,"Tetes Kopi, Muara Teweh","Jl. Pesona No.3, RT.29/RW.03, Lanjas, Kec. Teweh Tengah, Kabupaten Barito Utara, Kalimantan Tengah 73814","RT.29/RW.03, Lanjas, Kec. Teweh Tengah, Kabupaten Barito Utara",KALIMANTAN TENGAH,73814.0,Indonesia,,,,-0.9432198,114.8915334,https://maps.google.com/?cid=0x0:0xa6c0501729060363,
restaurant,Restoran,RM. LA.INDAH,"Jl. Yetro Sinseng, Lanjas, Kec. Teweh Tengah, Kabupaten Barito Utara, Kalimantan Tengah 73814","Lanjas, Kec. Teweh Tengah, Kabupaten Barito Utara",KALIMANTAN TENGAH,73814.0,Indonesia,81336160006.0,,,-0.9615658,114.8910139,https://maps.google.com/?cid=0x0:0x3490448df8a5b6c8,
restaurant,Restoran,Makanan khas muara teweh,"Jl. Pelajar sebelahnya GG pandu, Melayu, Kec. Teweh Tengah, Kabupaten Barito Utara, Kalimantan Tengah 73811","Melayu, Kec. Teweh Tengah, Kabupaten Barito Utara",KALIMANTAN TENGAH,73811.0,Indonesia,81333341098.0,,,-0.9475279,114.9016398,https://maps.google.com/?cid=0x0:0xe634739030c715c1,
restaurant,restaurant,Kalimantan Tengah 73812,"Kabupaten Barito Utara, Kalimantan Tengah","Kabupaten Barito Utara, Kalimantan Tengah",KALIMANTAN TENGAH,,Indonesia,,,,-0.8255092,114.945754,https://maps.google.com/?cid=0x0:0xaf5eb4cc7e2c2286,
restaurant,Restoran,"Rumah Makan Pondok Stadion, Muara Teweh","2VVW+QCW, Jl. Ahmad Yani, Melayu, Kec. Teweh Tengah, Kabupaten Barito Utara, Kalimantan Tengah 73814","Jl. Ahmad Yani, Melayu, Kec. Teweh Tengah, Kabupaten Barito Utara",KALIMANTAN TENGAH,73814.0,Indonesia,,,,-0.9555141,114.8960736,https://maps.google.com/?cid=0x0:0xf8e93e75c512b29,
restaurant,Bar Karaoke,HOLYWISH CAFE  KARAOKE,"Jl. Rapen, Lingkar Kota, Kec. Teweh Tengah, Kabupaten Barito Utara, Kalimantan Tengah 73812","Lingkar Kota, Kec. Teweh Tengah, Kabupaten Barito Utara",KALIMANTAN TENGAH,73812.0,Indonesia,82154263309.0,,,-0.9444526,114.8845602,https://maps.google.com/?cid=0x0:0x709a7bebf4f582f1,
restaurant,Hidangan Laut,"Rumah Makan Asyifa (Aneka Bakaran, Lalapan  Sambal), Muara Teweh","2VXV+FM5, Jl. Pramuka, Lanjas, Kec. Teweh Tengah, Kabupaten Barito Utara, Kalimantan Tengah 73814","Jl. Pramuka, Lanjas, Kec. Teweh Tengah, Kabupaten Barito Utara",KALIMANTAN TENGAH,73814.0,Indonesia,81253098340.0,,,-0.951375,114.8942326,https://maps.google.com/?cid=0x0:0x667a4317a6900a08,
restaurant,Restoran,"Cafe Tarera, Muara Teweh","3V4W+64W, Lanjas, Kec. Teweh Tengah, Kabupaten Barito Utara, Kalimantan Tengah 73814","Lanjas, Kec. Teweh Tengah, Kabupaten Barito Utara",KALIMANTAN TENGAH,73814.0,Indonesia,81351980533.0,,,-0.9443919,114.8953284,https://maps.google.com/?cid=0x0:0x53cec34a1f33c002,
restaurant,Ikan Bakar,"Warung Makan Cepu 88 (Lalapan  Penyetan), Muara Teweh","Lanjas, Kec. Teweh Tengah, Kabupaten Barito Utara, Kalimantan Tengah 73814","Kec. Teweh Tengah, Kabupaten Barito Utara",KALIMANTAN TENGAH,73814.0,Indonesia,,,,-0.9551707,114.8950357,https://maps.google.com/?cid=0x0:0xb51038e17fc3df2c,
restaurant,Padang,"Rumah Makan Bofet Saiyo (Masakan Padang), Muara Teweh","Jl. Pramuka, Lanjas, Kec. Teweh Tengah, Kabupaten Barito Utara, Kalimantan Tengah 73812","Lanjas, Kec. Teweh Tengah, Kabupaten Barito Utara",KALIMANTAN TENGAH,73812.0,Indonesia,81347373727.0,,,-0.9524036,114.8935737,https://maps.google.com/?cid=0x0:0xa7a6faa6d97c7171,
restaurant,Rumah Makan,Cafe Serasa,"Jl. Rapen, Lanjas, Kec. Teweh Tengah, Kabupaten Barito Utara, Kalimantan Tengah 73814","Lanjas, Kec. Teweh Tengah, Kabupaten Barito Utara",KALIMANTAN TENGAH,73814.0,Indonesia,81263391803.0,,,-0.9531146,114.8848959,https://maps.google.com/?cid=0x0:0x2cd1c0066a87955,
restaurant,Restoran,Warung Makan Adem Ayem,"3V6R+QX3, Jl. Pendreh, Melayu, Kec. Teweh Tengah, Kabupaten Barito Utara, Kalimantan Tengah 73814","Jl. Pendreh, Melayu, Kec. Teweh Tengah, Kabupaten Barito Utara",KALIMANTAN TENGAH,73814.0,Indonesia,,,,-0.9381025,114.8924285,https://maps.google.com/?cid=0x0:0xbe9a38e56c45b798,
restaurant,Padang,"Rumah Makan Bofet Saiyo (Masakan Padang), Muara Teweh","Jl. Pramuka, RT.26/RW.07, Lanjas, Kec. Teweh Tengah, Kabupaten Barito Utara, Kalimantan Tengah 73812","RT.26/RW.07, Lanjas, Kec. Teweh Tengah, Kabupaten Barito Utara",KALIMANTAN TENGAH,73812.0,Indonesia,,,,-0.9524556,114.8936657,https://maps.google.com/?cid=0x0:0x3f53a62a8aecb585,
restaurant,Kedai Kopi,Lorong Tengah,"2VPQ+Q89, Lanjas, Kec. Teweh Tengah, Kabupaten Barito Utara, Kalimantan Tengah 73814","Lanjas, Kec. Teweh Tengah, Kabupaten Barito Utara",KALIMANTAN TENGAH,73814.0,Indonesia,,,,-0.9630757,114.8883533,https://maps.google.com/?cid=0x0:0xaf7bc34a0fc8fc92,
restaurant,Padang,"Rumah Makan Barito Jempol (Masakan Padang), Muara Teweh","2WQ4+V2C, Melayu, Kec. Teweh Tengah, Kabupaten Barito Utara, Kalimantan Tengah 73814","Melayu, Kec. Teweh Tengah, Kabupaten Barito Utara",KALIMANTAN TENGAH,73814.0,Indonesia,,,,-0.9603178,114.9050048,https://maps.google.com/?cid=0x0:0x17fad895052746d,
restaurant,Nasi Goreng,"Nasi Itik Gambut, Teweh","2VQW+XQ5, Jl. Ahmad Yani, Lanjas, Kec. Teweh Tengah, Kabupaten Barito Utara, Kalimantan Tengah 73814","Jl. Ahmad Yani, Lanjas, Kec. Teweh Tengah, Kabupaten Barito Utara",KALIMANTAN TENGAH,73814.0,Indonesia,85349141616.0,,,-0.9601152,114.8969948,https://maps.google.com/?cid=0x0:0x573a35f7d1db956b,
restaurant,Hostel,Penginapan Barito,"Jl. Panglima Batur No.43, Melayu, Kec. Teweh Tengah, Kabupaten Barito Utara, Kalimantan Tengah 73811","Melayu, Kec. Teweh Tengah, Kabupaten Barito Utara",KALIMANTAN TENGAH,73811.0,Indonesia,82189295495.0,,,-0.9610592,114.9033008,https://maps.google.com/?cid=0x0:0xdcaf8dbebf27a08,
restaurant,Bakso,Bakso Urat Malang,"3V3X+MG4, Jl. Jend. Sudirman, Melayu, Kec. Teweh Tengah, Kabupaten Barito Utara, Kalimantan Tengah 73814","Jl. Jend. Sudirman, Melayu, Kec. Teweh Tengah, Kabupaten Barito Utara",KALIMANTAN TENGAH,73814.0,Indonesia,81349268529.0,,,-0.9458635,114.8988383,https://maps.google.com/?cid=0x0:0x33948df20010e78b,
restaurant,Tujuan Wisata,Water Front City Muara Teweh Kalimantan Tengah,"2WQ3+MQQ, Melayu, Kec. Teweh Tengah, Kabupaten Barito Utara, Kalimantan Tengah 73814","Melayu, Kec. Teweh Tengah, Kabupaten Barito Utara",KALIMANTAN TENGAH,73814.0,Indonesia,81251280888.0,,,-0.9607994,114.9044969,https://maps.google.com/?cid=0x0:0xa67419f15361deb9,
restaurant,Kedai Kopi,Yellow Cafe,"6W2P+8PX, Unnamed Road, Luwe Hulu, Kec. Lahei Barat, Kabupaten Barito Utara, Kalimantan Tengah 73812","Unnamed Road, Luwe Hulu, Kec. Lahei Barat, Kabupaten Barito Utara",KALIMANTAN TENGAH,73812.0,Indonesia,,,,-0.7991333,114.9368745,https://maps.google.com/?cid=0x0:0xd33a0c633fd1ebc8,
restaurant,Restoran,kedai mama tares,"Lahei II, Kec. Lahei, Kabupaten Barito Utara, Kalimantan Tengah","Kabupaten Barito Utara, Kalimantan Tengah",KALIMANTAN TENGAH,,Indonesia,,,,-0.8678273,114.931304,https://maps.google.com/?cid=0x0:0x2ccca892af605da,
restaurant,Batak,Alpianda,"6W4Q+H7X, Luwe Hulu, Kec. Lahei Barat, Kabupaten Barito Utara, Kalimantan Tengah","Kabupaten Barito Utara, Kalimantan Tengah",KALIMANTAN TENGAH,,Indonesia,,,,-0.7935062,114.9382498,https://maps.google.com/?cid=0x0:0x815d7317012e3e45,
restaurant,Nasi,Warung makan mama iwan,"4WJM+25, Lahei II, Kec. Lahei, Kabupaten Barito Utara, Kalimantan Tengah","Kabupaten Barito Utara, Kalimantan Tengah",KALIMANTAN TENGAH,,Indonesia,85754882341.0,,,-0.8696792,114.9325,https://maps.google.com/?cid=0x0:0x561053fd2002d5b2,
restaurant,Kafe,Ps Cafe  Resto,"Jl. Pramuka, Lanjas, Kec. Teweh Tengah, Kabupaten Barito Utara, Kalimantan Tengah 73814","Lanjas, Kec. Teweh Tengah, Kabupaten Barito Utara",KALIMANTAN TENGAH,73814.0,Indonesia,81289502305.0,,,-0.94636,114.8977386,https://maps.google.com/?cid=0x0:0x1167b90d45d90702,
restaurant,Padang,"Rumah Makan Lintau Indah (Masakan Padang), Muara Teweh","3V2X+6J6, Lanjas, Kec. Teweh Tengah, Kabupaten Barito Utara, Kalimantan Tengah 73814","Lanjas, Kec. Teweh Tengah, Kabupaten Barito Utara",KALIMANTAN TENGAH,73814.0,Indonesia,51921721.0,,,-0.9494589,114.8990278,https://maps.google.com/?cid=0x0:0xe98159825bc934b5,
restaurant,Padang,"Rumah Makan Bagadang (Masakan Padang), Muara Teweh","2VVW+28G, Jl. Lintas Kalimantan Poros Tengah, Lanjas, Kec. Teweh Tengah, Kabupaten Barito Utara, Kalimantan Tengah 73814","Jl. Lintas Kalimantan Poros Tengah, Lanjas, Kec. Teweh Tengah, Kabupaten Barito Utara",KALIMANTAN TENGAH,73814.0,Indonesia,81348355880.0,,,-0.9574372,114.8958157,https://maps.google.com/?cid=0x0:0x3672e1275a4455ee,
restaurant,Restoran,RM. LA.INDAH,"Jl. Yetro Sinseng, Lanjas, Kec. Teweh Tengah, Kabupaten Barito Utara, Kalimantan Tengah 73814","Lanjas, Kec. Teweh Tengah, Kabupaten Barito Utara",KALIMANTAN TENGAH,73814.0,Indonesia,81336160006.0,,,-0.9615658,114.8910139,https://maps.google.com/?cid=0x0:0x3490448df8a5b6c8,
restaurant,Makanan Kecil,Warung Bang RONNY,"3W23+C86, Jl. Pertiwi, Melayu, Kec. Teweh Tengah, Kabupaten Barito Utara, Kalimantan Tengah 73814","Jl. Pertiwi, Melayu, Kec. Teweh Tengah, Kabupaten Barito Utara",KALIMANTAN TENGAH,73814.0,Indonesia,82350915318.0,,,-0.9489515,114.9032766,https://maps.google.com/?cid=0x0:0xb392dca4eb0f262c,
restaurant,Kafe,Maynd,"2VQR+8XQ, Jl. Yetro Sinseng, Lanjas, Kec. Teweh Tengah, Kabupaten Barito Utara, Kalimantan Tengah 73814","Jl. Yetro Sinseng, Lanjas, Kec. Teweh Tengah, Kabupaten Barito Utara",KALIMANTAN TENGAH,73814.0,Indonesia,51921819.0,,,-0.9616636,114.8924808,https://maps.google.com/?cid=0x0:0x8ff93b004e93333,
restaurant,Restoran,"Tetes Kopi, Muara Teweh","Jl. Pesona No.3, RT.29/RW.03, Lanjas, Kec. Teweh Tengah, Kabupaten Barito Utara, Kalimantan Tengah 73814","RT.29/RW.03, Lanjas, Kec. Teweh Tengah, Kabupaten Barito Utara",KALIMANTAN TENGAH,73814.0,Indonesia,,,,-0.9432198,114.8915334,https://maps.google.com/?cid=0x0:0xa6c0501729060363,
restaurant,Restoran,RM. BATARA KUIN,"Jl. Ahmad Yani, Lanjas, Kec. Teweh Tengah, Kabupaten Barito Utara, Kalimantan Tengah 73814","Lanjas, Kec. Teweh Tengah, Kabupaten Barito Utara",KALIMANTAN TENGAH,73814.0,Indonesia,81258895878.0,,,-0.9603893,114.9049005,https://maps.google.com/?cid=0x0:0x454503489fbb58ca,
restaurant,Kafe,OY MRcoffee,"Jl. Pendreh No.Rt.33 a, Melayu, Kec. Teweh Tengah, Kabupaten Barito Utara, Kalimantan Tengah 73814","Melayu, Kec. Teweh Tengah, Kabupaten Barito Utara",KALIMANTAN TENGAH,73814.0,Indonesia,82154665545.0,,,-0.9419662,114.897123,https://maps.google.com/?cid=0x0:0x169184f8c46da1aa,
restaurant,restaurant,Kalimantan Tengah 73814,"Kabupaten Barito Utara, Kalimantan Tengah","Kabupaten Barito Utara, Kalimantan Tengah",KALIMANTAN TENGAH,,Indonesia,,,,-0.8914468,114.8092691,https://maps.google.com/?cid=0x0:0xb5548f39346751af,
restaurant,Restoran,TALA COFFEE AND EATERY,"2VWP+H5, Lanjas, Kec. Teweh Tengah, Kabupaten Barito Utara, Kalimantan Tengah","Kabupaten Barito Utara, Kalimantan Tengah",KALIMANTAN TENGAH,,Indonesia,,,,-0.9535925,114.8854631,https://maps.google.com/?cid=0x0:0x4b74965aec5eef7e,
restaurant,Hidangan Laut,"Rumah Makan Asyifa (Aneka Bakaran, Lalapan  Sambal), Muara Teweh","2VXV+FM5, Jl. Pramuka, Lanjas, Kec. Teweh Tengah, Kabupaten Barito Utara, Kalimantan Tengah 73814","Jl. Pramuka, Lanjas, Kec. Teweh Tengah, Kabupaten Barito Utara",KALIMANTAN TENGAH,73814.0,Indonesia,81253098340.0,,,-0.951375,114.8942326,https://maps.google.com/?cid=0x0:0x667a4317a6900a08,
restaurant,Ikan Bakar,"Warung Makan Cepu 88 (Lalapan  Penyetan), Muara Teweh","Lanjas, Kec. Teweh Tengah, Kabupaten Barito Utara, Kalimantan Tengah 73814","Kec. Teweh Tengah, Kabupaten Barito Utara",KALIMANTAN TENGAH,73814.0,Indonesia,,,,-0.9551707,114.8950357,https://maps.google.com/?cid=0x0:0xb51038e17fc3df2c,
restaurant,Kafe,Ps Cafe  Resto,"Jl. Pramuka, Lanjas, Kec. Teweh Tengah, Kabupaten Barito Utara, Kalimantan Tengah 73814","Lanjas, Kec. Teweh Tengah, Kabupaten Barito Utara",KALIMANTAN TENGAH,73814.0,Indonesia,81289502305.0,,,-0.94636,114.8977386,https://maps.google.com/?cid=0x0:0x1167b90d45d90702,
restaurant,Restoran,"Cafe Tarera, Muara Teweh","3V4W+64W, Lanjas, Kec. Teweh Tengah, Kabupaten Barito Utara, Kalimantan Tengah 73814","Lanjas, Kec. Teweh Tengah, Kabupaten Barito Utara",KALIMANTAN TENGAH,73814.0,Indonesia,81351980533.0,,,-0.9443919,114.8953284,https://maps.google.com/?cid=0x0:0x53cec34a1f33c002,
restaurant,Rumah Makan,Cafe Serasa,"Jl. Rapen, Lanjas, Kec. Teweh Tengah, Kabupaten Barito Utara, Kalimantan Tengah 73814","Lanjas, Kec. Teweh Tengah, Kabupaten Barito Utara",KALIMANTAN TENGAH,73814.0,Indonesia,81263391803.0,,,-0.9531146,114.8848959,https://maps.google.com/?cid=0x0:0x2cd1c0066a87955,
restaurant,Rumah Makan,Thira Cafe,"3V5W+C6C, Jl. Pendreh, Melayu, Kec. Teweh Tengah, Kabupaten Barito Utara, Kalimantan Tengah 73814","Jl. Pendreh, Melayu, Kec. Teweh Tengah, Kabupaten Barito Utara",KALIMANTAN TENGAH,73814.0,Indonesia,,,,-0.9414261,114.8955154,https://maps.google.com/?cid=0x0:0x47dd9c711a295cae,
restaurant,Padang,"Rumah Makan Lintau Indah (Masakan Padang), Muara Teweh","3V2X+6J6, Lanjas, Kec. Teweh Tengah, Kabupaten Barito Utara, Kalimantan Tengah 73814","Lanjas, Kec. Teweh Tengah, Kabupaten Barito Utara",KALIMANTAN TENGAH,73814.0,Indonesia,51921721.0,,,-0.9494589,114.8990278,https://maps.google.com/?cid=0x0:0xe98159825bc934b5,
restaurant,Restoran,"RM Wayang Pelangi, Muara Teweh","2VHP+QFP, Jl. Lintas Kalimantan Poros Tengah, Jingah, Kec. Teweh Tengah, Kabupaten Barito Utara, Kalimantan Tengah 73814","Jl. Lintas Kalimantan Poros Tengah, Jingah, Kec. Teweh Tengah, Kabupaten Barito Utara",KALIMANTAN TENGAH,73814.0,Indonesia,,,,-0.9705381,114.8862092,https://maps.google.com/?cid=0x0:0x1af77a325742c69,
restaurant,Bar >>u0026 Grill,KEDAI BETTA KOREAN JAPAN FOOD,"Lanjas, Kec. Teweh Tengah, Kabupaten Barito Utara, Kalimantan Tengah 73814","Kec. Teweh Tengah, Kabupaten Barito Utara",KALIMANTAN TENGAH,73814.0,Indonesia,82154976894.0,,,-0.960033,114.883481,https://maps.google.com/?cid=0x0:0x5d77f6d51520f994,
restaurant,Soto Ayam,RM. Soto Semarang,"2VCG+8RH, Jingah, Kec. Teweh Tengah, Kabupaten Barito Utara, Kalimantan Tengah 73814","Jingah, Kec. Teweh Tengah, Kabupaten Barito Utara",KALIMANTAN TENGAH,73814.0,Indonesia,,,,-0.979199,114.877116,https://maps.google.com/?cid=0x0:0x66d9d7d58285f830,
restaurant,Padang,"Rumah Makan Bagadang (Masakan Padang), Muara Teweh","2VVW+28G, Jl. Lintas Kalimantan Poros Tengah, Lanjas, Kec. Teweh Tengah, Kabupaten Barito Utara, Kalimantan Tengah 73814","Jl. Lintas Kalimantan Poros Tengah, Lanjas, Kec. Teweh Tengah, Kabupaten Barito Utara",KALIMANTAN TENGAH,73814.0,Indonesia,81348355880.0,,,-0.9574372,114.8958157,https://maps.google.com/?cid=0x0:0x3672e1275a4455ee,
restaurant,Restoran,Warung Makan Adem Ayem,"3V6R+QX3, Jl. Pendreh, Melayu, Kec. Teweh Tengah, Kabupaten Barito Utara, Kalimantan Tengah 73814","Jl. Pendreh, Melayu, Kec. Teweh Tengah, Kabupaten Barito Utara",KALIMANTAN TENGAH,73814.0,Indonesia,,,,-0.9381025,114.8924285,https://maps.google.com/?cid=0x0:0xbe9a38e56c45b798,
restaurant,Indonesia,Rumah Makan Sabar Menanti,"3V2X+5PQ, Jl. Lintas Kalimantan Poros Tengah, Melayu, Kec. Teweh Tengah, Kabupaten Barito Utara, Kalimantan Tengah 73814","Jl. Lintas Kalimantan Poros Tengah, Melayu, Kec. Teweh Tengah, Kabupaten Barito Utara",KALIMANTAN TENGAH,73814.0,Indonesia,85248504427.0,,,-0.9495277,114.8993554,https://maps.google.com/?cid=0x0:0x851c540abb162e21,
restaurant,Rumah Makan,RM.Abang Halil,"3V3X+H7C, Jl. Pramuka, Melayu, Kec. Teweh Tengah, Kabupaten Barito Utara, Kalimantan Tengah 73814","Jl. Pramuka, Melayu, Kec. Teweh Tengah, Kabupaten Barito Utara",KALIMANTAN TENGAH,73814.0,Indonesia,82150841783.0,,,-0.9460583,114.8981376,https://maps.google.com/?cid=0x0:0x9d62f54c3fa91df8,
restaurant,Bakso,Paman Jakarta,"2WW3+3FC, Melayu, Kec. Teweh Tengah, Kabupaten Barito Utara, Kalimantan Tengah 73814","Melayu, Kec. Teweh Tengah, Kabupaten Barito Utara",KALIMANTAN TENGAH,73814.0,Indonesia,82154464748.0,,,-0.9548051,114.9036241,https://maps.google.com/?cid=0x0:0xc0dfebb1f484d1e4,
restaurant,Rumah Makan,Cafe Telaga RORO,"3V4V+PF4, Jl. Taman Remaja, Lanjas, Kec. Teweh Tengah, Kabupaten Barito Utara, Kalimantan Tengah 73814","Jl. Taman Remaja, Lanjas, Kec. Teweh Tengah, Kabupaten Barito Utara",KALIMANTAN TENGAH,73814.0,Indonesia,82216161000.0,,,-0.9432453,114.8937155,https://maps.google.com/?cid=0x0:0xa30124624f276bd2,
restaurant,Nasi Goreng,"Rumah Makan Nasi Goreng Stadion, Muara Teweh","Jl. Stadion Swakarya No.123, Lanjas, Kec. Teweh Tengah, Kabupaten Barito Utara, Kalimantan Tengah 73814","Lanjas, Kec. Teweh Tengah, Kabupaten Barito Utara",KALIMANTAN TENGAH,73814.0,Indonesia,,,,-0.9564565,114.8940449,https://maps.google.com/?cid=0x0:0x4a57ada29c3ebac1,
restaurant,Restoran,Warung Bang Kumis,"Jl. Pramuka No.23, Lanjas, Kec. Teweh Tengah, Kabupaten Barito Utara, Kalimantan Tengah 73814","Lanjas, Kec. Teweh Tengah, Kabupaten Barito Utara",KALIMANTAN TENGAH,73814.0,Indonesia,,,,-0.9532707,114.8934654,https://maps.google.com/?cid=0x0:0x3f871bd14c282c22,
restaurant,Kedai Kopi,Sky Cafe,"Jl. Negara No.km 1, Jingah, Kec. Teweh Baru, Kabupaten Barito Utara, Kalimantan Tengah 73814","Jingah, Kec. Teweh Baru, Kabupaten Barito Utara",KALIMANTAN TENGAH,73814.0,Indonesia,85393649914.0,,,-0.9706366,114.8864298,https://maps.google.com/?cid=0x0:0x79f133e4f8b615c6,
restaurant,Restoran,Pondok Bambu BANAMA,"Jingah, Kec. Teweh Baru, Kabupaten Barito Utara, Kalimantan Tengah 73814","Kec. Teweh Baru, Kabupaten Barito Utara",KALIMANTAN TENGAH,73814.0,Indonesia,81351277583.0,,,-0.9705238,114.8858816,https://maps.google.com/?cid=0x0:0x72ab4c5219b413fe,
restaurant,Restoran,Warung Makan Banjar,"3V3X+M9G, Jl. Pramuka, Melayu, Kec. Teweh Tengah, Kabupaten Barito Utara, Kalimantan Tengah 73814","Jl. Pramuka, Melayu, Kec. Teweh Tengah, Kabupaten Barito Utara",KALIMANTAN TENGAH,73814.0,Indonesia,,,,-0.9458247,114.898465,https://maps.google.com/?cid=0x0:0x80a8134bc4680050,
restaurant,Makanan Kecil,Warung Bang RONNY,"3W23+C86, Jl. Pertiwi, Melayu, Kec. Teweh Tengah, Kabupaten Barito Utara, Kalimantan Tengah 73814","Jl. Pertiwi, Melayu, Kec. Teweh Tengah, Kabupaten Barito Utara",KALIMANTAN TENGAH,73814.0,Indonesia,82350915318.0,,,-0.9489515,114.9032766,https://maps.google.com/?cid=0x0:0xb392dca4eb0f262c,
restaurant,Restoran,Rumah Makan B2 RW  Beer House,"3V6H+Q5G, Unnamed Road, Lanjas, Kec. Teweh Tengah, Kabupaten Barito Utara, Kalimantan Tengah 73814","Unnamed Road, Lanjas, Kec. Teweh Tengah, Kabupaten Barito Utara",KALIMANTAN TENGAH,73814.0,Indonesia,85285295201.0,,,-0.9380553,114.8779512,https://maps.google.com/?cid=0x0:0xe54259a4b3275d89,
restaurant,Kedai Kopi,Lorong Tengah,"2VPQ+Q89, Lanjas, Kec. Teweh Tengah, Kabupaten Barito Utara, Kalimantan Tengah 73814","Lanjas, Kec. Teweh Tengah, Kabupaten Barito Utara",KALIMANTAN TENGAH,73814.0,Indonesia,,,,-0.9630757,114.8883533,https://maps.google.com/?cid=0x0:0xaf7bc34a0fc8fc92,
restaurant,Restoran,RM. LA.INDAH,"Jl. Yetro Sinseng, Lanjas, Kec. Teweh Tengah, Kabupaten Barito Utara, Kalimantan Tengah 73814","Lanjas, Kec. Teweh Tengah, Kabupaten Barito Utara",KALIMANTAN TENGAH,73814.0,Indonesia,81336160006.0,,,-0.9615658,114.8910139,https://maps.google.com/?cid=0x0:0x3490448df8a5b6c8,
restaurant,Nasi,Warung Setia Kawan,"Jl. Pramuka No.21, Lanjas, Kec. Teweh Tengah, Kabupaten Barito Utara, Kalimantan Tengah 73814","Lanjas, Kec. Teweh Tengah, Kabupaten Barito Utara",KALIMANTAN TENGAH,73814.0,Indonesia,85707773737.0,,,-0.948019,114.8967188,https://maps.google.com/?cid=0x0:0xe1310e715eb071d,
restaurant,restaurant,Kalimantan Tengah 73881,"Kabupaten Barito Utara, Kalimantan Tengah","Kabupaten Barito Utara, Kalimantan Tengah",KALIMANTAN TENGAH,,Indonesia,,,,-1.0257651,115.3785719,https://maps.google.com/?cid=0x0:0x8bd4f30ba12eadec,
restaurant,Nasi,itm,"4CCG+H4J, Benangin 5, Kec. Teweh Tim., Kabupaten Barito Utara, Kalimantan Tengah 73881","Benangin 5, Kec. Teweh Tim., Kabupaten Barito Utara",KALIMANTAN TENGAH,73881.0,Indonesia,,,,-0.8785449,115.4252709,https://maps.google.com/?cid=0x0:0xa93ce5e6494f67a0,
restaurant,Restoran,RM. BATARA KUIN,"Jl. Ahmad Yani, Lanjas, Kec. Teweh Tengah, Kabupaten Barito Utara, Kalimantan Tengah 73814","Lanjas, Kec. Teweh Tengah, Kabupaten Barito Utara",KALIMANTAN TENGAH,73814.0,Indonesia,81258895878.0,,,-0.9603893,114.9049005,https://maps.google.com/?cid=0x0:0x454503489fbb58ca,
restaurant,Restoran,"Rumah Makan Pondok Stadion, Muara Teweh","2VVW+QCW, Jl. Ahmad Yani, Melayu, Kec. Teweh Tengah, Kabupaten Barito Utara, Kalimantan Tengah 73814","Jl. Ahmad Yani, Melayu, Kec. Teweh Tengah, Kabupaten Barito Utara",KALIMANTAN TENGAH,73814.0,Indonesia,,,,-0.9555141,114.8960736,https://maps.google.com/?cid=0x0:0xf8e93e75c512b29,
restaurant,restaurant,"RM JATIM, Sikui KM.28","KM.28, Sikui","Kabupaten Barito Utara, Kalimantan Tengah",KALIMANTAN TENGAH,,Indonesia,,,,-1.0795373,115.0970224,https://maps.google.com/?cid=0x0:0xf069e49e8f917746,
restaurant,Makanan Kecil,Warung Makan Mama Hamzah,"Jl. Tujuh Enam No.163, RT.03, Benangin I, Kec. Teweh Tim., Kabupaten Barito Utara, Kalimantan Tengah","Kabupaten Barito Utara, Kalimantan Tengah",KALIMANTAN TENGAH,,Indonesia,85353434799.0,,,-0.9937767,115.3703184,https://maps.google.com/?cid=0x0:0x9f942f7419c3c4f4,
restaurant,Bar Karaoke,HOLYWISH CAFE  KARAOKE,"Jl. Rapen, Lingkar Kota, Kec. Teweh Tengah, Kabupaten Barito Utara, Kalimantan Tengah 73812","Lingkar Kota, Kec. Teweh Tengah, Kabupaten Barito Utara",KALIMANTAN TENGAH,73812.0,Indonesia,82154263309.0,,,-0.9444526,114.8845602,https://maps.google.com/?cid=0x0:0x709a7bebf4f582f1,
restaurant,Restoran,"Cafe Tarera, Muara Teweh","3V4W+64W, Lanjas, Kec. Teweh Tengah, Kabupaten Barito Utara, Kalimantan Tengah 73814","Lanjas, Kec. Teweh Tengah, Kabupaten Barito Utara",KALIMANTAN TENGAH,73814.0,Indonesia,81351980533.0,,,-0.9443919,114.8953284,https://maps.google.com/?cid=0x0:0x53cec34a1f33c002,
restaurant,Makanan Kecil,Warung Bang RONNY,"3W23+C86, Jl. Pertiwi, Melayu, Kec. Teweh Tengah, Kabupaten Barito Utara, Kalimantan Tengah 73814","Jl. Pertiwi, Melayu, Kec. Teweh Tengah, Kabupaten Barito Utara",KALIMANTAN TENGAH,73814.0,Indonesia,82350915318.0,,,-0.9489515,114.9032766,https://maps.google.com/?cid=0x0:0xb392dca4eb0f262c,
restaurant,Restoran,TALA COFFEE AND EATERY,"2VWP+H5, Lanjas, Kec. Teweh Tengah, Kabupaten Barito Utara, Kalimantan Tengah","Kabupaten Barito Utara, Kalimantan Tengah",KALIMANTAN TENGAH,,Indonesia,,,,-0.9535925,114.8854631,https://maps.google.com/?cid=0x0:0x4b74965aec5eef7e,
restaurant,Klub Malam,Cafe  Studio Arepa,"V8QG+27V, Mampuak II, Kec. Teweh Tim., Kabupaten Barito Utara, Kalimantan Tengah 73881","Mampuak II, Kec. Teweh Tim., Kabupaten Barito Utara",KALIMANTAN TENGAH,73881.0,Indonesia,,,,-1.1123934,115.3256693,https://maps.google.com/?cid=0x0:0x71e225cc16eece9e,
restaurant,Toko bahan makanan,Toko.FaizFajar,"PCX2+9W2, Batu Raya I, Kec. Gn. Timang, Kabupaten Barito Utara, Kalimantan Tengah 73862","Batu Raya I, Kec. Gn. Timang, Kabupaten Barito Utara",KALIMANTAN TENGAH,73862.0,Indonesia,81545372282.0,,,-1.2516069,115.4022706,https://maps.google.com/?cid=0x0:0xf8131ec14d270b32,
restaurant,Sekolah menengah,SMAN 1 Teweh Timur,"297F+QQ7, Unnamed Road, Benangin I, Kec. Teweh Tim., Kabupaten Barito Utara, Kalimantan Tengah 73881","Unnamed Road, Benangin I, Kec. Teweh Tim., Kabupaten Barito Utara",KALIMANTAN TENGAH,73881.0,Indonesia,,,,-0.9855794,115.3744369,https://maps.google.com/?cid=0x0:0x26e976a2986251e3,
restaurant,Padang,"Rumah Makan Bofet Saiyo (Masakan Padang), Muara Teweh","Jl. Pramuka, Lanjas, Kec. Teweh Tengah, Kabupaten Barito Utara, Kalimantan Tengah 73812","Lanjas, Kec. Teweh Tengah, Kabupaten Barito Utara",KALIMANTAN TENGAH,73812.0,Indonesia,81347373727.0,,,-0.9524036,114.8935737,https://maps.google.com/?cid=0x0:0xa7a6faa6d97c7171,
restaurant,Rumah Makan,Cafe Serasa,"Jl. Rapen, Lanjas, Kec. Teweh Tengah, Kabupaten Barito Utara, Kalimantan Tengah 73814","Lanjas, Kec. Teweh Tengah, Kabupaten Barito Utara",KALIMANTAN TENGAH,73814.0,Indonesia,81263391803.0,,,-0.9531146,114.8848959,https://maps.google.com/?cid=0x0:0x2cd1c0066a87955,
restaurant,Indonesia,Depot bakso(ALTAZA),"jalan 76, Benangin I, Kec. Teweh Tim., Muara tewe, Kalimantan Tengah 73881","Benangin I, Kec. Teweh Tim., Muara tewe",KALIMANTAN TENGAH,73881.0,Indonesia,81351503133.0,,,-0.9936725,115.3709255,https://maps.google.com/?cid=0x0:0xf87d22d5587b68aa,
restaurant,restaurant,Warung Makan KEDAI 28,"Jl.negara No.km 28, RT.03, Sikui, Kec. Teweh Baru, Kabupaten Barito Utara, Kalimantan Tengah","Kabupaten Barito Utara, Kalimantan Tengah",KALIMANTAN TENGAH,,Indonesia,82255477166.0,,,-1.1063517,115.1059054,https://maps.google.com/?cid=0x0:0x930399e3a3ba6d27,
restaurant,Restoran,Warung Makan Adem Ayem,"3V6R+QX3, Jl. Pendreh, Melayu, Kec. Teweh Tengah, Kabupaten Barito Utara, Kalimantan Tengah 73814","Jl. Pendreh, Melayu, Kec. Teweh Tengah, Kabupaten Barito Utara",KALIMANTAN TENGAH,73814.0,Indonesia,,,,-0.9381025,114.8924285,https://maps.google.com/?cid=0x0:0xbe9a38e56c45b798,
restaurant,Padang,"Rumah Makan Lintau Indah (Masakan Padang), Muara Teweh","3V2X+6J6, Lanjas, Kec. Teweh Tengah, Kabupaten Barito Utara, Kalimantan Tengah 73814","Lanjas, Kec. Teweh Tengah, Kabupaten Barito Utara",KALIMANTAN TENGAH,73814.0,Indonesia,51921721.0,,,-0.9494589,114.8990278,https://maps.google.com/?cid=0x0:0xe98159825bc934b5,
restaurant,Padang,Sembako dan Kuliner,"Jl.Poros simpang, Mampuak II, Kec. Teweh Tim., Kabupaten Barito Utara, Kalimantan Tengah 73881","Mampuak II, Kec. Teweh Tim., Kabupaten Barito Utara",KALIMANTAN TENGAH,73881.0,Indonesia,81255820567.0,,,-1.1033364,115.3288015,https://maps.google.com/?cid=0x0:0x5f55c6e36fe98b1a,
restaurant,Ikan Bakar,"Warung Makan Cepu 88 (Lalapan  Penyetan), Muara Teweh","Lanjas, Kec. Teweh Tengah, Kabupaten Barito Utara, Kalimantan Tengah 73814","Kec. Teweh Tengah, Kabupaten Barito Utara",KALIMANTAN TENGAH,73814.0,Indonesia,,,,-0.9551707,114.8950357,https://maps.google.com/?cid=0x0:0xb51038e17fc3df2c,
restaurant,Kafe,Blokpasir caffe,"V8R8+H9, Mampuak II, Kec. Teweh Tim., Kabupaten Barito Utara, Kalimantan Tengah","Kabupaten Barito Utara, Kalimantan Tengah",KALIMANTAN TENGAH,,Indonesia,,,,-1.1085341,115.3159067,https://maps.google.com/?cid=0x0:0x35cbcd8458e487f1,
restaurant,Brunch,WARUNG AZMI(mama ainun),"V9J4+6GC, Mampuak I, Kec. Teweh Tim., Kabupaten Barito Utara, Kalimantan Tengah 73881","Mampuak I, Kec. Teweh Tim., Kabupaten Barito Utara",KALIMANTAN TENGAH,73881.0,Indonesia,,,,-1.1194352,115.3562505,https://maps.google.com/?cid=0x0:0x7396081314e7c5dc,
restaurant,Restoran,Rumah Berie Atmajaya,"W476+Q8, Sikui, Kec. Teweh Baru, Kabupaten Barito Utara, Kalimantan Tengah","Kabupaten Barito Utara, Kalimantan Tengah",KALIMANTAN TENGAH,,Indonesia,,,,-1.0855779,115.1108161,https://maps.google.com/?cid=0x0:0x35f85f80db7be832,
restaurant,Kafe,Ps Cafe  Resto,"Jl. Pramuka, Lanjas, Kec. Teweh Tengah, Kabupaten Barito Utara, Kalimantan Tengah 73814","Lanjas, Kec. Teweh Tengah, Kabupaten Barito Utara",KALIMANTAN TENGAH,73814.0,Indonesia,81289502305.0,,,-0.94636,114.8977386,https://maps.google.com/?cid=0x0:0x1167b90d45d90702,
restaurant,Restoran,Warung Makan Oktapadia,"Benangin 5, Kec. Teweh Tim., Kabupaten Barito Utara, Kalimantan Tengah","Kabupaten Barito Utara, Kalimantan Tengah",KALIMANTAN TENGAH,,Indonesia,,,,-0.9935818,115.3706631,https://maps.google.com/?cid=0x0:0x85f4de453a3926db,
cafe,cafe,Kalimantan Tengah 73862,Kalimantan Tengah,Kalimantan Tengah,KALIMANTAN TENGAH,,Indonesia,,,,-1.3062588,115.188916,https://maps.google.com/?cid=0x0:0x13b0d131c6a71cf5,
cafe,Restoran,Pondok Dahar Barokah,"Unnamed Road, Kandui, Kec. Gn. Timang, Kabupaten Barito Utara, Kalimantan Tengah 73862","Kandui, Kec. Gn. Timang, Kabupaten Barito Utara",KALIMANTAN TENGAH,73862.0,Indonesia,81229968422.0,,,-1.2473298,115.1129993,https://maps.google.com/?cid=0x0:0x233b245d081600c6,
cafe,Pasar,Simpang Pasar Kandui,"P4RC+VHV, Kandui, Kec. Gn. Timang, Kabupaten Barito Utara, Kalimantan Tengah 73862","Kandui, Kec. Gn. Timang, Kabupaten Barito Utara",KALIMANTAN TENGAH,73862.0,Indonesia,85389801090.0,,,-1.257766,115.1214238,https://maps.google.com/?cid=0x0:0x86cb4e535b875c91,
cafe,Restoran,R.m PANJANG KANDANGAN Ds.KANDUI,"Q3VW+5WR, Unnamed Road, Majangkan, Kec. Gn. Timang, Kabupaten Barito Utara, Kalimantan Tengah 73862","Unnamed Road, Majangkan, Kec. Gn. Timang, Kabupaten Barito Utara",KALIMANTAN TENGAH,73862.0,Indonesia,,,,-1.2070181,115.0972554,https://maps.google.com/?cid=0x0:0x294c5205fa0d0529,
cafe,Kedai Kopi,Java Sultan Cafe,"VX92+MV, Pandran Permai, Kec. Tewen Selatan, Kabupaten Barito Utara, Kalimantan Tengah","Kabupaten Barito Utara, Kalimantan Tengah",KALIMANTAN TENGAH,,Indonesia,,,,-1.1317865,114.9525004,https://maps.google.com/?cid=0x0:0x3e444b3f352850b7,
cafe,Kafe,Warung sensewinen,"Q468+MF5, Jl. Ahmad Yani, Kandui, Kec. Gn. Timang, Kabupaten Barito Utara, Kalimantan Tengah 73862","Jl. Ahmad Yani, Kandui, Kec. Gn. Timang, Kabupaten Barito Utara",KALIMANTAN TENGAH,73862.0,Indonesia,,,,-1.2383504,115.1162449,https://maps.google.com/?cid=0x0:0x637c1665d72baf16,
cafe,Kedai Kopi,Lorong Tengah,"2VPQ+Q89, Lanjas, Kec. Teweh Tengah, Kabupaten Barito Utara, Kalimantan Tengah 73814","Lanjas, Kec. Teweh Tengah, Kabupaten Barito Utara",KALIMANTAN TENGAH,73814.0,Indonesia,,,,-0.9630757,114.8883533,https://maps.google.com/?cid=0x0:0xaf7bc34a0fc8fc92,
cafe,Kafe,Maynd,"2VQR+8XQ, Jl. Yetro Sinseng, Lanjas, Kec. Teweh Tengah, Kabupaten Barito Utara, Kalimantan Tengah 73814","Jl. Yetro Sinseng, Lanjas, Kec. Teweh Tengah, Kabupaten Barito Utara",KALIMANTAN TENGAH,73814.0,Indonesia,51921819.0,,,-0.9616636,114.8924808,https://maps.google.com/?cid=0x0:0x8ff93b004e93333,
cafe,Kafe,Gorengan Zidan,"P4VC+PH6, Kandui, Kec. Gn. Timang, Kabupaten Barito Utara, Kalimantan Tengah 73862","Kandui, Kec. Gn. Timang, Kabupaten Barito Utara",KALIMANTAN TENGAH,73862.0,Indonesia,,,,-1.2557135,115.1213875,https://maps.google.com/?cid=0x0:0xc5700ca44101fbab,
cafe,Padang,Warung Padang,"P4RC+QR9, Kandui, Kec. Gn. Timang, Kabupaten Barito Utara, Kalimantan Tengah 73862","Kandui, Kec. Gn. Timang, Kabupaten Barito Utara",KALIMANTAN TENGAH,73862.0,Indonesia,,,,-1.2580933,115.1221132,https://maps.google.com/?cid=0x0:0x84e196b80461be49,
cafe,Restoran,Warung vivin,"Sikui, Kec. Teweh Tengah, Kabupaten Barito Utara, Kalimantan Tengah 73814","Kec. Teweh Tengah, Kabupaten Barito Utara",KALIMANTAN TENGAH,73814.0,Indonesia,82158450354.0,,,-1.0779699,115.0860633,https://maps.google.com/?cid=0x0:0x7531c9c649ecca6b,
cafe,Komplek perumahan,Bintang Ninggi 2,"WVG9+HC5, Bintang Ninggi I, Kec. Tewen Selatan, Kabupaten Barito Utara, Kalimantan Tengah 73814","Bintang Ninggi I, Kec. Tewen Selatan, Kabupaten Barito Utara",KALIMANTAN TENGAH,73814.0,Indonesia,,,,-1.0736088,114.8686169,https://maps.google.com/?cid=0x0:0xd171be6de4a75f4f,
cafe,Kafe,Warung diva,"VW7W+J5V, Pandran Permai, Kec. Teweh Tengah, Kabupaten Barito Utara, Kalimantan Tengah 73861","Pandran Permai, Kec. Teweh Tengah, Kabupaten Barito Utara",KALIMANTAN TENGAH,73861.0,Indonesia,,,,-1.13588,114.9454105,https://maps.google.com/?cid=0x0:0x97bc61d7ee222b92,
cafe,Restoran,WARUNG MAKAN PAK DE LAMONGAN,"VW6X+XFF, Pandran Permai, Kec. Tewen Selatan, Kabupaten Barito Utara, Kalimantan Tengah 73861","Pandran Permai, Kec. Tewen Selatan, Kabupaten Barito Utara",KALIMANTAN TENGAH,73861.0,Indonesia,82150531474.0,,,-1.1375555,114.9486851,https://maps.google.com/?cid=0x0:0x6bee92df5db92bde,
cafe,Indonesia,Warung Makan Sunda UMI ASLAJA,"P4V8+VW3, Kandui, Kec. Gn. Timang, Kabupaten Barito Utara, Kalimantan Tengah 73862","Kandui, Kec. Gn. Timang, Kabupaten Barito Utara",KALIMANTAN TENGAH,73862.0,Indonesia,82252797782.0,,,-1.2553507,115.1173019,https://maps.google.com/?cid=0x0:0xfd64bf7fa394580e,
cafe,Tempat Budi Daya Makanan Laut,WARUNG LAMONGAN DO'A IBU,"P4RC+VRJ, Jl. Ahmad Yani, Kandui, Kec. Gn. Timang, Kabupaten Barito Utara, Kalimantan Tengah 73862","Jl. Ahmad Yani, Kandui, Kec. Gn. Timang, Kabupaten Barito Utara",KALIMANTAN TENGAH,73862.0,Indonesia,,,,-1.2578149,115.1220135,https://maps.google.com/?cid=0x0:0x984283cec2f8a4ef,
cafe,Kedai Kopi,Warung kopi + Wifi aHong 27,"W39Q+VCJ, Sikui, Kec. Teweh Tengah, Kabupaten Barito Utara, Kalimantan Tengah 73814","Sikui, Kec. Teweh Tengah, Kabupaten Barito Utara",KALIMANTAN TENGAH,73814.0,Indonesia,82358618536.0,,,-1.0802888,115.0885257,https://maps.google.com/?cid=0x0:0x6930dc2bdd9c436b,
cafe,Kafe,Cafe terapung Mama Novem,"2WQ3+HXC, Jl. Panglima Batur, Melayu, Kec. Teweh Tengah, Kabupaten Barito Utara, Kalimantan Tengah 73814","Jl. Panglima Batur, Melayu, Kec. Teweh Tengah, Kabupaten Barito Utara",KALIMANTAN TENGAH,73814.0,Indonesia,,,,-0.9610679,114.9048994,https://maps.google.com/?cid=0x0:0x8f5623d6a7112dec,
cafe,Jus,WARUNG ES MUHAJIR,"P4RC+MW8, Jl. Ahmad Yani, Kandui, Kec. Gn. Timang, Kabupaten Barito Utara, Kalimantan Tengah 73862","Jl. Ahmad Yani, Kandui, Kec. Gn. Timang, Kabupaten Barito Utara",KALIMANTAN TENGAH,73862.0,Indonesia,,,,-1.2583316,115.1223171,https://maps.google.com/?cid=0x0:0x48e91bcdcc3c2413,
cafe,Restoran,Nasi Goreng Butterfly,"P4V9+3WG, Kandui, Kec. Gn. Timang, Kabupaten Barito Utara, Kalimantan Tengah 73862","Kandui, Kec. Gn. Timang, Kabupaten Barito Utara",KALIMANTAN TENGAH,73862.0,Indonesia,81349003042.0,,,-1.2573239,115.1198431,https://maps.google.com/?cid=0x0:0xabe24e90df56eaaf,
cafe,Restoran,WARUNG WAHYU KANDU,"P4RC+MW4, Jl. Ahmad Yani, Kandui, Kec. Gn. Timang, Kabupaten Barito Utara, Kalimantan Tengah 73862","Jl. Ahmad Yani, Kandui, Kec. Gn. Timang, Kabupaten Barito Utara",KALIMANTAN TENGAH,73862.0,Indonesia,,,,-1.2583518,115.1223212,https://maps.google.com/?cid=0x0:0x494a03629c4b059a,
cafe,Toko bahan makanan,Warung Papadaan,"MVGX+F3R, RW.Siwakkk, Montallat II, Kec. Montallat, Kabupaten Barito Utara, Kalimantan Tengah 73862","RW.Siwakkk, Montallat II, Kec. Montallat, Kabupaten Barito Utara",KALIMANTAN TENGAH,73862.0,Indonesia,,,,-1.3243146,114.8962842,https://maps.google.com/?cid=0x0:0x40d2151ec1fe528,
cafe,Restoran,Mie Ayam Mekar Sari,"P4QC+9Q7, Kandui, Kec. Gn. Timang, Kabupaten Barito Utara, Kalimantan Tengah 73862","Kandui, Kec. Gn. Timang, Kabupaten Barito Utara",KALIMANTAN TENGAH,73862.0,Indonesia,,,,-1.2615814,115.1219084,https://maps.google.com/?cid=0x0:0x232107ed866a4f60,
cafe,Indonesia,DEPOT HALIZA,"Unnamed Road, Kandui, Kec. Gn. Timang, Kabupaten Barito Utara, Kalimantan Tengah 73862","Kandui, Kec. Gn. Timang, Kabupaten Barito Utara",KALIMANTAN TENGAH,73862.0,Indonesia,85248925940.0,,,-1.2636902,115.1212327,https://maps.google.com/?cid=0x0:0xb9f474f44476db55,
cafe,Kafe,Kedai Me Time,"depan SMPN1, Kandui, Kec. Gn. Timang, Kabupaten Barito Utara, Kalimantan Tengah 73862","Kandui, Kec. Gn. Timang, Kabupaten Barito Utara",KALIMANTAN TENGAH,73862.0,Indonesia,,,,-1.2537244,115.1163477,https://maps.google.com/?cid=0x0:0xcf6cc7d36e7f3944,
cafe,cafe,Kalimantan Tengah 73871,"Kabupaten Barito Utara, Kalimantan Tengah","Kabupaten Barito Utara, Kalimantan Tengah",KALIMANTAN TENGAH,,Indonesia,,,,-1.197196,115.6154732,https://maps.google.com/?cid=0x0:0x6d60d15ecdbf488b,
cafe,Dapur Umum,Warung adibah,"Lampeong II, Gn. Purei, Kabupaten Barito Utara, Kalimantan Tengah 73871","Gn. Purei, Kabupaten Barito Utara",KALIMANTAN TENGAH,73871.0,Indonesia,,,,-1.1373065,115.6048756,https://maps.google.com/?cid=0x0:0xe0fc00d97566fd88,
cafe,cafe,HF POTOCOPY,"PJRG+RW8, Lampeong II, Gn. Purei, Kabupaten Barito Utara, Kalimantan Tengah","Kabupaten Barito Utara, Kalimantan Tengah",KALIMANTAN TENGAH,,Indonesia,,,,-1.2579681,115.6273131,https://maps.google.com/?cid=0x0:0x7a5ef25963151584,
cafe,cafe,Kalimantan Tengah 73852,"Kec. Lahei, Kabupaten Barito Utara, Kalimantan Tengah","Kabupaten Barito Utara, Kalimantan Tengah",KALIMANTAN TENGAH,,Indonesia,,,,-0.6129045,115.188916,https://maps.google.com/?cid=0x0:0xf279ed86a55323d0,
cafe,Kafe,2D Cafe molandahera,"7V3R+84R, Benao Hulu, Kec. Lahei Barat, Kabupaten Barito Utara, Kalimantan Tengah 73852","Benao Hulu, Kec. Lahei Barat, Kabupaten Barito Utara",KALIMANTAN TENGAH,73852.0,Indonesia,,,,-0.7466329,114.8902605,https://maps.google.com/?cid=0x0:0xff828e2c6a6311f2,
cafe,Kedai Kopi,Yellow Cafe,"6W2P+8PX, Unnamed Road, Luwe Hulu, Kec. Lahei Barat, Kabupaten Barito Utara, Kalimantan Tengah 73812","Unnamed Road, Luwe Hulu, Kec. Lahei Barat, Kabupaten Barito Utara",KALIMANTAN TENGAH,73812.0,Indonesia,,,,-0.7991333,114.9368745,https://maps.google.com/?cid=0x0:0xd33a0c633fd1ebc8,
cafe,Restoran,CAFE POBA (Pondok Bambu),"Jalan Lintas Kecamatan Samping PDAM, Desa, Teluk Malewai, Kec. Lahei Barat, Kabupaten Barito Utara, Kalimantan Tengah 73852","Desa, Teluk Malewai, Kec. Lahei Barat, Kabupaten Barito Utara",KALIMANTAN TENGAH,73852.0,Indonesia,85754105002.0,,,-0.7419984,114.8990028,https://maps.google.com/?cid=0x0:0x3197a701b02a09c9,
cafe,Kedai Kopi,Warung KM 27,"PT.WIKI, Jalan, Muara Pari, Lahei, North Barito Regency, Central Kalimantan 73852","Jalan, Muara Pari, Lahei, North Barito Regency",KALIMANTAN TENGAH,73852.0,Indonesia,,,,-0.6582647,115.054038,https://maps.google.com/?cid=0x0:0x7cb01968d839b194,
cafe,Restoran,TALA COFFEE AND EATERY,"2VWP+H5, Lanjas, Kec. Teweh Tengah, Kabupaten Barito Utara, Kalimantan Tengah","Kabupaten Barito Utara, Kalimantan Tengah",KALIMANTAN TENGAH,,Indonesia,,,,-0.9535925,114.8854631,https://maps.google.com/?cid=0x0:0x4b74965aec5eef7e,
cafe,Restoran,Rumah makan terapung benao lestari,"Benao Hilir, Kec. Lahei Barat, Kabupaten Barito Utara, Kalimantan Tengah 73852","Kec. Lahei Barat, Kabupaten Barito Utara",KALIMANTAN TENGAH,73852.0,Indonesia,82150232164.0,,,-0.7487008,114.8938996,https://maps.google.com/?cid=0x0:0x10dd3ad1ae4cd33b,
cafe,Brunch,black house,"Jalan Isran AS No.rt 9, Muara Tuhup, Kec. Laung Tuhup, Kabupaten Murung Raya, Kalimantan Tengah 73911","Muara Tuhup, Kec. Laung Tuhup, Kabupaten Murung Raya",KALIMANTAN TENGAH,73911.0,Indonesia,811508297.0,,,-0.6184049,114.8087704,https://maps.google.com/?cid=0x0:0xe05ef5f51b47d3af,
cafe,Kafe,Warung Eksafarizqy,"4352+W2, Juju Baru, Kec. Lahei, Kabupaten Barito Utara, Kalimantan Tengah","Kabupaten Barito Utara, Kalimantan Tengah",KALIMANTAN TENGAH,,Indonesia,,,,-0.8901417,115.050065,https://maps.google.com/?cid=0x0:0x52e5e8eea6763e5c,
cafe,Kafe,Cafe Bintang,"Unnamed Road, Muara Tuhup, Kec. Laung Tuhup, Kabupaten Murung Raya, Kalimantan Tengah 73991","Muara Tuhup, Kec. Laung Tuhup, Kabupaten Murung Raya",KALIMANTAN TENGAH,73991.0,Indonesia,,,,-0.6250449,114.8102195,https://maps.google.com/?cid=0x0:0x2ef07e09c738364d,
cafe,Kedai Kopi,Adita Cafe,"2VVW+55F, Lanjas, Kec. Teweh Tengah, Kabupaten Barito Utara, Kalimantan Tengah 73814","Lanjas, Kec. Teweh Tengah, Kabupaten Barito Utara",KALIMANTAN TENGAH,73814.0,Indonesia,,,,-0.9570562,114.8954064,https://maps.google.com/?cid=0x0:0xc0f4e184fc90f443,
cafe,Kafe,KOPILAVAN,"Jl. Persemaian III, Lanjas, Kec. Teweh Tengah, Kabupaten Barito Utara, Kalimantan Tengah 73812","Lanjas, Kec. Teweh Tengah, Kabupaten Barito Utara",KALIMANTAN TENGAH,73812.0,Indonesia,85710608008.0,,,-0.9372645,114.8847725,https://maps.google.com/?cid=0x0:0xb9437faf2774f9e5,
cafe,Kedai Kopi,Kopi Itah,"Jl. Taman Remaja, Lanjas, Kec. Teweh Tengah, Kabupaten Barito Utara, Kalimantan Tengah 73811","Lanjas, Kec. Teweh Tengah, Kabupaten Barito Utara",KALIMANTAN TENGAH,73811.0,Indonesia,81347413342.0,,,-0.9438474,114.8914641,https://maps.google.com/?cid=0x0:0x82efe99234d63c1e,
cafe,Kafe,Riskifira Cafe,"2VVW+55F, Lanjas, Kec. Teweh Tengah, Kabupaten Barito Utara, Kalimantan Tengah 73814","Lanjas, Kec. Teweh Tengah, Kabupaten Barito Utara",KALIMANTAN TENGAH,73814.0,Indonesia,,,,-0.9570167,114.8955183,https://maps.google.com/?cid=0x0:0xdc18cc7659e2e55a,
cafe,Kafe,ZEZE COFFEE,"Jl. Permata Hati 2 No.2, Lanjas, Kec. Teweh Tengah, Kabupaten Barito Utara, Kalimantan Tengah 73812","Lanjas, Kec. Teweh Tengah, Kabupaten Barito Utara",KALIMANTAN TENGAH,73812.0,Indonesia,82164448999.0,,,-0.9376976,114.8850884,https://maps.google.com/?cid=0x0:0x29fa28c87b9a12a6,
cafe,Kafe,Beranda Kohv,"Lanjas, Kec. Teweh Tengah, Kabupaten Barito Utara, Kalimantan Tengah 73814","Kec. Teweh Tengah, Kabupaten Barito Utara",KALIMANTAN TENGAH,73814.0,Indonesia,,,,-0.9379473,114.8780173,https://maps.google.com/?cid=0x0:0x28d60c36895fac2c,
cafe,Kafe,Belakang Layar Coffee,"Jl. Ronggolawe No.165, Melayu, Kec. Teweh Tengah, Kabupaten Barito Utara, Kalimantan Tengah 73811","Melayu, Kec. Teweh Tengah, Kabupaten Barito Utara",KALIMANTAN TENGAH,73811.0,Indonesia,,,,-0.9438291,114.8993217,https://maps.google.com/?cid=0x0:0x7264d3185f7ecfbd,
cafe,Kedai Kopi,UmayWa.Kupi,"6W96+H83, Jl. Lintas, Jangkang Baru, Kec. Lahei Barat, Kabupaten Barito Utara, Kalimantan Tengah","Kabupaten Barito Utara, Kalimantan Tengah",KALIMANTAN TENGAH,,Indonesia,,,,-0.7811125,114.9108016,https://maps.google.com/?cid=0x0:0x24f97db29a11a05f,
cafe,Kafe,Ulun Kopi,"Jl. Tegal Rejo No.Ujung, Melayu, Kec. Teweh Tengah, Kabupaten Barito Utara, Kalimantan Tengah 73814","Melayu, Kec. Teweh Tengah, Kabupaten Barito Utara",KALIMANTAN TENGAH,73814.0,Indonesia,,,,-0.9258284,114.8957095,https://maps.google.com/?cid=0x0:0xe8f89ccc9ea90b9c,
cafe,Kafe,Cafe Qolbi,"9RF5+PJ4, Jl. Ahmad Yani, RT./RW/RW.:006/002, Muara Tuhup, Kec. Laung Tuhup, Kabupaten Murung Raya, Kalimantan Tengah 73991","Jl. Ahmad Yani, RT./RW/RW.:006/002, Muara Tuhup, Kec. Laung Tuhup, Kabupaten Murung Raya",KALIMANTAN TENGAH,73991.0,Indonesia,,,,-0.6257439,114.8090855,https://maps.google.com/?cid=0x0:0x27893cf941c3133c,
cafe,Kedai Kopi,Evonkelv Coffee,"2WV3+QVR, Jl. Imam Bonjol, Melayu, Kec. Teweh Tengah, Kabupaten Barito Utara, Kalimantan Tengah 73814","Jl. Imam Bonjol, Melayu, Kec. Teweh Tengah, Kabupaten Barito Utara",KALIMANTAN TENGAH,73814.0,Indonesia,,,,-0.9555008,114.9046303,https://maps.google.com/?cid=0x0:0x4ba5c97fa33f330e,
cafe,Rumah Makan,Cafe Serasa,"Jl. Rapen, Lanjas, Kec. Teweh Tengah, Kabupaten Barito Utara, Kalimantan Tengah 73814","Lanjas, Kec. Teweh Tengah, Kabupaten Barito Utara",KALIMANTAN TENGAH,73814.0,Indonesia,81263391803.0,,,-0.9531146,114.8848959,https://maps.google.com/?cid=0x0:0x2cd1c0066a87955,
cafe,Kedai Teh,Laris Thai Tea  coffee,"Jl. Jend. Sudirman, Melayu, Kec. Teweh Tengah, Kabupaten Barito Utara, Kalimantan Tengah 73814","Melayu, Kec. Teweh Tengah, Kabupaten Barito Utara",KALIMANTAN TENGAH,73814.0,Indonesia,81351659426.0,,,-0.947872,114.9023297,https://maps.google.com/?cid=0x0:0x11fe4ccc8391178c,
cafe,Kedai Kopi,Agape Coffee  Eatery,"Jl. Merak Simpang MT, Melayu, Kec. Teweh Tengah, Kabupaten Barito Utara, Kalimantan Tengah 73811","Melayu, Kec. Teweh Tengah, Kabupaten Barito Utara",KALIMANTAN TENGAH,73811.0,Indonesia,82252612857.0,,,-0.9573913,114.9048248,https://maps.google.com/?cid=0x0:0x769ef8619f8d73d9,
cafe,cafe,Kec. Lahei Barat,"Kabupaten Barito Utara, Kalimantan Tengah","Kabupaten Barito Utara, Kalimantan Tengah",KALIMANTAN TENGAH,,Indonesia,,,,-0.7935062,114.9382498,https://maps.google.com/?cid=0x0:0x5adc4924308bea72,
cafe,Kafe,2D Cafe molandahera,"7V3R+84R, Benao Hulu, Kec. Lahei Barat, Kabupaten Barito Utara, Kalimantan Tengah 73852","Benao Hulu, Kec. Lahei Barat, Kabupaten Barito Utara",KALIMANTAN TENGAH,73852.0,Indonesia,,,,-0.7466329,114.8902605,https://maps.google.com/?cid=0x0:0xff828e2c6a6311f2,
cafe,Restoran,CAFE POBA (Pondok Bambu),"Jalan Lintas Kecamatan Samping PDAM, Desa, Teluk Malewai, Kec. Lahei Barat, Kabupaten Barito Utara, Kalimantan Tengah 73852","Desa, Teluk Malewai, Kec. Lahei Barat, Kabupaten Barito Utara",KALIMANTAN TENGAH,73852.0,Indonesia,85754105002.0,,,-0.7419984,114.8990028,https://maps.google.com/?cid=0x0:0x3197a701b02a09c9,
cafe,Kedai Kopi,Warung KM 27,"PT.WIKI, Jalan, Muara Pari, Lahei, North Barito Regency, Central Kalimantan 73852","Jalan, Muara Pari, Lahei, North Barito Regency",KALIMANTAN TENGAH,73852.0,Indonesia,,,,-0.6582647,115.054038,https://maps.google.com/?cid=0x0:0x7cb01968d839b194,
cafe,Restoran,Rumah makan terapung benao lestari,"Benao Hilir, Kec. Lahei Barat, Kabupaten Barito Utara, Kalimantan Tengah 73852","Kec. Lahei Barat, Kabupaten Barito Utara",KALIMANTAN TENGAH,73852.0,Indonesia,82150232164.0,,,-0.7487008,114.8938996,https://maps.google.com/?cid=0x0:0x10dd3ad1ae4cd33b,
cafe,Restoran,TALA COFFEE AND EATERY,"2VWP+H5, Lanjas, Kec. Teweh Tengah, Kabupaten Barito Utara, Kalimantan Tengah","Kabupaten Barito Utara, Kalimantan Tengah",KALIMANTAN TENGAH,,Indonesia,,,,-0.9535925,114.8854631,https://maps.google.com/?cid=0x0:0x4b74965aec5eef7e,
cafe,Toko,Warung Simpang Tiga Bersaudara,"6W82+72, Nihan Hulu, Kec. Lahei Barat, Kabupaten Barito Utara, Kalimantan Tengah","Kabupaten Barito Utara, Kalimantan Tengah",KALIMANTAN TENGAH,,Indonesia,,,,-0.78435,114.9000383,https://maps.google.com/?cid=0x0:0xcfee1246ea076f4a,
cafe,Rumah Makan,Cafe Serasa,"Jl. Rapen, Lanjas, Kec. Teweh Tengah, Kabupaten Barito Utara, Kalimantan Tengah 73814","Lanjas, Kec. Teweh Tengah, Kabupaten Barito Utara",KALIMANTAN TENGAH,73814.0,Indonesia,81263391803.0,,,-0.9531146,114.8848959,https://maps.google.com/?cid=0x0:0x2cd1c0066a87955,
cafe,Kedai Kopi,Adita Cafe,"2VVW+55F, Lanjas, Kec. Teweh Tengah, Kabupaten Barito Utara, Kalimantan Tengah 73814","Lanjas, Kec. Teweh Tengah, Kabupaten Barito Utara",KALIMANTAN TENGAH,73814.0,Indonesia,,,,-0.9570562,114.8954064,https://maps.google.com/?cid=0x0:0xc0f4e184fc90f443,
cafe,Kafe,Belakang Layar Coffee,"Jl. Ronggolawe No.165, Melayu, Kec. Teweh Tengah, Kabupaten Barito Utara, Kalimantan Tengah 73811","Melayu, Kec. Teweh Tengah, Kabupaten Barito Utara",KALIMANTAN TENGAH,73811.0,Indonesia,,,,-0.9438291,114.8993217,https://maps.google.com/?cid=0x0:0x7264d3185f7ecfbd,
cafe,Batak,Alpianda,"6W4Q+H7X, Luwe Hulu, Kec. Lahei Barat, Kabupaten Barito Utara, Kalimantan Tengah","Kabupaten Barito Utara, Kalimantan Tengah",KALIMANTAN TENGAH,,Indonesia,,,,-0.7935062,114.9382498,https://maps.google.com/?cid=0x0:0x815d7317012e3e45,
cafe,Kedai Kopi,UmayWa.Kupi,"6W96+H83, Jl. Lintas, Jangkang Baru, Kec. Lahei Barat, Kabupaten Barito Utara, Kalimantan Tengah","Kabupaten Barito Utara, Kalimantan Tengah",KALIMANTAN TENGAH,,Indonesia,,,,-0.7811125,114.9108016,https://maps.google.com/?cid=0x0:0x24f97db29a11a05f,
cafe,Kafe,KOPILAVAN,"Jl. Persemaian III, Lanjas, Kec. Teweh Tengah, Kabupaten Barito Utara, Kalimantan Tengah 73812","Lanjas, Kec. Teweh Tengah, Kabupaten Barito Utara",KALIMANTAN TENGAH,73812.0,Indonesia,85710608008.0,,,-0.9372645,114.8847725,https://maps.google.com/?cid=0x0:0xb9437faf2774f9e5,
cafe,Kafe,Beranda Kohv,"Lanjas, Kec. Teweh Tengah, Kabupaten Barito Utara, Kalimantan Tengah 73814","Kec. Teweh Tengah, Kabupaten Barito Utara",KALIMANTAN TENGAH,73814.0,Indonesia,,,,-0.9379473,114.8780173,https://maps.google.com/?cid=0x0:0x28d60c36895fac2c,
cafe,Kafe,ZEZE COFFEE,"Jl. Permata Hati 2 No.2, Lanjas, Kec. Teweh Tengah, Kabupaten Barito Utara, Kalimantan Tengah 73812","Lanjas, Kec. Teweh Tengah, Kabupaten Barito Utara",KALIMANTAN TENGAH,73812.0,Indonesia,82164448999.0,,,-0.9376976,114.8850884,https://maps.google.com/?cid=0x0:0x29fa28c87b9a12a6,
cafe,Kedai Kopi,Koffie.liwaa,"2WV5+448, Jl. Sengaji Hulu, Melayu, Kec. Teweh Tengah, Kabupaten Barito Utara, Kalimantan Tengah 73814","Jl. Sengaji Hulu, Melayu, Kec. Teweh Tengah, Kabupaten Barito Utara",KALIMANTAN TENGAH,73814.0,Indonesia,81253101077.0,,,-0.9572128,114.9078332,https://maps.google.com/?cid=0x0:0x4c2848759ef16a2b,
cafe,Restoran,Simple Cafe,"Jl. Bandara Lama No.1, Melayu, Kec. Teweh Tengah, Kabupaten Barito Utara, Kalimantan Tengah 73814","Melayu, Kec. Teweh Tengah, Kabupaten Barito Utara",KALIMANTAN TENGAH,73814.0,Indonesia,81256763300.0,,,-0.9451286,114.8978218,https://maps.google.com/?cid=0x0:0x82d8781fadca9946,
cafe,Kedai Kopi,Kopi Itah,"Jl. Taman Remaja, Lanjas, Kec. Teweh Tengah, Kabupaten Barito Utara, Kalimantan Tengah 73811","Lanjas, Kec. Teweh Tengah, Kabupaten Barito Utara",KALIMANTAN TENGAH,73811.0,Indonesia,81347413342.0,,,-0.9438474,114.8914641,https://maps.google.com/?cid=0x0:0x82efe99234d63c1e,
cafe,Restoran,"Cafe Tarera, Muara Teweh","3V4W+64W, Lanjas, Kec. Teweh Tengah, Kabupaten Barito Utara, Kalimantan Tengah 73814","Lanjas, Kec. Teweh Tengah, Kabupaten Barito Utara",KALIMANTAN TENGAH,73814.0,Indonesia,81351980533.0,,,-0.9443919,114.8953284,https://maps.google.com/?cid=0x0:0x53cec34a1f33c002,
cafe,Restoran,TS Cafe,"Jl. Pramuka No.55, Lanjas, Kec. Teweh Tengah, Kabupaten Barito Utara, Kalimantan Tengah 73814","Lanjas, Kec. Teweh Tengah, Kabupaten Barito Utara",KALIMANTAN TENGAH,73814.0,Indonesia,,,,-0.9461942,114.897468,https://maps.google.com/?cid=0x0:0xf4a67f486121b5e1,
cafe,Kedai Kopi,Warung UMi,"94HP+9JP, Unnamed Road, Muara Pari, Kec. Lahei, Kabupaten Barito Utara, Kalimantan Tengah 73852","Unnamed Road, Muara Pari, Kec. Lahei, Kabupaten Barito Utara",KALIMANTAN TENGAH,73852.0,Indonesia,,,,-0.6215334,115.1365702,https://maps.google.com/?cid=0x0:0x85e6678c9677bb09,
cafe,Kafe,Ulun Kopi,"Jl. Tegal Rejo No.Ujung, Melayu, Kec. Teweh Tengah, Kabupaten Barito Utara, Kalimantan Tengah 73814","Melayu, Kec. Teweh Tengah, Kabupaten Barito Utara",KALIMANTAN TENGAH,73814.0,Indonesia,,,,-0.9258284,114.8957095,https://maps.google.com/?cid=0x0:0xe8f89ccc9ea90b9c,
cafe,Kafe,Awen Kopi,"2VWX+6JJ, Jl. Bangau, Melayu, Kec. Teweh Tengah, Kabupaten Barito Utara, Kalimantan Tengah 73814","Jl. Bangau, Melayu, Kec. Teweh Tengah, Kabupaten Barito Utara",KALIMANTAN TENGAH,73814.0,Indonesia,82198077219.0,,,-0.9544246,114.8990141,https://maps.google.com/?cid=0x0:0x32641097b4da2960,
cafe,Kafe,OY MRcoffee,"Jl. Pendreh No.Rt.33 a, Melayu, Kec. Teweh Tengah, Kabupaten Barito Utara, Kalimantan Tengah 73814","Melayu, Kec. Teweh Tengah, Kabupaten Barito Utara",KALIMANTAN TENGAH,73814.0,Indonesia,82154665545.0,,,-0.9419662,114.897123,https://maps.google.com/?cid=0x0:0x169184f8c46da1aa,
cafe,cafe,Kec. Montallat,"Kabupaten Barito Utara, Kalimantan Tengah","Kabupaten Barito Utara, Kalimantan Tengah",KALIMANTAN TENGAH,,Indonesia,,,,-1.3271553,114.8390377,https://maps.google.com/?cid=0x0:0xaee00abe123121b3,
cafe,Restoran,TALA COFFEE AND EATERY,"2VWP+H5, Lanjas, Kec. Teweh Tengah, Kabupaten Barito Utara, Kalimantan Tengah","Kabupaten Barito Utara, Kalimantan Tengah",KALIMANTAN TENGAH,,Indonesia,,,,-0.9535925,114.8854631,https://maps.google.com/?cid=0x0:0x4b74965aec5eef7e,
cafe,Kedai Kopi,Kedai Rumah Julak,"MRGG+CVQ, Jl. Raya Lintas Kota, Tumpung Laung II, Kec. Montallat, Kabupaten Barito Utara, Kalimantan Tengah 73861","Jl. Raya Lintas Kota, Tumpung Laung II, Kec. Montallat, Kabupaten Barito Utara",KALIMANTAN TENGAH,73861.0,Indonesia,,,,-1.3239184,114.8272191,https://maps.google.com/?cid=0x0:0x8a0f4cbad256f132,
cafe,Kedai Kopi,Java Sultan Cafe,"VX92+MV, Pandran Permai, Kec. Tewen Selatan, Kabupaten Barito Utara, Kalimantan Tengah","Kabupaten Barito Utara, Kalimantan Tengah",KALIMANTAN TENGAH,,Indonesia,,,,-1.1317865,114.9525004,https://maps.google.com/?cid=0x0:0x3e444b3f352850b7,
cafe,Restoran,WARUNG MAKAN PAK DE LAMONGAN,"VW6X+XFF, Pandran Permai, Kec. Tewen Selatan, Kabupaten Barito Utara, Kalimantan Tengah 73861","Pandran Permai, Kec. Tewen Selatan, Kabupaten Barito Utara",KALIMANTAN TENGAH,73861.0,Indonesia,82150531474.0,,,-1.1375555,114.9486851,https://maps.google.com/?cid=0x0:0x6bee92df5db92bde,
cafe,Kedai Kopi,Wrong,"PVG4+4M5 Puskesmas Tp. Laung, Sikan, Kec. Montallat, Kabupaten Barito Utara, Kalimantan Tengah 73861","Sikan, Kec. Montallat, Kabupaten Barito Utara",KALIMANTAN TENGAH,73861.0,Indonesia,81256658882.0,,,-1.2747293,114.8567482,https://maps.google.com/?cid=0x0:0x26ab34962c934b50,
cafe,Kedai Kopi,Cafe Pelangi,"MRHC+2J4, Tumpung Laung II, Kec. Montallat, Kabupaten Barito Utara, Kalimantan Tengah","Kabupaten Barito Utara, Kalimantan Tengah",KALIMANTAN TENGAH,,Indonesia,,,,-1.3224985,114.8215911,https://maps.google.com/?cid=0x0:0x54f8c82605d9331e,
cafe,Toko,Warung Acil Jawa,"QRP2+6MH, Paring Lahung, Kec. Montallat, Kabupaten Barito Utara, Kalimantan Tengah 73861","Paring Lahung, Kec. Montallat, Kabupaten Barito Utara",KALIMANTAN TENGAH,73861.0,Indonesia,,,,-1.2151881,114.8013451,https://maps.google.com/?cid=0x0:0x7f7ba55c94c109f0,
cafe,Restoran,Simple Cafe,"Jl. Bandara Lama No.1, Melayu, Kec. Teweh Tengah, Kabupaten Barito Utara, Kalimantan Tengah 73814","Melayu, Kec. Teweh Tengah, Kabupaten Barito Utara",KALIMANTAN TENGAH,73814.0,Indonesia,81256763300.0,,,-0.9451286,114.8978218,https://maps.google.com/?cid=0x0:0x82d8781fadca9946,
cafe,Kedai Kopi,Kedai Nafaz,"PQXX+G6F, Paring Lahung, Kec. Montallat, Kabupaten Barito Utara, Kalimantan Tengah 73861","Paring Lahung, Kec. Montallat, Kabupaten Barito Utara",KALIMANTAN TENGAH,73861.0,Indonesia,,,,-1.2511762,114.7980436,https://maps.google.com/?cid=0x0:0xb8e4f56aaf35939c,
cafe,Komplek perumahan,Rumah Norjenah,"MWJ8+RCG, Montallat II, Kec. Montallat, Kabupaten Barito Utara, Kalimantan Tengah","Kabupaten Barito Utara, Kalimantan Tengah",KALIMANTAN TENGAH,,Indonesia,,,,-1.3179362,114.916088,https://maps.google.com/?cid=0x0:0x47b6fb36b3bd23a9,
cafe,Kedai Kopi,warung zeus,"MRCR+X9F, Tumpung Laung I, Kec. Montallat, Kabupaten Barito Utara, Kalimantan Tengah 73861","Tumpung Laung I, Kec. Montallat, Kabupaten Barito Utara",KALIMANTAN TENGAH,73861.0,Indonesia,,,,-1.3275538,114.8409077,https://maps.google.com/?cid=0x0:0x328a68299fd459e9,
cafe,Kedai Kopi,Warung Pak Mohan,"VW5C+MV6, Unnamed Road, Buntok Baru, Kec. Tewen Selatan, Kabupaten Barito Utara, Kalimantan Tengah 73861","Unnamed Road, Buntok Baru, Kec. Tewen Selatan, Kabupaten Barito Utara",KALIMANTAN TENGAH,73861.0,Indonesia,85387086006.0,,,-1.1408413,114.9221399,https://maps.google.com/?cid=0x0:0xe3cbfd2b89bbe922,
cafe,Kafe,OY MRcoffee,"Jl. Pendreh No.Rt.33 a, Melayu, Kec. Teweh Tengah, Kabupaten Barito Utara, Kalimantan Tengah 73814","Melayu, Kec. Teweh Tengah, Kabupaten Barito Utara",KALIMANTAN TENGAH,73814.0,Indonesia,82154665545.0,,,-0.9419662,114.897123,https://maps.google.com/?cid=0x0:0x169184f8c46da1aa,
cafe,Restoran,"Cafe Tarera, Muara Teweh","3V4W+64W, Lanjas, Kec. Teweh Tengah, Kabupaten Barito Utara, Kalimantan Tengah 73814","Lanjas, Kec. Teweh Tengah, Kabupaten Barito Utara",KALIMANTAN TENGAH,73814.0,Indonesia,81351980533.0,,,-0.9443919,114.8953284,https://maps.google.com/?cid=0x0:0x53cec34a1f33c002,
cafe,Kafe,Warung diva,"VW7W+J5V, Pandran Permai, Kec. Teweh Tengah, Kabupaten Barito Utara, Kalimantan Tengah 73861","Pandran Permai, Kec. Teweh Tengah, Kabupaten Barito Utara",KALIMANTAN TENGAH,73861.0,Indonesia,,,,-1.13588,114.9454105,https://maps.google.com/?cid=0x0:0x97bc61d7ee222b92,
cafe,Padang,Amay servis montallat II,"Montallat II, Kec. Montallat, Kabupaten Barito Utara, Kalimantan Tengah 73861","Kec. Montallat, Kabupaten Barito Utara",KALIMANTAN TENGAH,73861.0,Indonesia,82211022506.0,,,-1.3215679,114.9041494,https://maps.google.com/?cid=0x0:0xe5dbff16cd245606,
cafe,Bakso,Warung Bakso Mama Yasin Tumpung Laung,"Tumpung Laung I, Kec. Montallat, Kabupaten Barito Utara, Kalimantan Tengah 73861","Kec. Montallat, Kabupaten Barito Utara",KALIMANTAN TENGAH,73861.0,Indonesia,82256262121.0,,,-1.3231464,114.8389443,https://maps.google.com/?cid=0x0:0x7360e0760a72ae23,
cafe,Restoran,TS Cafe,"Jl. Pramuka No.55, Lanjas, Kec. Teweh Tengah, Kabupaten Barito Utara, Kalimantan Tengah 73814","Lanjas, Kec. Teweh Tengah, Kabupaten Barito Utara",KALIMANTAN TENGAH,73814.0,Indonesia,,,,-0.9461942,114.897468,https://maps.google.com/?cid=0x0:0xf4a67f486121b5e1,
cafe,Bakso,Bakso Muncul,"Jl. Raya Lintas Kota, Tumpung Laung II, Kec. Montallat, Kabupaten Barito Utara, Kalimantan Tengah 73861","Tumpung Laung II, Kec. Montallat, Kabupaten Barito Utara",KALIMANTAN TENGAH,73861.0,Indonesia,82325717753.0,,,-1.3223678,114.8212853,https://maps.google.com/?cid=0x0:0x2a0dc8f5f857c32c,
cafe,cafe,Wr makan mbak hotijah Banyuwangi,"VW5C+7W, Buntok Baru, Kec. Tewen Selatan, Kabupaten Barito Utara, Kalimantan Tengah","Kabupaten Barito Utara, Kalimantan Tengah",KALIMANTAN TENGAH,,Indonesia,,,,-1.1418477,114.9223103,https://maps.google.com/?cid=0x0:0xfd381d1157894440,
cafe,Dapur Umum,Dapur Mama Wak,"Jalan K.H Dewan Tara,Rt 05,Tumpung Laung II,Kec. Montallat, Bartito Utara, Kabupaten Barito Utara, Kalimantan Tengah 73861","Bartito Utara, Kabupaten Barito Utara",KALIMANTAN TENGAH,73861.0,Indonesia,82149570652.0,,,-1.3238187,114.8273425,https://maps.google.com/?cid=0x0:0xf5476db3786b6fed,
cafe,cafe,Warung mama windatania,"PQRH+XC5, Ruji, Kec. Montallat, Kabupaten Barito Utara, Kalimantan Tengah 73861","Ruji, Kec. Montallat, Kabupaten Barito Utara",KALIMANTAN TENGAH,73861.0,Indonesia,,,,-1.2576091,114.7785962,https://maps.google.com/?cid=0x0:0x16f12bea928b842b,
cafe,cafe,Kalimantan Tengah 73813,"Jambu, Kec. Teweh Baru, Kabupaten Barito Utara, Kalimantan Tengah","Kabupaten Barito Utara, Kalimantan Tengah",KALIMANTAN TENGAH,,Indonesia,,,,-0.8856163,115.0169419,https://maps.google.com/?cid=0x0:0x20b84a66bae62c5e,
cafe,Restoran,TALA COFFEE AND EATERY,"2VWP+H5, Lanjas, Kec. Teweh Tengah, Kabupaten Barito Utara, Kalimantan Tengah","Kabupaten Barito Utara, Kalimantan Tengah",KALIMANTAN TENGAH,,Indonesia,,,,-0.9535925,114.8854631,https://maps.google.com/?cid=0x0:0x4b74965aec5eef7e,
cafe,Kedai Kopi,"Jakarta Coffee and Space, Muara Teweh","Jalan Taman Rekreasi Remaja, Lanjas, Kec. Teweh Tengah, Kabupaten Barito Utara, Kalimantan Tengah 73812","Lanjas, Kec. Teweh Tengah, Kabupaten Barito Utara",KALIMANTAN TENGAH,73812.0,Indonesia,82352301911.0,,,-0.9445481,114.8956042,https://maps.google.com/?cid=0x0:0x639505783a809af7,
cafe,Rumah Makan,Cafe Serasa,"Jl. Rapen, Lanjas, Kec. Teweh Tengah, Kabupaten Barito Utara, Kalimantan Tengah 73814","Lanjas, Kec. Teweh Tengah, Kabupaten Barito Utara",KALIMANTAN TENGAH,73814.0,Indonesia,81263391803.0,,,-0.9531146,114.8848959,https://maps.google.com/?cid=0x0:0x2cd1c0066a87955,
cafe,Kedai Kopi,"Kafe Kaca, Muara Teweh","2VWV+R8Q, Jl. Pramuka, Lanjas, Kec. Teweh Tengah, Kabupaten Barito Utara, Kalimantan Tengah 73814","Jl. Pramuka, Lanjas, Kec. Teweh Tengah, Kabupaten Barito Utara",KALIMANTAN TENGAH,73814.0,Indonesia,,,,-0.9529234,114.8933553,https://maps.google.com/?cid=0x0:0x4ba6a69376dd1158,
cafe,Kedai Kopi,Evonkelv Coffee,"2WV3+QVR, Jl. Imam Bonjol, Melayu, Kec. Teweh Tengah, Kabupaten Barito Utara, Kalimantan Tengah 73814","Jl. Imam Bonjol, Melayu, Kec. Teweh Tengah, Kabupaten Barito Utara",KALIMANTAN TENGAH,73814.0,Indonesia,,,,-0.9555008,114.9046303,https://maps.google.com/?cid=0x0:0x4ba5c97fa33f330e,
cafe,Restoran,Cafe Wayang Muara Teweh,"2VHP+QFM, Jingah, Kec. Teweh Tengah, Kabupaten Barito Utara, Kalimantan Tengah 73814","Jingah, Kec. Teweh Tengah, Kabupaten Barito Utara",KALIMANTAN TENGAH,73814.0,Indonesia,,,,-0.9705436,114.886179,https://maps.google.com/?cid=0x0:0xe3f8a9b99426b598,
cafe,Kafe,Maynd,"2VQR+8XQ, Jl. Yetro Sinseng, Lanjas, Kec. Teweh Tengah, Kabupaten Barito Utara, Kalimantan Tengah 73814","Jl. Yetro Sinseng, Lanjas, Kec. Teweh Tengah, Kabupaten Barito Utara",KALIMANTAN TENGAH,73814.0,Indonesia,51921819.0,,,-0.9616636,114.8924808,https://maps.google.com/?cid=0x0:0x8ff93b004e93333,
cafe,Kafe,OY MRcoffee,"Jl. Pendreh No.Rt.33 a, Melayu, Kec. Teweh Tengah, Kabupaten Barito Utara, Kalimantan Tengah 73814","Melayu, Kec. Teweh Tengah, Kabupaten Barito Utara",KALIMANTAN TENGAH,73814.0,Indonesia,82154665545.0,,,-0.9419662,114.897123,https://maps.google.com/?cid=0x0:0x169184f8c46da1aa,
cafe,Restoran,"Tetes Kopi, Muara Teweh","Jl. Pesona No.3, RT.29/RW.03, Lanjas, Kec. Teweh Tengah, Kabupaten Barito Utara, Kalimantan Tengah 73814","RT.29/RW.03, Lanjas, Kec. Teweh Tengah, Kabupaten Barito Utara",KALIMANTAN TENGAH,73814.0,Indonesia,,,,-0.9432198,114.8915334,https://maps.google.com/?cid=0x0:0xa6c0501729060363,
cafe,Restoran,TS Cafe,"Jl. Pramuka No.55, Lanjas, Kec. Teweh Tengah, Kabupaten Barito Utara, Kalimantan Tengah 73814","Lanjas, Kec. Teweh Tengah, Kabupaten Barito Utara",KALIMANTAN TENGAH,73814.0,Indonesia,,,,-0.9461942,114.897468,https://maps.google.com/?cid=0x0:0xf4a67f486121b5e1,
cafe,Kedai Kopi,Kopi Itah,"Jl. Taman Remaja, Lanjas, Kec. Teweh Tengah, Kabupaten Barito Utara, Kalimantan Tengah 73811","Lanjas, Kec. Teweh Tengah, Kabupaten Barito Utara",KALIMANTAN TENGAH,73811.0,Indonesia,81347413342.0,,,-0.9438474,114.8914641,https://maps.google.com/?cid=0x0:0x82efe99234d63c1e,
cafe,Bar Karaoke,HOLYWISH CAFE  KARAOKE,"Jl. Rapen, Lingkar Kota, Kec. Teweh Tengah, Kabupaten Barito Utara, Kalimantan Tengah 73812","Lingkar Kota, Kec. Teweh Tengah, Kabupaten Barito Utara",KALIMANTAN TENGAH,73812.0,Indonesia,82154263309.0,,,-0.9444526,114.8845602,https://maps.google.com/?cid=0x0:0x709a7bebf4f582f1,
cafe,Hotel,hotel,"Jl. Yetro Sinseng No.8, Lanjas, Kec. Teweh Tengah, Kabupaten Barito Utara, Kalimantan Tengah 73814","Lanjas, Kec. Teweh Tengah, Kabupaten Barito Utara",KALIMANTAN TENGAH,73814.0,Indonesia,85332127100.0,,,-0.9619394,114.8898641,https://maps.google.com/?cid=0x0:0xf415fda2af6a7945,
cafe,Hostel,Penginapan Barito,"Jl. Panglima Batur No.43, Melayu, Kec. Teweh Tengah, Kabupaten Barito Utara, Kalimantan Tengah 73811","Melayu, Kec. Teweh Tengah, Kabupaten Barito Utara",KALIMANTAN TENGAH,73811.0,Indonesia,82189295495.0,,,-0.9610592,114.9033008,https://maps.google.com/?cid=0x0:0xdcaf8dbebf27a08,
cafe,Tujuan Wisata,Water Front City Muara Teweh Kalimantan Tengah,"2WQ3+MQQ, Melayu, Kec. Teweh Tengah, Kabupaten Barito Utara, Kalimantan Tengah 73814","Melayu, Kec. Teweh Tengah, Kabupaten Barito Utara",KALIMANTAN TENGAH,73814.0,Indonesia,81251280888.0,,,-0.9607994,114.9044969,https://maps.google.com/?cid=0x0:0xa67419f15361deb9,
cafe,Kafe,Warung Eksafarizqy,"4352+W2, Juju Baru, Kec. Lahei, Kabupaten Barito Utara, Kalimantan Tengah","Kabupaten Barito Utara, Kalimantan Tengah",KALIMANTAN TENGAH,,Indonesia,,,,-0.8901417,115.050065,https://maps.google.com/?cid=0x0:0x52e5e8eea6763e5c,
cafe,cafe,Kalimantan Tengah 73814,"Kabupaten Barito Utara, Kalimantan Tengah","Kabupaten Barito Utara, Kalimantan Tengah",KALIMANTAN TENGAH,,Indonesia,,,,-0.8914468,114.8092691,https://maps.google.com/?cid=0x0:0xb5548f39346751af,
cafe,Restoran,TALA COFFEE AND EATERY,"2VWP+H5, Lanjas, Kec. Teweh Tengah, Kabupaten Barito Utara, Kalimantan Tengah","Kabupaten Barito Utara, Kalimantan Tengah",KALIMANTAN TENGAH,,Indonesia,,,,-0.9535925,114.8854631,https://maps.google.com/?cid=0x0:0x4b74965aec5eef7e,
cafe,Kedai Kopi,Sky Cafe,"Jl. Negara No.km 1, Jingah, Kec. Teweh Baru, Kabupaten Barito Utara, Kalimantan Tengah 73814","Jingah, Kec. Teweh Baru, Kabupaten Barito Utara",KALIMANTAN TENGAH,73814.0,Indonesia,85393649914.0,,,-0.9706366,114.8864298,https://maps.google.com/?cid=0x0:0x79f133e4f8b615c6,
cafe,Kedai Kopi,Lorong Tengah,"2VPQ+Q89, Lanjas, Kec. Teweh Tengah, Kabupaten Barito Utara, Kalimantan Tengah 73814","Lanjas, Kec. Teweh Tengah, Kabupaten Barito Utara",KALIMANTAN TENGAH,73814.0,Indonesia,,,,-0.9630757,114.8883533,https://maps.google.com/?cid=0x0:0xaf7bc34a0fc8fc92,
cafe,Kedai Kopi,"Jakarta Coffee and Space, Muara Teweh","Jalan Taman Rekreasi Remaja, Lanjas, Kec. Teweh Tengah, Kabupaten Barito Utara, Kalimantan Tengah 73812","Lanjas, Kec. Teweh Tengah, Kabupaten Barito Utara",KALIMANTAN TENGAH,73812.0,Indonesia,82352301911.0,,,-0.9445481,114.8956042,https://maps.google.com/?cid=0x0:0x639505783a809af7,
cafe,Kedai Kopi,Adita Cafe,"2VVW+55F, Lanjas, Kec. Teweh Tengah, Kabupaten Barito Utara, Kalimantan Tengah 73814","Lanjas, Kec. Teweh Tengah, Kabupaten Barito Utara",KALIMANTAN TENGAH,73814.0,Indonesia,,,,-0.9570562,114.8954064,https://maps.google.com/?cid=0x0:0xc0f4e184fc90f443,
cafe,Restoran,Simple Cafe,"Jl. Bandara Lama No.1, Melayu, Kec. Teweh Tengah, Kabupaten Barito Utara, Kalimantan Tengah 73814","Melayu, Kec. Teweh Tengah, Kabupaten Barito Utara",KALIMANTAN TENGAH,73814.0,Indonesia,81256763300.0,,,-0.9451286,114.8978218,https://maps.google.com/?cid=0x0:0x82d8781fadca9946,
cafe,Restoran,"Cafe Tarera, Muara Teweh","3V4W+64W, Lanjas, Kec. Teweh Tengah, Kabupaten Barito Utara, Kalimantan Tengah 73814","Lanjas, Kec. Teweh Tengah, Kabupaten Barito Utara",KALIMANTAN TENGAH,73814.0,Indonesia,81351980533.0,,,-0.9443919,114.8953284,https://maps.google.com/?cid=0x0:0x53cec34a1f33c002,
cafe,Kedai Kopi,Evonkelv Coffee,"2WV3+QVR, Jl. Imam Bonjol, Melayu, Kec. Teweh Tengah, Kabupaten Barito Utara, Kalimantan Tengah 73814","Jl. Imam Bonjol, Melayu, Kec. Teweh Tengah, Kabupaten Barito Utara",KALIMANTAN TENGAH,73814.0,Indonesia,,,,-0.9555008,114.9046303,https://maps.google.com/?cid=0x0:0x4ba5c97fa33f330e,
cafe,Restoran,Cafe Wayang Muara Teweh,"2VHP+QFM, Jingah, Kec. Teweh Tengah, Kabupaten Barito Utara, Kalimantan Tengah 73814","Jingah, Kec. Teweh Tengah, Kabupaten Barito Utara",KALIMANTAN TENGAH,73814.0,Indonesia,,,,-0.9705436,114.886179,https://maps.google.com/?cid=0x0:0xe3f8a9b99426b598,
cafe,Kafe,Ps Cafe  Resto,"Jl. Pramuka, Lanjas, Kec. Teweh Tengah, Kabupaten Barito Utara, Kalimantan Tengah 73814","Lanjas, Kec. Teweh Tengah, Kabupaten Barito Utara",KALIMANTAN TENGAH,73814.0,Indonesia,81289502305.0,,,-0.94636,114.8977386,https://maps.google.com/?cid=0x0:0x1167b90d45d90702,
cafe,Kafe,Maynd,"2VQR+8XQ, Jl. Yetro Sinseng, Lanjas, Kec. Teweh Tengah, Kabupaten Barito Utara, Kalimantan Tengah 73814","Jl. Yetro Sinseng, Lanjas, Kec. Teweh Tengah, Kabupaten Barito Utara",KALIMANTAN TENGAH,73814.0,Indonesia,51921819.0,,,-0.9616636,114.8924808,https://maps.google.com/?cid=0x0:0x8ff93b004e93333,
cafe,Kafe,OY MRcoffee,"Jl. Pendreh No.Rt.33 a, Melayu, Kec. Teweh Tengah, Kabupaten Barito Utara, Kalimantan Tengah 73814","Melayu, Kec. Teweh Tengah, Kabupaten Barito Utara",KALIMANTAN TENGAH,73814.0,Indonesia,82154665545.0,,,-0.9419662,114.897123,https://maps.google.com/?cid=0x0:0x169184f8c46da1aa,
cafe,Restoran,"Tetes Kopi, Muara Teweh","Jl. Pesona No.3, RT.29/RW.03, Lanjas, Kec. Teweh Tengah, Kabupaten Barito Utara, Kalimantan Tengah 73814","RT.29/RW.03, Lanjas, Kec. Teweh Tengah, Kabupaten Barito Utara",KALIMANTAN TENGAH,73814.0,Indonesia,,,,-0.9432198,114.8915334,https://maps.google.com/?cid=0x0:0xa6c0501729060363,
cafe,Kedai Kopi,"Kafe Kaca, Muara Teweh","2VWV+R8Q, Jl. Pramuka, Lanjas, Kec. Teweh Tengah, Kabupaten Barito Utara, Kalimantan Tengah 73814","Jl. Pramuka, Lanjas, Kec. Teweh Tengah, Kabupaten Barito Utara",KALIMANTAN TENGAH,73814.0,Indonesia,,,,-0.9529234,114.8933553,https://maps.google.com/?cid=0x0:0x4ba6a69376dd1158,
cafe,Kedai Kopi,Juragan Kopi,"Jl. Ahmad Yani, Melayu, Kec. Teweh Tengah, Kabupaten Barito Utara, Kalimantan Tengah 73814","Melayu, Kec. Teweh Tengah, Kabupaten Barito Utara",KALIMANTAN TENGAH,73814.0,Indonesia,82148843333.0,,,-0.9601249,114.8970241,https://maps.google.com/?cid=0x0:0xd3ca69f1e73b73f4,
cafe,Kedai Kopi,Quality Box Coffee,"Jl. Yetro Sinseng, Lanjas, Kec. Teweh Tengah, Kabupaten Barito Utara, Kalimantan Tengah 73814","Lanjas, Kec. Teweh Tengah, Kabupaten Barito Utara",KALIMANTAN TENGAH,73814.0,Indonesia,85248787700.0,,,-0.9629627,114.8887461,https://maps.google.com/?cid=0x0:0x4f1cfe5f792d9f48,
cafe,Kedai Kopi,KHATI KOFIE,"Jl. Yetro Sinseng, Lanjas, Kec. Teweh Tengah, Kabupaten Barito Utara, Kalimantan Tengah 73814","Lanjas, Kec. Teweh Tengah, Kabupaten Barito Utara",KALIMANTAN TENGAH,73814.0,Indonesia,85602948879.0,,,-0.9626921,114.8884547,https://maps.google.com/?cid=0x0:0x7dc7e83ae778418f,
cafe,Kafe,Adora Coffee Muara Teweh,"2WW4+PG3, Melayu, Kec. Teweh Tengah, Kabupaten Barito Utara, Kalimantan Tengah 73814","Melayu, Kec. Teweh Tengah, Kabupaten Barito Utara",KALIMANTAN TENGAH,73814.0,Indonesia,,,,-0.953249,114.9063121,https://maps.google.com/?cid=0x0:0x1d4cfeab4193a8f4,
cafe,Kafe,KOPILAVAN,"Jl. Persemaian III, Lanjas, Kec. Teweh Tengah, Kabupaten Barito Utara, Kalimantan Tengah 73812","Lanjas, Kec. Teweh Tengah, Kabupaten Barito Utara",KALIMANTAN TENGAH,73812.0,Indonesia,85710608008.0,,,-0.9372645,114.8847725,https://maps.google.com/?cid=0x0:0xb9437faf2774f9e5,
cafe,Kafe,Awen Kopi,"2VWX+6JJ, Jl. Bangau, Melayu, Kec. Teweh Tengah, Kabupaten Barito Utara, Kalimantan Tengah 73814","Jl. Bangau, Melayu, Kec. Teweh Tengah, Kabupaten Barito Utara",KALIMANTAN TENGAH,73814.0,Indonesia,82198077219.0,,,-0.9544246,114.8990141,https://maps.google.com/?cid=0x0:0x32641097b4da2960,
cafe,Kafe,ZEZE COFFEE,"Jl. Permata Hati 2 No.2, Lanjas, Kec. Teweh Tengah, Kabupaten Barito Utara, Kalimantan Tengah 73812","Lanjas, Kec. Teweh Tengah, Kabupaten Barito Utara",KALIMANTAN TENGAH,73812.0,Indonesia,82164448999.0,,,-0.9376976,114.8850884,https://maps.google.com/?cid=0x0:0x29fa28c87b9a12a6,
cafe,cafe,Kalimantan Tengah 73881,"Kabupaten Barito Utara, Kalimantan Tengah","Kabupaten Barito Utara, Kalimantan Tengah",KALIMANTAN TENGAH,,Indonesia,,,,-1.0257651,115.3785719,https://maps.google.com/?cid=0x0:0x8bd4f30ba12eadec,
cafe,Klub Malam,Cafe  Studio Arepa,"V8QG+27V, Mampuak II, Kec. Teweh Tim., Kabupaten Barito Utara, Kalimantan Tengah 73881","Mampuak II, Kec. Teweh Tim., Kabupaten Barito Utara",KALIMANTAN TENGAH,73881.0,Indonesia,,,,-1.1123934,115.3256693,https://maps.google.com/?cid=0x0:0x71e225cc16eece9e,
cafe,Kafe,Blokpasir caffe,"V8R8+H9, Mampuak II, Kec. Teweh Tim., Kabupaten Barito Utara, Kalimantan Tengah","Kabupaten Barito Utara, Kalimantan Tengah",KALIMANTAN TENGAH,,Indonesia,,,,-1.1085341,115.3159067,https://maps.google.com/?cid=0x0:0x35cbcd8458e487f1,
cafe,Rumah Makan,Thira Cafe,"3V5W+C6C, Jl. Pendreh, Melayu, Kec. Teweh Tengah, Kabupaten Barito Utara, Kalimantan Tengah 73814","Jl. Pendreh, Melayu, Kec. Teweh Tengah, Kabupaten Barito Utara",KALIMANTAN TENGAH,73814.0,Indonesia,,,,-0.9414261,114.8955154,https://maps.google.com/?cid=0x0:0x47dd9c711a295cae,
cafe,Restoran,TALA COFFEE AND EATERY,"2VWP+H5, Lanjas, Kec. Teweh Tengah, Kabupaten Barito Utara, Kalimantan Tengah","Kabupaten Barito Utara, Kalimantan Tengah",KALIMANTAN TENGAH,,Indonesia,,,,-0.9535925,114.8854631,https://maps.google.com/?cid=0x0:0x4b74965aec5eef7e,
cafe,Perhimpunan Pengembang Perumahan,Simpang Lampanang (Mtw-Kubar),"39XF+XV, Benangin 5, Kec. Teweh Tim., Kabupaten Barito Utara, Kalimantan Tengah","Kabupaten Barito Utara, Kalimantan Tengah",KALIMANTAN TENGAH,,Indonesia,,,,-0.9000319,115.3746391,https://maps.google.com/?cid=0x0:0xe5f76d12003d89a6,
cafe,Rumah Makan,Cafe Serasa,"Jl. Rapen, Lanjas, Kec. Teweh Tengah, Kabupaten Barito Utara, Kalimantan Tengah 73814","Lanjas, Kec. Teweh Tengah, Kabupaten Barito Utara",KALIMANTAN TENGAH,73814.0,Indonesia,81263391803.0,,,-0.9531146,114.8848959,https://maps.google.com/?cid=0x0:0x2cd1c0066a87955,
cafe,Kedai Kopi,Juragan Kopi,"Jl. Ahmad Yani, Melayu, Kec. Teweh Tengah, Kabupaten Barito Utara, Kalimantan Tengah 73814","Melayu, Kec. Teweh Tengah, Kabupaten Barito Utara",KALIMANTAN TENGAH,73814.0,Indonesia,82148843333.0,,,-0.9601249,114.8970241,https://maps.google.com/?cid=0x0:0xd3ca69f1e73b73f4,
cafe,Kedai Kopi,Lorong Tengah,"2VPQ+Q89, Lanjas, Kec. Teweh Tengah, Kabupaten Barito Utara, Kalimantan Tengah 73814","Lanjas, Kec. Teweh Tengah, Kabupaten Barito Utara",KALIMANTAN TENGAH,73814.0,Indonesia,,,,-0.9630757,114.8883533,https://maps.google.com/?cid=0x0:0xaf7bc34a0fc8fc92,
cafe,Kafe,Belakang Layar Coffee,"Jl. Ronggolawe No.165, Melayu, Kec. Teweh Tengah, Kabupaten Barito Utara, Kalimantan Tengah 73811","Melayu, Kec. Teweh Tengah, Kabupaten Barito Utara",KALIMANTAN TENGAH,73811.0,Indonesia,,,,-0.9438291,114.8993217,https://maps.google.com/?cid=0x0:0x7264d3185f7ecfbd,
cafe,Kafe,OY MRcoffee,"Jl. Pendreh No.Rt.33 a, Melayu, Kec. Teweh Tengah, Kabupaten Barito Utara, Kalimantan Tengah 73814","Melayu, Kec. Teweh Tengah, Kabupaten Barito Utara",KALIMANTAN TENGAH,73814.0,Indonesia,82154665545.0,,,-0.9419662,114.897123,https://maps.google.com/?cid=0x0:0x169184f8c46da1aa,
cafe,Kedai Kopi,Adita Cafe,"2VVW+55F, Lanjas, Kec. Teweh Tengah, Kabupaten Barito Utara, Kalimantan Tengah 73814","Lanjas, Kec. Teweh Tengah, Kabupaten Barito Utara",KALIMANTAN TENGAH,73814.0,Indonesia,,,,-0.9570562,114.8954064,https://maps.google.com/?cid=0x0:0xc0f4e184fc90f443,
cafe,Restoran,"Cafe Tarera, Muara Teweh","3V4W+64W, Lanjas, Kec. Teweh Tengah, Kabupaten Barito Utara, Kalimantan Tengah 73814","Lanjas, Kec. Teweh Tengah, Kabupaten Barito Utara",KALIMANTAN TENGAH,73814.0,Indonesia,81351980533.0,,,-0.9443919,114.8953284,https://maps.google.com/?cid=0x0:0x53cec34a1f33c002,
cafe,Kafe,Ps Cafe  Resto,"Jl. Pramuka, Lanjas, Kec. Teweh Tengah, Kabupaten Barito Utara, Kalimantan Tengah 73814","Lanjas, Kec. Teweh Tengah, Kabupaten Barito Utara",KALIMANTAN TENGAH,73814.0,Indonesia,81289502305.0,,,-0.94636,114.8977386,https://maps.google.com/?cid=0x0:0x1167b90d45d90702,
cafe,Hotel,hotel,"Jl. Yetro Sinseng No.8, Lanjas, Kec. Teweh Tengah, Kabupaten Barito Utara, Kalimantan Tengah 73814","Lanjas, Kec. Teweh Tengah, Kabupaten Barito Utara",KALIMANTAN TENGAH,73814.0,Indonesia,85332127100.0,,,-0.9619394,114.8898641,https://maps.google.com/?cid=0x0:0xf415fda2af6a7945,
cafe,Kedai Kopi,"Jakarta Coffee and Space, Muara Teweh","Jalan Taman Rekreasi Remaja, Lanjas, Kec. Teweh Tengah, Kabupaten Barito Utara, Kalimantan Tengah 73812","Lanjas, Kec. Teweh Tengah, Kabupaten Barito Utara",KALIMANTAN TENGAH,73812.0,Indonesia,82352301911.0,,,-0.9445481,114.8956042,https://maps.google.com/?cid=0x0:0x639505783a809af7,
cafe,Restoran,TS Cafe,"Jl. Pramuka No.55, Lanjas, Kec. Teweh Tengah, Kabupaten Barito Utara, Kalimantan Tengah 73814","Lanjas, Kec. Teweh Tengah, Kabupaten Barito Utara",KALIMANTAN TENGAH,73814.0,Indonesia,,,,-0.9461942,114.897468,https://maps.google.com/?cid=0x0:0xf4a67f486121b5e1,
cafe,Bar Karaoke,HOLYWISH CAFE  KARAOKE,"Jl. Rapen, Lingkar Kota, Kec. Teweh Tengah, Kabupaten Barito Utara, Kalimantan Tengah 73812","Lingkar Kota, Kec. Teweh Tengah, Kabupaten Barito Utara",KALIMANTAN TENGAH,73812.0,Indonesia,82154263309.0,,,-0.9444526,114.8845602,https://maps.google.com/?cid=0x0:0x709a7bebf4f582f1,
cafe,Kedai Kopi,"Kafe Kaca, Muara Teweh","2VWV+R8Q, Jl. Pramuka, Lanjas, Kec. Teweh Tengah, Kabupaten Barito Utara, Kalimantan Tengah 73814","Jl. Pramuka, Lanjas, Kec. Teweh Tengah, Kabupaten Barito Utara",KALIMANTAN TENGAH,73814.0,Indonesia,,,,-0.9529234,114.8933553,https://maps.google.com/?cid=0x0:0x4ba6a69376dd1158,
cafe,Makanan Kecil,Warung Makan Mama Hamzah,"Jl. Tujuh Enam No.163, RT.03, Benangin I, Kec. Teweh Tim., Kabupaten Barito Utara, Kalimantan Tengah","Kabupaten Barito Utara, Kalimantan Tengah",KALIMANTAN TENGAH,,Indonesia,85353434799.0,,,-0.9937767,115.3703184,https://maps.google.com/?cid=0x0:0x9f942f7419c3c4f4,
cafe,Kedai Kopi,Evonkelv Coffee,"2WV3+QVR, Jl. Imam Bonjol, Melayu, Kec. Teweh Tengah, Kabupaten Barito Utara, Kalimantan Tengah 73814","Jl. Imam Bonjol, Melayu, Kec. Teweh Tengah, Kabupaten Barito Utara",KALIMANTAN TENGAH,73814.0,Indonesia,,,,-0.9555008,114.9046303,https://maps.google.com/?cid=0x0:0x4ba5c97fa33f330e,
cafe,Restoran,Rumah Berie Atmajaya,"W476+Q8, Sikui, Kec. Teweh Baru, Kabupaten Barito Utara, Kalimantan Tengah","Kabupaten Barito Utara, Kalimantan Tengah",KALIMANTAN TENGAH,,Indonesia,,,,-1.0855779,115.1108161,https://maps.google.com/?cid=0x0:0x35f85f80db7be832,
cafe,Toko bahan makanan,Toko.FaizFajar,"PCX2+9W2, Batu Raya I, Kec. Gn. Timang, Kabupaten Barito Utara, Kalimantan Tengah 73862","Batu Raya I, Kec. Gn. Timang, Kabupaten Barito Utara",KALIMANTAN TENGAH,73862.0,Indonesia,81545372282.0,,,-1.2516069,115.4022706,https://maps.google.com/?cid=0x0:0xf8131ec14d270b32,
cafe,cafe,Kec. Tewen Selatan,"Kabupaten Barito Utara, Kalimantan Tengah","Kabupaten Barito Utara, Kalimantan Tengah",KALIMANTAN TENGAH,,Indonesia,,,,-1.0409446,114.8984173,https://maps.google.com/?cid=0x0:0x9c139c9a4035a708,
cafe,Restoran,TALA COFFEE AND EATERY,"2VWP+H5, Lanjas, Kec. Teweh Tengah, Kabupaten Barito Utara, Kalimantan Tengah","Kabupaten Barito Utara, Kalimantan Tengah",KALIMANTAN TENGAH,,Indonesia,,,,-0.9535925,114.8854631,https://maps.google.com/?cid=0x0:0x4b74965aec5eef7e,
cafe,Kedai Kopi,Lorong Tengah,"2VPQ+Q89, Lanjas, Kec. Teweh Tengah, Kabupaten Barito Utara, Kalimantan Tengah 73814","Lanjas, Kec. Teweh Tengah, Kabupaten Barito Utara",KALIMANTAN TENGAH,73814.0,Indonesia,,,,-0.9630757,114.8883533,https://maps.google.com/?cid=0x0:0xaf7bc34a0fc8fc92,
cafe,Kafe,Maynd,"2VQR+8XQ, Jl. Yetro Sinseng, Lanjas, Kec. Teweh Tengah, Kabupaten Barito Utara, Kalimantan Tengah 73814","Jl. Yetro Sinseng, Lanjas, Kec. Teweh Tengah, Kabupaten Barito Utara",KALIMANTAN TENGAH,73814.0,Indonesia,51921819.0,,,-0.9616636,114.8924808,https://maps.google.com/?cid=0x0:0x8ff93b004e93333,
cafe,Rumah Makan,Cafe Serasa,"Jl. Rapen, Lanjas, Kec. Teweh Tengah, Kabupaten Barito Utara, Kalimantan Tengah 73814","Lanjas, Kec. Teweh Tengah, Kabupaten Barito Utara",KALIMANTAN TENGAH,73814.0,Indonesia,81263391803.0,,,-0.9531146,114.8848959,https://maps.google.com/?cid=0x0:0x2cd1c0066a87955,
cafe,Kedai Kopi,Adita Cafe,"2VVW+55F, Lanjas, Kec. Teweh Tengah, Kabupaten Barito Utara, Kalimantan Tengah 73814","Lanjas, Kec. Teweh Tengah, Kabupaten Barito Utara",KALIMANTAN TENGAH,73814.0,Indonesia,,,,-0.9570562,114.8954064,https://maps.google.com/?cid=0x0:0xc0f4e184fc90f443,
cafe,Kedai Kopi,KHATI KOFIE,"Jl. Yetro Sinseng, Lanjas, Kec. Teweh Tengah, Kabupaten Barito Utara, Kalimantan Tengah 73814","Lanjas, Kec. Teweh Tengah, Kabupaten Barito Utara",KALIMANTAN TENGAH,73814.0,Indonesia,85602948879.0,,,-0.9626921,114.8884547,https://maps.google.com/?cid=0x0:0x7dc7e83ae778418f,
cafe,Kedai Kopi,Quality Box Coffee,"Jl. Yetro Sinseng, Lanjas, Kec. Teweh Tengah, Kabupaten Barito Utara, Kalimantan Tengah 73814","Lanjas, Kec. Teweh Tengah, Kabupaten Barito Utara",KALIMANTAN TENGAH,73814.0,Indonesia,85248787700.0,,,-0.9629627,114.8887461,https://maps.google.com/?cid=0x0:0x4f1cfe5f792d9f48,
cafe,Restoran,Cafe Wayang Muara Teweh,"2VHP+QFM, Jingah, Kec. Teweh Tengah, Kabupaten Barito Utara, Kalimantan Tengah 73814","Jingah, Kec. Teweh Tengah, Kabupaten Barito Utara",KALIMANTAN TENGAH,73814.0,Indonesia,,,,-0.9705436,114.886179,https://maps.google.com/?cid=0x0:0xe3f8a9b99426b598,
cafe,Kedai Kopi,Juragan Kopi,"Jl. Ahmad Yani, Melayu, Kec. Teweh Tengah, Kabupaten Barito Utara, Kalimantan Tengah 73814","Melayu, Kec. Teweh Tengah, Kabupaten Barito Utara",KALIMANTAN TENGAH,73814.0,Indonesia,82148843333.0,,,-0.9601249,114.8970241,https://maps.google.com/?cid=0x0:0xd3ca69f1e73b73f4,
cafe,Kedai Kopi,Evonkelv Coffee,"2WV3+QVR, Jl. Imam Bonjol, Melayu, Kec. Teweh Tengah, Kabupaten Barito Utara, Kalimantan Tengah 73814","Jl. Imam Bonjol, Melayu, Kec. Teweh Tengah, Kabupaten Barito Utara",KALIMANTAN TENGAH,73814.0,Indonesia,,,,-0.9555008,114.9046303,https://maps.google.com/?cid=0x0:0x4ba5c97fa33f330e,
cafe,Kafe,Ps Cafe  Resto,"Jl. Pramuka, Lanjas, Kec. Teweh Tengah, Kabupaten Barito Utara, Kalimantan Tengah 73814","Lanjas, Kec. Teweh Tengah, Kabupaten Barito Utara",KALIMANTAN TENGAH,73814.0,Indonesia,81289502305.0,,,-0.94636,114.8977386,https://maps.google.com/?cid=0x0:0x1167b90d45d90702,
cafe,Kedai Kopi,REDBLACK CAFE,"2VRR+2WW, Jl. Tumenggung Surapati, Lanjas, Kec. Teweh Tengah, Kabupaten Barito Utara, Kalimantan Tengah 73814","Jl. Tumenggung Surapati, Lanjas, Kec. Teweh Tengah, Kabupaten Barito Utara",KALIMANTAN TENGAH,73814.0,Indonesia,,,,-0.959878,114.8923436,https://maps.google.com/?cid=0x0:0xb86004b0456ff47,
cafe,Restoran,Simple Cafe,"Jl. Bandara Lama No.1, Melayu, Kec. Teweh Tengah, Kabupaten Barito Utara, Kalimantan Tengah 73814","Melayu, Kec. Teweh Tengah, Kabupaten Barito Utara",KALIMANTAN TENGAH,73814.0,Indonesia,81256763300.0,,,-0.9451286,114.8978218,https://maps.google.com/?cid=0x0:0x82d8781fadca9946,
cafe,Kedai Kopi,"Jakarta Coffee and Space, Muara Teweh","Jalan Taman Rekreasi Remaja, Lanjas, Kec. Teweh Tengah, Kabupaten Barito Utara, Kalimantan Tengah 73812","Lanjas, Kec. Teweh Tengah, Kabupaten Barito Utara",KALIMANTAN TENGAH,73812.0,Indonesia,82352301911.0,,,-0.9445481,114.8956042,https://maps.google.com/?cid=0x0:0x639505783a809af7,
cafe,Kedai Kopi,Royal Sugar,"2VPQ+P27, Lanjas, Kec. Teweh Tengah, Kabupaten Barito Utara, Kalimantan Tengah 73814","Lanjas, Kec. Teweh Tengah, Kabupaten Barito Utara",KALIMANTAN TENGAH,73814.0,Indonesia,,,,-0.9632138,114.887544,https://maps.google.com/?cid=0x0:0xccdfea236f01da0a,
cafe,Restoran,"Tetes Kopi, Muara Teweh","Jl. Pesona No.3, RT.29/RW.03, Lanjas, Kec. Teweh Tengah, Kabupaten Barito Utara, Kalimantan Tengah 73814","RT.29/RW.03, Lanjas, Kec. Teweh Tengah, Kabupaten Barito Utara",KALIMANTAN TENGAH,73814.0,Indonesia,,,,-0.9432198,114.8915334,https://maps.google.com/?cid=0x0:0xa6c0501729060363,
cafe,Kedai Kopi,"Kafe Kaca, Muara Teweh","2VWV+R8Q, Jl. Pramuka, Lanjas, Kec. Teweh Tengah, Kabupaten Barito Utara, Kalimantan Tengah 73814","Jl. Pramuka, Lanjas, Kec. Teweh Tengah, Kabupaten Barito Utara",KALIMANTAN TENGAH,73814.0,Indonesia,,,,-0.9529234,114.8933553,https://maps.google.com/?cid=0x0:0x4ba6a69376dd1158,
cafe,Kafe,Riskifira Cafe,"2VVW+55F, Lanjas, Kec. Teweh Tengah, Kabupaten Barito Utara, Kalimantan Tengah 73814","Lanjas, Kec. Teweh Tengah, Kabupaten Barito Utara",KALIMANTAN TENGAH,73814.0,Indonesia,,,,-0.9570167,114.8955183,https://maps.google.com/?cid=0x0:0xdc18cc7659e2e55a,
cafe,Restoran,"Cafe Tarera, Muara Teweh","3V4W+64W, Lanjas, Kec. Teweh Tengah, Kabupaten Barito Utara, Kalimantan Tengah 73814","Lanjas, Kec. Teweh Tengah, Kabupaten Barito Utara",KALIMANTAN TENGAH,73814.0,Indonesia,81351980533.0,,,-0.9443919,114.8953284,https://maps.google.com/?cid=0x0:0x53cec34a1f33c002,
cafe,Kafe,Awen Kopi,"2VWX+6JJ, Jl. Bangau, Melayu, Kec. Teweh Tengah, Kabupaten Barito Utara, Kalimantan Tengah 73814","Jl. Bangau, Melayu, Kec. Teweh Tengah, Kabupaten Barito Utara",KALIMANTAN TENGAH,73814.0,Indonesia,82198077219.0,,,-0.9544246,114.8990141,https://maps.google.com/?cid=0x0:0x32641097b4da2960,
cafe,Restoran,TS Cafe,"Jl. Pramuka No.55, Lanjas, Kec. Teweh Tengah, Kabupaten Barito Utara, Kalimantan Tengah 73814","Lanjas, Kec. Teweh Tengah, Kabupaten Barito Utara",KALIMANTAN TENGAH,73814.0,Indonesia,,,,-0.9461942,114.897468,https://maps.google.com/?cid=0x0:0xf4a67f486121b5e1,
cafe,Kantor Pemerintah,Mitra Kodim,"Jalan Stadion No. 1, Lanjas, Kec. Teweh Tengah, Kabupaten Barito Utara, Kalimantan Tengah 73814","Lanjas, Kec. Teweh Tengah, Kabupaten Barito Utara",KALIMANTAN TENGAH,73814.0,Indonesia,85345331288.0,,,-0.9574287,114.8958128,https://maps.google.com/?cid=0x0:0x42df576b11e1c188,
cafe,Kedai Kopi,505,"Jl. Yetro Sinseng No.2, Lanjas, Kec. Teweh Tengah, Kabupaten Barito Utara, Kalimantan Tengah 73814","Lanjas, Kec. Teweh Tengah, Kabupaten Barito Utara",KALIMANTAN TENGAH,73814.0,Indonesia,,,,-0.9630147,114.888551,https://maps.google.com/?cid=0x0:0x26740fd2f0a7e46e,
cafe,Kafe,EVOLYM COFFEE  CAFE,"Hotel Walet, Jl. Tumenggung Surapati No.rt. 12a, Melayu, Kec. Teweh Tengah, Kab. Barut, Kalimantan Tengah 73814","Jl. Tumenggung Surapati No.rt. 12a, Melayu, Kec. Teweh Tengah, Kab. Barut",KALIMANTAN TENGAH,73814.0,Indonesia,82251007915.0,,,-0.9589522,114.9005457,https://maps.google.com/?cid=0x0:0x808bb1c385ca7600,
cafe,Kedai Kopi,Coffee at Hossel,"Jl. Yetro Sinseng, Lanjas, Kec. Teweh Tengah, Kabupaten Barito Utara, Kalimantan Tengah 73811","Lanjas, Kec. Teweh Tengah, Kabupaten Barito Utara",KALIMANTAN TENGAH,73811.0,Indonesia,,,,-0.9625349,114.88859,https://maps.google.com/?cid=0x0:0x1139275fd759831a,
cafe,Kedai Kopi,LIFEAFTERYOU,"2VPQ+HCX, Jl. Yetro Sinseng No.2, Lanjas, Kec. Teweh Tengah, Kabupaten Barito Utara, Kalimantan Tengah 73814","Jl. Yetro Sinseng No.2, Lanjas, Kec. Teweh Tengah, Kabupaten Barito Utara",KALIMANTAN TENGAH,73814.0,Indonesia,,,,-0.9628164,114.888551,https://maps.google.com/?cid=0x0:0x89fc9208b0792435,
cafe,Kedai Kopi,Statera,"Jl. Yetro Sinseng No.2, Lanjas, Kec. Teweh Tengah, Kabupaten Barito Utara, Kalimantan Tengah 73814","Lanjas, Kec. Teweh Tengah, Kabupaten Barito Utara",KALIMANTAN TENGAH,73814.0,Indonesia,,,,-0.9631667,114.8885278,https://maps.google.com/?cid=0x0:0xca31fb4b5a775724,
cafe,cafe,Kalimantan Tengah 73811,"Juju Baru, Kec. Lahei, Kabupaten Barito Utara, Kalimantan Tengah","Kabupaten Barito Utara, Kalimantan Tengah",KALIMANTAN TENGAH,,Indonesia,,,,-0.8295559,114.9872821,https://maps.google.com/?cid=0x0:0x483ad48a5b01a50d,
cafe,Restoran,TALA COFFEE AND EATERY,"2VWP+H5, Lanjas, Kec. Teweh Tengah, Kabupaten Barito Utara, Kalimantan Tengah","Kabupaten Barito Utara, Kalimantan Tengah",KALIMANTAN TENGAH,,Indonesia,,,,-0.9535925,114.8854631,https://maps.google.com/?cid=0x0:0x4b74965aec5eef7e,
cafe,Kedai Kopi,"Jakarta Coffee and Space, Muara Teweh","Jalan Taman Rekreasi Remaja, Lanjas, Kec. Teweh Tengah, Kabupaten Barito Utara, Kalimantan Tengah 73812","Lanjas, Kec. Teweh Tengah, Kabupaten Barito Utara",KALIMANTAN TENGAH,73812.0,Indonesia,82352301911.0,,,-0.9445481,114.8956042,https://maps.google.com/?cid=0x0:0x639505783a809af7,
cafe,Kedai Kopi,Kopi Itah,"Jl. Taman Remaja, Lanjas, Kec. Teweh Tengah, Kabupaten Barito Utara, Kalimantan Tengah 73811","Lanjas, Kec. Teweh Tengah, Kabupaten Barito Utara",KALIMANTAN TENGAH,73811.0,Indonesia,81347413342.0,,,-0.9438474,114.8914641,https://maps.google.com/?cid=0x0:0x82efe99234d63c1e,
cafe,Kedai Kopi,Adita Cafe,"2VVW+55F, Lanjas, Kec. Teweh Tengah, Kabupaten Barito Utara, Kalimantan Tengah 73814","Lanjas, Kec. Teweh Tengah, Kabupaten Barito Utara",KALIMANTAN TENGAH,73814.0,Indonesia,,,,-0.9570562,114.8954064,https://maps.google.com/?cid=0x0:0xc0f4e184fc90f443,
cafe,Kedai Kopi,Sky Cafe,"Jl. Negara No.km 1, Jingah, Kec. Teweh Baru, Kabupaten Barito Utara, Kalimantan Tengah 73814","Jingah, Kec. Teweh Baru, Kabupaten Barito Utara",KALIMANTAN TENGAH,73814.0,Indonesia,85393649914.0,,,-0.9706366,114.8864298,https://maps.google.com/?cid=0x0:0x79f133e4f8b615c6,
cafe,Restoran,"Cafe Tarera, Muara Teweh","3V4W+64W, Lanjas, Kec. Teweh Tengah, Kabupaten Barito Utara, Kalimantan Tengah 73814","Lanjas, Kec. Teweh Tengah, Kabupaten Barito Utara",KALIMANTAN TENGAH,73814.0,Indonesia,81351980533.0,,,-0.9443919,114.8953284,https://maps.google.com/?cid=0x0:0x53cec34a1f33c002,
cafe,Kedai Kopi,Juragan Kopi,"Jl. Ahmad Yani, Melayu, Kec. Teweh Tengah, Kabupaten Barito Utara, Kalimantan Tengah 73814","Melayu, Kec. Teweh Tengah, Kabupaten Barito Utara",KALIMANTAN TENGAH,73814.0,Indonesia,82148843333.0,,,-0.9601249,114.8970241,https://maps.google.com/?cid=0x0:0xd3ca69f1e73b73f4,
cafe,Rumah Makan,Cafe Serasa,"Jl. Rapen, Lanjas, Kec. Teweh Tengah, Kabupaten Barito Utara, Kalimantan Tengah 73814","Lanjas, Kec. Teweh Tengah, Kabupaten Barito Utara",KALIMANTAN TENGAH,73814.0,Indonesia,81263391803.0,,,-0.9531146,114.8848959,https://maps.google.com/?cid=0x0:0x2cd1c0066a87955,
cafe,Kafe,Maynd,"2VQR+8XQ, Jl. Yetro Sinseng, Lanjas, Kec. Teweh Tengah, Kabupaten Barito Utara, Kalimantan Tengah 73814","Jl. Yetro Sinseng, Lanjas, Kec. Teweh Tengah, Kabupaten Barito Utara",KALIMANTAN TENGAH,73814.0,Indonesia,51921819.0,,,-0.9616636,114.8924808,https://maps.google.com/?cid=0x0:0x8ff93b004e93333,
cafe,Kafe,ZEZE COFFEE,"Jl. Permata Hati 2 No.2, Lanjas, Kec. Teweh Tengah, Kabupaten Barito Utara, Kalimantan Tengah 73812","Lanjas, Kec. Teweh Tengah, Kabupaten Barito Utara",KALIMANTAN TENGAH,73812.0,Indonesia,82164448999.0,,,-0.9376976,114.8850884,https://maps.google.com/?cid=0x0:0x29fa28c87b9a12a6,
cafe,Restoran,Cafe Wayang Muara Teweh,"2VHP+QFM, Jingah, Kec. Teweh Tengah, Kabupaten Barito Utara, Kalimantan Tengah 73814","Jingah, Kec. Teweh Tengah, Kabupaten Barito Utara",KALIMANTAN TENGAH,73814.0,Indonesia,,,,-0.9705436,114.886179,https://maps.google.com/?cid=0x0:0xe3f8a9b99426b598,
cafe,Restoran,"Tetes Kopi, Muara Teweh","Jl. Pesona No.3, RT.29/RW.03, Lanjas, Kec. Teweh Tengah, Kabupaten Barito Utara, Kalimantan Tengah 73814","RT.29/RW.03, Lanjas, Kec. Teweh Tengah, Kabupaten Barito Utara",KALIMANTAN TENGAH,73814.0,Indonesia,,,,-0.9432198,114.8915334,https://maps.google.com/?cid=0x0:0xa6c0501729060363,
cafe,Restoran,Simple Cafe,"Jl. Bandara Lama No.1, Melayu, Kec. Teweh Tengah, Kabupaten Barito Utara, Kalimantan Tengah 73814","Melayu, Kec. Teweh Tengah, Kabupaten Barito Utara",KALIMANTAN TENGAH,73814.0,Indonesia,81256763300.0,,,-0.9451286,114.8978218,https://maps.google.com/?cid=0x0:0x82d8781fadca9946,
cafe,Kedai Kopi,"Kafe Kaca, Muara Teweh","2VWV+R8Q, Jl. Pramuka, Lanjas, Kec. Teweh Tengah, Kabupaten Barito Utara, Kalimantan Tengah 73814","Jl. Pramuka, Lanjas, Kec. Teweh Tengah, Kabupaten Barito Utara",KALIMANTAN TENGAH,73814.0,Indonesia,,,,-0.9529234,114.8933553,https://maps.google.com/?cid=0x0:0x4ba6a69376dd1158,
cafe,Kafe,OY MRcoffee,"Jl. Pendreh No.Rt.33 a, Melayu, Kec. Teweh Tengah, Kabupaten Barito Utara, Kalimantan Tengah 73814","Melayu, Kec. Teweh Tengah, Kabupaten Barito Utara",KALIMANTAN TENGAH,73814.0,Indonesia,82154665545.0,,,-0.9419662,114.897123,https://maps.google.com/?cid=0x0:0x169184f8c46da1aa,
cafe,Kedai Kopi,Evonkelv Coffee,"2WV3+QVR, Jl. Imam Bonjol, Melayu, Kec. Teweh Tengah, Kabupaten Barito Utara, Kalimantan Tengah 73814","Jl. Imam Bonjol, Melayu, Kec. Teweh Tengah, Kabupaten Barito Utara",KALIMANTAN TENGAH,73814.0,Indonesia,,,,-0.9555008,114.9046303,https://maps.google.com/?cid=0x0:0x4ba5c97fa33f330e,
cafe,Kafe,Awen Kopi,"2VWX+6JJ, Jl. Bangau, Melayu, Kec. Teweh Tengah, Kabupaten Barito Utara, Kalimantan Tengah 73814","Jl. Bangau, Melayu, Kec. Teweh Tengah, Kabupaten Barito Utara",KALIMANTAN TENGAH,73814.0,Indonesia,82198077219.0,,,-0.9544246,114.8990141,https://maps.google.com/?cid=0x0:0x32641097b4da2960,
cafe,Restoran,TS Cafe,"Jl. Pramuka No.55, Lanjas, Kec. Teweh Tengah, Kabupaten Barito Utara, Kalimantan Tengah 73814","Lanjas, Kec. Teweh Tengah, Kabupaten Barito Utara",KALIMANTAN TENGAH,73814.0,Indonesia,,,,-0.9461942,114.897468,https://maps.google.com/?cid=0x0:0xf4a67f486121b5e1,
cafe,Padang,"Rumah Makan Bofet Saiyo (Masakan Padang), Muara Teweh","Jl. Pramuka, Lanjas, Kec. Teweh Tengah, Kabupaten Barito Utara, Kalimantan Tengah 73812","Lanjas, Kec. Teweh Tengah, Kabupaten Barito Utara",KALIMANTAN TENGAH,73812.0,Indonesia,81347373727.0,,,-0.9524036,114.8935737,https://maps.google.com/?cid=0x0:0xa7a6faa6d97c7171,
cafe,Kafe,Ps Cafe  Resto,"Jl. Pramuka, Lanjas, Kec. Teweh Tengah, Kabupaten Barito Utara, Kalimantan Tengah 73814","Lanjas, Kec. Teweh Tengah, Kabupaten Barito Utara",KALIMANTAN TENGAH,73814.0,Indonesia,81289502305.0,,,-0.94636,114.8977386,https://maps.google.com/?cid=0x0:0x1167b90d45d90702,
cafe,cafe,Kalimantan Tengah 73812,"Kabupaten Barito Utara, Kalimantan Tengah","Kabupaten Barito Utara, Kalimantan Tengah",KALIMANTAN TENGAH,,Indonesia,,,,-0.8255092,114.945754,https://maps.google.com/?cid=0x0:0xaf5eb4cc7e2c2286,
cafe,Kedai Kopi,"Jakarta Coffee and Space, Muara Teweh","Jalan Taman Rekreasi Remaja, Lanjas, Kec. Teweh Tengah, Kabupaten Barito Utara, Kalimantan Tengah 73812","Lanjas, Kec. Teweh Tengah, Kabupaten Barito Utara",KALIMANTAN TENGAH,73812.0,Indonesia,82352301911.0,,,-0.9445481,114.8956042,https://maps.google.com/?cid=0x0:0x639505783a809af7,
cafe,Restoran,TALA COFFEE AND EATERY,"2VWP+H5, Lanjas, Kec. Teweh Tengah, Kabupaten Barito Utara, Kalimantan Tengah","Kabupaten Barito Utara, Kalimantan Tengah",KALIMANTAN TENGAH,,Indonesia,,,,-0.9535925,114.8854631,https://maps.google.com/?cid=0x0:0x4b74965aec5eef7e,
cafe,Kedai Kopi,Lorong Tengah,"2VPQ+Q89, Lanjas, Kec. Teweh Tengah, Kabupaten Barito Utara, Kalimantan Tengah 73814","Lanjas, Kec. Teweh Tengah, Kabupaten Barito Utara",KALIMANTAN TENGAH,73814.0,Indonesia,,,,-0.9630757,114.8883533,https://maps.google.com/?cid=0x0:0xaf7bc34a0fc8fc92,
cafe,Kedai Kopi,Adita Cafe,"2VVW+55F, Lanjas, Kec. Teweh Tengah, Kabupaten Barito Utara, Kalimantan Tengah 73814","Lanjas, Kec. Teweh Tengah, Kabupaten Barito Utara",KALIMANTAN TENGAH,73814.0,Indonesia,,,,-0.9570562,114.8954064,https://maps.google.com/?cid=0x0:0xc0f4e184fc90f443,
cafe,Kafe,ZEZE COFFEE,"Jl. Permata Hati 2 No.2, Lanjas, Kec. Teweh Tengah, Kabupaten Barito Utara, Kalimantan Tengah 73812","Lanjas, Kec. Teweh Tengah, Kabupaten Barito Utara",KALIMANTAN TENGAH,73812.0,Indonesia,82164448999.0,,,-0.9376976,114.8850884,https://maps.google.com/?cid=0x0:0x29fa28c87b9a12a6,
cafe,Rumah Makan,Cafe Serasa,"Jl. Rapen, Lanjas, Kec. Teweh Tengah, Kabupaten Barito Utara, Kalimantan Tengah 73814","Lanjas, Kec. Teweh Tengah, Kabupaten Barito Utara",KALIMANTAN TENGAH,73814.0,Indonesia,81263391803.0,,,-0.9531146,114.8848959,https://maps.google.com/?cid=0x0:0x2cd1c0066a87955,
cafe,Kedai Kopi,Sky Cafe,"Jl. Negara No.km 1, Jingah, Kec. Teweh Baru, Kabupaten Barito Utara, Kalimantan Tengah 73814","Jingah, Kec. Teweh Baru, Kabupaten Barito Utara",KALIMANTAN TENGAH,73814.0,Indonesia,85393649914.0,,,-0.9706366,114.8864298,https://maps.google.com/?cid=0x0:0x79f133e4f8b615c6,
cafe,Kafe,Maynd,"2VQR+8XQ, Jl. Yetro Sinseng, Lanjas, Kec. Teweh Tengah, Kabupaten Barito Utara, Kalimantan Tengah 73814","Jl. Yetro Sinseng, Lanjas, Kec. Teweh Tengah, Kabupaten Barito Utara",KALIMANTAN TENGAH,73814.0,Indonesia,51921819.0,,,-0.9616636,114.8924808,https://maps.google.com/?cid=0x0:0x8ff93b004e93333,
cafe,Restoran,Simple Cafe,"Jl. Bandara Lama No.1, Melayu, Kec. Teweh Tengah, Kabupaten Barito Utara, Kalimantan Tengah 73814","Melayu, Kec. Teweh Tengah, Kabupaten Barito Utara",KALIMANTAN TENGAH,73814.0,Indonesia,81256763300.0,,,-0.9451286,114.8978218,https://maps.google.com/?cid=0x0:0x82d8781fadca9946,
cafe,Bar Karaoke,HOLYWISH CAFE  KARAOKE,"Jl. Rapen, Lingkar Kota, Kec. Teweh Tengah, Kabupaten Barito Utara, Kalimantan Tengah 73812","Lingkar Kota, Kec. Teweh Tengah, Kabupaten Barito Utara",KALIMANTAN TENGAH,73812.0,Indonesia,82154263309.0,,,-0.9444526,114.8845602,https://maps.google.com/?cid=0x0:0x709a7bebf4f582f1,
cafe,Restoran,"Tetes Kopi, Muara Teweh","Jl. Pesona No.3, RT.29/RW.03, Lanjas, Kec. Teweh Tengah, Kabupaten Barito Utara, Kalimantan Tengah 73814","RT.29/RW.03, Lanjas, Kec. Teweh Tengah, Kabupaten Barito Utara",KALIMANTAN TENGAH,73814.0,Indonesia,,,,-0.9432198,114.8915334,https://maps.google.com/?cid=0x0:0xa6c0501729060363,
cafe,Kedai Kopi,Agape Coffee  Eatery,"Jl. Merak Simpang MT, Melayu, Kec. Teweh Tengah, Kabupaten Barito Utara, Kalimantan Tengah 73811","Melayu, Kec. Teweh Tengah, Kabupaten Barito Utara",KALIMANTAN TENGAH,73811.0,Indonesia,82252612857.0,,,-0.9573913,114.9048248,https://maps.google.com/?cid=0x0:0x769ef8619f8d73d9,
cafe,Kedai Kopi,Juragan Kopi,"Jl. Ahmad Yani, Melayu, Kec. Teweh Tengah, Kabupaten Barito Utara, Kalimantan Tengah 73814","Melayu, Kec. Teweh Tengah, Kabupaten Barito Utara",KALIMANTAN TENGAH,73814.0,Indonesia,82148843333.0,,,-0.9601249,114.8970241,https://maps.google.com/?cid=0x0:0xd3ca69f1e73b73f4,
cafe,Kedai Kopi,"Kafe Kaca, Muara Teweh","2VWV+R8Q, Jl. Pramuka, Lanjas, Kec. Teweh Tengah, Kabupaten Barito Utara, Kalimantan Tengah 73814","Jl. Pramuka, Lanjas, Kec. Teweh Tengah, Kabupaten Barito Utara",KALIMANTAN TENGAH,73814.0,Indonesia,,,,-0.9529234,114.8933553,https://maps.google.com/?cid=0x0:0x4ba6a69376dd1158,
cafe,Restoran,"Cafe Tarera, Muara Teweh","3V4W+64W, Lanjas, Kec. Teweh Tengah, Kabupaten Barito Utara, Kalimantan Tengah 73814","Lanjas, Kec. Teweh Tengah, Kabupaten Barito Utara",KALIMANTAN TENGAH,73814.0,Indonesia,81351980533.0,,,-0.9443919,114.8953284,https://maps.google.com/?cid=0x0:0x53cec34a1f33c002,
cafe,Restoran,Cafe Wayang Muara Teweh,"2VHP+QFM, Jingah, Kec. Teweh Tengah, Kabupaten Barito Utara, Kalimantan Tengah 73814","Jingah, Kec. Teweh Tengah, Kabupaten Barito Utara",KALIMANTAN TENGAH,73814.0,Indonesia,,,,-0.9705436,114.886179,https://maps.google.com/?cid=0x0:0xe3f8a9b99426b598,
cafe,Kedai Kopi,Evonkelv Coffee,"2WV3+QVR, Jl. Imam Bonjol, Melayu, Kec. Teweh Tengah, Kabupaten Barito Utara, Kalimantan Tengah 73814","Jl. Imam Bonjol, Melayu, Kec. Teweh Tengah, Kabupaten Barito Utara",KALIMANTAN TENGAH,73814.0,Indonesia,,,,-0.9555008,114.9046303,https://maps.google.com/?cid=0x0:0x4ba5c97fa33f330e,
cafe,Kedai Kopi,Kopi Itah,"Jl. Taman Remaja, Lanjas, Kec. Teweh Tengah, Kabupaten Barito Utara, Kalimantan Tengah 73811","Lanjas, Kec. Teweh Tengah, Kabupaten Barito Utara",KALIMANTAN TENGAH,73811.0,Indonesia,81347413342.0,,,-0.9438474,114.8914641,https://maps.google.com/?cid=0x0:0x82efe99234d63c1e,
cafe,Kafe,Awen Kopi,"2VWX+6JJ, Jl. Bangau, Melayu, Kec. Teweh Tengah, Kabupaten Barito Utara, Kalimantan Tengah 73814","Jl. Bangau, Melayu, Kec. Teweh Tengah, Kabupaten Barito Utara",KALIMANTAN TENGAH,73814.0,Indonesia,82198077219.0,,,-0.9544246,114.8990141,https://maps.google.com/?cid=0x0:0x32641097b4da2960,
cafe,Kafe,Ps Cafe  Resto,"Jl. Pramuka, Lanjas, Kec. Teweh Tengah, Kabupaten Barito Utara, Kalimantan Tengah 73814","Lanjas, Kec. Teweh Tengah, Kabupaten Barito Utara",KALIMANTAN TENGAH,73814.0,Indonesia,81289502305.0,,,-0.94636,114.8977386,https://maps.google.com/?cid=0x0:0x1167b90d45d90702,
cafe,Kafe,OY MRcoffee,"Jl. Pendreh No.Rt.33 a, Melayu, Kec. Teweh Tengah, Kabupaten Barito Utara, Kalimantan Tengah 73814","Melayu, Kec. Teweh Tengah, Kabupaten Barito Utara",KALIMANTAN TENGAH,73814.0,Indonesia,82154665545.0,,,-0.9419662,114.897123,https://maps.google.com/?cid=0x0:0x169184f8c46da1aa,
cafe,Kedai Kopi,Yellow Cafe,"6W2P+8PX, Unnamed Road, Luwe Hulu, Kec. Lahei Barat, Kabupaten Barito Utara, Kalimantan Tengah 73812","Unnamed Road, Luwe Hulu, Kec. Lahei Barat, Kabupaten Barito Utara",KALIMANTAN TENGAH,73812.0,Indonesia,,,,-0.7991333,114.9368745,https://maps.google.com/?cid=0x0:0xd33a0c633fd1ebc8,
cafe,cafe,Kalimantan Tengah 73814,"Kabupaten Barito Utara, Kalimantan Tengah","Kabupaten Barito Utara, Kalimantan Tengah",KALIMANTAN TENGAH,,Indonesia,,,,-0.8914468,114.8092691,https://maps.google.com/?cid=0x0:0xb5548f39346751af,
cafe,Restoran,TALA COFFEE AND EATERY,"2VWP+H5, Lanjas, Kec. Teweh Tengah, Kabupaten Barito Utara, Kalimantan Tengah","Kabupaten Barito Utara, Kalimantan Tengah",KALIMANTAN TENGAH,,Indonesia,,,,-0.9535925,114.8854631,https://maps.google.com/?cid=0x0:0x4b74965aec5eef7e,
cafe,Kedai Kopi,Lorong Tengah,"2VPQ+Q89, Lanjas, Kec. Teweh Tengah, Kabupaten Barito Utara, Kalimantan Tengah 73814","Lanjas, Kec. Teweh Tengah, Kabupaten Barito Utara",KALIMANTAN TENGAH,73814.0,Indonesia,,,,-0.9630757,114.8883533,https://maps.google.com/?cid=0x0:0xaf7bc34a0fc8fc92,
cafe,Rumah Makan,Cafe Serasa,"Jl. Rapen, Lanjas, Kec. Teweh Tengah, Kabupaten Barito Utara, Kalimantan Tengah 73814","Lanjas, Kec. Teweh Tengah, Kabupaten Barito Utara",KALIMANTAN TENGAH,73814.0,Indonesia,81263391803.0,,,-0.9531146,114.8848959,https://maps.google.com/?cid=0x0:0x2cd1c0066a87955,
cafe,Kedai Kopi,Adita Cafe,"2VVW+55F, Lanjas, Kec. Teweh Tengah, Kabupaten Barito Utara, Kalimantan Tengah 73814","Lanjas, Kec. Teweh Tengah, Kabupaten Barito Utara",KALIMANTAN TENGAH,73814.0,Indonesia,,,,-0.9570562,114.8954064,https://maps.google.com/?cid=0x0:0xc0f4e184fc90f443,
cafe,Restoran,"Tetes Kopi, Muara Teweh","Jl. Pesona No.3, RT.29/RW.03, Lanjas, Kec. Teweh Tengah, Kabupaten Barito Utara, Kalimantan Tengah 73814","RT.29/RW.03, Lanjas, Kec. Teweh Tengah, Kabupaten Barito Utara",KALIMANTAN TENGAH,73814.0,Indonesia,,,,-0.9432198,114.8915334,https://maps.google.com/?cid=0x0:0xa6c0501729060363,
cafe,Kafe,Ps Cafe  Resto,"Jl. Pramuka, Lanjas, Kec. Teweh Tengah, Kabupaten Barito Utara, Kalimantan Tengah 73814","Lanjas, Kec. Teweh Tengah, Kabupaten Barito Utara",KALIMANTAN TENGAH,73814.0,Indonesia,81289502305.0,,,-0.94636,114.8977386,https://maps.google.com/?cid=0x0:0x1167b90d45d90702,
cafe,Kafe,Maynd,"2VQR+8XQ, Jl. Yetro Sinseng, Lanjas, Kec. Teweh Tengah, Kabupaten Barito Utara, Kalimantan Tengah 73814","Jl. Yetro Sinseng, Lanjas, Kec. Teweh Tengah, Kabupaten Barito Utara",KALIMANTAN TENGAH,73814.0,Indonesia,51921819.0,,,-0.9616636,114.8924808,https://maps.google.com/?cid=0x0:0x8ff93b004e93333,
cafe,Restoran,Simple Cafe,"Jl. Bandara Lama No.1, Melayu, Kec. Teweh Tengah, Kabupaten Barito Utara, Kalimantan Tengah 73814","Melayu, Kec. Teweh Tengah, Kabupaten Barito Utara",KALIMANTAN TENGAH,73814.0,Indonesia,81256763300.0,,,-0.9451286,114.8978218,https://maps.google.com/?cid=0x0:0x82d8781fadca9946,
cafe,Restoran,"Cafe Tarera, Muara Teweh","3V4W+64W, Lanjas, Kec. Teweh Tengah, Kabupaten Barito Utara, Kalimantan Tengah 73814","Lanjas, Kec. Teweh Tengah, Kabupaten Barito Utara",KALIMANTAN TENGAH,73814.0,Indonesia,81351980533.0,,,-0.9443919,114.8953284,https://maps.google.com/?cid=0x0:0x53cec34a1f33c002,
cafe,Rumah Makan,Thira Cafe,"3V5W+C6C, Jl. Pendreh, Melayu, Kec. Teweh Tengah, Kabupaten Barito Utara, Kalimantan Tengah 73814","Jl. Pendreh, Melayu, Kec. Teweh Tengah, Kabupaten Barito Utara",KALIMANTAN TENGAH,73814.0,Indonesia,,,,-0.9414261,114.8955154,https://maps.google.com/?cid=0x0:0x47dd9c711a295cae,
cafe,Kedai Kopi,Evonkelv Coffee,"2WV3+QVR, Jl. Imam Bonjol, Melayu, Kec. Teweh Tengah, Kabupaten Barito Utara, Kalimantan Tengah 73814","Jl. Imam Bonjol, Melayu, Kec. Teweh Tengah, Kabupaten Barito Utara",KALIMANTAN TENGAH,73814.0,Indonesia,,,,-0.9555008,114.9046303,https://maps.google.com/?cid=0x0:0x4ba5c97fa33f330e,
cafe,Kedai Kopi,Juragan Kopi,"Jl. Ahmad Yani, Melayu, Kec. Teweh Tengah, Kabupaten Barito Utara, Kalimantan Tengah 73814","Melayu, Kec. Teweh Tengah, Kabupaten Barito Utara",KALIMANTAN TENGAH,73814.0,Indonesia,82148843333.0,,,-0.9601249,114.8970241,https://maps.google.com/?cid=0x0:0xd3ca69f1e73b73f4,
cafe,Kafe,KOPILAVAN,"Jl. Persemaian III, Lanjas, Kec. Teweh Tengah, Kabupaten Barito Utara, Kalimantan Tengah 73812","Lanjas, Kec. Teweh Tengah, Kabupaten Barito Utara",KALIMANTAN TENGAH,73812.0,Indonesia,85710608008.0,,,-0.9372645,114.8847725,https://maps.google.com/?cid=0x0:0xb9437faf2774f9e5,
cafe,Restoran,Cafe Wayang Muara Teweh,"2VHP+QFM, Jingah, Kec. Teweh Tengah, Kabupaten Barito Utara, Kalimantan Tengah 73814","Jingah, Kec. Teweh Tengah, Kabupaten Barito Utara",KALIMANTAN TENGAH,73814.0,Indonesia,,,,-0.9705436,114.886179,https://maps.google.com/?cid=0x0:0xe3f8a9b99426b598,
cafe,Kedai Kopi,KHATI KOFIE,"Jl. Yetro Sinseng, Lanjas, Kec. Teweh Tengah, Kabupaten Barito Utara, Kalimantan Tengah 73814","Lanjas, Kec. Teweh Tengah, Kabupaten Barito Utara",KALIMANTAN TENGAH,73814.0,Indonesia,85602948879.0,,,-0.9626921,114.8884547,https://maps.google.com/?cid=0x0:0x7dc7e83ae778418f,
cafe,Kedai Kopi,Quality Box Coffee,"Jl. Yetro Sinseng, Lanjas, Kec. Teweh Tengah, Kabupaten Barito Utara, Kalimantan Tengah 73814","Lanjas, Kec. Teweh Tengah, Kabupaten Barito Utara",KALIMANTAN TENGAH,73814.0,Indonesia,85248787700.0,,,-0.9629627,114.8887461,https://maps.google.com/?cid=0x0:0x4f1cfe5f792d9f48,
cafe,Kedai Kopi,"Kafe Kaca, Muara Teweh","2VWV+R8Q, Jl. Pramuka, Lanjas, Kec. Teweh Tengah, Kabupaten Barito Utara, Kalimantan Tengah 73814","Jl. Pramuka, Lanjas, Kec. Teweh Tengah, Kabupaten Barito Utara",KALIMANTAN TENGAH,73814.0,Indonesia,,,,-0.9529234,114.8933553,https://maps.google.com/?cid=0x0:0x4ba6a69376dd1158,
cafe,Kedai Kopi,Agape Coffee  Eatery,"Jl. Merak Simpang MT, Melayu, Kec. Teweh Tengah, Kabupaten Barito Utara, Kalimantan Tengah 73811","Melayu, Kec. Teweh Tengah, Kabupaten Barito Utara",KALIMANTAN TENGAH,73811.0,Indonesia,82252612857.0,,,-0.9573913,114.9048248,https://maps.google.com/?cid=0x0:0x769ef8619f8d73d9,
cafe,Kafe,OY MRcoffee,"Jl. Pendreh No.Rt.33 a, Melayu, Kec. Teweh Tengah, Kabupaten Barito Utara, Kalimantan Tengah 73814","Melayu, Kec. Teweh Tengah, Kabupaten Barito Utara",KALIMANTAN TENGAH,73814.0,Indonesia,82154665545.0,,,-0.9419662,114.897123,https://maps.google.com/?cid=0x0:0x169184f8c46da1aa,
cafe,Kedai Kopi,Sky Cafe,"Jl. Negara No.km 1, Jingah, Kec. Teweh Baru, Kabupaten Barito Utara, Kalimantan Tengah 73814","Jingah, Kec. Teweh Baru, Kabupaten Barito Utara",KALIMANTAN TENGAH,73814.0,Indonesia,85393649914.0,,,-0.9706366,114.8864298,https://maps.google.com/?cid=0x0:0x79f133e4f8b615c6,
cafe,Rumah Makan,Cafe Telaga RORO,"3V4V+PF4, Jl. Taman Remaja, Lanjas, Kec. Teweh Tengah, Kabupaten Barito Utara, Kalimantan Tengah 73814","Jl. Taman Remaja, Lanjas, Kec. Teweh Tengah, Kabupaten Barito Utara",KALIMANTAN TENGAH,73814.0,Indonesia,82216161000.0,,,-0.9432453,114.8937155,https://maps.google.com/?cid=0x0:0xa30124624f276bd2,
cafe,Kafe,ZEZE COFFEE,"Jl. Permata Hati 2 No.2, Lanjas, Kec. Teweh Tengah, Kabupaten Barito Utara, Kalimantan Tengah 73812","Lanjas, Kec. Teweh Tengah, Kabupaten Barito Utara",KALIMANTAN TENGAH,73812.0,Indonesia,82164448999.0,,,-0.9376976,114.8850884,https://maps.google.com/?cid=0x0:0x29fa28c87b9a12a6,
cafe,Kafe,Awen Kopi,"2VWX+6JJ, Jl. Bangau, Melayu, Kec. Teweh Tengah, Kabupaten Barito Utara, Kalimantan Tengah 73814","Jl. Bangau, Melayu, Kec. Teweh Tengah, Kabupaten Barito Utara",KALIMANTAN TENGAH,73814.0,Indonesia,82198077219.0,,,-0.9544246,114.8990141,https://maps.google.com/?cid=0x0:0x32641097b4da2960,
cafe,Kafe,Adora Coffee Muara Teweh,"2WW4+PG3, Melayu, Kec. Teweh Tengah, Kabupaten Barito Utara, Kalimantan Tengah 73814","Melayu, Kec. Teweh Tengah, Kabupaten Barito Utara",KALIMANTAN TENGAH,73814.0,Indonesia,,,,-0.953249,114.9063121,https://maps.google.com/?cid=0x0:0x1d4cfeab4193a8f4,
cafe,Kedai Kopi,Statera,"Jl. Yetro Sinseng No.2, Lanjas, Kec. Teweh Tengah, Kabupaten Barito Utara, Kalimantan Tengah 73814","Lanjas, Kec. Teweh Tengah, Kabupaten Barito Utara",KALIMANTAN TENGAH,73814.0,Indonesia,,,,-0.9631667,114.8885278,https://maps.google.com/?cid=0x0:0xca31fb4b5a775724,
cafe,Restoran,TS Cafe,"Jl. Pramuka No.55, Lanjas, Kec. Teweh Tengah, Kabupaten Barito Utara, Kalimantan Tengah 73814","Lanjas, Kec. Teweh Tengah, Kabupaten Barito Utara",KALIMANTAN TENGAH,73814.0,Indonesia,,,,-0.9461942,114.897468,https://maps.google.com/?cid=0x0:0xf4a67f486121b5e1,
cafe,cafe,Kalimantan Tengah 73881,"Kabupaten Barito Utara, Kalimantan Tengah","Kabupaten Barito Utara, Kalimantan Tengah",KALIMANTAN TENGAH,,Indonesia,,,,-1.0257651,115.3785719,https://maps.google.com/?cid=0x0:0x8bd4f30ba12eadec,
cafe,Nasi,itm,"4CCG+H4J, Benangin 5, Kec. Teweh Tim., Kabupaten Barito Utara, Kalimantan Tengah 73881","Benangin 5, Kec. Teweh Tim., Kabupaten Barito Utara",KALIMANTAN TENGAH,73881.0,Indonesia,,,,-0.8785449,115.4252709,https://maps.google.com/?cid=0x0:0xa93ce5e6494f67a0,
cafe,Klub Malam,Cafe  Studio Arepa,"V8QG+27V, Mampuak II, Kec. Teweh Tim., Kabupaten Barito Utara, Kalimantan Tengah 73881","Mampuak II, Kec. Teweh Tim., Kabupaten Barito Utara",KALIMANTAN TENGAH,73881.0,Indonesia,,,,-1.1123934,115.3256693,https://maps.google.com/?cid=0x0:0x71e225cc16eece9e,
cafe,Kedai Kopi,Evonkelv Coffee,"2WV3+QVR, Jl. Imam Bonjol, Melayu, Kec. Teweh Tengah, Kabupaten Barito Utara, Kalimantan Tengah 73814","Jl. Imam Bonjol, Melayu, Kec. Teweh Tengah, Kabupaten Barito Utara",KALIMANTAN TENGAH,73814.0,Indonesia,,,,-0.9555008,114.9046303,https://maps.google.com/?cid=0x0:0x4ba5c97fa33f330e,
cafe,Perhimpunan Pengembang Perumahan,Simpang Lampanang (Mtw-Kubar),"39XF+XV, Benangin 5, Kec. Teweh Tim., Kabupaten Barito Utara, Kalimantan Tengah","Kabupaten Barito Utara, Kalimantan Tengah",KALIMANTAN TENGAH,,Indonesia,,,,-0.9000319,115.3746391,https://maps.google.com/?cid=0x0:0xe5f76d12003d89a6,
cafe,Kedai Kopi,Juragan Kopi,"Jl. Ahmad Yani, Melayu, Kec. Teweh Tengah, Kabupaten Barito Utara, Kalimantan Tengah 73814","Melayu, Kec. Teweh Tengah, Kabupaten Barito Utara",KALIMANTAN TENGAH,73814.0,Indonesia,82148843333.0,,,-0.9601249,114.8970241,https://maps.google.com/?cid=0x0:0xd3ca69f1e73b73f4,
cafe,Kedai Kopi,Lorong Tengah,"2VPQ+Q89, Lanjas, Kec. Teweh Tengah, Kabupaten Barito Utara, Kalimantan Tengah 73814","Lanjas, Kec. Teweh Tengah, Kabupaten Barito Utara",KALIMANTAN TENGAH,73814.0,Indonesia,,,,-0.9630757,114.8883533,https://maps.google.com/?cid=0x0:0xaf7bc34a0fc8fc92,
cafe,Restoran,TALA COFFEE AND EATERY,"2VWP+H5, Lanjas, Kec. Teweh Tengah, Kabupaten Barito Utara, Kalimantan Tengah","Kabupaten Barito Utara, Kalimantan Tengah",KALIMANTAN TENGAH,,Indonesia,,,,-0.9535925,114.8854631,https://maps.google.com/?cid=0x0:0x4b74965aec5eef7e,
cafe,Kafe,OY MRcoffee,"Jl. Pendreh No.Rt.33 a, Melayu, Kec. Teweh Tengah, Kabupaten Barito Utara, Kalimantan Tengah 73814","Melayu, Kec. Teweh Tengah, Kabupaten Barito Utara",KALIMANTAN TENGAH,73814.0,Indonesia,82154665545.0,,,-0.9419662,114.897123,https://maps.google.com/?cid=0x0:0x169184f8c46da1aa,
cafe,Hotel,hotel,"Jl. Yetro Sinseng No.8, Lanjas, Kec. Teweh Tengah, Kabupaten Barito Utara, Kalimantan Tengah 73814","Lanjas, Kec. Teweh Tengah, Kabupaten Barito Utara",KALIMANTAN TENGAH,73814.0,Indonesia,85332127100.0,,,-0.9619394,114.8898641,https://maps.google.com/?cid=0x0:0xf415fda2af6a7945,
cafe,Restoran,TS Cafe,"Jl. Pramuka No.55, Lanjas, Kec. Teweh Tengah, Kabupaten Barito Utara, Kalimantan Tengah 73814","Lanjas, Kec. Teweh Tengah, Kabupaten Barito Utara",KALIMANTAN TENGAH,73814.0,Indonesia,,,,-0.9461942,114.897468,https://maps.google.com/?cid=0x0:0xf4a67f486121b5e1,
cafe,Toko bahan makanan,Toko.FaizFajar,"PCX2+9W2, Batu Raya I, Kec. Gn. Timang, Kabupaten Barito Utara, Kalimantan Tengah 73862","Batu Raya I, Kec. Gn. Timang, Kabupaten Barito Utara",KALIMANTAN TENGAH,73862.0,Indonesia,81545372282.0,,,-1.2516069,115.4022706,https://maps.google.com/?cid=0x0:0xf8131ec14d270b32,
cafe,Kafe,Ps Cafe  Resto,"Jl. Pramuka, Lanjas, Kec. Teweh Tengah, Kabupaten Barito Utara, Kalimantan Tengah 73814","Lanjas, Kec. Teweh Tengah, Kabupaten Barito Utara",KALIMANTAN TENGAH,73814.0,Indonesia,81289502305.0,,,-0.94636,114.8977386,https://maps.google.com/?cid=0x0:0x1167b90d45d90702,
cafe,Indonesia,Depot bakso(ALTAZA),"jalan 76, Benangin I, Kec. Teweh Tim., Muara tewe, Kalimantan Tengah 73881","Benangin I, Kec. Teweh Tim., Muara tewe",KALIMANTAN TENGAH,73881.0,Indonesia,81351503133.0,,,-0.9936725,115.3709255,https://maps.google.com/?cid=0x0:0xf87d22d5587b68aa,
cafe,Kedai Kopi,Adita Cafe,"2VVW+55F, Lanjas, Kec. Teweh Tengah, Kabupaten Barito Utara, Kalimantan Tengah 73814","Lanjas, Kec. Teweh Tengah, Kabupaten Barito Utara",KALIMANTAN TENGAH,73814.0,Indonesia,,,,-0.9570562,114.8954064,https://maps.google.com/?cid=0x0:0xc0f4e184fc90f443,
cafe,Makanan Kecil,Warung Makan Mama Hamzah,"Jl. Tujuh Enam No.163, RT.03, Benangin I, Kec. Teweh Tim., Kabupaten Barito Utara, Kalimantan Tengah","Kabupaten Barito Utara, Kalimantan Tengah",KALIMANTAN TENGAH,,Indonesia,85353434799.0,,,-0.9937767,115.3703184,https://maps.google.com/?cid=0x0:0x9f942f7419c3c4f4,
cafe,Restoran,"Cafe Tarera, Muara Teweh","3V4W+64W, Lanjas, Kec. Teweh Tengah, Kabupaten Barito Utara, Kalimantan Tengah 73814","Lanjas, Kec. Teweh Tengah, Kabupaten Barito Utara",KALIMANTAN TENGAH,73814.0,Indonesia,81351980533.0,,,-0.9443919,114.8953284,https://maps.google.com/?cid=0x0:0x53cec34a1f33c002,
cafe,Rumah Makan,Cafe Serasa,"Jl. Rapen, Lanjas, Kec. Teweh Tengah, Kabupaten Barito Utara, Kalimantan Tengah 73814","Lanjas, Kec. Teweh Tengah, Kabupaten Barito Utara",KALIMANTAN TENGAH,73814.0,Indonesia,81263391803.0,,,-0.9531146,114.8848959,https://maps.google.com/?cid=0x0:0x2cd1c0066a87955,
cafe,Klub Olahraga,site TSEL BENANGIN,"295F+R7, Benangin I, Kec. Teweh Tim., Kabupaten Barito Utara, Kalimantan Tengah","Kabupaten Barito Utara, Kalimantan Tengah",KALIMANTAN TENGAH,,Indonesia,,,,-0.9904351,115.3732141,https://maps.google.com/?cid=0x0:0xa2ec8f99b575b1e2,
cafe,Padang,Sembako dan Kuliner,"Jl.Poros simpang, Mampuak II, Kec. Teweh Tim., Kabupaten Barito Utara, Kalimantan Tengah 73881","Mampuak II, Kec. Teweh Tim., Kabupaten Barito Utara",KALIMANTAN TENGAH,73881.0,Indonesia,81255820567.0,,,-1.1033364,115.3288015,https://maps.google.com/?cid=0x0:0x5f55c6e36fe98b1a,
cafe,Brunch,WARUNG AZMI(mama ainun),"V9J4+6GC, Mampuak I, Kec. Teweh Tim., Kabupaten Barito Utara, Kalimantan Tengah 73881","Mampuak I, Kec. Teweh Tim., Kabupaten Barito Utara",KALIMANTAN TENGAH,73881.0,Indonesia,,,,-1.1194352,115.3562505,https://maps.google.com/?cid=0x0:0x7396081314e7c5dc,
cafe,cafe,Gorengan Sabar Menanti,"2949+9X4, Jl. Tujuh Enam, Benangin I, Kec. Teweh Tim., Kabupaten Barito Utara, Kalimantan Tengah 73881","Jl. Tujuh Enam, Benangin I, Kec. Teweh Tim., Kabupaten Barito Utara",KALIMANTAN TENGAH,73881.0,Indonesia,,,,-0.9941223,115.3699398,https://maps.google.com/?cid=0x0:0xa3a2fa954fae7dcb,
cafe,Bar Karaoke,HOLYWISH CAFE  KARAOKE,"Jl. Rapen, Lingkar Kota, Kec. Teweh Tengah, Kabupaten Barito Utara, Kalimantan Tengah 73812","Lingkar Kota, Kec. Teweh Tengah, Kabupaten Barito Utara",KALIMANTAN TENGAH,73812.0,Indonesia,82154263309.0,,,-0.9444526,114.8845602,https://maps.google.com/?cid=0x0:0x709a7bebf4f582f1,
