Category,Real Category,Business Name,Address,City,State,Postal Code,Country,Phone,Email,Website,Latitude,Longitude,Map Link,Details Link
toko bangunan,toko bangunan,Kalimantan Tengah 73862,Kalimantan Tengah,Kalimantan Tengah,KALIMANTAN TENGAH,,Indonesia,,,,-1.3062588,115.188916,https://maps.google.com/?cid=0x0:0x13b0d131c6a71cf5,
toko bangunan,Toko,Toko HS Anugerah,"Unnamed Rd, Batu Raya I, Kec. Gn. Timang, Kabupaten Barito Utara, Kalimantan Tengah 73862","Batu Raya I, Kec. Gn. Timang, Kabupaten Barito Utara",KALIMANTAN TENGAH,73862.0,Indonesia,81352437322.0,,,-1.3524232,115.2603773,https://maps.google.com/?cid=0x0:0x7f187bcb9f16e0f4,
toko bangunan,Toko,Toko Jaya Makmur(Imai),"P4VC+324, Kandui, Kec. Gn. Timang, Kabupaten Barito Utara, Kalimantan Tengah 73862","Kandui, Kec. Gn. Timang, Kabupaten Barito Utara",KALIMANTAN TENGAH,73862.0,Indonesia,81287458656.0,,,-1.2573535,115.1200686,https://maps.google.com/?cid=0x0:0xa5da6f5dd1166c52,
toko bangunan,Toko Bahan Bangunan,Toko H.Adul,"VW7X+CCC, Pandran Permai, Kec. Teweh Tengah, Kabupaten Barito Utara, Kalimantan Tengah 73861","Pandran Permai, Kec. Teweh Tengah, Kabupaten Barito Utara",KALIMANTAN TENGAH,73861.0,Indonesia,,,,-1.1364534,114.948742,https://maps.google.com/?cid=0x0:0xfa50da8d492c2399,
toko bangunan,Toko,Toko UD Semangat Baru,"MVGX+F6, Montallat II, Kec. Montallat, Kabupaten Barito Utara, Kalimantan Tengah 73862","Montallat II, Kec. Montallat, Kabupaten Barito Utara",KALIMANTAN TENGAH,73862.0,Indonesia,,,,-1.323921,114.89814,https://maps.google.com/?cid=0x0:0x598c573ff7e76e3e,
toko bangunan,Toko Swalayan,Toko.Bangunan  Molding,"F5V6+Q97, Jl. Negara Ampah-Muarateweh, Patas II, Kec. Gn. Bintang Awai, Kabupaten Barito Selatan, Kalimantan Tengah 73753","Jl. Negara Ampah-Muarateweh, Patas II, Kec. Gn. Bintang Awai, Kabupaten Barito Selatan",KALIMANTAN TENGAH,73753.0,Indonesia,81367805201.0,,,-1.5055901,115.160911,https://maps.google.com/?cid=0x0:0xdf2f3df691cf2c7,
toko bangunan,Toko Bahan Bangunan,Toko Bangunan Jaya Septia,"X233+5GR, Jl. Lintas Kalimantan Poros Tengah, Hajak, Kec. Teweh Tengah, Kabupaten Barito Utara, Kalimantan Tengah 73814","Jl. Lintas Kalimantan Poros Tengah, Hajak, Kec. Teweh Tengah, Kabupaten Barito Utara",KALIMANTAN TENGAH,73814.0,Indonesia,81385661699.0,,,-1.0470001,115.0037749,https://maps.google.com/?cid=0x0:0xd05c362f1aeac48a,
toko bangunan,Toko Bahan Bangunan,Toko Bangunan Tiga Berlian,"Jl. Yetro Sinseng No.21, Lanjas, Kec. Teweh Tengah, Kabupaten Barito Utara, Kalimantan Tengah 73814","Lanjas, Kec. Teweh Tengah, Kabupaten Barito Utara",KALIMANTAN TENGAH,73814.0,Indonesia,81367805201.0,,,-0.9617625,114.8931326,https://maps.google.com/?cid=0x0:0x642a4ce342ec99fc,
toko bangunan,Toko Perlengkapan Rumah,TOKO BANGUN TANI,"Jl. Brigjen Katamso, Melayu, Kec. Teweh Tengah, Kabupaten Barito Utara, Kalimantan Tengah 73814","Melayu, Kec. Teweh Tengah, Kabupaten Barito Utara",KALIMANTAN TENGAH,73814.0,Indonesia,81351152210.0,,,-0.9427266,114.9047556,https://maps.google.com/?cid=0x0:0x8c679f1aad05b54d,
toko bangunan,Toko Bahan Bangunan,AIDA JAYA,"Jl. Lintas Kalimantan Poros Tengah, Sikui, Kecamatan Teweh Tengah, Kabupaten Barito Utara, Kalimantan Tengah 73814","Sikui, Kecamatan Teweh Tengah, Kabupaten Barito Utara",KALIMANTAN TENGAH,73814.0,Indonesia,81287458656.0,,,-1.0777282,115.0854706,https://maps.google.com/?cid=0x0:0x3f232bdbec1bcbc0,
toko bangunan,Toko,Toko Ataini Menyedia Bahan Bangunan,"JV85+P67, Jl. Barito, Tarusan, Kec. Dusun Utara, Kabupaten Barito Selatan, Kalimantan Tengah 73752","Jl. Barito, Tarusan, Kec. Dusun Utara, Kabupaten Barito Selatan",KALIMANTAN TENGAH,73752.0,Indonesia,,,,-1.382893,114.858194,https://maps.google.com/?cid=0x0:0xe2836f17e6378ea2,
toko bangunan,Toko bahan makanan,Toko Sembako dan Bangunan Ongki Saputra,"MRFP+C4H, Jl. Raya Lintas Kota, Tumpung Laung II, Kec. Montallat, Kabupaten Barito Utara, Kalimantan Tengah 73861","Jl. Raya Lintas Kota, Tumpung Laung II, Kec. Montallat, Kabupaten Barito Utara",KALIMANTAN TENGAH,73861.0,Indonesia,82114508888.0,,,-1.3264287,114.8353521,https://maps.google.com/?cid=0x0:0xa1c8a8cfa5d7e157,
toko bangunan,Toko Bahan Bangunan,Toko Dua Putra,"VW39+G4W, Tawan Jaya, Kec. Tewen Selatan, Kabupaten Barito Utara, Kalimantan Tengah","Kabupaten Barito Utara, Kalimantan Tengah",KALIMANTAN TENGAH,,Indonesia,81287458656.0,,,-1.1461388,114.91783,https://maps.google.com/?cid=0x0:0x8cdd87b30e5cd33a,
toko bangunan,Toko Bahan Bangunan,Toko H.adol,"VXF7+XCF, Pandran Permai, Kec. Teweh Tengah, Kabupaten Barito Utara, Kalimantan Tengah 73861","Pandran Permai, Kec. Teweh Tengah, Kabupaten Barito Utara",KALIMANTAN TENGAH,73861.0,Indonesia,,,,-1.1250745,114.9635524,https://maps.google.com/?cid=0x0:0x303d453eecaaea0e,
toko bangunan,Toko Perlengkapan Rumah,Toko bangunan,"3V7Q+8H5, Lanjas, Kec. Teweh Tengah, Kabupaten Barito Utara, Kalimantan Tengah 73814","Lanjas, Kec. Teweh Tengah, Kabupaten Barito Utara",KALIMANTAN TENGAH,73814.0,Indonesia,85179569934.0,,,-0.9367264,114.8889851,https://maps.google.com/?cid=0x0:0x6b9888aba8261bcd,
toko bangunan,Toko Perlengkapan Rumah,Toko MAJU,"2VPP+PVX, Lanjas, Kec. Teweh Tengah, Kabupaten Barito Utara, Kalimantan Tengah 73814","Lanjas, Kec. Teweh Tengah, Kabupaten Barito Utara",KALIMANTAN TENGAH,73814.0,Indonesia,87773968995.0,,,-0.9631483,114.8872391,https://maps.google.com/?cid=0x0:0x92b3b89aa2c4427a,
toko bangunan,Toko,Toko Rizky,"VX83+9FP, Pandran Permai, Kec. Teweh Tengah, Kabupaten Barito Utara, Kalimantan Tengah 73861","Pandran Permai, Kec. Teweh Tengah, Kabupaten Barito Utara",KALIMANTAN TENGAH,73861.0,Indonesia,81287458656.0,,,-1.1340278,114.953693,https://maps.google.com/?cid=0x0:0x8b802e09dfaea460,
toko bangunan,toko bangunan,TB DUTA WALET,"Q43H+PRH, Kandui, Kec. Gn. Timang, Kabupaten Barito Utara, Kalimantan Tengah","Kabupaten Barito Utara, Kalimantan Tengah",KALIMANTAN TENGAH,,Indonesia,,,,-1.2456816,115.1296249,https://maps.google.com/?cid=0x0:0x7d4ba56bae990d9d,
toko bangunan,toko bangunan,Kec. Gn. Timang,"Kabupaten Barito Utara, Kalimantan Tengah","Kabupaten Barito Utara, Kalimantan Tengah",KALIMANTAN TENGAH,,Indonesia,,,,-1.2707903,115.2363408,https://maps.google.com/?cid=0x0:0x72a23c94fe5b54f5,
toko bangunan,toko bangunan,Kalimantan Tengah 73871,"Kabupaten Barito Utara, Kalimantan Tengah","Kabupaten Barito Utara, Kalimantan Tengah",KALIMANTAN TENGAH,,Indonesia,,,,-1.197196,115.6154732,https://maps.google.com/?cid=0x0:0x6d60d15ecdbf488b,
toko bangunan,Toko Bahan Bangunan,Toko Berkat Jaya,"VJ62+5V9, Jl. Lampeong, Lampeong I, Gn. Purei, Kabupaten Barito Utara, Kalimantan Tengah 73871","Jl. Lampeong, Lampeong I, Gn. Purei, Kabupaten Barito Utara",KALIMANTAN TENGAH,73871.0,Indonesia,81287458656.0,,,-1.1395871,115.6022493,https://maps.google.com/?cid=0x0:0xeadb40fe34172d23,
toko bangunan,Toko,Toko HS Anugerah,"Unnamed Rd, Batu Raya I, Kec. Gn. Timang, Kabupaten Barito Utara, Kalimantan Tengah 73862","Batu Raya I, Kec. Gn. Timang, Kabupaten Barito Utara",KALIMANTAN TENGAH,73862.0,Indonesia,81352437322.0,,,-1.3524232,115.2603773,https://maps.google.com/?cid=0x0:0x7f187bcb9f16e0f4,
toko bangunan,toko bangunan,Kalimantan Tengah 73852,"Kec. Lahei, Kabupaten Barito Utara, Kalimantan Tengah","Kabupaten Barito Utara, Kalimantan Tengah",KALIMANTAN TENGAH,,Indonesia,,,,-0.6129045,115.188916,https://maps.google.com/?cid=0x0:0xf279ed86a55323d0,
toko bangunan,Toko Bahan Bangunan,TOKO BANGUNAN HILYA,"3WC2+PJ5, Jl. Lintas Kalimantan Poros Tengah, Melayu, Kec. Teweh Tengah, Kabupaten Barito Utara, Kalimantan Tengah 73814","Jl. Lintas Kalimantan Poros Tengah, Melayu, Kec. Teweh Tengah, Kabupaten Barito Utara",KALIMANTAN TENGAH,73814.0,Indonesia,85169981293.0,,,-0.9268192,114.9021961,https://maps.google.com/?cid=0x0:0xd49d828b3d9efe0,
toko bangunan,Toko Bahan Bangunan,Toko Bangunan Tiga Berlian,"Jl. Yetro Sinseng No.21, Lanjas, Kec. Teweh Tengah, Kabupaten Barito Utara, Kalimantan Tengah 73814","Lanjas, Kec. Teweh Tengah, Kabupaten Barito Utara",KALIMANTAN TENGAH,73814.0,Indonesia,81367805201.0,,,-0.9617625,114.8931326,https://maps.google.com/?cid=0x0:0x642a4ce342ec99fc,
toko bangunan,Toko Perlengkapan Rumah,Toko bangunan,"3V7Q+8H5, Lanjas, Kec. Teweh Tengah, Kabupaten Barito Utara, Kalimantan Tengah 73814","Lanjas, Kec. Teweh Tengah, Kabupaten Barito Utara",KALIMANTAN TENGAH,73814.0,Indonesia,85179569934.0,,,-0.9367264,114.8889851,https://maps.google.com/?cid=0x0:0x6b9888aba8261bcd,
toko bangunan,Toko Perlengkapan Rumah,Toko MAJU,"2VPP+PVX, Lanjas, Kec. Teweh Tengah, Kabupaten Barito Utara, Kalimantan Tengah 73814","Lanjas, Kec. Teweh Tengah, Kabupaten Barito Utara",KALIMANTAN TENGAH,73814.0,Indonesia,87773968995.0,,,-0.9631483,114.8872391,https://maps.google.com/?cid=0x0:0x92b3b89aa2c4427a,
toko bangunan,Toko Perlengkapan Rumah,TOKO BANGUN TANI,"Jl. Brigjen Katamso, Melayu, Kec. Teweh Tengah, Kabupaten Barito Utara, Kalimantan Tengah 73814","Melayu, Kec. Teweh Tengah, Kabupaten Barito Utara",KALIMANTAN TENGAH,73814.0,Indonesia,81351152210.0,,,-0.9427266,114.9047556,https://maps.google.com/?cid=0x0:0x8c679f1aad05b54d,
toko bangunan,Komplek perumahan,Muara Tuhup,"9RG5+2P5, Muara Tuhup, Kec. Laung Tuhup, Kabupaten Murung Raya, Kalimantan Tengah 73991","Muara Tuhup, Kec. Laung Tuhup, Kabupaten Murung Raya",KALIMANTAN TENGAH,73991.0,Indonesia,,,,-0.6250325,114.8086775,https://maps.google.com/?cid=0x0:0x38d46e69ae9855ef,
toko bangunan,Toko Bahan Bangunan,TOKO BANGUNAN (YOLAN BARITO),"9H3J+5W, Puruk Cahu, Kec. Murung, Kabupaten Murung Raya, Kalimantan Tengah 73911","Puruk Cahu, Kec. Murung, Kabupaten Murung Raya",KALIMANTAN TENGAH,73911.0,Indonesia,87737401068.0,,,-0.6466795,114.5811541,https://maps.google.com/?cid=0x0:0x1e126e186b82f785,
toko bangunan,Toko Bahan Bangunan,TB.BINTANG ASIA,"3V6P+HJV, Lanjas, Kec. Teweh Tengah, Kabupaten Barito Utara, Kalimantan Tengah 73814","Lanjas, Kec. Teweh Tengah, Kabupaten Barito Utara",KALIMANTAN TENGAH,73814.0,Indonesia,85169981293.0,,,-0.9385133,114.88654,https://maps.google.com/?cid=0x0:0x3b8f582623d3e262,
toko bangunan,Toko Bahan Bangunan,Toko Bangunan C.V. Citra Barito,"2VMJ+7M9, Jalan Negara, Kandui, Kec. Teweh Tengah, Kabupaten Barito Utara, Kalimantan Tengah 73814","Jalan Negara, Kandui, Kec. Teweh Tengah, Kabupaten Barito Utara",KALIMANTAN TENGAH,73814.0,Indonesia,83899586603.0,,,-0.9668375,114.8817444,https://maps.google.com/?cid=0x0:0xf185322732339ff6,
toko bangunan,Toko Bahan Bangunan,Galangan kayu bangunan putra tunggal,"2WV7+3QC, Jambu kec, Jambu, Kec. Teweh Baru, Kabupaten Barito Utara, Kalimantan Tengah 73814","Jambu kec, Jambu, Kec. Teweh Baru, Kabupaten Barito Utara",KALIMANTAN TENGAH,73814.0,Indonesia,,,,-0.957309,114.9143996,https://maps.google.com/?cid=0x0:0xf12e37ff72b6cc11,
toko bangunan,Toko Bahan Bangunan,Tkb. KARYA BARU,"2VXX+XJ6, Jl. Ahmad Yani, Lanjas, Kec. Teweh Tengah, Kabupaten Barito Utara, Kalimantan Tengah 73814","Jl. Ahmad Yani, Lanjas, Kec. Teweh Tengah, Kabupaten Barito Utara",KALIMANTAN TENGAH,73814.0,Indonesia,85169981293.0,,,-0.9500805,114.8990197,https://maps.google.com/?cid=0x0:0x5b8f1da2033f51a0,
toko bangunan,Perusahaan Pertambangan,Workshop CV Haji Kasdi (HK),"3V9X+GMH, Jl. Simpang Wanareja, Melayu, Kec. Teweh Tengah, Kabupaten Barito Utara, Kalimantan Tengah 73814","Jl. Simpang Wanareja, Melayu, Kec. Teweh Tengah, Kabupaten Barito Utara",KALIMANTAN TENGAH,73814.0,Indonesia,,,,-0.93134,114.89888,https://maps.google.com/?cid=0x0:0x9bf2f51c31a5314c,
toko bangunan,Toko Bahan Bangunan,TOKO BANGUNAN INARA,"9PQP+843, Muara Laung I, Kec. Laung Tuhup, Kabupaten Murung Raya, Kalimantan Tengah","Kabupaten Murung Raya, Kalimantan Tengah",KALIMANTAN TENGAH,,Indonesia,82149064696.0,,,-0.6117295,114.7353074,https://maps.google.com/?cid=0x0:0xe94938d36dd69663,
toko bangunan,Toko Bahan Bangunan,AIDA JAYA,"Jl. Lintas Kalimantan Poros Tengah, Sikui, Kecamatan Teweh Tengah, Kabupaten Barito Utara, Kalimantan Tengah 73814","Sikui, Kecamatan Teweh Tengah, Kabupaten Barito Utara",KALIMANTAN TENGAH,73814.0,Indonesia,81287458656.0,,,-1.0777282,115.0854706,https://maps.google.com/?cid=0x0:0x3f232bdbec1bcbc0,
toko bangunan,Toko Bahan Bangunan,Toko Bangunan Swarga,"Jalan, Tamiang Layang, Dusun Timur, East Barito Regency, Central Kalimantan 73671","Tamiang Layang, Dusun Timur, East Barito Regency",KALIMANTAN TENGAH,73671.0,Indonesia,85789077202.0,,,-2.0966672,115.151779,https://maps.google.com/?cid=0x0:0x4153cd1f5a6a0a6e,
toko bangunan,Toko Bahan Bangunan,Toko Bangunan dan Material,"Jl. Veteran rt 09 kelurahan muara laung 1 kecamatan laung tuhup Muara Laung 1, Kalimantan Tengah 73992","Kabupaten Murung Raya, Kalimantan Tengah",KALIMANTAN TENGAH,,Indonesia,81352554971.0,,,-0.5969586,114.7294917,https://maps.google.com/?cid=0x0:0xa690a33d5f93a021,
toko bangunan,Toko Bahan Bangunan,TOKO WAJAH BARU (BANGUNAN ALAT SPARE PART MESIN TERLENGKAP,"Beriwit, Kec. Murung, Kabupaten Murung Raya, Kalimantan Tengah 73911","Kec. Murung, Kabupaten Murung Raya",KALIMANTAN TENGAH,73911.0,Indonesia,82255453260.0,,,-0.6169916,114.573286,https://maps.google.com/?cid=0x0:0xa12ae7a743d9d5a1,
toko bangunan,Toko Perlengkapan Rumah,"TOKO WAJAH BARU 2 (bangunan,Mesin  sparepart terlengkap)","9H98+FX8, Jl. Ahmad Yani, Beriwit, Kec. Murung, Kabupaten Murung Raya, Kalimantan Tengah 73911","Jl. Ahmad Yani, Beriwit, Kec. Murung, Kabupaten Murung Raya",KALIMANTAN TENGAH,73911.0,Indonesia,82122228701.0,,,-0.6313635,114.5674705,https://maps.google.com/?cid=0x0:0x7ced03815960437e,
toko bangunan,Toko Bahan Bangunan,Toko Fatwa,"CP2J+HP9, Muara Laung I, Kec. Laung Tuhup, Kabupaten Murung Raya, Kalimantan Tengah 73911","Muara Laung I, Kec. Laung Tuhup, Kabupaten Murung Raya",KALIMANTAN TENGAH,73911.0,Indonesia,,,,-0.5989563,114.7321794,https://maps.google.com/?cid=0x0:0x17a611aeab2412e,
toko bangunan,Toko Perlengkapan Rumah,Toko Agus Riyadi 3,"Melayu, Kec. Teweh Tengah, Kabupaten Barito Utara, Kalimantan Tengah 73814","Kec. Teweh Tengah, Kabupaten Barito Utara",KALIMANTAN TENGAH,73814.0,Indonesia,81396801512.0,,,-0.9594759,114.9039055,https://maps.google.com/?cid=0x0:0x65c1e948c7c4225d,
toko bangunan,toko bangunan,Kec. Lahei Barat,"Kabupaten Barito Utara, Kalimantan Tengah","Kabupaten Barito Utara, Kalimantan Tengah",KALIMANTAN TENGAH,,Indonesia,,,,-0.7935062,114.9382498,https://maps.google.com/?cid=0x0:0x5adc4924308bea72,
toko bangunan,Toko Bahan Bangunan,Toko Bangunan Tiga Berlian,"Jl. Yetro Sinseng No.21, Lanjas, Kec. Teweh Tengah, Kabupaten Barito Utara, Kalimantan Tengah 73814","Lanjas, Kec. Teweh Tengah, Kabupaten Barito Utara",KALIMANTAN TENGAH,73814.0,Indonesia,81367805201.0,,,-0.9617625,114.8931326,https://maps.google.com/?cid=0x0:0x642a4ce342ec99fc,
toko bangunan,Toko Bahan Bangunan,TOKO BANGUNAN HILYA,"3WC2+PJ5, Jl. Lintas Kalimantan Poros Tengah, Melayu, Kec. Teweh Tengah, Kabupaten Barito Utara, Kalimantan Tengah 73814","Jl. Lintas Kalimantan Poros Tengah, Melayu, Kec. Teweh Tengah, Kabupaten Barito Utara",KALIMANTAN TENGAH,73814.0,Indonesia,85169981293.0,,,-0.9268192,114.9021961,https://maps.google.com/?cid=0x0:0xd49d828b3d9efe0,
toko bangunan,Toko Perlengkapan Rumah,Toko bangunan,"3V7Q+8H5, Lanjas, Kec. Teweh Tengah, Kabupaten Barito Utara, Kalimantan Tengah 73814","Lanjas, Kec. Teweh Tengah, Kabupaten Barito Utara",KALIMANTAN TENGAH,73814.0,Indonesia,85179569934.0,,,-0.9367264,114.8889851,https://maps.google.com/?cid=0x0:0x6b9888aba8261bcd,
toko bangunan,Toko Perlengkapan Rumah,Toko MAJU,"2VPP+PVX, Lanjas, Kec. Teweh Tengah, Kabupaten Barito Utara, Kalimantan Tengah 73814","Lanjas, Kec. Teweh Tengah, Kabupaten Barito Utara",KALIMANTAN TENGAH,73814.0,Indonesia,87773968995.0,,,-0.9631483,114.8872391,https://maps.google.com/?cid=0x0:0x92b3b89aa2c4427a,
toko bangunan,Toko Elektronik,Toko bangunan dan elektronik 2 putri,"9PQP+HFH, Muara Laung I, Kec. Laung Tuhup, Kabupaten Murung Raya, Kalimantan Tengah","Kabupaten Murung Raya, Kalimantan Tengah",KALIMANTAN TENGAH,,Indonesia,83899586603.0,,,-0.6110741,114.7362284,https://maps.google.com/?cid=0x0:0x3f59fdb5c0c1eb76,
toko bangunan,Toko Bahan Bangunan,TOKO BANGUNAN (YOLAN BARITO),"9H3J+5W, Puruk Cahu, Kec. Murung, Kabupaten Murung Raya, Kalimantan Tengah 73911","Puruk Cahu, Kec. Murung, Kabupaten Murung Raya",KALIMANTAN TENGAH,73911.0,Indonesia,87737401068.0,,,-0.6466795,114.5811541,https://maps.google.com/?cid=0x0:0x1e126e186b82f785,
toko bangunan,Toko,Toko HS Anugerah,"Unnamed Rd, Batu Raya I, Kec. Gn. Timang, Kabupaten Barito Utara, Kalimantan Tengah 73862","Batu Raya I, Kec. Gn. Timang, Kabupaten Barito Utara",KALIMANTAN TENGAH,73862.0,Indonesia,81352437322.0,,,-1.3524232,115.2603773,https://maps.google.com/?cid=0x0:0x7f187bcb9f16e0f4,
toko bangunan,Toko Bahan Bangunan,TOKO WAJAH BARU (BANGUNAN ALAT SPARE PART MESIN TERLENGKAP,"Beriwit, Kec. Murung, Kabupaten Murung Raya, Kalimantan Tengah 73911","Kec. Murung, Kabupaten Murung Raya",KALIMANTAN TENGAH,73911.0,Indonesia,82255453260.0,,,-0.6169916,114.573286,https://maps.google.com/?cid=0x0:0xa12ae7a743d9d5a1,
toko bangunan,Toko Bahan Bangunan,Tkb. KARYA BARU,"2VXX+XJ6, Jl. Ahmad Yani, Lanjas, Kec. Teweh Tengah, Kabupaten Barito Utara, Kalimantan Tengah 73814","Jl. Ahmad Yani, Lanjas, Kec. Teweh Tengah, Kabupaten Barito Utara",KALIMANTAN TENGAH,73814.0,Indonesia,85169981293.0,,,-0.9500805,114.8990197,https://maps.google.com/?cid=0x0:0x5b8f1da2033f51a0,
toko bangunan,Toko Perlengkapan Rumah,"TOKO WAJAH BARU 2 (bangunan,Mesin  sparepart terlengkap)","9H98+FX8, Jl. Ahmad Yani, Beriwit, Kec. Murung, Kabupaten Murung Raya, Kalimantan Tengah 73911","Jl. Ahmad Yani, Beriwit, Kec. Murung, Kabupaten Murung Raya",KALIMANTAN TENGAH,73911.0,Indonesia,82122228701.0,,,-0.6313635,114.5674705,https://maps.google.com/?cid=0x0:0x7ced03815960437e,
toko bangunan,Toko Bahan Bangunan,Toko Bangunan C.V. Citra Barito,"2VMJ+7M9, Jalan Negara, Kandui, Kec. Teweh Tengah, Kabupaten Barito Utara, Kalimantan Tengah 73814","Jalan Negara, Kandui, Kec. Teweh Tengah, Kabupaten Barito Utara",KALIMANTAN TENGAH,73814.0,Indonesia,83899586603.0,,,-0.9668375,114.8817444,https://maps.google.com/?cid=0x0:0xf185322732339ff6,
toko bangunan,Toko Bahan Bangunan,Toko Bangunan Swarga,"Jalan, Tamiang Layang, Dusun Timur, East Barito Regency, Central Kalimantan 73671","Tamiang Layang, Dusun Timur, East Barito Regency",KALIMANTAN TENGAH,73671.0,Indonesia,85789077202.0,,,-2.0966672,115.151779,https://maps.google.com/?cid=0x0:0x4153cd1f5a6a0a6e,
toko bangunan,Toko Bahan Bangunan,TB H.Bahkian,"9H48+C7P, Jl. Ahmad Yani, Beriwit, Kec. Murung, Kabupaten Murung Raya, Kalimantan Tengah 73911","Jl. Ahmad Yani, Beriwit, Kec. Murung, Kabupaten Murung Raya",KALIMANTAN TENGAH,73911.0,Indonesia,82122228701.0,,,-0.6439103,114.5657086,https://maps.google.com/?cid=0x0:0x96f8d4f408b68cc1,
toko bangunan,Toko Bahan Bangunan,Toko bangunan Eko,"RJXW+4QH, Karang Bunga, Kec. Mandastana, Kabupaten Barito Kuala, Kalimantan Selatan 70561","Karang Bunga, Kec. Mandastana, Kabupaten Barito Kuala",KALIMANTAN TENGAH,70561.0,Indonesia,,,,-3.1524577,114.6466312,https://maps.google.com/?cid=0x0:0x7805f997a19caea6,
toko bangunan,Toko,Toko Jaya Makmur(Imai),"P4VC+324, Kandui, Kec. Gn. Timang, Kabupaten Barito Utara, Kalimantan Tengah 73862","Kandui, Kec. Gn. Timang, Kabupaten Barito Utara",KALIMANTAN TENGAH,73862.0,Indonesia,81287458656.0,,,-1.2573535,115.1200686,https://maps.google.com/?cid=0x0:0xa5da6f5dd1166c52,
toko bangunan,Toko Perlengkapan Rumah,Toko Bangunan Raihan,"WJWF+5C6, Belawang Kolam Kiri, Kec. Wanaraya, Kabupaten Barito Kuala, Kalimantan Selatan 70562","Belawang Kolam Kiri, Kec. Wanaraya, Kabupaten Barito Kuala",KALIMANTAN TENGAH,70562.0,Indonesia,,,,-3.0545899,114.6235237,https://maps.google.com/?cid=0x0:0x70f4408c22ee6645,
toko bangunan,Toko Bahan Bangunan,TB.BINTANG ASIA,"3V6P+HJV, Lanjas, Kec. Teweh Tengah, Kabupaten Barito Utara, Kalimantan Tengah 73814","Lanjas, Kec. Teweh Tengah, Kabupaten Barito Utara",KALIMANTAN TENGAH,73814.0,Indonesia,85169981293.0,,,-0.9385133,114.88654,https://maps.google.com/?cid=0x0:0x3b8f582623d3e262,
toko bangunan,,Toko Berkat Bangun,"P4W8+X6C, Kandui, Kec. Gn. Timang, Kabupaten Barito Utara, Kalimantan Tengah 73862","Kandui, Kec. Gn. Timang, Kabupaten Barito Utara",KALIMANTAN TENGAH,73862.0,Indonesia,8161999912.0,,,-1.2525615,115.115516,https://maps.google.com/?cid=0x0:0xab01032469b07357,
toko bangunan,Toko Bahan Bangunan,Galangan kayu bangunan putra tunggal,"2WV7+3QC, Jambu kec, Jambu, Kec. Teweh Baru, Kabupaten Barito Utara, Kalimantan Tengah 73814","Jambu kec, Jambu, Kec. Teweh Baru, Kabupaten Barito Utara",KALIMANTAN TENGAH,73814.0,Indonesia,,,,-0.957309,114.9143996,https://maps.google.com/?cid=0x0:0xf12e37ff72b6cc11,
toko bangunan,Perusahaan Pertambangan,Workshop CV Haji Kasdi (HK),"3V9X+GMH, Jl. Simpang Wanareja, Melayu, Kec. Teweh Tengah, Kabupaten Barito Utara, Kalimantan Tengah 73814","Jl. Simpang Wanareja, Melayu, Kec. Teweh Tengah, Kabupaten Barito Utara",KALIMANTAN TENGAH,73814.0,Indonesia,,,,-0.93134,114.89888,https://maps.google.com/?cid=0x0:0x9bf2f51c31a5314c,
toko bangunan,Toko Bahan Bangunan,Antang Cahaya Baru. PT,"3VCW+XFP, Desa Murung Keramat, Selat Muara Teweh, Melayu, Kec. Teweh Tengah, Kapuas, Kalimantan Tengah 73814","Desa Murung Keramat, Selat Muara Teweh, Melayu, Kec. Teweh Tengah, Kapuas",KALIMANTAN TENGAH,73814.0,Indonesia,51322742.0,,,-0.927532,114.896207,https://maps.google.com/?cid=0x0:0x2644bf314caaca59,
toko bangunan,Toko Bahan Bangunan,TOKO BANGUNAN INARA,"9PQP+843, Muara Laung I, Kec. Laung Tuhup, Kabupaten Murung Raya, Kalimantan Tengah","Kabupaten Murung Raya, Kalimantan Tengah",KALIMANTAN TENGAH,,Indonesia,82149064696.0,,,-0.6117295,114.7353074,https://maps.google.com/?cid=0x0:0xe94938d36dd69663,
toko bangunan,Toko Bahan Bangunan,Toko bangunan yolan barito(H.kaset),"9HF9+XRX, Jl. Ahmad Yani, Beriwit, Kec. Murung, Kabupaten Murung Raya, Kalimantan Tengah 73911","Jl. Ahmad Yani, Beriwit, Kec. Murung, Kabupaten Murung Raya",KALIMANTAN TENGAH,73911.0,Indonesia,81349416412.0,,,-0.6250176,114.5696045,https://maps.google.com/?cid=0x0:0x1589d991cba076e,
toko bangunan,Toko Perlengkapan Rumah,Toko Agus Riyadi 3,"Melayu, Kec. Teweh Tengah, Kabupaten Barito Utara, Kalimantan Tengah 73814","Kec. Teweh Tengah, Kabupaten Barito Utara",KALIMANTAN TENGAH,73814.0,Indonesia,81396801512.0,,,-0.9594759,114.9039055,https://maps.google.com/?cid=0x0:0x65c1e948c7c4225d,
toko bangunan,toko bangunan,Kec. Montallat,"Kabupaten Barito Utara, Kalimantan Tengah","Kabupaten Barito Utara, Kalimantan Tengah",KALIMANTAN TENGAH,,Indonesia,,,,-1.3271553,114.8390377,https://maps.google.com/?cid=0x0:0xaee00abe123121b3,
toko bangunan,Toko,Toko UD Semangat Baru,"MVGX+F6, Montallat II, Kec. Montallat, Kabupaten Barito Utara, Kalimantan Tengah 73862","Montallat II, Kec. Montallat, Kabupaten Barito Utara",KALIMANTAN TENGAH,73862.0,Indonesia,,,,-1.323921,114.89814,https://maps.google.com/?cid=0x0:0x598c573ff7e76e3e,
toko bangunan,Toko Bahan Bangunan,Toko H.Adul,"VW7X+CCC, Pandran Permai, Kec. Teweh Tengah, Kabupaten Barito Utara, Kalimantan Tengah 73861","Pandran Permai, Kec. Teweh Tengah, Kabupaten Barito Utara",KALIMANTAN TENGAH,73861.0,Indonesia,,,,-1.1364534,114.948742,https://maps.google.com/?cid=0x0:0xfa50da8d492c2399,
toko bangunan,Toko,Toko Ataini Menyedia Bahan Bangunan,"JV85+P67, Jl. Barito, Tarusan, Kec. Dusun Utara, Kabupaten Barito Selatan, Kalimantan Tengah 73752","Jl. Barito, Tarusan, Kec. Dusun Utara, Kabupaten Barito Selatan",KALIMANTAN TENGAH,73752.0,Indonesia,,,,-1.382893,114.858194,https://maps.google.com/?cid=0x0:0xe2836f17e6378ea2,
toko bangunan,Toko Swalayan,Toko.Bangunan  Molding,"F5V6+Q97, Jl. Negara Ampah-Muarateweh, Patas II, Kec. Gn. Bintang Awai, Kabupaten Barito Selatan, Kalimantan Tengah 73753","Jl. Negara Ampah-Muarateweh, Patas II, Kec. Gn. Bintang Awai, Kabupaten Barito Selatan",KALIMANTAN TENGAH,73753.0,Indonesia,81367805201.0,,,-1.5055901,115.160911,https://maps.google.com/?cid=0x0:0xdf2f3df691cf2c7,
toko bangunan,Toko Perlengkapan Rumah,TOKO BANGUN TANI,"Jl. Brigjen Katamso, Melayu, Kec. Teweh Tengah, Kabupaten Barito Utara, Kalimantan Tengah 73814","Melayu, Kec. Teweh Tengah, Kabupaten Barito Utara",KALIMANTAN TENGAH,73814.0,Indonesia,81351152210.0,,,-0.9427266,114.9047556,https://maps.google.com/?cid=0x0:0x8c679f1aad05b54d,
toko bangunan,Toko Bahan Bangunan,Toko Bangunan Tiga Berlian,"Jl. Yetro Sinseng No.21, Lanjas, Kec. Teweh Tengah, Kabupaten Barito Utara, Kalimantan Tengah 73814","Lanjas, Kec. Teweh Tengah, Kabupaten Barito Utara",KALIMANTAN TENGAH,73814.0,Indonesia,81367805201.0,,,-0.9617625,114.8931326,https://maps.google.com/?cid=0x0:0x642a4ce342ec99fc,
toko bangunan,Toko Bahan Bangunan,Toko Dua Putra,"VW39+G4W, Tawan Jaya, Kec. Tewen Selatan, Kabupaten Barito Utara, Kalimantan Tengah","Kabupaten Barito Utara, Kalimantan Tengah",KALIMANTAN TENGAH,,Indonesia,81287458656.0,,,-1.1461388,114.91783,https://maps.google.com/?cid=0x0:0x8cdd87b30e5cd33a,
toko bangunan,Toko,Toko Rizky,"VX83+9FP, Pandran Permai, Kec. Teweh Tengah, Kabupaten Barito Utara, Kalimantan Tengah 73861","Pandran Permai, Kec. Teweh Tengah, Kabupaten Barito Utara",KALIMANTAN TENGAH,73861.0,Indonesia,81287458656.0,,,-1.1340278,114.953693,https://maps.google.com/?cid=0x0:0x8b802e09dfaea460,
toko bangunan,Toko Bahan Bangunan,Toko H.adol,"VXF7+XCF, Pandran Permai, Kec. Teweh Tengah, Kabupaten Barito Utara, Kalimantan Tengah 73861","Pandran Permai, Kec. Teweh Tengah, Kabupaten Barito Utara",KALIMANTAN TENGAH,73861.0,Indonesia,,,,-1.1250745,114.9635524,https://maps.google.com/?cid=0x0:0x303d453eecaaea0e,
toko bangunan,toko bangunan,Toko Alat Bangunan Dan Sparepart Motor,"Tumpung Laung I, Kec. Montallat, Kabupaten Barito Utara, Kalimantan Tengah 73861","Kec. Montallat, Kabupaten Barito Utara",KALIMANTAN TENGAH,73861.0,Indonesia,,,,-1.3229357,114.8238344,https://maps.google.com/?cid=0x0:0x436305fadb9ce28c,
toko bangunan,toko bangunan,Toko bahan bangunan,"MRGH+83M, Tumpung Laung II, Kec. Montallat, Kabupaten Barito Utara, Kalimantan Tengah","Kabupaten Barito Utara, Kalimantan Tengah",KALIMANTAN TENGAH,,Indonesia,,,,-1.3241521,114.8276575,https://maps.google.com/?cid=0x0:0xcd70239506835ec8,
toko bangunan,Toko Bahan Bangunan,Toko Bangunan Swarga,"Jalan, Tamiang Layang, Dusun Timur, East Barito Regency, Central Kalimantan 73671","Tamiang Layang, Dusun Timur, East Barito Regency",KALIMANTAN TENGAH,73671.0,Indonesia,85789077202.0,,,-2.0966672,115.151779,https://maps.google.com/?cid=0x0:0x4153cd1f5a6a0a6e,
toko bangunan,Sekolah Menengah Atas,SMPN 1 MONTALLAT,"MRG9+GV5, Tumpung Laung II, Kec. Montallat, Kabupaten Barito Utara, Kalimantan Tengah 73861","Tumpung Laung II, Kec. Montallat, Kabupaten Barito Utara",KALIMANTAN TENGAH,73861.0,Indonesia,,,,-1.3237421,114.81974,https://maps.google.com/?cid=0x0:0x8f3563cc0762d86f,
toko bangunan,toko bangunan,Kalimantan Tengah 73813,"Jambu, Kec. Teweh Baru, Kabupaten Barito Utara, Kalimantan Tengah","Kabupaten Barito Utara, Kalimantan Tengah",KALIMANTAN TENGAH,,Indonesia,,,,-0.8856163,115.0169419,https://maps.google.com/?cid=0x0:0x20b84a66bae62c5e,
toko bangunan,Toko Perlengkapan Rumah,TOKO BANGUN TANI,"Jl. Brigjen Katamso, Melayu, Kec. Teweh Tengah, Kabupaten Barito Utara, Kalimantan Tengah 73814","Melayu, Kec. Teweh Tengah, Kabupaten Barito Utara",KALIMANTAN TENGAH,73814.0,Indonesia,81351152210.0,,,-0.9427266,114.9047556,https://maps.google.com/?cid=0x0:0x8c679f1aad05b54d,
toko bangunan,Toko Bahan Bangunan,Toko Bangunan Tiga Berlian,"Jl. Yetro Sinseng No.21, Lanjas, Kec. Teweh Tengah, Kabupaten Barito Utara, Kalimantan Tengah 73814","Lanjas, Kec. Teweh Tengah, Kabupaten Barito Utara",KALIMANTAN TENGAH,73814.0,Indonesia,81367805201.0,,,-0.9617625,114.8931326,https://maps.google.com/?cid=0x0:0x642a4ce342ec99fc,
toko bangunan,Toko Bahan Bangunan,Tkb. KARYA BARU,"2VXX+XJ6, Jl. Ahmad Yani, Lanjas, Kec. Teweh Tengah, Kabupaten Barito Utara, Kalimantan Tengah 73814","Jl. Ahmad Yani, Lanjas, Kec. Teweh Tengah, Kabupaten Barito Utara",KALIMANTAN TENGAH,73814.0,Indonesia,85169981293.0,,,-0.9500805,114.8990197,https://maps.google.com/?cid=0x0:0x5b8f1da2033f51a0,
toko bangunan,Toko Bahan Bangunan,Toko Bangunan C.V. Citra Barito,"2VMJ+7M9, Jalan Negara, Kandui, Kec. Teweh Tengah, Kabupaten Barito Utara, Kalimantan Tengah 73814","Jalan Negara, Kandui, Kec. Teweh Tengah, Kabupaten Barito Utara",KALIMANTAN TENGAH,73814.0,Indonesia,83899586603.0,,,-0.9668375,114.8817444,https://maps.google.com/?cid=0x0:0xf185322732339ff6,
toko bangunan,Toko Perlengkapan Rumah,Toko MAJU,"2VPP+PVX, Lanjas, Kec. Teweh Tengah, Kabupaten Barito Utara, Kalimantan Tengah 73814","Lanjas, Kec. Teweh Tengah, Kabupaten Barito Utara",KALIMANTAN TENGAH,73814.0,Indonesia,87773968995.0,,,-0.9631483,114.8872391,https://maps.google.com/?cid=0x0:0x92b3b89aa2c4427a,
toko bangunan,Toko Bahan Bangunan,Toko Bangunan Jaya Septia,"X233+5GR, Jl. Lintas Kalimantan Poros Tengah, Hajak, Kec. Teweh Tengah, Kabupaten Barito Utara, Kalimantan Tengah 73814","Jl. Lintas Kalimantan Poros Tengah, Hajak, Kec. Teweh Tengah, Kabupaten Barito Utara",KALIMANTAN TENGAH,73814.0,Indonesia,81385661699.0,,,-1.0470001,115.0037749,https://maps.google.com/?cid=0x0:0xd05c362f1aeac48a,
toko bangunan,Toko Bahan Bangunan,Galangan kayu bangunan putra tunggal,"2WV7+3QC, Jambu kec, Jambu, Kec. Teweh Baru, Kabupaten Barito Utara, Kalimantan Tengah 73814","Jambu kec, Jambu, Kec. Teweh Baru, Kabupaten Barito Utara",KALIMANTAN TENGAH,73814.0,Indonesia,,,,-0.957309,114.9143996,https://maps.google.com/?cid=0x0:0xf12e37ff72b6cc11,
toko bangunan,Toko Perlengkapan Rumah,Toko Agus Riyadi 3,"Melayu, Kec. Teweh Tengah, Kabupaten Barito Utara, Kalimantan Tengah 73814","Kec. Teweh Tengah, Kabupaten Barito Utara",KALIMANTAN TENGAH,73814.0,Indonesia,81396801512.0,,,-0.9594759,114.9039055,https://maps.google.com/?cid=0x0:0x65c1e948c7c4225d,
toko bangunan,Toko Bahan Bangunan,Toko Cahaya,"Jln mandiri depan langgar mujahidin, RT.03/RW.no 33, Jingah, Kec. Teweh Baru, Kabupaten Barito Utara, Kalimantan Tengah 73814","RT.03/RW.no 33, Jingah, Kec. Teweh Baru, Kabupaten Barito Utara",KALIMANTAN TENGAH,73814.0,Indonesia,81779308405.0,,,-0.9648581,114.902013,https://maps.google.com/?cid=0x0:0x790ba234d1eacd1d,
toko bangunan,Toko Bahan Bangunan,Antang Cahaya Baru. PT,"3VCW+XFP, Desa Murung Keramat, Selat Muara Teweh, Melayu, Kec. Teweh Tengah, Kapuas, Kalimantan Tengah 73814","Desa Murung Keramat, Selat Muara Teweh, Melayu, Kec. Teweh Tengah, Kapuas",KALIMANTAN TENGAH,73814.0,Indonesia,51322742.0,,,-0.927532,114.896207,https://maps.google.com/?cid=0x0:0x2644bf314caaca59,
toko bangunan,toko bangunan,Jual alat kayu bangunan dan jasa angkut,"Jln blanti No.rt 2a, Jambu, Kec. Lahei, Kabupaten Barito Utara, Kalimantan Tengah 73813","Jambu, Kec. Lahei, Kabupaten Barito Utara",KALIMANTAN TENGAH,73813.0,Indonesia,,,,-0.8852318,115.0161809,https://maps.google.com/?cid=0x0:0x6c71bb47b918d85a,
toko bangunan,toko bangunan,Kalimantan Tengah 73814,"Kabupaten Barito Utara, Kalimantan Tengah","Kabupaten Barito Utara, Kalimantan Tengah",KALIMANTAN TENGAH,,Indonesia,,,,-0.8914468,114.8092691,https://maps.google.com/?cid=0x0:0xb5548f39346751af,
toko bangunan,Toko Perlengkapan Rumah,TOKO BANGUN TANI,"Jl. Brigjen Katamso, Melayu, Kec. Teweh Tengah, Kabupaten Barito Utara, Kalimantan Tengah 73814","Melayu, Kec. Teweh Tengah, Kabupaten Barito Utara",KALIMANTAN TENGAH,73814.0,Indonesia,81351152210.0,,,-0.9427266,114.9047556,https://maps.google.com/?cid=0x0:0x8c679f1aad05b54d,
toko bangunan,Toko Bahan Bangunan,Toko Bangunan Tiga Berlian,"Jl. Yetro Sinseng No.21, Lanjas, Kec. Teweh Tengah, Kabupaten Barito Utara, Kalimantan Tengah 73814","Lanjas, Kec. Teweh Tengah, Kabupaten Barito Utara",KALIMANTAN TENGAH,73814.0,Indonesia,81367805201.0,,,-0.9617625,114.8931326,https://maps.google.com/?cid=0x0:0x642a4ce342ec99fc,
toko bangunan,Toko Bahan Bangunan,Tkb. KARYA BARU,"2VXX+XJ6, Jl. Ahmad Yani, Lanjas, Kec. Teweh Tengah, Kabupaten Barito Utara, Kalimantan Tengah 73814","Jl. Ahmad Yani, Lanjas, Kec. Teweh Tengah, Kabupaten Barito Utara",KALIMANTAN TENGAH,73814.0,Indonesia,85169981293.0,,,-0.9500805,114.8990197,https://maps.google.com/?cid=0x0:0x5b8f1da2033f51a0,
toko bangunan,Toko Perlengkapan Rumah,Toko bangunan,"3V7Q+8H5, Lanjas, Kec. Teweh Tengah, Kabupaten Barito Utara, Kalimantan Tengah 73814","Lanjas, Kec. Teweh Tengah, Kabupaten Barito Utara",KALIMANTAN TENGAH,73814.0,Indonesia,85179569934.0,,,-0.9367264,114.8889851,https://maps.google.com/?cid=0x0:0x6b9888aba8261bcd,
toko bangunan,Toko Perlengkapan Rumah,Toko MAJU,"2VPP+PVX, Lanjas, Kec. Teweh Tengah, Kabupaten Barito Utara, Kalimantan Tengah 73814","Lanjas, Kec. Teweh Tengah, Kabupaten Barito Utara",KALIMANTAN TENGAH,73814.0,Indonesia,87773968995.0,,,-0.9631483,114.8872391,https://maps.google.com/?cid=0x0:0x92b3b89aa2c4427a,
toko bangunan,Toko Bahan Bangunan,Toko Bangunan C.V. Citra Barito,"2VMJ+7M9, Jalan Negara, Kandui, Kec. Teweh Tengah, Kabupaten Barito Utara, Kalimantan Tengah 73814","Jalan Negara, Kandui, Kec. Teweh Tengah, Kabupaten Barito Utara",KALIMANTAN TENGAH,73814.0,Indonesia,83899586603.0,,,-0.9668375,114.8817444,https://maps.google.com/?cid=0x0:0xf185322732339ff6,
toko bangunan,Toko Perlengkapan Rumah,Toko Agus Riyadi 3,"Melayu, Kec. Teweh Tengah, Kabupaten Barito Utara, Kalimantan Tengah 73814","Kec. Teweh Tengah, Kabupaten Barito Utara",KALIMANTAN TENGAH,73814.0,Indonesia,81396801512.0,,,-0.9594759,114.9039055,https://maps.google.com/?cid=0x0:0x65c1e948c7c4225d,
toko bangunan,Toko Bahan Bangunan,Antang Cahaya Baru. PT,"3VCW+XFP, Desa Murung Keramat, Selat Muara Teweh, Melayu, Kec. Teweh Tengah, Kapuas, Kalimantan Tengah 73814","Desa Murung Keramat, Selat Muara Teweh, Melayu, Kec. Teweh Tengah, Kapuas",KALIMANTAN TENGAH,73814.0,Indonesia,51322742.0,,,-0.927532,114.896207,https://maps.google.com/?cid=0x0:0x2644bf314caaca59,
toko bangunan,Toko Bahan Bangunan,Galangan kayu bangunan putra tunggal,"2WV7+3QC, Jambu kec, Jambu, Kec. Teweh Baru, Kabupaten Barito Utara, Kalimantan Tengah 73814","Jambu kec, Jambu, Kec. Teweh Baru, Kabupaten Barito Utara",KALIMANTAN TENGAH,73814.0,Indonesia,,,,-0.957309,114.9143996,https://maps.google.com/?cid=0x0:0xf12e37ff72b6cc11,
toko bangunan,Toko Bahan Bangunan,Toko Bangunan Jaya Septia,"X233+5GR, Jl. Lintas Kalimantan Poros Tengah, Hajak, Kec. Teweh Tengah, Kabupaten Barito Utara, Kalimantan Tengah 73814","Jl. Lintas Kalimantan Poros Tengah, Hajak, Kec. Teweh Tengah, Kabupaten Barito Utara",KALIMANTAN TENGAH,73814.0,Indonesia,81385661699.0,,,-1.0470001,115.0037749,https://maps.google.com/?cid=0x0:0xd05c362f1aeac48a,
toko bangunan,Toko Bahan Bangunan,Toko Cahaya,"Jln mandiri depan langgar mujahidin, RT.03/RW.no 33, Jingah, Kec. Teweh Baru, Kabupaten Barito Utara, Kalimantan Tengah 73814","RT.03/RW.no 33, Jingah, Kec. Teweh Baru, Kabupaten Barito Utara",KALIMANTAN TENGAH,73814.0,Indonesia,81779308405.0,,,-0.9648581,114.902013,https://maps.google.com/?cid=0x0:0x790ba234d1eacd1d,
toko bangunan,Toko Bahan Bangunan,TB Papadaan Jaya,"2VGG+VFH, Jalan, Jingah, Central Teweh, North Barito Regency, Central Kalimantan 73814","Jalan, Jingah, Central Teweh, North Barito Regency",KALIMANTAN TENGAH,73814.0,Indonesia,,,,-0.9728116,114.876245,https://maps.google.com/?cid=0x0:0x3f76add91ca0a5,
toko bangunan,Toko Bahan Bangunan,UD. KARYA BARITO,"2VMP+WVW, Jl. Akasia, Lanjas, Kec. Teweh Tengah, Kabupaten Barito Utara, Kalimantan Tengah 73814","Jl. Akasia, Lanjas, Kec. Teweh Tengah, Kabupaten Barito Utara",KALIMANTAN TENGAH,73814.0,Indonesia,81287458656.0,,,-0.9651275,114.8871999,https://maps.google.com/?cid=0x0:0x995661e1376acbe6,
toko bangunan,Gudang,Bumdes Cangkal Bausaha Desa Lemo II,"Rt.07, Lemo II, Kec. Teweh Tengah, Kabupaten Barito Utara, Kalimantan Tengah 73814","Lemo II, Kec. Teweh Tengah, Kabupaten Barito Utara",KALIMANTAN TENGAH,73814.0,Indonesia,82199131396.0,,,-1.009662,114.8282597,https://maps.google.com/?cid=0x0:0x89e35e7399f87628,
toko bangunan,Toko Bahan Bangunan,TB.BINTANG ASIA,"3V6P+HJV, Lanjas, Kec. Teweh Tengah, Kabupaten Barito Utara, Kalimantan Tengah 73814","Lanjas, Kec. Teweh Tengah, Kabupaten Barito Utara",KALIMANTAN TENGAH,73814.0,Indonesia,85169981293.0,,,-0.9385133,114.88654,https://maps.google.com/?cid=0x0:0x3b8f582623d3e262,
toko bangunan,Toko Bahan Bangunan,AIDA JAYA,"Jl. Lintas Kalimantan Poros Tengah, Sikui, Kecamatan Teweh Tengah, Kabupaten Barito Utara, Kalimantan Tengah 73814","Sikui, Kecamatan Teweh Tengah, Kabupaten Barito Utara",KALIMANTAN TENGAH,73814.0,Indonesia,81287458656.0,,,-1.0777282,115.0854706,https://maps.google.com/?cid=0x0:0x3f232bdbec1bcbc0,
toko bangunan,Pemotongan Kayu,Hutan Domas Raya Sawmill Unit I. PT,"3VCW+XFP, Desa Gohong, Kahayan Hilir Muara Teweh, Melayu, Kec. Teweh Tengah, Kapuas, Kalimantan Tengah 73814","Desa Gohong, Kahayan Hilir Muara Teweh, Melayu, Kec. Teweh Tengah, Kapuas",KALIMANTAN TENGAH,73814.0,Indonesia,51361021.0,,,-0.927532,114.896207,https://maps.google.com/?cid=0x0:0x865bb7345d52c4f2,
toko bangunan,Toko,Tb. Hendra lesmana putra,"2WQ3+QM6, Melayu, Kec. Teweh Tengah, Kabupaten Barito Utara, Kalimantan Tengah 73814","Melayu, Kec. Teweh Tengah, Kabupaten Barito Utara",KALIMANTAN TENGAH,73814.0,Indonesia,81287458656.0,,,-0.9605832,114.9041426,https://maps.google.com/?cid=0x0:0x7bd06f6d14ef79cf,
toko bangunan,Kantor Perusahaan,Kayu Ara Jaya Raya Ltd. PT,"3VFM+GJQ, JL. Tumenggung Suropati, Lanjas, Muarateweh, Kalimantan Tengah, Kabupaten Barito Utara, Kalimantan Tengah 73814","JL. Tumenggung Suropati, Lanjas, Muarateweh, Kalimantan Tengah, Kabupaten Barito Utara",KALIMANTAN TENGAH,73814.0,Indonesia,51921691.0,,,-0.926154,114.884102,https://maps.google.com/?cid=0x0:0x5e3de69ba87e1c9d,
toko bangunan,Toko,toko RIVIO,"2WC3+FW5, Jl. Lintas Melawi, Jingah, Kec. Teweh Tengah, Kabupaten Barito Utara, Kalimantan Tengah 73814","Jl. Lintas Melawi, Jingah, Kec. Teweh Tengah, Kabupaten Barito Utara",KALIMANTAN TENGAH,73814.0,Indonesia,85248429666.0,,,-0.9788675,114.9048569,https://maps.google.com/?cid=0x0:0xf1e6b0d4cab0601e,
toko bangunan,toko bangunan,Kalimantan Tengah 73881,"Kabupaten Barito Utara, Kalimantan Tengah","Kabupaten Barito Utara, Kalimantan Tengah",KALIMANTAN TENGAH,,Indonesia,,,,-1.0257651,115.3785719,https://maps.google.com/?cid=0x0:0x8bd4f30ba12eadec,
toko bangunan,Toko Perlengkapan Rumah,TOKO BANGUN TANI,"Jl. Brigjen Katamso, Melayu, Kec. Teweh Tengah, Kabupaten Barito Utara, Kalimantan Tengah 73814","Melayu, Kec. Teweh Tengah, Kabupaten Barito Utara",KALIMANTAN TENGAH,73814.0,Indonesia,81351152210.0,,,-0.9427266,114.9047556,https://maps.google.com/?cid=0x0:0x8c679f1aad05b54d,
toko bangunan,Toko Bahan Bangunan,Toko Bangunan Tiga Berlian,"Jl. Yetro Sinseng No.21, Lanjas, Kec. Teweh Tengah, Kabupaten Barito Utara, Kalimantan Tengah 73814","Lanjas, Kec. Teweh Tengah, Kabupaten Barito Utara",KALIMANTAN TENGAH,73814.0,Indonesia,81367805201.0,,,-0.9617625,114.8931326,https://maps.google.com/?cid=0x0:0x642a4ce342ec99fc,
toko bangunan,Toko Bahan Bangunan,Toko Bangunan Jaya Septia,"X233+5GR, Jl. Lintas Kalimantan Poros Tengah, Hajak, Kec. Teweh Tengah, Kabupaten Barito Utara, Kalimantan Tengah 73814","Jl. Lintas Kalimantan Poros Tengah, Hajak, Kec. Teweh Tengah, Kabupaten Barito Utara",KALIMANTAN TENGAH,73814.0,Indonesia,81385661699.0,,,-1.0470001,115.0037749,https://maps.google.com/?cid=0x0:0xd05c362f1aeac48a,
toko bangunan,Toko Bahan Bangunan,Tkb. KARYA BARU,"2VXX+XJ6, Jl. Ahmad Yani, Lanjas, Kec. Teweh Tengah, Kabupaten Barito Utara, Kalimantan Tengah 73814","Jl. Ahmad Yani, Lanjas, Kec. Teweh Tengah, Kabupaten Barito Utara",KALIMANTAN TENGAH,73814.0,Indonesia,85169981293.0,,,-0.9500805,114.8990197,https://maps.google.com/?cid=0x0:0x5b8f1da2033f51a0,
toko bangunan,Toko Bahan Bangunan,Galangan kayu bangunan putra tunggal,"2WV7+3QC, Jambu kec, Jambu, Kec. Teweh Baru, Kabupaten Barito Utara, Kalimantan Tengah 73814","Jambu kec, Jambu, Kec. Teweh Baru, Kabupaten Barito Utara",KALIMANTAN TENGAH,73814.0,Indonesia,,,,-0.957309,114.9143996,https://maps.google.com/?cid=0x0:0xf12e37ff72b6cc11,
toko bangunan,Toko Perlengkapan Rumah,Toko MAJU,"2VPP+PVX, Lanjas, Kec. Teweh Tengah, Kabupaten Barito Utara, Kalimantan Tengah 73814","Lanjas, Kec. Teweh Tengah, Kabupaten Barito Utara",KALIMANTAN TENGAH,73814.0,Indonesia,87773968995.0,,,-0.9631483,114.8872391,https://maps.google.com/?cid=0x0:0x92b3b89aa2c4427a,
toko bangunan,Toko Bahan Bangunan,Toko Bangunan C.V. Citra Barito,"2VMJ+7M9, Jalan Negara, Kandui, Kec. Teweh Tengah, Kabupaten Barito Utara, Kalimantan Tengah 73814","Jalan Negara, Kandui, Kec. Teweh Tengah, Kabupaten Barito Utara",KALIMANTAN TENGAH,73814.0,Indonesia,83899586603.0,,,-0.9668375,114.8817444,https://maps.google.com/?cid=0x0:0xf185322732339ff6,
toko bangunan,Toko Bahan Bangunan,Toko Bangunan Swarga,"Jalan, Tamiang Layang, Dusun Timur, East Barito Regency, Central Kalimantan 73671","Tamiang Layang, Dusun Timur, East Barito Regency",KALIMANTAN TENGAH,73671.0,Indonesia,85789077202.0,,,-2.0966672,115.151779,https://maps.google.com/?cid=0x0:0x4153cd1f5a6a0a6e,
toko bangunan,Toko Bahan Bangunan,Bumi Bangunan,"Muara Teweh, Jl. Ampah No.RT 09, Ampah Kota, Kec. Dusun Tengah, Kabupaten Barito Timur, Kalimantan Tengah 73652","Jl. Ampah No.RT 09, Ampah Kota, Kec. Dusun Tengah, Kabupaten Barito Timur",KALIMANTAN TENGAH,73652.0,Indonesia,81287458656.0,,,-1.7910596,115.1503415,https://maps.google.com/?cid=0x0:0x332c6d59f1964b74,
toko bangunan,Toko,Toko HS Anugerah,"Unnamed Rd, Batu Raya I, Kec. Gn. Timang, Kabupaten Barito Utara, Kalimantan Tengah 73862","Batu Raya I, Kec. Gn. Timang, Kabupaten Barito Utara",KALIMANTAN TENGAH,73862.0,Indonesia,81352437322.0,,,-1.3524232,115.2603773,https://maps.google.com/?cid=0x0:0x7f187bcb9f16e0f4,
toko bangunan,Toko Bahan Bangunan,Antang Cahaya Baru. PT,"3VCW+XFP, Desa Murung Keramat, Selat Muara Teweh, Melayu, Kec. Teweh Tengah, Kapuas, Kalimantan Tengah 73814","Desa Murung Keramat, Selat Muara Teweh, Melayu, Kec. Teweh Tengah, Kapuas",KALIMANTAN TENGAH,73814.0,Indonesia,51322742.0,,,-0.927532,114.896207,https://maps.google.com/?cid=0x0:0x2644bf314caaca59,
toko bangunan,Toko Perlengkapan Rumah,Toko Agus Riyadi 3,"Melayu, Kec. Teweh Tengah, Kabupaten Barito Utara, Kalimantan Tengah 73814","Kec. Teweh Tengah, Kabupaten Barito Utara",KALIMANTAN TENGAH,73814.0,Indonesia,81396801512.0,,,-0.9594759,114.9039055,https://maps.google.com/?cid=0x0:0x65c1e948c7c4225d,
toko bangunan,Toko Bahan Bangunan,Toko Cahaya,"Jln mandiri depan langgar mujahidin, RT.03/RW.no 33, Jingah, Kec. Teweh Baru, Kabupaten Barito Utara, Kalimantan Tengah 73814","RT.03/RW.no 33, Jingah, Kec. Teweh Baru, Kabupaten Barito Utara",KALIMANTAN TENGAH,73814.0,Indonesia,81779308405.0,,,-0.9648581,114.902013,https://maps.google.com/?cid=0x0:0x790ba234d1eacd1d,
toko bangunan,,Toko Berkat Bangun,"P4W8+X6C, Kandui, Kec. Gn. Timang, Kabupaten Barito Utara, Kalimantan Tengah 73862","Kandui, Kec. Gn. Timang, Kabupaten Barito Utara",KALIMANTAN TENGAH,73862.0,Indonesia,8161999912.0,,,-1.2525615,115.115516,https://maps.google.com/?cid=0x0:0xab01032469b07357,
toko bangunan,Toko Bahan Bangunan,Toko Berkat Jaya,"VJ62+5V9, Jl. Lampeong, Lampeong I, Gn. Purei, Kabupaten Barito Utara, Kalimantan Tengah 73871","Jl. Lampeong, Lampeong I, Gn. Purei, Kabupaten Barito Utara",KALIMANTAN TENGAH,73871.0,Indonesia,81287458656.0,,,-1.1395871,115.6022493,https://maps.google.com/?cid=0x0:0xeadb40fe34172d23,
toko bangunan,toko bangunan,Kec. Tewen Selatan,"Kabupaten Barito Utara, Kalimantan Tengah","Kabupaten Barito Utara, Kalimantan Tengah",KALIMANTAN TENGAH,,Indonesia,,,,-1.0409446,114.8984173,https://maps.google.com/?cid=0x0:0x9c139c9a4035a708,
toko bangunan,Toko Bahan Bangunan,Toko Bangunan Tiga Berlian,"Jl. Yetro Sinseng No.21, Lanjas, Kec. Teweh Tengah, Kabupaten Barito Utara, Kalimantan Tengah 73814","Lanjas, Kec. Teweh Tengah, Kabupaten Barito Utara",KALIMANTAN TENGAH,73814.0,Indonesia,81367805201.0,,,-0.9617625,114.8931326,https://maps.google.com/?cid=0x0:0x642a4ce342ec99fc,
toko bangunan,Toko Perlengkapan Rumah,Toko MAJU,"2VPP+PVX, Lanjas, Kec. Teweh Tengah, Kabupaten Barito Utara, Kalimantan Tengah 73814","Lanjas, Kec. Teweh Tengah, Kabupaten Barito Utara",KALIMANTAN TENGAH,73814.0,Indonesia,87773968995.0,,,-0.9631483,114.8872391,https://maps.google.com/?cid=0x0:0x92b3b89aa2c4427a,
toko bangunan,Toko Bahan Bangunan,TB Papadaan Jaya,"2VGG+VFH, Jalan, Jingah, Central Teweh, North Barito Regency, Central Kalimantan 73814","Jalan, Jingah, Central Teweh, North Barito Regency",KALIMANTAN TENGAH,73814.0,Indonesia,,,,-0.9728116,114.876245,https://maps.google.com/?cid=0x0:0x3f76add91ca0a5,
toko bangunan,Toko Bahan Bangunan,TOKO BANGUNAN HILYA,"3WC2+PJ5, Jl. Lintas Kalimantan Poros Tengah, Melayu, Kec. Teweh Tengah, Kabupaten Barito Utara, Kalimantan Tengah 73814","Jl. Lintas Kalimantan Poros Tengah, Melayu, Kec. Teweh Tengah, Kabupaten Barito Utara",KALIMANTAN TENGAH,73814.0,Indonesia,85169981293.0,,,-0.9268192,114.9021961,https://maps.google.com/?cid=0x0:0xd49d828b3d9efe0,
toko bangunan,Toko Perlengkapan Rumah,TOKO BANGUN TANI,"Jl. Brigjen Katamso, Melayu, Kec. Teweh Tengah, Kabupaten Barito Utara, Kalimantan Tengah 73814","Melayu, Kec. Teweh Tengah, Kabupaten Barito Utara",KALIMANTAN TENGAH,73814.0,Indonesia,81351152210.0,,,-0.9427266,114.9047556,https://maps.google.com/?cid=0x0:0x8c679f1aad05b54d,
toko bangunan,Toko Bahan Bangunan,Toko Bangunan Jaya Septia,"X233+5GR, Jl. Lintas Kalimantan Poros Tengah, Hajak, Kec. Teweh Tengah, Kabupaten Barito Utara, Kalimantan Tengah 73814","Jl. Lintas Kalimantan Poros Tengah, Hajak, Kec. Teweh Tengah, Kabupaten Barito Utara",KALIMANTAN TENGAH,73814.0,Indonesia,81385661699.0,,,-1.0470001,115.0037749,https://maps.google.com/?cid=0x0:0xd05c362f1aeac48a,
toko bangunan,Toko Perlengkapan Rumah,Toko bangunan,"3V7Q+8H5, Lanjas, Kec. Teweh Tengah, Kabupaten Barito Utara, Kalimantan Tengah 73814","Lanjas, Kec. Teweh Tengah, Kabupaten Barito Utara",KALIMANTAN TENGAH,73814.0,Indonesia,85179569934.0,,,-0.9367264,114.8889851,https://maps.google.com/?cid=0x0:0x6b9888aba8261bcd,
toko bangunan,Toko Perlengkapan Rumah,Toko Agus Riyadi 3,"Melayu, Kec. Teweh Tengah, Kabupaten Barito Utara, Kalimantan Tengah 73814","Kec. Teweh Tengah, Kabupaten Barito Utara",KALIMANTAN TENGAH,73814.0,Indonesia,81396801512.0,,,-0.9594759,114.9039055,https://maps.google.com/?cid=0x0:0x65c1e948c7c4225d,
toko bangunan,Toko Bahan Bangunan,Toko H.Adul,"VW7X+CCC, Pandran Permai, Kec. Teweh Tengah, Kabupaten Barito Utara, Kalimantan Tengah 73861","Pandran Permai, Kec. Teweh Tengah, Kabupaten Barito Utara",KALIMANTAN TENGAH,73861.0,Indonesia,,,,-1.1364534,114.948742,https://maps.google.com/?cid=0x0:0xfa50da8d492c2399,
toko bangunan,Toko Bahan Bangunan,Toko Cahaya,"Jln mandiri depan langgar mujahidin, RT.03/RW.no 33, Jingah, Kec. Teweh Baru, Kabupaten Barito Utara, Kalimantan Tengah 73814","RT.03/RW.no 33, Jingah, Kec. Teweh Baru, Kabupaten Barito Utara",KALIMANTAN TENGAH,73814.0,Indonesia,81779308405.0,,,-0.9648581,114.902013,https://maps.google.com/?cid=0x0:0x790ba234d1eacd1d,
toko bangunan,Gudang,Bumdes Cangkal Bausaha Desa Lemo II,"Rt.07, Lemo II, Kec. Teweh Tengah, Kabupaten Barito Utara, Kalimantan Tengah 73814","Lemo II, Kec. Teweh Tengah, Kabupaten Barito Utara",KALIMANTAN TENGAH,73814.0,Indonesia,82199131396.0,,,-1.009662,114.8282597,https://maps.google.com/?cid=0x0:0x89e35e7399f87628,
toko bangunan,Toko Bahan Bangunan,Tkb. KARYA BARU,"2VXX+XJ6, Jl. Ahmad Yani, Lanjas, Kec. Teweh Tengah, Kabupaten Barito Utara, Kalimantan Tengah 73814","Jl. Ahmad Yani, Lanjas, Kec. Teweh Tengah, Kabupaten Barito Utara",KALIMANTAN TENGAH,73814.0,Indonesia,85169981293.0,,,-0.9500805,114.8990197,https://maps.google.com/?cid=0x0:0x5b8f1da2033f51a0,
toko bangunan,Toko Bahan Bangunan,UD. KARYA BARITO,"2VMP+WVW, Jl. Akasia, Lanjas, Kec. Teweh Tengah, Kabupaten Barito Utara, Kalimantan Tengah 73814","Jl. Akasia, Lanjas, Kec. Teweh Tengah, Kabupaten Barito Utara",KALIMANTAN TENGAH,73814.0,Indonesia,81287458656.0,,,-0.9651275,114.8871999,https://maps.google.com/?cid=0x0:0x995661e1376acbe6,
toko bangunan,Toko Bahan Bangunan,Galangan kayu bangunan putra tunggal,"2WV7+3QC, Jambu kec, Jambu, Kec. Teweh Baru, Kabupaten Barito Utara, Kalimantan Tengah 73814","Jambu kec, Jambu, Kec. Teweh Baru, Kabupaten Barito Utara",KALIMANTAN TENGAH,73814.0,Indonesia,,,,-0.957309,114.9143996,https://maps.google.com/?cid=0x0:0xf12e37ff72b6cc11,
toko bangunan,Toko,toko RIVIO,"2WC3+FW5, Jl. Lintas Melawi, Jingah, Kec. Teweh Tengah, Kabupaten Barito Utara, Kalimantan Tengah 73814","Jl. Lintas Melawi, Jingah, Kec. Teweh Tengah, Kabupaten Barito Utara",KALIMANTAN TENGAH,73814.0,Indonesia,85248429666.0,,,-0.9788675,114.9048569,https://maps.google.com/?cid=0x0:0xf1e6b0d4cab0601e,
toko bangunan,Toko,Tb. Hendra lesmana putra,"2WQ3+QM6, Melayu, Kec. Teweh Tengah, Kabupaten Barito Utara, Kalimantan Tengah 73814","Melayu, Kec. Teweh Tengah, Kabupaten Barito Utara",KALIMANTAN TENGAH,73814.0,Indonesia,81287458656.0,,,-0.9605832,114.9041426,https://maps.google.com/?cid=0x0:0x7bd06f6d14ef79cf,
toko bangunan,Toko Bahan Bangunan,TB.BINTANG ASIA,"3V6P+HJV, Lanjas, Kec. Teweh Tengah, Kabupaten Barito Utara, Kalimantan Tengah 73814","Lanjas, Kec. Teweh Tengah, Kabupaten Barito Utara",KALIMANTAN TENGAH,73814.0,Indonesia,85169981293.0,,,-0.9385133,114.88654,https://maps.google.com/?cid=0x0:0x3b8f582623d3e262,
toko bangunan,Toko Bahan Bangunan,Toko H.adol,"VXF7+XCF, Pandran Permai, Kec. Teweh Tengah, Kabupaten Barito Utara, Kalimantan Tengah 73861","Pandran Permai, Kec. Teweh Tengah, Kabupaten Barito Utara",KALIMANTAN TENGAH,73861.0,Indonesia,,,,-1.1250745,114.9635524,https://maps.google.com/?cid=0x0:0x303d453eecaaea0e,
toko bangunan,Toko Bahan Bangunan,AIDA JAYA,"Jl. Lintas Kalimantan Poros Tengah, Sikui, Kecamatan Teweh Tengah, Kabupaten Barito Utara, Kalimantan Tengah 73814","Sikui, Kecamatan Teweh Tengah, Kabupaten Barito Utara",KALIMANTAN TENGAH,73814.0,Indonesia,81287458656.0,,,-1.0777282,115.0854706,https://maps.google.com/?cid=0x0:0x3f232bdbec1bcbc0,
toko bangunan,toko bangunan,Kalimantan Tengah 73811,"Juju Baru, Kec. Lahei, Kabupaten Barito Utara, Kalimantan Tengah","Kabupaten Barito Utara, Kalimantan Tengah",KALIMANTAN TENGAH,,Indonesia,,,,-0.8295559,114.9872821,https://maps.google.com/?cid=0x0:0x483ad48a5b01a50d,
toko bangunan,Toko Bahan Bangunan,Toko Bangunan Tiga Berlian,"Jl. Yetro Sinseng No.21, Lanjas, Kec. Teweh Tengah, Kabupaten Barito Utara, Kalimantan Tengah 73814","Lanjas, Kec. Teweh Tengah, Kabupaten Barito Utara",KALIMANTAN TENGAH,73814.0,Indonesia,81367805201.0,,,-0.9617625,114.8931326,https://maps.google.com/?cid=0x0:0x642a4ce342ec99fc,
toko bangunan,Toko Perlengkapan Rumah,TOKO BANGUN TANI,"Jl. Brigjen Katamso, Melayu, Kec. Teweh Tengah, Kabupaten Barito Utara, Kalimantan Tengah 73814","Melayu, Kec. Teweh Tengah, Kabupaten Barito Utara",KALIMANTAN TENGAH,73814.0,Indonesia,81351152210.0,,,-0.9427266,114.9047556,https://maps.google.com/?cid=0x0:0x8c679f1aad05b54d,
toko bangunan,Toko Perlengkapan Rumah,Toko MAJU,"2VPP+PVX, Lanjas, Kec. Teweh Tengah, Kabupaten Barito Utara, Kalimantan Tengah 73814","Lanjas, Kec. Teweh Tengah, Kabupaten Barito Utara",KALIMANTAN TENGAH,73814.0,Indonesia,87773968995.0,,,-0.9631483,114.8872391,https://maps.google.com/?cid=0x0:0x92b3b89aa2c4427a,
toko bangunan,Toko Bahan Bangunan,Toko Bangunan C.V. Citra Barito,"2VMJ+7M9, Jalan Negara, Kandui, Kec. Teweh Tengah, Kabupaten Barito Utara, Kalimantan Tengah 73814","Jalan Negara, Kandui, Kec. Teweh Tengah, Kabupaten Barito Utara",KALIMANTAN TENGAH,73814.0,Indonesia,83899586603.0,,,-0.9668375,114.8817444,https://maps.google.com/?cid=0x0:0xf185322732339ff6,
toko bangunan,Toko Bahan Bangunan,Toko Bangunan Jaya Septia,"X233+5GR, Jl. Lintas Kalimantan Poros Tengah, Hajak, Kec. Teweh Tengah, Kabupaten Barito Utara, Kalimantan Tengah 73814","Jl. Lintas Kalimantan Poros Tengah, Hajak, Kec. Teweh Tengah, Kabupaten Barito Utara",KALIMANTAN TENGAH,73814.0,Indonesia,81385661699.0,,,-1.0470001,115.0037749,https://maps.google.com/?cid=0x0:0xd05c362f1aeac48a,
toko bangunan,Toko Perlengkapan Rumah,Toko Agus Riyadi 3,"Melayu, Kec. Teweh Tengah, Kabupaten Barito Utara, Kalimantan Tengah 73814","Kec. Teweh Tengah, Kabupaten Barito Utara",KALIMANTAN TENGAH,73814.0,Indonesia,81396801512.0,,,-0.9594759,114.9039055,https://maps.google.com/?cid=0x0:0x65c1e948c7c4225d,
toko bangunan,Toko Bahan Bangunan,Galangan kayu bangunan putra tunggal,"2WV7+3QC, Jambu kec, Jambu, Kec. Teweh Baru, Kabupaten Barito Utara, Kalimantan Tengah 73814","Jambu kec, Jambu, Kec. Teweh Baru, Kabupaten Barito Utara",KALIMANTAN TENGAH,73814.0,Indonesia,,,,-0.957309,114.9143996,https://maps.google.com/?cid=0x0:0xf12e37ff72b6cc11,
toko bangunan,toko bangunan,Kalimantan Tengah 73812,"Kabupaten Barito Utara, Kalimantan Tengah","Kabupaten Barito Utara, Kalimantan Tengah",KALIMANTAN TENGAH,,Indonesia,,,,-0.8255092,114.945754,https://maps.google.com/?cid=0x0:0xaf5eb4cc7e2c2286,
toko bangunan,Toko Bahan Bangunan,Toko Bangunan Tiga Berlian,"Jl. Yetro Sinseng No.21, Lanjas, Kec. Teweh Tengah, Kabupaten Barito Utara, Kalimantan Tengah 73814","Lanjas, Kec. Teweh Tengah, Kabupaten Barito Utara",KALIMANTAN TENGAH,73814.0,Indonesia,81367805201.0,,,-0.9617625,114.8931326,https://maps.google.com/?cid=0x0:0x642a4ce342ec99fc,
toko bangunan,Toko Perlengkapan Rumah,TOKO BANGUN TANI,"Jl. Brigjen Katamso, Melayu, Kec. Teweh Tengah, Kabupaten Barito Utara, Kalimantan Tengah 73814","Melayu, Kec. Teweh Tengah, Kabupaten Barito Utara",KALIMANTAN TENGAH,73814.0,Indonesia,81351152210.0,,,-0.9427266,114.9047556,https://maps.google.com/?cid=0x0:0x8c679f1aad05b54d,
toko bangunan,Toko Perlengkapan Rumah,Toko MAJU,"2VPP+PVX, Lanjas, Kec. Teweh Tengah, Kabupaten Barito Utara, Kalimantan Tengah 73814","Lanjas, Kec. Teweh Tengah, Kabupaten Barito Utara",KALIMANTAN TENGAH,73814.0,Indonesia,87773968995.0,,,-0.9631483,114.8872391,https://maps.google.com/?cid=0x0:0x92b3b89aa2c4427a,
toko bangunan,Toko Bahan Bangunan,Toko Bangunan C.V. Citra Barito,"2VMJ+7M9, Jalan Negara, Kandui, Kec. Teweh Tengah, Kabupaten Barito Utara, Kalimantan Tengah 73814","Jalan Negara, Kandui, Kec. Teweh Tengah, Kabupaten Barito Utara",KALIMANTAN TENGAH,73814.0,Indonesia,83899586603.0,,,-0.9668375,114.8817444,https://maps.google.com/?cid=0x0:0xf185322732339ff6,
toko bangunan,Toko Bahan Bangunan,Toko Bangunan Jaya Septia,"X233+5GR, Jl. Lintas Kalimantan Poros Tengah, Hajak, Kec. Teweh Tengah, Kabupaten Barito Utara, Kalimantan Tengah 73814","Jl. Lintas Kalimantan Poros Tengah, Hajak, Kec. Teweh Tengah, Kabupaten Barito Utara",KALIMANTAN TENGAH,73814.0,Indonesia,81385661699.0,,,-1.0470001,115.0037749,https://maps.google.com/?cid=0x0:0xd05c362f1aeac48a,
toko bangunan,Toko Perlengkapan Rumah,Toko Agus Riyadi 3,"Melayu, Kec. Teweh Tengah, Kabupaten Barito Utara, Kalimantan Tengah 73814","Kec. Teweh Tengah, Kabupaten Barito Utara",KALIMANTAN TENGAH,73814.0,Indonesia,81396801512.0,,,-0.9594759,114.9039055,https://maps.google.com/?cid=0x0:0x65c1e948c7c4225d,
toko bangunan,Toko Bahan Bangunan,Galangan kayu bangunan putra tunggal,"2WV7+3QC, Jambu kec, Jambu, Kec. Teweh Baru, Kabupaten Barito Utara, Kalimantan Tengah 73814","Jambu kec, Jambu, Kec. Teweh Baru, Kabupaten Barito Utara",KALIMANTAN TENGAH,73814.0,Indonesia,,,,-0.957309,114.9143996,https://maps.google.com/?cid=0x0:0xf12e37ff72b6cc11,
toko bangunan,Toko Bahan Bangunan,Toko Cahaya,"Jln mandiri depan langgar mujahidin, RT.03/RW.no 33, Jingah, Kec. Teweh Baru, Kabupaten Barito Utara, Kalimantan Tengah 73814","RT.03/RW.no 33, Jingah, Kec. Teweh Baru, Kabupaten Barito Utara",KALIMANTAN TENGAH,73814.0,Indonesia,81779308405.0,,,-0.9648581,114.902013,https://maps.google.com/?cid=0x0:0x790ba234d1eacd1d,
toko bangunan,toko bangunan,Kalimantan Tengah 73814,"Kabupaten Barito Utara, Kalimantan Tengah","Kabupaten Barito Utara, Kalimantan Tengah",KALIMANTAN TENGAH,,Indonesia,,,,-0.8914468,114.8092691,https://maps.google.com/?cid=0x0:0xb5548f39346751af,
toko bangunan,Toko Bahan Bangunan,TOKO BANGUNAN HILYA,"3WC2+PJ5, Jl. Lintas Kalimantan Poros Tengah, Melayu, Kec. Teweh Tengah, Kabupaten Barito Utara, Kalimantan Tengah 73814","Jl. Lintas Kalimantan Poros Tengah, Melayu, Kec. Teweh Tengah, Kabupaten Barito Utara",KALIMANTAN TENGAH,73814.0,Indonesia,85169981293.0,,,-0.9268192,114.9021961,https://maps.google.com/?cid=0x0:0xd49d828b3d9efe0,
toko bangunan,Toko Bahan Bangunan,Toko Bangunan Tiga Berlian,"Jl. Yetro Sinseng No.21, Lanjas, Kec. Teweh Tengah, Kabupaten Barito Utara, Kalimantan Tengah 73814","Lanjas, Kec. Teweh Tengah, Kabupaten Barito Utara",KALIMANTAN TENGAH,73814.0,Indonesia,81367805201.0,,,-0.9617625,114.8931326,https://maps.google.com/?cid=0x0:0x642a4ce342ec99fc,
toko bangunan,Toko Perlengkapan Rumah,Toko bangunan,"3V7Q+8H5, Lanjas, Kec. Teweh Tengah, Kabupaten Barito Utara, Kalimantan Tengah 73814","Lanjas, Kec. Teweh Tengah, Kabupaten Barito Utara",KALIMANTAN TENGAH,73814.0,Indonesia,85179569934.0,,,-0.9367264,114.8889851,https://maps.google.com/?cid=0x0:0x6b9888aba8261bcd,
toko bangunan,Toko Perlengkapan Rumah,Toko MAJU,"2VPP+PVX, Lanjas, Kec. Teweh Tengah, Kabupaten Barito Utara, Kalimantan Tengah 73814","Lanjas, Kec. Teweh Tengah, Kabupaten Barito Utara",KALIMANTAN TENGAH,73814.0,Indonesia,87773968995.0,,,-0.9631483,114.8872391,https://maps.google.com/?cid=0x0:0x92b3b89aa2c4427a,
toko bangunan,Toko Bahan Bangunan,Toko Bangunan C.V. Citra Barito,"2VMJ+7M9, Jalan Negara, Kandui, Kec. Teweh Tengah, Kabupaten Barito Utara, Kalimantan Tengah 73814","Jalan Negara, Kandui, Kec. Teweh Tengah, Kabupaten Barito Utara",KALIMANTAN TENGAH,73814.0,Indonesia,83899586603.0,,,-0.9668375,114.8817444,https://maps.google.com/?cid=0x0:0xf185322732339ff6,
toko bangunan,Toko Bahan Bangunan,Toko Bangunan Jaya Septia,"X233+5GR, Jl. Lintas Kalimantan Poros Tengah, Hajak, Kec. Teweh Tengah, Kabupaten Barito Utara, Kalimantan Tengah 73814","Jl. Lintas Kalimantan Poros Tengah, Hajak, Kec. Teweh Tengah, Kabupaten Barito Utara",KALIMANTAN TENGAH,73814.0,Indonesia,81385661699.0,,,-1.0470001,115.0037749,https://maps.google.com/?cid=0x0:0xd05c362f1aeac48a,
toko bangunan,Toko Bahan Bangunan,TB Papadaan Jaya,"2VGG+VFH, Jalan, Jingah, Central Teweh, North Barito Regency, Central Kalimantan 73814","Jalan, Jingah, Central Teweh, North Barito Regency",KALIMANTAN TENGAH,73814.0,Indonesia,,,,-0.9728116,114.876245,https://maps.google.com/?cid=0x0:0x3f76add91ca0a5,
toko bangunan,Toko Bahan Bangunan,Tkb. KARYA BARU,"2VXX+XJ6, Jl. Ahmad Yani, Lanjas, Kec. Teweh Tengah, Kabupaten Barito Utara, Kalimantan Tengah 73814","Jl. Ahmad Yani, Lanjas, Kec. Teweh Tengah, Kabupaten Barito Utara",KALIMANTAN TENGAH,73814.0,Indonesia,85169981293.0,,,-0.9500805,114.8990197,https://maps.google.com/?cid=0x0:0x5b8f1da2033f51a0,
toko bangunan,Toko Perlengkapan Rumah,Toko Agus Riyadi 3,"Melayu, Kec. Teweh Tengah, Kabupaten Barito Utara, Kalimantan Tengah 73814","Kec. Teweh Tengah, Kabupaten Barito Utara",KALIMANTAN TENGAH,73814.0,Indonesia,81396801512.0,,,-0.9594759,114.9039055,https://maps.google.com/?cid=0x0:0x65c1e948c7c4225d,
toko bangunan,Toko Bahan Bangunan,TB.BINTANG ASIA,"3V6P+HJV, Lanjas, Kec. Teweh Tengah, Kabupaten Barito Utara, Kalimantan Tengah 73814","Lanjas, Kec. Teweh Tengah, Kabupaten Barito Utara",KALIMANTAN TENGAH,73814.0,Indonesia,85169981293.0,,,-0.9385133,114.88654,https://maps.google.com/?cid=0x0:0x3b8f582623d3e262,
toko bangunan,Toko Bahan Bangunan,Galangan kayu bangunan putra tunggal,"2WV7+3QC, Jambu kec, Jambu, Kec. Teweh Baru, Kabupaten Barito Utara, Kalimantan Tengah 73814","Jambu kec, Jambu, Kec. Teweh Baru, Kabupaten Barito Utara",KALIMANTAN TENGAH,73814.0,Indonesia,,,,-0.957309,114.9143996,https://maps.google.com/?cid=0x0:0xf12e37ff72b6cc11,
toko bangunan,Gudang,Bumdes Cangkal Bausaha Desa Lemo II,"Rt.07, Lemo II, Kec. Teweh Tengah, Kabupaten Barito Utara, Kalimantan Tengah 73814","Lemo II, Kec. Teweh Tengah, Kabupaten Barito Utara",KALIMANTAN TENGAH,73814.0,Indonesia,82199131396.0,,,-1.009662,114.8282597,https://maps.google.com/?cid=0x0:0x89e35e7399f87628,
toko bangunan,Toko Bahan Bangunan,AIDA JAYA,"Jl. Lintas Kalimantan Poros Tengah, Sikui, Kecamatan Teweh Tengah, Kabupaten Barito Utara, Kalimantan Tengah 73814","Sikui, Kecamatan Teweh Tengah, Kabupaten Barito Utara",KALIMANTAN TENGAH,73814.0,Indonesia,81287458656.0,,,-1.0777282,115.0854706,https://maps.google.com/?cid=0x0:0x3f232bdbec1bcbc0,
toko bangunan,Toko Bahan Bangunan,Toko Cahaya,"Jln mandiri depan langgar mujahidin, RT.03/RW.no 33, Jingah, Kec. Teweh Baru, Kabupaten Barito Utara, Kalimantan Tengah 73814","RT.03/RW.no 33, Jingah, Kec. Teweh Baru, Kabupaten Barito Utara",KALIMANTAN TENGAH,73814.0,Indonesia,81779308405.0,,,-0.9648581,114.902013,https://maps.google.com/?cid=0x0:0x790ba234d1eacd1d,
toko bangunan,Toko Bahan Bangunan,Antang Cahaya Baru. PT,"3VCW+XFP, Desa Murung Keramat, Selat Muara Teweh, Melayu, Kec. Teweh Tengah, Kapuas, Kalimantan Tengah 73814","Desa Murung Keramat, Selat Muara Teweh, Melayu, Kec. Teweh Tengah, Kapuas",KALIMANTAN TENGAH,73814.0,Indonesia,51322742.0,,,-0.927532,114.896207,https://maps.google.com/?cid=0x0:0x2644bf314caaca59,
toko bangunan,Toko Bahan Bangunan,UD. KARYA BARITO,"2VMP+WVW, Jl. Akasia, Lanjas, Kec. Teweh Tengah, Kabupaten Barito Utara, Kalimantan Tengah 73814","Jl. Akasia, Lanjas, Kec. Teweh Tengah, Kabupaten Barito Utara",KALIMANTAN TENGAH,73814.0,Indonesia,81287458656.0,,,-0.9651275,114.8871999,https://maps.google.com/?cid=0x0:0x995661e1376acbe6,
toko bangunan,Toko Suku Cadang Mobil,Mitra Gunawan,"Melayu, Kec. Teweh Tengah, Kabupaten Barito Utara, Kalimantan Tengah 73814","Kec. Teweh Tengah, Kabupaten Barito Utara",KALIMANTAN TENGAH,73814.0,Indonesia,81318321977.0,,,-0.9475999,114.9019572,https://maps.google.com/?cid=0x0:0x75f562e45ee745d2,
toko bangunan,Kantor Perusahaan,Kayu Ara Jaya Raya Ltd. PT,"3VFM+GJQ, JL. Tumenggung Suropati, Lanjas, Muarateweh, Kalimantan Tengah, Kabupaten Barito Utara, Kalimantan Tengah 73814","JL. Tumenggung Suropati, Lanjas, Muarateweh, Kalimantan Tengah, Kabupaten Barito Utara",KALIMANTAN TENGAH,73814.0,Indonesia,51921691.0,,,-0.926154,114.884102,https://maps.google.com/?cid=0x0:0x5e3de69ba87e1c9d,
toko bangunan,toko bangunan,Kalimantan Tengah 73881,"Kabupaten Barito Utara, Kalimantan Tengah","Kabupaten Barito Utara, Kalimantan Tengah",KALIMANTAN TENGAH,,Indonesia,,,,-1.0257651,115.3785719,https://maps.google.com/?cid=0x0:0x8bd4f30ba12eadec,
toko bangunan,Toko Perlengkapan Rumah,TOKO BANGUN TANI,"Jl. Brigjen Katamso, Melayu, Kec. Teweh Tengah, Kabupaten Barito Utara, Kalimantan Tengah 73814","Melayu, Kec. Teweh Tengah, Kabupaten Barito Utara",KALIMANTAN TENGAH,73814.0,Indonesia,81351152210.0,,,-0.9427266,114.9047556,https://maps.google.com/?cid=0x0:0x8c679f1aad05b54d,
toko bangunan,Toko Bahan Bangunan,Toko Bangunan Tiga Berlian,"Jl. Yetro Sinseng No.21, Lanjas, Kec. Teweh Tengah, Kabupaten Barito Utara, Kalimantan Tengah 73814","Lanjas, Kec. Teweh Tengah, Kabupaten Barito Utara",KALIMANTAN TENGAH,73814.0,Indonesia,81367805201.0,,,-0.9617625,114.8931326,https://maps.google.com/?cid=0x0:0x642a4ce342ec99fc,
toko bangunan,Toko Bahan Bangunan,Toko Bangunan Jaya Septia,"X233+5GR, Jl. Lintas Kalimantan Poros Tengah, Hajak, Kec. Teweh Tengah, Kabupaten Barito Utara, Kalimantan Tengah 73814","Jl. Lintas Kalimantan Poros Tengah, Hajak, Kec. Teweh Tengah, Kabupaten Barito Utara",KALIMANTAN TENGAH,73814.0,Indonesia,81385661699.0,,,-1.0470001,115.0037749,https://maps.google.com/?cid=0x0:0xd05c362f1aeac48a,
toko bangunan,Toko Perlengkapan Rumah,Toko MAJU,"2VPP+PVX, Lanjas, Kec. Teweh Tengah, Kabupaten Barito Utara, Kalimantan Tengah 73814","Lanjas, Kec. Teweh Tengah, Kabupaten Barito Utara",KALIMANTAN TENGAH,73814.0,Indonesia,87773968995.0,,,-0.9631483,114.8872391,https://maps.google.com/?cid=0x0:0x92b3b89aa2c4427a,
toko bangunan,Toko Bahan Bangunan,Toko Bangunan C.V. Citra Barito,"2VMJ+7M9, Jalan Negara, Kandui, Kec. Teweh Tengah, Kabupaten Barito Utara, Kalimantan Tengah 73814","Jalan Negara, Kandui, Kec. Teweh Tengah, Kabupaten Barito Utara",KALIMANTAN TENGAH,73814.0,Indonesia,83899586603.0,,,-0.9668375,114.8817444,https://maps.google.com/?cid=0x0:0xf185322732339ff6,
toko bangunan,Toko Bahan Bangunan,Toko Bangunan Swarga,"Jalan, Tamiang Layang, Dusun Timur, East Barito Regency, Central Kalimantan 73671","Tamiang Layang, Dusun Timur, East Barito Regency",KALIMANTAN TENGAH,73671.0,Indonesia,85789077202.0,,,-2.0966672,115.151779,https://maps.google.com/?cid=0x0:0x4153cd1f5a6a0a6e,
toko bangunan,Toko Bahan Bangunan,Bumi Bangunan,"Muara Teweh, Jl. Ampah No.RT 09, Ampah Kota, Kec. Dusun Tengah, Kabupaten Barito Timur, Kalimantan Tengah 73652","Jl. Ampah No.RT 09, Ampah Kota, Kec. Dusun Tengah, Kabupaten Barito Timur",KALIMANTAN TENGAH,73652.0,Indonesia,81287458656.0,,,-1.7910596,115.1503415,https://maps.google.com/?cid=0x0:0x332c6d59f1964b74,
toko bangunan,Toko,Toko HS Anugerah,"Unnamed Rd, Batu Raya I, Kec. Gn. Timang, Kabupaten Barito Utara, Kalimantan Tengah 73862","Batu Raya I, Kec. Gn. Timang, Kabupaten Barito Utara",KALIMANTAN TENGAH,73862.0,Indonesia,81352437322.0,,,-1.3524232,115.2603773,https://maps.google.com/?cid=0x0:0x7f187bcb9f16e0f4,
toko bangunan,Toko Bahan Bangunan,Galangan kayu bangunan putra tunggal,"2WV7+3QC, Jambu kec, Jambu, Kec. Teweh Baru, Kabupaten Barito Utara, Kalimantan Tengah 73814","Jambu kec, Jambu, Kec. Teweh Baru, Kabupaten Barito Utara",KALIMANTAN TENGAH,73814.0,Indonesia,,,,-0.957309,114.9143996,https://maps.google.com/?cid=0x0:0xf12e37ff72b6cc11,
toko bangunan,Toko Perlengkapan Rumah,Toko Agus Riyadi 3,"Melayu, Kec. Teweh Tengah, Kabupaten Barito Utara, Kalimantan Tengah 73814","Kec. Teweh Tengah, Kabupaten Barito Utara",KALIMANTAN TENGAH,73814.0,Indonesia,81396801512.0,,,-0.9594759,114.9039055,https://maps.google.com/?cid=0x0:0x65c1e948c7c4225d,
toko bangunan,Toko,Toko Jaya Makmur(Imai),"P4VC+324, Kandui, Kec. Gn. Timang, Kabupaten Barito Utara, Kalimantan Tengah 73862","Kandui, Kec. Gn. Timang, Kabupaten Barito Utara",KALIMANTAN TENGAH,73862.0,Indonesia,81287458656.0,,,-1.2573535,115.1200686,https://maps.google.com/?cid=0x0:0xa5da6f5dd1166c52,
toko bangunan,Toko Bahan Bangunan,Toko Jaya Bangunan,"Jl. D.I. Panjaitan, Mentawa Baru Hilir, Kec. Mentawa Baru Ketapang, Kabupaten Kotawaringin Timur, Kalimantan Tengah 74321","Mentawa Baru Hilir, Kec. Mentawa Baru Ketapang, Kabupaten Kotawaringin Timur",KALIMANTAN TENGAH,74321.0,Indonesia,81367805201.0,,,-2.5450472,112.9602294,https://maps.google.com/?cid=0x0:0xc1d838b164554b4b,
toko bangunan,,Toko Berkat Bangun,"P4W8+X6C, Kandui, Kec. Gn. Timang, Kabupaten Barito Utara, Kalimantan Tengah 73862","Kandui, Kec. Gn. Timang, Kabupaten Barito Utara",KALIMANTAN TENGAH,73862.0,Indonesia,8161999912.0,,,-1.2525615,115.115516,https://maps.google.com/?cid=0x0:0xab01032469b07357,
hardware store,hardware store,Kalimantan Tengah 73862,Kalimantan Tengah,Kalimantan Tengah,KALIMANTAN TENGAH,,Indonesia,,,,-1.3062588,115.188916,https://maps.google.com/?cid=0x0:0x13b0d131c6a71cf5,
hardware store,,Toko Berkat Bangun,"P4W8+X6C, Kandui, Kec. Gn. Timang, Kabupaten Barito Utara, Kalimantan Tengah 73862","Kandui, Kec. Gn. Timang, Kabupaten Barito Utara",KALIMANTAN TENGAH,73862.0,Indonesia,8161999912.0,,,-1.2525615,115.115516,https://maps.google.com/?cid=0x0:0xab01032469b07357,
hardware store,Toko,Toko Jaya Makmur(Imai),"P4VC+324, Kandui, Kec. Gn. Timang, Kabupaten Barito Utara, Kalimantan Tengah 73862","Kandui, Kec. Gn. Timang, Kabupaten Barito Utara",KALIMANTAN TENGAH,73862.0,Indonesia,81287458656.0,,,-1.2573535,115.1200686,https://maps.google.com/?cid=0x0:0xa5da6f5dd1166c52,
hardware store,Toko Perlengkapan Rumah,Toko MAJU,"2VPP+PVX, Lanjas, Kec. Teweh Tengah, Kabupaten Barito Utara, Kalimantan Tengah 73814","Lanjas, Kec. Teweh Tengah, Kabupaten Barito Utara",KALIMANTAN TENGAH,73814.0,Indonesia,87773968995.0,,,-0.9631483,114.8872391,https://maps.google.com/?cid=0x0:0x92b3b89aa2c4427a,
hardware store,Toko Bahan Bangunan,Toko Cahaya,"Jln mandiri depan langgar mujahidin, RT.03/RW.no 33, Jingah, Kec. Teweh Baru, Kabupaten Barito Utara, Kalimantan Tengah 73814","RT.03/RW.no 33, Jingah, Kec. Teweh Baru, Kabupaten Barito Utara",KALIMANTAN TENGAH,73814.0,Indonesia,81779308405.0,,,-0.9648581,114.902013,https://maps.google.com/?cid=0x0:0x790ba234d1eacd1d,
hardware store,hardware store,Kalimantan Tengah 73871,"Kabupaten Barito Utara, Kalimantan Tengah","Kabupaten Barito Utara, Kalimantan Tengah",KALIMANTAN TENGAH,,Indonesia,,,,-1.197196,115.6154732,https://maps.google.com/?cid=0x0:0x6d60d15ecdbf488b,
hardware store,hardware store,Kalimantan Tengah 73852,"Kec. Lahei, Kabupaten Barito Utara, Kalimantan Tengah","Kabupaten Barito Utara, Kalimantan Tengah",KALIMANTAN TENGAH,,Indonesia,,,,-0.6129045,115.188916,https://maps.google.com/?cid=0x0:0xf279ed86a55323d0,
hardware store,Toko Perlengkapan Rumah,TOKO BANGUN TANI,"Jl. Brigjen Katamso, Melayu, Kec. Teweh Tengah, Kabupaten Barito Utara, Kalimantan Tengah 73814","Melayu, Kec. Teweh Tengah, Kabupaten Barito Utara",KALIMANTAN TENGAH,73814.0,Indonesia,81351152210.0,,,-0.9427266,114.9047556,https://maps.google.com/?cid=0x0:0x8c679f1aad05b54d,
hardware store,Toko Perlengkapan Rumah,Toko MAJU,"2VPP+PVX, Lanjas, Kec. Teweh Tengah, Kabupaten Barito Utara, Kalimantan Tengah 73814","Lanjas, Kec. Teweh Tengah, Kabupaten Barito Utara",KALIMANTAN TENGAH,73814.0,Indonesia,87773968995.0,,,-0.9631483,114.8872391,https://maps.google.com/?cid=0x0:0x92b3b89aa2c4427a,
hardware store,Toko Elektronik,Toko bangunan dan elektronik 2 putri,"9PQP+HFH, Muara Laung I, Kec. Laung Tuhup, Kabupaten Murung Raya, Kalimantan Tengah","Kabupaten Murung Raya, Kalimantan Tengah",KALIMANTAN TENGAH,,Indonesia,83899586603.0,,,-0.6110741,114.7362284,https://maps.google.com/?cid=0x0:0x3f59fdb5c0c1eb76,
hardware store,Komplek perumahan,Muara Tuhup,"9RG5+2P5, Muara Tuhup, Kec. Laung Tuhup, Kabupaten Murung Raya, Kalimantan Tengah 73991","Muara Tuhup, Kec. Laung Tuhup, Kabupaten Murung Raya",KALIMANTAN TENGAH,73991.0,Indonesia,,,,-0.6250325,114.8086775,https://maps.google.com/?cid=0x0:0x38d46e69ae9855ef,
hardware store,Toko Perlengkapan Rumah,MR.DIY,"Jl. Jend. Sudirman No.21, Kelurahan Beriwit, Kec. Murung, Kabupaten Murung Raya, Kalimantan Tengah 73911","Kelurahan Beriwit, Kec. Murung, Kabupaten Murung Raya",KALIMANTAN TENGAH,73911.0,Indonesia,,,,-0.6542349,114.5816198,https://maps.google.com/?cid=0x0:0xc61e3b997cb6039b,
hardware store,Toko Bahan Bangunan,Toko Bangunan dan Material,"Jl. Veteran rt 09 kelurahan muara laung 1 kecamatan laung tuhup Muara Laung 1, Kalimantan Tengah 73992","Kabupaten Murung Raya, Kalimantan Tengah",KALIMANTAN TENGAH,,Indonesia,81352554971.0,,,-0.5969586,114.7294917,https://maps.google.com/?cid=0x0:0xa690a33d5f93a021,
hardware store,Toko Bahan Bangunan,Toko Bangun Tehnik,"9HMF+29F, Jl. Merdeka, Beriwit, Kec. Murung, Kabupaten Murung Raya, Kalimantan Tengah 73911","Jl. Merdeka, Beriwit, Kec. Murung, Kabupaten Murung Raya",KALIMANTAN TENGAH,73911.0,Indonesia,87761141363.0,,,-0.6174301,114.5734251,https://maps.google.com/?cid=0x0:0xfbbb1cbef1f2ec8c,
hardware store,Toko Elektronik,Ihya Karya Mandiri | Nippon Paint,"Jalan Veteran, RT.10/RW.No.153, Muara Laung I, Kec. Laung Tuhup, Kabupaten Murung Raya, Kalimantan Tengah 73991","RT.10/RW.No.153, Muara Laung I, Kec. Laung Tuhup, Kabupaten Murung Raya",KALIMANTAN TENGAH,73991.0,Indonesia,82251228276.0,,,-0.5953664,114.7311324,https://maps.google.com/?cid=0x0:0xa32eb58aba57b04,
hardware store,Balai masyarakat,Desa Luwe Hulu,"6W3P+7WH, Luwe Hulu, Kec. Lahei, Kabupaten Barito Utara, Kalimantan Tengah 73852","Luwe Hulu, Kec. Lahei, Kabupaten Barito Utara",KALIMANTAN TENGAH,73852.0,Indonesia,,,,-0.7968156,114.9373746,https://maps.google.com/?cid=0x0:0x889d5c418241ea60,
hardware store,Kantor Pemerintahan Daerah,KELURAHAN LAHEI 1,"4WHQ+36X, Lahei I, Kec. Lahei, Kabupaten Barito Utara, Kalimantan Tengah 73814","Lahei I, Kec. Lahei, Kabupaten Barito Utara",KALIMANTAN TENGAH,73814.0,Indonesia,,,,-0.8722731,114.938107,https://maps.google.com/?cid=0x0:0x4f92d9b808a9fa45,
hardware store,Grosir alat,"Mesin HL Power Tools, JAKARTA","Jl. Pesing Poglar No.18, Kedaung Kali Angke, Kecamatan Cengkareng, Kota Jakarta Barat, Daerah Khusus Ibukota Jakarta 11710","Kedaung Kali Angke, Kecamatan Cengkareng, Kota Jakarta Barat",KALIMANTAN TENGAH,11710.0,Indonesia,81350007220.0,,,-6.1539883,106.7695081,https://maps.google.com/?cid=0x0:0xb8c2f7e9f0bc9d34,
hardware store,hardware store,Kec. Lahei Barat,"Kabupaten Barito Utara, Kalimantan Tengah","Kabupaten Barito Utara, Kalimantan Tengah",KALIMANTAN TENGAH,,Indonesia,,,,-0.7935062,114.9382498,https://maps.google.com/?cid=0x0:0x5adc4924308bea72,
hardware store,Toko Perlengkapan Rumah,TOKO BANGUN TANI,"Jl. Brigjen Katamso, Melayu, Kec. Teweh Tengah, Kabupaten Barito Utara, Kalimantan Tengah 73814","Melayu, Kec. Teweh Tengah, Kabupaten Barito Utara",KALIMANTAN TENGAH,73814.0,Indonesia,81351152210.0,,,-0.9427266,114.9047556,https://maps.google.com/?cid=0x0:0x8c679f1aad05b54d,
hardware store,Toko Elektronik,Toko bangunan dan elektronik 2 putri,"9PQP+HFH, Muara Laung I, Kec. Laung Tuhup, Kabupaten Murung Raya, Kalimantan Tengah","Kabupaten Murung Raya, Kalimantan Tengah",KALIMANTAN TENGAH,,Indonesia,83899586603.0,,,-0.6110741,114.7362284,https://maps.google.com/?cid=0x0:0x3f59fdb5c0c1eb76,
hardware store,Toko Bahan Bangunan,Toko Bangun Tehnik,"9HMF+29F, Jl. Merdeka, Beriwit, Kec. Murung, Kabupaten Murung Raya, Kalimantan Tengah 73911","Jl. Merdeka, Beriwit, Kec. Murung, Kabupaten Murung Raya",KALIMANTAN TENGAH,73911.0,Indonesia,87761141363.0,,,-0.6174301,114.5734251,https://maps.google.com/?cid=0x0:0xfbbb1cbef1f2ec8c,
hardware store,Toko Perlengkapan Rumah,MR.DIY,"Jl. Jend. Sudirman No.21, Kelurahan Beriwit, Kec. Murung, Kabupaten Murung Raya, Kalimantan Tengah 73911","Kelurahan Beriwit, Kec. Murung, Kabupaten Murung Raya",KALIMANTAN TENGAH,73911.0,Indonesia,,,,-0.6542349,114.5816198,https://maps.google.com/?cid=0x0:0xc61e3b997cb6039b,
hardware store,Toko Bahan Bangunan,Toko Bangunan dan Material,"Jl. Veteran rt 09 kelurahan muara laung 1 kecamatan laung tuhup Muara Laung 1, Kalimantan Tengah 73992","Kabupaten Murung Raya, Kalimantan Tengah",KALIMANTAN TENGAH,,Indonesia,81352554971.0,,,-0.5969586,114.7294917,https://maps.google.com/?cid=0x0:0xa690a33d5f93a021,
hardware store,Toko Swalayan,Toko Abah Imam,"4WGP+PVJ, Unnamed Road, Lahei I, Kec. Lahei, Kabupaten Barito Utara, Kalimantan Tengah 73814","Unnamed Road, Lahei I, Kec. Lahei, Kabupaten Barito Utara",KALIMANTAN TENGAH,73814.0,Indonesia,85280761099.0,,,-0.873153,114.9371506,https://maps.google.com/?cid=0x0:0xe1fc860f0f85629b,
hardware store,Toko Bahan Bangunan,Tb Cahaya Makmur,"Jalan Radar Auri Rt.03/09 #No. 1, Mekarsari, Kec. Cimanggis, Kota Depok, Jawa Barat 16452","Mekarsari, Kec. Cimanggis, Kota Depok",KALIMANTAN TENGAH,16452.0,Indonesia,87730937072.0,,,-6.3723323,106.8699609,https://maps.google.com/?cid=0x0:0xc5b0f2afa13dfe3a,
hardware store,Toko Perlengkapan Rumah,AZKO Depok Margonda,"Jl. Margonda No.166, RT.3/RW.8, Kemiri Muka, Kecamatan Beji, Kota Depok, Jawa Barat 16423","RT.3/RW.8, Kemiri Muka, Kecamatan Beji, Kota Depok",KALIMANTAN TENGAH,16423.0,Indonesia,89637068550.0,,,-6.3877667,106.8275003,https://maps.google.com/?cid=0x0:0x23e0d19efebeb4d9,
hardware store,Pasar,Toko Simpang Raya Montallat,"MVGW+MJP, Montallat II, Kec. Montallat, Kabupaten Barito Utara, Kalimantan Tengah 73862","Montallat II, Kec. Montallat, Kabupaten Barito Utara",KALIMANTAN TENGAH,73862.0,Indonesia,85347921344.0,,,-1.323284,114.896571,https://maps.google.com/?cid=0x0:0x9f4bb6916c3c71f0,
hardware store,Minimarket,PASAR MONTALLAT,"Montallat II, Kec. Montallat, Kabupaten Barito Utara, Kalimantan Tengah","Kabupaten Barito Utara, Kalimantan Tengah",KALIMANTAN TENGAH,,Indonesia,,,,-1.3239191,114.8974282,https://maps.google.com/?cid=0x0:0x1e936f4c99ba1265,
hardware store,hardware store,Kec. Montallat,"Kabupaten Barito Utara, Kalimantan Tengah","Kabupaten Barito Utara, Kalimantan Tengah",KALIMANTAN TENGAH,,Indonesia,,,,-1.3271553,114.8390377,https://maps.google.com/?cid=0x0:0xaee00abe123121b3,
hardware store,Toko Alat Tulis,Toko Ono,"RXR5+W6G Sp 3 Rt 3Kabupaten, Pandran Permai, Kec. Tewen Selatan, Kabupaten Barito Utara, Kalimantan Tengah 73861","Pandran Permai, Kec. Tewen Selatan, Kabupaten Barito Utara",KALIMANTAN TENGAH,73861.0,Indonesia,,,,-1.1576934,114.958092,https://maps.google.com/?cid=0x0:0x9ba027544d6043f2,
hardware store,Masjid,SD Negeri 1 - Montallat 1,"Montallat I, Kec. Montallat, Kabupaten Barito Utara, Kalimantan Tengah","Kabupaten Barito Utara, Kalimantan Tengah",KALIMANTAN TENGAH,,Indonesia,,,,-1.3453324,114.8872009,https://maps.google.com/?cid=0x0:0x57b71bda2c6986b7,
hardware store,hardware store,Kalimantan Tengah 73813,"Jambu, Kec. Teweh Baru, Kabupaten Barito Utara, Kalimantan Tengah","Kabupaten Barito Utara, Kalimantan Tengah",KALIMANTAN TENGAH,,Indonesia,,,,-0.8856163,115.0169419,https://maps.google.com/?cid=0x0:0x20b84a66bae62c5e,
hardware store,Toko Elektronik,Toko Borneo Elektronik Plus,"2WR2+76H, Jl. Tumenggung Surapati, Melayu, Kec. Teweh Tengah, Kabupaten Barito Utara, Kalimantan Tengah 73814","Jl. Tumenggung Surapati, Melayu, Kec. Teweh Tengah, Kabupaten Barito Utara",KALIMANTAN TENGAH,73814.0,Indonesia,85129527466.0,,,-0.9593128,114.900602,https://maps.google.com/?cid=0x0:0xf0649ed036421c4e,
hardware store,Tujuan Wisata,Water Front City Muara Teweh Kalimantan Tengah,"2WQ3+MQQ, Melayu, Kec. Teweh Tengah, Kabupaten Barito Utara, Kalimantan Tengah 73814","Melayu, Kec. Teweh Tengah, Kabupaten Barito Utara",KALIMANTAN TENGAH,73814.0,Indonesia,81251280888.0,,,-0.9607994,114.9044969,https://maps.google.com/?cid=0x0:0xa67419f15361deb9,
hardware store,Toko Elektronik,SHAFIRA Elektronik,"Depan Water Front City / Jembatan Pangulu Iban, Jl. Panglima Batur No.77, Melayu, Kec. Teweh Tengah, Kabupaten Barito Utara, Kalimantan Tengah 73814","Jl. Panglima Batur No.77, Melayu, Kec. Teweh Tengah, Kabupaten Barito Utara",KALIMANTAN TENGAH,73814.0,Indonesia,85789077500.0,,,-0.960497,114.9045169,https://maps.google.com/?cid=0x0:0xdc99ec6342bfbe44,
hardware store,Toko Perlengkapan Rumah,AL FATIH HOUSEWARE,"2WQ2+33R, Jl. Rambutan, Lanjas, Kec. Teweh Tengah, Kabupaten Barito Utara, Kalimantan Tengah 73814","Jl. Rambutan, Lanjas, Kec. Teweh Tengah, Kabupaten Barito Utara",KALIMANTAN TENGAH,73814.0,Indonesia,82154852923.0,,,-0.9622651,114.900149,https://maps.google.com/?cid=0x0:0x45f445b80fb53121,
hardware store,Toko Alat Listrik,Toko H.BAHRUDIN (alat listrik dan rumah walet),"3V6R+Q8W, Jl. Pendreh, Lanjas, Kec. Teweh Tengah, Kabupaten Barito Utara, Kalimantan Tengah 73814","Jl. Pendreh, Lanjas, Kec. Teweh Tengah, Kabupaten Barito Utara",KALIMANTAN TENGAH,73814.0,Indonesia,82174999886.0,,,-0.9380074,114.8908288,https://maps.google.com/?cid=0x0:0x6993036ca29b67bb,
hardware store,hardware store,Kalimantan Tengah 73814,"Kabupaten Barito Utara, Kalimantan Tengah","Kabupaten Barito Utara, Kalimantan Tengah",KALIMANTAN TENGAH,,Indonesia,,,,-0.8914468,114.8092691,https://maps.google.com/?cid=0x0:0xb5548f39346751af,
hardware store,Toko Perlengkapan Rumah,TOKO BANGUN TANI,"Jl. Brigjen Katamso, Melayu, Kec. Teweh Tengah, Kabupaten Barito Utara, Kalimantan Tengah 73814","Melayu, Kec. Teweh Tengah, Kabupaten Barito Utara",KALIMANTAN TENGAH,73814.0,Indonesia,81351152210.0,,,-0.9427266,114.9047556,https://maps.google.com/?cid=0x0:0x8c679f1aad05b54d,
hardware store,Toko Bahan Bangunan,Toko Cahaya,"Jln mandiri depan langgar mujahidin, RT.03/RW.no 33, Jingah, Kec. Teweh Baru, Kabupaten Barito Utara, Kalimantan Tengah 73814","RT.03/RW.no 33, Jingah, Kec. Teweh Baru, Kabupaten Barito Utara",KALIMANTAN TENGAH,73814.0,Indonesia,81779308405.0,,,-0.9648581,114.902013,https://maps.google.com/?cid=0x0:0x790ba234d1eacd1d,
hardware store,Toko Bahan Bangunan,TB.BINTANG ASIA,"3V6P+HJV, Lanjas, Kec. Teweh Tengah, Kabupaten Barito Utara, Kalimantan Tengah 73814","Lanjas, Kec. Teweh Tengah, Kabupaten Barito Utara",KALIMANTAN TENGAH,73814.0,Indonesia,85169981293.0,,,-0.9385133,114.88654,https://maps.google.com/?cid=0x0:0x3b8f582623d3e262,
hardware store,Toko Perlengkapan Rumah,Toko Agus Riyadi 3,"Melayu, Kec. Teweh Tengah, Kabupaten Barito Utara, Kalimantan Tengah 73814","Kec. Teweh Tengah, Kabupaten Barito Utara",KALIMANTAN TENGAH,73814.0,Indonesia,81396801512.0,,,-0.9594759,114.9039055,https://maps.google.com/?cid=0x0:0x65c1e948c7c4225d,
hardware store,Toko Bahan Bangunan,Toko Bangunan Tiga Berlian,"Jl. Yetro Sinseng No.21, Lanjas, Kec. Teweh Tengah, Kabupaten Barito Utara, Kalimantan Tengah 73814","Lanjas, Kec. Teweh Tengah, Kabupaten Barito Utara",KALIMANTAN TENGAH,73814.0,Indonesia,81367805201.0,,,-0.9617625,114.8931326,https://maps.google.com/?cid=0x0:0x642a4ce342ec99fc,
hardware store,Toko Bahan Bangunan,Toko Cahaya,"Jln mandiri depan langgar mujahidin, RT.03/RW.no 33, Jingah, Kec. Teweh Baru, Kabupaten Barito Utara, Kalimantan Tengah 73814","RT.03/RW.no 33, Jingah, Kec. Teweh Baru, Kabupaten Barito Utara",KALIMANTAN TENGAH,73814.0,Indonesia,81779308405.0,,,-0.9648581,114.902013,https://maps.google.com/?cid=0x0:0x790ba234d1eacd1d,
hardware store,Toko Perlengkapan Rumah,Toko Agus Riyadi 3,"Melayu, Kec. Teweh Tengah, Kabupaten Barito Utara, Kalimantan Tengah 73814","Kec. Teweh Tengah, Kabupaten Barito Utara",KALIMANTAN TENGAH,73814.0,Indonesia,81396801512.0,,,-0.9594759,114.9039055,https://maps.google.com/?cid=0x0:0x65c1e948c7c4225d,
hardware store,hardware store,Kec. Tewen Selatan,"Kabupaten Barito Utara, Kalimantan Tengah","Kabupaten Barito Utara, Kalimantan Tengah",KALIMANTAN TENGAH,,Indonesia,,,,-1.0409446,114.8984173,https://maps.google.com/?cid=0x0:0x9c139c9a4035a708,
hardware store,Toko Bahan Bangunan,Toko Cahaya,"Jln mandiri depan langgar mujahidin, RT.03/RW.no 33, Jingah, Kec. Teweh Baru, Kabupaten Barito Utara, Kalimantan Tengah 73814","RT.03/RW.no 33, Jingah, Kec. Teweh Baru, Kabupaten Barito Utara",KALIMANTAN TENGAH,73814.0,Indonesia,81779308405.0,,,-0.9648581,114.902013,https://maps.google.com/?cid=0x0:0x790ba234d1eacd1d,
hardware store,Toko Perlengkapan Rumah,Toko MAJU,"2VPP+PVX, Lanjas, Kec. Teweh Tengah, Kabupaten Barito Utara, Kalimantan Tengah 73814","Lanjas, Kec. Teweh Tengah, Kabupaten Barito Utara",KALIMANTAN TENGAH,73814.0,Indonesia,87773968995.0,,,-0.9631483,114.8872391,https://maps.google.com/?cid=0x0:0x92b3b89aa2c4427a,
hardware store,Toko Bahan Bangunan,TB Papadaan Jaya,"2VGG+VFH, Jalan, Jingah, Central Teweh, North Barito Regency, Central Kalimantan 73814","Jalan, Jingah, Central Teweh, North Barito Regency",KALIMANTAN TENGAH,73814.0,Indonesia,,,,-0.9728116,114.876245,https://maps.google.com/?cid=0x0:0x3f76add91ca0a5,
hardware store,Toko Bahan Bangunan,Toko Bangunan C.V. Citra Barito,"2VMJ+7M9, Jalan Negara, Kandui, Kec. Teweh Tengah, Kabupaten Barito Utara, Kalimantan Tengah 73814","Jalan Negara, Kandui, Kec. Teweh Tengah, Kabupaten Barito Utara",KALIMANTAN TENGAH,73814.0,Indonesia,83899586603.0,,,-0.9668375,114.8817444,https://maps.google.com/?cid=0x0:0xf185322732339ff6,
hardware store,Toko Bahan Bangunan,Toko Bangunan Jaya Septia,"X233+5GR, Jl. Lintas Kalimantan Poros Tengah, Hajak, Kec. Teweh Tengah, Kabupaten Barito Utara, Kalimantan Tengah 73814","Jl. Lintas Kalimantan Poros Tengah, Hajak, Kec. Teweh Tengah, Kabupaten Barito Utara",KALIMANTAN TENGAH,73814.0,Indonesia,81385661699.0,,,-1.0470001,115.0037749,https://maps.google.com/?cid=0x0:0xd05c362f1aeac48a,
hardware store,Toko Elektronik,Toko Borneo Elektronik Plus,"2WR2+76H, Jl. Tumenggung Surapati, Melayu, Kec. Teweh Tengah, Kabupaten Barito Utara, Kalimantan Tengah 73814","Jl. Tumenggung Surapati, Melayu, Kec. Teweh Tengah, Kabupaten Barito Utara",KALIMANTAN TENGAH,73814.0,Indonesia,85129527466.0,,,-0.9593128,114.900602,https://maps.google.com/?cid=0x0:0xf0649ed036421c4e,
hardware store,Toko Bahan Bangunan,TB.BINTANG ASIA,"3V6P+HJV, Lanjas, Kec. Teweh Tengah, Kabupaten Barito Utara, Kalimantan Tengah 73814","Lanjas, Kec. Teweh Tengah, Kabupaten Barito Utara",KALIMANTAN TENGAH,73814.0,Indonesia,85169981293.0,,,-0.9385133,114.88654,https://maps.google.com/?cid=0x0:0x3b8f582623d3e262,
hardware store,Toko Elektronik,SHAFIRA Elektronik,"Depan Water Front City / Jembatan Pangulu Iban, Jl. Panglima Batur No.77, Melayu, Kec. Teweh Tengah, Kabupaten Barito Utara, Kalimantan Tengah 73814","Jl. Panglima Batur No.77, Melayu, Kec. Teweh Tengah, Kabupaten Barito Utara",KALIMANTAN TENGAH,73814.0,Indonesia,85789077500.0,,,-0.960497,114.9045169,https://maps.google.com/?cid=0x0:0xdc99ec6342bfbe44,
hardware store,Toko Buku,Shopping Mania,"2WR2+9V9, Jl. Tumenggung Surapati, Melayu, Kec. Teweh Tengah, Kabupaten Barito Utara, Kalimantan Tengah 73814","Jl. Tumenggung Surapati, Melayu, Kec. Teweh Tengah, Kabupaten Barito Utara",KALIMANTAN TENGAH,73814.0,Indonesia,,,,-0.9590816,114.902233,https://maps.google.com/?cid=0x0:0x37d9ed0786322347,
hardware store,Toko Alat Listrik,Toko H.BAHRUDIN (alat listrik dan rumah walet),"3V6R+Q8W, Jl. Pendreh, Lanjas, Kec. Teweh Tengah, Kabupaten Barito Utara, Kalimantan Tengah 73814","Jl. Pendreh, Lanjas, Kec. Teweh Tengah, Kabupaten Barito Utara",KALIMANTAN TENGAH,73814.0,Indonesia,82174999886.0,,,-0.9380074,114.8908288,https://maps.google.com/?cid=0x0:0x6993036ca29b67bb,
hardware store,Toko Suku Cadang Mobil,Mitra Gunawan,"Melayu, Kec. Teweh Tengah, Kabupaten Barito Utara, Kalimantan Tengah 73814","Kec. Teweh Tengah, Kabupaten Barito Utara",KALIMANTAN TENGAH,73814.0,Indonesia,81318321977.0,,,-0.9475999,114.9019572,https://maps.google.com/?cid=0x0:0x75f562e45ee745d2,
hardware store,Toko,Tb. Hendra lesmana putra,"2WQ3+QM6, Melayu, Kec. Teweh Tengah, Kabupaten Barito Utara, Kalimantan Tengah 73814","Melayu, Kec. Teweh Tengah, Kabupaten Barito Utara",KALIMANTAN TENGAH,73814.0,Indonesia,81287458656.0,,,-0.9605832,114.9041426,https://maps.google.com/?cid=0x0:0x7bd06f6d14ef79cf,
hardware store,hardware store,Kalimantan Tengah 73811,"Juju Baru, Kec. Lahei, Kabupaten Barito Utara, Kalimantan Tengah","Kabupaten Barito Utara, Kalimantan Tengah",KALIMANTAN TENGAH,,Indonesia,,,,-0.8295559,114.9872821,https://maps.google.com/?cid=0x0:0x483ad48a5b01a50d,
hardware store,Toko Perlengkapan Rumah,Toko Agus Riyadi 3,"Melayu, Kec. Teweh Tengah, Kabupaten Barito Utara, Kalimantan Tengah 73814","Kec. Teweh Tengah, Kabupaten Barito Utara",KALIMANTAN TENGAH,73814.0,Indonesia,81396801512.0,,,-0.9594759,114.9039055,https://maps.google.com/?cid=0x0:0x65c1e948c7c4225d,
hardware store,Toko Perlengkapan Rumah,AL FATIH HOUSEWARE,"2WQ2+33R, Jl. Rambutan, Lanjas, Kec. Teweh Tengah, Kabupaten Barito Utara, Kalimantan Tengah 73814","Jl. Rambutan, Lanjas, Kec. Teweh Tengah, Kabupaten Barito Utara",KALIMANTAN TENGAH,73814.0,Indonesia,82154852923.0,,,-0.9622651,114.900149,https://maps.google.com/?cid=0x0:0x45f445b80fb53121,
hardware store,Toko Elektronik,Toko Borneo Elektronik Plus,"2WR2+76H, Jl. Tumenggung Surapati, Melayu, Kec. Teweh Tengah, Kabupaten Barito Utara, Kalimantan Tengah 73814","Jl. Tumenggung Surapati, Melayu, Kec. Teweh Tengah, Kabupaten Barito Utara",KALIMANTAN TENGAH,73814.0,Indonesia,85129527466.0,,,-0.9593128,114.900602,https://maps.google.com/?cid=0x0:0xf0649ed036421c4e,
hardware store,hardware store,Kec. Teweh Tengah,"Kabupaten Barito Utara, Kalimantan Tengah","Kabupaten Barito Utara, Kalimantan Tengah",KALIMANTAN TENGAH,,Indonesia,,,,-1.0321219,114.6192899,https://maps.google.com/?cid=0x0:0x43e48575a2769922,
hardware store,Toko Perlengkapan Rumah,TOKO BANGUN TANI,"Jl. Brigjen Katamso, Melayu, Kec. Teweh Tengah, Kabupaten Barito Utara, Kalimantan Tengah 73814","Melayu, Kec. Teweh Tengah, Kabupaten Barito Utara",KALIMANTAN TENGAH,73814.0,Indonesia,81351152210.0,,,-0.9427266,114.9047556,https://maps.google.com/?cid=0x0:0x8c679f1aad05b54d,
hardware store,Toko Bahan Bangunan,Toko Cahaya,"Jln mandiri depan langgar mujahidin, RT.03/RW.no 33, Jingah, Kec. Teweh Baru, Kabupaten Barito Utara, Kalimantan Tengah 73814","RT.03/RW.no 33, Jingah, Kec. Teweh Baru, Kabupaten Barito Utara",KALIMANTAN TENGAH,73814.0,Indonesia,81779308405.0,,,-0.9648581,114.902013,https://maps.google.com/?cid=0x0:0x790ba234d1eacd1d,
hardware store,Toko Perlengkapan Rumah,Toko MAJU,"2VPP+PVX, Lanjas, Kec. Teweh Tengah, Kabupaten Barito Utara, Kalimantan Tengah 73814","Lanjas, Kec. Teweh Tengah, Kabupaten Barito Utara",KALIMANTAN TENGAH,73814.0,Indonesia,87773968995.0,,,-0.9631483,114.8872391,https://maps.google.com/?cid=0x0:0x92b3b89aa2c4427a,
hardware store,Toko Bahan Bangunan,TB.BINTANG ASIA,"3V6P+HJV, Lanjas, Kec. Teweh Tengah, Kabupaten Barito Utara, Kalimantan Tengah 73814","Lanjas, Kec. Teweh Tengah, Kabupaten Barito Utara",KALIMANTAN TENGAH,73814.0,Indonesia,85169981293.0,,,-0.9385133,114.88654,https://maps.google.com/?cid=0x0:0x3b8f582623d3e262,
hardware store,Toko Bahan Bangunan,TB Papadaan Jaya,"2VGG+VFH, Jalan, Jingah, Central Teweh, North Barito Regency, Central Kalimantan 73814","Jalan, Jingah, Central Teweh, North Barito Regency",KALIMANTAN TENGAH,73814.0,Indonesia,,,,-0.9728116,114.876245,https://maps.google.com/?cid=0x0:0x3f76add91ca0a5,
hardware store,Toko Suku Cadang Mobil,Mitra Gunawan,"Melayu, Kec. Teweh Tengah, Kabupaten Barito Utara, Kalimantan Tengah 73814","Kec. Teweh Tengah, Kabupaten Barito Utara",KALIMANTAN TENGAH,73814.0,Indonesia,81318321977.0,,,-0.9475999,114.9019572,https://maps.google.com/?cid=0x0:0x75f562e45ee745d2,
hardware store,Toko Buku,Shopping Mania,"2WR2+9V9, Jl. Tumenggung Surapati, Melayu, Kec. Teweh Tengah, Kabupaten Barito Utara, Kalimantan Tengah 73814","Jl. Tumenggung Surapati, Melayu, Kec. Teweh Tengah, Kabupaten Barito Utara",KALIMANTAN TENGAH,73814.0,Indonesia,,,,-0.9590816,114.902233,https://maps.google.com/?cid=0x0:0x37d9ed0786322347,
hardware store,Toko Alat Tulis,Kios Adhe Fotocopy  Atk,"Jl.Durian RT.12 B Teweh tengah, Barito Utara, Kalimantan Tengah, 73811",Barito Utara,KALIMANTAN TENGAH,73811.0,Indonesia,,,,-0.9597558,114.8998726,https://maps.google.com/?cid=0x0:0xe286593c21bdc2ee,
hardware store,Toko Alat Tulis Kantor,Toko Virgo atk dan copy,"Jl. Ahmad Yani No.167, Lanjas, Kec. Teweh Tengah, Kabupaten Barito Utara, Kalimantan Tengah 73814","Lanjas, Kec. Teweh Tengah, Kabupaten Barito Utara",KALIMANTAN TENGAH,73814.0,Indonesia,,,,-0.9603059,114.8978459,https://maps.google.com/?cid=0x0:0x1d016331474829d3,
hardware store,Toko Elektronik,Toko GABE ELEKTRONIK,"2WQ3+XGH, Melayu, Kec. Teweh Tengah, Kabupaten Barito Utara, Kalimantan Tengah 73814","Melayu, Kec. Teweh Tengah, Kabupaten Barito Utara",KALIMANTAN TENGAH,73814.0,Indonesia,,,,-0.9600518,114.9038575,https://maps.google.com/?cid=0x0:0x816f8fdd6a6d0096,
hardware store,Pasar,Pasar ipu muara Teweh,"Jl. Mangkusari, Lanjas, Kec. Teweh Tengah, Kabupaten Barito Utara, Kalimantan Tengah 73811","Lanjas, Kec. Teweh Tengah, Kabupaten Barito Utara",KALIMANTAN TENGAH,73811.0,Indonesia,,,,-0.9621223,114.8999676,https://maps.google.com/?cid=0x0:0xb7ecb2816a187c37,
hardware store,Toko Elektronik,ABRAR Elektronik,"2WQ3+V8G, Melayu, Kec. Teweh Tengah, Kabupaten Barito Utara, Kalimantan Tengah 73814","Melayu, Kec. Teweh Tengah, Kabupaten Barito Utara",KALIMANTAN TENGAH,73814.0,Indonesia,82279901092.0,,,-0.960311,114.9033337,https://maps.google.com/?cid=0x0:0xe348fa3e86c24aa0,
hardware store,Toko,Tb. Hendra lesmana putra,"2WQ3+QM6, Melayu, Kec. Teweh Tengah, Kabupaten Barito Utara, Kalimantan Tengah 73814","Melayu, Kec. Teweh Tengah, Kabupaten Barito Utara",KALIMANTAN TENGAH,73814.0,Indonesia,81287458656.0,,,-0.9605832,114.9041426,https://maps.google.com/?cid=0x0:0x7bd06f6d14ef79cf,
hardware store,hardware store,Kalimantan Tengah 73812,"Kabupaten Barito Utara, Kalimantan Tengah","Kabupaten Barito Utara, Kalimantan Tengah",KALIMANTAN TENGAH,,Indonesia,,,,-0.8255092,114.945754,https://maps.google.com/?cid=0x0:0xaf5eb4cc7e2c2286,
hardware store,Toko Perlengkapan Rumah,Toko bangunan,"3V7Q+8H5, Lanjas, Kec. Teweh Tengah, Kabupaten Barito Utara, Kalimantan Tengah 73814","Lanjas, Kec. Teweh Tengah, Kabupaten Barito Utara",KALIMANTAN TENGAH,73814.0,Indonesia,85179569934.0,,,-0.9367264,114.8889851,https://maps.google.com/?cid=0x0:0x6b9888aba8261bcd,
hardware store,Toko Perlengkapan Rumah,Toko Agus Riyadi 3,"Melayu, Kec. Teweh Tengah, Kabupaten Barito Utara, Kalimantan Tengah 73814","Kec. Teweh Tengah, Kabupaten Barito Utara",KALIMANTAN TENGAH,73814.0,Indonesia,81396801512.0,,,-0.9594759,114.9039055,https://maps.google.com/?cid=0x0:0x65c1e948c7c4225d,
hardware store,Toko Komputer,N23 HOME SHOPPING,"Jln Negara KM. 7 Komplek Salsabila 2, Kalimantan Tengah 73811","Kabupaten Barito Utara, Kalimantan Tengah",KALIMANTAN TENGAH,,Indonesia,81255424307.0,,,-0.9795383,114.8889695,https://maps.google.com/?cid=0x0:0x1eb1c6d7dbd0655a,
hardware store,Toko Elektronik,SHAFIRA Elektronik,"Depan Water Front City / Jembatan Pangulu Iban, Jl. Panglima Batur No.77, Melayu, Kec. Teweh Tengah, Kabupaten Barito Utara, Kalimantan Tengah 73814","Jl. Panglima Batur No.77, Melayu, Kec. Teweh Tengah, Kabupaten Barito Utara",KALIMANTAN TENGAH,73814.0,Indonesia,85789077500.0,,,-0.960497,114.9045169,https://maps.google.com/?cid=0x0:0xdc99ec6342bfbe44,
hardware store,Toko Elektronik,Toko Borneo Elektronik Plus,"2WR2+76H, Jl. Tumenggung Surapati, Melayu, Kec. Teweh Tengah, Kabupaten Barito Utara, Kalimantan Tengah 73814","Jl. Tumenggung Surapati, Melayu, Kec. Teweh Tengah, Kabupaten Barito Utara",KALIMANTAN TENGAH,73814.0,Indonesia,85129527466.0,,,-0.9593128,114.900602,https://maps.google.com/?cid=0x0:0xf0649ed036421c4e,
hardware store,hardware store,Kec. Teweh Tengah,"Kabupaten Barito Utara, Kalimantan Tengah","Kabupaten Barito Utara, Kalimantan Tengah",KALIMANTAN TENGAH,,Indonesia,,,,-1.0321219,114.6192899,https://maps.google.com/?cid=0x0:0x43e48575a2769922,
hardware store,Toko Perlengkapan Rumah,TOKO BANGUN TANI,"Jl. Brigjen Katamso, Melayu, Kec. Teweh Tengah, Kabupaten Barito Utara, Kalimantan Tengah 73814","Melayu, Kec. Teweh Tengah, Kabupaten Barito Utara",KALIMANTAN TENGAH,73814.0,Indonesia,81351152210.0,,,-0.9427266,114.9047556,https://maps.google.com/?cid=0x0:0x8c679f1aad05b54d,
hardware store,Toko Bahan Bangunan,Toko Cahaya,"Jln mandiri depan langgar mujahidin, RT.03/RW.no 33, Jingah, Kec. Teweh Baru, Kabupaten Barito Utara, Kalimantan Tengah 73814","RT.03/RW.no 33, Jingah, Kec. Teweh Baru, Kabupaten Barito Utara",KALIMANTAN TENGAH,73814.0,Indonesia,81779308405.0,,,-0.9648581,114.902013,https://maps.google.com/?cid=0x0:0x790ba234d1eacd1d,
hardware store,Toko Perlengkapan Rumah,Toko MAJU,"2VPP+PVX, Lanjas, Kec. Teweh Tengah, Kabupaten Barito Utara, Kalimantan Tengah 73814","Lanjas, Kec. Teweh Tengah, Kabupaten Barito Utara",KALIMANTAN TENGAH,73814.0,Indonesia,87773968995.0,,,-0.9631483,114.8872391,https://maps.google.com/?cid=0x0:0x92b3b89aa2c4427a,
hardware store,Toko Bahan Bangunan,TB.BINTANG ASIA,"3V6P+HJV, Lanjas, Kec. Teweh Tengah, Kabupaten Barito Utara, Kalimantan Tengah 73814","Lanjas, Kec. Teweh Tengah, Kabupaten Barito Utara",KALIMANTAN TENGAH,73814.0,Indonesia,85169981293.0,,,-0.9385133,114.88654,https://maps.google.com/?cid=0x0:0x3b8f582623d3e262,
hardware store,Toko Bahan Bangunan,TB Papadaan Jaya,"2VGG+VFH, Jalan, Jingah, Central Teweh, North Barito Regency, Central Kalimantan 73814","Jalan, Jingah, Central Teweh, North Barito Regency",KALIMANTAN TENGAH,73814.0,Indonesia,,,,-0.9728116,114.876245,https://maps.google.com/?cid=0x0:0x3f76add91ca0a5,
hardware store,Toko Suku Cadang Mobil,Mitra Gunawan,"Melayu, Kec. Teweh Tengah, Kabupaten Barito Utara, Kalimantan Tengah 73814","Kec. Teweh Tengah, Kabupaten Barito Utara",KALIMANTAN TENGAH,73814.0,Indonesia,81318321977.0,,,-0.9475999,114.9019572,https://maps.google.com/?cid=0x0:0x75f562e45ee745d2,
hardware store,Toko Buku,Shopping Mania,"2WR2+9V9, Jl. Tumenggung Surapati, Melayu, Kec. Teweh Tengah, Kabupaten Barito Utara, Kalimantan Tengah 73814","Jl. Tumenggung Surapati, Melayu, Kec. Teweh Tengah, Kabupaten Barito Utara",KALIMANTAN TENGAH,73814.0,Indonesia,,,,-0.9590816,114.902233,https://maps.google.com/?cid=0x0:0x37d9ed0786322347,
hardware store,Toko Alat Tulis,Kios Adhe Fotocopy  Atk,"Jl.Durian RT.12 B Teweh tengah, Barito Utara, Kalimantan Tengah, 73811",Barito Utara,KALIMANTAN TENGAH,73811.0,Indonesia,,,,-0.9597558,114.8998726,https://maps.google.com/?cid=0x0:0xe286593c21bdc2ee,
hardware store,Toko Alat Tulis Kantor,Toko Virgo atk dan copy,"Jl. Ahmad Yani No.167, Lanjas, Kec. Teweh Tengah, Kabupaten Barito Utara, Kalimantan Tengah 73814","Lanjas, Kec. Teweh Tengah, Kabupaten Barito Utara",KALIMANTAN TENGAH,73814.0,Indonesia,,,,-0.9603059,114.8978459,https://maps.google.com/?cid=0x0:0x1d016331474829d3,
hardware store,Toko Elektronik,Toko GABE ELEKTRONIK,"2WQ3+XGH, Melayu, Kec. Teweh Tengah, Kabupaten Barito Utara, Kalimantan Tengah 73814","Melayu, Kec. Teweh Tengah, Kabupaten Barito Utara",KALIMANTAN TENGAH,73814.0,Indonesia,,,,-0.9600518,114.9038575,https://maps.google.com/?cid=0x0:0x816f8fdd6a6d0096,
hardware store,Toko,Tb. Hendra lesmana putra,"2WQ3+QM6, Melayu, Kec. Teweh Tengah, Kabupaten Barito Utara, Kalimantan Tengah 73814","Melayu, Kec. Teweh Tengah, Kabupaten Barito Utara",KALIMANTAN TENGAH,73814.0,Indonesia,81287458656.0,,,-0.9605832,114.9041426,https://maps.google.com/?cid=0x0:0x7bd06f6d14ef79cf,
hardware store,Toko Elektronik,ABRAR Elektronik,"2WQ3+V8G, Melayu, Kec. Teweh Tengah, Kabupaten Barito Utara, Kalimantan Tengah 73814","Melayu, Kec. Teweh Tengah, Kabupaten Barito Utara",KALIMANTAN TENGAH,73814.0,Indonesia,82279901092.0,,,-0.960311,114.9033337,https://maps.google.com/?cid=0x0:0xe348fa3e86c24aa0,
hardware store,Pasar,Pasar ipu muara Teweh,"Jl. Mangkusari, Lanjas, Kec. Teweh Tengah, Kabupaten Barito Utara, Kalimantan Tengah 73811","Lanjas, Kec. Teweh Tengah, Kabupaten Barito Utara",KALIMANTAN TENGAH,73811.0,Indonesia,,,,-0.9621223,114.8999676,https://maps.google.com/?cid=0x0:0xb7ecb2816a187c37,
hardware store,Toko Alat Tulis Kantor,Percetakan  Fotocopy Aleo,"Jl. Merpati No.46 kel, Melayu, Kec. Teweh Tengah, Kabupaten Barito Utara, Kalimantan Tengah 73814","Melayu, Kec. Teweh Tengah, Kabupaten Barito Utara",KALIMANTAN TENGAH,73814.0,Indonesia,82148178706.0,,,-0.9581819,114.8990385,https://maps.google.com/?cid=0x0:0x65b84b7874e449a9,
hardware store,Toko Sepeda,Plataran MTB,"Jl. Manggis, Lanjas, Kec. Teweh Tengah, Kabupaten Barito Utara, Kalimantan Tengah 73814","Lanjas, Kec. Teweh Tengah, Kabupaten Barito Utara",KALIMANTAN TENGAH,73814.0,Indonesia,82255921336.0,,,-0.9628158,114.8985681,https://maps.google.com/?cid=0x0:0xc8c551323a9a3a9b,
hardware store,Toko Perlengkapan Rumah,Zaeni gordyn,"3V4V+MC4, Jl. Taman Remaja, Lanjas, Kec. Teweh Tengah, Kabupaten Barito Utara, Kalimantan Tengah 73814","Jl. Taman Remaja, Lanjas, Kec. Teweh Tengah, Kabupaten Barito Utara",KALIMANTAN TENGAH,73814.0,Indonesia,,,,-0.9433671,114.8935831,https://maps.google.com/?cid=0x0:0x7f8c3a8773287165,
hardware store,,Toko Bintang Bersaudara,"Jl. Cemp. Putih No.30, Melayu, Kec. Teweh Tengah, Kabupaten Barito Utara, Kalimantan Tengah 73814","Melayu, Kec. Teweh Tengah, Kabupaten Barito Utara",KALIMANTAN TENGAH,73814.0,Indonesia,82244537456.0,,,-0.9541064,114.9072665,https://maps.google.com/?cid=0x0:0x9aeb09530f68a2aa,
hardware store,Toko Alat Tulis Kantor,King Dollars Printing,"Jl. Bangau No.181, Melayu, Kec. Teweh Tengah, Kabupaten Barito Utara, Kalimantan Tengah 73814","Melayu, Kec. Teweh Tengah, Kabupaten Barito Utara",KALIMANTAN TENGAH,73814.0,Indonesia,,,,-0.9556801,114.8994834,https://maps.google.com/?cid=0x0:0xad24db56a88f81e6,
hardware store,Toko Alat Tulis Kantor,PERCETAKAN  FOTO COPY ALEO CABANG A.YANI,"Jl. Ahmad Yani, Lanjas, Kec. Teweh Tengah, Kabupaten Barito Utara, Kalimantan Tengah 73814","Lanjas, Kec. Teweh Tengah, Kabupaten Barito Utara",KALIMANTAN TENGAH,73814.0,Indonesia,81348821876.0,,,-0.9564293,114.895963,https://maps.google.com/?cid=0x0:0x18a4b27009bfa911,
hardware store,hardware store,Kalimantan Tengah 73814,"Kabupaten Barito Utara, Kalimantan Tengah","Kabupaten Barito Utara, Kalimantan Tengah",KALIMANTAN TENGAH,,Indonesia,,,,-0.8914468,114.8092691,https://maps.google.com/?cid=0x0:0xb5548f39346751af,
hardware store,Toko Perlengkapan Rumah,TOKO BANGUN TANI,"Jl. Brigjen Katamso, Melayu, Kec. Teweh Tengah, Kabupaten Barito Utara, Kalimantan Tengah 73814","Melayu, Kec. Teweh Tengah, Kabupaten Barito Utara",KALIMANTAN TENGAH,73814.0,Indonesia,81351152210.0,,,-0.9427266,114.9047556,https://maps.google.com/?cid=0x0:0x8c679f1aad05b54d,
hardware store,Toko Bahan Bangunan,Toko Cahaya,"Jln mandiri depan langgar mujahidin, RT.03/RW.no 33, Jingah, Kec. Teweh Baru, Kabupaten Barito Utara, Kalimantan Tengah 73814","RT.03/RW.no 33, Jingah, Kec. Teweh Baru, Kabupaten Barito Utara",KALIMANTAN TENGAH,73814.0,Indonesia,81779308405.0,,,-0.9648581,114.902013,https://maps.google.com/?cid=0x0:0x790ba234d1eacd1d,
hardware store,Toko Perlengkapan Rumah,Toko Agus Riyadi 3,"Melayu, Kec. Teweh Tengah, Kabupaten Barito Utara, Kalimantan Tengah 73814","Kec. Teweh Tengah, Kabupaten Barito Utara",KALIMANTAN TENGAH,73814.0,Indonesia,81396801512.0,,,-0.9594759,114.9039055,https://maps.google.com/?cid=0x0:0x65c1e948c7c4225d,
hardware store,Toko Bahan Bangunan,TB.BINTANG ASIA,"3V6P+HJV, Lanjas, Kec. Teweh Tengah, Kabupaten Barito Utara, Kalimantan Tengah 73814","Lanjas, Kec. Teweh Tengah, Kabupaten Barito Utara",KALIMANTAN TENGAH,73814.0,Indonesia,85169981293.0,,,-0.9385133,114.88654,https://maps.google.com/?cid=0x0:0x3b8f582623d3e262,
hardware store,Toko Bahan Bangunan,TB Papadaan Jaya,"2VGG+VFH, Jalan, Jingah, Central Teweh, North Barito Regency, Central Kalimantan 73814","Jalan, Jingah, Central Teweh, North Barito Regency",KALIMANTAN TENGAH,73814.0,Indonesia,,,,-0.9728116,114.876245,https://maps.google.com/?cid=0x0:0x3f76add91ca0a5,
hardware store,Toko Perlengkapan Rumah,AL FATIH HOUSEWARE,"2WQ2+33R, Jl. Rambutan, Lanjas, Kec. Teweh Tengah, Kabupaten Barito Utara, Kalimantan Tengah 73814","Jl. Rambutan, Lanjas, Kec. Teweh Tengah, Kabupaten Barito Utara",KALIMANTAN TENGAH,73814.0,Indonesia,82154852923.0,,,-0.9622651,114.900149,https://maps.google.com/?cid=0x0:0x45f445b80fb53121,
hardware store,Toko Suku Cadang Mobil,Mitra Gunawan,"Melayu, Kec. Teweh Tengah, Kabupaten Barito Utara, Kalimantan Tengah 73814","Kec. Teweh Tengah, Kabupaten Barito Utara",KALIMANTAN TENGAH,73814.0,Indonesia,81318321977.0,,,-0.9475999,114.9019572,https://maps.google.com/?cid=0x0:0x75f562e45ee745d2,
hardware store,Toko Buku,Shopping Mania,"2WR2+9V9, Jl. Tumenggung Surapati, Melayu, Kec. Teweh Tengah, Kabupaten Barito Utara, Kalimantan Tengah 73814","Jl. Tumenggung Surapati, Melayu, Kec. Teweh Tengah, Kabupaten Barito Utara",KALIMANTAN TENGAH,73814.0,Indonesia,,,,-0.9590816,114.902233,https://maps.google.com/?cid=0x0:0x37d9ed0786322347,
hardware store,Toko Elektronik,Toko Borneo Elektronik Plus,"2WR2+76H, Jl. Tumenggung Surapati, Melayu, Kec. Teweh Tengah, Kabupaten Barito Utara, Kalimantan Tengah 73814","Jl. Tumenggung Surapati, Melayu, Kec. Teweh Tengah, Kabupaten Barito Utara",KALIMANTAN TENGAH,73814.0,Indonesia,85129527466.0,,,-0.9593128,114.900602,https://maps.google.com/?cid=0x0:0xf0649ed036421c4e,
hardware store,Toko Elektronik,SHAFIRA Elektronik,"Depan Water Front City / Jembatan Pangulu Iban, Jl. Panglima Batur No.77, Melayu, Kec. Teweh Tengah, Kabupaten Barito Utara, Kalimantan Tengah 73814","Jl. Panglima Batur No.77, Melayu, Kec. Teweh Tengah, Kabupaten Barito Utara",KALIMANTAN TENGAH,73814.0,Indonesia,85789077500.0,,,-0.960497,114.9045169,https://maps.google.com/?cid=0x0:0xdc99ec6342bfbe44,
hardware store,Toko Komputer,N23 HOME SHOPPING,"Jln Negara KM. 7 Komplek Salsabila 2, Kalimantan Tengah 73811","Kabupaten Barito Utara, Kalimantan Tengah",KALIMANTAN TENGAH,,Indonesia,81255424307.0,,,-0.9795383,114.8889695,https://maps.google.com/?cid=0x0:0x1eb1c6d7dbd0655a,
hardware store,Toko Alat Tulis Kantor,Toko Virgo atk dan copy,"Jl. Ahmad Yani No.167, Lanjas, Kec. Teweh Tengah, Kabupaten Barito Utara, Kalimantan Tengah 73814","Lanjas, Kec. Teweh Tengah, Kabupaten Barito Utara",KALIMANTAN TENGAH,73814.0,Indonesia,,,,-0.9603059,114.8978459,https://maps.google.com/?cid=0x0:0x1d016331474829d3,
hardware store,Toko,Tb. Hendra lesmana putra,"2WQ3+QM6, Melayu, Kec. Teweh Tengah, Kabupaten Barito Utara, Kalimantan Tengah 73814","Melayu, Kec. Teweh Tengah, Kabupaten Barito Utara",KALIMANTAN TENGAH,73814.0,Indonesia,81287458656.0,,,-0.9605832,114.9041426,https://maps.google.com/?cid=0x0:0x7bd06f6d14ef79cf,
hardware store,Toko Elektronik,Toko GABE ELEKTRONIK,"2WQ3+XGH, Melayu, Kec. Teweh Tengah, Kabupaten Barito Utara, Kalimantan Tengah 73814","Melayu, Kec. Teweh Tengah, Kabupaten Barito Utara",KALIMANTAN TENGAH,73814.0,Indonesia,,,,-0.9600518,114.9038575,https://maps.google.com/?cid=0x0:0x816f8fdd6a6d0096,
hardware store,Toko Elektronik,ABRAR Elektronik,"2WQ3+V8G, Melayu, Kec. Teweh Tengah, Kabupaten Barito Utara, Kalimantan Tengah 73814","Melayu, Kec. Teweh Tengah, Kabupaten Barito Utara",KALIMANTAN TENGAH,73814.0,Indonesia,82279901092.0,,,-0.960311,114.9033337,https://maps.google.com/?cid=0x0:0xe348fa3e86c24aa0,
hardware store,Toko Alat Tulis,Kios Adhe Fotocopy  Atk,"Jl.Durian RT.12 B Teweh tengah, Barito Utara, Kalimantan Tengah, 73811",Barito Utara,KALIMANTAN TENGAH,73811.0,Indonesia,,,,-0.9597558,114.8998726,https://maps.google.com/?cid=0x0:0xe286593c21bdc2ee,
hardware store,hardware store,Kec. Teweh Tengah,"Kabupaten Barito Utara, Kalimantan Tengah","Kabupaten Barito Utara, Kalimantan Tengah",KALIMANTAN TENGAH,,Indonesia,,,,-1.0321219,114.6192899,https://maps.google.com/?cid=0x0:0x43e48575a2769922,
hardware store,Toko Bahan Bangunan,Toko Bangunan Tiga Berlian,"Jl. Yetro Sinseng No.21, Lanjas, Kec. Teweh Tengah, Kabupaten Barito Utara, Kalimantan Tengah 73814","Lanjas, Kec. Teweh Tengah, Kabupaten Barito Utara",KALIMANTAN TENGAH,73814.0,Indonesia,81367805201.0,,,-0.9617625,114.8931326,https://maps.google.com/?cid=0x0:0x642a4ce342ec99fc,
hardware store,Sekolah menengah,SMAN 1 Teweh Timur,"297F+QQ7, Unnamed Road, Benangin I, Kec. Teweh Tim., Kabupaten Barito Utara, Kalimantan Tengah 73881","Unnamed Road, Benangin I, Kec. Teweh Tim., Kabupaten Barito Utara",KALIMANTAN TENGAH,73881.0,Indonesia,,,,-0.9855794,115.3744369,https://maps.google.com/?cid=0x0:0x26e976a2986251e3,
hardware store,Toko Perlengkapan Rumah,Toko Agus Riyadi 3,"Melayu, Kec. Teweh Tengah, Kabupaten Barito Utara, Kalimantan Tengah 73814","Kec. Teweh Tengah, Kabupaten Barito Utara",KALIMANTAN TENGAH,73814.0,Indonesia,81396801512.0,,,-0.9594759,114.9039055,https://maps.google.com/?cid=0x0:0x65c1e948c7c4225d,
