Category,Real Category,Business Name,Address,City,State,Postal Code,Country,Phone,Email,Website,Latitude,Longitude,Map Link,Details Link
mall,mall,Kalimantan Tengah 73862,Kalimantan Tengah,Kalimantan Tengah,KALIMANTAN TENGAH,,Indonesia,,,,-1.3062588,115.188916,https://maps.google.com/?cid=0x0:0x13b0d131c6a71cf5,
mall,Komplek perumahan,Pasar Batu Raya I,"Blok Batu Raya I, Ngurit, Kec. Gn. Timang, Kabupaten Barito Utara, Kalimantan Tengah 73862","Ngurit, Kec. Gn. Timang, Kabupaten Barito Utara",KALIMANTAN TENGAH,73862.0,Indonesia,,,,-1.3528365,115.2604206,https://maps.google.com/?cid=0x0:0xa8e432917e6d19a,
mall,Toko,Kios Nurul,"P4V9+5M9, Unnamed Road, Kandui, Kec. Gn. Timang, Kabupaten Barito Utara, Kalimantan Tengah 73862","Unnamed Road, Kandui, Kec. Gn. Timang, Kabupaten Barito Utara",KALIMANTAN TENGAH,73862.0,Indonesia,81345103223.0,,,-1.2570791,115.1192463,https://maps.google.com/?cid=0x0:0x3e25fd8e6a55bd5a,
mall,Toko Elektronik,Arul Ponsel Kandui,"P4RC+VJ7, Unnamed Road, Kandui, Kec. Gn. Timang, Kabupaten Barito Utara, Kalimantan Tengah 73862","Unnamed Road, Kandui, Kec. Gn. Timang, Kabupaten Barito Utara",KALIMANTAN TENGAH,73862.0,Indonesia,85388581234.0,,,-1.257828,115.1215443,https://maps.google.com/?cid=0x0:0x614a1628df5ba342,
mall,Toko bahan makanan,Toko Anwar,"Jl. Ahmad Yani, Kandui, Kec. Gn. Timang, Kabupaten Barito Utara, Kalimantan Tengah 73862","Kandui, Kec. Gn. Timang, Kabupaten Barito Utara",KALIMANTAN TENGAH,73862.0,Indonesia,,,,-1.2610518,115.121254,https://maps.google.com/?cid=0x0:0x13a9d7159d8a4080,
mall,Pusat Pelayanan Keluarga,Pasar Baru Tumpung Laung 2,"MRGC+PG8, Tumpung Laung I, Kec. Montallat, Kabupaten Barito Utara, Kalimantan Tengah 73861","Tumpung Laung I, Kec. Montallat, Kabupaten Barito Utara",KALIMANTAN TENGAH,73861.0,Indonesia,,,,-1.3232012,114.8213178,https://maps.google.com/?cid=0x0:0x8e19d2b015b2aa81,
mall,Toko Elektronik,azacell,"VX73+XCQ, Jl. H. A. Dj. Nihin, Pandran Permai, Kec. Teweh Tengah, Kabupaten Barito Utara, Kalimantan Tengah 73861","Jl. H. A. Dj. Nihin, Pandran Permai, Kec. Teweh Tengah, Kabupaten Barito Utara",KALIMANTAN TENGAH,73861.0,Indonesia,81349737629.0,,,-1.1350407,114.9535997,https://maps.google.com/?cid=0x0:0x862ff8c7705a8121,
mall,Komplek perumahan,Pasar Batu Raya I,"J7W6+W2P, Unnamed Rd, Gn. Bintang Awai,, Ngurit, Kec. Gn. Bintang Awai, Kabupaten Barito Selatan, Kalimantan Tengah 73862","Unnamed Rd, Gn. Bintang Awai,, Ngurit, Kec. Gn. Bintang Awai, Kabupaten Barito Selatan",KALIMANTAN TENGAH,73862.0,Indonesia,,,,-1.3526716,115.2600866,https://maps.google.com/?cid=0x0:0xc20fd1629885de64,
mall,Toko,Toko Fauzan,"P4VC+MJ8, Kandui, Kec. Gn. Timang, Kabupaten Barito Utara, Kalimantan Tengah 73862","Kandui, Kec. Gn. Timang, Kabupaten Barito Utara",KALIMANTAN TENGAH,73862.0,Indonesia,85281782370.0,,,-1.255846,115.1215733,https://maps.google.com/?cid=0x0:0xa5abba19c96eb829,
mall,Toko Perlengkapan Rumah,toko mbak ulin,"VX72+6RX, Jl. H. A. Dj. Nihin, Pandran Permai, Kec. Teweh Tengah, Kabupaten Barito Utara, Kalimantan Tengah 73861","Jl. H. A. Dj. Nihin, Pandran Permai, Kec. Teweh Tengah, Kabupaten Barito Utara",KALIMANTAN TENGAH,73861.0,Indonesia,,,,-1.1368914,114.9521184,https://maps.google.com/?cid=0x0:0x23060042f42424b8,
mall,Toko bahan makanan,Toko Herlina Wati,"MVGX+F3R, Montallat II, Kec. Montallat, Kabupaten Barito Utara, Kalimantan Tengah 73862","Montallat II, Kec. Montallat, Kabupaten Barito Utara",KALIMANTAN TENGAH,73862.0,Indonesia,85245859874.0,,,-1.3237694,114.8976394,https://maps.google.com/?cid=0x0:0xff2c1012db21ef7,
mall,Toko bahan makanan,Kios Mama Uzi,"Tumpung Laung I, Kec. Montallat, Kabupaten Barito Utara, Kalimantan Tengah 73861","Kec. Montallat, Kabupaten Barito Utara",KALIMANTAN TENGAH,73861.0,Indonesia,82252637988.0,,,-1.3255338,114.8321482,https://maps.google.com/?cid=0x0:0x766fe073c010946c,
mall,Toko,*RETNO*,"H4VQ+5XJ, Unnamed Road, Bantai Bambure, Kec. Dusun Utara, Kabupaten Barito Selatan, Kalimantan Tengah 73753","Unnamed Road, Bantai Bambure, Kec. Dusun Utara, Kabupaten Barito Selatan",KALIMANTAN TENGAH,73753.0,Indonesia,83152702333.0,,,-1.4070474,115.1398995,https://maps.google.com/?cid=0x0:0x69e2dbcc4b07b783,
mall,Pusat Perbelanjaan,mall shopping center mtw,"3V3V+P2W, Jl. Panti Ajar, Lanjas, Kec. Teweh Tengah, Kabupaten Barito Utara, Kalimantan Tengah 73814","Jl. Panti Ajar, Lanjas, Kec. Teweh Tengah, Kabupaten Barito Utara",KALIMANTAN TENGAH,73814.0,Indonesia,,,,-0.9715883,114.8853009,https://maps.google.com/?cid=0x0:0x399c6991586aba21,
mall,Toko sembako pemerintah,Warung Santoso,"MRHC+35H, Tumpung Laung II, Kec. Montallat, Kabupaten Barito Utara, Kalimantan Tengah 73861","Tumpung Laung II, Kec. Montallat, Kabupaten Barito Utara",KALIMANTAN TENGAH,73861.0,Indonesia,,,,-1.3223081,114.8204819,https://maps.google.com/?cid=0x0:0xf06aa77d154bd30c,
mall,Kios,"3M-kios Moldy,MarshellMonica","Unnamed Road, Ngurit, Kec. Gn. Bintang Awai, Kabupaten Barito Selatan, Kalimantan Tengah 73862","Ngurit, Kec. Gn. Bintang Awai, Kabupaten Barito Selatan",KALIMANTAN TENGAH,73862.0,Indonesia,,,,-1.362589,115.280528,https://maps.google.com/?cid=0x0:0xae8a8dbe8b44efde,
mall,Pusat Perbelanjaan,Warung Mama Adul,"J7R5+CXF, Ngurit, Kec. Gn. Bintang Awai, Kabupaten Barito Selatan, Kalimantan Tengah 73862","Ngurit, Kec. Gn. Bintang Awai, Kabupaten Barito Selatan",KALIMANTAN TENGAH,73862.0,Indonesia,,,,-1.3589372,115.259922,https://maps.google.com/?cid=0x0:0x315942fac903c445,
mall,Minimarket,Warung Mama Hety,"W3FP+5C4, Sikui, Kec. Teweh Tengah, Kabupaten Barito Utara, Kalimantan Tengah 73814","Sikui, Kec. Teweh Tengah, Kabupaten Barito Utara",KALIMANTAN TENGAH,73814.0,Indonesia,81255569265.0,,,-1.0771042,115.0860836,https://maps.google.com/?cid=0x0:0x8d6e0ec55f03c77e,
mall,Pusat Perbelanjaan,Warung Mama Sarah,"J7PJ+V23, Ngurit, Kec. Gn. Bintang Awai, Kabupaten Barito Selatan, Kalimantan Tengah 73862","Ngurit, Kec. Gn. Bintang Awai, Kabupaten Barito Selatan",KALIMANTAN TENGAH,73862.0,Indonesia,,,,-1.3628507,115.2800349,https://maps.google.com/?cid=0x0:0xd1e2a12d8912771a,
mall,Toko,TOKO ANDIPUTRI,"J7PH+PFW, Ngurit, Kec. Gn. Bintang Awai, Kabupaten Barito Selatan, Kalimantan Tengah","Kabupaten Barito Selatan, Kalimantan Tengah",KALIMANTAN TENGAH,,Indonesia,,,,-1.363146,115.2786981,https://maps.google.com/?cid=0x0:0xf836b2a5d1b8b379,
mall,Pusat Perbelanjaan,Toko Sembako Randi Januardi,"MWH3+9RM, Montallat II, Kec. Montallat, Kabupaten Barito Utara, Kalimantan Tengah 73862","Montallat II, Kec. Montallat, Kabupaten Barito Utara",KALIMANTAN TENGAH,73862.0,Indonesia,,,,-1.3215373,114.9045608,https://maps.google.com/?cid=0x0:0x6aedae6eade5abcb,
mall,Toko Pakaian,Counter Pulsa TUAMA Cell,"WPMH+99, Tukuq, Kec. Bentian Besar, Kabupaten Kutai Barat, Kalimantan Timur","Kabupaten Kutai Barat, Kalimantan Timur",KALIMANTAN TENGAH,,Indonesia,82123200830.0,,,-1.0659795,115.7284685,https://maps.google.com/?cid=0x0:0xd790cd91ab23d6a0,
mall,Toko,Byan Cell,"7QJF+549, Unnamed Road, Dilang Puti, Kec. Bentian Besar, Kabupaten Kutai Barat, Kalimantan Timur 75778","Unnamed Road, Dilang Puti, Kec. Bentian Besar, Kabupaten Kutai Barat",KALIMANTAN TENGAH,75778.0,Indonesia,82223333346.0,,,-0.7195883,115.7728546,https://maps.google.com/?cid=0x0:0xb26850efb69d0620,
mall,mall,Kalimantan Tengah 73852,"Kec. Lahei, Kabupaten Barito Utara, Kalimantan Tengah","Kabupaten Barito Utara, Kalimantan Tengah",KALIMANTAN TENGAH,,Indonesia,,,,-0.6129045,115.188916,https://maps.google.com/?cid=0x0:0xf279ed86a55323d0,
mall,Pusat Perbelanjaan,Warung Al-Ghany 78,"6W3Q+9JQ, Jl. Pelajar, Luwe Hulu, Kec. Lahei Barat, Kabupaten Barito Utara, Kalimantan Tengah 73812","Jl. Pelajar, Luwe Hulu, Kec. Lahei Barat, Kabupaten Barito Utara",KALIMANTAN TENGAH,73812.0,Indonesia,81528773332.0,,,-0.7965409,114.9391106,https://maps.google.com/?cid=0x0:0x2817f479cfaa7e4e,
mall,Musala,Koperasi Mula Membangun Lahei 2,"4WJH+WXG, Lahei II, Kec. Lahei, Kabupaten Barito Utara, Kalimantan Tengah 73814","Lahei II, Kec. Lahei, Kabupaten Barito Utara",KALIMANTAN TENGAH,73814.0,Indonesia,85349242179.0,,,-0.8676769,114.9299592,https://maps.google.com/?cid=0x0:0xe6e08511d6cdc36f,
mall,Pusat Perbelanjaan,Afdal wildan,"Lahei II, Kec. Lahei, Kabupaten Barito Utara, Kalimantan Tengah","Kabupaten Barito Utara, Kalimantan Tengah",KALIMANTAN TENGAH,,Indonesia,85654238723.0,,,-0.8667245,114.9309122,https://maps.google.com/?cid=0x0:0x2c988141c6aee5b5,
mall,Toko outlet,AGRetail Hub Barito Utara,"2VRX+2M6, Lanjas, Kec. Teweh Tengah, Kabupaten Barito Utara, Kalimantan Tengah 73814","Lanjas, Kec. Teweh Tengah, Kabupaten Barito Utara",KALIMANTAN TENGAH,73814.0,Indonesia,85348297700.0,,,-0.959961,114.8991477,https://maps.google.com/?cid=0x0:0x743eb64743eff40,
mall,Pasar,pasar pertokoan,"2WR4+763, Melayu, Kec. Teweh Tengah, Kabupaten Barito Utara, Kalimantan Tengah 73814","Melayu, Kec. Teweh Tengah, Kabupaten Barito Utara",KALIMANTAN TENGAH,73814.0,Indonesia,,,,-0.9593629,114.9055348,https://maps.google.com/?cid=0x0:0x1d4b24b1a9d118a7,
mall,Balai masyarakat,Desa Luwe Hulu,"6W3P+7WH, Luwe Hulu, Kec. Lahei, Kabupaten Barito Utara, Kalimantan Tengah 73852","Luwe Hulu, Kec. Lahei, Kabupaten Barito Utara",KALIMANTAN TENGAH,73852.0,Indonesia,,,,-0.7968156,114.9373746,https://maps.google.com/?cid=0x0:0x889d5c418241ea60,
mall,Toko sembako pemerintah,Warung sembako mama Rezy,"7WWC+4R6, RT.04, Benao Hulu, Kec. Lahei Barat, Kabupaten Barito Utara, Kalimantan Tengah 73852","RT.04, Benao Hulu, Kec. Lahei Barat, Kabupaten Barito Utara",KALIMANTAN TENGAH,73852.0,Indonesia,,,,-0.704703,114.9220214,https://maps.google.com/?cid=0x0:0xc2552766420d38d9,
mall,Toko,Hasan Pangkalan Elpigi,"Muara Laung I, Kec. Laung Tuhup, Kabupaten Murung Raya, Kalimantan Tengah 73911","Kec. Laung Tuhup, Kabupaten Murung Raya",KALIMANTAN TENGAH,73911.0,Indonesia,81349627600.0,,,-0.5939157,114.7360396,https://maps.google.com/?cid=0x0:0xdb30db7c0afb4630,
mall,Pusat Perbelanjaan,UD.Bersama Berkah,"8RFP+GR4, Makunjung, Kec. Barito Tuhup Raya, Kabupaten Murung Raya, Kalimantan Tengah 73852","Makunjung, Kec. Barito Tuhup Raya, Kabupaten Murung Raya",KALIMANTAN TENGAH,73852.0,Indonesia,,,,-0.6762393,114.837078,https://maps.google.com/?cid=0x0:0x6816f080e954b78,
mall,Pusat Perbelanjaan,IMART SHOP (SEMBAKO - ES KRISTAL - AIR MINUM ISI ULANG),"Lanjas, Kec. Teweh Tengah, Kabupaten Barito Utara, Kalimantan Tengah 73814","Kec. Teweh Tengah, Kabupaten Barito Utara",KALIMANTAN TENGAH,73814.0,Indonesia,85828708280.0,,,-0.9473487,114.8969835,https://maps.google.com/?cid=0x0:0x29e616ecd068af55,
mall,Toko Buku,Galeri Mr.Murdani North Barito(Oleh Oleh Khas Tewei),"Jl Cempaka Raya No.Rt 10, Jambu, Kec, Jambu, Kec. Teweh Baru, Kabupaten Barito Utara, Kalimantan Tengah 73813","Jambu, Kec, Jambu, Kec. Teweh Baru, Kabupaten Barito Utara",KALIMANTAN TENGAH,73813.0,Indonesia,81255346131.0,,,-0.9635305,114.9079563,https://maps.google.com/?cid=0x0:0x95bb619d027573ad,
mall,Pusat Perbelanjaan,KIOS KHAIRI,"Jl. Pelajar, Melayu, Kec. Teweh Tengah, Kabupaten Barito Utara, Kalimantan Tengah 73814","Melayu, Kec. Teweh Tengah, Kabupaten Barito Utara",KALIMANTAN TENGAH,73814.0,Indonesia,,,,-0.9503873,114.9080148,https://maps.google.com/?cid=0x0:0xf964a20834c0c048,
mall,Toko Buku,Shopping Mania,"2WR2+9V9, Jl. Tumenggung Surapati, Melayu, Kec. Teweh Tengah, Kabupaten Barito Utara, Kalimantan Tengah 73814","Jl. Tumenggung Surapati, Melayu, Kec. Teweh Tengah, Kabupaten Barito Utara",KALIMANTAN TENGAH,73814.0,Indonesia,,,,-0.9590816,114.902233,https://maps.google.com/?cid=0x0:0x37d9ed0786322347,
mall,Toko Kesehatan dan Kecantikan,Pusat Crystal X Nasa Teweh,"Jl. Flores No.RT 10, Melayu, Kec. Teweh Tengah, Kabupaten Barito Utara, Kalimantan Tengah 73814","Melayu, Kec. Teweh Tengah, Kabupaten Barito Utara",KALIMANTAN TENGAH,73814.0,Indonesia,81253557098.0,,,-0.9593092,114.9049411,https://maps.google.com/?cid=0x0:0x6eb0b10d354a9dd2,
mall,mall,Kenan Stationery,"2WV3+5WH, Jl. Merak, Melayu, Kec. Teweh Tengah, Kabupaten Barito Utara, Kalimantan Tengah 73814","Jl. Merak, Melayu, Kec. Teweh Tengah, Kabupaten Barito Utara",KALIMANTAN TENGAH,73814.0,Indonesia,,,,-0.9570582,114.9048535,https://maps.google.com/?cid=0x0:0xae8821129afdd67d,
mall,Pusat Perbelanjaan,Kios Dika,"2VXW+VJR, Lanjas, Kec. Teweh Tengah, Kabupaten Barito Utara, Kalimantan Tengah 73814","Lanjas, Kec. Teweh Tengah, Kabupaten Barito Utara",KALIMANTAN TENGAH,73814.0,Indonesia,82158018809.0,,,-0.9502721,114.8965142,https://maps.google.com/?cid=0x0:0x33ed151662d6c0c8,
mall,Toko Pakaian,Ditha shop,"jl. taman remaja sabui 1, gang putra, Lanjas, Kec. Teweh Tengah, Kabupaten Barito Utara, Kalimantan Tengah 73814","gang putra, Lanjas, Kec. Teweh Tengah, Kabupaten Barito Utara",KALIMANTAN TENGAH,73814.0,Indonesia,85248355151.0,,,-0.943885,114.89504,https://maps.google.com/?cid=0x0:0x296fc926118df7a0,
mall,Toko Swalayan,Toko Mila Zahra,"2WW2+W2R, Jl. Imam Bonjol, Melayu, Kec. Teweh Tengah, Kabupaten Barito Utara, Kalimantan Tengah 73814","Jl. Imam Bonjol, Melayu, Kec. Teweh Tengah, Kabupaten Barito Utara",KALIMANTAN TENGAH,73814.0,Indonesia,81349682122.0,,,-0.9526365,114.9000241,https://maps.google.com/?cid=0x0:0xe45f0eb375f2afbc,
mall,Layanan Transportasi,Sub agent jt lahei,"Jl.padat karya No.RT.007, Lahei II, Kec. Lahei, Kabupaten Barito Utara, Kalimantan Tengah 73814","Lahei II, Kec. Lahei, Kabupaten Barito Utara",KALIMANTAN TENGAH,73814.0,Indonesia,,,,-0.8667245,114.9309122,https://maps.google.com/?cid=0x0:0xd1ba31e1bb2f9eef,
mall,Toko Alat Listrik,Toko Arif Gemilang Group,"2VWV+2R5, Jl. Stadion Swakarya, Lanjas, Kec. Teweh Tengah, Kabupaten Barito Utara, Kalimantan Tengah 73814","Jl. Stadion Swakarya, Lanjas, Kec. Teweh Tengah, Kabupaten Barito Utara",KALIMANTAN TENGAH,73814.0,Indonesia,,,,-0.9549841,114.8946061,https://maps.google.com/?cid=0x0:0xcb3a3f62ab516313,
mall,Toko,"TOKO YENI (Keperluan harian,pulsa,mainan,hobby,dan lain-lain.)","2WW6+4WQ, Unnamed Road, Jambu, Kec. Teweh Baru, Kabupaten Barito Utara, Kalimantan Tengah 73814","Unnamed Road, Jambu, Kec. Teweh Baru, Kabupaten Barito Utara",KALIMANTAN TENGAH,73814.0,Indonesia,85332469090.0,,,-0.9546596,114.9123452,https://maps.google.com/?cid=0x0:0xc122ffaaa712561,
mall,mall,Kifli Komputer,"Jl. Pelita No.RT.02, Benao Hilir, Kec. Lahei Barat, Kabupaten Barito Utara, Kalimantan Tengah 73852","Benao Hilir, Kec. Lahei Barat, Kabupaten Barito Utara",KALIMANTAN TENGAH,73852.0,Indonesia,,,,-0.7481776,114.8940445,https://maps.google.com/?cid=0x0:0x62e5498cb7e3df16,
mall,mall,Toko Mama Agus,"6W3P+VVR, Luwe Hulu, Kec. Lahei Barat, Kabupaten Barito Utara, Kalimantan Tengah 73812","Luwe Hulu, Kec. Lahei Barat, Kabupaten Barito Utara",KALIMANTAN TENGAH,73812.0,Indonesia,,,,-0.7951646,114.9369565,https://maps.google.com/?cid=0x0:0xf5c051307033d296,
mall,mall,Kec. Lahei Barat,"Kabupaten Barito Utara, Kalimantan Tengah","Kabupaten Barito Utara, Kalimantan Tengah",KALIMANTAN TENGAH,,Indonesia,,,,-0.7935062,114.9382498,https://maps.google.com/?cid=0x0:0x5adc4924308bea72,
mall,Pusat Perbelanjaan,Afdal wildan,"Lahei II, Kec. Lahei, Kabupaten Barito Utara, Kalimantan Tengah","Kabupaten Barito Utara, Kalimantan Tengah",KALIMANTAN TENGAH,,Indonesia,85654238723.0,,,-0.8667245,114.9309122,https://maps.google.com/?cid=0x0:0x2c988141c6aee5b5,
mall,Musala,Koperasi Mula Membangun Lahei 2,"4WJH+WXG, Lahei II, Kec. Lahei, Kabupaten Barito Utara, Kalimantan Tengah 73814","Lahei II, Kec. Lahei, Kabupaten Barito Utara",KALIMANTAN TENGAH,73814.0,Indonesia,85349242179.0,,,-0.8676769,114.9299592,https://maps.google.com/?cid=0x0:0xe6e08511d6cdc36f,
mall,Toko,WaletDaha BRILink,"4WJM+25, Lahei II, Kec. Lahei, Kabupaten Barito Utara, Kalimantan Tengah","Kabupaten Barito Utara, Kalimantan Tengah",KALIMANTAN TENGAH,,Indonesia,81258713645.0,,,-0.8700171,114.9329651,https://maps.google.com/?cid=0x0:0xbbc2cf8a3032fe9c,
mall,Toko sembako pemerintah,Warung sembako mama Rezy,"7WWC+4R6, RT.04, Benao Hulu, Kec. Lahei Barat, Kabupaten Barito Utara, Kalimantan Tengah 73852","RT.04, Benao Hulu, Kec. Lahei Barat, Kabupaten Barito Utara",KALIMANTAN TENGAH,73852.0,Indonesia,,,,-0.704703,114.9220214,https://maps.google.com/?cid=0x0:0xc2552766420d38d9,
mall,Toko outlet,AGRetail Hub Barito Utara,"2VRX+2M6, Lanjas, Kec. Teweh Tengah, Kabupaten Barito Utara, Kalimantan Tengah 73814","Lanjas, Kec. Teweh Tengah, Kabupaten Barito Utara",KALIMANTAN TENGAH,73814.0,Indonesia,85348297700.0,,,-0.959961,114.8991477,https://maps.google.com/?cid=0x0:0x743eb64743eff40,
mall,Layanan Transportasi,Sub agent jt lahei,"Jl.padat karya No.RT.007, Lahei II, Kec. Lahei, Kabupaten Barito Utara, Kalimantan Tengah 73814","Lahei II, Kec. Lahei, Kabupaten Barito Utara",KALIMANTAN TENGAH,73814.0,Indonesia,,,,-0.8667245,114.9309122,https://maps.google.com/?cid=0x0:0xd1ba31e1bb2f9eef,
mall,Toko,Hasan Pangkalan Elpigi,"Muara Laung I, Kec. Laung Tuhup, Kabupaten Murung Raya, Kalimantan Tengah 73911","Kec. Laung Tuhup, Kabupaten Murung Raya",KALIMANTAN TENGAH,73911.0,Indonesia,81349627600.0,,,-0.5939157,114.7360396,https://maps.google.com/?cid=0x0:0xdb30db7c0afb4630,
mall,mall,Kenan Stationery,"2WV3+5WH, Jl. Merak, Melayu, Kec. Teweh Tengah, Kabupaten Barito Utara, Kalimantan Tengah 73814","Jl. Merak, Melayu, Kec. Teweh Tengah, Kabupaten Barito Utara",KALIMANTAN TENGAH,73814.0,Indonesia,,,,-0.9570582,114.9048535,https://maps.google.com/?cid=0x0:0xae8821129afdd67d,
mall,Pasar,pasar pertokoan,"2WR4+763, Melayu, Kec. Teweh Tengah, Kabupaten Barito Utara, Kalimantan Tengah 73814","Melayu, Kec. Teweh Tengah, Kabupaten Barito Utara",KALIMANTAN TENGAH,73814.0,Indonesia,,,,-0.9593629,114.9055348,https://maps.google.com/?cid=0x0:0x1d4b24b1a9d118a7,
mall,Pusat Perbelanjaan,KIOS KHAIRI,"Jl. Pelajar, Melayu, Kec. Teweh Tengah, Kabupaten Barito Utara, Kalimantan Tengah 73814","Melayu, Kec. Teweh Tengah, Kabupaten Barito Utara",KALIMANTAN TENGAH,73814.0,Indonesia,,,,-0.9503873,114.9080148,https://maps.google.com/?cid=0x0:0xf964a20834c0c048,
mall,Kantor Perusahaan,Mall Mitra,"9H37+VW8, Beriwit, Kec. Murung, Kabupaten Murung Raya, Kalimantan Tengah","Kabupaten Murung Raya, Kalimantan Tengah",KALIMANTAN TENGAH,,Indonesia,,,,-0.6452474,114.5648466,https://maps.google.com/?cid=0x0:0xc262b771d8172951,
mall,Toko,"TOKO YENI (Keperluan harian,pulsa,mainan,hobby,dan lain-lain.)","2WW6+4WQ, Unnamed Road, Jambu, Kec. Teweh Baru, Kabupaten Barito Utara, Kalimantan Tengah 73814","Unnamed Road, Jambu, Kec. Teweh Baru, Kabupaten Barito Utara",KALIMANTAN TENGAH,73814.0,Indonesia,85332469090.0,,,-0.9546596,114.9123452,https://maps.google.com/?cid=0x0:0xc122ffaaa712561,
mall,Toko Buku,Shopping Mania,"2WR2+9V9, Jl. Tumenggung Surapati, Melayu, Kec. Teweh Tengah, Kabupaten Barito Utara, Kalimantan Tengah 73814","Jl. Tumenggung Surapati, Melayu, Kec. Teweh Tengah, Kabupaten Barito Utara",KALIMANTAN TENGAH,73814.0,Indonesia,,,,-0.9590816,114.902233,https://maps.google.com/?cid=0x0:0x37d9ed0786322347,
mall,Toko Kesehatan dan Kecantikan,Pusat Crystal X Nasa Teweh,"Jl. Flores No.RT 10, Melayu, Kec. Teweh Tengah, Kabupaten Barito Utara, Kalimantan Tengah 73814","Melayu, Kec. Teweh Tengah, Kabupaten Barito Utara",KALIMANTAN TENGAH,73814.0,Indonesia,81253557098.0,,,-0.9593092,114.9049411,https://maps.google.com/?cid=0x0:0x6eb0b10d354a9dd2,
mall,,Mall ososslso,"9H37+VW8, Beriwit, Kec. Murung, Kabupaten Murung Raya, Kalimantan Tengah","Kabupaten Murung Raya, Kalimantan Tengah",KALIMANTAN TENGAH,,Indonesia,,,,-0.6453354,114.5648241,https://maps.google.com/?cid=0x0:0xa919089b9c1637f3,
mall,Pusat Perbelanjaan,IMART SHOP (SEMBAKO - ES KRISTAL - AIR MINUM ISI ULANG),"Lanjas, Kec. Teweh Tengah, Kabupaten Barito Utara, Kalimantan Tengah 73814","Kec. Teweh Tengah, Kabupaten Barito Utara",KALIMANTAN TENGAH,73814.0,Indonesia,85828708280.0,,,-0.9473487,114.8969835,https://maps.google.com/?cid=0x0:0x29e616ecd068af55,
mall,Toko Alat Listrik,Toko Arif Gemilang Group,"2VWV+2R5, Jl. Stadion Swakarya, Lanjas, Kec. Teweh Tengah, Kabupaten Barito Utara, Kalimantan Tengah 73814","Jl. Stadion Swakarya, Lanjas, Kec. Teweh Tengah, Kabupaten Barito Utara",KALIMANTAN TENGAH,73814.0,Indonesia,,,,-0.9549841,114.8946061,https://maps.google.com/?cid=0x0:0xcb3a3f62ab516313,
mall,Toko,Toko H. Nurdin / Ria Pertokoan,"2WR4+579, Jl. Sengaji Hulu, Melayu, Kec. Teweh Tengah, Kabupaten Barito Utara, Kalimantan Tengah 73814","Jl. Sengaji Hulu, Melayu, Kec. Teweh Tengah, Kabupaten Barito Utara",KALIMANTAN TENGAH,73814.0,Indonesia,51921776.0,,,-0.9595788,114.9057282,https://maps.google.com/?cid=0x0:0xc8dee57e438a32b5,
mall,Kantor Perusahaan,PT. MPG,"Karamuan, Kec. Lahei Barat, Kabupaten Barito Utara, Kalimantan Tengah 73814","Kec. Lahei Barat, Kabupaten Barito Utara",KALIMANTAN TENGAH,73814.0,Indonesia,,,,-0.7727233,114.7437674,https://maps.google.com/?cid=0x0:0x7a3c9b2999cbcbf2,
mall,Balai masyarakat,Desa Luwe Hulu,"6W3P+7WH, Luwe Hulu, Kec. Lahei, Kabupaten Barito Utara, Kalimantan Tengah 73852","Luwe Hulu, Kec. Lahei, Kabupaten Barito Utara",KALIMANTAN TENGAH,73852.0,Indonesia,,,,-0.7968156,114.9373746,https://maps.google.com/?cid=0x0:0x889d5c418241ea60,
mall,mall,Kifli Komputer,"Jl. Pelita No.RT.02, Benao Hilir, Kec. Lahei Barat, Kabupaten Barito Utara, Kalimantan Tengah 73852","Benao Hilir, Kec. Lahei Barat, Kabupaten Barito Utara",KALIMANTAN TENGAH,73852.0,Indonesia,,,,-0.7481776,114.8940445,https://maps.google.com/?cid=0x0:0x62e5498cb7e3df16,
mall,mall,Toko Mama Agus,"6W3P+VVR, Luwe Hulu, Kec. Lahei Barat, Kabupaten Barito Utara, Kalimantan Tengah 73812","Luwe Hulu, Kec. Lahei Barat, Kabupaten Barito Utara",KALIMANTAN TENGAH,73812.0,Indonesia,,,,-0.7951646,114.9369565,https://maps.google.com/?cid=0x0:0xf5c051307033d296,
mall,Pusat Perbelanjaan,TK. HERLINA KOSMETIK,"samping BB Mart, Jl. Sengaji Hulu, Melayu, Kec. Teweh Tengah, Kabupaten Barito Utara, Kalimantan Tengah 73811","Jl. Sengaji Hulu, Melayu, Kec. Teweh Tengah, Kabupaten Barito Utara",KALIMANTAN TENGAH,73811.0,Indonesia,85251402007.0,,,-0.9598409,114.9041608,https://maps.google.com/?cid=0x0:0xe09ebd5052fd1fa1,
mall,Toko Pakaian,Ditha shop,"jl. taman remaja sabui 1, gang putra, Lanjas, Kec. Teweh Tengah, Kabupaten Barito Utara, Kalimantan Tengah 73814","gang putra, Lanjas, Kec. Teweh Tengah, Kabupaten Barito Utara",KALIMANTAN TENGAH,73814.0,Indonesia,85248355151.0,,,-0.943885,114.89504,https://maps.google.com/?cid=0x0:0x296fc926118df7a0,
mall,Toko Swalayan,Toko Mila Zahra,"2WW2+W2R, Jl. Imam Bonjol, Melayu, Kec. Teweh Tengah, Kabupaten Barito Utara, Kalimantan Tengah 73814","Jl. Imam Bonjol, Melayu, Kec. Teweh Tengah, Kabupaten Barito Utara",KALIMANTAN TENGAH,73814.0,Indonesia,81349682122.0,,,-0.9526365,114.9000241,https://maps.google.com/?cid=0x0:0xe45f0eb375f2afbc,
mall,mall,Kec. Montallat,"Kabupaten Barito Utara, Kalimantan Tengah","Kabupaten Barito Utara, Kalimantan Tengah",KALIMANTAN TENGAH,,Indonesia,,,,-1.3271553,114.8390377,https://maps.google.com/?cid=0x0:0xaee00abe123121b3,
mall,Toko sembako pemerintah,Warung Santoso,"MRHC+35H, Tumpung Laung II, Kec. Montallat, Kabupaten Barito Utara, Kalimantan Tengah 73861","Tumpung Laung II, Kec. Montallat, Kabupaten Barito Utara",KALIMANTAN TENGAH,73861.0,Indonesia,,,,-1.3223081,114.8204819,https://maps.google.com/?cid=0x0:0xf06aa77d154bd30c,
mall,Pusat Pelayanan Keluarga,Pasar Baru Tumpung Laung 2,"MRGC+PG8, Tumpung Laung I, Kec. Montallat, Kabupaten Barito Utara, Kalimantan Tengah 73861","Tumpung Laung I, Kec. Montallat, Kabupaten Barito Utara",KALIMANTAN TENGAH,73861.0,Indonesia,,,,-1.3232012,114.8213178,https://maps.google.com/?cid=0x0:0x8e19d2b015b2aa81,
mall,Toko bahan makanan,Kios Mama Uzi,"Tumpung Laung I, Kec. Montallat, Kabupaten Barito Utara, Kalimantan Tengah 73861","Kec. Montallat, Kabupaten Barito Utara",KALIMANTAN TENGAH,73861.0,Indonesia,82252637988.0,,,-1.3255338,114.8321482,https://maps.google.com/?cid=0x0:0x766fe073c010946c,
mall,Toko bahan makanan,Toko Herlina Wati,"MVGX+F3R, Montallat II, Kec. Montallat, Kabupaten Barito Utara, Kalimantan Tengah 73862","Montallat II, Kec. Montallat, Kabupaten Barito Utara",KALIMANTAN TENGAH,73862.0,Indonesia,85245859874.0,,,-1.3237694,114.8976394,https://maps.google.com/?cid=0x0:0xff2c1012db21ef7,
mall,Toko Elektronik,azacell,"VX73+XCQ, Jl. H. A. Dj. Nihin, Pandran Permai, Kec. Teweh Tengah, Kabupaten Barito Utara, Kalimantan Tengah 73861","Jl. H. A. Dj. Nihin, Pandran Permai, Kec. Teweh Tengah, Kabupaten Barito Utara",KALIMANTAN TENGAH,73861.0,Indonesia,81349737629.0,,,-1.1350407,114.9535997,https://maps.google.com/?cid=0x0:0x862ff8c7705a8121,
mall,Pusat Perbelanjaan,Toko sembako warung ramadhan,"MRFM+M67, Jl. Raya Lintas Kota, Tumpung Laung II, Kec. Montallat, Kabupaten Barito Utara, Kalimantan Tengah 73861","Jl. Raya Lintas Kota, Tumpung Laung II, Kec. Montallat, Kabupaten Barito Utara",KALIMANTAN TENGAH,73861.0,Indonesia,,,,-1.3258451,114.8330471,https://maps.google.com/?cid=0x0:0xb0f5e394567f37a0,
mall,Pusat Perbelanjaan,Toko Sembako Rudi Hartono,"MVGV+C62, Montallat II, Kec. Montallat, Kabupaten Barito Utara, Kalimantan Tengah 73862","Montallat II, Kec. Montallat, Kabupaten Barito Utara",KALIMANTAN TENGAH,73862.0,Indonesia,,,,-1.3239918,114.8930018,https://maps.google.com/?cid=0x0:0xaa3ec3c542feaa04,
mall,Toko Perlengkapan Rumah,toko mbak ulin,"VX72+6RX, Jl. H. A. Dj. Nihin, Pandran Permai, Kec. Teweh Tengah, Kabupaten Barito Utara, Kalimantan Tengah 73861","Jl. H. A. Dj. Nihin, Pandran Permai, Kec. Teweh Tengah, Kabupaten Barito Utara",KALIMANTAN TENGAH,73861.0,Indonesia,,,,-1.1368914,114.9521184,https://maps.google.com/?cid=0x0:0x23060042f42424b8,
mall,Pusat Perbelanjaan,Toko Sembako Randi Januardi,"MWH3+9RM, Montallat II, Kec. Montallat, Kabupaten Barito Utara, Kalimantan Tengah 73862","Montallat II, Kec. Montallat, Kabupaten Barito Utara",KALIMANTAN TENGAH,73862.0,Indonesia,,,,-1.3215373,114.9045608,https://maps.google.com/?cid=0x0:0x6aedae6eade5abcb,
mall,Toko,Toko cahaya najwa,"VW5X+CM7, Pandran Permai, Kec. Teweh Tengah, Kabupaten Barito Utara, Kalimantan Tengah 73861","Pandran Permai, Kec. Teweh Tengah, Kabupaten Barito Utara",KALIMANTAN TENGAH,73861.0,Indonesia,82156387374.0,,,-1.1414522,114.94917,https://maps.google.com/?cid=0x0:0xbfed45128aaa919a,
mall,Pusat Perbelanjaan,Toko sembako dan lalapan masyon,"PQ54+P9, Pepas, Kec. Montallat, Kabupaten Barito Utara, Kalimantan Tengah","Kabupaten Barito Utara, Kalimantan Tengah",KALIMANTAN TENGAH,,Indonesia,81349956786.0,,,-1.2912741,114.7545127,https://maps.google.com/?cid=0x0:0x8db58de5a181f6cb,
mall,Toko Buah dan Sayur,Jual beli buah kelapa sawit,"Jl. H. A. Dj. Nihin, Bukit Sawit, Kec. Teweh Tengah, Kabupaten Barito Utara, Kalimantan Tengah 73861","Bukit Sawit, Kec. Teweh Tengah, Kabupaten Barito Utara",KALIMANTAN TENGAH,73861.0,Indonesia,81250424812.0,,,-1.1318271,114.9525693,https://maps.google.com/?cid=0x0:0x38b8a7ab7723653e,
mall,Toko,NATHAKA RUMAH Wifi Tarusan,"JV86+M3X, Tarusan, Kec. Dusun Utara, Kabupaten Barito Selatan, Kalimantan Tengah 73861","Tarusan, Kec. Dusun Utara, Kabupaten Barito Selatan",KALIMANTAN TENGAH,73861.0,Indonesia,,,,-1.3832675,114.8602287,https://maps.google.com/?cid=0x0:0xd1175e153ef55b35,
mall,mall,NATHAKA CELLCOMP,"MRG9+HMW, Jl. Raya Lintas Kota, Tumpung Laung II, Kec. Montallat, Kabupaten Barito Utara, Kalimantan Tengah 73861","Jl. Raya Lintas Kota, Tumpung Laung II, Kec. Montallat, Kabupaten Barito Utara",KALIMANTAN TENGAH,73861.0,Indonesia,82358124666.0,,,-1.3235048,114.8191981,https://maps.google.com/?cid=0x0:0x60840d637025f5a8,
mall,mall,Kalimantan Tengah 73813,"Jambu, Kec. Teweh Baru, Kabupaten Barito Utara, Kalimantan Tengah","Kabupaten Barito Utara, Kalimantan Tengah",KALIMANTAN TENGAH,,Indonesia,,,,-0.8856163,115.0169419,https://maps.google.com/?cid=0x0:0x20b84a66bae62c5e,
mall,Toko Kesehatan dan Kecantikan,Pusat Crystal X Nasa Teweh,"Jl. Flores No.RT 10, Melayu, Kec. Teweh Tengah, Kabupaten Barito Utara, Kalimantan Tengah 73814","Melayu, Kec. Teweh Tengah, Kabupaten Barito Utara",KALIMANTAN TENGAH,73814.0,Indonesia,81253557098.0,,,-0.9593092,114.9049411,https://maps.google.com/?cid=0x0:0x6eb0b10d354a9dd2,
mall,mall,CELCIUS MUARA TEWEH,"Jl. Tumenggung Surapati No.76, Melayu, Kec. Teweh Tengah, Kabupaten Barito Utara, Kalimantan Tengah 73811","Melayu, Kec. Teweh Tengah, Kabupaten Barito Utara",KALIMANTAN TENGAH,73811.0,Indonesia,,,,-0.9594268,114.9001021,https://maps.google.com/?cid=0x0:0x5168868b5feb4f1a,
mall,Pusat Belajar,Masjid Haji Muhammad Sidik Islamic Center,"2VGP+MH3, Jingah, Kec. Teweh Baru, Kabupaten Barito Utara, Kalimantan Tengah 73814","Jingah, Kec. Teweh Baru, Kabupaten Barito Utara",KALIMANTAN TENGAH,73814.0,Indonesia,,,,-0.9733689,114.8864193,https://maps.google.com/?cid=0x0:0x9d5bcada8ecb6661,
mall,mall,Kalimantan Tengah 73814,"Kabupaten Barito Utara, Kalimantan Tengah","Kabupaten Barito Utara, Kalimantan Tengah",KALIMANTAN TENGAH,,Indonesia,,,,-0.8914468,114.8092691,https://maps.google.com/?cid=0x0:0xb5548f39346751af,
mall,Pasar,pasar pertokoan,"2WR4+763, Melayu, Kec. Teweh Tengah, Kabupaten Barito Utara, Kalimantan Tengah 73814","Melayu, Kec. Teweh Tengah, Kabupaten Barito Utara",KALIMANTAN TENGAH,73814.0,Indonesia,,,,-0.9593629,114.9055348,https://maps.google.com/?cid=0x0:0x1d4b24b1a9d118a7,
mall,Toko outlet,AGRetail Hub Barito Utara,"2VRX+2M6, Lanjas, Kec. Teweh Tengah, Kabupaten Barito Utara, Kalimantan Tengah 73814","Lanjas, Kec. Teweh Tengah, Kabupaten Barito Utara",KALIMANTAN TENGAH,73814.0,Indonesia,85348297700.0,,,-0.959961,114.8991477,https://maps.google.com/?cid=0x0:0x743eb64743eff40,
mall,Toko Kesehatan dan Kecantikan,Pusat Crystal X Nasa Teweh,"Jl. Flores No.RT 10, Melayu, Kec. Teweh Tengah, Kabupaten Barito Utara, Kalimantan Tengah 73814","Melayu, Kec. Teweh Tengah, Kabupaten Barito Utara",KALIMANTAN TENGAH,73814.0,Indonesia,81253557098.0,,,-0.9593092,114.9049411,https://maps.google.com/?cid=0x0:0x6eb0b10d354a9dd2,
mall,Pasar,Pasar pbb,"2VPQ+33C, Jl. Akasia, Lanjas, Kec. Teweh Tengah, Kabupaten Barito Utara, Kalimantan Tengah 73814","Jl. Akasia, Lanjas, Kec. Teweh Tengah, Kabupaten Barito Utara",KALIMANTAN TENGAH,73814.0,Indonesia,,,,-0.9648172,114.8876402,https://maps.google.com/?cid=0x0:0xaa76c86a0c4ef5b9,
mall,Toko,Optik Fashion Muara teweh,"Lanjas, Kec. Teweh Tengah, Kabupaten Barito Utara, Kalimantan Tengah 73814","Kec. Teweh Tengah, Kabupaten Barito Utara",KALIMANTAN TENGAH,73814.0,Indonesia,85251851710.0,,,-0.9616878,114.8954072,https://maps.google.com/?cid=0x0:0xfc23139ef34f38dd,
mall,,Hobby Shop,"2VMQ+H5P, Jl. Akasia, Lanjas, Kec. Teweh Tengah, Kabupaten Barito Utara, Kalimantan Tengah 73814","Jl. Akasia, Lanjas, Kec. Teweh Tengah, Kabupaten Barito Utara",KALIMANTAN TENGAH,73814.0,Indonesia,85651393159.0,,,-0.9660482,114.8879516,https://maps.google.com/?cid=0x0:0x1e02537424c2d683,
mall,Toko Tahu,Nano,"Jl. Yetro Sinseng No.8, Lanjas, Kec. Teweh Tengah, Kabupaten Barito Utara, Kalimantan Tengah 73814","Lanjas, Kec. Teweh Tengah, Kabupaten Barito Utara",KALIMANTAN TENGAH,73814.0,Indonesia,85248440314.0,,,-0.9623912,114.8879749,https://maps.google.com/?cid=0x0:0xe26607df41bb87b6,
mall,Toko,MURWAJI TOKO,"2WQ2+HW7, Jl. Perwira, Melayu, Kec. Teweh Tengah, Kabupaten Barito Utara, Kalimantan Tengah 73814","Jl. Perwira, Melayu, Kec. Teweh Tengah, Kabupaten Barito Utara",KALIMANTAN TENGAH,73814.0,Indonesia,82155609375.0,,,-0.9610865,114.9022873,https://maps.google.com/?cid=0x0:0xd191e26331c0c2e1,
mall,mall,Kenan Stationery,"2WV3+5WH, Jl. Merak, Melayu, Kec. Teweh Tengah, Kabupaten Barito Utara, Kalimantan Tengah 73814","Jl. Merak, Melayu, Kec. Teweh Tengah, Kabupaten Barito Utara",KALIMANTAN TENGAH,73814.0,Indonesia,,,,-0.9570582,114.9048535,https://maps.google.com/?cid=0x0:0xae8821129afdd67d,
mall,Pusat Perbelanjaan,IMART SHOP (SEMBAKO - ES KRISTAL - AIR MINUM ISI ULANG),"Lanjas, Kec. Teweh Tengah, Kabupaten Barito Utara, Kalimantan Tengah 73814","Kec. Teweh Tengah, Kabupaten Barito Utara",KALIMANTAN TENGAH,73814.0,Indonesia,85828708280.0,,,-0.9473487,114.8969835,https://maps.google.com/?cid=0x0:0x29e616ecd068af55,
mall,Toko Komputer,N23 HOME SHOPPING,"Jln Negara KM. 7 Komplek Salsabila 2, Kalimantan Tengah 73811","Kabupaten Barito Utara, Kalimantan Tengah",KALIMANTAN TENGAH,,Indonesia,81255424307.0,,,-0.9795383,114.8889695,https://maps.google.com/?cid=0x0:0x1eb1c6d7dbd0655a,
mall,Pusat Perbelanjaan,Warung Sayur 24 Jam Muara Teweh,"3V7Q+2WG, Jl. Pendreh , Jl. Simpang Wonorejo, Lanjas, Kec. Teweh Tengah, Kabupaten Barito Utara, Kalimantan Tengah 73814","Jl. Pendreh , Jl. Simpang Wonorejo, Lanjas, Kec. Teweh Tengah, Kabupaten Barito Utara",KALIMANTAN TENGAH,73814.0,Indonesia,81352658519.0,,,-0.9374257,114.889838,https://maps.google.com/?cid=0x0:0xdd78950a634c8a4d,
mall,Toko Perlengkapan Rumah,Bintang Asia Jotun,"2VPQ+R6X, Lanjas, Kec. Teweh Tengah, Kabupaten Barito Utara, Kalimantan Tengah 73814","Lanjas, Kec. Teweh Tengah, Kabupaten Barito Utara",KALIMANTAN TENGAH,73814.0,Indonesia,85390869333.0,,,-0.9628929,114.8881186,https://maps.google.com/?cid=0x0:0x5eab1b23795e016f,
mall,Toko Perlengkapan Rumah,Toko karya bersama,"Jl. Panglima Batur, Melayu, Kec. Teweh Tengah, Kabupaten Barito Utara, Kalimantan Tengah 73814","Melayu, Kec. Teweh Tengah, Kabupaten Barito Utara",KALIMANTAN TENGAH,73814.0,Indonesia,,,,-0.9598911,114.9060193,https://maps.google.com/?cid=0x0:0xa88d038c17336b7f,
mall,Kantor Perusahaan,Ozan Borneo Perkasa,"2VMW+X33, Lanjas, Kec. Teweh Tengah, Kabupaten Barito Utara, Kalimantan Tengah 73814","Lanjas, Kec. Teweh Tengah, Kabupaten Barito Utara",KALIMANTAN TENGAH,73814.0,Indonesia,82254154234.0,,,-0.9651205,114.8951832,https://maps.google.com/?cid=0x0:0xafa41eab44c91625,
mall,Komplek perumahan,Gedung PC.NU Barito Utara,"2VQW+976, Jl. Yetro Sinseng, Lanjas, Kec. Teweh Tengah, Kabupaten Barito Utara, Kalimantan Tengah 73814","Jl. Yetro Sinseng, Lanjas, Kec. Teweh Tengah, Kabupaten Barito Utara",KALIMANTAN TENGAH,73814.0,Indonesia,,,,-0.9615774,114.8956483,https://maps.google.com/?cid=0x0:0x24ce7d3fba36b90d,
mall,Komplek perumahan,Komplek Pasar Lemo 2,"XRWG+6W8, Lemo II, Kec. Teweh Tengah, Kabupaten Barito Utara, Kalimantan Tengah 73814","Lemo II, Kec. Teweh Tengah, Kabupaten Barito Utara",KALIMANTAN TENGAH,73814.0,Indonesia,,,,-1.004466,114.827339,https://maps.google.com/?cid=0x0:0xa7869a83ede0c8b0,
mall,Komplek perumahan,Tewei Sho,"Gg. Kolam Pipit No.31kel, Melayu, Kec. Teweh Tengah, Kabupaten Barito Utara, Kalimantan Tengah 73814","Melayu, Kec. Teweh Tengah, Kabupaten Barito Utara",KALIMANTAN TENGAH,73814.0,Indonesia,85820555022.0,,,-0.957489,114.902336,https://maps.google.com/?cid=0x0:0x486c6d0902d18d2d,
mall,Toko Pakaian,Ditha shop,"jl. taman remaja sabui 1, gang putra, Lanjas, Kec. Teweh Tengah, Kabupaten Barito Utara, Kalimantan Tengah 73814","gang putra, Lanjas, Kec. Teweh Tengah, Kabupaten Barito Utara",KALIMANTAN TENGAH,73814.0,Indonesia,85248355151.0,,,-0.943885,114.89504,https://maps.google.com/?cid=0x0:0x296fc926118df7a0,
mall,Toko Pakaian,Mother Pray Distro  Sepatu,"Jl. Merak No.rt 18 no 64, Melayu, Kec. Teweh Tengah, Kabupaten Barito Utara, Kalimantan Tengah 73814","Melayu, Kec. Teweh Tengah, Kabupaten Barito Utara",KALIMANTAN TENGAH,73814.0,Indonesia,,,,-0.9565989,114.9050867,https://maps.google.com/?cid=0x0:0x6613716b59bd057f,
mall,Toko Buku,Galeri Mr.Murdani North Barito(Oleh Oleh Khas Tewei),"Jl Cempaka Raya No.Rt 10, Jambu, Kec, Jambu, Kec. Teweh Baru, Kabupaten Barito Utara, Kalimantan Tengah 73813","Jambu, Kec, Jambu, Kec. Teweh Baru, Kabupaten Barito Utara",KALIMANTAN TENGAH,73813.0,Indonesia,81255346131.0,,,-0.9635305,114.9079563,https://maps.google.com/?cid=0x0:0x95bb619d027573ad,
mall,Pusat Perbelanjaan,Kedai Terass8,"3V2W+885, Jl. Pramuka, Lanjas, Kec. Teweh Tengah, Kabupaten Barito Utara, Kalimantan Tengah 73814","Jl. Pramuka, Lanjas, Kec. Teweh Tengah, Kabupaten Barito Utara",KALIMANTAN TENGAH,73814.0,Indonesia,81250131411.0,,,-0.949243,114.8958713,https://maps.google.com/?cid=0x0:0xd281a19022bbda06,
mall,mall,Kalimantan Tengah 73881,"Kabupaten Barito Utara, Kalimantan Tengah","Kabupaten Barito Utara, Kalimantan Tengah",KALIMANTAN TENGAH,,Indonesia,,,,-1.0257651,115.3785719,https://maps.google.com/?cid=0x0:0x8bd4f30ba12eadec,
mall,Toko Kesehatan dan Kecantikan,Pusat Crystal X Nasa Teweh,"Jl. Flores No.RT 10, Melayu, Kec. Teweh Tengah, Kabupaten Barito Utara, Kalimantan Tengah 73814","Melayu, Kec. Teweh Tengah, Kabupaten Barito Utara",KALIMANTAN TENGAH,73814.0,Indonesia,81253557098.0,,,-0.9593092,114.9049411,https://maps.google.com/?cid=0x0:0x6eb0b10d354a9dd2,
mall,Pusat Perbelanjaan,Stokis Yunie HPAI,"V4V4+F92, Sikui, Kec. Teweh Tengah, Kabupaten Barito Utara, Kalimantan Tengah 73862","Sikui, Kec. Teweh Tengah, Kabupaten Barito Utara",KALIMANTAN TENGAH,73862.0,Indonesia,81275940331.0,,,-1.1063517,115.1059054,https://maps.google.com/?cid=0x0:0x6e56683420c73fba,
mall,Sekolah,Muara teweh,"2WJ4+W5, Jingah, Kec. Teweh Baru, Kabupaten Barito Utara, Kalimantan Tengah 73814","Jingah, Kec. Teweh Baru, Kabupaten Barito Utara",KALIMANTAN TENGAH,73814.0,Indonesia,81649058791.0,,,-0.96777,114.9055356,https://maps.google.com/?cid=0x0:0x2c4c3ef202ce329f,
mall,mall,Kec. Tewen Selatan,"Kabupaten Barito Utara, Kalimantan Tengah","Kabupaten Barito Utara, Kalimantan Tengah",KALIMANTAN TENGAH,,Indonesia,,,,-1.0409446,114.8984173,https://maps.google.com/?cid=0x0:0x9c139c9a4035a708,
mall,Pusat Perbelanjaan,mall shopping center mtw,"3V3V+P2W, Jl. Panti Ajar, Lanjas, Kec. Teweh Tengah, Kabupaten Barito Utara, Kalimantan Tengah 73814","Jl. Panti Ajar, Lanjas, Kec. Teweh Tengah, Kabupaten Barito Utara",KALIMANTAN TENGAH,73814.0,Indonesia,,,,-0.9715883,114.8853009,https://maps.google.com/?cid=0x0:0x399c6991586aba21,
mall,Toko Buku,Shopping Mania,"2WR2+9V9, Jl. Tumenggung Surapati, Melayu, Kec. Teweh Tengah, Kabupaten Barito Utara, Kalimantan Tengah 73814","Jl. Tumenggung Surapati, Melayu, Kec. Teweh Tengah, Kabupaten Barito Utara",KALIMANTAN TENGAH,73814.0,Indonesia,,,,-0.9590816,114.902233,https://maps.google.com/?cid=0x0:0x37d9ed0786322347,
mall,Pasar,Pasar pbb,"2VPQ+33C, Jl. Akasia, Lanjas, Kec. Teweh Tengah, Kabupaten Barito Utara, Kalimantan Tengah 73814","Jl. Akasia, Lanjas, Kec. Teweh Tengah, Kabupaten Barito Utara",KALIMANTAN TENGAH,73814.0,Indonesia,,,,-0.9648172,114.8876402,https://maps.google.com/?cid=0x0:0xaa76c86a0c4ef5b9,
mall,Toko Tahu,Nano,"Jl. Yetro Sinseng No.8, Lanjas, Kec. Teweh Tengah, Kabupaten Barito Utara, Kalimantan Tengah 73814","Lanjas, Kec. Teweh Tengah, Kabupaten Barito Utara",KALIMANTAN TENGAH,73814.0,Indonesia,85248440314.0,,,-0.9623912,114.8879749,https://maps.google.com/?cid=0x0:0xe26607df41bb87b6,
mall,Toko,Optik Fashion Muara teweh,"Lanjas, Kec. Teweh Tengah, Kabupaten Barito Utara, Kalimantan Tengah 73814","Kec. Teweh Tengah, Kabupaten Barito Utara",KALIMANTAN TENGAH,73814.0,Indonesia,85251851710.0,,,-0.9616878,114.8954072,https://maps.google.com/?cid=0x0:0xfc23139ef34f38dd,
mall,,Hobby Shop,"2VMQ+H5P, Jl. Akasia, Lanjas, Kec. Teweh Tengah, Kabupaten Barito Utara, Kalimantan Tengah 73814","Jl. Akasia, Lanjas, Kec. Teweh Tengah, Kabupaten Barito Utara",KALIMANTAN TENGAH,73814.0,Indonesia,85651393159.0,,,-0.9660482,114.8879516,https://maps.google.com/?cid=0x0:0x1e02537424c2d683,
mall,Toko Perlengkapan Rumah,Bintang Asia Jotun,"2VPQ+R6X, Lanjas, Kec. Teweh Tengah, Kabupaten Barito Utara, Kalimantan Tengah 73814","Lanjas, Kec. Teweh Tengah, Kabupaten Barito Utara",KALIMANTAN TENGAH,73814.0,Indonesia,85390869333.0,,,-0.9628929,114.8881186,https://maps.google.com/?cid=0x0:0x5eab1b23795e016f,
mall,Toko Elektronik,azacell,"VX73+XCQ, Jl. H. A. Dj. Nihin, Pandran Permai, Kec. Teweh Tengah, Kabupaten Barito Utara, Kalimantan Tengah 73861","Jl. H. A. Dj. Nihin, Pandran Permai, Kec. Teweh Tengah, Kabupaten Barito Utara",KALIMANTAN TENGAH,73861.0,Indonesia,81349737629.0,,,-1.1350407,114.9535997,https://maps.google.com/?cid=0x0:0x862ff8c7705a8121,
mall,Kantor Perusahaan,Ozan Borneo Perkasa,"2VMW+X33, Lanjas, Kec. Teweh Tengah, Kabupaten Barito Utara, Kalimantan Tengah 73814","Lanjas, Kec. Teweh Tengah, Kabupaten Barito Utara",KALIMANTAN TENGAH,73814.0,Indonesia,82254154234.0,,,-0.9651205,114.8951832,https://maps.google.com/?cid=0x0:0xafa41eab44c91625,
mall,Toko,MURWAJI TOKO,"2WQ2+HW7, Jl. Perwira, Melayu, Kec. Teweh Tengah, Kabupaten Barito Utara, Kalimantan Tengah 73814","Jl. Perwira, Melayu, Kec. Teweh Tengah, Kabupaten Barito Utara",KALIMANTAN TENGAH,73814.0,Indonesia,82155609375.0,,,-0.9610865,114.9022873,https://maps.google.com/?cid=0x0:0xd191e26331c0c2e1,
mall,Komplek perumahan,Tewei Sho,"Gg. Kolam Pipit No.31kel, Melayu, Kec. Teweh Tengah, Kabupaten Barito Utara, Kalimantan Tengah 73814","Melayu, Kec. Teweh Tengah, Kabupaten Barito Utara",KALIMANTAN TENGAH,73814.0,Indonesia,85820555022.0,,,-0.957489,114.902336,https://maps.google.com/?cid=0x0:0x486c6d0902d18d2d,
mall,Komplek perumahan,Gedung PC.NU Barito Utara,"2VQW+976, Jl. Yetro Sinseng, Lanjas, Kec. Teweh Tengah, Kabupaten Barito Utara, Kalimantan Tengah 73814","Jl. Yetro Sinseng, Lanjas, Kec. Teweh Tengah, Kabupaten Barito Utara",KALIMANTAN TENGAH,73814.0,Indonesia,,,,-0.9615774,114.8956483,https://maps.google.com/?cid=0x0:0x24ce7d3fba36b90d,
mall,Pusat Perbelanjaan,IMART SHOP (SEMBAKO - ES KRISTAL - AIR MINUM ISI ULANG),"Lanjas, Kec. Teweh Tengah, Kabupaten Barito Utara, Kalimantan Tengah 73814","Kec. Teweh Tengah, Kabupaten Barito Utara",KALIMANTAN TENGAH,73814.0,Indonesia,85828708280.0,,,-0.9473487,114.8969835,https://maps.google.com/?cid=0x0:0x29e616ecd068af55,
mall,Bengkel Sepeda Motor,BENGKEL BMS,"2VQR+99M, Jl. Yetro Sinseng, Lanjas, Kec. Teweh Tengah, Kabupaten Barito Utara, Kalimantan Tengah 73814","Jl. Yetro Sinseng, Lanjas, Kec. Teweh Tengah, Kabupaten Barito Utara",KALIMANTAN TENGAH,73814.0,Indonesia,,,,-0.9615319,114.8909211,https://maps.google.com/?cid=0x0:0x492a68f5c1c3ff9b,
mall,Toko Komputer,N23 HOME SHOPPING,"Jln Negara KM. 7 Komplek Salsabila 2, Kalimantan Tengah 73811","Kabupaten Barito Utara, Kalimantan Tengah",KALIMANTAN TENGAH,,Indonesia,81255424307.0,,,-0.9795383,114.8889695,https://maps.google.com/?cid=0x0:0x1eb1c6d7dbd0655a,
mall,Pusat Perbelanjaan,RAZKA SHOP,"Jl. Yetro Sinseng No.65, Lanjas, Kec. Teweh Tengah, Kabupaten Barito Utara, Kalimantan Tengah 73814","Lanjas, Kec. Teweh Tengah, Kabupaten Barito Utara",KALIMANTAN TENGAH,73814.0,Indonesia,,,,-0.9643591,114.8900552,https://maps.google.com/?cid=0x0:0x74c20b7703d972b2,
mall,Pusat Perbelanjaan,"Dunia Kado, Muara Teweh","3V2W+WJJ, Jl. Pramuka, Lanjas, Kec. Teweh Tengah, Kabupaten Barito Utara, Kalimantan Tengah 73814","Jl. Pramuka, Lanjas, Kec. Teweh Tengah, Kabupaten Barito Utara",KALIMANTAN TENGAH,73814.0,Indonesia,81258676858.0,,,-0.9476508,114.8965066,https://maps.google.com/?cid=0x0:0x10add7d409a58aa3,
mall,Toko,SEMBAKO BILQiS,"2VGW+4FX, Jl. Lintas Kalimantan Poros Tengah, Jingah, Kec. Teweh Tengah, Kabupaten Barito Utara, Kalimantan Tengah 73814","Jl. Lintas Kalimantan Poros Tengah, Jingah, Kec. Teweh Tengah, Kabupaten Barito Utara",KALIMANTAN TENGAH,73814.0,Indonesia,,,,-0.9746257,114.8962398,https://maps.google.com/?cid=0x0:0xaa7c4031581cbebb,
mall,Pusat Perbelanjaan,HNIHPAI,"2VQV+J3M, Lanjas, Kec. Teweh Tengah, Kabupaten Barito Utara, Kalimantan Tengah 73814","Lanjas, Kec. Teweh Tengah, Kabupaten Barito Utara",KALIMANTAN TENGAH,73814.0,Indonesia,85249047600.0,,,-0.9609214,114.8926565,https://maps.google.com/?cid=0x0:0xa1a0de22acec0b21,
mall,mall,Kalimantan Tengah 73811,"Juju Baru, Kec. Lahei, Kabupaten Barito Utara, Kalimantan Tengah","Kabupaten Barito Utara, Kalimantan Tengah",KALIMANTAN TENGAH,,Indonesia,,,,-0.8295559,114.9872821,https://maps.google.com/?cid=0x0:0x483ad48a5b01a50d,
mall,Toko Kesehatan dan Kecantikan,Pusat Crystal X Nasa Teweh,"Jl. Flores No.RT 10, Melayu, Kec. Teweh Tengah, Kabupaten Barito Utara, Kalimantan Tengah 73814","Melayu, Kec. Teweh Tengah, Kabupaten Barito Utara",KALIMANTAN TENGAH,73814.0,Indonesia,81253557098.0,,,-0.9593092,114.9049411,https://maps.google.com/?cid=0x0:0x6eb0b10d354a9dd2,
mall,Kontraktor Umum,Tiara Batara,"2VWX+PCC, Melayu, Kec. Teweh Tengah, Kabupaten Barito Utara, Kalimantan Tengah 73814","Melayu, Kec. Teweh Tengah, Kabupaten Barito Utara",KALIMANTAN TENGAH,73814.0,Indonesia,,,,-0.9531876,114.8985245,https://maps.google.com/?cid=0x0:0x294007da82d14e3c,
mall,Taman bermain,Taman Kota Muara Teweh,"2VVW+858, Lanjas, Kec. Teweh Tengah, Kabupaten Barito Utara, Kalimantan Tengah 73814","Lanjas, Kec. Teweh Tengah, Kabupaten Barito Utara",KALIMANTAN TENGAH,73814.0,Indonesia,,,,-0.9567203,114.8954467,https://maps.google.com/?cid=0x0:0x3d2305642825d4f8,
mall,Pusat Perbelanjaan,Afdal wildan,"Lahei II, Kec. Lahei, Kabupaten Barito Utara, Kalimantan Tengah","Kabupaten Barito Utara, Kalimantan Tengah",KALIMANTAN TENGAH,,Indonesia,85654238723.0,,,-0.8667245,114.9309122,https://maps.google.com/?cid=0x0:0x2c988141c6aee5b5,
mall,Pembangunan Perumahan,Pararawen Conservation Area,"2RHH+RF6, Unnamed Road, Lemo II, Kec. Teweh Tengah, Kabupaten Barito Utara, Kalimantan Tengah 73814","Unnamed Road, Lemo II, Kec. Teweh Tengah, Kabupaten Barito Utara",KALIMANTAN TENGAH,73814.0,Indonesia,,,,-0.970474,114.8286536,https://maps.google.com/?cid=0x0:0x45e2612fa3bf38a7,
mall,Kantor Perusahaan,Setda Kabupaten Barito Utara,"76, Jalan Jendral A. Yani No. 1, Melayu, Kec. Teweh Tengah, Kabupaten Barito Utara, Kalimantan Tengah 73814","Jalan Jendral A. Yani No. 1, Melayu, Kec. Teweh Tengah, Kabupaten Barito Utara",KALIMANTAN TENGAH,73814.0,Indonesia,,,,-0.9525232,114.8985862,https://maps.google.com/?cid=0x0:0xee696378a08146be,
mall,Kantor Pemerintah,Kantor Bupati Barito Utara,"2VXX+3F2, Jl. Ahmad Yani, Lanjas, Kec. Teweh Tengah, Kabupaten Barito Utara, Kalimantan Tengah 73814","Jl. Ahmad Yani, Lanjas, Kec. Teweh Tengah, Kabupaten Barito Utara",KALIMANTAN TENGAH,73814.0,Indonesia,51921120.0,,,-0.9523717,114.8986449,https://maps.google.com/?cid=0x0:0x2f01330190597aeb,
mall,Pusat Perbelanjaan,Palangkaraya Mall (Palma),"Jl. Tjilik Riwut No.1, Palangka, Kec. Jekan Raya, Kota Palangka Raya, Kalimantan Tengah 74874","Palangka, Kec. Jekan Raya, Kota Palangka Raya",KALIMANTAN TENGAH,74874.0,Indonesia,,,,-2.2065433,113.9154004,https://maps.google.com/?cid=0x0:0xe30705d17366c7e0,
mall,Pusat Perbelanjaan,Duta Mall Palangka Raya,"QW2F+G58, Langkai, Kec. Pahandut, Kota Palangka Raya, Kalimantan Tengah 74874","Langkai, Kec. Pahandut, Kota Palangka Raya",KALIMANTAN TENGAH,74874.0,Indonesia,,,,-2.248704,113.922958,https://maps.google.com/?cid=0x0:0xd4fe13501def807f,
mall,Tempat Ibadah,Masjid H. Muhammad Sidik Islamic Center Muara Tewah,"2WP4+GFX, Jambu, Kec. Teweh Baru, Kabupaten Barito Utara, Kalimantan Tengah 73813","Jambu, Kec. Teweh Baru, Kabupaten Barito Utara",KALIMANTAN TENGAH,73813.0,Indonesia,85787710924.0,,,-0.9636464,114.9062347,https://maps.google.com/?cid=0x0:0x8f00d09e5fb398fe,
mall,Toko,WaletDaha BRILink,"4WJM+25, Lahei II, Kec. Lahei, Kabupaten Barito Utara, Kalimantan Tengah","Kabupaten Barito Utara, Kalimantan Tengah",KALIMANTAN TENGAH,,Indonesia,81258713645.0,,,-0.8700171,114.9329651,https://maps.google.com/?cid=0x0:0xbbc2cf8a3032fe9c,
mall,Kantor Pemerintah,KPU BARITO UTARA,"3V2X+JRV, Melayu, Kec. Teweh Tengah, Kabupaten Barito Utara, Kalimantan Tengah 73814","Melayu, Kec. Teweh Tengah, Kabupaten Barito Utara",KALIMANTAN TENGAH,73814.0,Indonesia,,,,-0.9483757,114.8995421,https://maps.google.com/?cid=0x0:0x11cc7d7a428e20a9,
mall,Musala,Koperasi Mula Membangun Lahei 2,"4WJH+WXG, Lahei II, Kec. Lahei, Kabupaten Barito Utara, Kalimantan Tengah 73814","Lahei II, Kec. Lahei, Kabupaten Barito Utara",KALIMANTAN TENGAH,73814.0,Indonesia,85349242179.0,,,-0.8676769,114.9299592,https://maps.google.com/?cid=0x0:0xe6e08511d6cdc36f,
mall,Sekolah Dasar,MIN 1 Melayu Muara Teweh,"2VQX+888, Lanjas, Kec. Teweh Tengah, Kabupaten Barito Utara, Kalimantan Tengah 73814","Lanjas, Kec. Teweh Tengah, Kabupaten Barito Utara",KALIMANTAN TENGAH,73814.0,Indonesia,51921703.0,,,-0.9617103,114.8983286,https://maps.google.com/?cid=0x0:0x886615a7024c1699,
mall,Layanan Transportasi,Sub agent jt lahei,"Jl.padat karya No.RT.007, Lahei II, Kec. Lahei, Kabupaten Barito Utara, Kalimantan Tengah 73814","Lahei II, Kec. Lahei, Kabupaten Barito Utara",KALIMANTAN TENGAH,73814.0,Indonesia,,,,-0.8667245,114.9309122,https://maps.google.com/?cid=0x0:0xd1ba31e1bb2f9eef,
mall,mall,Bengkel Lingkar Kota,"Jl. Ringroad, Lanjas, Kec. Teweh Tengah, Kabupaten Barito Utara, Kalimantan Tengah 73814","Lanjas, Kec. Teweh Tengah, Kabupaten Barito Utara",KALIMANTAN TENGAH,73814.0,Indonesia,85753184421.0,,,-0.9375014,114.8774537,https://maps.google.com/?cid=0x0:0xd8ae04ea03ec9467,
mall,Pusat Perbelanjaan,Warung Al-Ghany 78,"6W3Q+9JQ, Jl. Pelajar, Luwe Hulu, Kec. Lahei Barat, Kabupaten Barito Utara, Kalimantan Tengah 73812","Jl. Pelajar, Luwe Hulu, Kec. Lahei Barat, Kabupaten Barito Utara",KALIMANTAN TENGAH,73812.0,Indonesia,81528773332.0,,,-0.7965409,114.9391106,https://maps.google.com/?cid=0x0:0x2817f479cfaa7e4e,
mall,mall,CELCIUS MUARA TEWEH,"Jl. Tumenggung Surapati No.76, Melayu, Kec. Teweh Tengah, Kabupaten Barito Utara, Kalimantan Tengah 73811","Melayu, Kec. Teweh Tengah, Kabupaten Barito Utara",KALIMANTAN TENGAH,73811.0,Indonesia,,,,-0.9594268,114.9001021,https://maps.google.com/?cid=0x0:0x5168868b5feb4f1a,
mall,Toko Roti,Jajanan,"2WR3+9M6, Jl. Merak, Melayu, Kec. Teweh Tengah, Kabupaten Barito Utara, Kalimantan Tengah 73814","Jl. Merak, Melayu, Kec. Teweh Tengah, Kabupaten Barito Utara",KALIMANTAN TENGAH,73814.0,Indonesia,,,,-0.9590975,114.9041383,https://maps.google.com/?cid=0x0:0xc464b551cda449e4,
mall,Kantor Pemerintah Kota,Muara Teweh,"2VWW+27C, Melayu, Kec. Teweh Tengah, Kabupaten Barito Utara, Kalimantan Tengah 73814","Melayu, Kec. Teweh Tengah, Kabupaten Barito Utara",KALIMANTAN TENGAH,73814.0,Indonesia,81345900682.0,,,-0.9549281,114.8956291,https://maps.google.com/?cid=0x0:0xc722ead49bacd1d0,
mall,mall,Hotel Matahari,"JL. Tumenggung Surapati, Melayu, Teweh Tengah, 73811, Melayu, Kec. Teweh Tengah, Kabupaten Barito Utara, Kalimantan Tengah 73814","Melayu, Teweh Tengah,",KALIMANTAN TENGAH,73811.0,Indonesia,51921103.0,,,-0.9589617,114.9005487,https://maps.google.com/?cid=0x0:0x72c3250b8b65e416,
mall,mall,Hotel Walet,"Jl. Tumenggung Surapati No.RT. 12A, Melayu, Kec. Teweh Tengah, Kabupaten Barito Utara, Kalimantan Tengah 73814","Melayu, Kec. Teweh Tengah, Kabupaten Barito Utara",KALIMANTAN TENGAH,73814.0,Indonesia,,,,-0.9589699,114.9003342,https://maps.google.com/?cid=0x0:0xfa44d12c1bf92675,
mall,Jembatan,"Jembatan K.H. Hasan Basri, Muara Teweh","2VMM+WVP, Jl. Yetro Sinseng, Lanjas, Kec. Teweh Tengah, Kabupaten Barito Utara, Kalimantan Tengah 73814","Jl. Yetro Sinseng, Lanjas, Kec. Teweh Tengah, Kabupaten Barito Utara",KALIMANTAN TENGAH,73814.0,Indonesia,82238919589.0,,,-0.9651577,114.8847101,https://maps.google.com/?cid=0x0:0xc4fa236c70549865,
mall,Gereja Evangelis,"Gereja Katolik Paroki St. Maria de la Salette, Muara Teweh","Jalan Cempaka Putih No.50, Lanjas, Teweh Tengah, Melayu, Kec. Teweh Tengah, Kabupaten Barito Utara, Kalimantan Tengah 73814","Lanjas, Teweh Tengah, Melayu, Kec. Teweh Tengah, Kabupaten Barito Utara",KALIMANTAN TENGAH,73814.0,Indonesia,51921215.0,,,-0.9551045,114.9067254,https://maps.google.com/?cid=0x0:0x991d0ac10cbeda67,
mall,Toko Pakaian,TOKO MUHAJIR,"Samping Gerbang MIN 1 BARUT, Jl. Manggis No.14, Lanjas, Kec. Teweh Tengah, Kabupaten Barito Utara, Kalimantan Tengah 73811","Jl. Manggis No.14, Lanjas, Kec. Teweh Tengah, Kabupaten Barito Utara",KALIMANTAN TENGAH,73811.0,Indonesia,81347162644.0,,,-0.9618143,114.8983164,https://maps.google.com/?cid=0x0:0x969abc9eab4cf78b,
mall,mall,Kalimantan Tengah 73812,"Kabupaten Barito Utara, Kalimantan Tengah","Kabupaten Barito Utara, Kalimantan Tengah",KALIMANTAN TENGAH,,Indonesia,,,,-0.8255092,114.945754,https://maps.google.com/?cid=0x0:0xaf5eb4cc7e2c2286,
mall,Toko Kesehatan dan Kecantikan,Pusat Crystal X Nasa Teweh,"Jl. Flores No.RT 10, Melayu, Kec. Teweh Tengah, Kabupaten Barito Utara, Kalimantan Tengah 73814","Melayu, Kec. Teweh Tengah, Kabupaten Barito Utara",KALIMANTAN TENGAH,73814.0,Indonesia,81253557098.0,,,-0.9593092,114.9049411,https://maps.google.com/?cid=0x0:0x6eb0b10d354a9dd2,
mall,Komplek perumahan,Tewei Sho,"Gg. Kolam Pipit No.31kel, Melayu, Kec. Teweh Tengah, Kabupaten Barito Utara, Kalimantan Tengah 73814","Melayu, Kec. Teweh Tengah, Kabupaten Barito Utara",KALIMANTAN TENGAH,73814.0,Indonesia,85820555022.0,,,-0.957489,114.902336,https://maps.google.com/?cid=0x0:0x486c6d0902d18d2d,
mall,Pusat Perbelanjaan,Warung Al-Ghany 78,"6W3Q+9JQ, Jl. Pelajar, Luwe Hulu, Kec. Lahei Barat, Kabupaten Barito Utara, Kalimantan Tengah 73812","Jl. Pelajar, Luwe Hulu, Kec. Lahei Barat, Kabupaten Barito Utara",KALIMANTAN TENGAH,73812.0,Indonesia,81528773332.0,,,-0.7965409,114.9391106,https://maps.google.com/?cid=0x0:0x2817f479cfaa7e4e,
mall,Taman bermain,Taman Kota Muara Teweh,"2VVW+858, Lanjas, Kec. Teweh Tengah, Kabupaten Barito Utara, Kalimantan Tengah 73814","Lanjas, Kec. Teweh Tengah, Kabupaten Barito Utara",KALIMANTAN TENGAH,73814.0,Indonesia,,,,-0.9567203,114.8954467,https://maps.google.com/?cid=0x0:0x3d2305642825d4f8,
mall,Restoran,TALA COFFEE AND EATERY,"2VWP+H5, Lanjas, Kec. Teweh Tengah, Kabupaten Barito Utara, Kalimantan Tengah","Kabupaten Barito Utara, Kalimantan Tengah",KALIMANTAN TENGAH,,Indonesia,,,,-0.9535925,114.8854631,https://maps.google.com/?cid=0x0:0x4b74965aec5eef7e,
mall,Toko Roti,Jajanan,"2WR3+9M6, Jl. Merak, Melayu, Kec. Teweh Tengah, Kabupaten Barito Utara, Kalimantan Tengah 73814","Jl. Merak, Melayu, Kec. Teweh Tengah, Kabupaten Barito Utara",KALIMANTAN TENGAH,73814.0,Indonesia,,,,-0.9590975,114.9041383,https://maps.google.com/?cid=0x0:0xc464b551cda449e4,
mall,Musala,Koperasi Mula Membangun Lahei 2,"4WJH+WXG, Lahei II, Kec. Lahei, Kabupaten Barito Utara, Kalimantan Tengah 73814","Lahei II, Kec. Lahei, Kabupaten Barito Utara",KALIMANTAN TENGAH,73814.0,Indonesia,85349242179.0,,,-0.8676769,114.9299592,https://maps.google.com/?cid=0x0:0xe6e08511d6cdc36f,
mall,Layanan Transportasi,Sub agent jt lahei,"Jl.padat karya No.RT.007, Lahei II, Kec. Lahei, Kabupaten Barito Utara, Kalimantan Tengah 73814","Lahei II, Kec. Lahei, Kabupaten Barito Utara",KALIMANTAN TENGAH,73814.0,Indonesia,,,,-0.8667245,114.9309122,https://maps.google.com/?cid=0x0:0xd1ba31e1bb2f9eef,
mall,Toko,WaletDaha BRILink,"4WJM+25, Lahei II, Kec. Lahei, Kabupaten Barito Utara, Kalimantan Tengah","Kabupaten Barito Utara, Kalimantan Tengah",KALIMANTAN TENGAH,,Indonesia,81258713645.0,,,-0.8700171,114.9329651,https://maps.google.com/?cid=0x0:0xbbc2cf8a3032fe9c,
mall,mall,CELCIUS MUARA TEWEH,"Jl. Tumenggung Surapati No.76, Melayu, Kec. Teweh Tengah, Kabupaten Barito Utara, Kalimantan Tengah 73811","Melayu, Kec. Teweh Tengah, Kabupaten Barito Utara",KALIMANTAN TENGAH,73811.0,Indonesia,,,,-0.9594268,114.9001021,https://maps.google.com/?cid=0x0:0x5168868b5feb4f1a,
mall,mall,Toko Mama Agus,"6W3P+VVR, Luwe Hulu, Kec. Lahei Barat, Kabupaten Barito Utara, Kalimantan Tengah 73812","Luwe Hulu, Kec. Lahei Barat, Kabupaten Barito Utara",KALIMANTAN TENGAH,73812.0,Indonesia,,,,-0.7951646,114.9369565,https://maps.google.com/?cid=0x0:0xf5c051307033d296,
mall,Toko Tahu,Nano,"Jl. Yetro Sinseng No.8, Lanjas, Kec. Teweh Tengah, Kabupaten Barito Utara, Kalimantan Tengah 73814","Lanjas, Kec. Teweh Tengah, Kabupaten Barito Utara",KALIMANTAN TENGAH,73814.0,Indonesia,85248440314.0,,,-0.9623912,114.8879749,https://maps.google.com/?cid=0x0:0xe26607df41bb87b6,
mall,mall,Kalimantan Tengah 73814,"Kabupaten Barito Utara, Kalimantan Tengah","Kabupaten Barito Utara, Kalimantan Tengah",KALIMANTAN TENGAH,,Indonesia,,,,-0.8914468,114.8092691,https://maps.google.com/?cid=0x0:0xb5548f39346751af,
mall,Pasar,pasar pertokoan,"2WR4+763, Melayu, Kec. Teweh Tengah, Kabupaten Barito Utara, Kalimantan Tengah 73814","Melayu, Kec. Teweh Tengah, Kabupaten Barito Utara",KALIMANTAN TENGAH,73814.0,Indonesia,,,,-0.9593629,114.9055348,https://maps.google.com/?cid=0x0:0x1d4b24b1a9d118a7,
mall,Toko outlet,AGRetail Hub Barito Utara,"2VRX+2M6, Lanjas, Kec. Teweh Tengah, Kabupaten Barito Utara, Kalimantan Tengah 73814","Lanjas, Kec. Teweh Tengah, Kabupaten Barito Utara",KALIMANTAN TENGAH,73814.0,Indonesia,85348297700.0,,,-0.959961,114.8991477,https://maps.google.com/?cid=0x0:0x743eb64743eff40,
mall,Toko,Optik Fashion Muara teweh,"Lanjas, Kec. Teweh Tengah, Kabupaten Barito Utara, Kalimantan Tengah 73814","Kec. Teweh Tengah, Kabupaten Barito Utara",KALIMANTAN TENGAH,73814.0,Indonesia,85251851710.0,,,-0.9616878,114.8954072,https://maps.google.com/?cid=0x0:0xfc23139ef34f38dd,
mall,Toko Tahu,Nano,"Jl. Yetro Sinseng No.8, Lanjas, Kec. Teweh Tengah, Kabupaten Barito Utara, Kalimantan Tengah 73814","Lanjas, Kec. Teweh Tengah, Kabupaten Barito Utara",KALIMANTAN TENGAH,73814.0,Indonesia,85248440314.0,,,-0.9623912,114.8879749,https://maps.google.com/?cid=0x0:0xe26607df41bb87b6,
mall,Toko Kesehatan dan Kecantikan,Pusat Crystal X Nasa Teweh,"Jl. Flores No.RT 10, Melayu, Kec. Teweh Tengah, Kabupaten Barito Utara, Kalimantan Tengah 73814","Melayu, Kec. Teweh Tengah, Kabupaten Barito Utara",KALIMANTAN TENGAH,73814.0,Indonesia,81253557098.0,,,-0.9593092,114.9049411,https://maps.google.com/?cid=0x0:0x6eb0b10d354a9dd2,
mall,,Hobby Shop,"2VMQ+H5P, Jl. Akasia, Lanjas, Kec. Teweh Tengah, Kabupaten Barito Utara, Kalimantan Tengah 73814","Jl. Akasia, Lanjas, Kec. Teweh Tengah, Kabupaten Barito Utara",KALIMANTAN TENGAH,73814.0,Indonesia,85651393159.0,,,-0.9660482,114.8879516,https://maps.google.com/?cid=0x0:0x1e02537424c2d683,
mall,Pusat Perbelanjaan,"Dunia Kado, Muara Teweh","3V2W+WJJ, Jl. Pramuka, Lanjas, Kec. Teweh Tengah, Kabupaten Barito Utara, Kalimantan Tengah 73814","Jl. Pramuka, Lanjas, Kec. Teweh Tengah, Kabupaten Barito Utara",KALIMANTAN TENGAH,73814.0,Indonesia,81258676858.0,,,-0.9476508,114.8965066,https://maps.google.com/?cid=0x0:0x10add7d409a58aa3,
mall,mall,Kenan Stationery,"2WV3+5WH, Jl. Merak, Melayu, Kec. Teweh Tengah, Kabupaten Barito Utara, Kalimantan Tengah 73814","Jl. Merak, Melayu, Kec. Teweh Tengah, Kabupaten Barito Utara",KALIMANTAN TENGAH,73814.0,Indonesia,,,,-0.9570582,114.9048535,https://maps.google.com/?cid=0x0:0xae8821129afdd67d,
mall,Kantor Perusahaan,Ozan Borneo Perkasa,"2VMW+X33, Lanjas, Kec. Teweh Tengah, Kabupaten Barito Utara, Kalimantan Tengah 73814","Lanjas, Kec. Teweh Tengah, Kabupaten Barito Utara",KALIMANTAN TENGAH,73814.0,Indonesia,82254154234.0,,,-0.9651205,114.8951832,https://maps.google.com/?cid=0x0:0xafa41eab44c91625,
mall,Toko Perlengkapan Rumah,Bintang Asia Jotun,"2VPQ+R6X, Lanjas, Kec. Teweh Tengah, Kabupaten Barito Utara, Kalimantan Tengah 73814","Lanjas, Kec. Teweh Tengah, Kabupaten Barito Utara",KALIMANTAN TENGAH,73814.0,Indonesia,85390869333.0,,,-0.9628929,114.8881186,https://maps.google.com/?cid=0x0:0x5eab1b23795e016f,
mall,Pusat Perbelanjaan,IMART SHOP (SEMBAKO - ES KRISTAL - AIR MINUM ISI ULANG),"Lanjas, Kec. Teweh Tengah, Kabupaten Barito Utara, Kalimantan Tengah 73814","Kec. Teweh Tengah, Kabupaten Barito Utara",KALIMANTAN TENGAH,73814.0,Indonesia,85828708280.0,,,-0.9473487,114.8969835,https://maps.google.com/?cid=0x0:0x29e616ecd068af55,
mall,Toko Perlengkapan Rumah,Toko karya bersama,"Jl. Panglima Batur, Melayu, Kec. Teweh Tengah, Kabupaten Barito Utara, Kalimantan Tengah 73814","Melayu, Kec. Teweh Tengah, Kabupaten Barito Utara",KALIMANTAN TENGAH,73814.0,Indonesia,,,,-0.9598911,114.9060193,https://maps.google.com/?cid=0x0:0xa88d038c17336b7f,
mall,Toko,MURWAJI TOKO,"2WQ2+HW7, Jl. Perwira, Melayu, Kec. Teweh Tengah, Kabupaten Barito Utara, Kalimantan Tengah 73814","Jl. Perwira, Melayu, Kec. Teweh Tengah, Kabupaten Barito Utara",KALIMANTAN TENGAH,73814.0,Indonesia,82155609375.0,,,-0.9610865,114.9022873,https://maps.google.com/?cid=0x0:0xd191e26331c0c2e1,
mall,Komplek perumahan,Tewei Sho,"Gg. Kolam Pipit No.31kel, Melayu, Kec. Teweh Tengah, Kabupaten Barito Utara, Kalimantan Tengah 73814","Melayu, Kec. Teweh Tengah, Kabupaten Barito Utara",KALIMANTAN TENGAH,73814.0,Indonesia,85820555022.0,,,-0.957489,114.902336,https://maps.google.com/?cid=0x0:0x486c6d0902d18d2d,
mall,Toko Pakaian,Ditha shop,"jl. taman remaja sabui 1, gang putra, Lanjas, Kec. Teweh Tengah, Kabupaten Barito Utara, Kalimantan Tengah 73814","gang putra, Lanjas, Kec. Teweh Tengah, Kabupaten Barito Utara",KALIMANTAN TENGAH,73814.0,Indonesia,85248355151.0,,,-0.943885,114.89504,https://maps.google.com/?cid=0x0:0x296fc926118df7a0,
mall,Pusat Perbelanjaan,Warung Sayur 24 Jam Muara Teweh,"3V7Q+2WG, Jl. Pendreh , Jl. Simpang Wonorejo, Lanjas, Kec. Teweh Tengah, Kabupaten Barito Utara, Kalimantan Tengah 73814","Jl. Pendreh , Jl. Simpang Wonorejo, Lanjas, Kec. Teweh Tengah, Kabupaten Barito Utara",KALIMANTAN TENGAH,73814.0,Indonesia,81352658519.0,,,-0.9374257,114.889838,https://maps.google.com/?cid=0x0:0xdd78950a634c8a4d,
mall,Komplek perumahan,Komplek Pasar Lemo 2,"XRWG+6W8, Lemo II, Kec. Teweh Tengah, Kabupaten Barito Utara, Kalimantan Tengah 73814","Lemo II, Kec. Teweh Tengah, Kabupaten Barito Utara",KALIMANTAN TENGAH,73814.0,Indonesia,,,,-1.004466,114.827339,https://maps.google.com/?cid=0x0:0xa7869a83ede0c8b0,
mall,Toko Pakaian,Mother Pray Distro  Sepatu,"Jl. Merak No.rt 18 no 64, Melayu, Kec. Teweh Tengah, Kabupaten Barito Utara, Kalimantan Tengah 73814","Melayu, Kec. Teweh Tengah, Kabupaten Barito Utara",KALIMANTAN TENGAH,73814.0,Indonesia,,,,-0.9565989,114.9050867,https://maps.google.com/?cid=0x0:0x6613716b59bd057f,
mall,Pusat Perbelanjaan,mall shopping center mtw,"3V3V+P2W, Jl. Panti Ajar, Lanjas, Kec. Teweh Tengah, Kabupaten Barito Utara, Kalimantan Tengah 73814","Jl. Panti Ajar, Lanjas, Kec. Teweh Tengah, Kabupaten Barito Utara",KALIMANTAN TENGAH,73814.0,Indonesia,,,,-0.9715883,114.8853009,https://maps.google.com/?cid=0x0:0x399c6991586aba21,
mall,Sekolah menengah,SMAN 1 Teweh Timur,"297F+QQ7, Unnamed Road, Benangin I, Kec. Teweh Tim., Kabupaten Barito Utara, Kalimantan Tengah 73881","Unnamed Road, Benangin I, Kec. Teweh Tim., Kabupaten Barito Utara",KALIMANTAN TENGAH,73881.0,Indonesia,,,,-0.9855794,115.3744369,https://maps.google.com/?cid=0x0:0x26e976a2986251e3,
mall,Sekolah Menengah Atas,SMAN 1 TEWEH BARU,"Sikui, Km.27/34, Kec, Kec. Teweh Baru, Kabupaten Barito Utara, Kalimantan Tengah 73814","Km.27/34, Kec, Kec. Teweh Baru, Kabupaten Barito Utara",KALIMANTAN TENGAH,73814.0,Indonesia,,,,-1.0820069,115.0854963,https://maps.google.com/?cid=0x0:0x4c22913e220d2568,
mall,Pusat Perbelanjaan,Stokis Yunie HPAI,"V4V4+F92, Sikui, Kec. Teweh Tengah, Kabupaten Barito Utara, Kalimantan Tengah 73862","Sikui, Kec. Teweh Tengah, Kabupaten Barito Utara",KALIMANTAN TENGAH,73862.0,Indonesia,81275940331.0,,,-1.1063517,115.1059054,https://maps.google.com/?cid=0x0:0x6e56683420c73fba,
supermarket,supermarket,Kalimantan Tengah 73862,Kalimantan Tengah,Kalimantan Tengah,KALIMANTAN TENGAH,,Indonesia,,,,-1.3062588,115.188916,https://maps.google.com/?cid=0x0:0x13b0d131c6a71cf5,
supermarket,supermarket,Toko Andika Kandui,"P4VC+HHC, Kandui, Kec. Gn. Timang, Kabupaten Barito Utara, Kalimantan Tengah 73862","Kandui, Kec. Gn. Timang, Kabupaten Barito Utara",KALIMANTAN TENGAH,73862.0,Indonesia,,,,-1.2560516,115.1213956,https://maps.google.com/?cid=0x0:0x17d22e9644a3829b,
supermarket,Toko,toko puspa indah,"P4CG+66Q, Jl. Ahmad Yani, Kandui, Kec. Gn. Timang, Kabupaten Barito Utara, Kalimantan Tengah 73862","Jl. Ahmad Yani, Kandui, Kec. Gn. Timang, Kabupaten Barito Utara",KALIMANTAN TENGAH,73862.0,Indonesia,,,,-1.2794106,115.1256243,https://maps.google.com/?cid=0x0:0x6f031e7f07fa204e,
supermarket,supermarket,WARUNG MAMA JIMI,"P3CH+MJG, Majangkan, Kec. Gn. Timang, Kabupaten Barito Utara, Kalimantan Tengah","Kabupaten Barito Utara, Kalimantan Tengah",KALIMANTAN TENGAH,,Indonesia,,,,-1.2783122,115.079064,https://maps.google.com/?cid=0x0:0xc9579be4557ad0dd,
supermarket,Hipermarket,Damai Market,"J7P2+R9J, Ngurit, Kec. Gn. Bintang Awai, Kabupaten Barito Selatan, Kalimantan Tengah 73862","Ngurit, Kec. Gn. Bintang Awai, Kabupaten Barito Selatan",KALIMANTAN TENGAH,73862.0,Indonesia,,,,-1.3629167,115.250905,https://maps.google.com/?cid=0x0:0xa35e3d1518f27aa7,
supermarket,Toko Swalayan,Rodeo Market,"Unnamed Road, Gn. Bintang Awai, 73862, Ngurit, Kec. Gn. Bintang Awai, Kabupaten Barito Selatan, Kalimantan Tengah 73862","Gn. Bintang Awai,",KALIMANTAN TENGAH,73862.0,Indonesia,,,,-1.3629817,115.279405,https://maps.google.com/?cid=0x0:0x9bf839eb5cd33352,
supermarket,Pusat Perbelanjaan,Toko Upik,"Batu Raya 1, Ngurit, Kec. Gn. Bintang Awai, Kabupaten Barito Utara, Kalimantan Tengah 73862","Ngurit, Kec. Gn. Bintang Awai, Kabupaten Barito Utara",KALIMANTAN TENGAH,73862.0,Indonesia,,,,-1.3532734,115.2609192,https://maps.google.com/?cid=0x0:0xd082063fdacfd1b2,
supermarket,supermarket,Kalimantan Tengah 73871,"Kabupaten Barito Utara, Kalimantan Tengah","Kabupaten Barito Utara, Kalimantan Tengah",KALIMANTAN TENGAH,,Indonesia,,,,-1.197196,115.6154732,https://maps.google.com/?cid=0x0:0x6d60d15ecdbf488b,
supermarket,Minimarket,MZ MART,"Jl. Lintas Kalimantan Poros Tengah, Lampeong II, Gn. Purei, Kabupaten Barito Utara, Kalimantan Tengah 73871","Lampeong II, Gn. Purei, Kabupaten Barito Utara",KALIMANTAN TENGAH,73871.0,Indonesia,85252815320.0,,,-1.1372581,115.6071307,https://maps.google.com/?cid=0x0:0x91811dd60c481f87,
supermarket,Toko sembako pemerintah,KEINES FROZEN FOOD LAMPEONG,"VJ73+3GR, Lampeong II, Gn. Purei, Kabupaten Barito Utara, Kalimantan Tengah 73871","Lampeong II, Gn. Purei, Kabupaten Barito Utara",KALIMANTAN TENGAH,73871.0,Indonesia,85393343519.0,,,-1.1373072,115.6037425,https://maps.google.com/?cid=0x0:0x97d1e8597de54ec1,
supermarket,supermarket,Kios Fadlan,"VJ73+3GR, Lampeong II, Gn. Purei, Kabupaten Barito Utara, Kalimantan Tengah 73871","Lampeong II, Gn. Purei, Kabupaten Barito Utara",KALIMANTAN TENGAH,73871.0,Indonesia,,,,-1.1372693,115.6037609,https://maps.google.com/?cid=0x0:0x7be0ba53fbfd3af2,
supermarket,supermarket,Warung mang Agus,"VJ52+854, Lampeong II, Gn. Purei, Kabupaten Barito Utara, Kalimantan Tengah 73871","Lampeong II, Gn. Purei, Kabupaten Barito Utara",KALIMANTAN TENGAH,73871.0,Indonesia,,,,-1.1413352,115.6000694,https://maps.google.com/?cid=0x0:0xd9ccd23a6e568b78,
supermarket,supermarket,Kalimantan Tengah 73852,"Kec. Lahei, Kabupaten Barito Utara, Kalimantan Tengah","Kabupaten Barito Utara, Kalimantan Tengah",KALIMANTAN TENGAH,,Indonesia,,,,-0.6129045,115.188916,https://maps.google.com/?cid=0x0:0xf279ed86a55323d0,
supermarket,Kios,Kios Duta,"6V4R+2JW, Nihan Hilir, Kec. Lahei, Kabupaten Barito Utara, Kalimantan Tengah 73814","Nihan Hilir, Kec. Lahei, Kabupaten Barito Utara",KALIMANTAN TENGAH,73814.0,Indonesia,,,,-0.7948991,114.8915876,https://maps.google.com/?cid=0x0:0x12c1b634e387eb91,
supermarket,Toko,Aara Olshop,"4WJM+4H4, Jl. Sei pamejaan, Lahei II, Kec. Lahei, Kabupaten Barito Utara, Kalimantan Tengah 73814","Jl. Sei pamejaan, Lahei II, Kec. Lahei, Kabupaten Barito Utara",KALIMANTAN TENGAH,73814.0,Indonesia,,,,-0.8697265,114.9339387,https://maps.google.com/?cid=0x0:0xed920836d47851f9,
supermarket,supermarket,Kec. Lahei Barat,"Kabupaten Barito Utara, Kalimantan Tengah","Kabupaten Barito Utara, Kalimantan Tengah",KALIMANTAN TENGAH,,Indonesia,,,,-0.7935062,114.9382498,https://maps.google.com/?cid=0x0:0x5adc4924308bea72,
supermarket,Kios,Kios Duta,"6V4R+2JW, Nihan Hilir, Kec. Lahei, Kabupaten Barito Utara, Kalimantan Tengah 73814","Nihan Hilir, Kec. Lahei, Kabupaten Barito Utara",KALIMANTAN TENGAH,73814.0,Indonesia,,,,-0.7948991,114.8915876,https://maps.google.com/?cid=0x0:0x12c1b634e387eb91,
supermarket,Toko,Aara Olshop,"4WJM+4H4, Jl. Sei pamejaan, Lahei II, Kec. Lahei, Kabupaten Barito Utara, Kalimantan Tengah 73814","Jl. Sei pamejaan, Lahei II, Kec. Lahei, Kabupaten Barito Utara",KALIMANTAN TENGAH,73814.0,Indonesia,,,,-0.8697265,114.9339387,https://maps.google.com/?cid=0x0:0xed920836d47851f9,
supermarket,Toko Makanan,Adibaqua,"3V5P+QVP, Lanjas, Kec. Teweh Tengah, Kabupaten Barito Utara, Kalimantan Tengah 73814","Lanjas, Kec. Teweh Tengah, Kabupaten Barito Utara",KALIMANTAN TENGAH,73814.0,Indonesia,,,,-0.9405415,114.8871992,https://maps.google.com/?cid=0x0:0xe13a5206ac08d47e,
supermarket,Gudang,Minimarket OZ Lantai 2,"Melayu, Kec. Teweh Tengah, Kabupaten Barito Utara, Kalimantan Tengah 73814","Kec. Teweh Tengah, Kabupaten Barito Utara",KALIMANTAN TENGAH,73814.0,Indonesia,,,,-0.9604055,114.9039473,https://maps.google.com/?cid=0x0:0x8f97f5ac762b5617,
supermarket,Toko bahan makanan,Toko Adinda,"3W53+QHG, Jl. Brigjen Katamso, Melayu, Kec. Teweh Tengah, Kabupaten Barito Utara, Kalimantan Tengah 73814","Jl. Brigjen Katamso, Melayu, Kec. Teweh Tengah, Kabupaten Barito Utara",KALIMANTAN TENGAH,73814.0,Indonesia,81349785601.0,,,-0.9405523,114.9039413,https://maps.google.com/?cid=0x0:0x49f77df639f4585a,
supermarket,Pusat Perbelanjaan,TOKO MAIL,"Beriwit, Kec. Murung, Kabupaten Murung Raya, Kalimantan Tengah 73911","Kec. Murung, Kabupaten Murung Raya",KALIMANTAN TENGAH,73911.0,Indonesia,,,,-0.6125253,114.5715587,https://maps.google.com/?cid=0x0:0x50bd59b9e54b3aba,
supermarket,Toko Swalayan,Toko RIFKY,"2VCR+4VW, Unnamed Road, Jingah, Kec. Teweh Tengah, Kabupaten Barito Utara, Kalimantan Tengah 73814","Unnamed Road, Jingah, Kec. Teweh Tengah, Kabupaten Barito Utara",KALIMANTAN TENGAH,73814.0,Indonesia,811521148.0,,,-0.9796372,114.8922079,https://maps.google.com/?cid=0x0:0x247eec9f64048340,
supermarket,Toko Swalayan,kios mahfuzah,"2WR2+P29, Jl. Bangau, Melayu, Kec. Teweh Tengah, Kabupaten Barito Utara, Kalimantan Tengah 73814","Jl. Bangau, Melayu, Kec. Teweh Tengah, Kabupaten Barito Utara",KALIMANTAN TENGAH,73814.0,Indonesia,,,,-0.9582141,114.9000976,https://maps.google.com/?cid=0x0:0xa0cf64db4f6a1d11,
supermarket,Toko bahan makanan,Warung Silvia,"3VVQ+76C, Melayu, Kec. Teweh Tengah, Kabupaten Barito Utara, Kalimantan Tengah 73814","Melayu, Kec. Teweh Tengah, Kabupaten Barito Utara",KALIMANTAN TENGAH,73814.0,Indonesia,,,,-0.9068093,114.8880089,https://maps.google.com/?cid=0x0:0x9dfa42e14744b1d2,
supermarket,Toko bahan makanan,Toko Mama Hengky,"3V9W+7GR, Wonorejo, RT.29, Melayu, Kec. Teweh Tengah, Kabupaten Barito Utara, Kalimantan Tengah 73811","Wonorejo, RT.29, Melayu, Kec. Teweh Tengah, Kabupaten Barito Utara",KALIMANTAN TENGAH,73811.0,Indonesia,81351883881.0,,,-0.9317704,114.8962561,https://maps.google.com/?cid=0x0:0x244e0744e1192a6,
supermarket,supermarket,Toko Lae Mart,"2WR3+XQ2, Jl. Merak, Melayu, Kec. Teweh Tengah, Kabupaten Barito Utara, Kalimantan Tengah 73814","Jl. Merak, Melayu, Kec. Teweh Tengah, Kabupaten Barito Utara",KALIMANTAN TENGAH,73814.0,Indonesia,,,,-0.9576146,114.9043986,https://maps.google.com/?cid=0x0:0x495b6e78d8375b49,
supermarket,Toko Swalayan,Toko zainuddin,"3V5W+2VM, Jl. Pendreh, Melayu, Kec. Teweh Tengah, Kabupaten Barito Utara, Kalimantan Tengah 73814","Jl. Pendreh, Melayu, Kec. Teweh Tengah, Kabupaten Barito Utara",KALIMANTAN TENGAH,73814.0,Indonesia,,,,-0.9424009,114.8971864,https://maps.google.com/?cid=0x0:0xd7da7c6b0cd4cb4,
supermarket,Toko Swalayan,TOKO IBU IJUM LOMBOK,"2WV4+6GC, Jl. Dahlia, Melayu, Kec. Teweh Tengah, Kabupaten Barito Utara, Kalimantan Tengah 73814","Jl. Dahlia, Melayu, Kec. Teweh Tengah, Kabupaten Barito Utara",KALIMANTAN TENGAH,73814.0,Indonesia,85215132894.0,,,-0.9569465,114.9062764,https://maps.google.com/?cid=0x0:0x9b34b15343fe3a22,
supermarket,Pusat Perbelanjaan,Toko Az-Zahra,"Jl. Pertiwi No.31, Melayu, Kec. Teweh Tengah, Kabupaten Barito Utara, Kalimantan Tengah 73814","Melayu, Kec. Teweh Tengah, Kabupaten Barito Utara",KALIMANTAN TENGAH,73814.0,Indonesia,,,,-0.9451441,114.89784,https://maps.google.com/?cid=0x0:0xa9fb23fce18d439f,
supermarket,Toko Swalayan,Abcde,"Rimba Sari, Kec. Teweh Tengah, Kabupaten Barito Utara, Kalimantan Tengah","Kabupaten Barito Utara, Kalimantan Tengah",KALIMANTAN TENGAH,,Indonesia,,,,-0.8886372,114.7048744,https://maps.google.com/?cid=0x0:0xdd2692bd8be93879,
supermarket,supermarket,Kec. Montallat,"Kabupaten Barito Utara, Kalimantan Tengah","Kabupaten Barito Utara, Kalimantan Tengah",KALIMANTAN TENGAH,,Indonesia,,,,-1.3271553,114.8390377,https://maps.google.com/?cid=0x0:0xaee00abe123121b3,
supermarket,Pasar,Toko Simpang Raya Montallat,"MVGW+MJP, Montallat II, Kec. Montallat, Kabupaten Barito Utara, Kalimantan Tengah 73862","Montallat II, Kec. Montallat, Kabupaten Barito Utara",KALIMANTAN TENGAH,73862.0,Indonesia,85347921344.0,,,-1.323284,114.896571,https://maps.google.com/?cid=0x0:0x9f4bb6916c3c71f0,
supermarket,Minimarket,PASAR MONTALLAT,"Montallat II, Kec. Montallat, Kabupaten Barito Utara, Kalimantan Tengah","Kabupaten Barito Utara, Kalimantan Tengah",KALIMANTAN TENGAH,,Indonesia,,,,-1.3239191,114.8974282,https://maps.google.com/?cid=0x0:0x1e936f4c99ba1265,
supermarket,supermarket,Kalimantan Tengah 73813,"Jambu, Kec. Teweh Baru, Kabupaten Barito Utara, Kalimantan Tengah","Kabupaten Barito Utara, Kalimantan Tengah",KALIMANTAN TENGAH,,Indonesia,,,,-0.8856163,115.0169419,https://maps.google.com/?cid=0x0:0x20b84a66bae62c5e,
supermarket,Gudang,Minimarket OZ Lantai 2,"Melayu, Kec. Teweh Tengah, Kabupaten Barito Utara, Kalimantan Tengah 73814","Kec. Teweh Tengah, Kabupaten Barito Utara",KALIMANTAN TENGAH,73814.0,Indonesia,,,,-0.9604055,114.9039473,https://maps.google.com/?cid=0x0:0x8f97f5ac762b5617,
supermarket,Toko bahan makanan,BB Mart Muara Teweh,"2WR3+3MG, Melayu, Kec. Teweh Tengah, Kabupaten Barito Utara, Kalimantan Tengah 73814","Melayu, Kec. Teweh Tengah, Kabupaten Barito Utara",KALIMANTAN TENGAH,73814.0,Indonesia,51921430.0,,,-0.9598235,114.9041877,https://maps.google.com/?cid=0x0:0x7ec68ad126486b01,
supermarket,Toko Swalayan,Wamajo Store Office,"2VPW+274, Jl. Keladan, Lanjas, Kec. Teweh Tengah, Kabupaten Barito Utara, Kalimantan Tengah 73814","Jl. Keladan, Lanjas, Kec. Teweh Tengah, Kabupaten Barito Utara",KALIMANTAN TENGAH,73814.0,Indonesia,,,,-0.9649953,114.8956955,https://maps.google.com/?cid=0x0:0x841f43c8289933a0,
supermarket,Toko Swalayan,Toko Widya,"3W22+QW3, Jl. Brigjen Katamso, Melayu, Kec. Teweh Tengah, Kabupaten Barito Utara, Kalimantan Tengah 73814","Jl. Brigjen Katamso, Melayu, Kec. Teweh Tengah, Kabupaten Barito Utara",KALIMANTAN TENGAH,73814.0,Indonesia,,,,-0.9481062,114.9022813,https://maps.google.com/?cid=0x0:0x689c32ea34650c51,
supermarket,Toko,Mini Market R  B,"3V2W+MF4, Lanjas, Kec. Teweh Tengah, Kabupaten Barito Utara, Kalimantan Tengah 73814","Lanjas, Kec. Teweh Tengah, Kabupaten Barito Utara",KALIMANTAN TENGAH,73814.0,Indonesia,,,,-0.9483591,114.8962139,https://maps.google.com/?cid=0x0:0xb013c0e9baa59bff,
supermarket,Toko,Mini Market Ayu,"2VQR+6VW, Jl. Langsat, Lanjas, Kec. Teweh Tengah, Kabupaten Barito Utara, Kalimantan Tengah 73814","Jl. Langsat, Lanjas, Kec. Teweh Tengah, Kabupaten Barito Utara",KALIMANTAN TENGAH,73814.0,Indonesia,,,,-0.96185,114.8922401,https://maps.google.com/?cid=0x0:0x77be4918fb328e1b,
supermarket,Pusat Perbelanjaan,Toko Az-Zahra,"Jl. Pertiwi No.31, Melayu, Kec. Teweh Tengah, Kabupaten Barito Utara, Kalimantan Tengah 73814","Melayu, Kec. Teweh Tengah, Kabupaten Barito Utara",KALIMANTAN TENGAH,73814.0,Indonesia,,,,-0.9451441,114.89784,https://maps.google.com/?cid=0x0:0xa9fb23fce18d439f,
supermarket,Toko Swalayan,Toko Yani,"2WV4+5MF, Melayu, Kec. Teweh Tengah, Kabupaten Barito Utara, Kalimantan Tengah 73814","Melayu, Kec. Teweh Tengah, Kabupaten Barito Utara",KALIMANTAN TENGAH,73814.0,Indonesia,,,,-0.9570672,114.9066583,https://maps.google.com/?cid=0x0:0x321da08f1818049d,
supermarket,supermarket,Kalimantan Tengah 73814,"Kabupaten Barito Utara, Kalimantan Tengah","Kabupaten Barito Utara, Kalimantan Tengah",KALIMANTAN TENGAH,,Indonesia,,,,-0.8914468,114.8092691,https://maps.google.com/?cid=0x0:0xb5548f39346751af,
supermarket,Gudang,Minimarket OZ Lantai 2,"Melayu, Kec. Teweh Tengah, Kabupaten Barito Utara, Kalimantan Tengah 73814","Kec. Teweh Tengah, Kabupaten Barito Utara",KALIMANTAN TENGAH,73814.0,Indonesia,,,,-0.9604055,114.9039473,https://maps.google.com/?cid=0x0:0x8f97f5ac762b5617,
supermarket,Pusat Perbelanjaan,Toko Az-Zahra,"Jl. Pertiwi No.31, Melayu, Kec. Teweh Tengah, Kabupaten Barito Utara, Kalimantan Tengah 73814","Melayu, Kec. Teweh Tengah, Kabupaten Barito Utara",KALIMANTAN TENGAH,73814.0,Indonesia,,,,-0.9451441,114.89784,https://maps.google.com/?cid=0x0:0xa9fb23fce18d439f,
supermarket,Toko Makanan,Adibaqua,"3V5P+QVP, Lanjas, Kec. Teweh Tengah, Kabupaten Barito Utara, Kalimantan Tengah 73814","Lanjas, Kec. Teweh Tengah, Kabupaten Barito Utara",KALIMANTAN TENGAH,73814.0,Indonesia,,,,-0.9405415,114.8871992,https://maps.google.com/?cid=0x0:0xe13a5206ac08d47e,
supermarket,Pusat Perbelanjaan,mall shopping center mtw,"3V3V+P2W, Jl. Panti Ajar, Lanjas, Kec. Teweh Tengah, Kabupaten Barito Utara, Kalimantan Tengah 73814","Jl. Panti Ajar, Lanjas, Kec. Teweh Tengah, Kabupaten Barito Utara",KALIMANTAN TENGAH,73814.0,Indonesia,,,,-0.9715883,114.8853009,https://maps.google.com/?cid=0x0:0x399c6991586aba21,
supermarket,Pasar,pasar pertokoan,"2WR4+763, Melayu, Kec. Teweh Tengah, Kabupaten Barito Utara, Kalimantan Tengah 73814","Melayu, Kec. Teweh Tengah, Kabupaten Barito Utara",KALIMANTAN TENGAH,73814.0,Indonesia,,,,-0.9593629,114.9055348,https://maps.google.com/?cid=0x0:0x1d4b24b1a9d118a7,
supermarket,Toko Swalayan,Warung Riby  Fitri,"2WJ4+W5, Jingah, Kec. Teweh Baru, Kabupaten Barito Utara, Kalimantan Tengah 73814","Jingah, Kec. Teweh Baru, Kabupaten Barito Utara",KALIMANTAN TENGAH,73814.0,Indonesia,,,,-0.9671734,114.9066436,https://maps.google.com/?cid=0x0:0xe57a0ca43acc23a4,
supermarket,Toko Swalayan,Wamajo Store Office,"2VPW+274, Jl. Keladan, Lanjas, Kec. Teweh Tengah, Kabupaten Barito Utara, Kalimantan Tengah 73814","Jl. Keladan, Lanjas, Kec. Teweh Tengah, Kabupaten Barito Utara",KALIMANTAN TENGAH,73814.0,Indonesia,,,,-0.9649953,114.8956955,https://maps.google.com/?cid=0x0:0x841f43c8289933a0,
supermarket,Toko Swalayan,Toko DANDUNG,"2WW5+4CQ, Jl. Kapten P. Tendean, Melayu, Kec. Teweh Tengah, Kabupaten Barito Utara, Kalimantan Tengah 73814","Jl. Kapten P. Tendean, Melayu, Kec. Teweh Tengah, Kabupaten Barito Utara",KALIMANTAN TENGAH,73814.0,Indonesia,,,,-0.9546653,114.908622,https://maps.google.com/?cid=0x0:0xd66fc49cfb9e426e,
supermarket,Toko outlet,Mama fitri,"Jingah, Kec. Teweh Tengah, Kabupaten Barito Utara, Kalimantan Tengah 73814","Kec. Teweh Tengah, Kabupaten Barito Utara",KALIMANTAN TENGAH,73814.0,Indonesia,,,,-0.9764836,114.9008609,https://maps.google.com/?cid=0x0:0xcec59950f6acdb5d,
supermarket,Toko bahan makanan,Toko Adinda,"3W53+QHG, Jl. Brigjen Katamso, Melayu, Kec. Teweh Tengah, Kabupaten Barito Utara, Kalimantan Tengah 73814","Jl. Brigjen Katamso, Melayu, Kec. Teweh Tengah, Kabupaten Barito Utara",KALIMANTAN TENGAH,73814.0,Indonesia,81349785601.0,,,-0.9405523,114.9039413,https://maps.google.com/?cid=0x0:0x49f77df639f4585a,
supermarket,Toko bahan makanan,Warung Silvia,"3VVQ+76C, Melayu, Kec. Teweh Tengah, Kabupaten Barito Utara, Kalimantan Tengah 73814","Melayu, Kec. Teweh Tengah, Kabupaten Barito Utara",KALIMANTAN TENGAH,73814.0,Indonesia,,,,-0.9068093,114.8880089,https://maps.google.com/?cid=0x0:0x9dfa42e14744b1d2,
supermarket,Toko Swalayan,Toko RIFKY,"2VCR+4VW, Unnamed Road, Jingah, Kec. Teweh Tengah, Kabupaten Barito Utara, Kalimantan Tengah 73814","Unnamed Road, Jingah, Kec. Teweh Tengah, Kabupaten Barito Utara",KALIMANTAN TENGAH,73814.0,Indonesia,811521148.0,,,-0.9796372,114.8922079,https://maps.google.com/?cid=0x0:0x247eec9f64048340,
supermarket,Toko Swalayan,Toko Irfan Pasar PBB,"2VPP+JMG, Jl. Yetro Sinseng, Lanjas, Kec. Teweh Tengah, Kabupaten Barito Utara, Kalimantan Tengah 73814","Jl. Yetro Sinseng, Lanjas, Kec. Teweh Tengah, Kabupaten Barito Utara",KALIMANTAN TENGAH,73814.0,Indonesia,85787567495.0,,,-0.9634359,114.8866912,https://maps.google.com/?cid=0x0:0xbdba29a3c16f6712,
supermarket,Toko,Toko three wan,"Jl. Margo Rukun, Melayu, Kec. Teweh Tengah, Kabupaten Barito Utara, Kalimantan Tengah 73814","Melayu, Kec. Teweh Tengah, Kabupaten Barito Utara",KALIMANTAN TENGAH,73814.0,Indonesia,82242811848.0,,,-0.9311231,114.8913929,https://maps.google.com/?cid=0x0:0x9ae27e9fdfaa04e8,
supermarket,Toko Swalayan,Gafar pbb,"Jl. Akasia No.127, Lanjas, Kec. Teweh Tengah, Kabupaten Barito Utara, Kalimantan Tengah 73814","Lanjas, Kec. Teweh Tengah, Kabupaten Barito Utara",KALIMANTAN TENGAH,73814.0,Indonesia,,,,-0.9645991,114.888339,https://maps.google.com/?cid=0x0:0xf72a1695f93d6983,
supermarket,Toko Swalayan,Toko zainuddin,"3V5W+2VM, Jl. Pendreh, Melayu, Kec. Teweh Tengah, Kabupaten Barito Utara, Kalimantan Tengah 73814","Jl. Pendreh, Melayu, Kec. Teweh Tengah, Kabupaten Barito Utara",KALIMANTAN TENGAH,73814.0,Indonesia,,,,-0.9424009,114.8971864,https://maps.google.com/?cid=0x0:0xd7da7c6b0cd4cb4,
supermarket,Toko Swalayan,Toko Yani,"2WV4+5MF, Melayu, Kec. Teweh Tengah, Kabupaten Barito Utara, Kalimantan Tengah 73814","Melayu, Kec. Teweh Tengah, Kabupaten Barito Utara",KALIMANTAN TENGAH,73814.0,Indonesia,,,,-0.9570672,114.9066583,https://maps.google.com/?cid=0x0:0x321da08f1818049d,
supermarket,Toko bahan makanan,Toko Mama Hengky,"3V9W+7GR, Wonorejo, RT.29, Melayu, Kec. Teweh Tengah, Kabupaten Barito Utara, Kalimantan Tengah 73811","Wonorejo, RT.29, Melayu, Kec. Teweh Tengah, Kabupaten Barito Utara",KALIMANTAN TENGAH,73811.0,Indonesia,81351883881.0,,,-0.9317704,114.8962561,https://maps.google.com/?cid=0x0:0x244e0744e1192a6,
supermarket,Toko Swalayan,Toko Widya,"3W22+QW3, Jl. Brigjen Katamso, Melayu, Kec. Teweh Tengah, Kabupaten Barito Utara, Kalimantan Tengah 73814","Jl. Brigjen Katamso, Melayu, Kec. Teweh Tengah, Kabupaten Barito Utara",KALIMANTAN TENGAH,73814.0,Indonesia,,,,-0.9481062,114.9022813,https://maps.google.com/?cid=0x0:0x689c32ea34650c51,
supermarket,Minimarket,Delta Mini Market,"2WR3+5XJ, Jl. Sengaji Hulu, Melayu, Kec. Teweh Tengah, Kabupaten Barito Utara, Kalimantan Tengah 73814","Jl. Sengaji Hulu, Melayu, Kec. Teweh Tengah, Kabupaten Barito Utara",KALIMANTAN TENGAH,73814.0,Indonesia,,,,-0.9595472,114.9048965,https://maps.google.com/?cid=0x0:0x635fb585efb452b9,
supermarket,Toko makanan beku,ARA FROZEN FOOD,"3V7Q+6Q3, Jl. Pendreh No.96, Lanjas, Kec. Teweh Tengah, Kabupaten Barito Utara, Kalimantan Tengah 73814","Jl. Pendreh No.96, Lanjas, Kec. Teweh Tengah, Kabupaten Barito Utara",KALIMANTAN TENGAH,73814.0,Indonesia,81235779221.0,,,-0.9369886,114.8894322,https://maps.google.com/?cid=0x0:0x51b2c2ea94912ddb,
supermarket,supermarket,Pertiggan Lampeong - Muara Teweh,"V8X6+P2M, Jl. Lintas Kalimantan Poros Tengah, Mampuak II, Kec. Teweh Tim., Kabupaten Barito Utara, Kalimantan Tengah 73881","Jl. Lintas Kalimantan Poros Tengah, Mampuak II, Kec. Teweh Tim., Kabupaten Barito Utara",KALIMANTAN TENGAH,73881.0,Indonesia,,,,-1.1006674,115.3100393,https://maps.google.com/?cid=0x0:0xcf05e5188f14d774,
supermarket,supermarket,Kalimantan Tengah 73881,"Kabupaten Barito Utara, Kalimantan Tengah","Kabupaten Barito Utara, Kalimantan Tengah",KALIMANTAN TENGAH,,Indonesia,,,,-1.0257651,115.3785719,https://maps.google.com/?cid=0x0:0x8bd4f30ba12eadec,
supermarket,Toko umum,Warung zuhdi ma'wa,"W829+3V6, Jl. Lintas Kalimantan Poros Tengah, Mampuak II, Kec. Teweh Tim., Kabupaten Barito Utara, Kalimantan Tengah 73881","Jl. Lintas Kalimantan Poros Tengah, Mampuak II, Kec. Teweh Tim., Kabupaten Barito Utara",KALIMANTAN TENGAH,73881.0,Indonesia,,,,-1.0998427,115.3196286,https://maps.google.com/?cid=0x0:0x4963ce0b39c7a215,
supermarket,Gudang,Minimarket OZ Lantai 2,"Melayu, Kec. Teweh Tengah, Kabupaten Barito Utara, Kalimantan Tengah 73814","Kec. Teweh Tengah, Kabupaten Barito Utara",KALIMANTAN TENGAH,73814.0,Indonesia,,,,-0.9604055,114.9039473,https://maps.google.com/?cid=0x0:0x8f97f5ac762b5617,
supermarket,Toko bahan makanan,Gandring,"25H6+9F, Gandring, Kec. Teweh Baru, Kabupaten Barito Utara, Kalimantan Tengah","Kabupaten Barito Utara, Kalimantan Tengah",KALIMANTAN TENGAH,,Indonesia,,,,-0.9716185,115.1612469,https://maps.google.com/?cid=0x0:0x43dcf3ec80ae964,
supermarket,supermarket,Kec. Tewen Selatan,"Kabupaten Barito Utara, Kalimantan Tengah","Kabupaten Barito Utara, Kalimantan Tengah",KALIMANTAN TENGAH,,Indonesia,,,,-1.0409446,114.8984173,https://maps.google.com/?cid=0x0:0x9c139c9a4035a708,
supermarket,Gudang,Minimarket OZ Lantai 2,"Melayu, Kec. Teweh Tengah, Kabupaten Barito Utara, Kalimantan Tengah 73814","Kec. Teweh Tengah, Kabupaten Barito Utara",KALIMANTAN TENGAH,73814.0,Indonesia,,,,-0.9604055,114.9039473,https://maps.google.com/?cid=0x0:0x8f97f5ac762b5617,
supermarket,Toko Swalayan,Wamajo Store Office,"2VPW+274, Jl. Keladan, Lanjas, Kec. Teweh Tengah, Kabupaten Barito Utara, Kalimantan Tengah 73814","Jl. Keladan, Lanjas, Kec. Teweh Tengah, Kabupaten Barito Utara",KALIMANTAN TENGAH,73814.0,Indonesia,,,,-0.9649953,114.8956955,https://maps.google.com/?cid=0x0:0x841f43c8289933a0,
supermarket,Toko Swalayan,Toko Irfan Pasar PBB,"2VPP+JMG, Jl. Yetro Sinseng, Lanjas, Kec. Teweh Tengah, Kabupaten Barito Utara, Kalimantan Tengah 73814","Jl. Yetro Sinseng, Lanjas, Kec. Teweh Tengah, Kabupaten Barito Utara",KALIMANTAN TENGAH,73814.0,Indonesia,85787567495.0,,,-0.9634359,114.8866912,https://maps.google.com/?cid=0x0:0xbdba29a3c16f6712,
supermarket,Toko Swalayan,Gafar pbb,"Jl. Akasia No.127, Lanjas, Kec. Teweh Tengah, Kabupaten Barito Utara, Kalimantan Tengah 73814","Lanjas, Kec. Teweh Tengah, Kabupaten Barito Utara",KALIMANTAN TENGAH,73814.0,Indonesia,,,,-0.9645991,114.888339,https://maps.google.com/?cid=0x0:0xf72a1695f93d6983,
supermarket,Toko Swalayan,Toko RIFKY,"2VCR+4VW, Unnamed Road, Jingah, Kec. Teweh Tengah, Kabupaten Barito Utara, Kalimantan Tengah 73814","Unnamed Road, Jingah, Kec. Teweh Tengah, Kabupaten Barito Utara",KALIMANTAN TENGAH,73814.0,Indonesia,811521148.0,,,-0.9796372,114.8922079,https://maps.google.com/?cid=0x0:0x247eec9f64048340,
supermarket,Pusat Perbelanjaan,Tk.Imas,"2WQ3+R23, Jl. Mangkusari, Melayu, Kec. Teweh Tengah, Kabupaten Barito Utara, Kalimantan Tengah 73814","Jl. Mangkusari, Melayu, Kec. Teweh Tengah, Kabupaten Barito Utara",KALIMANTAN TENGAH,73814.0,Indonesia,85250858069.0,,,-0.9604966,114.9025526,https://maps.google.com/?cid=0x0:0xd12a34be2223667,
supermarket,Toko outlet,Mama fitri,"Jingah, Kec. Teweh Tengah, Kabupaten Barito Utara, Kalimantan Tengah 73814","Kec. Teweh Tengah, Kabupaten Barito Utara",KALIMANTAN TENGAH,73814.0,Indonesia,,,,-0.9764836,114.9008609,https://maps.google.com/?cid=0x0:0xcec59950f6acdb5d,
supermarket,Toko Swalayan,kios mahfuzah,"2WR2+P29, Jl. Bangau, Melayu, Kec. Teweh Tengah, Kabupaten Barito Utara, Kalimantan Tengah 73814","Jl. Bangau, Melayu, Kec. Teweh Tengah, Kabupaten Barito Utara",KALIMANTAN TENGAH,73814.0,Indonesia,,,,-0.9582141,114.9000976,https://maps.google.com/?cid=0x0:0xa0cf64db4f6a1d11,
supermarket,Toko Swalayan,Warung Riby  Fitri,"2WJ4+W5, Jingah, Kec. Teweh Baru, Kabupaten Barito Utara, Kalimantan Tengah 73814","Jingah, Kec. Teweh Baru, Kabupaten Barito Utara",KALIMANTAN TENGAH,73814.0,Indonesia,,,,-0.9671734,114.9066436,https://maps.google.com/?cid=0x0:0xe57a0ca43acc23a4,
supermarket,Toko Swalayan,Toko DANDUNG,"2WW5+4CQ, Jl. Kapten P. Tendean, Melayu, Kec. Teweh Tengah, Kabupaten Barito Utara, Kalimantan Tengah 73814","Jl. Kapten P. Tendean, Melayu, Kec. Teweh Tengah, Kabupaten Barito Utara",KALIMANTAN TENGAH,73814.0,Indonesia,,,,-0.9546653,114.908622,https://maps.google.com/?cid=0x0:0xd66fc49cfb9e426e,
supermarket,Pusat Perbelanjaan,Toko Az-Zahra,"Jl. Pertiwi No.31, Melayu, Kec. Teweh Tengah, Kabupaten Barito Utara, Kalimantan Tengah 73814","Melayu, Kec. Teweh Tengah, Kabupaten Barito Utara",KALIMANTAN TENGAH,73814.0,Indonesia,,,,-0.9451441,114.89784,https://maps.google.com/?cid=0x0:0xa9fb23fce18d439f,
supermarket,Toko Makanan,Adibaqua,"3V5P+QVP, Lanjas, Kec. Teweh Tengah, Kabupaten Barito Utara, Kalimantan Tengah 73814","Lanjas, Kec. Teweh Tengah, Kabupaten Barito Utara",KALIMANTAN TENGAH,73814.0,Indonesia,,,,-0.9405415,114.8871992,https://maps.google.com/?cid=0x0:0xe13a5206ac08d47e,
supermarket,Toko Swalayan,Toko SUKADI,"Jl. Nanas, Lanjas, Kec. Teweh Tengah, Kabupaten Barito Utara, Kalimantan Tengah 73814","Lanjas, Kec. Teweh Tengah, Kabupaten Barito Utara",KALIMANTAN TENGAH,73814.0,Indonesia,82254602872.0,,,-0.9603275,114.8924858,https://maps.google.com/?cid=0x0:0x8de3fe4cb159c9d8,
supermarket,Toko bahan makanan,Toko Adinda,"3W53+QHG, Jl. Brigjen Katamso, Melayu, Kec. Teweh Tengah, Kabupaten Barito Utara, Kalimantan Tengah 73814","Jl. Brigjen Katamso, Melayu, Kec. Teweh Tengah, Kabupaten Barito Utara",KALIMANTAN TENGAH,73814.0,Indonesia,81349785601.0,,,-0.9405523,114.9039413,https://maps.google.com/?cid=0x0:0x49f77df639f4585a,
supermarket,Toko Swalayan,Toko zainuddin,"3V5W+2VM, Jl. Pendreh, Melayu, Kec. Teweh Tengah, Kabupaten Barito Utara, Kalimantan Tengah 73814","Jl. Pendreh, Melayu, Kec. Teweh Tengah, Kabupaten Barito Utara",KALIMANTAN TENGAH,73814.0,Indonesia,,,,-0.9424009,114.8971864,https://maps.google.com/?cid=0x0:0xd7da7c6b0cd4cb4,
supermarket,Toko Swalayan,Toko Widya,"3W22+QW3, Jl. Brigjen Katamso, Melayu, Kec. Teweh Tengah, Kabupaten Barito Utara, Kalimantan Tengah 73814","Jl. Brigjen Katamso, Melayu, Kec. Teweh Tengah, Kabupaten Barito Utara",KALIMANTAN TENGAH,73814.0,Indonesia,,,,-0.9481062,114.9022813,https://maps.google.com/?cid=0x0:0x689c32ea34650c51,
supermarket,Toko,Toko three wan,"Jl. Margo Rukun, Melayu, Kec. Teweh Tengah, Kabupaten Barito Utara, Kalimantan Tengah 73814","Melayu, Kec. Teweh Tengah, Kabupaten Barito Utara",KALIMANTAN TENGAH,73814.0,Indonesia,82242811848.0,,,-0.9311231,114.8913929,https://maps.google.com/?cid=0x0:0x9ae27e9fdfaa04e8,
supermarket,Toko Swalayan,Kios Mimiw,"Jl. Merpati, Melayu, Kec. Teweh Tengah, Kabupaten Barito Utara, Kalimantan Tengah 73814","Melayu, Kec. Teweh Tengah, Kabupaten Barito Utara",KALIMANTAN TENGAH,73814.0,Indonesia,85179913840.0,,,-0.9585241,114.9006656,https://maps.google.com/?cid=0x0:0x6e6ae639fb08fe26,
supermarket,Toko bahan makanan,BB Mart Muara Teweh,"2WR3+3MG, Melayu, Kec. Teweh Tengah, Kabupaten Barito Utara, Kalimantan Tengah 73814","Melayu, Kec. Teweh Tengah, Kabupaten Barito Utara",KALIMANTAN TENGAH,73814.0,Indonesia,51921430.0,,,-0.9598235,114.9041877,https://maps.google.com/?cid=0x0:0x7ec68ad126486b01,
supermarket,Toko bahan makanan,Warung Silvia,"3VVQ+76C, Melayu, Kec. Teweh Tengah, Kabupaten Barito Utara, Kalimantan Tengah 73814","Melayu, Kec. Teweh Tengah, Kabupaten Barito Utara",KALIMANTAN TENGAH,73814.0,Indonesia,,,,-0.9068093,114.8880089,https://maps.google.com/?cid=0x0:0x9dfa42e14744b1d2,
supermarket,Binatu,Laundry syar'i,"Jl. Manggis No.4, Lanjas, Kec. Teweh Tengah, Kabupaten Barito Utara, Kalimantan Tengah 73811","Lanjas, Kec. Teweh Tengah, Kabupaten Barito Utara",KALIMANTAN TENGAH,73811.0,Indonesia,,,,-0.9610675,114.897682,https://maps.google.com/?cid=0x0:0xe78e5d062b9f3e69,
supermarket,supermarket,Kalimantan Tengah 73811,"Juju Baru, Kec. Lahei, Kabupaten Barito Utara, Kalimantan Tengah","Kabupaten Barito Utara, Kalimantan Tengah",KALIMANTAN TENGAH,,Indonesia,,,,-0.8295559,114.9872821,https://maps.google.com/?cid=0x0:0x483ad48a5b01a50d,
supermarket,Pusat Perbelanjaan,Toko Az-Zahra,"Jl. Pertiwi No.31, Melayu, Kec. Teweh Tengah, Kabupaten Barito Utara, Kalimantan Tengah 73814","Melayu, Kec. Teweh Tengah, Kabupaten Barito Utara",KALIMANTAN TENGAH,73814.0,Indonesia,,,,-0.9451441,114.89784,https://maps.google.com/?cid=0x0:0xa9fb23fce18d439f,
supermarket,Toko bahan makanan,BB Mart Muara Teweh,"2WR3+3MG, Melayu, Kec. Teweh Tengah, Kabupaten Barito Utara, Kalimantan Tengah 73814","Melayu, Kec. Teweh Tengah, Kabupaten Barito Utara",KALIMANTAN TENGAH,73814.0,Indonesia,51921430.0,,,-0.9598235,114.9041877,https://maps.google.com/?cid=0x0:0x7ec68ad126486b01,
supermarket,Toko Swalayan,Wamajo Store Office,"2VPW+274, Jl. Keladan, Lanjas, Kec. Teweh Tengah, Kabupaten Barito Utara, Kalimantan Tengah 73814","Jl. Keladan, Lanjas, Kec. Teweh Tengah, Kabupaten Barito Utara",KALIMANTAN TENGAH,73814.0,Indonesia,,,,-0.9649953,114.8956955,https://maps.google.com/?cid=0x0:0x841f43c8289933a0,
supermarket,Toko Swalayan,Toko DANDUNG,"2WW5+4CQ, Jl. Kapten P. Tendean, Melayu, Kec. Teweh Tengah, Kabupaten Barito Utara, Kalimantan Tengah 73814","Jl. Kapten P. Tendean, Melayu, Kec. Teweh Tengah, Kabupaten Barito Utara",KALIMANTAN TENGAH,73814.0,Indonesia,,,,-0.9546653,114.908622,https://maps.google.com/?cid=0x0:0xd66fc49cfb9e426e,
supermarket,Toko Swalayan,Toko Widya,"3W22+QW3, Jl. Brigjen Katamso, Melayu, Kec. Teweh Tengah, Kabupaten Barito Utara, Kalimantan Tengah 73814","Jl. Brigjen Katamso, Melayu, Kec. Teweh Tengah, Kabupaten Barito Utara",KALIMANTAN TENGAH,73814.0,Indonesia,,,,-0.9481062,114.9022813,https://maps.google.com/?cid=0x0:0x689c32ea34650c51,
supermarket,Toko,Mini Market R  B,"3V2W+MF4, Lanjas, Kec. Teweh Tengah, Kabupaten Barito Utara, Kalimantan Tengah 73814","Lanjas, Kec. Teweh Tengah, Kabupaten Barito Utara",KALIMANTAN TENGAH,73814.0,Indonesia,,,,-0.9483591,114.8962139,https://maps.google.com/?cid=0x0:0xb013c0e9baa59bff,
supermarket,Toko Swalayan,Toko SUKADI,"Jl. Nanas, Lanjas, Kec. Teweh Tengah, Kabupaten Barito Utara, Kalimantan Tengah 73814","Lanjas, Kec. Teweh Tengah, Kabupaten Barito Utara",KALIMANTAN TENGAH,73814.0,Indonesia,82254602872.0,,,-0.9603275,114.8924858,https://maps.google.com/?cid=0x0:0x8de3fe4cb159c9d8,
supermarket,Toko,Aara Olshop,"4WJM+4H4, Jl. Sei pamejaan, Lahei II, Kec. Lahei, Kabupaten Barito Utara, Kalimantan Tengah 73814","Jl. Sei pamejaan, Lahei II, Kec. Lahei, Kabupaten Barito Utara",KALIMANTAN TENGAH,73814.0,Indonesia,,,,-0.8697265,114.9339387,https://maps.google.com/?cid=0x0:0xed920836d47851f9,
supermarket,Kontraktor Umum,Tiara Batara,"2VWX+PCC, Melayu, Kec. Teweh Tengah, Kabupaten Barito Utara, Kalimantan Tengah 73814","Melayu, Kec. Teweh Tengah, Kabupaten Barito Utara",KALIMANTAN TENGAH,73814.0,Indonesia,,,,-0.9531876,114.8985245,https://maps.google.com/?cid=0x0:0x294007da82d14e3c,
supermarket,Toko Pakaian,TOKO MUHAJIR,"Samping Gerbang MIN 1 BARUT, Jl. Manggis No.14, Lanjas, Kec. Teweh Tengah, Kabupaten Barito Utara, Kalimantan Tengah 73811","Jl. Manggis No.14, Lanjas, Kec. Teweh Tengah, Kabupaten Barito Utara",KALIMANTAN TENGAH,73811.0,Indonesia,81347162644.0,,,-0.9618143,114.8983164,https://maps.google.com/?cid=0x0:0x969abc9eab4cf78b,
supermarket,Toko,Mini Market Ayu,"2VQR+6VW, Jl. Langsat, Lanjas, Kec. Teweh Tengah, Kabupaten Barito Utara, Kalimantan Tengah 73814","Jl. Langsat, Lanjas, Kec. Teweh Tengah, Kabupaten Barito Utara",KALIMANTAN TENGAH,73814.0,Indonesia,,,,-0.96185,114.8922401,https://maps.google.com/?cid=0x0:0x77be4918fb328e1b,
supermarket,Minimarket,Indomaret Yetro Sinseng,"2VQQ+4QQ, Jl. Yetro Sinseng, Lanjas, Kec. Teweh Tengah, Kabupaten Barito Utara, Kalimantan Tengah 73814","Jl. Yetro Sinseng, Lanjas, Kec. Teweh Tengah, Kabupaten Barito Utara",KALIMANTAN TENGAH,73814.0,Indonesia,,,,-0.9622127,114.889401,https://maps.google.com/?cid=0x0:0xa42aa7a7e8979139,
supermarket,Gudang,Minimarket OZ Lantai 2,"Melayu, Kec. Teweh Tengah, Kabupaten Barito Utara, Kalimantan Tengah 73814","Kec. Teweh Tengah, Kabupaten Barito Utara",KALIMANTAN TENGAH,73814.0,Indonesia,,,,-0.9604055,114.9039473,https://maps.google.com/?cid=0x0:0x8f97f5ac762b5617,
supermarket,Perguruan Tinggi,Sekolah Tinggi Ilmu Ekonomi Muara Teweh,"Jl. Ahmad Yani No.7, Lanjas, Kec. Teweh Tengah, Kabupaten Barito Utara, Kalimantan Tengah 73811","Lanjas, Kec. Teweh Tengah, Kabupaten Barito Utara",KALIMANTAN TENGAH,73811.0,Indonesia,85754279670.0,,,-0.9590798,114.8966572,https://maps.google.com/?cid=0x0:0xb2da3270da9d46a5,
supermarket,supermarket,Kalimantan Tengah 73812,"Kabupaten Barito Utara, Kalimantan Tengah","Kabupaten Barito Utara, Kalimantan Tengah",KALIMANTAN TENGAH,,Indonesia,,,,-0.8255092,114.945754,https://maps.google.com/?cid=0x0:0xaf5eb4cc7e2c2286,
supermarket,Gudang,Minimarket OZ Lantai 2,"Melayu, Kec. Teweh Tengah, Kabupaten Barito Utara, Kalimantan Tengah 73814","Kec. Teweh Tengah, Kabupaten Barito Utara",KALIMANTAN TENGAH,73814.0,Indonesia,,,,-0.9604055,114.9039473,https://maps.google.com/?cid=0x0:0x8f97f5ac762b5617,
supermarket,Pusat Perbelanjaan,Toko Az-Zahra,"Jl. Pertiwi No.31, Melayu, Kec. Teweh Tengah, Kabupaten Barito Utara, Kalimantan Tengah 73814","Melayu, Kec. Teweh Tengah, Kabupaten Barito Utara",KALIMANTAN TENGAH,73814.0,Indonesia,,,,-0.9451441,114.89784,https://maps.google.com/?cid=0x0:0xa9fb23fce18d439f,
supermarket,Toko bahan makanan,BB Mart Muara Teweh,"2WR3+3MG, Melayu, Kec. Teweh Tengah, Kabupaten Barito Utara, Kalimantan Tengah 73814","Melayu, Kec. Teweh Tengah, Kabupaten Barito Utara",KALIMANTAN TENGAH,73814.0,Indonesia,51921430.0,,,-0.9598235,114.9041877,https://maps.google.com/?cid=0x0:0x7ec68ad126486b01,
supermarket,Toko Swalayan,Toko DANDUNG,"2WW5+4CQ, Jl. Kapten P. Tendean, Melayu, Kec. Teweh Tengah, Kabupaten Barito Utara, Kalimantan Tengah 73814","Jl. Kapten P. Tendean, Melayu, Kec. Teweh Tengah, Kabupaten Barito Utara",KALIMANTAN TENGAH,73814.0,Indonesia,,,,-0.9546653,114.908622,https://maps.google.com/?cid=0x0:0xd66fc49cfb9e426e,
supermarket,Toko Swalayan,Wamajo Store Office,"2VPW+274, Jl. Keladan, Lanjas, Kec. Teweh Tengah, Kabupaten Barito Utara, Kalimantan Tengah 73814","Jl. Keladan, Lanjas, Kec. Teweh Tengah, Kabupaten Barito Utara",KALIMANTAN TENGAH,73814.0,Indonesia,,,,-0.9649953,114.8956955,https://maps.google.com/?cid=0x0:0x841f43c8289933a0,
supermarket,Toko Swalayan,Toko Widya,"3W22+QW3, Jl. Brigjen Katamso, Melayu, Kec. Teweh Tengah, Kabupaten Barito Utara, Kalimantan Tengah 73814","Jl. Brigjen Katamso, Melayu, Kec. Teweh Tengah, Kabupaten Barito Utara",KALIMANTAN TENGAH,73814.0,Indonesia,,,,-0.9481062,114.9022813,https://maps.google.com/?cid=0x0:0x689c32ea34650c51,
supermarket,Toko Swalayan,Toko SUKADI,"Jl. Nanas, Lanjas, Kec. Teweh Tengah, Kabupaten Barito Utara, Kalimantan Tengah 73814","Lanjas, Kec. Teweh Tengah, Kabupaten Barito Utara",KALIMANTAN TENGAH,73814.0,Indonesia,82254602872.0,,,-0.9603275,114.8924858,https://maps.google.com/?cid=0x0:0x8de3fe4cb159c9d8,
supermarket,Toko,Aara Olshop,"4WJM+4H4, Jl. Sei pamejaan, Lahei II, Kec. Lahei, Kabupaten Barito Utara, Kalimantan Tengah 73814","Jl. Sei pamejaan, Lahei II, Kec. Lahei, Kabupaten Barito Utara",KALIMANTAN TENGAH,73814.0,Indonesia,,,,-0.8697265,114.9339387,https://maps.google.com/?cid=0x0:0xed920836d47851f9,
supermarket,Pasar,Pasar jingah,"2VHW+V43, Jl. Lintas Kalimantan Poros Tengah, Jingah, Kec. Teweh Tengah, Kabupaten Barito Utara, Kalimantan Tengah 73814","Jl. Lintas Kalimantan Poros Tengah, Jingah, Kec. Teweh Tengah, Kabupaten Barito Utara",KALIMANTAN TENGAH,73814.0,Indonesia,,,,-0.9703708,114.8953034,https://maps.google.com/?cid=0x0:0xf4a8eaf28a5171c1,
supermarket,Toko,Mini Market R  B,"3V2W+MF4, Lanjas, Kec. Teweh Tengah, Kabupaten Barito Utara, Kalimantan Tengah 73814","Lanjas, Kec. Teweh Tengah, Kabupaten Barito Utara",KALIMANTAN TENGAH,73814.0,Indonesia,,,,-0.9483591,114.8962139,https://maps.google.com/?cid=0x0:0xb013c0e9baa59bff,
supermarket,Toko,Mini Market Ayu,"2VQR+6VW, Jl. Langsat, Lanjas, Kec. Teweh Tengah, Kabupaten Barito Utara, Kalimantan Tengah 73814","Jl. Langsat, Lanjas, Kec. Teweh Tengah, Kabupaten Barito Utara",KALIMANTAN TENGAH,73814.0,Indonesia,,,,-0.96185,114.8922401,https://maps.google.com/?cid=0x0:0x77be4918fb328e1b,
supermarket,Minimarket,Indomaret Yetro Sinseng,"2VQQ+4QQ, Jl. Yetro Sinseng, Lanjas, Kec. Teweh Tengah, Kabupaten Barito Utara, Kalimantan Tengah 73814","Jl. Yetro Sinseng, Lanjas, Kec. Teweh Tengah, Kabupaten Barito Utara",KALIMANTAN TENGAH,73814.0,Indonesia,,,,-0.9622127,114.889401,https://maps.google.com/?cid=0x0:0xa42aa7a7e8979139,
supermarket,supermarket,Kalimantan Tengah 73814,"Kabupaten Barito Utara, Kalimantan Tengah","Kabupaten Barito Utara, Kalimantan Tengah",KALIMANTAN TENGAH,,Indonesia,,,,-0.8914468,114.8092691,https://maps.google.com/?cid=0x0:0xb5548f39346751af,
supermarket,Gudang,Minimarket OZ Lantai 2,"Melayu, Kec. Teweh Tengah, Kabupaten Barito Utara, Kalimantan Tengah 73814","Kec. Teweh Tengah, Kabupaten Barito Utara",KALIMANTAN TENGAH,73814.0,Indonesia,,,,-0.9604055,114.9039473,https://maps.google.com/?cid=0x0:0x8f97f5ac762b5617,
supermarket,Pusat Perbelanjaan,Toko Az-Zahra,"Jl. Pertiwi No.31, Melayu, Kec. Teweh Tengah, Kabupaten Barito Utara, Kalimantan Tengah 73814","Melayu, Kec. Teweh Tengah, Kabupaten Barito Utara",KALIMANTAN TENGAH,73814.0,Indonesia,,,,-0.9451441,114.89784,https://maps.google.com/?cid=0x0:0xa9fb23fce18d439f,
supermarket,Pusat Perbelanjaan,mall shopping center mtw,"3V3V+P2W, Jl. Panti Ajar, Lanjas, Kec. Teweh Tengah, Kabupaten Barito Utara, Kalimantan Tengah 73814","Jl. Panti Ajar, Lanjas, Kec. Teweh Tengah, Kabupaten Barito Utara",KALIMANTAN TENGAH,73814.0,Indonesia,,,,-0.9715883,114.8853009,https://maps.google.com/?cid=0x0:0x399c6991586aba21,
supermarket,Toko Makanan,Adibaqua,"3V5P+QVP, Lanjas, Kec. Teweh Tengah, Kabupaten Barito Utara, Kalimantan Tengah 73814","Lanjas, Kec. Teweh Tengah, Kabupaten Barito Utara",KALIMANTAN TENGAH,73814.0,Indonesia,,,,-0.9405415,114.8871992,https://maps.google.com/?cid=0x0:0xe13a5206ac08d47e,
supermarket,Toko Swalayan,Wamajo Store Office,"2VPW+274, Jl. Keladan, Lanjas, Kec. Teweh Tengah, Kabupaten Barito Utara, Kalimantan Tengah 73814","Jl. Keladan, Lanjas, Kec. Teweh Tengah, Kabupaten Barito Utara",KALIMANTAN TENGAH,73814.0,Indonesia,,,,-0.9649953,114.8956955,https://maps.google.com/?cid=0x0:0x841f43c8289933a0,
supermarket,Toko bahan makanan,BB Mart Muara Teweh,"2WR3+3MG, Melayu, Kec. Teweh Tengah, Kabupaten Barito Utara, Kalimantan Tengah 73814","Melayu, Kec. Teweh Tengah, Kabupaten Barito Utara",KALIMANTAN TENGAH,73814.0,Indonesia,51921430.0,,,-0.9598235,114.9041877,https://maps.google.com/?cid=0x0:0x7ec68ad126486b01,
supermarket,Toko Swalayan,Toko DANDUNG,"2WW5+4CQ, Jl. Kapten P. Tendean, Melayu, Kec. Teweh Tengah, Kabupaten Barito Utara, Kalimantan Tengah 73814","Jl. Kapten P. Tendean, Melayu, Kec. Teweh Tengah, Kabupaten Barito Utara",KALIMANTAN TENGAH,73814.0,Indonesia,,,,-0.9546653,114.908622,https://maps.google.com/?cid=0x0:0xd66fc49cfb9e426e,
supermarket,Toko bahan makanan,Warung Silvia,"3VVQ+76C, Melayu, Kec. Teweh Tengah, Kabupaten Barito Utara, Kalimantan Tengah 73814","Melayu, Kec. Teweh Tengah, Kabupaten Barito Utara",KALIMANTAN TENGAH,73814.0,Indonesia,,,,-0.9068093,114.8880089,https://maps.google.com/?cid=0x0:0x9dfa42e14744b1d2,
supermarket,Toko bahan makanan,Toko Adinda,"3W53+QHG, Jl. Brigjen Katamso, Melayu, Kec. Teweh Tengah, Kabupaten Barito Utara, Kalimantan Tengah 73814","Jl. Brigjen Katamso, Melayu, Kec. Teweh Tengah, Kabupaten Barito Utara",KALIMANTAN TENGAH,73814.0,Indonesia,81349785601.0,,,-0.9405523,114.9039413,https://maps.google.com/?cid=0x0:0x49f77df639f4585a,
supermarket,Toko Swalayan,Toko RIFKY,"2VCR+4VW, Unnamed Road, Jingah, Kec. Teweh Tengah, Kabupaten Barito Utara, Kalimantan Tengah 73814","Unnamed Road, Jingah, Kec. Teweh Tengah, Kabupaten Barito Utara",KALIMANTAN TENGAH,73814.0,Indonesia,811521148.0,,,-0.9796372,114.8922079,https://maps.google.com/?cid=0x0:0x247eec9f64048340,
supermarket,Toko Swalayan,kios mahfuzah,"2WR2+P29, Jl. Bangau, Melayu, Kec. Teweh Tengah, Kabupaten Barito Utara, Kalimantan Tengah 73814","Jl. Bangau, Melayu, Kec. Teweh Tengah, Kabupaten Barito Utara",KALIMANTAN TENGAH,73814.0,Indonesia,,,,-0.9582141,114.9000976,https://maps.google.com/?cid=0x0:0xa0cf64db4f6a1d11,
supermarket,Toko,Toko three wan,"Jl. Margo Rukun, Melayu, Kec. Teweh Tengah, Kabupaten Barito Utara, Kalimantan Tengah 73814","Melayu, Kec. Teweh Tengah, Kabupaten Barito Utara",KALIMANTAN TENGAH,73814.0,Indonesia,82242811848.0,,,-0.9311231,114.8913929,https://maps.google.com/?cid=0x0:0x9ae27e9fdfaa04e8,
supermarket,Toko Swalayan,Toko Yani,"2WV4+5MF, Melayu, Kec. Teweh Tengah, Kabupaten Barito Utara, Kalimantan Tengah 73814","Melayu, Kec. Teweh Tengah, Kabupaten Barito Utara",KALIMANTAN TENGAH,73814.0,Indonesia,,,,-0.9570672,114.9066583,https://maps.google.com/?cid=0x0:0x321da08f1818049d,
supermarket,Pusat Perbelanjaan,Tk.Imas,"2WQ3+R23, Jl. Mangkusari, Melayu, Kec. Teweh Tengah, Kabupaten Barito Utara, Kalimantan Tengah 73814","Jl. Mangkusari, Melayu, Kec. Teweh Tengah, Kabupaten Barito Utara",KALIMANTAN TENGAH,73814.0,Indonesia,85250858069.0,,,-0.9604966,114.9025526,https://maps.google.com/?cid=0x0:0xd12a34be2223667,
supermarket,Toko Swalayan,Toko zainuddin,"3V5W+2VM, Jl. Pendreh, Melayu, Kec. Teweh Tengah, Kabupaten Barito Utara, Kalimantan Tengah 73814","Jl. Pendreh, Melayu, Kec. Teweh Tengah, Kabupaten Barito Utara",KALIMANTAN TENGAH,73814.0,Indonesia,,,,-0.9424009,114.8971864,https://maps.google.com/?cid=0x0:0xd7da7c6b0cd4cb4,
supermarket,Toko Swalayan,Toko Irfan Pasar PBB,"2VPP+JMG, Jl. Yetro Sinseng, Lanjas, Kec. Teweh Tengah, Kabupaten Barito Utara, Kalimantan Tengah 73814","Jl. Yetro Sinseng, Lanjas, Kec. Teweh Tengah, Kabupaten Barito Utara",KALIMANTAN TENGAH,73814.0,Indonesia,85787567495.0,,,-0.9634359,114.8866912,https://maps.google.com/?cid=0x0:0xbdba29a3c16f6712,
supermarket,Toko Swalayan,Toko Widya,"3W22+QW3, Jl. Brigjen Katamso, Melayu, Kec. Teweh Tengah, Kabupaten Barito Utara, Kalimantan Tengah 73814","Jl. Brigjen Katamso, Melayu, Kec. Teweh Tengah, Kabupaten Barito Utara",KALIMANTAN TENGAH,73814.0,Indonesia,,,,-0.9481062,114.9022813,https://maps.google.com/?cid=0x0:0x689c32ea34650c51,
supermarket,Toko outlet,Mama fitri,"Jingah, Kec. Teweh Tengah, Kabupaten Barito Utara, Kalimantan Tengah 73814","Kec. Teweh Tengah, Kabupaten Barito Utara",KALIMANTAN TENGAH,73814.0,Indonesia,,,,-0.9764836,114.9008609,https://maps.google.com/?cid=0x0:0xcec59950f6acdb5d,
supermarket,Toko bahan makanan,Toko Mama Hengky,"3V9W+7GR, Wonorejo, RT.29, Melayu, Kec. Teweh Tengah, Kabupaten Barito Utara, Kalimantan Tengah 73811","Wonorejo, RT.29, Melayu, Kec. Teweh Tengah, Kabupaten Barito Utara",KALIMANTAN TENGAH,73811.0,Indonesia,81351883881.0,,,-0.9317704,114.8962561,https://maps.google.com/?cid=0x0:0x244e0744e1192a6,
supermarket,Toko Swalayan,Gafar pbb,"Jl. Akasia No.127, Lanjas, Kec. Teweh Tengah, Kabupaten Barito Utara, Kalimantan Tengah 73814","Lanjas, Kec. Teweh Tengah, Kabupaten Barito Utara",KALIMANTAN TENGAH,73814.0,Indonesia,,,,-0.9645991,114.888339,https://maps.google.com/?cid=0x0:0xf72a1695f93d6983,
supermarket,supermarket,Pertiggan Lampeong - Muara Teweh,"V8X6+P2M, Jl. Lintas Kalimantan Poros Tengah, Mampuak II, Kec. Teweh Tim., Kabupaten Barito Utara, Kalimantan Tengah 73881","Jl. Lintas Kalimantan Poros Tengah, Mampuak II, Kec. Teweh Tim., Kabupaten Barito Utara",KALIMANTAN TENGAH,73881.0,Indonesia,,,,-1.1006674,115.3100393,https://maps.google.com/?cid=0x0:0xcf05e5188f14d774,
supermarket,supermarket,Kalimantan Tengah 73881,"Kabupaten Barito Utara, Kalimantan Tengah","Kabupaten Barito Utara, Kalimantan Tengah",KALIMANTAN TENGAH,,Indonesia,,,,-1.0257651,115.3785719,https://maps.google.com/?cid=0x0:0x8bd4f30ba12eadec,
supermarket,Toko umum,Warung rendy asri,"V9HR+G5V, Mampuak I, Kec. Teweh Tim., Kabupaten Barito Utara, Kalimantan Tengah 73881","Mampuak I, Kec. Teweh Tim., Kabupaten Barito Utara",KALIMANTAN TENGAH,73881.0,Indonesia,,,,-1.1211422,115.3904215,https://maps.google.com/?cid=0x0:0x6b3d8d233f52f186,
