Category,Real Category,Business Name,Address,City,State,Postal Code,Country,Phone,Email,Website,Latitude,Longitude,Map Link,Details Link
komplek housing,komplek housing,Kalimantan Tengah 73862,Kalimantan Tengah,Kalimantan Tengah,KALIMANTAN TENGAH,,Indonesia,,,,-1.3062588,115.188916,https://maps.google.com/?cid=0x0:0x13b0d131c6a71cf5,
komplek housing,Kompleks Apartemen,WulanSeptaHintanNaya Home,"P4V8+P62, Kandui, Kec. Gn. Timang, Kabupaten Barito Utara, Kalimantan Tengah 73862","Kandui, Kec. Gn. Timang, Kabupaten Barito Utara",KALIMANTAN TENGAH,73862.0,Indonesia,,,,-1.2557292,115.115517,https://maps.google.com/?cid=0x0:0x6df0b34c35be64e7,
komplek housing,Komplek perumahan,Rumah mudioto,"Q66R+F7J, Sangkurang, Kec. Gn. Timang, Kabupaten Barito Utara, Kalimantan Tengah 73862","Sangkurang, Kec. Gn. Timang, Kabupaten Barito Utara",KALIMANTAN TENGAH,73862.0,Indonesia,,,,-1.2396146,115.2410252,https://maps.google.com/?cid=0x0:0xc76935a1405317cd,
komplek housing,Kompleks Apartemen,Rumah Cicay,"P3CG+4X9, Kandui, Kec. Gn. Timang, Kabupaten Barito Utara, Kalimantan Tengah 73862","Kandui, Kec. Gn. Timang, Kabupaten Barito Utara",KALIMANTAN TENGAH,73862.0,Indonesia,,,,-1.2797143,115.0774889,https://maps.google.com/?cid=0x0:0x3f9fab39b05119f,
komplek housing,Komplek perumahan,Rumah Madot slebew,"P4V9+MM4, Kandui, Kec. Gn. Timang, Kabupaten Barito Utara, Kalimantan Tengah 73862","Kandui, Kec. Gn. Timang, Kabupaten Barito Utara",KALIMANTAN TENGAH,73862.0,Indonesia,,,,-1.2558731,115.1191927,https://maps.google.com/?cid=0x0:0x8dce6ef8ee5780f7,
komplek housing,Komplek perumahan,Pengulu se'i urung,"Q45J+Q9H, Kandui, Kec. Gn. Timang, Kabupaten Barito Utara, Kalimantan Tengah 73862","Kandui, Kec. Gn. Timang, Kabupaten Barito Utara",KALIMANTAN TENGAH,73862.0,Indonesia,,,,-1.24052,115.1309383,https://maps.google.com/?cid=0x0:0x7afa9450d754fbda,
komplek housing,Komplek perumahan,Mahatu House's,"P4V8+X38, Jl. Ahmad Yani Gg. Gumelar, Kandui, Kec. Gn. Timang, Kabupaten Barito Utara, Kalimantan Tengah 73862","Jl. Ahmad Yani Gg. Gumelar, Kandui, Kec. Gn. Timang, Kabupaten Barito Utara",KALIMANTAN TENGAH,73862.0,Indonesia,,,,-1.2550923,115.1152105,https://maps.google.com/?cid=0x0:0x46135e3543114897,
komplek housing,komplek housing,Kec. Gn. Timang,"Kabupaten Barito Utara, Kalimantan Tengah","Kabupaten Barito Utara, Kalimantan Tengah",KALIMANTAN TENGAH,,Indonesia,,,,-1.2707903,115.2363408,https://maps.google.com/?cid=0x0:0x72a23c94fe5b54f5,
komplek housing,komplek housing,Kalimantan Tengah 73871,"Kabupaten Barito Utara, Kalimantan Tengah","Kabupaten Barito Utara, Kalimantan Tengah",KALIMANTAN TENGAH,,Indonesia,,,,-1.197196,115.6154732,https://maps.google.com/?cid=0x0:0x6d60d15ecdbf488b,
komplek housing,Komplek perumahan,Pondok Rekto,"VJ72+86, Lampeong I, Gn. Purei, Kabupaten Barito Utara, Kalimantan Tengah","Kabupaten Barito Utara, Kalimantan Tengah",KALIMANTAN TENGAH,,Indonesia,,,,-1.136703,115.600612,https://maps.google.com/?cid=0x0:0xa058e14d4cff2ca2,
komplek housing,Pembangunan Perumahan,Home Mika,"VH5X+PH9, Lampeong I, Gn. Purei, Kabupaten Barito Utara, Kalimantan Tengah","Kabupaten Barito Utara, Kalimantan Tengah",KALIMANTAN TENGAH,,Indonesia,,,,-1.141396,115.599395,https://maps.google.com/?cid=0x0:0xf59d93aec5da4a28,
komplek housing,Komplek perumahan,Rumah Muluadi)Berty,"VJ63+WVQ, Lampeong II, Gn. Purei, Kabupaten Barito Utara, Kalimantan Tengah 73871","Lampeong II, Gn. Purei, Kabupaten Barito Utara",KALIMANTAN TENGAH,73871.0,Indonesia,,,,-1.1376749,115.6047242,https://maps.google.com/?cid=0x0:0x242f393f74821b70,
komplek housing,Komplek perumahan,Adie. H. A,"VJ7C+GR, Payang, Gn. Purei, Kabupaten Barito Utara, Kalimantan Tengah 73871","Payang, Gn. Purei, Kabupaten Barito Utara",KALIMANTAN TENGAH,73871.0,Indonesia,,,,-1.1359655,115.6224836,https://maps.google.com/?cid=0x0:0xb32629e0871da756,
komplek housing,Tempat Religius,DESA MUARA MEA,"RHVR+R8F, Lawarang, Gn. Purei, Kabupaten Barito Utara, Kalimantan Tengah 73871","Lawarang, Gn. Purei, Kabupaten Barito Utara",KALIMANTAN TENGAH,73871.0,Indonesia,,,,-1.1547174,115.5904288,https://maps.google.com/?cid=0x0:0x732d36a77ad80b4,
komplek housing,Perhimpunan Pengembang Perumahan,Linon Besi 2,"PG45+9H6, Linon Besi II, Gn. Purei, Kabupaten Barito Utara, Kalimantan Tengah 73871","Linon Besi II, Gn. Purei, Kabupaten Barito Utara",KALIMANTAN TENGAH,73871.0,Indonesia,,,,-1.2940853,115.5088914,https://maps.google.com/?cid=0x0:0xcdb3220540a8a603,
komplek housing,Pembangunan Perumahan,Dijah Andira,"PCG9+7J, Batu Raya I, Kec. Gn. Timang, Kabupaten Barito Utara, Kalimantan Tengah","Kabupaten Barito Utara, Kalimantan Tengah",KALIMANTAN TENGAH,,Indonesia,,,,-1.2743006,115.4190638,https://maps.google.com/?cid=0x0:0x56cba8334b6a96cd,
komplek housing,Komplek perumahan,MESS PT.PETROSEA MUTU CLUSTER SWALANG,"G8WW+R6, Bintang Ara, Kec. Gn. Bintang Awai, Kabupaten Barito Selatan, Kalimantan Tengah","Kabupaten Barito Selatan, Kalimantan Tengah",KALIMANTAN TENGAH,,Indonesia,,,,-1.392049,115.4155835,https://maps.google.com/?cid=0x0:0xee8c093ab3db1e5a,
komplek housing,Komplek perumahan,Rumah iisnawati,"PCX2+9W2, Batu Raya I, Kec. Gn. Timang, Kabupaten Barito Utara, Kalimantan Tengah","Kabupaten Barito Utara, Kalimantan Tengah",KALIMANTAN TENGAH,,Indonesia,,,,-1.2516069,115.4022706,https://maps.google.com/?cid=0x0:0xc5e047f95b839f7,
komplek housing,Komplek perumahan,Aulia,"PCX2+9W2, Batu Raya I, Kec. Gn. Timang, Kabupaten Barito Utara, Kalimantan Tengah","Kabupaten Barito Utara, Kalimantan Tengah",KALIMANTAN TENGAH,,Indonesia,,,,-1.2516069,115.4022706,https://maps.google.com/?cid=0x0:0x410c6d32668e611b,
komplek housing,komplek housing,Gn. Purei,"Kabupaten Barito Utara, Kalimantan Tengah","Kabupaten Barito Utara, Kalimantan Tengah",KALIMANTAN TENGAH,,Indonesia,,,,-1.197196,115.6154732,https://maps.google.com/?cid=0x0:0x69c079e04d4ca140,
komplek housing,komplek housing,Kalimantan Tengah 73852,"Kec. Lahei, Kabupaten Barito Utara, Kalimantan Tengah","Kabupaten Barito Utara, Kalimantan Tengah",KALIMANTAN TENGAH,,Indonesia,,,,-0.6129045,115.188916,https://maps.google.com/?cid=0x0:0xf279ed86a55323d0,
komplek housing,Kompleks Apartemen,Dormitory,"94GP+VR2, Muara Pari, Kec. Lahei, Kabupaten Barito Utara, Kalimantan Tengah 73852","Muara Pari, Kec. Lahei, Kabupaten Barito Utara",KALIMANTAN TENGAH,73852.0,Indonesia,,,,-0.6210889,115.1335718,https://maps.google.com/?cid=0x0:0x1779f5baf188f5a8,
komplek housing,Pembangunan Perumahan,Gembur,"62GF+R26, Muara Inu, Kec. Lahei, Kabupaten Barito Utara, Kalimantan Tengah 73852","Muara Inu, Kec. Lahei, Kabupaten Barito Utara",KALIMANTAN TENGAH,73852.0,Indonesia,,,,-0.7725152,115.0233378,https://maps.google.com/?cid=0x0:0xfb071800e2937c72,
komplek housing,Komplek perumahan,SATNUN,"62GF+R26, Muara Inu, Kec. Lahei, Kabupaten Barito Utara, Kalimantan Tengah 73852","Muara Inu, Kec. Lahei, Kabupaten Barito Utara",KALIMANTAN TENGAH,73852.0,Indonesia,,,,-0.7723251,115.0226716,https://maps.google.com/?cid=0x0:0xda0ccf4a746da62b,
komplek housing,Komplek perumahan,Simpang Lahei II,"4V9M+4JF, Jl. Lintas Kalimantan Poros Tengah, Mukut, Kec. Lahei, Kabupaten Barito Utara, Kalimantan Tengah 73814","Jl. Lintas Kalimantan Poros Tengah, Mukut, Kec. Lahei, Kabupaten Barito Utara",KALIMANTAN TENGAH,73814.0,Indonesia,,,,-0.8821874,114.8840484,https://maps.google.com/?cid=0x0:0x2281042042b4ee15,
komplek housing,Komplek perumahan,Eko arisandi,"62GF+R26, Muara Inu, Kec. Lahei, Kabupaten Barito Utara, Kalimantan Tengah 73852","Muara Inu, Kec. Lahei, Kabupaten Barito Utara",KALIMANTAN TENGAH,73852.0,Indonesia,,,,-0.7723868,115.0227651,https://maps.google.com/?cid=0x0:0xd2cd3e8ad270dc53,
komplek housing,Pembangunan Perumahan,Rumah Indra,"5RF9+35, Nihan Hilir, Kec. Lahei Barat, Kabupaten Barito Utara, Kalimantan Tengah","Kabupaten Barito Utara, Kalimantan Tengah",KALIMANTAN TENGAH,,Indonesia,85787254364.0,,,-0.826894,114.817651,https://maps.google.com/?cid=0x0:0xd3449c6bf578d572,
komplek housing,Komplek perumahan,Hani Home,"Jl.Permata Biru 2 No.15 RT.18 Perum Borobudur , Lanjas, Luwe Hilir, Kec. Teweh Tengah, Kabupaten Barito Utara, Kalimantan Tengah 73812","Lanjas, Luwe Hilir, Kec. Teweh Tengah, Kabupaten Barito Utara",KALIMANTAN TENGAH,73812.0,Indonesia,,,,-0.8255092,114.945754,https://maps.google.com/?cid=0x0:0xbfb74db5bd77f757,
komplek housing,Komplek perumahan,Leok,"9X6P+4W7, Benao Hilir, Kec. Lahei Barat, Kabupaten Barito Utara, Kalimantan Tengah 73852","Benao Hilir, Kec. Lahei Barat, Kabupaten Barito Utara",KALIMANTAN TENGAH,73852.0,Indonesia,,,,-0.6397249,114.9872821,https://maps.google.com/?cid=0x0:0x4bd654c7e3df33e0,
komplek housing,Komplek perumahan,TEKNOLOGI ( hino ),"62JC+RW, Muara Inu, Kec. Lahei, Kabupaten Barito Utara, Kalimantan Tengah","Kabupaten Barito Utara, Kalimantan Tengah",KALIMANTAN TENGAH,,Indonesia,,,,-0.7677406,115.0216054,https://maps.google.com/?cid=0x0:0x64a4dd19fab2e7ae,
komplek housing,komplek housing,Benao,"9X6P+4W7, Benao Hilir, Kec. Lahei Barat, Kabupaten Barito Utara, Kalimantan Tengah 73852","Benao Hilir, Kec. Lahei Barat, Kabupaten Barito Utara",KALIMANTAN TENGAH,73852.0,Indonesia,,,,-0.6397249,114.9872821,https://maps.google.com/?cid=0x0:0x68974bdeaa22a14e,
komplek housing,komplek housing,Rumah Raykarian El Gifari,"7V2R+3JR, Benao Hulu, Kec. Lahei Barat, Kabupaten Barito Utara, Kalimantan Tengah 73852","Benao Hulu, Kec. Lahei Barat, Kabupaten Barito Utara",KALIMANTAN TENGAH,73852.0,Indonesia,,,,-0.749767,114.8915283,https://maps.google.com/?cid=0x0:0x96fa65bcd9002810,
komplek housing,Komplek perumahan,Jordi,"62GF+R26, Muara Inu, Kec. Lahei, Kabupaten Barito Utara, Kalimantan Tengah 73852","Muara Inu, Kec. Lahei, Kabupaten Barito Utara",KALIMANTAN TENGAH,73852.0,Indonesia,,,,-0.7722151,115.0227115,https://maps.google.com/?cid=0x0:0x1cf29e0e90cba302,
komplek housing,Pembangunan Perumahan,Gembur,"5578+634, Muara Inu, Kec. Lahei, Kabupaten Barito Utara, Kalimantan Tengah","Kabupaten Barito Utara, Kalimantan Tengah",KALIMANTAN TENGAH,,Indonesia,,,,-0.836991,115.1652008,https://maps.google.com/?cid=0x0:0x96e4e0fe1defc531,
komplek housing,Komplek perumahan,Mess MPU site Duta Nurcahya,"5XG2+FH, Luwe Hilir, Kec. Lahei Barat, Kabupaten Barito Utara, Kalimantan Tengah","Kabupaten Barito Utara, Kalimantan Tengah",KALIMANTAN TENGAH,,Indonesia,,,,-0.8238741,114.9514428,https://maps.google.com/?cid=0x0:0x967b4a3c9743777b,
komplek housing,Komplek perumahan,Setia budi ( ajoh ),"62JF+F96, Muara Inu, Kec. Lahei, Kabupaten Barito Utara, Kalimantan Tengah 73852","Muara Inu, Kec. Lahei, Kabupaten Barito Utara",KALIMANTAN TENGAH,73852.0,Indonesia,,,,-0.7692797,115.0240462,https://maps.google.com/?cid=0x0:0x1ede02b1c1b9e7ff,
komplek housing,Perhimpunan Pengembang Perumahan,Rumah shafa,"6W8F+F7, Jangkang Baru, Kec. Lahei Barat, Kabupaten Barito Utara, Kalimantan Tengah","Kabupaten Barito Utara, Kalimantan Tengah",KALIMANTAN TENGAH,,Indonesia,,,,-0.782935,114.9231178,https://maps.google.com/?cid=0x0:0x176acfa759d7a60c,
komplek housing,Perhimpunan Pengembang Perumahan,Rumah Aril,"7W43+5FJ, Benao Hilir, Kec. Lahei Barat, Kabupaten Barito Utara, Kalimantan Tengah 73852","Benao Hilir, Kec. Lahei Barat, Kabupaten Barito Utara",KALIMANTAN TENGAH,73852.0,Indonesia,,,,-0.7446154,114.903745,https://maps.google.com/?cid=0x0:0xb3cd1699288ef88e,
komplek housing,Pembangunan Perumahan,Nyai's House ~(≧ ≦)/~,"4WMG+JFJ, Jl. Gagah Lurus, Lahei II, Kec. Lahei, Kabupaten Barito Utara, Kalimantan Tengah 73814","Jl. Gagah Lurus, Lahei II, Kec. Lahei, Kabupaten Barito Utara",KALIMANTAN TENGAH,73814.0,Indonesia,,,,-0.8659108,114.9261328,https://maps.google.com/?cid=0x0:0xcc26afcab67d115e,
komplek housing,Komplek perumahan,Henaja Home,"4WQG+MGX, Lahei II, Kec. Lahei, Kabupaten Barito Utara, Kalimantan Tengah","Kabupaten Barito Utara, Kalimantan Tengah",KALIMANTAN TENGAH,,Indonesia,,,,-0.8607619,114.9263554,https://maps.google.com/?cid=0x0:0xb94f5780ec9bad66,
komplek housing,komplek housing,Kec. Lahei,"Kabupaten Barito Utara, Kalimantan Tengah","Kabupaten Barito Utara, Kalimantan Tengah",KALIMANTAN TENGAH,,Indonesia,,,,-0.6129045,115.188916,https://maps.google.com/?cid=0x0:0x76c6cfd2cf704a67,
komplek housing,Komplek perumahan,JAHRIAN,"4WMF+HVH, Jl.Tambun Bungai, Lahei II, Kec. Lahei, Kabupaten Barito Utara, Kalimantan Tengah 73852","Jl.Tambun Bungai, Lahei II, Kec. Lahei, Kabupaten Barito Utara",KALIMANTAN TENGAH,73852.0,Indonesia,,,,-0.8660625,114.9247344,https://maps.google.com/?cid=0x0:0x3c3aba67e27d8aa6,
komplek housing,Pembangunan Perumahan,Sungei pating Burhan CACah Apa Jhono.,"7V2V+578, Benao Hulu, Kec. Lahei Barat, Kabupaten Barito Utara, Kalimantan Tengah 73852","Benao Hulu, Kec. Lahei Barat, Kabupaten Barito Utara",KALIMANTAN TENGAH,73852.0,Indonesia,81348772055.0,,,-0.7495907,114.8932047,https://maps.google.com/?cid=0x0:0xb42102876b1dd517,
komplek housing,komplek housing,Delly's house,,,KALIMANTAN TENGAH,,Indonesia,85654241138.0,,,,,https://maps.google.com/?cid=0x0:0x7572317d7de4d53,
komplek housing,komplek housing,Kec. Lahei Barat,"Kabupaten Barito Utara, Kalimantan Tengah","Kabupaten Barito Utara, Kalimantan Tengah",KALIMANTAN TENGAH,,Indonesia,,,,-0.7935062,114.9382498,https://maps.google.com/?cid=0x0:0x5adc4924308bea72,
komplek housing,Pembangunan Perumahan,Gembur,"62GF+R26, Muara Inu, Kec. Lahei, Kabupaten Barito Utara, Kalimantan Tengah 73852","Muara Inu, Kec. Lahei, Kabupaten Barito Utara",KALIMANTAN TENGAH,73852.0,Indonesia,,,,-0.7725152,115.0233378,https://maps.google.com/?cid=0x0:0xfb071800e2937c72,
komplek housing,Pembangunan Perumahan,Ato,"62HF+R2, Muara Inu, Kec. Lahei, Kabupaten Barito Utara, Kalimantan Tengah","Kabupaten Barito Utara, Kalimantan Tengah",KALIMANTAN TENGAH,,Indonesia,,,,-0.7711889,115.0234812,https://maps.google.com/?cid=0x0:0x6d76f8f08da3a50c,
komplek housing,Komplek perumahan,SATNUN,"62GF+R26, Muara Inu, Kec. Lahei, Kabupaten Barito Utara, Kalimantan Tengah 73852","Muara Inu, Kec. Lahei, Kabupaten Barito Utara",KALIMANTAN TENGAH,73852.0,Indonesia,,,,-0.7723251,115.0226716,https://maps.google.com/?cid=0x0:0xda0ccf4a746da62b,
komplek housing,Komplek perumahan,Hani Home,"Jl.Permata Biru 2 No.15 RT.18 Perum Borobudur , Lanjas, Luwe Hilir, Kec. Teweh Tengah, Kabupaten Barito Utara, Kalimantan Tengah 73812","Lanjas, Luwe Hilir, Kec. Teweh Tengah, Kabupaten Barito Utara",KALIMANTAN TENGAH,73812.0,Indonesia,,,,-0.8255092,114.945754,https://maps.google.com/?cid=0x0:0xbfb74db5bd77f757,
komplek housing,Komplek perumahan,Leok,"9X6P+4W7, Benao Hilir, Kec. Lahei Barat, Kabupaten Barito Utara, Kalimantan Tengah 73852","Benao Hilir, Kec. Lahei Barat, Kabupaten Barito Utara",KALIMANTAN TENGAH,73852.0,Indonesia,,,,-0.6397249,114.9872821,https://maps.google.com/?cid=0x0:0x4bd654c7e3df33e0,
komplek housing,Komplek perumahan,Eko arisandi,"62GF+R26, Muara Inu, Kec. Lahei, Kabupaten Barito Utara, Kalimantan Tengah 73852","Muara Inu, Kec. Lahei, Kabupaten Barito Utara",KALIMANTAN TENGAH,73852.0,Indonesia,,,,-0.7723868,115.0227651,https://maps.google.com/?cid=0x0:0xd2cd3e8ad270dc53,
komplek housing,Komplek perumahan,Mess MPU site Duta Nurcahya,"5XG2+FH, Luwe Hilir, Kec. Lahei Barat, Kabupaten Barito Utara, Kalimantan Tengah","Kabupaten Barito Utara, Kalimantan Tengah",KALIMANTAN TENGAH,,Indonesia,,,,-0.8238741,114.9514428,https://maps.google.com/?cid=0x0:0x967b4a3c9743777b,
komplek housing,komplek housing,Benao,"9X6P+4W7, Benao Hilir, Kec. Lahei Barat, Kabupaten Barito Utara, Kalimantan Tengah 73852","Benao Hilir, Kec. Lahei Barat, Kabupaten Barito Utara",KALIMANTAN TENGAH,73852.0,Indonesia,,,,-0.6397249,114.9872821,https://maps.google.com/?cid=0x0:0x68974bdeaa22a14e,
komplek housing,Komplek perumahan,Simpang Lahei II,"4V9M+4JF, Jl. Lintas Kalimantan Poros Tengah, Mukut, Kec. Lahei, Kabupaten Barito Utara, Kalimantan Tengah 73814","Jl. Lintas Kalimantan Poros Tengah, Mukut, Kec. Lahei, Kabupaten Barito Utara",KALIMANTAN TENGAH,73814.0,Indonesia,,,,-0.8821874,114.8840484,https://maps.google.com/?cid=0x0:0x2281042042b4ee15,
komplek housing,Komplek perumahan,Henaja Home,"4WQG+MGX, Lahei II, Kec. Lahei, Kabupaten Barito Utara, Kalimantan Tengah","Kabupaten Barito Utara, Kalimantan Tengah",KALIMANTAN TENGAH,,Indonesia,,,,-0.8607619,114.9263554,https://maps.google.com/?cid=0x0:0xb94f5780ec9bad66,
komplek housing,Komplek perumahan,TEKNOLOGI ( hino ),"62JC+RW, Muara Inu, Kec. Lahei, Kabupaten Barito Utara, Kalimantan Tengah","Kabupaten Barito Utara, Kalimantan Tengah",KALIMANTAN TENGAH,,Indonesia,,,,-0.7677406,115.0216054,https://maps.google.com/?cid=0x0:0x64a4dd19fab2e7ae,
komplek housing,Perhimpunan Pengembang Perumahan,Rumah shafa,"6W8F+F7, Jangkang Baru, Kec. Lahei Barat, Kabupaten Barito Utara, Kalimantan Tengah","Kabupaten Barito Utara, Kalimantan Tengah",KALIMANTAN TENGAH,,Indonesia,,,,-0.782935,114.9231178,https://maps.google.com/?cid=0x0:0x176acfa759d7a60c,
komplek housing,Perhimpunan Pengembang Perumahan,Rumah Aril,"7W43+5FJ, Benao Hilir, Kec. Lahei Barat, Kabupaten Barito Utara, Kalimantan Tengah 73852","Benao Hilir, Kec. Lahei Barat, Kabupaten Barito Utara",KALIMANTAN TENGAH,73852.0,Indonesia,,,,-0.7446154,114.903745,https://maps.google.com/?cid=0x0:0xb3cd1699288ef88e,
komplek housing,komplek housing,Rumah Raykarian El Gifari,"7V2R+3JR, Benao Hulu, Kec. Lahei Barat, Kabupaten Barito Utara, Kalimantan Tengah 73852","Benao Hulu, Kec. Lahei Barat, Kabupaten Barito Utara",KALIMANTAN TENGAH,73852.0,Indonesia,,,,-0.749767,114.8915283,https://maps.google.com/?cid=0x0:0x96fa65bcd9002810,
komplek housing,Komplek perumahan,Setia budi ( ajoh ),"62JF+F96, Muara Inu, Kec. Lahei, Kabupaten Barito Utara, Kalimantan Tengah 73852","Muara Inu, Kec. Lahei, Kabupaten Barito Utara",KALIMANTAN TENGAH,73852.0,Indonesia,,,,-0.7692797,115.0240462,https://maps.google.com/?cid=0x0:0x1ede02b1c1b9e7ff,
komplek housing,Komplek perumahan,Jordi,"62GF+R26, Muara Inu, Kec. Lahei, Kabupaten Barito Utara, Kalimantan Tengah 73852","Muara Inu, Kec. Lahei, Kabupaten Barito Utara",KALIMANTAN TENGAH,73852.0,Indonesia,,,,-0.7722151,115.0227115,https://maps.google.com/?cid=0x0:0x1cf29e0e90cba302,
komplek housing,Komplek perumahan,Rumah Duyit,"5R9C+7WJ, Jl. Lintas Kalimantan Poros Tengah, Nihan Hilir, Kec. Lahei Barat, Kabupaten Barito Utara, Kalimantan Tengah 73814","Jl. Lintas Kalimantan Poros Tengah, Nihan Hilir, Kec. Lahei Barat, Kabupaten Barito Utara",KALIMANTAN TENGAH,73814.0,Indonesia,,,,-0.8317865,114.8222529,https://maps.google.com/?cid=0x0:0x9d2f761e55ece5c6,
komplek housing,Komplek perumahan,rumah NL,"6W2P+MRX, Luwe Hulu, Kec. Lahei Barat, Kabupaten Barito Utara, Kalimantan Tengah","Kabupaten Barito Utara, Kalimantan Tengah",KALIMANTAN TENGAH,,Indonesia,,,,-0.7982569,114.9371027,https://maps.google.com/?cid=0x0:0xaf5e5f8febd04166,
komplek housing,Pembangunan Perumahan,Nyai's House ~(≧ ≦)/~,"4WMG+JFJ, Jl. Gagah Lurus, Lahei II, Kec. Lahei, Kabupaten Barito Utara, Kalimantan Tengah 73814","Jl. Gagah Lurus, Lahei II, Kec. Lahei, Kabupaten Barito Utara",KALIMANTAN TENGAH,73814.0,Indonesia,,,,-0.8659108,114.9261328,https://maps.google.com/?cid=0x0:0xcc26afcab67d115e,
komplek housing,Pembangunan Perumahan,Rumah dan warung dhirgham,"5WVP+XXC, Luwe Hilir, Kec. Lahei Barat, Kabupaten Barito Utara, Kalimantan Tengah","Kabupaten Barito Utara, Kalimantan Tengah",KALIMANTAN TENGAH,,Indonesia,,,,-0.805015,114.937397,https://maps.google.com/?cid=0x0:0xf6600d3b7b307e62,
komplek housing,Komplek perumahan,JAHRIAN,"4WMF+HVH, Jl.Tambun Bungai, Lahei II, Kec. Lahei, Kabupaten Barito Utara, Kalimantan Tengah 73852","Jl.Tambun Bungai, Lahei II, Kec. Lahei, Kabupaten Barito Utara",KALIMANTAN TENGAH,73852.0,Indonesia,,,,-0.8660625,114.9247344,https://maps.google.com/?cid=0x0:0x3c3aba67e27d8aa6,
komplek housing,Pembangunan Perumahan,Sungei pating Burhan CACah Apa Jhono.,"7V2V+578, Benao Hulu, Kec. Lahei Barat, Kabupaten Barito Utara, Kalimantan Tengah 73852","Benao Hulu, Kec. Lahei Barat, Kabupaten Barito Utara",KALIMANTAN TENGAH,73852.0,Indonesia,81348772055.0,,,-0.7495907,114.8932047,https://maps.google.com/?cid=0x0:0xb42102876b1dd517,
komplek housing,komplek housing,Kec. Montallat,"Kabupaten Barito Utara, Kalimantan Tengah","Kabupaten Barito Utara, Kalimantan Tengah",KALIMANTAN TENGAH,,Indonesia,,,,-1.3271553,114.8390377,https://maps.google.com/?cid=0x0:0xaee00abe123121b3,
komplek housing,komplek housing,TEMPATNYA ABDUL LATI,"QWHH+C54, Sikan, Kec. Montallat, Kabupaten Barito Utara, Kalimantan Tengah","Kabupaten Barito Utara, Kalimantan Tengah",KALIMANTAN TENGAH,,Indonesia,,,,-1.2214831,114.9279547,https://maps.google.com/?cid=0x0:0x5793fd87166f0382,
komplek housing,Komplek perumahan,RUMAH SUKMAYADI,"Jalan waning pati RT 1 1, Tumpung Laung I","Kabupaten Barito Utara, Kalimantan Tengah",KALIMANTAN TENGAH,,Indonesia,,,,-1.327852,114.8404118,https://maps.google.com/?cid=0x0:0x464fefbdcf55157a,
komplek housing,Gedung Apartemen,Rumah Karim dan salsa,"MRGJ+292, Tumpung Laung I, Kec. Montallat, Kabupaten Barito Utara, Kalimantan Tengah 73861","Tumpung Laung I, Kec. Montallat, Kabupaten Barito Utara",KALIMANTAN TENGAH,73861.0,Indonesia,,,,-1.3250862,114.8306438,https://maps.google.com/?cid=0x0:0x6f9e0993244246de,
komplek housing,Perhimpunan Pengembang Perumahan,Sekretariat KKN,"MVGW+HHM, Montallat II, Kec. Montallat, Kabupaten Barito Utara, Kalimantan Tengah 73862","Montallat II, Kec. Montallat, Kabupaten Barito Utara",KALIMANTAN TENGAH,73862.0,Indonesia,,,,-1.3241008,114.8964847,https://maps.google.com/?cid=0x0:0x2eab1e2ea0cdf921,
komplek housing,Komplek perumahan,Rumah Saupi,"MRHC+35H, Tumpung Laung II, Kec. Montallat, Kabupaten Barito Utara, Kalimantan Tengah 73861","Tumpung Laung II, Kec. Montallat, Kabupaten Barito Utara",KALIMANTAN TENGAH,73861.0,Indonesia,,,,-1.3224313,114.8204997,https://maps.google.com/?cid=0x0:0xc4475e50b602ce6e,
komplek housing,Sekolah Dasar,Perumahan Guru,"MV4P+2XJ, Montallat I, Kec. Montallat, Kabupaten Barito Utara, Kalimantan Tengah","Kabupaten Barito Utara, Kalimantan Tengah",KALIMANTAN TENGAH,,Indonesia,,,,-1.3449027,114.8873786,https://maps.google.com/?cid=0x0:0xc7207e01e89f4f01,
komplek housing,Komplek perumahan,Rumah kai montallat,"MVGR+7JG, Jl. Raya Lintas Kota, Montallat II, Kec. Montallat, Kabupaten Barito Utara, Kalimantan Tengah 73862","Jl. Raya Lintas Kota, Montallat II, Kec. Montallat, Kabupaten Barito Utara",KALIMANTAN TENGAH,73862.0,Indonesia,,,,-1.3240803,114.8909134,https://maps.google.com/?cid=0x0:0x3026c4f5ba176544,
komplek housing,Komplek perumahan,Rumah mas yon,"MRCR+X3W, Gg. Arrahman, Tumpung Laung I, Kec. Montallat, Kabupaten Barito Utara, Kalimantan Tengah 73861","Gg. Arrahman, Tumpung Laung I, Kec. Montallat, Kabupaten Barito Utara",KALIMANTAN TENGAH,73861.0,Indonesia,,,,-1.3276856,114.8402579,https://maps.google.com/?cid=0x0:0x9aeb9b39e3ac874a,
komplek housing,Komplek perumahan,Rumah Mi'raj Amit,"MRH8+GQP, Tumpung Laung II, Kec. Montallat, Kabupaten Barito Utara, Kalimantan Tengah 73861","Tumpung Laung II, Kec. Montallat, Kabupaten Barito Utara",KALIMANTAN TENGAH,73861.0,Indonesia,,,,-1.3211524,114.8169558,https://maps.google.com/?cid=0x0:0x78d7be1e3f137bc,
komplek housing,komplek housing,Rumah Godlief,"MRFQ+92C, Tumpung Laung I, Kec. Montallat, Kabupaten Barito Utara, Kalimantan Tengah","Kabupaten Barito Utara, Kalimantan Tengah",KALIMANTAN TENGAH,,Indonesia,,,,-1.3266951,114.8378365,https://maps.google.com/?cid=0x0:0x79397b9aec9d83f7,
komplek housing,Komplek perumahan,Angga home stay,"VW25+5FP, Buntok Baru, Kec. Teweh Tengah, Kabupaten Barito Utara, Kalimantan Tengah 73861","Buntok Baru, Kec. Teweh Tengah, Kabupaten Barito Utara",KALIMANTAN TENGAH,73861.0,Indonesia,,,,-1.1495455,114.9086904,https://maps.google.com/?cid=0x0:0x3463328831c9cb9a,
komplek housing,Komplek perumahan,Hoirul umam,"VX3P+838, Sikan, Kec. Montallat, Kabupaten Barito Utara, Kalimantan Tengah","Kabupaten Barito Utara, Kalimantan Tengah",KALIMANTAN TENGAH,,Indonesia,,,,-1.1467193,114.9852028,https://maps.google.com/?cid=0x0:0x37354dd1147a1f8a,
komplek housing,Komplek perumahan,RUMAH H.IDIN,"MRH9+5HR, Tumpung Laung II, Kec. Montallat, Kabupaten Barito Utara, Kalimantan Tengah 73861","Tumpung Laung II, Kec. Montallat, Kabupaten Barito Utara",KALIMANTAN TENGAH,73861.0,Indonesia,,,,-1.3212849,114.8195438,https://maps.google.com/?cid=0x0:0xfe18d7af54e7bb29,
komplek housing,Komplek perumahan,pos malam,"MWJ5+236, Montallat II, Kec. Montallat, Kabupaten Barito Utara, Kalimantan Tengah 73862","Montallat II, Kec. Montallat, Kabupaten Barito Utara",KALIMANTAN TENGAH,73862.0,Indonesia,,,,-1.3194973,114.9074318,https://maps.google.com/?cid=0x0:0x6dcd526876664cf8,
komplek housing,komplek housing,Rumah Medi,"MRFQ+9CV, Jl. Raya Lintas Kota, Tumpung Laung I, Kec. Montallat, Kabupaten Barito Utara, Kalimantan Tengah 73861","Jl. Raya Lintas Kota, Tumpung Laung I, Kec. Montallat, Kabupaten Barito Utara",KALIMANTAN TENGAH,73861.0,Indonesia,,,,-1.3264982,114.8385055,https://maps.google.com/?cid=0x0:0x26e49ebfb44a76a7,
komplek housing,Komplek perumahan,Rumah Ilip,"PR4V+565, Sikan, Kec. Montallat, Kabupaten Barito Utara, Kalimantan Tengah 73861","Sikan, Kec. Montallat, Kabupaten Barito Utara",KALIMANTAN TENGAH,73861.0,Indonesia,,,,-1.294931,114.8432904,https://maps.google.com/?cid=0x0:0xd952d8d0de469ec3,
komplek housing,Pembangunan Perumahan,Walet Nadya,"MWJ6+F8, Montallat II, Kec. Montallat, Kabupaten Barito Utara, Kalimantan Tengah 73862","Montallat II, Kec. Montallat, Kabupaten Barito Utara",KALIMANTAN TENGAH,73862.0,Indonesia,,,,-1.318808,114.9109035,https://maps.google.com/?cid=0x0:0x3a107b37178f2169,
komplek housing,Komplek perumahan,Rumah Pak Igun,"MRG6+HM, Tumpung Laung II, Kec. Montallat, Kabupaten Barito Utara, Kalimantan Tengah","Kabupaten Barito Utara, Kalimantan Tengah",KALIMANTAN TENGAH,,Indonesia,,,,-1.3235705,114.8117064,https://maps.google.com/?cid=0x0:0x8c2a3543f65f9f08,
komplek housing,Pembangunan Perumahan,M yusup,"MRGG+Q92, Tumpung Laung II, Kec. Montallat, Kabupaten Barito Utara, Kalimantan Tengah 73861","Tumpung Laung II, Kec. Montallat, Kabupaten Barito Utara",KALIMANTAN TENGAH,73861.0,Indonesia,,,,-1.3230329,114.8251399,https://maps.google.com/?cid=0x0:0xb9babf7516d0df5e,
komplek housing,Rumah Kayu,Rumah subuh tumpung laung,"Tumpung Laung I, Kec. Montallat, Kabupaten Barito Utara, Kalimantan Tengah 73861","Kec. Montallat, Kabupaten Barito Utara",KALIMANTAN TENGAH,73861.0,Indonesia,,,,-1.3273814,114.8397938,https://maps.google.com/?cid=0x0:0x9c3227b6a75afb48,
komplek housing,Komplek perumahan,Herwin,"Jl.Tabib No.RT.08, Tumpung Laung II, Kec. Montallat, Kabupaten Barito Utara, Kalimantan Tengah 73861","Tumpung Laung II, Kec. Montallat, Kabupaten Barito Utara",KALIMANTAN TENGAH,73861.0,Indonesia,,,,-1.3367596,114.7973983,https://maps.google.com/?cid=0x0:0xc62d8cb0f00dfd68,
komplek housing,Gedung Apartemen,Rumah H.Jarkasi,"MRGF+PF3, Jl. Raya Lintas Kota, Tumpung Laung II, Kec. Montallat, Kabupaten Barito Utara, Kalimantan Tengah 73861","Jl. Raya Lintas Kota, Tumpung Laung II, Kec. Montallat, Kabupaten Barito Utara",KALIMANTAN TENGAH,73861.0,Indonesia,,,,-1.3230704,114.8236024,https://maps.google.com/?cid=0x0:0x3d35e9369226af7d,
komplek housing,Komplek perumahan,Rumah if herwin,"MRH8+4GV, Tumpung Laung II, Kec. Montallat, Kabupaten Barito Utara, Kalimantan Tengah 73861","Tumpung Laung II, Kec. Montallat, Kabupaten Barito Utara",KALIMANTAN TENGAH,73861.0,Indonesia,,,,-1.3221299,114.8162836,https://maps.google.com/?cid=0x0:0x73a61231a1e4f17,
komplek housing,Komplek perumahan,Abdul rahim,"MRGF+WQJ, Tumpung Laung I, Kec. Montallat, Kabupaten Barito Utara, Kalimantan Tengah 73861","Tumpung Laung I, Kec. Montallat, Kabupaten Barito Utara",KALIMANTAN TENGAH,73861.0,Indonesia,,,,-1.3226608,114.824394,https://maps.google.com/?cid=0x0:0x3a47444100c73113,
komplek housing,Komplek perumahan,Rumah Marlina,"MRGQ+PHW, Tumpung Laung I, Kec. Montallat, Kabupaten Barito Utara, Kalimantan Tengah 73861","Tumpung Laung I, Kec. Montallat, Kabupaten Barito Utara",KALIMANTAN TENGAH,73861.0,Indonesia,,,,-1.3231464,114.8389443,https://maps.google.com/?cid=0x0:0x5e3be4c0c5be1f7d,
komplek housing,Komplek perumahan,H.Hengky Suhendra,"MRP5+MR2, Jl. Raya Lintas Kota, Tumpung Laung II, Kec. Montallat, Kabupaten Barito Utara, Kalimantan Tengah 73861","Jl. Raya Lintas Kota, Tumpung Laung II, Kec. Montallat, Kabupaten Barito Utara",KALIMANTAN TENGAH,73861.0,Indonesia,,,,-1.3133533,114.8095147,https://maps.google.com/?cid=0x0:0x46c0680c3311013d,
komplek housing,Komplek perumahan,Rumah Hairul,"RWW7+CJV, Buntok Baru, Kec. Tewen Selatan, Kabupaten Barito Utara, Kalimantan Tengah 73861","Buntok Baru, Kec. Tewen Selatan, Kabupaten Barito Utara",KALIMANTAN TENGAH,73861.0,Indonesia,,,,-1.1538891,114.9140324,https://maps.google.com/?cid=0x0:0x87453b14f60128bb,
komplek housing,Komplek perumahan,Rumah Pak Sumiadi,"Jl. Tabib II No.RT. 08, Tumpung Laung I, Kec. Montallat, Kabupaten Barito Utara, Kalimantan Tengah 73861","Tumpung Laung I, Kec. Montallat, Kabupaten Barito Utara",KALIMANTAN TENGAH,73861.0,Indonesia,,,,-1.3247252,114.8152003,https://maps.google.com/?cid=0x0:0x581912ac0f2d533b,
komplek housing,komplek housing,Kalimantan Tengah 73813,"Jambu, Kec. Teweh Baru, Kabupaten Barito Utara, Kalimantan Tengah","Kabupaten Barito Utara, Kalimantan Tengah",KALIMANTAN TENGAH,,Indonesia,,,,-0.8856163,115.0169419,https://maps.google.com/?cid=0x0:0x20b84a66bae62c5e,
komplek housing,Komplek perumahan,HURUNG ENEP RAWRRR,"4XVG+5W, Hurung Enep, Kec. Lahei, Kabupaten Barito Utara, Kalimantan Tengah","Kabupaten Barito Utara, Kalimantan Tengah",KALIMANTAN TENGAH,,Indonesia,,,,-0.8571188,114.9773009,https://maps.google.com/?cid=0x0:0x2befba89da3bfe86,
komplek housing,Komplek perumahan,SR HOMEY 1 homestay,"Gg. Swadaya, Melayu, Kec. Teweh Tengah, Kabupaten Barito Utara, Kalimantan Tengah 73814","Melayu, Kec. Teweh Tengah, Kabupaten Barito Utara",KALIMANTAN TENGAH,73814.0,Indonesia,82154895947.0,,,-0.9427504,114.8980231,https://maps.google.com/?cid=0x0:0x2a1fdc3cad13de68,
komplek housing,komplek housing,Kalimantan Tengah 73814,"Kabupaten Barito Utara, Kalimantan Tengah","Kabupaten Barito Utara, Kalimantan Tengah",KALIMANTAN TENGAH,,Indonesia,,,,-0.8914468,114.8092691,https://maps.google.com/?cid=0x0:0xb5548f39346751af,
komplek housing,Komplek perumahan,GEOSERVICES MUARA TEWEH,"2VQP+5X6, Lanjas, Kec. Teweh Tengah, Kabupaten Barito Utara, Kalimantan Tengah 73814","Lanjas, Kec. Teweh Tengah, Kabupaten Barito Utara",KALIMANTAN TENGAH,73814.0,Indonesia,,,,-0.9620793,114.8873927,https://maps.google.com/?cid=0x0:0x7f9add140fae4fe5,
komplek housing,Komplek perumahan,Rumah saya di muara Teweh,"3V5X+JQ, Jl. Ronggolawe No.1, Melayu, Kec. Teweh Tengah, Kabupaten Barito Utara, Kalimantan Tengah 73814","Jl. Ronggolawe No.1, Melayu, Kec. Teweh Tengah, Kabupaten Barito Utara",KALIMANTAN TENGAH,73814.0,Indonesia,,,,-0.9408186,114.8992909,https://maps.google.com/?cid=0x0:0x872b06cba34687af,
komplek housing,Komplek perumahan,Rumah yunita. Syaharani,"2WG3+F9, Jingah, Kec. Teweh Baru, Kabupaten Barito Utara, Kalimantan Tengah 73814","Jingah, Kec. Teweh Baru, Kabupaten Barito Utara",KALIMANTAN TENGAH,73814.0,Indonesia,,,,-0.9737735,114.9033807,https://maps.google.com/?cid=0x0:0x7cecb0184f603dc9,
komplek housing,Pembangunan Perumahan,Pt. Erba jaya sukses,"3V4R+P9H, Jl. Taman Remaja, Lanjas, Kec. Teweh Tengah, Kabupaten Barito Utara, Kalimantan Tengah 73814","Jl. Taman Remaja, Lanjas, Kec. Teweh Tengah, Kabupaten Barito Utara",KALIMANTAN TENGAH,73814.0,Indonesia,,,,-0.9431878,114.8909789,https://maps.google.com/?cid=0x0:0x3a20d71b3fde949b,
komplek housing,Pembangunan Perumahan,Mr. D (Home),"3V5R+8HQ, Lanjas, Kec. Teweh Tengah, Kabupaten Barito Utara, Kalimantan Tengah 73814","Lanjas, Kec. Teweh Tengah, Kabupaten Barito Utara",KALIMANTAN TENGAH,73814.0,Indonesia,,,,-0.9416682,114.8914932,https://maps.google.com/?cid=0x0:0xd77e4266543a02b9,
komplek housing,Komplek perumahan,Esrom,"3V7X+5GG, Melayu, Kec. Teweh Tengah, Kabupaten Barito Utara, Kalimantan Tengah 73814","Melayu, Kec. Teweh Tengah, Kabupaten Barito Utara",KALIMANTAN TENGAH,73814.0,Indonesia,,,,-0.9370604,114.8988125,https://maps.google.com/?cid=0x0:0x20da730677e4e53b,
komplek housing,Komplek perumahan,Muara teweh barito utara,"2VPV+F2F, Jl. Langsat, RT.06/RW.00, Lanjas, Kec. Teweh Tengah, Kabupaten Barito Utara, Kalimantan Tengah 73814","Jl. Langsat, RT.06/RW.00, Lanjas, Kec. Teweh Tengah, Kabupaten Barito Utara",KALIMANTAN TENGAH,73814.0,Indonesia,,,,-0.9638154,114.8925435,https://maps.google.com/?cid=0x0:0xf9c36f243eb0b899,
komplek housing,Dokter,Komplek perumahan kesehatan,"2VXW+R4F, Jl. Pramuka, Lanjas, Kec. Teweh Tengah, Kabupaten Barito Utara, Kalimantan Tengah 73814","Jl. Pramuka, Lanjas, Kec. Teweh Tengah, Kabupaten Barito Utara",KALIMANTAN TENGAH,73814.0,Indonesia,,,,-0.9504391,114.8952898,https://maps.google.com/?cid=0x0:0xe508b3e8adcdf10,
komplek housing,komplek housing,Rumah Memet,"2VQR+3V8, Jl. Langsat, Lanjas, Kec. Teweh Tengah, Kabupaten Barito Utara, Kalimantan Tengah 73814","Jl. Langsat, Lanjas, Kec. Teweh Tengah, Kabupaten Barito Utara",KALIMANTAN TENGAH,73814.0,Indonesia,,,,-0.9625583,114.8921368,https://maps.google.com/?cid=0x0:0xd9053f6400fa6657,
komplek housing,Komplek perumahan,perumahan vsi,"2VFP+X92, Jl. Muara Teweh, Jingah, Kec. Teweh Baru, Kabupaten Barito Utara, Kalimantan Tengah 73814","Jl. Muara Teweh, Jingah, Kec. Teweh Baru, Kabupaten Barito Utara",KALIMANTAN TENGAH,73814.0,Indonesia,,,,-0.9751122,114.8858994,https://maps.google.com/?cid=0x0:0xbcd4b4037440b50c,
komplek housing,Komplek perumahan,Nizham,"Jl. AYUZA 4 No.291, Melayu, Kec. Teweh Tengah, Kabupaten Barito Utara, Kalimantan Tengah 73814","Melayu, Kec. Teweh Tengah, Kabupaten Barito Utara",KALIMANTAN TENGAH,73814.0,Indonesia,,,,-0.9499741,114.9003608,https://maps.google.com/?cid=0x0:0xea7ca2e1b0ac8241,
komplek housing,Komplek perumahan,Rumah UfiSyifa,"Jl. Persemaian IV No.2, Lanjas, Kec. Teweh Tengah, Kabupaten Barito Utara, Kalimantan Tengah 73814","Lanjas, Kec. Teweh Tengah, Kabupaten Barito Utara",KALIMANTAN TENGAH,73814.0,Indonesia,,,,-0.9371368,114.8843279,https://maps.google.com/?cid=0x0:0x1f84393fefe4e487,
komplek housing,Komplek perumahan,Zaindut,"Perumahan lapas No.34, Lanjas, Kec. Teweh Tengah, Kabupaten Barito Utara, Kalimantan Tengah 73814","Lanjas, Kec. Teweh Tengah, Kabupaten Barito Utara",KALIMANTAN TENGAH,73814.0,Indonesia,,,,-0.9500985,114.8926496,https://maps.google.com/?cid=0x0:0xb21b8a5376b5a355,
komplek housing,Komplek perumahan,Rumah Totok yuni S,"2WG2+MX2, Jingah, Kec. Teweh Baru, Kabupaten Barito Utara, Kalimantan Tengah 73814","Jingah, Kec. Teweh Baru, Kabupaten Barito Utara",KALIMANTAN TENGAH,73814.0,Indonesia,,,,-0.9733576,114.9024043,https://maps.google.com/?cid=0x0:0xdc530be53a575052,
komplek housing,Komplek perumahan,Rumah Hamsi,"3V7J+Q6R, Jl. Rapen, Lanjas, Kec. Teweh Tengah, Kabupaten Barito Utara, Kalimantan Tengah 73814","Jl. Rapen, Lanjas, Kec. Teweh Tengah, Kabupaten Barito Utara",KALIMANTAN TENGAH,73814.0,Indonesia,,,,-0.9356306,114.8810449,https://maps.google.com/?cid=0x0:0xa8785f3a4318797f,
komplek housing,Komplek perumahan,Rumah Rizvan,"3V4V+CM9, Lanjas, Kec. Teweh Tengah, Kabupaten Barito Utara, Kalimantan Tengah 73814","Lanjas, Kec. Teweh Tengah, Kabupaten Barito Utara",KALIMANTAN TENGAH,73814.0,Indonesia,,,,-0.9439584,114.8942246,https://maps.google.com/?cid=0x0:0xcc19d644f748e373,
komplek housing,Komplek perumahan,Mess UT Teweh,"3V6X+F36, Jl. Pendreh, Lanjas, Kec. Teweh Tengah, Kabupaten Barito Utara, Kalimantan Tengah 73814","Jl. Pendreh, Lanjas, Kec. Teweh Tengah, Kabupaten Barito Utara",KALIMANTAN TENGAH,73814.0,Indonesia,,,,-0.9394666,114.897205,https://maps.google.com/?cid=0x0:0x82e5d75aff10fe03,
komplek housing,Otoritas Perumahan,Komplek griya amanah permata putih,"3V6M+FV3 putih komplek griya amanah, Jl. Permata, Lanjas, Kec. Teweh Tengah, Kabupaten Barito Utara, Kalimantan Tengah 73814","Jl. Permata, Lanjas, Kec. Teweh Tengah, Kabupaten Barito Utara",KALIMANTAN TENGAH,73814.0,Indonesia,,,,-0.9388641,114.8846576,https://maps.google.com/?cid=0x0:0x4e4f600119189bd9,
komplek housing,Komplek perumahan,Rumah Radith - Mulyadi Effendi,"2VWR+Q5R, Lanjas, Kec. Teweh Tengah, Kabupaten Barito Utara, Kalimantan Tengah 73814","Lanjas, Kec. Teweh Tengah, Kabupaten Barito Utara",KALIMANTAN TENGAH,73814.0,Indonesia,,,,-0.9530049,114.890388,https://maps.google.com/?cid=0x0:0xc30a0171a184dda,
komplek housing,Komplek perumahan,Perumahan,"XRVC+6J, Lemo II, Kec. Teweh Tengah, Kabupaten Barito Utara, Kalimantan Tengah 73814","Lemo II, Kec. Teweh Tengah, Kabupaten Barito Utara",KALIMANTAN TENGAH,73814.0,Indonesia,,,,-1.006572,114.821169,https://maps.google.com/?cid=0x0:0xebd5bc5b1a989439,
komplek housing,Pembangunan Perumahan,Komplek Vhicel Shonna Indah,"2V8W+V32, Jingah, Kec. Teweh Tengah, Kabupaten Barito Utara, Kalimantan Tengah 73814","Jingah, Kec. Teweh Tengah, Kabupaten Barito Utara",KALIMANTAN TENGAH,73814.0,Indonesia,81347368863.0,,,-0.9828721,114.8951288,https://maps.google.com/?cid=0x0:0xd8e27e3df5ffbf1,
komplek housing,komplek housing,Kec. Teweh Baru,"Kabupaten Barito Utara, Kalimantan Tengah","Kabupaten Barito Utara, Kalimantan Tengah",KALIMANTAN TENGAH,,Indonesia,,,,-0.9750851,114.8964875,https://maps.google.com/?cid=0x0:0x54b8e48aae1eb7fc,
komplek housing,Komplek perumahan,Muslih,"3V3R+WF9, Jl. Putra Sabui I, Lanjas, Kec. Teweh Tengah, Kabupaten Barito Utara, Kalimantan Tengah 73814","Jl. Putra Sabui I, Lanjas, Kec. Teweh Tengah, Kabupaten Barito Utara",KALIMANTAN TENGAH,73814.0,Indonesia,,,,-0.9452,114.8912623,https://maps.google.com/?cid=0x0:0x7e799ec70554e080,
komplek housing,Komplek perumahan,Ukae,"Jl. Panti Ajar No.65, Lanjas, Kec. Teweh Tengah, Kabupaten Barito Utara, Kalimantan Tengah 73814","Lanjas, Kec. Teweh Tengah, Kabupaten Barito Utara",KALIMANTAN TENGAH,73814.0,Indonesia,,,,-0.9495343,114.8927625,https://maps.google.com/?cid=0x0:0xfe7c16a785fe8d23,
komplek housing,Komplek perumahan,Rumah Daniya,"2WW2+H9 Julian_nails, Melayu, Kec. Teweh Tengah, Kabupaten Barito Utara, Kalimantan Tengah 73814","Melayu, Kec. Teweh Tengah, Kabupaten Barito Utara",KALIMANTAN TENGAH,73814.0,Indonesia,,,,-0.9541457,114.9008637,https://maps.google.com/?cid=0x0:0x98b073ab77a20078,
komplek housing,Gedung Apartemen,RUMAH FARRIS,"2VQP+FWP, Lanjas, Kec. Teweh Tengah, Kabupaten Barito Utara, Kalimantan Tengah 73814","Lanjas, Kec. Teweh Tengah, Kabupaten Barito Utara",KALIMANTAN TENGAH,73814.0,Indonesia,,,,-0.9613728,114.8872954,https://maps.google.com/?cid=0x0:0x7de69fa3e88b0532,
komplek housing,Kantor Pemerintah,Tempat kerja,"2WQ2+RJW, Melayu, Kec. Teweh Tengah, Kabupaten Barito Utara, Kalimantan Tengah 73814","Melayu, Kec. Teweh Tengah, Kabupaten Barito Utara",KALIMANTAN TENGAH,73814.0,Indonesia,,,,-0.9604521,114.90157,https://maps.google.com/?cid=0x0:0x93a004bf62f4650d,
komplek housing,Pembangunan Perumahan,FELICIA HOME,"2VXR+87X, Jl. Badarudin, Kel. Jingah, Kec. Teweh Baru, Kabupaten Barito Utara, Kalimantan Tengah 73814","Jl. Badarudin, Kel. Jingah, Kec. Teweh Baru, Kabupaten Barito Utara",KALIMANTAN TENGAH,73814.0,Indonesia,,,,-0.9516345,114.8907434,https://maps.google.com/?cid=0x0:0x99ba3cb8c0b81758,
komplek housing,komplek housing,Kalimantan Tengah 73881,"Kabupaten Barito Utara, Kalimantan Tengah","Kabupaten Barito Utara, Kalimantan Tengah",KALIMANTAN TENGAH,,Indonesia,,,,-1.0257651,115.3785719,https://maps.google.com/?cid=0x0:0x8bd4f30ba12eadec,
komplek housing,Perhimpunan Pengembang Perumahan,GRAHA BIANGAN,"4FRM+C2, Benangin I, Kec. Teweh Tim., Kabupaten Barito Utara, Kalimantan Tengah 73881","Benangin I, Kec. Teweh Tim., Kabupaten Barito Utara",KALIMANTAN TENGAH,73881.0,Indonesia,,,,-0.8589875,115.4825769,https://maps.google.com/?cid=0x0:0x9410121b083e45d,
komplek housing,Komplek perumahan,Rumah Narius,"298G+898, Benangin I, Kec. Teweh Tim., Kabupaten Barito Utara, Kalimantan Tengah 73881","Benangin I, Kec. Teweh Tim., Kabupaten Barito Utara",KALIMANTAN TENGAH,73881.0,Indonesia,,,,-0.9842143,115.3759493,https://maps.google.com/?cid=0x0:0x22da118f6bb1cb5f,
komplek housing,Komplek perumahan,Ucu rosidi,"W7PH+MHP, Jamut, Kec. Teweh Tim., Kabupaten Barito Utara, Kalimantan Tengah 73881","Jamut, Kec. Teweh Tim., Kabupaten Barito Utara",KALIMANTAN TENGAH,73881.0,Indonesia,,,,-1.0632874,115.2789644,https://maps.google.com/?cid=0x0:0xe2ae1c3d5dcc63f1,
komplek housing,Kantor Pemerintah,DESA SAMPIRANG II,"Sampirang I, Kec. Teweh Tim., Kabupaten Barito Utara, Kalimantan Tengah 73881","Kec. Teweh Tim., Kabupaten Barito Utara",KALIMANTAN TENGAH,73881.0,Indonesia,,,,-1.0692077,115.3999207,https://maps.google.com/?cid=0x0:0xb7ffc9da6041675e,
komplek housing,Komplek perumahan,Rumah acil sitah,"2929+Q9C, Benangin 5, Kec. Teweh Tim., Kabupaten Barito Utara, Kalimantan Tengah","Kabupaten Barito Utara, Kalimantan Tengah",KALIMANTAN TENGAH,,Indonesia,,,,-0.9980622,115.3683882,https://maps.google.com/?cid=0x0:0x5a9cdd764db620c2,
komplek housing,Komplek perumahan,PANAEN,"25CF+H2, Panaen, Kec. Teweh Baru, Kabupaten Barito Utara, Kalimantan Tengah","Kabupaten Barito Utara, Kalimantan Tengah",KALIMANTAN TENGAH,,Indonesia,,,,-0.9785625,115.1725625,https://maps.google.com/?cid=0x0:0xfd1cb5a67e190d9e,
komplek housing,Pembangunan Perumahan,Datan CT,"WC4J+4H8, Sampirang II, Kec. Teweh Tim., Kabupaten Barito Utara, Kalimantan Tengah","Kabupaten Barito Utara, Kalimantan Tengah",KALIMANTAN TENGAH,,Indonesia,,,,-1.0947122,115.4314526,https://maps.google.com/?cid=0x0:0x7c24e64e62d17c68,
komplek housing,Komplek perumahan,Muara tewrh,"V9J2+V4C, Nopelitalus, Kec. Teweh Tim., Kabupaten Barito Utara, Kalimantan Tengah","Kabupaten Barito Utara, Kalimantan Tengah",KALIMANTAN TENGAH,,Indonesia,,,,-1.1178225,115.3502745,https://maps.google.com/?cid=0x0:0xb29662289dc82ffe,
komplek housing,Komplek perumahan,Toko Zaki/ Kursani,"V9J3+7PP, Mampuak I, Kec. Teweh Tim., Kabupaten Barito Utara, Kalimantan Tengah 73881","Mampuak I, Kec. Teweh Tim., Kabupaten Barito Utara",KALIMANTAN TENGAH,73881.0,Indonesia,,,,-1.1192897,115.354322,https://maps.google.com/?cid=0x0:0x95b6ebc1c5e3d164,
komplek housing,Pembangunan Perumahan,Lisnawati,"V9J5+R6, Mampuak I, Kec. Teweh Tim., Kabupaten Barito Utara, Kalimantan Tengah","Kabupaten Barito Utara, Kalimantan Tengah",KALIMANTAN TENGAH,,Indonesia,,,,-1.117907,115.3580687,https://maps.google.com/?cid=0x0:0x7053d894b10dde83,
komplek housing,komplek housing,Mess Binuang PT Bharinto Ekatama,"4FP3+Q54, Benangin 5, Kec. Teweh Tim., Kabupaten Barito Utara, Kalimantan Tengah 73881","Benangin 5, Kec. Teweh Tim., Kabupaten Barito Utara",KALIMANTAN TENGAH,73881.0,Indonesia,,,,-0.8631015,115.4529515,https://maps.google.com/?cid=0x0:0xaf70c36370eacefb,
komplek housing,Perhimpunan Pengembang Perumahan,Rumah dinas nakes,"V9J4+75R, Mampuak I, Kec. Teweh Tim., Kabupaten Barito Utara, Kalimantan Tengah 73881","Mampuak I, Kec. Teweh Tim., Kabupaten Barito Utara",KALIMANTAN TENGAH,73881.0,Indonesia,,,,-1.1193216,115.3559282,https://maps.google.com/?cid=0x0:0x43db44b64d01dd85,
komplek housing,Komplek perumahan,Desa Muara Wakat,"278X+GR, Benangin 5, Kec. Teweh Tim., Kabupaten Barito Utara, Kalimantan Tengah","Kabupaten Barito Utara, Kalimantan Tengah",KALIMANTAN TENGAH,,Indonesia,,,,-0.9836693,115.2995034,https://maps.google.com/?cid=0x0:0x756492a5fc8b48d8,
komplek housing,Komplek perumahan,kang yus,"V9J3+J5, Mampuak I, Kec. Teweh Tim., Kabupaten Barito Utara, Kalimantan Tengah","Kabupaten Barito Utara, Kalimantan Tengah",KALIMANTAN TENGAH,,Indonesia,,,,-1.1184021,115.3529001,https://maps.google.com/?cid=0x0:0x27895cb80ec49976,
komplek housing,Komplek perumahan,Aulia,"PCX2+9W2, Batu Raya I, Kec. Gn. Timang, Kabupaten Barito Utara, Kalimantan Tengah","Kabupaten Barito Utara, Kalimantan Tengah",KALIMANTAN TENGAH,,Indonesia,,,,-1.2516069,115.4022706,https://maps.google.com/?cid=0x0:0x410c6d32668e611b,
komplek housing,Komplek perumahan,Rumah iisnawati,"PCX2+9W2, Batu Raya I, Kec. Gn. Timang, Kabupaten Barito Utara, Kalimantan Tengah","Kabupaten Barito Utara, Kalimantan Tengah",KALIMANTAN TENGAH,,Indonesia,,,,-1.2516069,115.4022706,https://maps.google.com/?cid=0x0:0xc5e047f95b839f7,
komplek housing,Perhimpunan Pengembang Perumahan,Septiara Putri M.,"W465+MW, Sikui, Kec. Teweh Baru, Kabupaten Barito Utara, Kalimantan Tengah","Kabupaten Barito Utara, Kalimantan Tengah",KALIMANTAN TENGAH,,Indonesia,,,,-1.0884383,115.1098249,https://maps.google.com/?cid=0x0:0x8d196d36c70dcf7f,
komplek housing,komplek housing,Simpang Sabub,"33WX+X2, Juju Baru, Kec. Lahei, Kabupaten Barito Utara, Kalimantan Tengah","Kabupaten Barito Utara, Kalimantan Tengah",KALIMANTAN TENGAH,,Indonesia,,,,-0.902623,115.09754,https://maps.google.com/?cid=0x0:0x9af4c31c9c43e23d,
komplek housing,Pembangunan Perumahan,Dijah Andira,"PCG9+7J, Batu Raya I, Kec. Gn. Timang, Kabupaten Barito Utara, Kalimantan Tengah","Kabupaten Barito Utara, Kalimantan Tengah",KALIMANTAN TENGAH,,Indonesia,,,,-1.2743006,115.4190638,https://maps.google.com/?cid=0x0:0x56cba8334b6a96cd,
komplek housing,komplek housing,Kec. Teweh Baru,"Kabupaten Barito Utara, Kalimantan Tengah","Kabupaten Barito Utara, Kalimantan Tengah",KALIMANTAN TENGAH,,Indonesia,,,,-0.9750851,114.8964875,https://maps.google.com/?cid=0x0:0x54b8e48aae1eb7fc,
komplek housing,Rumah wisata,Barak/kos,"2VCR+M5C, Jingah, Kec. Teweh Baru, Kabupaten Barito Utara, Kalimantan Tengah 73814","Jingah, Kec. Teweh Baru, Kabupaten Barito Utara",KALIMANTAN TENGAH,73814.0,Indonesia,,,,-0.9783244,114.890387,https://maps.google.com/?cid=0x0:0x5f99bc582835b0a8,
komplek housing,Komplek perumahan,SR HOMEY 1 homestay,"Gg. Swadaya, Melayu, Kec. Teweh Tengah, Kabupaten Barito Utara, Kalimantan Tengah 73814","Melayu, Kec. Teweh Tengah, Kabupaten Barito Utara",KALIMANTAN TENGAH,73814.0,Indonesia,82154895947.0,,,-0.9427504,114.8980231,https://maps.google.com/?cid=0x0:0x2a1fdc3cad13de68,
komplek housing,komplek housing,Kec. Tewen Selatan,"Kabupaten Barito Utara, Kalimantan Tengah","Kabupaten Barito Utara, Kalimantan Tengah",KALIMANTAN TENGAH,,Indonesia,,,,-1.0409446,114.8984173,https://maps.google.com/?cid=0x0:0x9c139c9a4035a708,
komplek housing,Pembangunan Perumahan,Komplek Vhicel Shonna Indah,"2V8W+V32, Jingah, Kec. Teweh Tengah, Kabupaten Barito Utara, Kalimantan Tengah 73814","Jingah, Kec. Teweh Tengah, Kabupaten Barito Utara",KALIMANTAN TENGAH,73814.0,Indonesia,81347368863.0,,,-0.9828721,114.8951288,https://maps.google.com/?cid=0x0:0xd8e27e3df5ffbf1,
komplek housing,Komplek perumahan,GEOSERVICES MUARA TEWEH,"2VQP+5X6, Lanjas, Kec. Teweh Tengah, Kabupaten Barito Utara, Kalimantan Tengah 73814","Lanjas, Kec. Teweh Tengah, Kabupaten Barito Utara",KALIMANTAN TENGAH,73814.0,Indonesia,,,,-0.9620793,114.8873927,https://maps.google.com/?cid=0x0:0x7f9add140fae4fe5,
komplek housing,Komplek perumahan,Perumahan,"XRVC+6J, Lemo II, Kec. Teweh Tengah, Kabupaten Barito Utara, Kalimantan Tengah 73814","Lemo II, Kec. Teweh Tengah, Kabupaten Barito Utara",KALIMANTAN TENGAH,73814.0,Indonesia,,,,-1.006572,114.821169,https://maps.google.com/?cid=0x0:0xebd5bc5b1a989439,
komplek housing,Kantor Pemerintah,Tempat kerja,"2WQ2+RJW, Melayu, Kec. Teweh Tengah, Kabupaten Barito Utara, Kalimantan Tengah 73814","Melayu, Kec. Teweh Tengah, Kabupaten Barito Utara",KALIMANTAN TENGAH,73814.0,Indonesia,,,,-0.9604521,114.90157,https://maps.google.com/?cid=0x0:0x93a004bf62f4650d,
komplek housing,Komplek perumahan,Rumah yunita. Syaharani,"2WG3+F9, Jingah, Kec. Teweh Baru, Kabupaten Barito Utara, Kalimantan Tengah 73814","Jingah, Kec. Teweh Baru, Kabupaten Barito Utara",KALIMANTAN TENGAH,73814.0,Indonesia,,,,-0.9737735,114.9033807,https://maps.google.com/?cid=0x0:0x7cecb0184f603dc9,
komplek housing,Komplek perumahan,perumahan vsi,"2VFP+X92, Jl. Muara Teweh, Jingah, Kec. Teweh Baru, Kabupaten Barito Utara, Kalimantan Tengah 73814","Jl. Muara Teweh, Jingah, Kec. Teweh Baru, Kabupaten Barito Utara",KALIMANTAN TENGAH,73814.0,Indonesia,,,,-0.9751122,114.8858994,https://maps.google.com/?cid=0x0:0xbcd4b4037440b50c,
komplek housing,Gedung Apartemen,RUMAH FARRIS,"2VQP+FWP, Lanjas, Kec. Teweh Tengah, Kabupaten Barito Utara, Kalimantan Tengah 73814","Lanjas, Kec. Teweh Tengah, Kabupaten Barito Utara",KALIMANTAN TENGAH,73814.0,Indonesia,,,,-0.9613728,114.8872954,https://maps.google.com/?cid=0x0:0x7de69fa3e88b0532,
komplek housing,Pembangunan Perumahan,home els.ka.,"2VHR+33H, Jl. Lintas Kalimantan Poros Tengah, Jingah, Kec. Teweh Tengah, Kabupaten Barito Utara, Kalimantan Tengah 73814","Jl. Lintas Kalimantan Poros Tengah, Jingah, Kec. Teweh Tengah, Kabupaten Barito Utara",KALIMANTAN TENGAH,73814.0,Indonesia,,,,-0.9723017,114.8902626,https://maps.google.com/?cid=0x0:0xacb571974683c516,
komplek housing,Pembangunan Perumahan,Dibawah Plafond Kamar,"Jl. Beringin No.73811, Lanjas, Kec. Teweh Tengah, Kabupaten Barito Utara, Kalimantan Tengah 73814","Lanjas, Kec. Teweh Tengah, Kabupaten Barito Utara",KALIMANTAN TENGAH,73814.0,Indonesia,,,,-0.9627576,114.8933768,https://maps.google.com/?cid=0x0:0x88620327ea9804db,
komplek housing,Komplek perumahan,Rumah Totok yuni S,"2WG2+MX2, Jingah, Kec. Teweh Baru, Kabupaten Barito Utara, Kalimantan Tengah 73814","Jingah, Kec. Teweh Baru, Kabupaten Barito Utara",KALIMANTAN TENGAH,73814.0,Indonesia,,,,-0.9733576,114.9024043,https://maps.google.com/?cid=0x0:0xdc530be53a575052,
komplek housing,Komplek perumahan,Muara teweh barito utara,"2VPV+F2F, Jl. Langsat, RT.06/RW.00, Lanjas, Kec. Teweh Tengah, Kabupaten Barito Utara, Kalimantan Tengah 73814","Jl. Langsat, RT.06/RW.00, Lanjas, Kec. Teweh Tengah, Kabupaten Barito Utara",KALIMANTAN TENGAH,73814.0,Indonesia,,,,-0.9638154,114.8925435,https://maps.google.com/?cid=0x0:0xf9c36f243eb0b899,
komplek housing,Pembangunan Perumahan,Barak H. Ata,"2WM4+2C8, Jingah, Kec. Teweh Baru, Kabupaten Barito Utara, Kalimantan Tengah 73814","Jingah, Kec. Teweh Baru, Kabupaten Barito Utara",KALIMANTAN TENGAH,73814.0,Indonesia,,,,-0.9674568,114.9060908,https://maps.google.com/?cid=0x0:0xa2d74d12bda07732,
komplek housing,Komplek perumahan,My Home,"2VPW+GMX, Jl. Beringin, Lanjas, Kec. Teweh Tengah, Kabupaten Barito Utara, Kalimantan Tengah 73814","Jl. Beringin, Lanjas, Kec. Teweh Tengah, Kabupaten Barito Utara",KALIMANTAN TENGAH,73814.0,Indonesia,,,,-0.9636335,114.8967199,https://maps.google.com/?cid=0x0:0x21dec17948956f0f,
komplek housing,Komplek perumahan,Jl.Semoga Indah,"2VVR+2X2, Jl. Semoga Indah, Lanjas, Kec. Teweh Tengah, Kabupaten Barito Utara, Kalimantan Tengah 73814","Jl. Semoga Indah, Lanjas, Kec. Teweh Tengah, Kabupaten Barito Utara",KALIMANTAN TENGAH,73814.0,Indonesia,,,,-0.9574974,114.8923765,https://maps.google.com/?cid=0x0:0xa28279166d7afb2,
komplek housing,Rumah Kayu,Kos tsj muara teweh,"2VPR+HMM, Gg. Nusa Indah, Lanjas, Kec. Teweh Tengah, Kabupaten Barito Utara, Kalimantan Tengah 73814","Gg. Nusa Indah, Lanjas, Kec. Teweh Tengah, Kabupaten Barito Utara",KALIMANTAN TENGAH,73814.0,Indonesia,,,,-0.9635328,114.8916589,https://maps.google.com/?cid=0x0:0x5e74edc363100cdb,
komplek housing,Komplek perumahan,Ukae,"Jl. Panti Ajar No.65, Lanjas, Kec. Teweh Tengah, Kabupaten Barito Utara, Kalimantan Tengah 73814","Lanjas, Kec. Teweh Tengah, Kabupaten Barito Utara",KALIMANTAN TENGAH,73814.0,Indonesia,,,,-0.9495343,114.8927625,https://maps.google.com/?cid=0x0:0xfe7c16a785fe8d23,
komplek housing,Komplek perumahan,TWC,"XRWG+376, Lemo II, Kec. Teweh Tengah, Kabupaten Barito Utara, Kalimantan Tengah 73814","Lemo II, Kec. Teweh Tengah, Kabupaten Barito Utara",KALIMANTAN TENGAH,73814.0,Indonesia,,,,-1.00546,114.8248367,https://maps.google.com/?cid=0x0:0x2c4c79783ed38d38,
komplek housing,Komplek perumahan,BERRY HOUSE,"2VQX+9JW, Jl. Manggis, Kuripan, Kec. Teweh Tengah, Kota Banjarmasin, Kalimantan Tengah 73814","Jl. Manggis, Kuripan, Kec. Teweh Tengah, Kota Banjarmasin",KALIMANTAN TENGAH,73814.0,Indonesia,,,,-0.9615054,114.8990656,https://maps.google.com/?cid=0x0:0xaff4e5bfd544ccd3,
komplek housing,Komplek perumahan,Rumah Daniya,"2WW2+H9 Julian_nails, Melayu, Kec. Teweh Tengah, Kabupaten Barito Utara, Kalimantan Tengah 73814","Melayu, Kec. Teweh Tengah, Kabupaten Barito Utara",KALIMANTAN TENGAH,73814.0,Indonesia,,,,-0.9541457,114.9008637,https://maps.google.com/?cid=0x0:0x98b073ab77a20078,
komplek housing,Pembangunan Perumahan,Kampung Bakumpai,"2V3C+W4P, Jl. Bukit Bambu, Lemo I, Kec. Teweh Tengah, Kabupaten Barito Utara, Kalimantan Tengah 73814","Jl. Bukit Bambu, Lemo I, Kec. Teweh Tengah, Kabupaten Barito Utara",KALIMANTAN TENGAH,73814.0,Indonesia,,,,-0.9951719,114.870321,https://maps.google.com/?cid=0x0:0x51f7c43bdf837b07,
komplek housing,Komplek perumahan,GANG RUMAH EVA DEDE,"2WQ3+X4W, Melayu, Kec. Teweh Tengah, Kabupaten Barito Utara, Kalimantan Tengah 73814","Melayu, Kec. Teweh Tengah, Kabupaten Barito Utara",KALIMANTAN TENGAH,73814.0,Indonesia,,,,-0.9600056,114.9028425,https://maps.google.com/?cid=0x0:0xdc800393761a6b3a,
komplek housing,Komplek perumahan,SEMOGA INDAH UJUNG,"2VRQ+HPR, Lanjas, Kec. Teweh Tengah, Kabupaten Barito Utara, Kalimantan Tengah 73814","Lanjas, Kec. Teweh Tengah, Kabupaten Barito Utara",KALIMANTAN TENGAH,73814.0,Indonesia,,,,-0.9585055,114.8892731,https://maps.google.com/?cid=0x0:0x82f2b022e47e33bb,
komplek housing,Komplek perumahan,Rumah gwehh,"2VPX+WC4, Jl. Mangkusari, Lanjas, Kec. Teweh Tengah, Kabupaten Barito Utara, Kalimantan Tengah 73814","Jl. Mangkusari, Lanjas, Kec. Teweh Tengah, Kabupaten Barito Utara",KALIMANTAN TENGAH,73814.0,Indonesia,,,,-0.9629183,114.8988717,https://maps.google.com/?cid=0x0:0xccec811d6b5f555a,
komplek housing,komplek housing,Kalimantan Tengah 73811,"Juju Baru, Kec. Lahei, Kabupaten Barito Utara, Kalimantan Tengah","Kabupaten Barito Utara, Kalimantan Tengah",KALIMANTAN TENGAH,,Indonesia,,,,-0.8295559,114.9872821,https://maps.google.com/?cid=0x0:0x483ad48a5b01a50d,
komplek housing,Komplek perumahan,Hani Home,"Jl.Permata Biru 2 No.15 RT.18 Perum Borobudur , Lanjas, Luwe Hilir, Kec. Teweh Tengah, Kabupaten Barito Utara, Kalimantan Tengah 73812","Lanjas, Luwe Hilir, Kec. Teweh Tengah, Kabupaten Barito Utara",KALIMANTAN TENGAH,73812.0,Indonesia,,,,-0.8255092,114.945754,https://maps.google.com/?cid=0x0:0xbfb74db5bd77f757,
komplek housing,Komplek perumahan,SR HOMEY 1 homestay,"Gg. Swadaya, Melayu, Kec. Teweh Tengah, Kabupaten Barito Utara, Kalimantan Tengah 73814","Melayu, Kec. Teweh Tengah, Kabupaten Barito Utara",KALIMANTAN TENGAH,73814.0,Indonesia,82154895947.0,,,-0.9427504,114.8980231,https://maps.google.com/?cid=0x0:0x2a1fdc3cad13de68,
komplek housing,Komplek perumahan,Mess MPU site Duta Nurcahya,"5XG2+FH, Luwe Hilir, Kec. Lahei Barat, Kabupaten Barito Utara, Kalimantan Tengah","Kabupaten Barito Utara, Kalimantan Tengah",KALIMANTAN TENGAH,,Indonesia,,,,-0.8238741,114.9514428,https://maps.google.com/?cid=0x0:0x967b4a3c9743777b,
komplek housing,Komplek perumahan,Rumah Deby,"4X45+75W, Lahei I, Kec. Lahei, Kabupaten Barito Utara, Kalimantan Tengah 73814","Lahei I, Kec. Lahei, Kabupaten Barito Utara",KALIMANTAN TENGAH,73814.0,Indonesia,,,,-0.8719727,114.9369596,https://maps.google.com/?cid=0x0:0x94a3ff1c2f392b74,
komplek housing,Pembangunan Perumahan,Rumah Alif,"5WVP+XXC, Luwe Hilir, Kec. Lahei Barat, Kabupaten Barito Utara, Kalimantan Tengah","Kabupaten Barito Utara, Kalimantan Tengah",KALIMANTAN TENGAH,,Indonesia,,,,-0.8048927,114.9374266,https://maps.google.com/?cid=0x0:0x15eae57427191dd7,
komplek housing,Pembangunan Perumahan,Eska Gunawan,"4WMJ+J59, Lahei II, Kec. Lahei, Kabupaten Barito Utara, Kalimantan Tengah 73814","Lahei II, Kec. Lahei, Kabupaten Barito Utara",KALIMANTAN TENGAH,73814.0,Indonesia,,,,-0.8659748,114.9304988,https://maps.google.com/?cid=0x0:0x2ffe681cdf6f15ef,
komplek housing,Komplek perumahan,Rumah TT,"6W3Q+9JQ, Jl. Pelajar, Luwe Hulu, Kec. Lahei Barat, Kabupaten Barito Utara, Kalimantan Tengah 73812","Jl. Pelajar, Luwe Hulu, Kec. Lahei Barat, Kabupaten Barito Utara",KALIMANTAN TENGAH,73812.0,Indonesia,,,,-0.796541,114.9391337,https://maps.google.com/?cid=0x0:0x49fde2b85ae0c062,
komplek housing,Pembangunan Perumahan,Rumah dan warung dhirgham,"5WVP+XXC, Luwe Hilir, Kec. Lahei Barat, Kabupaten Barito Utara, Kalimantan Tengah","Kabupaten Barito Utara, Kalimantan Tengah",KALIMANTAN TENGAH,,Indonesia,,,,-0.805015,114.937397,https://maps.google.com/?cid=0x0:0xf6600d3b7b307e62,
komplek housing,Komplek perumahan,rumah NL,"6W2P+MRX, Luwe Hulu, Kec. Lahei Barat, Kabupaten Barito Utara, Kalimantan Tengah","Kabupaten Barito Utara, Kalimantan Tengah",KALIMANTAN TENGAH,,Indonesia,,,,-0.7982569,114.9371027,https://maps.google.com/?cid=0x0:0xaf5e5f8febd04166,
komplek housing,Komplek perumahan,Rumah Khalief Dzikri Al'Hafizh,"4WJM+PV8, Lahei II, Kec. Lahei, Kabupaten Barito Utara, Kalimantan Tengah","Kabupaten Barito Utara, Kalimantan Tengah",KALIMANTAN TENGAH,,Indonesia,,,,-0.86794,114.9346606,https://maps.google.com/?cid=0x0:0xb3a776226c83abbc,
komplek housing,Komplek perumahan,Rumah Minal Abidin,"Jl Pembangunan No.Rt.07, Lahei II, Kec. Lahei, Kabupaten Barito Utara, Kalimantan Tengah","Kabupaten Barito Utara, Kalimantan Tengah",KALIMANTAN TENGAH,,Indonesia,,,,-0.8661663,114.93082,https://maps.google.com/?cid=0x0:0x9462bef396d96e58,
komplek housing,Perhimpunan Pengembang Perumahan,Rumah Pak teguh,"4WMJ+J59, Lahei II, Kec. Lahei, Kabupaten Barito Utara, Kalimantan Tengah 73814","Lahei II, Kec. Lahei, Kabupaten Barito Utara",KALIMANTAN TENGAH,73814.0,Indonesia,,,,-0.8660466,114.9303697,https://maps.google.com/?cid=0x0:0x238ae370a4ff6054,
komplek housing,Komplek perumahan,Mislan,"4WJH+W8C, Lahei II, Kec. Lahei, Kabupaten Barito Utara, Kalimantan Tengah 73814","Lahei II, Kec. Lahei, Kabupaten Barito Utara",KALIMANTAN TENGAH,73814.0,Indonesia,,,,-0.8675137,114.9282478,https://maps.google.com/?cid=0x0:0xa95d8d927de3d80,
komplek housing,Komplek perumahan,Rumah windawindi,"4WHH+8XG, Lahei II, Kec. Lahei, Kabupaten Barito Utara, Kalimantan Tengah 73814","Lahei II, Kec. Lahei, Kabupaten Barito Utara",KALIMANTAN TENGAH,73814.0,Indonesia,,,,-0.8716954,114.9299915,https://maps.google.com/?cid=0x0:0x6bc3d37caed134d3,
komplek housing,Komplek perumahan,LILA AULIA P.M.,"6W4P+4MP, Jl. Waringin, RT.02/RW.No. 55, Luwe Hulu, Kec. Lahei Barat, Kabupaten Barito Utara, Kalimantan Tengah","Kabupaten Barito Utara, Kalimantan Tengah",KALIMANTAN TENGAH,,Indonesia,,,,-0.7946517,114.9366967,https://maps.google.com/?cid=0x0:0x9e1aafa64b905705,
komplek housing,Komplek perumahan,Tempat Rizky Rahmat fahlevi,"4WMJ+897, sebrang, Lahei II, Kec. Lahei, Kabupaten Barito Utara, Kalimantan Tengah","Kabupaten Barito Utara, Kalimantan Tengah",KALIMANTAN TENGAH,,Indonesia,,,,-0.8667245,114.9309122,https://maps.google.com/?cid=0x0:0xa5a5bfb32b5f468f,
komplek housing,komplek housing,Kec. Teweh Tengah,"Kabupaten Barito Utara, Kalimantan Tengah","Kabupaten Barito Utara, Kalimantan Tengah",KALIMANTAN TENGAH,,Indonesia,,,,-1.0321219,114.6192899,https://maps.google.com/?cid=0x0:0x43e48575a2769922,
komplek housing,Pembangunan Perumahan,Dibawah Plafond Kamar,"Jl. Beringin No.73811, Lanjas, Kec. Teweh Tengah, Kabupaten Barito Utara, Kalimantan Tengah 73814","Lanjas, Kec. Teweh Tengah, Kabupaten Barito Utara",KALIMANTAN TENGAH,73814.0,Indonesia,,,,-0.9627576,114.8933768,https://maps.google.com/?cid=0x0:0x88620327ea9804db,
komplek housing,Komplek perumahan,My Home,"Kode Pos. 73811, Jl. Angah Gg. Putri Malu No.42, Melayu, Kec. Teweh Tengah, Kabupaten Barito Utara, Kalimantan Tengah 73814","Jl. Angah Gg. Putri Malu No.42, Melayu, Kec. Teweh Tengah, Kabupaten Barito Utara",KALIMANTAN TENGAH,73814.0,Indonesia,,,,-0.9385537,114.8998347,https://maps.google.com/?cid=0x0:0xfb247e6d37fd99,
komplek housing,Komplek perumahan,H. Akhmad Sumarmo,"Jl. Brigjen Katamso No.40, Melayu, Kec. Teweh Tengah, Kabupaten Barito Utara, Kalimantan Tengah 73811","Melayu, Kec. Teweh Tengah, Kabupaten Barito Utara",KALIMANTAN TENGAH,73811.0,Indonesia,,,,-0.9483352,114.905577,https://maps.google.com/?cid=0x0:0x848348989edad1c5,
komplek housing,Otoritas Perumahan,Sendiri dikamar,"Jl. Beringin No.73811, Lanjas, Kec. Teweh Tengah, Kabupaten Barito Utara, Kalimantan Tengah 73814","Lanjas, Kec. Teweh Tengah, Kabupaten Barito Utara",KALIMANTAN TENGAH,73814.0,Indonesia,,,,-0.9627537,114.8933864,https://maps.google.com/?cid=0x0:0x593bd06be7948b3f,
komplek housing,Rumah Kayu,Barak Daya,"Jl. Pararawen No.120, Melayu, Kec. Teweh Tengah, Kabupaten Barito Utara, Kalimantan Tengah 73811","Melayu, Kec. Teweh Tengah, Kabupaten Barito Utara",KALIMANTAN TENGAH,73811.0,Indonesia,,,,-0.9395936,114.900137,https://maps.google.com/?cid=0x0:0x99caca10dd42d192,
komplek housing,Komplek perumahan,Gg. Gelatik,"Gg. Gelatik No.RT.18, Melayu, Kec. Teweh Tengah, Kabupaten Barito Utara, Kalimantan Tengah 73811","Melayu, Kec. Teweh Tengah, Kabupaten Barito Utara",KALIMANTAN TENGAH,73811.0,Indonesia,,,,-0.9568363,114.9050041,https://maps.google.com/?cid=0x0:0x2786e42282df199,
komplek housing,Pembangunan Perumahan,Komplek Mutiara Bunda,"Jl. Rapen No.50, Lanjas, Kec. Teweh Tengah, Kabupaten Barito Utara, Kalimantan Tengah 73814","Lanjas, Kec. Teweh Tengah, Kabupaten Barito Utara",KALIMANTAN TENGAH,73814.0,Indonesia,,,,-0.9452755,114.884178,https://maps.google.com/?cid=0x0:0xeea721e28a8750e1,
komplek housing,Komplek perumahan,Elvano Adinata,"Pal. 4 Arah Puruk Cahu, Jl. Tamban Sari Gang Kuburan Muslimin No.RT 30, Melayu, Kec. Teweh Tengah, Kabupaten Barito Utara, Kalimantan Tengah 73811","Jl. Tamban Sari Gang Kuburan Muslimin No.RT 30, Melayu, Kec. Teweh Tengah, Kabupaten Barito Utara",KALIMANTAN TENGAH,73811.0,Indonesia,,,,-0.9216443,114.8973229,https://maps.google.com/?cid=0x0:0xcd4c03302334ae4d,
komplek housing,Komplek perumahan,Rumah Sabirin,"Jl. Margo Rukun Perum. Grand Delta Regency No.3, Melayu, Kec. Teweh Tengah, Kabupaten Barito Utara, Kalimantan Tengah 73811","Melayu, Kec. Teweh Tengah, Kabupaten Barito Utara",KALIMANTAN TENGAH,73811.0,Indonesia,,,,-0.929625,114.8897697,https://maps.google.com/?cid=0x0:0x185806076633844d,
komplek housing,Toko Komputer,N23 HOME SHOPPING,"Jln Negara KM. 7 Komplek Salsabila 2, Kalimantan Tengah 73811","Kabupaten Barito Utara, Kalimantan Tengah",KALIMANTAN TENGAH,,Indonesia,81255424307.0,,,-0.9795383,114.8889695,https://maps.google.com/?cid=0x0:0x1eb1c6d7dbd0655a,
komplek housing,komplek housing,Delly's house,,,KALIMANTAN TENGAH,,Indonesia,85654241138.0,,,,,https://maps.google.com/?cid=0x0:0x7572317d7de4d53,
komplek housing,komplek housing,Kalimantan Tengah 73812,"Kabupaten Barito Utara, Kalimantan Tengah","Kabupaten Barito Utara, Kalimantan Tengah",KALIMANTAN TENGAH,,Indonesia,,,,-0.8255092,114.945754,https://maps.google.com/?cid=0x0:0xaf5eb4cc7e2c2286,
komplek housing,Komplek perumahan,Hani Home,"Jl.Permata Biru 2 No.15 RT.18 Perum Borobudur , Lanjas, Luwe Hilir, Kec. Teweh Tengah, Kabupaten Barito Utara, Kalimantan Tengah 73812","Lanjas, Luwe Hilir, Kec. Teweh Tengah, Kabupaten Barito Utara",KALIMANTAN TENGAH,73812.0,Indonesia,,,,-0.8255092,114.945754,https://maps.google.com/?cid=0x0:0xbfb74db5bd77f757,
komplek housing,Komplek perumahan,Mess MPU site Duta Nurcahya,"5XG2+FH, Luwe Hilir, Kec. Lahei Barat, Kabupaten Barito Utara, Kalimantan Tengah","Kabupaten Barito Utara, Kalimantan Tengah",KALIMANTAN TENGAH,,Indonesia,,,,-0.8238741,114.9514428,https://maps.google.com/?cid=0x0:0x967b4a3c9743777b,
komplek housing,Pembangunan Perumahan,Rumah dan warung dhirgham,"5WVP+XXC, Luwe Hilir, Kec. Lahei Barat, Kabupaten Barito Utara, Kalimantan Tengah","Kabupaten Barito Utara, Kalimantan Tengah",KALIMANTAN TENGAH,,Indonesia,,,,-0.805015,114.937397,https://maps.google.com/?cid=0x0:0xf6600d3b7b307e62,
komplek housing,Pembangunan Perumahan,Eska Gunawan,"4WMJ+J59, Lahei II, Kec. Lahei, Kabupaten Barito Utara, Kalimantan Tengah 73814","Lahei II, Kec. Lahei, Kabupaten Barito Utara",KALIMANTAN TENGAH,73814.0,Indonesia,,,,-0.8659748,114.9304988,https://maps.google.com/?cid=0x0:0x2ffe681cdf6f15ef,
komplek housing,Komplek perumahan,rumah NL,"6W2P+MRX, Luwe Hulu, Kec. Lahei Barat, Kabupaten Barito Utara, Kalimantan Tengah","Kabupaten Barito Utara, Kalimantan Tengah",KALIMANTAN TENGAH,,Indonesia,,,,-0.7982569,114.9371027,https://maps.google.com/?cid=0x0:0xaf5e5f8febd04166,
komplek housing,Pembangunan Perumahan,Rumah Alif,"5WVP+XXC, Luwe Hilir, Kec. Lahei Barat, Kabupaten Barito Utara, Kalimantan Tengah","Kabupaten Barito Utara, Kalimantan Tengah",KALIMANTAN TENGAH,,Indonesia,,,,-0.8048927,114.9374266,https://maps.google.com/?cid=0x0:0x15eae57427191dd7,
komplek housing,Komplek perumahan,Rumah Minal Abidin,"Jl Pembangunan No.Rt.07, Lahei II, Kec. Lahei, Kabupaten Barito Utara, Kalimantan Tengah","Kabupaten Barito Utara, Kalimantan Tengah",KALIMANTAN TENGAH,,Indonesia,,,,-0.8661663,114.93082,https://maps.google.com/?cid=0x0:0x9462bef396d96e58,
komplek housing,Perhimpunan Pengembang Perumahan,Rumah Pak teguh,"4WMJ+J59, Lahei II, Kec. Lahei, Kabupaten Barito Utara, Kalimantan Tengah 73814","Lahei II, Kec. Lahei, Kabupaten Barito Utara",KALIMANTAN TENGAH,73814.0,Indonesia,,,,-0.8660466,114.9303697,https://maps.google.com/?cid=0x0:0x238ae370a4ff6054,
komplek housing,komplek housing,Kec. Teweh Tengah,"Kabupaten Barito Utara, Kalimantan Tengah","Kabupaten Barito Utara, Kalimantan Tengah",KALIMANTAN TENGAH,,Indonesia,,,,-1.0321219,114.6192899,https://maps.google.com/?cid=0x0:0x43e48575a2769922,
komplek housing,Komplek perumahan,Rumah Lia Rosita,"mushola nurul jihad, Jl. Meranti GG. Budiman belakang, Lanjas, Kec. Teweh Tengah, Kabupaten Barito Utara, Kalimantan Tengah 73812","Jl. Meranti GG. Budiman belakang, Lanjas, Kec. Teweh Tengah, Kabupaten Barito Utara",KALIMANTAN TENGAH,73812.0,Indonesia,,,,-0.9590414,114.883888,https://maps.google.com/?cid=0x0:0xe06ccd9e02eaad6,
komplek housing,Komplek perumahan,Rumah Yuni,"Jl. Permata Hijau VIII No.6, RT.18, Lanjas, Kec. Teweh Tengah, Kabupaten Barito Utara, Kalimantan Tengah 73812","RT.18, Lanjas, Kec. Teweh Tengah, Kabupaten Barito Utara",KALIMANTAN TENGAH,73812.0,Indonesia,,,,-0.9388495,114.8876914,https://maps.google.com/?cid=0x0:0x87d758e990b07774,
komplek housing,komplek housing,Delly's house,,,KALIMANTAN TENGAH,,Indonesia,85654241138.0,,,,,https://maps.google.com/?cid=0x0:0x7572317d7de4d53,
komplek housing,Komplek perumahan,Rumah rere comel,"Gg. Nusa Indah Gg. Borneo No.4, RW.4, Lanjas, Kec. Teweh Tengah, Kabupaten Barito Utara, Kalimantan Tengah 73812","RW.4, Lanjas, Kec. Teweh Tengah, Kabupaten Barito Utara",KALIMANTAN TENGAH,73812.0,Indonesia,,,,-0.9644406,114.8910776,https://maps.google.com/?cid=0x0:0x40012190a5707a6c,
komplek housing,Komplek perumahan,SR HOMEY 1 homestay,"Gg. Swadaya, Melayu, Kec. Teweh Tengah, Kabupaten Barito Utara, Kalimantan Tengah 73814","Melayu, Kec. Teweh Tengah, Kabupaten Barito Utara",KALIMANTAN TENGAH,73814.0,Indonesia,82154895947.0,,,-0.9427504,114.8980231,https://maps.google.com/?cid=0x0:0x2a1fdc3cad13de68,
komplek housing,komplek housing,Kalimantan Tengah 73814,"Kabupaten Barito Utara, Kalimantan Tengah","Kabupaten Barito Utara, Kalimantan Tengah",KALIMANTAN TENGAH,,Indonesia,,,,-0.8914468,114.8092691,https://maps.google.com/?cid=0x0:0xb5548f39346751af,
komplek housing,Pembangunan Perumahan,Komplek Vhicel Shonna Indah,"2V8W+V32, Jingah, Kec. Teweh Tengah, Kabupaten Barito Utara, Kalimantan Tengah 73814","Jingah, Kec. Teweh Tengah, Kabupaten Barito Utara",KALIMANTAN TENGAH,73814.0,Indonesia,81347368863.0,,,-0.9828721,114.8951288,https://maps.google.com/?cid=0x0:0xd8e27e3df5ffbf1,
komplek housing,Komplek perumahan,Perumahan,"XRVC+6J, Lemo II, Kec. Teweh Tengah, Kabupaten Barito Utara, Kalimantan Tengah 73814","Lemo II, Kec. Teweh Tengah, Kabupaten Barito Utara",KALIMANTAN TENGAH,73814.0,Indonesia,,,,-1.006572,114.821169,https://maps.google.com/?cid=0x0:0xebd5bc5b1a989439,
komplek housing,Komplek perumahan,Ukae,"Jl. Panti Ajar No.65, Lanjas, Kec. Teweh Tengah, Kabupaten Barito Utara, Kalimantan Tengah 73814","Lanjas, Kec. Teweh Tengah, Kabupaten Barito Utara",KALIMANTAN TENGAH,73814.0,Indonesia,,,,-0.9495343,114.8927625,https://maps.google.com/?cid=0x0:0xfe7c16a785fe8d23,
komplek housing,Pembangunan Perumahan,Mr. D (Home),"3V5R+8HQ, Lanjas, Kec. Teweh Tengah, Kabupaten Barito Utara, Kalimantan Tengah 73814","Lanjas, Kec. Teweh Tengah, Kabupaten Barito Utara",KALIMANTAN TENGAH,73814.0,Indonesia,,,,-0.9416682,114.8914932,https://maps.google.com/?cid=0x0:0xd77e4266543a02b9,
komplek housing,Komplek perumahan,Rumah saya di muara Teweh,"3V5X+JQ, Jl. Ronggolawe No.1, Melayu, Kec. Teweh Tengah, Kabupaten Barito Utara, Kalimantan Tengah 73814","Jl. Ronggolawe No.1, Melayu, Kec. Teweh Tengah, Kabupaten Barito Utara",KALIMANTAN TENGAH,73814.0,Indonesia,,,,-0.9408186,114.8992909,https://maps.google.com/?cid=0x0:0x872b06cba34687af,
komplek housing,Komplek perumahan,Rumah Ben,"3V5W+24W, Jl. Bandara Lama, Melayu, Kec. Teweh Tengah, Kabupaten Barito Utara, Kalimantan Tengah 73814","Jl. Bandara Lama, Melayu, Kec. Teweh Tengah, Kabupaten Barito Utara",KALIMANTAN TENGAH,73814.0,Indonesia,,,,-0.9423958,114.8953322,https://maps.google.com/?cid=0x0:0x82b60fd553e36191,
komplek housing,Dokter,Komplek perumahan kesehatan,"2VXW+R4F, Jl. Pramuka, Lanjas, Kec. Teweh Tengah, Kabupaten Barito Utara, Kalimantan Tengah 73814","Jl. Pramuka, Lanjas, Kec. Teweh Tengah, Kabupaten Barito Utara",KALIMANTAN TENGAH,73814.0,Indonesia,,,,-0.9504391,114.8952898,https://maps.google.com/?cid=0x0:0xe508b3e8adcdf10,
komplek housing,Komplek perumahan,Esrom,"3V7X+5GG, Melayu, Kec. Teweh Tengah, Kabupaten Barito Utara, Kalimantan Tengah 73814","Melayu, Kec. Teweh Tengah, Kabupaten Barito Utara",KALIMANTAN TENGAH,73814.0,Indonesia,,,,-0.9370604,114.8988125,https://maps.google.com/?cid=0x0:0x20da730677e4e53b,
komplek housing,Komplek perumahan,Rumah UfiSyifa,"Jl. Persemaian IV No.2, Lanjas, Kec. Teweh Tengah, Kabupaten Barito Utara, Kalimantan Tengah 73814","Lanjas, Kec. Teweh Tengah, Kabupaten Barito Utara",KALIMANTAN TENGAH,73814.0,Indonesia,,,,-0.9371368,114.8843279,https://maps.google.com/?cid=0x0:0x1f84393fefe4e487,
komplek housing,Komplek perumahan,Nizham,"Jl. AYUZA 4 No.291, Melayu, Kec. Teweh Tengah, Kabupaten Barito Utara, Kalimantan Tengah 73814","Melayu, Kec. Teweh Tengah, Kabupaten Barito Utara",KALIMANTAN TENGAH,73814.0,Indonesia,,,,-0.9499741,114.9003608,https://maps.google.com/?cid=0x0:0xea7ca2e1b0ac8241,
komplek housing,Pembangunan Perumahan,Rumah Mantri Dayat,"Jl. Permata Hijau 2 No.01, RT.018/RW.005, Lanjas, Kec. Teweh Tengah, Kabupaten Barito Utara, Kalimantan Tengah 73814","RT.018/RW.005, Lanjas, Kec. Teweh Tengah, Kabupaten Barito Utara",KALIMANTAN TENGAH,73814.0,Indonesia,85280300069.0,,,-0.9371844,114.8881464,https://maps.google.com/?cid=0x0:0x611b5f68bdde728c,
komplek housing,Komplek perumahan,Rumah Hamsi,"3V7J+Q6R, Jl. Rapen, Lanjas, Kec. Teweh Tengah, Kabupaten Barito Utara, Kalimantan Tengah 73814","Jl. Rapen, Lanjas, Kec. Teweh Tengah, Kabupaten Barito Utara",KALIMANTAN TENGAH,73814.0,Indonesia,,,,-0.9356306,114.8810449,https://maps.google.com/?cid=0x0:0xa8785f3a4318797f,
komplek housing,Komplek perumahan,Muslih,"3V3R+WF9, Jl. Putra Sabui I, Lanjas, Kec. Teweh Tengah, Kabupaten Barito Utara, Kalimantan Tengah 73814","Jl. Putra Sabui I, Lanjas, Kec. Teweh Tengah, Kabupaten Barito Utara",KALIMANTAN TENGAH,73814.0,Indonesia,,,,-0.9452,114.8912623,https://maps.google.com/?cid=0x0:0x7e799ec70554e080,
komplek housing,komplek housing,Rumah Memet,"2VQR+3V8, Jl. Langsat, Lanjas, Kec. Teweh Tengah, Kabupaten Barito Utara, Kalimantan Tengah 73814","Jl. Langsat, Lanjas, Kec. Teweh Tengah, Kabupaten Barito Utara",KALIMANTAN TENGAH,73814.0,Indonesia,,,,-0.9625583,114.8921368,https://maps.google.com/?cid=0x0:0xd9053f6400fa6657,
komplek housing,komplek housing,Kontrakan Maharani,"3W33+P9C, Gg. Pandu, Melayu, Kec. Teweh Tengah, Kabupaten Barito Utara, Kalimantan Tengah 73814","Gg. Pandu, Melayu, Kec. Teweh Tengah, Kabupaten Barito Utara",KALIMANTAN TENGAH,73814.0,Indonesia,,,,-0.9456788,114.9033843,https://maps.google.com/?cid=0x0:0xf44b0c938200cd07,
komplek housing,Komplek perumahan,Zaindut,"Perumahan lapas No.34, Lanjas, Kec. Teweh Tengah, Kabupaten Barito Utara, Kalimantan Tengah 73814","Lanjas, Kec. Teweh Tengah, Kabupaten Barito Utara",KALIMANTAN TENGAH,73814.0,Indonesia,,,,-0.9500985,114.8926496,https://maps.google.com/?cid=0x0:0xb21b8a5376b5a355,
komplek housing,Komplek perumahan,Mess UT Teweh,"3V6X+F36, Jl. Pendreh, Lanjas, Kec. Teweh Tengah, Kabupaten Barito Utara, Kalimantan Tengah 73814","Jl. Pendreh, Lanjas, Kec. Teweh Tengah, Kabupaten Barito Utara",KALIMANTAN TENGAH,73814.0,Indonesia,,,,-0.9394666,114.897205,https://maps.google.com/?cid=0x0:0x82e5d75aff10fe03,
komplek housing,Otoritas Perumahan,Komplek griya amanah permata putih,"3V6M+FV3 putih komplek griya amanah, Jl. Permata, Lanjas, Kec. Teweh Tengah, Kabupaten Barito Utara, Kalimantan Tengah 73814","Jl. Permata, Lanjas, Kec. Teweh Tengah, Kabupaten Barito Utara",KALIMANTAN TENGAH,73814.0,Indonesia,,,,-0.9388641,114.8846576,https://maps.google.com/?cid=0x0:0x4e4f600119189bd9,
komplek housing,Pembangunan Perumahan,Dibawah Plafond Kamar,"Jl. Beringin No.73811, Lanjas, Kec. Teweh Tengah, Kabupaten Barito Utara, Kalimantan Tengah 73814","Lanjas, Kec. Teweh Tengah, Kabupaten Barito Utara",KALIMANTAN TENGAH,73814.0,Indonesia,,,,-0.9627576,114.8933768,https://maps.google.com/?cid=0x0:0x88620327ea9804db,
komplek housing,komplek housing,Kec. Teweh Tengah,"Kabupaten Barito Utara, Kalimantan Tengah","Kabupaten Barito Utara, Kalimantan Tengah",KALIMANTAN TENGAH,,Indonesia,,,,-1.0321219,114.6192899,https://maps.google.com/?cid=0x0:0x43e48575a2769922,
komplek housing,Pembangunan Perumahan,Pt. Erba jaya sukses,"3V4R+P9H, Jl. Taman Remaja, Lanjas, Kec. Teweh Tengah, Kabupaten Barito Utara, Kalimantan Tengah 73814","Jl. Taman Remaja, Lanjas, Kec. Teweh Tengah, Kabupaten Barito Utara",KALIMANTAN TENGAH,73814.0,Indonesia,,,,-0.9431878,114.8909789,https://maps.google.com/?cid=0x0:0x3a20d71b3fde949b,
komplek housing,Komplek perumahan,Muara teweh barito utara,"2VPV+F2F, Jl. Langsat, RT.06/RW.00, Lanjas, Kec. Teweh Tengah, Kabupaten Barito Utara, Kalimantan Tengah 73814","Jl. Langsat, RT.06/RW.00, Lanjas, Kec. Teweh Tengah, Kabupaten Barito Utara",KALIMANTAN TENGAH,73814.0,Indonesia,,,,-0.9638154,114.8925435,https://maps.google.com/?cid=0x0:0xf9c36f243eb0b899,
komplek housing,Gedung Apartemen,RUMAH FARRIS,"2VQP+FWP, Lanjas, Kec. Teweh Tengah, Kabupaten Barito Utara, Kalimantan Tengah 73814","Lanjas, Kec. Teweh Tengah, Kabupaten Barito Utara",KALIMANTAN TENGAH,73814.0,Indonesia,,,,-0.9613728,114.8872954,https://maps.google.com/?cid=0x0:0x7de69fa3e88b0532,
komplek housing,Komplek perumahan,Jl.Semoga Indah,"2VVR+2X2, Jl. Semoga Indah, Lanjas, Kec. Teweh Tengah, Kabupaten Barito Utara, Kalimantan Tengah 73814","Jl. Semoga Indah, Lanjas, Kec. Teweh Tengah, Kabupaten Barito Utara",KALIMANTAN TENGAH,73814.0,Indonesia,,,,-0.9574974,114.8923765,https://maps.google.com/?cid=0x0:0xa28279166d7afb2,
komplek housing,Komplek perumahan,TWC,"XRWG+376, Lemo II, Kec. Teweh Tengah, Kabupaten Barito Utara, Kalimantan Tengah 73814","Lemo II, Kec. Teweh Tengah, Kabupaten Barito Utara",KALIMANTAN TENGAH,73814.0,Indonesia,,,,-1.00546,114.8248367,https://maps.google.com/?cid=0x0:0x2c4c79783ed38d38,
komplek housing,Komplek perumahan,Rumah Rizvan,"3V4V+CM9, Lanjas, Kec. Teweh Tengah, Kabupaten Barito Utara, Kalimantan Tengah 73814","Lanjas, Kec. Teweh Tengah, Kabupaten Barito Utara",KALIMANTAN TENGAH,73814.0,Indonesia,,,,-0.9439584,114.8942246,https://maps.google.com/?cid=0x0:0xcc19d644f748e373,
komplek housing,Komplek perumahan,Rumah Daniya,"2WW2+H9 Julian_nails, Melayu, Kec. Teweh Tengah, Kabupaten Barito Utara, Kalimantan Tengah 73814","Melayu, Kec. Teweh Tengah, Kabupaten Barito Utara",KALIMANTAN TENGAH,73814.0,Indonesia,,,,-0.9541457,114.9008637,https://maps.google.com/?cid=0x0:0x98b073ab77a20078,
komplek housing,Komplek perumahan,Dicky,"4P33+W5, Rimba Sari, Kec. Teweh Tengah, Kabupaten Barito Utara, Kalimantan Tengah 73814","Rimba Sari, Kec. Teweh Tengah, Kabupaten Barito Utara",KALIMANTAN TENGAH,73814.0,Indonesia,,,,-0.8951589,114.7029771,https://maps.google.com/?cid=0x0:0xe567d252dcf91015,
komplek housing,komplek housing,Kalimantan Tengah 73881,"Kabupaten Barito Utara, Kalimantan Tengah","Kabupaten Barito Utara, Kalimantan Tengah",KALIMANTAN TENGAH,,Indonesia,,,,-1.0257651,115.3785719,https://maps.google.com/?cid=0x0:0x8bd4f30ba12eadec,
komplek housing,Perhimpunan Pengembang Perumahan,GRAHA BIANGAN,"4FRM+C2, Benangin I, Kec. Teweh Tim., Kabupaten Barito Utara, Kalimantan Tengah 73881","Benangin I, Kec. Teweh Tim., Kabupaten Barito Utara",KALIMANTAN TENGAH,73881.0,Indonesia,,,,-0.8589875,115.4825769,https://maps.google.com/?cid=0x0:0x9410121b083e45d,
komplek housing,Komplek perumahan,IROM,"W7PG+Q8, Jamut, Kec. Teweh Tim., Kabupaten Barito Utara, Kalimantan Tengah","Kabupaten Barito Utara, Kalimantan Tengah",KALIMANTAN TENGAH,,Indonesia,,,,-1.0630309,115.2758617,https://maps.google.com/?cid=0x0:0xbf0023e610bf573b,
komplek housing,Pembangunan Perumahan,Datan CT,"WC4J+4H8, Sampirang II, Kec. Teweh Tim., Kabupaten Barito Utara, Kalimantan Tengah","Kabupaten Barito Utara, Kalimantan Tengah",KALIMANTAN TENGAH,,Indonesia,,,,-1.0947122,115.4314526,https://maps.google.com/?cid=0x0:0x7c24e64e62d17c68,
komplek housing,Komplek perumahan,Ucu rosidi,"W7PH+MHP, Jamut, Kec. Teweh Tim., Kabupaten Barito Utara, Kalimantan Tengah 73881","Jamut, Kec. Teweh Tim., Kabupaten Barito Utara",KALIMANTAN TENGAH,73881.0,Indonesia,,,,-1.0632874,115.2789644,https://maps.google.com/?cid=0x0:0xe2ae1c3d5dcc63f1,
komplek housing,Kantor Pemerintah,DESA SAMPIRANG II,"Sampirang I, Kec. Teweh Tim., Kabupaten Barito Utara, Kalimantan Tengah 73881","Kec. Teweh Tim., Kabupaten Barito Utara",KALIMANTAN TENGAH,73881.0,Indonesia,,,,-1.0692077,115.3999207,https://maps.google.com/?cid=0x0:0xb7ffc9da6041675e,
komplek housing,Komplek perumahan,Rumah acil sitah,"2929+Q9C, Benangin 5, Kec. Teweh Tim., Kabupaten Barito Utara, Kalimantan Tengah","Kabupaten Barito Utara, Kalimantan Tengah",KALIMANTAN TENGAH,,Indonesia,,,,-0.9980622,115.3683882,https://maps.google.com/?cid=0x0:0x5a9cdd764db620c2,
komplek housing,Komplek perumahan,Muara tewrh,"V9J2+V4C, Nopelitalus, Kec. Teweh Tim., Kabupaten Barito Utara, Kalimantan Tengah","Kabupaten Barito Utara, Kalimantan Tengah",KALIMANTAN TENGAH,,Indonesia,,,,-1.1178225,115.3502745,https://maps.google.com/?cid=0x0:0xb29662289dc82ffe,
komplek housing,Pembangunan Perumahan,Lisnawati,"V9J5+R6, Mampuak I, Kec. Teweh Tim., Kabupaten Barito Utara, Kalimantan Tengah","Kabupaten Barito Utara, Kalimantan Tengah",KALIMANTAN TENGAH,,Indonesia,,,,-1.117907,115.3580687,https://maps.google.com/?cid=0x0:0x7053d894b10dde83,
komplek housing,Komplek perumahan,Toko Zaki/ Kursani,"V9J3+7PP, Mampuak I, Kec. Teweh Tim., Kabupaten Barito Utara, Kalimantan Tengah 73881","Mampuak I, Kec. Teweh Tim., Kabupaten Barito Utara",KALIMANTAN TENGAH,73881.0,Indonesia,,,,-1.1192897,115.354322,https://maps.google.com/?cid=0x0:0x95b6ebc1c5e3d164,
komplek housing,komplek housing,Mess Binuang PT Bharinto Ekatama,"4FP3+Q54, Benangin 5, Kec. Teweh Tim., Kabupaten Barito Utara, Kalimantan Tengah 73881","Benangin 5, Kec. Teweh Tim., Kabupaten Barito Utara",KALIMANTAN TENGAH,73881.0,Indonesia,,,,-0.8631015,115.4529515,https://maps.google.com/?cid=0x0:0xaf70c36370eacefb,
komplek housing,Komplek perumahan,PANAEN,"25CF+H2, Panaen, Kec. Teweh Baru, Kabupaten Barito Utara, Kalimantan Tengah","Kabupaten Barito Utara, Kalimantan Tengah",KALIMANTAN TENGAH,,Indonesia,,,,-0.9785625,115.1725625,https://maps.google.com/?cid=0x0:0xfd1cb5a67e190d9e,
komplek housing,Komplek perumahan,Desa Muara Wakat,"278X+GR, Benangin 5, Kec. Teweh Tim., Kabupaten Barito Utara, Kalimantan Tengah","Kabupaten Barito Utara, Kalimantan Tengah",KALIMANTAN TENGAH,,Indonesia,,,,-0.9836693,115.2995034,https://maps.google.com/?cid=0x0:0x756492a5fc8b48d8,
komplek housing,Perhimpunan Pengembang Perumahan,Rumah dinas nakes,"V9J4+75R, Mampuak I, Kec. Teweh Tim., Kabupaten Barito Utara, Kalimantan Tengah 73881","Mampuak I, Kec. Teweh Tim., Kabupaten Barito Utara",KALIMANTAN TENGAH,73881.0,Indonesia,,,,-1.1193216,115.3559282,https://maps.google.com/?cid=0x0:0x43db44b64d01dd85,
komplek housing,Komplek perumahan,kang yus,"V9J3+J5, Mampuak I, Kec. Teweh Tim., Kabupaten Barito Utara, Kalimantan Tengah","Kabupaten Barito Utara, Kalimantan Tengah",KALIMANTAN TENGAH,,Indonesia,,,,-1.1184021,115.3529001,https://maps.google.com/?cid=0x0:0x27895cb80ec49976,
komplek housing,Komplek perumahan,Aulia,"PCX2+9W2, Batu Raya I, Kec. Gn. Timang, Kabupaten Barito Utara, Kalimantan Tengah","Kabupaten Barito Utara, Kalimantan Tengah",KALIMANTAN TENGAH,,Indonesia,,,,-1.2516069,115.4022706,https://maps.google.com/?cid=0x0:0x410c6d32668e611b,
komplek housing,Komplek perumahan,Rumah iisnawati,"PCX2+9W2, Batu Raya I, Kec. Gn. Timang, Kabupaten Barito Utara, Kalimantan Tengah","Kabupaten Barito Utara, Kalimantan Tengah",KALIMANTAN TENGAH,,Indonesia,,,,-1.2516069,115.4022706,https://maps.google.com/?cid=0x0:0xc5e047f95b839f7,
komplek housing,komplek housing,Kec. Teweh Tim.,"Kabupaten Barito Utara, Kalimantan Tengah","Kabupaten Barito Utara, Kalimantan Tengah",KALIMANTAN TENGAH,,Indonesia,,,,-0.9907136,115.4259675,https://maps.google.com/?cid=0x0:0xfbef44c9962da6b1,
perumahan,perumahan,Kalimantan Tengah 73862,Kalimantan Tengah,Kalimantan Tengah,KALIMANTAN TENGAH,,Indonesia,,,,-1.3062588,115.188916,https://maps.google.com/?cid=0x0:0x13b0d131c6a71cf5,
perumahan,Komplek perumahan,Rumah mudioto,"Q66R+F7J, Sangkurang, Kec. Gn. Timang, Kabupaten Barito Utara, Kalimantan Tengah 73862","Sangkurang, Kec. Gn. Timang, Kabupaten Barito Utara",KALIMANTAN TENGAH,73862.0,Indonesia,,,,-1.2396146,115.2410252,https://maps.google.com/?cid=0x0:0xc76935a1405317cd,
perumahan,Kompleks Apartemen,WulanSeptaHintanNaya Home,"P4V8+P62, Kandui, Kec. Gn. Timang, Kabupaten Barito Utara, Kalimantan Tengah 73862","Kandui, Kec. Gn. Timang, Kabupaten Barito Utara",KALIMANTAN TENGAH,73862.0,Indonesia,,,,-1.2557292,115.115517,https://maps.google.com/?cid=0x0:0x6df0b34c35be64e7,
perumahan,Komplek perumahan,Rumah Madot slebew,"P4V9+MM4, Kandui, Kec. Gn. Timang, Kabupaten Barito Utara, Kalimantan Tengah 73862","Kandui, Kec. Gn. Timang, Kabupaten Barito Utara",KALIMANTAN TENGAH,73862.0,Indonesia,,,,-1.2558731,115.1191927,https://maps.google.com/?cid=0x0:0x8dce6ef8ee5780f7,
perumahan,Pembangunan Perumahan,Pondok Kerongo,"Q3QX+44, Majangkan, Kec. Gn. Timang, Kabupaten Barito Utara, Kalimantan Tengah 73862","Majangkan, Kec. Gn. Timang, Kabupaten Barito Utara",KALIMANTAN TENGAH,73862.0,Indonesia,,,,-1.2121537,115.0978371,https://maps.google.com/?cid=0x0:0x2eeacebb04efd7fe,
perumahan,Komplek perumahan,Pengulu se'i urung,"Q45J+Q9H, Kandui, Kec. Gn. Timang, Kabupaten Barito Utara, Kalimantan Tengah 73862","Kandui, Kec. Gn. Timang, Kabupaten Barito Utara",KALIMANTAN TENGAH,73862.0,Indonesia,,,,-1.24052,115.1309383,https://maps.google.com/?cid=0x0:0x7afa9450d754fbda,
perumahan,Pembangunan Perumahan,DESA MALUNGAI,"PW7R+6JX, Malungai, Kec. Gn. Timang, Kabupaten Barito Utara, Kalimantan Tengah 73862","Malungai, Kec. Gn. Timang, Kabupaten Barito Utara",KALIMANTAN TENGAH,73862.0,Indonesia,,,,-1.2868968,114.9416122,https://maps.google.com/?cid=0x0:0x43527517f475109d,
perumahan,Kompleks Apartemen,Rumah Deddy,"P4PC+9HH, Kandui, Kec. Gn. Timang, Kabupaten Barito Utara, Kalimantan Tengah 73862","Kandui, Kec. Gn. Timang, Kabupaten Barito Utara",KALIMANTAN TENGAH,73862.0,Indonesia,,,,-1.2640544,115.1214816,https://maps.google.com/?cid=0x0:0x102c431fd4b566da,
perumahan,Pembangunan Perumahan,Ubuiana Villa Garden,"MWWH+XXV, Malungai, Kec. Gn. Timang, Kabupaten Barito Utara, Kalimantan Tengah 73862","Malungai, Kec. Gn. Timang, Kabupaten Barito Utara",KALIMANTAN TENGAH,73862.0,Indonesia,,,,-1.3025043,114.9299308,https://maps.google.com/?cid=0x0:0x966988c8e77098b3,
perumahan,Komplek perumahan,Rumah Petinggi,"Q45J+Q9H, Kandui, Kec. Gn. Timang, Kabupaten Barito Utara, Kalimantan Tengah 73862","Kandui, Kec. Gn. Timang, Kabupaten Barito Utara",KALIMANTAN TENGAH,73862.0,Indonesia,,,,-1.240745,115.130766,https://maps.google.com/?cid=0x0:0xe40abae02f7d955d,
perumahan,Komplek perumahan,Mahatu House's,"P4V8+X38, Jl. Ahmad Yani Gg. Gumelar, Kandui, Kec. Gn. Timang, Kabupaten Barito Utara, Kalimantan Tengah 73862","Jl. Ahmad Yani Gg. Gumelar, Kandui, Kec. Gn. Timang, Kabupaten Barito Utara",KALIMANTAN TENGAH,73862.0,Indonesia,,,,-1.2550923,115.1152105,https://maps.google.com/?cid=0x0:0x46135e3543114897,
perumahan,Pembangunan Perumahan,Yolen,"R4R4+JJ6, Majangkan, Kec. Gn. Timang, Kabupaten Barito Utara, Kalimantan Tengah 73862","Majangkan, Kec. Gn. Timang, Kabupaten Barito Utara",KALIMANTAN TENGAH,73862.0,Indonesia,,,,-1.1584583,115.1065132,https://maps.google.com/?cid=0x0:0x697f0367213fe857,
perumahan,Kantor Hubungan Masyarakat,DESA BALITI,"P2CV+XG3, Baliti, Kec. Gn. Timang, Kabupaten Barito Utara, Kalimantan Tengah","Kabupaten Barito Utara, Kalimantan Tengah",KALIMANTAN TENGAH,,Indonesia,,,,-1.2776224,115.0437869,https://maps.google.com/?cid=0x0:0xc9660b47428b25e5,
perumahan,Pembangunan Perumahan,RUMAH PAK PAIJAN,"M79P+3F7, Baturaya II, Kec. Gn. Timang, Kabupaten Barito Utara, Kalimantan Tengah","Kabupaten Barito Utara, Kalimantan Tengah",KALIMANTAN TENGAH,,Indonesia,,,,-1.3323454,115.2861812,https://maps.google.com/?cid=0x0:0x4f90c0e47bf554f9,
perumahan,Komplek perumahan,Rumah iisnawati,"PCX2+9W2, Batu Raya I, Kec. Gn. Timang, Kabupaten Barito Utara, Kalimantan Tengah","Kabupaten Barito Utara, Kalimantan Tengah",KALIMANTAN TENGAH,,Indonesia,,,,-1.2516069,115.4022706,https://maps.google.com/?cid=0x0:0xc5e047f95b839f7,
perumahan,Komplek perumahan,Rumah DAHAM cacan,"P4Q9+QQ9, Jl. Ahmad Yani, Kandui, Kec. Gn. Timang, Kabupaten Barito Utara, Kalimantan Tengah 73862","Jl. Ahmad Yani, Kandui, Kec. Gn. Timang, Kabupaten Barito Utara",KALIMANTAN TENGAH,73862.0,Indonesia,85249102021.0,,,-1.2594558,115.1201006,https://maps.google.com/?cid=0x0:0xebdfa0d710f805c3,
perumahan,Kantor Pemerintahan Daerah,Desa walur,"Q25R+477, Walur, Kec. Gn. Timang, Kabupaten Barito Utara, Kalimantan Tengah 73862","Walur, Kec. Gn. Timang, Kabupaten Barito Utara",KALIMANTAN TENGAH,73862.0,Indonesia,,,,-1.2422153,115.0406679,https://maps.google.com/?cid=0x0:0x943f43b178ded122,
perumahan,perumahan,Desa ngurit,"R859+CPG, Tongka, Kec. Gn. Timang, Kabupaten Barito Utara, Kalimantan Tengah","Kabupaten Barito Utara, Kalimantan Tengah",KALIMANTAN TENGAH,,Indonesia,,,,-1.1914331,115.319317,https://maps.google.com/?cid=0x0:0xd808d97b08224272,
perumahan,Perhimpunan Pengembang Perumahan,Yohanes,"PW7V+8PQ, Malungai, Kec. Gn. Timang, Kabupaten Barito Utara, Kalimantan Tengah 73862","Malungai, Kec. Gn. Timang, Kabupaten Barito Utara",KALIMANTAN TENGAH,73862.0,Indonesia,,,,-1.2865697,114.9442905,https://maps.google.com/?cid=0x0:0x15344af38b625362,
perumahan,Pembangunan Perumahan,kediaman eko.s,"M7JP+P8, Baturaya II, Kec. Gn. Timang, Kabupaten Barito Utara, Kalimantan Tengah","Kabupaten Barito Utara, Kalimantan Tengah",KALIMANTAN TENGAH,,Indonesia,,,,-1.318235,115.2858016,https://maps.google.com/?cid=0x0:0x28cf30b3260cc830,
perumahan,Sekolah menengah,Perumahan Dinas Guru SMPN 1 Gunung Timang,"P4W8+848, Kandui, Kec. Gn. Timang, Kabupaten Barito Utara, Kalimantan Tengah 73862","Kandui, Kec. Gn. Timang, Kabupaten Barito Utara",KALIMANTAN TENGAH,73862.0,Indonesia,,,,-1.2542047,115.1153402,https://maps.google.com/?cid=0x0:0xdc7f049175e6a78a,
perumahan,perumahan,Kalimantan Tengah 73871,"Kabupaten Barito Utara, Kalimantan Tengah","Kabupaten Barito Utara, Kalimantan Tengah",KALIMANTAN TENGAH,,Indonesia,,,,-1.197196,115.6154732,https://maps.google.com/?cid=0x0:0x6d60d15ecdbf488b,
perumahan,Komplek perumahan,Pondok Rekto,"VJ72+86, Lampeong I, Gn. Purei, Kabupaten Barito Utara, Kalimantan Tengah","Kabupaten Barito Utara, Kalimantan Tengah",KALIMANTAN TENGAH,,Indonesia,,,,-1.136703,115.600612,https://maps.google.com/?cid=0x0:0xa058e14d4cff2ca2,
perumahan,Komplek perumahan,Rumah Muluadi)Berty,"VJ63+WVQ, Lampeong II, Gn. Purei, Kabupaten Barito Utara, Kalimantan Tengah 73871","Lampeong II, Gn. Purei, Kabupaten Barito Utara",KALIMANTAN TENGAH,73871.0,Indonesia,,,,-1.1376749,115.6047242,https://maps.google.com/?cid=0x0:0x242f393f74821b70,
perumahan,Komplek perumahan,lampeong,"VJF2+G54, Jl. Lintas Kalimantan Poros Tengah, Lampeong I, Gn. Purei, Kabupaten Barito Utara, Kalimantan Tengah 73871","Jl. Lintas Kalimantan Poros Tengah, Lampeong I, Gn. Purei, Kabupaten Barito Utara",KALIMANTAN TENGAH,73871.0,Indonesia,,,,-1.1262487,115.6004563,https://maps.google.com/?cid=0x0:0x618f31e3539cc61a,
perumahan,Komplek perumahan,Adie. H. A,"VJ7C+GR, Payang, Gn. Purei, Kabupaten Barito Utara, Kalimantan Tengah 73871","Payang, Gn. Purei, Kabupaten Barito Utara",KALIMANTAN TENGAH,73871.0,Indonesia,,,,-1.1359655,115.6224836,https://maps.google.com/?cid=0x0:0xb32629e0871da756,
perumahan,Pembangunan Perumahan,Home Mika,"VH5X+PH9, Lampeong I, Gn. Purei, Kabupaten Barito Utara, Kalimantan Tengah","Kabupaten Barito Utara, Kalimantan Tengah",KALIMANTAN TENGAH,,Indonesia,,,,-1.141396,115.599395,https://maps.google.com/?cid=0x0:0xf59d93aec5da4a28,
perumahan,Tempat Religius,DESA MUARA MEA,"RHVR+R8F, Lawarang, Gn. Purei, Kabupaten Barito Utara, Kalimantan Tengah 73871","Lawarang, Gn. Purei, Kabupaten Barito Utara",KALIMANTAN TENGAH,73871.0,Indonesia,,,,-1.1547174,115.5904288,https://maps.google.com/?cid=0x0:0x732d36a77ad80b4,
perumahan,Perhimpunan Pengembang Perumahan,Linon Besi 2,"PG45+9H6, Linon Besi II, Gn. Purei, Kabupaten Barito Utara, Kalimantan Tengah 73871","Linon Besi II, Gn. Purei, Kabupaten Barito Utara",KALIMANTAN TENGAH,73871.0,Indonesia,,,,-1.2940853,115.5088914,https://maps.google.com/?cid=0x0:0xcdb3220540a8a603,
perumahan,Komplek perumahan,Linon besi II,"PG36+H37, Linon Besi II, Gn. Purei, Kabupaten Barito Utara, Kalimantan Tengah 73871","Linon Besi II, Gn. Purei, Kabupaten Barito Utara",KALIMANTAN TENGAH,73871.0,Indonesia,,,,-1.2960832,115.5101741,https://maps.google.com/?cid=0x0:0x4f069cf7e3fafde2,
perumahan,Pembangunan Perumahan,RUMAH PAK PAIJAN,"M79P+3F7, Baturaya II, Kec. Gn. Timang, Kabupaten Barito Utara, Kalimantan Tengah","Kabupaten Barito Utara, Kalimantan Tengah",KALIMANTAN TENGAH,,Indonesia,,,,-1.3323454,115.2861812,https://maps.google.com/?cid=0x0:0x4f90c0e47bf554f9,
perumahan,perumahan,Gn. Purei,"Kabupaten Barito Utara, Kalimantan Tengah","Kabupaten Barito Utara, Kalimantan Tengah",KALIMANTAN TENGAH,,Indonesia,,,,-1.197196,115.6154732,https://maps.google.com/?cid=0x0:0x69c079e04d4ca140,
perumahan,Pembangunan Perumahan,Dijah Andira,"PCG9+7J, Batu Raya I, Kec. Gn. Timang, Kabupaten Barito Utara, Kalimantan Tengah","Kabupaten Barito Utara, Kalimantan Tengah",KALIMANTAN TENGAH,,Indonesia,,,,-1.2743006,115.4190638,https://maps.google.com/?cid=0x0:0x56cba8334b6a96cd,
perumahan,perumahan,Rumah Styfan zulianta (wawan),"VH6X+42Q, Lampeong I, Gn. Purei, Kabupaten Barito Utara, Kalimantan Tengah","Kabupaten Barito Utara, Kalimantan Tengah",KALIMANTAN TENGAH,,Indonesia,,,,-1.1396538,115.5976047,https://maps.google.com/?cid=0x0:0x246cbffabd5fd1c7,
perumahan,Komplek perumahan,Rumah Hendi,"Jalan sehat No.rt.02, Benangin I, Kec. Teweh Tim., Kabupaten Barito Utara, Kalimantan Tengah 73881","Benangin I, Kec. Teweh Tim., Kabupaten Barito Utara",KALIMANTAN TENGAH,73881.0,Indonesia,,,,-0.998437,115.3686594,https://maps.google.com/?cid=0x0:0xeb810cd70ad07c70,
perumahan,Kantor Pemerintah,puskesmas,"VH5X+XXF, Unnamed Road, Lampeong II, Gn. Purei, Kabupaten Barito Utara, Kalimantan Tengah 73871","Unnamed Road, Lampeong II, Gn. Purei, Kabupaten Barito Utara",KALIMANTAN TENGAH,73871.0,Indonesia,,,,-1.1400625,115.5999219,https://maps.google.com/?cid=0x0:0xeafded1056b725d6,
perumahan,Komplek perumahan,MESS PT.PETROSEA MUTU CLUSTER SWALANG,"G8WW+R6, Bintang Ara, Kec. Gn. Bintang Awai, Kabupaten Barito Selatan, Kalimantan Tengah","Kabupaten Barito Selatan, Kalimantan Tengah",KALIMANTAN TENGAH,,Indonesia,,,,-1.392049,115.4155835,https://maps.google.com/?cid=0x0:0xee8c093ab3db1e5a,
perumahan,Komplek perumahan,Rumah iisnawati,"PCX2+9W2, Batu Raya I, Kec. Gn. Timang, Kabupaten Barito Utara, Kalimantan Tengah","Kabupaten Barito Utara, Kalimantan Tengah",KALIMANTAN TENGAH,,Indonesia,,,,-1.2516069,115.4022706,https://maps.google.com/?cid=0x0:0xc5e047f95b839f7,
perumahan,Komplek perumahan,Rumah Betang Muara Mea,"RHVR+R8F, Lawarang, Gn. Purei, Kabupaten Barito Utara, Kalimantan Tengah 73871","Lawarang, Gn. Purei, Kabupaten Barito Utara",KALIMANTAN TENGAH,73871.0,Indonesia,,,,-1.1554281,115.5907842,https://maps.google.com/?cid=0x0:0x633d5fcd3ba8df6,
perumahan,Dapur Umum,Warung adibah,"Lampeong II, Gn. Purei, Kabupaten Barito Utara, Kalimantan Tengah 73871","Gn. Purei, Kabupaten Barito Utara",KALIMANTAN TENGAH,73871.0,Indonesia,,,,-1.1373065,115.6048756,https://maps.google.com/?cid=0x0:0xe0fc00d97566fd88,
perumahan,perumahan,Kalimantan Tengah 73852,"Kec. Lahei, Kabupaten Barito Utara, Kalimantan Tengah","Kabupaten Barito Utara, Kalimantan Tengah",KALIMANTAN TENGAH,,Indonesia,,,,-0.6129045,115.188916,https://maps.google.com/?cid=0x0:0xf279ed86a55323d0,
perumahan,Kompleks Apartemen,Dormitory,"94GP+VR2, Muara Pari, Kec. Lahei, Kabupaten Barito Utara, Kalimantan Tengah 73852","Muara Pari, Kec. Lahei, Kabupaten Barito Utara",KALIMANTAN TENGAH,73852.0,Indonesia,,,,-0.6210889,115.1335718,https://maps.google.com/?cid=0x0:0x1779f5baf188f5a8,
perumahan,Pembangunan Perumahan,Gembur,"62GF+R26, Muara Inu, Kec. Lahei, Kabupaten Barito Utara, Kalimantan Tengah 73852","Muara Inu, Kec. Lahei, Kabupaten Barito Utara",KALIMANTAN TENGAH,73852.0,Indonesia,,,,-0.7725152,115.0233378,https://maps.google.com/?cid=0x0:0xfb071800e2937c72,
perumahan,Pembangunan Perumahan,Ato,"62HF+R2, Muara Inu, Kec. Lahei, Kabupaten Barito Utara, Kalimantan Tengah","Kabupaten Barito Utara, Kalimantan Tengah",KALIMANTAN TENGAH,,Indonesia,,,,-0.7711889,115.0234812,https://maps.google.com/?cid=0x0:0x6d76f8f08da3a50c,
perumahan,Komplek perumahan,Simpang Lahei II,"4V9M+4JF, Jl. Lintas Kalimantan Poros Tengah, Mukut, Kec. Lahei, Kabupaten Barito Utara, Kalimantan Tengah 73814","Jl. Lintas Kalimantan Poros Tengah, Mukut, Kec. Lahei, Kabupaten Barito Utara",KALIMANTAN TENGAH,73814.0,Indonesia,,,,-0.8821874,114.8840484,https://maps.google.com/?cid=0x0:0x2281042042b4ee15,
perumahan,Komplek perumahan,Lokasi Pemb.Rusus Polri Kec.Kec.lahei Muara Teweh,"4WMJ+P6V, Lahei II, Kec. Lahei, Kabupaten Barito Utara, Kalimantan Tengah 73814","Lahei II, Kec. Lahei, Kabupaten Barito Utara",KALIMANTAN TENGAH,73814.0,Indonesia,85387208324.0,,,-0.8656434,114.9305435,https://maps.google.com/?cid=0x0:0xcc3ddc69f6854454,
perumahan,Komplek perumahan,Eko arisandi,"62GF+R26, Muara Inu, Kec. Lahei, Kabupaten Barito Utara, Kalimantan Tengah 73852","Muara Inu, Kec. Lahei, Kabupaten Barito Utara",KALIMANTAN TENGAH,73852.0,Indonesia,,,,-0.7723868,115.0227651,https://maps.google.com/?cid=0x0:0xd2cd3e8ad270dc53,
perumahan,Pembangunan Perumahan,Rumah Indra,"5RF9+35, Nihan Hilir, Kec. Lahei Barat, Kabupaten Barito Utara, Kalimantan Tengah","Kabupaten Barito Utara, Kalimantan Tengah",KALIMANTAN TENGAH,,Indonesia,85787254364.0,,,-0.826894,114.817651,https://maps.google.com/?cid=0x0:0xd3449c6bf578d572,
perumahan,Komplek perumahan,Jordi,"62GF+R26, Muara Inu, Kec. Lahei, Kabupaten Barito Utara, Kalimantan Tengah 73852","Muara Inu, Kec. Lahei, Kabupaten Barito Utara",KALIMANTAN TENGAH,73852.0,Indonesia,,,,-0.7722151,115.0227115,https://maps.google.com/?cid=0x0:0x1cf29e0e90cba302,
perumahan,perumahan,Rumah Raykarian El Gifari,"7V2R+3JR, Benao Hulu, Kec. Lahei Barat, Kabupaten Barito Utara, Kalimantan Tengah 73852","Benao Hulu, Kec. Lahei Barat, Kabupaten Barito Utara",KALIMANTAN TENGAH,73852.0,Indonesia,,,,-0.749767,114.8915283,https://maps.google.com/?cid=0x0:0x96fa65bcd9002810,
perumahan,perumahan,Simpang Sabub,"33WX+X2, Juju Baru, Kec. Lahei, Kabupaten Barito Utara, Kalimantan Tengah","Kabupaten Barito Utara, Kalimantan Tengah",KALIMANTAN TENGAH,,Indonesia,,,,-0.902623,115.09754,https://maps.google.com/?cid=0x0:0x9af4c31c9c43e23d,
perumahan,Pembangunan Perumahan,Check Point MGE,"7454+29C, Bengahon, Kec. Lahei, Kabupaten Barito Utara, Kalimantan Tengah 73852","Bengahon, Kec. Lahei, Kabupaten Barito Utara",KALIMANTAN TENGAH,73852.0,Indonesia,,,,-0.7424288,115.1059054,https://maps.google.com/?cid=0x0:0x43ca4a5b2a15abf5,
perumahan,Perhimpunan Pengembang Perumahan,Rumah Aril,"7W43+5FJ, Benao Hilir, Kec. Lahei Barat, Kabupaten Barito Utara, Kalimantan Tengah 73852","Benao Hilir, Kec. Lahei Barat, Kabupaten Barito Utara",KALIMANTAN TENGAH,73852.0,Indonesia,,,,-0.7446154,114.903745,https://maps.google.com/?cid=0x0:0xb3cd1699288ef88e,
perumahan,Komplek perumahan,Leok,"9X6P+4W7, Benao Hilir, Kec. Lahei Barat, Kabupaten Barito Utara, Kalimantan Tengah 73852","Benao Hilir, Kec. Lahei Barat, Kabupaten Barito Utara",KALIMANTAN TENGAH,73852.0,Indonesia,,,,-0.6397249,114.9872821,https://maps.google.com/?cid=0x0:0x4bd654c7e3df33e0,
perumahan,Perhimpunan Pengembang Perumahan,Ilham,"7V2V+7CM, Jl. Padat Karya, Benao Hulu, Kec. Lahei Barat, Kabupaten Barito Utara, Kalimantan Tengah 73852","Jl. Padat Karya, Benao Hulu, Kec. Lahei Barat, Kabupaten Barito Utara",KALIMANTAN TENGAH,73852.0,Indonesia,,,,-0.7492973,114.8935514,https://maps.google.com/?cid=0x0:0x2cc1070fed0e102e,
perumahan,Pembangunan Perumahan,Gembur,"5578+634, Muara Inu, Kec. Lahei, Kabupaten Barito Utara, Kalimantan Tengah","Kabupaten Barito Utara, Kalimantan Tengah",KALIMANTAN TENGAH,,Indonesia,,,,-0.836991,115.1652008,https://maps.google.com/?cid=0x0:0x96e4e0fe1defc531,
perumahan,perumahan,Benao,"9X6P+4W7, Benao Hilir, Kec. Lahei Barat, Kabupaten Barito Utara, Kalimantan Tengah 73852","Benao Hilir, Kec. Lahei Barat, Kabupaten Barito Utara",KALIMANTAN TENGAH,73852.0,Indonesia,,,,-0.6397249,114.9872821,https://maps.google.com/?cid=0x0:0x68974bdeaa22a14e,
perumahan,Perhimpunan Pengembang Perumahan,Wdh la,"7W43+5FJ, Benao Hilir, Kec. Lahei, Kabupaten Barito Utara, Kalimantan Tengah 73852","Benao Hilir, Kec. Lahei, Kabupaten Barito Utara",KALIMANTAN TENGAH,73852.0,Indonesia,,,,-0.7445701,114.9036625,https://maps.google.com/?cid=0x0:0xb789d38330470ad2,
perumahan,Komplek perumahan,H ramini,"62JF+F96, Muara Inu, Kec. Lahei, Kabupaten Barito Utara, Kalimantan Tengah 73852","Muara Inu, Kec. Lahei, Kabupaten Barito Utara",KALIMANTAN TENGAH,73852.0,Indonesia,,,,-0.7688375,115.0233924,https://maps.google.com/?cid=0x0:0xd57685811348d606,
perumahan,Komplek perumahan,Hani Home,"Jl.Permata Biru 2 No.15 RT.18 Perum Borobudur , Lanjas, Luwe Hilir, Kec. Teweh Tengah, Kabupaten Barito Utara, Kalimantan Tengah 73812","Lanjas, Luwe Hilir, Kec. Teweh Tengah, Kabupaten Barito Utara",KALIMANTAN TENGAH,73812.0,Indonesia,,,,-0.8255092,114.945754,https://maps.google.com/?cid=0x0:0xbfb74db5bd77f757,
perumahan,Komplek perumahan,TEKNOLOGI ( hino ),"62JC+RW, Muara Inu, Kec. Lahei, Kabupaten Barito Utara, Kalimantan Tengah","Kabupaten Barito Utara, Kalimantan Tengah",KALIMANTAN TENGAH,,Indonesia,,,,-0.7677406,115.0216054,https://maps.google.com/?cid=0x0:0x64a4dd19fab2e7ae,
perumahan,Pembangunan Perumahan,SANDRI HOME STAY,"82J4+32W, Jl. Tamanggung Jua Barat, Tlk. Malewai, Kec. Lahei, Kabupaten Barito Utara, Kalimantan Tengah 73852","Jl. Tamanggung Jua Barat, Tlk. Malewai, Kec. Lahei, Kabupaten Barito Utara",KALIMANTAN TENGAH,73852.0,Indonesia,,,,-0.6697626,115.0050783,https://maps.google.com/?cid=0x0:0x6249a405d5c34c08,
perumahan,perumahan,Kec. Lahei Barat,"Kabupaten Barito Utara, Kalimantan Tengah","Kabupaten Barito Utara, Kalimantan Tengah",KALIMANTAN TENGAH,,Indonesia,,,,-0.7935062,114.9382498,https://maps.google.com/?cid=0x0:0x5adc4924308bea72,
perumahan,Pembangunan Perumahan,Gembur,"62GF+R26, Muara Inu, Kec. Lahei, Kabupaten Barito Utara, Kalimantan Tengah 73852","Muara Inu, Kec. Lahei, Kabupaten Barito Utara",KALIMANTAN TENGAH,73852.0,Indonesia,,,,-0.7725152,115.0233378,https://maps.google.com/?cid=0x0:0xfb071800e2937c72,
perumahan,Komplek perumahan,SATNUN,"62GF+R26, Muara Inu, Kec. Lahei, Kabupaten Barito Utara, Kalimantan Tengah 73852","Muara Inu, Kec. Lahei, Kabupaten Barito Utara",KALIMANTAN TENGAH,73852.0,Indonesia,,,,-0.7723251,115.0226716,https://maps.google.com/?cid=0x0:0xda0ccf4a746da62b,
perumahan,Pembangunan Perumahan,Rumah Indra,"5RF9+35, Nihan Hilir, Kec. Lahei Barat, Kabupaten Barito Utara, Kalimantan Tengah","Kabupaten Barito Utara, Kalimantan Tengah",KALIMANTAN TENGAH,,Indonesia,85787254364.0,,,-0.826894,114.817651,https://maps.google.com/?cid=0x0:0xd3449c6bf578d572,
perumahan,Pembangunan Perumahan,Ato,"62HF+R2, Muara Inu, Kec. Lahei, Kabupaten Barito Utara, Kalimantan Tengah","Kabupaten Barito Utara, Kalimantan Tengah",KALIMANTAN TENGAH,,Indonesia,,,,-0.7711889,115.0234812,https://maps.google.com/?cid=0x0:0x6d76f8f08da3a50c,
perumahan,Perhimpunan Pengembang Perumahan,Rumah Aril,"7W43+5FJ, Benao Hilir, Kec. Lahei Barat, Kabupaten Barito Utara, Kalimantan Tengah 73852","Benao Hilir, Kec. Lahei Barat, Kabupaten Barito Utara",KALIMANTAN TENGAH,73852.0,Indonesia,,,,-0.7446154,114.903745,https://maps.google.com/?cid=0x0:0xb3cd1699288ef88e,
perumahan,Komplek perumahan,Simpang Lahei II,"4V9M+4JF, Jl. Lintas Kalimantan Poros Tengah, Mukut, Kec. Lahei, Kabupaten Barito Utara, Kalimantan Tengah 73814","Jl. Lintas Kalimantan Poros Tengah, Mukut, Kec. Lahei, Kabupaten Barito Utara",KALIMANTAN TENGAH,73814.0,Indonesia,,,,-0.8821874,114.8840484,https://maps.google.com/?cid=0x0:0x2281042042b4ee15,
perumahan,Komplek perumahan,Leok,"9X6P+4W7, Benao Hilir, Kec. Lahei Barat, Kabupaten Barito Utara, Kalimantan Tengah 73852","Benao Hilir, Kec. Lahei Barat, Kabupaten Barito Utara",KALIMANTAN TENGAH,73852.0,Indonesia,,,,-0.6397249,114.9872821,https://maps.google.com/?cid=0x0:0x4bd654c7e3df33e0,
perumahan,Komplek perumahan,Lokasi Pemb.Rusus Polri Kec.Kec.lahei Muara Teweh,"4WMJ+P6V, Lahei II, Kec. Lahei, Kabupaten Barito Utara, Kalimantan Tengah 73814","Lahei II, Kec. Lahei, Kabupaten Barito Utara",KALIMANTAN TENGAH,73814.0,Indonesia,85387208324.0,,,-0.8656434,114.9305435,https://maps.google.com/?cid=0x0:0xcc3ddc69f6854454,
perumahan,perumahan,Benao,"9X6P+4W7, Benao Hilir, Kec. Lahei Barat, Kabupaten Barito Utara, Kalimantan Tengah 73852","Benao Hilir, Kec. Lahei Barat, Kabupaten Barito Utara",KALIMANTAN TENGAH,73852.0,Indonesia,,,,-0.6397249,114.9872821,https://maps.google.com/?cid=0x0:0x68974bdeaa22a14e,
perumahan,perumahan,Rumah Raykarian El Gifari,"7V2R+3JR, Benao Hulu, Kec. Lahei Barat, Kabupaten Barito Utara, Kalimantan Tengah 73852","Benao Hulu, Kec. Lahei Barat, Kabupaten Barito Utara",KALIMANTAN TENGAH,73852.0,Indonesia,,,,-0.749767,114.8915283,https://maps.google.com/?cid=0x0:0x96fa65bcd9002810,
perumahan,Perhimpunan Pengembang Perumahan,Ilham,"7V2V+7CM, Jl. Padat Karya, Benao Hulu, Kec. Lahei Barat, Kabupaten Barito Utara, Kalimantan Tengah 73852","Jl. Padat Karya, Benao Hulu, Kec. Lahei Barat, Kabupaten Barito Utara",KALIMANTAN TENGAH,73852.0,Indonesia,,,,-0.7492973,114.8935514,https://maps.google.com/?cid=0x0:0x2cc1070fed0e102e,
perumahan,Komplek perumahan,Jordi,"62GF+R26, Muara Inu, Kec. Lahei, Kabupaten Barito Utara, Kalimantan Tengah 73852","Muara Inu, Kec. Lahei, Kabupaten Barito Utara",KALIMANTAN TENGAH,73852.0,Indonesia,,,,-0.7722151,115.0227115,https://maps.google.com/?cid=0x0:0x1cf29e0e90cba302,
perumahan,Komplek perumahan,Hani Home,"Jl.Permata Biru 2 No.15 RT.18 Perum Borobudur , Lanjas, Luwe Hilir, Kec. Teweh Tengah, Kabupaten Barito Utara, Kalimantan Tengah 73812","Lanjas, Luwe Hilir, Kec. Teweh Tengah, Kabupaten Barito Utara",KALIMANTAN TENGAH,73812.0,Indonesia,,,,-0.8255092,114.945754,https://maps.google.com/?cid=0x0:0xbfb74db5bd77f757,
perumahan,Perhimpunan Pengembang Perumahan,Wdh la,"7W43+5FJ, Benao Hilir, Kec. Lahei, Kabupaten Barito Utara, Kalimantan Tengah 73852","Benao Hilir, Kec. Lahei, Kabupaten Barito Utara",KALIMANTAN TENGAH,73852.0,Indonesia,,,,-0.7445701,114.9036625,https://maps.google.com/?cid=0x0:0xb789d38330470ad2,
perumahan,Kantor Pemerintah,Desa Papar Pujung,"6WR3+FHX, Papar Pujung, Kec. Lahei Barat, Kabupaten Barito Utara, Kalimantan Tengah","Kabupaten Barito Utara, Kalimantan Tengah",KALIMANTAN TENGAH,,Indonesia,,,,-0.7587597,114.9039774,https://maps.google.com/?cid=0x0:0x31e3f5b97bd8543e,
perumahan,Komplek perumahan,Rumah Duyit,"5R9C+7WJ, Jl. Lintas Kalimantan Poros Tengah, Nihan Hilir, Kec. Lahei Barat, Kabupaten Barito Utara, Kalimantan Tengah 73814","Jl. Lintas Kalimantan Poros Tengah, Nihan Hilir, Kec. Lahei Barat, Kabupaten Barito Utara",KALIMANTAN TENGAH,73814.0,Indonesia,,,,-0.8317865,114.8222529,https://maps.google.com/?cid=0x0:0x9d2f761e55ece5c6,
perumahan,Komplek perumahan,Mess MPU site Duta Nurcahya,"5XG2+FH, Luwe Hilir, Kec. Lahei Barat, Kabupaten Barito Utara, Kalimantan Tengah","Kabupaten Barito Utara, Kalimantan Tengah",KALIMANTAN TENGAH,,Indonesia,,,,-0.8238741,114.9514428,https://maps.google.com/?cid=0x0:0x967b4a3c9743777b,
perumahan,Kompleks Apartemen,"Jln.Anggrek,RT.05,Jangkang Baru","RT.05, Jangkang Baru, Kec. Lahei Barat, Kabupaten Barito Utara, Kalimantan Tengah 73852","Jangkang Baru, Kec. Lahei Barat, Kabupaten Barito Utara",KALIMANTAN TENGAH,73852.0,Indonesia,81521867577.0,,,-0.786585,114.9173867,https://maps.google.com/?cid=0x0:0x7158c86baacb6ae0,
perumahan,Perhimpunan Pengembang Perumahan,Rumah shafa,"6W8F+F7, Jangkang Baru, Kec. Lahei Barat, Kabupaten Barito Utara, Kalimantan Tengah","Kabupaten Barito Utara, Kalimantan Tengah",KALIMANTAN TENGAH,,Indonesia,,,,-0.782935,114.9231178,https://maps.google.com/?cid=0x0:0x176acfa759d7a60c,
perumahan,Pembangunan Perumahan,Sungei pating Burhan CACah Apa Jhono.,"7V2V+578, Benao Hulu, Kec. Lahei Barat, Kabupaten Barito Utara, Kalimantan Tengah 73852","Benao Hulu, Kec. Lahei Barat, Kabupaten Barito Utara",KALIMANTAN TENGAH,73852.0,Indonesia,81348772055.0,,,-0.7495907,114.8932047,https://maps.google.com/?cid=0x0:0xb42102876b1dd517,
perumahan,Pembangunan Perumahan,Nyai's House ~(≧ ≦)/~,"4WMG+JFJ, Jl. Gagah Lurus, Lahei II, Kec. Lahei, Kabupaten Barito Utara, Kalimantan Tengah 73814","Jl. Gagah Lurus, Lahei II, Kec. Lahei, Kabupaten Barito Utara",KALIMANTAN TENGAH,73814.0,Indonesia,,,,-0.8659108,114.9261328,https://maps.google.com/?cid=0x0:0xcc26afcab67d115e,
perumahan,Komplek perumahan,M.Nashir,"7V4Q+4XW, Benao Hulu, Kec. Lahei Barat, Kabupaten Barito Utara, Kalimantan Tengah 73852","Benao Hulu, Kec. Lahei Barat, Kabupaten Barito Utara",KALIMANTAN TENGAH,73852.0,Indonesia,,,,-0.7443692,114.8904507,https://maps.google.com/?cid=0x0:0xf1286f3f6033451b,
perumahan,Komplek perumahan,DAGES,"7V3V+WQ8, Benao Hulu, Kec. Lahei Barat, Kabupaten Barito Utara, Kalimantan Tengah 73852","Benao Hulu, Kec. Lahei Barat, Kabupaten Barito Utara",KALIMANTAN TENGAH,73852.0,Indonesia,,,,-0.7452125,114.8944531,https://maps.google.com/?cid=0x0:0xc0d8b97c700f53e5,
perumahan,Menara komunikasi,Benao hilir,"7V3V+CP9, Benao Hilir, Kec. Lahei Barat, Kabupaten Barito Utara, Kalimantan Tengah 73852","Benao Hilir, Kec. Lahei Barat, Kabupaten Barito Utara",KALIMANTAN TENGAH,73852.0,Indonesia,,,,-0.7464598,114.894354,https://maps.google.com/?cid=0x0:0xbed7d31f4ace1451,
perumahan,Pembangunan Perumahan,Ahmad Naufal Home Stay,"82J4+32W, Jl. Tamanggung Jua, Tlk. Malewai, Kec. Lahei Barat, Kabupaten Barito Utara, Kalimantan Tengah 73852","Jl. Tamanggung Jua, Tlk. Malewai, Kec. Lahei Barat, Kabupaten Barito Utara",KALIMANTAN TENGAH,73852.0,Indonesia,,,,-0.6697626,115.0050783,https://maps.google.com/?cid=0x0:0xb8bd8866d3bc7da1,
perumahan,Pembangunan Perumahan,SANDRI Home Stay,"6W4Q+H7X, 7V4W+45FTlk. Malewai, Kec. Lahei Barat, Kabupaten Barito Utara, Kalimantan Tengah 73852","7V4W+45FTlk. Malewai, Kec. Lahei Barat, Kabupaten Barito Utara",KALIMANTAN TENGAH,73852.0,Indonesia,,,,-0.7935062,114.9382498,https://maps.google.com/?cid=0x0:0xa90a1cdaac575589,
perumahan,Pembangunan Perumahan,SANDRI HOME STAY,"82J4+32W, Jl. Tamanggung Jua Barat, Tlk. Malewai, Kec. Lahei, Kabupaten Barito Utara, Kalimantan Tengah 73852","Jl. Tamanggung Jua Barat, Tlk. Malewai, Kec. Lahei, Kabupaten Barito Utara",KALIMANTAN TENGAH,73852.0,Indonesia,,,,-0.6697626,115.0050783,https://maps.google.com/?cid=0x0:0x6249a405d5c34c08,
perumahan,perumahan,Kec. Montallat,"Kabupaten Barito Utara, Kalimantan Tengah","Kabupaten Barito Utara, Kalimantan Tengah",KALIMANTAN TENGAH,,Indonesia,,,,-1.3271553,114.8390377,https://maps.google.com/?cid=0x0:0xaee00abe123121b3,
perumahan,perumahan,Simpang tiga,"PV62+MWC, Sikan, Kec. Montallat, Kabupaten Barito Utara, Kalimantan Tengah","Kabupaten Barito Utara, Kalimantan Tengah",KALIMANTAN TENGAH,,Indonesia,,,,-1.2883127,114.8522594,https://maps.google.com/?cid=0x0:0xd3d2e8fe362e099d,
perumahan,perumahan,TEMPATNYA ABDUL LATI,"QWHH+C54, Sikan, Kec. Montallat, Kabupaten Barito Utara, Kalimantan Tengah","Kabupaten Barito Utara, Kalimantan Tengah",KALIMANTAN TENGAH,,Indonesia,,,,-1.2214831,114.9279547,https://maps.google.com/?cid=0x0:0x5793fd87166f0382,
perumahan,Gedung Apartemen,Rumah Karim dan salsa,"MRGJ+292, Tumpung Laung I, Kec. Montallat, Kabupaten Barito Utara, Kalimantan Tengah 73861","Tumpung Laung I, Kec. Montallat, Kabupaten Barito Utara",KALIMANTAN TENGAH,73861.0,Indonesia,,,,-1.3250862,114.8306438,https://maps.google.com/?cid=0x0:0x6f9e0993244246de,
perumahan,Komplek perumahan,pos malam,"MWJ5+236, Montallat II, Kec. Montallat, Kabupaten Barito Utara, Kalimantan Tengah 73862","Montallat II, Kec. Montallat, Kabupaten Barito Utara",KALIMANTAN TENGAH,73862.0,Indonesia,,,,-1.3194973,114.9074318,https://maps.google.com/?cid=0x0:0x6dcd526876664cf8,
perumahan,Perhimpunan Pengembang Perumahan,Rumah MWAP,"PQ3P+F7, Pepas, Kec. Montallat, Kabupaten Barito Utara, Kalimantan Tengah","Kabupaten Barito Utara, Kalimantan Tengah",KALIMANTAN TENGAH,,Indonesia,,,,-1.2960909,114.7903694,https://maps.google.com/?cid=0x0:0xdc7ae2756ef1bdd4,
perumahan,Komplek perumahan,Rumah Mi'raj Amit,"MRH8+GQP, Tumpung Laung II, Kec. Montallat, Kabupaten Barito Utara, Kalimantan Tengah 73861","Tumpung Laung II, Kec. Montallat, Kabupaten Barito Utara",KALIMANTAN TENGAH,73861.0,Indonesia,,,,-1.3211524,114.8169558,https://maps.google.com/?cid=0x0:0x78d7be1e3f137bc,
perumahan,Komplek perumahan,RUMAH SUKMAYADI,"Jalan waning pati RT 1 1, Tumpung Laung I","Kabupaten Barito Utara, Kalimantan Tengah",KALIMANTAN TENGAH,,Indonesia,,,,-1.327852,114.8404118,https://maps.google.com/?cid=0x0:0x464fefbdcf55157a,
perumahan,Sekolah Dasar,Perumahan Guru,"MV4P+2XJ, Montallat I, Kec. Montallat, Kabupaten Barito Utara, Kalimantan Tengah","Kabupaten Barito Utara, Kalimantan Tengah",KALIMANTAN TENGAH,,Indonesia,,,,-1.3449027,114.8873786,https://maps.google.com/?cid=0x0:0xc7207e01e89f4f01,
perumahan,Komplek perumahan,Rumah mas yon,"MRCR+X3W, Gg. Arrahman, Tumpung Laung I, Kec. Montallat, Kabupaten Barito Utara, Kalimantan Tengah 73861","Gg. Arrahman, Tumpung Laung I, Kec. Montallat, Kabupaten Barito Utara",KALIMANTAN TENGAH,73861.0,Indonesia,,,,-1.3276856,114.8402579,https://maps.google.com/?cid=0x0:0x9aeb9b39e3ac874a,
perumahan,perumahan,Naoval,"MRFQ+4J8, Tumpung Laung I, Kec. Montallat, Kabupaten Barito Utara, Kalimantan Tengah","Kabupaten Barito Utara, Kalimantan Tengah",KALIMANTAN TENGAH,,Indonesia,,,,-1.3273257,114.8383939,https://maps.google.com/?cid=0x0:0xa5d5dcee2322822c,
perumahan,Komplek perumahan,Rumah kai montallat,"MVGR+7JG, Jl. Raya Lintas Kota, Montallat II, Kec. Montallat, Kabupaten Barito Utara, Kalimantan Tengah 73862","Jl. Raya Lintas Kota, Montallat II, Kec. Montallat, Kabupaten Barito Utara",KALIMANTAN TENGAH,73862.0,Indonesia,,,,-1.3240803,114.8909134,https://maps.google.com/?cid=0x0:0x3026c4f5ba176544,
perumahan,Rumah Kayu,Rumah subuh tumpung laung,"Tumpung Laung I, Kec. Montallat, Kabupaten Barito Utara, Kalimantan Tengah 73861","Kec. Montallat, Kabupaten Barito Utara",KALIMANTAN TENGAH,73861.0,Indonesia,,,,-1.3273814,114.8397938,https://maps.google.com/?cid=0x0:0x9c3227b6a75afb48,
perumahan,perumahan,Rumah Godlief,"MRFQ+92C, Tumpung Laung I, Kec. Montallat, Kabupaten Barito Utara, Kalimantan Tengah","Kabupaten Barito Utara, Kalimantan Tengah",KALIMANTAN TENGAH,,Indonesia,,,,-1.3266951,114.8378365,https://maps.google.com/?cid=0x0:0x79397b9aec9d83f7,
perumahan,Perhimpunan Pengembang Perumahan,Sekretariat KKN,"MVGW+HHM, Montallat II, Kec. Montallat, Kabupaten Barito Utara, Kalimantan Tengah 73862","Montallat II, Kec. Montallat, Kabupaten Barito Utara",KALIMANTAN TENGAH,73862.0,Indonesia,,,,-1.3241008,114.8964847,https://maps.google.com/?cid=0x0:0x2eab1e2ea0cdf921,
perumahan,Kantor Pemerintah,Desa kamawen,"RQQW+9XJ, Kamawen, Kec. Montallat, Kabupaten Barito Utara, Kalimantan Tengah","Kabupaten Barito Utara, Kalimantan Tengah",KALIMANTAN TENGAH,,Indonesia,,,,-1.1615364,114.7973983,https://maps.google.com/?cid=0x0:0xfb5a46ac480412d6,
perumahan,perumahan,Rumah Medi,"MRFQ+9CV, Jl. Raya Lintas Kota, Tumpung Laung I, Kec. Montallat, Kabupaten Barito Utara, Kalimantan Tengah 73861","Jl. Raya Lintas Kota, Tumpung Laung I, Kec. Montallat, Kabupaten Barito Utara",KALIMANTAN TENGAH,73861.0,Indonesia,,,,-1.3264982,114.8385055,https://maps.google.com/?cid=0x0:0x26e49ebfb44a76a7,
perumahan,Komplek perumahan,Bahagianor,"MRFP+GCP, Tumpung Laung II, Tumpung Laung I, Kec. Montallat, Kabupaten Barito Utara, Kalimantan Tengah 73861","Tumpung Laung II, Tumpung Laung I, Kec. Montallat, Kabupaten Barito Utara",KALIMANTAN TENGAH,73861.0,Indonesia,,,,-1.3261971,114.8360581,https://maps.google.com/?cid=0x0:0x42fa1f32be83c58b,
perumahan,Komplek perumahan,Rumah Marlina,"MRGQ+PHW, Tumpung Laung I, Kec. Montallat, Kabupaten Barito Utara, Kalimantan Tengah 73861","Tumpung Laung I, Kec. Montallat, Kabupaten Barito Utara",KALIMANTAN TENGAH,73861.0,Indonesia,,,,-1.3231464,114.8389443,https://maps.google.com/?cid=0x0:0x5e3be4c0c5be1f7d,
perumahan,Kantor Pemerintah,Desa Pepas,"PQ4Q+42, Pepas, Kec. Montallat, Kabupaten Barito Utara, Kalimantan Tengah 73861","Pepas, Kec. Montallat, Kabupaten Barito Utara",KALIMANTAN TENGAH,73861.0,Indonesia,,,,-1.2947013,114.7876035,https://maps.google.com/?cid=0x0:0x22b65b10b5ad97f2,
perumahan,Komplek perumahan,RUMAH H.IDIN,"MRH9+5HR, Tumpung Laung II, Kec. Montallat, Kabupaten Barito Utara, Kalimantan Tengah 73861","Tumpung Laung II, Kec. Montallat, Kabupaten Barito Utara",KALIMANTAN TENGAH,73861.0,Indonesia,,,,-1.3212849,114.8195438,https://maps.google.com/?cid=0x0:0xfe18d7af54e7bb29,
perumahan,Komplek perumahan,Rumah Ilip,"PR4V+565, Sikan, Kec. Montallat, Kabupaten Barito Utara, Kalimantan Tengah 73861","Sikan, Kec. Montallat, Kabupaten Barito Utara",KALIMANTAN TENGAH,73861.0,Indonesia,,,,-1.294931,114.8432904,https://maps.google.com/?cid=0x0:0xd952d8d0de469ec3,
perumahan,Pembangunan Perumahan,M yusup,"MRGG+Q92, Tumpung Laung II, Kec. Montallat, Kabupaten Barito Utara, Kalimantan Tengah 73861","Tumpung Laung II, Kec. Montallat, Kabupaten Barito Utara",KALIMANTAN TENGAH,73861.0,Indonesia,,,,-1.3230329,114.8251399,https://maps.google.com/?cid=0x0:0xb9babf7516d0df5e,
perumahan,perumahan,Kalimantan Tengah 73813,"Jambu, Kec. Teweh Baru, Kabupaten Barito Utara, Kalimantan Tengah","Kabupaten Barito Utara, Kalimantan Tengah",KALIMANTAN TENGAH,,Indonesia,,,,-0.8856163,115.0169419,https://maps.google.com/?cid=0x0:0x20b84a66bae62c5e,
perumahan,Rumah wisata,Bagan Residence MTW III,"3V89+PQ, Lanjas, Kec. Teweh Tengah, Kabupaten Barito Utara, Kalimantan Tengah","Kabupaten Barito Utara, Kalimantan Tengah",KALIMANTAN TENGAH,,Indonesia,82124777705.0,,,-0.9331854,114.8694232,https://maps.google.com/?cid=0x0:0xe1c8d204a76c5b24,
perumahan,Komplek perumahan,HURUNG ENEP RAWRRR,"4XVG+5W, Hurung Enep, Kec. Lahei, Kabupaten Barito Utara, Kalimantan Tengah","Kabupaten Barito Utara, Kalimantan Tengah",KALIMANTAN TENGAH,,Indonesia,,,,-0.8571188,114.9773009,https://maps.google.com/?cid=0x0:0x2befba89da3bfe86,
perumahan,perumahan,Kalimantan Tengah 73814,"Kabupaten Barito Utara, Kalimantan Tengah","Kabupaten Barito Utara, Kalimantan Tengah",KALIMANTAN TENGAH,,Indonesia,,,,-0.8914468,114.8092691,https://maps.google.com/?cid=0x0:0xb5548f39346751af,
perumahan,Komplek perumahan,muara teweh,"4R3R+9P, Pendreh, Kec. Teweh Tengah, Kabupaten Barito Utara, Kalimantan Tengah 73814","Pendreh, Kec. Teweh Tengah, Kabupaten Barito Utara",KALIMANTAN TENGAH,73814.0,Indonesia,,,,-0.8966148,114.8417763,https://maps.google.com/?cid=0x0:0x2266ba91cf4f2802,
perumahan,Komplek perumahan,Rumah saya di muara Teweh,"3V5X+JQ, Jl. Ronggolawe No.1, Melayu, Kec. Teweh Tengah, Kabupaten Barito Utara, Kalimantan Tengah 73814","Jl. Ronggolawe No.1, Melayu, Kec. Teweh Tengah, Kabupaten Barito Utara",KALIMANTAN TENGAH,73814.0,Indonesia,,,,-0.9408186,114.8992909,https://maps.google.com/?cid=0x0:0x872b06cba34687af,
perumahan,Komplek perumahan,Rumah yunita. Syaharani,"2WG3+F9, Jingah, Kec. Teweh Baru, Kabupaten Barito Utara, Kalimantan Tengah 73814","Jingah, Kec. Teweh Baru, Kabupaten Barito Utara",KALIMANTAN TENGAH,73814.0,Indonesia,,,,-0.9737735,114.9033807,https://maps.google.com/?cid=0x0:0x7cecb0184f603dc9,
perumahan,Komplek perumahan,GEOSERVICES MUARA TEWEH,"2VQP+5X6, Lanjas, Kec. Teweh Tengah, Kabupaten Barito Utara, Kalimantan Tengah 73814","Lanjas, Kec. Teweh Tengah, Kabupaten Barito Utara",KALIMANTAN TENGAH,73814.0,Indonesia,,,,-0.9620793,114.8873927,https://maps.google.com/?cid=0x0:0x7f9add140fae4fe5,
perumahan,Komplek perumahan,Perumahan Grand Delta Regency,"Jl. Margo Rukun, Melayu, Kec. Teweh Tengah, Kabupaten Barito Utara, Kalimantan Tengah 73814","Melayu, Kec. Teweh Tengah, Kabupaten Barito Utara",KALIMANTAN TENGAH,73814.0,Indonesia,85732421505.0,,,-0.9293091,114.88959,https://maps.google.com/?cid=0x0:0x4d284846beb9aee1,
perumahan,Komplek perumahan,Rumah Ben,"3V5W+24W, Jl. Bandara Lama, Melayu, Kec. Teweh Tengah, Kabupaten Barito Utara, Kalimantan Tengah 73814","Jl. Bandara Lama, Melayu, Kec. Teweh Tengah, Kabupaten Barito Utara",KALIMANTAN TENGAH,73814.0,Indonesia,,,,-0.9423958,114.8953322,https://maps.google.com/?cid=0x0:0x82b60fd553e36191,
perumahan,Pembangunan Perumahan,Barak H. Ata,"2WM4+2C8, Jingah, Kec. Teweh Baru, Kabupaten Barito Utara, Kalimantan Tengah 73814","Jingah, Kec. Teweh Baru, Kabupaten Barito Utara",KALIMANTAN TENGAH,73814.0,Indonesia,,,,-0.9674568,114.9060908,https://maps.google.com/?cid=0x0:0xa2d74d12bda07732,
perumahan,Komplek perumahan,Rumah Totok yuni S,"2WG2+MX2, Jingah, Kec. Teweh Baru, Kabupaten Barito Utara, Kalimantan Tengah 73814","Jingah, Kec. Teweh Baru, Kabupaten Barito Utara",KALIMANTAN TENGAH,73814.0,Indonesia,,,,-0.9733576,114.9024043,https://maps.google.com/?cid=0x0:0xdc530be53a575052,
perumahan,Komplek perumahan,Rumah Rizvan,"3V4V+CM9, Lanjas, Kec. Teweh Tengah, Kabupaten Barito Utara, Kalimantan Tengah 73814","Lanjas, Kec. Teweh Tengah, Kabupaten Barito Utara",KALIMANTAN TENGAH,73814.0,Indonesia,,,,-0.9439584,114.8942246,https://maps.google.com/?cid=0x0:0xcc19d644f748e373,
perumahan,perumahan,Rumah Memet,"2VQR+3V8, Jl. Langsat, Lanjas, Kec. Teweh Tengah, Kabupaten Barito Utara, Kalimantan Tengah 73814","Jl. Langsat, Lanjas, Kec. Teweh Tengah, Kabupaten Barito Utara",KALIMANTAN TENGAH,73814.0,Indonesia,,,,-0.9625583,114.8921368,https://maps.google.com/?cid=0x0:0xd9053f6400fa6657,
perumahan,Komplek perumahan,Rumah UfiSyifa,"Jl. Persemaian IV No.2, Lanjas, Kec. Teweh Tengah, Kabupaten Barito Utara, Kalimantan Tengah 73814","Lanjas, Kec. Teweh Tengah, Kabupaten Barito Utara",KALIMANTAN TENGAH,73814.0,Indonesia,,,,-0.9371368,114.8843279,https://maps.google.com/?cid=0x0:0x1f84393fefe4e487,
perumahan,Komplek perumahan,Rumah Radith - Mulyadi Effendi,"2VWR+Q5R, Lanjas, Kec. Teweh Tengah, Kabupaten Barito Utara, Kalimantan Tengah 73814","Lanjas, Kec. Teweh Tengah, Kabupaten Barito Utara",KALIMANTAN TENGAH,73814.0,Indonesia,,,,-0.9530049,114.890388,https://maps.google.com/?cid=0x0:0xc30a0171a184dda,
perumahan,Perhimpunan Pengembang Perumahan,Jambu kecamatan Teweh baru,"2VFW+XH9, Jingah, Kec. Teweh Baru, Kabupaten Barito Utara, Kalimantan Tengah 73814","Jingah, Kec. Teweh Baru, Kabupaten Barito Utara",KALIMANTAN TENGAH,73814.0,Indonesia,,,,-0.9750851,114.8964875,https://maps.google.com/?cid=0x0:0xe9fcda5cf5e42e47,
perumahan,Komplek perumahan,Komplek Nor Asri Perdana,"3V7Q+8H9, Melayu, Kec. Teweh Tengah, Kabupaten Barito Utara, Kalimantan Tengah 73814","Melayu, Kec. Teweh Tengah, Kabupaten Barito Utara",KALIMANTAN TENGAH,73814.0,Indonesia,,,,-0.9367244,114.8889873,https://maps.google.com/?cid=0x0:0xda32b8d48877666c,
perumahan,Gedung Apartemen,RUMAH FARRIS,"2VQP+FWP, Lanjas, Kec. Teweh Tengah, Kabupaten Barito Utara, Kalimantan Tengah 73814","Lanjas, Kec. Teweh Tengah, Kabupaten Barito Utara",KALIMANTAN TENGAH,73814.0,Indonesia,,,,-0.9613728,114.8872954,https://maps.google.com/?cid=0x0:0x7de69fa3e88b0532,
perumahan,Komplek perumahan,Rumah Randy  Reva,"3V6X+XHP, Melayu, Kec. Teweh Tengah, Kabupaten Barito Utara, Kalimantan Tengah 73814","Melayu, Kec. Teweh Tengah, Kabupaten Barito Utara",KALIMANTAN TENGAH,73814.0,Indonesia,,,,-0.9375361,114.8989761,https://maps.google.com/?cid=0x0:0xaaf694c15a460b7d,
perumahan,Komplek perumahan,muara teweh barito utara kalimantan tengah,"jl. kelapa sawit No.21A, Lanjas, Kec. Teweh Tengah, Kabupaten Barito Utara, Kalimantan Tengah 73814","Lanjas, Kec. Teweh Tengah, Kabupaten Barito Utara",KALIMANTAN TENGAH,73814.0,Indonesia,,,,-0.951604,114.8907385,https://maps.google.com/?cid=0x0:0xb5aa83aac3d5182a,
perumahan,Komplek perumahan,Rumah H.HANDY NF,"Melayu, Kec. Teweh Tengah, Kabupaten Barito Utara, Kalimantan Tengah 73814","Kec. Teweh Tengah, Kabupaten Barito Utara",KALIMANTAN TENGAH,73814.0,Indonesia,,,,-0.9397563,114.8941458,https://maps.google.com/?cid=0x0:0x25252a05e34d90c,
perumahan,Komplek perumahan,Rumah Hamsi,"3V7J+Q6R, Jl. Rapen, Lanjas, Kec. Teweh Tengah, Kabupaten Barito Utara, Kalimantan Tengah 73814","Jl. Rapen, Lanjas, Kec. Teweh Tengah, Kabupaten Barito Utara",KALIMANTAN TENGAH,73814.0,Indonesia,,,,-0.9356306,114.8810449,https://maps.google.com/?cid=0x0:0xa8785f3a4318797f,
perumahan,Rumah Kayu,Muata teweh,"23RV+GJ7, Sabuh, Kec. Teweh Baru, Kabupaten Barito Utara, Kalimantan Tengah 73814","Sabuh, Kec. Teweh Baru, Kabupaten Barito Utara",KALIMANTAN TENGAH,73814.0,Indonesia,,,,-0.9587136,115.094045,https://maps.google.com/?cid=0x0:0x6dd77bd970be5945,
perumahan,Komplek perumahan,Perumahan,"XRVC+6J, Lemo II, Kec. Teweh Tengah, Kabupaten Barito Utara, Kalimantan Tengah 73814","Lemo II, Kec. Teweh Tengah, Kabupaten Barito Utara",KALIMANTAN TENGAH,73814.0,Indonesia,,,,-1.006572,114.821169,https://maps.google.com/?cid=0x0:0xebd5bc5b1a989439,
perumahan,Gedung Apartemen,Rumah dhafir,"3W44+Q5X, Jl. Pelajar, Melayu, Kec. Teweh Tengah, Kabupaten Barito Utara, Kalimantan Tengah 73814","Jl. Pelajar, Melayu, Kec. Teweh Tengah, Kabupaten Barito Utara",KALIMANTAN TENGAH,73814.0,Indonesia,,,,-0.9430077,114.9054771,https://maps.google.com/?cid=0x0:0xd2f9eb22da06311c,
perumahan,Kompleks Townhouse,Tiara･,"Perumahan Salsabila 1, Jl.Negara No.Km.7, RT.4/RW.6, Jingah, Kec. Teweh Baru, Kabupaten Barito Utara, Kalimantan Tengah 73814","Jl.Negara No.Km.7, RT.4/RW.6, Jingah, Kec. Teweh Baru, Kabupaten Barito Utara",KALIMANTAN TENGAH,73814.0,Indonesia,,,,-0.9787595,114.8930659,https://maps.google.com/?cid=0x0:0x6c6dffc2ba218b81,
perumahan,perumahan,Rumah ulul azmi,"3V7P+WQ8, Lanjas, Kec. Teweh Tengah, Kabupaten Barito Utara, Kalimantan Tengah 73814","Lanjas, Kec. Teweh Tengah, Kabupaten Barito Utara",KALIMANTAN TENGAH,73814.0,Indonesia,,,,-0.9351638,114.8869491,https://maps.google.com/?cid=0x0:0xc0e81eb06f8dd311,
perumahan,Pembangunan Perumahan,Heanty_Aurora,"2VGP+MH3, Jingah, Kec. Teweh Baru, Kabupaten Barito Utara, Kalimantan Tengah 73814","Jingah, Kec. Teweh Baru, Kabupaten Barito Utara",KALIMANTAN TENGAH,73814.0,Indonesia,,,,-0.9733689,114.8864193,https://maps.google.com/?cid=0x0:0x9bf251c1bedb9c9,
perumahan,perumahan,Kalimantan Tengah 73881,"Kabupaten Barito Utara, Kalimantan Tengah","Kabupaten Barito Utara, Kalimantan Tengah",KALIMANTAN TENGAH,,Indonesia,,,,-1.0257651,115.3785719,https://maps.google.com/?cid=0x0:0x8bd4f30ba12eadec,
perumahan,Perhimpunan Pengembang Perumahan,GRAHA BIANGAN,"4FRM+C2, Benangin I, Kec. Teweh Tim., Kabupaten Barito Utara, Kalimantan Tengah 73881","Benangin I, Kec. Teweh Tim., Kabupaten Barito Utara",KALIMANTAN TENGAH,73881.0,Indonesia,,,,-0.8589875,115.4825769,https://maps.google.com/?cid=0x0:0x9410121b083e45d,
perumahan,Komplek perumahan,Rumah Narius,"298G+898, Benangin I, Kec. Teweh Tim., Kabupaten Barito Utara, Kalimantan Tengah 73881","Benangin I, Kec. Teweh Tim., Kabupaten Barito Utara",KALIMANTAN TENGAH,73881.0,Indonesia,,,,-0.9842143,115.3759493,https://maps.google.com/?cid=0x0:0x22da118f6bb1cb5f,
perumahan,Komplek perumahan,Rumah Hendi,"Jalan sehat No.rt.02, Benangin I, Kec. Teweh Tim., Kabupaten Barito Utara, Kalimantan Tengah 73881","Benangin I, Kec. Teweh Tim., Kabupaten Barito Utara",KALIMANTAN TENGAH,73881.0,Indonesia,,,,-0.998437,115.3686594,https://maps.google.com/?cid=0x0:0xeb810cd70ad07c70,
perumahan,Komplek perumahan,Ucu rosidi,"W7PH+MHP, Jamut, Kec. Teweh Tim., Kabupaten Barito Utara, Kalimantan Tengah 73881","Jamut, Kec. Teweh Tim., Kabupaten Barito Utara",KALIMANTAN TENGAH,73881.0,Indonesia,,,,-1.0632874,115.2789644,https://maps.google.com/?cid=0x0:0xe2ae1c3d5dcc63f1,
perumahan,Komplek perumahan,IROM,"W7PG+Q8, Jamut, Kec. Teweh Tim., Kabupaten Barito Utara, Kalimantan Tengah","Kabupaten Barito Utara, Kalimantan Tengah",KALIMANTAN TENGAH,,Indonesia,,,,-1.0630309,115.2758617,https://maps.google.com/?cid=0x0:0xbf0023e610bf573b,
perumahan,Kantor Pemerintah,DESA SAMPIRANG II,"Sampirang I, Kec. Teweh Tim., Kabupaten Barito Utara, Kalimantan Tengah 73881","Kec. Teweh Tim., Kabupaten Barito Utara",KALIMANTAN TENGAH,73881.0,Indonesia,,,,-1.0692077,115.3999207,https://maps.google.com/?cid=0x0:0xb7ffc9da6041675e,
perumahan,Komplek perumahan,PANAEN,"25CF+H2, Panaen, Kec. Teweh Baru, Kabupaten Barito Utara, Kalimantan Tengah","Kabupaten Barito Utara, Kalimantan Tengah",KALIMANTAN TENGAH,,Indonesia,,,,-0.9785625,115.1725625,https://maps.google.com/?cid=0x0:0xfd1cb5a67e190d9e,
perumahan,Komplek perumahan,Muara tewrh,"V9J2+V4C, Nopelitalus, Kec. Teweh Tim., Kabupaten Barito Utara, Kalimantan Tengah","Kabupaten Barito Utara, Kalimantan Tengah",KALIMANTAN TENGAH,,Indonesia,,,,-1.1178225,115.3502745,https://maps.google.com/?cid=0x0:0xb29662289dc82ffe,
perumahan,Perhimpunan Pengembang Perumahan,Restona Rpn,"V8MH+6XW, Mampuak II, Kec. Teweh Tim., Kabupaten Barito Utara, Kalimantan Tengah","Kabupaten Barito Utara, Kalimantan Tengah",KALIMANTAN TENGAH,,Indonesia,82252797409.0,,,-1.1168903,115.3299612,https://maps.google.com/?cid=0x0:0xed2938c00a785f47,
perumahan,Perhimpunan Pengembang Perumahan,tatto,"2929+PVC, Benangin I, Kec. Teweh Tim., Kabupaten Barito Utara, Kalimantan Tengah 73881","Benangin I, Kec. Teweh Tim., Kabupaten Barito Utara",KALIMANTAN TENGAH,73881.0,Indonesia,,,,-0.9981916,115.3696498,https://maps.google.com/?cid=0x0:0xb467650863a5b5fe,
perumahan,Pembangunan Perumahan,Lisnawati,"V9J5+R6, Mampuak I, Kec. Teweh Tim., Kabupaten Barito Utara, Kalimantan Tengah","Kabupaten Barito Utara, Kalimantan Tengah",KALIMANTAN TENGAH,,Indonesia,,,,-1.117907,115.3580687,https://maps.google.com/?cid=0x0:0x7053d894b10dde83,
perumahan,Kabin perkemahan,mess RENTALINDO BEK,"4FXV+989, Benangin I, Kec. Teweh Tim., Kabupaten Barito Utara, Kalimantan Tengah 73881","Benangin I, Kec. Teweh Tim., Kabupaten Barito Utara",KALIMANTAN TENGAH,73881.0,Indonesia,,,,-0.8515811,115.4933671,https://maps.google.com/?cid=0x0:0xc12d44a716a55534,
perumahan,Pembangunan Perumahan,Datan CT,"WC4J+4H8, Sampirang II, Kec. Teweh Tim., Kabupaten Barito Utara, Kalimantan Tengah","Kabupaten Barito Utara, Kalimantan Tengah",KALIMANTAN TENGAH,,Indonesia,,,,-1.0947122,115.4314526,https://maps.google.com/?cid=0x0:0x7c24e64e62d17c68,
perumahan,Komplek perumahan,Kampung uja,"36WC+4J, Muara Inu, Kec. Lahei, Kabupaten Barito Utara, Kalimantan Tengah","Kabupaten Barito Utara, Kalimantan Tengah",KALIMANTAN TENGAH,,Indonesia,,,,-0.9046896,115.2215815,https://maps.google.com/?cid=0x0:0xe4e5890a8eaea06e,
perumahan,Produsen,Sei liju,"W8J9+4PP, Sei Liju, Kec. Teweh Tim., Kabupaten Barito Utara, Kalimantan Tengah 73881","Sei Liju, Kec. Teweh Tim., Kabupaten Barito Utara",KALIMANTAN TENGAH,73881.0,Indonesia,,,,-1.069662,115.319317,https://maps.google.com/?cid=0x0:0x55b60314abfe80a4,
perumahan,Komplek perumahan,Toko Zaki/ Kursani,"V9J3+7PP, Mampuak I, Kec. Teweh Tim., Kabupaten Barito Utara, Kalimantan Tengah 73881","Mampuak I, Kec. Teweh Tim., Kabupaten Barito Utara",KALIMANTAN TENGAH,73881.0,Indonesia,,,,-1.1192897,115.354322,https://maps.google.com/?cid=0x0:0x95b6ebc1c5e3d164,
perumahan,Perhimpunan Pengembang Perumahan,Rumah dinas nakes,"V9J4+75R, Mampuak I, Kec. Teweh Tim., Kabupaten Barito Utara, Kalimantan Tengah 73881","Mampuak I, Kec. Teweh Tim., Kabupaten Barito Utara",KALIMANTAN TENGAH,73881.0,Indonesia,,,,-1.1193216,115.3559282,https://maps.google.com/?cid=0x0:0x43db44b64d01dd85,
perumahan,perumahan,Rumah herman,"3998+QM5, Benangin 5, Kec. Teweh Tim., Kabupaten Barito Utara, Kalimantan Tengah 73881","Benangin 5, Kec. Teweh Tim., Kabupaten Barito Utara",KALIMANTAN TENGAH,73881.0,Indonesia,,,,-0.9306125,115.3667218,https://maps.google.com/?cid=0x0:0x17d2b5d2507567e8,
perumahan,Komplek perumahan,Atak didin,"W82C+52, Mampuak II, Kec. Teweh Tim., Kabupaten Barito Utara, Kalimantan Tengah","Kabupaten Barito Utara, Kalimantan Tengah",KALIMANTAN TENGAH,,Indonesia,,,,-1.0995959,115.3200075,https://maps.google.com/?cid=0x0:0xd7055a38f9428234,
perumahan,perumahan,Mess Binuang PT Bharinto Ekatama,"4FP3+Q54, Benangin 5, Kec. Teweh Tim., Kabupaten Barito Utara, Kalimantan Tengah 73881","Benangin 5, Kec. Teweh Tim., Kabupaten Barito Utara",KALIMANTAN TENGAH,73881.0,Indonesia,,,,-0.8631015,115.4529515,https://maps.google.com/?cid=0x0:0xaf70c36370eacefb,
perumahan,perumahan,Kec. Tewen Selatan,"Kabupaten Barito Utara, Kalimantan Tengah","Kabupaten Barito Utara, Kalimantan Tengah",KALIMANTAN TENGAH,,Indonesia,,,,-1.0409446,114.8984173,https://maps.google.com/?cid=0x0:0x9c139c9a4035a708,
perumahan,perumahan,Rumah Memet,"2VQR+3V8, Jl. Langsat, Lanjas, Kec. Teweh Tengah, Kabupaten Barito Utara, Kalimantan Tengah 73814","Jl. Langsat, Lanjas, Kec. Teweh Tengah, Kabupaten Barito Utara",KALIMANTAN TENGAH,73814.0,Indonesia,,,,-0.9625583,114.8921368,https://maps.google.com/?cid=0x0:0xd9053f6400fa6657,
perumahan,Kantor Pemerintah,Tempat kerja,"2WQ2+RJW, Melayu, Kec. Teweh Tengah, Kabupaten Barito Utara, Kalimantan Tengah 73814","Melayu, Kec. Teweh Tengah, Kabupaten Barito Utara",KALIMANTAN TENGAH,73814.0,Indonesia,,,,-0.9604521,114.90157,https://maps.google.com/?cid=0x0:0x93a004bf62f4650d,
perumahan,Komplek perumahan,GEOSERVICES MUARA TEWEH,"2VQP+5X6, Lanjas, Kec. Teweh Tengah, Kabupaten Barito Utara, Kalimantan Tengah 73814","Lanjas, Kec. Teweh Tengah, Kabupaten Barito Utara",KALIMANTAN TENGAH,73814.0,Indonesia,,,,-0.9620793,114.8873927,https://maps.google.com/?cid=0x0:0x7f9add140fae4fe5,
perumahan,Gedung Apartemen,RUMAH FARRIS,"2VQP+FWP, Lanjas, Kec. Teweh Tengah, Kabupaten Barito Utara, Kalimantan Tengah 73814","Lanjas, Kec. Teweh Tengah, Kabupaten Barito Utara",KALIMANTAN TENGAH,73814.0,Indonesia,,,,-0.9613728,114.8872954,https://maps.google.com/?cid=0x0:0x7de69fa3e88b0532,
perumahan,Komplek perumahan,Vichel Sona Indah ( V.S.I ),"2VCW+RMC, Jingah, Kec. Teweh Tengah, Kabupaten Barito Utara, Kalimantan Tengah 73814","Jingah, Kec. Teweh Tengah, Kabupaten Barito Utara",KALIMANTAN TENGAH,73814.0,Indonesia,,,,-0.9779443,114.8966403,https://maps.google.com/?cid=0x0:0x5453f9047b48b44a,
perumahan,Komplek perumahan,Rumah yunita. Syaharani,"2WG3+F9, Jingah, Kec. Teweh Baru, Kabupaten Barito Utara, Kalimantan Tengah 73814","Jingah, Kec. Teweh Baru, Kabupaten Barito Utara",KALIMANTAN TENGAH,73814.0,Indonesia,,,,-0.9737735,114.9033807,https://maps.google.com/?cid=0x0:0x7cecb0184f603dc9,
perumahan,Komplek perumahan,Rumah Totok yuni S,"2WG2+MX2, Jingah, Kec. Teweh Baru, Kabupaten Barito Utara, Kalimantan Tengah 73814","Jingah, Kec. Teweh Baru, Kabupaten Barito Utara",KALIMANTAN TENGAH,73814.0,Indonesia,,,,-0.9733576,114.9024043,https://maps.google.com/?cid=0x0:0xdc530be53a575052,
perumahan,Pembangunan Perumahan,Perumahan Griya Pesona Modern Land 2,"3V8Q+RG9, Melayu, Kec. Teweh Tengah, Kabupaten Barito Utara, Kalimantan Tengah 73814","Melayu, Kec. Teweh Tengah, Kabupaten Barito Utara",KALIMANTAN TENGAH,73814.0,Indonesia,,,,-0.9329578,114.8888729,https://maps.google.com/?cid=0x0:0xa6197000aa266937,
perumahan,Pembangunan Perumahan,Dibawah Plafond Kamar,"Jl. Beringin No.73811, Lanjas, Kec. Teweh Tengah, Kabupaten Barito Utara, Kalimantan Tengah 73814","Lanjas, Kec. Teweh Tengah, Kabupaten Barito Utara",KALIMANTAN TENGAH,73814.0,Indonesia,,,,-0.9627576,114.8933768,https://maps.google.com/?cid=0x0:0x88620327ea9804db,
perumahan,Komplek perumahan,Rumah Daniya,"2WW2+H9 Julian_nails, Melayu, Kec. Teweh Tengah, Kabupaten Barito Utara, Kalimantan Tengah 73814","Melayu, Kec. Teweh Tengah, Kabupaten Barito Utara",KALIMANTAN TENGAH,73814.0,Indonesia,,,,-0.9541457,114.9008637,https://maps.google.com/?cid=0x0:0x98b073ab77a20078,
perumahan,Komplek perumahan,Rimba Barito,"2W84+W36, Jingah, Kec. Teweh Tengah, Kabupaten Barito Utara, Kalimantan Tengah 73814","Jingah, Kec. Teweh Tengah, Kabupaten Barito Utara",KALIMANTAN TENGAH,73814.0,Indonesia,,,,-0.9827008,114.9051422,https://maps.google.com/?cid=0x0:0x34cd8d8a22932b35,
perumahan,Pembangunan Perumahan,Yulian Home,"WVP6+5X9, Bintang Ninggi I, Kec. Teweh Tengah, Kabupaten Barito Utara, Kalimantan Tengah","Kabupaten Barito Utara, Kalimantan Tengah",KALIMANTAN TENGAH,,Indonesia,,,,-1.0646502,114.8624814,https://maps.google.com/?cid=0x0:0x1775ef3e867e4c3c,
perumahan,Komplek perumahan,Perumahan,"XRVC+6J, Lemo II, Kec. Teweh Tengah, Kabupaten Barito Utara, Kalimantan Tengah 73814","Lemo II, Kec. Teweh Tengah, Kabupaten Barito Utara",KALIMANTAN TENGAH,73814.0,Indonesia,,,,-1.006572,114.821169,https://maps.google.com/?cid=0x0:0xebd5bc5b1a989439,
perumahan,Toko outlet,Rumah Nazril,"2WJ4+M3P, Jingah, Kec. Teweh Tengah, Kabupaten Barito Utara, Kalimantan Tengah 73814","Jingah, Kec. Teweh Tengah, Kabupaten Barito Utara",KALIMANTAN TENGAH,73814.0,Indonesia,,,,-0.968287,114.9052082,https://maps.google.com/?cid=0x0:0xa6b46c2a7f5a9a79,
perumahan,Komplek perumahan,Rumah Delia,"2VMR+GVR, Jl. Akasia, Lanjas, Kec. Teweh Tengah, Kabupaten Barito Utara, Kalimantan Tengah 73814","Jl. Akasia, Lanjas, Kec. Teweh Tengah, Kabupaten Barito Utara",KALIMANTAN TENGAH,73814.0,Indonesia,,,,-0.9661387,114.892132,https://maps.google.com/?cid=0x0:0xc87f2ba23352a7e9,
perumahan,Pembangunan Perumahan,Heanty_Aurora,"2VGP+MH3, Jingah, Kec. Teweh Baru, Kabupaten Barito Utara, Kalimantan Tengah 73814","Jingah, Kec. Teweh Baru, Kabupaten Barito Utara",KALIMANTAN TENGAH,73814.0,Indonesia,,,,-0.9733689,114.8864193,https://maps.google.com/?cid=0x0:0x9bf251c1bedb9c9,
perumahan,Pembangunan Perumahan,Komplek Vhicel Shonna Indah,"2V8W+V32, Jingah, Kec. Teweh Tengah, Kabupaten Barito Utara, Kalimantan Tengah 73814","Jingah, Kec. Teweh Tengah, Kabupaten Barito Utara",KALIMANTAN TENGAH,73814.0,Indonesia,81347368863.0,,,-0.9828721,114.8951288,https://maps.google.com/?cid=0x0:0xd8e27e3df5ffbf1,
perumahan,Gedung Apartemen,Rumah atas,"Jl. Yetro Sinseng No.2, Lanjas, Kec. Teweh Tengah, Kabupaten Barito Utara, Kalimantan Tengah 73814","Lanjas, Kec. Teweh Tengah, Kabupaten Barito Utara",KALIMANTAN TENGAH,73814.0,Indonesia,,,,-0.9630395,114.8885659,https://maps.google.com/?cid=0x0:0x95572d31b9bbc463,
perumahan,Komplek perumahan,Rumah Rizvan,"3V4V+CM9, Lanjas, Kec. Teweh Tengah, Kabupaten Barito Utara, Kalimantan Tengah 73814","Lanjas, Kec. Teweh Tengah, Kabupaten Barito Utara",KALIMANTAN TENGAH,73814.0,Indonesia,,,,-0.9439584,114.8942246,https://maps.google.com/?cid=0x0:0xcc19d644f748e373,
perumahan,Vila,Ika Niko,"2V9W+4C, Jingah, Kec. Teweh Baru, Kabupaten Barito Utara, Kalimantan Tengah 73814","Jingah, Kec. Teweh Baru, Kabupaten Barito Utara",KALIMANTAN TENGAH,73814.0,Indonesia,,,,-0.9831051,114.8960763,https://maps.google.com/?cid=0x0:0x59838e20169e7f18,
perumahan,Pembangunan Perumahan,Kios Bareno Bangdep Muara Teweh,"XV9J+CC, Trahean, Kec. Tewen Selatan, Kabupaten Barito Utara, Kalimantan Tengah","Kabupaten Barito Utara, Kalimantan Tengah",KALIMANTAN TENGAH,,Indonesia,,,,-1.0313861,114.8810952,https://maps.google.com/?cid=0x0:0x3400cf1610177332,
perumahan,Komplek perumahan,Perumahan Grand Delta Regency,"Jl. Margo Rukun, Melayu, Kec. Teweh Tengah, Kabupaten Barito Utara, Kalimantan Tengah 73814","Melayu, Kec. Teweh Tengah, Kabupaten Barito Utara",KALIMANTAN TENGAH,73814.0,Indonesia,85732421505.0,,,-0.9293091,114.88959,https://maps.google.com/?cid=0x0:0x4d284846beb9aee1,
perumahan,Komplek perumahan,Rumah Radith - Mulyadi Effendi,"2VWR+Q5R, Lanjas, Kec. Teweh Tengah, Kabupaten Barito Utara, Kalimantan Tengah 73814","Lanjas, Kec. Teweh Tengah, Kabupaten Barito Utara",KALIMANTAN TENGAH,73814.0,Indonesia,,,,-0.9530049,114.890388,https://maps.google.com/?cid=0x0:0xc30a0171a184dda,
perumahan,Pembangunan Perumahan,Kampung Bakumpai,"2V3C+W4P, Jl. Bukit Bambu, Lemo I, Kec. Teweh Tengah, Kabupaten Barito Utara, Kalimantan Tengah 73814","Jl. Bukit Bambu, Lemo I, Kec. Teweh Tengah, Kabupaten Barito Utara",KALIMANTAN TENGAH,73814.0,Indonesia,,,,-0.9951719,114.870321,https://maps.google.com/?cid=0x0:0x51f7c43bdf837b07,
perumahan,Komplek perumahan,Rumah saya di muara Teweh,"3V5X+JQ, Jl. Ronggolawe No.1, Melayu, Kec. Teweh Tengah, Kabupaten Barito Utara, Kalimantan Tengah 73814","Jl. Ronggolawe No.1, Melayu, Kec. Teweh Tengah, Kabupaten Barito Utara",KALIMANTAN TENGAH,73814.0,Indonesia,,,,-0.9408186,114.8992909,https://maps.google.com/?cid=0x0:0x872b06cba34687af,
perumahan,Pembangunan Perumahan,Barak H. Ata,"2WM4+2C8, Jingah, Kec. Teweh Baru, Kabupaten Barito Utara, Kalimantan Tengah 73814","Jingah, Kec. Teweh Baru, Kabupaten Barito Utara",KALIMANTAN TENGAH,73814.0,Indonesia,,,,-0.9674568,114.9060908,https://maps.google.com/?cid=0x0:0xa2d74d12bda07732,
perumahan,Rumah Kayu,Kos tsj muara teweh,"2VPR+HMM, Gg. Nusa Indah, Lanjas, Kec. Teweh Tengah, Kabupaten Barito Utara, Kalimantan Tengah 73814","Gg. Nusa Indah, Lanjas, Kec. Teweh Tengah, Kabupaten Barito Utara",KALIMANTAN TENGAH,73814.0,Indonesia,,,,-0.9635328,114.8916589,https://maps.google.com/?cid=0x0:0x5e74edc363100cdb,
perumahan,Komplek perumahan,"Muliadi,(imul 'dune')","2VMW+X7W, Lanjas, Kec. Teweh Tengah, Kabupaten Barito Utara, Kalimantan Tengah 73814","Lanjas, Kec. Teweh Tengah, Kabupaten Barito Utara",KALIMANTAN TENGAH,73814.0,Indonesia,,,,-0.9650022,114.8957161,https://maps.google.com/?cid=0x0:0xad82a55e3e40dfa5,
perumahan,perumahan,Kalimantan Tengah 73811,"Juju Baru, Kec. Lahei, Kabupaten Barito Utara, Kalimantan Tengah","Kabupaten Barito Utara, Kalimantan Tengah",KALIMANTAN TENGAH,,Indonesia,,,,-0.8295559,114.9872821,https://maps.google.com/?cid=0x0:0x483ad48a5b01a50d,
perumahan,Komplek perumahan,Lokasi Pemb.Rusus Polri Kec.Kec.lahei Muara Teweh,"4WMJ+P6V, Lahei II, Kec. Lahei, Kabupaten Barito Utara, Kalimantan Tengah 73814","Lahei II, Kec. Lahei, Kabupaten Barito Utara",KALIMANTAN TENGAH,73814.0,Indonesia,85387208324.0,,,-0.8656434,114.9305435,https://maps.google.com/?cid=0x0:0xcc3ddc69f6854454,
perumahan,Komplek perumahan,Hani Home,"Jl.Permata Biru 2 No.15 RT.18 Perum Borobudur , Lanjas, Luwe Hilir, Kec. Teweh Tengah, Kabupaten Barito Utara, Kalimantan Tengah 73812","Lanjas, Luwe Hilir, Kec. Teweh Tengah, Kabupaten Barito Utara",KALIMANTAN TENGAH,73812.0,Indonesia,,,,-0.8255092,114.945754,https://maps.google.com/?cid=0x0:0xbfb74db5bd77f757,
perumahan,Rumah wisata,Bagan Residence MTW III,"3V89+PQ, Lanjas, Kec. Teweh Tengah, Kabupaten Barito Utara, Kalimantan Tengah","Kabupaten Barito Utara, Kalimantan Tengah",KALIMANTAN TENGAH,,Indonesia,82124777705.0,,,-0.9331854,114.8694232,https://maps.google.com/?cid=0x0:0xe1c8d204a76c5b24,
perumahan,Komplek perumahan,Akhmad Rezky,"4WHP+J59, Unnamed Road, Lahei I, Kec. Lahei, Kabupaten Barito Utara, Kalimantan Tengah 73814","Unnamed Road, Lahei I, Kec. Lahei, Kabupaten Barito Utara",KALIMANTAN TENGAH,73814.0,Indonesia,,,,-0.8709679,114.9354886,https://maps.google.com/?cid=0x0:0x33e18475e67d9bd5,
perumahan,Pembangunan Perumahan,Rumah Alif,"5WVP+XXC, Luwe Hilir, Kec. Lahei Barat, Kabupaten Barito Utara, Kalimantan Tengah","Kabupaten Barito Utara, Kalimantan Tengah",KALIMANTAN TENGAH,,Indonesia,,,,-0.8048927,114.9374266,https://maps.google.com/?cid=0x0:0x15eae57427191dd7,
perumahan,Komplek perumahan,Rumah Deby,"4X45+75W, Lahei I, Kec. Lahei, Kabupaten Barito Utara, Kalimantan Tengah 73814","Lahei I, Kec. Lahei, Kabupaten Barito Utara",KALIMANTAN TENGAH,73814.0,Indonesia,,,,-0.8719727,114.9369596,https://maps.google.com/?cid=0x0:0x94a3ff1c2f392b74,
perumahan,Komplek perumahan,Rumah Indra Gunawan,"4WMH+8WF, Lahei II, Kec. Lahei, Kabupaten Barito Utara, Kalimantan Tengah 73814","Lahei II, Kec. Lahei, Kabupaten Barito Utara",KALIMANTAN TENGAH,73814.0,Indonesia,85248592662.0,,,-0.8666967,114.9297959,https://maps.google.com/?cid=0x0:0xad70398be99932bf,
perumahan,Komplek perumahan,Rumah TT,"6W3Q+9JQ, Jl. Pelajar, Luwe Hulu, Kec. Lahei Barat, Kabupaten Barito Utara, Kalimantan Tengah 73812","Jl. Pelajar, Luwe Hulu, Kec. Lahei Barat, Kabupaten Barito Utara",KALIMANTAN TENGAH,73812.0,Indonesia,,,,-0.796541,114.9391337,https://maps.google.com/?cid=0x0:0x49fde2b85ae0c062,
perumahan,Komplek perumahan,SR HOMEY 1 homestay,"Gg. Swadaya, Melayu, Kec. Teweh Tengah, Kabupaten Barito Utara, Kalimantan Tengah 73814","Melayu, Kec. Teweh Tengah, Kabupaten Barito Utara",KALIMANTAN TENGAH,73814.0,Indonesia,82154895947.0,,,-0.9427504,114.8980231,https://maps.google.com/?cid=0x0:0x2a1fdc3cad13de68,
perumahan,Pembangunan Perumahan,SANDRI Home Stay,"6W4Q+H7X, 7V4W+45FTlk. Malewai, Kec. Lahei Barat, Kabupaten Barito Utara, Kalimantan Tengah 73852","7V4W+45FTlk. Malewai, Kec. Lahei Barat, Kabupaten Barito Utara",KALIMANTAN TENGAH,73852.0,Indonesia,,,,-0.7935062,114.9382498,https://maps.google.com/?cid=0x0:0xa90a1cdaac575589,
perumahan,Komplek perumahan,Mess MPU site Duta Nurcahya,"5XG2+FH, Luwe Hilir, Kec. Lahei Barat, Kabupaten Barito Utara, Kalimantan Tengah","Kabupaten Barito Utara, Kalimantan Tengah",KALIMANTAN TENGAH,,Indonesia,,,,-0.8238741,114.9514428,https://maps.google.com/?cid=0x0:0x967b4a3c9743777b,
perumahan,Komplek perumahan,Bagan Residence Muara Teweh,"3V9G+2G, Lanjas, Kec. Teweh Tengah, Kabupaten Barito Utara, Kalimantan Tengah","Kabupaten Barito Utara, Kalimantan Tengah",KALIMANTAN TENGAH,,Indonesia,,,,-0.932436,114.876274,https://maps.google.com/?cid=0x0:0x4091969be71c3e55,
perumahan,Komplek perumahan,rumah NL,"6W2P+MRX, Luwe Hulu, Kec. Lahei Barat, Kabupaten Barito Utara, Kalimantan Tengah","Kabupaten Barito Utara, Kalimantan Tengah",KALIMANTAN TENGAH,,Indonesia,,,,-0.7982569,114.9371027,https://maps.google.com/?cid=0x0:0xaf5e5f8febd04166,
perumahan,Bengkel Sepeda Motor,Bengkel motor /mobil latif,"4WRH+3H7, Muara Bakah, Kec. Lahei, Kabupaten Barito Utara, Kalimantan Tengah 73814","Muara Bakah, Kec. Lahei, Kabupaten Barito Utara",KALIMANTAN TENGAH,73814.0,Indonesia,,,,-0.8598365,114.9289186,https://maps.google.com/?cid=0x0:0x357a54c820c72a9c,
perumahan,Perhimpunan Pengembang Perumahan,JB,"42MJ+856, Juju Baru, Kec. Lahei, Kabupaten Barito Utara, Kalimantan Tengah 73814","Juju Baru, Kec. Lahei, Kabupaten Barito Utara",KALIMANTAN TENGAH,73814.0,Indonesia,,,,-0.8667046,115.0303788,https://maps.google.com/?cid=0x0:0x4229ad91882546f7,
perumahan,Pembangunan Perumahan,Rumah dan warung dhirgham,"5WVP+XXC, Luwe Hilir, Kec. Lahei Barat, Kabupaten Barito Utara, Kalimantan Tengah","Kabupaten Barito Utara, Kalimantan Tengah",KALIMANTAN TENGAH,,Indonesia,,,,-0.805015,114.937397,https://maps.google.com/?cid=0x0:0xf6600d3b7b307e62,
perumahan,Komplek perumahan,Rumah Minal Abidin,"Jl Pembangunan No.Rt.07, Lahei II, Kec. Lahei, Kabupaten Barito Utara, Kalimantan Tengah","Kabupaten Barito Utara, Kalimantan Tengah",KALIMANTAN TENGAH,,Indonesia,,,,-0.8661663,114.93082,https://maps.google.com/?cid=0x0:0x9462bef396d96e58,
perumahan,Komplek perumahan,Rumah windawindi,"4WHH+8XG, Lahei II, Kec. Lahei, Kabupaten Barito Utara, Kalimantan Tengah 73814","Lahei II, Kec. Lahei, Kabupaten Barito Utara",KALIMANTAN TENGAH,73814.0,Indonesia,,,,-0.8716954,114.9299915,https://maps.google.com/?cid=0x0:0x6bc3d37caed134d3,
perumahan,Kantor Perusahaan,Luwe hilir,"5WRW+P86, Luwe Hilir, Kec. Lahei Barat, Kabupaten Barito Utara, Kalimantan Tengah","Kabupaten Barito Utara, Kalimantan Tengah",KALIMANTAN TENGAH,,Indonesia,,,,-0.8082074,114.945754,https://maps.google.com/?cid=0x0:0x7a0a1188d609e661,
perumahan,Perhimpunan Pengembang Perumahan,Rumah Pak teguh,"4WMJ+J59, Lahei II, Kec. Lahei, Kabupaten Barito Utara, Kalimantan Tengah 73814","Lahei II, Kec. Lahei, Kabupaten Barito Utara",KALIMANTAN TENGAH,73814.0,Indonesia,,,,-0.8660466,114.9303697,https://maps.google.com/?cid=0x0:0x238ae370a4ff6054,
perumahan,Komplek perumahan,Rumah Khalief Dzikri Al'Hafizh,"4WJM+PV8, Lahei II, Kec. Lahei, Kabupaten Barito Utara, Kalimantan Tengah","Kabupaten Barito Utara, Kalimantan Tengah",KALIMANTAN TENGAH,,Indonesia,,,,-0.86794,114.9346606,https://maps.google.com/?cid=0x0:0xb3a776226c83abbc,
perumahan,perumahan,Kalimantan Tengah 73812,"Kabupaten Barito Utara, Kalimantan Tengah","Kabupaten Barito Utara, Kalimantan Tengah",KALIMANTAN TENGAH,,Indonesia,,,,-0.8255092,114.945754,https://maps.google.com/?cid=0x0:0xaf5eb4cc7e2c2286,
perumahan,Komplek perumahan,Lokasi Pemb.Rusus Polri Kec.Kec.lahei Muara Teweh,"4WMJ+P6V, Lahei II, Kec. Lahei, Kabupaten Barito Utara, Kalimantan Tengah 73814","Lahei II, Kec. Lahei, Kabupaten Barito Utara",KALIMANTAN TENGAH,73814.0,Indonesia,85387208324.0,,,-0.8656434,114.9305435,https://maps.google.com/?cid=0x0:0xcc3ddc69f6854454,
perumahan,Komplek perumahan,Hani Home,"Jl.Permata Biru 2 No.15 RT.18 Perum Borobudur , Lanjas, Luwe Hilir, Kec. Teweh Tengah, Kabupaten Barito Utara, Kalimantan Tengah 73812","Lanjas, Luwe Hilir, Kec. Teweh Tengah, Kabupaten Barito Utara",KALIMANTAN TENGAH,73812.0,Indonesia,,,,-0.8255092,114.945754,https://maps.google.com/?cid=0x0:0xbfb74db5bd77f757,
perumahan,Bengkel Sepeda Motor,Bengkel motor /mobil latif,"4WRH+3H7, Muara Bakah, Kec. Lahei, Kabupaten Barito Utara, Kalimantan Tengah 73814","Muara Bakah, Kec. Lahei, Kabupaten Barito Utara",KALIMANTAN TENGAH,73814.0,Indonesia,,,,-0.8598365,114.9289186,https://maps.google.com/?cid=0x0:0x357a54c820c72a9c,
perumahan,Komplek perumahan,Mess MPU site Duta Nurcahya,"5XG2+FH, Luwe Hilir, Kec. Lahei Barat, Kabupaten Barito Utara, Kalimantan Tengah","Kabupaten Barito Utara, Kalimantan Tengah",KALIMANTAN TENGAH,,Indonesia,,,,-0.8238741,114.9514428,https://maps.google.com/?cid=0x0:0x967b4a3c9743777b,
perumahan,Pembangunan Perumahan,Rumah Alif,"5WVP+XXC, Luwe Hilir, Kec. Lahei Barat, Kabupaten Barito Utara, Kalimantan Tengah","Kabupaten Barito Utara, Kalimantan Tengah",KALIMANTAN TENGAH,,Indonesia,,,,-0.8048927,114.9374266,https://maps.google.com/?cid=0x0:0x15eae57427191dd7,
perumahan,Komplek perumahan,Rumah Indra Gunawan,"4WMH+8WF, Lahei II, Kec. Lahei, Kabupaten Barito Utara, Kalimantan Tengah 73814","Lahei II, Kec. Lahei, Kabupaten Barito Utara",KALIMANTAN TENGAH,73814.0,Indonesia,85248592662.0,,,-0.8666967,114.9297959,https://maps.google.com/?cid=0x0:0xad70398be99932bf,
perumahan,Komplek perumahan,rumah NL,"6W2P+MRX, Luwe Hulu, Kec. Lahei Barat, Kabupaten Barito Utara, Kalimantan Tengah","Kabupaten Barito Utara, Kalimantan Tengah",KALIMANTAN TENGAH,,Indonesia,,,,-0.7982569,114.9371027,https://maps.google.com/?cid=0x0:0xaf5e5f8febd04166,
perumahan,Pembangunan Perumahan,Rumah dan warung dhirgham,"5WVP+XXC, Luwe Hilir, Kec. Lahei Barat, Kabupaten Barito Utara, Kalimantan Tengah","Kabupaten Barito Utara, Kalimantan Tengah",KALIMANTAN TENGAH,,Indonesia,,,,-0.805015,114.937397,https://maps.google.com/?cid=0x0:0xf6600d3b7b307e62,
perumahan,Komplek perumahan,Rumah Minal Abidin,"Jl Pembangunan No.Rt.07, Lahei II, Kec. Lahei, Kabupaten Barito Utara, Kalimantan Tengah","Kabupaten Barito Utara, Kalimantan Tengah",KALIMANTAN TENGAH,,Indonesia,,,,-0.8661663,114.93082,https://maps.google.com/?cid=0x0:0x9462bef396d96e58,
perumahan,Kantor Perusahaan,Luwe hilir,"5WRW+P86, Luwe Hilir, Kec. Lahei Barat, Kabupaten Barito Utara, Kalimantan Tengah","Kabupaten Barito Utara, Kalimantan Tengah",KALIMANTAN TENGAH,,Indonesia,,,,-0.8082074,114.945754,https://maps.google.com/?cid=0x0:0x7a0a1188d609e661,
perumahan,Perhimpunan Pengembang Perumahan,Rumah Pak teguh,"4WMJ+J59, Lahei II, Kec. Lahei, Kabupaten Barito Utara, Kalimantan Tengah 73814","Lahei II, Kec. Lahei, Kabupaten Barito Utara",KALIMANTAN TENGAH,73814.0,Indonesia,,,,-0.8660466,114.9303697,https://maps.google.com/?cid=0x0:0x238ae370a4ff6054,
perumahan,Pembangunan Perumahan,SANDRI Home Stay,"6W4Q+H7X, 7V4W+45FTlk. Malewai, Kec. Lahei Barat, Kabupaten Barito Utara, Kalimantan Tengah 73852","7V4W+45FTlk. Malewai, Kec. Lahei Barat, Kabupaten Barito Utara",KALIMANTAN TENGAH,73852.0,Indonesia,,,,-0.7935062,114.9382498,https://maps.google.com/?cid=0x0:0xa90a1cdaac575589,
perumahan,Komplek perumahan,Akhmad Rezky,"4WHP+J59, Unnamed Road, Lahei I, Kec. Lahei, Kabupaten Barito Utara, Kalimantan Tengah 73814","Unnamed Road, Lahei I, Kec. Lahei, Kabupaten Barito Utara",KALIMANTAN TENGAH,73814.0,Indonesia,,,,-0.8709679,114.9354886,https://maps.google.com/?cid=0x0:0x33e18475e67d9bd5,
perumahan,Komplek perumahan,LILA AULIA P.M.,"6W4P+4MP, Jl. Waringin, RT.02/RW.No. 55, Luwe Hulu, Kec. Lahei Barat, Kabupaten Barito Utara, Kalimantan Tengah","Kabupaten Barito Utara, Kalimantan Tengah",KALIMANTAN TENGAH,,Indonesia,,,,-0.7946517,114.9366967,https://maps.google.com/?cid=0x0:0x9e1aafa64b905705,
perumahan,Pembangunan Perumahan,Eska Gunawan,"4WMJ+J59, Lahei II, Kec. Lahei, Kabupaten Barito Utara, Kalimantan Tengah 73814","Lahei II, Kec. Lahei, Kabupaten Barito Utara",KALIMANTAN TENGAH,73814.0,Indonesia,,,,-0.8659748,114.9304988,https://maps.google.com/?cid=0x0:0x2ffe681cdf6f15ef,
perumahan,Gedung Apartemen,Walet Aldi firdaus,"6W4P+4G3, RT.02/RW.No 39, jl.Waringin, Kec. Lahei Barat, Kabupaten Barito Utara, Kalimantan Tengah 73814","RT.02/RW.No 39, jl.Waringin, Kec. Lahei Barat, Kabupaten Barito Utara",KALIMANTAN TENGAH,73814.0,Indonesia,,,,-0.7951166,114.9364454,https://maps.google.com/?cid=0x0:0x18666fcdd8165f96,
perumahan,Komplek perumahan,HURUNG ENEP RAWRRR,"4XVG+5W, Hurung Enep, Kec. Lahei, Kabupaten Barito Utara, Kalimantan Tengah","Kabupaten Barito Utara, Kalimantan Tengah",KALIMANTAN TENGAH,,Indonesia,,,,-0.8571188,114.9773009,https://maps.google.com/?cid=0x0:0x2befba89da3bfe86,
perumahan,Komplek perumahan,Rumah windawindi,"4WHH+8XG, Lahei II, Kec. Lahei, Kabupaten Barito Utara, Kalimantan Tengah 73814","Lahei II, Kec. Lahei, Kabupaten Barito Utara",KALIMANTAN TENGAH,73814.0,Indonesia,,,,-0.8716954,114.9299915,https://maps.google.com/?cid=0x0:0x6bc3d37caed134d3,
perumahan,Komplek perumahan,muara teweh,"4R3R+9P, Pendreh, Kec. Teweh Tengah, Kabupaten Barito Utara, Kalimantan Tengah 73814","Pendreh, Kec. Teweh Tengah, Kabupaten Barito Utara",KALIMANTAN TENGAH,73814.0,Indonesia,,,,-0.8966148,114.8417763,https://maps.google.com/?cid=0x0:0x2266ba91cf4f2802,
perumahan,Komplek perumahan,Mislan,"4WJH+W8C, Lahei II, Kec. Lahei, Kabupaten Barito Utara, Kalimantan Tengah 73814","Lahei II, Kec. Lahei, Kabupaten Barito Utara",KALIMANTAN TENGAH,73814.0,Indonesia,,,,-0.8675137,114.9282478,https://maps.google.com/?cid=0x0:0xa95d8d927de3d80,
perumahan,Komplek perumahan,Rumah Khalief Dzikri Al'Hafizh,"4WJM+PV8, Lahei II, Kec. Lahei, Kabupaten Barito Utara, Kalimantan Tengah","Kabupaten Barito Utara, Kalimantan Tengah",KALIMANTAN TENGAH,,Indonesia,,,,-0.86794,114.9346606,https://maps.google.com/?cid=0x0:0xb3a776226c83abbc,
perumahan,perumahan,Kalimantan Tengah 73814,"Kabupaten Barito Utara, Kalimantan Tengah","Kabupaten Barito Utara, Kalimantan Tengah",KALIMANTAN TENGAH,,Indonesia,,,,-0.8914468,114.8092691,https://maps.google.com/?cid=0x0:0xb5548f39346751af,
perumahan,Komplek perumahan,muara teweh,"4R3R+9P, Pendreh, Kec. Teweh Tengah, Kabupaten Barito Utara, Kalimantan Tengah 73814","Pendreh, Kec. Teweh Tengah, Kabupaten Barito Utara",KALIMANTAN TENGAH,73814.0,Indonesia,,,,-0.8966148,114.8417763,https://maps.google.com/?cid=0x0:0x2266ba91cf4f2802,
perumahan,Komplek perumahan,Perumahan Grand Delta Regency,"Jl. Margo Rukun, Melayu, Kec. Teweh Tengah, Kabupaten Barito Utara, Kalimantan Tengah 73814","Melayu, Kec. Teweh Tengah, Kabupaten Barito Utara",KALIMANTAN TENGAH,73814.0,Indonesia,85732421505.0,,,-0.9293091,114.88959,https://maps.google.com/?cid=0x0:0x4d284846beb9aee1,
perumahan,Komplek perumahan,Muara teweh barito utara,"2VPV+F2F, Jl. Langsat, RT.06/RW.00, Lanjas, Kec. Teweh Tengah, Kabupaten Barito Utara, Kalimantan Tengah 73814","Jl. Langsat, RT.06/RW.00, Lanjas, Kec. Teweh Tengah, Kabupaten Barito Utara",KALIMANTAN TENGAH,73814.0,Indonesia,,,,-0.9638154,114.8925435,https://maps.google.com/?cid=0x0:0xf9c36f243eb0b899,
perumahan,Komplek perumahan,Rumah saya di muara Teweh,"3V5X+JQ, Jl. Ronggolawe No.1, Melayu, Kec. Teweh Tengah, Kabupaten Barito Utara, Kalimantan Tengah 73814","Jl. Ronggolawe No.1, Melayu, Kec. Teweh Tengah, Kabupaten Barito Utara",KALIMANTAN TENGAH,73814.0,Indonesia,,,,-0.9408186,114.8992909,https://maps.google.com/?cid=0x0:0x872b06cba34687af,
perumahan,Komplek perumahan,GEOSERVICES MUARA TEWEH,"2VQP+5X6, Lanjas, Kec. Teweh Tengah, Kabupaten Barito Utara, Kalimantan Tengah 73814","Lanjas, Kec. Teweh Tengah, Kabupaten Barito Utara",KALIMANTAN TENGAH,73814.0,Indonesia,,,,-0.9620793,114.8873927,https://maps.google.com/?cid=0x0:0x7f9add140fae4fe5,
perumahan,Komplek perumahan,Perumahan,"XRVC+6J, Lemo II, Kec. Teweh Tengah, Kabupaten Barito Utara, Kalimantan Tengah 73814","Lemo II, Kec. Teweh Tengah, Kabupaten Barito Utara",KALIMANTAN TENGAH,73814.0,Indonesia,,,,-1.006572,114.821169,https://maps.google.com/?cid=0x0:0xebd5bc5b1a989439,
perumahan,Komplek perumahan,Rumah Ben,"3V5W+24W, Jl. Bandara Lama, Melayu, Kec. Teweh Tengah, Kabupaten Barito Utara, Kalimantan Tengah 73814","Jl. Bandara Lama, Melayu, Kec. Teweh Tengah, Kabupaten Barito Utara",KALIMANTAN TENGAH,73814.0,Indonesia,,,,-0.9423958,114.8953322,https://maps.google.com/?cid=0x0:0x82b60fd553e36191,
perumahan,Gedung Apartemen,Rumah dhafir,"3W44+Q5X, Jl. Pelajar, Melayu, Kec. Teweh Tengah, Kabupaten Barito Utara, Kalimantan Tengah 73814","Jl. Pelajar, Melayu, Kec. Teweh Tengah, Kabupaten Barito Utara",KALIMANTAN TENGAH,73814.0,Indonesia,,,,-0.9430077,114.9054771,https://maps.google.com/?cid=0x0:0xd2f9eb22da06311c,
perumahan,perumahan,Rumah Memet,"2VQR+3V8, Jl. Langsat, Lanjas, Kec. Teweh Tengah, Kabupaten Barito Utara, Kalimantan Tengah 73814","Jl. Langsat, Lanjas, Kec. Teweh Tengah, Kabupaten Barito Utara",KALIMANTAN TENGAH,73814.0,Indonesia,,,,-0.9625583,114.8921368,https://maps.google.com/?cid=0x0:0xd9053f6400fa6657,
perumahan,Komplek perumahan,Rumah UfiSyifa,"Jl. Persemaian IV No.2, Lanjas, Kec. Teweh Tengah, Kabupaten Barito Utara, Kalimantan Tengah 73814","Lanjas, Kec. Teweh Tengah, Kabupaten Barito Utara",KALIMANTAN TENGAH,73814.0,Indonesia,,,,-0.9371368,114.8843279,https://maps.google.com/?cid=0x0:0x1f84393fefe4e487,
perumahan,Komplek perumahan,Rumah Daniya,"2WW2+H9 Julian_nails, Melayu, Kec. Teweh Tengah, Kabupaten Barito Utara, Kalimantan Tengah 73814","Melayu, Kec. Teweh Tengah, Kabupaten Barito Utara",KALIMANTAN TENGAH,73814.0,Indonesia,,,,-0.9541457,114.9008637,https://maps.google.com/?cid=0x0:0x98b073ab77a20078,
perumahan,Komplek perumahan,Esrom,"3V7X+5GG, Melayu, Kec. Teweh Tengah, Kabupaten Barito Utara, Kalimantan Tengah 73814","Melayu, Kec. Teweh Tengah, Kabupaten Barito Utara",KALIMANTAN TENGAH,73814.0,Indonesia,,,,-0.9370604,114.8988125,https://maps.google.com/?cid=0x0:0x20da730677e4e53b,
perumahan,Komplek perumahan,Rumah Rizvan,"3V4V+CM9, Lanjas, Kec. Teweh Tengah, Kabupaten Barito Utara, Kalimantan Tengah 73814","Lanjas, Kec. Teweh Tengah, Kabupaten Barito Utara",KALIMANTAN TENGAH,73814.0,Indonesia,,,,-0.9439584,114.8942246,https://maps.google.com/?cid=0x0:0xcc19d644f748e373,
perumahan,Komplek perumahan,Zaindut,"Perumahan lapas No.34, Lanjas, Kec. Teweh Tengah, Kabupaten Barito Utara, Kalimantan Tengah 73814","Lanjas, Kec. Teweh Tengah, Kabupaten Barito Utara",KALIMANTAN TENGAH,73814.0,Indonesia,,,,-0.9500985,114.8926496,https://maps.google.com/?cid=0x0:0xb21b8a5376b5a355,
perumahan,Komplek perumahan,Rumah Radith - Mulyadi Effendi,"2VWR+Q5R, Lanjas, Kec. Teweh Tengah, Kabupaten Barito Utara, Kalimantan Tengah 73814","Lanjas, Kec. Teweh Tengah, Kabupaten Barito Utara",KALIMANTAN TENGAH,73814.0,Indonesia,,,,-0.9530049,114.890388,https://maps.google.com/?cid=0x0:0xc30a0171a184dda,
perumahan,Komplek perumahan,Muslih,"3V3R+WF9, Jl. Putra Sabui I, Lanjas, Kec. Teweh Tengah, Kabupaten Barito Utara, Kalimantan Tengah 73814","Jl. Putra Sabui I, Lanjas, Kec. Teweh Tengah, Kabupaten Barito Utara",KALIMANTAN TENGAH,73814.0,Indonesia,,,,-0.9452,114.8912623,https://maps.google.com/?cid=0x0:0x7e799ec70554e080,
perumahan,Gedung Apartemen,RUMAH FARRIS,"2VQP+FWP, Lanjas, Kec. Teweh Tengah, Kabupaten Barito Utara, Kalimantan Tengah 73814","Lanjas, Kec. Teweh Tengah, Kabupaten Barito Utara",KALIMANTAN TENGAH,73814.0,Indonesia,,,,-0.9613728,114.8872954,https://maps.google.com/?cid=0x0:0x7de69fa3e88b0532,
perumahan,Pembangunan Perumahan,Rumah Mantri Dayat,"Jl. Permata Hijau 2 No.01, RT.018/RW.005, Lanjas, Kec. Teweh Tengah, Kabupaten Barito Utara, Kalimantan Tengah 73814","RT.018/RW.005, Lanjas, Kec. Teweh Tengah, Kabupaten Barito Utara",KALIMANTAN TENGAH,73814.0,Indonesia,85280300069.0,,,-0.9371844,114.8881464,https://maps.google.com/?cid=0x0:0x611b5f68bdde728c,
perumahan,Komplek perumahan,Rumah Hamsi,"3V7J+Q6R, Jl. Rapen, Lanjas, Kec. Teweh Tengah, Kabupaten Barito Utara, Kalimantan Tengah 73814","Jl. Rapen, Lanjas, Kec. Teweh Tengah, Kabupaten Barito Utara",KALIMANTAN TENGAH,73814.0,Indonesia,,,,-0.9356306,114.8810449,https://maps.google.com/?cid=0x0:0xa8785f3a4318797f,
perumahan,Komplek perumahan,Rumah Randy  Reva,"3V6X+XHP, Melayu, Kec. Teweh Tengah, Kabupaten Barito Utara, Kalimantan Tengah 73814","Melayu, Kec. Teweh Tengah, Kabupaten Barito Utara",KALIMANTAN TENGAH,73814.0,Indonesia,,,,-0.9375361,114.8989761,https://maps.google.com/?cid=0x0:0xaaf694c15a460b7d,
perumahan,Komplek perumahan,Komplek Peruumahan Permata Anisa,"3V9P+RR2, Lanjas, Kec. Teweh Tengah, Kabupaten Barito Utara, Kalimantan Tengah 73814","Lanjas, Kec. Teweh Tengah, Kabupaten Barito Utara",KALIMANTAN TENGAH,73814.0,Indonesia,,,,-0.9304797,114.8870078,https://maps.google.com/?cid=0x0:0xf8d9c98a37f8cd50,
perumahan,perumahan,Kalimantan Tengah 73881,"Kabupaten Barito Utara, Kalimantan Tengah","Kabupaten Barito Utara, Kalimantan Tengah",KALIMANTAN TENGAH,,Indonesia,,,,-1.0257651,115.3785719,https://maps.google.com/?cid=0x0:0x8bd4f30ba12eadec,
perumahan,Perhimpunan Pengembang Perumahan,GRAHA BIANGAN,"4FRM+C2, Benangin I, Kec. Teweh Tim., Kabupaten Barito Utara, Kalimantan Tengah 73881","Benangin I, Kec. Teweh Tim., Kabupaten Barito Utara",KALIMANTAN TENGAH,73881.0,Indonesia,,,,-0.8589875,115.4825769,https://maps.google.com/?cid=0x0:0x9410121b083e45d,
perumahan,Komplek perumahan,Rumah Narius,"298G+898, Benangin I, Kec. Teweh Tim., Kabupaten Barito Utara, Kalimantan Tengah 73881","Benangin I, Kec. Teweh Tim., Kabupaten Barito Utara",KALIMANTAN TENGAH,73881.0,Indonesia,,,,-0.9842143,115.3759493,https://maps.google.com/?cid=0x0:0x22da118f6bb1cb5f,
perumahan,Kantor Pemerintah,DESA SAMPIRANG II,"Sampirang I, Kec. Teweh Tim., Kabupaten Barito Utara, Kalimantan Tengah 73881","Kec. Teweh Tim., Kabupaten Barito Utara",KALIMANTAN TENGAH,73881.0,Indonesia,,,,-1.0692077,115.3999207,https://maps.google.com/?cid=0x0:0xb7ffc9da6041675e,
perumahan,Komplek perumahan,Ucu rosidi,"W7PH+MHP, Jamut, Kec. Teweh Tim., Kabupaten Barito Utara, Kalimantan Tengah 73881","Jamut, Kec. Teweh Tim., Kabupaten Barito Utara",KALIMANTAN TENGAH,73881.0,Indonesia,,,,-1.0632874,115.2789644,https://maps.google.com/?cid=0x0:0xe2ae1c3d5dcc63f1,
perumahan,Komplek perumahan,IROM,"W7PG+Q8, Jamut, Kec. Teweh Tim., Kabupaten Barito Utara, Kalimantan Tengah","Kabupaten Barito Utara, Kalimantan Tengah",KALIMANTAN TENGAH,,Indonesia,,,,-1.0630309,115.2758617,https://maps.google.com/?cid=0x0:0xbf0023e610bf573b,
perumahan,Komplek perumahan,Rumah acil sitah,"2929+Q9C, Benangin 5, Kec. Teweh Tim., Kabupaten Barito Utara, Kalimantan Tengah","Kabupaten Barito Utara, Kalimantan Tengah",KALIMANTAN TENGAH,,Indonesia,,,,-0.9980622,115.3683882,https://maps.google.com/?cid=0x0:0x5a9cdd764db620c2,
perumahan,Perhimpunan Pengembang Perumahan,tatto,"2929+PVC, Benangin I, Kec. Teweh Tim., Kabupaten Barito Utara, Kalimantan Tengah 73881","Benangin I, Kec. Teweh Tim., Kabupaten Barito Utara",KALIMANTAN TENGAH,73881.0,Indonesia,,,,-0.9981916,115.3696498,https://maps.google.com/?cid=0x0:0xb467650863a5b5fe,
perumahan,Kabin perkemahan,mess RENTALINDO BEK,"4FXV+989, Benangin I, Kec. Teweh Tim., Kabupaten Barito Utara, Kalimantan Tengah 73881","Benangin I, Kec. Teweh Tim., Kabupaten Barito Utara",KALIMANTAN TENGAH,73881.0,Indonesia,,,,-0.8515811,115.4933671,https://maps.google.com/?cid=0x0:0xc12d44a716a55534,
perumahan,Pembangunan Perumahan,Lisnawati,"V9J5+R6, Mampuak I, Kec. Teweh Tim., Kabupaten Barito Utara, Kalimantan Tengah","Kabupaten Barito Utara, Kalimantan Tengah",KALIMANTAN TENGAH,,Indonesia,,,,-1.117907,115.3580687,https://maps.google.com/?cid=0x0:0x7053d894b10dde83,
perumahan,Pembangunan Perumahan,Datan CT,"WC4J+4H8, Sampirang II, Kec. Teweh Tim., Kabupaten Barito Utara, Kalimantan Tengah","Kabupaten Barito Utara, Kalimantan Tengah",KALIMANTAN TENGAH,,Indonesia,,,,-1.0947122,115.4314526,https://maps.google.com/?cid=0x0:0x7c24e64e62d17c68,
perumahan,Perhimpunan Pengembang Perumahan,Restona Rpn,"V8MH+6XW, Mampuak II, Kec. Teweh Tim., Kabupaten Barito Utara, Kalimantan Tengah","Kabupaten Barito Utara, Kalimantan Tengah",KALIMANTAN TENGAH,,Indonesia,82252797409.0,,,-1.1168903,115.3299612,https://maps.google.com/?cid=0x0:0xed2938c00a785f47,
perumahan,Komplek perumahan,Muara tewrh,"V9J2+V4C, Nopelitalus, Kec. Teweh Tim., Kabupaten Barito Utara, Kalimantan Tengah","Kabupaten Barito Utara, Kalimantan Tengah",KALIMANTAN TENGAH,,Indonesia,,,,-1.1178225,115.3502745,https://maps.google.com/?cid=0x0:0xb29662289dc82ffe,
perumahan,Produsen,Sei liju,"W8J9+4PP, Sei Liju, Kec. Teweh Tim., Kabupaten Barito Utara, Kalimantan Tengah 73881","Sei Liju, Kec. Teweh Tim., Kabupaten Barito Utara",KALIMANTAN TENGAH,73881.0,Indonesia,,,,-1.069662,115.319317,https://maps.google.com/?cid=0x0:0x55b60314abfe80a4,
perumahan,Komplek perumahan,Toko Zaki/ Kursani,"V9J3+7PP, Mampuak I, Kec. Teweh Tim., Kabupaten Barito Utara, Kalimantan Tengah 73881","Mampuak I, Kec. Teweh Tim., Kabupaten Barito Utara",KALIMANTAN TENGAH,73881.0,Indonesia,,,,-1.1192897,115.354322,https://maps.google.com/?cid=0x0:0x95b6ebc1c5e3d164,
perumahan,perumahan,Rumah herman,"3998+QM5, Benangin 5, Kec. Teweh Tim., Kabupaten Barito Utara, Kalimantan Tengah 73881","Benangin 5, Kec. Teweh Tim., Kabupaten Barito Utara",KALIMANTAN TENGAH,73881.0,Indonesia,,,,-0.9306125,115.3667218,https://maps.google.com/?cid=0x0:0x17d2b5d2507567e8,
perumahan,Perhimpunan Pengembang Perumahan,Rumah dinas nakes,"V9J4+75R, Mampuak I, Kec. Teweh Tim., Kabupaten Barito Utara, Kalimantan Tengah 73881","Mampuak I, Kec. Teweh Tim., Kabupaten Barito Utara",KALIMANTAN TENGAH,73881.0,Indonesia,,,,-1.1193216,115.3559282,https://maps.google.com/?cid=0x0:0x43db44b64d01dd85,
perumahan,perumahan,Mess Binuang PT Bharinto Ekatama,"4FP3+Q54, Benangin 5, Kec. Teweh Tim., Kabupaten Barito Utara, Kalimantan Tengah 73881","Benangin 5, Kec. Teweh Tim., Kabupaten Barito Utara",KALIMANTAN TENGAH,73881.0,Indonesia,,,,-0.8631015,115.4529515,https://maps.google.com/?cid=0x0:0xaf70c36370eacefb,
perumahan,Komplek perumahan,Atak didin,"W82C+52, Mampuak II, Kec. Teweh Tim., Kabupaten Barito Utara, Kalimantan Tengah","Kabupaten Barito Utara, Kalimantan Tengah",KALIMANTAN TENGAH,,Indonesia,,,,-1.0995959,115.3200075,https://maps.google.com/?cid=0x0:0xd7055a38f9428234,
perumahan,Taman,Simpang Lempenang,"3CRX+G9, Benangin I, Kec. Teweh Tim., Kabupaten Barito Utara, Kalimantan Tengah","Kabupaten Barito Utara, Kalimantan Tengah",KALIMANTAN TENGAH,,Indonesia,,,,-0.9087047,115.4484826,https://maps.google.com/?cid=0x0:0x807d396449dd521a,
