Category,Real Category,Business Name,Address,City,State,Postal Code,Country,Phone,Email,Website,Latitude,Longitude,Map Link,Details Link
hotel,hotel,Kalimantan Tengah 74173,Kalimantan Tengah,Kalimantan Tengah,KALIMANTAN TENGAH,,Indonesia,,,,-2.1830119,111.2368084,https://maps.google.com/?cid=0x0:0xfb45b5038030e34d,
hotel,Rumah wisata,Rumah haji ainul hanan,"P54V+R3, Bangun Jaya, Kec. Balai Riam, Kabupaten Sukamara, Kalimantan Tengah","Kabupaten Sukamara, Kalimantan Tengah",KALIMANTAN TENGAH,,Indonesia,,,,-2.292928,111.192738,https://maps.google.com/?cid=0x0:0x3bf0716ffd8a8772,
hotel,Hotel,M.iwan sobirin,"M56M+CQC, Sekuningan Baru, Kec. Balai Riam, Kabupaten Sukamara, Kalimantan Tengah 74172","Sekuningan Baru, Kec. Balai Riam, Kabupaten Sukamara",KALIMANTAN TENGAH,74172.0,Indonesia,,,,-2.33895,111.1843917,https://maps.google.com/?cid=0x0:0x1976e962f2553195,
hotel,hotel,Hotel Aufa,"G2XG+QXW, Manis Mata, Kec. Manis Mata, Kabupaten Ketapang, Kalimantan Barat 78864","Manis Mata, Kec. Manis Mata, Kabupaten Ketapang",KALIMANTAN TENGAH,78864.0,Indonesia,82220943336.0,,,-2.4505141,111.0274669,https://maps.google.com/?cid=0x0:0x51b793c607602620,
hotel,hotel,Hotel Mahkota Budi,"Jl. Setia Yakin No.RT 07, Mendawai, Kec. Sukamara, Kabupaten Sukamara, Kalimantan Tengah 74172","Mendawai, Kec. Sukamara, Kabupaten Sukamara",KALIMANTAN TENGAH,74172.0,Indonesia,81228378378.0,,,-2.7083672,111.1701359,https://maps.google.com/?cid=0x0:0xdb52d8cfe2b77fc5,
hotel,hotel,Hotel Arin,"75M9+M2J, Mendawai, Kec. Sukamara, Kabupaten Sukamara, Kalimantan Tengah 74172","Mendawai, Kec. Sukamara, Kabupaten Sukamara",KALIMANTAN TENGAH,74172.0,Indonesia,,,,-2.7157897,111.1675128,https://maps.google.com/?cid=0x0:0x512d165187cb856d,
hotel,hotel,Hotel Bahagia,"8JFG+2Q5, Jl. Pangeran Antasari, Mendawai, Kec. Arut Sel., Kabupaten Kotawaringin Barat, Kalimantan Tengah 74112","Jl. Pangeran Antasari, Mendawai, Kec. Arut Sel., Kabupaten Kotawaringin Barat",KALIMANTAN TENGAH,74112.0,Indonesia,53221226.0,,,-2.6774926,111.6269862,https://maps.google.com/?cid=0x0:0xef3d1785071ed024,
hotel,hotel,Kec. Jelai,"Kabupaten Sukamara, Kalimantan Tengah","Kabupaten Sukamara, Kalimantan Tengah",KALIMANTAN TENGAH,,Indonesia,,,,-2.9859918,110.7376759,https://maps.google.com/?cid=0x0:0x877a89d41ac3d0a6,
hotel,hotel,Hotel Mahkota Budi,"Jl. Setia Yakin No.RT 07, Mendawai, Kec. Sukamara, Kabupaten Sukamara, Kalimantan Tengah 74172","Mendawai, Kec. Sukamara, Kabupaten Sukamara",KALIMANTAN TENGAH,74172.0,Indonesia,81228378378.0,,,-2.7083672,111.1701359,https://maps.google.com/?cid=0x0:0xdb52d8cfe2b77fc5,
hotel,hotel,Hotel YUS,"Jalan Kalikasa, Parenggean, Kec. Parenggean, Kabupaten Kotawaringin Timur, Kalimantan Tengah","Kabupaten Kotawaringin Timur, Kalimantan Tengah",KALIMANTAN TENGAH,,Indonesia,82324360707.0,,,-2.0154695,112.7826059,https://maps.google.com/?cid=0x0:0x3d6ad29ab9a2eb0d,
hotel,Otoritas Pelabuhan,Kuala jelai penyebrangan ke blok O,"2PHV+4WW, Kuala Jelai, Kec. Jelai, Kabupaten Sukamara, Kalimantan Tengah 74171","Kuala Jelai, Kec. Jelai, Kabupaten Sukamara",KALIMANTAN TENGAH,74171.0,Indonesia,,,,-2.9721282,110.7448265,https://maps.google.com/?cid=0x0:0xdc73cb2688ccffb0,
hotel,Perusahaan Operasi Pelabuhan,Pelabuhan Kuala Jelai,"2PCR+VGX, Kuala Jelai, Kec. Jelai, Kabupaten Sukamara, Kalimantan Tengah 74171","Kuala Jelai, Kec. Jelai, Kabupaten Sukamara",KALIMANTAN TENGAH,74171.0,Indonesia,,,,-2.9779595,110.741296,https://maps.google.com/?cid=0x0:0xe4f99f0316a1ff45,
hotel,hotel,Hotel Aston Priority Simatupang  Conference Center,"Jl. Let. Jend Jl. TB Simatupang No.Kav. 9, RT.2/RW.2, Kebagusan, Ps. Minggu, Kota Jakarta Selatan, Daerah Khusus Ibukota Jakarta 12520","RT.2/RW.2, Kebagusan, Ps. Minggu, Kota Jakarta Selatan",KALIMANTAN TENGAH,12520.0,Indonesia,2178838777.0,,,-6.3013214,106.8345629,https://maps.google.com/?cid=0x0:0x24773cf0d58b863b,
hotel,hotel,,,,KALIMANTAN TENGAH,,Indonesia,,,,,,https://maps.google.com/?cid=0x0:0xbc75ff41a526e2e%7C/g/11h_f6hmbq%7Cen-ID,
hotel,hotel,Hotel Kartika One,"Jl. Raya Lenteng Agung No.18, RT.10/RW.2, Srengseng Sawah, Kec. Jagakarsa, Kota Jakarta Selatan, Daerah Khusus Ibukota Jakarta 12630","RT.10/RW.2, Srengseng Sawah, Kec. Jagakarsa, Kota Jakarta Selatan",KALIMANTAN TENGAH,12630.0,Indonesia,2172736888.0,,,-6.3446323,106.8336946,https://maps.google.com/?cid=0x0:0xbc75ff41a526e2e,
hotel,hotel,Hotel Fiducia,"Jl. Raya Pasar Minggu No.RT.14 KM 18 No. 10, RT.14/RW.5, Pejaten Timur, Ps. Minggu, Kota Jakarta Selatan, Daerah Khusus Ibukota Jakarta 12510","RT.14/RW.5, Pejaten Timur, Ps. Minggu, Kota Jakarta Selatan",KALIMANTAN TENGAH,12510.0,Indonesia,2129707601.0,,,-6.269122,106.846429,https://maps.google.com/?cid=0x0:0x5dae993032a1ba03,
hotel,hotel,,,,KALIMANTAN TENGAH,,Indonesia,,,,,,https://maps.google.com/?cid=0x0:0x5dae993032a1ba03%7C/g/11xfvx9yl%7Cen-ID,
hotel,hotel,Oakwood Hotel  Apartments Taman Mini Jakarta,"Jl. Taman Mini Indonesia Indah Pintu 1 Tmii, Ceger, Kec. Cipayung, Kota Jakarta Timur, Daerah Khusus Ibukota Jakarta 13820","Ceger, Kec. Cipayung, Kota Jakarta Timur",KALIMANTAN TENGAH,13820.0,Indonesia,2129378500.0,,,-6.3030836,106.8863433,https://maps.google.com/?cid=0x0:0x607a85e9e151678c,
hotel,hotel,,,,KALIMANTAN TENGAH,,Indonesia,,,,,,https://maps.google.com/?cid=0x0:0x607a85e9e151678c%7C/g/1pp2vhsmr%7Cen-ID,
hotel,hotel,ibis Styles Jakarta Simatupang,"Jl. Cilandak Tengah No.23, Cilandak Bar., Jakarta, Kota Jakarta Selatan, Daerah Khusus Ibukota Jakarta 12430","Cilandak Bar., Jakarta, Kota Jakarta Selatan",KALIMANTAN TENGAH,12430.0,Indonesia,2127829090.0,,,-6.2916606,106.8017005,https://maps.google.com/?cid=0x0:0xdbac1ab6041ee8d5,
hotel,hotel,,,,KALIMANTAN TENGAH,,Indonesia,,,,,,https://maps.google.com/?cid=0x0:0xdbac1ab6041ee8d5%7C/g/11fb0rgwwx%7Cen-ID,
hotel,hotel,Park 5 Simatupang,"Jl. Intan RSPP Utara No.C-5, Cilandak Bar., Kec. Cilandak, Kota Jakarta Selatan, Daerah Khusus Ibukota Jakarta 12430","Cilandak Bar., Kec. Cilandak, Kota Jakarta Selatan",KALIMANTAN TENGAH,12430.0,Indonesia,2122702555.0,,,-6.2962023,106.7992485,https://maps.google.com/?cid=0x0:0xd89de4436b57f827,
hotel,hotel,,,,KALIMANTAN TENGAH,,Indonesia,,,,,,https://maps.google.com/?cid=0x0:0xd89de4436b57f827%7C/g/11cjvtwvrh%7Cen-ID,
hotel,hotel,Ra Suites Simatupang,"Jl. TB Simatupang No.30, Cilandak Bar., Kec. Cilandak, Kota Jakarta Selatan, Daerah Khusus Ibukota Jakarta 12430","Cilandak Bar., Kec. Cilandak, Kota Jakarta Selatan",KALIMANTAN TENGAH,12430.0,Indonesia,2122760345.0,,,-6.2916308,106.7957602,https://maps.google.com/?cid=0x0:0x71a6a4ed514697e1,
hotel,hotel,,,,KALIMANTAN TENGAH,,Indonesia,,,,,,https://maps.google.com/?cid=0x0:0x71a6a4ed514697e1%7C/g/11fnvyg4v6%7Cen-ID,
hotel,hotel,Titanium Express Homtel,"2, Jl. Raya Jakarta-Bogor No.21, RT.1/RW.4, Pekayon, Kec. Ps. Rebo, Kota Jakarta Timur, Daerah Khusus Ibukota Jakarta 13710","Jl. Raya Jakarta-Bogor No.21, RT.1/RW.4, Pekayon, Kec. Ps. Rebo, Kota Jakarta Timur",KALIMANTAN TENGAH,13710.0,Indonesia,87785666676.0,,,-6.3409022,106.8695418,https://maps.google.com/?cid=0x0:0x1e3484ac03ddea68,
hotel,hotel,,,,KALIMANTAN TENGAH,,Indonesia,,,,,,https://maps.google.com/?cid=0x0:0x1e3484ac03ddea68%7C/g/11g86_ssx4%7Cen-ID,
hotel,hotel,Ra Premiere Simatupang,"Jl. Intan No.25 1, RT.1/RW.2, Cilandak Bar., Kec. Cilandak, Kota Jakarta Selatan, Daerah Khusus Ibukota Jakarta 12430","RT.1/RW.2, Cilandak Bar., Kec. Cilandak, Kota Jakarta Selatan",KALIMANTAN TENGAH,12430.0,Indonesia,2127653080.0,,,-6.2936876,106.8022006,https://maps.google.com/?cid=0x0:0xdef0a9a868de8db,
hotel,hotel,,,,KALIMANTAN TENGAH,,Indonesia,,,,,,https://maps.google.com/?cid=0x0:0xdef0a9a868de8db%7C/g/11bttb51j0%7Cen-ID,
hotel,hotel,The London Living Kebagusan City Aparthotel,"Apartemen Kebagusan City Tower C KC 06 Jalan Baung, Jl. Raya Tj. Barat Jl. TB Simatupang, RT.1/RW.3, Ps. Minggu, Kota Jakarta Selatan, Daerah Khusus Ibukota Jakarta 12520","Jl. Raya Tj. Barat Jl. TB Simatupang, RT.1/RW.3, Ps. Minggu, Kota Jakarta Selatan",KALIMANTAN TENGAH,12520.0,Indonesia,8158287092.0,,,-6.3060172,106.8359636,https://maps.google.com/?cid=0x0:0x26f385af55ebfef0,
hotel,hotel,,,,KALIMANTAN TENGAH,,Indonesia,,,,,,https://maps.google.com/?cid=0x0:0x26f385af55ebfef0%7C/g/11h64v9956%7Cen-ID,
hotel,hotel,,,,KALIMANTAN TENGAH,,Indonesia,,,,,,https://maps.google.com/?cid=0x0:0x82dc20c42f6f7674%7C/g/11c6lw6d2c%7Cen-ID,
hotel,hotel,Urbanest Inn House TB Simatupang,"Jl. Villa Jatipadang No.52, Jati Padang, Ps. Minggu, Kota Jakarta Selatan, Daerah Khusus Ibukota Jakarta 12540","Jati Padang, Ps. Minggu, Kota Jakarta Selatan",KALIMANTAN TENGAH,12540.0,Indonesia,2122001964.0,,,-6.2970137,106.8321772,https://maps.google.com/?cid=0x0:0x82dc20c42f6f7674,
hotel,hotel,Sahati Hotel,"Jl. Taman Margasatwa Raya No.45, RT.1/RW.1, Ragunan, Ps. Minggu, Kota Jakarta Selatan, Daerah Khusus Ibukota Jakarta 12550","RT.1/RW.1, Ragunan, Ps. Minggu, Kota Jakarta Selatan",KALIMANTAN TENGAH,12550.0,Indonesia,217807653.0,,,-6.2915272,106.822898,https://maps.google.com/?cid=0x0:0x2064fa46e9dfe76,
hotel,hotel,,,,KALIMANTAN TENGAH,,Indonesia,,,,,,https://maps.google.com/?cid=0x0:0x2064fa46e9dfe76%7C/g/1ptwq9n6b%7Cen-ID,
hotel,hotel,Aloft South Jakarta,"Jl. TB Simatupang No.Kavling 8, RW.9, Cilandak Tim., Ps. Minggu, Kota Jakarta Selatan, Daerah Khusus Ibukota Jakarta 12560","RW.9, Cilandak Tim., Ps. Minggu, Kota Jakarta Selatan",KALIMANTAN TENGAH,12560.0,Indonesia,2139701888.0,,,-6.2917642,106.8162668,https://maps.google.com/?cid=0x0:0x25388c196a671a4a,
hotel,hotel,Kalimantan Tengah 74171,"Kabupaten Sukamara, Kalimantan Tengah","Kabupaten Sukamara, Kalimantan Tengah",KALIMANTAN TENGAH,,Indonesia,,,,-2.9288777,111.0460407,https://maps.google.com/?cid=0x0:0xdaaca932d5c1b031,
hotel,hotel,Hotel Mahkota Budi,"Jl. Setia Yakin No.RT 07, Mendawai, Kec. Sukamara, Kabupaten Sukamara, Kalimantan Tengah 74172","Mendawai, Kec. Sukamara, Kabupaten Sukamara",KALIMANTAN TENGAH,74172.0,Indonesia,81228378378.0,,,-2.7083672,111.1701359,https://maps.google.com/?cid=0x0:0xdb52d8cfe2b77fc5,
hotel,hotel,Hotel Arin,"75M9+M2J, Mendawai, Kec. Sukamara, Kabupaten Sukamara, Kalimantan Tengah 74172","Mendawai, Kec. Sukamara, Kabupaten Sukamara",KALIMANTAN TENGAH,74172.0,Indonesia,,,,-2.7157897,111.1675128,https://maps.google.com/?cid=0x0:0x512d165187cb856d,
hotel,hotel,Kalimantan Tengah 74173,Kalimantan Tengah,Kalimantan Tengah,KALIMANTAN TENGAH,,Indonesia,,,,-2.1830119,111.2368084,https://maps.google.com/?cid=0x0:0xfb45b5038030e34d,
hotel,Rumah wisata,Khofifah,"P5RM+8QC, Natai Kondang, Kec. Permata Kecubung, Kabupaten Sukamara, Kalimantan Tengah","Kabupaten Sukamara, Kalimantan Tengah",KALIMANTAN TENGAH,,Indonesia,,,,-2.2591877,111.1844027,https://maps.google.com/?cid=0x0:0xdfd283f40a3db0b0,
hotel,hotel,,,,KALIMANTAN TENGAH,,Indonesia,,,,,,https://maps.google.com/?cid=0x0:0x68616a53d30d305%7C/g/12hldxk9j%7Cen-ID,
hotel,hotel,Grand Kecubung Hotel,"Jl. Domba No.1, Mendawai, Kec. Arut Sel., Kabupaten Kotawaringin Barat, Kalimantan Tengah 74111","Mendawai, Kec. Arut Sel., Kabupaten Kotawaringin Barat",KALIMANTAN TENGAH,74111.0,Indonesia,53221211.0,,,-2.6826532,111.6284893,https://maps.google.com/?cid=0x0:0x68616a53d30d305,
hotel,hotel,Hotel Aufa,"G2XG+QXW, Manis Mata, Kec. Manis Mata, Kabupaten Ketapang, Kalimantan Barat 78864","Manis Mata, Kec. Manis Mata, Kabupaten Ketapang",KALIMANTAN TENGAH,78864.0,Indonesia,82220943336.0,,,-2.4505141,111.0274669,https://maps.google.com/?cid=0x0:0x51b793c607602620,
hotel,hotel,Kalimantan Tengah 74172,"Kabupaten Sukamara, Kalimantan Tengah","Kabupaten Sukamara, Kalimantan Tengah",KALIMANTAN TENGAH,,Indonesia,,,,-2.4783286,111.2368084,https://maps.google.com/?cid=0x0:0xd20d489d27a950d7,
hotel,hotel,Mercure Hotel Pangkalan Bun,"Jl. H. Udan Said, Baru, Kec. Arut Sel., Kabupaten Kotawaringin Barat, Kalimantan Tengah 74113","Baru, Kec. Arut Sel., Kabupaten Kotawaringin Barat",KALIMANTAN TENGAH,74113.0,Indonesia,5326622222.0,,,-2.6731068,111.6393894,https://maps.google.com/?cid=0x0:0x471a12f6ad8cd6fb,
hotel,hotel,Hotel Mahkota Budi,"Jl. Setia Yakin No.RT 07, Mendawai, Kec. Sukamara, Kabupaten Sukamara, Kalimantan Tengah 74172","Mendawai, Kec. Sukamara, Kabupaten Sukamara",KALIMANTAN TENGAH,74172.0,Indonesia,81228378378.0,,,-2.7083672,111.1701359,https://maps.google.com/?cid=0x0:0xdb52d8cfe2b77fc5,
hotel,hotel,Hotel Aufa,"G2XG+QXW, Manis Mata, Kec. Manis Mata, Kabupaten Ketapang, Kalimantan Barat 78864","Manis Mata, Kec. Manis Mata, Kabupaten Ketapang",KALIMANTAN TENGAH,78864.0,Indonesia,82220943336.0,,,-2.4505141,111.0274669,https://maps.google.com/?cid=0x0:0x51b793c607602620,
hotel,hotel,MESS PEMKAB SUKAMARA,"Pahandut, Kec. Jekan Raya, Kota Palangka Raya, Kalimantan Tengah 74874","Kec. Jekan Raya, Kota Palangka Raya",KALIMANTAN TENGAH,74874.0,Indonesia,2129707601.0,,,-2.2070625,113.9390625,https://maps.google.com/?cid=0x0:0x862b192766446113,
hotel,hotel,Arsela Hotel Pangkalan Bun,"Jl. Iskandar No.15, Madurejo, Kec. Arut Sel., Kabupaten Kotawaringin Barat, Kalimantan Tengah 74112","Madurejo, Kec. Arut Sel., Kabupaten Kotawaringin Barat",KALIMANTAN TENGAH,74112.0,Indonesia,85322557700.0,,,-2.6924652,111.6374929,https://maps.google.com/?cid=0x0:0x9f27f5877230d091,
hotel,hotel,,,,KALIMANTAN TENGAH,,Indonesia,,,,,,https://maps.google.com/?cid=0x0:0x9f27f5877230d091%7C/g/1hf8qb5n9%7Cen-ID,
hotel,hotel,Andika Hotel,"Jl. Hasanudin No.20A, Mendawai, Kec. Arut Sel., Kabupaten Kotawaringin Barat, Kalimantan Tengah 74112","Mendawai, Kec. Arut Sel., Kabupaten Kotawaringin Barat",KALIMANTAN TENGAH,74112.0,Indonesia,82211318855.0,,,-2.6833961,111.6260669,https://maps.google.com/?cid=0x0:0x3d84b10853cfe51b,
restaurant,restaurant,Kalimantan Tengah 74173,Kalimantan Tengah,Kalimantan Tengah,KALIMANTAN TENGAH,,Indonesia,,,,-2.1830119,111.2368084,https://maps.google.com/?cid=0x0:0xfb45b5038030e34d,
restaurant,Sarapan,Rumah Makan Mas Pri,"Jl. Kyai Gede No.4, Bangun Jaya, Kec. Balai Riam, Kabupaten Sukamara, Kalimantan Tengah 74173","Bangun Jaya, Kec. Balai Riam, Kabupaten Sukamara",KALIMANTAN TENGAH,74173.0,Indonesia,85293357886.0,,,-2.3001703,111.1834035,https://maps.google.com/?cid=0x0:0x89c985f5fbf0e968,
restaurant,Restoran,WR. MBAK UUM,"Bundaran burung arah sp2, Bangun Jaya, Kec. Balai Riam, Kabupaten Sukamara, Kalimantan Tengah 74172","Bangun Jaya, Kec. Balai Riam, Kabupaten Sukamara",KALIMANTAN TENGAH,74172.0,Indonesia,81256685095.0,,,-2.3244113,111.184307,https://maps.google.com/?cid=0x0:0x87faf46679c717b3,
restaurant,Nasi,Rumah Makan Moro Eco,"P53M+G7G, Unnamed Road, Bangun Jaya, Kec. Balai Riam, Kabupaten Sukamara, Kalimantan Tengah 74173","Unnamed Road, Bangun Jaya, Kec. Balai Riam, Kabupaten Sukamara",KALIMANTAN TENGAH,74173.0,Indonesia,,,,-2.29618,111.1832033,https://maps.google.com/?cid=0x0:0x707ebca2f9af63e3,
restaurant,Restoran,Warung makan barokah,"M5XM+M8X, jl.Kyai gede, Bangun Jaya, Kec. Balai Riam, Kabupaten Sukamara, Kalimantan Tengah 74173","jl.Kyai gede, Bangun Jaya, Kec. Balai Riam, Kabupaten Sukamara",KALIMANTAN TENGAH,74173.0,Indonesia,85742867389.0,,,-2.3007513,111.1833482,https://maps.google.com/?cid=0x0:0xad26039324186991,
restaurant,Indonesia,RM BISMILA AREMA,"M5GM+4QW, Sekuningan Baru, Kec. Balai Riam, Kabupaten Sukamara, Kalimantan Tengah 74172","Sekuningan Baru, Kec. Balai Riam, Kabupaten Sukamara",KALIMANTAN TENGAH,74172.0,Indonesia,82148305211.0,,,-2.324635,111.184465,https://maps.google.com/?cid=0x0:0x77281c5fc5c49832,
restaurant,Restoran,RM. Dua Putra,"M594+37P, Balai Riam, Kec. Balai Riam, Kabupaten Sukamara, Kalimantan Tengah 74173","Balai Riam, Kec. Balai Riam, Kabupaten Sukamara",KALIMANTAN TENGAH,74173.0,Indonesia,85249022673.0,,,-2.3322753,111.1556899,https://maps.google.com/?cid=0x0:0xc4eb09adaa0e0497,
restaurant,Dapur Umum,Fried Chicken Sunda Pisan,"Desa bangun jaya sp 3, Kec. Balai Riam, Kabupaten Sukamara, Kalimantan Tengah 74173","Kec. Balai Riam, Kabupaten Sukamara",KALIMANTAN TENGAH,74173.0,Indonesia,82254269680.0,,,-2.3002081,111.183298,https://maps.google.com/?cid=0x0:0xf7473ccb3ce0d639,
restaurant,Prasmanan,Warung Makan SIDO MORO,"M584+V28, Balai Riam, Kec. Balai Riam, Kabupaten Sukamara, Kalimantan Tengah 74173","Balai Riam, Kec. Balai Riam, Kabupaten Sukamara",KALIMANTAN TENGAH,74173.0,Indonesia,81235006731.0,,,-2.3328221,111.1551521,https://maps.google.com/?cid=0x0:0x31b1ba17af8d76f9,
restaurant,Restoran,Rumah Makan Padang Minang Jaya,"RT.02/RW.01, Bangun Jaya, Kec. Balai Riam, Kabupaten Sukamara, Kalimantan Tengah 74173","Bangun Jaya, Kec. Balai Riam, Kabupaten Sukamara",KALIMANTAN TENGAH,74173.0,Indonesia,82273731104.0,,,-2.3022091,111.1830309,https://maps.google.com/?cid=0x0:0x4b8b3dfaf9335c7c,
restaurant,Restoran,Rumah makan Albino,"P53M+R8Q, Bangun Jaya, Kec. Balai Riam, Kabupaten Sukamara, Kalimantan Tengah 74173","Bangun Jaya, Kec. Balai Riam, Kabupaten Sukamara",KALIMANTAN TENGAH,74173.0,Indonesia,,,,-2.2954066,111.1833444,https://maps.google.com/?cid=0x0:0xe1ce2b19a4a555e1,
restaurant,Sate,Pakde Warung Nasgor Sp5,"Q4PJ+RRH, Sembikuan, Kec. Permata Kecubung, Kabupaten Sukamara, Kalimantan Tengah 74173","Sembikuan, Kec. Permata Kecubung, Kabupaten Sukamara",KALIMANTAN TENGAH,74173.0,Indonesia,82357749742.0,,,-2.212936,111.132102,https://maps.google.com/?cid=0x0:0x7cb27d101583ca71,
restaurant,Makanan Siap Saji,Seblak perasmanan Mn,"P53M+867, Bangun Jaya, Kec. Balai Riam, Kabupaten Sukamara, Kalimantan Tengah 74173","Bangun Jaya, Kec. Balai Riam, Kabupaten Sukamara",KALIMANTAN TENGAH,74173.0,Indonesia,,,,-2.2967861,111.1830945,https://maps.google.com/?cid=0x0:0x469b2ad76cbb203e,
restaurant,Restoran,Dapur mamah arsy,"P52M+5PC, Sebelah gapura mts./masjid, Bangun Jaya, Kec. Balai Riam, Kabupaten Sukamara, Kalimantan Tengah 74173","Sebelah gapura mts./masjid, Bangun Jaya, Kec. Balai Riam, Kabupaten Sukamara",KALIMANTAN TENGAH,74173.0,Indonesia,85280373872.0,,,-2.2995716,111.1842679,https://maps.google.com/?cid=0x0:0xf51533c736b69f4d,
restaurant,Dapur Umum,Warung Makan Putri Indra Giri,"Sp3, Bangun Jaya, Kec. Balai Riam, Kabupaten Sukamara, Kalimantan Tengah 74173","Bangun Jaya, Kec. Balai Riam, Kabupaten Sukamara",KALIMANTAN TENGAH,74173.0,Indonesia,81350283719.0,,,-2.3017514,111.1834443,https://maps.google.com/?cid=0x0:0x3b7502b793b4021c,
restaurant,Restoran,Rumah Makan Parahyangan Sukamara,"M5XM+H8X, Jalan Poros SP3, Bangun Jaya, Balai Riam, Sukamara Regency, Central Kalimantan","Kabupaten Sukamara, Kalimantan Tengah",KALIMANTAN TENGAH,,Indonesia,,,,-2.3010113,111.1833729,https://maps.google.com/?cid=0x0:0x22e670953c1f5280,
restaurant,restaurant,Seblak prasmanan mn,"M583+QQ9, RT.03/RW.01, Balai Riam, Kec. Balai Riam, Kabupaten Sukamara, Kalimantan Tengah","Kabupaten Sukamara, Kalimantan Tengah",KALIMANTAN TENGAH,,Indonesia,,,,-2.3330996,111.1544784,https://maps.google.com/?cid=0x0:0x51d61b4cfddf6dec,
restaurant,Restoran,WR Makan Mbak UUM,"M49R+6HP, Balai Riam, Kec. Balai Riam, Kabupaten Sukamara, Kalimantan Tengah 74173","Balai Riam, Kec. Balai Riam, Kabupaten Sukamara",KALIMANTAN TENGAH,74173.0,Indonesia,81256685095.0,,,-2.3319011,111.1414464,https://maps.google.com/?cid=0x0:0x5bde56f251b75c27,
restaurant,Makanan Kecil,Nasi goreng Babat semarangan,"M5WM+M8J, Bangun Jaya, Kec. Balai Riam, Kabupaten Sukamara, Kalimantan Tengah 74173","Bangun Jaya, Kec. Balai Riam, Kabupaten Sukamara",KALIMANTAN TENGAH,74173.0,Indonesia,,,,-2.3032471,111.1832821,https://maps.google.com/?cid=0x0:0x284c40c2d5d572fe,
restaurant,Ayam,Rocket Chicken Bangun Jaya,"Jl. Kyai Gede, RT.004/RW.001, Balai Riam, Kec. Balai Riam, Kabupaten Sukamara, Kalimantan Tengah 74173","RT.004/RW.001, Balai Riam, Kec. Balai Riam, Kabupaten Sukamara",KALIMANTAN TENGAH,74173.0,Indonesia,85750668179.0,,,-2.3002316,111.1857631,https://maps.google.com/?cid=0x0:0xa3b7b03fa3103ba1,
restaurant,restaurant,Tahu Walik Krispi Balai Riam,"Bangun Jaya, Kec. Balai Riam, Kabupaten Sukamara, Kalimantan Tengah 74173","Kec. Balai Riam, Kabupaten Sukamara",KALIMANTAN TENGAH,74173.0,Indonesia,85851192839.0,,,-2.3263521,111.1788921,https://maps.google.com/?cid=0x0:0xf64da08b115d38b5,
restaurant,restaurant,Kec. Jelai,"Kabupaten Sukamara, Kalimantan Tengah","Kabupaten Sukamara, Kalimantan Tengah",KALIMANTAN TENGAH,,Indonesia,,,,-2.9859918,110.7376759,https://maps.google.com/?cid=0x0:0x877a89d41ac3d0a6,
restaurant,Restoran,Rumah Makan Acil Cahya,"2P9R+V5F, Kuala Jelai, Kec. Jelai, Kabupaten Sukamara, Kalimantan Tengah 74171","Kuala Jelai, Kec. Jelai, Kabupaten Sukamara",KALIMANTAN TENGAH,74171.0,Indonesia,,,,-2.9812052,110.7403587,https://maps.google.com/?cid=0x0:0x7b37e6d22ec48e05,
restaurant,Hidangan Laut,WARUNG MAKAN ADELIA,"2P7P+8FC, Kuala Jelai, Kec. Jelai, Kabupaten Sukamara, Kalimantan Tengah 74171","Kuala Jelai, Kec. Jelai, Kabupaten Sukamara",KALIMANTAN TENGAH,74171.0,Indonesia,82251241171.0,,,-2.9866842,110.7361352,https://maps.google.com/?cid=0x0:0x37bd7daa05eb4c9,
restaurant,Restoran,Warung Wong Jowo,"rumah ajang ikam/dekat TPI, Jln.M.taher No.RT 07, KAMPU ULUH, Kuala Jelai, Kec. Jelai, Kabupaten Sukamara, Kalimantan Tengah 74171","Jln.M.taher No.RT 07, KAMPU ULUH, Kuala Jelai, Kec. Jelai, Kabupaten Sukamara",KALIMANTAN TENGAH,74171.0,Indonesia,87780493603.0,,,-2.9794284,110.7413024,https://maps.google.com/?cid=0x0:0xe91bfd8de05010b9,
restaurant,Toko bahan makanan,Kualajelai,"3Q29+7R5, Kuala Jelai, Kec. Jelai, Kabupaten Sukamara, Kalimantan Tengah","Kabupaten Sukamara, Kalimantan Tengah",KALIMANTAN TENGAH,,Indonesia,,,,-2.949374,110.7696,https://maps.google.com/?cid=0x0:0x119cb52ad5ad8419,
restaurant,Kafe,Syaina Cafe  Musik Studio,"Jl. H. Dahlan No.Rt 07, Kuala Jelai, Kec. Jelai, Kabupaten Sukamara, Kalimantan Tengah 74171","Kuala Jelai, Kec. Jelai, Kabupaten Sukamara",KALIMANTAN TENGAH,74171.0,Indonesia,,,,-2.9774208,110.7420101,https://maps.google.com/?cid=0x0:0xa6c6c7d6a3671c19,
restaurant,Hidangan Laut,Waroeng makan aminah,"2P7P+QM5, Kuala Jelai, Kec. Jelai, Kabupaten Sukamara, Kalimantan Tengah 74171","Kuala Jelai, Kec. Jelai, Kabupaten Sukamara",KALIMANTAN TENGAH,74171.0,Indonesia,,,,-2.9855548,110.7368089,https://maps.google.com/?cid=0x0:0xc96b3f3a980040c6,
restaurant,Kedai Kopi,Martabak Jelai,"2QQC+2PX, Depan gedung, Kuala Jelai, Kec. Jelai, Kabupaten Sukamara, Kalimantan Tengah 74171","Depan gedung, Kuala Jelai, Kec. Jelai, Kabupaten Sukamara",KALIMANTAN TENGAH,74171.0,Indonesia,82282953114.0,,,-2.9623901,110.7718469,https://maps.google.com/?cid=0x0:0x7a715af93b3a4b93,
restaurant,Indonesia,Warung Mba is,"Jl. Husin Hamzah No.RT. 05, Kuala Jelai, Kec. Jelai, Kabupaten Sukamara, Kalimantan Tengah","Kabupaten Sukamara, Kalimantan Tengah",KALIMANTAN TENGAH,,Indonesia,,,,-2.9827923,110.7394265,https://maps.google.com/?cid=0x0:0xb0bb925dc30df289,
restaurant,Kedai Kopi,Warung Nenek Maira,"4V33+3H, Pulau Nibung, Kec. Jelai, Kabupaten Sukamara, Kalimantan Tengah","Kabupaten Sukamara, Kalimantan Tengah",KALIMANTAN TENGAH,,Indonesia,,,,-2.8970047,110.8529245,https://maps.google.com/?cid=0x0:0xfb91a18b0478987c,
restaurant,Restoran,Warkop Anjang usin,"2P9R+J5G, Kuala Jelai, Kec. Jelai, Kabupaten Sukamara, Kalimantan Tengah 74171","Kuala Jelai, Kec. Jelai, Kabupaten Sukamara",KALIMANTAN TENGAH,74171.0,Indonesia,,,,-2.9809318,110.7404442,https://maps.google.com/?cid=0x0:0x8b16e79c7c812ded,
restaurant,Area Wi-Fi,Warung voucheran wifi maskuri,"2PCR+6GP, Kuala Jelai, Kec. Jelai, Kabupaten Sukamara, Kalimantan Tengah","Kabupaten Sukamara, Kalimantan Tengah",KALIMANTAN TENGAH,,Indonesia,,,,-2.9794873,110.7412849,https://maps.google.com/?cid=0x0:0x3a97671e9d0abb13,
restaurant,Kedai Kopi,Rumah,"3VV2+8V, Pulau Nibung, Kec. Jelai, Kabupaten Sukamara, Kalimantan Tengah 74171","Pulau Nibung, Kec. Jelai, Kabupaten Sukamara",KALIMANTAN TENGAH,74171.0,Indonesia,,,,-2.9066964,110.8521406,https://maps.google.com/?cid=0x0:0xba952dac72bf2e51,
restaurant,Perusahaan Operasi Pelabuhan,TPI Kuala Jelai,"2PCR+78V, Kuala Jelai, Kec. Jelai, Kabupaten Sukamara, Kalimantan Tengah 74171","Kuala Jelai, Kec. Jelai, Kabupaten Sukamara",KALIMANTAN TENGAH,74171.0,Indonesia,,,,-2.979264,110.7408102,https://maps.google.com/?cid=0x0:0xf7b99b8ef932a224,
restaurant,Indonesia,Saka Bistro  Bar,"Jl. Karangsari No.2, Pasteur, Kec. Sukajadi, Kota Bandung, Jawa Barat 40161","Pasteur, Kec. Sukajadi, Kota Bandung",KALIMANTAN TENGAH,40161.0,Indonesia,222039651.0,,,-6.8808093,107.5986175,https://maps.google.com/?cid=0x0:0xfdb9453c07050998,
restaurant,Jepang,Giur Bistro,"Jl. Aria Jipang No.1, RW.3, Citarum, Kec. Bandung Wetan, Kota Bandung, Jawa Barat 40115","RW.3, Citarum, Kec. Bandung Wetan, Kota Bandung",KALIMANTAN TENGAH,40115.0,Indonesia,224241981.0,,,-6.9003555,107.6150184,https://maps.google.com/?cid=0x0:0xc0d86a38f854b831,
restaurant,restaurant,RESTO JELAI,"Jalan alternatif cibubur km 4 ruko city walk citra Grand Rcw 2 No 15, RT.001/RW.009, Jatikarya, Kec. Jatisampurna, Kota Bks, Jawa Barat 17435","RT.001/RW.009, Jatikarya, Kec. Jatisampurna, Kota Bks",KALIMANTAN TENGAH,17435.0,Indonesia,895328530819.0,,,-6.382962,106.918153,https://maps.google.com/?cid=0x0:0x7697d36912255def,
restaurant,restaurant,Kalimantan Tengah 74171,"Kabupaten Sukamara, Kalimantan Tengah","Kabupaten Sukamara, Kalimantan Tengah",KALIMANTAN TENGAH,,Indonesia,,,,-2.9288777,111.0460407,https://maps.google.com/?cid=0x0:0xdaaca932d5c1b031,
restaurant,Hidangan Laut,AL FAZZA TEPI PANTAI,"Jl. Profesor Adi Karya, Sungai Cabang Bar., Kec. Pantai Lunci, Kabupaten Sukamara, Kalimantan Tengah 74171","Sungai Cabang Bar., Kec. Pantai Lunci, Kabupaten Sukamara",KALIMANTAN TENGAH,74171.0,Indonesia,85248396060.0,,,-2.9901415,111.1900852,https://maps.google.com/?cid=0x0:0x5067c2cb81325183,
restaurant,Restoran,Makan seapood tradisional pantai lunci,"Rt07, Sungai Cabang Bar., Kec. Pantai Lunci, Kabupaten Sukamara, Kalimantan Tengah 74171","Sungai Cabang Bar., Kec. Pantai Lunci, Kabupaten Sukamara",KALIMANTAN TENGAH,74171.0,Indonesia,82150574190.0,,,-2.9895744,111.1914049,https://maps.google.com/?cid=0x0:0x3d13c4864cf27c48,
restaurant,Pantai Umum,Pantai Putra Sekawan,"255Q+93, Sungai Cabang Bar., Kec. Pantai Lunci, Kabupaten Sukamara, Kalimantan Tengah","Kabupaten Sukamara, Kalimantan Tengah",KALIMANTAN TENGAH,,Indonesia,,,,-2.9916249,111.1876578,https://maps.google.com/?cid=0x0:0xf3244e46a5d7478b,
restaurant,Dapur Umum,Warung makan Kampoeng Jorong,"Jl.deponegoro No.Rt 06, Sungai Cabang Bar., Kec. Pantai Lunci, Kabupaten Sukamara, Kalimantan Tengah","Kabupaten Sukamara, Kalimantan Tengah",KALIMANTAN TENGAH,,Indonesia,85390181696.0,,,-2.9929716,111.1837767,https://maps.google.com/?cid=0x0:0x216076625890618e,
restaurant,Restoran,Pantai putra tunggal,"Sungai Cabang Bar., Kec. Pantai Lunci, Kabupaten Sukamara, Kalimantan Tengah 74171","Kec. Pantai Lunci, Kabupaten Sukamara",KALIMANTAN TENGAH,74171.0,Indonesia,85787247650.0,,,-2.9912131,111.1887726,https://maps.google.com/?cid=0x0:0x59b7378fb7a3bc36,
restaurant,Kafe,CAFE  RESTO NG,"Mendawai, RT. 02, Mendawai, Kec. Sukamara, Kabupaten Sukamara, Kalimantan Tengah 74172","RT. 02, Mendawai, Kec. Sukamara, Kabupaten Sukamara",KALIMANTAN TENGAH,74172.0,Indonesia,,,,-2.7238136,111.1632891,https://maps.google.com/?cid=0x0:0x9496f4c1ad010bb8,
restaurant,Kafe,Lesehan Ibra N Nino,"Sungai Cabang Bar.,Rt.05, Sungai Cabang Bar., Kec. Pantai Lunci, Kabupaten Sukamara, Kalimantan Tengah 74171","Sungai Cabang Bar., Kec. Pantai Lunci, Kabupaten Sukamara",KALIMANTAN TENGAH,74171.0,Indonesia,81254111077.0,,,-2.9904816,111.1798485,https://maps.google.com/?cid=0x0:0x9a03fe6fd1827c24,
restaurant,Hidangan Laut,Warung Makan Pak Dhe Sido Mampir,"256J+V4W, Unnamed Road, Sungai Cabang Bar., Kec. Pantai Lunci, Kabupaten Sukamara, Kalimantan Tengah 74171","Unnamed Road, Sungai Cabang Bar., Kec. Pantai Lunci, Kabupaten Sukamara",KALIMANTAN TENGAH,74171.0,Indonesia,,,,-2.9877544,111.1803156,https://maps.google.com/?cid=0x0:0xfc5c8e7bce947cdd,
restaurant,Sesuai untuk keluarga,Rumah Makan Saung Sederhana,"256R+27R, Jl. Profesor Adi Karya, Sungai Cabang Bar., Kec. Pantai Lunci, Kabupaten Sukamara, Kalimantan Tengah 74171","Jl. Profesor Adi Karya, Sungai Cabang Bar., Kec. Pantai Lunci, Kabupaten Sukamara",KALIMANTAN TENGAH,74171.0,Indonesia,,,,-2.9898875,111.1906404,https://maps.google.com/?cid=0x0:0xc5ffd4ebdd8bb988,
restaurant,Restoran,Cafe Jimbaran Hill,"75QC+26F, Mendawai, Kec. Sukamara, Kabupaten Sukamara, Kalimantan Tengah 74172","Mendawai, Kec. Sukamara, Kabupaten Sukamara",KALIMANTAN TENGAH,74172.0,Indonesia,,,,-2.7124433,111.1705363,https://maps.google.com/?cid=0x0:0x5bb2d1505572e3b4,
restaurant,Restoran,Kafe Mas Wil,"Jl. M Saleh No.72 Kel, Padang, Kec. Sukamara, Kabupaten Sukamara, Kalimantan Tengah 74172","Padang, Kec. Sukamara, Kabupaten Sukamara",KALIMANTAN TENGAH,74172.0,Indonesia,8114400147.0,,,-2.700903,111.176349,https://maps.google.com/?cid=0x0:0x27894a51414d1b11,
restaurant,restaurant,BSJ Cafe  Resto,"Jalan Cilik riwut No.KM 5, Mendawai, Kec. Sukamara, Kabupaten Sukamara, Kalimantan Tengah","Kabupaten Sukamara, Kalimantan Tengah",KALIMANTAN TENGAH,,Indonesia,,,,-2.7234732,111.1622879,https://maps.google.com/?cid=0x0:0xb2d9beb8071a9e0c,
restaurant,Rumah Makan,Rumah Makan Rajawali,"75J8+XWM, Mendawai, Kec. Sukamara, Kabupaten Sukamara, Kalimantan Tengah 74172","Mendawai, Kec. Sukamara, Kabupaten Sukamara",KALIMANTAN TENGAH,74172.0,Indonesia,,,,-2.7175412,111.1672881,https://maps.google.com/?cid=0x0:0xddf7f9830b4e04b2,
restaurant,Restoran,Warung makan bang jono,"Jl. M Saleh, Karta Mulia, Kec. Sukamara, Kabupaten Sukamara, Kalimantan Tengah 74172","Karta Mulia, Kec. Sukamara, Kabupaten Sukamara",KALIMANTAN TENGAH,74172.0,Indonesia,,,,-2.7012526,111.1745147,https://maps.google.com/?cid=0x0:0x1b9693ec4831ddfc,
restaurant,Restoran,Ayam makan geprek pinggir jalan,"254C+XM, Sungai Cabang Bar., Kec. Pantai Lunci, Kabupaten Sukamara, Kalimantan Tengah 74171","Sungai Cabang Bar., Kec. Pantai Lunci, Kabupaten Sukamara",KALIMANTAN TENGAH,74171.0,Indonesia,,,,-2.9925625,111.1716875,https://maps.google.com/?cid=0x0:0x9e17fbbaf25769f3,
restaurant,Pantai Umum,Pantai Cemara Lebat,"256R+5H6, Jl. Profesor Adi Karya, Sungai Cabang Bar., Kec. Pantai Lunci, Kabupaten Sukamara, Kalimantan Tengah 74171","Jl. Profesor Adi Karya, Sungai Cabang Bar., Kec. Pantai Lunci, Kabupaten Sukamara",KALIMANTAN TENGAH,74171.0,Indonesia,82150574190.0,,,-2.9895753,111.1913918,https://maps.google.com/?cid=0x0:0x35e17158a73375aa,
restaurant,Restoran,Cafe Chika,"Jl. Tjilik Riwut Km 1, Mendawai, Kec. Sukamara, Kabupaten Sukamara, Kalimantan Tengah 74172","Mendawai, Kec. Sukamara, Kabupaten Sukamara",KALIMANTAN TENGAH,74172.0,Indonesia,85705268561.0,,,-2.7093589,111.173189,https://maps.google.com/?cid=0x0:0xa8776e5182eddd2e,
restaurant,Restoran,Warung Makan Sukarasa,"75RC+R76, Mendawai, Kec. Sukamara, Kabupaten Sukamara, Kalimantan Tengah 74172","Mendawai, Kec. Sukamara, Kabupaten Sukamara",KALIMANTAN TENGAH,74172.0,Indonesia,,,,-2.7079503,111.1706509,https://maps.google.com/?cid=0x0:0x7b01886a4d471769,
restaurant,restaurant,Warung Makan Mama Lulu,"75R9+VW8, Jl. Cakra Adiwijaya, Mendawai, Kec. Sukamara, Kabupaten Sukamara, Kalimantan Tengah 74172","Jl. Cakra Adiwijaya, Mendawai, Kec. Sukamara, Kabupaten Sukamara",KALIMANTAN TENGAH,74172.0,Indonesia,,,,-2.7078451,111.1698047,https://maps.google.com/?cid=0x0:0x53eb99fdac2a087c,
restaurant,Kafe,Lesehan Ibra Dan Nino,"sei cabang barat rt 5, Sungai Tabuk, Kec. Pantai Lunci, Kabupaten Sukamara, Kalimantan Tengah 74171","Sungai Tabuk, Kec. Pantai Lunci, Kabupaten Sukamara",KALIMANTAN TENGAH,74171.0,Indonesia,85350624830.0,,,-2.9270008,111.1414226,https://maps.google.com/?cid=0x0:0xa3437601f50a3422,
restaurant,Tujuan Wisata,Cafe Bambang Eler,"Sungai Cabang Barat.,Rt.05, Sungai Cabang Bar., Kec. Pantai Lunci, Kabupaten Sukamara, Kalimantan Tengah 74171","Sungai Cabang Bar., Kec. Pantai Lunci, Kabupaten Sukamara",KALIMANTAN TENGAH,74171.0,Indonesia,82253000236.0,,,-2.9901404,111.1795005,https://maps.google.com/?cid=0x0:0xefc7899f8fd70686,
restaurant,Rumah Makan,RM. RASA GURIH SUKAMARA,"75G8+MMF, Jl. Tjilik Riwut, Mendawai, Kec. Sukamara, Kabupaten Sukamara, Kalimantan Tengah 74172","Jl. Tjilik Riwut, Mendawai, Kec. Sukamara, Kabupaten Sukamara",KALIMANTAN TENGAH,74172.0,Indonesia,85135584416.0,,,-2.7233035,111.1667045,https://maps.google.com/?cid=0x0:0x5e938af2ab9449c,
restaurant,restaurant,Kalimantan Tengah 74173,Kalimantan Tengah,Kalimantan Tengah,KALIMANTAN TENGAH,,Indonesia,,,,-2.1830119,111.2368084,https://maps.google.com/?cid=0x0:0xfb45b5038030e34d,
restaurant,restaurant,Kec. Permata Kecubung,"Kabupaten Sukamara, Kalimantan Tengah","Kabupaten Sukamara, Kalimantan Tengah",KALIMANTAN TENGAH,,Indonesia,,,,-2.1946076,111.157699,https://maps.google.com/?cid=0x0:0x5913f2f384347b3b,
restaurant,Toko Swalayan,WARUNG MAKAN ANGAH BETINA,"R536+3M, Semantun, Kec. Permata Kecubung, Kabupaten Sukamara, Kalimantan Tengah","Kabupaten Sukamara, Kalimantan Tengah",KALIMANTAN TENGAH,,Indonesia,,,,-2.1973581,111.1616759,https://maps.google.com/?cid=0x0:0x9f52694387f43427,
restaurant,Sarapan,Rumah Makan Mas Pri,"Jl. Kyai Gede No.4, Bangun Jaya, Kec. Balai Riam, Kabupaten Sukamara, Kalimantan Tengah 74173","Bangun Jaya, Kec. Balai Riam, Kabupaten Sukamara",KALIMANTAN TENGAH,74173.0,Indonesia,85293357886.0,,,-2.3001703,111.1834035,https://maps.google.com/?cid=0x0:0x89c985f5fbf0e968,
restaurant,Indonesia,Warung makan km 28 pd miko,"V74G+J3, Laman Baru, Kec. Permata Kecubung, Kabupaten Sukamara, Kalimantan Tengah 74173","Laman Baru, Kec. Permata Kecubung, Kabupaten Sukamara",KALIMANTAN TENGAH,74173.0,Indonesia,,,,-2.1435209,111.275466,https://maps.google.com/?cid=0x0:0x1c64decd91077ae,
restaurant,Rumah Makan,Warung Makan Sumber Jaya,"R8XH+H2, Kenawan, Kec. Permata Kecubung, Kabupaten Sukamara, Kalimantan Tengah","Kabupaten Sukamara, Kalimantan Tengah",KALIMANTAN TENGAH,,Indonesia,,,,-2.1510241,111.327536,https://maps.google.com/?cid=0x0:0x3c1894262bec15d7,
restaurant,Nasi,Kedai Abang Emon,"Q75R+3MC, Unnamed Road, Laman Baru, Permata Kecubung, Sukamara Regency, Central Kalimantan 74172","Unnamed Road, Laman Baru, Permata Kecubung, Sukamara Regency",KALIMANTAN TENGAH,74172.0,Indonesia,,,,-2.2423033,111.2916467,https://maps.google.com/?cid=0x0:0x8b24c5998c1b2205,
restaurant,Sate,Pakde Warung Nasgor Sp5,"Q4PJ+RRH, Sembikuan, Kec. Permata Kecubung, Kabupaten Sukamara, Kalimantan Tengah 74173","Sembikuan, Kec. Permata Kecubung, Kabupaten Sukamara",KALIMANTAN TENGAH,74173.0,Indonesia,82357749742.0,,,-2.212936,111.132102,https://maps.google.com/?cid=0x0:0x7cb27d101583ca71,
restaurant,Dapur Umum,Fried Chicken Sunda Pisan,"Desa bangun jaya sp 3, Kec. Balai Riam, Kabupaten Sukamara, Kalimantan Tengah 74173","Kec. Balai Riam, Kabupaten Sukamara",KALIMANTAN TENGAH,74173.0,Indonesia,82254269680.0,,,-2.3002081,111.183298,https://maps.google.com/?cid=0x0:0xf7473ccb3ce0d639,
restaurant,Nasi,Rumah Makan Moro Eco,"P53M+G7G, Unnamed Road, Bangun Jaya, Kec. Balai Riam, Kabupaten Sukamara, Kalimantan Tengah 74173","Unnamed Road, Bangun Jaya, Kec. Balai Riam, Kabupaten Sukamara",KALIMANTAN TENGAH,74173.0,Indonesia,,,,-2.29618,111.1832033,https://maps.google.com/?cid=0x0:0x707ebca2f9af63e3,
restaurant,Restoran,Rumah Makan Parahyangan Sukamara,"M5XM+H8X, Jalan Poros SP3, Bangun Jaya, Balai Riam, Sukamara Regency, Central Kalimantan","Kabupaten Sukamara, Kalimantan Tengah",KALIMANTAN TENGAH,,Indonesia,,,,-2.3010113,111.1833729,https://maps.google.com/?cid=0x0:0x22e670953c1f5280,
restaurant,Indonesia,Warung Makan Musyaffa,"Q954+RR, Kenawan, Kec. Permata Kecubung, Kabupaten Sukamara, Kalimantan Tengah","Kabupaten Sukamara, Kalimantan Tengah",KALIMANTAN TENGAH,,Indonesia,,,,-2.240482,111.357112,https://maps.google.com/?cid=0x0:0x5287b4231e01f5af,
restaurant,Restoran,Warung Parahyangan,"P52M+C7R, Unnamed Road, Bangun Jaya, Kec. Balai Riam, Kabupaten Sukamara, Kalimantan Tengah 74173","Unnamed Road, Bangun Jaya, Kec. Balai Riam, Kabupaten Sukamara",KALIMANTAN TENGAH,74173.0,Indonesia,,,,-2.2988803,111.1831539,https://maps.google.com/?cid=0x0:0xdcd5fffa14c9a74d,
restaurant,Dapur Umum,Warung Makan Putri Indra Giri,"Sp3, Bangun Jaya, Kec. Balai Riam, Kabupaten Sukamara, Kalimantan Tengah 74173","Bangun Jaya, Kec. Balai Riam, Kabupaten Sukamara",KALIMANTAN TENGAH,74173.0,Indonesia,81350283719.0,,,-2.3017514,111.1834443,https://maps.google.com/?cid=0x0:0x3b7502b793b4021c,
restaurant,Brunch,Mie Ayam Mak Fara,"P5WJ+777, Unnamed Road, Natai Kondang, Kec. Permata Kecubung, Kabupaten Sukamara, Kalimantan Tengah 74173","Unnamed Road, Natai Kondang, Kec. Permata Kecubung, Kabupaten Sukamara",KALIMANTAN TENGAH,74173.0,Indonesia,82152511404.0,,,-2.254346,111.1806614,https://maps.google.com/?cid=0x0:0xb5f4517c7832a182,
restaurant,Ayam,Rocket Chicken Bangun Jaya,"Jl. Kyai Gede, RT.004/RW.001, Balai Riam, Kec. Balai Riam, Kabupaten Sukamara, Kalimantan Tengah 74173","RT.004/RW.001, Balai Riam, Kec. Balai Riam, Kabupaten Sukamara",KALIMANTAN TENGAH,74173.0,Indonesia,85750668179.0,,,-2.3002316,111.1857631,https://maps.google.com/?cid=0x0:0xa3b7b03fa3103ba1,
restaurant,Indonesia,Warung mama nico,"Q954+RR, Kenawan, Kec. Permata Kecubung, Kabupaten Sukamara, Kalimantan Tengah","Kabupaten Sukamara, Kalimantan Tengah",KALIMANTAN TENGAH,,Indonesia,,,,-2.2405257,111.357793,https://maps.google.com/?cid=0x0:0xe97fe47af53848c0,
restaurant,Restoran,Dapur mamah arsy,"P52M+5PC, Sebelah gapura mts./masjid, Bangun Jaya, Kec. Balai Riam, Kabupaten Sukamara, Kalimantan Tengah 74173","Sebelah gapura mts./masjid, Bangun Jaya, Kec. Balai Riam, Kabupaten Sukamara",KALIMANTAN TENGAH,74173.0,Indonesia,85280373872.0,,,-2.2995716,111.1842679,https://maps.google.com/?cid=0x0:0xf51533c736b69f4d,
restaurant,Makanan Siap Saji,Seblak perasmanan Mn,"P53M+867, Bangun Jaya, Kec. Balai Riam, Kabupaten Sukamara, Kalimantan Tengah 74173","Bangun Jaya, Kec. Balai Riam, Kabupaten Sukamara",KALIMANTAN TENGAH,74173.0,Indonesia,,,,-2.2967861,111.1830945,https://maps.google.com/?cid=0x0:0x469b2ad76cbb203e,
restaurant,Restoran,Rumah makan Albino,"P53M+R8Q, Bangun Jaya, Kec. Balai Riam, Kabupaten Sukamara, Kalimantan Tengah 74173","Bangun Jaya, Kec. Balai Riam, Kabupaten Sukamara",KALIMANTAN TENGAH,74173.0,Indonesia,,,,-2.2954066,111.1833444,https://maps.google.com/?cid=0x0:0xe1ce2b19a4a555e1,
restaurant,Kedai Kopi,Mini Cafe Nyopee,"P5PJ+XMR, Unnamed Road, Natai Kondang, Kec. Permata Kecubung, Kabupaten Sukamara, Kalimantan Tengah 74173","Unnamed Road, Natai Kondang, Kec. Permata Kecubung, Kabupaten Sukamara",KALIMANTAN TENGAH,74173.0,Indonesia,,,,-2.2625028,111.1816517,https://maps.google.com/?cid=0x0:0xc2ccabb2ec76e2c5,
restaurant,Kedai Kopi,Mas brow Cafe,"P5PJ+W5H, Unnamed Road, Natai Kondang, Kec. Permata Kecubung, Kabupaten Sukamara, Kalimantan Tengah 74173","Unnamed Road, Natai Kondang, Kec. Permata Kecubung, Kabupaten Sukamara",KALIMANTAN TENGAH,74173.0,Indonesia,,,,-2.2626817,111.1804837,https://maps.google.com/?cid=0x0:0x397932a2a1c0b592,
restaurant,Kedai Kopi,Warung OMA NABURJU,"V73J+V2C, Laman Baru, Kec. Permata Kecubung, Kabupaten Sukamara, Kalimantan Tengah 74173","Laman Baru, Kec. Permata Kecubung, Kabupaten Sukamara",KALIMANTAN TENGAH,74173.0,Indonesia,82251722250.0,,,-2.1454852,111.2808394,https://maps.google.com/?cid=0x0:0x6ceac55584b1f044,
restaurant,Restoran,Warung Makan Mamah Riski,"Jl. Ajang, Kenawan, Kec. Permata Kecubung, Kabupaten Lamandau, Kalimantan Tengah 74161","Kenawan, Kec. Permata Kecubung, Kabupaten Lamandau",KALIMANTAN TENGAH,74161.0,Indonesia,,,,-2.2419536,111.3570708,https://maps.google.com/?cid=0x0:0x9a61166021fc054b,
restaurant,Restoran,Warung makan barokah,"M5XM+M8X, jl.Kyai gede, Bangun Jaya, Kec. Balai Riam, Kabupaten Sukamara, Kalimantan Tengah 74173","jl.Kyai gede, Bangun Jaya, Kec. Balai Riam, Kabupaten Sukamara",KALIMANTAN TENGAH,74173.0,Indonesia,85742867389.0,,,-2.3007513,111.1833482,https://maps.google.com/?cid=0x0:0xad26039324186991,
restaurant,restaurant,Kalimantan Tengah 74172,"Kabupaten Sukamara, Kalimantan Tengah","Kabupaten Sukamara, Kalimantan Tengah",KALIMANTAN TENGAH,,Indonesia,,,,-2.4783286,111.2368084,https://maps.google.com/?cid=0x0:0xd20d489d27a950d7,
restaurant,Restoran,Cafe Jimbaran Hill,"75QC+26F, Mendawai, Kec. Sukamara, Kabupaten Sukamara, Kalimantan Tengah 74172","Mendawai, Kec. Sukamara, Kabupaten Sukamara",KALIMANTAN TENGAH,74172.0,Indonesia,,,,-2.7124433,111.1705363,https://maps.google.com/?cid=0x0:0x5bb2d1505572e3b4,
restaurant,Restoran,Cafe Chika,"Jl. Tjilik Riwut Km 1, Mendawai, Kec. Sukamara, Kabupaten Sukamara, Kalimantan Tengah 74172","Mendawai, Kec. Sukamara, Kabupaten Sukamara",KALIMANTAN TENGAH,74172.0,Indonesia,85705268561.0,,,-2.7093589,111.173189,https://maps.google.com/?cid=0x0:0xa8776e5182eddd2e,
restaurant,Restoran,RM. CITRA SUKAMARA,"75VC+5HM, Mendawai, Kec. Sukamara, Kabupaten Sukamara, Kalimantan Tengah 74172","Mendawai, Kec. Sukamara, Kabupaten Sukamara",KALIMANTAN TENGAH,74172.0,Indonesia,82351764009.0,,,-2.707041,111.1714147,https://maps.google.com/?cid=0x0:0x80d9d87187ae3f73,
restaurant,Restoran,Chaca Kitchen,"Jl. Wonosari II No.93, RT.09/RW.03, Mendawai, Kec. Sukamara, Kabupaten Sukamara, Kalimantan Tengah 74172","RT.09/RW.03, Mendawai, Kec. Sukamara, Kabupaten Sukamara",KALIMANTAN TENGAH,74172.0,Indonesia,82250582454.0,,,-2.7140348,111.1711951,https://maps.google.com/?cid=0x0:0x6d9002a51669e24c,
restaurant,Kafe,CAFE  RESTO NG,"Mendawai, RT. 02, Mendawai, Kec. Sukamara, Kabupaten Sukamara, Kalimantan Tengah 74172","RT. 02, Mendawai, Kec. Sukamara, Kabupaten Sukamara",KALIMANTAN TENGAH,74172.0,Indonesia,,,,-2.7238136,111.1632891,https://maps.google.com/?cid=0x0:0x9496f4c1ad010bb8,
restaurant,Rumah Makan,Warung Makan Pak Mardi Demak,"Jl. Setia Yakin, Mendawai, Kec. Sukamara, Kabupaten Sukamara, Kalimantan Tengah 74172","Mendawai, Kec. Sukamara, Kabupaten Sukamara",KALIMANTAN TENGAH,74172.0,Indonesia,81349013169.0,,,-2.7077865,111.1708131,https://maps.google.com/?cid=0x0:0xab97673113539d0e,
restaurant,Restoran,WR.PAHALA SUKAMARA,"Mendawai, Kec. Sukamara, Kabupaten Sukamara, Kalimantan Tengah 74172","Kec. Sukamara, Kabupaten Sukamara",KALIMANTAN TENGAH,74172.0,Indonesia,85754864444.0,,,-2.7078882,111.1700922,https://maps.google.com/?cid=0x0:0xff3ae143d2a283ab,
restaurant,Nasi Goreng,WM BAROKAH,"⛉, Jl. Tjilik Riwut, Mendawai, Kec. Sukamara, Kabupaten Sukamara, Kalimantan Tengah 74172","Jl. Tjilik Riwut, Mendawai, Kec. Sukamara, Kabupaten Sukamara",KALIMANTAN TENGAH,74172.0,Indonesia,81351260777.0,,,-2.7136955,111.1692109,https://maps.google.com/?cid=0x0:0x627c64fe67883cc,
restaurant,Bakso,Kimbab Sushi Sukamara,"75MC+WM3, Jl. Iskandar, Mendawai, Kec. Sukamara, Kabupaten Sukamara, Kalimantan Tengah 74172","Jl. Iskandar, Mendawai, Kec. Sukamara, Kabupaten Sukamara",KALIMANTAN TENGAH,74172.0,Indonesia,,,,-2.7149792,111.1717124,https://maps.google.com/?cid=0x0:0xc6e312fbf939b226,
restaurant,Rumah Makan,Rumah Makan Rajawali,"75J8+XWM, Mendawai, Kec. Sukamara, Kabupaten Sukamara, Kalimantan Tengah 74172","Mendawai, Kec. Sukamara, Kabupaten Sukamara",KALIMANTAN TENGAH,74172.0,Indonesia,,,,-2.7175412,111.1672881,https://maps.google.com/?cid=0x0:0xddf7f9830b4e04b2,
restaurant,Padang,RM. Padang Densiko,"75M9+P3G, Mendawai, Kec. Sukamara, Kabupaten Sukamara, Kalimantan Tengah 74172","Mendawai, Kec. Sukamara, Kabupaten Sukamara",KALIMANTAN TENGAH,74172.0,Indonesia,,,,-2.7156968,111.1677137,https://maps.google.com/?cid=0x0:0xffe1f5a1551f3289,
restaurant,Restoran,WM Pak Irul,"75VC+JCM, Unnamed Road, Mendawai, Kec. Sukamara, Kabupaten Sukamara, Kalimantan Tengah 74172","Unnamed Road, Mendawai, Kec. Sukamara, Kabupaten Sukamara",KALIMANTAN TENGAH,74172.0,Indonesia,,,,-2.7059051,111.1710575,https://maps.google.com/?cid=0x0:0xaf73a82204665919,
restaurant,Makanan Siap Saji,Rocket Chicken Sukamara,"Jl. Tjilik Riwut No.19, Mendawai, Kec. Sukamara, Kabupaten Sukamara, Kalimantan Tengah 74172","Mendawai, Kec. Sukamara, Kabupaten Sukamara",KALIMANTAN TENGAH,74172.0,Indonesia,82352607381.0,,,-2.7109216,111.171807,https://maps.google.com/?cid=0x0:0xdd86348cc3f38e8c,
restaurant,Restoran,Kafe Mas Wil,"Jl. M Saleh No.72 Kel, Padang, Kec. Sukamara, Kabupaten Sukamara, Kalimantan Tengah 74172","Padang, Kec. Sukamara, Kabupaten Sukamara",KALIMANTAN TENGAH,74172.0,Indonesia,8114400147.0,,,-2.700903,111.176349,https://maps.google.com/?cid=0x0:0x27894a51414d1b11,
restaurant,Rumah Makan,RM. RASA GURIH SUKAMARA,"75G8+MMF, Jl. Tjilik Riwut, Mendawai, Kec. Sukamara, Kabupaten Sukamara, Kalimantan Tengah 74172","Jl. Tjilik Riwut, Mendawai, Kec. Sukamara, Kabupaten Sukamara",KALIMANTAN TENGAH,74172.0,Indonesia,85135584416.0,,,-2.7233035,111.1667045,https://maps.google.com/?cid=0x0:0x5e938af2ab9449c,
restaurant,Restoran,Kedai Sultan KS 234,"87C3+HXX, Jln Veteran, Karta Mulia, Sukamara, Sukamara Regency, Central Kalimantan 74172","Jln Veteran, Karta Mulia, Sukamara, Sukamara Regency",KALIMANTAN TENGAH,74172.0,Indonesia,82159959395.0,,,-2.6786383,111.2551239,https://maps.google.com/?cid=0x0:0xeff49971b3f81b4c,
restaurant,Indonesia,pengilingan bakso pak bagong,"75PC+9G7, Jl. Wonosari II, Mendawai, Kec. Sukamara, Kabupaten Sukamara, Kalimantan Tengah 74172","Jl. Wonosari II, Mendawai, Kec. Sukamara, Kabupaten Sukamara",KALIMANTAN TENGAH,74172.0,Indonesia,,,,-2.7140944,111.1713071,https://maps.google.com/?cid=0x0:0xb0fdd551c9e4985b,
restaurant,Restoran,WR. MBAK UUM,"Bundaran burung arah sp2, Bangun Jaya, Kec. Balai Riam, Kabupaten Sukamara, Kalimantan Tengah 74172","Bangun Jaya, Kec. Balai Riam, Kabupaten Sukamara",KALIMANTAN TENGAH,74172.0,Indonesia,81256685095.0,,,-2.3244113,111.184307,https://maps.google.com/?cid=0x0:0x87faf46679c717b3,
restaurant,Rumah Makan,BRASE CAFE,"75PC+W4M, ⛉, Jl. Tjilik Riwut, Mendawai, Kec. Sukamara, Kabupaten Sukamara, Kalimantan Tengah 74172","⛉, Jl. Tjilik Riwut, Mendawai, Kec. Sukamara, Kabupaten Sukamara",KALIMANTAN TENGAH,74172.0,Indonesia,81345004039.0,,,-2.7126721,111.1702999,https://maps.google.com/?cid=0x0:0x73dbcff8c7368d94,
restaurant,Kedai Kopi,Sunnartos Cafe,"Sunnartos Cafe, Mendawai, Kec. Sukamara, Kabupaten Sukamara, Kalimantan Tengah 74172","Mendawai, Kec. Sukamara, Kabupaten Sukamara",KALIMANTAN TENGAH,74172.0,Indonesia,82242225293.0,,,-2.7126818,111.1646255,https://maps.google.com/?cid=0x0:0xd8f73802616d7599,
restaurant,Kafe,MARTABAK IYUDI,"⛉, Jl. Tjilik Riwut, Mendawai, Kec. Sukamara, Kabupaten Sukamara, Kalimantan Tengah 74172","Jl. Tjilik Riwut, Mendawai, Kec. Sukamara, Kabupaten Sukamara",KALIMANTAN TENGAH,74172.0,Indonesia,,,,-2.712603,111.1703613,https://maps.google.com/?cid=0x0:0xa5919cc0709b7430,
restaurant,Restoran,Warung Makan Marlina,"7588+CQ6, Mendawai, Kec. Sukamara, Kabupaten Sukamara, Kalimantan Tengah 74172","Mendawai, Kec. Sukamara, Kabupaten Sukamara",KALIMANTAN TENGAH,74172.0,Indonesia,,,,-2.7339602,111.1668841,https://maps.google.com/?cid=0x0:0xc2f19443a0077a7e,
restaurant,Restoran,Warung Makan Mbah Udin,"75J8+MVC, Jl. Tjilik Riwut, Mendawai, Kec. Sukamara, Kabupaten Sukamara, Kalimantan Tengah 74172","Jl. Tjilik Riwut, Mendawai, Kec. Sukamara, Kabupaten Sukamara",KALIMANTAN TENGAH,74172.0,Indonesia,,,,-2.7183233,111.1671495,https://maps.google.com/?cid=0x0:0x1867cf6b33bdcb9,
restaurant,Restoran,Dapur Masak Ibra,"75H9+2JJ, Jl. Makmur Jalil, Mendawai, Kec. Sukamara, Kabupaten Sukamara, Kalimantan Tengah 74172","Jl. Makmur Jalil, Mendawai, Kec. Sukamara, Kabupaten Sukamara",KALIMANTAN TENGAH,74172.0,Indonesia,,,,-2.7224143,111.1690178,https://maps.google.com/?cid=0x0:0x4bfb14769794b1f,
restaurant,Toko bahan makanan,WM. Pak Doyok,"75QC+8HQ, Mendawai, Kec. Sukamara, Kabupaten Sukamara, Kalimantan Tengah 74172","Mendawai, Kec. Sukamara, Kabupaten Sukamara",KALIMANTAN TENGAH,74172.0,Indonesia,85251115651.0,,,-2.7116721,111.1714848,https://maps.google.com/?cid=0x0:0x3d42b207fab02564,
cafe,cafe,Kalimantan Tengah 74173,Kalimantan Tengah,Kalimantan Tengah,KALIMANTAN TENGAH,,Indonesia,,,,-2.1830119,111.2368084,https://maps.google.com/?cid=0x0:0xfb45b5038030e34d,
cafe,Makanan Kecil,Cafe Sarang,"J5JX+MF, Sekuningan Baru, Kec. Balai Riam, Kabupaten Sukamara, Kalimantan Tengah 74172","Sekuningan Baru, Kec. Balai Riam, Kabupaten Sukamara",KALIMANTAN TENGAH,74172.0,Indonesia,8565226377.0,,,-2.3683317,111.1986851,https://maps.google.com/?cid=0x0:0x110a7ba1ebeb8703,
cafe,cafe,Mizu Cafe,"Bangun Jaya, Kec. Balai Riam, Kabupaten Sukamara, Kalimantan Tengah","Kabupaten Sukamara, Kalimantan Tengah",KALIMANTAN TENGAH,,Indonesia,,,,-2.2992751,111.1804855,https://maps.google.com/?cid=0x0:0x878d066426ea5681,
cafe,Penyedia Layanan Internet,Misya Grafitasi Call Sedia Pulsa Elictrik,"Balai Riam, Kec. Balai Riam, Kabupaten Sukamara, Kalimantan Tengah 74173","Kec. Balai Riam, Kabupaten Sukamara",KALIMANTAN TENGAH,74173.0,Indonesia,85751737276.0,,,-2.3313368,111.1523985,https://maps.google.com/?cid=0x0:0x4d45d249e121a183,
cafe,Sarapan,Rumah Makan Mas Pri,"Jl. Kyai Gede No.4, Bangun Jaya, Kec. Balai Riam, Kabupaten Sukamara, Kalimantan Tengah 74173","Bangun Jaya, Kec. Balai Riam, Kabupaten Sukamara",KALIMANTAN TENGAH,74173.0,Indonesia,85293357886.0,,,-2.3001703,111.1834035,https://maps.google.com/?cid=0x0:0x89c985f5fbf0e968,
cafe,Restoran,Warung Parahyangan,"P52M+C7R, Unnamed Road, Bangun Jaya, Kec. Balai Riam, Kabupaten Sukamara, Kalimantan Tengah 74173","Unnamed Road, Bangun Jaya, Kec. Balai Riam, Kabupaten Sukamara",KALIMANTAN TENGAH,74173.0,Indonesia,,,,-2.2988803,111.1831539,https://maps.google.com/?cid=0x0:0xdcd5fffa14c9a74d,
cafe,cafe,Rumah tinggal,"P52W+WCF, Bangun Jaya, Kec. Balai Riam, Kabupaten Sukamara, Kalimantan Tengah","Kabupaten Sukamara, Kalimantan Tengah",KALIMANTAN TENGAH,,Indonesia,,,,-2.2971717,111.1962919,https://maps.google.com/?cid=0x0:0x5e674ef349e32acd,
cafe,Restoran,WR. MBAK UUM,"Bundaran burung arah sp2, Bangun Jaya, Kec. Balai Riam, Kabupaten Sukamara, Kalimantan Tengah 74172","Bangun Jaya, Kec. Balai Riam, Kabupaten Sukamara",KALIMANTAN TENGAH,74172.0,Indonesia,81256685095.0,,,-2.3244113,111.184307,https://maps.google.com/?cid=0x0:0x87faf46679c717b3,
cafe,Kedai Kopi,Warkop rencang dalu,"M56Q+53H, Sekuningan Baru, Kec. Balai Riam, Kabupaten Sukamara, Kalimantan Tengah 74172","Sekuningan Baru, Kec. Balai Riam, Kabupaten Sukamara",KALIMANTAN TENGAH,74172.0,Indonesia,,,,-2.3395528,111.1877219,https://maps.google.com/?cid=0x0:0x381a804114f6c7cb,
cafe,Kedai Kopi,Mini Cafe Nyopee,"P5PJ+XMR, Unnamed Road, Natai Kondang, Kec. Permata Kecubung, Kabupaten Sukamara, Kalimantan Tengah 74173","Unnamed Road, Natai Kondang, Kec. Permata Kecubung, Kabupaten Sukamara",KALIMANTAN TENGAH,74173.0,Indonesia,,,,-2.2625028,111.1816517,https://maps.google.com/?cid=0x0:0xc2ccabb2ec76e2c5,
cafe,Makanan Kecil,Rano,"P6MF+V86, Ajang, Kec. Permata Kecubung, Kabupaten Sukamara, Kalimantan Tengah 74173","Ajang, Kec. Permata Kecubung, Kabupaten Sukamara",KALIMANTAN TENGAH,74173.0,Indonesia,,,,-2.2653451,111.2232595,https://maps.google.com/?cid=0x0:0xf7c3af7760a5ca03,
cafe,cafe,Tlogomulyo,"M59M+MVP, Sekuningan Baru, Kec. Balai Riam, Kabupaten Sukamara, Kalimantan Tengah 74172","Sekuningan Baru, Kec. Balai Riam, Kabupaten Sukamara",KALIMANTAN TENGAH,74172.0,Indonesia,,,,-2.3307812,111.1847081,https://maps.google.com/?cid=0x0:0x94c4512da54354c6,
cafe,Prasmanan,Warung Makan SIDO MORO,"M584+V28, Balai Riam, Kec. Balai Riam, Kabupaten Sukamara, Kalimantan Tengah 74173","Balai Riam, Kec. Balai Riam, Kabupaten Sukamara",KALIMANTAN TENGAH,74173.0,Indonesia,81235006731.0,,,-2.3328221,111.1551521,https://maps.google.com/?cid=0x0:0x31b1ba17af8d76f9,
cafe,Makanan Siap Saji,Seblak perasmanan Mn,"P53M+867, Bangun Jaya, Kec. Balai Riam, Kabupaten Sukamara, Kalimantan Tengah 74173","Bangun Jaya, Kec. Balai Riam, Kabupaten Sukamara",KALIMANTAN TENGAH,74173.0,Indonesia,,,,-2.2967861,111.1830945,https://maps.google.com/?cid=0x0:0x469b2ad76cbb203e,
cafe,Nasi,Rumah Makan Moro Eco,"P53M+G7G, Unnamed Road, Bangun Jaya, Kec. Balai Riam, Kabupaten Sukamara, Kalimantan Tengah 74173","Unnamed Road, Bangun Jaya, Kec. Balai Riam, Kabupaten Sukamara",KALIMANTAN TENGAH,74173.0,Indonesia,,,,-2.29618,111.1832033,https://maps.google.com/?cid=0x0:0x707ebca2f9af63e3,
cafe,Kedai Kopi,Sunnartos Cafe,"Sunnartos Cafe, Mendawai, Kec. Sukamara, Kabupaten Sukamara, Kalimantan Tengah 74172","Mendawai, Kec. Sukamara, Kabupaten Sukamara",KALIMANTAN TENGAH,74172.0,Indonesia,82242225293.0,,,-2.7126818,111.1646255,https://maps.google.com/?cid=0x0:0xd8f73802616d7599,
cafe,Restoran,Warung makan barokah,"M5XM+M8X, jl.Kyai gede, Bangun Jaya, Kec. Balai Riam, Kabupaten Sukamara, Kalimantan Tengah 74173","jl.Kyai gede, Bangun Jaya, Kec. Balai Riam, Kabupaten Sukamara",KALIMANTAN TENGAH,74173.0,Indonesia,85742867389.0,,,-2.3007513,111.1833482,https://maps.google.com/?cid=0x0:0xad26039324186991,
cafe,Restoran,RM. Dua Putra,"M594+37P, Balai Riam, Kec. Balai Riam, Kabupaten Sukamara, Kalimantan Tengah 74173","Balai Riam, Kec. Balai Riam, Kabupaten Sukamara",KALIMANTAN TENGAH,74173.0,Indonesia,85249022673.0,,,-2.3322753,111.1556899,https://maps.google.com/?cid=0x0:0xc4eb09adaa0e0497,
cafe,cafe,Balai Riam,"Kec. Balai Riam, Kabupaten Sukamara, Kalimantan Tengah","Kabupaten Sukamara, Kalimantan Tengah",KALIMANTAN TENGAH,,Indonesia,,,,-2.3413411,111.1294996,https://maps.google.com/?cid=0x0:0x4d3c35ee012a5b81,
cafe,Toko Roti,"MOLEN,, MARTABAK  TERANG BULAN","P52M+3HJ, Unnamed Road, Bangun Jaya, Kec. Balai Riam, Kabupaten Sukamara, Kalimantan Tengah 74173","Unnamed Road, Bangun Jaya, Kec. Balai Riam, Kabupaten Sukamara",KALIMANTAN TENGAH,74173.0,Indonesia,8125434426.0,,,-2.2997995,111.1838816,https://maps.google.com/?cid=0x0:0x33e21503a67bd67d,
cafe,Restoran,kedai 3bersaudara dawet ireng,"M5GM+RH, Bangun Jaya, Kec. Balai Riam, Kabupaten Sukamara, Kalimantan Tengah","Kabupaten Sukamara, Kalimantan Tengah",KALIMANTAN TENGAH,,Indonesia,82253478530.0,,,-2.3229171,111.1839157,https://maps.google.com/?cid=0x0:0x552fc7af379c2726,
cafe,Kedai Kopi,Air minum kesehatan SUKOAYU,"M5WM+M8C, Unnamed Road, Bangun Jaya, Kec. Balai Riam, Kabupaten Sukamara, Kalimantan Tengah 74173","Unnamed Road, Bangun Jaya, Kec. Balai Riam, Kabupaten Sukamara",KALIMANTAN TENGAH,74173.0,Indonesia,82252086590.0,,,-2.303301,111.1832777,https://maps.google.com/?cid=0x0:0xaecafdb12b809b5d,
cafe,Bar,Tirta Baleri Cafe,"Jl. P. Antasari No.Km 3 5, RW.Bundaran, Burung Sekuba, Kec. Balai Riam, Kabupaten Sukamara, Kalimantan Tengah","Kabupaten Sukamara, Kalimantan Tengah",KALIMANTAN TENGAH,,Indonesia,,,,-2.3231385,111.1848748,https://maps.google.com/?cid=0x0:0xe6156f1c6071d798,
cafe,cafe,Kec. Jelai,"Kabupaten Sukamara, Kalimantan Tengah","Kabupaten Sukamara, Kalimantan Tengah",KALIMANTAN TENGAH,,Indonesia,,,,-2.9859918,110.7376759,https://maps.google.com/?cid=0x0:0x877a89d41ac3d0a6,
cafe,Kafe,Syaina Cafe  Musik Studio,"Jl. H. Dahlan No.Rt 07, Kuala Jelai, Kec. Jelai, Kabupaten Sukamara, Kalimantan Tengah 74171","Kuala Jelai, Kec. Jelai, Kabupaten Sukamara",KALIMANTAN TENGAH,74171.0,Indonesia,,,,-2.9774208,110.7420101,https://maps.google.com/?cid=0x0:0xa6c6c7d6a3671c19,
cafe,Toko bahan makanan,Kualajelai,"3Q29+7R5, Kuala Jelai, Kec. Jelai, Kabupaten Sukamara, Kalimantan Tengah","Kabupaten Sukamara, Kalimantan Tengah",KALIMANTAN TENGAH,,Indonesia,,,,-2.949374,110.7696,https://maps.google.com/?cid=0x0:0x119cb52ad5ad8419,
cafe,Kafe,D'sidang Cafe And Resto,"75G8+3CH, Jl. Tjilik Riwut, Mendawai, Kec. Sukamara, Kabupaten Sukamara, Kalimantan Tengah 74172","Jl. Tjilik Riwut, Mendawai, Kec. Sukamara, Kabupaten Sukamara",KALIMANTAN TENGAH,74172.0,Indonesia,85228807313.0,,,-2.7248217,111.166111,https://maps.google.com/?cid=0x0:0x7922883984325310,
cafe,Hidangan Laut,WARUNG MAKAN ADELIA,"2P7P+8FC, Kuala Jelai, Kec. Jelai, Kabupaten Sukamara, Kalimantan Tengah 74171","Kuala Jelai, Kec. Jelai, Kabupaten Sukamara",KALIMANTAN TENGAH,74171.0,Indonesia,82251241171.0,,,-2.9866842,110.7361352,https://maps.google.com/?cid=0x0:0x37bd7daa05eb4c9,
cafe,Kedai Kopi,Martabak Jelai,"2QQC+2PX, Depan gedung, Kuala Jelai, Kec. Jelai, Kabupaten Sukamara, Kalimantan Tengah 74171","Depan gedung, Kuala Jelai, Kec. Jelai, Kabupaten Sukamara",KALIMANTAN TENGAH,74171.0,Indonesia,82282953114.0,,,-2.9623901,110.7718469,https://maps.google.com/?cid=0x0:0x7a715af93b3a4b93,
cafe,Restoran,Warung Wong Jowo,"rumah ajang ikam/dekat TPI, Jln.M.taher No.RT 07, KAMPU ULUH, Kuala Jelai, Kec. Jelai, Kabupaten Sukamara, Kalimantan Tengah 74171","Jln.M.taher No.RT 07, KAMPU ULUH, Kuala Jelai, Kec. Jelai, Kabupaten Sukamara",KALIMANTAN TENGAH,74171.0,Indonesia,87780493603.0,,,-2.9794284,110.7413024,https://maps.google.com/?cid=0x0:0xe91bfd8de05010b9,
cafe,Restoran,Kiasu Space,"Jl. H. Syamsi, Mendawai, Kec. Sukamara, Kabupaten Sukamara, Kalimantan Tengah 74174","Mendawai, Kec. Sukamara, Kabupaten Sukamara",KALIMANTAN TENGAH,74174.0,Indonesia,82299951745.0,,,-2.7290081,111.1697139,https://maps.google.com/?cid=0x0:0xfc03236e03a3e3bf,
cafe,Area Wi-Fi,Warung voucheran wifi maskuri,"2PCR+6GP, Kuala Jelai, Kec. Jelai, Kabupaten Sukamara, Kalimantan Tengah","Kabupaten Sukamara, Kalimantan Tengah",KALIMANTAN TENGAH,,Indonesia,,,,-2.9794873,110.7412849,https://maps.google.com/?cid=0x0:0x3a97671e9d0abb13,
cafe,Restoran,Warkop Anjang usin,"2P9R+J5G, Kuala Jelai, Kec. Jelai, Kabupaten Sukamara, Kalimantan Tengah 74171","Kuala Jelai, Kec. Jelai, Kabupaten Sukamara",KALIMANTAN TENGAH,74171.0,Indonesia,,,,-2.9809318,110.7404442,https://maps.google.com/?cid=0x0:0x8b16e79c7c812ded,
cafe,Makanan Kecil,Warung Makan Paman Salim,"2P9R+94V, Kuala Jelai, Kec. Jelai, Kabupaten Sukamara, Kalimantan Tengah","Kabupaten Sukamara, Kalimantan Tengah",KALIMANTAN TENGAH,,Indonesia,82154948155.0,,,-2.9815056,110.7402939,https://maps.google.com/?cid=0x0:0x4bd7f3fcc53f1477,
cafe,Kedai Kopi,Sunnartos Cafe,"Sunnartos Cafe, Mendawai, Kec. Sukamara, Kabupaten Sukamara, Kalimantan Tengah 74172","Mendawai, Kec. Sukamara, Kabupaten Sukamara",KALIMANTAN TENGAH,74172.0,Indonesia,82242225293.0,,,-2.7126818,111.1646255,https://maps.google.com/?cid=0x0:0xd8f73802616d7599,
cafe,Kedai Kopi,Warung Nenek Maira,"4V33+3H, Pulau Nibung, Kec. Jelai, Kabupaten Sukamara, Kalimantan Tengah","Kabupaten Sukamara, Kalimantan Tengah",KALIMANTAN TENGAH,,Indonesia,,,,-2.8970047,110.8529245,https://maps.google.com/?cid=0x0:0xfb91a18b0478987c,
cafe,Kafe,ILA cafe,"75M8+3RP, Mendawai, Kec. Sukamara, Kabupaten Sukamara, Kalimantan Tengah 74172","Mendawai, Kec. Sukamara, Kabupaten Sukamara",KALIMANTAN TENGAH,74172.0,Indonesia,,,,-2.7172903,111.1670719,https://maps.google.com/?cid=0x0:0x23961c45057e7b5b,
cafe,Hidangan Laut,Waroeng makan aminah,"2P7P+QM5, Kuala Jelai, Kec. Jelai, Kabupaten Sukamara, Kalimantan Tengah 74171","Kuala Jelai, Kec. Jelai, Kabupaten Sukamara",KALIMANTAN TENGAH,74171.0,Indonesia,,,,-2.9855548,110.7368089,https://maps.google.com/?cid=0x0:0xc96b3f3a980040c6,
cafe,cafe,Best Story Pentol dan Minuman,"2P8Q+MJV, Jalan Husin Hamzah, Kuala Jelai, Kec. Jelai, Kabupaten Sukamara, Kalimantan Tengah","Kabupaten Sukamara, Kalimantan Tengah",KALIMANTAN TENGAH,,Indonesia,,,,-2.9832574,110.7390409,https://maps.google.com/?cid=0x0:0x3537d86f4133a8f3,
cafe,Kedai Kopi,Aldmi Coffee  Eatery,"Jl. M Saleh, Karta Mulia, Kec. Sukamara, Kabupaten Sukamara, Kalimantan Tengah 74172","Karta Mulia, Kec. Sukamara, Kabupaten Sukamara",KALIMANTAN TENGAH,74172.0,Indonesia,82354809165.0,,,-2.7008976,111.1773662,https://maps.google.com/?cid=0x0:0x9c913f3e3cf44479,
cafe,Indonesia,Warung Mba is,"Jl. Husin Hamzah No.RT. 05, Kuala Jelai, Kec. Jelai, Kabupaten Sukamara, Kalimantan Tengah","Kabupaten Sukamara, Kalimantan Tengah",KALIMANTAN TENGAH,,Indonesia,,,,-2.9827923,110.7394265,https://maps.google.com/?cid=0x0:0xb0bb925dc30df289,
cafe,Kedai Kopi,Rumah,"3VV2+8V, Pulau Nibung, Kec. Jelai, Kabupaten Sukamara, Kalimantan Tengah 74171","Pulau Nibung, Kec. Jelai, Kabupaten Sukamara",KALIMANTAN TENGAH,74171.0,Indonesia,,,,-2.9066964,110.8521406,https://maps.google.com/?cid=0x0:0xba952dac72bf2e51,
cafe,Kedai Kopi,Jojie Artspace,"Jl. Prof. DR. Miriam Budiardjo, Budiarjo, Kec. Jagakarsa, Kota Jakarta Selatan, Daerah Khusus Ibukota Jakarta 12640","Budiarjo, Kec. Jagakarsa, Kota Jakarta Selatan",KALIMANTAN TENGAH,12640.0,Indonesia,82211333538.0,,,-6.3510359,106.831298,https://maps.google.com/?cid=0x0:0x6f772d534d186023,
cafe,Kedai Kopi,JALITENG COFFEE,"Jl. Warakas III Gg. 1 No.3 29B, RT.13/RW.4, Warakas, Tanjung Priok, North Jakarta City, Jakarta 14340","RT.13/RW.4, Warakas, Tanjung Priok, North Jakarta City",KALIMANTAN TENGAH,14340.0,Indonesia,89513391744.0,,,-6.1187533,106.8804224,https://maps.google.com/?cid=0x0:0x782d1e817fda9d3b,
cafe,Bar,Ciasem 12,"Jl. Ciasem No.12, Cikini, Kec. Menteng, Kota Jakarta Pusat, Daerah Khusus Ibukota Jakarta 10430","Cikini, Kec. Menteng, Kota Jakarta Pusat",KALIMANTAN TENGAH,10430.0,Indonesia,81110013533.0,,,-6.1940789,106.8414219,https://maps.google.com/?cid=0x0:0xa8bada4414035abe,
cafe,Kedai Kopi,Cafe Liebe Blume,"Rukan New East, Jl. Jkt Garden City Boulevard no. 10, Cakung Tim., Kec. Cakung, Kota Jakarta Timur, Daerah Khusus Ibukota Jakarta 13910","Jl. Jkt Garden City Boulevard no. 10, Cakung Tim., Kec. Cakung, Kota Jakarta Timur",KALIMANTAN TENGAH,13910.0,Indonesia,85282325044.0,,,-6.1715447,106.9587644,https://maps.google.com/?cid=0x0:0xf2bac085a9834da3,
cafe,Dim Sum,JAG'S Kitchen,"Jl. Raya Jagakarsa No.22 6, RT.6/RW.4, Jagakarsa, Kec. Jagakarsa, Kota Jakarta Selatan, Daerah Khusus Ibukota Jakarta 12620","RT.6/RW.4, Jagakarsa, Kec. Jagakarsa, Kota Jakarta Selatan",KALIMANTAN TENGAH,12620.0,Indonesia,2122711487.0,,,-6.3268683,106.8146396,https://maps.google.com/?cid=0x0:0xfff23f54e7517990,
cafe,cafe,Jelami cafe,"9882, Jl. Gading Riviera Raya, RT.10/RW.3, Pegangsaan Dua, Kec. Klp. Gading, Jkt Utara, Daerah Khusus Ibukota Jakarta 14250","Jl. Gading Riviera Raya, RT.10/RW.3, Pegangsaan Dua, Kec. Klp. Gading, Jkt Utara",KALIMANTAN TENGAH,14250.0,Indonesia,,,,-6.1482604,106.9133311,https://maps.google.com/?cid=0x0:0x44a0f7b6a17584cc,
cafe,cafe,Gak jelas,"Jl. Asem No.1, RT.1/RW.6, Kedoya Utara, Kec. Kb. Jeruk, Jakarta, Daerah Khusus Ibukota Jakarta 17063","RT.1/RW.6, Kedoya Utara, Kec. Kb. Jeruk, Jakarta",KALIMANTAN TENGAH,17063.0,Indonesia,,,,-6.1721534,106.7585079,https://maps.google.com/?cid=0x0:0xb01e5216f6d6ece3,
cafe,cafe,Kalimantan Tengah 74171,"Kabupaten Sukamara, Kalimantan Tengah","Kabupaten Sukamara, Kalimantan Tengah",KALIMANTAN TENGAH,,Indonesia,,,,-2.9288777,111.0460407,https://maps.google.com/?cid=0x0:0xdaaca932d5c1b031,
cafe,Kafe,D'sidang Cafe And Resto,"75G8+3CH, Jl. Tjilik Riwut, Mendawai, Kec. Sukamara, Kabupaten Sukamara, Kalimantan Tengah 74172","Jl. Tjilik Riwut, Mendawai, Kec. Sukamara, Kabupaten Sukamara",KALIMANTAN TENGAH,74172.0,Indonesia,85228807313.0,,,-2.7248217,111.166111,https://maps.google.com/?cid=0x0:0x7922883984325310,
cafe,Kafe,Lesehan Ibra Dan Nino,"sei cabang barat rt 5, Sungai Tabuk, Kec. Pantai Lunci, Kabupaten Sukamara, Kalimantan Tengah 74171","Sungai Tabuk, Kec. Pantai Lunci, Kabupaten Sukamara",KALIMANTAN TENGAH,74171.0,Indonesia,85350624830.0,,,-2.9270008,111.1414226,https://maps.google.com/?cid=0x0:0xa3437601f50a3422,
cafe,Hidangan Laut,AL FAZZA TEPI PANTAI,"Jl. Profesor Adi Karya, Sungai Cabang Bar., Kec. Pantai Lunci, Kabupaten Sukamara, Kalimantan Tengah 74171","Sungai Cabang Bar., Kec. Pantai Lunci, Kabupaten Sukamara",KALIMANTAN TENGAH,74171.0,Indonesia,85248396060.0,,,-2.9901415,111.1900852,https://maps.google.com/?cid=0x0:0x5067c2cb81325183,
cafe,Kafe,Lesehan Ibra N Nino,"Sungai Cabang Bar.,Rt.05, Sungai Cabang Bar., Kec. Pantai Lunci, Kabupaten Sukamara, Kalimantan Tengah 74171","Sungai Cabang Bar., Kec. Pantai Lunci, Kabupaten Sukamara",KALIMANTAN TENGAH,74171.0,Indonesia,81254111077.0,,,-2.9904816,111.1798485,https://maps.google.com/?cid=0x0:0x9a03fe6fd1827c24,
cafe,Kafe,Syaina Cafe  Musik Studio,"Jl. H. Dahlan No.Rt 07, Kuala Jelai, Kec. Jelai, Kabupaten Sukamara, Kalimantan Tengah 74171","Kuala Jelai, Kec. Jelai, Kabupaten Sukamara",KALIMANTAN TENGAH,74171.0,Indonesia,,,,-2.9774208,110.7420101,https://maps.google.com/?cid=0x0:0xa6c6c7d6a3671c19,
cafe,Kafe,CAFE  RESTO NG,"Mendawai, RT. 02, Mendawai, Kec. Sukamara, Kabupaten Sukamara, Kalimantan Tengah 74172","RT. 02, Mendawai, Kec. Sukamara, Kabupaten Sukamara",KALIMANTAN TENGAH,74172.0,Indonesia,,,,-2.7238136,111.1632891,https://maps.google.com/?cid=0x0:0x9496f4c1ad010bb8,
cafe,Restoran,Cafe Jimbaran Hill,"75QC+26F, Mendawai, Kec. Sukamara, Kabupaten Sukamara, Kalimantan Tengah 74172","Mendawai, Kec. Sukamara, Kabupaten Sukamara",KALIMANTAN TENGAH,74172.0,Indonesia,,,,-2.7124433,111.1705363,https://maps.google.com/?cid=0x0:0x5bb2d1505572e3b4,
cafe,Kedai Kopi,Sunnartos Cafe,"Sunnartos Cafe, Mendawai, Kec. Sukamara, Kabupaten Sukamara, Kalimantan Tengah 74172","Mendawai, Kec. Sukamara, Kabupaten Sukamara",KALIMANTAN TENGAH,74172.0,Indonesia,82242225293.0,,,-2.7126818,111.1646255,https://maps.google.com/?cid=0x0:0xd8f73802616d7599,
cafe,Kedai Kopi,Argo wilis,"652P+9RJ, Sungai Cabang Bar., Kec. Pantai Lunci, Kabupaten Sukamara, Kalimantan Tengah 74171","Sungai Cabang Bar., Kec. Pantai Lunci, Kabupaten Sukamara",KALIMANTAN TENGAH,74171.0,Indonesia,,,,-2.7990431,111.1870158,https://maps.google.com/?cid=0x0:0x54948529daa3508c,
cafe,Kafe,ALTHA Cafe  Resto,"75QC+36C, Jl. Tjilik Riwut, Mendawai, Kec. Sukamara, Kabupaten Sukamara, Kalimantan Tengah 74172","Jl. Tjilik Riwut, Mendawai, Kec. Sukamara, Kabupaten Sukamara",KALIMANTAN TENGAH,74172.0,Indonesia,,,,-2.712306,111.1705011,https://maps.google.com/?cid=0x0:0x815485d83c81bd9,
cafe,Kafe,ILA cafe,"75M8+3RP, Mendawai, Kec. Sukamara, Kabupaten Sukamara, Kalimantan Tengah 74172","Mendawai, Kec. Sukamara, Kabupaten Sukamara",KALIMANTAN TENGAH,74172.0,Indonesia,,,,-2.7172903,111.1670719,https://maps.google.com/?cid=0x0:0x23961c45057e7b5b,
cafe,Pantai Umum,Pantai Putra Sekawan,"255Q+93, Sungai Cabang Bar., Kec. Pantai Lunci, Kabupaten Sukamara, Kalimantan Tengah","Kabupaten Sukamara, Kalimantan Tengah",KALIMANTAN TENGAH,,Indonesia,,,,-2.9916249,111.1876578,https://maps.google.com/?cid=0x0:0xf3244e46a5d7478b,
cafe,cafe,Kongkow,"75RC+3X9, Unnamed Road, Mendawai, Kec. Sukamara, Kabupaten Sukamara, Kalimantan Tengah 74172","Unnamed Road, Mendawai, Kec. Sukamara, Kabupaten Sukamara",KALIMANTAN TENGAH,74172.0,Indonesia,81521595044.0,,,-2.7098469,111.1724722,https://maps.google.com/?cid=0x0:0xc4a077a2de1a3e29,
cafe,Kafe,Teras Kopi Sukamara,"75P9+MGX, Jln. Ja'is, Mendawai, Kec. Sukamara, Kabupaten Sukamara, Kalimantan Tengah 74172","Jln. Ja'is, Mendawai, Kec. Sukamara, Kabupaten Sukamara",KALIMANTAN TENGAH,74172.0,Indonesia,,,,-2.7132685,111.168873,https://maps.google.com/?cid=0x0:0xacf1fde07aed1ca2,
cafe,Restoran,Kiasu Space,"Jl. H. Syamsi, Mendawai, Kec. Sukamara, Kabupaten Sukamara, Kalimantan Tengah 74174","Mendawai, Kec. Sukamara, Kabupaten Sukamara",KALIMANTAN TENGAH,74174.0,Indonesia,82299951745.0,,,-2.7290081,111.1697139,https://maps.google.com/?cid=0x0:0xfc03236e03a3e3bf,
cafe,Kedai Kopi,Capcin Razqa,"Jl. Reginal No.58, Mendawai, Kec. Sukamara, Kabupaten Sukamara, Kalimantan Tengah 74712","Mendawai, Kec. Sukamara, Kabupaten Sukamara",KALIMANTAN TENGAH,74712.0,Indonesia,81253444005.0,,,-2.7190556,111.1644125,https://maps.google.com/?cid=0x0:0xc5c7b6867ef340e0,
cafe,cafe,Pantai Lunci,"Unnamed Road, 74171, Sungai Pasir, Kec. Pantai Lunci, Kabupaten Sukamara, Kalimantan Tengah 74171","74171, Sungai Pasir, Kec. Pantai Lunci, Kabupaten Sukamara",KALIMANTAN TENGAH,74171.0,Indonesia,85249419902.0,,,-2.9571929,111.2405379,https://maps.google.com/?cid=0x0:0x518558bb6ef2495f,
cafe,cafe,"soraikopi, street coffee","75M9+R5C, Mendawai, Kec. Sukamara, Kabupaten Sukamara, Kalimantan Tengah 74172","Mendawai, Kec. Sukamara, Kabupaten Sukamara",KALIMANTAN TENGAH,74172.0,Indonesia,,,,-2.7153566,111.1679215,https://maps.google.com/?cid=0x0:0x4d2296d2a733c360,
cafe,Restoran,Coffee icha,"Jl. Setia Yakin, Mendawai, Kec. Sukamara, Kabupaten Sukamara, Kalimantan Tengah 74172","Mendawai, Kec. Sukamara, Kabupaten Sukamara",KALIMANTAN TENGAH,74172.0,Indonesia,85348898232.0,,,-2.70763,111.1718117,https://maps.google.com/?cid=0x0:0xcfbe47552ff559df,
cafe,Kedai Kopi,Abdul murad,"37FP+H7R, Unnamed Road, Sungai Pasir, Kec. Pantai Lunci, Kabupaten Sukamara, Kalimantan Tengah 74171","Unnamed Road, Sungai Pasir, Kec. Pantai Lunci, Kabupaten Sukamara",KALIMANTAN TENGAH,74171.0,Indonesia,82251026488.0,,,-2.9260198,111.2856315,https://maps.google.com/?cid=0x0:0x17a6ad4f8e32e138,
cafe,Restoran,Makan seapood tradisional pantai lunci,"Rt07, Sungai Cabang Bar., Kec. Pantai Lunci, Kabupaten Sukamara, Kalimantan Tengah 74171","Sungai Cabang Bar., Kec. Pantai Lunci, Kabupaten Sukamara",KALIMANTAN TENGAH,74171.0,Indonesia,82150574190.0,,,-2.9895744,111.1914049,https://maps.google.com/?cid=0x0:0x3d13c4864cf27c48,
cafe,Dapur Umum,Warung makan Kampoeng Jorong,"Jl.deponegoro No.Rt 06, Sungai Cabang Bar., Kec. Pantai Lunci, Kabupaten Sukamara, Kalimantan Tengah","Kabupaten Sukamara, Kalimantan Tengah",KALIMANTAN TENGAH,,Indonesia,85390181696.0,,,-2.9929716,111.1837767,https://maps.google.com/?cid=0x0:0x216076625890618e,
cafe,Kedai Kopi,Kedai Muzda,"256H+RW7, Jl. Pantai Lunci, Sungai Cabang Bar., Kec. Pantai Lunci, Kabupaten Sukamara, Kalimantan Tengah 74171","Jl. Pantai Lunci, Sungai Cabang Bar., Kec. Pantai Lunci, Kabupaten Sukamara",KALIMANTAN TENGAH,74171.0,Indonesia,85332359050.0,,,-2.9879584,111.1797849,https://maps.google.com/?cid=0x0:0x86aba7185a9d682a,
cafe,Toko bahan makanan,Kualajelai,"3Q29+7R5, Kuala Jelai, Kec. Jelai, Kabupaten Sukamara, Kalimantan Tengah","Kabupaten Sukamara, Kalimantan Tengah",KALIMANTAN TENGAH,,Indonesia,,,,-2.949374,110.7696,https://maps.google.com/?cid=0x0:0x119cb52ad5ad8419,
cafe,cafe,Kalimantan Tengah 74173,Kalimantan Tengah,Kalimantan Tengah,KALIMANTAN TENGAH,,Indonesia,,,,-2.1830119,111.2368084,https://maps.google.com/?cid=0x0:0xfb45b5038030e34d,
cafe,Kedai Kopi,Mini Cafe Nyopee,"P5PJ+XMR, Unnamed Road, Natai Kondang, Kec. Permata Kecubung, Kabupaten Sukamara, Kalimantan Tengah 74173","Unnamed Road, Natai Kondang, Kec. Permata Kecubung, Kabupaten Sukamara",KALIMANTAN TENGAH,74173.0,Indonesia,,,,-2.2625028,111.1816517,https://maps.google.com/?cid=0x0:0xc2ccabb2ec76e2c5,
cafe,Makanan Kecil,Rano,"P6MF+V86, Ajang, Kec. Permata Kecubung, Kabupaten Sukamara, Kalimantan Tengah 74173","Ajang, Kec. Permata Kecubung, Kabupaten Sukamara",KALIMANTAN TENGAH,74173.0,Indonesia,,,,-2.2653451,111.2232595,https://maps.google.com/?cid=0x0:0xf7c3af7760a5ca03,
cafe,Kedai Kopi,Warung OMA NABURJU,"V73J+V2C, Laman Baru, Kec. Permata Kecubung, Kabupaten Sukamara, Kalimantan Tengah 74173","Laman Baru, Kec. Permata Kecubung, Kabupaten Sukamara",KALIMANTAN TENGAH,74173.0,Indonesia,82251722250.0,,,-2.1454852,111.2808394,https://maps.google.com/?cid=0x0:0x6ceac55584b1f044,
cafe,Kedai Kopi,Warung Kopi Faizil,"P5RC+M38, Natai Kondang, Kec. Permata Kecubung, Kabupaten Sukamara, Kalimantan Tengah 74173","Natai Kondang, Kec. Permata Kecubung, Kabupaten Sukamara",KALIMANTAN TENGAH,74173.0,Indonesia,85251654618.0,,,-2.2583306,111.1701926,https://maps.google.com/?cid=0x0:0xf613973a49017608,
cafe,Kafe,Tongkrongan Anti Suki,"P5QJ+X2F, Natai Kondang, Kec. Permata Kecubung, Kabupaten Sukamara, Kalimantan Tengah 74173","Natai Kondang, Kec. Permata Kecubung, Kabupaten Sukamara",KALIMANTAN TENGAH,74173.0,Indonesia,,,,-2.259552,111.1806442,https://maps.google.com/?cid=0x0:0x32ee1a499780a444,
cafe,cafe,Mizu Cafe,"Bangun Jaya, Kec. Balai Riam, Kabupaten Sukamara, Kalimantan Tengah","Kabupaten Sukamara, Kalimantan Tengah",KALIMANTAN TENGAH,,Indonesia,,,,-2.2992751,111.1804855,https://maps.google.com/?cid=0x0:0x878d066426ea5681,
cafe,Tujuan Wisata,BUKIT HOSTPOT,"P5X2+4HW, Nibung Terjun, Kec. Permata Kecubung, Kabupaten Sukamara, Kalimantan Tengah 74173","Nibung Terjun, Kec. Permata Kecubung, Kabupaten Sukamara",KALIMANTAN TENGAH,74173.0,Indonesia,82255099228.0,,,-2.2521277,111.1514654,https://maps.google.com/?cid=0x0:0x3c791013f528b1a7,
cafe,Minimarket,Pasar Natai Kondang Radioservic Nana Sujana,"P5QJ+RW8, Natai Kondang, Kec. Permata Kecubung, Kabupaten Sukamara, Kalimantan Tengah 74173","Natai Kondang, Kec. Permata Kecubung, Kabupaten Sukamara",KALIMANTAN TENGAH,74173.0,Indonesia,81251459754.0,,,-2.2604743,111.182341,https://maps.google.com/?cid=0x0:0x13bc7b7537199b0e,
cafe,cafe,Tlogomulyo,"M59M+MVP, Sekuningan Baru, Kec. Balai Riam, Kabupaten Sukamara, Kalimantan Tengah 74172","Sekuningan Baru, Kec. Balai Riam, Kabupaten Sukamara",KALIMANTAN TENGAH,74172.0,Indonesia,,,,-2.3307812,111.1847081,https://maps.google.com/?cid=0x0:0x94c4512da54354c6,
cafe,cafe,Kec. Permata Kecubung,"Kabupaten Sukamara, Kalimantan Tengah","Kabupaten Sukamara, Kalimantan Tengah",KALIMANTAN TENGAH,,Indonesia,,,,-2.1946076,111.157699,https://maps.google.com/?cid=0x0:0x5913f2f384347b3b,
cafe,Indonesia,Warung Ijo,"V73M+8XX, Laman Baru, Kec. Permata Kecubung, Kabupaten Sukamara, Kalimantan Tengah","Kabupaten Sukamara, Kalimantan Tengah",KALIMANTAN TENGAH,,Indonesia,,,,-2.1466393,111.2849833,https://maps.google.com/?cid=0x0:0xa2f5ed27c1ba900,
cafe,Indonesia,Warung makan km 28 pd miko,"V74G+J3, Laman Baru, Kec. Permata Kecubung, Kabupaten Sukamara, Kalimantan Tengah 74173","Laman Baru, Kec. Permata Kecubung, Kabupaten Sukamara",KALIMANTAN TENGAH,74173.0,Indonesia,,,,-2.1435209,111.275466,https://maps.google.com/?cid=0x0:0x1c64decd91077ae,
cafe,Toko Swalayan,WARUNG MAKAN ANGAH BETINA,"R536+3M, Semantun, Kec. Permata Kecubung, Kabupaten Sukamara, Kalimantan Tengah","Kabupaten Sukamara, Kalimantan Tengah",KALIMANTAN TENGAH,,Indonesia,,,,-2.1973581,111.1616759,https://maps.google.com/?cid=0x0:0x9f52694387f43427,
cafe,Nasi,Kedai Abang Emon,"Q75R+3MC, Unnamed Road, Laman Baru, Permata Kecubung, Sukamara Regency, Central Kalimantan 74172","Unnamed Road, Laman Baru, Permata Kecubung, Sukamara Regency",KALIMANTAN TENGAH,74172.0,Indonesia,,,,-2.2423033,111.2916467,https://maps.google.com/?cid=0x0:0x8b24c5998c1b2205,
cafe,Sarapan,Rumah Makan Mas Pri,"Jl. Kyai Gede No.4, Bangun Jaya, Kec. Balai Riam, Kabupaten Sukamara, Kalimantan Tengah 74173","Bangun Jaya, Kec. Balai Riam, Kabupaten Sukamara",KALIMANTAN TENGAH,74173.0,Indonesia,85293357886.0,,,-2.3001703,111.1834035,https://maps.google.com/?cid=0x0:0x89c985f5fbf0e968,
cafe,Sate,Pakde Warung Nasgor Sp5,"Q4PJ+RRH, Sembikuan, Kec. Permata Kecubung, Kabupaten Sukamara, Kalimantan Tengah 74173","Sembikuan, Kec. Permata Kecubung, Kabupaten Sukamara",KALIMANTAN TENGAH,74173.0,Indonesia,82357749742.0,,,-2.212936,111.132102,https://maps.google.com/?cid=0x0:0x7cb27d101583ca71,
cafe,Penyedia Layanan Internet,Misya Grafitasi Call Sedia Pulsa Elictrik,"Balai Riam, Kec. Balai Riam, Kabupaten Sukamara, Kalimantan Tengah 74173","Kec. Balai Riam, Kabupaten Sukamara",KALIMANTAN TENGAH,74173.0,Indonesia,85751737276.0,,,-2.3313368,111.1523985,https://maps.google.com/?cid=0x0:0x4d45d249e121a183,
cafe,Restoran,kedai 3bersaudara dawet ireng,"M5GM+RH, Bangun Jaya, Kec. Balai Riam, Kabupaten Sukamara, Kalimantan Tengah","Kabupaten Sukamara, Kalimantan Tengah",KALIMANTAN TENGAH,,Indonesia,82253478530.0,,,-2.3229171,111.1839157,https://maps.google.com/?cid=0x0:0x552fc7af379c2726,
cafe,Kafe,Warkop barudakssss,"Q4MJ+CJ8, Sembikuan, Kec. Permata Kecubung, Kabupaten Sukamara, Kalimantan Tengah 74173","Sembikuan, Kec. Permata Kecubung, Kabupaten Sukamara",KALIMANTAN TENGAH,74173.0,Indonesia,,,,-2.2164687,111.1315909,https://maps.google.com/?cid=0x0:0xcab9e3f6e1a6befc,
cafe,Kedai Kopi,BOOTHCIN COFFE,"Sidiro sebelum Pasar Induk/Setelah Bank Kalteng, Jl. Pangeran Antasari, Naga, Kec. Bulik, Kabupaten Lamandau, Kalimantan Tengah 74161","Jl. Pangeran Antasari, Naga, Kec. Bulik, Kabupaten Lamandau",KALIMANTAN TENGAH,74161.0,Indonesia,81345611287.0,,,-2.1931896,111.4459618,https://maps.google.com/?cid=0x0:0xe05d90ee1868acad,
cafe,cafe,The Something Space,"RC6Q+F69, Jl. Batu Batanggui, Nanga Bulik, Kec. Bulik, Kabupaten Lamandau, Kalimantan Tengah 74161","Jl. Batu Batanggui, Nanga Bulik, Kec. Bulik, Kabupaten Lamandau",KALIMANTAN TENGAH,74161.0,Indonesia,,,,-2.1888309,111.4381071,https://maps.google.com/?cid=0x0:0xd06869ae4ef38ce4,
cafe,Kedai Kopi,caffe permata,"8MJ8+MXM, Unnamed Road, Baru, Kec. Arut Sel., Kabupaten Kotawaringin Barat, Kalimantan Tengah 74112","Unnamed Road, Baru, Kec. Arut Sel., Kabupaten Kotawaringin Barat",KALIMANTAN TENGAH,74112.0,Indonesia,,,,-2.6682807,111.6674274,https://maps.google.com/?cid=0x0:0x5c265c341238dc5f,
cafe,cafe,Kalimantan Tengah 74172,"Kabupaten Sukamara, Kalimantan Tengah","Kabupaten Sukamara, Kalimantan Tengah",KALIMANTAN TENGAH,,Indonesia,,,,-2.4783286,111.2368084,https://maps.google.com/?cid=0x0:0xd20d489d27a950d7,
cafe,Kedai Kopi,Aldmi Coffee  Eatery,"Jl. M Saleh, Karta Mulia, Kec. Sukamara, Kabupaten Sukamara, Kalimantan Tengah 74172","Karta Mulia, Kec. Sukamara, Kabupaten Sukamara",KALIMANTAN TENGAH,74172.0,Indonesia,82354809165.0,,,-2.7008976,111.1773662,https://maps.google.com/?cid=0x0:0x9c913f3e3cf44479,
cafe,Kedai Kopi,Sunnartos Cafe,"Sunnartos Cafe, Mendawai, Kec. Sukamara, Kabupaten Sukamara, Kalimantan Tengah 74172","Mendawai, Kec. Sukamara, Kabupaten Sukamara",KALIMANTAN TENGAH,74172.0,Indonesia,82242225293.0,,,-2.7126818,111.1646255,https://maps.google.com/?cid=0x0:0xd8f73802616d7599,
cafe,Restoran,Cafe Jimbaran Hill,"75QC+26F, Mendawai, Kec. Sukamara, Kabupaten Sukamara, Kalimantan Tengah 74172","Mendawai, Kec. Sukamara, Kabupaten Sukamara",KALIMANTAN TENGAH,74172.0,Indonesia,,,,-2.7124433,111.1705363,https://maps.google.com/?cid=0x0:0x5bb2d1505572e3b4,
cafe,Restoran,Cafe Chika,"Jl. Tjilik Riwut Km 1, Mendawai, Kec. Sukamara, Kabupaten Sukamara, Kalimantan Tengah 74172","Mendawai, Kec. Sukamara, Kabupaten Sukamara",KALIMANTAN TENGAH,74172.0,Indonesia,85705268561.0,,,-2.7093589,111.173189,https://maps.google.com/?cid=0x0:0xa8776e5182eddd2e,
cafe,Kafe,ALTHA Cafe  Resto,"75QC+36C, Jl. Tjilik Riwut, Mendawai, Kec. Sukamara, Kabupaten Sukamara, Kalimantan Tengah 74172","Jl. Tjilik Riwut, Mendawai, Kec. Sukamara, Kabupaten Sukamara",KALIMANTAN TENGAH,74172.0,Indonesia,,,,-2.712306,111.1705011,https://maps.google.com/?cid=0x0:0x815485d83c81bd9,
cafe,Kafe,Teras Kopi Sukamara,"75P9+MGX, Jln. Ja'is, Mendawai, Kec. Sukamara, Kabupaten Sukamara, Kalimantan Tengah 74172","Jln. Ja'is, Mendawai, Kec. Sukamara, Kabupaten Sukamara",KALIMANTAN TENGAH,74172.0,Indonesia,,,,-2.7132685,111.168873,https://maps.google.com/?cid=0x0:0xacf1fde07aed1ca2,
cafe,Kafe,D'sidang Cafe And Resto,"75G8+3CH, Jl. Tjilik Riwut, Mendawai, Kec. Sukamara, Kabupaten Sukamara, Kalimantan Tengah 74172","Jl. Tjilik Riwut, Mendawai, Kec. Sukamara, Kabupaten Sukamara",KALIMANTAN TENGAH,74172.0,Indonesia,85228807313.0,,,-2.7248217,111.166111,https://maps.google.com/?cid=0x0:0x7922883984325310,
cafe,Restoran,Kedai Sultan KS 234,"87C3+HXX, Jln Veteran, Karta Mulia, Sukamara, Sukamara Regency, Central Kalimantan 74172","Jln Veteran, Karta Mulia, Sukamara, Sukamara Regency",KALIMANTAN TENGAH,74172.0,Indonesia,82159959395.0,,,-2.6786383,111.2551239,https://maps.google.com/?cid=0x0:0xeff49971b3f81b4c,
cafe,Kafe,Darish Cafe,"Tjilik Riwut, Sukamara, Mendawai, Kec. Sukamara, Kabupaten Sukamara, Kalimantan Tengah 74172","Sukamara, Mendawai, Kec. Sukamara, Kabupaten Sukamara",KALIMANTAN TENGAH,74172.0,Indonesia,81223054000.0,,,-2.7244538,111.1666474,https://maps.google.com/?cid=0x0:0xb23d757b311ca1a4,
cafe,Restoran,Kiasu Space,"Jl. H. Syamsi, Mendawai, Kec. Sukamara, Kabupaten Sukamara, Kalimantan Tengah 74174","Mendawai, Kec. Sukamara, Kabupaten Sukamara",KALIMANTAN TENGAH,74174.0,Indonesia,82299951745.0,,,-2.7290081,111.1697139,https://maps.google.com/?cid=0x0:0xfc03236e03a3e3bf,
cafe,Kedai Kopi,Egois Coffee,"Jl. Tjilik Riwut, Mendawai, Kec. Sukamara, Kabupaten Sukamara, Kalimantan Tengah 74172","Mendawai, Kec. Sukamara, Kabupaten Sukamara",KALIMANTAN TENGAH,74172.0,Indonesia,85754680477.0,,,-2.7051007,111.1751068,https://maps.google.com/?cid=0x0:0xdb1f6eec01a8afad,
cafe,Kafe,ILA cafe,"75M8+3RP, Mendawai, Kec. Sukamara, Kabupaten Sukamara, Kalimantan Tengah 74172","Mendawai, Kec. Sukamara, Kabupaten Sukamara",KALIMANTAN TENGAH,74172.0,Indonesia,,,,-2.7172903,111.1670719,https://maps.google.com/?cid=0x0:0x23961c45057e7b5b,
cafe,Kafe,Cafe Bang Ehen,"Jl. M Saleh, Karta Mulia, Kec. Sukamara, Kabupaten Sukamara, Kalimantan Tengah 74172","Karta Mulia, Kec. Sukamara, Kabupaten Sukamara",KALIMANTAN TENGAH,74172.0,Indonesia,,,,-2.6982019,111.1833254,https://maps.google.com/?cid=0x0:0xb6efa9c023218176,
cafe,cafe,"soraikopi, street coffee","75M9+R5C, Mendawai, Kec. Sukamara, Kabupaten Sukamara, Kalimantan Tengah 74172","Mendawai, Kec. Sukamara, Kabupaten Sukamara",KALIMANTAN TENGAH,74172.0,Indonesia,,,,-2.7153566,111.1679215,https://maps.google.com/?cid=0x0:0x4d2296d2a733c360,
cafe,cafe,Zetdrink coffee street,"75J8+MV2, Mendawai, Kec. Sukamara, Kabupaten Sukamara, Kalimantan Tengah 74172","Mendawai, Kec. Sukamara, Kabupaten Sukamara",KALIMANTAN TENGAH,74172.0,Indonesia,85752138816.0,,,-2.7183512,111.1671402,https://maps.google.com/?cid=0x0:0x22df42a7289ee9a,
cafe,Kafe,CAFE  RESTO NG,"Mendawai, RT. 02, Mendawai, Kec. Sukamara, Kabupaten Sukamara, Kalimantan Tengah 74172","RT. 02, Mendawai, Kec. Sukamara, Kabupaten Sukamara",KALIMANTAN TENGAH,74172.0,Indonesia,,,,-2.7238136,111.1632891,https://maps.google.com/?cid=0x0:0x9496f4c1ad010bb8,
cafe,cafe,RUANG  WAKTU,"Jl. Ja'is, Mendawai, Kec. Sukamara, Kabupaten Sukamara, Kalimantan Tengah 74172","Mendawai, Kec. Sukamara, Kabupaten Sukamara",KALIMANTAN TENGAH,74172.0,Indonesia,,,,-2.7105297,111.1704753,https://maps.google.com/?cid=0x0:0xce4456f1c3c846ca,
cafe,Kafe,Seadanya Kopi,"Jl. Iskandar Kelurahan No.96, RT.012/RW.004, Mendawai, Kec. Sukamara, Kabupaten Sukamara, Kalimantan Tengah 74172","RT.012/RW.004, Mendawai, Kec. Sukamara, Kabupaten Sukamara",KALIMANTAN TENGAH,74172.0,Indonesia,85248445955.0,,,-2.7114591,111.1758913,https://maps.google.com/?cid=0x0:0xdd7082ed8763d625,
cafe,Restoran,Kongkow,"75RC+3X9, Unnamed Road, Mendawai, Kec. Sukamara, Kabupaten Sukamara, Kalimantan Tengah 74172","Unnamed Road, Mendawai, Kec. Sukamara, Kabupaten Sukamara",KALIMANTAN TENGAH,74172.0,Indonesia,81521595044.0,,,-2.7098469,111.1724722,https://maps.google.com/?cid=0x0:0xc4a077a2de1a3e29,
cafe,Restoran,Kafe Mas Wil,"Jl. M Saleh No.72 Kel, Padang, Kec. Sukamara, Kabupaten Sukamara, Kalimantan Tengah 74172","Padang, Kec. Sukamara, Kabupaten Sukamara",KALIMANTAN TENGAH,74172.0,Indonesia,8114400147.0,,,-2.700903,111.176349,https://maps.google.com/?cid=0x0:0x27894a51414d1b11,
cafe,Restoran,Chaca Kitchen,"Jl. Wonosari II No.93, RT.09/RW.03, Mendawai, Kec. Sukamara, Kabupaten Sukamara, Kalimantan Tengah 74172","RT.09/RW.03, Mendawai, Kec. Sukamara, Kabupaten Sukamara",KALIMANTAN TENGAH,74172.0,Indonesia,82250582454.0,,,-2.7140348,111.1711951,https://maps.google.com/?cid=0x0:0x6d9002a51669e24c,
cafe,Kafe,MARTABAK IYUDI,"⛉, Jl. Tjilik Riwut, Mendawai, Kec. Sukamara, Kabupaten Sukamara, Kalimantan Tengah 74172","Jl. Tjilik Riwut, Mendawai, Kec. Sukamara, Kabupaten Sukamara",KALIMANTAN TENGAH,74172.0,Indonesia,,,,-2.712603,111.1703613,https://maps.google.com/?cid=0x0:0xa5919cc0709b7430,
