Category,Real Category,Business Name,Address,City,State,Postal Code,Country,Phone,Email,Website,Latitude,Longitude,Map Link,Details Link
mall,mall,Kalimantan Tengah 74173,Kalimantan Tengah,Kalimantan Tengah,KALIMANTAN TENGAH,,Indonesia,,,,-2.1830119,111.2368084,https://maps.google.com/?cid=0x0:0xfb45b5038030e34d,
mall,Komplek perumahan,Perum. Riam Permai 1,"M5C9+MJM, Jl. Pangeran Antasari, Balai Riam, Kec. Balai Riam, Kabupaten Sukamara, Kalimantan Tengah 74173","Jl. Pangeran Antasari, Balai Riam, Kec. Balai Riam, Kabupaten Sukamara",KALIMANTAN TENGAH,74173.0,Indonesia,85252952777.0,,,-2.3282945,111.169053,https://maps.google.com/?cid=0x0:0xe1877494d6aaa7d1,
mall,Toko,TOKO KHALISA,"Bangun Jaya, Kec. Balai Riam, Kabupaten Sukamara, Kalimantan Tengah 74173","Kec. Balai Riam, Kabupaten Sukamara",KALIMANTAN TENGAH,74173.0,Indonesia,81381233773.0,,,-2.3003277,111.1915739,https://maps.google.com/?cid=0x0:0x81744da96abe7d67,
mall,mall,Kec. Balai Riam,"Kabupaten Sukamara, Kalimantan Tengah","Kabupaten Sukamara, Kalimantan Tengah",KALIMANTAN TENGAH,,Indonesia,,,,-2.3330996,111.1544784,https://maps.google.com/?cid=0x0:0x3c62ae232bff479c,
mall,Pusat Perbelanjaan,TOKO TIARA,"RT 12, Bangun Jaya","Kabupaten Sukamara, Kalimantan Tengah",KALIMANTAN TENGAH,,Indonesia,85828080766.0,,,-2.30047,111.1953083,https://maps.google.com/?cid=0x0:0x4ffcb685851f25e4,
mall,Toko,depo l fitri,"M58P+JC2, Sekuningan Baru, Kec. Balai Riam, Kabupaten Sukamara, Kalimantan Tengah 74172","Sekuningan Baru, Kec. Balai Riam, Kabupaten Sukamara",KALIMANTAN TENGAH,74172.0,Indonesia,85252791039.0,,,-2.3334828,111.1860097,https://maps.google.com/?cid=0x0:0xf3e570dbfd332fc5,
mall,Toko bahan makanan,toko umanuel miga makmur jaya,"M583+2JF, Jl.Dr.Soetomo, Balai Riam, Kec. Balai Riam, Kabupaten Sukamara, Kalimantan Tengah 74173","Jl.Dr.Soetomo, Balai Riam, Kec. Balai Riam, Kabupaten Sukamara",KALIMANTAN TENGAH,74173.0,Indonesia,,,,-2.3349382,111.154033,https://maps.google.com/?cid=0x0:0xac495ffe9f12397e,
mall,Toko,Toko Firdausy  Dany's Aquarium,"M5XM+77X, Bangun Jaya, Kec. Balai Riam, Kabupaten Sukamara, Kalimantan Tengah 74173","Bangun Jaya, Kec. Balai Riam, Kabupaten Sukamara",KALIMANTAN TENGAH,74173.0,Indonesia,85252796260.0,,,-2.3017635,111.1832458,https://maps.google.com/?cid=0x0:0xc9f5cc5b0690f587,
mall,Kantor Pemerintah,Kantor Kecamatan Balai Riam,"M596+42R, Balai Riam, Kec. Balai Riam, Kabupaten Sukamara, Kalimantan Tengah 74173","Balai Riam, Kec. Balai Riam, Kabupaten Sukamara",KALIMANTAN TENGAH,74173.0,Indonesia,,,,-2.3321384,111.1600171,https://maps.google.com/?cid=0x0:0x5e99c634626dc1a9,
mall,Pusat Perbelanjaan,Kios Bu Imas,"P5PC+R22, Natai Kondang, Kec. Permata Kecubung, Kabupaten Sukamara, Kalimantan Tengah 74173","Natai Kondang, Kec. Permata Kecubung, Kabupaten Sukamara",KALIMANTAN TENGAH,74173.0,Indonesia,,,,-2.26299,111.170004,https://maps.google.com/?cid=0x0:0x307e91dd4e33c43d,
mall,Kantor Perusahaan,Ud. ANUGRAH MEBEL NAJIB,"M59P+775, Sekuningan Baru, Kec. Balai Riam, Kabupaten Sukamara, Kalimantan Tengah 74172","Sekuningan Baru, Kec. Balai Riam, Kabupaten Sukamara",KALIMANTAN TENGAH,74172.0,Indonesia,85345163699.0,,,-2.3318568,111.1857266,https://maps.google.com/?cid=0x0:0x9ed5e4b69e421c7a,
mall,Pusat Perbelanjaan,Toko hamdiah,"P5RM+GC6, Natai Kondang, Kec. Permata Kecubung, Kabupaten Sukamara, Kalimantan Tengah 74173","Natai Kondang, Kec. Permata Kecubung, Kabupaten Sukamara",KALIMANTAN TENGAH,74173.0,Indonesia,,,,-2.2587113,111.1835158,https://maps.google.com/?cid=0x0:0x6dccc6665adaddc1,
mall,Lapangan Sepak Bola,Bukit patung balai riam,"P555+724, Bangun Jaya, Kec. Balai Riam, Kabupaten Sukamara, Kalimantan Tengah","Kabupaten Sukamara, Kalimantan Tengah",KALIMANTAN TENGAH,,Indonesia,,,,-2.2918632,111.1575859,https://maps.google.com/?cid=0x0:0x1b1f23bb4fe8e227,
mall,Sekolah Dasar,Bundaran Burung,"M5GM+CMQ, Sekuningan Baru, Kec. Balai Riam, Kabupaten Sukamara, Kalimantan Tengah","Kabupaten Sukamara, Kalimantan Tengah",KALIMANTAN TENGAH,,Indonesia,,,,-2.3239114,111.1842407,https://maps.google.com/?cid=0x0:0xfca51a325d2722c8,
mall,Toko,TOKO SAFRUDIN SP4,"P5XH+MX9, Natai Kondang, Kec. Permata Kecubung, Kabupaten Sukamara, Kalimantan Tengah 74173","Natai Kondang, Kec. Permata Kecubung, Kabupaten Sukamara",KALIMANTAN TENGAH,74173.0,Indonesia,81251864954.0,,,-2.2512952,111.1803235,https://maps.google.com/?cid=0x0:0x900bebf721b6f7ac,
mall,Minimarket,Warung Sukma,"P6MC+XFV, Riam Durian - Penopa, Ajang, Kec. Permata Kecubung, Kabupaten Sukamara, Kalimantan Tengah 74173","Riam Durian - Penopa, Ajang, Kec. Permata Kecubung, Kabupaten Sukamara",KALIMANTAN TENGAH,74173.0,Indonesia,,,,-2.2650094,111.2211754,https://maps.google.com/?cid=0x0:0x392d5b768572fa9e,
mall,Jasa Renovasi,Rumah,"M54P+CFP, Balai Riam, Kec. Balai Riam, Kabupaten Sukamara, Kalimantan Tengah","Kabupaten Sukamara, Kalimantan Tengah",KALIMANTAN TENGAH,,Indonesia,82154818594.0,,,-2.3439222,111.1862138,https://maps.google.com/?cid=0x0:0x61aee4d94f35c322,
mall,Toko,Toko Dunia Tani,"M583+VXM, Jl. Kihajar Dewantara, Balai Riam, Kec. Balai Riam, Kabupaten Sukamara, Kalimantan Tengah 74173","Jl. Kihajar Dewantara, Balai Riam, Kec. Balai Riam, Kabupaten Sukamara",KALIMANTAN TENGAH,74173.0,Indonesia,85252952777.0,,,-2.3327863,111.1549178,https://maps.google.com/?cid=0x0:0x7f208551f150521f,
mall,Dapur Umum,Toko Plastik dan Peralatan Dapur,"Unnamed Road, Natai Kondang, Kec. Permata Kecubung, Kabupaten Sukamara, Kalimantan Tengah 74173","Natai Kondang, Kec. Permata Kecubung, Kabupaten Sukamara",KALIMANTAN TENGAH,74173.0,Indonesia,85393400500.0,,,-2.2561409,111.1804008,https://maps.google.com/?cid=0x0:0x4425420a703b7e11,
mall,mall,Kec. Jelai,"Kabupaten Sukamara, Kalimantan Tengah","Kabupaten Sukamara, Kalimantan Tengah",KALIMANTAN TENGAH,,Indonesia,,,,-2.9859918,110.7376759,https://maps.google.com/?cid=0x0:0x877a89d41ac3d0a6,
mall,Toko sembako pemerintah,Toko Idola,"2P7P+MXH, Kuala Jelai, Kec. Jelai, Kabupaten Sukamara, Kalimantan Tengah 74171","Kuala Jelai, Kec. Jelai, Kabupaten Sukamara",KALIMANTAN TENGAH,74171.0,Indonesia,,,,-2.9858144,110.7374712,https://maps.google.com/?cid=0x0:0xd7ae2710205861b1,
mall,Perusahaan Operasi Pelabuhan,Pelabuhan Kuala Jelai,"2PCR+VGX, Kuala Jelai, Kec. Jelai, Kabupaten Sukamara, Kalimantan Tengah 74171","Kuala Jelai, Kec. Jelai, Kabupaten Sukamara",KALIMANTAN TENGAH,74171.0,Indonesia,,,,-2.9779595,110.741296,https://maps.google.com/?cid=0x0:0xe4f99f0316a1ff45,
mall,Rumah Sakit,UPT PUSKESMAS JELAI,"Kuala Jelai, Kec. Jelai, Kabupaten Sukamara, Kalimantan Tengah 74771","Kec. Jelai, Kabupaten Sukamara",KALIMANTAN TENGAH,74771.0,Indonesia,,,,-2.9783863,110.7428146,https://maps.google.com/?cid=0x0:0x26293a93902a92a7,
mall,Otoritas Pelabuhan,Pelabuhan Perikanan Kuala Jelai,"XW2V+XQW, Jl. Kuala Jelai, Sungai Raja, Kec. Jelai, Kabupaten Sukamara, Kalimantan Tengah 74171","Jl. Kuala Jelai, Sungai Raja, Kec. Jelai, Kabupaten Sukamara",KALIMANTAN TENGAH,74171.0,Indonesia,,,,-3.0475078,110.9444515,https://maps.google.com/?cid=0x0:0x40c8b77117f82099,
mall,Toko,Warung Usu MARTINI,"W2W9+2MQ, Sungai Damar, Kec. Pantai Lunci, Kabupaten Sukamara, Kalimantan Tengah 74171","Sungai Damar, Kec. Pantai Lunci, Kabupaten Sukamara",KALIMANTAN TENGAH,74171.0,Indonesia,,,,-3.0542021,111.0187389,https://maps.google.com/?cid=0x0:0x1a1c283ffd89cabb,
mall,mall,Kuala jelai,"2PFR+FV2, Kuala Jelai, Kec. Jelai, Kabupaten Sukamara, Kalimantan Tengah 74171","Kuala Jelai, Kec. Jelai, Kabupaten Sukamara",KALIMANTAN TENGAH,74171.0,Indonesia,,,,-2.9763627,110.7421769,https://maps.google.com/?cid=0x0:0xd613904f51377fdf,
mall,mall,Toko Baju Felif,"2P7P+JFJ, Kuala Jelai, Kec. Jelai, Kabupaten Sukamara, Kalimantan Tengah 74171","Kuala Jelai, Kec. Jelai, Kabupaten Sukamara",KALIMANTAN TENGAH,74171.0,Indonesia,,,,-2.9859139,110.7361431,https://maps.google.com/?cid=0x0:0x99f173374e301514,
mall,Pusat Perbelanjaan,Jajuli Jorgi Gallery,"JHW7+42C, Jl. Nangka Raya, Parung Panjang, Kec. Parung Panjang, Kabupaten Bogor, Jawa Barat 16360","Jl. Nangka Raya, Parung Panjang, Kec. Parung Panjang, Kabupaten Bogor",KALIMANTAN TENGAH,16360.0,Indonesia,82298888479.0,,,-6.3546913,106.5625222,https://maps.google.com/?cid=0x0:0xa34beaf34025f08d,
mall,Toko,Juri Cell,"Jl. Setapak No.170, Waru, Kec. Parung, Kabupaten Bogor, Jawa Barat 16330","Waru, Kec. Parung, Kabupaten Bogor",KALIMANTAN TENGAH,16330.0,Indonesia,81219947734.0,,,-6.4280809,106.7177052,https://maps.google.com/?cid=0x0:0x8bc6f1149fa32c10,
mall,mall,Kalimantan Tengah 74171,"Kabupaten Sukamara, Kalimantan Tengah","Kabupaten Sukamara, Kalimantan Tengah",KALIMANTAN TENGAH,,Indonesia,,,,-2.9288777,111.0460407,https://maps.google.com/?cid=0x0:0xdaaca932d5c1b031,
mall,Pusat Perbelanjaan,Purnama Mall,"256G+8WG, Bar., Sungai Cabang Bar., Kec. Pantai Lunci, Kabupaten Sukamara, Kalimantan Tengah 74171","Bar., Sungai Cabang Bar., Kec. Pantai Lunci, Kabupaten Sukamara",KALIMANTAN TENGAH,74171.0,Indonesia,85228807313.0,,,-2.9891968,111.177336,https://maps.google.com/?cid=0x0:0x5983e05cb3a72a73,
mall,Kantor Perusahaan,Sidang Gallery,"255J+5FP, Sungai Cabang Bar., Kec. Pantai Lunci, Kabupaten Sukamara, Kalimantan Tengah 74171","Sungai Cabang Bar., Kec. Pantai Lunci, Kabupaten Sukamara",KALIMANTAN TENGAH,74171.0,Indonesia,85228807313.0,,,-2.9920267,111.1812168,https://maps.google.com/?cid=0x0:0xf07e36f2818af7dc,
mall,Toko Swalayan,Toko alfhama sembako,"378H+P59, Unnamed Road, Sungai Pasir, Kec. Pantai Lunci, Kabupaten Sukamara, Kalimantan Tengah 74171","Unnamed Road, Sungai Pasir, Kec. Pantai Lunci, Kabupaten Sukamara",KALIMANTAN TENGAH,74171.0,Indonesia,,,,-2.933214,111.277981,https://maps.google.com/?cid=0x0:0x2d3550ec09ded9b1,
mall,Toko,Warung Usu MARTINI,"W2W9+2MQ, Sungai Damar, Kec. Pantai Lunci, Kabupaten Sukamara, Kalimantan Tengah 74171","Sungai Damar, Kec. Pantai Lunci, Kabupaten Sukamara",KALIMANTAN TENGAH,74171.0,Indonesia,,,,-3.0542021,111.0187389,https://maps.google.com/?cid=0x0:0x1a1c283ffd89cabb,
mall,Toko Pakaian,Samudra Collections,"Jl. Mekar Desa No.55, RT.02, Natai Sedawak, Kec. Sukamara, Kabupaten Sukamara, Kalimantan Tengah 74171","RT.02, Natai Sedawak, Kec. Sukamara, Kabupaten Sukamara",KALIMANTAN TENGAH,74171.0,Indonesia,,,,-2.762616,111.173023,https://maps.google.com/?cid=0x0:0xc071f0da9e8f1f81,
mall,Pantai Umum,Pantai citra,"255P+465, Sungai Cabang Bar., Kec. Pantai Lunci, Kabupaten Sukamara, Kalimantan Tengah 74171","Sungai Cabang Bar., Kec. Pantai Lunci, Kabupaten Sukamara",KALIMANTAN TENGAH,74171.0,Indonesia,,,,-2.9922293,111.1856227,https://maps.google.com/?cid=0x0:0x1b551dcf79c13d28,
mall,Toko bahan makanan,Enjoy maer,"75QC+R6F, Gg. Sawo, Mendawai, Kec. Sukamara, Kabupaten Sukamara, Kalimantan Tengah 74172","Gg. Sawo, Mendawai, Kec. Sukamara, Kabupaten Sukamara",KALIMANTAN TENGAH,74172.0,Indonesia,85249277004.0,,,-2.7104376,111.1705555,https://maps.google.com/?cid=0x0:0x80755d1f6b4af084,
mall,Toko Pakaian,Na_fashionstore.skm,"75WF+J49, Padang, Kec. Sukamara, Kabupaten Sukamara, Kalimantan Tengah 74172","Padang, Kec. Sukamara, Kabupaten Sukamara",KALIMANTAN TENGAH,74172.0,Indonesia,81251764717.0,,,-2.703466,111.1728638,https://maps.google.com/?cid=0x0:0x56661e611c823936,
mall,Tujuan Wisata,Pantai Anugerah Sukamara,"X323+JM2, Sungai Tabuk, Kec. Jelai, Kabupaten Sukamara, Kalimantan Tengah 74171","Sungai Tabuk, Kec. Jelai, Kabupaten Sukamara",KALIMANTAN TENGAH,74171.0,Indonesia,,,,-3.0484875,111.0541395,https://maps.google.com/?cid=0x0:0xafade0ad541de712,
mall,Pusat Perbelanjaan,Ana Tamban Olshop,"Jl. Setia Yakin, Mendawai, Kec. Sukamara, Kabupaten Sukamara, Kalimantan Tengah 74172","Mendawai, Kec. Sukamara, Kabupaten Sukamara",KALIMANTAN TENGAH,74172.0,Indonesia,81349295011.0,,,-2.7147425,111.1654171,https://maps.google.com/?cid=0x0:0xdf376588dcd5fa04,
mall,Pantai Umum,PANTAI ANUGERAH,"X492+XCM, Jl. Profesor Adi Karya, Sungai Cabang Bar., Kec. Pantai Lunci, Kabupaten Sukamara, Kalimantan Tengah 74171","Jl. Profesor Adi Karya, Sungai Cabang Bar., Kec. Pantai Lunci, Kabupaten Sukamara",KALIMANTAN TENGAH,74171.0,Indonesia,87835385391.0,,,-3.0300347,111.1010583,https://maps.google.com/?cid=0x0:0x73f28380b3386124,
mall,Pusat Perbelanjaan,HappyShop Sukamara,"Jl. Cakra Adiwijaya, Mendawai, Kec. Sukamara, Kabupaten Sukamara, Kalimantan Tengah 74172","Mendawai, Kec. Sukamara, Kabupaten Sukamara",KALIMANTAN TENGAH,74172.0,Indonesia,81528879133.0,,,-2.709033,111.1687428,https://maps.google.com/?cid=0x0:0xb4db4e237ed917cc,
mall,Kios,Hendrys ikh_one olshop,"75G6+JW7, Jl.nazir, Mendawai, Kec. Sukamara, Kabupaten Sukamara, Kalimantan Tengah 74172","Jl.nazir, Mendawai, Kec. Sukamara, Kabupaten Sukamara",KALIMANTAN TENGAH,74172.0,Indonesia,85349841980.0,,,-2.7234732,111.1622879,https://maps.google.com/?cid=0x0:0x4a973ce18ccb036,
mall,Toko Makanan,Toko Oleh oleh Khas Sukamara,"75VC+9HG, Unnamed Road, Mendawai, Kec. Sukamara, Kabupaten Sukamara, Kalimantan Tengah 74172","Unnamed Road, Mendawai, Kec. Sukamara, Kabupaten Sukamara",KALIMANTAN TENGAH,74172.0,Indonesia,85640538886.0,,,-2.7065675,111.1714556,https://maps.google.com/?cid=0x0:0x4cd57633bb240fe7,
mall,Pantai Umum,Pantai Tanjung Nipah,"WWWR+HMR, Sungai Raja, Kec. Jelai, Kabupaten Sukamara, Kalimantan Tengah","Kabupaten Sukamara, Kalimantan Tengah",KALIMANTAN TENGAH,,Indonesia,,,,-3.0535065,110.941653,https://maps.google.com/?cid=0x0:0x6af469fcdd91b4d9,
mall,Toko Perlengkapan Olahraga,Solo Soccer Sport,"Jl. Makmur Jalil No.71, Mendawai, Kec. Sukamara, Kabupaten Sukamara, Kalimantan Tengah 74172","Mendawai, Kec. Sukamara, Kabupaten Sukamara",KALIMANTAN TENGAH,74172.0,Indonesia,85654038446.0,,,-2.7212502,111.1678581,https://maps.google.com/?cid=0x0:0xbb6320e86f7c5a8f,
mall,Toko umum,Kios Bu Indah,"65V9+87M, Jl. Tjilik Riwut, Natai Sedawak, Kec. Sukamara, Kabupaten Sukamara, Kalimantan Tengah 74171","Jl. Tjilik Riwut, Natai Sedawak, Kec. Sukamara, Kabupaten Sukamara",KALIMANTAN TENGAH,74171.0,Indonesia,,,,-2.7566655,111.1681584,https://maps.google.com/?cid=0x0:0x929f1622c1901743,
mall,,Sumber Makmur,"Tjilik Riwut Komp Ruko 17 A, Mendawai, Kec. Sukamara, Kabupaten Sukamara, Kalimantan Tengah 74172","Mendawai, Kec. Sukamara, Kabupaten Sukamara",KALIMANTAN TENGAH,74172.0,Indonesia,81255877837.0,,,-2.7108224,111.1721319,https://maps.google.com/?cid=0x0:0x17b605bff2c060a5,
mall,Toko Mebel,Meubel Haider,"75RH+R3V, Jl. Pelita, Pudu, Kec. Sukamara, Kabupaten Sukamara, Kalimantan Tengah 74172","Jl. Pelita, Pudu, Kec. Sukamara, Kabupaten Sukamara",KALIMANTAN TENGAH,74172.0,Indonesia,,,,-2.7078817,111.1776639,https://maps.google.com/?cid=0x0:0x83f4be55132fb559,
mall,mall,Pantai Lunci,"Unnamed Road, 74171, Sungai Pasir, Kec. Pantai Lunci, Kabupaten Sukamara, Kalimantan Tengah 74171","74171, Sungai Pasir, Kec. Pantai Lunci, Kabupaten Sukamara",KALIMANTAN TENGAH,74171.0,Indonesia,85249419902.0,,,-2.9571929,111.2405379,https://maps.google.com/?cid=0x0:0x518558bb6ef2495f,
mall,Toko bahan makanan,Toko Pak DHE,"75VC+7JJ, Jl. Setia Yakin, Mendawai, Kec. Sukamara, Kabupaten Sukamara, Kalimantan Tengah 74172","Jl. Setia Yakin, Mendawai, Kec. Sukamara, Kabupaten Sukamara",KALIMANTAN TENGAH,74172.0,Indonesia,82253698321.0,,,-2.7067979,111.1715078,https://maps.google.com/?cid=0x0:0xdef8c9bc0ddcebd3,
mall,mall,Kalimantan Tengah 74173,Kalimantan Tengah,Kalimantan Tengah,KALIMANTAN TENGAH,,Indonesia,,,,-2.1830119,111.2368084,https://maps.google.com/?cid=0x0:0xfb45b5038030e34d,
mall,mall,Kec. Permata Kecubung,"Kabupaten Sukamara, Kalimantan Tengah","Kabupaten Sukamara, Kalimantan Tengah",KALIMANTAN TENGAH,,Indonesia,,,,-2.1946076,111.157699,https://maps.google.com/?cid=0x0:0x5913f2f384347b3b,
mall,Pusat Perbelanjaan,Kios Bu Imas,"P5PC+R22, Natai Kondang, Kec. Permata Kecubung, Kabupaten Sukamara, Kalimantan Tengah 74173","Natai Kondang, Kec. Permata Kecubung, Kabupaten Sukamara",KALIMANTAN TENGAH,74173.0,Indonesia,,,,-2.26299,111.170004,https://maps.google.com/?cid=0x0:0x307e91dd4e33c43d,
mall,Komplek perumahan,Perum. Riam Permai 1,"M5C9+MJM, Jl. Pangeran Antasari, Balai Riam, Kec. Balai Riam, Kabupaten Sukamara, Kalimantan Tengah 74173","Jl. Pangeran Antasari, Balai Riam, Kec. Balai Riam, Kabupaten Sukamara",KALIMANTAN TENGAH,74173.0,Indonesia,85252952777.0,,,-2.3282945,111.169053,https://maps.google.com/?cid=0x0:0xe1877494d6aaa7d1,
mall,Toko,TOKO SAFRUDIN SP4,"P5XH+MX9, Natai Kondang, Kec. Permata Kecubung, Kabupaten Sukamara, Kalimantan Tengah 74173","Natai Kondang, Kec. Permata Kecubung, Kabupaten Sukamara",KALIMANTAN TENGAH,74173.0,Indonesia,81251864954.0,,,-2.2512952,111.1803235,https://maps.google.com/?cid=0x0:0x900bebf721b6f7ac,
mall,Minimarket,Warung Sukma,"P6MC+XFV, Riam Durian - Penopa, Ajang, Kec. Permata Kecubung, Kabupaten Sukamara, Kalimantan Tengah 74173","Riam Durian - Penopa, Ajang, Kec. Permata Kecubung, Kabupaten Sukamara",KALIMANTAN TENGAH,74173.0,Indonesia,,,,-2.2650094,111.2211754,https://maps.google.com/?cid=0x0:0x392d5b768572fa9e,
mall,Dapur Umum,Toko Plastik dan Peralatan Dapur,"Unnamed Road, Natai Kondang, Kec. Permata Kecubung, Kabupaten Sukamara, Kalimantan Tengah 74173","Natai Kondang, Kec. Permata Kecubung, Kabupaten Sukamara",KALIMANTAN TENGAH,74173.0,Indonesia,85393400500.0,,,-2.2561409,111.1804008,https://maps.google.com/?cid=0x0:0x4425420a703b7e11,
mall,Toko,depo l fitri,"M58P+JC2, Sekuningan Baru, Kec. Balai Riam, Kabupaten Sukamara, Kalimantan Tengah 74172","Sekuningan Baru, Kec. Balai Riam, Kabupaten Sukamara",KALIMANTAN TENGAH,74172.0,Indonesia,85252791039.0,,,-2.3334828,111.1860097,https://maps.google.com/?cid=0x0:0xf3e570dbfd332fc5,
mall,Toko bahan makanan,toko umanuel miga makmur jaya,"M583+2JF, Jl.Dr.Soetomo, Balai Riam, Kec. Balai Riam, Kabupaten Sukamara, Kalimantan Tengah 74173","Jl.Dr.Soetomo, Balai Riam, Kec. Balai Riam, Kabupaten Sukamara",KALIMANTAN TENGAH,74173.0,Indonesia,,,,-2.3349382,111.154033,https://maps.google.com/?cid=0x0:0xac495ffe9f12397e,
mall,Toko,Toko Firdausy  Dany's Aquarium,"M5XM+77X, Bangun Jaya, Kec. Balai Riam, Kabupaten Sukamara, Kalimantan Tengah 74173","Bangun Jaya, Kec. Balai Riam, Kabupaten Sukamara",KALIMANTAN TENGAH,74173.0,Indonesia,85252796260.0,,,-2.3017635,111.1832458,https://maps.google.com/?cid=0x0:0xc9f5cc5b0690f587,
mall,Toko,TOKO KHALISA,"Bangun Jaya, Kec. Balai Riam, Kabupaten Sukamara, Kalimantan Tengah 74173","Kec. Balai Riam, Kabupaten Sukamara",KALIMANTAN TENGAH,74173.0,Indonesia,81381233773.0,,,-2.3003277,111.1915739,https://maps.google.com/?cid=0x0:0x81744da96abe7d67,
mall,Kantor Perusahaan,Ud. ANUGRAH MEBEL NAJIB,"M59P+775, Sekuningan Baru, Kec. Balai Riam, Kabupaten Sukamara, Kalimantan Tengah 74172","Sekuningan Baru, Kec. Balai Riam, Kabupaten Sukamara",KALIMANTAN TENGAH,74172.0,Indonesia,85345163699.0,,,-2.3318568,111.1857266,https://maps.google.com/?cid=0x0:0x9ed5e4b69e421c7a,
mall,Pusat Perbelanjaan,TOKO TIARA,"RT 12, Bangun Jaya","Kabupaten Sukamara, Kalimantan Tengah",KALIMANTAN TENGAH,,Indonesia,85828080766.0,,,-2.30047,111.1953083,https://maps.google.com/?cid=0x0:0x4ffcb685851f25e4,
mall,mall,Permata mart,"P6G8+442, Ajang, Kec. Permata Kecubung, Kabupaten Sukamara, Kalimantan Tengah 74173","Ajang, Kec. Permata Kecubung, Kabupaten Sukamara",KALIMANTAN TENGAH,74173.0,Indonesia,,,,-2.2747281,111.2152571,https://maps.google.com/?cid=0x0:0xc913b91d32e23ee5,
mall,mall,Permata fashion,"P6MC+4J7, Riam Durian - Penopa, Ajang, Kec. Permata Kecubung, Kabupaten Sukamara, Kalimantan Tengah 74173","Riam Durian - Penopa, Ajang, Kec. Permata Kecubung, Kabupaten Sukamara",KALIMANTAN TENGAH,74173.0,Indonesia,,,,-2.2672138,111.2215603,https://maps.google.com/?cid=0x0:0x68ee46b5abcef9e5,
mall,mall,Fg Store,"P5WJ+Q6V Fg strore, Natai Kondang, Kec. Permata Kecubung, Kabupaten Sukamara, Kalimantan Tengah 74173","Natai Kondang, Kec. Permata Kecubung, Kabupaten Sukamara",KALIMANTAN TENGAH,74173.0,Indonesia,,,,-2.2530192,111.1805366,https://maps.google.com/?cid=0x0:0xad46cc08034563be,
mall,Toko Suvenir,Toko permata kecubung arrahman,"8JGM+79X, Raja, Kec. Arut Sel., Kabupaten Kotawaringin Barat, Kalimantan Tengah 74112","Raja, Kec. Arut Sel., Kabupaten Kotawaringin Barat",KALIMANTAN TENGAH,74112.0,Indonesia,,,,-2.674251,111.6334708,https://maps.google.com/?cid=0x0:0x34c2491c6ee66206,
mall,mall,Kalimantan Tengah 74172,"Kabupaten Sukamara, Kalimantan Tengah","Kabupaten Sukamara, Kalimantan Tengah",KALIMANTAN TENGAH,,Indonesia,,,,-2.4783286,111.2368084,https://maps.google.com/?cid=0x0:0xd20d489d27a950d7,
mall,Toko Makanan,Toko Oleh oleh Khas Sukamara,"75VC+9HG, Unnamed Road, Mendawai, Kec. Sukamara, Kabupaten Sukamara, Kalimantan Tengah 74172","Unnamed Road, Mendawai, Kec. Sukamara, Kabupaten Sukamara",KALIMANTAN TENGAH,74172.0,Indonesia,85640538886.0,,,-2.7065675,111.1714556,https://maps.google.com/?cid=0x0:0x4cd57633bb240fe7,
mall,Pusat Perbelanjaan,HappyShop Sukamara,"Jl. Cakra Adiwijaya, Mendawai, Kec. Sukamara, Kabupaten Sukamara, Kalimantan Tengah 74172","Mendawai, Kec. Sukamara, Kabupaten Sukamara",KALIMANTAN TENGAH,74172.0,Indonesia,81528879133.0,,,-2.709033,111.1687428,https://maps.google.com/?cid=0x0:0xb4db4e237ed917cc,
mall,Toko Mebel,Meubel Haider,"75RH+R3V, Jl. Pelita, Pudu, Kec. Sukamara, Kabupaten Sukamara, Kalimantan Tengah 74172","Jl. Pelita, Pudu, Kec. Sukamara, Kabupaten Sukamara",KALIMANTAN TENGAH,74172.0,Indonesia,,,,-2.7078817,111.1776639,https://maps.google.com/?cid=0x0:0x83f4be55132fb559,
mall,Toko bahan makanan,Toko Pak DHE,"75VC+7JJ, Jl. Setia Yakin, Mendawai, Kec. Sukamara, Kabupaten Sukamara, Kalimantan Tengah 74172","Jl. Setia Yakin, Mendawai, Kec. Sukamara, Kabupaten Sukamara",KALIMANTAN TENGAH,74172.0,Indonesia,82253698321.0,,,-2.7067979,111.1715078,https://maps.google.com/?cid=0x0:0xdef8c9bc0ddcebd3,
mall,Toko Perlengkapan Olahraga,Solo Soccer Sport,"Jl. Makmur Jalil No.71, Mendawai, Kec. Sukamara, Kabupaten Sukamara, Kalimantan Tengah 74172","Mendawai, Kec. Sukamara, Kabupaten Sukamara",KALIMANTAN TENGAH,74172.0,Indonesia,85654038446.0,,,-2.7212502,111.1678581,https://maps.google.com/?cid=0x0:0xbb6320e86f7c5a8f,
mall,Toko,depo l fitri,"M58P+JC2, Sekuningan Baru, Kec. Balai Riam, Kabupaten Sukamara, Kalimantan Tengah 74172","Sekuningan Baru, Kec. Balai Riam, Kabupaten Sukamara",KALIMANTAN TENGAH,74172.0,Indonesia,85252791039.0,,,-2.3334828,111.1860097,https://maps.google.com/?cid=0x0:0xf3e570dbfd332fc5,
mall,Toko bahan makanan,Enjoy maer,"75QC+R6F, Gg. Sawo, Mendawai, Kec. Sukamara, Kabupaten Sukamara, Kalimantan Tengah 74172","Gg. Sawo, Mendawai, Kec. Sukamara, Kabupaten Sukamara",KALIMANTAN TENGAH,74172.0,Indonesia,85249277004.0,,,-2.7104376,111.1705555,https://maps.google.com/?cid=0x0:0x80755d1f6b4af084,
mall,Toko Pakaian,Na_fashionstore.skm,"75WF+J49, Padang, Kec. Sukamara, Kabupaten Sukamara, Kalimantan Tengah 74172","Padang, Kec. Sukamara, Kabupaten Sukamara",KALIMANTAN TENGAH,74172.0,Indonesia,81251764717.0,,,-2.703466,111.1728638,https://maps.google.com/?cid=0x0:0x56661e611c823936,
mall,Pusat Perbelanjaan,Toko Pujiah AL Isroni,"87Q6+JRM, Karta Mulia, Kec. Sukamara, Kabupaten Sukamara, Kalimantan Tengah 74172","Karta Mulia, Kec. Sukamara, Kabupaten Sukamara",KALIMANTAN TENGAH,74172.0,Indonesia,81254232098.0,,,-2.6609168,111.262059,https://maps.google.com/?cid=0x0:0x1a914fe49ef0e7b9,
mall,Pusat Perbelanjaan,AMANAH STORE 27,"87J6+9HV, Karta Mulia, Kec. Sukamara, Kabupaten Sukamara, Kalimantan Tengah 74172","Karta Mulia, Kec. Sukamara, Kabupaten Sukamara",KALIMANTAN TENGAH,74172.0,Indonesia,85654008924.0,,,-2.669013,111.2614266,https://maps.google.com/?cid=0x0:0x9ed01f534d6c54fc,
mall,Toko,Toko Ayu Azan,"Padang, Kec. Sukamara, Kabupaten Sukamara, Kalimantan Tengah 74172","Kec. Sukamara, Kabupaten Sukamara",KALIMANTAN TENGAH,74172.0,Indonesia,,,,-2.7045318,111.1712538,https://maps.google.com/?cid=0x0:0x7a3574a07cee107e,
mall,,Sumber Makmur,"Tjilik Riwut Komp Ruko 17 A, Mendawai, Kec. Sukamara, Kabupaten Sukamara, Kalimantan Tengah 74172","Mendawai, Kec. Sukamara, Kabupaten Sukamara",KALIMANTAN TENGAH,74172.0,Indonesia,81255877837.0,,,-2.7108224,111.1721319,https://maps.google.com/?cid=0x0:0x17b605bff2c060a5,
mall,Pusat Perbelanjaan,Toko pingkana al santo senggora,"87X2+R4W, Karta Mulia, Kec. Sukamara, Kabupaten Sukamara, Kalimantan Tengah 74172","Karta Mulia, Kec. Sukamara, Kabupaten Sukamara",KALIMANTAN TENGAH,74172.0,Indonesia,,,,-2.6503984,111.2504393,https://maps.google.com/?cid=0x0:0x6269160b8f921893,
mall,Toko Pakaian,Samudra Collections,"Jl. Mekar Desa No.55, RT.02, Natai Sedawak, Kec. Sukamara, Kabupaten Sukamara, Kalimantan Tengah 74171","RT.02, Natai Sedawak, Kec. Sukamara, Kabupaten Sukamara",KALIMANTAN TENGAH,74171.0,Indonesia,,,,-2.762616,111.173023,https://maps.google.com/?cid=0x0:0xc071f0da9e8f1f81,
mall,Pusat Perbelanjaan,TOKO TIA NANDA,"87H6+HJR, Unnamed Road, Karta Mulia, Kec. Sukamara, Kabupaten Sukamara, Kalimantan Tengah 74172","Unnamed Road, Karta Mulia, Kec. Sukamara, Kabupaten Sukamara",KALIMANTAN TENGAH,74172.0,Indonesia,,,,-2.6710097,111.2615004,https://maps.google.com/?cid=0x0:0xa91c964461dfc7de,
mall,Komplek perumahan,Perum. Riam Permai 1,"M5C9+MJM, Jl. Pangeran Antasari, Balai Riam, Kec. Balai Riam, Kabupaten Sukamara, Kalimantan Tengah 74173","Jl. Pangeran Antasari, Balai Riam, Kec. Balai Riam, Kabupaten Sukamara",KALIMANTAN TENGAH,74173.0,Indonesia,85252952777.0,,,-2.3282945,111.169053,https://maps.google.com/?cid=0x0:0xe1877494d6aaa7d1,
mall,Pusat Perbelanjaan,TOKO TIARA,"RT 12, Bangun Jaya","Kabupaten Sukamara, Kalimantan Tengah",KALIMANTAN TENGAH,,Indonesia,85828080766.0,,,-2.30047,111.1953083,https://maps.google.com/?cid=0x0:0x4ffcb685851f25e4,
mall,Lapangan Atletik,Lapangan Mini Sukamara,"75G8+H83, Mendawai, Kec. Sukamara, Kabupaten Sukamara, Kalimantan Tengah 74172","Mendawai, Kec. Sukamara, Kabupaten Sukamara",KALIMANTAN TENGAH,74172.0,Indonesia,,,,-2.7236162,111.1658072,https://maps.google.com/?cid=0x0:0xa0b20fc95e426438,
mall,Minimarket,Toko Mama Indah Hafsah,"75QC+FJF, Mendawai, Kec. Sukamara, Kabupaten Sukamara, Kalimantan Tengah 74172","Mendawai, Kec. Sukamara, Kabupaten Sukamara",KALIMANTAN TENGAH,74172.0,Indonesia,85866828492.0,,,-2.7113124,111.1715351,https://maps.google.com/?cid=0x0:0x7a11e4a5922173f8,
supermarket,supermarket,Kalimantan Tengah 74173,Kalimantan Tengah,Kalimantan Tengah,KALIMANTAN TENGAH,,Indonesia,,,,-2.1830119,111.2368084,https://maps.google.com/?cid=0x0:0xfb45b5038030e34d,
supermarket,Toko Swalayan,GADA MART,"M5XM+W96, Unnamed Road, Bangun Jaya, Kec. Balai Riam, Kabupaten Sukamara, Kalimantan Tengah 74173","Unnamed Road, Bangun Jaya, Kec. Balai Riam, Kabupaten Sukamara",KALIMANTAN TENGAH,74173.0,Indonesia,,,,-2.3002237,111.1834011,https://maps.google.com/?cid=0x0:0x625d000707f8b9f7,
supermarket,Toko Swalayan,Toko Sumber Rejeki,"Unnamed Road, Sekuningan Baru, Kec. Balai Riam, Kabupaten Sukamara, Kalimantan Tengah 74172","Sekuningan Baru, Kec. Balai Riam, Kabupaten Sukamara",KALIMANTAN TENGAH,74172.0,Indonesia,,,,-2.3369677,111.1870637,https://maps.google.com/?cid=0x0:0xe6e5e09556b61a48,
supermarket,Supermarket Diskon,Toko Difa,"M5XM+76G, Unnamed Road, Bangun Jaya, Kec. Balai Riam, Kabupaten Sukamara, Kalimantan Tengah 74173","Unnamed Road, Bangun Jaya, Kec. Balai Riam, Kabupaten Sukamara",KALIMANTAN TENGAH,74173.0,Indonesia,,,,-2.301819,111.183063,https://maps.google.com/?cid=0x0:0xf75e1167e8da3975,
supermarket,Toko bahan makanan,Fresh In. Sayur,"Jl. Kyai gede No.04/01, Bangun Jaya, Kec. Balai Riam, Kabupaten Sukamara, Kalimantan Tengah 71480","Bangun Jaya, Kec. Balai Riam, Kabupaten Sukamara",KALIMANTAN TENGAH,71480.0,Indonesia,85726915374.0,,,-2.3038826,111.1833151,https://maps.google.com/?cid=0x0:0x4b49bd7949019f2b,
supermarket,Toko Swalayan,Toko Arsa,"Unnamed Road, Sekuningan Baru, Kec. Balai Riam, Kabupaten Sukamara, Kalimantan Tengah 74172","Sekuningan Baru, Kec. Balai Riam, Kabupaten Sukamara",KALIMANTAN TENGAH,74172.0,Indonesia,8222145515.0,,,-2.3397506,111.1877561,https://maps.google.com/?cid=0x0:0x4939bb6615ce624a,
supermarket,Toko bahan makanan,PT timbang bayar,"Jl. Langsat No.1, Bukit Sungkai, Kec. Balai Riam, Kabupaten Sukamara, Kalimantan Tengah 74172","Bukit Sungkai, Kec. Balai Riam, Kabupaten Sukamara",KALIMANTAN TENGAH,74172.0,Indonesia,85269783169.0,,,-2.3402385,111.2092609,https://maps.google.com/?cid=0x0:0x697b7036fe0aa0d9,
supermarket,Toko,Toko Farella,"Q4QJ+QQ4, Sembikuan, Kec. Permata Kecubung, Kabupaten Sukamara, Kalimantan Tengah 74173","Sembikuan, Kec. Permata Kecubung, Kabupaten Sukamara",KALIMANTAN TENGAH,74173.0,Indonesia,,,,-2.2106083,111.1319379,https://maps.google.com/?cid=0x0:0x3a9763cd0a4bf93c,
supermarket,Brunch,Warung Mak Angga,"Unnamed Rd, Permata Kecubung, Kabupaten Sukamara, Kalimantan Tengah 74173, Natai Kondang, Kec. Permata Kecubung, Kabupaten Sukamara, Kalimantan Tengah 74173","Permata Kecubung, Kabupaten Sukamara, Kalimantan Tengah",KALIMANTAN TENGAH,74173.0,Indonesia,85651115312.0,,,-2.2540919,111.1806873,https://maps.google.com/?cid=0x0:0x11516f333b9af5b6,
supermarket,Toko Swalayan,Toko Aice Pak M.Jen Allain,"Q4JJ+2HX, Sembikuan, Kec. Permata Kecubung, Kabupaten Sukamara, Kalimantan Tengah 74173","Sembikuan, Kec. Permata Kecubung, Kabupaten Sukamara",KALIMANTAN TENGAH,74173.0,Indonesia,,,,-2.21989,111.1314855,https://maps.google.com/?cid=0x0:0x60167e3f630e7d15,
supermarket,Toko Swalayan,Toko sembako Edi Sp 1,"M655+GH9, Bukit Sungkai, Kec. Balai Riam, Kabupaten Sukamara, Kalimantan Tengah","Kabupaten Sukamara, Kalimantan Tengah",KALIMANTAN TENGAH,,Indonesia,85754728592.0,,,-2.3412045,111.2089924,https://maps.google.com/?cid=0x0:0x8730f6433cd9cbea,
supermarket,supermarket,Kec. Jelai,"Kabupaten Sukamara, Kalimantan Tengah","Kabupaten Sukamara, Kalimantan Tengah",KALIMANTAN TENGAH,,Indonesia,,,,-2.9859918,110.7376759,https://maps.google.com/?cid=0x0:0x877a89d41ac3d0a6,
supermarket,Toko sembako pemerintah,Toko Idola,"2P7P+MXH, Kuala Jelai, Kec. Jelai, Kabupaten Sukamara, Kalimantan Tengah 74171","Kuala Jelai, Kec. Jelai, Kabupaten Sukamara",KALIMANTAN TENGAH,74171.0,Indonesia,,,,-2.9858144,110.7374712,https://maps.google.com/?cid=0x0:0xd7ae2710205861b1,
supermarket,Toko Swalayan,Ginanfi Mart,"W2W9+66W, Unnamed Road, Sungai Damar, Kec. Pantai Lunci, Kabupaten Sukamara, Kalimantan Tengah 74171","Unnamed Road, Sungai Damar, Kec. Pantai Lunci, Kabupaten Sukamara",KALIMANTAN TENGAH,74171.0,Indonesia,82352422545.0,,,-3.0543753,111.0180772,https://maps.google.com/?cid=0x0:0x550db9ecbe1bca0b,
supermarket,Toko Swalayan,Fortuna Swalayan,"Jl. Moh. Kahfi 1 No.1 9, RT.9/RW.4, Cipedak, Kec. Jagakarsa, Kota Jakarta Selatan, Daerah Khusus Ibukota Jakarta 12630","RT.9/RW.4, Cipedak, Kec. Jagakarsa, Kota Jakarta Selatan",KALIMANTAN TENGAH,12630.0,Indonesia,2178885739.0,,,-6.3534406,106.8017381,https://maps.google.com/?cid=0x0:0x98646deb131851d7,
supermarket,Produsen Makanan Beku,Toko KAPPI frozen foods,"No.10 A, Jl. Sirsak No.1 9, RT.10/RW.1, Jagakarsa, Kec. Jagakarsa, Kota Jakarta Selatan, Daerah Khusus Ibukota Jakarta 12620","Jl. Sirsak No.1 9, RT.10/RW.1, Jagakarsa, Kec. Jagakarsa, Kota Jakarta Selatan",KALIMANTAN TENGAH,12620.0,Indonesia,,,,-6.3360981,106.8254141,https://maps.google.com/?cid=0x0:0x436b211a1979c5eb,
supermarket,Toko,Tsukiji Mart,"10, RT.10/RW.2, Jagakarsa, South Jakarta City, Jakarta 12620","RT.10/RW.2, Jagakarsa, South Jakarta City",KALIMANTAN TENGAH,12620.0,Indonesia,8112283811.0,,,-6.3272988,106.8147318,https://maps.google.com/?cid=0x0:0xf10cac3f15403f9f,
supermarket,Minimarket,Alfamidi Jagakarsa,"Jl. Raya Jagakarsa No.49 13, RT.13/RW.1, Jagakarsa, Kec. Jagakarsa, Kota Jakarta Selatan, Daerah Khusus Ibukota Jakarta 12620","RT.13/RW.1, Jagakarsa, Kec. Jagakarsa, Kota Jakarta Selatan",KALIMANTAN TENGAH,12620.0,Indonesia,,,,-6.3305261,106.8276551,https://maps.google.com/?cid=0x0:0x1a02f621800c8d03,
supermarket,Minimarket,Alfamidi Kebagusan Gang Mangga,"Jl. Kebagusan Raya No.3A 10, RT.10/RW.5, Jagakarsa, Kec. Jagakarsa, Kota Jakarta Selatan, Daerah Khusus Ibukota Jakarta 12620","RT.10/RW.5, Jagakarsa, Kec. Jagakarsa, Kota Jakarta Selatan",KALIMANTAN TENGAH,12620.0,Indonesia,,,,-6.318187,106.8249132,https://maps.google.com/?cid=0x0:0x7628b5eebed1b37,
supermarket,Toko Swalayan,GS The Fresh Mampang,"Jl. Buncit Raya No.301, Duren Tiga, Kec. Pancoran, Kota Jakarta Selatan, Daerah Khusus Ibukota Jakarta 12760","Duren Tiga, Kec. Pancoran, Kota Jakarta Selatan",KALIMANTAN TENGAH,12760.0,Indonesia,2126961986.0,,,-6.256991,106.828987,https://maps.google.com/?cid=0x0:0x47a84d3b86619147,
supermarket,Toko Swalayan,GS THE FRESH JATIBENING,"Jl. Caman Raya No.7-24, RT.004/RW.003, Jatibening, Kec. Pd. Gede, Kota Bks, Jawa Barat 17412","RT.004/RW.003, Jatibening, Kec. Pd. Gede, Kota Bks",KALIMANTAN TENGAH,17412.0,Indonesia,2184982211.0,,,-6.2676455,106.9436409,https://maps.google.com/?cid=0x0:0x2cdb50c3ee3206c,
supermarket,Toko Swalayan,GS Supermarket Jatiasih,"GsSupermarket :, Jl. Wibawa Mukti II No.125, RT.002/ RW017/RW.017, Jatiasih, Kec. Jatiasih, Kota Bks, Jawa Barat 17423","Jl. Wibawa Mukti II No.125, RT.002/ RW017/RW.017, Jatiasih, Kec. Jatiasih, Kota Bks",KALIMANTAN TENGAH,17423.0,Indonesia,2182736918.0,,,-6.3070579,106.955731,https://maps.google.com/?cid=0x0:0x74efd6ce433268e6,
supermarket,Toko bahan makanan,Warung dilah,"Jl. Kalibaru No.83, RT.3/RW.6, Parigi Baru, Kec. Pd. Aren, Kota Tangerang Selatan, Banten 15228","RT.3/RW.6, Parigi Baru, Kec. Pd. Aren, Kota Tangerang Selatan",KALIMANTAN TENGAH,15228.0,Indonesia,,,,-6.2793704,106.687413,https://maps.google.com/?cid=0x0:0xd1aefbd89355668b,
supermarket,Toko Swalayan,Pujasari Swalayan Bojongsari,"Jl. Raya Parung - Ciputat No.101, Bojongsari Baru, Kec. Bojongsari, Kota Depok, Jawa Barat 16517","Bojongsari Baru, Kec. Bojongsari, Kota Depok",KALIMANTAN TENGAH,16517.0,Indonesia,,,,-6.3996211,106.7422721,https://maps.google.com/?cid=0x0:0x222c094bdfaf338d,
supermarket,Toko Swalayan,Aneka Buana Cirendeu,"Jl. Raya Cirendeu No.38, Cireundeu, Kec. Ciputat Tim., Kota Tangerang Selatan, Banten 15419","Cireundeu, Kec. Ciputat Tim., Kota Tangerang Selatan",KALIMANTAN TENGAH,15419.0,Indonesia,217423906.0,,,-6.3117335,106.7705024,https://maps.google.com/?cid=0x0:0x1bfb5dff05fdda3c,
supermarket,Toko Swalayan,Aneka Buana Supermarket - Pondok Labu,"Jl. RS. Fatmawati Raya No.15, RT.2/RW.1, Pd. Labu, Kec. Cilandak, Kota Jakarta Selatan, Daerah Khusus Ibukota Jakarta 12450","RT.2/RW.1, Pd. Labu, Kec. Cilandak, Kota Jakarta Selatan",KALIMANTAN TENGAH,12450.0,Indonesia,217692010.0,,,-6.3093895,106.7939361,https://maps.google.com/?cid=0x0:0x3f7935d87cf91289,
supermarket,Supermarket Diskon,Roti Le Gitt Farmers Citywalk,"Jl. Karet Pasar Baru Timur 5 No.6, RT.10/RW.11, Karet Tengsin, Kecamatan Tanah Abang, Kota Jakarta Pusat, Daerah Khusus Ibukota Jakarta 10250","RT.10/RW.11, Karet Tengsin, Kecamatan Tanah Abang, Kota Jakarta Pusat",KALIMANTAN TENGAH,10250.0,Indonesia,2187950077.0,,,-6.2071336,106.8191406,https://maps.google.com/?cid=0x0:0x63731285c1ea6769,
supermarket,Pusat Perbelanjaan,GS The Fresh BOXIES,"Jl. Raya Tajur No.125, RT.01/RW.06, Tajur, Kec. Bogor Tim., Kota Bogor, Jawa Barat 16141","RT.01/RW.06, Tajur, Kec. Bogor Tim., Kota Bogor",KALIMANTAN TENGAH,16141.0,Indonesia,,,,-6.6338534,106.8265902,https://maps.google.com/?cid=0x0:0xf2e999dd0f1bdf6,
supermarket,supermarket,Kalimantan Tengah 74171,"Kabupaten Sukamara, Kalimantan Tengah","Kabupaten Sukamara, Kalimantan Tengah",KALIMANTAN TENGAH,,Indonesia,,,,-2.9288777,111.0460407,https://maps.google.com/?cid=0x0:0xdaaca932d5c1b031,
supermarket,Toko Swalayan,Ginanfi Mart,"W2W9+66W, Unnamed Road, Sungai Damar, Kec. Pantai Lunci, Kabupaten Sukamara, Kalimantan Tengah 74171","Unnamed Road, Sungai Damar, Kec. Pantai Lunci, Kabupaten Sukamara",KALIMANTAN TENGAH,74171.0,Indonesia,82352422545.0,,,-3.0543753,111.0180772,https://maps.google.com/?cid=0x0:0x550db9ecbe1bca0b,
supermarket,Minimarket,TOKO FANY,"7568+CVG, Jln.Tjilik riwut, Natai Sedawak, Kec. Sukamara, Kabupaten Sukamara, Kalimantan Tengah 74171","Jln.Tjilik riwut, Natai Sedawak, Kec. Sukamara, Kabupaten Sukamara",KALIMANTAN TENGAH,74171.0,Indonesia,82250581964.0,,,-2.7389481,111.167214,https://maps.google.com/?cid=0x0:0xac7a87842873c635,
supermarket,Toko Swalayan,LION MART,"Mendawai, Kec. Sukamara, Kabupaten Sukamara, Kalimantan Tengah 74172","Kec. Sukamara, Kabupaten Sukamara",KALIMANTAN TENGAH,74172.0,Indonesia,5322076048.0,,,-2.7143375,111.1687181,https://maps.google.com/?cid=0x0:0xbfa0692711dd1f60,
supermarket,Toko Swalayan,Warung Mama Kiut,"26M9+5WH, Jl. Sidang Purnama, Sungai Cabang Bar., Kec. Pantai Lunci, Kabupaten Sukamara, Kalimantan Tengah 74171","Jl. Sidang Purnama, Sungai Cabang Bar., Kec. Pantai Lunci, Kabupaten Sukamara",KALIMANTAN TENGAH,74171.0,Indonesia,,,,-2.967068,111.2198632,https://maps.google.com/?cid=0x0:0x7d31b7dd08129e78,
supermarket,Toko bahan makanan,SA SAHABAT sukamara,"75R9+49F, Mendawai, Kec. Sukamara, Kabupaten Sukamara, Kalimantan Tengah 74172","Mendawai, Kec. Sukamara, Kabupaten Sukamara",KALIMANTAN TENGAH,74172.0,Indonesia,,,,-2.7096982,111.1684077,https://maps.google.com/?cid=0x0:0x3c1c0a0ac5962e94,
supermarket,Toko Swalayan,Warung uma kiut,"26M9+5WC, Sungai Cabang Bar., Kec. Pantai Lunci, Kabupaten Sukamara, Kalimantan Tengah 74171","Sungai Cabang Bar., Kec. Pantai Lunci, Kabupaten Sukamara",KALIMANTAN TENGAH,74171.0,Indonesia,85251423183.0,,,-2.9670744,111.2197672,https://maps.google.com/?cid=0x0:0xed6c8a4984ec48c7,
supermarket,Toko sembako pemerintah,Toko Idola,"2P7P+MXH, Kuala Jelai, Kec. Jelai, Kabupaten Sukamara, Kalimantan Tengah 74171","Kuala Jelai, Kec. Jelai, Kabupaten Sukamara",KALIMANTAN TENGAH,74171.0,Indonesia,,,,-2.9858144,110.7374712,https://maps.google.com/?cid=0x0:0xd7ae2710205861b1,
supermarket,Toko umum,Warung sembako raudah,"254H+M83, Sungai Cabang Bar., Kec. Pantai Lunci, Kabupaten Sukamara, Kalimantan Tengah 74171","Sungai Cabang Bar., Kec. Pantai Lunci, Kabupaten Sukamara",KALIMANTAN TENGAH,74171.0,Indonesia,,,,-2.9933743,111.1782902,https://maps.google.com/?cid=0x0:0x126b18af55175125,
supermarket,Toko,Supermarket Harapan Baru,"7598+8QC, Jl. Tjilik Riwut, Mendawai, Kec. Sukamara, Kabupaten Sukamara, Kalimantan Tengah 74172","Jl. Tjilik Riwut, Mendawai, Kec. Sukamara, Kabupaten Sukamara",KALIMANTAN TENGAH,74172.0,Indonesia,,,,-2.7316977,111.1669031,https://maps.google.com/?cid=0x0:0x21939ec95c1f6c12,
supermarket,supermarket,Toko Pintu Ilmu (PI),"Masjid Al-Aqsha, Jl. Setia Yakin No.Samping, Mendawai, Sukamara, Sukamara Regency, Central Kalimantan 74172","Jl. Setia Yakin No.Samping, Mendawai, Sukamara, Sukamara Regency",KALIMANTAN TENGAH,74172.0,Indonesia,,,,-2.706888,111.1713373,https://maps.google.com/?cid=0x0:0xb3dfcbd576b60da5,
supermarket,Toko bahan makanan,Toko Wella,"75VC+2MC, Jl. Pangeran Sukarma, Mendawai, Kec. Sukamara, Kabupaten Sukamara, Kalimantan Tengah 74172","Jl. Pangeran Sukarma, Mendawai, Kec. Sukamara, Kabupaten Sukamara",KALIMANTAN TENGAH,74172.0,Indonesia,,,,-2.7074367,111.1716312,https://maps.google.com/?cid=0x0:0x518e9a5a1f777558,
supermarket,Toko Swalayan,Toko Marshmallow,"75P9+76W, Mendawai, Kec. Sukamara, Kabupaten Sukamara, Kalimantan Tengah 74172","Mendawai, Kec. Sukamara, Kabupaten Sukamara",KALIMANTAN TENGAH,74172.0,Indonesia,,,,-2.7142699,111.1680827,https://maps.google.com/?cid=0x0:0xbac76bcbab2f4dae,
supermarket,,Tk. Fitriya,"Mendawai, Kec. Sukamara, Kabupaten Sukamara, Kalimantan Tengah 74172","Kec. Sukamara, Kabupaten Sukamara",KALIMANTAN TENGAH,74172.0,Indonesia,,,,-2.7173125,111.1670625,https://maps.google.com/?cid=0x0:0x8b9a0e8ca87f76dd,
supermarket,Toko Swalayan,Amanda Swalayan,"75R9+CHQ, Jl. Cakra Adiwijaya, Mendawai, Kec. Sukamara, Kabupaten Sukamara, Kalimantan Tengah 74172","Jl. Cakra Adiwijaya, Mendawai, Kec. Sukamara, Kabupaten Sukamara",KALIMANTAN TENGAH,74172.0,Indonesia,,,,-2.7089242,111.1689953,https://maps.google.com/?cid=0x0:0x88b3482b4b93acc8,
supermarket,Toko Swalayan,Devika Mart,"Jl. Tjilik Riwut No.103, Mendawai, Kec. Sukamara, Kabupaten Sukamara, Kalimantan Tengah 74172","Mendawai, Kec. Sukamara, Kabupaten Sukamara",KALIMANTAN TENGAH,74172.0,Indonesia,,,,-2.7147994,111.1680673,https://maps.google.com/?cid=0x0:0x180f12e51fef0630,
supermarket,Toko bahan makanan,Warung Putri trantang,"Jl. Pemekaran perumahan No.RT 004, Natai Sedawak, Kec. Pantai Lunci, Kabupaten Sukamara, Kalimantan Tengah 74172","Natai Sedawak, Kec. Pantai Lunci, Kabupaten Sukamara",KALIMANTAN TENGAH,74172.0,Indonesia,,,,-2.7692793,111.1707135,https://maps.google.com/?cid=0x0:0xda46189bc2d656ec,
supermarket,Padang,Toko Sinar Padang,"RT.06/RW.02, Padang, Kec. Sukamara, Kabupaten Sukamara, Kalimantan Tengah 74172","Padang, Kec. Sukamara, Kabupaten Sukamara",KALIMANTAN TENGAH,74172.0,Indonesia,82351235820.0,,,-2.7031385,111.1717804,https://maps.google.com/?cid=0x0:0x5df7ae2a72a01e7e,
supermarket,Minimarket,Arsyla olshop,"75PF+2HH, Jl. Belakang Masjid, Mendawai, Kec. Sukamara, Kabupaten Sukamara, Kalimantan Tengah 74172","Jl. Belakang Masjid, Mendawai, Kec. Sukamara, Kabupaten Sukamara",KALIMANTAN TENGAH,74172.0,Indonesia,87813533777.0,,,-2.7149383,111.1739916,https://maps.google.com/?cid=0x0:0x830093ba416c0774,
supermarket,Toko Swalayan,Warung Mak Guntang,"Mendawai, Kec. Sukamara, Kabupaten Sukamara, Kalimantan Tengah 74172","Kec. Sukamara, Kabupaten Sukamara",KALIMANTAN TENGAH,74172.0,Indonesia,,,,-2.7129288,111.1697372,https://maps.google.com/?cid=0x0:0xe79ae9e685cb5b5d,
supermarket,Toko bahan makanan,Toko Al Khusna,"75RF+VWX, jl M nazir pasar siak, Mendawai, Kec. Sukamara, Kabupaten Sukamara, Kalimantan Tengah 74172","jl M nazir pasar siak, Mendawai, Kec. Sukamara, Kabupaten Sukamara",KALIMANTAN TENGAH,74172.0,Indonesia,82154479338.0,,,-2.7077504,111.1748577,https://maps.google.com/?cid=0x0:0x950d8617f23f4198,
supermarket,Pusat Perbelanjaan,Enjoy Mart,"65XC+P2C, Natai Sedawak, Kec. Sukamara, Kabupaten Sukamara, Kalimantan Tengah 74171","Natai Sedawak, Kec. Sukamara, Kabupaten Sukamara",KALIMANTAN TENGAH,74171.0,Indonesia,,,,-2.7506876,111.1700301,https://maps.google.com/?cid=0x0:0xfcd1543c5149ce17,
supermarket,Toko Swalayan,warung uma lplt,"Sungai Cabang Bar., Kec. Pantai Lunci, Kabupaten Sukamara, Kalimantan Tengah","Kabupaten Sukamara, Kalimantan Tengah",KALIMANTAN TENGAH,,Indonesia,85752137440.0,,,-2.9932049,111.1806378,https://maps.google.com/?cid=0x0:0x373a4f2091e951c8,
supermarket,Toko Swalayan,Sinar Terang,"75QC+467, ⛉ Jl. Tjilik Riwut, Mendawai, Kec. Sukamara, Kabupaten Sukamara, Kalimantan Tengah 74172","⛉ Jl. Tjilik Riwut, Mendawai, Kec. Sukamara, Kabupaten Sukamara",KALIMANTAN TENGAH,74172.0,Indonesia,,,,-2.7122235,111.1705486,https://maps.google.com/?cid=0x0:0x133e90995b6d380d,
supermarket,Toko bahan makanan,Outlet ical,"75RH+Q3F, Jl. Pelita, Pudu, Kec. Sukamara, Kabupaten Sukamara, Kalimantan Tengah 74172","Jl. Pelita, Pudu, Kec. Sukamara, Kabupaten Sukamara",KALIMANTAN TENGAH,74172.0,Indonesia,,,,-2.70807,111.1776726,https://maps.google.com/?cid=0x0:0xcbaa300b5ecbbbd3,
supermarket,Toko Swalayan,Grace Mart,"758C+H35, Jl. Sukar, Mendawai, Sukamara, Sukamara Regency, Central Kalimantan 74172","Jl. Sukar, Mendawai, Sukamara, Sukamara Regency",KALIMANTAN TENGAH,74172.0,Indonesia,,,,-2.7336162,111.1702372,https://maps.google.com/?cid=0x0:0x693d8e5934005cfa,
supermarket,supermarket,Kalimantan Tengah 74173,Kalimantan Tengah,Kalimantan Tengah,KALIMANTAN TENGAH,,Indonesia,,,,-2.1830119,111.2368084,https://maps.google.com/?cid=0x0:0xfb45b5038030e34d,
supermarket,Brunch,Warung Mak Angga,"Unnamed Rd, Permata Kecubung, Kabupaten Sukamara, Kalimantan Tengah 74173, Natai Kondang, Kec. Permata Kecubung, Kabupaten Sukamara, Kalimantan Tengah 74173","Permata Kecubung, Kabupaten Sukamara, Kalimantan Tengah",KALIMANTAN TENGAH,74173.0,Indonesia,85651115312.0,,,-2.2540919,111.1806873,https://maps.google.com/?cid=0x0:0x11516f333b9af5b6,
supermarket,Toko,Toko Farella,"Q4QJ+QQ4, Sembikuan, Kec. Permata Kecubung, Kabupaten Sukamara, Kalimantan Tengah 74173","Sembikuan, Kec. Permata Kecubung, Kabupaten Sukamara",KALIMANTAN TENGAH,74173.0,Indonesia,,,,-2.2106083,111.1319379,https://maps.google.com/?cid=0x0:0x3a9763cd0a4bf93c,
supermarket,Toko Swalayan,Alghifari mart,"Q35X+GG2, Nibung Terjun, Kec. Permata Kecubung, Kabupaten Sukamara, Kalimantan Tengah 74173","Nibung Terjun, Kec. Permata Kecubung, Kabupaten Sukamara",KALIMANTAN TENGAH,74173.0,Indonesia,85787776710.0,,,-2.2406048,111.097896,https://maps.google.com/?cid=0x0:0xba3bd41ff1d737b1,
supermarket,Toko Swalayan,GADA MART,"M5XM+W96, Unnamed Road, Bangun Jaya, Kec. Balai Riam, Kabupaten Sukamara, Kalimantan Tengah 74173","Unnamed Road, Bangun Jaya, Kec. Balai Riam, Kabupaten Sukamara",KALIMANTAN TENGAH,74173.0,Indonesia,,,,-2.3002237,111.1834011,https://maps.google.com/?cid=0x0:0x625d000707f8b9f7,
supermarket,Supermarket Diskon,Toko Difa,"M5XM+76G, Unnamed Road, Bangun Jaya, Kec. Balai Riam, Kabupaten Sukamara, Kalimantan Tengah 74173","Unnamed Road, Bangun Jaya, Kec. Balai Riam, Kabupaten Sukamara",KALIMANTAN TENGAH,74173.0,Indonesia,,,,-2.301819,111.183063,https://maps.google.com/?cid=0x0:0xf75e1167e8da3975,
supermarket,Toko bahan makanan,Fresh In. Sayur,"Jl. Kyai gede No.04/01, Bangun Jaya, Kec. Balai Riam, Kabupaten Sukamara, Kalimantan Tengah 71480","Bangun Jaya, Kec. Balai Riam, Kabupaten Sukamara",KALIMANTAN TENGAH,71480.0,Indonesia,85726915374.0,,,-2.3038826,111.1833151,https://maps.google.com/?cid=0x0:0x4b49bd7949019f2b,
supermarket,Toko Swalayan,Toko Sumber Rejeki,"Unnamed Road, Sekuningan Baru, Kec. Balai Riam, Kabupaten Sukamara, Kalimantan Tengah 74172","Sekuningan Baru, Kec. Balai Riam, Kabupaten Sukamara",KALIMANTAN TENGAH,74172.0,Indonesia,,,,-2.3369677,111.1870637,https://maps.google.com/?cid=0x0:0xe6e5e09556b61a48,
supermarket,Toko bahan makanan,Borneo Supermarket,"RF96+V9C, Jl. Batu Betanggui, Nanga Bulik, Kec. Bulik, Kabupaten Lamandau, Kalimantan Tengah 74161","Jl. Batu Betanggui, Nanga Bulik, Kec. Bulik, Kabupaten Lamandau",KALIMANTAN TENGAH,74161.0,Indonesia,85751797069.0,,,-2.180302,111.4608802,https://maps.google.com/?cid=0x0:0x9626262724f41eef,
supermarket,Toko Swalayan,Toko Kartika,"M5XM+XJQ, Unnamed Road, Bangun Jaya, Kec. Balai Riam, Kabupaten Sukamara, Kalimantan Tengah 74173","Unnamed Road, Bangun Jaya, Kec. Balai Riam, Kabupaten Sukamara",KALIMANTAN TENGAH,74173.0,Indonesia,,,,-2.3000496,111.1841231,https://maps.google.com/?cid=0x0:0x2ca99e55645bdee8,
supermarket,supermarket,Permata mart,"P6MC+3JC, Ajang, Kec. Permata Kecubung, Kabupaten Sukamara, Kalimantan Tengah 74173","Ajang, Kec. Permata Kecubung, Kabupaten Sukamara",KALIMANTAN TENGAH,74173.0,Indonesia,,,,-2.2673218,111.2215131,https://maps.google.com/?cid=0x0:0x36b3803480e72294,
supermarket,supermarket,Kec. Permata Kecubung,"Kabupaten Sukamara, Kalimantan Tengah","Kabupaten Sukamara, Kalimantan Tengah",KALIMANTAN TENGAH,,Indonesia,,,,-2.1946076,111.157699,https://maps.google.com/?cid=0x0:0x5913f2f384347b3b,
supermarket,supermarket,Kalimantan Tengah 74172,"Kabupaten Sukamara, Kalimantan Tengah","Kabupaten Sukamara, Kalimantan Tengah",KALIMANTAN TENGAH,,Indonesia,,,,-2.4783286,111.2368084,https://maps.google.com/?cid=0x0:0xd20d489d27a950d7,
supermarket,Toko Swalayan,Amanda Swalayan,"75R9+CHQ, Jl. Cakra Adiwijaya, Mendawai, Kec. Sukamara, Kabupaten Sukamara, Kalimantan Tengah 74172","Jl. Cakra Adiwijaya, Mendawai, Kec. Sukamara, Kabupaten Sukamara",KALIMANTAN TENGAH,74172.0,Indonesia,,,,-2.7089242,111.1689953,https://maps.google.com/?cid=0x0:0x88b3482b4b93acc8,
supermarket,Toko Swalayan,Devika Mart,"Jl. Tjilik Riwut No.103, Mendawai, Kec. Sukamara, Kabupaten Sukamara, Kalimantan Tengah 74172","Mendawai, Kec. Sukamara, Kabupaten Sukamara",KALIMANTAN TENGAH,74172.0,Indonesia,,,,-2.7147994,111.1680673,https://maps.google.com/?cid=0x0:0x180f12e51fef0630,
supermarket,Toko Swalayan,LION MART,"Mendawai, Kec. Sukamara, Kabupaten Sukamara, Kalimantan Tengah 74172","Kec. Sukamara, Kabupaten Sukamara",KALIMANTAN TENGAH,74172.0,Indonesia,5322076048.0,,,-2.7143375,111.1687181,https://maps.google.com/?cid=0x0:0xbfa0692711dd1f60,
supermarket,Padang,Toko Sinar Padang,"RT.06/RW.02, Padang, Kec. Sukamara, Kabupaten Sukamara, Kalimantan Tengah 74172","Padang, Kec. Sukamara, Kabupaten Sukamara",KALIMANTAN TENGAH,74172.0,Indonesia,82351235820.0,,,-2.7031385,111.1717804,https://maps.google.com/?cid=0x0:0x5df7ae2a72a01e7e,
supermarket,Toko bahan makanan,Toko Al Khusna,"75RF+VWX, jl M nazir pasar siak, Mendawai, Kec. Sukamara, Kabupaten Sukamara, Kalimantan Tengah 74172","jl M nazir pasar siak, Mendawai, Kec. Sukamara, Kabupaten Sukamara",KALIMANTAN TENGAH,74172.0,Indonesia,82154479338.0,,,-2.7077504,111.1748577,https://maps.google.com/?cid=0x0:0x950d8617f23f4198,
supermarket,Toko Swalayan,Toko Sumber Rejeki,"Unnamed Road, Sekuningan Baru, Kec. Balai Riam, Kabupaten Sukamara, Kalimantan Tengah 74172","Sekuningan Baru, Kec. Balai Riam, Kabupaten Sukamara",KALIMANTAN TENGAH,74172.0,Indonesia,,,,-2.3369677,111.1870637,https://maps.google.com/?cid=0x0:0xe6e5e09556b61a48,
supermarket,Toko Swalayan,Toko Marshmallow,"75P9+76W, Mendawai, Kec. Sukamara, Kabupaten Sukamara, Kalimantan Tengah 74172","Mendawai, Kec. Sukamara, Kabupaten Sukamara",KALIMANTAN TENGAH,74172.0,Indonesia,,,,-2.7142699,111.1680827,https://maps.google.com/?cid=0x0:0xbac76bcbab2f4dae,
supermarket,Toko bahan makanan,Raymond Mart,"86CV+H9C, Jl. Dirgantara, Karta Mulia, Kec. Sukamara, Kabupaten Sukamara, Kalimantan Tengah 74172","Jl. Dirgantara, Karta Mulia, Kec. Sukamara, Kabupaten Sukamara",KALIMANTAN TENGAH,74172.0,Indonesia,,,,-2.6785717,111.2434002,https://maps.google.com/?cid=0x0:0x93701da8826df18a,
supermarket,Minimarket,TOKO FANY,"7568+CVG, Jln.Tjilik riwut, Natai Sedawak, Kec. Sukamara, Kabupaten Sukamara, Kalimantan Tengah 74171","Jln.Tjilik riwut, Natai Sedawak, Kec. Sukamara, Kabupaten Sukamara",KALIMANTAN TENGAH,74171.0,Indonesia,82250581964.0,,,-2.7389481,111.167214,https://maps.google.com/?cid=0x0:0xac7a87842873c635,
supermarket,supermarket,Toko Pintu Ilmu (PI),"Masjid Al-Aqsha, Jl. Setia Yakin No.Samping, Mendawai, Sukamara, Sukamara Regency, Central Kalimantan 74172","Jl. Setia Yakin No.Samping, Mendawai, Sukamara, Sukamara Regency",KALIMANTAN TENGAH,74172.0,Indonesia,,,,-2.706888,111.1713373,https://maps.google.com/?cid=0x0:0xb3dfcbd576b60da5,
supermarket,,Tk. Fitriya,"Mendawai, Kec. Sukamara, Kabupaten Sukamara, Kalimantan Tengah 74172","Kec. Sukamara, Kabupaten Sukamara",KALIMANTAN TENGAH,74172.0,Indonesia,,,,-2.7173125,111.1670625,https://maps.google.com/?cid=0x0:0x8b9a0e8ca87f76dd,
supermarket,Toko Herbal,Stokis HPAI P. Didi Sukamara  Toko Mama Rusyda,"853V+FRX, Jl. M Saleh, Karta Mulia, Kec. Sukamara, Kabupaten Sukamara, Kalimantan Tengah 74172","Jl. M Saleh, Karta Mulia, Kec. Sukamara, Kabupaten Sukamara",KALIMANTAN TENGAH,74172.0,Indonesia,,,,-2.6962547,111.1946067,https://maps.google.com/?cid=0x0:0x8216b43b651f1a82,
supermarket,Toko,Supermarket Harapan Baru,"7598+8QC, Jl. Tjilik Riwut, Mendawai, Kec. Sukamara, Kabupaten Sukamara, Kalimantan Tengah 74172","Jl. Tjilik Riwut, Mendawai, Kec. Sukamara, Kabupaten Sukamara",KALIMANTAN TENGAH,74172.0,Indonesia,,,,-2.7316977,111.1669031,https://maps.google.com/?cid=0x0:0x21939ec95c1f6c12,
supermarket,Toko bahan makanan,Toko Wella,"75VC+2MC, Jl. Pangeran Sukarma, Mendawai, Kec. Sukamara, Kabupaten Sukamara, Kalimantan Tengah 74172","Jl. Pangeran Sukarma, Mendawai, Kec. Sukamara, Kabupaten Sukamara",KALIMANTAN TENGAH,74172.0,Indonesia,,,,-2.7074367,111.1716312,https://maps.google.com/?cid=0x0:0x518e9a5a1f777558,
supermarket,Toko Swalayan,GADA MART,"M5XM+W96, Unnamed Road, Bangun Jaya, Kec. Balai Riam, Kabupaten Sukamara, Kalimantan Tengah 74173","Unnamed Road, Bangun Jaya, Kec. Balai Riam, Kabupaten Sukamara",KALIMANTAN TENGAH,74173.0,Indonesia,,,,-2.3002237,111.1834011,https://maps.google.com/?cid=0x0:0x625d000707f8b9f7,
supermarket,Minimarket,Arsyla olshop,"75PF+2HH, Jl. Belakang Masjid, Mendawai, Kec. Sukamara, Kabupaten Sukamara, Kalimantan Tengah 74172","Jl. Belakang Masjid, Mendawai, Kec. Sukamara, Kabupaten Sukamara",KALIMANTAN TENGAH,74172.0,Indonesia,87813533777.0,,,-2.7149383,111.1739916,https://maps.google.com/?cid=0x0:0x830093ba416c0774,
supermarket,Toko bahan makanan,Fresh In. Sayur,"Jl. Kyai gede No.04/01, Bangun Jaya, Kec. Balai Riam, Kabupaten Sukamara, Kalimantan Tengah 71480","Bangun Jaya, Kec. Balai Riam, Kabupaten Sukamara",KALIMANTAN TENGAH,71480.0,Indonesia,85726915374.0,,,-2.3038826,111.1833151,https://maps.google.com/?cid=0x0:0x4b49bd7949019f2b,
supermarket,Toko Swalayan,Mini Market Dahlia,"Jl. Setia Yakin No.42, Mendawai, Kec. Sukamara, Kabupaten Sukamara, Kalimantan Tengah 74172","Mendawai, Kec. Sukamara, Kabupaten Sukamara",KALIMANTAN TENGAH,74172.0,Indonesia,,,,-2.7175226,111.1643891,https://maps.google.com/?cid=0x0:0x55bf86c03450ea92,
supermarket,Toko Swalayan,Warung Mak Guntang,"Mendawai, Kec. Sukamara, Kabupaten Sukamara, Kalimantan Tengah 74172","Kec. Sukamara, Kabupaten Sukamara",KALIMANTAN TENGAH,74172.0,Indonesia,,,,-2.7129288,111.1697372,https://maps.google.com/?cid=0x0:0xe79ae9e685cb5b5d,
supermarket,Toko outlet,ARIFIN PULSA,"75Q8+5FG, Jl. Cakra Adiwijaya, Mendawai, Kec. Sukamara, Kabupaten Sukamara, Kalimantan Tengah 74172","Jl. Cakra Adiwijaya, Mendawai, Kec. Sukamara, Kabupaten Sukamara",KALIMANTAN TENGAH,74172.0,Indonesia,85233771114.0,,,-2.7120587,111.1662172,https://maps.google.com/?cid=0x0:0xcbc2dd4512b2652c,
