Category,Real Category,Business Name,Address,City,State,Postal Code,Country,Phone,Email,Website,Latitude,Longitude,Map Link,Details Link
komplek housing,komplek housing,Kalimantan Tengah 74173,Kalimantan Tengah,Kalimantan Tengah,KALIMANTAN TENGAH,,Indonesia,,,,-2.1830119,111.2368084,https://maps.google.com/?cid=0x0:0xfb45b5038030e34d,
komplek housing,Komplek perumahan,BALAI RIAM RESIDENCE,"M5RJ+XF7, Bangun Jaya, Kec. Balai Riam, Kabupaten Sukamara, Kalimantan Tengah","Kabupaten Sukamara, Kalimantan Tengah",KALIMANTAN TENGAH,,Indonesia,,,,-2.307576,111.1811642,https://maps.google.com/?cid=0x0:0xd793f40136e25f9b,
komplek housing,Komplek perumahan,Bun,"M453+6F9, Unnamed Road, Balai Riam, Kec. Balai Riam, Kabupaten Sukamara, Kalimantan Tengah 74173","Unnamed Road, Balai Riam, Kec. Balai Riam, Kabupaten Sukamara",KALIMANTAN TENGAH,74173.0,Indonesia,,,,-2.341971,111.103738,https://maps.google.com/?cid=0x0:0xdc72554ecb56b51a,
komplek housing,Komplek perumahan,mess Dea dan Rizki,"P529+RGG Mess PT KSK, Bangun Jaya, Kec. Balai Riam, Kabupaten Sukamara, Kalimantan Tengah 74173","Bangun Jaya, Kec. Balai Riam, Kabupaten Sukamara",KALIMANTAN TENGAH,74173.0,Indonesia,,,,-2.2979466,111.1688236,https://maps.google.com/?cid=0x0:0x48504da9b04a29ca,
komplek housing,Komplek perumahan,HANNA 1,"M584+6X, Balai Riam, Kec. Balai Riam, Kabupaten Sukamara, Kalimantan Tengah","Kabupaten Sukamara, Kalimantan Tengah",KALIMANTAN TENGAH,,Indonesia,,,,-2.334392,111.157444,https://maps.google.com/?cid=0x0:0x7b3f45259aca2f18,
komplek housing,komplek housing,Rumah Teguh,"M55M+4XM, Balai Riam, Kec. Balai Riam, Kabupaten Sukamara, Kalimantan Tengah","Kabupaten Sukamara, Kalimantan Tengah",KALIMANTAN TENGAH,,Indonesia,,,,-2.3421524,111.1849096,https://maps.google.com/?cid=0x0:0x1d285fad9d9062c5,
komplek housing,komplek housing,Tores trs,"M54J+V9, Balai Riam, Kec. Balai Riam, Kabupaten Sukamara, Kalimantan Tengah 74172","Balai Riam, Kec. Balai Riam, Kabupaten Sukamara",KALIMANTAN TENGAH,74172.0,Indonesia,,,,-2.342869,111.180168,https://maps.google.com/?cid=0x0:0xf1d94dc992313e43,
komplek housing,Komplek perumahan,Muh Ilham,"M5RM+X8P, Bangun Jaya, Kec. Balai Riam, Kabupaten Sukamara, Kalimantan Tengah 74173","Bangun Jaya, Kec. Balai Riam, Kabupaten Sukamara",KALIMANTAN TENGAH,74173.0,Indonesia,,,,-2.3077485,111.1827467,https://maps.google.com/?cid=0x0:0xde760216e34e4cdb,
komplek housing,Komplek perumahan,balai riam,"J5H4+MQ7, Air Dua, Kec. Balai Riam, Kabupaten Sukamara, Kalimantan Tengah","Kabupaten Sukamara, Kalimantan Tengah",KALIMANTAN TENGAH,,Indonesia,,,,-2.3708462,111.1569294,https://maps.google.com/?cid=0x0:0x1b7cb9665aa06d28,
komplek housing,Komplek perumahan,Aqeela Naura's Home,"M5WJ+VWR, Bangun Jaya, Kec. Balai Riam, Kabupaten Sukamara, Kalimantan Tengah 74173","Bangun Jaya, Kec. Balai Riam, Kabupaten Sukamara",KALIMANTAN TENGAH,74173.0,Indonesia,82112538393.0,,,-2.3027654,111.1822555,https://maps.google.com/?cid=0x0:0xca6c52410336b515,
komplek housing,komplek housing,Omah Kost Aletha 2,"M5WM+753, RT.005/rw001, Bangun Jaya, Kec. Balai Riam, Kabupaten Sukamara, Kalimantan Tengah","Kabupaten Sukamara, Kalimantan Tengah",KALIMANTAN TENGAH,,Indonesia,82225002837.0,,,-2.3043617,111.182911,https://maps.google.com/?cid=0x0:0x87463b1f7681fd6b,
komplek housing,Misi,Nur Rohman SP3 Balai Riam,"P52J+22H Jln Arah PT. KSK, RT./RW/RW.01/01, Bangun Jaya, Kec. Balai Riam, Kabupaten Sukamara, Kalimantan Tengah 74173","RT./RW/RW.01/01, Bangun Jaya, Kec. Balai Riam, Kabupaten Sukamara",KALIMANTAN TENGAH,74173.0,Indonesia,81349063400.0,,,-2.2999473,111.1801165,https://maps.google.com/?cid=0x0:0x7aaa417150171dea,
komplek housing,Komplek perumahan,Rumah arfan,"M5F5+9HX, Jl. Kihajar Dewantara, Balai Riam, Kec. Balai Riam, Kabupaten Sukamara, Kalimantan Tengah 74173","Jl. Kihajar Dewantara, Balai Riam, Kec. Balai Riam, Kabupaten Sukamara",KALIMANTAN TENGAH,74173.0,Indonesia,,,,-2.3265085,111.1589871,https://maps.google.com/?cid=0x0:0x7ebdc869930b77c4,
komplek housing,Komplek perumahan,Perumahan Karyawan Afdeling XI - PT. GCM,"W54X+MW, Semantun, Kec. Permata Kecubung, Kabupaten Sukamara, Kalimantan Tengah","Kabupaten Sukamara, Kalimantan Tengah",KALIMANTAN TENGAH,,Indonesia,,,,-2.093346,111.199759,https://maps.google.com/?cid=0x0:0x9fa25b447858d469,
komplek housing,komplek housing,Perumahan Afdeling 9,"V5C8+C4R, Semantun, Kec. Permata Kecubung, Kabupaten Sukamara, Kalimantan Tengah 74173","Semantun, Kec. Permata Kecubung, Kabupaten Sukamara",KALIMANTAN TENGAH,74173.0,Indonesia,,,,-2.1288981,111.1652687,https://maps.google.com/?cid=0x0:0xb9a99adab1ec17ce,
komplek housing,Komplek perumahan,Rumah Tian,"M57M+5P8, Sekuningan Baru, Kec. Balai Riam, Kabupaten Sukamara, Kalimantan Tengah 74172","Sekuningan Baru, Kec. Balai Riam, Kabupaten Sukamara",KALIMANTAN TENGAH,74172.0,Indonesia,,,,-2.3370886,111.1843255,https://maps.google.com/?cid=0x0:0xe82ad7a88a9d47b7,
komplek housing,Komplek perumahan,Gilang si bungsu,"M584+6X, Balai Riam, Kec. Balai Riam, Kabupaten Sukamara, Kalimantan Tengah","Kabupaten Sukamara, Kalimantan Tengah",KALIMANTAN TENGAH,,Indonesia,,,,-2.3336598,111.1571463,https://maps.google.com/?cid=0x0:0xffa752bfbb3633d1,
komplek housing,Komplek perumahan,Rumah Arya BalaiRiam,"M583+VV5, Jl. Demang Jemari, Balai Riam, Kec. Balai Riam, Kabupaten Sukamara, Kalimantan Tengah 74173","Jl. Demang Jemari, Balai Riam, Kec. Balai Riam, Kabupaten Sukamara",KALIMANTAN TENGAH,74173.0,Indonesia,,,,-2.3331125,111.1548796,https://maps.google.com/?cid=0x0:0x70f162b210480a9c,
komplek housing,Komplek perumahan,Sri Hardiman (Melik),"M657+8GM, Bukit Sungkai, Kec. Balai Riam, Kabupaten Sukamara, Kalimantan Tengah","Kabupaten Sukamara, Kalimantan Tengah",KALIMANTAN TENGAH,,Indonesia,82256382877.0,,,-2.3416656,111.2137859,https://maps.google.com/?cid=0x0:0x523e6ae61691e6c7,
komplek housing,Pembangunan Perumahan,Fika sapnomo,"M5RJ+XF7, Bangun Jaya, Kec. Balai Riam, Kabupaten Sukamara, Kalimantan Tengah","Kabupaten Sukamara, Kalimantan Tengah",KALIMANTAN TENGAH,,Indonesia,,,,-2.3070447,111.18144,https://maps.google.com/?cid=0x0:0xdc6dcabb035a1f75,
komplek housing,komplek housing,Balai Riam,"Kec. Balai Riam, Kabupaten Sukamara, Kalimantan Tengah","Kabupaten Sukamara, Kalimantan Tengah",KALIMANTAN TENGAH,,Indonesia,,,,-2.3413411,111.1294996,https://maps.google.com/?cid=0x0:0x4d3c35ee012a5b81,
komplek housing,Perumahan rakyat,Balai riam,"XW7H+H7, Penyombaan, Kec. Arut Utara, Kabupaten Kotawaringin Barat, Kalimantan Tengah","Kabupaten Kotawaringin Barat, Kalimantan Tengah",KALIMANTAN TENGAH,,Indonesia,,,,-2.0360625,111.9281875,https://maps.google.com/?cid=0x0:0xfc589eb4b3728ca8,
komplek housing,Pembangunan Perumahan,Irma dwi Saputri,"M594+9PC, Jl. Kihajar Dewantara, Balai Riam, Kec. Balai Riam, Kabupaten Sukamara, Kalimantan Tengah 74173","Jl. Kihajar Dewantara, Balai Riam, Kec. Balai Riam, Kabupaten Sukamara",KALIMANTAN TENGAH,74173.0,Indonesia,,,,-2.3316117,111.1574572,https://maps.google.com/?cid=0x0:0x9e39cf02303ec34b,
komplek housing,Pembangunan Perumahan,EL Shadai TOERNIP,"M593+49J, Balai Riam, Kec. Balai Riam, Kabupaten Sukamara, Kalimantan Tengah 74173","Balai Riam, Kec. Balai Riam, Kabupaten Sukamara",KALIMANTAN TENGAH,74173.0,Indonesia,,,,-2.3321724,111.1533821,https://maps.google.com/?cid=0x0:0xc7c51c735e45fd60,
komplek housing,Komplek perumahan,Sp 2 balai riam,"M53X+46F, Sekuningan Baru, Kec. Balai Riam, Kabupaten Sukamara, Kalimantan Tengah 74172","Sekuningan Baru, Kec. Balai Riam, Kabupaten Sukamara",KALIMANTAN TENGAH,74172.0,Indonesia,,,,-2.3471833,111.1980575,https://maps.google.com/?cid=0x0:0x3376167570eb8030,
komplek housing,Pembangunan Perumahan,Rumah Khayra,"M5XM+VR6, Bangun Jaya, Kec. Balai Riam, Kabupaten Sukamara, Kalimantan Tengah 74173","Bangun Jaya, Kec. Balai Riam, Kabupaten Sukamara",KALIMANTAN TENGAH,74173.0,Indonesia,,,,-2.301157,111.1843641,https://maps.google.com/?cid=0x0:0x48de965abc1c81f8,
komplek housing,Toko Bahan Bangunan,Rumah,"M56Q+76C, Sekuningan Baru, Kec. Balai Riam, Kabupaten Sukamara, Kalimantan Tengah","Kabupaten Sukamara, Kalimantan Tengah",KALIMANTAN TENGAH,,Indonesia,,,,-2.3393014,111.1880283,https://maps.google.com/?cid=0x0:0x5021b674b4d0a989,
komplek housing,Komplek perumahan,Pak Syawal,"P53R+68M, Bangun Jaya, Kec. Balai Riam, Kabupaten Sukamara, Kalimantan Tengah 74173","Bangun Jaya, Kec. Balai Riam, Kabupaten Sukamara",KALIMANTAN TENGAH,74173.0,Indonesia,,,,-2.2965612,111.1920532,https://maps.google.com/?cid=0x0:0xa5c42ac7ac3956f5,
komplek housing,komplek housing,Kec. Jelai,"Kabupaten Sukamara, Kalimantan Tengah","Kabupaten Sukamara, Kalimantan Tengah",KALIMANTAN TENGAH,,Indonesia,,,,-2.9859918,110.7376759,https://maps.google.com/?cid=0x0:0x877a89d41ac3d0a6,
komplek housing,Komplek perumahan,Gosong City,"2P7P+337, Kuala Jelai, Kec. Jelai, Kabupaten Sukamara, Kalimantan Tengah 74171","Kuala Jelai, Kec. Jelai, Kabupaten Sukamara",KALIMANTAN TENGAH,74171.0,Indonesia,,,,-2.9877913,110.7351351,https://maps.google.com/?cid=0x0:0x463024e5f43f190f,
komplek housing,Kedai Kopi,Kedai Afif,"2PFR+FV2, Kuala Jelai, Kec. Jelai, Kabupaten Sukamara, Kalimantan Tengah 74171","Kuala Jelai, Kec. Jelai, Kabupaten Sukamara",KALIMANTAN TENGAH,74171.0,Indonesia,,,,-2.9764585,110.7427424,https://maps.google.com/?cid=0x0:0x5827563298c4475a,
komplek housing,Pembangunan Perumahan,Saparudin,"2P7P+337, Kuala Jelai, Kec. Jelai, Kabupaten Sukamara, Kalimantan Tengah 74171","Kuala Jelai, Kec. Jelai, Kabupaten Sukamara",KALIMANTAN TENGAH,74171.0,Indonesia,,,,-2.9868328,110.7352697,https://maps.google.com/?cid=0x0:0xe7036155eed689cb,
komplek housing,Kantor Pemerintah,Lokasi pekerjaan pengembangan jaringan perpipaan kec.kuala jelai kab.sukamara,"2PCR+PJP, Kuala Jelai, Kec. Jelai, Kabupaten Sukamara, Kalimantan Tengah 74171","Kuala Jelai, Kec. Jelai, Kabupaten Sukamara",KALIMANTAN TENGAH,74171.0,Indonesia,,,,-2.9781518,110.741576,https://maps.google.com/?cid=0x0:0xc494b7203f624561,
komplek housing,Toko,Rumahnya Keyto,"2P7P+MXH, Kuala Jelai, Kec. Jelai, Kabupaten Sukamara, Kalimantan Tengah 74171","Kuala Jelai, Kec. Jelai, Kabupaten Sukamara",KALIMANTAN TENGAH,74171.0,Indonesia,,,,-2.9857978,110.737466,https://maps.google.com/?cid=0x0:0x498624cb35ce9bad,
komplek housing,Komplek perumahan,USU duni,"2P9R+J5G, Kuala Jelai, Kec. Jelai, Kabupaten Sukamara, Kalimantan Tengah 74171","Kuala Jelai, Kec. Jelai, Kabupaten Sukamara",KALIMANTAN TENGAH,74171.0,Indonesia,,,,-2.9809947,110.7411689,https://maps.google.com/?cid=0x0:0x6d446ba276e5022e,
komplek housing,Pembangunan Perumahan,Rumah SAJJAD ZOLA,"4V44+59, Pulau Nibung, Kec. Jelai, Kabupaten Sukamara, Kalimantan Tengah","Kabupaten Sukamara, Kalimantan Tengah",KALIMANTAN TENGAH,,Indonesia,,,,-2.8938557,110.8565301,https://maps.google.com/?cid=0x0:0x609bcd4cca93fab,
komplek housing,Komplek perumahan,niaalda bungas,"2P7P+5G5, Kuala Jelai, Kec. Jelai, Kabupaten Sukamara, Kalimantan Tengah 74171","Kuala Jelai, Kec. Jelai, Kabupaten Sukamara",KALIMANTAN TENGAH,74171.0,Indonesia,,,,-2.9870355,110.7364298,https://maps.google.com/?cid=0x0:0x651b55440383b9dd,
komplek housing,Komplek perumahan,Bintang Andalusia,"Jl. Atak No.18, 74171, Kuala Jelai, Kec. Jelai, Kabupaten Sukamara, Kalimantan Tengah 74171","74171, Kuala Jelai, Kec. Jelai, Kabupaten Sukamara",KALIMANTAN TENGAH,74171.0,Indonesia,,,,-2.9868652,110.7377403,https://maps.google.com/?cid=0x0:0xbe44a9c49a49684c,
komplek housing,Komplek perumahan,Rumah Kang andiie,"3VV2+8V, Pulau Nibung, Kec. Jelai, Kabupaten Sukamara, Kalimantan Tengah 74171","Pulau Nibung, Kec. Jelai, Kabupaten Sukamara",KALIMANTAN TENGAH,74171.0,Indonesia,,,,-2.906742,110.852198,https://maps.google.com/?cid=0x0:0x8bf4d5f93f78957a,
komplek housing,komplek housing,Komplek Housing,"Blok Bojong Nangka I, Jl. Ring Rudal Blok Bojong Nangka I No.68, RT.001/RW.007, Jatirahayu, Kec. Pd. Melati, Kota Bks, Jawa Barat 17414","Jl. Ring Rudal Blok Bojong Nangka I No.68, RT.001/RW.007, Jatirahayu, Kec. Pd. Melati, Kota Bks",KALIMANTAN TENGAH,17414.0,Indonesia,,,,-6.293724,106.9165114,https://maps.google.com/?cid=0x0:0x9c50464976dee674,
komplek housing,komplek housing,Kalimantan Tengah 74171,"Kabupaten Sukamara, Kalimantan Tengah","Kabupaten Sukamara, Kalimantan Tengah",KALIMANTAN TENGAH,,Indonesia,,,,-2.9288777,111.0460407,https://maps.google.com/?cid=0x0:0xdaaca932d5c1b031,
komplek housing,Produsen,Loenci,"3722+GR6, Sungai Pasir, Kec. Pantai Lunci, Kabupaten Sukamara, Kalimantan Tengah 74171","Sungai Pasir, Kec. Pantai Lunci, Kabupaten Sukamara",KALIMANTAN TENGAH,74171.0,Indonesia,,,,-2.948129,111.251926,https://maps.google.com/?cid=0x0:0xdd33892c411dc8f5,
komplek housing,Perhimpunan Pengembang Perumahan,Rumah NURI,"65G9+Q9, Sungai Cabang Bar., Kec. Pantai Lunci, Kabupaten Sukamara, Kalimantan Tengah","Kabupaten Sukamara, Kalimantan Tengah",KALIMANTAN TENGAH,,Indonesia,,,,-2.7728016,111.1679322,https://maps.google.com/?cid=0x0:0xa6eebfaf733e3833,
komplek housing,Perhimpunan Pengembang Perumahan,waone,"75F9+XXF, Mendawai, Kec. Sukamara, Kabupaten Sukamara, Kalimantan Tengah 74172","Mendawai, Kec. Sukamara, Kabupaten Sukamara",KALIMANTAN TENGAH,74172.0,Indonesia,,,,-2.72557,111.169838,https://maps.google.com/?cid=0x0:0x4c7f98ac9b307419,
komplek housing,Pembangunan Perumahan,Rumah suryadi,"Jalan sawo No.rt.03, Sungai Tabuk, Kec. Pantai Lunci, Kabupaten Sukamara, Kalimantan Tengah 74171","Sungai Tabuk, Kec. Pantai Lunci, Kabupaten Sukamara",KALIMANTAN TENGAH,74171.0,Indonesia,,,,-3.0033779,111.1441747,https://maps.google.com/?cid=0x0:0x12b3eeaf734317b9,
komplek housing,Komplek perumahan,RUMAH SAID ALMUNAWAN  NURLAILI RAHMAH,"75HC+5CG, Jalan Matsah, Mendawai, Kec. Sukamara, Kabupaten Sukamara, Kalimantan Tengah 74172","Jalan Matsah, Mendawai, Kec. Sukamara, Kabupaten Sukamara",KALIMANTAN TENGAH,74172.0,Indonesia,,,,-2.7220696,111.1710749,https://maps.google.com/?cid=0x0:0x16fe6cb048970cb4,
komplek housing,Komplek perumahan,Rumah SUHARTA,"65G9+Q9, Sungai Cabang Bar., Kec. Pantai Lunci, Kabupaten Sukamara, Kalimantan Tengah","Kabupaten Sukamara, Kalimantan Tengah",KALIMANTAN TENGAH,,Indonesia,,,,-2.7729476,111.1685427,https://maps.google.com/?cid=0x0:0x61630ae184715f54,
komplek housing,Perhimpunan Pengembang Perumahan,Sekretariat Kop. IMS,"3757+GQ, Sungai Pasir, Kec. Pantai Lunci, Kabupaten Sukamara, Kalimantan Tengah","Kabupaten Sukamara, Kalimantan Tengah",KALIMANTAN TENGAH,,Indonesia,,,,-2.9411889,111.2644595,https://maps.google.com/?cid=0x0:0xff009ccda8a41dcb,
komplek housing,Komplek perumahan,Gosong City,"2P7P+337, Kuala Jelai, Kec. Jelai, Kabupaten Sukamara, Kalimantan Tengah 74171","Kuala Jelai, Kec. Jelai, Kabupaten Sukamara",KALIMANTAN TENGAH,74171.0,Indonesia,,,,-2.9877913,110.7351351,https://maps.google.com/?cid=0x0:0x463024e5f43f190f,
komplek housing,Pembangunan Perumahan,Rumah Pak Yupiansyah,"75XF+7WG, Padang, Kec. Sukamara, Kabupaten Sukamara, Kalimantan Tengah 74172","Padang, Kec. Sukamara, Kabupaten Sukamara",KALIMANTAN TENGAH,74172.0,Indonesia,,,,-2.7019964,111.174515,https://maps.google.com/?cid=0x0:0x640bbed410878b8e,
komplek housing,Komplek perumahan,Raii's House,"75FF+983, Jl. Makmur Jalil, Mendawai, Kec. Sukamara, Kabupaten Sukamara, Kalimantan Tengah 74172","Jl. Makmur Jalil, Mendawai, Kec. Sukamara, Kabupaten Sukamara",KALIMANTAN TENGAH,74172.0,Indonesia,,,,-2.7266229,111.1732976,https://maps.google.com/?cid=0x0:0xe1b3f2500d9adfad,
komplek housing,komplek housing,Kec. Pantai Lunci,"Kabupaten Sukamara, Kalimantan Tengah","Kabupaten Sukamara, Kalimantan Tengah",KALIMANTAN TENGAH,,Indonesia,,,,-2.9270008,111.1414226,https://maps.google.com/?cid=0x0:0x2906c2198e876fb0,
komplek housing,komplek housing,bengkel motor A2,"75G8+GJH, Jl. Pangeran Sukarma No.rt14 rw 04, Padang, Kec. Sukamara, Kabupaten Sukamara, Kalimantan Tengah 74172","Jl. Pangeran Sukarma No.rt14 rw 04, Padang, Kec. Sukamara, Kabupaten Sukamara",KALIMANTAN TENGAH,74172.0,Indonesia,,,,-2.7105297,111.1785219,https://maps.google.com/?cid=0x0:0x8a641f405efa2a06,
komplek housing,Komplek perumahan,Tempat singgah,"756C+4M, Natai Sedawak, Kec. Sukamara, Kabupaten Sukamara, Kalimantan Tengah 74171","Natai Sedawak, Kec. Sukamara, Kabupaten Sukamara",KALIMANTAN TENGAH,74171.0,Indonesia,,,,-2.739627,111.171722,https://maps.google.com/?cid=0x0:0x6163b78ba0420ff7,
komplek housing,Pembangunan Perumahan,Cemara lebat,"257Q+47M, Sungai Cabang Bar., Kec. Pantai Lunci, Kabupaten Sukamara, Kalimantan Tengah","Kabupaten Sukamara, Kalimantan Tengah",KALIMANTAN TENGAH,,Indonesia,,,,-2.9871644,111.1881842,https://maps.google.com/?cid=0x0:0x6a96a53efbff9780,
komplek housing,Komplek perumahan,Rumah AgoenhPP,"75M7+2GG, Mendawai, Kec. Sukamara, Kabupaten Sukamara, Kalimantan Tengah","Kabupaten Sukamara, Kalimantan Tengah",KALIMANTAN TENGAH,,Indonesia,,,,-2.717438,111.1638301,https://maps.google.com/?cid=0x0:0x73f07bdc3647acfe,
komplek housing,Komplek perumahan,abdul sanapsud,"W2R9+X2F, Sungai Damar, Kec. Pantai Lunci, Kabupaten Sukamara, Kalimantan Tengah 74171","Sungai Damar, Kec. Pantai Lunci, Kabupaten Sukamara",KALIMANTAN TENGAH,74171.0,Indonesia,,,,-3.057819,111.0161958,https://maps.google.com/?cid=0x0:0x7b3d08102bae2455,
komplek housing,Komplek perumahan,Jeje Home,"755J+V7M, Natai Sedawak, Kec. Sukamara, Kabupaten Sukamara, Kalimantan Tengah 74171","Natai Sedawak, Kec. Sukamara, Kabupaten Sukamara",KALIMANTAN TENGAH,74171.0,Indonesia,,,,-2.7403761,111.1804263,https://maps.google.com/?cid=0x0:0x3e51b57e76206864,
komplek housing,Komplek perumahan,Deky koplak,"75MC+QM4, Mendawai, Kec. Sukamara, Kabupaten Sukamara, Kalimantan Tengah 74172","Mendawai, Kec. Sukamara, Kabupaten Sukamara",KALIMANTAN TENGAH,74172.0,Indonesia,,,,-2.7168362,111.171934,https://maps.google.com/?cid=0x0:0x250c9280f8f119cc,
komplek housing,Komplek perumahan,RUMAH DIDI DAN LIA,"Jl.Jais RT.03, Blok N 0.67, Mendawai, Kec. Sukamara, Kabupaten Sukamara, Kalimantan Tengah 74172","Blok N 0.67, Mendawai, Kec. Sukamara, Kabupaten Sukamara",KALIMANTAN TENGAH,74172.0,Indonesia,85389114114.0,,,-2.7117176,111.1696102,https://maps.google.com/?cid=0x0:0xb395dfb3d193e354,
komplek housing,Komplek perumahan,"Syahdari,s home","Jl. Sabah Pinang No.Rt02, Natai Sedawak, Kec. Sukamara, Kabupaten Sukamara, Kalimantan Tengah 74171","Natai Sedawak, Kec. Sukamara, Kabupaten Sukamara",KALIMANTAN TENGAH,74171.0,Indonesia,,,,-2.7626188,111.1824778,https://maps.google.com/?cid=0x0:0xe1cfbf4b882836a2,
komplek housing,Komplek perumahan,Soilah,"65MC+9WV, Jl. Bungalow III, Natai Sedawak, Kec. Sukamara, Kabupaten Sukamara, Kalimantan Tengah 74171","Jl. Bungalow III, Natai Sedawak, Kec. Sukamara, Kabupaten Sukamara",KALIMANTAN TENGAH,74171.0,Indonesia,,,,-2.7665047,111.1723058,https://maps.google.com/?cid=0x0:0xd57645747ef6fb7b,
komplek housing,komplek housing,RUMAH BADAR,"378H+F26, Sungai Pasir, Kec. Pantai Lunci, Kabupaten Sukamara, Kalimantan Tengah 74171","Sungai Pasir, Kec. Pantai Lunci, Kabupaten Sukamara",KALIMANTAN TENGAH,74171.0,Indonesia,,,,-2.9338146,111.2774799,https://maps.google.com/?cid=0x0:0xce2fe2c0521087ee,
komplek housing,komplek housing,Kalimantan Tengah 74173,Kalimantan Tengah,Kalimantan Tengah,KALIMANTAN TENGAH,,Indonesia,,,,-2.1830119,111.2368084,https://maps.google.com/?cid=0x0:0xfb45b5038030e34d,
komplek housing,komplek housing,Perumahan Afdeling 9,"V5C8+C4R, Semantun, Kec. Permata Kecubung, Kabupaten Sukamara, Kalimantan Tengah 74173","Semantun, Kec. Permata Kecubung, Kabupaten Sukamara",KALIMANTAN TENGAH,74173.0,Indonesia,,,,-2.1288981,111.1652687,https://maps.google.com/?cid=0x0:0xb9a99adab1ec17ce,
komplek housing,Komplek perumahan,Perumahan,"R78R+P5, Laman Baru, Kec. Permata Kecubung, Kabupaten Sukamara, Kalimantan Tengah","Kabupaten Sukamara, Kalimantan Tengah",KALIMANTAN TENGAH,,Indonesia,,,,-2.1832353,111.2903857,https://maps.google.com/?cid=0x0:0xb28aa8d235f45ff7,
komplek housing,Komplek perumahan,Perumahan jalur gozali,"P5QC+3FX, RT.11/RW.02, Natai Kondang, Kec. Permata Kecubung, Kabupaten Sukamara, Kalimantan Tengah 74173","RT.11/RW.02, Natai Kondang, Kec. Permata Kecubung, Kabupaten Sukamara",KALIMANTAN TENGAH,74173.0,Indonesia,,,,-2.262259,111.1712303,https://maps.google.com/?cid=0x0:0x35c9fb187740833,
komplek housing,Polisi Negara Bagian,Asrama Polsek Permata Kecubung,"74774, Ajang, Kec. Permata Kecubung, Kabupaten Sukamara, Kalimantan Tengah 74173","Ajang, Kec. Permata Kecubung, Kabupaten Sukamara",KALIMANTAN TENGAH,74173.0,Indonesia,,,,-2.2612844,111.2088121,https://maps.google.com/?cid=0x0:0x49e7876c91b29d96,
komplek housing,komplek housing,Sengkuni,"P5PJ+XC2, Natai Kondang, Kec. Permata Kecubung, Kabupaten Sukamara, Kalimantan Tengah 74173","Natai Kondang, Kec. Permata Kecubung, Kabupaten Sukamara",KALIMANTAN TENGAH,74173.0,Indonesia,,,,-2.2626107,111.1810066,https://maps.google.com/?cid=0x0:0xaaae94760f402bfb,
komplek housing,Komplek perumahan,Donatus Kui Home,"V5CJ+PRG, Semantun, Kec. Permata Kecubung, Kabupaten Sukamara, Kalimantan Tengah 74173","Semantun, Kec. Permata Kecubung, Kabupaten Sukamara",KALIMANTAN TENGAH,74173.0,Indonesia,,,,-2.1281823,111.1820912,https://maps.google.com/?cid=0x0:0x4865cbd4b3aa1db8,
komplek housing,Komplek perumahan,Mbah Ghozali,"P5XH+MX9, Natai Kondang, Kec. Permata Kecubung, Kabupaten Sukamara, Kalimantan Tengah 74173","Natai Kondang, Kec. Permata Kecubung, Kabupaten Sukamara",KALIMANTAN TENGAH,74173.0,Indonesia,,,,-2.2508351,111.1799842,https://maps.google.com/?cid=0x0:0xe8108f982e914be5,
komplek housing,Komplek perumahan,PERUMAHAN PKS GCM MILL,"V5CM+R2, Semantun, Kec. Permata Kecubung, Kabupaten Sukamara, Kalimantan Tengah","Kabupaten Sukamara, Kalimantan Tengah",KALIMANTAN TENGAH,,Indonesia,,,,-2.1279521,111.1825076,https://maps.google.com/?cid=0x0:0x7a0357204fb76d89,
komplek housing,Komplek perumahan,Lok jalur jamux,"P5QC+3FX, Natai Kondang, Kec. Permata Kecubung, Kabupaten Sukamara, Kalimantan Tengah 74173","Natai Kondang, Kec. Permata Kecubung, Kabupaten Sukamara",KALIMANTAN TENGAH,74173.0,Indonesia,,,,-2.262259,111.1712303,https://maps.google.com/?cid=0x0:0x903109286231da91,
komplek housing,Pembangunan Perumahan,Bp Grace,"Q6CX+FF5, Ajang, Kec. Permata Kecubung, Kabupaten Sukamara, Kalimantan Tengah","Kabupaten Sukamara, Kalimantan Tengah",KALIMANTAN TENGAH,,Indonesia,,,,-2.2288646,111.2487374,https://maps.google.com/?cid=0x0:0x981ef832e717f067,
komplek housing,komplek housing,Kec. Permata Kecubung,"Kabupaten Sukamara, Kalimantan Tengah","Kabupaten Sukamara, Kalimantan Tengah",KALIMANTAN TENGAH,,Indonesia,,,,-2.1946076,111.157699,https://maps.google.com/?cid=0x0:0x5913f2f384347b3b,
komplek housing,Kantor Pemerintah,Rumah Dinas Semantun,"R544+HH2, Jl. Kalau, Semantun, Kec. Permata Kecubung, Kabupaten Sukamara, Kalimantan Tengah 74173","Jl. Kalau, Semantun, Kec. Permata Kecubung, Kabupaten Sukamara",KALIMANTAN TENGAH,74173.0,Indonesia,,,,-2.1936113,111.1564048,https://maps.google.com/?cid=0x0:0xf13e420412daa135,
komplek housing,Komplek perumahan,Pak Budi family,"P5XG+3R2, RT.12/RW.02, Natai Kondang, Kec. Permata Kecubung, Kabupaten Sukamara, Kalimantan Tengah 74173","RT.12/RW.02, Natai Kondang, Kec. Permata Kecubung, Kabupaten Sukamara",KALIMANTAN TENGAH,74173.0,Indonesia,,,,-2.2523695,111.1770026,https://maps.google.com/?cid=0x0:0x2a6d648837c1d5d1,
komplek housing,komplek housing,RUMAH MANTO,"Q84M+JFH, Kenawan, Kec. Permata Kecubung, Kabupaten Sukamara, Kalimantan Tengah 74161","Kenawan, Kec. Permata Kecubung, Kabupaten Sukamara",KALIMANTAN TENGAH,74161.0,Indonesia,,,,-2.2429677,111.3338037,https://maps.google.com/?cid=0x0:0x670f708a9e17698e,
komplek housing,Komplek perumahan,Bun,"M453+6F9, Unnamed Road, Balai Riam, Kec. Balai Riam, Kabupaten Sukamara, Kalimantan Tengah 74173","Unnamed Road, Balai Riam, Kec. Balai Riam, Kabupaten Sukamara",KALIMANTAN TENGAH,74173.0,Indonesia,,,,-2.341971,111.103738,https://maps.google.com/?cid=0x0:0xdc72554ecb56b51a,
komplek housing,Komplek perumahan,Aqeela Naura's Home,"M5WJ+VWR, Bangun Jaya, Kec. Balai Riam, Kabupaten Sukamara, Kalimantan Tengah 74173","Bangun Jaya, Kec. Balai Riam, Kabupaten Sukamara",KALIMANTAN TENGAH,74173.0,Indonesia,82112538393.0,,,-2.3027654,111.1822555,https://maps.google.com/?cid=0x0:0xca6c52410336b515,
komplek housing,Pembangunan Perumahan,Es tebu sunarto,"P5RJ+J24, Natai Kondang, Kec. Permata Kecubung, Kabupaten Sukamara, Kalimantan Tengah 74173","Natai Kondang, Kec. Permata Kecubung, Kabupaten Sukamara",KALIMANTAN TENGAH,74173.0,Indonesia,,,,-2.2589915,111.1806569,https://maps.google.com/?cid=0x0:0xc5f3cf1679c3b77e,
komplek housing,Kolam Memancing,PEMANCINGAN,"P2PW+8V, Nibung Terjun, Kec. Permata Kecubung, Kabupaten Sukamara, Kalimantan Tengah","Kabupaten Sukamara, Kalimantan Tengah",KALIMANTAN TENGAH,,Indonesia,,,,-2.264143,111.0472092,https://maps.google.com/?cid=0x0:0x2c457937ea7e1af9,
komplek housing,Pembangunan Perumahan,Endang Rukmana,"P5VM+FRW, Jl. Pesantren, RT.02/RW.01, Natai Kondang, Kec. Permata Kecubung, Kabupaten Sukamara, Kalimantan Tengah 74173","Jl. Pesantren, RT.02/RW.01, Natai Kondang, Kec. Permata Kecubung, Kabupaten Sukamara",KALIMANTAN TENGAH,74173.0,Indonesia,82150500164.0,,,-2.2562736,111.1845813,https://maps.google.com/?cid=0x0:0x1754b670da76abf1,
komplek housing,komplek housing,Fendi,"Jl. Kasturi No.IV, Natai Kondang, Kec. Permata Kecubung, Kabupaten Sukamara, Kalimantan Tengah 74173","Natai Kondang, Kec. Permata Kecubung, Kabupaten Sukamara",KALIMANTAN TENGAH,74173.0,Indonesia,,,,-6.2805824,106.713402,https://maps.google.com/?cid=0x0:0x9161857277a127c2,
komplek housing,Komplek perumahan,Pak Babin Wahyudi,"P5WJ+3M7, Natai Kondang, Kec. Permata Kecubung, Kabupaten Sukamara, Kalimantan Tengah 74173","Natai Kondang, Kec. Permata Kecubung, Kabupaten Sukamara",KALIMANTAN TENGAH,74173.0,Indonesia,,,,-2.2548471,111.1816664,https://maps.google.com/?cid=0x0:0x238f8651cb06bdff,
komplek housing,Komplek perumahan,Rumah pak Paimin,"P5WG+PG4, Natai Kondang, Kec. Permata Kecubung, Kabupaten Sukamara, Kalimantan Tengah 74173","Natai Kondang, Kec. Permata Kecubung, Kabupaten Sukamara",KALIMANTAN TENGAH,74173.0,Indonesia,81250927302.0,,,-2.2532386,111.1763221,https://maps.google.com/?cid=0x0:0xf58d7685894dc278,
komplek housing,Komplek perumahan,mess Dea dan Rizki,"P529+RGG Mess PT KSK, Bangun Jaya, Kec. Balai Riam, Kabupaten Sukamara, Kalimantan Tengah 74173","Bangun Jaya, Kec. Balai Riam, Kabupaten Sukamara",KALIMANTAN TENGAH,74173.0,Indonesia,,,,-2.2979466,111.1688236,https://maps.google.com/?cid=0x0:0x48504da9b04a29ca,
komplek housing,komplek housing,Kalimantan Tengah 74172,"Kabupaten Sukamara, Kalimantan Tengah","Kabupaten Sukamara, Kalimantan Tengah",KALIMANTAN TENGAH,,Indonesia,,,,-2.4783286,111.2368084,https://maps.google.com/?cid=0x0:0xd20d489d27a950d7,
komplek housing,Komplek perumahan,RUMAH SAID ALMUNAWAN  NURLAILI RAHMAH,"75HC+5CG, Jalan Matsah, Mendawai, Kec. Sukamara, Kabupaten Sukamara, Kalimantan Tengah 74172","Jalan Matsah, Mendawai, Kec. Sukamara, Kabupaten Sukamara",KALIMANTAN TENGAH,74172.0,Indonesia,,,,-2.7220696,111.1710749,https://maps.google.com/?cid=0x0:0x16fe6cb048970cb4,
komplek housing,Komplek perumahan,Rumah Akhmad Nurhalim,"7588+G8, Mendawai, Kec. Sukamara, Kabupaten Sukamara, Kalimantan Tengah 74172","Mendawai, Kec. Sukamara, Kabupaten Sukamara",KALIMANTAN TENGAH,74172.0,Indonesia,,,,-2.7337436,111.165811,https://maps.google.com/?cid=0x0:0x1d8642f4a53eba66,
komplek housing,Komplek perumahan,Jeje Home,"755J+V7M, Natai Sedawak, Kec. Sukamara, Kabupaten Sukamara, Kalimantan Tengah 74171","Natai Sedawak, Kec. Sukamara, Kabupaten Sukamara",KALIMANTAN TENGAH,74171.0,Indonesia,,,,-2.7403761,111.1804263,https://maps.google.com/?cid=0x0:0x3e51b57e76206864,
komplek housing,Perhimpunan Pengembang Perumahan,Nazwa-Affan Home,"87P6+3F5, Karta Mulia, Kec. Sukamara, Kabupaten Sukamara, Kalimantan Tengah 74172","Karta Mulia, Kec. Sukamara, Kabupaten Sukamara",KALIMANTAN TENGAH,74172.0,Indonesia,,,,-2.665075,111.261509,https://maps.google.com/?cid=0x0:0x3f096690a9369c68,
komplek housing,Komplek perumahan,Jalan Wonosari dalam,"Jl. Wonosari Dalam No.147, RT.09/RW.03, Mendawai, Kec. Sukamara, Kabupaten Sukamara, Kalimantan Tengah","Kabupaten Sukamara, Kalimantan Tengah",KALIMANTAN TENGAH,,Indonesia,,,,-2.7163074,111.1695908,https://maps.google.com/?cid=0x0:0x8fafd0b60a3d93ba,
komplek housing,komplek housing,Desa jihing,"H4MH+VQH, Jihing, Kec. Balai Riam, Kabupaten Sukamara, Kalimantan Tengah","Kabupaten Sukamara, Kalimantan Tengah",KALIMANTAN TENGAH,,Indonesia,,,,-2.4153038,111.1294996,https://maps.google.com/?cid=0x0:0x346a49adffa809fb,
komplek housing,Pembangunan Perumahan,PERUMAHAN BLOK A GRIYA INDAH IV,"7588+Q6H, Mendawai, Kec. Sukamara, Kabupaten Sukamara, Kalimantan Tengah 74172","Mendawai, Kec. Sukamara, Kabupaten Sukamara",KALIMANTAN TENGAH,74172.0,Indonesia,,,,-2.7330683,111.1656107,https://maps.google.com/?cid=0x0:0x5305f60bd6ba963d,
komplek housing,Komplek perumahan,Deky koplak,"75MC+QM4, Mendawai, Kec. Sukamara, Kabupaten Sukamara, Kalimantan Tengah 74172","Mendawai, Kec. Sukamara, Kabupaten Sukamara",KALIMANTAN TENGAH,74172.0,Indonesia,,,,-2.7168362,111.171934,https://maps.google.com/?cid=0x0:0x250c9280f8f119cc,
komplek housing,Komplek perumahan,Afdeling ix,"H4M2+4X, Jihing, Kec. Balai Riam, Kabupaten Sukamara, Kalimantan Tengah","Kabupaten Sukamara, Kalimantan Tengah",KALIMANTAN TENGAH,,Indonesia,,,,-2.4171733,111.102445,https://maps.google.com/?cid=0x0:0xb787f86e0e99ff3b,
komplek housing,Pembangunan Perumahan,Rumah Pak Yupiansyah,"75XF+7WG, Padang, Kec. Sukamara, Kabupaten Sukamara, Kalimantan Tengah 74172","Padang, Kec. Sukamara, Kabupaten Sukamara",KALIMANTAN TENGAH,74172.0,Indonesia,,,,-2.7019964,111.174515,https://maps.google.com/?cid=0x0:0x640bbed410878b8e,
komplek housing,Kantor Pemerintah Distrik,Gapura Desa Sumber Mukti,"F6CW+C53, Sukaraja, Kec. Sukamara, Kabupaten Sukamara, Kalimantan Tengah 74172","Sukaraja, Kec. Sukamara, Kabupaten Sukamara",KALIMANTAN TENGAH,74172.0,Indonesia,,,,-2.5289816,111.2454128,https://maps.google.com/?cid=0x0:0xddedde2326a80326,
komplek housing,komplek housing,Rumah kecil,"J6P9+QHV, RT.05/RW.02, Bukit Sungkai, Kec. Balai Riam, Kabupaten Sukamara, Kalimantan Tengah 74172","RT.05/RW.02, Bukit Sungkai, Kec. Balai Riam, Kabupaten Sukamara",KALIMANTAN TENGAH,74172.0,Indonesia,,,,-2.3630133,111.2189233,https://maps.google.com/?cid=0x0:0xb39f72053bcb0962,
komplek housing,Komplek perumahan,HANNA 1,"M584+6X, Balai Riam, Kec. Balai Riam, Kabupaten Sukamara, Kalimantan Tengah","Kabupaten Sukamara, Kalimantan Tengah",KALIMANTAN TENGAH,,Indonesia,,,,-2.334392,111.157444,https://maps.google.com/?cid=0x0:0x7b3f45259aca2f18,
komplek housing,Komplek perumahan,"Perumahan Green Mansion Fatrida,rumah yang ada tanaman daun bawang","75C9+5MJ, Jl. H. Syamsi, Pudu, Kec. Sukamara, Kabupaten Sukamara, Kalimantan Tengah 74172","Jl. H. Syamsi, Pudu, Kec. Sukamara, Kabupaten Sukamara",KALIMANTAN TENGAH,74172.0,Indonesia,,,,-2.7295375,111.1691406,https://maps.google.com/?cid=0x0:0x738c60824cc9aa45,
komplek housing,Komplek perumahan,Rumah Khumaira,"758C+2X5, Jl. Damang Rundun, Pudu, Kec. Sukamara, Kabupaten Sukamara, Kalimantan Tengah 74172","Jl. Damang Rundun, Pudu, Kec. Sukamara, Kabupaten Sukamara",KALIMANTAN TENGAH,74172.0,Indonesia,,,,-2.735061,111.1724477,https://maps.google.com/?cid=0x0:0x76320d80bf8b575f,
komplek housing,komplek housing,bengkel motor A2,"75G8+GJH, Jl. Pangeran Sukarma No.rt14 rw 04, Padang, Kec. Sukamara, Kabupaten Sukamara, Kalimantan Tengah 74172","Jl. Pangeran Sukarma No.rt14 rw 04, Padang, Kec. Sukamara, Kabupaten Sukamara",KALIMANTAN TENGAH,74172.0,Indonesia,,,,-2.7105297,111.1785219,https://maps.google.com/?cid=0x0:0x8a641f405efa2a06,
komplek housing,Komplek perumahan,Dadank,"Jl. Pelabuhan Gang Bunga Sarai No.99, Mendawai, Kec. Sukamara, Kabupaten Sukamara, Kalimantan Tengah 74172","Mendawai, Kec. Sukamara, Kabupaten Sukamara",KALIMANTAN TENGAH,74172.0,Indonesia,,,,-2.7182752,111.1635201,https://maps.google.com/?cid=0x0:0xdec8a40125c7eb3a,
komplek housing,Komplek perumahan,Bun,"M453+6F9, Unnamed Road, Balai Riam, Kec. Balai Riam, Kabupaten Sukamara, Kalimantan Tengah 74173","Unnamed Road, Balai Riam, Kec. Balai Riam, Kabupaten Sukamara",KALIMANTAN TENGAH,74173.0,Indonesia,,,,-2.341971,111.103738,https://maps.google.com/?cid=0x0:0xdc72554ecb56b51a,
komplek housing,Komplek perumahan,Tingkat Dua,"75PC+6WP, Jl. Iskandar, Mendawai, Kec. Sukamara, Kabupaten Sukamara, Kalimantan Tengah 74172","Jl. Iskandar, Mendawai, Kec. Sukamara, Kabupaten Sukamara",KALIMANTAN TENGAH,74172.0,Indonesia,,,,-2.7144193,111.1723148,https://maps.google.com/?cid=0x0:0xb805ad89adfbaac6,
komplek housing,Komplek perumahan,Shafwah Sukamara,"Jl. Tjilik Riwut, Natai Sedawak, Kec. Sukamara, Kabupaten Sukamara, Kalimantan Tengah 74172","Natai Sedawak, Kec. Sukamara, Kabupaten Sukamara",KALIMANTAN TENGAH,74172.0,Indonesia,82123239991.0,,,-2.7587901,111.1868289,https://maps.google.com/?cid=0x0:0x3e5b5c7f8f12f12c,
komplek housing,Komplek perumahan,Rumah pak widodo,"75MC+742, Mendawai, Kec. Sukamara, Kabupaten Sukamara, Kalimantan Tengah 74172","Mendawai, Kec. Sukamara, Kabupaten Sukamara",KALIMANTAN TENGAH,74172.0,Indonesia,,,,-2.7166413,111.1706154,https://maps.google.com/?cid=0x0:0x5e056e7d05679279,
komplek housing,Pembangunan Perumahan,Rumah diki,"75F9+2C2, Jl. Ali Ahmad, Mendawai, Kec. Sukamara, Kabupaten Sukamara, Kalimantan Tengah 74172","Jl. Ali Ahmad, Mendawai, Kec. Sukamara, Kabupaten Sukamara",KALIMANTAN TENGAH,74172.0,Indonesia,,,,-2.7274746,111.1683761,https://maps.google.com/?cid=0x0:0xa17664a332172949,
komplek housing,Komplek perumahan,RUMAH DIDI DAN LIA,"Jl.Jais RT.03, Blok N 0.67, Mendawai, Kec. Sukamara, Kabupaten Sukamara, Kalimantan Tengah 74172","Blok N 0.67, Mendawai, Kec. Sukamara, Kabupaten Sukamara",KALIMANTAN TENGAH,74172.0,Indonesia,85389114114.0,,,-2.7117176,111.1696102,https://maps.google.com/?cid=0x0:0xb395dfb3d193e354,
komplek housing,Komplek perumahan,Rumah Dhaffa  Alesha,"Jl. Cakra Adiwijaya No.16, Mendawai, Kec. Sukamara, Kabupaten Sukamara, Kalimantan Tengah 74172","Mendawai, Kec. Sukamara, Kabupaten Sukamara",KALIMANTAN TENGAH,74172.0,Indonesia,,,,-2.7098131,111.1681807,https://maps.google.com/?cid=0x0:0xa0e71c2f638d69d7,
komplek housing,Komplek perumahan,Rumah Aunaa,"75XF+R4X, Jl. Cakra Adiwijaya, Padang, Kec. Sukamara, Kabupaten Sukamara, Kalimantan Tengah 74172","Jl. Cakra Adiwijaya, Padang, Kec. Sukamara, Kabupaten Sukamara",KALIMANTAN TENGAH,74172.0,Indonesia,,,,-2.7003922,111.1728611,https://maps.google.com/?cid=0x0:0x8486f7f051d70b26,
komplek housing,Komplek perumahan,Rumah WILDAN,"75WC+VJ5, Padang, Kec. Sukamara, Kabupaten Sukamara, Kalimantan Tengah 74172","Padang, Kec. Sukamara, Kabupaten Sukamara",KALIMANTAN TENGAH,74172.0,Indonesia,,,,-2.7026555,111.1712685,https://maps.google.com/?cid=0x0:0xa87866c4550f64b6,
komplek housing,Perhimpunan Pengembang Perumahan,waone,"75F9+XXF, Mendawai, Kec. Sukamara, Kabupaten Sukamara, Kalimantan Tengah 74172","Mendawai, Kec. Sukamara, Kabupaten Sukamara",KALIMANTAN TENGAH,74172.0,Indonesia,,,,-2.72557,111.169838,https://maps.google.com/?cid=0x0:0x4c7f98ac9b307419,
komplek housing,Pembangunan Perumahan,"Syamsir Hidayat, S.Pi., M.Si.","75G9+6JJ, Mendawai, Kec. Sukamara, Kabupaten Sukamara, Kalimantan Tengah 74172","Mendawai, Kec. Sukamara, Kabupaten Sukamara",KALIMANTAN TENGAH,74172.0,Indonesia,,,,-2.725001,111.168937,https://maps.google.com/?cid=0x0:0xcb181da24542ae40,
perumahan,perumahan,Kalimantan Tengah 74173,Kalimantan Tengah,Kalimantan Tengah,KALIMANTAN TENGAH,,Indonesia,,,,-2.1830119,111.2368084,https://maps.google.com/?cid=0x0:0xfb45b5038030e34d,
perumahan,Komplek perumahan,BALAI RIAM RESIDENCE,"M5RJ+XF7, Bangun Jaya, Kec. Balai Riam, Kabupaten Sukamara, Kalimantan Tengah","Kabupaten Sukamara, Kalimantan Tengah",KALIMANTAN TENGAH,,Indonesia,,,,-2.307576,111.1811642,https://maps.google.com/?cid=0x0:0xd793f40136e25f9b,
perumahan,Komplek perumahan,Purnama cell,"Sp3, Bangun Jaya, Kec. Balai Riam, Kabupaten Sukamara, Kalimantan Tengah 74173","Bangun Jaya, Kec. Balai Riam, Kabupaten Sukamara",KALIMANTAN TENGAH,74173.0,Indonesia,85752132750.0,,,-2.2992372,111.1831361,https://maps.google.com/?cid=0x0:0x9bb8a5b2020a94ac,
perumahan,Pembangunan Perumahan,Rumah Alim Subandrio,"Desa Bangun Jaya RT.01/RW01, Kecamatan Balai Riam, Kabupaten Sukamara, Kodepos, Kalimantan Tengah 74174","Kecamatan Balai Riam, Kabupaten Sukamara, Kodepos",KALIMANTAN TENGAH,74174.0,Indonesia,82257458614.0,,,-2.3023599,111.180249,https://maps.google.com/?cid=0x0:0x236bc1bef6a6228b,
perumahan,Komplek perumahan,Rumah Natha,"Bangun Jaya, Kec. Balai Riam, Kabupaten Sukamara, Kalimantan Tengah 74173","Kec. Balai Riam, Kabupaten Sukamara",KALIMANTAN TENGAH,74173.0,Indonesia,,,,-2.2960565,111.182913,https://maps.google.com/?cid=0x0:0x149f3aa8e349234c,
perumahan,Komplek perumahan,balai riam,"J5H4+MQ7, Air Dua, Kec. Balai Riam, Kabupaten Sukamara, Kalimantan Tengah","Kabupaten Sukamara, Kalimantan Tengah",KALIMANTAN TENGAH,,Indonesia,,,,-2.3708462,111.1569294,https://maps.google.com/?cid=0x0:0x1b7cb9665aa06d28,
perumahan,Komplek perumahan,Rumah Arya BalaiRiam,"M583+VV5, Jl. Demang Jemari, Balai Riam, Kec. Balai Riam, Kabupaten Sukamara, Kalimantan Tengah 74173","Jl. Demang Jemari, Balai Riam, Kec. Balai Riam, Kabupaten Sukamara",KALIMANTAN TENGAH,74173.0,Indonesia,,,,-2.3331125,111.1548796,https://maps.google.com/?cid=0x0:0x70f162b210480a9c,
perumahan,perumahan,Rumah Teguh,"M55M+4XM, Balai Riam, Kec. Balai Riam, Kabupaten Sukamara, Kalimantan Tengah","Kabupaten Sukamara, Kalimantan Tengah",KALIMANTAN TENGAH,,Indonesia,,,,-2.3421524,111.1849096,https://maps.google.com/?cid=0x0:0x1d285fad9d9062c5,
perumahan,Komplek perumahan,mess Dea dan Rizki,"P529+RGG Mess PT KSK, Bangun Jaya, Kec. Balai Riam, Kabupaten Sukamara, Kalimantan Tengah 74173","Bangun Jaya, Kec. Balai Riam, Kabupaten Sukamara",KALIMANTAN TENGAH,74173.0,Indonesia,,,,-2.2979466,111.1688236,https://maps.google.com/?cid=0x0:0x48504da9b04a29ca,
perumahan,perumahan,Tores trs,"M54J+V9, Balai Riam, Kec. Balai Riam, Kabupaten Sukamara, Kalimantan Tengah 74172","Balai Riam, Kec. Balai Riam, Kabupaten Sukamara",KALIMANTAN TENGAH,74172.0,Indonesia,,,,-2.342869,111.180168,https://maps.google.com/?cid=0x0:0xf1d94dc992313e43,
perumahan,Komplek perumahan,Rumah arfan,"M5F5+9HX, Jl. Kihajar Dewantara, Balai Riam, Kec. Balai Riam, Kabupaten Sukamara, Kalimantan Tengah 74173","Jl. Kihajar Dewantara, Balai Riam, Kec. Balai Riam, Kabupaten Sukamara",KALIMANTAN TENGAH,74173.0,Indonesia,,,,-2.3265085,111.1589871,https://maps.google.com/?cid=0x0:0x7ebdc869930b77c4,
perumahan,Komplek perumahan,HANNA 1,"M584+6X, Balai Riam, Kec. Balai Riam, Kabupaten Sukamara, Kalimantan Tengah","Kabupaten Sukamara, Kalimantan Tengah",KALIMANTAN TENGAH,,Indonesia,,,,-2.334392,111.157444,https://maps.google.com/?cid=0x0:0x7b3f45259aca2f18,
perumahan,perumahan,Rumah kecil,"J6P9+QHV, RT.05/RW.02, Bukit Sungkai, Kec. Balai Riam, Kabupaten Sukamara, Kalimantan Tengah 74172","RT.05/RW.02, Bukit Sungkai, Kec. Balai Riam, Kabupaten Sukamara",KALIMANTAN TENGAH,74172.0,Indonesia,,,,-2.3630133,111.2189233,https://maps.google.com/?cid=0x0:0xb39f72053bcb0962,
perumahan,Komplek perumahan,Rumah Gracia,"H4VX+VM, Jihing, Kec. Balai Riam, Kabupaten Sukamara, Kalimantan Tengah","Kabupaten Sukamara, Kalimantan Tengah",KALIMANTAN TENGAH,,Indonesia,,,,-2.4066728,111.1489663,https://maps.google.com/?cid=0x0:0x3f24d1197f0eb1b2,
perumahan,Jasa Konstruksi dan Bangunan,Desa Pempaning,"M4X4+VQ, Pempaning, Kec. Balai Riam, Kabupaten Sukamara, Kalimantan Tengah","Kabupaten Sukamara, Kalimantan Tengah",KALIMANTAN TENGAH,,Indonesia,,,,-2.3002733,111.1068556,https://maps.google.com/?cid=0x0:0xba619e09d9dd196d,
perumahan,Pembangunan Perumahan,Imastea,"M5VM+RPJ, Unnamed Road, Bangun Jaya, Kec. Balai Riam, Kabupaten Sukamara, Kalimantan Tengah 74173","Unnamed Road, Bangun Jaya, Kec. Balai Riam, Kabupaten Sukamara",KALIMANTAN TENGAH,74173.0,Indonesia,,,,-2.305421,111.184278,https://maps.google.com/?cid=0x0:0x82eb1a4e025b5b20,
perumahan,Komplek perumahan,Perumahan Karyawan Afdeling XI - PT. GCM,"W54X+MW, Semantun, Kec. Permata Kecubung, Kabupaten Sukamara, Kalimantan Tengah","Kabupaten Sukamara, Kalimantan Tengah",KALIMANTAN TENGAH,,Indonesia,,,,-2.093346,111.199759,https://maps.google.com/?cid=0x0:0x9fa25b447858d469,
perumahan,perumahan,RUMAH MANTO,"Q84M+JFH, Kenawan, Kec. Permata Kecubung, Kabupaten Sukamara, Kalimantan Tengah 74161","Kenawan, Kec. Permata Kecubung, Kabupaten Sukamara",KALIMANTAN TENGAH,74161.0,Indonesia,,,,-2.2429677,111.3338037,https://maps.google.com/?cid=0x0:0x670f708a9e17698e,
perumahan,perumahan,Desa jihing,"H4MH+VQH, Jihing, Kec. Balai Riam, Kabupaten Sukamara, Kalimantan Tengah","Kabupaten Sukamara, Kalimantan Tengah",KALIMANTAN TENGAH,,Indonesia,,,,-2.4153038,111.1294996,https://maps.google.com/?cid=0x0:0x346a49adffa809fb,
perumahan,Komplek perumahan,Aqeela Naura's Home,"M5WJ+VWR, Bangun Jaya, Kec. Balai Riam, Kabupaten Sukamara, Kalimantan Tengah 74173","Bangun Jaya, Kec. Balai Riam, Kabupaten Sukamara",KALIMANTAN TENGAH,74173.0,Indonesia,82112538393.0,,,-2.3027654,111.1822555,https://maps.google.com/?cid=0x0:0xca6c52410336b515,
perumahan,Pembangunan Perumahan,Irma dwi Saputri,"M594+9PC, Jl. Kihajar Dewantara, Balai Riam, Kec. Balai Riam, Kabupaten Sukamara, Kalimantan Tengah 74173","Jl. Kihajar Dewantara, Balai Riam, Kec. Balai Riam, Kabupaten Sukamara",KALIMANTAN TENGAH,74173.0,Indonesia,,,,-2.3316117,111.1574572,https://maps.google.com/?cid=0x0:0x9e39cf02303ec34b,
perumahan,Komplek perumahan,Haji oden,"P52W+WFR, Unnamed Road, Bangun Jaya, Kec. Balai Riam, Kabupaten Sukamara, Kalimantan Tengah 74173","Unnamed Road, Bangun Jaya, Kec. Balai Riam, Kabupaten Sukamara",KALIMANTAN TENGAH,74173.0,Indonesia,81251229424.0,,,-2.297645,111.196131,https://maps.google.com/?cid=0x0:0xd65223cc39d3a523,
perumahan,perumahan,Kec. Jelai,"Kabupaten Sukamara, Kalimantan Tengah","Kabupaten Sukamara, Kalimantan Tengah",KALIMANTAN TENGAH,,Indonesia,,,,-2.9859918,110.7376759,https://maps.google.com/?cid=0x0:0x877a89d41ac3d0a6,
perumahan,Komplek perumahan,Gosong City,"2P7P+337, Kuala Jelai, Kec. Jelai, Kabupaten Sukamara, Kalimantan Tengah 74171","Kuala Jelai, Kec. Jelai, Kabupaten Sukamara",KALIMANTAN TENGAH,74171.0,Indonesia,,,,-2.9877913,110.7351351,https://maps.google.com/?cid=0x0:0x463024e5f43f190f,
perumahan,Perhimpunan Pengembang Perumahan,Simpang Nibung,"2RP9+RJ, Sungai Baru, Kec. Jelai, Kabupaten Sukamara, Kalimantan Tengah","Kabupaten Sukamara, Kalimantan Tengah",KALIMANTAN TENGAH,,Indonesia,,,,-2.9629131,110.8190264,https://maps.google.com/?cid=0x0:0x6908428208e63fb6,
perumahan,Komplek perumahan,csg1,"X22W+9V, Sungai Damar, Kec. Pantai Lunci, Kabupaten Sukamara, Kalimantan Tengah","Kabupaten Sukamara, Kalimantan Tengah",KALIMANTAN TENGAH,,Indonesia,,,,-3.0490625,111.0471875,https://maps.google.com/?cid=0x0:0x2497822d915cca14,
perumahan,Kedai Kopi,Kedai Afif,"2PFR+FV2, Kuala Jelai, Kec. Jelai, Kabupaten Sukamara, Kalimantan Tengah 74171","Kuala Jelai, Kec. Jelai, Kabupaten Sukamara",KALIMANTAN TENGAH,74171.0,Indonesia,,,,-2.9764585,110.7427424,https://maps.google.com/?cid=0x0:0x5827563298c4475a,
perumahan,Kantor Pemerintah,Lokasi pekerjaan pengembangan jaringan perpipaan kec.kuala jelai kab.sukamara,"2PCR+PJP, Kuala Jelai, Kec. Jelai, Kabupaten Sukamara, Kalimantan Tengah 74171","Kuala Jelai, Kec. Jelai, Kabupaten Sukamara",KALIMANTAN TENGAH,74171.0,Indonesia,,,,-2.9781518,110.741576,https://maps.google.com/?cid=0x0:0xc494b7203f624561,
perumahan,Pembangunan Perumahan,Saparudin,"2P7P+337, Kuala Jelai, Kec. Jelai, Kabupaten Sukamara, Kalimantan Tengah 74171","Kuala Jelai, Kec. Jelai, Kabupaten Sukamara",KALIMANTAN TENGAH,74171.0,Indonesia,,,,-2.9868328,110.7352697,https://maps.google.com/?cid=0x0:0xe7036155eed689cb,
perumahan,Toko,Rumahnya Keyto,"2P7P+MXH, Kuala Jelai, Kec. Jelai, Kabupaten Sukamara, Kalimantan Tengah 74171","Kuala Jelai, Kec. Jelai, Kabupaten Sukamara",KALIMANTAN TENGAH,74171.0,Indonesia,,,,-2.9857978,110.737466,https://maps.google.com/?cid=0x0:0x498624cb35ce9bad,
perumahan,Komplek perumahan,Rumah Oneng Hamsani,"2P7P+CPV, Jl. Abu taib, Kuala Jelai, Kec. Jelai, Kabupaten Sukamara, Kalimantan Tengah 74771","Jl. Abu taib, Kuala Jelai, Kec. Jelai, Kabupaten Sukamara",KALIMANTAN TENGAH,74771.0,Indonesia,,,,-2.9864027,110.7367558,https://maps.google.com/?cid=0x0:0x6e5b1e2f09ab9926,
perumahan,Komplek perumahan,Rumah Kang andiie,"3VV2+8V, Pulau Nibung, Kec. Jelai, Kabupaten Sukamara, Kalimantan Tengah 74171","Pulau Nibung, Kec. Jelai, Kabupaten Sukamara",KALIMANTAN TENGAH,74171.0,Indonesia,,,,-2.906742,110.852198,https://maps.google.com/?cid=0x0:0x8bf4d5f93f78957a,
perumahan,Pembangunan Perumahan,Rumah SAJJAD ZOLA,"4V44+59, Pulau Nibung, Kec. Jelai, Kabupaten Sukamara, Kalimantan Tengah","Kabupaten Sukamara, Kalimantan Tengah",KALIMANTAN TENGAH,,Indonesia,,,,-2.8938557,110.8565301,https://maps.google.com/?cid=0x0:0x609bcd4cca93fab,
perumahan,Komplek perumahan,USU duni,"2P9R+J5G, Kuala Jelai, Kec. Jelai, Kabupaten Sukamara, Kalimantan Tengah 74171","Kuala Jelai, Kec. Jelai, Kabupaten Sukamara",KALIMANTAN TENGAH,74171.0,Indonesia,,,,-2.9809947,110.7411689,https://maps.google.com/?cid=0x0:0x6d446ba276e5022e,
perumahan,Komplek perumahan,Bintang Andalusia,"Jl. Atak No.18, 74171, Kuala Jelai, Kec. Jelai, Kabupaten Sukamara, Kalimantan Tengah 74171","74171, Kuala Jelai, Kec. Jelai, Kabupaten Sukamara",KALIMANTAN TENGAH,74171.0,Indonesia,,,,-2.9868652,110.7377403,https://maps.google.com/?cid=0x0:0xbe44a9c49a49684c,
perumahan,Komplek perumahan,niaalda bungas,"2P7P+5G5, Kuala Jelai, Kec. Jelai, Kabupaten Sukamara, Kalimantan Tengah 74171","Kuala Jelai, Kec. Jelai, Kabupaten Sukamara",KALIMANTAN TENGAH,74171.0,Indonesia,,,,-2.9870355,110.7364298,https://maps.google.com/?cid=0x0:0x651b55440383b9dd,
perumahan,Komplek perumahan,Rumah Pahimah,"2V65+8C3, Sungai Baru, Kec. Jelai, Kabupaten Sukamara, Kalimantan Tengah 74171","Sungai Baru, Kec. Jelai, Kabupaten Sukamara",KALIMANTAN TENGAH,74171.0,Indonesia,,,,-2.9892306,110.8585464,https://maps.google.com/?cid=0x0:0x6a3720efb3980515,
perumahan,Komplek perumahan,Dzakir Sayyid Home,"4W87+5X6, Pulau Nibung, Kec. Jelai, Kabupaten Sukamara, Kalimantan Tengah","Kabupaten Sukamara, Kalimantan Tengah",KALIMANTAN TENGAH,,Indonesia,,,,-2.8845921,110.9148985,https://maps.google.com/?cid=0x0:0x55b05db3a684bc49,
perumahan,Pusat Kesehatan Masyarakat,Poskesdes Kuala Jelai,"2P7Q+47R, Kuala Jelai, Kec. Jelai, Kabupaten Sukamara, Kalimantan Tengah 74171","Kuala Jelai, Kec. Jelai, Kabupaten Sukamara",KALIMANTAN TENGAH,74171.0,Indonesia,,,,-2.9871494,110.7381496,https://maps.google.com/?cid=0x0:0xf816b52090b01002,
perumahan,Toko umum,Rumah najua,"2P7P+6MF, Kuala Jelai, Kec. Jelai, Kabupaten Sukamara, Kalimantan Tengah","Kabupaten Sukamara, Kalimantan Tengah",KALIMANTAN TENGAH,,Indonesia,,,,-2.9872863,110.7368386,https://maps.google.com/?cid=0x0:0xf79ffed99288662c,
perumahan,Inspektur Tempat Tinggal,Rumah herwanro,"W2R7+VHF, Sungai Damar, Kec. Pantai Lunci, Kabupaten Sukamara, Kalimantan Tengah 74171","Sungai Damar, Kec. Pantai Lunci, Kabupaten Sukamara",KALIMANTAN TENGAH,74171.0,Indonesia,,,,-3.057639,111.014057,https://maps.google.com/?cid=0x0:0xbc05befc12544141,
perumahan,Komplek perumahan,Tatah pak edy,"3XP5+CR, Pulau Nibung, Kec. Jelai, Kabupaten Sukamara, Kalimantan Tengah","Kabupaten Sukamara, Kalimantan Tengah",KALIMANTAN TENGAH,,Indonesia,,,,-2.9139217,110.9595876,https://maps.google.com/?cid=0x0:0xfe11711a1180cec5,
perumahan,Pembangunan Perumahan,Eto,"W2R7+VHF, Sungai Damar, Kec. Pantai Lunci, Kabupaten Sukamara, Kalimantan Tengah 74171","Sungai Damar, Kec. Pantai Lunci, Kabupaten Sukamara",KALIMANTAN TENGAH,74171.0,Indonesia,82351727797.0,,,-3.056444,111.014144,https://maps.google.com/?cid=0x0:0xde39cb373a00011,
perumahan,perumahan,Kalimantan Tengah 74171,"Kabupaten Sukamara, Kalimantan Tengah","Kabupaten Sukamara, Kalimantan Tengah",KALIMANTAN TENGAH,,Indonesia,,,,-2.9288777,111.0460407,https://maps.google.com/?cid=0x0:0xdaaca932d5c1b031,
perumahan,perumahan,Kalimantan Tengah 74171,"Kabupaten Sukamara, Kalimantan Tengah","Kabupaten Sukamara, Kalimantan Tengah",KALIMANTAN TENGAH,,Indonesia,,,,-2.9288777,111.0460407,https://maps.google.com/?cid=0x0:0xdaaca932d5c1b031,
perumahan,Komplek perumahan,csg1,"X22W+9V, Sungai Damar, Kec. Pantai Lunci, Kabupaten Sukamara, Kalimantan Tengah","Kabupaten Sukamara, Kalimantan Tengah",KALIMANTAN TENGAH,,Indonesia,,,,-3.0490625,111.0471875,https://maps.google.com/?cid=0x0:0x2497822d915cca14,
perumahan,Produsen,Loenci,"3722+GR6, Sungai Pasir, Kec. Pantai Lunci, Kabupaten Sukamara, Kalimantan Tengah 74171","Sungai Pasir, Kec. Pantai Lunci, Kabupaten Sukamara",KALIMANTAN TENGAH,74171.0,Indonesia,,,,-2.948129,111.251926,https://maps.google.com/?cid=0x0:0xdd33892c411dc8f5,
perumahan,Pembangunan Perumahan,Rumah suryadi,"Jalan sawo No.rt.03, Sungai Tabuk, Kec. Pantai Lunci, Kabupaten Sukamara, Kalimantan Tengah 74171","Sungai Tabuk, Kec. Pantai Lunci, Kabupaten Sukamara",KALIMANTAN TENGAH,74171.0,Indonesia,,,,-3.0033779,111.1441747,https://maps.google.com/?cid=0x0:0x12b3eeaf734317b9,
perumahan,Inspektur Tempat Tinggal,Rumah herwanro,"W2R7+VHF, Sungai Damar, Kec. Pantai Lunci, Kabupaten Sukamara, Kalimantan Tengah 74171","Sungai Damar, Kec. Pantai Lunci, Kabupaten Sukamara",KALIMANTAN TENGAH,74171.0,Indonesia,,,,-3.057639,111.014057,https://maps.google.com/?cid=0x0:0xbc05befc12544141,
perumahan,Pembangunan Perumahan,Eto,"W2R7+VHF, Sungai Damar, Kec. Pantai Lunci, Kabupaten Sukamara, Kalimantan Tengah 74171","Sungai Damar, Kec. Pantai Lunci, Kabupaten Sukamara",KALIMANTAN TENGAH,74171.0,Indonesia,82351727797.0,,,-3.056444,111.014144,https://maps.google.com/?cid=0x0:0xde39cb373a00011,
perumahan,Komplek perumahan,Rumah SUHARTA,"65G9+Q9, Sungai Cabang Bar., Kec. Pantai Lunci, Kabupaten Sukamara, Kalimantan Tengah","Kabupaten Sukamara, Kalimantan Tengah",KALIMANTAN TENGAH,,Indonesia,,,,-2.7729476,111.1685427,https://maps.google.com/?cid=0x0:0x61630ae184715f54,
perumahan,Perhimpunan Pengembang Perumahan,waone,"75F9+XXF, Mendawai, Kec. Sukamara, Kabupaten Sukamara, Kalimantan Tengah 74172","Mendawai, Kec. Sukamara, Kabupaten Sukamara",KALIMANTAN TENGAH,74172.0,Indonesia,,,,-2.72557,111.169838,https://maps.google.com/?cid=0x0:0x4c7f98ac9b307419,
perumahan,Kantor Pemerintah,Sungai cabang barat,"26C6+85, Sungai Cabang Bar., Kec. Pantai Lunci, Kabupaten Sukamara, Kalimantan Tengah","Kabupaten Sukamara, Kalimantan Tengah",KALIMANTAN TENGAH,,Indonesia,,,,-2.9792312,111.2104874,https://maps.google.com/?cid=0x0:0x29438755ca144e2d,
perumahan,perumahan,Kec. Pantai Lunci,"Kabupaten Sukamara, Kalimantan Tengah","Kabupaten Sukamara, Kalimantan Tengah",KALIMANTAN TENGAH,,Indonesia,,,,-2.9270008,111.1414226,https://maps.google.com/?cid=0x0:0x2906c2198e876fb0,
perumahan,Komplek perumahan,RUMAH SAID ALMUNAWAN  NURLAILI RAHMAH,"75HC+5CG, Jalan Matsah, Mendawai, Kec. Sukamara, Kabupaten Sukamara, Kalimantan Tengah 74172","Jalan Matsah, Mendawai, Kec. Sukamara, Kabupaten Sukamara",KALIMANTAN TENGAH,74172.0,Indonesia,,,,-2.7220696,111.1710749,https://maps.google.com/?cid=0x0:0x16fe6cb048970cb4,
perumahan,Komplek perumahan,Rumah ipunk,"254H+M83, Sungai Cabang Bar., Kec. Pantai Lunci, Kabupaten Sukamara, Kalimantan Tengah 74171","Sungai Cabang Bar., Kec. Pantai Lunci, Kabupaten Sukamara",KALIMANTAN TENGAH,74171.0,Indonesia,,,,-2.9930499,111.1778245,https://maps.google.com/?cid=0x0:0xaa386a26167bc27a,
perumahan,perumahan,bengkel motor A2,"75G8+GJH, Jl. Pangeran Sukarma No.rt14 rw 04, Padang, Kec. Sukamara, Kabupaten Sukamara, Kalimantan Tengah 74172","Jl. Pangeran Sukarma No.rt14 rw 04, Padang, Kec. Sukamara, Kabupaten Sukamara",KALIMANTAN TENGAH,74172.0,Indonesia,,,,-2.7105297,111.1785219,https://maps.google.com/?cid=0x0:0x8a641f405efa2a06,
perumahan,Komplek perumahan,Rumah Pak Nia,"65G9+Q9, Sungai Cabang Bar., Kec. Pantai Lunci, Kabupaten Sukamara, Kalimantan Tengah","Kabupaten Sukamara, Kalimantan Tengah",KALIMANTAN TENGAH,,Indonesia,,,,-2.7730883,111.1684019,https://maps.google.com/?cid=0x0:0xb6e4d00df1b7d67b,
perumahan,Komplek perumahan,Bedeng Home Village,"65J9+W9, Natai Sedawak, Kec. Sukamara, Kabupaten Sukamara, Kalimantan Tengah","Kabupaten Sukamara, Kalimantan Tengah",KALIMANTAN TENGAH,,Indonesia,,,,-2.7677689,111.1683965,https://maps.google.com/?cid=0x0:0xbf9c0da1c94e484f,
perumahan,Perhimpunan Pengembang Perumahan,Sekretariat Kop. IMS,"3757+GQ, Sungai Pasir, Kec. Pantai Lunci, Kabupaten Sukamara, Kalimantan Tengah","Kabupaten Sukamara, Kalimantan Tengah",KALIMANTAN TENGAH,,Indonesia,,,,-2.9411889,111.2644595,https://maps.google.com/?cid=0x0:0xff009ccda8a41dcb,
perumahan,Pembangunan Perumahan,Perumahan Geriya Indah - V,"75C8+22G, Mendawai, Kec. Sukamara, Kabupaten Sukamara, Kalimantan Tengah 74172","Mendawai, Kec. Sukamara, Kabupaten Sukamara",KALIMANTAN TENGAH,74172.0,Indonesia,,,,-2.7299454,111.165078,https://maps.google.com/?cid=0x0:0xb9667bb1c66c8a97,
perumahan,Pembangunan Perumahan,Rumah Pak Yupiansyah,"75XF+7WG, Padang, Kec. Sukamara, Kabupaten Sukamara, Kalimantan Tengah 74172","Padang, Kec. Sukamara, Kabupaten Sukamara",KALIMANTAN TENGAH,74172.0,Indonesia,,,,-2.7019964,111.174515,https://maps.google.com/?cid=0x0:0x640bbed410878b8e,
perumahan,Komplek perumahan,abdul sanapsud,"W2R9+X2F, Sungai Damar, Kec. Pantai Lunci, Kabupaten Sukamara, Kalimantan Tengah 74171","Sungai Damar, Kec. Pantai Lunci, Kabupaten Sukamara",KALIMANTAN TENGAH,74171.0,Indonesia,,,,-3.057819,111.0161958,https://maps.google.com/?cid=0x0:0x7b3d08102bae2455,
perumahan,Komplek perumahan,Perumahan Pelita Residence,"Jl. Pelita Residence, Natai Sedawak, Kec. Sukamara, Kabupaten Sukamara, Kalimantan Tengah 74171","Natai Sedawak, Kec. Sukamara, Kabupaten Sukamara",KALIMANTAN TENGAH,74171.0,Indonesia,,,,-2.7582022,111.1704365,https://maps.google.com/?cid=0x0:0x146c9ed4ca364809,
perumahan,Pos Pertolongan Pertama,Puskesmas Pantai Lunci,"257J+432, Bar., Sungai Cabang Bar., Kec. Pantai Lunci, Kabupaten Sukamara, Kalimantan Tengah 74171","Bar., Sungai Cabang Bar., Kec. Pantai Lunci, Kabupaten Sukamara",KALIMANTAN TENGAH,74171.0,Indonesia,85228807313.0,,,-2.9872321,111.1801322,https://maps.google.com/?cid=0x0:0xee4028b4e24fff54,
perumahan,Komplek perumahan,Ali Arsyad,"26VR+JPF, Sungai Pasir, Kec. Pantai Lunci, Kabupaten Sukamara, Kalimantan Tengah 74171","Sungai Pasir, Kec. Pantai Lunci, Kabupaten Sukamara",KALIMANTAN TENGAH,74171.0,Indonesia,,,,-2.9559447,111.2417965,https://maps.google.com/?cid=0x0:0x233465d62abcc7f8,
perumahan,Komplek perumahan,Kandang suryadi,"546R+VRV, Sungai Tabuk, Kec. Pantai Lunci, Kabupaten Sukamara, Kalimantan Tengah 74171","Sungai Tabuk, Kec. Pantai Lunci, Kabupaten Sukamara",KALIMANTAN TENGAH,74171.0,Indonesia,,,,-2.8377538,111.1420512,https://maps.google.com/?cid=0x0:0x92b93a2a557af37a,
perumahan,Pembangunan Perumahan,Cemara lebat,"257Q+47M, Sungai Cabang Bar., Kec. Pantai Lunci, Kabupaten Sukamara, Kalimantan Tengah","Kabupaten Sukamara, Kalimantan Tengah",KALIMANTAN TENGAH,,Indonesia,,,,-2.9871644,111.1881842,https://maps.google.com/?cid=0x0:0x6a96a53efbff9780,
perumahan,perumahan,Kalimantan Tengah 74173,Kalimantan Tengah,Kalimantan Tengah,KALIMANTAN TENGAH,,Indonesia,,,,-2.1830119,111.2368084,https://maps.google.com/?cid=0x0:0xfb45b5038030e34d,
perumahan,Komplek perumahan,Perumahan,"R78R+P5, Laman Baru, Kec. Permata Kecubung, Kabupaten Sukamara, Kalimantan Tengah","Kabupaten Sukamara, Kalimantan Tengah",KALIMANTAN TENGAH,,Indonesia,,,,-2.1832353,111.2903857,https://maps.google.com/?cid=0x0:0xb28aa8d235f45ff7,
perumahan,perumahan,Perumahan Afdeling 9,"V5C8+C4R, Semantun, Kec. Permata Kecubung, Kabupaten Sukamara, Kalimantan Tengah 74173","Semantun, Kec. Permata Kecubung, Kabupaten Sukamara",KALIMANTAN TENGAH,74173.0,Indonesia,,,,-2.1288981,111.1652687,https://maps.google.com/?cid=0x0:0xb9a99adab1ec17ce,
perumahan,Komplek perumahan,Perumahan Karyawan Afdeling XI - PT. GCM,"W54X+MW, Semantun, Kec. Permata Kecubung, Kabupaten Sukamara, Kalimantan Tengah","Kabupaten Sukamara, Kalimantan Tengah",KALIMANTAN TENGAH,,Indonesia,,,,-2.093346,111.199759,https://maps.google.com/?cid=0x0:0x9fa25b447858d469,
perumahan,Komplek perumahan,Perumahan jalur gozali,"P5QC+3FX, RT.11/RW.02, Natai Kondang, Kec. Permata Kecubung, Kabupaten Sukamara, Kalimantan Tengah 74173","RT.11/RW.02, Natai Kondang, Kec. Permata Kecubung, Kabupaten Sukamara",KALIMANTAN TENGAH,74173.0,Indonesia,,,,-2.262259,111.1712303,https://maps.google.com/?cid=0x0:0x35c9fb187740833,
perumahan,Pembangunan Perumahan,LA AUDIO,"V5JW+VQX, Unnamed Road, Semantun, Kec. Permata Kecubung, Kabupaten Lamandau, Kalimantan Tengah 74173","Unnamed Road, Semantun, Kec. Permata Kecubung, Kabupaten Lamandau",KALIMANTAN TENGAH,74173.0,Indonesia,81949914420.0,,,-2.1177749,111.1969996,https://maps.google.com/?cid=0x0:0x16335b5ef86d0cc,
perumahan,perumahan,Sengkuni,"P5PJ+XC2, Natai Kondang, Kec. Permata Kecubung, Kabupaten Sukamara, Kalimantan Tengah 74173","Natai Kondang, Kec. Permata Kecubung, Kabupaten Sukamara",KALIMANTAN TENGAH,74173.0,Indonesia,,,,-2.2626107,111.1810066,https://maps.google.com/?cid=0x0:0xaaae94760f402bfb,
perumahan,Polisi Negara Bagian,Asrama Polsek Permata Kecubung,"74774, Ajang, Kec. Permata Kecubung, Kabupaten Sukamara, Kalimantan Tengah 74173","Ajang, Kec. Permata Kecubung, Kabupaten Sukamara",KALIMANTAN TENGAH,74173.0,Indonesia,,,,-2.2612844,111.2088121,https://maps.google.com/?cid=0x0:0x49e7876c91b29d96,
perumahan,perumahan,RUMAH MANTO,"Q84M+JFH, Kenawan, Kec. Permata Kecubung, Kabupaten Sukamara, Kalimantan Tengah 74161","Kenawan, Kec. Permata Kecubung, Kabupaten Sukamara",KALIMANTAN TENGAH,74161.0,Indonesia,,,,-2.2429677,111.3338037,https://maps.google.com/?cid=0x0:0x670f708a9e17698e,
perumahan,Pembangunan Perumahan,Gubuk mang agus,"Q4QM+P9, Sembikuan, Kec. Permata Kecubung, Kabupaten Sukamara, Kalimantan Tengah","Kabupaten Sukamara, Kalimantan Tengah",KALIMANTAN TENGAH,,Indonesia,,,,-2.2106343,111.1334977,https://maps.google.com/?cid=0x0:0x96cc937cece14209,
perumahan,Komplek perumahan,Mbah Ghozali,"P5XH+MX9, Natai Kondang, Kec. Permata Kecubung, Kabupaten Sukamara, Kalimantan Tengah 74173","Natai Kondang, Kec. Permata Kecubung, Kabupaten Sukamara",KALIMANTAN TENGAH,74173.0,Indonesia,,,,-2.2508351,111.1799842,https://maps.google.com/?cid=0x0:0xe8108f982e914be5,
perumahan,Komplek perumahan,AFDELING 5 GCM,"R5Q6+2X, Semantun, Kec. Permata Kecubung, Kabupaten Sukamara, Kalimantan Tengah","Kabupaten Sukamara, Kalimantan Tengah",KALIMANTAN TENGAH,,Indonesia,,,,-2.1624315,111.1624568,https://maps.google.com/?cid=0x0:0xff2c7695639eef42,
perumahan,perumahan,Kec. Permata Kecubung,"Kabupaten Sukamara, Kalimantan Tengah","Kabupaten Sukamara, Kalimantan Tengah",KALIMANTAN TENGAH,,Indonesia,,,,-2.1946076,111.157699,https://maps.google.com/?cid=0x0:0x5913f2f384347b3b,
perumahan,Kantor Pemerintah,Rumah Dinas Semantun,"R544+HH2, Jl. Kalau, Semantun, Kec. Permata Kecubung, Kabupaten Sukamara, Kalimantan Tengah 74173","Jl. Kalau, Semantun, Kec. Permata Kecubung, Kabupaten Sukamara",KALIMANTAN TENGAH,74173.0,Indonesia,,,,-2.1936113,111.1564048,https://maps.google.com/?cid=0x0:0xf13e420412daa135,
perumahan,Pembangunan Perumahan,Yuswanto,"Q4MJ+9FQ, Sembikuan, Kec. Permata Kecubung, Kabupaten Sukamara, Kalimantan Tengah 74173","Sembikuan, Kec. Permata Kecubung, Kabupaten Sukamara",KALIMANTAN TENGAH,74173.0,Indonesia,85332360600.0,,,-2.2165361,111.1312315,https://maps.google.com/?cid=0x0:0x774f65b41a334822,
perumahan,Pusat Kesehatan Masyarakat,UPTD PUSKESMAS PERMATA KECUBUNG,"74774, Ajang, Kec. Permata Kecubung, Kabupaten Sukamara, Kalimantan Tengah 74173","Ajang, Kec. Permata Kecubung, Kabupaten Sukamara",KALIMANTAN TENGAH,74173.0,Indonesia,,,,-2.2617542,111.2095171,https://maps.google.com/?cid=0x0:0x41a6cf5cadfec345,
perumahan,Pembangunan Perumahan,Bp Grace,"Q6CX+FF5, Ajang, Kec. Permata Kecubung, Kabupaten Sukamara, Kalimantan Tengah","Kabupaten Sukamara, Kalimantan Tengah",KALIMANTAN TENGAH,,Indonesia,,,,-2.2288646,111.2487374,https://maps.google.com/?cid=0x0:0x981ef832e717f067,
perumahan,Pembangunan Perumahan,FIT,"R564+2FX kantor, Semantun, Kec. Permata Kecubung, Kabupaten Sukamara, Kalimantan Tengah 74173","Semantun, Kec. Permata Kecubung, Kabupaten Sukamara",KALIMANTAN TENGAH,74173.0,Indonesia,,,,-2.1898899,111.1562435,https://maps.google.com/?cid=0x0:0xaf6f58ce84150b21,
perumahan,Komplek perumahan,Lok jalur jamux,"P5QC+3FX, Natai Kondang, Kec. Permata Kecubung, Kabupaten Sukamara, Kalimantan Tengah 74173","Natai Kondang, Kec. Permata Kecubung, Kabupaten Sukamara",KALIMANTAN TENGAH,74173.0,Indonesia,,,,-2.262259,111.1712303,https://maps.google.com/?cid=0x0:0x903109286231da91,
perumahan,Komplek perumahan,PERUMAHAN PKS GCM MILL,"V5CM+R2, Semantun, Kec. Permata Kecubung, Kabupaten Sukamara, Kalimantan Tengah","Kabupaten Sukamara, Kalimantan Tengah",KALIMANTAN TENGAH,,Indonesia,,,,-2.1279521,111.1825076,https://maps.google.com/?cid=0x0:0x7a0357204fb76d89,
perumahan,Komplek perumahan,Rahayu,"P5RM+J3Q, Natai Kondang, Kec. Permata Kecubung, Kabupaten Sukamara, Kalimantan Tengah","Kabupaten Sukamara, Kalimantan Tengah",KALIMANTAN TENGAH,,Indonesia,,,,-2.2584244,111.1827299,https://maps.google.com/?cid=0x0:0xb4e5cdf853db4296,
perumahan,Komplek perumahan,Pak Budi family,"P5XG+3R2, RT.12/RW.02, Natai Kondang, Kec. Permata Kecubung, Kabupaten Sukamara, Kalimantan Tengah 74173","RT.12/RW.02, Natai Kondang, Kec. Permata Kecubung, Kabupaten Sukamara",KALIMANTAN TENGAH,74173.0,Indonesia,,,,-2.2523695,111.1770026,https://maps.google.com/?cid=0x0:0x2a6d648837c1d5d1,
perumahan,Komplek perumahan,Donatus Kui Home,"V5CJ+PRG, Semantun, Kec. Permata Kecubung, Kabupaten Sukamara, Kalimantan Tengah 74173","Semantun, Kec. Permata Kecubung, Kabupaten Sukamara",KALIMANTAN TENGAH,74173.0,Indonesia,,,,-2.1281823,111.1820912,https://maps.google.com/?cid=0x0:0x4865cbd4b3aa1db8,
perumahan,perumahan,Kalimantan Tengah 74172,"Kabupaten Sukamara, Kalimantan Tengah","Kabupaten Sukamara, Kalimantan Tengah",KALIMANTAN TENGAH,,Indonesia,,,,-2.4783286,111.2368084,https://maps.google.com/?cid=0x0:0xd20d489d27a950d7,
perumahan,Komplek perumahan,RUMAH SAID ALMUNAWAN  NURLAILI RAHMAH,"75HC+5CG, Jalan Matsah, Mendawai, Kec. Sukamara, Kabupaten Sukamara, Kalimantan Tengah 74172","Jalan Matsah, Mendawai, Kec. Sukamara, Kabupaten Sukamara",KALIMANTAN TENGAH,74172.0,Indonesia,,,,-2.7220696,111.1710749,https://maps.google.com/?cid=0x0:0x16fe6cb048970cb4,
perumahan,Perhimpunan Pengembang Perumahan,Edisi kusuma,"H6F6+5M2, Petarikan, Kec. Sukamara, Kabupaten Sukamara, Kalimantan Tengah 74172","Petarikan, Kec. Sukamara, Kabupaten Sukamara",KALIMANTAN TENGAH,74172.0,Indonesia,,,,-2.4271044,111.2116438,https://maps.google.com/?cid=0x0:0x3835946abf081f1b,
perumahan,Perhimpunan Pengembang Perumahan,RUMAH ALM. KAI IJUR,"75R9+GHG, Jl. Cakra Adiwijaya, Mendawai, Kec. Sukamara, Kabupaten Sukamara, Kalimantan Tengah 74172","Jl. Cakra Adiwijaya, Mendawai, Kec. Sukamara, Kabupaten Sukamara",KALIMANTAN TENGAH,74172.0,Indonesia,,,,-2.7086787,111.1689632,https://maps.google.com/?cid=0x0:0xb594930f4065e146,
perumahan,Komplek perumahan,Mbah kon,"869C+3X2, Jl. Dirgantara, Karta Mulia, Kec. Sukamara, Kabupaten Sukamara, Kalimantan Tengah 74172","Jl. Dirgantara, Karta Mulia, Kec. Sukamara, Kabupaten Sukamara",KALIMANTAN TENGAH,74172.0,Indonesia,85654509771.0,,,-2.6823619,111.2224062,https://maps.google.com/?cid=0x0:0x2688ac2acde69498,
perumahan,Pembangunan Perumahan,Rumah Pak Yupiansyah,"75XF+7WG, Padang, Kec. Sukamara, Kabupaten Sukamara, Kalimantan Tengah 74172","Padang, Kec. Sukamara, Kabupaten Sukamara",KALIMANTAN TENGAH,74172.0,Indonesia,,,,-2.7019964,111.174515,https://maps.google.com/?cid=0x0:0x640bbed410878b8e,
perumahan,Perumahan,Depo m.faisal akbar,"J64X+8FP, Pangkalan Muntai, Kec. Sukamara, Kabupaten Sukamara, Kalimantan Tengah","Kabupaten Sukamara, Kalimantan Tengah",KALIMANTAN TENGAH,,Indonesia,82124421659.0,,,-2.3955216,111.2485802,https://maps.google.com/?cid=0x0:0xd2b4213f71b718dc,
perumahan,Komplek perumahan,Perum DR4 Blok AB,"758F+32, Natai Sedawak, Kec. Sukamara, Kabupaten Sukamara, Kalimantan Tengah 74172","Natai Sedawak, Kec. Sukamara, Kabupaten Sukamara",KALIMANTAN TENGAH,74172.0,Indonesia,,,,-2.7347699,111.1725959,https://maps.google.com/?cid=0x0:0xf52771e78cbb7007,
perumahan,Pembangunan Perumahan,Perumahan Geriya Indah - V,"75C8+22G, Mendawai, Kec. Sukamara, Kabupaten Sukamara, Kalimantan Tengah 74172","Mendawai, Kec. Sukamara, Kabupaten Sukamara",KALIMANTAN TENGAH,74172.0,Indonesia,,,,-2.7299454,111.165078,https://maps.google.com/?cid=0x0:0xb9667bb1c66c8a97,
perumahan,perumahan,Rumah kecil,"J6P9+QHV, RT.05/RW.02, Bukit Sungkai, Kec. Balai Riam, Kabupaten Sukamara, Kalimantan Tengah 74172","RT.05/RW.02, Bukit Sungkai, Kec. Balai Riam, Kabupaten Sukamara",KALIMANTAN TENGAH,74172.0,Indonesia,,,,-2.3630133,111.2189233,https://maps.google.com/?cid=0x0:0xb39f72053bcb0962,
perumahan,Komplek perumahan,Rumah Aunaa,"75XF+R4X, Jl. Cakra Adiwijaya, Padang, Kec. Sukamara, Kabupaten Sukamara, Kalimantan Tengah 74172","Jl. Cakra Adiwijaya, Padang, Kec. Sukamara, Kabupaten Sukamara",KALIMANTAN TENGAH,74172.0,Indonesia,,,,-2.7003922,111.1728611,https://maps.google.com/?cid=0x0:0x8486f7f051d70b26,
perumahan,Komplek perumahan,Rumah pak widodo,"75MC+742, Mendawai, Kec. Sukamara, Kabupaten Sukamara, Kalimantan Tengah 74172","Mendawai, Kec. Sukamara, Kabupaten Sukamara",KALIMANTAN TENGAH,74172.0,Indonesia,,,,-2.7166413,111.1706154,https://maps.google.com/?cid=0x0:0x5e056e7d05679279,
perumahan,Komplek perumahan,Khucaf,"75VF+55P, Unnamed Road, Mendawai, Kec. Sukamara, Kabupaten Sukamara, Kalimantan Tengah 74172","Unnamed Road, Mendawai, Kec. Sukamara, Kabupaten Sukamara",KALIMANTAN TENGAH,74172.0,Indonesia,,,,-2.707033,111.172947,https://maps.google.com/?cid=0x0:0x8c7ab374a187541b,
perumahan,Komplek perumahan,Rumah nenek,"75XF+J2V, Padang, Kec. Sukamara, Kabupaten Sukamara, Kalimantan Tengah 74172","Padang, Kec. Sukamara, Kabupaten Sukamara",KALIMANTAN TENGAH,74172.0,Indonesia,,,,-2.7008783,111.1725561,https://maps.google.com/?cid=0x0:0x335856a764090e27,
perumahan,Komplek perumahan,Deky koplak,"75MC+QM4, Mendawai, Kec. Sukamara, Kabupaten Sukamara, Kalimantan Tengah 74172","Mendawai, Kec. Sukamara, Kabupaten Sukamara",KALIMANTAN TENGAH,74172.0,Indonesia,,,,-2.7168362,111.171934,https://maps.google.com/?cid=0x0:0x250c9280f8f119cc,
perumahan,Komplek perumahan,Zidan's Home,"M654+9XC, Bukit Sungkai, Kec. Balai Riam, Kabupaten Sukamara, Kalimantan Tengah 74172","Bukit Sungkai, Kec. Balai Riam, Kabupaten Sukamara",KALIMANTAN TENGAH,74172.0,Indonesia,,,,-2.3410881,111.2076728,https://maps.google.com/?cid=0x0:0xa9a51dd4029f625,
perumahan,Komplek perumahan,Dadank,"Jl. Pelabuhan Gang Bunga Sarai No.99, Mendawai, Kec. Sukamara, Kabupaten Sukamara, Kalimantan Tengah 74172","Mendawai, Kec. Sukamara, Kabupaten Sukamara",KALIMANTAN TENGAH,74172.0,Indonesia,,,,-2.7182752,111.1635201,https://maps.google.com/?cid=0x0:0xdec8a40125c7eb3a,
perumahan,Kantor Pemerintah Distrik,Gapura Desa Sumber Mukti,"F6CW+C53, Sukaraja, Kec. Sukamara, Kabupaten Sukamara, Kalimantan Tengah 74172","Sukaraja, Kec. Sukamara, Kabupaten Sukamara",KALIMANTAN TENGAH,74172.0,Indonesia,,,,-2.5289816,111.2454128,https://maps.google.com/?cid=0x0:0xddedde2326a80326,
perumahan,Perhimpunan Pengembang Perumahan,Nazwa-Affan Home,"87P6+3F5, Karta Mulia, Kec. Sukamara, Kabupaten Sukamara, Kalimantan Tengah 74172","Karta Mulia, Kec. Sukamara, Kabupaten Sukamara",KALIMANTAN TENGAH,74172.0,Indonesia,,,,-2.665075,111.261509,https://maps.google.com/?cid=0x0:0x3f096690a9369c68,
perumahan,Pembangunan Perumahan,NURVIANTO,"75RH+G43, Pudu, Kec. Sukamara, Kabupaten Sukamara, Kalimantan Tengah 74172","Pudu, Kec. Sukamara, Kabupaten Sukamara",KALIMANTAN TENGAH,74172.0,Indonesia,82255674619.0,,,-2.7087298,111.1777889,https://maps.google.com/?cid=0x0:0x8fe6ebe8ebfb49a9,
perumahan,Komplek perumahan,Rumah Akhmad Nurhalim,"7588+G8, Mendawai, Kec. Sukamara, Kabupaten Sukamara, Kalimantan Tengah 74172","Mendawai, Kec. Sukamara, Kabupaten Sukamara",KALIMANTAN TENGAH,74172.0,Indonesia,,,,-2.7337436,111.165811,https://maps.google.com/?cid=0x0:0x1d8642f4a53eba66,
perumahan,Pembangunan Perumahan,CV. ZANNUBA,"Jl. Mansyur Haris, Rt/Rw.04/02 No.23, Mendawai, Kec. Sukamara, Kabupaten Sukamara, Kalimantan Tengah 74172","Rt/Rw.04/02 No.23, Mendawai, Kec. Sukamara, Kabupaten Sukamara",KALIMANTAN TENGAH,74172.0,Indonesia,,,,-2.7105512,111.1691295,https://maps.google.com/?cid=0x0:0xd97e3a1e83a7eaee,
perumahan,Komplek perumahan,PJ Home,"75H8+8JV, Jl. Tjilik Riwut, Mendawai, Kec. Sukamara, Kabupaten Sukamara, Kalimantan Tengah 74172","Jl. Tjilik Riwut, Mendawai, Kec. Sukamara, Kabupaten Sukamara",KALIMANTAN TENGAH,74172.0,Indonesia,,,,-2.7217257,111.1664241,https://maps.google.com/?cid=0x0:0xb765aff68f34c583,
perumahan,Komplek perumahan,Shafwah Sukamara,"Jl. Tjilik Riwut, Natai Sedawak, Kec. Sukamara, Kabupaten Sukamara, Kalimantan Tengah 74172","Natai Sedawak, Kec. Sukamara, Kabupaten Sukamara",KALIMANTAN TENGAH,74172.0,Indonesia,82123239991.0,,,-2.7587901,111.1868289,https://maps.google.com/?cid=0x0:0x3e5b5c7f8f12f12c,
perumahan,perumahan,Desa jihing,"H4MH+VQH, Jihing, Kec. Balai Riam, Kabupaten Sukamara, Kalimantan Tengah","Kabupaten Sukamara, Kalimantan Tengah",KALIMANTAN TENGAH,,Indonesia,,,,-2.4153038,111.1294996,https://maps.google.com/?cid=0x0:0x346a49adffa809fb,
perumahan,Komplek perumahan,Yandi,"M56V+4Q4, Sekuningan Baru, Kec. Balai Riam, Kabupaten Sukamara, Kalimantan Tengah 74172","Sekuningan Baru, Kec. Balai Riam, Kabupaten Sukamara",KALIMANTAN TENGAH,74172.0,Indonesia,,,,-2.3397418,111.1944411,https://maps.google.com/?cid=0x0:0xed163a46b85d7d4d,
