Category,Real Category,Business Name,Address,City,State,Postal Code,Country,Phone,Email,Website,Latitude,Longitude,Map Link,Details Link
hotel,hotel,Kepulauan Karimata,"Kabupaten Kayong Utara, Kalimantan Barat","Kabupaten Kayong Utara, Kalimantan Barat",KALIMANTAN BARAT,,Indonesia,,,,-1.6038919,108.9264524,https://maps.google.com/?cid=0x0:0xf5b6467328943c9c,
hotel,hotel,Tempat ila laela semedi,"CPGP+P6, Betok Jaya, Kepulauan Karimata, Kabupaten Kayong Utara, Kalimantan Barat","Kabupaten Kayong Utara, Kalimantan Barat",KALIMANTAN BARAT,,Indonesia,,,,-1.5732226,108.7355488,https://maps.google.com/?cid=0x0:0x69935a6512666290,
hotel,hotel,Rumahnya Pak Jun,"Q6HV+X7, Pelapis, Kepulauan Karimata, Kabupaten Kayong Utara, Kalimantan Barat","Kabupaten Kayong Utara, Kalimantan Barat",KALIMANTAN BARAT,,Indonesia,,,,-1.2200195,109.2431435,https://maps.google.com/?cid=0x0:0xbc86a7f66eb24c5,
hotel,hotel,Kec. Pulau Maya Karimata,"Kabupaten Kayong Utara, Kalimantan Barat","Kabupaten Kayong Utara, Kalimantan Barat",KALIMANTAN BARAT,,Indonesia,,,,-1.1055975,109.6163185,https://maps.google.com/?cid=0x0:0x99312b2806aba86b,
hotel,Komplek perumahan,Penginapan Tanjung Satai,"QMQJ+5RF, Tj. Satai, Kec. Pulau Maya Karimata, Kabupaten Kayong Utara, Kalimantan Barat 78855","Tj. Satai, Kec. Pulau Maya Karimata, Kabupaten Kayong Utara",KALIMANTAN BARAT,78855.0,Indonesia,8125636302.0,,,-1.2120743,109.6820471,https://maps.google.com/?cid=0x0:0x821f15906a1cb958,
hotel,hotel,Kalimantan Barat 78855,"Kec. Pulau Maya Karimata, Kabupaten Kayong Utara, Kalimantan Barat","Kabupaten Kayong Utara, Kalimantan Barat",KALIMANTAN BARAT,,Indonesia,,,,-1.1787347,109.5211063,https://maps.google.com/?cid=0x0:0x3e6c33c008ec2445,
hotel,Restoran,Satai,"QMX8+XMV, Tj. Satai, Kec. Pulau Maya Karimata, Kabupaten Kayong Utara, Kalimantan Barat 78855","Tj. Satai, Kec. Pulau Maya Karimata, Kabupaten Kayong Utara",KALIMANTAN BARAT,78855.0,Indonesia,,,,-1.2,109.666667,https://maps.google.com/?cid=0x0:0x3de5a53007f5c0f4,
hotel,hotel,Kalimantan Barat 78857,"Kabupaten Kayong Utara, Kalimantan Barat","Kabupaten Kayong Utara, Kalimantan Barat",KALIMANTAN BARAT,,Indonesia,,,,-0.8152171,109.9973244,https://maps.google.com/?cid=0x0:0xa089fb64937c19df,
hotel,hotel,Grand Zuri Ketapang by ZHM,"Jl. DI Panjaitan No.88, Sampit, Kec. Delta Pawan, Kabupaten Ketapang, Kalimantan Barat 78811","Sampit, Kec. Delta Pawan, Kabupaten Ketapang",KALIMANTAN BARAT,78811.0,Indonesia,5343062888.0,,,-1.8306436,109.9714344,https://maps.google.com/?cid=0x0:0x2674a6478a4b91e2,
hotel,hotel,,,,KALIMANTAN BARAT,,Indonesia,,,,,,https://maps.google.com/?cid=0x0:0x2674a6478a4b91e2%7C/g/11f5h2rl5b%7Cen-ID,
hotel,hotel,Hotel Tulip,"5X4F+H49, Jl. M.T. Haryono, Tengah, Kec. Delta Pawan, Kabupaten Ketapang, Kalimantan Barat 78811","Jl. M.T. Haryono, Tengah, Kec. Delta Pawan, Kabupaten Ketapang",KALIMANTAN BARAT,78811.0,Indonesia,85651260363.0,,,-1.8435762,109.9728546,https://maps.google.com/?cid=0x0:0x435dcce1abfc0b0f,
hotel,hotel,Kalimantan Barat 78853,"Kec. Simpang Hilir, Kabupaten Kayong Utara, Kalimantan Barat","Kabupaten Kayong Utara, Kalimantan Barat",KALIMANTAN BARAT,,Indonesia,,,,-1.0652462,110.2355647,https://maps.google.com/?cid=0x0:0x67224898fb15c624,
hotel,hotel,Mahkota Kayong Hotel,"QW5X+96W, Jl. Irama Laut, Pangkalan Buton, Kec. Sukadana, Kabupaten Kayong Utara, Kalimantan Barat 78852","Jl. Irama Laut, Pangkalan Buton, Kec. Sukadana, Kabupaten Kayong Utara",KALIMANTAN BARAT,78852.0,Indonesia,5343031332.0,,,-1.241523,109.9480654,https://maps.google.com/?cid=0x0:0x84e29785abe752d9,
hotel,hotel,Hotel Alimoer,"Sungai Raya, Kec. Sungai Raya, Kabupaten Kubu Raya, Kalimantan Barat","Kabupaten Kubu Raya, Kalimantan Barat",KALIMANTAN BARAT,,Indonesia,85169981240.0,,,-0.0750673,109.3660034,https://maps.google.com/?cid=0x0:0x97f93530c6703f69,
hotel,hotel,Borneo Emerald Hotel,"Jl. DR. Sutomo No.68, Mulia Baru, Kec. Delta Pawan, Kabupaten Ketapang, Kalimantan Barat 78821","Mulia Baru, Kec. Delta Pawan, Kabupaten Ketapang",KALIMANTAN BARAT,78821.0,Indonesia,53432222.0,,,-1.85182,109.9746161,https://maps.google.com/?cid=0x0:0xd3a5a3a7820a1330,
hotel,hotel,,,,KALIMANTAN BARAT,,Indonesia,,,,,,https://maps.google.com/?cid=0x0:0xd3a5a3a7820a1330%7C/g/11b674q9_z%7Cen-ID,
hotel,hotel,Family Inn,"Jl. Tanjung Pura No.37, Sutera, Kec. Sukadana, Kabupaten Kayong Utara, Kalimantan Barat 78852","Sutera, Kec. Sukadana, Kabupaten Kayong Utara",KALIMANTAN BARAT,78852.0,Indonesia,,,,-1.2378225,109.9544517,https://maps.google.com/?cid=0x0:0xdfa58f07e7c54f32,
hotel,hotel,Starlet Hotel,"QG2J+32F, Sandai, Kec. Sandai, Kabupaten Ketapang, Kalimantan Barat 78871","Sandai, Kec. Sandai, Kabupaten Ketapang",KALIMANTAN BARAT,78871.0,Indonesia,82255860000.0,,,-1.2498626,110.5300684,https://maps.google.com/?cid=0x0:0x37ee7df3caf88fba,
hotel,hotel,Airy Delta Pawan Dr Sutomo 68 Ketapang,"Jl. DR. Sutomo No.68, Mulia Baru, Kec. Delta Pawan, Kabupaten Ketapang, Kalimantan Barat 78821","Mulia Baru, Kec. Delta Pawan, Kabupaten Ketapang",KALIMANTAN BARAT,78821.0,Indonesia,8041112479.0,,,-1.8521134,109.9743864,https://maps.google.com/?cid=0x0:0xa92d0b3a3c2f7479,
hotel,hotel,Sukadana,"Sutera, Kec. Sukadana, Kabupaten Kayong Utara, Kalimantan Barat","Kabupaten Kayong Utara, Kalimantan Barat",KALIMANTAN BARAT,,Indonesia,,,,-1.236284,109.957603,https://maps.google.com/?cid=0x0:0xe15dbc8fcc9954a,
hotel,hotel,Mahkota Kayong Hotel,"QW5X+96W, Jl. Irama Laut, Pangkalan Buton, Kec. Sukadana, Kabupaten Kayong Utara, Kalimantan Barat 78852","Jl. Irama Laut, Pangkalan Buton, Kec. Sukadana, Kabupaten Kayong Utara",KALIMANTAN BARAT,78852.0,Indonesia,5343031332.0,,,-1.241523,109.9480654,https://maps.google.com/?cid=0x0:0x84e29785abe752d9,
hotel,hotel,Family Inn,"Jl. Tanjung Pura No.37, Sutera, Kec. Sukadana, Kabupaten Kayong Utara, Kalimantan Barat 78852","Sutera, Kec. Sukadana, Kabupaten Kayong Utara",KALIMANTAN BARAT,78852.0,Indonesia,,,,-1.2378225,109.9544517,https://maps.google.com/?cid=0x0:0xdfa58f07e7c54f32,
hotel,hotel,HOMESTAY RA,"XG4H+93W, Sukadana Ilir, Kec. Sukadana, Kabupaten Lampung Timur, Lampung 34194","Sukadana Ilir, Kec. Sukadana, Kabupaten Lampung Timur",KALIMANTAN BARAT,34194.0,Indonesia,85269009007.0,,,-5.0440109,105.5276968,https://maps.google.com/?cid=0x0:0x312f42b726ad0bcb,
hotel,hotel,WISMA PRINGGONDANI,"Pringgodani, Mataram Marga, Kec. Sukadana, Kabupaten Lampung Timur, Lampung 34182","Mataram Marga, Kec. Sukadana, Kabupaten Lampung Timur",KALIMANTAN BARAT,34182.0,Indonesia,82178309878.0,,,-5.0784871,105.5307821,https://maps.google.com/?cid=0x0:0x2133c2d973503baa,
hotel,hotel,Penginapan/Res Area SRC Joni,"XGGP+4J5, Jl. Raya Lintas Pantai Timur Sumatera, Muara Jaya, Kec. Sukadana, Kabupaten Lampung Timur, Lampung 34194","Jl. Raya Lintas Pantai Timur Sumatera, Muara Jaya, Kec. Sukadana, Kabupaten Lampung Timur",KALIMANTAN BARAT,34194.0,Indonesia,85379458354.0,,,-5.0247376,105.5366234,https://maps.google.com/?cid=0x0:0x7ef1659777dab730,
hotel,hotel,Hotel Sahabat,"Dwi Warga Tunggal Jaya, Kec. Banjar Agung, Kab. Tulang Bawang, Lampung 34684","Kec. Banjar Agung, Kab. Tulang Bawang",KALIMANTAN BARAT,34684.0,Indonesia,81369784646.0,,,-4.2809657,105.2210419,https://maps.google.com/?cid=0x0:0xbf7d4cadaf4304c7,
hotel,hotel,Sukadana,"Sutera, Kec. Sukadana, Kabupaten Kayong Utara, Kalimantan Barat","Kabupaten Kayong Utara, Kalimantan Barat",KALIMANTAN BARAT,,Indonesia,,,,-1.236284,109.957603,https://maps.google.com/?cid=0x0:0xe15dbc8fcc9954a,
hotel,hotel,Mahkota Kayong Hotel,"QW5X+96W, Jl. Irama Laut, Pangkalan Buton, Kec. Sukadana, Kabupaten Kayong Utara, Kalimantan Barat 78852","Jl. Irama Laut, Pangkalan Buton, Kec. Sukadana, Kabupaten Kayong Utara",KALIMANTAN BARAT,78852.0,Indonesia,5343031332.0,,,-1.241523,109.9480654,https://maps.google.com/?cid=0x0:0x84e29785abe752d9,
hotel,hotel,Family Inn,"Jl. Tanjung Pura No.37, Sutera, Kec. Sukadana, Kabupaten Kayong Utara, Kalimantan Barat 78852","Sutera, Kec. Sukadana, Kabupaten Kayong Utara",KALIMANTAN BARAT,78852.0,Indonesia,,,,-1.2378225,109.9544517,https://maps.google.com/?cid=0x0:0xdfa58f07e7c54f32,
hotel,hotel,HOMESTAY RA,"XG4H+93W, Sukadana Ilir, Kec. Sukadana, Kabupaten Lampung Timur, Lampung 34194","Sukadana Ilir, Kec. Sukadana, Kabupaten Lampung Timur",KALIMANTAN BARAT,34194.0,Indonesia,85269009007.0,,,-5.0440109,105.5276968,https://maps.google.com/?cid=0x0:0x312f42b726ad0bcb,
hotel,hotel,Hotel Tirta Kencana Berlian,"Jl. Ir. Sutami, Sri Menanti, Kec. Bandar Sribawono, Kabupaten Lampung Timur, Lampung 34389","Sri Menanti, Kec. Bandar Sribawono, Kabupaten Lampung Timur",KALIMANTAN BARAT,34389.0,Indonesia,82186278724.0,,,-5.3026928,105.7460216,https://maps.google.com/?cid=0x0:0x6f527d07ab6d0054,
hotel,hotel,WISMA PRINGGONDANI,"Pringgodani, Mataram Marga, Kec. Sukadana, Kabupaten Lampung Timur, Lampung 34182","Mataram Marga, Kec. Sukadana, Kabupaten Lampung Timur",KALIMANTAN BARAT,34182.0,Indonesia,82178309878.0,,,-5.0784871,105.5307821,https://maps.google.com/?cid=0x0:0x2133c2d973503baa,
hotel,hotel,Penginapan/Res Area SRC Joni,"XGGP+4J5, Jl. Raya Lintas Pantai Timur Sumatera, Muara Jaya, Kec. Sukadana, Kabupaten Lampung Timur, Lampung 34194","Jl. Raya Lintas Pantai Timur Sumatera, Muara Jaya, Kec. Sukadana, Kabupaten Lampung Timur",KALIMANTAN BARAT,34194.0,Indonesia,85379458354.0,,,-5.0247376,105.5366234,https://maps.google.com/?cid=0x0:0x7ef1659777dab730,
hotel,hotel,Hotel Sariami,"Jl. Raya Lintas Pantai Timur Sumatera, RT.03/RW.05, Karyatani, Kec. Labuhan Maringgai, Kabupaten Lampung Timur, Lampung 34387","RT.03/RW.05, Karyatani, Kec. Labuhan Maringgai, Kabupaten Lampung Timur",KALIMANTAN BARAT,34387.0,Indonesia,85269497079.0,,,-5.4557145,105.7954665,https://maps.google.com/?cid=0x0:0x6e8618d3bf6b728e,
hotel,hotel,,,,KALIMANTAN BARAT,,Indonesia,,,,,,https://maps.google.com/?cid=0x0:0x6e8618d3bf6b728e%7C/g/11b6hqbgz1%7Cen-ID,
hotel,hotel,Hotel Cempaka Indah,"MPQV+J28, Jl. Raya, Sri Bawono, Kec. Bandar Sribawono, Kabupaten Lampung Timur, Lampung 34389","Jl. Raya, Sri Bawono, Kec. Bandar Sribawono, Kabupaten Lampung Timur",KALIMANTAN BARAT,34389.0,Indonesia,725660037.0,,,-5.31095,105.7425912,https://maps.google.com/?cid=0x0:0xe98fe7c84e0f4078,
hotel,hotel,Sukadana,"Sutera, Kec. Sukadana, Kabupaten Kayong Utara, Kalimantan Barat","Kabupaten Kayong Utara, Kalimantan Barat",KALIMANTAN BARAT,,Indonesia,,,,-1.236284,109.957603,https://maps.google.com/?cid=0x0:0xe15dbc8fcc9954a,
hotel,hotel,Mahkota Kayong Hotel,"QW5X+96W, Jl. Irama Laut, Pangkalan Buton, Kec. Sukadana, Kabupaten Kayong Utara, Kalimantan Barat 78852","Jl. Irama Laut, Pangkalan Buton, Kec. Sukadana, Kabupaten Kayong Utara",KALIMANTAN BARAT,78852.0,Indonesia,5343031332.0,,,-1.241523,109.9480654,https://maps.google.com/?cid=0x0:0x84e29785abe752d9,
hotel,hotel,Family Inn,"Jl. Tanjung Pura No.37, Sutera, Kec. Sukadana, Kabupaten Kayong Utara, Kalimantan Barat 78852","Sutera, Kec. Sukadana, Kabupaten Kayong Utara",KALIMANTAN BARAT,78852.0,Indonesia,,,,-1.2378225,109.9544517,https://maps.google.com/?cid=0x0:0xdfa58f07e7c54f32,
hotel,hotel,Airy Delta Pawan Dr Sutomo 68 Ketapang,"Jl. DR. Sutomo No.68, Mulia Baru, Kec. Delta Pawan, Kabupaten Ketapang, Kalimantan Barat 78821","Mulia Baru, Kec. Delta Pawan, Kabupaten Ketapang",KALIMANTAN BARAT,78821.0,Indonesia,8041112479.0,,,-1.8521134,109.9743864,https://maps.google.com/?cid=0x0:0xa92d0b3a3c2f7479,
hotel,Motel,Penginapan Putra Fajar,"Jl. GM. Saunan, Dusun Muara Karya, Desa, Tlk. Batang Sel., Kec. Tlk. Batang, Kabupaten Kayong Utara, Kalimantan Barat 78856","Dusun Muara Karya, Desa, Tlk. Batang Sel., Kec. Tlk. Batang, Kabupaten Kayong Utara",KALIMANTAN BARAT,78856.0,Indonesia,85245982209.0,,,-1.0039591,109.7731063,https://maps.google.com/?cid=0x0:0xe2cf53965be37c7d,
hotel,Hostel,Mariama,"XQWF+5MX, Jalan, Teluk Batang Selatan, Teluk Batang, North Kayong Regency, West Kalimantan 78856","Jalan, Teluk Batang Selatan, Teluk Batang, North Kayong Regency",KALIMANTAN BARAT,78856.0,Indonesia,,,,-1.004512,109.774235,https://maps.google.com/?cid=0x0:0x15cf78ff0befd791,
hotel,Hotel,Hotel Batang,"F6F6+MPQ, Kendawangan Kiri, Kec. Kendawangan, Kabupaten Ketapang, Kalimantan Barat 78862","Kendawangan Kiri, Kec. Kendawangan, Kabupaten Ketapang",KALIMANTAN BARAT,78862.0,Indonesia,,,,-2.5257797,110.2118655,https://maps.google.com/?cid=0x0:0xd75758496a468be9,
hotel,Penginapan,Penginapan,"VXX6+6PM, Jl. Simpang Hilir, Telukmelano, Kec. Simpang Hilir, Kabupaten Kayong Utara, Kalimantan Barat 78853","Jl. Simpang Hilir, Telukmelano, Kec. Simpang Hilir, Kabupaten Kayong Utara",KALIMANTAN BARAT,78853.0,Indonesia,,,,-1.1018669,109.961817,https://maps.google.com/?cid=0x0:0xa2a58cfab6ceaec9,
hotel,hotel,Pulau Datok,Kalimantan Barat,Kalimantan Barat,KALIMANTAN BARAT,,Indonesia,,,,-1.267439,109.9494461,https://maps.google.com/?cid=0x0:0xa862c51a09ab8d33,
hotel,hotel,Mahkota Kayong Hotel,"QW5X+96W, Jl. Irama Laut, Pangkalan Buton, Kec. Sukadana, Kabupaten Kayong Utara, Kalimantan Barat 78852","Jl. Irama Laut, Pangkalan Buton, Kec. Sukadana, Kabupaten Kayong Utara",KALIMANTAN BARAT,78852.0,Indonesia,5343031332.0,,,-1.241523,109.9480654,https://maps.google.com/?cid=0x0:0x84e29785abe752d9,
hotel,Hostel,Losmen Segar,"XQVC+J2J, Jalan, Pelabuhan, Teluk Batang, North Kayong Regency, West Kalimantan 78856","Jalan, Pelabuhan, Teluk Batang, North Kayong Regency",KALIMANTAN BARAT,78856.0,Indonesia,,,,-1.0059117,109.7700022,https://maps.google.com/?cid=0x0:0x32fcb6361d44a284,
restaurant,restaurant,ARASH WIFI,"9W6X+3W8, Padang, Kepulauan Karimata, Kabupaten Kayong Utara, Kalimantan Barat","Kabupaten Kayong Utara, Kalimantan Barat",KALIMANTAN BARAT,,Indonesia,,,,-1.6398262,108.9498338,https://maps.google.com/?cid=0x0:0xe4e2339d6401aad5,
restaurant,restaurant,Kepulauan Karimata,"Kabupaten Kayong Utara, Kalimantan Barat","Kabupaten Kayong Utara, Kalimantan Barat",KALIMANTAN BARAT,,Indonesia,,,,-1.6038919,108.9264524,https://maps.google.com/?cid=0x0:0xf5b6467328943c9c,
restaurant,Balai masyarakat,PPI Betok,"CQ8W+3RJ, Betok Jaya, Kepulauan Karimata, Kabupaten Kayong Utara, Kalimantan Barat","Kabupaten Kayong Utara, Kalimantan Barat",KALIMANTAN BARAT,,Indonesia,,,,-1.5847793,108.7970175,https://maps.google.com/?cid=0x0:0xd68955f5a3697e93,
restaurant,Toko,Toko Ijul,"P523+RP9, Pelapis, Kepulauan Karimata, Kabupaten Kayong Utara, Kalimantan Barat 78855","Pelapis, Kepulauan Karimata, Kabupaten Kayong Utara",KALIMANTAN BARAT,78855.0,Indonesia,85252052620.0,,,-1.2979544,109.1543449,https://maps.google.com/?cid=0x0:0x9516c41f6563e7cb,
restaurant,restaurant,Pulau Maja,"Tj. Satai, Kec. Pulau Maya Karimata, Kabupaten Kayong Utara, Kalimantan Barat","Kabupaten Kayong Utara, Kalimantan Barat",KALIMANTAN BARAT,,Indonesia,,,,-1.1666667,109.5833333,https://maps.google.com/?cid=0x0:0x5b5768fe20598843,
restaurant,restaurant,Warung Mak Dini,"RHMM+88P, Inpres Street, Tanjung Satai, Maya Karimata Island, North Kayong Regency, West Kalimantan 78855","Inpres Street, Tanjung Satai, Maya Karimata Island, North Kayong Regency",KALIMANTAN BARAT,78855.0,Indonesia,81256066425.0,,,-1.1666667,109.5833333,https://maps.google.com/?cid=0x0:0xb5c487fe3a8079d5,
restaurant,restaurant,Kalimantan Barat 78855,"Kec. Pulau Maya Karimata, Kabupaten Kayong Utara, Kalimantan Barat","Kabupaten Kayong Utara, Kalimantan Barat",KALIMANTAN BARAT,,Indonesia,,,,-1.1787347,109.5211063,https://maps.google.com/?cid=0x0:0x3e6c33c008ec2445,
restaurant,Nasi Goreng,RM Podomoro,"XQWH+H99, Jl. Ahmad Yani, Tlk. Batang Sel., Kec. Tlk. Batang, Kabupaten Kayong Utara, Kalimantan Barat 78856","Jl. Ahmad Yani, Tlk. Batang Sel., Kec. Tlk. Batang, Kabupaten Kayong Utara",KALIMANTAN BARAT,78856.0,Indonesia,82153634042.0,,,-1.0035838,109.7784761,https://maps.google.com/?cid=0x0:0xf19840c18f85d5ba,
restaurant,Rumah Makan,Rumah Makan Mas Mul,"XQXG+2XF, Tlk. Batang Sel., Kec. Tlk. Batang, Kabupaten Kayong Utara, Kalimantan Barat 78856","Tlk. Batang Sel., Kec. Tlk. Batang, Kabupaten Kayong Utara",KALIMANTAN BARAT,78856.0,Indonesia,,,,-1.0024275,109.7774208,https://maps.google.com/?cid=0x0:0x4c2601b2e206eeb1,
restaurant,Kantor Pemerintah,Dusun Besar,"VFQ6+439, Dusun Besar, Kec. Pulau Maya Karimata, Kabupaten Kayong Utara, Kalimantan Barat 78855","Dusun Besar, Kec. Pulau Maya Karimata, Kabupaten Kayong Utara",KALIMANTAN BARAT,78855.0,Indonesia,81253992433.0,,,-1.1122181,109.4602223,https://maps.google.com/?cid=0x0:0xd2afeaf7f32f914f,
restaurant,Bakso,WAROENG MBA' SISWI,"DESA No.RT 05, Tj. Satai, Kec. Pulau Maya Karimata, Kabupaten Kayong Utara, Kalimantan Barat 78855","Tj. Satai, Kec. Pulau Maya Karimata, Kabupaten Kayong Utara",KALIMANTAN BARAT,78855.0,Indonesia,82151459363.0,,,-1.213887,109.6829684,https://maps.google.com/?cid=0x0:0xc9036129f1006e14,
restaurant,Restoran,RM.Lamongan Dewi,"XQXG+9G3, Tlk. Batang Sel., Kec. Tlk. Batang, Kabupaten Kayong Utara, Kalimantan Barat 78856","Tlk. Batang Sel., Kec. Tlk. Batang, Kabupaten Kayong Utara",KALIMANTAN BARAT,78856.0,Indonesia,85654730796.0,,,-1.001621,109.7763015,https://maps.google.com/?cid=0x0:0xa87bdda41a57731b,
restaurant,Kedai Kopi,Cpp cooffee,"Kemboja, Kec. Pulau Maya Karimata, Kabupaten Kayong Utara, Kalimantan Barat","Kabupaten Kayong Utara, Kalimantan Barat",KALIMANTAN BARAT,,Indonesia,85212134007.0,,,-1.1322172,109.7442505,https://maps.google.com/?cid=0x0:0x369096f7955968c0,
restaurant,Restoran,WARKOP SIMPANG,"Tj. Satai, Kec. Pulau Maya Karimata, Kabupaten Kayong Utara, Kalimantan Barat 78855","Kec. Pulau Maya Karimata, Kabupaten Kayong Utara",KALIMANTAN BARAT,78855.0,Indonesia,85245468540.0,,,-1.2113174,109.6754448,https://maps.google.com/?cid=0x0:0x76a6fb6a1ee8deb5,
restaurant,Nasi Goreng,Warung Nasgor Putra Arum,"XQWC+6VH, Tlk. Batang Sel., Kec. Tlk. Batang, Kabupaten Kayong Utara, Kalimantan Barat 78856","Tlk. Batang Sel., Kec. Tlk. Batang, Kabupaten Kayong Utara",KALIMANTAN BARAT,78856.0,Indonesia,,,,-1.0044264,109.772234,https://maps.google.com/?cid=0x0:0xdc4205b246bf0c1d,
restaurant,Nasi Goreng,RM.BAROKAH,"XQXG+7G8, Jalan, Teluk Batang Selatan, Teluk Batang, North Kayong Regency, West Kalimantan 78856","Jalan, Teluk Batang Selatan, Teluk Batang, North Kayong Regency",KALIMANTAN BARAT,78856.0,Indonesia,,,,-1.0018459,109.7763378,https://maps.google.com/?cid=0x0:0xfbbc630d45bc1824,
restaurant,restaurant,Kec. Pulau Maya Karimata,"Kabupaten Kayong Utara, Kalimantan Barat","Kabupaten Kayong Utara, Kalimantan Barat",KALIMANTAN BARAT,,Indonesia,,,,-1.1055975,109.6163185,https://maps.google.com/?cid=0x0:0x99312b2806aba86b,
restaurant,Restoran,Pentol Kuah BERKAH,"Tlk. Batang Sel., Kec. Tlk. Batang, Kabupaten Kayong Utara, Kalimantan Barat 78856","Kec. Tlk. Batang, Kabupaten Kayong Utara",KALIMANTAN BARAT,78856.0,Indonesia,87836512659.0,,,-1.0010956,109.774819,https://maps.google.com/?cid=0x0:0xc1d3d9bfa2c0d1e,
restaurant,Kafe,Base Camp Cafe,"XQXG+QHR, Tlk. Batang Sel., Kec. Tlk. Batang, Kabupaten Kayong Utara, Kalimantan Barat 78856","Tlk. Batang Sel., Kec. Tlk. Batang, Kabupaten Kayong Utara",KALIMANTAN BARAT,78856.0,Indonesia,,,,-1.0005248,109.7763941,https://maps.google.com/?cid=0x0:0xba1866d788bb6835,
restaurant,Ayam,Kwetiau sapi/seafood sungai semut,"XQWH+7MX, Tlk. Batang Sel., Kec. Tlk. Batang, Kabupaten Kayong Utara, Kalimantan Barat 78856","Tlk. Batang Sel., Kec. Tlk. Batang, Kabupaten Kayong Utara",KALIMANTAN BARAT,78856.0,Indonesia,,,,-1.0042622,109.7792342,https://maps.google.com/?cid=0x0:0x1e9d53f61619e46f,
restaurant,Restoran,RUMAH MAKAN MAMA REZZA,"XQXG+P4J, Tlk. Batang Sel., Kec. Tlk. Batang, Kabupaten Kayong Utara, Kalimantan Barat 78856","Tlk. Batang Sel., Kec. Tlk. Batang, Kabupaten Kayong Utara",KALIMANTAN BARAT,78856.0,Indonesia,85386171203.0,,,-1.0006698,109.7752588,https://maps.google.com/?cid=0x0:0xd69fe7edd200bfd4,
restaurant,Kafe,Cafe Uphiet Dhabol,"XQXG+WH8, Unnamed Road, Jl. Tlk. Batang, Tlk. Batang Sel., Kec. Tlk. Batang, Kabupaten Kayong Utara, Kalimantan Barat 78856","Unnamed Road, Jl. Tlk. Batang, Tlk. Batang Sel., Kec. Tlk. Batang, Kabupaten Kayong Utara",KALIMANTAN BARAT,78856.0,Indonesia,,,,-1.0002157,109.7764592,https://maps.google.com/?cid=0x0:0xd877ccd4e312c74,
restaurant,Pertanian,Jaya Hydrofarm,"QJGR+JHR, Unnamed Road, Tj. Satai, Kec. Pulau Maya Karimata, Kabupaten Kayong Utara, Kalimantan Barat 78855","Unnamed Road, Tj. Satai, Kec. Pulau Maya Karimata, Kabupaten Kayong Utara",KALIMANTAN BARAT,78855.0,Indonesia,81254905797.0,,,-1.2233768,109.6413791,https://maps.google.com/?cid=0x0:0xe29676b66951af2f,
restaurant,Ayam,Ayam bakar sungai semut,"WRXF+CW, Padu Banjar, Kec. Simpang Hilir, Kabupaten Kayong Utara, Kalimantan Barat 78856","Padu Banjar, Kec. Simpang Hilir, Kabupaten Kayong Utara",KALIMANTAN BARAT,78856.0,Indonesia,85652243879.0,,,-1.0514219,109.8248164,https://maps.google.com/?cid=0x0:0x6332da7c882a3956,
restaurant,Toko Makanan,Gorengan gunung 7,"XQQP+PCG, Gunung 7, Tlk. Batang Sel., Kec. Tlk. Batang, Kabupaten Kayong Utara, Kalimantan Barat 78856","Gunung 7, Tlk. Batang Sel., Kec. Tlk. Batang, Kabupaten Kayong Utara",KALIMANTAN BARAT,78856.0,Indonesia,85348200327.0,,,-1.0106823,109.7860705,https://maps.google.com/?cid=0x0:0x7c85bb592756f5c1,
restaurant,Toko,Warung Mak Dini,"VFGW+5WV, Dusun Besar, Kec. Pulau Maya Karimata, Kabupaten Kayong Utara, Kalimantan Barat","Kabupaten Kayong Utara, Kalimantan Barat",KALIMANTAN BARAT,,Indonesia,,,,-1.1245246,109.4973059,https://maps.google.com/?cid=0x0:0xff4c6bd43bf7525c,
restaurant,Kedai Kopi,Joe gutallo,"VM92+2R2 Rt003/Rw000, Dusun limau manis, Satai Lestari, Kec. Pulau Maya Karimata, Kabupaten Kayong Utara, Kalimantan Barat 78855","Dusun limau manis, Satai Lestari, Kec. Pulau Maya Karimata, Kabupaten Kayong Utara",KALIMANTAN BARAT,78855.0,Indonesia,,,,-1.1324956,109.6520274,https://maps.google.com/?cid=0x0:0x3726c9fb7b9bc0af,
restaurant,Kedai Kopi,LOGIN CAFE,"QMPM+VC7, Tj. Satai, Kec. Pulau Maya Karimata, Kabupaten Kayong Utara, Kalimantan Barat 78855","Tj. Satai, Kec. Pulau Maya Karimata, Kabupaten Kayong Utara",KALIMANTAN BARAT,78855.0,Indonesia,,,,-1.2128422,109.6835374,https://maps.google.com/?cid=0x0:0xc591a2f54d8f7cbb,
restaurant,restaurant,Kalimantan Barat 78857,"Kabupaten Kayong Utara, Kalimantan Barat","Kabupaten Kayong Utara, Kalimantan Barat",KALIMANTAN BARAT,,Indonesia,,,,-0.8152171,109.9973244,https://maps.google.com/?cid=0x0:0xa089fb64937c19df,
restaurant,Pusat jajanan kaki lima,"Bakso Kang Gatot, paket 5 Seponti Jaya","4RQJ+4PR, Seponti Jaya, Kec. Seponti, Kabupaten Kayong Utara, Kalimantan Barat 78857","Seponti Jaya, Kec. Seponti, Kabupaten Kayong Utara",KALIMANTAN BARAT,78857.0,Indonesia,81258292499.0,,,-0.8621435,109.8317758,https://maps.google.com/?cid=0x0:0x9959c351b852da73,
restaurant,Makanan Siap Saji,Warung makan Pak Man,"4RQM+872, Seponti Jaya, Kec. Seponti, Kabupaten Kayong Utara, Kalimantan Barat 78857","Seponti Jaya, Kec. Seponti, Kabupaten Kayong Utara",KALIMANTAN BARAT,78857.0,Indonesia,,,,-0.8617442,109.8331439,https://maps.google.com/?cid=0x0:0x7aef277c50b4f45d,
restaurant,Sesuai untuk keluarga,Rumah Makan Sunrise,"4RQJ+FCR, Seponti Jaya, Kec. Seponti, Kabupaten Kayong Utara, Kalimantan Barat 78857","Seponti Jaya, Kec. Seponti, Kabupaten Kayong Utara",KALIMANTAN BARAT,78857.0,Indonesia,82350014081.0,,,-0.8612742,109.8310132,https://maps.google.com/?cid=0x0:0xa48eb7effbe2a5,
restaurant,Kafe,Coffee Receh,"4RVF+MF6, Seponti Jaya, Kec. Seponti, Kabupaten Kayong Utara, Kalimantan Barat 78857","Seponti Jaya, Kec. Seponti, Kabupaten Kayong Utara",KALIMANTAN BARAT,78857.0,Indonesia,82298339027.0,,,-0.8558457,109.8236281,https://maps.google.com/?cid=0x0:0xcc93c6d0cf3a064d,
restaurant,Makanan Siap Saji,Rm. DEDI PRIYO .A,"4RWJ+8RQ, Seponti Jaya, kab, Kabupaten Kayong Utara, Kalimantan Barat 78857","Seponti Jaya, kab, Kabupaten Kayong Utara",KALIMANTAN BARAT,78857.0,Indonesia,81346498381.0,,,-0.8541707,109.8321201,https://maps.google.com/?cid=0x0:0xfd9022432c51b416,
restaurant,Kafe,Caffe Andi,"5R39+5VC, Unnamed Road, Seponti Jaya, Kec. Seponti, Kabupaten Kayong Utara, Kalimantan Barat 78857","Unnamed Road, Seponti Jaya, Kec. Seponti, Kabupaten Kayong Utara",KALIMANTAN BARAT,78857.0,Indonesia,,,,-0.8470731,109.8196317,https://maps.google.com/?cid=0x0:0x444af1b5327489eb,
restaurant,Makanan Siap Saji,Warung mbak sumarmi,"4R5J+63, Wonorejo, Kec. Seponti, Kabupaten Kayong Utara, Kalimantan Barat","Kabupaten Kayong Utara, Kalimantan Barat",KALIMANTAN BARAT,,Indonesia,,,,-0.892358,109.830699,https://maps.google.com/?cid=0x0:0x1154eee008d8795d,
restaurant,Makanan Siap Saji,Toko Arum,"Tr 10B DesaTelaga Arum, Telaga Arum, Kec. Seponti, Kabupaten Kayong Utara, Kalimantan Barat 78857","Telaga Arum, Kec. Seponti, Kabupaten Kayong Utara",KALIMANTAN BARAT,78857.0,Indonesia,81242318400.0,,,-0.880759,109.8484501,https://maps.google.com/?cid=0x0:0x181ffd0366119001,
restaurant,Restoran,Bakso Soeratin Jaya,"6W4M+MR5, Durian Sebatang, Kec. Seponti, Kabupaten Kayong Utara, Kalimantan Barat 78857","Durian Sebatang, Kec. Seponti, Kabupaten Kayong Utara",KALIMANTAN BARAT,78857.0,Indonesia,,,,-0.7811584,109.9361508,https://maps.google.com/?cid=0x0:0x6585b670fbfcfd1c,
restaurant,Toko,Warung mami,"4V83+722, Telaga Arum, Kec. Seponti, Kabupaten Kayong Utara, Kalimantan Barat 78857","Telaga Arum, Kec. Seponti, Kabupaten Kayong Utara",KALIMANTAN BARAT,78857.0,Indonesia,,,,-0.8843651,109.8525278,https://maps.google.com/?cid=0x0:0x909076836d20755f,
restaurant,Toko,Mega Bintang,"4RMH+8G5, Seponti Jaya, Kec. Seponti, Kabupaten Kayong Utara, Kalimantan Barat 78857","Seponti Jaya, Kec. Seponti, Kabupaten Kayong Utara",KALIMANTAN BARAT,78857.0,Indonesia,82255581376.0,,,-0.8667302,109.8288497,https://maps.google.com/?cid=0x0:0xe91442b6c64f4965,
restaurant,Kafe,Warung Teteh,"3RGP+5P7, Unnamed Road, Podo Rukun, Kec. Seponti, Kabupaten Kayong Utara, Kalimantan Barat 78856","Unnamed Road, Podo Rukun, Kec. Seponti, Kabupaten Kayong Utara",KALIMANTAN BARAT,78856.0,Indonesia,,,,-0.924592,109.8368123,https://maps.google.com/?cid=0x0:0xa6875b12bf3a0453,
restaurant,Sate,Warung Sate Junior,"4RPM+R2H, Seponti Jaya, Kec. Seponti, Kabupaten Kayong Utara, Kalimantan Barat 78857","Seponti Jaya, Kec. Seponti, Kabupaten Kayong Utara",KALIMANTAN BARAT,78857.0,Indonesia,85654672612.0,,,-0.8629368,109.8326157,https://maps.google.com/?cid=0x0:0x2702fc011d32e03c,
restaurant,Kafe,Warung Aldo Paket,"Seponti Jaya, Kec. Seponti, Kabupaten Kayong Utara, Kalimantan Barat 78857","Kec. Seponti, Kabupaten Kayong Utara",KALIMANTAN BARAT,78857.0,Indonesia,82255581404.0,,,-0.8556106,109.8234208,https://maps.google.com/?cid=0x0:0xd3d02cf389655078,
restaurant,Kafe,Gorengan  es tebu(sumi),"4V86+P45, Telaga Arum, Kec. Seponti, Kabupaten Kayong Utara, Kalimantan Barat 78857","Telaga Arum, Kec. Seponti, Kabupaten Kayong Utara",KALIMANTAN BARAT,78857.0,Indonesia,85787158349.0,,,-0.883228,109.8603732,https://maps.google.com/?cid=0x0:0x8f5df41f91dde1a5,
restaurant,restaurant,Sate Assiyaam,"4RQJ+92W, jalan pangsuma, Seponti Jaya, Kec. Seponti, Kabupaten Kayong Utara, Kalimantan Barat 78857","jalan pangsuma, Seponti Jaya, Kec. Seponti, Kabupaten Kayong Utara",KALIMANTAN BARAT,78857.0,Indonesia,,,,-0.861572,109.8300419,https://maps.google.com/?cid=0x0:0xffb2ff3abe7c5a7f,
restaurant,Kedai Kopi,Cafe Mondi,"6W8M+9HH, Durian Sebatang, Kec. Seponti, Kabupaten Kayong Utara, Kalimantan Barat 78857","Durian Sebatang, Kec. Seponti, Kabupaten Kayong Utara",KALIMANTAN BARAT,78857.0,Indonesia,,,,-0.7840685,109.9339856,https://maps.google.com/?cid=0x0:0xdbf5503474eef47d,
restaurant,restaurant,Buah salak,"4RXH+MHP, Seponti jaya,kec seponti,kab, Seponti Jaya, Kec. Seponti, Kabupaten Kayong Utara, Kalimantan Barat 78857","Seponti jaya,kec seponti,kab, Seponti Jaya, Kec. Seponti, Kabupaten Kayong Utara",KALIMANTAN BARAT,78857.0,Indonesia,81250620065.0,,,-0.8507858,109.8289559,https://maps.google.com/?cid=0x0:0xd68e06b99c803add,
restaurant,Kedai Kopi,Aceh Kopi Scholes,"4RPM+GH8, Unnamed Road, Seponti Jaya, Kec. Seponti, Kabupaten Kayong Utara, Kalimantan Barat 78857","Unnamed Road, Seponti Jaya, Kec. Seponti, Kabupaten Kayong Utara",KALIMANTAN BARAT,78857.0,Indonesia,,,,-0.8637059,109.8339525,https://maps.google.com/?cid=0x0:0x9866e6e1f1364e5c,
restaurant,Bar,Warung Internet Gus Tatir,"Unnamed Road, Seponti Jaya, Kec. Seponti, Kabupaten Kayong Utara, Kalimantan Barat 78857","Seponti Jaya, Kec. Seponti, Kabupaten Kayong Utara",KALIMANTAN BARAT,78857.0,Indonesia,82251643047.0,,,-0.8615694,109.8328424,https://maps.google.com/?cid=0x0:0x1236651ae233cebf,
restaurant,restaurant,Kalimantan Barat 78853,"Kec. Simpang Hilir, Kabupaten Kayong Utara, Kalimantan Barat","Kabupaten Kayong Utara, Kalimantan Barat",KALIMANTAN BARAT,,Indonesia,,,,-1.0652462,110.2355647,https://maps.google.com/?cid=0x0:0x67224898fb15c624,
restaurant,restaurant,RM. Bakso Tiga Sahabat,"VXJ6+VJM, Jl. Provinsi, Rantau Panjang, Kec. Simpang Hilir, Kabupaten Kayong Utara, Kalimantan Barat 78853","Jl. Provinsi, Rantau Panjang, Kec. Simpang Hilir, Kabupaten Kayong Utara",KALIMANTAN BARAT,78853.0,Indonesia,,,,-1.1177788,109.9615461,https://maps.google.com/?cid=0x0:0xc2a291369bfa3f2e,
restaurant,Restoran,Rm. ARTOMORO,"X6W2+FH3, Unnamed Road, Lubuk Batu, Kec. Simpang Hilir, Kabupaten Kayong Utara, Kalimantan Barat 78853","Unnamed Road, Lubuk Batu, Kec. Simpang Hilir, Kabupaten Kayong Utara",KALIMANTAN BARAT,78853.0,Indonesia,,,,-1.0038682,110.2014305,https://maps.google.com/?cid=0x0:0x6dbf2e2d512ca685,
restaurant,Restoran,pentol kuah EL BARCA,"Jl. Simpang Hilir, Telukmelano, Kec. Simpang Hilir, Kabupaten Kayong Utara, Kalimantan Barat 78853","Telukmelano, Kec. Simpang Hilir, Kabupaten Kayong Utara",KALIMANTAN BARAT,78853.0,Indonesia,,,,-1.0986952,109.9611048,https://maps.google.com/?cid=0x0:0x58507d8755f0a1ce,
restaurant,Makanan Kecil,"pengilinggan tepung,kopi dan rempah-rempah Ibu Julia.","Rt 004/Rw 002 dusun tembok baru desa rantau panjang kecematan, Rantau Panjang, Kec. Simpang Hilir, Kabupaten Kayong Utara, Kalimantan Barat 78853","Rantau Panjang, Kec. Simpang Hilir, Kabupaten Kayong Utara",KALIMANTAN BARAT,78853.0,Indonesia,81352622762.0,,,-1.1288887,109.9563528,https://maps.google.com/?cid=0x0:0x5e9bd7ea0ebf6c60,
restaurant,Padang,RM Simpang,"QXV9+RXQ, Sutera, Kec. Sukadana, Kabupaten Kayong Utara, Kalimantan Barat 78852","Sutera, Kec. Sukadana, Kabupaten Kayong Utara",KALIMANTAN BARAT,78852.0,Indonesia,,,,-1.2054225,109.9699697,https://maps.google.com/?cid=0x0:0xcabc9caa7b900f8,
restaurant,Toko Daging,RM Nasi Perawas Khas Dayak,"35V5+822, Unnamed Road, Padu Banjar, Kec. Simpang Hilir, Kabupaten Kayong Utara, Kalimantan Barat 78853","Unnamed Road, Padu Banjar, Kec. Simpang Hilir, Kabupaten Kayong Utara",KALIMANTAN BARAT,78853.0,Indonesia,,,,-0.906747,110.157517,https://maps.google.com/?cid=0x0:0xf74f7f90061e41cf,
restaurant,Rumah Makan,Bakso Melano,"Jalan, Telukmelano, Simpang Hilir, North Kayong Regency, West Kalimantan 78853","Telukmelano, Simpang Hilir, North Kayong Regency",KALIMANTAN BARAT,78853.0,Indonesia,82151713514.0,,,-1.1094613,109.9625934,https://maps.google.com/?cid=0x0:0x8609a0a4158ea809,
restaurant,Bakso,Warung Sate arya,"VXX6+883, Jl. Provinsi, Rantau Panjang, Kec. Simpang Hilir, Kabupaten Kayong Utara, Kalimantan Barat 78853","Jl. Provinsi, Rantau Panjang, Kec. Simpang Hilir, Kabupaten Kayong Utara",KALIMANTAN BARAT,78853.0,Indonesia,87818041417.0,,,-1.1017251,109.9608007,https://maps.google.com/?cid=0x0:0x6b4c84581c50ba5,
restaurant,Indonesia,Bakso Udang Mak Endut,"VXX6+2MF, Jl. Simpang Hilir, Telukmelano, Kec. Simpang Hilir, Kabupaten Kayong Utara, Kalimantan Barat 78853","Jl. Simpang Hilir, Telukmelano, Kec. Simpang Hilir, Kabupaten Kayong Utara",KALIMANTAN BARAT,78853.0,Indonesia,,,,-1.1024447,109.9616839,https://maps.google.com/?cid=0x0:0xa67ad71624533693,
restaurant,Dapur Umum,Rumah Makan Sabar Iman Lamongan,"VXX6+39H, Telukmelano, Kec. Simpang Hilir, Kabupaten Kayong Utara, Kalimantan Barat 78853","Telukmelano, Kec. Simpang Hilir, Kabupaten Kayong Utara",KALIMANTAN BARAT,78853.0,Indonesia,82154304201.0,,,-1.1023062,109.960998,https://maps.google.com/?cid=0x0:0x167ba4998505d8c2,
restaurant,Bakso,Bakso Goyang Lidah,"VXX5+CWG, Jalan merdeka, Telukmelano, Kec. Simpang Hilir, Kabupaten Kayong Utara, Kalimantan Barat 78853","Jalan merdeka, Telukmelano, Kec. Simpang Hilir, Kabupaten Kayong Utara",KALIMANTAN BARAT,78853.0,Indonesia,82149311838.0,,,-1.1014487,109.9598361,https://maps.google.com/?cid=0x0:0x3fb60ad6e0bc16c1,
restaurant,Toko,Kantin mak Adel,"PKS CUS MABALI, Perumahan G1, Lubuk Batu, Kec. Simpang Hilir, Kabupaten Kayong Utara, Kalimantan Barat 78853","Perumahan G1, Lubuk Batu, Kec. Simpang Hilir, Kabupaten Kayong Utara",KALIMANTAN BARAT,78853.0,Indonesia,85750142877.0,,,-0.9950954,110.1948807,https://maps.google.com/?cid=0x0:0xa43a081aa5f57ad1,
restaurant,Makanan Kecil,Warung simpang 3,"X26M+567, Sungai Mata-Mata, Kec. Simpang Hilir, Kabupaten Kayong Utara, Kalimantan Barat","Kabupaten Kayong Utara, Kalimantan Barat",KALIMANTAN BARAT,,Indonesia,,,,-1.0395921,110.0330554,https://maps.google.com/?cid=0x0:0x6807e53061535bbd,
restaurant,Sarapan,Es Doger,"Pemangkat, Kec. Simpang Hilir, Kabupaten Kayong Utara, Kalimantan Barat 78853","Kec. Simpang Hilir, Kabupaten Kayong Utara",KALIMANTAN BARAT,78853.0,Indonesia,,,,-1.1122991,109.9150241,https://maps.google.com/?cid=0x0:0xa5d17fe194c11864,
restaurant,Restoran,Mbok Galak Ketapang,"Jl. Provinsi, Rantau Panjang, Kec. Simpang Hilir, Kabupaten Kayong Utara, Kalimantan Barat 78853","Rantau Panjang, Kec. Simpang Hilir, Kabupaten Kayong Utara",KALIMANTAN BARAT,78853.0,Indonesia,85754914646.0,,,-1.1138707,109.9628391,https://maps.google.com/?cid=0x0:0xf893aee9944db940,
restaurant,Padang,RM. SIMPANG TUGU,"QW6X+VVH, Sutera, Kec. Sukadana, Kabupaten Kayong Utara, Kalimantan Barat 78852","Sutera, Kec. Sukadana, Kabupaten Kayong Utara",KALIMANTAN BARAT,78852.0,Indonesia,81257408589.0,,,-1.2378136,109.9497205,https://maps.google.com/?cid=0x0:0xe9c251c61229060f,
restaurant,Restoran,Bakso Anes,"Lubuk Batu, Kec. Simpang Hilir, Kabupaten Kayong Utara, Kalimantan Barat","Kabupaten Kayong Utara, Kalimantan Barat",KALIMANTAN BARAT,,Indonesia,,,,-0.9866746,110.1539177,https://maps.google.com/?cid=0x0:0x33b7075dfa634c04,
restaurant,Brunch,Warung MBAK ROM,"VWPF+7QH, Jl. Pantai Utara Dusun Sinar Harapan, RT.009/RW.003, Nipah Kuning, Kec. Simpang Hilir, Kabupaten Kayong Utara, Kalimantan Barat 78853","Jl. Pantai Utara Dusun Sinar Harapan, RT.009/RW.003, Nipah Kuning, Kec. Simpang Hilir, Kabupaten Kayong Utara",KALIMANTAN BARAT,78853.0,Indonesia,82157002023.0,,,-1.1143061,109.9244725,https://maps.google.com/?cid=0x0:0x974216a66b7de190,
restaurant,restaurant,Kec. Simpang Hilir,"Kabupaten Kayong Utara, Kalimantan Barat","Kabupaten Kayong Utara, Kalimantan Barat",KALIMANTAN BARAT,,Indonesia,,,,-1.0652462,110.2355647,https://maps.google.com/?cid=0x0:0x585b4e2bc0757da0,
restaurant,Restoran,RM. JITHO WAE,"Sutera, Kec. Sukadana, Kabupaten Kayong Utara, Kalimantan Barat 78852","Kec. Sukadana, Kabupaten Kayong Utara",KALIMANTAN BARAT,78852.0,Indonesia,,,,-1.2056937,109.9700642,https://maps.google.com/?cid=0x0:0x857eed4a0f618b39,
restaurant,Bakso,Angkringan PW Melano,"VXX6+F27, Jl. Merdeka, Telukmelano, Kec. Simpang Hilir, Kabupaten Kayong Utara, Kalimantan Barat 78553","Jl. Merdeka, Telukmelano, Kec. Simpang Hilir, Kabupaten Kayong Utara",KALIMANTAN BARAT,78553.0,Indonesia,81253644962.0,,,-1.1013293,109.9600349,https://maps.google.com/?cid=0x0:0xee27ca35004b8962,
restaurant,restaurant,Sukadana,"Sutera, Kec. Sukadana, Kabupaten Kayong Utara, Kalimantan Barat","Kabupaten Kayong Utara, Kalimantan Barat",KALIMANTAN BARAT,,Indonesia,,,,-1.236284,109.957603,https://maps.google.com/?cid=0x0:0xe15dbc8fcc9954a,
restaurant,Kedai Kopi,Kovioka Coffee  Eatery,"QX62+W9G, Sutera, Kec. Sukadana, Kabupaten Kayong Utara, Kalimantan Barat 78852","Sutera, Kec. Sukadana, Kabupaten Kayong Utara",KALIMANTAN BARAT,78852.0,Indonesia,,,,-1.2376882,109.9509694,https://maps.google.com/?cid=0x0:0x6a982d02972b7c65,
restaurant,Kedai Kopi,Lokale Sukadana,"QX48+W3G, Jl. Sungai Mengkuang, Pangkalan Buton, Kec. Sukadana, Kabupaten Kayong Utara, Kalimantan Barat 78852","Jl. Sungai Mengkuang, Pangkalan Buton, Kec. Sukadana, Kabupaten Kayong Utara",KALIMANTAN BARAT,78852.0,Indonesia,,,,-1.2430168,109.9649973,https://maps.google.com/?cid=0x0:0x77e756d7b479bfdc,
restaurant,Restoran,Warung Makan Batu Daya,"QX75+Q27, Sutera, Kec. Sukadana, Kabupaten Kayong Utara, Kalimantan Barat 78852","Sutera, Kec. Sukadana, Kabupaten Kayong Utara",KALIMANTAN BARAT,78852.0,Indonesia,,,,-1.2355949,109.9575358,https://maps.google.com/?cid=0x0:0x3ad92fcc388a2ad5,
restaurant,Penginapan,Penginapan BIVA,"QXC3+HC3, Jl. Bhayangkara, Sutera, Kec. Sukadana, Kabupaten Kayong Utara, Kalimantan Barat 78852","Jl. Bhayangkara, Sutera, Kec. Sukadana, Kabupaten Kayong Utara",KALIMANTAN BARAT,78852.0,Indonesia,,,,-1.2286207,109.9535414,https://maps.google.com/?cid=0x0:0xd4969c88daa8a2ec,
restaurant,Kafe,Bilafira Cafe  Eatery,"QXM8+7PR, Jl. Lingkar, Sutera, Kec. Sukadana, Kabupaten Kayong Utara, Kalimantan Barat","Kabupaten Kayong Utara, Kalimantan Barat",KALIMANTAN BARAT,,Indonesia,,,,-1.2167735,109.966778,https://maps.google.com/?cid=0x0:0xd7c39e98ef3cd1aa,
restaurant,Restoran,Rumakan dan cafe pondok friza,"QX74+W9P, Sutera, Kec. Sukadana, Kabupaten Kayong Utara, Kalimantan Barat 78852","Sutera, Kec. Sukadana, Kabupaten Kayong Utara",KALIMANTAN BARAT,78852.0,Indonesia,,,,-1.2351253,109.9559488,https://maps.google.com/?cid=0x0:0x5cc8d82703e94d83,
restaurant,Rumah Makan,Warung pecal,"QX75+F2Q, Sutera, Kec. Sukadana, Kabupaten Kayong Utara, Kalimantan Barat","Kabupaten Kayong Utara, Kalimantan Barat",KALIMANTAN BARAT,,Indonesia,,,,-1.236284,109.957603,https://maps.google.com/?cid=0x0:0xed1faf9f68d25366,
restaurant,Kedai Kopi,Pondok Kopi Sukadana,"QX96+W39, Sutera, Kec. Sukadana, Kabupaten Kayong Utara, Kalimantan Barat 78852","Sutera, Kec. Sukadana, Kabupaten Kayong Utara",KALIMANTAN BARAT,78852.0,Indonesia,,,,-1.23022,109.9602253,https://maps.google.com/?cid=0x0:0xcb63c19083f8f2e,
restaurant,Kafe,Caffe doraemon,"QX75+F2Q, Sutera, Kec. Sukadana, Kabupaten Kayong Utara, Kalimantan Barat","Kabupaten Kayong Utara, Kalimantan Barat",KALIMANTAN BARAT,,Indonesia,,,,-1.236284,109.957603,https://maps.google.com/?cid=0x0:0xe00f802c39a81782,
restaurant,restaurant,Rumah Makn Yong Lin,"QX75+F2Q, Jl. Batu Daya, Sutera, Kec. Sukadana, Kabupaten Kayong Utara, Kalimantan Barat 78852","Jl. Batu Daya, Sutera, Kec. Sukadana, Kabupaten Kayong Utara",KALIMANTAN BARAT,78852.0,Indonesia,,,,-1.236284,109.957603,https://maps.google.com/?cid=0x0:0x1d51ff82bd0c07a1,
restaurant,Padang,Rumah Makan Pondok Bakau,"QX42+J9H, Pangkalan Buton, Kec. Sukadana, Kabupaten Kayong Utara, Kalimantan Barat 78852","Pangkalan Buton, Kec. Sukadana, Kabupaten Kayong Utara",KALIMANTAN BARAT,78852.0,Indonesia,,,,-1.2434362,109.9509975,https://maps.google.com/?cid=0x0:0xd9fb9ea91a21f69b,
restaurant,Padang,RM Simpang,"QXV9+RXQ, Sutera, Kec. Sukadana, Kabupaten Kayong Utara, Kalimantan Barat 78852","Sutera, Kec. Sukadana, Kabupaten Kayong Utara",KALIMANTAN BARAT,78852.0,Indonesia,,,,-1.2054225,109.9699697,https://maps.google.com/?cid=0x0:0xcabc9caa7b900f8,
restaurant,Restoran,Rumah makan pusako,"QW7X+2P8, Jl. Bhayangkara, Sutera, Kec. Sukadana, Kabupaten Kayong Utara, Kalimantan Barat 78852","Jl. Bhayangkara, Sutera, Kec. Sukadana, Kabupaten Kayong Utara",KALIMANTAN BARAT,78852.0,Indonesia,81352080052.0,,,-1.237467,109.9493191,https://maps.google.com/?cid=0x0:0x3aab02026bce6ea4,
restaurant,Padang,Rumah Makan Afong,"J3Q9+2QQ, Simpang Tiga, Kec. Sukadana, Kabupaten Kayong Utara, Kalimantan Barat 78852","Simpang Tiga, Kec. Sukadana, Kabupaten Kayong Utara",KALIMANTAN BARAT,78852.0,Indonesia,,,,-1.3624165,110.0694778,https://maps.google.com/?cid=0x0:0x9c94e88130042574,
restaurant,restaurant,Lampung 34194,"Kabupaten Lampung Timur, Lampung","Kabupaten Lampung Timur, Lampung",KALIMANTAN BARAT,,Indonesia,,,,-4.9525811,105.6881788,https://maps.google.com/?cid=0x0:0x8748f89c2b8dd19d,
restaurant,Nasi,CR FOOD sukadana,"XG6C+8QP, Sukadana Ilir, Kec. Sukadana, Kabupaten Lampung Timur, Lampung 34194","Sukadana Ilir, Kec. Sukadana, Kabupaten Lampung Timur",KALIMANTAN BARAT,34194.0,Indonesia,82286475148.0,,,-5.0391527,105.5219435,https://maps.google.com/?cid=0x0:0x1bc3e85121bb1746,
restaurant,Pempek,pempek sukadana (CEK MUR),"Desa Jl. Soekarno-Hatta No.347, Ps. Sukadana, Kec. Sukadana, Kabupaten Lampung Timur, Lampung 34194","Ps. Sukadana, Kec. Sukadana, Kabupaten Lampung Timur",KALIMANTAN BARAT,34194.0,Indonesia,82176130514.0,,,-5.0635361,105.5444689,https://maps.google.com/?cid=0x0:0x2c819be5d35adfc7,
restaurant,Rumah Makan,Lesehan Khas Sunda,"XG6M+7GP, Sukadana Ilir, Kec. Sukadana, Kabupaten Lampung Timur, Lampung 34194","Sukadana Ilir, Kec. Sukadana, Kabupaten Lampung Timur",KALIMANTAN BARAT,34194.0,Indonesia,81313192630.0,,,-5.0392995,105.5338241,https://maps.google.com/?cid=0x0:0x2d73415d07a069c0,
restaurant,Sunda,SALMA pondok  cafe,"XG6C+M7Q, Dusun Nganjuk, Desa, Sukadana Ilir, Kec. Sukadana, Kabupaten Lampung Timur, Lampung 34194","Dusun Nganjuk, Desa, Sukadana Ilir, Kec. Sukadana, Kabupaten Lampung Timur",KALIMANTAN BARAT,34194.0,Indonesia,85268570945.0,,,-5.038278,105.5207487,https://maps.google.com/?cid=0x0:0xd0d58f1de64facbc,
restaurant,Padang,RM.pak Ndut 2 Sukadana,"Jl. Raya Lintas Pantai Timur Sumatera No.16, Bumi Nabung Udik, Kec. Sukadana, Kabupaten Lampung Timur, Lampung 34194","Bumi Nabung Udik, Kec. Sukadana, Kabupaten Lampung Timur",KALIMANTAN BARAT,34194.0,Indonesia,82184080013.0,,,-5.1097823,105.6156753,https://maps.google.com/?cid=0x0:0xd41e47ac0026d9d5,
restaurant,Rumah Makan,Resto  Cafe bunda,"Jl. Kolonel Arifin No.64, Ps. Sukadana, Kec. Sukadana, Kabupaten Lampung Timur, Lampung 34194","Ps. Sukadana, Kec. Sukadana, Kabupaten Lampung Timur",KALIMANTAN BARAT,34194.0,Indonesia,85266843876.0,,,-5.0555298,105.5457493,https://maps.google.com/?cid=0x0:0xce45777d770fb338,
restaurant,Pempek,PEMPEK SUKADANA CEK NAYU - Pasar Lama,"WGPX+944, Pasar, Ps. Sukadana, Kec. Sukadana, Kabupaten Lampung Timur, Lampung 34194","Pasar, Ps. Sukadana, Kec. Sukadana, Kabupaten Lampung Timur",KALIMANTAN BARAT,34194.0,Indonesia,,,,-5.0641014,105.5478255,https://maps.google.com/?cid=0x0:0xfec895361a57e9b2,
restaurant,Padang,RM Sari Menanti,"Jl. Raya Lintas Pantai Timur Sumatera No.16, Sukadana Ilir, Kec. Sukadana, Kabupaten Lampung Timur, Lampung 34194","Sukadana Ilir, Kec. Sukadana, Kabupaten Lampung Timur",KALIMANTAN BARAT,34194.0,Indonesia,,,,-5.0414406,105.5324536,https://maps.google.com/?cid=0x0:0xf29417821e905f3,
restaurant,Padang,Pindang Baung Mang Ndut,"Jl. Kolonel Arifin No.063, Ps. Sukadana, Kec. Sukadana, Kabupaten Lampung Timur, Lampung 34194","Ps. Sukadana, Kec. Sukadana, Kabupaten Lampung Timur",KALIMANTAN BARAT,34194.0,Indonesia,81388445388.0,,,-5.0546184,105.5446401,https://maps.google.com/?cid=0x0:0x6a0a281adba1fc8c,
restaurant,Rumah Makan,saung Triple'E,"Jl. Kolonel Arifin, Ps. Sukadana, Kec. Sukadana, Kabupaten Lampung Timur, Lampung 34194","Ps. Sukadana, Kec. Sukadana, Kabupaten Lampung Timur",KALIMANTAN BARAT,34194.0,Indonesia,,,,-5.0527898,105.5431008,https://maps.google.com/?cid=0x0:0xf312165f203f31fc,
restaurant,Sarapan,RM. Tiga Putra,"XG5H+H99, Sukadana Ilir, Kec. Sukadana, Kabupaten Lampung Timur, Lampung 34194","Sukadana Ilir, Kec. Sukadana, Kabupaten Lampung Timur",KALIMANTAN BARAT,34194.0,Indonesia,85768858351.0,,,-5.0410836,105.52847,https://maps.google.com/?cid=0x0:0xdba2b5d16f4311e6,
restaurant,Rumah Makan,Warung Lestari,"XG7F+WCV, Sukadana Ilir, Kec. Sukadana, Kabupaten Lampung Timur, Lampung 34194","Sukadana Ilir, Kec. Sukadana, Kabupaten Lampung Timur",KALIMANTAN BARAT,34194.0,Indonesia,82281625599.0,,,-5.0351288,105.5235378,https://maps.google.com/?cid=0x0:0xe1c0aa90a7fa74a9,
restaurant,restaurant,Seafood Anugrah Bunda,"XGJQ+98H, Jl. Raya Lintas Pantai Timur Sumatera, Muara Jaya, Kec. Sukadana, Kabupaten Lampung Timur, Lampung 34194","Jl. Raya Lintas Pantai Timur Sumatera, Muara Jaya, Kec. Sukadana, Kabupaten Lampung Timur",KALIMANTAN BARAT,34194.0,Indonesia,87882395892.0,,,-5.0191279,105.5384542,https://maps.google.com/?cid=0x0:0xe13daedfa603e1ab,
restaurant,restaurant,Sukadana,"Sutera, Kec. Sukadana, Kabupaten Kayong Utara, Kalimantan Barat","Kabupaten Kayong Utara, Kalimantan Barat",KALIMANTAN BARAT,,Indonesia,,,,-1.236284,109.957603,https://maps.google.com/?cid=0x0:0xe15dbc8fcc9954a,
restaurant,Padang,Rumah Makan Pondok Bakau,"QX42+J9H, Pangkalan Buton, Kec. Sukadana, Kabupaten Kayong Utara, Kalimantan Barat 78852","Pangkalan Buton, Kec. Sukadana, Kabupaten Kayong Utara",KALIMANTAN BARAT,78852.0,Indonesia,,,,-1.2434362,109.9509975,https://maps.google.com/?cid=0x0:0xd9fb9ea91a21f69b,
restaurant,Kedai Kopi,Lokale Sukadana,"QX48+W3G, Jl. Sungai Mengkuang, Pangkalan Buton, Kec. Sukadana, Kabupaten Kayong Utara, Kalimantan Barat 78852","Jl. Sungai Mengkuang, Pangkalan Buton, Kec. Sukadana, Kabupaten Kayong Utara",KALIMANTAN BARAT,78852.0,Indonesia,,,,-1.2430168,109.9649973,https://maps.google.com/?cid=0x0:0x77e756d7b479bfdc,
restaurant,Restoran,Warung Makan Batu Daya,"QX75+Q27, Sutera, Kec. Sukadana, Kabupaten Kayong Utara, Kalimantan Barat 78852","Sutera, Kec. Sukadana, Kabupaten Kayong Utara",KALIMANTAN BARAT,78852.0,Indonesia,,,,-1.2355949,109.9575358,https://maps.google.com/?cid=0x0:0x3ad92fcc388a2ad5,
restaurant,Restoran,Rumah makan pusako,"QW7X+2P8, Jl. Bhayangkara, Sutera, Kec. Sukadana, Kabupaten Kayong Utara, Kalimantan Barat 78852","Jl. Bhayangkara, Sutera, Kec. Sukadana, Kabupaten Kayong Utara",KALIMANTAN BARAT,78852.0,Indonesia,81352080052.0,,,-1.237467,109.9493191,https://maps.google.com/?cid=0x0:0x3aab02026bce6ea4,
restaurant,Rumah Makan,Warung pecal,"QX75+F2Q, Sutera, Kec. Sukadana, Kabupaten Kayong Utara, Kalimantan Barat","Kabupaten Kayong Utara, Kalimantan Barat",KALIMANTAN BARAT,,Indonesia,,,,-1.236284,109.957603,https://maps.google.com/?cid=0x0:0xed1faf9f68d25366,
restaurant,Kedai Kopi,Pondok Kopi Sukadana,"QX96+W39, Sutera, Kec. Sukadana, Kabupaten Kayong Utara, Kalimantan Barat 78852","Sutera, Kec. Sukadana, Kabupaten Kayong Utara",KALIMANTAN BARAT,78852.0,Indonesia,,,,-1.23022,109.9602253,https://maps.google.com/?cid=0x0:0xcb63c19083f8f2e,
restaurant,Padang,Rumah Makan Afong,"J3Q9+2QQ, Simpang Tiga, Kec. Sukadana, Kabupaten Kayong Utara, Kalimantan Barat 78852","Simpang Tiga, Kec. Sukadana, Kabupaten Kayong Utara",KALIMANTAN BARAT,78852.0,Indonesia,,,,-1.3624165,110.0694778,https://maps.google.com/?cid=0x0:0x9c94e88130042574,
restaurant,Restoran,Rumakan dan cafe pondok friza,"QX74+W9P, Sutera, Kec. Sukadana, Kabupaten Kayong Utara, Kalimantan Barat 78852","Sutera, Kec. Sukadana, Kabupaten Kayong Utara",KALIMANTAN BARAT,78852.0,Indonesia,,,,-1.2351253,109.9559488,https://maps.google.com/?cid=0x0:0x5cc8d82703e94d83,
restaurant,Kafe,Caffe doraemon,"QX75+F2Q, Sutera, Kec. Sukadana, Kabupaten Kayong Utara, Kalimantan Barat","Kabupaten Kayong Utara, Kalimantan Barat",KALIMANTAN BARAT,,Indonesia,,,,-1.236284,109.957603,https://maps.google.com/?cid=0x0:0xe00f802c39a81782,
restaurant,restaurant,Rumah Makn Yong Lin,"QX75+F2Q, Jl. Batu Daya, Sutera, Kec. Sukadana, Kabupaten Kayong Utara, Kalimantan Barat 78852","Jl. Batu Daya, Sutera, Kec. Sukadana, Kabupaten Kayong Utara",KALIMANTAN BARAT,78852.0,Indonesia,,,,-1.236284,109.957603,https://maps.google.com/?cid=0x0:0x1d51ff82bd0c07a1,
restaurant,Padang,Rumah Makan Rezeki,"QX63+XJX, Jl. Tanjung Pura, Sutera, Kec. Sukadana, Kabupaten Kayong Utara, Kalimantan Barat 78852","Jl. Tanjung Pura, Sutera, Kec. Sukadana, Kabupaten Kayong Utara",KALIMANTAN BARAT,78852.0,Indonesia,,,,-1.237517,109.9541224,https://maps.google.com/?cid=0x0:0xa2e0b56b7f15623e,
restaurant,Padang,RM.Sea Food 99,"Jl. Tanah Merah, Pangkalan Buton, Kec. Sukadana, Kabupaten Kayong Utara, Kalimantan Barat 78852","Pangkalan Buton, Kec. Sukadana, Kabupaten Kayong Utara",KALIMANTAN BARAT,78852.0,Indonesia,82220323456.0,,,-1.2450636,109.951168,https://maps.google.com/?cid=0x0:0x83e82da113232b3c,
restaurant,Kedai Kopi,Kovioka Coffee  Eatery,"QX62+W9G, Sutera, Kec. Sukadana, Kabupaten Kayong Utara, Kalimantan Barat 78852","Sutera, Kec. Sukadana, Kabupaten Kayong Utara",KALIMANTAN BARAT,78852.0,Indonesia,,,,-1.2376882,109.9509694,https://maps.google.com/?cid=0x0:0x6a982d02972b7c65,
restaurant,Padang,RM Sederhana,"J3Q9+7XV, Simpang Tiga, Kec. Sukadana, Kabupaten Kayong Utara, Kalimantan Barat 78852","Simpang Tiga, Kec. Sukadana, Kabupaten Kayong Utara",KALIMANTAN BARAT,78852.0,Indonesia,8115702924.0,,,-1.3617631,110.0699196,https://maps.google.com/?cid=0x0:0xb67dc4a1bb44668e,
restaurant,Kafe,Bilafira Cafe  Eatery,"QXM8+7PR, Jl. Lingkar, Sutera, Kec. Sukadana, Kabupaten Kayong Utara, Kalimantan Barat","Kabupaten Kayong Utara, Kalimantan Barat",KALIMANTAN BARAT,,Indonesia,,,,-1.2167735,109.966778,https://maps.google.com/?cid=0x0:0xd7c39e98ef3cd1aa,
restaurant,Padang,RM.pak Ndut 2 Sukadana,"Jl. Raya Lintas Pantai Timur Sumatera No.16, Bumi Nabung Udik, Kec. Sukadana, Kabupaten Lampung Timur, Lampung 34194","Bumi Nabung Udik, Kec. Sukadana, Kabupaten Lampung Timur",KALIMANTAN BARAT,34194.0,Indonesia,82184080013.0,,,-5.1097823,105.6156753,https://maps.google.com/?cid=0x0:0xd41e47ac0026d9d5,
restaurant,Pempek,pempek sukadana (CEK MUR),"Desa Jl. Soekarno-Hatta No.347, Ps. Sukadana, Kec. Sukadana, Kabupaten Lampung Timur, Lampung 34194","Ps. Sukadana, Kec. Sukadana, Kabupaten Lampung Timur",KALIMANTAN BARAT,34194.0,Indonesia,82176130514.0,,,-5.0635361,105.5444689,https://maps.google.com/?cid=0x0:0x2c819be5d35adfc7,
restaurant,Rumah Makan,Lesehan Khas Sunda,"XG6M+7GP, Sukadana Ilir, Kec. Sukadana, Kabupaten Lampung Timur, Lampung 34194","Sukadana Ilir, Kec. Sukadana, Kabupaten Lampung Timur",KALIMANTAN BARAT,34194.0,Indonesia,81313192630.0,,,-5.0392995,105.5338241,https://maps.google.com/?cid=0x0:0x2d73415d07a069c0,
restaurant,Padang,Pindang Baung Mang Ndut,"Jl. Kolonel Arifin No.063, Ps. Sukadana, Kec. Sukadana, Kabupaten Lampung Timur, Lampung 34194","Ps. Sukadana, Kec. Sukadana, Kabupaten Lampung Timur",KALIMANTAN BARAT,34194.0,Indonesia,81388445388.0,,,-5.0546184,105.5446401,https://maps.google.com/?cid=0x0:0x6a0a281adba1fc8c,
restaurant,Sunda,SALMA pondok  cafe,"XG6C+M7Q, Dusun Nganjuk, Desa, Sukadana Ilir, Kec. Sukadana, Kabupaten Lampung Timur, Lampung 34194","Dusun Nganjuk, Desa, Sukadana Ilir, Kec. Sukadana, Kabupaten Lampung Timur",KALIMANTAN BARAT,34194.0,Indonesia,85268570945.0,,,-5.038278,105.5207487,https://maps.google.com/?cid=0x0:0xd0d58f1de64facbc,
restaurant,restaurant,Seafood Anugrah Bunda,"XGJQ+98H, Jl. Raya Lintas Pantai Timur Sumatera, Muara Jaya, Kec. Sukadana, Kabupaten Lampung Timur, Lampung 34194","Jl. Raya Lintas Pantai Timur Sumatera, Muara Jaya, Kec. Sukadana, Kabupaten Lampung Timur",KALIMANTAN BARAT,34194.0,Indonesia,87882395892.0,,,-5.0191279,105.5384542,https://maps.google.com/?cid=0x0:0xe13daedfa603e1ab,
restaurant,Rumah Makan,Resto  Cafe bunda,"Jl. Kolonel Arifin No.64, Ps. Sukadana, Kec. Sukadana, Kabupaten Lampung Timur, Lampung 34194","Ps. Sukadana, Kec. Sukadana, Kabupaten Lampung Timur",KALIMANTAN BARAT,34194.0,Indonesia,85266843876.0,,,-5.0555298,105.5457493,https://maps.google.com/?cid=0x0:0xce45777d770fb338,
restaurant,Kafe,Kedai Chaka Eung,"XG3P+W7H, Jl. Kolonel Arifin, Sukadana Ilir, Kec. Sukadana, Kabupaten Lampung Timur, Lampung 34194","Jl. Kolonel Arifin, Sukadana Ilir, Kec. Sukadana, Kabupaten Lampung Timur",KALIMANTAN BARAT,34194.0,Indonesia,82176062121.0,,,-5.0451966,105.5357291,https://maps.google.com/?cid=0x0:0x9610b97c272139fc,
restaurant,Sunda,Pindang Rose,"Jl. Raya Lintas Pantai Timur Sumatera No.10, Sukadana Ilir, Kec. Sukadana, Kabupaten Lampung Timur, Lampung 34194","Sukadana Ilir, Kec. Sukadana, Kabupaten Lampung Timur",KALIMANTAN BARAT,34194.0,Indonesia,,,,-5.0458889,105.5308693,https://maps.google.com/?cid=0x0:0x94ecd16ea816ed3e,
restaurant,Sarapan,RM. Tiga Putra,"XG5H+H99, Sukadana Ilir, Kec. Sukadana, Kabupaten Lampung Timur, Lampung 34194","Sukadana Ilir, Kec. Sukadana, Kabupaten Lampung Timur",KALIMANTAN BARAT,34194.0,Indonesia,85768858351.0,,,-5.0410836,105.52847,https://maps.google.com/?cid=0x0:0xdba2b5d16f4311e6,
restaurant,Pempek,PEMPEK SUKADANA CEK NAYU - Pasar Lama,"WGPX+944, Pasar, Ps. Sukadana, Kec. Sukadana, Kabupaten Lampung Timur, Lampung 34194","Pasar, Ps. Sukadana, Kec. Sukadana, Kabupaten Lampung Timur",KALIMANTAN BARAT,34194.0,Indonesia,,,,-5.0641014,105.5478255,https://maps.google.com/?cid=0x0:0xfec895361a57e9b2,
restaurant,Kafe,Sedulur home coffee,"Jl. Raya Lintas Pantai Timur Sumatera No.16, Sukadana Ilir, Kec. Sukadana, Kabupaten Lampung Timur, Lampung 34194","Sukadana Ilir, Kec. Sukadana, Kabupaten Lampung Timur",KALIMANTAN BARAT,34194.0,Indonesia,,,,-5.0405954,105.5331609,https://maps.google.com/?cid=0x0:0xa2ca393a3afe30af,
restaurant,Rumah Makan,saung Triple'E,"Jl. Kolonel Arifin, Ps. Sukadana, Kec. Sukadana, Kabupaten Lampung Timur, Lampung 34194","Ps. Sukadana, Kec. Sukadana, Kabupaten Lampung Timur",KALIMANTAN BARAT,34194.0,Indonesia,,,,-5.0527898,105.5431008,https://maps.google.com/?cid=0x0:0xf312165f203f31fc,
restaurant,Padang,RM. SIMPANG TUGU,"QW6X+VVH, Sutera, Kec. Sukadana, Kabupaten Kayong Utara, Kalimantan Barat 78852","Sutera, Kec. Sukadana, Kabupaten Kayong Utara",KALIMANTAN BARAT,78852.0,Indonesia,81257408589.0,,,-1.2378136,109.9497205,https://maps.google.com/?cid=0x0:0xe9c251c61229060f,
restaurant,Padang,Rumah Makan Pondok Bakau,"QX42+J9H, Pangkalan Buton, Kec. Sukadana, Kabupaten Kayong Utara, Kalimantan Barat 78852","Pangkalan Buton, Kec. Sukadana, Kabupaten Kayong Utara",KALIMANTAN BARAT,78852.0,Indonesia,,,,-1.2434362,109.9509975,https://maps.google.com/?cid=0x0:0xd9fb9ea91a21f69b,
restaurant,Padang,Rumah Makan Rezeki,"QX63+XJX, Jl. Tanjung Pura, Sutera, Kec. Sukadana, Kabupaten Kayong Utara, Kalimantan Barat 78852","Jl. Tanjung Pura, Sutera, Kec. Sukadana, Kabupaten Kayong Utara",KALIMANTAN BARAT,78852.0,Indonesia,,,,-1.237517,109.9541224,https://maps.google.com/?cid=0x0:0xa2e0b56b7f15623e,
restaurant,Padang,RM Simpang,"QXV9+RXQ, Sutera, Kec. Sukadana, Kabupaten Kayong Utara, Kalimantan Barat 78852","Sutera, Kec. Sukadana, Kabupaten Kayong Utara",KALIMANTAN BARAT,78852.0,Indonesia,,,,-1.2054225,109.9699697,https://maps.google.com/?cid=0x0:0xcabc9caa7b900f8,
restaurant,Restoran,Rumah makan pusako,"QW7X+2P8, Jl. Bhayangkara, Sutera, Kec. Sukadana, Kabupaten Kayong Utara, Kalimantan Barat 78852","Jl. Bhayangkara, Sutera, Kec. Sukadana, Kabupaten Kayong Utara",KALIMANTAN BARAT,78852.0,Indonesia,81352080052.0,,,-1.237467,109.9493191,https://maps.google.com/?cid=0x0:0x3aab02026bce6ea4,
restaurant,Padang,RM Sederhana,"J3Q9+7XV, Simpang Tiga, Kec. Sukadana, Kabupaten Kayong Utara, Kalimantan Barat 78852","Simpang Tiga, Kec. Sukadana, Kabupaten Kayong Utara",KALIMANTAN BARAT,78852.0,Indonesia,8115702924.0,,,-1.3617631,110.0699196,https://maps.google.com/?cid=0x0:0xb67dc4a1bb44668e,
restaurant,Restoran,Warung Makan Batu Daya,"QX75+Q27, Sutera, Kec. Sukadana, Kabupaten Kayong Utara, Kalimantan Barat 78852","Sutera, Kec. Sukadana, Kabupaten Kayong Utara",KALIMANTAN BARAT,78852.0,Indonesia,,,,-1.2355949,109.9575358,https://maps.google.com/?cid=0x0:0x3ad92fcc388a2ad5,
restaurant,restaurant,Sukadana,"Sutera, Kec. Sukadana, Kabupaten Kayong Utara, Kalimantan Barat","Kabupaten Kayong Utara, Kalimantan Barat",KALIMANTAN BARAT,,Indonesia,,,,-1.236284,109.957603,https://maps.google.com/?cid=0x0:0xe15dbc8fcc9954a,
restaurant,Kedai Kopi,Lokale Sukadana,"QX48+W3G, Jl. Sungai Mengkuang, Pangkalan Buton, Kec. Sukadana, Kabupaten Kayong Utara, Kalimantan Barat 78852","Jl. Sungai Mengkuang, Pangkalan Buton, Kec. Sukadana, Kabupaten Kayong Utara",KALIMANTAN BARAT,78852.0,Indonesia,,,,-1.2430168,109.9649973,https://maps.google.com/?cid=0x0:0x77e756d7b479bfdc,
restaurant,Kedai Kopi,Pondok Kopi Sukadana,"QX96+W39, Sutera, Kec. Sukadana, Kabupaten Kayong Utara, Kalimantan Barat 78852","Sutera, Kec. Sukadana, Kabupaten Kayong Utara",KALIMANTAN BARAT,78852.0,Indonesia,,,,-1.23022,109.9602253,https://maps.google.com/?cid=0x0:0xcb63c19083f8f2e,
restaurant,Restoran,Rumakan dan cafe pondok friza,"QX74+W9P, Sutera, Kec. Sukadana, Kabupaten Kayong Utara, Kalimantan Barat 78852","Sutera, Kec. Sukadana, Kabupaten Kayong Utara",KALIMANTAN BARAT,78852.0,Indonesia,,,,-1.2351253,109.9559488,https://maps.google.com/?cid=0x0:0x5cc8d82703e94d83,
restaurant,Rumah Makan,Warung pecal,"QX75+F2Q, Sutera, Kec. Sukadana, Kabupaten Kayong Utara, Kalimantan Barat","Kabupaten Kayong Utara, Kalimantan Barat",KALIMANTAN BARAT,,Indonesia,,,,-1.236284,109.957603,https://maps.google.com/?cid=0x0:0xed1faf9f68d25366,
restaurant,Kafe,Caffe doraemon,"QX75+F2Q, Sutera, Kec. Sukadana, Kabupaten Kayong Utara, Kalimantan Barat","Kabupaten Kayong Utara, Kalimantan Barat",KALIMANTAN BARAT,,Indonesia,,,,-1.236284,109.957603,https://maps.google.com/?cid=0x0:0xe00f802c39a81782,
restaurant,restaurant,Rumah Makn Yong Lin,"QX75+F2Q, Jl. Batu Daya, Sutera, Kec. Sukadana, Kabupaten Kayong Utara, Kalimantan Barat 78852","Jl. Batu Daya, Sutera, Kec. Sukadana, Kabupaten Kayong Utara",KALIMANTAN BARAT,78852.0,Indonesia,,,,-1.236284,109.957603,https://maps.google.com/?cid=0x0:0x1d51ff82bd0c07a1,
restaurant,Kedai Kopi,S  G KAFE DAN RUMAH MAKAN,"QX63+XC4, Jl. Tanjung Pura, Sutera, Kec. Sukadana, Kabupaten Kayong Utara, Kalimantan Barat 78852","Jl. Tanjung Pura, Sutera, Kec. Sukadana, Kabupaten Kayong Utara",KALIMANTAN BARAT,78852.0,Indonesia,85245315455.0,,,-1.2376081,109.9535796,https://maps.google.com/?cid=0x0:0xf59165aa096c76cc,
restaurant,Padang,RM.Sea Food 99,"Jl. Tanah Merah, Pangkalan Buton, Kec. Sukadana, Kabupaten Kayong Utara, Kalimantan Barat 78852","Pangkalan Buton, Kec. Sukadana, Kabupaten Kayong Utara",KALIMANTAN BARAT,78852.0,Indonesia,82220323456.0,,,-1.2450636,109.951168,https://maps.google.com/?cid=0x0:0x83e82da113232b3c,
restaurant,Padang,Rumah Makan Afong,"J3Q9+2QQ, Simpang Tiga, Kec. Sukadana, Kabupaten Kayong Utara, Kalimantan Barat 78852","Simpang Tiga, Kec. Sukadana, Kabupaten Kayong Utara",KALIMANTAN BARAT,78852.0,Indonesia,,,,-1.3624165,110.0694778,https://maps.google.com/?cid=0x0:0x9c94e88130042574,
restaurant,Padang,Rumah Makan Padang UNI DUO,"QXC3+CFF, Jl. Bhayangkara, Sutera, Kec. Sukadana, Kabupaten Kayong Utara, Kalimantan Barat 78852","Jl. Bhayangkara, Sutera, Kec. Sukadana, Kabupaten Kayong Utara",KALIMANTAN BARAT,78852.0,Indonesia,,,,-1.2289468,109.9536697,https://maps.google.com/?cid=0x0:0x4a5cf5de958c0e5,
restaurant,Padang,RM.pak Ndut 2 Sukadana,"Jl. Raya Lintas Pantai Timur Sumatera No.16, Bumi Nabung Udik, Kec. Sukadana, Kabupaten Lampung Timur, Lampung 34194","Bumi Nabung Udik, Kec. Sukadana, Kabupaten Lampung Timur",KALIMANTAN BARAT,34194.0,Indonesia,82184080013.0,,,-5.1097823,105.6156753,https://maps.google.com/?cid=0x0:0xd41e47ac0026d9d5,
restaurant,Kafe,Kedai Chaka Eung,"XG3P+W7H, Jl. Kolonel Arifin, Sukadana Ilir, Kec. Sukadana, Kabupaten Lampung Timur, Lampung 34194","Jl. Kolonel Arifin, Sukadana Ilir, Kec. Sukadana, Kabupaten Lampung Timur",KALIMANTAN BARAT,34194.0,Indonesia,82176062121.0,,,-5.0451966,105.5357291,https://maps.google.com/?cid=0x0:0x9610b97c272139fc,
restaurant,Rumah Makan,Rumah Makan Mas Mul,"XQXG+2XF, Tlk. Batang Sel., Kec. Tlk. Batang, Kabupaten Kayong Utara, Kalimantan Barat 78856","Tlk. Batang Sel., Kec. Tlk. Batang, Kabupaten Kayong Utara",KALIMANTAN BARAT,78856.0,Indonesia,,,,-1.0024275,109.7774208,https://maps.google.com/?cid=0x0:0x4c2601b2e206eeb1,
restaurant,Sarapan,PADU BERKAH (Aneka Makanan  Minuman),"XQPR+PGP, Teluk Batang - Sukadana Road, Tlk. Batang Sel., Kec. Tlk. Batang, Kabupaten Kayong Utara, Kalimantan Barat 78856","Teluk Batang - Sukadana Road, Tlk. Batang Sel., Kec. Tlk. Batang, Kabupaten Kayong Utara",KALIMANTAN BARAT,78856.0,Indonesia,85393521163.0,,,-1.0131677,109.791329,https://maps.google.com/?cid=0x0:0xf0a0ff8c7f6b2223,
restaurant,Restoran,Mie Ayam  Bakso 88,"Samping Polsek, Tlk. Batang Sel., Kec. Tlk. Batang, Kabupaten Kayong Utara, Kalimantan Barat 78856","Tlk. Batang Sel., Kec. Tlk. Batang, Kabupaten Kayong Utara",KALIMANTAN BARAT,78856.0,Indonesia,81256596294.0,,,-0.9928615,109.789056,https://maps.google.com/?cid=0x0:0x994f7879ae6def45,
restaurant,Restoran,Rumah kita,"3R8R+74H, Jl. Arif Rahman Hakim, Banyu Abang, Kec. Tlk. Batang, Kabupaten Kayong Utara, Kalimantan Barat 78856","Jl. Arif Rahman Hakim, Banyu Abang, Kec. Tlk. Batang, Kabupaten Kayong Utara",KALIMANTAN BARAT,78856.0,Indonesia,,,,-0.9343107,109.8403572,https://maps.google.com/?cid=0x0:0x3f62a035e551eb52,
restaurant,Kafe,warkop putri teluk batang,"Jl. Tlk. Batang, Tlk. Batang Sel., Kec. Tlk. Batang, Kabupaten Kayong Utara, Kalimantan Barat 78856","Tlk. Batang Sel., Kec. Tlk. Batang, Kabupaten Kayong Utara",KALIMANTAN BARAT,78856.0,Indonesia,,,,-0.9930057,109.7700624,https://maps.google.com/?cid=0x0:0x816740ded6f6d2e,
restaurant,Toko,Teluk batang,"4WQ7+RH4, Sungai Sepeti, Kec. Seponti, Kabupaten Kayong Utara, Kalimantan Barat 78857","Sungai Sepeti, Kec. Seponti, Kabupaten Kayong Utara",KALIMANTAN BARAT,78857.0,Indonesia,895326172804.0,,,-0.860489,109.9139594,https://maps.google.com/?cid=0x0:0x5b00cb663839ef2a,
restaurant,Kedai Kopi,Dukkan Brother,"2R8R+G5M, Jl. Raya, Sungai Paduan, Kec. Tlk. Batang, Kabupaten Kayong Utara, Kalimantan Barat 78856","Jl. Raya, Sungai Paduan, Kec. Tlk. Batang, Kabupaten Kayong Utara",KALIMANTAN BARAT,78856.0,Indonesia,85822993755.0,,,-0.9836503,109.8404299,https://maps.google.com/?cid=0x0:0x472a3363a2ab22f,
restaurant,Kafe,Abi GEMING FREE,"2Q4C+R24, Tlk. Batang Sel., Kec. Tlk. Batang, Kabupaten Kayong Utara, Kalimantan Barat 78856","Tlk. Batang Sel., Kec. Tlk. Batang, Kabupaten Kayong Utara",KALIMANTAN BARAT,78856.0,Indonesia,,,,-0.9929902,109.7700792,https://maps.google.com/?cid=0x0:0x44c78fb733ac8440,
restaurant,Kafe,Caffe One,"2Q59+5QV, Tlk. Batang, Kec. Tlk. Batang, Kabupaten Kayong Utara, Kalimantan Barat 78856","Tlk. Batang, Kec. Tlk. Batang, Kabupaten Kayong Utara",KALIMANTAN BARAT,78856.0,Indonesia,89652382256.0,,,-0.992014,109.7694343,https://maps.google.com/?cid=0x0:0xa7859d8bca0cc539,
restaurant,Kedai Kopi,Surya,"2QF4+CXJ, Tlk. Batang Utara, Kec. Tlk. Batang, Kabupaten Kayong Utara, Kalimantan Barat 78856","Tlk. Batang Utara, Kec. Tlk. Batang, Kabupaten Kayong Utara",KALIMANTAN BARAT,78856.0,Indonesia,,,,-0.9765956,109.7582329,https://maps.google.com/?cid=0x0:0x1502356aa590d2be,
restaurant,Restoran,PENTOL KUAH KANG UJANG,"2Q4Q+H2, Tlk. Batang Sel., Kec. Tlk. Batang, Kabupaten Kayong Utara, Kalimantan Barat 78856","Tlk. Batang Sel., Kec. Tlk. Batang, Kabupaten Kayong Utara",KALIMANTAN BARAT,78856.0,Indonesia,,,,-0.9935588,109.7875169,https://maps.google.com/?cid=0x0:0x5efa972c98131e2d,
restaurant,Pusat Perbelanjaan,Andalusia Mart,"Jl. Arif Rahman Hakim Dusun Harapan Makmur No.RT 006, Banyu Abang, Kec. Tlk. Batang, Kabupaten Kayong Utara, Kalimantan Barat 78856","Banyu Abang, Kec. Tlk. Batang, Kabupaten Kayong Utara",KALIMANTAN BARAT,78856.0,Indonesia,81251446832.0,,,-0.9444194,109.7985109,https://maps.google.com/?cid=0x0:0x99fdec4dff1dc58,
restaurant,Kafe,Warung NURLIDZA,"3R9R+WJM, Banyu Abang, Kec. Tlk. Batang, Kabupaten Kayong Utara, Kalimantan Barat 78856","Banyu Abang, Kec. Tlk. Batang, Kabupaten Kayong Utara",KALIMANTAN BARAT,78856.0,Indonesia,,,,-0.9301727,109.8415598,https://maps.google.com/?cid=0x0:0xc5894dbae9835394,
restaurant,Kedai Kopi,KOPI KAMPUNG SUKAMAJU,"Tlk. Batang Sel., Kec. Tlk. Batang, Kabupaten Kayong Utara, Kalimantan Barat 78856","Kec. Tlk. Batang, Kabupaten Kayong Utara",KALIMANTAN BARAT,78856.0,Indonesia,,,,-0.9876927,109.798004,https://maps.google.com/?cid=0x0:0xe963a62379a6b3ba,
restaurant,Sarapan,Nasi kuning Arve,"2Q5Q+9H3, Jl Ahmad yani, Tlk. Batang Sel., Kampung tengah, Kabupaten Kayong Utara, Kalimantan Barat 78856","Jl Ahmad yani, Tlk. Batang Sel., Kampung tengah, Kabupaten Kayong Utara",KALIMANTAN BARAT,78856.0,Indonesia,,,,-0.9916056,109.7889321,https://maps.google.com/?cid=0x0:0x63cb49ca76516fa4,
restaurant,Kedai Kopi,Omah Kayoe Resto Kuliner Lawasan,"Cendono, Sidayu, Kec. Bandar, Kabupaten Batang, Jawa Tengah 51254","Sidayu, Kec. Bandar, Kabupaten Batang",KALIMANTAN BARAT,51254.0,Indonesia,85786667375.0,,,-7.0412102,109.8037063,https://maps.google.com/?cid=0x0:0x70fb5c0d2e242fd0,
restaurant,Kafe,Dish Eatery,"Jl. Garuda III, Dracik Tempe, Proyonanggan Sel., Kec. Batang, Kabupaten Batang, Jawa Tengah 51211","Dracik Tempe, Proyonanggan Sel., Kec. Batang, Kabupaten Batang",KALIMANTAN BARAT,51211.0,Indonesia,85786340030.0,,,-6.9210544,109.7334445,https://maps.google.com/?cid=0x0:0xc9cd0d5a35c3e7e0,
restaurant,Restoran,Oemah penyet,"Jl. Jend Sutoyo No.96, Randu, Denasri Wetan, Kec. Batang, Kabupaten Batang, Jawa Tengah 51216","Randu, Denasri Wetan, Kec. Batang, Kabupaten Batang",KALIMANTAN BARAT,51216.0,Indonesia,85640738000.0,,,-6.8939752,109.712749,https://maps.google.com/?cid=0x0:0xedea46f7e89f8dfe,
restaurant,restaurant,Angkringan 86,"XQXG+QGX, Tlk. Batang Sel., Kec. Tlk. Batang, Kabupaten Kayong Utara, Kalimantan Barat 78856","Tlk. Batang Sel., Kec. Tlk. Batang, Kabupaten Kayong Utara",KALIMANTAN BARAT,78856.0,Indonesia,,,,-1.0005077,109.7763522,https://maps.google.com/?cid=0x0:0x7c6ae2460dfa753d,
cafe,cafe,ARASH WIFI,"9W6X+3W8, Padang, Kepulauan Karimata, Kabupaten Kayong Utara, Kalimantan Barat","Kabupaten Kayong Utara, Kalimantan Barat",KALIMANTAN BARAT,,Indonesia,,,,-1.6398262,108.9498338,https://maps.google.com/?cid=0x0:0xe4e2339d6401aad5,
cafe,cafe,Kepulauan Karimata,"Kabupaten Kayong Utara, Kalimantan Barat","Kabupaten Kayong Utara, Kalimantan Barat",KALIMANTAN BARAT,,Indonesia,,,,-1.6038919,108.9264524,https://maps.google.com/?cid=0x0:0xf5b6467328943c9c,
cafe,Restoran,WARKOP SIMPANG,"Tj. Satai, Kec. Pulau Maya Karimata, Kabupaten Kayong Utara, Kalimantan Barat 78855","Kec. Pulau Maya Karimata, Kabupaten Kayong Utara",KALIMANTAN BARAT,78855.0,Indonesia,85245468540.0,,,-1.2113174,109.6754448,https://maps.google.com/?cid=0x0:0x76a6fb6a1ee8deb5,
cafe,cafe,Pulau Maja,"Tj. Satai, Kec. Pulau Maya Karimata, Kabupaten Kayong Utara, Kalimantan Barat","Kabupaten Kayong Utara, Kalimantan Barat",KALIMANTAN BARAT,,Indonesia,,,,-1.1666667,109.5833333,https://maps.google.com/?cid=0x0:0x5b5768fe20598843,
cafe,Kedai Kopi,Cpp cooffee,"Kemboja, Kec. Pulau Maya Karimata, Kabupaten Kayong Utara, Kalimantan Barat","Kabupaten Kayong Utara, Kalimantan Barat",KALIMANTAN BARAT,,Indonesia,85212134007.0,,,-1.1322172,109.7442505,https://maps.google.com/?cid=0x0:0x369096f7955968c0,
cafe,Restoran,WARKOP SIMPANG,"Tj. Satai, Kec. Pulau Maya Karimata, Kabupaten Kayong Utara, Kalimantan Barat 78855","Kec. Pulau Maya Karimata, Kabupaten Kayong Utara",KALIMANTAN BARAT,78855.0,Indonesia,85245468540.0,,,-1.2113174,109.6754448,https://maps.google.com/?cid=0x0:0x76a6fb6a1ee8deb5,
cafe,cafe,Kalimantan Barat 78855,"Kec. Pulau Maya Karimata, Kabupaten Kayong Utara, Kalimantan Barat","Kabupaten Kayong Utara, Kalimantan Barat",KALIMANTAN BARAT,,Indonesia,,,,-1.1787347,109.5211063,https://maps.google.com/?cid=0x0:0x3e6c33c008ec2445,
cafe,Kafe,Base Camp Cafe,"XQXG+QHR, Tlk. Batang Sel., Kec. Tlk. Batang, Kabupaten Kayong Utara, Kalimantan Barat 78856","Tlk. Batang Sel., Kec. Tlk. Batang, Kabupaten Kayong Utara",KALIMANTAN BARAT,78856.0,Indonesia,,,,-1.0005248,109.7763941,https://maps.google.com/?cid=0x0:0xba1866d788bb6835,
cafe,Dapur Umum,Rumah Makan Leon,"VFP5+9W, Dusun Besar, Kec. Pulau Maya Karimata, Kabupaten Kayong Utara, Kalimantan Barat 78855","Dusun Besar, Kec. Pulau Maya Karimata, Kabupaten Kayong Utara",KALIMANTAN BARAT,78855.0,Indonesia,82148175236.0,,,-1.1141283,109.4598038,https://maps.google.com/?cid=0x0:0x1c759b4464ccbaa5,
cafe,Kedai Kopi,LOGIN CAFE,"QMPM+VC7, Tj. Satai, Kec. Pulau Maya Karimata, Kabupaten Kayong Utara, Kalimantan Barat 78855","Tj. Satai, Kec. Pulau Maya Karimata, Kabupaten Kayong Utara",KALIMANTAN BARAT,78855.0,Indonesia,,,,-1.2128422,109.6835374,https://maps.google.com/?cid=0x0:0xc591a2f54d8f7cbb,
cafe,Kedai Kopi,Joe gutallo,"VM92+2R2 Rt003/Rw000, Dusun limau manis, Satai Lestari, Kec. Pulau Maya Karimata, Kabupaten Kayong Utara, Kalimantan Barat 78855","Dusun limau manis, Satai Lestari, Kec. Pulau Maya Karimata, Kabupaten Kayong Utara",KALIMANTAN BARAT,78855.0,Indonesia,,,,-1.1324956,109.6520274,https://maps.google.com/?cid=0x0:0x3726c9fb7b9bc0af,
cafe,Kedai Kopi,CW Coffee  Eatery - Teluk Melano,"Rantau Panjang, Kec. Simpang Hilir, Kabupaten Kayong Utara, Kalimantan Barat 78852","Kec. Simpang Hilir, Kabupaten Kayong Utara",KALIMANTAN BARAT,78852.0,Indonesia,,,,-1.1556208,109.9480873,https://maps.google.com/?cid=0x0:0xba6c27188a9d4cea,
cafe,Kantor Pemerintah,Dusun Besar,"VFQ6+439, Dusun Besar, Kec. Pulau Maya Karimata, Kabupaten Kayong Utara, Kalimantan Barat 78855","Dusun Besar, Kec. Pulau Maya Karimata, Kabupaten Kayong Utara",KALIMANTAN BARAT,78855.0,Indonesia,81253992433.0,,,-1.1122181,109.4602223,https://maps.google.com/?cid=0x0:0xd2afeaf7f32f914f,
cafe,Kedai Kopi,Jainal wi-fi,"Kemboja, Kec. Pulau Maya Karimata, Kabupaten Kayong Utara, Kalimantan Barat","Kabupaten Kayong Utara, Kalimantan Barat",KALIMANTAN BARAT,,Indonesia,85248028885.0,,,-1.1451579,109.7224703,https://maps.google.com/?cid=0x0:0x3c502719afaf5550,
cafe,Rumah Kayu,Kedai Uncle Muthu,"W7VX+9X, Dusun Besar, Kec. Pulau Maya Karimata, Kabupaten Kayong Utara, Kalimantan Barat","Kabupaten Kayong Utara, Kalimantan Barat",KALIMANTAN BARAT,,Indonesia,,,,-1.0565072,109.2999245,https://maps.google.com/?cid=0x0:0xd36c2cca69d1323c,
cafe,Kedai Kopi,R3 Cafe,"XQQQ+74F, Jl. Parit Gn., Alur Bandung, Kec. Tlk. Batang, Kabupaten Kayong Utara, Kalimantan Barat 78856","Jl. Parit Gn., Alur Bandung, Kec. Tlk. Batang, Kabupaten Kayong Utara",KALIMANTAN BARAT,78856.0,Indonesia,85249980434.0,,,-1.0116941,109.7882813,https://maps.google.com/?cid=0x0:0x48e035369cfaf69e,
cafe,Rumah Makan,Suma-ps,"dusun panca karya Jl.Gusti M Saunan No.RT 004, Tlk. Batang Sel., Kec. Tlk. Batang, Kabupaten Kayong Utara, Kalimantan Barat 78856","Tlk. Batang Sel., Kec. Tlk. Batang, Kabupaten Kayong Utara",KALIMANTAN BARAT,78856.0,Indonesia,85245680068.0,,,-1.0030148,109.7735596,https://maps.google.com/?cid=0x0:0x25a1281297383686,
cafe,Kafe,Hery Canteen And Cafe,"WRHM+VMP, Pulau Kumbang, Kec. Simpang Hilir, Kabupaten Kayong Utara, Kalimantan Barat 78856","Pulau Kumbang, Kec. Simpang Hilir, Kabupaten Kayong Utara",KALIMANTAN BARAT,78856.0,Indonesia,85252229225.0,,,-1.070281,109.8342044,https://maps.google.com/?cid=0x0:0xd5cef57a2b69cd9,
cafe,Kafe,Sejenak coffea,"2Q2H+85G, Tlk. Batang Sel., Kec. Tlk. Batang, Kabupaten Kayong Utara, Kalimantan Barat 78856","Tlk. Batang Sel., Kec. Tlk. Batang, Kabupaten Kayong Utara",KALIMANTAN BARAT,78856.0,Indonesia,,,,-0.9991761,109.7779397,https://maps.google.com/?cid=0x0:0xaac7dd94b082cb4e,
cafe,Otoritas Pelabuhan,Warkop Pelabuhan Teluk Batang,"XQV9+MHJ, Tlk. Batang Sel., Kec. Tlk. Batang, Kabupaten Kayong Utara, Kalimantan Barat 78856","Tlk. Batang Sel., Kec. Tlk. Batang, Kabupaten Kayong Utara",KALIMANTAN BARAT,78856.0,Indonesia,,,,-1.0057925,109.768895,https://maps.google.com/?cid=0x0:0x1033e652266d23cf,
cafe,Kafe,Cafe Uphiet Dhabol,"XQXG+WH8, Unnamed Road, Jl. Tlk. Batang, Tlk. Batang Sel., Kec. Tlk. Batang, Kabupaten Kayong Utara, Kalimantan Barat 78856","Unnamed Road, Jl. Tlk. Batang, Tlk. Batang Sel., Kec. Tlk. Batang, Kabupaten Kayong Utara",KALIMANTAN BARAT,78856.0,Indonesia,,,,-1.0002157,109.7764592,https://maps.google.com/?cid=0x0:0xd877ccd4e312c74,
cafe,Kafe,Etnies Cafe,"QW5X+4PQ, Jl. Kota Karang, Pangkalan Buton, Kec. Sukadana, Kabupaten Kayong Utara, Kalimantan Barat 78852","Jl. Kota Karang, Pangkalan Buton, Kec. Sukadana, Kabupaten Kayong Utara",KALIMANTAN BARAT,78852.0,Indonesia,89616971697.0,,,-1.242153,109.9493593,https://maps.google.com/?cid=0x0:0x3bcf4ac2dd69c5d,
cafe,Kafe,Selvie Cafe,"2Q2G+2GR, Tlk. Batang Sel., Kec. Tlk. Batang, Kabupaten Kayong Utara, Kalimantan Barat 78856","Tlk. Batang Sel., Kec. Tlk. Batang, Kabupaten Kayong Utara",KALIMANTAN BARAT,78856.0,Indonesia,89694348669.0,,,-0.9998823,109.7762645,https://maps.google.com/?cid=0x0:0x4161f013840df7e,
cafe,Warnet,LINK NET WIFI,"2H2H+GC7, Dusun Kecil, Kec. Pulau Maya Karimata, Kabupaten Kayong Utara, Kalimantan Barat","Kabupaten Kayong Utara, Kalimantan Barat",KALIMANTAN BARAT,,Indonesia,,,,-0.9987226,109.5785389,https://maps.google.com/?cid=0x0:0x3d9f17d08ecc8e17,
cafe,cafe,ARASH WIFI,"9W6X+3W8, Padang, Kepulauan Karimata, Kabupaten Kayong Utara, Kalimantan Barat","Kabupaten Kayong Utara, Kalimantan Barat",KALIMANTAN BARAT,,Indonesia,,,,-1.6398262,108.9498338,https://maps.google.com/?cid=0x0:0xe4e2339d6401aad5,
cafe,cafe,Kalimantan Barat 78857,"Kabupaten Kayong Utara, Kalimantan Barat","Kabupaten Kayong Utara, Kalimantan Barat",KALIMANTAN BARAT,,Indonesia,,,,-0.8152171,109.9973244,https://maps.google.com/?cid=0x0:0xa089fb64937c19df,
cafe,Kafe,Coffee Receh,"4RVF+MF6, Seponti Jaya, Kec. Seponti, Kabupaten Kayong Utara, Kalimantan Barat 78857","Seponti Jaya, Kec. Seponti, Kabupaten Kayong Utara",KALIMANTAN BARAT,78857.0,Indonesia,82298339027.0,,,-0.8558457,109.8236281,https://maps.google.com/?cid=0x0:0xcc93c6d0cf3a064d,
cafe,Kafe,Warni ipin caffe,"6W9M+3H, Durian Sebatang, Kec. Seponti, Kabupaten Kayong Utara, Kalimantan Barat","Kabupaten Kayong Utara, Kalimantan Barat",KALIMANTAN BARAT,,Indonesia,,,,-0.7823284,109.9339677,https://maps.google.com/?cid=0x0:0x4d26527c1d0b18f2,
cafe,Kafe,Caffe Andi,"5R39+5VC, Unnamed Road, Seponti Jaya, Kec. Seponti, Kabupaten Kayong Utara, Kalimantan Barat 78857","Unnamed Road, Seponti Jaya, Kec. Seponti, Kabupaten Kayong Utara",KALIMANTAN BARAT,78857.0,Indonesia,,,,-0.8470731,109.8196317,https://maps.google.com/?cid=0x0:0x444af1b5327489eb,
cafe,Kedai Kopi,Aceh Kopi Scholes,"4RPM+GH8, Unnamed Road, Seponti Jaya, Kec. Seponti, Kabupaten Kayong Utara, Kalimantan Barat 78857","Unnamed Road, Seponti Jaya, Kec. Seponti, Kabupaten Kayong Utara",KALIMANTAN BARAT,78857.0,Indonesia,,,,-0.8637059,109.8339525,https://maps.google.com/?cid=0x0:0x9866e6e1f1364e5c,
cafe,Kafe,Kafe Bang Dul,"5R39+3RC, Pelabuhan, Seponti Jaya, Kec. Seponti, Kabupaten Kayong Utara, Kalimantan Barat","Kabupaten Kayong Utara, Kalimantan Barat",KALIMANTAN BARAT,,Indonesia,,,,-0.8473001,109.819511,https://maps.google.com/?cid=0x0:0x2608c2c676c44ff8,
cafe,Makanan Siap Saji,Warung makan Pak Man,"4RQM+872, Seponti Jaya, Kec. Seponti, Kabupaten Kayong Utara, Kalimantan Barat 78857","Seponti Jaya, Kec. Seponti, Kabupaten Kayong Utara",KALIMANTAN BARAT,78857.0,Indonesia,,,,-0.8617442,109.8331439,https://maps.google.com/?cid=0x0:0x7aef277c50b4f45d,
cafe,Toko,Mega Bintang,"4RMH+8G5, Seponti Jaya, Kec. Seponti, Kabupaten Kayong Utara, Kalimantan Barat 78857","Seponti Jaya, Kec. Seponti, Kabupaten Kayong Utara",KALIMANTAN BARAT,78857.0,Indonesia,82255581376.0,,,-0.8667302,109.8288497,https://maps.google.com/?cid=0x0:0xe91442b6c64f4965,
cafe,Kedai Kopi,Cafe Mondi,"6W8M+9HH, Durian Sebatang, Kec. Seponti, Kabupaten Kayong Utara, Kalimantan Barat 78857","Durian Sebatang, Kec. Seponti, Kabupaten Kayong Utara",KALIMANTAN BARAT,78857.0,Indonesia,,,,-0.7840685,109.9339856,https://maps.google.com/?cid=0x0:0xdbf5503474eef47d,
cafe,Bar,Warung Internet Gus Tatir,"Unnamed Road, Seponti Jaya, Kec. Seponti, Kabupaten Kayong Utara, Kalimantan Barat 78857","Seponti Jaya, Kec. Seponti, Kabupaten Kayong Utara",KALIMANTAN BARAT,78857.0,Indonesia,82251643047.0,,,-0.8615694,109.8328424,https://maps.google.com/?cid=0x0:0x1236651ae233cebf,
cafe,Kedai Kopi,Warkop,"Sungai Sepeti, Kec. Seponti, Kabupaten Kayong Utara, Kalimantan Barat 78857","Kec. Seponti, Kabupaten Kayong Utara",KALIMANTAN BARAT,78857.0,Indonesia,,,,-0.8867917,109.8993764,https://maps.google.com/?cid=0x0:0xfd544e8ac8572717,
cafe,Komplek perumahan,Umi Rubitoh,"5VFQ+H9W, Unnamed Road, Sungai Sepeti, Kec. Seponti, Kabupaten Kayong Utara, Kalimantan Barat 78857","Unnamed Road, Sungai Sepeti, Kec. Seponti, Kabupaten Kayong Utara",KALIMANTAN BARAT,78857.0,Indonesia,,,,-0.8260124,109.8884659,https://maps.google.com/?cid=0x0:0xf7c358d1d00abc56,
cafe,Kafe,Warung Aldo Paket,"Seponti Jaya, Kec. Seponti, Kabupaten Kayong Utara, Kalimantan Barat 78857","Kec. Seponti, Kabupaten Kayong Utara",KALIMANTAN BARAT,78857.0,Indonesia,82255581404.0,,,-0.8556106,109.8234208,https://maps.google.com/?cid=0x0:0xd3d02cf389655078,
cafe,Sesuai untuk keluarga,Rumah Makan Sunrise,"4RQJ+FCR, Seponti Jaya, Kec. Seponti, Kabupaten Kayong Utara, Kalimantan Barat 78857","Seponti Jaya, Kec. Seponti, Kabupaten Kayong Utara",KALIMANTAN BARAT,78857.0,Indonesia,82350014081.0,,,-0.8612742,109.8310132,https://maps.google.com/?cid=0x0:0xa48eb7effbe2a5,
cafe,Bar,Kafe Kang Tatir,"4RQM+766, Seponti Jaya, Kec. Seponti, Kabupaten Kayong Utara, Kalimantan Barat 78857","Seponti Jaya, Kec. Seponti, Kabupaten Kayong Utara",KALIMANTAN BARAT,78857.0,Indonesia,85750561357.0,,,-0.8616215,109.8330156,https://maps.google.com/?cid=0x0:0xfe2e8cf93f795b73,
cafe,Pusat jajanan kaki lima,"Bakso Kang Gatot, paket 5 Seponti Jaya","4RQJ+4PR, Seponti Jaya, Kec. Seponti, Kabupaten Kayong Utara, Kalimantan Barat 78857","Seponti Jaya, Kec. Seponti, Kabupaten Kayong Utara",KALIMANTAN BARAT,78857.0,Indonesia,81258292499.0,,,-0.8621435,109.8317758,https://maps.google.com/?cid=0x0:0x9959c351b852da73,
cafe,Makanan Siap Saji,Toko Arum,"Tr 10B DesaTelaga Arum, Telaga Arum, Kec. Seponti, Kabupaten Kayong Utara, Kalimantan Barat 78857","Telaga Arum, Kec. Seponti, Kabupaten Kayong Utara",KALIMANTAN BARAT,78857.0,Indonesia,81242318400.0,,,-0.880759,109.8484501,https://maps.google.com/?cid=0x0:0x181ffd0366119001,
cafe,Toko,Teluk batang,"4WQ7+RH4, Sungai Sepeti, Kec. Seponti, Kabupaten Kayong Utara, Kalimantan Barat 78857","Sungai Sepeti, Kec. Seponti, Kabupaten Kayong Utara",KALIMANTAN BARAT,78857.0,Indonesia,895326172804.0,,,-0.860489,109.9139594,https://maps.google.com/?cid=0x0:0x5b00cb663839ef2a,
cafe,Kafe,Warkop damai selalu 2,"4V55+X4, Telaga Arum, Kec. Seponti, Kabupaten Kayong Utara, Kalimantan Barat","Kabupaten Kayong Utara, Kalimantan Barat",KALIMANTAN BARAT,,Indonesia,81250229931.0,,,-0.890063,109.857813,https://maps.google.com/?cid=0x0:0x4525bf4cc5a9477f,
cafe,Kafe,Wifi vouchaer ardian,"4VMJ+2P8, Sungai Sepeti, Kec. Seponti, Kabupaten Kayong Utara, Kalimantan Barat 78857","Sungai Sepeti, Kec. Seponti, Kabupaten Kayong Utara",KALIMANTAN BARAT,78857.0,Indonesia,,,,-0.8658121,109.8804594,https://maps.google.com/?cid=0x0:0x9785e55395b01661,
cafe,cafe,Buah salak,"4RXH+MHP, Seponti jaya,kec seponti,kab, Seponti Jaya, Kec. Seponti, Kabupaten Kayong Utara, Kalimantan Barat 78857","Seponti jaya,kec seponti,kab, Seponti Jaya, Kec. Seponti, Kabupaten Kayong Utara",KALIMANTAN BARAT,78857.0,Indonesia,81250620065.0,,,-0.8507858,109.8289559,https://maps.google.com/?cid=0x0:0xd68e06b99c803add,
cafe,cafe,Kalimantan Barat 78853,"Kec. Simpang Hilir, Kabupaten Kayong Utara, Kalimantan Barat","Kabupaten Kayong Utara, Kalimantan Barat",KALIMANTAN BARAT,,Indonesia,,,,-1.0652462,110.2355647,https://maps.google.com/?cid=0x0:0x67224898fb15c624,
cafe,Kafe,cafe Sari,"WX47+HWJ, Telukmelano, Kec. Simpang Hilir, Kabupaten Kayong Utara, Kalimantan Barat 78853","Telukmelano, Kec. Simpang Hilir, Kabupaten Kayong Utara",KALIMANTAN BARAT,78853.0,Indonesia,8988269288.0,,,-1.0935306,109.9647801,https://maps.google.com/?cid=0x0:0x62a98160b7d32433,
cafe,Kafe,dreams cafe,"VXR7+736, Rantau Panjang, Kec. Simpang Hilir, Kabupaten Kayong Utara, Kalimantan Barat 78853","Rantau Panjang, Kec. Simpang Hilir, Kabupaten Kayong Utara",KALIMANTAN BARAT,78853.0,Indonesia,,,,-1.109347,109.9626336,https://maps.google.com/?cid=0x0:0x721c3b2659caa031,
cafe,Kedai Kopi,CW Coffee  Eatery - Teluk Melano,"Rantau Panjang, Kec. Simpang Hilir, Kabupaten Kayong Utara, Kalimantan Barat 78852","Kec. Simpang Hilir, Kabupaten Kayong Utara",KALIMANTAN BARAT,78852.0,Indonesia,,,,-1.1556208,109.9480873,https://maps.google.com/?cid=0x0:0xba6c27188a9d4cea,
cafe,Kedai Kopi,Warung simpang tugu 24 jam,"VXX6+76V, Telukmelano, Kec. Simpang Hilir, Kabupaten Kayong Utara, Kalimantan Barat 78853","Telukmelano, Kec. Simpang Hilir, Kabupaten Kayong Utara",KALIMANTAN BARAT,78853.0,Indonesia,,,,-1.1017526,109.9605592,https://maps.google.com/?cid=0x0:0x99b5864fb5f50799,
cafe,Kafe,TITA CAFE,"WX7H+H36, Unnamed Road, Medan Jaya, Kec. Simpang Hilir, Kabupaten Kayong Utara, Kalimantan Barat 78853","Unnamed Road, Medan Jaya, Kec. Simpang Hilir, Kabupaten Kayong Utara",KALIMANTAN BARAT,78853.0,Indonesia,,,,-1.0860814,109.97765,https://maps.google.com/?cid=0x0:0x7f10a38a4d674573,
cafe,Kedai Kopi,caffe forman,"VXW4+876, Unnamed Road, Telukmelano, Kec. Simpang Hilir, Kabupaten Kayong Utara, Kalimantan Barat 78853","Unnamed Road, Telukmelano, Kec. Simpang Hilir, Kabupaten Kayong Utara",KALIMANTAN BARAT,78853.0,Indonesia,,,,-1.1042145,109.9556532,https://maps.google.com/?cid=0x0:0x89ebfb534171e55d,
cafe,Kafe,Shetie,"VXW6+VP2, Telukmelano, Kec. Simpang Hilir, Kabupaten Kayong Utara, Kalimantan Barat 78853","Telukmelano, Kec. Simpang Hilir, Kabupaten Kayong Utara",KALIMANTAN BARAT,78853.0,Indonesia,,,,-1.10287,109.9617666,https://maps.google.com/?cid=0x0:0x3d2debd14d8a66fe,
cafe,Kafe,SRZ COFFE,"WX36+7C7, Telukmelano, Kec. Simpang Hilir, Kabupaten Kayong Utara, Kalimantan Barat 78853","Telukmelano, Kec. Simpang Hilir, Kabupaten Kayong Utara",KALIMANTAN BARAT,78853.0,Indonesia,81255501630.0,,,-1.0968303,109.9610318,https://maps.google.com/?cid=0x0:0x390afac5e023a4c0,
cafe,Kafe,TMT CAFE,"WX7G+2FJ, Medan Jaya, Kec. Simpang Hilir, Kabupaten Kayong Utara, Kalimantan Barat 78853","Medan Jaya, Kec. Simpang Hilir, Kabupaten Kayong Utara",KALIMANTAN BARAT,78853.0,Indonesia,81257874254.0,,,-1.0874196,109.9761342,https://maps.google.com/?cid=0x0:0x3719b0177790c60f,
cafe,Kafe,caffe ninety one,"VXP7+R45, Rantau Panjang, Kec. Simpang Hilir, Kabupaten Kayong Utara, Kalimantan Barat 78853","Rantau Panjang, Kec. Simpang Hilir, Kabupaten Kayong Utara",KALIMANTAN BARAT,78853.0,Indonesia,8980397057.0,,,-1.1129752,109.9628576,https://maps.google.com/?cid=0x0:0x975b13adca5c8440,
cafe,Kafe,Kedai kopi,"VXV3+C65, Telukmelano, Kec. Simpang Hilir, Kabupaten Kayong Utara, Kalimantan Barat 78853","Telukmelano, Kec. Simpang Hilir, Kabupaten Kayong Utara",KALIMANTAN BARAT,78853.0,Indonesia,81244902659.0,,,-1.1064866,109.9530977,https://maps.google.com/?cid=0x0:0xb92710b56b93fb75,
cafe,Kedai Kopi,CAFE LOGIN Teluk Melano,"VXW6+VFF, Telukmelano, Kec. Simpang Hilir, Kabupaten Kayong Utara, Kalimantan Barat 78853","Telukmelano, Kec. Simpang Hilir, Kabupaten Kayong Utara",KALIMANTAN BARAT,78853.0,Indonesia,,,,-1.102821,109.9611678,https://maps.google.com/?cid=0x0:0x47720b4174ad9bb9,
cafe,Kedai Kopi,Phan Phan Teluk Melano,"VXQ7+F5R, Jl. Provinsi, Rantau Panjang, Kec. Simpang Hilir, Kabupaten Kayong Utara, Kalimantan Barat 78853","Jl. Provinsi, Rantau Panjang, Kec. Simpang Hilir, Kabupaten Kayong Utara",KALIMANTAN BARAT,78853.0,Indonesia,,,,-1.1116848,109.962584,https://maps.google.com/?cid=0x0:0xd3db15b9947cfabe,
cafe,Kedai Kopi,Kedai 24 jam Yen mitsu,"VXX6+769, Telukmelano, Kec. Simpang Hilir, Kabupaten Kayong Utara, Kalimantan Barat 78853","Telukmelano, Kec. Simpang Hilir, Kabupaten Kayong Utara",KALIMANTAN BARAT,78853.0,Indonesia,82315812857.0,,,-1.1018379,109.9606217,https://maps.google.com/?cid=0x0:0xb5ded3a9f25f02a8,
cafe,Kedai Kopi,Kedai Kopi Kite,"VXW4+89F, Telukmelano, Kec. Simpang Hilir, Kabupaten Kayong Utara, Kalimantan Barat 78853","Telukmelano, Kec. Simpang Hilir, Kabupaten Kayong Utara",KALIMANTAN BARAT,78853.0,Indonesia,81254137558.0,,,-1.10418,109.9559368,https://maps.google.com/?cid=0x0:0x1072a17fc105ebbc,
cafe,Toko Peralatan Pangkas Rambut,pangkas rambut Merbi and cafe merbi,"WX47+Q4G, Medan Jaya, Kec. Simpang Hilir, Kabupaten Kayong Utara, Kalimantan Barat 78853","Medan Jaya, Kec. Simpang Hilir, Kabupaten Kayong Utara",KALIMANTAN BARAT,78853.0,Indonesia,,,,-1.093051,109.9628372,https://maps.google.com/?cid=0x0:0xf5dab02e6f06d6d6,
cafe,Makanan Kecil,"pengilinggan tepung,kopi dan rempah-rempah Ibu Julia.","Rt 004/Rw 002 dusun tembok baru desa rantau panjang kecematan, Rantau Panjang, Kec. Simpang Hilir, Kabupaten Kayong Utara, Kalimantan Barat 78853","Rantau Panjang, Kec. Simpang Hilir, Kabupaten Kayong Utara",KALIMANTAN BARAT,78853.0,Indonesia,81352622762.0,,,-1.1288887,109.9563528,https://maps.google.com/?cid=0x0:0x5e9bd7ea0ebf6c60,
cafe,Kafe,Warkop Suali,"VX5P+VMM, Penjalaan Hilir, Kec. Simpang Hilir, Kabupaten Kayong Utara, Kalimantan Barat 78853","Penjalaan Hilir, Kec. Simpang Hilir, Kabupaten Kayong Utara",KALIMANTAN BARAT,78853.0,Indonesia,,,,-1.1402981,109.9866833,https://maps.google.com/?cid=0x0:0xe2d812253e38b595,
cafe,Kedai Kopi,Warung Kopi INara,"VXV4+QC7, Telukmelano, Kec. Simpang Hilir, Kabupaten Kayong Utara, Kalimantan Barat 78853","Telukmelano, Kec. Simpang Hilir, Kabupaten Kayong Utara",KALIMANTAN BARAT,78853.0,Indonesia,,,,-1.1055982,109.9560354,https://maps.google.com/?cid=0x0:0x49917596bc3c5d34,
cafe,Kedai Kopi,Toko Jamu Parahyangan,"Jl. Provinsi, Telukmelano, Kec. Simpang Hilir, Kabupaten Kayong Utara, Kalimantan Barat 78852","Telukmelano, Kec. Simpang Hilir, Kabupaten Kayong Utara",KALIMANTAN BARAT,78852.0,Indonesia,82121676667.0,,,-1.1022956,109.9609462,https://maps.google.com/?cid=0x0:0x32ab2724f281fd8d,
cafe,Kedai Kopi,Aqila boba,"W2HX+56J, Batu Bar., Kec. Simpang Hilir, Kabupaten Kayong Utara, Kalimantan Barat 78853","Batu Bar., Kec. Simpang Hilir, Kabupaten Kayong Utara",KALIMANTAN BARAT,78853.0,Indonesia,,,,-1.0720499,110.0480114,https://maps.google.com/?cid=0x0:0x47ae6ad23f93b4b7,
cafe,cafe,Sukadana,"Sutera, Kec. Sukadana, Kabupaten Kayong Utara, Kalimantan Barat","Kabupaten Kayong Utara, Kalimantan Barat",KALIMANTAN BARAT,,Indonesia,,,,-1.236284,109.957603,https://maps.google.com/?cid=0x0:0xe15dbc8fcc9954a,
cafe,Kedai Kopi,Kovioka Coffee  Eatery,"QX62+W9G, Sutera, Kec. Sukadana, Kabupaten Kayong Utara, Kalimantan Barat 78852","Sutera, Kec. Sukadana, Kabupaten Kayong Utara",KALIMANTAN BARAT,78852.0,Indonesia,,,,-1.2376882,109.9509694,https://maps.google.com/?cid=0x0:0x6a982d02972b7c65,
cafe,Kafe,One Cafe,"QX72+Q2P, Jl. Bhayangkara, Sutera, Kec. Sukadana, Kabupaten Kayong Utara, Kalimantan Barat 78852","Jl. Bhayangkara, Sutera, Kec. Sukadana, Kabupaten Kayong Utara",KALIMANTAN BARAT,78852.0,Indonesia,,,,-1.2355327,109.9500642,https://maps.google.com/?cid=0x0:0xf6f925a77ac4aaec,
cafe,Kedai Kopi,Lokale Sukadana,"QX48+W3G, Jl. Sungai Mengkuang, Pangkalan Buton, Kec. Sukadana, Kabupaten Kayong Utara, Kalimantan Barat 78852","Jl. Sungai Mengkuang, Pangkalan Buton, Kec. Sukadana, Kabupaten Kayong Utara",KALIMANTAN BARAT,78852.0,Indonesia,,,,-1.2430168,109.9649973,https://maps.google.com/?cid=0x0:0x77e756d7b479bfdc,
cafe,Kafe,Cafe Pool,"QX5G+39W, Jl. Poros Sukadana - Ketapang, Pangkalan Buton, Kec. Sukadana, Kabupaten Kayong Utara, Kalimantan Barat 78852","Jl. Poros Sukadana - Ketapang, Pangkalan Buton, Kec. Sukadana, Kabupaten Kayong Utara",KALIMANTAN BARAT,78852.0,Indonesia,,,,-1.2422599,109.9759418,https://maps.google.com/?cid=0x0:0xed74aff1f8998804,
cafe,Kafe,W.A COFFEE,"QX58+53F, Pangkalan Buton, Kec. Sukadana, Kabupaten Kayong Utara, Kalimantan Barat 78852","Pangkalan Buton, Kec. Sukadana, Kabupaten Kayong Utara",KALIMANTAN BARAT,78852.0,Indonesia,895600745954.0,,,-1.2420639,109.9651813,https://maps.google.com/?cid=0x0:0xb4d9f4ef3c170ad4,
cafe,Kedai Kopi,Biva Cafe,"QXC3+H98, Jl. Bhayangkara, Sutera, Kec. Sukadana, Kabupaten Kayong Utara, Kalimantan Barat 78852","Jl. Bhayangkara, Sutera, Kec. Sukadana, Kabupaten Kayong Utara",KALIMANTAN BARAT,78852.0,Indonesia,,,,-1.2285851,109.9534467,https://maps.google.com/?cid=0x0:0xabb0228b8470b1e,
cafe,Kafe,Bilafira Cafe  Eatery,"QXM8+7PR, Jl. Lingkar, Sutera, Kec. Sukadana, Kabupaten Kayong Utara, Kalimantan Barat","Kabupaten Kayong Utara, Kalimantan Barat",KALIMANTAN BARAT,,Indonesia,,,,-1.2167735,109.966778,https://maps.google.com/?cid=0x0:0xd7c39e98ef3cd1aa,
cafe,Kafe,Caffe doraemon,"QX75+F2Q, Sutera, Kec. Sukadana, Kabupaten Kayong Utara, Kalimantan Barat","Kabupaten Kayong Utara, Kalimantan Barat",KALIMANTAN BARAT,,Indonesia,,,,-1.236284,109.957603,https://maps.google.com/?cid=0x0:0xe00f802c39a81782,
cafe,Kafe,Cafe Spongebob,"PXQ4+89C, Jl. Pantai Pulau Datok, Pangkalan Buton, Kec. Sukadana, Kabupaten Kayong Utara, Kalimantan Barat 78852","Jl. Pantai Pulau Datok, Pangkalan Buton, Kec. Sukadana, Kabupaten Kayong Utara",KALIMANTAN BARAT,78852.0,Indonesia,85245135093.0,,,-1.2616813,109.9558833,https://maps.google.com/?cid=0x0:0xf46f777fd6681779,
cafe,Kafe,Bengkel Coffee,"QXF4+33C, Jl. Bhayangkara, Sutera, Kec. Sukadana, Kabupaten Kayong Utara, Kalimantan Barat 78852","Jl. Bhayangkara, Sutera, Kec. Sukadana, Kabupaten Kayong Utara",KALIMANTAN BARAT,78852.0,Indonesia,89519711492.0,,,-1.2273074,109.9551444,https://maps.google.com/?cid=0x0:0xc6f9b1a8d8729c69,
cafe,Kedai Kopi,Pondok Kopi Sukadana,"QX96+W39, Sutera, Kec. Sukadana, Kabupaten Kayong Utara, Kalimantan Barat 78852","Sutera, Kec. Sukadana, Kabupaten Kayong Utara",KALIMANTAN BARAT,78852.0,Indonesia,,,,-1.23022,109.9602253,https://maps.google.com/?cid=0x0:0xcb63c19083f8f2e,
cafe,Kedai Kopi,ZLS CAFE,"RW7W+FJH, Harapan Mulia, Kec. Sukadana, Kabupaten Kayong Utara, Kalimantan Barat 78852","Harapan Mulia, Kec. Sukadana, Kabupaten Kayong Utara",KALIMANTAN BARAT,78852.0,Indonesia,82254728288.0,,,-1.186316,109.9465974,https://maps.google.com/?cid=0x0:0xb465f970602a96ac,
cafe,Kafe,Uray konsultan Sukadana,"Jl. Provinsi, Harapan Mulia, Kec. Sukadana, Kabupaten Kayong Utara, Kalimantan Barat 78852","Harapan Mulia, Kec. Sukadana, Kabupaten Kayong Utara",KALIMANTAN BARAT,78852.0,Indonesia,81345208875.0,,,-1.1904852,109.9656142,https://maps.google.com/?cid=0x0:0xa2a672cd36c8dd83,
cafe,Restoran,Rumakan dan cafe pondok friza,"QX74+W9P, Sutera, Kec. Sukadana, Kabupaten Kayong Utara, Kalimantan Barat 78852","Sutera, Kec. Sukadana, Kabupaten Kayong Utara",KALIMANTAN BARAT,78852.0,Indonesia,,,,-1.2351253,109.9559488,https://maps.google.com/?cid=0x0:0x5cc8d82703e94d83,
cafe,Penginapan,Penginapan BIVA,"QXC3+HC3, Jl. Bhayangkara, Sutera, Kec. Sukadana, Kabupaten Kayong Utara, Kalimantan Barat 78852","Jl. Bhayangkara, Sutera, Kec. Sukadana, Kabupaten Kayong Utara",KALIMANTAN BARAT,78852.0,Indonesia,,,,-1.2286207,109.9535414,https://maps.google.com/?cid=0x0:0xd4969c88daa8a2ec,
cafe,Restoran,Warung Makan Batu Daya,"QX75+Q27, Sutera, Kec. Sukadana, Kabupaten Kayong Utara, Kalimantan Barat 78852","Sutera, Kec. Sukadana, Kabupaten Kayong Utara",KALIMANTAN BARAT,78852.0,Indonesia,,,,-1.2355949,109.9575358,https://maps.google.com/?cid=0x0:0x3ad92fcc388a2ad5,
cafe,Rumah Makan,Warung pecal,"QX75+F2Q, Sutera, Kec. Sukadana, Kabupaten Kayong Utara, Kalimantan Barat","Kabupaten Kayong Utara, Kalimantan Barat",KALIMANTAN BARAT,,Indonesia,,,,-1.236284,109.957603,https://maps.google.com/?cid=0x0:0xed1faf9f68d25366,
cafe,cafe,Lampung 34194,"Kabupaten Lampung Timur, Lampung","Kabupaten Lampung Timur, Lampung",KALIMANTAN BARAT,,Indonesia,,,,-4.9525811,105.6881788,https://maps.google.com/?cid=0x0:0x8748f89c2b8dd19d,
cafe,Kafe,Sedulur home coffee,"Jl. Raya Lintas Pantai Timur Sumatera No.16, Sukadana Ilir, Kec. Sukadana, Kabupaten Lampung Timur, Lampung 34194","Sukadana Ilir, Kec. Sukadana, Kabupaten Lampung Timur",KALIMANTAN BARAT,34194.0,Indonesia,,,,-5.0405954,105.5331609,https://maps.google.com/?cid=0x0:0xa2ca393a3afe30af,
cafe,Nasi,CR FOOD sukadana,"XG6C+8QP, Sukadana Ilir, Kec. Sukadana, Kabupaten Lampung Timur, Lampung 34194","Sukadana Ilir, Kec. Sukadana, Kabupaten Lampung Timur",KALIMANTAN BARAT,34194.0,Indonesia,82286475148.0,,,-5.0391527,105.5219435,https://maps.google.com/?cid=0x0:0x1bc3e85121bb1746,
cafe,Kafe,komug coffee,"Jl. Kolonel Arifin, RT.026/RW.009, Ps. Sukadana, Kec. Sukadana, Kabupaten Lampung Timur, Lampung 34194","RT.026/RW.009, Ps. Sukadana, Kec. Sukadana, Kabupaten Lampung Timur",KALIMANTAN BARAT,34194.0,Indonesia,85269581052.0,,,-5.0626307,105.548268,https://maps.google.com/?cid=0x0:0xf2c22158ec06d571,
cafe,Kafe,Kedai Chaka Eung,"XG3P+W7H, Jl. Kolonel Arifin, Sukadana Ilir, Kec. Sukadana, Kabupaten Lampung Timur, Lampung 34194","Jl. Kolonel Arifin, Sukadana Ilir, Kec. Sukadana, Kabupaten Lampung Timur",KALIMANTAN BARAT,34194.0,Indonesia,82176062121.0,,,-5.0451966,105.5357291,https://maps.google.com/?cid=0x0:0x9610b97c272139fc,
cafe,Kedai Kopi,@KEDAikopiku,"WH6R+879, Jl. Raden Intan, Sukadana, Kec. Sukadana, Kabupaten Lampung Timur, Lampung 34194","Jl. Raden Intan, Sukadana, Kec. Sukadana, Kabupaten Lampung Timur",KALIMANTAN BARAT,34194.0,Indonesia,81278880032.0,,,-5.0892053,105.5907332,https://maps.google.com/?cid=0x0:0xed3fdcd9cd128b53,
cafe,Rumah Makan,Resto  Cafe bunda,"Jl. Kolonel Arifin No.64, Ps. Sukadana, Kec. Sukadana, Kabupaten Lampung Timur, Lampung 34194","Ps. Sukadana, Kec. Sukadana, Kabupaten Lampung Timur",KALIMANTAN BARAT,34194.0,Indonesia,85266843876.0,,,-5.0555298,105.5457493,https://maps.google.com/?cid=0x0:0xce45777d770fb338,
cafe,Sunda,SALMA pondok  cafe,"XG6C+M7Q, Dusun Nganjuk, Desa, Sukadana Ilir, Kec. Sukadana, Kabupaten Lampung Timur, Lampung 34194","Dusun Nganjuk, Desa, Sukadana Ilir, Kec. Sukadana, Kabupaten Lampung Timur",KALIMANTAN BARAT,34194.0,Indonesia,85268570945.0,,,-5.038278,105.5207487,https://maps.google.com/?cid=0x0:0xd0d58f1de64facbc,
cafe,Pempek,pempek sukadana (CEK MUR),"Desa Jl. Soekarno-Hatta No.347, Ps. Sukadana, Kec. Sukadana, Kabupaten Lampung Timur, Lampung 34194","Ps. Sukadana, Kec. Sukadana, Kabupaten Lampung Timur",KALIMANTAN BARAT,34194.0,Indonesia,82176130514.0,,,-5.0635361,105.5444689,https://maps.google.com/?cid=0x0:0x2c819be5d35adfc7,
cafe,Kantor Pemerintahan Daerah,Pps Sukadana Timur,"WHCX+CX7, Unnamed Road, Sukadana Tim., Kec. Sukadana, Kabupaten Lampung Timur, Lampung 34194","Unnamed Road, Sukadana Tim., Kec. Sukadana, Kabupaten Lampung Timur",KALIMANTAN BARAT,34194.0,Indonesia,,,,-5.0789532,105.5999262,https://maps.google.com/?cid=0x0:0xb61d759f06a16966,
cafe,Kafe,Den Coffee,"WGFG+78G, Terbanggi Marga, Kec. Sukadana, Kabupaten Lampung Timur, Lampung 34182","Terbanggi Marga, Kec. Sukadana, Kabupaten Lampung Timur",KALIMANTAN BARAT,34182.0,Indonesia,82371552251.0,,,-5.0768222,105.5258229,https://maps.google.com/?cid=0x0:0x8ee8d6ff2328c884,
cafe,cafe,Sukadana,"Sutera, Kec. Sukadana, Kabupaten Kayong Utara, Kalimantan Barat","Kabupaten Kayong Utara, Kalimantan Barat",KALIMANTAN BARAT,,Indonesia,,,,-1.236284,109.957603,https://maps.google.com/?cid=0x0:0xe15dbc8fcc9954a,
cafe,Kafe,Cech Cafe,"QX64+JRX, Jl. Poros Sukadana - Ketapang, Pangkalan Buton, Kec. Sukadana, Kabupaten Kayong Utara, Kalimantan Barat 78852","Jl. Poros Sukadana - Ketapang, Pangkalan Buton, Kec. Sukadana, Kabupaten Kayong Utara",KALIMANTAN BARAT,78852.0,Indonesia,,,,-1.2383959,109.9571042,https://maps.google.com/?cid=0x0:0x1a5f4ccd92b6ee11,
cafe,Kedai Kopi,Kovioka Coffee  Eatery,"QX62+W9G, Sutera, Kec. Sukadana, Kabupaten Kayong Utara, Kalimantan Barat 78852","Sutera, Kec. Sukadana, Kabupaten Kayong Utara",KALIMANTAN BARAT,78852.0,Indonesia,,,,-1.2376882,109.9509694,https://maps.google.com/?cid=0x0:0x6a982d02972b7c65,
cafe,Kedai Kopi,Lokale Sukadana,"QX48+W3G, Jl. Sungai Mengkuang, Pangkalan Buton, Kec. Sukadana, Kabupaten Kayong Utara, Kalimantan Barat 78852","Jl. Sungai Mengkuang, Pangkalan Buton, Kec. Sukadana, Kabupaten Kayong Utara",KALIMANTAN BARAT,78852.0,Indonesia,,,,-1.2430168,109.9649973,https://maps.google.com/?cid=0x0:0x77e756d7b479bfdc,
cafe,Kedai Kopi,Biva Cafe,"QXC3+H98, Jl. Bhayangkara, Sutera, Kec. Sukadana, Kabupaten Kayong Utara, Kalimantan Barat 78852","Jl. Bhayangkara, Sutera, Kec. Sukadana, Kabupaten Kayong Utara",KALIMANTAN BARAT,78852.0,Indonesia,,,,-1.2285851,109.9534467,https://maps.google.com/?cid=0x0:0xabb0228b8470b1e,
cafe,Kafe,W.A COFFEE,"QX58+53F, Pangkalan Buton, Kec. Sukadana, Kabupaten Kayong Utara, Kalimantan Barat 78852","Pangkalan Buton, Kec. Sukadana, Kabupaten Kayong Utara",KALIMANTAN BARAT,78852.0,Indonesia,895600745954.0,,,-1.2420639,109.9651813,https://maps.google.com/?cid=0x0:0xb4d9f4ef3c170ad4,
cafe,Kedai Kopi,TaMaN cafe,"QX52+224, Jl. Tanah Merah, Pangkalan Buton, Kec. Sukadana, Kabupaten Kayong Utara, Kalimantan Barat 78852","Jl. Tanah Merah, Pangkalan Buton, Kec. Sukadana, Kabupaten Kayong Utara",KALIMANTAN BARAT,78852.0,Indonesia,82255926521.0,,,-1.2424866,109.950076,https://maps.google.com/?cid=0x0:0xb12c6e3394b91b64,
cafe,Kafe,Bilafira Cafe  Eatery,"QXM8+7PR, Jl. Lingkar, Sutera, Kec. Sukadana, Kabupaten Kayong Utara, Kalimantan Barat","Kabupaten Kayong Utara, Kalimantan Barat",KALIMANTAN BARAT,,Indonesia,,,,-1.2167735,109.966778,https://maps.google.com/?cid=0x0:0xd7c39e98ef3cd1aa,
cafe,Kafe,Cafe Pool,"QX5G+39W, Jl. Poros Sukadana - Ketapang, Pangkalan Buton, Kec. Sukadana, Kabupaten Kayong Utara, Kalimantan Barat 78852","Jl. Poros Sukadana - Ketapang, Pangkalan Buton, Kec. Sukadana, Kabupaten Kayong Utara",KALIMANTAN BARAT,78852.0,Indonesia,,,,-1.2422599,109.9759418,https://maps.google.com/?cid=0x0:0xed74aff1f8998804,
cafe,Kafe,One Cafe,"QX72+Q2P, Jl. Bhayangkara, Sutera, Kec. Sukadana, Kabupaten Kayong Utara, Kalimantan Barat 78852","Jl. Bhayangkara, Sutera, Kec. Sukadana, Kabupaten Kayong Utara",KALIMANTAN BARAT,78852.0,Indonesia,,,,-1.2355327,109.9500642,https://maps.google.com/?cid=0x0:0xf6f925a77ac4aaec,
cafe,Kafe,Cafe Spongebob,"PXQ4+89C, Jl. Pantai Pulau Datok, Pangkalan Buton, Kec. Sukadana, Kabupaten Kayong Utara, Kalimantan Barat 78852","Jl. Pantai Pulau Datok, Pangkalan Buton, Kec. Sukadana, Kabupaten Kayong Utara",KALIMANTAN BARAT,78852.0,Indonesia,85245135093.0,,,-1.2616813,109.9558833,https://maps.google.com/?cid=0x0:0xf46f777fd6681779,
cafe,Kedai Kopi,Pondok Kopi Sukadana,"QX96+W39, Sutera, Kec. Sukadana, Kabupaten Kayong Utara, Kalimantan Barat 78852","Sutera, Kec. Sukadana, Kabupaten Kayong Utara",KALIMANTAN BARAT,78852.0,Indonesia,,,,-1.23022,109.9602253,https://maps.google.com/?cid=0x0:0xcb63c19083f8f2e,
cafe,Kafe,Caffe doraemon,"QX75+F2Q, Sutera, Kec. Sukadana, Kabupaten Kayong Utara, Kalimantan Barat","Kabupaten Kayong Utara, Kalimantan Barat",KALIMANTAN BARAT,,Indonesia,,,,-1.236284,109.957603,https://maps.google.com/?cid=0x0:0xe00f802c39a81782,
cafe,Penginapan,Penginapan BIVA,"QXC3+HC3, Jl. Bhayangkara, Sutera, Kec. Sukadana, Kabupaten Kayong Utara, Kalimantan Barat 78852","Jl. Bhayangkara, Sutera, Kec. Sukadana, Kabupaten Kayong Utara",KALIMANTAN BARAT,78852.0,Indonesia,,,,-1.2286207,109.9535414,https://maps.google.com/?cid=0x0:0xd4969c88daa8a2ec,
cafe,Restoran,Warung Makan Batu Daya,"QX75+Q27, Sutera, Kec. Sukadana, Kabupaten Kayong Utara, Kalimantan Barat 78852","Sutera, Kec. Sukadana, Kabupaten Kayong Utara",KALIMANTAN BARAT,78852.0,Indonesia,,,,-1.2355949,109.9575358,https://maps.google.com/?cid=0x0:0x3ad92fcc388a2ad5,
cafe,Restoran,Rumakan dan cafe pondok friza,"QX74+W9P, Sutera, Kec. Sukadana, Kabupaten Kayong Utara, Kalimantan Barat 78852","Sutera, Kec. Sukadana, Kabupaten Kayong Utara",KALIMANTAN BARAT,78852.0,Indonesia,,,,-1.2351253,109.9559488,https://maps.google.com/?cid=0x0:0x5cc8d82703e94d83,
cafe,Rumah Makan,Warung pecal,"QX75+F2Q, Sutera, Kec. Sukadana, Kabupaten Kayong Utara, Kalimantan Barat","Kabupaten Kayong Utara, Kalimantan Barat",KALIMANTAN BARAT,,Indonesia,,,,-1.236284,109.957603,https://maps.google.com/?cid=0x0:0xed1faf9f68d25366,
cafe,cafe,Sukadana,"Ps. Sukadana, Kec. Sukadana, Kabupaten Lampung Timur, Lampung","Kabupaten Lampung Timur, Lampung",KALIMANTAN BARAT,,Indonesia,,,,-5.0673,105.546303,https://maps.google.com/?cid=0x0:0x981aaec4da459d49,
cafe,Kafe,Kedai Chaka Eung,"XG3P+W7H, Jl. Kolonel Arifin, Sukadana Ilir, Kec. Sukadana, Kabupaten Lampung Timur, Lampung 34194","Jl. Kolonel Arifin, Sukadana Ilir, Kec. Sukadana, Kabupaten Lampung Timur",KALIMANTAN BARAT,34194.0,Indonesia,82176062121.0,,,-5.0451966,105.5357291,https://maps.google.com/?cid=0x0:0x9610b97c272139fc,
cafe,Kafe,Sedulur home coffee,"Jl. Raya Lintas Pantai Timur Sumatera No.16, Sukadana Ilir, Kec. Sukadana, Kabupaten Lampung Timur, Lampung 34194","Sukadana Ilir, Kec. Sukadana, Kabupaten Lampung Timur",KALIMANTAN BARAT,34194.0,Indonesia,,,,-5.0405954,105.5331609,https://maps.google.com/?cid=0x0:0xa2ca393a3afe30af,
cafe,Kafe,komug coffee,"Jl. Kolonel Arifin, RT.026/RW.009, Ps. Sukadana, Kec. Sukadana, Kabupaten Lampung Timur, Lampung 34194","RT.026/RW.009, Ps. Sukadana, Kec. Sukadana, Kabupaten Lampung Timur",KALIMANTAN BARAT,34194.0,Indonesia,85269581052.0,,,-5.0626307,105.548268,https://maps.google.com/?cid=0x0:0xf2c22158ec06d571,
cafe,Kafe,Den Coffee,"WGFG+78G, Terbanggi Marga, Kec. Sukadana, Kabupaten Lampung Timur, Lampung 34182","Terbanggi Marga, Kec. Sukadana, Kabupaten Lampung Timur",KALIMANTAN BARAT,34182.0,Indonesia,82371552251.0,,,-5.0768222,105.5258229,https://maps.google.com/?cid=0x0:0x8ee8d6ff2328c884,
cafe,Rumah Makan,Resto  Cafe bunda,"Jl. Kolonel Arifin No.64, Ps. Sukadana, Kec. Sukadana, Kabupaten Lampung Timur, Lampung 34194","Ps. Sukadana, Kec. Sukadana, Kabupaten Lampung Timur",KALIMANTAN BARAT,34194.0,Indonesia,85266843876.0,,,-5.0555298,105.5457493,https://maps.google.com/?cid=0x0:0xce45777d770fb338,
cafe,Sunda,SALMA pondok  cafe,"XG6C+M7Q, Dusun Nganjuk, Desa, Sukadana Ilir, Kec. Sukadana, Kabupaten Lampung Timur, Lampung 34194","Dusun Nganjuk, Desa, Sukadana Ilir, Kec. Sukadana, Kabupaten Lampung Timur",KALIMANTAN BARAT,34194.0,Indonesia,85268570945.0,,,-5.038278,105.5207487,https://maps.google.com/?cid=0x0:0xd0d58f1de64facbc,
cafe,Pempek,PEMPEK SUKADANA CEK NAYU - Pasar Lama,"WGPX+944, Pasar, Ps. Sukadana, Kec. Sukadana, Kabupaten Lampung Timur, Lampung 34194","Pasar, Ps. Sukadana, Kec. Sukadana, Kabupaten Lampung Timur",KALIMANTAN BARAT,34194.0,Indonesia,,,,-5.0641014,105.5478255,https://maps.google.com/?cid=0x0:0xfec895361a57e9b2,
cafe,Kedai Kopi,Nyonya booth,"WGPX+GFR, Ps. Sukadana, Kec. Sukadana, Kabupaten Lampung Timur, Lampung 34194","Ps. Sukadana, Kec. Sukadana, Kabupaten Lampung Timur",KALIMANTAN BARAT,34194.0,Indonesia,81385464162.0,,,-5.0636269,105.548648,https://maps.google.com/?cid=0x0:0x68290d167d8bc1a6,
cafe,Kafe,Kedai Welis,"WGRX+9HX, Ps. Sukadana, Kec. Sukadana, Kabupaten Lampung Timur, Lampung 34194","Ps. Sukadana, Kec. Sukadana, Kabupaten Lampung Timur",KALIMANTAN BARAT,34194.0,Indonesia,,,,-5.059023,105.5489734,https://maps.google.com/?cid=0x0:0x6de17bae28991fe7,
cafe,Pempek,pempek sukadana (CEK MUR),"Desa Jl. Soekarno-Hatta No.347, Ps. Sukadana, Kec. Sukadana, Kabupaten Lampung Timur, Lampung 34194","Ps. Sukadana, Kec. Sukadana, Kabupaten Lampung Timur",KALIMANTAN BARAT,34194.0,Indonesia,82176130514.0,,,-5.0635361,105.5444689,https://maps.google.com/?cid=0x0:0x2c819be5d35adfc7,
cafe,Restoran,Habibi's Corner,"Jl. Kolonel Arifin No.097, Ps. Sukadana, Kec. Sukadana, Kabupaten Lampung Timur, Lampung 34194","Ps. Sukadana, Kec. Sukadana, Kabupaten Lampung Timur",KALIMANTAN BARAT,34194.0,Indonesia,82178014363.0,,,-5.0553754,105.5458105,https://maps.google.com/?cid=0x0:0x79b33befde4de0c8,
cafe,Kedai Kopi,R.A.S cafe,"Jl. Tanah Merah, Sutera, Kec. Sukadana, Kabupaten Kayong Utara, Kalimantan Barat 78852","Sutera, Kec. Sukadana, Kabupaten Kayong Utara",KALIMANTAN BARAT,78852.0,Indonesia,89671292865.0,,,-1.2617509,109.9555288,https://maps.google.com/?cid=0x0:0xf38d64f785593cd6,
cafe,Kedai Kopi,S  G KAFE DAN RUMAH MAKAN,"QX63+XC4, Jl. Tanjung Pura, Sutera, Kec. Sukadana, Kabupaten Kayong Utara, Kalimantan Barat 78852","Jl. Tanjung Pura, Sutera, Kec. Sukadana, Kabupaten Kayong Utara",KALIMANTAN BARAT,78852.0,Indonesia,85245315455.0,,,-1.2376081,109.9535796,https://maps.google.com/?cid=0x0:0xf59165aa096c76cc,
cafe,Kafe,Cech Cafe,"QX64+JRX, Jl. Poros Sukadana - Ketapang, Pangkalan Buton, Kec. Sukadana, Kabupaten Kayong Utara, Kalimantan Barat 78852","Jl. Poros Sukadana - Ketapang, Pangkalan Buton, Kec. Sukadana, Kabupaten Kayong Utara",KALIMANTAN BARAT,78852.0,Indonesia,,,,-1.2383959,109.9571042,https://maps.google.com/?cid=0x0:0x1a5f4ccd92b6ee11,
cafe,Kedai Kopi,Lokale Sukadana,"QX48+W3G, Jl. Sungai Mengkuang, Pangkalan Buton, Kec. Sukadana, Kabupaten Kayong Utara, Kalimantan Barat 78852","Jl. Sungai Mengkuang, Pangkalan Buton, Kec. Sukadana, Kabupaten Kayong Utara",KALIMANTAN BARAT,78852.0,Indonesia,,,,-1.2430168,109.9649973,https://maps.google.com/?cid=0x0:0x77e756d7b479bfdc,
cafe,Kafe,Bengkel Coffee,"QXF4+33C, Jl. Bhayangkara, Sutera, Kec. Sukadana, Kabupaten Kayong Utara, Kalimantan Barat 78852","Jl. Bhayangkara, Sutera, Kec. Sukadana, Kabupaten Kayong Utara",KALIMANTAN BARAT,78852.0,Indonesia,89519711492.0,,,-1.2273074,109.9551444,https://maps.google.com/?cid=0x0:0xc6f9b1a8d8729c69,
cafe,Kafe,Cafe Pool,"QX5G+39W, Jl. Poros Sukadana - Ketapang, Pangkalan Buton, Kec. Sukadana, Kabupaten Kayong Utara, Kalimantan Barat 78852","Jl. Poros Sukadana - Ketapang, Pangkalan Buton, Kec. Sukadana, Kabupaten Kayong Utara",KALIMANTAN BARAT,78852.0,Indonesia,,,,-1.2422599,109.9759418,https://maps.google.com/?cid=0x0:0xed74aff1f8998804,
cafe,Kedai Kopi,Biva Cafe,"QXC3+H98, Jl. Bhayangkara, Sutera, Kec. Sukadana, Kabupaten Kayong Utara, Kalimantan Barat 78852","Jl. Bhayangkara, Sutera, Kec. Sukadana, Kabupaten Kayong Utara",KALIMANTAN BARAT,78852.0,Indonesia,,,,-1.2285851,109.9534467,https://maps.google.com/?cid=0x0:0xabb0228b8470b1e,
cafe,Kedai Kopi,WARUNG SEDUH ID,"Jl. Tanjung Pura No.37, RT.09/RW.01, Sutera, Kec. Sukadana, Kabupaten Kayong Utara, Kalimantan Barat 78852","RT.09/RW.01, Sutera, Kec. Sukadana, Kabupaten Kayong Utara",KALIMANTAN BARAT,78852.0,Indonesia,89694207841.0,,,-1.2376905,109.9520254,https://maps.google.com/?cid=0x0:0xd535eb02d9f5f157,
cafe,Kafe,Uray konsultan Sukadana,"Jl. Provinsi, Harapan Mulia, Kec. Sukadana, Kabupaten Kayong Utara, Kalimantan Barat 78852","Harapan Mulia, Kec. Sukadana, Kabupaten Kayong Utara",KALIMANTAN BARAT,78852.0,Indonesia,81345208875.0,,,-1.1904852,109.9656142,https://maps.google.com/?cid=0x0:0xa2a672cd36c8dd83,
cafe,Kafe,One Cafe,"QX72+Q2P, Jl. Bhayangkara, Sutera, Kec. Sukadana, Kabupaten Kayong Utara, Kalimantan Barat 78852","Jl. Bhayangkara, Sutera, Kec. Sukadana, Kabupaten Kayong Utara",KALIMANTAN BARAT,78852.0,Indonesia,,,,-1.2355327,109.9500642,https://maps.google.com/?cid=0x0:0xf6f925a77ac4aaec,
cafe,Kedai Kopi,Warkop Gbig,"Jl. Batu Daya No.1, Sutera, Kec. Sukadana, Kabupaten Kayong Utara, Kalimantan Barat 78852","Sutera, Kec. Sukadana, Kabupaten Kayong Utara",KALIMANTAN BARAT,78852.0,Indonesia,82357988400.0,,,-1.2371875,109.9568125,https://maps.google.com/?cid=0x0:0xb4c983e1c27fc118,
cafe,Kafe,MOZZA COFFEE,"Jln. Bhayangkara (depan puskesmas Suka Dana, Sutera, Kec. Sukadana, Kabupaten Kayong Utara, Kalimantan Barat 78852","Sutera, Kec. Sukadana, Kabupaten Kayong Utara",KALIMANTAN BARAT,78852.0,Indonesia,89693598182.0,,,-1.2356237,109.9498458,https://maps.google.com/?cid=0x0:0x5962ad254d9e0f8d,
cafe,Kedai Kopi,Pondok Kopi Sukadana,"QX96+W39, Sutera, Kec. Sukadana, Kabupaten Kayong Utara, Kalimantan Barat 78852","Sutera, Kec. Sukadana, Kabupaten Kayong Utara",KALIMANTAN BARAT,78852.0,Indonesia,,,,-1.23022,109.9602253,https://maps.google.com/?cid=0x0:0xcb63c19083f8f2e,
cafe,Kedai Kopi,Cafe BC (Blue Club),"Unnamed Road, Gn. Sembilan, Kec. Sukadana, Kabupaten Kayong Utara, Kalimantan Barat 78852","Gn. Sembilan, Kec. Sukadana, Kabupaten Kayong Utara",KALIMANTAN BARAT,78852.0,Indonesia,8971109920.0,,,-1.2165874,109.9316008,https://maps.google.com/?cid=0x0:0xb1b8cac57106bda2,
cafe,Penginapan,Hotel  caffe Kapuas Kayong,"Jl. Batu Daya, Sutera, Kec. Sukadana, Kabupaten Kayong Utara, Kalimantan Barat 78852","Sutera, Kec. Sukadana, Kabupaten Kayong Utara",KALIMANTAN BARAT,78852.0,Indonesia,,,,-1.2378216,109.9566811,https://maps.google.com/?cid=0x0:0xdd662375d5bd3f00,
cafe,Kafe,Caffe doraemon,"QX75+F2Q, Sutera, Kec. Sukadana, Kabupaten Kayong Utara, Kalimantan Barat","Kabupaten Kayong Utara, Kalimantan Barat",KALIMANTAN BARAT,,Indonesia,,,,-1.236284,109.957603,https://maps.google.com/?cid=0x0:0xe00f802c39a81782,
cafe,Restoran,Rumakan dan cafe pondok friza,"QX74+W9P, Sutera, Kec. Sukadana, Kabupaten Kayong Utara, Kalimantan Barat 78852","Sutera, Kec. Sukadana, Kabupaten Kayong Utara",KALIMANTAN BARAT,78852.0,Indonesia,,,,-1.2351253,109.9559488,https://maps.google.com/?cid=0x0:0x5cc8d82703e94d83,
cafe,cafe,Sukadana,"Sutera, Kec. Sukadana, Kabupaten Kayong Utara, Kalimantan Barat","Kabupaten Kayong Utara, Kalimantan Barat",KALIMANTAN BARAT,,Indonesia,,,,-1.236284,109.957603,https://maps.google.com/?cid=0x0:0xe15dbc8fcc9954a,
cafe,Kedai Kopi,Kovioka Coffee  Eatery,"QX62+W9G, Sutera, Kec. Sukadana, Kabupaten Kayong Utara, Kalimantan Barat 78852","Sutera, Kec. Sukadana, Kabupaten Kayong Utara",KALIMANTAN BARAT,78852.0,Indonesia,,,,-1.2376882,109.9509694,https://maps.google.com/?cid=0x0:0x6a982d02972b7c65,
cafe,Kafe,MENTARI CAFE DAN BIMBEL,"RX77+JQC, Jl. Provinsi, Harapan Mulia, Kec. Sukadana, Kabupaten Kayong Utara, Kalimantan Barat 78852","Jl. Provinsi, Harapan Mulia, Kec. Sukadana, Kabupaten Kayong Utara",KALIMANTAN BARAT,78852.0,Indonesia,,,,-1.1859422,109.9643839,https://maps.google.com/?cid=0x0:0x4f61e7a7aa60132b,
cafe,Kafe,Anes Cafe Kku,"QX63+X25, Sutera, Kec. Sukadana, Kabupaten Kayong Utara, Kalimantan Barat 78852","Sutera, Kec. Sukadana, Kabupaten Kayong Utara",KALIMANTAN BARAT,78852.0,Indonesia,85820315769.0,,,-1.2376195,109.9526109,https://maps.google.com/?cid=0x0:0x52748829973f92fa,
cafe,Kafe,Bilafira Cafe  Eatery,"QXM8+7PR, Jl. Lingkar, Sutera, Kec. Sukadana, Kabupaten Kayong Utara, Kalimantan Barat","Kabupaten Kayong Utara, Kalimantan Barat",KALIMANTAN BARAT,,Indonesia,,,,-1.2167735,109.966778,https://maps.google.com/?cid=0x0:0xd7c39e98ef3cd1aa,
cafe,Kedai Kopi,ZLS CAFE,"RW7W+FJH, Harapan Mulia, Kec. Sukadana, Kabupaten Kayong Utara, Kalimantan Barat 78852","Harapan Mulia, Kec. Sukadana, Kabupaten Kayong Utara",KALIMANTAN BARAT,78852.0,Indonesia,82254728288.0,,,-1.186316,109.9465974,https://maps.google.com/?cid=0x0:0xb465f970602a96ac,
cafe,Kedai Kopi,TaMaN cafe,"QX52+224, Jl. Tanah Merah, Pangkalan Buton, Kec. Sukadana, Kabupaten Kayong Utara, Kalimantan Barat 78852","Jl. Tanah Merah, Pangkalan Buton, Kec. Sukadana, Kabupaten Kayong Utara",KALIMANTAN BARAT,78852.0,Indonesia,82255926521.0,,,-1.2424866,109.950076,https://maps.google.com/?cid=0x0:0xb12c6e3394b91b64,
cafe,Kafe,Pondok Kafe,"PXX3+WRG, Jl. Tanah Merah, Pangkalan Buton, Kec. Sukadana, Kabupaten Kayong Utara, Kalimantan Barat 78852","Jl. Tanah Merah, Pangkalan Buton, Kec. Sukadana, Kabupaten Kayong Utara",KALIMANTAN BARAT,78852.0,Indonesia,,,,-1.2501962,109.9545654,https://maps.google.com/?cid=0x0:0x69bdb7bec7ecaaf4,
cafe,Kedai Kopi,Cafe ASL,"QW6X+5RH, Jl. Kota Karang, Sutera, Kec. Sukadana, Kabupaten Kayong Utara, Kalimantan Barat 78852","Jl. Kota Karang, Sutera, Kec. Sukadana, Kabupaten Kayong Utara",KALIMANTAN BARAT,78852.0,Indonesia,,,,-1.2395738,109.9496219,https://maps.google.com/?cid=0x0:0x9097eafce56c3f0e,
cafe,Kafe,Hellen Cafe,"QX67+2X8, Pangkalan Buton, Kec. Sukadana, Kabupaten Kayong Utara, Kalimantan Barat 78852","Pangkalan Buton, Kec. Sukadana, Kabupaten Kayong Utara",KALIMANTAN BARAT,78852.0,Indonesia,,,,-1.2399578,109.9649504,https://maps.google.com/?cid=0x0:0xe241b506725e5c9,
cafe,cafe,ANGEL Cafe,"XQXC+5W3, Jalan, Teluk Batang Selatan, Teluk Batang, North Kayong Regency, West Kalimantan 78856","Jalan, Teluk Batang Selatan, Teluk Batang, North Kayong Regency",KALIMANTAN BARAT,78856.0,Indonesia,,,,-1.0021033,109.772293,https://maps.google.com/?cid=0x0:0x88dbb5e7500882b,
cafe,Kafe,Base Camp Cafe,"XQXG+QHR, Tlk. Batang Sel., Kec. Tlk. Batang, Kabupaten Kayong Utara, Kalimantan Barat 78856","Tlk. Batang Sel., Kec. Tlk. Batang, Kabupaten Kayong Utara",KALIMANTAN BARAT,78856.0,Indonesia,,,,-1.0005248,109.7763941,https://maps.google.com/?cid=0x0:0xba1866d788bb6835,
cafe,Otoritas Pelabuhan,Warkop Pelabuhan Teluk Batang,"XQV9+MHJ, Tlk. Batang Sel., Kec. Tlk. Batang, Kabupaten Kayong Utara, Kalimantan Barat 78856","Tlk. Batang Sel., Kec. Tlk. Batang, Kabupaten Kayong Utara",KALIMANTAN BARAT,78856.0,Indonesia,,,,-1.0057925,109.768895,https://maps.google.com/?cid=0x0:0x1033e652266d23cf,
cafe,Kafe,Caffe Ruang Singgah,"2Q2H+92P, Jalan sukamaju (pasar tradisional Al fhatah, Tlk. Batang Sel., Kec. Tlk. Batang, Kabupaten Kayong Utara, Kalimantan Barat 78856","Jalan sukamaju (pasar tradisional Al fhatah, Tlk. Batang Sel., Kec. Tlk. Batang, Kabupaten Kayong Utara",KALIMANTAN BARAT,78856.0,Indonesia,,,,-0.9990485,109.777571,https://maps.google.com/?cid=0x0:0x1efd1544b02de0ff,
cafe,Kedai Kopi,R3 Cafe,"XQQQ+74F, Jl. Parit Gn., Alur Bandung, Kec. Tlk. Batang, Kabupaten Kayong Utara, Kalimantan Barat 78856","Jl. Parit Gn., Alur Bandung, Kec. Tlk. Batang, Kabupaten Kayong Utara",KALIMANTAN BARAT,78856.0,Indonesia,85249980434.0,,,-1.0116941,109.7882813,https://maps.google.com/?cid=0x0:0x48e035369cfaf69e,
cafe,Kafe,Selvie Cafe,"2Q2G+2GR, Tlk. Batang Sel., Kec. Tlk. Batang, Kabupaten Kayong Utara, Kalimantan Barat 78856","Tlk. Batang Sel., Kec. Tlk. Batang, Kabupaten Kayong Utara",KALIMANTAN BARAT,78856.0,Indonesia,89694348669.0,,,-0.9998823,109.7762645,https://maps.google.com/?cid=0x0:0x4161f013840df7e,
cafe,Kafe,warkop putri teluk batang,"Jl. Tlk. Batang, Tlk. Batang Sel., Kec. Tlk. Batang, Kabupaten Kayong Utara, Kalimantan Barat 78856","Tlk. Batang Sel., Kec. Tlk. Batang, Kabupaten Kayong Utara",KALIMANTAN BARAT,78856.0,Indonesia,,,,-0.9930057,109.7700624,https://maps.google.com/?cid=0x0:0x816740ded6f6d2e,
cafe,Kafe,Brids Nest Coffee Shop,"XQWC+7W3, Jalan, Teluk Batang Selatan, Teluk Batang, North Kayong Regency, West Kalimantan 78856","Jalan, Teluk Batang Selatan, Teluk Batang, North Kayong Regency",KALIMANTAN BARAT,78856.0,Indonesia,,,,-1.0043681,109.772288,https://maps.google.com/?cid=0x0:0x7fc8acdf4a10f746,
cafe,Kedai Kopi,CW Coffee  Eatery - Teluk Melano,"Rantau Panjang, Kec. Simpang Hilir, Kabupaten Kayong Utara, Kalimantan Barat 78852","Kec. Simpang Hilir, Kabupaten Kayong Utara",KALIMANTAN BARAT,78852.0,Indonesia,,,,-1.1556208,109.9480873,https://maps.google.com/?cid=0x0:0xba6c27188a9d4cea,
cafe,Kafe,Abi GEMING FREE,"2Q4C+R24, Tlk. Batang Sel., Kec. Tlk. Batang, Kabupaten Kayong Utara, Kalimantan Barat 78856","Tlk. Batang Sel., Kec. Tlk. Batang, Kabupaten Kayong Utara",KALIMANTAN BARAT,78856.0,Indonesia,,,,-0.9929902,109.7700792,https://maps.google.com/?cid=0x0:0x44c78fb733ac8440,
cafe,Sarapan,Kedai Hafidz,"2Q2H+7W8, Tlk. Batang Sel., Kec. Tlk. Batang, Kabupaten Kayong Utara, Kalimantan Barat 78856","Tlk. Batang Sel., Kec. Tlk. Batang, Kabupaten Kayong Utara",KALIMANTAN BARAT,78856.0,Indonesia,82158800730.0,,,-0.9993364,109.7798263,https://maps.google.com/?cid=0x0:0x44ffc2821746235,
cafe,Kedai Kopi,Surya,"2QF4+CXJ, Tlk. Batang Utara, Kec. Tlk. Batang, Kabupaten Kayong Utara, Kalimantan Barat 78856","Tlk. Batang Utara, Kec. Tlk. Batang, Kabupaten Kayong Utara",KALIMANTAN BARAT,78856.0,Indonesia,,,,-0.9765956,109.7582329,https://maps.google.com/?cid=0x0:0x1502356aa590d2be,
cafe,Kedai Kopi,CAFE LOGIN Teluk Melano,"VXW6+VFF, Telukmelano, Kec. Simpang Hilir, Kabupaten Kayong Utara, Kalimantan Barat 78853","Telukmelano, Kec. Simpang Hilir, Kabupaten Kayong Utara",KALIMANTAN BARAT,78853.0,Indonesia,,,,-1.102821,109.9611678,https://maps.google.com/?cid=0x0:0x47720b4174ad9bb9,
cafe,Toko,Teluk batang,"4WQ7+RH4, Sungai Sepeti, Kec. Seponti, Kabupaten Kayong Utara, Kalimantan Barat 78857","Sungai Sepeti, Kec. Seponti, Kabupaten Kayong Utara",KALIMANTAN BARAT,78857.0,Indonesia,895326172804.0,,,-0.860489,109.9139594,https://maps.google.com/?cid=0x0:0x5b00cb663839ef2a,
cafe,Kedai Kopi,KOPI KAMPUNG SUKAMAJU,"Tlk. Batang Sel., Kec. Tlk. Batang, Kabupaten Kayong Utara, Kalimantan Barat 78856","Kec. Tlk. Batang, Kabupaten Kayong Utara",KALIMANTAN BARAT,78856.0,Indonesia,,,,-0.9876927,109.798004,https://maps.google.com/?cid=0x0:0xe963a62379a6b3ba,
cafe,Kedai Kopi,Restu ibu Warkop,"XQXG+R4G, Tlk. Batang Sel., Kec. Tlk. Batang, Kabupaten Kayong Utara, Kalimantan Barat 78856","Tlk. Batang Sel., Kec. Tlk. Batang, Kabupaten Kayong Utara",KALIMANTAN BARAT,78856.0,Indonesia,2188543699.0,,,-1.0004393,109.7753183,https://maps.google.com/?cid=0x0:0xefac4d46374eb17f,
cafe,Kafe,Warung NURLIDZA,"3R9R+WJM, Banyu Abang, Kec. Tlk. Batang, Kabupaten Kayong Utara, Kalimantan Barat 78856","Banyu Abang, Kec. Tlk. Batang, Kabupaten Kayong Utara",KALIMANTAN BARAT,78856.0,Indonesia,,,,-0.9301727,109.8415598,https://maps.google.com/?cid=0x0:0xc5894dbae9835394,
cafe,Kafe,Ariii Wahyudi (Omm Siwa),"2RGH+9VG, Sungai Paduan, Kec. Tlk. Batang, Kabupaten Kayong Utara, Kalimantan Barat 78856","Sungai Paduan, Kec. Tlk. Batang, Kabupaten Kayong Utara",KALIMANTAN BARAT,78856.0,Indonesia,,,,-0.974059,109.8297072,https://maps.google.com/?cid=0x0:0x22c34acecf87db7d,
cafe,Kedai Kopi,Kedai kopi  ayam geprek RW,"XQWC+8W5, Jl. Gusti M. Saunan, Tlk. Batang Sel., Kec. Tlk. Batang, Kabupaten Kayong Utara, Kalimantan Barat 78856","Jl. Gusti M. Saunan, Tlk. Batang Sel., Kec. Tlk. Batang, Kabupaten Kayong Utara",KALIMANTAN BARAT,78856.0,Indonesia,,,,-1.0042887,109.7724974,https://maps.google.com/?cid=0x0:0xb988b7a2970a948b,
cafe,cafe,Kalimantan Barat 78856,"Kabupaten Kayong Utara, Kalimantan Barat","Kabupaten Kayong Utara, Kalimantan Barat",KALIMANTAN BARAT,,Indonesia,,,,-0.9599724,109.8067916,https://maps.google.com/?cid=0x0:0x5100d67ecbc43c,
cafe,Kafe,Sejenak coffea,"2Q2H+85G, Tlk. Batang Sel., Kec. Tlk. Batang, Kabupaten Kayong Utara, Kalimantan Barat 78856","Tlk. Batang Sel., Kec. Tlk. Batang, Kabupaten Kayong Utara",KALIMANTAN BARAT,78856.0,Indonesia,,,,-0.9991761,109.7779397,https://maps.google.com/?cid=0x0:0xaac7dd94b082cb4e,
cafe,Rumah Makan,Suma-ps,"dusun panca karya Jl.Gusti M Saunan No.RT 004, Tlk. Batang Sel., Kec. Tlk. Batang, Kabupaten Kayong Utara, Kalimantan Barat 78856","Tlk. Batang Sel., Kec. Tlk. Batang, Kabupaten Kayong Utara",KALIMANTAN BARAT,78856.0,Indonesia,85245680068.0,,,-1.0030148,109.7735596,https://maps.google.com/?cid=0x0:0x25a1281297383686,
cafe,Restoran,COFEESHOP  BURBERSHOP,"XRG6+FM6, Sungai Paduan, Kec. Tlk. Batang, Kabupaten Kayong Utara, Kalimantan Barat 78856","Sungai Paduan, Kec. Tlk. Batang, Kabupaten Kayong Utara",KALIMANTAN BARAT,78856.0,Indonesia,82155575272.0,,,-1.023895,109.810765,https://maps.google.com/?cid=0x0:0x343acd50c2caffe1,
cafe,Sarapan,TEH TARIK TAMPAN,"XQRP+HPX, Tlk. Batang Sel., Kec. Tlk. Batang, Kabupaten Kayong Utara, Kalimantan Barat 78856","Tlk. Batang Sel., Kec. Tlk. Batang, Kabupaten Kayong Utara",KALIMANTAN BARAT,78856.0,Indonesia,,,,-1.0084961,109.7868893,https://maps.google.com/?cid=0x0:0x85693e8c5f378e94,
cafe,Kafe,Caffe One,"2Q59+5QV, Tlk. Batang, Kec. Tlk. Batang, Kabupaten Kayong Utara, Kalimantan Barat 78856","Tlk. Batang, Kec. Tlk. Batang, Kabupaten Kayong Utara",KALIMANTAN BARAT,78856.0,Indonesia,89652382256.0,,,-0.992014,109.7694343,https://maps.google.com/?cid=0x0:0xa7859d8bca0cc539,
cafe,Restoran,jihan boba dan pentol kuah,"XQWJ+22F, Tlk. Batang Sel., Kec. Tlk. Batang, Kabupaten Kayong Utara, Kalimantan Barat 78856","Tlk. Batang Sel., Kec. Tlk. Batang, Kabupaten Kayong Utara",KALIMANTAN BARAT,78856.0,Indonesia,,,,-1.0049302,109.7800341,https://maps.google.com/?cid=0x0:0xa8aec5ad3ace5289,
cafe,Restoran,KEDAI KAK LINA,"XQWC+3MF, Jalan, Teluk Batang Selatan, Teluk Batang, North Kayong Regency, West Kalimantan 78856","Jalan, Teluk Batang Selatan, Teluk Batang, North Kayong Regency",KALIMANTAN BARAT,78856.0,Indonesia,,,,-1.0048096,109.771659,https://maps.google.com/?cid=0x0:0xf10110bf904cd53b,
cafe,Nasi Goreng,RM.BAROKAH,"XQXG+7G8, Jalan, Teluk Batang Selatan, Teluk Batang, North Kayong Regency, West Kalimantan 78856","Jalan, Teluk Batang Selatan, Teluk Batang, North Kayong Regency",KALIMANTAN BARAT,78856.0,Indonesia,,,,-1.0018459,109.7763378,https://maps.google.com/?cid=0x0:0xfbbc630d45bc1824,
cafe,Restoran,Kedai Mak Oteh,"Jl. A. Yani, Tlk. Batang Sel., Kec. Tlk. Batang, Kabupaten Kayong Utara, Kalimantan Barat 78856","Tlk. Batang Sel., Kec. Tlk. Batang, Kabupaten Kayong Utara",KALIMANTAN BARAT,78856.0,Indonesia,8993416104.0,,,-1.0065907,109.7816911,https://maps.google.com/?cid=0x0:0xd04941a681f99ad,
