Category,Real Category,Business Name,Address,City,State,Postal Code,Country,Phone,Email,Website,Latitude,Longitude,Map Link,Details Link
mall,Toko,Toko Ijul,"P523+RP9, Pelapis, Kepulauan Karimata, Kabupaten Kayong Utara, Kalimantan Barat 78855","Pelapis, Kepulauan Karimata, Kabupaten Kayong Utara",KALIMANTAN BARAT,78855.0,Indonesia,85252052620.0,,,-1.2979544,109.1543449,https://maps.google.com/?cid=0x0:0x9516c41f6563e7cb,
mall,Toko,WARUNG Juliah,"Dusun Besar, Kec. Pulau Maya Karimata, Kabupaten Kayong Utara, Kalimantan Barat","Kabupaten Kayong Utara, Kalimantan Barat",KALIMANTAN BARAT,,Indonesia,81258994374.0,,,-1.113307,109.4599643,https://maps.google.com/?cid=0x0:0x5908032d59f1f4c,
mall,mall,Kec. Pulau Maya Karimata,"Kabupaten Kayong Utara, Kalimantan Barat","Kabupaten Kayong Utara, Kalimantan Barat",KALIMANTAN BARAT,,Indonesia,,,,-1.1055975,109.6163185,https://maps.google.com/?cid=0x0:0x99312b2806aba86b,
mall,mall,Kalimantan Barat 78855,"Kec. Pulau Maya Karimata, Kabupaten Kayong Utara, Kalimantan Barat","Kabupaten Kayong Utara, Kalimantan Barat",KALIMANTAN BARAT,,Indonesia,,,,-1.1787347,109.5211063,https://maps.google.com/?cid=0x0:0x3e6c33c008ec2445,
mall,Kantor Pemerintah,Dusun Besar,"VFQ6+439, Dusun Besar, Kec. Pulau Maya Karimata, Kabupaten Kayong Utara, Kalimantan Barat 78855","Dusun Besar, Kec. Pulau Maya Karimata, Kabupaten Kayong Utara",KALIMANTAN BARAT,78855.0,Indonesia,81253992433.0,,,-1.1122181,109.4602223,https://maps.google.com/?cid=0x0:0xd2afeaf7f32f914f,
mall,Toko,Toko karya maju lestari,"RM8X+84X, Satai Lestari, Kec. Pulau Maya Karimata, Kabupaten Kayong Utara, Kalimantan Barat 78855","Satai Lestari, Kec. Pulau Maya Karimata, Kabupaten Kayong Utara",KALIMANTAN BARAT,78855.0,Indonesia,,,,-1.1841331,109.6978657,https://maps.google.com/?cid=0x0:0xc685b104b9ffa1b1,
mall,Toko Bahan Bangunan,TOKO SINAR BARU,"QMQF+5R, Tj. Satai, Kec. Pulau Maya Karimata, Kabupaten Kayong Utara, Kalimantan Barat","Kabupaten Kayong Utara, Kalimantan Barat",KALIMANTAN BARAT,,Indonesia,,,,-1.2110593,109.6752758,https://maps.google.com/?cid=0x0:0xfe39608296bee096,
mall,mall,Pulau Maja,"Tj. Satai, Kec. Pulau Maya Karimata, Kabupaten Kayong Utara, Kalimantan Barat","Kabupaten Kayong Utara, Kalimantan Barat",KALIMANTAN BARAT,,Indonesia,,,,-1.1666667,109.5833333,https://maps.google.com/?cid=0x0:0x5b5768fe20598843,
mall,Pusat Perbelanjaan,Pusat Perbelanjaan,"Jln A. Yani, Kampong tengah, Kec. Tlk. Batang, Kabupaten Kayong Utara, Kalimantan Barat 78856","Kampong tengah, Kec. Tlk. Batang, Kabupaten Kayong Utara",KALIMANTAN BARAT,78856.0,Indonesia,85843012017.0,,,-1.0049277,109.7795801,https://maps.google.com/?cid=0x0:0xea11ca55773a5d3b,
mall,Toko,Toko Ijul,"P523+RP9, Pelapis, Kepulauan Karimata, Kabupaten Kayong Utara, Kalimantan Barat 78855","Pelapis, Kepulauan Karimata, Kabupaten Kayong Utara",KALIMANTAN BARAT,78855.0,Indonesia,85252052620.0,,,-1.2979544,109.1543449,https://maps.google.com/?cid=0x0:0x9516c41f6563e7cb,
mall,Toko Perbaikan Ponsel,Sungai semut,"WRJH+FWX, Padu Banjar, Kec. Simpang Hilir, Kabupaten Kayong Utara, Kalimantan Barat 78856","Padu Banjar, Kec. Simpang Hilir, Kabupaten Kayong Utara",KALIMANTAN BARAT,78856.0,Indonesia,,,,-1.0687637,109.8298594,https://maps.google.com/?cid=0x0:0x2b5df4ffc8b2792,
mall,Pusat Perbelanjaan,NASA KALBAR,"XQXG+F7F, Tlk. Batang Sel., Kec. Tlk. Batang, Kabupaten Kayong Utara, Kalimantan Barat 78856","Tlk. Batang Sel., Kec. Tlk. Batang, Kabupaten Kayong Utara",KALIMANTAN BARAT,78856.0,Indonesia,82250600990.0,,,-1.0013219,109.7756575,https://maps.google.com/?cid=0x0:0x7642518298046d1e,
mall,Kantor Polisi,Polsek Pulau Maya Karimata,"QMQJ+4MM, Tj. Satai, Kec. Pulau Maya Karimata, Kabupaten Kayong Utara, Kalimantan Barat 78855","Tj. Satai, Kec. Pulau Maya Karimata, Kabupaten Kayong Utara",KALIMANTAN BARAT,78855.0,Indonesia,,,,-1.2121618,109.6816846,https://maps.google.com/?cid=0x0:0xa968c9b2ce6e1ebf,
mall,mall,Kalimantan Barat 78857,"Kabupaten Kayong Utara, Kalimantan Barat","Kabupaten Kayong Utara, Kalimantan Barat",KALIMANTAN BARAT,,Indonesia,,,,-0.8152171,109.9973244,https://maps.google.com/?cid=0x0:0xa089fb64937c19df,
mall,Taman,Pasar KTM Seponti,"4RQJ+58V, Unnamed Road, Seponti Jaya, Kec. Seponti, Kabupaten Kayong Utara, Kalimantan Barat 78857","Unnamed Road, Seponti Jaya, Kec. Seponti, Kabupaten Kayong Utara",KALIMANTAN BARAT,78857.0,Indonesia,,,,-0.8620221,109.8307849,https://maps.google.com/?cid=0x0:0xd54b482310968c99,
mall,Toko,Pasar sayur dan sembako,"4V83+53V, Unnamed Road, Telaga Arum, Kec. Seponti, Kabupaten Kayong Utara, Kalimantan Barat 78857","Unnamed Road, Telaga Arum, Kec. Seponti, Kabupaten Kayong Utara",KALIMANTAN BARAT,78857.0,Indonesia,81347076638.0,,,-0.8845098,109.8526681,https://maps.google.com/?cid=0x0:0x475cc9549bf787e,
mall,Toko umum,TOKO ARIE,"Seponti Jaya, Kec. Seponti, Kabupaten Kayong Utara, Kalimantan Barat","Kabupaten Kayong Utara, Kalimantan Barat",KALIMANTAN BARAT,,Indonesia,,,,-0.8615066,109.8305499,https://maps.google.com/?cid=0x0:0x79b5a9adbe76399d,
mall,Toko Alat Tulis Kantor,Mitra Anda Atk Dan Komputer,"4RQJ+9V2, Seponti Jaya, Kec. Seponti, Kabupaten Kayong Utara, Kalimantan Barat 78857","Seponti Jaya, Kec. Seponti, Kabupaten Kayong Utara",KALIMANTAN BARAT,78857.0,Indonesia,81256259659.0,,,-0.8616211,109.8321478,https://maps.google.com/?cid=0x0:0xf56e693e8ce6e663,
mall,Pusat Perbelanjaan,warung sayur pasar FITRI,"4RQJ+7GX, Seponti Jaya, Kec. Seponti, Kabupaten Kayong Utara, Kalimantan Barat 78857","Seponti Jaya, Kec. Seponti, Kabupaten Kayong Utara",KALIMANTAN BARAT,78857.0,Indonesia,82251364585.0,,,-0.8617683,109.8313467,https://maps.google.com/?cid=0x0:0xa79108f43f8e6f49,
mall,Pusat Perbelanjaan,JK_Collection (Mba Ovi),"4RQJ+P6J, Desa, Seponti Jaya, Kec. Seponti, Kabupaten Kayong Utara, Kalimantan Barat 78857","Desa, Seponti Jaya, Kec. Seponti, Kabupaten Kayong Utara",KALIMANTAN BARAT,78857.0,Indonesia,81257225785.0,,,-0.8606701,109.8305269,https://maps.google.com/?cid=0x0:0xc9fedae043352bd6,
mall,Toko,Toko sembako,"4RPQ+FPV, Seponti Jaya, Kec. Seponti, Kabupaten Kayong Utara, Kalimantan Barat 78857","Seponti Jaya, Kec. Seponti, Kabupaten Kayong Utara",KALIMANTAN BARAT,78857.0,Indonesia,82255362973.0,,,-0.863761,109.8392963,https://maps.google.com/?cid=0x0:0xd3d64c80775a7799,
mall,Toko umum,Toko Rara Rere,"4V55+FF8, Telaga Arum, Kec. Seponti, Kabupaten Kayong Utara, Kalimantan Barat 78857","Telaga Arum, Kec. Seponti, Kabupaten Kayong Utara",KALIMANTAN BARAT,78857.0,Indonesia,,,,-0.8913305,109.8587148,https://maps.google.com/?cid=0x0:0xe752f7b8b85aa82e,
mall,Pusat Perbelanjaan,HABIB CELL,"Unnamed Road, Seponti Jaya, Kec. Seponti, Kabupaten Kayong Utara, Kalimantan Barat 78857","Seponti Jaya, Kec. Seponti, Kabupaten Kayong Utara",KALIMANTAN BARAT,78857.0,Indonesia,,,,-0.8615803,109.8304435,https://maps.google.com/?cid=0x0:0x6a52e71d4ee79ba,
mall,Pusat Perbelanjaan,Toko Sembako Ridho Kurnia / Pak Atang,"3RJJ+GV7, Podo Rukun, Kec. Seponti, Kabupaten Kayong Utara, Kalimantan Barat","Kabupaten Kayong Utara, Kalimantan Barat",KALIMANTAN BARAT,,Indonesia,,,,-0.9187248,109.8321659,https://maps.google.com/?cid=0x0:0x78319f229ec51f,
mall,Gudang,Tempat jual dan beli ikan dan udang Eli AQutic,"Rt07, dusun sumber baru, Durian Sebatang, Kec. Seponti, Kabupaten Kayong Utara","Kabupaten Kayong Utara, Kalimantan Barat",KALIMANTAN BARAT,,Indonesia,,,,-0.7974253,109.9735048,https://maps.google.com/?cid=0x0:0x955378656ccc93f6,
mall,mall,Seponti Online Shop,"4RQM+42C, Seponti Jaya, Kec. Seponti, Kabupaten Kayong Utara, Kalimantan Barat 78857","Seponti Jaya, Kec. Seponti, Kabupaten Kayong Utara",KALIMANTAN BARAT,78857.0,Indonesia,,,,-0.862185,109.8325237,https://maps.google.com/?cid=0x0:0x843425666b1b9f33,
mall,mall,Angga sptra,"4VMJ+2W9, Jl. Arif Rahman Hakim, Sungai Sepeti, Kec. Seponti, Kabupaten Kayong Utara, Kalimantan Barat 78857","Jl. Arif Rahman Hakim, Sungai Sepeti, Kec. Seponti, Kabupaten Kayong Utara",KALIMANTAN BARAT,78857.0,Indonesia,,,,-0.8674509,109.8823655,https://maps.google.com/?cid=0x0:0x25ba94fb267c7f7b,
mall,Toko Jam,Toko syifa,"4RQJ+33R, Unnamed Road, Seponti Jaya, Kec. Seponti, Kabupaten Kayong Utara, Kalimantan Barat 78857","Unnamed Road, Seponti Jaya, Kec. Seponti, Kabupaten Kayong Utara",KALIMANTAN BARAT,78857.0,Indonesia,,,,-0.8622503,109.8301518,https://maps.google.com/?cid=0x0:0x7c6474a8120e70c5,
mall,mall,Kalimantan Barat 78853,"Kec. Simpang Hilir, Kabupaten Kayong Utara, Kalimantan Barat","Kabupaten Kayong Utara, Kalimantan Barat",KALIMANTAN BARAT,,Indonesia,,,,-1.0652462,110.2355647,https://maps.google.com/?cid=0x0:0x67224898fb15c624,
mall,Pasar,Pasar Teratai,"VXX6+5H2, Jl. Provinsi, Rantau Panjang, Kec. Simpang Hilir, Kabupaten Kayong Utara, Kalimantan Barat 78853","Jl. Provinsi, Rantau Panjang, Kec. Simpang Hilir, Kabupaten Kayong Utara",KALIMANTAN BARAT,78853.0,Indonesia,,,,-1.1021004,109.9613967,https://maps.google.com/?cid=0x0:0x5944fef9d3efe8ed,
mall,Pusat Perbelanjaan,Toko Mail Simpang,"WX36+C8W, Unnamed Road, Telukmelano, Kec. Simpang Hilir, Kabupaten Kayong Utara, Kalimantan Barat 78853","Unnamed Road, Telukmelano, Kec. Simpang Hilir, Kabupaten Kayong Utara",KALIMANTAN BARAT,78853.0,Indonesia,,,,-1.0963836,109.9608179,https://maps.google.com/?cid=0x0:0x44cc66b066998dac,
mall,Toko,Toko HRB,"VXF4+4QV, Rantau Panjang, Kec. Simpang Hilir, Kabupaten Kayong Utara, Kalimantan Barat 78853","Rantau Panjang, Kec. Simpang Hilir, Kabupaten Kayong Utara",KALIMANTAN BARAT,78853.0,Indonesia,811812398.0,,,-1.1271179,109.9568682,https://maps.google.com/?cid=0x0:0x962d2fc066b5bbba,
mall,Toko bahan makanan,Toko Sahabat Murah,"W2MM+5CX, Unnamed Road, Sungai Mata-Mata, Kec. Simpang Hilir, Kabupaten Kayong Utara, Kalimantan Barat 78853","Unnamed Road, Sungai Mata-Mata, Kec. Simpang Hilir, Kabupaten Kayong Utara",KALIMANTAN BARAT,78853.0,Indonesia,81347448882.0,,,-1.067011,110.033605,https://maps.google.com/?cid=0x0:0x92a8a9df607c226e,
mall,Toko,Toko Aket,"VXH6+P4M, Jl. Provinsi, Rantau Panjang, Kec. Simpang Hilir, Kabupaten Kayong Utara, Kalimantan Barat 78853","Jl. Provinsi, Rantau Panjang, Kec. Simpang Hilir, Kabupaten Kayong Utara",KALIMANTAN BARAT,78853.0,Indonesia,,,,-1.1206698,109.9602927,https://maps.google.com/?cid=0x0:0x5a5c6f0bf2fdd8e2,
mall,mall,Kec. Simpang Hilir,"Kabupaten Kayong Utara, Kalimantan Barat","Kabupaten Kayong Utara, Kalimantan Barat",KALIMANTAN BARAT,,Indonesia,,,,-1.0652462,110.2355647,https://maps.google.com/?cid=0x0:0x585b4e2bc0757da0,
mall,Seafood,KIOS IKAN KURNIADI,"Rantau Panjang, Kec. Simpang Hilir, Kabupaten Kayong Utara, Kalimantan Barat 78853","Kec. Simpang Hilir, Kabupaten Kayong Utara",KALIMANTAN BARAT,78853.0,Indonesia,89524528598.0,,,-1.1369657,109.9629743,https://maps.google.com/?cid=0x0:0xe4f47eb04b32911f,
mall,Pusat Perbelanjaan,Warung Mael,"WX36+F8W, jl.kesehatan tl, Telukmelano, Kec. Simpang Hilir, Kabupaten Kayong Utara, Kalimantan Barat 78853","jl.kesehatan tl, Telukmelano, Kec. Simpang Hilir, Kabupaten Kayong Utara",KALIMANTAN BARAT,78853.0,Indonesia,,,,-1.0962632,109.9608376,https://maps.google.com/?cid=0x0:0xf0c8d1a51dfefb1d,
mall,Pasar,Bakal Pasar Ikan Melano,"VXX7+99M, Telukmelano, Kec. Simpang Hilir, Kabupaten Kayong Utara, Kalimantan Barat 78853","Telukmelano, Kec. Simpang Hilir, Kabupaten Kayong Utara",KALIMANTAN BARAT,78853.0,Indonesia,,,,-1.1015274,109.9634158,https://maps.google.com/?cid=0x0:0x989290086d06487b,
mall,Toko,Toko Alfabib,"Dusun sepakat jaya, Rantau Panjang, Kec. Simpang Hilir, Kabupaten Kayong Utara, Kalimantan Barat 78853","Rantau Panjang, Kec. Simpang Hilir, Kabupaten Kayong Utara",KALIMANTAN BARAT,78853.0,Indonesia,82150464625.0,,,-1.1208642,109.9618703,https://maps.google.com/?cid=0x0:0x8abbbefe810ed047,
mall,Toko,Toko Bagong Lembawang,"VXW6+VM8, Telukmelano, Kec. Simpang Hilir, Kabupaten Ketapang, Kalimantan Barat 78853","Telukmelano, Kec. Simpang Hilir, Kabupaten Ketapang",KALIMANTAN BARAT,78853.0,Indonesia,,,,-1.1028372,109.9616925,https://maps.google.com/?cid=0x0:0x97fe68d7364dfe6a,
mall,Toko umum,Toko Pirman ayam,"Jln Gorila, RT.08/RW.03, Medan Jaya, Kec. Simpang Hilir, Kabupaten Kayong Utara, Kalimantan Barat 78853","RT.08/RW.03, Medan Jaya, Kec. Simpang Hilir, Kabupaten Kayong Utara",KALIMANTAN BARAT,78853.0,Indonesia,81549153048.0,,,-1.085987,109.9808838,https://maps.google.com/?cid=0x0:0x24bef3ebfeba6d86,
mall,Komplek perumahan,Pasar Rakyat Pemangkat,"WV49+CXF, Pemangkat, Kec. Simpang Hilir, Kabupaten Kayong Utara, Kalimantan Barat 78856","Pemangkat, Kec. Simpang Hilir, Kabupaten Kayong Utara",KALIMANTAN BARAT,78856.0,Indonesia,,,,-1.0939457,109.8699203,https://maps.google.com/?cid=0x0:0x5a2ccad1879bfcc4,
mall,Pusat Perbelanjaan,Pasar ikan sungai mata mata,"WXGW+52C, Sungai Mata-Mata, Kec. Simpang Hilir, Kabupaten Kayong Utara, Kalimantan Barat 78853","Sungai Mata-Mata, Kec. Simpang Hilir, Kabupaten Kayong Utara",KALIMANTAN BARAT,78853.0,Indonesia,,,,-1.0745573,109.9950136,https://maps.google.com/?cid=0x0:0xa6affb7ac2072d4a,
mall,Toko Perbaikan Ponsel,Sungai semut,"WRJH+FWX, Padu Banjar, Kec. Simpang Hilir, Kabupaten Kayong Utara, Kalimantan Barat 78856","Padu Banjar, Kec. Simpang Hilir, Kabupaten Kayong Utara",KALIMANTAN BARAT,78856.0,Indonesia,,,,-1.0687637,109.8298594,https://maps.google.com/?cid=0x0:0x2b5df4ffc8b2792,
mall,Komplek perumahan,Rumah farid,"WRCR+HHV, Pulau Kumbang, Kec. Simpang Hilir, Kabupaten Kayong Utara, Kalimantan Barat","Kabupaten Kayong Utara, Kalimantan Barat",KALIMANTAN BARAT,,Indonesia,,,,-1.0785209,109.8414192,https://maps.google.com/?cid=0x0:0xc771cbee3273ad55,
mall,Toko Elektronik,Toko HARMONIS CELLULAR TELUK MELANO,"VXW6+RQJ, Telukmelano, Kec. Simpang Hilir, Kabupaten Kayong Utara, Kalimantan Barat 78853","Telukmelano, Kec. Simpang Hilir, Kabupaten Kayong Utara",KALIMANTAN BARAT,78853.0,Indonesia,85754331999.0,,,-1.1029233,109.9619024,https://maps.google.com/?cid=0x0:0xbd055b1cdda676ae,
mall,Toko Elektronik,zone store,"WX6F+GQ, Medan Jaya, Kec. Simpang Hilir, Kabupaten Kayong Utara, Kalimantan Barat","Kabupaten Kayong Utara, Kalimantan Barat",KALIMANTAN BARAT,,Indonesia,81350607839.0,,,-1.0886998,109.974384,https://maps.google.com/?cid=0x0:0xad0bfe9b57b26488,
mall,mall,MIA BUTIQ SUKADANA,"QX67+3RF, Jl. Poros Sukadana - Ketapang, Pangkalan Buton, Kec. Sukadana, Kabupaten Kayong Utara, Kalimantan Barat 78852","Jl. Poros Sukadana - Ketapang, Pangkalan Buton, Kec. Sukadana, Kabupaten Kayong Utara",KALIMANTAN BARAT,78852.0,Indonesia,,,,-1.2398156,109.964534,https://maps.google.com/?cid=0x0:0xcbf80d27a7b63f92,
mall,mall,Lampung 34194,"Kabupaten Lampung Timur, Lampung","Kabupaten Lampung Timur, Lampung",KALIMANTAN BARAT,,Indonesia,,,,-4.9525811,105.6881788,https://maps.google.com/?cid=0x0:0x8748f89c2b8dd19d,
mall,Pusat Perbelanjaan,Kompleks Pertokoan Pasar Sukadana,"WGPW+JH5, Ps. Sukadana, Kec. Sukadana, Kabupaten Lampung Timur, Lampung 34194","Ps. Sukadana, Kec. Sukadana, Kabupaten Lampung Timur",KALIMANTAN BARAT,34194.0,Indonesia,,,,-5.0634842,105.5464957,https://maps.google.com/?cid=0x0:0xbc66a12e6c0faf55,
mall,Pusat Perbelanjaan,Siswoyo,"WJ8M+W56, Unnamed Road, Sukadana Tim., Kec. Sukadana, Kabupaten Lampung Timur, Lampung 34194","Unnamed Road, Sukadana Tim., Kec. Sukadana, Kabupaten Lampung Timur",KALIMANTAN BARAT,34194.0,Indonesia,85267887742.0,,,-5.0827127,105.6328766,https://maps.google.com/?cid=0x0:0x92a0a6eb0405397,
mall,Toko Pakaian,SUCI FASHION,"XGPC+G53, Jl. Sari Rejo, Sukadana Ilir, Kec. Sukadana, Kabupaten Lampung Timur, Lampung 34194","Jl. Sari Rejo, Sukadana Ilir, Kec. Sukadana, Kabupaten Lampung Timur",KALIMANTAN BARAT,34194.0,Indonesia,85783668380.0,,,-5.0137256,105.5204101,https://maps.google.com/?cid=0x0:0x4c768ca9e0b3b493,
mall,Pusat Perbelanjaan,TOKO DINDA RUKO SUKADANA,"WGPW+HR4, Ps. Sukadana, Kec. Sukadana, Kabupaten Lampung Timur, Lampung 34194","Ps. Sukadana, Kec. Sukadana, Kabupaten Lampung Timur",KALIMANTAN BARAT,34194.0,Indonesia,85783188115.0,,,-5.0636022,105.5470934,https://maps.google.com/?cid=0x0:0x32f82d620e2eb15d,
mall,Pusat Perbelanjaan,Afnalyla@shop,"RT 01 RW 01, dusun Magetan, Ps. Sukadana, Kec. Sukadana, Kabupaten Lampung Timur, Lampung 34194","dusun Magetan, Ps. Sukadana, Kec. Sukadana, Kabupaten Lampung Timur",KALIMANTAN BARAT,34194.0,Indonesia,82375963913.0,,,-5.0416899,105.5471378,https://maps.google.com/?cid=0x0:0x59a1ede7b719b4ee,
mall,Toko Aksesori Pakaian,Drpcollections,"VJJG+M46, Pakuan Aji, Kec. Sukadana, Kabupaten Lampung Timur, Lampung 34194","Pakuan Aji, Kec. Sukadana, Kabupaten Lampung Timur",KALIMANTAN BARAT,34194.0,Indonesia,82276352010.0,,,-5.1183425,105.6252616,https://maps.google.com/?cid=0x0:0x5e66dc27defa7141,
mall,Toko umum,Ganang Fhasion,"WJ8M+W56, Unnamed Road, Sukadana Tim., Kec. Sukadana, Kabupaten Lampung Timur, Lampung 34194","Unnamed Road, Sukadana Tim., Kec. Sukadana, Kabupaten Lampung Timur",KALIMANTAN BARAT,34194.0,Indonesia,85267887742.0,,,-5.0827127,105.6328766,https://maps.google.com/?cid=0x0:0xa4c6879ca8c019a7,
mall,Pusat Perbelanjaan,Aglan aquatic semoga jaya,"XGVR+R3W, Muara Jaya, Kec. Sukadana, Kabupaten Lampung Timur, Lampung 34194","Muara Jaya, Kec. Sukadana, Kabupaten Lampung Timur",KALIMANTAN BARAT,34194.0,Indonesia,,,,-5.0053811,105.5402144,https://maps.google.com/?cid=0x0:0x5bf656d42435a9d5,
mall,Pusat Perbelanjaan,Warung Agro Sulis,"Jl. Radin Intan No.10, Sukadana, Kec. Sukadana, Kabupaten Lampung Timur, Lampung 34194","Sukadana, Kec. Sukadana, Kabupaten Lampung Timur",KALIMANTAN BARAT,34194.0,Indonesia,81377904603.0,,,-5.0824854,105.5839078,https://maps.google.com/?cid=0x0:0xf7a2f3336a75058a,
mall,Pusat Perbelanjaan,DINDAINKASHOP,"Jl. Ki Hajar Dewantara, Ps. Sukadana, Kec. Sukadana, Kabupaten Lampung Timur, Lampung 34194","Ps. Sukadana, Kec. Sukadana, Kabupaten Lampung Timur",KALIMANTAN BARAT,34194.0,Indonesia,85766101067.0,,,-5.0549082,105.5409223,https://maps.google.com/?cid=0x0:0x60f807f55a95ffc1,
mall,Minimarket,Indomaret Pakuan Aji,"Jl. Raya Lintas Pantai Timur Sumatera No.16, Pakuan Aji, Kec. Sukadana, Kabupaten Lampung Timur, Lampung 34194","Pakuan Aji, Kec. Sukadana, Kabupaten Lampung Timur",KALIMANTAN BARAT,34194.0,Indonesia,,,,-5.1109654,105.626142,https://maps.google.com/?cid=0x0:0xd59f6c2ed2aaac9d,
mall,Pusat Perbelanjaan,Toko Agro H. Supri,"Jl. Radin Intan, RT.05/RW.02, Dusun Belimbing, Sukadana Jaya, Kabupaten Lampung Timur, Lampung 34194","RT.05/RW.02, Dusun Belimbing, Sukadana Jaya, Kabupaten Lampung Timur",KALIMANTAN BARAT,34194.0,Indonesia,81283541301.0,,,-5.078956,105.5804867,https://maps.google.com/?cid=0x0:0xf6a934a0af440f1,
mall,Toko,Toko selvi,"Jl. Raya Lintas Pantai Timur Sumatera No.16, Muara Jaya, Kec. Sukadana, Kabupaten Lampung Timur, Lampung 34194","Muara Jaya, Kec. Sukadana, Kabupaten Lampung Timur",KALIMANTAN BARAT,34194.0,Indonesia,85840091994.0,,,-5.0296422,105.5351085,https://maps.google.com/?cid=0x0:0x4a8f681bb0ff7e63,
mall,Toko Suku Cadang Motor,Toko Genta Motor,"XG5J+6V3, Jl. Kiemas Putra, Sukadana Ilir, Kec. Sukadana, Kabupaten Lampung Timur, Lampung 34194","Jl. Kiemas Putra, Sukadana Ilir, Kec. Sukadana, Kabupaten Lampung Timur",KALIMANTAN BARAT,34194.0,Indonesia,81369596900.0,,,-5.0419819,105.5321838,https://maps.google.com/?cid=0x0:0xa591705b286df2bd,
mall,Pusat Perbelanjaan,Waroeng okta,"XGCQ+H7J, Muara Jaya, Kec. Sukadana, Kabupaten Lampung Timur, Lampung 34194","Muara Jaya, Kec. Sukadana, Kabupaten Lampung Timur",KALIMANTAN BARAT,34194.0,Indonesia,,,,-5.0285101,105.5381068,https://maps.google.com/?cid=0x0:0x1846c50088990ec2,
mall,Pusat Perbelanjaan,Warung Samrotul Fitria,"Jl. Radin Intan No.10, Sukadana, Kec. Sukadana, Kabupaten Lampung Timur, Lampung 34194","Sukadana, Kec. Sukadana, Kabupaten Lampung Timur",KALIMANTAN BARAT,34194.0,Indonesia,,,,-5.0921494,105.5929162,https://maps.google.com/?cid=0x0:0x3b29069ca46c9f93,
mall,Toko,Toko Rukmi,"VHWC+5G, Sukadana, Kec. Sukadana, Kabupaten Lampung Timur, Lampung 34182","Sukadana, Kec. Sukadana, Kabupaten Lampung Timur",KALIMANTAN BARAT,34182.0,Indonesia,,,,-5.1045655,105.5713736,https://maps.google.com/?cid=0x0:0x8ed1f8e3b9fc9dd9,
mall,Pusat Perbelanjaan,Warung fajar,"jl satria no165 rt 22 rw 11, dusun v, Muara Jaya, Kec. Sukadana, Kabupaten Lampung Timur, Lampung 34194","dusun v, Muara Jaya, Kec. Sukadana, Kabupaten Lampung Timur",KALIMANTAN BARAT,34194.0,Indonesia,,,,-5.0288148,105.5396086,https://maps.google.com/?cid=0x0:0xb1233444600d4877,
mall,Pusat Perbelanjaan,SRC PURNIAWAN,"Jl. Raya Lintas Pantai Timur Sumatera, Muara Jaya, Kec. Sukadana, Kabupaten Lampung Timur, Lampung 34194","Muara Jaya, Kec. Sukadana, Kabupaten Lampung Timur",KALIMANTAN BARAT,34194.0,Indonesia,,,,-5.0123444,105.540525,https://maps.google.com/?cid=0x0:0x9bd892ccf9442625,
mall,mall,Sukadana,"Sutera, Kec. Sukadana, Kabupaten Kayong Utara, Kalimantan Barat","Kabupaten Kayong Utara, Kalimantan Barat",KALIMANTAN BARAT,,Indonesia,,,,-1.236284,109.957603,https://maps.google.com/?cid=0x0:0xe15dbc8fcc9954a,
mall,Pasar,Pasar Daerah SUKADANA,"Jl. Bhayangkara, Sutera, Kec. Sukadana, Kabupaten Kayong Utara, Kalimantan Barat 78852","Sutera, Kec. Sukadana, Kabupaten Kayong Utara",KALIMANTAN BARAT,78852.0,Indonesia,,,,-1.2302174,109.9602095,https://maps.google.com/?cid=0x0:0xf2fe049ccfe8a7b2,
mall,Area Mendaki,Kompleks Bali (Kampung Bali),"R235+QP5, Sedahan Jaya, Kec. Sukadana, Kabupaten Kayong Utara, Kalimantan Barat 78852","Sedahan Jaya, Kec. Sukadana, Kabupaten Kayong Utara",KALIMANTAN BARAT,78852.0,Indonesia,,,,-1.1956068,110.0093721,https://maps.google.com/?cid=0x0:0xf8527403c518c7,
mall,mall,MIA BUTIQ SUKADANA,"QX67+3RF, Jl. Poros Sukadana - Ketapang, Pangkalan Buton, Kec. Sukadana, Kabupaten Kayong Utara, Kalimantan Barat 78852","Jl. Poros Sukadana - Ketapang, Pangkalan Buton, Kec. Sukadana, Kabupaten Kayong Utara",KALIMANTAN BARAT,78852.0,Indonesia,,,,-1.2398156,109.964534,https://maps.google.com/?cid=0x0:0xcbf80d27a7b63f92,
mall,Toko umum,Widya olshop,"QX5H+236, Jl. Poros Sukadana - Ketapang, Pangkalan Buton, Kec. Sukadana, Kabupaten Kayong Utara, Kalimantan Barat 78852","Jl. Poros Sukadana - Ketapang, Pangkalan Buton, Kec. Sukadana, Kabupaten Kayong Utara",KALIMANTAN BARAT,78852.0,Indonesia,82251643566.0,,,-1.2424522,109.9776301,https://maps.google.com/?cid=0x0:0x274b888285378bff,
mall,Pusat Perbelanjaan,Kompleks Pertokoan Pasar Sukadana,"WGPW+JH5, Ps. Sukadana, Kec. Sukadana, Kabupaten Lampung Timur, Lampung 34194","Ps. Sukadana, Kec. Sukadana, Kabupaten Lampung Timur",KALIMANTAN BARAT,34194.0,Indonesia,,,,-5.0634842,105.5464957,https://maps.google.com/?cid=0x0:0xbc66a12e6c0faf55,
mall,Pusat Perbelanjaan,Pusat Pertokoan Sukadana,"WGPW+JVR, Ps. Sukadana, Kec. Sukadana, Kabupaten Lampung Timur, Lampung 34194","Ps. Sukadana, Kec. Sukadana, Kabupaten Lampung Timur",KALIMANTAN BARAT,34194.0,Indonesia,85783188115.0,,,-5.0633932,105.5471438,https://maps.google.com/?cid=0x0:0x904ac7c444963e6a,
mall,Pusat Perbelanjaan,Siswoyo,"WJ8M+W56, Unnamed Road, Sukadana Tim., Kec. Sukadana, Kabupaten Lampung Timur, Lampung 34194","Unnamed Road, Sukadana Tim., Kec. Sukadana, Kabupaten Lampung Timur",KALIMANTAN BARAT,34194.0,Indonesia,85267887742.0,,,-5.0827127,105.6328766,https://maps.google.com/?cid=0x0:0x92a0a6eb0405397,
mall,Toko Pakaian,SUCI FASHION,"XGPC+G53, Jl. Sari Rejo, Sukadana Ilir, Kec. Sukadana, Kabupaten Lampung Timur, Lampung 34194","Jl. Sari Rejo, Sukadana Ilir, Kec. Sukadana, Kabupaten Lampung Timur",KALIMANTAN BARAT,34194.0,Indonesia,85783668380.0,,,-5.0137256,105.5204101,https://maps.google.com/?cid=0x0:0x4c768ca9e0b3b493,
mall,Pusat Perbelanjaan,Afnalyla@shop,"RT 01 RW 01, dusun Magetan, Ps. Sukadana, Kec. Sukadana, Kabupaten Lampung Timur, Lampung 34194","dusun Magetan, Ps. Sukadana, Kec. Sukadana, Kabupaten Lampung Timur",KALIMANTAN BARAT,34194.0,Indonesia,82375963913.0,,,-5.0416899,105.5471378,https://maps.google.com/?cid=0x0:0x59a1ede7b719b4ee,
mall,Pusat Perbelanjaan,TOKO DINDA RUKO SUKADANA,"WGPW+HR4, Ps. Sukadana, Kec. Sukadana, Kabupaten Lampung Timur, Lampung 34194","Ps. Sukadana, Kec. Sukadana, Kabupaten Lampung Timur",KALIMANTAN BARAT,34194.0,Indonesia,85783188115.0,,,-5.0636022,105.5470934,https://maps.google.com/?cid=0x0:0x32f82d620e2eb15d,
mall,Pusat Perbelanjaan,Sukadana,"JQWV+PGM, Maringgai, Kec. Labuhan Maringgai, Kabupaten Lampung Timur, Lampung 34377","Maringgai, Kec. Labuhan Maringgai, Kabupaten Lampung Timur",KALIMANTAN BARAT,34377.0,Indonesia,,,,-5.3531704,105.7937942,https://maps.google.com/?cid=0x0:0x580d9f7aac92cf62,
mall,Toko,warung Yogi,"WGPQ+HWH capang kenari, Jl. Soekarno-Hatta, Ps. Sukadana, Kec. Sukadana, Kabupaten Lampung Timur, Lampung","Kabupaten Lampung Timur, Lampung",KALIMANTAN BARAT,,Indonesia,,,,-5.0635617,105.53985,https://maps.google.com/?cid=0x0:0x6b8f2f3fcae86d15,
mall,Pusat Perbelanjaan,Aglan aquatic semoga jaya,"XGVR+R3W, Muara Jaya, Kec. Sukadana, Kabupaten Lampung Timur, Lampung 34194","Muara Jaya, Kec. Sukadana, Kabupaten Lampung Timur",KALIMANTAN BARAT,34194.0,Indonesia,,,,-5.0053811,105.5402144,https://maps.google.com/?cid=0x0:0x5bf656d42435a9d5,
mall,Pusat Perbelanjaan,Warung Agro Sulis,"Jl. Radin Intan No.10, Sukadana, Kec. Sukadana, Kabupaten Lampung Timur, Lampung 34194","Sukadana, Kec. Sukadana, Kabupaten Lampung Timur",KALIMANTAN BARAT,34194.0,Indonesia,81377904603.0,,,-5.0824854,105.5839078,https://maps.google.com/?cid=0x0:0xf7a2f3336a75058a,
mall,Toko Aksesori Pakaian,Drpcollections,"VJJG+M46, Pakuan Aji, Kec. Sukadana, Kabupaten Lampung Timur, Lampung 34194","Pakuan Aji, Kec. Sukadana, Kabupaten Lampung Timur",KALIMANTAN BARAT,34194.0,Indonesia,82276352010.0,,,-5.1183425,105.6252616,https://maps.google.com/?cid=0x0:0x5e66dc27defa7141,
mall,Toko umum,Ganang Fhasion,"WJ8M+W56, Unnamed Road, Sukadana Tim., Kec. Sukadana, Kabupaten Lampung Timur, Lampung 34194","Unnamed Road, Sukadana Tim., Kec. Sukadana, Kabupaten Lampung Timur",KALIMANTAN BARAT,34194.0,Indonesia,85267887742.0,,,-5.0827127,105.6328766,https://maps.google.com/?cid=0x0:0xa4c6879ca8c019a7,
mall,Pusat Perbelanjaan,DINDAINKASHOP,"Jl. Ki Hajar Dewantara, Ps. Sukadana, Kec. Sukadana, Kabupaten Lampung Timur, Lampung 34194","Ps. Sukadana, Kec. Sukadana, Kabupaten Lampung Timur",KALIMANTAN BARAT,34194.0,Indonesia,85766101067.0,,,-5.0549082,105.5409223,https://maps.google.com/?cid=0x0:0x60f807f55a95ffc1,
mall,Pusat Perbelanjaan,Warung fajar,"jl satria no165 rt 22 rw 11, dusun v, Muara Jaya, Kec. Sukadana, Kabupaten Lampung Timur, Lampung 34194","dusun v, Muara Jaya, Kec. Sukadana, Kabupaten Lampung Timur",KALIMANTAN BARAT,34194.0,Indonesia,,,,-5.0288148,105.5396086,https://maps.google.com/?cid=0x0:0xb1233444600d4877,
mall,Toko,Toko selvi,"Jl. Raya Lintas Pantai Timur Sumatera No.16, Muara Jaya, Kec. Sukadana, Kabupaten Lampung Timur, Lampung 34194","Muara Jaya, Kec. Sukadana, Kabupaten Lampung Timur",KALIMANTAN BARAT,34194.0,Indonesia,85840091994.0,,,-5.0296422,105.5351085,https://maps.google.com/?cid=0x0:0x4a8f681bb0ff7e63,
mall,Pusat Perbelanjaan,Toko Agro H. Supri,"Jl. Radin Intan, RT.05/RW.02, Dusun Belimbing, Sukadana Jaya, Kabupaten Lampung Timur, Lampung 34194","RT.05/RW.02, Dusun Belimbing, Sukadana Jaya, Kabupaten Lampung Timur",KALIMANTAN BARAT,34194.0,Indonesia,81283541301.0,,,-5.078956,105.5804867,https://maps.google.com/?cid=0x0:0xf6a934a0af440f1,
mall,Pusat Perbelanjaan,Warung Samrotul Fitria,"Jl. Radin Intan No.10, Sukadana, Kec. Sukadana, Kabupaten Lampung Timur, Lampung 34194","Sukadana, Kec. Sukadana, Kabupaten Lampung Timur",KALIMANTAN BARAT,34194.0,Indonesia,,,,-5.0921494,105.5929162,https://maps.google.com/?cid=0x0:0x3b29069ca46c9f93,
mall,Pusat Perbelanjaan,SRC PURNIAWAN,"Jl. Raya Lintas Pantai Timur Sumatera, Muara Jaya, Kec. Sukadana, Kabupaten Lampung Timur, Lampung 34194","Muara Jaya, Kec. Sukadana, Kabupaten Lampung Timur",KALIMANTAN BARAT,34194.0,Indonesia,,,,-5.0123444,105.540525,https://maps.google.com/?cid=0x0:0x9bd892ccf9442625,
mall,Toko,Toko Rukmi,"VHWC+5G, Sukadana, Kec. Sukadana, Kabupaten Lampung Timur, Lampung 34182","Sukadana, Kec. Sukadana, Kabupaten Lampung Timur",KALIMANTAN BARAT,34182.0,Indonesia,,,,-5.1045655,105.5713736,https://maps.google.com/?cid=0x0:0x8ed1f8e3b9fc9dd9,
mall,Toserba,Kios Barra BF,"Jl. Raya Lintas Pantai Timur Sumatera No.7000, Terbanggi Marga, Kec. Sukadana, Kabupaten Lampung Timur, Lampung 34182","Terbanggi Marga, Kec. Sukadana, Kabupaten Lampung Timur",KALIMANTAN BARAT,34182.0,Indonesia,8127269877.0,,,-5.0774006,105.5254165,https://maps.google.com/?cid=0x0:0xf109b551bb158318,
mall,Toko Makanan,Warung aza,"P25J+845, Jl. Poros Sukadana - Ketapang, Sejahtera, Kec. Sukadana, Kabupaten Kayong Utara, Kalimantan Barat 78852","Jl. Poros Sukadana - Ketapang, Sejahtera, Kec. Sukadana, Kabupaten Kayong Utara",KALIMANTAN BARAT,78852.0,Indonesia,,,,-1.2917281,110.0303665,https://maps.google.com/?cid=0x0:0xaa7c853a61faf60b,
mall,mall,MIA BUTIQ SUKADANA,"QX67+3RF, Jl. Poros Sukadana - Ketapang, Pangkalan Buton, Kec. Sukadana, Kabupaten Kayong Utara, Kalimantan Barat 78852","Jl. Poros Sukadana - Ketapang, Pangkalan Buton, Kec. Sukadana, Kabupaten Kayong Utara",KALIMANTAN BARAT,78852.0,Indonesia,,,,-1.2398156,109.964534,https://maps.google.com/?cid=0x0:0xcbf80d27a7b63f92,
mall,mall,Sukadana,"Sutera, Kec. Sukadana, Kabupaten Kayong Utara, Kalimantan Barat","Kabupaten Kayong Utara, Kalimantan Barat",KALIMANTAN BARAT,,Indonesia,,,,-1.236284,109.957603,https://maps.google.com/?cid=0x0:0xe15dbc8fcc9954a,
mall,Kedai Kopi,Lokale Sukadana,"QX48+W3G, Jl. Sungai Mengkuang, Pangkalan Buton, Kec. Sukadana, Kabupaten Kayong Utara, Kalimantan Barat 78852","Jl. Sungai Mengkuang, Pangkalan Buton, Kec. Sukadana, Kabupaten Kayong Utara",KALIMANTAN BARAT,78852.0,Indonesia,,,,-1.2430168,109.9649973,https://maps.google.com/?cid=0x0:0x77e756d7b479bfdc,
mall,Masjid,Masjid Agung Oesman Al-Khair,"QW6X+H2W, Jl. Kota Karang, Sutera, Kec. Sukadana, Kabupaten Kayong Utara, Kalimantan Barat 78852","Jl. Kota Karang, Sutera, Kec. Sukadana, Kabupaten Kayong Utara",KALIMANTAN BARAT,78852.0,Indonesia,,,,-1.2385058,109.9475727,https://maps.google.com/?cid=0x0:0xf46d29bf909ed159,
mall,Pusat Perbelanjaan,Toko saniri,"XQVJ+M8X, Tlk. Batang Sel., Kec. Tlk. Batang, Kabupaten Kayong Utara, Kalimantan Barat 78856","Tlk. Batang Sel., Kec. Tlk. Batang, Kabupaten Kayong Utara",KALIMANTAN BARAT,78856.0,Indonesia,,,,-1.0057602,109.780862,https://maps.google.com/?cid=0x0:0xdfe507af60b49213,
mall,Terminal Feri,Pelabuhan Laut Teluk Batang,"2Q28+HJF, Tlk. Batang Sel., Kec. Tlk. Batang, Kabupaten Kayong Utara, Kalimantan Barat 78856","Tlk. Batang Sel., Kec. Tlk. Batang, Kabupaten Kayong Utara",KALIMANTAN BARAT,78856.0,Indonesia,,,,-0.9985699,109.7665453,https://maps.google.com/?cid=0x0:0x520bc2bd4049e40b,
mall,Toko Ponsel,Indah Ponsel,"XQXF+QXW, Jalan, Teluk Batang Selatan, Teluk Batang, North Kayong Regency, West Kalimantan 78856","Jalan, Teluk Batang Selatan, Teluk Batang, North Kayong Regency",KALIMANTAN BARAT,78856.0,Indonesia,,,,-1.0005153,109.7749592,https://maps.google.com/?cid=0x0:0x540ea15f789d4a3e,
mall,Pusat Perbelanjaan,Pusat Perbelanjaan,"Jln A. Yani, Kampong tengah, Kec. Tlk. Batang, Kabupaten Kayong Utara, Kalimantan Barat 78856","Kampong tengah, Kec. Tlk. Batang, Kabupaten Kayong Utara",KALIMANTAN BARAT,78856.0,Indonesia,85843012017.0,,,-1.0049277,109.7795801,https://maps.google.com/?cid=0x0:0xea11ca55773a5d3b,
mall,Pusat Perbelanjaan,Arum Colection,"2Q5R+GFH, Jl. sukamaju, Tlk. Batang Sel., Kec. Tlk. Batang, Kabupaten Kayong Utara, Kalimantan Barat 78856","Jl. sukamaju, Tlk. Batang Sel., Kec. Tlk. Batang, Kabupaten Kayong Utara",KALIMANTAN BARAT,78856.0,Indonesia,,,,-0.9906803,109.7908498,https://maps.google.com/?cid=0x0:0x2544152c13b3398c,
mall,Pusat Perbelanjaan,Toko Anugerah ( MADI GUNAWAN ),"3R43+H34, Jl. Arif Rahman Hakim, Banyu Abang, Kec. Tlk. Batang, Kabupaten Kayong Utara, Kalimantan Barat 78856","Jl. Arif Rahman Hakim, Banyu Abang, Kec. Tlk. Batang, Kabupaten Kayong Utara",KALIMANTAN BARAT,78856.0,Indonesia,,,,-0.9436065,109.8027015,https://maps.google.com/?cid=0x0:0x9c5c5ad38abcca74,
mall,Pusat Perbelanjaan,Andalusia Mart,"Jl. Arif Rahman Hakim Dusun Harapan Makmur No.RT 006, Banyu Abang, Kec. Tlk. Batang, Kabupaten Kayong Utara, Kalimantan Barat 78856","Banyu Abang, Kec. Tlk. Batang, Kabupaten Kayong Utara",KALIMANTAN BARAT,78856.0,Indonesia,81251446832.0,,,-0.9444194,109.7985109,https://maps.google.com/?cid=0x0:0x99fdec4dff1dc58,
mall,mall,Kalimantan Barat 78856,"Kabupaten Kayong Utara, Kalimantan Barat","Kabupaten Kayong Utara, Kalimantan Barat",KALIMANTAN BARAT,,Indonesia,,,,-0.9599724,109.8067916,https://maps.google.com/?cid=0x0:0x5100d67ecbc43c,
mall,Pusat Perbelanjaan,NASA KALBAR,"XQXG+F7F, Tlk. Batang Sel., Kec. Tlk. Batang, Kabupaten Kayong Utara, Kalimantan Barat 78856","Tlk. Batang Sel., Kec. Tlk. Batang, Kabupaten Kayong Utara",KALIMANTAN BARAT,78856.0,Indonesia,82250600990.0,,,-1.0013219,109.7756575,https://maps.google.com/?cid=0x0:0x7642518298046d1e,
mall,Dapur Umum,Alur Bandung,"XQ9V+82G, Alur Bandung, Kec. Tlk. Batang, Kabupaten Kayong Utara, Kalimantan Barat 78856","Alur Bandung, Kec. Tlk. Batang, Kabupaten Kayong Utara",KALIMANTAN BARAT,78856.0,Indonesia,81257266557.0,,,-1.0316845,109.7925646,https://maps.google.com/?cid=0x0:0x808ef97a04a685b,
mall,Toko,Toko Az~zahra,"XRJ2+FFC, Sungai Paduan, Kec. Tlk. Batang, Kabupaten Kayong Utara, Kalimantan Barat 78856","Sungai Paduan, Kec. Tlk. Batang, Kabupaten Kayong Utara",KALIMANTAN BARAT,78856.0,Indonesia,85245315655.0,,,-1.0188129,109.8011395,https://maps.google.com/?cid=0x0:0x75adc43c3a06c491,
mall,Toko outlet,DBS Shop (Tour  Travel),"XQMV+VWF, Tlk. Batang Sel., Kec. Tlk. Batang, Kabupaten Kayong Utara, Kalimantan Barat 78856","Tlk. Batang Sel., Kec. Tlk. Batang, Kabupaten Kayong Utara",KALIMANTAN BARAT,78856.0,Indonesia,85822993755.0,,,-1.0153118,109.7947869,https://maps.google.com/?cid=0x0:0x54f78d0bb75c0b64,
mall,Pusat Perbelanjaan,Sinar Pesona Collection,"XQ9Q+QX7, Jl. Parit Gn., Alur Bandung, Kec. Tlk. Batang, Kabupaten Kayong Utara, Kalimantan Barat 78856","Jl. Parit Gn., Alur Bandung, Kec. Tlk. Batang, Kabupaten Kayong Utara",KALIMANTAN BARAT,78856.0,Indonesia,82352637628.0,,,-1.0305926,109.7899235,https://maps.google.com/?cid=0x0:0x1aa50ed52623f1b9,
mall,Toko,Toko Berkah Jaya (Hanif),"XQVJ+Q4Q, Unnamed Road, Tlk. Batang Sel., Kec. Tlk. Batang, Kabupaten Kayong Utara, Kalimantan Barat 78856","Unnamed Road, Tlk. Batang Sel., Kec. Tlk. Batang, Kabupaten Kayong Utara",KALIMANTAN BARAT,78856.0,Indonesia,89514440499.0,,,-1.0055254,109.78036,https://maps.google.com/?cid=0x0:0xe0c7349317656de9,
mall,Agen Gas Elpiji,Agen LPG PAK ASDI,"XRF8+8HJ, Sungai Paduan, Kec. Tlk. Batang, Kabupaten Kayong Utara, Kalimantan Barat 78856","Sungai Paduan, Kec. Tlk. Batang, Kabupaten Kayong Utara",KALIMANTAN BARAT,78856.0,Indonesia,82354725258.0,,,-1.0266521,109.8164009,https://maps.google.com/?cid=0x0:0x75bf02b6766de036,
mall,Pasar,Pasar Teratai,"VXX6+5H2, Jl. Provinsi, Rantau Panjang, Kec. Simpang Hilir, Kabupaten Kayong Utara, Kalimantan Barat 78853","Jl. Provinsi, Rantau Panjang, Kec. Simpang Hilir, Kabupaten Kayong Utara",KALIMANTAN BARAT,78853.0,Indonesia,,,,-1.1021004,109.9613967,https://maps.google.com/?cid=0x0:0x5944fef9d3efe8ed,
mall,Toko Makanan,Toko burung MANT,"XQWH+CF3, Tlk. Batang Sel., Kec. Tlk. Batang, Kabupaten Kayong Utara, Kalimantan Barat 78856","Tlk. Batang Sel., Kec. Tlk. Batang, Kabupaten Kayong Utara",KALIMANTAN BARAT,78856.0,Indonesia,81522833788.0,,,-1.0039863,109.778671,https://maps.google.com/?cid=0x0:0x6e859547a0fd9e16,
mall,Toko Perbaikan Ponsel,Sungai semut,"WRJH+FWX, Padu Banjar, Kec. Simpang Hilir, Kabupaten Kayong Utara, Kalimantan Barat 78856","Padu Banjar, Kec. Simpang Hilir, Kabupaten Kayong Utara",KALIMANTAN BARAT,78856.0,Indonesia,,,,-1.0687637,109.8298594,https://maps.google.com/?cid=0x0:0x2b5df4ffc8b2792,
mall,Pusat Perbelanjaan,Toko Mail Simpang,"WX36+C8W, Unnamed Road, Telukmelano, Kec. Simpang Hilir, Kabupaten Kayong Utara, Kalimantan Barat 78853","Unnamed Road, Telukmelano, Kec. Simpang Hilir, Kabupaten Kayong Utara",KALIMANTAN BARAT,78853.0,Indonesia,,,,-1.0963836,109.9608179,https://maps.google.com/?cid=0x0:0x44cc66b066998dac,
mall,Toko umum,Toko Rara Rere,"4V55+FF8, Telaga Arum, Kec. Seponti, Kabupaten Kayong Utara, Kalimantan Barat 78857","Telaga Arum, Kec. Seponti, Kabupaten Kayong Utara",KALIMANTAN BARAT,78857.0,Indonesia,,,,-0.8913305,109.8587148,https://maps.google.com/?cid=0x0:0xe752f7b8b85aa82e,
mall,Komplek perumahan,Pasar Rakyat Pemangkat,"WV49+CXF, Pemangkat, Kec. Simpang Hilir, Kabupaten Kayong Utara, Kalimantan Barat 78856","Pemangkat, Kec. Simpang Hilir, Kabupaten Kayong Utara",KALIMANTAN BARAT,78856.0,Indonesia,,,,-1.0939457,109.8699203,https://maps.google.com/?cid=0x0:0x5a2ccad1879bfcc4,
mall,Komplek perumahan,Rumah farid,"WRCR+HHV, Pulau Kumbang, Kec. Simpang Hilir, Kabupaten Kayong Utara, Kalimantan Barat","Kabupaten Kayong Utara, Kalimantan Barat",KALIMANTAN BARAT,,Indonesia,,,,-1.0785209,109.8414192,https://maps.google.com/?cid=0x0:0xc771cbee3273ad55,
supermarket,supermarket,Kalimantan Barat 78855,"Kec. Pulau Maya Karimata, Kabupaten Kayong Utara, Kalimantan Barat","Kabupaten Kayong Utara, Kalimantan Barat",KALIMANTAN BARAT,,Indonesia,,,,-1.1787347,109.5211063,https://maps.google.com/?cid=0x0:0x3e6c33c008ec2445,
supermarket,supermarket,Pulau Maja,"Tj. Satai, Kec. Pulau Maya Karimata, Kabupaten Kayong Utara, Kalimantan Barat","Kabupaten Kayong Utara, Kalimantan Barat",KALIMANTAN BARAT,,Indonesia,,,,-1.1666667,109.5833333,https://maps.google.com/?cid=0x0:0x5b5768fe20598843,
supermarket,supermarket,Kalimantan Barat 78855,"Kec. Pulau Maya Karimata, Kabupaten Kayong Utara, Kalimantan Barat","Kabupaten Kayong Utara, Kalimantan Barat",KALIMANTAN BARAT,,Indonesia,,,,-1.1787347,109.5211063,https://maps.google.com/?cid=0x0:0x3e6c33c008ec2445,
supermarket,Toko,MISTAR FoodBako,"Jalan Perintis No.187, RT.001/RW.001, Dusun Sidorejo, Podo Rukun, Kec. Seponti, Kabupaten Kayong Utara, Kalimantan Barat 78857","RT.001/RW.001, Dusun Sidorejo, Podo Rukun, Kec. Seponti, Kabupaten Kayong Utara",KALIMANTAN BARAT,78857.0,Indonesia,81549582269.0,,,-0.8924439,109.7872229,https://maps.google.com/?cid=0x0:0xd52783a01834c598,
supermarket,Museum arkeologi,Prasasti Pasir Kapal,"7PG6+4X, Betok Jaya, Kepulauan Karimata, Kabupaten Kayong Utara, Kalimantan Barat","Kabupaten Kayong Utara, Kalimantan Barat",KALIMANTAN BARAT,,Indonesia,,,,-1.7246929,108.7124148,https://maps.google.com/?cid=0x0:0xa39bb98e40f3b57f,
supermarket,Toko,Penampung udang getah atau udang ronggeng Pak Junaidi,"WR7V+RCH, Pulau Kumbang, Kec. Simpang Hilir, Kabupaten Kayong Utara, Kalimantan Barat 78856","Pulau Kumbang, Kec. Simpang Hilir, Kabupaten Kayong Utara",KALIMANTAN BARAT,78856.0,Indonesia,85252020756.0,,,-1.0854331,109.843623,https://maps.google.com/?cid=0x0:0x2b84477729e203cf,
supermarket,Toko,Warung,"WRCR+FR8, Pulau Kumbang, Kec. Simpang Hilir, Kabupaten Kayong Utara, Kalimantan Barat 78856","Pulau Kumbang, Kec. Simpang Hilir, Kabupaten Kayong Utara",KALIMANTAN BARAT,78856.0,Indonesia,,,,-1.0788966,109.8420972,https://maps.google.com/?cid=0x0:0xc31febde1f8d6f79,
supermarket,supermarket,Toko Fitri,"RMMH+CRM, Satai Lestari, Kec. Pulau Maya Karimata, Kabupaten Kayong Utara, Kalimantan Barat 78855","Satai Lestari, Kec. Pulau Maya Karimata, Kabupaten Kayong Utara",KALIMANTAN BARAT,78855.0,Indonesia,82148512059.0,,,-1.1664249,109.6795536,https://maps.google.com/?cid=0x0:0x1d02f32a7a495785,
supermarket,supermarket,Kec. Pulau Maya Karimata,"Kabupaten Kayong Utara, Kalimantan Barat","Kabupaten Kayong Utara, Kalimantan Barat",KALIMANTAN BARAT,,Indonesia,,,,-1.1055975,109.6163185,https://maps.google.com/?cid=0x0:0x99312b2806aba86b,
supermarket,Toko,"AgenBRILInk. Dul hadi, pintau.","QJGR+W87, Tj. Satai, Kec. Pulau Maya Karimata, Kabupaten Kayong Utara, Kalimantan Barat 78855","Tj. Satai, Kec. Pulau Maya Karimata, Kabupaten Kayong Utara",KALIMANTAN BARAT,78855.0,Indonesia,85252059454.0,,,-1.2227209,109.640785,https://maps.google.com/?cid=0x0:0x7f510aff9384007c,
supermarket,supermarket,Warung Sembako Ibu MaLa,"WF47+JG, Dusun Besar, Kec. Pulau Maya Karimata, Kabupaten Kayong Utara, Kalimantan Barat","Kabupaten Kayong Utara, Kalimantan Barat",KALIMANTAN BARAT,,Indonesia,,,,-1.0934711,109.4638515,https://maps.google.com/?cid=0x0:0xc14dd48215cb5400,
supermarket,supermarket,Kalimantan Barat 78857,"Kabupaten Kayong Utara, Kalimantan Barat","Kabupaten Kayong Utara, Kalimantan Barat",KALIMANTAN BARAT,,Indonesia,,,,-0.8152171,109.9973244,https://maps.google.com/?cid=0x0:0xa089fb64937c19df,
supermarket,Toko,Toko Mahmud,"4RRJ+369 TR 4 A, Seponti Jaya, Kec. Seponti, Kabupaten Kayong Utara, Kalimantan Barat 78857","Seponti Jaya, Kec. Seponti, Kabupaten Kayong Utara",KALIMANTAN BARAT,78857.0,Indonesia,81328882603.0,,,-0.8598471,109.8305962,https://maps.google.com/?cid=0x0:0x9b11436e8f4a8b04,
supermarket,Toko,MISTAR FoodBako,"Jalan Perintis No.187, RT.001/RW.001, Dusun Sidorejo, Podo Rukun, Kec. Seponti, Kabupaten Kayong Utara, Kalimantan Barat 78857","RT.001/RW.001, Dusun Sidorejo, Podo Rukun, Kec. Seponti, Kabupaten Kayong Utara",KALIMANTAN BARAT,78857.0,Indonesia,81549582269.0,,,-0.8924439,109.7872229,https://maps.google.com/?cid=0x0:0xd52783a01834c598,
supermarket,Toko bahan makanan,Toko ana,"4VPH+X66, Desa, Sungai Sepeti, Kec. Seponti, Kabupaten Kayong Utara, Kalimantan Barat 78857","Desa, Sungai Sepeti, Kec. Seponti, Kabupaten Kayong Utara",KALIMANTAN BARAT,78857.0,Indonesia,82250112020.0,,,-0.8625776,109.8780039,https://maps.google.com/?cid=0x0:0xca92362bbf70f3cd,
supermarket,Toko,Toko Barokah Mandiri,"3RW9+VGX, Wonorejo, Kec. Seponti, Kabupaten Kayong Utara, Kalimantan Barat","Kabupaten Kayong Utara, Kalimantan Barat",KALIMANTAN BARAT,,Indonesia,,,,-0.9027563,109.8188622,https://maps.google.com/?cid=0x0:0x34fe7f06a759edb3,
supermarket,Toko umum,Toko Nabaza,"Jl. Tanjung Pura No.22, Seponti Jaya, Kec. Seponti, Kabupaten Kayong Utara, Kalimantan Barat 78857","Seponti Jaya, Kec. Seponti, Kabupaten Kayong Utara",KALIMANTAN BARAT,78857.0,Indonesia,82167427590.0,,,-0.8646453,109.8337045,https://maps.google.com/?cid=0x0:0x744ddab724bb2ad4,
supermarket,supermarket,Warung Sembako P. Kawiya,"4RQJ+92W, jalan pangsuma, Seponti Jaya, Kec. Seponti, Kabupaten Kayong Utara, Kalimantan Barat 78857","jalan pangsuma, Seponti Jaya, Kec. Seponti, Kabupaten Kayong Utara",KALIMANTAN BARAT,78857.0,Indonesia,,,,-0.8615196,109.8300857,https://maps.google.com/?cid=0x0:0xd22534056cf024ed,
supermarket,ATM,BRI LINK MUSTATIR,"4RQM+96C, Unnamed Road, Seponti Jaya, Kec. Seponti, Kabupaten Kayong Utara, Kalimantan Barat 78857","Unnamed Road, Seponti Jaya, Kec. Seponti, Kabupaten Kayong Utara",KALIMANTAN BARAT,78857.0,Indonesia,82251643047.0,,,-0.8615628,109.8330092,https://maps.google.com/?cid=0x0:0x4689c835b5c278f9,
supermarket,Toko bahan makanan,TOKO RISVA,"4VHP+R79, Jl. Arif Rahman Hakim, Sungai Sepeti, Kec. Seponti, Kabupaten Kayong Utara, Kalimantan Barat 78857","Jl. Arif Rahman Hakim, Sungai Sepeti, Kec. Seponti, Kabupaten Kayong Utara",KALIMANTAN BARAT,78857.0,Indonesia,,,,-0.8704728,109.8857397,https://maps.google.com/?cid=0x0:0xf71fe9bc360369b0,
supermarket,Toko bahan makanan,Toko Ibnu,"4RQJ+CCW, Seponti Jaya, Kec. Seponti, Kabupaten Kayong Utara, Kalimantan Barat 78857","Seponti Jaya, Kec. Seponti, Kabupaten Kayong Utara",KALIMANTAN BARAT,78857.0,Indonesia,,,,-0.8614951,109.831144,https://maps.google.com/?cid=0x0:0x1a3cb6aac4463132,
supermarket,Toko,Warung Mbak Nurwastu,"3RQG+84J Tsm, Podo Rukun, Kec. Seponti, Kabupaten Kayong Utara, Kalimantan Barat","Kabupaten Kayong Utara, Kalimantan Barat",KALIMANTAN BARAT,,Indonesia,,,,-0.9116571,109.8252697,https://maps.google.com/?cid=0x0:0xf11c9a840bc2b7e5,
supermarket,Toko bahan makanan,TOKO RISVA DAN CAFE,"4VQJ+63C, Sungai Sepeti, Kec. Seponti, Kabupaten Kayong Utara, Kalimantan Barat 78857","Sungai Sepeti, Kec. Seponti, Kabupaten Kayong Utara",KALIMANTAN BARAT,78857.0,Indonesia,,,,-0.8611349,109.8804814,https://maps.google.com/?cid=0x0:0x1059d7e9f912fd8,
supermarket,Toko,TOKO SEMBAKO APO,"6WMV+J38, Durian Sebatang, Kec. Seponti, Kabupaten Kayong Utara, Kalimantan Barat","Kabupaten Kayong Utara, Kalimantan Barat",KALIMANTAN BARAT,,Indonesia,,,,-0.7659625,109.9427031,https://maps.google.com/?cid=0x0:0x8638e02ace6d3c89,
supermarket,Toko,Warung Windianisa,"6X3F+2CC, Durian Sebatang, Kec. Seponti, Kabupaten Kayong Utara, Kalimantan Barat","Kabupaten Kayong Utara, Kalimantan Barat",KALIMANTAN BARAT,,Indonesia,,,,-0.7974253,109.9735048,https://maps.google.com/?cid=0x0:0x5249bdf9a1167204,
supermarket,Toko,Pak Eko Tempe,"6W5M+JQ, Durian Sebatang, Kec. Seponti, Kabupaten Kayong Utara, Kalimantan Barat","Kabupaten Kayong Utara, Kalimantan Barat",KALIMANTAN BARAT,,Indonesia,,,,-0.7904927,109.934392,https://maps.google.com/?cid=0x0:0xba375cf61b614f81,
supermarket,Toko,TOKO H. M langgeng,"4V55+FH8, Telaga Arum, Kec. Seponti, Kabupaten Kayong Utara, Kalimantan Barat","Kabupaten Kayong Utara, Kalimantan Barat",KALIMANTAN BARAT,,Indonesia,,,,-0.8913441,109.8589639,https://maps.google.com/?cid=0x0:0x5e0b3d450208b35,
supermarket,Toko Roti,Kaisar Supermarket And Department Store,"Jl. Patimura No.84, Darat Sekip, Kec. Pontianak Kota, Kota Pontianak, Kalimantan Barat 78117","Darat Sekip, Kec. Pontianak Kota, Kota Pontianak",KALIMANTAN BARAT,78117.0,Indonesia,,,,-0.027957,109.3391161,https://maps.google.com/?cid=0x0:0xa3b2757a80e2da24,
supermarket,Toko,TK. Sahabat Arsha,"4R6C+3XW, Jalan Gatot Subroto, RT.TR. 6, Wonorejo, Kec. Seponti, Kabupaten Kayong Utara, Kalimantan Barat","Kabupaten Kayong Utara, Kalimantan Barat",KALIMANTAN BARAT,,Indonesia,,,,-0.8897727,109.8224498,https://maps.google.com/?cid=0x0:0x9576bdd25fd739bd,
supermarket,supermarket,,,,KALIMANTAN BARAT,,Indonesia,82256884389.0,,,-0.8435225,109.9217494,https://maps.google.com/?cid=0x0:0x3adea39546760e37,
supermarket,Gudang,Bibit ikan varis,"4R39+QM4, Wonorejo, Kec. Seponti, Kabupaten Kayong Utara, Kalimantan Barat","Kabupaten Kayong Utara, Kalimantan Barat",KALIMANTAN BARAT,,Indonesia,,,,-0.8956128,109.8192112,https://maps.google.com/?cid=0x0:0x1ddf5229b4dc1a5,
supermarket,Toko Swalayan,Tokoh pak as,"32GV+XX8, Padu Banjar, Kec. Simpang Hilir, Kabupaten Kayong Utara, Kalimantan Barat","Kabupaten Kayong Utara, Kalimantan Barat",KALIMANTAN BARAT,,Indonesia,,,,-0.9225877,110.0449662,https://maps.google.com/?cid=0x0:0xa57fa86f6e16ab20,
supermarket,Komplek perumahan,Ais,"5RP2+QH3, Sumber Agung, Kec. Batu Ampar, Kabupaten Kubu Raya, Kalimantan Barat 78385","Sumber Agung, Kec. Batu Ampar, Kabupaten Kubu Raya",KALIMANTAN BARAT,78385.0,Indonesia,,,,-0.8132302,109.8009229,https://maps.google.com/?cid=0x0:0x1778886c27aea951,
supermarket,supermarket,Kalimantan Barat 78853,"Kec. Simpang Hilir, Kabupaten Kayong Utara, Kalimantan Barat","Kabupaten Kayong Utara, Kalimantan Barat",KALIMANTAN BARAT,,Indonesia,,,,-1.0652462,110.2355647,https://maps.google.com/?cid=0x0:0x67224898fb15c624,
supermarket,Toko bahan makanan,SINAR MATAN JAYA,"W53X+HV9 Dekat Lapangan Bola kaki, Nama pemilik Toko Bp.ASUN Jl.matan raya desa matan jaya kec simpang hilir kab, Matan Jaya, Kec. Simpang Hilir, Kabupaten Kayong Utara, Kalimantan Barat 78853","Nama pemilik Toko Bp.ASUN Jl.matan raya desa matan jaya kec simpang hilir kab, Matan Jaya, Kec. Simpang Hilir, Kabupaten Kayong Utara",KALIMANTAN BARAT,78853.0,Indonesia,85251999442.0,,,-1.096094,110.1997373,https://maps.google.com/?cid=0x0:0x307a6e36d78c0de,
supermarket,Toko,Toko Mama Tiwi,"WX6W+93C, Sungai Mata-Mata, Kec. Simpang Hilir, Kabupaten Kayong Utara, Kalimantan Barat 78853","Sungai Mata-Mata, Kec. Simpang Hilir, Kabupaten Kayong Utara",KALIMANTAN BARAT,78853.0,Indonesia,,,,-1.0890577,109.9951404,https://maps.google.com/?cid=0x0:0x14786fd1c123c20d,
supermarket,Toko Swalayan,Counter Firda Cell,"VXX5+864, Jl. Bhayangkara, Telukmelano, Kec. Simpang Hilir, Kabupaten Kayong Utara, Kalimantan Barat 78853","Jl. Bhayangkara, Telukmelano, Kec. Simpang Hilir, Kabupaten Kayong Utara",KALIMANTAN BARAT,78853.0,Indonesia,82148666335.0,,,-1.1017398,109.9580877,https://maps.google.com/?cid=0x0:0x9d26513ff90f41e7,
supermarket,Toko,Warung,"WRCR+FR8, Pulau Kumbang, Kec. Simpang Hilir, Kabupaten Kayong Utara, Kalimantan Barat 78856","Pulau Kumbang, Kec. Simpang Hilir, Kabupaten Kayong Utara",KALIMANTAN BARAT,78856.0,Indonesia,,,,-1.0788966,109.8420972,https://maps.google.com/?cid=0x0:0xc31febde1f8d6f79,
supermarket,Pusat Perbelanjaan,Toko Simpang Tigo,"WX46+PCF, Jalan Gloria, Medan Jaya, Kec. Simpang Hilir, Kabupaten Kayong Utara, Kalimantan Barat 78853","Jalan Gloria, Medan Jaya, Kec. Simpang Hilir, Kabupaten Kayong Utara",KALIMANTAN BARAT,78853.0,Indonesia,82255735257.0,,,-1.0931759,109.9610578,https://maps.google.com/?cid=0x0:0xcd7530151de78266,
supermarket,Toko,Swalayan Mentari Mart,"QX72+372, Sutera, Kec. Sukadana, Kabupaten Kayong Utara, Kalimantan Barat 78852","Sutera, Kec. Sukadana, Kabupaten Kayong Utara",KALIMANTAN BARAT,78852.0,Indonesia,,,,-1.2373568,109.9506263,https://maps.google.com/?cid=0x0:0xa287efce2957cf41,
supermarket,supermarket,Sukadana,"Sutera, Kec. Sukadana, Kabupaten Kayong Utara, Kalimantan Barat","Kabupaten Kayong Utara, Kalimantan Barat",KALIMANTAN BARAT,,Indonesia,,,,-1.236284,109.957603,https://maps.google.com/?cid=0x0:0xe15dbc8fcc9954a,
supermarket,Toko,Swalayan Mentari Mart,"QX72+372, Sutera, Kec. Sukadana, Kabupaten Kayong Utara, Kalimantan Barat 78852","Sutera, Kec. Sukadana, Kabupaten Kayong Utara",KALIMANTAN BARAT,78852.0,Indonesia,,,,-1.2373568,109.9506263,https://maps.google.com/?cid=0x0:0xa287efce2957cf41,
supermarket,Minimarket,Cyra Mart,"QX74+MM6, Sutera, Kec. Sukadana, Kabupaten Kayong Utara, Kalimantan Barat 78852","Sutera, Kec. Sukadana, Kabupaten Kayong Utara",KALIMANTAN BARAT,78852.0,Indonesia,,,,-1.2356611,109.9576375,https://maps.google.com/?cid=0x0:0x298382acf740e8fb,
supermarket,Toko Swalayan,Toko Cahaya Kayong,"QW7X+HX6, Sutera, Kec. Sukadana, Kabupaten Kayong Utara, Kalimantan Barat 78852","Sutera, Kec. Sukadana, Kabupaten Kayong Utara",KALIMANTAN BARAT,78852.0,Indonesia,89528600871.0,,,-1.2360772,109.9498788,https://maps.google.com/?cid=0x0:0x1c7d2d9542d0c36c,
supermarket,Pasar,Pasar Daerah SUKADANA,"Jl. Bhayangkara, Sutera, Kec. Sukadana, Kabupaten Kayong Utara, Kalimantan Barat 78852","Sutera, Kec. Sukadana, Kabupaten Kayong Utara",KALIMANTAN BARAT,78852.0,Indonesia,,,,-1.2302174,109.9602095,https://maps.google.com/?cid=0x0:0xf2fe049ccfe8a7b2,
supermarket,Toko Swalayan,Minimarket Laris Manis,"QW7X+8M4, Sutera, Kec. Sukadana, Kabupaten Kayong Utara, Kalimantan Barat 78852","Sutera, Kec. Sukadana, Kabupaten Kayong Utara",KALIMANTAN BARAT,78852.0,Indonesia,,,,-1.2367423,109.9491921,https://maps.google.com/?cid=0x0:0x8d0610f232c80027,
supermarket,Toko Swalayan,SRC DINA,"VJW3+M3H, Bumi Nabung Udik, Kec. Sukadana, Kabupaten Lampung Timur, Lampung 34194","Bumi Nabung Udik, Kec. Sukadana, Kabupaten Lampung Timur",KALIMANTAN BARAT,34194.0,Indonesia,,,,-5.1033217,105.6027238,https://maps.google.com/?cid=0x0:0xa73ca3190cad30e7,
supermarket,Toko bahan makanan,SRC GILMAN,"WH8P+C77, Jl. Radin Intan, Sukadana, Kec. Sukadana, Kabupaten Lampung Timur, Lampung 34194","Jl. Radin Intan, Sukadana, Kec. Sukadana, Kabupaten Lampung Timur",KALIMANTAN BARAT,34194.0,Indonesia,85269984351.0,,,-5.0839691,105.5856798,https://maps.google.com/?cid=0x0:0x5238b4e93f5f262f,
supermarket,Toko bahan makanan,Minimarket Margo Makmur,"XG5F+2WR, Sukadana Ilir, Kec. Sukadana, Kabupaten Lampung Timur, Lampung 34194","Sukadana Ilir, Kec. Sukadana, Kabupaten Lampung Timur",KALIMANTAN BARAT,34194.0,Indonesia,,,,-5.0423775,105.524773,https://maps.google.com/?cid=0x0:0xa2e4e5c8cca9589e,
supermarket,Toko bahan makanan,Warung Mbak Sum,"XG8M+HF9, Sukadana Ilir, Kec. Sukadana, Kabupaten Lampung Timur, Lampung 34194","Sukadana Ilir, Kec. Sukadana, Kabupaten Lampung Timur",KALIMANTAN BARAT,34194.0,Indonesia,,,,-5.0335955,105.5337315,https://maps.google.com/?cid=0x0:0xb632fd0ff4b8732e,
supermarket,Komplek perumahan,WARUNG EKA,"Beringin Putra , Jalan Desa Pakuan Aji ,Dusun VI RT032/RW006 SUKADANA.KAB.LAMPUNG TIMUR, Lampung, 34194","Jalan Desa Pakuan Aji ,Dusun VI RT032/RW006 SUKADANA.KAB.LAMPUNG TIMUR",KALIMANTAN BARAT,34194.0,Indonesia,,,,-5.1540199,105.603459,https://maps.google.com/?cid=0x0:0x3b34249a1a72b11c,
supermarket,Toko Ikan,GRIYA IKAN,"XG5F+8MR, Unnamed Road, Sukadana Ilir, Kec. Sukadana, Kabupaten Lampung Timur, Lampung 34194","Unnamed Road, Sukadana Ilir, Kec. Sukadana, Kabupaten Lampung Timur",KALIMANTAN BARAT,34194.0,Indonesia,85669777933.0,,,-5.0416408,105.5241556,https://maps.google.com/?cid=0x0:0x4e86b471803c0907,
supermarket,Toko Swalayan,SRC YULI,"VJQJ+J5Q, Jl. Raya Lintas Pantai Timur Sumatera, Pakuan Aji, Kec. Sukadana, Kabupaten Lampung Timur, Lampung 34194","Jl. Raya Lintas Pantai Timur Sumatera, Pakuan Aji, Kec. Sukadana, Kabupaten Lampung Timur",KALIMANTAN BARAT,34194.0,Indonesia,,,,-5.1109161,105.6304823,https://maps.google.com/?cid=0x0:0x5c73b304f7f0811,
supermarket,Toko bahan makanan,SRC CATUR,"XGM9+9HJ, Unnamed Road, Sukadana Ilir, Kec. Sukadana, Kabupaten Lampung Timur, Lampung 34194","Unnamed Road, Sukadana Ilir, Kec. Sukadana, Kabupaten Lampung Timur",KALIMANTAN BARAT,34194.0,Indonesia,81279367878.0,,,-5.0165306,105.5188819,https://maps.google.com/?cid=0x0:0x2d6d6a299716de35,
supermarket,Toko bahan makanan,pay tren lampung timur,"WH5R+MW8, Jl. Raya Lintas Pantai Timur Sumatera Jl. Radin Intan, Sukadana, Kec. Sukadana, Kabupaten Lampung Timur, Lampung 34194","Jl. Raya Lintas Pantai Timur Sumatera Jl. Radin Intan, Sukadana, Kec. Sukadana, Kabupaten Lampung Timur",KALIMANTAN BARAT,34194.0,Indonesia,85342227083.0,,,-5.0908266,105.5923174,https://maps.google.com/?cid=0x0:0xe587dea61978963e,
supermarket,Toko Perlengkapan Rumah,Nova Olshop,"WGWQ+JMQ, Jl. Ki Hajar Dewantara, Ps. Sukadana, Kec. Sukadana, Kabupaten Lampung Timur, Lampung 34194","Jl. Ki Hajar Dewantara, Ps. Sukadana, Kec. Sukadana, Kabupaten Lampung Timur",KALIMANTAN BARAT,34194.0,Indonesia,82186940299.0,,,-5.0534242,105.5392304,https://maps.google.com/?cid=0x0:0xfee2381ed412b2f4,
supermarket,Toko Bahan Bangunan,Mandiri Jaya TB,"Jl. Raya Lintas Pantai Timur Sumatera No.16, Pakuan Aji, Kec. Sukadana, Kabupaten Lampung Timur, Lampung 34194","Pakuan Aji, Kec. Sukadana, Kabupaten Lampung Timur",KALIMANTAN BARAT,34194.0,Indonesia,,,,-5.1117314,105.6261725,https://maps.google.com/?cid=0x0:0x28c802b8e1c26cd3,
supermarket,Toko bahan makanan,SRC PURWANTO,"XG7F+457, Unnamed Road, Sukadana Ilir, Kec. Sukadana, Kabupaten Lampung Timur, Lampung 34194","Unnamed Road, Sukadana Ilir, Kec. Sukadana, Kabupaten Lampung Timur",KALIMANTAN BARAT,34194.0,Indonesia,85274446723.0,,,-5.0372227,105.5229251,https://maps.google.com/?cid=0x0:0x9f28015ccb53f9c2,
supermarket,Minimarket,KAMILIN,"dusun tulung jaya rt/rw 27/07, Sukadana, Kec. Sukadana, Kabupaten Lampung Timur, Lampung 34194","Sukadana, Kec. Sukadana, Kabupaten Lampung Timur",KALIMANTAN BARAT,34194.0,Indonesia,81379797376.0,,,-5.1139527,105.5908491,https://maps.google.com/?cid=0x0:0x719a65b51eb6c861,
supermarket,Toko bahan makanan,Warung sembako tiga putri,"XG3P+6MG, Sukadana Ilir, Kec. Sukadana, Kabupaten Lampung Timur, Lampung 34194","Sukadana Ilir, Kec. Sukadana, Kabupaten Lampung Timur",KALIMANTAN BARAT,34194.0,Indonesia,,,,-5.046949,105.536692,https://maps.google.com/?cid=0x0:0xb80afb2d9e365814,
supermarket,Toko Swalayan,Src Rival,"VJQF+RHF, Jl. Raya Lintas Pantai Timur Sumatera, Pakuan Aji, Kec. Sukadana, Kabupaten Lampung Timur, Lampung 34194","Jl. Raya Lintas Pantai Timur Sumatera, Pakuan Aji, Kec. Sukadana, Kabupaten Lampung Timur",KALIMANTAN BARAT,34194.0,Indonesia,,,,-5.1104475,105.6239274,https://maps.google.com/?cid=0x0:0x60d083b61ce96f74,
supermarket,Minimarket,SRC TRISNA,"Jl. Radin Intan, Sukadana, Kec. Sukadana, Kabupaten Lampung Timur, Lampung 34194","Sukadana, Kec. Sukadana, Kabupaten Lampung Timur",KALIMANTAN BARAT,34194.0,Indonesia,81369292102.0,,,-5.0934178,105.5944088,https://maps.google.com/?cid=0x0:0x2c62cef8ec9834cc,
supermarket,Toko bahan makanan,warung rihap,"XJ85+V9C, Sukadana, Kec. Sukadana, Kabupaten Lampung Timur, Lampung 34194","Sukadana, Kec. Sukadana, Kabupaten Lampung Timur",KALIMANTAN BARAT,34194.0,Indonesia,,,,-5.0328225,105.6083845,https://maps.google.com/?cid=0x0:0x9cc27874bb6c6538,
supermarket,Toko Swalayan,SRC ERIA (ersan),"VJV5+JFH, Bumi Nabung Udik, Kec. Sukadana, Kabupaten Lampung Timur, Lampung 34194","Bumi Nabung Udik, Kec. Sukadana, Kabupaten Lampung Timur",KALIMANTAN BARAT,34194.0,Indonesia,81278079464.0,,,-5.1059302,105.608731,https://maps.google.com/?cid=0x0:0xacc1cdf78f014efa,
supermarket,Toko Swalayan,SRC MASITOH,"WH4W+6G9, Jl. Raya Lintas Pantai Timur Sumatera, Sukadana, Kec. Sukadana, Kabupaten Lampung Timur, Lampung 34194","Jl. Raya Lintas Pantai Timur Sumatera, Sukadana, Kec. Sukadana, Kabupaten Lampung Timur",KALIMANTAN BARAT,34194.0,Indonesia,82183040588.0,,,-5.0944583,105.5963508,https://maps.google.com/?cid=0x0:0x1c2acfb73c1b6c7a,
supermarket,supermarket,Sukadana,"Sutera, Kec. Sukadana, Kabupaten Kayong Utara, Kalimantan Barat","Kabupaten Kayong Utara, Kalimantan Barat",KALIMANTAN BARAT,,Indonesia,,,,-1.236284,109.957603,https://maps.google.com/?cid=0x0:0xe15dbc8fcc9954a,
supermarket,Toko,Swalayan Mentari Mart,"QX72+372, Sutera, Kec. Sukadana, Kabupaten Kayong Utara, Kalimantan Barat 78852","Sutera, Kec. Sukadana, Kabupaten Kayong Utara",KALIMANTAN BARAT,78852.0,Indonesia,,,,-1.2373568,109.9506263,https://maps.google.com/?cid=0x0:0xa287efce2957cf41,
supermarket,Minimarket,Cyra Mart,"QX74+MM6, Sutera, Kec. Sukadana, Kabupaten Kayong Utara, Kalimantan Barat 78852","Sutera, Kec. Sukadana, Kabupaten Kayong Utara",KALIMANTAN BARAT,78852.0,Indonesia,,,,-1.2356611,109.9576375,https://maps.google.com/?cid=0x0:0x298382acf740e8fb,
supermarket,Pasar,Pasar Daerah SUKADANA,"Jl. Bhayangkara, Sutera, Kec. Sukadana, Kabupaten Kayong Utara, Kalimantan Barat 78852","Sutera, Kec. Sukadana, Kabupaten Kayong Utara",KALIMANTAN BARAT,78852.0,Indonesia,,,,-1.2302174,109.9602095,https://maps.google.com/?cid=0x0:0xf2fe049ccfe8a7b2,
supermarket,Toko Swalayan,Toko Anita,"QX75+F2Q, Sutera, Kec. Sukadana, Kabupaten Kayong Utara, Kalimantan Barat 78852","Sutera, Kec. Sukadana, Kabupaten Kayong Utara",KALIMANTAN BARAT,78852.0,Indonesia,85624977305.0,,,-1.236284,109.957603,https://maps.google.com/?cid=0x0:0x99ba7c87aedcfae6,
supermarket,Toko Swalayan,toko atek,"QW7X+6PM, Sutera, Kec. Sukadana, Kabupaten Kayong Utara, Kalimantan Barat 78852","Sutera, Kec. Sukadana, Kabupaten Kayong Utara",KALIMANTAN BARAT,78852.0,Indonesia,89669050394.0,,,-1.2369226,109.9492993,https://maps.google.com/?cid=0x0:0x34c42045e3311ae9,
supermarket,Toko Swalayan,Minimarket Laris Manis,"QW7X+8M4, Sutera, Kec. Sukadana, Kabupaten Kayong Utara, Kalimantan Barat 78852","Sutera, Kec. Sukadana, Kabupaten Kayong Utara",KALIMANTAN BARAT,78852.0,Indonesia,,,,-1.2367423,109.9491921,https://maps.google.com/?cid=0x0:0x8d0610f232c80027,
supermarket,supermarket,Sukadana,"Ps. Sukadana, Kec. Sukadana, Kabupaten Lampung Timur, Lampung","Kabupaten Lampung Timur, Lampung",KALIMANTAN BARAT,,Indonesia,,,,-5.0673,105.546303,https://maps.google.com/?cid=0x0:0x981aaec4da459d49,
supermarket,Minimarket,Alfamart Sukadana,"Jl. Gardu Cisaga Dusun Sukamanah, RT.042/RW.020, Sukadana, Kec. Sukadana, Kab. Ciamis, Jawa Barat 46272","RT.042/RW.020, Sukadana, Kec. Sukadana, Kab. Ciamis",KALIMANTAN BARAT,46272.0,Indonesia,1500959.0,,,-7.2611483,108.4459966,https://maps.google.com/?cid=0x0:0xa01b895db6f4bef7,
supermarket,Toko Swalayan,toko ikbar,"WHM4+VXQ, Jl. Radin Intan, Sukadana, Kec. Sukadana, Kabupaten Lampung Timur, Lampung 34182","Jl. Radin Intan, Sukadana, Kec. Sukadana, Kabupaten Lampung Timur",KALIMANTAN BARAT,34182.0,Indonesia,,,,-5.065278,105.5574973,https://maps.google.com/?cid=0x0:0xbc253b4424662ebb,
supermarket,Toko Swalayan,SRC DINA,"VJW3+M3H, Bumi Nabung Udik, Kec. Sukadana, Kabupaten Lampung Timur, Lampung 34194","Bumi Nabung Udik, Kec. Sukadana, Kabupaten Lampung Timur",KALIMANTAN BARAT,34194.0,Indonesia,,,,-5.1033217,105.6027238,https://maps.google.com/?cid=0x0:0xa73ca3190cad30e7,
supermarket,Toko Swalayan,TB.KEMBAR LOGAM MAKMUR,"WGGV+XVW, Dusun.Tegal Rejo Desa, Ps. Sukadana, Kab, Kabupaten Lampung Timur, Lampung 34182","Dusun.Tegal Rejo Desa, Ps. Sukadana, Kab, Kabupaten Lampung Timur",KALIMANTAN BARAT,34182.0,Indonesia,81273597906.0,,,-5.072516,105.5446921,https://maps.google.com/?cid=0x0:0xe2b36feddbccc928,
supermarket,Minimarket,SRC FUAH,"Unnamed Road, Sukadana, East Lampung Regency, Lampung 34182","Sukadana, East Lampung Regency",KALIMANTAN BARAT,34182.0,Indonesia,,,,-5.1041077,105.5842578,https://maps.google.com/?cid=0x0:0x90bfcee039872206,
supermarket,Toko bahan makanan,SRC GILMAN,"WH8P+C77, Jl. Radin Intan, Sukadana, Kec. Sukadana, Kabupaten Lampung Timur, Lampung 34194","Jl. Radin Intan, Sukadana, Kec. Sukadana, Kabupaten Lampung Timur",KALIMANTAN BARAT,34194.0,Indonesia,85269984351.0,,,-5.0839691,105.5856798,https://maps.google.com/?cid=0x0:0x5238b4e93f5f262f,
supermarket,Toko Swalayan,SRC YULI,"VJQJ+J5Q, Jl. Raya Lintas Pantai Timur Sumatera, Pakuan Aji, Kec. Sukadana, Kabupaten Lampung Timur, Lampung 34194","Jl. Raya Lintas Pantai Timur Sumatera, Pakuan Aji, Kec. Sukadana, Kabupaten Lampung Timur",KALIMANTAN BARAT,34194.0,Indonesia,,,,-5.1109161,105.6304823,https://maps.google.com/?cid=0x0:0x5c73b304f7f0811,
supermarket,Toko Swalayan,Toko SRC Endry,"Jl. Raya Lintas Pantai Timur Sumatera No.16, Pakuan Aji, Kec. Sukadana, Kabupaten Lampung Timur, Lampung 34194","Pakuan Aji, Kec. Sukadana, Kabupaten Lampung Timur",KALIMANTAN BARAT,34194.0,Indonesia,,,,-5.1109794,105.6346966,https://maps.google.com/?cid=0x0:0xcf4438230587b876,
supermarket,Minimarket,Toko Duo putra jaya,"VJJ9+CHJ, RT.024/RW.004, Pakuan Aji, Kec. Sukadana, Kabupaten Lampung Timur, Lampung","Kabupaten Lampung Timur, Lampung",KALIMANTAN BARAT,,Indonesia,82372252296.0,,,-5.1189105,105.61889,https://maps.google.com/?cid=0x0:0x42776d67221c8bb5,
supermarket,Toko Perlengkapan Rumah,Nova Olshop,"WGWQ+JMQ, Jl. Ki Hajar Dewantara, Ps. Sukadana, Kec. Sukadana, Kabupaten Lampung Timur, Lampung 34194","Jl. Ki Hajar Dewantara, Ps. Sukadana, Kec. Sukadana, Kabupaten Lampung Timur",KALIMANTAN BARAT,34194.0,Indonesia,82186940299.0,,,-5.0534242,105.5392304,https://maps.google.com/?cid=0x0:0xfee2381ed412b2f4,
supermarket,Toko bahan makanan,Warung Mbak Sum,"XG8M+HF9, Sukadana Ilir, Kec. Sukadana, Kabupaten Lampung Timur, Lampung 34194","Sukadana Ilir, Kec. Sukadana, Kabupaten Lampung Timur",KALIMANTAN BARAT,34194.0,Indonesia,,,,-5.0335955,105.5337315,https://maps.google.com/?cid=0x0:0xb632fd0ff4b8732e,
supermarket,Toko,linda,"VF9H+99F, Sumbersari, Kec. Sekampung, Kabupaten Lampung Timur, Lampung 34382","Sumbersari, Kec. Sekampung, Kabupaten Lampung Timur",KALIMANTAN BARAT,34382.0,Indonesia,82378619303.0,,,-5.1315529,105.4784221,https://maps.google.com/?cid=0x0:0xa3e52627d90d80d9,
supermarket,Minimarket,SRC TRISNA,"Jl. Radin Intan, Sukadana, Kec. Sukadana, Kabupaten Lampung Timur, Lampung 34194","Sukadana, Kec. Sukadana, Kabupaten Lampung Timur",KALIMANTAN BARAT,34194.0,Indonesia,81369292102.0,,,-5.0934178,105.5944088,https://maps.google.com/?cid=0x0:0x2c62cef8ec9834cc,
supermarket,Toko Ikan,GRIYA IKAN,"XG5F+8MR, Unnamed Road, Sukadana Ilir, Kec. Sukadana, Kabupaten Lampung Timur, Lampung 34194","Unnamed Road, Sukadana Ilir, Kec. Sukadana, Kabupaten Lampung Timur",KALIMANTAN BARAT,34194.0,Indonesia,85669777933.0,,,-5.0416408,105.5241556,https://maps.google.com/?cid=0x0:0x4e86b471803c0907,
supermarket,Pedagang tekstil,Toko Sabar,"QHQM+WHQ, Putra Aji I, Kec. Sukadana, Kabupaten Lampung Timur, Lampung 34386","Putra Aji I, Kec. Sukadana, Kabupaten Lampung Timur",KALIMANTAN BARAT,34386.0,Indonesia,,,,-5.2101635,105.5839948,https://maps.google.com/?cid=0x0:0xcb3be72299fbb780,
supermarket,Komplek perumahan,WARUNG EKA,"Beringin Putra , Jalan Desa Pakuan Aji ,Dusun VI RT032/RW006 SUKADANA.KAB.LAMPUNG TIMUR, Lampung, 34194","Jalan Desa Pakuan Aji ,Dusun VI RT032/RW006 SUKADANA.KAB.LAMPUNG TIMUR",KALIMANTAN BARAT,34194.0,Indonesia,,,,-5.1540199,105.603459,https://maps.google.com/?cid=0x0:0x3b34249a1a72b11c,
supermarket,Pusat Perbelanjaan,toko Imron Rusadi,"RG8R+VFG, Jalan raya pasar nabang,desa sukadana baru, Jl. Raya Ps. Nabang Baru, Giri Kelopo Mulyo, Kec. Marga Tiga, Kabupaten Lampung Timur, Lampung 34386","Jalan raya pasar nabang,desa sukadana baru, Jl. Raya Ps. Nabang Baru, Giri Kelopo Mulyo, Kec. Marga Tiga, Kabupaten Lampung Timur",KALIMANTAN BARAT,34386.0,Indonesia,82179320222.0,,,-5.1828127,105.5411881,https://maps.google.com/?cid=0x0:0x941048f48bfc83ac,
supermarket,Toko Swalayan,Src Rival,"VJQF+RHF, Jl. Raya Lintas Pantai Timur Sumatera, Pakuan Aji, Kec. Sukadana, Kabupaten Lampung Timur, Lampung 34194","Jl. Raya Lintas Pantai Timur Sumatera, Pakuan Aji, Kec. Sukadana, Kabupaten Lampung Timur",KALIMANTAN BARAT,34194.0,Indonesia,,,,-5.1104475,105.6239274,https://maps.google.com/?cid=0x0:0x60d083b61ce96f74,
supermarket,supermarket,Sukadana,"Sutera, Kec. Sukadana, Kabupaten Kayong Utara, Kalimantan Barat","Kabupaten Kayong Utara, Kalimantan Barat",KALIMANTAN BARAT,,Indonesia,,,,-1.236284,109.957603,https://maps.google.com/?cid=0x0:0xe15dbc8fcc9954a,
supermarket,Toko,Swalayan Mentari Mart,"QX72+372, Sutera, Kec. Sukadana, Kabupaten Kayong Utara, Kalimantan Barat 78852","Sutera, Kec. Sukadana, Kabupaten Kayong Utara",KALIMANTAN BARAT,78852.0,Indonesia,,,,-1.2373568,109.9506263,https://maps.google.com/?cid=0x0:0xa287efce2957cf41,
supermarket,Toko Swalayan,Toko Anita,"QX75+F2Q, Sutera, Kec. Sukadana, Kabupaten Kayong Utara, Kalimantan Barat 78852","Sutera, Kec. Sukadana, Kabupaten Kayong Utara",KALIMANTAN BARAT,78852.0,Indonesia,85624977305.0,,,-1.236284,109.957603,https://maps.google.com/?cid=0x0:0x99ba7c87aedcfae6,
supermarket,Minimarket,Cyra Mart,"QX74+MM6, Sutera, Kec. Sukadana, Kabupaten Kayong Utara, Kalimantan Barat 78852","Sutera, Kec. Sukadana, Kabupaten Kayong Utara",KALIMANTAN BARAT,78852.0,Indonesia,,,,-1.2356611,109.9576375,https://maps.google.com/?cid=0x0:0x298382acf740e8fb,
supermarket,Pasar,Pasar Daerah SUKADANA,"Jl. Bhayangkara, Sutera, Kec. Sukadana, Kabupaten Kayong Utara, Kalimantan Barat 78852","Sutera, Kec. Sukadana, Kabupaten Kayong Utara",KALIMANTAN BARAT,78852.0,Indonesia,,,,-1.2302174,109.9602095,https://maps.google.com/?cid=0x0:0xf2fe049ccfe8a7b2,
supermarket,Toko Swalayan,toko atek,"QW7X+6PM, Sutera, Kec. Sukadana, Kabupaten Kayong Utara, Kalimantan Barat 78852","Sutera, Kec. Sukadana, Kabupaten Kayong Utara",KALIMANTAN BARAT,78852.0,Indonesia,89669050394.0,,,-1.2369226,109.9492993,https://maps.google.com/?cid=0x0:0x34c42045e3311ae9,
supermarket,Toko Swalayan,Minimarket Laris Manis,"QW7X+8M4, Sutera, Kec. Sukadana, Kabupaten Kayong Utara, Kalimantan Barat 78852","Sutera, Kec. Sukadana, Kabupaten Kayong Utara",KALIMANTAN BARAT,78852.0,Indonesia,,,,-1.2367423,109.9491921,https://maps.google.com/?cid=0x0:0x8d0610f232c80027,
supermarket,supermarket,Kalimantan Barat 78856,"Kabupaten Kayong Utara, Kalimantan Barat","Kabupaten Kayong Utara, Kalimantan Barat",KALIMANTAN BARAT,,Indonesia,,,,-0.9599724,109.8067916,https://maps.google.com/?cid=0x0:0x5100d67ecbc43c,
supermarket,Minimarket,Market Lyra Grup,"2Q68+JWF, jalan parit jali Kalimas Tlk. Batang selatan, Kabupaten Kayong Utara, Kalimantan Barat, INDONESIA post, Tlk. Batang, Kec. Tlk. Batang, Kabupaten Kayong Utara, Kalimantan Barat 78856","jalan parit jali Kalimas Tlk. Batang selatan, Kabupaten Kayong Utara, Kalimantan Barat, INDONESIA post, Tlk. Batang, Kec. Tlk. Batang, Kabupaten Kayong Utara",KALIMANTAN BARAT,78856.0,Indonesia,80079900.0,,,-0.9884432,109.7673022,https://maps.google.com/?cid=0x0:0x7d0b347a2cf589c8,
supermarket,Toko,Belva's Shop,"XQQP+JVX, Unnamed Road, Tlk. Batang Sel., Kec. Tlk. Batang, Kabupaten Kayong Utara, Kalimantan Barat 78856","Unnamed Road, Tlk. Batang Sel., Kec. Tlk. Batang, Kabupaten Kayong Utara",KALIMANTAN BARAT,78856.0,Indonesia,,,,-1.0108815,109.7872387,https://maps.google.com/?cid=0x0:0xf174dfe4c6290b0e,
supermarket,supermarket,TOKO ELINE,"XQWF+93H, Jl. Tlk. Batang, Tlk. Batang Sel., Kec. Tlk. Batang, Kabupaten Kayong Utara, Kalimantan Barat 78856","Jl. Tlk. Batang, Tlk. Batang Sel., Kec. Tlk. Batang, Kabupaten Kayong Utara",KALIMANTAN BARAT,78856.0,Indonesia,,,,-1.0040618,109.7727193,https://maps.google.com/?cid=0x0:0xdc89607129fe262b,
supermarket,Toko,Toko Al hikmah,"2Q4C+3G, Tlk. Batang Sel., Kec. Tlk. Batang, Kabupaten Kayong Utara, Kalimantan Barat 78856","Tlk. Batang Sel., Kec. Tlk. Batang, Kabupaten Kayong Utara",KALIMANTAN BARAT,78856.0,Indonesia,,,,-0.9954669,109.771666,https://maps.google.com/?cid=0x0:0x4485e72bbeebfc2,
supermarket,Toko,Toko Sembako Pendi,"XRG5+V8H, Sungai Paduan, Kec. Tlk. Batang, Kabupaten Kayong Utara, Kalimantan Barat 78856","Sungai Paduan, Kec. Tlk. Batang, Kabupaten Kayong Utara",KALIMANTAN BARAT,78856.0,Indonesia,,,,-1.0228044,109.8083466,https://maps.google.com/?cid=0x0:0x6c72cb7fe8ce3742,
supermarket,Toko bahan makanan,Toko sembako riduan,"2Q3M+G85, Tlk. Batang Sel., Kec. Tlk. Batang, Kabupaten Kayong Utara, Kalimantan Barat","Kabupaten Kayong Utara, Kalimantan Barat",KALIMANTAN BARAT,,Indonesia,83151556459.0,,,-0.9962402,109.7833645,https://maps.google.com/?cid=0x0:0xce28037b95b0e3c4,
supermarket,Toko Bahan Bangunan,Toko SUHARDI/AKHUN,"XQ7Q+HXH, Unnamed Road, Alur Bandung, Kec. Tlk. Batang, Kabupaten Kayong Utara, Kalimantan Barat 78856","Unnamed Road, Alur Bandung, Kec. Tlk. Batang, Kabupaten Kayong Utara",KALIMANTAN BARAT,78856.0,Indonesia,81351571183.0,,,-1.03605,109.789969,https://maps.google.com/?cid=0x0:0xad2baedff42bc21f,
supermarket,Seafood,Pasar HASIL MELAUT teluk batang ( HMzah),"Sungai Paduan, Kec. Tlk. Batang, Kabupaten Kayong Utara, Kalimantan Barat 78856","Kec. Tlk. Batang, Kabupaten Kayong Utara",KALIMANTAN BARAT,78856.0,Indonesia,81522696932.0,,,-1.0188612,109.801287,https://maps.google.com/?cid=0x0:0x999cf532fb8c62e9,
supermarket,Toko,Toko Barokah Mandiri,"3RW9+VGX, Wonorejo, Kec. Seponti, Kabupaten Kayong Utara, Kalimantan Barat","Kabupaten Kayong Utara, Kalimantan Barat",KALIMANTAN BARAT,,Indonesia,,,,-0.9027563,109.8188622,https://maps.google.com/?cid=0x0:0x34fe7f06a759edb3,
supermarket,Toko bahan makanan,Toko BUAH HARUMMANIS,"XQVJ+CJ5, Unnamed Road, Tlk. Batang Sel., Kec. Tlk. Batang, Kabupaten Kayong Utara, Kalimantan Barat 78856","Unnamed Road, Tlk. Batang Sel., Kec. Tlk. Batang, Kabupaten Kayong Utara",KALIMANTAN BARAT,78856.0,Indonesia,,,,-1.0064882,109.7816178,https://maps.google.com/?cid=0x0:0xd53980d55567d538,
supermarket,Toko,MISTAR FoodBako,"Jalan Perintis No.187, RT.001/RW.001, Dusun Sidorejo, Podo Rukun, Kec. Seponti, Kabupaten Kayong Utara, Kalimantan Barat 78857","RT.001/RW.001, Dusun Sidorejo, Podo Rukun, Kec. Seponti, Kabupaten Kayong Utara",KALIMANTAN BARAT,78857.0,Indonesia,81549582269.0,,,-0.8924439,109.7872229,https://maps.google.com/?cid=0x0:0xd52783a01834c598,
supermarket,Toko bahan makanan,Toko Sembako Riki,"Tlk. Batang Sel., Kec. Tlk. Batang, Kabupaten Kayong Utara, Kalimantan Barat","Kabupaten Kayong Utara, Kalimantan Barat",KALIMANTAN BARAT,,Indonesia,,,,-1.0005421,109.7751386,https://maps.google.com/?cid=0x0:0x4a650f25d6193f98,
supermarket,Toko,Penampung udang getah atau udang ronggeng Pak Junaidi,"WR7V+RCH, Pulau Kumbang, Kec. Simpang Hilir, Kabupaten Kayong Utara, Kalimantan Barat 78856","Pulau Kumbang, Kec. Simpang Hilir, Kabupaten Kayong Utara",KALIMANTAN BARAT,78856.0,Indonesia,85252020756.0,,,-1.0854331,109.843623,https://maps.google.com/?cid=0x0:0x2b84477729e203cf,
supermarket,Toko bahan makanan,Toko MuktiMakmur / Toko Lukman,"Jalan Imam Bonjol Tr 14 A, Telaga Arum, Kec. Seponti, Kabupaten Kayong Utara, Kalimantan Barat 78857","Telaga Arum, Kec. Seponti, Kabupaten Kayong Utara",KALIMANTAN BARAT,78857.0,Indonesia,,,,-0.8960813,109.8632437,https://maps.google.com/?cid=0x0:0xc56fb0818870effa,
supermarket,Toko,Tk. Indah,"VXW6+WJH, Telukmelano, Kec. Simpang Hilir, Kabupaten Kayong Utara, Kalimantan Barat 78853","Telukmelano, Kec. Simpang Hilir, Kabupaten Kayong Utara",KALIMANTAN BARAT,78853.0,Indonesia,,,,-1.102695,109.961603,https://maps.google.com/?cid=0x0:0xca2d478399157f77,
supermarket,Toko,Warung,"WRCR+FR8, Pulau Kumbang, Kec. Simpang Hilir, Kabupaten Kayong Utara, Kalimantan Barat 78856","Pulau Kumbang, Kec. Simpang Hilir, Kabupaten Kayong Utara",KALIMANTAN BARAT,78856.0,Indonesia,,,,-1.0788966,109.8420972,https://maps.google.com/?cid=0x0:0xc31febde1f8d6f79,
supermarket,Pusat Perbelanjaan,Pasar Teluk Melano,"VXX6+2Q2, Telukmelano, Kec. Simpang Hilir, Kabupaten Kayong Utara, Kalimantan Barat 78853","Telukmelano, Kec. Simpang Hilir, Kabupaten Kayong Utara",KALIMANTAN BARAT,78853.0,Indonesia,,,,-1.1024781,109.9618866,https://maps.google.com/?cid=0x0:0x9dffbe5dc0a22c03,
supermarket,Toko Swalayan,Tokoh pak as,"32GV+XX8, Padu Banjar, Kec. Simpang Hilir, Kabupaten Kayong Utara, Kalimantan Barat","Kabupaten Kayong Utara, Kalimantan Barat",KALIMANTAN BARAT,,Indonesia,,,,-0.9225877,110.0449662,https://maps.google.com/?cid=0x0:0xa57fa86f6e16ab20,
supermarket,Toko,Toko Mahmud,"4RRJ+369 TR 4 A, Seponti Jaya, Kec. Seponti, Kabupaten Kayong Utara, Kalimantan Barat 78857","Seponti Jaya, Kec. Seponti, Kabupaten Kayong Utara",KALIMANTAN BARAT,78857.0,Indonesia,81328882603.0,,,-0.8598471,109.8305962,https://maps.google.com/?cid=0x0:0x9b11436e8f4a8b04,
supermarket,Toko,Swalayan Mentari Mart,"QX72+372, Sutera, Kec. Sukadana, Kabupaten Kayong Utara, Kalimantan Barat 78852","Sutera, Kec. Sukadana, Kabupaten Kayong Utara",KALIMANTAN BARAT,78852.0,Indonesia,,,,-1.2373568,109.9506263,https://maps.google.com/?cid=0x0:0xa287efce2957cf41,
supermarket,Toko Swalayan,Minimarket Laris Manis,"QW7X+8M4, Sutera, Kec. Sukadana, Kabupaten Kayong Utara, Kalimantan Barat 78852","Sutera, Kec. Sukadana, Kabupaten Kayong Utara",KALIMANTAN BARAT,78852.0,Indonesia,,,,-1.2367423,109.9491921,https://maps.google.com/?cid=0x0:0x8d0610f232c80027,
supermarket,supermarket,Toko raya family,"2Q8J+MG4, Tlk. Batang, Kec. Tlk. Batang, Kabupaten Kayong Utara, Kalimantan Barat 78856","Tlk. Batang, Kec. Tlk. Batang, Kabupaten Kayong Utara",KALIMANTAN BARAT,78856.0,Indonesia,85250526325.0,,,-0.9833515,109.7813388,https://maps.google.com/?cid=0x0:0x72fea0886e681cd6,
