Category,Real Category,Business Name,Address,City,State,Postal Code,Country,Phone,Email,Website,Latitude,Longitude,Map Link,Details Link
komplek housing,komplek housing,Kepulauan Karimata,"Kabupaten Kayong Utara, Kalimantan Barat","Kabupaten Kayong Utara, Kalimantan Barat",KALIMANTAN BARAT,,Indonesia,,,,-1.6038919,108.9264524,https://maps.google.com/?cid=0x0:0xf5b6467328943c9c,
komplek housing,Gedung Apartemen,telok depeh,"M4RQ+VJ, Pelapis, Kepulauan Karimata, Kabupaten Kayong Utara, Kalimantan Barat","Kabupaten Kayong Utara, Kalimantan Barat",KALIMANTAN BARAT,,Indonesia,,,,-1.3077564,109.139116,https://maps.google.com/?cid=0x0:0x4becbc5ecf5471aa,
komplek housing,komplek housing,"RGS Pak Asmaden, S.Pd.I.","P45R+PH4, Jln Tanjung Terong, Pelapis, Kepulauan Karimata, Kabupaten Kayong Utara, Kalimantan Barat 78855","Jln Tanjung Terong, Pelapis, Kepulauan Karimata, Kabupaten Kayong Utara",KALIMANTAN BARAT,78855.0,Indonesia,81345261550.0,,,-1.2913508,109.1413127,https://maps.google.com/?cid=0x0:0xeb27a1c93efd39e8,
komplek housing,komplek housing,Rmh pak bujang tukang.,"9X63+C2M, Padang, Kec. Pulau Maya Karimata, Kabupaten Kayong Utara, Kalimantan Barat 78855","Padang, Kec. Pulau Maya Karimata, Kabupaten Kayong Utara",KALIMANTAN BARAT,78855.0,Indonesia,,,,-1.6392099,108.9514452,https://maps.google.com/?cid=0x0:0x7d49afa60531c563,
komplek housing,komplek housing,Kalimantan Barat 78855,"Kec. Pulau Maya Karimata, Kabupaten Kayong Utara, Kalimantan Barat","Kabupaten Kayong Utara, Kalimantan Barat",KALIMANTAN BARAT,,Indonesia,,,,-1.1787347,109.5211063,https://maps.google.com/?cid=0x0:0x3e6c33c008ec2445,
komplek housing,Masjid,WISMA SEJUTA KENANGAN,"VFW6+XP8, Dusun Besar, Kec. Pulau Maya Karimata, Kabupaten Kayong Utara, Kalimantan Barat 78855","Dusun Besar, Kec. Pulau Maya Karimata, Kabupaten Kayong Utara",KALIMANTAN BARAT,78855.0,Indonesia,,,,-1.1034255,109.4617742,https://maps.google.com/?cid=0x0:0x844c1d5f37a6907,
komplek housing,Komplek perumahan,Tarans,"QMX8+XMV, Tj. Satai, Kec. Pulau Maya Karimata, Kabupaten Kayong Utara, Kalimantan Barat","Kabupaten Kayong Utara, Kalimantan Barat",KALIMANTAN BARAT,,Indonesia,,,,-1.2,109.666667,https://maps.google.com/?cid=0x0:0xc9354ede06ee7e78,
komplek housing,Komplek perumahan,Rmh oky,"RMVM+C2F, Satai Lestari, Kec. Pulau Maya Karimata, Kabupaten Kayong Utara, Kalimantan Barat 78855","Satai Lestari, Kec. Pulau Maya Karimata, Kabupaten Kayong Utara",KALIMANTAN BARAT,78855.0,Indonesia,,,,-1.1564367,109.6825437,https://maps.google.com/?cid=0x0:0xb7972fd3aaba946e,
komplek housing,Komplek perumahan,Rumah tinggal,"RPF5+GF, Satai Lestari, Kec. Pulau Maya Karimata, Kabupaten Kayong Utara, Kalimantan Barat","Kabupaten Kayong Utara, Kalimantan Barat",KALIMANTAN BARAT,,Indonesia,,,,-1.1761757,109.7086948,https://maps.google.com/?cid=0x0:0xd0f765d3eef22a82,
komplek housing,komplek housing,Rumah sudir,"XQCV+7PH, Alur Bandung, Kec. Tlk. Batang, Kabupaten Kayong Utara, Kalimantan Barat 78856","Alur Bandung, Kec. Tlk. Batang, Kabupaten Kayong Utara",KALIMANTAN BARAT,78856.0,Indonesia,,,,-1.029307,109.7943619,https://maps.google.com/?cid=0x0:0x1826eabcacccaf71,
komplek housing,Komplek perumahan,Rumah Samili,"RPP9+9XM, Kemboja, Kec. Pulau Maya Karimata, Kabupaten Kayong Utara, Kalimantan Barat","Kabupaten Kayong Utara, Kalimantan Barat",KALIMANTAN BARAT,,Indonesia,,,,-1.1640452,109.7199303,https://maps.google.com/?cid=0x0:0xd965874904eb86dd,
komplek housing,komplek housing,Kec. Pulau Maya Karimata,"Kabupaten Kayong Utara, Kalimantan Barat","Kabupaten Kayong Utara, Kalimantan Barat",KALIMANTAN BARAT,,Indonesia,,,,-1.1055975,109.6163185,https://maps.google.com/?cid=0x0:0x99312b2806aba86b,
komplek housing,Pembangunan Perumahan,Rumh putrii,"RPXR+7R, Kemboja, Kec. Pulau Maya Karimata, Kabupaten Kayong Utara, Kalimantan Barat","Kabupaten Kayong Utara, Kalimantan Barat",KALIMANTAN BARAT,,Indonesia,,,,-1.1518283,109.7420561,https://maps.google.com/?cid=0x0:0x913265d529a7a764,
komplek housing,Restoran,Satai,"QMX8+XMV, Tj. Satai, Kec. Pulau Maya Karimata, Kabupaten Kayong Utara, Kalimantan Barat 78855","Tj. Satai, Kec. Pulau Maya Karimata, Kabupaten Kayong Utara",KALIMANTAN BARAT,78855.0,Indonesia,,,,-1.2,109.666667,https://maps.google.com/?cid=0x0:0x3de5a53007f5c0f4,
komplek housing,Kantor Perusahaan,Rumah muhammad Yusuf,"VP4Q+42, Kemboja, Kec. Pulau Maya Karimata, Kabupaten Kayong Utara, Kalimantan Barat","Kabupaten Kayong Utara, Kalimantan Barat",KALIMANTAN BARAT,,Indonesia,,,,-1.1447114,109.7375607,https://maps.google.com/?cid=0x0:0x6655e65c73eae984,
komplek housing,Komplek perumahan,Rumah Arell,"VP4P+PM, Kemboja, Kec. Pulau Maya Karimata, Kabupaten Kayong Utara, Kalimantan Barat","Kabupaten Kayong Utara, Kalimantan Barat",KALIMANTAN BARAT,,Indonesia,,,,-1.1432177,109.736746,https://maps.google.com/?cid=0x0:0xeac2efed64fb584,
komplek housing,Komplek perumahan,Rumah ferry,"RMFV+65Q, Dusun tanjung harapan desa, Tj. Satai, Kec. Pulau Maya Karimata, Kabupaten Kayong Utara, Kalimantan Barat 78858","Dusun tanjung harapan desa, Tj. Satai, Kec. Pulau Maya Karimata, Kabupaten Kayong Utara",KALIMANTAN BARAT,78858.0,Indonesia,,,,-1.176348,109.693672,https://maps.google.com/?cid=0x0:0x708e5e052855dcde,
komplek housing,Komplek perumahan,Rumah pak ngah man,"QMQH+CR7, Tj. Satai, Kec. Pulau Maya Karimata, Kabupaten Kayong Utara, Kalimantan Barat 78855","Tj. Satai, Kec. Pulau Maya Karimata, Kabupaten Kayong Utara",KALIMANTAN BARAT,78855.0,Indonesia,,,,-1.2114484,109.6801564,https://maps.google.com/?cid=0x0:0xc7cbfe91492810a,
komplek housing,komplek housing,Rumah pakndak,"RQX2+6C4, Kemboja, Kec. Pulau Maya Karimata, Kabupaten Kayong Utara, Kalimantan Barat","Kabupaten Kayong Utara, Kalimantan Barat",KALIMANTAN BARAT,,Indonesia,,,,-1.1519898,109.7510727,https://maps.google.com/?cid=0x0:0x30d55614d05017b,
komplek housing,Komplek perumahan,Rumah maya dan sabrina,"XQCG+WR2, Alur Bandung, Kec. Tlk. Batang, Kabupaten Kayong Utara, Kalimantan Barat 78856","Alur Bandung, Kec. Tlk. Batang, Kabupaten Kayong Utara",KALIMANTAN BARAT,78856.0,Indonesia,,,,-1.0277429,109.7770261,https://maps.google.com/?cid=0x0:0xa4fa847808b79e05,
komplek housing,Komplek perumahan,Rumah Arel,"VP4P+JQ, Kemboja, Kec. Pulau Maya Karimata, Kabupaten Kayong Utara, Kalimantan Barat","Kabupaten Kayong Utara, Kalimantan Barat",KALIMANTAN BARAT,,Indonesia,,,,-1.1433576,109.7368938,https://maps.google.com/?cid=0x0:0x19c1c20473697b3a,
komplek housing,Komplek perumahan,Rumah paklang mus,"QMQJ+4MM, Tj. Satai, Kec. Pulau Maya Karimata, Kabupaten Kayong Utara, Kalimantan Barat 78855","Tj. Satai, Kec. Pulau Maya Karimata, Kabupaten Kayong Utara",KALIMANTAN BARAT,78855.0,Indonesia,,,,-1.2122337,109.6816301,https://maps.google.com/?cid=0x0:0x29b8eefe07f02592,
komplek housing,Komplek perumahan,Rumah teguh,"RP82+G4J, Satai Lestari, Kec. Pulau Maya Karimata, Kabupaten Kayong Utara, Kalimantan Barat 78855","Satai Lestari, Kec. Pulau Maya Karimata, Kabupaten Kayong Utara",KALIMANTAN BARAT,78855.0,Indonesia,,,,-1.1836554,109.700272,https://maps.google.com/?cid=0x0:0x8f9a92b3804aa834,
komplek housing,Pembangunan Perumahan,KPA( komplek aman),"XQMV+VWF, Tlk. Batang Sel., Kec. Tlk. Batang, Kabupaten Kayong Utara, Kalimantan Barat 78856","Tlk. Batang Sel., Kec. Tlk. Batang, Kabupaten Kayong Utara",KALIMANTAN BARAT,78856.0,Indonesia,,,,-1.0153125,109.7947969,https://maps.google.com/?cid=0x0:0x32171636230b133e,
komplek housing,Pembangunan Perumahan,Rumah panglima Aldi Mulyadi,"WF77+5WR, RT.25/RW.06, Dusun Besar, Kec. Pulau Maya Karimata, Kabupaten Kayong Utara, Kalimantan Barat 78855","RT.25/RW.06, Dusun Besar, Kec. Pulau Maya Karimata, Kabupaten Kayong Utara",KALIMANTAN BARAT,78855.0,Indonesia,,,,-1.0870085,109.4647578,https://maps.google.com/?cid=0x0:0xde575332addbf38e,
komplek housing,Komplek perumahan,Rumah ikbal dan keluarga,"QMPM+FRM, Tj. Satai, Kec. Pulau Maya Karimata, Kabupaten Kayong Utara, Kalimantan Barat 78855","Tj. Satai, Kec. Pulau Maya Karimata, Kabupaten Kayong Utara",KALIMANTAN BARAT,78855.0,Indonesia,,,,-1.2137814,109.6845613,https://maps.google.com/?cid=0x0:0x1cd8904f48187d98,
komplek housing,Komplek perumahan,Rumah pak MARHADI,"QMQJ+8FP, Tj. Satai, Kec. Pulau Maya Karimata, Kabupaten Kayong Utara, Kalimantan Barat 78855","Tj. Satai, Kec. Pulau Maya Karimata, Kabupaten Kayong Utara",KALIMANTAN BARAT,78855.0,Indonesia,,,,-1.2120821,109.6806224,https://maps.google.com/?cid=0x0:0x85b15c7d1a6b3b0f,
komplek housing,Komplek perumahan,Rumah zaki,"QMQF+5R, Tj. Satai, Kec. Pulau Maya Karimata, Kabupaten Kayong Utara, Kalimantan Barat","Kabupaten Kayong Utara, Kalimantan Barat",KALIMANTAN BARAT,,Indonesia,,,,-1.2120904,109.6745419,https://maps.google.com/?cid=0x0:0xc21280f4e8672f05,
komplek housing,komplek housing,Kalimantan Barat 78857,"Kabupaten Kayong Utara, Kalimantan Barat","Kabupaten Kayong Utara, Kalimantan Barat",KALIMANTAN BARAT,,Indonesia,,,,-0.8152171,109.9973244,https://maps.google.com/?cid=0x0:0xa089fb64937c19df,
komplek housing,Pembangunan Perumahan,My home,"4RHQ+9GQ, Seponti Jaya, Kec. Seponti, Kabupaten Kayong Utara, Kalimantan Barat 78857","Seponti Jaya, Kec. Seponti, Kabupaten Kayong Utara",KALIMANTAN BARAT,78857.0,Indonesia,,,,-0.8711246,109.8393638,https://maps.google.com/?cid=0x0:0x892a4dcf2a02b678,
komplek housing,Komplek perumahan,Perumahan Guru SMA,"6W4M+MR5, Durian Sebatang, Kec. Seponti, Kabupaten Kayong Utara, Kalimantan Barat 78857","Durian Sebatang, Kec. Seponti, Kabupaten Kayong Utara",KALIMANTAN BARAT,78857.0,Indonesia,,,,-0.7928293,109.9352979,https://maps.google.com/?cid=0x0:0x9003535f59bb0cac,
komplek housing,Komplek perumahan,Seponti,"4RVF+CV2, Seponti Jaya, Kec. Seponti, Kabupaten Kayong Utara, Kalimantan Barat","Kabupaten Kayong Utara, Kalimantan Barat",KALIMANTAN BARAT,,Indonesia,,,,-0.8564848,109.8246516,https://maps.google.com/?cid=0x0:0xd758ffbcba0fbb4f,
komplek housing,Pembangunan Perumahan,Yudi mex,"3RV3+3P, Podo Rukun, Kec. Seponti, Kabupaten Kayong Utara, Kalimantan Barat","Kabupaten Kayong Utara, Kalimantan Barat",KALIMANTAN BARAT,,Indonesia,,,,-0.9074918,109.8035146,https://maps.google.com/?cid=0x0:0xdd3959a5d08be3d8,
komplek housing,Komplek perumahan,Rumah Sonia,"4VMJ+MX3, Sungai Sepeti, Kec. Seponti, Kabupaten Kayong Utara, Kalimantan Barat 78857","Sungai Sepeti, Kec. Seponti, Kabupaten Kayong Utara",KALIMANTAN BARAT,78857.0,Indonesia,,,,-0.8655528,109.8827678,https://maps.google.com/?cid=0x0:0xc4273ad00764216b,
komplek housing,Pembangunan Perumahan,Pak Rohani,"3RPG+HRJ, Podo Rukun, Kec. Seponti, Kabupaten Kayong Utara, Kalimantan Barat","Kabupaten Kayong Utara, Kalimantan Barat",KALIMANTAN BARAT,,Indonesia,,,,-0.9135293,109.8270203,https://maps.google.com/?cid=0x0:0x691ee90d20d5d131,
komplek housing,Perhimpunan Pengembang Perumahan,Oemah Zaiq  Miqdad,"4RPM+WQP, Seponti Jaya, Kec. Seponti, Kabupaten Kayong Utara, Kalimantan Barat 78857","Seponti Jaya, Kec. Seponti, Kabupaten Kayong Utara",KALIMANTAN BARAT,78857.0,Indonesia,,,,-0.8614684,109.8348524,https://maps.google.com/?cid=0x0:0x6f88715fc470857,
komplek housing,Komplek perumahan,Rumah bp. Aciap,"6WPR+57, Durian Sebatang, Kec. Seponti, Kabupaten Kayong Utara, Kalimantan Barat","Kabupaten Kayong Utara, Kalimantan Barat",KALIMANTAN BARAT,,Indonesia,,,,-0.7647567,109.9410746,https://maps.google.com/?cid=0x0:0xf586a578b74ec706,
komplek housing,Komplek perumahan,Rumah Fajri,"4Q3Q+H9Q, Podo Rukun, Kec. Seponti, Kabupaten Kayong Utara, Kalimantan Barat","Kabupaten Kayong Utara, Kalimantan Barat",KALIMANTAN BARAT,,Indonesia,,,,-0.8960475,109.788492,https://maps.google.com/?cid=0x0:0x458f1cdd6b8ee9ff,
komplek housing,Komplek perumahan,NFR,"4RQJ+F47, Seponti Jaya, Kec. Seponti, Kabupaten Kayong Utara, Kalimantan Barat","Kabupaten Kayong Utara, Kalimantan Barat",KALIMANTAN BARAT,,Indonesia,,,,-0.8613499,109.8302991,https://maps.google.com/?cid=0x0:0xdef225c1e5860869,
komplek housing,Komplek perumahan,Rumah sartunah,"4VQM+PG3 Paket 6 tr 7a, Sungai Sepeti, Kec. Seponti, Kabupaten Kayong Utara, Kalimantan Barat 78857","Sungai Sepeti, Kec. Seponti, Kabupaten Kayong Utara",KALIMANTAN BARAT,78857.0,Indonesia,,,,-0.8607307,109.8837891,https://maps.google.com/?cid=0x0:0x95954db787788295,
komplek housing,Komplek perumahan,CV. Arteta,"4RQM+9HW, Jl rahadi oesman, Seponti Jaya, Kec. Seponti, Kabupaten Kayong Utara, Kalimantan Barat","Kabupaten Kayong Utara, Kalimantan Barat",KALIMANTAN BARAT,,Indonesia,,,,-0.8615153,109.8339496,https://maps.google.com/?cid=0x0:0x15a9e03c89531169,
komplek housing,Komplek perumahan,Chito mebel,"4RQM+JRW, Seponti Jaya, Kec. Seponti, Kabupaten Kayong Utara, Kalimantan Barat","Kabupaten Kayong Utara, Kalimantan Barat",KALIMANTAN BARAT,,Indonesia,,,,-0.860895,109.8345739,https://maps.google.com/?cid=0x0:0xc5fbd804dbf1297b,
komplek housing,komplek housing,Rumah Mak Ndut,"4R6H+54, Wonorejo, Kec. Seponti, Kabupaten Kayong Utara, Kalimantan Barat","Kabupaten Kayong Utara, Kalimantan Barat",KALIMANTAN BARAT,,Indonesia,,,,-0.8895764,109.8278592,https://maps.google.com/?cid=0x0:0xfa7403a03f8899dd,
komplek housing,komplek housing,Muhamd jaya,"4VRF+XFF, Sungai Sepeti, Kec. Seponti, Kabupaten Kayong Utara, Kalimantan Barat 78857","Sungai Sepeti, Kec. Seponti, Kabupaten Kayong Utara",KALIMANTAN BARAT,78857.0,Indonesia,,,,-0.8575634,109.8736819,https://maps.google.com/?cid=0x0:0x74543d21ffb9657e,
komplek housing,Komplek perumahan,ANGLER SEPONTI,"4RQM+CRJ, Seponti Jaya, Kec. Seponti, Kabupaten Kayong Utara, Kalimantan Barat","Kabupaten Kayong Utara, Kalimantan Barat",KALIMANTAN BARAT,,Indonesia,,,,-0.8614034,109.8345231,https://maps.google.com/?cid=0x0:0x2e3a83de97c2a214,
komplek housing,Komplek perumahan,Mess Hilmi,"5V8Q+G5P, Sungai Sepeti, Kec. Seponti, Kabupaten Kayong Utara, Kalimantan Barat 78857","Sungai Sepeti, Kec. Seponti, Kabupaten Kayong Utara",KALIMANTAN BARAT,78857.0,Indonesia,,,,-0.8342726,109.8884025,https://maps.google.com/?cid=0x0:0x9ab9f32163787b37,
komplek housing,Komplek perumahan,Pak Nasirin,"4RPM+95G, Komplek Pasar, Jl. Tanjung Pura, Seponti Jaya, Kec. Seponti, Kabupaten Kayong Utara, Kalimantan Barat 78856","Komplek Pasar, Jl. Tanjung Pura, Seponti Jaya, Kec. Seponti, Kabupaten Kayong Utara",KALIMANTAN BARAT,78856.0,Indonesia,,,,-0.8640625,109.8329375,https://maps.google.com/?cid=0x0:0x8f4c00a0c49187d4,
komplek housing,Perhimpunan Pengembang Perumahan,Rahayu Family,"4RPM+WQP, Seponti Jaya, Kec. Seponti, Kabupaten Kayong Utara, Kalimantan Barat 78857","Seponti Jaya, Kec. Seponti, Kabupaten Kayong Utara",KALIMANTAN BARAT,78857.0,Indonesia,,,,-0.8620201,109.8354654,https://maps.google.com/?cid=0x0:0x7df14d17bc1d807c,
komplek housing,Perhimpunan Pengembang Perumahan,Rumah Irma dwi anggraeni,"4RWF+3WH, Seponti Jaya, Kec. Seponti, Kabupaten Kayong Utara, Kalimantan Barat","Kabupaten Kayong Utara, Kalimantan Barat",KALIMANTAN BARAT,,Indonesia,,,,-0.8548222,109.8248507,https://maps.google.com/?cid=0x0:0x982eac2f0936d5b7,
komplek housing,komplek housing,Kec. Seponti,"Kabupaten Kayong Utara, Kalimantan Barat","Kabupaten Kayong Utara, Kalimantan Barat",KALIMANTAN BARAT,,Indonesia,,,,-0.8913441,109.8589639,https://maps.google.com/?cid=0x0:0x41ec85ca4548c5c1,
komplek housing,Komplek perumahan,Tr 8 Desa wonorejo,"4R4H+CQ5, Wonorejo, Kec. Seponti, Kabupaten Kayong Utara, Kalimantan Barat 78856","Wonorejo, Kec. Seponti, Kabupaten Kayong Utara",KALIMANTAN BARAT,78856.0,Indonesia,,,,-0.8939906,109.829477,https://maps.google.com/?cid=0x0:0x9a1a89531c6753e0,
komplek housing,Komplek perumahan,Rmh pak jakaria,"4VQH+CXR, Jl. TR7A, Sungai Sepeti, Kec. Seponti, Kabupaten Kayong Utara, Kalimantan Barat 78857","Jl. TR7A, Sungai Sepeti, Kec. Seponti, Kabupaten Kayong Utara",KALIMANTAN BARAT,78857.0,Indonesia,,,,-0.8615146,109.8788492,https://maps.google.com/?cid=0x0:0x8da043f73e7e05d3,
komplek housing,Komplek perumahan,Rumah hendra,"4VPH+CP8, Sungai Sepeti, Kec. Seponti, Kabupaten Kayong Utara, Kalimantan Barat 78857","Sungai Sepeti, Kec. Seponti, Kabupaten Kayong Utara",KALIMANTAN BARAT,78857.0,Indonesia,,,,-0.8635159,109.8788806,https://maps.google.com/?cid=0x0:0x5bd6f16337f54a25,
komplek housing,Komplek perumahan,Rumah rula,"4VMH+RXR, Sungai Sepeti, Kec. Seponti, Kabupaten Kayong Utara, Kalimantan Barat 78857","Sungai Sepeti, Kec. Seponti, Kabupaten Kayong Utara",KALIMANTAN BARAT,78857.0,Indonesia,,,,-0.8653872,109.8798915,https://maps.google.com/?cid=0x0:0xeded78b514508e1e,
komplek housing,Pembangunan Perumahan,Rumah Andi Muhammad Fadhil,"4VJP+FR5, Sungai Sepeti, Kec. Seponti, Kabupaten Kayong Utara, Kalimantan Barat 78857","Sungai Sepeti, Kec. Seponti, Kabupaten Kayong Utara",KALIMANTAN BARAT,78857.0,Indonesia,811567885.0,,,-0.8688676,109.8871113,https://maps.google.com/?cid=0x0:0xf626a24aa0089d5b,
komplek housing,komplek housing,Rumah muhammad fahry (bayu),"6WCP+6P, Durian Sebatang, Kec. Seponti, Kabupaten Kayong Utara, Kalimantan Barat 78857","Durian Sebatang, Kec. Seponti, Kabupaten Kayong Utara",KALIMANTAN BARAT,78857.0,Indonesia,,,,-0.7795751,109.9367983,https://maps.google.com/?cid=0x0:0xf08206b6109defb3,
komplek housing,Komplek perumahan,Rumah yoga bahkori,"4VQH+CXR, Jl. TR7A, Sungai Sepeti, Kec. Seponti, Kabupaten Kayong Utara, Kalimantan Barat 78857","Jl. TR7A, Sungai Sepeti, Kec. Seponti, Kabupaten Kayong Utara",KALIMANTAN BARAT,78857.0,Indonesia,,,,-0.8615273,109.8789091,https://maps.google.com/?cid=0x0:0xe4760aa731f06953,
komplek housing,komplek housing,Kalimantan Barat 78853,"Kec. Simpang Hilir, Kabupaten Kayong Utara, Kalimantan Barat","Kabupaten Kayong Utara, Kalimantan Barat",KALIMANTAN BARAT,,Indonesia,,,,-1.0652462,110.2355647,https://maps.google.com/?cid=0x0:0x67224898fb15c624,
komplek housing,Komplek perumahan,Perumahan ViAr,"WX46+FHH, Medan Jaya, Kec. Simpang Hilir, Kabupaten Kayong Utara, Kalimantan Barat 78853","Medan Jaya, Kec. Simpang Hilir, Kabupaten Kayong Utara",KALIMANTAN BARAT,78853.0,Indonesia,,,,-1.0938162,109.9614856,https://maps.google.com/?cid=0x0:0xacb902fa7a6f26bc,
komplek housing,Komplek perumahan,Perumahan Arik,"2655+W9Q, Lubuk Batu, Kec. Simpang Hilir, Kabupaten Kayong Utara, Kalimantan Barat 78853","Lubuk Batu, Kec. Simpang Hilir, Kabupaten Kayong Utara",KALIMANTAN BARAT,78853.0,Indonesia,,,,-0.9896192,110.2087826,https://maps.google.com/?cid=0x0:0xf0d9f4a5628a7314,
komplek housing,Pembangunan Perumahan,Perumahan AFDELING 6,"W867+GH, Matan Jaya, Kec. Simpang Hilir, Kabupaten Kayong Utara, Kalimantan Barat","Kabupaten Kayong Utara, Kalimantan Barat",KALIMANTAN BARAT,,Indonesia,,,,-1.0886384,110.3139064,https://maps.google.com/?cid=0x0:0x16319bfc60b2d208,
komplek housing,Pembangunan Perumahan,Agus House,"VX7C+325, Rantau Panjang, Kec. Simpang Hilir, Kabupaten Kayong Utara, Kalimantan Barat","Kabupaten Kayong Utara, Kalimantan Barat",KALIMANTAN BARAT,,Indonesia,,,,-1.1373679,109.9701168,https://maps.google.com/?cid=0x0:0x9cba4812a5f013d0,
komplek housing,komplek housing,EDI,"W3C4+PR5, Batu Bar., Kec. Simpang Hilir, Kabupaten Kayong Utara, Kalimantan Barat 78853","Batu Bar., Kec. Simpang Hilir, Kabupaten Kayong Utara",KALIMANTAN BARAT,78853.0,Indonesia,,,,-1.0782107,110.0571367,https://maps.google.com/?cid=0x0:0xcf2ff26049626171,
komplek housing,Komplek perumahan,Perumahan Ngah Arik,"RF63+G9G, Matan Jaya, Kec. Simpang Hilir, Kabupaten Kayong Utara, Kalimantan Barat","Kabupaten Kayong Utara, Kalimantan Barat",KALIMANTAN BARAT,,Indonesia,,,,-1.1886925,110.4534515,https://maps.google.com/?cid=0x0:0x98a8cd4e8ed1380c,
komplek housing,Pembangunan Perumahan,Dusun Pemocah,"46CM+CR, Lubuk Batu, Kec. Simpang Hilir, Kabupaten Kayong Utara, Kalimantan Barat","Kabupaten Kayong Utara, Kalimantan Barat",KALIMANTAN BARAT,,Indonesia,,,,-0.8790515,110.234527,https://maps.google.com/?cid=0x0:0xc22053b7639e8c3b,
komplek housing,Komplek perumahan,Perumahan g6 pak andi hardi,"254W+6V2, Lubuk Batu, Kec. Simpang Hilir, Kabupaten Kayong Utara, Kalimantan Barat","Kabupaten Kayong Utara, Kalimantan Barat",KALIMANTAN BARAT,,Indonesia,81257895906.0,,,-0.9944917,110.1971432,https://maps.google.com/?cid=0x0:0x1ab6a93623dae614,
komplek housing,Kompleks Bangunan Perusahaan,Komplek Perumahan Divisi 4 Mqbali2 PT.Cipta Usaha Sejati,"X696+69G, Desa, Lubuk Batu, Kec. Simpang Hilir, Kabupaten Kayong Utara, Kalimantan Barat 78853","Desa, Lubuk Batu, Kec. Simpang Hilir, Kabupaten Kayong Utara",KALIMANTAN BARAT,78853.0,Indonesia,,,,-1.0319379,110.210967,https://maps.google.com/?cid=0x0:0x8ce8961d1845582f,
komplek housing,Komplek perumahan,Rumah Pak M.Sani,"W395+RJ, Dusun Sepakat, RT.04/RW.002, Batu Bar., Kec. Simpang Hilir, Kabupaten Kayong Utara, Kalimantan Barat 78853","Dusun Sepakat, RT.04/RW.002, Batu Bar., Kec. Simpang Hilir, Kabupaten Kayong Utara",KALIMANTAN BARAT,78853.0,Indonesia,,,,-1.0804588,110.0591035,https://maps.google.com/?cid=0x0:0xcf166538d472f114,
komplek housing,Pembangunan Perumahan,Rumah karim,"WV5X+WMX, Pemangkat, Kec. Simpang Hilir, Kabupaten Kayong Utara, Kalimantan Barat","Kabupaten Kayong Utara, Kalimantan Barat",KALIMANTAN BARAT,,Indonesia,85804641637.0,,,-1.0901355,109.8992212,https://maps.google.com/?cid=0x0:0x769661e5597db3d3,
komplek housing,Komplek perumahan,"Salim, jum","W2JX+V87, Batu Bar., Kec. Simpang Hilir, Kabupaten Kayong Utara, Kalimantan Barat 78853","Batu Bar., Kec. Simpang Hilir, Kabupaten Kayong Utara",KALIMANTAN BARAT,78853.0,Indonesia,,,,-1.0669043,110.0484083,https://maps.google.com/?cid=0x0:0x5a0ae9afa33099a5,
komplek housing,Bed >>u0026 Breakfast,Fahruddin House,"VX69+V8J, Rantau Panjang, Kec. Simpang Hilir, Kabupaten Kayong Utara, Kalimantan Barat","Kabupaten Kayong Utara, Kalimantan Barat",KALIMANTAN BARAT,,Indonesia,,,,-1.1377806,109.9682676,https://maps.google.com/?cid=0x0:0xa0cfe96117a49752,
komplek housing,Komplek perumahan,R.Jusmadi,"VWR4+WFW, Pemangkat, Kec. Simpang Hilir, Kabupaten Kayong Utara, Kalimantan Barat 78853","Pemangkat, Kec. Simpang Hilir, Kabupaten Kayong Utara",KALIMANTAN BARAT,78853.0,Indonesia,,,,-1.1076402,109.9062091,https://maps.google.com/?cid=0x0:0x1e3920415389ee1b,
komplek housing,Komplek perumahan,Serabutan kuli bangunan.,"VX73+GFR, Jl. Provinsi, Rantau Panjang, Kec. Simpang Hilir, Kabupaten Kayong Utara, Kalimantan Barat 78853","Jl. Provinsi, Rantau Panjang, Kec. Simpang Hilir, Kabupaten Kayong Utara",KALIMANTAN BARAT,78853.0,Indonesia,,,,-1.1361997,109.9536543,https://maps.google.com/?cid=0x0:0x1f22ca1a2d5defac,
komplek housing,Pembangunan Perumahan,Rumah Wahyudi,"VXCH+M4F, Penjalaan Hilir, Kec. Simpang Hilir, Kabupaten Kayong Utara, Kalimantan Barat 78853","Penjalaan Hilir, Kec. Simpang Hilir, Kabupaten Kayong Utara",KALIMANTAN BARAT,78853.0,Indonesia,85697425260.0,,,-1.1283146,109.9777975,https://maps.google.com/?cid=0x0:0xb71b2b404202b019,
komplek housing,Komplek perumahan,Perumahan DIV1 Estate Sei. Pinang,"255G+MF2, Lubuk Batu, Kec. Simpang Hilir, Kabupaten Kayong Utara, Kalimantan Barat","Kabupaten Kayong Utara, Kalimantan Barat",KALIMANTAN BARAT,,Indonesia,,,,-0.9908562,110.1761434,https://maps.google.com/?cid=0x0:0xb5f5ab0d2669aa2f,
komplek housing,Komplek perumahan,Teni ( Ansori ),"WX7G+HV4, Medan Jaya, Kec. Simpang Hilir, Kabupaten Kayong Utara, Kalimantan Barat 78853","Medan Jaya, Kec. Simpang Hilir, Kabupaten Kayong Utara",KALIMANTAN BARAT,78853.0,Indonesia,,,,-1.0861237,109.9771879,https://maps.google.com/?cid=0x0:0x1f48a96318411854,
komplek housing,Gedung Apartemen,Jalan Gusti Room,"VXX6+9P2, Jalan Gusti Room, Telukmelano, Kec. Simpang Hilir, Kabupaten Kayong Utara, Kalimantan Barat 78853","Jalan Gusti Room, Telukmelano, Kec. Simpang Hilir, Kabupaten Kayong Utara",KALIMANTAN BARAT,78853.0,Indonesia,,,,-1.1016228,109.9617777,https://maps.google.com/?cid=0x0:0xea46ba80093dc91e,
komplek housing,Rumah Kayu,Rumah pak morhaban,"W735+439, Matan Jaya, Kec. Simpang Hilir, Kabupaten Kayong Utara, Kalimantan Barat","Kabupaten Kayong Utara, Kalimantan Barat",KALIMANTAN BARAT,,Indonesia,,,,-1.0965995,110.258607,https://maps.google.com/?cid=0x0:0x45484d1dfe6b125f,
komplek housing,komplek housing,Kec. Simpang Hilir,"Kabupaten Kayong Utara, Kalimantan Barat","Kabupaten Kayong Utara, Kalimantan Barat",KALIMANTAN BARAT,,Indonesia,,,,-1.0652462,110.2355647,https://maps.google.com/?cid=0x0:0x585b4e2bc0757da0,
komplek housing,komplek housing,rumah el,"VWVP+94, Nipah Kuning, Kec. Simpang Hilir, Kabupaten Kayong Utara, Kalimantan Barat","Kabupaten Kayong Utara, Kalimantan Barat",KALIMANTAN BARAT,,Indonesia,,,,-1.1065292,109.9352909,https://maps.google.com/?cid=0x0:0xf06c7d9af0a3d287,
komplek housing,Komplek perumahan,Rumah (Sabri dan Nurhayati),"VXM7+H5H, Rantau Panjang, Kec. Simpang Hilir, Kabupaten Kayong Utara, Kalimantan Barat 78853","Rantau Panjang, Kec. Simpang Hilir, Kabupaten Kayong Utara",KALIMANTAN BARAT,78853.0,Indonesia,,,,-1.1160625,109.9629844,https://maps.google.com/?cid=0x0:0x649dfa0303cac32c,
komplek housing,Pembangunan Perumahan,RUMAH NICO SETIAWAN,"VXJ6+GGR RUMAH NICO SETIAWAN, Jl. Provinsi, Rantau Panjang, Kec. Simpang Hilir, Kabupaten Kayong Utara, Kalimantan Barat 78853","Jl. Provinsi, Rantau Panjang, Kec. Simpang Hilir, Kabupaten Kayong Utara",KALIMANTAN BARAT,78853.0,Indonesia,,,,-1.1191302,109.9616802,https://maps.google.com/?cid=0x0:0xa58605606af36578,
komplek housing,Komplek perumahan,EGY ERIANSYAH,"VX66+3RV, Rantau Panjang, Kec. Simpang Hilir, Kabupaten Kayong Utara, Kalimantan Barat 78853","Rantau Panjang, Kec. Simpang Hilir, Kabupaten Kayong Utara",KALIMANTAN BARAT,78853.0,Indonesia,895326172115.0,,,-1.1387963,109.9625629,https://maps.google.com/?cid=0x0:0x5ad992fba1f283de,
komplek housing,Pembangunan Perumahan,Sinar timur,"W6MP+W64, Matan Jaya, Kec. Simpang Hilir, Kabupaten Kayong Utara, Kalimantan Barat 78853","Matan Jaya, Kec. Simpang Hilir, Kabupaten Kayong Utara",KALIMANTAN BARAT,78853.0,Indonesia,,,,-1.0652462,110.2355647,https://maps.google.com/?cid=0x0:0x4037621f4f85a872,
komplek housing,Komplek perumahan,tempat orang keren bang,"V2C6+RJR, Penjalaan Hilir, Kec. Simpang Hilir, Kabupaten Kayong Utara, Kalimantan Barat 78853","Penjalaan Hilir, Kec. Simpang Hilir, Kabupaten Kayong Utara",KALIMANTAN BARAT,78853.0,Indonesia,,,,-1.1279062,110.0113557,https://maps.google.com/?cid=0x0:0xc0bb0faa29bcc7db,
komplek housing,Komplek perumahan,rumah Jafar,"VXW3+3R3, Telukmelano, Kec. Simpang Hilir, Kabupaten Kayong Utara, Kalimantan Barat 78853","Telukmelano, Kec. Simpang Hilir, Kabupaten Kayong Utara",KALIMANTAN BARAT,78853.0,Indonesia,,,,-1.1048544,109.9545409,https://maps.google.com/?cid=0x0:0xd4d514e245548cc0,
komplek housing,komplek housing,Sukadana,"Sutera, Kec. Sukadana, Kabupaten Kayong Utara, Kalimantan Barat","Kabupaten Kayong Utara, Kalimantan Barat",KALIMANTAN BARAT,,Indonesia,,,,-1.236284,109.957603,https://maps.google.com/?cid=0x0:0xe15dbc8fcc9954a,
komplek housing,Pembangunan Perumahan,Perumahan Fathan Residence,"QXH7+976, Jl. Bhayangkara, Sutera, Kec. Sukadana, Kabupaten Kayong Utara, Kalimantan Barat 78852","Jl. Bhayangkara, Sutera, Kec. Sukadana, Kabupaten Kayong Utara",KALIMANTAN BARAT,78852.0,Indonesia,,,,-1.2214126,109.9634983,https://maps.google.com/?cid=0x0:0x3c87bbbf0095919f,
komplek housing,Komplek perumahan,Komplek Cahya Permata 4,"QX48+X4Q, Jl. Sei Mengkuang Gg. Intan Peramas, Pangkalan Buton, Kec. Sukadana, Kabupaten Kayong Utara, Kalimantan Barat 78852","Jl. Sei Mengkuang Gg. Intan Peramas, Pangkalan Buton, Kec. Sukadana, Kabupaten Kayong Utara",KALIMANTAN BARAT,78852.0,Indonesia,,,,-1.2425393,109.9653471,https://maps.google.com/?cid=0x0:0x7a36c52ff1045271,
komplek housing,Komplek perumahan,LaLa home,"XJM5+H66, Rantau Jaya Udik II, Kec. Sukadana, Kabupaten Lampung Timur, Lampung 34194","Rantau Jaya Udik II, Kec. Sukadana, Kabupaten Lampung Timur",KALIMANTAN BARAT,34194.0,Indonesia,,,,-5.0148013,105.6082315,https://maps.google.com/?cid=0x0:0xc2582e185e084951,
komplek housing,Komplek perumahan,Hadi Pasundan,"XHJV+5CP, Rantau Jaya Udik II, Kec. Sukadana, Kabupaten Lampung Timur, Lampung 34194","Rantau Jaya Udik II, Kec. Sukadana, Kabupaten Lampung Timur",KALIMANTAN BARAT,34194.0,Indonesia,,,,-5.0198159,105.5944494,https://maps.google.com/?cid=0x0:0x7ed8d4e8c0a0e43,
komplek housing,Komplek perumahan,Rumah Tinggal,"WGRV+8R7, Ps. Sukadana, Kec. Sukadana, Kabupaten Lampung Timur, Lampung 34194","Ps. Sukadana, Kec. Sukadana, Kabupaten Lampung Timur",KALIMANTAN BARAT,34194.0,Indonesia,,,,-5.0592056,105.5445512,https://maps.google.com/?cid=0x0:0x937edafa20a91c31,
komplek housing,Komplek perumahan,HOME,"XG6G+49X, Sukadana Ilir, Kec. Sukadana, Kabupaten Lampung Timur, Lampung 34194","Sukadana Ilir, Kec. Sukadana, Kabupaten Lampung Timur",KALIMANTAN BARAT,34194.0,Indonesia,,,,-5.0396634,105.5259724,https://maps.google.com/?cid=0x0:0x2718133a65f93651,
komplek housing,Asosiasi Teknisi Pelabuhan dan Kanal Jalan,Komplek Gang Kumpo,"XHQX+2FP, Rantau Jaya Udik II, Kec. Sukadana, Kabupaten Lampung Timur, Lampung 34194","Rantau Jaya Udik II, Kec. Sukadana, Kabupaten Lampung Timur",KALIMANTAN BARAT,34194.0,Indonesia,,,,-5.0124226,105.5986933,https://maps.google.com/?cid=0x0:0x21e196173438e4dd,
komplek housing,komplek housing,Rumah nisa ul/ado,"XG9F+W7W, Jl. Kiemas Putra, RT.01/RW.01, Sukadana Ilir, Kec. Sukadana, Kabupaten Lampung Timur, Lampung 34194","Jl. Kiemas Putra, RT.01/RW.01, Sukadana Ilir, Kec. Sukadana, Kabupaten Lampung Timur",KALIMANTAN BARAT,34194.0,Indonesia,,,,-5.029912,105.523157,https://maps.google.com/?cid=0x0:0xb24b8741374ab5ba,
komplek housing,Komplek perumahan,Rumah Ku,"XG7V+5VP, RT.003/RW.001, Sukadana Ilir, Kec. Sukadana, Kabupaten Lampung Timur, Lampung 34194","RT.003/RW.001, Sukadana Ilir, Kec. Sukadana, Kabupaten Lampung Timur",KALIMANTAN BARAT,34194.0,Indonesia,,,,-5.0369713,105.5447029,https://maps.google.com/?cid=0x0:0xa1bbb62d3f54c7c1,
komplek housing,Komplek perumahan,Rumahku k,"XG7J+6XW, Sukadana Ilir, Kec. Sukadana, Kabupaten Lampung Timur, Lampung 34194","Sukadana Ilir, Kec. Sukadana, Kabupaten Lampung Timur",KALIMANTAN BARAT,34194.0,Indonesia,,,,-5.0368859,105.5324649,https://maps.google.com/?cid=0x0:0xc776375fdead8944,
komplek housing,Pembangunan Perumahan,RUMAH SAYA,"VJV5+69X dusun 4 opak apik, Bumi Nabung Udik, Kec. Sukadana, Kabupaten Lampung Timur, Lampung 34194","Bumi Nabung Udik, Kec. Sukadana, Kabupaten Lampung Timur",KALIMANTAN BARAT,34194.0,Indonesia,,,,-5.1068793,105.6084953,https://maps.google.com/?cid=0x0:0x8345d63aec7618f7,
komplek housing,Perhimpunan Pengembang Perumahan,Rumah Gus basir,"XGQR+CJC, Muara Jaya, Kec. Sukadana, Kabupaten Lampung Timur, Lampung 34194","Muara Jaya, Kec. Sukadana, Kabupaten Lampung Timur",KALIMANTAN BARAT,34194.0,Indonesia,,,,-5.0114317,105.5415137,https://maps.google.com/?cid=0x0:0x445e1408e6d02858,
komplek housing,Pembangunan Perumahan,Hanifah aila varisha,"XHC8+G95, Surabaya Udik, Kec. Sukadana, Kabupaten Lampung Timur, Lampung 34194","Surabaya Udik, Kec. Sukadana, Kabupaten Lampung Timur",KALIMANTAN BARAT,34194.0,Indonesia,,,,-5.0291805,105.56642,https://maps.google.com/?cid=0x0:0x5d1c364d551b4866,
komplek housing,Komplek perumahan,rumah ku,"WGWQ+HW, Ps. Sukadana, Kec. Sukadana, Kabupaten Lampung Timur, Lampung 34194","Ps. Sukadana, Kec. Sukadana, Kabupaten Lampung Timur",KALIMANTAN BARAT,34194.0,Indonesia,,,,-5.0535901,105.5397759,https://maps.google.com/?cid=0x0:0x8b52c7278ff6ea50,
komplek housing,Perhimpunan Pengembang Perumahan,Umitha/ takim,"XGRQ+45X, Muara Jaya, Kec. Sukadana, Kabupaten Lampung Timur, Lampung 34194","Muara Jaya, Kec. Sukadana, Kabupaten Lampung Timur",KALIMANTAN BARAT,34194.0,Indonesia,,,,-5.0096255,105.5379704,https://maps.google.com/?cid=0x0:0xe43fa6027aafc10,
komplek housing,Komplek perumahan,Rumah SANDI YUDHA PRASETYA,"XG5W+JCC, Sukadana Ilir, Kec. Sukadana, Kabupaten Lampung Timur, Lampung 34194","Sukadana Ilir, Kec. Sukadana, Kabupaten Lampung Timur",KALIMANTAN BARAT,34194.0,Indonesia,,,,-5.0409367,105.5460261,https://maps.google.com/?cid=0x0:0xcb2640fddcf0e9e7,
komplek housing,Perumahan,Lishendrik,"WH9P+V4, Sukadana, Kec. Sukadana, Kabupaten Lampung Timur, Lampung 34194","Sukadana, Kec. Sukadana, Kabupaten Lampung Timur",KALIMANTAN BARAT,34194.0,Indonesia,81379778628.0,,,-5.0805829,105.5855056,https://maps.google.com/?cid=0x0:0x850876711f823e44,
komplek housing,Komplek perumahan,Fauzil Effendi,"WGQW+GJV, Jalan Laskar Ahmad Bastian, Ps. Sukadana, Kec. Sukadana, Kabupaten Lampung Timur, Lampung 34194","Jalan Laskar Ahmad Bastian, Ps. Sukadana, Kec. Sukadana, Kabupaten Lampung Timur",KALIMANTAN BARAT,34194.0,Indonesia,,,,-5.0611375,105.5465469,https://maps.google.com/?cid=0x0:0x70ce7c896d353f5d,
komplek housing,Komplek perumahan,Kampung Belimbing Pojok,"Jl. Radin Intan No.10, Sukadana, Kec. Sukadana, Kabupaten Lampung Timur, Lampung 34194","Sukadana, Kec. Sukadana, Kabupaten Lampung Timur",KALIMANTAN BARAT,34194.0,Indonesia,89620302981.0,,,-5.0807379,105.5824851,https://maps.google.com/?cid=0x0:0x99913236b7a1d01,
komplek housing,Komplek perumahan,Rumah Herman Wahyudi,"WH8P+C77, Jl. Radin Intan, Sukadana, Kec. Sukadana, Kabupaten Lampung Timur, Lampung 34194","Jl. Radin Intan, Sukadana, Kec. Sukadana, Kabupaten Lampung Timur",KALIMANTAN BARAT,34194.0,Indonesia,,,,-5.0840115,105.5857007,https://maps.google.com/?cid=0x0:0x133d64a9574a1fc0,
komplek housing,Komplek perumahan,Rumah Samsul Hidayah,"XHC7+86C, Surabaya Udik, Kec. Sukadana, Kabupaten Lampung Timur, Lampung 34194","Surabaya Udik, Kec. Sukadana, Kabupaten Lampung Timur",KALIMANTAN BARAT,34194.0,Indonesia,,,,-5.0301217,105.5635767,https://maps.google.com/?cid=0x0:0xad84dffe595cb2de,
komplek housing,,Komplek Villa Anugrah 2,"Villa Anugerah 2, Sutera, Kec. Sukadana, Kabupaten Kayong Utara, Kalimantan Barat 78852","Sutera, Kec. Sukadana, Kabupaten Kayong Utara",KALIMANTAN BARAT,78852.0,Indonesia,,,,-1.2226348,109.9634962,https://maps.google.com/?cid=0x0:0x917a2280d9979ac9,
komplek housing,Pembangunan Perumahan,Perumahan Villa Anugerah,"QXH7+VPC, Jl. Bhayangkara, Sutera, Kec. Sukadana, Kabupaten Kayong Utara, Kalimantan Barat 78852","Jl. Bhayangkara, Sutera, Kec. Sukadana, Kabupaten Kayong Utara",KALIMANTAN BARAT,78852.0,Indonesia,,,,-1.2203024,109.9642631,https://maps.google.com/?cid=0x0:0xb2b51884410bfe65,
komplek housing,komplek housing,Sukadana,"Sutera, Kec. Sukadana, Kabupaten Kayong Utara, Kalimantan Barat","Kabupaten Kayong Utara, Kalimantan Barat",KALIMANTAN BARAT,,Indonesia,,,,-1.236284,109.957603,https://maps.google.com/?cid=0x0:0xe15dbc8fcc9954a,
komplek housing,Komplek perumahan,Perum Permata Sukadana Regency,"QXH7+RPW, Sutera, Kec. Sukadana, Kabupaten Kayong Utara, Kalimantan Barat 78852","Sutera, Kec. Sukadana, Kabupaten Kayong Utara",KALIMANTAN BARAT,78852.0,Indonesia,,,,-1.2203909,109.9643308,https://maps.google.com/?cid=0x0:0x956785ef50d2e9e8,
komplek housing,Komplek perumahan,Komplek Cahya Permata 4,"QX48+X4Q, Jl. Sei Mengkuang Gg. Intan Peramas, Pangkalan Buton, Kec. Sukadana, Kabupaten Kayong Utara, Kalimantan Barat 78852","Jl. Sei Mengkuang Gg. Intan Peramas, Pangkalan Buton, Kec. Sukadana, Kabupaten Kayong Utara",KALIMANTAN BARAT,78852.0,Indonesia,,,,-1.2425393,109.9653471,https://maps.google.com/?cid=0x0:0x7a36c52ff1045271,
komplek housing,komplek housing,Sukadana,"Ps. Sukadana, Kec. Sukadana, Kabupaten Lampung Timur, Lampung","Kabupaten Lampung Timur, Lampung",KALIMANTAN BARAT,,Indonesia,,,,-5.0673,105.546303,https://maps.google.com/?cid=0x0:0x981aaec4da459d49,
komplek housing,Komplek perumahan,Bumi Ma Icih,"PCHC+Q58, Salakaria, Kec. Sukadana, Kabupaten Ciamis, Jawa Barat 46272","Salakaria, Kec. Sukadana, Kabupaten Ciamis",KALIMANTAN BARAT,46272.0,Indonesia,,,,-7.2705998,108.4204571,https://maps.google.com/?cid=0x0:0xe53ffc3c89ae6b00,
komplek housing,Pusat Perbelanjaan,PJ BUAH,"MCWV+C97, Ciparigi, Kec. Sukadana, Kabupaten Ciamis, Jawa Barat 46272","Ciparigi, Kec. Sukadana, Kabupaten Ciamis",KALIMANTAN BARAT,46272.0,Indonesia,,,,-7.3035023,108.4443109,https://maps.google.com/?cid=0x0:0x6eefe91222074075,
komplek housing,Komplek perumahan,Rumah Depi,"PCRW+XQW pasar donglal, Margaharja, Kec. Sukadana, Kabupaten Ciamis, Jawa Barat 46272","Margaharja, Kec. Sukadana, Kabupaten Ciamis",KALIMANTAN BARAT,46272.0,Indonesia,,,,-7.2572221,108.4470585,https://maps.google.com/?cid=0x0:0x17f1e775863c2be6,
komplek housing,Komplek perumahan,Rumah Jaja asturi,"QC6J+P6W, Margajaya, Kec. Sukadana, Kabupaten Ciamis, Jawa Barat 46272","Margajaya, Kec. Sukadana, Kabupaten Ciamis",KALIMANTAN BARAT,46272.0,Indonesia,82112992678.0,,,-7.2381314,108.430572,https://maps.google.com/?cid=0x0:0x998485761ace7841,
komplek housing,Komplek perumahan,Andang Supriadi House,"PCJH+657, Jl. Cisena Kp. Hilir, RT.03/RW.01, Salakaria, Kec. Sukadana, Kabupaten Ciamis, Jawa Barat 46272","Jl. Cisena Kp. Hilir, RT.03/RW.01, Salakaria, Kec. Sukadana, Kabupaten Ciamis",KALIMANTAN BARAT,46272.0,Indonesia,,,,-7.2694649,108.427932,https://maps.google.com/?cid=0x0:0xffc472621b90c79e,
komplek housing,Komplek perumahan,Otong Surwa,"PCFX+2QR, Dusun cariu, Sukadana, Kec. Sukadana, Kabupaten Ciamis, Jawa Barat 46272","Dusun cariu, Sukadana, Kec. Sukadana, Kabupaten Ciamis",KALIMANTAN BARAT,46272.0,Indonesia,,,,-7.2772146,108.4497061,https://maps.google.com/?cid=0x0:0xb1738ae0579d2828,
komplek housing,Komplek perumahan,Rancagubar,"PFR3+68R, Margaharja, Kec. Sukadana, Kabupaten Ciamis, Jawa Barat 46272","Margaharja, Kec. Sukadana, Kabupaten Ciamis",KALIMANTAN BARAT,46272.0,Indonesia,,,,-7.2593892,108.4532622,https://maps.google.com/?cid=0x0:0x4f8da63b706a86f0,
komplek housing,Pembangunan Perumahan,Cengkrong (kampung bojong jaya),"Dsn. Cikondang No.05/05, Bunter, Kec. Sukadana, Kabupaten Ciamis, Jawa Barat 46272","Bunter, Kec. Sukadana, Kabupaten Ciamis",KALIMANTAN BARAT,46272.0,Indonesia,,,,-7.2638239,108.4832047,https://maps.google.com/?cid=0x0:0xc5fba59f62d51e4f,
komplek housing,Komplek perumahan,Rumah ocha,"PCRV+GQW, Jl. Raya Ciilat, Sukadana, Kec. Sukadana, Kabupaten Ciamis, Jawa Barat 46272","Jl. Raya Ciilat, Sukadana, Kec. Sukadana, Kabupaten Ciamis",KALIMANTAN BARAT,46272.0,Indonesia,,,,-7.2586279,108.4444376,https://maps.google.com/?cid=0x0:0xab0e617478c88c68,
komplek housing,Perhimpunan Pengembang Perumahan,Rumah Abdil,"XHPW+GRM, Dusun 2, RT.04/RW.02, Rantau Jaya Udik II, Kec. Sukadana, Kabupaten Lampung Timur, Lampung","Kabupaten Lampung Timur, Lampung",KALIMANTAN BARAT,,Indonesia,,,,-5.0136629,105.5970482,https://maps.google.com/?cid=0x0:0x44f50f6d5f20d1de,
komplek housing,komplek housing,Sukadana,"Sutera, Kec. Sukadana, Kabupaten Kayong Utara, Kalimantan Barat","Kabupaten Kayong Utara, Kalimantan Barat",KALIMANTAN BARAT,,Indonesia,,,,-1.236284,109.957603,https://maps.google.com/?cid=0x0:0xe15dbc8fcc9954a,
komplek housing,,Komplek Villa Anugrah 2,"Villa Anugerah 2, Sutera, Kec. Sukadana, Kabupaten Kayong Utara, Kalimantan Barat 78852","Sutera, Kec. Sukadana, Kabupaten Kayong Utara",KALIMANTAN BARAT,78852.0,Indonesia,,,,-1.2226348,109.9634962,https://maps.google.com/?cid=0x0:0x917a2280d9979ac9,
komplek housing,Pembangunan Perumahan,Komplek Pemda,"QXM8+JHP, Sitegar, Sutera, Kec. Sukadana, Kabupaten Kayong Utara, Kalimantan Barat 78852","Sitegar, Sutera, Kec. Sukadana, Kabupaten Kayong Utara",KALIMANTAN BARAT,78852.0,Indonesia,,,,-1.2159163,109.9664454,https://maps.google.com/?cid=0x0:0x24bed7e3d19fbe3c,
komplek housing,Komplek perumahan,Lingkup totok,"QX75+F2Q, Sutera, Kec. Sukadana, Kabupaten Kayong Utara, Kalimantan Barat","Kabupaten Kayong Utara, Kalimantan Barat",KALIMANTAN BARAT,,Indonesia,,,,-1.236284,109.957603,https://maps.google.com/?cid=0x0:0xab729690e5066536,
komplek housing,Komplek perumahan,Rumah Serli,"005, RT.002, Sukadana","Kabupaten Kayong Utara, Kalimantan Barat",KALIMANTAN BARAT,,Indonesia,,,,-1.236284,109.957603,https://maps.google.com/?cid=0x0:0x3218e3f80de1df31,
komplek housing,Komplek perumahan,Sukadana selatan,"Sukadana selatan rt12, rw11","Kabupaten Kayong Utara, Kalimantan Barat",KALIMANTAN BARAT,,Indonesia,,,,-1.236284,109.957603,https://maps.google.com/?cid=0x0:0x40c16a5d1bbb4973,
komplek housing,Pembangunan Perumahan,Rumah Aki Sakri Pakih,"Sukadana Ciparay, Sutera, Kec. Sukadana, Kabupaten Kayong Utara, Kalimantan Barat","Kabupaten Kayong Utara, Kalimantan Barat",KALIMANTAN BARAT,,Indonesia,,,,-1.236284,109.957603,https://maps.google.com/?cid=0x0:0xa3132bb88f7bd4ca,
komplek housing,Komplek perumahan,Rumah edi yanto,"QX75+F2Q, Jalan ketapang sukadana, RT.9 rw3, Sutera, kecamatan matan hilir utara, Kabupaten Ketapang, Kalimantan Barat","Kabupaten Ketapang, Kalimantan Barat",KALIMANTAN BARAT,,Indonesia,,,,-1.236284,109.957603,https://maps.google.com/?cid=0x0:0xf238fd0f57226f37,
komplek housing,Pembangunan Perumahan,Perumahan Fathan Residence,"QXH7+976, Jl. Bhayangkara, Sutera, Kec. Sukadana, Kabupaten Kayong Utara, Kalimantan Barat 78852","Jl. Bhayangkara, Sutera, Kec. Sukadana, Kabupaten Kayong Utara",KALIMANTAN BARAT,78852.0,Indonesia,,,,-1.2214126,109.9634983,https://maps.google.com/?cid=0x0:0x3c87bbbf0095919f,
komplek housing,Perumahan,Perumahan Sukajaya Darat Lempasing,"Gg. Tl Pandan V BLOG G NO 23, Sukajaya Lempasing, Kec. Telukbetung Timur, Kota Bandar Lampung, Lampung 35224","Sukajaya Lempasing, Kec. Telukbetung Timur, Kota Bandar Lampung",KALIMANTAN BARAT,35224.0,Indonesia,,,,-5.4983485,105.2497741,https://maps.google.com/?cid=0x0:0xee89afeb9a7aa5fa,
komplek housing,komplek housing,Tlk. Batang Utara,"Kec. Tlk. Batang, Kabupaten Kayong Utara, Kalimantan Barat","Kabupaten Kayong Utara, Kalimantan Barat",KALIMANTAN BARAT,,Indonesia,,,,-0.9647983,109.7532148,https://maps.google.com/?cid=0x0:0xd062c003aa8cf4df,
komplek housing,komplek housing,Kalimantan Barat 78856,"Kabupaten Kayong Utara, Kalimantan Barat","Kabupaten Kayong Utara, Kalimantan Barat",KALIMANTAN BARAT,,Indonesia,,,,-0.9599724,109.8067916,https://maps.google.com/?cid=0x0:0x5100d67ecbc43c,
komplek housing,Komplek perumahan,SAHARI,"3Q52+7HX, MAS Bangun, Kec. Tlk. Batang, Kabupaten Kayong Utara, Kalimantan Barat 78856","MAS Bangun, Kec. Tlk. Batang, Kabupaten Kayong Utara",KALIMANTAN BARAT,78856.0,Indonesia,,,,-0.9417566,109.7514761,https://maps.google.com/?cid=0x0:0x21c300a50f02c038,
komplek housing,Komplek perumahan,Rmh pak junus,"2QJ3+M8M, Tlk. Batang Utara, Kec. Tlk. Batang, Kabupaten Kayong Utara, Kalimantan Barat 78856","Tlk. Batang Utara, Kec. Tlk. Batang, Kabupaten Kayong Utara",KALIMANTAN BARAT,78856.0,Indonesia,,,,-0.9682954,109.7533025,https://maps.google.com/?cid=0x0:0xb226a9be83b5a03f,
komplek housing,komplek housing,Marta fashion,,,KALIMANTAN BARAT,,Indonesia,81314548458.0,,,-1.2719845,110.0952964,https://maps.google.com/?cid=0x0:0x264144255f6ce5fe,
komplek housing,Komplek perumahan,Gubuk Suhardiansyah Residence,"2Q5F+79G, Tlk. Batang Sel., Kec. Tlk. Batang, Kabupaten Kayong Utara, Kalimantan Barat 78856","Tlk. Batang Sel., Kec. Tlk. Batang, Kabupaten Kayong Utara",KALIMANTAN BARAT,78856.0,Indonesia,,,,-0.9918079,109.7734614,https://maps.google.com/?cid=0x0:0x51b27720739d572f,
komplek housing,Komplek perumahan,Rumah Pak Daim,"2Q7F+JW2, Tlk. Batang, Kec. Tlk. Batang, Kabupaten Kayong Utara, Kalimantan Barat 78856","Tlk. Batang, Kec. Tlk. Batang, Kabupaten Kayong Utara",KALIMANTAN BARAT,78856.0,Indonesia,,,,-0.9859498,109.7747908,https://maps.google.com/?cid=0x0:0x96eb047751dad377,
komplek housing,Gedung Apartemen,Rumah Eko Gunawan,"2QJ3+344, Wak Labuk Road, Tlk. Batang Utara, Kec. Tlk. Batang, Kabupaten Kayong Utara, Kalimantan Barat 78856","Wak Labuk Road, Tlk. Batang Utara, Kec. Tlk. Batang, Kabupaten Kayong Utara",KALIMANTAN BARAT,78856.0,Indonesia,,,,-0.9685706,109.752445,https://maps.google.com/?cid=0x0:0xce9db146ce7bf77e,
komplek housing,Komplek perumahan,Rumah Rabuansyah,"2Q4Q+G75, Tlk. Batang Sel., Kec. Tlk. Batang, Kabupaten Kayong Utara, Kalimantan Barat 78856","Tlk. Batang Sel., Kec. Tlk. Batang, Kabupaten Kayong Utara",KALIMANTAN BARAT,78856.0,Indonesia,,,,-0.9937422,109.788249,https://maps.google.com/?cid=0x0:0x5ece74c09685663d,
komplek housing,Perhimpunan Pengembang Perumahan,Rumah Serahat,"2PWW+85V, MAS Bangun, Kec. Tlk. Batang, Kabupaten Kayong Utara, Kalimantan Barat 78856","MAS Bangun, Kec. Tlk. Batang, Kabupaten Kayong Utara",KALIMANTAN BARAT,78856.0,Indonesia,,,,-0.9541269,109.745431,https://maps.google.com/?cid=0x0:0x4119757731d2f4e3,
komplek housing,Gedung Apartemen,RUMAH Ammar,"2QC5+WHP, Tlk. Batang Utara, Kec. Tlk. Batang, Kabupaten Kayong Utara, Kalimantan Barat 78856","Tlk. Batang Utara, Kec. Tlk. Batang, Kabupaten Kayong Utara",KALIMANTAN BARAT,78856.0,Indonesia,,,,-0.9776563,109.7589504,https://maps.google.com/?cid=0x0:0x4a9576324b634fc9,
komplek housing,Komplek perumahan,Rindi,"3R8W+R2C, 3R8V+MPHJl. Arif Rahman, HakimBanyu Abang, Kec. Tlk. Batang, Kabupaten Kayong Utara, Kalimantan Barat 78856","3R8V+MPHJl. Arif Rahman, HakimBanyu Abang, Kec. Tlk. Batang, Kabupaten Kayong Utara",KALIMANTAN BARAT,78856.0,Indonesia,,,,-0.9329484,109.8450258,https://maps.google.com/?cid=0x0:0xe72317a22ee07ec2,
komplek housing,Komplek perumahan,Rawi Seman,"2Q69+QQ, Tlk. Batang, Kec. Tlk. Batang, Kabupaten Kayong Utara, Kalimantan Barat 78856","Tlk. Batang, Kec. Tlk. Batang, Kabupaten Kayong Utara",KALIMANTAN BARAT,78856.0,Indonesia,,,,-0.9877959,109.770336,https://maps.google.com/?cid=0x0:0xcbc2c2b38138b7ee,
komplek housing,Komplek perumahan,Rumah nya Yuda kayong,"2QF4+RW7, Tlk. Batang Utara, Kec. Tlk. Batang, Kabupaten Kayong Utara, Kalimantan Barat 78856","Tlk. Batang Utara, Kec. Tlk. Batang, Kabupaten Kayong Utara",KALIMANTAN BARAT,78856.0,Indonesia,,,,-0.9751062,109.7565344,https://maps.google.com/?cid=0x0:0xe40e6d7d2b01fa02,
komplek housing,Komplek perumahan,Perumahan Harapan Elok,"Perumahan Harapan Elok, Babelan Kota, Kec. Babelan, Kabupaten Bekasi, Jawa Barat 17610","Babelan Kota, Kec. Babelan, Kabupaten Bekasi",KALIMANTAN BARAT,17610.0,Indonesia,,,,-6.1609072,107.0361659,https://maps.google.com/?cid=0x0:0x1e74487fccc9de04,
perumahan,perumahan,Kepulauan Karimata,"Kabupaten Kayong Utara, Kalimantan Barat","Kabupaten Kayong Utara, Kalimantan Barat",KALIMANTAN BARAT,,Indonesia,,,,-1.6038919,108.9264524,https://maps.google.com/?cid=0x0:0xf5b6467328943c9c,
perumahan,Gedung Apartemen,telok depeh,"M4RQ+VJ, Pelapis, Kepulauan Karimata, Kabupaten Kayong Utara, Kalimantan Barat","Kabupaten Kayong Utara, Kalimantan Barat",KALIMANTAN BARAT,,Indonesia,,,,-1.3077564,109.139116,https://maps.google.com/?cid=0x0:0x4becbc5ecf5471aa,
perumahan,Komplek perumahan,Ujang belut,"9W6X+5V, Padang, Kepulauan Karimata, Kabupaten Kayong Utara, Kalimantan Barat 78855","Padang, Kepulauan Karimata, Kabupaten Kayong Utara",KALIMANTAN BARAT,78855.0,Indonesia,,,,-1.6395363,108.9496927,https://maps.google.com/?cid=0x0:0xfb7c8c9aa2b059f4,
perumahan,Komplek perumahan,T.Sarandjana,"P45R+PH4, Jln Tanjung Terong, Pelapis, Kepulauan Karimata, Kabupaten Kayong Utara, Kalimantan Barat 78855","Jln Tanjung Terong, Pelapis, Kepulauan Karimata, Kabupaten Kayong Utara",KALIMANTAN BARAT,78855.0,Indonesia,,,,-1.2907378,109.1414417,https://maps.google.com/?cid=0x0:0xb023f0e5cf4d8d34,
perumahan,Pemakaman,Eks Rumah Raja Karimata,"9X63+H66, Padang, Kepulauan Karimata, Kabupaten Kayong Utara, Kalimantan Barat 78855","Padang, Kepulauan Karimata, Kabupaten Kayong Utara",KALIMANTAN BARAT,78855.0,Indonesia,,,,-1.6386106,108.9531028,https://maps.google.com/?cid=0x0:0x8bb42b5125407e80,
perumahan,perumahan,"RGS Pak Asmaden, S.Pd.I.","P45R+PH4, Jln Tanjung Terong, Pelapis, Kepulauan Karimata, Kabupaten Kayong Utara, Kalimantan Barat 78855","Jln Tanjung Terong, Pelapis, Kepulauan Karimata, Kabupaten Kayong Utara",KALIMANTAN BARAT,78855.0,Indonesia,81345261550.0,,,-1.2913508,109.1413127,https://maps.google.com/?cid=0x0:0xeb27a1c93efd39e8,
perumahan,perumahan,Rmh pak bujang tukang.,"9X63+C2M, Padang, Kec. Pulau Maya Karimata, Kabupaten Kayong Utara, Kalimantan Barat 78855","Padang, Kec. Pulau Maya Karimata, Kabupaten Kayong Utara",KALIMANTAN BARAT,78855.0,Indonesia,,,,-1.6392099,108.9514452,https://maps.google.com/?cid=0x0:0x7d49afa60531c563,
perumahan,Pembangunan Perumahan,Mess DIB,"Q6HG+FV2, Pelapis, Kepulauan Karimata, Kabupaten Kayong Utara, Kalimantan Barat 78855","Pelapis, Kepulauan Karimata, Kabupaten Kayong Utara",KALIMANTAN BARAT,78855.0,Indonesia,,,,-1.2209671,109.2277147,https://maps.google.com/?cid=0x0:0x23d40c6dcacc0a47,
perumahan,Balai masyarakat,Bayu pratama amalo,"9V6C+9M2, Betok Jaya, Kepulauan Karimata, Kabupaten Kayong Utara, Kalimantan Barat","Kabupaten Kayong Utara, Kalimantan Barat",KALIMANTAN BARAT,,Indonesia,,,,-1.6391227,108.8716407,https://maps.google.com/?cid=0x0:0x30fdacedc9a043c2,
perumahan,Pusat Kesehatan Masyarakat,Pustu Padang,"9X63+C6M, Padang, Kec. Pulau Maya Karimata, Kabupaten Kayong Utara, Kalimantan Barat 78855","Padang, Kec. Pulau Maya Karimata, Kabupaten Kayong Utara",KALIMANTAN BARAT,78855.0,Indonesia,,,,-1.6389247,108.9530384,https://maps.google.com/?cid=0x0:0x6e6d18233ef9abba,
perumahan,perumahan,Homestay bertuah,"8WR8+Q9, Padang, Kabupaten Kayong Utara, Kalimantan Barat","Kabupaten Kayong Utara, Kalimantan Barat",KALIMANTAN BARAT,,Indonesia,,,,-1.6580917,108.9159467,https://maps.google.com/?cid=0x0:0x774219e5e1177119,
perumahan,Kantor Pemerintah Distrik,Penginapan Desa Betok Jaya,"CQ9X+2HM, Betok Jaya, Kepulauan Karimata, Kabupaten Kayong Utara, Kalimantan Barat","Kabupaten Kayong Utara, Kalimantan Barat",KALIMANTAN BARAT,,Indonesia,,,,-1.5824094,108.7989355,https://maps.google.com/?cid=0x0:0x882afc9c0ea99f84,
perumahan,perumahan,CANCERTOTO,,,KALIMANTAN BARAT,,Indonesia,81324844324.0,,,-2.44565,117.8888,https://maps.google.com/?cid=0x0:0x7b65c54c4ead01e9,
perumahan,perumahan,Tempat ila laela beranak,"CPGP+G8, Betok Jaya, Kepulauan Karimata, Kabupaten Kayong Utara, Kalimantan Barat","Kabupaten Kayong Utara, Kalimantan Barat",KALIMANTAN BARAT,,Indonesia,,,,-1.5737351,108.7358734,https://maps.google.com/?cid=0x0:0x2971d2fb4df61bdc,
perumahan,perumahan,Darmaga padang,"8WRF+HXR, Padang, Kabupaten Ketapang, Kalimantan Barat","Kabupaten Ketapang, Kalimantan Barat",KALIMANTAN BARAT,,Indonesia,,,,-1.658525,108.9248933,https://maps.google.com/?cid=0x0:0x6e326426a960a785,
perumahan,perumahan,Kalimantan Barat 78855,"Kec. Pulau Maya Karimata, Kabupaten Kayong Utara, Kalimantan Barat","Kabupaten Kayong Utara, Kalimantan Barat",KALIMANTAN BARAT,,Indonesia,,,,-1.1787347,109.5211063,https://maps.google.com/?cid=0x0:0x3e6c33c008ec2445,
perumahan,Komplek perumahan,Sungai Lumpur,"XFV9+R9M Sungai Lumpur, Dusun Kecil, Kec. Pulau Maya Karimata, Kabupaten Kayong Utara, Kalimantan Barat 78855","Dusun Kecil, Kec. Pulau Maya Karimata, Kabupaten Kayong Utara",KALIMANTAN BARAT,78855.0,Indonesia,,,,-1.0052032,109.4682975,https://maps.google.com/?cid=0x0:0x1d1713b7678844c5,
perumahan,perumahan,Kec. Pulau Maya Karimata,"Kabupaten Kayong Utara, Kalimantan Barat","Kabupaten Kayong Utara, Kalimantan Barat",KALIMANTAN BARAT,,Indonesia,,,,-1.1055975,109.6163185,https://maps.google.com/?cid=0x0:0x99312b2806aba86b,
perumahan,Komplek perumahan,Tarans,"QMX8+XMV, Tj. Satai, Kec. Pulau Maya Karimata, Kabupaten Kayong Utara, Kalimantan Barat","Kabupaten Kayong Utara, Kalimantan Barat",KALIMANTAN BARAT,,Indonesia,,,,-1.2,109.666667,https://maps.google.com/?cid=0x0:0xc9354ede06ee7e78,
perumahan,Komplek perumahan,Rumah maya dan sabrina,"XQCG+WR2, Alur Bandung, Kec. Tlk. Batang, Kabupaten Kayong Utara, Kalimantan Barat 78856","Alur Bandung, Kec. Tlk. Batang, Kabupaten Kayong Utara",KALIMANTAN BARAT,78856.0,Indonesia,,,,-1.0277429,109.7770261,https://maps.google.com/?cid=0x0:0xa4fa847808b79e05,
perumahan,Pembangunan Perumahan,AFFAN HOUSE,"RMXP+5P, Satai Lestari, Kec. Pulau Maya Karimata, Kabupaten Kayong Utara, Kalimantan Barat","Kabupaten Kayong Utara, Kalimantan Barat",KALIMANTAN BARAT,,Indonesia,,,,-1.1520887,109.6868546,https://maps.google.com/?cid=0x0:0xb0457f7908f4b7ce,
perumahan,Komplek perumahan,rumah cik as,"RPVW+Q32, Kemboja, Kec. Pulau Maya Karimata, Kabupaten Kayong Utara, Kalimantan Barat","Kabupaten Kayong Utara, Kalimantan Barat",KALIMANTAN BARAT,,Indonesia,,,,-1.1543333,109.7468333,https://maps.google.com/?cid=0x0:0xd8e8d19e4268a22f,
perumahan,Komplek perumahan,rumah badar,"VJV8+QG8, Satai Lestari, Kec. Pulau Maya Karimata, Kabupaten Kayong Utara, Kalimantan Barat 78855","Satai Lestari, Kec. Pulau Maya Karimata, Kabupaten Kayong Utara",KALIMANTAN BARAT,78855.0,Indonesia,,,,-1.1055975,109.6163185,https://maps.google.com/?cid=0x0:0x61f4bfaf0f4f717d,
perumahan,perumahan,Pulau Maja,"Tj. Satai, Kec. Pulau Maya Karimata, Kabupaten Kayong Utara, Kalimantan Barat","Kabupaten Kayong Utara, Kalimantan Barat",KALIMANTAN BARAT,,Indonesia,,,,-1.1666667,109.5833333,https://maps.google.com/?cid=0x0:0x5b5768fe20598843,
perumahan,Komplek perumahan,Rumah Busaman,"QMPM+7PQ, Tj. Satai, Kec. Pulau Maya Karimata, Kabupaten Kayong Utara, Kalimantan Barat","Kabupaten Kayong Utara, Kalimantan Barat",KALIMANTAN BARAT,,Indonesia,,,,-1.2142971,109.6843716,https://maps.google.com/?cid=0x0:0x29b435e5b5510977,
perumahan,Komplek perumahan,Rumah tinggal,"RPF5+GF, Satai Lestari, Kec. Pulau Maya Karimata, Kabupaten Kayong Utara, Kalimantan Barat","Kabupaten Kayong Utara, Kalimantan Barat",KALIMANTAN BARAT,,Indonesia,,,,-1.1761757,109.7086948,https://maps.google.com/?cid=0x0:0xd0f765d3eef22a82,
perumahan,Komplek perumahan,Rumah Samili,"RPP9+9XM, Kemboja, Kec. Pulau Maya Karimata, Kabupaten Kayong Utara, Kalimantan Barat","Kabupaten Kayong Utara, Kalimantan Barat",KALIMANTAN BARAT,,Indonesia,,,,-1.1640452,109.7199303,https://maps.google.com/?cid=0x0:0xd965874904eb86dd,
perumahan,Komplek perumahan,Rumah ferry,"RMFV+65Q, Dusun tanjung harapan desa, Tj. Satai, Kec. Pulau Maya Karimata, Kabupaten Kayong Utara, Kalimantan Barat 78858","Dusun tanjung harapan desa, Tj. Satai, Kec. Pulau Maya Karimata, Kabupaten Kayong Utara",KALIMANTAN BARAT,78858.0,Indonesia,,,,-1.176348,109.693672,https://maps.google.com/?cid=0x0:0x708e5e052855dcde,
perumahan,Komplek perumahan,Rumah pak ngah man,"QMQH+CR7, Tj. Satai, Kec. Pulau Maya Karimata, Kabupaten Kayong Utara, Kalimantan Barat 78855","Tj. Satai, Kec. Pulau Maya Karimata, Kabupaten Kayong Utara",KALIMANTAN BARAT,78855.0,Indonesia,,,,-1.2114484,109.6801564,https://maps.google.com/?cid=0x0:0xc7cbfe91492810a,
perumahan,Restoran,Satai,"QMX8+XMV, Tj. Satai, Kec. Pulau Maya Karimata, Kabupaten Kayong Utara, Kalimantan Barat 78855","Tj. Satai, Kec. Pulau Maya Karimata, Kabupaten Kayong Utara",KALIMANTAN BARAT,78855.0,Indonesia,,,,-1.2,109.666667,https://maps.google.com/?cid=0x0:0x3de5a53007f5c0f4,
perumahan,Komplek perumahan,Rumah Arell,"VP4P+PM, Kemboja, Kec. Pulau Maya Karimata, Kabupaten Kayong Utara, Kalimantan Barat","Kabupaten Kayong Utara, Kalimantan Barat",KALIMANTAN BARAT,,Indonesia,,,,-1.1432177,109.736746,https://maps.google.com/?cid=0x0:0xeac2efed64fb584,
perumahan,Komplek perumahan,Rmh oky,"RMVM+C2F, Satai Lestari, Kec. Pulau Maya Karimata, Kabupaten Kayong Utara, Kalimantan Barat 78855","Satai Lestari, Kec. Pulau Maya Karimata, Kabupaten Kayong Utara",KALIMANTAN BARAT,78855.0,Indonesia,,,,-1.1564367,109.6825437,https://maps.google.com/?cid=0x0:0xb7972fd3aaba946e,
perumahan,Masjid,WISMA SEJUTA KENANGAN,"VFW6+XP8, Dusun Besar, Kec. Pulau Maya Karimata, Kabupaten Kayong Utara, Kalimantan Barat 78855","Dusun Besar, Kec. Pulau Maya Karimata, Kabupaten Kayong Utara",KALIMANTAN BARAT,78855.0,Indonesia,,,,-1.1034255,109.4617742,https://maps.google.com/?cid=0x0:0x844c1d5f37a6907,
perumahan,perumahan,Rumah pakndak,"RQX2+6C4, Kemboja, Kec. Pulau Maya Karimata, Kabupaten Kayong Utara, Kalimantan Barat","Kabupaten Kayong Utara, Kalimantan Barat",KALIMANTAN BARAT,,Indonesia,,,,-1.1519898,109.7510727,https://maps.google.com/?cid=0x0:0x30d55614d05017b,
perumahan,Kantor Perusahaan,Rumah muhammad Yusuf,"VP4Q+42, Kemboja, Kec. Pulau Maya Karimata, Kabupaten Kayong Utara, Kalimantan Barat","Kabupaten Kayong Utara, Kalimantan Barat",KALIMANTAN BARAT,,Indonesia,,,,-1.1447114,109.7375607,https://maps.google.com/?cid=0x0:0x6655e65c73eae984,
perumahan,Pembangunan Perumahan,RUMAH KEPALA DUSUN SUKAMAJU,"VP5P+M7, Kemboja, Kec. Pulau Maya Karimata, Kabupaten Kayong Utara, Kalimantan Barat","Kabupaten Kayong Utara, Kalimantan Barat",KALIMANTAN BARAT,,Indonesia,,,,-1.1408331,109.7356343,https://maps.google.com/?cid=0x0:0x2b79852dc13e5a8f,
perumahan,Komplek perumahan,Tanah Randi. A,"QMPM+978, Tj. Satai, Kec. Pulau Maya Karimata, Kabupaten Kayong Utara, Kalimantan Barat 78855","Tj. Satai, Kec. Pulau Maya Karimata, Kabupaten Kayong Utara",KALIMANTAN BARAT,78855.0,Indonesia,,,,-1.2140929,109.6832108,https://maps.google.com/?cid=0x0:0x227492acc692703e,
perumahan,Komplek perumahan,Rumah pak MARHADI,"QMQJ+8FP, Tj. Satai, Kec. Pulau Maya Karimata, Kabupaten Kayong Utara, Kalimantan Barat 78855","Tj. Satai, Kec. Pulau Maya Karimata, Kabupaten Kayong Utara",KALIMANTAN BARAT,78855.0,Indonesia,,,,-1.2120821,109.6806224,https://maps.google.com/?cid=0x0:0x85b15c7d1a6b3b0f,
perumahan,Komplek perumahan,Rumah paklang mus,"QMQJ+4MM, Tj. Satai, Kec. Pulau Maya Karimata, Kabupaten Kayong Utara, Kalimantan Barat 78855","Tj. Satai, Kec. Pulau Maya Karimata, Kabupaten Kayong Utara",KALIMANTAN BARAT,78855.0,Indonesia,,,,-1.2122337,109.6816301,https://maps.google.com/?cid=0x0:0x29b8eefe07f02592,
perumahan,perumahan,Kalimantan Barat 78857,"Kabupaten Kayong Utara, Kalimantan Barat","Kabupaten Kayong Utara, Kalimantan Barat",KALIMANTAN BARAT,,Indonesia,,,,-0.8152171,109.9973244,https://maps.google.com/?cid=0x0:0xa089fb64937c19df,
perumahan,Komplek perumahan,Perumahan Guru SMA,"6W4M+MR5, Durian Sebatang, Kec. Seponti, Kabupaten Kayong Utara, Kalimantan Barat 78857","Durian Sebatang, Kec. Seponti, Kabupaten Kayong Utara",KALIMANTAN BARAT,78857.0,Indonesia,,,,-0.7928293,109.9352979,https://maps.google.com/?cid=0x0:0x9003535f59bb0cac,
perumahan,Pembangunan Perumahan,Perumahan,"6WCQ+P4C, Durian Sebatang, Kec. Seponti, Kabupaten Kayong Utara, Kalimantan Barat","Kabupaten Kayong Utara, Kalimantan Barat",KALIMANTAN BARAT,,Indonesia,,,,-0.7771181,109.9375999,https://maps.google.com/?cid=0x0:0xcee3af19d49ac187,
perumahan,Pembangunan Perumahan,My home,"4RHQ+9GQ, Seponti Jaya, Kec. Seponti, Kabupaten Kayong Utara, Kalimantan Barat 78857","Seponti Jaya, Kec. Seponti, Kabupaten Kayong Utara",KALIMANTAN BARAT,78857.0,Indonesia,,,,-0.8711246,109.8393638,https://maps.google.com/?cid=0x0:0x892a4dcf2a02b678,
perumahan,Komplek perumahan,Rumah Sonia,"4VMJ+MX3, Sungai Sepeti, Kec. Seponti, Kabupaten Kayong Utara, Kalimantan Barat 78857","Sungai Sepeti, Kec. Seponti, Kabupaten Kayong Utara",KALIMANTAN BARAT,78857.0,Indonesia,,,,-0.8655528,109.8827678,https://maps.google.com/?cid=0x0:0xc4273ad00764216b,
perumahan,Komplek perumahan,Pak Nasirin,"4RPM+95G, Komplek Pasar, Jl. Tanjung Pura, Seponti Jaya, Kec. Seponti, Kabupaten Kayong Utara, Kalimantan Barat 78856","Komplek Pasar, Jl. Tanjung Pura, Seponti Jaya, Kec. Seponti, Kabupaten Kayong Utara",KALIMANTAN BARAT,78856.0,Indonesia,,,,-0.8640625,109.8329375,https://maps.google.com/?cid=0x0:0x8f4c00a0c49187d4,
perumahan,Perhimpunan Pengembang Perumahan,Kosim Sim,"RT 01, RT.01/RW.1, Seponti Jaya, Kec. Seponti, Kabupaten Kayong Utara, Kalimantan Barat 78857","RT.01/RW.1, Seponti Jaya, Kec. Seponti, Kabupaten Kayong Utara",KALIMANTAN BARAT,78857.0,Indonesia,,,,-0.8589976,109.8308966,https://maps.google.com/?cid=0x0:0x809f42fd583e4e03,
perumahan,Komplek perumahan,Rumah sartunah,"4VQM+PG3 Paket 6 tr 7a, Sungai Sepeti, Kec. Seponti, Kabupaten Kayong Utara, Kalimantan Barat 78857","Sungai Sepeti, Kec. Seponti, Kabupaten Kayong Utara",KALIMANTAN BARAT,78857.0,Indonesia,,,,-0.8607307,109.8837891,https://maps.google.com/?cid=0x0:0x95954db787788295,
perumahan,Pembangunan Perumahan,Yudi mex,"3RV3+3P, Podo Rukun, Kec. Seponti, Kabupaten Kayong Utara, Kalimantan Barat","Kabupaten Kayong Utara, Kalimantan Barat",KALIMANTAN BARAT,,Indonesia,,,,-0.9074918,109.8035146,https://maps.google.com/?cid=0x0:0xdd3959a5d08be3d8,
perumahan,Komplek perumahan,Rumah bp. Aciap,"6WPR+57, Durian Sebatang, Kec. Seponti, Kabupaten Kayong Utara, Kalimantan Barat","Kabupaten Kayong Utara, Kalimantan Barat",KALIMANTAN BARAT,,Indonesia,,,,-0.7647567,109.9410746,https://maps.google.com/?cid=0x0:0xf586a578b74ec706,
perumahan,Komplek perumahan,dee,"4RHQ+GPX, Seponti Jaya, Kec. Seponti, Kabupaten Kayong Utara, Kalimantan Barat 78857","Seponti Jaya, Kec. Seponti, Kabupaten Kayong Utara",KALIMANTAN BARAT,78857.0,Indonesia,,,,-0.8711375,109.8393594,https://maps.google.com/?cid=0x0:0x8263c69afee19078,
perumahan,Perhimpunan Pengembang Perumahan,Kosim Ranubaya,"5R2C+M96, Unnamed Road, Seponti Jaya, Kec. Seponti, Kabupaten Kayong Utara, Kalimantan Barat 78857","Unnamed Road, Seponti Jaya, Kec. Seponti, Kabupaten Kayong Utara",KALIMANTAN BARAT,78857.0,Indonesia,,,,-0.8483363,109.820899,https://maps.google.com/?cid=0x0:0xce2b19e4b8e14a0,
perumahan,Komplek perumahan,NFR,"4RQJ+F47, Seponti Jaya, Kec. Seponti, Kabupaten Kayong Utara, Kalimantan Barat","Kabupaten Kayong Utara, Kalimantan Barat",KALIMANTAN BARAT,,Indonesia,,,,-0.8613499,109.8302991,https://maps.google.com/?cid=0x0:0xdef225c1e5860869,
perumahan,Pembangunan Perumahan,Pak Rohani,"3RPG+HRJ, Podo Rukun, Kec. Seponti, Kabupaten Kayong Utara, Kalimantan Barat","Kabupaten Kayong Utara, Kalimantan Barat",KALIMANTAN BARAT,,Indonesia,,,,-0.9135293,109.8270203,https://maps.google.com/?cid=0x0:0x691ee90d20d5d131,
perumahan,Komplek perumahan,Istana Negara,"4VJP+7WV, Sungai Sepeti, Kec. Seponti, Kabupaten Kayong Utara, Kalimantan Barat 78857","Sungai Sepeti, Kec. Seponti, Kabupaten Kayong Utara",KALIMANTAN BARAT,78857.0,Indonesia,,,,-0.8692666,109.887297,https://maps.google.com/?cid=0x0:0x283301e787aa09df,
perumahan,Komplek perumahan,Rumah rula,"4VMH+RXR, Sungai Sepeti, Kec. Seponti, Kabupaten Kayong Utara, Kalimantan Barat 78857","Sungai Sepeti, Kec. Seponti, Kabupaten Kayong Utara",KALIMANTAN BARAT,78857.0,Indonesia,,,,-0.8653872,109.8798915,https://maps.google.com/?cid=0x0:0xeded78b514508e1e,
perumahan,Pertanian,Hidroponik seponti,"4RMP+G26, Seponti Jaya, Kec. Seponti, Kabupaten Kayong Utara, Kalimantan Barat 78857","Seponti Jaya, Kec. Seponti, Kabupaten Kayong Utara",KALIMANTAN BARAT,78857.0,Indonesia,,,,-0.8661257,109.8349672,https://maps.google.com/?cid=0x0:0x7b6fa980f7ee4892,
perumahan,Komplek perumahan,CV. Arteta,"4RQM+9HW, Jl rahadi oesman, Seponti Jaya, Kec. Seponti, Kabupaten Kayong Utara, Kalimantan Barat","Kabupaten Kayong Utara, Kalimantan Barat",KALIMANTAN BARAT,,Indonesia,,,,-0.8615153,109.8339496,https://maps.google.com/?cid=0x0:0x15a9e03c89531169,
perumahan,Komplek perumahan,ANGLER SEPONTI,"4RQM+CRJ, Seponti Jaya, Kec. Seponti, Kabupaten Kayong Utara, Kalimantan Barat","Kabupaten Kayong Utara, Kalimantan Barat",KALIMANTAN BARAT,,Indonesia,,,,-0.8614034,109.8345231,https://maps.google.com/?cid=0x0:0x2e3a83de97c2a214,
perumahan,Perhimpunan Pengembang Perumahan,Fadil,"3QWX+G9, Podo Rukun, Kec. Seponti, Kabupaten Kayong Utara, Kalimantan Barat 78856","Podo Rukun, Kec. Seponti, Kabupaten Kayong Utara",KALIMANTAN BARAT,78856.0,Indonesia,,,,-0.9037265,109.7984107,https://maps.google.com/?cid=0x0:0xdb1946c30e67438d,
perumahan,Komplek perumahan,Chito mebel,"4RQM+JRW, Seponti Jaya, Kec. Seponti, Kabupaten Kayong Utara, Kalimantan Barat","Kabupaten Kayong Utara, Kalimantan Barat",KALIMANTAN BARAT,,Indonesia,,,,-0.860895,109.8345739,https://maps.google.com/?cid=0x0:0xc5fbd804dbf1297b,
perumahan,Pembangunan Perumahan,Seponti Swiftlets Plantation,"4RGR+JG8, Seponti Jaya, Kec. Seponti, Kabupaten Kayong Utara, Kalimantan Barat 78857","Seponti Jaya, Kec. Seponti, Kabupaten Kayong Utara",KALIMANTAN BARAT,78857.0,Indonesia,81345200123.0,,,-0.8734584,109.84133,https://maps.google.com/?cid=0x0:0xc17d2c5fefb80c9a,
perumahan,Komplek perumahan,Alan house,"6WMX+6HX, Unnamed Road, Durian Sebatang, Seponti, North Kayong Regency, West Kalimantan 78857","Unnamed Road, Durian Sebatang, Seponti, North Kayong Regency",KALIMANTAN BARAT,78857.0,Indonesia,,,,-0.7668771,109.9489888,https://maps.google.com/?cid=0x0:0x15defdbed8b2d2bd,
perumahan,Komplek perumahan,BU ROMLAH,"4R8W+6H, Telaga Arum, Kec. Seponti, Kabupaten Kayong Utara, Kalimantan Barat 78857","Telaga Arum, Kec. Seponti, Kabupaten Kayong Utara",KALIMANTAN BARAT,78857.0,Indonesia,,,,-0.8844555,109.8464146,https://maps.google.com/?cid=0x0:0xd13061e60cbd0fe6,
perumahan,Komplek perumahan,AZKA - KAYLA,"4R8Q+9RG, Unnamed Road, Telaga Arum, Kec. Seponti, Kabupaten Kayong Utara, Kalimantan Barat 78857","Unnamed Road, Telaga Arum, Kec. Seponti, Kabupaten Kayong Utara",KALIMANTAN BARAT,78857.0,Indonesia,82350585190.0,,,-0.8840509,109.8395799,https://maps.google.com/?cid=0x0:0x783f646609f153af,
perumahan,perumahan,Ganeshome,"4VPH+X66, Desa, Sungai Sepeti, Kec. Seponti, Kabupaten Kayong Utara, Kalimantan Barat 78857","Desa, Sungai Sepeti, Kec. Seponti, Kabupaten Kayong Utara",KALIMANTAN BARAT,78857.0,Indonesia,,,,-0.8624602,109.8775687,https://maps.google.com/?cid=0x0:0x7d02df5150165b8e,
perumahan,Komplek perumahan,Mess Hilmi,"5V8Q+G5P, Sungai Sepeti, Kec. Seponti, Kabupaten Kayong Utara, Kalimantan Barat 78857","Sungai Sepeti, Kec. Seponti, Kabupaten Kayong Utara",KALIMANTAN BARAT,78857.0,Indonesia,,,,-0.8342726,109.8884025,https://maps.google.com/?cid=0x0:0x9ab9f32163787b37,
perumahan,Komplek perumahan,"R,mas Andi Kurniawan","4RQF+JXM, Seponti Jaya, Kec. Seponti, Kabupaten Kayong Utara, Kalimantan Barat 78857","Seponti Jaya, Kec. Seponti, Kabupaten Kayong Utara",KALIMANTAN BARAT,78857.0,Indonesia,,,,-0.8609097,109.8249123,https://maps.google.com/?cid=0x0:0xf5a0987c123ed270,
perumahan,perumahan,Kalimantan Barat 78853,"Kec. Simpang Hilir, Kabupaten Kayong Utara, Kalimantan Barat","Kabupaten Kayong Utara, Kalimantan Barat",KALIMANTAN BARAT,,Indonesia,,,,-1.0652462,110.2355647,https://maps.google.com/?cid=0x0:0x67224898fb15c624,
perumahan,Komplek perumahan,Perumahan ViAr,"WX46+FHH, Medan Jaya, Kec. Simpang Hilir, Kabupaten Kayong Utara, Kalimantan Barat 78853","Medan Jaya, Kec. Simpang Hilir, Kabupaten Kayong Utara",KALIMANTAN BARAT,78853.0,Indonesia,,,,-1.0938162,109.9614856,https://maps.google.com/?cid=0x0:0xacb902fa7a6f26bc,
perumahan,Komplek perumahan,Perumahan Arik,"2655+W9Q, Lubuk Batu, Kec. Simpang Hilir, Kabupaten Kayong Utara, Kalimantan Barat 78853","Lubuk Batu, Kec. Simpang Hilir, Kabupaten Kayong Utara",KALIMANTAN BARAT,78853.0,Indonesia,,,,-0.9896192,110.2087826,https://maps.google.com/?cid=0x0:0xf0d9f4a5628a7314,
perumahan,Komplek perumahan,Rumah Pak M.Sani,"W395+RJ, Dusun Sepakat, RT.04/RW.002, Batu Bar., Kec. Simpang Hilir, Kabupaten Kayong Utara, Kalimantan Barat 78853","Dusun Sepakat, RT.04/RW.002, Batu Bar., Kec. Simpang Hilir, Kabupaten Kayong Utara",KALIMANTAN BARAT,78853.0,Indonesia,,,,-1.0804588,110.0591035,https://maps.google.com/?cid=0x0:0xcf166538d472f114,
perumahan,Komplek perumahan,Rumah eca,"W8WC+MC, Matan Jaya, Kec. Simpang Hilir, Kabupaten Kayong Utara, Kalimantan Barat","Kabupaten Kayong Utara, Kalimantan Barat",KALIMANTAN BARAT,,Indonesia,,,,-1.053277,110.3210647,https://maps.google.com/?cid=0x0:0x6a0d8f29a517d168,
perumahan,Komplek perumahan,"Salim, jum","W2JX+V87, Batu Bar., Kec. Simpang Hilir, Kabupaten Kayong Utara, Kalimantan Barat 78853","Batu Bar., Kec. Simpang Hilir, Kabupaten Kayong Utara",KALIMANTAN BARAT,78853.0,Indonesia,,,,-1.0669043,110.0484083,https://maps.google.com/?cid=0x0:0x5a0ae9afa33099a5,
perumahan,Komplek perumahan,Sadam,"VX3H+63, Rantau Panjang, Kec. Simpang Hilir, Kabupaten Kayong Utara, Kalimantan Barat 78853","Rantau Panjang, Kec. Simpang Hilir, Kabupaten Kayong Utara",KALIMANTAN BARAT,78853.0,Indonesia,,,,-1.1469848,109.9776262,https://maps.google.com/?cid=0x0:0xfff04ffe5d1cd7b7,
perumahan,Komplek perumahan,Perumahan g6 pak andi hardi,"254W+6V2, Lubuk Batu, Kec. Simpang Hilir, Kabupaten Kayong Utara, Kalimantan Barat","Kabupaten Kayong Utara, Kalimantan Barat",KALIMANTAN BARAT,,Indonesia,81257895906.0,,,-0.9944917,110.1971432,https://maps.google.com/?cid=0x0:0x1ab6a93623dae614,
perumahan,Komplek perumahan,Teni ( Ansori ),"WX7G+HV4, Medan Jaya, Kec. Simpang Hilir, Kabupaten Kayong Utara, Kalimantan Barat 78853","Medan Jaya, Kec. Simpang Hilir, Kabupaten Kayong Utara",KALIMANTAN BARAT,78853.0,Indonesia,,,,-1.0861237,109.9771879,https://maps.google.com/?cid=0x0:0x1f48a96318411854,
perumahan,Pembangunan Perumahan,RUMAH NICO SETIAWAN,"VXJ6+GGR RUMAH NICO SETIAWAN, Jl. Provinsi, Rantau Panjang, Kec. Simpang Hilir, Kabupaten Kayong Utara, Kalimantan Barat 78853","Jl. Provinsi, Rantau Panjang, Kec. Simpang Hilir, Kabupaten Kayong Utara",KALIMANTAN BARAT,78853.0,Indonesia,,,,-1.1191302,109.9616802,https://maps.google.com/?cid=0x0:0xa58605606af36578,
perumahan,Perhimpunan Pengembang Perumahan,Rumah Daeang Hendra,"VX52+8G2, Jl. Parit Timur, Rantau Panjang, Kec. Simpang Hilir, Kabupaten Kayong Utara, Kalimantan Barat 78853","Jl. Parit Timur, Rantau Panjang, Kec. Simpang Hilir, Kabupaten Kayong Utara",KALIMANTAN BARAT,78853.0,Indonesia,,,,-1.1417449,109.9512591,https://maps.google.com/?cid=0x0:0x179e4b70eae349d3,
perumahan,Pembangunan Perumahan,Rumah Wahyudi,"VXCH+M4F, Penjalaan Hilir, Kec. Simpang Hilir, Kabupaten Kayong Utara, Kalimantan Barat 78853","Penjalaan Hilir, Kec. Simpang Hilir, Kabupaten Kayong Utara",KALIMANTAN BARAT,78853.0,Indonesia,85697425260.0,,,-1.1283146,109.9777975,https://maps.google.com/?cid=0x0:0xb71b2b404202b019,
perumahan,Pembangunan Perumahan,Dusun Pemocah,"46CM+CR, Lubuk Batu, Kec. Simpang Hilir, Kabupaten Kayong Utara, Kalimantan Barat","Kabupaten Kayong Utara, Kalimantan Barat",KALIMANTAN BARAT,,Indonesia,,,,-0.8790515,110.234527,https://maps.google.com/?cid=0x0:0xc22053b7639e8c3b,
perumahan,Pembangunan Perumahan,Rumah karim,"WV5X+WMX, Pemangkat, Kec. Simpang Hilir, Kabupaten Kayong Utara, Kalimantan Barat","Kabupaten Kayong Utara, Kalimantan Barat",KALIMANTAN BARAT,,Indonesia,85804641637.0,,,-1.0901355,109.8992212,https://maps.google.com/?cid=0x0:0x769661e5597db3d3,
perumahan,Pembangunan Perumahan,Quary Kapuan,"457H+7P, Lubuk Batu, Kec. Simpang Hilir, Kabupaten Kayong Utara, Kalimantan Barat 78853","Lubuk Batu, Kec. Simpang Hilir, Kabupaten Kayong Utara",KALIMANTAN BARAT,78853.0,Indonesia,,,,-0.886834,110.1792998,https://maps.google.com/?cid=0x0:0xbd76b4eaa81eec31,
perumahan,Kompleks Bangunan Perusahaan,Perumahan Divisi 4 Blok L13 Mabali2 PT.CUS,"X696+79P, Matan Jaya, Kec. Simpang Hilir, Kabupaten Kayong Utara, Kalimantan Barat 78853","Matan Jaya, Kec. Simpang Hilir, Kabupaten Kayong Utara",KALIMANTAN BARAT,78853.0,Indonesia,,,,-1.0317827,110.2109497,https://maps.google.com/?cid=0x0:0xe5f990e7a2a1053a,
perumahan,Komplek perumahan,Rumah (Sabri dan Nurhayati),"VXM7+H5H, Rantau Panjang, Kec. Simpang Hilir, Kabupaten Kayong Utara, Kalimantan Barat 78853","Rantau Panjang, Kec. Simpang Hilir, Kabupaten Kayong Utara",KALIMANTAN BARAT,78853.0,Indonesia,,,,-1.1160625,109.9629844,https://maps.google.com/?cid=0x0:0x649dfa0303cac32c,
perumahan,Perhimpunan Pengembang Perumahan,Bpk mantep,"VX3F+VM2, Rantau Panjang, Kec. Simpang Hilir, Kabupaten Kayong Utara, Kalimantan Barat 78853","Rantau Panjang, Kec. Simpang Hilir, Kabupaten Kayong Utara",KALIMANTAN BARAT,78853.0,Indonesia,,,,-1.1453596,109.9741507,https://maps.google.com/?cid=0x0:0xcb60c0f62df72cbf,
perumahan,Pembangunan Perumahan,Mata mata Rangkap,"WXCV+FQ3, Sungai Mata-Mata, Kec. Simpang Hilir, Kabupaten Kayong Utara, Kalimantan Barat 78853","Sungai Mata-Mata, Kec. Simpang Hilir, Kabupaten Kayong Utara",KALIMANTAN BARAT,78853.0,Indonesia,,,,-1.0788739,109.9944071,https://maps.google.com/?cid=0x0:0xba3bf20f4f5c3d5f,
perumahan,Perhimpunan Pengembang Perumahan,Mr kipli,"V295+WQ6, Penjalaan Hilir, Kec. Simpang Hilir, Kabupaten Kayong Utara, Kalimantan Barat 78853","Penjalaan Hilir, Kec. Simpang Hilir, Kabupaten Kayong Utara",KALIMANTAN BARAT,78853.0,Indonesia,,,,-1.1302066,110.0093835,https://maps.google.com/?cid=0x0:0xbd396d1a6ee5437e,
perumahan,Komplek perumahan,Serabutan kuli bangunan.,"VX73+GFR, Jl. Provinsi, Rantau Panjang, Kec. Simpang Hilir, Kabupaten Kayong Utara, Kalimantan Barat 78853","Jl. Provinsi, Rantau Panjang, Kec. Simpang Hilir, Kabupaten Kayong Utara",KALIMANTAN BARAT,78853.0,Indonesia,,,,-1.1361997,109.9536543,https://maps.google.com/?cid=0x0:0x1f22ca1a2d5defac,
perumahan,Perhimpunan Pengembang Perumahan,Neneng's House,"WX8Q+Q77, Sungai Mata-Mata, Kec. Simpang Hilir, Kabupaten Kayong Utara, Kalimantan Barat 78853","Sungai Mata-Mata, Kec. Simpang Hilir, Kabupaten Kayong Utara",KALIMANTAN BARAT,78853.0,Indonesia,,,,-1.0834077,109.9890343,https://maps.google.com/?cid=0x0:0x81196f874c9c89b1,
perumahan,Rumah Kayu,Rumah pak morhaban,"W735+439, Matan Jaya, Kec. Simpang Hilir, Kabupaten Kayong Utara, Kalimantan Barat","Kabupaten Kayong Utara, Kalimantan Barat",KALIMANTAN BARAT,,Indonesia,,,,-1.0965995,110.258607,https://maps.google.com/?cid=0x0:0x45484d1dfe6b125f,
perumahan,Pembangunan Perumahan,Ruma mukhlas,"WX5C+J5J, Medan Jaya, Kec. Simpang Hilir, Kabupaten Kayong Utara, Kalimantan Barat 78853","Medan Jaya, Kec. Simpang Hilir, Kabupaten Kayong Utara",KALIMANTAN BARAT,78853.0,Indonesia,,,,-1.0909536,109.9712924,https://maps.google.com/?cid=0x0:0x4b540f936224771e,
perumahan,perumahan,Sukadana,"Sutera, Kec. Sukadana, Kabupaten Kayong Utara, Kalimantan Barat","Kabupaten Kayong Utara, Kalimantan Barat",KALIMANTAN BARAT,,Indonesia,,,,-1.236284,109.957603,https://maps.google.com/?cid=0x0:0xe15dbc8fcc9954a,
perumahan,Komplek perumahan,Sukadana selatan,"Sukadana selatan rt12, rw11","Kabupaten Kayong Utara, Kalimantan Barat",KALIMANTAN BARAT,,Indonesia,,,,-1.236284,109.957603,https://maps.google.com/?cid=0x0:0x40c16a5d1bbb4973,
perumahan,Komplek perumahan,Rumah Serli,"005, RT.002, Sukadana","Kabupaten Kayong Utara, Kalimantan Barat",KALIMANTAN BARAT,,Indonesia,,,,-1.236284,109.957603,https://maps.google.com/?cid=0x0:0x3218e3f80de1df31,
perumahan,Pembangunan Perumahan,Amelia,"QX75+F2Q, Sutera, Kec. Sukadana, Kabupaten Kayong Utara, Kalimantan Barat","Kabupaten Kayong Utara, Kalimantan Barat",KALIMANTAN BARAT,,Indonesia,,,,-1.236284,109.957603,https://maps.google.com/?cid=0x0:0xcf2d0b02e929f8a,
perumahan,Pembangunan Perumahan,Rumah Aki Sakri Pakih,"Sukadana Ciparay, Sutera, Kec. Sukadana, Kabupaten Kayong Utara, Kalimantan Barat","Kabupaten Kayong Utara, Kalimantan Barat",KALIMANTAN BARAT,,Indonesia,,,,-1.236284,109.957603,https://maps.google.com/?cid=0x0:0xa3132bb88f7bd4ca,
perumahan,Kantor Pemda,Rumah Dinas Pertanian dan Pangan,"Sutera, Kec. Sukadana, Kabupaten Kayong Utara, Kalimantan Barat 78852","Kec. Sukadana, Kabupaten Kayong Utara",KALIMANTAN BARAT,78852.0,Indonesia,,,,-1.2358276,109.9566541,https://maps.google.com/?cid=0x0:0x315d64f54d9d9810,
perumahan,Komplek perumahan,Rumah edi yanto,"QX75+F2Q, Jalan ketapang sukadana, RT.9 rw3, Sutera, kecamatan matan hilir utara, Kabupaten Ketapang, Kalimantan Barat","Kabupaten Ketapang, Kalimantan Barat",KALIMANTAN BARAT,,Indonesia,,,,-1.236284,109.957603,https://maps.google.com/?cid=0x0:0xf238fd0f57226f37,
perumahan,Dapur Umum,Gilang rmdnnn,"QX75+F2Q, Sutera, Kec. Sukadana, Kabupaten Kayong Utara, Kalimantan Barat","Kabupaten Kayong Utara, Kalimantan Barat",KALIMANTAN BARAT,,Indonesia,,,,-1.236284,109.957603,https://maps.google.com/?cid=0x0:0x61400eefcde1299c,
perumahan,perumahan,Lampung 34194,"Kabupaten Lampung Timur, Lampung","Kabupaten Lampung Timur, Lampung",KALIMANTAN BARAT,,Indonesia,,,,-4.9525811,105.6881788,https://maps.google.com/?cid=0x0:0x8748f89c2b8dd19d,
perumahan,Komplek perumahan,Rumah Tinggal,"WGRV+8R7, Ps. Sukadana, Kec. Sukadana, Kabupaten Lampung Timur, Lampung 34194","Ps. Sukadana, Kec. Sukadana, Kabupaten Lampung Timur",KALIMANTAN BARAT,34194.0,Indonesia,,,,-5.0592056,105.5445512,https://maps.google.com/?cid=0x0:0x937edafa20a91c31,
perumahan,Komplek perumahan,Magetan,"XG8V+MGX, Ps. Sukadana, Kec. Sukadana, Kabupaten Lampung Timur, Lampung 34194","Ps. Sukadana, Kec. Sukadana, Kabupaten Lampung Timur",KALIMANTAN BARAT,34194.0,Indonesia,,,,-5.032451,105.543242,https://maps.google.com/?cid=0x0:0xfb11fc41df84c4a,
perumahan,Pembangunan Perumahan,Perumahan Sabah Sukadana,"WHG4+XP5, dusun sabah, Kec. Sukadana, Kabupaten Lampung Timur, Lampung 34194","dusun sabah, Kec. Sukadana, Kabupaten Lampung Timur",KALIMANTAN BARAT,34194.0,Indonesia,82375239948.0,,,-5.0726006,105.5568581,https://maps.google.com/?cid=0x0:0xf3f0e73dc53ebae2,
perumahan,Komplek perumahan,Rumah SANDI YUDHA PRASETYA,"XG5W+JCC, Sukadana Ilir, Kec. Sukadana, Kabupaten Lampung Timur, Lampung 34194","Sukadana Ilir, Kec. Sukadana, Kabupaten Lampung Timur",KALIMANTAN BARAT,34194.0,Indonesia,,,,-5.0409367,105.5460261,https://maps.google.com/?cid=0x0:0xcb2640fddcf0e9e7,
perumahan,Asosiasi Pertanian,Kelompok tani Sido Dadi,"XGCF+57P, Jl. Kiemas Putra, Sukadana Ilir, Kec. Sukadana, Kabupaten Lampung Timur, Lampung 34194","Jl. Kiemas Putra, Sukadana Ilir, Kec. Sukadana, Kabupaten Lampung Timur",KALIMANTAN BARAT,34194.0,Indonesia,85384425260.0,,,-5.029534,105.5231896,https://maps.google.com/?cid=0x0:0xda57b645662b09bb,
perumahan,Komplek perumahan,"Rumah ,Eko sutikno","Ds 5 Sri Pendowo, Sukadana Ilir, Kec. Sukadana, Kabupaten Lampung Timur, Lampung 34194","Sukadana Ilir, Kec. Sukadana, Kabupaten Lampung Timur",KALIMANTAN BARAT,34194.0,Indonesia,,,,-5.0452824,105.5291591,https://maps.google.com/?cid=0x0:0xa76d3b0645b4bb5a,
perumahan,Komplek perumahan,Rumah anggun Noviana@,"XG8P+38C, Sukadana Ilir, Kec. Sukadana, Kabupaten Lampung Timur, Lampung 34194","Sukadana Ilir, Kec. Sukadana, Kabupaten Lampung Timur",KALIMANTAN BARAT,34194.0,Indonesia,,,,-5.0348245,105.5357704,https://maps.google.com/?cid=0x0:0x7fcde9b75151d9b8,
perumahan,Komplek perumahan,Rumah Supratno,"XH32+H9, Sukadana Ilir, Kec. Sukadana, Kabupaten Lampung Timur, Lampung","Kabupaten Lampung Timur, Lampung",KALIMANTAN BARAT,,Indonesia,,,,-5.046094,105.5509305,https://maps.google.com/?cid=0x0:0xd4906a14f0cef78a,
perumahan,Komplek perumahan,RUMAH NANDA,"Jl. Soekarno-Hatta No.97, Terbanggi Marga, Kec. Sukadana, Kabupaten Lampung Timur, Lampung 34194","Terbanggi Marga, Kec. Sukadana, Kabupaten Lampung Timur",KALIMANTAN BARAT,34194.0,Indonesia,,,,-5.0616468,105.5211215,https://maps.google.com/?cid=0x0:0x33341f40a13442b5,
perumahan,Komplek perumahan,Dar mieka ( ribut s),"XH27+JX5, Rantau Jaya Udik, Kec. Sukadana, Kabupaten Lampung Timur, Lampung 34194","Rantau Jaya Udik, Kec. Sukadana, Kabupaten Lampung Timur",KALIMANTAN BARAT,34194.0,Indonesia,,,,-5.047227,105.564744,https://maps.google.com/?cid=0x0:0x4ce43af4a253a835,
perumahan,Komplek perumahan,Rumah riduan,"WFGW+7G5, Negara nabung, dusun, karang jaya, Kec. Sukadana, Kabupaten Lampung Timur, Lampung","Kabupaten Lampung Timur, Lampung",KALIMANTAN BARAT,,Indonesia,,,,-5.0743508,105.4963631,https://maps.google.com/?cid=0x0:0xd4656ff2968421d6,
perumahan,Perhimpunan Pengembang Perumahan,Kolonis,"WGPX+CCV, Ps. Sukadana, Kec. Sukadana, Kabupaten Lampung Timur, Lampung 34194","Ps. Sukadana, Kec. Sukadana, Kabupaten Lampung Timur",KALIMANTAN BARAT,34194.0,Indonesia,,,,-5.063882,105.5485607,https://maps.google.com/?cid=0x0:0xa74d0697286a17e0,
perumahan,Komplek perumahan,Fauzil Effendi,"WGQW+GJV, Jalan Laskar Ahmad Bastian, Ps. Sukadana, Kec. Sukadana, Kabupaten Lampung Timur, Lampung 34194","Jalan Laskar Ahmad Bastian, Ps. Sukadana, Kec. Sukadana, Kabupaten Lampung Timur",KALIMANTAN BARAT,34194.0,Indonesia,,,,-5.0611375,105.5465469,https://maps.google.com/?cid=0x0:0x70ce7c896d353f5d,
perumahan,Komplek perumahan,Munir satina,"WGWQ+C9W, Ps. Sukadana, Kec. Sukadana, Kabupaten Lampung Timur, Lampung 34194","Ps. Sukadana, Kec. Sukadana, Kabupaten Lampung Timur",KALIMANTAN BARAT,34194.0,Indonesia,,,,-5.054777,105.5393719,https://maps.google.com/?cid=0x0:0x57557348649acce,
perumahan,Komplek perumahan,Sulthan,"XH22+M8, Sukadana Ilir, Kec. Sukadana, Kabupaten Lampung Timur, Lampung","Kabupaten Lampung Timur, Lampung",KALIMANTAN BARAT,,Indonesia,,,,-5.0473317,105.551225,https://maps.google.com/?cid=0x0:0x39773e13beee4f38,
perumahan,Perhimpunan Pengembang Perumahan,Rumah Gus basir,"XGQR+CJC, Muara Jaya, Kec. Sukadana, Kabupaten Lampung Timur, Lampung 34194","Muara Jaya, Kec. Sukadana, Kabupaten Lampung Timur",KALIMANTAN BARAT,34194.0,Indonesia,,,,-5.0114317,105.5415137,https://maps.google.com/?cid=0x0:0x445e1408e6d02858,
perumahan,Komplek perumahan,Sukadana darat,"WGPX+CCV, Ps. Sukadana, Kec. Sukadana, Kabupaten Lampung Timur, Lampung","Kabupaten Lampung Timur, Lampung",KALIMANTAN BARAT,,Indonesia,,,,-5.063882,105.5485607,https://maps.google.com/?cid=0x0:0xcacf247a74ef01,
perumahan,Perumahan,Lishendrik,"WH9P+V4, Sukadana, Kec. Sukadana, Kabupaten Lampung Timur, Lampung 34194","Sukadana, Kec. Sukadana, Kabupaten Lampung Timur",KALIMANTAN BARAT,34194.0,Indonesia,81379778628.0,,,-5.0805829,105.5855056,https://maps.google.com/?cid=0x0:0x850876711f823e44,
perumahan,Komplek perumahan,irul,"XGHW+3P2, Muara Jaya, Kec. Sukadana, Kabupaten Lampung Timur, Lampung 34194","Muara Jaya, Kec. Sukadana, Kabupaten Lampung Timur",KALIMANTAN BARAT,34194.0,Indonesia,,,,-5.021574,105.5456231,https://maps.google.com/?cid=0x0:0xdee1cb2ac07f8df1,
perumahan,Komplek perumahan,Rumah lukman,"Jl. Soekarno-Hatta No.18, Negara Nabung, Kec. Sukadana, Kabupaten Lampung Timur, Lampung 34194","Negara Nabung, Kec. Sukadana, Kabupaten Lampung Timur",KALIMANTAN BARAT,34194.0,Indonesia,,,,-5.0616685,105.5082489,https://maps.google.com/?cid=0x0:0x8849436a578a8e9c,
perumahan,perumahan,Sukadana,"Sutera, Kec. Sukadana, Kabupaten Kayong Utara, Kalimantan Barat","Kabupaten Kayong Utara, Kalimantan Barat",KALIMANTAN BARAT,,Indonesia,,,,-1.236284,109.957603,https://maps.google.com/?cid=0x0:0xe15dbc8fcc9954a,
perumahan,Komplek perumahan,Sukadana selatan,"Sukadana selatan rt12, rw11","Kabupaten Kayong Utara, Kalimantan Barat",KALIMANTAN BARAT,,Indonesia,,,,-1.236284,109.957603,https://maps.google.com/?cid=0x0:0x40c16a5d1bbb4973,
perumahan,Komplek perumahan,Rumah Serli,"005, RT.002, Sukadana","Kabupaten Kayong Utara, Kalimantan Barat",KALIMANTAN BARAT,,Indonesia,,,,-1.236284,109.957603,https://maps.google.com/?cid=0x0:0x3218e3f80de1df31,
perumahan,Pembangunan Perumahan,Rumah Aki Sakri Pakih,"Sukadana Ciparay, Sutera, Kec. Sukadana, Kabupaten Kayong Utara, Kalimantan Barat","Kabupaten Kayong Utara, Kalimantan Barat",KALIMANTAN BARAT,,Indonesia,,,,-1.236284,109.957603,https://maps.google.com/?cid=0x0:0xa3132bb88f7bd4ca,
perumahan,Komplek perumahan,Lingkup totok,"QX75+F2Q, Sutera, Kec. Sukadana, Kabupaten Kayong Utara, Kalimantan Barat","Kabupaten Kayong Utara, Kalimantan Barat",KALIMANTAN BARAT,,Indonesia,,,,-1.236284,109.957603,https://maps.google.com/?cid=0x0:0xab729690e5066536,
perumahan,Pembangunan Perumahan,Amelia,"QX75+F2Q, Sutera, Kec. Sukadana, Kabupaten Kayong Utara, Kalimantan Barat","Kabupaten Kayong Utara, Kalimantan Barat",KALIMANTAN BARAT,,Indonesia,,,,-1.236284,109.957603,https://maps.google.com/?cid=0x0:0xcf2d0b02e929f8a,
perumahan,Komplek perumahan,Komplek Cahya Permata 4,"QX48+X4Q, Jl. Sei Mengkuang Gg. Intan Peramas, Pangkalan Buton, Kec. Sukadana, Kabupaten Kayong Utara, Kalimantan Barat 78852","Jl. Sei Mengkuang Gg. Intan Peramas, Pangkalan Buton, Kec. Sukadana, Kabupaten Kayong Utara",KALIMANTAN BARAT,78852.0,Indonesia,,,,-1.2425393,109.9653471,https://maps.google.com/?cid=0x0:0x7a36c52ff1045271,
perumahan,Kantor Pemda,Rumah Dinas Pertanian dan Pangan,"Sutera, Kec. Sukadana, Kabupaten Kayong Utara, Kalimantan Barat 78852","Kec. Sukadana, Kabupaten Kayong Utara",KALIMANTAN BARAT,78852.0,Indonesia,,,,-1.2358276,109.9566541,https://maps.google.com/?cid=0x0:0x315d64f54d9d9810,
perumahan,Komplek perumahan,Rumah edi yanto,"QX75+F2Q, Jalan ketapang sukadana, RT.9 rw3, Sutera, kecamatan matan hilir utara, Kabupaten Ketapang, Kalimantan Barat","Kabupaten Ketapang, Kalimantan Barat",KALIMANTAN BARAT,,Indonesia,,,,-1.236284,109.957603,https://maps.google.com/?cid=0x0:0xf238fd0f57226f37,
perumahan,perumahan,Sukadana,"Ps. Sukadana, Kec. Sukadana, Kabupaten Lampung Timur, Lampung","Kabupaten Lampung Timur, Lampung",KALIMANTAN BARAT,,Indonesia,,,,-5.0673,105.546303,https://maps.google.com/?cid=0x0:0x981aaec4da459d49,
perumahan,Komplek perumahan,Rumah Tinggal,"WGRV+8R7, Ps. Sukadana, Kec. Sukadana, Kabupaten Lampung Timur, Lampung 34194","Ps. Sukadana, Kec. Sukadana, Kabupaten Lampung Timur",KALIMANTAN BARAT,34194.0,Indonesia,,,,-5.0592056,105.5445512,https://maps.google.com/?cid=0x0:0x937edafa20a91c31,
perumahan,Kantor Perusahaan,Sabah,"WHH4+JVW, Sukadana, Kec. Sukadana, Kabupaten Lampung Timur, Lampung","Kabupaten Lampung Timur, Lampung",KALIMANTAN BARAT,,Indonesia,,,,-5.0708997,105.5572119,https://maps.google.com/?cid=0x0:0x492ab514d0268680,
perumahan,Komplek perumahan,Rumah SANDI YUDHA PRASETYA,"XG5W+JCC, Sukadana Ilir, Kec. Sukadana, Kabupaten Lampung Timur, Lampung 34194","Sukadana Ilir, Kec. Sukadana, Kabupaten Lampung Timur",KALIMANTAN BARAT,34194.0,Indonesia,,,,-5.0409367,105.5460261,https://maps.google.com/?cid=0x0:0xcb2640fddcf0e9e7,
perumahan,Komplek perumahan,Fauzil Effendi,"WGQW+GJV, Jalan Laskar Ahmad Bastian, Ps. Sukadana, Kec. Sukadana, Kabupaten Lampung Timur, Lampung 34194","Jalan Laskar Ahmad Bastian, Ps. Sukadana, Kec. Sukadana, Kabupaten Lampung Timur",KALIMANTAN BARAT,34194.0,Indonesia,,,,-5.0611375,105.5465469,https://maps.google.com/?cid=0x0:0x70ce7c896d353f5d,
perumahan,Komplek perumahan,Munir satina,"WGWQ+C9W, Ps. Sukadana, Kec. Sukadana, Kabupaten Lampung Timur, Lampung 34194","Ps. Sukadana, Kec. Sukadana, Kabupaten Lampung Timur",KALIMANTAN BARAT,34194.0,Indonesia,,,,-5.054777,105.5393719,https://maps.google.com/?cid=0x0:0x57557348649acce,
perumahan,Komplek perumahan,"Rumah ,Eko sutikno","Ds 5 Sri Pendowo, Sukadana Ilir, Kec. Sukadana, Kabupaten Lampung Timur, Lampung 34194","Sukadana Ilir, Kec. Sukadana, Kabupaten Lampung Timur",KALIMANTAN BARAT,34194.0,Indonesia,,,,-5.0452824,105.5291591,https://maps.google.com/?cid=0x0:0xa76d3b0645b4bb5a,
perumahan,Perhimpunan Pengembang Perumahan,Rumah,"WGJW+W6C, Ps. Sukadana, Kec. Sukadana, Kabupaten Lampung Timur, Lampung 34182","Ps. Sukadana, Kec. Sukadana, Kabupaten Lampung Timur",KALIMANTAN BARAT,34182.0,Indonesia,,,,-5.0676869,105.5455128,https://maps.google.com/?cid=0x0:0x3452bc987e8a8eac,
perumahan,Komplek perumahan,Sukadana darat,"WGPX+CCV, Ps. Sukadana, Kec. Sukadana, Kabupaten Lampung Timur, Lampung","Kabupaten Lampung Timur, Lampung",KALIMANTAN BARAT,,Indonesia,,,,-5.063882,105.5485607,https://maps.google.com/?cid=0x0:0xcacf247a74ef01,
perumahan,Pembangunan Perumahan,Herlinda Dan Rindiyani,"WGPX+CCV, XGF2+X57Negara NabungKec, Ps. Sukadana, Kec. Sukadana, Kabupaten Lampung Timur, Lampung 34194","XGF2+X57Negara NabungKec, Ps. Sukadana, Kec. Sukadana, Kabupaten Lampung Timur",KALIMANTAN BARAT,34194.0,Indonesia,,,,-5.063882,105.5485607,https://maps.google.com/?cid=0x0:0x717c33cc95dc5f98,
perumahan,Komplek perumahan,Sulthan,"XH22+M8, Sukadana Ilir, Kec. Sukadana, Kabupaten Lampung Timur, Lampung","Kabupaten Lampung Timur, Lampung",KALIMANTAN BARAT,,Indonesia,,,,-5.0473317,105.551225,https://maps.google.com/?cid=0x0:0x39773e13beee4f38,
perumahan,Komplek perumahan,Rumah Tias,"WHGC+X23, Jl. Radin Intan, Sukadana, Kec. Sukadana, Kabupaten Lampung Timur, Lampung 34182","Jl. Radin Intan, Sukadana, Kec. Sukadana, Kabupaten Lampung Timur",KALIMANTAN BARAT,34182.0,Indonesia,,,,-5.0723438,105.5697034,https://maps.google.com/?cid=0x0:0xecf52b9d531bcba9,
perumahan,Komplek perumahan,Rumah ITA,"WH7W+28, Sukadana Tim., Kec. Sukadana, Kabupaten Lampung Timur, Lampung","Kabupaten Lampung Timur, Lampung",KALIMANTAN BARAT,,Indonesia,,,,-5.0874437,105.5958176,https://maps.google.com/?cid=0x0:0x34ec256113c9547a,
perumahan,Komplek perumahan,Rita,"WGPX+JC3, Jl. Radin Inten II, Ps. Sukadana, Kec. Sukadana, Kabupaten Lampung Timur, Lampung 34194","Jl. Radin Inten II, Ps. Sukadana, Kec. Sukadana, Kabupaten Lampung Timur",KALIMANTAN BARAT,34194.0,Indonesia,,,,-5.0634986,105.5485548,https://maps.google.com/?cid=0x0:0xb5d0bd4cfcb3b150,
perumahan,Komplek perumahan,Rumah supar,"WFFW+2PJ, Raja Basa Batanghari, Kec. Sukadana, Kabupaten Lampung Timur, Lampung","Kabupaten Lampung Timur, Lampung",KALIMANTAN BARAT,,Indonesia,,,,-5.077407,105.4967636,https://maps.google.com/?cid=0x0:0x4e58df1c258cbbe7,
perumahan,Komplek perumahan,Rumah Pak Suseno,"JL. M. Noer No.68, Ps. Sukadana, Kec. Sukadana, Kabupaten Lampung Timur, Lampung 34182","Ps. Sukadana, Kec. Sukadana, Kabupaten Lampung Timur",KALIMANTAN BARAT,34182.0,Indonesia,,,,-5.0672783,105.5475326,https://maps.google.com/?cid=0x0:0x4f994b1c49f83e83,
perumahan,Komplek perumahan,Rumah suryati,"WFGW+834,Negara nabung, dusun, karang jaya, Kec. Sukadana, Kabupaten Lampung Timur, Lampung","Kabupaten Lampung Timur, Lampung",KALIMANTAN BARAT,,Indonesia,,,,-5.0742378,105.4951635,https://maps.google.com/?cid=0x0:0x160d21a0eaf971ef,
perumahan,Komplek perumahan,Rumah ilham,"WGMV+VXX, Dekat, Ps. Sukadana","Kabupaten Lampung Timur, Lampung",KALIMANTAN BARAT,,Indonesia,,,,-5.0652662,105.5449808,https://maps.google.com/?cid=0x0:0x1b8d61956fcb86e0,
perumahan,Pembangunan Perumahan,Citra Pesona Sukadana B20,"WGMW+3GF, Perumahan Citra Pesona, Ps. Sukadana, Kec. Sukadana, Kabupaten Lampung Timur, Lampung","Kabupaten Lampung Timur, Lampung",KALIMANTAN BARAT,,Indonesia,,,,-5.0673,105.546303,https://maps.google.com/?cid=0x0:0xc4d9fea28fe8a5ce,
perumahan,Pembangunan Perumahan,Kampung sukadana desa pangarengan,"WGMW+3GF, Ps. Sukadana, Kec. Sukadana, Kabupaten Lampung Timur, Lampung rt06rw06","Kabupaten Lampung Timur, Lampung",KALIMANTAN BARAT,,Indonesia,,,,-5.0673,105.546303,https://maps.google.com/?cid=0x0:0x401632d3e8307040,
perumahan,perumahan,Kec. Sukadana,"Kabupaten Kayong Utara, Kalimantan Barat","Kabupaten Kayong Utara, Kalimantan Barat",KALIMANTAN BARAT,,Indonesia,,,,-1.2379663,109.949503,https://maps.google.com/?cid=0x0:0x9a91098cbc8a8a14,
perumahan,perumahan,Sukadana,"Sutera, Kec. Sukadana, Kabupaten Kayong Utara, Kalimantan Barat","Kabupaten Kayong Utara, Kalimantan Barat",KALIMANTAN BARAT,,Indonesia,,,,-1.236284,109.957603,https://maps.google.com/?cid=0x0:0xe15dbc8fcc9954a,
perumahan,Kantor Pemda,Rumah Dinas Pertanian dan Pangan,"Sutera, Kec. Sukadana, Kabupaten Kayong Utara, Kalimantan Barat 78852","Kec. Sukadana, Kabupaten Kayong Utara",KALIMANTAN BARAT,78852.0,Indonesia,,,,-1.2358276,109.9566541,https://maps.google.com/?cid=0x0:0x315d64f54d9d9810,
perumahan,Komplek perumahan,Sukadana selatan,"Sukadana selatan rt12, rw11","Kabupaten Kayong Utara, Kalimantan Barat",KALIMANTAN BARAT,,Indonesia,,,,-1.236284,109.957603,https://maps.google.com/?cid=0x0:0x40c16a5d1bbb4973,
perumahan,Pembangunan Perumahan,Amelia,"QX75+F2Q, Sutera, Kec. Sukadana, Kabupaten Kayong Utara, Kalimantan Barat","Kabupaten Kayong Utara, Kalimantan Barat",KALIMANTAN BARAT,,Indonesia,,,,-1.236284,109.957603,https://maps.google.com/?cid=0x0:0xcf2d0b02e929f8a,
perumahan,Komplek perumahan,Lingkup totok,"QX75+F2Q, Sutera, Kec. Sukadana, Kabupaten Kayong Utara, Kalimantan Barat","Kabupaten Kayong Utara, Kalimantan Barat",KALIMANTAN BARAT,,Indonesia,,,,-1.236284,109.957603,https://maps.google.com/?cid=0x0:0xab729690e5066536,
perumahan,Pembangunan Perumahan,Rumah Aki Sakri Pakih,"Sukadana Ciparay, Sutera, Kec. Sukadana, Kabupaten Kayong Utara, Kalimantan Barat","Kabupaten Kayong Utara, Kalimantan Barat",KALIMANTAN BARAT,,Indonesia,,,,-1.236284,109.957603,https://maps.google.com/?cid=0x0:0xa3132bb88f7bd4ca,
perumahan,Rumah Sakit Umum,Muara Jaya,"QX75+F2Q, Sutera, Kec. Sukadana, Kabupaten Kayong Utara, Kalimantan Barat 78852","Sutera, Kec. Sukadana, Kabupaten Kayong Utara",KALIMANTAN BARAT,78852.0,Indonesia,,,,-1.236284,109.957603,https://maps.google.com/?cid=0x0:0xe6a944e40e9a52b2,
perumahan,Komplek perumahan,Rumah edi yanto,"QX75+F2Q, Jalan ketapang sukadana, RT.9 rw3, Sutera, kecamatan matan hilir utara, Kabupaten Ketapang, Kalimantan Barat","Kabupaten Ketapang, Kalimantan Barat",KALIMANTAN BARAT,,Indonesia,,,,-1.236284,109.957603,https://maps.google.com/?cid=0x0:0xf238fd0f57226f37,
perumahan,Perumahan,Harmoni Park Residence,"Jl. Gunung Kapur, Mampir, Kec. Cileungsi, Kabupaten Bogor, Jawa Barat 16820","Mampir, Kec. Cileungsi, Kabupaten Bogor",KALIMANTAN BARAT,16820.0,Indonesia,,,,-6.4427007,107.0021739,https://maps.google.com/?cid=0x0:0xc9bfb13f15dedf16,
perumahan,Komplek perumahan,Harmoni Park Residence Blok C/28,"H253+43G, Mampir, Kec. Cileungsi, Kabupaten Bogor, Jawa Barat 16820","Mampir, Kec. Cileungsi, Kabupaten Bogor",KALIMANTAN BARAT,16820.0,Indonesia,89676930369.0,,,-6.4419584,107.0023238,https://maps.google.com/?cid=0x0:0xbe33e62bcf84ba8,
perumahan,Komplek perumahan,Harmoni Park Residence Blok E20,"Blok E No.20, Jl. Gunung Kapur, Mampir, Cileungsi, Bogor Regency, West Java 16820","Jl. Gunung Kapur, Mampir, Cileungsi, Bogor Regency",KALIMANTAN BARAT,16820.0,Indonesia,,,,-6.4424606,107.0019896,https://maps.google.com/?cid=0x0:0xb10343efa9231c58,
perumahan,Komplek perumahan,SAHARI,"3Q52+7HX, MAS Bangun, Kec. Tlk. Batang, Kabupaten Kayong Utara, Kalimantan Barat 78856","MAS Bangun, Kec. Tlk. Batang, Kabupaten Kayong Utara",KALIMANTAN BARAT,78856.0,Indonesia,,,,-0.9417566,109.7514761,https://maps.google.com/?cid=0x0:0x21c300a50f02c038,
perumahan,perumahan,rumah dela,"3Q54+8RQ, MAS Bangun, Kec. Tlk. Batang, Kabupaten Kayong Utara, Kalimantan Barat 78856","MAS Bangun, Kec. Tlk. Batang, Kabupaten Kayong Utara",KALIMANTAN BARAT,78856.0,Indonesia,,,,-0.9416582,109.757099,https://maps.google.com/?cid=0x0:0x8d2d733fe55e392f,
perumahan,Pembangunan Perumahan,"Banyu abang, paket 2","3R7M+JH, Banyu Abang, Kec. Tlk. Batang, Kabupaten Kayong Utara, Kalimantan Barat 78856","Banyu Abang, Kec. Tlk. Batang, Kabupaten Kayong Utara",KALIMANTAN BARAT,78856.0,Indonesia,,,,-0.9359791,109.8338554,https://maps.google.com/?cid=0x0:0xd4c6aa9197906a8f,
perumahan,Pembangunan Perumahan,Exsel,"2Q7C+CX7, Tlk. Batang, Kec. Tlk. Batang, Kabupaten Kayong Utara, Kalimantan Barat 78856","Tlk. Batang, Kec. Tlk. Batang, Kabupaten Kayong Utara",KALIMANTAN BARAT,78856.0,Indonesia,,,,-0.9867202,109.7729103,https://maps.google.com/?cid=0x0:0x5cb84614ab296a9f,
perumahan,Gedung Apartemen,RUMAH Ammar,"2QC5+WHP, Tlk. Batang Utara, Kec. Tlk. Batang, Kabupaten Kayong Utara, Kalimantan Barat 78856","Tlk. Batang Utara, Kec. Tlk. Batang, Kabupaten Kayong Utara",KALIMANTAN BARAT,78856.0,Indonesia,,,,-0.9776563,109.7589504,https://maps.google.com/?cid=0x0:0x4a9576324b634fc9,
perumahan,Gedung Apartemen,rumah Nuar Effendi,"2Q8J+WJ9, Tlk. Batang, Kec. Tlk. Batang, Kabupaten Kayong Utara, Kalimantan Barat 78856","Tlk. Batang, Kec. Tlk. Batang, Kabupaten Kayong Utara",KALIMANTAN BARAT,78856.0,Indonesia,,,,-0.9828164,109.781379,https://maps.google.com/?cid=0x0:0xd565273e4aa7b264,
perumahan,Komplek perumahan,Rumah Rabuansyah,"2Q4Q+G75, Tlk. Batang Sel., Kec. Tlk. Batang, Kabupaten Kayong Utara, Kalimantan Barat 78856","Tlk. Batang Sel., Kec. Tlk. Batang, Kabupaten Kayong Utara",KALIMANTAN BARAT,78856.0,Indonesia,,,,-0.9937422,109.788249,https://maps.google.com/?cid=0x0:0x5ece74c09685663d,
perumahan,Perhimpunan Pengembang Perumahan,Rumah Serahat,"2PWW+85V, MAS Bangun, Kec. Tlk. Batang, Kabupaten Kayong Utara, Kalimantan Barat 78856","MAS Bangun, Kec. Tlk. Batang, Kabupaten Kayong Utara",KALIMANTAN BARAT,78856.0,Indonesia,,,,-0.9541269,109.745431,https://maps.google.com/?cid=0x0:0x4119757731d2f4e3,
perumahan,Gedung Apartemen,Rumah Eko Gunawan,"2QJ3+344, Wak Labuk Road, Tlk. Batang Utara, Kec. Tlk. Batang, Kabupaten Kayong Utara, Kalimantan Barat 78856","Wak Labuk Road, Tlk. Batang Utara, Kec. Tlk. Batang, Kabupaten Kayong Utara",KALIMANTAN BARAT,78856.0,Indonesia,,,,-0.9685706,109.752445,https://maps.google.com/?cid=0x0:0xce9db146ce7bf77e,
perumahan,Komplek perumahan,Rumah Pak Daim,"2Q7F+JW2, Tlk. Batang, Kec. Tlk. Batang, Kabupaten Kayong Utara, Kalimantan Barat 78856","Tlk. Batang, Kec. Tlk. Batang, Kabupaten Kayong Utara",KALIMANTAN BARAT,78856.0,Indonesia,,,,-0.9859498,109.7747908,https://maps.google.com/?cid=0x0:0x96eb047751dad377,
perumahan,Komplek perumahan,Rumah Mba Sri,"2QF4+CXJ, Tlk. Batang Utara, Kec. Tlk. Batang, Kabupaten Kayong Utara, Kalimantan Barat 78856","Tlk. Batang Utara, Kec. Tlk. Batang, Kabupaten Kayong Utara",KALIMANTAN BARAT,78856.0,Indonesia,,,,-0.97692,109.757185,https://maps.google.com/?cid=0x0:0x9960076eca61be8e,
perumahan,Komplek perumahan,Rmh pak junus,"2QJ3+M8M, Tlk. Batang Utara, Kec. Tlk. Batang, Kabupaten Kayong Utara, Kalimantan Barat 78856","Tlk. Batang Utara, Kec. Tlk. Batang, Kabupaten Kayong Utara",KALIMANTAN BARAT,78856.0,Indonesia,,,,-0.9682954,109.7533025,https://maps.google.com/?cid=0x0:0xb226a9be83b5a03f,
perumahan,Komplek perumahan,Rawi Seman,"2Q69+QQ, Tlk. Batang, Kec. Tlk. Batang, Kabupaten Kayong Utara, Kalimantan Barat 78856","Tlk. Batang, Kec. Tlk. Batang, Kabupaten Kayong Utara",KALIMANTAN BARAT,78856.0,Indonesia,,,,-0.9877959,109.770336,https://maps.google.com/?cid=0x0:0xcbc2c2b38138b7ee,
perumahan,Gedung Apartemen,Rumah Mariani,"3Q63+V7P, MAS Bangun, Kec. Tlk. Batang, Kabupaten Kayong Utara, Kalimantan Barat 78856","MAS Bangun, Kec. Tlk. Batang, Kabupaten Kayong Utara",KALIMANTAN BARAT,78856.0,Indonesia,,,,-0.9377877,109.7532148,https://maps.google.com/?cid=0x0:0x345a534c578759fd,
perumahan,Komplek perumahan,Rumah nya Yuda kayong,"2QF4+RW7, Tlk. Batang Utara, Kec. Tlk. Batang, Kabupaten Kayong Utara, Kalimantan Barat 78856","Tlk. Batang Utara, Kec. Tlk. Batang, Kabupaten Kayong Utara",KALIMANTAN BARAT,78856.0,Indonesia,,,,-0.9751062,109.7565344,https://maps.google.com/?cid=0x0:0xe40e6d7d2b01fa02,
perumahan,Komplek perumahan,Rindi,"3R8W+R2C, 3R8V+MPHJl. Arif Rahman, HakimBanyu Abang, Kec. Tlk. Batang, Kabupaten Kayong Utara, Kalimantan Barat 78856","3R8V+MPHJl. Arif Rahman, HakimBanyu Abang, Kec. Tlk. Batang, Kabupaten Kayong Utara",KALIMANTAN BARAT,78856.0,Indonesia,,,,-0.9329484,109.8450258,https://maps.google.com/?cid=0x0:0xe72317a22ee07ec2,
perumahan,Komplek perumahan,Panji suminta,"3P4V+9W3, MAS Bangun, Kec. Tlk. Batang, Kabupaten Kayong Utara, Kalimantan Barat 78856","MAS Bangun, Kec. Tlk. Batang, Kabupaten Kayong Utara",KALIMANTAN BARAT,78856.0,Indonesia,,,,-0.944117,109.7448098,https://maps.google.com/?cid=0x0:0xb9f11c9f21b4f6e9,
perumahan,Komplek perumahan,Gubuk Suhardiansyah Residence,"2Q5F+79G, Tlk. Batang Sel., Kec. Tlk. Batang, Kabupaten Kayong Utara, Kalimantan Barat 78856","Tlk. Batang Sel., Kec. Tlk. Batang, Kabupaten Kayong Utara",KALIMANTAN BARAT,78856.0,Indonesia,,,,-0.9918079,109.7734614,https://maps.google.com/?cid=0x0:0x51b27720739d572f,
perumahan,Pembangunan Perumahan,A.RAZAK BIN H.MARUDIN,"2R83+68X, Tlk. Batang Sel., Kec. Tlk. Batang, Kabupaten Kayong Utara, Kalimantan Barat 78856","Tlk. Batang Sel., Kec. Tlk. Batang, Kabupaten Kayong Utara",KALIMANTAN BARAT,78856.0,Indonesia,,,,-0.984397,109.8033647,https://maps.google.com/?cid=0x0:0x5b7ec2463dafca73,
perumahan,Komplek perumahan,drewforever,"2PPX+HH7, MAS Bangun, Kec. Tlk. Batang, Kabupaten Kayong Utara, Kalimantan Barat 78856","MAS Bangun, Kec. Tlk. Batang, Kabupaten Kayong Utara",KALIMANTAN BARAT,78856.0,Indonesia,,,,-0.9635931,109.7489082,https://maps.google.com/?cid=0x0:0x8452cae78d5355f1,
perumahan,Komplek perumahan,Dusun Sinar Timur,"2R8Q+4P2, Sungai Paduan, Kec. Tlk. Batang, Kabupaten Kayong Utara, Kalimantan Barat 78856","Sungai Paduan, Kec. Tlk. Batang, Kabupaten Kayong Utara",KALIMANTAN BARAT,78856.0,Indonesia,,,,-0.984744,109.8392601,https://maps.google.com/?cid=0x0:0xe606a6a5cf6cf636,
