Category;Real Category;Business Name;Address;City;State;Postal Code;Country;Phone;Latitude;Longitude;Map Link
"perumahan";"perumahan";"Kec. Taliabu Bar.";"Pulau Taliabu, Maluku Utara";"Pulau Taliabu, Maluku Utara";"MALUKU UTARA";"";"Indonesia";"";"-1.9453067";"124.3829336";"https://maps.google.com/?cid=0x0:0x9b18127cb6600f97"
"perumahan";"Komplek perumahan";"Perumahan";"29RR+M74, Wayo, Kec. Taliabu Bar., Pulau Taliabu, Maluku Utara";"Pulau Taliabu, Maluku Utara";"MALUKU UTARA";"";"Indonesia";"";"-1.9583506";"124.3906919";"https://maps.google.com/?cid=0x0:0xb634c57bdf540c2c"
"perumahan";"Komplek perumahan";"Perumahan Dokter RSUD";"392P+MPR, Bobong, Kec. Taliabu Bar., Pulau Taliabu, Maluku Utara";"Pulau Taliabu, Maluku Utara";"MALUKU UTARA";"";"Indonesia";"";"-1.9482738";"124.3867511";"https://maps.google.com/?cid=0x0:0xb6b71b5be889333a"
"perumahan";"Komplek perumahan";"Rumah Vatri";"48HV+Q43, Jl. Lain, Kasango, Kec. Taliabu Bar. Laut, Pulau Taliabu, Maluku Utara";"Pulau Taliabu, Maluku Utara";"MALUKU UTARA";"";"Indonesia";"";"-1.8698942";"124.3427762";"https://maps.google.com/?cid=0x0:0x9191844f9e74cde2"
"perumahan";"Komplek perumahan";"Rmh Ridwan";"398M+V49, Bobong, Kec. Taliabu Bar., Pulau Taliabu, Maluku Utara";"Pulau Taliabu, Maluku Utara";"MALUKU UTARA";"";"Indonesia";"";"-1.9328257";"124.3828746";"https://maps.google.com/?cid=0x0:0x28072f61c72e9a71"
"perumahan";"Komplek perumahan";"Desa Ratahaya";"3C67+2Q8, Unnamed Road, Bobong, Kec. Taliabu Bar., Pulau Taliabu, Maluku Utara";"Pulau Taliabu, Maluku Utara";"MALUKU UTARA";"";"Indonesia";"";"-1.9399667";"124.4144632";"https://maps.google.com/?cid=0x0:0xdb93c4c0ccd48cde"
"perumahan";"perumahan";"PUTRI";"398M+R8P, Bobong, Kec. Taliabu Bar., Pulau Taliabu, Maluku Utara";"Pulau Taliabu, Maluku Utara";"MALUKU UTARA";"";"Indonesia";"";"-1.932746";"124.384579";"https://maps.google.com/?cid=0x0:0xc6cd75f6f3893afe"
"perumahan";"Komplek perumahan";"Belakang pasar";"29VM+HP7, Wayo, Kec. Taliabu Bar., Pulau Taliabu, Maluku Utara";"Pulau Taliabu, Maluku Utara";"MALUKU UTARA";"";"Indonesia";"";"-1.9560875";"124.3842969";"https://maps.google.com/?cid=0x0:0x352da4ac796a413d"
"perumahan";"Komplek perumahan";"Rumah Mizel dan Jazel";"29WQ+R34, Wayo, Kec. Taliabu Bar., Pulau Taliabu, Maluku Utara";"Pulau Taliabu, Maluku Utara";"MALUKU UTARA";"";"Indonesia";"";"-1.9532626";"124.3882335";"https://maps.google.com/?cid=0x0:0xfe6bc3ddba2eee0f"
"perumahan";"perumahan";"NURIA ALKATIRI";"38RX+8FX, Maranti Jaya, Kec. Taliabu Bar., Pulau Taliabu, Maluku Utara";"Pulau Taliabu, Maluku Utara";"MALUKU UTARA";"";"Indonesia";"";"-1.9091404";"124.3487328";"https://maps.google.com/?cid=0x0:0xb263f31dd2715036"
"perumahan";"Komplek perumahan";"Rumah Hardiyanti";"394M+RC, Bobong, Kec. Taliabu Bar., Pulau Taliabu, Maluku Utara";"Pulau Taliabu, Maluku Utara";"MALUKU UTARA";"";"Indonesia";"";"-1.9429774";"124.3835116";"https://maps.google.com/?cid=0x0:0x7e25c4bcf06680e"
"perumahan";"Hotel jangka panjang";"Tiga putri satu putra";"3C59+C7, Bobong, Kec. Taliabu Bar., Pulau Taliabu, Maluku Utara";"Pulau Taliabu, Maluku Utara";"MALUKU UTARA";"";"Indonesia";"";"-1.9414873";"124.4182456";"https://maps.google.com/?cid=0x0:0x62de1cd1d213d329"
"perumahan";"Komplek perumahan";"Rumah Alisa";"482V+JMC, Karamat, Kec. Taliabu Bar., Kabupaten Kepulauan Sula, Maluku Utara";"Kabupaten Kepulauan Sula, Maluku Utara";"MALUKU UTARA";"";"Indonesia";"";"-1.8984309";"124.3441324";"https://maps.google.com/?cid=0x0:0x6e1dd68a8cc48c2a"
"perumahan";"Komplek perumahan";"Nonele Home";"397M+QM, Bobong, Kec. Taliabu Bar., Pulau Taliabu, Maluku Utara";"Pulau Taliabu, Maluku Utara";"MALUKU UTARA";"";"Indonesia";"";"-1.9355069";"124.3841423";"https://maps.google.com/?cid=0x0:0xbfd10c340851e6b5"
"perumahan";"perumahan";"Kec. Taliabu Bar. Laut";"Pulau Taliabu, Maluku Utara";"Pulau Taliabu, Maluku Utara";"MALUKU UTARA";"";"Indonesia";"";"-1.7679971";"124.3713715";"https://maps.google.com/?cid=0x0:0x8f7fd7f1ec130894"
"perumahan";"Komplek perumahan";"Rumah Vatri";"48HV+Q43, Jl. Lain, Kasango, Kec. Taliabu Bar. Laut, Pulau Taliabu, Maluku Utara";"Pulau Taliabu, Maluku Utara";"MALUKU UTARA";"";"Indonesia";"";"-1.8698942";"124.3427762";"https://maps.google.com/?cid=0x0:0x9191844f9e74cde2"
"perumahan";"perumahan";"Rumah kia";"69J9+W2J, Nggele, Kec. Taliabu Bar. Laut, Pulau Taliabu, Maluku Utara";"Pulau Taliabu, Maluku Utara";"MALUKU UTARA";"";"Indonesia";"";"-1.7676513";"124.3675039";"https://maps.google.com/?cid=0x0:0x42fd3118a13b4d35"
"perumahan";"Komplek perumahan";"Tempat santai";"6999+JHJ, Salati, Pulau Taliabu, Maluku Utara";"Pulau Taliabu, Maluku Utara";"MALUKU UTARA";"";"Indonesia";"";"-1.7809018";"124.3688952";"https://maps.google.com/?cid=0x0:0xf601321d491a040c"
"perumahan";"Komplek perumahan";"Rumah Fhany";"6868+M54, Pulau, Kec. Taliabu Bar. Laut, Pulau Taliabu, Maluku Utara";"Pulau Taliabu, Maluku Utara";"MALUKU UTARA";"";"Indonesia";"";"-1.7883547";"124.3154459";"https://maps.google.com/?cid=0x0:0x9f0845acc55010d0"
"perumahan";"Komplek perumahan";"Anindya Fahri";"48JV+H7J, Kasango, Kec. Taliabu Bar. Laut, Pulau Taliabu, Maluku Utara";"Pulau Taliabu, Maluku Utara";"MALUKU UTARA";"";"Indonesia";"";"-1.8685381";"124.3431467";"https://maps.google.com/?cid=0x0:0x4f6d15c6d49ac30e"
"perumahan";"Komplek perumahan";"Rumah Iryono";"69M9+876, Nggele, Kec. Taliabu Bar. Laut, Pulau Taliabu, Maluku Utara";"Pulau Taliabu, Maluku Utara";"MALUKU UTARA";"";"Indonesia";"";"-1.7667066";"124.368156";"https://maps.google.com/?cid=0x0:0x1d16779cabff1b9b"
"perumahan";"Otoritas Pelabuhan";"Rumah Sutri";"6868+F6F, Pulau, Kec. Taliabu Bar. Laut, Pulau Taliabu, Maluku Utara";"Pulau Taliabu, Maluku Utara";"MALUKU UTARA";"";"Indonesia";"";"-1.7888213";"124.315547";"https://maps.google.com/?cid=0x0:0x7c41c97f770424af"
"perumahan";"perumahan";"Rumah fajar";"6964+FW7, Beringin Jaya, Kec. Taliabu Bar. Laut, Pulau Taliabu, Maluku Utara";"Pulau Taliabu, Maluku Utara";"MALUKU UTARA";"";"Indonesia";"";"-1.7888406";"124.3572863";"https://maps.google.com/?cid=0x0:0x3404b20c30d64541"
"perumahan";"Kantor Pemerintah";"DESA LOHOBUBA";"6868+J37, Pulau, Kec. Taliabu Bar. Laut, Pulau Taliabu, Maluku Utara";"Pulau Taliabu, Maluku Utara";"MALUKU UTARA";"";"Indonesia";"";"-1.7881295";"124.3147421";"https://maps.google.com/?cid=0x0:0x1d651fd60fad22e2"
"perumahan";"Komplek perumahan";"Azim home";"69J9+RH7, Jl. Lain, Nggele, Kec. Taliabu Bar. Laut, Pulau Taliabu, Maluku Utara";"Pulau Taliabu, Maluku Utara";"MALUKU UTARA";"";"Indonesia";"";"-1.767917";"124.368674";"https://maps.google.com/?cid=0x0:0x8005212a0f5c2bda"
"perumahan";"Komplek perumahan";"RUMAH OMPENK";"69M9+8J7, Jl. Lain, Nggele, Kec. Taliabu Bar. Laut, Pulau Taliabu, Maluku Utara";"Pulau Taliabu, Maluku Utara";"MALUKU UTARA";"";"Indonesia";"";"-1.7667086";"124.3690495";"https://maps.google.com/?cid=0x0:0xcb2b093da0a57cb2"
"perumahan";"Kios";"Rumah Tiara";"48HV+Q43, Jl. Lain, Kasango, Kec. Taliabu Bar. Laut, Pulau Taliabu, Maluku Utara";"Pulau Taliabu, Maluku Utara";"MALUKU UTARA";"";"Indonesia";"";"-1.8711529";"124.3430751";"https://maps.google.com/?cid=0x0:0x5dd39ff6fce98f67"
"perumahan";"Pembangunan Perumahan";"Rumah La Hidi";"48JV+H7J, Kasango, Kec. Taliabu Bar. Laut, Pulau Taliabu, Maluku Utara";"Pulau Taliabu, Maluku Utara";"MALUKU UTARA";"";"Indonesia";"";"-1.8685375";"124.3431406";"https://maps.google.com/?cid=0x0:0x32d461aa5fa38a94"
"perumahan";"perumahan";"Kec. Lede";"Pulau Taliabu, Maluku Utara";"Pulau Taliabu, Maluku Utara";"MALUKU UTARA";"";"Indonesia";"";"-1.6967225";"124.3724122";"https://maps.google.com/?cid=0x0:0x51b823c7ef07a4ff"
"perumahan";"Pembangunan Perumahan";"Ali";"8FM6+JX5, Todoli, Kec. Lede, Pulau Taliabu, Maluku Utara";"Pulau Taliabu, Maluku Utara";"MALUKU UTARA";"";"Indonesia";"";"-1.6660285";"124.46228";"https://maps.google.com/?cid=0x0:0x1c39fa3b37d3ca38"
"perumahan";"Komplek perumahan";"LEDE";"893C+8XQ, Langganu, Kec. Lede, Pulau Taliabu, Maluku Utara";"Pulau Taliabu, Maluku Utara";"MALUKU UTARA";"";"Indonesia";"";"-1.6966637";"124.3724933";"https://maps.google.com/?cid=0x0:0x6bd989efc278282"
"perumahan";"Pembangunan Perumahan";"Rumah Esti";"893G+CQV, Desa, balohang, Lede, Taliabu Island Regency, North Maluku";"Pulau Taliabu, Maluku Utara";"MALUKU UTARA";"";"Indonesia";"";"-1.6963898";"124.3769174";"https://maps.google.com/?cid=0x0:0x9b3a6e25d1ecbd37"
"perumahan";"Komplek perumahan";"Rumahnya Zaid";"8GJF+RH2, Tikong, Kec. Taliabu Utara, Pulau Taliabu, Maluku Utara";"Pulau Taliabu, Maluku Utara";"MALUKU UTARA";"";"Indonesia";"";"-1.6679756";"124.5239021";"https://maps.google.com/?cid=0x0:0x2020575a23639fb1"
"perumahan";"Pemakaman";"Kompleks kuburan";"8CMQ+429, Tolong, Kec. Lede, Pulau Taliabu, Maluku Utara";"Pulau Taliabu, Maluku Utara";"MALUKU UTARA";"";"Indonesia";"";"-1.6672474";"124.4375925";"https://maps.google.com/?cid=0x0:0x2e0d031ac1b79bf8"
"perumahan";"Komplek perumahan";"House of Pharmacist";"8929+HC3, Lede, Kec. Lede, Kabupaten Kepulauan Sula, Maluku Utara";"Kabupaten Kepulauan Sula, Maluku Utara";"MALUKU UTARA";"";"Indonesia";"";"-1.6981402";"124.3687786";"https://maps.google.com/?cid=0x0:0x3e5d7635f7dc9683"
"perumahan";"Pembangunan Perumahan";"Todoli";"7F4G+74R, Todoli, Kec. Lede, Pulau Taliabu, Maluku Utara";"Pulau Taliabu, Maluku Utara";"MALUKU UTARA";"";"Indonesia";"";"-1.7442669";"124.4752715";"https://maps.google.com/?cid=0x0:0x909ad58f76b29ca4"
"perumahan";"Komplek perumahan";"Rumah Miss Perdamaian";"7F4G+74R, Todoli, Kec. Lede, Pulau Taliabu, Maluku Utara";"Pulau Taliabu, Maluku Utara";"MALUKU UTARA";"";"Indonesia";"";"-1.7442669";"124.4752715";"https://maps.google.com/?cid=0x0:0xb892656de1816420"
"perumahan";"Komplek perumahan";"Rumah Mega Meranti";"8GMF+VWV, Tikong, Kec. Taliabu Utara, Pulau Taliabu, Maluku Utara";"Pulau Taliabu, Maluku Utara";"MALUKU UTARA";"";"Indonesia";"";"-1.6658137";"124.5242676";"https://maps.google.com/?cid=0x0:0x1fe60b88326b99a5"
"perumahan";"Pembangunan Perumahan";"Rumah Afkha Afkhy dan Acha";"8CJQ+JQ, Tolong, Kec. Lede, Pulau Taliabu, Maluku Utara";"Pulau Taliabu, Maluku Utara";"MALUKU UTARA";"";"Indonesia";"";"-1.6684167";"124.43938";"https://maps.google.com/?cid=0x0:0x2205a6928c5da0d1"
"perumahan";"Komplek perumahan";"Rumah onco";"8CJR+RFG, Tolong, Kec. Lede, Pulau Taliabu, Maluku Utara";"Pulau Taliabu, Maluku Utara";"MALUKU UTARA";"";"Indonesia";"";"-1.6667125";"124.4414728";"https://maps.google.com/?cid=0x0:0xa31fe46b900c2627"
"perumahan";"perumahan";"Kecamatan lede";"8939+2P4, Lede, Kec. Lede, Pulau Taliabu, Maluku Utara";"Pulau Taliabu, Maluku Utara";"MALUKU UTARA";"";"Indonesia";"";"-1.6974917";"124.3693308";"https://maps.google.com/?cid=0x0:0xd839d82430c5ed34"
"perumahan";"Komplek perumahan";"Herli sabuay";"6F43+M69, Tolong, Kec. Lede, Pulau Taliabu, Maluku Utara";"Pulau Taliabu, Maluku Utara";"MALUKU UTARA";"";"Indonesia";"";"-1.793345";"124.4530968";"https://maps.google.com/?cid=0x0:0x6fd1128bd20fc407"
"perumahan";"perumahan";"Pulau Taliabu";"Pulau Taliabu, Maluku Utara";"Pulau Taliabu, Maluku Utara";"MALUKU UTARA";"";"Indonesia";"";"-1.8268344";"124.7740793";"https://maps.google.com/?cid=0x0:0x33cb7fa1e073c75d"
"perumahan";"perumahan";"Kec. Taliabu Utara";"Pulau Taliabu, Maluku Utara";"Pulau Taliabu, Maluku Utara";"MALUKU UTARA";"";"Indonesia";"";"-1.6577743";"124.7098315";"https://maps.google.com/?cid=0x0:0x2f87ca321b31898"
"perumahan";"Komplek perumahan";"Rumahnya Zaid";"8GJF+RH2, Tikong, Kec. Taliabu Utara, Pulau Taliabu, Maluku Utara";"Pulau Taliabu, Maluku Utara";"MALUKU UTARA";"";"Indonesia";"";"-1.6679756";"124.5239021";"https://maps.google.com/?cid=0x0:0x2020575a23639fb1"
"perumahan";"Komplek perumahan";"RUMAH JIDAN";"9H4R+C95, Nunca, Kec. Taliabu Utara, Pulau Taliabu, Maluku Utara";"Pulau Taliabu, Maluku Utara";"MALUKU UTARA";"";"Indonesia";"";"-1.6439796";"124.5909755";"https://maps.google.com/?cid=0x0:0xad7f7212e7618f6f"
"perumahan";"perumahan";"Rumah TesiEL";"5QFF+7J8, Tamping, Pencado, Kec. Taliabu Sel., Pulau Taliabu, Maluku Utara";"Pulau Taliabu, Maluku Utara";"MALUKU UTARA";"";"Indonesia";"";"-1.8268344";"124.7740793";"https://maps.google.com/?cid=0x0:0x25c069a12b4e44c3"
"perumahan";"perumahan";"Rumah pribadi";"Jl.kelapa tinggi 2 Jalan kelapa tinggi No.3, RT.6/RW.3, Sahu, Kec. Taliabu Utara, Pulau Taliabu, Maluku Utara 97794";"RT.6/RW.3, Sahu, Kec. Taliabu Utara, Pulau Taliabu";"MALUKU UTARA";"97794";"Indonesia";"";"-1.642143";"124.5533122";"https://maps.google.com/?cid=0x0:0xc84393135f16e465"
"perumahan";"Komplek perumahan";"Ema";"8GMF+CG3, Tikong, Kec. Taliabu Utara, Pulau Taliabu, Maluku Utara";"Pulau Taliabu, Maluku Utara";"MALUKU UTARA";"";"Indonesia";"";"-1.6662226";"124.5241154";"https://maps.google.com/?cid=0x0:0xabe8d4412515d146"
"perumahan";"Komplek perumahan";"FAKAU";"8GMV+8X7, Tikong, Pulau Taliabu, Maluku Utara";"Pulau Taliabu, Maluku Utara";"MALUKU UTARA";"";"Indonesia";"";"-1.6667129";"124.5449216";"https://maps.google.com/?cid=0x0:0xa8aa2bfddbd11c50"
"perumahan";"Komplek perumahan";"Rumah mama Eni";"8GJF+FQM, Tikong, Kec. Taliabu Utara, Pulau Taliabu, Maluku Utara";"Pulau Taliabu, Maluku Utara";"MALUKU UTARA";"";"Indonesia";"";"-1.6688862";"124.5247521";"https://maps.google.com/?cid=0x0:0x3997ff85951ff503"
"perumahan";"Komplek perumahan";"Rumah Ridwan Putra Bugis";"8GMG+F4H, Tikong, Kec. Taliabu Utara, Pulau Taliabu, Maluku Utara";"Pulau Taliabu, Maluku Utara";"MALUKU UTARA";"";"Indonesia";"";"-1.6663075";"124.5253518";"https://maps.google.com/?cid=0x0:0xde5e7247a848c1a4"
"perumahan";"Komplek perumahan";"Rumah Wahid";"8GMF+FG8, Tikong, Kec. Taliabu Utara, Pulau Taliabu, Maluku Utara";"Pulau Taliabu, Maluku Utara";"MALUKU UTARA";"";"Indonesia";"";"-1.6663439";"124.523829";"https://maps.google.com/?cid=0x0:0xbd5883eb0aae8850"
"perumahan";"Komplek perumahan";"RM.MiartY";"8GMM+88P, Tikong, Kec. Taliabu Utara, Pulau Taliabu, Maluku Utara";"Pulau Taliabu, Maluku Utara";"MALUKU UTARA";"";"Indonesia";"";"-1.6666669";"124.533333";"https://maps.google.com/?cid=0x0:0xf43cf8a49fc06172"
"perumahan";"Komplek perumahan";"Ruma bpk Harmini";"8GMF+CG3, Tikong, Kec. Taliabu Utara, Pulau Taliabu, Maluku Utara";"Pulau Taliabu, Maluku Utara";"MALUKU UTARA";"";"Indonesia";"";"-1.6664555";"124.5236386";"https://maps.google.com/?cid=0x0:0xeedcf1e6c39c0a75"
"perumahan";"Komplek perumahan";"Rumah Sinta";"6RG2+GM8, Jorjoga, Kec. Taliabu Utara, Pulau Taliabu, Maluku Utara";"Pulau Taliabu, Maluku Utara";"MALUKU UTARA";"";"Indonesia";"";"-1.7737219";"124.8016945";"https://maps.google.com/?cid=0x0:0x3f0a0db6b666f3dd"
"perumahan";"Komplek perumahan";"Perumahan ASN 3 Pemprov Maluku Utara";"PHHF+5V9, Bukit Durian, Oba Utara, Kota Tidore Kepulauan, Maluku Utara";"Kota Tidore Kepulauan, Maluku Utara";"MALUKU UTARA";"";"Indonesia";"";"0.7283704";"127.5741846";"https://maps.google.com/?cid=0x0:0x31eecc55eb73d7a3"
"perumahan";"Komplek perumahan";"Perum Asn 3 (B11)";"PHHF+5V9, Bukit Durian, Oba Utara, Kota Tidore Kepulauan, Maluku Utara";"Kota Tidore Kepulauan, Maluku Utara";"MALUKU UTARA";"";"Indonesia";"";"0.7280784";"127.5738782";"https://maps.google.com/?cid=0x0:0x97f572e4d2740435"
"perumahan";"perumahan";"Kec. Taliabu Tim.";"Pulau Taliabu, Maluku Utara";"Pulau Taliabu, Maluku Utara";"MALUKU UTARA";"";"Indonesia";"";"-1.7824897";"125.2932285";"https://maps.google.com/?cid=0x0:0x6fb215108475baa"
"perumahan";"Kantor Pemerintah";"Desa Samuya";"678R+WWC, Samuya, Kec. Taliabu Tim., Pulau Taliabu, Maluku Utara";"Pulau Taliabu, Maluku Utara";"MALUKU UTARA";"";"Indonesia";"";"-1.7826859";"125.2922766";"https://maps.google.com/?cid=0x0:0x4a374e617f32de79"
"perumahan";"Komplek perumahan";"Asindra S, S.T.,";"679V+CH8, Samuya, Kec. Taliabu Tim., Pulau Taliabu, Maluku Utara";"Pulau Taliabu, Maluku Utara";"MALUKU UTARA";"";"Indonesia";" 082394471611";"-1.7811498";"125.2939985";"https://maps.google.com/?cid=0x0:0xff5293868327a3c0"
"perumahan";"Komplek perumahan";"Perumahan SD";"678V+W2H, Samuya, Kec. Taliabu Tim., Pulau Taliabu, Maluku Utara";"Pulau Taliabu, Maluku Utara";"MALUKU UTARA";"";"Indonesia";"";"-1.7826554";"125.2926402";"https://maps.google.com/?cid=0x0:0x797d6a75b2e32822"
"perumahan";"Komplek perumahan";"Rumah Gue";"436H+FR9, Desa belo, Mantarara, Kec. Taliabu Tim. Sel., Pulau Taliabu, Maluku Utara";"Pulau Taliabu, Maluku Utara";"MALUKU UTARA";"";"Indonesia";"";"-1.8890037";"125.0790041";"https://maps.google.com/?cid=0x0:0xd0fd7fe8e0a2dbc8"
"perumahan";"perumahan";"Rumah Hamiyono";"3VGV+2V3, Kabunu, Kec. Taliabu Tim. Sel., Pulau Taliabu, Maluku Utara";"Pulau Taliabu, Maluku Utara";"MALUKU UTARA";"";"Indonesia";"";"-1.9250873";"124.8945154";"https://maps.google.com/?cid=0x0:0x7c10ea2f39b72186"
"perumahan";"Rumah Berhantu";"Lorong Angker Bicce";"74X5+369, Penu, Kec. Taliabu Tim., Pulau Taliabu, Maluku Utara";"Pulau Taliabu, Maluku Utara";"MALUKU UTARA";"";"Indonesia";"";"-1.7023281";"125.1081082";"https://maps.google.com/?cid=0x0:0xa03c255345d92d33"
"perumahan";"Komplek perumahan";"Rumah Samsudin Kamaru";"679V+55G, Samuya, Kec. Taliabu Tim., Pulau Taliabu, Maluku Utara";"Pulau Taliabu, Maluku Utara";"MALUKU UTARA";"";"Indonesia";"";"-1.7821531";"125.2930423";"https://maps.google.com/?cid=0x0:0xb4aa428294c6c3e1"
"perumahan";"perumahan";"Arafat";"758X+68G, Parigi, Kec. Taliabu Tim., Pulau Taliabu, Maluku Utara";"Pulau Taliabu, Maluku Utara";"MALUKU UTARA";"";"Indonesia";"";"-1.7344494";"125.1983238";"https://maps.google.com/?cid=0x0:0xdf6dccb324df3603"
"perumahan";"Komplek perumahan";"Rumah Guru SD Inpres Samuya";"679V+275, Samuya, Kec. Taliabu Tim., Pulau Taliabu, Maluku Utara";"Pulau Taliabu, Maluku Utara";"MALUKU UTARA";"";"Indonesia";"";"-1.7825102";"125.2931734";"https://maps.google.com/?cid=0x0:0x15fa0badb213ee07"
"perumahan";"Komplek perumahan";"Keluarga Nasaruddin";"679V+275, Samuya, Kec. Taliabu Tim., Pulau Taliabu, Maluku Utara";"Pulau Taliabu, Maluku Utara";"MALUKU UTARA";"";"Indonesia";"";"-1.7824821";"125.2932219";"https://maps.google.com/?cid=0x0:0xe03073edea11a11a"
"perumahan";"Komplek perumahan";"Nasaruddin home";"758X+VF4, Parigi, Kec. Taliabu Tim., Pulau Taliabu, Maluku Utara";"Pulau Taliabu, Maluku Utara";"MALUKU UTARA";"";"Indonesia";"";"-1.732648";"125.198608";"https://maps.google.com/?cid=0x0:0xa5503c7e3514dba2"
"perumahan";"perumahan";"Pulau Taliabu";"Pulau Taliabu, Maluku Utara";"Pulau Taliabu, Maluku Utara";"MALUKU UTARA";"";"Indonesia";"";"-1.8268344";"124.7740793";"https://maps.google.com/?cid=0x0:0x33cb7fa1e073c75d"
"perumahan";"perumahan";"Kec. Taliabu Tim. Sel.";"Pulau Taliabu, Maluku Utara";"Pulau Taliabu, Maluku Utara";"MALUKU UTARA";"";"Indonesia";"";"-1.8889627";"125.0798626";"https://maps.google.com/?cid=0x0:0xa3c2952966278c15"
"perumahan";"Komplek perumahan";"Rumah Gue";"436H+FR9, Desa belo, Mantarara, Kec. Taliabu Tim. Sel., Pulau Taliabu, Maluku Utara";"Pulau Taliabu, Maluku Utara";"MALUKU UTARA";"";"Indonesia";"";"-1.8890037";"125.0790041";"https://maps.google.com/?cid=0x0:0xd0fd7fe8e0a2dbc8"
"perumahan";"Komplek perumahan";"Nurjena Sangaji";"4V55+HJ9, Habunuha, Kec. Taliabu Sel., Pulau Taliabu, Maluku Utara";"Pulau Taliabu, Maluku Utara";"MALUKU UTARA";"";"Indonesia";"";"-1.8910927";"124.8591062";"https://maps.google.com/?cid=0x0:0xca2de12bab4d3f82"
"perumahan";"Komplek perumahan";"Rumah Albertus";"3P75+464, Kilo, Kec. Taliabu Sel., Pulau Taliabu, Maluku Utara";"Pulau Taliabu, Maluku Utara";"MALUKU UTARA";"";"Indonesia";"";"-1.9379066";"124.7083814";"https://maps.google.com/?cid=0x0:0x9f22e5ba1984a649"
"perumahan";"Balai Pertemuan Desa";"DESA BELO";"436H+FR9, Desa belo, Mantarara, Kec. Taliabu Tim. Sel., Pulau Taliabu, Maluku Utara";"Pulau Taliabu, Maluku Utara";"MALUKU UTARA";"";"Indonesia";"";"-1.8888482";"125.0796029";"https://maps.google.com/?cid=0x0:0x96268e89f27f87d4"
"perumahan";"Komplek perumahan";"Desa Nggaki Taliabu Selatan";"4PHJ+FF6, Nggaki, Kec. Taliabu Sel., Pulau Taliabu, Maluku Utara";"Pulau Taliabu, Maluku Utara";"MALUKU UTARA";"";"Indonesia";"";"-1.8713478";"124.7311369";"https://maps.google.com/?cid=0x0:0xb380df88b22acb2e"
"perumahan";"perumahan";"Rumah TesiEL";"5QFF+7J8, Tamping, Pencado, Kec. Taliabu Sel., Pulau Taliabu, Maluku Utara";"Pulau Taliabu, Maluku Utara";"MALUKU UTARA";"";"Indonesia";"";"-1.8268344";"124.7740793";"https://maps.google.com/?cid=0x0:0x25c069a12b4e44c3"
"perumahan";"Komplek perumahan";"Rumah robin tehe";"3WGX+64M, Sofan, Kec. Taliabu Tim. Sel., Pulau Taliabu, Maluku Utara";"Pulau Taliabu, Maluku Utara";"MALUKU UTARA";"";"Indonesia";"";"-1.9244088";"124.9477959";"https://maps.google.com/?cid=0x0:0x6445cf63b728c2dc"
"perumahan";"Pembangunan Perumahan";"Kel.Salaty Lifu";"3WFW+Q6F, Sofan, Kec. Taliabu Tim. Sel., Pulau Taliabu, Maluku Utara";"Pulau Taliabu, Maluku Utara";"MALUKU UTARA";"";"Indonesia";"";"-1.9255667";"124.9455584";"https://maps.google.com/?cid=0x0:0x6538d98c5ace56fe"
"perumahan";"Pembangunan Perumahan";"Tabaika Home";"2MGC+RP, Bahu, Kec. Taliabu Sel., Pulau Taliabu, Maluku Utara";"Pulau Taliabu, Maluku Utara";"MALUKU UTARA";"";"Indonesia";"";"-1.9737366";"124.67236";"https://maps.google.com/?cid=0x0:0x30632c61f100fd8e"
"perumahan";"Komplek perumahan";"Rumah imran";"46GH+Q66, Kamaya, Kec. Taliabu Tim. Sel., Pulau Taliabu, Maluku Utara";"Pulau Taliabu, Maluku Utara";"MALUKU UTARA";"";"Indonesia";"";"-1.87345";"125.227763";"https://maps.google.com/?cid=0x0:0x969e50d18be07d46"
"perumahan";"Pembangunan Perumahan";"Desa Mantarara";"42CJ+694, Mantarara, Kec. Taliabu Tim. Sel., Kabupaten Kepulauan Sula, Maluku Utara";"Kabupaten Kepulauan Sula, Maluku Utara";"MALUKU UTARA";"";"Indonesia";"";"-1.87949";"125.0309399";"https://maps.google.com/?cid=0x0:0x42da19072b7ebc7e"
"perumahan";"Kantor Pemerintah";"Desa Tabona, Kabupaten Pulau Taliabu";"4V57+6WR, Tabona, Kec. Taliabu Sel., Pulau Taliabu, Maluku Utara";"Pulau Taliabu, Maluku Utara";"MALUKU UTARA";"";"Indonesia";" 081340327638";"-1.8919349";"124.8646942";"https://maps.google.com/?cid=0x0:0xe1a46f65103f2163"
"perumahan";"perumahan";"Pulau Taliabu";"Pulau Taliabu, Maluku Utara";"Pulau Taliabu, Maluku Utara";"MALUKU UTARA";"";"Indonesia";"";"-1.8268344";"124.7740793";"https://maps.google.com/?cid=0x0:0x33cb7fa1e073c75d"
"perumahan";"perumahan";"Kec. Taliabu Sel.";"Pulau Taliabu, Maluku Utara";"Pulau Taliabu, Maluku Utara";"MALUKU UTARA";"";"Indonesia";"";"-1.9087227";"124.7883682";"https://maps.google.com/?cid=0x0:0x47ce8e0cf4083a24"
"perumahan";"Komplek perumahan";"Desa Nggaki Taliabu Selatan";"4PHJ+FF6, Nggaki, Kec. Taliabu Sel., Pulau Taliabu, Maluku Utara";"Pulau Taliabu, Maluku Utara";"MALUKU UTARA";"";"Indonesia";"";"-1.8713478";"124.7311369";"https://maps.google.com/?cid=0x0:0xb380df88b22acb2e"
"perumahan";"Pembangunan Perumahan";"Tabaika Home";"2MGC+RP, Bahu, Kec. Taliabu Sel., Pulau Taliabu, Maluku Utara";"Pulau Taliabu, Maluku Utara";"MALUKU UTARA";"";"Indonesia";"";"-1.9737366";"124.67236";"https://maps.google.com/?cid=0x0:0x30632c61f100fd8e"
"perumahan";"perumahan";"Rumah TesiEL";"5QFF+7J8, Tamping, Pencado, Kec. Taliabu Sel., Pulau Taliabu, Maluku Utara";"Pulau Taliabu, Maluku Utara";"MALUKU UTARA";"";"Indonesia";"";"-1.8268344";"124.7740793";"https://maps.google.com/?cid=0x0:0x25c069a12b4e44c3"
"perumahan";"Pembangunan Perumahan";"Nuha Home";"2MGF+Q75, Bahu, Kec. Taliabu Sel., Pulau Taliabu, Maluku Utara";"Pulau Taliabu, Maluku Utara";"MALUKU UTARA";"";"Indonesia";"";"-1.9731186";"124.6732485";"https://maps.google.com/?cid=0x0:0x4b8f7bb6aa7b7b83"
"perumahan";"Komplek perumahan";"Rumah kel, Primus Watratan";"3P75+8C, Kilo, Kec. Taliabu Sel., Pulau Taliabu, Maluku Utara";"Pulau Taliabu, Maluku Utara";"MALUKU UTARA";"";"Indonesia";"";"-1.9367538";"124.7083199";"https://maps.google.com/?cid=0x0:0xd79aa455535b46a8"
"perumahan";"perumahan";"Kintal rencana membangun";"3P74+2J, Kilo, Kec. Taliabu Sel., Pulau Taliabu, Maluku Utara";"Pulau Taliabu, Maluku Utara";"MALUKU UTARA";"";"Indonesia";"";"-1.9367211";"124.705484";"https://maps.google.com/?cid=0x0:0x677dfa87aa425099"
"perumahan";"perumahan";"DUSUN TAFALAHI";"3P33+7G, Kilo, Kec. Taliabu Sel., Pulau Taliabu, Maluku Utara";"Pulau Taliabu, Maluku Utara";"MALUKU UTARA";"";"Indonesia";"";"-1.9468343";"124.7038592";"https://maps.google.com/?cid=0x0:0xd2b65bf2d3673529"
"perumahan";"Komplek perumahan";"R. Kel. Barunggu - Korjesin";"3P65+F9, Kilo, Kec. Taliabu Sel., Pulau Taliabu, Maluku Utara";"Pulau Taliabu, Maluku Utara";"MALUKU UTARA";"";"Indonesia";"";"-1.9388465";"124.7083781";"https://maps.google.com/?cid=0x0:0x8e25558a796c0742"
"perumahan";"Komplek perumahan";"Nurjena Sangaji";"4V55+HJ9, Habunuha, Kec. Taliabu Sel., Pulau Taliabu, Maluku Utara";"Pulau Taliabu, Maluku Utara";"MALUKU UTARA";"";"Indonesia";"";"-1.8910927";"124.8591062";"https://maps.google.com/?cid=0x0:0xca2de12bab4d3f82"
"perumahan";"Komplek perumahan";"Rumah kel.,Yoris Reken ST 4G Cell tersedia segala jenis pulsa.";"3P75+8C, Kilo, Kec. Taliabu Sel., Pulau Taliabu, Maluku Utara";"Pulau Taliabu, Maluku Utara";"MALUKU UTARA";"";"Indonesia";"";"-1.9367375";"124.7085229";"https://maps.google.com/?cid=0x0:0x781dd67db79a50ca"
"perumahan";"Komplek perumahan";"DESA TODOLI";"5QFF+7J8, Pencado, Kec. Taliabu Sel., Pulau Taliabu, Maluku Utara";"Pulau Taliabu, Maluku Utara";"MALUKU UTARA";"";"Indonesia";"";"-1.8268344";"124.7740793";"https://maps.google.com/?cid=0x0:0x15b5dbdf10546470"
"perumahan";"Komplek perumahan";"R. Kel. S. bagege  D. Wawa";"3P74+2J, Kilo, Kec. Taliabu Sel., Pulau Taliabu, Maluku Utara";"Pulau Taliabu, Maluku Utara";"MALUKU UTARA";"";"Indonesia";"";"-1.9371778";"124.7070611";"https://maps.google.com/?cid=0x0:0x93ef3ce0415a70bd"
"housing complex";"Pemakaman";"Kompleks kuburan";"8CMQ+429, Tolong, Kec. Lede, Pulau Taliabu, Maluku Utara";"Pulau Taliabu, Maluku Utara";"MALUKU UTARA";"";"Indonesia";"";"-1.6672474";"124.4375925";"https://maps.google.com/?cid=0x0:0x2e0d031ac1b79bf8"
"housing complex";"Tempat Ziarah";"Tpu.lama";"8GMC+HRG, Tikong, Kec. Taliabu Utara, Pulau Taliabu, Maluku Utara";"Pulau Taliabu, Maluku Utara";"MALUKU UTARA";"";"Indonesia";"";"-1.6660671";"124.522092";"https://maps.google.com/?cid=0x0:0xc9f4a9f2905f02e3"
"housing complex";"housing complex";"Kec. Taliabu Bar. Laut";"Pulau Taliabu, Maluku Utara";"Pulau Taliabu, Maluku Utara";"MALUKU UTARA";"";"Indonesia";"";"-1.7679971";"124.3713715";"https://maps.google.com/?cid=0x0:0x8f7fd7f1ec130894"
"housing complex";"Tujuan Wisata";"Taman Wisata Desa Lede";"8928+RQJ, Lede, Kec. Lede, Pulau Taliabu, Maluku Utara";"Pulau Taliabu, Maluku Utara";"MALUKU UTARA";"";"Indonesia";"";"-1.6992267";"124.3668058";"https://maps.google.com/?cid=0x0:0x3011294d9e5e1998"
"housing complex";"housing complex";"Kec. Lede";"Pulau Taliabu, Maluku Utara";"Pulau Taliabu, Maluku Utara";"MALUKU UTARA";"";"Indonesia";"";"-1.6967225";"124.3724122";"https://maps.google.com/?cid=0x0:0x51b823c7ef07a4ff"
"housing complex";"Sekolah Dasar";"SD INPRES 1 Lede";"893F+GR4, Langganu, Kec. Lede, Pulau Taliabu, Maluku Utara";"Pulau Taliabu, Maluku Utara";"MALUKU UTARA";"";"Indonesia";"";"-1.6962427";"124.3745654";"https://maps.google.com/?cid=0x0:0x1464a64fe5e5cda8"
"housing complex";"housing complex";"Rumah pribadi";"Jl.kelapa tinggi 2 Jalan kelapa tinggi No.3, RT.6/RW.3, Sahu, Kec. Taliabu Utara, Pulau Taliabu, Maluku Utara 97794";"RT.6/RW.3, Sahu, Kec. Taliabu Utara, Pulau Taliabu";"MALUKU UTARA";"97794";"Indonesia";"";"-1.642143";"124.5533122";"https://maps.google.com/?cid=0x0:0xc84393135f16e465"
"housing complex";"housing complex";"Kec. Taliabu Utara";"Pulau Taliabu, Maluku Utara";"Pulau Taliabu, Maluku Utara";"MALUKU UTARA";"";"Indonesia";"";"-1.6577743";"124.7098315";"https://maps.google.com/?cid=0x0:0x2f87ca321b31898"
"housing complex";"Pemakaman";"Kompleks kuburan";"8CMQ+429, Tolong, Kec. Lede, Pulau Taliabu, Maluku Utara";"Pulau Taliabu, Maluku Utara";"MALUKU UTARA";"";"Indonesia";"";"-1.6672474";"124.4375925";"https://maps.google.com/?cid=0x0:0x2e0d031ac1b79bf8"
"housing complex";"Pemakaman";"Kompleks kuburan";"8CMQ+429, Tolong, Kec. Lede, Pulau Taliabu, Maluku Utara";"Pulau Taliabu, Maluku Utara";"MALUKU UTARA";"";"Indonesia";"";"-1.6672474";"124.4375925";"https://maps.google.com/?cid=0x0:0x2e0d031ac1b79bf8"
"housing complex";"Tempat Ziarah";"Tpu.lama";"8GMC+HRG, Tikong, Kec. Taliabu Utara, Pulau Taliabu, Maluku Utara";"Pulau Taliabu, Maluku Utara";"MALUKU UTARA";"";"Indonesia";"";"-1.6660671";"124.522092";"https://maps.google.com/?cid=0x0:0xc9f4a9f2905f02e3"
"housing complex";"housing complex";"Kec. Taliabu Tim.";"Pulau Taliabu, Maluku Utara";"Pulau Taliabu, Maluku Utara";"MALUKU UTARA";"";"Indonesia";"";"-1.7824897";"125.2932285";"https://maps.google.com/?cid=0x0:0x6fb215108475baa"
"housing complex";"housing complex";"Kec. Taliabu Tim. Sel.";"Pulau Taliabu, Maluku Utara";"Pulau Taliabu, Maluku Utara";"MALUKU UTARA";"";"Indonesia";"";"-1.8889627";"125.0798626";"https://maps.google.com/?cid=0x0:0xa3c2952966278c15"
"housing complex";"Komplek perumahan";"Kasman Ridwan";"74X5+7FG, Penu, Kec. Taliabu Tim., Pulau Taliabu, Maluku Utara";"Pulau Taliabu, Maluku Utara";"MALUKU UTARA";"";"Indonesia";"";"-1.7019518";"125.1087296";"https://maps.google.com/?cid=0x0:0x1a8dfae0b7e898dd"
"housing complex";"Pemakaman";"Kompleks kuburan";"8CMQ+429, Tolong, Kec. Lede, Pulau Taliabu, Maluku Utara";"Pulau Taliabu, Maluku Utara";"MALUKU UTARA";"";"Indonesia";"";"-1.6672474";"124.4375925";"https://maps.google.com/?cid=0x0:0x2e0d031ac1b79bf8"
"housing complex";"Komplek perumahan";"Desa SOFAN";"3WFW+Q6F, Sofan, Kec. Taliabu Tim. Sel., Pulau Taliabu, Maluku Utara";"Pulau Taliabu, Maluku Utara";"MALUKU UTARA";"";"Indonesia";"";"-1.9255656";"124.9455596";"https://maps.google.com/?cid=0x0:0xf6c3f5506d91aa95"
"housing complex";"Kantor Pemerintah";"Desa Tabona, Kabupaten Pulau Taliabu";"4V57+6WR, Tabona, Kec. Taliabu Sel., Pulau Taliabu, Maluku Utara";"Pulau Taliabu, Maluku Utara";"MALUKU UTARA";"";"Indonesia";" 081340327638";"-1.8919349";"124.8646942";"https://maps.google.com/?cid=0x0:0xe1a46f65103f2163"
"housing complex";"Kompleks Olahraga";"Lapangan bola voli putri";"3WFW+VMX, Sofan, Kec. Taliabu Tim. Sel., Pulau Taliabu, Maluku Utara";"Pulau Taliabu, Maluku Utara";"MALUKU UTARA";"";"Indonesia";"";"-1.9258151";"124.9471768";"https://maps.google.com/?cid=0x0:0xc244c95d9a1a678"
"housing complex";"housing complex";"Kec. Taliabu Sel.";"Pulau Taliabu, Maluku Utara";"Pulau Taliabu, Maluku Utara";"MALUKU UTARA";"";"Indonesia";"";"-1.9087227";"124.7883682";"https://maps.google.com/?cid=0x0:0x47ce8e0cf4083a24"
"housing complex";"Pemakaman";"Kompleks kuburan";"8CMQ+429, Tolong, Kec. Lede, Pulau Taliabu, Maluku Utara";"Pulau Taliabu, Maluku Utara";"MALUKU UTARA";"";"Indonesia";"";"-1.6672474";"124.4375925";"https://maps.google.com/?cid=0x0:0x2e0d031ac1b79bf8"
"housing complex";"Komplek perumahan";"Rumah Zayan";"9H33+2W6, Jalan Poros, RT.10, Sahu, Kec. Taliabu Utara, Pulau Taliabu, Maluku Utara";"Pulau Taliabu, Maluku Utara";"MALUKU UTARA";"";"Indonesia";"";"-1.6474543";"124.5547676";"https://maps.google.com/?cid=0x0:0x91d8e82972b83f69"
"toko bangunan";"toko bangunan";"Maluku Utara";"";"Maluku Utara";"MALUKU UTARA";"";"Indonesia";"";"1.5709993";"127.8087693";"https://maps.google.com/?cid=0x0:0x1030bfbcaf71ac0"
"toko bangunan";"Toko Bahan Bangunan";"TOKO ELDY BANGUNAN";"Bobong, Kec. Taliabu Bar., Pulau Taliabu, Maluku Utara";"Pulau Taliabu, Maluku Utara";"MALUKU UTARA";"";"Indonesia";" 085342270869";"-1.942625";"124.381349";"https://maps.google.com/?cid=0x0:0xaf82dabb011de311"
"toko bangunan";"Toko Bahan Bangunan";"TOKO ANGGI";"29XM+PF9, Wayo, Kec. Taliabu Bar., Pulau Taliabu, Maluku Utara";"Pulau Taliabu, Maluku Utara";"MALUKU UTARA";"";"Indonesia";" 082195572338";"-1.9510492";"124.3838841";"https://maps.google.com/?cid=0x0:0x4020766d2f703676"
"toko bangunan";"Toko Bahan Bangunan";"Toko Bangunan "MITRA BANGUNAN"";"8VMJ+P37, Fidi Jaya, Kec. Weda Tengah, Kabupaten Halmahera Tengah, Maluku Utara";"Kabupaten Halmahera Tengah, Maluku Utara";"MALUKU UTARA";"";"Indonesia";"";"0.334292";"127.8801666";"https://maps.google.com/?cid=0x0:0x6db8eb4715256fc8"
"toko bangunan";"Toko Bahan Bangunan";"Toko Mitra Bangunan";"Jl. Pahlawan Revolusi No.3, Muhajirin, Kec. Ternate Tengah, Kota Ternate, Maluku Utara 97721";"Muhajirin, Kec. Ternate Tengah, Kota Ternate";"MALUKU UTARA";"97721";"Indonesia";" 08124217777";"0.7863051";"127.3886452";"https://maps.google.com/?cid=0x0:0x182c1f07e66842a"
"toko bangunan";"Toko Swalayan";"intisari store";"Jl. Ps. Inpres Bastiong, Bastiong Talangame, Kec. Ternate Sel., Kota Ternate, Maluku Utara";"Kota Ternate, Maluku Utara";"MALUKU UTARA";"";"Indonesia";"";"0.7662427";"127.3764876";"https://maps.google.com/?cid=0x0:0xb5fca1232cdd4082"
"toko bangunan";"Toko Bahan Bangunan";"Toko Bangunan SENTOSA";"P266+52G O.Sasingan, Wosia, Kec. Tobelo Tengah, Kabupaten Halmahera Utara, Maluku Utara";"Kabupaten Halmahera Utara, Maluku Utara";"MALUKU UTARA";"";"Indonesia";" 082144648989";"1.7104491";"128.0100684";"https://maps.google.com/?cid=0x0:0xe043f9c8ba78bb16"
"toko bangunan";"Toko Bahan Bangunan";"Toko.Boekit Bangunan";"3FQG+659, Acango, Kec. Jailolo, Kabupaten Halmahera Barat, Maluku Utara";"Kabupaten Halmahera Barat, Maluku Utara";"MALUKU UTARA";"";"Indonesia";" 085166903897";"1.0882582";"127.4754115";"https://maps.google.com/?cid=0x0:0x88096a93b702388e"
"toko bangunan";"Pasar bahan bangunan";"Toko Sumber Bangunan";"P2G6+2MM, Gamsungi, Kec. Tobelo, Kabupaten Halmahera Utara, Maluku Utara";"Kabupaten Halmahera Utara, Maluku Utara";"MALUKU UTARA";"";"Indonesia";" 09242621455";"1.7250967";"128.0116677";"https://maps.google.com/?cid=0x0:0x14835095227102f4"
"toko bangunan";"Toko Bahan Bangunan";"Toko.Timur Raya";"8VPJ+29R, Unnamed Road, Fidi Jaya, Kec. Weda, Kabupaten Halmahera Tengah, Maluku Utara";"Kabupaten Halmahera Tengah, Maluku Utara";"MALUKU UTARA";"";"Indonesia";"";"0.3351116";"127.8809053";"https://maps.google.com/?cid=0x0:0x23faf8ae84e5052a"
"toko bangunan";"Toko Bahan Bangunan";"Toko Surya Jaya - Labuha";"9FCJ+69H, Unnamed Road, Labuha, Kec. Bacan, Kabupaten Halmahera Selatan, Maluku Utara";"Kabupaten Halmahera Selatan, Maluku Utara";"MALUKU UTARA";"";"Indonesia";" 09272321732";"-0.6294262";"127.4809969";"https://maps.google.com/?cid=0x0:0xdad7b98c88e223e3"
"toko bangunan";"Toko Bahan Bangunan";"Makmur Utama Supermarket Bahan Bangunan";"Jambula, Kec. Pulau Ternate, Kota Ternate, Maluku Utara";"Kota Ternate, Maluku Utara";"MALUKU UTARA";"";"Indonesia";" 08114313899";"0.7581804";"127.3220409";"https://maps.google.com/?cid=0x0:0xe3a01731f7851efa"
"toko bangunan";"Toko";"Fajar bangunan";"Jalan, Hatebicara, Kec. Jailolo, Kabupaten Halmahera Barat, Maluku Utara";"Kabupaten Halmahera Barat, Maluku Utara";"MALUKU UTARA";"";"Indonesia";" 08971539577";"1.0822391";"127.4752556";"https://maps.google.com/?cid=0x0:0xe063b30107b4c80b"
"toko bangunan";"Toko Bahan Bangunan";"Makmur Utama Supermarket Bahan Bangunan";"Jl. Yasin Gamsungi No.2 Kec. ternate tengah, Kel, Makassar Tim., Makassar Timur, Kota Ternate, Maluku Utara 97724";"Kel, Makassar Tim., Makassar Timur, Kota Ternate";"MALUKU UTARA";"97724";"Indonesia";" 08114313799";"0.7940352";"127.3876695";"https://maps.google.com/?cid=0x0:0x2f492ae87bf64247"
"toko bangunan";"Toko Bahan Bangunan";"TOKO ELDY BANGUNAN";"Bobong, Kec. Taliabu Bar., Pulau Taliabu, Maluku Utara";"Pulau Taliabu, Maluku Utara";"MALUKU UTARA";"";"Indonesia";" 085342270869";"-1.942625";"124.381349";"https://maps.google.com/?cid=0x0:0xaf82dabb011de311"
"toko bangunan";"toko bangunan";"Kec. Taliabu Bar. Laut";"Pulau Taliabu, Maluku Utara";"Pulau Taliabu, Maluku Utara";"MALUKU UTARA";"";"Indonesia";"";"-1.7679971";"124.3713715";"https://maps.google.com/?cid=0x0:0x8f7fd7f1ec130894"
"toko bangunan";"Toko Bahan Bangunan";"TOKO ANGGI";"29XM+PF9, Wayo, Kec. Taliabu Bar., Pulau Taliabu, Maluku Utara";"Pulau Taliabu, Maluku Utara";"MALUKU UTARA";"";"Indonesia";" 082195572338";"-1.9510492";"124.3838841";"https://maps.google.com/?cid=0x0:0x4020766d2f703676"
"toko bangunan";"toko bangunan";"Kec. Lede";"Pulau Taliabu, Maluku Utara";"Pulau Taliabu, Maluku Utara";"MALUKU UTARA";"";"Indonesia";"";"-1.6967225";"124.3724122";"https://maps.google.com/?cid=0x0:0x51b823c7ef07a4ff"
"toko bangunan";"Toko Bahan Bangunan";"TOKO ELDY BANGUNAN";"Bobong, Kec. Taliabu Bar., Pulau Taliabu, Maluku Utara";"Pulau Taliabu, Maluku Utara";"MALUKU UTARA";"";"Indonesia";" 085342270869";"-1.942625";"124.381349";"https://maps.google.com/?cid=0x0:0xaf82dabb011de311"
"toko bangunan";"Toko Bahan Bangunan";"RH";"895G+6W8, Unnamed Road, Langganu, Kec. Lede, Pulau Taliabu, Maluku Utara";"Pulau Taliabu, Maluku Utara";"MALUKU UTARA";"";"Indonesia";" 082347766555";"-1.691961";"124.377322";"https://maps.google.com/?cid=0x0:0x9e96eb105a42ae05"
"toko bangunan";"Toko Bahan Bangunan";"Toko "Ledy Bangunan"";"Mulya Guna, Kec. Tlk. Gelam, Kabupaten Ogan Komering Ilir, Sumatera Selatan";"Kabupaten Ogan Komering Ilir, Sumatera Selatan";"MALUKU UTARA";"";"Indonesia";"";"-3.583833";"104.8069123";"https://maps.google.com/?cid=0x0:0x38adb2a3fd33df79"
"toko bangunan";"Grosir Perlengkapan Rumah Tangga";"Toko Ledy bangunan dan sembako";"FQ5X+WHX, Seriguna, Kec. Tlk. Gelam, Kabupaten Ogan Komering Ilir, Sumatera Selatan 30673";"Seriguna, Kec. Tlk. Gelam, Kabupaten Ogan Komering Ilir";"MALUKU UTARA";"30673";"Indonesia";" 085273512189";"-3.5401357";"104.7989824";"https://maps.google.com/?cid=0x0:0xacde7883050e85bc"
"toko bangunan";"toko bangunan";"Kec. Taliabu Utara";"Pulau Taliabu, Maluku Utara";"Pulau Taliabu, Maluku Utara";"MALUKU UTARA";"";"Indonesia";"";"-1.6577743";"124.7098315";"https://maps.google.com/?cid=0x0:0x2f87ca321b31898"
"toko bangunan";"Toko Bahan Bangunan";"TOKO ELDY BANGUNAN";"Bobong, Kec. Taliabu Bar., Pulau Taliabu, Maluku Utara";"Pulau Taliabu, Maluku Utara";"MALUKU UTARA";"";"Indonesia";" 085342270869";"-1.942625";"124.381349";"https://maps.google.com/?cid=0x0:0xaf82dabb011de311"
"toko bangunan";"Toko Bahan Bangunan";"TOKO ANGGI";"29XM+PF9, Wayo, Kec. Taliabu Bar., Pulau Taliabu, Maluku Utara";"Pulau Taliabu, Maluku Utara";"MALUKU UTARA";"";"Indonesia";" 082195572338";"-1.9510492";"124.3838841";"https://maps.google.com/?cid=0x0:0x4020766d2f703676"
"toko bangunan";"toko bangunan";"Maluku Utara";"";"Maluku Utara";"MALUKU UTARA";"";"Indonesia";"";"1.5709993";"127.8087693";"https://maps.google.com/?cid=0x0:0x1030bfbcaf71ac0"
"toko bangunan";"Toko Bahan Bangunan";"TOKO ELDY BANGUNAN";"Bobong, Kec. Taliabu Bar., Pulau Taliabu, Maluku Utara";"Pulau Taliabu, Maluku Utara";"MALUKU UTARA";"";"Indonesia";" 085342270869";"-1.942625";"124.381349";"https://maps.google.com/?cid=0x0:0xaf82dabb011de311"
"toko bangunan";"Toko Bahan Bangunan";"TOKO ANGGI";"29XM+PF9, Wayo, Kec. Taliabu Bar., Pulau Taliabu, Maluku Utara";"Pulau Taliabu, Maluku Utara";"MALUKU UTARA";"";"Indonesia";" 082195572338";"-1.9510492";"124.3838841";"https://maps.google.com/?cid=0x0:0x4020766d2f703676"
"toko bangunan";"Toko Bahan Bangunan";"Toko Bangunan "MITRA BANGUNAN"";"8VMJ+P37, Fidi Jaya, Kec. Weda Tengah, Kabupaten Halmahera Tengah, Maluku Utara";"Kabupaten Halmahera Tengah, Maluku Utara";"MALUKU UTARA";"";"Indonesia";"";"0.334292";"127.8801666";"https://maps.google.com/?cid=0x0:0x6db8eb4715256fc8"
"toko bangunan";"Toko Bahan Bangunan";"Toko.Boekit Bangunan";"3FQG+659, Acango, Kec. Jailolo, Kabupaten Halmahera Barat, Maluku Utara";"Kabupaten Halmahera Barat, Maluku Utara";"MALUKU UTARA";"";"Indonesia";" 085166903897";"1.0882582";"127.4754115";"https://maps.google.com/?cid=0x0:0x88096a93b702388e"
"toko bangunan";"Pasar bahan bangunan";"Toko Sumber Bangunan";"P2G6+2MM, Gamsungi, Kec. Tobelo, Kabupaten Halmahera Utara, Maluku Utara";"Kabupaten Halmahera Utara, Maluku Utara";"MALUKU UTARA";"";"Indonesia";" 09242621455";"1.7250967";"128.0116677";"https://maps.google.com/?cid=0x0:0x14835095227102f4"
"toko bangunan";"Toko Bahan Bangunan";"Toko Mitra Bangunan";"Jl. Pahlawan Revolusi No.3, Muhajirin, Kec. Ternate Tengah, Kota Ternate, Maluku Utara 97721";"Muhajirin, Kec. Ternate Tengah, Kota Ternate";"MALUKU UTARA";"97721";"Indonesia";" 08124217777";"0.7863051";"127.3886452";"https://maps.google.com/?cid=0x0:0x182c1f07e66842a"
"toko bangunan";"Toko";"Toko Maba Bangunan";"M7WM+MHQ, Unnamed Road, Maba Sangaji, Kec. Kota Maba, Kabupaten Halmahera Timur, Maluku Utara";"Kabupaten Halmahera Timur, Maluku Utara";"MALUKU UTARA";"";"Indonesia";" 082187925434";"0.6967101";"128.2839897";"https://maps.google.com/?cid=0x0:0xb5997f32a3da9b72"
"toko bangunan";"Toko Bahan Bangunan";"Makmur Utama Supermarket Bahan Bangunan";"Jambula, Kec. Pulau Ternate, Kota Ternate, Maluku Utara";"Kota Ternate, Maluku Utara";"MALUKU UTARA";"";"Indonesia";" 08114313899";"0.7581804";"127.3220409";"https://maps.google.com/?cid=0x0:0xe3a01731f7851efa"
"toko bangunan";"Toko Bahan Bangunan";"toko bangunan ko hen";"56W9+R29, Unnamed Road, Tutuling Jaya, Kec. Wasile Tim., Kabupaten Halmahera Timur, Maluku Utara";"Kabupaten Halmahera Timur, Maluku Utara";"MALUKU UTARA";"";"Indonesia";"";"1.1970495";"128.2176185";"https://maps.google.com/?cid=0x0:0xbfcecb96ec1aeb86"
"toko bangunan";"Toko Bahan Bangunan";"Toko.Timur Raya";"8VPJ+29R, Unnamed Road, Fidi Jaya, Kec. Weda, Kabupaten Halmahera Tengah, Maluku Utara";"Kabupaten Halmahera Tengah, Maluku Utara";"MALUKU UTARA";"";"Indonesia";"";"0.3351116";"127.8809053";"https://maps.google.com/?cid=0x0:0x23faf8ae84e5052a"
"toko bangunan";"Toko Bahan Bangunan";"Toko Surya Jaya - Labuha";"9FCJ+69H, Unnamed Road, Labuha, Kec. Bacan, Kabupaten Halmahera Selatan, Maluku Utara";"Kabupaten Halmahera Selatan, Maluku Utara";"MALUKU UTARA";"";"Indonesia";" 09272321732";"-0.6294262";"127.4809969";"https://maps.google.com/?cid=0x0:0xdad7b98c88e223e3"
"toko bangunan";"Toko Bahan Bangunan";"RH";"895G+6W8, Unnamed Road, Langganu, Kec. Lede, Pulau Taliabu, Maluku Utara";"Pulau Taliabu, Maluku Utara";"MALUKU UTARA";"";"Indonesia";" 082347766555";"-1.691961";"124.377322";"https://maps.google.com/?cid=0x0:0x9e96eb105a42ae05"
"toko bangunan";"Toko Bahan Bangunan";"Makmur Utama Supermarket Bahan Bangunan";"Jl. Yasin Gamsungi No.2 Kec. ternate tengah, Kel, Makassar Tim., Makassar Timur, Kota Ternate, Maluku Utara 97724";"Kel, Makassar Tim., Makassar Timur, Kota Ternate";"MALUKU UTARA";"97724";"Indonesia";" 08114313799";"0.7940352";"127.3876695";"https://maps.google.com/?cid=0x0:0x2f492ae87bf64247"
"toko bangunan";"toko bangunan";"Maluku Utara";"";"Maluku Utara";"MALUKU UTARA";"";"Indonesia";"";"1.5709993";"127.8087693";"https://maps.google.com/?cid=0x0:0x1030bfbcaf71ac0"
"toko bangunan";"Toko Bahan Bangunan";"TOKO ELDY BANGUNAN";"Bobong, Kec. Taliabu Bar., Pulau Taliabu, Maluku Utara";"Pulau Taliabu, Maluku Utara";"MALUKU UTARA";"";"Indonesia";" 085342270869";"-1.942625";"124.381349";"https://maps.google.com/?cid=0x0:0xaf82dabb011de311"
"toko bangunan";"Toko Bahan Bangunan";"TOKO ANGGI";"29XM+PF9, Wayo, Kec. Taliabu Bar., Pulau Taliabu, Maluku Utara";"Pulau Taliabu, Maluku Utara";"MALUKU UTARA";"";"Indonesia";" 082195572338";"-1.9510492";"124.3838841";"https://maps.google.com/?cid=0x0:0x4020766d2f703676"
"toko bangunan";"Pasar bahan bangunan";"Toko Intisari2";"PHRH+XHX, Jl. Hijra, Galala, Oba Utara, Kota Tidore Kepulauan, Maluku Utara";"Kota Tidore Kepulauan, Maluku Utara";"MALUKU UTARA";"";"Indonesia";" 08124751378";"0.7424771";"127.5789924";"https://maps.google.com/?cid=0x0:0x25129a2cfa046c97"
"toko bangunan";"Pasar bahan bangunan";"Toko Sumber Bangunan";"P2G6+2MM, Gamsungi, Kec. Tobelo, Kabupaten Halmahera Utara, Maluku Utara";"Kabupaten Halmahera Utara, Maluku Utara";"MALUKU UTARA";"";"Indonesia";" 09242621455";"1.7250967";"128.0116677";"https://maps.google.com/?cid=0x0:0x14835095227102f4"
"toko bangunan";"Toko Bahan Bangunan";"Toko Bangunan "MITRA BANGUNAN"";"8VMJ+P37, Fidi Jaya, Kec. Weda Tengah, Kabupaten Halmahera Tengah, Maluku Utara";"Kabupaten Halmahera Tengah, Maluku Utara";"MALUKU UTARA";"";"Indonesia";"";"0.334292";"127.8801666";"https://maps.google.com/?cid=0x0:0x6db8eb4715256fc8"
"toko bangunan";"Toko Bahan Bangunan";"toko bangunan ko hen";"56W9+R29, Unnamed Road, Tutuling Jaya, Kec. Wasile Tim., Kabupaten Halmahera Timur, Maluku Utara";"Kabupaten Halmahera Timur, Maluku Utara";"MALUKU UTARA";"";"Indonesia";"";"1.1970495";"128.2176185";"https://maps.google.com/?cid=0x0:0xbfcecb96ec1aeb86"
"toko bangunan";"Toko Bahan Bangunan";"Toko Surya Jaya - Labuha";"9FCJ+69H, Unnamed Road, Labuha, Kec. Bacan, Kabupaten Halmahera Selatan, Maluku Utara";"Kabupaten Halmahera Selatan, Maluku Utara";"MALUKU UTARA";"";"Indonesia";" 09272321732";"-0.6294262";"127.4809969";"https://maps.google.com/?cid=0x0:0xdad7b98c88e223e3"
"toko bangunan";"Toko";"Toko Maba Bangunan";"M7WM+MHQ, Unnamed Road, Maba Sangaji, Kec. Kota Maba, Kabupaten Halmahera Timur, Maluku Utara";"Kabupaten Halmahera Timur, Maluku Utara";"MALUKU UTARA";"";"Indonesia";" 082187925434";"0.6967101";"128.2839897";"https://maps.google.com/?cid=0x0:0xb5997f32a3da9b72"
"toko bangunan";"Toko Bahan Bangunan";"Makmur Utama Supermarket Bahan Bangunan";"Jambula, Kec. Pulau Ternate, Kota Ternate, Maluku Utara";"Kota Ternate, Maluku Utara";"MALUKU UTARA";"";"Indonesia";" 08114313899";"0.7581804";"127.3220409";"https://maps.google.com/?cid=0x0:0xe3a01731f7851efa"
"toko bangunan";"Toko Bahan Bangunan";"Toko Sejati Bangunan";"Jalan Raya Wosia, Depan Saro Nifero, Samping Dealer Honda CV.Lion, Mahia, Kec. Tobelo, Maluku Utara 97762";"Depan Saro Nifero, Samping Dealer Honda CV.Lion, Mahia, Kec. Tobelo";"MALUKU UTARA";"97762";"Indonesia";" 082195215789";"1.7063845";"128.0084905";"https://maps.google.com/?cid=0x0:0xe07acc47d25781c8"
"toko bangunan";"Toko Bahan Bangunan";"RH";"895G+6W8, Unnamed Road, Langganu, Kec. Lede, Pulau Taliabu, Maluku Utara";"Pulau Taliabu, Maluku Utara";"MALUKU UTARA";"";"Indonesia";" 082347766555";"-1.691961";"124.377322";"https://maps.google.com/?cid=0x0:0x9e96eb105a42ae05"
"toko bangunan";"Toko Bahan Bangunan";"Toko Mitra Bangunan";"Jl. Pahlawan Revolusi No.3, Muhajirin, Kec. Ternate Tengah, Kota Ternate, Maluku Utara 97721";"Muhajirin, Kec. Ternate Tengah, Kota Ternate";"MALUKU UTARA";"97721";"Indonesia";" 08124217777";"0.7863051";"127.3886452";"https://maps.google.com/?cid=0x0:0x182c1f07e66842a"
"toko bangunan";"Toko Bahan Bangunan";"Toko Bangunan SENTOSA";"P266+52G O.Sasingan, Wosia, Kec. Tobelo Tengah, Kabupaten Halmahera Utara, Maluku Utara";"Kabupaten Halmahera Utara, Maluku Utara";"MALUKU UTARA";"";"Indonesia";" 082144648989";"1.7104491";"128.0100684";"https://maps.google.com/?cid=0x0:0xe043f9c8ba78bb16"
"toko bangunan";"toko bangunan";"Kec. Taliabu Sel.";"Pulau Taliabu, Maluku Utara";"Pulau Taliabu, Maluku Utara";"MALUKU UTARA";"";"Indonesia";"";"-1.9087227";"124.7883682";"https://maps.google.com/?cid=0x0:0x47ce8e0cf4083a24"
"toko bangunan";"Toko Bahan Bangunan";"TOKO ELDY BANGUNAN";"Bobong, Kec. Taliabu Bar., Pulau Taliabu, Maluku Utara";"Pulau Taliabu, Maluku Utara";"MALUKU UTARA";"";"Indonesia";" 085342270869";"-1.942625";"124.381349";"https://maps.google.com/?cid=0x0:0xaf82dabb011de311"
"toko bangunan";"Toko Bahan Bangunan";"TOKO ANGGI";"29XM+PF9, Wayo, Kec. Taliabu Bar., Pulau Taliabu, Maluku Utara";"Pulau Taliabu, Maluku Utara";"MALUKU UTARA";"";"Indonesia";" 082195572338";"-1.9510492";"124.3838841";"https://maps.google.com/?cid=0x0:0x4020766d2f703676"
"toko bangunan";"Toko Bahan Bangunan";"Toko Bangunan Lestari Baru";"Waihatu, Kec. Kairatu Bar., Kabupaten Seram Bagian Barat, Maluku";"Kabupaten Seram Bagian Barat, Maluku";"MALUKU UTARA";"";"Indonesia";" 082238832490";"-3.2864381";"128.3222819";"https://maps.google.com/?cid=0x0:0xb14d86a65046c260"
"toko bangunan";"Toko Bahan Bangunan";"RH";"895G+6W8, Unnamed Road, Langganu, Kec. Lede, Pulau Taliabu, Maluku Utara";"Pulau Taliabu, Maluku Utara";"MALUKU UTARA";"";"Indonesia";" 082347766555";"-1.691961";"124.377322";"https://maps.google.com/?cid=0x0:0x9e96eb105a42ae05"
"building materials";"Toko Bahan Bangunan";"TOKO ELDY BANGUNAN";"Bobong, Kec. Taliabu Bar., Pulau Taliabu, Maluku Utara";"Pulau Taliabu, Maluku Utara";"MALUKU UTARA";"";"Indonesia";" 085342270869";"-1.942625";"124.381349";"https://maps.google.com/?cid=0x0:0xaf82dabb011de311"
"building materials";"Toko Bahan Bangunan";"TOKO ANGGI";"29XM+PF9, Wayo, Kec. Taliabu Bar., Pulau Taliabu, Maluku Utara";"Pulau Taliabu, Maluku Utara";"MALUKU UTARA";"";"Indonesia";" 082195572338";"-1.9510492";"124.3838841";"https://maps.google.com/?cid=0x0:0x4020766d2f703676"
"building materials";"building materials";"Kec. Taliabu Bar.";"Pulau Taliabu, Maluku Utara";"Pulau Taliabu, Maluku Utara";"MALUKU UTARA";"";"Indonesia";"";"-1.9453067";"124.3829336";"https://maps.google.com/?cid=0x0:0x9b18127cb6600f97"
"building materials";"building materials";"Kec. Taliabu Bar. Laut";"Pulau Taliabu, Maluku Utara";"Pulau Taliabu, Maluku Utara";"MALUKU UTARA";"";"Indonesia";"";"-1.7679971";"124.3713715";"https://maps.google.com/?cid=0x0:0x8f7fd7f1ec130894"
"building materials";"Toko Bahan Bangunan";"TOKO ELDY BANGUNAN";"Bobong, Kec. Taliabu Bar., Pulau Taliabu, Maluku Utara";"Pulau Taliabu, Maluku Utara";"MALUKU UTARA";"";"Indonesia";" 085342270869";"-1.942625";"124.381349";"https://maps.google.com/?cid=0x0:0xaf82dabb011de311"
"building materials";"Toko Bahan Bangunan";"RH";"895G+6W8, Unnamed Road, Langganu, Kec. Lede, Pulau Taliabu, Maluku Utara";"Pulau Taliabu, Maluku Utara";"MALUKU UTARA";"";"Indonesia";" 082347766555";"-1.691961";"124.377322";"https://maps.google.com/?cid=0x0:0x9e96eb105a42ae05"
"building materials";"Toko bahan makanan";"SINA PENA";"69JC+RVQ, Nggele, Kec. Taliabu Bar. Laut, Pulau Taliabu, Maluku Utara";"Pulau Taliabu, Maluku Utara";"MALUKU UTARA";"";"Indonesia";"";"-1.767901";"124.3722467";"https://maps.google.com/?cid=0x0:0x62a048db3ad2137d"
"building materials";"Pelayanan Keamanan Jalan";"Muara batas";"7CP5+MFX, Langganu, Kec. Lede, Pulau Taliabu, Maluku Utara";"Pulau Taliabu, Maluku Utara";"MALUKU UTARA";"";"Indonesia";"";"-1.7132647";"124.4087307";"https://maps.google.com/?cid=0x0:0x2739151659c61548"
"building materials";"Toko Bahan Bangunan";"CV Damai sehati";"29VR+PCR, Wayo, Kec. Taliabu Bar., Kabupaten Kepulauan Sula, Maluku Utara";"Kabupaten Kepulauan Sula, Maluku Utara";"MALUKU UTARA";"";"Indonesia";"";"-1.9564141";"124.3907834";"https://maps.google.com/?cid=0x0:0x4c1ad3c70faae04"
"building materials";"Toko Bahan Bangunan";"RH";"895G+6W8, Unnamed Road, Langganu, Kec. Lede, Pulau Taliabu, Maluku Utara";"Pulau Taliabu, Maluku Utara";"MALUKU UTARA";"";"Indonesia";" 082347766555";"-1.691961";"124.377322";"https://maps.google.com/?cid=0x0:0x9e96eb105a42ae05"
"building materials";"building materials";"Kec. Lede";"Pulau Taliabu, Maluku Utara";"Pulau Taliabu, Maluku Utara";"MALUKU UTARA";"";"Indonesia";"";"-1.6967225";"124.3724122";"https://maps.google.com/?cid=0x0:0x51b823c7ef07a4ff"
"building materials";"Toko Bahan Bangunan";"TOKO ELDY BANGUNAN";"Bobong, Kec. Taliabu Bar., Pulau Taliabu, Maluku Utara";"Pulau Taliabu, Maluku Utara";"MALUKU UTARA";"";"Indonesia";" 085342270869";"-1.942625";"124.381349";"https://maps.google.com/?cid=0x0:0xaf82dabb011de311"
"building materials";"Toko Bahan Bangunan";"Ludeco.id";"Ruko Boston Square RK3/33 Jalan Raya Kota Wisata Ciangsana, Cibubur, Kec. Gn. Putri, Jawa Barat 16968";"Cibubur, Kec. Gn. Putri";"MALUKU UTARA";"16968";"Indonesia";" 082297729001";"-6.3509423";"106.9636618";"https://maps.google.com/?cid=0x0:0x110c2d145321438f"
"building materials";"Toko Bahan Bangunan";"Indec";"Jl. Raya Ciangsana, Bojong Kulur, Kec. Gn. Putri, Kabupaten Bogor, Jawa Barat 16968";"Bojong Kulur, Kec. Gn. Putri, Kabupaten Bogor";"MALUKU UTARA";"16968";"Indonesia";" 02182428550";"-6.3352266";"106.9667355";"https://maps.google.com/?cid=0x0:0xe31aaf9a573e06ef"
"building materials";"building materials";"Kec. Taliabu Utara";"Pulau Taliabu, Maluku Utara";"Pulau Taliabu, Maluku Utara";"MALUKU UTARA";"";"Indonesia";"";"-1.6577743";"124.7098315";"https://maps.google.com/?cid=0x0:0x2f87ca321b31898"
"building materials";"Toko Bahan Bangunan";"TOKO ELDY BANGUNAN";"Bobong, Kec. Taliabu Bar., Pulau Taliabu, Maluku Utara";"Pulau Taliabu, Maluku Utara";"MALUKU UTARA";"";"Indonesia";" 085342270869";"-1.942625";"124.381349";"https://maps.google.com/?cid=0x0:0xaf82dabb011de311"
"building materials";"Toko Bahan Bangunan";"TOKO ANGGI";"29XM+PF9, Wayo, Kec. Taliabu Bar., Pulau Taliabu, Maluku Utara";"Pulau Taliabu, Maluku Utara";"MALUKU UTARA";"";"Indonesia";" 082195572338";"-1.9510492";"124.3838841";"https://maps.google.com/?cid=0x0:0x4020766d2f703676"
"building materials";"Perusahaan Konstruksi";"PT. ADIDAYA TANGGUH";"5QFF+7J8, Pencado, Kec. Taliabu Sel., Pulau Taliabu, Maluku Utara";"Pulau Taliabu, Maluku Utara";"MALUKU UTARA";"";"Indonesia";" 082340843658";"-1.8268344";"124.7740793";"https://maps.google.com/?cid=0x0:0x8b9bef88e23cba78"
"building materials";"Toko Bahan Bangunan";"RH";"895G+6W8, Unnamed Road, Langganu, Kec. Lede, Pulau Taliabu, Maluku Utara";"Pulau Taliabu, Maluku Utara";"MALUKU UTARA";"";"Indonesia";" 082347766555";"-1.691961";"124.377322";"https://maps.google.com/?cid=0x0:0x9e96eb105a42ae05"
"building materials";"building materials";"Kec. Taliabu Tim.";"Pulau Taliabu, Maluku Utara";"Pulau Taliabu, Maluku Utara";"MALUKU UTARA";"";"Indonesia";"";"-1.7824897";"125.2932285";"https://maps.google.com/?cid=0x0:0x6fb215108475baa"
"building materials";"Toko Bahan Bangunan";"TOKO ELDY BANGUNAN";"Bobong, Kec. Taliabu Bar., Pulau Taliabu, Maluku Utara";"Pulau Taliabu, Maluku Utara";"MALUKU UTARA";"";"Indonesia";" 085342270869";"-1.942625";"124.381349";"https://maps.google.com/?cid=0x0:0xaf82dabb011de311"
"building materials";"Toko Bahan Bangunan";"TOKO ANGGI";"29XM+PF9, Wayo, Kec. Taliabu Bar., Pulau Taliabu, Maluku Utara";"Pulau Taliabu, Maluku Utara";"MALUKU UTARA";"";"Indonesia";" 082195572338";"-1.9510492";"124.3838841";"https://maps.google.com/?cid=0x0:0x4020766d2f703676"
"building materials";"Toko Bahan Bangunan";"RH";"895G+6W8, Unnamed Road, Langganu, Kec. Lede, Pulau Taliabu, Maluku Utara";"Pulau Taliabu, Maluku Utara";"MALUKU UTARA";"";"Indonesia";" 082347766555";"-1.691961";"124.377322";"https://maps.google.com/?cid=0x0:0x9e96eb105a42ae05"
"building materials";"building materials";"Kec. Taliabu Tim. Sel.";"Pulau Taliabu, Maluku Utara";"Pulau Taliabu, Maluku Utara";"MALUKU UTARA";"";"Indonesia";"";"-1.8889627";"125.0798626";"https://maps.google.com/?cid=0x0:0xa3c2952966278c15"
"building materials";"Toko Bahan Bangunan";"TOKO ELDY BANGUNAN";"Bobong, Kec. Taliabu Bar., Pulau Taliabu, Maluku Utara";"Pulau Taliabu, Maluku Utara";"MALUKU UTARA";"";"Indonesia";" 085342270869";"-1.942625";"124.381349";"https://maps.google.com/?cid=0x0:0xaf82dabb011de311"
"building materials";"Toko Bahan Bangunan";"TOKO ANGGI";"29XM+PF9, Wayo, Kec. Taliabu Bar., Pulau Taliabu, Maluku Utara";"Pulau Taliabu, Maluku Utara";"MALUKU UTARA";"";"Indonesia";" 082195572338";"-1.9510492";"124.3838841";"https://maps.google.com/?cid=0x0:0x4020766d2f703676"
"building materials";"Toko Bahan Bangunan";"RH";"895G+6W8, Unnamed Road, Langganu, Kec. Lede, Pulau Taliabu, Maluku Utara";"Pulau Taliabu, Maluku Utara";"MALUKU UTARA";"";"Indonesia";" 082347766555";"-1.691961";"124.377322";"https://maps.google.com/?cid=0x0:0x9e96eb105a42ae05"
"building materials";"building materials";"Kec. Taliabu Sel.";"Pulau Taliabu, Maluku Utara";"Pulau Taliabu, Maluku Utara";"MALUKU UTARA";"";"Indonesia";"";"-1.9087227";"124.7883682";"https://maps.google.com/?cid=0x0:0x47ce8e0cf4083a24"
"building materials";"Toko Bahan Bangunan";"TOKO ELDY BANGUNAN";"Bobong, Kec. Taliabu Bar., Pulau Taliabu, Maluku Utara";"Pulau Taliabu, Maluku Utara";"MALUKU UTARA";"";"Indonesia";" 085342270869";"-1.942625";"124.381349";"https://maps.google.com/?cid=0x0:0xaf82dabb011de311"
"building materials";"Toko Bahan Bangunan";"TOKO ANGGI";"29XM+PF9, Wayo, Kec. Taliabu Bar., Pulau Taliabu, Maluku Utara";"Pulau Taliabu, Maluku Utara";"MALUKU UTARA";"";"Indonesia";" 082195572338";"-1.9510492";"124.3838841";"https://maps.google.com/?cid=0x0:0x4020766d2f703676"
"building materials";"Perusahaan Konstruksi";"PT. ADIDAYA TANGGUH";"5QFF+7J8, Pencado, Kec. Taliabu Sel., Pulau Taliabu, Maluku Utara";"Pulau Taliabu, Maluku Utara";"MALUKU UTARA";"";"Indonesia";" 082340843658";"-1.8268344";"124.7740793";"https://maps.google.com/?cid=0x0:0x8b9bef88e23cba78"
"building materials";"Toko Bahan Bangunan";"Taliabu Timber PT";"Jl. Nona Saar Sopacua No.39, RT.003, Kel Wainitu, Kec. Nusaniwe, Kota Ambon, Maluku";"Kota Ambon, Maluku";"MALUKU UTARA";"";"Indonesia";" 0911353229";"-3.704997";"128.169989";"https://maps.google.com/?cid=0x0:0x4117085aad0aaeb"
"building materials";"Industri Percetakan";"Batako Press Multi Guna Taliabu";"29QV+C4M, Wayo, Kec. Taliabu Bar., Pulau Taliabu, Maluku Utara";"Pulau Taliabu, Maluku Utara";"MALUKU UTARA";"";"Indonesia";" 085240052610";"-1.961424";"124.392799";"https://maps.google.com/?cid=0x0:0xdb82e525574e2309"
"hardware store";"hardware store";"Maluku Utara";"";"Maluku Utara";"MALUKU UTARA";"";"Indonesia";"";"1.5709993";"127.8087693";"https://maps.google.com/?cid=0x0:0x1030bfbcaf71ac0"
"hardware store";"Toko Bahan Bangunan";"TOKO ELDY BANGUNAN";"Bobong, Kec. Taliabu Bar., Pulau Taliabu, Maluku Utara";"Pulau Taliabu, Maluku Utara";"MALUKU UTARA";"";"Indonesia";" 085342270869";"-1.942625";"124.381349";"https://maps.google.com/?cid=0x0:0xaf82dabb011de311"
"hardware store";"Toko Bahan Bangunan";"TOKO ANGGI";"29XM+PF9, Wayo, Kec. Taliabu Bar., Pulau Taliabu, Maluku Utara";"Pulau Taliabu, Maluku Utara";"MALUKU UTARA";"";"Indonesia";" 082195572338";"-1.9510492";"124.3838841";"https://maps.google.com/?cid=0x0:0x4020766d2f703676"
"hardware store";"hardware store";"Kec. Taliabu Bar. Laut";"Pulau Taliabu, Maluku Utara";"Pulau Taliabu, Maluku Utara";"MALUKU UTARA";"";"Indonesia";"";"-1.7679971";"124.3713715";"https://maps.google.com/?cid=0x0:0x8f7fd7f1ec130894"
"hardware store";"Toko Bahan Bangunan";"TOKO ELDY BANGUNAN";"Bobong, Kec. Taliabu Bar., Pulau Taliabu, Maluku Utara";"Pulau Taliabu, Maluku Utara";"MALUKU UTARA";"";"Indonesia";" 085342270869";"-1.942625";"124.381349";"https://maps.google.com/?cid=0x0:0xaf82dabb011de311"
"hardware store";"Toko Bahan Bangunan";"TOKO ANGGI";"29XM+PF9, Wayo, Kec. Taliabu Bar., Pulau Taliabu, Maluku Utara";"Pulau Taliabu, Maluku Utara";"MALUKU UTARA";"";"Indonesia";" 082195572338";"-1.9510492";"124.3838841";"https://maps.google.com/?cid=0x0:0x4020766d2f703676"
"hardware store";"Toko Bahan Bangunan";"TOKO ELDY BANGUNAN";"Bobong, Kec. Taliabu Bar., Pulau Taliabu, Maluku Utara";"Pulau Taliabu, Maluku Utara";"MALUKU UTARA";"";"Indonesia";" 085342270869";"-1.942625";"124.381349";"https://maps.google.com/?cid=0x0:0xaf82dabb011de311"
"hardware store";"Toko Bahan Bangunan";"TOKO ANGGI";"29XM+PF9, Wayo, Kec. Taliabu Bar., Pulau Taliabu, Maluku Utara";"Pulau Taliabu, Maluku Utara";"MALUKU UTARA";"";"Indonesia";" 082195572338";"-1.9510492";"124.3838841";"https://maps.google.com/?cid=0x0:0x4020766d2f703676"
"hardware store";"hardware store";"Kec. Taliabu Utara";"Pulau Taliabu, Maluku Utara";"Pulau Taliabu, Maluku Utara";"MALUKU UTARA";"";"Indonesia";"";"-1.6577743";"124.7098315";"https://maps.google.com/?cid=0x0:0x2f87ca321b31898"
"hardware store";"Toko Bahan Bangunan";"TOKO ELDY BANGUNAN";"Bobong, Kec. Taliabu Bar., Pulau Taliabu, Maluku Utara";"Pulau Taliabu, Maluku Utara";"MALUKU UTARA";"";"Indonesia";" 085342270869";"-1.942625";"124.381349";"https://maps.google.com/?cid=0x0:0xaf82dabb011de311"
"hardware store";"Toko bahan makanan";"SINA PENA";"69JC+RVQ, Nggele, Kec. Taliabu Bar. Laut, Pulau Taliabu, Maluku Utara";"Pulau Taliabu, Maluku Utara";"MALUKU UTARA";"";"Indonesia";"";"-1.767901";"124.3722467";"https://maps.google.com/?cid=0x0:0x62a048db3ad2137d"
"hardware store";"hardware store";"Maluku Utara";"";"Maluku Utara";"MALUKU UTARA";"";"Indonesia";"";"1.5709993";"127.8087693";"https://maps.google.com/?cid=0x0:0x1030bfbcaf71ac0"
"hardware store";"Toko Bahan Bangunan";"TOKO ELDY BANGUNAN";"Bobong, Kec. Taliabu Bar., Pulau Taliabu, Maluku Utara";"Pulau Taliabu, Maluku Utara";"MALUKU UTARA";"";"Indonesia";" 085342270869";"-1.942625";"124.381349";"https://maps.google.com/?cid=0x0:0xaf82dabb011de311"
"hardware store";"Toko Bahan Bangunan";"TOKO ANGGI";"29XM+PF9, Wayo, Kec. Taliabu Bar., Pulau Taliabu, Maluku Utara";"Pulau Taliabu, Maluku Utara";"MALUKU UTARA";"";"Indonesia";" 082195572338";"-1.9510492";"124.3838841";"https://maps.google.com/?cid=0x0:0x4020766d2f703676"
"hardware store";"Toko Bahan Bangunan";"Toko Bangunan "MITRA BANGUNAN"";"8VMJ+P37, Fidi Jaya, Kec. Weda Tengah, Kabupaten Halmahera Tengah, Maluku Utara";"Kabupaten Halmahera Tengah, Maluku Utara";"MALUKU UTARA";"";"Indonesia";"";"0.334292";"127.8801666";"https://maps.google.com/?cid=0x0:0x6db8eb4715256fc8"
"hardware store";"Toko Bahan Bangunan";"Toko.Timur Raya";"8VPJ+29R, Unnamed Road, Fidi Jaya, Kec. Weda, Kabupaten Halmahera Tengah, Maluku Utara";"Kabupaten Halmahera Tengah, Maluku Utara";"MALUKU UTARA";"";"Indonesia";"";"0.3351116";"127.8809053";"https://maps.google.com/?cid=0x0:0x23faf8ae84e5052a"
"hardware store";"Kios";"Kios Sepatu R3";"74X5+H4J, Jl. Pendidikan, Penu, Kec. Taliabu Tim., Pulau Taliabu, Maluku Utara";"Pulau Taliabu, Maluku Utara";"MALUKU UTARA";"";"Indonesia";"";"-1.701039";"125.1077573";"https://maps.google.com/?cid=0x0:0x1db01487a2ecfe6c"
"hardware store";"hardware store";"Kec. Taliabu Tim. Sel.";"Pulau Taliabu, Maluku Utara";"Pulau Taliabu, Maluku Utara";"MALUKU UTARA";"";"Indonesia";"";"-1.8889627";"125.0798626";"https://maps.google.com/?cid=0x0:0xa3c2952966278c15"
"hardware store";"Toko Bahan Bangunan";"TOKO ELDY BANGUNAN";"Bobong, Kec. Taliabu Bar., Pulau Taliabu, Maluku Utara";"Pulau Taliabu, Maluku Utara";"MALUKU UTARA";"";"Indonesia";" 085342270869";"-1.942625";"124.381349";"https://maps.google.com/?cid=0x0:0xaf82dabb011de311"
"hardware store";"Toko Bahan Bangunan";"TOKO ANGGI";"29XM+PF9, Wayo, Kec. Taliabu Bar., Pulau Taliabu, Maluku Utara";"Pulau Taliabu, Maluku Utara";"MALUKU UTARA";"";"Indonesia";" 082195572338";"-1.9510492";"124.3838841";"https://maps.google.com/?cid=0x0:0x4020766d2f703676"
"hardware store";"Toko Bahan Bangunan";"RH";"895G+6W8, Unnamed Road, Langganu, Kec. Lede, Pulau Taliabu, Maluku Utara";"Pulau Taliabu, Maluku Utara";"MALUKU UTARA";"";"Indonesia";" 082347766555";"-1.691961";"124.377322";"https://maps.google.com/?cid=0x0:0x9e96eb105a42ae05"
"hardware store";"hardware store";"Kec. Taliabu Sel.";"Pulau Taliabu, Maluku Utara";"Pulau Taliabu, Maluku Utara";"MALUKU UTARA";"";"Indonesia";"";"-1.9087227";"124.7883682";"https://maps.google.com/?cid=0x0:0x47ce8e0cf4083a24"
"hardware store";"Toko Bahan Bangunan";"TOKO ANGGI";"29XM+PF9, Wayo, Kec. Taliabu Bar., Pulau Taliabu, Maluku Utara";"Pulau Taliabu, Maluku Utara";"MALUKU UTARA";"";"Indonesia";" 082195572338";"-1.9510492";"124.3838841";"https://maps.google.com/?cid=0x0:0x4020766d2f703676"
"hardware store";"Toko Bahan Bangunan";"TOKO ELDY BANGUNAN";"Bobong, Kec. Taliabu Bar., Pulau Taliabu, Maluku Utara";"Pulau Taliabu, Maluku Utara";"MALUKU UTARA";"";"Indonesia";" 085342270869";"-1.942625";"124.381349";"https://maps.google.com/?cid=0x0:0xaf82dabb011de311"
"supermarket bangunan";"supermarket bangunan";"Kec. Taliabu Bar.";"Pulau Taliabu, Maluku Utara";"Pulau Taliabu, Maluku Utara";"MALUKU UTARA";"";"Indonesia";"";"-1.9453067";"124.3829336";"https://maps.google.com/?cid=0x0:0x9b18127cb6600f97"
"supermarket bangunan";"Toko Bahan Bangunan";"TOKO ANGGI";"29XM+PF9, Wayo, Kec. Taliabu Bar., Pulau Taliabu, Maluku Utara";"Pulau Taliabu, Maluku Utara";"MALUKU UTARA";"";"Indonesia";" 082195572338";"-1.9510492";"124.3838841";"https://maps.google.com/?cid=0x0:0x4020766d2f703676"
"supermarket bangunan";"Toko Bahan Bangunan";"TOKO ELDY BANGUNAN";"Bobong, Kec. Taliabu Bar., Pulau Taliabu, Maluku Utara";"Pulau Taliabu, Maluku Utara";"MALUKU UTARA";"";"Indonesia";" 085342270869";"-1.942625";"124.381349";"https://maps.google.com/?cid=0x0:0xaf82dabb011de311"
"supermarket bangunan";"supermarket bangunan";"Kec. Taliabu Bar. Laut";"Pulau Taliabu, Maluku Utara";"Pulau Taliabu, Maluku Utara";"MALUKU UTARA";"";"Indonesia";"";"-1.7679971";"124.3713715";"https://maps.google.com/?cid=0x0:0x8f7fd7f1ec130894"
"supermarket bangunan";"Toko Bahan Bangunan";"TOKO ELDY BANGUNAN";"Bobong, Kec. Taliabu Bar., Pulau Taliabu, Maluku Utara";"Pulau Taliabu, Maluku Utara";"MALUKU UTARA";"";"Indonesia";" 085342270869";"-1.942625";"124.381349";"https://maps.google.com/?cid=0x0:0xaf82dabb011de311"
"supermarket bangunan";"Toko Bahan Bangunan";"TOKO ANGGI";"29XM+PF9, Wayo, Kec. Taliabu Bar., Pulau Taliabu, Maluku Utara";"Pulau Taliabu, Maluku Utara";"MALUKU UTARA";"";"Indonesia";" 082195572338";"-1.9510492";"124.3838841";"https://maps.google.com/?cid=0x0:0x4020766d2f703676"
"supermarket bangunan";"Toko Bahan Bangunan";"Madju Utama Supermarket Bahan Bangunan";"Jl. KH. Noer Ali, RT.003/RW.025, Kayuringin Jaya, Kec. Bekasi Sel., Kota Bks, Jawa Barat 17148";"RT.003/RW.025, Kayuringin Jaya, Kec. Bekasi Sel., Kota Bks";"MALUKU UTARA";"17148";"Indonesia";" 087780164555";"-6.2475509";"106.9792324";"https://maps.google.com/?cid=0x0:0x3c4fc9f20a3df4f3"
"supermarket bangunan";"Toko Bahan Bangunan";"TOKO ELDY BANGUNAN";"Bobong, Kec. Taliabu Bar., Pulau Taliabu, Maluku Utara";"Pulau Taliabu, Maluku Utara";"MALUKU UTARA";"";"Indonesia";" 085342270869";"-1.942625";"124.381349";"https://maps.google.com/?cid=0x0:0xaf82dabb011de311"
"supermarket bangunan";"Toko Bahan Bangunan";"TOKO ANGGI";"29XM+PF9, Wayo, Kec. Taliabu Bar., Pulau Taliabu, Maluku Utara";"Pulau Taliabu, Maluku Utara";"MALUKU UTARA";"";"Indonesia";" 082195572338";"-1.9510492";"124.3838841";"https://maps.google.com/?cid=0x0:0x4020766d2f703676"
"supermarket bangunan";"supermarket bangunan";"Supermarket Bahan Bangunan";"Jl. Raya Sawangan No.3, RT.3/RW.1, Mampang, Kec. Pancoran Mas, Kota Depok, Jawa Barat 16433";"RT.3/RW.1, Mampang, Kec. Pancoran Mas, Kota Depok";"MALUKU UTARA";"16433";"Indonesia";"";"-6.3956904";"106.8033472";"https://maps.google.com/?cid=0x0:0xbf85e2787e32635c"
"supermarket bangunan";"Toko Bahan Bangunan";"TOKO ELDY BANGUNAN";"Bobong, Kec. Taliabu Bar., Pulau Taliabu, Maluku Utara";"Pulau Taliabu, Maluku Utara";"MALUKU UTARA";"";"Indonesia";" 085342270869";"-1.942625";"124.381349";"https://maps.google.com/?cid=0x0:0xaf82dabb011de311"
"supermarket bangunan";"Toko Bahan Bangunan";"TOKO ANGGI";"29XM+PF9, Wayo, Kec. Taliabu Bar., Pulau Taliabu, Maluku Utara";"Pulau Taliabu, Maluku Utara";"MALUKU UTARA";"";"Indonesia";" 082195572338";"-1.9510492";"124.3838841";"https://maps.google.com/?cid=0x0:0x4020766d2f703676"
"supermarket bangunan";"supermarket bangunan";"Kec. Taliabu Tim.";"Pulau Taliabu, Maluku Utara";"Pulau Taliabu, Maluku Utara";"MALUKU UTARA";"";"Indonesia";"";"-1.7824897";"125.2932285";"https://maps.google.com/?cid=0x0:0x6fb215108475baa"
"supermarket bangunan";"Toko Bahan Bangunan";"TOKO ELDY BANGUNAN";"Bobong, Kec. Taliabu Bar., Pulau Taliabu, Maluku Utara";"Pulau Taliabu, Maluku Utara";"MALUKU UTARA";"";"Indonesia";" 085342270869";"-1.942625";"124.381349";"https://maps.google.com/?cid=0x0:0xaf82dabb011de311"
"supermarket bangunan";"Toko Bahan Bangunan";"TOKO ANGGI";"29XM+PF9, Wayo, Kec. Taliabu Bar., Pulau Taliabu, Maluku Utara";"Pulau Taliabu, Maluku Utara";"MALUKU UTARA";"";"Indonesia";" 082195572338";"-1.9510492";"124.3838841";"https://maps.google.com/?cid=0x0:0x4020766d2f703676"
"supermarket bangunan";"supermarket bangunan";"Kec. Taliabu Tim. Sel.";"Pulau Taliabu, Maluku Utara";"Pulau Taliabu, Maluku Utara";"MALUKU UTARA";"";"Indonesia";"";"-1.8889627";"125.0798626";"https://maps.google.com/?cid=0x0:0xa3c2952966278c15"
"supermarket bangunan";"Toko Bahan Bangunan";"TOKO ELDY BANGUNAN";"Bobong, Kec. Taliabu Bar., Pulau Taliabu, Maluku Utara";"Pulau Taliabu, Maluku Utara";"MALUKU UTARA";"";"Indonesia";" 085342270869";"-1.942625";"124.381349";"https://maps.google.com/?cid=0x0:0xaf82dabb011de311"
"supermarket bangunan";"Toko Bahan Bangunan";"TOKO ANGGI";"29XM+PF9, Wayo, Kec. Taliabu Bar., Pulau Taliabu, Maluku Utara";"Pulau Taliabu, Maluku Utara";"MALUKU UTARA";"";"Indonesia";" 082195572338";"-1.9510492";"124.3838841";"https://maps.google.com/?cid=0x0:0x4020766d2f703676"
"supermarket bangunan";"Toko Bahan Bangunan";"Toko Bangunan Lestari Baru";"Waihatu, Kec. Kairatu Bar., Kabupaten Seram Bagian Barat, Maluku";"Kabupaten Seram Bagian Barat, Maluku";"MALUKU UTARA";"";"Indonesia";" 082238832490";"-3.2864381";"128.3222819";"https://maps.google.com/?cid=0x0:0xb14d86a65046c260"
"supermarket bangunan";"Toko Bahan Bangunan";"Makmur Utama Supermarket Bahan Bangunan";"Jl. Yasin Gamsungi No.2 Kec. ternate tengah, Kel, Makassar Tim., Makassar Timur, Kota Ternate, Maluku Utara 97724";"Kel, Makassar Tim., Makassar Timur, Kota Ternate";"MALUKU UTARA";"97724";"Indonesia";" 08114313799";"0.7940352";"127.3876695";"https://maps.google.com/?cid=0x0:0x2f492ae87bf64247"
"supermarket bangunan";"Pasar bahan bangunan";"Toko Intisari2";"PHRH+XHX, Jl. Hijra, Galala, Oba Utara, Kota Tidore Kepulauan, Maluku Utara";"Kota Tidore Kepulauan, Maluku Utara";"MALUKU UTARA";"";"Indonesia";" 08124751378";"0.7424771";"127.5789924";"https://maps.google.com/?cid=0x0:0x25129a2cfa046c97"
"supermarket bangunan";"Toko Bahan Bangunan";"Makmur Utama Supermarket Bahan bangunan";"Tj. Niara, Kec. Tobelo Tengah, Kabupaten Halmahera Utara, Maluku Utara";"Kabupaten Halmahera Utara, Maluku Utara";"MALUKU UTARA";"";"Indonesia";" 085117420324";"1.7019679";"128.0155893";"https://maps.google.com/?cid=0x0:0x47ecdf114648cbc2"
"supermarket bangunan";"supermarket bangunan";"Kec. Taliabu Sel.";"Pulau Taliabu, Maluku Utara";"Pulau Taliabu, Maluku Utara";"MALUKU UTARA";"";"Indonesia";"";"-1.9087227";"124.7883682";"https://maps.google.com/?cid=0x0:0x47ce8e0cf4083a24"
"supermarket bangunan";"Toko Bahan Bangunan";"TOKO ELDY BANGUNAN";"Bobong, Kec. Taliabu Bar., Pulau Taliabu, Maluku Utara";"Pulau Taliabu, Maluku Utara";"MALUKU UTARA";"";"Indonesia";" 085342270869";"-1.942625";"124.381349";"https://maps.google.com/?cid=0x0:0xaf82dabb011de311"
"supermarket bangunan";"Toko Bahan Bangunan";"TOKO ANGGI";"29XM+PF9, Wayo, Kec. Taliabu Bar., Pulau Taliabu, Maluku Utara";"Pulau Taliabu, Maluku Utara";"MALUKU UTARA";"";"Indonesia";" 082195572338";"-1.9510492";"124.3838841";"https://maps.google.com/?cid=0x0:0x4020766d2f703676"
"mall";"mall";"Kec. Taliabu Bar.";"Pulau Taliabu, Maluku Utara";"Pulau Taliabu, Maluku Utara";"MALUKU UTARA";"";"Indonesia";"";"-1.9453067";"124.3829336";"https://maps.google.com/?cid=0x0:0x9b18127cb6600f97"
"mall";"Bengkel Sepeda Motor";"Variasi motor";"398M+V49, Bobong, Kec. Taliabu Bar., Pulau Taliabu, Maluku Utara";"Pulau Taliabu, Maluku Utara";"MALUKU UTARA";"";"Indonesia";"";"-1.9332737";"124.3822443";"https://maps.google.com/?cid=0x0:0xe8109292a15ee62b"
"mall";"Toko";"Toko Rafa Jaya";"Bobong, Kec. Taliabu Bar., Kabupaten Kepulauan taliabu, Maluku Utara";"Kabupaten Kepulauan taliabu, Maluku Utara";"MALUKU UTARA";"";"Indonesia";" 082393528819";"-1.9423304";"124.3844631";"https://maps.google.com/?cid=0x0:0x910629a863ff2505"
"mall";"Toko Ponsel";"Surya Ponsel Bobong";"393M+2GF, Unnamed Road, Bobong, Kec. Taliabu Bar., Pulau Taliabu, Maluku Utara";"Pulau Taliabu, Maluku Utara";"MALUKU UTARA";"";"Indonesia";" 082188971456";"-1.9474347";"124.3837859";"https://maps.google.com/?cid=0x0:0xd98f086b57c5bc90"
"mall";"Toko Alat Tulis";"Raudha Photo Studio";"395M+2QX, Bar., Wayo, Kec. Taliabu Bar., Kabupaten Kepulauan Sula, Maluku Utara";"Kabupaten Kepulauan Sula, Maluku Utara";"MALUKU UTARA";"";"Indonesia";" 081222925582";"-1.942391";"124.384496";"https://maps.google.com/?cid=0x0:0xdf82e8f93bd0cc8d"
"mall";"Kios";"Toko laris";"8GMF+VWV, Tikong, Kec. Taliabu Utara, Pulau Taliabu, Maluku Utara";"Pulau Taliabu, Maluku Utara";"MALUKU UTARA";"";"Indonesia";"";"-1.6647416";"124.5236141";"https://maps.google.com/?cid=0x0:0xb2ac3760f2223b6c"
"mall";"Toko";"FlyGallery Boutique  Shop";"Bobong, Kec. Taliabu Bar., Kabupaten Kepulauan Sula, Maluku Utara";"Kabupaten Kepulauan Sula, Maluku Utara";"MALUKU UTARA";"";"Indonesia";" 082191938640";"-1.9378487";"124.3779028";"https://maps.google.com/?cid=0x0:0xebd30360a573d46f"
"mall";"mall";"RM.Cuncun";"395J+544, Bobong, Kec. Taliabu Bar., Pulau Taliabu, Maluku Utara";"Pulau Taliabu, Maluku Utara";"MALUKU UTARA";"";"Indonesia";"";"-1.942119";"124.3803379";"https://maps.google.com/?cid=0x0:0xe21c6150cdc7be5e"
"mall";"Kios";"Outlet Resmi Fastpay";"X9XX+442, Jl. Ki Hajar Dewantara, Tallo, Kec. Taliabu Bar., Pulau Taliabu, Maluku Utara";"Pulau Taliabu, Maluku Utara";"MALUKU UTARA";"";"Indonesia";" 082271160924";"-2.0022265";"124.3977575";"https://maps.google.com/?cid=0x0:0x62383d71bfa595e"
"mall";"Toko";"SAIDO LISTRIK BOBONG";"394P+J3Q, Bobong, Kec. Taliabu Bar., Kabupaten Kepulauan Sula, Maluku Utara";"Kabupaten Kepulauan Sula, Maluku Utara";"MALUKU UTARA";"";"Indonesia";" 081247965779";"-1.9434208";"124.3852249";"https://maps.google.com/?cid=0x0:0xfe936fe8dd29b45"
"mall";"Toko Perlengkapan Rumah";"FF STORE";"Desa lohoqbubbaq, Pulau Taliabu, Maluku Utara 97794";"Pulau Taliabu";"MALUKU UTARA";"97794";"Indonesia";" 085298084360";"-1.7883691";"124.3153718";"https://maps.google.com/?cid=0x0:0x233591d79a909e2"
"mall";"mall";"Kec. Taliabu Bar. Laut";"Pulau Taliabu, Maluku Utara";"Pulau Taliabu, Maluku Utara";"MALUKU UTARA";"";"Indonesia";"";"-1.7679971";"124.3713715";"https://maps.google.com/?cid=0x0:0x8f7fd7f1ec130894"
"mall";"Toko Perlengkapan Rumah";"FF STORE";"Desa lohoqbubbaq, Pulau Taliabu, Maluku Utara 97794";"Pulau Taliabu";"MALUKU UTARA";"97794";"Indonesia";" 085298084360";"-1.7883691";"124.3153718";"https://maps.google.com/?cid=0x0:0x233591d79a909e2"
"mall";"Toko";"TOKO GELA-TIKONG";"8GMG+JPJ, Tikong, Kec. Taliabu Utara, Pulau Taliabu, Maluku Utara";"Pulau Taliabu, Maluku Utara";"MALUKU UTARA";"";"Indonesia";"";"-1.6655814";"124.5261337";"https://maps.google.com/?cid=0x0:0x63ae8ad5fe99e82f"
"mall";"Pusat Perbelanjaan";"toko mama fadli";"8R94+WFQ, Jorjoga, Kec. Taliabu Utara, Pulau Taliabu, Maluku Utara";"Pulau Taliabu, Maluku Utara";"MALUKU UTARA";"";"Indonesia";"";"-1.6792891";"124.8060048";"https://maps.google.com/?cid=0x0:0x391aa91561d02fef"
"mall";"Kios";"Outlet Resmi Fastpay";"X9XX+442, Jl. Ki Hajar Dewantara, Tallo, Kec. Taliabu Bar., Pulau Taliabu, Maluku Utara";"Pulau Taliabu, Maluku Utara";"MALUKU UTARA";"";"Indonesia";" 082271160924";"-2.0022265";"124.3977575";"https://maps.google.com/?cid=0x0:0x62383d71bfa595e"
"mall";"Bengkel Sepeda Motor";"Variasi motor";"398M+V49, Bobong, Kec. Taliabu Bar., Pulau Taliabu, Maluku Utara";"Pulau Taliabu, Maluku Utara";"MALUKU UTARA";"";"Indonesia";"";"-1.9332737";"124.3822443";"https://maps.google.com/?cid=0x0:0xe8109292a15ee62b"
"mall";"Toko";"Toko Rafa Jaya";"Bobong, Kec. Taliabu Bar., Kabupaten Kepulauan taliabu, Maluku Utara";"Kabupaten Kepulauan taliabu, Maluku Utara";"MALUKU UTARA";"";"Indonesia";" 082393528819";"-1.9423304";"124.3844631";"https://maps.google.com/?cid=0x0:0x910629a863ff2505"
"mall";"Kantor Pemerintah";"Desa onemay Taliabu barat Laut";"69MC+2W5, Desa, onemay, Kec. Taliabu Bar. Laut, Pulau Taliabu, Maluku Utara";"Pulau Taliabu, Maluku Utara";"MALUKU UTARA";"";"Indonesia";"";"-1.7674888";"124.3723442";"https://maps.google.com/?cid=0x0:0xee5704b7e64cfd9"
"mall";"Toko";"Kios mm ika";"8GMF+VWV, Tikong, Kec. Taliabu Utara, Pulau Taliabu, Maluku Utara";"Pulau Taliabu, Maluku Utara";"MALUKU UTARA";"";"Indonesia";"";"-1.6654176";"124.5239326";"https://maps.google.com/?cid=0x0:0xda1601354a625620"
"mall";"mall";"Kec. Lede";"Pulau Taliabu, Maluku Utara";"Pulau Taliabu, Maluku Utara";"MALUKU UTARA";"";"Indonesia";"";"-1.6967225";"124.3724122";"https://maps.google.com/?cid=0x0:0x51b823c7ef07a4ff"
"mall";"mall";"Toko Togel";"8FJC+5XM, Todoli, Kec. Lede, Pulau Taliabu, Maluku Utara";"Pulau Taliabu, Maluku Utara";"MALUKU UTARA";"";"Indonesia";"";"-1.669545";"124.4724272";"https://maps.google.com/?cid=0x0:0xa6b2338114f354a4"
"mall";"Toko";"TOKO GELA-TIKONG";"8GMG+JPJ, Tikong, Kec. Taliabu Utara, Pulau Taliabu, Maluku Utara";"Pulau Taliabu, Maluku Utara";"MALUKU UTARA";"";"Indonesia";"";"-1.6655814";"124.5261337";"https://maps.google.com/?cid=0x0:0x63ae8ad5fe99e82f"
"mall";"Pusat Perbelanjaan";"Distributor telur";"892C+J64, Langganu, Kec. Lede, Kabupaten Kepulauan Sula, Maluku Utara";"Kabupaten Kepulauan Sula, Maluku Utara";"MALUKU UTARA";"";"Indonesia";" 082211560091";"-1.6984974";"124.3705733";"https://maps.google.com/?cid=0x0:0xfa64ba1897079982"
"mall";"Toko";"Kios mm ika";"8GMF+VWV, Tikong, Kec. Taliabu Utara, Pulau Taliabu, Maluku Utara";"Pulau Taliabu, Maluku Utara";"MALUKU UTARA";"";"Indonesia";"";"-1.6654176";"124.5239326";"https://maps.google.com/?cid=0x0:0xda1601354a625620"
"mall";"Hipermarket";"AEON MALL Jakarta Garden City";"Jl. Jkt Garden City Boulevard No.1, RT.8/RW.6, Cakung Tim., Kec. Cakung, Kota Jakarta Timur, Daerah Khusus Ibukota Jakarta 13910";"RT.8/RW.6, Cakung Tim., Kec. Cakung, Kota Jakarta Timur";"MALUKU UTARA";"13910";"Indonesia";" 02122462525";"-6.1721883";"106.9522209";"https://maps.google.com/?cid=0x0:0x2c473319d7d1eef6"
"mall";"Pusat Perbelanjaan";"AEON Jakarta Garden City";"Jl. Jkt Garden City Boulevard No.8, RT.11/RW.6, Cakung Tim., Kec. Cakung, Kota Jakarta Timur, Daerah Khusus Ibukota Jakarta 13910";"RT.11/RW.6, Cakung Tim., Kec. Cakung, Kota Jakarta Timur";"MALUKU UTARA";"13910";"Indonesia";" 08119334730";"-6.1722633";"106.9522359";"https://maps.google.com/?cid=0x0:0xfa960f81ce9ba5b2"
"mall";"Stasiun Pengisian Kendaraan Listrik";"SPKLU St. Pengisian";"8, RW.6, East Cakung, Cakung, East Jakarta City, Jakarta";"Kota Jakarta Timur, Daerah Khusus Ibukota Jakarta";"MALUKU UTARA";"";"Indonesia";"";"-6.1725129";"106.9540805";"https://maps.google.com/?cid=0x0:0x331e425577c0a36f"
"mall";"Jus";"Fruitylicious - ÆON Mall JGC";"JGC, Aeon Mall, Jl. Jkt Garden City Boulevard No.1, RT.7/RW.6, Cakung Tim., Kec. Cakung, Kota Jakarta Timur, Daerah Khusus Ibukota Jakarta 13910";"Aeon Mall, Jl. Jkt Garden City Boulevard No.1, RT.7/RW.6, Cakung Tim., Kec. Cakung, Kota Jakarta Timur";"MALUKU UTARA";"13910";"Indonesia";"";"-6.1725253";"106.952666";"https://maps.google.com/?cid=0x0:0x2979f7d20555750e"
"mall";"Taman Bermain Dalam Ruangan";"J-Sky Ferris Wheel AEON MALL JGC";"Jl. Jkt Garden City Boulevard No.1, RT.8/RW.6, Cakung Tim., Kec. Cakung, Kota Jakarta Timur, Daerah Khusus Ibukota Jakarta 13910";"RT.8/RW.6, Cakung Tim., Kec. Cakung, Kota Jakarta Timur";"MALUKU UTARA";"13910";"Indonesia";" 02122463410";"-6.17248";"106.9532166";"https://maps.google.com/?cid=0x0:0xdcef3a917606eb8b"
"mall";"mall";"Kec. Taliabu Utara";"Pulau Taliabu, Maluku Utara";"Pulau Taliabu, Maluku Utara";"MALUKU UTARA";"";"Indonesia";"";"-1.6577743";"124.7098315";"https://maps.google.com/?cid=0x0:0x2f87ca321b31898"
"mall";"Toko";"TOKO GELA-TIKONG";"8GMG+JPJ, Tikong, Kec. Taliabu Utara, Pulau Taliabu, Maluku Utara";"Pulau Taliabu, Maluku Utara";"MALUKU UTARA";"";"Indonesia";"";"-1.6655814";"124.5261337";"https://maps.google.com/?cid=0x0:0x63ae8ad5fe99e82f"
"mall";"Kios";"Toko laris";"8GMF+VWV, Tikong, Kec. Taliabu Utara, Pulau Taliabu, Maluku Utara";"Pulau Taliabu, Maluku Utara";"MALUKU UTARA";"";"Indonesia";"";"-1.6647416";"124.5236141";"https://maps.google.com/?cid=0x0:0xb2ac3760f2223b6c"
"mall";"mall";"Toko Togel";"8FJC+5XM, Todoli, Kec. Lede, Pulau Taliabu, Maluku Utara";"Pulau Taliabu, Maluku Utara";"MALUKU UTARA";"";"Indonesia";"";"-1.669545";"124.4724272";"https://maps.google.com/?cid=0x0:0xa6b2338114f354a4"
"mall";"mall";"Toko mama intan";"6RG2+GM8, Jorjoga, Kec. Taliabu Utara, Pulau Taliabu, Maluku Utara";"Pulau Taliabu, Maluku Utara";"MALUKU UTARA";"";"Indonesia";"";"-1.7737219";"124.8016945";"https://maps.google.com/?cid=0x0:0x83bed6efd59415b0"
"mall";"Toko";"Kios mm ika";"8GMF+VWV, Tikong, Kec. Taliabu Utara, Pulau Taliabu, Maluku Utara";"Pulau Taliabu, Maluku Utara";"MALUKU UTARA";"";"Indonesia";"";"-1.6654176";"124.5239326";"https://maps.google.com/?cid=0x0:0xda1601354a625620"
"mall";"Pusat Perbelanjaan";"Jamal pandai besi";"8RF3+3CR, Jorjoga, Kec. Taliabu Utara, Pulau Taliabu, Maluku Utara";"Pulau Taliabu, Maluku Utara";"MALUKU UTARA";"";"Indonesia";"";"-1.6778639";"124.8040213";"https://maps.google.com/?cid=0x0:0xeb24d34daddebc27"
"mall";"mall";"Kec. Taliabu Tim.";"Pulau Taliabu, Maluku Utara";"Pulau Taliabu, Maluku Utara";"MALUKU UTARA";"";"Indonesia";"";"-1.7824897";"125.2932285";"https://maps.google.com/?cid=0x0:0x6fb215108475baa"
"mall";"Minimarket";"R3 Mart";"74X5+G49, Penu, Kec. Taliabu Tim., Pulau Taliabu, Maluku Utara";"Pulau Taliabu, Maluku Utara";"MALUKU UTARA";"";"Indonesia";"";"-1.7012244";"125.1078686";"https://maps.google.com/?cid=0x0:0x9fc6d5c0a6c983da"
"mall";"Pusat Perbelanjaan";"toko mama fadli";"8R94+WFQ, Jorjoga, Kec. Taliabu Utara, Pulau Taliabu, Maluku Utara";"Pulau Taliabu, Maluku Utara";"MALUKU UTARA";"";"Indonesia";"";"-1.6792891";"124.8060048";"https://maps.google.com/?cid=0x0:0x391aa91561d02fef"
"mall";"mall";"Indria Shopp";"74X5+9H8, Penu, Kec. Taliabu Tim., Kabupaten Kepulauan Sula, Maluku Utara";"Kabupaten Kepulauan Sula, Maluku Utara";"MALUKU UTARA";"";"Indonesia";"";"-1.7015913";"125.1089392";"https://maps.google.com/?cid=0x0:0x11fd6f4cd1445ea8"
"mall";"Toko";"TOKO GELA-TIKONG";"8GMG+JPJ, Tikong, Kec. Taliabu Utara, Pulau Taliabu, Maluku Utara";"Pulau Taliabu, Maluku Utara";"MALUKU UTARA";"";"Indonesia";"";"-1.6655814";"124.5261337";"https://maps.google.com/?cid=0x0:0x63ae8ad5fe99e82f"
"mall";"Kios";"Toko laris";"8GMF+VWV, Tikong, Kec. Taliabu Utara, Pulau Taliabu, Maluku Utara";"Pulau Taliabu, Maluku Utara";"MALUKU UTARA";"";"Indonesia";"";"-1.6647416";"124.5236141";"https://maps.google.com/?cid=0x0:0xb2ac3760f2223b6c"
"mall";"Kios";"Kios Sepatu R3";"74X5+H4J, Jl. Pendidikan, Penu, Kec. Taliabu Tim., Pulau Taliabu, Maluku Utara";"Pulau Taliabu, Maluku Utara";"MALUKU UTARA";"";"Indonesia";"";"-1.701039";"125.1077573";"https://maps.google.com/?cid=0x0:0x1db01487a2ecfe6c"
"mall";"mall";"Kec. Taliabu Tim. Sel.";"Pulau Taliabu, Maluku Utara";"Pulau Taliabu, Maluku Utara";"MALUKU UTARA";"";"Indonesia";"";"-1.8889627";"125.0798626";"https://maps.google.com/?cid=0x0:0xa3c2952966278c15"
"mall";"Toko";"TOKO GELA-TIKONG";"8GMG+JPJ, Tikong, Kec. Taliabu Utara, Pulau Taliabu, Maluku Utara";"Pulau Taliabu, Maluku Utara";"MALUKU UTARA";"";"Indonesia";"";"-1.6655814";"124.5261337";"https://maps.google.com/?cid=0x0:0x63ae8ad5fe99e82f"
"mall";"Kios";"Toko laris";"8GMF+VWV, Tikong, Kec. Taliabu Utara, Pulau Taliabu, Maluku Utara";"Pulau Taliabu, Maluku Utara";"MALUKU UTARA";"";"Indonesia";"";"-1.6647416";"124.5236141";"https://maps.google.com/?cid=0x0:0xb2ac3760f2223b6c"
"mall";"Minimarket";"R3 Mart";"74X5+G49, Penu, Kec. Taliabu Tim., Pulau Taliabu, Maluku Utara";"Pulau Taliabu, Maluku Utara";"MALUKU UTARA";"";"Indonesia";"";"-1.7012244";"125.1078686";"https://maps.google.com/?cid=0x0:0x9fc6d5c0a6c983da"
"mall";"Pusat Perbelanjaan";"Jatiland Mall";"Jl. Pahlawan Revolusi, Gamalama, Kec. Ternate Tengah, Kota Ternate, Maluku Utara";"Kota Ternate, Maluku Utara";"MALUKU UTARA";"";"Indonesia";"";"0.7913034";"127.3904651";"https://maps.google.com/?cid=0x0:0xc88fc50abd8f2993"
"mall";"Toko";"Kios mm ika";"8GMF+VWV, Tikong, Kec. Taliabu Utara, Pulau Taliabu, Maluku Utara";"Pulau Taliabu, Maluku Utara";"MALUKU UTARA";"";"Indonesia";"";"-1.6654176";"124.5239326";"https://maps.google.com/?cid=0x0:0xda1601354a625620"
"mall";"mall";"Pasar Kawadang";"3X9Q+9MM, Kawadang, Kec. Taliabu Tim. Sel., Kabupaten Kepulauan Sula, Maluku Utara";"Kabupaten Kepulauan Sula, Maluku Utara";"MALUKU UTARA";"";"Indonesia";"";"-1.9315266";"124.9891584";"https://maps.google.com/?cid=0x0:0x73ad56a6a7e8f0ec"
"mall";"mall";"Pelabuhan Desa Waikoka";"476V+P2C, Waikoka, Kec. Taliabu Tim. Sel., Pulau Taliabu, Maluku Utara";"Pulau Taliabu, Maluku Utara";"MALUKU UTARA";"";"Indonesia";"";"-1.8881814";"125.2925203";"https://maps.google.com/?cid=0x0:0x929d84fcf1a4aecb"
"mall";"Kios";"Outlet Resmi Fastpay";"X9XX+442, Jl. Ki Hajar Dewantara, Tallo, Kec. Taliabu Bar., Pulau Taliabu, Maluku Utara";"Pulau Taliabu, Maluku Utara";"MALUKU UTARA";"";"Indonesia";" 082271160924";"-2.0022265";"124.3977575";"https://maps.google.com/?cid=0x0:0x62383d71bfa595e"
"mall";"Toko";"Kios Thendy";"3VGR+6X4, Kabunu, Kec. Taliabu Tim. Sel., Kabupaten Kepulauan Sula, Maluku Utara";"Kabupaten Kepulauan Sula, Maluku Utara";"MALUKU UTARA";"";"Indonesia";"";"-1.924468";"124.8924802";"https://maps.google.com/?cid=0x0:0xacd67a5508ca5a64"
"mall";"Pusat Perbelanjaan";"toko mama fadli";"8R94+WFQ, Jorjoga, Kec. Taliabu Utara, Pulau Taliabu, Maluku Utara";"Pulau Taliabu, Maluku Utara";"MALUKU UTARA";"";"Indonesia";"";"-1.6792891";"124.8060048";"https://maps.google.com/?cid=0x0:0x391aa91561d02fef"
"mall";"Kios";"Om simon pung kios";"3WFW+G6V, Sofan, Kec. Taliabu Tim. Sel., Pulau Taliabu, Maluku Utara";"Pulau Taliabu, Maluku Utara";"MALUKU UTARA";"";"Indonesia";"";"-1.9261364";"124.9455397";"https://maps.google.com/?cid=0x0:0x796062e12d33926e"
"mall";"mall";"Kec. Taliabu Sel.";"Pulau Taliabu, Maluku Utara";"Pulau Taliabu, Maluku Utara";"MALUKU UTARA";"";"Indonesia";"";"-1.9087227";"124.7883682";"https://maps.google.com/?cid=0x0:0x47ce8e0cf4083a24"
"mall";"Toko";"TOKO GELA-TIKONG";"8GMG+JPJ, Tikong, Kec. Taliabu Utara, Pulau Taliabu, Maluku Utara";"Pulau Taliabu, Maluku Utara";"MALUKU UTARA";"";"Indonesia";"";"-1.6655814";"124.5261337";"https://maps.google.com/?cid=0x0:0x63ae8ad5fe99e82f"
"mall";"Kios";"Toko laris";"8GMF+VWV, Tikong, Kec. Taliabu Utara, Pulau Taliabu, Maluku Utara";"Pulau Taliabu, Maluku Utara";"MALUKU UTARA";"";"Indonesia";"";"-1.6647416";"124.5236141";"https://maps.google.com/?cid=0x0:0xb2ac3760f2223b6c"
"mall";"Pusat Perbelanjaan";"toko mama fadli";"8R94+WFQ, Jorjoga, Kec. Taliabu Utara, Pulau Taliabu, Maluku Utara";"Pulau Taliabu, Maluku Utara";"MALUKU UTARA";"";"Indonesia";"";"-1.6792891";"124.8060048";"https://maps.google.com/?cid=0x0:0x391aa91561d02fef"
"mall";"Kios";"Outlet Resmi Fastpay";"X9XX+442, Jl. Ki Hajar Dewantara, Tallo, Kec. Taliabu Bar., Pulau Taliabu, Maluku Utara";"Pulau Taliabu, Maluku Utara";"MALUKU UTARA";"";"Indonesia";" 082271160924";"-2.0022265";"124.3977575";"https://maps.google.com/?cid=0x0:0x62383d71bfa595e"
"mall";"mall";"Kec. Taliabu Utara";"Pulau Taliabu, Maluku Utara";"Pulau Taliabu, Maluku Utara";"MALUKU UTARA";"";"Indonesia";"";"-1.6577743";"124.7098315";"https://maps.google.com/?cid=0x0:0x2f87ca321b31898"
"mall";"Toko";"Kios mm ika";"8GMF+VWV, Tikong, Kec. Taliabu Utara, Pulau Taliabu, Maluku Utara";"Pulau Taliabu, Maluku Utara";"MALUKU UTARA";"";"Indonesia";"";"-1.6654176";"124.5239326";"https://maps.google.com/?cid=0x0:0xda1601354a625620"
"mall";"mall";"Toko mama intan";"6RG2+GM8, Jorjoga, Kec. Taliabu Utara, Pulau Taliabu, Maluku Utara";"Pulau Taliabu, Maluku Utara";"MALUKU UTARA";"";"Indonesia";"";"-1.7737219";"124.8016945";"https://maps.google.com/?cid=0x0:0x83bed6efd59415b0"
"mall";"Toko Perlengkapan Rumah";"FF STORE";"Desa lohoqbubbaq, Pulau Taliabu, Maluku Utara 97794";"Pulau Taliabu";"MALUKU UTARA";"97794";"Indonesia";" 085298084360";"-1.7883691";"124.3153718";"https://maps.google.com/?cid=0x0:0x233591d79a909e2"
"supermarket";"supermarket";"Kec. Taliabu Bar.";"Pulau Taliabu, Maluku Utara";"Pulau Taliabu, Maluku Utara";"MALUKU UTARA";"";"Indonesia";"";"-1.9453067";"124.3829336";"https://maps.google.com/?cid=0x0:0x9b18127cb6600f97"
"supermarket";"Minimarket";"RUNDUMA MART";"29XM+7V2, Wayo, Kec. Taliabu Bar., Pulau Taliabu, Maluku Utara";"Pulau Taliabu, Maluku Utara";"MALUKU UTARA";"";"Indonesia";"";"-1.9518652";"124.3846335";"https://maps.google.com/?cid=0x0:0x8d768aae5a2dc2da"
"supermarket";"Toko";"Fujiyama mart";"29VM+GW, Wayo, Kec. Taliabu Bar., Kabupaten Kepulauan Sula, Maluku Utara";"Kabupaten Kepulauan Sula, Maluku Utara";"MALUKU UTARA";"";"Indonesia";"";"-1.9563428";"124.3849353";"https://maps.google.com/?cid=0x0:0xbb24c6a267a207c1"
"supermarket";"Toko Roti";"Pasar Kue Aneka Rasa";"392M+5RW, Wayo, Kec. Taliabu Bar., Pulau Taliabu, Maluku Utara";"Pulau Taliabu, Maluku Utara";"MALUKU UTARA";"";"Indonesia";" 081340257066";"-1.9495199";"124.3845795";"https://maps.google.com/?cid=0x0:0xbbb28f9288c30307"
"supermarket";"Minimarket";"MNCmart";"395M+9MP, Bobong, Kec. Taliabu Bar., Pulau Taliabu, Maluku Utara";"Pulau Taliabu, Maluku Utara";"MALUKU UTARA";"";"Indonesia";"";"-1.941873";"124.3843696";"https://maps.google.com/?cid=0x0:0xebf678896749bce2"
"supermarket";"Toko Kosmetik";"Toko Cosmetik Mansur";"29WM+4CG, Wayo, Kec. Taliabu Bar., Pulau Taliabu, Maluku Utara";"Pulau Taliabu, Maluku Utara";"MALUKU UTARA";"";"Indonesia";"";"-1.9546805";"124.383586";"https://maps.google.com/?cid=0x0:0x25a70793fdc7ae62"
"supermarket";"supermarket";"M. Ayul";"29RV+3CP, Wayo, Kec. Taliabu Bar., Pulau Taliabu, Maluku Utara";"Pulau Taliabu, Maluku Utara";"MALUKU UTARA";"";"Indonesia";"";"-1.9597845";"124.3935779";"https://maps.google.com/?cid=0x0:0x2024d941c7cfe99f"
"supermarket";"Toko";"KIOS BINTANG";"Bobong, Wayo, Kec. Taliabu Bar., Pulau Taliabu, Maluku Utara";"Pulau Taliabu, Maluku Utara";"MALUKU UTARA";"";"Indonesia";"";"-1.9532336";"124.383694";"https://maps.google.com/?cid=0x0:0x3053cc3982f7b5d4"
"supermarket";"Kios";"M. SARI";"3C46+4G4, Bobong, Kec. Taliabu Bar., Pulau Taliabu, Maluku Utara";"Pulau Taliabu, Maluku Utara";"MALUKU UTARA";"";"Indonesia";"";"-1.9447276";"124.4113255";"https://maps.google.com/?cid=0x0:0x68f9db31e2b9ed0e"
"supermarket";"Toko Herbal";"Halalmart Taliabu";"29VM+5C4, Wayo, Kec. Taliabu Bar., Pulau Taliabu, Maluku Utara";"Pulau Taliabu, Maluku Utara";"MALUKU UTARA";"";"Indonesia";"";"-1.9576353";"124.383828";"https://maps.google.com/?cid=0x0:0xe3ec2d0be8676531"
"supermarket";"Toko Pakaian";"Aiko SHOP";"29XM+7FH, Unnamed Road, Bobong, Wayo, Kec. Taliabu Bar., Pulau Taliabu, Maluku Utara";"Pulau Taliabu, Maluku Utara";"MALUKU UTARA";"";"Indonesia";" 081341833358";"-1.951823";"124.3837369";"https://maps.google.com/?cid=0x0:0x1c5b99c8d5582be1"
"supermarket";"Toko";"Terang bulan spesial";"392M+XG8, Bobong, Kec. Taliabu Bar., Pulau Taliabu, Maluku Utara";"Pulau Taliabu, Maluku Utara";"MALUKU UTARA";"";"Indonesia";"";"-1.9475751";"124.3838315";"https://maps.google.com/?cid=0x0:0xcddd059a31accfc9"
"supermarket";"Minimarket";"Tsamania Mart";"395J+8C, Bobong, Kec. Taliabu Bar., Kabupaten Kepulauan Sula, Maluku Utara";"Kabupaten Kepulauan Sula, Maluku Utara";"MALUKU UTARA";"";"Indonesia";"";"-1.9416408";"124.3810309";"https://maps.google.com/?cid=0x0:0x6ac1220914a07c11"
"supermarket";"Toko bahan makanan";"Kios ningsi";"Karamat, Kec. Taliabu Bar., Pulau Taliabu, Maluku Utara";"Pulau Taliabu, Maluku Utara";"MALUKU UTARA";"";"Indonesia";"";"-1.8961365";"124.3407386";"https://maps.google.com/?cid=0x0:0x1431e2dc7f3d70d2"
"supermarket";"supermarket";"Kec. Taliabu Bar. Laut";"Pulau Taliabu, Maluku Utara";"Pulau Taliabu, Maluku Utara";"MALUKU UTARA";"";"Indonesia";"";"-1.7679971";"124.3713715";"https://maps.google.com/?cid=0x0:0x8f7fd7f1ec130894"
"supermarket";"Pasar";"Pasar Minggu Nggele";"69P8+GCP, Jl. Lain, Nggele, Kec. Taliabu Bar. Laut, Pulau Taliabu, Maluku Utara";"Pulau Taliabu, Maluku Utara";"MALUKU UTARA";"";"Indonesia";"";"-1.7636701";"124.3660746";"https://maps.google.com/?cid=0x0:0x67ccb3fd68b29cb0"
"supermarket";"Toko Pakaian";"Aiko SHOP";"29XM+7FH, Unnamed Road, Bobong, Wayo, Kec. Taliabu Bar., Pulau Taliabu, Maluku Utara";"Pulau Taliabu, Maluku Utara";"MALUKU UTARA";"";"Indonesia";" 081341833358";"-1.951823";"124.3837369";"https://maps.google.com/?cid=0x0:0x1c5b99c8d5582be1"
"supermarket";"Toko";"Toko Uwais";"Depn Taman Mangga 1, Bobong, Kec. Taliabu Bar., Pulau Taliabu, Maluku Utara";"Pulau Taliabu, Maluku Utara";"MALUKU UTARA";"";"Indonesia";"";"-1.9391462";"124.3828392";"https://maps.google.com/?cid=0x0:0xbbea68585abe6ce8"
"supermarket";"supermarket";"Kios Sulfin";"3QVR+4Q8, Pencado, Kec. Taliabu Sel., Pulau Taliabu, Maluku Utara";"Pulau Taliabu, Maluku Utara";"MALUKU UTARA";"";"Indonesia";"";"-1.9075212";"124.7918152";"https://maps.google.com/?cid=0x0:0xda884818b613393b"
"supermarket";"Toko";"Arya TOSERBA";"48HR+VCX, Kasango, Kec. Taliabu Bar. Laut, Pulau Taliabu, Maluku Utara";"Pulau Taliabu, Maluku Utara";"MALUKU UTARA";"";"Indonesia";"";"-1.8702641";"124.3411042";"https://maps.google.com/?cid=0x0:0x678fc01b2ca68ff9"
"supermarket";"Kios";"Warucil ULI";"69J9+XJ8, Jl. Lain, Nggele, Kec. Taliabu Bar. Laut, Pulau Taliabu, Maluku Utara";"Pulau Taliabu, Maluku Utara";"MALUKU UTARA";"";"Indonesia";"";"-1.767588";"124.3690661";"https://maps.google.com/?cid=0x0:0x8c05a64994ff4114"
"supermarket";"Kios";"Kios Baru";"69C9+V86, Salati, Kec. Taliabu Bar. Laut, Pulau Taliabu, Maluku Utara";"Pulau Taliabu, Maluku Utara";"MALUKU UTARA";"";"Indonesia";"";"-1.7778416";"124.3682638";"https://maps.google.com/?cid=0x0:0x4fb58403029c5ef4"
"supermarket";"Toko umum";"MENTHARY MART";"892F+W89, Langganu, Kec. Lede, Pulau Taliabu, Maluku Utara";"Pulau Taliabu, Maluku Utara";"MALUKU UTARA";"";"Indonesia";" 082122684092";"-1.6977188";"124.3733492";"https://maps.google.com/?cid=0x0:0x68d8e162bf9bb3fa"
"supermarket";"Toko Perlengkapan Rumah";"FF STORE";"Desa lohoqbubbaq, Pulau Taliabu, Maluku Utara 97794";"Pulau Taliabu";"MALUKU UTARA";"97794";"Indonesia";" 085298084360";"-1.7883691";"124.3153718";"https://maps.google.com/?cid=0x0:0x233591d79a909e2"
"supermarket";"Kios";"Kios Lita";"69C9+R79, Salati, Kec. Taliabu Bar. Laut, Pulau Taliabu, Maluku Utara";"Pulau Taliabu, Maluku Utara";"MALUKU UTARA";"";"Indonesia";"";"-1.7779673";"124.3682247";"https://maps.google.com/?cid=0x0:0xb71f12149211a313"
"supermarket";"Kios";"Jasmin";"69J9+H24, Nggele, Kec. Taliabu Bar. Laut, Pulau Taliabu, Maluku Utara";"Pulau Taliabu, Maluku Utara";"MALUKU UTARA";"";"Indonesia";"";"-1.7686128";"124.3675924";"https://maps.google.com/?cid=0x0:0x97a36a0f7aedc2d8"
"supermarket";"Kios";"Najwa K105";"Jl. Dusun Kelapa Pendek, Onemay, Kec. Taliabu Bar. Laut, Pulau Taliabu, Maluku Utara";"Pulau Taliabu, Maluku Utara";"MALUKU UTARA";"";"Indonesia";" 085240346080";"-1.7681004";"124.3679846";"https://maps.google.com/?cid=0x0:0xee9f652dba7a997e"
"supermarket";"Toko";"Fitria Cell";"69C9+QM5, Salati, Kec. Taliabu Bar. Laut, Pulau Taliabu, Maluku Utara";"Pulau Taliabu, Maluku Utara";"MALUKU UTARA";"";"Indonesia";"";"-1.7781029";"124.3692297";"https://maps.google.com/?cid=0x0:0x96d86a99b25123e8"
"supermarket";"supermarket";"Kec. Lede";"Pulau Taliabu, Maluku Utara";"Pulau Taliabu, Maluku Utara";"MALUKU UTARA";"";"Indonesia";"";"-1.6967225";"124.3724122";"https://maps.google.com/?cid=0x0:0x51b823c7ef07a4ff"
"supermarket";"Toko umum";"MENTHARY MART";"892F+W89, Langganu, Kec. Lede, Pulau Taliabu, Maluku Utara";"Pulau Taliabu, Maluku Utara";"MALUKU UTARA";"";"Indonesia";" 082122684092";"-1.6977188";"124.3733492";"https://maps.google.com/?cid=0x0:0x68d8e162bf9bb3fa"
"supermarket";"Toko bahan makanan";"Salman Store";"79X9+CWR, Jl. Lain, Lede, Kec. Lede, Pulau Taliabu, Maluku Utara";"Pulau Taliabu, Maluku Utara";"MALUKU UTARA";"";"Indonesia";"";"-1.7012874";"124.3697938";"https://maps.google.com/?cid=0x0:0x6bcd1dfd25e398a5"
"supermarket";"Toko bahan makanan";"Lapak RIo";"893F+2PQ, Langganu, Kec. Lede, Pulau Taliabu, Maluku Utara";"Pulau Taliabu, Maluku Utara";"MALUKU UTARA";"";"Indonesia";"";"-1.6974103";"124.3743556";"https://maps.google.com/?cid=0x0:0x4e0bd3348a743612"
"supermarket";"Toko bahan makanan";"Perlengkapan Alat Tulis Kantor";"897F+87X, Unnamed Road, Langganu, Kec. Lede, Pulau Taliabu, Maluku Utara";"Pulau Taliabu, Maluku Utara";"MALUKU UTARA";"";"Indonesia";" 081246342390";"-1.6866328";"124.3732274";"https://maps.google.com/?cid=0x0:0xb63923ade5d86470"
"supermarket";"Toko Kosmetik";"Fheby Beauty Store";"Lede, Kec. Lede, Pulau Taliabu, Maluku Utara";"Pulau Taliabu, Maluku Utara";"MALUKU UTARA";"";"Indonesia";" 081243631104";"-1.6961488";"124.3675578";"https://maps.google.com/?cid=0x0:0x97b1deabddcaa9bc"
"supermarket";"Minimarket";"Kios Sifa";"8FP7+9XQ, Unnamed Road, Todoli, Kec. Lede, Pulau Taliabu, Maluku Utara";"Pulau Taliabu, Maluku Utara";"MALUKU UTARA";"";"Indonesia";"";"-1.6640493";"124.4649951";"https://maps.google.com/?cid=0x0:0x9e9276a6824227ef"
"supermarket";"Toko bahan makanan";"BUNGA ATK";"893F+46H, Unnamed Road, Langganu, Kec. Lede, Pulau Taliabu, Maluku Utara";"Pulau Taliabu, Maluku Utara";"MALUKU UTARA";"";"Indonesia";" 081246342390";"-1.697176";"124.373118";"https://maps.google.com/?cid=0x0:0x87a9e1b5ef2334f8"
"supermarket";"Toko Obat";"Toko obat marissa";"dusun takjiba, Kec. Lede, Pulau Taliabu, Maluku Utara 97794";"Kec. Lede, Pulau Taliabu";"MALUKU UTARA";"97794";"Indonesia";"";"-1.697232";"124.3690796";"https://maps.google.com/?cid=0x0:0xf729fd37512cee5e"
"supermarket";"supermarket";"Fheby Beauty Store New";"Langganu, Kec. Lede, Pulau Taliabu, Maluku Utara 97794";"Kec. Lede, Pulau Taliabu";"MALUKU UTARA";"97794";"Indonesia";" 082189434611";"-1.6976586";"124.3721332";"https://maps.google.com/?cid=0x0:0x5be1ffc695bf2858"
"supermarket";"Kios";"Kios Ferdy S.";"8939+J3F, Lede, Kec. Lede, Pulau Taliabu, Maluku Utara";"Pulau Taliabu, Maluku Utara";"MALUKU UTARA";"";"Indonesia";"";"-1.6963727";"124.3689972";"https://maps.google.com/?cid=0x0:0xe0095f131c43fec1"
"supermarket";"Kios";"KIOS GEBY";"8CMP+JR9, Tolong, Kec. Lede, Pulau Taliabu, Maluku Utara";"Pulau Taliabu, Maluku Utara";"MALUKU UTARA";"";"Indonesia";"";"-1.6659533";"124.4371147";"https://maps.google.com/?cid=0x0:0x44c40bde33d920f"
"supermarket";"Toko Aksesori Ponsel";"Queen Store";"8938+5VJ, Lede, Kec. Lede, Pulau Taliabu, Maluku Utara";"Pulau Taliabu, Maluku Utara";"MALUKU UTARA";"";"Indonesia";"";"-1.6973241";"124.3676393";"https://maps.google.com/?cid=0x0:0x4efc3052ab28fb9f"
"supermarket";"Toko bahan makanan";"Rumah Serliani";"893C+8X7, Lede, Kec. Lede, Kepulauan Sula, Maluku Utara";"Kepulauan Sula, Maluku Utara";"MALUKU UTARA";"";"Indonesia";"";"-1.6967225";"124.3724122";"https://maps.google.com/?cid=0x0:0x8b5524100a884185"
"supermarket";"Kios";"Kios Tomia";"9H52+98V, Sahu, Kec. Taliabu Utara, Pulau Taliabu, Maluku Utara";"Pulau Taliabu, Maluku Utara";"MALUKU UTARA";"";"Indonesia";"";"-1.6416095";"124.5512546";"https://maps.google.com/?cid=0x0:0xf6c003509468dce4"
"supermarket";"Kios";"Kios ma astin";"8GMC+HRG, Tikong, Kec. Taliabu Utara, Pulau Taliabu, Maluku Utara";"Pulau Taliabu, Maluku Utara";"MALUKU UTARA";"";"Indonesia";" 082219781176";"-1.6658747";"124.5222167";"https://maps.google.com/?cid=0x0:0xd11a2f2dc94a94db"
"supermarket";"supermarket";"Kec. Taliabu Utara";"Pulau Taliabu, Maluku Utara";"Pulau Taliabu, Maluku Utara";"MALUKU UTARA";"";"Indonesia";"";"-1.6577743";"124.7098315";"https://maps.google.com/?cid=0x0:0x2f87ca321b31898"
"supermarket";"Toko umum";"MENTHARY MART";"892F+W89, Langganu, Kec. Lede, Pulau Taliabu, Maluku Utara";"Pulau Taliabu, Maluku Utara";"MALUKU UTARA";"";"Indonesia";" 082122684092";"-1.6977188";"124.3733492";"https://maps.google.com/?cid=0x0:0x68d8e162bf9bb3fa"
"supermarket";"Minimarket";"RUNDUMA MART";"29XM+7V2, Wayo, Kec. Taliabu Bar., Pulau Taliabu, Maluku Utara";"Pulau Taliabu, Maluku Utara";"MALUKU UTARA";"";"Indonesia";"";"-1.9518652";"124.3846335";"https://maps.google.com/?cid=0x0:0x8d768aae5a2dc2da"
"supermarket";"Toko";"BT CELLULER";"SAMPING SDN1, Gela, Kec. Taliabu Utara, Pulau Taliabu, Maluku Utara 97794";"Gela, Kec. Taliabu Utara, Pulau Taliabu";"MALUKU UTARA";"97794";"Indonesia";" 082188866645";"-1.6586492";"124.7072588";"https://maps.google.com/?cid=0x0:0xc7fcd64b1dd66402"
"supermarket";"Minimarket";"Rumah fazlan";"8GMF+F3G, Tikong, Kec. Taliabu Utara, Pulau Taliabu, Maluku Utara";"Pulau Taliabu, Maluku Utara";"MALUKU UTARA";"";"Indonesia";"";"-1.6663043";"124.5226941";"https://maps.google.com/?cid=0x0:0xb389b3fb1ada670d"
"supermarket";"Komplek perumahan";"Mama Teti";"8GMF+JWJ, Tikong, Kec. Taliabu Utara, Pulau Taliabu, Maluku Utara";"Pulau Taliabu, Maluku Utara";"MALUKU UTARA";"";"Indonesia";"";"-1.6659102";"124.5247604";"https://maps.google.com/?cid=0x0:0x5c7c3dbe3902cc6c"
"supermarket";"Minimarket";"R3 Mart";"74X5+G49, Penu, Kec. Taliabu Tim., Pulau Taliabu, Maluku Utara";"Pulau Taliabu, Maluku Utara";"MALUKU UTARA";"";"Indonesia";"";"-1.7012244";"125.1078686";"https://maps.google.com/?cid=0x0:0x9fc6d5c0a6c983da"
"supermarket";"Toko";"Thirza Dekorasi Pengantin dan Fashion Store";"8PV5+8RJ London, Gela, Kec. Taliabu Utara, Pulau Taliabu, Maluku Utara";"Pulau Taliabu, Maluku Utara";"MALUKU UTARA";"";"Indonesia";" 085197460895";"-1.6566548";"124.7095092";"https://maps.google.com/?cid=0x0:0x7ffb1f90a48901ee"
"supermarket";"Kios";"Warucil ULI";"69J9+XJ8, Jl. Lain, Nggele, Kec. Taliabu Bar. Laut, Pulau Taliabu, Maluku Utara";"Pulau Taliabu, Maluku Utara";"MALUKU UTARA";"";"Indonesia";"";"-1.767588";"124.3690661";"https://maps.google.com/?cid=0x0:0x8c05a64994ff4114"
"supermarket";"Toko sembako pemerintah";"KIOS PINDO";"4V58+532, Tabona, Kec. Taliabu Sel., Pulau Taliabu, Maluku Utara";"Pulau Taliabu, Maluku Utara";"MALUKU UTARA";"";"Indonesia";"";"-1.8921167";"124.8651368";"https://maps.google.com/?cid=0x0:0x7765584715e68f32"
"supermarket";"Toko";"Kios Muti";"8MWV+QH7, Unnamed Road, Minton, Kec. Taliabu Utara, Pulau Taliabu, Maluku Utara";"Pulau Taliabu, Maluku Utara";"MALUKU UTARA";"";"Indonesia";" 085255590801";"-1.6530792";"124.6939367";"https://maps.google.com/?cid=0x0:0x1dd5de54e466ae6"
"supermarket";"Komplek perumahan";"Toko Ramadhan jjg";"Jorjoga, Kec. Taliabu Utara, Pulau Taliabu, Maluku Utara 97977";"Kec. Taliabu Utara, Pulau Taliabu";"MALUKU UTARA";"97977";"Indonesia";" 087888720554";"-1.6791749";"124.804559";"https://maps.google.com/?cid=0x0:0xdce21b2eede78eea"
"supermarket";"supermarket";"Maluku Utara";"";"Maluku Utara";"MALUKU UTARA";"";"Indonesia";"";"1.5709993";"127.8087693";"https://maps.google.com/?cid=0x0:0x1030bfbcaf71ac0"
"supermarket";"Toko umum";"MENTHARY MART";"892F+W89, Langganu, Kec. Lede, Pulau Taliabu, Maluku Utara";"Pulau Taliabu, Maluku Utara";"MALUKU UTARA";"";"Indonesia";" 082122684092";"-1.6977188";"124.3733492";"https://maps.google.com/?cid=0x0:0x68d8e162bf9bb3fa"
"supermarket";"Minimarket";"RUNDUMA MART";"29XM+7V2, Wayo, Kec. Taliabu Bar., Pulau Taliabu, Maluku Utara";"Pulau Taliabu, Maluku Utara";"MALUKU UTARA";"";"Indonesia";"";"-1.9518652";"124.3846335";"https://maps.google.com/?cid=0x0:0x8d768aae5a2dc2da"
"supermarket";"Toko bahan makanan";"Salman Store";"79X9+CWR, Jl. Lain, Lede, Kec. Lede, Pulau Taliabu, Maluku Utara";"Pulau Taliabu, Maluku Utara";"MALUKU UTARA";"";"Indonesia";"";"-1.7012874";"124.3697938";"https://maps.google.com/?cid=0x0:0x6bcd1dfd25e398a5"
"supermarket";"Toko Pakaian";"Aiko SHOP";"29XM+7FH, Unnamed Road, Bobong, Wayo, Kec. Taliabu Bar., Pulau Taliabu, Maluku Utara";"Pulau Taliabu, Maluku Utara";"MALUKU UTARA";"";"Indonesia";" 081341833358";"-1.951823";"124.3837369";"https://maps.google.com/?cid=0x0:0x1c5b99c8d5582be1"
"supermarket";"Toko Herbal";"Halalmart Taliabu";"29VM+5C4, Wayo, Kec. Taliabu Bar., Pulau Taliabu, Maluku Utara";"Pulau Taliabu, Maluku Utara";"MALUKU UTARA";"";"Indonesia";"";"-1.9576353";"124.383828";"https://maps.google.com/?cid=0x0:0xe3ec2d0be8676531"
"supermarket";"Toko umum";"Victor";"3QQM+XM7, Pencado, Kec. Taliabu Sel., Pulau Taliabu, Maluku Utara";"Pulau Taliabu, Maluku Utara";"MALUKU UTARA";"";"Indonesia";"";"-1.910076";"124.7841609";"https://maps.google.com/?cid=0x0:0xd87386748cf4a454"
"supermarket";"Toko Obat";"Toko obat marissa";"dusun takjiba, Kec. Lede, Pulau Taliabu, Maluku Utara 97794";"Kec. Lede, Pulau Taliabu";"MALUKU UTARA";"97794";"Indonesia";"";"-1.697232";"124.3690796";"https://maps.google.com/?cid=0x0:0xf729fd37512cee5e"
"supermarket";"Toko Bahan Bangunan";"Makmur Utama Supermarket Bahan Bangunan";"Jl. Yasin Gamsungi No.2 Kec. ternate tengah, Kel, Makassar Tim., Makassar Timur, Kota Ternate, Maluku Utara 97724";"Kel, Makassar Tim., Makassar Timur, Kota Ternate";"MALUKU UTARA";"97724";"Indonesia";" 08114313799";"0.7940352";"127.3876695";"https://maps.google.com/?cid=0x0:0x2f492ae87bf64247"
"supermarket";"Pasar";"Pasar Minggu Nggele";"69P8+GCP, Jl. Lain, Nggele, Kec. Taliabu Bar. Laut, Pulau Taliabu, Maluku Utara";"Pulau Taliabu, Maluku Utara";"MALUKU UTARA";"";"Indonesia";"";"-1.7636701";"124.3660746";"https://maps.google.com/?cid=0x0:0x67ccb3fd68b29cb0"
"supermarket";"Kios";"Musdalifa Kios";"69M8+7W7, Nggele, Kec. Taliabu Bar. Laut, Pulau Taliabu, Maluku Utara";"Pulau Taliabu, Maluku Utara";"MALUKU UTARA";"";"Indonesia";"";"-1.7686715";"124.371306";"https://maps.google.com/?cid=0x0:0x8dfa001cc4c195cc"
"supermarket";"Minimarket";"GOTA Supermarket";"8PXR+5C6, Kel. Ohoijang Watdek, Kec. Kei Kecil, Kabupaten Maluku Tenggara, Maluku";"Kabupaten Maluku Tenggara, Maluku";"MALUKU UTARA";"";"Indonesia";"";"-5.652084";"132.7410211";"https://maps.google.com/?cid=0x0:0xcce642eed6fb72d5"
"supermarket";"Toko";"Toko Uwais";"Depn Taman Mangga 1, Bobong, Kec. Taliabu Bar., Pulau Taliabu, Maluku Utara";"Pulau Taliabu, Maluku Utara";"MALUKU UTARA";"";"Indonesia";"";"-1.9391462";"124.3828392";"https://maps.google.com/?cid=0x0:0xbbea68585abe6ce8"
"supermarket";"Toko";"Halal Mart Zayan";"Air Kilong, Bobong, Kec. Taliabu Bar., Pulau Taliabu, Maluku Utara 97941";"Bobong, Kec. Taliabu Bar., Pulau Taliabu";"MALUKU UTARA";"97941";"Indonesia";" 085240189020";"-1.9261139";"124.3791243";"https://maps.google.com/?cid=0x0:0xf50f463bfaa6f5d2"
"supermarket";"supermarket";"Kec. Taliabu Tim. Sel.";"Pulau Taliabu, Maluku Utara";"Pulau Taliabu, Maluku Utara";"MALUKU UTARA";"";"Indonesia";"";"-1.8889627";"125.0798626";"https://maps.google.com/?cid=0x0:0xa3c2952966278c15"
"supermarket";"Toko sembako pemerintah";"KIOS PINDO";"4V58+532, Tabona, Kec. Taliabu Sel., Pulau Taliabu, Maluku Utara";"Pulau Taliabu, Maluku Utara";"MALUKU UTARA";"";"Indonesia";"";"-1.8921167";"124.8651368";"https://maps.google.com/?cid=0x0:0x7765584715e68f32"
"supermarket";"Toko";"Farel BARITO";"4V57+6WR, Tabona, Kec. Taliabu Sel., Pulau Taliabu, Maluku Utara";"Pulau Taliabu, Maluku Utara";"MALUKU UTARA";"";"Indonesia";"";"-1.8916613";"124.8654362";"https://maps.google.com/?cid=0x0:0xdf5e09938db10a6a"
"supermarket";"Toko umum";"Kios ela";"Sofan, Kec. Taliabu Tim. Sel., Pulau Taliabu, Maluku Utara";"Pulau Taliabu, Maluku Utara";"MALUKU UTARA";"";"Indonesia";" 082298210094";"-1.9266211";"124.9468163";"https://maps.google.com/?cid=0x0:0x5fb437d6fde09cfc"
"supermarket";"Toko";"Kios sugiman";"3VFV+RCP, Kabunu, Kec. Taliabu Tim. Sel., Pulau Taliabu, Maluku Utara";"Pulau Taliabu, Maluku Utara";"MALUKU UTARA";"";"Indonesia";"";"-1.925419";"124.8935702";"https://maps.google.com/?cid=0x0:0x6308f646b71e8b74"
"supermarket";"Kios";"Kios Ibu. Wabani";"32R8+3H5, Losseng, Kec. Taliabu Tim. Sel., Pulau Taliabu, Maluku Utara";"Pulau Taliabu, Maluku Utara";"MALUKU UTARA";"";"Indonesia";"";"-1.9098627";"125.0164903";"https://maps.google.com/?cid=0x0:0x4427828be9e5f5ae"
"supermarket";"Kios";"Om simon pung kios";"3WFW+G6V, Sofan, Kec. Taliabu Tim. Sel., Pulau Taliabu, Maluku Utara";"Pulau Taliabu, Maluku Utara";"MALUKU UTARA";"";"Indonesia";"";"-1.9261364";"124.9455397";"https://maps.google.com/?cid=0x0:0x796062e12d33926e"
"supermarket";"Kios";"KIOS PAK HAJI";"4V58+532, Tabona, Kec. Taliabu Sel., Pulau Taliabu, Maluku Utara";"Pulau Taliabu, Maluku Utara";"MALUKU UTARA";"";"Indonesia";"";"-1.8926532";"124.8655633";"https://maps.google.com/?cid=0x0:0xffb22504988058cb"
"supermarket";"Kios";"CS. Cellular";"Unnamed Road, Tabona, Kec. Taliabu Sel., Pulau Taliabu, Maluku Utara";"Pulau Taliabu, Maluku Utara";"MALUKU UTARA";"";"Indonesia";"";"-1.891947";"124.864365";"https://maps.google.com/?cid=0x0:0xd51e8299c607e09c"
"supermarket";"Toko";"Kios Intan";"4V55+FVG, Tabona, Kec. Taliabu Sel., Kabupaten Kepulauan Sula, Maluku Utara";"Kabupaten Kepulauan Sula, Maluku Utara";"MALUKU UTARA";"";"Indonesia";"";"-1.8913008";"124.8596961";"https://maps.google.com/?cid=0x0:0x80864423a3945302"
"supermarket";"Toko";"KIOS Chandra";"4V57+6WR, Tabona, Kec. Taliabu Sel., Pulau Taliabu, Maluku Utara";"Pulau Taliabu, Maluku Utara";"MALUKU UTARA";"";"Indonesia";"";"-1.8912636";"124.8650979";"https://maps.google.com/?cid=0x0:0xcbb9a533ae63cc8c"
"supermarket";"Toko umum";"MENTHARY MART";"892F+W89, Langganu, Kec. Lede, Pulau Taliabu, Maluku Utara";"Pulau Taliabu, Maluku Utara";"MALUKU UTARA";"";"Indonesia";" 082122684092";"-1.6977188";"124.3733492";"https://maps.google.com/?cid=0x0:0x68d8e162bf9bb3fa"
"supermarket";"Toko";"Kios Thendy";"3VGR+6X4, Kabunu, Kec. Taliabu Tim. Sel., Kabupaten Kepulauan Sula, Maluku Utara";"Kabupaten Kepulauan Sula, Maluku Utara";"MALUKU UTARA";"";"Indonesia";"";"-1.924468";"124.8924802";"https://maps.google.com/?cid=0x0:0xacd67a5508ca5a64"
"supermarket";"Toko Beras";"𝙆𝙐𝙎 𝘽𝙀𝙍𝘼𝙎 𝙈𝙄𝙇𝙉𝘼";"4V58+532, Tabona, Kec. Taliabu Sel., Pulau Taliabu, Maluku Utara";"Pulau Taliabu, Maluku Utara";"MALUKU UTARA";"";"Indonesia";"";"-1.892093";"124.865062";"https://maps.google.com/?cid=0x0:0xd4d28cf532cdccb8"
"supermarket";"supermarket";"Maluku Utara";"";"Maluku Utara";"MALUKU UTARA";"";"Indonesia";"";"1.5709993";"127.8087693";"https://maps.google.com/?cid=0x0:0x1030bfbcaf71ac0"
"supermarket";"Toko umum";"MENTHARY MART";"892F+W89, Langganu, Kec. Lede, Pulau Taliabu, Maluku Utara";"Pulau Taliabu, Maluku Utara";"MALUKU UTARA";"";"Indonesia";" 082122684092";"-1.6977188";"124.3733492";"https://maps.google.com/?cid=0x0:0x68d8e162bf9bb3fa"
"supermarket";"Toko umum";"Victor";"3QQM+XM7, Pencado, Kec. Taliabu Sel., Pulau Taliabu, Maluku Utara";"Pulau Taliabu, Maluku Utara";"MALUKU UTARA";"";"Indonesia";"";"-1.910076";"124.7841609";"https://maps.google.com/?cid=0x0:0xd87386748cf4a454"
"supermarket";"Toko Perlengkapan Rumah";"FF STORE";"Desa lohoqbubbaq, Pulau Taliabu, Maluku Utara 97794";"Pulau Taliabu";"MALUKU UTARA";"97794";"Indonesia";" 085298084360";"-1.7883691";"124.3153718";"https://maps.google.com/?cid=0x0:0x233591d79a909e2"
"supermarket";"Kios";"Kios Tomia";"9H52+98V, Sahu, Kec. Taliabu Utara, Pulau Taliabu, Maluku Utara";"Pulau Taliabu, Maluku Utara";"MALUKU UTARA";"";"Indonesia";"";"-1.6416095";"124.5512546";"https://maps.google.com/?cid=0x0:0xf6c003509468dce4"
"supermarket";"Toko";"BT CELLULER";"SAMPING SDN1, Gela, Kec. Taliabu Utara, Pulau Taliabu, Maluku Utara 97794";"Gela, Kec. Taliabu Utara, Pulau Taliabu";"MALUKU UTARA";"97794";"Indonesia";" 082188866645";"-1.6586492";"124.7072588";"https://maps.google.com/?cid=0x0:0xc7fcd64b1dd66402"
"supermarket";"Toko Herbal";"Halalmart Taliabu";"29VM+5C4, Wayo, Kec. Taliabu Bar., Pulau Taliabu, Maluku Utara";"Pulau Taliabu, Maluku Utara";"MALUKU UTARA";"";"Indonesia";"";"-1.9576353";"124.383828";"https://maps.google.com/?cid=0x0:0xe3ec2d0be8676531"
"supermarket";"Toko Pakaian";"Aiko SHOP";"29XM+7FH, Unnamed Road, Bobong, Wayo, Kec. Taliabu Bar., Pulau Taliabu, Maluku Utara";"Pulau Taliabu, Maluku Utara";"MALUKU UTARA";"";"Indonesia";" 081341833358";"-1.951823";"124.3837369";"https://maps.google.com/?cid=0x0:0x1c5b99c8d5582be1"
"supermarket";"Pasar";"Pasar Minggu Nggele";"69P8+GCP, Jl. Lain, Nggele, Kec. Taliabu Bar. Laut, Pulau Taliabu, Maluku Utara";"Pulau Taliabu, Maluku Utara";"MALUKU UTARA";"";"Indonesia";"";"-1.7636701";"124.3660746";"https://maps.google.com/?cid=0x0:0x67ccb3fd68b29cb0"
"supermarket";"Toko Obat";"Distributor Resmi AFC - Taliabu";"Ds. Air Minggu, Bobong, Kec. Taliabu Bar., Pulau Taliabu, Maluku Utara 97794";"Bobong, Kec. Taliabu Bar., Pulau Taliabu";"MALUKU UTARA";"97794";"Indonesia";" 085213084537";"-1.934702";"124.3838174";"https://maps.google.com/?cid=0x0:0xbcd2936945609333"
"supermarket";"Toko Pakaian";"My Ka Look";"Bobong, Kec. Taliabu Bar., Pulau Taliabu, Maluku Utara 97794";"Kec. Taliabu Bar., Pulau Taliabu";"MALUKU UTARA";"97794";"Indonesia";" 082260245691";"-1.946111";"124.3830646";"https://maps.google.com/?cid=0x0:0xd2b5312322eb72b"
"supermarket";"Toko";"Toko Sobang";"8FP8+GRR Kafa Mena, Jln, Todoli, Lede, Taliabu Island Regency, North Maluku 97794";"Jln, Todoli, Lede, Taliabu Island Regency";"MALUKU UTARA";"97794";"Indonesia";" 081242036348";"-1.6636346";"124.4669963";"https://maps.google.com/?cid=0x0:0xb9359fddd33d9a83"
"supermarket";"Kios";"Kios Clara";"Jln.Pustu, Tolong, Pulau Taliabu, Maluku Utara 97794";"Tolong, Pulau Taliabu";"MALUKU UTARA";"97794";"Indonesia";" 085298724809";"-1.6683415";"124.437857";"https://maps.google.com/?cid=0x0:0x4977679d41fbb7ab"
"supermarket";"Pasar";"Lapak Buah Adzra Bobong";"Lapak Buah Adzra BBG Kebun Janda, Bobong, Kec. Taliabu Bar., Pulau Taliabu, Maluku Utara 97794";"Bobong, Kec. Taliabu Bar., Pulau Taliabu";"MALUKU UTARA";"97794";"Indonesia";"";"-1.9399217";"124.3834099";"https://maps.google.com/?cid=0x0:0xd82473d16735bff3"
"cafe";"cafe";"Kec. Taliabu Bar.";"Pulau Taliabu, Maluku Utara";"Pulau Taliabu, Maluku Utara";"MALUKU UTARA";"";"Indonesia";"";"-1.9453067";"124.3829336";"https://maps.google.com/?cid=0x0:0x9b18127cb6600f97"
"cafe";"Kedai Kopi";"Sosa coffee";"Belakang BRI, Bobong, Kec. Taliabu Bar., Pulau Taliabu, Maluku Utara 97794";"Bobong, Kec. Taliabu Bar., Pulau Taliabu";"MALUKU UTARA";"97794";"Indonesia";" 081385622494";"-1.9505519";"124.3836462";"https://maps.google.com/?cid=0x0:0xb2a351cec2093100"
"cafe";"Kedai Kopi";"Titik Temu";"Wayo, Kec. Taliabu Bar., Kabupaten Kepulauan Sula, Maluku Utara";"Kabupaten Kepulauan Sula, Maluku Utara";"MALUKU UTARA";"";"Indonesia";" 085333332703";"-1.9608765";"124.3900951";"https://maps.google.com/?cid=0x0:0xd2f29363425313df"
"cafe";"Rumah Makan";"Caffe  Resto Fujiyama";"Maranti Jaya, Kec. Taliabu Bar., Pulau Taliabu, Maluku Utara 97794";"Kec. Taliabu Bar., Pulau Taliabu";"MALUKU UTARA";"97794";"Indonesia";" 085242399567";"-1.9048209";"124.3425955";"https://maps.google.com/?cid=0x0:0x68331f8a91d179c7"
"cafe";"Kedai Kopi";"Inspirasi Coffe";"393Q+9CM, Bobong, Kec. Taliabu Bar., Pulau Taliabu, Maluku Utara";"Pulau Taliabu, Maluku Utara";"MALUKU UTARA";"";"Indonesia";"";"-1.9465461";"124.3885535";"https://maps.google.com/?cid=0x0:0xa3c4217a706b1f1e"
"cafe";"Rumah Makan";"Sangreyla cafe and resto";"395M+PC2, Unnamed Road, Bobong, Kec. Taliabu Bar., Pulau Taliabu, Maluku Utara";"Pulau Taliabu, Maluku Utara";"MALUKU UTARA";"";"Indonesia";"";"-1.9407443";"124.3835167";"https://maps.google.com/?cid=0x0:0xd1c45bde6b958ad5"
"cafe";"Rumah Makan";"Caffe  Resto ( kios Selvi)";"38XR+WJW, Pelabuhan, Pulau, Kec. Taliabu Bar., Pulau Taliabu, Maluku Utara";"Pulau Taliabu, Maluku Utara";"MALUKU UTARA";"";"Indonesia";"";"-1.9001455";"124.3415631";"https://maps.google.com/?cid=0x0:0x691817a79a8766b8"
"cafe";"Kedai Kopi";"Inung Coffee";"Bobong, dsn badadi, Kec. Taliabu Bar., Pulau Taliabu, Maluku Utara";"Pulau Taliabu, Maluku Utara";"MALUKU UTARA";"";"Indonesia";" 085210750936";"-1.9480537";"124.3821893";"https://maps.google.com/?cid=0x0:0x355aa093bf301f3e"
"cafe";"Kedai Kopi";"RM Nur";"29VP+C2J, Wayo, Kec. Taliabu Bar., Pulau Taliabu, Maluku Utara";"Pulau Taliabu, Maluku Utara";"MALUKU UTARA";"";"Indonesia";"";"-1.9564364";"124.385185";"https://maps.google.com/?cid=0x0:0xcf8e3c0b0e650b6a"
"cafe";"Kafe";"Rindu Cafe";"29XP+HG, Wayo, Kec. Taliabu Bar., Kabupaten Kepulauan Sula, Maluku Utara";"Kabupaten Kepulauan Sula, Maluku Utara";"MALUKU UTARA";"";"Indonesia";"";"-1.9510717";"124.3863608";"https://maps.google.com/?cid=0x0:0x4c60b6101f43bb23"
"cafe";"Kedai Kopi";"Ours Coffee";"393P+XR5, Jln. Kantor PDAM, Dusun Salenga, Bobong, Kec. Taliabu Bar., Pulau Taliabu, Maluku Utara";"Pulau Taliabu, Maluku Utara";"MALUKU UTARA";"";"Indonesia";"";"-1.9451155";"124.3870971";"https://maps.google.com/?cid=0x0:0xfc3214886cdfa4bb"
"cafe";"cafe";"Liang Haya caffe";"395J+RH6, Bobong, Kec. Taliabu Bar., Pulau Taliabu, Maluku Utara";"Pulau Taliabu, Maluku Utara";"MALUKU UTARA";"";"Indonesia";"";"-1.9404509";"124.3813927";"https://maps.google.com/?cid=0x0:0x7d8f10216a1f2c10"
"cafe";"Pembangunan Perumahan";"Vila Csit_4412";"Desa, Meranti Jaya, Dusun Agatis, Pulau Taliabu, Maluku Utara 97794";"Meranti Jaya, Dusun Agatis, Pulau Taliabu";"MALUKU UTARA";"97794";"Indonesia";" 081244384486";"-1.9049202";"124.3431666";"https://maps.google.com/?cid=0x0:0x61e7681447f475ff"
"cafe";"cafe";"Master_Caffe";"396G+4M, Bobong, Kec. Taliabu Bar., Pulau Taliabu, Maluku Utara";"Pulau Taliabu, Maluku Utara";"MALUKU UTARA";"";"Indonesia";"";"-1.9396759";"124.3766596";"https://maps.google.com/?cid=0x0:0x46eb6e64f019fb3"
"cafe";"cafe";"Kec. Taliabu Bar. Laut";"Pulau Taliabu, Maluku Utara";"Pulau Taliabu, Maluku Utara";"MALUKU UTARA";"";"Indonesia";"";"-1.7679971";"124.3713715";"https://maps.google.com/?cid=0x0:0x8f7fd7f1ec130894"
"cafe";"Rumah Makan";"Caffe  Resto Fujiyama";"Maranti Jaya, Kec. Taliabu Bar., Pulau Taliabu, Maluku Utara 97794";"Kec. Taliabu Bar., Pulau Taliabu";"MALUKU UTARA";"97794";"Indonesia";" 085242399567";"-1.9048209";"124.3425955";"https://maps.google.com/?cid=0x0:0x68331f8a91d179c7"
"cafe";"Kedai Kopi";"Sosa coffee";"Belakang BRI, Bobong, Kec. Taliabu Bar., Pulau Taliabu, Maluku Utara 97794";"Bobong, Kec. Taliabu Bar., Pulau Taliabu";"MALUKU UTARA";"97794";"Indonesia";" 081385622494";"-1.9505519";"124.3836462";"https://maps.google.com/?cid=0x0:0xb2a351cec2093100"
"cafe";"Kedai Kopi";""PAPEDA CAFFEE"";"Unnamed Road, Nggele, Kec. Taliabu Bar. Laut, Pulau Taliabu, Maluku Utara";"Pulau Taliabu, Maluku Utara";"MALUKU UTARA";"";"Indonesia";" 082271648902";"-1.7633555";"124.3711255";"https://maps.google.com/?cid=0x0:0xf82ed680e5069a5e"
"cafe";"Kedai Kopi";"Titik Temu";"Wayo, Kec. Taliabu Bar., Kabupaten Kepulauan Sula, Maluku Utara";"Kabupaten Kepulauan Sula, Maluku Utara";"MALUKU UTARA";"";"Indonesia";" 085333332703";"-1.9608765";"124.3900951";"https://maps.google.com/?cid=0x0:0xd2f29363425313df"
"cafe";"Rumah Makan";"Caffe  Resto ( kios Selvi)";"38XR+WJW, Pelabuhan, Pulau, Kec. Taliabu Bar., Pulau Taliabu, Maluku Utara";"Pulau Taliabu, Maluku Utara";"MALUKU UTARA";"";"Indonesia";"";"-1.9001455";"124.3415631";"https://maps.google.com/?cid=0x0:0x691817a79a8766b8"
"cafe";"Kedai Kopi";"Samada Cafe";"Desa Bobong, Jl. Kantor DPRD, Bobong, Kec. Taliabu Bar., Pulau Taliabu, Maluku Utara 97794";"Jl. Kantor DPRD, Bobong, Kec. Taliabu Bar., Pulau Taliabu";"MALUKU UTARA";"97794";"Indonesia";"";"-1.9471353";"124.3845584";"https://maps.google.com/?cid=0x0:0xfa2c20fdb8dd02d6"
"cafe";"Rumah Makan";"Sangreyla cafe and resto";"395M+PC2, Unnamed Road, Bobong, Kec. Taliabu Bar., Pulau Taliabu, Maluku Utara";"Pulau Taliabu, Maluku Utara";"MALUKU UTARA";"";"Indonesia";"";"-1.9407443";"124.3835167";"https://maps.google.com/?cid=0x0:0xd1c45bde6b958ad5"
"cafe";"Kedai Kopi";"Inung Coffee";"Bobong, dsn badadi, Kec. Taliabu Bar., Pulau Taliabu, Maluku Utara";"Pulau Taliabu, Maluku Utara";"MALUKU UTARA";"";"Indonesia";" 085210750936";"-1.9480537";"124.3821893";"https://maps.google.com/?cid=0x0:0x355aa093bf301f3e"
"cafe";"Komplek perumahan";"RM Rendy";"6955+JF, Beringin Jaya, Kec. Taliabu Bar. Laut, Pulau Taliabu, Maluku Utara";"Pulau Taliabu, Maluku Utara";"MALUKU UTARA";"";"Indonesia";"";"-1.790989";"124.3586485";"https://maps.google.com/?cid=0x0:0xcf3a74155719f2e5"
"cafe";"Kedai Kopi";"Inspirasi Coffe";"393Q+9CM, Bobong, Kec. Taliabu Bar., Pulau Taliabu, Maluku Utara";"Pulau Taliabu, Maluku Utara";"MALUKU UTARA";"";"Indonesia";"";"-1.9465461";"124.3885535";"https://maps.google.com/?cid=0x0:0xa3c4217a706b1f1e"
"cafe";"Pembangunan Perumahan";"Vila Csit_4412";"Desa, Meranti Jaya, Dusun Agatis, Pulau Taliabu, Maluku Utara 97794";"Meranti Jaya, Dusun Agatis, Pulau Taliabu";"MALUKU UTARA";"97794";"Indonesia";" 081244384486";"-1.9049202";"124.3431666";"https://maps.google.com/?cid=0x0:0x61e7681447f475ff"
"cafe";"Kios";"Warucil ULI";"69J9+XJ8, Jl. Lain, Nggele, Kec. Taliabu Bar. Laut, Pulau Taliabu, Maluku Utara";"Pulau Taliabu, Maluku Utara";"MALUKU UTARA";"";"Indonesia";"";"-1.767588";"124.3690661";"https://maps.google.com/?cid=0x0:0x8c05a64994ff4114"
"cafe";"Kedai Kopi";"Kedai Bujang";"69WX+83F, Nggele, Kec. Taliabu Bar. Laut, Kepulauan Sula, Maluku Utara";"Kepulauan Sula, Maluku Utara";"MALUKU UTARA";"";"Indonesia";"";"-1.7541923";"124.3976733";"https://maps.google.com/?cid=0x0:0xf7dba6b03df9a16b"
"cafe";"cafe";"Kec. Lede";"Pulau Taliabu, Maluku Utara";"Pulau Taliabu, Maluku Utara";"MALUKU UTARA";"";"Indonesia";"";"-1.6967225";"124.3724122";"https://maps.google.com/?cid=0x0:0x51b823c7ef07a4ff"
"cafe";"Kedai Kopi";"Nahang Coffee Lede";"Haliba Beach, Lede, Kec. Lede, Pulau Taliabu, Maluku Utara";"Pulau Taliabu, Maluku Utara";"MALUKU UTARA";"";"Indonesia";" 081340858525";"-1.6948848";"124.3673905";"https://maps.google.com/?cid=0x0:0x9e34da8f8d3869f5"
"cafe";"Toko bahan makanan";"Renjana cofe";"8949+54, Lede, Kec. Lede, Kabupaten Kepulauan Sula, Maluku Utara";"Kabupaten Kepulauan Sula, Maluku Utara";"MALUKU UTARA";"";"Indonesia";"";"-1.6945286";"124.367836";"https://maps.google.com/?cid=0x0:0xf25f7b0b4d01b65"
"cafe";"Kedai Kopi";""PAPEDA CAFFEE"";"Unnamed Road, Nggele, Kec. Taliabu Bar. Laut, Pulau Taliabu, Maluku Utara";"Pulau Taliabu, Maluku Utara";"MALUKU UTARA";"";"Indonesia";" 082271648902";"-1.7633555";"124.3711255";"https://maps.google.com/?cid=0x0:0xf82ed680e5069a5e"
"cafe";"Bangunan Bersejarah";"Desai";"8FM9+34, Todoli, Kec. Lede, Pulau Taliabu, Maluku Utara";"Pulau Taliabu, Maluku Utara";"MALUKU UTARA";"";"Indonesia";"";"-1.6673222";"124.4677426";"https://maps.google.com/?cid=0x0:0x469736eb48c8d40d"
"cafe";"Rumah Makan";"Cafe Resto Hei Hei";"69WX+C32, Nggele, Kec. Taliabu Bar. Laut, Kepulauan Sula, Maluku Utara";"Kepulauan Sula, Maluku Utara";"MALUKU UTARA";"";"Indonesia";"";"-1.7539905";"124.3976356";"https://maps.google.com/?cid=0x0:0x86326e247c87cb6b"
"cafe";"Kedai Kopi";"KEDAI "BUNG" COFFIE";"69M9+CHF, Jl. Lain, Nggele, Kec. Taliabu Bar. Laut, Pulau Taliabu, Maluku Utara";"Pulau Taliabu, Maluku Utara";"MALUKU UTARA";"";"Indonesia";"";"-1.7664288";"124.3689097";"https://maps.google.com/?cid=0x0:0x3287dd9192964676"
"cafe";"Kedai Kopi";"Kedai Bujang";"69WX+83F, Nggele, Kec. Taliabu Bar. Laut, Kepulauan Sula, Maluku Utara";"Kepulauan Sula, Maluku Utara";"MALUKU UTARA";"";"Indonesia";"";"-1.7541923";"124.3976733";"https://maps.google.com/?cid=0x0:0xf7dba6b03df9a16b"
"cafe";"Rumah Makan";"Caffe  Resto ( kios Selvi)";"38XR+WJW, Pelabuhan, Pulau, Kec. Taliabu Bar., Pulau Taliabu, Maluku Utara";"Pulau Taliabu, Maluku Utara";"MALUKU UTARA";"";"Indonesia";"";"-1.9001455";"124.3415631";"https://maps.google.com/?cid=0x0:0x691817a79a8766b8"
"cafe";"Toko Roti";"House Cindy.ari";"8929+HC3, Lede, Kec. Lede, Kabupaten Kepulauan Sula, Maluku Utara";"Kabupaten Kepulauan Sula, Maluku Utara";"MALUKU UTARA";"";"Indonesia";"";"-1.6984485";"124.369083";"https://maps.google.com/?cid=0x0:0x532ddb68c372a99e"
"cafe";"Toko umum";"MENTHARY MART";"892F+W89, Langganu, Kec. Lede, Pulau Taliabu, Maluku Utara";"Pulau Taliabu, Maluku Utara";"MALUKU UTARA";"";"Indonesia";" 082122684092";"-1.6977188";"124.3733492";"https://maps.google.com/?cid=0x0:0x68d8e162bf9bb3fa"
"cafe";"Warnet";"PT.Tower Bersama Group";"8FJ7+R65, Todoli, Kec. Lede, Pulau Taliabu, Maluku Utara";"Pulau Taliabu, Maluku Utara";"MALUKU UTARA";"";"Indonesia";"";"-1.6673489";"124.4629124";"https://maps.google.com/?cid=0x0:0xf885b33b44311c63"
"cafe";"Area Mendaki";"Tempat nongkrong";"8FP7+FWF, Todoli, Kec. Lede, Pulau Taliabu, Maluku Utara";"Pulau Taliabu, Maluku Utara";"MALUKU UTARA";"";"Indonesia";"";"-1.6638239";"124.4647979";"https://maps.google.com/?cid=0x0:0x93aa1991567835b1"
"cafe";"Pasar";"Pasar Rakyat Lede";"893F+2PQ, Langganu, Kec. Lede, Pulau Taliabu, Maluku Utara";"Pulau Taliabu, Maluku Utara";"MALUKU UTARA";"";"Indonesia";"";"-1.697367";"124.3744025";"https://maps.google.com/?cid=0x0:0x68b98a9734a7cc82"
"cafe";"cafe";"Kec. Taliabu Utara";"Pulau Taliabu, Maluku Utara";"Pulau Taliabu, Maluku Utara";"MALUKU UTARA";"";"Indonesia";"";"-1.6577743";"124.7098315";"https://maps.google.com/?cid=0x0:0x2f87ca321b31898"
"cafe";"Prasmanan";"RM. Cinta";"8GMF+VWV, Tikong, Kec. Taliabu Utara, Pulau Taliabu, Maluku Utara";"Pulau Taliabu, Maluku Utara";"MALUKU UTARA";"";"Indonesia";"";"-1.6648931";"124.5244832";"https://maps.google.com/?cid=0x0:0xf552eb23846032ab"
"cafe";"Kedai Kopi";"Sosa coffee";"Belakang BRI, Bobong, Kec. Taliabu Bar., Pulau Taliabu, Maluku Utara 97794";"Bobong, Kec. Taliabu Bar., Pulau Taliabu";"MALUKU UTARA";"97794";"Indonesia";" 081385622494";"-1.9505519";"124.3836462";"https://maps.google.com/?cid=0x0:0xb2a351cec2093100"
"cafe";"Kedai Kopi";"Titik Temu";"Wayo, Kec. Taliabu Bar., Kabupaten Kepulauan Sula, Maluku Utara";"Kabupaten Kepulauan Sula, Maluku Utara";"MALUKU UTARA";"";"Indonesia";" 085333332703";"-1.9608765";"124.3900951";"https://maps.google.com/?cid=0x0:0xd2f29363425313df"
"cafe";"Kedai Kopi";"Samada Cafe";"Desa Bobong, Jl. Kantor DPRD, Bobong, Kec. Taliabu Bar., Pulau Taliabu, Maluku Utara 97794";"Jl. Kantor DPRD, Bobong, Kec. Taliabu Bar., Pulau Taliabu";"MALUKU UTARA";"97794";"Indonesia";"";"-1.9471353";"124.3845584";"https://maps.google.com/?cid=0x0:0xfa2c20fdb8dd02d6"
"cafe";"Kedai Kopi";""PAPEDA CAFFEE"";"Unnamed Road, Nggele, Kec. Taliabu Bar. Laut, Pulau Taliabu, Maluku Utara";"Pulau Taliabu, Maluku Utara";"MALUKU UTARA";"";"Indonesia";" 082271648902";"-1.7633555";"124.3711255";"https://maps.google.com/?cid=0x0:0xf82ed680e5069a5e"
"cafe";"Kedai Kopi";"KEDAI "BUNG" COFFIE";"69M9+CHF, Jl. Lain, Nggele, Kec. Taliabu Bar. Laut, Pulau Taliabu, Maluku Utara";"Pulau Taliabu, Maluku Utara";"MALUKU UTARA";"";"Indonesia";"";"-1.7664288";"124.3689097";"https://maps.google.com/?cid=0x0:0x3287dd9192964676"
"cafe";"Warnet";"Waifi di rumah Tris";"7R7H+7P7, Tj. Una, Kec. Taliabu Utara, Pulau Taliabu, Maluku Utara";"Pulau Taliabu, Maluku Utara";"MALUKU UTARA";"";"Indonesia";"";"-1.7368376";"124.8293008";"https://maps.google.com/?cid=0x0:0x7b3b686929bc4606"
"cafe";"Rumah Makan";"Caffe  Resto ( kios Selvi)";"38XR+WJW, Pelabuhan, Pulau, Kec. Taliabu Bar., Pulau Taliabu, Maluku Utara";"Pulau Taliabu, Maluku Utara";"MALUKU UTARA";"";"Indonesia";"";"-1.9001455";"124.3415631";"https://maps.google.com/?cid=0x0:0x691817a79a8766b8"
"cafe";"Bangunan Bersejarah";"Desai";"8FM9+34, Todoli, Kec. Lede, Pulau Taliabu, Maluku Utara";"Pulau Taliabu, Maluku Utara";"MALUKU UTARA";"";"Indonesia";"";"-1.6673222";"124.4677426";"https://maps.google.com/?cid=0x0:0x469736eb48c8d40d"
"cafe";"Rumah Makan";"Warung makan mama fikri";"Gela, Kec. Taliabu Utara, Pulau Taliabu, Maluku Utara, 97794";"Kec. Taliabu Utara, Pulau Taliabu";"MALUKU UTARA";"97794";"Indonesia";" 085333392357";"-1.751857";"124.6911804";"https://maps.google.com/?cid=0x0:0xc97ea9781c0c95f6"
"cafe";"Indonesia";"RM.Laras";"8GJF+XF2, Tikong, Kec. Taliabu Utara, Pulau Taliabu, Maluku Utara";"Pulau Taliabu, Maluku Utara";"MALUKU UTARA";"";"Indonesia";"";"-1.6686359";"124.5232819";"https://maps.google.com/?cid=0x0:0x24df7547b88f82e0"
"cafe";"Kios";"Kios faiz";"8GJF+496, Tikong, Kec. Taliabu Utara, Pulau Taliabu, Maluku Utara";"Pulau Taliabu, Maluku Utara";"MALUKU UTARA";"";"Indonesia";"";"-1.6704737";"124.524045";"https://maps.google.com/?cid=0x0:0xcf0392c0b8655815"
"cafe";"Kios";"Kios Marwah";"8MWV+JGJ, Unnamed Road, Minton, Kec. Taliabu Utara, Pulau Taliabu, Maluku Utara";"Pulau Taliabu, Maluku Utara";"MALUKU UTARA";"";"Indonesia";" 081244134663";"-1.6534123";"124.6937608";"https://maps.google.com/?cid=0x0:0xf511809770face87"
"cafe";"cafe";"Kec. Taliabu Tim.";"Pulau Taliabu, Maluku Utara";"Pulau Taliabu, Maluku Utara";"MALUKU UTARA";"";"Indonesia";"";"-1.7824897";"125.2932285";"https://maps.google.com/?cid=0x0:0x6fb215108475baa"
"cafe";"Kedai Kopi";"Titik Temu";"Wayo, Kec. Taliabu Bar., Kabupaten Kepulauan Sula, Maluku Utara";"Kabupaten Kepulauan Sula, Maluku Utara";"MALUKU UTARA";"";"Indonesia";" 085333332703";"-1.9608765";"124.3900951";"https://maps.google.com/?cid=0x0:0xd2f29363425313df"
"cafe";"Kedai Kopi";"TUD PAI CAFFE";"59R5+F6M, Dofa, Kec. Mangoli Bar., Kabupaten Kepulauan Sula, Maluku Utara";"Kabupaten Kepulauan Sula, Maluku Utara";"MALUKU UTARA";"";"Indonesia";"";"-1.8093732";"125.3580302";"https://maps.google.com/?cid=0x0:0xeb9e85fe21ea3025"
"cafe";"Kedai Kopi";"Inung Coffee";"Bobong, dsn badadi, Kec. Taliabu Bar., Pulau Taliabu, Maluku Utara";"Pulau Taliabu, Maluku Utara";"MALUKU UTARA";"";"Indonesia";" 085210750936";"-1.9480537";"124.3821893";"https://maps.google.com/?cid=0x0:0x355aa093bf301f3e"
"cafe";"Kedai Kopi";""PAPEDA CAFFEE"";"Unnamed Road, Nggele, Kec. Taliabu Bar. Laut, Pulau Taliabu, Maluku Utara";"Pulau Taliabu, Maluku Utara";"MALUKU UTARA";"";"Indonesia";" 082271648902";"-1.7633555";"124.3711255";"https://maps.google.com/?cid=0x0:0xf82ed680e5069a5e"
"cafe";"Kedai Kopi";"Inspirasi Coffe";"393Q+9CM, Bobong, Kec. Taliabu Bar., Pulau Taliabu, Maluku Utara";"Pulau Taliabu, Maluku Utara";"MALUKU UTARA";"";"Indonesia";"";"-1.9465461";"124.3885535";"https://maps.google.com/?cid=0x0:0xa3c4217a706b1f1e"
"cafe";"Kedai Kopi";"Samada Cafe";"Desa Bobong, Jl. Kantor DPRD, Bobong, Kec. Taliabu Bar., Pulau Taliabu, Maluku Utara 97794";"Jl. Kantor DPRD, Bobong, Kec. Taliabu Bar., Pulau Taliabu";"MALUKU UTARA";"97794";"Indonesia";"";"-1.9471353";"124.3845584";"https://maps.google.com/?cid=0x0:0xfa2c20fdb8dd02d6"
"cafe";"Kedai Kopi";"KEDAI "BUNG" COFFIE";"69M9+CHF, Jl. Lain, Nggele, Kec. Taliabu Bar. Laut, Pulau Taliabu, Maluku Utara";"Pulau Taliabu, Maluku Utara";"MALUKU UTARA";"";"Indonesia";"";"-1.7664288";"124.3689097";"https://maps.google.com/?cid=0x0:0x3287dd9192964676"
"cafe";"Kedai Kopi";"RM Nur";"29VP+C2J, Wayo, Kec. Taliabu Bar., Pulau Taliabu, Maluku Utara";"Pulau Taliabu, Maluku Utara";"MALUKU UTARA";"";"Indonesia";"";"-1.9564364";"124.385185";"https://maps.google.com/?cid=0x0:0xcf8e3c0b0e650b6a"
"cafe";"Komplek perumahan";"Rumah marens";"3WFW+G6V, Sofan, Kec. Taliabu Tim. Sel., Pulau Taliabu, Maluku Utara";"Pulau Taliabu, Maluku Utara";"MALUKU UTARA";"";"Indonesia";"";"-1.9261375";"124.9455469";"https://maps.google.com/?cid=0x0:0xda52449f3905bb3c"
"cafe";"cafe";"Kabupaten Bengkayang";"6XHJ+5GG, Tubang, Kec. Taliabu Tim., Kabupaten Kepulauan Sula, Maluku Utara";"Kabupaten Kepulauan Sula, Maluku Utara";"MALUKU UTARA";"";"Indonesia";"";"-1.772063";"124.981322";"https://maps.google.com/?cid=0x0:0xc0a7222d621e3ed"
"cafe";"cafe";"Wakancola Coffe Shop";"74X5+H77, Penu, Kec. Taliabu Tim., Kabupaten Kepulauan Sula, Maluku Utara";"Kabupaten Kepulauan Sula, Maluku Utara";"MALUKU UTARA";"";"Indonesia";"";"-1.7010766";"125.1081691";"https://maps.google.com/?cid=0x0:0xea789091b1210e42"
"cafe";"cafe";"Beta Cafe";"586H+PV8, Pelita, Kec. Mangoli Bar., Kabupaten Kepulauan Sula, Maluku Utara";"Kabupaten Kepulauan Sula, Maluku Utara";"MALUKU UTARA";"";"Indonesia";"";"-1.8382359";"125.3297321";"https://maps.google.com/?cid=0x0:0x355bcb3846c11437"
"cafe";"cafe";"Keluarga Hi.La Isa";"757W+5PW, Parigi, Kec. Taliabu Tim., Kabupaten Kepulauan Sula, Maluku Utara";"Kabupaten Kepulauan Sula, Maluku Utara";"MALUKU UTARA";"";"Indonesia";"";"-1.7370211";"125.1968144";"https://maps.google.com/?cid=0x0:0x79b815a8c977bf"
"cafe";"cafe";"Kec. Taliabu Tim. Sel.";"Pulau Taliabu, Maluku Utara";"Pulau Taliabu, Maluku Utara";"MALUKU UTARA";"";"Indonesia";"";"-1.8889627";"125.0798626";"https://maps.google.com/?cid=0x0:0xa3c2952966278c15"
"cafe";"Kios";"Kios Ibu. Wabani";"32R8+3H5, Losseng, Kec. Taliabu Tim. Sel., Pulau Taliabu, Maluku Utara";"Pulau Taliabu, Maluku Utara";"MALUKU UTARA";"";"Indonesia";"";"-1.9098627";"125.0164903";"https://maps.google.com/?cid=0x0:0x4427828be9e5f5ae"
"cafe";"Kedai Kopi";"Titik Temu";"Wayo, Kec. Taliabu Bar., Kabupaten Kepulauan Sula, Maluku Utara";"Kabupaten Kepulauan Sula, Maluku Utara";"MALUKU UTARA";"";"Indonesia";" 085333332703";"-1.9608765";"124.3900951";"https://maps.google.com/?cid=0x0:0xd2f29363425313df"
"cafe";"Kedai Kopi";"Inung Coffee";"Bobong, dsn badadi, Kec. Taliabu Bar., Pulau Taliabu, Maluku Utara";"Pulau Taliabu, Maluku Utara";"MALUKU UTARA";"";"Indonesia";" 085210750936";"-1.9480537";"124.3821893";"https://maps.google.com/?cid=0x0:0x355aa093bf301f3e"
"cafe";"Kedai Kopi";""PAPEDA CAFFEE"";"Unnamed Road, Nggele, Kec. Taliabu Bar. Laut, Pulau Taliabu, Maluku Utara";"Pulau Taliabu, Maluku Utara";"MALUKU UTARA";"";"Indonesia";" 082271648902";"-1.7633555";"124.3711255";"https://maps.google.com/?cid=0x0:0xf82ed680e5069a5e"
"cafe";"Kedai Kopi";"TUD PAI CAFFE";"59R5+F6M, Dofa, Kec. Mangoli Bar., Kabupaten Kepulauan Sula, Maluku Utara";"Kabupaten Kepulauan Sula, Maluku Utara";"MALUKU UTARA";"";"Indonesia";"";"-1.8093732";"125.3580302";"https://maps.google.com/?cid=0x0:0xeb9e85fe21ea3025"
"cafe";"Kedai Kopi";"Samada Cafe";"Desa Bobong, Jl. Kantor DPRD, Bobong, Kec. Taliabu Bar., Pulau Taliabu, Maluku Utara 97794";"Jl. Kantor DPRD, Bobong, Kec. Taliabu Bar., Pulau Taliabu";"MALUKU UTARA";"97794";"Indonesia";"";"-1.9471353";"124.3845584";"https://maps.google.com/?cid=0x0:0xfa2c20fdb8dd02d6"
"cafe";"Kedai Kopi";"Inspirasi Coffe";"393Q+9CM, Bobong, Kec. Taliabu Bar., Pulau Taliabu, Maluku Utara";"Pulau Taliabu, Maluku Utara";"MALUKU UTARA";"";"Indonesia";"";"-1.9465461";"124.3885535";"https://maps.google.com/?cid=0x0:0xa3c4217a706b1f1e"
"cafe";"Kedai Kopi";"KEDAI "BUNG" COFFIE";"69M9+CHF, Jl. Lain, Nggele, Kec. Taliabu Bar. Laut, Pulau Taliabu, Maluku Utara";"Pulau Taliabu, Maluku Utara";"MALUKU UTARA";"";"Indonesia";"";"-1.7664288";"124.3689097";"https://maps.google.com/?cid=0x0:0x3287dd9192964676"
"cafe";"Rumah Makan";"Sangreyla cafe and resto";"395M+PC2, Unnamed Road, Bobong, Kec. Taliabu Bar., Pulau Taliabu, Maluku Utara";"Pulau Taliabu, Maluku Utara";"MALUKU UTARA";"";"Indonesia";"";"-1.9407443";"124.3835167";"https://maps.google.com/?cid=0x0:0xd1c45bde6b958ad5"
"cafe";"Kedai Kopi";"RM Nur";"29VP+C2J, Wayo, Kec. Taliabu Bar., Pulau Taliabu, Maluku Utara";"Pulau Taliabu, Maluku Utara";"MALUKU UTARA";"";"Indonesia";"";"-1.9564364";"124.385185";"https://maps.google.com/?cid=0x0:0xcf8e3c0b0e650b6a"
"cafe";"cafe";"Kedai Zakir";"Perbatasan Desa Pencado Dan Maluli, Pencado, Kec. Taliabu Sel., Pulau Taliabu, Maluku Utara";"Pulau Taliabu, Maluku Utara";"MALUKU UTARA";"";"Indonesia";"";"-1.9090103";"124.7878112";"https://maps.google.com/?cid=0x0:0x5b37c45f041a9cf6"
"cafe";"Kedai Kopi";"Warini caffee";"Pelita, Kec. Mangoli Bar., Kabupaten Kepulauan Sula, Maluku Utara";"Kabupaten Kepulauan Sula, Maluku Utara";"MALUKU UTARA";"";"Indonesia";" 082187725373";"-1.8353722";"125.3286171";"https://maps.google.com/?cid=0x0:0x4e368c759a148cf2"
"cafe";"Nasi";"Cafe Talia";"66R7+CGM, Siwalima, Kec. Pulau-Pulau Aru, Kabupaten Kepulauan Aru, Maluku";"Kabupaten Kepulauan Aru, Maluku";"MALUKU UTARA";"";"Indonesia";" 085244613461";"-5.7589118";"134.2138062";"https://maps.google.com/?cid=0x0:0xb7f72a6ad08271d1"
"cafe";"cafe";"Kec. Taliabu Sel.";"Pulau Taliabu, Maluku Utara";"Pulau Taliabu, Maluku Utara";"MALUKU UTARA";"";"Indonesia";"";"-1.9087227";"124.7883682";"https://maps.google.com/?cid=0x0:0x47ce8e0cf4083a24"
"cafe";"cafe";"Kedai Zakir";"Perbatasan Desa Pencado Dan Maluli, Pencado, Kec. Taliabu Sel., Pulau Taliabu, Maluku Utara";"Pulau Taliabu, Maluku Utara";"MALUKU UTARA";"";"Indonesia";"";"-1.9090103";"124.7878112";"https://maps.google.com/?cid=0x0:0x5b37c45f041a9cf6"
"cafe";"Kedai Kopi";"Titik Temu";"Wayo, Kec. Taliabu Bar., Kabupaten Kepulauan Sula, Maluku Utara";"Kabupaten Kepulauan Sula, Maluku Utara";"MALUKU UTARA";"";"Indonesia";" 085333332703";"-1.9608765";"124.3900951";"https://maps.google.com/?cid=0x0:0xd2f29363425313df"
"cafe";"Kedai Kopi";"Samada Cafe";"Desa Bobong, Jl. Kantor DPRD, Bobong, Kec. Taliabu Bar., Pulau Taliabu, Maluku Utara 97794";"Jl. Kantor DPRD, Bobong, Kec. Taliabu Bar., Pulau Taliabu";"MALUKU UTARA";"97794";"Indonesia";"";"-1.9471353";"124.3845584";"https://maps.google.com/?cid=0x0:0xfa2c20fdb8dd02d6"
"cafe";"Nasi";"Cafe Talia";"66R7+CGM, Siwalima, Kec. Pulau-Pulau Aru, Kabupaten Kepulauan Aru, Maluku";"Kabupaten Kepulauan Aru, Maluku";"MALUKU UTARA";"";"Indonesia";" 085244613461";"-5.7589118";"134.2138062";"https://maps.google.com/?cid=0x0:0xb7f72a6ad08271d1"
"cafe";"Kedai Kopi";"Inspirasi Coffe";"393Q+9CM, Bobong, Kec. Taliabu Bar., Pulau Taliabu, Maluku Utara";"Pulau Taliabu, Maluku Utara";"MALUKU UTARA";"";"Indonesia";"";"-1.9465461";"124.3885535";"https://maps.google.com/?cid=0x0:0xa3c4217a706b1f1e"
"cafe";"Rumah Makan";"Caffe  Resto ( kios Selvi)";"38XR+WJW, Pelabuhan, Pulau, Kec. Taliabu Bar., Pulau Taliabu, Maluku Utara";"Pulau Taliabu, Maluku Utara";"MALUKU UTARA";"";"Indonesia";"";"-1.9001455";"124.3415631";"https://maps.google.com/?cid=0x0:0x691817a79a8766b8"
"cafe";"Kedai Kopi";"Inung Coffee";"Bobong, dsn badadi, Kec. Taliabu Bar., Pulau Taliabu, Maluku Utara";"Pulau Taliabu, Maluku Utara";"MALUKU UTARA";"";"Indonesia";" 085210750936";"-1.9480537";"124.3821893";"https://maps.google.com/?cid=0x0:0x355aa093bf301f3e"
"cafe";"Kafe";"Forganza Resto  Cafe";"Kelanit, Kec. Kei Kecil, Kabupaten Maluku Tenggara, Maluku";"Kabupaten Maluku Tenggara, Maluku";"MALUKU UTARA";"";"Indonesia";" 082231789845";"-5.6575049";"132.7029619";"https://maps.google.com/?cid=0x0:0x35e7e74d6d2279bc"
"cafe";"Kedai Kopi";"RM Nur";"29VP+C2J, Wayo, Kec. Taliabu Bar., Pulau Taliabu, Maluku Utara";"Pulau Taliabu, Maluku Utara";"MALUKU UTARA";"";"Indonesia";"";"-1.9564364";"124.385185";"https://maps.google.com/?cid=0x0:0xcf8e3c0b0e650b6a"
"cafe";"Komplek perumahan";"Rumah marens";"3WFW+G6V, Sofan, Kec. Taliabu Tim. Sel., Pulau Taliabu, Maluku Utara";"Pulau Taliabu, Maluku Utara";"MALUKU UTARA";"";"Indonesia";"";"-1.9261375";"124.9455469";"https://maps.google.com/?cid=0x0:0xda52449f3905bb3c"
"cafe";"Warnet";"Waifi di rumah Tris";"7R7H+7P7, Tj. Una, Kec. Taliabu Utara, Pulau Taliabu, Maluku Utara";"Pulau Taliabu, Maluku Utara";"MALUKU UTARA";"";"Indonesia";"";"-1.7368376";"124.8293008";"https://maps.google.com/?cid=0x0:0x7b3b686929bc4606"
"cafe";"Kios";"Kios Ibu. Wabani";"32R8+3H5, Losseng, Kec. Taliabu Tim. Sel., Pulau Taliabu, Maluku Utara";"Pulau Taliabu, Maluku Utara";"MALUKU UTARA";"";"Indonesia";"";"-1.9098627";"125.0164903";"https://maps.google.com/?cid=0x0:0x4427828be9e5f5ae"
"cafe";"Kedai Kopi";"KEDAI "BUNG" COFFIE";"69M9+CHF, Jl. Lain, Nggele, Kec. Taliabu Bar. Laut, Pulau Taliabu, Maluku Utara";"Pulau Taliabu, Maluku Utara";"MALUKU UTARA";"";"Indonesia";"";"-1.7664288";"124.3689097";"https://maps.google.com/?cid=0x0:0x3287dd9192964676"
"hotel";"Hotel";"Penginapan SELTA";"Fangahu, Pulau Taliabu, Maluku Utara 97794";"Pulau Taliabu";"MALUKU UTARA";"97794";"Indonesia";" 082133372305";"-1.9401422";"124.3782349";"https://maps.google.com/?cid=0x0:0x1133f7c990b6fe0"
"hotel";"hotel";"Kec. Taliabu Bar.";"Pulau Taliabu, Maluku Utara";"Pulau Taliabu, Maluku Utara";"MALUKU UTARA";"";"Indonesia";"";"-1.9453067";"124.3829336";"https://maps.google.com/?cid=0x0:0x9b18127cb6600f97"
"hotel";"Pondok";"Penginapan Ni'mat Mulia";"393M+R36, Jln Kapten Naiman, Bobong, Taliabu Barat, Taliabu Island Regency, North Maluku";"Pulau Taliabu, Maluku Utara";"MALUKU UTARA";"";"Indonesia";"";"-1.9454504";"124.3826295";"https://maps.google.com/?cid=0x0:0x345362eaeb3c9c53"
"hotel";"Hotel";"Hotel";"38RW+X65, Meranti jaya, Kec. Taliabu Bar., Pulau Taliabu, Maluku Utara";"Pulau Taliabu, Maluku Utara";"MALUKU UTARA";"";"Indonesia";"";"-1.9076219";"124.3456158";"https://maps.google.com/?cid=0x0:0x4772f3bd81b95d94"
"hotel";"Hotel";"Penginapan samalito";"29XM+PJ3 Dekat Pelabuhan Bobong, Wayo, Kec. Taliabu Bar., Pulau Taliabu, Maluku Utara 97974";"Wayo, Kec. Taliabu Bar., Pulau Taliabu";"MALUKU UTARA";"97974";"Indonesia";"";"-1.9507439";"124.3840472";"https://maps.google.com/?cid=0x0:0x12927ad00e5a31ef"
"hotel";"Hostel";"TEMPAT TINGGAL";"394M+M3, Bobong, Kec. Taliabu Bar., Pulau Taliabu, Maluku Utara";"Pulau Taliabu, Maluku Utara";"MALUKU UTARA";"";"Indonesia";"";"-1.9432881";"124.382708";"https://maps.google.com/?cid=0x0:0x790f2437a3645f0d"
"hotel";"hotel";"Maluku Utara";"";"Maluku Utara";"MALUKU UTARA";"";"Indonesia";"";"1.5709993";"127.8087693";"https://maps.google.com/?cid=0x0:0x1030bfbcaf71ac0"
"hotel";"hotel";"Kec. Taliabu Bar. Laut";"Pulau Taliabu, Maluku Utara";"Pulau Taliabu, Maluku Utara";"MALUKU UTARA";"";"Indonesia";"";"-1.7679971";"124.3713715";"https://maps.google.com/?cid=0x0:0x8f7fd7f1ec130894"
"hotel";"Hotel";"Penginapan SELTA";"Fangahu, Pulau Taliabu, Maluku Utara 97794";"Pulau Taliabu";"MALUKU UTARA";"97794";"Indonesia";" 082133372305";"-1.9401422";"124.3782349";"https://maps.google.com/?cid=0x0:0x1133f7c990b6fe0"
"hotel";"Hotel";"Hotel";"38RW+X65, Meranti jaya, Kec. Taliabu Bar., Pulau Taliabu, Maluku Utara";"Pulau Taliabu, Maluku Utara";"MALUKU UTARA";"";"Indonesia";"";"-1.9076219";"124.3456158";"https://maps.google.com/?cid=0x0:0x4772f3bd81b95d94"
"hotel";"Pondok";"penginapan Enam Ratu Tayeb";"394H+WWG, Bobong, Kec. Taliabu Bar., Pulau Taliabu, Maluku Utara";"Pulau Taliabu, Maluku Utara";"MALUKU UTARA";"";"Indonesia";"";"-1.9425743";"124.3796197";"https://maps.google.com/?cid=0x0:0xfd05111b26a8b766"
"hotel";"Persewaan pondok";"Wisma Fajar";"Langganu, Balohang, Pulau Taliabu, Maluku Utara 97979";"Balohang, Pulau Taliabu";"MALUKU UTARA";"97979";"Indonesia";" 082187776177";"-1.697333";"124.3761491";"https://maps.google.com/?cid=0x0:0x3e2a6a7ef68e197e"
"hotel";"Hotel";"Penginapan samalito";"29XM+PJ3 Dekat Pelabuhan Bobong, Wayo, Kec. Taliabu Bar., Pulau Taliabu, Maluku Utara 97974";"Wayo, Kec. Taliabu Bar., Pulau Taliabu";"MALUKU UTARA";"97974";"Indonesia";"";"-1.9507439";"124.3840472";"https://maps.google.com/?cid=0x0:0x12927ad00e5a31ef"
"hotel";"Persewaan pondok";"Wisma Fajar";"Langganu, Balohang, Pulau Taliabu, Maluku Utara 97979";"Balohang, Pulau Taliabu";"MALUKU UTARA";"97979";"Indonesia";" 082187776177";"-1.697333";"124.3761491";"https://maps.google.com/?cid=0x0:0x3e2a6a7ef68e197e"
"hotel";"Hotel jangka panjang";"Kos Fajar";"RT.001/RW.001, Dusun Fangahu, Bobong, Kec. Taliabu Bar., Pulau Taliabu, Maluku Utara 97794";"Dusun Fangahu, Bobong, Kec. Taliabu Bar., Pulau Taliabu";"MALUKU UTARA";"97794";"Indonesia";" 082261392934";"-1.9419647";"124.3808367";"https://maps.google.com/?cid=0x0:0x8be79c906e3e1d9a"
"hotel";"hotel";"Kec. Lede";"Pulau Taliabu, Maluku Utara";"Pulau Taliabu, Maluku Utara";"MALUKU UTARA";"";"Indonesia";"";"-1.6967225";"124.3724122";"https://maps.google.com/?cid=0x0:0x51b823c7ef07a4ff"
"hotel";"hotel";"N/A";"";"";"MALUKU UTARA";"";"Indonesia";"";"";"";"https://maps.google.com/?cid=0x0:0xadc0715ea2e729ec%7C/g/121hftnj%7Cid-ID"
"hotel";"hotel";"N/A";"";"";"MALUKU UTARA";"";"Indonesia";"";"";"";"https://maps.google.com/?cid=0x0:0x126e3446c8f963cb%7C/g/11fhrgz5r3%7Cid-ID"
"hotel";"hotel";"Muara Inn Ternate";"Jl. Seruni, Kp. Pisang, Kec. Ternate Tengah, Kota Ternate, Maluku Utara 97712";"Kp. Pisang, Kec. Ternate Tengah, Kota Ternate";"MALUKU UTARA";"97712";"Indonesia";" 09216205200";"0.7834742";"127.3826265";"https://maps.google.com/?cid=0x0:0x126e3446c8f963cb"
"hotel";"hotel";"Lede";"9340, Belgia";"Lede, Belgia";"MALUKU UTARA";"";"Indonesia";"";"50.9651705";"3.9773105";"https://maps.google.com/?cid=0x0:0x40099ab2f4d5640"
"hotel";"hotel";"N/A";"";"";"MALUKU UTARA";"";"Indonesia";"";"";"";"https://maps.google.com/?cid=0x0:0xed7575f8e3e63a97%7C/g/1tfmmkb2%7Cid-ID"
"hotel";"hotel";"ibis Aalst Centrum";"Villalaan 20, 9300 Aalst, Belgia";"Aalst, Belgia";"MALUKU UTARA";"";"Indonesia";" +3253711819";"50.9216023";"4.0324026";"https://maps.google.com/?cid=0x0:0xed7575f8e3e63a97"
"hotel";"hotel";"BB Aalsters genot";"Onegem 100, 9300 Aalst, Belgia";"Aalst, Belgia";"MALUKU UTARA";"";"Indonesia";" +32468247484";"50.9547506";"4.0099525";"https://maps.google.com/?cid=0x0:0x88c5aa7ba1deaa52"
"hotel";"Hotel bintang 3";"Hotel of The Train Station Aalst";"Statieplein 11, 9300 Aalst, Belgia";"Aalst, Belgia";"MALUKU UTARA";"";"Indonesia";" +3253775843";"50.9423017";"4.0394819";"https://maps.google.com/?cid=0x0:0x8681d7a21544ce7d"
"hotel";"hotel";"BB Burgemeestershof";"Kriephoekstraat 25, 9230 Wetteren, Belgia";"Wetteren, Belgia";"MALUKU UTARA";"";"Indonesia";" +32475530430";"50.9763031";"3.8823723";"https://maps.google.com/?cid=0x0:0x27830ccfc118557c"
"hotel";"hotel";"Gasthof Kapelhof";"Kapelhofstraat 22, 9420 Erpe-Mere, Belgia";"Erpe-Mere, Belgia";"MALUKU UTARA";"";"Indonesia";" +3253807008";"50.939034";"3.95357";"https://maps.google.com/?cid=0x0:0xc5785e6f10046155"
"hotel";"hotel";"Keizershof Hotel";"Korte Nieuwstraat 15, 9300 Aalst, Belgia";"Aalst, Belgia";"MALUKU UTARA";"";"Indonesia";" +3253774411";"50.9374771";"4.0358281";"https://maps.google.com/?cid=0x0:0x72834cefedcf43b1"
"hotel";"hotel";"Kec. Taliabu Utara";"Pulau Taliabu, Maluku Utara";"Pulau Taliabu, Maluku Utara";"MALUKU UTARA";"";"Indonesia";"";"-1.6577743";"124.7098315";"https://maps.google.com/?cid=0x0:0x2f87ca321b31898"
"hotel";"hotel";"Pulau Taliabu";"Pulau Taliabu, Maluku Utara";"Pulau Taliabu, Maluku Utara";"MALUKU UTARA";"";"Indonesia";"";"-1.8268344";"124.7740793";"https://maps.google.com/?cid=0x0:0x33cb7fa1e073c75d"
"hotel";"hotel";"Hotel Astonia Tobelo";"Gosoma, Kec. Tobelo, Kabupaten Halmahera Utara, Maluku Utara";"Kabupaten Halmahera Utara, Maluku Utara";"MALUKU UTARA";"";"Indonesia";" 09242621900";"1.7223761";"127.9947995";"https://maps.google.com/?cid=0x0:0x99ff7dd9ff5c49af"
"hotel";"Hotel";"Penginapan SELTA";"Fangahu, Pulau Taliabu, Maluku Utara 97794";"Pulau Taliabu";"MALUKU UTARA";"97794";"Indonesia";" 082133372305";"-1.9401422";"124.3782349";"https://maps.google.com/?cid=0x0:0x1133f7c990b6fe0"
"hotel";"Pondok";"penginapan Enam Ratu Tayeb";"394H+WWG, Bobong, Kec. Taliabu Bar., Pulau Taliabu, Maluku Utara";"Pulau Taliabu, Maluku Utara";"MALUKU UTARA";"";"Indonesia";"";"-1.9425743";"124.3796197";"https://maps.google.com/?cid=0x0:0xfd05111b26a8b766"
"hotel";"Pondok";"Penginapan Ni'mat Mulia";"393M+R36, Jln Kapten Naiman, Bobong, Taliabu Barat, Taliabu Island Regency, North Maluku";"Pulau Taliabu, Maluku Utara";"MALUKU UTARA";"";"Indonesia";"";"-1.9454504";"124.3826295";"https://maps.google.com/?cid=0x0:0x345362eaeb3c9c53"
"hotel";"Hotel";"Penginapan samalito";"29XM+PJ3 Dekat Pelabuhan Bobong, Wayo, Kec. Taliabu Bar., Pulau Taliabu, Maluku Utara 97974";"Wayo, Kec. Taliabu Bar., Pulau Taliabu";"MALUKU UTARA";"97974";"Indonesia";"";"-1.9507439";"124.3840472";"https://maps.google.com/?cid=0x0:0x12927ad00e5a31ef"
"hotel";"Hotel";"Hotel";"38RW+X65, Meranti jaya, Kec. Taliabu Bar., Pulau Taliabu, Maluku Utara";"Pulau Taliabu, Maluku Utara";"MALUKU UTARA";"";"Indonesia";"";"-1.9076219";"124.3456158";"https://maps.google.com/?cid=0x0:0x4772f3bd81b95d94"
"hotel";"Persewaan pondok";"Wisma Fajar";"Langganu, Balohang, Pulau Taliabu, Maluku Utara 97979";"Balohang, Pulau Taliabu";"MALUKU UTARA";"97979";"Indonesia";" 082187776177";"-1.697333";"124.3761491";"https://maps.google.com/?cid=0x0:0x3e2a6a7ef68e197e"
"hotel";"hotel";"Sweet Home";"63RX+5C7, Tubang, Kec. Taliabu Tim., Kabupaten Kepulauan Sula, Maluku Utara";"Kabupaten Kepulauan Sula, Maluku Utara";"MALUKU UTARA";"";"Indonesia";"";"-1.7595752";"125.0985368";"https://maps.google.com/?cid=0x0:0xef9a48b711333123"
"hotel";"hotel";"Kec. Taliabu Tim. Sel.";"Pulau Taliabu, Maluku Utara";"Pulau Taliabu, Maluku Utara";"MALUKU UTARA";"";"Indonesia";"";"-1.8889627";"125.0798626";"https://maps.google.com/?cid=0x0:0xa3c2952966278c15"
"hotel";"Hotel";"Andini mutmainnah Hotel";"5Q4W+XFV, Pencado, Kec. Taliabu Sel., Kabupaten Kepulauan Sula, Maluku Utara";"Kabupaten Kepulauan Sula, Maluku Utara";"MALUKU UTARA";"";"Indonesia";" 085395328481";"-1.8425161";"124.7961722";"https://maps.google.com/?cid=0x0:0xfc63c547dcb5141"
"hotel";"hotel";"Sweet Home";"63RX+5C7, Tubang, Kec. Taliabu Tim., Kabupaten Kepulauan Sula, Maluku Utara";"Kabupaten Kepulauan Sula, Maluku Utara";"MALUKU UTARA";"";"Indonesia";"";"-1.7595752";"125.0985368";"https://maps.google.com/?cid=0x0:0xef9a48b711333123"
"hotel";"hotel";"Kartika Buli Resort";"V7FF+PVH, Wayafli, Kec. Maba, Kabupaten Halmahera Timur, Maluku Utara";"Kabupaten Halmahera Timur, Maluku Utara";"MALUKU UTARA";"";"Indonesia";" 081223363636";"0.8743162";"128.2747495";"https://maps.google.com/?cid=0x0:0x1500f0be2a96753c"
"hotel";"hotel";"Puncak Buli";"V7F9+3CV, Unnamed Road, Wayafli, Kec. Maba, Kabupaten Halmahera Timur, Maluku Utara";"Kabupaten Halmahera Timur, Maluku Utara";"MALUKU UTARA";"";"Indonesia";"";"0.872734";"128.2685314";"https://maps.google.com/?cid=0x0:0xf36608897408b724"
"hotel";"hotel";"The SALT Guest House";"Jl. Trans Halmahera, Geltoli, Kec. Maba, Kabupaten Halmahera Timur, Maluku Utara 97862";"Geltoli, Kec. Maba, Kabupaten Halmahera Timur";"MALUKU UTARA";"97862";"Indonesia";" 081399332022";"0.8941716";"128.2947661";"https://maps.google.com/?cid=0x0:0x255947e72b8cabc9"
"hotel";"hotel";"Jati Hotel";"Jl. Jati Besar, Jati, Kec. Ternate Sel., Kota Ternate, Maluku Utara";"Kota Ternate, Maluku Utara";"MALUKU UTARA";"";"Indonesia";" 082317749090";"0.7741052";"127.3746306";"https://maps.google.com/?cid=0x0:0x677ab57329945678"
"hotel";"hotel";"Gn. Gamalama";"Hutan Lindung, Kec. Hutan Lindung, Kota Ternate, Maluku Utara";"Kota Ternate, Maluku Utara";"MALUKU UTARA";"";"Indonesia";"";"0.8091666";"127.3333333";"https://maps.google.com/?cid=0x0:0x1f13cae0fc042e8"
"hotel";"hotel";"Losmen Kita";"Q9PM+6MG, Stadion, Kec. Ternate Tengah, Kota Ternate, Maluku Utara";"Kota Ternate, Maluku Utara";"MALUKU UTARA";"";"Indonesia";" 09213121950";"0.7855738";"127.3841899";"https://maps.google.com/?cid=0x0:0xa842a26e6c03f7c"
"hotel";"hotel";"Saloi inn";"3FXQ+VR2, Tedeng, Kec. Jailolo, Kabupaten Halmahera Barat, Maluku Utara";"Kabupaten Halmahera Barat, Maluku Utara";"MALUKU UTARA";"";"Indonesia";" 08111020812";"1.0996348";"127.4895301";"https://maps.google.com/?cid=0x0:0x1139fc5cb3804c4"
"hotel";"Hotel Resor";"Tanjung Rappa Pelangi";"3C2V+3JH, Bobanehena, Kec. Jailolo, Kabupaten Halmahera Barat, Maluku Utara";"Kabupaten Halmahera Barat, Maluku Utara";"MALUKU UTARA";"";"Indonesia";"";"1.0501947";"127.4441042";"https://maps.google.com/?cid=0x0:0xf03624d261c81e4"
"hotel";"hotel";"Muara Inn Ternate";"Jl. Seruni, Kp. Pisang, Kec. Ternate Tengah, Kota Ternate, Maluku Utara 97712";"Kp. Pisang, Kec. Ternate Tengah, Kota Ternate";"MALUKU UTARA";"97712";"Indonesia";" 09216205200";"0.7834742";"127.3826265";"https://maps.google.com/?cid=0x0:0x126e3446c8f963cb"
"hotel";"hotel";"D'Wantys Hotel";"Q9HG+WHC RW.Jerbus Kel, Tanah Tinggi Bar., Kec. Ternate Sel., Kota Ternate, Maluku Utara";"Kota Ternate, Maluku Utara";"MALUKU UTARA";"";"Indonesia";" 09216203046";"0.7798217";"127.3763933";"https://maps.google.com/?cid=0x0:0xbcfba8a376993043"
"hotel";"hotel";"N/A";"";"";"MALUKU UTARA";"";"Indonesia";"";"";"";"https://maps.google.com/?cid=0x0:0x126e3446c8f963cb%7C/g/11fhrgz5r3%7Cid-ID"
"hotel";"Pondok";"Penginapan Ni'mat Mulia";"393M+R36, Jln Kapten Naiman, Bobong, Taliabu Barat, Taliabu Island Regency, North Maluku";"Pulau Taliabu, Maluku Utara";"MALUKU UTARA";"";"Indonesia";"";"-1.9454504";"124.3826295";"https://maps.google.com/?cid=0x0:0x345362eaeb3c9c53"
"hotel";"Hotel";"Penginapan SELTA";"Fangahu, Pulau Taliabu, Maluku Utara 97794";"Pulau Taliabu";"MALUKU UTARA";"97794";"Indonesia";" 082133372305";"-1.9401422";"124.3782349";"https://maps.google.com/?cid=0x0:0x1133f7c990b6fe0"
"hotel";"hotel";"Kec. Taliabu Sel.";"Pulau Taliabu, Maluku Utara";"Pulau Taliabu, Maluku Utara";"MALUKU UTARA";"";"Indonesia";"";"-1.9087227";"124.7883682";"https://maps.google.com/?cid=0x0:0x47ce8e0cf4083a24"
"hotel";"hotel";"DESA SUMBONG KEC. TAL SEL KAB PULAU TALIABU PROVINSI MALUT";"4P39+PQ7, Sumbong, Kec. Taliabu Sel., Kabupaten Kepulauan Sula, Maluku Utara";"Kabupaten Kepulauan Sula, Maluku Utara";"MALUKU UTARA";"";"Indonesia";"";"-1.8957069";"124.719415";"https://maps.google.com/?cid=0x0:0x70ea5c0c9b91bd8d"
"hotel";"Hotel";"Andini mutmainnah Hotel";"5Q4W+XFV, Pencado, Kec. Taliabu Sel., Kabupaten Kepulauan Sula, Maluku Utara";"Kabupaten Kepulauan Sula, Maluku Utara";"MALUKU UTARA";"";"Indonesia";" 085395328481";"-1.8425161";"124.7961722";"https://maps.google.com/?cid=0x0:0xfc63c547dcb5141"
"hotel";"Rumah Berhantu";"Aril pe rumah jang sontong woe";"4P39+2V2, Jl. Siswa, Sumbong, Kec. Taliabu Sel., Pulau Taliabu, Maluku Utara";"Pulau Taliabu, Maluku Utara";"MALUKU UTARA";"";"Indonesia";"";"-1.8966904";"124.7190516";"https://maps.google.com/?cid=0x0:0x18bd983767eb8105"
"restaurant";"restaurant";"Kec. Taliabu Bar.";"Pulau Taliabu, Maluku Utara";"Pulau Taliabu, Maluku Utara";"MALUKU UTARA";"";"Indonesia";"";"-1.9453067";"124.3829336";"https://maps.google.com/?cid=0x0:0x9b18127cb6600f97"
"restaurant";"Rumah Makan";"Caffe  Resto Fujiyama";"Maranti Jaya, Kec. Taliabu Bar., Pulau Taliabu, Maluku Utara 97794";"Kec. Taliabu Bar., Pulau Taliabu";"MALUKU UTARA";"97794";"Indonesia";" 085242399567";"-1.9048209";"124.3425955";"https://maps.google.com/?cid=0x0:0x68331f8a91d179c7"
"restaurant";"Rumah Makan";"Sangreyla cafe and resto";"395M+PC2, Unnamed Road, Bobong, Kec. Taliabu Bar., Pulau Taliabu, Maluku Utara";"Pulau Taliabu, Maluku Utara";"MALUKU UTARA";"";"Indonesia";"";"-1.9407443";"124.3835167";"https://maps.google.com/?cid=0x0:0xd1c45bde6b958ad5"
"restaurant";"restaurant";"Resto Archipelago";"394J+QMX, Bobong, Kec. Taliabu Bar., Pulau Taliabu, Maluku Utara";"Pulau Taliabu, Maluku Utara";"MALUKU UTARA";"";"Indonesia";" 081241951500";"-1.943269";"124.3818946";"https://maps.google.com/?cid=0x0:0x69f911e59fa130f5"
"restaurant";"Rumah Makan";"Rumah makan jawa timur";"Rt001rw001, Bobong, Kec. Taliabu Bar., Pulau Taliabu, Maluku Utara 97794";"Bobong, Kec. Taliabu Bar., Pulau Taliabu";"MALUKU UTARA";"97794";"Indonesia";" 081354773959";"-1.9407738";"124.3805758";"https://maps.google.com/?cid=0x0:0x2587ad6d345c521c"
"restaurant";"Rumah Makan";"Gorengan Faizan";"395J+4JH, Bobong, Kec. Taliabu Bar., Pulau Taliabu, Maluku Utara";"Pulau Taliabu, Maluku Utara";"MALUKU UTARA";"";"Indonesia";" 081354944114";"-1.9421984";"124.3816168";"https://maps.google.com/?cid=0x0:0x5aa954913c4596e1"
"restaurant";"Ikan Bakar";"RM. Ikan Bakar Wakatobi";"Jl. Pelabuhan Bobong, wayo, Kab. Pulau Taliabu, Prov, Maluku Utara 97794";"wayo, Kab. Pulau Taliabu, Prov";"MALUKU UTARA";"97794";"Indonesia";" 082299090141";"-1.9509277";"124.3832893";"https://maps.google.com/?cid=0x0:0xa01a10ef25e0475"
"restaurant";"Komplek perumahan";"RM Rendy";"6955+JF, Beringin Jaya, Kec. Taliabu Bar. Laut, Pulau Taliabu, Maluku Utara";"Pulau Taliabu, Maluku Utara";"MALUKU UTARA";"";"Indonesia";"";"-1.790989";"124.3586485";"https://maps.google.com/?cid=0x0:0xcf3a74155719f2e5"
"restaurant";"Kedai Kopi";"Titik Temu";"Wayo, Kec. Taliabu Bar., Kabupaten Kepulauan Sula, Maluku Utara";"Kabupaten Kepulauan Sula, Maluku Utara";"MALUKU UTARA";"";"Indonesia";" 085333332703";"-1.9608765";"124.3900951";"https://maps.google.com/?cid=0x0:0xd2f29363425313df"
"restaurant";"Dapur Umum";"Rm. Mutiara";"29XQ+98X, Wayo, Kec. Taliabu Bar., Kabupaten Kepulauan Sula, Maluku Utara";"Kabupaten Kepulauan Sula, Maluku Utara";"MALUKU UTARA";"";"Indonesia";" 082188621958";"-1.9515164";"124.3883446";"https://maps.google.com/?cid=0x0:0x35f007c9e48fb714"
"restaurant";"Indonesia";"Bubur Ayam Pasundan";"Jln Kapten Naiman No.11, Bobong, Taliabu Barat, Taliabu Island Regency, North Maluku";"Pulau Taliabu, Maluku Utara";"MALUKU UTARA";"";"Indonesia";"";"-1.9440849";"124.3825443";"https://maps.google.com/?cid=0x0:0x86df21cb46d2dd51"
"restaurant";"Asosiasi/organisasi";"Pondok Ijo";"392M+QM, Bobong, Kec. Taliabu Bar., Pulau Taliabu, Maluku Utara";"Pulau Taliabu, Maluku Utara";"MALUKU UTARA";"";"Indonesia";"";"-1.9480158";"124.384216";"https://maps.google.com/?cid=0x0:0x775bfcbfc9ac2d04"
"restaurant";"Taman";"Archipelago Keramat Taliabu";"482R+3JG, Karamat, Kec. Taliabu Bar., Kabupaten Kepulauan Sula, Maluku Utara";"Kabupaten Kepulauan Sula, Maluku Utara";"MALUKU UTARA";"";"Indonesia";" 081241951500";"-1.8998914";"124.341537";"https://maps.google.com/?cid=0x0:0x43631f9bab652e75"
"restaurant";"Organisasi Nonprofit";"Sekretariat Sehu Trabas Taliabu";"396J+5V, Bobong, Kec. Taliabu Bar., Pulau Taliabu, Maluku Utara";"Pulau Taliabu, Maluku Utara";"MALUKU UTARA";"";"Indonesia";"";"-1.9394674";"124.3828417";"https://maps.google.com/?cid=0x0:0x6edcaebd004a8ea3"
"restaurant";"restaurant";"Kec. Taliabu Bar. Laut";"Pulau Taliabu, Maluku Utara";"Pulau Taliabu, Maluku Utara";"MALUKU UTARA";"";"Indonesia";"";"-1.7679971";"124.3713715";"https://maps.google.com/?cid=0x0:0x8f7fd7f1ec130894"
"restaurant";"Rumah Makan";"Caffe  Resto Fujiyama";"Maranti Jaya, Kec. Taliabu Bar., Pulau Taliabu, Maluku Utara 97794";"Kec. Taliabu Bar., Pulau Taliabu";"MALUKU UTARA";"97794";"Indonesia";" 085242399567";"-1.9048209";"124.3425955";"https://maps.google.com/?cid=0x0:0x68331f8a91d179c7"
"restaurant";"Komplek perumahan";"RM Rendy";"6955+JF, Beringin Jaya, Kec. Taliabu Bar. Laut, Pulau Taliabu, Maluku Utara";"Pulau Taliabu, Maluku Utara";"MALUKU UTARA";"";"Indonesia";"";"-1.790989";"124.3586485";"https://maps.google.com/?cid=0x0:0xcf3a74155719f2e5"
"restaurant";"restaurant";"Resto Archipelago";"394J+QMX, Bobong, Kec. Taliabu Bar., Pulau Taliabu, Maluku Utara";"Pulau Taliabu, Maluku Utara";"MALUKU UTARA";"";"Indonesia";" 081241951500";"-1.943269";"124.3818946";"https://maps.google.com/?cid=0x0:0x69f911e59fa130f5"
"restaurant";"Rumah Makan";"Sangreyla cafe and resto";"395M+PC2, Unnamed Road, Bobong, Kec. Taliabu Bar., Pulau Taliabu, Maluku Utara";"Pulau Taliabu, Maluku Utara";"MALUKU UTARA";"";"Indonesia";"";"-1.9407443";"124.3835167";"https://maps.google.com/?cid=0x0:0xd1c45bde6b958ad5"
"restaurant";"Rumah Makan";"Rumah makan jawa timur";"Rt001rw001, Bobong, Kec. Taliabu Bar., Pulau Taliabu, Maluku Utara 97794";"Bobong, Kec. Taliabu Bar., Pulau Taliabu";"MALUKU UTARA";"97794";"Indonesia";" 081354773959";"-1.9407738";"124.3805758";"https://maps.google.com/?cid=0x0:0x2587ad6d345c521c"
"restaurant";"Taman";"Archipelago Keramat Taliabu";"482R+3JG, Karamat, Kec. Taliabu Bar., Kabupaten Kepulauan Sula, Maluku Utara";"Kabupaten Kepulauan Sula, Maluku Utara";"MALUKU UTARA";"";"Indonesia";" 081241951500";"-1.8998914";"124.341537";"https://maps.google.com/?cid=0x0:0x43631f9bab652e75"
"restaurant";"Ikan Bakar";"RM. Ikan Bakar Wakatobi";"Jl. Pelabuhan Bobong, wayo, Kab. Pulau Taliabu, Prov, Maluku Utara 97794";"wayo, Kab. Pulau Taliabu, Prov";"MALUKU UTARA";"97794";"Indonesia";" 082299090141";"-1.9509277";"124.3832893";"https://maps.google.com/?cid=0x0:0xa01a10ef25e0475"
"restaurant";"Dapur Umum";"Rm. Mutiara";"29XQ+98X, Wayo, Kec. Taliabu Bar., Kabupaten Kepulauan Sula, Maluku Utara";"Kabupaten Kepulauan Sula, Maluku Utara";"MALUKU UTARA";"";"Indonesia";" 082188621958";"-1.9515164";"124.3883446";"https://maps.google.com/?cid=0x0:0x35f007c9e48fb714"
"restaurant";"Rumah Makan";"Gorengan Faizan";"395J+4JH, Bobong, Kec. Taliabu Bar., Pulau Taliabu, Maluku Utara";"Pulau Taliabu, Maluku Utara";"MALUKU UTARA";"";"Indonesia";" 081354944114";"-1.9421984";"124.3816168";"https://maps.google.com/?cid=0x0:0x5aa954913c4596e1"
"restaurant";"Kedai Kopi";"Titik Temu";"Wayo, Kec. Taliabu Bar., Kabupaten Kepulauan Sula, Maluku Utara";"Kabupaten Kepulauan Sula, Maluku Utara";"MALUKU UTARA";"";"Indonesia";" 085333332703";"-1.9608765";"124.3900951";"https://maps.google.com/?cid=0x0:0xd2f29363425313df"
"restaurant";"Kedai Kopi";"KEDAI "BUNG" COFFIE";"69M9+CHF, Jl. Lain, Nggele, Kec. Taliabu Bar. Laut, Pulau Taliabu, Maluku Utara";"Pulau Taliabu, Maluku Utara";"MALUKU UTARA";"";"Indonesia";"";"-1.7664288";"124.3689097";"https://maps.google.com/?cid=0x0:0x3287dd9192964676"
"restaurant";"Rumah Makan";"RUMAH MAKAN IKAN BAKAR";"395J+PFC, Bobong, Kec. Taliabu Bar., Kabupaten Kepulauan Sula, Maluku Utara";"Kabupaten Kepulauan Sula, Maluku Utara";"MALUKU UTARA";"";"Indonesia";"";"-1.9406764";"124.3811553";"https://maps.google.com/?cid=0x0:0xfce665cca59d85ba"
"restaurant";"Indonesia";"Bubur Ayam Pasundan";"Jln Kapten Naiman No.11, Bobong, Taliabu Barat, Taliabu Island Regency, North Maluku";"Pulau Taliabu, Maluku Utara";"MALUKU UTARA";"";"Indonesia";"";"-1.9440849";"124.3825443";"https://maps.google.com/?cid=0x0:0x86df21cb46d2dd51"
"restaurant";"restaurant";"Kec. Lede";"Pulau Taliabu, Maluku Utara";"Pulau Taliabu, Maluku Utara";"MALUKU UTARA";"";"Indonesia";"";"-1.6967225";"124.3724122";"https://maps.google.com/?cid=0x0:0x51b823c7ef07a4ff"
"restaurant";"Rumah Makan";"Cafe Resto Hei Hei";"69WX+C32, Nggele, Kec. Taliabu Bar. Laut, Kepulauan Sula, Maluku Utara";"Kepulauan Sula, Maluku Utara";"MALUKU UTARA";"";"Indonesia";"";"-1.7539905";"124.3976356";"https://maps.google.com/?cid=0x0:0x86326e247c87cb6b"
"restaurant";"Prasmanan";"RM. Cinta";"8GMF+VWV, Tikong, Kec. Taliabu Utara, Pulau Taliabu, Maluku Utara";"Pulau Taliabu, Maluku Utara";"MALUKU UTARA";"";"Indonesia";"";"-1.6648931";"124.5244832";"https://maps.google.com/?cid=0x0:0xf552eb23846032ab"
"restaurant";"Kedai Kopi";"Nahang Coffee Lede";"Haliba Beach, Lede, Kec. Lede, Pulau Taliabu, Maluku Utara";"Pulau Taliabu, Maluku Utara";"MALUKU UTARA";"";"Indonesia";" 081340858525";"-1.6948848";"124.3673905";"https://maps.google.com/?cid=0x0:0x9e34da8f8d3869f5"
"restaurant";"Indonesia";"Rumah makan";"8GMF+VWV, Tikong, Kec. Taliabu Utara, Pulau Taliabu, Maluku Utara";"Pulau Taliabu, Maluku Utara";"MALUKU UTARA";"";"Indonesia";"";"-1.6654394";"124.5246867";"https://maps.google.com/?cid=0x0:0x164a4c6b09408feb"
"restaurant";"Komplek perumahan";"RM Rendy";"6955+JF, Beringin Jaya, Kec. Taliabu Bar. Laut, Pulau Taliabu, Maluku Utara";"Pulau Taliabu, Maluku Utara";"MALUKU UTARA";"";"Indonesia";"";"-1.790989";"124.3586485";"https://maps.google.com/?cid=0x0:0xcf3a74155719f2e5"
"restaurant";"Bangunan Bersejarah";"Desai";"8FM9+34, Todoli, Kec. Lede, Pulau Taliabu, Maluku Utara";"Pulau Taliabu, Maluku Utara";"MALUKU UTARA";"";"Indonesia";"";"-1.6673222";"124.4677426";"https://maps.google.com/?cid=0x0:0x469736eb48c8d40d"
"restaurant";"Toko bahan makanan";"Renjana cofe";"8949+54, Lede, Kec. Lede, Kabupaten Kepulauan Sula, Maluku Utara";"Kabupaten Kepulauan Sula, Maluku Utara";"MALUKU UTARA";"";"Indonesia";"";"-1.6945286";"124.367836";"https://maps.google.com/?cid=0x0:0xf25f7b0b4d01b65"
"restaurant";"Kedai Kopi";"Warkop Tolong 899";"Tolong, Kec. Lede, Kabupaten Kepulauan Sula, Maluku Utara";"Kabupaten Kepulauan Sula, Maluku Utara";"MALUKU UTARA";"";"Indonesia";" 082285773911";"-1.6672993";"124.4379607";"https://maps.google.com/?cid=0x0:0x5bb4baf8f3a84826"
"restaurant";"Taman";"Archipelago Keramat Taliabu";"482R+3JG, Karamat, Kec. Taliabu Bar., Kabupaten Kepulauan Sula, Maluku Utara";"Kabupaten Kepulauan Sula, Maluku Utara";"MALUKU UTARA";"";"Indonesia";" 081241951500";"-1.8998914";"124.341537";"https://maps.google.com/?cid=0x0:0x43631f9bab652e75"
"restaurant";"Indonesia";"RM.Laras";"8GJF+XF2, Tikong, Kec. Taliabu Utara, Pulau Taliabu, Maluku Utara";"Pulau Taliabu, Maluku Utara";"MALUKU UTARA";"";"Indonesia";"";"-1.6686359";"124.5232819";"https://maps.google.com/?cid=0x0:0x24df7547b88f82e0"
"restaurant";"restaurant";"Nasi goreng Abang Aling";"892F+WJ, Langganu, Kec. Lede, Kabupaten Kepulauan Sula, Maluku Utara";"Kabupaten Kepulauan Sula, Maluku Utara";"MALUKU UTARA";"";"Indonesia";" 082189802876";"-1.6976551";"124.3740899";"https://maps.google.com/?cid=0x0:0x985b3b09affcc297"
"restaurant";"restaurant";"Kedai Hijau  putih";"8938+3JM, Lede, Kec. Lede, Pulau Taliabu, Maluku Utara";"Pulau Taliabu, Maluku Utara";"MALUKU UTARA";"";"Indonesia";"";"-1.697292";"124.3665399";"https://maps.google.com/?cid=0x0:0x58fb463a1b66d96"
"restaurant";"restaurant";"Rumah Makan Singgah Dolo";"893F+3PW, Langganu, Kec. Lede, Pulau Taliabu, Maluku Utara";"Pulau Taliabu, Maluku Utara";"MALUKU UTARA";"";"Indonesia";"";"-1.6972591";"124.3743311";"https://maps.google.com/?cid=0x0:0x21323eaf4658fea5"
"restaurant";"Prasmanan";"RM. Cinta";"8GMF+VWV, Tikong, Kec. Taliabu Utara, Pulau Taliabu, Maluku Utara";"Pulau Taliabu, Maluku Utara";"MALUKU UTARA";"";"Indonesia";"";"-1.6648931";"124.5244832";"https://maps.google.com/?cid=0x0:0xf552eb23846032ab"
"restaurant";"restaurant";"Kec. Taliabu Utara";"Pulau Taliabu, Maluku Utara";"Pulau Taliabu, Maluku Utara";"MALUKU UTARA";"";"Indonesia";"";"-1.6577743";"124.7098315";"https://maps.google.com/?cid=0x0:0x2f87ca321b31898"
"restaurant";"Komplek perumahan";"RM Rendy";"6955+JF, Beringin Jaya, Kec. Taliabu Bar. Laut, Pulau Taliabu, Maluku Utara";"Pulau Taliabu, Maluku Utara";"MALUKU UTARA";"";"Indonesia";"";"-1.790989";"124.3586485";"https://maps.google.com/?cid=0x0:0xcf3a74155719f2e5"
"restaurant";"Indonesia";"RM.Laras";"8GJF+XF2, Tikong, Kec. Taliabu Utara, Pulau Taliabu, Maluku Utara";"Pulau Taliabu, Maluku Utara";"MALUKU UTARA";"";"Indonesia";"";"-1.6686359";"124.5232819";"https://maps.google.com/?cid=0x0:0x24df7547b88f82e0"
"restaurant";"Rumah Makan";"Warung makan mama fikri";"Gela, Kec. Taliabu Utara, Pulau Taliabu, Maluku Utara, 97794";"Kec. Taliabu Utara, Pulau Taliabu";"MALUKU UTARA";"97794";"Indonesia";" 085333392357";"-1.751857";"124.6911804";"https://maps.google.com/?cid=0x0:0xc97ea9781c0c95f6"
"restaurant";"Rumah Makan";"Caffe  Resto ( kios Selvi)";"38XR+WJW, Pelabuhan, Pulau, Kec. Taliabu Bar., Pulau Taliabu, Maluku Utara";"Pulau Taliabu, Maluku Utara";"MALUKU UTARA";"";"Indonesia";"";"-1.9001455";"124.3415631";"https://maps.google.com/?cid=0x0:0x691817a79a8766b8"
"restaurant";"Kios";"Kios Marwah";"8MWV+JGJ, Unnamed Road, Minton, Kec. Taliabu Utara, Pulau Taliabu, Maluku Utara";"Pulau Taliabu, Maluku Utara";"MALUKU UTARA";"";"Indonesia";" 081244134663";"-1.6534123";"124.6937608";"https://maps.google.com/?cid=0x0:0xf511809770face87"
"restaurant";"Rumah Makan";"Caffe  Resto Fujiyama";"Maranti Jaya, Kec. Taliabu Bar., Pulau Taliabu, Maluku Utara 97794";"Kec. Taliabu Bar., Pulau Taliabu";"MALUKU UTARA";"97794";"Indonesia";" 085242399567";"-1.9048209";"124.3425955";"https://maps.google.com/?cid=0x0:0x68331f8a91d179c7"
"restaurant";"Rumah Makan";"Sangreyla cafe and resto";"395M+PC2, Unnamed Road, Bobong, Kec. Taliabu Bar., Pulau Taliabu, Maluku Utara";"Pulau Taliabu, Maluku Utara";"MALUKU UTARA";"";"Indonesia";"";"-1.9407443";"124.3835167";"https://maps.google.com/?cid=0x0:0xd1c45bde6b958ad5"
"restaurant";"Rumah Makan";"Rumah makan jawa timur";"Rt001rw001, Bobong, Kec. Taliabu Bar., Pulau Taliabu, Maluku Utara 97794";"Bobong, Kec. Taliabu Bar., Pulau Taliabu";"MALUKU UTARA";"97794";"Indonesia";" 081354773959";"-1.9407738";"124.3805758";"https://maps.google.com/?cid=0x0:0x2587ad6d345c521c"
"restaurant";"Kedai Kopi";"Titik Temu";"Wayo, Kec. Taliabu Bar., Kabupaten Kepulauan Sula, Maluku Utara";"Kabupaten Kepulauan Sula, Maluku Utara";"MALUKU UTARA";"";"Indonesia";" 085333332703";"-1.9608765";"124.3900951";"https://maps.google.com/?cid=0x0:0xd2f29363425313df"
"restaurant";"restaurant";"Kec. Taliabu Tim.";"Pulau Taliabu, Maluku Utara";"Pulau Taliabu, Maluku Utara";"MALUKU UTARA";"";"Indonesia";"";"-1.7824897";"125.2932285";"https://maps.google.com/?cid=0x0:0x6fb215108475baa"
"restaurant";"Rumah Makan";"Caffe  Resto Fujiyama";"Maranti Jaya, Kec. Taliabu Bar., Pulau Taliabu, Maluku Utara 97794";"Kec. Taliabu Bar., Pulau Taliabu";"MALUKU UTARA";"97794";"Indonesia";" 085242399567";"-1.9048209";"124.3425955";"https://maps.google.com/?cid=0x0:0x68331f8a91d179c7"
"restaurant";"restaurant";"Wakancola Coffe Shop";"74X5+H77, Penu, Kec. Taliabu Tim., Kabupaten Kepulauan Sula, Maluku Utara";"Kabupaten Kepulauan Sula, Maluku Utara";"MALUKU UTARA";"";"Indonesia";"";"-1.7010766";"125.1081691";"https://maps.google.com/?cid=0x0:0xea789091b1210e42"
"restaurant";"Rumah Makan";"Sangreyla cafe and resto";"395M+PC2, Unnamed Road, Bobong, Kec. Taliabu Bar., Pulau Taliabu, Maluku Utara";"Pulau Taliabu, Maluku Utara";"MALUKU UTARA";"";"Indonesia";"";"-1.9407443";"124.3835167";"https://maps.google.com/?cid=0x0:0xd1c45bde6b958ad5"
"restaurant";"Rumah Makan";"Caffe  Resto ( kios Selvi)";"38XR+WJW, Pelabuhan, Pulau, Kec. Taliabu Bar., Pulau Taliabu, Maluku Utara";"Pulau Taliabu, Maluku Utara";"MALUKU UTARA";"";"Indonesia";"";"-1.9001455";"124.3415631";"https://maps.google.com/?cid=0x0:0x691817a79a8766b8"
"restaurant";"Rumah Makan";"Rumah makan jawa timur";"Rt001rw001, Bobong, Kec. Taliabu Bar., Pulau Taliabu, Maluku Utara 97794";"Bobong, Kec. Taliabu Bar., Pulau Taliabu";"MALUKU UTARA";"97794";"Indonesia";" 081354773959";"-1.9407738";"124.3805758";"https://maps.google.com/?cid=0x0:0x2587ad6d345c521c"
"restaurant";"Prasmanan";"RM. Cinta";"8GMF+VWV, Tikong, Kec. Taliabu Utara, Pulau Taliabu, Maluku Utara";"Pulau Taliabu, Maluku Utara";"MALUKU UTARA";"";"Indonesia";"";"-1.6648931";"124.5244832";"https://maps.google.com/?cid=0x0:0xf552eb23846032ab"
"restaurant";"Nasi";"Cafe Talia";"66R7+CGM, Siwalima, Kec. Pulau-Pulau Aru, Kabupaten Kepulauan Aru, Maluku";"Kabupaten Kepulauan Aru, Maluku";"MALUKU UTARA";"";"Indonesia";" 085244613461";"-5.7589118";"134.2138062";"https://maps.google.com/?cid=0x0:0xb7f72a6ad08271d1"
"restaurant";"Restoran";"Royal's Resto  Function Hall";"Q9QM+GMJ, Jalan Branjangan, Santiong, Ternate Tengah, Kalumpang, Kec. Ternate Tengah, Kota Ternate, Maluku Utara";"Kota Ternate, Maluku Utara";"MALUKU UTARA";"";"Indonesia";" 09213122333";"0.7888473";"127.3841502";"https://maps.google.com/?cid=0x0:0x2e13a20e470af244"
"restaurant";"restaurant";"Warung makan Mentari";"59R4+MP2, Dofa, Kec. Mangoli Bar., Kabupaten Kepulauan Sula, Maluku Utara";"Kabupaten Kepulauan Sula, Maluku Utara";"MALUKU UTARA";"";"Indonesia";"";"-1.8074844";"125.3570907";"https://maps.google.com/?cid=0x0:0x990291f12acff3b9"
"restaurant";"restaurant";"Keluarga Hi.La Isa";"757W+5PW, Parigi, Kec. Taliabu Tim., Kabupaten Kepulauan Sula, Maluku Utara";"Kabupaten Kepulauan Sula, Maluku Utara";"MALUKU UTARA";"";"Indonesia";"";"-1.7370211";"125.1968144";"https://maps.google.com/?cid=0x0:0x79b815a8c977bf"
"restaurant";"restaurant";"Kec. Taliabu Tim. Sel.";"Pulau Taliabu, Maluku Utara";"Pulau Taliabu, Maluku Utara";"MALUKU UTARA";"";"Indonesia";"";"-1.8889627";"125.0798626";"https://maps.google.com/?cid=0x0:0xa3c2952966278c15"
"restaurant";"Rumah Makan";"Sangreyla cafe and resto";"395M+PC2, Unnamed Road, Bobong, Kec. Taliabu Bar., Pulau Taliabu, Maluku Utara";"Pulau Taliabu, Maluku Utara";"MALUKU UTARA";"";"Indonesia";"";"-1.9407443";"124.3835167";"https://maps.google.com/?cid=0x0:0xd1c45bde6b958ad5"
"restaurant";"Rumah Makan";"Caffe  Resto ( kios Selvi)";"38XR+WJW, Pelabuhan, Pulau, Kec. Taliabu Bar., Pulau Taliabu, Maluku Utara";"Pulau Taliabu, Maluku Utara";"MALUKU UTARA";"";"Indonesia";"";"-1.9001455";"124.3415631";"https://maps.google.com/?cid=0x0:0x691817a79a8766b8"
"restaurant";"Nasi";"Cafe Talia";"66R7+CGM, Siwalima, Kec. Pulau-Pulau Aru, Kabupaten Kepulauan Aru, Maluku";"Kabupaten Kepulauan Aru, Maluku";"MALUKU UTARA";"";"Indonesia";" 085244613461";"-5.7589118";"134.2138062";"https://maps.google.com/?cid=0x0:0xb7f72a6ad08271d1"
"restaurant";"Tujuan Wisata";"Limau Jiko Eco Culture Resort";"Bobanehena, Kec. Jailolo, Kabupaten Halmahera Barat, Maluku Utara";"Kabupaten Halmahera Barat, Maluku Utara";"MALUKU UTARA";"";"Indonesia";" 082258085588";"1.051123";"127.446605";"https://maps.google.com/?cid=0x0:0xbe87d8ffd59d3fd5"
"restaurant";"Rumah Makan";"Warung makan mama fikri";"Gela, Kec. Taliabu Utara, Pulau Taliabu, Maluku Utara, 97794";"Kec. Taliabu Utara, Pulau Taliabu";"MALUKU UTARA";"97794";"Indonesia";" 085333392357";"-1.751857";"124.6911804";"https://maps.google.com/?cid=0x0:0xc97ea9781c0c95f6"
"restaurant";"Kios";"Kios Ibu. Wabani";"32R8+3H5, Losseng, Kec. Taliabu Tim. Sel., Pulau Taliabu, Maluku Utara";"Pulau Taliabu, Maluku Utara";"MALUKU UTARA";"";"Indonesia";"";"-1.9098627";"125.0164903";"https://maps.google.com/?cid=0x0:0x4427828be9e5f5ae"
"restaurant";"Komplek perumahan";"Rumah marens";"3WFW+G6V, Sofan, Kec. Taliabu Tim. Sel., Pulau Taliabu, Maluku Utara";"Pulau Taliabu, Maluku Utara";"MALUKU UTARA";"";"Indonesia";"";"-1.9261375";"124.9455469";"https://maps.google.com/?cid=0x0:0xda52449f3905bb3c"
"restaurant";"restaurant";"Kedai Zakir";"Perbatasan Desa Pencado Dan Maluli, Pencado, Kec. Taliabu Sel., Pulau Taliabu, Maluku Utara";"Pulau Taliabu, Maluku Utara";"MALUKU UTARA";"";"Indonesia";"";"-1.9090103";"124.7878112";"https://maps.google.com/?cid=0x0:0x5b37c45f041a9cf6"
"restaurant";"Rumah Makan";"Caffe  Resto Fujiyama";"Maranti Jaya, Kec. Taliabu Bar., Pulau Taliabu, Maluku Utara 97794";"Kec. Taliabu Bar., Pulau Taliabu";"MALUKU UTARA";"97794";"Indonesia";" 085242399567";"-1.9048209";"124.3425955";"https://maps.google.com/?cid=0x0:0x68331f8a91d179c7"
"restaurant";"Rumah Makan";"Warung makan mama fikri";"Gela, Kec. Taliabu Utara, Pulau Taliabu, Maluku Utara, 97794";"Kec. Taliabu Utara, Pulau Taliabu";"MALUKU UTARA";"97794";"Indonesia";" 085333392357";"-1.751857";"124.6911804";"https://maps.google.com/?cid=0x0:0xc97ea9781c0c95f6"
"restaurant";"restaurant";"Kec. Taliabu Sel.";"Pulau Taliabu, Maluku Utara";"Pulau Taliabu, Maluku Utara";"MALUKU UTARA";"";"Indonesia";"";"-1.9087227";"124.7883682";"https://maps.google.com/?cid=0x0:0x47ce8e0cf4083a24"
"restaurant";"Nasi";"Cafe Talia";"66R7+CGM, Siwalima, Kec. Pulau-Pulau Aru, Kabupaten Kepulauan Aru, Maluku";"Kabupaten Kepulauan Aru, Maluku";"MALUKU UTARA";"";"Indonesia";" 085244613461";"-5.7589118";"134.2138062";"https://maps.google.com/?cid=0x0:0xb7f72a6ad08271d1"
"restaurant";"Rumah Makan";"Caffe  Resto ( kios Selvi)";"38XR+WJW, Pelabuhan, Pulau, Kec. Taliabu Bar., Pulau Taliabu, Maluku Utara";"Pulau Taliabu, Maluku Utara";"MALUKU UTARA";"";"Indonesia";"";"-1.9001455";"124.3415631";"https://maps.google.com/?cid=0x0:0x691817a79a8766b8"
"restaurant";"restaurant";"Kedai Zakir";"Perbatasan Desa Pencado Dan Maluli, Pencado, Kec. Taliabu Sel., Pulau Taliabu, Maluku Utara";"Pulau Taliabu, Maluku Utara";"MALUKU UTARA";"";"Indonesia";"";"-1.9090103";"124.7878112";"https://maps.google.com/?cid=0x0:0x5b37c45f041a9cf6"
"restaurant";"restaurant";"Endo pratama";"3QRQ+6GF, Pencado, Kec. Taliabu Sel., Pulau Taliabu, Maluku Utara";"Pulau Taliabu, Maluku Utara";"MALUKU UTARA";"";"Indonesia";"";"-1.9094349";"124.7888102";"https://maps.google.com/?cid=0x0:0xd81f71b4d8f2fd2a"
"restaurant";"Komplek perumahan";"Rumah marens";"3WFW+G6V, Sofan, Kec. Taliabu Tim. Sel., Pulau Taliabu, Maluku Utara";"Pulau Taliabu, Maluku Utara";"MALUKU UTARA";"";"Indonesia";"";"-1.9261375";"124.9455469";"https://maps.google.com/?cid=0x0:0xda52449f3905bb3c"
