Category;Real Category;Business Name;Address;City;State;Postal Code;Country;Phone;Latitude;Longitude;Map Link
"mall";"Pusat Perbelanjaan";"Kede Teuku Lah Kiro";"VPP6+X4R, Seuneubok Kandang, Kec. Banda Alam, Kabupaten Aceh Timur, Aceh 24455";"Seuneubok Kandang, Kec. Banda Alam, Kabupaten Aceh Timur";"ACEH";"24455";"Indonesia";"";"4.8874973";"97.710257";"https://maps.google.com/?cid=0x0:0xab2c1e8e734e61c6"
"mall";"Masjid";"Seneubok Benteng";"VMMW+7GR, Unnamed Road, Seuneubok Benteng, Kec. Banda Alam, Kabupaten Aceh Timur, Aceh 24458";"Unnamed Road, Seuneubok Benteng, Kec. Banda Alam, Kabupaten Aceh Timur";"ACEH";"24458";"Indonesia";"";"4.8832375";"97.6962656";"https://maps.google.com/?cid=0x0:0xaa95ab4c202c8328"
"mall";"mall";"Kec. Banda Alam";"Kabupaten Aceh Timur, Aceh";"Kabupaten Aceh Timur, Aceh";"ACEH";"";"Indonesia";"";"4.903042";"97.6987748";"https://maps.google.com/?cid=0x0:0xbbf5a401b81b9e34"
"mall";"Toko Swalayan";"Suzuya Mall Banda Aceh";"Jl. Teuku Umar, Lamtemen Tim., Kec. Jaya Baru, Kota Banda Aceh, Aceh 23232";"Lamtemen Tim., Kec. Jaya Baru, Kota Banda Aceh";"ACEH";"23232";"Indonesia";" 06518011022";"5.5377324";"95.3068005";"https://maps.google.com/?cid=0x0:0xc5c56efc74442dea"
"mall";"Kedai Kopi";"Warkop-nora-annis";"Seuneubok Simpang, Kec. Darul Aman, Kabupaten Aceh Timur, Aceh 24455";"Kec. Darul Aman, Kabupaten Aceh Timur";"ACEH";"24455";"Indonesia";" 082249158395";"4.924713";"97.6800727";"https://maps.google.com/?cid=0x0:0x533186f1dc7b9dcb"
"mall";"Kantor Pemerintah";"Kantor Camat Banda Alam";"WM3X+3V4, Panton Rayeuk M, Kec. Banda Alam, Kabupaten Aceh Timur, Aceh 24454";"Panton Rayeuk M, Kec. Banda Alam, Kabupaten Aceh Timur";"ACEH";"24454";"Indonesia";"";"4.9026279";"97.6996993";"https://maps.google.com/?cid=0x0:0x2a3832295e195e20"
"mall";"mall";"Aceh 24452";"Kabupaten Aceh Timur, Aceh";"Kabupaten Aceh Timur, Aceh";"ACEH";"";"Indonesia";"";"4.6428925";"97.8286368";"https://maps.google.com/?cid=0x0:0xab6d8837867af58f"
"mall";"Pasar";"Kacang Tumbuk "ABAH"";"Jl. Medan Banda Aceh, Aramiyah, Kec. Birem Bayeun, Kabupaten Aceh Timur, Aceh 24452";"Aramiyah, Kec. Birem Bayeun, Kabupaten Aceh Timur";"ACEH";"24452";"Indonesia";" 082273761922";"4.5617827";"97.9277349";"https://maps.google.com/?cid=0x0:0x68605c0f6cda67e6"
"mall";"Pusat Perbelanjaan";"VIKASHOP";"MV5M+48F, Seuneubok Aceh, Kec. Sungai Raya, Kabupaten Aceh Timur, Aceh 24452";"Seuneubok Aceh, Kec. Sungai Raya, Kabupaten Aceh Timur";"ACEH";"24452";"Indonesia";" 082274510459";"4.6578082";"97.8832823";"https://maps.google.com/?cid=0x0:0x764519f3eeeb21ab"
"mall";"Kantor Pemda";"Birem Bayeun";"HWG6+MJX, Bayeun, Kec. Birem Bayeun, Kabupaten Aceh Timur, Aceh 24452";"Bayeun, Kec. Birem Bayeun, Kabupaten Aceh Timur";"ACEH";"24452";"Indonesia";" 082388211672";"4.5767301";"97.9116083";"https://maps.google.com/?cid=0x0:0xf283d540be388646"
"mall";"Pusat Perbelanjaan";"Glosir m.zein";"MWM9+J28, Jl. Medan Banda Aceh, Geulumpang Payong, Kec. Sungai Raya, Kabupaten Aceh Timur, Aceh 24452";"Jl. Medan Banda Aceh, Geulumpang Payong, Kec. Sungai Raya, Kabupaten Aceh Timur";"ACEH";"24452";"Indonesia";" 085277005955";"4.6840295";"97.9175933";"https://maps.google.com/?cid=0x0:0x82ea9adbb8fa0d7a"
"mall";"Toko Elektronik";"Mahligai ponsel";"PW54+H46, Alue Bu/Alue Lhok, Kec. Peureulak Tim., Kabupaten Aceh Timur, Aceh 24452";"Alue Bu/Alue Lhok, Kec. Peureulak Tim., Kabupaten Aceh Timur";"ACEH";"24452";"Indonesia";" 082276187852";"4.7089126";"97.9052793";"https://maps.google.com/?cid=0x0:0xfa1f31bb09b848f4"
"mall";"Toko";"Pasar Alue Lhok";"PW44+4M6, Seuneubok Teungoh, Kec. Peureulak Tim., Kabupaten Aceh Timur, Aceh 24452";"Seuneubok Teungoh, Kec. Peureulak Tim., Kabupaten Aceh Timur";"ACEH";"24452";"Indonesia";"";"4.7052874";"97.9066338";"https://maps.google.com/?cid=0x0:0xa92ba57ea7f62508"
"mall";"Pusat Perbelanjaan";"Suzuya Mall Langsa";"FXR3+XP2, Jl. Ahmad Yani No.2, Paya Bujok Seuleumak, Kec. Langsa Baro, Kota Langsa, Aceh 24355";"Jl. Ahmad Yani No.2, Paya Bujok Seuleumak, Kec. Langsa Baro, Kota Langsa";"ACEH";"24355";"Indonesia";" 06414841677";"4.4924408";"97.9549988";"https://maps.google.com/?cid=0x0:0xd2472b52ce11e561"
"mall";"Minimarket";"UD Ikra dan Nazira";"PVPG+Q9C, Babah Krueng, Kec. Peureulak Tim., Kabupaten Aceh Timur, Aceh 24452";"Babah Krueng, Kec. Peureulak Tim., Kabupaten Aceh Timur";"ACEH";"24452";"Indonesia";" 085362968561";"4.7369379";"97.8758869";"https://maps.google.com/?cid=0x0:0xf4117a35466c3df1"
"mall";"Toko Ponsel";"Sayed Raya Ponsel";"MWF8+P5X, Jl. Medan Banda Aceh, Labuhan Keude, Kec. Sungai Raya, Kabupaten Aceh Timur, Aceh 24452";"Jl. Medan Banda Aceh, Labuhan Keude, Kec. Sungai Raya, Kabupaten Aceh Timur";"ACEH";"24452";"Indonesia";" 085207070590";"4.6743616";"97.9154767";"https://maps.google.com/?cid=0x0:0x1dc38a285cead23"
"mall";"Rumah Kayu";"Cupangbangyop";"GW5R+R92, Alue Dua, Kec. Langsa Baro, Kota Langsa, Aceh 24452";"Alue Dua, Kec. Langsa Baro, Kota Langsa";"ACEH";"24452";"Indonesia";"";"4.5095064";"97.9408911";"https://maps.google.com/?cid=0x0:0x6c301b4f7a93f1ee"
"mall";"";"Budi Bunga";"JWGM+WCH, dsn cot girek, Rantau Panjang, Kec. Rantau Selamat, Kabupaten Aceh Timur, Aceh 24452";"dsn cot girek, Rantau Panjang, Kec. Rantau Selamat, Kabupaten Aceh Timur";"ACEH";"24452";"Indonesia";" 081396510473";"4.6273165";"97.9335969";"https://maps.google.com/?cid=0x0:0xcb6d5977a83d799b"
"mall";"Toko";"UD. Agung DP";"Seuneubok Pidie, Kec. Peureulak, Kabupaten Aceh Timur, Aceh 24453";"Kec. Peureulak, Kabupaten Aceh Timur";"ACEH";"24453";"Indonesia";" 085273314877";"4.7494826";"97.8962347";"https://maps.google.com/?cid=0x0:0xcb07858d60a38ced"
"mall";"Pasar";"Keude Cik Yus";"FWWV+7VV, Paya Bujok Seuleumak, Kec. Langsa Baro, Kota Langsa, Aceh 24375";"Paya Bujok Seuleumak, Kec. Langsa Baro, Kota Langsa";"ACEH";"24375";"Indonesia";"";"4.4957423";"97.9446678";"https://maps.google.com/?cid=0x0:0x8c74bdf8a8725103"
"mall";"mall";"Kec. Darul Aman";"Kabupaten Aceh Timur, Aceh";"Kabupaten Aceh Timur, Aceh";"ACEH";"";"Indonesia";"";"4.9859334";"97.7204106";"https://maps.google.com/?cid=0x0:0x217e07dad240b2e4"
"mall";"Pusat Perbelanjaan";"Queen cell";"Kp. Keude, Kec. Darul Aman, Kabupaten Aceh Timur, Aceh 24455";"Kec. Darul Aman, Kabupaten Aceh Timur";"ACEH";"24455";"Indonesia";" 082299677021";"4.986774";"97.7186085";"https://maps.google.com/?cid=0x0:0x2780118bc599d46"
"mall";"Kedai Kopi";"Warkop-nora-annis";"Seuneubok Simpang, Kec. Darul Aman, Kabupaten Aceh Timur, Aceh 24455";"Kec. Darul Aman, Kabupaten Aceh Timur";"ACEH";"24455";"Indonesia";" 082249158395";"4.924713";"97.6800727";"https://maps.google.com/?cid=0x0:0x533186f1dc7b9dcb"
"mall";"Toko umum";"keude bgwan";"WMVX+9P7, Meunasah Keutapang, Kec. Darul Aman, Kabupaten Aceh Timur, Aceh";"Kabupaten Aceh Timur, Aceh";"ACEH";"";"Indonesia";"";"4.9441665";"97.699317";"https://maps.google.com/?cid=0x0:0xd7d6616f3876f57d"
"mall";"Toko Pakaian";"Kios Cek Kir Kapai Baro";"XMCM+PJ2, Kapai Baro, Kec. Darul Aman, Kabupaten Aceh Timur, Aceh 24461";"Kapai Baro, Kec. Darul Aman, Kabupaten Aceh Timur";"ACEH";"24461";"Indonesia";"";"4.9717629";"97.6840239";"https://maps.google.com/?cid=0x0:0x2690e08da6ad62f3"
"mall";"Toko Swalayan";"Suzuya Mall Banda Aceh";"Jl. Teuku Umar, Lamtemen Tim., Kec. Jaya Baru, Kota Banda Aceh, Aceh 23232";"Lamtemen Tim., Kec. Jaya Baru, Kota Banda Aceh";"ACEH";"23232";"Indonesia";" 06518011022";"5.5377324";"95.3068005";"https://maps.google.com/?cid=0x0:0xc5c56efc74442dea"
"mall";"Salon Kecantikan";"KLINIK KECANTIKAN CUT ERIKA AESTHETICA";"Jl. Medan Banda Aceh, Kp. Keude, Kec. Darul Aman, Kabupaten Aceh Timur, Aceh 24455";"Kp. Keude, Kec. Darul Aman, Kabupaten Aceh Timur";"ACEH";"24455";"Indonesia";" 085215503388";"4.9852697";"97.7201907";"https://maps.google.com/?cid=0x0:0xda770f12ff7b0abe"
"mall";"Kantor Pemerintah Distrik";"Kantor Camat Darul Aman";"XPW7+6CX, Seuneubok Aceh, Kec. Darul Aman, Kabupaten Aceh Timur, Aceh";"Kabupaten Aceh Timur, Aceh";"ACEH";"";"Indonesia";"";"4.9956169";"97.7135992";"https://maps.google.com/?cid=0x0:0xba511dd8ad00a052"
"mall";"Pusat Perbelanjaan";"ISABELLA kios";"XPQ7+JFC, Jl. Alue Ie Puteh - Blang Geulumpang, Matang Raya, Kec. Darul Aman, Kabupaten Aceh Timur, Aceh 24453";"Jl. Alue Ie Puteh - Blang Geulumpang, Matang Raya, Kec. Darul Aman, Kabupaten Aceh Timur";"ACEH";"24453";"Indonesia";" 081397806745";"4.9890706";"97.7136495";"https://maps.google.com/?cid=0x0:0x1627a038f286067"
"mall";"Toko Swalayan";"Jamal Pabrek Pade";"2JMQ+7WR, Meunasah Teungoh, Kec. Nurussalam, Kabupaten Aceh Timur, Aceh 24458";"Meunasah Teungoh, Kec. Nurussalam, Kabupaten Aceh Timur";"ACEH";"24458";"Indonesia";" 085296534991";"5.0332441";"97.6397537";"https://maps.google.com/?cid=0x0:0x61a765c50b08f2e8"
"mall";"mall";"Kec. Darul Falah";"Kabupaten Aceh Timur, Aceh";"Kabupaten Aceh Timur, Aceh";"ACEH";"";"Indonesia";"";"5.0158049";"97.6390314";"https://maps.google.com/?cid=0x0:0xd7c29e75868d7640"
"mall";"Kios";"Kios";"2JHQ+22H, Alue Siwah Dua, Kec. Darul Falah, Kabupaten Aceh Timur, Aceh 24458";"Alue Siwah Dua, Kec. Darul Falah, Kabupaten Aceh Timur";"ACEH";"24458";"Indonesia";"";"5.0275735";"97.6375985";"https://maps.google.com/?cid=0x0:0xd8abf3101a66772f"
"mall";"Pusat Perbelanjaan";"Plaza Aceh";"Jl. T. Hasan Dek Jl. Teuku Iskandar No.49, Beurawe, Kec. Kuta Alam, Kota Banda Aceh, Aceh 23127";"Beurawe, Kec. Kuta Alam, Kota Banda Aceh";"ACEH";"23127";"Indonesia";" 08116899890";"5.5547881";"95.3308683";"https://maps.google.com/?cid=0x0:0x45c9eb2ec9e62a76"
"mall";"Toko Swalayan";"Suzuya Mall Banda Aceh";"Jl. Teuku Umar, Lamtemen Tim., Kec. Jaya Baru, Kota Banda Aceh, Aceh 23232";"Lamtemen Tim., Kec. Jaya Baru, Kota Banda Aceh";"ACEH";"23232";"Indonesia";" 06518011022";"5.5377324";"95.3068005";"https://maps.google.com/?cid=0x0:0xc5c56efc74442dea"
"mall";"Pusat Perbelanjaan";"Toko Jasa2";"Keude Kuta Binjai, Kec. Julok, Kabupaten Aceh Timur, Aceh 24458";"Kec. Julok, Kabupaten Aceh Timur";"ACEH";"24458";"Indonesia";" 085260012531";"5.0423776";"97.6281323";"https://maps.google.com/?cid=0x0:0x8f601b834b44864d"
"mall";"Pusat Perbelanjaan";"jasa baru";"2JQG+376, Jl. Alue Ie Mirah, Ulee Ateung, Kec, indra makmu, Kabupaten Aceh Timur, Aceh 24458";"Jl. Alue Ie Mirah, Ulee Ateung, Kec, indra makmu, Kabupaten Aceh Timur";"ACEH";"24458";"Indonesia";" 085262045114";"5.0376547";"97.6256416";"https://maps.google.com/?cid=0x0:0x46416f0a5f29a7e5"
"mall";"mall";"Aceh 24454";"Kabupaten Aceh Timur, Aceh";"Kabupaten Aceh Timur, Aceh";"ACEH";"";"Indonesia";"";"4.8583305";"97.8395151";"https://maps.google.com/?cid=0x0:0xba07a5c21eeac635"
"mall";"mall";"TOKO ALFALAH";"XQ39+88Q, Kp. Jawa, Kec. Idi Rayeuk, Kabupaten Aceh Timur, Aceh";"Kabupaten Aceh Timur, Aceh";"ACEH";"";"Indonesia";"";"4.953349";"97.7683482";"https://maps.google.com/?cid=0x0:0xe8ddf4fdc91a31ff"
"mall";"Kantor Pemerintah";"Kantor Camat Darul Ihsan";"WQ72+MFH, Seuneubok Aceh Baro, Kec. Darul Ihsan, Kabupaten Aceh Timur, Aceh 24457";"Seuneubok Aceh Baro, Kec. Darul Ihsan, Kabupaten Aceh Timur";"ACEH";"24457";"Indonesia";"";"4.9142";"97.7512484";"https://maps.google.com/?cid=0x0:0xd655f76a047d0f19"
"mall";"mall";"Kec. Darul Ihsan";"Kabupaten Aceh Timur, Aceh";"Kabupaten Aceh Timur, Aceh";"ACEH";"";"Indonesia";"";"4.9121713";"97.7511187";"https://maps.google.com/?cid=0x0:0x4217d2780b69b031"
"mall";"Toko Daging";"SAHABAT TELUR";"WQWC+X4P, Jl. Keude Dua, Kuta Blang, Kec. Darul Ihsan, Kabupaten Aceh Timur, Aceh 24454";"Jl. Keude Dua, Kuta Blang, Kec. Darul Ihsan, Kabupaten Aceh Timur";"ACEH";"24454";"Indonesia";" 085260854898";"4.947451";"97.7703216";"https://maps.google.com/?cid=0x0:0xb67dcfe9f621e2f1"
"mall";"Departemen Pertahanan dan Keamanan";"Koramil Darul Ihsan";"WQ72+MVJ, Seuneubok Aceh Baro, Kec. Darul Ihsan, Kabupaten Aceh Timur, Aceh 24457";"Seuneubok Aceh Baro, Kec. Darul Ihsan, Kabupaten Aceh Timur";"ACEH";"24457";"Indonesia";"";"4.9142214";"97.7521435";"https://maps.google.com/?cid=0x0:0x3fb5c1ac4e63b79a"
"mall";"Sekolah Menengah Umum";"SMA Negeri 1 Darul Ihsan";"WQJ5+6WH, Keude Dua, Kec. Darul Ihsan, Kabupaten Aceh Timur, Aceh 24454";"Keude Dua, Kec. Darul Ihsan, Kabupaten Aceh Timur";"ACEH";"24454";"Indonesia";"";"4.9305703";"97.759852";"https://maps.google.com/?cid=0x0:0xc1e89dce64ef1179"
"mall";"Pusat Perbelanjaan";"Ihsan Plaza";"Jl. Rel Kereta Api No.33, Tualang Teungoh, Kec. Langsa Kota, Kota Langsa, Aceh 24354";"Tualang Teungoh, Kec. Langsa Kota, Kota Langsa";"ACEH";"24354";"Indonesia";" 085277018528";"4.4818577";"97.9626623";"https://maps.google.com/?cid=0x0:0x241654f6ddd64e4e"
"mall";"mall";"UD.BINABERSAMA";"WPCV+VMX, Khok Panjou, Kec. Darul Ihsan, Kabupaten Aceh Timur, Aceh 24457";"Khok Panjou, Kec. Darul Ihsan, Kabupaten Aceh Timur";"ACEH";"24457";"Indonesia";"";"4.9222253";"97.7442338";"https://maps.google.com/?cid=0x0:0xc669b84e1bb042bd"
"mall";"mall";"Pusat Belanja Kios Pak Win";"VQ75+5H6, Unnamed Road, Lhok Leumak, Kec. Darul Ihsan, Kabupaten Aceh Timur, Aceh 24454";"Unnamed Road, Lhok Leumak, Kec. Darul Ihsan, Kabupaten Aceh Timur";"ACEH";"24454";"Indonesia";"";"4.8629091";"97.7588966";"https://maps.google.com/?cid=0x0:0x210fe4bb0a67a651"
"mall";"Sekolah pendidikan umum";"MTs  MAS Darul Ihsan Cibungbulang";"RT.003/RW.001, Dukuh, Kec. Cibungbulang, Kabupaten Bogor, Jawa Barat 16630";"Dukuh, Kec. Cibungbulang, Kabupaten Bogor";"ACEH";"16630";"Indonesia";" 085157533761";"-6.5681786";"106.6532396";"https://maps.google.com/?cid=0x0:0x6196c00ca4317d33"
"mall";"mall";"Ihsan";"Jl. Persahabatan No.26, Cinere, Kec. Cinere, Kota Depok, Jawa Barat 16514";"Cinere, Kec. Cinere, Kota Depok";"ACEH";"16514";"Indonesia";" 085669666983";"-6.3349508";"106.7851289";"https://maps.google.com/?cid=0x0:0x1e64a191d2342789"
"mall";"mall";"MAS Darul Ihsan Dano Leles";"VVW5+HGV, Dano, Kec. Leles, Kabupaten Garut, Jawa Barat 44152";"Dano, Kec. Leles, Kabupaten Garut";"ACEH";"44152";"Indonesia";"";"-7.1035122";"107.8588117";"https://maps.google.com/?cid=0x0:0x45bdcfc5991a6a51"
"mall";"mall";"Kec. Idi Rayeuk";"Kabupaten Aceh Timur, Aceh";"Kabupaten Aceh Timur, Aceh";"ACEH";"";"Indonesia";"";"4.9501675";"97.770381";"https://maps.google.com/?cid=0x0:0x1628dddf2364720"
"mall";"Pusat Perbelanjaan";"Mauraolshoop";"WQWH+RVX, Tanoh anoue, Kec. Idi Rayeuk, Kabupaten Aceh Timur, Aceh 24454";"Tanoh anoue, Kec. Idi Rayeuk, Kabupaten Aceh Timur";"ACEH";"24454";"Indonesia";" 081375290368";"4.9471195";"97.7797453";"https://maps.google.com/?cid=0x0:0xbb76f61ef3159cbf"
"mall";"Toko";"ATAHILLAH semua serba 35ribu Idi Rayeuk";"Jl. Medan - Banda Aceh, Titi Baro, Kec. Idi Rayeuk, Kabupaten Aceh Timur, Aceh 24454";"Titi Baro, Kec. Idi Rayeuk, Kabupaten Aceh Timur";"ACEH";"24454";"Indonesia";" 085286667032";"4.9334148";"97.7841276";"https://maps.google.com/?cid=0x0:0x9815cbee3f45b884"
"mall";"Komplek perumahan";"GLOBAL ELECTRIK";"Samping Warung Nasi Putra Reube, Jl. Medan - Banda Aceh No.12, Gampong Aceh, Kec. Idi Rayeuk, Kabupaten Aceh Timur, Aceh 24454";"Jl. Medan - Banda Aceh No.12, Gampong Aceh, Kec. Idi Rayeuk, Kabupaten Aceh Timur";"ACEH";"24454";"Indonesia";" 085277751654";"4.9502318";"97.7698701";"https://maps.google.com/?cid=0x0:0x3f0ceeca99bd62f1"
"mall";"Toko";"OSGO PONSEL IDI RAYEUK";"XQ29+HGF, Keude Aceh, Kec. Idi Rayeuk, Kabupaten Aceh Timur, Aceh";"Kabupaten Aceh Timur, Aceh";"ACEH";"";"Indonesia";"";"4.9514466";"97.7687976";"https://maps.google.com/?cid=0x0:0x3b22f69264a33774"
"mall";"Pusat Perbelanjaan";"Mita Rezeki";"XQ2F+499, Jl. Peutua Husein, Kp. Jawa, Kec. Idi Rayeuk, Kabupaten Aceh Timur, Aceh";"Kabupaten Aceh Timur, Aceh";"ACEH";"";"Indonesia";" 082219965956";"4.95028";"97.7734983";"https://maps.google.com/?cid=0x0:0x5b77475ced1030a1"
"mall";"Toko Swalayan";"Swalayan Bintang Perdana Idi Rayeuk";"WQXC+R9J, Gampong Blang, Kec. Idi Rayeuk, Kabupaten Aceh Timur, Aceh";"Kabupaten Aceh Timur, Aceh";"ACEH";"";"Indonesia";" 081260903806";"4.9495956";"97.7709004";"https://maps.google.com/?cid=0x0:0xae8eacedc5b8e1c"
"mall";"Pusat Perbelanjaan";"TOKO RAZALI";"Gampong Aceh, Kec. Idi Rayeuk, Kabupaten Aceh Timur, Aceh";"Kabupaten Aceh Timur, Aceh";"ACEH";"";"Indonesia";"";"4.9502417";"97.7700199";"https://maps.google.com/?cid=0x0:0x46807480490b1549"
"mall";"Pusat Perbelanjaan";"Toko Melzatex";"Keude Aceh, Kec. Idi Rayeuk, Kabupaten Aceh Timur, Aceh";"Kabupaten Aceh Timur, Aceh";"ACEH";"";"Indonesia";" 085261661161";"4.950914";"97.770151";"https://maps.google.com/?cid=0x0:0xd83f3c5e82cbd30e"
"mall";"Toko Perlengkapan Rumah";"Putroe Olshop Idi Rayeuk";"Gampong Aceh, Kec. Idi Rayeuk, Kabupaten Aceh Timur, Aceh";"Kabupaten Aceh Timur, Aceh";"ACEH";"";"Indonesia";" 085360057503";"4.9457036";"97.767688";"https://maps.google.com/?cid=0x0:0x53b90c90df75db9b"
"mall";"Toko bahan makanan";"Kana Berkah";"XQ28+7W8, Gampong Aceh, Kec. Idi Rayeuk, Kabupaten Aceh Timur, Aceh";"Kabupaten Aceh Timur, Aceh";"ACEH";"";"Indonesia";" 085262523858";"4.9506729";"97.7673363";"https://maps.google.com/?cid=0x0:0x5a4e9e71183bada8"
"mall";"Toko Pakaian";"Batik Mitari Idi";"XQ2C+F8F, Keude Aceh, Kec. Idi Rayeuk, Kabupaten Aceh Timur, Aceh";"Kabupaten Aceh Timur, Aceh";"ACEH";"";"Indonesia";"";"4.9511983";"97.7707984";"https://maps.google.com/?cid=0x0:0xaca239fba606cee6"
"mall";"Toko grosir";"Toko Grosir Syukri";"XQ2C+3G9, Kp. Jawa, Kec. Idi Rayeuk, Kabupaten Aceh Timur, Aceh";"Kabupaten Aceh Timur, Aceh";"ACEH";"";"Indonesia";"";"4.9501648";"97.7713466";"https://maps.google.com/?cid=0x0:0x2cc3a8f77e303acb"
"mall";"Pusat Perbelanjaan";"Pusat glosir nangka dan sayur pliek bangsaiful";"XQ39+76R, Keude Aceh, Kec. Idi Rayeuk, Kabupaten Aceh Timur, Aceh";"Kabupaten Aceh Timur, Aceh";"ACEH";"";"Indonesia";" 085222206344";"4.9530292";"97.768009";"https://maps.google.com/?cid=0x0:0xf35fea3ee6e7d1fd"
"mall";"mall";"Kec. Idi Tim.";"Kabupaten Aceh Timur, Aceh";"Kabupaten Aceh Timur, Aceh";"ACEH";"";"Indonesia";"";"4.9203515";"97.7990189";"https://maps.google.com/?cid=0x0:0x46d60b30aadd6a41"
"mall";"Toko";"ATAHILLAH semua serba 35ribu Idi Rayeuk";"Jl. Medan - Banda Aceh, Titi Baro, Kec. Idi Rayeuk, Kabupaten Aceh Timur, Aceh 24454";"Titi Baro, Kec. Idi Rayeuk, Kabupaten Aceh Timur";"ACEH";"24454";"Indonesia";" 085286667032";"4.9334148";"97.7841276";"https://maps.google.com/?cid=0x0:0x9815cbee3f45b884"
"mall";"Pusat Perbelanjaan";"Mauraolshoop";"WQWH+RVX, Tanoh anoue, Kec. Idi Rayeuk, Kabupaten Aceh Timur, Aceh 24454";"Tanoh anoue, Kec. Idi Rayeuk, Kabupaten Aceh Timur";"ACEH";"24454";"Indonesia";" 081375290368";"4.9471195";"97.7797453";"https://maps.google.com/?cid=0x0:0xbb76f61ef3159cbf"
"mall";"Pusat Perbelanjaan";"TOKO RAZALI";"Gampong Aceh, Kec. Idi Rayeuk, Kabupaten Aceh Timur, Aceh";"Kabupaten Aceh Timur, Aceh";"ACEH";"";"Indonesia";"";"4.9502417";"97.7700199";"https://maps.google.com/?cid=0x0:0x46807480490b1549"
"mall";"Pusat Perbelanjaan";"Mita Rezeki";"XQ2F+499, Jl. Peutua Husein, Kp. Jawa, Kec. Idi Rayeuk, Kabupaten Aceh Timur, Aceh";"Kabupaten Aceh Timur, Aceh";"ACEH";"";"Indonesia";" 082219965956";"4.95028";"97.7734983";"https://maps.google.com/?cid=0x0:0x5b77475ced1030a1"
"mall";"Toko";"OSGO PONSEL IDI RAYEUK";"XQ29+HGF, Keude Aceh, Kec. Idi Rayeuk, Kabupaten Aceh Timur, Aceh";"Kabupaten Aceh Timur, Aceh";"ACEH";"";"Indonesia";"";"4.9514466";"97.7687976";"https://maps.google.com/?cid=0x0:0x3b22f69264a33774"
"mall";"Toko Swalayan";"Swalayan Bintang Perdana Idi Rayeuk";"WQXC+R9J, Gampong Blang, Kec. Idi Rayeuk, Kabupaten Aceh Timur, Aceh";"Kabupaten Aceh Timur, Aceh";"ACEH";"";"Indonesia";" 081260903806";"4.9495956";"97.7709004";"https://maps.google.com/?cid=0x0:0xae8eacedc5b8e1c"
"mall";"Pusat Perbelanjaan";"Toko Paris Ramai";"Kp. Jawa, Kec. Idi Rayeuk, Kabupaten Aceh Timur, Aceh 24464";"Kec. Idi Rayeuk, Kabupaten Aceh Timur";"ACEH";"24464";"Indonesia";" 085277666363";"4.9513902";"97.7708719";"https://maps.google.com/?cid=0x0:0x80e0058b862543d8"
"mall";"Toko bahan makanan";"Kana Berkah";"XQ28+7W8, Gampong Aceh, Kec. Idi Rayeuk, Kabupaten Aceh Timur, Aceh";"Kabupaten Aceh Timur, Aceh";"ACEH";"";"Indonesia";" 085262523858";"4.9506729";"97.7673363";"https://maps.google.com/?cid=0x0:0x5a4e9e71183bada8"
"mall";"Pusat Perbelanjaan";"Toko Melzatex";"Keude Aceh, Kec. Idi Rayeuk, Kabupaten Aceh Timur, Aceh";"Kabupaten Aceh Timur, Aceh";"ACEH";"";"Indonesia";" 085261661161";"4.950914";"97.770151";"https://maps.google.com/?cid=0x0:0xd83f3c5e82cbd30e"
"mall";"Toko grosir";"Toko Grosir Syukri";"XQ2C+3G9, Kp. Jawa, Kec. Idi Rayeuk, Kabupaten Aceh Timur, Aceh";"Kabupaten Aceh Timur, Aceh";"ACEH";"";"Indonesia";"";"4.9501648";"97.7713466";"https://maps.google.com/?cid=0x0:0x2cc3a8f77e303acb"
"mall";"Tempat acara";"Eco Racing Aceh Timur";"WQX9+4FR, Lorong Depan Terminal, Gampong Aceh, Kec. Idi Rayeuk, Kabupaten Aceh Timur, Aceh 24454";"Lorong Depan Terminal, Gampong Aceh, Kec. Idi Rayeuk, Kabupaten Aceh Timur";"ACEH";"24454";"Indonesia";" 082215006203";"4.9478741";"97.7686425";"https://maps.google.com/?cid=0x0:0xc2dfc9b81e909599"
"mall";"Toko Perlengkapan Rumah";"Putroe Olshop Idi Rayeuk";"Gampong Aceh, Kec. Idi Rayeuk, Kabupaten Aceh Timur, Aceh";"Kabupaten Aceh Timur, Aceh";"ACEH";"";"Indonesia";" 085360057503";"4.9457036";"97.767688";"https://maps.google.com/?cid=0x0:0x53b90c90df75db9b"
"mall";"Komplek perumahan";"GLOBAL ELECTRIK";"Samping Warung Nasi Putra Reube, Jl. Medan - Banda Aceh No.12, Gampong Aceh, Kec. Idi Rayeuk, Kabupaten Aceh Timur, Aceh 24454";"Jl. Medan - Banda Aceh No.12, Gampong Aceh, Kec. Idi Rayeuk, Kabupaten Aceh Timur";"ACEH";"24454";"Indonesia";" 085277751654";"4.9502318";"97.7698701";"https://maps.google.com/?cid=0x0:0x3f0ceeca99bd62f1"
"mall";"Pusat Perbelanjaan";"Mauraolshoop";"WQWH+RVX, Tanoh anoue, Kec. Idi Rayeuk, Kabupaten Aceh Timur, Aceh 24454";"Tanoh anoue, Kec. Idi Rayeuk, Kabupaten Aceh Timur";"ACEH";"24454";"Indonesia";" 081375290368";"4.9471195";"97.7797453";"https://maps.google.com/?cid=0x0:0xbb76f61ef3159cbf"
"mall";"Gudang";"PT. Best warkshop";"Buket Teukuh, Kec. Idi Tunong, Kabupaten Aceh Timur, Aceh 24455";"Kec. Idi Tunong, Kabupaten Aceh Timur";"ACEH";"24455";"Indonesia";" 082274623202";"4.9246695";"97.7307037";"https://maps.google.com/?cid=0x0:0x3b72da0b4fa9b332"
"mall";"mall";"Kec. Idi Tunong";"Kabupaten Aceh Timur, Aceh";"Kabupaten Aceh Timur, Aceh";"ACEH";"";"Indonesia";"";"4.924037";"97.7300209";"https://maps.google.com/?cid=0x0:0xce43963eb576bc1b"
"mall";"Toko";"ATAHILLAH semua serba 35ribu Idi Rayeuk";"Jl. Medan - Banda Aceh, Titi Baro, Kec. Idi Rayeuk, Kabupaten Aceh Timur, Aceh 24454";"Titi Baro, Kec. Idi Rayeuk, Kabupaten Aceh Timur";"ACEH";"24454";"Indonesia";" 085286667032";"4.9334148";"97.7841276";"https://maps.google.com/?cid=0x0:0x9815cbee3f45b884"
"mall";"Toko bahan makanan";"Kana Berkah";"XQ28+7W8, Gampong Aceh, Kec. Idi Rayeuk, Kabupaten Aceh Timur, Aceh";"Kabupaten Aceh Timur, Aceh";"ACEH";"";"Indonesia";" 085262523858";"4.9506729";"97.7673363";"https://maps.google.com/?cid=0x0:0x5a4e9e71183bada8"
"mall";"Toko Perlengkapan Rumah";"Penjualan Perabotan. Perlengkapan Kantoran,rumah,DLL";"XQ57+GG2, Unnamed Road, Gampong Jl., Kec. Idi Rayeuk, Kabupaten Aceh Timur, Aceh";"Kabupaten Aceh Timur, Aceh";"ACEH";"";"Indonesia";" 082277501233";"4.9587669";"97.7637593";"https://maps.google.com/?cid=0x0:0xf01ff49b8640eb54"
"mall";"Tempat acara";"Eco Racing Aceh Timur";"WQX9+4FR, Lorong Depan Terminal, Gampong Aceh, Kec. Idi Rayeuk, Kabupaten Aceh Timur, Aceh 24454";"Lorong Depan Terminal, Gampong Aceh, Kec. Idi Rayeuk, Kabupaten Aceh Timur";"ACEH";"24454";"Indonesia";" 082215006203";"4.9478741";"97.7686425";"https://maps.google.com/?cid=0x0:0xc2dfc9b81e909599"
"mall";"Komplek perumahan";"GLOBAL ELECTRIK";"Samping Warung Nasi Putra Reube, Jl. Medan - Banda Aceh No.12, Gampong Aceh, Kec. Idi Rayeuk, Kabupaten Aceh Timur, Aceh 24454";"Jl. Medan - Banda Aceh No.12, Gampong Aceh, Kec. Idi Rayeuk, Kabupaten Aceh Timur";"ACEH";"24454";"Indonesia";" 085277751654";"4.9502318";"97.7698701";"https://maps.google.com/?cid=0x0:0x3f0ceeca99bd62f1"
"mall";"Toko Perlengkapan Rumah";"Putroe Olshop Idi Rayeuk";"Gampong Aceh, Kec. Idi Rayeuk, Kabupaten Aceh Timur, Aceh";"Kabupaten Aceh Timur, Aceh";"ACEH";"";"Indonesia";" 085360057503";"4.9457036";"97.767688";"https://maps.google.com/?cid=0x0:0x53b90c90df75db9b"
"mall";"Pusat Perbelanjaan";"Mita Rezeki";"XQ2F+499, Jl. Peutua Husein, Kp. Jawa, Kec. Idi Rayeuk, Kabupaten Aceh Timur, Aceh";"Kabupaten Aceh Timur, Aceh";"ACEH";"";"Indonesia";" 082219965956";"4.95028";"97.7734983";"https://maps.google.com/?cid=0x0:0x5b77475ced1030a1"
"mall";"Toko Pakaian";"Batik Mitari Idi";"XQ2C+F8F, Keude Aceh, Kec. Idi Rayeuk, Kabupaten Aceh Timur, Aceh";"Kabupaten Aceh Timur, Aceh";"ACEH";"";"Indonesia";"";"4.9511983";"97.7707984";"https://maps.google.com/?cid=0x0:0xaca239fba606cee6"
"mall";"Toko";"OSGO PONSEL IDI RAYEUK";"XQ29+HGF, Keude Aceh, Kec. Idi Rayeuk, Kabupaten Aceh Timur, Aceh";"Kabupaten Aceh Timur, Aceh";"ACEH";"";"Indonesia";"";"4.9514466";"97.7687976";"https://maps.google.com/?cid=0x0:0x3b22f69264a33774"
"mall";"Kantor Pemerintah Distrik";"Kantor Camat Idi Tunong";"WPGM+G2V, Seuneubok Jl., Kec. Idi Tunong, Kabupaten Aceh Timur, Aceh 24455";"Seuneubok Jl., Kec. Idi Tunong, Kabupaten Aceh Timur";"ACEH";"24455";"Indonesia";"";"4.926355";"97.7325507";"https://maps.google.com/?cid=0x0:0xec28e3864568b126"
"mall";"Pusat Perbelanjaan";"TOKO RAZALI";"Gampong Aceh, Kec. Idi Rayeuk, Kabupaten Aceh Timur, Aceh";"Kabupaten Aceh Timur, Aceh";"ACEH";"";"Indonesia";"";"4.9502417";"97.7700199";"https://maps.google.com/?cid=0x0:0x46807480490b1549"
"mall";"Pusat Perbelanjaan";"Pelopor";"WJG3+XW, Blang Nisam, Kec. Indra Makmur, Kabupaten Aceh Timur, Aceh";"Kabupaten Aceh Timur, Aceh";"ACEH";"";"Indonesia";"";"4.9274313";"97.6048611";"https://maps.google.com/?cid=0x0:0x4471e6e5626b9c23"
"mall";"mall";"Aceh 24457";"Kabupaten Aceh Timur, Aceh";"Kabupaten Aceh Timur, Aceh";"ACEH";"";"Indonesia";"";"4.7891972";"97.5897372";"https://maps.google.com/?cid=0x0:0x9a96488e19c6198c"
"mall";"Toko Ponsel";"Duta Ponsel";"Jl. PTPN I No.3, Alue Ie Mirah, Kec. Indra Makmur, Kabupaten Aceh Timur, Aceh 24458";"Alue Ie Mirah, Kec. Indra Makmur, Kabupaten Aceh Timur";"ACEH";"24458";"Indonesia";" 085277770071";"4.9173115";"97.5924891";"https://maps.google.com/?cid=0x0:0x65fc85dd0d17af74"
"mall";"Pusat Perbelanjaan";"Alfin Market";"WH9R+4XM, Alue Ie Mirah, Kec. Indra Makmur, Kabupaten Aceh Timur, Aceh";"Kabupaten Aceh Timur, Aceh";"ACEH";"";"Indonesia";"";"4.9179009";"97.5923426";"https://maps.google.com/?cid=0x0:0x4a3f505093d3279c"
"mall";"";"Pasar Tradisional Pelita";"VJQC+7R7, Pelita Sagup Jaya, Kec. Indra Makmur, Kabupaten Aceh Timur, Aceh 24457";"Pelita Sagup Jaya, Kec. Indra Makmur, Kabupaten Aceh Timur";"ACEH";"24457";"Indonesia";"";"4.8881685";"97.622034";"https://maps.google.com/?cid=0x0:0x77ad35395385a9c0"
"mall";"Produsen";"Surianto linot";"WJG2+M5M, Jl. Raya Indra Makmur - Kota Binjei, Alue Ie Mirah, Kec. Indra Makmur, Kabupaten Aceh Timur, Aceh 24458";"Jl. Raya Indra Makmur - Kota Binjei, Alue Ie Mirah, Kec. Indra Makmur, Kabupaten Aceh Timur";"ACEH";"24458";"Indonesia";" 082166208656";"4.926712";"97.6004363";"https://maps.google.com/?cid=0x0:0x9cd99df2b2db71fc"
"mall";"Minimarket";"Hendrix Tv Service";"WH8W+CFC, Unnamed Road, Suka Makmur, Kec. Indra Makmur, Kabupaten Aceh Timur, Aceh 24458";"Unnamed Road, Suka Makmur, Kec. Indra Makmur, Kabupaten Aceh Timur";"ACEH";"24458";"Indonesia";"";"4.9160536";"97.5961423";"https://maps.google.com/?cid=0x0:0x10e1001c73e4f03f"
"mall";"Pusat Perbelanjaan";"Kede Teuku Lah Kiro";"VPP6+X4R, Seuneubok Kandang, Kec. Banda Alam, Kabupaten Aceh Timur, Aceh 24455";"Seuneubok Kandang, Kec. Banda Alam, Kabupaten Aceh Timur";"ACEH";"24455";"Indonesia";"";"4.8874973";"97.710257";"https://maps.google.com/?cid=0x0:0xab2c1e8e734e61c6"
"mall";"Pusat Perbelanjaan";"Putra Mandiri Jaya";"Meunasah Krueng, Kec. Peudawa, Kabupaten Aceh Timur, Aceh 24454";"Kec. Peudawa, Kabupaten Aceh Timur";"ACEH";"24454";"Indonesia";" 085392211201";"4.889146";"97.8306943";"https://maps.google.com/?cid=0x0:0x408ae92d2da4154c"
"mall";"Masjid";"Seneubok Benteng";"VMMW+7GR, Unnamed Road, Seuneubok Benteng, Kec. Banda Alam, Kabupaten Aceh Timur, Aceh 24458";"Unnamed Road, Seuneubok Benteng, Kec. Banda Alam, Kabupaten Aceh Timur";"ACEH";"24458";"Indonesia";"";"4.8832375";"97.6962656";"https://maps.google.com/?cid=0x0:0xaa95ab4c202c8328"
"mall";"Pusat Perbelanjaan";"Mauraolshoop";"WQWH+RVX, Tanoh anoue, Kec. Idi Rayeuk, Kabupaten Aceh Timur, Aceh 24454";"Tanoh anoue, Kec. Idi Rayeuk, Kabupaten Aceh Timur";"ACEH";"24454";"Indonesia";" 081375290368";"4.9471195";"97.7797453";"https://maps.google.com/?cid=0x0:0xbb76f61ef3159cbf"
"mall";"Toko";"ATAHILLAH semua serba 35ribu Idi Rayeuk";"Jl. Medan - Banda Aceh, Titi Baro, Kec. Idi Rayeuk, Kabupaten Aceh Timur, Aceh 24454";"Titi Baro, Kec. Idi Rayeuk, Kabupaten Aceh Timur";"ACEH";"24454";"Indonesia";" 085286667032";"4.9334148";"97.7841276";"https://maps.google.com/?cid=0x0:0x9815cbee3f45b884"
"mall";"Minimarket";"Iskandar Muda (TOKO M.SALEH) AGEN BRILINK";"WH8R+HMV, Alue Ie Mirah, Kec. Indra Makmur, Kabupaten Aceh Timur, Aceh 24458";"Alue Ie Mirah, Kec. Indra Makmur, Kabupaten Aceh Timur";"ACEH";"24458";"Indonesia";" 085260996050";"4.9164811";"97.5916862";"https://maps.google.com/?cid=0x0:0xe6a9beb43076e34c"
"mall";"Gudang";"PT. Best warkshop";"Buket Teukuh, Kec. Idi Tunong, Kabupaten Aceh Timur, Aceh 24455";"Kec. Idi Tunong, Kabupaten Aceh Timur";"ACEH";"24455";"Indonesia";" 082274623202";"4.9246695";"97.7307037";"https://maps.google.com/?cid=0x0:0x3b72da0b4fa9b332"
"mall";"mall";"Kec. Julok";"Kabupaten Aceh Timur, Aceh";"Kabupaten Aceh Timur, Aceh";"ACEH";"";"Indonesia";"";"5.0420084";"97.6270812";"https://maps.google.com/?cid=0x0:0xcfeec36b993a81dd"
"mall";"Toko Swalayan";"Jamal Pabrek Pade";"2JMQ+7WR, Meunasah Teungoh, Kec. Nurussalam, Kabupaten Aceh Timur, Aceh 24458";"Meunasah Teungoh, Kec. Nurussalam, Kabupaten Aceh Timur";"ACEH";"24458";"Indonesia";" 085296534991";"5.0332441";"97.6397537";"https://maps.google.com/?cid=0x0:0x61a765c50b08f2e8"
"mall";"Pusat Perbelanjaan";"Toko Jasa2";"Keude Kuta Binjai, Kec. Julok, Kabupaten Aceh Timur, Aceh 24458";"Kec. Julok, Kabupaten Aceh Timur";"ACEH";"24458";"Indonesia";" 085260012531";"5.0423776";"97.6281323";"https://maps.google.com/?cid=0x0:0x8f601b834b44864d"
"mall";"Toko";"Ud Tani Makmur Jaya";"3J23+H9M, Gampong Baro, Kec. Julok, Kabupaten Aceh Timur, Aceh 24458";"Gampong Baro, Kec. Julok, Kabupaten Aceh Timur";"ACEH";"24458";"Indonesia";" 082387679491";"5.0514677";"97.6034083";"https://maps.google.com/?cid=0x0:0x7e41dce8e93070c0"
"mall";"Pusat Perbelanjaan";"jasa baru";"2JQG+376, Jl. Alue Ie Mirah, Ulee Ateung, Kec, indra makmu, Kabupaten Aceh Timur, Aceh 24458";"Jl. Alue Ie Mirah, Ulee Ateung, Kec, indra makmu, Kabupaten Aceh Timur";"ACEH";"24458";"Indonesia";" 085262045114";"5.0376547";"97.6256416";"https://maps.google.com/?cid=0x0:0x46416f0a5f29a7e5"
"mall";"Minimarket";"Kedai Bumbu H.DIN";"Keude Kuta Binjai, Kec. Julok, Kabupaten Aceh Timur, Aceh 24458";"Kec. Julok, Kabupaten Aceh Timur";"ACEH";"24458";"Indonesia";" 081210000612";"5.0424103";"97.6279934";"https://maps.google.com/?cid=0x0:0x454cb2b908fa06b8"
"mall";"Toko bahan makanan";"Kios Sembako Dang Dang Na";"2JV9+RC7, Jl. Alue Ie Puteh - Blang Geulumpang, Julok Tunong, Kec. Julok, Kabupaten Aceh Timur, Aceh 24458";"Jl. Alue Ie Puteh - Blang Geulumpang, Julok Tunong, Kec. Julok, Kabupaten Aceh Timur";"ACEH";"24458";"Indonesia";"";"5.0446041";"97.6185172";"https://maps.google.com/?cid=0x0:0xdc71dc7cf109b423"
"mall";"Kios";"Kios";"2JHQ+22H, Alue Siwah Dua, Kec. Darul Falah, Kabupaten Aceh Timur, Aceh 24458";"Alue Siwah Dua, Kec. Darul Falah, Kabupaten Aceh Timur";"ACEH";"24458";"Indonesia";"";"5.0275735";"97.6375985";"https://maps.google.com/?cid=0x0:0xd8abf3101a66772f"
"mall";"mall";"Warung Al Farizi";"2JMQ+2H6, Tunong Bugeng, Kec. Darul Falah, Kabupaten Aceh Timur, Aceh";"Kabupaten Aceh Timur, Aceh";"ACEH";"";"Indonesia";"";"5.0325461";"97.638883";"https://maps.google.com/?cid=0x0:0x86474c40c454fe67"
"mall";"Toko umum";"UD.BUAH CEK FRANS";"3GWR+C56, Kampong Baro, Kec. Simpang Ulim, Kabupaten Aceh Timur, Aceh 24458";"Kampong Baro, Kec. Simpang Ulim, Kabupaten Aceh Timur";"ACEH";"24458";"Indonesia";" 082276022712";"5.0960471";"97.540393";"https://maps.google.com/?cid=0x0:0x8c2f58163b8839ee"
"mall";"Toko";"AL-FATIH CELL";"3H98+Q33, Blang Me, Kec. Simpang Ulim, Kabupaten Aceh Timur, Aceh 24458";"Blang Me, Kec. Simpang Ulim, Kabupaten Aceh Timur";"ACEH";"24458";"Indonesia";"";"5.0693905";"97.5651628";"https://maps.google.com/?cid=0x0:0xd36263423fb9642e"
"mall";"Toko Pakaian";"Aini Shopy";"4H5H+GHR, Bantayan, Kec. Simpang Ulim, Kabupaten Aceh Timur, Aceh";"Kabupaten Aceh Timur, Aceh";"ACEH";"";"Indonesia";" 082368983057";"5.1088508";"97.5788975";"https://maps.google.com/?cid=0x0:0x5ed4f09955fd0824"
"mall";"Toko Swalayan";"Suzuya Mall Banda Aceh";"Jl. Teuku Umar, Lamtemen Tim., Kec. Jaya Baru, Kota Banda Aceh, Aceh 23232";"Lamtemen Tim., Kec. Jaya Baru, Kota Banda Aceh";"ACEH";"23232";"Indonesia";" 06518011022";"5.5377324";"95.3068005";"https://maps.google.com/?cid=0x0:0xc5c56efc74442dea"
"mall";"mall";"Aceh 24457";"Kabupaten Aceh Timur, Aceh";"Kabupaten Aceh Timur, Aceh";"ACEH";"";"Indonesia";"";"4.7891972";"97.5897372";"https://maps.google.com/?cid=0x0:0x9a96488e19c6198c"
"mall";"mall";"Kec. Madat";"Kabupaten Aceh Timur, Aceh";"Kabupaten Aceh Timur, Aceh";"ACEH";"";"Indonesia";"";"5.1550012";"97.4962435";"https://maps.google.com/?cid=0x0:0x4039d80b2210590"
"mall";"Pusat Perbelanjaan";"Ud.Doa Tani";"4G8C+J69, Ulee Ateung, Kec. Madat, Kabupaten Aceh Timur, Aceh 24458";"Ulee Ateung, Kec. Madat, Kabupaten Aceh Timur";"ACEH";"24458";"Indonesia";" 085260400151";"5.1165415";"97.5205949";"https://maps.google.com/?cid=0x0:0xb7772f8d610cd860"
"mall";"mall";"Madat";"Kec. Madat, Kabupaten Aceh Timur, Aceh";"Kabupaten Aceh Timur, Aceh";"ACEH";"";"Indonesia";"";"5.1069984";"97.516602";"https://maps.google.com/?cid=0x0:0xff2034176ea7c50f"
"mall";"Pasar";"Maulana Grosir";"5G63+J6P, Matang Guru, Kec. Madat, Kabupaten Aceh Timur, Aceh 24458";"Matang Guru, Kec. Madat, Kabupaten Aceh Timur";"ACEH";"24458";"Indonesia";"";"5.1615906";"97.5030759";"https://maps.google.com/?cid=0x0:0x4948fb7b7578d7b1"
"mall";"Minimarket";"Toko AL Barakah";"4F5G+5V8, desa, Paya Naden, Kec. Madat, Kabupaten Aceh Timur, Aceh 24458";"desa, Paya Naden, Kec. Madat, Kabupaten Aceh Timur";"ACEH";"24458";"Indonesia";" 085277569070";"5.1079183";"97.4772097";"https://maps.google.com/?cid=0x0:0xd1a4749ad5d2cbba"
"mall";"Pusat Perbelanjaan";"Ardy Pusaja";"5FHV+765, Meunasah Tingkeum, Kec. Madat, Kabupaten Aceh Timur, Aceh 24458";"Meunasah Tingkeum, Kec. Madat, Kabupaten Aceh Timur";"ACEH";"24458";"Indonesia";" 085358205020";"5.1781291";"97.4930952";"https://maps.google.com/?cid=0x0:0x94b9a87f69b2f4ad"
"mall";"Toko Swalayan";"Jamal Pabrek Pade";"2JMQ+7WR, Meunasah Teungoh, Kec. Nurussalam, Kabupaten Aceh Timur, Aceh 24458";"Meunasah Teungoh, Kec. Nurussalam, Kabupaten Aceh Timur";"ACEH";"24458";"Indonesia";" 085296534991";"5.0332441";"97.6397537";"https://maps.google.com/?cid=0x0:0x61a765c50b08f2e8"
"mall";"mall";"Kec. Nurussalam";"Kabupaten Aceh Timur, Aceh";"Kabupaten Aceh Timur, Aceh";"ACEH";"";"Indonesia";"";"5.0288426";"97.6662315";"https://maps.google.com/?cid=0x0:0x8a1127d50c7b392d"
"mall";"Masjid";"Seneubok Benteng";"VMMW+7GR, Unnamed Road, Seuneubok Benteng, Kec. Banda Alam, Kabupaten Aceh Timur, Aceh 24458";"Unnamed Road, Seuneubok Benteng, Kec. Banda Alam, Kabupaten Aceh Timur";"ACEH";"24458";"Indonesia";"";"4.8832375";"97.6962656";"https://maps.google.com/?cid=0x0:0xaa95ab4c202c8328"
"mall";"Pusat Perbelanjaan";"Toko Jasa2";"Keude Kuta Binjai, Kec. Julok, Kabupaten Aceh Timur, Aceh 24458";"Kec. Julok, Kabupaten Aceh Timur";"ACEH";"24458";"Indonesia";" 085260012531";"5.0423776";"97.6281323";"https://maps.google.com/?cid=0x0:0x8f601b834b44864d"
"mall";"Pusat Perbelanjaan";"jasa baru";"2JQG+376, Jl. Alue Ie Mirah, Ulee Ateung, Kec, indra makmu, Kabupaten Aceh Timur, Aceh 24458";"Jl. Alue Ie Mirah, Ulee Ateung, Kec, indra makmu, Kabupaten Aceh Timur";"ACEH";"24458";"Indonesia";" 085262045114";"5.0376547";"97.6256416";"https://maps.google.com/?cid=0x0:0x46416f0a5f29a7e5"
"mall";"Pusat Perbelanjaan";"Pelopor";"WJG3+XW, Blang Nisam, Kec. Indra Makmur, Kabupaten Aceh Timur, Aceh";"Kabupaten Aceh Timur, Aceh";"ACEH";"";"Indonesia";"";"4.9274313";"97.6048611";"https://maps.google.com/?cid=0x0:0x4471e6e5626b9c23"
"mall";"Kedai Kopi";"Warkop-nora-annis";"Seuneubok Simpang, Kec. Darul Aman, Kabupaten Aceh Timur, Aceh 24455";"Kec. Darul Aman, Kabupaten Aceh Timur";"ACEH";"24455";"Indonesia";" 082249158395";"4.924713";"97.6800727";"https://maps.google.com/?cid=0x0:0x533186f1dc7b9dcb"
"mall";"Pusat Perbelanjaan";"Plaza Aceh";"Jl. T. Hasan Dek Jl. Teuku Iskandar No.49, Beurawe, Kec. Kuta Alam, Kota Banda Aceh, Aceh 23127";"Beurawe, Kec. Kuta Alam, Kota Banda Aceh";"ACEH";"23127";"Indonesia";" 08116899890";"5.5547881";"95.3308683";"https://maps.google.com/?cid=0x0:0x45c9eb2ec9e62a76"
"mall";"Toko umum";"UD.BUAH CEK FRANS";"3GWR+C56, Kampong Baro, Kec. Simpang Ulim, Kabupaten Aceh Timur, Aceh 24458";"Kampong Baro, Kec. Simpang Ulim, Kabupaten Aceh Timur";"ACEH";"24458";"Indonesia";" 082276022712";"5.0960471";"97.540393";"https://maps.google.com/?cid=0x0:0x8c2f58163b8839ee"
"mall";"Pusat Perbelanjaan";"Kede Teuku Lah Kiro";"VPP6+X4R, Seuneubok Kandang, Kec. Banda Alam, Kabupaten Aceh Timur, Aceh 24455";"Seuneubok Kandang, Kec. Banda Alam, Kabupaten Aceh Timur";"ACEH";"24455";"Indonesia";"";"4.8874973";"97.710257";"https://maps.google.com/?cid=0x0:0xab2c1e8e734e61c6"
"mall";"Pusat Perbelanjaan";"Queen cell";"Kp. Keude, Kec. Darul Aman, Kabupaten Aceh Timur, Aceh 24455";"Kec. Darul Aman, Kabupaten Aceh Timur";"ACEH";"24455";"Indonesia";" 082299677021";"4.986774";"97.7186085";"https://maps.google.com/?cid=0x0:0x2780118bc599d46"
"mall";"";"Pasar Tradisional Pelita";"VJQC+7R7, Pelita Sagup Jaya, Kec. Indra Makmur, Kabupaten Aceh Timur, Aceh 24457";"Pelita Sagup Jaya, Kec. Indra Makmur, Kabupaten Aceh Timur";"ACEH";"24457";"Indonesia";"";"4.8881685";"97.622034";"https://maps.google.com/?cid=0x0:0x77ad35395385a9c0"
"mall";"Toko Ponsel";"Duta Ponsel";"Jl. PTPN I No.3, Alue Ie Mirah, Kec. Indra Makmur, Kabupaten Aceh Timur, Aceh 24458";"Alue Ie Mirah, Kec. Indra Makmur, Kabupaten Aceh Timur";"ACEH";"24458";"Indonesia";" 085277770071";"4.9173115";"97.5924891";"https://maps.google.com/?cid=0x0:0x65fc85dd0d17af74"
"mall";"Kios";"Kios";"2JHQ+22H, Alue Siwah Dua, Kec. Darul Falah, Kabupaten Aceh Timur, Aceh 24458";"Alue Siwah Dua, Kec. Darul Falah, Kabupaten Aceh Timur";"ACEH";"24458";"Indonesia";"";"5.0275735";"97.6375985";"https://maps.google.com/?cid=0x0:0xd8abf3101a66772f"
"mall";"mall";"Aceh 24458";"Kabupaten Aceh Timur, Aceh";"Kabupaten Aceh Timur, Aceh";"ACEH";"";"Indonesia";"";"4.9131571";"97.5463885";"https://maps.google.com/?cid=0x0:0x82c363c7b075e66"
"mall";"Pusat Perbelanjaan";"Karona";"Pante Panah, Kec. Pante Bidari, Kabupaten Aceh Timur, Aceh 24458";"Kec. Pante Bidari, Kabupaten Aceh Timur";"ACEH";"24458";"Indonesia";" 081269022138";"5.0740494";"97.5173716";"https://maps.google.com/?cid=0x0:0x55d954647f1346c7"
"mall";"Toko Minuman Bersoda";"Beujaya Studio";"3GCC+93F, Keude Baro, Kec. Pante Bidari, Kabupaten Aceh Timur, Aceh 24458";"Keude Baro, Kec. Pante Bidari, Kabupaten Aceh Timur";"ACEH";"24458";"Indonesia";" 08116820288";"5.0709428";"97.520187";"https://maps.google.com/?cid=0x0:0x5dd8e6ad550c0df6"
"mall";"Toko Swalayan";"CAHAYA BARU";"3G9C+WCP, Jl. Teupin Bate, Keude Baro, Kec. Pante Bidari, Kabupaten Aceh Timur, Aceh 24458";"Jl. Teupin Bate, Keude Baro, Kec. Pante Bidari, Kabupaten Aceh Timur";"ACEH";"24458";"Indonesia";" 082239436915";"5.0698291";"97.5210871";"https://maps.google.com/?cid=0x0:0x948495965fdc152a"
"mall";"Pusat Perbelanjaan";"HORAS Lhok Nibong";"3GG8+2VM, Jl. Medan Banda Aceh, Pante Panah, Kec. Pante Bidari, Kabupaten Aceh Timur, Aceh 24458";"Jl. Medan Banda Aceh, Pante Panah, Kec. Pante Bidari, Kabupaten Aceh Timur";"ACEH";"24458";"Indonesia";" 085296540812";"5.0750768";"97.5171761";"https://maps.google.com/?cid=0x0:0xc62bb47acad6d117"
"mall";"Toko bahan makanan";"Fajar Indah";"3GCC+JH9, Unnamed Road, Keude Baro, Kec. Pante Bidari, Kabupaten Aceh Timur, Aceh 24458";"Unnamed Road, Keude Baro, Kec. Pante Bidari, Kabupaten Aceh Timur";"ACEH";"24458";"Indonesia";" 081269600991";"5.0715474";"97.5213632";"https://maps.google.com/?cid=0x0:0x75d89bee58a1a616"
"mall";"Bengkel Sepeda Motor";"SARANA MOTOR";"3GG8+6RV, Meunasah Leubok, Kec. Pante Bidari, Kabupaten Aceh Timur, Aceh 24458";"Meunasah Leubok, Kec. Pante Bidari, Kabupaten Aceh Timur";"ACEH";"24458";"Indonesia";" 085370538240";"5.075601";"97.5170469";"https://maps.google.com/?cid=0x0:0x77c04776a9fafc7e"
"mall";"Pembangunan Perumahan";"Ud Sejahtera";"3GG8+9Q2, Jl. Medan Banda Aceh, Pante Panah, Kec. Pante Bidari, Kabupaten Aceh Timur, Aceh 24458";"Jl. Medan Banda Aceh, Pante Panah, Kec. Pante Bidari, Kabupaten Aceh Timur";"ACEH";"24458";"Indonesia";" 085373178311";"5.0758974";"97.5169023";"https://maps.google.com/?cid=0x0:0xb247273d2cb5f32f"
"mall";"Toko Swalayan";"Pusat Oleh Oleh Lhoknibong";"3GF8+WWR, Jl. Medan Banda Aceh, Pante Panah, Kec. Pante Bidari, Kabupaten Aceh Timur, Aceh 24458";"Jl. Medan Banda Aceh, Pante Panah, Kec. Pante Bidari, Kabupaten Aceh Timur";"ACEH";"24458";"Indonesia";"";"5.0748651";"97.5172599";"https://maps.google.com/?cid=0x0:0x441f6f9a8c6ca6c5"
"mall";"Pusat Perbelanjaan";"Pasar Senin Lhoknibong";"3GCC+CPW, Unnamed Road, Keude Baro, Kec. Pante Bidari, Kabupaten Aceh Timur, Aceh 24458";"Unnamed Road, Keude Baro, Kec. Pante Bidari, Kabupaten Aceh Timur";"ACEH";"24458";"Indonesia";"";"5.0711071";"97.521823";"https://maps.google.com/?cid=0x0:0xf6488b8a4bafad1d"
"mall";"Pusat Perbelanjaan";"Panton Labu";"Kota Panton Labu, Kec. Tanah Jambo Aye, Kabupaten Aceh Utara, Aceh 24394";"Kec. Tanah Jambo Aye, Kabupaten Aceh Utara";"ACEH";"24394";"Indonesia";" 082311476044";"5.1160864";"97.4590588";"https://maps.google.com/?cid=0x0:0xbda1620cc992411f"
"mall";"Pusat Perbelanjaan";"Berkat Tani";"3GC9+FHP, Unnamed Road, Keude Baro, Kec. Pante Bidari, Kabupaten Aceh Utara, Aceh 24458";"Unnamed Road, Keude Baro, Kec. Pante Bidari, Kabupaten Aceh Utara";"ACEH";"24458";"Indonesia";" 085297466865";"5.0712165";"97.518944";"https://maps.google.com/?cid=0x0:0x13cad3640467b759"
"mall";"Toko Elektronik";"Toko Rizka Baru";"3GCC+V7P, Keude Baro, Kec. Pante Bidari, Kabupaten Aceh Timur, Aceh 24458";"Keude Baro, Kec. Pante Bidari, Kabupaten Aceh Timur";"ACEH";"24458";"Indonesia";" 085277163482";"5.0722215";"97.5207052";"https://maps.google.com/?cid=0x0:0xe636bcff2d0d8a2c"
"mall";"Pusat Perbelanjaan";"Toko sale press online";"Jl. Medan - Banda Aceh, lhok nibong, Kec. Pante Bidari, Kabupaten Aceh Timur, Aceh 24458";"lhok nibong, Kec. Pante Bidari, Kabupaten Aceh Timur";"ACEH";"24458";"Indonesia";" 082161835191";"5.0740817";"97.5176334";"https://maps.google.com/?cid=0x0:0x6a7dc5f0c8f93059"
"mall";"Toko Elektronik";"SULTAN PONSEL, PEUDAWA";"Jl. Lintas Medan-Jalan Banda Aceh, Meunasah Krueng, Kec. Peudawa, Kabupaten Aceh Timur, Aceh 24454";"Meunasah Krueng, Kec. Peudawa, Kabupaten Aceh Timur";"ACEH";"24454";"Indonesia";" 085372997226";"4.8926989";"97.8290023";"https://maps.google.com/?cid=0x0:0xc06bb9e0aaf4df55"
"mall";"Pusat Perbelanjaan";"Putra Mandiri Jaya";"Meunasah Krueng, Kec. Peudawa, Kabupaten Aceh Timur, Aceh 24454";"Kec. Peudawa, Kabupaten Aceh Timur";"ACEH";"24454";"Indonesia";" 085392211201";"4.889146";"97.8306943";"https://maps.google.com/?cid=0x0:0x408ae92d2da4154c"
"mall";"mall";"Kec. Peudawa";"Kabupaten Aceh Timur, Aceh";"Kabupaten Aceh Timur, Aceh";"ACEH";"";"Indonesia";"";"4.898169";"97.8214679";"https://maps.google.com/?cid=0x0:0x220905180a6bf00b"
"mall";"mall";"FaraBila ( Shop  Cafe )";"VRRJ+226, Meunasah Krueng, Kec. Peudawa, Kabupaten Aceh Timur, Aceh 24454";"Meunasah Krueng, Kec. Peudawa, Kabupaten Aceh Timur";"ACEH";"24454";"Indonesia";"";"4.8900375";"97.8300219";"https://maps.google.com/?cid=0x0:0xca2eea2eb9ad7401"
"mall";"mall";"TOKO AZZA TOSERBA PEUDAWA RAYEUK";"VRWG+HJ9, Kp. Keude, Kec. Peudawa, Kabupaten Aceh Timur, Aceh";"Kabupaten Aceh Timur, Aceh";"ACEH";"";"Indonesia";" 089627775043";"4.8964075";"97.8266236";"https://maps.google.com/?cid=0x0:0xf253664815b12b52"
"mall";"mall";"Pantai Peudawa";"Unnamed Road, Idi Tim., Matang Bungong, Kec. Idi Tim., Kabupaten Aceh Timur, Aceh";"Kabupaten Aceh Timur, Aceh";"ACEH";"";"Indonesia";"";"4.9277273";"97.8144708";"https://maps.google.com/?cid=0x0:0xc3b8f86e84472e86"
"mall";"mall";"Aceh 24461";"Kabupaten Aceh Timur, Aceh";"Kabupaten Aceh Timur, Aceh";"ACEH";"";"Indonesia";"";"4.950275";"97.6792293";"https://maps.google.com/?cid=0x0:0x40ce92432b582121"
"mall";"Pusat Perbelanjaan";"Umat Mandiri";"RV6R+5F2, Keude Peureulak, Kec. Peureulak, Kabupaten Aceh Timur, Aceh 24461";"Keude Peureulak, Kec. Peureulak, Kabupaten Aceh Timur";"ACEH";"24461";"Indonesia";" 085212914788";"4.8103896";"97.891138";"https://maps.google.com/?cid=0x0:0x68b4f2c689249db2"
"mall";"Pasar";"Pasar Baru Peureulak";"RV7Q+9WG, Tualang, Kec. Peureulak, Kabupaten Aceh Timur, Aceh 24461";"Tualang, Kec. Peureulak, Kabupaten Aceh Timur";"ACEH";"24461";"Indonesia";"";"4.8134298";"97.8898258";"https://maps.google.com/?cid=0x0:0x3dab99837407dfa0"
"mall";"Toko";"ZCPERDANA";"Depan Telkom, Jl. Medan - Banda Aceh, Leuge, Kec. Peureulak, Kabupaten Aceh Timur, Aceh 24453";"Jl. Medan - Banda Aceh, Leuge, Kec. Peureulak, Kabupaten Aceh Timur";"ACEH";"24453";"Indonesia";" 082326778888";"4.8088447";"97.8949293";"https://maps.google.com/?cid=0x0:0x650a62cd2f87cbf5"
"mall";"Komplek perumahan";"TPI";"RW22+4WP, Unnamed Road, Bangka Rimueng, Kec. Peureulak, Kabupaten Aceh Timur, Aceh 24458";"Unnamed Road, Bangka Rimueng, Kec. Peureulak, Kabupaten Aceh Timur";"ACEH";"24458";"Indonesia";"";"4.8003452";"97.9023215";"https://maps.google.com/?cid=0x0:0x448ddcf040ad18ca"
"mall";"Pusat Perbelanjaan";"BMJ MART";"RV4R+GJW, Lhok Dalam, Kec. Peureulak, Kabupaten Aceh Timur, Aceh 24461";"Lhok Dalam, Kec. Peureulak, Kabupaten Aceh Timur";"ACEH";"24461";"Indonesia";"";"4.8063579";"97.8915766";"https://maps.google.com/?cid=0x0:0x2f5d6b1eccba90c8"
"mall";"Toko";"UD. Agung DP";"Seuneubok Pidie, Kec. Peureulak, Kabupaten Aceh Timur, Aceh 24453";"Kec. Peureulak, Kabupaten Aceh Timur";"ACEH";"24453";"Indonesia";" 085273314877";"4.7494826";"97.8962347";"https://maps.google.com/?cid=0x0:0xcb07858d60a38ced"
"mall";"Toko Pakaian";"Kios Cek Kir Kapai Baro";"XMCM+PJ2, Kapai Baro, Kec. Darul Aman, Kabupaten Aceh Timur, Aceh 24461";"Kapai Baro, Kec. Darul Aman, Kabupaten Aceh Timur";"ACEH";"24461";"Indonesia";"";"4.9717629";"97.6840239";"https://maps.google.com/?cid=0x0:0x2690e08da6ad62f3"
"mall";"Pusat Perbelanjaan";"Aneka JUICE bang syeehh peureulak";"RV5R+FQG depan foto copi, jalur dua, Keude Peureulak, Kec. Peureulak, Kabupaten Aceh Timur, Aceh 24461";"jalur dua, Keude Peureulak, Kec. Peureulak, Kabupaten Aceh Timur";"ACEH";"24461";"Indonesia";" 081269360775";"4.8086993";"97.8919457";"https://maps.google.com/?cid=0x0:0xc9b1b13a90540a21"
"mall";"Toko bahan makanan";"toko maju";"RV5R+CJP, Keude Peureulak, Kec. Peureulak, Kabupaten Aceh Timur, Aceh 24461";"Keude Peureulak, Kec. Peureulak, Kabupaten Aceh Timur";"ACEH";"24461";"Indonesia";"";"4.8085383";"97.8915208";"https://maps.google.com/?cid=0x0:0x709128cf8e37ea70"
"mall";"Toko";"Toko Fathan";"QVXR+QH5, Lhok Dalam, Kec. Peureulak, Kabupaten Aceh Timur, Aceh 24453";"Lhok Dalam, Kec. Peureulak, Kabupaten Aceh Timur";"ACEH";"24453";"Indonesia";" 085270684778";"4.7993853";"97.891473";"https://maps.google.com/?cid=0x0:0xed3d4e20f93246b6"
"mall";"Pusat Perbelanjaan";"Queen cell";"Kp. Keude, Kec. Darul Aman, Kabupaten Aceh Timur, Aceh 24455";"Kec. Darul Aman, Kabupaten Aceh Timur";"ACEH";"24455";"Indonesia";" 082299677021";"4.986774";"97.7186085";"https://maps.google.com/?cid=0x0:0x2780118bc599d46"
"mall";"Pusat Perbelanjaan";"Toko Sinar Baru (PakMus)";"RV5R+WMV, Keude Peureulak, Kec. Peureulak, Kabupaten Aceh Timur, Aceh 24453";"Keude Peureulak, Kec. Peureulak, Kabupaten Aceh Timur";"ACEH";"24453";"Indonesia";"";"4.8098528";"97.8916645";"https://maps.google.com/?cid=0x0:0x8bf7348321308cc8"
"mall";"Pusat Perbelanjaan";"Karisma";"Jl. Ranto Panjang, Snb Dalam, Kec. Rantau Peureulak, Kabupaten Aceh Timur, Aceh 24453";"Snb Dalam, Kec. Rantau Peureulak, Kabupaten Aceh Timur";"ACEH";"24453";"Indonesia";"";"4.8126838";"97.8185659";"https://maps.google.com/?cid=0x0:0x9e49a8b397d7c052"
"mall";"Pusat Perbelanjaan";"Karisma";"Jl. Ranto Panjang, Snb Dalam, Kec. Rantau Peureulak, Kabupaten Aceh Timur, Aceh 24453";"Snb Dalam, Kec. Rantau Peureulak, Kabupaten Aceh Timur";"ACEH";"24453";"Indonesia";"";"4.8126838";"97.8185659";"https://maps.google.com/?cid=0x0:0x9e49a8b397d7c052"
"mall";"Pusat Perbelanjaan";"Umat Mandiri";"RV6R+5F2, Keude Peureulak, Kec. Peureulak, Kabupaten Aceh Timur, Aceh 24461";"Keude Peureulak, Kec. Peureulak, Kabupaten Aceh Timur";"ACEH";"24461";"Indonesia";" 085212914788";"4.8103896";"97.891138";"https://maps.google.com/?cid=0x0:0x68b4f2c689249db2"
"mall";"mall";"Aceh 24453";"Kabupaten Aceh Timur, Aceh";"Kabupaten Aceh Timur, Aceh";"ACEH";"";"Indonesia";"";"4.7563162";"97.7742702";"https://maps.google.com/?cid=0x0:0x3f249fb702225b43"
"mall";"Komplek perumahan";"pasar perlak";"RV5R+XJM, Keude Peureulak, Kec. Peureulak, Kabupaten Aceh Timur, Aceh 24461";"Keude Peureulak, Kec. Peureulak, Kabupaten Aceh Timur";"ACEH";"24461";"Indonesia";"";"4.8099589";"97.8915313";"https://maps.google.com/?cid=0x0:0xe98c31ace76421a1"
"mall";"Pasar";"Pasar Baru Peureulak";"RV7Q+9WG, Tualang, Kec. Peureulak, Kabupaten Aceh Timur, Aceh 24461";"Tualang, Kec. Peureulak, Kabupaten Aceh Timur";"ACEH";"24461";"Indonesia";"";"4.8134298";"97.8898258";"https://maps.google.com/?cid=0x0:0x3dab99837407dfa0"
"mall";"Pusat Perbelanjaan";"Aneka JUICE bang syeehh peureulak";"RV5R+FQG depan foto copi, jalur dua, Keude Peureulak, Kec. Peureulak, Kabupaten Aceh Timur, Aceh 24461";"jalur dua, Keude Peureulak, Kec. Peureulak, Kabupaten Aceh Timur";"ACEH";"24461";"Indonesia";" 081269360775";"4.8086993";"97.8919457";"https://maps.google.com/?cid=0x0:0xc9b1b13a90540a21"
"mall";"Kedai Kopi";"Jamboe Reloeh";"QRVR+CHQ, Paya Meuligo, Kec. Peureulak, Kabupaten Aceh Timur, Aceh 24453";"Paya Meuligo, Kec. Peureulak, Kabupaten Aceh Timur";"ACEH";"24453";"Indonesia";" 082370328274";"4.7935927";"97.8414997";"https://maps.google.com/?cid=0x0:0x9007e84f8d494180"
"mall";"Pusat Perbelanjaan";"Toko Sinar Baru (PakMus)";"RV5R+WMV, Keude Peureulak, Kec. Peureulak, Kabupaten Aceh Timur, Aceh 24453";"Keude Peureulak, Kec. Peureulak, Kabupaten Aceh Timur";"ACEH";"24453";"Indonesia";"";"4.8098528";"97.8916645";"https://maps.google.com/?cid=0x0:0x8bf7348321308cc8"
"mall";"Pusat Perbelanjaan";"BMJ MART";"RV4R+GJW, Lhok Dalam, Kec. Peureulak, Kabupaten Aceh Timur, Aceh 24461";"Lhok Dalam, Kec. Peureulak, Kabupaten Aceh Timur";"ACEH";"24461";"Indonesia";"";"4.8063579";"97.8915766";"https://maps.google.com/?cid=0x0:0x2f5d6b1eccba90c8"
"mall";"Toko";"Toko Fathan";"QVXR+QH5, Lhok Dalam, Kec. Peureulak, Kabupaten Aceh Timur, Aceh 24453";"Lhok Dalam, Kec. Peureulak, Kabupaten Aceh Timur";"ACEH";"24453";"Indonesia";" 085270684778";"4.7993853";"97.891473";"https://maps.google.com/?cid=0x0:0xed3d4e20f93246b6"
"mall";"Toko bahan makanan";"toko maju";"RV5R+CJP, Keude Peureulak, Kec. Peureulak, Kabupaten Aceh Timur, Aceh 24461";"Keude Peureulak, Kec. Peureulak, Kabupaten Aceh Timur";"ACEH";"24461";"Indonesia";"";"4.8085383";"97.8915208";"https://maps.google.com/?cid=0x0:0x709128cf8e37ea70"
"mall";"Toko Obat-Obatan Herbal";"STOCKIST PT.HPAI HNI HALAL MART";"RQ4X+MW7, Buket Pala Bsp, Kec. Rantau Peureulak, Kabupaten Aceh Timur, Aceh 24453";"Buket Pala Bsp, Kec. Rantau Peureulak, Kabupaten Aceh Timur";"ACEH";"24453";"Indonesia";" 081394701259";"4.8066617";"97.7997857";"https://maps.google.com/?cid=0x0:0xe1de8391acd257e5"
"mall";"Komplek perumahan";"TPI";"RW22+4WP, Unnamed Road, Bangka Rimueng, Kec. Peureulak, Kabupaten Aceh Timur, Aceh 24458";"Unnamed Road, Bangka Rimueng, Kec. Peureulak, Kabupaten Aceh Timur";"ACEH";"24458";"Indonesia";"";"4.8003452";"97.9023215";"https://maps.google.com/?cid=0x0:0x448ddcf040ad18ca"
"mall";"Pusat Perbelanjaan";"DITHA JAYA.";"RQ5W+FWH, Kp. Pertamina, Kec. Rantau Peureulak, Kabupaten Aceh Timur, Aceh 24454";"Kp. Pertamina, Kec. Rantau Peureulak, Kabupaten Aceh Timur";"ACEH";"24454";"Indonesia";" 085277863686";"4.8086975";"97.7973709";"https://maps.google.com/?cid=0x0:0x2d75d04c9d36626c"
"mall";"mall";"Kec. Peureulak Bar.";"Kabupaten Aceh Timur, Aceh";"Kabupaten Aceh Timur, Aceh";"ACEH";"";"Indonesia";"";"4.8352078";"97.8855303";"https://maps.google.com/?cid=0x0:0xf81bdf02e8d21720"
"mall";"Pusat Perbelanjaan";"Umat Mandiri";"RV6R+5F2, Keude Peureulak, Kec. Peureulak, Kabupaten Aceh Timur, Aceh 24461";"Keude Peureulak, Kec. Peureulak, Kabupaten Aceh Timur";"ACEH";"24461";"Indonesia";" 085212914788";"4.8103896";"97.891138";"https://maps.google.com/?cid=0x0:0x68b4f2c689249db2"
"mall";"Komplek perumahan";"pasar perlak";"RV5R+XJM, Keude Peureulak, Kec. Peureulak, Kabupaten Aceh Timur, Aceh 24461";"Keude Peureulak, Kec. Peureulak, Kabupaten Aceh Timur";"ACEH";"24461";"Indonesia";"";"4.8099589";"97.8915313";"https://maps.google.com/?cid=0x0:0xe98c31ace76421a1"
"mall";"Pusat Perbelanjaan";"Toko Sinar Baru (PakMus)";"RV5R+WMV, Keude Peureulak, Kec. Peureulak, Kabupaten Aceh Timur, Aceh 24453";"Keude Peureulak, Kec. Peureulak, Kabupaten Aceh Timur";"ACEH";"24453";"Indonesia";"";"4.8098528";"97.8916645";"https://maps.google.com/?cid=0x0:0x8bf7348321308cc8"
"mall";"Pusat Perbelanjaan";"Karisma";"Jl. Ranto Panjang, Snb Dalam, Kec. Rantau Peureulak, Kabupaten Aceh Timur, Aceh 24453";"Snb Dalam, Kec. Rantau Peureulak, Kabupaten Aceh Timur";"ACEH";"24453";"Indonesia";"";"4.8126838";"97.8185659";"https://maps.google.com/?cid=0x0:0x9e49a8b397d7c052"
"mall";"Pusat Perbelanjaan";"Aneka JUICE bang syeehh peureulak";"RV5R+FQG depan foto copi, jalur dua, Keude Peureulak, Kec. Peureulak, Kabupaten Aceh Timur, Aceh 24461";"jalur dua, Keude Peureulak, Kec. Peureulak, Kabupaten Aceh Timur";"ACEH";"24461";"Indonesia";" 081269360775";"4.8086993";"97.8919457";"https://maps.google.com/?cid=0x0:0xc9b1b13a90540a21"
"mall";"Pusat Perbelanjaan";"BMJ MART";"RV4R+GJW, Lhok Dalam, Kec. Peureulak, Kabupaten Aceh Timur, Aceh 24461";"Lhok Dalam, Kec. Peureulak, Kabupaten Aceh Timur";"ACEH";"24461";"Indonesia";"";"4.8063579";"97.8915766";"https://maps.google.com/?cid=0x0:0x2f5d6b1eccba90c8"
"mall";"Pasar";"Pasar Baru Peureulak";"RV7Q+9WG, Tualang, Kec. Peureulak, Kabupaten Aceh Timur, Aceh 24461";"Tualang, Kec. Peureulak, Kabupaten Aceh Timur";"ACEH";"24461";"Indonesia";"";"4.8134298";"97.8898258";"https://maps.google.com/?cid=0x0:0x3dab99837407dfa0"
"mall";"Kantor Perusahaan";"PT AZZAHIRA GROUP";"VVJ4+RRR, Alue Bu Jl. Baroh, Kec. Peureulak Bar., Kabupaten Aceh Timur, Aceh";"Kabupaten Aceh Timur, Aceh";"ACEH";"";"Indonesia";" 082364812930";"4.8821118";"97.8570158";"https://maps.google.com/?cid=0x0:0x691019312b09f081"
"mall";"Toko bahan makanan";"toko maju";"RV5R+CJP, Keude Peureulak, Kec. Peureulak, Kabupaten Aceh Timur, Aceh 24461";"Keude Peureulak, Kec. Peureulak, Kabupaten Aceh Timur";"ACEH";"24461";"Indonesia";"";"4.8085383";"97.8915208";"https://maps.google.com/?cid=0x0:0x709128cf8e37ea70"
"mall";"Toko Swalayan";"USAHA MULIA";"RV59+92J, Jl. Monisa, Blang Batee, Kec. Peureulak, Kabupaten Aceh Timur, Aceh 24458";"Jl. Monisa, Blang Batee, Kec. Peureulak, Kabupaten Aceh Timur";"ACEH";"24458";"Indonesia";"";"4.8084745";"97.8675196";"https://maps.google.com/?cid=0x0:0xe9e9b17436c85162"
"mall";"Komplek perumahan";"TPI";"RW22+4WP, Unnamed Road, Bangka Rimueng, Kec. Peureulak, Kabupaten Aceh Timur, Aceh 24458";"Unnamed Road, Bangka Rimueng, Kec. Peureulak, Kabupaten Aceh Timur";"ACEH";"24458";"Indonesia";"";"4.8003452";"97.9023215";"https://maps.google.com/?cid=0x0:0x448ddcf040ad18ca"
"mall";"Kedai Kopi";"Jamboe Reloeh";"QRVR+CHQ, Paya Meuligo, Kec. Peureulak, Kabupaten Aceh Timur, Aceh 24453";"Paya Meuligo, Kec. Peureulak, Kabupaten Aceh Timur";"ACEH";"24453";"Indonesia";" 082370328274";"4.7935927";"97.8414997";"https://maps.google.com/?cid=0x0:0x9007e84f8d494180"
"mall";"Toko Elektronik";"ODSEY CELL";"Jl. Medan - Banda Aceh, Pasir Putih, Kec. Peureulak, Kabupaten Aceh Timur, Aceh 24458";"Pasir Putih, Kec. Peureulak, Kabupaten Aceh Timur";"ACEH";"24458";"Indonesia";" 08116082222";"4.8148933";"97.8961179";"https://maps.google.com/?cid=0x0:0xc3e6f32e4d40d84a"
"mall";"mall";"Kec. Peureulak Tim.";"Kabupaten Aceh Timur, Aceh";"Kabupaten Aceh Timur, Aceh";"ACEH";"";"Indonesia";"";"4.7052499";"97.9061797";"https://maps.google.com/?cid=0x0:0x4e30e6079924e507"
"mall";"Toko";"Pasar Alue Lhok";"PW44+4M6, Seuneubok Teungoh, Kec. Peureulak Tim., Kabupaten Aceh Timur, Aceh 24452";"Seuneubok Teungoh, Kec. Peureulak Tim., Kabupaten Aceh Timur";"ACEH";"24452";"Indonesia";"";"4.7052874";"97.9066338";"https://maps.google.com/?cid=0x0:0xa92ba57ea7f62508"
"mall";"Toko Elektronik";"Mahligai ponsel";"PW54+H46, Alue Bu/Alue Lhok, Kec. Peureulak Tim., Kabupaten Aceh Timur, Aceh 24452";"Alue Bu/Alue Lhok, Kec. Peureulak Tim., Kabupaten Aceh Timur";"ACEH";"24452";"Indonesia";" 082276187852";"4.7089126";"97.9052793";"https://maps.google.com/?cid=0x0:0xfa1f31bb09b848f4"
"mall";"Toko";"ZCPERDANA";"Depan Telkom, Jl. Medan - Banda Aceh, Leuge, Kec. Peureulak, Kabupaten Aceh Timur, Aceh 24453";"Jl. Medan - Banda Aceh, Leuge, Kec. Peureulak, Kabupaten Aceh Timur";"ACEH";"24453";"Indonesia";" 082326778888";"4.8088447";"97.8949293";"https://maps.google.com/?cid=0x0:0x650a62cd2f87cbf5"
"mall";"Komplek perumahan";"TPI";"RW22+4WP, Unnamed Road, Bangka Rimueng, Kec. Peureulak, Kabupaten Aceh Timur, Aceh 24458";"Unnamed Road, Bangka Rimueng, Kec. Peureulak, Kabupaten Aceh Timur";"ACEH";"24458";"Indonesia";"";"4.8003452";"97.9023215";"https://maps.google.com/?cid=0x0:0x448ddcf040ad18ca"
"mall";"Komplek perumahan";"pasar perlak";"RV5R+XJM, Keude Peureulak, Kec. Peureulak, Kabupaten Aceh Timur, Aceh 24461";"Keude Peureulak, Kec. Peureulak, Kabupaten Aceh Timur";"ACEH";"24461";"Indonesia";"";"4.8099589";"97.8915313";"https://maps.google.com/?cid=0x0:0xe98c31ace76421a1"
"mall";"Toko";"UD. Agung DP";"Seuneubok Pidie, Kec. Peureulak, Kabupaten Aceh Timur, Aceh 24453";"Kec. Peureulak, Kabupaten Aceh Timur";"ACEH";"24453";"Indonesia";" 085273314877";"4.7494826";"97.8962347";"https://maps.google.com/?cid=0x0:0xcb07858d60a38ced"
"mall";"Pusat Perbelanjaan";"Toko Sinar Baru (PakMus)";"RV5R+WMV, Keude Peureulak, Kec. Peureulak, Kabupaten Aceh Timur, Aceh 24453";"Keude Peureulak, Kec. Peureulak, Kabupaten Aceh Timur";"ACEH";"24453";"Indonesia";"";"4.8098528";"97.8916645";"https://maps.google.com/?cid=0x0:0x8bf7348321308cc8"
"mall";"Kedai Kopi";"Jamboe Reloeh";"QRVR+CHQ, Paya Meuligo, Kec. Peureulak, Kabupaten Aceh Timur, Aceh 24453";"Paya Meuligo, Kec. Peureulak, Kabupaten Aceh Timur";"ACEH";"24453";"Indonesia";" 082370328274";"4.7935927";"97.8414997";"https://maps.google.com/?cid=0x0:0x9007e84f8d494180"
"mall";"Pusat Perbelanjaan";"VIKASHOP";"MV5M+48F, Seuneubok Aceh, Kec. Sungai Raya, Kabupaten Aceh Timur, Aceh 24452";"Seuneubok Aceh, Kec. Sungai Raya, Kabupaten Aceh Timur";"ACEH";"24452";"Indonesia";" 082274510459";"4.6578082";"97.8832823";"https://maps.google.com/?cid=0x0:0x764519f3eeeb21ab"
"mall";"Pasar";"Pasar Baru Peureulak";"RV7Q+9WG, Tualang, Kec. Peureulak, Kabupaten Aceh Timur, Aceh 24461";"Tualang, Kec. Peureulak, Kabupaten Aceh Timur";"ACEH";"24461";"Indonesia";"";"4.8134298";"97.8898258";"https://maps.google.com/?cid=0x0:0x3dab99837407dfa0"
"mall";"Pusat Perbelanjaan";"Aneka JUICE bang syeehh peureulak";"RV5R+FQG depan foto copi, jalur dua, Keude Peureulak, Kec. Peureulak, Kabupaten Aceh Timur, Aceh 24461";"jalur dua, Keude Peureulak, Kec. Peureulak, Kabupaten Aceh Timur";"ACEH";"24461";"Indonesia";" 081269360775";"4.8086993";"97.8919457";"https://maps.google.com/?cid=0x0:0xc9b1b13a90540a21"
"mall";"Toko bahan makanan";"toko maju";"RV5R+CJP, Keude Peureulak, Kec. Peureulak, Kabupaten Aceh Timur, Aceh 24461";"Keude Peureulak, Kec. Peureulak, Kabupaten Aceh Timur";"ACEH";"24461";"Indonesia";"";"4.8085383";"97.8915208";"https://maps.google.com/?cid=0x0:0x709128cf8e37ea70"
"mall";"Toko";"Toko Fathan";"QVXR+QH5, Lhok Dalam, Kec. Peureulak, Kabupaten Aceh Timur, Aceh 24453";"Lhok Dalam, Kec. Peureulak, Kabupaten Aceh Timur";"ACEH";"24453";"Indonesia";" 085270684778";"4.7993853";"97.891473";"https://maps.google.com/?cid=0x0:0xed3d4e20f93246b6"
"mall";"mall";"Aceh 24452";"Kabupaten Aceh Timur, Aceh";"Kabupaten Aceh Timur, Aceh";"ACEH";"";"Indonesia";"";"4.6428925";"97.8286368";"https://maps.google.com/?cid=0x0:0xab6d8837867af58f"
"mall";"Pusat Perbelanjaan";"Suzuya Mall Langsa";"FXR3+XP2, Jl. Ahmad Yani No.2, Paya Bujok Seuleumak, Kec. Langsa Baro, Kota Langsa, Aceh 24355";"Jl. Ahmad Yani No.2, Paya Bujok Seuleumak, Kec. Langsa Baro, Kota Langsa";"ACEH";"24355";"Indonesia";" 06414841677";"4.4924408";"97.9549988";"https://maps.google.com/?cid=0x0:0xd2472b52ce11e561"
"mall";"Toko";"Pasar Alue Lhok";"PW44+4M6, Seuneubok Teungoh, Kec. Peureulak Tim., Kabupaten Aceh Timur, Aceh 24452";"Seuneubok Teungoh, Kec. Peureulak Tim., Kabupaten Aceh Timur";"ACEH";"24452";"Indonesia";"";"4.7052874";"97.9066338";"https://maps.google.com/?cid=0x0:0xa92ba57ea7f62508"
"mall";"Pusat Perbelanjaan";"VIKASHOP";"MV5M+48F, Seuneubok Aceh, Kec. Sungai Raya, Kabupaten Aceh Timur, Aceh 24452";"Seuneubok Aceh, Kec. Sungai Raya, Kabupaten Aceh Timur";"ACEH";"24452";"Indonesia";" 082274510459";"4.6578082";"97.8832823";"https://maps.google.com/?cid=0x0:0x764519f3eeeb21ab"
"mall";"Toko Elektronik";"Mahligai ponsel";"PW54+H46, Alue Bu/Alue Lhok, Kec. Peureulak Tim., Kabupaten Aceh Timur, Aceh 24452";"Alue Bu/Alue Lhok, Kec. Peureulak Tim., Kabupaten Aceh Timur";"ACEH";"24452";"Indonesia";" 082276187852";"4.7089126";"97.9052793";"https://maps.google.com/?cid=0x0:0xfa1f31bb09b848f4"
"mall";"Toko Obat-Obatan Herbal";"STOCKIST PT.HPAI HNI HALAL MART";"RQ4X+MW7, Buket Pala Bsp, Kec. Rantau Peureulak, Kabupaten Aceh Timur, Aceh 24453";"Buket Pala Bsp, Kec. Rantau Peureulak, Kabupaten Aceh Timur";"ACEH";"24453";"Indonesia";" 081394701259";"4.8066617";"97.7997857";"https://maps.google.com/?cid=0x0:0xe1de8391acd257e5"
"mall";"Pusat Perbelanjaan";"Glosir m.zein";"MWM9+J28, Jl. Medan Banda Aceh, Geulumpang Payong, Kec. Sungai Raya, Kabupaten Aceh Timur, Aceh 24452";"Jl. Medan Banda Aceh, Geulumpang Payong, Kec. Sungai Raya, Kabupaten Aceh Timur";"ACEH";"24452";"Indonesia";" 085277005955";"4.6840295";"97.9175933";"https://maps.google.com/?cid=0x0:0x82ea9adbb8fa0d7a"
"mall";"Toko Ponsel";"Sayed Raya Ponsel";"MWF8+P5X, Jl. Medan Banda Aceh, Labuhan Keude, Kec. Sungai Raya, Kabupaten Aceh Timur, Aceh 24452";"Jl. Medan Banda Aceh, Labuhan Keude, Kec. Sungai Raya, Kabupaten Aceh Timur";"ACEH";"24452";"Indonesia";" 085207070590";"4.6743616";"97.9154767";"https://maps.google.com/?cid=0x0:0x1dc38a285cead23"
"mall";"Pusat Perbelanjaan";"Miniso Suzuya Langsa";"FXR3+XWW Suzuya Mall, Paya Bujok Seuleumak, Kec. Langsa Baro, Kota Langsa, Aceh";"Kota Langsa, Aceh";"ACEH";"";"Indonesia";"";"4.4924883";"97.9548288";"https://maps.google.com/?cid=0x0:0xe308159c12fb71fb"
"mall";"Pusat Perbelanjaan";"Karisma";"Jl. Ranto Panjang, Snb Dalam, Kec. Rantau Peureulak, Kabupaten Aceh Timur, Aceh 24453";"Snb Dalam, Kec. Rantau Peureulak, Kabupaten Aceh Timur";"ACEH";"24453";"Indonesia";"";"4.8126838";"97.8185659";"https://maps.google.com/?cid=0x0:0x9e49a8b397d7c052"
"mall";"Minimarket";"UD Ikra dan Nazira";"PVPG+Q9C, Babah Krueng, Kec. Peureulak Tim., Kabupaten Aceh Timur, Aceh 24452";"Babah Krueng, Kec. Peureulak Tim., Kabupaten Aceh Timur";"ACEH";"24452";"Indonesia";" 085362968561";"4.7369379";"97.8758869";"https://maps.google.com/?cid=0x0:0xf4117a35466c3df1"
"mall";"Pusat Perbelanjaan";"Intan shopp";"RQ3R+GMJ, Punti Payong, Kec. Rantau Peureulak, Kabupaten Aceh Timur, Aceh 24454";"Punti Payong, Kec. Rantau Peureulak, Kabupaten Aceh Timur";"ACEH";"24454";"Indonesia";" 082278895045";"4.8038482";"97.7916322";"https://maps.google.com/?cid=0x0:0x64d1445b6b482a15"
"mall";"Pasar";"Kacang Tumbuk "ABAH"";"Jl. Medan Banda Aceh, Aramiyah, Kec. Birem Bayeun, Kabupaten Aceh Timur, Aceh 24452";"Aramiyah, Kec. Birem Bayeun, Kabupaten Aceh Timur";"ACEH";"24452";"Indonesia";" 082273761922";"4.5617827";"97.9277349";"https://maps.google.com/?cid=0x0:0x68605c0f6cda67e6"
"mall";"Pusat Perbelanjaan";"Aarstorelangsa";"GW7W+M2H, Unnamed Road, Alue Dua, Kec. Langsa Baro, Kota Langsa, Aceh 24452";"Unnamed Road, Alue Dua, Kec. Langsa Baro, Kota Langsa";"ACEH";"24452";"Indonesia";" 082285252958";"4.5141929";"97.945109";"https://maps.google.com/?cid=0x0:0x94c3f4826fcf9212"
"mall";"mall";"Aceh 24453";"Kabupaten Aceh Timur, Aceh";"Kabupaten Aceh Timur, Aceh";"ACEH";"";"Indonesia";"";"4.7563162";"97.7742702";"https://maps.google.com/?cid=0x0:0x3f249fb702225b43"
"mall";"Pusat Perbelanjaan";"Karisma";"Jl. Ranto Panjang, Snb Dalam, Kec. Rantau Peureulak, Kabupaten Aceh Timur, Aceh 24453";"Snb Dalam, Kec. Rantau Peureulak, Kabupaten Aceh Timur";"ACEH";"24453";"Indonesia";"";"4.8126838";"97.8185659";"https://maps.google.com/?cid=0x0:0x9e49a8b397d7c052"
"mall";"Pusat Perbelanjaan";"Umat Mandiri";"RV6R+5F2, Keude Peureulak, Kec. Peureulak, Kabupaten Aceh Timur, Aceh 24461";"Keude Peureulak, Kec. Peureulak, Kabupaten Aceh Timur";"ACEH";"24461";"Indonesia";" 085212914788";"4.8103896";"97.891138";"https://maps.google.com/?cid=0x0:0x68b4f2c689249db2"
"mall";"Toko";"ZCPERDANA";"Depan Telkom, Jl. Medan - Banda Aceh, Leuge, Kec. Peureulak, Kabupaten Aceh Timur, Aceh 24453";"Jl. Medan - Banda Aceh, Leuge, Kec. Peureulak, Kabupaten Aceh Timur";"ACEH";"24453";"Indonesia";" 082326778888";"4.8088447";"97.8949293";"https://maps.google.com/?cid=0x0:0x650a62cd2f87cbf5"
"mall";"Pusat Perbelanjaan";"BMJ MART";"RV4R+GJW, Lhok Dalam, Kec. Peureulak, Kabupaten Aceh Timur, Aceh 24461";"Lhok Dalam, Kec. Peureulak, Kabupaten Aceh Timur";"ACEH";"24461";"Indonesia";"";"4.8063579";"97.8915766";"https://maps.google.com/?cid=0x0:0x2f5d6b1eccba90c8"
"mall";"Komplek perumahan";"pasar perlak";"RV5R+XJM, Keude Peureulak, Kec. Peureulak, Kabupaten Aceh Timur, Aceh 24461";"Keude Peureulak, Kec. Peureulak, Kabupaten Aceh Timur";"ACEH";"24461";"Indonesia";"";"4.8099589";"97.8915313";"https://maps.google.com/?cid=0x0:0xe98c31ace76421a1"
"mall";"Toko Obat-Obatan Herbal";"STOCKIST PT.HPAI HNI HALAL MART";"RQ4X+MW7, Buket Pala Bsp, Kec. Rantau Peureulak, Kabupaten Aceh Timur, Aceh 24453";"Buket Pala Bsp, Kec. Rantau Peureulak, Kabupaten Aceh Timur";"ACEH";"24453";"Indonesia";" 081394701259";"4.8066617";"97.7997857";"https://maps.google.com/?cid=0x0:0xe1de8391acd257e5"
"mall";"Pusat Perbelanjaan";"Toko Sinar Baru (PakMus)";"RV5R+WMV, Keude Peureulak, Kec. Peureulak, Kabupaten Aceh Timur, Aceh 24453";"Keude Peureulak, Kec. Peureulak, Kabupaten Aceh Timur";"ACEH";"24453";"Indonesia";"";"4.8098528";"97.8916645";"https://maps.google.com/?cid=0x0:0x8bf7348321308cc8"
"mall";"Kafe";"Bisnis offline";"Jl.Ranto Peureulak, Kec. Peureulak, Aceh 24453";"Kec. Peureulak";"ACEH";"24453";"Indonesia";" 082228966976";"4.8196323";"97.8400724";"https://maps.google.com/?cid=0x0:0x2d030b767388d4db"
"mall";"Pasar";"Pasar Baru Peureulak";"RV7Q+9WG, Tualang, Kec. Peureulak, Kabupaten Aceh Timur, Aceh 24461";"Tualang, Kec. Peureulak, Kabupaten Aceh Timur";"ACEH";"24461";"Indonesia";"";"4.8134298";"97.8898258";"https://maps.google.com/?cid=0x0:0x3dab99837407dfa0"
"mall";"Komplek perumahan";"TPI";"RW22+4WP, Unnamed Road, Bangka Rimueng, Kec. Peureulak, Kabupaten Aceh Timur, Aceh 24458";"Unnamed Road, Bangka Rimueng, Kec. Peureulak, Kabupaten Aceh Timur";"ACEH";"24458";"Indonesia";"";"4.8003452";"97.9023215";"https://maps.google.com/?cid=0x0:0x448ddcf040ad18ca"
"mall";"Pusat Perbelanjaan";"Aneka JUICE bang syeehh peureulak";"RV5R+FQG depan foto copi, jalur dua, Keude Peureulak, Kec. Peureulak, Kabupaten Aceh Timur, Aceh 24461";"jalur dua, Keude Peureulak, Kec. Peureulak, Kabupaten Aceh Timur";"ACEH";"24461";"Indonesia";" 081269360775";"4.8086993";"97.8919457";"https://maps.google.com/?cid=0x0:0xc9b1b13a90540a21"
"mall";"Toko bahan makanan";"toko maju";"RV5R+CJP, Keude Peureulak, Kec. Peureulak, Kabupaten Aceh Timur, Aceh 24461";"Keude Peureulak, Kec. Peureulak, Kabupaten Aceh Timur";"ACEH";"24461";"Indonesia";"";"4.8085383";"97.8915208";"https://maps.google.com/?cid=0x0:0x709128cf8e37ea70"
"mall";"Pusat Perbelanjaan";"Intan shopp";"RQ3R+GMJ, Punti Payong, Kec. Rantau Peureulak, Kabupaten Aceh Timur, Aceh 24454";"Punti Payong, Kec. Rantau Peureulak, Kabupaten Aceh Timur";"ACEH";"24454";"Indonesia";" 082278895045";"4.8038482";"97.7916322";"https://maps.google.com/?cid=0x0:0x64d1445b6b482a15"
"mall";"mall";"Sumatera Utara 20991";"Kabupaten Serdang Bedagai, Sumatera Utara";"Kabupaten Serdang Bedagai, Sumatera Utara";"ACEH";"";"Indonesia";"";"3.3178663";"98.9907938";"https://maps.google.com/?cid=0x0:0xeb239dc4750960a6"
"mall";"Pasar Petani";"Toko Serbajadi";"CG5F+69G, Lokop, Serba Jadi, Kabupaten Aceh Timur, Aceh 24392";"Lokop, Serba Jadi, Kabupaten Aceh Timur";"ACEH";"24392";"Indonesia";"";"4.4080832";"97.5234533";"https://maps.google.com/?cid=0x0:0x49de806b5e6eea81"
"mall";"mall";"Serba Jadi";"Kabupaten Aceh Timur, Aceh";"Kabupaten Aceh Timur, Aceh";"ACEH";"";"Indonesia";"";"4.4415515";"97.5247243";"https://maps.google.com/?cid=0x0:0x4039d80b220e9f0"
"mall";"Pusat Perbelanjaan";"Plaza Aceh";"Jl. T. Hasan Dek Jl. Teuku Iskandar No.49, Beurawe, Kec. Kuta Alam, Kota Banda Aceh, Aceh 23127";"Beurawe, Kec. Kuta Alam, Kota Banda Aceh";"ACEH";"23127";"Indonesia";" 08116899890";"5.5547881";"95.3308683";"https://maps.google.com/?cid=0x0:0x45c9eb2ec9e62a76"
"mall";"mall";"Telege jernih waserda";"FGG8+6FC, Rampah, Serba Jadi, Kabupaten Aceh Timur, Aceh";"Kabupaten Aceh Timur, Aceh";"ACEH";"";"Indonesia";"";"4.475542";"97.516101";"https://maps.google.com/?cid=0x0:0x38197262bd02f2c9"
"mall";"Toko bahan makanan";"toko sukses jaya";"9W3R+7F7, Unnamed Road, Kuala Bali, Kec. Serbajadi, Kabupaten Serdang Bedagai, Sumatera Utara 20991";"Unnamed Road, Kuala Bali, Kec. Serbajadi, Kabupaten Serdang Bedagai";"ACEH";"20991";"Indonesia";" 082176760806";"3.3531749";"98.9411641";"https://maps.google.com/?cid=0x0:0xee3f1fa59a4f5243"
"mall";"Toko Makanan";"Kedai Sada Roha";"8WQ9+MHF, Klp. Bajohom, Kec. Serbajadi, Kabupaten Serdang Bedagai, Sumatera Utara 20984";"Klp. Bajohom, Kec. Serbajadi, Kabupaten Serdang Bedagai";"ACEH";"20984";"Indonesia";"";"3.339186";"98.918932";"https://maps.google.com/?cid=0x0:0xb033c0a6d28cf668"
"mall";"Toko bahan makanan";"Suci Gobal Shop";"CW7J+62V, Dsn III, Pulau Tagor, Serbajadi, Serdang Bedagai Regency, North Sumatra 20991";"Dsn III, Pulau Tagor, Serbajadi, Serdang Bedagai Regency";"ACEH";"20991";"Indonesia";" 081396464788";"3.4131048";"98.9300538";"https://maps.google.com/?cid=0x0:0xed3f2ec128e625d1"
"mall";"Toko Ponsel";"Top gear";"9WM9+8X9, Jl. Lintas Sumatera, Serba Jadi, Kec. Serbajadi, Kabupaten Serdang Bedagai, Sumatera Utara 20991";"Jl. Lintas Sumatera, Serba Jadi, Kec. Serbajadi, Kabupaten Serdang Bedagai";"ACEH";"20991";"Indonesia";" 061884579";"3.3832888";"98.919994";"https://maps.google.com/?cid=0x0:0xbd7ceed5aa4185e4"
"mall";"Toko Swalayan";"Kedai kak ulan";"9WXM+QW8, Pulau Tagor bangun sari, dusun 3, Kec. Serbajadi, Kabupaten Serdang Bedagai, Sumatera Utara 20991";"Pulau Tagor bangun sari, dusun 3, Kec. Serbajadi, Kabupaten Serdang Bedagai";"ACEH";"20991";"Indonesia";" 081269665404";"3.3994231";"98.9348213";"https://maps.google.com/?cid=0x0:0x5b871d64030e037d"
"mall";"Pusat Perbelanjaan";"Pasar Tradisional";"82FQ+GJ3, Unnamed Road, Martebing, Kec. Dolok Masihul, Kabupaten Serdang Bedagai, Sumatera Utara 20991";"Unnamed Road, Martebing, Kec. Dolok Masihul, Kabupaten Serdang Bedagai";"ACEH";"20991";"Indonesia";"";"3.3237518";"99.0390613";"https://maps.google.com/?cid=0x0:0x44ebf9f7fd554235"
"mall";"Toko umum";"Kios Ferry";"9W8J+RXG, Tj. Harap, Kec. Serbajadi, Kabupaten Serdang Bedagai, Sumatera Utara 20991";"Tj. Harap, Kec. Serbajadi, Kabupaten Serdang Bedagai";"ACEH";"20991";"Indonesia";"";"3.3670533";"98.9324534";"https://maps.google.com/?cid=0x0:0xa2e374295e0eb758"
"mall";"Pasar";"Pusat Pasar";"82M8+Q75, Pekan Dolok Masihul, Kec. Dolok Masihul, Kabupaten Serdang Bedagai, Sumatera Utara 20991";"Pekan Dolok Masihul, Kec. Dolok Masihul, Kabupaten Serdang Bedagai";"ACEH";"20991";"Indonesia";"";"3.3343809";"99.0157387";"https://maps.google.com/?cid=0x0:0x28129800918cdaf6"
"mall";"Kafetaria";"Ria All Shop";"72M3+36, Dolok Sagala, Kec. Dolok Masihul, Kabupaten Serdang Bedagai, Sumatera Utara 20991";"Dolok Sagala, Kec. Dolok Masihul, Kabupaten Serdang Bedagai";"ACEH";"20991";"Indonesia";" 082267157788";"3.2826852";"99.0031001";"https://maps.google.com/?cid=0x0:0x4d6777e400249f1c"
"mall";"Toko";"ZCPERDANA";"Depan Telkom, Jl. Medan - Banda Aceh, Leuge, Kec. Peureulak, Kabupaten Aceh Timur, Aceh 24453";"Jl. Medan - Banda Aceh, Leuge, Kec. Peureulak, Kabupaten Aceh Timur";"ACEH";"24453";"Indonesia";" 082326778888";"4.8088447";"97.8949293";"https://maps.google.com/?cid=0x0:0x650a62cd2f87cbf5"
"mall";"Pusat Perbelanjaan";"Umat Mandiri";"RV6R+5F2, Keude Peureulak, Kec. Peureulak, Kabupaten Aceh Timur, Aceh 24461";"Keude Peureulak, Kec. Peureulak, Kabupaten Aceh Timur";"ACEH";"24461";"Indonesia";" 085212914788";"4.8103896";"97.891138";"https://maps.google.com/?cid=0x0:0x68b4f2c689249db2"
"mall";"mall";"Aceh 24461";"Kabupaten Aceh Timur, Aceh";"Kabupaten Aceh Timur, Aceh";"ACEH";"";"Indonesia";"";"4.950275";"97.6792293";"https://maps.google.com/?cid=0x0:0x40ce92432b582121"
"mall";"Komplek perumahan";"pasar perlak";"RV5R+XJM, Keude Peureulak, Kec. Peureulak, Kabupaten Aceh Timur, Aceh 24461";"Keude Peureulak, Kec. Peureulak, Kabupaten Aceh Timur";"ACEH";"24461";"Indonesia";"";"4.8099589";"97.8915313";"https://maps.google.com/?cid=0x0:0xe98c31ace76421a1"
"mall";"Komplek perumahan";"TPI";"RW22+4WP, Unnamed Road, Bangka Rimueng, Kec. Peureulak, Kabupaten Aceh Timur, Aceh 24458";"Unnamed Road, Bangka Rimueng, Kec. Peureulak, Kabupaten Aceh Timur";"ACEH";"24458";"Indonesia";"";"4.8003452";"97.9023215";"https://maps.google.com/?cid=0x0:0x448ddcf040ad18ca"
"mall";"Pusat Perbelanjaan";"Aneka JUICE bang syeehh peureulak";"RV5R+FQG depan foto copi, jalur dua, Keude Peureulak, Kec. Peureulak, Kabupaten Aceh Timur, Aceh 24461";"jalur dua, Keude Peureulak, Kec. Peureulak, Kabupaten Aceh Timur";"ACEH";"24461";"Indonesia";" 081269360775";"4.8086993";"97.8919457";"https://maps.google.com/?cid=0x0:0xc9b1b13a90540a21"
"mall";"Pusat Perbelanjaan";"Karisma";"Jl. Ranto Panjang, Snb Dalam, Kec. Rantau Peureulak, Kabupaten Aceh Timur, Aceh 24453";"Snb Dalam, Kec. Rantau Peureulak, Kabupaten Aceh Timur";"ACEH";"24453";"Indonesia";"";"4.8126838";"97.8185659";"https://maps.google.com/?cid=0x0:0x9e49a8b397d7c052"
"mall";"Toko Swalayan";"Suzuya Mall Banda Aceh";"Jl. Teuku Umar, Lamtemen Tim., Kec. Jaya Baru, Kota Banda Aceh, Aceh 23232";"Lamtemen Tim., Kec. Jaya Baru, Kota Banda Aceh";"ACEH";"23232";"Indonesia";" 06518011022";"5.5377324";"95.3068005";"https://maps.google.com/?cid=0x0:0xc5c56efc74442dea"
"mall";"Toko bahan makanan";"toko maju";"RV5R+CJP, Keude Peureulak, Kec. Peureulak, Kabupaten Aceh Timur, Aceh 24461";"Keude Peureulak, Kec. Peureulak, Kabupaten Aceh Timur";"ACEH";"24461";"Indonesia";"";"4.8085383";"97.8915208";"https://maps.google.com/?cid=0x0:0x709128cf8e37ea70"
"mall";"Pasar";"Pasar Baru Peureulak";"RV7Q+9WG, Tualang, Kec. Peureulak, Kabupaten Aceh Timur, Aceh 24461";"Tualang, Kec. Peureulak, Kabupaten Aceh Timur";"ACEH";"24461";"Indonesia";"";"4.8134298";"97.8898258";"https://maps.google.com/?cid=0x0:0x3dab99837407dfa0"
"mall";"Toko Pakaian";"Kios Cek Kir Kapai Baro";"XMCM+PJ2, Kapai Baro, Kec. Darul Aman, Kabupaten Aceh Timur, Aceh 24461";"Kapai Baro, Kec. Darul Aman, Kabupaten Aceh Timur";"ACEH";"24461";"Indonesia";"";"4.9717629";"97.6840239";"https://maps.google.com/?cid=0x0:0x2690e08da6ad62f3"
"mall";"Pasar Petani";"Toko Serbajadi";"CG5F+69G, Lokop, Serba Jadi, Kabupaten Aceh Timur, Aceh 24392";"Lokop, Serba Jadi, Kabupaten Aceh Timur";"ACEH";"24392";"Indonesia";"";"4.4080832";"97.5234533";"https://maps.google.com/?cid=0x0:0x49de806b5e6eea81"
"mall";"Toko";"UD. Agung DP";"Seuneubok Pidie, Kec. Peureulak, Kabupaten Aceh Timur, Aceh 24453";"Kec. Peureulak, Kabupaten Aceh Timur";"ACEH";"24453";"Indonesia";" 085273314877";"4.7494826";"97.8962347";"https://maps.google.com/?cid=0x0:0xcb07858d60a38ced"
"mall";"Pusat Perbelanjaan";"Toko Sinar Baru (PakMus)";"RV5R+WMV, Keude Peureulak, Kec. Peureulak, Kabupaten Aceh Timur, Aceh 24453";"Keude Peureulak, Kec. Peureulak, Kabupaten Aceh Timur";"ACEH";"24453";"Indonesia";"";"4.8098528";"97.8916645";"https://maps.google.com/?cid=0x0:0x8bf7348321308cc8"
"mall";"Pusat Perbelanjaan";"Karona";"Pante Panah, Kec. Pante Bidari, Kabupaten Aceh Timur, Aceh 24458";"Kec. Pante Bidari, Kabupaten Aceh Timur";"ACEH";"24458";"Indonesia";" 081269022138";"5.0740494";"97.5173716";"https://maps.google.com/?cid=0x0:0x55d954647f1346c7"
"mall";"Toko Elektronik";"Simpang Jernih";"Jl. Letjend Suprapto No.1, Kota Kuala Simpang, Kabupaten Aceh Tamiang, Aceh 24456";"Kota Kuala Simpang, Kabupaten Aceh Tamiang";"ACEH";"24456";"Indonesia";" 085296760321";"4.2838362";"98.058113";"https://maps.google.com/?cid=0x0:0x1fd4596e94b18cb0"
"mall";"mall";"Aceh 24458";"Kabupaten Aceh Timur, Aceh";"Kabupaten Aceh Timur, Aceh";"ACEH";"";"Indonesia";"";"4.9131571";"97.5463885";"https://maps.google.com/?cid=0x0:0x82c363c7b075e66"
"mall";"Pusat Perbelanjaan";"Joel88mp";"Dusun Matang Teungoh, Matang Pudeng, Kabupaten Aceh Timur, Aceh 24461";"Matang Pudeng, Kabupaten Aceh Timur";"ACEH";"24461";"Indonesia";" 082163400949";"5.0920095";"97.48649";"https://maps.google.com/?cid=0x0:0x92e3544dd65c77f5"
"mall";"Toko Pakaian";"Aini Shopy";"4H5H+GHR, Bantayan, Kec. Simpang Ulim, Kabupaten Aceh Timur, Aceh";"Kabupaten Aceh Timur, Aceh";"ACEH";"";"Indonesia";" 082368983057";"5.1088508";"97.5788975";"https://maps.google.com/?cid=0x0:0x5ed4f09955fd0824"
"mall";"Pusat Perbelanjaan";"HORAS Lhok Nibong";"3GG8+2VM, Jl. Medan Banda Aceh, Pante Panah, Kec. Pante Bidari, Kabupaten Aceh Timur, Aceh 24458";"Jl. Medan Banda Aceh, Pante Panah, Kec. Pante Bidari, Kabupaten Aceh Timur";"ACEH";"24458";"Indonesia";" 085296540812";"5.0750768";"97.5171761";"https://maps.google.com/?cid=0x0:0xc62bb47acad6d117"
"mall";"mall";"Kec. Simpang Jernih";"Kabupaten Aceh Timur, Aceh";"Kabupaten Aceh Timur, Aceh";"ACEH";"";"Indonesia";"";"4.3570775";"97.7542024";"https://maps.google.com/?cid=0x0:0xa818dd15bbd6905e"
"mall";"Pusat Perbelanjaan";"TOKO All-MODIS";"T.hamzah bendahara, Kota Panton Labu, Kec. Tanah Jambo Aye, Kabupaten Aceh Utara, Aceh 24394";"Kota Panton Labu, Kec. Tanah Jambo Aye, Kabupaten Aceh Utara";"ACEH";"24394";"Indonesia";" 082360092920";"5.1163732";"97.4589145";"https://maps.google.com/?cid=0x0:0x191cf3b6b75fc329"
"mall";"Pusat Perbelanjaan";"Pelopor";"WJG3+XW, Blang Nisam, Kec. Indra Makmur, Kabupaten Aceh Timur, Aceh";"Kabupaten Aceh Timur, Aceh";"ACEH";"";"Indonesia";"";"4.9274313";"97.6048611";"https://maps.google.com/?cid=0x0:0x4471e6e5626b9c23"
"mall";"Toko umum";"UD.BUAH CEK FRANS";"3GWR+C56, Kampong Baro, Kec. Simpang Ulim, Kabupaten Aceh Timur, Aceh 24458";"Kampong Baro, Kec. Simpang Ulim, Kabupaten Aceh Timur";"ACEH";"24458";"Indonesia";" 082276022712";"5.0960471";"97.540393";"https://maps.google.com/?cid=0x0:0x8c2f58163b8839ee"
"mall";"Pusat Perbelanjaan";"Panton Labu";"Kota Panton Labu, Kec. Tanah Jambo Aye, Kabupaten Aceh Utara, Aceh 24394";"Kec. Tanah Jambo Aye, Kabupaten Aceh Utara";"ACEH";"24394";"Indonesia";" 082311476044";"5.1160864";"97.4590588";"https://maps.google.com/?cid=0x0:0xbda1620cc992411f"
"mall";"Pasar";"Maulana Grosir";"5G63+J6P, Matang Guru, Kec. Madat, Kabupaten Aceh Timur, Aceh 24458";"Matang Guru, Kec. Madat, Kabupaten Aceh Timur";"ACEH";"24458";"Indonesia";"";"5.1615906";"97.5030759";"https://maps.google.com/?cid=0x0:0x4948fb7b7578d7b1"
"mall";"Toko Ponsel";"Duta Ponsel";"Jl. PTPN I No.3, Alue Ie Mirah, Kec. Indra Makmur, Kabupaten Aceh Timur, Aceh 24458";"Alue Ie Mirah, Kec. Indra Makmur, Kabupaten Aceh Timur";"ACEH";"24458";"Indonesia";" 085277770071";"4.9173115";"97.5924891";"https://maps.google.com/?cid=0x0:0x65fc85dd0d17af74"
"mall";"Pusat Perbelanjaan";"jasa baru";"2JQG+376, Jl. Alue Ie Mirah, Ulee Ateung, Kec, indra makmu, Kabupaten Aceh Timur, Aceh 24458";"Jl. Alue Ie Mirah, Ulee Ateung, Kec, indra makmu, Kabupaten Aceh Timur";"ACEH";"24458";"Indonesia";" 085262045114";"5.0376547";"97.6256416";"https://maps.google.com/?cid=0x0:0x46416f0a5f29a7e5"
"mall";"Toko umum";"UD.BUAH CEK FRANS";"3GWR+C56, Kampong Baro, Kec. Simpang Ulim, Kabupaten Aceh Timur, Aceh 24458";"Kampong Baro, Kec. Simpang Ulim, Kabupaten Aceh Timur";"ACEH";"24458";"Indonesia";" 082276022712";"5.0960471";"97.540393";"https://maps.google.com/?cid=0x0:0x8c2f58163b8839ee"
"mall";"Toko Pakaian";"Aini Shopy";"4H5H+GHR, Bantayan, Kec. Simpang Ulim, Kabupaten Aceh Timur, Aceh";"Kabupaten Aceh Timur, Aceh";"ACEH";"";"Indonesia";" 082368983057";"5.1088508";"97.5788975";"https://maps.google.com/?cid=0x0:0x5ed4f09955fd0824"
"mall";"mall";"Kec. Simpang Ulim";"Kabupaten Aceh Timur, Aceh";"Kabupaten Aceh Timur, Aceh";"ACEH";"";"Indonesia";"";"5.0970632";"97.5398746";"https://maps.google.com/?cid=0x0:0x449fe38554505818"
"mall";"Kantor Pemda";"Kantor Camat Simpang Ulim";"3GWJ+3XC, Pucok Alue Dua, Kec. Simpang Ulim, Kabupaten Aceh Timur, Aceh 24458";"Pucok Alue Dua, Kec. Simpang Ulim, Kabupaten Aceh Timur";"ACEH";"24458";"Indonesia";"";"5.095186";"97.5323886";"https://maps.google.com/?cid=0x0:0x9922cd3016f1910a"
"mall";"Toko";"UD.Bina usaha";"3GWR+W27, Kampong Baro, Kec. Simpang Ulim, Kabupaten Aceh Timur, Aceh 24458";"Kampong Baro, Kec. Simpang Ulim, Kabupaten Aceh Timur";"ACEH";"24458";"Indonesia";" 082268158338";"5.0972807";"97.5400557";"https://maps.google.com/?cid=0x0:0xea37a5b0c9a2f7e1"
"mall";"Masjid";"Masjid Ba'alawi";"Masjid Ba'alawi Aceh, Pucok Alue Dua, Kec. Simpang Ulim, Kabupaten Aceh Timur, Aceh 24458";"Pucok Alue Dua, Kec. Simpang Ulim, Kabupaten Aceh Timur";"ACEH";"24458";"Indonesia";"";"5.0916443";"97.5270331";"https://maps.google.com/?cid=0x0:0xa4066f8141b4b43a"
"mall";"Pusat Perbelanjaan";"Karona";"Pante Panah, Kec. Pante Bidari, Kabupaten Aceh Timur, Aceh 24458";"Kec. Pante Bidari, Kabupaten Aceh Timur";"ACEH";"24458";"Indonesia";" 081269022138";"5.0740494";"97.5173716";"https://maps.google.com/?cid=0x0:0x55d954647f1346c7"
"mall";"Pembangunan Perumahan";"Ud Sejahtera";"3GG8+9Q2, Jl. Medan Banda Aceh, Pante Panah, Kec. Pante Bidari, Kabupaten Aceh Timur, Aceh 24458";"Jl. Medan Banda Aceh, Pante Panah, Kec. Pante Bidari, Kabupaten Aceh Timur";"ACEH";"24458";"Indonesia";" 085373178311";"5.0758974";"97.5169023";"https://maps.google.com/?cid=0x0:0xb247273d2cb5f32f"
"mall";"Pusat Perbelanjaan";"HORAS Lhok Nibong";"3GG8+2VM, Jl. Medan Banda Aceh, Pante Panah, Kec. Pante Bidari, Kabupaten Aceh Timur, Aceh 24458";"Jl. Medan Banda Aceh, Pante Panah, Kec. Pante Bidari, Kabupaten Aceh Timur";"ACEH";"24458";"Indonesia";" 085296540812";"5.0750768";"97.5171761";"https://maps.google.com/?cid=0x0:0xc62bb47acad6d117"
"mall";"Grosir Perlengkapan Rumah Tangga";"Grosir Toko yanti olshop";"3GVR+GQ, Peulalu, Kec. Simpang Ulim, Kabupaten Aceh Timur, Aceh 24458";"Peulalu, Kec. Simpang Ulim, Kabupaten Aceh Timur";"ACEH";"24458";"Indonesia";" 081375763006";"5.0938372";"97.5419412";"https://maps.google.com/?cid=0x0:0xefc670f8034aa614"
"mall";"Toko Kosmetik";"Ayu cosmetic";"3GCF+PJ7, Mns teungoh, Kec. Pante Bidari, Kabupaten Aceh Timur, Aceh 24458";"Mns teungoh, Kec. Pante Bidari, Kabupaten Aceh Timur";"ACEH";"24458";"Indonesia";" 082253244668";"5.0717778";"97.5240381";"https://maps.google.com/?cid=0x0:0x3a1fd9e128d43c00"
"mall";"Toko Swalayan";"Pusat Oleh Oleh Lhoknibong";"3GF8+WWR, Jl. Medan Banda Aceh, Pante Panah, Kec. Pante Bidari, Kabupaten Aceh Timur, Aceh 24458";"Jl. Medan Banda Aceh, Pante Panah, Kec. Pante Bidari, Kabupaten Aceh Timur";"ACEH";"24458";"Indonesia";"";"5.0748651";"97.5172599";"https://maps.google.com/?cid=0x0:0x441f6f9a8c6ca6c5"
"mall";"Pusat Perbelanjaan";"Joel88mp";"Dusun Matang Teungoh, Matang Pudeng, Kabupaten Aceh Timur, Aceh 24461";"Matang Pudeng, Kabupaten Aceh Timur";"ACEH";"24461";"Indonesia";" 082163400949";"5.0920095";"97.48649";"https://maps.google.com/?cid=0x0:0x92e3544dd65c77f5"
"mall";"Bengkel Sepeda Motor";"SARANA MOTOR";"3GG8+6RV, Meunasah Leubok, Kec. Pante Bidari, Kabupaten Aceh Timur, Aceh 24458";"Meunasah Leubok, Kec. Pante Bidari, Kabupaten Aceh Timur";"ACEH";"24458";"Indonesia";" 085370538240";"5.075601";"97.5170469";"https://maps.google.com/?cid=0x0:0x77c04776a9fafc7e"
"mall";"mall";"Aceh 24458";"Kabupaten Aceh Timur, Aceh";"Kabupaten Aceh Timur, Aceh";"ACEH";"";"Indonesia";"";"4.9131571";"97.5463885";"https://maps.google.com/?cid=0x0:0x82c363c7b075e66"
"mall";"Pusat Perbelanjaan";"VIKASHOP";"MV5M+48F, Seuneubok Aceh, Kec. Sungai Raya, Kabupaten Aceh Timur, Aceh 24452";"Seuneubok Aceh, Kec. Sungai Raya, Kabupaten Aceh Timur";"ACEH";"24452";"Indonesia";" 082274510459";"4.6578082";"97.8832823";"https://maps.google.com/?cid=0x0:0x764519f3eeeb21ab"
"mall";"Toko Ponsel";"Sayed Raya Ponsel";"MWF8+P5X, Jl. Medan Banda Aceh, Labuhan Keude, Kec. Sungai Raya, Kabupaten Aceh Timur, Aceh 24452";"Jl. Medan Banda Aceh, Labuhan Keude, Kec. Sungai Raya, Kabupaten Aceh Timur";"ACEH";"24452";"Indonesia";" 085207070590";"4.6743616";"97.9154767";"https://maps.google.com/?cid=0x0:0x1dc38a285cead23"
"mall";"Pusat Perbelanjaan";"Plaza Aceh";"Jl. T. Hasan Dek Jl. Teuku Iskandar No.49, Beurawe, Kec. Kuta Alam, Kota Banda Aceh, Aceh 23127";"Beurawe, Kec. Kuta Alam, Kota Banda Aceh";"ACEH";"23127";"Indonesia";" 08116899890";"5.5547881";"95.3308683";"https://maps.google.com/?cid=0x0:0x45c9eb2ec9e62a76"
"mall";"Toko Swalayan";"Suzuya Mall Banda Aceh";"Jl. Teuku Umar, Lamtemen Tim., Kec. Jaya Baru, Kota Banda Aceh, Aceh 23232";"Lamtemen Tim., Kec. Jaya Baru, Kota Banda Aceh";"ACEH";"23232";"Indonesia";" 06518011022";"5.5377324";"95.3068005";"https://maps.google.com/?cid=0x0:0xc5c56efc74442dea"
"mall";"Toko";"Kios AlFi Baroena";"MWF8+Q6C, Geulumpang Payong, Kec. Sungai Raya, Kabupaten Aceh Timur, Aceh 24452";"Geulumpang Payong, Kec. Sungai Raya, Kabupaten Aceh Timur";"ACEH";"24452";"Indonesia";"";"4.6744294";"97.9155206";"https://maps.google.com/?cid=0x0:0xfe331a132f044c54"
"mall";"Toko bahan makanan";"Toko pita";"Labuhan Keude, Kec. Sungai Raya, Kabupaten Aceh Timur, Aceh 24151";"Kec. Sungai Raya, Kabupaten Aceh Timur";"ACEH";"24151";"Indonesia";" 082292963875";"4.6741694";"97.9158285";"https://maps.google.com/?cid=0x0:0x7ee28af0c3f2e66a"
"mall";"mall";"SIMPANG EMPAT, LABUHAN KEUDE, SUNGAI RAYA";"MWF8+Q5M, Labuhan Keude, Kec. Sungai Raya, Kabupaten Aceh Timur, Aceh 24452";"Labuhan Keude, Kec. Sungai Raya, Kabupaten Aceh Timur";"ACEH";"24452";"Indonesia";"";"4.6744712";"97.9154104";"https://maps.google.com/?cid=0x0:0x2df933958add2b"
"mall";"mall";"MEUFAKAT";"MWF8+Q9G, Jl. Pajak Ikan, Labuhan Keude, Kec. Sungai Raya, Kabupaten Aceh Timur, Aceh 24452";"Jl. Pajak Ikan, Labuhan Keude, Kec. Sungai Raya, Kabupaten Aceh Timur";"ACEH";"24452";"Indonesia";"";"4.6744367";"97.9159455";"https://maps.google.com/?cid=0x0:0xf45a25f125ab2dce"
"mall";"mall";"AREA 50";"MR3Q+6R2, Gajah Mentah, Kec. Sungai Raya, Kabupaten Aceh Timur, Aceh 24452";"Gajah Mentah, Kec. Sungai Raya, Kabupaten Aceh Timur";"ACEH";"24452";"Indonesia";"";"4.6530171";"97.8395151";"https://maps.google.com/?cid=0x0:0x490d8d434a75c7d4"
"mall";"mall";"Toko rahul";"MWF8+M95, Labuhan Keude, Kec. Sungai Raya, Kabupaten Aceh Timur, Aceh 24452";"Labuhan Keude, Kec. Sungai Raya, Kabupaten Aceh Timur";"ACEH";"24452";"Indonesia";"";"4.6741325";"97.9159757";"https://maps.google.com/?cid=0x0:0x44abe0056ca66873"
"mall";"Toko";"Pasar Alue Lhok";"PW44+4M6, Seuneubok Teungoh, Kec. Peureulak Tim., Kabupaten Aceh Timur, Aceh 24452";"Seuneubok Teungoh, Kec. Peureulak Tim., Kabupaten Aceh Timur";"ACEH";"24452";"Indonesia";"";"4.7052874";"97.9066338";"https://maps.google.com/?cid=0x0:0xa92ba57ea7f62508"
"mall";"Taman";"Gaia Bumi Raya City";"Jl. Arteri Supadio, Sungai Raya, Kec. Sungai Raya, Kabupaten Kubu Raya, Kalimantan Barat 78121";"Sungai Raya, Kec. Sungai Raya, Kabupaten Kubu Raya";"ACEH";"78121";"Indonesia";"";"-0.0765567";"109.3692979";"https://maps.google.com/?cid=0x0:0x984911f6fd373a1b"
"mall";"Toko";"Sungai Raya";"W92X+XG8, Sungai Raya, Kec. Sungai Raya, Kabupaten Kubu Raya, Kalimantan Barat 78233";"Sungai Raya, Kec. Sungai Raya, Kabupaten Kubu Raya";"ACEH";"78233";"Indonesia";"";"-0.097597";"109.3988205";"https://maps.google.com/?cid=0x0:0x4ff7defd155db80c"
"mall";"mall";"Kec. Sungai Raya";"Kabupaten Aceh Timur, Aceh";"Kabupaten Aceh Timur, Aceh";"ACEH";"";"Indonesia";"";"4.6744294";"97.9155206";"https://maps.google.com/?cid=0x0:0xed64a98a923c441c"
"mall";"Pusat Perbelanjaan";"VIKASHOP";"MV5M+48F, Seuneubok Aceh, Kec. Sungai Raya, Kabupaten Aceh Timur, Aceh 24452";"Seuneubok Aceh, Kec. Sungai Raya, Kabupaten Aceh Timur";"ACEH";"24452";"Indonesia";" 082274510459";"4.6578082";"97.8832823";"https://maps.google.com/?cid=0x0:0x764519f3eeeb21ab"
"mall";"Toko Ponsel";"Sayed Raya Ponsel";"MWF8+P5X, Jl. Medan Banda Aceh, Labuhan Keude, Kec. Sungai Raya, Kabupaten Aceh Timur, Aceh 24452";"Jl. Medan Banda Aceh, Labuhan Keude, Kec. Sungai Raya, Kabupaten Aceh Timur";"ACEH";"24452";"Indonesia";" 085207070590";"4.6743616";"97.9154767";"https://maps.google.com/?cid=0x0:0x1dc38a285cead23"
"mall";"Toko";"Kios AlFi Baroena";"MWF8+Q6C, Geulumpang Payong, Kec. Sungai Raya, Kabupaten Aceh Timur, Aceh 24452";"Geulumpang Payong, Kec. Sungai Raya, Kabupaten Aceh Timur";"ACEH";"24452";"Indonesia";"";"4.6744294";"97.9155206";"https://maps.google.com/?cid=0x0:0xfe331a132f044c54"
"mall";"Toko";"Pasar Alue Lhok";"PW44+4M6, Seuneubok Teungoh, Kec. Peureulak Tim., Kabupaten Aceh Timur, Aceh 24452";"Seuneubok Teungoh, Kec. Peureulak Tim., Kabupaten Aceh Timur";"ACEH";"24452";"Indonesia";"";"4.7052874";"97.9066338";"https://maps.google.com/?cid=0x0:0xa92ba57ea7f62508"
"mall";"Toko bahan makanan";"Toko pita";"Labuhan Keude, Kec. Sungai Raya, Kabupaten Aceh Timur, Aceh 24151";"Kec. Sungai Raya, Kabupaten Aceh Timur";"ACEH";"24151";"Indonesia";" 082292963875";"4.6741694";"97.9158285";"https://maps.google.com/?cid=0x0:0x7ee28af0c3f2e66a"
"mall";"Bar";"PANTAI KUALA PAREK";"MXCG+M9F, Kuala Parek, Kec. Sungai Raya, Kabupaten Aceh Timur, Aceh 24452";"Kuala Parek, Kec. Sungai Raya, Kabupaten Aceh Timur";"ACEH";"24452";"Indonesia";"";"4.671696";"97.975915";"https://maps.google.com/?cid=0x0:0x13c87521035b3545"
"mall";"Toko Elektronik";"Mahligai ponsel";"PW54+H46, Alue Bu/Alue Lhok, Kec. Peureulak Tim., Kabupaten Aceh Timur, Aceh 24452";"Alue Bu/Alue Lhok, Kec. Peureulak Tim., Kabupaten Aceh Timur";"ACEH";"24452";"Indonesia";" 082276187852";"4.7089126";"97.9052793";"https://maps.google.com/?cid=0x0:0xfa1f31bb09b848f4"
"mall";"Toko Swalayan";"Suzuya Mall Banda Aceh";"Jl. Teuku Umar, Lamtemen Tim., Kec. Jaya Baru, Kota Banda Aceh, Aceh 23232";"Lamtemen Tim., Kec. Jaya Baru, Kota Banda Aceh";"ACEH";"23232";"Indonesia";" 06518011022";"5.5377324";"95.3068005";"https://maps.google.com/?cid=0x0:0xc5c56efc74442dea"
"mall";"Pusat Perbelanjaan";"Plaza Aceh";"Jl. T. Hasan Dek Jl. Teuku Iskandar No.49, Beurawe, Kec. Kuta Alam, Kota Banda Aceh, Aceh 23127";"Beurawe, Kec. Kuta Alam, Kota Banda Aceh";"ACEH";"23127";"Indonesia";" 08116899890";"5.5547881";"95.3308683";"https://maps.google.com/?cid=0x0:0x45c9eb2ec9e62a76"
"mall";"";"Budi Bunga";"JWGM+WCH, dsn cot girek, Rantau Panjang, Kec. Rantau Selamat, Kabupaten Aceh Timur, Aceh 24452";"dsn cot girek, Rantau Panjang, Kec. Rantau Selamat, Kabupaten Aceh Timur";"ACEH";"24452";"Indonesia";" 081396510473";"4.6273165";"97.9335969";"https://maps.google.com/?cid=0x0:0xcb6d5977a83d799b"
"mall";"mall";"SIMPANG EMPAT, LABUHAN KEUDE, SUNGAI RAYA";"MWF8+Q5M, Labuhan Keude, Kec. Sungai Raya, Kabupaten Aceh Timur, Aceh 24452";"Labuhan Keude, Kec. Sungai Raya, Kabupaten Aceh Timur";"ACEH";"24452";"Indonesia";"";"4.6744712";"97.9154104";"https://maps.google.com/?cid=0x0:0x2df933958add2b"
"mall";"mall";"MEUFAKAT";"MWF8+Q9G, Jl. Pajak Ikan, Labuhan Keude, Kec. Sungai Raya, Kabupaten Aceh Timur, Aceh 24452";"Jl. Pajak Ikan, Labuhan Keude, Kec. Sungai Raya, Kabupaten Aceh Timur";"ACEH";"24452";"Indonesia";"";"4.6744367";"97.9159455";"https://maps.google.com/?cid=0x0:0xf45a25f125ab2dce"
"mall";"mall";"AREA 50";"MR3Q+6R2, Gajah Mentah, Kec. Sungai Raya, Kabupaten Aceh Timur, Aceh 24452";"Gajah Mentah, Kec. Sungai Raya, Kabupaten Aceh Timur";"ACEH";"24452";"Indonesia";"";"4.6530171";"97.8395151";"https://maps.google.com/?cid=0x0:0x490d8d434a75c7d4"
"mall";"mall";"Kec. Sungai Raya";"Kabupaten Aceh Timur, Aceh";"Kabupaten Aceh Timur, Aceh";"ACEH";"";"Indonesia";"";"4.6744294";"97.9155206";"https://maps.google.com/?cid=0x0:0xed64a98a923c441c"
"mall";"Pusat Perbelanjaan";"VIKASHOP";"MV5M+48F, Seuneubok Aceh, Kec. Sungai Raya, Kabupaten Aceh Timur, Aceh 24452";"Seuneubok Aceh, Kec. Sungai Raya, Kabupaten Aceh Timur";"ACEH";"24452";"Indonesia";" 082274510459";"4.6578082";"97.8832823";"https://maps.google.com/?cid=0x0:0x764519f3eeeb21ab"
"mall";"Toko Ponsel";"Sayed Raya Ponsel";"MWF8+P5X, Jl. Medan Banda Aceh, Labuhan Keude, Kec. Sungai Raya, Kabupaten Aceh Timur, Aceh 24452";"Jl. Medan Banda Aceh, Labuhan Keude, Kec. Sungai Raya, Kabupaten Aceh Timur";"ACEH";"24452";"Indonesia";" 085207070590";"4.6743616";"97.9154767";"https://maps.google.com/?cid=0x0:0x1dc38a285cead23"
"mall";"Toko";"Kios AlFi Baroena";"MWF8+Q6C, Geulumpang Payong, Kec. Sungai Raya, Kabupaten Aceh Timur, Aceh 24452";"Geulumpang Payong, Kec. Sungai Raya, Kabupaten Aceh Timur";"ACEH";"24452";"Indonesia";"";"4.6744294";"97.9155206";"https://maps.google.com/?cid=0x0:0xfe331a132f044c54"
"mall";"Toko";"Pasar Alue Lhok";"PW44+4M6, Seuneubok Teungoh, Kec. Peureulak Tim., Kabupaten Aceh Timur, Aceh 24452";"Seuneubok Teungoh, Kec. Peureulak Tim., Kabupaten Aceh Timur";"ACEH";"24452";"Indonesia";"";"4.7052874";"97.9066338";"https://maps.google.com/?cid=0x0:0xa92ba57ea7f62508"
"mall";"Toko bahan makanan";"Toko pita";"Labuhan Keude, Kec. Sungai Raya, Kabupaten Aceh Timur, Aceh 24151";"Kec. Sungai Raya, Kabupaten Aceh Timur";"ACEH";"24151";"Indonesia";" 082292963875";"4.6741694";"97.9158285";"https://maps.google.com/?cid=0x0:0x7ee28af0c3f2e66a"
"mall";"Toko Elektronik";"Mahligai ponsel";"PW54+H46, Alue Bu/Alue Lhok, Kec. Peureulak Tim., Kabupaten Aceh Timur, Aceh 24452";"Alue Bu/Alue Lhok, Kec. Peureulak Tim., Kabupaten Aceh Timur";"ACEH";"24452";"Indonesia";" 082276187852";"4.7089126";"97.9052793";"https://maps.google.com/?cid=0x0:0xfa1f31bb09b848f4"
"mall";"Bar";"PANTAI KUALA PAREK";"MXCG+M9F, Kuala Parek, Kec. Sungai Raya, Kabupaten Aceh Timur, Aceh 24452";"Kuala Parek, Kec. Sungai Raya, Kabupaten Aceh Timur";"ACEH";"24452";"Indonesia";"";"4.671696";"97.975915";"https://maps.google.com/?cid=0x0:0x13c87521035b3545"
"mall";"Toko Swalayan";"Suzuya Mall Banda Aceh";"Jl. Teuku Umar, Lamtemen Tim., Kec. Jaya Baru, Kota Banda Aceh, Aceh 23232";"Lamtemen Tim., Kec. Jaya Baru, Kota Banda Aceh";"ACEH";"23232";"Indonesia";" 06518011022";"5.5377324";"95.3068005";"https://maps.google.com/?cid=0x0:0xc5c56efc74442dea"
"mall";"";"Budi Bunga";"JWGM+WCH, dsn cot girek, Rantau Panjang, Kec. Rantau Selamat, Kabupaten Aceh Timur, Aceh 24452";"dsn cot girek, Rantau Panjang, Kec. Rantau Selamat, Kabupaten Aceh Timur";"ACEH";"24452";"Indonesia";" 081396510473";"4.6273165";"97.9335969";"https://maps.google.com/?cid=0x0:0xcb6d5977a83d799b"
"mall";"mall";"MEUFAKAT";"MWF8+Q9G, Jl. Pajak Ikan, Labuhan Keude, Kec. Sungai Raya, Kabupaten Aceh Timur, Aceh 24452";"Jl. Pajak Ikan, Labuhan Keude, Kec. Sungai Raya, Kabupaten Aceh Timur";"ACEH";"24452";"Indonesia";"";"4.6744367";"97.9159455";"https://maps.google.com/?cid=0x0:0xf45a25f125ab2dce"
"mall";"mall";"SIMPANG EMPAT, LABUHAN KEUDE, SUNGAI RAYA";"MWF8+Q5M, Labuhan Keude, Kec. Sungai Raya, Kabupaten Aceh Timur, Aceh 24452";"Labuhan Keude, Kec. Sungai Raya, Kabupaten Aceh Timur";"ACEH";"24452";"Indonesia";"";"4.6744712";"97.9154104";"https://maps.google.com/?cid=0x0:0x2df933958add2b"
"mall";"mall";"AREA 50";"MR3Q+6R2, Gajah Mentah, Kec. Sungai Raya, Kabupaten Aceh Timur, Aceh 24452";"Gajah Mentah, Kec. Sungai Raya, Kabupaten Aceh Timur";"ACEH";"24452";"Indonesia";"";"4.6530171";"97.8395151";"https://maps.google.com/?cid=0x0:0x490d8d434a75c7d4"
"mall";"mall";"UD sukri";"MWMC+WGH, Unnamed Road, Geulumpang Payong, Kec. Sungai Raya, Kabupaten Aceh Timur, Aceh 24452";"Unnamed Road, Geulumpang Payong, Kec. Sungai Raya, Kabupaten Aceh Timur";"ACEH";"24452";"Indonesia";"";"4.6848232";"97.9213737";"https://maps.google.com/?cid=0x0:0x3949408319895575"
"supermarket";"Toko bahan makanan";"Keude bg ir";"WM3G+5WC, Jl. Keude Geurubak, Alue Siwah Serdang, Kec. Banda Alam, Kabupaten Aceh Timur, Aceh 24453";"Jl. Keude Geurubak, Alue Siwah Serdang, Kec. Banda Alam, Kabupaten Aceh Timur";"ACEH";"24453";"Indonesia";"";"4.9025256";"97.6772795";"https://maps.google.com/?cid=0x0:0xd4a7dd7a01597a4a"
"supermarket";"supermarket";"Kec. Banda Alam";"Kabupaten Aceh Timur, Aceh";"Kabupaten Aceh Timur, Aceh";"ACEH";"";"Indonesia";"";"4.903042";"97.6987748";"https://maps.google.com/?cid=0x0:0xbbf5a401b81b9e34"
"supermarket";"Toko Mainan";"Tokoi iISTANA kado Amsul Baru Acc";"Jln idi keude gerobak, Panton Rayeuk M, Kec. Banda Alam, Kabupaten Aceh Timur, Aceh 24484";"Panton Rayeuk M, Kec. Banda Alam, Kabupaten Aceh Timur";"ACEH";"24484";"Indonesia";" 081327946431";"4.9045501";"97.6960663";"https://maps.google.com/?cid=0x0:0x5f74fc108e5e8747"
"supermarket";"Toko bahan makanan";"SimpangLima Grocery Store";"Jl. Tengku Angkasa H Abdullah Ujong Rimba No 20, Kp. Baru, Kec. Baiturrahman, Kota Banda Aceh, Aceh 23242";"Kp. Baru, Kec. Baiturrahman, Kota Banda Aceh";"ACEH";"23242";"Indonesia";" 0811686677";"5.5504966";"95.3167777";"https://maps.google.com/?cid=0x0:0x22361fe0a56c2da4"
"supermarket";"Minimarket";"Kios jaya meutuah";"WP5C+R54, Keude Keumuneng, Kec. Idi Tunong, Kabupaten Aceh Timur, Aceh 24454";"Keude Keumuneng, Kec. Idi Tunong, Kabupaten Aceh Timur";"ACEH";"24454";"Indonesia";"";"4.9095028";"97.7204644";"https://maps.google.com/?cid=0x0:0x9405e47f3d0f5e27"
"supermarket";"Toko Swalayan";"Alvin swalayan";"Jl. AMD No.1, RW.2, Peunyeurat, Kec. Banda Raya, Kota Banda Aceh, Aceh 23117";"RW.2, Peunyeurat, Kec. Banda Raya, Kota Banda Aceh";"ACEH";"23117";"Indonesia";" 085361418880";"5.5322362";"95.3273363";"https://maps.google.com/?cid=0x0:0xcaccf5b4c0697489"
"supermarket";"Toko bahan makanan";"Mahyuddin store";"WPX2+R89, Alur Merbo, Kec. Darul Aman, Kabupaten Aceh Timur, Aceh";"Kabupaten Aceh Timur, Aceh";"ACEH";"";"Indonesia";"";"4.9495435";"97.7008666";"https://maps.google.com/?cid=0x0:0x9d8e5c382c9d64bf"
"supermarket";"Toko Swalayan";"Keude Bunda";"WM37+P62, Alue Siwah Serdang, Kec. Nurussalam, Kabupaten Aceh Timur, Aceh";"Kabupaten Aceh Timur, Aceh";"ACEH";"";"Indonesia";"";"4.9042548";"97.6630276";"https://maps.google.com/?cid=0x0:0xd872e98fb705ae0b"
"supermarket";"supermarket";"Toko gt";"WP33+GVQ, Unnamed Road, Uram Jl., Kec. Banda Alam, Kabupaten Aceh Timur, Aceh 24454";"Unnamed Road, Uram Jl., Kec. Banda Alam, Kabupaten Aceh Timur";"ACEH";"24454";"Indonesia";"";"4.9038276";"97.7047426";"https://maps.google.com/?cid=0x0:0x67a9c3db05a23be6"
"supermarket";"Toko Perlengkapan Rumah";"Perabotan Besi Hollow Banda Alam";"Dusun Buket Kawa, Jambo Reuhat, Kec. Banda Alam, Kabupaten Aceh Timur, Aceh 24458";"Jambo Reuhat, Kec. Banda Alam, Kabupaten Aceh Timur";"ACEH";"24458";"Indonesia";" 08126913123";"4.857132";"97.6933499";"https://maps.google.com/?cid=0x0:0x6f768beb22c0e7f7"
"supermarket";"Toko Mebel";"SerbaMulia";"Paya Laman, Kec. Banda Alam, Kabupaten Aceh Timur, Aceh 24455";"Kec. Banda Alam, Kabupaten Aceh Timur";"ACEH";"24455";"Indonesia";" 085277101119";"4.9146436";"97.6891989";"https://maps.google.com/?cid=0x0:0xf764d885e64b0001"
"supermarket";"Pasar";"Toko Istana kado amsul baru acc keude gerobak";"Panton Rayeuk M, Kec. Banda Alam, Kabupaten Aceh Timur, Aceh 24454";"Kec. Banda Alam, Kabupaten Aceh Timur";"ACEH";"24454";"Indonesia";"";"4.9028125";"97.6984375";"https://maps.google.com/?cid=0x0:0xd9364f3527822916"
"supermarket";"Toko Komputer";"NASYA.NET";"Seuneubok Pangou, Kec. Banda Alam, Kabupaten Aceh Timur, Aceh 24454";"Kec. Banda Alam, Kabupaten Aceh Timur";"ACEH";"24454";"Indonesia";" 082361483333";"4.8907941";"97.6953375";"https://maps.google.com/?cid=0x0:0xbbfb850bfdc4fd31"
"supermarket";"supermarket";"Pusaka Nanggore";"VMRX+J9C, Seuneubok Pangou, Kec. Banda Alam, Kabupaten Aceh Timur, Aceh";"Kabupaten Aceh Timur, Aceh";"ACEH";"";"Indonesia";"";"4.891557";"97.698382";"https://maps.google.com/?cid=0x0:0x938c82adc9c3c337"
"supermarket";"supermarket";"Aceh 24452";"Kabupaten Aceh Timur, Aceh";"Kabupaten Aceh Timur, Aceh";"ACEH";"";"Indonesia";"";"4.6428925";"97.8286368";"https://maps.google.com/?cid=0x0:0xab6d8837867af58f"
"supermarket";"Minimarket";"Jafar Market Swalayan";"GWQP+FVX, Jl. Lintas Sumatra, Birem Rayeuk, Kec. Birem Bayeun, Kabupaten Aceh Timur, Aceh 24452";"Jl. Lintas Sumatra, Birem Rayeuk, Kec. Birem Bayeun, Kabupaten Aceh Timur";"ACEH";"24452";"Indonesia";" 082370437070";"4.5387498";"97.9372372";"https://maps.google.com/?cid=0x0:0x34071d218b0f2cd"
"supermarket";"Toko umum";"Kedai swalayan";"9WRJ+666, Alue Canang, Kec. Birem Bayeun, Kabupaten Aceh Timur, Aceh 24375";"Alue Canang, Kec. Birem Bayeun, Kabupaten Aceh Timur";"ACEH";"24375";"Indonesia";"";"4.3905372";"97.9305124";"https://maps.google.com/?cid=0x0:0x5329bb62db292ae9"
"supermarket";"Minimarket";"Raya Mart";"MWF8+87H, Labuhan Keude, Kec. Sungai Raya, Kabupaten Aceh Timur, Aceh 24452";"Labuhan Keude, Kec. Sungai Raya, Kabupaten Aceh Timur";"ACEH";"24452";"Indonesia";"";"4.6733217";"97.9157252";"https://maps.google.com/?cid=0x0:0xe84abd76dad98e6"
"supermarket";"Toko Swalayan";"Langsa";"HWG6+MJX, Bayeun, Kec. Birem Bayeun, Kabupaten Aceh Timur, Aceh 24452";"Bayeun, Kec. Birem Bayeun, Kabupaten Aceh Timur";"ACEH";"24452";"Indonesia";"";"4.5767362";"97.911603";"https://maps.google.com/?cid=0x0:0x1746b5bf00dd4d66"
"supermarket";"Minimarket";"Kios dian";"GWPP+WRJ, Birem Rayeuk, Kec. Birem Bayeun, Kabupaten Aceh Timur, Aceh 24452";"Birem Rayeuk, Kec. Birem Bayeun, Kabupaten Aceh Timur";"ACEH";"24452";"Indonesia";"";"4.5373478";"97.9370218";"https://maps.google.com/?cid=0x0:0x7e391e725366d70b"
"supermarket";"Toko Swalayan";"NASRI SWALAYAN";"Jl. Manggis, Birem Puntong, Kec. Langsa Baro, Kota Langsa, Aceh 24375";"Birem Puntong, Kec. Langsa Baro, Kota Langsa";"ACEH";"24375";"Indonesia";" 0889630104154";"4.4982106";"97.9546638";"https://maps.google.com/?cid=0x0:0x15b1d419563ba8a1"
"supermarket";"Toko Swalayan";"BP SWALAYAN";"RV4R+PJ4, Lhok Dalam, Kec. Peureulak, Kabupaten Aceh Timur, Aceh 24461";"Lhok Dalam, Kec. Peureulak, Kabupaten Aceh Timur";"ACEH";"24461";"Indonesia";" 082370581756";"4.8067616";"97.8915912";"https://maps.google.com/?cid=0x0:0x5d010758a93dbef1"
"supermarket";"Toko Swalayan";"Kedai kaki 5";"9WVJ+GP8, Alue Canang, Kec. Birem Bayeun, Kabupaten Aceh Timur, Aceh 24375";"Alue Canang, Kec. Birem Bayeun, Kabupaten Aceh Timur";"ACEH";"24375";"Indonesia";"";"4.3928153";"97.9315358";"https://maps.google.com/?cid=0x0:0xde93e98b4b24d0f9"
"supermarket";"Grosir";"Ridwan";"MWR7+8M9, Alue Rangan, Kec. Sungai Raya, Kabupaten Aceh Timur, Aceh 24452";"Alue Rangan, Kec. Sungai Raya, Kabupaten Aceh Timur";"ACEH";"24452";"Indonesia";" 085260443427";"4.6907881";"97.9142195";"https://maps.google.com/?cid=0x0:0xb1926543f897c2f"
"supermarket";"Minimarket";"DRP RIZQINA";"Alue Dua, Kec. Langsa Baro, Kota Langsa, Aceh 24452";"Kec. Langsa Baro, Kota Langsa";"ACEH";"24452";"Indonesia";" 085200940002";"4.5197097";"97.9384069";"https://maps.google.com/?cid=0x0:0x49d5e3126d0cdad3"
"supermarket";"Toko umum";"Grosir Deni";"CW68+MR, Jambur Labu, Kec. Birem Bayeun, Kabupaten Aceh Timur, Aceh";"Kabupaten Aceh Timur, Aceh";"ACEH";"";"Indonesia";"";"4.4116698";"97.9175319";"https://maps.google.com/?cid=0x0:0xb7b87bcc29cd733d"
"supermarket";"Grosir Barang Kelontong";"U D. Dua Saudara";"Jl. Mesjid No.5, Bayeun, Kec. Rantau Selamat, Kabupaten Aceh Timur, Aceh 24452";"Bayeun, Kec. Rantau Selamat, Kabupaten Aceh Timur";"ACEH";"24452";"Indonesia";" 081367001160";"4.5896387";"97.9082477";"https://maps.google.com/?cid=0x0:0xebc5596da856a13c"
"supermarket";"Minimarket";"Rumah bang li";"PVRQ+7QQ, Seumatang Keude, Kec. Peureulak Tim., Kabupaten Aceh Timur, Aceh 24452";"Seumatang Keude, Kec. Peureulak Tim., Kabupaten Aceh Timur";"ACEH";"24452";"Indonesia";"";"4.740758";"97.890655";"https://maps.google.com/?cid=0x0:0x1eb984db3a8f65cc"
"supermarket";"supermarket";"Kec. Darul Aman";"Kabupaten Aceh Timur, Aceh";"Kabupaten Aceh Timur, Aceh";"ACEH";"";"Indonesia";"";"4.9859334";"97.7204106";"https://maps.google.com/?cid=0x0:0x217e07dad240b2e4"
"supermarket";"Toko Swalayan";"Toko Maula Baru";"XPPC+M64, Jl. Mesjid, Kuala Idi Cut, Kec. Darul Aman, Kabupaten Aceh Timur, Aceh";"Kabupaten Aceh Timur, Aceh";"ACEH";"";"Indonesia";"";"4.9866434";"97.720566";"https://maps.google.com/?cid=0x0:0xf5c804534ac8bcef"
"supermarket";"Toko Swalayan";"Berkat Baru Swalayan";"XPPC+H4Q, Kp. Keude, Kec. Darul Aman, Kabupaten Aceh Timur, Aceh";"Kabupaten Aceh Timur, Aceh";"ACEH";"";"Indonesia";"";"4.9864633";"97.7203591";"https://maps.google.com/?cid=0x0:0x1bffa0cc8e6f44f8"
"supermarket";"Toko bahan makanan";"UD. Arkan (V-Ray)";"XPFJ+7JF Beunot idi cut, Dama Pulo I, Kec. Darul Aman, Kabupaten Aceh Timur, Aceh 24455";"Dama Pulo I, Kec. Darul Aman, Kabupaten Aceh Timur";"ACEH";"24455";"Indonesia";"";"4.9731908";"97.7315596";"https://maps.google.com/?cid=0x0:0xbfc07e95018204af"
"supermarket";"Toko bahan makanan";"Tala market";"XPP9+JQ9, Kp. Keude, Kec. Darul Aman, Kabupaten Aceh Timur, Aceh";"Kabupaten Aceh Timur, Aceh";"ACEH";"";"Indonesia";"";"4.986503";"97.7195038";"https://maps.google.com/?cid=0x0:0x643cdb383e0e3d25"
"supermarket";"Kios";"kios abulih";"XMXX+6X5, Kemuning IV, Kec. Darul Aman, Kabupaten Aceh Timur, Aceh";"Kabupaten Aceh Timur, Aceh";"ACEH";"";"Indonesia";"";"4.9980132";"97.6999759";"https://maps.google.com/?cid=0x0:0xd683f930b383f10d"
"supermarket";"Toko bahan makanan";"Mahyuddin store";"WPX2+R89, Alur Merbo, Kec. Darul Aman, Kabupaten Aceh Timur, Aceh";"Kabupaten Aceh Timur, Aceh";"ACEH";"";"Indonesia";"";"4.9495435";"97.7008666";"https://maps.google.com/?cid=0x0:0x9d8e5c382c9d64bf"
"supermarket";"Kedai Kopi";"Dapu Kupie Leumak Meukho Kho";"XPP9+GXM, Kp. Keude, Kec. Darul Aman, Kabupaten Aceh Timur, Aceh 24455";"Kp. Keude, Kec. Darul Aman, Kabupaten Aceh Timur";"ACEH";"24455";"Indonesia";" 082274770147";"4.9870472";"97.7180031";"https://maps.google.com/?cid=0x0:0xc12dbb5cc58e8ffe"
"supermarket";"Toko";"UD NUR";"XPPC+82V, Gampong, Keude Idi Cut, Kec. Darul Aman, Kabupaten Aceh Timur, Aceh";"Kabupaten Aceh Timur, Aceh";"ACEH";"";"Indonesia";" 082272924633";"4.9858712";"97.7200513";"https://maps.google.com/?cid=0x0:0x1a0c1bcabe1cec45"
"supermarket";"Toko";"Sopiyah";"XPP8+PM8, Kp. Keude, Kec. Darul Aman, Kabupaten Aceh Timur, Aceh 24455";"Kp. Keude, Kec. Darul Aman, Kabupaten Aceh Timur";"ACEH";"24455";"Indonesia";" 082360046391";"4.986785";"97.716694";"https://maps.google.com/?cid=0x0:0x7feea11a608d1536"
"supermarket";"Toko umum";"Fotocopy D'NAFIS";"XPP9+Q7Q, Kp. Keude, Kec. Darul Aman, Kabupaten Aceh Timur, Aceh 24455";"Kp. Keude, Kec. Darul Aman, Kabupaten Aceh Timur";"ACEH";"24455";"Indonesia";"";"4.986964";"97.7183066";"https://maps.google.com/?cid=0x0:0x7646f4e29b3adb8"
"supermarket";"Toko umum";"Kios Serambi";"XPC5+F5P, JL. Medan, Gampong Keude, Darul Aman, Trieng Gadeng, Banda Aceh, Kabupaten Aceh Timur, Aceh 24455";"JL. Medan, Gampong Keude, Darul Aman, Trieng Gadeng, Banda Aceh, Kabupaten Aceh Timur";"ACEH";"24455";"Indonesia";" 085292924493";"4.9712014";"97.7079391";"https://maps.google.com/?cid=0x0:0x7704ffc1969c80f2"
"supermarket";"Toko umum";"Wak ru";"XPFH+7P9, Dama Pulo I, Kec. Darul Aman, Kabupaten Aceh Timur, Aceh 24455";"Dama Pulo I, Kec. Darul Aman, Kabupaten Aceh Timur";"ACEH";"24455";"Indonesia";"";"4.9731564";"97.7293734";"https://maps.google.com/?cid=0x0:0xd7f0c05936031adb"
"supermarket";"Toko bahan makanan";"Kios putra desa";"XPX5+HH, Matang Geutou, Kec. Darul Aman, Kabupaten Aceh Timur, Aceh";"Kabupaten Aceh Timur, Aceh";"ACEH";"";"Indonesia";"";"4.9989238";"97.7089078";"https://maps.google.com/?cid=0x0:0xb98cefcc50a212ac"
"supermarket";"supermarket";"Kec. Darul Falah";"Kabupaten Aceh Timur, Aceh";"Kabupaten Aceh Timur, Aceh";"ACEH";"";"Indonesia";"";"5.0158049";"97.6390314";"https://maps.google.com/?cid=0x0:0xd7c29e75868d7640"
"supermarket";"Toko Swalayan";"Luthfi Swalayan";"2JRH+MCW, Blang Paoh Satu, Kec. Julok, Kabupaten Aceh Timur, Aceh 24458";"Blang Paoh Satu, Kec. Julok, Kabupaten Aceh Timur";"ACEH";"24458";"Indonesia";" 08126494794";"5.0417439";"97.6285772";"https://maps.google.com/?cid=0x0:0x5ba0556a4e6ad9e"
"supermarket";"Toko bahan makanan";"Raudatul Swalayan";"2JRG+QM9, Blang Paoh Dua, Kec. Julok, Kabupaten Aceh Timur, Aceh 24458";"Blang Paoh Dua, Kec. Julok, Kabupaten Aceh Timur";"ACEH";"24458";"Indonesia";"";"5.0419088";"97.6267249";"https://maps.google.com/?cid=0x0:0x89187a96692fe679"
"supermarket";"Kedai Kopi";"Keude kak di";"Buket Teumpen, Kec. Darul Falah, Kabupaten Aceh Timur, Aceh 24454";"Kec. Darul Falah, Kabupaten Aceh Timur";"ACEH";"24454";"Indonesia";" 081230969495";"5.0102128";"97.6423842";"https://maps.google.com/?cid=0x0:0x7b1d350c68b45718"
"supermarket";"Pusat Perbelanjaan";"Muliadi";"2JFQ+VVJ, Alue Siwah Dua, Kec. Darul Falah, Kabupaten Aceh Timur, Aceh 24458";"Alue Siwah Dua, Kec. Darul Falah, Kabupaten Aceh Timur";"ACEH";"24458";"Indonesia";"";"5.0247195";"97.6396343";"https://maps.google.com/?cid=0x0:0x306f09c83563fcc7"
"supermarket";"Toko bahan makanan";"Toko Sayed Mahzal";"Sa, Blang Paoh Satu, Kec. Julok, Kabupaten Aceh Timur, Aceh 24458";"Blang Paoh Satu, Kec. Julok, Kabupaten Aceh Timur";"ACEH";"24458";"Indonesia";" 085261693139";"5.0388387";"97.6261056";"https://maps.google.com/?cid=0x0:0xf7332f96e27adee9"
"supermarket";"Toko bahan makanan";"UD. Danil (Aceh - Minang)";"Matang Seuleumak, Kec. Nurussalam, Kabupaten Aceh Timur, Aceh 24453";"Kec. Nurussalam, Kabupaten Aceh Timur";"ACEH";"24453";"Indonesia";" 082216145150";"5.0280708";"97.6678988";"https://maps.google.com/?cid=0x0:0xb515407499a5417b"
"supermarket";"Kios";"KIOS IRWANDA";"2JRJ+J4X, Blang Paoh Satu, Kec. Julok, Kabupaten Aceh Timur, Aceh 24458";"Blang Paoh Satu, Kec. Julok, Kabupaten Aceh Timur";"ACEH";"24458";"Indonesia";" 082277267334";"5.041609";"97.6303569";"https://maps.google.com/?cid=0x0:0x8c3440439c1f2e0f"
"supermarket";"Toko bahan makanan";"Mini market ummi";"2JMF+QJQ, Buket Seraja, Kec. Julok, Kabupaten Aceh Timur, Aceh";"Kabupaten Aceh Timur, Aceh";"ACEH";"";"Indonesia";"";"5.034459";"97.6241228";"https://maps.google.com/?cid=0x0:0xa2074b226a558c48"
"supermarket";"Establishment";"Desainer plafon pvc kalsibot dan kichen";"Cot Asan, Kec. Nurussalam, Kabupaten Aceh Timur, Aceh 24456";"Kec. Nurussalam, Kabupaten Aceh Timur";"ACEH";"24456";"Indonesia";" 082161164032";"5.0088218";"97.6680884";"https://maps.google.com/?cid=0x0:0x44188233c816b926"
"supermarket";"Toko bahan makanan";"Kedai dek lia";"XJPQ+9X, Seuneubok Rambong, Kec. Nurussalam, Kabupaten Aceh Timur, Aceh 24458";"Seuneubok Rambong, Kec. Nurussalam, Kabupaten Aceh Timur";"ACEH";"24458";"Indonesia";"";"4.9859553";"97.6399683";"https://maps.google.com/?cid=0x0:0x20c1d57d65e96a90"
"supermarket";"Minimarket";"Kedai Bumbu H.DIN";"Keude Kuta Binjai, Kec. Julok, Kabupaten Aceh Timur, Aceh 24458";"Kec. Julok, Kabupaten Aceh Timur";"ACEH";"24458";"Indonesia";" 081210000612";"5.0424103";"97.6279934";"https://maps.google.com/?cid=0x0:0x454cb2b908fa06b8"
"supermarket";"Kedai Kopi";"Kede";"2J6H+8V9, Seuneubok Panton, Kec. Darul Falah, Kabupaten Aceh Timur, Aceh 24458";"Seuneubok Panton, Kec. Darul Falah, Kabupaten Aceh Timur";"ACEH";"24458";"Indonesia";"";"5.010788";"97.6297233";"https://maps.google.com/?cid=0x0:0xebade339ffe93eb6"
"supermarket";"Minimarket";"Keudee kak maliah";"2M33+WC, Buket Tufah, Kec. Darul Falah, Kabupaten Aceh Timur, Aceh";"Kabupaten Aceh Timur, Aceh";"ACEH";"";"Indonesia";"";"5.0048065";"97.6535017";"https://maps.google.com/?cid=0x0:0xa834807a778ea193"
"supermarket";"supermarket";"Kec. Darul Ihsan";"Kabupaten Aceh Timur, Aceh";"Kabupaten Aceh Timur, Aceh";"ACEH";"";"Indonesia";"";"4.9121713";"97.7511187";"https://maps.google.com/?cid=0x0:0x4217d2780b69b031"
"supermarket";"supermarket";"Aceh 24455";"Kec. Rantau Peureulak, Kabupaten Aceh Timur, Aceh";"Kabupaten Aceh Timur, Aceh";"ACEH";"";"Indonesia";"";"4.751975";"97.7036561";"https://maps.google.com/?cid=0x0:0x9b97e0eb09cc59d1"
"supermarket";"supermarket";"Toko Kelontong Nyak Mah";"WQR8+CHW, Jl. Keude Dua, Pulo Blang, Kec. Darul Ihsan, Kabupaten Aceh Timur, Aceh 24454";"Jl. Keude Dua, Pulo Blang, Kec. Darul Ihsan, Kabupaten Aceh Timur";"ACEH";"24454";"Indonesia";"";"4.9411085";"97.7664621";"https://maps.google.com/?cid=0x0:0x490ee9b810895b7f"
"supermarket";"Toko Swalayan";"HIJRAH SWALAYAN";"XQ2C+64M, Keude Aceh, Kec. Idi Rayeuk, Kabupaten Aceh Timur, Aceh";"Kabupaten Aceh Timur, Aceh";"ACEH";"";"Indonesia";"";"4.9505801";"97.7702979";"https://maps.google.com/?cid=0x0:0xdcd314e469aadd12"
"supermarket";"supermarket";"Kec. Idi Rayeuk";"Kabupaten Aceh Timur, Aceh";"Kabupaten Aceh Timur, Aceh";"ACEH";"";"Indonesia";"";"4.9501675";"97.770381";"https://maps.google.com/?cid=0x0:0x1628dddf2364720"
"supermarket";"Toko Swalayan";"HN.swalayan Idi Rayeuk";"Jalan cut Mutia, Keude Aceh, Kec. Idi Rayeuk, Kabupaten Aceh Timur, Aceh 24454";"Keude Aceh, Kec. Idi Rayeuk, Kabupaten Aceh Timur";"ACEH";"24454";"Indonesia";"";"4.9512392";"97.7687633";"https://maps.google.com/?cid=0x0:0x72deb59100cfc61f"
"supermarket";"Toko Swalayan";"Zaura Swalayan";"Gampong Aceh, Kec. Idi Rayeuk, Kabupaten Aceh Timur, Aceh";"Kabupaten Aceh Timur, Aceh";"ACEH";"";"Indonesia";"";"4.950589";"97.7685336";"https://maps.google.com/?cid=0x0:0xdbef78b40a7cbcbc"
"supermarket";"Toko Swalayan";"TK.U MART.2/Swaly,terlengkap,murah raya";"WQGR+RV7, Seuneubok Teungoh (Pr), Kec. Idi Rayeuk, Kabupaten Aceh Timur, Aceh";"Kabupaten Aceh Timur, Aceh";"ACEH";"";"Indonesia";" 085296671076";"4.9270341";"97.7921787";"https://maps.google.com/?cid=0x0:0x2a8463ae71d0ec20"
"supermarket";"Produsen";"Harissa Mart";"Jl. Medan Banda Aceh, Tanoh Anou, Kec. Idi Rayeuk, Kabupaten Aceh Timur, Aceh 24454";"Tanoh Anou, Kec. Idi Rayeuk, Kabupaten Aceh Timur";"ACEH";"24454";"Indonesia";" 081263981674";"4.9457345";"97.7756032";"https://maps.google.com/?cid=0x0:0xb394b0defcade5a4"
"supermarket";"Minimarket";"Minimarket Kejora";"Jl. Medan - Banda Aceh, Gampong Aceh, Kec. Idi Rayeuk, Kabupaten Aceh Timur, Aceh 24454";"Gampong Aceh, Kec. Idi Rayeuk, Kabupaten Aceh Timur";"ACEH";"24454";"Indonesia";" 081375831581";"4.9500644";"97.7701493";"https://maps.google.com/?cid=0x0:0xe35d288fe8f34417"
"supermarket";"Toko Swalayan";"Toko garuda idi rayeuk aceh timur";"Kp. Jawa, Kec. Idi Rayeuk, Kabupaten Aceh Timur, Aceh 24454";"Kec. Idi Rayeuk, Kabupaten Aceh Timur";"ACEH";"24454";"Indonesia";" 082258666037";"4.9516401";"97.7703646";"https://maps.google.com/?cid=0x0:0x75ef4bf22ab91342"
"supermarket";"Toko Elektronik";"vapor idi (idi vape store)";"depan mesjid syuhada, Tanoh Anou, Kec. Idi Rayeuk, Kabupaten Aceh Timur, Aceh";"Kabupaten Aceh Timur, Aceh";"ACEH";"";"Indonesia";" 082392092096";"4.9433386";"97.7769094";"https://maps.google.com/?cid=0x0:0xda4fac7442abd849"
"supermarket";"Minimarket";"Mini market";"XQ48+J3F, Jl. Medan Banda Aceh, Gampong Jl., Kec. Idi Rayeuk, Kabupaten Aceh Timur, Aceh";"Kabupaten Aceh Timur, Aceh";"ACEH";"";"Indonesia";"";"4.9565594";"97.7651567";"https://maps.google.com/?cid=0x0:0x5d28243eae8b5bea"
"supermarket";"Toko Kelontong Asia";"Toko ultra jaya";"XQ29+4VC, Gampong Aceh, Kec. Idi Rayeuk, Kabupaten Aceh Timur, Aceh";"Kabupaten Aceh Timur, Aceh";"ACEH";"";"Indonesia";"";"4.9503031";"97.7696561";"https://maps.google.com/?cid=0x0:0x584cf48261796798"
"supermarket";"Toko Swalayan";"Sudirman";"XQ29+6Q5, Keude Aceh, Kec. Idi Rayeuk, Kabupaten Aceh Timur, Aceh";"Kabupaten Aceh Timur, Aceh";"ACEH";"";"Indonesia";" 085296561617";"4.950523";"97.7694695";"https://maps.google.com/?cid=0x0:0xd282aeb585cd3b46"
"supermarket";"Kompleks Olahraga";"Asia sport distro";"Jalan T Umar, Keude Aceh, Kec. Idi Rayeuk, Kabupaten Aceh Timur, Aceh 24454";"Keude Aceh, Kec. Idi Rayeuk, Kabupaten Aceh Timur";"ACEH";"24454";"Indonesia";" 082272010761";"4.9510785";"97.7690934";"https://maps.google.com/?cid=0x0:0x35d41aac70b67564"
"supermarket";"Toko pintu";"Store";"husen, Jl. Peutua Husein, Kp. Jawa, Kec. Idi Rayeuk, Kabupaten Aceh Timur, Aceh 24454";"Jl. Peutua Husein, Kp. Jawa, Kec. Idi Rayeuk, Kabupaten Aceh Timur";"ACEH";"24454";"Indonesia";" 081250548958";"4.9533033";"97.7745449";"https://maps.google.com/?cid=0x0:0xc0ba6220c92c214f"
"supermarket";"supermarket";"Kec. Idi Tim.";"Kabupaten Aceh Timur, Aceh";"Kabupaten Aceh Timur, Aceh";"ACEH";"";"Indonesia";"";"4.9203515";"97.7990189";"https://maps.google.com/?cid=0x0:0x46d60b30aadd6a41"
"supermarket";"Toko Swalayan";"TK.U MART.2/Swaly,terlengkap,murah raya";"WQGR+RV7, Seuneubok Teungoh (Pr), Kec. Idi Rayeuk, Kabupaten Aceh Timur, Aceh";"Kabupaten Aceh Timur, Aceh";"ACEH";"";"Indonesia";" 085296671076";"4.9270341";"97.7921787";"https://maps.google.com/?cid=0x0:0x2a8463ae71d0ec20"
"supermarket";"Toko Swalayan";"Zaura Swalayan";"Gampong Aceh, Kec. Idi Rayeuk, Kabupaten Aceh Timur, Aceh";"Kabupaten Aceh Timur, Aceh";"ACEH";"";"Indonesia";"";"4.950589";"97.7685336";"https://maps.google.com/?cid=0x0:0xdbef78b40a7cbcbc"
"supermarket";"Toko Swalayan";"HIJRAH SWALAYAN";"XQ2C+64M, Keude Aceh, Kec. Idi Rayeuk, Kabupaten Aceh Timur, Aceh";"Kabupaten Aceh Timur, Aceh";"ACEH";"";"Indonesia";"";"4.9505801";"97.7702979";"https://maps.google.com/?cid=0x0:0xdcd314e469aadd12"
"supermarket";"Toko Swalayan";"HN.swalayan Idi Rayeuk";"Jalan cut Mutia, Keude Aceh, Kec. Idi Rayeuk, Kabupaten Aceh Timur, Aceh 24454";"Keude Aceh, Kec. Idi Rayeuk, Kabupaten Aceh Timur";"ACEH";"24454";"Indonesia";"";"4.9512392";"97.7687633";"https://maps.google.com/?cid=0x0:0x72deb59100cfc61f"
"supermarket";"Produsen";"Harissa Mart";"Jl. Medan Banda Aceh, Tanoh Anou, Kec. Idi Rayeuk, Kabupaten Aceh Timur, Aceh 24454";"Tanoh Anou, Kec. Idi Rayeuk, Kabupaten Aceh Timur";"ACEH";"24454";"Indonesia";" 081263981674";"4.9457345";"97.7756032";"https://maps.google.com/?cid=0x0:0xb394b0defcade5a4"
"supermarket";"Toko Swalayan";"HS SWALAYAN";"VRXF+277, Kp. Keude, Kec. Peudawa, Kabupaten Aceh Timur, Aceh";"Kabupaten Aceh Timur, Aceh";"ACEH";"";"Indonesia";" 085283833307";"4.8975714";"97.8229097";"https://maps.google.com/?cid=0x0:0x2d84a45369a6cf05"
"supermarket";"Pasar";"Toko Adat";"XQ2C+C98, Keude Aceh, Kec. Idi Rayeuk, Kabupaten Aceh Timur, Aceh";"Kabupaten Aceh Timur, Aceh";"ACEH";"";"Indonesia";" 085260899747";"4.9510406";"97.770964";"https://maps.google.com/?cid=0x0:0x2607a0829e00a66c"
"supermarket";"Toko Kelontong Asia";"TIMANG RASA";"WQGV+63C, Jl. Medan Banda Aceh, Seuneubok Teungoh (Pr), Kec. Idi Rayeuk, Kabupaten Aceh Timur, Aceh";"Kabupaten Aceh Timur, Aceh";"ACEH";"";"Indonesia";" 082273498359";"4.92557";"97.7926314";"https://maps.google.com/?cid=0x0:0x4ae16f938de4238e"
"supermarket";"Toko Swalayan";"Kios jamal";"WRJ2+4VM, Matang Rayeuk (SMK), Kec. Peudawa, Kabupaten Aceh Timur, Aceh";"Kabupaten Aceh Timur, Aceh";"ACEH";"";"Indonesia";" 082215239585";"4.9303309";"97.8021754";"https://maps.google.com/?cid=0x0:0x84b300009e7aaf70"
"supermarket";"Toko Kelontong Asia";"Toko ultra jaya";"XQ29+4VC, Gampong Aceh, Kec. Idi Rayeuk, Kabupaten Aceh Timur, Aceh";"Kabupaten Aceh Timur, Aceh";"ACEH";"";"Indonesia";"";"4.9503031";"97.7696561";"https://maps.google.com/?cid=0x0:0x584cf48261796798"
"supermarket";"Toko grosir";"Jalan jendral Sudirman";"XQ2C+C8R, Keude Aceh, Kec. Idi Rayeuk, Kabupaten Aceh Timur, Aceh";"Kabupaten Aceh Timur, Aceh";"ACEH";"";"Indonesia";"";"4.9511504";"97.7708182";"https://maps.google.com/?cid=0x0:0x2b5d8645e3fc5b8d"
"supermarket";"Toko Buku";"Toko Arafah";"XQ2C+9JC pajak sayur, Kp. Jawa, Kec. Idi Rayeuk, Kabupaten Aceh Timur, Aceh";"Kabupaten Aceh Timur, Aceh";"ACEH";"";"Indonesia";" 085297271757";"4.9509475";"97.7715306";"https://maps.google.com/?cid=0x0:0xb3c4fa2c1dc60aa4"
"supermarket";"Seafood";"PASAR IKAN IDI RAYEUK";"XQ39+86W, Keude Aceh, Kec. Idi Rayeuk, Kabupaten Aceh Timur, Aceh";"Kabupaten Aceh Timur, Aceh";"ACEH";"";"Indonesia";"";"4.9533568";"97.7680642";"https://maps.google.com/?cid=0x0:0xc85ce1081df5eba7"
"supermarket";"supermarket";"Kec. Idi Tunong";"Kabupaten Aceh Timur, Aceh";"Kabupaten Aceh Timur, Aceh";"ACEH";"";"Indonesia";"";"4.924037";"97.7300209";"https://maps.google.com/?cid=0x0:0xce43963eb576bc1b"
"supermarket";"Minimarket";"Kios jaya meutuah";"WP5C+R54, Keude Keumuneng, Kec. Idi Tunong, Kabupaten Aceh Timur, Aceh 24454";"Keude Keumuneng, Kec. Idi Tunong, Kabupaten Aceh Timur";"ACEH";"24454";"Indonesia";"";"4.9095028";"97.7204644";"https://maps.google.com/?cid=0x0:0x9405e47f3d0f5e27"
"supermarket";"Toko Swalayan";"Zaura Swalayan";"Gampong Aceh, Kec. Idi Rayeuk, Kabupaten Aceh Timur, Aceh";"Kabupaten Aceh Timur, Aceh";"ACEH";"";"Indonesia";"";"4.950589";"97.7685336";"https://maps.google.com/?cid=0x0:0xdbef78b40a7cbcbc"
"supermarket";"Toko bahan makanan";"Masterpiyoh";"WQP6+28P, Keude Dua, Kec. Darul Ihsan, Kabupaten Aceh Timur, Aceh 24454";"Keude Dua, Kec. Darul Ihsan, Kabupaten Aceh Timur";"ACEH";"24454";"Indonesia";" 082362226911";"4.9350876";"97.7608267";"https://maps.google.com/?cid=0x0:0x5610b791fe7b8468"
"supermarket";"Toko Swalayan";"HN.swalayan Idi Rayeuk";"Jalan cut Mutia, Keude Aceh, Kec. Idi Rayeuk, Kabupaten Aceh Timur, Aceh 24454";"Keude Aceh, Kec. Idi Rayeuk, Kabupaten Aceh Timur";"ACEH";"24454";"Indonesia";"";"4.9512392";"97.7687633";"https://maps.google.com/?cid=0x0:0x72deb59100cfc61f"
"supermarket";"Toko";"IP MART SWALAYAN";"Seuneubok Bacee, Kec. Idi Rayeuk, Kabupaten Aceh Timur, Aceh";"Kabupaten Aceh Timur, Aceh";"ACEH";"";"Indonesia";" 081362371638";"4.9420062";"97.7783297";"https://maps.google.com/?cid=0x0:0xac791096e071ecf5"
"supermarket";"Toko bahan makanan";"Mahyuddin store";"WPX2+R89, Alur Merbo, Kec. Darul Aman, Kabupaten Aceh Timur, Aceh";"Kabupaten Aceh Timur, Aceh";"ACEH";"";"Indonesia";"";"4.9495435";"97.7008666";"https://maps.google.com/?cid=0x0:0x9d8e5c382c9d64bf"
"supermarket";"Toko Peralatan Pangkas Rambut";"TOKO PUJA PANGKAS";"WPGJ+5P3, Jl. Keude Geurubak, Seuneubok Jl., Kec. Idi Tunong, Kabupaten Aceh Timur, Aceh 24455";"Jl. Keude Geurubak, Seuneubok Jl., Kec. Idi Tunong, Kabupaten Aceh Timur";"ACEH";"24455";"Indonesia";"";"4.925391";"97.7318068";"https://maps.google.com/?cid=0x0:0xf8e17c0ac2b5146c"
"supermarket";"Ikan Bakar";"TPI IDI";"XQ5G+26F, Blang Geulumpang, Kec. Idi Rayeuk, Kabupaten Aceh Timur, Aceh";"Kabupaten Aceh Timur, Aceh";"ACEH";"";"Indonesia";"";"4.9575545";"97.7755505";"https://maps.google.com/?cid=0x0:0xa84a372bd9ab41ff"
"supermarket";"Minimarket";"Dilla Market";"Gampong Jl., Kec. Idi Rayeuk, Kabupaten Aceh Timur, Aceh";"Kabupaten Aceh Timur, Aceh";"ACEH";"";"Indonesia";" 082364870932";"4.957754";"97.7637139";"https://maps.google.com/?cid=0x0:0x84dc03792d79f8e9"
"supermarket";"Toko umum";"RumoehCell";"WMFJ+X7P, Seuneubok Simpang, Kec. Darul Aman, Kabupaten Aceh Timur, Aceh 24453";"Seuneubok Simpang, Kec. Darul Aman, Kabupaten Aceh Timur";"ACEH";"24453";"Indonesia";" 082216384247";"4.9249575";"97.6807154";"https://maps.google.com/?cid=0x0:0xaa5fade608fd7bae"
"supermarket";"Produsen";"Harissa Mart";"Jl. Medan Banda Aceh, Tanoh Anou, Kec. Idi Rayeuk, Kabupaten Aceh Timur, Aceh 24454";"Tanoh Anou, Kec. Idi Rayeuk, Kabupaten Aceh Timur";"ACEH";"24454";"Indonesia";" 081263981674";"4.9457345";"97.7756032";"https://maps.google.com/?cid=0x0:0xb394b0defcade5a4"
"supermarket";"Toko Swalayan";"Toko garuda idi rayeuk aceh timur";"Kp. Jawa, Kec. Idi Rayeuk, Kabupaten Aceh Timur, Aceh 24454";"Kec. Idi Rayeuk, Kabupaten Aceh Timur";"ACEH";"24454";"Indonesia";" 082258666037";"4.9516401";"97.7703646";"https://maps.google.com/?cid=0x0:0x75ef4bf22ab91342"
"supermarket";"Kedai Kopi";"WARUNG BU EUIS";"XQ27+6FJ, Keude Blang, Kec. Idi Rayeuk, Kabupaten Aceh Timur, Aceh";"Kabupaten Aceh Timur, Aceh";"ACEH";"";"Indonesia";"";"4.9505926";"97.7636313";"https://maps.google.com/?cid=0x0:0xb02b1a1830e25236"
"supermarket";"supermarket";"Aceh 24457";"Kabupaten Aceh Timur, Aceh";"Kabupaten Aceh Timur, Aceh";"ACEH";"";"Indonesia";"";"4.7891972";"97.5897372";"https://maps.google.com/?cid=0x0:0x9a96488e19c6198c"
"supermarket";"Toko Roti";"SYIFA BAKERY";"WHCV+X8R, Alue Ie Mirah, Kec. Indra Makmur, Kabupaten Aceh Timur, Aceh 24458";"Alue Ie Mirah, Kec. Indra Makmur, Kabupaten Aceh Timur";"ACEH";"24458";"Indonesia";" 085262576886";"4.9224775";"97.593262";"https://maps.google.com/?cid=0x0:0x70e5a39fced818a4"
"supermarket";"Toko";"IP MART SWALAYAN";"Seuneubok Bacee, Kec. Idi Rayeuk, Kabupaten Aceh Timur, Aceh";"Kabupaten Aceh Timur, Aceh";"ACEH";"";"Indonesia";" 081362371638";"4.9420062";"97.7783297";"https://maps.google.com/?cid=0x0:0xac791096e071ecf5"
"supermarket";"supermarket";"Kec. Indra Makmur";"Kabupaten Aceh Timur, Aceh";"Kabupaten Aceh Timur, Aceh";"ACEH";"";"Indonesia";"";"4.9178257";"97.5924427";"https://maps.google.com/?cid=0x0:0x4befd17bc4e3b95c"
"supermarket";"Toko bahan makanan";"UD.Hambali";"Jl. Medan Banda Aceh, Meunasah Krueng, Kec. Peudawa, Kabupaten Aceh Timur, Aceh 24454";"Meunasah Krueng, Kec. Peudawa, Kabupaten Aceh Timur";"ACEH";"24454";"Indonesia";" 082274506751";"4.8894741";"97.8304133";"https://maps.google.com/?cid=0x0:0x76645eae04d45b5e"
"supermarket";"Toko bahan makanan";"Kedai yuni";"WJQ8+6PX, Blang Nisam, Kec. Indra Makmur, Kabupaten Aceh Timur, Aceh";"Kabupaten Aceh Timur, Aceh";"ACEH";"";"Indonesia";"";"4.9381128";"97.6168439";"https://maps.google.com/?cid=0x0:0xe00be4cc52cce3a8"
"supermarket";"Toko Swalayan";"TK.U MART.2/Swaly,terlengkap,murah raya";"WQGR+RV7, Seuneubok Teungoh (Pr), Kec. Idi Rayeuk, Kabupaten Aceh Timur, Aceh";"Kabupaten Aceh Timur, Aceh";"ACEH";"";"Indonesia";" 085296671076";"4.9270341";"97.7921787";"https://maps.google.com/?cid=0x0:0x2a8463ae71d0ec20"
"supermarket";"Toko umum";"Kedai";"WH5P+46P, Perk Julok Rayeuk Utara, Kec. Indra Makmur, Kabupaten Aceh Timur, Aceh 24458";"Perk Julok Rayeuk Utara, Kec. Indra Makmur, Kabupaten Aceh Timur";"ACEH";"24458";"Indonesia";"";"4.9078441";"97.5855862";"https://maps.google.com/?cid=0x0:0x435486125c5bc10d"
"supermarket";"Toko Swalayan";"HIJRAH SWALAYAN";"XQ2C+64M, Keude Aceh, Kec. Idi Rayeuk, Kabupaten Aceh Timur, Aceh";"Kabupaten Aceh Timur, Aceh";"ACEH";"";"Indonesia";"";"4.9505801";"97.7702979";"https://maps.google.com/?cid=0x0:0xdcd314e469aadd12"
"supermarket";"Toko Roti";"UD RAMBUTAN MANIS KEK PUSPITO";"VGPX+445, Seuneubok Bayu, Kec. Indra Makmur, Kabupaten Aceh Timur, Aceh";"Kabupaten Aceh Timur, Aceh";"ACEH";"";"Indonesia";"";"4.8852719";"97.5478661";"https://maps.google.com/?cid=0x0:0x3b62b950d093774b"
"supermarket";"Produsen";"Harissa Mart";"Jl. Medan Banda Aceh, Tanoh Anou, Kec. Idi Rayeuk, Kabupaten Aceh Timur, Aceh 24454";"Tanoh Anou, Kec. Idi Rayeuk, Kabupaten Aceh Timur";"ACEH";"24454";"Indonesia";" 081263981674";"4.9457345";"97.7756032";"https://maps.google.com/?cid=0x0:0xb394b0defcade5a4"
"supermarket";"Toko bahan makanan";"Masterpiyoh";"WQP6+28P, Keude Dua, Kec. Darul Ihsan, Kabupaten Aceh Timur, Aceh 24454";"Keude Dua, Kec. Darul Ihsan, Kabupaten Aceh Timur";"ACEH";"24454";"Indonesia";" 082362226911";"4.9350876";"97.7608267";"https://maps.google.com/?cid=0x0:0x5610b791fe7b8468"
"supermarket";"Minimarket";"Razka mart";"WQRH+X75, Jl. Medan Banda Aceh, Seuneubok Bacee, Kec. Idi Rayeuk, Kabupaten Aceh Timur, Aceh";"Kabupaten Aceh Timur, Aceh";"ACEH";"";"Indonesia";" 081360299249";"4.9423994";"97.778224";"https://maps.google.com/?cid=0x0:0x6022694cd17f16bb"
"supermarket";"Minimarket";"Kios jaya meutuah";"WP5C+R54, Keude Keumuneng, Kec. Idi Tunong, Kabupaten Aceh Timur, Aceh 24454";"Keude Keumuneng, Kec. Idi Tunong, Kabupaten Aceh Timur";"ACEH";"24454";"Indonesia";"";"4.9095028";"97.7204644";"https://maps.google.com/?cid=0x0:0x9405e47f3d0f5e27"
"supermarket";"Toko Swalayan";"Luthfi Swalayan";"2JRH+MCW, Blang Paoh Satu, Kec. Julok, Kabupaten Aceh Timur, Aceh 24458";"Blang Paoh Satu, Kec. Julok, Kabupaten Aceh Timur";"ACEH";"24458";"Indonesia";" 08126494794";"5.0417439";"97.6285772";"https://maps.google.com/?cid=0x0:0x5ba0556a4e6ad9e"
"supermarket";"Minimarket";"Kede Bg Ayi";"Buket Dindeng, Kec. Julok, Kabupaten Aceh Timur, Aceh 24458";"Kec. Julok, Kabupaten Aceh Timur";"ACEH";"24458";"Indonesia";"";"5.0322111";"97.5930675";"https://maps.google.com/?cid=0x0:0x6d0dd59b820fddf5"
"supermarket";"supermarket";"Kec. Julok";"Kabupaten Aceh Timur, Aceh";"Kabupaten Aceh Timur, Aceh";"ACEH";"";"Indonesia";"";"5.0420084";"97.6270812";"https://maps.google.com/?cid=0x0:0xcfeec36b993a81dd"
"supermarket";"Toko bahan makanan";"Toko Sayed Mahzal";"Sa, Blang Paoh Satu, Kec. Julok, Kabupaten Aceh Timur, Aceh 24458";"Blang Paoh Satu, Kec. Julok, Kabupaten Aceh Timur";"ACEH";"24458";"Indonesia";" 085261693139";"5.0388387";"97.6261056";"https://maps.google.com/?cid=0x0:0xf7332f96e27adee9"
"supermarket";"Minimarket";"Kios Salwa";"2JPR+J95, Jl. Medan Banda Aceh, Meunasah Teungoh, Kec. Nurussalam, Kabupaten Aceh Timur, Aceh 24458";"Jl. Medan Banda Aceh, Meunasah Teungoh, Kec. Nurussalam, Kabupaten Aceh Timur";"ACEH";"24458";"Indonesia";" 085260570004";"5.0365193";"97.6409784";"https://maps.google.com/?cid=0x0:0x51398fca91fba39e"
"supermarket";"Toko bahan makanan";"SYUKRANJAYA";"3H8G+4HC, Blang Gleum, Kec. Julok, Kabupaten Aceh Timur, Aceh 24458";"Blang Gleum, Kec. Julok, Kabupaten Aceh Timur";"ACEH";"24458";"Indonesia";" 081263664991";"5.0653235";"97.5763941";"https://maps.google.com/?cid=0x0:0xa9cb5fe127853bbb"
"supermarket";"Minimarket";"QIANA SWALAYAN";"Jl. Medan - Banda Aceh, Keude Kuta Binjai, Kec. Julok, Kabupaten Aceh Timur, Aceh 24458";"Keude Kuta Binjai, Kec. Julok, Kabupaten Aceh Timur";"ACEH";"24458";"Indonesia";"";"5.0415825";"97.6302242";"https://maps.google.com/?cid=0x0:0xbb0f3c6505256a45"
"supermarket";"Kios";"KIOS IRWANDA";"2JRJ+J4X, Blang Paoh Satu, Kec. Julok, Kabupaten Aceh Timur, Aceh 24458";"Blang Paoh Satu, Kec. Julok, Kabupaten Aceh Timur";"ACEH";"24458";"Indonesia";" 082277267334";"5.041609";"97.6303569";"https://maps.google.com/?cid=0x0:0x8c3440439c1f2e0f"
"supermarket";"Kios";"Kios Mardian";"2JMC+3XQ, Unnamed Road, Ulee Ateung, Kec. Julok, Kabupaten Aceh Timur, Aceh 24458";"Unnamed Road, Ulee Ateung, Kec. Julok, Kabupaten Aceh Timur";"ACEH";"24458";"Indonesia";" 085260793962";"5.032716";"97.622498";"https://maps.google.com/?cid=0x0:0xefdfd2a4ec63d79c"
"supermarket";"Minimarket";"Kedai Bumbu H.DIN";"Keude Kuta Binjai, Kec. Julok, Kabupaten Aceh Timur, Aceh 24458";"Kec. Julok, Kabupaten Aceh Timur";"ACEH";"24458";"Indonesia";" 081210000612";"5.0424103";"97.6279934";"https://maps.google.com/?cid=0x0:0x454cb2b908fa06b8"
"supermarket";"Kios";"Fadhil kioz";"2JMF+32R, Jl. Raya Julok, Ulee Ateung, Kec. Julok, Kabupaten Aceh Timur, Aceh 24458";"Jl. Raya Julok, Ulee Ateung, Kec. Julok, Kabupaten Aceh Timur";"ACEH";"24458";"Indonesia";"";"5.0327425";"97.6225168";"https://maps.google.com/?cid=0x0:0x2fa650861b0c03d8"
"supermarket";"Pusat Perbelanjaan";"Toko Jasa";"Jalan Medan - Banda Aceh Blang Paoh Satu, Keude Kuta Binjai, Kabupaten Aceh Timur, Aceh 24457";"Keude Kuta Binjai, Kabupaten Aceh Timur";"ACEH";"24457";"Indonesia";" 085373128123";"5.0417531";"97.6292712";"https://maps.google.com/?cid=0x0:0x180088d9062ca7a1"
"supermarket";"Dapur Umum";"Ujong tunong";"2HVR+JXW, Ujong Tunong, Kec. Julok, Kabupaten Aceh Timur, Aceh";"Kabupaten Aceh Timur, Aceh";"ACEH";"";"Indonesia";"";"5.0441225";"97.5924474";"https://maps.google.com/?cid=0x0:0xa62528a1f651cc5f"
"supermarket";"Toko umum";"SRC RAFDHAL";"Jln. Medan - Banda Aceh KM.350 Desa Gampong Baro, Cut, Kec. Julok, Kabupaten Aceh Timur, Aceh 24458";"Cut, Kec. Julok, Kabupaten Aceh Timur";"ACEH";"24458";"Indonesia";"";"5.0541345";"97.6014203";"https://maps.google.com/?cid=0x0:0x287be32d85ed0d83"
"supermarket";"Toko Swalayan";"UD.NDN";"Keude Simpang IV, Kec. Simpang Keramat, Kabupaten Aceh Utara, Aceh 24313";"Kec. Simpang Keramat, Kabupaten Aceh Utara";"ACEH";"24313";"Indonesia";" 085274504274";"5.0893177";"97.112819";"https://maps.google.com/?cid=0x0:0x9545aed479284c58"
"supermarket";"Toko Swalayan";"ND";"4FWP+RH4, Pante Meureubo, Kec. Madat, Kabupaten Aceh Timur, Aceh 24458";"Pante Meureubo, Kec. Madat, Kabupaten Aceh Timur";"ACEH";"24458";"Indonesia";"";"5.1470024";"97.4864396";"https://maps.google.com/?cid=0x0:0xeb5d2b38fc312125"
"supermarket";"Pusat Perbelanjaan";"UD.SUBUR TANI";"4G77+F2Q, Matang Keupula Satu, Kec. Madat, Kabupaten Aceh Timur, Aceh 24458";"Matang Keupula Satu, Kec. Madat, Kabupaten Aceh Timur";"ACEH";"24458";"Indonesia";" 085275516399";"5.1137164";"97.5126151";"https://maps.google.com/?cid=0x0:0x9832d0afd793006a"
"supermarket";"Toko Pakaian";"Toko Hajidin";"4G56+4XQ, Madat, Kec. Madat, Kabupaten Aceh Timur, Aceh 24458";"Madat, Kec. Madat, Kabupaten Aceh Timur";"ACEH";"24458";"Indonesia";"";"5.1078286";"97.5124715";"https://maps.google.com/?cid=0x0:0x60415aa86abea1bc"
"supermarket";"Minimarket";"toko RIDWAN";"4G89+MXQ, Ulee Ateung, Kec. Madat, Kabupaten Aceh Timur, Aceh 24458";"Ulee Ateung, Kec. Madat, Kabupaten Aceh Timur";"ACEH";"24458";"Indonesia";"";"5.1167528";"97.5199555";"https://maps.google.com/?cid=0x0:0x70ff43d9f29f75d6"
"supermarket";"Pasar";"Rumoh BG syah";"4G57+465, Madat, Kec. Madat, Kabupaten Aceh Timur, Aceh 24458";"Madat, Kec. Madat, Kabupaten Aceh Timur";"ACEH";"24458";"Indonesia";"";"5.1088141";"97.5138196";"https://maps.google.com/?cid=0x0:0x3923371a995748b3"
"supermarket";"supermarket";"CAHAYA KELUARGA";"4G56+4P7, Madat, Kec. Madat, Kabupaten Aceh Timur, Aceh 24458";"Madat, Kec. Madat, Kabupaten Aceh Timur";"ACEH";"24458";"Indonesia";"";"5.1077782";"97.5117898";"https://maps.google.com/?cid=0x0:0x57c95ab33d0b1b73"
"supermarket";"Kedai Kopi";"Kios bin Hasbi (aak)";"5F4W+4HG, Unnamed Road, Lueng Satu, Kec. Madat, Kabupaten Aceh Timur, Aceh 24458";"Unnamed Road, Lueng Satu, Kec. Madat, Kabupaten Aceh Timur";"ACEH";"24458";"Indonesia";"";"5.1553044";"97.4964549";"https://maps.google.com/?cid=0x0:0x6d36be529b590da0"
"supermarket";"Toko";"Ud target mandiri";"4F68+JWQ, Tj. Minjei, Kec. Madat, Kabupaten Aceh Timur, Aceh 24458";"Tj. Minjei, Kec. Madat, Kabupaten Aceh Timur";"ACEH";"24458";"Indonesia";" 082361653956";"5.1115913";"97.4673597";"https://maps.google.com/?cid=0x0:0xc90eb7f2935503a9"
"supermarket";"supermarket";"Gerai olahop madat";"4G67+FF, Madat, Kec. Madat, Kabupaten Aceh Timur, Aceh 24458";"Madat, Kec. Madat, Kabupaten Aceh Timur";"ACEH";"24458";"Indonesia";" 085296939342";"5.111126";"97.5137764";"https://maps.google.com/?cid=0x0:0xdd324393c0e70494"
"supermarket";"Toko umum";"SRC Berkat Doa";"4F6C+46W, Tj. Minjei, Kec. Madat, Kabupaten Aceh Timur, Aceh 24458";"Tj. Minjei, Kec. Madat, Kabupaten Aceh Timur";"ACEH";"24458";"Indonesia";" 085260654125";"5.1103559";"97.4705832";"https://maps.google.com/?cid=0x0:0xfc0e8e23e42a8780"
"supermarket";"Minimarket";"Kios Salwa";"2JPR+J95, Jl. Medan Banda Aceh, Meunasah Teungoh, Kec. Nurussalam, Kabupaten Aceh Timur, Aceh 24458";"Jl. Medan Banda Aceh, Meunasah Teungoh, Kec. Nurussalam, Kabupaten Aceh Timur";"ACEH";"24458";"Indonesia";" 085260570004";"5.0365193";"97.6409784";"https://maps.google.com/?cid=0x0:0x51398fca91fba39e"
"supermarket";"Apartemen sewa liburan";"Dusun Salek Gampong Mesjid";"WMX6+RX5, Alue Siwah Serdang, Kec. Nurussalam, Kabupaten Aceh Timur, Aceh 24453";"Alue Siwah Serdang, Kec. Nurussalam, Kabupaten Aceh Timur";"ACEH";"24453";"Indonesia";"";"4.9495248";"97.6624794";"https://maps.google.com/?cid=0x0:0xcf988b9d2f12018c"
"supermarket";"supermarket";"Kec. Nurussalam";"Kabupaten Aceh Timur, Aceh";"Kabupaten Aceh Timur, Aceh";"ACEH";"";"Indonesia";"";"5.0288426";"97.6662315";"https://maps.google.com/?cid=0x0:0x8a1127d50c7b392d"
"supermarket";"Establishment";"Desainer plafon pvc kalsibot dan kichen";"Cot Asan, Kec. Nurussalam, Kabupaten Aceh Timur, Aceh 24456";"Kec. Nurussalam, Kabupaten Aceh Timur";"ACEH";"24456";"Indonesia";" 082161164032";"5.0088218";"97.6680884";"https://maps.google.com/?cid=0x0:0x44188233c816b926"
"supermarket";"Toko bahan makanan";"UD. Beu Na Rahmat (Irvan)";"2MHF+FRC, Jl. Medan - Banda Aceh, Teupin Pukat, Kec. Nurussalam, Kabupaten Aceh Timur, Aceh";"Kabupaten Aceh Timur, Aceh";"ACEH";"";"Indonesia";"";"5.0286762";"97.6745175";"https://maps.google.com/?cid=0x0:0x6ff741d4b180b6fe"
"supermarket";"Minimarket";"Toko Peugoet";"2MH8+G7V, Jl. Medan - Banda Aceh, Kp. Keude Bagok, Kec. Nurussalam, Kabupaten Aceh Timur, Aceh 24458";"Jl. Medan - Banda Aceh, Kp. Keude Bagok, Kec. Nurussalam, Kabupaten Aceh Timur";"ACEH";"24458";"Indonesia";"";"5.0288741";"97.6656789";"https://maps.google.com/?cid=0x0:0x8e5b3c512f41f901"
"supermarket";"Toko bahan makanan";"Raudatul Swalayan";"2JRG+QM9, Blang Paoh Dua, Kec. Julok, Kabupaten Aceh Timur, Aceh 24458";"Blang Paoh Dua, Kec. Julok, Kabupaten Aceh Timur";"ACEH";"24458";"Indonesia";"";"5.0419088";"97.6267249";"https://maps.google.com/?cid=0x0:0x89187a96692fe679"
"supermarket";"Toko Swalayan";"Luthfi Swalayan";"2JRH+MCW, Blang Paoh Satu, Kec. Julok, Kabupaten Aceh Timur, Aceh 24458";"Blang Paoh Satu, Kec. Julok, Kabupaten Aceh Timur";"ACEH";"24458";"Indonesia";" 08126494794";"5.0417439";"97.6285772";"https://maps.google.com/?cid=0x0:0x5ba0556a4e6ad9e"
"supermarket";"Toko Swalayan";"Zaura Swalayan";"Gampong Aceh, Kec. Idi Rayeuk, Kabupaten Aceh Timur, Aceh";"Kabupaten Aceh Timur, Aceh";"ACEH";"";"Indonesia";"";"4.950589";"97.7685336";"https://maps.google.com/?cid=0x0:0xdbef78b40a7cbcbc"
"supermarket";"Toko umum";"RumoehCell";"WMFJ+X7P, Seuneubok Simpang, Kec. Darul Aman, Kabupaten Aceh Timur, Aceh 24453";"Seuneubok Simpang, Kec. Darul Aman, Kabupaten Aceh Timur";"ACEH";"24453";"Indonesia";" 082216384247";"4.9249575";"97.6807154";"https://maps.google.com/?cid=0x0:0xaa5fade608fd7bae"
"supermarket";"Toko bahan makanan";"Kedai dek lia";"XJPQ+9X, Seuneubok Rambong, Kec. Nurussalam, Kabupaten Aceh Timur, Aceh 24458";"Seuneubok Rambong, Kec. Nurussalam, Kabupaten Aceh Timur";"ACEH";"24458";"Indonesia";"";"4.9859553";"97.6399683";"https://maps.google.com/?cid=0x0:0x20c1d57d65e96a90"
"supermarket";"Toko bahan makanan";"Toko Sayed Mahzal";"Sa, Blang Paoh Satu, Kec. Julok, Kabupaten Aceh Timur, Aceh 24458";"Blang Paoh Satu, Kec. Julok, Kabupaten Aceh Timur";"ACEH";"24458";"Indonesia";" 085261693139";"5.0388387";"97.6261056";"https://maps.google.com/?cid=0x0:0xf7332f96e27adee9"
"supermarket";"Pusat Perbelanjaan";"Toko Jasa";"Jalan Medan - Banda Aceh Blang Paoh Satu, Keude Kuta Binjai, Kabupaten Aceh Timur, Aceh 24457";"Keude Kuta Binjai, Kabupaten Aceh Timur";"ACEH";"24457";"Indonesia";" 085373128123";"5.0417531";"97.6292712";"https://maps.google.com/?cid=0x0:0x180088d9062ca7a1"
"supermarket";"Kios";"kios abulih";"XMXX+6X5, Kemuning IV, Kec. Darul Aman, Kabupaten Aceh Timur, Aceh";"Kabupaten Aceh Timur, Aceh";"ACEH";"";"Indonesia";"";"4.9980132";"97.6999759";"https://maps.google.com/?cid=0x0:0xd683f930b383f10d"
"supermarket";"Toko bahan makanan";"Bismillah Jaya";"2GH8+V58, Seuneubok Saboh, Kec. Pante Bidari, Kabupaten Aceh Timur, Aceh 24458";"Seuneubok Saboh, Kec. Pante Bidari, Kabupaten Aceh Timur";"ACEH";"24458";"Indonesia";"";"5.0296696";"97.5154669";"https://maps.google.com/?cid=0x0:0x6268f4c1435d7f34"
"supermarket";"supermarket";"Aceh 24458";"Kabupaten Aceh Timur, Aceh";"Kabupaten Aceh Timur, Aceh";"ACEH";"";"Indonesia";"";"4.9131571";"97.5463885";"https://maps.google.com/?cid=0x0:0x82c363c7b075e66"
"supermarket";"Pusat Perbelanjaan";"Suriyadharma";"3GF9+5Q8, Keude Baro, Kec. Pante Bidari, Kabupaten Aceh Timur, Aceh 24458";"Keude Baro, Kec. Pante Bidari, Kabupaten Aceh Timur";"ACEH";"24458";"Indonesia";" 082364846003";"5.0729111";"97.5194489";"https://maps.google.com/?cid=0x0:0xcbf3e0d768f0a5a6"
"supermarket";"Toko Swalayan";"Kedai jaya";"VGX5+FC2, Pante Labu, Kec. Pante Bidari, Kabupaten Aceh Timur, Aceh";"Kabupaten Aceh Timur, Aceh";"ACEH";"";"Indonesia";" 082168651878";"4.898633";"97.5085159";"https://maps.google.com/?cid=0x0:0x19ad52296335fa19"
"supermarket";"Minimarket";"Kede Bg Ayi";"Buket Dindeng, Kec. Julok, Kabupaten Aceh Timur, Aceh 24458";"Kec. Julok, Kabupaten Aceh Timur";"ACEH";"24458";"Indonesia";"";"5.0322111";"97.5930675";"https://maps.google.com/?cid=0x0:0x6d0dd59b820fddf5"
"supermarket";"supermarket";"LEUBU KELONTONG";"DUSUN, UJONG KULAM, Kec. Pante Bidari, Kabupaten Aceh Timur, Aceh 24463";"UJONG KULAM, Kec. Pante Bidari, Kabupaten Aceh Timur";"ACEH";"24463";"Indonesia";"";"5.0978784";"97.488417";"https://maps.google.com/?cid=0x0:0x6b0f85830aa58908"
"supermarket";"Toko bahan makanan";"Toko Murah Raya Mart";"3GCC+4FV, Keude Baro, Kec. Pante Bidari, Kabupaten Aceh Timur, Aceh 24458";"Keude Baro, Kec. Pante Bidari, Kabupaten Aceh Timur";"ACEH";"24458";"Indonesia";" 085362941810";"5.0703506";"97.5211592";"https://maps.google.com/?cid=0x0:0xd6ab5f660cbef485"
"supermarket";"Toko bahan makanan";"Arafah Mart";"3GCC+FJ6, Keude Baro, Kec. Pante Bidari, Kabupaten Aceh Timur, Aceh";"Kabupaten Aceh Timur, Aceh";"ACEH";"";"Indonesia";"";"5.0712025";"97.5214998";"https://maps.google.com/?cid=0x0:0xb7edf7a1904dfd98"
"supermarket";"Toko";"Keude stevan";"2G26+G84, Jalan, Alue Ie Mirah, Kec. Pante Bidari, Kabupaten Aceh Timur, Aceh";"Kabupaten Aceh Timur, Aceh";"ACEH";"";"Indonesia";"";"5.0012741";"97.5108235";"https://maps.google.com/?cid=0x0:0xefab6b37beaecb3e"
"supermarket";"Kedai Kopi";"UD Bunda Mesya";"XGC3+3G, Pante Rambong, Kec. Pante Bidari, Kabupaten Aceh Timur, Aceh";"Kabupaten Aceh Timur, Aceh";"ACEH";"";"Indonesia";" 082285819039";"4.9701386";"97.5037962";"https://maps.google.com/?cid=0x0:0x94c46760a13ecf12"
"supermarket";"Toko Swalayan";"Luthfi Swalayan";"2JRH+MCW, Blang Paoh Satu, Kec. Julok, Kabupaten Aceh Timur, Aceh 24458";"Blang Paoh Satu, Kec. Julok, Kabupaten Aceh Timur";"ACEH";"24458";"Indonesia";" 08126494794";"5.0417439";"97.6285772";"https://maps.google.com/?cid=0x0:0x5ba0556a4e6ad9e"
"supermarket";"Toko Pakaian";"Mus berkah";"3GCF+R9J, Keude Baro, Kec. Pante Bidari, Kabupaten Aceh Timur, Aceh 24458";"Keude Baro, Kec. Pante Bidari, Kabupaten Aceh Timur";"ACEH";"24458";"Indonesia";"";"5.0720753";"97.5233771";"https://maps.google.com/?cid=0x0:0xdb58bd04ecab67cb"
"supermarket";"Toko Swalayan";"Toko Cahaya baru";"Jl. Seunuddon, Keude Pante Breuh, Kec. Baktiya, Kabupaten Aceh Utara, Aceh 24392";"Keude Pante Breuh, Kec. Baktiya, Kabupaten Aceh Utara";"ACEH";"24392";"Indonesia";" 081375754365";"5.1240771";"97.4427632";"https://maps.google.com/?cid=0x0:0xb4642281f38a646e"
"supermarket";"Toko Roti";"SYIFA BAKERY";"WHCV+X8R, Alue Ie Mirah, Kec. Indra Makmur, Kabupaten Aceh Timur, Aceh 24458";"Alue Ie Mirah, Kec. Indra Makmur, Kabupaten Aceh Timur";"ACEH";"24458";"Indonesia";" 085262576886";"4.9224775";"97.593262";"https://maps.google.com/?cid=0x0:0x70e5a39fced818a4"
"supermarket";"supermarket";"Kec. Peudawa";"Kabupaten Aceh Timur, Aceh";"Kabupaten Aceh Timur, Aceh";"ACEH";"";"Indonesia";"";"4.898169";"97.8214679";"https://maps.google.com/?cid=0x0:0x220905180a6bf00b"
"supermarket";"Toko Swalayan";"HS SWALAYAN";"VRXF+277, Kp. Keude, Kec. Peudawa, Kabupaten Aceh Timur, Aceh";"Kabupaten Aceh Timur, Aceh";"ACEH";"";"Indonesia";" 085283833307";"4.8975714";"97.8229097";"https://maps.google.com/?cid=0x0:0x2d84a45369a6cf05"
"supermarket";"Minimarket";"Kede adk";"Alue Batee, Kec. Peudawa, Kabupaten Aceh Timur, Aceh 24454";"Kec. Peudawa, Kabupaten Aceh Timur";"ACEH";"24454";"Indonesia";"";"4.8804746";"97.8399548";"https://maps.google.com/?cid=0x0:0xc4c0049cdbb27942"
"supermarket";"Toko Swalayan";"Zaura Swalayan";"Gampong Aceh, Kec. Idi Rayeuk, Kabupaten Aceh Timur, Aceh";"Kabupaten Aceh Timur, Aceh";"ACEH";"";"Indonesia";"";"4.950589";"97.7685336";"https://maps.google.com/?cid=0x0:0xdbef78b40a7cbcbc"
"supermarket";"Toko Swalayan";"@TBrodred";"VRCR+X8Q, Alue Batee, Kec. Peudawa, Kabupaten Aceh Timur, Aceh";"Kabupaten Aceh Timur, Aceh";"ACEH";"";"Indonesia";" 082317538864";"4.8724584";"97.840875";"https://maps.google.com/?cid=0x0:0xa5ab221fdf09305c"
"supermarket";"Kios";"Toko Usaha Baru";"VVJ4+CFG, Alue Bu Jl. Baroh, Kec. Peureulak Bar., Kabupaten Aceh Timur, Aceh";"Kabupaten Aceh Timur, Aceh";"ACEH";"";"Indonesia";" 085371260637";"4.881052";"97.8562167";"https://maps.google.com/?cid=0x0:0xf372b47b645ffe4c"
"supermarket";"Minimarket";"MUNAWWARAH MART";"Kp. Keude, Kec. Peudawa, Kabupaten Aceh Timur, Aceh 24454";"Kec. Peudawa, Kabupaten Aceh Timur";"ACEH";"24454";"Indonesia";"";"4.8983743";"97.8245578";"https://maps.google.com/?cid=0x0:0x5a5d06163758f8e2"
"supermarket";"Pertanian";"Peternakan Nusantara";"WR5C+2HV, Sama Dua, Kec. Peudawa, Kabupaten Aceh Timur, Aceh";"Kabupaten Aceh Timur, Aceh";"ACEH";"";"Indonesia";" 085277592711";"4.907618";"97.8214107";"https://maps.google.com/?cid=0x0:0x9de1f7b7bcef918e"
"supermarket";"Toko";"Kios Rindu";"Jl. Medan - Banda Aceh, Meunasah Krueng, Kec. Peudawa, Kabupaten Aceh Timur, Aceh 24454";"Meunasah Krueng, Kec. Peudawa, Kabupaten Aceh Timur";"ACEH";"24454";"Indonesia";" 085275307007";"4.884946";"97.8351";"https://maps.google.com/?cid=0x0:0x77e4a1a54a668025"
"supermarket";"Toko Swalayan";"Kios jamal";"WRJ2+4VM, Matang Rayeuk (SMK), Kec. Peudawa, Kabupaten Aceh Timur, Aceh";"Kabupaten Aceh Timur, Aceh";"ACEH";"";"Indonesia";" 082215239585";"4.9303309";"97.8021754";"https://maps.google.com/?cid=0x0:0x84b300009e7aaf70"
"supermarket";"Toko Perlengkapan Rumah";"Toko bina atakana";"VRWG+6F5, Jl. Medan Banda Aceh, Kp. Keude, Kec. Peudawa, Kabupaten Aceh Timur, Aceh";"Kabupaten Aceh Timur, Aceh";"ACEH";"";"Indonesia";"";"4.8955113";"97.8262449";"https://maps.google.com/?cid=0x0:0x27f2ea55258c6aa7"
"supermarket";"Minimarket";"Toko buah";"VRWF+JWH, Jl. Medan Banda Aceh, Kp. Keude, Kec. Peudawa, Kabupaten Aceh Timur, Aceh";"Kabupaten Aceh Timur, Aceh";"ACEH";"";"Indonesia";"";"4.896631";"97.8247356";"https://maps.google.com/?cid=0x0:0x68d28161d47ee0dd"
"supermarket";"Toko Swalayan";"TK.U MART.2/Swaly,terlengkap,murah raya";"WQGR+RV7, Seuneubok Teungoh (Pr), Kec. Idi Rayeuk, Kabupaten Aceh Timur, Aceh";"Kabupaten Aceh Timur, Aceh";"ACEH";"";"Indonesia";" 085296671076";"4.9270341";"97.7921787";"https://maps.google.com/?cid=0x0:0x2a8463ae71d0ec20"
"supermarket";"Toko umum";"Kedai kelontong tgk him";"VRRH+JJG, Meunasah Krueng, Kec. Peudawa, Kabupaten Aceh Timur, Aceh";"Kabupaten Aceh Timur, Aceh";"ACEH";"";"Indonesia";"";"4.891571";"97.8290653";"https://maps.google.com/?cid=0x0:0x32e02e783a10e89e"
"supermarket";"supermarket";"Aceh 24461";"Kabupaten Aceh Timur, Aceh";"Kabupaten Aceh Timur, Aceh";"ACEH";"";"Indonesia";"";"4.950275";"97.6792293";"https://maps.google.com/?cid=0x0:0x40ce92432b582121"
"supermarket";"Toko Ponsel";"Pante Kasih Cell";"RV5V+763, Keude Peureulak, Kec. Peureulak, Kabupaten Aceh Timur, Aceh 24461";"Keude Peureulak, Kec. Peureulak, Kabupaten Aceh Timur";"ACEH";"24461";"Indonesia";" 082276424594";"4.8081378";"97.8930509";"https://maps.google.com/?cid=0x0:0xe22d34a7363d202e"
"supermarket";"Toko Swalayan";"Zaura Swalayan";"Gampong Aceh, Kec. Idi Rayeuk, Kabupaten Aceh Timur, Aceh";"Kabupaten Aceh Timur, Aceh";"ACEH";"";"Indonesia";"";"4.950589";"97.7685336";"https://maps.google.com/?cid=0x0:0xdbef78b40a7cbcbc"
"supermarket";"Toko bahan makanan";"Azka Mart";"RVPP+479, Bar., Beusa Seberang, Kec. Peureulak Bar., Kabupaten Aceh Timur, Aceh 24458";"Bar., Beusa Seberang, Kec. Peureulak Bar., Kabupaten Aceh Timur";"ACEH";"24458";"Indonesia";"";"4.8352952";"97.8857492";"https://maps.google.com/?cid=0x0:0x8051639f6448401c"
"supermarket";"Toko";"MT. SWALAYAN Rezeki Nasabe";"RV8W+3CG, Pasir Putih, Kec. Peureulak, Kabupaten Aceh Timur, Aceh 24458";"Pasir Putih, Kec. Peureulak, Kabupaten Aceh Timur";"ACEH";"24458";"Indonesia";" 082297534324";"4.815178";"97.8960742";"https://maps.google.com/?cid=0x0:0x22f4ba41da0b2c31"
"supermarket";"Toko Swalayan";"Berkat Baru Swalayan";"XPPC+H4Q, Kp. Keude, Kec. Darul Aman, Kabupaten Aceh Timur, Aceh";"Kabupaten Aceh Timur, Aceh";"ACEH";"";"Indonesia";"";"4.9864633";"97.7203591";"https://maps.google.com/?cid=0x0:0x1bffa0cc8e6f44f8"
"supermarket";"Toko";"Syahirah swalayan";"Jl. Rumah Sakit Umum Jalan, Lhok Dalam, Kec. Peureulak, Kabupaten Aceh Timur, Aceh 24461";"Lhok Dalam, Kec. Peureulak, Kabupaten Aceh Timur";"ACEH";"24461";"Indonesia";" 082160759622";"4.8076187";"97.8872586";"https://maps.google.com/?cid=0x0:0x280c7a610ba6a1e8"
"supermarket";"Toko bahan makanan";"Toko Daffa";"Jl. Rumah Sakit Umum Jalan, Keude Peureulak, Kec. Peureulak, Kabupaten Aceh Timur, Aceh 24461";"Keude Peureulak, Kec. Peureulak, Kabupaten Aceh Timur";"ACEH";"24461";"Indonesia";"";"4.80841";"97.8916653";"https://maps.google.com/?cid=0x0:0xfe77d6e058eb8a6e"
"supermarket";"Pasar Petani";"SWALAYAN DUTA PEUNARON";"Arul Pinang, Kec. Peunaron, Kabupaten Aceh Timur, Aceh 24392";"Kec. Peunaron, Kabupaten Aceh Timur";"ACEH";"24392";"Indonesia";" 081375628111";"4.6092463";"97.6600302";"https://maps.google.com/?cid=0x0:0x79e5ad89d854e436"
"supermarket";"Toko Swalayan";"Toko Maula Baru";"XPPC+M64, Jl. Mesjid, Kuala Idi Cut, Kec. Darul Aman, Kabupaten Aceh Timur, Aceh";"Kabupaten Aceh Timur, Aceh";"ACEH";"";"Indonesia";"";"4.9866434";"97.720566";"https://maps.google.com/?cid=0x0:0xf5c804534ac8bcef"
"supermarket";"Toko bahan makanan";"warung cek wan ulee tutu";"XMCP+RJM, Gaseh Sayang, Kec. Darul Aman, Kabupaten Aceh Timur, Aceh 24453";"Gaseh Sayang, Kec. Darul Aman, Kabupaten Aceh Timur";"ACEH";"24453";"Indonesia";"";"4.9720893";"97.6865339";"https://maps.google.com/?cid=0x0:0x4430b7022ad468d1"
"supermarket";"Pusat Perbelanjaan";"Pasar Rakyat Peureulak";"Tj. Tualang, Kec. Peureulak Bar., Kabupaten Aceh Timur, Aceh 24461";"Kec. Peureulak Bar., Kabupaten Aceh Timur";"ACEH";"24461";"Indonesia";"";"4.8131869";"97.8899992";"https://maps.google.com/?cid=0x0:0x96913c2d0f923043"
"supermarket";"Kios";"Toko Usaha Baru";"VVJ4+CFG, Alue Bu Jl. Baroh, Kec. Peureulak Bar., Kabupaten Aceh Timur, Aceh";"Kabupaten Aceh Timur, Aceh";"ACEH";"";"Indonesia";" 085371260637";"4.881052";"97.8562167";"https://maps.google.com/?cid=0x0:0xf372b47b645ffe4c"
"supermarket";"Toko";"Amanda Jaya Peunaron";"peunaroen, Arul Pinang, Kec. Peunaron, Kabupaten Aceh Timur, Aceh 24392";"Arul Pinang, Kec. Peunaron, Kabupaten Aceh Timur";"ACEH";"24392";"Indonesia";" 085385967944";"4.6095421";"97.6608835";"https://maps.google.com/?cid=0x0:0x11a1818e942eba8b"
"supermarket";"Toko Swalayan";"BP SWALAYAN";"RV4R+PJ4, Lhok Dalam, Kec. Peureulak, Kabupaten Aceh Timur, Aceh 24461";"Lhok Dalam, Kec. Peureulak, Kabupaten Aceh Timur";"ACEH";"24461";"Indonesia";" 082370581756";"4.8067616";"97.8915912";"https://maps.google.com/?cid=0x0:0x5d010758a93dbef1"
"supermarket";"supermarket";"Aceh 24453";"Kabupaten Aceh Timur, Aceh";"Kabupaten Aceh Timur, Aceh";"ACEH";"";"Indonesia";"";"4.7563162";"97.7742702";"https://maps.google.com/?cid=0x0:0x3f249fb702225b43"
"supermarket";"Toko";"MT. SWALAYAN Rezeki Nasabe";"RV8W+3CG, Pasir Putih, Kec. Peureulak, Kabupaten Aceh Timur, Aceh 24458";"Pasir Putih, Kec. Peureulak, Kabupaten Aceh Timur";"ACEH";"24458";"Indonesia";" 082297534324";"4.815178";"97.8960742";"https://maps.google.com/?cid=0x0:0x22f4ba41da0b2c31"
"supermarket";"Toko";"ud usaha sederhana";"QRG9+68R, Alue Rambong, Kec. Peureulak, Kabupaten Aceh Timur, Aceh 24453";"Alue Rambong, Kec. Peureulak, Kabupaten Aceh Timur";"ACEH";"24453";"Indonesia";"";"4.7756033";"97.8182552";"https://maps.google.com/?cid=0x0:0x361043ce4f885ead"
"supermarket";"Toko umum";"FIFI Minimarket";"RQ4X+6QQ, jln pertamina posXI, Buket Pala, Kec. Rantau Peureulak, Kabupaten Aceh Timur, Aceh 24453";"jln pertamina posXI, Buket Pala, Kec. Rantau Peureulak, Kabupaten Aceh Timur";"ACEH";"24453";"Indonesia";" 082287664412";"4.8055928";"97.7994728";"https://maps.google.com/?cid=0x0:0x200528b8feca9e66"
"supermarket";"Toko bahan makanan";"Toko Daffa";"Jl. Rumah Sakit Umum Jalan, Keude Peureulak, Kec. Peureulak, Kabupaten Aceh Timur, Aceh 24461";"Keude Peureulak, Kec. Peureulak, Kabupaten Aceh Timur";"ACEH";"24461";"Indonesia";"";"4.80841";"97.8916653";"https://maps.google.com/?cid=0x0:0xfe77d6e058eb8a6e"
"supermarket";"Toko bahan makanan";"Az-zahra store";"Tanah Rata, Kec. Peureulak, Kabupaten Aceh Timur, Aceh 24453";"Kec. Peureulak, Kabupaten Aceh Timur";"ACEH";"24453";"Indonesia";" 085358689178";"4.8134698";"97.8479088";"https://maps.google.com/?cid=0x0:0x553a88b604abb584"
"supermarket";"Minimarket";"Zafran Store";"RR59+P2H, Unnamed Road, Pasir Putih, Kec. Rantau Peureulak, Kabupaten Aceh Timur, Aceh 24453";"Unnamed Road, Pasir Putih, Kec. Rantau Peureulak, Kabupaten Aceh Timur";"ACEH";"24453";"Indonesia";" 081263330478";"4.8093062";"97.817609";"https://maps.google.com/?cid=0x0:0x301b58bcac8a4bc7"
"supermarket";"Toko Swalayan";"UD halkal";"QRG9+793, Alue Rambong, Kec. Peureulak, Kabupaten Aceh Timur, Aceh 24453";"Alue Rambong, Kec. Peureulak, Kabupaten Aceh Timur";"ACEH";"24453";"Indonesia";"";"4.775639";"97.818433";"https://maps.google.com/?cid=0x0:0x393a434abc912c6e"
"supermarket";"Toko Barang Pecah Belah";"TOKO UTAMA KERAMIK";"Jl. Medan - Banda Aceh, Lhok Dalam, Kec. Peureulak, Kabupaten Aceh Timur, Aceh 24453";"Lhok Dalam, Kec. Peureulak, Kabupaten Aceh Timur";"ACEH";"24453";"Indonesia";" 08126921350";"4.8049559";"97.8917434";"https://maps.google.com/?cid=0x0:0x466e6df3b6caeed"
"supermarket";"Toko";"Syahirah swalayan";"Jl. Rumah Sakit Umum Jalan, Lhok Dalam, Kec. Peureulak, Kabupaten Aceh Timur, Aceh 24461";"Lhok Dalam, Kec. Peureulak, Kabupaten Aceh Timur";"ACEH";"24461";"Indonesia";" 082160759622";"4.8076187";"97.8872586";"https://maps.google.com/?cid=0x0:0x280c7a610ba6a1e8"
"supermarket";"Toko Swalayan";"Pondok selayang";"RQ4X+XFQ, Unnamed Road, Kp. Pertamina, Kec. Rantau Peureulak, Kabupaten Aceh Timur, Aceh 24453";"Unnamed Road, Kp. Pertamina, Kec. Rantau Peureulak, Kabupaten Aceh Timur";"ACEH";"24453";"Indonesia";"";"4.8074532";"97.7987267";"https://maps.google.com/?cid=0x0:0x395c67fdfc1416f6"
"supermarket";"Toko bahan makanan";"Kedai Bang Ma un";"Bhom Lama, Kec. Rantau Peureulak, Kabupaten Aceh Timur, Aceh 24453";"Kec. Rantau Peureulak, Kabupaten Aceh Timur";"ACEH";"24453";"Indonesia";"";"4.7906636";"97.8139897";"https://maps.google.com/?cid=0x0:0xa2505cc4f082bc1e"
"supermarket";"Toko";"Kios";"QRPX+HH3, Unnamed Road, Alue Dua Paya Gajah, Kec. Peureulak, Kabupaten Aceh Timur, Aceh 24453";"Unnamed Road, Alue Dua Paya Gajah, Kec. Peureulak, Kabupaten Aceh Timur";"ACEH";"24453";"Indonesia";" 081261113620";"4.7863928";"97.8489271";"https://maps.google.com/?cid=0x0:0xe2f7a88c3bf9d99f"
"supermarket";"supermarket";"Kec. Peureulak Bar.";"Kabupaten Aceh Timur, Aceh";"Kabupaten Aceh Timur, Aceh";"ACEH";"";"Indonesia";"";"4.8352078";"97.8855303";"https://maps.google.com/?cid=0x0:0xf81bdf02e8d21720"
"supermarket";"Toko Swalayan";"BP SWALAYAN";"RV4R+PJ4, Lhok Dalam, Kec. Peureulak, Kabupaten Aceh Timur, Aceh 24461";"Lhok Dalam, Kec. Peureulak, Kabupaten Aceh Timur";"ACEH";"24461";"Indonesia";" 082370581756";"4.8067616";"97.8915912";"https://maps.google.com/?cid=0x0:0x5d010758a93dbef1"
"supermarket";"Kios";"Toko Usaha Baru";"VVJ4+CFG, Alue Bu Jl. Baroh, Kec. Peureulak Bar., Kabupaten Aceh Timur, Aceh";"Kabupaten Aceh Timur, Aceh";"ACEH";"";"Indonesia";" 085371260637";"4.881052";"97.8562167";"https://maps.google.com/?cid=0x0:0xf372b47b645ffe4c"
"supermarket";"Toko";"MT. SWALAYAN Rezeki Nasabe";"RV8W+3CG, Pasir Putih, Kec. Peureulak, Kabupaten Aceh Timur, Aceh 24458";"Pasir Putih, Kec. Peureulak, Kabupaten Aceh Timur";"ACEH";"24458";"Indonesia";" 082297534324";"4.815178";"97.8960742";"https://maps.google.com/?cid=0x0:0x22f4ba41da0b2c31"
"supermarket";"Toko bahan makanan";"Beringin Jaya Mini Mart";"RVMP+W3W, Bar, Beusa Seberang, Kec. Peureulak Bar., Kabupaten Aceh Timur, Aceh 24458";"Bar, Beusa Seberang, Kec. Peureulak Bar., Kabupaten Aceh Timur";"ACEH";"24458";"Indonesia";" 085216525190";"4.8348681";"97.8852176";"https://maps.google.com/?cid=0x0:0x72f03838c3267bca"
"supermarket";"Toko Ponsel";"Pante Kasih Cell";"RV5V+763, Keude Peureulak, Kec. Peureulak, Kabupaten Aceh Timur, Aceh 24461";"Keude Peureulak, Kec. Peureulak, Kabupaten Aceh Timur";"ACEH";"24461";"Indonesia";" 082276424594";"4.8081378";"97.8930509";"https://maps.google.com/?cid=0x0:0xe22d34a7363d202e"
"supermarket";"Toko Swalayan";"toko selamat";"RV5R+RQ6, Jl, Keude Peureulak, Kec. Peureulak, Kabupaten Aceh Timur, Aceh 24453";"Jl, Keude Peureulak, Kec. Peureulak, Kabupaten Aceh Timur";"ACEH";"24453";"Indonesia";" 085372014989";"4.8095363";"97.8918903";"https://maps.google.com/?cid=0x0:0xa91226598f15ec4a"
"supermarket";"Pusat Perbelanjaan";"BINTANG PERDANA";"RV5R+3PX, Jl. Medan Banda Aceh, Lhok Dalam, Kec. Peureulak, Kabupaten Aceh Timur, Aceh 24461";"Jl. Medan Banda Aceh, Lhok Dalam, Kec. Peureulak, Kabupaten Aceh Timur";"ACEH";"24461";"Indonesia";"";"4.8077445";"97.8918575";"https://maps.google.com/?cid=0x0:0x440106557d22bd75"
"supermarket";"Toko bahan makanan";"Toko Daffa";"Jl. Rumah Sakit Umum Jalan, Keude Peureulak, Kec. Peureulak, Kabupaten Aceh Timur, Aceh 24461";"Keude Peureulak, Kec. Peureulak, Kabupaten Aceh Timur";"ACEH";"24461";"Indonesia";"";"4.80841";"97.8916653";"https://maps.google.com/?cid=0x0:0xfe77d6e058eb8a6e"
"supermarket";"Pusat Perbelanjaan";"Pasar Rakyat Peureulak";"Tj. Tualang, Kec. Peureulak Bar., Kabupaten Aceh Timur, Aceh 24461";"Kec. Peureulak Bar., Kabupaten Aceh Timur";"ACEH";"24461";"Indonesia";"";"4.8131869";"97.8899992";"https://maps.google.com/?cid=0x0:0x96913c2d0f923043"
"supermarket";"Toko";"Syahirah swalayan";"Jl. Rumah Sakit Umum Jalan, Lhok Dalam, Kec. Peureulak, Kabupaten Aceh Timur, Aceh 24461";"Lhok Dalam, Kec. Peureulak, Kabupaten Aceh Timur";"ACEH";"24461";"Indonesia";" 082160759622";"4.8076187";"97.8872586";"https://maps.google.com/?cid=0x0:0x280c7a610ba6a1e8"
"supermarket";"Toko";"Toko Hidup Subur";"RV5R+JQ9, Keude Peureulak, Kec. Peureulak, Kabupaten Aceh Timur, Aceh 24461";"Keude Peureulak, Kec. Peureulak, Kabupaten Aceh Timur";"ACEH";"24461";"Indonesia";" 082274501987";"4.8090462";"97.8919994";"https://maps.google.com/?cid=0x0:0x888223e95acdb20"
"supermarket";"Mesin Jual Otomatis Produk Kecantikan";"Blang Simpo.";"QRF9+V4M, Alue Rambong, Kec. Peureulak, Kabupaten Aceh Timur, Aceh 24453";"Alue Rambong, Kec. Peureulak, Kabupaten Aceh Timur";"ACEH";"24453";"Indonesia";"";"4.7747022";"97.8178094";"https://maps.google.com/?cid=0x0:0x70cae53edfeb646d"
"supermarket";"Toko bahan makanan";"KIOS NEK NU";"RV5V+6XP, Unnamed Road, Leuge, Kec. Peureulak, Kabupaten Aceh Timur, Aceh 24461";"Unnamed Road, Leuge, Kec. Peureulak, Kabupaten Aceh Timur";"ACEH";"24461";"Indonesia";" 085262717336";"4.8080887";"97.8949594";"https://maps.google.com/?cid=0x0:0x4ec42609fb8156a"
"supermarket";"supermarket";"Kec. Peureulak Tim.";"Kabupaten Aceh Timur, Aceh";"Kabupaten Aceh Timur, Aceh";"ACEH";"";"Indonesia";"";"4.7052499";"97.9061797";"https://maps.google.com/?cid=0x0:0x4e30e6079924e507"
"supermarket";"Toko Swalayan";"BP SWALAYAN";"RV4R+PJ4, Lhok Dalam, Kec. Peureulak, Kabupaten Aceh Timur, Aceh 24461";"Lhok Dalam, Kec. Peureulak, Kabupaten Aceh Timur";"ACEH";"24461";"Indonesia";" 082370581756";"4.8067616";"97.8915912";"https://maps.google.com/?cid=0x0:0x5d010758a93dbef1"
"supermarket";"Toko umum";"Sksjki";"QV3G+2FC, Jeungki, Kec. Peureulak Tim., Kabupaten Aceh Timur, Aceh 24458";"Jeungki, Kec. Peureulak Tim., Kabupaten Aceh Timur";"ACEH";"24458";"Indonesia";" 082294771987";"4.7525732";"97.8761266";"https://maps.google.com/?cid=0x0:0x138258e0a384d05c"
"supermarket";"Mesin Jual Otomatis Produk Kecantikan";"Blang Simpo.";"QRF9+V4M, Alue Rambong, Kec. Peureulak, Kabupaten Aceh Timur, Aceh 24453";"Alue Rambong, Kec. Peureulak, Kabupaten Aceh Timur";"ACEH";"24453";"Indonesia";"";"4.7747022";"97.8178094";"https://maps.google.com/?cid=0x0:0x70cae53edfeb646d"
"supermarket";"Toko";"MT. SWALAYAN Rezeki Nasabe";"RV8W+3CG, Pasir Putih, Kec. Peureulak, Kabupaten Aceh Timur, Aceh 24458";"Pasir Putih, Kec. Peureulak, Kabupaten Aceh Timur";"ACEH";"24458";"Indonesia";" 082297534324";"4.815178";"97.8960742";"https://maps.google.com/?cid=0x0:0x22f4ba41da0b2c31"
"supermarket";"Minimarket";"Kios Sitihawa";"PVHX+VRH, Seuneubok Jl., Kec. Peureulak Tim., Kabupaten Aceh Timur, Aceh 24452";"Seuneubok Jl., Kec. Peureulak Tim., Kabupaten Aceh Timur";"ACEH";"24452";"Indonesia";"";"4.7296902";"97.8996224";"https://maps.google.com/?cid=0x0:0xa49e0bb4b77b10c"
"supermarket";"Toko Swalayan";"toko selamat";"RV5R+RQ6, Jl, Keude Peureulak, Kec. Peureulak, Kabupaten Aceh Timur, Aceh 24453";"Jl, Keude Peureulak, Kec. Peureulak, Kabupaten Aceh Timur";"ACEH";"24453";"Indonesia";" 085372014989";"4.8095363";"97.8918903";"https://maps.google.com/?cid=0x0:0xa91226598f15ec4a"
"supermarket";"Kios";"Toko Usaha Baru";"VVJ4+CFG, Alue Bu Jl. Baroh, Kec. Peureulak Bar., Kabupaten Aceh Timur, Aceh";"Kabupaten Aceh Timur, Aceh";"ACEH";"";"Indonesia";" 085371260637";"4.881052";"97.8562167";"https://maps.google.com/?cid=0x0:0xf372b47b645ffe4c"
"supermarket";"Minimarket";"Raya Mart";"MWF8+87H, Labuhan Keude, Kec. Sungai Raya, Kabupaten Aceh Timur, Aceh 24452";"Labuhan Keude, Kec. Sungai Raya, Kabupaten Aceh Timur";"ACEH";"24452";"Indonesia";"";"4.6733217";"97.9157252";"https://maps.google.com/?cid=0x0:0xe84abd76dad98e6"
"supermarket";"Toko Ponsel";"Pante Kasih Cell";"RV5V+763, Keude Peureulak, Kec. Peureulak, Kabupaten Aceh Timur, Aceh 24461";"Keude Peureulak, Kec. Peureulak, Kabupaten Aceh Timur";"ACEH";"24461";"Indonesia";" 082276424594";"4.8081378";"97.8930509";"https://maps.google.com/?cid=0x0:0xe22d34a7363d202e"
"supermarket";"Toko bahan makanan";"Toko Daffa";"Jl. Rumah Sakit Umum Jalan, Keude Peureulak, Kec. Peureulak, Kabupaten Aceh Timur, Aceh 24461";"Keude Peureulak, Kec. Peureulak, Kabupaten Aceh Timur";"ACEH";"24461";"Indonesia";"";"4.80841";"97.8916653";"https://maps.google.com/?cid=0x0:0xfe77d6e058eb8a6e"
"supermarket";"Toko";"Kios";"QRPX+HH3, Unnamed Road, Alue Dua Paya Gajah, Kec. Peureulak, Kabupaten Aceh Timur, Aceh 24453";"Unnamed Road, Alue Dua Paya Gajah, Kec. Peureulak, Kabupaten Aceh Timur";"ACEH";"24453";"Indonesia";" 081261113620";"4.7863928";"97.8489271";"https://maps.google.com/?cid=0x0:0xe2f7a88c3bf9d99f"
"supermarket";"Grosir";"Ridwan";"MWR7+8M9, Alue Rangan, Kec. Sungai Raya, Kabupaten Aceh Timur, Aceh 24452";"Alue Rangan, Kec. Sungai Raya, Kabupaten Aceh Timur";"ACEH";"24452";"Indonesia";" 085260443427";"4.6907881";"97.9142195";"https://maps.google.com/?cid=0x0:0xb1926543f897c2f"
"supermarket";"Toko Makanan";"Toko Diana Selena";"QW44+2XQ, Unnamed Road, Seuneubok Pidie, Kec. Peureulak, Kabupaten Aceh Timur, Aceh 24458";"Unnamed Road, Seuneubok Pidie, Kec. Peureulak, Kabupaten Aceh Timur";"ACEH";"24458";"Indonesia";" 081260015402";"4.7550758";"97.9074736";"https://maps.google.com/?cid=0x0:0xddacc9b6a9ada115"
"supermarket";"Grosir Barang Kelontong";"U D. Dua Saudara";"Jl. Mesjid No.5, Bayeun, Kec. Rantau Selamat, Kabupaten Aceh Timur, Aceh 24452";"Bayeun, Kec. Rantau Selamat, Kabupaten Aceh Timur";"ACEH";"24452";"Indonesia";" 081367001160";"4.5896387";"97.9082477";"https://maps.google.com/?cid=0x0:0xebc5596da856a13c"
"supermarket";"Minimarket";"Raya Mart";"MWF8+87H, Labuhan Keude, Kec. Sungai Raya, Kabupaten Aceh Timur, Aceh 24452";"Labuhan Keude, Kec. Sungai Raya, Kabupaten Aceh Timur";"ACEH";"24452";"Indonesia";"";"4.6733217";"97.9157252";"https://maps.google.com/?cid=0x0:0xe84abd76dad98e6"
"supermarket";"supermarket";"Aceh 24452";"Kabupaten Aceh Timur, Aceh";"Kabupaten Aceh Timur, Aceh";"ACEH";"";"Indonesia";"";"4.6428925";"97.8286368";"https://maps.google.com/?cid=0x0:0xab6d8837867af58f"
"supermarket";"Pemasok air minum";"Iswa Water";"JWGM+CHC, Jln medan - banda aceh cot girek, Rantau Panjang, Kec. Rantau Selamat, Kabupaten Aceh Timur, Aceh 24452";"Jln medan - banda aceh cot girek, Rantau Panjang, Kec. Rantau Selamat, Kabupaten Aceh Timur";"ACEH";"24452";"Indonesia";" 085275919105";"4.6260692";"97.9338984";"https://maps.google.com/?cid=0x0:0xb8a1f4d44a1902fc"
"supermarket";"Toko";"Depotesbangateng";"JW8M+MGQ, Rantau Panjang, Kec. Rantau Selamat, Kabupaten Aceh Timur, Aceh 24452";"Rantau Panjang, Kec. Rantau Selamat, Kabupaten Aceh Timur";"ACEH";"24452";"Indonesia";"";"4.6167558";"97.9338273";"https://maps.google.com/?cid=0x0:0x2b9109a5119a58a8"
"supermarket";"Toko umum";"Toko Kak Bodah";"JWCQ+FX7, Rantau Panjang, Kec. Rantau Selamat, Kabupaten Aceh Timur, Aceh 24452";"Rantau Panjang, Kec. Rantau Selamat, Kabupaten Aceh Timur";"ACEH";"24452";"Indonesia";"";"4.6211604";"97.9399106";"https://maps.google.com/?cid=0x0:0x820b9af50e90aa06"
"supermarket";"Minimarket";"Super Mini Market";"MW3F+QVG, Bukit Selamat, Kec. Sungai Raya, Kabupaten Aceh Timur, Aceh 24452";"Bukit Selamat, Kec. Sungai Raya, Kabupaten Aceh Timur";"ACEH";"24452";"Indonesia";"";"4.6544293";"97.9247121";"https://maps.google.com/?cid=0x0:0x3c217c2130626eb3"
"supermarket";"Minimarket";"Zahara";"JW59+28H, Jl. Medan - Banda Aceh, Sarah Teubee, Kec. Rantau Selamat, Kabupaten Aceh Timur, Aceh 24452";"Jl. Medan - Banda Aceh, Sarah Teubee, Kec. Rantau Selamat, Kabupaten Aceh Timur";"ACEH";"24452";"Indonesia";" 085260347334";"4.607567";"97.918369";"https://maps.google.com/?cid=0x0:0xf43f8dd6ad9d9c66"
"supermarket";"Toko umum";"Kedai saifuan";"JWCM+WMF, Rantau Panjang, Kec. Rantau Selamat, Kabupaten Aceh Timur, Aceh 24452";"Rantau Panjang, Kec. Rantau Selamat, Kabupaten Aceh Timur";"ACEH";"24452";"Indonesia";"";"4.6223111";"97.9341734";"https://maps.google.com/?cid=0x0:0xdaab56d56a841f83"
"supermarket";"Toko";"Maimunah";"JWMM+G6P, JL. Medan - Banda Aceh, Seuneubok Dalam, Rantau Selamat, Aceh Timur, Seuneubok Dalam, Idi, Kabupaten Aceh Timur, Aceh 24452";"JL. Medan - Banda Aceh, Seuneubok Dalam, Rantau Selamat, Aceh Timur, Seuneubok Dalam, Idi, Kabupaten Aceh Timur";"ACEH";"24452";"Indonesia";" 085275419841";"4.6338268";"97.933072";"https://maps.google.com/?cid=0x0:0xf9abbc406260db82"
"supermarket";"Toko Kesehatan dan Kecantikan";"Eva Handayani - HWI";"HWR5+7PX, Gampong Bayeun, Kec. Rantau Selamat, Kabupaten Aceh Timur, Aceh 24452";"Gampong Bayeun, Kec. Rantau Selamat, Kabupaten Aceh Timur";"ACEH";"24452";"Indonesia";" 085225325242";"4.5907374";"97.9093451";"https://maps.google.com/?cid=0x0:0x987244fc86c2c674"
"supermarket";"Toko bahan makanan";"Rani seafood";"JW8M+P2H, Rantau Panjang, Kec. Rantau Selamat, Kabupaten Aceh Timur, Aceh 24452";"Rantau Panjang, Kec. Rantau Selamat, Kabupaten Aceh Timur";"ACEH";"24452";"Indonesia";" 085260313443";"4.6168123";"97.9326012";"https://maps.google.com/?cid=0x0:0x9ddd603aead59a77"
"supermarket";"Minimarket";"Alfamart";"HWW7+PP, Gampong Bayeun, Kec. Rantau Selamat, Kabupaten Aceh Timur, Aceh";"Kabupaten Aceh Timur, Aceh";"ACEH";"";"Indonesia";"";"4.5966581";"97.914448";"https://maps.google.com/?cid=0x0:0x3229f428e1c453aa"
"supermarket";"Grosir";"Ridwan";"MWR7+8M9, Alue Rangan, Kec. Sungai Raya, Kabupaten Aceh Timur, Aceh 24452";"Alue Rangan, Kec. Sungai Raya, Kabupaten Aceh Timur";"ACEH";"24452";"Indonesia";" 085260443427";"4.6907881";"97.9142195";"https://maps.google.com/?cid=0x0:0xb1926543f897c2f"
"supermarket";"supermarket";"Aceh 24453";"Kabupaten Aceh Timur, Aceh";"Kabupaten Aceh Timur, Aceh";"ACEH";"";"Indonesia";"";"4.7563162";"97.7742702";"https://maps.google.com/?cid=0x0:0x3f249fb702225b43"
"supermarket";"Toko Swalayan";"BP SWALAYAN";"RV4R+PJ4, Lhok Dalam, Kec. Peureulak, Kabupaten Aceh Timur, Aceh 24461";"Lhok Dalam, Kec. Peureulak, Kabupaten Aceh Timur";"ACEH";"24461";"Indonesia";" 082370581756";"4.8067616";"97.8915912";"https://maps.google.com/?cid=0x0:0x5d010758a93dbef1"
"supermarket";"Toko";"MT. SWALAYAN Rezeki Nasabe";"RV8W+3CG, Pasir Putih, Kec. Peureulak, Kabupaten Aceh Timur, Aceh 24458";"Pasir Putih, Kec. Peureulak, Kabupaten Aceh Timur";"ACEH";"24458";"Indonesia";" 082297534324";"4.815178";"97.8960742";"https://maps.google.com/?cid=0x0:0x22f4ba41da0b2c31"
"supermarket";"Toko bahan makanan";"Ruko Junaidi Ramli H. Amin";"RQ3X+QWC, Buket Pala Bsp, Kec. Rantau Peureulak, Kabupaten Aceh Timur, Aceh 24453";"Buket Pala Bsp, Kec. Rantau Peureulak, Kabupaten Aceh Timur";"ACEH";"24453";"Indonesia";"";"4.8044256";"97.7997518";"https://maps.google.com/?cid=0x0:0xf0f1cb532b79323e"
"supermarket";"Mesin Jual Otomatis Produk Kecantikan";"Blang Simpo.";"QRF9+V4M, Alue Rambong, Kec. Peureulak, Kabupaten Aceh Timur, Aceh 24453";"Alue Rambong, Kec. Peureulak, Kabupaten Aceh Timur";"ACEH";"24453";"Indonesia";"";"4.7747022";"97.8178094";"https://maps.google.com/?cid=0x0:0x70cae53edfeb646d"
"supermarket";"Toko Swalayan";"Pondok selayang";"RQ4X+XFQ, Unnamed Road, Kp. Pertamina, Kec. Rantau Peureulak, Kabupaten Aceh Timur, Aceh 24453";"Unnamed Road, Kp. Pertamina, Kec. Rantau Peureulak, Kabupaten Aceh Timur";"ACEH";"24453";"Indonesia";"";"4.8074532";"97.7987267";"https://maps.google.com/?cid=0x0:0x395c67fdfc1416f6"
"supermarket";"Toko bahan makanan";"Kedai Bang Ma un";"Bhom Lama, Kec. Rantau Peureulak, Kabupaten Aceh Timur, Aceh 24453";"Kec. Rantau Peureulak, Kabupaten Aceh Timur";"ACEH";"24453";"Indonesia";"";"4.7906636";"97.8139897";"https://maps.google.com/?cid=0x0:0xa2505cc4f082bc1e"
"supermarket";"Toko";"ud usaha sederhana";"QRG9+68R, Alue Rambong, Kec. Peureulak, Kabupaten Aceh Timur, Aceh 24453";"Alue Rambong, Kec. Peureulak, Kabupaten Aceh Timur";"ACEH";"24453";"Indonesia";"";"4.7756033";"97.8182552";"https://maps.google.com/?cid=0x0:0x361043ce4f885ead"
"supermarket";"Toko bahan makanan";"Az-zahra store";"Tanah Rata, Kec. Peureulak, Kabupaten Aceh Timur, Aceh 24453";"Kec. Peureulak, Kabupaten Aceh Timur";"ACEH";"24453";"Indonesia";" 085358689178";"4.8134698";"97.8479088";"https://maps.google.com/?cid=0x0:0x553a88b604abb584"
"supermarket";"Toko Bahan Bangunan";"UD.SARENA perabot";"RR8M+J2X, Jl. Ranto Panjang, Snb Johan, Kec. Rantau Peureulak, Kabupaten Aceh Timur, Aceh 24453";"Jl. Ranto Panjang, Snb Johan, Kec. Rantau Peureulak, Kabupaten Aceh Timur";"ACEH";"24453";"Indonesia";" 085296183757";"4.8166071";"97.8325955";"https://maps.google.com/?cid=0x0:0x69a85e7ec9fa2d5a"
"supermarket";"Toko umum";"FIFI Minimarket";"RQ4X+6QQ, jln pertamina posXI, Buket Pala, Kec. Rantau Peureulak, Kabupaten Aceh Timur, Aceh 24453";"jln pertamina posXI, Buket Pala, Kec. Rantau Peureulak, Kabupaten Aceh Timur";"ACEH";"24453";"Indonesia";" 082287664412";"4.8055928";"97.7994728";"https://maps.google.com/?cid=0x0:0x200528b8feca9e66"
"supermarket";"Toko";"Syahirah swalayan";"Jl. Rumah Sakit Umum Jalan, Lhok Dalam, Kec. Peureulak, Kabupaten Aceh Timur, Aceh 24461";"Lhok Dalam, Kec. Peureulak, Kabupaten Aceh Timur";"ACEH";"24461";"Indonesia";" 082160759622";"4.8076187";"97.8872586";"https://maps.google.com/?cid=0x0:0x280c7a610ba6a1e8"
"supermarket";"Kafe";"RIZQI 99";"RR7G+QPR, Snb Dalam, Kec. Rantau Peureulak, Kabupaten Aceh Timur, Aceh 24453";"Snb Dalam, Kec. Rantau Peureulak, Kabupaten Aceh Timur";"ACEH";"24453";"Indonesia";"";"4.8144886";"97.8267597";"https://maps.google.com/?cid=0x0:0xd3ec16b9a9b06178"
"supermarket";"Minimarket";"UD.MUDAH RASEEKI";"QQQX+QF9, Alue Batee, Kec. Rantau Peureulak, Kabupaten Aceh Timur, Aceh 24453";"Alue Batee, Kec. Rantau Peureulak, Kabupaten Aceh Timur";"ACEH";"24453";"Indonesia";"";"4.7894168";"97.79873";"https://maps.google.com/?cid=0x0:0x70e9f6ab2f38b398"
"supermarket";"Pasar Petani";"Toko Serbajadi";"CG5F+69G, Lokop, Serba Jadi, Kabupaten Aceh Timur, Aceh 24392";"Lokop, Serba Jadi, Kabupaten Aceh Timur";"ACEH";"24392";"Indonesia";"";"4.4080832";"97.5234533";"https://maps.google.com/?cid=0x0:0x49de806b5e6eea81"
"supermarket";"Grosir Barang Kelontong";"UD SERINEN 2";"CG4F+WC3, Lokop, Serba Jadi, Kabupaten Aceh Timur, Aceh 24392";"Lokop, Serba Jadi, Kabupaten Aceh Timur";"ACEH";"24392";"Indonesia";" 085277241555";"4.4072506";"97.5235477";"https://maps.google.com/?cid=0x0:0x16a990705c612a60"
"supermarket";"supermarket";"Serba Jadi";"Kabupaten Aceh Timur, Aceh";"Kabupaten Aceh Timur, Aceh";"ACEH";"";"Indonesia";"";"4.4415515";"97.5247243";"https://maps.google.com/?cid=0x0:0x4039d80b220e9f0"
"supermarket";"Kafe";"Central Coffee";"Jalan Lokop-Blangkejeren, samping Puskesmas No.Km. 40, Lokop";"Kabupaten Aceh Timur, Aceh";"ACEH";"";"Indonesia";"";"4.4099536";"97.5229908";"https://maps.google.com/?cid=0x0:0x98dff5bc1550b7d2"
"supermarket";"Toko Perlengkapan Rumah";"Toko Jihan";"JM55+528, Arul Pinang, Kec. Peunaron, Kabupaten Aceh Timur, Aceh 24392";"Arul Pinang, Kec. Peunaron, Kabupaten Aceh Timur";"ACEH";"24392";"Indonesia";" 085370580350";"4.6075206";"97.6577778";"https://maps.google.com/?cid=0x0:0xa12b3d87d087c5f5"
"supermarket";"Pasar Petani";"SWALAYAN DUTA PEUNARON";"Arul Pinang, Kec. Peunaron, Kabupaten Aceh Timur, Aceh 24392";"Kec. Peunaron, Kabupaten Aceh Timur";"ACEH";"24392";"Indonesia";" 081375628111";"4.6092463";"97.6600302";"https://maps.google.com/?cid=0x0:0x79e5ad89d854e436"
"supermarket";"Minimarket";"Nidar BSI LINK";"JM55+HW8, Arul Pinang, Kec. Peunaron, Kabupaten Aceh Timur, Aceh 24392";"Arul Pinang, Kec. Peunaron, Kabupaten Aceh Timur";"ACEH";"24392";"Indonesia";"";"4.6089766";"97.6600557";"https://maps.google.com/?cid=0x0:0x3bfeb7ba22f7192b"
"supermarket";"Toko";"Amanda Jaya Peunaron";"peunaroen, Arul Pinang, Kec. Peunaron, Kabupaten Aceh Timur, Aceh 24392";"Arul Pinang, Kec. Peunaron, Kabupaten Aceh Timur";"ACEH";"24392";"Indonesia";" 085385967944";"4.6095421";"97.6608835";"https://maps.google.com/?cid=0x0:0x11a1818e942eba8b"
"supermarket";"Toko Ponsel";"Abang J Cell";"FG78+976, Rampah, Serba Jadi, Kabupaten Aceh Timur, Aceh";"Kabupaten Aceh Timur, Aceh";"ACEH";"";"Indonesia";"";"4.4634039";"97.5156289";"https://maps.google.com/?cid=0x0:0x39f2d291d145d6ed"
"supermarket";"Toko Obat-Obatan Herbal";"Stokis HNI HPAI Mitra Mu'affii";"CG5C+595, Unnamed Road, Lokop, Serba Jadi, Kabupaten Aceh Timur, Aceh 24460";"Unnamed Road, Lokop, Serba Jadi, Kabupaten Aceh Timur";"ACEH";"24460";"Indonesia";" 081376000177";"4.4078873";"97.5209955";"https://maps.google.com/?cid=0x0:0x43a306e900eb8c21"
"supermarket";"Komplek perumahan";"Desa sosial";"CGP9+P2, desa, SOSIAL, Serba Jadi, Kabupaten Aceh Timur, Aceh";"Kabupaten Aceh Timur, Aceh";"ACEH";"";"Indonesia";"";"4.4376483";"97.517785";"https://maps.google.com/?cid=0x0:0xceb39bbf48f2dc46"
"supermarket";"Toko bahan makanan";"SimpangLima Grocery Store";"Jl. Tengku Angkasa H Abdullah Ujong Rimba No 20, Kp. Baru, Kec. Baiturrahman, Kota Banda Aceh, Aceh 23242";"Kp. Baru, Kec. Baiturrahman, Kota Banda Aceh";"ACEH";"23242";"Indonesia";" 0811686677";"5.5504966";"95.3167777";"https://maps.google.com/?cid=0x0:0x22361fe0a56c2da4"
"supermarket";"Kedai Kopi";"Arina Cafe";"9GWG+46W, Lokop, Serba Jadi, Kabupaten Aceh Timur, Aceh 24392";"Lokop, Serba Jadi, Kabupaten Aceh Timur";"ACEH";"24392";"Indonesia";" 081264638997";"4.3953643";"97.5255787";"https://maps.google.com/?cid=0x0:0x9b16de5431eb8c25"
"supermarket";"Toko Pakaian";"Gallery uwais";"CG5F+3CJ, Pekan, Lokop, Serba Jadi, Kabupaten Aceh Timur, Aceh 24392";"Pekan, Lokop, Serba Jadi, Kabupaten Aceh Timur";"ACEH";"24392";"Indonesia";"";"4.4077199";"97.5235178";"https://maps.google.com/?cid=0x0:0x78b5743fd9e3856"
"supermarket";"supermarket";"Aceh 24461";"Kabupaten Aceh Timur, Aceh";"Kabupaten Aceh Timur, Aceh";"ACEH";"";"Indonesia";"";"4.950275";"97.6792293";"https://maps.google.com/?cid=0x0:0x40ce92432b582121"
"supermarket";"Toko Swalayan";"HIJRAH SWALAYAN";"XQ2C+64M, Keude Aceh, Kec. Idi Rayeuk, Kabupaten Aceh Timur, Aceh";"Kabupaten Aceh Timur, Aceh";"ACEH";"";"Indonesia";"";"4.9505801";"97.7702979";"https://maps.google.com/?cid=0x0:0xdcd314e469aadd12"
"supermarket";"Toko Swalayan";"Berkat Baru Swalayan";"XPPC+H4Q, Kp. Keude, Kec. Darul Aman, Kabupaten Aceh Timur, Aceh";"Kabupaten Aceh Timur, Aceh";"ACEH";"";"Indonesia";"";"4.9864633";"97.7203591";"https://maps.google.com/?cid=0x0:0x1bffa0cc8e6f44f8"
"supermarket";"Toko Swalayan";"Toko Maula Baru";"XPPC+M64, Jl. Mesjid, Kuala Idi Cut, Kec. Darul Aman, Kabupaten Aceh Timur, Aceh";"Kabupaten Aceh Timur, Aceh";"ACEH";"";"Indonesia";"";"4.9866434";"97.720566";"https://maps.google.com/?cid=0x0:0xf5c804534ac8bcef"
"supermarket";"supermarket";"Serba Jadi";"Kabupaten Aceh Timur, Aceh";"Kabupaten Aceh Timur, Aceh";"ACEH";"";"Indonesia";"";"4.4415515";"97.5247243";"https://maps.google.com/?cid=0x0:0x4039d80b220e9f0"
"supermarket";"Toko bahan makanan";"Mahyuddin store";"WPX2+R89, Alur Merbo, Kec. Darul Aman, Kabupaten Aceh Timur, Aceh";"Kabupaten Aceh Timur, Aceh";"ACEH";"";"Indonesia";"";"4.9495435";"97.7008666";"https://maps.google.com/?cid=0x0:0x9d8e5c382c9d64bf"
"supermarket";"Minimarket";"Swalayan munawwarah";"XPPC+24W, Jl. Medan Banda Aceh, Kp. Baro, Kec. Darul Aman, Kabupaten Aceh Timur, Aceh 24455";"Jl. Medan Banda Aceh, Kp. Baro, Kec. Darul Aman, Kabupaten Aceh Timur";"ACEH";"24455";"Indonesia";"";"4.9852954";"97.7201886";"https://maps.google.com/?cid=0x0:0x7dd7c1d2e28817d3"
"supermarket";"Toko Swalayan";"Serba Ada Swalayan";"JRFX+MW7, Bale Atu, Kec. Lut Tawar, Kabupaten Aceh Tengah, Aceh 24519";"Bale Atu, Kec. Lut Tawar, Kabupaten Aceh Tengah";"ACEH";"24519";"Indonesia";"";"4.6241692";"96.8497913";"https://maps.google.com/?cid=0x0:0x6e7a236a8fb515ae"
"supermarket";"Toko bahan makanan";"warung cek wan ulee tutu";"XMCP+RJM, Gaseh Sayang, Kec. Darul Aman, Kabupaten Aceh Timur, Aceh 24453";"Gaseh Sayang, Kec. Darul Aman, Kabupaten Aceh Timur";"ACEH";"24453";"Indonesia";"";"4.9720893";"97.6865339";"https://maps.google.com/?cid=0x0:0x4430b7022ad468d1"
"supermarket";"Kios";"kios abulih";"XMXX+6X5, Kemuning IV, Kec. Darul Aman, Kabupaten Aceh Timur, Aceh";"Kabupaten Aceh Timur, Aceh";"ACEH";"";"Indonesia";"";"4.9980132";"97.6999759";"https://maps.google.com/?cid=0x0:0xd683f930b383f10d"
"supermarket";"Toko umum";"Kedai runcit amanda";"XMFQ+PXH, Kapai Baro, Kec. Darul Aman, Kabupaten Aceh Timur, Aceh 24453";"Kapai Baro, Kec. Darul Aman, Kabupaten Aceh Timur";"ACEH";"24453";"Indonesia";"";"4.9743132";"97.6899963";"https://maps.google.com/?cid=0x0:0xb35ac484c4de9119"
"supermarket";"Pusat Perbelanjaan";"Atahillah serba35 idi cut";"XPHC+PG6, Jln.B.aceh,gampong baro, Keude Idi Cut, Kec. Darul Aman";"Kabupaten Aceh Timur, Aceh";"ACEH";"";"Indonesia";"";"4.9792957";"97.7212773";"https://maps.google.com/?cid=0x0:0x3c064b29d65edec"
"supermarket";"Pasar Petani";"Toko Serbajadi";"CG5F+69G, Lokop, Serba Jadi, Kabupaten Aceh Timur, Aceh 24392";"Lokop, Serba Jadi, Kabupaten Aceh Timur";"ACEH";"24392";"Indonesia";"";"4.4080832";"97.5234533";"https://maps.google.com/?cid=0x0:0x49de806b5e6eea81"
"supermarket";"Toko umum";"Kios Serambi";"XPC5+F5P, JL. Medan, Gampong Keude, Darul Aman, Trieng Gadeng, Banda Aceh, Kabupaten Aceh Timur, Aceh 24455";"JL. Medan, Gampong Keude, Darul Aman, Trieng Gadeng, Banda Aceh, Kabupaten Aceh Timur";"ACEH";"24455";"Indonesia";" 085292924493";"4.9712014";"97.7079391";"https://maps.google.com/?cid=0x0:0x7704ffc1969c80f2"
"supermarket";"supermarket";"Aceh 24458";"Kabupaten Aceh Timur, Aceh";"Kabupaten Aceh Timur, Aceh";"ACEH";"";"Indonesia";"";"4.9131571";"97.5463885";"https://maps.google.com/?cid=0x0:0x82c363c7b075e66"
"supermarket";"Toko bahan makanan";"Raudatul Swalayan";"2JRG+QM9, Blang Paoh Dua, Kec. Julok, Kabupaten Aceh Timur, Aceh 24458";"Blang Paoh Dua, Kec. Julok, Kabupaten Aceh Timur";"ACEH";"24458";"Indonesia";"";"5.0419088";"97.6267249";"https://maps.google.com/?cid=0x0:0x89187a96692fe679"
"supermarket";"Minimarket";"Kede Bg Ayi";"Buket Dindeng, Kec. Julok, Kabupaten Aceh Timur, Aceh 24458";"Kec. Julok, Kabupaten Aceh Timur";"ACEH";"24458";"Indonesia";"";"5.0322111";"97.5930675";"https://maps.google.com/?cid=0x0:0x6d0dd59b820fddf5"
"supermarket";"supermarket";"Toko mulia sari";"3GWR+V22, Kampong Baro, Kec. Simpang Ulim, Kabupaten Aceh Timur, Aceh 24458";"Kampong Baro, Kec. Simpang Ulim, Kabupaten Aceh Timur";"ACEH";"24458";"Indonesia";"";"5.0970077";"97.5400366";"https://maps.google.com/?cid=0x0:0xb813868e22d17ddf"
"supermarket";"Toko bahan makanan";"Bismillah Jaya";"2GH8+V58, Seuneubok Saboh, Kec. Pante Bidari, Kabupaten Aceh Timur, Aceh 24458";"Seuneubok Saboh, Kec. Pante Bidari, Kabupaten Aceh Timur";"ACEH";"24458";"Indonesia";"";"5.0296696";"97.5154669";"https://maps.google.com/?cid=0x0:0x6268f4c1435d7f34"
"supermarket";"Minimarket";"Kios Salwa";"2JPR+J95, Jl. Medan Banda Aceh, Meunasah Teungoh, Kec. Nurussalam, Kabupaten Aceh Timur, Aceh 24458";"Jl. Medan Banda Aceh, Meunasah Teungoh, Kec. Nurussalam, Kabupaten Aceh Timur";"ACEH";"24458";"Indonesia";" 085260570004";"5.0365193";"97.6409784";"https://maps.google.com/?cid=0x0:0x51398fca91fba39e"
"supermarket";"supermarket";"zDgPaNibKrzO5OUP2rysgQU"-,null,null,null,null,null,null,null,null,null,null,null,null,null,null,null,null,null,null,null,-null," (Pemilik)";"";"";"ACEH";"";"Indonesia";"";"";"";"https://maps.google.com/?cid=0x0:0x1a39707a9519efb2"
"supermarket";"Minimarket";"Iskandar Muda (TOKO M.SALEH) AGEN BRILINK";"WH8R+HMV, Alue Ie Mirah, Kec. Indra Makmur, Kabupaten Aceh Timur, Aceh 24458";"Alue Ie Mirah, Kec. Indra Makmur, Kabupaten Aceh Timur";"ACEH";"24458";"Indonesia";" 085260996050";"4.9164811";"97.5916862";"https://maps.google.com/?cid=0x0:0xe6a9beb43076e34c"
"supermarket";"Toko umum";"Super";"73R5+6HG, JL Cut Nyak Dhien, Kota Lintang, Kota Kuala Simpang, Aceh Tamiang, Kota Lintang, Langsa, Kabupaten Aceh Tamiang, Aceh 24456";"JL Cut Nyak Dhien, Kota Lintang, Kota Kuala Simpang, Aceh Tamiang, Kota Lintang, Langsa, Kabupaten Aceh Tamiang";"ACEH";"24456";"Indonesia";" 085261902740";"4.2905658";"98.0589652";"https://maps.google.com/?cid=0x0:0xefd2873909cd5cbf"
"supermarket";"Toko Swalayan";"Raudhatul";"WH8R+VXG, jln. ptp1n, Alue Ie Mirah, Kec. Indra Makmur, Kabupaten Aceh Timur, Aceh 24458";"jln. ptp1n, Alue Ie Mirah, Kec. Indra Makmur, Kabupaten Aceh Timur";"ACEH";"24458";"Indonesia";" 085358095333";"4.9171973";"97.5924544";"https://maps.google.com/?cid=0x0:0x95cca2eec650be8f"
"supermarket";"Toko Roti";"SYIFA BAKERY";"WHCV+X8R, Alue Ie Mirah, Kec. Indra Makmur, Kabupaten Aceh Timur, Aceh 24458";"Alue Ie Mirah, Kec. Indra Makmur, Kabupaten Aceh Timur";"ACEH";"24458";"Indonesia";" 085262576886";"4.9224775";"97.593262";"https://maps.google.com/?cid=0x0:0x70e5a39fced818a4"
"supermarket";"Pusat Perbelanjaan";"AGEN BSI ISKANDAR MUDA";"Jalan Olindo, Dusun Mesjid, Alue Ie Mirah, Kec. Indra Makmur, Kabupaten Aceh Timur, Aceh 24457";"Dusun Mesjid, Alue Ie Mirah, Kec. Indra Makmur, Kabupaten Aceh Timur";"ACEH";"24457";"Indonesia";" 085156562500";"4.9164806";"97.5916836";"https://maps.google.com/?cid=0x0:0x3fec2e11b8126a3a"
"supermarket";"Establishment";"Desainer plafon pvc kalsibot dan kichen";"Cot Asan, Kec. Nurussalam, Kabupaten Aceh Timur, Aceh 24456";"Kec. Nurussalam, Kabupaten Aceh Timur";"ACEH";"24456";"Indonesia";" 082161164032";"5.0088218";"97.6680884";"https://maps.google.com/?cid=0x0:0x44188233c816b926"
"supermarket";"Minimarket";"KEDAI KELONTONG MAKMU JAYA";"WFM6+55R, Rumoh Rayeuk, Kec. Langkahan, Kabupaten Aceh Utara, Aceh 24458";"Rumoh Rayeuk, Kec. Langkahan, Kabupaten Aceh Utara";"ACEH";"24458";"Indonesia";"";"4.932989";"97.4604021";"https://maps.google.com/?cid=0x0:0x8a432ec31bf2de9d"
"supermarket";"supermarket";"Kec. Simpang Ulim";"Kabupaten Aceh Timur, Aceh";"Kabupaten Aceh Timur, Aceh";"ACEH";"";"Indonesia";"";"5.0970632";"97.5398746";"https://maps.google.com/?cid=0x0:0x449fe38554505818"
"supermarket";"Toko Pakaian";"Toko Grosir RAMI";"3GWQ+RMC, Jl. Medan Banda Aceh, Keude Tuha, Kec. Simpang Ulim, Kabupaten Aceh Timur, Aceh 24458";"Jl. Medan Banda Aceh, Keude Tuha, Kec. Simpang Ulim, Kabupaten Aceh Timur";"ACEH";"24458";"Indonesia";" 085281842412";"5.0970712";"97.5391461";"https://maps.google.com/?cid=0x0:0x8e22c82ef7a56a98"
"supermarket";"supermarket";"Toko mulia sari";"3GWR+V22, Kampong Baro, Kec. Simpang Ulim, Kabupaten Aceh Timur, Aceh 24458";"Kampong Baro, Kec. Simpang Ulim, Kabupaten Aceh Timur";"ACEH";"24458";"Indonesia";"";"5.0970077";"97.5400366";"https://maps.google.com/?cid=0x0:0xb813868e22d17ddf"
"supermarket";"Toko bahan makanan";"BERKAH RIZKINA";"3GWM+48J, Pucok Alue Dua, Kec. Simpang Ulim, Kabupaten Aceh Timur, Aceh 24458";"Pucok Alue Dua, Kec. Simpang Ulim, Kabupaten Aceh Timur";"ACEH";"24458";"Indonesia";"";"5.095327";"97.5332623";"https://maps.google.com/?cid=0x0:0x6bbb70926c884558"
"supermarket";"Pembangunan Perumahan";"Toko Seuramoe Raja Lampoh Rayeuk";"4G3V+6GF, Lampuh Rayeuk, Kec. Simpang Ulim, Kabupaten Aceh Timur, Aceh 24458";"Lampuh Rayeuk, Kec. Simpang Ulim, Kabupaten Aceh Timur";"ACEH";"24458";"Indonesia";" 081362961170";"5.1030538";"97.5438076";"https://maps.google.com/?cid=0x0:0xd4db443448b3fa81"
"supermarket";"Minimarket";"Akbar jaya mart";"3GWQ+XJG, Kampong Baro, Kec. Simpang Ulim, Kabupaten Aceh Timur, Aceh 24458";"Kampong Baro, Kec. Simpang Ulim, Kabupaten Aceh Timur";"ACEH";"24458";"Indonesia";"";"5.0974347";"97.53908";"https://maps.google.com/?cid=0x0:0x5f6cfecc7140b790"
"supermarket";"Toko Elektronik";"MEDIA PONSEL";"Jl. Medan - Banda Aceh, Gampong Baro, Kec. Simpang Ulim, Kabupaten Aceh Timur, Aceh 24458";"Gampong Baro, Kec. Simpang Ulim, Kabupaten Aceh Timur";"ACEH";"24458";"Indonesia";" 085277315380";"5.0969511";"97.5397604";"https://maps.google.com/?cid=0x0:0x38cc37227842ab5e"
"supermarket";"Toko Ponsel";"Ponsel Baru";"3GRH+2GH, Jl. Medan Banda Aceh, Pucok Alue Dua, Kec. Simpang Ulim, Kabupaten Aceh Timur, Aceh 24458";"Jl. Medan Banda Aceh, Pucok Alue Dua, Kec. Simpang Ulim, Kabupaten Aceh Timur";"ACEH";"24458";"Indonesia";"";"5.0900742";"97.5288575";"https://maps.google.com/?cid=0x0:0x25a2f4f581081a87"
"supermarket";"Toko Daging";"Penggilingan bakso simpang ulim My_7";"Belakang puskesmas simpang ulim, Jalan pajak ikan, Kec. Simpang Ulim, Kabupaten Aceh Timur, Aceh 24465";"Jalan pajak ikan, Kec. Simpang Ulim, Kabupaten Aceh Timur";"ACEH";"24465";"Indonesia";" 082237810770";"5.0964033";"97.5411653";"https://maps.google.com/?cid=0x0:0x12b544651dac12c6"
"supermarket";"Pusat Perbelanjaan";"@ainishopy";"3GVR+85H, Jl. Medan Banda Aceh, Peulalu, Kec. Simpang Ulim, Kabupaten Aceh Timur, Aceh 24458";"Jl. Medan Banda Aceh, Peulalu, Kec. Simpang Ulim, Kabupaten Aceh Timur";"ACEH";"24458";"Indonesia";" 082368983057";"5.0933164";"97.5404995";"https://maps.google.com/?cid=0x0:0x3062547f319f4546"
"supermarket";"Toko Pakaian";"Rahmah colection";"3GVR+P7W, Jl. Medan Banda Aceh, Peulalu, Kec. Simpang Ulim, Kabupaten Aceh Timur, Aceh 24458";"Jl. Medan Banda Aceh, Peulalu, Kec. Simpang Ulim, Kabupaten Aceh Timur";"ACEH";"24458";"Indonesia";" 081254306273";"5.0943735";"97.5407172";"https://maps.google.com/?cid=0x0:0x8881809c57e8001b"
"supermarket";"Toko Kosmetik";"moly olshop";"3GPJ+64Q, Pucok Alue Bar., Kec. Simpang Ulim, Kabupaten Aceh Timur, Aceh 24458";"Pucok Alue Bar., Kec. Simpang Ulim, Kabupaten Aceh Timur";"ACEH";"24458";"Indonesia";" 081260453753";"5.0855949";"97.5303561";"https://maps.google.com/?cid=0x0:0x7a11c98ce6efa33d"
"supermarket";"Toko Ponsel";"HM CELL";"3GWQ+JXG, Jl. Medan Banda Aceh, Kampong Baro, Kec. Simpang Ulim, Kabupaten Aceh Timur, Aceh 24458";"Jl. Medan Banda Aceh, Kampong Baro, Kec. Simpang Ulim, Kabupaten Aceh Timur";"ACEH";"24458";"Indonesia";" 085361129112";"5.0965509";"97.5399671";"https://maps.google.com/?cid=0x0:0x807130a9a19a4aa"
"supermarket";"Toko Pertanian";"UD.SOLUSI TANI";"3HJ2+8GG, Alue Buloh Satu, Kec. Simpang Ulim, Kabupaten Aceh Timur, Aceh 24458";"Alue Buloh Satu, Kec. Simpang Ulim, Kabupaten Aceh Timur";"ACEH";"24458";"Indonesia";" 082237405200";"5.0808055";"97.5513158";"https://maps.google.com/?cid=0x0:0x16413eaae5ec20cd"
"supermarket";"supermarket";"Kec. Sungai Raya";"Kabupaten Aceh Timur, Aceh";"Kabupaten Aceh Timur, Aceh";"ACEH";"";"Indonesia";"";"4.6744294";"97.9155206";"https://maps.google.com/?cid=0x0:0xed64a98a923c441c"
"supermarket";"Minimarket";"Raya Mart";"MWF8+87H, Labuhan Keude, Kec. Sungai Raya, Kabupaten Aceh Timur, Aceh 24452";"Labuhan Keude, Kec. Sungai Raya, Kabupaten Aceh Timur";"ACEH";"24452";"Indonesia";"";"4.6733217";"97.9157252";"https://maps.google.com/?cid=0x0:0xe84abd76dad98e6"
"supermarket";"Toko bahan makanan";"Sungai raya";"Jl. Gajah Mentah, Bukit Drien, Kec. Sungai Raya, Kabupaten Aceh Timur, Aceh 24452";"Bukit Drien, Kec. Sungai Raya, Kabupaten Aceh Timur";"ACEH";"24452";"Indonesia";"";"4.6713594";"97.9098249";"https://maps.google.com/?cid=0x0:0x286a88246563b424"
"supermarket";"Toko bahan makanan";"Mutia";"JVVW+VMC, Alue Itam, Kec. Sungai Raya, Kabupaten Aceh Timur, Aceh 24452";"Alue Itam, Kec. Sungai Raya, Kabupaten Aceh Timur";"ACEH";"24452";"Indonesia";"";"4.6446956";"97.8966536";"https://maps.google.com/?cid=0x0:0x65a0b6632f55afb4"
"supermarket";"Minimarket";"Super Mini Market";"MW3F+QVG, Bukit Selamat, Kec. Sungai Raya, Kabupaten Aceh Timur, Aceh 24452";"Bukit Selamat, Kec. Sungai Raya, Kabupaten Aceh Timur";"ACEH";"24452";"Indonesia";"";"4.6544293";"97.9247121";"https://maps.google.com/?cid=0x0:0x3c217c2130626eb3"
"supermarket";"Bakso";"Bakso";"MWH8+45X, Labuhan kede, Kec. Sungai Raya, Kabupaten Aceh Timur, Aceh 24452";"Labuhan kede, Kec. Sungai Raya, Kabupaten Aceh Timur";"ACEH";"24452";"Indonesia";"";"4.6783338";"97.9159213";"https://maps.google.com/?cid=0x0:0x34869c5e62fc4c07"
"supermarket";"Pemasok Produk Makanan";"N_QIE77 Frozen Food";"Labuhan Keude, Kec. Sungai Raya, Kabupaten Aceh Timur, Aceh 24452";"Kec. Sungai Raya, Kabupaten Aceh Timur";"ACEH";"24452";"Indonesia";" 082177475787";"4.6743433";"97.915645";"https://maps.google.com/?cid=0x0:0xbaa6ae2341556464"
"supermarket";"Toko umum";"Toko Kak Bodah";"JWCQ+FX7, Rantau Panjang, Kec. Rantau Selamat, Kabupaten Aceh Timur, Aceh 24452";"Rantau Panjang, Kec. Rantau Selamat, Kabupaten Aceh Timur";"ACEH";"24452";"Indonesia";"";"4.6211604";"97.9399106";"https://maps.google.com/?cid=0x0:0x820b9af50e90aa06"
"supermarket";"Toko bahan makanan";"SimpangLima Grocery Store";"Jl. Tengku Angkasa H Abdullah Ujong Rimba No 20, Kp. Baru, Kec. Baiturrahman, Kota Banda Aceh, Aceh 23242";"Kp. Baru, Kec. Baiturrahman, Kota Banda Aceh";"ACEH";"23242";"Indonesia";" 0811686677";"5.5504966";"95.3167777";"https://maps.google.com/?cid=0x0:0x22361fe0a56c2da4"
"supermarket";"Minimarket";"Kios Sitihawa";"PVHX+VRH, Seuneubok Jl., Kec. Peureulak Tim., Kabupaten Aceh Timur, Aceh 24452";"Seuneubok Jl., Kec. Peureulak Tim., Kabupaten Aceh Timur";"ACEH";"24452";"Indonesia";"";"4.7296902";"97.8996224";"https://maps.google.com/?cid=0x0:0xa49e0bb4b77b10c"
"supermarket";"Toko Daging";"UD gilingan bakso juragan";"Sungai raya, Kec. Sungai Raya, Kabupaten Aceh Timur, Aceh 24452";"Kec. Sungai Raya, Kabupaten Aceh Timur";"ACEH";"24452";"Indonesia";"";"4.6742769";"97.9141785";"https://maps.google.com/?cid=0x0:0x3f45b1bc20a3b8b8"
"supermarket";"Toko bahan makanan";"Lina seafood";"Jl. Lintas Sumatra, Rantau Panjang, Kec. Rantau Selamat, Kabupaten Aceh Timur, Aceh 24452";"Rantau Panjang, Kec. Rantau Selamat, Kabupaten Aceh Timur";"ACEH";"24452";"Indonesia";" 085260313443";"4.6170002";"97.932548";"https://maps.google.com/?cid=0x0:0xa5b7a3b9efd92868"
"supermarket";"Toko umum";"Sksjki";"QV3G+2FC, Jeungki, Kec. Peureulak Tim., Kabupaten Aceh Timur, Aceh 24458";"Jeungki, Kec. Peureulak Tim., Kabupaten Aceh Timur";"ACEH";"24458";"Indonesia";" 082294771987";"4.7525732";"97.8761266";"https://maps.google.com/?cid=0x0:0x138258e0a384d05c"
"supermarket";"Toko bahan makanan Eropa";"UD Gilingan bakso anto";"MWC5+GWW, Jl. Gajah Mentah, Bukit Drien, Kec. Sungai Raya, Kabupaten Aceh Timur, Aceh";"Kabupaten Aceh Timur, Aceh";"ACEH";"";"Indonesia";"";"4.6713594";"97.9098249";"https://maps.google.com/?cid=0x0:0xed01b03d0db6f573"
"supermarket";"Toko bahan makanan";"Sungai raya";"Jl. Gajah Mentah, Bukit Drien, Kec. Sungai Raya, Kabupaten Aceh Timur, Aceh 24452";"Bukit Drien, Kec. Sungai Raya, Kabupaten Aceh Timur";"ACEH";"24452";"Indonesia";"";"4.6713594";"97.9098249";"https://maps.google.com/?cid=0x0:0x286a88246563b424"
"supermarket";"Minimarket";"Raya Mart";"MWF8+87H, Labuhan Keude, Kec. Sungai Raya, Kabupaten Aceh Timur, Aceh 24452";"Labuhan Keude, Kec. Sungai Raya, Kabupaten Aceh Timur";"ACEH";"24452";"Indonesia";"";"4.6733217";"97.9157252";"https://maps.google.com/?cid=0x0:0xe84abd76dad98e6"
"supermarket";"supermarket";"Kec. Sungai Raya";"Kabupaten Aceh Timur, Aceh";"Kabupaten Aceh Timur, Aceh";"ACEH";"";"Indonesia";"";"4.6744294";"97.9155206";"https://maps.google.com/?cid=0x0:0xed64a98a923c441c"
"supermarket";"Minimarket";"Super Mini Market";"MW3F+QVG, Bukit Selamat, Kec. Sungai Raya, Kabupaten Aceh Timur, Aceh 24452";"Bukit Selamat, Kec. Sungai Raya, Kabupaten Aceh Timur";"ACEH";"24452";"Indonesia";"";"4.6544293";"97.9247121";"https://maps.google.com/?cid=0x0:0x3c217c2130626eb3"
"supermarket";"Toko bahan makanan";"Mutia";"JVVW+VMC, Alue Itam, Kec. Sungai Raya, Kabupaten Aceh Timur, Aceh 24452";"Alue Itam, Kec. Sungai Raya, Kabupaten Aceh Timur";"ACEH";"24452";"Indonesia";"";"4.6446956";"97.8966536";"https://maps.google.com/?cid=0x0:0x65a0b6632f55afb4"
"supermarket";"Pemasok Produk Makanan";"N_QIE77 Frozen Food";"Labuhan Keude, Kec. Sungai Raya, Kabupaten Aceh Timur, Aceh 24452";"Kec. Sungai Raya, Kabupaten Aceh Timur";"ACEH";"24452";"Indonesia";" 082177475787";"4.6743433";"97.915645";"https://maps.google.com/?cid=0x0:0xbaa6ae2341556464"
"supermarket";"Bakso";"Bakso";"MWH8+45X, Labuhan kede, Kec. Sungai Raya, Kabupaten Aceh Timur, Aceh 24452";"Labuhan kede, Kec. Sungai Raya, Kabupaten Aceh Timur";"ACEH";"24452";"Indonesia";"";"4.6783338";"97.9159213";"https://maps.google.com/?cid=0x0:0x34869c5e62fc4c07"
"supermarket";"Toko umum";"Toko Kak Bodah";"JWCQ+FX7, Rantau Panjang, Kec. Rantau Selamat, Kabupaten Aceh Timur, Aceh 24452";"Rantau Panjang, Kec. Rantau Selamat, Kabupaten Aceh Timur";"ACEH";"24452";"Indonesia";"";"4.6211604";"97.9399106";"https://maps.google.com/?cid=0x0:0x820b9af50e90aa06"
"supermarket";"Toko Daging";"UD gilingan bakso juragan";"Sungai raya, Kec. Sungai Raya, Kabupaten Aceh Timur, Aceh 24452";"Kec. Sungai Raya, Kabupaten Aceh Timur";"ACEH";"24452";"Indonesia";"";"4.6742769";"97.9141785";"https://maps.google.com/?cid=0x0:0x3f45b1bc20a3b8b8"
"supermarket";"Toko bahan makanan";"SimpangLima Grocery Store";"Jl. Tengku Angkasa H Abdullah Ujong Rimba No 20, Kp. Baru, Kec. Baiturrahman, Kota Banda Aceh, Aceh 23242";"Kp. Baru, Kec. Baiturrahman, Kota Banda Aceh";"ACEH";"23242";"Indonesia";" 0811686677";"5.5504966";"95.3167777";"https://maps.google.com/?cid=0x0:0x22361fe0a56c2da4"
"supermarket";"Toko bahan makanan Eropa";"UD Gilingan bakso anto";"MWC5+GWW, Jl. Gajah Mentah, Bukit Drien, Kec. Sungai Raya, Kabupaten Aceh Timur, Aceh";"Kabupaten Aceh Timur, Aceh";"ACEH";"";"Indonesia";"";"4.6713594";"97.9098249";"https://maps.google.com/?cid=0x0:0xed01b03d0db6f573"
"supermarket";"Toko umum";"Sksjki";"QV3G+2FC, Jeungki, Kec. Peureulak Tim., Kabupaten Aceh Timur, Aceh 24458";"Jeungki, Kec. Peureulak Tim., Kabupaten Aceh Timur";"ACEH";"24458";"Indonesia";" 082294771987";"4.7525732";"97.8761266";"https://maps.google.com/?cid=0x0:0x138258e0a384d05c"
"supermarket";"Minimarket";"Kios Sitihawa";"PVHX+VRH, Seuneubok Jl., Kec. Peureulak Tim., Kabupaten Aceh Timur, Aceh 24452";"Seuneubok Jl., Kec. Peureulak Tim., Kabupaten Aceh Timur";"ACEH";"24452";"Indonesia";"";"4.7296902";"97.8996224";"https://maps.google.com/?cid=0x0:0xa49e0bb4b77b10c"
"supermarket";"Toko bahan makanan";"Lina seafood";"Jl. Lintas Sumatra, Rantau Panjang, Kec. Rantau Selamat, Kabupaten Aceh Timur, Aceh 24452";"Rantau Panjang, Kec. Rantau Selamat, Kabupaten Aceh Timur";"ACEH";"24452";"Indonesia";" 085260313443";"4.6170002";"97.932548";"https://maps.google.com/?cid=0x0:0xa5b7a3b9efd92868"
"supermarket";"Minimarket";"Raya Mart";"MWF8+87H, Labuhan Keude, Kec. Sungai Raya, Kabupaten Aceh Timur, Aceh 24452";"Labuhan Keude, Kec. Sungai Raya, Kabupaten Aceh Timur";"ACEH";"24452";"Indonesia";"";"4.6733217";"97.9157252";"https://maps.google.com/?cid=0x0:0xe84abd76dad98e6"
"supermarket";"supermarket";"Kec. Sungai Raya";"Kabupaten Aceh Timur, Aceh";"Kabupaten Aceh Timur, Aceh";"ACEH";"";"Indonesia";"";"4.6744294";"97.9155206";"https://maps.google.com/?cid=0x0:0xed64a98a923c441c"
"supermarket";"Toko bahan makanan";"Sungai raya";"Jl. Gajah Mentah, Bukit Drien, Kec. Sungai Raya, Kabupaten Aceh Timur, Aceh 24452";"Bukit Drien, Kec. Sungai Raya, Kabupaten Aceh Timur";"ACEH";"24452";"Indonesia";"";"4.6713594";"97.9098249";"https://maps.google.com/?cid=0x0:0x286a88246563b424"
"supermarket";"Grosir";"Ridwan";"MWR7+8M9, Alue Rangan, Kec. Sungai Raya, Kabupaten Aceh Timur, Aceh 24452";"Alue Rangan, Kec. Sungai Raya, Kabupaten Aceh Timur";"ACEH";"24452";"Indonesia";" 085260443427";"4.6907881";"97.9142195";"https://maps.google.com/?cid=0x0:0xb1926543f897c2f"
"supermarket";"Pemasok Produk Makanan";"N_QIE77 Frozen Food";"Labuhan Keude, Kec. Sungai Raya, Kabupaten Aceh Timur, Aceh 24452";"Kec. Sungai Raya, Kabupaten Aceh Timur";"ACEH";"24452";"Indonesia";" 082177475787";"4.6743433";"97.915645";"https://maps.google.com/?cid=0x0:0xbaa6ae2341556464"
"supermarket";"Toko bahan makanan";"Mutia";"JVVW+VMC, Alue Itam, Kec. Sungai Raya, Kabupaten Aceh Timur, Aceh 24452";"Alue Itam, Kec. Sungai Raya, Kabupaten Aceh Timur";"ACEH";"24452";"Indonesia";"";"4.6446956";"97.8966536";"https://maps.google.com/?cid=0x0:0x65a0b6632f55afb4"
"supermarket";"Toko umum";"Toko Kak Bodah";"JWCQ+FX7, Rantau Panjang, Kec. Rantau Selamat, Kabupaten Aceh Timur, Aceh 24452";"Rantau Panjang, Kec. Rantau Selamat, Kabupaten Aceh Timur";"ACEH";"24452";"Indonesia";"";"4.6211604";"97.9399106";"https://maps.google.com/?cid=0x0:0x820b9af50e90aa06"
"supermarket";"Toko Daging";"UD gilingan bakso juragan";"Sungai raya, Kec. Sungai Raya, Kabupaten Aceh Timur, Aceh 24452";"Kec. Sungai Raya, Kabupaten Aceh Timur";"ACEH";"24452";"Indonesia";"";"4.6742769";"97.9141785";"https://maps.google.com/?cid=0x0:0x3f45b1bc20a3b8b8"
"supermarket";"Bakso";"Bakso";"MWH8+45X, Labuhan kede, Kec. Sungai Raya, Kabupaten Aceh Timur, Aceh 24452";"Labuhan kede, Kec. Sungai Raya, Kabupaten Aceh Timur";"ACEH";"24452";"Indonesia";"";"4.6783338";"97.9159213";"https://maps.google.com/?cid=0x0:0x34869c5e62fc4c07"
"supermarket";"Toko bahan makanan";"SimpangLima Grocery Store";"Jl. Tengku Angkasa H Abdullah Ujong Rimba No 20, Kp. Baru, Kec. Baiturrahman, Kota Banda Aceh, Aceh 23242";"Kp. Baru, Kec. Baiturrahman, Kota Banda Aceh";"ACEH";"23242";"Indonesia";" 0811686677";"5.5504966";"95.3167777";"https://maps.google.com/?cid=0x0:0x22361fe0a56c2da4"
"supermarket";"Toko bahan makanan Eropa";"UD Gilingan bakso anto";"MWC5+GWW, Jl. Gajah Mentah, Bukit Drien, Kec. Sungai Raya, Kabupaten Aceh Timur, Aceh";"Kabupaten Aceh Timur, Aceh";"ACEH";"";"Indonesia";"";"4.6713594";"97.9098249";"https://maps.google.com/?cid=0x0:0xed01b03d0db6f573"
"supermarket";"Toko umum";"Sksjki";"QV3G+2FC, Jeungki, Kec. Peureulak Tim., Kabupaten Aceh Timur, Aceh 24458";"Jeungki, Kec. Peureulak Tim., Kabupaten Aceh Timur";"ACEH";"24458";"Indonesia";" 082294771987";"4.7525732";"97.8761266";"https://maps.google.com/?cid=0x0:0x138258e0a384d05c"
"supermarket";"Minimarket";"Kios Sitihawa";"PVHX+VRH, Seuneubok Jl., Kec. Peureulak Tim., Kabupaten Aceh Timur, Aceh 24452";"Seuneubok Jl., Kec. Peureulak Tim., Kabupaten Aceh Timur";"ACEH";"24452";"Indonesia";"";"4.7296902";"97.8996224";"https://maps.google.com/?cid=0x0:0xa49e0bb4b77b10c"
"supermarket";"Toko bahan makanan";"Lina seafood";"Jl. Lintas Sumatra, Rantau Panjang, Kec. Rantau Selamat, Kabupaten Aceh Timur, Aceh 24452";"Rantau Panjang, Kec. Rantau Selamat, Kabupaten Aceh Timur";"ACEH";"24452";"Indonesia";" 085260313443";"4.6170002";"97.932548";"https://maps.google.com/?cid=0x0:0xa5b7a3b9efd92868"
