Category;Real Category;Business Name;Address;City;State;Postal Code;Country;Phone;Latitude;Longitude;Map Link
"perumahan";"Komplek perumahan";"Rumah samsul";"WM3P+JX, Panton Rayeuk A, Kec. Banda Alam, Kabupaten Aceh Timur, Aceh";"Kabupaten Aceh Timur, Aceh";"ACEH";"";"Indonesia";"";"4.9040366";"97.687428";"https://maps.google.com/?cid=0x0:0xe645c9bc78baa7d5"
"perumahan";"perumahan";"DUSUN DAMAI";"VMVX+2HH, Seuneubok Pangou, Kec. Banda Alam, Kabupaten Aceh Timur, Aceh";"Kabupaten Aceh Timur, Aceh";"ACEH";"";"Indonesia";"";"4.892561";"97.6989983";"https://maps.google.com/?cid=0x0:0xfbb5cf2f64ad7a9e"
"perumahan";"perumahan";"Kec. Banda Alam";"Kabupaten Aceh Timur, Aceh";"Kabupaten Aceh Timur, Aceh";"ACEH";"";"Indonesia";"";"4.903042";"97.6987748";"https://maps.google.com/?cid=0x0:0xbbf5a401b81b9e34"
"perumahan";"Komplek perumahan";"Rumah Vatya Zulmi";"VMGW+95C, Blang Rambong, Kec. Banda Alam, Kabupaten Aceh Timur, Aceh 24457";"Blang Rambong, Kec. Banda Alam, Kabupaten Aceh Timur";"ACEH";"24457";"Indonesia";"";"4.8759412";"97.6954022";"https://maps.google.com/?cid=0x0:0x21d62127cd89dd7d"
"perumahan";"Pembangunan Perumahan";"Desa jalan dua";"WP23+775, Jl. Dua, Kec. Banda Alam, Kabupaten Aceh Timur, Aceh 24454";"Jl. Dua, Kec. Banda Alam, Kabupaten Aceh Timur";"ACEH";"24454";"Indonesia";"";"4.9001004";"97.7025756";"https://maps.google.com/?cid=0x0:0xeb2d6212952fc1df"
"perumahan";"Komplek perumahan";"Amanda";"WM3X+6GW, Panton Rayeuk M, Kec. Banda Alam, Kabupaten Aceh Timur, Aceh";"Kabupaten Aceh Timur, Aceh";"ACEH";"";"Indonesia";"";"4.9031213";"97.6988286";"https://maps.google.com/?cid=0x0:0xe33fa462a8503273"
"perumahan";"Kompleks Kondominium";"Komplek PT Bumi Flora";"RPM8+J8F, Jambo Reuhat, Kec. Banda Alam, Kabupaten Aceh Timur, Aceh 24456";"Jambo Reuhat, Kec. Banda Alam, Kabupaten Aceh Timur";"ACEH";"24456";"Indonesia";"";"4.8340524";"97.7158084";"https://maps.google.com/?cid=0x0:0x775cca1bdd1c511b"
"perumahan";"Komplek perumahan";"Home Putra";"VM4V+Q8F, Jambo Reuhat, Kec. Banda Alam, Kabupaten Aceh Timur, Aceh 24456";"Jambo Reuhat, Kec. Banda Alam, Kabupaten Aceh Timur";"ACEH";"24456";"Indonesia";"";"4.8568967";"97.6932669";"https://maps.google.com/?cid=0x0:0x74034cae6a82e766"
"perumahan";"Perhimpunan Pengembang Perumahan";"RUMAH STOCKHOM";"WP38+X9, Uram Jl., Kec. Banda Alam, Kabupaten Aceh Timur, Aceh";"Kabupaten Aceh Timur, Aceh";"ACEH";"";"Indonesia";"";"4.9047555";"97.7155617";"https://maps.google.com/?cid=0x0:0xb8c6243815bde2f5"
"perumahan";"Komplek perumahan";"Sabar operator";"WM3G+27, Panton Rayeuk T, Kec. Banda Alam, Kabupaten Aceh Timur, Aceh";"Kabupaten Aceh Timur, Aceh";"ACEH";"";"Indonesia";"";"4.9025726";"97.6756756";"https://maps.google.com/?cid=0x0:0x4212f414ad7513a0"
"perumahan";"Komplek perumahan";"LETES S";"VM9F+5GM, Seuneubok Bayu, Kec. Banda Alam, Kabupaten Aceh Timur, Aceh";"Kabupaten Aceh Timur, Aceh";"ACEH";"";"Indonesia";"";"4.867953";"97.6738023";"https://maps.google.com/?cid=0x0:0xcb0d9aa4c213181a"
"perumahan";"Pembangunan Perumahan";"Rumah Atom";"WM3X+6GW, Snb Bayu, Kec. Banda Alam, Kabupaten Aceh Timur, Aceh";"Kabupaten Aceh Timur, Aceh";"ACEH";"";"Indonesia";"";"4.9031213";"97.6988287";"https://maps.google.com/?cid=0x0:0x465c70958caf0964"
"perumahan";"Komplek perumahan";"RUMAH TGK SALEH";"WM8V+X89, Jln,Idi Cut-Keude Geureubak, Buket Drien, Kec. Banda Alam";"Kabupaten Aceh Timur, Aceh";"ACEH";"";"Indonesia";"";"4.9174179";"97.693369";"https://maps.google.com/?cid=0x0:0xa9eab19a0bd0a764"
"perumahan";"Komplek perumahan";"Home afzhal";"WP9C+X37, Buket Teukuh, Kec. Idi Tunong, Kabupaten Aceh Timur, Aceh";"Kabupaten Aceh Timur, Aceh";"ACEH";"";"Indonesia";"";"4.9199021";"97.7201751";"https://maps.google.com/?cid=0x0:0xa5e5692cacbebc8c"
"perumahan";"perumahan";"Aceh 24452";"Kabupaten Aceh Timur, Aceh";"Kabupaten Aceh Timur, Aceh";"ACEH";"";"Indonesia";"";"4.6428925";"97.8286368";"https://maps.google.com/?cid=0x0:0xab6d8837867af58f"
"perumahan";"Kompleks Kondominium";"Mahed Residence";"GWPQ+968, Birem Rayeuk, Kec. Birem Bayeun, Kabupaten Aceh Timur, Aceh 24452";"Birem Rayeuk, Kec. Birem Bayeun, Kabupaten Aceh Timur";"ACEH";"24452";"Indonesia";"";"4.5362553";"97.9389879";"https://maps.google.com/?cid=0x0:0x41c1b84345c6eac9"
"perumahan";"Kantor Perusahaan";"Perumahan griya dahlia indah,Kantor Pemasaran";"Jl. Medan - Banda Aceh, Aramiyah, Kec. Birem Bayeun, Kabupaten Aceh Timur, Aceh 24452";"Aramiyah, Kec. Birem Bayeun, Kabupaten Aceh Timur";"ACEH";"24452";"Indonesia";" 085361200078";"4.5558512";"97.9285803";"https://maps.google.com/?cid=0x0:0xa39111f3158b4893"
"perumahan";"Perhimpunan Pengembang Perumahan";"PF house";"GWPP+2QH, Keude Birem, Kec. Birem Bayeun, Kabupaten Aceh Timur, Aceh 24452";"Keude Birem, Kec. Birem Bayeun, Kabupaten Aceh Timur";"ACEH";"24452";"Indonesia";"";"4.5350721";"97.9369901";"https://maps.google.com/?cid=0x0:0xbdf7981f37e3407b"
"perumahan";"Komplek perumahan";"Rumah Rajul";"HWG9+68W, Bayeun, Kec. Birem Bayeun, Kabupaten Aceh Timur, Aceh 24452";"Bayeun, Kec. Birem Bayeun, Kabupaten Aceh Timur";"ACEH";"24452";"Indonesia";"";"4.5756115";"97.9183417";"https://maps.google.com/?cid=0x0:0x5b66f9409fb19137"
"perumahan";"Komplek perumahan";"Rumah Ridlwan";"GWPM+8V2, Keude Birem, Kec. Birem Bayeun, Kabupaten Aceh Timur, Aceh 24452";"Keude Birem, Kec. Birem Bayeun, Kabupaten Aceh Timur";"ACEH";"24452";"Indonesia";"";"4.5357549";"97.9346387";"https://maps.google.com/?cid=0x0:0xebea67d3a10929f7"
"perumahan";"Komplek perumahan";"Muda Inan Jaya";"HVFX+W6W, Alue Gadeng, Kec. Birem Bayeun, Kabupaten Aceh Timur, Aceh 24452";"Alue Gadeng, Kec. Birem Bayeun, Kabupaten Aceh Timur";"ACEH";"24452";"Indonesia";" 082163117074";"4.5748618";"97.8980934";"https://maps.google.com/?cid=0x0:0x1d7d553ebe9fd17e"
"perumahan";"Komplek perumahan";"House RO";"HW3J+Q9V, Jl. Medan Banda Aceh, Aramiyah, Kec. Birem Bayeun, Kabupaten Aceh Timur, Aceh 24452";"Jl. Medan Banda Aceh, Aramiyah, Kec. Birem Bayeun, Kabupaten Aceh Timur";"ACEH";"24452";"Indonesia";"";"4.5544759";"97.9309172";"https://maps.google.com/?cid=0x0:0xf8669ab742a2ec95"
"perumahan";"Komplek perumahan";"Bewak";"GV3G+VQ6, Alue Teh, Kec. Birem Bayeun, Kabupaten Aceh Timur, Aceh 24455";"Alue Teh, Kec. Birem Bayeun, Kabupaten Aceh Timur";"ACEH";"24455";"Indonesia";" 081346012244";"4.5037653";"97.8765438";"https://maps.google.com/?cid=0x0:0x1ffd82c30d6bdec0"
"perumahan";"Komplek perumahan";"Rumah tepas";"MR7F+3RQ, Unnamed Road, Gajah Mentah, Kec. Sungai Raya, Kabupaten Aceh Timur, Aceh 24452";"Unnamed Road, Gajah Mentah, Kec. Sungai Raya, Kabupaten Aceh Timur";"ACEH";"24452";"Indonesia";"";"4.662703";"97.8246035";"https://maps.google.com/?cid=0x0:0x5066bedd3f3d1069"
"perumahan";"Perhimpunan Pengembang Perumahan";"KOMPLEK MASDAR FAMILY";"GWPJ+GVW, Birem Rayeuk, Kec. Birem Bayeun, Kabupaten Aceh Timur, Aceh 24452";"Birem Rayeuk, Kec. Birem Bayeun, Kabupaten Aceh Timur";"ACEH";"24452";"Indonesia";"";"4.5367049";"97.9324243";"https://maps.google.com/?cid=0x0:0x2de9e67f2e39174d"
"perumahan";"Komplek perumahan";"Perumahan taj mahal";"HWCG+X57, Paya Peulawi, Kec. Birem Bayeun, Kabupaten Aceh Timur, Aceh 24455";"Paya Peulawi, Kec. Birem Bayeun, Kabupaten Aceh Timur";"ACEH";"24455";"Indonesia";"";"4.572407";"97.9254334";"https://maps.google.com/?cid=0x0:0x546fc538142227e5"
"perumahan";"Komplek perumahan";"Rumah raju";"HWG6+HQR, Jl. Medan - Banda Aceh, Bayeun, Kec. Birem Bayeun, Kabupaten Aceh Timur, Aceh 24452";"Jl. Medan - Banda Aceh, Bayeun, Kec. Birem Bayeun, Kabupaten Aceh Timur";"ACEH";"24452";"Indonesia";"";"4.5758471";"97.9136817";"https://maps.google.com/?cid=0x0:0x79ee7db4f08a810f"
"perumahan";"Komplek perumahan";"Rumah amiruzzahri";"HWP6+M8Q, Bayeun, Kec. Birem Bayeun, Kabupaten Aceh Timur, Aceh 24452";"Bayeun, Kec. Birem Bayeun, Kabupaten Aceh Timur";"ACEH";"24452";"Indonesia";"";"4.5867185";"97.9108709";"https://maps.google.com/?cid=0x0:0x90541dafccd1b421"
"perumahan";"perumahan";"Kec. Darul Aman";"Kabupaten Aceh Timur, Aceh";"Kabupaten Aceh Timur, Aceh";"ACEH";"";"Indonesia";"";"4.9859334";"97.7204106";"https://maps.google.com/?cid=0x0:0x217e07dad240b2e4"
"perumahan";"Perhimpunan Pengembang Perumahan";"Rumoh Tgk Yan";"Seuneubok Baroh, Kec. Darul Aman, Kabupaten Aceh Timur, Aceh 24455";"Kec. Darul Aman, Kabupaten Aceh Timur";"ACEH";"24455";"Indonesia";"";"4.987014";"97.7260859";"https://maps.google.com/?cid=0x0:0x6268f443ae864e8f"
"perumahan";"Komplek perumahan";"Rumah pribadi";"XPPC+7CJ, Kp. Keude, Kec. Darul Aman, Kabupaten Aceh Timur, Aceh";"Kabupaten Aceh Timur, Aceh";"ACEH";"";"Indonesia";"";"4.9857237";"97.721016";"https://maps.google.com/?cid=0x0:0xd45bd1950589e56a"
"perumahan";"Komplek perumahan";"Aceh timur";"XPPC+95F, Kp. Keude, Kec. Darul Aman, Kabupaten Aceh Timur, Aceh";"Kabupaten Aceh Timur, Aceh";"ACEH";"";"Indonesia";"";"4.9859334";"97.7204106";"https://maps.google.com/?cid=0x0:0x24b5e2d43f5feffb"
"perumahan";"Komplek perumahan";"Rumah Misbar Relief Idi Cut";"XPJH+4J8, Dusun Sejahtera, Kp. Baro, Kec. Darul Aman, Kabupaten Aceh Timur, Aceh 24455";"Dusun Sejahtera, Kp. Baro, Kec. Darul Aman, Kabupaten Aceh Timur";"ACEH";"24455";"Indonesia";"";"4.9802893";"97.7290776";"https://maps.google.com/?cid=0x0:0xc66e2d0874cfa344"
"perumahan";"Komplek perumahan";"Rumah ryanza";"XPJF+M5R, Kp. Baro, Kec. Darul Aman, Kabupaten Aceh Timur, Aceh 24455";"Kp. Baro, Kec. Darul Aman, Kabupaten Aceh Timur";"ACEH";"24455";"Indonesia";"";"4.9817375";"97.7228906";"https://maps.google.com/?cid=0x0:0x7713930f4e2822f3"
"perumahan";"Komplek perumahan";"Rumah asyifa";"XPPC+95F, Kp. Keude, Kec. Darul Aman, Kabupaten Aceh Timur, Aceh";"Kabupaten Aceh Timur, Aceh";"ACEH";"";"Indonesia";"";"4.9859334";"97.7204106";"https://maps.google.com/?cid=0x0:0x847739e03bb6be28"
"perumahan";"Komplek perumahan";"Rumah Maulina";"XPPP+24, Seuneubok Baroh, Kec. Darul Aman, Kabupaten Aceh Timur, Aceh";"Kabupaten Aceh Timur, Aceh";"ACEH";"";"Indonesia";"";"4.9850077";"97.7353422";"https://maps.google.com/?cid=0x0:0xfd479e5aa088a427"
"perumahan";"perumahan";"Rumah paklek supri";"XP32+HHX, Alur Merbo, Kec. Darul Aman, Kabupaten Aceh Timur, Aceh";"Kabupaten Aceh Timur, Aceh";"ACEH";"";"Indonesia";"";"4.9544689";"97.7014754";"https://maps.google.com/?cid=0x0:0xa6c3ca567dd34b78"
"perumahan";"Perumahan";"DARMANSYAH";"Kompleks Perumahan MAN Insan Cendekia, Kuta Lawah, Kec. Idi Rayeuk, Kabupaten Aceh Timur, Aceh 24454";"Kuta Lawah, Kec. Idi Rayeuk, Kabupaten Aceh Timur";"ACEH";"24454";"Indonesia";" 082297916842";"4.9685721";"97.7381396";"https://maps.google.com/?cid=0x0:0xf260031b3056db85"
"perumahan";"Komplek perumahan";"Is Ismet Family";"XPQ3+869, Kemuning II, Kec. Darul Aman, Kabupaten Aceh Timur, Aceh 24455";"Kemuning II, Kec. Darul Aman, Kabupaten Aceh Timur";"ACEH";"24455";"Indonesia";"";"4.9883485";"97.7031412";"https://maps.google.com/?cid=0x0:0xf8b75766bae0a354"
"perumahan";"Komplek perumahan";"Rumah m.nazar(faisal)";"WMWX+CJ4, Alur Merbo, Kec. Darul Aman, Kabupaten Aceh Timur, Aceh";"Kabupaten Aceh Timur, Aceh";"ACEH";"";"Indonesia";"";"4.9460042";"97.6990694";"https://maps.google.com/?cid=0x0:0x9c9feb273e52c75a"
"perumahan";"Komplek perumahan";"Mira";"XP8C+77, Dama Polo II, Kec. Darul Aman, Kabupaten Aceh Timur, Aceh";"Kabupaten Aceh Timur, Aceh";"ACEH";"";"Indonesia";"";"4.9657892";"97.7206964";"https://maps.google.com/?cid=0x0:0x1a8418a07cb6c661"
"perumahan";"Pembangunan Perumahan";"Madolah";"WMWX+CJ4, Alur Merbo, Kec. Darul Aman, Kabupaten Aceh Timur, Aceh";"Kabupaten Aceh Timur, Aceh";"ACEH";"";"Indonesia";"";"4.9459771";"97.6994593";"https://maps.google.com/?cid=0x0:0x4d38a499216e66f6"
"perumahan";"Tempat Ibadah";"Rumah dinas BPP Darul Falah";"2J7M+6J6, Unnamed Road, Keude Blang, Kec. Darul Falah, Kabupaten Aceh Timur, Aceh 24458";"Unnamed Road, Keude Blang, Kec. Darul Falah, Kabupaten Aceh Timur";"ACEH";"24458";"Indonesia";"";"5.0130332";"97.6340289";"https://maps.google.com/?cid=0x0:0x9aa6151ca0775193"
"perumahan";"perumahan";"Kec. Darul Falah";"Kabupaten Aceh Timur, Aceh";"Kabupaten Aceh Timur, Aceh";"ACEH";"";"Indonesia";"";"5.0158049";"97.6390314";"https://maps.google.com/?cid=0x0:0xd7c29e75868d7640"
"perumahan";"Komplek perumahan";"Fathahudeen";"2J8Q+7JV, Paya Kreub, Kec. Darul Falah, Kabupaten Aceh Timur, Aceh 24458";"Paya Kreub, Kec. Darul Falah, Kabupaten Aceh Timur";"ACEH";"24458";"Indonesia";"";"5.0157482";"97.6390553";"https://maps.google.com/?cid=0x0:0x3732c5f6ebcf25a7"
"perumahan";"Komplek perumahan";"Kedeu blang";"2J7M+8GF, Keude Blang, Kec. Darul Falah, Kabupaten Aceh Timur, Aceh 24458";"Keude Blang, Kec. Darul Falah, Kabupaten Aceh Timur";"ACEH";"24458";"Indonesia";"";"5.0133201";"97.6337909";"https://maps.google.com/?cid=0x0:0xa2880e033b21780e"
"perumahan";"Komplek perumahan";"M.Yusuf Al-Fatih";"2JHP+89X, Unnamed Road, Alue Siwah Dua, Kec. Julok, Kabupaten Aceh Timur, Aceh 24458";"Unnamed Road, Alue Siwah Dua, Kec. Julok, Kabupaten Aceh Timur";"ACEH";"24458";"Indonesia";"";"5.0283599";"97.6359849";"https://maps.google.com/?cid=0x0:0x6268807ccbc482fb"
"perumahan";"Rumah Sakit";"Polindes Desa Cempeudak kec.Darul Falah";"2J9P+FW, Cemepudak, Kec. Darul Falah, Kabupaten Aceh Timur, Aceh";"Kabupaten Aceh Timur, Aceh";"ACEH";"";"Indonesia";"";"5.0186875";"97.6373125";"https://maps.google.com/?cid=0x0:0x7ecff3a1366378c7"
"perumahan";"Komplek perumahan";"Keude blang";"2J9V+XJW, Keude Blang, Kec. Darul Falah, Kabupaten Aceh Timur, Aceh 24458";"Keude Blang, Kec. Darul Falah, Kabupaten Aceh Timur";"ACEH";"24458";"Indonesia";"";"5.0199999";"97.6440798";"https://maps.google.com/?cid=0x0:0xb8c5bc356cd6123"
"perumahan";"Rumah Kaca";"Rumah Mak Tuha";"2JFQ+H9H, Unnamed Road, Alue Siwah Dua, Kec. Darul Falah, Kabupaten Aceh Timur, Aceh 24458";"Unnamed Road, Alue Siwah Dua, Kec. Darul Falah, Kabupaten Aceh Timur";"ACEH";"24458";"Indonesia";"";"5.0239466";"97.6384961";"https://maps.google.com/?cid=0x0:0x8cd164a6795493a3"
"perumahan";"Tempat Ibadah";"Rumah bg adi";"XJVP+QWG, Gampong Cempeudak, Kec. Darul Falah, Kabupaten Aceh Timur, Aceh 24458";"Gampong Cempeudak, Kec. Darul Falah, Kabupaten Aceh Timur";"ACEH";"24458";"Indonesia";"";"4.9944438";"97.6373206";"https://maps.google.com/?cid=0x0:0x70e5649dcda2678"
"perumahan";"Komplek perumahan";"tunong ulee gajah";"2J6Q+849, Tunong Ulee Gajah, Kec. Darul Falah, Kabupaten Aceh Timur, Aceh 24458";"Tunong Ulee Gajah, Kec. Darul Falah, Kabupaten Aceh Timur";"ACEH";"24458";"Indonesia";"";"5.0107781";"97.6378586";"https://maps.google.com/?cid=0x0:0x6437376b996ae86f"
"perumahan";"Komplek perumahan";"Perumahan Medina City";"jl.pajak ikan no.10 kuta, Blang Paoh Dua, Kec. Julok, Kabupaten Aceh Timur, Aceh 24458";"Blang Paoh Dua, Kec. Julok, Kabupaten Aceh Timur";"ACEH";"24458";"Indonesia";"";"5.044333";"97.6284642";"https://maps.google.com/?cid=0x0:0x396af2a1f24f5f45"
"perumahan";"Sekolah";"Dayah Abu Keuniree";"2J8Q+QXM, Unnamed Road, Buket Teumpen, Kec. Darul Falah, Kabupaten Aceh Timur, Aceh 24458";"Unnamed Road, Buket Teumpen, Kec. Darul Falah, Kabupaten Aceh Timur";"ACEH";"24458";"Indonesia";"";"5.0169599";"97.6399096";"https://maps.google.com/?cid=0x0:0x7149c921956012a5"
"perumahan";"Komplek perumahan";"Rumah Fadhil Muhammad";"2JMC+FJP, Ulee Ateung, Kec. Julok, Kabupaten Aceh Timur, Aceh";"Kabupaten Aceh Timur, Aceh";"ACEH";"";"Indonesia";"";"5.033718";"97.6215906";"https://maps.google.com/?cid=0x0:0xf6a36040c7829e2"
"perumahan";"";"Rumah Yudi Beujaya-YBJ";"XJQQ+8W, Gampung Jl., Kec. Nurussalam, Kabupaten Aceh Timur, Aceh 24458";"Gampung Jl., Kec. Nurussalam, Kabupaten Aceh Timur";"ACEH";"24458";"Indonesia";"";"4.9906909";"97.6388072";"https://maps.google.com/?cid=0x0:0xd5fe7d5f3b9f6610"
"perumahan";"perumahan";"Kec. Darul Ihsan";"Kabupaten Aceh Timur, Aceh";"Kabupaten Aceh Timur, Aceh";"ACEH";"";"Indonesia";"";"4.9121713";"97.7511187";"https://maps.google.com/?cid=0x0:0x4217d2780b69b031"
"perumahan";"Pusat Pendidikan";"Pesantren darul ihsan";"HCG2+QMJ, Siem, Kec. Darussalam, Kabupaten Aceh Besar, Aceh 23373";"Siem, Kec. Darussalam, Kabupaten Aceh Besar";"ACEH";"23373";"Indonesia";" 08116884370";"5.5764269";"95.4007864";"https://maps.google.com/?cid=0x0:0x2ce830d2303208fe"
"perumahan";"Sekolah Agama";"Pesantren Darul Ulum Banda Aceh";"Jl. Syiah Kuala No.5, Keuramat, Kec. Kuta Alam, Kota Banda Aceh, Aceh";"Kota Banda Aceh, Aceh";"ACEH";"";"Indonesia";" 065123452";"5.5608258";"95.3299362";"https://maps.google.com/?cid=0x0:0x26f669e8f394405b"
"perumahan";"perumahan";"Kec. Idi Rayeuk";"Kabupaten Aceh Timur, Aceh";"Kabupaten Aceh Timur, Aceh";"ACEH";"";"Indonesia";"";"4.9501675";"97.770381";"https://maps.google.com/?cid=0x0:0x1628dddf2364720"
"perumahan";"Komplek perumahan";"rumah saya";"WQWF+9P4, Tanoh Anou, Kec. Idi Rayeuk, Kabupaten Aceh Timur, Aceh";"Kabupaten Aceh Timur, Aceh";"ACEH";"";"Indonesia";"";"4.9458875";"97.7743281";"https://maps.google.com/?cid=0x0:0x9c2a14b8d02e907b"
"perumahan";"Perumahan";"DARMANSYAH";"Kompleks Perumahan MAN Insan Cendekia, Kuta Lawah, Kec. Idi Rayeuk, Kabupaten Aceh Timur, Aceh 24454";"Kuta Lawah, Kec. Idi Rayeuk, Kabupaten Aceh Timur";"ACEH";"24454";"Indonesia";" 082297916842";"4.9685721";"97.7381396";"https://maps.google.com/?cid=0x0:0xf260031b3056db85"
"perumahan";"Kantor Pemerintah";"Aceh timur idi";"XQ5H+232, Blang Geulumpang, Kec. Idi Rayeuk, Kabupaten Aceh Timur, Aceh";"Kabupaten Aceh Timur, Aceh";"ACEH";"";"Indonesia";"";"4.9575153";"97.7776295";"https://maps.google.com/?cid=0x0:0xf0993ff86c47f4c7"
"perumahan";"Komplek perumahan";"Perumahan fhona resident";"XQ2G+5H2, Tanoh Anou, Kec. Idi Rayeuk, Kabupaten Aceh Timur, Aceh";"Kabupaten Aceh Timur, Aceh";"ACEH";"";"Indonesia";"";"4.9503826";"97.7763781";"https://maps.google.com/?cid=0x0:0x677f6f3689140e6d"
"perumahan";"Komplek perumahan";"Komplek Idi Rayeuk Residence";"Jalan Kesehatan No.D10, Seuneubok Rambong, Kec. Idi Rayeuk, Kabupaten Aceh Timur, Aceh";"Kabupaten Aceh Timur, Aceh";"ACEH";"";"Indonesia";"";"4.9374013";"97.7892168";"https://maps.google.com/?cid=0x0:0xced7107c57e837d8"
"perumahan";"Pembangunan Perumahan";"Rumah fatah";"WQX9+C7P, Gampong Aceh, Kec. Idi Rayeuk, Kabupaten Aceh Timur, Aceh";"Kabupaten Aceh Timur, Aceh";"ACEH";"";"Indonesia";"";"4.9485992";"97.7682";"https://maps.google.com/?cid=0x0:0xf2e0e279fda8f2ae"
"perumahan";"Komplek perumahan";"Alfatah";"WQW9+8W7, Kuta Blang, Kec. Idi Rayeuk, Kabupaten Aceh Timur, Aceh 24454";"Kuta Blang, Kec. Idi Rayeuk, Kabupaten Aceh Timur";"ACEH";"24454";"Indonesia";"";"4.9464238";"97.769037";"https://maps.google.com/?cid=0x0:0xa97ebb8b2084e7e0"
"perumahan";"Komplek perumahan";"Rumah";"WQRH+9GQ, Jl. Medan Banda Aceh, t.anou, Kec. Idi Rayeuk, Kabupaten Aceh Timur, Aceh";"Kabupaten Aceh Timur, Aceh";"ACEH";"";"Indonesia";"";"4.940973";"97.7788458";"https://maps.google.com/?cid=0x0:0xac80af70904f1f19"
"perumahan";"Pembangunan Perumahan";"Rumah Ampon Cek";"WQW7+9CP, Dusun Meuligoe, Keude Blang, Kec. Idi Rayeuk, Kabupaten Aceh Timur, Aceh";"Kabupaten Aceh Timur, Aceh";"ACEH";"";"Indonesia";"";"4.9459568";"97.763591";"https://maps.google.com/?cid=0x0:0x8d5668165fe0a11c"
"perumahan";"Komplek perumahan";"Rumah Kucing Talia";"XQ6G+JX, Kuala Idi, Kec. Idi Rayeuk, Kabupaten Aceh Timur, Aceh";"Kabupaten Aceh Timur, Aceh";"ACEH";"";"Indonesia";"";"4.961572";"97.7774587";"https://maps.google.com/?cid=0x0:0xe1630385285ed8e6"
"perumahan";"Komplek perumahan";"Dusun Kuta Desa Kuta Blang Kecamatan Idi Rayeuk Kabupaten Aceh Timur";"Pulo Blang, Kec. Darul Ihsan, Kabupaten Aceh Timur, Aceh";"Kabupaten Aceh Timur, Aceh";"ACEH";"";"Indonesia";"";"4.9443963";"97.7696577";"https://maps.google.com/?cid=0x0:0xd95578863f3f7cd9"
"perumahan";"Kantor Perusahaan";"perumahan BKPSDM";"WQVC+VGX, Kuta Blang, Kec. Idi Rayeuk, Kabupaten Aceh Timur, Aceh";"Kabupaten Aceh Timur, Aceh";"ACEH";"";"Indonesia";"";"4.9447473";"97.7713722";"https://maps.google.com/?cid=0x0:0xc2a195c34bcf4b40"
"perumahan";"Gudang";"Gudang Udang";"XQ75+CP4, Gampong Jl., Kec. Idi Rayeuk, Kabupaten Aceh Timur, Aceh";"Kabupaten Aceh Timur, Aceh";"ACEH";"";"Indonesia";"";"4.9635112";"97.7593267";"https://maps.google.com/?cid=0x0:0x966d285e76692728"
"perumahan";"perumahan";"Kec. Idi Tim.";"Kabupaten Aceh Timur, Aceh";"Kabupaten Aceh Timur, Aceh";"ACEH";"";"Indonesia";"";"4.9203515";"97.7990189";"https://maps.google.com/?cid=0x0:0x46d60b30aadd6a41"
"perumahan";"Pembangunan Perumahan";"Idi";"WQCX+C54, Seuneubok Bar., Kec. Idi Tim., Kabupaten Aceh Timur, Aceh";"Kabupaten Aceh Timur, Aceh";"ACEH";"";"Indonesia";"";"4.9210201";"97.7979514";"https://maps.google.com/?cid=0x0:0x22cd0fadfd8119f1"
"perumahan";"Kantor Pemerintah";"Aceh timur idi";"XQ5H+232, Blang Geulumpang, Kec. Idi Rayeuk, Kabupaten Aceh Timur, Aceh";"Kabupaten Aceh Timur, Aceh";"ACEH";"";"Indonesia";"";"4.9575153";"97.7776295";"https://maps.google.com/?cid=0x0:0xf0993ff86c47f4c7"
"perumahan";"Kantor Perusahaan";"perumahan BKPSDM";"WQVC+VGX, Kuta Blang, Kec. Idi Rayeuk, Kabupaten Aceh Timur, Aceh";"Kabupaten Aceh Timur, Aceh";"ACEH";"";"Indonesia";"";"4.9447473";"97.7713722";"https://maps.google.com/?cid=0x0:0xc2a195c34bcf4b40"
"perumahan";"Komplek perumahan";"Rumah murni bang Din";"WQFW+M5F, Ketapang Dua, Kec. Idi Tim., Kabupaten Aceh Timur, Aceh";"Kabupaten Aceh Timur, Aceh";"ACEH";"";"Indonesia";"";"4.9241802";"97.7954153";"https://maps.google.com/?cid=0x0:0xffdb579977729ab6"
"perumahan";"Komplek perumahan";"Perumahan Linda Resident";"WQVC+QFG, Pulo Blang, Kec. Idi Rayeuk, Kabupaten Aceh Timur, Aceh";"Kabupaten Aceh Timur, Aceh";"ACEH";"";"Indonesia";"";"4.9444496";"97.7711974";"https://maps.google.com/?cid=0x0:0x3bf472d18fe2813a"
"perumahan";"perumahan";"rumah aidil";"WQCC+HC5, Seuneubok Lapang, Kec. Darul Ihsan, Kabupaten Aceh Timur, Aceh 24457";"Seuneubok Lapang, Kec. Darul Ihsan, Kabupaten Aceh Timur";"ACEH";"24457";"Indonesia";"";"4.9201869";"97.7722807";"https://maps.google.com/?cid=0x0:0x5f8a78f963878050"
"perumahan";"Kantor Pemerintah";"Keutapang Dua Kec.Idi Timur";"WQFW+RM9, Ketapang Dua, Kec. Idi Tim., Kabupaten Aceh Timur, Aceh";"Kabupaten Aceh Timur, Aceh";"ACEH";"";"Indonesia";"";"4.9245086";"97.7966363";"https://maps.google.com/?cid=0x0:0x5ce79506893ecd5f"
"perumahan";"Komplek perumahan";"rumah saya";"WQWF+9P4, Tanoh Anou, Kec. Idi Rayeuk, Kabupaten Aceh Timur, Aceh";"Kabupaten Aceh Timur, Aceh";"ACEH";"";"Indonesia";"";"4.9458875";"97.7743281";"https://maps.google.com/?cid=0x0:0x9c2a14b8d02e907b"
"perumahan";"Komplek perumahan";"Rumah syarwani";"WQHW+2X, Ketapang Dua, Kec. Idi Tim., Kabupaten Aceh Timur, Aceh";"Kabupaten Aceh Timur, Aceh";"ACEH";"";"Indonesia";" 085295988495";"4.927588";"97.797477";"https://maps.google.com/?cid=0x0:0xbdef9d9279aa7b3c"
"perumahan";"perumahan";"Rumah Aulia";"WQ8X+RM4, Seuneubok Bar., Kec. Idi Tim., Kabupaten Aceh Timur, Aceh";"Kabupaten Aceh Timur, Aceh";"ACEH";"";"Indonesia";"";"4.9170038";"97.799195";"https://maps.google.com/?cid=0x0:0xcea2cfe8cc9d4416"
"perumahan";"Komplek perumahan";"Rumah olex";"WQVJ+HX7, Tanoh Anou, Kec. Idi Rayeuk, Kabupaten Aceh Timur, Aceh";"Kabupaten Aceh Timur, Aceh";"ACEH";"";"Indonesia";"";"4.9439195";"97.7824225";"https://maps.google.com/?cid=0x0:0xfcf4f198f4a72037"
"perumahan";"Komplek perumahan";"roum";"WQRQ+C5Q, Tanoh Anou, Kec. Idi Rayeuk, Kabupaten Aceh Timur, Aceh";"Kabupaten Aceh Timur, Aceh";"ACEH";"";"Indonesia";"";"4.9407853";"97.7891994";"https://maps.google.com/?cid=0x0:0xcac9f53093deb081"
"perumahan";"Perhimpunan Pengembang Perumahan";"Rumah Faisal";"WQ9M+FF, Tualang Dalam, Kec. Idi Tim., Kabupaten Aceh Timur, Aceh";"Kabupaten Aceh Timur, Aceh";"ACEH";"";"Indonesia";" 085260029741";"4.9186924";"97.7836785";"https://maps.google.com/?cid=0x0:0x5584ab9b14093f63"
"perumahan";"Komplek perumahan";"Di Rumah";"VPVM+5CR, Paya Awe, Kec. Idi Tunong, Kabupaten Aceh Timur, Aceh";"Kabupaten Aceh Timur, Aceh";"ACEH";"";"Indonesia";"";"4.8929985";"97.7335226";"https://maps.google.com/?cid=0x0:0xaeaf3db50b9fa5fe"
"perumahan";"perumahan";"Kec. Idi Tunong";"Kabupaten Aceh Timur, Aceh";"Kabupaten Aceh Timur, Aceh";"ACEH";"";"Indonesia";"";"4.924037";"97.7300209";"https://maps.google.com/?cid=0x0:0xce43963eb576bc1b"
"perumahan";"Komplek perumahan";"Rumah pak pon";"WP5F+PP5, Seuneubok Drien, Kec. Idi Tunong, Kabupaten Aceh Timur, Aceh 24454";"Seuneubok Drien, Kec. Idi Tunong, Kabupaten Aceh Timur";"ACEH";"24454";"Indonesia";"";"4.9088514";"97.7238809";"https://maps.google.com/?cid=0x0:0x42e8e1fcfe8814c6"
"perumahan";"Komplek perumahan";"Dusun kulam gajah";"VPMM+3HJ, Alue Lhok, Kec. Idi Tunong, Kabupaten Aceh Timur, Aceh";"Kabupaten Aceh Timur, Aceh";"ACEH";"";"Indonesia";"";"4.882724";"97.7338771";"https://maps.google.com/?cid=0x0:0x6c2459b06d493bf4"
"perumahan";"Komplek perumahan";"Rumah Tgk imum";"WPC4+M9C, Alue Kumbang M, Kec. Idi Tunong, Kabupaten Aceh Timur, Aceh";"Kabupaten Aceh Timur, Aceh";"ACEH";"";"Indonesia";"";"4.9216957";"97.7058943";"https://maps.google.com/?cid=0x0:0x6f486318e0bf685b"
"perumahan";"Komplek perumahan";"Paya awe";"VPVM+5CR, Paya Awe, Kec. Idi Tunong, Kabupaten Aceh Timur, Aceh";"Kabupaten Aceh Timur, Aceh";"ACEH";"";"Indonesia";"";"4.8929985";"97.7335226";"https://maps.google.com/?cid=0x0:0x33db64dcb38e73f5"
"perumahan";"Komplek perumahan";"Rumah Aida";"WPJQ+HRH, Jl. Keude Geurubak, Seuneubok Jl., Kec. Idi Tunong, Kabupaten Aceh Timur, Aceh 24455";"Jl. Keude Geurubak, Seuneubok Jl., Kec. Idi Tunong, Kabupaten Aceh Timur";"ACEH";"24455";"Indonesia";"";"4.93126";"97.740304";"https://maps.google.com/?cid=0x0:0x61aff03fd365b545"
"perumahan";"Komplek perumahan";"Zakira";"VPXC+W3J, Seuneubok Buya, Kec. Idi Tunong, Kabupaten Aceh Timur, Aceh 24455";"Seuneubok Buya, Kec. Idi Tunong, Kabupaten Aceh Timur";"ACEH";"24455";"Indonesia";"";"4.89984";"97.7201318";"https://maps.google.com/?cid=0x0:0xb3061ec5effb1194"
"perumahan";"Toko Elektronik";"Rumah imam buket teukuh";"WP9F+X4, Buket Teukuh, Kec. Idi Tunong, Kabupaten Aceh Timur, Aceh";"Kabupaten Aceh Timur, Aceh";"ACEH";"";"Indonesia";"";"4.9199105";"97.7228402";"https://maps.google.com/?cid=0x0:0x8f360b8138f85bd"
"perumahan";"Komplek perumahan";"Rumah Agam";"VPRM+GH, Paya Awe, Kec. Idi Tunong, Kabupaten Aceh Timur, Aceh";"Kabupaten Aceh Timur, Aceh";"ACEH";"";"Indonesia";"";"4.8912741";"97.7339935";"https://maps.google.com/?cid=0x0:0xba3d61d41884456c"
"perumahan";"Komplek perumahan";"Rumah Ibu Saidah";"XQ26+3HR, Keude Blang, Kec. Idi Rayeuk, Kabupaten Aceh Timur, Aceh 24455";"Keude Blang, Kec. Idi Rayeuk, Kabupaten Aceh Timur";"ACEH";"24455";"Indonesia";"";"4.9502499";"97.7618668";"https://maps.google.com/?cid=0x0:0x1d5bc3860bac3e07"
"perumahan";"Komplek perumahan";"Ayu saputri";"WPJQ+HRH, Jl. Keude Geurubak, Seuneubok Jl., Kec. Idi Tunong, Kabupaten Aceh Timur, Aceh 24455";"Jl. Keude Geurubak, Seuneubok Jl., Kec. Idi Tunong, Kabupaten Aceh Timur";"ACEH";"24455";"Indonesia";"";"4.9314892";"97.7400814";"https://maps.google.com/?cid=0x0:0xad235665163c03ea"
"perumahan";"Komplek perumahan";"Home afzhal";"WP9C+X37, Buket Teukuh, Kec. Idi Tunong, Kabupaten Aceh Timur, Aceh";"Kabupaten Aceh Timur, Aceh";"ACEH";"";"Indonesia";"";"4.9199021";"97.7201751";"https://maps.google.com/?cid=0x0:0xa5e5692cacbebc8c"
"perumahan";"Komplek perumahan";"Blang minje";"WPFH+JXQ, Buket Teukuh, Kec. Idi Tunong, Kabupaten Aceh Timur, Aceh";"Kabupaten Aceh Timur, Aceh";"ACEH";"";"Indonesia";"";"4.9240795";"97.729975";"https://maps.google.com/?cid=0x0:0xffeab497628ea11d"
"perumahan";"Perhimpunan Pengembang Perumahan";"Atom";"Blang Nisam, Kec. Indra Makmur, Kabupaten Aceh Timur, Aceh 24457";"Kec. Indra Makmur, Kabupaten Aceh Timur";"ACEH";"24457";"Indonesia";" 082369283455";"4.9433046";"97.5997539";"https://maps.google.com/?cid=0x0:0xe758ebe8866d3a76"
"perumahan";"perumahan";"Aceh 24457";"Kabupaten Aceh Timur, Aceh";"Kabupaten Aceh Timur, Aceh";"ACEH";"";"Indonesia";"";"4.7891972";"97.5897372";"https://maps.google.com/?cid=0x0:0x9a96488e19c6198c"
"perumahan";"Perhimpunan Pengembang Perumahan";"Simpang sawit";"VJVF+MXX, Seuneubok Cina, Kec. Indra Makmur, Kabupaten Aceh Timur, Aceh 24457";"Seuneubok Cina, Kec. Indra Makmur, Kabupaten Aceh Timur";"ACEH";"24457";"Indonesia";"";"4.8942425";"97.624978";"https://maps.google.com/?cid=0x0:0xddbd99b352f6ee0d"
"perumahan";"Perumahan";"Lorong Pendidikan";"WH8R+4VG, Alue Ie Mirah, Kec. Indra Makmur, Kabupaten Aceh Timur, Aceh";"Kabupaten Aceh Timur, Aceh";"ACEH";"";"Indonesia";"";"4.91532";"97.5921931";"https://maps.google.com/?cid=0x0:0x23079ffa07afe009"
"perumahan";"Komplek perumahan";"Rumah bang jek";"Dusun simpang 3a Desa Julok Rayeuk Utara, Pelita Sagup Jaya, Kec. Indra Makmur, Kabupaten Aceh Timur, Aceh 24457";"Pelita Sagup Jaya, Kec. Indra Makmur, Kabupaten Aceh Timur";"ACEH";"24457";"Indonesia";"";"4.883732";"97.618759";"https://maps.google.com/?cid=0x0:0x57402aedffe9a3d3"
"perumahan";"Perumahan";"Lorong Keluarga";"WH7V+M4Q, Alue Ie Mirah, Kec. Indra Makmur, Kabupaten Aceh Timur, Aceh";"Kabupaten Aceh Timur, Aceh";"ACEH";"";"Indonesia";"";"4.9142124";"97.5928586";"https://maps.google.com/?cid=0x0:0xefad0b0a6efd8037"
"perumahan";"perumahan";"Rumah Della";"VJV9+CWH, Seuneubok Cina, Kec. Indra Makmur, Kabupaten Aceh Timur, Aceh 24457";"Seuneubok Cina, Kec. Indra Makmur, Kabupaten Aceh Timur";"ACEH";"24457";"Indonesia";"";"4.8935738";"97.6198692";"https://maps.google.com/?cid=0x0:0xa7885e5f4601241c"
"perumahan";"Kantor Pemerintah";"Suka makmur kecamatan Indra makmu";"WJ72+GQF, Suka Makmur, Kec. Indra Makmur, Kabupaten Aceh Timur, Aceh";"Kabupaten Aceh Timur, Aceh";"ACEH";"";"Indonesia";"";"4.9138144";"97.6019339";"https://maps.google.com/?cid=0x0:0x9a194fa2d7c5792c"
"perumahan";"perumahan";"Rumah Resty";"VJJ9+996, Dusun Simpang Tiga A, Perk Julok Rayeuk Utara, Kec. Indra Makmur, Kabupaten Aceh Timur, Aceh";"Kabupaten Aceh Timur, Aceh";"ACEH";"";"Indonesia";"";"4.8809094";"97.6183889";"https://maps.google.com/?cid=0x0:0x70321d52cb9a3aec"
"perumahan";"perumahan";"Rumah mpii tapupum";"WJ37+942, Alue Ie Itam, Kec. Indra Makmur, Kabupaten Aceh Timur, Aceh";"Kabupaten Aceh Timur, Aceh";"ACEH";"";"Indonesia";"";"4.9025358";"97.6124257";"https://maps.google.com/?cid=0x0:0x3a4cbb9bb645ef21"
"perumahan";"perumahan";"rumah monica";"VJX2+J2V, Perk Julok Rayeuk Utara, Kec. Indra Makmur, Kabupaten Aceh Timur, Aceh 24457";"Perk Julok Rayeuk Utara, Kec. Indra Makmur, Kabupaten Aceh Timur";"ACEH";"24457";"Indonesia";"";"4.8977141";"97.5994515";"https://maps.google.com/?cid=0x0:0x7b9e18dd53edaa62"
"perumahan";"perumahan";"DUSUN DAMAI";"VMVX+2HH, Seuneubok Pangou, Kec. Banda Alam, Kabupaten Aceh Timur, Aceh";"Kabupaten Aceh Timur, Aceh";"ACEH";"";"Indonesia";"";"4.892561";"97.6989983";"https://maps.google.com/?cid=0x0:0xfbb5cf2f64ad7a9e"
"perumahan";"Komplek perumahan";"Rumah Arka dan Tama";"VJRH+HV2, Seuneubok Cina, Kec. Indra Makmur, Kabupaten Aceh Timur, Aceh 24457";"Seuneubok Cina, Kec. Indra Makmur, Kabupaten Aceh Timur";"ACEH";"24457";"Indonesia";"";"4.8913841";"97.6296458";"https://maps.google.com/?cid=0x0:0xbff6183613a7d92a"
"perumahan";"perumahan";"rumah aidil";"WQCC+HC5, Seuneubok Lapang, Kec. Darul Ihsan, Kabupaten Aceh Timur, Aceh 24457";"Seuneubok Lapang, Kec. Darul Ihsan, Kabupaten Aceh Timur";"ACEH";"24457";"Indonesia";"";"4.9201869";"97.7722807";"https://maps.google.com/?cid=0x0:0x5f8a78f963878050"
"perumahan";"Komplek perumahan";"Rumah mukhlis";"2HXX+JV, Ujong Tunong, Kec. Julok, Kabupaten Aceh Timur, Aceh 24458";"Ujong Tunong, Kec. Julok, Kabupaten Aceh Timur";"ACEH";"24458";"Indonesia";"";"5.049117";"97.599673";"https://maps.google.com/?cid=0x0:0x644bb20742fb0e55"
"perumahan";"perumahan";"Kec. Julok";"Kabupaten Aceh Timur, Aceh";"Kabupaten Aceh Timur, Aceh";"ACEH";"";"Indonesia";"";"5.0420084";"97.6270812";"https://maps.google.com/?cid=0x0:0xcfeec36b993a81dd"
"perumahan";"Komplek perumahan";"Rumah CEK BAS";"2HJV+V6F, Buket Dindeng, Kec. Julok, Kabupaten Aceh Timur, Aceh";"Kabupaten Aceh Timur, Aceh";"ACEH";"";"Indonesia";"";"5.031419";"97.592613";"https://maps.google.com/?cid=0x0:0x2e091301fb410acc"
"perumahan";"Komplek perumahan";"M.Yusuf Al-Fatih";"2JHP+89X, Unnamed Road, Alue Siwah Dua, Kec. Julok, Kabupaten Aceh Timur, Aceh 24458";"Unnamed Road, Alue Siwah Dua, Kec. Julok, Kabupaten Aceh Timur";"ACEH";"24458";"Indonesia";"";"5.0283599";"97.6359849";"https://maps.google.com/?cid=0x0:0x6268807ccbc482fb"
"perumahan";"Komplek perumahan";"Seumatang";"3H7V+2WP, Seumatang, Kec. Julok, Kabupaten Aceh Timur, Aceh";"Kabupaten Aceh Timur, Aceh";"ACEH";"";"Indonesia";"";"5.0625789";"97.5948173";"https://maps.google.com/?cid=0x0:0x8a5f249ef2469696"
"perumahan";"Pembangunan Perumahan";"Blang uyok";"2JVH+36R, Keude Kuta Binjai, Kec. Julok, Kabupaten Aceh Timur, Aceh 24458";"Keude Kuta Binjai, Kec. Julok, Kabupaten Aceh Timur";"ACEH";"24458";"Indonesia";"";"5.0427383";"97.6280285";"https://maps.google.com/?cid=0x0:0xafb76b27205aee1c"
"perumahan";"Komplek perumahan";"RUMOH BANG MUH";"2JM9+X8H, Mane Rampak, Kec. Julok, Kabupaten Aceh Timur, Aceh 24458";"Mane Rampak, Kec. Julok, Kabupaten Aceh Timur";"ACEH";"24458";"Indonesia";"";"5.0349329";"97.6183694";"https://maps.google.com/?cid=0x0:0x29fb7b6a9dfdb99b"
"perumahan";"Komplek perumahan";"Rumah Wardani";"2HJV+V5V, Buket Dindeng, Kec. Julok, Kabupaten Aceh Timur, Aceh";"Kabupaten Aceh Timur, Aceh";"ACEH";"";"Indonesia";"";"5.0322331";"97.5928992";"https://maps.google.com/?cid=0x0:0x3686a4e32f428549"
"perumahan";"Komplek perumahan";"Rumah Faisal";"3JJ5+6RV, Lhok Seuntang, Kec. Julok, Kabupaten Aceh Timur, Aceh 24458";"Lhok Seuntang, Kec. Julok, Kabupaten Aceh Timur";"ACEH";"24458";"Indonesia";"";"5.0802182";"97.6083658";"https://maps.google.com/?cid=0x0:0x12544bb56cdbff56"
"perumahan";"Komplek perumahan";"oemjieekram";"2JXF+C77, Ulee Blang, Kec. Julok, Kabupaten Aceh Timur, Aceh";"Kabupaten Aceh Timur, Aceh";"ACEH";"";"Indonesia";"";"5.0485434";"97.6231612";"https://maps.google.com/?cid=0x0:0xc09527754c64233"
"perumahan";"Komplek perumahan";"Julokmeliponiculture";"2HXX+MQG, Jln, Buket Dindeng, Kec. Julok, Kabupaten Aceh Timur, Aceh 24458";"Jln, Buket Dindeng, Kec. Julok, Kabupaten Aceh Timur";"ACEH";"24458";"Indonesia";"";"5.0491929";"97.5994437";"https://maps.google.com/?cid=0x0:0xd7117d7749ae1d12"
"perumahan";"Pembangunan Perumahan";"Poskesdes Teupin raya julok";"XJGF+MXH, Teupin Raya, Kec. Julok, Kabupaten Aceh Timur, Aceh";"Kabupaten Aceh Timur, Aceh";"ACEH";"";"Indonesia";"";"4.9766751";"97.624978";"https://maps.google.com/?cid=0x0:0x6ad33af9edc08d22"
"perumahan";"Pembangunan Perumahan";"Yulia";"2JVG+77M, Blang Paoh Dua, Kec. Julok, Kabupaten Aceh Timur, Aceh 24458";"Blang Paoh Dua, Kec. Julok, Kabupaten Aceh Timur";"ACEH";"24458";"Indonesia";"";"5.043203";"97.6256571";"https://maps.google.com/?cid=0x0:0x3b28a96631039f8b"
"perumahan";"Komplek perumahan";"M.yusuf";"3H2X+W44, Tumpok Teungoh, Kec. Julok, Kabupaten Aceh Timur, Aceh";"Kabupaten Aceh Timur, Aceh";"ACEH";"";"Indonesia";"";"5.05226";"97.5978236";"https://maps.google.com/?cid=0x0:0x88a614bfc7fb869b"
"perumahan";"Pembangunan Perumahan";"Madat";"9J9Q+5PQ, Paya Keureuleh, Kec. Lembah Seulawah, Kabupaten Aceh Besar, Aceh 23951";"Paya Keureuleh, Kec. Lembah Seulawah, Kabupaten Aceh Besar";"ACEH";"23951";"Indonesia";"";"5.3679632";"95.6393678";"https://maps.google.com/?cid=0x0:0x14e14f39586b164a"
"perumahan";"Komplek perumahan";"Rumoh";"9MCJ+2QM, Lamtamot, Kec. Lembah Seulawah, Kabupaten Aceh Besar, Aceh 23951";"Lamtamot, Kec. Lembah Seulawah, Kabupaten Aceh Besar";"ACEH";"23951";"Indonesia";"";"5.3694294";"95.6821537";"https://maps.google.com/?cid=0x0:0x992c629f1135c630"
"perumahan";"Komplek perumahan";"Rumah bidah madat";"4G87+GMW, Matang Keupula Dua, Kec. Madat, Kabupaten Aceh Timur, Aceh 24458";"Matang Keupula Dua, Kec. Madat, Kabupaten Aceh Timur";"ACEH";"24458";"Indonesia";"";"5.1174701";"97.5140624";"https://maps.google.com/?cid=0x0:0xe50b117f0176975a"
"perumahan";"Pembangunan Perumahan";"Rumah Khairil";"4G57+465, Madat, Kec. Madat, Kabupaten Aceh Timur, Aceh 24458";"Madat, Kec. Madat, Kabupaten Aceh Timur";"ACEH";"24458";"Indonesia";"";"5.1083736";"97.513069";"https://maps.google.com/?cid=0x0:0x2e00297cc9f93d47"
"perumahan";"perumahan";"Aceh 24458";"Kabupaten Aceh Timur, Aceh";"Kabupaten Aceh Timur, Aceh";"ACEH";"";"Indonesia";"";"4.9131571";"97.5463885";"https://maps.google.com/?cid=0x0:0x82c363c7b075e66"
"perumahan";"Perhimpunan Pengembang Perumahan";"Rumah musliadi ysr";"4GMH+786, Jl. Abeukgeulante, Abeuk Geulanteu, Kec. Madat, Kabupaten Aceh Timur, Aceh 24458";"Jl. Abeukgeulante, Abeuk Geulanteu, Kec. Madat, Kabupaten Aceh Timur";"ACEH";"24458";"Indonesia";"";"5.132938";"97.5279755";"https://maps.google.com/?cid=0x0:0x7b6e380492fbd4a7"
"perumahan";"Komplek perumahan";"Rumah adit user dyrot";"4F68+JWQ, Tj. Minjei, Kec. Madat, Kabupaten Aceh Timur, Aceh 24458";"Tj. Minjei, Kec. Madat, Kabupaten Aceh Timur";"ACEH";"24458";"Indonesia";"";"5.1120236";"97.4677963";"https://maps.google.com/?cid=0x0:0x19c79aa066ea8e35"
"perumahan";"Komplek perumahan";"Rumah harwalis";"4F3H+J56, Paya Naden, Kec. Madat, Kabupaten Aceh Timur, Aceh 24458";"Paya Naden, Kec. Madat, Kabupaten Aceh Timur";"ACEH";"24458";"Indonesia";"";"5.1038226";"97.4786163";"https://maps.google.com/?cid=0x0:0xa0658cbe8acd4898"
"perumahan";"Komplek perumahan";"REHANZZ";"4FWC+2Q4, Blang Awe, Kec. Madat, Kabupaten Aceh Timur, Aceh 24394";"Blang Awe, Kec. Madat, Kabupaten Aceh Timur";"ACEH";"24394";"Indonesia";"";"5.1450115";"97.4719463";"https://maps.google.com/?cid=0x0:0x7fe388d783c3d21"
"perumahan";"Pembangunan Perumahan";"RUMAH RIKI";"4F2G+VVP, Paya Naden, Kec. Madat, Kabupaten Aceh Timur, Aceh 24458";"Paya Naden, Kec. Madat, Kabupaten Aceh Timur";"ACEH";"24458";"Indonesia";"";"5.102206";"97.4772182";"https://maps.google.com/?cid=0x0:0xf6ad1a6092a7b07"
"perumahan";"Komplek perumahan";"Samsulelektro";"4F76+48R, Tj. Minjei, Kec. Madat, Kabupaten Aceh Timur, Aceh";"Kabupaten Aceh Timur, Aceh";"ACEH";"";"Indonesia";"";"5.1128635";"97.4607517";"https://maps.google.com/?cid=0x0:0xe47c4a9d5ef05a4f"
"perumahan";"perumahan";"Maulid a";"3FXC+9QP, Tj. Ara, Kec. Madat, Kabupaten Aceh Timur, Aceh";"Kabupaten Aceh Timur, Aceh";"ACEH";"";"Indonesia";"";"5.0984732";"97.4719463";"https://maps.google.com/?cid=0x0:0x6701445483ded57d"
"perumahan";"Pembangunan Perumahan";"RUMAH ULVIATUR RAHMI";"5FMV+H37, Meunasah Tingkeum, Kec. Madat, Kabupaten Aceh Timur, Aceh 24458";"Meunasah Tingkeum, Kec. Madat, Kabupaten Aceh Timur";"ACEH";"24458";"Indonesia";"";"5.1830923";"97.4933658";"https://maps.google.com/?cid=0x0:0xd91d58eff67c4846"
"perumahan";"Perhimpunan Pengembang Perumahan";"Rumah asrar";"5F4W+CVW, Lueng Satu, Kec. Madat, Kabupaten Aceh Timur, Aceh 24458";"Lueng Satu, Kec. Madat, Kabupaten Aceh Timur";"ACEH";"24458";"Indonesia";"";"5.1561042";"97.4972124";"https://maps.google.com/?cid=0x0:0xa01d353839d3cb23"
"perumahan";"Komplek perumahan";"RACHEL";"2JPP+VV3, Meudang Ara, Kec. Nurussalam, Kabupaten Aceh Timur, Aceh";"Kabupaten Aceh Timur, Aceh";"ACEH";"";"Indonesia";"";"5.0417322";"97.6400829";"https://maps.google.com/?cid=0x0:0xdef39c416946e2ce"
"perumahan";"perumahan";"Kec. Nurussalam";"Kabupaten Aceh Timur, Aceh";"Kabupaten Aceh Timur, Aceh";"ACEH";"";"Indonesia";"";"5.0288426";"97.6662315";"https://maps.google.com/?cid=0x0:0x8a1127d50c7b392d"
"perumahan";"Komplek perumahan";"Rumoh Pak Baha SD";"2MH7+FJR, Keude Bagok, Kec. Nurussalam, Kabupaten Aceh Timur, Aceh 24458";"Keude Bagok, Kec. Nurussalam, Kabupaten Aceh Timur";"ACEH";"24458";"Indonesia";" 085772536534";"5.0287455";"97.6640171";"https://maps.google.com/?cid=0x0:0x49ecb096284a3833"
"perumahan";"Pembangunan Perumahan";"CV VII Gampong mesjid Nurussalam";"XMG7+F5W, Jln asamera dusun CV VII, Kp. Mesjid, Kec. Nurussalam, Kabupaten Aceh Timur";"Kabupaten Aceh Timur, Aceh";"ACEH";"";"Indonesia";"";"4.9762347";"97.6629495";"https://maps.google.com/?cid=0x0:0x7ff25a01983c2bf3"
"perumahan";"Perhimpunan Pengembang Perumahan";"Rumah wadi";"XJJQ+4XR, Seuneubok Rambong, Kec. Nurussalam, Kabupaten Aceh Timur, Aceh 24458";"Seuneubok Rambong, Kec. Nurussalam, Kabupaten Aceh Timur";"ACEH";"24458";"Indonesia";"";"4.9803693";"97.6398929";"https://maps.google.com/?cid=0x0:0x627ce693b66c4c5"
"perumahan";"Pembangunan Perumahan";"Istana dahlan";"2M9P+MH, Matang Neuheun, Kec. Nurussalam, Kabupaten Aceh Timur, Aceh";"Kabupaten Aceh Timur, Aceh";"ACEH";"";"Indonesia";"";"5.0191309";"97.6863649";"https://maps.google.com/?cid=0x0:0x38f78cbb0bc78c66"
"perumahan";"Komplek perumahan";"Zainuddin";"WM56+38, Alue Siwah Serdang, Kec. Nurussalam, Kabupaten Aceh Timur, Aceh";"Kabupaten Aceh Timur, Aceh";"ACEH";"";"Indonesia";"";"4.9077153";"97.6607582";"https://maps.google.com/?cid=0x0:0xecf6de883ac627e0"
"perumahan";"Komplek perumahan";"Rumah CEK BAS";"2HJV+V6F, Buket Dindeng, Kec. Julok, Kabupaten Aceh Timur, Aceh";"Kabupaten Aceh Timur, Aceh";"ACEH";"";"Indonesia";"";"5.031419";"97.592613";"https://maps.google.com/?cid=0x0:0x2e091301fb410acc"
"perumahan";"Komplek perumahan";"Seuneubok Rambong Kec.Nurussalam";"2MH8+GFQ, Kp. Keude Bagok, Kec. Nurussalam, Kabupaten Aceh Timur, Aceh";"Kabupaten Aceh Timur, Aceh";"ACEH";"";"Indonesia";"";"5.0288426";"97.6662315";"https://maps.google.com/?cid=0x0:0xe1e83d616b051151"
"perumahan";"Komplek perumahan";"Rumah Ibu Nurhayati";"2MH7+W9Q, Kp. Keude Bagok, Kec. Nurussalam, Kabupaten Aceh Timur, Aceh";"Kabupaten Aceh Timur, Aceh";"ACEH";"";"Indonesia";" 082370325899";"5.0293662";"97.6634954";"https://maps.google.com/?cid=0x0:0x4225c8793fd63247"
"perumahan";"Komplek perumahan";"Rumah si kembar";"2MG6+P94, Keude Bagok, Kec. Nurussalam, Kabupaten Aceh Timur, Aceh";"Kabupaten Aceh Timur, Aceh";"ACEH";"";"Indonesia";"";"5.0267825";"97.6608789";"https://maps.google.com/?cid=0x0:0x4d80fb4b52da355a"
"perumahan";"Komplek perumahan";"Zahwa";"Asian Highway No.25, Kampung Keude Bagok, Nurussalam, East Aceh Regency, Aceh 24458";"Kampung Keude Bagok, Nurussalam, East Aceh Regency";"ACEH";"24458";"Indonesia";"";"5.028376";"97.6634245";"https://maps.google.com/?cid=0x0:0x723cf6a9256f0e48"
"perumahan";"Pembangunan Perumahan";"Nurul aini";"XM93+GF, Kp. Mesjid, Kec. Nurussalam, Kabupaten Aceh Timur, Aceh";"Kabupaten Aceh Timur, Aceh";"ACEH";"";"Indonesia";"";"4.9687511";"97.6536781";"https://maps.google.com/?cid=0x0:0xf4ee0b8cbed3b7c3"
"perumahan";"Toko";"Baroh bugeng";"2JQX+J42, Baroh Bugeng, Kec. Nurussalam, Kabupaten Aceh Timur, Aceh";"Kabupaten Aceh Timur, Aceh";"ACEH";"";"Indonesia";"";"5.0390177";"97.6477776";"https://maps.google.com/?cid=0x0:0x46322a29391034c1"
"perumahan";"perumahan";"Aceh 24458";"Kabupaten Aceh Timur, Aceh";"Kabupaten Aceh Timur, Aceh";"ACEH";"";"Indonesia";"";"4.9131571";"97.5463885";"https://maps.google.com/?cid=0x0:0x82c363c7b075e66"
"perumahan";"perumahan";"Kec. Pante Bidari";"Kabupaten Aceh Timur, Aceh";"Kabupaten Aceh Timur, Aceh";"ACEH";"";"Indonesia";"";"4.953656";"97.509824";"https://maps.google.com/?cid=0x0:0x16c3cbd7c02b2301"
"perumahan";"Pembangunan Perumahan";"Rumah";"3GF9+5R5, jalan dusun mesjid, Keude Baro, Kec. Pante Bidari, Kabupaten Aceh Timur, Aceh 24458";"jalan dusun mesjid, Keude Baro, Kec. Pante Bidari, Kabupaten Aceh Timur";"ACEH";"24458";"Indonesia";"";"5.0728874";"97.5196214";"https://maps.google.com/?cid=0x0:0xaaaad1c1bd120dd7"
"perumahan";"Pembangunan Perumahan";"Pante panah";"3GF8+F74, Pante Panah, Kec. Pante Bidari, Kabupaten Aceh Timur, Aceh 24458";"Pante Panah, Kec. Pante Bidari, Kabupaten Aceh Timur";"ACEH";"24458";"Indonesia";"";"5.0736348";"97.5157136";"https://maps.google.com/?cid=0x0:0x26012abb6d918127"
"perumahan";"Pembangunan Perumahan";"M. Fauzi";"XGRJ+736, Alue Ie Mirah, Kec. Pante Bidari, Kabupaten Aceh Timur, Aceh";"Kabupaten Aceh Timur, Aceh";"ACEH";"";"Indonesia";"";"4.9906595";"97.5301397";"https://maps.google.com/?cid=0x0:0xca1bef5944ed398"
"perumahan";"Perhimpunan Pengembang Perumahan";"Wafi mantengmahyu";"2GF6+7G6, Jemb. Buket Bata, Seuneubok Tuha, Kec. Pante Bidari, Kabupaten Aceh Timur, Aceh 24458";"Jemb. Buket Bata, Seuneubok Tuha, Kec. Pante Bidari, Kabupaten Aceh Timur";"ACEH";"24458";"Indonesia";"";"5.023161";"97.5112812";"https://maps.google.com/?cid=0x0:0xbcbb70338c3ed058"
"perumahan";"Perhimpunan Pengembang Perumahan";"M Aji Puteh";"XGJG+WHP, Alue Ie Mirah, Kec. Pante Bidari, Kabupaten Aceh Timur, Aceh";"Kabupaten Aceh Timur, Aceh";"ACEH";"";"Indonesia";"";"4.9823337";"97.5264401";"https://maps.google.com/?cid=0x0:0x922d604fe193f698"
"perumahan";"perumahan";"Rumah Balqis Cantik";"W984+CV4, Cot Girek, Kec. Cot Girek, Kabupaten Aceh Utara, Aceh 24386";"Cot Girek, Kec. Cot Girek, Kabupaten Aceh Utara";"ACEH";"24386";"Indonesia";"";"4.916231";"97.3574086";"https://maps.google.com/?cid=0x0:0x372eae8964b9f083"
"perumahan";"Komplek perumahan";"Rumah Pak Mahdi";"2G25+FQF, Alue Ie Mirah, Kec. Pante Bidari, Kabupaten Aceh Timur, Aceh 24458";"Alue Ie Mirah, Kec. Pante Bidari, Kabupaten Aceh Timur";"ACEH";"24458";"Indonesia";"";"5.0010366";"97.5097286";"https://maps.google.com/?cid=0x0:0x49326f8a17182016"
"perumahan";"Pembangunan Perumahan";"Rumah Ikbal dan ulfa";"2G26+7MQ, Alue Ie Mirah, Kec. Pante Bidari, Kabupaten Aceh Timur, Aceh";"Kabupaten Aceh Timur, Aceh";"ACEH";"";"Indonesia";"";"5.0007461";"97.5115978";"https://maps.google.com/?cid=0x0:0x5195dbc78eab8081"
"perumahan";"Pembangunan Perumahan";"Gle bg amir";"WG37+Q72, Pante Labu, Kec. Pante Bidari, Kabupaten Aceh Timur, Aceh";"Kabupaten Aceh Timur, Aceh";"ACEH";"";"Indonesia";"";"4.9043947";"97.5131484";"https://maps.google.com/?cid=0x0:0x6e49e8fbd4524909"
"perumahan";"perumahan";"Rumah Makti";"3G59+X65, Meunasah Tunong, Kec. Pante Bidari, Kabupaten Aceh Timur, Aceh 24458";"Meunasah Tunong, Kec. Pante Bidari, Kabupaten Aceh Timur";"ACEH";"24458";"Indonesia";"";"5.0600813";"97.5185294";"https://maps.google.com/?cid=0x0:0xf11eaea8ee0eca66"
"perumahan";"Perhimpunan Pengembang Perumahan";"Gp.alue ie mirah";"XGRJ+736, Alue Ie Mirah, Kec. Pante Bidari, Kabupaten Aceh Timur, Aceh";"Kabupaten Aceh Timur, Aceh";"ACEH";"";"Indonesia";"";"4.9906595";"97.5301397";"https://maps.google.com/?cid=0x0:0x6bc961eac1edb22f"
"perumahan";"Perhimpunan Pengembang Perumahan";"Wafi mantengmahyu";"2GHM+P4Q, Seuneubok Saboh, Kec. Pante Bidari, Kabupaten Aceh Timur, Aceh 24458";"Seuneubok Saboh, Kec. Pante Bidari, Kabupaten Aceh Timur";"ACEH";"24458";"Indonesia";"";"5.0293282";"97.5328476";"https://maps.google.com/?cid=0x0:0x5573dda55ec490c4"
"perumahan";"perumahan";"Kec. Peudawa";"Kabupaten Aceh Timur, Aceh";"Kabupaten Aceh Timur, Aceh";"ACEH";"";"Indonesia";"";"4.898169";"97.8214679";"https://maps.google.com/?cid=0x0:0x220905180a6bf00b"
"perumahan";"Pembangunan Perumahan";"Perumahan Griya Ramama Raya Indah (RRI)";"Jl. Tuan Palam, Sama Dua, Kec. Peudawa, Kabupaten Aceh Timur, Aceh 24454";"Sama Dua, Kec. Peudawa, Kabupaten Aceh Timur";"ACEH";"24454";"Indonesia";" 081316033766";"4.9032989";"97.8196235";"https://maps.google.com/?cid=0x0:0xbc8d97c19a4ec15d"
"perumahan";"Komplek perumahan";"Mushalla Perumahan Avina Peudawa";"VRX8+VWM, Desa Keude, Idi Tunong, Seuneubok Punteut, Kec. Peudawa, Kabupaten Aceh Timur, Aceh 24454";"Desa Keude, Idi Tunong, Seuneubok Punteut, Kec. Peudawa, Kabupaten Aceh Timur";"ACEH";"24454";"Indonesia";"";"4.8998553";"97.8180129";"https://maps.google.com/?cid=0x0:0x49096e7d8891bd86"
"perumahan";"Pusat Pendidikan";"MEUNASAH ALUE BATEE";"VRHV+2CF, Alue Batee, Kec. Peudawa, Kabupaten Aceh Timur, Aceh 24454";"Alue Batee, Kec. Peudawa, Kabupaten Aceh Timur";"ACEH";"24454";"Indonesia";"";"4.8775551";"97.8435553";"https://maps.google.com/?cid=0x0:0xdc53dc5043b56b15"
"perumahan";"Komplek perumahan";"RUMAH AYA";"WR29+9MG, Seuneubok Punteut, Kec. Peudawa, Kabupaten Aceh Timur, Aceh";"Kabupaten Aceh Timur, Aceh";"ACEH";"";"Indonesia";"";"4.9009392";"97.8191993";"https://maps.google.com/?cid=0x0:0x709f5305aa819013"
"perumahan";"Komplek perumahan";"Perumahan Bumi Peudawa Indah";"WQJR+6R6, Seuneubok Teungoh (Pr), Kec. Idi Rayeuk, Kabupaten Aceh Timur, Aceh";"Kabupaten Aceh Timur, Aceh";"ACEH";"";"Indonesia";"";"4.9305302";"97.792012";"https://maps.google.com/?cid=0x0:0x54d1a15915e98cd0"
"perumahan";"Pembangunan Perumahan";"Mutia Farida";"VRVR+6Q2, Paya Dua, Kec. Peudawa, Kabupaten Aceh Timur, Aceh";"Kabupaten Aceh Timur, Aceh";"ACEH";"";"Indonesia";"";"4.8930246";"97.8419031";"https://maps.google.com/?cid=0x0:0x27a7df5f1c7f25c4"
"perumahan";"Perhimpunan Pengembang Perumahan";"Rumah irwansyah";"VRXC+7JR, Kp. Keude, Kec. Peudawa, Kabupaten Aceh Timur, Aceh";"Kabupaten Aceh Timur, Aceh";"ACEH";"";"Indonesia";"";"4.8982409";"97.8215103";"https://maps.google.com/?cid=0x0:0x3b49a76c0b5e78da"
"perumahan";"Pembangunan Perumahan";"Pspb";"VRJR+HP, Paya Bili Dua, Kec. Peudawa, Kabupaten Aceh Timur, Aceh";"Kabupaten Aceh Timur, Aceh";"ACEH";"";"Indonesia";"";"4.8814604";"97.8417615";"https://maps.google.com/?cid=0x0:0x9e754d52b3e8c044"
"perumahan";"Pembangunan Perumahan";"cek wan";"VVF3+CFW, Alue Bu Tuha, Kec. Peureulak Bar., Kabupaten Aceh Timur, Aceh 24454";"Alue Bu Tuha, Kec. Peureulak Bar., Kabupaten Aceh Timur";"ACEH";"24454";"Indonesia";"";"4.8736161";"97.8536907";"https://maps.google.com/?cid=0x0:0xc57df2ba28963a65"
"perumahan";"Perhimpunan Pengembang Perumahan";"pon supir";"VRHX+FP, Paya Bili Dua, Kec. Peudawa, Kabupaten Aceh Timur, Aceh";"Kabupaten Aceh Timur, Aceh";"ACEH";"";"Indonesia";"";"4.8787156";"97.8492909";"https://maps.google.com/?cid=0x0:0x57e46e25cdf6bcdd"
"perumahan";"Komplek perumahan";"Rumah tgk haji";"WR2G+6P7, Kp. Keude, Kec. Peudawa, Kabupaten Aceh Timur, Aceh";"Kabupaten Aceh Timur, Aceh";"ACEH";"";"Indonesia";"";"4.9005257";"97.8268022";"https://maps.google.com/?cid=0x0:0xada491d5c9091a29"
"perumahan";"Perhimpunan Pengembang Perumahan";"Rumah Sulaiman dengan buk roi";"VVC3+45J, Alue Bu Tuha, Kec. Peureulak Bar., Kabupaten Aceh Timur, Aceh 24454";"Alue Bu Tuha, Kec. Peureulak Bar., Kabupaten Aceh Timur";"ACEH";"24454";"Indonesia";"";"4.8708788";"97.8530664";"https://maps.google.com/?cid=0x0:0xd22a64a0ce395ed5"
"perumahan";"perumahan";"Pantai Peudawa";"Unnamed Road, Idi Tim., Matang Bungong, Kec. Idi Tim., Kabupaten Aceh Timur, Aceh";"Kabupaten Aceh Timur, Aceh";"ACEH";"";"Indonesia";"";"4.9277273";"97.8144708";"https://maps.google.com/?cid=0x0:0xc3b8f86e84472e86"
"perumahan";"perumahan";"Aceh 24461";"Kabupaten Aceh Timur, Aceh";"Kabupaten Aceh Timur, Aceh";"ACEH";"";"Indonesia";"";"4.950275";"97.6792293";"https://maps.google.com/?cid=0x0:0x40ce92432b582121"
"perumahan";"perumahan";"Dusun Rukun";"VMRR+W39, Seuneubok Pangou, Kec. Banda Alam, Kabupaten Aceh Timur, Aceh";"Kabupaten Aceh Timur, Aceh";"ACEH";"";"Indonesia";"";"4.8922975";"97.6902251";"https://maps.google.com/?cid=0x0:0xfa24413cc594a792"
"perumahan";"perumahan";"Rumah paklek supri";"XP32+HHX, Alur Merbo, Kec. Darul Aman, Kabupaten Aceh Timur, Aceh";"Kabupaten Aceh Timur, Aceh";"ACEH";"";"Indonesia";"";"4.9544689";"97.7014754";"https://maps.google.com/?cid=0x0:0xa6c3ca567dd34b78"
"perumahan";"Pembangunan Perumahan";"Rufran";"XMVX+64J, Unnamed Road, Kemuning III, Kec. Darul Aman, Kabupaten Aceh Timur, Aceh 24453";"Unnamed Road, Kemuning III, Kec. Darul Aman, Kabupaten Aceh Timur";"ACEH";"24453";"Indonesia";"";"4.9930953";"97.6977737";"https://maps.google.com/?cid=0x0:0x2185ad4616d5cbb7"
"perumahan";"Komplek perumahan";"Kampung Beunot City";"Kp. Beunot, Kec. Darul Aman, Kabupaten Aceh Timur, Aceh";"Kabupaten Aceh Timur, Aceh";"ACEH";"";"Indonesia";"";"4.9766348";"97.7305083";"https://maps.google.com/?cid=0x0:0xff878bb12faa3ac5"
"perumahan";"Komplek perumahan";"Rumah pribadi";"XPPC+7CJ, Kp. Keude, Kec. Darul Aman, Kabupaten Aceh Timur, Aceh";"Kabupaten Aceh Timur, Aceh";"ACEH";"";"Indonesia";"";"4.9857237";"97.721016";"https://maps.google.com/?cid=0x0:0xd45bd1950589e56a"
"perumahan";"Komplek perumahan";"Aceh timur";"XPPC+95F, Kp. Keude, Kec. Darul Aman, Kabupaten Aceh Timur, Aceh";"Kabupaten Aceh Timur, Aceh";"ACEH";"";"Indonesia";"";"4.9859334";"97.7204106";"https://maps.google.com/?cid=0x0:0x24b5e2d43f5feffb"
"perumahan";"Perhimpunan Pengembang Perumahan";"Rumoh Tgk Yan";"Seuneubok Baroh, Kec. Darul Aman, Kabupaten Aceh Timur, Aceh 24455";"Kec. Darul Aman, Kabupaten Aceh Timur";"ACEH";"24455";"Indonesia";"";"4.987014";"97.7260859";"https://maps.google.com/?cid=0x0:0x6268f443ae864e8f"
"perumahan";"Komplek perumahan";"Perumahan fhona resident";"XQ2G+5H2, Tanoh Anou, Kec. Idi Rayeuk, Kabupaten Aceh Timur, Aceh";"Kabupaten Aceh Timur, Aceh";"ACEH";"";"Indonesia";"";"4.9503826";"97.7763781";"https://maps.google.com/?cid=0x0:0x677f6f3689140e6d"
"perumahan";"Komplek perumahan";"Rumah asyifa";"XPPC+95F, Kp. Keude, Kec. Darul Aman, Kabupaten Aceh Timur, Aceh";"Kabupaten Aceh Timur, Aceh";"ACEH";"";"Indonesia";"";"4.9859334";"97.7204106";"https://maps.google.com/?cid=0x0:0x847739e03bb6be28"
"perumahan";"Pembangunan Perumahan";"rumah azrianifitri";"XPQ7+5W4, Jl. Lintas Sumatra, Kp. Keude, Kec. Darul Aman, Kabupaten Aceh Timur, Aceh 24453";"Jl. Lintas Sumatra, Kp. Keude, Kec. Darul Aman, Kabupaten Aceh Timur";"ACEH";"24453";"Indonesia";"";"4.9878588";"97.7148114";"https://maps.google.com/?cid=0x0:0x6e3c2116135ec419"
"perumahan";"Komplek perumahan";"Rumah bang rizal";"XPW5+RG, Matang Geutou, Kec. Darul Aman, Kabupaten Aceh Timur, Aceh";"Kabupaten Aceh Timur, Aceh";"ACEH";"";"Indonesia";"";"4.9971946";"97.7087213";"https://maps.google.com/?cid=0x0:0xb576dda57a61cd56"
"perumahan";"Komplek perumahan";"Rumah ryanza";"XPJF+M5R, Kp. Baro, Kec. Darul Aman, Kabupaten Aceh Timur, Aceh 24455";"Kp. Baro, Kec. Darul Aman, Kabupaten Aceh Timur";"ACEH";"24455";"Indonesia";"";"4.9817375";"97.7228906";"https://maps.google.com/?cid=0x0:0x7713930f4e2822f3"
"perumahan";"Komplek perumahan";"Cek yus";"WPX2+P55, Meunasah Keutapang, Kec. Darul Aman, Kabupaten Aceh Timur, Aceh";"Kabupaten Aceh Timur, Aceh";"ACEH";"";"Indonesia";"";"4.9492546";"97.7004709";"https://maps.google.com/?cid=0x0:0x8c6dbbec55adc6e6"
"perumahan";"perumahan";"Aceh 24453";"Kabupaten Aceh Timur, Aceh";"Kabupaten Aceh Timur, Aceh";"ACEH";"";"Indonesia";"";"4.7563162";"97.7742702";"https://maps.google.com/?cid=0x0:0x3f249fb702225b43"
"perumahan";"Pembangunan Perumahan";"Kampung besar";"RV5R+PWF, Keude Peureulak, Kec. Peureulak, Kabupaten Aceh Timur, Aceh 24461";"Keude Peureulak, Kec. Peureulak, Kabupaten Aceh Timur";"ACEH";"24461";"Indonesia";"";"4.8093111";"97.8923064";"https://maps.google.com/?cid=0x0:0xe57d12ba3f3f9f27"
"perumahan";"Pembangunan Perumahan";"AMIR";"PRX8+G28, Leubuk Pempeng, Kec. Peureulak, Kabupaten Aceh Timur, Aceh 24453";"Leubuk Pempeng, Kec. Peureulak, Kabupaten Aceh Timur";"ACEH";"24453";"Indonesia";"";"4.7488501";"97.8151936";"https://maps.google.com/?cid=0x0:0xc1e5888540844ed8"
"perumahan";"perumahan";"BUKET TURSINA";"RV49+7F, Blang Batee, Kec. Peureulak, Kabupaten Aceh Timur, Aceh";"Kabupaten Aceh Timur, Aceh";"ACEH";"";"Indonesia";"";"4.80571";"97.868652";"https://maps.google.com/?cid=0x0:0x94d7921c24a45eb5"
"perumahan";"Komplek perumahan";"Rumah zikri";"QRF9+P25, Unnamed Road, Alue Rambong, Kec. Peureulak, Kabupaten Aceh Timur, Aceh 24453";"Unnamed Road, Alue Rambong, Kec. Peureulak, Kabupaten Aceh Timur";"ACEH";"24453";"Indonesia";"";"4.7742622";"97.8176226";"https://maps.google.com/?cid=0x0:0x38b73efb49dde428"
"perumahan";"Pembangunan Perumahan";"Lhok paya";"QRJV+22X, Buket Pala, Kec. Peureulak, Kabupaten Aceh Timur, Aceh 24453";"Buket Pala, Kec. Peureulak, Kabupaten Aceh Timur";"ACEH";"24453";"Indonesia";"";"4.7800336";"97.8429406";"https://maps.google.com/?cid=0x0:0x9484c30ce9bf9259"
"perumahan";"Komplek perumahan";"Dusun selangga";"QRV5+X77, Alue Dua, Kec. Rantau Peureulak, Kabupaten Aceh Timur, Aceh 24453";"Alue Dua, Kec. Rantau Peureulak, Kabupaten Aceh Timur";"ACEH";"24453";"Indonesia";"";"4.7949184";"97.8081565";"https://maps.google.com/?cid=0x0:0xea68ec6c5d4c5b7f"
"perumahan";"Kantor Pemerintah";"P.keuchik Tampak";"QQGX+M8X, Unnamed Road, Gampong Tampak, Kec. Rantau Peureulak, Kabupaten Aceh Timur, Aceh 24453";"Unnamed Road, Gampong Tampak, Kec. Rantau Peureulak, Kabupaten Aceh Timur";"ACEH";"24453";"Indonesia";" 082250070572";"4.7767296";"97.7983717";"https://maps.google.com/?cid=0x0:0xe8fbbab313e41856"
"perumahan";"Komplek perumahan";"Rumah Evi Nurmaliza";"RV7V+HMG, Tj. Tualang, Kec. Peureulak Bar., Kabupaten Aceh Timur, Aceh 24458";"Tj. Tualang, Kec. Peureulak Bar., Kabupaten Aceh Timur";"ACEH";"24458";"Indonesia";"";"4.8139263";"97.8941991";"https://maps.google.com/?cid=0x0:0x88860c82b64ccb5e"
"perumahan";"Pembangunan Perumahan";"Lhok dalam";"QRXP+XJF, Paya Meuligo, Kec. Peureulak, Kabupaten Aceh Timur, Aceh 24453";"Paya Meuligo, Kec. Peureulak, Kabupaten Aceh Timur";"ACEH";"24453";"Indonesia";"";"4.7999486";"97.8365389";"https://maps.google.com/?cid=0x0:0xdae142612387e62e"
"perumahan";"Komplek perumahan";"RUMAH KUSAY";"RR22+XJP, Buket Pala Bsp, Kec. Rantau Peureulak, Kabupaten Aceh Timur, Aceh 24453";"Buket Pala Bsp, Kec. Rantau Peureulak, Kabupaten Aceh Timur";"ACEH";"24453";"Indonesia";"";"4.8024695";"97.8015834";"https://maps.google.com/?cid=0x0:0x8e32e9b5ab8b457d"
"perumahan";"Pembangunan Perumahan";"RUMAH";"QQQX+QF9, Alue Batee, Kec. Rantau Peureulak, Kabupaten Aceh Timur, Aceh 24453";"Alue Batee, Kec. Rantau Peureulak, Kabupaten Aceh Timur";"ACEH";"24453";"Indonesia";"";"4.7894168";"97.79873";"https://maps.google.com/?cid=0x0:0x3ca3e5d894d6fd31"
"perumahan";"Perhimpunan Pengembang Perumahan";"Mahfuzah";"QRXG+Q93, Pulo Blang, Kec. Rantau Peureulak, Kabupaten Aceh Timur, Aceh 24453";"Pulo Blang, Kec. Rantau Peureulak, Kabupaten Aceh Timur";"ACEH";"24453";"Indonesia";"";"4.7993797";"97.8259174";"https://maps.google.com/?cid=0x0:0xb91794771cb346e9"
"perumahan";"perumahan";"Rumah Pakmukim";"RV59+564, Blang Batee, Kec. Peureulak, Kabupaten Aceh Timur, Aceh";"Kabupaten Aceh Timur, Aceh";"ACEH";"";"Indonesia";"";"4.8078851";"97.8680786";"https://maps.google.com/?cid=0x0:0x220f07b46a886561"
"perumahan";"Pembangunan Perumahan";"Kampung besar";"RV5R+PWF, Keude Peureulak, Kec. Peureulak, Kabupaten Aceh Timur, Aceh 24461";"Keude Peureulak, Kec. Peureulak, Kabupaten Aceh Timur";"ACEH";"24461";"Indonesia";"";"4.8093111";"97.8923064";"https://maps.google.com/?cid=0x0:0xe57d12ba3f3f9f27"
"perumahan";"perumahan";"BUKET TURSINA";"RV49+7F, Blang Batee, Kec. Peureulak, Kabupaten Aceh Timur, Aceh";"Kabupaten Aceh Timur, Aceh";"ACEH";"";"Indonesia";"";"4.80571";"97.868652";"https://maps.google.com/?cid=0x0:0x94d7921c24a45eb5"
"perumahan";"perumahan";"Kec. Peureulak Bar.";"Kabupaten Aceh Timur, Aceh";"Kabupaten Aceh Timur, Aceh";"ACEH";"";"Indonesia";"";"4.8352078";"97.8855303";"https://maps.google.com/?cid=0x0:0xf81bdf02e8d21720"
"perumahan";"Komplek perumahan";"Rumah Evi Nurmaliza";"RV7V+HMG, Tj. Tualang, Kec. Peureulak Bar., Kabupaten Aceh Timur, Aceh 24458";"Tj. Tualang, Kec. Peureulak Bar., Kabupaten Aceh Timur";"ACEH";"24458";"Indonesia";"";"4.8139263";"97.8941991";"https://maps.google.com/?cid=0x0:0x88860c82b64ccb5e"
"perumahan";"Perumahan";"Perlak";"RV4Q+PCR, Lhok Dalam, Kec. Peureulak, Kabupaten Aceh Timur, Aceh 24461";"Lhok Dalam, Kec. Peureulak, Kabupaten Aceh Timur";"ACEH";"24461";"Indonesia";"";"4.8068704";"97.8885063";"https://maps.google.com/?cid=0x0:0xef1380fd3d139298"
"perumahan";"Komplek perumahan";"EDM Homestay";"RV8H+CX7, Tj. Tualang, Kec. Peureulak Bar., Kabupaten Aceh Timur, Aceh";"Kabupaten Aceh Timur, Aceh";"ACEH";"";"Indonesia";"";"4.8160383";"97.8799224";"https://maps.google.com/?cid=0x0:0x388e4b0e67a92ca2"
"perumahan";"Perhimpunan Pengembang Perumahan";"Peureulak";"VWJ2+7RX, Kuala Bugak, Kec. Peureulak, Kabupaten Aceh Timur, Aceh";"Kabupaten Aceh Timur, Aceh";"ACEH";"";"Indonesia";"";"4.8807431";"97.9020977";"https://maps.google.com/?cid=0x0:0x13b9565b48e229"
"perumahan";"Pom bensin/SPBU";"Ķampung pertamina";"RRGX+8G8, Jl. Ranto Panjang, Kebun Teumpeun, Kec. Peureulak Bar., Kabupaten Aceh Timur, Aceh 24453";"Jl. Ranto Panjang, Kebun Teumpeun, Kec. Peureulak Bar., Kabupaten Aceh Timur";"ACEH";"24453";"Indonesia";"";"4.8257972";"97.8488426";"https://maps.google.com/?cid=0x0:0xf7b5f94a55c57542"
"perumahan";"Perhimpunan Pengembang Perumahan";"Rumah pak alm Zainal";"VV93+XGG, Alue Bu Jl., Kec. Peureulak Bar., Kabupaten Aceh Timur, Aceh";"Kabupaten Aceh Timur, Aceh";"ACEH";"";"Indonesia";"";"4.8699351";"97.8538356";"https://maps.google.com/?cid=0x0:0x9b7e59d52ce30a94"
"perumahan";"Pembangunan Perumahan";"Riskiarismunandar";"RVQ3+5HV, Paya Seungat, Kec. Peureulak Bar., Kabupaten Aceh Timur, Aceh 24453";"Paya Seungat, Kec. Peureulak Bar., Kabupaten Aceh Timur";"ACEH";"24453";"Indonesia";"";"4.837994";"97.8539127";"https://maps.google.com/?cid=0x0:0xf799825d4e45e78a"
"perumahan";"Kompleks Kondominium";"Adi Sniper";"RV6Q+XJG, Pasar Baru, Kec. Peureulak, Kabupaten Aceh Timur, Aceh 24453";"Pasar Baru, Kec. Peureulak, Kabupaten Aceh Timur";"ACEH";"24453";"Indonesia";"";"4.8124375";"97.8890625";"https://maps.google.com/?cid=0x0:0x9e1b198b9da76eae"
"perumahan";"Perhimpunan Pengembang Perumahan";"Mess";"VV75+5VF, Alue Bu Jl., Kec. Peureulak Bar., Kabupaten Aceh Timur, Aceh 24454";"Alue Bu Jl., Kec. Peureulak Bar., Kabupaten Aceh Timur";"ACEH";"24454";"Indonesia";"";"4.8629456";"97.8596831";"https://maps.google.com/?cid=0x0:0xe93c5f2f1c2df3c3"
"perumahan";"Pembangunan Perumahan";"Ajir";"RVWG+C6, Beusa Seberang, Kec. Peureulak Bar., Kabupaten Aceh Timur, Aceh";"Kabupaten Aceh Timur, Aceh";"ACEH";"";"Indonesia";"";"4.846016";"97.875544";"https://maps.google.com/?cid=0x0:0xce108d9fcca5e8b9"
"perumahan";"Komplek perumahan";"Rumah go";"RR4H+9JQ, Pulo Blang, Kec. Rantau Peureulak, Kabupaten Aceh Timur, Aceh 24453";"Pulo Blang, Kec. Rantau Peureulak, Kabupaten Aceh Timur";"ACEH";"24453";"Indonesia";"";"4.8059673";"97.8291244";"https://maps.google.com/?cid=0x0:0x96f16f8a59a58483"
"perumahan";"perumahan";"Kec. Peureulak Tim.";"Kabupaten Aceh Timur, Aceh";"Kabupaten Aceh Timur, Aceh";"ACEH";"";"Indonesia";"";"4.7052499";"97.9061797";"https://maps.google.com/?cid=0x0:0x4e30e6079924e507"
"perumahan";"Komplek perumahan";"Rumah saya";"PVMW+WM5, Seumatang Keude, Kec. Peureulak Tim., Kabupaten Aceh Timur, Aceh 24452";"Seumatang Keude, Kec. Peureulak Tim., Kabupaten Aceh Timur";"ACEH";"24452";"Indonesia";" 081287680359";"4.7345157";"97.8959667";"https://maps.google.com/?cid=0x0:0x688c2b236f7dd8af"
"perumahan";"Pembangunan Perumahan";"AMIR";"PRX8+G28, Leubuk Pempeng, Kec. Peureulak, Kabupaten Aceh Timur, Aceh 24453";"Leubuk Pempeng, Kec. Peureulak, Kabupaten Aceh Timur";"ACEH";"24453";"Indonesia";"";"4.7488501";"97.8151936";"https://maps.google.com/?cid=0x0:0xc1e5888540844ed8"
"perumahan";"Perumahan";"Perlak";"RV4Q+PCR, Lhok Dalam, Kec. Peureulak, Kabupaten Aceh Timur, Aceh 24461";"Lhok Dalam, Kec. Peureulak, Kabupaten Aceh Timur";"ACEH";"24461";"Indonesia";"";"4.8068704";"97.8885063";"https://maps.google.com/?cid=0x0:0xef1380fd3d139298"
"perumahan";"Komplek perumahan";"Pondok perumahan G2";"PR6P+P4X, Blang Simpo, Kec. Peureulak Tim., Kabupaten Aceh Timur, Aceh 24452";"Blang Simpo, Kec. Peureulak Tim., Kabupaten Aceh Timur";"ACEH";"24452";"Indonesia";"";"4.7118648";"97.8353736";"https://maps.google.com/?cid=0x0:0xd81b0fe6da49fbce"
"perumahan";"Perhimpunan Pengembang Perumahan";"TPU";"Seuneubok Punti, Kec. Peureulak Tim., Kabupaten Aceh Timur, Aceh 24452";"Kec. Peureulak Tim., Kabupaten Aceh Timur";"ACEH";"24452";"Indonesia";"";"4.6938125";"97.9106875";"https://maps.google.com/?cid=0x0:0xb22462d4c6c4b7f8"
"perumahan";"Komplek perumahan";"Rumah salman";"QW58+C6, Kuala Leuge, Kec. Peureulak, Kabupaten Aceh Timur, Aceh 24458";"Kuala Leuge, Kec. Peureulak, Kabupaten Aceh Timur";"ACEH";"24458";"Indonesia";"";"4.7586176";"97.915576";"https://maps.google.com/?cid=0x0:0xef4247575f2aa95b"
"perumahan";"Pembangunan Perumahan";"Lhok paya";"QRJV+22X, Buket Pala, Kec. Peureulak, Kabupaten Aceh Timur, Aceh 24453";"Buket Pala, Kec. Peureulak, Kabupaten Aceh Timur";"ACEH";"24453";"Indonesia";"";"4.7800336";"97.8429406";"https://maps.google.com/?cid=0x0:0x9484c30ce9bf9259"
"perumahan";"Pembangunan Perumahan";"Kampung besar";"RV5R+PWF, Keude Peureulak, Kec. Peureulak, Kabupaten Aceh Timur, Aceh 24461";"Keude Peureulak, Kec. Peureulak, Kabupaten Aceh Timur";"ACEH";"24461";"Indonesia";"";"4.8093111";"97.8923064";"https://maps.google.com/?cid=0x0:0xe57d12ba3f3f9f27"
"perumahan";"Komplek perumahan";"Perkerasan Jalan Alue Gurep";"MVPQ+7R7, Jalan, Alue Gurep, Peureulak Timur, East Aceh Regency, Aceh 24452";"Jalan, Alue Gurep, Peureulak Timur, East Aceh Regency";"ACEH";"24452";"Indonesia";"";"4.6856585";"97.8895599";"https://maps.google.com/?cid=0x0:0xd83a98410e73329f"
"perumahan";"Komplek perumahan";"TUALANG PATENG";"PVG2+27C, Tualang Pateng, Kec. Peureulak Tim., Kabupaten Aceh Timur, Aceh 24452";"Tualang Pateng, Kec. Peureulak Tim., Kabupaten Aceh Timur";"ACEH";"24452";"Indonesia";"";"4.7250837";"97.8506572";"https://maps.google.com/?cid=0x0:0x3050389c9123c087"
"perumahan";"Pembangunan Perumahan";"ZAHARA";"RVFR+6WF, Jl. Kuala Bugak, Cot Keh, Kec. Peureulak, Kabupaten Aceh Timur, Aceh 24453";"Jl. Kuala Bugak, Cot Keh, Kec. Peureulak, Kabupaten Aceh Timur";"ACEH";"24453";"Indonesia";" 087747786327";"4.8237698";"97.8924577";"https://maps.google.com/?cid=0x0:0x9b7d628a267070fc"
"perumahan";"perumahan";"BUKET TURSINA";"RV49+7F, Blang Batee, Kec. Peureulak, Kabupaten Aceh Timur, Aceh";"Kabupaten Aceh Timur, Aceh";"ACEH";"";"Indonesia";"";"4.80571";"97.868652";"https://maps.google.com/?cid=0x0:0x94d7921c24a45eb5"
"perumahan";"Pembangunan Perumahan";"Lhok dalam";"QRXP+XJF, Paya Meuligo, Kec. Peureulak, Kabupaten Aceh Timur, Aceh 24453";"Paya Meuligo, Kec. Peureulak, Kabupaten Aceh Timur";"ACEH";"24453";"Indonesia";"";"4.7999486";"97.8365389";"https://maps.google.com/?cid=0x0:0xdae142612387e62e"
"perumahan";"Perhimpunan Pengembang Perumahan";"perumahan dapu arang";"JW5G+VH3, Sarah Teubee, Kec. Rantau Selamat, Kabupaten Aceh Timur, Aceh 24452";"Sarah Teubee, Kec. Rantau Selamat, Kabupaten Aceh Timur";"ACEH";"24452";"Indonesia";"";"4.6096454";"97.9264225";"https://maps.google.com/?cid=0x0:0x82f24d73f64ee1cd"
"perumahan";"perumahan";"Rakif sulaiman sp";"HRX2+XR, Alue Kaol, Kec. Rantau Selamat, Kabupaten Aceh Timur, Aceh";"Kabupaten Aceh Timur, Aceh";"ACEH";"";"Indonesia";"";"4.5998765";"97.8021048";"https://maps.google.com/?cid=0x0:0x4a8dd0388f3331f3"
"perumahan";"perumahan";"Aceh 24452";"Kabupaten Aceh Timur, Aceh";"Kabupaten Aceh Timur, Aceh";"ACEH";"";"Indonesia";"";"4.6428925";"97.8286368";"https://maps.google.com/?cid=0x0:0xab6d8837867af58f"
"perumahan";"Perhimpunan Pengembang Perumahan";"Simpang aneh";"JW86+VG, Simpang Aneuh, Kec. Rantau Selamat, Kabupaten Aceh Timur, Aceh 24452";"Simpang Aneuh, Kec. Rantau Selamat, Kabupaten Aceh Timur";"ACEH";"24452";"Indonesia";"";"4.617217";"97.911371";"https://maps.google.com/?cid=0x0:0x7e318cedf6e8e61d"
"perumahan";"Perhimpunan Pengembang Perumahan";"Rumah Ishak";"JW9P+QG8, Rantau Panjang, Kec. Rantau Selamat, Kabupaten Aceh Timur, Aceh 24452";"Rantau Panjang, Kec. Rantau Selamat, Kabupaten Aceh Timur";"ACEH";"24452";"Indonesia";"";"4.6194064";"97.9363405";"https://maps.google.com/?cid=0x0:0x44fa99c5e3fcd04e"
"perumahan";"Komplek perumahan";"Rumah Bang Adi";"JWPJ+MR, Seuneubok Dalam, Kec. Rantau Selamat, Kabupaten Aceh Timur, Aceh 24452";"Seuneubok Dalam, Kec. Rantau Selamat, Kabupaten Aceh Timur";"ACEH";"24452";"Indonesia";"";"4.6367036";"97.9320038";"https://maps.google.com/?cid=0x0:0x3ad36ec31185babe"
"perumahan";"Komplek perumahan";"Rumah Fadel";"HWJ7+Q5, Gampong Bayeun, Kec. Rantau Selamat, Kabupaten Aceh Timur, Aceh";"Kabupaten Aceh Timur, Aceh";"ACEH";"";"Indonesia";"";"4.5819357";"97.9129523";"https://maps.google.com/?cid=0x0:0x593a0e4faa700a93"
"perumahan";"Komplek perumahan";"Rumah tepas";"MR7F+3RQ, Unnamed Road, Gajah Mentah, Kec. Sungai Raya, Kabupaten Aceh Timur, Aceh 24452";"Unnamed Road, Gajah Mentah, Kec. Sungai Raya, Kabupaten Aceh Timur";"ACEH";"24452";"Indonesia";"";"4.662703";"97.8246035";"https://maps.google.com/?cid=0x0:0x5066bedd3f3d1069"
"perumahan";"Pembangunan Perumahan";"Bayu";"HWV6+25W, Gampong Bayeun, Kec. Rantau Selamat, Kabupaten Aceh Timur, Aceh 24452";"Gampong Bayeun, Kec. Rantau Selamat, Kabupaten Aceh Timur";"ACEH";"24452";"Indonesia";"";"4.5926415";"97.9104922";"https://maps.google.com/?cid=0x0:0xe26fba461ad1631a"
"perumahan";"Komplek perumahan";"Rumah Mabar ml mulkan";"JW8J+FR3, Rantau Panjang, Kec. Rantau Selamat, Kabupaten Aceh Timur, Aceh";"Kabupaten Aceh Timur, Aceh";"ACEH";"";"Indonesia";"";"4.6161387";"97.932048";"https://maps.google.com/?cid=0x0:0x6d637d4958c8ba37"
"perumahan";"Komplek perumahan";"Muda Inan Jaya";"HVFX+W6W, Alue Gadeng, Kec. Birem Bayeun, Kabupaten Aceh Timur, Aceh 24452";"Alue Gadeng, Kec. Birem Bayeun, Kabupaten Aceh Timur";"ACEH";"24452";"Indonesia";" 082163117074";"4.5748618";"97.8980934";"https://maps.google.com/?cid=0x0:0x1d7d553ebe9fd17e"
"perumahan";"Pembangunan Perumahan";"Investasi property";"JWCR+G2Q, Unnamed Road, Rantau Panjang, Kec. Rantau Selamat, Kabupaten Aceh Timur, Aceh 24452";"Unnamed Road, Rantau Panjang, Kec. Rantau Selamat, Kabupaten Aceh Timur";"ACEH";"24452";"Indonesia";" 082370886681";"4.6213464";"97.9401108";"https://maps.google.com/?cid=0x0:0x57a9ccd36f677cd4"
"perumahan";"Perhimpunan Pengembang Perumahan";"Rumah yusriani";"JW5F+9X9, Sarah Teubee, Kec. Rantau Selamat, Kabupaten Aceh Timur, Aceh 24452";"Sarah Teubee, Kec. Rantau Selamat, Kabupaten Aceh Timur";"ACEH";"24452";"Indonesia";"";"4.6084214";"97.9249732";"https://maps.google.com/?cid=0x0:0xf8bfc1590f3eb547"
"perumahan";"Perhimpunan Pengembang Perumahan";"Fahry's house";"HWH4+XQ6, Alue Gadeng, Kec. Rantau Selamat, Kabupaten Aceh Timur, Aceh 24452";"Alue Gadeng, Kec. Rantau Selamat, Kabupaten Aceh Timur";"ACEH";"24452";"Indonesia";"";"4.579921";"97.9068895";"https://maps.google.com/?cid=0x0:0x9d310d77491ddf29"
"perumahan";"perumahan";"Aceh 24453";"Kabupaten Aceh Timur, Aceh";"Kabupaten Aceh Timur, Aceh";"ACEH";"";"Indonesia";"";"4.7563162";"97.7742702";"https://maps.google.com/?cid=0x0:0x3f249fb702225b43"
"perumahan";"perumahan";"BUKET TURSINA";"RV49+7F, Blang Batee, Kec. Peureulak, Kabupaten Aceh Timur, Aceh";"Kabupaten Aceh Timur, Aceh";"ACEH";"";"Indonesia";"";"4.80571";"97.868652";"https://maps.google.com/?cid=0x0:0x94d7921c24a45eb5"
"perumahan";"Perhimpunan Pengembang Perumahan";"Rumah fitri";"QR92+3V, Gampong Tampak, Kec. Rantau Peureulak, Kabupaten Aceh Timur, Aceh 24453";"Gampong Tampak, Kec. Rantau Peureulak, Kabupaten Aceh Timur";"ACEH";"24453";"Indonesia";"";"4.767684";"97.80223";"https://maps.google.com/?cid=0x0:0x4680541eb7d1b140"
"perumahan";"Komplek perumahan";"rumah bg ajis ranto";"RR32+C32, Buket Pala Bsp, Kec. Rantau Peureulak, Kabupaten Aceh Timur, Aceh 24453";"Buket Pala Bsp, Kec. Rantau Peureulak, Kabupaten Aceh Timur";"ACEH";"24453";"Indonesia";"";"4.8035156";"97.800132";"https://maps.google.com/?cid=0x0:0x6bdfb69241153b97"
"perumahan";"Pembangunan Perumahan";"Kampung besar";"RV5R+PWF, Keude Peureulak, Kec. Peureulak, Kabupaten Aceh Timur, Aceh 24461";"Keude Peureulak, Kec. Peureulak, Kabupaten Aceh Timur";"ACEH";"24461";"Indonesia";"";"4.8093111";"97.8923064";"https://maps.google.com/?cid=0x0:0xe57d12ba3f3f9f27"
"perumahan";"Komplek perumahan";"Rumah zikri";"QRF9+P25, Unnamed Road, Alue Rambong, Kec. Peureulak, Kabupaten Aceh Timur, Aceh 24453";"Unnamed Road, Alue Rambong, Kec. Peureulak, Kabupaten Aceh Timur";"ACEH";"24453";"Indonesia";"";"4.7742622";"97.8176226";"https://maps.google.com/?cid=0x0:0x38b73efb49dde428"
"perumahan";"Kantor Pemerintah";"P.keuchik Tampak";"QQGX+M8X, Unnamed Road, Gampong Tampak, Kec. Rantau Peureulak, Kabupaten Aceh Timur, Aceh 24453";"Unnamed Road, Gampong Tampak, Kec. Rantau Peureulak, Kabupaten Aceh Timur";"ACEH";"24453";"Indonesia";" 082250070572";"4.7767296";"97.7983717";"https://maps.google.com/?cid=0x0:0xe8fbbab313e41856"
"perumahan";"Pembangunan Perumahan";"AMIR";"PRX8+G28, Leubuk Pempeng, Kec. Peureulak, Kabupaten Aceh Timur, Aceh 24453";"Leubuk Pempeng, Kec. Peureulak, Kabupaten Aceh Timur";"ACEH";"24453";"Indonesia";"";"4.7488501";"97.8151936";"https://maps.google.com/?cid=0x0:0xc1e5888540844ed8"
"perumahan";"Pembangunan Perumahan";"Ranto panjang";"RR4C+8PP, Blang Barom, Kec. Rantau Peureulak, Kabupaten Aceh Timur, Aceh";"Kabupaten Aceh Timur, Aceh";"ACEH";"";"Indonesia";"";"4.8058483";"97.8218387";"https://maps.google.com/?cid=0x0:0xd79c0424e3fec8c0"
"perumahan";"Komplek perumahan";"Rumah go";"RR4H+9JQ, Pulo Blang, Kec. Rantau Peureulak, Kabupaten Aceh Timur, Aceh 24453";"Pulo Blang, Kec. Rantau Peureulak, Kabupaten Aceh Timur";"ACEH";"24453";"Indonesia";"";"4.8059673";"97.8291244";"https://maps.google.com/?cid=0x0:0x96f16f8a59a58483"
"perumahan";"Komplek perumahan";"RUMAH TGK. FADLON";"RQHV+VJV, Desa Matai, buket seulamat, Kec. Rantau Peureulak, Kabupaten Aceh Timur, Aceh";"Kabupaten Aceh Timur, Aceh";"ACEH";"";"Indonesia";"";"4.8297297";"97.7940367";"https://maps.google.com/?cid=0x0:0xf2511d2fcee1f3a"
"perumahan";"Komplek perumahan";"RUMAH SYUKRI (Olan)";"RR27+GMJ, Jl. Ranto Panjang, Pasir Putih, Kec. Rantau Peureulak, Kabupaten Aceh Timur, Aceh 24453";"Jl. Ranto Panjang, Pasir Putih, Kec. Rantau Peureulak, Kabupaten Aceh Timur";"ACEH";"24453";"Indonesia";"";"4.8013471";"97.8141536";"https://maps.google.com/?cid=0x0:0xb3859106890b1d9a"
"perumahan";"Komplek perumahan";"Rumah Evi Nurmaliza";"RV7V+HMG, Tj. Tualang, Kec. Peureulak Bar., Kabupaten Aceh Timur, Aceh 24458";"Tj. Tualang, Kec. Peureulak Bar., Kabupaten Aceh Timur";"ACEH";"24458";"Indonesia";"";"4.8139263";"97.8941991";"https://maps.google.com/?cid=0x0:0x88860c82b64ccb5e"
"perumahan";"Komplek perumahan";"Kampung melayu";"QRX6+HQV, Jl. Ranto Panjang, Alue Dua, Kec. Rantau Peureulak, Kabupaten Aceh Timur, Aceh 24453";"Jl. Ranto Panjang, Alue Dua, Kec. Rantau Peureulak, Kabupaten Aceh Timur";"ACEH";"24453";"Indonesia";"";"4.7989939";"97.8119103";"https://maps.google.com/?cid=0x0:0x6df44072733a789d"
"perumahan";"perumahan";"Sumatera Utara 20991";"Kabupaten Serdang Bedagai, Sumatera Utara";"Kabupaten Serdang Bedagai, Sumatera Utara";"ACEH";"";"Indonesia";"";"3.3178663";"98.9907938";"https://maps.google.com/?cid=0x0:0xeb239dc4750960a6"
"perumahan";"perumahan";"A.sarif";"FGG8+6FC, Rampah, Serba Jadi, Kabupaten Aceh Timur, Aceh";"Kabupaten Aceh Timur, Aceh";"ACEH";"";"Indonesia";"";"4.4755652";"97.5161263";"https://maps.google.com/?cid=0x0:0x8cf8adc8a7d0e164"
"perumahan";"Komplek perumahan";"Warung";"GJC6+XH7, Upt I Kuala Pango, Serba Jadi, Kabupaten Aceh Timur, Aceh";"Kabupaten Aceh Timur, Aceh";"ACEH";"";"Indonesia";" 082165227180";"4.5224111";"97.6114217";"https://maps.google.com/?cid=0x0:0x676081be594251b2"
"perumahan";"perumahan";"A.Ansari";"FGF8+7QW, Rampah, Serba Jadi, Kabupaten Aceh Timur, Aceh";"Kabupaten Aceh Timur, Aceh";"ACEH";"";"Indonesia";"";"4.4732304";"97.5169525";"https://maps.google.com/?cid=0x0:0xd2045b753c05b071"
"perumahan";"Komplek perumahan";"Tanah Aceh Timur";"GJC6+XH7, Upt I Kuala Pango, Serba Jadi, Kabupaten Aceh Timur, Aceh";"Kabupaten Aceh Timur, Aceh";"ACEH";"";"Indonesia";"";"4.5224111";"97.6114217";"https://maps.google.com/?cid=0x0:0x80937d247e2cdbda"
"perumahan";"Komplek perumahan";"Rumah isma";"PMRX+6CP, Seumanah Jaya, Kec. Rantau Peureulak, Kabupaten Aceh Timur, Aceh 24455";"Seumanah Jaya, Kec. Rantau Peureulak, Kabupaten Aceh Timur";"ACEH";"24455";"Indonesia";" 0895406490163";"4.7397819";"97.6980301";"https://maps.google.com/?cid=0x0:0x5fba95a72be1dd89"
"perumahan";"Komplek perumahan";"Mes sosial";"CGM9+R4, Jering, Serba Jadi, Kabupaten Aceh Timur, Aceh";"Kabupaten Aceh Timur, Aceh";"ACEH";"";"Indonesia";"";"4.4345151";"97.5178579";"https://maps.google.com/?cid=0x0:0x8e939b931d8bc82"
"perumahan";"Pembangunan Perumahan";"Kantor keuchik";"CG99+H6, Jering, Serba Jadi, Kabupaten Aceh Timur, Aceh";"Kabupaten Aceh Timur, Aceh";"ACEH";"";"Indonesia";"";"4.4189003";"97.5180173";"https://maps.google.com/?cid=0x0:0xcec3848a840f750f"
"perumahan";"Toko";"Styshop";"JM95+HP6, Bukit Tiga, Kec. Peunaron, Kabupaten Aceh Timur, Aceh 24392";"Bukit Tiga, Kec. Peunaron, Kabupaten Aceh Timur";"ACEH";"24392";"Indonesia";"";"4.619207";"97.658993";"https://maps.google.com/?cid=0x0:0xd91f817d84499ced"
"perumahan";"Studio Fotografi";"Diana Foto copy";"CG7C+G65, Unnamed Road, Nalon, Serba Jadi, Kabupaten Aceh Timur, Aceh 24392";"Unnamed Road, Nalon, Serba Jadi, Kabupaten Aceh Timur";"ACEH";"24392";"Indonesia";"";"4.4137576";"97.520601";"https://maps.google.com/?cid=0x0:0xf16ff8f44de69d47"
"perumahan";"Komplek perumahan";"Alue tho";"C96M+WJP, Lokop, Serba Jadi, Kabupaten Aceh Timur, Aceh 24392";"Lokop, Serba Jadi, Kabupaten Aceh Timur";"ACEH";"24392";"Indonesia";"";"4.4123333";"97.3840729";"https://maps.google.com/?cid=0x0:0xd82aafe0f931d12c"
"perumahan";"Masjid";"Desa mesir";"FGP7+CR2, Mesir, Serba Jadi, Kabupaten Aceh Timur, Aceh 24392";"Mesir, Serba Jadi, Kabupaten Aceh Timur";"ACEH";"24392";"Indonesia";"";"4.4860038";"97.5145146";"https://maps.google.com/?cid=0x0:0x7ec77b5f2c7c40c3"
"perumahan";"perumahan";"Lokop";"Serba Jadi, Kabupaten Aceh Timur, Aceh";"Kabupaten Aceh Timur, Aceh";"ACEH";"";"Indonesia";"";"4.4123333";"97.3840729";"https://maps.google.com/?cid=0x0:0x72f109d2b85a0e4f"
"perumahan";"Perhimpunan Pengembang Perumahan";"Sudir";"HM84+PF, Peunaron Baru, Kec. Peunaron, Kabupaten Aceh Timur, Aceh";"Kabupaten Aceh Timur, Aceh";"ACEH";"";"Indonesia";"";"4.5668087";"97.6562423";"https://maps.google.com/?cid=0x0:0x3fe1090b1ddb3674"
"perumahan";"perumahan";"Aceh 24461";"Kabupaten Aceh Timur, Aceh";"Kabupaten Aceh Timur, Aceh";"ACEH";"";"Indonesia";"";"4.950275";"97.6792293";"https://maps.google.com/?cid=0x0:0x40ce92432b582121"
"perumahan";"Komplek perumahan";"HijaNET@RADIEY";"WMP5+2M, Alue Siwah Serdang, Kec. Nurussalam, Kabupaten Aceh Timur, Aceh";"Kabupaten Aceh Timur, Aceh";"ACEH";"";"Indonesia";"";"4.9351208";"97.6591779";"https://maps.google.com/?cid=0x0:0x91f4790d67d6c864"
"perumahan";"perumahan";"Rumah paklek supri";"XP32+HHX, Alur Merbo, Kec. Darul Aman, Kabupaten Aceh Timur, Aceh";"Kabupaten Aceh Timur, Aceh";"ACEH";"";"Indonesia";"";"4.9544689";"97.7014754";"https://maps.google.com/?cid=0x0:0xa6c3ca567dd34b78"
"perumahan";"Kantor Perusahaan";"perumahan BKPSDM";"WQVC+VGX, Kuta Blang, Kec. Idi Rayeuk, Kabupaten Aceh Timur, Aceh";"Kabupaten Aceh Timur, Aceh";"ACEH";"";"Indonesia";"";"4.9447473";"97.7713722";"https://maps.google.com/?cid=0x0:0xc2a195c34bcf4b40"
"perumahan";"Komplek perumahan";"Aceh timur";"XPPC+95F, Kp. Keude, Kec. Darul Aman, Kabupaten Aceh Timur, Aceh";"Kabupaten Aceh Timur, Aceh";"ACEH";"";"Indonesia";"";"4.9859334";"97.7204106";"https://maps.google.com/?cid=0x0:0x24b5e2d43f5feffb"
"perumahan";"Pembangunan Perumahan";"CV VII Gampong mesjid Nurussalam";"XMG7+F5W, Jln asamera dusun CV VII, Kp. Mesjid, Kec. Nurussalam, Kabupaten Aceh Timur";"Kabupaten Aceh Timur, Aceh";"ACEH";"";"Indonesia";"";"4.9762347";"97.6629495";"https://maps.google.com/?cid=0x0:0x7ff25a01983c2bf3"
"perumahan";"Perhimpunan Pengembang Perumahan";"Rumah wadi";"XJJQ+4XR, Seuneubok Rambong, Kec. Nurussalam, Kabupaten Aceh Timur, Aceh 24458";"Seuneubok Rambong, Kec. Nurussalam, Kabupaten Aceh Timur";"ACEH";"24458";"Indonesia";"";"4.9803693";"97.6398929";"https://maps.google.com/?cid=0x0:0x627ce693b66c4c5"
"perumahan";"Pembangunan Perumahan";"BUKET JUARA";"XP6X+58H, Buket Juara, Kec. Idi Rayeuk, Kabupaten Aceh Timur, Aceh 24455";"Buket Juara, Kec. Idi Rayeuk, Kabupaten Aceh Timur";"ACEH";"24455";"Indonesia";"";"4.9604466";"97.7483598";"https://maps.google.com/?cid=0x0:0xc8f4634d64fbeb6b"
"perumahan";"Komplek perumahan";"Cek yus";"WPX2+P55, Meunasah Keutapang, Kec. Darul Aman, Kabupaten Aceh Timur, Aceh";"Kabupaten Aceh Timur, Aceh";"ACEH";"";"Indonesia";"";"4.9492546";"97.7004709";"https://maps.google.com/?cid=0x0:0x8c6dbbec55adc6e6"
"perumahan";"Pembangunan Perumahan";"rumah azrianifitri";"XPQ7+5W4, Jl. Lintas Sumatra, Kp. Keude, Kec. Darul Aman, Kabupaten Aceh Timur, Aceh 24453";"Jl. Lintas Sumatra, Kp. Keude, Kec. Darul Aman, Kabupaten Aceh Timur";"ACEH";"24453";"Indonesia";"";"4.9878588";"97.7148114";"https://maps.google.com/?cid=0x0:0x6e3c2116135ec419"
"perumahan";"Komplek perumahan";"RUMAH TGK SALEH";"WM8V+X89, Jln,Idi Cut-Keude Geureubak, Buket Drien, Kec. Banda Alam";"Kabupaten Aceh Timur, Aceh";"ACEH";"";"Indonesia";"";"4.9174179";"97.693369";"https://maps.google.com/?cid=0x0:0xa9eab19a0bd0a764"
"perumahan";"perumahan";"DUSUN DAMAI";"VMVX+2HH, Seuneubok Pangou, Kec. Banda Alam, Kabupaten Aceh Timur, Aceh";"Kabupaten Aceh Timur, Aceh";"ACEH";"";"Indonesia";"";"4.892561";"97.6989983";"https://maps.google.com/?cid=0x0:0xfbb5cf2f64ad7a9e"
"perumahan";"Komplek perumahan";"Rumah Misbar Relief Idi Cut";"XPJH+4J8, Dusun Sejahtera, Kp. Baro, Kec. Darul Aman, Kabupaten Aceh Timur, Aceh 24455";"Dusun Sejahtera, Kp. Baro, Kec. Darul Aman, Kabupaten Aceh Timur";"ACEH";"24455";"Indonesia";"";"4.9802893";"97.7290776";"https://maps.google.com/?cid=0x0:0xc66e2d0874cfa344"
"perumahan";"Komplek perumahan";"Rumah asyifa";"XPPC+95F, Kp. Keude, Kec. Darul Aman, Kabupaten Aceh Timur, Aceh";"Kabupaten Aceh Timur, Aceh";"ACEH";"";"Indonesia";"";"4.9859334";"97.7204106";"https://maps.google.com/?cid=0x0:0x847739e03bb6be28"
"perumahan";"perumahan";"Aceh 24458";"Kabupaten Aceh Timur, Aceh";"Kabupaten Aceh Timur, Aceh";"ACEH";"";"Indonesia";"";"4.9131571";"97.5463885";"https://maps.google.com/?cid=0x0:0x82c363c7b075e66"
"perumahan";"Komplek perumahan";"Simpang Tiga Jln belakang Masjid Meunasah Blang";"XFXP+W3V, Meunasah Blang, Kec. Langkahan, Kabupaten Aceh Utara, Aceh 24394";"Meunasah Blang, Kec. Langkahan, Kabupaten Aceh Utara";"ACEH";"24394";"Indonesia";"";"4.9998516";"97.4851797";"https://maps.google.com/?cid=0x0:0xf5d43144a91bda92"
"perumahan";"Komplek perumahan";"Rumah ajilin";"3H9C+Q5, Blang Me, Kec. Simpang Ulim, Kabupaten Aceh Timur, Aceh 24458";"Blang Me, Kec. Simpang Ulim, Kabupaten Aceh Timur";"ACEH";"24458";"Indonesia";"";"5.0705516";"97.5706077";"https://maps.google.com/?cid=0x0:0x5e3f5c9f9508ffc8"
"perumahan";"Komplek perumahan";"Rumah mukhlis";"2HXX+JV, Ujong Tunong, Kec. Julok, Kabupaten Aceh Timur, Aceh 24458";"Ujong Tunong, Kec. Julok, Kabupaten Aceh Timur";"ACEH";"24458";"Indonesia";"";"5.049117";"97.599673";"https://maps.google.com/?cid=0x0:0x644bb20742fb0e55"
"perumahan";"Perhimpunan Pengembang Perumahan";"Simpang sawit";"VJVF+MXX, Seuneubok Cina, Kec. Indra Makmur, Kabupaten Aceh Timur, Aceh 24457";"Seuneubok Cina, Kec. Indra Makmur, Kabupaten Aceh Timur";"ACEH";"24457";"Indonesia";"";"4.8942425";"97.624978";"https://maps.google.com/?cid=0x0:0xddbd99b352f6ee0d"
"perumahan";"Komplek perumahan";"Rumah bang jek";"Dusun simpang 3a Desa Julok Rayeuk Utara, Pelita Sagup Jaya, Kec. Indra Makmur, Kabupaten Aceh Timur, Aceh 24457";"Pelita Sagup Jaya, Kec. Indra Makmur, Kabupaten Aceh Timur";"ACEH";"24457";"Indonesia";"";"4.883732";"97.618759";"https://maps.google.com/?cid=0x0:0x57402aedffe9a3d3"
"perumahan";"Perhimpunan Pengembang Perumahan";"Atom";"Blang Nisam, Kec. Indra Makmur, Kabupaten Aceh Timur, Aceh 24457";"Kec. Indra Makmur, Kabupaten Aceh Timur";"ACEH";"24457";"Indonesia";" 082369283455";"4.9433046";"97.5997539";"https://maps.google.com/?cid=0x0:0xe758ebe8866d3a76"
"perumahan";"perumahan";"rumah monica";"VJX2+J2V, Perk Julok Rayeuk Utara, Kec. Indra Makmur, Kabupaten Aceh Timur, Aceh 24457";"Perk Julok Rayeuk Utara, Kec. Indra Makmur, Kabupaten Aceh Timur";"ACEH";"24457";"Indonesia";"";"4.8977141";"97.5994515";"https://maps.google.com/?cid=0x0:0x7b9e18dd53edaa62"
"perumahan";"Komplek perumahan";"Rumah ika";"Iskandar, Dusun blangsare, Seuneubok Cina, Kec. Indra Makmur, Kabupaten Aceh Timur, Aceh 24457";"Dusun blangsare, Seuneubok Cina, Kec. Indra Makmur, Kabupaten Aceh Timur";"ACEH";"24457";"Indonesia";"";"4.8942425";"97.624978";"https://maps.google.com/?cid=0x0:0x5f6945197ad4b9d9"
"perumahan";"Komplek perumahan";"Rumah CEK BAS";"2HJV+V6F, Buket Dindeng, Kec. Julok, Kabupaten Aceh Timur, Aceh";"Kabupaten Aceh Timur, Aceh";"ACEH";"";"Indonesia";"";"5.031419";"97.592613";"https://maps.google.com/?cid=0x0:0x2e091301fb410acc"
"perumahan";"Pembangunan Perumahan";"ruas alue ie irah - gp lhee";"WHGV+RP5, Jl. Raya Indra Makmur - Kota Binjei, Alue Ie Mirah, Kec. Indra Makmur, Kabupaten Aceh Timur, Aceh 24458";"Jl. Raya Indra Makmur - Kota Binjei, Alue Ie Mirah, Kec. Indra Makmur, Kabupaten Aceh Timur";"ACEH";"24458";"Indonesia";"";"4.9270192";"97.5943593";"https://maps.google.com/?cid=0x0:0xe68a8207f2c49a0d"
"perumahan";"perumahan";"Rumah mpii tapupum";"WJ37+942, Alue Ie Itam, Kec. Indra Makmur, Kabupaten Aceh Timur, Aceh";"Kabupaten Aceh Timur, Aceh";"ACEH";"";"Indonesia";"";"4.9025358";"97.6124257";"https://maps.google.com/?cid=0x0:0x3a4cbb9bb645ef21"
"perumahan";"Komplek perumahan";"Zakaria";"3G9W+M2M, Ara Kundo, Kec. Simpang Ulim, Kabupaten Aceh Timur, Aceh 24458";"Ara Kundo, Kec. Simpang Ulim, Kabupaten Aceh Timur";"ACEH";"24458";"Indonesia";"";"5.0692041";"97.5450343";"https://maps.google.com/?cid=0x0:0x52ebed02d5d86f23"
"perumahan";"Pembangunan Perumahan";"Simpang kiyek";"VHVH+C2, Perk Julok Rayeuk Utara, Kec. Indra Makmur, Kabupaten Aceh Timur, Aceh";"Kabupaten Aceh Timur, Aceh";"ACEH";"";"Indonesia";"";"4.8936146";"97.5776187";"https://maps.google.com/?cid=0x0:0x2a3d7d1e23258d31"
"perumahan";"perumahan";"Kec. Simpang Ulim";"Kabupaten Aceh Timur, Aceh";"Kabupaten Aceh Timur, Aceh";"ACEH";"";"Indonesia";"";"5.0970632";"97.5398746";"https://maps.google.com/?cid=0x0:0x449fe38554505818"
"perumahan";"Perhimpunan Pengembang Perumahan";"Rumah Ulya";"4G2R+37R, Gampong Blang, Kec. Simpang Ulim, Kabupaten Aceh Timur, Aceh 24458";"Gampong Blang, Kec. Simpang Ulim, Kabupaten Aceh Timur";"ACEH";"24458";"Indonesia";"";"5.1002457";"97.5406347";"https://maps.google.com/?cid=0x0:0x52a50ac5cb578b5a"
"perumahan";"Perhimpunan Pengembang Perumahan";"Rumah Bang Him";"3GWV+2GR, Peulalu, Kec. Simpang Ulim, Kabupaten Aceh Timur, Aceh 24458";"Peulalu, Kec. Simpang Ulim, Kabupaten Aceh Timur";"ACEH";"24458";"Indonesia";"";"5.0957528";"97.5432465";"https://maps.google.com/?cid=0x0:0xb4a3403b3c360271"
"perumahan";"Komplek perumahan";"Rumah Aidy Fikriyanto";"3GV8+MHM, Alue Mulieng, Kec. Simpang Ulim, Kabupaten Aceh Timur, Aceh 24458";"Alue Mulieng, Kec. Simpang Ulim, Kabupaten Aceh Timur";"ACEH";"24458";"Indonesia";"";"5.0942172";"97.5164371";"https://maps.google.com/?cid=0x0:0x62743a21ea9670c7"
"perumahan";"Komplek perumahan";"Rumah ajilin";"3H9C+Q5, Blang Me, Kec. Simpang Ulim, Kabupaten Aceh Timur, Aceh 24458";"Blang Me, Kec. Simpang Ulim, Kabupaten Aceh Timur";"ACEH";"24458";"Indonesia";"";"5.0705516";"97.5706077";"https://maps.google.com/?cid=0x0:0x5e3f5c9f9508ffc8"
"perumahan";"Komplek perumahan";"Lampoeh rayeuk";"4G3V+7XP, Lampuh Rayeuk, Kec. Simpang Ulim, Kabupaten Aceh Timur, Aceh 24458";"Lampuh Rayeuk, Kec. Simpang Ulim, Kabupaten Aceh Timur";"ACEH";"24458";"Indonesia";" 082246326858";"5.1027569";"97.5477427";"https://maps.google.com/?cid=0x0:0x5a09d47318e70bec"
"perumahan";"Komplek perumahan";"Rumah Tgk Ishak";"3HG3+V5X, Nicah Awe, Kec. Simpang Ulim, Kabupaten Aceh Timur, Aceh 24458";"Nicah Awe, Kec. Simpang Ulim, Kabupaten Aceh Timur";"ACEH";"24458";"Indonesia";"";"5.0775098";"97.5530721";"https://maps.google.com/?cid=0x0:0xc06d7f03adddacb8"
"perumahan";"Komplek perumahan";"Kediama Khairul";"3H98+HMP, Blang Me, Kec. Simpang Ulim, Kabupaten Aceh Timur, Aceh";"Kabupaten Aceh Timur, Aceh";"ACEH";"";"Indonesia";"";"5.0689568";"97.5666878";"https://maps.google.com/?cid=0x0:0x34ca3513c1f6bff2"
"perumahan";"Perhimpunan Pengembang Perumahan";"Amira";"3GRG+336, Pucok Alue Dua, Kec. Simpang Ulim, Kabupaten Aceh Timur, Aceh 24458";"Pucok Alue Dua, Kec. Simpang Ulim, Kabupaten Aceh Timur";"ACEH";"24458";"Indonesia";"";"5.0901694";"97.5251302";"https://maps.google.com/?cid=0x0:0x2d0604a19a466029"
"perumahan";"Perhimpunan Pengembang Perumahan";"Rumah pak fahmi";"3GPG+6PC, Pucok Alue Bar., Kec. Simpang Ulim, Kabupaten Aceh Timur, Aceh 24458";"Pucok Alue Bar., Kec. Simpang Ulim, Kabupaten Aceh Timur";"ACEH";"24458";"Indonesia";"";"5.0855615";"97.526755";"https://maps.google.com/?cid=0x0:0x74a2343887efdf37"
"perumahan";"Perhimpunan Pengembang Perumahan";"Musliyadi";"3HW9+FCC, Bantayan, Kec. Simpang Ulim, Kabupaten Aceh Timur, Aceh 24458";"Bantayan, Kec. Simpang Ulim, Kabupaten Aceh Timur";"ACEH";"24458";"Indonesia";"";"5.0961782";"97.5685253";"https://maps.google.com/?cid=0x0:0x9385a34649fa641a"
"perumahan";"Komplek perumahan";"Alue Buloh Sa";"3HM4+3JC, Unnamed Road, Alue Buloh Satu, Kec. Simpang Ulim, Kabupaten Aceh Timur, Aceh 24458";"Unnamed Road, Alue Buloh Satu, Kec. Simpang Ulim, Kabupaten Aceh Timur";"ACEH";"24458";"Indonesia";"";"5.082693";"97.5565238";"https://maps.google.com/?cid=0x0:0x4b95cefc2c37d633"
"perumahan";"perumahan";"rumah nenek";"3GWQ+RWH, Kampong Baro, Kec. Simpang Ulim, Kabupaten Aceh Timur, Aceh";"Kabupaten Aceh Timur, Aceh";"ACEH";"";"Indonesia";"";"5.1023563";"97.5399039";"https://maps.google.com/?cid=0x0:0x6fb656344ea5afd0"
"perumahan";"Komplek perumahan";"Anwar";"3HV8+RJ9, Alue Buloh Satu, Kec. Simpang Ulim, Kabupaten Aceh Timur, Aceh 24458";"Alue Buloh Satu, Kec. Simpang Ulim, Kabupaten Aceh Timur";"ACEH";"24458";"Indonesia";"";"5.0945384";"97.5666117";"https://maps.google.com/?cid=0x0:0xad415d5097f73ffe"
"perumahan";"perumahan";"Aceh 24458";"Kabupaten Aceh Timur, Aceh";"Kabupaten Aceh Timur, Aceh";"ACEH";"";"Indonesia";"";"4.9131571";"97.5463885";"https://maps.google.com/?cid=0x0:0x82c363c7b075e66"
"perumahan";"perumahan";"Kec. Sungai Raya";"Kabupaten Aceh Timur, Aceh";"Kabupaten Aceh Timur, Aceh";"ACEH";"";"Indonesia";"";"4.6744294";"97.9155206";"https://maps.google.com/?cid=0x0:0xed64a98a923c441c"
"perumahan";"Perumahan";"Rumah Atas";"MR6F+R98, Gajah Mentah, Kec. Sungai Raya, Kabupaten Aceh Timur, Aceh 24452";"Gajah Mentah, Kec. Sungai Raya, Kabupaten Aceh Timur";"ACEH";"24452";"Indonesia";"";"4.6626238";"97.823532";"https://maps.google.com/?cid=0x0:0xa8efb2bc24c18506"
"perumahan";"Perumahan";"Kebakaran";"MVC5+99, Gajah Mentah, Kec. Sungai Raya, Kabupaten Aceh Timur, Aceh";"Kabupaten Aceh Timur, Aceh";"ACEH";"";"Indonesia";"";"4.6709667";"97.8584667";"https://maps.google.com/?cid=0x0:0xec4e7547ea395a45"
"perumahan";"Komplek perumahan";"Perumahan Di Visi4";"MR6F+R98, Gajah Mentah, Kec. Sungai Raya, Kabupaten Aceh Timur, Aceh 24452";"Gajah Mentah, Kec. Sungai Raya, Kabupaten Aceh Timur";"ACEH";"24452";"Indonesia";"";"4.661099";"97.823305";"https://maps.google.com/?cid=0x0:0x9dbde86eff794f39"
"perumahan";"Pembangunan Perumahan";"RUMAH AJIR";"MWC8+56Q SLTP Negeri 1 Sungai Raya, Labuhan Keude, Kec. Sungai Raya, Kabupaten Aceh Timur, Aceh 24452";"Labuhan Keude, Kec. Sungai Raya, Kabupaten Aceh Timur";"ACEH";"24452";"Indonesia";"";"4.6707551";"97.9151657";"https://maps.google.com/?cid=0x0:0xb47abb8de127eeb8"
"perumahan";"Komplek perumahan";"Poktan ingin jaya";"MV5M+CF8, Seuneubok Aceh, Kec. Sungai Raya, Kabupaten Aceh Timur, Aceh";"Kabupaten Aceh Timur, Aceh";"ACEH";"";"Indonesia";"";"4.6585252";"97.8837075";"https://maps.google.com/?cid=0x0:0x868c33612bc4787c"
"perumahan";"Pembangunan Perumahan";"Simpang M";"MWR7+CMX, Jl. Medan Banda Aceh, Alue Rangan, Kec. Sungai Raya, Kabupaten Aceh Timur, Aceh 24452";"Jl. Medan Banda Aceh, Alue Rangan, Kec. Sungai Raya, Kabupaten Aceh Timur";"ACEH";"24452";"Indonesia";"";"4.6911086";"97.9142355";"https://maps.google.com/?cid=0x0:0xc3574caf5de53ea9"
"perumahan";"Pembangunan Perumahan";"Tanah kebun alue lhok";"MWV7+J3, Alue Rangan, Kec. Sungai Raya, Kabupaten Aceh Timur, Aceh";"Kabupaten Aceh Timur, Aceh";"ACEH";"";"Indonesia";"";"4.6940725";"97.9126812";"https://maps.google.com/?cid=0x0:0x811bebe524611258"
"perumahan";"Komplek perumahan";"Andika.sp";"MV6P+48F, Sungai Simpang, Kec. Sungai Raya, Kabupaten Aceh Timur, Aceh 24452";"Sungai Simpang, Kec. Sungai Raya, Kabupaten Aceh Timur";"ACEH";"24452";"Indonesia";"";"4.6603067";"97.8857891";"https://maps.google.com/?cid=0x0:0x24113a6ebdc1cfa"
"perumahan";"Rumah Kayu";"Rumah sausan";"MWF9+W6X, Geulumpang Payong, Kec. Sungai Raya, Kabupaten Aceh Timur, Aceh 24452";"Geulumpang Payong, Kec. Sungai Raya, Kabupaten Aceh Timur";"ACEH";"24452";"Indonesia";"";"4.6748506";"97.9181003";"https://maps.google.com/?cid=0x0:0x75972fe6ae911870"
"perumahan";"perumahan";"Rumah Ismail";"MWR6+4XH, Alue Rangan, Kec. Sungai Raya, Kabupaten Aceh Timur, Aceh 24452";"Alue Rangan, Kec. Sungai Raya, Kabupaten Aceh Timur";"ACEH";"24452";"Indonesia";"";"4.6903135";"97.912474";"https://maps.google.com/?cid=0x0:0x8e2dcb37d451810e"
"perumahan";"Pembangunan Perumahan";"SDN REFORMASI";"JRR4+8PW, Gajah Mentah, Kec. Sungai Raya, Kabupaten Aceh Timur, Aceh 24452";"Gajah Mentah, Kec. Sungai Raya, Kabupaten Aceh Timur";"ACEH";"24452";"Indonesia";"";"4.6408655";"97.8068182";"https://maps.google.com/?cid=0x0:0xeb9ae50c9323cdd7"
"perumahan";"Komplek perumahan";"Perumahan bisi 4";"MR6F+R98, Gajah Mentah, Kec. Sungai Raya, Kabupaten Aceh Timur, Aceh 24452";"Gajah Mentah, Kec. Sungai Raya, Kabupaten Aceh Timur";"ACEH";"24452";"Indonesia";"";"4.6610545";"97.8233764";"https://maps.google.com/?cid=0x0:0xbc3fed1aa9510d4"
"perumahan";"Komplek perumahan";"Rumah bg mawar";"MV4J+P96, Seuneubok Aceh, Kec. Sungai Raya, Kabupaten Aceh Timur, Aceh 24452";"Seuneubok Aceh, Kec. Sungai Raya, Kabupaten Aceh Timur";"ACEH";"24452";"Indonesia";"";"4.6567949";"97.8808892";"https://maps.google.com/?cid=0x0:0xf8396cb35b910cad"
"perumahan";"perumahan";"Kec. Sungai Raya";"Kabupaten Aceh Timur, Aceh";"Kabupaten Aceh Timur, Aceh";"ACEH";"";"Indonesia";"";"4.6744294";"97.9155206";"https://maps.google.com/?cid=0x0:0xed64a98a923c441c"
"perumahan";"Komplek perumahan";"Rumah tepas";"MR7F+3RQ, Unnamed Road, Gajah Mentah, Kec. Sungai Raya, Kabupaten Aceh Timur, Aceh 24452";"Unnamed Road, Gajah Mentah, Kec. Sungai Raya, Kabupaten Aceh Timur";"ACEH";"24452";"Indonesia";"";"4.662703";"97.8246035";"https://maps.google.com/?cid=0x0:0x5066bedd3f3d1069"
"perumahan";"Komplek perumahan";"Perumahan bisi 4";"MR6F+R98, Gajah Mentah, Kec. Sungai Raya, Kabupaten Aceh Timur, Aceh 24452";"Gajah Mentah, Kec. Sungai Raya, Kabupaten Aceh Timur";"ACEH";"24452";"Indonesia";"";"4.6610545";"97.8233764";"https://maps.google.com/?cid=0x0:0xbc3fed1aa9510d4"
"perumahan";"Komplek perumahan";"Poktan ingin jaya";"MV5M+CF8, Seuneubok Aceh, Kec. Sungai Raya, Kabupaten Aceh Timur, Aceh";"Kabupaten Aceh Timur, Aceh";"ACEH";"";"Indonesia";"";"4.6585252";"97.8837075";"https://maps.google.com/?cid=0x0:0x868c33612bc4787c"
"perumahan";"Pembangunan Perumahan";"SDN REFORMASI";"JRR4+8PW, Gajah Mentah, Kec. Sungai Raya, Kabupaten Aceh Timur, Aceh 24452";"Gajah Mentah, Kec. Sungai Raya, Kabupaten Aceh Timur";"ACEH";"24452";"Indonesia";"";"4.6408655";"97.8068182";"https://maps.google.com/?cid=0x0:0xeb9ae50c9323cdd7"
"perumahan";"perumahan";"Rumah Ismail";"MWR6+4XH, Alue Rangan, Kec. Sungai Raya, Kabupaten Aceh Timur, Aceh 24452";"Alue Rangan, Kec. Sungai Raya, Kabupaten Aceh Timur";"ACEH";"24452";"Indonesia";"";"4.6903135";"97.912474";"https://maps.google.com/?cid=0x0:0x8e2dcb37d451810e"
"perumahan";"Pembangunan Perumahan";"RUMAH AJIR";"MWC8+56Q SLTP Negeri 1 Sungai Raya, Labuhan Keude, Kec. Sungai Raya, Kabupaten Aceh Timur, Aceh 24452";"Labuhan Keude, Kec. Sungai Raya, Kabupaten Aceh Timur";"ACEH";"24452";"Indonesia";"";"4.6707551";"97.9151657";"https://maps.google.com/?cid=0x0:0xb47abb8de127eeb8"
"perumahan";"Komplek perumahan";"Rumah Nenek";"MWG8+F47, Krueng Lingka, Kec. Sungai Raya, Kabupaten Aceh Timur, Aceh 24452";"Krueng Lingka, Kec. Sungai Raya, Kabupaten Aceh Timur";"ACEH";"24452";"Indonesia";"";"4.676054";"97.915566";"https://maps.google.com/?cid=0x0:0x5c1d38c6369eefcd"
"perumahan";"Komplek perumahan";"Idris";"JWWJ+58F, Bukit Selamat, Kec. Sungai Raya, Kabupaten Aceh Timur, Aceh 24452";"Bukit Selamat, Kec. Sungai Raya, Kabupaten Aceh Timur";"ACEH";"24452";"Indonesia";"";"4.6454267";"97.9307955";"https://maps.google.com/?cid=0x0:0xb911b26a42f5bf73"
"perumahan";"Komplek perumahan";"Dusun Blang meria";"MW96+C3, Bukit Drien, Kec. Sungai Raya, Kabupaten Aceh Timur, Aceh";"Kabupaten Aceh Timur, Aceh";"ACEH";"";"Indonesia";"";"4.6685625";"97.9101402";"https://maps.google.com/?cid=0x0:0x922b77f6066f1252"
"perumahan";"Rumah Kayu";"Rumah sausan";"MWF9+W6X, Geulumpang Payong, Kec. Sungai Raya, Kabupaten Aceh Timur, Aceh 24452";"Geulumpang Payong, Kec. Sungai Raya, Kabupaten Aceh Timur";"ACEH";"24452";"Indonesia";"";"4.6748506";"97.9181003";"https://maps.google.com/?cid=0x0:0x75972fe6ae911870"
"perumahan";"Pembangunan Perumahan";"Tanah kebun alue lhok";"MWV7+J3, Alue Rangan, Kec. Sungai Raya, Kabupaten Aceh Timur, Aceh";"Kabupaten Aceh Timur, Aceh";"ACEH";"";"Indonesia";"";"4.6940725";"97.9126812";"https://maps.google.com/?cid=0x0:0x811bebe524611258"
"perumahan";"Perumahan";"Rumah Atas";"MR6F+R98, Gajah Mentah, Kec. Sungai Raya, Kabupaten Aceh Timur, Aceh 24452";"Gajah Mentah, Kec. Sungai Raya, Kabupaten Aceh Timur";"ACEH";"24452";"Indonesia";"";"4.6626238";"97.823532";"https://maps.google.com/?cid=0x0:0xa8efb2bc24c18506"
"perumahan";"perumahan";"Kec. Sungai Raya";"Kabupaten Aceh Timur, Aceh";"Kabupaten Aceh Timur, Aceh";"ACEH";"";"Indonesia";"";"4.6744294";"97.9155206";"https://maps.google.com/?cid=0x0:0xed64a98a923c441c"
"perumahan";"Komplek perumahan";"Rumah tepas";"MR7F+3RQ, Unnamed Road, Gajah Mentah, Kec. Sungai Raya, Kabupaten Aceh Timur, Aceh 24452";"Unnamed Road, Gajah Mentah, Kec. Sungai Raya, Kabupaten Aceh Timur";"ACEH";"24452";"Indonesia";"";"4.662703";"97.8246035";"https://maps.google.com/?cid=0x0:0x5066bedd3f3d1069"
"perumahan";"Komplek perumahan";"Idris";"JWWJ+58F, Bukit Selamat, Kec. Sungai Raya, Kabupaten Aceh Timur, Aceh 24452";"Bukit Selamat, Kec. Sungai Raya, Kabupaten Aceh Timur";"ACEH";"24452";"Indonesia";"";"4.6454267";"97.9307955";"https://maps.google.com/?cid=0x0:0xb911b26a42f5bf73"
"perumahan";"Komplek perumahan";"Perumahan Di Visi4";"MR6F+R98, Gajah Mentah, Kec. Sungai Raya, Kabupaten Aceh Timur, Aceh 24452";"Gajah Mentah, Kec. Sungai Raya, Kabupaten Aceh Timur";"ACEH";"24452";"Indonesia";"";"4.661099";"97.823305";"https://maps.google.com/?cid=0x0:0x9dbde86eff794f39"
"perumahan";"Komplek perumahan";"Perumahan bisi 4";"MR6F+R98, Gajah Mentah, Kec. Sungai Raya, Kabupaten Aceh Timur, Aceh 24452";"Gajah Mentah, Kec. Sungai Raya, Kabupaten Aceh Timur";"ACEH";"24452";"Indonesia";"";"4.6610545";"97.8233764";"https://maps.google.com/?cid=0x0:0xbc3fed1aa9510d4"
"perumahan";"Komplek perumahan";"Poktan ingin jaya";"MV5M+CF8, Seuneubok Aceh, Kec. Sungai Raya, Kabupaten Aceh Timur, Aceh";"Kabupaten Aceh Timur, Aceh";"ACEH";"";"Indonesia";"";"4.6585252";"97.8837075";"https://maps.google.com/?cid=0x0:0x868c33612bc4787c"
"perumahan";"Komplek perumahan";"Andika.sp";"MV6P+48F, Sungai Simpang, Kec. Sungai Raya, Kabupaten Aceh Timur, Aceh 24452";"Sungai Simpang, Kec. Sungai Raya, Kabupaten Aceh Timur";"ACEH";"24452";"Indonesia";"";"4.6603067";"97.8857891";"https://maps.google.com/?cid=0x0:0x24113a6ebdc1cfa"
"perumahan";"Komplek perumahan";"Idris";"MWF8+XCW, Labuhan Keude, Kec. Sungai Raya, Kabupaten Aceh Timur, Aceh 24452";"Labuhan Keude, Kec. Sungai Raya, Kabupaten Aceh Timur";"ACEH";"24452";"Indonesia";"";"4.674794";"97.916668";"https://maps.google.com/?cid=0x0:0xa2d7792c024371c8"
"perumahan";"Perumahan";"Rumah Atas";"MR6F+R98, Gajah Mentah, Kec. Sungai Raya, Kabupaten Aceh Timur, Aceh 24452";"Gajah Mentah, Kec. Sungai Raya, Kabupaten Aceh Timur";"ACEH";"24452";"Indonesia";"";"4.6626238";"97.823532";"https://maps.google.com/?cid=0x0:0xa8efb2bc24c18506"
"perumahan";"Komplek perumahan";"Rumah bg mawar";"MV4J+P96, Seuneubok Aceh, Kec. Sungai Raya, Kabupaten Aceh Timur, Aceh 24452";"Seuneubok Aceh, Kec. Sungai Raya, Kabupaten Aceh Timur";"ACEH";"24452";"Indonesia";"";"4.6567949";"97.8808892";"https://maps.google.com/?cid=0x0:0xf8396cb35b910cad"
"perumahan";"Pembangunan Perumahan";"SDN REFORMASI";"JRR4+8PW, Gajah Mentah, Kec. Sungai Raya, Kabupaten Aceh Timur, Aceh 24452";"Gajah Mentah, Kec. Sungai Raya, Kabupaten Aceh Timur";"ACEH";"24452";"Indonesia";"";"4.6408655";"97.8068182";"https://maps.google.com/?cid=0x0:0xeb9ae50c9323cdd7"
"perumahan";"";"Syahrial";"MV5M+8CQ, Seuneubok Aceh, Kec. Sungai Raya, Kabupaten Aceh Timur, Aceh 24452";"Seuneubok Aceh, Kec. Sungai Raya, Kabupaten Aceh Timur";"ACEH";"24452";"Indonesia";"";"4.6583348";"97.8836108";"https://maps.google.com/?cid=0x0:0x7d9948dd34afbe49"
"perumahan";"Perumahan";"Kebakaran";"MVC5+99, Gajah Mentah, Kec. Sungai Raya, Kabupaten Aceh Timur, Aceh";"Kabupaten Aceh Timur, Aceh";"ACEH";"";"Indonesia";"";"4.6709667";"97.8584667";"https://maps.google.com/?cid=0x0:0xec4e7547ea395a45"
"perumahan";"perumahan";"Rumah Ismail";"MWR6+4XH, Alue Rangan, Kec. Sungai Raya, Kabupaten Aceh Timur, Aceh 24452";"Alue Rangan, Kec. Sungai Raya, Kabupaten Aceh Timur";"ACEH";"24452";"Indonesia";"";"4.6903135";"97.912474";"https://maps.google.com/?cid=0x0:0x8e2dcb37d451810e"
"housing complex";"housing complex";"Kec. Banda Alam";"Kabupaten Aceh Timur, Aceh";"Kabupaten Aceh Timur, Aceh";"ACEH";"";"Indonesia";"";"4.903042";"97.6987748";"https://maps.google.com/?cid=0x0:0xbbf5a401b81b9e34"
"housing complex";"Komplek perumahan";"Rumah samsul";"WM3P+JX, Panton Rayeuk A, Kec. Banda Alam, Kabupaten Aceh Timur, Aceh";"Kabupaten Aceh Timur, Aceh";"ACEH";"";"Indonesia";"";"4.9040366";"97.687428";"https://maps.google.com/?cid=0x0:0xe645c9bc78baa7d5"
"housing complex";"Komplek perumahan";"Amanda";"WM3X+6GW, Panton Rayeuk M, Kec. Banda Alam, Kabupaten Aceh Timur, Aceh";"Kabupaten Aceh Timur, Aceh";"ACEH";"";"Indonesia";"";"4.9031213";"97.6988286";"https://maps.google.com/?cid=0x0:0xe33fa462a8503273"
"housing complex";"Kompleks Kondominium";"Komplek PT Bumi Flora";"RPM8+J8F, Jambo Reuhat, Kec. Banda Alam, Kabupaten Aceh Timur, Aceh 24456";"Jambo Reuhat, Kec. Banda Alam, Kabupaten Aceh Timur";"ACEH";"24456";"Indonesia";"";"4.8340524";"97.7158084";"https://maps.google.com/?cid=0x0:0x775cca1bdd1c511b"
"housing complex";"housing complex";"Dusun Rukun";"VMRR+W39, Seuneubok Pangou, Kec. Banda Alam, Kabupaten Aceh Timur, Aceh";"Kabupaten Aceh Timur, Aceh";"ACEH";"";"Indonesia";"";"4.8922975";"97.6902251";"https://maps.google.com/?cid=0x0:0xfa24413cc594a792"
"housing complex";"Komplek perumahan";"Rumah Vatya Zulmi";"VMGW+95C, Blang Rambong, Kec. Banda Alam, Kabupaten Aceh Timur, Aceh 24457";"Blang Rambong, Kec. Banda Alam, Kabupaten Aceh Timur";"ACEH";"24457";"Indonesia";"";"4.8759412";"97.6954022";"https://maps.google.com/?cid=0x0:0x21d62127cd89dd7d"
"housing complex";"Perhimpunan Pengembang Perumahan";"RUMAH STOCKHOM";"WP38+X9, Uram Jl., Kec. Banda Alam, Kabupaten Aceh Timur, Aceh";"Kabupaten Aceh Timur, Aceh";"ACEH";"";"Indonesia";"";"4.9047555";"97.7155617";"https://maps.google.com/?cid=0x0:0xb8c6243815bde2f5"
"housing complex";"Komplek perumahan";"Home Putra";"VM4V+Q8F, Jambo Reuhat, Kec. Banda Alam, Kabupaten Aceh Timur, Aceh 24456";"Jambo Reuhat, Kec. Banda Alam, Kabupaten Aceh Timur";"ACEH";"24456";"Indonesia";"";"4.8568967";"97.6932669";"https://maps.google.com/?cid=0x0:0x74034cae6a82e766"
"housing complex";"Pembangunan Perumahan";"Desa jalan dua";"WP23+775, Jl. Dua, Kec. Banda Alam, Kabupaten Aceh Timur, Aceh 24454";"Jl. Dua, Kec. Banda Alam, Kabupaten Aceh Timur";"ACEH";"24454";"Indonesia";"";"4.9001004";"97.7025756";"https://maps.google.com/?cid=0x0:0xeb2d6212952fc1df"
"housing complex";"Komplek perumahan";"Sabar operator";"WM3G+27, Panton Rayeuk T, Kec. Banda Alam, Kabupaten Aceh Timur, Aceh";"Kabupaten Aceh Timur, Aceh";"ACEH";"";"Indonesia";"";"4.9025726";"97.6756756";"https://maps.google.com/?cid=0x0:0x4212f414ad7513a0"
"housing complex";"Komplek perumahan";"Home afzhal";"WP9C+X37, Buket Teukuh, Kec. Idi Tunong, Kabupaten Aceh Timur, Aceh";"Kabupaten Aceh Timur, Aceh";"ACEH";"";"Indonesia";"";"4.9199021";"97.7201751";"https://maps.google.com/?cid=0x0:0xa5e5692cacbebc8c"
"housing complex";"Komplek perumahan";"RUMAH TGK SALEH";"WM8V+X89, Jln,Idi Cut-Keude Geureubak, Buket Drien, Kec. Banda Alam";"Kabupaten Aceh Timur, Aceh";"ACEH";"";"Indonesia";"";"4.9174179";"97.693369";"https://maps.google.com/?cid=0x0:0xa9eab19a0bd0a764"
"housing complex";"housing complex";"rumah aidil";"WQCC+HC5, Seuneubok Lapang, Kec. Darul Ihsan, Kabupaten Aceh Timur, Aceh 24457";"Seuneubok Lapang, Kec. Darul Ihsan, Kabupaten Aceh Timur";"ACEH";"24457";"Indonesia";"";"4.9201869";"97.7722807";"https://maps.google.com/?cid=0x0:0x5f8a78f963878050"
"housing complex";"Pembangunan Perumahan";"Rumah Atom";"WM3X+6GW, Snb Bayu, Kec. Banda Alam, Kabupaten Aceh Timur, Aceh";"Kabupaten Aceh Timur, Aceh";"ACEH";"";"Indonesia";"";"4.9031213";"97.6988287";"https://maps.google.com/?cid=0x0:0x465c70958caf0964"
"housing complex";"Komplek perumahan";"Bewak";"GV3G+VQ6, Alue Teh, Kec. Birem Bayeun, Kabupaten Aceh Timur, Aceh 24455";"Alue Teh, Kec. Birem Bayeun, Kabupaten Aceh Timur";"ACEH";"24455";"Indonesia";" 081346012244";"4.5037653";"97.8765438";"https://maps.google.com/?cid=0x0:0x1ffd82c30d6bdec0"
"housing complex";"housing complex";"Aceh 24452";"Kabupaten Aceh Timur, Aceh";"Kabupaten Aceh Timur, Aceh";"ACEH";"";"Indonesia";"";"4.6428925";"97.8286368";"https://maps.google.com/?cid=0x0:0xab6d8837867af58f"
"housing complex";"housing complex";"wonosari";"HWG6+MMJ, Bayeun, Kec. Birem Bayeun, Kabupaten Aceh Timur, Aceh 24452";"Bayeun, Kec. Birem Bayeun, Kabupaten Aceh Timur";"ACEH";"24452";"Indonesia";"";"4.57671";"97.911626";"https://maps.google.com/?cid=0x0:0x6be229f94bff2713"
"housing complex";"Komplek perumahan";"Rumah Rajul";"HWG9+68W, Bayeun, Kec. Birem Bayeun, Kabupaten Aceh Timur, Aceh 24452";"Bayeun, Kec. Birem Bayeun, Kabupaten Aceh Timur";"ACEH";"24452";"Indonesia";"";"4.5756115";"97.9183417";"https://maps.google.com/?cid=0x0:0x5b66f9409fb19137"
"housing complex";"Komplek perumahan";"House RO";"HW3J+Q9V, Jl. Medan Banda Aceh, Aramiyah, Kec. Birem Bayeun, Kabupaten Aceh Timur, Aceh 24452";"Jl. Medan Banda Aceh, Aramiyah, Kec. Birem Bayeun, Kabupaten Aceh Timur";"ACEH";"24452";"Indonesia";"";"4.5544759";"97.9309172";"https://maps.google.com/?cid=0x0:0xf8669ab742a2ec95"
"housing complex";"Perhimpunan Pengembang Perumahan";"KOMPLEK MASDAR FAMILY";"GWPJ+GVW, Birem Rayeuk, Kec. Birem Bayeun, Kabupaten Aceh Timur, Aceh 24452";"Birem Rayeuk, Kec. Birem Bayeun, Kabupaten Aceh Timur";"ACEH";"24452";"Indonesia";"";"4.5367049";"97.9324243";"https://maps.google.com/?cid=0x0:0x2de9e67f2e39174d"
"housing complex";"Komplek perumahan";"Ibu Sakdiah";"HW9F+7F7, Aramiyah, Kec. Birem Bayeun, Kabupaten Aceh Timur, Aceh";"Kabupaten Aceh Timur, Aceh";"ACEH";"";"Indonesia";"";"4.5681599";"97.9236711";"https://maps.google.com/?cid=0x0:0xc96f2d165f46949a"
"housing complex";"Komplek perumahan";"Rumah Ridlwan";"GWPM+8V2, Keude Birem, Kec. Birem Bayeun, Kabupaten Aceh Timur, Aceh 24452";"Keude Birem, Kec. Birem Bayeun, Kabupaten Aceh Timur";"ACEH";"24452";"Indonesia";"";"4.5357549";"97.9346387";"https://maps.google.com/?cid=0x0:0xebea67d3a10929f7"
"housing complex";"Pembangunan Perumahan";"Merbou 2";"HWG6+MMJ, Bayeun, Kec. Birem Bayeun, Kabupaten Aceh Timur, Aceh 24452";"Bayeun, Kec. Birem Bayeun, Kabupaten Aceh Timur";"ACEH";"24452";"Indonesia";"";"4.57671";"97.911626";"https://maps.google.com/?cid=0x0:0xdc673e91960a906d"
"housing complex";"Pembangunan Perumahan";"irwan";"GWMH+PRJ, Birem Rayeuk, Kec. Birem Bayeun, Kabupaten Aceh Timur, Aceh";"Kabupaten Aceh Timur, Aceh";"ACEH";"";"Indonesia";"";"4.5344556";"97.9284496";"https://maps.google.com/?cid=0x0:0xace5b9f74e533ff"
"housing complex";"Kantor Pemda";"Birem Bayeun";"HWG6+MJX, Bayeun, Kec. Birem Bayeun, Kabupaten Aceh Timur, Aceh 24452";"Bayeun, Kec. Birem Bayeun, Kabupaten Aceh Timur";"ACEH";"24452";"Indonesia";" 082388211672";"4.5767301";"97.9116083";"https://maps.google.com/?cid=0x0:0xf283d540be388646"
"housing complex";"Pembangunan Perumahan";"Jack Natsume";"HVCX+FR, Alue Gadeng, Kec. Birem Bayeun, Kabupaten Aceh Timur, Aceh";"Kabupaten Aceh Timur, Aceh";"ACEH";"";"Indonesia";"";"4.5712445";"97.8996287";"https://maps.google.com/?cid=0x0:0xcd35a82ddd6b1f41"
"housing complex";"Komplek perumahan";"Rumah Taleb";"GWPJ+HV8, Birem Rayeuk, Kec. Birem Bayeun, Kabupaten Aceh Timur, Aceh 24452";"Birem Rayeuk, Kec. Birem Bayeun, Kabupaten Aceh Timur";"ACEH";"24452";"Indonesia";"";"4.5364081";"97.9321913";"https://maps.google.com/?cid=0x0:0x9a4d46a832947644"
"housing complex";"Pembangunan Perumahan";"Rumah Zikra";"GWMJ+JR8, Birem Rayeuk, Kec. Birem Bayeun, Kabupaten Aceh Timur, Aceh 24452";"Birem Rayeuk, Kec. Birem Bayeun, Kabupaten Aceh Timur";"ACEH";"24452";"Indonesia";"";"4.5340338";"97.9320682";"https://maps.google.com/?cid=0x0:0x7dbec33948fc09c9"
"housing complex";"housing complex";"Kec. Darul Aman";"Kabupaten Aceh Timur, Aceh";"Kabupaten Aceh Timur, Aceh";"ACEH";"";"Indonesia";"";"4.9859334";"97.7204106";"https://maps.google.com/?cid=0x0:0x217e07dad240b2e4"
"housing complex";"Perhimpunan Pengembang Perumahan";"Rumoh Tgk Yan";"Seuneubok Baroh, Kec. Darul Aman, Kabupaten Aceh Timur, Aceh 24455";"Kec. Darul Aman, Kabupaten Aceh Timur";"ACEH";"24455";"Indonesia";"";"4.987014";"97.7260859";"https://maps.google.com/?cid=0x0:0x6268f443ae864e8f"
"housing complex";"Komplek perumahan";"Aceh timur";"XPPC+95F, Kp. Keude, Kec. Darul Aman, Kabupaten Aceh Timur, Aceh";"Kabupaten Aceh Timur, Aceh";"ACEH";"";"Indonesia";"";"4.9859334";"97.7204106";"https://maps.google.com/?cid=0x0:0x24b5e2d43f5feffb"
"housing complex";"Komplek perumahan";"Rumah Misbar Relief Idi Cut";"XPJH+4J8, Dusun Sejahtera, Kp. Baro, Kec. Darul Aman, Kabupaten Aceh Timur, Aceh 24455";"Dusun Sejahtera, Kp. Baro, Kec. Darul Aman, Kabupaten Aceh Timur";"ACEH";"24455";"Indonesia";"";"4.9802893";"97.7290776";"https://maps.google.com/?cid=0x0:0xc66e2d0874cfa344"
"housing complex";"housing complex";"Rumah paklek supri";"XP32+HHX, Alur Merbo, Kec. Darul Aman, Kabupaten Aceh Timur, Aceh";"Kabupaten Aceh Timur, Aceh";"ACEH";"";"Indonesia";"";"4.9544689";"97.7014754";"https://maps.google.com/?cid=0x0:0xa6c3ca567dd34b78"
"housing complex";"Tempat Ibadah";"Menasah ketapang";"XM8X+3C, Buket Raya, Kec. Darul Aman, Kabupaten Aceh Timur, Aceh";"Kabupaten Aceh Timur, Aceh";"ACEH";"";"Indonesia";"";"4.9651291";"97.6985429";"https://maps.google.com/?cid=0x0:0xf278c016770ab8c9"
"housing complex";"Perumahan";"Queen_dilla";"XMVM+HP, Buket Tualang, Kec. Darul Aman, Kabupaten Aceh Timur, Aceh";"Kabupaten Aceh Timur, Aceh";"ACEH";"";"Indonesia";"";"4.9938954";"97.6842801";"https://maps.google.com/?cid=0x0:0x15530993e956aca4"
"housing complex";"Komplek perumahan";"Cek yus";"WPX2+P55, Meunasah Keutapang, Kec. Darul Aman, Kabupaten Aceh Timur, Aceh";"Kabupaten Aceh Timur, Aceh";"ACEH";"";"Indonesia";"";"4.9492546";"97.7004709";"https://maps.google.com/?cid=0x0:0x8c6dbbec55adc6e6"
"housing complex";"Komplek perumahan";"Rumah pribadi";"XPPC+7CJ, Kp. Keude, Kec. Darul Aman, Kabupaten Aceh Timur, Aceh";"Kabupaten Aceh Timur, Aceh";"ACEH";"";"Indonesia";"";"4.9857237";"97.721016";"https://maps.google.com/?cid=0x0:0xd45bd1950589e56a"
"housing complex";"Komplek perumahan";"Idi cut, seuneubok baroh, lorong nelayan";"XPQP+V4C, Seuneubok Baroh, Kec. Darul Aman, Kabupaten Aceh Timur, Aceh";"Kabupaten Aceh Timur, Aceh";"ACEH";"";"Indonesia";"";"4.9907426";"97.7355075";"https://maps.google.com/?cid=0x0:0x96bc22a0f8104c31"
"housing complex";"Komplek perumahan";"Is Ismet Family";"XPQ3+869, Kemuning II, Kec. Darul Aman, Kabupaten Aceh Timur, Aceh 24455";"Kemuning II, Kec. Darul Aman, Kabupaten Aceh Timur";"ACEH";"24455";"Indonesia";"";"4.9883485";"97.7031412";"https://maps.google.com/?cid=0x0:0xf8b75766bae0a354"
"housing complex";"Komplek perumahan";"Rumah asyifa";"XPPC+95F, Kp. Keude, Kec. Darul Aman, Kabupaten Aceh Timur, Aceh";"Kabupaten Aceh Timur, Aceh";"ACEH";"";"Indonesia";"";"4.9859334";"97.7204106";"https://maps.google.com/?cid=0x0:0x847739e03bb6be28"
"housing complex";"Komplek perumahan";"Rumah Maulina";"XPPP+24, Seuneubok Baroh, Kec. Darul Aman, Kabupaten Aceh Timur, Aceh";"Kabupaten Aceh Timur, Aceh";"ACEH";"";"Indonesia";"";"4.9850077";"97.7353422";"https://maps.google.com/?cid=0x0:0xfd479e5aa088a427"
"housing complex";"Komplek perumahan";"Jungka gajah kec darul aman";"XP76+35, Jungka Gajah, Kec. Darul Aman, Kabupaten Aceh Timur, Aceh";"Kabupaten Aceh Timur, Aceh";"ACEH";"";"Indonesia";"";"4.9626473";"97.7104862";"https://maps.google.com/?cid=0x0:0x34edfacd0a31ce5f"
"housing complex";"Komplek perumahan";"Fathahudeen";"2J8Q+7JV, Paya Kreub, Kec. Darul Falah, Kabupaten Aceh Timur, Aceh 24458";"Paya Kreub, Kec. Darul Falah, Kabupaten Aceh Timur";"ACEH";"24458";"Indonesia";"";"5.0157482";"97.6390553";"https://maps.google.com/?cid=0x0:0x3732c5f6ebcf25a7"
"housing complex";"Komplek perumahan";"Kedeu blang";"2J7M+8GF, Keude Blang, Kec. Darul Falah, Kabupaten Aceh Timur, Aceh 24458";"Keude Blang, Kec. Darul Falah, Kabupaten Aceh Timur";"ACEH";"24458";"Indonesia";"";"5.0133201";"97.6337909";"https://maps.google.com/?cid=0x0:0xa2880e033b21780e"
"housing complex";"housing complex";"Kec. Darul Falah";"Kabupaten Aceh Timur, Aceh";"Kabupaten Aceh Timur, Aceh";"ACEH";"";"Indonesia";"";"5.0158049";"97.6390314";"https://maps.google.com/?cid=0x0:0xd7c29e75868d7640"
"housing complex";"Komplek perumahan";"tunong ulee gajah";"2J6Q+849, Tunong Ulee Gajah, Kec. Darul Falah, Kabupaten Aceh Timur, Aceh 24458";"Tunong Ulee Gajah, Kec. Darul Falah, Kabupaten Aceh Timur";"ACEH";"24458";"Indonesia";"";"5.0107781";"97.6378586";"https://maps.google.com/?cid=0x0:0x6437376b996ae86f"
"housing complex";"Komplek perumahan";"RACHEL";"2JPP+VV3, Meudang Ara, Kec. Nurussalam, Kabupaten Aceh Timur, Aceh";"Kabupaten Aceh Timur, Aceh";"ACEH";"";"Indonesia";"";"5.0417322";"97.6400829";"https://maps.google.com/?cid=0x0:0xdef39c416946e2ce"
"housing complex";"Pembangunan Perumahan";"seunebok panton";"2J6H+8V9, Seuneubok Panton, Kec. Darul Falah, Kabupaten Aceh Timur, Aceh 24458";"Seuneubok Panton, Kec. Darul Falah, Kabupaten Aceh Timur";"ACEH";"24458";"Indonesia";"";"5.010788";"97.6297233";"https://maps.google.com/?cid=0x0:0xe51b5d8330996d13"
"housing complex";"Komplek perumahan";"Rumah Fadhil Muhammad";"2JMC+FJP, Ulee Ateung, Kec. Julok, Kabupaten Aceh Timur, Aceh";"Kabupaten Aceh Timur, Aceh";"ACEH";"";"Indonesia";"";"5.033718";"97.6215906";"https://maps.google.com/?cid=0x0:0xf6a36040c7829e2"
"housing complex";"Komplek perumahan";"Rumoeh tuha";"2JQQ+MCM, Meudang Ara, Kec. Nurussalam, Kabupaten Aceh Timur, Aceh 24458";"Meudang Ara, Kec. Nurussalam, Kabupaten Aceh Timur";"ACEH";"24458";"Indonesia";"";"5.0392361";"97.6385115";"https://maps.google.com/?cid=0x0:0x329f2bbf3a679224"
"housing complex";"Komplek perumahan";"M. Diar";"Unnamed Road, Bantayan, Nurussalam, East Aceh Regency, Aceh 24458";"Bantayan, Nurussalam, East Aceh Regency";"ACEH";"24458";"Indonesia";"";"5.0224017";"97.6542148";"https://maps.google.com/?cid=0x0:0x33f55d7fd4a764cc"
"housing complex";"Komplek perumahan";"A.A.A";"2JHC+R9M, Blang Mideun, Kec. Julok, Kabupaten Aceh Timur, Aceh 24458";"Blang Mideun, Kec. Julok, Kabupaten Aceh Timur";"ACEH";"24458";"Indonesia";"";"5.0295955";"97.6209108";"https://maps.google.com/?cid=0x0:0xf1fc9beb87eae7c3"
"housing complex";"Perhimpunan Pengembang Perumahan";"Rumah m.faizi";"2JMH+V5V, Buket Seraja, Kec. Julok, Kabupaten Aceh Timur, Aceh 24458";"Buket Seraja, Kec. Julok, Kabupaten Aceh Timur";"ACEH";"24458";"Indonesia";"";"5.0347377";"97.6279141";"https://maps.google.com/?cid=0x0:0x2f3b1c49117f188e"
"housing complex";"Komplek perumahan";"RUMOH BANG MUH";"2JM9+X8H, Mane Rampak, Kec. Julok, Kabupaten Aceh Timur, Aceh 24458";"Mane Rampak, Kec. Julok, Kabupaten Aceh Timur";"ACEH";"24458";"Indonesia";"";"5.0349329";"97.6183694";"https://maps.google.com/?cid=0x0:0x29fb7b6a9dfdb99b"
"housing complex";"Komplek perumahan";"Abang Abu Abi Malika";"Jalan Medan Banda Aceh, Lorong Pak Usman Nomor 03 Dusun Ceubrek, Blang Paoh Dua, Kec. Julok, Kabupaten Aceh Timur, Aceh";"Kabupaten Aceh Timur, Aceh";"ACEH";"";"Indonesia";"";"5.0432732";"97.6248839";"https://maps.google.com/?cid=0x0:0xcaa95225b277af71"
"housing complex";"Komplek perumahan";"Rumoh ayah sop / 0m meh";"2JPG+J2M, Jl. Alue Ie Mirah, Ulee Ateung, Kec. Julok, Kabupaten Aceh Timur, Aceh 24458";"Jl. Alue Ie Mirah, Ulee Ateung, Kec. Julok, Kabupaten Aceh Timur";"ACEH";"24458";"Indonesia";" 082289795134";"5.0365833";"97.6250394";"https://maps.google.com/?cid=0x0:0x37a36877515c2f4c"
"housing complex";"housing complex";"Kec. Darul Ihsan";"Kabupaten Aceh Timur, Aceh";"Kabupaten Aceh Timur, Aceh";"ACEH";"";"Indonesia";"";"4.9121713";"97.7511187";"https://maps.google.com/?cid=0x0:0x4217d2780b69b031"
"housing complex";"housing complex";"Kec. Idi Rayeuk";"Kabupaten Aceh Timur, Aceh";"Kabupaten Aceh Timur, Aceh";"ACEH";"";"Indonesia";"";"4.9501675";"97.770381";"https://maps.google.com/?cid=0x0:0x1628dddf2364720"
"housing complex";"Komplek perumahan";"Komplek Idi Rayeuk Residence";"Jalan Kesehatan No.D10, Seuneubok Rambong, Kec. Idi Rayeuk, Kabupaten Aceh Timur, Aceh";"Kabupaten Aceh Timur, Aceh";"ACEH";"";"Indonesia";"";"4.9374013";"97.7892168";"https://maps.google.com/?cid=0x0:0xced7107c57e837d8"
"housing complex";"Komplek perumahan";"Perumahan fhona resident";"XQ2G+5H2, Tanoh Anou, Kec. Idi Rayeuk, Kabupaten Aceh Timur, Aceh";"Kabupaten Aceh Timur, Aceh";"ACEH";"";"Indonesia";"";"4.9503826";"97.7763781";"https://maps.google.com/?cid=0x0:0x677f6f3689140e6d"
"housing complex";"Komplek perumahan";"rumah saya";"WQWF+9P4, Tanoh Anou, Kec. Idi Rayeuk, Kabupaten Aceh Timur, Aceh";"Kabupaten Aceh Timur, Aceh";"ACEH";"";"Indonesia";"";"4.9458875";"97.7743281";"https://maps.google.com/?cid=0x0:0x9c2a14b8d02e907b"
"housing complex";"housing complex";"PERUMAHAN BINTANG TIMUR IDI, ACEH TIMUR";"XQ65+HF4, Gampong Jl., Kec. Idi Rayeuk, Kabupaten Aceh Timur, Aceh";"Kabupaten Aceh Timur, Aceh";"ACEH";"";"Indonesia";"";"4.9613877";"97.758716";"https://maps.google.com/?cid=0x0:0x42e9ea597346073f"
"housing complex";"Komplek perumahan";"Reza house";"XQ78+JFR, Tanjong Kapai, Kec. Idi Rayeuk, Kabupaten Aceh Timur, Aceh";"Kabupaten Aceh Timur, Aceh";"ACEH";"";"Indonesia";"";"4.9641003";"97.7661443";"https://maps.google.com/?cid=0x0:0x103f48d72c2fb6d1"
"housing complex";"Pembangunan Perumahan";"Rumah Ampon Cek";"WQW7+9CP, Dusun Meuligoe, Keude Blang, Kec. Idi Rayeuk, Kabupaten Aceh Timur, Aceh";"Kabupaten Aceh Timur, Aceh";"ACEH";"";"Indonesia";"";"4.9459568";"97.763591";"https://maps.google.com/?cid=0x0:0x8d5668165fe0a11c"
"housing complex";"Komplek perumahan";"Razi";"WQVC+R4H, Kuta Blang, Kec. Idi Rayeuk, Kabupaten Aceh Timur, Aceh";"Kabupaten Aceh Timur, Aceh";"ACEH";"";"Indonesia";"";"4.9445605";"97.7703451";"https://maps.google.com/?cid=0x0:0xcb61b1435f4d32d3"
"housing complex";"Komplek perumahan";"Dusun Kuta Desa Kuta Blang Kecamatan Idi Rayeuk Kabupaten Aceh Timur";"Pulo Blang, Kec. Darul Ihsan, Kabupaten Aceh Timur, Aceh";"Kabupaten Aceh Timur, Aceh";"ACEH";"";"Indonesia";"";"4.9443963";"97.7696577";"https://maps.google.com/?cid=0x0:0xd95578863f3f7cd9"
"housing complex";"Komplek perumahan";"Rumah Kucing Talia";"XQ6G+JX, Kuala Idi, Kec. Idi Rayeuk, Kabupaten Aceh Timur, Aceh";"Kabupaten Aceh Timur, Aceh";"ACEH";"";"Indonesia";"";"4.961572";"97.7774587";"https://maps.google.com/?cid=0x0:0xe1630385285ed8e6"
"housing complex";"Komplek perumahan";"Rumah ahza dan hadi";"WQVH+2QR, Tanoh Anou, Kec. Idi Rayeuk, Kabupaten Aceh Timur, Aceh";"Kabupaten Aceh Timur, Aceh";"ACEH";"";"Indonesia";"";"4.9422881";"97.779237";"https://maps.google.com/?cid=0x0:0x5f9586864748d741"
"housing complex";"Komplek perumahan";"Khalel";"XQ8C+93P, Keutapang Mameh, Kec. Idi Rayeuk, Kabupaten Aceh Timur, Aceh";"Kabupaten Aceh Timur, Aceh";"ACEH";"";"Indonesia";"";"4.9659601";"97.7701944";"https://maps.google.com/?cid=0x0:0xd2177635c3cf7319"
"housing complex";"Pembangunan Perumahan";"Blanggeulumpang";"XQ2C+356, dusun seulatan, Kec. Idi Rayeuk, Kabupaten Aceh Timur, Aceh";"Kabupaten Aceh Timur, Aceh";"ACEH";"";"Indonesia";"";"4.9501675";"97.770381";"https://maps.google.com/?cid=0x0:0xea8b8ef253c3f823"
"housing complex";"Komplek perumahan";"Rumah olex";"WQVJ+HX7, Tanoh Anou, Kec. Idi Rayeuk, Kabupaten Aceh Timur, Aceh";"Kabupaten Aceh Timur, Aceh";"ACEH";"";"Indonesia";"";"4.9439195";"97.7824225";"https://maps.google.com/?cid=0x0:0xfcf4f198f4a72037"
"housing complex";"housing complex";"Kec. Idi Tim.";"Kabupaten Aceh Timur, Aceh";"Kabupaten Aceh Timur, Aceh";"ACEH";"";"Indonesia";"";"4.9203515";"97.7990189";"https://maps.google.com/?cid=0x0:0x46d60b30aadd6a41"
"housing complex";"Pembangunan Perumahan";"Lokasi Pesta";"WQGW+XW3, Dusun Alue Beururu, Ketapang Dua, Kec. Idi Tim., Kabupaten Aceh Timur, Aceh";"Kabupaten Aceh Timur, Aceh";"ACEH";"";"Indonesia";" 085236501693";"4.9273822";"97.797309";"https://maps.google.com/?cid=0x0:0xea81f429c6a7b207"
"housing complex";"housing complex";"rumah aidil";"WQCC+HC5, Seuneubok Lapang, Kec. Darul Ihsan, Kabupaten Aceh Timur, Aceh 24457";"Seuneubok Lapang, Kec. Darul Ihsan, Kabupaten Aceh Timur";"ACEH";"24457";"Indonesia";"";"4.9201869";"97.7722807";"https://maps.google.com/?cid=0x0:0x5f8a78f963878050"
"housing complex";"Komplek perumahan";"Komplek Idi Rayeuk Residence";"Jalan Kesehatan No.D10, Seuneubok Rambong, Kec. Idi Rayeuk, Kabupaten Aceh Timur, Aceh";"Kabupaten Aceh Timur, Aceh";"ACEH";"";"Indonesia";"";"4.9374013";"97.7892168";"https://maps.google.com/?cid=0x0:0xced7107c57e837d8"
"housing complex";"housing complex";"Rumah Aulia";"WQ8X+RM4, Seuneubok Bar., Kec. Idi Tim., Kabupaten Aceh Timur, Aceh";"Kabupaten Aceh Timur, Aceh";"ACEH";"";"Indonesia";"";"4.9170038";"97.799195";"https://maps.google.com/?cid=0x0:0xcea2cfe8cc9d4416"
"housing complex";"Komplek perumahan";"Perumahan fhona resident";"XQ2G+5H2, Tanoh Anou, Kec. Idi Rayeuk, Kabupaten Aceh Timur, Aceh";"Kabupaten Aceh Timur, Aceh";"ACEH";"";"Indonesia";"";"4.9503826";"97.7763781";"https://maps.google.com/?cid=0x0:0x677f6f3689140e6d"
"housing complex";"Komplek perumahan";"Rumah olex";"WQVJ+HX7, Tanoh Anou, Kec. Idi Rayeuk, Kabupaten Aceh Timur, Aceh";"Kabupaten Aceh Timur, Aceh";"ACEH";"";"Indonesia";"";"4.9439195";"97.7824225";"https://maps.google.com/?cid=0x0:0xfcf4f198f4a72037"
"housing complex";"Komplek perumahan";"rumah saya";"WQWF+9P4, Tanoh Anou, Kec. Idi Rayeuk, Kabupaten Aceh Timur, Aceh";"Kabupaten Aceh Timur, Aceh";"ACEH";"";"Indonesia";"";"4.9458875";"97.7743281";"https://maps.google.com/?cid=0x0:0x9c2a14b8d02e907b"
"housing complex";"Komplek perumahan";"roum";"WQRQ+C5Q, Tanoh Anou, Kec. Idi Rayeuk, Kabupaten Aceh Timur, Aceh";"Kabupaten Aceh Timur, Aceh";"ACEH";"";"Indonesia";"";"4.9407853";"97.7891994";"https://maps.google.com/?cid=0x0:0xcac9f53093deb081"
"housing complex";"Komplek perumahan";"Rumah ahza dan hadi";"WQVH+2QR, Tanoh Anou, Kec. Idi Rayeuk, Kabupaten Aceh Timur, Aceh";"Kabupaten Aceh Timur, Aceh";"ACEH";"";"Indonesia";"";"4.9422881";"97.779237";"https://maps.google.com/?cid=0x0:0x5f9586864748d741"
"housing complex";"Komplek perumahan";"TAMAN MUTIARA RESIDENCE";"WQXM+5GP, Tanoh Anou, Kec. Idi Rayeuk, Kabupaten Aceh Timur, Aceh";"Kabupaten Aceh Timur, Aceh";"ACEH";"";"Indonesia";"";"4.9479563";"97.7838366";"https://maps.google.com/?cid=0x0:0x62c496fd507d0394"
"housing complex";"Komplek perumahan";"Roemah Keisya";"WQPM+H63, Tanoh Anou, Kec. Idi Rayeuk, Kabupaten Aceh Timur, Aceh";"Kabupaten Aceh Timur, Aceh";"ACEH";"";"Indonesia";"";"4.9363809";"97.7830581";"https://maps.google.com/?cid=0x0:0xccbdb4692121decf"
"housing complex";"Komplek perumahan";"Rumah syarwani";"WQHW+2X, Ketapang Dua, Kec. Idi Tim., Kabupaten Aceh Timur, Aceh";"Kabupaten Aceh Timur, Aceh";"ACEH";"";"Indonesia";" 085295988495";"4.927588";"97.797477";"https://maps.google.com/?cid=0x0:0xbdef9d9279aa7b3c"
"housing complex";"Komplek perumahan";"Razi";"WQVC+R4H, Kuta Blang, Kec. Idi Rayeuk, Kabupaten Aceh Timur, Aceh";"Kabupaten Aceh Timur, Aceh";"ACEH";"";"Indonesia";"";"4.9445605";"97.7703451";"https://maps.google.com/?cid=0x0:0xcb61b1435f4d32d3"
"housing complex";"housing complex";"Kec. Idi Tunong";"Kabupaten Aceh Timur, Aceh";"Kabupaten Aceh Timur, Aceh";"ACEH";"";"Indonesia";"";"4.924037";"97.7300209";"https://maps.google.com/?cid=0x0:0xce43963eb576bc1b"
"housing complex";"Komplek perumahan";"Di Rumah";"VPVM+5CR, Paya Awe, Kec. Idi Tunong, Kabupaten Aceh Timur, Aceh";"Kabupaten Aceh Timur, Aceh";"ACEH";"";"Indonesia";"";"4.8929985";"97.7335226";"https://maps.google.com/?cid=0x0:0xaeaf3db50b9fa5fe"
"housing complex";"Toko Elektronik";"Rumah imam buket teukuh";"WP9F+X4, Buket Teukuh, Kec. Idi Tunong, Kabupaten Aceh Timur, Aceh";"Kabupaten Aceh Timur, Aceh";"ACEH";"";"Indonesia";"";"4.9199105";"97.7228402";"https://maps.google.com/?cid=0x0:0x8f360b8138f85bd"
"housing complex";"Komplek perumahan";"Zakira";"VPXC+W3J, Seuneubok Buya, Kec. Idi Tunong, Kabupaten Aceh Timur, Aceh 24455";"Seuneubok Buya, Kec. Idi Tunong, Kabupaten Aceh Timur";"ACEH";"24455";"Indonesia";"";"4.89984";"97.7201318";"https://maps.google.com/?cid=0x0:0xb3061ec5effb1194"
"housing complex";"Komplek perumahan";"Rumah pak pon";"WP5F+PP5, Seuneubok Drien, Kec. Idi Tunong, Kabupaten Aceh Timur, Aceh 24454";"Seuneubok Drien, Kec. Idi Tunong, Kabupaten Aceh Timur";"ACEH";"24454";"Indonesia";"";"4.9088514";"97.7238809";"https://maps.google.com/?cid=0x0:0x42e8e1fcfe8814c6"
"housing complex";"Komplek perumahan";"Rumah Tgk imum";"WPC4+M9C, Alue Kumbang M, Kec. Idi Tunong, Kabupaten Aceh Timur, Aceh";"Kabupaten Aceh Timur, Aceh";"ACEH";"";"Indonesia";"";"4.9216957";"97.7058943";"https://maps.google.com/?cid=0x0:0x6f486318e0bf685b"
"housing complex";"Pembangunan Perumahan";"Rumah Ampon Cek";"WQW7+9CP, Dusun Meuligoe, Keude Blang, Kec. Idi Rayeuk, Kabupaten Aceh Timur, Aceh";"Kabupaten Aceh Timur, Aceh";"ACEH";"";"Indonesia";"";"4.9459568";"97.763591";"https://maps.google.com/?cid=0x0:0x8d5668165fe0a11c"
"housing complex";"Komplek perumahan";"Rumah Ema pelaminan";"WP8C+78H, Jl. Keude Geurubak, Buket Teukuh, Kec. Idi Tunong, Kabupaten Aceh Timur, Aceh 24455";"Jl. Keude Geurubak, Buket Teukuh, Kec. Idi Tunong, Kabupaten Aceh Timur";"ACEH";"24455";"Indonesia";"";"4.915654";"97.7208425";"https://maps.google.com/?cid=0x0:0xbb3d9bd3eb43b93f"
"housing complex";"Komplek perumahan";"Blang minje";"WPFH+JXQ, Buket Teukuh, Kec. Idi Tunong, Kabupaten Aceh Timur, Aceh";"Kabupaten Aceh Timur, Aceh";"ACEH";"";"Indonesia";"";"4.9240795";"97.729975";"https://maps.google.com/?cid=0x0:0xffeab497628ea11d"
"housing complex";"Komplek perumahan";"Dusun kulam gajah";"VPMM+3HJ, Alue Lhok, Kec. Idi Tunong, Kabupaten Aceh Timur, Aceh";"Kabupaten Aceh Timur, Aceh";"ACEH";"";"Indonesia";"";"4.882724";"97.7338771";"https://maps.google.com/?cid=0x0:0x6c2459b06d493bf4"
"housing complex";"Komplek perumahan";"Ayu saputri";"WPJQ+HRH, Jl. Keude Geurubak, Seuneubok Jl., Kec. Idi Tunong, Kabupaten Aceh Timur, Aceh 24455";"Jl. Keude Geurubak, Seuneubok Jl., Kec. Idi Tunong, Kabupaten Aceh Timur";"ACEH";"24455";"Indonesia";"";"4.9314892";"97.7400814";"https://maps.google.com/?cid=0x0:0xad235665163c03ea"
"housing complex";"Komplek perumahan";"Rumah Agam";"VPRM+GH, Paya Awe, Kec. Idi Tunong, Kabupaten Aceh Timur, Aceh";"Kabupaten Aceh Timur, Aceh";"ACEH";"";"Indonesia";"";"4.8912741";"97.7339935";"https://maps.google.com/?cid=0x0:0xba3d61d41884456c"
"housing complex";"Pembangunan Perumahan";"Rumah fatah";"WQX9+C7P, Gampong Aceh, Kec. Idi Rayeuk, Kabupaten Aceh Timur, Aceh";"Kabupaten Aceh Timur, Aceh";"ACEH";"";"Indonesia";"";"4.9485992";"97.7682";"https://maps.google.com/?cid=0x0:0xf2e0e279fda8f2ae"
"housing complex";"Komplek perumahan";"rumah zilta";"WPGJ+3CR, Buket Teukuh, Kec. Idi Tunong, Kabupaten Aceh Timur, Aceh 24455";"Buket Teukuh, Kec. Idi Tunong, Kabupaten Aceh Timur";"ACEH";"24455";"Indonesia";"";"4.9252367";"97.7310004";"https://maps.google.com/?cid=0x0:0xe068d4d231f6d270"
"housing complex";"Komplek perumahan";"Rumah ika";"Iskandar, Dusun blangsare, Seuneubok Cina, Kec. Indra Makmur, Kabupaten Aceh Timur, Aceh 24457";"Dusun blangsare, Seuneubok Cina, Kec. Indra Makmur, Kabupaten Aceh Timur";"ACEH";"24457";"Indonesia";"";"4.8942425";"97.624978";"https://maps.google.com/?cid=0x0:0x5f6945197ad4b9d9"
"housing complex";"housing complex";"Aceh 24457";"Kabupaten Aceh Timur, Aceh";"Kabupaten Aceh Timur, Aceh";"ACEH";"";"Indonesia";"";"4.7891972";"97.5897372";"https://maps.google.com/?cid=0x0:0x9a96488e19c6198c"
"housing complex";"Komplek perumahan";"Rumah bang jek";"Dusun simpang 3a Desa Julok Rayeuk Utara, Pelita Sagup Jaya, Kec. Indra Makmur, Kabupaten Aceh Timur, Aceh 24457";"Pelita Sagup Jaya, Kec. Indra Makmur, Kabupaten Aceh Timur";"ACEH";"24457";"Indonesia";"";"4.883732";"97.618759";"https://maps.google.com/?cid=0x0:0x57402aedffe9a3d3"
"housing complex";"housing complex";"rumah monica";"VJX2+J2V, Perk Julok Rayeuk Utara, Kec. Indra Makmur, Kabupaten Aceh Timur, Aceh 24457";"Perk Julok Rayeuk Utara, Kec. Indra Makmur, Kabupaten Aceh Timur";"ACEH";"24457";"Indonesia";"";"4.8977141";"97.5994515";"https://maps.google.com/?cid=0x0:0x7b9e18dd53edaa62"
"housing complex";"housing complex";"ayu lestari home's";"WJ27+C8H, Alue Ie Itam, Kec. Indra Makmur, Kabupaten Aceh Timur, Aceh 24457";"Alue Ie Itam, Kec. Indra Makmur, Kabupaten Aceh Timur";"ACEH";"24457";"Indonesia";"";"4.9020013";"97.6138509";"https://maps.google.com/?cid=0x0:0x5d755079e6dc1ed1"
"housing complex";"housing complex";"rumah aidil";"WQCC+HC5, Seuneubok Lapang, Kec. Darul Ihsan, Kabupaten Aceh Timur, Aceh 24457";"Seuneubok Lapang, Kec. Darul Ihsan, Kabupaten Aceh Timur";"ACEH";"24457";"Indonesia";"";"4.9201869";"97.7722807";"https://maps.google.com/?cid=0x0:0x5f8a78f963878050"
"housing complex";"Komplek perumahan";"Rumah Arka dan Tama";"VJRH+HV2, Seuneubok Cina, Kec. Indra Makmur, Kabupaten Aceh Timur, Aceh 24457";"Seuneubok Cina, Kec. Indra Makmur, Kabupaten Aceh Timur";"ACEH";"24457";"Indonesia";"";"4.8913841";"97.6296458";"https://maps.google.com/?cid=0x0:0xbff6183613a7d92a"
"housing complex";"Komplek perumahan";"Mutia Chairunnisa";"WHMW+5VC, Blang Nisam, Kec. Indra Makmur, Kabupaten Aceh Timur, Aceh 24457";"Blang Nisam, Kec. Indra Makmur, Kabupaten Aceh Timur";"ACEH";"24457";"Indonesia";"";"4.9330211";"97.5972725";"https://maps.google.com/?cid=0x0:0xd313b9bebdd0a545"
"housing complex";"Komplek perumahan";"Rumah isma";"PMRX+6CP, Seumanah Jaya, Kec. Rantau Peureulak, Kabupaten Aceh Timur, Aceh 24455";"Seumanah Jaya, Kec. Rantau Peureulak, Kabupaten Aceh Timur";"ACEH";"24455";"Indonesia";" 0895406490163";"4.7397819";"97.6980301";"https://maps.google.com/?cid=0x0:0x5fba95a72be1dd89"
"housing complex";"housing complex";"Rumah Resty";"VJJ9+996, Dusun Simpang Tiga A, Perk Julok Rayeuk Utara, Kec. Indra Makmur, Kabupaten Aceh Timur, Aceh";"Kabupaten Aceh Timur, Aceh";"ACEH";"";"Indonesia";"";"4.8809094";"97.6183889";"https://maps.google.com/?cid=0x0:0x70321d52cb9a3aec"
"housing complex";"Masjid";"Simpang mangga";"VJ7H+7C, Pelita Sagup Jaya, Kec. Indra Makmur, Kabupaten Aceh Timur, Aceh";"Kabupaten Aceh Timur, Aceh";"ACEH";"";"Indonesia";"";"4.86317";"97.62862";"https://maps.google.com/?cid=0x0:0xbf783746150efdfa"
"housing complex";"Komplek perumahan";"rumah dolah";"WHFP+VFM, lrg c, Jambo Lubok, Kec. Indra Makmur, Kabupaten Aceh Timur, Aceh 24458";"lrg c, Jambo Lubok, Kec. Indra Makmur, Kabupaten Aceh Timur";"ACEH";"24458";"Indonesia";"";"4.9244557";"97.5860559";"https://maps.google.com/?cid=0x0:0x8edfbbe1009680fd"
"housing complex";"Kantor Perusahaan";"Dusun Emplasmen Afdeling III";"RJMG+C88, Perk Julok Rayeuk Sel., Kec. Indra Makmur, Kabupaten Aceh Timur, Aceh";"Kabupaten Aceh Timur, Aceh";"ACEH";"";"Indonesia";"";"4.8335308";"97.6258162";"https://maps.google.com/?cid=0x0:0xe4086297ce6f04d2"
"housing complex";"housing complex";"Rumah Dinas Manajer";"WH9R+4XM, Desa Perkebunan, Alue Ie Mirah, Kec. Indra Makmur, Kabupaten Aceh Timur, Aceh";"Kabupaten Aceh Timur, Aceh";"ACEH";"";"Indonesia";"";"4.9178334";"97.5924101";"https://maps.google.com/?cid=0x0:0x5ff8c2c0ff563c0e"
"housing complex";"Komplek perumahan";"Rumah lakhshan";"3J47+9C, Labohan, Kec. Julok, Kabupaten Aceh Timur, Aceh";"Kabupaten Aceh Timur, Aceh";"ACEH";"";"Indonesia";"";"5.0559736";"97.6135801";"https://maps.google.com/?cid=0x0:0xc5cd376ee0e27e98"
"housing complex";"Komplek perumahan";"Rumah CEK BAS";"2HJV+V6F, Buket Dindeng, Kec. Julok, Kabupaten Aceh Timur, Aceh";"Kabupaten Aceh Timur, Aceh";"ACEH";"";"Indonesia";"";"5.031419";"97.592613";"https://maps.google.com/?cid=0x0:0x2e091301fb410acc"
"housing complex";"housing complex";"Kec. Julok";"Kabupaten Aceh Timur, Aceh";"Kabupaten Aceh Timur, Aceh";"ACEH";"";"Indonesia";"";"5.0420084";"97.6270812";"https://maps.google.com/?cid=0x0:0xcfeec36b993a81dd"
"housing complex";"Komplek perumahan";"M.yusuf";"3H2X+W44, Tumpok Teungoh, Kec. Julok, Kabupaten Aceh Timur, Aceh";"Kabupaten Aceh Timur, Aceh";"ACEH";"";"Indonesia";"";"5.05226";"97.5978236";"https://maps.google.com/?cid=0x0:0x88a614bfc7fb869b"
"housing complex";"Komplek perumahan";"RACHEL";"2JPP+VV3, Meudang Ara, Kec. Nurussalam, Kabupaten Aceh Timur, Aceh";"Kabupaten Aceh Timur, Aceh";"ACEH";"";"Indonesia";"";"5.0417322";"97.6400829";"https://maps.google.com/?cid=0x0:0xdef39c416946e2ce"
"housing complex";"Komplek perumahan";"Julokmeliponiculture";"2HXX+MQG, Jln, Buket Dindeng, Kec. Julok, Kabupaten Aceh Timur, Aceh 24458";"Jln, Buket Dindeng, Kec. Julok, Kabupaten Aceh Timur";"ACEH";"24458";"Indonesia";"";"5.0491929";"97.5994437";"https://maps.google.com/?cid=0x0:0xd7117d7749ae1d12"
"housing complex";"Komplek perumahan";"Seumatang";"3H7V+2WP, Seumatang, Kec. Julok, Kabupaten Aceh Timur, Aceh";"Kabupaten Aceh Timur, Aceh";"ACEH";"";"Indonesia";"";"5.0625789";"97.5948173";"https://maps.google.com/?cid=0x0:0x8a5f249ef2469696"
"housing complex";"Pembangunan Perumahan";"Poskesdes Teupin raya julok";"XJGF+MXH, Teupin Raya, Kec. Julok, Kabupaten Aceh Timur, Aceh";"Kabupaten Aceh Timur, Aceh";"ACEH";"";"Indonesia";"";"4.9766751";"97.624978";"https://maps.google.com/?cid=0x0:0x6ad33af9edc08d22"
"housing complex";"Komplek perumahan";"Manerampak";"2JW9+37M, Julok Tunong, Kec. Julok, Kabupaten Aceh Timur, Aceh 24458";"Julok Tunong, Kec. Julok, Kabupaten Aceh Timur";"ACEH";"24458";"Indonesia";"";"5.0452074";"97.618178";"https://maps.google.com/?cid=0x0:0xe60d865202eaa378"
"housing complex";"Komplek perumahan";"Rumah mukhlis";"2HXX+JV, Ujong Tunong, Kec. Julok, Kabupaten Aceh Timur, Aceh 24458";"Ujong Tunong, Kec. Julok, Kabupaten Aceh Timur";"ACEH";"24458";"Indonesia";"";"5.049117";"97.599673";"https://maps.google.com/?cid=0x0:0x644bb20742fb0e55"
"housing complex";"Komplek perumahan";"M.Yusuf Al-Fatih";"2JHP+89X, Unnamed Road, Alue Siwah Dua, Kec. Julok, Kabupaten Aceh Timur, Aceh 24458";"Unnamed Road, Alue Siwah Dua, Kec. Julok, Kabupaten Aceh Timur";"ACEH";"24458";"Indonesia";"";"5.0283599";"97.6359849";"https://maps.google.com/?cid=0x0:0x6268807ccbc482fb"
"housing complex";"Komplek perumahan";"Rumah Wardani";"2HJV+V5V, Buket Dindeng, Kec. Julok, Kabupaten Aceh Timur, Aceh";"Kabupaten Aceh Timur, Aceh";"ACEH";"";"Indonesia";"";"5.0322331";"97.5928992";"https://maps.google.com/?cid=0x0:0x3686a4e32f428549"
"housing complex";"Pembangunan Perumahan";"My Home";"2JV8+PG9, Julok Tunong, Kec. Julok, Kabupaten Aceh Timur, Aceh 24458";"Julok Tunong, Kec. Julok, Kabupaten Aceh Timur";"ACEH";"24458";"Indonesia";"";"5.0441524";"97.6162926";"https://maps.google.com/?cid=0x0:0x751d034d3ccabb9d"
"housing complex";"Komplek perumahan";"Rumoeh tuha";"2JQQ+MCM, Meudang Ara, Kec. Nurussalam, Kabupaten Aceh Timur, Aceh 24458";"Meudang Ara, Kec. Nurussalam, Kabupaten Aceh Timur";"ACEH";"24458";"Indonesia";"";"5.0392361";"97.6385115";"https://maps.google.com/?cid=0x0:0x329f2bbf3a679224"
"housing complex";"housing complex";"Kec. Madat";"Kabupaten Aceh Timur, Aceh";"Kabupaten Aceh Timur, Aceh";"ACEH";"";"Indonesia";"";"5.1550012";"97.4962435";"https://maps.google.com/?cid=0x0:0x4039d80b2210590"
"housing complex";"housing complex";"Madat";"Kec. Madat, Kabupaten Aceh Timur, Aceh";"Kabupaten Aceh Timur, Aceh";"ACEH";"";"Indonesia";"";"5.1069984";"97.516602";"https://maps.google.com/?cid=0x0:0xff2034176ea7c50f"
"housing complex";"Komplek perumahan";"Rumah bidah madat";"4G87+GMW, Matang Keupula Dua, Kec. Madat, Kabupaten Aceh Timur, Aceh 24458";"Matang Keupula Dua, Kec. Madat, Kabupaten Aceh Timur";"ACEH";"24458";"Indonesia";"";"5.1174701";"97.5140624";"https://maps.google.com/?cid=0x0:0xe50b117f0176975a"
"housing complex";"Komplek perumahan";"RACHEL";"2JPP+VV3, Meudang Ara, Kec. Nurussalam, Kabupaten Aceh Timur, Aceh";"Kabupaten Aceh Timur, Aceh";"ACEH";"";"Indonesia";"";"5.0417322";"97.6400829";"https://maps.google.com/?cid=0x0:0xdef39c416946e2ce"
"housing complex";"Komplek perumahan";"Rumoeh tuha";"2JQQ+MCM, Meudang Ara, Kec. Nurussalam, Kabupaten Aceh Timur, Aceh 24458";"Meudang Ara, Kec. Nurussalam, Kabupaten Aceh Timur";"ACEH";"24458";"Indonesia";"";"5.0392361";"97.6385115";"https://maps.google.com/?cid=0x0:0x329f2bbf3a679224"
"housing complex";"housing complex";"Kec. Nurussalam";"Kabupaten Aceh Timur, Aceh";"Kabupaten Aceh Timur, Aceh";"ACEH";"";"Indonesia";"";"5.0288426";"97.6662315";"https://maps.google.com/?cid=0x0:0x8a1127d50c7b392d"
"housing complex";"Pembangunan Perumahan";"CV VII Gampong mesjid Nurussalam";"XMG7+F5W, Jln asamera dusun CV VII, Kp. Mesjid, Kec. Nurussalam, Kabupaten Aceh Timur";"Kabupaten Aceh Timur, Aceh";"ACEH";"";"Indonesia";"";"4.9762347";"97.6629495";"https://maps.google.com/?cid=0x0:0x7ff25a01983c2bf3"
"housing complex";"Komplek perumahan";"Muhammad sufi";"XJCR+GFQ, Gampong Lhee, Kec. Nurussalam, Kabupaten Aceh Timur, Aceh";"Kabupaten Aceh Timur, Aceh";"ACEH";"";"Indonesia";"";"4.9713312";"97.6412489";"https://maps.google.com/?cid=0x0:0x3484a3ca9830b693"
"housing complex";"Perhimpunan Pengembang Perumahan";"Rumah wadi";"XJJQ+4XR, Seuneubok Rambong, Kec. Nurussalam, Kabupaten Aceh Timur, Aceh 24458";"Seuneubok Rambong, Kec. Nurussalam, Kabupaten Aceh Timur";"ACEH";"24458";"Indonesia";"";"4.9803693";"97.6398929";"https://maps.google.com/?cid=0x0:0x627ce693b66c4c5"
"housing complex";"Balai masyarakat";"Gampong 3";"XJ7V+WW4, Gampong Lhee, Kec. Nurussalam, Kabupaten Aceh Timur, Aceh";"Kabupaten Aceh Timur, Aceh";"ACEH";"";"Indonesia";"";"4.9647746";"97.6448392";"https://maps.google.com/?cid=0x0:0x5bbb17554fa8d625"
"housing complex";"Komplek perumahan";"Meudang ara house";"2JQP+WPH, Jl. Medan - Banda Aceh, Meudang Ara, Kec. Nurussalam, Kabupaten Aceh Timur, Aceh";"Kabupaten Aceh Timur, Aceh";"ACEH";"";"Indonesia";"";"5.0398135";"97.6368643";"https://maps.google.com/?cid=0x0:0x87ee0d2c5b8edcae"
"housing complex";"Komplek perumahan";"Zahwa";"Asian Highway No.25, Kampung Keude Bagok, Nurussalam, East Aceh Regency, Aceh 24458";"Kampung Keude Bagok, Nurussalam, East Aceh Regency";"ACEH";"24458";"Indonesia";"";"5.028376";"97.6634245";"https://maps.google.com/?cid=0x0:0x723cf6a9256f0e48"
"housing complex";"Komplek perumahan";"RUMAH SEKDES KEUDE JURONG";"2JMW+Q4P, Dusun Pahlawan, Meunasah Teungoh, Kec. Nurussalam, Kabupaten Aceh Timur, Aceh";"Kabupaten Aceh Timur, Aceh";"ACEH";"";"Indonesia";"";"5.0344706";"97.6453173";"https://maps.google.com/?cid=0x0:0x407e43afdfbd33c5"
"housing complex";"Komplek perumahan";"Seuneubok Rambong Kec.Nurussalam";"2MH8+GFQ, Kp. Keude Bagok, Kec. Nurussalam, Kabupaten Aceh Timur, Aceh";"Kabupaten Aceh Timur, Aceh";"ACEH";"";"Indonesia";"";"5.0288426";"97.6662315";"https://maps.google.com/?cid=0x0:0xe1e83d616b051151"
"housing complex";"Pembangunan Perumahan";"Alue siwah";"WM86+R35, Alue Siwah Serdang, Kec. Nurussalam, Kabupaten Aceh Timur, Aceh";"Kabupaten Aceh Timur, Aceh";"ACEH";"";"Indonesia";"";"4.9170102";"97.6602365";"https://maps.google.com/?cid=0x0:0x3b150b71bc924a1c"
"housing complex";"Pembangunan Perumahan";"Tgk H Abdullah";"2MG6+G9, Kp. Keude Bagok, Kec. Nurussalam, Kabupaten Aceh Timur, Aceh 24458";"Kp. Keude Bagok, Kec. Nurussalam, Kabupaten Aceh Timur";"ACEH";"24458";"Indonesia";"";"5.026296";"97.6609363";"https://maps.google.com/?cid=0x0:0x6f6c8eda2d2ed3b5"
"housing complex";"Komplek perumahan";"RUMOH BANG MUH";"2JM9+X8H, Mane Rampak, Kec. Julok, Kabupaten Aceh Timur, Aceh 24458";"Mane Rampak, Kec. Julok, Kabupaten Aceh Timur";"ACEH";"24458";"Indonesia";"";"5.0349329";"97.6183694";"https://maps.google.com/?cid=0x0:0x29fb7b6a9dfdb99b"
"housing complex";"housing complex";"Kec. Pante Bidari";"Kabupaten Aceh Timur, Aceh";"Kabupaten Aceh Timur, Aceh";"ACEH";"";"Indonesia";"";"4.953656";"97.509824";"https://maps.google.com/?cid=0x0:0x16c3cbd7c02b2301"
"housing complex";"housing complex";"Aceh 24458";"Kabupaten Aceh Timur, Aceh";"Kabupaten Aceh Timur, Aceh";"ACEH";"";"Indonesia";"";"4.9131571";"97.5463885";"https://maps.google.com/?cid=0x0:0x82c363c7b075e66"
"housing complex";"housing complex";"Gn. Beudari";"Hutan, Kec. Cot Girek, Kabupaten Aceh Utara, Aceh";"Kabupaten Aceh Utara, Aceh";"ACEH";"";"Indonesia";"";"4.8136111";"97.3658333";"https://maps.google.com/?cid=0x0:0x79927f6a80bafdeb"
"housing complex";"Jus";"Matang Perlak Kec Pantee Bidari";"3GCJ+G56, Unnamed Road, Matang Peureulak, Kec. Pante Bidari, Kabupaten Aceh Timur, Aceh 24458";"Unnamed Road, Matang Peureulak, Kec. Pante Bidari, Kabupaten Aceh Timur";"ACEH";"24458";"Indonesia";"";"5.0712874";"97.5303862";"https://maps.google.com/?cid=0x0:0x1f9d0d065b9d1d1a"
"housing complex";"Masjid";"Masjid Baiturrahim Lhoknibong";"Dusun Masjid, Meunasah Teungoh, Kec. Pante Bidari, Kabupaten Aceh Timur, Aceh 24458";"Meunasah Teungoh, Kec. Pante Bidari, Kabupaten Aceh Timur";"ACEH";"24458";"Indonesia";"";"5.072453";"97.5214384";"https://maps.google.com/?cid=0x0:0xc136e3c4272baa09"
"housing complex";"Kantor Pemerintah";"POLSEK PANTEE BIDARI";"3G8C+37V, Jl. Teupin Bate, Meunasah Tunong, Kec. Pante Bidari, Kabupaten Aceh Timur, Aceh 24458";"Jl. Teupin Bate, Meunasah Tunong, Kec. Pante Bidari, Kabupaten Aceh Timur";"ACEH";"24458";"Indonesia";"";"5.0652278";"97.5206862";"https://maps.google.com/?cid=0x0:0xf660332707ca101b"
"housing complex";"Pusat Kesehatan Masyarakat";"Puskesmas Pantee Bidari";"3G7C+F4G, Meunasah Tunong, Kec. Pante Bidari, Kabupaten Aceh Timur, Aceh 24458";"Meunasah Tunong, Kec. Pante Bidari, Kabupaten Aceh Timur";"ACEH";"24458";"Indonesia";"";"5.0636768";"97.520317";"https://maps.google.com/?cid=0x0:0x8c63eb9a80d49652"
"housing complex";"Perhimpunan Pengembang Perumahan";"Dermaga Bedari";"CMMV+RMC Dermaga Bedari, Rantau Panjang, Kec. Simpang Jernih, kan. Aceh timur, Aceh";"kan. Aceh timur, Aceh";"ACEH";"";"Indonesia";"";"4.4345691";"97.6941543";"https://maps.google.com/?cid=0x0:0x633d46c2dcec439"
"housing complex";"Perhimpunan Pengembang Perumahan";"Rumah irwansyah";"VRXC+7JR, Kp. Keude, Kec. Peudawa, Kabupaten Aceh Timur, Aceh";"Kabupaten Aceh Timur, Aceh";"ACEH";"";"Indonesia";"";"4.8982409";"97.8215103";"https://maps.google.com/?cid=0x0:0x3b49a76c0b5e78da"
"housing complex";"Pusat Pendidikan";"MEUNASAH ALUE BATEE";"VRHV+2CF, Alue Batee, Kec. Peudawa, Kabupaten Aceh Timur, Aceh 24454";"Alue Batee, Kec. Peudawa, Kabupaten Aceh Timur";"ACEH";"24454";"Indonesia";"";"4.8775551";"97.8435553";"https://maps.google.com/?cid=0x0:0xdc53dc5043b56b15"
"housing complex";"housing complex";"Kec. Peudawa";"Kabupaten Aceh Timur, Aceh";"Kabupaten Aceh Timur, Aceh";"ACEH";"";"Indonesia";"";"4.898169";"97.8214679";"https://maps.google.com/?cid=0x0:0x220905180a6bf00b"
"housing complex";"Komplek perumahan";"Peudawa rayeuk";"XQ2C+356, Gampong Aceh, Kec. Idi Rayeuk, Kabupaten Aceh Timur, Aceh";"Kabupaten Aceh Timur, Aceh";"ACEH";"";"Indonesia";"";"4.9501675";"97.770381";"https://maps.google.com/?cid=0x0:0x1f57d980eeee341e"
"housing complex";"Komplek perumahan";"paya dua";"VRWQ+XFM, Paya Dua, Kec. Peudawa, Kabupaten Aceh Timur, Aceh";"Kabupaten Aceh Timur, Aceh";"ACEH";"";"Indonesia";"";"4.8974543";"97.8386757";"https://maps.google.com/?cid=0x0:0xa9a0b33ba5fb97f9"
"housing complex";"Pembangunan Perumahan";"Pspb";"VRJR+HP, Paya Bili Dua, Kec. Peudawa, Kabupaten Aceh Timur, Aceh";"Kabupaten Aceh Timur, Aceh";"ACEH";"";"Indonesia";"";"4.8814604";"97.8417615";"https://maps.google.com/?cid=0x0:0x9e754d52b3e8c044"
"housing complex";"Pembangunan Perumahan";"Perumahan Griya Ramama Raya Indah (RRI)";"Jl. Tuan Palam, Sama Dua, Kec. Peudawa, Kabupaten Aceh Timur, Aceh 24454";"Sama Dua, Kec. Peudawa, Kabupaten Aceh Timur";"ACEH";"24454";"Indonesia";" 081316033766";"4.9032989";"97.8196235";"https://maps.google.com/?cid=0x0:0xbc8d97c19a4ec15d"
"housing complex";"Perumahan";"Rumah nenek";"RV5R+75V, Jl.RSUD No.Desa, Lhok Dalam, Peureulak, East Aceh Regency, Aceh 24461";"Jl.RSUD No.Desa, Lhok Dalam, Peureulak, East Aceh Regency";"ACEH";"24461";"Indonesia";"";"4.8081802";"97.8905919";"https://maps.google.com/?cid=0x0:0x341fcc32c2f1c69c"
"housing complex";"Pembangunan Perumahan";"Perlak";"QV2P+X8, Krut Lintang, Kec. Peureulak Tim., Kabupaten Aceh Timur, Aceh";"Kabupaten Aceh Timur, Aceh";"ACEH";"";"Indonesia";" 081348330137";"4.7524834";"97.8857665";"https://maps.google.com/?cid=0x0:0x367fea2ad6996cd2"
"housing complex";"housing complex";"Aceh 24461";"Kabupaten Aceh Timur, Aceh";"Kabupaten Aceh Timur, Aceh";"ACEH";"";"Indonesia";"";"4.950275";"97.6792293";"https://maps.google.com/?cid=0x0:0x40ce92432b582121"
"housing complex";"Perhimpunan Pengembang Perumahan";"Rumoh Tgk Yan";"Seuneubok Baroh, Kec. Darul Aman, Kabupaten Aceh Timur, Aceh 24455";"Kec. Darul Aman, Kabupaten Aceh Timur";"ACEH";"24455";"Indonesia";"";"4.987014";"97.7260859";"https://maps.google.com/?cid=0x0:0x6268f443ae864e8f"
"housing complex";"housing complex";"Rumah paklek supri";"XP32+HHX, Alur Merbo, Kec. Darul Aman, Kabupaten Aceh Timur, Aceh";"Kabupaten Aceh Timur, Aceh";"ACEH";"";"Indonesia";"";"4.9544689";"97.7014754";"https://maps.google.com/?cid=0x0:0xa6c3ca567dd34b78"
"housing complex";"Perhimpunan Pengembang Perumahan";"Rumah Tgk. Marzuki Cut Ali";"QV6W+2J9, Dusun Lampoh Pala, Seuneubok Peusangan, Kec. Peureulak, Kabupaten Aceh Timur, Aceh";"Kabupaten Aceh Timur, Aceh";"ACEH";"";"Indonesia";"";"4.7600406";"97.8966092";"https://maps.google.com/?cid=0x0:0xd94bc86969395073"
"housing complex";"Balai masyarakat";"Gampong 3";"XJ7V+WW4, Gampong Lhee, Kec. Nurussalam, Kabupaten Aceh Timur, Aceh";"Kabupaten Aceh Timur, Aceh";"ACEH";"";"Indonesia";"";"4.9647746";"97.6448392";"https://maps.google.com/?cid=0x0:0x5bbb17554fa8d625"
"housing complex";"Komplek perumahan";"Cek yus";"WPX2+P55, Meunasah Keutapang, Kec. Darul Aman, Kabupaten Aceh Timur, Aceh";"Kabupaten Aceh Timur, Aceh";"ACEH";"";"Indonesia";"";"4.9492546";"97.7004709";"https://maps.google.com/?cid=0x0:0x8c6dbbec55adc6e6"
"housing complex";"Komplek perumahan";"Rumah Tina";"RVHJ+2Q, Tj. Tualang, Kec. Peureulak Bar., Kabupaten Aceh Timur, Aceh";"Kabupaten Aceh Timur, Aceh";"ACEH";"";"Indonesia";"";"4.8275129";"97.8819904";"https://maps.google.com/?cid=0x0:0xb6be8ecd32495f72"
"housing complex";"Tempat Ibadah";"Menasah ketapang";"XM8X+3C, Buket Raya, Kec. Darul Aman, Kabupaten Aceh Timur, Aceh";"Kabupaten Aceh Timur, Aceh";"ACEH";"";"Indonesia";"";"4.9651291";"97.6985429";"https://maps.google.com/?cid=0x0:0xf278c016770ab8c9"
"housing complex";"Komplek perumahan";"Perumahan fhona resident";"XQ2G+5H2, Tanoh Anou, Kec. Idi Rayeuk, Kabupaten Aceh Timur, Aceh";"Kabupaten Aceh Timur, Aceh";"ACEH";"";"Indonesia";"";"4.9503826";"97.7763781";"https://maps.google.com/?cid=0x0:0x677f6f3689140e6d"
"housing complex";"Perhimpunan Pengembang Perumahan";"Seuneubôk tuha sa";"XMFP+7JJ dusun caleu, Seuneubok Tuha I, Kec. Darul Aman, Kabupaten Aceh Timur, Aceh";"Kabupaten Aceh Timur, Aceh";"ACEH";"";"Indonesia";"";"4.9732206";"97.6865214";"https://maps.google.com/?cid=0x0:0xb5fe8b4c4d6ce41e"
"housing complex";"Perumahan";"Rumah Peureulak";"QVWR+JRR, Keumuneng, Kec. Peureulak, Kabupaten Aceh Timur, Aceh 24458";"Keumuneng, Kec. Peureulak, Kabupaten Aceh Timur";"ACEH";"24458";"Indonesia";"";"4.7966186";"97.8920062";"https://maps.google.com/?cid=0x0:0xeef7e426c7be9e42"
"housing complex";"Pom bensin/SPBU";"Ķampung pertamina";"RRGX+8G8, Jl. Ranto Panjang, Kebun Teumpeun, Kec. Peureulak Bar., Kabupaten Aceh Timur, Aceh 24453";"Jl. Ranto Panjang, Kebun Teumpeun, Kec. Peureulak Bar., Kabupaten Aceh Timur";"ACEH";"24453";"Indonesia";"";"4.8257972";"97.8488426";"https://maps.google.com/?cid=0x0:0xf7b5f94a55c57542"
"housing complex";"housing complex";"Aceh 24453";"Kabupaten Aceh Timur, Aceh";"Kabupaten Aceh Timur, Aceh";"ACEH";"";"Indonesia";"";"4.7563162";"97.7742702";"https://maps.google.com/?cid=0x0:0x3f249fb702225b43"
"housing complex";"Perumahan";"Perlak";"RV4Q+PCR, Lhok Dalam, Kec. Peureulak, Kabupaten Aceh Timur, Aceh 24461";"Lhok Dalam, Kec. Peureulak, Kabupaten Aceh Timur";"ACEH";"24461";"Indonesia";"";"4.8068704";"97.8885063";"https://maps.google.com/?cid=0x0:0xef1380fd3d139298"
"housing complex";"Komplek perumahan";"Dusun selangga";"QRV5+X77, Alue Dua, Kec. Rantau Peureulak, Kabupaten Aceh Timur, Aceh 24453";"Alue Dua, Kec. Rantau Peureulak, Kabupaten Aceh Timur";"ACEH";"24453";"Indonesia";"";"4.7949184";"97.8081565";"https://maps.google.com/?cid=0x0:0xea68ec6c5d4c5b7f"
"housing complex";"Komplek perumahan";"Rumah zikri";"QRF9+P25, Unnamed Road, Alue Rambong, Kec. Peureulak, Kabupaten Aceh Timur, Aceh 24453";"Unnamed Road, Alue Rambong, Kec. Peureulak, Kabupaten Aceh Timur";"ACEH";"24453";"Indonesia";"";"4.7742622";"97.8176226";"https://maps.google.com/?cid=0x0:0x38b73efb49dde428"
"housing complex";"housing complex";"BUKET TURSINA";"RV49+7F, Blang Batee, Kec. Peureulak, Kabupaten Aceh Timur, Aceh";"Kabupaten Aceh Timur, Aceh";"ACEH";"";"Indonesia";"";"4.80571";"97.868652";"https://maps.google.com/?cid=0x0:0x94d7921c24a45eb5"
"housing complex";"Perhimpunan Pengembang Perumahan";"ASMA";"RQ4X+2RR, Buket Pala Bsp, Kec. Rantau Peureulak, Kabupaten Aceh Timur, Aceh";"Kabupaten Aceh Timur, Aceh";"ACEH";"";"Indonesia";"";"4.8051055";"97.7995301";"https://maps.google.com/?cid=0x0:0x306f9a4b9df695d1"
"housing complex";"Komplek perumahan";"EDM Homestay";"RV8H+CX7, Tj. Tualang, Kec. Peureulak Bar., Kabupaten Aceh Timur, Aceh";"Kabupaten Aceh Timur, Aceh";"ACEH";"";"Indonesia";"";"4.8160383";"97.8799224";"https://maps.google.com/?cid=0x0:0x388e4b0e67a92ca2"
"housing complex";"Perhimpunan Pengembang Perumahan";"Rumah C'princeZz";"RR32+C32, Buket Pala Bsp, Kec. Rantau Peureulak, Kabupaten Aceh Timur, Aceh 24453";"Buket Pala Bsp, Kec. Rantau Peureulak, Kabupaten Aceh Timur";"ACEH";"24453";"Indonesia";"";"4.8035156";"97.800132";"https://maps.google.com/?cid=0x0:0x5723051c7cc0b936"
"housing complex";"Pembangunan Perumahan";"Tanjong pakis";"RV68+VQ7, Unnamed Road, Blang Batee, Kec. Peureulak, Kabupaten Aceh Timur, Aceh 24453";"Unnamed Road, Blang Batee, Kec. Peureulak, Kabupaten Aceh Timur";"ACEH";"24453";"Indonesia";"";"4.812165";"97.8669343";"https://maps.google.com/?cid=0x0:0xe68a9d230dce3c4f"
"housing complex";"Gedung Pernikahan";"Loakasi acara";"QRW8+R9R, Pasir Putih, Kec. Rantau Peureulak, Kabupaten Aceh Timur, Aceh 24453";"Pasir Putih, Kec. Rantau Peureulak, Kabupaten Aceh Timur";"ACEH";"24453";"Indonesia";"";"4.79671";"97.816503";"https://maps.google.com/?cid=0x0:0x555ab8ca615f0ab7"
"housing complex";"Komplek perumahan";"RUMAH KUSAY";"RR22+XJP, Buket Pala Bsp, Kec. Rantau Peureulak, Kabupaten Aceh Timur, Aceh 24453";"Buket Pala Bsp, Kec. Rantau Peureulak, Kabupaten Aceh Timur";"ACEH";"24453";"Indonesia";"";"4.8024695";"97.8015834";"https://maps.google.com/?cid=0x0:0x8e32e9b5ab8b457d"
"housing complex";"Perumahan";"Aceh";"QVXV+R27 Menasah Pasi Puteh Ranto, Lhok Dalam, Kec. Peureulak, Kabupaten Aceh Timur, Aceh 24458";"Lhok Dalam, Kec. Peureulak, Kabupaten Aceh Timur";"ACEH";"24458";"Indonesia";"";"4.7994705";"97.8922331";"https://maps.google.com/?cid=0x0:0xa12ff7023e6adf1b"
"housing complex";"Komplek perumahan";"Pondok Seleksi";"QQ9C+6GF, Alue Geunteng, Kec. Rantau Peureulak, Kabupaten Aceh Timur, Aceh 24453";"Alue Geunteng, Kec. Rantau Peureulak, Kabupaten Aceh Timur";"ACEH";"24453";"Indonesia";"";"4.7680612";"97.7713098";"https://maps.google.com/?cid=0x0:0xd1ffd6d7138bf284"
"housing complex";"housing complex";"rumah zikrillahazmi";"RR22+WXW, Buket Pala Bsp, Kec. Rantau Peureulak, Kabupaten Aceh Timur, Aceh 24453";"Buket Pala Bsp, Kec. Rantau Peureulak, Kabupaten Aceh Timur";"ACEH";"24453";"Indonesia";"";"4.802375";"97.8024605";"https://maps.google.com/?cid=0x0:0x3a8e8806c8c9f958"
"housing complex";"Perumahan";"Perlak";"RV4Q+PCR, Lhok Dalam, Kec. Peureulak, Kabupaten Aceh Timur, Aceh 24461";"Lhok Dalam, Kec. Peureulak, Kabupaten Aceh Timur";"ACEH";"24461";"Indonesia";"";"4.8068704";"97.8885063";"https://maps.google.com/?cid=0x0:0xef1380fd3d139298"
"housing complex";"housing complex";"Kec. Peureulak Bar.";"Kabupaten Aceh Timur, Aceh";"Kabupaten Aceh Timur, Aceh";"ACEH";"";"Indonesia";"";"4.8352078";"97.8855303";"https://maps.google.com/?cid=0x0:0xf81bdf02e8d21720"
"housing complex";"Komplek perumahan";"EDM Homestay";"RV8H+CX7, Tj. Tualang, Kec. Peureulak Bar., Kabupaten Aceh Timur, Aceh";"Kabupaten Aceh Timur, Aceh";"ACEH";"";"Indonesia";"";"4.8160383";"97.8799224";"https://maps.google.com/?cid=0x0:0x388e4b0e67a92ca2"
"housing complex";"Perumahan";"SYUK";"RV6V+PMC, Pasir Putih, Kec. Peureulak, Kabupaten Aceh Timur, Aceh";"Kabupaten Aceh Timur, Aceh";"ACEH";"";"Indonesia";"";"4.8118001";"97.8941359";"https://maps.google.com/?cid=0x0:0x12f7e759a29aff42"
"housing complex";"Pembangunan Perumahan";"ZAHARA";"RVFR+6WF, Jl. Kuala Bugak, Cot Keh, Kec. Peureulak, Kabupaten Aceh Timur, Aceh 24453";"Jl. Kuala Bugak, Cot Keh, Kec. Peureulak, Kabupaten Aceh Timur";"ACEH";"24453";"Indonesia";" 087747786327";"4.8237698";"97.8924577";"https://maps.google.com/?cid=0x0:0x9b7d628a267070fc"
"housing complex";"Perhimpunan Pengembang Perumahan";"Mess";"VV75+5VF, Alue Bu Jl., Kec. Peureulak Bar., Kabupaten Aceh Timur, Aceh 24454";"Alue Bu Jl., Kec. Peureulak Bar., Kabupaten Aceh Timur";"ACEH";"24454";"Indonesia";"";"4.8629456";"97.8596831";"https://maps.google.com/?cid=0x0:0xe93c5f2f1c2df3c3"
"housing complex";"Perumahan";"Astra Rent House";"RV6V+MJ9, Pasir Putih, Kec. Peureulak, Kabupaten Aceh Timur, Aceh 24458";"Pasir Putih, Kec. Peureulak, Kabupaten Aceh Timur";"ACEH";"24458";"Indonesia";"";"4.8116729";"97.8941143";"https://maps.google.com/?cid=0x0:0x32e6e98779e39fa4"
"housing complex";"housing complex";"BUKET TURSINA";"RV49+7F, Blang Batee, Kec. Peureulak, Kabupaten Aceh Timur, Aceh";"Kabupaten Aceh Timur, Aceh";"ACEH";"";"Indonesia";"";"4.80571";"97.868652";"https://maps.google.com/?cid=0x0:0x94d7921c24a45eb5"
"housing complex";"Perhimpunan Pengembang Perumahan";"Peureulak";"VWJ2+7RX, Kuala Bugak, Kec. Peureulak, Kabupaten Aceh Timur, Aceh";"Kabupaten Aceh Timur, Aceh";"ACEH";"";"Indonesia";"";"4.8807431";"97.9020977";"https://maps.google.com/?cid=0x0:0x13b9565b48e229"
"housing complex";"Pembangunan Perumahan";"Rmh m.nasir";"VVR6+GW8, Alue Bu Jl. Baroh, Kec. Peureulak Bar., Kabupaten Aceh Timur, Aceh";"Kabupaten Aceh Timur, Aceh";"ACEH";"";"Indonesia";"";"4.8912852";"97.8623375";"https://maps.google.com/?cid=0x0:0x7303a9cdd8eca3c5"
"housing complex";"Perumahan";"Aceh";"QVXV+R27 Menasah Pasi Puteh Ranto, Lhok Dalam, Kec. Peureulak, Kabupaten Aceh Timur, Aceh 24458";"Lhok Dalam, Kec. Peureulak, Kabupaten Aceh Timur";"ACEH";"24458";"Indonesia";"";"4.7994705";"97.8922331";"https://maps.google.com/?cid=0x0:0xa12ff7023e6adf1b"
"housing complex";"Pembangunan Perumahan";"cek wan";"VVF3+CFW, Alue Bu Tuha, Kec. Peureulak Bar., Kabupaten Aceh Timur, Aceh 24454";"Alue Bu Tuha, Kec. Peureulak Bar., Kabupaten Aceh Timur";"ACEH";"24454";"Indonesia";"";"4.8736161";"97.8536907";"https://maps.google.com/?cid=0x0:0xc57df2ba28963a65"
"housing complex";"Pom bensin/SPBU";"Ķampung pertamina";"RRGX+8G8, Jl. Ranto Panjang, Kebun Teumpeun, Kec. Peureulak Bar., Kabupaten Aceh Timur, Aceh 24453";"Jl. Ranto Panjang, Kebun Teumpeun, Kec. Peureulak Bar., Kabupaten Aceh Timur";"ACEH";"24453";"Indonesia";"";"4.8257972";"97.8488426";"https://maps.google.com/?cid=0x0:0xf7b5f94a55c57542"
"housing complex";"Komplek perumahan";"Rumah Evi Nurmaliza";"RV7V+HMG, Tj. Tualang, Kec. Peureulak Bar., Kabupaten Aceh Timur, Aceh 24458";"Tj. Tualang, Kec. Peureulak Bar., Kabupaten Aceh Timur";"ACEH";"24458";"Indonesia";"";"4.8139263";"97.8941991";"https://maps.google.com/?cid=0x0:0x88860c82b64ccb5e"
"housing complex";"housing complex";"Kec. Peureulak Tim.";"Kabupaten Aceh Timur, Aceh";"Kabupaten Aceh Timur, Aceh";"ACEH";"";"Indonesia";"";"4.7052499";"97.9061797";"https://maps.google.com/?cid=0x0:0x4e30e6079924e507"
"housing complex";"Komplek perumahan";"Rumah saya";"PVMW+WM5, Seumatang Keude, Kec. Peureulak Tim., Kabupaten Aceh Timur, Aceh 24452";"Seumatang Keude, Kec. Peureulak Tim., Kabupaten Aceh Timur";"ACEH";"24452";"Indonesia";" 081287680359";"4.7345157";"97.8959667";"https://maps.google.com/?cid=0x0:0x688c2b236f7dd8af"
"housing complex";"Pembangunan Perumahan";"Perlak";"QV2P+X8, Krut Lintang, Kec. Peureulak Tim., Kabupaten Aceh Timur, Aceh";"Kabupaten Aceh Timur, Aceh";"ACEH";"";"Indonesia";" 081348330137";"4.7524834";"97.8857665";"https://maps.google.com/?cid=0x0:0x367fea2ad6996cd2"
"housing complex";"Pembangunan Perumahan";"Mujib Andesca";"PW54+C46, Alue Bu/Alue Lhok, Kec. Peureulak Tim., Kabupaten Aceh Timur, Aceh 24452";"Alue Bu/Alue Lhok, Kec. Peureulak Tim., Kabupaten Aceh Timur";"ACEH";"24452";"Indonesia";"";"4.7092845";"97.9046082";"https://maps.google.com/?cid=0x0:0x25214138e25c8e0c"
"housing complex";"Perumahan";"Perlak";"RV4Q+PCR, Lhok Dalam, Kec. Peureulak, Kabupaten Aceh Timur, Aceh 24461";"Lhok Dalam, Kec. Peureulak, Kabupaten Aceh Timur";"ACEH";"24461";"Indonesia";"";"4.8068704";"97.8885063";"https://maps.google.com/?cid=0x0:0xef1380fd3d139298"
"housing complex";"Pembangunan Perumahan";"Lhok paya";"QRJV+22X, Buket Pala, Kec. Peureulak, Kabupaten Aceh Timur, Aceh 24453";"Buket Pala, Kec. Peureulak, Kabupaten Aceh Timur";"ACEH";"24453";"Indonesia";"";"4.7800336";"97.8429406";"https://maps.google.com/?cid=0x0:0x9484c30ce9bf9259"
"housing complex";"Pembangunan Perumahan";"Sahida";"PVXF+HQ7, Jeungki, Kec. Peureulak Tim., Kabupaten Aceh Timur, Aceh";"Kabupaten Aceh Timur, Aceh";"ACEH";"";"Indonesia";"";"4.747946";"97.8744524";"https://maps.google.com/?cid=0x0:0xfe2912a9a4a10d75"
"housing complex";"Pembangunan Perumahan";"HB Peureulak";"QVMP+WJ3, Alue Nibong, Kec. Peureulak, Kabupaten Aceh Timur, Aceh 24458";"Alue Nibong, Kec. Peureulak, Kabupaten Aceh Timur";"ACEH";"24458";"Indonesia";"";"4.784758";"97.886537";"https://maps.google.com/?cid=0x0:0x74091cbb91cc320"
"housing complex";"Komplek perumahan";"Tanoh rata";"PW44+4C4, Seuneubok Teungoh, Kec. Peureulak Tim., Kabupaten Aceh Timur, Aceh";"Kabupaten Aceh Timur, Aceh";"ACEH";"";"Indonesia";"";"4.705252";"97.9060852";"https://maps.google.com/?cid=0x0:0xc2b6d4fb00876a1e"
"housing complex";"Balai masyarakat";"Rumah maha";"QV9M+76, Dama Tutong, Kec. Peureulak, Kabupaten Aceh Timur, Aceh";"Kabupaten Aceh Timur, Aceh";"ACEH";"";"Indonesia";"";"4.7682712";"97.8830621";"https://maps.google.com/?cid=0x0:0xaf4d473b6000b9a5"
"housing complex";"Perumahan";"Aceh";"QVXV+R27 Menasah Pasi Puteh Ranto, Lhok Dalam, Kec. Peureulak, Kabupaten Aceh Timur, Aceh 24458";"Lhok Dalam, Kec. Peureulak, Kabupaten Aceh Timur";"ACEH";"24458";"Indonesia";"";"4.7994705";"97.8922331";"https://maps.google.com/?cid=0x0:0xa12ff7023e6adf1b"
"housing complex";"Pembangunan Perumahan";"AMIR";"PRX8+G28, Leubuk Pempeng, Kec. Peureulak, Kabupaten Aceh Timur, Aceh 24453";"Leubuk Pempeng, Kec. Peureulak, Kabupaten Aceh Timur";"ACEH";"24453";"Indonesia";"";"4.7488501";"97.8151936";"https://maps.google.com/?cid=0x0:0xc1e5888540844ed8"
"housing complex";"Komplek perumahan";"Pondok";"PRGV+VJG, Leubuk Pempeng, Kec. Peureulak, Kabupaten Aceh Timur, Aceh 24458";"Leubuk Pempeng, Kec. Peureulak, Kabupaten Aceh Timur";"ACEH";"24458";"Indonesia";"";"4.7271642";"97.8441179";"https://maps.google.com/?cid=0x0:0x1e8262bdef4c8648"
"housing complex";"Komplek perumahan";"Rumah salman";"QW58+C6, Kuala Leuge, Kec. Peureulak, Kabupaten Aceh Timur, Aceh 24458";"Kuala Leuge, Kec. Peureulak, Kabupaten Aceh Timur";"ACEH";"24458";"Indonesia";"";"4.7586176";"97.915576";"https://maps.google.com/?cid=0x0:0xef4247575f2aa95b"
"housing complex";"Pembangunan Perumahan";"Investasi property";"JWCR+G2Q, Unnamed Road, Rantau Panjang, Kec. Rantau Selamat, Kabupaten Aceh Timur, Aceh 24452";"Unnamed Road, Rantau Panjang, Kec. Rantau Selamat, Kabupaten Aceh Timur";"ACEH";"24452";"Indonesia";" 082370886681";"4.6213464";"97.9401108";"https://maps.google.com/?cid=0x0:0x57a9ccd36f677cd4"
"housing complex";"Perhimpunan Pengembang Perumahan";"perumahan dapu arang";"JW5G+VH3, Sarah Teubee, Kec. Rantau Selamat, Kabupaten Aceh Timur, Aceh 24452";"Sarah Teubee, Kec. Rantau Selamat, Kabupaten Aceh Timur";"ACEH";"24452";"Indonesia";"";"4.6096454";"97.9264225";"https://maps.google.com/?cid=0x0:0x82f24d73f64ee1cd"
"housing complex";"housing complex";"Aceh 24452";"Kabupaten Aceh Timur, Aceh";"Kabupaten Aceh Timur, Aceh";"ACEH";"";"Indonesia";"";"4.6428925";"97.8286368";"https://maps.google.com/?cid=0x0:0xab6d8837867af58f"
"housing complex";"Komplek perumahan";"Rumah hagi";"MP43+4X7, Seumanah Jaya, Kec. Rantau Peureulak, Kabupaten Aceh Timur, Aceh 24458";"Seumanah Jaya, Kec. Rantau Peureulak, Kabupaten Aceh Timur";"ACEH";"24458";"Indonesia";"";"4.6552861";"97.7052328";"https://maps.google.com/?cid=0x0:0x21600049d026f29d"
"housing complex";"Komplek perumahan";"Rumah Fadel";"HWJ7+Q5, Gampong Bayeun, Kec. Rantau Selamat, Kabupaten Aceh Timur, Aceh";"Kabupaten Aceh Timur, Aceh";"ACEH";"";"Indonesia";"";"4.5819357";"97.9129523";"https://maps.google.com/?cid=0x0:0x593a0e4faa700a93"
"housing complex";"Komplek perumahan";"Gubuk wak brewok";"MP2F+2V2, Alue Tuwi, Kec. Rantau Selamat, Kabupaten Aceh Timur, Aceh";"Kabupaten Aceh Timur, Aceh";"ACEH";"";"Indonesia";"";"4.6500125";"97.7246406";"https://maps.google.com/?cid=0x0:0xbe67d589d1701ac6"
"housing complex";"Pembangunan Perumahan";"Dusun Tualang";"Dusun Tualang,Rt06,Kel, Gampong Bayeun, Kec. Rantau Selamat, Kabupaten Aceh Timur";"Kabupaten Aceh Timur, Aceh";"ACEH";"";"Indonesia";"";"4.5854357";"97.932048";"https://maps.google.com/?cid=0x0:0x3e7384dbf96eb1a1"
"housing complex";"Komplek perumahan";"Rumah Bang Adi";"JWPJ+MR, Seuneubok Dalam, Kec. Rantau Selamat, Kabupaten Aceh Timur, Aceh 24452";"Seuneubok Dalam, Kec. Rantau Selamat, Kabupaten Aceh Timur";"ACEH";"24452";"Indonesia";"";"4.6367036";"97.9320038";"https://maps.google.com/?cid=0x0:0x3ad36ec31185babe"
"housing complex";"Perhimpunan Pengembang Perumahan";"ASMA";"RQ4X+2RR, Buket Pala Bsp, Kec. Rantau Peureulak, Kabupaten Aceh Timur, Aceh";"Kabupaten Aceh Timur, Aceh";"ACEH";"";"Indonesia";"";"4.8051055";"97.7995301";"https://maps.google.com/?cid=0x0:0x306f9a4b9df695d1"
"housing complex";"Komplek perumahan";"Perumahan Di Visi4";"MR6F+R98, Gajah Mentah, Kec. Sungai Raya, Kabupaten Aceh Timur, Aceh 24452";"Gajah Mentah, Kec. Sungai Raya, Kabupaten Aceh Timur";"ACEH";"24452";"Indonesia";"";"4.661099";"97.823305";"https://maps.google.com/?cid=0x0:0x9dbde86eff794f39"
"housing complex";"Komplek perumahan";"Rumah Mabar ml mulkan";"JW8J+FR3, Rantau Panjang, Kec. Rantau Selamat, Kabupaten Aceh Timur, Aceh";"Kabupaten Aceh Timur, Aceh";"ACEH";"";"Indonesia";"";"4.6161387";"97.932048";"https://maps.google.com/?cid=0x0:0x6d637d4958c8ba37"
"housing complex";"Komplek perumahan";"Dusun selangga";"QRV5+X77, Alue Dua, Kec. Rantau Peureulak, Kabupaten Aceh Timur, Aceh 24453";"Alue Dua, Kec. Rantau Peureulak, Kabupaten Aceh Timur";"ACEH";"24453";"Indonesia";"";"4.7949184";"97.8081565";"https://maps.google.com/?cid=0x0:0xea68ec6c5d4c5b7f"
"housing complex";"Komplek perumahan";"Idris";"JWWJ+58F, Bukit Selamat, Kec. Sungai Raya, Kabupaten Aceh Timur, Aceh 24452";"Bukit Selamat, Kec. Sungai Raya, Kabupaten Aceh Timur";"ACEH";"24452";"Indonesia";"";"4.6454267";"97.9307955";"https://maps.google.com/?cid=0x0:0xb911b26a42f5bf73"
"housing complex";"Minimarket";"Buket selamat";"MW2H+63V, Bukit Selamat, Kec. Sungai Raya, Kabupaten Aceh Timur, Aceh 24452";"Bukit Selamat, Kec. Sungai Raya, Kabupaten Aceh Timur";"ACEH";"24452";"Indonesia";"";"4.6506204";"97.927664";"https://maps.google.com/?cid=0x0:0x15b488e05385e410"
"housing complex";"housing complex";"BUKET TURSINA";"RV49+7F, Blang Batee, Kec. Peureulak, Kabupaten Aceh Timur, Aceh";"Kabupaten Aceh Timur, Aceh";"ACEH";"";"Indonesia";"";"4.80571";"97.868652";"https://maps.google.com/?cid=0x0:0x94d7921c24a45eb5"
"housing complex";"housing complex";"Aceh 24453";"Kabupaten Aceh Timur, Aceh";"Kabupaten Aceh Timur, Aceh";"ACEH";"";"Indonesia";"";"4.7563162";"97.7742702";"https://maps.google.com/?cid=0x0:0x3f249fb702225b43"
"housing complex";"Komplek perumahan";"Dusun selangga";"QRV5+X77, Alue Dua, Kec. Rantau Peureulak, Kabupaten Aceh Timur, Aceh 24453";"Alue Dua, Kec. Rantau Peureulak, Kabupaten Aceh Timur";"ACEH";"24453";"Indonesia";"";"4.7949184";"97.8081565";"https://maps.google.com/?cid=0x0:0xea68ec6c5d4c5b7f"
"housing complex";"Perumahan";"Perlak";"RV4Q+PCR, Lhok Dalam, Kec. Peureulak, Kabupaten Aceh Timur, Aceh 24461";"Lhok Dalam, Kec. Peureulak, Kabupaten Aceh Timur";"ACEH";"24461";"Indonesia";"";"4.8068704";"97.8885063";"https://maps.google.com/?cid=0x0:0xef1380fd3d139298"
"housing complex";"Komplek perumahan";"rumah bg ajis ranto";"RR32+C32, Buket Pala Bsp, Kec. Rantau Peureulak, Kabupaten Aceh Timur, Aceh 24453";"Buket Pala Bsp, Kec. Rantau Peureulak, Kabupaten Aceh Timur";"ACEH";"24453";"Indonesia";"";"4.8035156";"97.800132";"https://maps.google.com/?cid=0x0:0x6bdfb69241153b97"
"housing complex";"Komplek perumahan";"Rumah zikri";"QRF9+P25, Unnamed Road, Alue Rambong, Kec. Peureulak, Kabupaten Aceh Timur, Aceh 24453";"Unnamed Road, Alue Rambong, Kec. Peureulak, Kabupaten Aceh Timur";"ACEH";"24453";"Indonesia";"";"4.7742622";"97.8176226";"https://maps.google.com/?cid=0x0:0x38b73efb49dde428"
"housing complex";"Komplek perumahan";"RUMAH TGK. FADLON";"RQHV+VJV, Desa Matai, buket seulamat, Kec. Rantau Peureulak, Kabupaten Aceh Timur, Aceh";"Kabupaten Aceh Timur, Aceh";"ACEH";"";"Indonesia";"";"4.8297297";"97.7940367";"https://maps.google.com/?cid=0x0:0xf2511d2fcee1f3a"
"housing complex";"Pom bensin/SPBU";"Ķampung pertamina";"RRGX+8G8, Jl. Ranto Panjang, Kebun Teumpeun, Kec. Peureulak Bar., Kabupaten Aceh Timur, Aceh 24453";"Jl. Ranto Panjang, Kebun Teumpeun, Kec. Peureulak Bar., Kabupaten Aceh Timur";"ACEH";"24453";"Indonesia";"";"4.8257972";"97.8488426";"https://maps.google.com/?cid=0x0:0xf7b5f94a55c57542"
"housing complex";"Perhimpunan Pengembang Perumahan";"ASMA";"RQ4X+2RR, Buket Pala Bsp, Kec. Rantau Peureulak, Kabupaten Aceh Timur, Aceh";"Kabupaten Aceh Timur, Aceh";"ACEH";"";"Indonesia";"";"4.8051055";"97.7995301";"https://maps.google.com/?cid=0x0:0x306f9a4b9df695d1"
"housing complex";"Perumahan";"SYUK";"RV6V+PMC, Pasir Putih, Kec. Peureulak, Kabupaten Aceh Timur, Aceh";"Kabupaten Aceh Timur, Aceh";"ACEH";"";"Indonesia";"";"4.8118001";"97.8941359";"https://maps.google.com/?cid=0x0:0x12f7e759a29aff42"
"housing complex";"housing complex";"rumah zikrillahazmi";"RR22+WXW, Buket Pala Bsp, Kec. Rantau Peureulak, Kabupaten Aceh Timur, Aceh 24453";"Buket Pala Bsp, Kec. Rantau Peureulak, Kabupaten Aceh Timur";"ACEH";"24453";"Indonesia";"";"4.802375";"97.8024605";"https://maps.google.com/?cid=0x0:0x3a8e8806c8c9f958"
"housing complex";"Komplek perumahan";"BD AREA";"RR22+QF8, Buket Pala Bsp, Kec. Rantau Peureulak, Kabupaten Aceh Timur, Aceh 24453";"Buket Pala Bsp, Kec. Rantau Peureulak, Kabupaten Aceh Timur";"ACEH";"24453";"Indonesia";"";"4.8019167";"97.801194";"https://maps.google.com/?cid=0x0:0x6d4fde26d66244a3"
"housing complex";"Perhimpunan Pengembang Perumahan";"Rumah C'princeZz";"RR32+C32, Buket Pala Bsp, Kec. Rantau Peureulak, Kabupaten Aceh Timur, Aceh 24453";"Buket Pala Bsp, Kec. Rantau Peureulak, Kabupaten Aceh Timur";"ACEH";"24453";"Indonesia";"";"4.8035156";"97.800132";"https://maps.google.com/?cid=0x0:0x5723051c7cc0b936"
"housing complex";"Gedung Pernikahan";"Loakasi acara";"QRW8+R9R, Pasir Putih, Kec. Rantau Peureulak, Kabupaten Aceh Timur, Aceh 24453";"Pasir Putih, Kec. Rantau Peureulak, Kabupaten Aceh Timur";"ACEH";"24453";"Indonesia";"";"4.79671";"97.816503";"https://maps.google.com/?cid=0x0:0x555ab8ca615f0ab7"
"housing complex";"housing complex";"Sumatera Utara 20991";"Kabupaten Serdang Bedagai, Sumatera Utara";"Kabupaten Serdang Bedagai, Sumatera Utara";"ACEH";"";"Indonesia";"";"3.3178663";"98.9907938";"https://maps.google.com/?cid=0x0:0xeb239dc4750960a6"
"housing complex";"Pembangunan Perumahan";"Istana ratu siregar";"9WPM+P98, Tambak Cekur, Kec. Serbajadi, Kabupaten Serdang Bedagai, Sumatera Utara 20991";"Tambak Cekur, Kec. Serbajadi, Kabupaten Serdang Bedagai";"ACEH";"20991";"Indonesia";"";"3.3860519";"98.9336305";"https://maps.google.com/?cid=0x0:0x38906f86da0393a9"
"housing complex";"housing complex";"Serba Jadi";"Kabupaten Aceh Timur, Aceh";"Kabupaten Aceh Timur, Aceh";"ACEH";"";"Indonesia";"";"4.4415515";"97.5247243";"https://maps.google.com/?cid=0x0:0x4039d80b220e9f0"
"housing complex";"Komplek perumahan";"Zube";"82CC+58C, Unnamed Road, Kerapuh, Kec. Dolok Masihul, Kabupaten Serdang Bedagai, Sumatera Utara 20991";"Unnamed Road, Kerapuh, Kec. Dolok Masihul, Kabupaten Serdang Bedagai";"ACEH";"20991";"Indonesia";"";"3.3204349";"99.0207594";"https://maps.google.com/?cid=0x0:0x672f09b9c750003a"
"housing complex";"Perhimpunan Pengembang Perumahan";"Tanjung Harap Dusun 1";"9W7Q+4QG, Jl. Lintas Sumatera, Tj. Harap, Kec. Serbajadi, Kabupaten Serdang Bedagai, Sumatera Utara 20991";"Jl. Lintas Sumatera, Tj. Harap, Kec. Serbajadi, Kabupaten Serdang Bedagai";"ACEH";"20991";"Indonesia";"";"3.3628057";"98.9394392";"https://maps.google.com/?cid=0x0:0xe7b94a930ac899b7"
"housing complex";"Komplek perumahan";"Kampung dilem";"8X6P+GVH, Dolok Manampang, Kec. Dolok Masihul, Kabupaten Serdang Bedagai, Sumatera Utara 20991";"Dolok Manampang, Kec. Dolok Masihul, Kabupaten Serdang Bedagai";"ACEH";"20991";"Indonesia";"";"3.3113237";"98.9872485";"https://maps.google.com/?cid=0x0:0x4486d94d59e47d27"
"housing complex";"Komplek perumahan";"Rumah desy";"CW7C+MH, Pulau Gambar, Kec. Serbajadi, Kabupaten Serdang Bedagai, Sumatera Utara";"Kabupaten Serdang Bedagai, Sumatera Utara";"ACEH";"";"Indonesia";"";"3.414143";"98.921383";"https://maps.google.com/?cid=0x0:0x801c26b17d21844"
"housing complex";"Komplek perumahan";"Rumah Tinggal Op. Vio Sinaga";"9XXH+GMX, dusun 2, Bah Sidua Dua, Kec. Serbajadi, Kabupaten Serdang Bedagai, Sumatera Utara";"Kabupaten Serdang Bedagai, Sumatera Utara";"ACEH";"";"Indonesia";"";"3.3986419";"98.9787124";"https://maps.google.com/?cid=0x0:0xbe3dd7f01558236"
"housing complex";"Komplek perumahan";"Perumahan Dr.Suwandi.MPd";"9XGG+PP6, Unnamed Road, Baja Ronggi, Kec. Dolok Masihul, Kabupaten Serdang Bedagai, Sumatera Utara 20991";"Unnamed Road, Baja Ronggi, Kec. Dolok Masihul, Kabupaten Serdang Bedagai";"ACEH";"20991";"Indonesia";"";"3.376788";"98.9767728";"https://maps.google.com/?cid=0x0:0xd061956443defc83"
"housing complex";"Perumahan";"AhmadRaisAfandi_VIIIC_smpn1domas";"82GP+VP7, Jl. Perjuangan, Martebing, Kec. Dolok Masihul, Kabupaten Serdang Bedagai, Sumatera Utara 20991";"Jl. Perjuangan, Martebing, Kec. Dolok Masihul, Kabupaten Serdang Bedagai";"ACEH";"20991";"Indonesia";"";"3.3272084";"99.0367399";"https://maps.google.com/?cid=0x0:0x5c0c8964f55ff2a2"
"housing complex";"Komplek perumahan";"Rumah ISNAIN";"PT. Socfindo, Dusun 1 komp. Perumahan, Martebing, Kec. Dolok Masihul, Kabupaten Serdang Bedagai";"Kabupaten Serdang Bedagai, Sumatera Utara";"ACEH";"";"Indonesia";"";"3.3284395";"99.040645";"https://maps.google.com/?cid=0x0:0x360a3014dff3e078"
"housing complex";"Pembangunan Perumahan";"Nino Ardiansyah";"CW2G+5FX, Pulau Tagor, Kec. Serbajadi, Kabupaten Serdang Bedagai, Sumatera Utara 20991";"Pulau Tagor, Kec. Serbajadi, Kabupaten Serdang Bedagai";"ACEH";"20991";"Indonesia";"";"3.399986";"98.925832";"https://maps.google.com/?cid=0x0:0xd29ec700aeb76193"
"housing complex";"housing complex";"Simpang Melati";"727R+X2F, Dolok Sagala, Kec. Dolok Masihul, Kabupaten Serdang Bedagai, Sumatera Utara 20991";"Dolok Sagala, Kec. Dolok Masihul, Kabupaten Serdang Bedagai";"ACEH";"20991";"Indonesia";"";"3.2649456";"99.0400398";"https://maps.google.com/?cid=0x0:0x903be2e339972944"
"housing complex";"Komplek perumahan";"Rumah kakek ula dan nasya";"9W7W+P3X, Tj. Harap, Kec. Serbajadi, Kabupaten Serdang Bedagai, Sumatera Utara 20991";"Tj. Harap, Kec. Serbajadi, Kabupaten Serdang Bedagai";"ACEH";"20991";"Indonesia";"";"3.3643536";"98.9452344";"https://maps.google.com/?cid=0x0:0xade7b6c5e93c421"
"housing complex";"housing complex";"Aceh 24461";"Kabupaten Aceh Timur, Aceh";"Kabupaten Aceh Timur, Aceh";"ACEH";"";"Indonesia";"";"4.950275";"97.6792293";"https://maps.google.com/?cid=0x0:0x40ce92432b582121"
"housing complex";"Komplek perumahan";"Aceh timur";"XPPC+95F, Kp. Keude, Kec. Darul Aman, Kabupaten Aceh Timur, Aceh";"Kabupaten Aceh Timur, Aceh";"ACEH";"";"Indonesia";"";"4.9859334";"97.7204106";"https://maps.google.com/?cid=0x0:0x24b5e2d43f5feffb"
"housing complex";"housing complex";"Rumah paklek supri";"XP32+HHX, Alur Merbo, Kec. Darul Aman, Kabupaten Aceh Timur, Aceh";"Kabupaten Aceh Timur, Aceh";"ACEH";"";"Indonesia";"";"4.9544689";"97.7014754";"https://maps.google.com/?cid=0x0:0xa6c3ca567dd34b78"
"housing complex";"Perhimpunan Pengembang Perumahan";"Rumah Tgk. Marzuki Cut Ali";"QV6W+2J9, Dusun Lampoh Pala, Seuneubok Peusangan, Kec. Peureulak, Kabupaten Aceh Timur, Aceh";"Kabupaten Aceh Timur, Aceh";"ACEH";"";"Indonesia";"";"4.7600406";"97.8966092";"https://maps.google.com/?cid=0x0:0xd94bc86969395073"
"housing complex";"Komplek perumahan";"Cek yus";"WPX2+P55, Meunasah Keutapang, Kec. Darul Aman, Kabupaten Aceh Timur, Aceh";"Kabupaten Aceh Timur, Aceh";"ACEH";"";"Indonesia";"";"4.9492546";"97.7004709";"https://maps.google.com/?cid=0x0:0x8c6dbbec55adc6e6"
"housing complex";"Perhimpunan Pengembang Perumahan";"Rumoh Tgk Yan";"Seuneubok Baroh, Kec. Darul Aman, Kabupaten Aceh Timur, Aceh 24455";"Kec. Darul Aman, Kabupaten Aceh Timur";"ACEH";"24455";"Indonesia";"";"4.987014";"97.7260859";"https://maps.google.com/?cid=0x0:0x6268f443ae864e8f"
"housing complex";"Pembangunan Perumahan";"Rumah isma";"Lorong setelah mesjid No.1, Cot Muda Itam, Peureulak, East Aceh Regency, Aceh";"Kabupaten Aceh Timur, Aceh";"ACEH";"";"Indonesia";"";"4.8137868";"97.9129873";"https://maps.google.com/?cid=0x0:0x35dd37611ea22e2b"
"housing complex";"Pembangunan Perumahan";"Rumah Kak Jah UJB";"RVRJ+93R, Beusa Seberang, Kec. Peureulak Bar., Kabupaten Aceh Timur, Aceh 24458";"Beusa Seberang, Kec. Peureulak Bar., Kabupaten Aceh Timur";"ACEH";"24458";"Indonesia";"";"4.8410556";"97.8801277";"https://maps.google.com/?cid=0x0:0xb10895547bc2fed0"
"housing complex";"Komplek perumahan";"Rumah bang jek";"Dusun simpang 3a Desa Julok Rayeuk Utara, Pelita Sagup Jaya, Kec. Indra Makmur, Kabupaten Aceh Timur, Aceh 24457";"Pelita Sagup Jaya, Kec. Indra Makmur, Kabupaten Aceh Timur";"ACEH";"24457";"Indonesia";"";"4.883732";"97.618759";"https://maps.google.com/?cid=0x0:0x57402aedffe9a3d3"
"housing complex";"Komplek perumahan";"Idi cut, seuneubok baroh, lorong nelayan";"XPQP+V4C, Seuneubok Baroh, Kec. Darul Aman, Kabupaten Aceh Timur, Aceh";"Kabupaten Aceh Timur, Aceh";"ACEH";"";"Indonesia";"";"4.9907426";"97.7355075";"https://maps.google.com/?cid=0x0:0x96bc22a0f8104c31"
"housing complex";"Komplek perumahan";"RUMAH TGK SALEH";"WM8V+X89, Jln,Idi Cut-Keude Geureubak, Buket Drien, Kec. Banda Alam";"Kabupaten Aceh Timur, Aceh";"ACEH";"";"Indonesia";"";"4.9174179";"97.693369";"https://maps.google.com/?cid=0x0:0xa9eab19a0bd0a764"
"housing complex";"Perumahan";"Rumah nenek";"RV5R+75V, Jl.RSUD No.Desa, Lhok Dalam, Peureulak, East Aceh Regency, Aceh 24461";"Jl.RSUD No.Desa, Lhok Dalam, Peureulak, East Aceh Regency";"ACEH";"24461";"Indonesia";"";"4.8081802";"97.8905919";"https://maps.google.com/?cid=0x0:0x341fcc32c2f1c69c"
"housing complex";"Perhimpunan Pengembang Perumahan";"Seuneubôk tuha sa";"XMFP+7JJ dusun caleu, Seuneubok Tuha I, Kec. Darul Aman, Kabupaten Aceh Timur, Aceh";"Kabupaten Aceh Timur, Aceh";"ACEH";"";"Indonesia";"";"4.9732206";"97.6865214";"https://maps.google.com/?cid=0x0:0xb5fe8b4c4d6ce41e"
"housing complex";"Perhimpunan Pengembang Perumahan";"Rumah C'princeZz";"RR32+C32, Buket Pala Bsp, Kec. Rantau Peureulak, Kabupaten Aceh Timur, Aceh 24453";"Buket Pala Bsp, Kec. Rantau Peureulak, Kabupaten Aceh Timur";"ACEH";"24453";"Indonesia";"";"4.8035156";"97.800132";"https://maps.google.com/?cid=0x0:0x5723051c7cc0b936"
"housing complex";"housing complex";"Aceh 24458";"Kabupaten Aceh Timur, Aceh";"Kabupaten Aceh Timur, Aceh";"ACEH";"";"Indonesia";"";"4.9131571";"97.5463885";"https://maps.google.com/?cid=0x0:0x82c363c7b075e66"
"housing complex";"Perhimpunan Pengembang Perumahan";"Rumah Ulya";"4G2R+37R, Gampong Blang, Kec. Simpang Ulim, Kabupaten Aceh Timur, Aceh 24458";"Gampong Blang, Kec. Simpang Ulim, Kabupaten Aceh Timur";"ACEH";"24458";"Indonesia";"";"5.1002457";"97.5406347";"https://maps.google.com/?cid=0x0:0x52a50ac5cb578b5a"
"housing complex";"Komplek perumahan";"Rumah Tgk Ishak";"3HG3+V5X, Nicah Awe, Kec. Simpang Ulim, Kabupaten Aceh Timur, Aceh 24458";"Nicah Awe, Kec. Simpang Ulim, Kabupaten Aceh Timur";"ACEH";"24458";"Indonesia";"";"5.0775098";"97.5530721";"https://maps.google.com/?cid=0x0:0xc06d7f03adddacb8"
"housing complex";"Perhimpunan Pengembang Perumahan";"Rumah Bang Him";"3GWV+2GR, Peulalu, Kec. Simpang Ulim, Kabupaten Aceh Timur, Aceh 24458";"Peulalu, Kec. Simpang Ulim, Kabupaten Aceh Timur";"ACEH";"24458";"Indonesia";"";"5.0957528";"97.5432465";"https://maps.google.com/?cid=0x0:0xb4a3403b3c360271"
"housing complex";"Komplek perumahan";"Rumoeh tuha";"2JQQ+MCM, Meudang Ara, Kec. Nurussalam, Kabupaten Aceh Timur, Aceh 24458";"Meudang Ara, Kec. Nurussalam, Kabupaten Aceh Timur";"ACEH";"24458";"Indonesia";"";"5.0392361";"97.6385115";"https://maps.google.com/?cid=0x0:0x329f2bbf3a679224"
"housing complex";"housing complex";"Rumah Indra Syahputra";"3H6F+CFW, Blang Gleum, Kec. Julok, Kabupaten Aceh Timur, Aceh 24458";"Blang Gleum, Kec. Julok, Kabupaten Aceh Timur";"ACEH";"24458";"Indonesia";"";"5.061102";"97.573695";"https://maps.google.com/?cid=0x0:0xee568bcefecb9afe"
"housing complex";"Komplek perumahan";"RACHEL";"2JPP+VV3, Meudang Ara, Kec. Nurussalam, Kabupaten Aceh Timur, Aceh";"Kabupaten Aceh Timur, Aceh";"ACEH";"";"Indonesia";"";"5.0417322";"97.6400829";"https://maps.google.com/?cid=0x0:0xdef39c416946e2ce"
"housing complex";"Komplek perumahan";"Rumah bang jek";"Dusun simpang 3a Desa Julok Rayeuk Utara, Pelita Sagup Jaya, Kec. Indra Makmur, Kabupaten Aceh Timur, Aceh 24457";"Pelita Sagup Jaya, Kec. Indra Makmur, Kabupaten Aceh Timur";"ACEH";"24457";"Indonesia";"";"4.883732";"97.618759";"https://maps.google.com/?cid=0x0:0x57402aedffe9a3d3"
"housing complex";"Komplek perumahan";"Rumah ajilin";"3H9C+Q5, Blang Me, Kec. Simpang Ulim, Kabupaten Aceh Timur, Aceh 24458";"Blang Me, Kec. Simpang Ulim, Kabupaten Aceh Timur";"ACEH";"24458";"Indonesia";"";"5.0705516";"97.5706077";"https://maps.google.com/?cid=0x0:0x5e3f5c9f9508ffc8"
"housing complex";"Komplek perumahan";"Rumah Aidy Fikriyanto";"3GV8+MHM, Alue Mulieng, Kec. Simpang Ulim, Kabupaten Aceh Timur, Aceh 24458";"Alue Mulieng, Kec. Simpang Ulim, Kabupaten Aceh Timur";"ACEH";"24458";"Indonesia";"";"5.0942172";"97.5164371";"https://maps.google.com/?cid=0x0:0x62743a21ea9670c7"
"housing complex";"Komplek perumahan";"RUMOH BANG MUH";"2JM9+X8H, Mane Rampak, Kec. Julok, Kabupaten Aceh Timur, Aceh 24458";"Mane Rampak, Kec. Julok, Kabupaten Aceh Timur";"ACEH";"24458";"Indonesia";"";"5.0349329";"97.6183694";"https://maps.google.com/?cid=0x0:0x29fb7b6a9dfdb99b"
"housing complex";"Komplek perumahan";"Rumah ghazi";"3GPQ+75Q, Matang Seupeng, Kec. Simpang Ulim, Kabupaten Aceh Timur, Aceh 24458";"Matang Seupeng, Kec. Simpang Ulim, Kabupaten Aceh Timur";"ACEH";"24458";"Indonesia";"";"5.0857131";"97.5379747";"https://maps.google.com/?cid=0x0:0x6f1d8460a38d3564"
"housing complex";"Komplek perumahan";"Rumah lakhshan";"3J47+9C, Labohan, Kec. Julok, Kabupaten Aceh Timur, Aceh";"Kabupaten Aceh Timur, Aceh";"ACEH";"";"Indonesia";"";"5.0559736";"97.6135801";"https://maps.google.com/?cid=0x0:0xc5cd376ee0e27e98"
"housing complex";"Komplek perumahan";"Rumah ika";"Iskandar, Dusun blangsare, Seuneubok Cina, Kec. Indra Makmur, Kabupaten Aceh Timur, Aceh 24457";"Dusun blangsare, Seuneubok Cina, Kec. Indra Makmur, Kabupaten Aceh Timur";"ACEH";"24457";"Indonesia";"";"4.8942425";"97.624978";"https://maps.google.com/?cid=0x0:0x5f6945197ad4b9d9"
"housing complex";"Perhimpunan Pengembang Perumahan";"Rumah Ulya";"4G2R+37R, Gampong Blang, Kec. Simpang Ulim, Kabupaten Aceh Timur, Aceh 24458";"Gampong Blang, Kec. Simpang Ulim, Kabupaten Aceh Timur";"ACEH";"24458";"Indonesia";"";"5.1002457";"97.5406347";"https://maps.google.com/?cid=0x0:0x52a50ac5cb578b5a"
"housing complex";"housing complex";"Kec. Simpang Ulim";"Kabupaten Aceh Timur, Aceh";"Kabupaten Aceh Timur, Aceh";"ACEH";"";"Indonesia";"";"5.0970632";"97.5398746";"https://maps.google.com/?cid=0x0:0x449fe38554505818"
"housing complex";"Perhimpunan Pengembang Perumahan";"Rumah Bang Him";"3GWV+2GR, Peulalu, Kec. Simpang Ulim, Kabupaten Aceh Timur, Aceh 24458";"Peulalu, Kec. Simpang Ulim, Kabupaten Aceh Timur";"ACEH";"24458";"Indonesia";"";"5.0957528";"97.5432465";"https://maps.google.com/?cid=0x0:0xb4a3403b3c360271"
"housing complex";"Komplek perumahan";"Rumah Tgk Ishak";"3HG3+V5X, Nicah Awe, Kec. Simpang Ulim, Kabupaten Aceh Timur, Aceh 24458";"Nicah Awe, Kec. Simpang Ulim, Kabupaten Aceh Timur";"ACEH";"24458";"Indonesia";"";"5.0775098";"97.5530721";"https://maps.google.com/?cid=0x0:0xc06d7f03adddacb8"
"housing complex";"Komplek perumahan";"Rumah Aidy Fikriyanto";"3GV8+MHM, Alue Mulieng, Kec. Simpang Ulim, Kabupaten Aceh Timur, Aceh 24458";"Alue Mulieng, Kec. Simpang Ulim, Kabupaten Aceh Timur";"ACEH";"24458";"Indonesia";"";"5.0942172";"97.5164371";"https://maps.google.com/?cid=0x0:0x62743a21ea9670c7"
"housing complex";"Komplek perumahan";"Rumah alm Hamdan jalil";"3GQC+2PH, Matang Weng, Kec. Simpang Ulim, Kabupaten Aceh Timur, Aceh 24458";"Matang Weng, Kec. Simpang Ulim, Kabupaten Aceh Timur";"ACEH";"24458";"Indonesia";"";"5.0871581";"97.5238182";"https://maps.google.com/?cid=0x0:0xcb13a5ccdeba35c"
"housing complex";"Komplek perumahan";"Rumah ajilin";"3H9C+Q5, Blang Me, Kec. Simpang Ulim, Kabupaten Aceh Timur, Aceh 24458";"Blang Me, Kec. Simpang Ulim, Kabupaten Aceh Timur";"ACEH";"24458";"Indonesia";"";"5.0705516";"97.5706077";"https://maps.google.com/?cid=0x0:0x5e3f5c9f9508ffc8"
"housing complex";"Perhimpunan Pengembang Perumahan";"Balai desa";"3GPG+HVQ Bar, Pucok Alue Bar., Kec. Simpang Ulim, Kabupaten Aceh Timur, Aceh 24458";"Pucok Alue Bar., Kec. Simpang Ulim, Kabupaten Aceh Timur";"ACEH";"24458";"Indonesia";"";"5.08647";"97.527238";"https://maps.google.com/?cid=0x0:0x5ad0d30d1d12817d"
"housing complex";"Komplek perumahan";"Rumahku";"3GGR+C9J, Titi Baroeh, Kec. Simpang Ulim, Kabupaten Aceh Timur, Aceh 24458";"Titi Baroeh, Kec. Simpang Ulim, Kabupaten Aceh Timur";"ACEH";"24458";"Indonesia";"";"5.0760382";"97.5419229";"https://maps.google.com/?cid=0x0:0x82bc19fbe9da94ee"
"housing complex";"Komplek perumahan";"Tempat mursalem";"3H98+QJJ, Blang Me, Kec. Simpang Ulim, Kabupaten Aceh Timur, Aceh 24458";"Blang Me, Kec. Simpang Ulim, Kabupaten Aceh Timur";"ACEH";"24458";"Indonesia";"";"5.0694467";"97.5665099";"https://maps.google.com/?cid=0x0:0x98e1f4def3b2a2db"
"housing complex";"Perhimpunan Pengembang Perumahan";"rumah calon";"3GWP+4VC, Kampong Baro, Kec. Simpang Ulim, Kabupaten Aceh Timur, Aceh";"Kabupaten Aceh Timur, Aceh";"ACEH";"";"Indonesia";"";"5.0953145";"97.5371531";"https://maps.google.com/?cid=0x0:0x6cbd37ee6ab87913"
"housing complex";"housing complex";"rumah nenek";"3GWQ+RWH, Kampong Baro, Kec. Simpang Ulim, Kabupaten Aceh Timur, Aceh";"Kabupaten Aceh Timur, Aceh";"ACEH";"";"Indonesia";"";"5.1023563";"97.5399039";"https://maps.google.com/?cid=0x0:0x6fb656344ea5afd0"
"housing complex";"Komplek perumahan";"Rumah ghazi";"3GPQ+75Q, Matang Seupeng, Kec. Simpang Ulim, Kabupaten Aceh Timur, Aceh 24458";"Matang Seupeng, Kec. Simpang Ulim, Kabupaten Aceh Timur";"ACEH";"24458";"Indonesia";"";"5.0857131";"97.5379747";"https://maps.google.com/?cid=0x0:0x6f1d8460a38d3564"
"housing complex";"Komplek perumahan";"Anwar";"3HV8+RJ9, Alue Buloh Satu, Kec. Simpang Ulim, Kabupaten Aceh Timur, Aceh 24458";"Alue Buloh Satu, Kec. Simpang Ulim, Kabupaten Aceh Timur";"ACEH";"24458";"Indonesia";"";"5.0945384";"97.5666117";"https://maps.google.com/?cid=0x0:0xad415d5097f73ffe"
"housing complex";"Perumahan";"Rumah Atas";"MR6F+R98, Gajah Mentah, Kec. Sungai Raya, Kabupaten Aceh Timur, Aceh 24452";"Gajah Mentah, Kec. Sungai Raya, Kabupaten Aceh Timur";"ACEH";"24452";"Indonesia";"";"4.6626238";"97.823532";"https://maps.google.com/?cid=0x0:0xa8efb2bc24c18506"
"housing complex";"housing complex";"Kec. Sungai Raya";"Kabupaten Aceh Timur, Aceh";"Kabupaten Aceh Timur, Aceh";"ACEH";"";"Indonesia";"";"4.6744294";"97.9155206";"https://maps.google.com/?cid=0x0:0xed64a98a923c441c"
"housing complex";"Komplek perumahan";"Perumahan Di Visi4";"MR6F+R98, Gajah Mentah, Kec. Sungai Raya, Kabupaten Aceh Timur, Aceh 24452";"Gajah Mentah, Kec. Sungai Raya, Kabupaten Aceh Timur";"ACEH";"24452";"Indonesia";"";"4.661099";"97.823305";"https://maps.google.com/?cid=0x0:0x9dbde86eff794f39"
"housing complex";"Komplek perumahan";"Idris";"JWWJ+58F, Bukit Selamat, Kec. Sungai Raya, Kabupaten Aceh Timur, Aceh 24452";"Bukit Selamat, Kec. Sungai Raya, Kabupaten Aceh Timur";"ACEH";"24452";"Indonesia";"";"4.6454267";"97.9307955";"https://maps.google.com/?cid=0x0:0xb911b26a42f5bf73"
"housing complex";"Komplek perumahan";"Poktan ingin jaya";"MV5M+CF8, Seuneubok Aceh, Kec. Sungai Raya, Kabupaten Aceh Timur, Aceh";"Kabupaten Aceh Timur, Aceh";"ACEH";"";"Indonesia";"";"4.6585252";"97.8837075";"https://maps.google.com/?cid=0x0:0x868c33612bc4787c"
"housing complex";"";"Syahrial";"MV5M+8CQ, Seuneubok Aceh, Kec. Sungai Raya, Kabupaten Aceh Timur, Aceh 24452";"Seuneubok Aceh, Kec. Sungai Raya, Kabupaten Aceh Timur";"ACEH";"24452";"Indonesia";"";"4.6583348";"97.8836108";"https://maps.google.com/?cid=0x0:0x7d9948dd34afbe49"
"housing complex";"Pembangunan Perumahan";"Tanah kebun alue lhok";"MWV7+J3, Alue Rangan, Kec. Sungai Raya, Kabupaten Aceh Timur, Aceh";"Kabupaten Aceh Timur, Aceh";"ACEH";"";"Indonesia";"";"4.6940725";"97.9126812";"https://maps.google.com/?cid=0x0:0x811bebe524611258"
"housing complex";"Komplek perumahan";"Andika.sp";"MV6P+48F, Sungai Simpang, Kec. Sungai Raya, Kabupaten Aceh Timur, Aceh 24452";"Sungai Simpang, Kec. Sungai Raya, Kabupaten Aceh Timur";"ACEH";"24452";"Indonesia";"";"4.6603067";"97.8857891";"https://maps.google.com/?cid=0x0:0x24113a6ebdc1cfa"
"housing complex";"Pembangunan Perumahan";"RUMAH AJIR";"MWC8+56Q SLTP Negeri 1 Sungai Raya, Labuhan Keude, Kec. Sungai Raya, Kabupaten Aceh Timur, Aceh 24452";"Labuhan Keude, Kec. Sungai Raya, Kabupaten Aceh Timur";"ACEH";"24452";"Indonesia";"";"4.6707551";"97.9151657";"https://maps.google.com/?cid=0x0:0xb47abb8de127eeb8"
"housing complex";"Pembangunan Perumahan";"Komplek Translok";"MW59+32, Labuhan Keude, Kec. Sungai Raya, Kabupaten Aceh Timur, Aceh";"Kabupaten Aceh Timur, Aceh";"ACEH";"";"Indonesia";"";"4.6576928";"97.9175404";"https://maps.google.com/?cid=0x0:0x48e3c498b1e63f5c"
"housing complex";"Komplek perumahan";"Perumahan bisi 4";"MR6F+R98, Gajah Mentah, Kec. Sungai Raya, Kabupaten Aceh Timur, Aceh 24452";"Gajah Mentah, Kec. Sungai Raya, Kabupaten Aceh Timur";"ACEH";"24452";"Indonesia";"";"4.6610545";"97.8233764";"https://maps.google.com/?cid=0x0:0xbc3fed1aa9510d4"
"housing complex";"Perhimpunan Pengembang Perumahan";"Tambak kamarkhan";"MX86+M7, Kuala Parek, Kec. Sungai Raya, Kabupaten Aceh Timur, Aceh";"Kabupaten Aceh Timur, Aceh";"ACEH";"";"Indonesia";"";"4.6666618";"97.9606317";"https://maps.google.com/?cid=0x0:0x6863e086faa53f33"
"housing complex";"Perhimpunan Pengembang Perumahan";"wati";"MW2H+92W, Bukit Selamat, Kec. Sungai Raya, Kabupaten Aceh Timur, Aceh 24452";"Bukit Selamat, Kec. Sungai Raya, Kabupaten Aceh Timur";"ACEH";"24452";"Indonesia";"";"4.650983";"97.9275738";"https://maps.google.com/?cid=0x0:0xb21a17731bc98af7"
"housing complex";"Komplek perumahan";"Seuneubok Aceh jalan Gajah mentah";"Seuneubok Aceh jalan Gajah mentah. KAB. ACEH TIMUR, SUNGAI RAYA, NANGGROE ACEH DARUSSALAM (NAD, 24465";"SUNGAI RAYA";"ACEH";"24465";"Indonesia";"";"4.6566617";"97.8812446";"https://maps.google.com/?cid=0x0:0x794e621190253af3"
"housing complex";"Komplek perumahan";"S  E STATIONERY";"Jl. Sungai Raya Dalam Kios Ruko mawar indah No.1, Sungai Raya, Kec. Sungai Raya, Kabupaten Kubu Raya, Kalimantan Barat 77391";"Sungai Raya, Kec. Sungai Raya, Kabupaten Kubu Raya";"ACEH";"77391";"Indonesia";" 081348537096";"-0.0882657";"109.3497918";"https://maps.google.com/?cid=0x0:0xe3d62f5562b562ec"
"housing complex";"housing complex";"Kec. Sungai Raya";"Kabupaten Aceh Timur, Aceh";"Kabupaten Aceh Timur, Aceh";"ACEH";"";"Indonesia";"";"4.6744294";"97.9155206";"https://maps.google.com/?cid=0x0:0xed64a98a923c441c"
"housing complex";"Komplek perumahan";"Serdam Raya Residence";"V8MH+R9V, Jl. Sungai Raya Dalam, Punggur Kecil, Kec. Sungai Kakap, Kabupaten Kubu Raya, Kalimantan Barat 78114";"Jl. Sungai Raya Dalam, Punggur Kecil, Kec. Sungai Kakap, Kabupaten Kubu Raya";"ACEH";"78114";"Indonesia";" 085752992265";"-0.1154";"109.3284089";"https://maps.google.com/?cid=0x0:0x320de98f91de7ab2"
"housing complex";"Komplek perumahan";"Komplek Griya Husada";"Sungai Raya, Kec. Sungai Raya, Kabupaten Kubu Raya, Kalimantan Barat 78117";"Kec. Sungai Raya, Kabupaten Kubu Raya";"ACEH";"78117";"Indonesia";" 081514415786";"-0.090783";"109.3554529";"https://maps.google.com/?cid=0x0:0x8918e0b95d642f04"
"housing complex";"Komplek perumahan";"Perumahan Hokiland Home Sweet Home";"Jl. Nurul Huda Aliamin, Kapur, Kec. Sungai Raya, Kabupaten Kubu Raya, Kalimantan Barat 78236";"Kapur, Kec. Sungai Raya, Kabupaten Kubu Raya";"ACEH";"78236";"Indonesia";" 085163606122";"-0.0624567";"109.3957643";"https://maps.google.com/?cid=0x0:0x60e1b607a7980e18"
"housing complex";"Komplek perumahan";"Komplek new serdam residence";"Serdam, komplek new serdam, Punggur Kecil, Sungai Kakap, Kubu Raya Regency, West Kalimantan";"Kabupaten Kubu Raya, Kalimantan Barat";"ACEH";"";"Indonesia";"";"-0.1182474";"109.3312245";"https://maps.google.com/?cid=0x0:0x71ced61f36ba83af"
"housing complex";"Komplek perumahan";"Senayan Residence Perumahan Pontianak";"VCRF+JG2, JL RAYA DESA KAPUR No.KM 7, Madu Sari, Kec. Sungai Raya, Kabupaten Kubu Raya, Kalimantan Barat 78391";"JL RAYA DESA KAPUR No.KM 7, Madu Sari, Kec. Sungai Raya, Kabupaten Kubu Raya";"ACEH";"78391";"Indonesia";" 087775839636";"-0.1108064";"109.4226503";"https://maps.google.com/?cid=0x0:0x54647701691f4edf"
"housing complex";"Pembangunan Perumahan";"Perumahan komplek Amesta Raya Residence";"W7V9+Q8W, GG.hj NurAini, Pal IX, Kec. Sungai Kakap, Kabupaten Kubu Raya, Kalimantan Barat";"Kabupaten Kubu Raya, Kalimantan Barat";"ACEH";"";"Indonesia";"";"-0.0555174";"109.2683286";"https://maps.google.com/?cid=0x0:0x6754cefbcdce7cb8"
"housing complex";"Pembangunan Perumahan";"Royal Garden Residence";"V8F9+4C8, Jl. Sungai Raya Dalam, Punggur Kecil, Kec. Sungai Kakap, Kabupaten Kubu Raya, Kalimantan Barat 78114";"Jl. Sungai Raya Dalam, Punggur Kecil, Kec. Sungai Kakap, Kabupaten Kubu Raya";"ACEH";"78114";"Indonesia";" 085349873007";"-0.127367";"109.318434";"https://maps.google.com/?cid=0x0:0x3a657592ee8dbe62"
"housing complex";"Komplek perumahan";"Kurnia KSP Mulyo";"W9VP+XFW, Gg. Mulyo, Kapur, Kec. Sungai Raya, Kabupaten Kubu Raya, Kalimantan Barat 78236";"Gg. Mulyo, Kapur, Kec. Sungai Raya, Kabupaten Kubu Raya";"ACEH";"78236";"Indonesia";" 081283960188";"-0.0550094";"109.3862065";"https://maps.google.com/?cid=0x0:0xcee9bf0ef8fb593a"
"housing complex";"Otoritas Perumahan";"Komplek Palem Hijau";"W9J7+GJM, Jl. Sungai Raya Dalam, Sungai Raya, Kec. Sungai Raya, Kabupaten Kubu Raya, Kalimantan Barat 78125";"Jl. Sungai Raya Dalam, Sungai Raya, Kec. Sungai Raya, Kabupaten Kubu Raya";"ACEH";"78125";"Indonesia";"";"-0.0686293";"109.364043";"https://maps.google.com/?cid=0x0:0x5ec788e54dc7f63d"
"housing complex";"Komplek perumahan";"Perumahan Purnama Raya";"Punggur Kecil, Kec. Sungai Kakap, Kabupaten Kubu Raya, Kalimantan Barat 78114";"Kec. Sungai Kakap, Kabupaten Kubu Raya";"ACEH";"78114";"Indonesia";" 05616712497";"-0.0880733";"109.2977343";"https://maps.google.com/?cid=0x0:0x1c7488fa51373d04"
"housing complex";"Komplek perumahan";"Perumahan Amesta Raya";"W7VV+QFX, Pal IX, Kec. Sungai Kakap, Kabupaten Kubu Raya, Kalimantan Barat 78114";"Pal IX, Kec. Sungai Kakap, Kabupaten Kubu Raya";"ACEH";"78114";"Indonesia";" 085754496766";"-0.055514";"109.2937372";"https://maps.google.com/?cid=0x0:0x1309ecd0c62fe065"
"housing complex";"Komplek perumahan";"Rumah";"W7Q3+GW9, Gg. Amanah, Pal IX, Kec. Sungai Kakap, Kabupaten Kubu Raya, Kalimantan Barat";"Kabupaten Kubu Raya, Kalimantan Barat";"ACEH";"";"Indonesia";"";"-0.06114";"109.254983";"https://maps.google.com/?cid=0x0:0x633ca77d58fca02c"
"housing complex";"Perhimpunan Pengembang Perumahan";"Jln raya karimunting";"QV3P+39C, Sungai Raya, Sungai Raya Kepulauan, Kabupaten Bengkayang, Kalimantan Barat 79271";"Sungai Raya, Sungai Raya Kepulauan, Kabupaten Bengkayang";"ACEH";"79271";"Indonesia";"";"0.7525992";"108.8859882";"https://maps.google.com/?cid=0x0:0xa22e24ecde59ce8"
"housing complex";"housing complex";"Kec. Sungai Raya";"Kabupaten Aceh Timur, Aceh";"Kabupaten Aceh Timur, Aceh";"ACEH";"";"Indonesia";"";"4.6744294";"97.9155206";"https://maps.google.com/?cid=0x0:0xed64a98a923c441c"
"housing complex";"Pembangunan Perumahan";"Atika House";"QV9P+M4, Sungai Raya, Sungai Raya Kepulauan, Kabupaten Bengkayang, Kalimantan Barat 79271";"Sungai Raya, Sungai Raya Kepulauan, Kabupaten Bengkayang";"ACEH";"79271";"Indonesia";"";"0.7686072";"108.8856314";"https://maps.google.com/?cid=0x0:0xa5a6c796d09dbc84"
"housing complex";"Asosiasi/organisasi";"rumah suci";"QV5M+2XC, Sungai Raya, Sungai Raya Kepulauan, Kabupaten Bengkayang, Kalimantan Barat 79271";"Sungai Raya, Sungai Raya Kepulauan, Kabupaten Bengkayang";"ACEH";"79271";"Indonesia";"";"0.750005";"108.8867523";"https://maps.google.com/?cid=0x0:0xf22a84614c1ecd71"
"housing complex";"Komplek perumahan";"RUMAH LOI KU";"MW8F+F9H, Jalan, Sungai Raya, Sungai Keran, Kabupaten Bengkayang, Kalimantan Barat 79271";"Jalan, Sungai Raya, Sungai Keran, Kabupaten Bengkayang";"ACEH";"79271";"Indonesia";"";"0.6661819";"108.9234936";"https://maps.google.com/?cid=0x0:0x9abf8a0ce70afc9a"
"housing complex";"Komplek perumahan";"Rumah Afat";"HW7Q+RQV, Jl. Sumbawa, Sungai Duri, Kec. Sungai Raya, Kabupaten Bengkayang, Kalimantan Barat 79271";"Jl. Sumbawa, Sungai Duri, Kec. Sungai Raya, Kabupaten Bengkayang";"ACEH";"79271";"Indonesia";"";"0.5646143";"108.9394282";"https://maps.google.com/?cid=0x0:0x50c4ef078b4c1a5a"
"housing complex";"Komplek perumahan";"AFFAT HOUSE";"JWWV+J7W, Sungai Pangkalan II, Kec. Sungai Raya, Kabupaten Bengkayang, Kalimantan Barat 79271";"Sungai Pangkalan II, Kec. Sungai Raya, Kabupaten Bengkayang";"ACEH";"79271";"Indonesia";"";"0.6466214";"108.9431927";"https://maps.google.com/?cid=0x0:0x4081f017001bc3c7"
"housing complex";"Komplek perumahan";"Dian house";"Jl. Raya Sungai Keran No.184, Sungai Keran, Sungai Raya Kepulauan, Kabupaten Bengkayang, Kalimantan Barat 79271";"Sungai Keran, Sungai Raya Kepulauan, Kabupaten Bengkayang";"ACEH";"79271";"Indonesia";"";"0.6950094";"108.9045442";"https://maps.google.com/?cid=0x0:0x5bdc7c8bcc9841ec"
"housing complex";"Komplek perumahan";"RUMAH HARIANTI";"HW7H+R93, Jl. Pramuka, Sungai Duri, Kec. Sungai Raya, Kabupaten Bengkayang, Kalimantan Barat 79271";"Jl. Pramuka, Sungai Duri, Kec. Sungai Raya, Kabupaten Bengkayang";"ACEH";"79271";"Indonesia";"";"0.5640913";"108.9287272";"https://maps.google.com/?cid=0x0:0xc1196164f71db90b"
"housing complex";"Komplek perumahan";"rumah caca";"QV9P+M4, Sungai Raya, Sungai Raya Kepulauan, Kabupaten Bengkayang, Kalimantan Barat 79271";"Sungai Raya, Sungai Raya Kepulauan, Kabupaten Bengkayang";"ACEH";"79271";"Indonesia";"";"0.7687591";"108.8855188";"https://maps.google.com/?cid=0x0:0xb98b65bff748e428"
"housing complex";"Komplek perumahan";"Taman Anggrek Estate";"HW7J+6J7, Jl. Sumbawa No.98A, Sungai Duri, Kec. Sungai Raya, Kabupaten Bengkayang, Kalimantan Barat 79271";"Jl. Sumbawa No.98A, Sungai Duri, Kec. Sungai Raya, Kabupaten Bengkayang";"ACEH";"79271";"Indonesia";"";"0.5626842";"108.9321618";"https://maps.google.com/?cid=0x0:0xd5c3666e694ef9b5"
"housing complex";"Toko";"Pasar cap kala";"JWXW+75G, Sungai Pangkalan II, Kec. Sungai Raya, Kabupaten Bengkayang, Kalimantan Barat 79271";"Sungai Pangkalan II, Kec. Sungai Raya, Kabupaten Bengkayang";"ACEH";"79271";"Indonesia";"";"0.6475666";"108.9446699";"https://maps.google.com/?cid=0x0:0x1023eb8fc1c11c41"
"housing complex";"housing complex";"Rumah Eko";"";"";"ACEH";"";"Indonesia";"";"-2.44565";"117.8888";"https://maps.google.com/?cid=0x0:0xcfeb8e5ff4acd274"
"housing complex";"Komplek perumahan";"Kuale";"PV4Q+9PW, Sungai Raya, Sungai Raya Kepulauan, Kabupaten Bengkayang, Kalimantan Barat 79271";"Sungai Raya, Sungai Raya Kepulauan, Kabupaten Bengkayang";"ACEH";"79271";"Indonesia";"";"0.7049902";"108.8889752";"https://maps.google.com/?cid=0x0:0x35c02a342aa7420c"
