Category;Real Category;Business Name;Address;City;State;Postal Code;Country;Phone;Email;Website;Latitude;Longitude;Map Link;Details Link
"perumahan";"perumahan";"Kec. Namrole";"Kabupaten Buru Selatan, Maluku";"Kabupaten Buru Selatan, Maluku";"MALUKU";"";"Indonesia";"";"";"";"-3.8444685";"126.7353848";"https://maps.google.com/?cid=0x0:0xe0ed0a265027f75e";""
"perumahan";"Komplek perumahan";"Perumahan guru";"5RXC+VPX, Leku, Kec. Namrole, Kabupaten Buru Selatan, Maluku";"Kabupaten Buru Selatan, Maluku";"MALUKU";"";"Indonesia";"";"";"";"-3.8002584";"126.8218639";"https://maps.google.com/?cid=0x0:0xc486838009b4eba2";""
"perumahan";"Pembangunan Perumahan";"Dante";"5P2V+67F, Labuang, Kec. Namrole, Kabupaten Buru Selatan, Maluku";"Kabupaten Buru Selatan, Maluku";"MALUKU";"";"Indonesia";"";"";"";"-3.8494285";"126.743178";"https://maps.google.com/?cid=0x0:0x61db547faa7d6a2e";""
"perumahan";"Pembangunan Perumahan";"Desa Leku";"5RW6+FJC, Leku, Kec. Namrole, Kabupaten Buru Selatan, Maluku";"Kabupaten Buru Selatan, Maluku";"MALUKU";"";"Indonesia";" 081238982426";"";"";"-3.8030322";"126.8116229";"https://maps.google.com/?cid=0x0:0x24be682648fe8fbf";""
"perumahan";"Komplek perumahan";"Rumah tua Solissa";"5P25+45J, Jl. Kabupaten, Lektama, Kec. Namrole, Kabupaten Buru Selatan, Maluku";"Kabupaten Buru Selatan, Maluku";"MALUKU";"";"Indonesia";"";"";"";"-3.849552";"126.707708";"https://maps.google.com/?cid=0x0:0xbfbc5e8b1e7ab242";""
"perumahan";"Komplek perumahan";"Kompleks jalan tengah";"5RW6+FJC, Leku, Kec. Namrole, Kabupaten Buru Selatan, Maluku";"Kabupaten Buru Selatan, Maluku";"MALUKU";"";"Indonesia";"";"";"";"-3.8031782";"126.8118579";"https://maps.google.com/?cid=0x0:0x6c3734d546924735";""
"perumahan";"Pembangunan Perumahan";"Rumah Nene Dia";"4MQQ+RJ, Lektama, Kec. Namrole, Kabupaten Buru Selatan, Maluku";"Kabupaten Buru Selatan, Maluku";"MALUKU";"";"Indonesia";"";"";"";"-3.8598203";"126.689111";"https://maps.google.com/?cid=0x0:0x70c01e35cadfd55a";""
"perumahan";"Pembangunan Perumahan";"ALEKA LESNUSSA";"5P3P+7MC, Labuang, Kec. Namrole, Kabupaten Buru Selatan, Maluku";"Kabupaten Buru Selatan, Maluku";"MALUKU";"";"Indonesia";"";"";"";"-3.8468156";"126.7366302";"https://maps.google.com/?cid=0x0:0x476f04bdc6287d12";""
"perumahan";"Komplek perumahan";"KOSAN LADOPURA";"5P3G+W27, Elfule, Kec. Namrole, Kabupaten Buru Selatan, Maluku";"Kabupaten Buru Selatan, Maluku";"MALUKU";"";"Indonesia";"";"";"";"-3.8452125";"126.7250469";"https://maps.google.com/?cid=0x0:0x787b95f5f0e5693";""
"perumahan";"Komplek perumahan";"Rumah Torres";"5P37+CRJ, Elfule, Kec. Namrole, Kabupaten Buru Selatan, Maluku";"Kabupaten Buru Selatan, Maluku";"MALUKU";"";"Indonesia";"";"";"";"-3.8464135";"126.7145162";"https://maps.google.com/?cid=0x0:0x53096d42ad0c150c";""
"perumahan";"Komplek perumahan";"Nuraisa titawael";"5P26+M7H, Jl. Kabupaten, Fatmite, Kec. Namrole, Kabupaten Buru Selatan, Maluku";"Kabupaten Buru Selatan, Maluku";"MALUKU";"";"Indonesia";" 081236440876";"";"";"-3.8483189";"126.7107278";"https://maps.google.com/?cid=0x0:0x22c73fcb6756bd3d";""
"perumahan";"Komplek perumahan";"Dusun Fatsinan";"5QF2+Q5, Labuang, Kec. Namrole, Kabupaten Buru Selatan, Maluku";"Kabupaten Buru Selatan, Maluku";"MALUKU";"";"Indonesia";"";"";"";"-3.8256204";"126.750433";"https://maps.google.com/?cid=0x0:0xd7027fe238aae56d";""
"perumahan";"Komplek perumahan";"rumah";"5P3G+RVX, Elfule, Kec. Namrole, Kabupaten Buru Selatan, Maluku";"Kabupaten Buru Selatan, Maluku";"MALUKU";"";"Indonesia";"";"";"";"-3.8456283";"126.7266767";"https://maps.google.com/?cid=0x0:0xb6390232434b7dc4";""
"perumahan";"Komplek perumahan";"Nanda Pohon Durian";"5RW5+47W, Jl. Kabupaten, Leku, Kec. Namrole, Kabupaten Buru Selatan, Maluku";"Kabupaten Buru Selatan, Maluku";"MALUKU";"";"Indonesia";"";"";"";"-3.8046305";"126.8081942";"https://maps.google.com/?cid=0x0:0x6d7047f8069d6357";""
"perumahan";"Komplek perumahan";"Kosan ningsalsa";"5P25+XHG, Lektama, Kec. Namrole, Kabupaten Buru Selatan, Maluku";"Kabupaten Buru Selatan, Maluku";"MALUKU";"";"Indonesia";"";"";"";"-3.8475696";"126.7089546";"https://maps.google.com/?cid=0x0:0xa498adb7f6d27a5d";""
"perumahan";"Komplek perumahan";"Rumah kost murah";"5P4P+656, Labuang, Kec. Namrole, Kabupaten Buru Selatan, Maluku";"Kabupaten Buru Selatan, Maluku";"MALUKU";"";"Indonesia";"";"";"";"-3.8444685";"126.7353848";"https://maps.google.com/?cid=0x0:0xe2cfb1731283c272";""
"perumahan";"perumahan";"Manutilaa Home";"5P4H+V2M, Elfule, Kec. Namrole, Kabupaten Buru Selatan, Maluku";"Kabupaten Buru Selatan, Maluku";"MALUKU";"";"Indonesia";"";"";"";"-3.8432509";"126.7282303";"https://maps.google.com/?cid=0x0:0xe56995587bb19459";""
"perumahan";"Komplek perumahan";"Lintas namlea namrole cheno";"5P3P+7MC, Labuang, Kec. Namrole, Kabupaten Buru Selatan, Maluku";"Kabupaten Buru Selatan, Maluku";"MALUKU";"";"Indonesia";"";"";"";"-3.8463356";"126.7374976";"https://maps.google.com/?cid=0x0:0xeeb2ae3e5fe327c0";""
"perumahan";"Komplek perumahan";"Kampoeng Namrinat";"5PQ2+5QC, Fatmite, Kec. Namrole, Kabupaten Buru Selatan, Maluku";"Kabupaten Buru Selatan, Maluku";"MALUKU";"";"Indonesia";"";"";"";"-3.8120642";"126.7018773";"https://maps.google.com/?cid=0x0:0x7fb24c35359fe667";""
"perumahan";"Komplek perumahan";"Kios sembako Rafika";"5P4J+F34, Elfule, Kec. Namrole, Kabupaten Buru Selatan, Maluku";"Kabupaten Buru Selatan, Maluku";"MALUKU";"";"Indonesia";"";"";"";"-3.8439848";"126.7303182";"https://maps.google.com/?cid=0x0:0x9645a3f2d817dde4";""
"perumahan";"Komplek perumahan";"Asmara Dwi Prasetya";"5P4H+PMF, Elfule, Kec. Namrole, Kabupaten Buru Selatan, Maluku";"Kabupaten Buru Selatan, Maluku";"MALUKU";"";"Indonesia";"";"";"";"-3.84318";"126.7291758";"https://maps.google.com/?cid=0x0:0x647752d5334f350f";""
"perumahan";"perumahan";"Maluku";"";"Maluku";"MALUKU";"";"Indonesia";"";"";"";"-3.2384616";"130.1452734";"https://maps.google.com/?cid=0x0:0x5e30e8db04649a51";""
"perumahan";"perumahan";"Kec. Ambalau";"Kabupaten Buru Selatan, Maluku";"Kabupaten Buru Selatan, Maluku";"MALUKU";"";"Indonesia";"";"";"";"-3.8899285";"127.2026214";"https://maps.google.com/?cid=0x0:0x2312ee616bf35f0";""
"perumahan";"Perumahan rakyat";"Kompleks sare";"5596+HJ, Masawoy, Kec. Ambalau, Kabupaten Buru Selatan, Maluku";"Kabupaten Buru Selatan, Maluku";"MALUKU";"";"Indonesia";"";"";"";"-3.8317597";"127.1609716";"https://maps.google.com/?cid=0x0:0xe7aaebd7ff2c31e";""
"perumahan";"Pusat Perbelanjaan";"Ambalau Wailua Buru Selatan";"4663+22H, Masawoy, Kec. Ambalau, Kabupaten Buru Selatan, Maluku";"Kabupaten Buru Selatan, Maluku";"MALUKU";"";"Indonesia";"";"";"";"-3.8899481";"127.2026247";"https://maps.google.com/?cid=0x0:0x2ce5a9d33fa98772";""
"perumahan";"Balai masyarakat";"Desa kampung baru";"55C6+5G2, Jalan, bembihu, Kec. Ambalau, Kabupaten Buru Selatan, Maluku";"Kabupaten Buru Selatan, Maluku";"MALUKU";"";"Indonesia";"";"";"";"-3.8296125";"127.1612656";"https://maps.google.com/?cid=0x0:0x4d31e2ef80d17e14";""
"perumahan";"Komplek perumahan";"Komplek telaga biru";"55FJ+C7Q, Jl. Kabupaten, Masawoy, Kec. Ambalau, Kabupaten Buru Selatan, Maluku";"Kabupaten Buru Selatan, Maluku";"MALUKU";"";"Indonesia";"";"";"";"-3.8263441";"127.1806658";"https://maps.google.com/?cid=0x0:0xf0de797eac69eefc";""
"perumahan";"Komplek perumahan";"Rumah Damin Mony";"3982+27F, Elara, Kec. Ambalau, Kabupaten Buru Selatan, Maluku";"Kabupaten Buru Selatan, Maluku";"MALUKU";"";"Indonesia";"";"";"";"-3.9349409";"127.3506658";"https://maps.google.com/?cid=0x0:0xe958e8f701ac994b";""
"perumahan";"perumahan";"Rumah dhingo";"4662+MQ7, Pulau, Masawoy, Kec. Ambalau, Kabupaten Buru Selatan, Maluku";"Kabupaten Buru Selatan, Maluku";"MALUKU";"";"Indonesia";"";"";"";"-3.8883359";"127.2019103";"https://maps.google.com/?cid=0x0:0x836d9a5728cdbd7d";""
"perumahan";"Perhimpunan Pengembang Perumahan";"DESA LUMOY";"46XP+7J8, kampung baru, Kec. Ambalau, Kabupaten Buru Selatan, Maluku";"Kabupaten Buru Selatan, Maluku";"MALUKU";"";"Indonesia";"";"";"";"-3.8513858";"127.2375061";"https://maps.google.com/?cid=0x0:0xeda8cc8a3c27149a";""
"perumahan";"Toko";"Rumah salman";"55CJ+W9F, Pulau, Masawoy, Kec. Ambalau, Kabupaten Buru Selatan, Maluku";"Kabupaten Buru Selatan, Maluku";"MALUKU";"";"Indonesia";"";"";"";"-3.8275058";"127.1806962";"https://maps.google.com/?cid=0x0:0xc08ee90cbf34809a";""
"perumahan";"Pembangunan Perumahan";"Kampung sare";"X5QH+VQG, Kp. Baru, Kec. Ambalau, Kabupaten Buru Selatan, Maluku";"Kabupaten Buru Selatan, Maluku";"MALUKU";"";"Indonesia";"";"";"";"-4.010317";"127.1794485";"https://maps.google.com/?cid=0x0:0x27f36d12ae43530b";""
"perumahan";"Komplek perumahan";"KOMPLEKS HIYOLENA";"55C6+5G2, Kampung baru, Kec. Ambalau, Kabupaten Buru Selatan, Maluku";"Kabupaten Buru Selatan, Maluku";"MALUKU";"";"Indonesia";"";"";"";"-3.8292586";"127.162312";"https://maps.google.com/?cid=0x0:0x36bdee071e93a74c";""
"perumahan";"Pembangunan Perumahan";"Rumah Syahrul";"5596+WMQ, Pulau, Masawoy, Kec. Ambalau, Kabupaten Buru Selatan, Maluku";"Kabupaten Buru Selatan, Maluku";"MALUKU";"";"Indonesia";"";"";"";"-3.8301743";"127.161738";"https://maps.google.com/?cid=0x0:0xb0a91513af57b469";""
"perumahan";"Perumahan rakyat";"Perumahan Nurhayati";"55FJ+G4H, Masawoy, Kec. Ambalau, Kabupaten Buru Selatan, Maluku";"Kabupaten Buru Selatan, Maluku";"MALUKU";"";"Indonesia";"";"";"";"-3.8260713";"127.1803098";"https://maps.google.com/?cid=0x0:0xf1fc2a8838481292";""
"perumahan";"Komplek perumahan";"KOMPLEKS TOWER INDAH";"5596+HJ, Kampung Baru, Kec. Ambalau, Kabupaten Buru Selatan, Maluku";"Kabupaten Buru Selatan, Maluku";"MALUKU";"";"Indonesia";"";"";"";"-3.8310295";"127.1615146";"https://maps.google.com/?cid=0x0:0x8767370eb2071bb3";""
"perumahan";"perumahan";"Tiga putra";"4662+MQ7, Masawoy, Kec. Ambalau, Kabupaten Buru Selatan, Maluku";"Kabupaten Buru Selatan, Maluku";"MALUKU";"";"Indonesia";"";"";"";"-3.8883322";"127.2019286";"https://maps.google.com/?cid=0x0:0xacadef30751f7850";""
"perumahan";"Rumah Kayu";"Rumah husen mony";"4664+8FR, Masawoy, Kec. Ambalau, Kabupaten Buru Selatan, Maluku";"Kabupaten Buru Selatan, Maluku";"MALUKU";"";"Indonesia";"";"";"";"-3.8891387";"127.206154";"https://maps.google.com/?cid=0x0:0xbf763973b54bafbe";""
"perumahan";"Perumahan rakyat";"Notoy";"55FJ+G4H, Pulau, Masawoy, Kec. Ambalau, Kabupaten Buru Selatan, Maluku";"Kabupaten Buru Selatan, Maluku";"MALUKU";"";"Indonesia";"";"";"";"-3.8261961";"127.1803572";"https://maps.google.com/?cid=0x0:0xb95c0c2318000528";""
"perumahan";"Komplek perumahan";"Rmh'upan belasa";"55FH+9X3, Masawoy, Kec. Ambalau, Kabupaten Buru Selatan, Maluku";"Kabupaten Buru Selatan, Maluku";"MALUKU";"";"Indonesia";"";"";"";"-3.8267899";"127.1803452";"https://maps.google.com/?cid=0x0:0x33939f3ad4cfa9fa";""
"perumahan";"Perumahan rakyat";"Tukmuly";"55C7+F7, Masawoy, Kec. Ambalau, Kabupaten Buru Selatan, Maluku";"Kabupaten Buru Selatan, Maluku";"MALUKU";"";"Indonesia";"";"";"";"-3.8289083";"127.1632605";"https://maps.google.com/?cid=0x0:0x35efdd6bc67e91a8";""
"perumahan";"Perumahan rakyat";"R, Al Fajar";"55FH+28J, Pulau, Masawoy, Kec. Ambalau, Kabupaten Buru Selatan, Maluku";"Kabupaten Buru Selatan, Maluku";"MALUKU";"";"Indonesia";"";"";"";"-3.827418";"127.1782522";"https://maps.google.com/?cid=0x0:0x803be931cfc0c728";""
"perumahan";"perumahan";"Kalimantan Barat 78684";"Kabupaten Sintang, Kalimantan Barat";"Kabupaten Sintang, Kalimantan Barat";"MALUKU";"";"Indonesia";"";"";"";"-0.0687881";"112.9058802";"https://maps.google.com/?cid=0x0:0xc818bb777c60929";""
"perumahan";"Komplek perumahan";"Desa Bukai Tukun, kec. Ambalau";"RPFH+2XV, Dusun nanga jabai, desa Bukai Tukun, Kec. Ambalau, Kabupaten Sintang, Kalimantan Barat";"Kabupaten Sintang, Kalimantan Barat";"MALUKU";"";"Indonesia";"";"";"";"-0.1773926";"112.7299186";"https://maps.google.com/?cid=0x0:0x3b9d7f553a8e93f";""
"perumahan";"Komplek perumahan";"SUGUS AMBALAU";"QP83+Q8M, Nanga Kemangai, Kec. Ambalau, Kabupaten Sintang, Kalimantan Barat 78684";"Nanga Kemangai, Kec. Ambalau, Kabupaten Sintang";"MALUKU";"78684";"Indonesia";"";"";"";"-0.2330428";"112.7032945";"https://maps.google.com/?cid=0x0:0x96c506d5b2b989f2";""
"perumahan";"Pembangunan Perumahan";"Nanga Keremoi";"XQM7+2QF, Nanga Keremoi, Kec. Ambalau, Kabupaten Sintang, Kalimantan Barat 78684";"Nanga Keremoi, Kec. Ambalau, Kabupaten Sintang";"MALUKU";"78684";"Indonesia";"";"";"";"-0.0174313";"112.7644165";"https://maps.google.com/?cid=0x0:0x975efb487ac0365a";""
"perumahan";"Perumahan";"Nanga Pahangan";"P36C+CJ3, Nanga Pahangan, Kec. Ambalau, Kabupaten Sintang, Kalimantan Barat 78684";"Nanga Pahangan, Kec. Ambalau, Kabupaten Sintang";"MALUKU";"78684";"Indonesia";"";"";"";"-0.2889905";"113.0715497";"https://maps.google.com/?cid=0x0:0xb3cfc9316da06f20";""
"perumahan";"Pembangunan Perumahan";"Nanga Menantak";"QX49+5V3, Nanga Menantak, Kec. Ambalau, Kabupaten Sintang, Kalimantan Barat 78684";"Nanga Menantak, Kec. Ambalau, Kabupaten Sintang";"MALUKU";"78684";"Indonesia";"";"";"";"-0.2446181";"112.9696776";"https://maps.google.com/?cid=0x0:0x3c9a55c6eda2a8b7";""
"perumahan";"Komplek perumahan";"Rumah uyu";"VR66+V6F, Dusun selabi, Kec. Ambalau, Kabupaten Sintang, Kalimantan Barat";"Kabupaten Sintang, Kalimantan Barat";"MALUKU";"";"Indonesia";"";"";"";"-0.1378068";"112.8105512";"https://maps.google.com/?cid=0x0:0x3609945f93b756c";""
"perumahan";"Komplek perumahan";"Tower Telkomsel kec ambalau";"QP46+G4, Nanga Kemangai, Kec. Ambalau, Kabupaten Sintang, Kalimantan Barat";"Kabupaten Sintang, Kalimantan Barat";"MALUKU";"";"Indonesia";"";"";"";"-0.2436655";"112.7102771";"https://maps.google.com/?cid=0x0:0x57cef8f4bf19e566";""
"perumahan";"Komplek perumahan";"Rumah Tri Pussa";"VR66+V6F, Dusun puduk, desa sinar harapan, Nanga Sakai, Kec. Ambalau, Kabupaten Sintang, Kalimantan Barat 78684";"Dusun puduk, desa sinar harapan, Nanga Sakai, Kec. Ambalau, Kabupaten Sintang";"MALUKU";"78684";"Indonesia";"";"";"";"-0.1378068";"112.8105512";"https://maps.google.com/?cid=0x0:0x1487ee7689f903d4";""
"perumahan";"perumahan";"Kec. Ambalau";"Kabupaten Buru Selatan, Maluku";"Kabupaten Buru Selatan, Maluku";"MALUKU";"";"Indonesia";"";"";"";"-3.8899285";"127.2026214";"https://maps.google.com/?cid=0x0:0x2312ee616bf35f0";""
"perumahan";"Perumahan rakyat";"Kompleks sare";"5596+HJ, Masawoy, Kec. Ambalau, Kabupaten Buru Selatan, Maluku";"Kabupaten Buru Selatan, Maluku";"MALUKU";"";"Indonesia";"";"";"";"-3.8317597";"127.1609716";"https://maps.google.com/?cid=0x0:0xe7aaebd7ff2c31e";""
"perumahan";"Pusat Perbelanjaan";"Ambalau Wailua Buru Selatan";"4663+22H, Masawoy, Kec. Ambalau, Kabupaten Buru Selatan, Maluku";"Kabupaten Buru Selatan, Maluku";"MALUKU";"";"Indonesia";"";"";"";"-3.8899481";"127.2026247";"https://maps.google.com/?cid=0x0:0x2ce5a9d33fa98772";""
"perumahan";"Komplek perumahan";"Ruma taufik booy";"55CJ+W9F, Pulau, Masawoy, Kec. Ambalau, Kabupaten Buru Selatan, Maluku";"Kabupaten Buru Selatan, Maluku";"MALUKU";"";"Indonesia";"";"";"";"-3.8276433";"127.1810734";"https://maps.google.com/?cid=0x0:0x79aa7ce03c76d7c2";""
"perumahan";"Perhimpunan Pengembang Perumahan";"DESA LUMOY";"46XP+7J8, kampung baru, Kec. Ambalau, Kabupaten Buru Selatan, Maluku";"Kabupaten Buru Selatan, Maluku";"MALUKU";"";"Indonesia";"";"";"";"-3.8513858";"127.2375061";"https://maps.google.com/?cid=0x0:0xeda8cc8a3c27149a";""
"perumahan";"perumahan";"Rumah dhingo";"4662+MQ7, Pulau, Masawoy, Kec. Ambalau, Kabupaten Buru Selatan, Maluku";"Kabupaten Buru Selatan, Maluku";"MALUKU";"";"Indonesia";"";"";"";"-3.8883359";"127.2019103";"https://maps.google.com/?cid=0x0:0x836d9a5728cdbd7d";""
"perumahan";"Komplek perumahan";"KOMPLEKS HIYOLENA";"55C6+5G2, Kampung baru, Kec. Ambalau, Kabupaten Buru Selatan, Maluku";"Kabupaten Buru Selatan, Maluku";"MALUKU";"";"Indonesia";"";"";"";"-3.8292586";"127.162312";"https://maps.google.com/?cid=0x0:0x36bdee071e93a74c";""
"perumahan";"Komplek perumahan";"Komplek telaga biru";"55FJ+C7Q, Jl. Kabupaten, Masawoy, Kec. Ambalau, Kabupaten Buru Selatan, Maluku";"Kabupaten Buru Selatan, Maluku";"MALUKU";"";"Indonesia";"";"";"";"-3.8263441";"127.1806658";"https://maps.google.com/?cid=0x0:0xf0de797eac69eefc";""
"perumahan";"Pembangunan Perumahan";"Kampung sare";"X5QH+VQG, Kp. Baru, Kec. Ambalau, Kabupaten Buru Selatan, Maluku";"Kabupaten Buru Selatan, Maluku";"MALUKU";"";"Indonesia";"";"";"";"-4.010317";"127.1794485";"https://maps.google.com/?cid=0x0:0x27f36d12ae43530b";""
"perumahan";"Komplek perumahan";"Rumah Damin Mony";"3982+27F, Elara, Kec. Ambalau, Kabupaten Buru Selatan, Maluku";"Kabupaten Buru Selatan, Maluku";"MALUKU";"";"Indonesia";"";"";"";"-3.9349409";"127.3506658";"https://maps.google.com/?cid=0x0:0xe958e8f701ac994b";""
"perumahan";"Perumahan rakyat";"Perumahan Nurhayati";"55FJ+G4H, Masawoy, Kec. Ambalau, Kabupaten Buru Selatan, Maluku";"Kabupaten Buru Selatan, Maluku";"MALUKU";"";"Indonesia";"";"";"";"-3.8260713";"127.1803098";"https://maps.google.com/?cid=0x0:0xf1fc2a8838481292";""
"perumahan";"Toko";"Rumah salman";"55CJ+W9F, Pulau, Masawoy, Kec. Ambalau, Kabupaten Buru Selatan, Maluku";"Kabupaten Buru Selatan, Maluku";"MALUKU";"";"Indonesia";"";"";"";"-3.8275058";"127.1806962";"https://maps.google.com/?cid=0x0:0xc08ee90cbf34809a";""
"perumahan";"perumahan";"Tiga putra";"4662+MQ7, Masawoy, Kec. Ambalau, Kabupaten Buru Selatan, Maluku";"Kabupaten Buru Selatan, Maluku";"MALUKU";"";"Indonesia";"";"";"";"-3.8883322";"127.2019286";"https://maps.google.com/?cid=0x0:0xacadef30751f7850";""
"perumahan";"Komplek perumahan";"Komplek Batako";"4664+8FR, Masawoy, Kec. Ambalau, Kabupaten Buru Selatan, Maluku";"Kabupaten Buru Selatan, Maluku";"MALUKU";"";"Indonesia";"";"";"";"-3.8892874";"127.2061395";"https://maps.google.com/?cid=0x0:0x50dd2139fd848a6d";""
"perumahan";"Komplek perumahan";"kel. Rumain";"55FH+Q67, Masawoy, Kec. Ambalau, Kabupaten Buru Selatan, Maluku";"Kabupaten Buru Selatan, Maluku";"MALUKU";"";"Indonesia";"";"";"";"-3.8253043";"127.177383";"https://maps.google.com/?cid=0x0:0xa2c5517890d9b920";""
"perumahan";"Pembangunan Perumahan";"Rumah Syahrul";"5596+WMQ, Pulau, Masawoy, Kec. Ambalau, Kabupaten Buru Selatan, Maluku";"Kabupaten Buru Selatan, Maluku";"MALUKU";"";"Indonesia";"";"";"";"-3.8301743";"127.161738";"https://maps.google.com/?cid=0x0:0xb0a91513af57b469";""
"perumahan";"Perumahan rakyat";"Tukmuly";"55C7+F7, Masawoy, Kec. Ambalau, Kabupaten Buru Selatan, Maluku";"Kabupaten Buru Selatan, Maluku";"MALUKU";"";"Indonesia";"";"";"";"-3.8289083";"127.1632605";"https://maps.google.com/?cid=0x0:0x35efdd6bc67e91a8";""
"perumahan";"Perumahan rakyat";"R, Al Fajar";"55FH+28J, Pulau, Masawoy, Kec. Ambalau, Kabupaten Buru Selatan, Maluku";"Kabupaten Buru Selatan, Maluku";"MALUKU";"";"Indonesia";"";"";"";"-3.827418";"127.1782522";"https://maps.google.com/?cid=0x0:0x803be931cfc0c728";""
"perumahan";"Komplek perumahan";"Rmh'upan belasa";"55FH+9X3, Masawoy, Kec. Ambalau, Kabupaten Buru Selatan, Maluku";"Kabupaten Buru Selatan, Maluku";"MALUKU";"";"Indonesia";"";"";"";"-3.8267899";"127.1803452";"https://maps.google.com/?cid=0x0:0x33939f3ad4cfa9fa";""
"perumahan";"Komplek perumahan";"KOMPLEKS MANGGA DUA";"55C6+5G2, Jalan bembihu, Kampung Baru, Kec. Ambalau, Kabupaten Buru Selatan, Maluku";"Kabupaten Buru Selatan, Maluku";"MALUKU";"";"Indonesia";"";"";"";"-3.8296125";"127.1612656";"https://maps.google.com/?cid=0x0:0x9c2ff63fc5096ff";""
"perumahan";"Komplek perumahan";"Andi Souwakil";"46XP+7J8, Masawoy, Kec. Ambalau, Kabupaten Buru Selatan, Maluku";"Kabupaten Buru Selatan, Maluku";"MALUKU";"";"Indonesia";"";"";"";"-3.8514602";"127.235596";"https://maps.google.com/?cid=0x0:0xb53d2bcd16c1ccd6";""
"perumahan";"Pembangunan Perumahan";"Rumah kebby";"Q243+WX2, Pasir Putih, Kec. Kepala Madan, Kabupaten Buru Selatan, Maluku";"Kabupaten Buru Selatan, Maluku";"MALUKU";"";"Indonesia";"";"";"";"-3.2427382";"126.0049019";"https://maps.google.com/?cid=0x0:0xedbff1948a5731af";""
"perumahan";"perumahan";"Kec. Kepala Madan";"Kabupaten Buru Selatan, Maluku";"Kabupaten Buru Selatan, Maluku";"MALUKU";"";"Indonesia";"";"";"";"-3.3690832";"126.0177493";"https://maps.google.com/?cid=0x0:0x991aa36425e0a2b0";""
"perumahan";"Komplek perumahan";"KOMPLEK DUSUN KELAPA";"Q2QC+X3, Nanali, Kec. Kepala Madan, Kabupaten Buru Selatan, Maluku";"Kabupaten Buru Selatan, Maluku";"MALUKU";"";"Indonesia";"";"";"";"-3.2099567";"126.0202154";"https://maps.google.com/?cid=0x0:0xf6eeed4b3eac9c3a";""
"perumahan";"Pembangunan Perumahan";"Guru Udin";"V38F+XPF, Balpetu, Kec. Kepala Madan, Kabupaten Buru Selatan, Maluku";"Kabupaten Buru Selatan, Maluku";"MALUKU";"";"Indonesia";" 08124050536";"";"";"-3.1325585";"126.0743118";"https://maps.google.com/?cid=0x0:0x30aecdca0bb5203d";""
"perumahan";"Komplek perumahan";"Komplek KATAPANG";"R238+34, Nanali, Kec. Kepala Madan, Kabupaten Buru Selatan, Maluku";"Kabupaten Buru Selatan, Maluku";"MALUKU";"";"Indonesia";"";"";"";"-3.1973079";"126.015249";"https://maps.google.com/?cid=0x0:0x9f6a01532774e70f";""
"perumahan";"Pembangunan Perumahan";"Amirudin Wangse";"R289+J54, Biloro, Kec. Kepala Madan, Kabupaten Buru Selatan, Maluku";"Kabupaten Buru Selatan, Maluku";"MALUKU";"";"Indonesia";"";"";"";"-3.1834886";"126.0179529";"https://maps.google.com/?cid=0x0:0x577bdd12823e1ba8";""
"perumahan";"Pembangunan Perumahan";"Kepala Soa Hukunala";"F565+JV6, Emguhen, Kec. Kepala Madan, Kabupaten Buru Selatan, Maluku";"Kabupaten Buru Selatan, Maluku";"MALUKU";"";"Indonesia";"";"";"";"-3.5384736";"126.1596443";"https://maps.google.com/?cid=0x0:0xd94c642286bfed84";""
"perumahan";"Pembangunan Perumahan";"Arin Hakim";"R288+GJ, Biloro, Kec. Kepala Madan, Kabupaten Buru Selatan, Maluku";"Kabupaten Buru Selatan, Maluku";"MALUKU";"";"Indonesia";"";"";"";"-3.1836564";"126.0165325";"https://maps.google.com/?cid=0x0:0xdfbdae04827d0cf6";""
"perumahan";"Pembangunan Perumahan";"DESA BALPETU";"V39G+3GV, Balpetu, Kec. Kepala Madan, Kabupaten Buru Selatan, Maluku";"Kabupaten Buru Selatan, Maluku";"MALUKU";"";"Indonesia";"";"";"";"-3.1322747";"126.0763002";"https://maps.google.com/?cid=0x0:0xa419fc27caa2a30d";""
"perumahan";"Pembangunan Perumahan";"Rumah' Baharudin ntt";"V39G+8G6, Balpetu, Kec. Kepala Madan, Kabupaten Buru Selatan, Maluku";"Kabupaten Buru Selatan, Maluku";"MALUKU";"";"Indonesia";"";"";"";"-3.1314799";"126.0766128";"https://maps.google.com/?cid=0x0:0xc1233c1c93a2d3ba";""
"perumahan";"Perhimpunan Pengembang Perumahan";"Desa Airternate";"P2H4+MG, Air Ternate, Kec. Kepala Madan, Kabupaten Buru Selatan, Maluku";"Kabupaten Buru Selatan, Maluku";"MALUKU";"";"Indonesia";"";"";"";"-3.2707234";"126.0063598";"https://maps.google.com/?cid=0x0:0x6c76945a5f21ac1f";""
"perumahan";"Komplek perumahan";"Superboy";"Q273+8X8, Pasir Putih, Kec. Kepala Madan, Kabupaten Buru Selatan, Maluku";"Kabupaten Buru Selatan, Maluku";"MALUKU";"";"Indonesia";"";"";"";"-3.2361807";"126.0047375";"https://maps.google.com/?cid=0x0:0x8e8a95219e7c64f5";""
"perumahan";"Perhimpunan Pengembang Perumahan";"Desa Waehotong";"R4XF+8R, Balpetu, Kec. Kepala Madan, Kabupaten Buru Selatan, Maluku";"Kabupaten Buru Selatan, Maluku";"MALUKU";"";"Indonesia";"";"";"";"-3.1514398";"126.1240085";"https://maps.google.com/?cid=0x0:0x6cc115106a2a8976";""
"perumahan";"Komplek perumahan";"Rumah papak LIVIA";"Q264+C7W, Pasir Putih, Kec. Kepala Madan, Kabupaten Buru Selatan, Maluku";"Kabupaten Buru Selatan, Maluku";"MALUKU";"";"Indonesia";"";"";"";"-3.2387672";"126.0063487";"https://maps.google.com/?cid=0x0:0x4c2b33043e07735e";""
"perumahan";"Pembangunan Perumahan";"Husni Barnonsa";"J22R+29P, Waepandan, Kec. Kepala Madan, Kabupaten Buru Selatan, Maluku";"Kabupaten Buru Selatan, Maluku";"MALUKU";"";"Indonesia";"";"";"";"-3.399902";"126.0409467";"https://maps.google.com/?cid=0x0:0x9c70147297edf77a";""
"perumahan";"Komplek perumahan";"DESA WAEHA";"J2J8+MM7, Fogi, Kec. Kepala Madan, Kabupaten Buru Selatan, Maluku";"Kabupaten Buru Selatan, Maluku";"MALUKU";"";"Indonesia";"";"";"";"-3.368326";"126.0166741";"https://maps.google.com/?cid=0x0:0xef4374c264dccebd";""
"perumahan";"Komplek perumahan";"Komplek Tanjung";"Q264+HFW, Pasir Putih, Kec. Kepala Madan, Kabupaten Buru Selatan, Maluku";"Kabupaten Buru Selatan, Maluku";"MALUKU";"";"Indonesia";"";"";"";"-3.2385";"126.0062173";"https://maps.google.com/?cid=0x0:0xad56835922e3d32b";""
"perumahan";"Pembangunan Perumahan";"Desa biloro";"Q3M4+2M9, Biloro, Kec. Kepala Madan, Kabupaten Buru Selatan, Maluku";"Kabupaten Buru Selatan, Maluku";"MALUKU";"";"Indonesia";"";"";"";"-3.2174511";"126.0567202";"https://maps.google.com/?cid=0x0:0x1b8f55ef00d59305";""
"perumahan";"Komplek perumahan";"Roina Talessy";"F566+F55, Walbele, Kec. Kepala Madan, Kabupaten Buru Selatan, Maluku";"Kabupaten Buru Selatan, Maluku";"MALUKU";"";"Indonesia";"";"";"";"-3.5388635";"126.1604969";"https://maps.google.com/?cid=0x0:0x2c400103a93069ed";""
"perumahan";"Komplek perumahan";"Komples Misteri";"J23Q+VF5, Waepandan, Kec. Kepala Madan, Kabupaten Buru Selatan, Maluku";"Kabupaten Buru Selatan, Maluku";"MALUKU";"";"Indonesia";"";"";"";"-3.3953575";"126.0387496";"https://maps.google.com/?cid=0x0:0x3e316d047848cd3c";""
"perumahan";"Komplek perumahan";"Mantu ayening";"Q243+WX, Pasir Putih, Kec. Kepala Madan, Kabupaten Buru Selatan, Maluku";"Kabupaten Buru Selatan, Maluku";"MALUKU";"";"Indonesia";"";"";"";"-3.2426298";"126.0048875";"https://maps.google.com/?cid=0x0:0xa0e3c2489d430463";""
"perumahan";"Masjid";"Mesjid An-Nur desa Batu layar. Kec. Kapala Madang.";"G39R+889, Walbele, Kec. Kepala Madan, Kabupaten Buru Selatan, Maluku";"Kabupaten Buru Selatan, Maluku";"MALUKU";"";"Indonesia";"";"";"";"-3.4817125";"126.0908594";"https://maps.google.com/?cid=0x0:0xbbaa0dec3c1d11a1";""
"perumahan";"Komplek perumahan";"Home nyoman";"Q264+F5G, Pasir Putih, Kec. Kepala Madan, Kabupaten Buru Selatan, Maluku";"Kabupaten Buru Selatan, Maluku";"MALUKU";"";"Indonesia";"";"";"";"-3.2381759";"126.005571";"https://maps.google.com/?cid=0x0:0xac71e86bbca660d";""
"perumahan";"perumahan";"Leksula";"Kabupaten Buru Selatan, Maluku";"Kabupaten Buru Selatan, Maluku";"MALUKU";"";"Indonesia";"";"";"";"-3.5795592";"126.3064595";"https://maps.google.com/?cid=0x0:0xc3381880c2b002c0";""
"perumahan";"perumahan";"Lesnussa";"79XC+HX, Ewiri, Leksula, Kabupaten Buru Selatan, Maluku";"Kabupaten Buru Selatan, Maluku";"MALUKU";"";"Indonesia";"";"";"";"-3.701002";"126.372436";"https://maps.google.com/?cid=0x0:0x8f935e5c662d7f60";""
"perumahan";"Perhimpunan Pengembang Perumahan";"SENDI LESNUSSA";"6GF7+9HQ, Leksula, Kabupaten Buru Selatan, Maluku";"Kabupaten Buru Selatan, Maluku";"MALUKU";"";"Indonesia";"";"";"";"-3.7765469";"126.5139691";"https://maps.google.com/?cid=0x0:0x6c17c697cf865ce9";""
"perumahan";"perumahan";"F. Lesnussa";"6GC8+4CP, Leksula, Kabupaten Buru Selatan, Maluku";"Kabupaten Buru Selatan, Maluku";"MALUKU";"";"Indonesia";"";"";"";"-3.7796589";"126.5160877";"https://maps.google.com/?cid=0x0:0xf2fe9908ef2a21d";""
"perumahan";"Komplek perumahan";"Nalbessy";"6G6W+X82, Nalbessy, Leksula, Kabupaten Buru Selatan, Maluku";"Kabupaten Buru Selatan, Maluku";"MALUKU";"";"Indonesia";"";"";"";"-3.7876023";"126.5457751";"https://maps.google.com/?cid=0x0:0xdca65d0c5de155c3";""
"perumahan";"Pembangunan Perumahan";"Selsily";"79X9+3V, Ewiri, Leksula, Kabupaten Buru Selatan, Maluku";"Kabupaten Buru Selatan, Maluku";"MALUKU";"";"Indonesia";"";"";"";"-3.7022933";"126.3696001";"https://maps.google.com/?cid=0x0:0x68a7fc5d0ffba54c";""
"perumahan";"Komplek perumahan";"Desa Grahwaen";"97C3+PC5, Waemulang, Leksula, Kabupaten Buru Selatan, Maluku";"Kabupaten Buru Selatan, Maluku";"MALUKU";"";"Indonesia";"";"";"";"-3.6282447";"126.2536185";"https://maps.google.com/?cid=0x0:0xd58625d4764ccea6";""
"perumahan";"perumahan";"Terkuri";"9775+J7, Waemulang, Kabupaten Buru Selatan, Maluku";"Kabupaten Buru Selatan, Maluku";"MALUKU";"";"Indonesia";"";"";"";"-3.6359375";"126.2581875";"https://maps.google.com/?cid=0x0:0x75f3733c8b8b9044";""
"perumahan";"Pembangunan Perumahan";"Kel. Pdt. J. Tasane";"6GC7+X4W, Leksula, Kabupaten Buru Selatan, Maluku";"Kabupaten Buru Selatan, Maluku";"MALUKU";"";"Indonesia";"";"";"";"-3.7777536";"126.5137824";"https://maps.google.com/?cid=0x0:0x50db8a0f9094d918";""
"perumahan";"Komplek perumahan";"Jhon Biloro";"6GF7+9HQ, Leksula, Kabupaten Buru Selatan, Maluku";"Kabupaten Buru Selatan, Maluku";"MALUKU";"";"Indonesia";"";"";"";"-3.7770761";"126.514186";"https://maps.google.com/?cid=0x0:0x858c9df7d75bae55";""
"perumahan";"Komplek perumahan";"LPM lorong pertigaan maranatal";"6GC8+C53, Leksula, Kabupaten Buru Selatan, Maluku";"Kabupaten Buru Selatan, Maluku";"MALUKU";"";"Indonesia";"";"";"";"-3.7789798";"126.5154138";"https://maps.google.com/?cid=0x0:0xd3a33388d35b656";""
"perumahan";"Perhimpunan Pengembang Perumahan";"Keluarga W.LESNUSSA";"6GC8+C54, Leksula, Kabupaten Buru Selatan, Maluku";"Kabupaten Buru Selatan, Maluku";"MALUKU";"";"Indonesia";"";"";"";"-3.7789901";"126.5154453";"https://maps.google.com/?cid=0x0:0x54f68a26acde2bb2";""
"perumahan";"Komplek perumahan";"Jusua lesnussa";"6GF8+9M7, Leksula, Kabupaten Buru Selatan, Maluku";"Kabupaten Buru Selatan, Maluku";"MALUKU";"";"Indonesia";"";"";"";"-3.7765888";"126.5166838";"https://maps.google.com/?cid=0x0:0x4ce8f6449704db82";""
"perumahan";"Perhimpunan Pengembang Perumahan";"H Sigmarlatu";"7H5X+RCQ, Kase, Leksula, Kabupaten Buru Selatan, Maluku";"Kabupaten Buru Selatan, Maluku";"MALUKU";"";"Indonesia";"";"";"";"-3.7404026";"126.5985945";"https://maps.google.com/?cid=0x0:0xc79a03d50d5c2cb4";""
"perumahan";"Komplek perumahan";"Henry Home";"6GG5+2GG, Leksula, Kabupaten Buru Selatan, Maluku";"Kabupaten Buru Selatan, Maluku";"MALUKU";"";"Indonesia";"";"";"";"-3.7749341";"126.5088347";"https://maps.google.com/?cid=0x0:0x118637a4eb7fa58d";""
"perumahan";"Pembangunan Perumahan";"My home, Nhur smplwa";"88G9+4Q9, Leksula, Kabupaten Buru Selatan, Maluku";"Kabupaten Buru Selatan, Maluku";"MALUKU";"";"Indonesia";"";"";"";"-3.6747139";"126.3194749";"https://maps.google.com/?cid=0x0:0x5af602664c21aafe";""
"perumahan";"Pembangunan Perumahan";"Waemala City";"79X6+4HR, Waemala, Leksula, Kabupaten Buru Selatan, Maluku";"Kabupaten Buru Selatan, Maluku";"MALUKU";"";"Indonesia";"";"";"";"-3.7021415";"126.3614044";"https://maps.google.com/?cid=0x0:0xc727f15ff8f878e9";""
"perumahan";"Pembangunan Perumahan";"Dusun Waehaka";"88G9+4Q9, Leksula, Kabupaten Buru Selatan, Maluku";"Kabupaten Buru Selatan, Maluku";"MALUKU";"";"Indonesia";"";"";"";"-3.6747191";"126.3194769";"https://maps.google.com/?cid=0x0:0x84b2aa5844efcdc9";""
"perumahan";"Pembangunan Perumahan";"Henry Home";"7CP2+2J5, Tifu, Leksula, Kabupaten Buru Selatan, Maluku";"Kabupaten Buru Selatan, Maluku";"MALUKU";"";"Indonesia";"";"";"";"-3.7149953";"126.4016114";"https://maps.google.com/?cid=0x0:0x6a095af91332631f";""
"perumahan";"Komplek perumahan";"Rumah tua Solissa";"5P25+45J, Jl. Kabupaten, Lektama, Kec. Namrole, Kabupaten Buru Selatan, Maluku";"Kabupaten Buru Selatan, Maluku";"MALUKU";"";"Indonesia";"";"";"";"-3.849552";"126.707708";"https://maps.google.com/?cid=0x0:0xbfbc5e8b1e7ab242";""
"perumahan";"Pembangunan Perumahan";"ALEKA LESNUSSA";"5P3P+7MC, Labuang, Kec. Namrole, Kabupaten Buru Selatan, Maluku";"Kabupaten Buru Selatan, Maluku";"MALUKU";"";"Indonesia";"";"";"";"-3.8468156";"126.7366302";"https://maps.google.com/?cid=0x0:0x476f04bdc6287d12";""
"perumahan";"Pembangunan Perumahan";"Mngeswaen, Buru Selatan, Maluku";"9FMW+2G3, Mngeswaen, Fena Fafan, Kabupaten Buru Selatan, Maluku";"Kabupaten Buru Selatan, Maluku";"MALUKU";"";"Indonesia";"";"";"";"-3.6174813";"126.4963096";"https://maps.google.com/?cid=0x0:0x6cc04dcb9084386d";""
"perumahan";"Pusat Pendidikan";"Kantor Camat Fena Fafan";"FH5J+MM8, Waekatin, Fena Fafan, Kabupaten Buru Selatan, Maluku";"Kabupaten Buru Selatan, Maluku";"MALUKU";"";"Indonesia";"";"";"";"-3.5408259";"126.5817152";"https://maps.google.com/?cid=0x0:0x8acb2e9b386a0750";""
"perumahan";"perumahan";"Maluku";"";"Maluku";"MALUKU";"";"Indonesia";"";"";"";"-3.2384616";"130.1452734";"https://maps.google.com/?cid=0x0:0x5e30e8db04649a51";""
"perumahan";"Kantor Pemerintah";"Kantor UPTD Pendidikan Fena Fafan";"CGXV+5RG, Waekatin, Fena Fafan, Kabupaten Buru Selatan, Maluku";"Kabupaten Buru Selatan, Maluku";"MALUKU";"";"Indonesia";"";"";"";"-3.5520563";"126.5445805";"https://maps.google.com/?cid=0x0:0xd63a26f411095942";""
"building materials";"Minimarket";"Toko Mely Namrole";"Waenono, Elfule, Kec. Namrole, Kabupaten Buru Selatan, Maluku";"Kabupaten Buru Selatan, Maluku";"MALUKU";"";"Indonesia";"";"";"";"-3.8452296";"126.7251428";"https://maps.google.com/?cid=0x0:0xfb3b868a6b60063a";""
"building materials";"building materials";"Kec. Namrole";"Kabupaten Buru Selatan, Maluku";"Kabupaten Buru Selatan, Maluku";"MALUKU";"";"Indonesia";"";"";"";"-3.8444685";"126.7353848";"https://maps.google.com/?cid=0x0:0xe0ed0a265027f75e";""
"building materials";"Toko Bahan Bangunan";"Toko Besi dan Bangunan "Hidayah"";"HWQJ+WRV, Trans Buru Mako-Modaumohe, Waegeren, Kec. Waeapo, Kabupaten Buru, Maluku";"Kabupaten Buru, Maluku";"MALUKU";"";"Indonesia";" 082238719115";"";"";"-3.410132";"126.9320456";"https://maps.google.com/?cid=0x0:0x120a46875d558939";""
"building materials";"Bengkel Sepeda Motor";"BENGKEL LAS IDRIS";"Jl. Kabupaten, Labuang, Kec. Namrole, Kabupaten Buru Selatan, Maluku";"Kabupaten Buru Selatan, Maluku";"MALUKU";"";"Indonesia";" 081344963451";"";"";"-3.8464142";"126.7351016";"https://maps.google.com/?cid=0x0:0x224e4ef4437d3377";""
"building materials";"Toko Fotokopi";"FOTOCOPY DAN ALAT TULIS KANTOR DIFYA";"5P4C+9QP, Elfule, Kec. Namrole, Kabupaten Buru Selatan, Maluku";"Kabupaten Buru Selatan, Maluku";"MALUKU";"";"Indonesia";" 082199905919";"";"";"-3.8440437";"126.7219426";"https://maps.google.com/?cid=0x0:0x2ef41bad47055ff3";""
"building materials";"Toko Bahan Bangunan";"Toko Duta Bangunan";"Jl. Danau Rana, Namlea, Kec. Namlea, Kabupaten Buru, Maluku";"Kabupaten Buru, Maluku";"MALUKU";"";"Indonesia";" 091322010";"";"";"-3.269268";"127.1034228";"https://maps.google.com/?cid=0x0:0x4d2e61629ea407b9";""
"building materials";"Nasi";"Namrole, kabupaten buru Selatan";"7RC7+2P6, Labuang, Kec. Namrole, Kabupaten Buru Selatan, Maluku";"Kabupaten Buru Selatan, Maluku";"MALUKU";"";"Indonesia";"";"";"";"-3.7299502";"126.8142605";"https://maps.google.com/?cid=0x0:0x5f7ea9ea133113e5";""
"building materials";"Toko Bahan Bangunan";"TOKO BANGUNAN INDAH";"H2XC+MG8, Debowae, Kec. Waeapo, Kabupaten Buru, Maluku";"Kabupaten Buru, Maluku";"MALUKU";"";"Indonesia";" 082378990826";"";"";"-3.4009468";"127.0213428";"https://maps.google.com/?cid=0x0:0xf490914073a04836";""
"building materials";"Toko Bahan Bangunan";"TB. BAHAGIA";"HWQH+695, Waegeren, Kec. Waeapo, Kabupaten Buru, Maluku";"Kabupaten Buru, Maluku";"MALUKU";"";"Indonesia";"";"";"";"-3.4114934";"126.9291488";"https://maps.google.com/?cid=0x0:0xef99cce735992bc0";""
"building materials";"Toko Bahan Bangunan";"Eka Pratama";"JWQV+6P5, Luhu, Kec. Huamual Belakang, Kabupaten Seram Bagian Barat, Maluku";"Kabupaten Seram Bagian Barat, Maluku";"MALUKU";"";"Indonesia";" 08161999912";"";"";"-3.3619763";"127.9443737";"https://maps.google.com/?cid=0x0:0x9297fa79318e74fa";""
"building materials";"Toko";"TOKO FAJAR MAS";"P3CX+R5Q, Namlea, Kec. Namlea, Kabupaten Buru, Maluku";"Kabupaten Buru, Maluku";"MALUKU";"";"Indonesia";" 081316222080";"";"";"-3.2779017";"127.0979019";"https://maps.google.com/?cid=0x0:0xce7d9cbd242800a3";""
"building materials";"Toko Bahan Bangunan";"Toko bangunan Dinda Barokah";"P85C+XWC, Waihatu, Kec. Kairatu Bar., Kabupaten Seram Bagian Barat, Maluku";"Kabupaten Seram Bagian Barat, Maluku";"MALUKU";"";"Indonesia";" 081356194953";"";"";"-3.2900692";"128.3222692";"https://maps.google.com/?cid=0x0:0x634ca5cb31d21d51";""
"building materials";"Toko";"Toko Rifky Jkt Bru";"P385+MC7, Lokki, Kec. Huamual Belakang, Kabupaten Seram Bagian Barat, Maluku";"Kabupaten Seram Bagian Barat, Maluku";"MALUKU";"";"Indonesia";" 082378990826";"";"";"-3.2833419";"128.0585336";"https://maps.google.com/?cid=0x0:0xfc53f32c414a25a3";""
"building materials";"Toko Pakaian";"Toko Fadhilah.02";"Kompleks pasar unit 6, Waegeren, NAMLEA, Kabupaten Buru, Maluku 97576";"Waegeren, NAMLEA, Kabupaten Buru";"MALUKU";"97576";"Indonesia";" 082199985243";"";"";"-3.4142718";"126.92462";"https://maps.google.com/?cid=0x0:0x22ea317607f458a0";""
"building materials";"building materials";"PONDOK BAKTI";"HWPG+G4Q, Jalan Gatot Subroto Lorong Pertamina, RT.6/RW.2, Wanareja, Kec. Waeapo, Kabupaten Buru, Maluku";"Kabupaten Buru, Maluku";"MALUKU";"";"Indonesia";" 082132814320";"";"";"-3.4136719";"126.9253496";"https://maps.google.com/?cid=0x0:0x8c66efd855173199";""
"building materials";"Otoritas Pelabuhan";"Pasar Namrole";"KOPRASI BARASEHE 6 ROLE, Labuang, Kec. Namrole, Kabupaten Buru Selatan, Maluku";"Kabupaten Buru Selatan, Maluku";"MALUKU";"";"Indonesia";"";"";"";"-3.8397116";"126.7371249";"https://maps.google.com/?cid=0x0:0x1eacf00fd32fc390";""
"building materials";"Otoritas Pelabuhan";"Bandar Udara Namrole";"4PX3+58C, Lektama, Kec. Namrole, Kabupaten Buru Selatan, Maluku";"Kabupaten Buru Selatan, Maluku";"MALUKU";"";"Indonesia";"";"";"";"-3.8520745";"126.7032754";"https://maps.google.com/?cid=0x0:0x28f373d5acb0e146";""
"building materials";"Brunch";"Rumah Makan Ayah Namrole";"5P6P+6X8, Labuang, Kec. Namrole, Kabupaten Buru Selatan, Maluku";"Kabupaten Buru Selatan, Maluku";"MALUKU";"";"Indonesia";"";"";"";"-3.8394567";"126.7374444";"https://maps.google.com/?cid=0x0:0xb108b32ef765709";""
"building materials";"building materials";"Maluku";"";"Maluku";"MALUKU";"";"Indonesia";"";"";"";"-3.2384616";"130.1452734";"https://maps.google.com/?cid=0x0:0x5e30e8db04649a51";""
"building materials";"Toko Bahan Bangunan";"Toko Besi dan Bangunan "Hidayah"";"HWQJ+WRV, Trans Buru Mako-Modaumohe, Waegeren, Kec. Waeapo, Kabupaten Buru, Maluku";"Kabupaten Buru, Maluku";"MALUKU";"";"Indonesia";" 082238719115";"";"";"-3.410132";"126.9320456";"https://maps.google.com/?cid=0x0:0x120a46875d558939";""
"building materials";"Toko Bahan Bangunan";"TOKO BANGUNAN INDAH";"H2XC+MG8, Debowae, Kec. Waeapo, Kabupaten Buru, Maluku";"Kabupaten Buru, Maluku";"MALUKU";"";"Indonesia";" 082378990826";"";"";"-3.4009468";"127.0213428";"https://maps.google.com/?cid=0x0:0xf490914073a04836";""
"building materials";"Komplek perumahan";"Manusela Bangunan";"NO WA OI54O54249, Jl Manusela No.2, Sariputih, Timur, Seram Bagian Utara, Maluku";"Seram Bagian Utara, Maluku";"MALUKU";"";"Indonesia";" 08113622262";"";"";"-2.9068033";"129.7601032";"https://maps.google.com/?cid=0x0:0x88daa0e37101ec98";""
"building materials";"Toko Bahan Bangunan";"TOKO WARDACH";"MX25+V96, Waekerta, Kec. Waeapo, Kabupaten Buru, Maluku";"Kabupaten Buru, Maluku";"MALUKU";"";"Indonesia";" 081316222080";"";"";"-3.3478436";"126.9583886";"https://maps.google.com/?cid=0x0:0xf46923c55a27c005";""
"building materials";"Komplek perumahan";"Wapeula";"8WFQ+J7X, Ureng, Kec. Leihitu, Kabupaten Maluku Tengah, Maluku";"Kabupaten Maluku Tengah, Maluku";"MALUKU";"";"Indonesia";"";"";"";"-3.675502";"127.937846";"https://maps.google.com/?cid=0x0:0x6426d94160655707";""
"building materials";"Toko Elektronik";"Toko Bangunan Dan Listrik CEMRA";"Namaelo, Kec. Kota Masohi, Kabupaten Maluku Tengah, Maluku";"Kabupaten Maluku Tengah, Maluku";"MALUKU";"";"Indonesia";" 082399119777";"";"";"-3.2995422";"128.957025";"https://maps.google.com/?cid=0x0:0xf35d16ec43ce896a";""
"building materials";"Toko Perlengkapan Rumah";"Toko Bangunan Manusela";"Jl Manusela No.05, Sari Putih, Werinama, Kabupaten Seram Bagian Timur, Maluku";"Kabupaten Seram Bagian Timur, Maluku";"MALUKU";"";"Indonesia";" 083125236425";"";"";"-3.4233267";"130.2271243";"https://maps.google.com/?cid=0x0:0xa3a109db57d60060";""
"building materials";"Toko Bahan Bangunan";"TB. BAHAGIA";"HWQH+695, Waegeren, Kec. Waeapo, Kabupaten Buru, Maluku";"Kabupaten Buru, Maluku";"MALUKU";"";"Indonesia";"";"";"";"-3.4114934";"126.9291488";"https://maps.google.com/?cid=0x0:0xef99cce735992bc0";""
"building materials";"Tambang Terbuka";"PT.Batutua Kharisma Permai (Mining Infrastructure Area)";"77RH+MGJ, Lerokis. P, Wetar, Maluku Barat Daya Regency, Maluku";"Kabupaten Maluku Barat Daya, Maluku";"MALUKU";"";"Indonesia";"";"";"";"-7.7082998";"126.2787669";"https://maps.google.com/?cid=0x0:0x2fcd25f08eebfe4c";""
"building materials";"Toko Bahan Bangunan";"Mahardika";"Jl. Trans Seram, Rutah, Kec. Amahai, Kabupaten Maluku Tengah, Maluku";"Kabupaten Maluku Tengah, Maluku";"MALUKU";"";"Indonesia";" 082211032979";"";"";"-3.3518671";"129.0212013";"https://maps.google.com/?cid=0x0:0x906eceb42a94a4d";""
"building materials";"Jasa Konstruksi dan Bangunan";"ASN Way Noa";"Q3FC+J5G, Unnamed Road, Sepa, Kec. Amahai, Kabupaten Maluku Tengah, Maluku";"Kabupaten Maluku Tengah, Maluku";"MALUKU";"";"Indonesia";" 081294406864";"";"";"-3.2259278";"129.0704583";"https://maps.google.com/?cid=0x0:0xe2fc09701f7f2346";""
"building materials";"Jasa Konstruksi dan Bangunan";"Toko DANUR";"Pasar unit 6, Waegeren, Kec. Waeapo, Kabupaten Buru, Maluku";"Kabupaten Buru, Maluku";"MALUKU";"";"Indonesia";"";"";"";"-3.4147201";"126.9251747";"https://maps.google.com/?cid=0x0:0xf1c9d2e8d1cdfca3";""
"building materials";"Jasa Konstruksi dan Bangunan";"Baja Ringan dan Las, ALe Rete Mena";"Jalan Baru pendopo wakil, Namlea, Kec. Namlea, Kabupaten Buru, Maluku 97571";"Namlea, Kec. Namlea, Kabupaten Buru";"MALUKU";"97571";"Indonesia";" 081240737906";"";"";"-3.2772775";"127.1078589";"https://maps.google.com/?cid=0x0:0x2b6897e02e6b94f";""
"building materials";"Pemasok Pipa";"Surya Utama Metalindo PT.";"Jl. Gunung Sahari Raya no.1 Mangga Dua Square lt 2 blok C 61, RT.11/RW.6, Ancol, Kec. Pademangan, Jkt Utara, Daerah Khusus Ibukota Jakarta 14420";"RT.11/RW.6, Ancol, Kec. Pademangan, Jkt Utara";"MALUKU";"14420";"Indonesia";" 082310999956";"";"";"-6.1387824";"106.8314329";"https://maps.google.com/?cid=0x0:0x213f9340f3f4865";""
"building materials";"Kontraktor Insulasi";"PT Tali Rejeki";"Jl. Taruma Jaya No.11, Setia Asih, Kec. Tarumajaya, Kota Bks, Jawa Barat 17215";"Setia Asih, Kec. Tarumajaya, Kota Bks";"MALUKU";"17215";"Indonesia";" 02122889956";"";"";"-6.1652412";"106.9900241";"https://maps.google.com/?cid=0x0:0x15898fadc067eab7";""
"building materials";"Insinyur Teknik Lingkungan";"PT Tetrasa Geosinindo";"ITC ROXY MAS, Business Center, Jl. Kh Hasyim Ashari No.18-20 Block C4, Cideng, Gambir, Central Jakarta City, Jakarta 10150";"Business Center, Jl. Kh Hasyim Ashari No.18-20 Block C4, Cideng, Gambir, Central Jakarta City";"MALUKU";"10150";"Indonesia";" 0216330150";"";"";"-6.1680063";"106.8051124";"https://maps.google.com/?cid=0x0:0x7c88f7e107a42fb8";""
"building materials";"building materials";"Toko SUTAMAT";"HWPG+G4X, Waegeren, Kec. Waeapo, Kabupaten Buru, Maluku";"Kabupaten Buru, Maluku";"MALUKU";"";"Indonesia";"";"";"";"-3.4136375";"126.925355";"https://maps.google.com/?cid=0x0:0xa3323e884123ced4";""
"building materials";"building materials";"Kec. Ambalau";"Kabupaten Buru Selatan, Maluku";"Kabupaten Buru Selatan, Maluku";"MALUKU";"";"Indonesia";"";"";"";"-3.8899285";"127.2026214";"https://maps.google.com/?cid=0x0:0x2312ee616bf35f0";""
"building materials";"Toko bahan makanan";"Toko RIKI JAYA BANGUNAN";"QP47+52F, Nanga Kemangai, Kec. Ambalau, Kabupaten Sintang, Kalimantan Barat 78684";"Nanga Kemangai, Kec. Ambalau, Kabupaten Sintang";"MALUKU";"78684";"Indonesia";"";"";"";"-0.2449875";"112.7121926";"https://maps.google.com/?cid=0x0:0xafb20d85d160280";""
"building materials";"Toko Swalayan";"Toko RIYANES JAYA";"QP36+RVC, Nanga Kemangai, Kec. Ambalau, Kabupaten Sintang, Kalimantan Barat";"Kabupaten Sintang, Kalimantan Barat";"MALUKU";"";"Indonesia";"";"";"";"-0.2450117";"112.7123904";"https://maps.google.com/?cid=0x0:0x24618f977f346dde";""
"building materials";"Perumahan rakyat";"Rumah Raja Ambalau";"4663+5FF, Pulau, Desa Selasi, Kec. Ambalau, Kabupaten Buru Selatan, Maluku";"Kabupaten Buru Selatan, Maluku";"MALUKU";"";"Indonesia";"";"";"";"-3.8895631";"127.2036797";"https://maps.google.com/?cid=0x0:0xcc9e4216d8d3ce07";""
"building materials";"Pembangunan Perumahan";"Rumah Syahrul";"5596+WMQ, Pulau, Masawoy, Kec. Ambalau, Kabupaten Buru Selatan, Maluku";"Kabupaten Buru Selatan, Maluku";"MALUKU";"";"Indonesia";"";"";"";"-3.8301743";"127.161738";"https://maps.google.com/?cid=0x0:0xb0a91513af57b469";""
"building materials";"building materials";"Kec. Ambalau";"Kabupaten Buru Selatan, Maluku";"Kabupaten Buru Selatan, Maluku";"MALUKU";"";"Indonesia";"";"";"";"-3.8899285";"127.2026214";"https://maps.google.com/?cid=0x0:0x2312ee616bf35f0";""
"building materials";"Badan sertifikasi";"PT. Heritage Pijar Manajemen";"Jl. Raya Muchtar No.11, RW.2, Sawangan Baru, Kec. Sawangan, Kota Depok, Jawa Barat 16511";"RW.2, Sawangan Baru, Kec. Sawangan, Kota Depok";"MALUKU";"16511";"Indonesia";" 081110019915";"";"";"-6.4060202";"106.7609642";"https://maps.google.com/?cid=0x0:0x27a31073fe6ecf96";""
"building materials";"Toko Bahan Bangunan";"CV. NESSTA AMBON( Cat  Bahan Bangunan )";"86XJ+7HQ, Jl. Wolter Monginsidi, Lateri, Kec. Baguala, Kota Ambon, Maluku 97112";"Jl. Wolter Monginsidi, Lateri, Kec. Baguala, Kota Ambon";"MALUKU";"97112";"Indonesia";" 0911356394";"";"";"-3.651793";"128.231489";"https://maps.google.com/?cid=0x0:0x826e5740b2e0ac2f";""
"building materials";"Badan sertifikasi";"Jasa pengurusan sertifikasi Depok ( PT HPM )";"Jl. Raya Muchtar No.11, Sawangan Baru, Kec. Sawangan, Kota Depok, Jawa Barat 16511";"Sawangan Baru, Kec. Sawangan, Kota Depok";"MALUKU";"16511";"Indonesia";" 085693444768";"";"";"-6.403096";"106.770484";"https://maps.google.com/?cid=0x0:0xcca071f3516417d4";""
"building materials";"building materials";"Kec. Kepala Madan";"Kabupaten Buru Selatan, Maluku";"Kabupaten Buru Selatan, Maluku";"MALUKU";"";"Indonesia";"";"";"";"-3.3690832";"126.0177493";"https://maps.google.com/?cid=0x0:0x991aa36425e0a2b0";""
"building materials";"Toko Bahan Bangunan";"Toko Duta Bangunan";"Jl. Danau Rana, Namlea, Kec. Namlea, Kabupaten Buru, Maluku";"Kabupaten Buru, Maluku";"MALUKU";"";"Indonesia";" 091322010";"";"";"-3.269268";"127.1034228";"https://maps.google.com/?cid=0x0:0x4d2e61629ea407b9";""
"building materials";"Tukang Kebun";"Fatfalu";"R5F3+FV, Bara, Kec. Air Buaya, Kabupaten Buru, Maluku";"Kabupaten Buru, Maluku";"MALUKU";"";"Indonesia";"";"";"";"-3.1763157";"126.1546758";"https://maps.google.com/?cid=0x0:0xc1b9daa050a0b964";""
"building materials";"Kontraktor Insulasi";"PT Tali Rejeki";"Jl. Taruma Jaya No.11, Setia Asih, Kec. Tarumajaya, Kota Bks, Jawa Barat 17215";"Setia Asih, Kec. Tarumajaya, Kota Bks";"MALUKU";"17215";"Indonesia";" 02122889956";"";"";"-6.1652412";"106.9900241";"https://maps.google.com/?cid=0x0:0x15898fadc067eab7";""
"building materials";"Pemasok Pipa";"Surya Utama Metalindo PT.";"Jl. Gunung Sahari Raya no.1 Mangga Dua Square lt 2 blok C 61, RT.11/RW.6, Ancol, Kec. Pademangan, Jkt Utara, Daerah Khusus Ibukota Jakarta 14420";"RT.11/RW.6, Ancol, Kec. Pademangan, Jkt Utara";"MALUKU";"14420";"Indonesia";" 082310999956";"";"";"-6.1387824";"106.8314329";"https://maps.google.com/?cid=0x0:0x213f9340f3f4865";""
"building materials";"Toko Bahan Bangunan";"Toko Duta Bangunan";"Jl. Danau Rana, Namlea, Kec. Namlea, Kabupaten Buru, Maluku";"Kabupaten Buru, Maluku";"MALUKU";"";"Indonesia";" 091322010";"";"";"-3.269268";"127.1034228";"https://maps.google.com/?cid=0x0:0x4d2e61629ea407b9";""
"building materials";"building materials";"Leksula";"Kabupaten Buru Selatan, Maluku";"Kabupaten Buru Selatan, Maluku";"MALUKU";"";"Indonesia";"";"";"";"-3.5795592";"126.3064595";"https://maps.google.com/?cid=0x0:0xc3381880c2b002c0";""
"building materials";"Bengkel Sepeda Motor";"BENGKEL LAS IDRIS";"Jl. Kabupaten, Labuang, Kec. Namrole, Kabupaten Buru Selatan, Maluku";"Kabupaten Buru Selatan, Maluku";"MALUKU";"";"Indonesia";" 081344963451";"";"";"-3.8464142";"126.7351016";"https://maps.google.com/?cid=0x0:0x224e4ef4437d3377";""
"building materials";"Toko Fotokopi";"FOTOCOPY DAN ALAT TULIS KANTOR DIFYA";"5P4C+9QP, Elfule, Kec. Namrole, Kabupaten Buru Selatan, Maluku";"Kabupaten Buru Selatan, Maluku";"MALUKU";"";"Indonesia";" 082199905919";"";"";"-3.8440437";"126.7219426";"https://maps.google.com/?cid=0x0:0x2ef41bad47055ff3";""
"building materials";"building materials";"N/A";"";"";"MALUKU";"";"Indonesia";" 08818807897";"";"";"-6.2297465";"106.829518";"https://maps.google.com/?cid=0x0:0x369086e8162837";""
"building materials";"Jasa Konstruksi dan Bangunan";"Baja Ringan dan Las, ALe Rete Mena";"Jalan Baru pendopo wakil, Namlea, Kec. Namlea, Kabupaten Buru, Maluku 97571";"Namlea, Kec. Namlea, Kabupaten Buru";"MALUKU";"97571";"Indonesia";" 081240737906";"";"";"-3.2772775";"127.1078589";"https://maps.google.com/?cid=0x0:0x2b6897e02e6b94f";""
"building materials";"building materials";"Maluku";"";"Maluku";"MALUKU";"";"Indonesia";"";"";"";"-3.2384616";"130.1452734";"https://maps.google.com/?cid=0x0:0x5e30e8db04649a51";""
"building materials";"Tukang Bangunan";"Bengkel Las Rete Mena";"P4F5+358, Namlea, Kec. Namlea, Kabupaten Buru, Maluku";"Kabupaten Buru, Maluku";"MALUKU";"";"Indonesia";"";"";"";"-3.2773418";"127.1079558";"https://maps.google.com/?cid=0x0:0x32ecb18139ff530f";""
"toko bangunan";"Toko Bahan Bangunan";"Toko Duta Bangunan";"Jl. Danau Rana, Namlea, Kec. Namlea, Kabupaten Buru, Maluku";"Kabupaten Buru, Maluku";"MALUKU";"";"Indonesia";" 091322010";"";"";"-3.269268";"127.1034228";"https://maps.google.com/?cid=0x0:0x4d2e61629ea407b9";""
"toko bangunan";"toko bangunan";"Kec. Namrole";"Kabupaten Buru Selatan, Maluku";"Kabupaten Buru Selatan, Maluku";"MALUKU";"";"Indonesia";"";"";"";"-3.8444685";"126.7353848";"https://maps.google.com/?cid=0x0:0xe0ed0a265027f75e";""
"toko bangunan";"toko bangunan";"Toko lima jaya";"5P4J+J5M, Jl. Kabupaten, Elfule, Kec. Namrole, Kabupaten Buru Selatan, Maluku";"Kabupaten Buru Selatan, Maluku";"MALUKU";"";"Indonesia";"";"";"";"-3.8434018";"126.7304371";"https://maps.google.com/?cid=0x0:0x5b66545de42af237";""
"toko bangunan";"Toko Bahan Bangunan";"Toko Besi dan Bangunan "Hidayah"";"HWQJ+WRV, Trans Buru Mako-Modaumohe, Waegeren, Kec. Waeapo, Kabupaten Buru, Maluku";"Kabupaten Buru, Maluku";"MALUKU";"";"Indonesia";" 082238719115";"";"";"-3.410132";"126.9320456";"https://maps.google.com/?cid=0x0:0x120a46875d558939";""
"toko bangunan";"Bengkel Sepeda Motor";"BENGKEL LAS IDRIS";"Jl. Kabupaten, Labuang, Kec. Namrole, Kabupaten Buru Selatan, Maluku";"Kabupaten Buru Selatan, Maluku";"MALUKU";"";"Indonesia";" 081344963451";"";"";"-3.8464142";"126.7351016";"https://maps.google.com/?cid=0x0:0x224e4ef4437d3377";""
"toko bangunan";"Toko Bahan Bangunan";"TOKO BANGUNAN INDAH";"H2XC+MG8, Debowae, Kec. Waeapo, Kabupaten Buru, Maluku";"Kabupaten Buru, Maluku";"MALUKU";"";"Indonesia";" 082378990826";"";"";"-3.4009468";"127.0213428";"https://maps.google.com/?cid=0x0:0xf490914073a04836";""
"toko bangunan";"Otoritas Pelabuhan";"Bandar Udara Namrole";"4PX3+58C, Lektama, Kec. Namrole, Kabupaten Buru Selatan, Maluku";"Kabupaten Buru Selatan, Maluku";"MALUKU";"";"Indonesia";"";"";"";"-3.8520745";"126.7032754";"https://maps.google.com/?cid=0x0:0x28f373d5acb0e146";""
"toko bangunan";"Toko";"TOKO FAJAR MAS";"P3CX+R5Q, Namlea, Kec. Namlea, Kabupaten Buru, Maluku";"Kabupaten Buru, Maluku";"MALUKU";"";"Indonesia";" 081316222080";"";"";"-3.2779017";"127.0979019";"https://maps.google.com/?cid=0x0:0xce7d9cbd242800a3";""
"toko bangunan";"Toko Bahan Bangunan";"Toko Sinar Terang";"HWQJ+P94, Unnamed Road, Waegeren, Kec. Waeapo, Kabupaten Buru, Maluku";"Kabupaten Buru, Maluku";"MALUKU";"";"Indonesia";"";"";"";"-3.4107258";"126.9309381";"https://maps.google.com/?cid=0x0:0x313f03e1f07b8a8b";""
"toko bangunan";"Toserba";"Toko Bangunan Bintang Timur";"Kecil Atas, Jl. Wailola, Bula, Kec. Bula, Kabupaten Seram Bagian Timur, Maluku";"Kabupaten Seram Bagian Timur, Maluku";"MALUKU";"";"Indonesia";" 081316222080";"";"";"-3.1020661";"130.4795478";"https://maps.google.com/?cid=0x0:0x4aef66ef96eb16a8";""
"toko bangunan";"Toko Bahan Bangunan";"Toko bangunan Dinda Barokah";"P85C+XWC, Waihatu, Kec. Kairatu Bar., Kabupaten Seram Bagian Barat, Maluku";"Kabupaten Seram Bagian Barat, Maluku";"MALUKU";"";"Indonesia";" 081356194953";"";"";"-3.2900692";"128.3222692";"https://maps.google.com/?cid=0x0:0x634ca5cb31d21d51";""
"toko bangunan";"Toko Bahan Bangunan";"Toko Bangunan Lestari Baru";"Waihatu, Kec. Kairatu Bar., Kabupaten Seram Bagian Barat, Maluku";"Kabupaten Seram Bagian Barat, Maluku";"MALUKU";"";"Indonesia";" 082238832490";"";"";"-3.2864381";"128.3222819";"https://maps.google.com/?cid=0x0:0xb14d86a65046c260";""
"toko bangunan";"Jasa Konstruksi dan Bangunan";"Toko DANUR";"Pasar unit 6, Waegeren, Kec. Waeapo, Kabupaten Buru, Maluku";"Kabupaten Buru, Maluku";"MALUKU";"";"Indonesia";"";"";"";"-3.4147201";"126.9251747";"https://maps.google.com/?cid=0x0:0xf1c9d2e8d1cdfca3";""
"toko bangunan";"Toko Bahan Bangunan";"TOKO ILHAM";"28R5+VPH, Unnamed Road, Sifnana, Tanimbar Sel., Kab. Kepulauan Tanimbar, Maluku";"Kab. Kepulauan Tanimbar, Maluku";"MALUKU";"";"Indonesia";" 083125236425";"";"";"-7.9578237";"131.3093484";"https://maps.google.com/?cid=0x0:0xdc8ca2706d30ea1a";""
"toko bangunan";"Brunch";"Rumah Makan Ayah Namrole";"5P6P+6X8, Labuang, Kec. Namrole, Kabupaten Buru Selatan, Maluku";"Kabupaten Buru Selatan, Maluku";"MALUKU";"";"Indonesia";"";"";"";"-3.8394567";"126.7374444";"https://maps.google.com/?cid=0x0:0xb108b32ef765709";""
"toko bangunan";"Toko Bahan Bangunan";"Eka Pratama";"JWQV+6P5, Luhu, Kec. Huamual Belakang, Kabupaten Seram Bagian Barat, Maluku";"Kabupaten Seram Bagian Barat, Maluku";"MALUKU";"";"Indonesia";" 08161999912";"";"";"-3.3619763";"127.9443737";"https://maps.google.com/?cid=0x0:0x9297fa79318e74fa";""
"toko bangunan";"Nasi";"Namrole, kabupaten buru Selatan";"7RC7+2P6, Labuang, Kec. Namrole, Kabupaten Buru Selatan, Maluku";"Kabupaten Buru Selatan, Maluku";"MALUKU";"";"Indonesia";"";"";"";"-3.7299502";"126.8142605";"https://maps.google.com/?cid=0x0:0x5f7ea9ea133113e5";""
"toko bangunan";"Toko Bahan Bangunan";"TB. BAHAGIA";"HWQH+695, Waegeren, Kec. Waeapo, Kabupaten Buru, Maluku";"Kabupaten Buru, Maluku";"MALUKU";"";"Indonesia";"";"";"";"-3.4114934";"126.9291488";"https://maps.google.com/?cid=0x0:0xef99cce735992bc0";""
"toko bangunan";"Toko Bahan Bangunan";"Makmur Utama Supermarket Bahan Bangunan";"Jl. Yasin Gamsungi No.2 Kec. ternate tengah, Kel, Makassar Tim., Makassar Timur, Kota Ternate, Maluku Utara 97724";"Kel, Makassar Tim., Makassar Timur, Kota Ternate";"MALUKU";"97724";"Indonesia";" 08114313799";"";"";"0.7940352";"127.3876695";"https://maps.google.com/?cid=0x0:0x2f492ae87bf64247";""
"toko bangunan";"Toko Bahan Bangunan";"Toko Mitra Bangunan";"Jl. Pahlawan Revolusi No.3, Muhajirin, Kec. Ternate Tengah, Kota Ternate, Maluku Utara 97721";"Muhajirin, Kec. Ternate Tengah, Kota Ternate";"MALUKU";"97721";"Indonesia";" 08124217777";"";"";"0.7863051";"127.3886452";"https://maps.google.com/?cid=0x0:0x182c1f07e66842a";""
"toko bangunan";"Toko";"Toko Serba Bangunan Ambon";"Jl. Philip Latumahina No.10, Kel Honipopu, Kec. Sirimau, Kota Ambon, Maluku";"Kota Ambon, Maluku";"MALUKU";"";"Indonesia";" 081283093876";"";"";"-3.696513";"128.1813331";"https://maps.google.com/?cid=0x0:0x38f3a5a63eb288ff";""
"toko bangunan";"toko bangunan";"Maluku";"";"Maluku";"MALUKU";"";"Indonesia";"";"";"";"-3.2384616";"130.1452734";"https://maps.google.com/?cid=0x0:0x5e30e8db04649a51";""
"toko bangunan";"Toko Bahan Bangunan";"Toko Besi dan Bangunan "Hidayah"";"HWQJ+WRV, Trans Buru Mako-Modaumohe, Waegeren, Kec. Waeapo, Kabupaten Buru, Maluku";"Kabupaten Buru, Maluku";"MALUKU";"";"Indonesia";" 082238719115";"";"";"-3.410132";"126.9320456";"https://maps.google.com/?cid=0x0:0x120a46875d558939";""
"toko bangunan";"Toko Bahan Bangunan";"Toko Duta Bangunan";"Jl. Danau Rana, Namlea, Kec. Namlea, Kabupaten Buru, Maluku";"Kabupaten Buru, Maluku";"MALUKU";"";"Indonesia";" 091322010";"";"";"-3.269268";"127.1034228";"https://maps.google.com/?cid=0x0:0x4d2e61629ea407b9";""
"toko bangunan";"Toko Bahan Bangunan";"TOKO BANGUNAN INDAH";"H2XC+MG8, Debowae, Kec. Waeapo, Kabupaten Buru, Maluku";"Kabupaten Buru, Maluku";"MALUKU";"";"Indonesia";" 082378990826";"";"";"-3.4009468";"127.0213428";"https://maps.google.com/?cid=0x0:0xf490914073a04836";""
"toko bangunan";"Toko Bahan Bangunan";"TOKO WARDACH";"MX25+V96, Waekerta, Kec. Waeapo, Kabupaten Buru, Maluku";"Kabupaten Buru, Maluku";"MALUKU";"";"Indonesia";" 081316222080";"";"";"-3.3478436";"126.9583886";"https://maps.google.com/?cid=0x0:0xf46923c55a27c005";""
"toko bangunan";"Komplek perumahan";"Manusela Bangunan";"NO WA OI54O54249, Jl Manusela No.2, Sariputih, Timur, Seram Bagian Utara, Maluku";"Seram Bagian Utara, Maluku";"MALUKU";"";"Indonesia";" 08113622262";"";"";"-2.9068033";"129.7601032";"https://maps.google.com/?cid=0x0:0x88daa0e37101ec98";""
"toko bangunan";"Toko Perlengkapan Rumah";"Toko Bangunan Manusela";"Jl Manusela No.05, Sari Putih, Werinama, Kabupaten Seram Bagian Timur, Maluku";"Kabupaten Seram Bagian Timur, Maluku";"MALUKU";"";"Indonesia";" 083125236425";"";"";"-3.4233267";"130.2271243";"https://maps.google.com/?cid=0x0:0xa3a109db57d60060";""
"toko bangunan";"Toko";"TOKO FAJAR MAS";"P3CX+R5Q, Namlea, Kec. Namlea, Kabupaten Buru, Maluku";"Kabupaten Buru, Maluku";"MALUKU";"";"Indonesia";" 081316222080";"";"";"-3.2779017";"127.0979019";"https://maps.google.com/?cid=0x0:0xce7d9cbd242800a3";""
"toko bangunan";"Toko Bahan Bangunan";"TOKO ILHAM";"28R5+VPH, Unnamed Road, Sifnana, Tanimbar Sel., Kab. Kepulauan Tanimbar, Maluku";"Kab. Kepulauan Tanimbar, Maluku";"MALUKU";"";"Indonesia";" 083125236425";"";"";"-7.9578237";"131.3093484";"https://maps.google.com/?cid=0x0:0xdc8ca2706d30ea1a";""
"toko bangunan";"Toko Elektronik";"Toko Bangunan Dan Listrik CEMRA";"Namaelo, Kec. Kota Masohi, Kabupaten Maluku Tengah, Maluku";"Kabupaten Maluku Tengah, Maluku";"MALUKU";"";"Indonesia";" 082399119777";"";"";"-3.2995422";"128.957025";"https://maps.google.com/?cid=0x0:0xf35d16ec43ce896a";""
"toko bangunan";"Toko Bahan Bangunan";"TB. BAHAGIA";"HWQH+695, Waegeren, Kec. Waeapo, Kabupaten Buru, Maluku";"Kabupaten Buru, Maluku";"MALUKU";"";"Indonesia";"";"";"";"-3.4114934";"126.9291488";"https://maps.google.com/?cid=0x0:0xef99cce735992bc0";""
"toko bangunan";"toko bangunan";"Toko SUTAMAT";"HWPG+G4X, Waegeren, Kec. Waeapo, Kabupaten Buru, Maluku";"Kabupaten Buru, Maluku";"MALUKU";"";"Indonesia";"";"";"";"-3.4136375";"126.925355";"https://maps.google.com/?cid=0x0:0xa3323e884123ced4";""
"toko bangunan";"toko bangunan";"Toko Bangunan Al-Ikhsan Waegeren";"Waegeren, Kec. Waeapo, Kabupaten Buru, Maluku 90221";"Kec. Waeapo, Kabupaten Buru";"MALUKU";"90221";"Indonesia";" 081241510457";"";"";"-3.4167049";"126.9187711";"https://maps.google.com/?cid=0x0:0x7efbb7aec0e06d7a";""
"toko bangunan";"Toko Bahan Bangunan";"Tokoh bangunan UD nirwan wayame";"Jl. Ir. M. Putuhena No.31, Wayame, Kec. Tlk. Ambon, Kota Ambon, Maluku";"Kota Ambon, Maluku";"MALUKU";"";"Indonesia";" 0911311827";"";"";"-3.6647758";"128.166706";"https://maps.google.com/?cid=0x0:0x2b5f5cf2f70f2620";""
"toko bangunan";"Toko Bahan Bangunan";"Toko Duta Bangunan";"Jl. Danau Rana, Namlea, Kec. Namlea, Kabupaten Buru, Maluku";"Kabupaten Buru, Maluku";"MALUKU";"";"Indonesia";" 091322010";"";"";"-3.269268";"127.1034228";"https://maps.google.com/?cid=0x0:0x4d2e61629ea407b9";""
"toko bangunan";"Toko";"TOKO FAJAR MAS";"P3CX+R5Q, Namlea, Kec. Namlea, Kabupaten Buru, Maluku";"Kabupaten Buru, Maluku";"MALUKU";"";"Indonesia";" 081316222080";"";"";"-3.2779017";"127.0979019";"https://maps.google.com/?cid=0x0:0xce7d9cbd242800a3";""
"toko bangunan";"Toko bahan makanan";"Toko RIKI JAYA BANGUNAN";"QP47+52F, Nanga Kemangai, Kec. Ambalau, Kabupaten Sintang, Kalimantan Barat 78684";"Nanga Kemangai, Kec. Ambalau, Kabupaten Sintang";"MALUKU";"78684";"Indonesia";"";"";"";"-0.2449875";"112.7121926";"https://maps.google.com/?cid=0x0:0xafb20d85d160280";""
"toko bangunan";"Toko";"TOKO FAJAR MAS";"P3CX+R5Q, Namlea, Kec. Namlea, Kabupaten Buru, Maluku";"Kabupaten Buru, Maluku";"MALUKU";"";"Indonesia";" 081316222080";"";"";"-3.2779017";"127.0979019";"https://maps.google.com/?cid=0x0:0xce7d9cbd242800a3";""
"toko bangunan";"Toko Bahan Bangunan";"Toko Duta Bangunan";"Jl. Danau Rana, Namlea, Kec. Namlea, Kabupaten Buru, Maluku";"Kabupaten Buru, Maluku";"MALUKU";"";"Indonesia";" 091322010";"";"";"-3.269268";"127.1034228";"https://maps.google.com/?cid=0x0:0x4d2e61629ea407b9";""
"toko bangunan";"Toko Bahan Bangunan";"Toko sami jaya";"GJ4V+2Q4 Tran Suruk, Nanga Suruk, Kec. Bunut Hulu, Kabupaten Kapuas Hulu, Kalimantan Barat";"Kabupaten Kapuas Hulu, Kalimantan Barat";"MALUKU";"";"Indonesia";" 085822980821";"";"";"0.5050175";"112.6444467";"https://maps.google.com/?cid=0x0:0xfdd853851f53f6a4";""
"toko bangunan";"Toko bahan makanan";"Warung Anyang Nahar";"Desa Temuyuk, Kecamatan Bunut Hulu, Temuyuk, Putussibau, Kabupaten Kapuas Hulu, Kalimantan Barat 78762";"Kecamatan Bunut Hulu, Temuyuk, Putussibau, Kabupaten Kapuas Hulu";"MALUKU";"78762";"Indonesia";" 082253679369";"";"";"0.4780604";"112.6639844";"https://maps.google.com/?cid=0x0:0x96cde356589d014f";""
"toko bangunan";"Toko bahan makanan";"Toko RIKI JAYA BANGUNAN";"QP47+52F, Nanga Kemangai, Kec. Ambalau, Kabupaten Sintang, Kalimantan Barat 78684";"Nanga Kemangai, Kec. Ambalau, Kabupaten Sintang";"MALUKU";"78684";"Indonesia";"";"";"";"-0.2449875";"112.7121926";"https://maps.google.com/?cid=0x0:0xafb20d85d160280";""
"toko bangunan";"Toko";"TOKO FAJAR MAS";"P3CX+R5Q, Namlea, Kec. Namlea, Kabupaten Buru, Maluku";"Kabupaten Buru, Maluku";"MALUKU";"";"Indonesia";" 081316222080";"";"";"-3.2779017";"127.0979019";"https://maps.google.com/?cid=0x0:0xce7d9cbd242800a3";""
"toko bangunan";"Toko Bahan Bangunan";"Toko Duta Bangunan";"Jl. Danau Rana, Namlea, Kec. Namlea, Kabupaten Buru, Maluku";"Kabupaten Buru, Maluku";"MALUKU";"";"Indonesia";" 091322010";"";"";"-3.269268";"127.1034228";"https://maps.google.com/?cid=0x0:0x4d2e61629ea407b9";""
"toko bangunan";"Toko Bahan Bangunan";"Toko Bangunan Sumber Murah";"Jalan Raya Cigombong, Cipendawa, Kec. Pacet, Kabupaten Cianjur, Jawa Barat 43253";"Cipendawa, Kec. Pacet, Kabupaten Cianjur";"MALUKU";"43253";"Indonesia";" 081931230222";"";"";"-6.7544705";"107.0463397";"https://maps.google.com/?cid=0x0:0x712a3a1f9496c415";""
"toko bangunan";"toko bangunan";"Leksula";"Kabupaten Buru Selatan, Maluku";"Kabupaten Buru Selatan, Maluku";"MALUKU";"";"Indonesia";"";"";"";"-3.5795592";"126.3064595";"https://maps.google.com/?cid=0x0:0xc3381880c2b002c0";""
"toko bangunan";"Toko Bahan Bangunan";"Toko Duta Bangunan";"Jl. Danau Rana, Namlea, Kec. Namlea, Kabupaten Buru, Maluku";"Kabupaten Buru, Maluku";"MALUKU";"";"Indonesia";" 091322010";"";"";"-3.269268";"127.1034228";"https://maps.google.com/?cid=0x0:0x4d2e61629ea407b9";""
"toko bangunan";"Toko Bahan Bangunan";"TOKO BANGUNAN INDAH";"H2XC+MG8, Debowae, Kec. Waeapo, Kabupaten Buru, Maluku";"Kabupaten Buru, Maluku";"MALUKU";"";"Indonesia";" 082378990826";"";"";"-3.4009468";"127.0213428";"https://maps.google.com/?cid=0x0:0xf490914073a04836";""
"toko bangunan";"Toko Bahan Bangunan";"Toko Besi dan Bangunan "Hidayah"";"HWQJ+WRV, Trans Buru Mako-Modaumohe, Waegeren, Kec. Waeapo, Kabupaten Buru, Maluku";"Kabupaten Buru, Maluku";"MALUKU";"";"Indonesia";" 082238719115";"";"";"-3.410132";"126.9320456";"https://maps.google.com/?cid=0x0:0x120a46875d558939";""
"toko bangunan";"Komplek perumahan";"TOKO BANGUNAN ANGEL";"97MG+F66, Suli, Kec. Salahutu, Kabupaten Maluku Tengah, Maluku";"Kabupaten Maluku Tengah, Maluku";"MALUKU";"";"Indonesia";" 081343490500";"";"";"-3.6163464";"128.2755073";"https://maps.google.com/?cid=0x0:0x6b74a75f1baf410c";""
"toko bangunan";"toko bangunan";"Toko lima jaya";"5P4J+J5M, Jl. Kabupaten, Elfule, Kec. Namrole, Kabupaten Buru Selatan, Maluku";"Kabupaten Buru Selatan, Maluku";"MALUKU";"";"Indonesia";"";"";"";"-3.8434018";"126.7304371";"https://maps.google.com/?cid=0x0:0x5b66545de42af237";""
"toko bangunan";"Toko";"TOKO FAJAR MAS";"P3CX+R5Q, Namlea, Kec. Namlea, Kabupaten Buru, Maluku";"Kabupaten Buru, Maluku";"MALUKU";"";"Indonesia";" 081316222080";"";"";"-3.2779017";"127.0979019";"https://maps.google.com/?cid=0x0:0xce7d9cbd242800a3";""
"toko bangunan";"toko bangunan";"Maluku";"";"Maluku";"MALUKU";"";"Indonesia";"";"";"";"-3.2384616";"130.1452734";"https://maps.google.com/?cid=0x0:0x5e30e8db04649a51";""
"toko bangunan";"Toko Bahan Bangunan";"Toko Duta Bangunan";"Jl. Danau Rana, Namlea, Kec. Namlea, Kabupaten Buru, Maluku";"Kabupaten Buru, Maluku";"MALUKU";"";"Indonesia";" 091322010";"";"";"-3.269268";"127.1034228";"https://maps.google.com/?cid=0x0:0x4d2e61629ea407b9";""
"toko bangunan";"Toko";"TOKO FAJAR MAS";"P3CX+R5Q, Namlea, Kec. Namlea, Kabupaten Buru, Maluku";"Kabupaten Buru, Maluku";"MALUKU";"";"Indonesia";" 081316222080";"";"";"-3.2779017";"127.0979019";"https://maps.google.com/?cid=0x0:0xce7d9cbd242800a3";""
"toko bangunan";"Toko";"Toko Cahaya Buton";"Olilit, Tanimbar Sel., Kab. Kepulauan Tanimbar, Maluku";"Kab. Kepulauan Tanimbar, Maluku";"MALUKU";"";"Indonesia";" 082199324920";"";"";"-7.9824365";"131.2957106";"https://maps.google.com/?cid=0x0:0x70e9a7624be9ac83";""
"toko bangunan";"Toko Bahan Bangunan";"Toko BANDA NAIRA";"tenggara, Jl. Fid, Fiditan, Kec. Pulau Dullah Utara, Kota Tual, Maluku";"Kota Tual, Maluku";"MALUKU";"";"Indonesia";" 091621539";"";"";"-5.6348247";"132.7425416";"https://maps.google.com/?cid=0x0:0x7c2d6fd44077fb1d";""
"toko bangunan";"toko bangunan";"Aneka Teknik";"Ruko Yamdena Plaza, Jl. Mathilda Batlayeri No.11 Blok A No 9, Kecamatan, Tanimbar Sel., Kab. Kepulauan Tanimbar, Maluku 97471";"Jl. Mathilda Batlayeri No.11 Blok A No 9, Kecamatan, Tanimbar Sel., Kab. Kepulauan Tanimbar";"MALUKU";"97471";"Indonesia";" 081356537291";"";"";"-7.9825994";"131.296232";"https://maps.google.com/?cid=0x0:0x6ea3ba9c7a220db5";""
"toko bangunan";"Toko Bahan Bangunan";"Makmur Utama Supermarket Bahan Bangunan";"Jl. Yasin Gamsungi No.2 Kec. ternate tengah, Kel, Makassar Tim., Makassar Timur, Kota Ternate, Maluku Utara 97724";"Kel, Makassar Tim., Makassar Timur, Kota Ternate";"MALUKU";"97724";"Indonesia";" 08114313799";"";"";"0.7940352";"127.3876695";"https://maps.google.com/?cid=0x0:0x2f492ae87bf64247";""
"toko bangunan";"Toko Bahan Bangunan";"Toko Platinum";"9Q33+23V, Taar, Pulau Dullah Sel., Kota Tual, Maluku";"Kota Tual, Maluku";"MALUKU";"";"Indonesia";" 091623959";"";"";"-5.6473959";"132.752685";"https://maps.google.com/?cid=0x0:0x5243a3d0d523d49e";""
"toko bangunan";"Toko Perlengkapan Rumah";"Toko subhan";"9QC5+M3R, Kel. Lodar El, Pulau Dullah Sel., Kota Tual, Maluku";"Kota Tual, Maluku";"MALUKU";"";"Indonesia";" 087861101462";"";"";"-5.6282552";"132.7576479";"https://maps.google.com/?cid=0x0:0x66a03758835bbb9c";""
"toko bangunan";"Minimarket";"TOKO AMAL JAYA";"278V+WF6, Olilit, Tanimbar Sel., Kab. Kepulauan Tanimbar, Maluku";"Kab. Kepulauan Tanimbar, Maluku";"MALUKU";"";"Indonesia";" 082199324920";"";"";"-7.9836129";"131.2936666";"https://maps.google.com/?cid=0x0:0xcb311d7ebcd8c172";""
"hardware store";"Minimarket";"Toko Mely Namrole";"Waenono, Elfule, Kec. Namrole, Kabupaten Buru Selatan, Maluku";"Kabupaten Buru Selatan, Maluku";"MALUKU";"";"Indonesia";"";"";"";"-3.8452296";"126.7251428";"https://maps.google.com/?cid=0x0:0xfb3b868a6b60063a";""
"hardware store";"hardware store";"Kec. Namrole";"Kabupaten Buru Selatan, Maluku";"Kabupaten Buru Selatan, Maluku";"MALUKU";"";"Indonesia";"";"";"";"-3.8444685";"126.7353848";"https://maps.google.com/?cid=0x0:0xe0ed0a265027f75e";""
"hardware store";"hardware store";"Toko lima jaya";"5P4J+J5M, Jl. Kabupaten, Elfule, Kec. Namrole, Kabupaten Buru Selatan, Maluku";"Kabupaten Buru Selatan, Maluku";"MALUKU";"";"Indonesia";"";"";"";"-3.8434018";"126.7304371";"https://maps.google.com/?cid=0x0:0x5b66545de42af237";""
"hardware store";"Toko Alat Tulis Kantor";"Foto Copy Welossa Masnait";"5P5F+3JV, Elfule, Kec. Namrole, Kabupaten Buru Selatan, Maluku";"Kabupaten Buru Selatan, Maluku";"MALUKU";"";"Indonesia";"";"";"";"-3.8419984";"126.7237739";"https://maps.google.com/?cid=0x0:0x349dd05612bf7833";""
"hardware store";"Apotek";"Toko Obat Rizky Farma Namrole";"5P4F+74Q, Elfule, Kec. Namrole, Kabupaten Buru Selatan, Maluku";"Kabupaten Buru Selatan, Maluku";"MALUKU";"";"Indonesia";"";"";"";"-3.8442755";"126.7228465";"https://maps.google.com/?cid=0x0:0x107e5570e73137d0";""
"hardware store";"Toko Fotokopi";"FOTOCOPY DAN ALAT TULIS KANTOR DIFYA";"5P4C+9QP, Elfule, Kec. Namrole, Kabupaten Buru Selatan, Maluku";"Kabupaten Buru Selatan, Maluku";"MALUKU";"";"Indonesia";" 082199905919";"";"";"-3.8440437";"126.7219426";"https://maps.google.com/?cid=0x0:0x2ef41bad47055ff3";""
"hardware store";"Otoritas Pelabuhan";"Pasar Namrole";"KOPRASI BARASEHE 6 ROLE, Labuang, Kec. Namrole, Kabupaten Buru Selatan, Maluku";"Kabupaten Buru Selatan, Maluku";"MALUKU";"";"Indonesia";"";"";"";"-3.8397116";"126.7371249";"https://maps.google.com/?cid=0x0:0x1eacf00fd32fc390";""
"hardware store";"Bengkel Sepeda Motor";"Atar Mas Motor";"5P38+FHJ, Elfule, Kec. Namrole, Kabupaten Buru Selatan, Maluku";"Kabupaten Buru Selatan, Maluku";"MALUKU";"";"Indonesia";" 081336735905";"";"";"-3.8462822";"126.7163923";"https://maps.google.com/?cid=0x0:0x2fffa184e41a4e96";""
"hardware store";"Otoritas Pelabuhan";"Bandar Udara Namrole";"4PX3+58C, Lektama, Kec. Namrole, Kabupaten Buru Selatan, Maluku";"Kabupaten Buru Selatan, Maluku";"MALUKU";"";"Indonesia";"";"";"";"-3.8520745";"126.7032754";"https://maps.google.com/?cid=0x0:0x28f373d5acb0e146";""
"hardware store";"Toko Perlengkapan Rumah";"MR.DIY";"Jl. Kampus Iqra Buru, Namlea, Kec. Namlea, Kabupaten Buru, Maluku 97571";"Namlea, Kec. Namlea, Kabupaten Buru";"MALUKU";"97571";"Indonesia";"";"";"";"-3.2733058";"127.0992124";"https://maps.google.com/?cid=0x0:0x69153d22b15aaf2";""
"hardware store";"Brunch";"Rumah Makan Ayah Namrole";"5P6P+6X8, Labuang, Kec. Namrole, Kabupaten Buru Selatan, Maluku";"Kabupaten Buru Selatan, Maluku";"MALUKU";"";"Indonesia";"";"";"";"-3.8394567";"126.7374444";"https://maps.google.com/?cid=0x0:0xb108b32ef765709";""
"hardware store";"Toko Bahan Bangunan";"Toko Besi dan Bangunan "Hidayah"";"HWQJ+WRV, Trans Buru Mako-Modaumohe, Waegeren, Kec. Waeapo, Kabupaten Buru, Maluku";"Kabupaten Buru, Maluku";"MALUKU";"";"Indonesia";" 082238719115";"";"";"-3.410132";"126.9320456";"https://maps.google.com/?cid=0x0:0x120a46875d558939";""
"hardware store";"hardware store";"Maluku";"";"Maluku";"MALUKU";"";"Indonesia";"";"";"";"-3.2384616";"130.1452734";"https://maps.google.com/?cid=0x0:0x5e30e8db04649a51";""
"hardware store";"Toko Bahan Bangunan";"TOKO WARDACH";"MX25+V96, Waekerta, Kec. Waeapo, Kabupaten Buru, Maluku";"Kabupaten Buru, Maluku";"MALUKU";"";"Indonesia";" 081316222080";"";"";"-3.3478436";"126.9583886";"https://maps.google.com/?cid=0x0:0xf46923c55a27c005";""
"hardware store";"Toko";"TOKO FAJAR MAS";"P3CX+R5Q, Namlea, Kec. Namlea, Kabupaten Buru, Maluku";"Kabupaten Buru, Maluku";"MALUKU";"";"Indonesia";" 081316222080";"";"";"-3.2779017";"127.0979019";"https://maps.google.com/?cid=0x0:0xce7d9cbd242800a3";""
"hardware store";"Toko Bahan Bangunan";"Fui Fah Hardware Bongawan";"Jalan Papar - Beaufort, Pekan Bongawan, 89709 Bongawan, Sabah, Malaysia";"Bongawan";"MALUKU";"89709";"Indonesia";" +60178672963";"";"";"5.5329747";"115.8531051";"https://maps.google.com/?cid=0x0:0xc16473cd3e278d9a";""
"hardware store";"Toko Bahan Bangunan";"Akid Hardware";"89709 Bongawan, Sabah, Malaysia";"Bongawan";"MALUKU";"89709";"Indonesia";"";"";"";"5.5055117";"115.7789804";"https://maps.google.com/?cid=0x0:0x81a4575b5592eea8";""
"hardware store";"Pom bensin/SPBU";"Petronas Bongawan";"Jalan Papar - Beaufort, Pekan Bongawan, 89700 Bongawan, Sabah, Malaysia";"Bongawan";"MALUKU";"89700";"Indonesia";"";"";"";"5.5341133";"115.8548296";"https://maps.google.com/?cid=0x0:0x6cc15d44895ec282";""
"hardware store";"hardware store";"Kec. Ambalau";"Kabupaten Buru Selatan, Maluku";"Kabupaten Buru Selatan, Maluku";"MALUKU";"";"Indonesia";"";"";"";"-3.8899285";"127.2026214";"https://maps.google.com/?cid=0x0:0x2312ee616bf35f0";""
"hardware store";"Toko Mebel";"AZKO Maluku City Mall";"Maluku City Mall (MCM), Jl. Sultan Hasanudin, Tantui, Kec, Kota Ambon, Maluku 97128";"Jl. Sultan Hasanudin, Tantui, Kec, Kota Ambon";"MALUKU";"97128";"Indonesia";" 085243845863";"";"";"-3.6703085";"128.1982929";"https://maps.google.com/?cid=0x0:0x32acbca964b44d25";""
"hardware store";"Pusat Perbelanjaan";"Maluku City Mall (MCM)";"Jl. Jenderal Sudirman No.1, Hative Kecil, Kec. Sirimau, Kota Ambon, Maluku";"Kota Ambon, Maluku";"MALUKU";"";"Indonesia";" 0911352871";"";"";"-3.6702679";"128.1981163";"https://maps.google.com/?cid=0x0:0x2f29bf0afe09144e";""
"hardware store";"Toko Bahan Bangunan";"Toko sami jaya";"GJ4V+2Q4 Tran Suruk, Nanga Suruk, Kec. Bunut Hulu, Kabupaten Kapuas Hulu, Kalimantan Barat";"Kabupaten Kapuas Hulu, Kalimantan Barat";"MALUKU";"";"Indonesia";" 085822980821";"";"";"0.5050175";"112.6444467";"https://maps.google.com/?cid=0x0:0xfdd853851f53f6a4";""
"hardware store";"Toko Bahan Bangunan";"Tb. Jaya Makmur";"Kelakar, Kec. Hulu Gurung, Kabupaten Kapuas Hulu, Kalimantan Barat";"Kabupaten Kapuas Hulu, Kalimantan Barat";"MALUKU";"";"Indonesia";"";"";"";"0.3956219";"112.3176503";"https://maps.google.com/?cid=0x0:0xd67c64aeca97935";""
"hardware store";"Toko Mebel";"AZKO Maluku City Mall";"Maluku City Mall (MCM), Jl. Sultan Hasanudin, Tantui, Kec, Kota Ambon, Maluku 97128";"Jl. Sultan Hasanudin, Tantui, Kec, Kota Ambon";"MALUKU";"97128";"Indonesia";" 085243845863";"";"";"-3.6703085";"128.1982929";"https://maps.google.com/?cid=0x0:0x32acbca964b44d25";""
"hardware store";"Toko Mebel";"Informa Maluku City Mall";"Maluku City Mall Ground Floor - Lower Ground, Jl. Jenderal Sudirman, Hative Kecil, Tantui - Sirimau, Kota Ambon, Maluku 97128";"Jl. Jenderal Sudirman, Hative Kecil, Tantui - Sirimau, Kota Ambon";"MALUKU";"97128";"Indonesia";" 081511002000";"";"";"-3.66989";"128.1972726";"https://maps.google.com/?cid=0x0:0xf2c666983c27ae62";""
"hardware store";"Toko Bahan Bangunan";"SHAURYA HARDWARE STORE";"8VGJ+JCJ, Sonia Colony, Pooja Vihar, Salarheri, Haryana 133006, India";"Sonia Colony, Pooja Vihar, Salarheri, Haryana";"MALUKU";"133006";"Indonesia";" +918048772973";"";"";"30.3265938";"76.881025";"https://maps.google.com/?cid=0x0:0x40e76a1e284f5cc2";""
"hardware store";"Toko";"Toko Fiter";"Q2R8+WVH, Nanali, Kec. Kepala Madan, Kabupaten Buru Selatan, Maluku";"Kabupaten Buru Selatan, Maluku";"MALUKU";"";"Indonesia";"";"";"";"-3.2071232";"126.0171663";"https://maps.google.com/?cid=0x0:0xb238005280de9544";""
"hardware store";"Toko";"Toko Lairi Buton";"V39G+3GV, Balpetu, Kec. Kepala Madan, Kabupaten Buru Selatan, Maluku";"Kabupaten Buru Selatan, Maluku";"MALUKU";"";"Indonesia";"";"";"";"-3.1322625";"126.0762969";"https://maps.google.com/?cid=0x0:0xcaf5834a454356a8";""
"hardware store";"hardware store";"Kec. Kepala Madan";"Kabupaten Buru Selatan, Maluku";"Kabupaten Buru Selatan, Maluku";"MALUKU";"";"Indonesia";"";"";"";"-3.3690832";"126.0177493";"https://maps.google.com/?cid=0x0:0x991aa36425e0a2b0";""
"hardware store";"hardware store";"Toko Lily Leksula";"6GC6+QQ9, Jl. Kabupaten, Leksula, Kabupaten Buru Selatan, Maluku";"Kabupaten Buru Selatan, Maluku";"MALUKU";"";"Indonesia";"";"";"";"-3.7780805";"126.5119863";"https://maps.google.com/?cid=0x0:0x779f6bc3a8c829b5";""
"hardware store";"hardware store";"Leksula";"Kabupaten Buru Selatan, Maluku";"Kabupaten Buru Selatan, Maluku";"MALUKU";"";"Indonesia";"";"";"";"-3.5795592";"126.3064595";"https://maps.google.com/?cid=0x0:0xc3381880c2b002c0";""
"hardware store";"Toko Bahan Bangunan";"Sun Lek Hardware Trading";"No. 132, Taman Puncak Jalil, Jalan PUJ 3/2, Puj 3, 43300 Seri Kembangan, Selangor, Malaysia";"Seri Kembangan";"MALUKU";"43300";"Indonesia";" +60162149389";"";"";"3.020876";"101.674949";"https://maps.google.com/?cid=0x0:0xa569f49db77f3161";""
"hardware store";"hardware store";"Maluku";"";"Maluku";"MALUKU";"";"Indonesia";"";"";"";"-3.2384616";"130.1452734";"https://maps.google.com/?cid=0x0:0x5e30e8db04649a51";""
"home improvement";"Hotel";"Home base";"5P5H+MG9, Elfule, Kec. Namrole, Kabupaten Buru Selatan, Maluku";"Kabupaten Buru Selatan, Maluku";"MALUKU";"";"Indonesia";"";"";"";"-3.8408353";"126.728859";"https://maps.google.com/?cid=0x0:0xdc8cd0e0aa39d681";""
"home improvement";"home improvement";"Kec. Namrole";"Kabupaten Buru Selatan, Maluku";"Kabupaten Buru Selatan, Maluku";"MALUKU";"";"Indonesia";"";"";"";"-3.8444685";"126.7353848";"https://maps.google.com/?cid=0x0:0xe0ed0a265027f75e";""
"home improvement";"Pembangunan Perumahan";"Rey home";"5JHH+RJ9, Wamkana, Kec. Namrole, Kabupaten Buru Selatan, Maluku";"Kabupaten Buru Selatan, Maluku";"MALUKU";"";"Indonesia";"";"";"";"-3.8202932";"126.6285707";"https://maps.google.com/?cid=0x0:0xa6d26d52d2ebdfa1";""
"home improvement";"Toko";"RH 3 - Namlea";"P4J3+GF8, Namlea, Kec. Namlea, Kabupaten Buru, Maluku";"Kabupaten Buru, Maluku";"MALUKU";"";"Indonesia";"";"";"";"-3.2687106";"127.1037021";"https://maps.google.com/?cid=0x0:0x79f220c6c18cc3cc";""
"home improvement";"Komplek perumahan";"Wil-Mita Home";"Labuang, Kec. Namrole, Kabupaten Buru Selatan, Maluku";"Kabupaten Buru Selatan, Maluku";"MALUKU";"";"Indonesia";"";"";"";"-3.8367611";"126.7406198";"https://maps.google.com/?cid=0x0:0xa300cb3139503cfb";""
"home improvement";"Toko Perlengkapan Rumah";"Namlea mebel";"P3PM+RWG, Jl . pelabuhan besar, Namlea, Kec. Namlea, Kabupaten Buru, Maluku";"Kabupaten Buru, Maluku";"MALUKU";"";"Indonesia";" 081240271694";"";"";"-3.2629316";"127.0848399";"https://maps.google.com/?cid=0x0:0x4ce8087cfeffca5c";""
"home improvement";"Otoritas Pelabuhan";"Pasar Namrole";"KOPRASI BARASEHE 6 ROLE, Labuang, Kec. Namrole, Kabupaten Buru Selatan, Maluku";"Kabupaten Buru Selatan, Maluku";"MALUKU";"";"Indonesia";"";"";"";"-3.8397116";"126.7371249";"https://maps.google.com/?cid=0x0:0x1eacf00fd32fc390";""
"home improvement";"Otoritas Pelabuhan";"Bandar Udara Namrole";"4PX3+58C, Lektama, Kec. Namrole, Kabupaten Buru Selatan, Maluku";"Kabupaten Buru Selatan, Maluku";"MALUKU";"";"Indonesia";"";"";"";"-3.8520745";"126.7032754";"https://maps.google.com/?cid=0x0:0x28f373d5acb0e146";""
"home improvement";"home improvement";"Maluku";"";"Maluku";"MALUKU";"";"Indonesia";"";"";"";"-3.2384616";"130.1452734";"https://maps.google.com/?cid=0x0:0x5e30e8db04649a51";""
"home improvement";"Komplek perumahan";"Ebay home";"P4M5+FMC, Namlea, Kec. Namlea, Kabupaten Buru, Maluku";"Kabupaten Buru, Maluku";"MALUKU";"";"Indonesia";"";"";"";"-3.2663039";"127.1091538";"https://maps.google.com/?cid=0x0:0xc8bda9336ec755b2";""
"home improvement";"Taman bermain";"Home Center Masohi";"PX26+WQQ, Jalan Kakatua, RT.3/RW.4, Lesane, Kec. Kota Masohi, Kabupaten Maluku Tengah, Maluku";"Kabupaten Maluku Tengah, Maluku";"MALUKU";"";"Indonesia";"";"";"";"-3.2976591";"128.9619733";"https://maps.google.com/?cid=0x0:0xfd468c05e4fdc499";""
"home improvement";"Toko Perlengkapan Rumah";"Meubel Wamsisi";"6XP5+FFH, Wamsisi, Waisama, Kabupaten Buru Selatan, Maluku";"Kabupaten Buru Selatan, Maluku";"MALUKU";"";"Indonesia";"";"";"";"-3.7638165";"126.9587361";"https://maps.google.com/?cid=0x0:0x2ab3fb087ffc41f";""
"home improvement";"home improvement";"Kalimantan Barat 78684";"Kabupaten Sintang, Kalimantan Barat";"Kabupaten Sintang, Kalimantan Barat";"MALUKU";"";"Indonesia";"";"";"";"-0.0687881";"112.9058802";"https://maps.google.com/?cid=0x0:0xc818bb777c60929";""
"home improvement";"home improvement";"Kec. Ambalau";"Kabupaten Buru Selatan, Maluku";"Kabupaten Buru Selatan, Maluku";"MALUKU";"";"Indonesia";"";"";"";"-3.8899285";"127.2026214";"https://maps.google.com/?cid=0x0:0x2312ee616bf35f0";""
"home improvement";"home improvement";"Kec. Ambalau";"Kabupaten Buru Selatan, Maluku";"Kabupaten Buru Selatan, Maluku";"MALUKU";"";"Indonesia";"";"";"";"-3.8899285";"127.2026214";"https://maps.google.com/?cid=0x0:0x2312ee616bf35f0";""
"home improvement";"Komplek perumahan";"Home Pardin";"M226+G7, Fogi, Kec. Kepala Madan, Kabupaten Buru Selatan, Maluku";"Kabupaten Buru Selatan, Maluku";"MALUKU";"";"Indonesia";"";"";"";"-3.3486515";"126.0106938";"https://maps.google.com/?cid=0x0:0xf71f1ede57301a90";""
"home improvement";"home improvement";"Kec. Kepala Madan";"Kabupaten Buru Selatan, Maluku";"Kabupaten Buru Selatan, Maluku";"MALUKU";"";"Indonesia";"";"";"";"-3.3690832";"126.0177493";"https://maps.google.com/?cid=0x0:0x991aa36425e0a2b0";""
"home improvement";"Pembangunan Perumahan";"Takdir Flores";"V39G+8G6, Balpetu, Kec. Kepala Madan, Kabupaten Buru Selatan, Maluku";"Kabupaten Buru Selatan, Maluku";"MALUKU";"";"Indonesia";"";"";"";"-3.1317125";"126.0762656";"https://maps.google.com/?cid=0x0:0x3455b5afb439b039";""
"home improvement";"home improvement";"Leksula";"Kabupaten Buru Selatan, Maluku";"Kabupaten Buru Selatan, Maluku";"MALUKU";"";"Indonesia";"";"";"";"-3.5795592";"126.3064595";"https://maps.google.com/?cid=0x0:0xc3381880c2b002c0";""
"home improvement";"home improvement";"Maluku";"";"Maluku";"MALUKU";"";"Indonesia";"";"";"";"-3.2384616";"130.1452734";"https://maps.google.com/?cid=0x0:0x5e30e8db04649a51";""
"home improvement";"Brunch";"Farhan";"P493+662, Namlea, Kec. Namlea, Kabupaten Buru, Maluku";"Kabupaten Buru, Maluku";"MALUKU";"";"Indonesia";"";"";"";"-3.2818951";"127.1030117";"https://maps.google.com/?cid=0x0:0xc9c261229e70c016";""
"home improvement";"Toko Mebel";"Afif Mebel Bugis Harapan";"P4H4+7J7, Unnamed Road, Namlea, Kec. Namlea, Kabupaten Buru, Maluku";"Kabupaten Buru, Maluku";"MALUKU";"";"Indonesia";" 085333240295";"";"";"-3.2718363";"127.1065537";"https://maps.google.com/?cid=0x0:0xa6755dc01303e768";""
"home improvement";"home improvement";"Aira home";"P4G2+RMR, Namlea, Kec. Namlea, Kabupaten Buru, Maluku";"Kabupaten Buru, Maluku";"MALUKU";"";"Indonesia";"";"";"";"-3.2730149";"127.1020826";"https://maps.google.com/?cid=0x0:0x457c456199183906";""
"hotel";"hotel";"Kec. Namrole";"Kabupaten Buru Selatan, Maluku";"Kabupaten Buru Selatan, Maluku";"MALUKU";"";"Indonesia";"";"";"";"-3.8444685";"126.7353848";"https://maps.google.com/?cid=0x0:0xe0ed0a265027f75e";""
"hotel";"hotel";"Penginapan Puri Indah";"JXVH+VH4, Waenetat, Kec. Waeapo, Kabupaten Buru, Maluku";"Kabupaten Buru, Maluku";"MALUKU";"";"Indonesia";" 085232218791";"";"";"-3.3553641";"126.978959";"https://maps.google.com/?cid=0x0:0x217f5e9737904dd6";""
"hotel";"hotel";"Airy Maluku City Sudirman Ambon";"85JX+J8C, Jl. Jenderal Sudirman, Hative Kecil, Kec. Sirimau, Kota Ambon, Maluku 97128";"Jl. Jenderal Sudirman, Hative Kecil, Kec. Sirimau, Kota Ambon";"MALUKU";"97128";"Indonesia";" 08041112479";"";"";"-3.6684342";"128.1982566";"https://maps.google.com/?cid=0x0:0xd9a527375825a79";""
"hotel";"Hotel";"Hotel Golden Alfri's";"5P5Q+738, Jl. Kabupaten, Labuang, Kec. Namrole, Kabupaten Buru Selatan, Maluku";"Kabupaten Buru Selatan, Maluku";"MALUKU";"";"Indonesia";" 091322220";"";"";"-3.8418496";"126.7376982";"https://maps.google.com/?cid=0x0:0xaebb5d6edcf18036";""
"hotel";"Hotel";"Penginapan 2 Saudara";"5P2P+57F, Labuang, Kec. Namrole, Kabupaten Buru Selatan, Maluku";"Kabupaten Buru Selatan, Maluku";"MALUKU";"";"Indonesia";"";"";"";"-3.8495653";"126.735657";"https://maps.google.com/?cid=0x0:0xe723b31b241800d4";""
"hotel";"Hotel";"penginapan sartika 2";"5P4M+FMC, Jl. Kabupaten, Waenalut, Kec. Namrole, Kabupaten Buru Selatan, Maluku";"Kabupaten Buru Selatan, Maluku";"MALUKU";"";"Indonesia";" 085197065040";"";"";"-3.8438132";"126.73415";"https://maps.google.com/?cid=0x0:0xe67b971c3ec02278";""
"hotel";"Pondok";"penginapan GRAND SAHLAN";"5P4G+CGP, Unnamed Road, Elfule, Kec. Namrole, Kabupaten Buru Selatan, Maluku";"Kabupaten Buru Selatan, Maluku";"MALUKU";"";"Indonesia";" 085254785892";"";"";"-3.8439099";"126.7263206";"https://maps.google.com/?cid=0x0:0x2dd38f19320f6c31";""
"hotel";"Hotel";"Penginapan Syafnur (3rm)";"Jalan Karel Satsuitubun, Elfule, Kec. Namrole, Kabupaten Buru Selatan, Maluku";"Kabupaten Buru Selatan, Maluku";"MALUKU";"";"Indonesia";" 081296099193";"";"";"-3.8443117";"126.7230123";"https://maps.google.com/?cid=0x0:0xd16b3d238997a9fe";""
"hotel";"Penginapan religi";"Penginapan Marennu";"5P2P+CG7, Labuang, Kec. Namrole, Kabupaten Buru Selatan, Maluku";"Kabupaten Buru Selatan, Maluku";"MALUKU";"";"Indonesia";" 082238172122";"";"";"-3.8489633";"126.73629";"https://maps.google.com/?cid=0x0:0x45995872bb00551e";""
"hotel";"Pondok";"Penginapan RAMA";"5P4C+6XJ, Jl. Kabupaten, Elfule, Kec. Namrole, Kabupaten Buru Selatan, Maluku";"Kabupaten Buru Selatan, Maluku";"MALUKU";"";"Indonesia";"";"";"";"-3.8444037";"126.7224042";"https://maps.google.com/?cid=0x0:0xb78fb92bf93c62e2";""
"hotel";"Hotel";"Home base";"5P5H+MG9, Elfule, Kec. Namrole, Kabupaten Buru Selatan, Maluku";"Kabupaten Buru Selatan, Maluku";"MALUKU";"";"Indonesia";"";"";"";"-3.8408353";"126.728859";"https://maps.google.com/?cid=0x0:0xdc8cd0e0aa39d681";""
"hotel";"Pondok";"Penginapan Ozan";"5P6Q+379, Jl. Kabupaten, Labuang, Kec. Namrole, Kabupaten Buru Selatan, Maluku";"Kabupaten Buru Selatan, Maluku";"MALUKU";"";"Indonesia";"";"";"";"-3.8399264";"126.7382236";"https://maps.google.com/?cid=0x0:0x56311854a2e39755";""
"hotel";"Pondok";"Guest House Erdogan";"5P4M+6XH, Labuang, Kec. Namrole, Kabupaten Buru Selatan, Maluku";"Kabupaten Buru Selatan, Maluku";"MALUKU";"";"Indonesia";"";"";"";"-3.8444388";"126.7349909";"https://maps.google.com/?cid=0x0:0x6c060cc16cabf723";""
"hotel";"hotel";"Maluku";"";"Maluku";"MALUKU";"";"Indonesia";"";"";"";"-3.2384616";"130.1452734";"https://maps.google.com/?cid=0x0:0x5e30e8db04649a51";""
"hotel";"Hotel";"KAY'NAWA HOTEL";"Namlea, Kec. Namlea, Kabupaten Buru, Maluku";"Kabupaten Buru, Maluku";"MALUKU";"";"Indonesia";" 082239078260";"";"";"-3.2620241";"127.0970331";"https://maps.google.com/?cid=0x0:0x385a3a28622497df";""
"hotel";"Rumah berlibur";"Waelmatai Resort";"G736+R53, Liang, Kec. Salahutu, Kabupaten Maluku Tengah, Maluku";"Kabupaten Maluku Tengah, Maluku";"MALUKU";"";"Indonesia";" 081344203640";"";"";"-3.4954938";"128.2604197";"https://maps.google.com/?cid=0x0:0xd7d7178d3b74f18a";""
"hotel";"hotel";"N/A";"";"";"MALUKU";"";"Indonesia";"";"";"";"";"";"https://maps.google.com/?cid=0x0:0xb66509852ba2428c%7C/g/121qycpm%7Cen-ID";""
"hotel";"hotel";"Swiss-Belhotel Ambon";"Jl. Benteng Kapaha No.88, Uritetu, Kec. Sirimau, Kota Ambon, Maluku 97124";"Uritetu, Kec. Sirimau, Kota Ambon";"MALUKU";"97124";"Indonesia";" 0911322888";"";"";"-3.6944935";"128.1853354";"https://maps.google.com/?cid=0x0:0x80fb28ed089099ce";""
"hotel";"hotel";"Pantai Natsepa";"Suli, Kec. Salahutu, Kabupaten Maluku Tengah, Maluku";"Kabupaten Maluku Tengah, Maluku";"MALUKU";"";"Indonesia";"";"";"";"-3.6215465";"128.2921198";"https://maps.google.com/?cid=0x0:0x4f23bfbc3a9673f2";""
"hotel";"hotel";"N/A";"";"";"MALUKU";"";"Indonesia";"";"";"";"";"";"https://maps.google.com/?cid=0x0:0x80fb28ed089099ce%7C/g/1q67cz98h%7Cen-ID";""
"hotel";"Balai masyarakat";"Jembatan Merah Putih";"Jl. Jemb. Merah Putih, Kec. Sirimau, Kota Ambon, Maluku";"Kota Ambon, Maluku";"MALUKU";"";"Indonesia";"";"";"";"-3.6619296";"128.1982884";"https://maps.google.com/?cid=0x0:0x51809566a7c4728c";""
"hotel";"Tujuan Wisata";"Pantai Pintu Kota Ambon";"65H2+QXM, Nusaniwe, Kec. Nusaniwe, Kota Ambon, Maluku";"Kota Ambon, Maluku";"MALUKU";"";"Indonesia";"";"";"";"-3.7705365";"128.1524331";"https://maps.google.com/?cid=0x0:0x456317295a6201a6";""
"hotel";"hotel";"RumaRuma Farvet Residence";"Jl. DR. Kayadoe, Kel Wainitu, Kec. Nusaniwe, Kota Ambon, Maluku 97114";"Kel Wainitu, Kec. Nusaniwe, Kota Ambon";"MALUKU";"97114";"Indonesia";" 0911320001";"";"";"-3.7048297";"128.1749829";"https://maps.google.com/?cid=0x0:0x157b5f43bce7d2b7";""
"hotel";"hotel";"LeGreen Suite Waihaong";"Jl. Sultan Babullah No.48, Kel Waihaong, Kec. Nusaniwe, Kota Ambon, Maluku 97115";"Kel Waihaong, Kec. Nusaniwe, Kota Ambon";"MALUKU";"97115";"Indonesia";" 0911350068";"";"";"-3.6996254";"128.1756492";"https://maps.google.com/?cid=0x0:0xb21959aef3d161b1";""
"hotel";"hotel";"N/A";"";"";"MALUKU";"";"Indonesia";"";"";"";"";"";"https://maps.google.com/?cid=0x0:0xb21959aef3d161b1%7C/g/11f4wtlgqx%7Cen-ID";""
"hotel";"Hotel Resor";"Lisar Bahari Resort";"25RH+PP9, Ceram Sea, Sawai, Kabupaten Maluku Tengah, Maluku";"Kabupaten Maluku Tengah, Maluku";"MALUKU";"";"Indonesia";" 08211181137";"";"";"-2.9582217";"129.1793679";"https://maps.google.com/?cid=0x0:0xf7eacc86a3bfcec0";""
"hotel";"hotel";"Maluku Residence Syariah";"De Fretes No.12, Kel Waihaong, Kec. Nusaniwe, Kota Ambon, Maluku";"Kota Ambon, Maluku";"MALUKU";"";"Indonesia";"";"";"";"-3.7011319";"128.1764157";"https://maps.google.com/?cid=0x0:0x5e6e20d52e229730";""
"hotel";"hotel";"Maluku Resort and Spa";"Jl Waititiri, Suli, Salahutu, Central Maluku Regency, Maluku 97582";"Suli, Salahutu, Central Maluku Regency";"MALUKU";"97582";"Indonesia";" 0911361970";"";"";"-3.6167962";"128.2776551";"https://maps.google.com/?cid=0x0:0x399bf62f92df6277";""
"hotel";"hotel";"OYO 2165 Alyah Guest House Syariah";"Jalan De Fretes, Kel Waihaong, Kec. Nusaniwe, Kota Ambon, Maluku 92711";"Kel Waihaong, Kec. Nusaniwe, Kota Ambon";"MALUKU";"92711";"Indonesia";" 02129707601";"";"";"-3.7010179";"128.175948";"https://maps.google.com/?cid=0x0:0x23d91836a6f828a4";""
"hotel";"hotel";"N/A";"";"";"MALUKU";"";"Indonesia";"";"";"";"";"";"https://maps.google.com/?cid=0x0:0x23d91836a6f828a4%7C/g/11fqp5vdbp%7Cen-ID";""
"hotel";"hotel";"Air Belanda Resort, Near Ora Beach";"Bar.,, Saleman, Kec. Seram Utara Bar., Kabupaten Maluku Tengah, Maluku";"Kabupaten Maluku Tengah, Maluku";"MALUKU";"";"Indonesia";" 085343852368";"";"";"-2.9696582";"129.1301286";"https://maps.google.com/?cid=0x0:0x422a9bf330aa0cfd";""
"hotel";"hotel";"Pantai Ora";"Jl. Kabupaten, Kec. Seram Utara, Kabupaten Maluku Tengah, Maluku";"Kabupaten Maluku Tengah, Maluku";"MALUKU";"";"Indonesia";"";"";"";"-2.9598946";"129.1392275";"https://maps.google.com/?cid=0x0:0xf8e9bb942190466b";""
"hotel";"hotel";"Baguala Beach";"97MH+63G, Suli, Kec. Salahutu, Kabupaten Maluku Tengah, Maluku";"Kabupaten Maluku Tengah, Maluku";"MALUKU";"";"Indonesia";" 081259490022";"";"";"-3.6169452";"128.2777185";"https://maps.google.com/?cid=0x0:0x632f2cf306fa3e94";""
"hotel";"hotel";"MahuLodge Dive Operator | Accomodation";"Ihamahu, Kec. Saparua Timur, Kabupaten Maluku Tengah, Maluku 97585";"Kec. Saparua Timur, Kabupaten Maluku Tengah";"MALUKU";"97585";"Indonesia";" 082125254789";"";"";"-3.5286638";"128.6870896";"https://maps.google.com/?cid=0x0:0x66cdc8852940cb13";""
"hotel";"Tujuan Wisata";"Benteng " VOC " Duurstede Saparua";"Saparua, Kec. Saparua, Kabupaten Maluku Tengah, Maluku";"Kabupaten Maluku Tengah, Maluku";"MALUKU";"";"Indonesia";"";"";"";"-3.5752083";"128.6591167";"https://maps.google.com/?cid=0x0:0x8bcb1aada430e7aa";""
"hotel";"Hotel";"Hotel Awista";"P3PQ+68F, Jl. Dermaga Baru, Namlea, Kec. Namlea, Kabupaten Buru, Maluku 97571";"Jl. Dermaga Baru, Namlea, Kec. Namlea, Kabupaten Buru";"MALUKU";"97571";"Indonesia";" 082140872190";"";"";"-3.2644395";"127.0882915";"https://maps.google.com/?cid=0x0:0x453d4db43168e9c9";""
"hotel";"Guest house";"Wayame Bay Hotel";"85P8+4RW, Wayame, Kec. Tlk. Ambon, Kota Ambon, Maluku";"Kota Ambon, Maluku";"MALUKU";"";"Indonesia";" 08114789845";"";"";"-3.6649717";"128.1670112";"https://maps.google.com/?cid=0x0:0x468aa37b86386a94";""
"hotel";"hotel";"Grand Sarah Hotel";"Jl. Jenderal Ahmad Yani No.18, Namlea, Kec. Namlea, Kabupaten Buru, Maluku 97571";"Namlea, Kec. Namlea, Kabupaten Buru";"MALUKU";"97571";"Indonesia";" 091321533";"";"";"-3.2749299";"127.0968531";"https://maps.google.com/?cid=0x0:0x11d0f9858d026afc";""
"hotel";"Tujuan Wisata";"Bukit Tatanggo";"P3XM+FV, Namlea, Kec. Namlea, Kabupaten Buru, Maluku";"Kabupaten Buru, Maluku";"MALUKU";"";"Indonesia";"";"";"";"-3.2513058";"127.084644";"https://maps.google.com/?cid=0x0:0xea5427534d4819ed";""
"hotel";"hotel";"Hotel Kartika One";"Jl. Raya Lenteng Agung No.18, RT.10/RW.2, Srengseng Sawah, Kec. Jagakarsa, Kota Jakarta Selatan, Daerah Khusus Ibukota Jakarta 12630";"RT.10/RW.2, Srengseng Sawah, Kec. Jagakarsa, Kota Jakarta Selatan";"MALUKU";"12630";"Indonesia";" 02172736888";"";"";"-6.3446323";"106.8336946";"https://maps.google.com/?cid=0x0:0xbc75ff41a526e2e";""
"hotel";"hotel";"N/A";"";"";"MALUKU";"";"Indonesia";"";"";"";"";"";"https://maps.google.com/?cid=0x0:0xbc75ff41a526e2e%7C/g/11h_f6hmbq%7Cen-ID";""
"hotel";"hotel";"The Margo Hotel Depok";"Jl. Margonda No.358, Kemiri Muka, Kecamatan Beji, Kota Depok, Jawa Barat 16424";"Kemiri Muka, Kecamatan Beji, Kota Depok";"MALUKU";"16424";"Indonesia";" 02129515888";"";"";"-6.3719578";"106.833642";"https://maps.google.com/?cid=0x0:0xa32b5205cfd6ef6";""
"hotel";"hotel";"Maluku Resort and Spa";"Jl Waititiri, Suli, Salahutu, Central Maluku Regency, Maluku 97582";"Suli, Salahutu, Central Maluku Regency";"MALUKU";"97582";"Indonesia";" 0911361970";"";"";"-3.6167962";"128.2776551";"https://maps.google.com/?cid=0x0:0x399bf62f92df6277";""
"hotel";"hotel";"Kec. Ambalau";"Kabupaten Buru Selatan, Maluku";"Kabupaten Buru Selatan, Maluku";"MALUKU";"";"Indonesia";"";"";"";"-3.8899285";"127.2026214";"https://maps.google.com/?cid=0x0:0x2312ee616bf35f0";""
"hotel";"hotel";"Airy Maluku City Sudirman Ambon";"85JX+J8C, Jl. Jenderal Sudirman, Hative Kecil, Kec. Sirimau, Kota Ambon, Maluku 97128";"Jl. Jenderal Sudirman, Hative Kecil, Kec. Sirimau, Kota Ambon";"MALUKU";"97128";"Indonesia";" 08041112479";"";"";"-3.6684342";"128.1982566";"https://maps.google.com/?cid=0x0:0xd9a527375825a79";""
"hotel";"hotel";"The Natsepa Hotel  Resort";"Jl. Natsepa No.36, Suli, Kec. Salahutu, Kabupaten Maluku Tengah, Maluku 97582";"Suli, Kec. Salahutu, Kabupaten Maluku Tengah";"MALUKU";"97582";"Indonesia";" 0911362555";"";"";"-3.6224597";"128.2856783";"https://maps.google.com/?cid=0x0:0xb66509852ba2428c";""
"hotel";"hotel";"N/A";"";"";"MALUKU";"";"Indonesia";"";"";"";"";"";"https://maps.google.com/?cid=0x0:0xb66509852ba2428c%7C/g/121qycpm%7Cen-ID";""
"hotel";"hotel";"Ambon Residence Syariah";"Sultan babullah sk 30/50, Kel Waihaong, Kec. Nusaniwe, Kota Ambon, Maluku 97112";"Kel Waihaong, Kec. Nusaniwe, Kota Ambon";"MALUKU";"97112";"Indonesia";" 085243001169";"";"";"-3.7009901";"128.1759383";"https://maps.google.com/?cid=0x0:0x838abc5d6235d6dc";""
"hotel";"hotel";"Hotel amboina";"Uritetu, Kec. Sirimau, Kota Ambon, Maluku";"Kota Ambon, Maluku";"MALUKU";"";"Indonesia";" 082197666991";"";"";"-3.6962935";"128.1833458";"https://maps.google.com/?cid=0x0:0xd0df5cf8364cfadf";""
"hotel";"hotel";"Baguala Beach";"97MH+63G, Suli, Kec. Salahutu, Kabupaten Maluku Tengah, Maluku";"Kabupaten Maluku Tengah, Maluku";"MALUKU";"";"Indonesia";" 081259490022";"";"";"-3.6169452";"128.2777185";"https://maps.google.com/?cid=0x0:0x632f2cf306fa3e94";""
"hotel";"hotel";"OYO 2221 Masoya Cottage Amboina";"Jl. Dr. J. Leimena, Poka, Kec. Tlk. Ambon, Kota Ambon, Maluku 97233";"Poka, Kec. Tlk. Ambon, Kota Ambon";"MALUKU";"97233";"Indonesia";" 02129707601";"";"";"-3.6510707";"128.1960189";"https://maps.google.com/?cid=0x0:0x92ea2daa96082bb5";""
"hotel";"hotel";"Kalimantan Barat 78684";"Kabupaten Sintang, Kalimantan Barat";"Kabupaten Sintang, Kalimantan Barat";"MALUKU";"";"Indonesia";"";"";"";"-0.0687881";"112.9058802";"https://maps.google.com/?cid=0x0:0xc818bb777c60929";""
"hotel";"Guest house";"Penginapan Cintana 2";"9892+WR, Nanga Tepuai, Kec. Hulu Gurung, Kabupaten Kapuas Hulu, Kalimantan Barat";"Kabupaten Kapuas Hulu, Kalimantan Barat";"MALUKU";"";"Indonesia";" 081254209200";"";"";"0.3698962";"112.3021867";"https://maps.google.com/?cid=0x0:0xae523f1e913bb20e";""
"hotel";"hotel";"Penginapan "Amazon"";"Nanga Tepuai, Kec. Hulu Gurung, Kabupaten Kapuas Hulu, Kalimantan Barat";"Kabupaten Kapuas Hulu, Kalimantan Barat";"MALUKU";"";"Indonesia";"";"";"";"0.3695659";"112.3037557";"https://maps.google.com/?cid=0x0:0xccfc0a6d931d4fea";""
"hotel";"Penginapan";"Penginapan Wijaya";"98C5+FMC, Nanga Tepuai, Kec. Hulu Gurung, Kabupaten Kapuas Hulu, Kalimantan Barat 78764";"Nanga Tepuai, Kec. Hulu Gurung, Kabupaten Kapuas Hulu";"MALUKU";"78764";"Indonesia";" 085245889182";"";"";"0.3711853";"112.3091482";"https://maps.google.com/?cid=0x0:0xf1465cb6f90bedbc";""
"hotel";"hotel";"Maluku Resort and Spa";"Jl Waititiri, Suli, Salahutu, Central Maluku Regency, Maluku 97582";"Suli, Salahutu, Central Maluku Regency";"MALUKU";"97582";"Indonesia";" 0911361970";"";"";"-3.6167962";"128.2776551";"https://maps.google.com/?cid=0x0:0x399bf62f92df6277";""
"hotel";"hotel";"Kec. Ambalau";"Kabupaten Buru Selatan, Maluku";"Kabupaten Buru Selatan, Maluku";"MALUKU";"";"Indonesia";"";"";"";"-3.8899285";"127.2026214";"https://maps.google.com/?cid=0x0:0x2312ee616bf35f0";""
"hotel";"hotel";"Airy Maluku City Sudirman Ambon";"85JX+J8C, Jl. Jenderal Sudirman, Hative Kecil, Kec. Sirimau, Kota Ambon, Maluku 97128";"Jl. Jenderal Sudirman, Hative Kecil, Kec. Sirimau, Kota Ambon";"MALUKU";"97128";"Indonesia";" 08041112479";"";"";"-3.6684342";"128.1982566";"https://maps.google.com/?cid=0x0:0xd9a527375825a79";""
"hotel";"hotel";"N/A";"";"";"MALUKU";"";"Indonesia";"";"";"";"";"";"https://maps.google.com/?cid=0x0:0xb66509852ba2428c%7C/g/121qycpm%7Cen-ID";""
"hotel";"hotel";"The Natsepa Hotel  Resort";"Jl. Natsepa No.36, Suli, Kec. Salahutu, Kabupaten Maluku Tengah, Maluku 97582";"Suli, Kec. Salahutu, Kabupaten Maluku Tengah";"MALUKU";"97582";"Indonesia";" 0911362555";"";"";"-3.6224597";"128.2856783";"https://maps.google.com/?cid=0x0:0xb66509852ba2428c";""
"hotel";"hotel";"Hotel amboina";"Uritetu, Kec. Sirimau, Kota Ambon, Maluku";"Kota Ambon, Maluku";"MALUKU";"";"Indonesia";" 082197666991";"";"";"-3.6962935";"128.1833458";"https://maps.google.com/?cid=0x0:0xd0df5cf8364cfadf";""
"hotel";"hotel";"Baguala Beach";"97MH+63G, Suli, Kec. Salahutu, Kabupaten Maluku Tengah, Maluku";"Kabupaten Maluku Tengah, Maluku";"MALUKU";"";"Indonesia";" 081259490022";"";"";"-3.6169452";"128.2777185";"https://maps.google.com/?cid=0x0:0x632f2cf306fa3e94";""
"hotel";"hotel";"Airy Batu Meja Sirimau 12 Ambon";"Jl. Sirimau No.12, Kel Batu Meja, Kec. Sirimau, Kota Ambon, Maluku 97123";"Kel Batu Meja, Kec. Sirimau, Kota Ambon";"MALUKU";"97123";"Indonesia";" 08041112479";"";"";"-3.6982453";"128.1866202";"https://maps.google.com/?cid=0x0:0x9301011cf5cb69ad";""
"hotel";"Hotel";"Penginapan 2 Saudara";"5P2P+57F, Labuang, Kec. Namrole, Kabupaten Buru Selatan, Maluku";"Kabupaten Buru Selatan, Maluku";"MALUKU";"";"Indonesia";"";"";"";"-3.8495653";"126.735657";"https://maps.google.com/?cid=0x0:0xe723b31b241800d4";""
"hotel";"Hotel";"penginapan sartika 2";"5P4M+FMC, Jl. Kabupaten, Waenalut, Kec. Namrole, Kabupaten Buru Selatan, Maluku";"Kabupaten Buru Selatan, Maluku";"MALUKU";"";"Indonesia";" 085197065040";"";"";"-3.8438132";"126.73415";"https://maps.google.com/?cid=0x0:0xe67b971c3ec02278";""
"hotel";"hotel";"Grand Sarah Hotel";"Jl. Jenderal Ahmad Yani No.18, Namlea, Kec. Namlea, Kabupaten Buru, Maluku 97571";"Namlea, Kec. Namlea, Kabupaten Buru";"MALUKU";"97571";"Indonesia";" 091321533";"";"";"-3.2749299";"127.0968531";"https://maps.google.com/?cid=0x0:0x11d0f9858d026afc";""
"hotel";"Hotel";"KAY'NAWA HOTEL";"Namlea, Kec. Namlea, Kabupaten Buru, Maluku";"Kabupaten Buru, Maluku";"MALUKU";"";"Indonesia";" 082239078260";"";"";"-3.2620241";"127.0970331";"https://maps.google.com/?cid=0x0:0x385a3a28622497df";""
"hotel";"Hotel";"Hotel Awista";"P3PQ+68F, Jl. Dermaga Baru, Namlea, Kec. Namlea, Kabupaten Buru, Maluku 97571";"Jl. Dermaga Baru, Namlea, Kec. Namlea, Kabupaten Buru";"MALUKU";"97571";"Indonesia";" 082140872190";"";"";"-3.2644395";"127.0882915";"https://maps.google.com/?cid=0x0:0x453d4db43168e9c9";""
"hotel";"hotel";"Leksula";"Kabupaten Buru Selatan, Maluku";"Kabupaten Buru Selatan, Maluku";"MALUKU";"";"Indonesia";"";"";"";"-3.5795592";"126.3064595";"https://maps.google.com/?cid=0x0:0xc3381880c2b002c0";""
"hotel";"Hotel";"Kel.N.Pattinasarany";"Leksula, Kabupaten Buru Selatan, Maluku";"Kabupaten Buru Selatan, Maluku";"MALUKU";"";"Indonesia";"";"";"";"-3.7778216";"126.5154302";"https://maps.google.com/?cid=0x0:0x8aa3fd1814307a83";""
"hotel";"Motel";"Penginapan Tamariska";"6GC5+9MJ, Leksula, Kabupaten Buru Selatan, Maluku";"Kabupaten Buru Selatan, Maluku";"MALUKU";"";"Indonesia";" 081343252325";"";"";"-3.7790411";"126.5091459";"https://maps.google.com/?cid=0x0:0x3c10f1291d672dc7";""
"hotel";"hotel";"RedDoorz near Pantai Falajawa";"Jl. Sultan Nuku No.100, Muhajirin, Kec. Ternate Tengah, Kota Ternate, Maluku Utara";"Kota Ternate, Maluku Utara";"MALUKU";"";"Indonesia";" 0895417300072";"";"";"0.7834077";"127.3878732";"https://maps.google.com/?cid=0x0:0xd410298132550869";""
"hotel";"hotel";"Ternate City Hotel";"Jl. Nuku No.1, Muhajirin, Kec. Ternate Tengah, Kota Ternate, Maluku Utara 97713";"Muhajirin, Kec. Ternate Tengah, Kota Ternate";"MALUKU";"97713";"Indonesia";" 081327824005";"";"";"0.7831686";"127.3881079";"https://maps.google.com/?cid=0x0:0xf0a0764df41ded6";""
"hotel";"hotel";"Grand Majang Hotel Ternate";"Jl. Arnold Mononutu No.275, Stadion, Kec. Ternate Tengah, Kota Ternate, Maluku Utara";"Kota Ternate, Maluku Utara";"MALUKU";"";"Indonesia";" 081289376601";"";"";"0.7836107";"127.3845012";"https://maps.google.com/?cid=0x0:0xf6e7394b3e66015f";""
"hotel";"hotel";"D'Wantys Hotel";"Q9HG+WHC RW.Jerbus Kel, Tanah Tinggi Bar., Kec. Ternate Sel., Kota Ternate, Maluku Utara";"Kota Ternate, Maluku Utara";"MALUKU";"";"Indonesia";" 09216203046";"";"";"0.7798217";"127.3763933";"https://maps.google.com/?cid=0x0:0xbcfba8a376993043";""
"hotel";"hotel";"AINI HOMESTAY TERNATE";"Jl. Toboleu Koloncucu Gipsy No. 45/703, Kelurahan, RT.16/RW.06, Toboleu, Kec. Kota Ternate Utara, Kota Ternate, Maluku Utara 97716";"Kelurahan, RT.16/RW.06, Toboleu, Kec. Kota Ternate Utara, Kota Ternate";"MALUKU";"97716";"Indonesia";" 08124752595";"";"";"0.8067324";"127.3839976";"https://maps.google.com/?cid=0x0:0xed94a780f4cf3705";""
"hotel";"hotel";"Boulevard Hotel";"Q9RQ+4WQ, Jalan Ruko Jatiland Jl. Sultan M. Djabir Sjah No.1 - 5, Gamalama, Kec. Kota Ternate Utara, Maluku Utara";"Maluku Utara";"MALUKU";"";"Indonesia";" 09213110666";"";"";"0.7900983";"127.3899972";"https://maps.google.com/?cid=0x0:0x81f2c24d2703d498";""
"hotel";"hotel";"Hotel Gamalama Indah";"Q9QQ+RX6, Gamalama, Kec. Ternate Tengah, Kota Ternate, Maluku Utara";"Kota Ternate, Maluku Utara";"MALUKU";"";"Indonesia";" 081380008545";"";"";"0.7895272";"127.3898938";"https://maps.google.com/?cid=0x0:0x2029c9b62509c39";""
"hotel";"hotel";"Gn. Gamalama";"Hutan Lindung, Kec. Hutan Lindung, Kota Ternate, Maluku Utara";"Kota Ternate, Maluku Utara";"MALUKU";"";"Indonesia";"";"";"";"0.8091666";"127.3333333";"https://maps.google.com/?cid=0x0:0x1f13cae0fc042e8";""
"hotel";"Hotel";"Hotel Awista";"P3PQ+68F, Jl. Dermaga Baru, Namlea, Kec. Namlea, Kabupaten Buru, Maluku 97571";"Jl. Dermaga Baru, Namlea, Kec. Namlea, Kabupaten Buru";"MALUKU";"97571";"Indonesia";" 082140872190";"";"";"-3.2644395";"127.0882915";"https://maps.google.com/?cid=0x0:0x453d4db43168e9c9";""
"hotel";"Hotel";"KAY'NAWA HOTEL";"Namlea, Kec. Namlea, Kabupaten Buru, Maluku";"Kabupaten Buru, Maluku";"MALUKU";"";"Indonesia";" 082239078260";"";"";"-3.2620241";"127.0970331";"https://maps.google.com/?cid=0x0:0x385a3a28622497df";""
"hotel";"hotel";"F Hotel";"Jl. Panglima Polim No.101 1, RT.1/RW.5, Kramat Pela, Kec. Kby. Baru, Kota Jakarta Selatan, Daerah Khusus Ibukota Jakarta 12160";"RT.1/RW.5, Kramat Pela, Kec. Kby. Baru, Kota Jakarta Selatan";"MALUKU";"12160";"Indonesia";" 02127506777";"";"";"-6.2470688";"106.7976237";"https://maps.google.com/?cid=0x0:0x4323d05f63537f5";""
"hotel";"hotel";"N/A";"";"";"MALUKU";"";"Indonesia";"";"";"";"";"";"https://maps.google.com/?cid=0x0:0x4323d05f63537f5%7C/g/11b7q29p9v%7Cen-ID";""
"hotel";"Museum Sejarah Lokal";"Monumen Nasional";"Merdeka Square, Jalan Lapangan Monas, Gambir, Kecamatan Gambir, Kota Jakarta Pusat, Daerah Khusus Ibukota Jakarta 10110";"Jalan Lapangan Monas, Gambir, Kecamatan Gambir, Kota Jakarta Pusat";"MALUKU";"10110";"Indonesia";" 0213853040";"";"";"-6.1753924";"106.8271528";"https://maps.google.com/?cid=0x0:0x3d2ad6e1e0e9bcc8";""
"hotel";"hotel";"HAPPY INN - MELAWAI";"Jl. Melawai Raya No.189B 3rd floor, RT.7/RW.5, Kramat Pela, Kec. Kby. Baru, Kota Jakarta Selatan, Daerah Khusus Ibukota Jakarta 12130";"RT.7/RW.5, Kramat Pela, Kec. Kby. Baru, Kota Jakarta Selatan";"MALUKU";"12130";"Indonesia";" 02127515670";"";"";"-6.2460261";"106.7962222";"https://maps.google.com/?cid=0x0:0xe742d10c4454f2d6";""
"hotel";"Kantor Perusahaan";"Palmerah";"Gelora, Kecamatan Tanah Abang, Kota Jakarta Pusat, Daerah Khusus Ibukota Jakarta";"Kota Jakarta Pusat, Daerah Khusus Ibukota Jakarta";"MALUKU";"";"Indonesia";"";"";"";"-6.2075944";"106.797382";"https://maps.google.com/?cid=0x0:0x116987b9272f716d";""
"hotel";"hotel";"N/A";"";"";"MALUKU";"";"Indonesia";"";"";"";"";"";"https://maps.google.com/?cid=0x0:0xe742d10c4454f2d6%7C/g/11bx5qql3h%7Cen-ID";""
"hotel";"hotel";"Holiday Inn Express Jakarta Matraman by IHG";"Jl. Matraman Raya No.57, Palmeriam, Kec. Matraman, Jakarta, Daerah Khusus Ibukota Jakarta 13140";"Palmeriam, Kec. Matraman, Jakarta";"MALUKU";"13140";"Indonesia";" 02129776700";"";"";"-6.2030833";"106.8575303";"https://maps.google.com/?cid=0x0:0x487507bdeac5609d";""
"hotel";"hotel";"N/A";"";"";"MALUKU";"";"Indonesia";"";"";"";"";"";"https://maps.google.com/?cid=0x0:0x487507bdeac5609d%7C/g/11f7t51x4w%7Cen-ID";""
"hotel";"hotel";"Liberta Hub Blok M Jakarta";"Jl. Sultan Hasanudin No.30, RT.2/RW.1, Melawai, Kec. Kby. Baru, Kota, RT.2/RW.1, Melawai, Kec. Kby. Baru, Jakarta, Daerah Khusus Ibukota Jakarta 12160";"RT.2/RW.1, Melawai, Kec. Kby. Baru, Kota, RT.2/RW.1, Melawai, Kec. Kby. Baru, Jakarta";"MALUKU";"12160";"Indonesia";" 0217208500";"";"";"-6.2428953";"106.8020927";"https://maps.google.com/?cid=0x0:0x3cc143353c65acf2";""
"hotel";"Layanan Transportasi";"Kramat";"dari Jalan Pramuka Jaya Sari, Jl. Penegak Jl. Gugus Depan Gg. II, Paseban, Kec. Senen, Daerah Khusus Ibukota Jakarta 10440";"Jl. Penegak Jl. Gugus Depan Gg. II, Paseban, Kec. Senen";"MALUKU";"10440";"Indonesia";"";"";"";"-6.19371";"106.85659";"https://maps.google.com/?cid=0x0:0x1b1a874b25622c3b";""
"hotel";"hotel";"N/A";"";"";"MALUKU";"";"Indonesia";"";"";"";"";"";"https://maps.google.com/?cid=0x0:0x3cc143353c65acf2%7C/g/11jpsypxt_%7Cen-ID";""
"hotel";"hotel";"Holiday Inn";"Jl. Jababeka Raya No.Kav. A, RW.2, Pasirsari, Cikarang Sel., Kabupaten Bekasi, Jawa Barat 17530";"RW.2, Pasirsari, Cikarang Sel., Kabupaten Bekasi";"MALUKU";"17530";"Indonesia";" 02128510000";"";"";"-6.2949277";"107.1455487";"https://maps.google.com/?cid=0x0:0xf3a42d07bdc62910";""
"hotel";"hotel";"N/A";"";"";"MALUKU";"";"Indonesia";"";"";"";"";"";"https://maps.google.com/?cid=0x0:0xf3a42d07bdc62910%7C/g/11b75cnlxk%7Cen-ID";""
"hotel";"Taman Rekreasi Air";"WaterBoom Lippo Cikarang";"Jl. Madiun No.Kav. 115, Cibatu, Kabupaten Bekasi, Jawa Barat 17550";"Cibatu, Kabupaten Bekasi";"MALUKU";"17550";"Indonesia";" 085283868186";"";"";"-6.331396";"107.1382858";"https://maps.google.com/?cid=0x0:0xf9931a1b0336f09e";""
"hotel";"Stasiun Kereta";"Lemah Abang";"Lemah Abang, Jalan Raya Lemah Abang Blok Lemah Abang No.4, Simpangan, Cikarang Utara, Kabupaten Bekasi, Jawa Barat 17530";"Jalan Raya Lemah Abang Blok Lemah Abang No.4, Simpangan, Cikarang Utara, Kabupaten Bekasi";"MALUKU";"17530";"Indonesia";"";"";"";"-6.27054";"107.17984";"https://maps.google.com/?cid=0x0:0x71684600c61f9493";""
"restaurant";"Restoran";"Rumah Makan A.N. Namrole.";"5P6Q+MQ4, Jl. Kabupaten, Labuang, Kec. Namrole, Kabupaten Buru Selatan, Maluku";"Kabupaten Buru Selatan, Maluku";"MALUKU";"";"Indonesia";" 082299717177";"";"";"-3.838374";"126.739464";"https://maps.google.com/?cid=0x0:0xe9964e9d56424327";""
"restaurant";"restaurant";"Kec. Namrole";"Kabupaten Buru Selatan, Maluku";"Kabupaten Buru Selatan, Maluku";"MALUKU";"";"Indonesia";"";"";"";"-3.8444685";"126.7353848";"https://maps.google.com/?cid=0x0:0xe0ed0a265027f75e";""
"restaurant";"Brunch";"RM.MARENNU";"5P7Q+5XM, Jl. Kabupaten, Labuang, Kec. Namrole, Kabupaten Buru Selatan, Maluku";"Kabupaten Buru Selatan, Maluku";"MALUKU";"";"Indonesia";"";"";"";"-3.8370292";"126.7399309";"https://maps.google.com/?cid=0x0:0x77abbcbefb2f1111";""
"restaurant";"Nasi";"Namrole, kabupaten buru Selatan";"7RC7+2P6, Labuang, Kec. Namrole, Kabupaten Buru Selatan, Maluku";"Kabupaten Buru Selatan, Maluku";"MALUKU";"";"Indonesia";"";"";"";"-3.7299502";"126.8142605";"https://maps.google.com/?cid=0x0:0x5f7ea9ea133113e5";""
"restaurant";"Sate";"Rm.khabita";"5P3P+C33, Labuang, Kec. Namrole, Kabupaten Buru Selatan, Maluku";"Kabupaten Buru Selatan, Maluku";"MALUKU";"";"Indonesia";" 082239964788";"";"";"-3.8464884";"126.735187";"https://maps.google.com/?cid=0x0:0xf5a0398fbce08604";""
"restaurant";"Sate";"Warung Makan Jawa Timur";"5P4P+GRR, Labuang, Kec. Namrole, Kabupaten Buru Selatan, Maluku";"Kabupaten Buru Selatan, Maluku";"MALUKU";"";"Indonesia";"";"";"";"-3.8435433";"126.7366692";"https://maps.google.com/?cid=0x0:0x34a49688345eb93e";""
"restaurant";"Brunch";"Rumah Makan Ayah Namrole";"5P6P+6X8, Labuang, Kec. Namrole, Kabupaten Buru Selatan, Maluku";"Kabupaten Buru Selatan, Maluku";"MALUKU";"";"Indonesia";"";"";"";"-3.8394567";"126.7374444";"https://maps.google.com/?cid=0x0:0xb108b32ef765709";""
"restaurant";"Brunch";"Rumah Makan Diana";"5P4P+RPW, Jl. Kabupaten, Labuang, Kec. Namrole, Kabupaten Buru Selatan, Maluku";"Kabupaten Buru Selatan, Maluku";"MALUKU";"";"Indonesia";"";"";"";"-3.8428864";"126.7368164";"https://maps.google.com/?cid=0x0:0x360dbdb0eaae70";""
"restaurant";"Rumah Makan";"Rm. Dua Putri";"5P3M+F67, Jl. Kabupaten, Labuang, Kec. Namrole, Kabupaten Buru Selatan, Maluku";"Kabupaten Buru Selatan, Maluku";"MALUKU";"";"Indonesia";"";"";"";"-3.8463311";"126.7330398";"https://maps.google.com/?cid=0x0:0x8105b7351eb6249c";""
"restaurant";"Nasi Goreng";"rumah makan dede nasi kuning nasi kelapa";"Elfule, Kec. Namrole, Kabupaten Buru Selatan, Maluku 97544";"Kec. Namrole, Kabupaten Buru Selatan";"MALUKU";"97544";"Indonesia";"";"";"";"-3.8453902";"126.725003";"https://maps.google.com/?cid=0x0:0xb52b8138aab01f6b";""
"restaurant";"Sate";"RM Safitri";"5P3P+946, Labuang, Kec. Namrole, Kabupaten Buru Selatan, Maluku";"Kabupaten Buru Selatan, Maluku";"MALUKU";"";"Indonesia";"";"";"";"-3.8465878";"126.7352621";"https://maps.google.com/?cid=0x0:0xe00eb70c5e8b14cc";""
"restaurant";"Rumah Makan";"Rumah Makan Indah";"RM Indah (Depan Penginapan Sartika 2, Jl. Km1, Labuang, Kec. Namrole, Kabupaten Buru Selatan, Maluku 97544";"Jl. Km1, Labuang, Kec. Namrole, Kabupaten Buru Selatan";"MALUKU";"97544";"Indonesia";" 081249023406";"";"";"-3.8442471";"126.7345726";"https://maps.google.com/?cid=0x0:0x55c6874ba8fa06b3";""
"restaurant";"Restoran";"Ulathaha Caffe and rest";"Jl. Baru, Elfule, Kec. Namrole, Kabupaten Buru Selatan, Maluku";"Kabupaten Buru Selatan, Maluku";"MALUKU";"";"Indonesia";" 081344043602";"";"";"-3.8416204";"126.7265298";"https://maps.google.com/?cid=0x0:0x137e54488fd3e418";""
"restaurant";"Brunch";"RUMAH MAKAN INA BAHEREN";"KOPRASI BARASEHE 6 ROLE, Labuang, Kec. Namrole, Kabupaten Buru Selatan, Maluku";"Kabupaten Buru Selatan, Maluku";"MALUKU";"";"Indonesia";"";"";"";"-3.8392149";"126.7360258";"https://maps.google.com/?cid=0x0:0xe61c8cf400a00650";""
"restaurant";"Restoran";"Warung Pangkep";"5P4P+32G, Labuang, Kec. Namrole, Kabupaten Buru Selatan, Maluku";"Kabupaten Buru Selatan, Maluku";"MALUKU";"";"Indonesia";" 082187314707";"";"";"-3.8448138";"126.7350733";"https://maps.google.com/?cid=0x0:0xbad199154f9985d3";""
"restaurant";"Restoran";"Warung makan Bu Rt";"Jl. Kabupaten, Labuang, Kec. Namrole, Kabupaten Buru Selatan, Maluku";"Kabupaten Buru Selatan, Maluku";"MALUKU";"";"Indonesia";"";"";"";"-3.8444043";"126.7352353";"https://maps.google.com/?cid=0x0:0x1ab9710d1f9c404b";""
"restaurant";"Restoran";"Sop Buah Sulawesi";"5P4P+86F, Labuang, Kec. Namrole, Kabupaten Buru Selatan, Maluku";"Kabupaten Buru Selatan, Maluku";"MALUKU";"";"Indonesia";" 081241494007";"";"";"-3.8441772";"126.7355384";"https://maps.google.com/?cid=0x0:0x9da48b1f996de81f";""
"restaurant";"Kedai Kopi";"KEDAI FIKSU NAMROLE";"Kedai Fiksu, Elfule, Kec. Namrole, Kabupaten Buru Selatan, Maluku 97573";"Elfule, Kec. Namrole, Kabupaten Buru Selatan";"MALUKU";"97573";"Indonesia";" 082137777184";"";"";"-3.709484";"126.808877";"https://maps.google.com/?cid=0x0:0x1861b21130aa9654";""
"restaurant";"Kafe";"Kafe ' LL";"5P5Q+23M, Jl. Kabupaten, Labuang, Kec. Namrole, Kabupaten Buru Selatan, Maluku";"Kabupaten Buru Selatan, Maluku";"MALUKU";"";"Indonesia";" 085244477781";"";"";"-3.842418";"126.737683";"https://maps.google.com/?cid=0x0:0xee253c96eb646544";""
"restaurant";"Rumah Makan";"Rumah Makan Umega 2";"5P5Q+XGW, Jl. Kabupaten, Labuang, Kec. Namrole, Kabupaten Buru Selatan, Maluku";"Kabupaten Buru Selatan, Maluku";"MALUKU";"";"Indonesia";" 085244630002";"";"";"-3.8400044";"126.7388435";"https://maps.google.com/?cid=0x0:0xd95f1e190a7ecfd9";""
"restaurant";"Nasi";"New Kedai Chaisa";"5P4M+7X6, Unnamed Road, Labuang, Kec. Namrole, Kabupaten Buru Selatan, Maluku";"Kabupaten Buru Selatan, Maluku";"MALUKU";"";"Indonesia";" 085243777734";"";"";"-3.8443254";"126.7348842";"https://maps.google.com/?cid=0x0:0x7b8c7a8f5a6eef59";""
"restaurant";"Kafe";"Warung tafana";"5P3J+JR9, Elfule, Kec. Namrole, Kabupaten Buru Selatan, Maluku";"Kabupaten Buru Selatan, Maluku";"MALUKU";"";"Indonesia";" 081344786342";"";"";"-3.8459655";"126.7321014";"https://maps.google.com/?cid=0x0:0x9166ee58569a84b8";""
"restaurant";"restaurant";"Maluku";"";"Maluku";"MALUKU";"";"Indonesia";"";"";"";"-3.2384616";"130.1452734";"https://maps.google.com/?cid=0x0:0x5e30e8db04649a51";""
"restaurant";"Ikan Bakar";"Walang Resto";"85RX+6R8, Unnamed Road, Poka, Kec. Tlk. Ambon, Kota Ambon, Maluku";"Kota Ambon, Maluku";"MALUKU";"";"Indonesia";" 082248472693";"";"";"-3.65947";"128.1995628";"https://maps.google.com/?cid=0x0:0x67c2a9c152347aff";""
"restaurant";"Restoran";"Wailela Cafe and Resto | Ambon";"Jl. Kampus, Rumah Tiga, Kec. Tlk. Ambon, Kota Ambon, Maluku";"Kota Ambon, Maluku";"MALUKU";"";"Indonesia";" 082399522113";"";"";"-3.6610624";"128.180609";"https://maps.google.com/?cid=0x0:0x3acbc85ce4ef2d6d";""
"restaurant";"Restoran";"Rumah Makan Fajrin";"JXFP+FW6, Waenetat, Kec. Waeapo, Kabupaten Buru, Maluku";"Kabupaten Buru, Maluku";"MALUKU";"";"Indonesia";"";"";"";"-3.3763476";"126.9872769";"https://maps.google.com/?cid=0x0:0xca8d77639c9f4a68";""
"restaurant";"Rumah Makan";"Rumah Makan Umega 2";"5P5Q+XGW, Jl. Kabupaten, Labuang, Kec. Namrole, Kabupaten Buru Selatan, Maluku";"Kabupaten Buru Selatan, Maluku";"MALUKU";"";"Indonesia";" 085244630002";"";"";"-3.8400044";"126.7388435";"https://maps.google.com/?cid=0x0:0xd95f1e190a7ecfd9";""
"restaurant";"Restoran";"Rumah makan";"Waetina, Namlea, Kabupaten Buru, Maluku 97574";"Namlea, Kabupaten Buru";"MALUKU";"97574";"Indonesia";"";"";"";"-3.4842658";"126.9223536";"https://maps.google.com/?cid=0x0:0xe8c12a7d35a64e45";""
"restaurant";"Nasi Goreng";"Warung Mama Eny";"Leksula, Kabupaten Buru Selatan, Maluku 97543";"Kabupaten Buru Selatan";"MALUKU";"97543";"Indonesia";" 081378346367";"";"";"-3.7785493";"126.5127654";"https://maps.google.com/?cid=0x0:0xdbd42e2f6d569705";""
"restaurant";"Hidangan Laut";"Lateri Beach Restaurant";"Lateri, Kec. Baguala, Kota Ambon, Maluku";"Kota Ambon, Maluku";"MALUKU";"";"Indonesia";" 081240783897";"";"";"-3.6479651";"128.2330484";"https://maps.google.com/?cid=0x0:0x17f2f5444327987a";""
"restaurant";"Indonesia";"OLina caferesto";"97H4+2QG, Passo, Kec. Baguala, Kota Ambon, Maluku";"Kota Ambon, Maluku";"MALUKU";"";"Indonesia";" 082199231798";"";"";"-3.6225066";"128.2574029";"https://maps.google.com/?cid=0x0:0xb19ebc731e4d5590";""
"restaurant";"Ikan Bakar";"MARTHAFONS WALANG";"86R2+628, Poka, Kec. Tlk. Ambon, Maluku";"Maluku";"MALUKU";"";"Indonesia";" 081343205555";"";"";"-3.659465";"128.2000875";"https://maps.google.com/?cid=0x0:0xe5c8c8951ea638fa";""
"restaurant";"Dapur Umum";"Waeura";"P4G8+CJR, Namlea, Kec. Namlea, Kabupaten Buru, Maluku";"Kabupaten Buru, Maluku";"MALUKU";"";"Indonesia";"";"";"";"-3.2738979";"127.1165122";"https://maps.google.com/?cid=0x0:0x5bc55664690878dc";""
"restaurant";"Hidangan Laut";"Dapor Kole Kole";"853M+V56, Jl. Dana Kopra No.16, Uritetu, Kec. Sirimau, Kota Ambon, Maluku 97124";"Jl. Dana Kopra No.16, Uritetu, Kec. Sirimau, Kota Ambon";"MALUKU";"97124";"Indonesia";" 081399266788";"";"";"-3.6952343";"128.1830069";"https://maps.google.com/?cid=0x0:0x29f9db4e2df0a98f";""
"restaurant";"Hidangan Laut";"RAJA SEAFOOD RESTAURANT AMBON";"Jl. Wolter Monginsidi No.17-20, Latta, Kec. Baguala, Kota Ambon, Maluku 97231";"Latta, Kec. Baguala, Kota Ambon";"MALUKU";"97231";"Indonesia";" 082199813100";"";"";"-3.6550534";"128.2251124";"https://maps.google.com/?cid=0x0:0xe3f5c7a37493c8de";""
"restaurant";"Hidangan Laut";"Cili Padi Restaurant";"Said Perintah No.52, Kel Honipopu, Kec. Sirimau, Kota Ambon, Maluku";"Kota Ambon, Maluku";"MALUKU";"";"Indonesia";" 0911348736";"";"";"-3.6977926";"128.1806173";"https://maps.google.com/?cid=0x0:0x4da49f6c344ede1a";""
"restaurant";"Hidangan Laut";"SMORGAN Resto";"PXJV+JGQ, Jl. Pemerintahan, depan KODIM, Halut, Mkcm, Tobelo, North Halmahera Regency, North Maluku";"Kabupaten Halmahera Utara, Maluku Utara";"MALUKU";"";"Indonesia";" 085201115150";"";"";"1.7315784";"127.9938588";"https://maps.google.com/?cid=0x0:0xd45d6fcd651f0c5c";""
"restaurant";"Mi";"Bakso  Sate "Mas Har"";"HW5C+3V3, Grandeng, Kec. Waeapo, Kabupaten Buru, Maluku";"Kabupaten Buru, Maluku";"MALUKU";"";"Indonesia";"";"";"";"-3.4423644";"126.9221758";"https://maps.google.com/?cid=0x0:0xdcc5fd3af2a74f45";""
"restaurant";"Bar";"la anwae";"RT 002, Nanali";"Kabupaten Buru Selatan, Maluku";"MALUKU";"";"Indonesia";"";"";"";"-3.2072951";"126.0175972";"https://maps.google.com/?cid=0x0:0xb980840712113423";""
"restaurant";"Kafe";"INFINITY CAFE  EATERY";"85CV+M7G, Pandan Kasturi, Kec. Sirimau, Kota Ambon, Maluku";"Kota Ambon, Maluku";"MALUKU";"";"Indonesia";" 081241568878";"";"";"-3.6783317";"128.1931931";"https://maps.google.com/?cid=0x0:0x619ec9a16acc810f";""
"restaurant";"Kompleks Kondominium";"Beskem remas";"J489+6WC, Masarete, Kec. Waeapo, Kabupaten Buru, Maluku";"Kabupaten Buru, Maluku";"MALUKU";"";"Indonesia";"";"";"";"-3.3844375";"127.1197656";"https://maps.google.com/?cid=0x0:0xbe20acc16e099ec5";""
"restaurant";"restaurant";"Rumah makan wamsisi";"5P5Q+866, Jl. Kabupaten, Labuang, Kec. Namrole, Kabupaten Buru Selatan, Maluku";"Kabupaten Buru Selatan, Maluku";"MALUKU";"";"Indonesia";"";"";"";"-3.8417248";"126.7380305";"https://maps.google.com/?cid=0x0:0x4944e8d3e4c0a1bd";""
"restaurant";"Martabak";"MARTABAKSA";"96CC+G3G, Waiheru, Kec. Baguala, Kota Ambon, Maluku";"Kota Ambon, Maluku";"MALUKU";"";"Indonesia";"";"";"";"-3.6286798";"128.2201944";"https://maps.google.com/?cid=0x0:0x764d99c1aab60605";""
"restaurant";"Hidangan Laut";"Restaurant Sari Gurih Beach";"963M+565, Lateri, Kec. Baguala, Kota Ambon, Maluku";"Kota Ambon, Maluku";"MALUKU";"";"Indonesia";" 08119798598";"";"";"-3.6471037";"128.2330997";"https://maps.google.com/?cid=0x0:0x56400b7db74be6ae";""
"restaurant";"Toko bahan makanan";"Baileo Cafe dan Mini Market";"85XQ+GPQ, RT.Udang/RW.1, Tihu, Kec. Tlk. Ambon, Kota Ambon, Maluku";"Kota Ambon, Maluku";"MALUKU";"";"Indonesia";"";"";"";"-3.65115";"128.1893691";"https://maps.google.com/?cid=0x0:0xdc658a57e949c2be";""
"restaurant";"Kafe";"Oemah Cafe";"952V+24F, Poka, Kec. Baguala, Kota Ambon, Maluku 97233";"Poka, Kec. Baguala, Kota Ambon";"MALUKU";"97233";"Indonesia";"";"";"";"-3.6499294";"128.1927815";"https://maps.google.com/?cid=0x0:0xc9c73965b7b494f5";""
"restaurant";"Restoran";"Dapoer Jumbo Ambon";"Depan Apotek Natsepa, Jl. Said Perintah SK10/2, Kota Ambon, Maluku 97126";"Jl. Said Perintah SK10/2, Kota Ambon";"MALUKU";"97126";"Indonesia";" 085254669998";"";"";"-3.6974227";"128.1815171";"https://maps.google.com/?cid=0x0:0x8486f0204bef50c7";""
"restaurant";"Jepang";"Ta wan - Maluku City Mall";"Jl. Jenderal Sudirman No.1 Lt. UG, Hative Kecil, Tantui - Ambon, Kota Ambon, Maluku 97128";"Hative Kecil, Tantui - Ambon, Kota Ambon";"MALUKU";"97128";"Indonesia";"";"";"";"-3.6722194";"128.1981035";"https://maps.google.com/?cid=0x0:0x3ccda67bed1be027";""
"restaurant";"restaurant";"Resto New CW";"JXFQ+C6Q, Jl. Raya mako, Waenetat, Kec. Waeapo, Kabupaten Buru, Maluku";"Kabupaten Buru, Maluku";"MALUKU";"";"Indonesia";"";"";"";"-3.3764047";"126.9880965";"https://maps.google.com/?cid=0x0:0x6a06b676316d92b";""
"restaurant";"Betawi";"Dapur Fizzul - Rumah Makan Khas Maluku Jakarta No.1 Halal di Dunia";"Food Court Depan Grha Essi, Jl. Raya Ceger No.5, RT.5/RW.1, Ceger, Kec. Cipayung, Kota Jakarta Timur, Daerah Khusus Ibukota Jakarta 13820";"Jl. Raya Ceger No.5, RT.5/RW.1, Ceger, Kec. Cipayung, Kota Jakarta Timur";"MALUKU";"13820";"Indonesia";" 082131529069";"";"";"-6.307207";"106.8886462";"https://maps.google.com/?cid=0x0:0xb39e6e8a1a4f4d03";""
"restaurant";"Komplek perumahan";"Rumah bung seul";"55FH+28J ulima, desa, Pulau, Kec. Ambalau, Kabupaten Buru Selatan, Maluku";"Kabupaten Buru Selatan, Maluku";"MALUKU";"";"Indonesia";" 082197975969";"";"";"-3.8274238";"127.1782587";"https://maps.google.com/?cid=0x0:0x79839d70ac51dbac";""
"restaurant";"restaurant";"Kec. Ambalau";"Kabupaten Buru Selatan, Maluku";"Kabupaten Buru Selatan, Maluku";"MALUKU";"";"Indonesia";"";"";"";"-3.8899285";"127.2026214";"https://maps.google.com/?cid=0x0:0x2312ee616bf35f0";""
"restaurant";"restaurant";"Pantai Leana.ambalau buru selatan";"36X6+MQQ, Masawoy, Kec. Ambalau, Kabupaten Buru Selatan, Maluku";"Kabupaten Buru Selatan, Maluku";"MALUKU";"";"Indonesia";"";"";"";"-3.9007847";"127.2119738";"https://maps.google.com/?cid=0x0:0x2f2dd99b8209a207";""
"restaurant";"restaurant";"Toko URB";"55FH+Q8Q, Ulima, Kec. Ambalau, Kabupaten Buru Selatan, Maluku";"Kabupaten Buru Selatan, Maluku";"MALUKU";"";"Indonesia";"";"";"";"-3.8255367";"127.1783671";"https://maps.google.com/?cid=0x0:0xe03b9952bc5ec66c";""
"restaurant";"restaurant";"Kalimantan Barat 78684";"Kabupaten Sintang, Kalimantan Barat";"Kabupaten Sintang, Kalimantan Barat";"MALUKU";"";"Indonesia";"";"";"";"-0.0687881";"112.9058802";"https://maps.google.com/?cid=0x0:0xc818bb777c60929";""
"restaurant";"restaurant";"RM.alloy";"VR66+V6F rumah makan alloy, kabupaten, Kec. Ambalau, Kabupaten Sintang, Kalimantan Barat 78684";"kabupaten, Kec. Ambalau, Kabupaten Sintang";"MALUKU";"78684";"Indonesia";" 082255181818";"";"";"-0.1378068";"112.8105512";"https://maps.google.com/?cid=0x0:0x7a23e313a3442bd4";""
"restaurant";"Toko";"ARSENIO lanting nanga kemangai";"QP46+4G8, Unnamed Road, Nanga Kemangai, Kec. Ambalau, Kabupaten Sintang, Kalimantan Barat 78684";"Unnamed Road, Nanga Kemangai, Kec. Ambalau, Kabupaten Sintang";"MALUKU";"78684";"Indonesia";" 082251738100";"";"";"-0.2447244";"112.71134";"https://maps.google.com/?cid=0x0:0x99c21199bf932dc7";""
"restaurant";"Padang";"RM. Pendi Tepuai";"98F6+79R, Nanga Tepuai, Kec. Hulu Gurung, Kabupaten Kapuas Hulu, Kalimantan Barat 78764";"Nanga Tepuai, Kec. Hulu Gurung, Kabupaten Kapuas Hulu";"MALUKU";"78764";"Indonesia";"";"";"";"0.3732328";"112.3109026";"https://maps.google.com/?cid=0x0:0x9b0d1511745d27e9";""
"restaurant";"Perhimpunan Pengembang Perumahan";"Lohpo Tambun";"QP37+V23, Unnamed Road, Nanga Kemangai, Kec. Ambalau, Kabupaten Sintang, Kalimantan Barat 78684";"Unnamed Road, Nanga Kemangai, Kec. Ambalau, Kabupaten Sintang";"MALUKU";"78684";"Indonesia";" 082150467237";"";"";"-0.2453748";"112.7125587";"https://maps.google.com/?cid=0x0:0xea983aec6c5a20f3";""
"restaurant";"Brunch";"RM. Mulia Abadi";"GQWW+F94, Nanga Mentebah, Kec. Mentebah, Kabupaten Kapuas Hulu, Kalimantan Barat 78757";"Nanga Mentebah, Kec. Mentebah, Kabupaten Kapuas Hulu";"MALUKU";"78757";"Indonesia";" 081257100674";"";"";"0.546144";"112.7959672";"https://maps.google.com/?cid=0x0:0x1ebc2e90313718ab";""
"restaurant";"Sarapan";"RM. Mas Selamat";"GQ77+P66, Unnamed Road, Nanga Mentebah, Kec. Mentebah, Kabupaten Kapuas Hulu, Kalimantan Barat 78757";"Unnamed Road, Nanga Mentebah, Kec. Mentebah, Kabupaten Kapuas Hulu";"MALUKU";"78757";"Indonesia";"";"";"";"0.5142983";"112.7630007";"https://maps.google.com/?cid=0x0:0x64ebff9a24a38bf5";""
"restaurant";"restaurant";"Rumah Makan Padang Sintang";"VR66+V6F, Nanga Sakai, Kec. Ambalau, Kabupaten Sintang, Kalimantan Barat 78684";"Nanga Sakai, Kec. Ambalau, Kabupaten Sintang";"MALUKU";"78684";"Indonesia";" 089570712124";"";"";"-0.1378068";"112.8105512";"https://maps.google.com/?cid=0x0:0xbaa1536b6a352ee4";""
"restaurant";"restaurant";"Warung Bang Mus";"VR66+V6F, Nanga Sakai, Kec. Ambalau, Kabupaten Sintang, Kalimantan Barat 78684";"Nanga Sakai, Kec. Ambalau, Kabupaten Sintang";"MALUKU";"78684";"Indonesia";"";"";"";"-0.1378068";"112.8105512";"https://maps.google.com/?cid=0x0:0x23701a4f076ba844";""
"restaurant";"restaurant";"Nanga Keremoi";"XQHF+VMM, Jl Jungan Pohkung, Nanga Keremoi, Kec. Ambalau, Kabupaten Sintang, Kalimantan Barat 78684";"Jl Jungan Pohkung, Nanga Keremoi, Kec. Ambalau, Kabupaten Sintang";"MALUKU";"78684";"Indonesia";"";"";"";"-0.0202889";"112.7741788";"https://maps.google.com/?cid=0x0:0xb38cd5a10d1ab732";""
"restaurant";"Komplek perumahan";"Rumah bung seul";"55FH+28J ulima, desa, Pulau, Kec. Ambalau, Kabupaten Buru Selatan, Maluku";"Kabupaten Buru Selatan, Maluku";"MALUKU";"";"Indonesia";" 082197975969";"";"";"-3.8274238";"127.1782587";"https://maps.google.com/?cid=0x0:0x79839d70ac51dbac";""
"restaurant";"restaurant";"Kec. Ambalau";"Kabupaten Buru Selatan, Maluku";"Kabupaten Buru Selatan, Maluku";"MALUKU";"";"Indonesia";"";"";"";"-3.8899285";"127.2026214";"https://maps.google.com/?cid=0x0:0x2312ee616bf35f0";""
"restaurant";"restaurant";"Pantai Leana.ambalau buru selatan";"36X6+MQQ, Masawoy, Kec. Ambalau, Kabupaten Buru Selatan, Maluku";"Kabupaten Buru Selatan, Maluku";"MALUKU";"";"Indonesia";"";"";"";"-3.9007847";"127.2119738";"https://maps.google.com/?cid=0x0:0x2f2dd99b8209a207";""
"restaurant";"restaurant";"Toko URB";"55FH+Q8Q, Ulima, Kec. Ambalau, Kabupaten Buru Selatan, Maluku";"Kabupaten Buru Selatan, Maluku";"MALUKU";"";"Indonesia";"";"";"";"-3.8255367";"127.1783671";"https://maps.google.com/?cid=0x0:0xe03b9952bc5ec66c";""
"restaurant";"restaurant";"Moluccas Restaurant";"Jl. Natsepa No.36, Suli, Kec. Salahutu, Kabupaten Maluku Tengah, Maluku 97582";"Suli, Kec. Salahutu, Kabupaten Maluku Tengah";"MALUKU";"97582";"Indonesia";"";"";"";"-3.6228916";"128.2856889";"https://maps.google.com/?cid=0x0:0xb337eb8a08cdf9c7";""
"restaurant";"restaurant";"Kec. Kepala Madan";"Kabupaten Buru Selatan, Maluku";"Kabupaten Buru Selatan, Maluku";"MALUKU";"";"Indonesia";"";"";"";"-3.3690832";"126.0177493";"https://maps.google.com/?cid=0x0:0x991aa36425e0a2b0";""
"restaurant";"restaurant";"INATOTO";"Fogi, Kec. Kepala Madan, Kabupaten Buru Selatan, Maluku 97541";"Kec. Kepala Madan, Kabupaten Buru Selatan";"MALUKU";"97541";"Indonesia";" 085972901171";"";"";"-3.3690832";"126.0177493";"https://maps.google.com/?cid=0x0:0xd0dd27774909f0d9";""
"restaurant";"Bar";"la anwae";"RT 002, Nanali";"Kabupaten Buru Selatan, Maluku";"MALUKU";"";"Indonesia";"";"";"";"-3.2072951";"126.0175972";"https://maps.google.com/?cid=0x0:0xb980840712113423";""
"restaurant";"restaurant";"Leksula";"Kabupaten Buru Selatan, Maluku";"Kabupaten Buru Selatan, Maluku";"MALUKU";"";"Indonesia";"";"";"";"-3.5795592";"126.3064595";"https://maps.google.com/?cid=0x0:0xc3381880c2b002c0";""
"restaurant";"Sate";"Rm.khabita";"5P3P+C33, Labuang, Kec. Namrole, Kabupaten Buru Selatan, Maluku";"Kabupaten Buru Selatan, Maluku";"MALUKU";"";"Indonesia";" 082239964788";"";"";"-3.8464884";"126.735187";"https://maps.google.com/?cid=0x0:0xf5a0398fbce08604";""
"restaurant";"Nasi Goreng";"Warung Mama Eny";"Leksula, Kabupaten Buru Selatan, Maluku 97543";"Kabupaten Buru Selatan";"MALUKU";"97543";"Indonesia";" 081378346367";"";"";"-3.7785493";"126.5127654";"https://maps.google.com/?cid=0x0:0xdbd42e2f6d569705";""
"restaurant";"restaurant";"Liang";"7H53+QG, Liang, Leksula, Kabupaten Buru Selatan, Maluku";"Kabupaten Buru Selatan, Maluku";"MALUKU";"";"Indonesia";"";"";"";"-3.7404634";"126.5538509";"https://maps.google.com/?cid=0x0:0xb8583dace9483a15";""
"restaurant";"restaurant";"Leksula";"Leksula, Kabupaten Buru Selatan, Maluku";"Kabupaten Buru Selatan, Maluku";"MALUKU";"";"Indonesia";"";"";"";"-3.6848017";"126.5445805";"https://maps.google.com/?cid=0x0:0x2a3c85ee54c75adc";""
"restaurant";"Restoran";"Rumah Makan Fajrin";"JXFP+FW6, Waenetat, Kec. Waeapo, Kabupaten Buru, Maluku";"Kabupaten Buru, Maluku";"MALUKU";"";"Indonesia";"";"";"";"-3.3763476";"126.9872769";"https://maps.google.com/?cid=0x0:0xca8d77639c9f4a68";""
"restaurant";"Restoran";"Rumah Makan Padang Ayah Atas Mako";"JXFQ+F72, Jl. Gatot Subroto, Waenetat, Kec. Waeapo, Kabupaten Buru, Maluku";"Kabupaten Buru, Maluku";"MALUKU";"";"Indonesia";" 081321571933";"";"";"-3.3763629";"126.9881297";"https://maps.google.com/?cid=0x0:0xc78c54f81125fa1";""
"restaurant";"Brunch";"Kedai Apink";"JXMP+65H, JXMP+657WaenetatKec, Kec. Waeapo, Kabupaten Buru, Maluku";"Kabupaten Buru, Maluku";"MALUKU";"";"Indonesia";" 081228734366";"";"";"-3.3669293";"126.9854967";"https://maps.google.com/?cid=0x0:0xa918df4d07e74d82";""
"restaurant";"Brunch";"Rumah Makan Fajrin";"M2W8+MM5, Savanajaya, Kec. Waeapo, Kabupaten Buru, Maluku";"Kabupaten Buru, Maluku";"MALUKU";"";"Indonesia";" 081240232875";"";"";"-3.303364";"127.0167401";"https://maps.google.com/?cid=0x0:0xcf3913556b1d11ed";""
"restaurant";"restaurant";"Maluku";"";"Maluku";"MALUKU";"";"Indonesia";"";"";"";"-3.2384616";"130.1452734";"https://maps.google.com/?cid=0x0:0x5e30e8db04649a51";""
"restaurant";"Kafe";"Forganza Resto  Cafe";"Kelanit, Kec. Kei Kecil, Kabupaten Maluku Tenggara, Maluku";"Kabupaten Maluku Tenggara, Maluku";"MALUKU";"";"Indonesia";" 082231789845";"";"";"-5.6575049";"132.7029619";"https://maps.google.com/?cid=0x0:0x35e7e74d6d2279bc";""
"restaurant";"Kafe";"FIAN AMBONES Coffee";"Unnamed Road, Namlea, Kec. Namlea, Kabupaten Buru, Maluku";"Kabupaten Buru, Maluku";"MALUKU";"";"Indonesia";" 081248009308";"";"";"-3.2762626";"127.1028349";"https://maps.google.com/?cid=0x0:0x74de8834fab97800";""
"restaurant";"Brunch";"Farhan";"P493+662, Namlea, Kec. Namlea, Kabupaten Buru, Maluku";"Kabupaten Buru, Maluku";"MALUKU";"";"Indonesia";"";"";"";"-3.2818951";"127.1030117";"https://maps.google.com/?cid=0x0:0xc9c261229e70c016";""
"restaurant";"Restoran";"Wailela Cafe and Resto | Ambon";"Jl. Kampus, Rumah Tiga, Kec. Tlk. Ambon, Kota Ambon, Maluku";"Kota Ambon, Maluku";"MALUKU";"";"Indonesia";" 082399522113";"";"";"-3.6610624";"128.180609";"https://maps.google.com/?cid=0x0:0x3acbc85ce4ef2d6d";""
"restaurant";"Rumah Makan";"Rumah Makan Al Azz Family";"P4P3+M3G, Namlea, Kec. Namlea, Kabupaten Buru, Maluku";"Kabupaten Buru, Maluku";"MALUKU";"";"Indonesia";"";"";"";"-3.2633245";"127.1027016";"https://maps.google.com/?cid=0x0:0x528b829bca2e743a";""
"restaurant";"Kafe";"Dluku Cafee  Resort";"Jl. Ir . Mohammad Khosi, Waimital, Kec. Kairatu, Ambon, Maluku 97566";"Waimital, Kec. Kairatu, Ambon";"MALUKU";"97566";"Indonesia";" 081240221127";"";"";"-3.3135564";"128.3676982";"https://maps.google.com/?cid=0x0:0xd71b08a0e37ca59a";""
"restaurant";"Restoran";"Grand Fatmah MyResto";"Tabahawa, Moya, Kec. Ternate Tengah, Kota Ternate, Maluku Utara 97723";"Moya, Kec. Ternate Tengah, Kota Ternate";"MALUKU";"97723";"Indonesia";"";"";"";"0.800034";"127.3707126";"https://maps.google.com/?cid=0x0:0xfef5142eb63904c7";""
"restaurant";"Indonesia";"OLina caferesto";"97H4+2QG, Passo, Kec. Baguala, Kota Ambon, Maluku";"Kota Ambon, Maluku";"MALUKU";"";"Indonesia";" 082199231798";"";"";"-3.6225066";"128.2574029";"https://maps.google.com/?cid=0x0:0xb19ebc731e4d5590";""
"restaurant";"Indonesia";"Warung bakso,sarmento ifa,ar";"Jln propinsi desa waplau, Namlea, Waplau, Kabupaten Buru, Maluku 97572";"Namlea, Waplau, Kabupaten Buru";"MALUKU";"97572";"Indonesia";" 085243026205";"";"";"-3.1205731";"126.8824618";"https://maps.google.com/?cid=0x0:0x9c8b37da5756dbf5";""
"restaurant";"Betawi";"Dapur Fizzul - Rumah Makan Khas Maluku Jakarta No.1 Halal di Dunia";"Food Court Depan Grha Essi, Jl. Raya Ceger No.5, RT.5/RW.1, Ceger, Kec. Cipayung, Kota Jakarta Timur, Daerah Khusus Ibukota Jakarta 13820";"Jl. Raya Ceger No.5, RT.5/RW.1, Ceger, Kec. Cipayung, Kota Jakarta Timur";"MALUKU";"13820";"Indonesia";" 082131529069";"";"";"-6.307207";"106.8886462";"https://maps.google.com/?cid=0x0:0xb39e6e8a1a4f4d03";""
"restaurant";"Restoran";"Bukit Air Resto";"Jl. Babakan Encle, Sukaharja, Kec. Ciomas, Kabupaten Bogor, Jawa Barat 16610";"Sukaharja, Kec. Ciomas, Kabupaten Bogor";"MALUKU";"16610";"Indonesia";" 082226000439";"";"";"-6.6102505";"106.7420151";"https://maps.google.com/?cid=0x0:0x5f9feb16f43cba4d";""
"cafe";"Kafe";"Kafe ' LL";"5P5Q+23M, Jl. Kabupaten, Labuang, Kec. Namrole, Kabupaten Buru Selatan, Maluku";"Kabupaten Buru Selatan, Maluku";"MALUKU";"";"Indonesia";" 085244477781";"";"";"-3.842418";"126.737683";"https://maps.google.com/?cid=0x0:0xee253c96eb646544";""
"cafe";"Restoran";"Ulathaha Caffe and rest";"Jl. Baru, Elfule, Kec. Namrole, Kabupaten Buru Selatan, Maluku";"Kabupaten Buru Selatan, Maluku";"MALUKU";"";"Indonesia";" 081344043602";"";"";"-3.8416204";"126.7265298";"https://maps.google.com/?cid=0x0:0x137e54488fd3e418";""
"cafe";"cafe";"Kec. Namrole";"Kabupaten Buru Selatan, Maluku";"Kabupaten Buru Selatan, Maluku";"MALUKU";"";"Indonesia";"";"";"";"-3.8444685";"126.7353848";"https://maps.google.com/?cid=0x0:0xe0ed0a265027f75e";""
"cafe";"Kedai Kopi";"KEDAI FIKSU NAMROLE";"Kedai Fiksu, Elfule, Kec. Namrole, Kabupaten Buru Selatan, Maluku 97573";"Elfule, Kec. Namrole, Kabupaten Buru Selatan";"MALUKU";"97573";"Indonesia";" 082137777184";"";"";"-3.709484";"126.808877";"https://maps.google.com/?cid=0x0:0x1861b21130aa9654";""
"cafe";"Restoran";"Sop Buah Sulawesi";"5P4P+86F, Labuang, Kec. Namrole, Kabupaten Buru Selatan, Maluku";"Kabupaten Buru Selatan, Maluku";"MALUKU";"";"Indonesia";" 081241494007";"";"";"-3.8441772";"126.7355384";"https://maps.google.com/?cid=0x0:0x9da48b1f996de81f";""
"cafe";"Brunch";"Warung Anam";"Elfule, Kec. Namrole, Kabupaten Buru Selatan, Maluku";"Kabupaten Buru Selatan, Maluku";"MALUKU";"";"Indonesia";" 081291572738";"";"";"-3.8435901";"126.7322114";"https://maps.google.com/?cid=0x0:0xb0d10e8aace2624a";""
"cafe";"Kafe";"BUBBLE BOX";"Jl. Kabupaten, Labuang, Kec. Namrole, Kabupaten Buru Selatan, Maluku";"Kabupaten Buru Selatan, Maluku";"MALUKU";"";"Indonesia";"";"";"";"-3.8369418";"126.7400354";"https://maps.google.com/?cid=0x0:0xe574cfcdee6b4adf";""
"cafe";"Nasi";"Namrole, kabupaten buru Selatan";"7RC7+2P6, Labuang, Kec. Namrole, Kabupaten Buru Selatan, Maluku";"Kabupaten Buru Selatan, Maluku";"MALUKU";"";"Indonesia";"";"";"";"-3.7299502";"126.8142605";"https://maps.google.com/?cid=0x0:0x5f7ea9ea133113e5";""
"cafe";"Kafe";"Kopi ai";"5P7R+62P, Jl. Kabupaten, Labuang, Kec. Namrole, Kabupaten Buru Selatan, Maluku";"Kabupaten Buru Selatan, Maluku";"MALUKU";"";"Indonesia";"";"";"";"-3.836912";"126.7400891";"https://maps.google.com/?cid=0x0:0xb8a5b4d52d5cf9fd";""
"cafe";"Restoran";"Rumah Makan A.N. Namrole.";"5P6Q+MQ4, Jl. Kabupaten, Labuang, Kec. Namrole, Kabupaten Buru Selatan, Maluku";"Kabupaten Buru Selatan, Maluku";"MALUKU";"";"Indonesia";" 082299717177";"";"";"-3.838374";"126.739464";"https://maps.google.com/?cid=0x0:0xe9964e9d56424327";""
"cafe";"cafe";"Kedai Fiksi Namrole";"5P3F+9V, Elfule, Kabupaten Buru Selatan, Maluku";"Kabupaten Buru Selatan, Maluku";"MALUKU";"";"Indonesia";"";"";"";"-3.8465978";"126.7246472";"https://maps.google.com/?cid=0x0:0xa805bf41e03ded87";""
"cafe";"Kafe";"Lemtama namrole";"5P4P+656, Labuang, Kec. Namrole, Kabupaten Buru Selatan, Maluku";"Kabupaten Buru Selatan, Maluku";"MALUKU";"";"Indonesia";"";"";"";"-3.8444685";"126.7353848";"https://maps.google.com/?cid=0x0:0xc78eb14cf9d5c5ab";""
"cafe";"Brunch";"RM.MARENNU";"5P7Q+5XM, Jl. Kabupaten, Labuang, Kec. Namrole, Kabupaten Buru Selatan, Maluku";"Kabupaten Buru Selatan, Maluku";"MALUKU";"";"Indonesia";"";"";"";"-3.8370292";"126.7399309";"https://maps.google.com/?cid=0x0:0x77abbcbefb2f1111";""
"cafe";"Sate";"Warung Makan Jawa Timur";"5P4P+GRR, Labuang, Kec. Namrole, Kabupaten Buru Selatan, Maluku";"Kabupaten Buru Selatan, Maluku";"MALUKU";"";"Indonesia";"";"";"";"-3.8435433";"126.7366692";"https://maps.google.com/?cid=0x0:0x34a49688345eb93e";""
"cafe";"Brunch";"Rumah Makan Ayah Namrole";"5P6P+6X8, Labuang, Kec. Namrole, Kabupaten Buru Selatan, Maluku";"Kabupaten Buru Selatan, Maluku";"MALUKU";"";"Indonesia";"";"";"";"-3.8394567";"126.7374444";"https://maps.google.com/?cid=0x0:0xb108b32ef765709";""
"cafe";"Kedai Kopi";"Warkop nur hayati.f";"5Q98+3GX, Jl. Kabupaten, Wali, Kec. Namrole, Kabupaten Buru Selatan, Maluku";"Kabupaten Buru Selatan, Maluku";"MALUKU";"";"Indonesia";" 081282381779";"";"";"-3.8322671";"126.7663559";"https://maps.google.com/?cid=0x0:0x9f041af89203aea3";""
"cafe";"Nasi Goreng";"rumah makan dede nasi kuning nasi kelapa";"Elfule, Kec. Namrole, Kabupaten Buru Selatan, Maluku 97544";"Kec. Namrole, Kabupaten Buru Selatan";"MALUKU";"97544";"Indonesia";"";"";"";"-3.8453902";"126.725003";"https://maps.google.com/?cid=0x0:0xb52b8138aab01f6b";""
"cafe";"Kedai Kopi";"Kaki.5.Coffe";"Jalan Baru Wainono, Elfule, Kec. Namrole, Kabupaten Buru Selatan, Maluku";"Kabupaten Buru Selatan, Maluku";"MALUKU";"";"Indonesia";" 082197792941";"";"";"-3.8405625";"126.7301875";"https://maps.google.com/?cid=0x0:0x2f3fb85067e30544";""
"cafe";"Kafe";"Rumah bang Mudes";"5Q87+XQG, Wali, Kec. Namrole, Kabupaten Buru Selatan, Maluku";"Kabupaten Buru Selatan, Maluku";"MALUKU";"";"Indonesia";"";"";"";"-3.8325568";"126.764467";"https://maps.google.com/?cid=0x0:0x67242b2369ba3c14";""
"cafe";"Rumah Makan";"Rm. Dua Putri";"5P3M+F67, Jl. Kabupaten, Labuang, Kec. Namrole, Kabupaten Buru Selatan, Maluku";"Kabupaten Buru Selatan, Maluku";"MALUKU";"";"Indonesia";"";"";"";"-3.8463311";"126.7330398";"https://maps.google.com/?cid=0x0:0x8105b7351eb6249c";""
"cafe";"Restoran";"Warung Pangkep";"5P4P+32G, Labuang, Kec. Namrole, Kabupaten Buru Selatan, Maluku";"Kabupaten Buru Selatan, Maluku";"MALUKU";"";"Indonesia";" 082187314707";"";"";"-3.8448138";"126.7350733";"https://maps.google.com/?cid=0x0:0xbad199154f9985d3";""
"cafe";"Sate";"Rm.khabita";"5P3P+C33, Labuang, Kec. Namrole, Kabupaten Buru Selatan, Maluku";"Kabupaten Buru Selatan, Maluku";"MALUKU";"";"Indonesia";" 082239964788";"";"";"-3.8464884";"126.735187";"https://maps.google.com/?cid=0x0:0xf5a0398fbce08604";""
"cafe";"cafe";"Maluku";"";"Maluku";"MALUKU";"";"Indonesia";"";"";"";"-3.2384616";"130.1452734";"https://maps.google.com/?cid=0x0:0x5e30e8db04649a51";""
"cafe";"Kafe";"FIAN AMBONES Coffee";"Unnamed Road, Namlea, Kec. Namlea, Kabupaten Buru, Maluku";"Kabupaten Buru, Maluku";"MALUKU";"";"Indonesia";" 081248009308";"";"";"-3.2762626";"127.1028349";"https://maps.google.com/?cid=0x0:0x74de8834fab97800";""
"cafe";"Kedai Kopi";"Kaffe koffie Kesya";"JXRH+2R3, Unnamed Road, Waekasar, Kec. Waeapo, Kabupaten Buru, Maluku";"Kabupaten Buru, Maluku";"MALUKU";"";"Indonesia";"";"";"";"-3.3599885";"126.9795467";"https://maps.google.com/?cid=0x0:0xf352fdc1b90d144d";""
"cafe";"Restoran";"Wailela Cafe and Resto | Ambon";"Jl. Kampus, Rumah Tiga, Kec. Tlk. Ambon, Kota Ambon, Maluku";"Kota Ambon, Maluku";"MALUKU";"";"Indonesia";" 082399522113";"";"";"-3.6610624";"128.180609";"https://maps.google.com/?cid=0x0:0x3acbc85ce4ef2d6d";""
"cafe";"Kafe";"SEVENTEEN CAFE";"H284+XRM, Desa, Parbulu, Kec. Waeapo, Kabupaten Buru, Maluku";"Kabupaten Buru, Maluku";"MALUKU";"";"Indonesia";" 081247337829";"";"";"-3.432534";"127.0070591";"https://maps.google.com/?cid=0x0:0x74bbd5924ab48711";""
"cafe";"Brunch";"Faizza coffe";"Grandeng, Kec. Waeapo, Kabupaten Buru, Maluku";"Kabupaten Buru, Maluku";"MALUKU";"";"Indonesia";" 081247952084";"";"";"-3.4359682";"126.9225069";"https://maps.google.com/?cid=0x0:0x2f8785422b736ec";""
"cafe";"Kafe";"Kedai Medussa";"Tugu Tani, Namlea, Kec. Namlea, Kabupaten Buru, Maluku 97571";"Namlea, Kec. Namlea, Kabupaten Buru";"MALUKU";"97571";"Indonesia";" 081312326558";"";"";"-3.2585874";"127.0965538";"https://maps.google.com/?cid=0x0:0x6176a39707d21a51";""
"cafe";"Kedai Kopi";"Amvap NAMLEA";"P3JW+FC5, Namlea, Kec. Namlea, Kabupaten Buru, Maluku";"Kabupaten Buru, Maluku";"MALUKU";"";"Indonesia";"";"";"";"-3.2688509";"127.0960997";"https://maps.google.com/?cid=0x0:0xc2cee102fef215cb";""
"cafe";"Kafe";"Forganza Resto  Cafe";"Kelanit, Kec. Kei Kecil, Kabupaten Maluku Tenggara, Maluku";"Kabupaten Maluku Tenggara, Maluku";"MALUKU";"";"Indonesia";" 082231789845";"";"";"-5.6575049";"132.7029619";"https://maps.google.com/?cid=0x0:0x35e7e74d6d2279bc";""
"cafe";"Kafe";"Four Palms Cafe";"Jl. Raja, Halong, Baru Atas, Kota Ambon, Maluku";"Kota Ambon, Maluku";"MALUKU";"";"Indonesia";" 0811470599";"";"";"-3.6551658";"128.2342334";"https://maps.google.com/?cid=0x0:0x3116d9e359ad016b";""
"cafe";"Kedai Kopi";"Walang JO'S";"MW5F+689, Soahuku, Kec. Amahai, Kabupaten Maluku Tengah, Maluku";"Kabupaten Maluku Tengah, Maluku";"MALUKU";"";"Indonesia";" 085243280810";"";"";"-3.3419661";"128.923365";"https://maps.google.com/?cid=0x0:0x5ade168a91df07d3";""
"cafe";"Indonesia";"VOILA DESSERT  EATERY";"Jl. Jend. A Yani, Kel Batu Meja, Kec. Sirimau, Kota Ambon, Maluku 97125";"Kel Batu Meja, Kec. Sirimau, Kota Ambon";"MALUKU";"97125";"Indonesia";" 082229911005";"";"";"-3.69803";"128.185768";"https://maps.google.com/?cid=0x0:0x263c84f16d8e6461";""
"cafe";"Kafe";"D'jasmine";"PX28+544, Namaelo, Kec. Kota Masohi, Kabupaten Maluku Tengah, Maluku";"Kabupaten Maluku Tengah, Maluku";"MALUKU";"";"Indonesia";"";"";"";"-3.2998616";"128.9655154";"https://maps.google.com/?cid=0x0:0x4628584df1e9eec4";""
"cafe";"Brunch";"Warung Sahabat";"Savanajaya, Kec. Waeapo, Kabupaten Buru, Maluku";"Kabupaten Buru, Maluku";"MALUKU";"";"Indonesia";"";"";"";"-3.2991169";"127.0187604";"https://maps.google.com/?cid=0x0:0x687cf5eedf308bd3";""
"cafe";"Kafe";"Waimua Coffee";"WXQM+FFX, Falahu, Kec. Sanana, Kabupaten Kepulauan Sula, Maluku Utara";"Kabupaten Kepulauan Sula, Maluku Utara";"MALUKU";"";"Indonesia";"";"";"";"-2.0612653";"125.9837315";"https://maps.google.com/?cid=0x0:0x9e2d7fce3f5b893f";""
"cafe";"Kafe";"INFINITY CAFE  EATERY";"85CV+M7G, Pandan Kasturi, Kec. Sirimau, Kota Ambon, Maluku";"Kota Ambon, Maluku";"MALUKU";"";"Indonesia";" 081241568878";"";"";"-3.6783317";"128.1931931";"https://maps.google.com/?cid=0x0:0x619ec9a16acc810f";""
"cafe";"Indonesia";"OLina caferesto";"97H4+2QG, Passo, Kec. Baguala, Kota Ambon, Maluku";"Kota Ambon, Maluku";"MALUKU";"";"Indonesia";" 082199231798";"";"";"-3.6225066";"128.2574029";"https://maps.google.com/?cid=0x0:0xb19ebc731e4d5590";""
"cafe";"Kedai Kopi";"Jafa FoodCoffee";"Jl. Jend. Sudirman - Depan MCM (Lt.2 Alfamidi, Hative Kecil, Kec. Sirimau, Kota Ambon, Maluku 97129";"Hative Kecil, Kec. Sirimau, Kota Ambon";"MALUKU";"97129";"Indonesia";" 08114702456";"";"";"-3.6704963";"128.1992089";"https://maps.google.com/?cid=0x0:0xe55af1449944fec3";""
"cafe";"Bakso";"Marsawa Coffee dan Resto";"R6CR+GM2, Soa Sangaji, Kec. Kota Maba, Kabupaten Halmahera Timur, Maluku Utara";"Kabupaten Halmahera Timur, Maluku Utara";"MALUKU";"";"Indonesia";" 082214516528";"";"";"0.8212606";"128.2416349";"https://maps.google.com/?cid=0x0:0x88acde884b8e9fbf";""
"cafe";"Kedai Kopi";"Rumah bpk ake";"RPGH+J68, Waprea, Waplau, Kabupaten Buru, Maluku";"Kabupaten Buru, Maluku";"MALUKU";"";"Indonesia";"";"";"";"-3.1734613";"126.7280692";"https://maps.google.com/?cid=0x0:0xf6afb6e85c70fb38";""
"cafe";"Kafe";"Coffee88__";"Namlea, Kec. Namlea, Kabupaten Buru, Maluku";"Kabupaten Buru, Maluku";"MALUKU";"";"Indonesia";" 085254209464";"";"";"-3.2676599";"127.0950814";"https://maps.google.com/?cid=0x0:0x1bc59c4071bac8d6";""
"cafe";"Restoran";"RIJZEN CAFE  EATERY";"9792+JV8, Passo, Kec. Baguala, Kota Ambon, Maluku";"Kota Ambon, Maluku";"MALUKU";"";"Indonesia";" 08114722204";"";"";"-3.6309924";"128.2521755";"https://maps.google.com/?cid=0x0:0x7e5754a82fd98d7";""
"cafe";"Kedai Kopi";"PAKAPAKA COFFEE SHOP";"P3PR+VFP, Namlea, Kec. Namlea, Kabupaten Buru, Maluku";"Kabupaten Buru, Maluku";"MALUKU";"";"Indonesia";" 082198207194";"";"";"-3.2627789";"127.091217";"https://maps.google.com/?cid=0x0:0xbc04765a2ae0fca3";""
"cafe";"Kafe";"Oemah Cafe";"952V+24F, Poka, Kec. Baguala, Kota Ambon, Maluku 97233";"Poka, Kec. Baguala, Kota Ambon";"MALUKU";"97233";"Indonesia";"";"";"";"-3.6499294";"128.1927815";"https://maps.google.com/?cid=0x0:0xc9c73965b7b494f5";""
"cafe";"Kafe";"Cerita Senja Cafe";"85QG+72, Rumah Tiga, Kec. Tlk. Ambon, Kota Ambon, Maluku";"Kota Ambon, Maluku";"MALUKU";"";"Indonesia";"";"";"";"-3.6618372";"128.1749931";"https://maps.google.com/?cid=0x0:0xb7502dc88c359";""
"cafe";"Toko Roti Grosir";"MORIA COFFEE ADVENTURE CAFE";"Jl. Maribaya No.22, Lembang, Kec. Lembang, Kabupaten Bandung Barat, Jawa Barat 40391";"Lembang, Kec. Lembang, Kabupaten Bandung Barat";"MALUKU";"40391";"Indonesia";" 082121877049";"";"";"-6.8162078";"107.6262692";"https://maps.google.com/?cid=0x0:0x96e74350bcabcef";""
"cafe";"Restoran";"Ulathaha Caffe and rest";"Jl. Baru, Elfule, Kec. Namrole, Kabupaten Buru Selatan, Maluku";"Kabupaten Buru Selatan, Maluku";"MALUKU";"";"Indonesia";" 081344043602";"";"";"-3.8416204";"126.7265298";"https://maps.google.com/?cid=0x0:0x137e54488fd3e418";""
"cafe";"cafe";"Kec. Ambalau";"Kabupaten Buru Selatan, Maluku";"Kabupaten Buru Selatan, Maluku";"MALUKU";"";"Indonesia";"";"";"";"-3.8899285";"127.2026214";"https://maps.google.com/?cid=0x0:0x2312ee616bf35f0";""
"cafe";"Komplek perumahan";"Rumah bung seul";"55FH+28J ulima, desa, Pulau, Kec. Ambalau, Kabupaten Buru Selatan, Maluku";"Kabupaten Buru Selatan, Maluku";"MALUKU";"";"Indonesia";" 082197975969";"";"";"-3.8274238";"127.1782587";"https://maps.google.com/?cid=0x0:0x79839d70ac51dbac";""
"cafe";"cafe";"Pantai Leana.ambalau buru selatan";"36X6+MQQ, Masawoy, Kec. Ambalau, Kabupaten Buru Selatan, Maluku";"Kabupaten Buru Selatan, Maluku";"MALUKU";"";"Indonesia";"";"";"";"-3.9007847";"127.2119738";"https://maps.google.com/?cid=0x0:0x2f2dd99b8209a207";""
"cafe";"cafe";"Kalimantan Barat 78684";"Kabupaten Sintang, Kalimantan Barat";"Kabupaten Sintang, Kalimantan Barat";"MALUKU";"";"Indonesia";"";"";"";"-0.0687881";"112.9058802";"https://maps.google.com/?cid=0x0:0xc818bb777c60929";""
"cafe";"Kedai Kopi";"Exsy Caffe";"FPQ5+H83 Nanga Semangut, Temuyuk, Kec. Bunut Hulu, Kabupaten Kapuas Hulu, Kalimantan Barat 78762";"Temuyuk, Kec. Bunut Hulu, Kabupaten Kapuas Hulu";"MALUKU";"78762";"Indonesia";"";"";"";"0.4888988";"112.7082942";"https://maps.google.com/?cid=0x0:0x61c399bdd45a72ce";""
"cafe";"cafe";"Pak Along";"VR66+V6F, Nanga Sakai, Kec. Ambalau, Kabupaten Sintang, Kalimantan Barat";"Kabupaten Sintang, Kalimantan Barat";"MALUKU";"";"Indonesia";"";"";"";"-0.1378068";"112.8105512";"https://maps.google.com/?cid=0x0:0x411d40920c42083b";""
"cafe";"Toko";"ARSENIO lanting nanga kemangai";"QP46+4G8, Unnamed Road, Nanga Kemangai, Kec. Ambalau, Kabupaten Sintang, Kalimantan Barat 78684";"Unnamed Road, Nanga Kemangai, Kec. Ambalau, Kabupaten Sintang";"MALUKU";"78684";"Indonesia";" 082251738100";"";"";"-0.2447244";"112.71134";"https://maps.google.com/?cid=0x0:0x99c21199bf932dc7";""
"cafe";"cafe";"RM.alloy";"VR66+V6F rumah makan alloy, kabupaten, Kec. Ambalau, Kabupaten Sintang, Kalimantan Barat 78684";"kabupaten, Kec. Ambalau, Kabupaten Sintang";"MALUKU";"78684";"Indonesia";" 082255181818";"";"";"-0.1378068";"112.8105512";"https://maps.google.com/?cid=0x0:0x7a23e313a3442bd4";""
"cafe";"Kafe";"WB Coffee Studio";"979X+QVF, Nanga Tepuai, Kec. Hulu Gurung, Kabupaten Kapuas Hulu, Kalimantan Barat 78764";"Nanga Tepuai, Kec. Hulu Gurung, Kabupaten Kapuas Hulu";"MALUKU";"78764";"Indonesia";" 082251437219";"";"";"0.3694343";"112.2996724";"https://maps.google.com/?cid=0x0:0x6d0cab7f978eaaed";""
"cafe";"Kedai Kopi";"Kafe mungguk beranda";"FM85+4M6, Temuyuk, Kec. Bunut Hulu, Kabupaten Kapuas Hulu, Kalimantan Barat 78762";"Temuyuk, Kec. Bunut Hulu, Kabupaten Kapuas Hulu";"MALUKU";"78762";"Indonesia";"";"";"";"0.465283";"112.6591341";"https://maps.google.com/?cid=0x0:0xc19ceca81e96d31f";""
"cafe";"cafe";"One Kopi";"QP47+43M, Nanga Kemangai, Kec. Ambalau, Kabupaten Sintang, Kalimantan Barat";"Kabupaten Sintang, Kalimantan Barat";"MALUKU";"";"Indonesia";" 082139248636";"";"";"-0.2446707";"112.712675";"https://maps.google.com/?cid=0x0:0x6e6a3bbf98e5e0ab";""
"cafe";"Kafe";"CAFFE RIZKY MZ";"FPH3+64Q, Jl. Lintas Selatan Nanga Semangut, Temuyuk, Kec. Bunut Hulu, Kabupaten Kapuas Hulu, Kalimantan Barat 78762";"Jl. Lintas Selatan Nanga Semangut, Temuyuk, Kec. Bunut Hulu, Kabupaten Kapuas Hulu";"MALUKU";"78762";"Indonesia";" 085705946899";"";"";"0.478088";"112.7028665";"https://maps.google.com/?cid=0x0:0x5dffb767dae4f71e";""
"cafe";"Kafe";"AHZA CAFE";"98C5+9J4, Jl. Lintas Selatan, Nanga Tepuai, Kec. Hulu Gurung, Kabupaten Kapuas Hulu, Kalimantan Barat 78764";"Jl. Lintas Selatan, Nanga Tepuai, Kec. Hulu Gurung, Kabupaten Kapuas Hulu";"MALUKU";"78764";"Indonesia";"";"";"";"0.3708931";"112.3090737";"https://maps.google.com/?cid=0x0:0x89c238a7111553ad";""
"cafe";"Kedai Kopi";"Coffeeshop69";"9893+XC2, Nanga Tepuai, Kec. Hulu Gurung, Kabupaten Kapuas Hulu, Kalimantan Barat 78764";"Nanga Tepuai, Kec. Hulu Gurung, Kabupaten Kapuas Hulu";"MALUKU";"78764";"Indonesia";" 082157444789";"";"";"0.3698886";"112.303503";"https://maps.google.com/?cid=0x0:0x9075cc36e2e5df2c";""
"cafe";"Kedai Kopi";"Minimalis Cafe";"FPG3+C42, Jl. Lintas Selatan, Temuyuk, Kec. Bunut Hulu, Kabupaten Kapuas Hulu, Kalimantan Barat 78762";"Jl. Lintas Selatan, Temuyuk, Kec. Bunut Hulu, Kabupaten Kapuas Hulu";"MALUKU";"78762";"Indonesia";"";"";"";"0.476018";"112.7027592";"https://maps.google.com/?cid=0x0:0x7a21f3ac6c91188c";""
"cafe";"Kedai Kopi";"Naira Cafe";"Unnamed Road, Nanga Tepuai, Kec. Hulu Gurung, Kabupaten Kapuas Hulu, Kalimantan Barat 78764";"Nanga Tepuai, Kec. Hulu Gurung, Kabupaten Kapuas Hulu";"MALUKU";"78764";"Indonesia";"";"";"";"0.3679995";"112.3099128";"https://maps.google.com/?cid=0x0:0x3c51ca187b480db3";""
"cafe";"Kedai Kopi";"Salsabilla Cafe";"98C6+R98, Jl. Lintas Selatan, Nanga Semangut, Kec. Bunut Hulu, Kabupaten Kapuas Hulu, Kalimantan Barat 78764";"Jl. Lintas Selatan, Nanga Semangut, Kec. Bunut Hulu, Kabupaten Kapuas Hulu";"MALUKU";"78764";"Indonesia";" 085754707646";"";"";"0.3720376";"112.3109681";"https://maps.google.com/?cid=0x0:0x89fb18ce5e33b6a";""
"cafe";"Tujuan Wisata";"semangut";"7JVV+GFP, Nanga Semangut, Kec. Bunut Hulu, Kabupaten Kapuas Hulu, Kalimantan Barat";"Kabupaten Kapuas Hulu, Kalimantan Barat";"MALUKU";"";"Indonesia";"";"";"";"0.2938379";"112.6437026";"https://maps.google.com/?cid=0x0:0x3df0df344446315";""
"cafe";"cafe";"Kec. Ambalau";"Kabupaten Buru Selatan, Maluku";"Kabupaten Buru Selatan, Maluku";"MALUKU";"";"Indonesia";"";"";"";"-3.8899285";"127.2026214";"https://maps.google.com/?cid=0x0:0x2312ee616bf35f0";""
"cafe";"Komplek perumahan";"Rumah bung seul";"55FH+28J ulima, desa, Pulau, Kec. Ambalau, Kabupaten Buru Selatan, Maluku";"Kabupaten Buru Selatan, Maluku";"MALUKU";"";"Indonesia";" 082197975969";"";"";"-3.8274238";"127.1782587";"https://maps.google.com/?cid=0x0:0x79839d70ac51dbac";""
"cafe";"cafe";"Pantai Leana.ambalau buru selatan";"36X6+MQQ, Masawoy, Kec. Ambalau, Kabupaten Buru Selatan, Maluku";"Kabupaten Buru Selatan, Maluku";"MALUKU";"";"Indonesia";"";"";"";"-3.9007847";"127.2119738";"https://maps.google.com/?cid=0x0:0x2f2dd99b8209a207";""
"cafe";"cafe";"Kec. Kepala Madan";"Kabupaten Buru Selatan, Maluku";"Kabupaten Buru Selatan, Maluku";"MALUKU";"";"Indonesia";"";"";"";"-3.3690832";"126.0177493";"https://maps.google.com/?cid=0x0:0x991aa36425e0a2b0";""
"cafe";"cafe";"INATOTO";"Fogi, Kec. Kepala Madan, Kabupaten Buru Selatan, Maluku 97541";"Kec. Kepala Madan, Kabupaten Buru Selatan";"MALUKU";"97541";"Indonesia";" 085972901171";"";"";"-3.3690832";"126.0177493";"https://maps.google.com/?cid=0x0:0xd0dd27774909f0d9";""
"cafe";"Toko Internet";"Rayyan -wifi@net";"J22V+X2R, Waepandan, Kec. Kepala Madan, Kabupaten Buru Selatan, Maluku";"Kabupaten Buru Selatan, Maluku";"MALUKU";"";"Indonesia";"";"";"";"-3.3975646";"126.0425082";"https://maps.google.com/?cid=0x0:0xbce41483bb4ea9cf";""
"cafe";"Kafe";"Kedai Medussa";"Tugu Tani, Namlea, Kec. Namlea, Kabupaten Buru, Maluku 97571";"Namlea, Kec. Namlea, Kabupaten Buru";"MALUKU";"97571";"Indonesia";" 081312326558";"";"";"-3.2585874";"127.0965538";"https://maps.google.com/?cid=0x0:0x6176a39707d21a51";""
"cafe";"Kafe";"KEDAI MERAH PUTIH";"P3GX+6CW, Namlea, Kec. Namlea, Kabupaten Buru, Maluku";"Kabupaten Buru, Maluku";"MALUKU";"";"Indonesia";" 082196077068";"";"";"-3.2743857";"127.0985649";"https://maps.google.com/?cid=0x0:0x2401960c179519a4";""
"cafe";"Hidangan Laut";"Warung Makan Ikan bakar/Toko tingkat";"P39X+648, Jl. Bunga Cengkeh, Pulau, Kec. Namlea, Kabupaten Buru, Maluku";"Kabupaten Buru, Maluku";"MALUKU";"";"Indonesia";" 081343102258";"";"";"-3.2819574";"127.0978296";"https://maps.google.com/?cid=0x0:0x544c6530090885ec";""
"cafe";"Restoran";"De View Cafe  Resto Ternate";"Jl. Pertamina, Fitu, Kec. Ternate Sel., Kota Ternate, Maluku Utara 97718";"Fitu, Kec. Ternate Sel., Kota Ternate";"MALUKU";"97718";"Indonesia";"";"";"";"0.7581222";"127.3483413";"https://maps.google.com/?cid=0x0:0x5718f6e4eeed1ac4";""
"cafe";"cafe";"Kedai ASIA PASPUT";"Q283+4X7, Pasir Putih, Kec. Kepala Madan, Kabupaten Buru Selatan, Maluku";"Kabupaten Buru Selatan, Maluku";"MALUKU";"";"Indonesia";" 081296890406";"";"";"-3.2347048";"126.0049324";"https://maps.google.com/?cid=0x0:0x4cfb8003dec1934";""
"cafe";"Gereja";"EKLESIA.NET";"95RJ+2G, Waemulang, Kabupaten Buru Selatan, Maluku";"Kabupaten Buru Selatan, Maluku";"MALUKU";"";"Indonesia";"";"";"";"-3.609919";"126.181349";"https://maps.google.com/?cid=0x0:0x85b15abf782bba26";""
"cafe";"Rumah Makan";"KEDAI  CAFE A5";"P3VV+2V8, Namlea, Kec. Namlea, Kabupaten Buru, Maluku";"Kabupaten Buru, Maluku";"MALUKU";"";"Indonesia";" 082397074144";"";"";"-3.2574665";"127.0947126";"https://maps.google.com/?cid=0x0:0xe2c2d2d13128eee3";""
"cafe";"cafe";"Kedai ASIA";"Q283+5X7, Pasir Putih, Kabupaten Buru Selatan, Maluku";"Kabupaten Buru Selatan, Maluku";"MALUKU";"";"Indonesia";"";"";"";"-3.2345896";"126.0049197";"https://maps.google.com/?cid=0x0:0xdb9557cbb7163571";""
"cafe";"Kedai Kopi";"Kedai Mely";"Namlea, Kec. Namlea, Kabupaten Buru, Maluku 97571";"Kec. Namlea, Kabupaten Buru";"MALUKU";"97571";"Indonesia";" 082211156665";"";"";"-3.2749616";"127.1049369";"https://maps.google.com/?cid=0x0:0xe1c80a2c6016d0d4";""
"cafe";"Kafe";"CAFE NAMA";"Jl. H.M. Husnie Hentihu, Namlea, Kec. Namlea, Regency, Maluku";"Regency, Maluku";"MALUKU";"";"Indonesia";" 081233564569";"";"";"-3.2712";"127.107716";"https://maps.google.com/?cid=0x0:0xef58674e0ed124a9";""
"cafe";"Kafe";"Hallo Kopi";"Namlea, Kec. Namlea, Kabupaten Buru, Maluku";"Kabupaten Buru, Maluku";"MALUKU";"";"Indonesia";"";"";"";"-3.260268";"127.0931325";"https://maps.google.com/?cid=0x0:0x5cb50159c5f44be9";""
"cafe";"Kafe";"CAFFE KITA";"P3JW+8CJ, Unnamed Road, Namlea, Kec. Namlea, Kabupaten Buru, Maluku";"Kabupaten Buru, Maluku";"MALUKU";"";"Indonesia";" 081211118852";"";"";"-3.269161";"127.0960199";"https://maps.google.com/?cid=0x0:0xfd4fb772364ded72";""
"cafe";"Kafe";"Warkop Bento";"P4G3+4PW, Jl. Kampus Iqra Buru, Namlea, Kec. Namlea, Kabupaten Buru, Maluku";"Kabupaten Buru, Maluku";"MALUKU";"";"Indonesia";" 081240979102";"";"";"-3.2746297";"127.1043137";"https://maps.google.com/?cid=0x0:0x9d03de3dead5fdca";""
"cafe";"Kafe";"KEDAI LIRWANA";"P3WW+223, Unnamed Road, Namlea, Kec. Namlea, Kabupaten Buru, Maluku";"Kabupaten Buru, Maluku";"MALUKU";"";"Indonesia";" 082193356889";"";"";"-3.2549839";"127.0950499";"https://maps.google.com/?cid=0x0:0x5aa77ee6247c4fcd";""
"cafe";"Kafe";"Maharu Coffee";"Jl. Mardani Raya, RT.2/RW.5, Johar Baru, Kec. Johar Baru, Kota Jakarta Pusat, Daerah Khusus Ibukota Jakarta 10560";"RT.2/RW.5, Johar Baru, Kec. Johar Baru, Kota Jakarta Pusat";"MALUKU";"10560";"Indonesia";" 082125268885";"";"";"-6.1823431";"106.8617216";"https://maps.google.com/?cid=0x0:0xcbec4a1114b37096";""
"cafe";"cafe";"Leksula";"Kabupaten Buru Selatan, Maluku";"Kabupaten Buru Selatan, Maluku";"MALUKU";"";"Indonesia";"";"";"";"-3.5795592";"126.3064595";"https://maps.google.com/?cid=0x0:0xc3381880c2b002c0";""
"cafe";"Restoran";"Ulathaha Caffe and rest";"Jl. Baru, Elfule, Kec. Namrole, Kabupaten Buru Selatan, Maluku";"Kabupaten Buru Selatan, Maluku";"MALUKU";"";"Indonesia";" 081344043602";"";"";"-3.8416204";"126.7265298";"https://maps.google.com/?cid=0x0:0x137e54488fd3e418";""
"cafe";"Kafe";"Kafe ' LL";"5P5Q+23M, Jl. Kabupaten, Labuang, Kec. Namrole, Kabupaten Buru Selatan, Maluku";"Kabupaten Buru Selatan, Maluku";"MALUKU";"";"Indonesia";" 085244477781";"";"";"-3.842418";"126.737683";"https://maps.google.com/?cid=0x0:0xee253c96eb646544";""
"cafe";"Restoran";"Sop Buah Sulawesi";"5P4P+86F, Labuang, Kec. Namrole, Kabupaten Buru Selatan, Maluku";"Kabupaten Buru Selatan, Maluku";"MALUKU";"";"Indonesia";" 081241494007";"";"";"-3.8441772";"126.7355384";"https://maps.google.com/?cid=0x0:0x9da48b1f996de81f";""
"cafe";"Kafe";"KEDAI RAKDJAT 56";"Waegeren, Kec. Waeapo, Kabupaten Buru, Maluku";"Kabupaten Buru, Maluku";"MALUKU";"";"Indonesia";" 081299665383";"";"";"-3.4125389";"126.9281805";"https://maps.google.com/?cid=0x0:0x740dbb6b8164dd97";""
"cafe";"Kedai Kopi";"Blush Secret Cafe";"P3RQ+8C2, Jl. Bukit Permai BTN Tatanggo, Namlea, Kec. Namlea, Kabupaten Buru, Maluku";"Kabupaten Buru, Maluku";"MALUKU";"";"Indonesia";"";"";"";"-3.258678";"127.0885539";"https://maps.google.com/?cid=0x0:0xc0ce8ba96502d04a";""
"cafe";"Kafe";"BUBBLE BOX";"Jl. Kabupaten, Labuang, Kec. Namrole, Kabupaten Buru Selatan, Maluku";"Kabupaten Buru Selatan, Maluku";"MALUKU";"";"Indonesia";"";"";"";"-3.8369418";"126.7400354";"https://maps.google.com/?cid=0x0:0xe574cfcdee6b4adf";""
"cafe";"Kafe";"CAFFE KITA";"P3JW+8CJ, Unnamed Road, Namlea, Kec. Namlea, Kabupaten Buru, Maluku";"Kabupaten Buru, Maluku";"MALUKU";"";"Indonesia";" 081211118852";"";"";"-3.269161";"127.0960199";"https://maps.google.com/?cid=0x0:0xfd4fb772364ded72";""
"cafe";"cafe";"CK NAMROLE";"5P4P+656, Labuang, Kec. Namrole, Kabupaten Buru Selatan, Maluku";"Kabupaten Buru Selatan, Maluku";"MALUKU";"";"Indonesia";" 085161191616";"";"";"-3.8444685";"126.7353848";"https://maps.google.com/?cid=0x0:0x1a66510f1a8ff6bd";""
"cafe";"Nasi Goreng";"Warung Mama Eny";"Leksula, Kabupaten Buru Selatan, Maluku 97543";"Kabupaten Buru Selatan";"MALUKU";"97543";"Indonesia";" 081378346367";"";"";"-3.7785493";"126.5127654";"https://maps.google.com/?cid=0x0:0xdbd42e2f6d569705";""
"cafe";"cafe";"Kedai Fiksi Namrole";"5P3F+9V, Elfule, Kabupaten Buru Selatan, Maluku";"Kabupaten Buru Selatan, Maluku";"MALUKU";"";"Indonesia";"";"";"";"-3.8465978";"126.7246472";"https://maps.google.com/?cid=0x0:0xa805bf41e03ded87";""
"cafe";"Kafe";"Hallo Kopi";"Namlea, Kec. Namlea, Kabupaten Buru, Maluku";"Kabupaten Buru, Maluku";"MALUKU";"";"Indonesia";"";"";"";"-3.260268";"127.0931325";"https://maps.google.com/?cid=0x0:0x5cb50159c5f44be9";""
"cafe";"Kedai Kopi";"Kaki.5.Coffe";"Jalan Baru Wainono, Elfule, Kec. Namrole, Kabupaten Buru Selatan, Maluku";"Kabupaten Buru Selatan, Maluku";"MALUKU";"";"Indonesia";" 082197792941";"";"";"-3.8405625";"126.7301875";"https://maps.google.com/?cid=0x0:0x2f3fb85067e30544";""
"cafe";"Brunch";"Warung Anam";"Elfule, Kec. Namrole, Kabupaten Buru Selatan, Maluku";"Kabupaten Buru Selatan, Maluku";"MALUKU";"";"Indonesia";" 081291572738";"";"";"-3.8435901";"126.7322114";"https://maps.google.com/?cid=0x0:0xb0d10e8aace2624a";""
"cafe";"Kafe";"Dluku Cafee  Resort";"Jl. Ir . Mohammad Khosi, Waimital, Kec. Kairatu, Ambon, Maluku 97566";"Waimital, Kec. Kairatu, Ambon";"MALUKU";"97566";"Indonesia";" 081240221127";"";"";"-3.3135564";"128.3676982";"https://maps.google.com/?cid=0x0:0xd71b08a0e37ca59a";""
"cafe";"Kafe";"Kedai Medussa";"Tugu Tani, Namlea, Kec. Namlea, Kabupaten Buru, Maluku 97571";"Namlea, Kec. Namlea, Kabupaten Buru";"MALUKU";"97571";"Indonesia";" 081312326558";"";"";"-3.2585874";"127.0965538";"https://maps.google.com/?cid=0x0:0x6176a39707d21a51";""
"cafe";"Nasi";"New Kedai Chaisa";"5P4M+7X6, Unnamed Road, Labuang, Kec. Namrole, Kabupaten Buru Selatan, Maluku";"Kabupaten Buru Selatan, Maluku";"MALUKU";"";"Indonesia";" 085243777734";"";"";"-3.8443254";"126.7348842";"https://maps.google.com/?cid=0x0:0x7b8c7a8f5a6eef59";""
"cafe";"Rumah Makan";"Rm. Dua Putri";"5P3M+F67, Jl. Kabupaten, Labuang, Kec. Namrole, Kabupaten Buru Selatan, Maluku";"Kabupaten Buru Selatan, Maluku";"MALUKU";"";"Indonesia";"";"";"";"-3.8463311";"126.7330398";"https://maps.google.com/?cid=0x0:0x8105b7351eb6249c";""
"cafe";"Bar Karaoke";"Slita Family Karaoke";"P3WV+CW9, Namlea, Kec. Namlea, Kabupaten Buru, Maluku";"Kabupaten Buru, Maluku";"MALUKU";"";"Indonesia";" 082319086714";"";"";"-3.2539659";"127.0948445";"https://maps.google.com/?cid=0x0:0x8d829555207dee96";""
"cafe";"Sate";"Rm.khabita";"5P3P+C33, Labuang, Kec. Namrole, Kabupaten Buru Selatan, Maluku";"Kabupaten Buru Selatan, Maluku";"MALUKU";"";"Indonesia";" 082239964788";"";"";"-3.8464884";"126.735187";"https://maps.google.com/?cid=0x0:0xf5a0398fbce08604";""
"cafe";"Kafe";"De Ol One Cafe";"P4H5+J6Q, Namlea, Kec. Namlea, Kabupaten Buru, Maluku";"Kabupaten Buru, Maluku";"MALUKU";"";"Indonesia";"";"";"";"-3.2709152";"127.1080972";"https://maps.google.com/?cid=0x0:0x3679f3f5c127df23";""
"cafe";"Kedai Kopi";"Gallery Cafe";"P3GX+GQP, Namlea, Kec. Namlea, Kabupaten Buru, Maluku";"Kabupaten Buru, Maluku";"MALUKU";"";"Indonesia";"";"";"";"-3.2736511";"127.0994385";"https://maps.google.com/?cid=0x0:0x74e6249936b57e9";""
"cafe";"Kafe";"FIAN AMBONES Coffee";"Unnamed Road, Namlea, Kec. Namlea, Kabupaten Buru, Maluku";"Kabupaten Buru, Maluku";"MALUKU";"";"Indonesia";" 081248009308";"";"";"-3.2762626";"127.1028349";"https://maps.google.com/?cid=0x0:0x74de8834fab97800";""
"cafe";"Kafe";"Markas Cafe";"P3FX+2GM, Unnamed Road,, Namlea, Kec. Namlea, Kabupaten Buru, Maluku";"Kabupaten Buru, Maluku";"MALUKU";"";"Indonesia";" 085343458686";"";"";"-3.277402";"127.0987903";"https://maps.google.com/?cid=0x0:0x74fb510d1eb9e9eb";""
"cafe";"Kedai Kopi";"Nala Coffee  Eatery";"Jl. Raya Tengah No.5, RT.5/RW.12, Gedong, Kec. Ps. Rebo, Kota Jakarta Timur, Daerah Khusus Ibukota Jakarta 13760";"RT.5/RW.12, Gedong, Kec. Ps. Rebo, Kota Jakarta Timur";"MALUKU";"13760";"Indonesia";"";"";"";"-6.2967386";"106.8611854";"https://maps.google.com/?cid=0x0:0xf5944cf386e6a9ab";""
"cafe";"Kedai Kopi";"LEUKA COFFEE SHOP";"Jl. Rambutan 8 No.19-20, Depok Jaya, Kec. Pancoran Mas, Kota Depok, Jawa Barat 16436";"Depok Jaya, Kec. Pancoran Mas, Kota Depok";"MALUKU";"16436";"Indonesia";" 081288003112";"";"";"-6.3965131";"106.8103883";"https://maps.google.com/?cid=0x0:0x32a3f79e1acc8d36";""
"cafe";"Kedai Kopi";"Lekker Dan Kopi By Lekker Story";"Jl. Tanjung Duren Raya No.17B, RT.1/RW.6, Tj. Duren Sel., Kec. Grogol petamburan, Kota Jakarta Barat, Daerah Khusus Ibukota Jakarta 11470";"RT.1/RW.6, Tj. Duren Sel., Kec. Grogol petamburan, Kota Jakarta Barat";"MALUKU";"11470";"Indonesia";" 081211011071";"";"";"-6.1802556";"106.7835377";"https://maps.google.com/?cid=0x0:0x81cd59f09056c6bb";""
"cafe";"Masakan Asia";"Kafe Le Sole";"Jl. Sagan No.3, Terban, Kec. Gondokusuman, Kota Yogyakarta, Daerah Istimewa Yogyakarta 55223";"Terban, Kec. Gondokusuman, Kota Yogyakarta";"MALUKU";"55223";"Indonesia";"";"";"";"-7.7809278";"110.3775195";"https://maps.google.com/?cid=0x0:0xca5eb8c84393777c";""
"cafe";"Kedai Kopi";"Lekoh Coffee";"Jl. Sindang Sirna No.12, Gegerkalong, Kec. Sukasari, Kota Bandung, Jawa Barat 40153";"Gegerkalong, Kec. Sukasari, Kota Bandung";"MALUKU";"40153";"Indonesia";" 081111113889";"";"";"-6.8773846";"107.5938813";"https://maps.google.com/?cid=0x0:0x1925dd0c9cc6a5b4";""
"cafe";"cafe";"Maluku";"";"Maluku";"MALUKU";"";"Indonesia";"";"";"";"-3.2384616";"130.1452734";"https://maps.google.com/?cid=0x0:0x5e30e8db04649a51";""
"cafe";"Kafe";"FIAN AMBONES Coffee";"Unnamed Road, Namlea, Kec. Namlea, Kabupaten Buru, Maluku";"Kabupaten Buru, Maluku";"MALUKU";"";"Indonesia";" 081248009308";"";"";"-3.2762626";"127.1028349";"https://maps.google.com/?cid=0x0:0x74de8834fab97800";""
"cafe";"Kedai Kopi";"KEDAI FIKSU NAMROLE";"Kedai Fiksu, Elfule, Kec. Namrole, Kabupaten Buru Selatan, Maluku 97573";"Elfule, Kec. Namrole, Kabupaten Buru Selatan";"MALUKU";"97573";"Indonesia";" 082137777184";"";"";"-3.709484";"126.808877";"https://maps.google.com/?cid=0x0:0x1861b21130aa9654";""
"cafe";"Komplek perumahan";"FANAN CAFE";"66QC+WV5, Siwalima, Kec. Pulau-Pulau Aru, Kabupaten Kepulauan Aru, Maluku";"Kabupaten Kepulauan Aru, Maluku";"MALUKU";"";"Indonesia";"";"";"";"-5.7602278";"134.2222275";"https://maps.google.com/?cid=0x0:0x31c0c75b57ce8cf1";""
"cafe";"Kafe";"Coffee88__";"Namlea, Kec. Namlea, Kabupaten Buru, Maluku";"Kabupaten Buru, Maluku";"MALUKU";"";"Indonesia";" 085254209464";"";"";"-3.2676599";"127.0950814";"https://maps.google.com/?cid=0x0:0x1bc59c4071bac8d6";""
"cafe";"Kedai Kopi";"WIFI AFAN";"JW2G+HG3, Waegeren, Kec. Waeapo, Kabupaten Buru, Maluku";"Kabupaten Buru, Maluku";"MALUKU";"";"Indonesia";"";"";"";"-3.3986208";"126.9263038";"https://maps.google.com/?cid=0x0:0x38b605d13198d763";""
"cafe";"Kafe";"Forganza Resto  Cafe";"Kelanit, Kec. Kei Kecil, Kabupaten Maluku Tenggara, Maluku";"Kabupaten Maluku Tenggara, Maluku";"MALUKU";"";"Indonesia";" 082231789845";"";"";"-5.6575049";"132.7029619";"https://maps.google.com/?cid=0x0:0x35e7e74d6d2279bc";""
"cafe";"Brunch";"Faizza coffe";"Grandeng, Kec. Waeapo, Kabupaten Buru, Maluku";"Kabupaten Buru, Maluku";"MALUKU";"";"Indonesia";" 081247952084";"";"";"-3.4359682";"126.9225069";"https://maps.google.com/?cid=0x0:0x2f8785422b736ec";""
"cafe";"Kedai Kopi";"Jafa FoodCoffee";"Jl. Jend. Sudirman - Depan MCM (Lt.2 Alfamidi, Hative Kecil, Kec. Sirimau, Kota Ambon, Maluku 97129";"Hative Kecil, Kec. Sirimau, Kota Ambon";"MALUKU";"97129";"Indonesia";" 08114702456";"";"";"-3.6704963";"128.1992089";"https://maps.google.com/?cid=0x0:0xe55af1449944fec3";""
"cafe";"Kafe";"Ka’fena Cafe  Resto";"Jl. Soekarno, Sukur, Kec. Dimembe, Kabupaten Minahasa Utara, Sulawesi Utara 95371";"Sukur, Kec. Dimembe, Kabupaten Minahasa Utara";"MALUKU";"95371";"Indonesia";" 085398937256";"";"";"1.4655094";"124.9619849";"https://maps.google.com/?cid=0x0:0x34bd334bb7f248ff";""
"cafe";"Kafe";"KEDAI LIRWANA";"P3WW+223, Unnamed Road, Namlea, Kec. Namlea, Kabupaten Buru, Maluku";"Kabupaten Buru, Maluku";"MALUKU";"";"Indonesia";" 082193356889";"";"";"-3.2549839";"127.0950499";"https://maps.google.com/?cid=0x0:0x5aa77ee6247c4fcd";""
"cafe";"Toko";"Ajindy WFI";"Waegeren, Kec. Waeapo, Kabupaten Buru, Maluku";"Kabupaten Buru, Maluku";"MALUKU";"";"Indonesia";"";"";"";"-3.416197";"126.9202862";"https://maps.google.com/?cid=0x0:0x791ab7936611deca";""
"cafe";"Kafe";"Dluku Cafee  Resort";"Jl. Ir . Mohammad Khosi, Waimital, Kec. Kairatu, Ambon, Maluku 97566";"Waimital, Kec. Kairatu, Ambon";"MALUKU";"97566";"Indonesia";" 081240221127";"";"";"-3.3135564";"128.3676982";"https://maps.google.com/?cid=0x0:0xd71b08a0e37ca59a";""
"cafe";"Kafe";"INFINITY CAFE  EATERY";"85CV+M7G, Pandan Kasturi, Kec. Sirimau, Kota Ambon, Maluku";"Kota Ambon, Maluku";"MALUKU";"";"Indonesia";" 081241568878";"";"";"-3.6783317";"128.1931931";"https://maps.google.com/?cid=0x0:0x619ec9a16acc810f";""
"mall";"mall";"Kec. Namrole";"Kabupaten Buru Selatan, Maluku";"Kabupaten Buru Selatan, Maluku";"MALUKU";"";"Indonesia";"";"";"";"-3.8444685";"126.7353848";"https://maps.google.com/?cid=0x0:0xe0ed0a265027f75e";""
"mall";"Otoritas Pelabuhan";"Pasar Namrole";"KOPRASI BARASEHE 6 ROLE, Labuang, Kec. Namrole, Kabupaten Buru Selatan, Maluku";"Kabupaten Buru Selatan, Maluku";"MALUKU";"";"Indonesia";"";"";"";"-3.8397116";"126.7371249";"https://maps.google.com/?cid=0x0:0x1eacf00fd32fc390";""
"mall";"Kios";"Ais Mart";"5P24+F6J, Jl. Kabupaten, Lektama, Kec. Namrole, Kabupaten Buru Selatan, Maluku";"Kabupaten Buru Selatan, Maluku";"MALUKU";"";"Indonesia";"";"";"";"-3.8487945";"126.7055158";"https://maps.google.com/?cid=0x0:0xe8f7f8c407c8e47e";""
"mall";"Pusat Perbelanjaan";"Kios Buce Lamena";"5P3H+RFV, Elfule, Kec. Namrole, Kabupaten Buru Selatan, Maluku";"Kabupaten Buru Selatan, Maluku";"MALUKU";"";"Indonesia";"";"";"";"-3.8453935";"126.7286826";"https://maps.google.com/?cid=0x0:0x68bee01a00b9f37b";""
"mall";"Toko Fotokopi";"FOTO COPY 2 PUTRY";"KOPRASI BARASEHE 6 ROLE, Labuang, Kec. Namrole, Kabupaten Buru Selatan, Maluku";"Kabupaten Buru Selatan, Maluku";"MALUKU";"";"Indonesia";" 082238224834";"";"";"-3.8395384";"126.7369207";"https://maps.google.com/?cid=0x0:0x2e9be07520a59fd0";""
"mall";"Otoritas Pelabuhan";"Bandar Udara Namrole";"4PX3+58C, Lektama, Kec. Namrole, Kabupaten Buru Selatan, Maluku";"Kabupaten Buru Selatan, Maluku";"MALUKU";"";"Indonesia";"";"";"";"-3.8520745";"126.7032754";"https://maps.google.com/?cid=0x0:0x28f373d5acb0e146";""
"mall";"Toko";"Kios Rizki";"4PX3+MX9, Jl. Kabupaten, Lektama, Kec. Namrole, Kabupaten Buru Selatan, Maluku";"Kabupaten Buru Selatan, Maluku";"MALUKU";"";"Indonesia";"";"";"";"-3.8508462";"126.7049706";"https://maps.google.com/?cid=0x0:0x29683a323110ae85";""
"mall";"Toko";"SafiraShop";"5P26+GWJ, Fatmite, Kec. Namrole, Kabupaten Buru Selatan, Maluku";"Kabupaten Buru Selatan, Maluku";"MALUKU";"";"Indonesia";" 082248555229";"";"";"-3.8486678";"126.7122715";"https://maps.google.com/?cid=0x0:0x454756fb659b3543";""
"mall";"Toko";"Toko Wahyu";"5P5Q+XCP, Labuang, Kec. Namrole, Kabupaten Buru Selatan, Maluku";"Kabupaten Buru Selatan, Maluku";"MALUKU";"";"Indonesia";"";"";"";"-3.8400458";"126.7385796";"https://maps.google.com/?cid=0x0:0x77ab83c5c33fb1d6";""
"mall";"Toko Kosmetik";"Toko FL Namrole";"Jl. Kabupaten, Labuang, Kec. Namrole, Kabupaten Buru Selatan, Maluku";"Kabupaten Buru Selatan, Maluku";"MALUKU";"";"Indonesia";" 085215312093";"";"";"-3.8394032";"126.7395566";"https://maps.google.com/?cid=0x0:0xc2a94f2ee4a218c9";""
"mall";"Pusat Perbelanjaan";"Motoshop";"P3PR+W4M, Unnamed Road, Namlea, Kec. Namlea, Kabupaten Buru, Maluku";"Kabupaten Buru, Maluku";"MALUKU";"";"Indonesia";" 085242119912";"";"";"-3.2626723";"127.0902921";"https://maps.google.com/?cid=0x0:0xa52e9fe9f045b4ec";""
"mall";"Toko";"Kios Nelayan/perlengkapan Tni Polri Satpol Nabila";"5P3M+JPF, Labuang, Kec. Namrole, Kabupaten Buru Selatan, Maluku";"Kabupaten Buru Selatan, Maluku";"MALUKU";"";"Indonesia";" 081222337344";"";"";"-3.8459277";"126.7343045";"https://maps.google.com/?cid=0x0:0x4b3b902fdfe2b7a0";""
"mall";"Pedagang ternak";"Ayam potong sinar watolo";"Labuang, Kec. Namrole, Kabupaten Buru Selatan, Maluku";"Kabupaten Buru Selatan, Maluku";"MALUKU";"";"Indonesia";" 081337379560";"";"";"-3.8398117";"126.7389739";"https://maps.google.com/?cid=0x0:0x1f52bf12764b117c";""
"mall";"mall";"Toko LILI Namrole";"Jl.Dermaga, Labuang, Kec. Namrole, Kabupaten Buru Selatan, Maluku 97544";"Labuang, Kec. Namrole, Kabupaten Buru Selatan";"MALUKU";"97544";"Indonesia";" 081245187330";"";"";"-3.847959";"126.7355165";"https://maps.google.com/?cid=0x0:0x33a392c8f569bf5e";""
"mall";"mall";"Maluku";"";"Maluku";"MALUKU";"";"Indonesia";"";"";"";"-3.2384616";"130.1452734";"https://maps.google.com/?cid=0x0:0x5e30e8db04649a51";""
"mall";"Pusat Perbelanjaan";"Maluku City Mall (MCM)";"Jl. Jenderal Sudirman No.1, Hative Kecil, Kec. Sirimau, Kota Ambon, Maluku";"Kota Ambon, Maluku";"MALUKU";"";"Indonesia";" 0911352871";"";"";"-3.6702679";"128.1981163";"https://maps.google.com/?cid=0x0:0x2f29bf0afe09144e";""
"mall";"Toko Pakaian";"Pasar Wamlana";"WGGP+49V, Wamlana, Kec. Air Buaya, Kabupaten Buru, Maluku";"Kabupaten Buru, Maluku";"MALUKU";"";"Indonesia";" 082293819914";"";"";"-3.0746476";"126.5359102";"https://maps.google.com/?cid=0x0:0xfaa10ac6302faf10";""
"mall";"Toko";"Toko Wahyu";"5P5Q+XCP, Labuang, Kec. Namrole, Kabupaten Buru Selatan, Maluku";"Kabupaten Buru Selatan, Maluku";"MALUKU";"";"Indonesia";"";"";"";"-3.8400458";"126.7385796";"https://maps.google.com/?cid=0x0:0x77ab83c5c33fb1d6";""
"mall";"Toko";"Toko Cinta";"MM9W+P75, Waegeren, Kec. Waeapo, Kabupaten Buru, Maluku";"Kabupaten Buru, Maluku";"MALUKU";"";"Indonesia";" 081343244484";"";"";"-3.3307379";"126.6957216";"https://maps.google.com/?cid=0x0:0x7bbf2a5d3c91863c";""
"mall";"Tujuan Wisata";"Belut Raksasa Morea";"C8P9+3GF, Waai, Kec. Salahutu, Kabupaten Maluku Tengah, Maluku";"Kabupaten Maluku Tengah, Maluku";"MALUKU";"";"Indonesia";"";"";"";"-3.5648206";"128.3188058";"https://maps.google.com/?cid=0x0:0x169f30c553bf872a";""
"mall";"Toko Elektronik";"Tokoh Berkah Maimo";"5P4J+F34, Elfule, Kec. Namrole, Kabupaten Buru Selatan, Maluku";"Kabupaten Buru Selatan, Maluku";"MALUKU";"";"Indonesia";" 082197792938";"";"";"-3.843854";"126.7302011";"https://maps.google.com/?cid=0x0:0xcb3a6d4d15b6c7a";""
"mall";"Toko";"SafiraShop";"5P26+GWJ, Fatmite, Kec. Namrole, Kabupaten Buru Selatan, Maluku";"Kabupaten Buru Selatan, Maluku";"MALUKU";"";"Indonesia";" 082248555229";"";"";"-3.8486678";"126.7122715";"https://maps.google.com/?cid=0x0:0x454756fb659b3543";""
"mall";"mall";"Kec. Ambalau";"Kabupaten Buru Selatan, Maluku";"Kabupaten Buru Selatan, Maluku";"MALUKU";"";"Indonesia";"";"";"";"-3.8899285";"127.2026214";"https://maps.google.com/?cid=0x0:0x2312ee616bf35f0";""
"mall";"Toko";"Kios Alfi";"55C6+5G2, Jalan bembihu, kampung baru, Kec. Ambalau, Kabupaten Buru Selatan, Maluku";"Kabupaten Buru Selatan, Maluku";"MALUKU";"";"Indonesia";"";"";"";"-3.8296125";"127.1612656";"https://maps.google.com/?cid=0x0:0x3487722326e195f6";""
"mall";"Komplek perumahan";"Wailua, siwar";"455W+JP5, Pulau, Masawoy, Kec. Ambalau, Kabupaten Buru Selatan, Maluku";"Kabupaten Buru Selatan, Maluku";"MALUKU";"";"Indonesia";"";"";"";"-3.8914219";"127.1980256";"https://maps.google.com/?cid=0x0:0x7b905212fce0fad4";""
"mall";"Toko";"Toko Naupal";"C854+JX9, Bugang, Kec. Hulu Gurung, Kabupaten Kapuas Hulu, Kalimantan Barat 78764";"Bugang, Kec. Hulu Gurung, Kabupaten Kapuas Hulu";"MALUKU";"78764";"Indonesia";"";"";"";"0.4090322";"112.3074696";"https://maps.google.com/?cid=0x0:0x1cdf1dfce9aa4c2b";""
"mall";"mall";"Emie Salon";"VR66+V6F, Jl. Majapahit, kapuas kana, hulu, Kabupaten Sintang, Kalimantan Barat 78684";"Jl. Majapahit, kapuas kana, hulu, Kabupaten Sintang";"MALUKU";"78684";"Indonesia";"";"";"";"-0.1378067";"112.8105512";"https://maps.google.com/?cid=0x0:0xb5ecb9942e005f1d";""
"mall";"mall";""Warung Sembako" Jual Pulsa Data Dan Token"";"Sungai Jaung, Desa engkitan, Kabupaten Sintang, Kalimantan Barat";"Kabupaten Sintang, Kalimantan Barat";"MALUKU";"";"Indonesia";"";"";"";"-0.1378068";"112.8105512";"https://maps.google.com/?cid=0x0:0x9f76461eb3ea2449";""
"mall";"mall";"Kec. Ambalau";"Kabupaten Buru Selatan, Maluku";"Kabupaten Buru Selatan, Maluku";"MALUKU";"";"Indonesia";"";"";"";"-3.8899285";"127.2026214";"https://maps.google.com/?cid=0x0:0x2312ee616bf35f0";""
"mall";"Toko";"Kios Alfi";"55C6+5G2, Jalan bembihu, kampung baru, Kec. Ambalau, Kabupaten Buru Selatan, Maluku";"Kabupaten Buru Selatan, Maluku";"MALUKU";"";"Indonesia";"";"";"";"-3.8296125";"127.1612656";"https://maps.google.com/?cid=0x0:0x3487722326e195f6";""
"mall";"Komplek perumahan";"Wailua, siwar";"455W+JP5, Pulau, Masawoy, Kec. Ambalau, Kabupaten Buru Selatan, Maluku";"Kabupaten Buru Selatan, Maluku";"MALUKU";"";"Indonesia";"";"";"";"-3.8914219";"127.1980256";"https://maps.google.com/?cid=0x0:0x7b905212fce0fad4";""
"mall";"Perhimpunan Pengembang Perumahan";"Kantor desa kampung baru";"55C6+5G2, Jalan bembihu, Masawoy, Kec. Ambalau, Kabupaten Buru Selatan, Maluku";"Kabupaten Buru Selatan, Maluku";"MALUKU";"";"Indonesia";"";"";"";"-3.8293507";"127.1622486";"https://maps.google.com/?cid=0x0:0x6c5e5b5402d6fb43";""
"mall";"mall";"Kius satu putri lima putra";"M359+H25, Fogi, Kec. Kepala Madan, Kabupaten Buru Selatan, Maluku";"Kabupaten Buru Selatan, Maluku";"MALUKU";"";"Indonesia";"";"";"";"-3.3411123";"126.0675952";"https://maps.google.com/?cid=0x0:0x219d083a157fd72c";""
"mall";"Pusat Perbelanjaan";"Kios Buce Lamena";"5P3H+RFV, Elfule, Kec. Namrole, Kabupaten Buru Selatan, Maluku";"Kabupaten Buru Selatan, Maluku";"MALUKU";"";"Indonesia";"";"";"";"-3.8453935";"126.7286826";"https://maps.google.com/?cid=0x0:0x68bee01a00b9f37b";""
"mall";"mall";"Leksula";"Kabupaten Buru Selatan, Maluku";"Kabupaten Buru Selatan, Maluku";"MALUKU";"";"Indonesia";"";"";"";"-3.5795592";"126.3064595";"https://maps.google.com/?cid=0x0:0xc3381880c2b002c0";""
"mall";"Kios";"Ais Mart";"5P24+F6J, Jl. Kabupaten, Lektama, Kec. Namrole, Kabupaten Buru Selatan, Maluku";"Kabupaten Buru Selatan, Maluku";"MALUKU";"";"Indonesia";"";"";"";"-3.8487945";"126.7055158";"https://maps.google.com/?cid=0x0:0xe8f7f8c407c8e47e";""
"mall";"Toko";"Kios Rizki";"4PX3+MX9, Jl. Kabupaten, Lektama, Kec. Namrole, Kabupaten Buru Selatan, Maluku";"Kabupaten Buru Selatan, Maluku";"MALUKU";"";"Indonesia";"";"";"";"-3.8508462";"126.7049706";"https://maps.google.com/?cid=0x0:0x29683a323110ae85";""
"mall";"Toko Elektronik";"Tokoh Berkah Maimo";"5P4J+F34, Elfule, Kec. Namrole, Kabupaten Buru Selatan, Maluku";"Kabupaten Buru Selatan, Maluku";"MALUKU";"";"Indonesia";" 082197792938";"";"";"-3.843854";"126.7302011";"https://maps.google.com/?cid=0x0:0xcb3a6d4d15b6c7a";""
"mall";"Toko";"SafiraShop";"5P26+GWJ, Fatmite, Kec. Namrole, Kabupaten Buru Selatan, Maluku";"Kabupaten Buru Selatan, Maluku";"MALUKU";"";"Indonesia";" 082248555229";"";"";"-3.8486678";"126.7122715";"https://maps.google.com/?cid=0x0:0x454756fb659b3543";""
"mall";"Toko Fotokopi";"FOTO COPY 2 PUTRY";"KOPRASI BARASEHE 6 ROLE, Labuang, Kec. Namrole, Kabupaten Buru Selatan, Maluku";"Kabupaten Buru Selatan, Maluku";"MALUKU";"";"Indonesia";" 082238224834";"";"";"-3.8395384";"126.7369207";"https://maps.google.com/?cid=0x0:0x2e9be07520a59fd0";""
"mall";"Kios";"Kios Yus";"HQ46+P5R dusun 2, Lele, Kec. Waeapo, Kabupaten Buru, Maluku";"Kabupaten Buru, Maluku";"MALUKU";"";"Indonesia";"";"";"";"-3.4431376";"126.7604027";"https://maps.google.com/?cid=0x0:0xe6029a6b9465b708";""
"mall";"Toko";"Toko Wahyu";"5P5Q+XCP, Labuang, Kec. Namrole, Kabupaten Buru Selatan, Maluku";"Kabupaten Buru Selatan, Maluku";"MALUKU";"";"Indonesia";"";"";"";"-3.8400458";"126.7385796";"https://maps.google.com/?cid=0x0:0x77ab83c5c33fb1d6";""
"mall";"Pusat Perbelanjaan";"Gramedia Maluku City Mall";"Jalan Jenderal Sudirman. 1 Tantui Ambon UP Floor Blok UG No. 2, Jl. Jenderal Sudirman, Hative Kecil, Kec. Sirimau, Kota Ambon, Maluku 97128";"Jl. Jenderal Sudirman, Hative Kecil, Kec. Sirimau, Kota Ambon";"MALUKU";"97128";"Indonesia";" 081248557414";"";"";"-3.6703427";"128.1983406";"https://maps.google.com/?cid=0x0:0xe751f5e37fa0f5c3";""
"mall";"Toko";"Kios Nelayan/perlengkapan Tni Polri Satpol Nabila";"5P3M+JPF, Labuang, Kec. Namrole, Kabupaten Buru Selatan, Maluku";"Kabupaten Buru Selatan, Maluku";"MALUKU";"";"Indonesia";" 081222337344";"";"";"-3.8459277";"126.7343045";"https://maps.google.com/?cid=0x0:0x4b3b902fdfe2b7a0";""
"mall";"Pusat Perbelanjaan";"Grand Indonesia Shopping Town";"Jl. M.H. Thamrin No.1, Menteng, Kec. Menteng, Kota Jakarta Pusat, Daerah Khusus Ibukota Jakarta 10310";"Menteng, Kec. Menteng, Kota Jakarta Pusat";"MALUKU";"10310";"Indonesia";" 02123580001";"";"";"-6.1965848";"106.8224882";"https://maps.google.com/?cid=0x0:0xccfcc89b95aaf1ae";""
"mall";"Toko";"Toko Cinta";"MM9W+P75, Waegeren, Kec. Waeapo, Kabupaten Buru, Maluku";"Kabupaten Buru, Maluku";"MALUKU";"";"Indonesia";" 081343244484";"";"";"-3.3307379";"126.6957216";"https://maps.google.com/?cid=0x0:0x7bbf2a5d3c91863c";""
"mall";"Minimarket";"GOTA Supermarket";"8PXR+5C6, Kel. Ohoijang Watdek, Kec. Kei Kecil, Kabupaten Maluku Tenggara, Maluku";"Kabupaten Maluku Tenggara, Maluku";"MALUKU";"";"Indonesia";"";"";"";"-5.652084";"132.7410211";"https://maps.google.com/?cid=0x0:0xcce642eed6fb72d5";""
"mall";"Pusat Perbelanjaan";"Plaza Indonesia";"Jl. M.H. Thamrin No.Kav.28-30, Gondangdia, Kec. Menteng, Kota Jakarta Pusat, Daerah Khusus Ibukota Jakarta 10350";"Gondangdia, Kec. Menteng, Kota Jakarta Pusat";"MALUKU";"10350";"Indonesia";" 02129920000";"";"";"-6.1935977";"106.8219468";"https://maps.google.com/?cid=0x0:0x7d7fe17ad64a053f";""
"mall";"Pusat Perbelanjaan";"Mal SKA";"Jl. Soekarno - Hatta No.114, Delima, Kec. Tampan, Kota Pekanbaru, Riau 28292";"Delima, Kec. Tampan, Kota Pekanbaru";"MALUKU";"28292";"Indonesia";" 0761864000";"";"";"0.4989779";"101.419025";"https://maps.google.com/?cid=0x0:0xcb644449e8a62d2";""
"mall";"Toko";"Trans Studio Mall Makassar";"Jl. Metro Tj. Bunga, Maccini Sombala, Kec. Tamalate, Kota Makassar, Sulawesi Selatan 90224";"Maccini Sombala, Kec. Tamalate, Kota Makassar";"MALUKU";"90224";"Indonesia";" 04113604000";"";"";"-5.1592364";"119.3942716";"https://maps.google.com/?cid=0x0:0x902a3908c837d182";""
"mall";"Pusat Perbelanjaan";"Limketkai Center";"National Highway, Cagayan de Oro, 9000 Misamis Oriental, Filipina";"Cagayan de Oro, Misamis Oriental, Filipina";"MALUKU";"";"Indonesia";" +63888565226";"";"";"8.4815828";"124.6560603";"https://maps.google.com/?cid=0x0:0xa0bf5f4d72f3c4ac";""
"mall";"mall";"Maluku";"";"Maluku";"MALUKU";"";"Indonesia";"";"";"";"-3.2384616";"130.1452734";"https://maps.google.com/?cid=0x0:0x5e30e8db04649a51";""
"mall";"Pusat Perbelanjaan";"Maluku City Mall (MCM)";"Jl. Jenderal Sudirman No.1, Hative Kecil, Kec. Sirimau, Kota Ambon, Maluku";"Kota Ambon, Maluku";"MALUKU";"";"Indonesia";" 0911352871";"";"";"-3.6702679";"128.1981163";"https://maps.google.com/?cid=0x0:0x2f29bf0afe09144e";""
"mall";"Pusat Perbelanjaan";"Gramedia Maluku City Mall";"Jalan Jenderal Sudirman. 1 Tantui Ambon UP Floor Blok UG No. 2, Jl. Jenderal Sudirman, Hative Kecil, Kec. Sirimau, Kota Ambon, Maluku 97128";"Jl. Jenderal Sudirman, Hative Kecil, Kec. Sirimau, Kota Ambon";"MALUKU";"97128";"Indonesia";" 081248557414";"";"";"-3.6703427";"128.1983406";"https://maps.google.com/?cid=0x0:0xe751f5e37fa0f5c3";""
"supermarket";"supermarket";"Kec. Namrole";"Kabupaten Buru Selatan, Maluku";"Kabupaten Buru Selatan, Maluku";"MALUKU";"";"Indonesia";"";"";"";"-3.8444685";"126.7353848";"https://maps.google.com/?cid=0x0:0xe0ed0a265027f75e";""
"supermarket";"Toko";"Swalayan Green";"5P4M+8HM, Jl. Kabupaten, Elfule, Kec. Namrole, Kabupaten Buru Selatan, Maluku";"Kabupaten Buru Selatan, Maluku";"MALUKU";"";"Indonesia";"";"";"";"-3.8441514";"126.7339139";"https://maps.google.com/?cid=0x0:0xee9fc6a85768adb2";""
"supermarket";"Otoritas Pelabuhan";"Pasar Namrole";"KOPRASI BARASEHE 6 ROLE, Labuang, Kec. Namrole, Kabupaten Buru Selatan, Maluku";"Kabupaten Buru Selatan, Maluku";"MALUKU";"";"Indonesia";"";"";"";"-3.8397116";"126.7371249";"https://maps.google.com/?cid=0x0:0x1eacf00fd32fc390";""
"supermarket";"Kios";"Toko Min";"5P39+XJJ, Elfule, Kec. Namrole, Kabupaten Buru Selatan, Maluku";"Kabupaten Buru Selatan, Maluku";"MALUKU";"";"Indonesia";"";"";"";"-3.8455471";"126.7183809";"https://maps.google.com/?cid=0x0:0xa4358b59a338bc11";""
"supermarket";"Toko Kosmetik";"Toko FL Namrole";"Jl. Kabupaten, Labuang, Kec. Namrole, Kabupaten Buru Selatan, Maluku";"Kabupaten Buru Selatan, Maluku";"MALUKU";"";"Indonesia";" 085215312093";"";"";"-3.8394032";"126.7395566";"https://maps.google.com/?cid=0x0:0xc2a94f2ee4a218c9";""
"supermarket";"Otoritas Pelabuhan";"Bandar Udara Namrole";"4PX3+58C, Lektama, Kec. Namrole, Kabupaten Buru Selatan, Maluku";"Kabupaten Buru Selatan, Maluku";"MALUKU";"";"Indonesia";"";"";"";"-3.8520745";"126.7032754";"https://maps.google.com/?cid=0x0:0x28f373d5acb0e146";""
"supermarket";"Minimarket";"RM ILHAM";"5P7R+F9J, Labuang, Kec. Namrole, Kabupaten Buru Selatan, Maluku";"Kabupaten Buru Selatan, Maluku";"MALUKU";"";"Indonesia";"";"";"";"-3.8362921";"126.7409058";"https://maps.google.com/?cid=0x0:0xc4617bec1776ff2b";""
"supermarket";"Toko bahan makanan";"Warung sembako Rahmi";"7MFW+27X, Waenalut, Kec. Namrole, Kabupaten Buru Selatan, Maluku";"Kabupaten Buru Selatan, Maluku";"MALUKU";"";"Indonesia";"";"";"";"-3.7273972";"126.6957216";"https://maps.google.com/?cid=0x0:0xe9f1518e595d448b";""
"supermarket";"Toko Swalayan";"Ion Mart";"Jl. Dermaga, Namlea, Buru Regency, Maluku";"Kabupaten Buru, Maluku";"MALUKU";"";"Indonesia";"";"";"";"-3.260586";"127.093052";"https://maps.google.com/?cid=0x0:0x4ed12b24bcb1b6e6";""
"supermarket";"Toko Swalayan";"Toko LUWES";"JXGQ+XJ2, Waenetat, Kec. Waeapo, Kabupaten Buru, Maluku";"Kabupaten Buru, Maluku";"MALUKU";"";"Indonesia";"";"";"";"-3.3726043";"126.9890095";"https://maps.google.com/?cid=0x0:0x4be2520916b3af42";""
"supermarket";"supermarket";"Maluku";"";"Maluku";"MALUKU";"";"Indonesia";"";"";"";"-3.2384616";"130.1452734";"https://maps.google.com/?cid=0x0:0x5e30e8db04649a51";""
"supermarket";"Toko Swalayan";"PASAR RAKYAT WAEGEREN";"HWMF+XCP, Waegeren, Kec. Waeapo, Kabupaten Buru, Maluku";"Kabupaten Buru, Maluku";"MALUKU";"";"Indonesia";"";"";"";"-3.4150481";"126.9235766";"https://maps.google.com/?cid=0x0:0xd2b991fa71ef9c4f";""
"supermarket";"Toko bahan makanan";"Toko MBM";"JXFQ+PHC, Waenetat, Kec. Waeapo, Kabupaten Buru, Maluku";"Kabupaten Buru, Maluku";"MALUKU";"";"Indonesia";"";"";"";"-3.3756898";"126.9888839";"https://maps.google.com/?cid=0x0:0x9910771f937cd62c";""
"supermarket";"Toko bahan makanan";"Toko barokah";"HX62+9WX, Unnamed Road, Waeleman, Kec. Waelata, Kabupaten Buru, Maluku";"Kabupaten Buru, Maluku";"MALUKU";"";"Indonesia";"";"";"";"-3.4390232";"126.9523487";"https://maps.google.com/?cid=0x0:0xe00ccaf649aab2be";""
"supermarket";"Toko Swalayan";"Winkel Supermarket";"96FG+323, Waiheru, Kec. Baguala, Kota Ambon, Maluku";"Kota Ambon, Maluku";"MALUKU";"";"Indonesia";" 09113869351";"";"";"-3.6273656";"128.2250609";"https://maps.google.com/?cid=0x0:0xec37cd1cfdfa6412";""
"supermarket";"Toko";"TOKO ALL-FATIH MART";"HW5X+RGG, RT.014/RW.005, Dusun sidomulyo, Waelo, Kec. Waelata, Kabupaten Buru, Maluku";"Kabupaten Buru, Maluku";"MALUKU";"";"Indonesia";" 082211157715";"";"";"-3.4404278";"126.9488355";"https://maps.google.com/?cid=0x0:0xee15b8db7d0efe77";""
"supermarket";"Toko bahan makanan";"Toko Mawambunga";"278V+RQ7, Olilit, Tanimbar Sel., Kab. Kepulauan Tanimbar, Maluku";"Kab. Kepulauan Tanimbar, Maluku";"MALUKU";"";"Indonesia";"";"";"";"-7.9829599";"131.2944242";"https://maps.google.com/?cid=0x0:0xcc3b45e351ba860c";""
"supermarket";"Toko bahan makanan";"Pasar Waesala";"VW3C+VQF, Jl. Syaikh Khidhir Al-Mulkiy, Waesala, Kec. Huamual Belakang, Kabupaten Seram Bagian Barat, Maluku";"Kabupaten Seram Bagian Barat, Maluku";"MALUKU";"";"Indonesia";" 081343270030";"";"";"-3.1453243";"127.9219299";"https://maps.google.com/?cid=0x0:0xc4a33c95f4376a3f";""
"supermarket";"Toko";"Toko ANDA JAYA";"Q3GW+PM2, RT.: 04/RW.02, Lala, Kec. Namlea, Kabupaten Buru, Maluku";"Kabupaten Buru, Maluku";"MALUKU";"";"Indonesia";" 081240295495";"";"";"-3.2232391";"127.0966292";"https://maps.google.com/?cid=0x0:0xe6d3c3e94523603a";""
"supermarket";"Toko";"Swalayan Green";"5P4M+8HM, Jl. Kabupaten, Elfule, Kec. Namrole, Kabupaten Buru Selatan, Maluku";"Kabupaten Buru Selatan, Maluku";"MALUKU";"";"Indonesia";"";"";"";"-3.8441514";"126.7339139";"https://maps.google.com/?cid=0x0:0xee9fc6a85768adb2";""
"supermarket";"Toko";"Kios Berkah";"P4J3+8MR, Unnamed Road, Namlea, Kec. Namlea, Kabupaten Buru, Maluku";"Kabupaten Buru, Maluku";"MALUKU";"";"Indonesia";" 085255701616";"";"";"-3.2691297";"127.1041379";"https://maps.google.com/?cid=0x0:0xa4ad958c7fa36616";""
"supermarket";"Toko Swalayan";"Alfamidi Waenetat";"JXFP+9XF, Waenetat, Kec. Waeapo, Kabupaten Buru, Maluku";"Kabupaten Buru, Maluku";"MALUKU";"";"Indonesia";"";"";"";"-3.3765233";"126.9874516";"https://maps.google.com/?cid=0x0:0xfecff2e0df8c112a";""
"supermarket";"Hipermarket";"Hypermart Ambon City Center";"Desa, Passo, Kec. Baguala, Kota Ambon, Maluku";"Kota Ambon, Maluku";"MALUKU";"";"Indonesia";" 0911361739";"";"";"-3.6316235";"128.2496246";"https://maps.google.com/?cid=0x0:0xa5054eb80169380e";""
"supermarket";"Pusat Perbelanjaan";"Hypermart Maluku City Mall";"Jalan Jend. Sudirman, Hative Kecil, Kec. Sirimau, Kota Ambon, Maluku";"Kota Ambon, Maluku";"MALUKU";"";"Indonesia";" 0911319999";"";"";"-3.6702679";"128.1981163";"https://maps.google.com/?cid=0x0:0xf361af34b2474744";""
"supermarket";"Toko";"Toko Sembako Nanda";"HWP9+52W, Unnamed Road, Waegeren, Kec. Waeapo, Kabupaten Buru, Maluku";"Kabupaten Buru, Maluku";"MALUKU";"";"Indonesia";" 085244573287";"";"";"-3.4145101";"126.9175668";"https://maps.google.com/?cid=0x0:0x3f4d6a044f261ccd";""
"supermarket";"Toko";"Hotel  Mini Market Wangi Wangi";"PX26+7FH, Unnamed Road, Lesane, Kec. Kota Masohi, Kabupaten Maluku Tengah, Maluku 97511";"Unnamed Road, Lesane, Kec. Kota Masohi, Kabupaten Maluku Tengah";"MALUKU";"97511";"Indonesia";" 0914021831";"";"";"-3.2991529";"128.9618986";"https://maps.google.com/?cid=0x0:0x70b6cb752d4099a";""
"supermarket";"Toko";"Swalayan MARS";"MWRW+WGP, Namasina, Kec. Kota Masohi, Kabupaten Maluku Tengah, Maluku";"Kabupaten Maluku Tengah, Maluku";"MALUKU";"";"Indonesia";"";"";"";"-3.307696";"128.9463397";"https://maps.google.com/?cid=0x0:0x3664bdf979cc5505";""
"supermarket";"Minimarket";"Planet Mart";"PX25+5HG, Jl. Binaya, Namaelo, Kec. Kota Masohi, Kabupaten Maluku Tengah, Maluku";"Kabupaten Maluku Tengah, Maluku";"MALUKU";"";"Indonesia";"";"";"";"-3.2995726";"128.9589677";"https://maps.google.com/?cid=0x0:0x5512bb9edc8557f9";""
"supermarket";"Toko";"Toko mama Angga";"Desa waekose , kecamatan fenaliesela, Waspait, Namlea, Kabupaten Buru, Maluku 97575";"kecamatan fenaliesela, Waspait, Namlea, Kabupaten Buru";"MALUKU";"97575";"Indonesia";" 082197917121";"";"";"-3.0720958";"126.5956968";"https://maps.google.com/?cid=0x0:0x62664d55b2b16a5d";""
"supermarket";"Toko Swalayan";"Farmers Market Ambon";"Jl. Jenderal Sudirman No.88, Batu Merah, Kec. Sirimau, Kota Ambon, Maluku";"Kota Ambon, Maluku";"MALUKU";"";"Indonesia";" 082198207614";"";"";"-3.6787537";"128.1942125";"https://maps.google.com/?cid=0x0:0x55c49f3865f273f3";""
"supermarket";"Toko";"Toko zammi";"HWM9+HHC, Waegeren, Kec. Waeapo, Kabupaten Buru, Maluku";"Kabupaten Buru, Maluku";"MALUKU";"";"Indonesia";"";"";"";"-3.4158476";"126.919443";"https://maps.google.com/?cid=0x0:0x7cc2a55e01a690e9";""
"supermarket";"Toko";"Kios bp moksen";"5596+HJ, kampung baru, Kec. Ambalau, Kabupaten Buru Selatan, Maluku";"Kabupaten Buru Selatan, Maluku";"MALUKU";"";"Indonesia";"";"";"";"-3.8310295";"127.1615146";"https://maps.google.com/?cid=0x0:0x97de434cc985a61b";""
"supermarket";"Toko";"Kios Mkss Surya";"55CH+W3M Kios Surya, Masawoy, Kec. Ambalau, Kabupaten Buru Selatan, Maluku";"Kabupaten Buru Selatan, Maluku";"MALUKU";"";"Indonesia";" 082229369627";"";"";"-3.8276614";"127.1776774";"https://maps.google.com/?cid=0x0:0xc57b0bcbf6933736";""
"supermarket";"supermarket";"Kalimantan Barat 78684";"Kabupaten Sintang, Kalimantan Barat";"Kabupaten Sintang, Kalimantan Barat";"MALUKU";"";"Indonesia";"";"";"";"-0.0687881";"112.9058802";"https://maps.google.com/?cid=0x0:0xc818bb777c60929";""
"supermarket";"Toko Elektronik";"Las lala";"2MX6+P2, Tj. Andan, Kec. Ambalau, Kabupaten Sintang, Kalimantan Barat";"Kabupaten Sintang, Kalimantan Barat";"MALUKU";"";"Indonesia";"";"";"";"0.049293";"112.6600591";"https://maps.google.com/?cid=0x0:0xd62a3e351c48950a";""
"supermarket";"Toko Swalayan";"Warung emak saye";"VR66+V6F, Nanga Sakai, Kec. Ambalau, Kabupaten Sintang, Kalimantan Barat";"Kabupaten Sintang, Kalimantan Barat";"MALUKU";"";"Indonesia";"";"";"";"-0.1378068";"112.8105512";"https://maps.google.com/?cid=0x0:0xb3bd0ae992a53d23";""
"supermarket";"Toko Swalayan";"Toko RIYANES JAYA";"QP36+RVC, Nanga Kemangai, Kec. Ambalau, Kabupaten Sintang, Kalimantan Barat";"Kabupaten Sintang, Kalimantan Barat";"MALUKU";"";"Indonesia";"";"";"";"-0.2450117";"112.7123904";"https://maps.google.com/?cid=0x0:0x24618f977f346dde";""
"supermarket";"Toko";"Kios bp moksen";"5596+HJ, kampung baru, Kec. Ambalau, Kabupaten Buru Selatan, Maluku";"Kabupaten Buru Selatan, Maluku";"MALUKU";"";"Indonesia";"";"";"";"-3.8310295";"127.1615146";"https://maps.google.com/?cid=0x0:0x97de434cc985a61b";""
"supermarket";"Toko";"Kios Mkss Surya";"55CH+W3M Kios Surya, Masawoy, Kec. Ambalau, Kabupaten Buru Selatan, Maluku";"Kabupaten Buru Selatan, Maluku";"MALUKU";"";"Indonesia";" 082229369627";"";"";"-3.8276614";"127.1776774";"https://maps.google.com/?cid=0x0:0xc57b0bcbf6933736";""
"supermarket";"Toko umum";"ABE GROSIR 2";"RC7R+QX2, Jl. Raya Parahu, Parahu, Kec. Sukamulya, Kabupaten Tangerang, Banten 15610";"Jl. Raya Parahu, Parahu, Kec. Sukamulya, Kabupaten Tangerang";"MALUKU";"15610";"Indonesia";" 085333200089";"";"";"-6.1856208";"106.4424011";"https://maps.google.com/?cid=0x0:0x2eb31fcfc3554f88";""
"supermarket";"supermarket";"Kec. Kepala Madan";"Kabupaten Buru Selatan, Maluku";"Kabupaten Buru Selatan, Maluku";"MALUKU";"";"Indonesia";"";"";"";"-3.3690832";"126.0177493";"https://maps.google.com/?cid=0x0:0x991aa36425e0a2b0";""
"supermarket";"Toko bahan makanan";"Alfamidi Tatanggo";"BTN bukit permai, Namlea, Kec. Namlea, Kabupaten Buru, Maluku 97571";"Namlea, Kec. Namlea, Kabupaten Buru";"MALUKU";"97571";"Indonesia";"";"";"";"-3.2575436";"127.0879608";"https://maps.google.com/?cid=0x0:0xaa769af3068df90";""
"supermarket";"Toko";"Toko ANDA JAYA";"Q3GW+PM2, RT.: 04/RW.02, Lala, Kec. Namlea, Kabupaten Buru, Maluku";"Kabupaten Buru, Maluku";"MALUKU";"";"Indonesia";" 081240295495";"";"";"-3.2232391";"127.0966292";"https://maps.google.com/?cid=0x0:0xe6d3c3e94523603a";""
"supermarket";"Toko Swalayan";"Toko bude Sri";"GW8F+937, Waetina, Pulau, Kabupaten Buru, Maluku";"Kabupaten Buru, Maluku";"MALUKU";"";"Indonesia";"";"";"";"-3.4840996";"126.9226593";"https://maps.google.com/?cid=0x0:0xadc6113b0c4b5117";""
"supermarket";"Toko bahan makanan";"Toko MBM";"JXFQ+PHC, Waenetat, Kec. Waeapo, Kabupaten Buru, Maluku";"Kabupaten Buru, Maluku";"MALUKU";"";"Indonesia";"";"";"";"-3.3756898";"126.9888839";"https://maps.google.com/?cid=0x0:0x9910771f937cd62c";""
"supermarket";"Toko bahan makanan";"Alfamidi Pendidikan";"P3MX+44P, Jl. Pendidikan, Namlea, Kec. Namlea, Kabupaten Buru, Maluku";"Kabupaten Buru, Maluku";"MALUKU";"";"Indonesia";"";"";"";"-3.2695843";"127.1042194";"https://maps.google.com/?cid=0x0:0xb245e569b26eda14";""
"supermarket";"Minimarket";"Alfamidi";"P3GX+PMW, Namlea, Kec. Namlea, Kabupaten Buru, Maluku";"Kabupaten Buru, Maluku";"MALUKU";"";"Indonesia";"";"";"";"-3.2731328";"127.0992178";"https://maps.google.com/?cid=0x0:0xc562b327210e740b";""
"supermarket";"Toko";"City Mart";"P3JX+J48, Jl. Jenderal Ahmad Yani, Namlea, Kec. Namlea, Kabupaten Buru, Maluku";"Kabupaten Buru, Maluku";"MALUKU";"";"Indonesia";"";"";"";"-3.2684582";"127.0978186";"https://maps.google.com/?cid=0x0:0x44944d7152b21c2d";""
"supermarket";"Toko";"Toko NN";"P4C7+HFC, Namlea, Kec. Namlea, Kabupaten Buru, Maluku";"Kabupaten Buru, Maluku";"MALUKU";"";"Indonesia";" 082233591649";"";"";"-3.278553";"127.1136343";"https://maps.google.com/?cid=0x0:0x200c3be881ec362e";""
"supermarket";"Toko";"Kios aqsan";"V7RM+3CQ, Tj. Karang, Kec. Air Buaya, Kabupaten Buru, Maluku";"Kabupaten Buru, Maluku";"MALUKU";"";"Indonesia";"";"";"";"-3.1097936";"126.283612";"https://maps.google.com/?cid=0x0:0xc8677e52147bb85f";""
"supermarket";"supermarket";"Kios Naya";"J22R+PC6, Waepandan, Kec. Kepala Madan, Kabupaten Buru Selatan, Maluku";"Kabupaten Buru Selatan, Maluku";"MALUKU";"";"Indonesia";"";"";"";"-3.3982235";"126.0410002";"https://maps.google.com/?cid=0x0:0x7be753f32da8e631";""
"supermarket";"supermarket";"Kios Ayu";"J22R+V96, Waepandan, Kec. Kepala Madan, Kabupaten Buru Selatan, Maluku";"Kabupaten Buru Selatan, Maluku";"MALUKU";"";"Indonesia";"";"";"";"-3.3978261";"126.0408845";"https://maps.google.com/?cid=0x0:0xe633cbaf508b0cad";""
"supermarket";"supermarket";"KIOS FATHAN";"J22R+Q9W, Waepandan, Kec. Kepala Madan, Kabupaten Buru Selatan, Maluku";"Kabupaten Buru Selatan, Maluku";"MALUKU";"";"Indonesia";"";"";"";"-3.3980102";"126.0409434";"https://maps.google.com/?cid=0x0:0x5cbeafe4decea18";""
"supermarket";"Kantor Pemerintah";"Pasar Leksula";"6GC6+GHX, Leksula, Kabupaten Buru Selatan, Maluku";"Kabupaten Buru Selatan, Maluku";"MALUKU";"";"Indonesia";"";"";"";"-3.7786328";"126.5114877";"https://maps.google.com/?cid=0x0:0x451abc9b7663f06f";""
"supermarket";"supermarket";"Leksula";"Kabupaten Buru Selatan, Maluku";"Kabupaten Buru Selatan, Maluku";"MALUKU";"";"Indonesia";"";"";"";"-3.5795592";"126.3064595";"https://maps.google.com/?cid=0x0:0xc3381880c2b002c0";""
"supermarket";"Toko";"Swalayan Green";"5P4M+8HM, Jl. Kabupaten, Elfule, Kec. Namrole, Kabupaten Buru Selatan, Maluku";"Kabupaten Buru Selatan, Maluku";"MALUKU";"";"Indonesia";"";"";"";"-3.8441514";"126.7339139";"https://maps.google.com/?cid=0x0:0xee9fc6a85768adb2";""
"supermarket";"Toko umum";"Toko Kasih Karunia Legi (Sembako)";"JG4R+H8, Wamlana, Tlk. Kaiely, Kabupaten Buru, Maluku";"Kabupaten Buru, Maluku";"MALUKU";"";"Indonesia";"";"";"";"-3.3936162";"126.5407791";"https://maps.google.com/?cid=0x0:0xcf8ae5be3446e01d";""
"supermarket";"supermarket";"Toko Lily Leksula";"6GC6+QQ9, Jl. Kabupaten, Leksula, Kabupaten Buru Selatan, Maluku";"Kabupaten Buru Selatan, Maluku";"MALUKU";"";"Indonesia";"";"";"";"-3.7780805";"126.5119863";"https://maps.google.com/?cid=0x0:0x779f6bc3a8c829b5";""
"supermarket";"supermarket";"Markas kaladi gosat";"Desa waehaolon, Leksula, Kabupaten Buru Selatan, Maluku 97573";"Leksula, Kabupaten Buru Selatan";"MALUKU";"97573";"Indonesia";" 082262084055";"";"";"-3.7514782";"126.4995136";"https://maps.google.com/?cid=0x0:0xb4fd1f89b5d8412a";""
"supermarket";"Toko";"City Mart";"P3JX+J48, Jl. Jenderal Ahmad Yani, Namlea, Kec. Namlea, Kabupaten Buru, Maluku";"Kabupaten Buru, Maluku";"MALUKU";"";"Indonesia";"";"";"";"-3.2684582";"127.0978186";"https://maps.google.com/?cid=0x0:0x44944d7152b21c2d";""
"supermarket";"Toko bahan makanan";"Alfamidi Pendidikan";"P3MX+44P, Jl. Pendidikan, Namlea, Kec. Namlea, Kabupaten Buru, Maluku";"Kabupaten Buru, Maluku";"MALUKU";"";"Indonesia";"";"";"";"-3.2695843";"127.1042194";"https://maps.google.com/?cid=0x0:0xb245e569b26eda14";""
"supermarket";"supermarket";"Maluku";"";"Maluku";"MALUKU";"";"Indonesia";"";"";"";"-3.2384616";"130.1452734";"https://maps.google.com/?cid=0x0:0x5e30e8db04649a51";""
"supermarket";"Minimarket";"Alfamidi";"P3GX+PMW, Namlea, Kec. Namlea, Kabupaten Buru, Maluku";"Kabupaten Buru, Maluku";"MALUKU";"";"Indonesia";"";"";"";"-3.2731328";"127.0992178";"https://maps.google.com/?cid=0x0:0xc562b327210e740b";""
"supermarket";"supermarket";"Dua Basudara";"P3GX+WGR, Namlea, Kec. Namlea, Kabupaten Buru, Maluku";"Kabupaten Buru, Maluku";"MALUKU";"";"Indonesia";" 081344000342";"";"";"-3.2726368";"127.0987534";"https://maps.google.com/?cid=0x0:0x1d2d1c925a86939e";""
"supermarket";"Toko Swalayan";"Ion Mart";"Jl. Dermaga, Namlea, Buru Regency, Maluku";"Kabupaten Buru, Maluku";"MALUKU";"";"Indonesia";"";"";"";"-3.260586";"127.093052";"https://maps.google.com/?cid=0x0:0x4ed12b24bcb1b6e6";""
"supermarket";"Toko Swalayan";"Alfamidi Waenetat";"JXFP+9XF, Waenetat, Kec. Waeapo, Kabupaten Buru, Maluku";"Kabupaten Buru, Maluku";"MALUKU";"";"Indonesia";"";"";"";"-3.3765233";"126.9874516";"https://maps.google.com/?cid=0x0:0xfecff2e0df8c112a";""
"supermarket";"Toko bahan makanan";"Fajar Frozen Food";"4, Jl. Jelambar Fajar No.83 A, RT.4/RW.6, Pejagalan, Kec. Penjaringan, Jkt Utara, Daerah Khusus Ibukota Jakarta 14440";"Jl. Jelambar Fajar No.83 A, RT.4/RW.6, Pejagalan, Kec. Penjaringan, Jkt Utara";"MALUKU";"14440";"Indonesia";" 082210479898";"";"";"-6.1430525";"106.7836064";"https://maps.google.com/?cid=0x0:0xc2c84d8ef6d47b8d";""
