Category,Real Category,Business Name,Address,City,State,Postal Code,Country,Phone,Email,Website,Latitude,Longitude,Map Link,Details Link
hotel,hotel,Nite  Day Hotel Pontianak Nangapinoh,"Jl Provinsi Sintang No 9, Sidomulyo, Kec. Nanga Pinoh, Kabupaten Melawi, Kalimantan Barat 78672","Sidomulyo, Kec. Nanga Pinoh, Kabupaten Melawi",KALIMANTAN BARAT,78672.0,Indonesia,5682020386.0,,,-0.3460979,111.7112862,https://maps.google.com/?cid=0x0:0x665951374ce1722b,
hotel,hotel,Kalimantan Barat 79671,"Kabupaten Melawi, Kalimantan Barat","Kabupaten Melawi, Kalimantan Barat",KALIMANTAN BARAT,,Indonesia,,,,-0.4539656,111.5229817,https://maps.google.com/?cid=0x0:0xfc272e555b0cebaa,
hotel,hotel,Hotel Alimoer,"Sungai Raya, Kec. Sungai Raya, Kabupaten Kubu Raya, Kalimantan Barat","Kabupaten Kubu Raya, Kalimantan Barat",KALIMANTAN BARAT,,Indonesia,85169981240.0,,,-0.0750673,109.3660034,https://maps.google.com/?cid=0x0:0x97f93530c6703f69,
hotel,hotel,Hotel Lima Bintang,"MP47+R6, Sidomulyo, Kec. Nanga Pinoh, Kabupaten Melawi, Kalimantan Barat 79671","Sidomulyo, Kec. Nanga Pinoh, Kabupaten Melawi",KALIMANTAN BARAT,79671.0,Indonesia,85117302258.0,,,-0.34294,111.71308,https://maps.google.com/?cid=0x0:0xf040fcc3d7a1f177,
hotel,hotel,"Hotel Amadeus Nanga Pinoh, Melawi","Tj. Niaga, Kec. Nanga Pinoh, Kabupaten Melawi, Kalimantan Barat 79672","Kec. Nanga Pinoh, Kabupaten Melawi",KALIMANTAN BARAT,79672.0,Indonesia,82155783871.0,,,-0.3359193,111.740344,https://maps.google.com/?cid=0x0:0x9867fd3c3988f259,
hotel,hotel,Hotel Mulia,"MP6C+98F, Jl. Raya Propinsi, Sidomulyo, Kec. Nanga Pinoh, Kabupaten Melawi, Kalimantan Barat 79672","Jl. Raya Propinsi, Sidomulyo, Kec. Nanga Pinoh, Kabupaten Melawi",KALIMANTAN BARAT,79672.0,Indonesia,82150000502.0,,,-0.3390658,111.7208032,https://maps.google.com/?cid=0x0:0x9ce5781ca620b30b,
hotel,hotel,Hotel AGUNG,"Sidomulyo, Kec. Nanga Pinoh, Kabupaten Melawi, Kalimantan Barat 79672","Kec. Nanga Pinoh, Kabupaten Melawi",KALIMANTAN BARAT,79672.0,Indonesia,82156881888.0,,,-0.338936,111.7207851,https://maps.google.com/?cid=0x0:0x21fc04d075f01e51,
hotel,hotel,Hotel Pinoh Permai,"MP8Q+5PV, Jalan Juang, Tanjung Niaga, Nanga Pinoh, Tj. Niaga, Melawi, Kabupaten Melawi, Kalimantan Barat 79672","Jalan Juang, Tanjung Niaga, Nanga Pinoh, Tj. Niaga, Melawi, Kabupaten Melawi",KALIMANTAN BARAT,79672.0,Indonesia,,,,-0.3345158,111.739297,https://maps.google.com/?cid=0x0:0x4909b5e2b89e4fb8,
hotel,hotel,Chinba Guest House,"Komplek.Bumi sepakat permai No.10 A, Bansir Darat, Kec. Pontianak Tenggara, Kota Pontianak, Kalimantan Barat 78124","Bansir Darat, Kec. Pontianak Tenggara, Kota Pontianak",KALIMANTAN BARAT,78124.0,Indonesia,81254694519.0,,,-0.070414,109.3443781,https://maps.google.com/?cid=0x0:0xf7e911c3f60f3f7d,
hotel,hotel,,,,KALIMANTAN BARAT,,Indonesia,,,,,,https://maps.google.com/?cid=0x0:0xf7e911c3f60f3f7d%7C/g/11p65s9svv%7Cen-ID,
hotel,hotel,Kec. Belimbing Hulu,"Kabupaten Melawi, Kalimantan Barat","Kabupaten Melawi, Kalimantan Barat",KALIMANTAN BARAT,,Indonesia,,,,-0.3702887,111.5294943,https://maps.google.com/?cid=0x0:0x26dc94245ead4c2a,
hotel,hotel,Nite  Day Hotel Pontianak Nangapinoh,"Jl Provinsi Sintang No 9, Sidomulyo, Kec. Nanga Pinoh, Kabupaten Melawi, Kalimantan Barat 78672","Sidomulyo, Kec. Nanga Pinoh, Kabupaten Melawi",KALIMANTAN BARAT,78672.0,Indonesia,5682020386.0,,,-0.3460979,111.7112862,https://maps.google.com/?cid=0x0:0x665951374ce1722b,
hotel,hotel,AMARANTA HOTEL,"Jl. Raya Propinsi No.78692, Sidomulyo, Kec. Nanga Pinoh, Kabupaten Melawi, Kalimantan Barat 79672","Sidomulyo, Kec. Nanga Pinoh, Kabupaten Melawi",KALIMANTAN BARAT,79672.0,Indonesia,85133339286.0,,,-0.337383,111.7252124,https://maps.google.com/?cid=0x0:0xe03ec963e123b1dc,
hotel,hotel,"Hotel Amadeus Nanga Pinoh, Melawi","Tj. Niaga, Kec. Nanga Pinoh, Kabupaten Melawi, Kalimantan Barat 79672","Kec. Nanga Pinoh, Kabupaten Melawi",KALIMANTAN BARAT,79672.0,Indonesia,82155783871.0,,,-0.3359193,111.740344,https://maps.google.com/?cid=0x0:0x9867fd3c3988f259,
hotel,hotel,Hotel AGUNG,"Sidomulyo, Kec. Nanga Pinoh, Kabupaten Melawi, Kalimantan Barat 79672","Kec. Nanga Pinoh, Kabupaten Melawi",KALIMANTAN BARAT,79672.0,Indonesia,82156881888.0,,,-0.338936,111.7207851,https://maps.google.com/?cid=0x0:0x21fc04d075f01e51,
hotel,hotel,Hotel Mulia,"MP6C+98F, Jl. Raya Propinsi, Sidomulyo, Kec. Nanga Pinoh, Kabupaten Melawi, Kalimantan Barat 79672","Jl. Raya Propinsi, Sidomulyo, Kec. Nanga Pinoh, Kabupaten Melawi",KALIMANTAN BARAT,79672.0,Indonesia,82150000502.0,,,-0.3390658,111.7208032,https://maps.google.com/?cid=0x0:0x9ce5781ca620b30b,
hotel,hotel,Hotel Pinoh Permai,"MP8Q+5PV, Jalan Juang, Tanjung Niaga, Nanga Pinoh, Tj. Niaga, Melawi, Kabupaten Melawi, Kalimantan Barat 79672","Jalan Juang, Tanjung Niaga, Nanga Pinoh, Tj. Niaga, Melawi, Kabupaten Melawi",KALIMANTAN BARAT,79672.0,Indonesia,,,,-0.3345158,111.739297,https://maps.google.com/?cid=0x0:0x4909b5e2b89e4fb8,
hotel,hotel,Kalimantan Barat 79681,"Kabupaten Melawi, Kalimantan Barat","Kabupaten Melawi, Kalimantan Barat",KALIMANTAN BARAT,,Indonesia,,,,-0.5928174,111.9999435,https://maps.google.com/?cid=0x0:0x56ab64304e08062b,
hotel,hotel,AMARANTA HOTEL,"Jl. Raya Propinsi No.78692, Sidomulyo, Kec. Nanga Pinoh, Kabupaten Melawi, Kalimantan Barat 79672","Sidomulyo, Kec. Nanga Pinoh, Kabupaten Melawi",KALIMANTAN BARAT,79672.0,Indonesia,85133339286.0,,,-0.337383,111.7252124,https://maps.google.com/?cid=0x0:0xe03ec963e123b1dc,
hotel,hotel,"Hotel Amadeus Nanga Pinoh, Melawi","Tj. Niaga, Kec. Nanga Pinoh, Kabupaten Melawi, Kalimantan Barat 79672","Kec. Nanga Pinoh, Kabupaten Melawi",KALIMANTAN BARAT,79672.0,Indonesia,82155783871.0,,,-0.3359193,111.740344,https://maps.google.com/?cid=0x0:0x9867fd3c3988f259,
hotel,hotel,Hotel Mulia,"MP6C+98F, Jl. Raya Propinsi, Sidomulyo, Kec. Nanga Pinoh, Kabupaten Melawi, Kalimantan Barat 79672","Jl. Raya Propinsi, Sidomulyo, Kec. Nanga Pinoh, Kabupaten Melawi",KALIMANTAN BARAT,79672.0,Indonesia,82150000502.0,,,-0.3390658,111.7208032,https://maps.google.com/?cid=0x0:0x9ce5781ca620b30b,
hotel,hotel,Hotel Pinoh Permai,"MP8Q+5PV, Jalan Juang, Tanjung Niaga, Nanga Pinoh, Tj. Niaga, Melawi, Kabupaten Melawi, Kalimantan Barat 79672","Jalan Juang, Tanjung Niaga, Nanga Pinoh, Tj. Niaga, Melawi, Kabupaten Melawi",KALIMANTAN BARAT,79672.0,Indonesia,,,,-0.3345158,111.739297,https://maps.google.com/?cid=0x0:0x4909b5e2b89e4fb8,
hotel,hotel,Nite  Day Hotel Pontianak Nangapinoh,"Jl Provinsi Sintang No 9, Sidomulyo, Kec. Nanga Pinoh, Kabupaten Melawi, Kalimantan Barat 78672","Sidomulyo, Kec. Nanga Pinoh, Kabupaten Melawi",KALIMANTAN BARAT,78672.0,Indonesia,5682020386.0,,,-0.3460979,111.7112862,https://maps.google.com/?cid=0x0:0x665951374ce1722b,
hotel,hotel,Menukung,"Nanga Ella Hulu, Kec. Menukung, Kabupaten Melawi, Kalimantan Barat","Kabupaten Melawi, Kalimantan Barat",KALIMANTAN BARAT,,Indonesia,,,,-0.395657,112.1717,https://maps.google.com/?cid=0x0:0x8d04b3ff9fa0089c,
hotel,hotel,AMARANTA HOTEL,"Jl. Raya Propinsi No.78692, Sidomulyo, Kec. Nanga Pinoh, Kabupaten Melawi, Kalimantan Barat 79672","Sidomulyo, Kec. Nanga Pinoh, Kabupaten Melawi",KALIMANTAN BARAT,79672.0,Indonesia,85133339286.0,,,-0.337383,111.7252124,https://maps.google.com/?cid=0x0:0xe03ec963e123b1dc,
hotel,hotel,"Hotel Amadeus Nanga Pinoh, Melawi","Tj. Niaga, Kec. Nanga Pinoh, Kabupaten Melawi, Kalimantan Barat 79672","Kec. Nanga Pinoh, Kabupaten Melawi",KALIMANTAN BARAT,79672.0,Indonesia,82155783871.0,,,-0.3359193,111.740344,https://maps.google.com/?cid=0x0:0x9867fd3c3988f259,
hotel,hotel,HOTEL HANURA,"Km. 2, Hilir Ktr., Kec. Ngabang, Kabupaten Landak, Kalimantan Barat 79357","Hilir Ktr., Kec. Ngabang, Kabupaten Landak",KALIMANTAN BARAT,79357.0,Indonesia,82241414170.0,,,0.378806,109.9451064,https://maps.google.com/?cid=0x0:0xc20a3c43f19eec49,
hotel,hotel,Hotel AGUNG,"Sidomulyo, Kec. Nanga Pinoh, Kabupaten Melawi, Kalimantan Barat 79672","Kec. Nanga Pinoh, Kabupaten Melawi",KALIMANTAN BARAT,79672.0,Indonesia,82156881888.0,,,-0.338936,111.7207851,https://maps.google.com/?cid=0x0:0x21fc04d075f01e51,
hotel,hotel,Hotel Pinoh Permai,"MP8Q+5PV, Jalan Juang, Tanjung Niaga, Nanga Pinoh, Tj. Niaga, Melawi, Kabupaten Melawi, Kalimantan Barat 79672","Jalan Juang, Tanjung Niaga, Nanga Pinoh, Tj. Niaga, Melawi, Kabupaten Melawi",KALIMANTAN BARAT,79672.0,Indonesia,,,,-0.3345158,111.739297,https://maps.google.com/?cid=0x0:0x4909b5e2b89e4fb8,
hotel,hotel,Hotel Mulia,"MP6C+98F, Jl. Raya Propinsi, Sidomulyo, Kec. Nanga Pinoh, Kabupaten Melawi, Kalimantan Barat 79672","Jl. Raya Propinsi, Sidomulyo, Kec. Nanga Pinoh, Kabupaten Melawi",KALIMANTAN BARAT,79672.0,Indonesia,82150000502.0,,,-0.3390658,111.7208032,https://maps.google.com/?cid=0x0:0x9ce5781ca620b30b,
hotel,hotel,HOTEL MULTI,"Sungai Ringin, Kec. Sekadau Hilir, Kabupaten Sekadau, Kalimantan Barat 79516","Kec. Sekadau Hilir, Kabupaten Sekadau",KALIMANTAN BARAT,79516.0,Indonesia,56441412.0,,,0.0190936,110.89229,https://maps.google.com/?cid=0x0:0x857fb790bb6c5f5a,
hotel,hotel,Nite  Day Hotel Pontianak Nangapinoh,"Jl Provinsi Sintang No 9, Sidomulyo, Kec. Nanga Pinoh, Kabupaten Melawi, Kalimantan Barat 78672","Sidomulyo, Kec. Nanga Pinoh, Kabupaten Melawi",KALIMANTAN BARAT,78672.0,Indonesia,5682020386.0,,,-0.3460979,111.7112862,https://maps.google.com/?cid=0x0:0x665951374ce1722b,
hotel,hotel,Nanga Pinoh,"Sidomulyo, Kec. Nanga Pinoh, Kabupaten Melawi, Kalimantan Barat","Kabupaten Melawi, Kalimantan Barat",KALIMANTAN BARAT,,Indonesia,,,,-0.331892,111.733398,https://maps.google.com/?cid=0x0:0x1b19b0cfdd74bdad,
hotel,hotel,AMARANTA HOTEL,"Jl. Raya Propinsi No.78692, Sidomulyo, Kec. Nanga Pinoh, Kabupaten Melawi, Kalimantan Barat 79672","Sidomulyo, Kec. Nanga Pinoh, Kabupaten Melawi",KALIMANTAN BARAT,79672.0,Indonesia,85133339286.0,,,-0.337383,111.7252124,https://maps.google.com/?cid=0x0:0xe03ec963e123b1dc,
hotel,hotel,Hotel Lima Bintang,"MP47+R6, Sidomulyo, Kec. Nanga Pinoh, Kabupaten Melawi, Kalimantan Barat 79671","Sidomulyo, Kec. Nanga Pinoh, Kabupaten Melawi",KALIMANTAN BARAT,79671.0,Indonesia,85117302258.0,,,-0.34294,111.71308,https://maps.google.com/?cid=0x0:0xf040fcc3d7a1f177,
hotel,hotel,Hotel Pinoh Permai,"MP8Q+5PV, Jalan Juang, Tanjung Niaga, Nanga Pinoh, Tj. Niaga, Melawi, Kabupaten Melawi, Kalimantan Barat 79672","Jalan Juang, Tanjung Niaga, Nanga Pinoh, Tj. Niaga, Melawi, Kabupaten Melawi",KALIMANTAN BARAT,79672.0,Indonesia,,,,-0.3345158,111.739297,https://maps.google.com/?cid=0x0:0x4909b5e2b89e4fb8,
hotel,hotel,Hotel AGUNG,"Sidomulyo, Kec. Nanga Pinoh, Kabupaten Melawi, Kalimantan Barat 79672","Kec. Nanga Pinoh, Kabupaten Melawi",KALIMANTAN BARAT,79672.0,Indonesia,82156881888.0,,,-0.338936,111.7207851,https://maps.google.com/?cid=0x0:0x21fc04d075f01e51,
hotel,hotel,Hotel Mulia,"MP6C+98F, Jl. Raya Propinsi, Sidomulyo, Kec. Nanga Pinoh, Kabupaten Melawi, Kalimantan Barat 79672","Jl. Raya Propinsi, Sidomulyo, Kec. Nanga Pinoh, Kabupaten Melawi",KALIMANTAN BARAT,79672.0,Indonesia,82150000502.0,,,-0.3390658,111.7208032,https://maps.google.com/?cid=0x0:0x9ce5781ca620b30b,
hotel,hotel,Hotel Mitra Kapuas Raya Sintang,"Jl. DR. Wahidin Sudirohusodo, Baning Kota, Kec. Sintang, Kabupaten Sintang, Kalimantan Barat 78613","Baning Kota, Kec. Sintang, Kabupaten Sintang",KALIMANTAN BARAT,78613.0,Indonesia,56523257.0,,,0.0615989,111.5003786,https://maps.google.com/?cid=0x0:0x6cce49bbe384ed7,
hotel,hotel,Kalimantan Barat 79672,"Kabupaten Melawi, Kalimantan Barat","Kabupaten Melawi, Kalimantan Barat",KALIMANTAN BARAT,,Indonesia,,,,-0.4530658,111.8091625,https://maps.google.com/?cid=0x0:0xf8a34da63da634fa,
hotel,hotel,Nite  Day Hotel Pontianak Nangapinoh,"Jl Provinsi Sintang No 9, Sidomulyo, Kec. Nanga Pinoh, Kabupaten Melawi, Kalimantan Barat 78672","Sidomulyo, Kec. Nanga Pinoh, Kabupaten Melawi",KALIMANTAN BARAT,78672.0,Indonesia,5682020386.0,,,-0.3460979,111.7112862,https://maps.google.com/?cid=0x0:0x665951374ce1722b,
hotel,hotel,AMARANTA HOTEL,"Jl. Raya Propinsi No.78692, Sidomulyo, Kec. Nanga Pinoh, Kabupaten Melawi, Kalimantan Barat 79672","Sidomulyo, Kec. Nanga Pinoh, Kabupaten Melawi",KALIMANTAN BARAT,79672.0,Indonesia,85133339286.0,,,-0.337383,111.7252124,https://maps.google.com/?cid=0x0:0xe03ec963e123b1dc,
hotel,hotel,Hotel Lima Bintang,"MP47+R6, Sidomulyo, Kec. Nanga Pinoh, Kabupaten Melawi, Kalimantan Barat 79671","Sidomulyo, Kec. Nanga Pinoh, Kabupaten Melawi",KALIMANTAN BARAT,79671.0,Indonesia,85117302258.0,,,-0.34294,111.71308,https://maps.google.com/?cid=0x0:0xf040fcc3d7a1f177,
hotel,hotel,Hotel Pinoh Permai,"MP8Q+5PV, Jalan Juang, Tanjung Niaga, Nanga Pinoh, Tj. Niaga, Melawi, Kabupaten Melawi, Kalimantan Barat 79672","Jalan Juang, Tanjung Niaga, Nanga Pinoh, Tj. Niaga, Melawi, Kabupaten Melawi",KALIMANTAN BARAT,79672.0,Indonesia,,,,-0.3345158,111.739297,https://maps.google.com/?cid=0x0:0x4909b5e2b89e4fb8,
hotel,hotel,Hotel AGUNG,"Sidomulyo, Kec. Nanga Pinoh, Kabupaten Melawi, Kalimantan Barat 79672","Kec. Nanga Pinoh, Kabupaten Melawi",KALIMANTAN BARAT,79672.0,Indonesia,82156881888.0,,,-0.338936,111.7207851,https://maps.google.com/?cid=0x0:0x21fc04d075f01e51,
hotel,hotel,Hotel Mulia,"MP6C+98F, Jl. Raya Propinsi, Sidomulyo, Kec. Nanga Pinoh, Kabupaten Melawi, Kalimantan Barat 79672","Jl. Raya Propinsi, Sidomulyo, Kec. Nanga Pinoh, Kabupaten Melawi",KALIMANTAN BARAT,79672.0,Indonesia,82150000502.0,,,-0.3390658,111.7208032,https://maps.google.com/?cid=0x0:0x9ce5781ca620b30b,
hotel,hotel,Pondok Indah Hotel,"Jalan Merdeka Timur 2V9V+G2C Mungguk, Tanjung, Kec. Sekadau Hilir, Kabupaten Sekadau, Kalimantan Barat 79516","Tanjung, Kec. Sekadau Hilir, Kabupaten Sekadau",KALIMANTAN BARAT,79516.0,Indonesia,85349537773.0,,,0.0188157,110.8925079,https://maps.google.com/?cid=0x0:0x988c7682e846a88d,
hotel,hotel,HOTEL 22,"Jalan Raya Sosok II, Dusun Moling, Tanjung, Tayan Hulu, Sosok, Kec. Tayan Hulu, Kabupaten Sanggau, Kalimantan Barat 78562","Dusun Moling, Tanjung, Tayan Hulu, Sosok, Kec. Tayan Hulu, Kabupaten Sanggau",KALIMANTAN BARAT,78562.0,Indonesia,81299221980.0,,,0.2849393,110.259265,https://maps.google.com/?cid=0x0:0x4c3a036ccef93a37,
hotel,hotel,Nite  Day Hotel Pontianak Nangapinoh,"Jl Provinsi Sintang No 9, Sidomulyo, Kec. Nanga Pinoh, Kabupaten Melawi, Kalimantan Barat 78672","Sidomulyo, Kec. Nanga Pinoh, Kabupaten Melawi",KALIMANTAN BARAT,78672.0,Indonesia,5682020386.0,,,-0.3460979,111.7112862,https://maps.google.com/?cid=0x0:0x665951374ce1722b,
hotel,hotel,Kalimantan Barat 79672,"Kabupaten Melawi, Kalimantan Barat","Kabupaten Melawi, Kalimantan Barat",KALIMANTAN BARAT,,Indonesia,,,,-0.4530658,111.8091625,https://maps.google.com/?cid=0x0:0xf8a34da63da634fa,
hotel,hotel,AMARANTA HOTEL,"Jl. Raya Propinsi No.78692, Sidomulyo, Kec. Nanga Pinoh, Kabupaten Melawi, Kalimantan Barat 79672","Sidomulyo, Kec. Nanga Pinoh, Kabupaten Melawi",KALIMANTAN BARAT,79672.0,Indonesia,85133339286.0,,,-0.337383,111.7252124,https://maps.google.com/?cid=0x0:0xe03ec963e123b1dc,
hotel,hotel,Hotel Pinoh Permai,"MP8Q+5PV, Jalan Juang, Tanjung Niaga, Nanga Pinoh, Tj. Niaga, Melawi, Kabupaten Melawi, Kalimantan Barat 79672","Jalan Juang, Tanjung Niaga, Nanga Pinoh, Tj. Niaga, Melawi, Kabupaten Melawi",KALIMANTAN BARAT,79672.0,Indonesia,,,,-0.3345158,111.739297,https://maps.google.com/?cid=0x0:0x4909b5e2b89e4fb8,
hotel,hotel,Hotel Lima Bintang,"MP47+R6, Sidomulyo, Kec. Nanga Pinoh, Kabupaten Melawi, Kalimantan Barat 79671","Sidomulyo, Kec. Nanga Pinoh, Kabupaten Melawi",KALIMANTAN BARAT,79671.0,Indonesia,85117302258.0,,,-0.34294,111.71308,https://maps.google.com/?cid=0x0:0xf040fcc3d7a1f177,
hotel,hotel,Hotel Mulia,"MP6C+98F, Jl. Raya Propinsi, Sidomulyo, Kec. Nanga Pinoh, Kabupaten Melawi, Kalimantan Barat 79672","Jl. Raya Propinsi, Sidomulyo, Kec. Nanga Pinoh, Kabupaten Melawi",KALIMANTAN BARAT,79672.0,Indonesia,82150000502.0,,,-0.3390658,111.7208032,https://maps.google.com/?cid=0x0:0x9ce5781ca620b30b,
hotel,hotel,Hotel AGUNG,"Sidomulyo, Kec. Nanga Pinoh, Kabupaten Melawi, Kalimantan Barat 79672","Kec. Nanga Pinoh, Kabupaten Melawi",KALIMANTAN BARAT,79672.0,Indonesia,82156881888.0,,,-0.338936,111.7207851,https://maps.google.com/?cid=0x0:0x21fc04d075f01e51,
hotel,hotel,Kalimantan Barat 79673,"Kec. Sayan, Kabupaten Melawi, Kalimantan Barat","Kabupaten Melawi, Kalimantan Barat",KALIMANTAN BARAT,,Indonesia,,,,-0.7351798,111.7137694,https://maps.google.com/?cid=0x0:0x6560f1dffd0c539e,
hotel,hotel,HotelQ,"Jl. Arteri Supadio No.KM 12, RW.8, Sungai Raya, Kec. Sungai Raya, Kabupaten Kubu Raya, Kalimantan Barat 78391","RW.8, Sungai Raya, Kec. Sungai Raya, Kabupaten Kubu Raya",KALIMANTAN BARAT,78391.0,Indonesia,,,,-0.0922143,109.3718887,https://maps.google.com/?cid=0x0:0xcd2faa0eee3e335e,
hotel,hotel,Urbanview Hotel Bagoes Sintang By RedDoorz,"Jl. Dharma Putra No.16, Ladang, Kec. Sintang, Kabupaten Sintang, Kalimantan Barat 78612","Ladang, Kec. Sintang, Kabupaten Sintang",KALIMANTAN BARAT,78612.0,Indonesia,895417300072.0,,,0.0613166,111.4915615,https://maps.google.com/?cid=0x0:0x8218b889b9eed0f3,
hotel,hotel,Hotel Santika,"Jl. Diponegoro No.85, RT.04, Darat Sekip, Kec. Pontianak Kota, Kota Pontianak, Kalimantan Barat 78117","RT.04, Darat Sekip, Kec. Pontianak Kota, Kota Pontianak",KALIMANTAN BARAT,78117.0,Indonesia,,,,-0.0280983,109.341001,https://maps.google.com/?cid=0x0:0xe5443b9670fabfe8,
hotel,Hotel,Hotel rajawali,"7MX8+XCG, Nanga Sayan, Kec. Sayan, Kabupaten Melawi, Kalimantan Barat","Kabupaten Melawi, Kalimantan Barat",KALIMANTAN BARAT,,Indonesia,,,,-0.7000681,111.6660725,https://maps.google.com/?cid=0x0:0x20f9d2ee614881d9,
hotel,Hotel,Hotel Rajawali,"MP5V+XJM, Jl. Juang, Kenual, Kec. Nanga Pinoh, Kabupaten Melawi, Kalimantan Barat 79672","Jl. Juang, Kenual, Kec. Nanga Pinoh, Kabupaten Melawi",KALIMANTAN BARAT,79672.0,Indonesia,5682121725.0,,,-0.3400496,111.7440314,https://maps.google.com/?cid=0x0:0xf6507af3f91376e2,
hotel,hotel,,,,KALIMANTAN BARAT,,Indonesia,,,,,,https://maps.google.com/?cid=0x0:0x5052656c59041da6%7C/g/11h610wfvz%7Cen-ID,
hotel,hotel,Leuweung Geledegan Ecolodge,"Kp. Tamansari.17, Jl. Tamansari No.17, Tamansari, Kec. Tamansari, Kabupaten Bogor, Jawa Barat 16610","Jl. Tamansari No.17, Tamansari, Kec. Tamansari, Kabupaten Bogor",KALIMANTAN BARAT,16610.0,Indonesia,2518480777.0,,,-6.6618412,106.7538416,https://maps.google.com/?cid=0x0:0x5052656c59041da6,
hotel,hotel,Green Forest Bogor,"Jl. RE. Soemantadiredja No.99, RT.03/RW.12, Pamoyanan, Kec. Bogor Sel., Kota Bogor, Jawa Barat 16136","RT.03/RW.12, Pamoyanan, Kec. Bogor Sel., Kota Bogor",KALIMANTAN BARAT,16136.0,Indonesia,2518212225.0,,,-6.6495046,106.8061132,https://maps.google.com/?cid=0x0:0x70889815f5e23386,
hotel,hotel,,,,KALIMANTAN BARAT,,Indonesia,,,,,,https://maps.google.com/?cid=0x0:0x70889815f5e23386%7C/g/11byfllgr0%7Cen-ID,
hotel,hotel,,,,KALIMANTAN BARAT,,Indonesia,,,,,,https://maps.google.com/?cid=0x0:0xf0140abb97c5413a%7C/g/11jvms8wqv%7Cen-ID,
hotel,hotel,Swiss-Belinn Bogor,"Jl. Pajajaran Indah V, RT.01/RW.14, Baranangsiang, Kec. Bogor Tim., Kota Bogor, Jawa Barat 16143","RT.01/RW.14, Baranangsiang, Kec. Bogor Tim., Kota Bogor",KALIMANTAN BARAT,16143.0,Indonesia,2518306666.0,,,-6.6104095,106.8144012,https://maps.google.com/?cid=0x0:0xf0140abb97c5413a,
hotel,hotel,Royal Tulip Gunung Geulis Resort and Golf,"Jl. Pasir Angin, Nagrak, Gadog-Bogor, Kabupaten Bogor, Jawa Barat 16720","Nagrak, Gadog-Bogor, Kabupaten Bogor",KALIMANTAN BARAT,16720.0,Indonesia,2517563800.0,,,-6.6268031,106.8630846,https://maps.google.com/?cid=0x0:0x846cedd517aefa44,
hotel,hotel,,,,KALIMANTAN BARAT,,Indonesia,,,,,,https://maps.google.com/?cid=0x0:0x846cedd517aefa44%7C/g/1pzsk1z1x%7Cen-ID,
hotel,hotel,Hotel Novotel Bogor Golf Resort and Convention Center,"Jl. Golf Estate Bogor Raya, Sukaraja, Kec. Sukaraja, Kabupaten Bogor, Jawa Barat 16710","Sukaraja, Kec. Sukaraja, Kabupaten Bogor",KALIMANTAN BARAT,16710.0,Indonesia,2518271555.0,,,-6.6044585,106.8385092,https://maps.google.com/?cid=0x0:0xf01576df7f835a0,
hotel,hotel,,,,KALIMANTAN BARAT,,Indonesia,,,,,,https://maps.google.com/?cid=0x0:0xf01576df7f835a0%7C/g/1v0bw1cf%7Cen-ID,
hotel,hotel,Villa Sawah Hotel and Resort,"Jl. Cibalok Pandansari No.99, Pandansari, Kec. Ciawi, Kabupaten Bogor, Jawa Barat 16720","Pandansari, Kec. Ciawi, Kabupaten Bogor",KALIMANTAN BARAT,16720.0,Indonesia,2518292152.0,,,-6.6480047,106.8543701,https://maps.google.com/?cid=0x0:0x49b0122c7bd41d07,
hotel,hotel,,,,KALIMANTAN BARAT,,Indonesia,,,,,,https://maps.google.com/?cid=0x0:0x49b0122c7bd41d07%7C/g/11f_fqhr_q%7Cen-ID,
hotel,hotel,Nemuru Grand Bhuvana,"Jl. KH RM Toha No.487, Bendungan, Kec. Ciawi, Kabupaten Bogor, Jawa Barat 16720","Bendungan, Kec. Ciawi, Kabupaten Bogor",KALIMANTAN BARAT,16720.0,Indonesia,8111583536.0,,,-6.6614061,106.8534729,https://maps.google.com/?cid=0x0:0x4435f01981542940,
hotel,hotel,Azana Essence Sanggabuana Villa Bogor,"Tengah Jl. Sangga Buana No.11  13, RT.03/RW.04, Babakan, Kecamatan Bogor Tengah, Kota Bogor, Jawa Barat 16128","RT.03/RW.04, Babakan, Kecamatan Bogor Tengah, Kota Bogor",KALIMANTAN BARAT,16128.0,Indonesia,81808551111.0,,,-6.5894297,106.8041292,https://maps.google.com/?cid=0x0:0xe413b090120e66e8,
hotel,hotel,"Bobocabin The Tavia, Puncak","Jl. Raya Puncak Pass No.Km, RW.17, Cipayung Datar, Kec. Megamendung, Kabupaten Bogor, Jawa Barat 16670","RW.17, Cipayung Datar, Kec. Megamendung, Kabupaten Bogor",KALIMANTAN BARAT,16670.0,Indonesia,85176963921.0,,,-6.6548397,106.8999683,https://maps.google.com/?cid=0x0:0xa66b0929416bdc2e,
hotel,hotel,Jambuluwuk Convention Hall  Resort Puncak,"Jl. Veteran III Jl. Tapos Lbc No.63, Jambu Luwuk, Kec. Ciawi, Kabupaten Bogor, Jawa Barat 16720","Jambu Luwuk, Kec. Ciawi, Kabupaten Bogor",KALIMANTAN BARAT,16720.0,Indonesia,2518242435.0,,,-6.6863089,106.8722419,https://maps.google.com/?cid=0x0:0x19675ff822fadfcc,
hotel,hotel,,,,KALIMANTAN BARAT,,Indonesia,,,,,,https://maps.google.com/?cid=0x0:0x19675ff822fadfcc%7C/g/12mkzk221%7Cen-ID,
hotel,hotel,,,,KALIMANTAN BARAT,,Indonesia,,,,,,https://maps.google.com/?cid=0x0:0x72c3b8c63b08eec6%7C/g/11dzvvfz7q%7Cen-ID,
hotel,hotel,AMANUBA Hotel  Resort Rancamaya Bogor,"Jl. Rancamaya No.37, RT.03/RW.04, Bojongkerta, Kec. Bogor Sel., Kota Bogor, Jawa Barat 16139","RT.03/RW.04, Bojongkerta, Kec. Bogor Sel., Kota Bogor",KALIMANTAN BARAT,16139.0,Indonesia,2518292821.0,,,-6.6661852,106.8334127,https://maps.google.com/?cid=0x0:0x72c3b8c63b08eec6,
hotel,hotel,,,,KALIMANTAN BARAT,,Indonesia,,,,,,https://maps.google.com/?cid=0x0:0xaba5dcb2c5511cfd%7C/g/11b6v217mq%7Cen-ID,
hotel,hotel,Bogor Icon Hotel and Convention,"Jl. Bukit Cimanggu City Raya Jl. Sholeh Iskandar No.1, Cibadak, Kec. Tanah Sereal, Kota Bogor, Jawa Barat 16168","Cibadak, Kec. Tanah Sereal, Kota Bogor",KALIMANTAN BARAT,16168.0,Indonesia,2517567888.0,,,-6.5560558,106.7826794,https://maps.google.com/?cid=0x0:0xaba5dcb2c5511cfd,
hotel,hotel,,,,KALIMANTAN BARAT,,Indonesia,,,,,,https://maps.google.com/?cid=0x0:0xd1ee167b3a936bee%7C/g/11hbvw65v1%7Cen-ID,
hotel,hotel,The Alana Hotel  Conference Center - Sentul City,"Jl. Ir H Juanda No.76, Citaringgul, Kec. Babakan Madang, Kabupaten Bogor, Jawa Barat 16810","Citaringgul, Kec. Babakan Madang, Kabupaten Bogor",KALIMANTAN BARAT,16810.0,Indonesia,2184280888.0,,,-6.5695377,106.848159,https://maps.google.com/?cid=0x0:0xd1ee167b3a936bee,
hotel,hotel,Kalimantan Barat 79675,"Kabupaten Melawi, Kalimantan Barat","Kabupaten Melawi, Kalimantan Barat",KALIMANTAN BARAT,,Indonesia,,,,-1.0571933,111.3798928,https://maps.google.com/?cid=0x0:0x9429eb57dc989adc,
hotel,hotel,HotelQ,"Jl. Arteri Supadio No.KM 12, RW.8, Sungai Raya, Kec. Sungai Raya, Kabupaten Kubu Raya, Kalimantan Barat 78391","RW.8, Sungai Raya, Kec. Sungai Raya, Kabupaten Kubu Raya",KALIMANTAN BARAT,78391.0,Indonesia,,,,-0.0922143,109.3718887,https://maps.google.com/?cid=0x0:0xcd2faa0eee3e335e,
hotel,hotel,,,,KALIMANTAN BARAT,,Indonesia,,,,,,https://maps.google.com/?cid=0x0:0xe6cf25c2fd44563e%7C/g/11csc93rgn%7Cen-ID,
hotel,hotel,Hotel Borneo,"Jalan Merdeka Barat No. 428 Mariana Pontianak Barat, Tengah, Kec. Pontianak Kota, Kota Pontianak, Kalimantan Barat 78244","Tengah, Kec. Pontianak Kota, Kota Pontianak",KALIMANTAN BARAT,78244.0,Indonesia,561768111.0,,,-0.02342,109.3289489,https://maps.google.com/?cid=0x0:0x4af7b988d3b58a5c,
hotel,hotel,HOTEL SETIA,"Jl. Majapahit No.1-5, Kapuas Kanan Hulu, Kec. Sintang, Kabupaten Sintang, Kalimantan Barat 78615","Kapuas Kanan Hulu, Kec. Sintang, Kabupaten Sintang",KALIMANTAN BARAT,78615.0,Indonesia,85248458814.0,,,0.081685,111.4833549,https://maps.google.com/?cid=0x0:0xd4b3edf04a9f3c2e,
hotel,hotel,Hotel Santika,"Jl. Diponegoro No.85, RT.04, Darat Sekip, Kec. Pontianak Kota, Kota Pontianak, Kalimantan Barat 78117","RT.04, Darat Sekip, Kec. Pontianak Kota, Kota Pontianak",KALIMANTAN BARAT,78117.0,Indonesia,,,,-0.0280983,109.341001,https://maps.google.com/?cid=0x0:0xe5443b9670fabfe8,
hotel,hotel,,,,KALIMANTAN BARAT,,Indonesia,,,,,,https://maps.google.com/?cid=0x0:0xf0140abb97c5413a%7C/g/11jvms8wqv%7Cen-ID,
hotel,hotel,Swiss-Belinn Bogor,"Jl. Pajajaran Indah V, RT.01/RW.14, Baranangsiang, Kec. Bogor Tim., Kota Bogor, Jawa Barat 16143","RT.01/RW.14, Baranangsiang, Kec. Bogor Tim., Kota Bogor",KALIMANTAN BARAT,16143.0,Indonesia,2518306666.0,,,-6.6104095,106.8144012,https://maps.google.com/?cid=0x0:0xf0140abb97c5413a,
hotel,hotel,Bogor Icon Hotel and Convention,"Jl. Bukit Cimanggu City Raya Jl. Sholeh Iskandar No.1, Cibadak, Kec. Tanah Sereal, Kota Bogor, Jawa Barat 16168","Cibadak, Kec. Tanah Sereal, Kota Bogor",KALIMANTAN BARAT,16168.0,Indonesia,2517567888.0,,,-6.5560558,106.7826794,https://maps.google.com/?cid=0x0:0xaba5dcb2c5511cfd,
hotel,hotel,,,,KALIMANTAN BARAT,,Indonesia,,,,,,https://maps.google.com/?cid=0x0:0xaba5dcb2c5511cfd%7C/g/11b6v217mq%7Cen-ID,
hotel,hotel,Luminor Hotel Padjadjaran Bogor,"Jl. Cidangiang No.9, RT.004/RW.05, Tegallega, Kecamatan Bogor Tengah, Kota Bogor, Jawa Barat 16127","RT.004/RW.05, Tegallega, Kecamatan Bogor Tengah, Kota Bogor",KALIMANTAN BARAT,16127.0,Indonesia,2518203888.0,,,-6.602423,106.8077919,https://maps.google.com/?cid=0x0:0x1a6c2f087d090539,
hotel,hotel,,,,KALIMANTAN BARAT,,Indonesia,,,,,,https://maps.google.com/?cid=0x0:0xe00061240df57cda%7C/g/11b8t71b8b%7Cen-ID,
hotel,hotel,Agria Hotel Bogor,"Jl. Raya Tajur No.612, RT.02/RW.05, Muarasari, Kec. Bogor Sel., Kota Bogor, Jawa Barat 16145","RT.02/RW.05, Muarasari, Kec. Bogor Sel., Kota Bogor",KALIMANTAN BARAT,16145.0,Indonesia,2517550700.0,,,-6.6380172,106.8320141,https://maps.google.com/?cid=0x0:0xe00061240df57cda,
hotel,hotel,Nemuru Grand Bhuvana Ciawi,"Jl. Raya Puncak No.487, Bendungan, Kec. Ciawi, Kabupaten Bogor, Jawa Barat 16720","Bendungan, Kec. Ciawi, Kabupaten Bogor",KALIMANTAN BARAT,16720.0,Indonesia,2518303636.0,,,-6.6613433,106.8535334,https://maps.google.com/?cid=0x0:0x248bbad503c083a6,
hotel,hotel,,,,KALIMANTAN BARAT,,Indonesia,,,,,,https://maps.google.com/?cid=0x0:0x248bbad503c083a6%7C/g/11g7_h_xxm%7Cen-ID,
hotel,hotel,Citrus House,"Jl. Kol. Ahmad Syam, RT.03/RW.14, Baranangsiang, Kec. Bogor Tim., Kota Bogor, Jawa Barat 16143","RT.03/RW.14, Baranangsiang, Kec. Bogor Tim., Kota Bogor",KALIMANTAN BARAT,16143.0,Indonesia,2518313098.0,,,-6.6080751,106.818911,https://maps.google.com/?cid=0x0:0xddbc381dda15faa2,
hotel,hotel,,,,KALIMANTAN BARAT,,Indonesia,,,,,,https://maps.google.com/?cid=0x0:0xddbc381dda15faa2%7C/g/1pt_n7syy%7Cen-ID,
hotel,hotel,Royal Hotel Bogor,"Jl. Ir. H. Juanda No.16, Paledang, Kecamatan Bogor Tengah, Kota Bogor, Jawa Barat 16122","Paledang, Kecamatan Bogor Tengah, Kota Bogor",KALIMANTAN BARAT,16122.0,Indonesia,2518347123.0,,,-6.6026258,106.7953261,https://maps.google.com/?cid=0x0:0x5a9ee1d6644d7172,
hotel,hotel,,,,KALIMANTAN BARAT,,Indonesia,,,,,,https://maps.google.com/?cid=0x0:0x5a9ee1d6644d7172%7C/g/11g1ksrhls%7Cen-ID,
hotel,hotel,Hotel Novotel Bogor Golf Resort and Convention Center,"Jl. Golf Estate Bogor Raya, Sukaraja, Kec. Sukaraja, Kabupaten Bogor, Jawa Barat 16710","Sukaraja, Kec. Sukaraja, Kabupaten Bogor",KALIMANTAN BARAT,16710.0,Indonesia,2518271555.0,,,-6.6044585,106.8385092,https://maps.google.com/?cid=0x0:0xf01576df7f835a0,
hotel,hotel,,,,KALIMANTAN BARAT,,Indonesia,,,,,,https://maps.google.com/?cid=0x0:0xf01576df7f835a0%7C/g/1v0bw1cf%7Cen-ID,
hotel,hotel,,,,KALIMANTAN BARAT,,Indonesia,,,,,,https://maps.google.com/?cid=0x0:0x4909580788467e73%7C/g/12m98_lsf%7Cen-ID,
hotel,hotel,Padjadjaran Suite Resort  Convention Hotel,"Lot XIX C-2, Jl. Bogor Nirwana Residence No.17, RT.01/RW.05, Mulyaharja, Kec. Bogor Sel., Kota Bogor, Jawa Barat 16132","Jl. Bogor Nirwana Residence No.17, RT.01/RW.05, Mulyaharja, Kec. Bogor Sel., Kota Bogor",KALIMANTAN BARAT,16132.0,Indonesia,2517569000.0,,,-6.6402218,106.7864821,https://maps.google.com/?cid=0x0:0x4909580788467e73,
hotel,hotel,,,,KALIMANTAN BARAT,,Indonesia,,,,,,https://maps.google.com/?cid=0x0:0x2040b7818b568622%7C/g/11fhwt8tv6%7Cen-ID,
hotel,hotel,Grande Padjadjaran Hotel Bogor,"Jl. Raya Pajajaran No.17, RT.02/RW.03, Bantarjati, Kec. Bogor Utara, Kota Bogor, Jawa Barat 16153","RT.02/RW.03, Bantarjati, Kec. Bogor Utara, Kota Bogor",KALIMANTAN BARAT,16153.0,Indonesia,2518359000.0,,,-6.5764571,106.8073282,https://maps.google.com/?cid=0x0:0x2040b7818b568622,
hotel,hotel,Azana Essence Sanggabuana Villa Bogor,"Tengah Jl. Sangga Buana No.11  13, RT.03/RW.04, Babakan, Kecamatan Bogor Tengah, Kota Bogor, Jawa Barat 16128","RT.03/RW.04, Babakan, Kecamatan Bogor Tengah, Kota Bogor",KALIMANTAN BARAT,16128.0,Indonesia,81808551111.0,,,-6.5894297,106.8041292,https://maps.google.com/?cid=0x0:0xe413b090120e66e8,
hotel,hotel,,,,KALIMANTAN BARAT,,Indonesia,,,,,,https://maps.google.com/?cid=0x0:0x8d7eedb12a3ddb0%7C/g/11h71gt_vx%7Cen-ID,
hotel,hotel,IZI HOTEL,"Jl. Ciheuleut No.25, RT.04/RW.11, Baranangsiang, Kec. Bogor Tim., Kota Bogor, Jawa Barat 16143","RT.04/RW.11, Baranangsiang, Kec. Bogor Tim., Kota Bogor",KALIMANTAN BARAT,16143.0,Indonesia,2518384121.0,,,-6.6051975,106.8127606,https://maps.google.com/?cid=0x0:0x8d7eedb12a3ddb0,
hotel,hotel,Hotel Amaris Pakuan,"Jl. Raya Pajajaran No.2, RT.01/RW.11, Baranangsiang, Kec. Bogor Tim., Kota Bogor, Jawa Barat 16143","RT.01/RW.11, Baranangsiang, Kec. Bogor Tim., Kota Bogor",KALIMANTAN BARAT,16143.0,Indonesia,2517561000.0,,,-6.6079133,106.8102966,https://maps.google.com/?cid=0x0:0xca751782902f3d0b,
hotel,hotel,Kec. Tanah Pinoh,"Kabupaten Melawi, Kalimantan Barat","Kabupaten Melawi, Kalimantan Barat",KALIMANTAN BARAT,,Indonesia,,,,-0.7945298,111.5460674,https://maps.google.com/?cid=0x0:0x6079bd527623d50e,
hotel,hotel,Nite  Day Hotel Pontianak Nangapinoh,"Jl Provinsi Sintang No 9, Sidomulyo, Kec. Nanga Pinoh, Kabupaten Melawi, Kalimantan Barat 78672","Sidomulyo, Kec. Nanga Pinoh, Kabupaten Melawi",KALIMANTAN BARAT,78672.0,Indonesia,5682020386.0,,,-0.3460979,111.7112862,https://maps.google.com/?cid=0x0:0x665951374ce1722b,
hotel,hotel,AMARANTA HOTEL,"Jl. Raya Propinsi No.78692, Sidomulyo, Kec. Nanga Pinoh, Kabupaten Melawi, Kalimantan Barat 79672","Sidomulyo, Kec. Nanga Pinoh, Kabupaten Melawi",KALIMANTAN BARAT,79672.0,Indonesia,85133339286.0,,,-0.337383,111.7252124,https://maps.google.com/?cid=0x0:0xe03ec963e123b1dc,
hotel,hotel,Hotel Pinoh Permai,"MP8Q+5PV, Jalan Juang, Tanjung Niaga, Nanga Pinoh, Tj. Niaga, Melawi, Kabupaten Melawi, Kalimantan Barat 79672","Jalan Juang, Tanjung Niaga, Nanga Pinoh, Tj. Niaga, Melawi, Kabupaten Melawi",KALIMANTAN BARAT,79672.0,Indonesia,,,,-0.3345158,111.739297,https://maps.google.com/?cid=0x0:0x4909b5e2b89e4fb8,
hotel,hotel,Hotel Lima Bintang,"MP47+R6, Sidomulyo, Kec. Nanga Pinoh, Kabupaten Melawi, Kalimantan Barat 79671","Sidomulyo, Kec. Nanga Pinoh, Kabupaten Melawi",KALIMANTAN BARAT,79671.0,Indonesia,85117302258.0,,,-0.34294,111.71308,https://maps.google.com/?cid=0x0:0xf040fcc3d7a1f177,
hotel,hotel,Hotel Mulia,"MP6C+98F, Jl. Raya Propinsi, Sidomulyo, Kec. Nanga Pinoh, Kabupaten Melawi, Kalimantan Barat 79672","Jl. Raya Propinsi, Sidomulyo, Kec. Nanga Pinoh, Kabupaten Melawi",KALIMANTAN BARAT,79672.0,Indonesia,82150000502.0,,,-0.3390658,111.7208032,https://maps.google.com/?cid=0x0:0x9ce5781ca620b30b,
hotel,hotel,Hotel AGUNG,"Sidomulyo, Kec. Nanga Pinoh, Kabupaten Melawi, Kalimantan Barat 79672","Kec. Nanga Pinoh, Kabupaten Melawi",KALIMANTAN BARAT,79672.0,Indonesia,82156881888.0,,,-0.338936,111.7207851,https://maps.google.com/?cid=0x0:0x21fc04d075f01e51,
hotel,hotel,Kalimantan Barat 79674,"Kabupaten Melawi, Kalimantan Barat","Kabupaten Melawi, Kalimantan Barat",KALIMANTAN BARAT,,Indonesia,,,,-0.7723312,111.3798928,https://maps.google.com/?cid=0x0:0x6d8acf73897d9e8b,
hotel,hotel,Nite  Day Hotel Pontianak Nangapinoh,"Jl Provinsi Sintang No 9, Sidomulyo, Kec. Nanga Pinoh, Kabupaten Melawi, Kalimantan Barat 78672","Sidomulyo, Kec. Nanga Pinoh, Kabupaten Melawi",KALIMANTAN BARAT,78672.0,Indonesia,5682020386.0,,,-0.3460979,111.7112862,https://maps.google.com/?cid=0x0:0x665951374ce1722b,
hotel,hotel,Hotel Pinoh Permai,"MP8Q+5PV, Jalan Juang, Tanjung Niaga, Nanga Pinoh, Tj. Niaga, Melawi, Kabupaten Melawi, Kalimantan Barat 79672","Jalan Juang, Tanjung Niaga, Nanga Pinoh, Tj. Niaga, Melawi, Kabupaten Melawi",KALIMANTAN BARAT,79672.0,Indonesia,,,,-0.3345158,111.739297,https://maps.google.com/?cid=0x0:0x4909b5e2b89e4fb8,
hotel,Hotel,HJ. WAHDAH BIN SYAFI'I,"6H4Q+MC4, Bina Karya, Kec. Tanah Pinoh, Kabupaten Melawi, Kalimantan Barat 79674","Bina Karya, Kec. Tanah Pinoh, Kabupaten Melawi",KALIMANTAN BARAT,79674.0,Indonesia,85332593889.0,,,-0.7933715,111.5885649,https://maps.google.com/?cid=0x0:0x9f5941f968a75fca,
hotel,Hotel,"RUMAH MERTUA QU, AYAH RIDWAN BIN UDAN BIN SABTU DAN YASNA BIN SAHARMAN","5GW8+WRR, dsn Kenual 1, Loka Jaya, Kec. Tanah Pinoh, Kabupaten Melawi, Kalimantan Barat 79674","dsn Kenual 1, Loka Jaya, Kec. Tanah Pinoh, Kabupaten Melawi",KALIMANTAN BARAT,79674.0,Indonesia,,,,-0.8026295,111.5170196,https://maps.google.com/?cid=0x0:0x4d55e13424c6561a,
hotel,hotel,"Hotel Amadeus Nanga Pinoh, Melawi","Tj. Niaga, Kec. Nanga Pinoh, Kabupaten Melawi, Kalimantan Barat 79672","Kec. Nanga Pinoh, Kabupaten Melawi",KALIMANTAN BARAT,79672.0,Indonesia,82155783871.0,,,-0.3359193,111.740344,https://maps.google.com/?cid=0x0:0x9867fd3c3988f259,
restaurant,restaurant,Kalimantan Barat 79671,"Kabupaten Melawi, Kalimantan Barat","Kabupaten Melawi, Kalimantan Barat",KALIMANTAN BARAT,,Indonesia,,,,-0.4539656,111.5229817,https://maps.google.com/?cid=0x0:0xfc272e555b0cebaa,
restaurant,Makan Siang,RM SPESIAL 99,"PJ72+XH5, Jl. Lintas Kalimantan Poros Tengah, Batu Buil, Kec. Belimbing, Kabupaten Melawi, Kalimantan Barat 79671","Jl. Lintas Kalimantan Poros Tengah, Batu Buil, Kec. Belimbing, Kabupaten Melawi",KALIMANTAN BARAT,79671.0,Indonesia,81255673333.0,,,-0.2851059,111.6014999,https://maps.google.com/?cid=0x0:0x60851b70a5d3411a,
restaurant,Kafe,RM BUDI LUHUR,"Ds, Tiong Keranji, Kec. Belimbing Hulu, Kabupaten Melawi, Kalimantan Barat 79671","Tiong Keranji, Kec. Belimbing Hulu, Kabupaten Melawi",KALIMANTAN BARAT,79671.0,Indonesia,82153793668.0,,,-0.3690986,111.5292358,https://maps.google.com/?cid=0x0:0x9f31306810a5a2dc,
restaurant,Restoran,SHEN CHICKEN,"Jl. Lintas Kalimantan Poros Tengah, Batu Nanta, Kec. Belimbing, Kabupaten Melawi, Kalimantan Barat 79671","Batu Nanta, Kec. Belimbing, Kabupaten Melawi",KALIMANTAN BARAT,79671.0,Indonesia,82187337333.0,,,-0.2887953,111.6052303,https://maps.google.com/?cid=0x0:0x531960deaaeb3692,
restaurant,Hidangan Laut,Super Lezat,"Sidomulyo, Kec. Nanga Pinoh, Kabupaten Melawi, Kalimantan Barat 79672","Kec. Nanga Pinoh, Kabupaten Melawi",KALIMANTAN BARAT,79672.0,Indonesia,82352859683.0,,,-0.3366793,111.7257493,https://maps.google.com/?cid=0x0:0xbbd15398e6f6ceff,
restaurant,Padang,Rumah Makan,"Jl. Batu Buil, Batu Buil, Kec. Belimbing, Kabupaten Melawi, Kalimantan Barat 78761","Batu Buil, Kec. Belimbing, Kabupaten Melawi",KALIMANTAN BARAT,78761.0,Indonesia,85888567081.0,,,-0.2901624,111.6112533,https://maps.google.com/?cid=0x0:0x65466c5509979696,
restaurant,Padang,Masakan Padang Upik,"PJ65+4WF, Batu Buil, Kec. Belimbing, Kabupaten Melawi, Kalimantan Barat 79671","Batu Buil, Kec. Belimbing, Kabupaten Melawi",KALIMANTAN BARAT,79671.0,Indonesia,,,,-0.2896766,111.6098047,https://maps.google.com/?cid=0x0:0x8c4798fecb6088bc,
restaurant,Padang,RM.BAROKAH (Mbak Wit),"JGJH+R5V, Beloyang, Kec. Belimbing Hulu, Kabupaten Melawi, Kalimantan Barat 79671","Beloyang, Kec. Belimbing Hulu, Kabupaten Melawi",KALIMANTAN BARAT,79671.0,Indonesia,81347756633.0,,,-0.3678972,111.5279352,https://maps.google.com/?cid=0x0:0x68813b330da431eb,
restaurant,Kafe,Warung Bang Udin,"JMXH+QJ5, Jl. Lintas Kalimantan Poros Tengah, Labang, Kec. Belimbing, Kabupaten Melawi, Kalimantan Barat 79671","Jl. Lintas Kalimantan Poros Tengah, Labang, Kec. Belimbing, Kabupaten Melawi",KALIMANTAN BARAT,79671.0,Indonesia,81337725748.0,,,-0.3506178,111.679108,https://maps.google.com/?cid=0x0:0x4913939d23ad5534,
restaurant,Dapur Umum,Mie Baso Marno,"PJ64+7H5, Unnamed Road,, Batu Nanta, Kec. Belimbing, Kabupaten Melawi, Kalimantan Barat 79671","Unnamed Road,, Batu Nanta, Kec. Belimbing, Kabupaten Melawi",KALIMANTAN BARAT,79671.0,Indonesia,85651090048.0,,,-0.2893508,111.6064744,https://maps.google.com/?cid=0x0:0xcd317a5ee661b6f9,
restaurant,Pecel Lele,Lamongan mm dea,"Jalan Provinsi No.Km.10, Labang, Kec. Belimbing, Kabupaten Melawi, Kalimantan Barat 79671","Labang, Kec. Belimbing, Kabupaten Melawi",KALIMANTAN BARAT,79671.0,Indonesia,85752255873.0,,,-0.3505187,111.6790521,https://maps.google.com/?cid=0x0:0xcb138ec6d980a843,
restaurant,Restoran,Kafeel's Kitchen,"JMXH+F47, Nanga Menunuk, Kec. Belimbing, Kabupaten Melawi, Kalimantan Barat","Kabupaten Melawi, Kalimantan Barat",KALIMANTAN BARAT,,Indonesia,,,,-0.3513448,111.6777883,https://maps.google.com/?cid=0x0:0x611d0ee417ec037a,
restaurant,Pecel Lele,Warung Cak Mif Ayam Penyet,"PJ66+2G8, Jl. Lintas Kalimantan Poros Tengah, Batu Buil, Kec. Belimbing, Kabupaten Melawi, Kalimantan Barat 79671","Jl. Lintas Kalimantan Poros Tengah, Batu Buil, Kec. Belimbing, Kabupaten Melawi",KALIMANTAN BARAT,79671.0,Indonesia,82155555591.0,,,-0.289967,111.6113349,https://maps.google.com/?cid=0x0:0x31988102d9219790,
restaurant,Hidangan Laut,Cafe Putri Tanjung,"MP4V+R28, Jl. MTQ, Kenual, Kec. Nanga Pinoh, Kabupaten Melawi, Kalimantan Barat 79672","Jl. MTQ, Kenual, Kec. Nanga Pinoh, Kabupaten Melawi",KALIMANTAN BARAT,79672.0,Indonesia,,,,-0.3429646,111.7425925,https://maps.google.com/?cid=0x0:0xd2ef34ce49b5bfb7,
restaurant,,Bakso Prasetyo,"Jln. PT.SDK, Batu Buil, Kec. Belimbing, Kabupaten Melawi, Kalimantan Barat 79671","Batu Buil, Kec. Belimbing, Kabupaten Melawi",KALIMANTAN BARAT,79671.0,Indonesia,81347674945.0,,,-0.2896324,111.6064063,https://maps.google.com/?cid=0x0:0xb3dbe3c3dd20f780,
restaurant,Restoran,KEDAI MAKAN NASI KUNING,"MJH4+4H4, Jl. Lintas Kalimantan, Batu Buil, Kec. Belimbing, Kabupaten Melawi, Kalimantan Barat 79671","Jl. Lintas Kalimantan, Batu Buil, Kec. Belimbing, Kabupaten Melawi",KALIMANTAN BARAT,79671.0,Indonesia,,,,-0.322244,111.6064513,https://maps.google.com/?cid=0x0:0xf4388713401a63be,
restaurant,Restoran,ayam bakar sambel uleg,"MJH4+7GH, Batu Buil, Kec. Belimbing, Kabupaten Melawi, Kalimantan Barat 79671","Batu Buil, Kec. Belimbing, Kabupaten Melawi",KALIMANTAN BARAT,79671.0,Indonesia,,,,-0.3218151,111.6063694,https://maps.google.com/?cid=0x0:0x958d78af0f2c670e,
restaurant,Rumah Makan,Rm Tanjung Beringin,"MP9P+4VP, Jl. Juang, Tj. Niaga, Kec. Nanga Pinoh, Kabupaten Melawi, Kalimantan Barat 79672","Jl. Juang, Tj. Niaga, Kec. Nanga Pinoh, Kabupaten Melawi",KALIMANTAN BARAT,79672.0,Indonesia,82353855665.0,,,-0.3321723,111.7372049,https://maps.google.com/?cid=0x0:0x8122d52cc45a6968,
restaurant,Restoran,Harmonis 19,"MP8M+V63, Jl. Raya Propinsi, Sidomulyo, Kec. Nanga Pinoh, Kabupaten Melawi, Kalimantan Barat 79672","Jl. Raya Propinsi, Sidomulyo, Kec. Nanga Pinoh, Kabupaten Melawi",KALIMANTAN BARAT,79672.0,Indonesia,,,,-0.3329404,111.7330418,https://maps.google.com/?cid=0x0:0xd3f36dfeb3141223,
restaurant,Dapur Umum,Meliau,"PFCG+F4M, Belonsat, Kec. Belimbing, Kabupaten Melawi, Kalimantan Barat","Kabupaten Melawi, Kalimantan Barat",KALIMANTAN BARAT,,Indonesia,,,,-0.2787808,111.4752851,https://maps.google.com/?cid=0x0:0xfd6c919532613c2c,
restaurant,Brunch,Aqilla Resto,"JQV3+MC9, Paal, Kec. Nanga Pinoh, Kabupaten Melawi, Kalimantan Barat 79672","Paal, Kec. Nanga Pinoh, Kabupaten Melawi",KALIMANTAN BARAT,79672.0,Indonesia,85822328466.0,,,-0.3558446,111.7536042,https://maps.google.com/?cid=0x0:0xc92762b70070a50e,
restaurant,Kafe,Cafe Mika,"JPR2+VQF, Jl. Raya Propinsi, Sidomulyo, Kec. Nanga Pinoh, Kabupaten Melawi, Kalimantan Barat 79671","Jl. Raya Propinsi, Sidomulyo, Kec. Nanga Pinoh, Kabupaten Melawi",KALIMANTAN BARAT,79671.0,Indonesia,,,,-0.3578124,111.7019302,https://maps.google.com/?cid=0x0:0x5f7042f66a788f90,
restaurant,Rumah Makan,RM. ALAM RAYA  CAFE,"Sidomulyo, Kec. Nanga Pinoh, Kabupaten Melawi, Kalimantan Barat 79671","Kec. Nanga Pinoh, Kabupaten Melawi",KALIMANTAN BARAT,79671.0,Indonesia,85751496557.0,,,-0.3456981,111.7117336,https://maps.google.com/?cid=0x0:0x6531a78ea82426fe,
restaurant,Restoran,Lovisâ€™ Recipes,"MP4X+7WG, Jl. Kramat Raya, Paal, Kec. Nanga Pinoh, Kabupaten Melawi, Kalimantan Barat 79672","Jl. Kramat Raya, Paal, Kec. Nanga Pinoh, Kabupaten Melawi",KALIMANTAN BARAT,79672.0,Indonesia,81351514272.0,,,-0.3443423,111.7497933,https://maps.google.com/?cid=0x0:0x5c6d2f5e156e9c47,
restaurant,Seblak,Waroeng Belimbing,"Jl. Basuki No.60, RT.5/RW.6, Cilangkap, Kec. Cipayung, Kota Jakarta Timur, Daerah Khusus Ibukota Jakarta 13870","RT.5/RW.6, Cilangkap, Kec. Cipayung, Kota Jakarta Timur",KALIMANTAN BARAT,13870.0,Indonesia,895321739792.0,,,-6.3385746,106.9075235,https://maps.google.com/?cid=0x0:0xa719f377dcb8881c,
restaurant,restaurant,RM Belimbing Raya,"Jalan Raya 04 02 Bojongsari, Jalan Rt Ri'an 3, Serua, Kec. Bojongsari, Kota Depok, Jawa Barat 16517","Jalan Rt Ri'an 3, Serua, Kec. Bojongsari, Kota Depok",KALIMANTAN BARAT,16517.0,Indonesia,81282222452.0,,,-6.367324,106.735287,https://maps.google.com/?cid=0x0:0x644bfd134bc159c7,
restaurant,restaurant,Stand Belimbing,"8VQ6+5H3, Jl. Pertanian III, Bendungan, Kec. Ciawi, Kabupaten Bogor, Jawa Barat 16720","Jl. Pertanian III, Bendungan, Kec. Ciawi, Kabupaten Bogor",KALIMANTAN BARAT,16720.0,Indonesia,87887685976.0,,,-6.6621076,106.8614247,https://maps.google.com/?cid=0x0:0x2ece175fde52ee7,
restaurant,Kafe,RM BUDI LUHUR,"Ds, Tiong Keranji, Kec. Belimbing Hulu, Kabupaten Melawi, Kalimantan Barat 79671","Tiong Keranji, Kec. Belimbing Hulu, Kabupaten Melawi",KALIMANTAN BARAT,79671.0,Indonesia,82153793668.0,,,-0.3690986,111.5292358,https://maps.google.com/?cid=0x0:0x9f31306810a5a2dc,
restaurant,restaurant,Kec. Belimbing Hulu,"Kabupaten Melawi, Kalimantan Barat","Kabupaten Melawi, Kalimantan Barat",KALIMANTAN BARAT,,Indonesia,,,,-0.3702887,111.5294943,https://maps.google.com/?cid=0x0:0x26dc94245ead4c2a,
restaurant,Makan Siang,RM SPESIAL 99,"PJ72+XH5, Jl. Lintas Kalimantan Poros Tengah, Batu Buil, Kec. Belimbing, Kabupaten Melawi, Kalimantan Barat 79671","Jl. Lintas Kalimantan Poros Tengah, Batu Buil, Kec. Belimbing, Kabupaten Melawi",KALIMANTAN BARAT,79671.0,Indonesia,81255673333.0,,,-0.2851059,111.6014999,https://maps.google.com/?cid=0x0:0x60851b70a5d3411a,
restaurant,Padang,Rumah Makan,"Jl. Batu Buil, Batu Buil, Kec. Belimbing, Kabupaten Melawi, Kalimantan Barat 78761","Batu Buil, Kec. Belimbing, Kabupaten Melawi",KALIMANTAN BARAT,78761.0,Indonesia,85888567081.0,,,-0.2901624,111.6112533,https://maps.google.com/?cid=0x0:0x65466c5509979696,
restaurant,Padang,RM.BAROKAH (Mbak Wit),"JGJH+R5V, Beloyang, Kec. Belimbing Hulu, Kabupaten Melawi, Kalimantan Barat 79671","Beloyang, Kec. Belimbing Hulu, Kabupaten Melawi",KALIMANTAN BARAT,79671.0,Indonesia,81347756633.0,,,-0.3678972,111.5279352,https://maps.google.com/?cid=0x0:0x68813b330da431eb,
restaurant,Padang,Masakan Padang Upik,"PJ65+4WF, Batu Buil, Kec. Belimbing, Kabupaten Melawi, Kalimantan Barat 79671","Batu Buil, Kec. Belimbing, Kabupaten Melawi",KALIMANTAN BARAT,79671.0,Indonesia,,,,-0.2896766,111.6098047,https://maps.google.com/?cid=0x0:0x8c4798fecb6088bc,
restaurant,Restoran,Warung Makan KENDEDES,"JGJH+4MC, Beloyang, Kec. Belimbing Hulu, Kabupaten Melawi, Kalimantan Barat 79671","Beloyang, Kec. Belimbing Hulu, Kabupaten Melawi",KALIMANTAN BARAT,79671.0,Indonesia,85821105890.0,,,-0.3696793,111.5291265,https://maps.google.com/?cid=0x0:0xb214c84e25241545,
restaurant,Restoran,SHEN CHICKEN,"Jl. Lintas Kalimantan Poros Tengah, Batu Nanta, Kec. Belimbing, Kabupaten Melawi, Kalimantan Barat 79671","Batu Nanta, Kec. Belimbing, Kabupaten Melawi",KALIMANTAN BARAT,79671.0,Indonesia,82187337333.0,,,-0.2887953,111.6052303,https://maps.google.com/?cid=0x0:0x531960deaaeb3692,
restaurant,Kafe,Warkop Ashari,"Batu Buil, Kec. Belimbing, Kabupaten Melawi, Kalimantan Barat 79671","Kec. Belimbing, Kabupaten Melawi",KALIMANTAN BARAT,79671.0,Indonesia,81253585526.0,,,-0.2898178,111.6105865,https://maps.google.com/?cid=0x0:0xd48405f9890c8150,
restaurant,Kedai Kopi,Kedai Ungu Yani,"JGJH+2JG, Tiong Keranji, Kec. Belimbing Hulu, Kabupaten Melawi, Kalimantan Barat 79671","Tiong Keranji, Kec. Belimbing Hulu, Kabupaten Melawi",KALIMANTAN BARAT,79671.0,Indonesia,82154442431.0,,,-0.369938,111.529072,https://maps.google.com/?cid=0x0:0x65418ccd890cf22c,
restaurant,Dapur Umum,Mie Baso Marno,"PJ64+7H5, Unnamed Road,, Batu Nanta, Kec. Belimbing, Kabupaten Melawi, Kalimantan Barat 79671","Unnamed Road,, Batu Nanta, Kec. Belimbing, Kabupaten Melawi",KALIMANTAN BARAT,79671.0,Indonesia,85651090048.0,,,-0.2893508,111.6064744,https://maps.google.com/?cid=0x0:0xcd317a5ee661b6f9,
restaurant,Gereja,RUMAH HENDI,"MGJ5+8R, Beloyang, Kec. Belimbing Hulu, Kabupaten Melawi, Kalimantan Barat","Kabupaten Melawi, Kalimantan Barat",KALIMANTAN BARAT,,Indonesia,,,,-0.3191879,111.5095595,https://maps.google.com/?cid=0x0:0xc7d0b81a9f60b588,
restaurant,Kedai Kopi,Prima cafe buil,"PJ57+H56, Batu Buil, Kec. Belimbing, Kabupaten Melawi, Kalimantan Barat 79671","Batu Buil, Kec. Belimbing, Kabupaten Melawi",KALIMANTAN BARAT,79671.0,Indonesia,,,,-0.2910848,111.6128916,https://maps.google.com/?cid=0x0:0x117746ff22a726db,
restaurant,Kafe,WARUNK D'SAVQIN,"Jl. Raya, Pemuar, Kec. Belimbing, Kabupaten Melawi, Kalimantan Barat 79671","Pemuar, Kec. Belimbing, Kabupaten Melawi",KALIMANTAN BARAT,79671.0,Indonesia,81350055363.0,,,-0.3075547,111.6471377,https://maps.google.com/?cid=0x0:0x5c01bf1c3e3d8aee,
restaurant,Kafe,BLACK CAFE,"PHFQ+XRC, Jl. Lintas Kalimantan Poros Tengah, Batu Buil, Kec. Belimbing, Kabupaten Melawi, Kalimantan Barat 79671","Jl. Lintas Kalimantan Poros Tengah, Batu Buil, Kec. Belimbing, Kabupaten Melawi",KALIMANTAN BARAT,79671.0,Indonesia,85750228533.0,,,-0.2750518,111.5895309,https://maps.google.com/?cid=0x0:0xfe479514a91f9568,
restaurant,Kedai Kopi,warkop anomali,"PJ65+47W, Jl. Lintas Kalimantan Poros Tengah, Batu Buil, Kec. Belimbing, Kabupaten Melawi, Kalimantan Barat 79671","Jl. Lintas Kalimantan Poros Tengah, Batu Buil, Kec. Belimbing, Kabupaten Melawi",KALIMANTAN BARAT,79671.0,Indonesia,,,,-0.2896452,111.6082027,https://maps.google.com/?cid=0x0:0x3680a3ddc5985b82,
restaurant,,Putri Tunggal,"Batu Buil, Kec. Belimbing, Kabupaten Melawi, Kalimantan Barat 79671","Kec. Belimbing, Kabupaten Melawi",KALIMANTAN BARAT,79671.0,Indonesia,,,,-0.2898473,111.6062625,https://maps.google.com/?cid=0x0:0x3f6fd7b7e7709d53,
restaurant,Restoran,KEDAI MAKAN NASI KUNING,"MJH4+4H4, Jl. Lintas Kalimantan, Batu Buil, Kec. Belimbing, Kabupaten Melawi, Kalimantan Barat 79671","Jl. Lintas Kalimantan, Batu Buil, Kec. Belimbing, Kabupaten Melawi",KALIMANTAN BARAT,79671.0,Indonesia,,,,-0.322244,111.6064513,https://maps.google.com/?cid=0x0:0xf4388713401a63be,
restaurant,,Bakso Prasetyo,"Jln. PT.SDK, Batu Buil, Kec. Belimbing, Kabupaten Melawi, Kalimantan Barat 79671","Batu Buil, Kec. Belimbing, Kabupaten Melawi",KALIMANTAN BARAT,79671.0,Indonesia,81347674945.0,,,-0.2896324,111.6064063,https://maps.google.com/?cid=0x0:0xb3dbe3c3dd20f780,
restaurant,Pecel Lele,Warung Cak Mif Ayam Penyet,"PJ66+2G8, Jl. Lintas Kalimantan Poros Tengah, Batu Buil, Kec. Belimbing, Kabupaten Melawi, Kalimantan Barat 79671","Jl. Lintas Kalimantan Poros Tengah, Batu Buil, Kec. Belimbing, Kabupaten Melawi",KALIMANTAN BARAT,79671.0,Indonesia,82155555591.0,,,-0.289967,111.6113349,https://maps.google.com/?cid=0x0:0x31988102d9219790,
restaurant,restaurant,TERAS KOPI TIONG KERANJIK,"JGHH+9R2, Beloyang, Kec. Belimbing Hulu, Kabupaten Melawi, Kalimantan Barat 79671","Beloyang, Kec. Belimbing Hulu, Kabupaten Melawi",KALIMANTAN BARAT,79671.0,Indonesia,82151296913.0,,,-0.3716125,111.5295156,https://maps.google.com/?cid=0x0:0xc12592284d27ff6b,
restaurant,Kafe,Bang Din Cafe Simpang JUPE,"PHMH+6PP, Jl. Lintas Kalimantan Poros Tengah, Batu Nanta, Kec. Belimbing Hulu, Kabupaten Melawi, Kalimantan Barat 79671","Jl. Lintas Kalimantan Poros Tengah, Batu Nanta, Kec. Belimbing Hulu, Kabupaten Melawi",KALIMANTAN BARAT,79671.0,Indonesia,82261973208.0,,,-0.2669097,111.5793125,https://maps.google.com/?cid=0x0:0x28f4abd46d1abac7,
restaurant,Restoran,ayam bakar sambel uleg,"MJH4+7GH, Batu Buil, Kec. Belimbing, Kabupaten Melawi, Kalimantan Barat 79671","Batu Buil, Kec. Belimbing, Kabupaten Melawi",KALIMANTAN BARAT,79671.0,Indonesia,,,,-0.3218151,111.6063694,https://maps.google.com/?cid=0x0:0x958d78af0f2c670e,
restaurant,restaurant,Kalimantan Barat 79681,"Kabupaten Melawi, Kalimantan Barat","Kabupaten Melawi, Kalimantan Barat",KALIMANTAN BARAT,,Indonesia,,,,-0.5928174,111.9999435,https://maps.google.com/?cid=0x0:0x56ab64304e08062b,
restaurant,Restoran,Depot air minum dan RM Simpang Tiga,"H2J4+82, Nanga Ella Hilir, Kec. Ella Hilir, Kabupaten Melawi, Kalimantan Barat","Kabupaten Melawi, Kalimantan Barat",KALIMANTAN BARAT,,Indonesia,,,,-0.4192498,112.0052395,https://maps.google.com/?cid=0x0:0x27b7104fbcf39658,
restaurant,Kafe,KEDAI AMPEK KOTO,"H2P2+VVH, Nanga Pinoh - Ela Hilir, Nanga Ella Hilir, Kec. Ella Hilir, Kabupaten Melawi, Kalimantan Barat 79681","Nanga Pinoh - Ela Hilir, Nanga Ella Hilir, Kec. Ella Hilir, Kabupaten Melawi",KALIMANTAN BARAT,79681.0,Indonesia,,,,-0.4128162,112.0022485,https://maps.google.com/?cid=0x0:0x9f118d82830ef3aa,
restaurant,Nasi,Warung Makan,"H4G2+7XG, Nanga Nuak, Kec. Ella Hilir, Kabupaten Melawi, Kalimantan Barat 79681","Nanga Nuak, Kec. Ella Hilir, Kabupaten Melawi",KALIMANTAN BARAT,79681.0,Indonesia,,,,-0.4243213,112.1024678,https://maps.google.com/?cid=0x0:0x8a9184ce01ac15d7,
restaurant,Padang,Rumah Makan Rahayu Logpond SBK MHD,"H3V5+MGF, Popai, Kec. Ella Hilir, Kabupaten Melawi, Kalimantan Barat 79681","Popai, Kec. Ella Hilir, Kabupaten Melawi",KALIMANTAN BARAT,79681.0,Indonesia,852455430785.0,,,-0.4058225,112.0588108,https://maps.google.com/?cid=0x0:0xb9549bd732214038,
restaurant,Restoran,tory cafe,"J232+F74, Nanga Ella Hilir, Kec. Ella Hilir, Kabupaten Melawi, Kalimantan Barat 79681","Nanga Ella Hilir, Kec. Ella Hilir, Kabupaten Melawi",KALIMANTAN BARAT,79681.0,Indonesia,,,,-0.3963565,112.0007015,https://maps.google.com/?cid=0x0:0xde959b07979bb36e,
restaurant,Kafe,Coffe Dua Putra,"H2Q2+2Q4 Kantor Camat, Nanga Nyuruh, Kec. Ella Hilir, Kabupaten Melawi, Kalimantan Barat 79681","Nanga Nyuruh, Kec. Ella Hilir, Kabupaten Melawi",KALIMANTAN BARAT,79681.0,Indonesia,5252646000.0,,,-0.4124984,112.0019379,https://maps.google.com/?cid=0x0:0xbd01f65e76fab38a,
restaurant,Kafe,WARUNG MAKAN KAK SITI,"H2Q2+2MJ, Nanga Ella Hilir, Kec. Ella Hilir, Kabupaten Melawi, Kalimantan Barat 79681","Nanga Ella Hilir, Kec. Ella Hilir, Kabupaten Melawi",KALIMANTAN BARAT,79681.0,Indonesia,,,,-0.4124204,112.0016458,https://maps.google.com/?cid=0x0:0xeb6a477b57bd8352,
restaurant,Kedai Kopi,kedai kopi ella,"HXPX+QCH, Jl. Nanga Pinoh, Pelempai Jaya, Kec. Ella Hilir, Kabupaten Melawi, Kalimantan Barat 79681","Jl. Nanga Pinoh, Pelempai Jaya, Kec. Ella Hilir, Kabupaten Melawi",KALIMANTAN BARAT,79681.0,Indonesia,,,,-0.413058,111.9986023,https://maps.google.com/?cid=0x0:0xe5385b167062717c,
restaurant,Kafe,Ella hilir,"F3HW+448, Nanga Nyuruh, Kec. Ella Hilir, Kabupaten Melawi, Kalimantan Barat","Kabupaten Melawi, Kalimantan Barat",KALIMANTAN BARAT,,Indonesia,,,,-0.5222196,112.0953297,https://maps.google.com/?cid=0x0:0x5849e1c5e48775f6,
restaurant,restaurant,RM Pariaman,"H3V4+P67, Popai, Kec. Ella Hilir, Kabupaten Melawi, Kalimantan Barat 79681","Popai, Kec. Ella Hilir, Kabupaten Melawi",KALIMANTAN BARAT,79681.0,Indonesia,,,,-0.4057052,112.0555506,https://maps.google.com/?cid=0x0:0xccb8250fda6ab127,
restaurant,Kafe,Warung Pak Ishak,"H4G2+7XG, Nanga Nuak, Kec. Ella Hilir, Kabupaten Melawi, Kalimantan Barat 79681","Nanga Nuak, Kec. Ella Hilir, Kabupaten Melawi",KALIMANTAN BARAT,79681.0,Indonesia,,,,-0.4248533,112.1034783,https://maps.google.com/?cid=0x0:0x530bb292bcc55564,
restaurant,Komplek perumahan,Rumah Pak Paiman,"HXQQ+PQG, Pelempai Jaya, Kec. Ella Hilir, Kabupaten Melawi, Kalimantan Barat 79681","Pelempai Jaya, Kec. Ella Hilir, Kabupaten Melawi",KALIMANTAN BARAT,79681.0,Indonesia,,,,-0.4106892,111.9894448,https://maps.google.com/?cid=0x0:0xe39d4ed8f05213aa,
restaurant,Kafe,Warung Mak Joni,"J242+67Q, Unnamed Road,, Nanga Ella Hilir, Kec. Ella Hilir, Kabupaten Melawi, Kalimantan Barat 79681","Unnamed Road,, Nanga Ella Hilir, Kec. Ella Hilir, Kabupaten Melawi",KALIMANTAN BARAT,79681.0,Indonesia,85332425593.0,,,-0.3944,112.000749,https://maps.google.com/?cid=0x0:0xa7e19938950ba93c,
restaurant,Pecel Lele,Pecel lele Lamongan Pak De,"Nanga Ella Hilir, Kec. Ella Hilir, Kabupaten Melawi, Kalimantan Barat 79681","Kec. Ella Hilir, Kabupaten Melawi",KALIMANTAN BARAT,79681.0,Indonesia,81520309089.0,,,-0.4129609,112.0027099,https://maps.google.com/?cid=0x0:0x241e60d5c28b4863,
restaurant,Kafe,Warung Erlinda,"J599+XH4, Nanga Ella Hulu, Kec. Menukung, Kabupaten Melawi, Kalimantan Barat","Kabupaten Melawi, Kalimantan Barat",KALIMANTAN BARAT,,Indonesia,,,,-0.3801246,112.168946,https://maps.google.com/?cid=0x0:0x1524051b7de1527a,
restaurant,Kafe,Warkop  warung makan Pur/nunung,"H3V5+9WX, Unnamed Road, Popai, Kec. Ella Hilir, Kabupaten Melawi, Kalimantan Barat 79681","Unnamed Road, Popai, Kec. Ella Hilir, Kabupaten Melawi",KALIMANTAN BARAT,79681.0,Indonesia,,,,-0.4065105,112.0598637,https://maps.google.com/?cid=0x0:0x415633db993f5195,
restaurant,Bakso,Warung Bakso  Mie Ayam Barokah,"H3R6+W97, Unnamed Road, Popai, Kec. Ella Hilir, Kabupaten Melawi, Kalimantan Barat 79681","Unnamed Road, Popai, Kec. Ella Hilir, Kabupaten Melawi",KALIMANTAN BARAT,79681.0,Indonesia,82149926466.0,,,-0.407705,112.0609332,https://maps.google.com/?cid=0x0:0xc96e8ae9c2269143,
restaurant,Kedai Kopi,Toko Abai Latan,"HXQM+FCP, Jl. Nanga Pinoh, Pelempai Jaya, Kec. Ella Hilir, Kabupaten Melawi, Kalimantan Barat 79681","Jl. Nanga Pinoh, Pelempai Jaya, Kec. Ella Hilir, Kabupaten Melawi",KALIMANTAN BARAT,79681.0,Indonesia,,,,-0.4112758,111.9835862,https://maps.google.com/?cid=0x0:0x5b42360b8f62439,
restaurant,Restoran,Resto buntet,"Jl. Danau Sunter Utara No.16 blok C1, RT.7/RW.11, Sunter Agung, Kec. Tj. Priok, Jkt Utara, Daerah Khusus Ibukota Jakarta 14350","RT.7/RW.11, Sunter Agung, Kec. Tj. Priok, Jkt Utara",KALIMANTAN BARAT,14350.0,Indonesia,85973630888.0,,,-6.1390839,106.8640909,https://maps.google.com/?cid=0x0:0xfc3e67f08071691c,
restaurant,restaurant,Menukung,"Nanga Ella Hulu, Kec. Menukung, Kabupaten Melawi, Kalimantan Barat","Kabupaten Melawi, Kalimantan Barat",KALIMANTAN BARAT,,Indonesia,,,,-0.395657,112.1717,https://maps.google.com/?cid=0x0:0x8d04b3ff9fa0089c,
restaurant,restaurant,Nanga Pinoh,"Sidomulyo, Kec. Nanga Pinoh, Kabupaten Melawi, Kalimantan Barat","Kabupaten Melawi, Kalimantan Barat",KALIMANTAN BARAT,,Indonesia,,,,-0.331892,111.733398,https://maps.google.com/?cid=0x0:0x1b19b0cfdd74bdad,
restaurant,Hidangan Laut,Rumah Makan Seafood 69,"Jl. Juang No.Dalam, Tj. Niaga, Kec. Nanga Pinoh, Kabupaten Melawi, Kalimantan Barat 79672","Tj. Niaga, Kec. Nanga Pinoh, Kabupaten Melawi",KALIMANTAN BARAT,79672.0,Indonesia,,,,-0.3333206,111.7372761,https://maps.google.com/?cid=0x0:0xcfd7666de20a6e3c,
restaurant,Kedai Kopi,Freya Bar  Resto,"MP7R+F86, Jl. Juang, Paal, Nanga Pinoh, Melawi Regency, West Kalimantan 79672","Jl. Juang, Paal, Nanga Pinoh, Melawi Regency",KALIMANTAN BARAT,79672.0,Indonesia,,,,-0.33633,111.7407632,https://maps.google.com/?cid=0x0:0x129eee4916703668,
restaurant,Restoran,Aming Coffee Melawi,"MP7R+9F3, Jl. Juang, Tj. Niaga, Kec. Nanga Pinoh, Kabupaten Melawi, Kalimantan Barat 79672","Jl. Juang, Tj. Niaga, Kec. Nanga Pinoh, Kabupaten Melawi",KALIMANTAN BARAT,79672.0,Indonesia,,,,-0.3366176,111.7411632,https://maps.google.com/?cid=0x0:0x6e50bd5f3ec2ff,
restaurant,Restoran,Lovisâ€™ Recipes,"MP4X+7WG, Jl. Kramat Raya, Paal, Kec. Nanga Pinoh, Kabupaten Melawi, Kalimantan Barat 79672","Jl. Kramat Raya, Paal, Kec. Nanga Pinoh, Kabupaten Melawi",KALIMANTAN BARAT,79672.0,Indonesia,81351514272.0,,,-0.3443423,111.7497933,https://maps.google.com/?cid=0x0:0x5c6d2f5e156e9c47,
restaurant,Padang,RM Padang TALAGO,"MP8Q+CFG, Paal, Kec. Nanga Pinoh, Kabupaten Melawi, Kalimantan Barat 79672","Paal, Kec. Nanga Pinoh, Kabupaten Melawi",KALIMANTAN BARAT,79672.0,Indonesia,82155967187.0,,,-0.3339295,111.7386881,https://maps.google.com/?cid=0x0:0x39de769a99df5534,
restaurant,Kedai Kopi,Satu Waktu Coffee,"Jalan Provinsi, Sidomulyo, Kec. Nanga Pinoh, Kabupaten Melawi, Kalimantan Barat 79672","Sidomulyo, Kec. Nanga Pinoh, Kabupaten Melawi",KALIMANTAN BARAT,79672.0,Indonesia,,,,-0.3365587,111.7260961,https://maps.google.com/?cid=0x0:0x3ab156e9d18cd1d6,
restaurant,Padang,Andalas Rumah Makan,"MP9M+9CF, JL. Juang Nangapinoh, Sidomulyo, Kec. Nanga Pinoh, Kabupaten Melawi, Kalimantan Barat 79672","JL. Juang Nangapinoh, Sidomulyo, Kec. Nanga Pinoh, Kabupaten Melawi",KALIMANTAN BARAT,79672.0,Indonesia,56821449.0,,,-0.331562,111.733532,https://maps.google.com/?cid=0x0:0x29bc1ba79365830e,
restaurant,Padang,RM.VHADZAR,"JQH3+6XG, Jl. Lintas Kalimantan Poros Tengah, Kelakik, Kec. Nanga Pinoh, Kabupaten Melawi, Kalimantan Barat 79672","Jl. Lintas Kalimantan Poros Tengah, Kelakik, Kec. Nanga Pinoh, Kabupaten Melawi",KALIMANTAN BARAT,79672.0,Indonesia,82298350654.0,,,-0.3719283,111.7549684,https://maps.google.com/?cid=0x0:0xba28ccbcd3814bad,
restaurant,Padang,Rumah Mskan Padang Sera Naga Pinoh,"MP9M+69R, Sidomulyo, Kec. Nanga Pinoh, Kabupaten Melawi, Kalimantan Barat 79672","Sidomulyo, Kec. Nanga Pinoh, Kabupaten Melawi",KALIMANTAN BARAT,79672.0,Indonesia,895701712124.0,,,-0.331892,111.733398,https://maps.google.com/?cid=0x0:0x9c4a0dab1b479482,
restaurant,Kafe,Lokale Select Melawi,"sederetan Top Market, Jl. Juang No.KM 2, Paal, Kec. Nanga Pinoh, Kabupaten Melawi, Kalimantan Barat 79672","Jl. Juang No.KM 2, Paal, Kec. Nanga Pinoh, Kabupaten Melawi",KALIMANTAN BARAT,79672.0,Indonesia,85248966096.0,,,-0.3387412,111.7437498,https://maps.google.com/?cid=0x0:0xe662a6a89ddb4c88,
restaurant,Kafe,Wk.Pancong,"MP9M+H66, Sidomulyo, Kec. Nanga Pinoh, Kabupaten Melawi, Kalimantan Barat 79672","Sidomulyo, Kec. Nanga Pinoh, Kabupaten Melawi",KALIMANTAN BARAT,79672.0,Indonesia,85350448474.0,,,-0.3310907,111.7330032,https://maps.google.com/?cid=0x0:0xc590c3345f3c6689,
restaurant,Rumah Makan,PONDOK VM MELAWI,"Jalan Juang Km2, Dusun Tanah Tinggi No.Desa, Tj. Niaga, Kec. Nanga Pinoh, Kabupaten Melawi, Kalimantan Barat 79672","Dusun Tanah Tinggi No.Desa, Tj. Niaga, Kec. Nanga Pinoh, Kabupaten Melawi",KALIMANTAN BARAT,79672.0,Indonesia,82151254146.0,,,-0.3461104,111.7479314,https://maps.google.com/?cid=0x0:0x703f76b077ff4a1f,
restaurant,Restoran,Rumah makan kembar,"MP9M+69R, Jl, Sidomulyo, Kec. Nanga Pinoh, Kabupaten Melawi, Kalimantan Barat","Kabupaten Melawi, Kalimantan Barat",KALIMANTAN BARAT,,Indonesia,,,,-0.331892,111.733398,https://maps.google.com/?cid=0x0:0x4da4b211f8acdac4,
restaurant,Toko Swalayan,Mitra Buana,"MQ32+48P, Jl. Juang, Paal, Kec. Nanga Pinoh, Kabupaten Melawi, Kalimantan Barat 79672","Jl. Juang, Paal, Kec. Nanga Pinoh, Kabupaten Melawi",KALIMANTAN BARAT,79672.0,Indonesia,,,,-0.3471597,111.7508402,https://maps.google.com/?cid=0x0:0xf97eacf0990f6502,
restaurant,Kafe,Kedai Kopi Babe,"MP8M+R6X, Jl. Raya Propinsi, Sidomulyo, Kec. Nanga Pinoh, Kabupaten Melawi, Kalimantan Barat 79672","Jl. Raya Propinsi, Sidomulyo, Kec. Nanga Pinoh, Kabupaten Melawi",KALIMANTAN BARAT,79672.0,Indonesia,81230242937.0,,,-0.3328804,111.7330988,https://maps.google.com/?cid=0x0:0xd85f0a3dba428494,
restaurant,Kafe,YOUTH WARKOP BARBERSHOP,"MP9M+69R, Sidomulyo, Kec. Nanga Pinoh, Kabupaten Melawi, Kalimantan Barat","Kabupaten Melawi, Kalimantan Barat",KALIMANTAN BARAT,,Indonesia,,,,-0.331892,111.733398,https://maps.google.com/?cid=0x0:0x21c20590fb88705a,
restaurant,Stan Kopi,Kopi Manis Warung,"Jl. Beringin No.11, Sidomulyo, Kec. Nanga Pinoh, Kabupaten Melawi, Kalimantan Barat 79672","Sidomulyo, Kec. Nanga Pinoh, Kabupaten Melawi",KALIMANTAN BARAT,79672.0,Indonesia,56821201.0,,,-0.331562,111.733704,https://maps.google.com/?cid=0x0:0x3e057f5cf5926a63,
restaurant,Pecel Lele,Lamongan dan seafood nova,"Jl. Juang No.Km. 2, Paal, Kec. Nanga Pinoh, Kabupaten Melawi, Kalimantan Barat 79672","Paal, Kec. Nanga Pinoh, Kabupaten Melawi",KALIMANTAN BARAT,79672.0,Indonesia,,,,-0.3439788,111.746595,https://maps.google.com/?cid=0x0:0xf4c8028b3b64344,
restaurant,Kantor Perusahaan,BMKG Melawi,"Bandara, Kec. Nanga Pinoh, Kabupaten Melawi, Kalimantan Barat 79672","Kec. Nanga Pinoh, Kabupaten Melawi",KALIMANTAN BARAT,79672.0,Indonesia,8115666675.0,,,-0.3475544,111.7503011,https://maps.google.com/?cid=0x0:0xdf2fc495720f73d,
restaurant,Padang,Rumah Makan Kangmas,"MP8M+Q59, Jl. Raya Propinsi, Sidomulyo, Kec. Nanga Pinoh, Kabupaten Melawi, Kalimantan Barat 79672","Jl. Raya Propinsi, Sidomulyo, Kec. Nanga Pinoh, Kabupaten Melawi",KALIMANTAN BARAT,79672.0,Indonesia,,,,-0.3330765,111.7329855,https://maps.google.com/?cid=0x0:0x1e149604c2faa5cc,
restaurant,Kafe,Kedai Gisella,"MP5W+M24, Jl. Juang, Kenual, Kec. Nanga Pinoh, Kabupaten Melawi, Kalimantan Barat 79672","Jl. Juang, Kenual, Kec. Nanga Pinoh, Kabupaten Melawi",KALIMANTAN BARAT,79672.0,Indonesia,85332859666.0,,,-0.3408672,111.7450788,https://maps.google.com/?cid=0x0:0xa7f67d9ccca4a42,
restaurant,Kafe,LUUCA NANGA PINOH,"MP6V+HFP, Paal, Kec. Nanga Pinoh, Kabupaten Melawi, Kalimantan Barat 79672","Paal, Kec. Nanga Pinoh, Kabupaten Melawi",KALIMANTAN BARAT,79672.0,Indonesia,,,,-0.3385308,111.7436951,https://maps.google.com/?cid=0x0:0x51675b7c7558cb27,
restaurant,restaurant,Kalimantan Barat 79672,"Kabupaten Melawi, Kalimantan Barat","Kabupaten Melawi, Kalimantan Barat",KALIMANTAN BARAT,,Indonesia,,,,-0.4530658,111.8091625,https://maps.google.com/?cid=0x0:0xf8a34da63da634fa,
restaurant,Hidangan Laut,Super Lezat,"Sidomulyo, Kec. Nanga Pinoh, Kabupaten Melawi, Kalimantan Barat 79672","Kec. Nanga Pinoh, Kabupaten Melawi",KALIMANTAN BARAT,79672.0,Indonesia,82352859683.0,,,-0.3366793,111.7257493,https://maps.google.com/?cid=0x0:0xbbd15398e6f6ceff,
restaurant,Restoran,Serindu sekopii,"MP4V+R8R, Jl. H.A. Rani, Kenual, Kec. Nanga Pinoh, Kabupaten Melawi, Kalimantan Barat 79672","Jl. H.A. Rani, Kenual, Kec. Nanga Pinoh, Kabupaten Melawi",KALIMANTAN BARAT,79672.0,Indonesia,,,,-0.3428875,111.7432697,https://maps.google.com/?cid=0x0:0xaf8cdd4973e26dee,
restaurant,Kafe,Kantin Sriwijaya,"MQ42+92Q, Paal, Kec. Nanga Pinoh, Kabupaten Melawi, Kalimantan Barat 79672","Paal, Kec. Nanga Pinoh, Kabupaten Melawi",KALIMANTAN BARAT,79672.0,Indonesia,85346668015.0,,,-0.3440449,111.7500993,https://maps.google.com/?cid=0x0:0x8344a618c6775025,
restaurant,Hidangan Laut,Rumah Makan Seafood 69,"Jl. Juang No.Dalam, Tj. Niaga, Kec. Nanga Pinoh, Kabupaten Melawi, Kalimantan Barat 79672","Tj. Niaga, Kec. Nanga Pinoh, Kabupaten Melawi",KALIMANTAN BARAT,79672.0,Indonesia,,,,-0.3333206,111.7372761,https://maps.google.com/?cid=0x0:0xcfd7666de20a6e3c,
restaurant,Rumah Makan,RM. Vegetarian AHEN,"MP8Q+RRC, Paal, Kec. Nanga Pinoh, Kabupaten Melawi, Kalimantan Barat 79672","Paal, Kec. Nanga Pinoh, Kabupaten Melawi",KALIMANTAN BARAT,79672.0,Indonesia,,,,-0.3329468,111.7395116,https://maps.google.com/?cid=0x0:0x9f8b14d5863cf4e1,
restaurant,Restoran,rumah makan khas pontianak,"MP8M+Q6J, Jl. Raya Propinsi, Sidomulyo, Kec. Nanga Pinoh, Kabupaten Melawi, Kalimantan Barat 79672","Jl. Raya Propinsi, Sidomulyo, Kec. Nanga Pinoh, Kabupaten Melawi",KALIMANTAN BARAT,79672.0,Indonesia,,,,-0.333042,111.7330019,https://maps.google.com/?cid=0x0:0xa53c8831c8e44bf9,
restaurant,Brunch,Aqilla Resto,"JQV3+MC9, Paal, Kec. Nanga Pinoh, Kabupaten Melawi, Kalimantan Barat 79672","Paal, Kec. Nanga Pinoh, Kabupaten Melawi",KALIMANTAN BARAT,79672.0,Indonesia,85822328466.0,,,-0.3558446,111.7536042,https://maps.google.com/?cid=0x0:0xc92762b70070a50e,
restaurant,Hidangan Laut,Cafe Putri Tanjung,"MP4V+R28, Jl. MTQ, Kenual, Kec. Nanga Pinoh, Kabupaten Melawi, Kalimantan Barat 79672","Jl. MTQ, Kenual, Kec. Nanga Pinoh, Kabupaten Melawi",KALIMANTAN BARAT,79672.0,Indonesia,,,,-0.3429646,111.7425925,https://maps.google.com/?cid=0x0:0xd2ef34ce49b5bfb7,
restaurant,Padang,Rm. Tanjung Beringin 2,"Paal, Kec. Nanga Pinoh, Kabupaten Melawi, Kalimantan Barat 79672","Kec. Nanga Pinoh, Kabupaten Melawi",KALIMANTAN BARAT,79672.0,Indonesia,,,,-0.3570413,111.7539026,https://maps.google.com/?cid=0x0:0x6341ab53d7717398,
restaurant,Kedai Kopi,Kopi Dari Hati  Toast Melawi,"Jl Juang, Depan Bank Kalbar, Kec. Nanga Pinoh, Kalimantan Barat 79672","Depan Bank Kalbar, Kec. Nanga Pinoh",KALIMANTAN BARAT,79672.0,Indonesia,85245779914.0,,,-0.3354942,111.7400928,https://maps.google.com/?cid=0x0:0xa63ac0fc42ce9517,
restaurant,Restoran,Rumah Makan Lina,"MP9Q+F5W, Paal, Kec. Nanga Pinoh, Kabupaten Melawi, Kalimantan Barat 79672","Paal, Kec. Nanga Pinoh, Kabupaten Melawi",KALIMANTAN BARAT,79672.0,Indonesia,,,,-0.3312597,111.7379435,https://maps.google.com/?cid=0x0:0x43b086aeccdafa8e,
restaurant,Mi,Bakmie 899,"Jl. Kenanga, Paal, Kec. Nanga Pinoh, Kabupaten Melawi, Kalimantan Barat 79672","Paal, Kec. Nanga Pinoh, Kabupaten Melawi",KALIMANTAN BARAT,79672.0,Indonesia,,,,-0.3331357,111.7392107,https://maps.google.com/?cid=0x0:0x25dc6d53e23d370f,
restaurant,Mi,M  Thee Resto,"MP6C+9V7, Sidomulyo, Kec. Nanga Pinoh, Kabupaten Melawi, Kalimantan Barat 79672","Sidomulyo, Kec. Nanga Pinoh, Kabupaten Melawi",KALIMANTAN BARAT,79672.0,Indonesia,,,,-0.3390804,111.7221615,https://maps.google.com/?cid=0x0:0xc90ad387fd4960f1,
restaurant,Kedai Kopi,Freya Bar  Resto,"MP7R+F86, Jl. Juang, Paal, Nanga Pinoh, Melawi Regency, West Kalimantan 79672","Jl. Juang, Paal, Nanga Pinoh, Melawi Regency",KALIMANTAN BARAT,79672.0,Indonesia,,,,-0.33633,111.7407632,https://maps.google.com/?cid=0x0:0x129eee4916703668,
restaurant,Sesuai untuk keluarga,Love kafe resto,"MP5V+GWX, Kenual, Kec. Nanga Pinoh, Kabupaten Melawi, Kalimantan Barat 79672","Kenual, Kec. Nanga Pinoh, Kabupaten Melawi",KALIMANTAN BARAT,79672.0,Indonesia,,,,-0.3411354,111.7448478,https://maps.google.com/?cid=0x0:0x208f9345af05df20,
restaurant,Mi,Nikkori Udon Ramen,"Jl. Juang, Paal, Kec. Nanga Pinoh, Kabupaten Melawi, Kalimantan Barat 79672","Paal, Kec. Nanga Pinoh, Kabupaten Melawi",KALIMANTAN BARAT,79672.0,Indonesia,82157038032.0,,,-0.3469195,111.7504336,https://maps.google.com/?cid=0x0:0x16f5f42df57018d3,
restaurant,Indonesia,Dyan Kuliner,"MP4W+HM9, Jl. Juang, Paal, Kec. Nanga Pinoh, Kabupaten Melawi, Kalimantan Barat 79672","Jl. Juang, Paal, Kec. Nanga Pinoh, Kabupaten Melawi",KALIMANTAN BARAT,79672.0,Indonesia,81352969049.0,,,-0.3435784,111.7467233,https://maps.google.com/?cid=0x0:0x591a881bce037f75,
restaurant,Ayam Goreng,Rocket Chicken Nanga Pinoh,"MP7R+Q3M, Tj. Niaga, Kec. Nanga Pinoh, Kabupaten Melawi, Kalimantan Barat 79672","Tj. Niaga, Kec. Nanga Pinoh, Kabupaten Melawi",KALIMANTAN BARAT,79672.0,Indonesia,,,,-0.3355357,111.7401604,https://maps.google.com/?cid=0x0:0x1d142f98b8190916,
restaurant,Kedai Kopi,La Neira Kitchen  Coffee,"Jalan Juang Km 2, Gg. H. Abdul Manan No.2, Kenual, Kec. Nanga Pinoh, Kabupaten Melawi, Kalimantan Barat 79672","Gg. H. Abdul Manan No.2, Kenual, Kec. Nanga Pinoh, Kabupaten Melawi",KALIMANTAN BARAT,79672.0,Indonesia,87883000911.0,,,-0.3416378,111.7450503,https://maps.google.com/?cid=0x0:0x14e7d86db4a84063,
restaurant,Restoran,Lovisâ€™ Recipes,"MP4X+7WG, Jl. Kramat Raya, Paal, Kec. Nanga Pinoh, Kabupaten Melawi, Kalimantan Barat 79672","Jl. Kramat Raya, Paal, Kec. Nanga Pinoh, Kabupaten Melawi",KALIMANTAN BARAT,79672.0,Indonesia,81351514272.0,,,-0.3443423,111.7497933,https://maps.google.com/?cid=0x0:0x5c6d2f5e156e9c47,
restaurant,Padang,Pondok Lesehan Ananda,"MP8J+G36, Jl. Lintas Kalimantan Poros Tengah, Sidomulyo, Kec. Nanga Pinoh, Kabupaten Melawi, Kalimantan Barat 79672","Jl. Lintas Kalimantan Poros Tengah, Sidomulyo, Kec. Nanga Pinoh, Kabupaten Melawi",KALIMANTAN BARAT,79672.0,Indonesia,81256627878.0,,,-0.3337098,111.7301476,https://maps.google.com/?cid=0x0:0x59f745db394fb293,
restaurant,Mi,Mie n You,"MQ22+MH4, Jl. Provinsi Kota, Paal, Kec. Nanga Pinoh, Kabupaten Melawi, Kalimantan Barat 79672","Jl. Provinsi Kota, Paal, Kec. Nanga Pinoh, Kabupaten Melawi",KALIMANTAN BARAT,79672.0,Indonesia,82255910172.0,,,-0.3483628,111.7514477,https://maps.google.com/?cid=0x0:0x5e0477f9cbeac411,
restaurant,Kedai Kopi,HC Caffe  Resto,"JQV5+X2C, Paal, Kec. Nanga Pinoh, Kabupaten Melawi, Kalimantan Barat 79672","Paal, Kec. Nanga Pinoh, Kabupaten Melawi",KALIMANTAN BARAT,79672.0,Indonesia,,,,-0.3550568,111.7575034,https://maps.google.com/?cid=0x0:0x8db91e0fc9f1d023,
restaurant,restaurant,PONDOK ARJUNA 2,"JQF5+MM3, Jl. Lintas Kalimantan Poros Tengah, Kelakik, Kec. Nanga Pinoh, Kabupaten Melawi, Kalimantan Barat 79672","Jl. Lintas Kalimantan Poros Tengah, Kelakik, Kec. Nanga Pinoh, Kabupaten Melawi",KALIMANTAN BARAT,79672.0,Indonesia,,,,-0.3758719,111.7591527,https://maps.google.com/?cid=0x0:0xacffab5702d1859a,
restaurant,Padang,Warung Gado Gado,"JQR3+JWV, Kelakik, Kec. Nanga Pinoh, Kabupaten Melawi, Kalimantan Barat 79672","Kelakik, Kec. Nanga Pinoh, Kabupaten Melawi",KALIMANTAN BARAT,79672.0,Indonesia,,,,-0.3583827,111.7547887,https://maps.google.com/?cid=0x0:0x3a63202733f163b3,
restaurant,restaurant,Kalimantan Barat 79672,"Kabupaten Melawi, Kalimantan Barat","Kabupaten Melawi, Kalimantan Barat",KALIMANTAN BARAT,,Indonesia,,,,-0.4530658,111.8091625,https://maps.google.com/?cid=0x0:0xf8a34da63da634fa,
restaurant,Hidangan Laut,Super Lezat,"Sidomulyo, Kec. Nanga Pinoh, Kabupaten Melawi, Kalimantan Barat 79672","Kec. Nanga Pinoh, Kabupaten Melawi",KALIMANTAN BARAT,79672.0,Indonesia,82352859683.0,,,-0.3366793,111.7257493,https://maps.google.com/?cid=0x0:0xbbd15398e6f6ceff,
restaurant,Brunch,Aqilla Resto,"JQV3+MC9, Paal, Kec. Nanga Pinoh, Kabupaten Melawi, Kalimantan Barat 79672","Paal, Kec. Nanga Pinoh, Kabupaten Melawi",KALIMANTAN BARAT,79672.0,Indonesia,85822328466.0,,,-0.3558446,111.7536042,https://maps.google.com/?cid=0x0:0xc92762b70070a50e,
restaurant,restaurant,Republik Lamongan,"Jl. Kramat Raya No.2, Paal, Kec. Nanga Pinoh, Kabupaten Melawi, Kalimantan Barat 79672","Paal, Kec. Nanga Pinoh, Kabupaten Melawi",KALIMANTAN BARAT,79672.0,Indonesia,,,,-0.3450561,111.7486928,https://maps.google.com/?cid=0x0:0x32658b2964309237,
restaurant,Hidangan Laut,Cafe Putri Tanjung,"MP4V+R28, Jl. MTQ, Kenual, Kec. Nanga Pinoh, Kabupaten Melawi, Kalimantan Barat 79672","Jl. MTQ, Kenual, Kec. Nanga Pinoh, Kabupaten Melawi",KALIMANTAN BARAT,79672.0,Indonesia,,,,-0.3429646,111.7425925,https://maps.google.com/?cid=0x0:0xd2ef34ce49b5bfb7,
restaurant,Padang,Rm. Tanjung Beringin 2,"Paal, Kec. Nanga Pinoh, Kabupaten Melawi, Kalimantan Barat 79672","Kec. Nanga Pinoh, Kabupaten Melawi",KALIMANTAN BARAT,79672.0,Indonesia,,,,-0.3570413,111.7539026,https://maps.google.com/?cid=0x0:0x6341ab53d7717398,
restaurant,Kedai Kopi,Kopi Dari Hati  Toast Melawi,"Jl Juang, Depan Bank Kalbar, Kec. Nanga Pinoh, Kalimantan Barat 79672","Depan Bank Kalbar, Kec. Nanga Pinoh",KALIMANTAN BARAT,79672.0,Indonesia,85245779914.0,,,-0.3354942,111.7400928,https://maps.google.com/?cid=0x0:0xa63ac0fc42ce9517,
restaurant,Kafe,Kantin Sriwijaya,"MQ42+92Q, Paal, Kec. Nanga Pinoh, Kabupaten Melawi, Kalimantan Barat 79672","Paal, Kec. Nanga Pinoh, Kabupaten Melawi",KALIMANTAN BARAT,79672.0,Indonesia,85346668015.0,,,-0.3440449,111.7500993,https://maps.google.com/?cid=0x0:0x8344a618c6775025,
restaurant,Rumah Makan,RM. Vegetarian AHEN,"MP8Q+RRC, Paal, Kec. Nanga Pinoh, Kabupaten Melawi, Kalimantan Barat 79672","Paal, Kec. Nanga Pinoh, Kabupaten Melawi",KALIMANTAN BARAT,79672.0,Indonesia,,,,-0.3329468,111.7395116,https://maps.google.com/?cid=0x0:0x9f8b14d5863cf4e1,
restaurant,Kedai Kopi,Freya Bar  Resto,"MP7R+F86, Jl. Juang, Paal, Nanga Pinoh, Melawi Regency, West Kalimantan 79672","Jl. Juang, Paal, Nanga Pinoh, Melawi Regency",KALIMANTAN BARAT,79672.0,Indonesia,,,,-0.33633,111.7407632,https://maps.google.com/?cid=0x0:0x129eee4916703668,
restaurant,Mi,Bakmie 899,"Jl. Kenanga, Paal, Kec. Nanga Pinoh, Kabupaten Melawi, Kalimantan Barat 79672","Paal, Kec. Nanga Pinoh, Kabupaten Melawi",KALIMANTAN BARAT,79672.0,Indonesia,,,,-0.3331357,111.7392107,https://maps.google.com/?cid=0x0:0x25dc6d53e23d370f,
restaurant,Restoran,Rumah Makan Lina,"MP9Q+F5W, Paal, Kec. Nanga Pinoh, Kabupaten Melawi, Kalimantan Barat 79672","Paal, Kec. Nanga Pinoh, Kabupaten Melawi",KALIMANTAN BARAT,79672.0,Indonesia,,,,-0.3312597,111.7379435,https://maps.google.com/?cid=0x0:0x43b086aeccdafa8e,
restaurant,Sesuai untuk keluarga,Love kafe resto,"MP5V+GWX, Kenual, Kec. Nanga Pinoh, Kabupaten Melawi, Kalimantan Barat 79672","Kenual, Kec. Nanga Pinoh, Kabupaten Melawi",KALIMANTAN BARAT,79672.0,Indonesia,,,,-0.3411354,111.7448478,https://maps.google.com/?cid=0x0:0x208f9345af05df20,
restaurant,Mi,M  Thee Resto,"MP6C+9V7, Sidomulyo, Kec. Nanga Pinoh, Kabupaten Melawi, Kalimantan Barat 79672","Sidomulyo, Kec. Nanga Pinoh, Kabupaten Melawi",KALIMANTAN BARAT,79672.0,Indonesia,,,,-0.3390804,111.7221615,https://maps.google.com/?cid=0x0:0xc90ad387fd4960f1,
restaurant,Mi,Nikkori Udon Ramen,"Jl. Juang, Paal, Kec. Nanga Pinoh, Kabupaten Melawi, Kalimantan Barat 79672","Paal, Kec. Nanga Pinoh, Kabupaten Melawi",KALIMANTAN BARAT,79672.0,Indonesia,82157038032.0,,,-0.3469195,111.7504336,https://maps.google.com/?cid=0x0:0x16f5f42df57018d3,
restaurant,Restoran,Nasi Uduk DP,"Jl. Kramat Raya No.168, Paal, Kec. Nanga Pinoh, Kabupaten Melawi, Kalimantan Barat 78672","Paal, Kec. Nanga Pinoh, Kabupaten Melawi",KALIMANTAN BARAT,78672.0,Indonesia,81218873700.0,,,-0.3437347,111.7505737,https://maps.google.com/?cid=0x0:0x376e7e838c664f3b,
restaurant,restaurant,PONDOK ARJUNA 2,"JQF5+MM3, Jl. Lintas Kalimantan Poros Tengah, Kelakik, Kec. Nanga Pinoh, Kabupaten Melawi, Kalimantan Barat 79672","Jl. Lintas Kalimantan Poros Tengah, Kelakik, Kec. Nanga Pinoh, Kabupaten Melawi",KALIMANTAN BARAT,79672.0,Indonesia,,,,-0.3758719,111.7591527,https://maps.google.com/?cid=0x0:0xacffab5702d1859a,
restaurant,Restoran,Lovisâ€™ Recipes,"MP4X+7WG, Jl. Kramat Raya, Paal, Kec. Nanga Pinoh, Kabupaten Melawi, Kalimantan Barat 79672","Jl. Kramat Raya, Paal, Kec. Nanga Pinoh, Kabupaten Melawi",KALIMANTAN BARAT,79672.0,Indonesia,81351514272.0,,,-0.3443423,111.7497933,https://maps.google.com/?cid=0x0:0x5c6d2f5e156e9c47,
restaurant,Indonesia,Dyan Kuliner,"MP4W+HM9, Jl. Juang, Paal, Kec. Nanga Pinoh, Kabupaten Melawi, Kalimantan Barat 79672","Jl. Juang, Paal, Kec. Nanga Pinoh, Kabupaten Melawi",KALIMANTAN BARAT,79672.0,Indonesia,81352969049.0,,,-0.3435784,111.7467233,https://maps.google.com/?cid=0x0:0x591a881bce037f75,
restaurant,Mi,Mie n You,"MQ22+MH4, Jl. Provinsi Kota, Paal, Kec. Nanga Pinoh, Kabupaten Melawi, Kalimantan Barat 79672","Jl. Provinsi Kota, Paal, Kec. Nanga Pinoh, Kabupaten Melawi",KALIMANTAN BARAT,79672.0,Indonesia,82255910172.0,,,-0.3483628,111.7514477,https://maps.google.com/?cid=0x0:0x5e0477f9cbeac411,
restaurant,Restoran,Aming Coffee Melawi,"MP7R+9F3, Jl. Juang, Tj. Niaga, Kec. Nanga Pinoh, Kabupaten Melawi, Kalimantan Barat 79672","Jl. Juang, Tj. Niaga, Kec. Nanga Pinoh, Kabupaten Melawi",KALIMANTAN BARAT,79672.0,Indonesia,,,,-0.3366176,111.7411632,https://maps.google.com/?cid=0x0:0x6e50bd5f3ec2ff,
restaurant,Padang,Warung Gado Gado,"JQR3+JWV, Kelakik, Kec. Nanga Pinoh, Kabupaten Melawi, Kalimantan Barat 79672","Kelakik, Kec. Nanga Pinoh, Kabupaten Melawi",KALIMANTAN BARAT,79672.0,Indonesia,,,,-0.3583827,111.7547887,https://maps.google.com/?cid=0x0:0x3a63202733f163b3,
restaurant,restaurant,Kalimantan Barat 79673,"Kec. Sayan, Kabupaten Melawi, Kalimantan Barat","Kabupaten Melawi, Kalimantan Barat",KALIMANTAN BARAT,,Indonesia,,,,-0.7351798,111.7137694,https://maps.google.com/?cid=0x0:0x6560f1dffd0c539e,
restaurant,restaurant,Sayan,"Kecamatan Ubud, Kabupaten Gianyar, Bali","Kabupaten Gianyar, Bali",KALIMANTAN BARAT,,Indonesia,,,,-8.5090428,115.2452322,https://maps.google.com/?cid=0x0:0x5030bfbca830f60,
restaurant,restaurant,LAMONGAN CAK NUR,"8M53+FMJ, Nanga Sayan, Kec. Sayan, Kabupaten Melawi, Kalimantan Barat","Kabupaten Melawi, Kalimantan Barat",KALIMANTAN BARAT,,Indonesia,,,,-0.6912917,111.6541483,https://maps.google.com/?cid=0x0:0x8a19b2abbb2b8ed4,
restaurant,restaurant,LAMONGAN CAK NUR,"7M7V+252, Lkr. Indah, Kec. Sayan, Kabupaten Melawi, Kalimantan Barat 79673","Lkr. Indah, Kec. Sayan, Kabupaten Melawi",KALIMANTAN BARAT,79673.0,Indonesia,,,,-0.7374967,111.692902,https://maps.google.com/?cid=0x0:0xfb8fd029c703757a,
restaurant,Restoran,RM Arotomoro Bu De,"7M7V+252, Lkr. Indah, Kec. Sayan, Kabupaten Melawi, Kalimantan Barat 79673","Lkr. Indah, Kec. Sayan, Kabupaten Melawi",KALIMANTAN BARAT,79673.0,Indonesia,,,,-0.7374967,111.692902,https://maps.google.com/?cid=0x0:0x2347d6e6f7df642d,
restaurant,Pembangunan Perumahan,Nanga raku,"6QMW+2QW, Dusun kepayang mekar, Nanga Raku, Kec. Sayan, Kabupaten Melawi","Kabupaten Melawi, Kalimantan Barat",KALIMANTAN BARAT,,Indonesia,,,,-0.7673936,111.7969679,https://maps.google.com/?cid=0x0:0xa3ce2cb18b9d4ca4,
restaurant,Rumah Makan,RM. PODOMORO,"Jl. provinsi baru No.KM 40, Nanga Pintas, Kec. Pinoh Sel., Kabupaten Melawi, Kalimantan Barat 79677","Nanga Pintas, Kec. Pinoh Sel., Kabupaten Melawi",KALIMANTAN BARAT,79677.0,Indonesia,,,,-0.6185785,111.7674836,https://maps.google.com/?cid=0x0:0x4e04baac420dd87d,
restaurant,Indonesia,Cafe Ariyan,"6G3V+QF5, Batu Begigi, Kec. Tanah Pinoh, Kabupaten Melawi, Kalimantan Barat 79674","Batu Begigi, Kec. Tanah Pinoh, Kabupaten Melawi",KALIMANTAN BARAT,79674.0,Indonesia,,,,-0.7956102,111.5437388,https://maps.google.com/?cid=0x0:0x7c758bf85a988f9b,
restaurant,Makanan Kecil,Penginapan empat putri,"Batu Begigi, Kec. Tanah Pinoh, Kabupaten Melawi, Kalimantan Barat 79674","Kec. Tanah Pinoh, Kabupaten Melawi",KALIMANTAN BARAT,79674.0,Indonesia,85246522427.0,,,-0.7934244,111.5527682,https://maps.google.com/?cid=0x0:0x5fb965ea7ca66f67,
restaurant,Sarapan,RUMAH MAKAN PAK MENG SOKAN,"Sepakat, Sokan, Kabupaten Melawi, Kalimantan Barat 79674","Sokan, Kabupaten Melawi",KALIMANTAN BARAT,79674.0,Indonesia,81298733701.0,,,-0.9053898,111.4982938,https://maps.google.com/?cid=0x0:0x81d4cd4368efe51c,
restaurant,restaurant,Kedai Seblak Nusa,"Jl. Raya, Batu Begigi, Kec. Tanah Pinoh, Kabupaten Melawi, Kalimantan Barat","Kabupaten Melawi, Kalimantan Barat",KALIMANTAN BARAT,,Indonesia,,,,-0.7914023,111.5549383,https://maps.google.com/?cid=0x0:0x764b3445629acd93,
restaurant,restaurant,Pondok Tani,"9QMC+P7C, Nanga Pintas, Kec. Pinoh Sel., Kabupaten Melawi, Kalimantan Barat","Kabupaten Melawi, Kalimantan Barat",KALIMANTAN BARAT,,Indonesia,82255342042.0,,,-0.6156875,111.7706406,https://maps.google.com/?cid=0x0:0x31a74dd1b000f390,
restaurant,Makanan Kecil,"wr,mamalina","9QJ9+V2V, Nanga Pintas, Kec. Pinoh Sel., Kabupaten Melawi, Kalimantan Barat","Kabupaten Melawi, Kalimantan Barat",KALIMANTAN BARAT,,Indonesia,,,,-0.6177534,111.7675313,https://maps.google.com/?cid=0x0:0xafeaf78153c7dfc3,
restaurant,Warnet,BENAWAS WIFI,"8Q3Q+H9H, Meta Bersatu, Kec. Sayan, Kabupaten Melawi, Kalimantan Barat 79673","Meta Bersatu, Kec. Sayan, Kabupaten Melawi",KALIMANTAN BARAT,79673.0,Indonesia,,,,-0.6960536,111.7884717,https://maps.google.com/?cid=0x0:0xa84e02d8217873c3,
restaurant,Perpaduan,Sayan Valley,"Jl. Raya Sayan No.77, Sayan, Kecamatan Ubud, Kabupaten Gianyar, Bali 80571","Sayan, Kecamatan Ubud, Kabupaten Gianyar",KALIMANTAN BARAT,80571.0,Indonesia,82340642553.0,,,-8.49944,115.2443987,https://maps.google.com/?cid=0x0:0x65f36640ab9db1bf,
restaurant,Perpaduan,Sayan Point,"Sayan, Kecamatan Ubud, Kabupaten Gianyar, Bali 80571","Kecamatan Ubud, Kabupaten Gianyar",KALIMANTAN BARAT,80571.0,Indonesia,81353202352.0,,,-8.500014,115.244587,https://maps.google.com/?cid=0x0:0x917d5720d068e7d,
restaurant,restaurant,The Sayan House,"Jl. Raya Sayan No.70, Sayan, Kecamatan Ubud, Kabupaten Gianyar, Bali 80571","Sayan, Kecamatan Ubud, Kabupaten Gianyar",KALIMANTAN BARAT,80571.0,Indonesia,82247370344.0,,,-8.4986293,115.2442719,https://maps.google.com/?cid=0x0:0xf79f0f383121f82d,
restaurant,Restoran,Ayung Terrace,"Sayan, Kecamatan Ubud, Kabupaten Gianyar, Bali 80571","Kecamatan Ubud, Kabupaten Gianyar",KALIMANTAN BARAT,80571.0,Indonesia,3612016000.0,,,-8.5014534,115.242365,https://maps.google.com/?cid=0x0:0x41267e1a17a1509c,
restaurant,Bali,Brie Restaurant  Cheesery,"Jl. Penestanan Kelod, Sayan, Kecamatan Ubud, Kabupaten Gianyar, Bali 80571","Sayan, Kecamatan Ubud, Kabupaten Gianyar",KALIMANTAN BARAT,80571.0,Indonesia,81353997009.0,,,-8.5062564,115.2518391,https://maps.google.com/?cid=0x0:0x5abc4293e0ca5286,
restaurant,Bali,Warung Made Sayan,"Jl. Raya Sayan No.30, Sayan, Kecamatan Ubud, Kabupaten Gianyar, Bali 80571","Sayan, Kecamatan Ubud, Kabupaten Gianyar",KALIMANTAN BARAT,80571.0,Indonesia,361978316.0,,,-8.5033304,115.2436249,https://maps.google.com/?cid=0x0:0xe12423a87f443a1a,
restaurant,Restoran,Riverside CafÃ©,"Jl. Raya Sayan, Sayan, Kecamatan Ubud, Kabupaten Gianyar, Bali 80571","Sayan, Kecamatan Ubud, Kabupaten Gianyar",KALIMANTAN BARAT,80571.0,Indonesia,3612016000.0,,,-8.4997374,115.2418074,https://maps.google.com/?cid=0x0:0x4ce062a2f22f1cd5,
restaurant,Indonesia,Plumeria Restaurant,"Jl. Penestanan No.7, Sayan, Kecamatan Ubud, Kabupaten Gianyar, Bali 80571","Sayan, Kecamatan Ubud, Kabupaten Gianyar",KALIMANTAN BARAT,80571.0,Indonesia,87760215180.0,,,-8.50423,115.2446499,https://maps.google.com/?cid=0x0:0xae832ac50bc11be0,
restaurant,restaurant,Kalimantan Barat 79675,"Kabupaten Melawi, Kalimantan Barat","Kabupaten Melawi, Kalimantan Barat",KALIMANTAN BARAT,,Indonesia,,,,-1.0571933,111.3798928,https://maps.google.com/?cid=0x0:0x9429eb57dc989adc,
restaurant,Sarapan,RUMAH MAKAN PAK MENG SOKAN,"Sepakat, Sokan, Kabupaten Melawi, Kalimantan Barat 79674","Sokan, Kabupaten Melawi",KALIMANTAN BARAT,79674.0,Indonesia,81298733701.0,,,-0.9053898,111.4982938,https://maps.google.com/?cid=0x0:0x81d4cd4368efe51c,
restaurant,Kedai Kopi,KOPI NALA ( PT KARYA PERSADA NALADIVA ),"Sepakat, Sokan, Kabupaten Melawi, Kalimantan Barat 79674","Sokan, Kabupaten Melawi",KALIMANTAN BARAT,79674.0,Indonesia,8125009002.0,,,-0.9041459,111.4995488,https://maps.google.com/?cid=0x0:0x44b775d09fb855f8,
restaurant,Rumah Makan,RM SEDAP RASA,"3FWW+F8F, Muara Tj., Sokan, Kabupaten Melawi, Kalimantan Barat 79674","Muara Tj., Sokan, Kabupaten Melawi",KALIMANTAN BARAT,79674.0,Indonesia,,,,-0.9038202,111.495808,https://maps.google.com/?cid=0x0:0x956fadfd67551be4,
restaurant,Kedai Kopi,Sui Uban,"3GV2+H2P, Sepakat, Sokan, Kabupaten Melawi, Kalimantan Barat 79674","Sepakat, Sokan, Kabupaten Melawi",KALIMANTAN BARAT,79674.0,Indonesia,81649354679.0,,,-0.9060355,111.5000692,https://maps.google.com/?cid=0x0:0x62a746ac838d19c2,
restaurant,Rumah Makan,Bakso Zam Zam,"4G24+R4J, Nanga Sokan, Sokan, Kabupaten Melawi, Kalimantan Barat 79674","Nanga Sokan, Sokan, Kabupaten Melawi",KALIMANTAN BARAT,79674.0,Indonesia,,,,-0.8976745,111.5054704,https://maps.google.com/?cid=0x0:0xe359120eb5471ff0,
restaurant,Kafe,nurWiFi simpang adau,"3FWQ+C86, Tj. Sokan, Sokan, Kabupaten Melawi, Kalimantan Barat 79674","Tj. Sokan, Sokan, Kabupaten Melawi",KALIMANTAN BARAT,79674.0,Indonesia,,,,-0.9039746,111.4882701,https://maps.google.com/?cid=0x0:0xa918a3bf3329195e,
restaurant,Kedai Kopi,TOKO EKO SERVIS JAM DAN JUAL PULSA,"3FWX+XJM, Nanga Sokan, Sokan, Kabupaten Melawi, Kalimantan Barat 79674","Nanga Sokan, Sokan, Kabupaten Melawi",KALIMANTAN BARAT,79674.0,Indonesia,,,,-0.901793,111.499073,https://maps.google.com/?cid=0x0:0x8ff789462fc664a1,
restaurant,Restoran,Soka F n B,"Jl. Selabintana I Blok C IV No.20 RT.12/RW.05, RT.11/RW.05, RT.11/RW.05, Kp. Parung Jambu, Katulampa, Bogor Timur, Bogor City, West Java 16144","RT.11/RW.05, RT.11/RW.05, Kp. Parung Jambu, Katulampa, Bogor Timur, Bogor City",KALIMANTAN BARAT,16144.0,Indonesia,2518360177.0,,,-6.6122675,106.8217793,https://maps.google.com/?cid=0x0:0xe3b3d629c71c71ba,
restaurant,Restoran,Soka Soka,"GQ94+FVV, Jl. Raya Tonjong, RT.3/RW.5, Tajurhalang, Kec. Tajur Halang, Kabupaten Bogor, Jawa Barat 16320","Jl. Raya Tonjong, RT.3/RW.5, Tajurhalang, Kec. Tajur Halang, Kabupaten Bogor",KALIMANTAN BARAT,16320.0,Indonesia,,,,-6.4812655,106.7571708,https://maps.google.com/?cid=0x0:0x80c808c926e64936,
restaurant,Restoran,Warung makan bu soka,"GQG7+6JH, Jl. Naga Belakang, RT.003/RW.03, Tajurhalang, Kec. Tajur Halang, Kabupaten Bogor, Jawa Barat 16320","Jl. Naga Belakang, RT.003/RW.03, Tajurhalang, Kec. Tajur Halang, Kabupaten Bogor",KALIMANTAN BARAT,16320.0,Indonesia,82298193521.0,,,-6.4744307,106.7640977,https://maps.google.com/?cid=0x0:0xe9ea043cc2f7cedd,
restaurant,Restoran,Soka-Soka,"GRC9+R8P, Jl. Raya Sukahati, Tengah, Kec. Cibinong, Kabupaten Bogor, Jawa Barat 16914","Jl. Raya Sukahati, Tengah, Kec. Cibinong, Kabupaten Bogor",KALIMANTAN BARAT,16914.0,Indonesia,,,,-6.4779101,106.8183315,https://maps.google.com/?cid=0x0:0x2d1796e5e30d057a,
restaurant,Kafe,warung soka,"Jl. Pangeran Sogiri, Tanah Baru, Kec. Bogor Utara, Kota Bogor, Jawa Barat","Kota Bogor, Jawa Barat",KALIMANTAN BARAT,,Indonesia,,,,-6.5680564,106.8220448,https://maps.google.com/?cid=0x0:0x1efedabfd427124c,
restaurant,Restoran,Soka - Soka,"Jl. Jombang Astek No.77, RT.3/RW.4, Lengkong Gudang Tim., Kec. Serpong, Kota Tangerang Selatan, Banten 15310","RT.3/RW.4, Lengkong Gudang Tim., Kec. Serpong, Kota Tangerang Selatan",KALIMANTAN BARAT,15310.0,Indonesia,,,,-6.2942463,106.6903295,https://maps.google.com/?cid=0x0:0x3339dafb96ceb498,
restaurant,restaurant,Soka-Soka,"FRF2+3F2, Jl. Ruko Jambudipa, Cilebut Tim., Kec. Sukaraja, Kabupaten Bogor, Jawa Barat 16710","Jl. Ruko Jambudipa, Cilebut Tim., Kec. Sukaraja, Kabupaten Bogor",KALIMANTAN BARAT,16710.0,Indonesia,,,,-6.5273631,106.8011263,https://maps.google.com/?cid=0x0:0xddecaec723e2d1e9,
restaurant,restaurant,Soka-Soka,"Jl. Kencana No.1, RT.3/RW.01, Cilebut Bar., Kec. Sukaraja, Kabupaten Bogor, Jawa Barat 16167","RT.3/RW.01, Cilebut Bar., Kec. Sukaraja, Kabupaten Bogor",KALIMANTAN BARAT,16167.0,Indonesia,,,,-6.5336073,106.7943213,https://maps.google.com/?cid=0x0:0xcf2e6d6a244d6dc6,
restaurant,restaurant,Kec. Tanah Pinoh,"Kabupaten Melawi, Kalimantan Barat","Kabupaten Melawi, Kalimantan Barat",KALIMANTAN BARAT,,Indonesia,,,,-0.7945298,111.5460674,https://maps.google.com/?cid=0x0:0x6079bd527623d50e,
restaurant,Makanan Kecil,Penginapan empat putri,"Batu Begigi, Kec. Tanah Pinoh, Kabupaten Melawi, Kalimantan Barat 79674","Kec. Tanah Pinoh, Kabupaten Melawi",KALIMANTAN BARAT,79674.0,Indonesia,85246522427.0,,,-0.7934244,111.5527682,https://maps.google.com/?cid=0x0:0x5fb965ea7ca66f67,
restaurant,Kedai Kopi,FIRANDA CAFE,"6H75+RCG, Batu Begigi, Kec. Tanah Pinoh, Kabupaten Melawi, Kalimantan Barat","Kabupaten Melawi, Kalimantan Barat",KALIMANTAN BARAT,,Indonesia,,,,-0.7854383,111.5585868,https://maps.google.com/?cid=0x0:0x86c62308becfadd0,
restaurant,,WiFi.id CAFFE ANTON SPBU,"4G86+743, Madong Jaya, Kec. Tanah Pinoh, Kabupaten Melawi, Kalimantan Barat 79674","Madong Jaya, Kec. Tanah Pinoh, Kabupaten Melawi",KALIMANTAN BARAT,79674.0,Indonesia,82150258016.0,,,-0.885246,111.5100781,https://maps.google.com/?cid=0x0:0xb984af544759df39,
restaurant,Indonesia,KANTIN DANTI,"Batu Begigi, Kec. Tanah Pinoh, Kabupaten Melawi, Kalimantan Barat 79674","Kec. Tanah Pinoh, Kabupaten Melawi",KALIMANTAN BARAT,79674.0,Indonesia,,,,-0.7927258,111.5539315,https://maps.google.com/?cid=0x0:0xf1fa04a97ec8399e,
restaurant,Indonesia,Cafe Ariyan,"6G3V+QF5, Batu Begigi, Kec. Tanah Pinoh, Kabupaten Melawi, Kalimantan Barat 79674","Batu Begigi, Kec. Tanah Pinoh, Kabupaten Melawi",KALIMANTAN BARAT,79674.0,Indonesia,,,,-0.7956102,111.5437388,https://maps.google.com/?cid=0x0:0x7c758bf85a988f9b,
restaurant,Kedai Kopi,Kedai J.A,"6H43+WJ, Batu Begigi, Kec. Tanah Pinoh, Kabupaten Melawi, Kalimantan Barat 79674","Batu Begigi, Kec. Tanah Pinoh, Kabupaten Melawi",KALIMANTAN BARAT,79674.0,Indonesia,82148492157.0,,,-0.7926264,111.5540522,https://maps.google.com/?cid=0x0:0x6e03f7346495ef57,
restaurant,Kafe,EXOCYBER Wifi Center,"jalan provinsi kota baru sokan, Batu Begigi, Kec. Tanah Pinoh, Kabupaten Melawi, Kalimantan Barat 79674","Batu Begigi, Kec. Tanah Pinoh, Kabupaten Melawi",KALIMANTAN BARAT,79674.0,Indonesia,82148136233.0,,,-0.7933417,111.5521284,https://maps.google.com/?cid=0x0:0xb4933750e6e5ebf6,
restaurant,restaurant,Kedai Seblak Nusa,"Jl. Raya, Batu Begigi, Kec. Tanah Pinoh, Kabupaten Melawi, Kalimantan Barat","Kabupaten Melawi, Kalimantan Barat",KALIMANTAN BARAT,,Indonesia,,,,-0.7914023,111.5549383,https://maps.google.com/?cid=0x0:0x764b3445629acd93,
restaurant,Indonesia,Win and friend,"6H43+P6Q, Dekat, Batu Begigi, Kec. Tanah Pinoh, Kabupaten Melawi, Kalimantan Barat 79674","Dekat, Batu Begigi, Kec. Tanah Pinoh, Kabupaten Melawi",KALIMANTAN BARAT,79674.0,Indonesia,,,,-0.7931575,111.5531127,https://maps.google.com/?cid=0x0:0x1fe9d86a6c084663,
restaurant,Kedai Kopi,Cafe Waroeng CINTA,"6G3R+XFQ, Dusun Tanjungpasir Desa Sukamaju, Kotabaru, Kec. Tanah Pinoh, Kabupaten Melawi, Kalimantan Barat 78674","Dusun Tanjungpasir Desa Sukamaju, Kotabaru, Kec. Tanah Pinoh, Kabupaten Melawi",KALIMANTAN BARAT,78674.0,Indonesia,81345045755.0,,,-0.7950403,111.5412369,https://maps.google.com/?cid=0x0:0x627340ab6bdfbfb3,
restaurant,Kedai Kopi,Kopi rindu,"Jl. Provinsi,Dusun Gelombang No.Desa, Loka Jaya, Kec. Tanah Pinoh, Kabupaten Melawi, Kalimantan Barat 79674","Loka Jaya, Kec. Tanah Pinoh, Kabupaten Melawi",KALIMANTAN BARAT,79674.0,Indonesia,,,,-0.7992383,111.5417583,https://maps.google.com/?cid=0x0:0xd34441e2c4f0b227,
restaurant,Dapur Umum,MARTABAK DIAMOND 99,"6G4X+4JX, Batu Begigi, Kec. Tanah Pinoh, Kabupaten Melawi, Kalimantan Barat 79674","Batu Begigi, Kec. Tanah Pinoh, Kabupaten Melawi",KALIMANTAN BARAT,79674.0,Indonesia,82178333690.0,,,-0.79464,111.549119,https://maps.google.com/?cid=0x0:0x96eb4c198895e6bf,
restaurant,Kedai Kopi,Freya Bar  Resto,"MP7R+F86, Jl. Juang, Paal, Nanga Pinoh, Melawi Regency, West Kalimantan 79672","Jl. Juang, Paal, Nanga Pinoh, Melawi Regency",KALIMANTAN BARAT,79672.0,Indonesia,,,,-0.33633,111.7407632,https://maps.google.com/?cid=0x0:0x129eee4916703668,
restaurant,Padang,RM Padang TALAGO,"MP8Q+CFG, Paal, Kec. Nanga Pinoh, Kabupaten Melawi, Kalimantan Barat 79672","Paal, Kec. Nanga Pinoh, Kabupaten Melawi",KALIMANTAN BARAT,79672.0,Indonesia,82155967187.0,,,-0.3339295,111.7386881,https://maps.google.com/?cid=0x0:0x39de769a99df5534,
restaurant,Hidangan Laut,Rumah Makan Seafood 69,"Jl. Juang No.Dalam, Tj. Niaga, Kec. Nanga Pinoh, Kabupaten Melawi, Kalimantan Barat 79672","Tj. Niaga, Kec. Nanga Pinoh, Kabupaten Melawi",KALIMANTAN BARAT,79672.0,Indonesia,,,,-0.3333206,111.7372761,https://maps.google.com/?cid=0x0:0xcfd7666de20a6e3c,
restaurant,Restoran,Rumah Makan Lina,"MP9Q+F5W, Paal, Kec. Nanga Pinoh, Kabupaten Melawi, Kalimantan Barat 79672","Paal, Kec. Nanga Pinoh, Kabupaten Melawi",KALIMANTAN BARAT,79672.0,Indonesia,,,,-0.3312597,111.7379435,https://maps.google.com/?cid=0x0:0x43b086aeccdafa8e,
restaurant,Ayam Goreng,SS Junior Fried Chicken KOBA - Melawi,"6H43+P6Q, Dekat, Batu Begigi, Kec. Tanah Pinoh, Kabupaten Melawi, Kalimantan Barat 79674","Dekat, Batu Begigi, Kec. Tanah Pinoh, Kabupaten Melawi",KALIMANTAN BARAT,79674.0,Indonesia,82256830239.0,,,-0.7931625,111.5531094,https://maps.google.com/?cid=0x0:0x8acfcf08aab37305,
restaurant,Kedai Kopi,KOPI NALA ( PT KARYA PERSADA NALADIVA ),"Sepakat, Sokan, Kabupaten Melawi, Kalimantan Barat 79674","Sokan, Kabupaten Melawi",KALIMANTAN BARAT,79674.0,Indonesia,8125009002.0,,,-0.9041459,111.4995488,https://maps.google.com/?cid=0x0:0x44b775d09fb855f8,
restaurant,Kedai Kopi,Cafe 01,"Dusun kanual 1, Loka Jaya, pelanjung, Kabupaten Melawi, Kalimantan Barat 79674","Loka Jaya, pelanjung, Kabupaten Melawi",KALIMANTAN BARAT,79674.0,Indonesia,8978349798.0,,,-0.8090575,111.5384499,https://maps.google.com/?cid=0x0:0x4260897c58983962,
restaurant,Sarapan,RUMAH MAKAN PAK MENG SOKAN,"Sepakat, Sokan, Kabupaten Melawi, Kalimantan Barat 79674","Sokan, Kabupaten Melawi",KALIMANTAN BARAT,79674.0,Indonesia,81298733701.0,,,-0.9053898,111.4982938,https://maps.google.com/?cid=0x0:0x81d4cd4368efe51c,
restaurant,restaurant,WARUNG BUDE,"6G3R+VX8, Suka Maju, Kec. Tanah Pinoh, Kabupaten Melawi, Kalimantan Barat 79674","Suka Maju, Kec. Tanah Pinoh, Kabupaten Melawi",KALIMANTAN BARAT,79674.0,Indonesia,,,,-0.7955813,111.5421231,https://maps.google.com/?cid=0x0:0x4620201fe09102b1,
restaurant,Kedai Kopi,R.C KEDAI KOPI CANDRA,"6G3R+VXM, Suka Maju, Kec. Tanah Pinoh, Kabupaten Melawi, Kalimantan Barat","Kabupaten Melawi, Kalimantan Barat",KALIMANTAN BARAT,,Indonesia,85388747333.0,,,-0.7952974,111.542418,https://maps.google.com/?cid=0x0:0x3e5c9430f16b016e,
restaurant,restaurant,Kalimantan Barat 79674,"Kabupaten Melawi, Kalimantan Barat","Kabupaten Melawi, Kalimantan Barat",KALIMANTAN BARAT,,Indonesia,,,,-0.7723312,111.3798928,https://maps.google.com/?cid=0x0:0x6d8acf73897d9e8b,
restaurant,Makanan Kecil,Penginapan empat putri,"Batu Begigi, Kec. Tanah Pinoh, Kabupaten Melawi, Kalimantan Barat 79674","Kec. Tanah Pinoh, Kabupaten Melawi",KALIMANTAN BARAT,79674.0,Indonesia,85246522427.0,,,-0.7934244,111.5527682,https://maps.google.com/?cid=0x0:0x5fb965ea7ca66f67,
restaurant,Kedai Kopi,FIRANDA CAFE,"6H75+RCG, Batu Begigi, Kec. Tanah Pinoh, Kabupaten Melawi, Kalimantan Barat","Kabupaten Melawi, Kalimantan Barat",KALIMANTAN BARAT,,Indonesia,,,,-0.7854383,111.5585868,https://maps.google.com/?cid=0x0:0x86c62308becfadd0,
restaurant,Indonesia,KANTIN DANTI,"Batu Begigi, Kec. Tanah Pinoh, Kabupaten Melawi, Kalimantan Barat 79674","Kec. Tanah Pinoh, Kabupaten Melawi",KALIMANTAN BARAT,79674.0,Indonesia,,,,-0.7927258,111.5539315,https://maps.google.com/?cid=0x0:0xf1fa04a97ec8399e,
restaurant,,WiFi.id CAFFE ANTON SPBU,"4G86+743, Madong Jaya, Kec. Tanah Pinoh, Kabupaten Melawi, Kalimantan Barat 79674","Madong Jaya, Kec. Tanah Pinoh, Kabupaten Melawi",KALIMANTAN BARAT,79674.0,Indonesia,82150258016.0,,,-0.885246,111.5100781,https://maps.google.com/?cid=0x0:0xb984af544759df39,
restaurant,Kafe,EXOCYBER Wifi Center,"jalan provinsi kota baru sokan, Batu Begigi, Kec. Tanah Pinoh, Kabupaten Melawi, Kalimantan Barat 79674","Batu Begigi, Kec. Tanah Pinoh, Kabupaten Melawi",KALIMANTAN BARAT,79674.0,Indonesia,82148136233.0,,,-0.7933417,111.5521284,https://maps.google.com/?cid=0x0:0xb4933750e6e5ebf6,
restaurant,Kedai Kopi,Cafe Waroeng CINTA,"6G3R+XFQ, Dusun Tanjungpasir Desa Sukamaju, Kotabaru, Kec. Tanah Pinoh, Kabupaten Melawi, Kalimantan Barat 78674","Dusun Tanjungpasir Desa Sukamaju, Kotabaru, Kec. Tanah Pinoh, Kabupaten Melawi",KALIMANTAN BARAT,78674.0,Indonesia,81345045755.0,,,-0.7950403,111.5412369,https://maps.google.com/?cid=0x0:0x627340ab6bdfbfb3,
restaurant,Indonesia,Cafe Ariyan,"6G3V+QF5, Batu Begigi, Kec. Tanah Pinoh, Kabupaten Melawi, Kalimantan Barat 79674","Batu Begigi, Kec. Tanah Pinoh, Kabupaten Melawi",KALIMANTAN BARAT,79674.0,Indonesia,,,,-0.7956102,111.5437388,https://maps.google.com/?cid=0x0:0x7c758bf85a988f9b,
restaurant,restaurant,Kedai Seblak Nusa,"Jl. Raya, Batu Begigi, Kec. Tanah Pinoh, Kabupaten Melawi, Kalimantan Barat","Kabupaten Melawi, Kalimantan Barat",KALIMANTAN BARAT,,Indonesia,,,,-0.7914023,111.5549383,https://maps.google.com/?cid=0x0:0x764b3445629acd93,
restaurant,Indonesia,Win and friend,"6H43+P6Q, Dekat, Batu Begigi, Kec. Tanah Pinoh, Kabupaten Melawi, Kalimantan Barat 79674","Dekat, Batu Begigi, Kec. Tanah Pinoh, Kabupaten Melawi",KALIMANTAN BARAT,79674.0,Indonesia,,,,-0.7931575,111.5531127,https://maps.google.com/?cid=0x0:0x1fe9d86a6c084663,
restaurant,Kedai Kopi,Kedai J.A,"6H43+WJ, Batu Begigi, Kec. Tanah Pinoh, Kabupaten Melawi, Kalimantan Barat 79674","Batu Begigi, Kec. Tanah Pinoh, Kabupaten Melawi",KALIMANTAN BARAT,79674.0,Indonesia,82148492157.0,,,-0.7926264,111.5540522,https://maps.google.com/?cid=0x0:0x6e03f7346495ef57,
restaurant,Dapur Umum,MARTABAK DIAMOND 99,"6G4X+4JX, Batu Begigi, Kec. Tanah Pinoh, Kabupaten Melawi, Kalimantan Barat 79674","Batu Begigi, Kec. Tanah Pinoh, Kabupaten Melawi",KALIMANTAN BARAT,79674.0,Indonesia,82178333690.0,,,-0.79464,111.549119,https://maps.google.com/?cid=0x0:0x96eb4c198895e6bf,
restaurant,Kedai Kopi,Kopi rindu,"Jl. Provinsi,Dusun Gelombang No.Desa, Loka Jaya, Kec. Tanah Pinoh, Kabupaten Melawi, Kalimantan Barat 79674","Loka Jaya, Kec. Tanah Pinoh, Kabupaten Melawi",KALIMANTAN BARAT,79674.0,Indonesia,,,,-0.7992383,111.5417583,https://maps.google.com/?cid=0x0:0xd34441e2c4f0b227,
restaurant,Ayam Goreng,SS Junior Fried Chicken KOBA - Melawi,"6H43+P6Q, Dekat, Batu Begigi, Kec. Tanah Pinoh, Kabupaten Melawi, Kalimantan Barat 79674","Dekat, Batu Begigi, Kec. Tanah Pinoh, Kabupaten Melawi",KALIMANTAN BARAT,79674.0,Indonesia,82256830239.0,,,-0.7931625,111.5531094,https://maps.google.com/?cid=0x0:0x8acfcf08aab37305,
restaurant,restaurant,LAMONGAN CAK NUR,"8M53+FMJ, Nanga Sayan, Kec. Sayan, Kabupaten Melawi, Kalimantan Barat","Kabupaten Melawi, Kalimantan Barat",KALIMANTAN BARAT,,Indonesia,,,,-0.6912917,111.6541483,https://maps.google.com/?cid=0x0:0x8a19b2abbb2b8ed4,
restaurant,Kedai Kopi,KOPI NALA ( PT KARYA PERSADA NALADIVA ),"Sepakat, Sokan, Kabupaten Melawi, Kalimantan Barat 79674","Sokan, Kabupaten Melawi",KALIMANTAN BARAT,79674.0,Indonesia,8125009002.0,,,-0.9041459,111.4995488,https://maps.google.com/?cid=0x0:0x44b775d09fb855f8,
restaurant,Kedai Kopi,Cafe 01,"Dusun kanual 1, Loka Jaya, pelanjung, Kabupaten Melawi, Kalimantan Barat 79674","Loka Jaya, pelanjung, Kabupaten Melawi",KALIMANTAN BARAT,79674.0,Indonesia,8978349798.0,,,-0.8090575,111.5384499,https://maps.google.com/?cid=0x0:0x4260897c58983962,
restaurant,Sarapan,RUMAH MAKAN PAK MENG SOKAN,"Sepakat, Sokan, Kabupaten Melawi, Kalimantan Barat 79674","Sokan, Kabupaten Melawi",KALIMANTAN BARAT,79674.0,Indonesia,81298733701.0,,,-0.9053898,111.4982938,https://maps.google.com/?cid=0x0:0x81d4cd4368efe51c,
restaurant,Kedai Kopi,R.C KEDAI KOPI CANDRA,"6G3R+VXM, Suka Maju, Kec. Tanah Pinoh, Kabupaten Melawi, Kalimantan Barat","Kabupaten Melawi, Kalimantan Barat",KALIMANTAN BARAT,,Indonesia,85388747333.0,,,-0.7952974,111.542418,https://maps.google.com/?cid=0x0:0x3e5c9430f16b016e,
restaurant,Kedai Kopi,Freya Bar  Resto,"MP7R+F86, Jl. Juang, Paal, Nanga Pinoh, Melawi Regency, West Kalimantan 79672","Jl. Juang, Paal, Nanga Pinoh, Melawi Regency",KALIMANTAN BARAT,79672.0,Indonesia,,,,-0.33633,111.7407632,https://maps.google.com/?cid=0x0:0x129eee4916703668,
restaurant,Rumah Makan,RM SEDAP RASA,"3FWW+F8F, Muara Tj., Sokan, Kabupaten Melawi, Kalimantan Barat 79674","Muara Tj., Sokan, Kabupaten Melawi",KALIMANTAN BARAT,79674.0,Indonesia,,,,-0.9038202,111.495808,https://maps.google.com/?cid=0x0:0x956fadfd67551be4,
restaurant,Kafe,Kantin Sriwijaya,"MQ42+92Q, Paal, Kec. Nanga Pinoh, Kabupaten Melawi, Kalimantan Barat 79672","Paal, Kec. Nanga Pinoh, Kabupaten Melawi",KALIMANTAN BARAT,79672.0,Indonesia,85346668015.0,,,-0.3440449,111.7500993,https://maps.google.com/?cid=0x0:0x8344a618c6775025,
cafe,Kafe,Warkop Ashari,"Batu Buil, Kec. Belimbing, Kabupaten Melawi, Kalimantan Barat 79671","Kec. Belimbing, Kabupaten Melawi",KALIMANTAN BARAT,79671.0,Indonesia,81253585526.0,,,-0.2898178,111.6105865,https://maps.google.com/?cid=0x0:0xd48405f9890c8150,
cafe,cafe,Kalimantan Barat 79671,"Kabupaten Melawi, Kalimantan Barat","Kabupaten Melawi, Kalimantan Barat",KALIMANTAN BARAT,,Indonesia,,,,-0.4539656,111.5229817,https://maps.google.com/?cid=0x0:0xfc272e555b0cebaa,
cafe,Kafe,BLACK CAFE,"PHFQ+XRC, Jl. Lintas Kalimantan Poros Tengah, Batu Buil, Kec. Belimbing, Kabupaten Melawi, Kalimantan Barat 79671","Jl. Lintas Kalimantan Poros Tengah, Batu Buil, Kec. Belimbing, Kabupaten Melawi",KALIMANTAN BARAT,79671.0,Indonesia,85750228533.0,,,-0.2750518,111.5895309,https://maps.google.com/?cid=0x0:0xfe479514a91f9568,
cafe,cafe,TERAS KOPI TIONG KERANJIK,"JGHH+9R2, Beloyang, Kec. Belimbing Hulu, Kabupaten Melawi, Kalimantan Barat 79671","Beloyang, Kec. Belimbing Hulu, Kabupaten Melawi",KALIMANTAN BARAT,79671.0,Indonesia,82151296913.0,,,-0.3716125,111.5295156,https://maps.google.com/?cid=0x0:0xc12592284d27ff6b,
cafe,Kafe,WARUNK D'SAVQIN,"Jl. Raya, Pemuar, Kec. Belimbing, Kabupaten Melawi, Kalimantan Barat 79671","Pemuar, Kec. Belimbing, Kabupaten Melawi",KALIMANTAN BARAT,79671.0,Indonesia,81350055363.0,,,-0.3075547,111.6471377,https://maps.google.com/?cid=0x0:0x5c01bf1c3e3d8aee,
cafe,Kedai Kopi,warkop anomali,"PJ65+47W, Jl. Lintas Kalimantan Poros Tengah, Batu Buil, Kec. Belimbing, Kabupaten Melawi, Kalimantan Barat 79671","Jl. Lintas Kalimantan Poros Tengah, Batu Buil, Kec. Belimbing, Kabupaten Melawi",KALIMANTAN BARAT,79671.0,Indonesia,,,,-0.2896452,111.6082027,https://maps.google.com/?cid=0x0:0x3680a3ddc5985b82,
cafe,Kafe,Pesona Coffee,"Dusun laman keranjik, Tiong Keranji, Kec. Belimbing Hulu, Kabupaten Melawi, Kalimantan Barat 79671","Tiong Keranji, Kec. Belimbing Hulu, Kabupaten Melawi",KALIMANTAN BARAT,79671.0,Indonesia,,,,-0.3738367,111.5301146,https://maps.google.com/?cid=0x0:0x8fe3f5c3df4db2d4,
cafe,Kedai Kopi,Warbah,"MJWQ+WC2, Batu Buil, Kec. Belimbing, Kabupaten Melawi, Kalimantan Barat 79671","Batu Buil, Kec. Belimbing, Kabupaten Melawi",KALIMANTAN BARAT,79671.0,Indonesia,,,,-0.3027469,111.6385023,https://maps.google.com/?cid=0x0:0x364084eb1102e62,
cafe,Kafe,Warkop Sinar M Batu Buil,"PJ65+2WQ, Batu Buil, Kec. Belimbing, Kabupaten Melawi, Kalimantan Barat 79671","Batu Buil, Kec. Belimbing, Kabupaten Melawi",KALIMANTAN BARAT,79671.0,Indonesia,,,,-0.2899194,111.609868,https://maps.google.com/?cid=0x0:0x704bcf3c4de62613,
cafe,,Putri Tunggal,"Batu Buil, Kec. Belimbing, Kabupaten Melawi, Kalimantan Barat 79671","Kec. Belimbing, Kabupaten Melawi",KALIMANTAN BARAT,79671.0,Indonesia,,,,-0.2898473,111.6062625,https://maps.google.com/?cid=0x0:0x3f6fd7b7e7709d53,
cafe,Kedai Kopi,Sewindu Coffee,"Jl. Lintas Kalimantan Poros Tengah, Batu Buil, Kec. Belimbing, Kabupaten Melawi, Kalimantan Barat 79671","Batu Buil, Kec. Belimbing, Kabupaten Melawi",KALIMANTAN BARAT,79671.0,Indonesia,82255809285.0,,,-0.2895143,111.6105285,https://maps.google.com/?cid=0x0:0xa02d664b3ca1695e,
cafe,Kafe,WR KOPI MIA simpang baru buil,"PJ64+7M9, Jl. Lintas Kalimantan Poros Tengah, Batu Buil, Kec. Belimbing, Kabupaten Melawi, Kalimantan Barat 79671","Jl. Lintas Kalimantan Poros Tengah, Batu Buil, Kec. Belimbing, Kabupaten Melawi",KALIMANTAN BARAT,79671.0,Indonesia,,,,-0.2894536,111.606598,https://maps.google.com/?cid=0x0:0x5b0035a5c791a0be,
cafe,Kedai Kopi,Kedai selera kopi,"Jl terusan, Batu Nanta, Kec. Belimbing, Kabupaten Melawi, Kalimantan Barat 79672","Batu Nanta, Kec. Belimbing, Kabupaten Melawi",KALIMANTAN BARAT,79672.0,Indonesia,85247248690.0,,,-0.2562734,111.5698338,https://maps.google.com/?cid=0x0:0x3ba5f528f9713a47,
cafe,Kedai Kopi,Buana Rasa Cafe,"MP8Q+J83, Jalan Juang, Nanga Pinoh, Tj. Niaga, Melawi, Kabupaten Melawi, Kalimantan Barat 79672","Jalan Juang, Nanga Pinoh, Tj. Niaga, Melawi, Kabupaten Melawi",KALIMANTAN BARAT,79672.0,Indonesia,56821969.0,,,-0.3334788,111.7382996,https://maps.google.com/?cid=0x0:0x1afd1e650313f758,
cafe,Kafe,RM BUDI LUHUR,"Ds, Tiong Keranji, Kec. Belimbing Hulu, Kabupaten Melawi, Kalimantan Barat 79671","Tiong Keranji, Kec. Belimbing Hulu, Kabupaten Melawi",KALIMANTAN BARAT,79671.0,Indonesia,82153793668.0,,,-0.3690986,111.5292358,https://maps.google.com/?cid=0x0:0x9f31306810a5a2dc,
cafe,Kedai Kopi,Warkop Naura Bakery  Drink (Nasar Jio) Brilink Desa Tekaban,"Tekaban, Kec. Belimbing, Kabupaten Melawi, Kalimantan Barat","Kabupaten Melawi, Kalimantan Barat",KALIMANTAN BARAT,,Indonesia,83145963737.0,,,-0.3651525,111.577369,https://maps.google.com/?cid=0x0:0x81ad94b30bbd736c,
cafe,Restoran,Warung Makan KENDEDES,"JGJH+4MC, Beloyang, Kec. Belimbing Hulu, Kabupaten Melawi, Kalimantan Barat 79671","Beloyang, Kec. Belimbing Hulu, Kabupaten Melawi",KALIMANTAN BARAT,79671.0,Indonesia,85821105890.0,,,-0.3696793,111.5291265,https://maps.google.com/?cid=0x0:0xb214c84e25241545,
cafe,Kafe,Bang Din Cafe Simpang JUPE,"PHMH+6PP, Jl. Lintas Kalimantan Poros Tengah, Batu Nanta, Kec. Belimbing Hulu, Kabupaten Melawi, Kalimantan Barat 79671","Jl. Lintas Kalimantan Poros Tengah, Batu Nanta, Kec. Belimbing Hulu, Kabupaten Melawi",KALIMANTAN BARAT,79671.0,Indonesia,82261973208.0,,,-0.2669097,111.5793125,https://maps.google.com/?cid=0x0:0x28f4abd46d1abac7,
cafe,Dapur Umum,Pentol kuah tiga dara,"PF8V+V68, Belonsat, Kec. Belimbing, Kabupaten Melawi, Kalimantan Barat","Kabupaten Melawi, Kalimantan Barat",KALIMANTAN BARAT,,Indonesia,,,,-0.2828475,111.4930857,https://maps.google.com/?cid=0x0:0x1ce14f89374f947a,
cafe,Kafe,Dream Coffe,"QHG2+RHH, Jl. Lintas Kalimantan Poros Tengah, Batu Nanta, Kec. Belimbing, Kabupaten Melawi, Kalimantan Barat 78655","Jl. Lintas Kalimantan Poros Tengah, Batu Nanta, Kec. Belimbing, Kabupaten Melawi",KALIMANTAN BARAT,78655.0,Indonesia,,,,-0.2229322,111.5514941,https://maps.google.com/?cid=0x0:0x477a2440f93acb10,
cafe,Kedai Kopi,Satu Waktu Coffee,"Jalan Provinsi, Sidomulyo, Kec. Nanga Pinoh, Kabupaten Melawi, Kalimantan Barat 79672","Sidomulyo, Kec. Nanga Pinoh, Kabupaten Melawi",KALIMANTAN BARAT,79672.0,Indonesia,,,,-0.3365587,111.7260961,https://maps.google.com/?cid=0x0:0x3ab156e9d18cd1d6,
cafe,Kafe,Cafe Kak Ida,"PGF2+6FH, Belonsat, Kec. Belimbing, Kabupaten Melawi, Kalimantan Barat 78655","Belonsat, Kec. Belimbing, Kabupaten Melawi",KALIMANTAN BARAT,78655.0,Indonesia,,,,-0.276928,111.5012443,https://maps.google.com/?cid=0x0:0xe708221bc2909ca8,
cafe,Restoran,WARUNG PINTAR BELIMBING 3 1,"jl pemuda GG belimbing 3 RT 04 No.7, Depok, Kec. Pancoran Mas, Kota Depok, Jawa Barat 16451","Depok, Kec. Pancoran Mas, Kota Depok",KALIMANTAN BARAT,16451.0,Indonesia,8119832909.0,,,-6.4051487,106.8233583,https://maps.google.com/?cid=0x0:0x4bbc93a670713429,
cafe,Kafe,Cafe Belimbing,"HHH4+83J, Jatisari, Watesari, Kec. BalongBendo, Kabupaten Sidoarjo, Jawa Timur 61263","Jatisari, Watesari, Kec. BalongBendo, Kabupaten Sidoarjo",KALIMANTAN BARAT,61263.0,Indonesia,82191427744.0,,,-7.4216736,112.5551295,https://maps.google.com/?cid=0x0:0xc2fe04d31d9f965b,
cafe,Kedai Kopi,SAUNG BELIMBING,"Jl. Kb. Pala 2 No.8, RW.13, Kb. Melati, Kecamatan Tanah Abang, Kota Jakarta Pusat, Daerah Khusus Ibukota Jakarta 10230","RW.13, Kb. Melati, Kecamatan Tanah Abang, Kota Jakarta Pusat",KALIMANTAN BARAT,10230.0,Indonesia,,,,-6.195501,106.812152,https://maps.google.com/?cid=0x0:0xd8c1a44ac7e259b1,
cafe,Kedai Kopi,Prima cafe buil,"PJ57+H56, Batu Buil, Kec. Belimbing, Kabupaten Melawi, Kalimantan Barat 79671","Batu Buil, Kec. Belimbing, Kabupaten Melawi",KALIMANTAN BARAT,79671.0,Indonesia,,,,-0.2910848,111.6128916,https://maps.google.com/?cid=0x0:0x117746ff22a726db,
cafe,Kafe,warung oboss,"HRQ8+864, Jl. Kp. Parung Belimbing, Depok, Kec. Pancoran Mas, Kota Depok, Jawa Barat 16431","Jl. Kp. Parung Belimbing, Depok, Kec. Pancoran Mas, Kota Depok",KALIMANTAN BARAT,16431.0,Indonesia,89699681878.0,,,-6.4117366,106.8155857,https://maps.google.com/?cid=0x0:0xc74c0040d08bd8ee,
cafe,Kafe,Belimbing Caffe,"blok kleben, RT.016/RW.007, Keduanan, Kec. Depok, Kabupaten Cirebon, Jawa Barat 45155","RT.016/RW.007, Keduanan, Kec. Depok, Kabupaten Cirebon",KALIMANTAN BARAT,45155.0,Indonesia,82117088158.0,,,-6.7282177,108.4573548,https://maps.google.com/?cid=0x0:0x69d7594e7dc8dc4d,
cafe,Toko bahan makanan,WAROENG DIDIN,"Jl. Belimbing 1 No.257, RW.3, Depok Jaya, Kec. Pancoran Mas, Kota Depok, Jawa Barat 16432","RW.3, Depok Jaya, Kec. Pancoran Mas, Kota Depok",KALIMANTAN BARAT,16432.0,Indonesia,,,,-6.3949761,106.8124556,https://maps.google.com/?cid=0x0:0x3b0de07e1797b25c,
cafe,cafe,Kec. Belimbing Hulu,"Kabupaten Melawi, Kalimantan Barat","Kabupaten Melawi, Kalimantan Barat",KALIMANTAN BARAT,,Indonesia,,,,-0.3702887,111.5294943,https://maps.google.com/?cid=0x0:0x26dc94245ead4c2a,
cafe,Kafe,Warkop Ashari,"Batu Buil, Kec. Belimbing, Kabupaten Melawi, Kalimantan Barat 79671","Kec. Belimbing, Kabupaten Melawi",KALIMANTAN BARAT,79671.0,Indonesia,81253585526.0,,,-0.2898178,111.6105865,https://maps.google.com/?cid=0x0:0xd48405f9890c8150,
cafe,Kedai Kopi,Prima cafe buil,"PJ57+H56, Batu Buil, Kec. Belimbing, Kabupaten Melawi, Kalimantan Barat 79671","Batu Buil, Kec. Belimbing, Kabupaten Melawi",KALIMANTAN BARAT,79671.0,Indonesia,,,,-0.2910848,111.6128916,https://maps.google.com/?cid=0x0:0x117746ff22a726db,
cafe,Kedai Kopi,warkop anomali,"PJ65+47W, Jl. Lintas Kalimantan Poros Tengah, Batu Buil, Kec. Belimbing, Kabupaten Melawi, Kalimantan Barat 79671","Jl. Lintas Kalimantan Poros Tengah, Batu Buil, Kec. Belimbing, Kabupaten Melawi",KALIMANTAN BARAT,79671.0,Indonesia,,,,-0.2896452,111.6082027,https://maps.google.com/?cid=0x0:0x3680a3ddc5985b82,
cafe,Kafe,BLACK CAFE,"PHFQ+XRC, Jl. Lintas Kalimantan Poros Tengah, Batu Buil, Kec. Belimbing, Kabupaten Melawi, Kalimantan Barat 79671","Jl. Lintas Kalimantan Poros Tengah, Batu Buil, Kec. Belimbing, Kabupaten Melawi",KALIMANTAN BARAT,79671.0,Indonesia,85750228533.0,,,-0.2750518,111.5895309,https://maps.google.com/?cid=0x0:0xfe479514a91f9568,
cafe,Kafe,Pesona Coffee,"Dusun laman keranjik, Tiong Keranji, Kec. Belimbing Hulu, Kabupaten Melawi, Kalimantan Barat 79671","Tiong Keranji, Kec. Belimbing Hulu, Kabupaten Melawi",KALIMANTAN BARAT,79671.0,Indonesia,,,,-0.3738367,111.5301146,https://maps.google.com/?cid=0x0:0x8fe3f5c3df4db2d4,
cafe,,Putri Tunggal,"Batu Buil, Kec. Belimbing, Kabupaten Melawi, Kalimantan Barat 79671","Kec. Belimbing, Kabupaten Melawi",KALIMANTAN BARAT,79671.0,Indonesia,,,,-0.2898473,111.6062625,https://maps.google.com/?cid=0x0:0x3f6fd7b7e7709d53,
cafe,Kafe,RM BUDI LUHUR,"Ds, Tiong Keranji, Kec. Belimbing Hulu, Kabupaten Melawi, Kalimantan Barat 79671","Tiong Keranji, Kec. Belimbing Hulu, Kabupaten Melawi",KALIMANTAN BARAT,79671.0,Indonesia,82153793668.0,,,-0.3690986,111.5292358,https://maps.google.com/?cid=0x0:0x9f31306810a5a2dc,
cafe,Kafe,Warkop Sinar M Batu Buil,"PJ65+2WQ, Batu Buil, Kec. Belimbing, Kabupaten Melawi, Kalimantan Barat 79671","Batu Buil, Kec. Belimbing, Kabupaten Melawi",KALIMANTAN BARAT,79671.0,Indonesia,,,,-0.2899194,111.609868,https://maps.google.com/?cid=0x0:0x704bcf3c4de62613,
cafe,Kedai Kopi,Caffe Bu Sukat,"PHRC+7PR, Batu Nanta, Kec. Belimbing, Kabupaten Melawi, Kalimantan Barat 79671","Batu Nanta, Kec. Belimbing, Kabupaten Melawi",KALIMANTAN BARAT,79671.0,Indonesia,,,,-0.2592618,111.5717662,https://maps.google.com/?cid=0x0:0xfc80cd8a10286284,
cafe,Restoran,Warung Makan KENDEDES,"JGJH+4MC, Beloyang, Kec. Belimbing Hulu, Kabupaten Melawi, Kalimantan Barat 79671","Beloyang, Kec. Belimbing Hulu, Kabupaten Melawi",KALIMANTAN BARAT,79671.0,Indonesia,85821105890.0,,,-0.3696793,111.5291265,https://maps.google.com/?cid=0x0:0xb214c84e25241545,
cafe,Kedai Kopi,Kedai Ungu Yani,"JGJH+2JG, Tiong Keranji, Kec. Belimbing Hulu, Kabupaten Melawi, Kalimantan Barat 79671","Tiong Keranji, Kec. Belimbing Hulu, Kabupaten Melawi",KALIMANTAN BARAT,79671.0,Indonesia,82154442431.0,,,-0.369938,111.529072,https://maps.google.com/?cid=0x0:0x65418ccd890cf22c,
cafe,Kedai Kopi,Sewindu Coffee,"Jl. Lintas Kalimantan Poros Tengah, Batu Buil, Kec. Belimbing, Kabupaten Melawi, Kalimantan Barat 79671","Batu Buil, Kec. Belimbing, Kabupaten Melawi",KALIMANTAN BARAT,79671.0,Indonesia,82255809285.0,,,-0.2895143,111.6105285,https://maps.google.com/?cid=0x0:0xa02d664b3ca1695e,
cafe,Makan Siang,RM SPESIAL 99,"PJ72+XH5, Jl. Lintas Kalimantan Poros Tengah, Batu Buil, Kec. Belimbing, Kabupaten Melawi, Kalimantan Barat 79671","Jl. Lintas Kalimantan Poros Tengah, Batu Buil, Kec. Belimbing, Kabupaten Melawi",KALIMANTAN BARAT,79671.0,Indonesia,81255673333.0,,,-0.2851059,111.6014999,https://maps.google.com/?cid=0x0:0x60851b70a5d3411a,
cafe,Kafe,WR KOPI MIA simpang baru buil,"PJ64+7M9, Jl. Lintas Kalimantan Poros Tengah, Batu Buil, Kec. Belimbing, Kabupaten Melawi, Kalimantan Barat 79671","Jl. Lintas Kalimantan Poros Tengah, Batu Buil, Kec. Belimbing, Kabupaten Melawi",KALIMANTAN BARAT,79671.0,Indonesia,,,,-0.2894536,111.606598,https://maps.google.com/?cid=0x0:0x5b0035a5c791a0be,
cafe,cafe,Badau,"PFCG+F4M, Belonsat, Kec. Belimbing, Kabupaten Melawi, Kalimantan Barat","Kabupaten Melawi, Kalimantan Barat",KALIMANTAN BARAT,,Indonesia,,,,-0.2787808,111.4752851,https://maps.google.com/?cid=0x0:0xb3420c095207db83,
cafe,Dapur Umum,Pentol kuah tiga dara,"PF8V+V68, Belonsat, Kec. Belimbing, Kabupaten Melawi, Kalimantan Barat","Kabupaten Melawi, Kalimantan Barat",KALIMANTAN BARAT,,Indonesia,,,,-0.2828475,111.4930857,https://maps.google.com/?cid=0x0:0x1ce14f89374f947a,
cafe,Kedai Kopi,Warkop sergio,"Jl. Lintas Kalimantan Poros Tengah, Batu Nanta, Kec. Belimbing, Kabupaten Melawi, Kalimantan Barat 79671","Batu Nanta, Kec. Belimbing, Kabupaten Melawi",KALIMANTAN BARAT,79671.0,Indonesia,82159343972.0,,,-0.2829953,111.5995113,https://maps.google.com/?cid=0x0:0xc2a53e157cf52640,
cafe,Kafe,Bang Din Cafe Simpang JUPE,"PHMH+6PP, Jl. Lintas Kalimantan Poros Tengah, Batu Nanta, Kec. Belimbing Hulu, Kabupaten Melawi, Kalimantan Barat 79671","Jl. Lintas Kalimantan Poros Tengah, Batu Nanta, Kec. Belimbing Hulu, Kabupaten Melawi",KALIMANTAN BARAT,79671.0,Indonesia,82261973208.0,,,-0.2669097,111.5793125,https://maps.google.com/?cid=0x0:0x28f4abd46d1abac7,
cafe,Kafe,WARUNK D'SAVQIN,"Jl. Raya, Pemuar, Kec. Belimbing, Kabupaten Melawi, Kalimantan Barat 79671","Pemuar, Kec. Belimbing, Kabupaten Melawi",KALIMANTAN BARAT,79671.0,Indonesia,81350055363.0,,,-0.3075547,111.6471377,https://maps.google.com/?cid=0x0:0x5c01bf1c3e3d8aee,
cafe,Restoran,SHEN CHICKEN,"Jl. Lintas Kalimantan Poros Tengah, Batu Nanta, Kec. Belimbing, Kabupaten Melawi, Kalimantan Barat 79671","Batu Nanta, Kec. Belimbing, Kabupaten Melawi",KALIMANTAN BARAT,79671.0,Indonesia,82187337333.0,,,-0.2887953,111.6052303,https://maps.google.com/?cid=0x0:0x531960deaaeb3692,
cafe,Kafe,Cafe Kak Ida,"PGF2+6FH, Belonsat, Kec. Belimbing, Kabupaten Melawi, Kalimantan Barat 78655","Belonsat, Kec. Belimbing, Kabupaten Melawi",KALIMANTAN BARAT,78655.0,Indonesia,,,,-0.276928,111.5012443,https://maps.google.com/?cid=0x0:0xe708221bc2909ca8,
cafe,cafe,Kalimantan Barat 79681,"Kabupaten Melawi, Kalimantan Barat","Kabupaten Melawi, Kalimantan Barat",KALIMANTAN BARAT,,Indonesia,,,,-0.5928174,111.9999435,https://maps.google.com/?cid=0x0:0x56ab64304e08062b,
cafe,Kafe,Coffe Dua Putra,"H2Q2+2Q4 Kantor Camat, Nanga Nyuruh, Kec. Ella Hilir, Kabupaten Melawi, Kalimantan Barat 79681","Nanga Nyuruh, Kec. Ella Hilir, Kabupaten Melawi",KALIMANTAN BARAT,79681.0,Indonesia,5252646000.0,,,-0.4124984,112.0019379,https://maps.google.com/?cid=0x0:0xbd01f65e76fab38a,
cafe,Restoran,tory cafe,"J232+F74, Nanga Ella Hilir, Kec. Ella Hilir, Kabupaten Melawi, Kalimantan Barat 79681","Nanga Ella Hilir, Kec. Ella Hilir, Kabupaten Melawi",KALIMANTAN BARAT,79681.0,Indonesia,,,,-0.3963565,112.0007015,https://maps.google.com/?cid=0x0:0xde959b07979bb36e,
cafe,Kafe,Caffee nongkroeng,"H2M3+GQC, Nanga Ella Hilir, Kec. Ella Hilir, Kabupaten Melawi, Kalimantan Barat 79681","Nanga Ella Hilir, Kec. Ella Hilir, Kabupaten Melawi",KALIMANTAN BARAT,79681.0,Indonesia,,,,-0.4161794,112.0043946,https://maps.google.com/?cid=0x0:0x956bef51d0bf8e6b,
cafe,Kafe,Ella hilir,"F3HW+448, Nanga Nyuruh, Kec. Ella Hilir, Kabupaten Melawi, Kalimantan Barat","Kabupaten Melawi, Kalimantan Barat",KALIMANTAN BARAT,,Indonesia,,,,-0.5222196,112.0953297,https://maps.google.com/?cid=0x0:0x5849e1c5e48775f6,
cafe,Kedai Kopi,kedai kopi ella,"HXPX+QCH, Jl. Nanga Pinoh, Pelempai Jaya, Kec. Ella Hilir, Kabupaten Melawi, Kalimantan Barat 79681","Jl. Nanga Pinoh, Pelempai Jaya, Kec. Ella Hilir, Kabupaten Melawi",KALIMANTAN BARAT,79681.0,Indonesia,,,,-0.413058,111.9986023,https://maps.google.com/?cid=0x0:0xe5385b167062717c,
cafe,Kafe,KEDAI AMPEK KOTO,"H2P2+VVH, Nanga Pinoh - Ela Hilir, Nanga Ella Hilir, Kec. Ella Hilir, Kabupaten Melawi, Kalimantan Barat 79681","Nanga Pinoh - Ela Hilir, Nanga Ella Hilir, Kec. Ella Hilir, Kabupaten Melawi",KALIMANTAN BARAT,79681.0,Indonesia,,,,-0.4128162,112.0022485,https://maps.google.com/?cid=0x0:0x9f118d82830ef3aa,
cafe,Kafe,Warung Mak Joni,"J242+67Q, Unnamed Road,, Nanga Ella Hilir, Kec. Ella Hilir, Kabupaten Melawi, Kalimantan Barat 79681","Unnamed Road,, Nanga Ella Hilir, Kec. Ella Hilir, Kabupaten Melawi",KALIMANTAN BARAT,79681.0,Indonesia,85332425593.0,,,-0.3944,112.000749,https://maps.google.com/?cid=0x0:0xa7e19938950ba93c,
cafe,Komplek perumahan,Rumah Pak Paiman,"HXQQ+PQG, Pelempai Jaya, Kec. Ella Hilir, Kabupaten Melawi, Kalimantan Barat 79681","Pelempai Jaya, Kec. Ella Hilir, Kabupaten Melawi",KALIMANTAN BARAT,79681.0,Indonesia,,,,-0.4106892,111.9894448,https://maps.google.com/?cid=0x0:0xe39d4ed8f05213aa,
cafe,Kedai Kopi,Toko Abai Latan,"HXQM+FCP, Jl. Nanga Pinoh, Pelempai Jaya, Kec. Ella Hilir, Kabupaten Melawi, Kalimantan Barat 79681","Jl. Nanga Pinoh, Pelempai Jaya, Kec. Ella Hilir, Kabupaten Melawi",KALIMANTAN BARAT,79681.0,Indonesia,,,,-0.4112758,111.9835862,https://maps.google.com/?cid=0x0:0x5b42360b8f62439,
cafe,Restoran,Depot air minum dan RM Simpang Tiga,"H2J4+82, Nanga Ella Hilir, Kec. Ella Hilir, Kabupaten Melawi, Kalimantan Barat","Kabupaten Melawi, Kalimantan Barat",KALIMANTAN BARAT,,Indonesia,,,,-0.4192498,112.0052395,https://maps.google.com/?cid=0x0:0x27b7104fbcf39658,
cafe,Kafe,Warkop  warung makan Pur/nunung,"H3V5+9WX, Unnamed Road, Popai, Kec. Ella Hilir, Kabupaten Melawi, Kalimantan Barat 79681","Unnamed Road, Popai, Kec. Ella Hilir, Kabupaten Melawi",KALIMANTAN BARAT,79681.0,Indonesia,,,,-0.4065105,112.0598637,https://maps.google.com/?cid=0x0:0x415633db993f5195,
cafe,Kedai Kopi,WARUNG FAZAR AGUSTIA PUTRA,"H3VF+95Q, Unnamed Road, Popai, Kec. Ella Hilir, Kabupaten Melawi, Kalimantan Barat 79681","Unnamed Road, Popai, Kec. Ella Hilir, Kabupaten Melawi",KALIMANTAN BARAT,79681.0,Indonesia,,,,-0.4065325,112.0729991,https://maps.google.com/?cid=0x0:0x52ac3981cdec3d5c,
cafe,Kafe,WARUNG MAKAN KAK SITI,"H2Q2+2MJ, Nanga Ella Hilir, Kec. Ella Hilir, Kabupaten Melawi, Kalimantan Barat 79681","Nanga Ella Hilir, Kec. Ella Hilir, Kabupaten Melawi",KALIMANTAN BARAT,79681.0,Indonesia,,,,-0.4124204,112.0016458,https://maps.google.com/?cid=0x0:0xeb6a477b57bd8352,
cafe,Kedai Kopi,Satu Waktu Coffee,"Jalan Provinsi, Sidomulyo, Kec. Nanga Pinoh, Kabupaten Melawi, Kalimantan Barat 79672","Sidomulyo, Kec. Nanga Pinoh, Kabupaten Melawi",KALIMANTAN BARAT,79672.0,Indonesia,,,,-0.3365587,111.7260961,https://maps.google.com/?cid=0x0:0x3ab156e9d18cd1d6,
cafe,Kedai Kopi,Warung Gibril,"H3FR+6C, Domet Permai, Kec. Ella Hilir, Kabupaten Melawi, Kalimantan Barat","Kabupaten Melawi, Kalimantan Barat",KALIMANTAN BARAT,,Indonesia,,,,-0.426613,112.090644,https://maps.google.com/?cid=0x0:0x3807c9931c96ac4d,
cafe,Padang,Rumah Makan Rahayu Logpond SBK MHD,"H3V5+MGF, Popai, Kec. Ella Hilir, Kabupaten Melawi, Kalimantan Barat 79681","Popai, Kec. Ella Hilir, Kabupaten Melawi",KALIMANTAN BARAT,79681.0,Indonesia,852455430785.0,,,-0.4058225,112.0588108,https://maps.google.com/?cid=0x0:0xb9549bd732214038,
cafe,Kedai Kopi,Cafe Rizky,"H6JG+M7V, Nanga Ella Hulu, Kec. Menukung, Kabupaten Melawi, Kalimantan Barat 79682","Nanga Ella Hulu, Kec. Menukung, Kabupaten Melawi",KALIMANTAN BARAT,79682.0,Indonesia,85332931187.0,,,-0.4182579,112.2256801,https://maps.google.com/?cid=0x0:0x5b05a1dfbdcc065a,
cafe,Kafe,Cafe bima(Ella D),"JPW6+VW4, Sidomulyo, Kec. Nanga Pinoh, Kabupaten Melawi, Kalimantan Barat 79671","Sidomulyo, Kec. Nanga Pinoh, Kabupaten Melawi",KALIMANTAN BARAT,79671.0,Indonesia,82311652995.0,,,-0.3528742,111.7123381,https://maps.google.com/?cid=0x0:0x62299e901b1edc9b,
cafe,Kafe,Warung Pak Ishak,"H4G2+7XG, Nanga Nuak, Kec. Ella Hilir, Kabupaten Melawi, Kalimantan Barat 79681","Nanga Nuak, Kec. Ella Hilir, Kabupaten Melawi",KALIMANTAN BARAT,79681.0,Indonesia,,,,-0.4248533,112.1034783,https://maps.google.com/?cid=0x0:0x530bb292bcc55564,
cafe,cafe,RM Pariaman,"H3V4+P67, Popai, Kec. Ella Hilir, Kabupaten Melawi, Kalimantan Barat 79681","Popai, Kec. Ella Hilir, Kabupaten Melawi",KALIMANTAN BARAT,79681.0,Indonesia,,,,-0.4057052,112.0555506,https://maps.google.com/?cid=0x0:0xccb8250fda6ab127,
cafe,Kafe,Wantins,"J597+HX, Nanga Ella Hulu, Kec. Menukung, Kabupaten Melawi, Kalimantan Barat","Kabupaten Melawi, Kalimantan Barat",KALIMANTAN BARAT,,Indonesia,,,,-0.3810333,112.1648867,https://maps.google.com/?cid=0x0:0x20bf5ea9d21ebc42,
cafe,cafe,Menukung,"Nanga Ella Hulu, Kec. Menukung, Kabupaten Melawi, Kalimantan Barat","Kabupaten Melawi, Kalimantan Barat",KALIMANTAN BARAT,,Indonesia,,,,-0.395657,112.1717,https://maps.google.com/?cid=0x0:0x8d04b3ff9fa0089c,
cafe,Kafe,Cafe Nanda Putri,"H6JH+927, Menukung Kota, Kec. Menukung, Kabupaten Melawi, Kalimantan Barat 79682","Menukung Kota, Kec. Menukung, Kabupaten Melawi",KALIMANTAN BARAT,79682.0,Indonesia,81345136529.0,,,-0.4190887,112.2275503,https://maps.google.com/?cid=0x0:0x673f5d10cdb70406,
cafe,Kedai Kopi,Warkop Aman,"H6JG+FGC, Jl. HM. Saleh, Menukung Kota, Menukung, Melawi Regency, West Kalimantan 79682","Jl. HM. Saleh, Menukung Kota, Menukung, Melawi Regency",KALIMANTAN BARAT,79682.0,Indonesia,85250823008.0,,,-0.4188175,112.2262574,https://maps.google.com/?cid=0x0:0xc8319250b38d3adf,
cafe,Kedai Kopi,Cafe Toegoe,"Tj. Niaga, Kec. Nanga Pinoh, Kabupaten Melawi, Kalimantan Barat 78672","Kec. Nanga Pinoh, Kabupaten Melawi",KALIMANTAN BARAT,78672.0,Indonesia,82220887771.0,,,-0.3335043,111.7383596,https://maps.google.com/?cid=0x0:0x5f451f9689972993,
cafe,Kedai Kopi,Cafe Rizky,"H6JG+M7V, Nanga Ella Hulu, Kec. Menukung, Kabupaten Melawi, Kalimantan Barat 79682","Nanga Ella Hulu, Kec. Menukung, Kabupaten Melawi",KALIMANTAN BARAT,79682.0,Indonesia,85332931187.0,,,-0.4182579,112.2256801,https://maps.google.com/?cid=0x0:0x5b05a1dfbdcc065a,
cafe,Kafe,Warkop. M. M.,"J5C8+68J, Nanga Ella Hulu, Kec. Menukung, Kabupaten Melawi, Kalimantan Barat 79682","Nanga Ella Hulu, Kec. Menukung, Kabupaten Melawi",KALIMANTAN BARAT,79682.0,Indonesia,,,,-0.3794041,112.1657538,https://maps.google.com/?cid=0x0:0xa66b3d5a5722bfcc,
cafe,Restoran,Aming Coffee Melawi,"MP7R+9F3, Jl. Juang, Tj. Niaga, Kec. Nanga Pinoh, Kabupaten Melawi, Kalimantan Barat 79672","Jl. Juang, Tj. Niaga, Kec. Nanga Pinoh, Kabupaten Melawi",KALIMANTAN BARAT,79672.0,Indonesia,,,,-0.3366176,111.7411632,https://maps.google.com/?cid=0x0:0x6e50bd5f3ec2ff,
cafe,Kedai Kopi,Kopi Dari Hati  Toast Melawi,"Jl Juang, Depan Bank Kalbar, Kec. Nanga Pinoh, Kalimantan Barat 79672","Depan Bank Kalbar, Kec. Nanga Pinoh",KALIMANTAN BARAT,79672.0,Indonesia,85245779914.0,,,-0.3354942,111.7400928,https://maps.google.com/?cid=0x0:0xa63ac0fc42ce9517,
cafe,Kedai Kopi,Pondok Mak Neng,"MP5R+WJP, Jl. Patikrama, Tj. Niaga, Kec. Nanga Pinoh, Kabupaten Melawi, Kalimantan Barat 79672","Jl. Patikrama, Tj. Niaga, Kec. Nanga Pinoh, Kabupaten Melawi",KALIMANTAN BARAT,79672.0,Indonesia,81345678446.0,,,-0.3401584,111.7415725,https://maps.google.com/?cid=0x0:0xd8fc884e2164bd7d,
cafe,Kedai Kopi,Teras Juang Kopi,"MP4W+GFM, Jl. Juang, Kenual, Kec. Nanga Pinoh, Kabupaten Melawi, Kalimantan Barat 79672","Jl. Juang, Kenual, Kec. Nanga Pinoh, Kabupaten Melawi",KALIMANTAN BARAT,79672.0,Indonesia,,,,-0.3436696,111.7461854,https://maps.google.com/?cid=0x0:0x339182bb290f5818,
cafe,cafe,Nanga Pinoh,"Sidomulyo, Kec. Nanga Pinoh, Kabupaten Melawi, Kalimantan Barat","Kabupaten Melawi, Kalimantan Barat",KALIMANTAN BARAT,,Indonesia,,,,-0.331892,111.733398,https://maps.google.com/?cid=0x0:0x1b19b0cfdd74bdad,
cafe,Restoran,Aming Coffee Melawi,"MP7R+9F3, Jl. Juang, Tj. Niaga, Kec. Nanga Pinoh, Kabupaten Melawi, Kalimantan Barat 79672","Jl. Juang, Tj. Niaga, Kec. Nanga Pinoh, Kabupaten Melawi",KALIMANTAN BARAT,79672.0,Indonesia,,,,-0.3366176,111.7411632,https://maps.google.com/?cid=0x0:0x6e50bd5f3ec2ff,
cafe,Kedai Kopi,Kopi Dari Hati  Toast Melawi,"Jl Juang, Depan Bank Kalbar, Kec. Nanga Pinoh, Kalimantan Barat 79672","Depan Bank Kalbar, Kec. Nanga Pinoh",KALIMANTAN BARAT,79672.0,Indonesia,85245779914.0,,,-0.3354942,111.7400928,https://maps.google.com/?cid=0x0:0xa63ac0fc42ce9517,
cafe,Kafe,Cafe Pojok,"MP6V+MGM, Jl. Pendidikan, Paal, Kec. Nanga Pinoh, Kabupaten Melawi, Kalimantan Barat 79672","Jl. Pendidikan, Paal, Kec. Nanga Pinoh, Kabupaten Melawi",KALIMANTAN BARAT,79672.0,Indonesia,89671839874.0,,,-0.3382852,111.7438061,https://maps.google.com/?cid=0x0:0x803fd0c9888cd2b0,
cafe,Kedai Kopi,Cafe Toegoe,"Tj. Niaga, Kec. Nanga Pinoh, Kabupaten Melawi, Kalimantan Barat 78672","Kec. Nanga Pinoh, Kabupaten Melawi",KALIMANTAN BARAT,78672.0,Indonesia,82220887771.0,,,-0.3335043,111.7383596,https://maps.google.com/?cid=0x0:0x5f451f9689972993,
cafe,Kedai Kopi,Satu Waktu Coffee,"Jalan Provinsi, Sidomulyo, Kec. Nanga Pinoh, Kabupaten Melawi, Kalimantan Barat 79672","Sidomulyo, Kec. Nanga Pinoh, Kabupaten Melawi",KALIMANTAN BARAT,79672.0,Indonesia,,,,-0.3365587,111.7260961,https://maps.google.com/?cid=0x0:0x3ab156e9d18cd1d6,
cafe,Kedai Kopi,Coffee.majestic,"Jl. Kramat Raya No.3, Paal, Kec. Nanga Pinoh, Kabupaten Melawi, Kalimantan Barat 79672","Paal, Kec. Nanga Pinoh, Kabupaten Melawi",KALIMANTAN BARAT,79672.0,Indonesia,,,,-0.3448051,111.7491023,https://maps.google.com/?cid=0x0:0x41080ea698f0c7f1,
cafe,Restoran,Lovisâ€™ Recipes,"MP4X+7WG, Jl. Kramat Raya, Paal, Kec. Nanga Pinoh, Kabupaten Melawi, Kalimantan Barat 79672","Jl. Kramat Raya, Paal, Kec. Nanga Pinoh, Kabupaten Melawi",KALIMANTAN BARAT,79672.0,Indonesia,81351514272.0,,,-0.3443423,111.7497933,https://maps.google.com/?cid=0x0:0x5c6d2f5e156e9c47,
cafe,Kafe,RANA MUSIK CAFFE 2,"Jalan poros, Sidomulyo, Kec. Nanga Pinoh, Kabupaten Melawi, Kalimantan Barat","Kabupaten Melawi, Kalimantan Barat",KALIMANTAN BARAT,,Indonesia,81345056972.0,,,-0.3511546,111.7105173,https://maps.google.com/?cid=0x0:0xdcfff0b1ff4b25c2,
cafe,Kedai Kopi,Doro tambora 2,"MP46+5XM, Jl. Raya Propinsi, Sidomulyo, Kec. Nanga Pinoh, Kabupaten Melawi, Kalimantan Barat 79671","Jl. Raya Propinsi, Sidomulyo, Kec. Nanga Pinoh, Kabupaten Melawi",KALIMANTAN BARAT,79671.0,Indonesia,,,,-0.344532,111.7124196,https://maps.google.com/?cid=0x0:0x2e0dd1e5a7018b03,
cafe,Kedai Kopi,Kedai Kopi Tiga Putri,"MP8H+6WF, Sidomulyo, Kec. Nanga Pinoh, Kabupaten Melawi, Kalimantan Barat 79672","Sidomulyo, Kec. Nanga Pinoh, Kabupaten Melawi",KALIMANTAN BARAT,79672.0,Indonesia,82299988282.0,,,-0.3344334,111.7298097,https://maps.google.com/?cid=0x0:0x3bdd4e5358751602,
cafe,Kedai Kopi,Pondok Mak Neng,"MP5R+WJP, Jl. Patikrama, Tj. Niaga, Kec. Nanga Pinoh, Kabupaten Melawi, Kalimantan Barat 79672","Jl. Patikrama, Tj. Niaga, Kec. Nanga Pinoh, Kabupaten Melawi",KALIMANTAN BARAT,79672.0,Indonesia,81345678446.0,,,-0.3401584,111.7415725,https://maps.google.com/?cid=0x0:0xd8fc884e2164bd7d,
cafe,Kafe,Wk.Pancong,"MP9M+H66, Sidomulyo, Kec. Nanga Pinoh, Kabupaten Melawi, Kalimantan Barat 79672","Sidomulyo, Kec. Nanga Pinoh, Kabupaten Melawi",KALIMANTAN BARAT,79672.0,Indonesia,85350448474.0,,,-0.3310907,111.7330032,https://maps.google.com/?cid=0x0:0xc590c3345f3c6689,
cafe,Kedai Kopi,Kedai Kopi Saring Melawi,"Jalan Provinsi No.Km 2, Kenual, Kec. Nanga Pinoh, Kabupaten Melawi, Kalimantan Barat","Kabupaten Melawi, Kalimantan Barat",KALIMANTAN BARAT,,Indonesia,,,,-0.341068,111.7447838,https://maps.google.com/?cid=0x0:0xe8ad2f9a6fb3fdc7,
cafe,Kafe,Lokale Select Melawi,"sederetan Top Market, Jl. Juang No.KM 2, Paal, Kec. Nanga Pinoh, Kabupaten Melawi, Kalimantan Barat 79672","Jl. Juang No.KM 2, Paal, Kec. Nanga Pinoh, Kabupaten Melawi",KALIMANTAN BARAT,79672.0,Indonesia,85248966096.0,,,-0.3387412,111.7437498,https://maps.google.com/?cid=0x0:0xe662a6a89ddb4c88,
cafe,Kafe,YOUTH WARKOP BARBERSHOP,"MP9M+69R, Sidomulyo, Kec. Nanga Pinoh, Kabupaten Melawi, Kalimantan Barat","Kabupaten Melawi, Kalimantan Barat",KALIMANTAN BARAT,,Indonesia,,,,-0.331892,111.733398,https://maps.google.com/?cid=0x0:0x21c20590fb88705a,
cafe,Kafe,Kedai Kopi Babe,"MP8M+R6X, Jl. Raya Propinsi, Sidomulyo, Kec. Nanga Pinoh, Kabupaten Melawi, Kalimantan Barat 79672","Jl. Raya Propinsi, Sidomulyo, Kec. Nanga Pinoh, Kabupaten Melawi",KALIMANTAN BARAT,79672.0,Indonesia,81230242937.0,,,-0.3328804,111.7330988,https://maps.google.com/?cid=0x0:0xd85f0a3dba428494,
cafe,Stan Kopi,Kopi Manis Warung,"Jl. Beringin No.11, Sidomulyo, Kec. Nanga Pinoh, Kabupaten Melawi, Kalimantan Barat 79672","Sidomulyo, Kec. Nanga Pinoh, Kabupaten Melawi",KALIMANTAN BARAT,79672.0,Indonesia,56821201.0,,,-0.331562,111.733704,https://maps.google.com/?cid=0x0:0x3e057f5cf5926a63,
cafe,Kafe seni,Amici Cafe,"MP4X+2XC, Paal, Kec. Nanga Pinoh, Kabupaten Melawi, Kalimantan Barat 79672","Paal, Kec. Nanga Pinoh, Kabupaten Melawi",KALIMANTAN BARAT,79672.0,Indonesia,85348923293.0,,,-0.3449253,111.7498918,https://maps.google.com/?cid=0x0:0xa6bfa4d98a5d821b,
cafe,Padang,Andalas Rumah Makan,"MP9M+9CF, JL. Juang Nangapinoh, Sidomulyo, Kec. Nanga Pinoh, Kabupaten Melawi, Kalimantan Barat 79672","JL. Juang Nangapinoh, Sidomulyo, Kec. Nanga Pinoh, Kabupaten Melawi",KALIMANTAN BARAT,79672.0,Indonesia,56821449.0,,,-0.331562,111.733532,https://maps.google.com/?cid=0x0:0x29bc1ba79365830e,
cafe,Kafe seni,Vivi Cafe,"Jl. Juang No.km.1, Kenual, Kec. Nanga Pinoh, Kabupaten Melawi, Kalimantan Barat 79672","Kenual, Kec. Nanga Pinoh, Kabupaten Melawi",KALIMANTAN BARAT,79672.0,Indonesia,82197680125.0,,,-0.3381687,111.7430117,https://maps.google.com/?cid=0x0:0x5659fe4c11b32c81,
cafe,Kedai Kopi,CW Coffee,"MP8J+F23, Sidomulyo, Kec. Nanga Pinoh, Kabupaten Melawi, Kalimantan Barat 79672","Sidomulyo, Kec. Nanga Pinoh, Kabupaten Melawi",KALIMANTAN BARAT,79672.0,Indonesia,,,,-0.3338993,111.7300219,https://maps.google.com/?cid=0x0:0xa8697609a640eb78,
cafe,Padang,Rumah Mskan Padang Sera Naga Pinoh,"MP9M+69R, Sidomulyo, Kec. Nanga Pinoh, Kabupaten Melawi, Kalimantan Barat 79672","Sidomulyo, Kec. Nanga Pinoh, Kabupaten Melawi",KALIMANTAN BARAT,79672.0,Indonesia,895701712124.0,,,-0.331892,111.733398,https://maps.google.com/?cid=0x0:0x9c4a0dab1b479482,
cafe,cafe,Kalimantan Barat 79672,"Kabupaten Melawi, Kalimantan Barat","Kabupaten Melawi, Kalimantan Barat",KALIMANTAN BARAT,,Indonesia,,,,-0.4530658,111.8091625,https://maps.google.com/?cid=0x0:0xf8a34da63da634fa,
cafe,Kedai Kopi,Arah Dua Belas Coffe Shop,"Gg. H.A. Sukarna, Kenual, Kec. Nanga Pinoh, Kabupaten Melawi, Kalimantan Barat 79672","Kenual, Kec. Nanga Pinoh, Kabupaten Melawi",KALIMANTAN BARAT,79672.0,Indonesia,,,,-0.344013,111.7463159,https://maps.google.com/?cid=0x0:0x7f2a0d69ae33d1c3,
cafe,Kedai Kopi,Buana Rasa Cafe,"MP8Q+J83, Jalan Juang, Nanga Pinoh, Tj. Niaga, Melawi, Kabupaten Melawi, Kalimantan Barat 79672","Jalan Juang, Nanga Pinoh, Tj. Niaga, Melawi, Kabupaten Melawi",KALIMANTAN BARAT,79672.0,Indonesia,56821969.0,,,-0.3334788,111.7382996,https://maps.google.com/?cid=0x0:0x1afd1e650313f758,
cafe,Kedai Kopi,La Neira Kitchen  Coffee,"Jalan Juang Km 2, Gg. H. Abdul Manan No.2, Kenual, Kec. Nanga Pinoh, Kabupaten Melawi, Kalimantan Barat 79672","Gg. H. Abdul Manan No.2, Kenual, Kec. Nanga Pinoh, Kabupaten Melawi",KALIMANTAN BARAT,79672.0,Indonesia,87883000911.0,,,-0.3416378,111.7450503,https://maps.google.com/?cid=0x0:0x14e7d86db4a84063,
cafe,Kedai Kopi,CW Coffee,"MP8J+F23, Sidomulyo, Kec. Nanga Pinoh, Kabupaten Melawi, Kalimantan Barat 79672","Sidomulyo, Kec. Nanga Pinoh, Kabupaten Melawi",KALIMANTAN BARAT,79672.0,Indonesia,,,,-0.3338993,111.7300219,https://maps.google.com/?cid=0x0:0xa8697609a640eb78,
cafe,Kedai Kopi,Kopi Dari Hati  Toast Melawi,"Jl Juang, Depan Bank Kalbar, Kec. Nanga Pinoh, Kalimantan Barat 79672","Depan Bank Kalbar, Kec. Nanga Pinoh",KALIMANTAN BARAT,79672.0,Indonesia,85245779914.0,,,-0.3354942,111.7400928,https://maps.google.com/?cid=0x0:0xa63ac0fc42ce9517,
cafe,Restoran,Aming Coffee Melawi,"MP7R+9F3, Jl. Juang, Tj. Niaga, Kec. Nanga Pinoh, Kabupaten Melawi, Kalimantan Barat 79672","Jl. Juang, Tj. Niaga, Kec. Nanga Pinoh, Kabupaten Melawi",KALIMANTAN BARAT,79672.0,Indonesia,,,,-0.3366176,111.7411632,https://maps.google.com/?cid=0x0:0x6e50bd5f3ec2ff,
cafe,Kafe seni,22 Coffee,"Jl. Kramat Raya No.2, Paal, Kec. Nanga Pinoh, Kabupaten Melawi, Kalimantan Barat 79672","Paal, Kec. Nanga Pinoh, Kabupaten Melawi",KALIMANTAN BARAT,79672.0,Indonesia,,,,-0.3448726,111.7488261,https://maps.google.com/?cid=0x0:0x10130a40a5b06d69,
cafe,Tujuan Wisata,Rindu Alam Cafe,"FRR3+62V, Jalan Pinoh, Nanga Pintas, Kec. Pinoh Sel., Kabupaten Melawi, Kalimantan Barat 79672","Jalan Pinoh, Nanga Pintas, Kec. Pinoh Sel., Kabupaten Melawi",KALIMANTAN BARAT,79672.0,Indonesia,,,,-0.509397,111.802558,https://maps.google.com/?cid=0x0:0x7c469b20ad93b2e8,
cafe,Kafe seni,Halte Coffee 203,"MP6V+WW7, Jl. Pendidikan, Paal, Kec. Nanga Pinoh, Kabupaten Melawi, Kalimantan Barat 79672","Jl. Pendidikan, Paal, Kec. Nanga Pinoh, Kabupaten Melawi",KALIMANTAN BARAT,79672.0,Indonesia,85244626642.0,,,-0.337715,111.7447952,https://maps.google.com/?cid=0x0:0x71aa99709e7af459,
cafe,Kafe,PW cafe  EZA Laundry,"MP7H+XC5, Jl. Raya Propinsi, Sidomulyo, Kec. Nanga Pinoh, Kabupaten Melawi, Kalimantan Barat 79672","Jl. Raya Propinsi, Sidomulyo, Kec. Nanga Pinoh, Kabupaten Melawi",KALIMANTAN BARAT,79672.0,Indonesia,89501966527.0,,,-0.3351195,111.7286118,https://maps.google.com/?cid=0x0:0x805822f8bb677371,
cafe,Kafe seni,Purple Cafe,"MP3X+XJ5, Paal, Kec. Nanga Pinoh, Kabupaten Melawi, Kalimantan Barat 79672","Paal, Kec. Nanga Pinoh, Kabupaten Melawi",KALIMANTAN BARAT,79672.0,Indonesia,,,,-0.3451206,111.7490955,https://maps.google.com/?cid=0x0:0xf86968ff37340b40,
cafe,Kedai Kopi,Satu Waktu Coffee,"Jalan Provinsi, Sidomulyo, Kec. Nanga Pinoh, Kabupaten Melawi, Kalimantan Barat 79672","Sidomulyo, Kec. Nanga Pinoh, Kabupaten Melawi",KALIMANTAN BARAT,79672.0,Indonesia,,,,-0.3365587,111.7260961,https://maps.google.com/?cid=0x0:0x3ab156e9d18cd1d6,
cafe,Kafe seni,Delicae Cafe,"MP5V+VXH, Paal, Kec. Nanga Pinoh, Kabupaten Melawi, Kalimantan Barat 79672","Paal, Kec. Nanga Pinoh, Kabupaten Melawi",KALIMANTAN BARAT,79672.0,Indonesia,,,,-0.3403245,111.7449764,https://maps.google.com/?cid=0x0:0x8190901d5e9dfba2,
cafe,Kedai Kopi,Freya Bar  Resto,"MP7R+F86, Jl. Juang, Paal, Nanga Pinoh, Melawi Regency, West Kalimantan 79672","Jl. Juang, Paal, Nanga Pinoh, Melawi Regency",KALIMANTAN BARAT,79672.0,Indonesia,,,,-0.33633,111.7407632,https://maps.google.com/?cid=0x0:0x129eee4916703668,
cafe,Kedai Kopi,Wk_zC,"JQV3+Q6F, Jl. Lintas Kalimantan Poros Tengah, Paal, Kec. Nanga Pinoh, Kabupaten Melawi, Kalimantan Barat 79672","Jl. Lintas Kalimantan Poros Tengah, Paal, Kec. Nanga Pinoh, Kabupaten Melawi",KALIMANTAN BARAT,79672.0,Indonesia,82250617600.0,,,-0.355552,111.7530533,https://maps.google.com/?cid=0x0:0xd5d313ad7ff580fe,
cafe,Kafe,Line Coffee,"Jl. Lintas Kalimantan Poros Tengah, Kelakik, Kec. Nanga Pinoh, Kabupaten Melawi, Kalimantan Barat 79672","Kelakik, Kec. Nanga Pinoh, Kabupaten Melawi",KALIMANTAN BARAT,79672.0,Indonesia,85750000870.0,,,-0.3579613,111.7544102,https://maps.google.com/?cid=0x0:0xc88108f3b4636a8c,
cafe,Kafe,Dinsa Cafe,"MQ22+JJV, Paal, Kec. Nanga Pinoh, Kabupaten Melawi, Kalimantan Barat 79672","Paal, Kec. Nanga Pinoh, Kabupaten Melawi",KALIMANTAN BARAT,79672.0,Indonesia,,,,-0.3483967,111.7515396,https://maps.google.com/?cid=0x0:0x795cf17703157d5b,
cafe,Kedai Kopi,HC Caffe  Resto,"JQV5+X2C, Paal, Kec. Nanga Pinoh, Kabupaten Melawi, Kalimantan Barat 79672","Paal, Kec. Nanga Pinoh, Kabupaten Melawi",KALIMANTAN BARAT,79672.0,Indonesia,,,,-0.3550568,111.7575034,https://maps.google.com/?cid=0x0:0x8db91e0fc9f1d023,
cafe,Kafe seni,Amici Cafe,"MP4X+2XC, Paal, Kec. Nanga Pinoh, Kabupaten Melawi, Kalimantan Barat 79672","Paal, Kec. Nanga Pinoh, Kabupaten Melawi",KALIMANTAN BARAT,79672.0,Indonesia,85348923293.0,,,-0.3449253,111.7498918,https://maps.google.com/?cid=0x0:0xa6bfa4d98a5d821b,
cafe,Kedai Kopi,Cafe.VT4,"MQ42+F6P, Jl. Kramat Raya, Paal, Kec. Nanga Pinoh, Kabupaten Melawi, Kalimantan Barat 79672","Jl. Kramat Raya, Paal, Kec. Nanga Pinoh, Kabupaten Melawi",KALIMANTAN BARAT,79672.0,Indonesia,82149880936.0,,,-0.3437973,111.7505811,https://maps.google.com/?cid=0x0:0xfbc3c84649229967,
cafe,Kedai Kopi,HCC Cafe,"MP68+3PV, Jl. Raya Propinsi, Sidomulyo, Kec. Nanga Pinoh, Kabupaten Melawi, Kalimantan Barat 79672","Jl. Raya Propinsi, Sidomulyo, Kec. Nanga Pinoh, Kabupaten Melawi",KALIMANTAN BARAT,79672.0,Indonesia,,,,-0.3397725,111.7168083,https://maps.google.com/?cid=0x0:0xc8ca2abd6330e870,
cafe,cafe,Kalimantan Barat 79672,"Kabupaten Melawi, Kalimantan Barat","Kabupaten Melawi, Kalimantan Barat",KALIMANTAN BARAT,,Indonesia,,,,-0.4530658,111.8091625,https://maps.google.com/?cid=0x0:0xf8a34da63da634fa,
cafe,Kedai Kopi,Arah Dua Belas Coffe Shop,"Gg. H.A. Sukarna, Kenual, Kec. Nanga Pinoh, Kabupaten Melawi, Kalimantan Barat 79672","Kenual, Kec. Nanga Pinoh, Kabupaten Melawi",KALIMANTAN BARAT,79672.0,Indonesia,,,,-0.344013,111.7463159,https://maps.google.com/?cid=0x0:0x7f2a0d69ae33d1c3,
cafe,Kedai Kopi,Buana Rasa Cafe,"MP8Q+J83, Jalan Juang, Nanga Pinoh, Tj. Niaga, Melawi, Kabupaten Melawi, Kalimantan Barat 79672","Jalan Juang, Nanga Pinoh, Tj. Niaga, Melawi, Kabupaten Melawi",KALIMANTAN BARAT,79672.0,Indonesia,56821969.0,,,-0.3334788,111.7382996,https://maps.google.com/?cid=0x0:0x1afd1e650313f758,
cafe,Kedai Kopi,La Neira Kitchen  Coffee,"Jalan Juang Km 2, Gg. H. Abdul Manan No.2, Kenual, Kec. Nanga Pinoh, Kabupaten Melawi, Kalimantan Barat 79672","Gg. H. Abdul Manan No.2, Kenual, Kec. Nanga Pinoh, Kabupaten Melawi",KALIMANTAN BARAT,79672.0,Indonesia,87883000911.0,,,-0.3416378,111.7450503,https://maps.google.com/?cid=0x0:0x14e7d86db4a84063,
cafe,Kedai Kopi,CW Coffee,"MP8J+F23, Sidomulyo, Kec. Nanga Pinoh, Kabupaten Melawi, Kalimantan Barat 79672","Sidomulyo, Kec. Nanga Pinoh, Kabupaten Melawi",KALIMANTAN BARAT,79672.0,Indonesia,,,,-0.3338993,111.7300219,https://maps.google.com/?cid=0x0:0xa8697609a640eb78,
cafe,Kafe,Cafe Pojok,"MP6V+MGM, Jl. Pendidikan, Paal, Kec. Nanga Pinoh, Kabupaten Melawi, Kalimantan Barat 79672","Jl. Pendidikan, Paal, Kec. Nanga Pinoh, Kabupaten Melawi",KALIMANTAN BARAT,79672.0,Indonesia,89671839874.0,,,-0.3382852,111.7438061,https://maps.google.com/?cid=0x0:0x803fd0c9888cd2b0,
cafe,Restoran,Aming Coffee Melawi,"MP7R+9F3, Jl. Juang, Tj. Niaga, Kec. Nanga Pinoh, Kabupaten Melawi, Kalimantan Barat 79672","Jl. Juang, Tj. Niaga, Kec. Nanga Pinoh, Kabupaten Melawi",KALIMANTAN BARAT,79672.0,Indonesia,,,,-0.3366176,111.7411632,https://maps.google.com/?cid=0x0:0x6e50bd5f3ec2ff,
cafe,Kafe seni,22 Coffee,"Jl. Kramat Raya No.2, Paal, Kec. Nanga Pinoh, Kabupaten Melawi, Kalimantan Barat 79672","Paal, Kec. Nanga Pinoh, Kabupaten Melawi",KALIMANTAN BARAT,79672.0,Indonesia,,,,-0.3448726,111.7488261,https://maps.google.com/?cid=0x0:0x10130a40a5b06d69,
cafe,Kedai Kopi,Freya Bar  Resto,"MP7R+F86, Jl. Juang, Paal, Nanga Pinoh, Melawi Regency, West Kalimantan 79672","Jl. Juang, Paal, Nanga Pinoh, Melawi Regency",KALIMANTAN BARAT,79672.0,Indonesia,,,,-0.33633,111.7407632,https://maps.google.com/?cid=0x0:0x129eee4916703668,
cafe,Kafe seni,Halte Coffee 203,"MP6V+WW7, Jl. Pendidikan, Paal, Kec. Nanga Pinoh, Kabupaten Melawi, Kalimantan Barat 79672","Jl. Pendidikan, Paal, Kec. Nanga Pinoh, Kabupaten Melawi",KALIMANTAN BARAT,79672.0,Indonesia,85244626642.0,,,-0.337715,111.7447952,https://maps.google.com/?cid=0x0:0x71aa99709e7af459,
cafe,Kafe,Dinsa Cafe,"MQ22+JJV, Paal, Kec. Nanga Pinoh, Kabupaten Melawi, Kalimantan Barat 79672","Paal, Kec. Nanga Pinoh, Kabupaten Melawi",KALIMANTAN BARAT,79672.0,Indonesia,,,,-0.3483967,111.7515396,https://maps.google.com/?cid=0x0:0x795cf17703157d5b,
cafe,Kedai Kopi,Wk_zC,"JQV3+Q6F, Jl. Lintas Kalimantan Poros Tengah, Paal, Kec. Nanga Pinoh, Kabupaten Melawi, Kalimantan Barat 79672","Jl. Lintas Kalimantan Poros Tengah, Paal, Kec. Nanga Pinoh, Kabupaten Melawi",KALIMANTAN BARAT,79672.0,Indonesia,82250617600.0,,,-0.355552,111.7530533,https://maps.google.com/?cid=0x0:0xd5d313ad7ff580fe,
cafe,Kedai Kopi,Satu Waktu Coffee,"Jalan Provinsi, Sidomulyo, Kec. Nanga Pinoh, Kabupaten Melawi, Kalimantan Barat 79672","Sidomulyo, Kec. Nanga Pinoh, Kabupaten Melawi",KALIMANTAN BARAT,79672.0,Indonesia,,,,-0.3365587,111.7260961,https://maps.google.com/?cid=0x0:0x3ab156e9d18cd1d6,
cafe,Kafe,PW cafe  EZA Laundry,"MP7H+XC5, Jl. Raya Propinsi, Sidomulyo, Kec. Nanga Pinoh, Kabupaten Melawi, Kalimantan Barat 79672","Jl. Raya Propinsi, Sidomulyo, Kec. Nanga Pinoh, Kabupaten Melawi",KALIMANTAN BARAT,79672.0,Indonesia,89501966527.0,,,-0.3351195,111.7286118,https://maps.google.com/?cid=0x0:0x805822f8bb677371,
cafe,Kafe seni,Purple Cafe,"MP3X+XJ5, Paal, Kec. Nanga Pinoh, Kabupaten Melawi, Kalimantan Barat 79672","Paal, Kec. Nanga Pinoh, Kabupaten Melawi",KALIMANTAN BARAT,79672.0,Indonesia,,,,-0.3451206,111.7490955,https://maps.google.com/?cid=0x0:0xf86968ff37340b40,
cafe,Kafe,Line Coffee,"Jl. Lintas Kalimantan Poros Tengah, Kelakik, Kec. Nanga Pinoh, Kabupaten Melawi, Kalimantan Barat 79672","Kelakik, Kec. Nanga Pinoh, Kabupaten Melawi",KALIMANTAN BARAT,79672.0,Indonesia,85750000870.0,,,-0.3579613,111.7544102,https://maps.google.com/?cid=0x0:0xc88108f3b4636a8c,
cafe,Kafe seni,Amici Cafe,"MP4X+2XC, Paal, Kec. Nanga Pinoh, Kabupaten Melawi, Kalimantan Barat 79672","Paal, Kec. Nanga Pinoh, Kabupaten Melawi",KALIMANTAN BARAT,79672.0,Indonesia,85348923293.0,,,-0.3449253,111.7498918,https://maps.google.com/?cid=0x0:0xa6bfa4d98a5d821b,
cafe,Kedai Kopi,HC Caffe  Resto,"JQV5+X2C, Paal, Kec. Nanga Pinoh, Kabupaten Melawi, Kalimantan Barat 79672","Paal, Kec. Nanga Pinoh, Kabupaten Melawi",KALIMANTAN BARAT,79672.0,Indonesia,,,,-0.3550568,111.7575034,https://maps.google.com/?cid=0x0:0x8db91e0fc9f1d023,
cafe,Kedai Kopi,Cafe.VT4,"MQ42+F6P, Jl. Kramat Raya, Paal, Kec. Nanga Pinoh, Kabupaten Melawi, Kalimantan Barat 79672","Jl. Kramat Raya, Paal, Kec. Nanga Pinoh, Kabupaten Melawi",KALIMANTAN BARAT,79672.0,Indonesia,82149880936.0,,,-0.3437973,111.7505811,https://maps.google.com/?cid=0x0:0xfbc3c84649229967,
cafe,Kedai Kopi,Cafe Toegoe,"Tj. Niaga, Kec. Nanga Pinoh, Kabupaten Melawi, Kalimantan Barat 78672","Kec. Nanga Pinoh, Kabupaten Melawi",KALIMANTAN BARAT,78672.0,Indonesia,82220887771.0,,,-0.3335043,111.7383596,https://maps.google.com/?cid=0x0:0x5f451f9689972993,
cafe,Kafe seni,Delicae Cafe,"MP5V+VXH, Paal, Kec. Nanga Pinoh, Kabupaten Melawi, Kalimantan Barat 79672","Paal, Kec. Nanga Pinoh, Kabupaten Melawi",KALIMANTAN BARAT,79672.0,Indonesia,,,,-0.3403245,111.7449764,https://maps.google.com/?cid=0x0:0x8190901d5e9dfba2,
cafe,Kedai Kopi,Teras Juang Kopi,"MP4W+GFM, Jl. Juang, Kenual, Kec. Nanga Pinoh, Kabupaten Melawi, Kalimantan Barat 79672","Jl. Juang, Kenual, Kec. Nanga Pinoh, Kabupaten Melawi",KALIMANTAN BARAT,79672.0,Indonesia,,,,-0.3436696,111.7461854,https://maps.google.com/?cid=0x0:0x339182bb290f5818,
cafe,Kedai Kopi,Coffee.majestic,"Jl. Kramat Raya No.3, Paal, Kec. Nanga Pinoh, Kabupaten Melawi, Kalimantan Barat 79672","Paal, Kec. Nanga Pinoh, Kabupaten Melawi",KALIMANTAN BARAT,79672.0,Indonesia,,,,-0.3448051,111.7491023,https://maps.google.com/?cid=0x0:0x41080ea698f0c7f1,
cafe,cafe,Kalimantan Barat 79673,"Kec. Sayan, Kabupaten Melawi, Kalimantan Barat","Kabupaten Melawi, Kalimantan Barat",KALIMANTAN BARAT,,Indonesia,,,,-0.7351798,111.7137694,https://maps.google.com/?cid=0x0:0x6560f1dffd0c539e,
cafe,cafe,LAMONGAN CAK NUR,"8M53+FMJ, Nanga Sayan, Kec. Sayan, Kabupaten Melawi, Kalimantan Barat","Kabupaten Melawi, Kalimantan Barat",KALIMANTAN BARAT,,Indonesia,,,,-0.6912917,111.6541483,https://maps.google.com/?cid=0x0:0x8a19b2abbb2b8ed4,
cafe,Pembangunan Perumahan,Nanga raku,"6QMW+2QW, Dusun kepayang mekar, Nanga Raku, Kec. Sayan, Kabupaten Melawi","Kabupaten Melawi, Kalimantan Barat",KALIMANTAN BARAT,,Indonesia,,,,-0.7673936,111.7969679,https://maps.google.com/?cid=0x0:0xa3ce2cb18b9d4ca4,
cafe,cafe,LAMONGAN CAK NUR,"7M7V+252, Lkr. Indah, Kec. Sayan, Kabupaten Melawi, Kalimantan Barat 79673","Lkr. Indah, Kec. Sayan, Kabupaten Melawi",KALIMANTAN BARAT,79673.0,Indonesia,,,,-0.7374967,111.692902,https://maps.google.com/?cid=0x0:0xfb8fd029c703757a,
cafe,Indonesia,Cafe Ariyan,"6G3V+QF5, Batu Begigi, Kec. Tanah Pinoh, Kabupaten Melawi, Kalimantan Barat 79674","Batu Begigi, Kec. Tanah Pinoh, Kabupaten Melawi",KALIMANTAN BARAT,79674.0,Indonesia,,,,-0.7956102,111.5437388,https://maps.google.com/?cid=0x0:0x7c758bf85a988f9b,
cafe,Restoran,RM Arotomoro Bu De,"7M7V+252, Lkr. Indah, Kec. Sayan, Kabupaten Melawi, Kalimantan Barat 79673","Lkr. Indah, Kec. Sayan, Kabupaten Melawi",KALIMANTAN BARAT,79673.0,Indonesia,,,,-0.7374967,111.692902,https://maps.google.com/?cid=0x0:0x2347d6e6f7df642d,
cafe,Warnet,Fitri wifi,"4QW8+VQ, Nanga Kompi, Kec. Sayan, Kabupaten Melawi, Kalimantan Barat","Kabupaten Melawi, Kalimantan Barat",KALIMANTAN BARAT,,Indonesia,,,,-0.852771,111.766973,https://maps.google.com/?cid=0x0:0xca6a964d23a86b92,
cafe,cafe,Pondok Tani,"9QMC+P7C, Nanga Pintas, Kec. Pinoh Sel., Kabupaten Melawi, Kalimantan Barat","Kabupaten Melawi, Kalimantan Barat",KALIMANTAN BARAT,,Indonesia,82255342042.0,,,-0.6156875,111.7706406,https://maps.google.com/?cid=0x0:0x31a74dd1b000f390,
cafe,Warnet,BENAWAS WIFI,"8Q3Q+H9H, Meta Bersatu, Kec. Sayan, Kabupaten Melawi, Kalimantan Barat 79673","Meta Bersatu, Kec. Sayan, Kabupaten Melawi",KALIMANTAN BARAT,79673.0,Indonesia,,,,-0.6960536,111.7884717,https://maps.google.com/?cid=0x0:0xa84e02d8217873c3,
cafe,cafe,Kedai Seblak Nusa,"Jl. Raya, Batu Begigi, Kec. Tanah Pinoh, Kabupaten Melawi, Kalimantan Barat","Kabupaten Melawi, Kalimantan Barat",KALIMANTAN BARAT,,Indonesia,,,,-0.7914023,111.5549383,https://maps.google.com/?cid=0x0:0x764b3445629acd93,
cafe,cafe,Rumah Kopi,"Nanga Pintas, Kec. Pinoh Sel., Kabupaten Melawi, Kalimantan Barat","Kabupaten Melawi, Kalimantan Barat",KALIMANTAN BARAT,,Indonesia,,,,-0.5849578,111.7733902,https://maps.google.com/?cid=0x0:0x85304e2f50c7a49c,
cafe,Rumah Makan,RM. PODOMORO,"Jl. provinsi baru No.KM 40, Nanga Pintas, Kec. Pinoh Sel., Kabupaten Melawi, Kalimantan Barat 79677","Nanga Pintas, Kec. Pinoh Sel., Kabupaten Melawi",KALIMANTAN BARAT,79677.0,Indonesia,,,,-0.6185785,111.7674836,https://maps.google.com/?cid=0x0:0x4e04baac420dd87d,
cafe,Tujuan Wisata,Rindu Alam Cafe,"FRR3+62V, Jalan Pinoh, Nanga Pintas, Kec. Pinoh Sel., Kabupaten Melawi, Kalimantan Barat 79672","Jalan Pinoh, Nanga Pintas, Kec. Pinoh Sel., Kabupaten Melawi",KALIMANTAN BARAT,79672.0,Indonesia,,,,-0.509397,111.802558,https://maps.google.com/?cid=0x0:0x7c469b20ad93b2e8,
cafe,cafe,Kafe km 49,"5RQH+G72, Unnamed Road, Nanga Raku, Kec. Sayan, Kabupaten Melawi, Kalimantan Barat 79673","Unnamed Road, Nanga Raku, Kec. Sayan, Kabupaten Melawi",KALIMANTAN BARAT,79673.0,Indonesia,,,,-0.811238,111.828142,https://maps.google.com/?cid=0x0:0x2406cc8cde5dca60,
cafe,Warnet,Zahra Wifi,"5Q37+W8, Nanga Kompi, Kec. Sayan, Kabupaten Melawi, Kalimantan Barat","Kabupaten Melawi, Kalimantan Barat",KALIMANTAN BARAT,,Indonesia,,,,-0.8451656,111.7633082,https://maps.google.com/?cid=0x0:0xc8877a391e4f1fa6,
cafe,Kedai Kopi,Ubud Coffee Roastery - Sayan,"Jl. Cemp. Putih, Sayan, Kecamatan Ubud, Kabupaten Gianyar, Bali 80571","Sayan, Kecamatan Ubud, Kabupaten Gianyar",KALIMANTAN BARAT,80571.0,Indonesia,81138008001.0,,,-8.503489,115.2477143,https://maps.google.com/?cid=0x0:0x42b176dd6ec63abc,
cafe,Kafe,STORY coffee  eatery,"F6HQ+WPW, Jl. Raya Sayan, Sayan, Kecamatan Ubud, Kabupaten Gianyar, Bali 80571","Jl. Raya Sayan, Sayan, Kecamatan Ubud, Kabupaten Gianyar",KALIMANTAN BARAT,80571.0,Indonesia,,,,-8.5201275,115.239334,https://maps.google.com/?cid=0x0:0xce26ed51597ae8d1,
cafe,Kedai Kopi,Sembrani Coffee  Space,"Jl. Babakan Lb. No.81, RT.03/RW.05, Balungbangjaya, Kec. Bogor Bar., Kota Bogor, Jawa Barat 16116","RT.03/RW.05, Balungbangjaya, Kec. Bogor Bar., Kota Bogor",KALIMANTAN BARAT,16116.0,Indonesia,85159557525.0,,,-6.558146,106.738182,https://maps.google.com/?cid=0x0:0x185a6d052f4df71d,
cafe,Perpaduan,"The Cyan Sayan, Ubud - Coffee Shop  Eatery","F6PR+42F, Sayan, Kecamatan Ubud, Kabupaten Gianyar, Bali 80571","Sayan, Kecamatan Ubud, Kabupaten Gianyar",KALIMANTAN BARAT,80571.0,Indonesia,8123808070.0,,,-8.5146982,115.2400357,https://maps.google.com/?cid=0x0:0xa4ce7aa21b21f937,
cafe,Perpaduan,Sayan Valley,"Jl. Raya Sayan No.77, Sayan, Kecamatan Ubud, Kabupaten Gianyar, Bali 80571","Sayan, Kecamatan Ubud, Kabupaten Gianyar",KALIMANTAN BARAT,80571.0,Indonesia,82340642553.0,,,-8.49944,115.2443987,https://maps.google.com/?cid=0x0:0x65f36640ab9db1bf,
cafe,Kafe,Qunix coffee  eatery,"F6HQ+WPW, Jl. Raya Sayan, Sayan, Kecamatan Ubud, Kabupaten Gianyar, Bali 80571","Jl. Raya Sayan, Sayan, Kecamatan Ubud, Kabupaten Gianyar",KALIMANTAN BARAT,80571.0,Indonesia,,,,-8.520127,115.239331,https://maps.google.com/?cid=0x0:0xe072e6c760fea65c,
cafe,Kedai Kopi,O2 Unix Ubud,"F6HQ+XP3, Jl. Raya Sayan, Sayan, Kecamatan Ubud, Kabupaten Gianyar, Bali 80571","Jl. Raya Sayan, Sayan, Kecamatan Ubud, Kabupaten Gianyar",KALIMANTAN BARAT,80571.0,Indonesia,,,,-8.5201224,115.2393007,https://maps.google.com/?cid=0x0:0xa4efc4ff06ae7f8f,
cafe,Perpaduan,Sayan Point,"Sayan, Kecamatan Ubud, Kabupaten Gianyar, Bali 80571","Kecamatan Ubud, Kabupaten Gianyar",KALIMANTAN BARAT,80571.0,Indonesia,81353202352.0,,,-8.500014,115.244587,https://maps.google.com/?cid=0x0:0x917d5720d068e7d,
cafe,cafe,Sayan Terrace Cafe,"F6XV+H64, Br. Kutuh, Jl. Raya Sayan, Sayan, Kecamatan Ubud, Kabupaten Gianyar, Bali 80571","Br. Kutuh, Jl. Raya Sayan, Sayan, Kecamatan Ubud, Kabupaten Gianyar",KALIMANTAN BARAT,80571.0,Indonesia,361974384.0,,,-8.5011162,115.2430647,https://maps.google.com/?cid=0x0:0x60c9a161e2dc3c5,
cafe,cafe,Kalimantan Barat 79675,"Kabupaten Melawi, Kalimantan Barat","Kabupaten Melawi, Kalimantan Barat",KALIMANTAN BARAT,,Indonesia,,,,-1.0571933,111.3798928,https://maps.google.com/?cid=0x0:0x9429eb57dc989adc,
cafe,Kedai Kopi,KOPI NALA ( PT KARYA PERSADA NALADIVA ),"Sepakat, Sokan, Kabupaten Melawi, Kalimantan Barat 79674","Sokan, Kabupaten Melawi",KALIMANTAN BARAT,79674.0,Indonesia,8125009002.0,,,-0.9041459,111.4995488,https://maps.google.com/?cid=0x0:0x44b775d09fb855f8,
cafe,Sarapan,RUMAH MAKAN PAK MENG SOKAN,"Sepakat, Sokan, Kabupaten Melawi, Kalimantan Barat 79674","Sokan, Kabupaten Melawi",KALIMANTAN BARAT,79674.0,Indonesia,81298733701.0,,,-0.9053898,111.4982938,https://maps.google.com/?cid=0x0:0x81d4cd4368efe51c,
cafe,cafe,"Penginapan Sokan Permai dan King and Queen Coffee ,Eatery","Jalan propinsi dusun nusa jaya, Nanga Sokan, Sokan, Pontianak, West Kalimantan 79674","Nanga Sokan, Sokan, Pontianak",KALIMANTAN BARAT,79674.0,Indonesia,82152767000.0,,,-0.8987467,111.5048745,https://maps.google.com/?cid=0x0:0xb9a639aa8e1609a4,
cafe,Kedai Kopi,TOKO EKO SERVIS JAM DAN JUAL PULSA,"3FWX+XJM, Nanga Sokan, Sokan, Kabupaten Melawi, Kalimantan Barat 79674","Nanga Sokan, Sokan, Kabupaten Melawi",KALIMANTAN BARAT,79674.0,Indonesia,,,,-0.901793,111.499073,https://maps.google.com/?cid=0x0:0x8ff789462fc664a1,
cafe,Kedai Kopi,Sui Uban,"3GV2+H2P, Sepakat, Sokan, Kabupaten Melawi, Kalimantan Barat 79674","Sepakat, Sokan, Kabupaten Melawi",KALIMANTAN BARAT,79674.0,Indonesia,81649354679.0,,,-0.9060355,111.5000692,https://maps.google.com/?cid=0x0:0x62a746ac838d19c2,
cafe,Kedai Kopi,Kedai Kopi Saring Melawi,"Jalan Provinsi No.Km 2, Kenual, Kec. Nanga Pinoh, Kabupaten Melawi, Kalimantan Barat","Kabupaten Melawi, Kalimantan Barat",KALIMANTAN BARAT,,Indonesia,,,,-0.341068,111.7447838,https://maps.google.com/?cid=0x0:0xe8ad2f9a6fb3fdc7,
cafe,Kedai Kopi,Arah Dua Belas Coffe Shop,"Gg. H.A. Sukarna, Kenual, Kec. Nanga Pinoh, Kabupaten Melawi, Kalimantan Barat 79672","Kenual, Kec. Nanga Pinoh, Kabupaten Melawi",KALIMANTAN BARAT,79672.0,Indonesia,,,,-0.344013,111.7463159,https://maps.google.com/?cid=0x0:0x7f2a0d69ae33d1c3,
cafe,Kafe,Dinsa Cafe,"MQ22+JJV, Paal, Kec. Nanga Pinoh, Kabupaten Melawi, Kalimantan Barat 79672","Paal, Kec. Nanga Pinoh, Kabupaten Melawi",KALIMANTAN BARAT,79672.0,Indonesia,,,,-0.3483967,111.7515396,https://maps.google.com/?cid=0x0:0x795cf17703157d5b,
cafe,,WiFi.id CAFFE ANTON SPBU,"4G86+743, Madong Jaya, Kec. Tanah Pinoh, Kabupaten Melawi, Kalimantan Barat 79674","Madong Jaya, Kec. Tanah Pinoh, Kabupaten Melawi",KALIMANTAN BARAT,79674.0,Indonesia,82150258016.0,,,-0.885246,111.5100781,https://maps.google.com/?cid=0x0:0xb984af544759df39,
cafe,Kafe,Warkop sokan,"MP8Q+V2Q, Jl. Juang, Tj. Niaga, Kec. Nanga Pinoh, Kabupaten Melawi, Kalimantan Barat 79672","Jl. Juang, Tj. Niaga, Kec. Nanga Pinoh, Kabupaten Melawi",KALIMANTAN BARAT,79672.0,Indonesia,,,,-0.3327892,111.7375945,https://maps.google.com/?cid=0x0:0x5f0016eb5d0d8063,
cafe,Kedai Kopi,WK Gandaria (Gandaria Coffee Shop),"MP6C+F9, Sidomulyo, Kec. Nanga Pinoh, Kabupaten Melawi, Kalimantan Barat 79672","Sidomulyo, Kec. Nanga Pinoh, Kabupaten Melawi",KALIMANTAN BARAT,79672.0,Indonesia,,,,-0.3388739,111.720947,https://maps.google.com/?cid=0x0:0xa5aa64d2f6b12c5a,
cafe,Kedai Kopi,Wk_zC,"JQV3+Q6F, Jl. Lintas Kalimantan Poros Tengah, Paal, Kec. Nanga Pinoh, Kabupaten Melawi, Kalimantan Barat 79672","Jl. Lintas Kalimantan Poros Tengah, Paal, Kec. Nanga Pinoh, Kabupaten Melawi",KALIMANTAN BARAT,79672.0,Indonesia,82250617600.0,,,-0.355552,111.7530533,https://maps.google.com/?cid=0x0:0xd5d313ad7ff580fe,
cafe,Kedai Kopi,Warkop Naura Bakery  Drink (Nasar Jio) Brilink Desa Tekaban,"Tekaban, Kec. Belimbing, Kabupaten Melawi, Kalimantan Barat","Kabupaten Melawi, Kalimantan Barat",KALIMANTAN BARAT,,Indonesia,83145963737.0,,,-0.3651525,111.577369,https://maps.google.com/?cid=0x0:0x81ad94b30bbd736c,
cafe,Rumah Makan,RM SEDAP RASA,"3FWW+F8F, Muara Tj., Sokan, Kabupaten Melawi, Kalimantan Barat 79674","Muara Tj., Sokan, Kabupaten Melawi",KALIMANTAN BARAT,79674.0,Indonesia,,,,-0.9038202,111.495808,https://maps.google.com/?cid=0x0:0x956fadfd67551be4,
cafe,cafe,warkop bang afri,"XFJV+M5W, Landau Kabu, Sokan, Kabupaten Melawi, Kalimantan Barat 79675","Landau Kabu, Sokan, Kabupaten Melawi",KALIMANTAN BARAT,79675.0,Indonesia,,,,-1.0182712,111.4929606,https://maps.google.com/?cid=0x0:0x56ef0e3cc4bc87b2,
cafe,Kafe Cosplay,Gibran wifi,"4G23+GG3, Nanga Sokan, Sokan, Kabupaten Melawi, Kalimantan Barat","Kabupaten Melawi, Kalimantan Barat",KALIMANTAN BARAT,,Indonesia,,,,-0.8988007,111.5038145,https://maps.google.com/?cid=0x0:0xad9751ff9e9555c2,
cafe,Restoran,Soka F n B,"Jl. Selabintana I Blok C IV No.20 RT.12/RW.05, RT.11/RW.05, RT.11/RW.05, Kp. Parung Jambu, Katulampa, Bogor Timur, Bogor City, West Java 16144","RT.11/RW.05, RT.11/RW.05, Kp. Parung Jambu, Katulampa, Bogor Timur, Bogor City",KALIMANTAN BARAT,16144.0,Indonesia,2518360177.0,,,-6.6122675,106.8217793,https://maps.google.com/?cid=0x0:0xe3b3d629c71c71ba,
cafe,Kedai Kopi,THE SOKAW,"Jl. Pribadi No.43, RT.02/RW.07, Cilendek Tim., Kec. Bogor Bar., Kota Bogor, Jawa Barat 16112","RT.02/RW.07, Cilendek Tim., Kec. Bogor Bar., Kota Bogor",KALIMANTAN BARAT,16112.0,Indonesia,812546798521.0,,,-6.574705,106.7803541,https://maps.google.com/?cid=0x0:0x10deaa6fc9bac3b,
cafe,Kedai Kopi,Kopikans Community Lounge,"Jl. Pangeran Sogiri No.150, RT.01/RW.05, Tanah Baru, Kec. Bogor Utara, Kota Bogor, Jawa Barat 16154","RT.01/RW.05, Tanah Baru, Kec. Bogor Utara, Kota Bogor",KALIMANTAN BARAT,16154.0,Indonesia,8977575786.0,,,-6.5732713,106.8223855,https://maps.google.com/?cid=0x0:0xe563e211e3ba8f35,
cafe,Kafe,Sorangan Cafe,"Jalan Raya Tajur No.123 RT 01/06, Kota Bogor, Jawa Barat 16141",Kota Bogor,KALIMANTAN BARAT,16141.0,Indonesia,89639960049.0,,,-6.6343691,106.8269869,https://maps.google.com/?cid=0x0:0xf465dd48b28674c0,
cafe,Restoran,ANGKSOKA 652,"Jl. Taman Safari No.39, Cibeureum, Kec. Cisarua, Kabupaten Bogor, Jawa Barat 16750","Cibeureum, Kec. Cisarua, Kabupaten Bogor",KALIMANTAN BARAT,16750.0,Indonesia,85219532970.0,,,-6.6915491,106.943177,https://maps.google.com/?cid=0x0:0x49a7ec69c0bc7a7c,
cafe,Kedai Kopi,Sakop (Saung Kopi),"Jl. Cilubang No.4, RT.01/RW.08, Balungbangjaya, Kec. Bogor Bar., Kota Bogor, Jawa Barat 16116","RT.01/RW.08, Balungbangjaya, Kec. Bogor Bar., Kota Bogor",KALIMANTAN BARAT,16116.0,Indonesia,89652324781.0,,,-6.5592085,106.7393865,https://maps.google.com/?cid=0x0:0x393252a2dfaaa2e0,
cafe,Kedai Kopi,Saung coffe,"Kp. Ciharashas, Gg. Kabayan No.Rt 005/001, RT.05/RW.01, Mulyaharja, Kec. Bogor Sel., Kota Bogor, Jawa Barat 16135","Gg. Kabayan No.Rt 005/001, RT.05/RW.01, Mulyaharja, Kec. Bogor Sel., Kota Bogor",KALIMANTAN BARAT,16135.0,Indonesia,82298524881.0,,,-6.6497716,106.7867347,https://maps.google.com/?cid=0x0:0x5ae9b35f4a05fb59,
cafe,Kedai Kopi,Kedai sesapi,"Pangeran ashogiri, Komp taman soka Jl. Soka Raya No.1 b, RT.04/RW.03, Tanah Baru, Kec. Bogor Utara, Kota Bogor, Jawa Barat 16154","Komp taman soka Jl. Soka Raya No.1 b, RT.04/RW.03, Tanah Baru, Kec. Bogor Utara, Kota Bogor",KALIMANTAN BARAT,16154.0,Indonesia,81959756566.0,,,-6.566943,106.8216466,https://maps.google.com/?cid=0x0:0xb1d84bd0882ef201,
cafe,Kafe,Soeka Kopi,"Jl. Siliwangi Ruko Rajawali No.52B, Bondongan, Kec. Bogor Sel., Kota Bogor, Jawa Barat 16131","Bondongan, Kec. Bogor Sel., Kota Bogor",KALIMANTAN BARAT,16131.0,Indonesia,81231577366.0,,,-6.6148866,106.8086235,https://maps.google.com/?cid=0x0:0x2a3e07ab1727c5d6,
cafe,Kedai Kopi,GRAHA BIRENDRA (SILOKA COFFEE),"Jl. Pakuan Indah No.14, RT.01/RW.08, Baranangsiang, Kec. Bogor Tim., Kota Bogor, Jawa Barat 16143","RT.01/RW.08, Baranangsiang, Kec. Bogor Tim., Kota Bogor",KALIMANTAN BARAT,16143.0,Indonesia,,,,-6.6050397,106.8142624,https://maps.google.com/?cid=0x0:0x85872778b0fc5690,
cafe,Kafe,warung soka,"Jl. Pangeran Sogiri, Tanah Baru, Kec. Bogor Utara, Kota Bogor, Jawa Barat","Kota Bogor, Jawa Barat",KALIMANTAN BARAT,,Indonesia,,,,-6.5680564,106.8220448,https://maps.google.com/?cid=0x0:0x1efedabfd427124c,
cafe,Kafe,Nakoda coffee,"Jl. Mayjen H.R. Edi Sukma No.88 Blok.9, Ciherang Pd., Kec. Caringin, Kabupaten Bogor, Jawa Barat 16730","Ciherang Pd., Kec. Caringin, Kabupaten Bogor",KALIMANTAN BARAT,16730.0,Indonesia,81291665243.0,,,-6.6941208,106.8356394,https://maps.google.com/?cid=0x0:0x13401a6a80b58082,
cafe,cafe,Kec. Tanah Pinoh,"Kabupaten Melawi, Kalimantan Barat","Kabupaten Melawi, Kalimantan Barat",KALIMANTAN BARAT,,Indonesia,,,,-0.7945298,111.5460674,https://maps.google.com/?cid=0x0:0x6079bd527623d50e,
cafe,,WiFi.id CAFFE ANTON SPBU,"4G86+743, Madong Jaya, Kec. Tanah Pinoh, Kabupaten Melawi, Kalimantan Barat 79674","Madong Jaya, Kec. Tanah Pinoh, Kabupaten Melawi",KALIMANTAN BARAT,79674.0,Indonesia,82150258016.0,,,-0.885246,111.5100781,https://maps.google.com/?cid=0x0:0xb984af544759df39,
cafe,Kafe,EXOCYBER Wifi Center,"jalan provinsi kota baru sokan, Batu Begigi, Kec. Tanah Pinoh, Kabupaten Melawi, Kalimantan Barat 79674","Batu Begigi, Kec. Tanah Pinoh, Kabupaten Melawi",KALIMANTAN BARAT,79674.0,Indonesia,82148136233.0,,,-0.7933417,111.5521284,https://maps.google.com/?cid=0x0:0xb4933750e6e5ebf6,
cafe,Kedai Kopi,FIRANDA CAFE,"6H75+RCG, Batu Begigi, Kec. Tanah Pinoh, Kabupaten Melawi, Kalimantan Barat","Kabupaten Melawi, Kalimantan Barat",KALIMANTAN BARAT,,Indonesia,,,,-0.7854383,111.5585868,https://maps.google.com/?cid=0x0:0x86c62308becfadd0,
cafe,Indonesia,Cafe Ariyan,"6G3V+QF5, Batu Begigi, Kec. Tanah Pinoh, Kabupaten Melawi, Kalimantan Barat 79674","Batu Begigi, Kec. Tanah Pinoh, Kabupaten Melawi",KALIMANTAN BARAT,79674.0,Indonesia,,,,-0.7956102,111.5437388,https://maps.google.com/?cid=0x0:0x7c758bf85a988f9b,
cafe,cafe,Kedai Seblak Nusa,"Jl. Raya, Batu Begigi, Kec. Tanah Pinoh, Kabupaten Melawi, Kalimantan Barat","Kabupaten Melawi, Kalimantan Barat",KALIMANTAN BARAT,,Indonesia,,,,-0.7914023,111.5549383,https://maps.google.com/?cid=0x0:0x764b3445629acd93,
cafe,Indonesia,Win and friend,"6H43+P6Q, Dekat, Batu Begigi, Kec. Tanah Pinoh, Kabupaten Melawi, Kalimantan Barat 79674","Dekat, Batu Begigi, Kec. Tanah Pinoh, Kabupaten Melawi",KALIMANTAN BARAT,79674.0,Indonesia,,,,-0.7931575,111.5531127,https://maps.google.com/?cid=0x0:0x1fe9d86a6c084663,
cafe,Makanan Kecil,Penginapan empat putri,"Batu Begigi, Kec. Tanah Pinoh, Kabupaten Melawi, Kalimantan Barat 79674","Kec. Tanah Pinoh, Kabupaten Melawi",KALIMANTAN BARAT,79674.0,Indonesia,85246522427.0,,,-0.7934244,111.5527682,https://maps.google.com/?cid=0x0:0x5fb965ea7ca66f67,
cafe,Kedai Kopi,Kedai J.A,"6H43+WJ, Batu Begigi, Kec. Tanah Pinoh, Kabupaten Melawi, Kalimantan Barat 79674","Batu Begigi, Kec. Tanah Pinoh, Kabupaten Melawi",KALIMANTAN BARAT,79674.0,Indonesia,82148492157.0,,,-0.7926264,111.5540522,https://maps.google.com/?cid=0x0:0x6e03f7346495ef57,
cafe,Dapur Umum,MARTABAK DIAMOND 99,"6G4X+4JX, Batu Begigi, Kec. Tanah Pinoh, Kabupaten Melawi, Kalimantan Barat 79674","Batu Begigi, Kec. Tanah Pinoh, Kabupaten Melawi",KALIMANTAN BARAT,79674.0,Indonesia,82178333690.0,,,-0.79464,111.549119,https://maps.google.com/?cid=0x0:0x96eb4c198895e6bf,
cafe,Kedai Kopi,Kopi rindu,"Jl. Provinsi,Dusun Gelombang No.Desa, Loka Jaya, Kec. Tanah Pinoh, Kabupaten Melawi, Kalimantan Barat 79674","Loka Jaya, Kec. Tanah Pinoh, Kabupaten Melawi",KALIMANTAN BARAT,79674.0,Indonesia,,,,-0.7992383,111.5417583,https://maps.google.com/?cid=0x0:0xd34441e2c4f0b227,
cafe,Kedai Kopi,KOPI NALA ( PT KARYA PERSADA NALADIVA ),"Sepakat, Sokan, Kabupaten Melawi, Kalimantan Barat 79674","Sokan, Kabupaten Melawi",KALIMANTAN BARAT,79674.0,Indonesia,8125009002.0,,,-0.9041459,111.4995488,https://maps.google.com/?cid=0x0:0x44b775d09fb855f8,
cafe,Kedai Kopi,Cafe 01,"Dusun kanual 1, Loka Jaya, pelanjung, Kabupaten Melawi, Kalimantan Barat 79674","Loka Jaya, pelanjung, Kabupaten Melawi",KALIMANTAN BARAT,79674.0,Indonesia,8978349798.0,,,-0.8090575,111.5384499,https://maps.google.com/?cid=0x0:0x4260897c58983962,
cafe,Kedai Kopi,R.C KEDAI KOPI CANDRA,"6G3R+VXM, Suka Maju, Kec. Tanah Pinoh, Kabupaten Melawi, Kalimantan Barat","Kabupaten Melawi, Kalimantan Barat",KALIMANTAN BARAT,,Indonesia,85388747333.0,,,-0.7952974,111.542418,https://maps.google.com/?cid=0x0:0x3e5c9430f16b016e,
cafe,Indonesia,KANTIN DANTI,"Batu Begigi, Kec. Tanah Pinoh, Kabupaten Melawi, Kalimantan Barat 79674","Kec. Tanah Pinoh, Kabupaten Melawi",KALIMANTAN BARAT,79674.0,Indonesia,,,,-0.7927258,111.5539315,https://maps.google.com/?cid=0x0:0xf1fa04a97ec8399e,
cafe,Kedai Kopi,CW Coffee,"MP8J+F23, Sidomulyo, Kec. Nanga Pinoh, Kabupaten Melawi, Kalimantan Barat 79672","Sidomulyo, Kec. Nanga Pinoh, Kabupaten Melawi",KALIMANTAN BARAT,79672.0,Indonesia,,,,-0.3338993,111.7300219,https://maps.google.com/?cid=0x0:0xa8697609a640eb78,
cafe,Kedai Kopi,Satu Waktu Coffee,"Jalan Provinsi, Sidomulyo, Kec. Nanga Pinoh, Kabupaten Melawi, Kalimantan Barat 79672","Sidomulyo, Kec. Nanga Pinoh, Kabupaten Melawi",KALIMANTAN BARAT,79672.0,Indonesia,,,,-0.3365587,111.7260961,https://maps.google.com/?cid=0x0:0x3ab156e9d18cd1d6,
cafe,Padang,RM ETEK Masakan Padang,"6G4V+4C, Suka Maju, Kec. Tanah Pinoh, Kabupaten Melawi, Kalimantan Barat","Kabupaten Melawi, Kalimantan Barat",KALIMANTAN BARAT,,Indonesia,,,,-0.794666,111.5434924,https://maps.google.com/?cid=0x0:0x1b271e120ec9c082,
cafe,Kedai Kopi,Jaya Motor (Warkop Semampir),"6H53+4RH, Batu Begigi, Kec. Tanah Pinoh, Kabupaten Melawi, Kalimantan Barat","Kabupaten Melawi, Kalimantan Barat",KALIMANTAN BARAT,,Indonesia,,,,-0.792361,111.554353,https://maps.google.com/?cid=0x0:0x2bd94de038ce028d,
cafe,Kafe,nurWiFi simpang adau,"3FWQ+C86, Tj. Sokan, Sokan, Kabupaten Melawi, Kalimantan Barat 79674","Tj. Sokan, Sokan, Kabupaten Melawi",KALIMANTAN BARAT,79674.0,Indonesia,,,,-0.9039746,111.4882701,https://maps.google.com/?cid=0x0:0xa918a3bf3329195e,
cafe,Sarapan,RUMAH MAKAN PAK MENG SOKAN,"Sepakat, Sokan, Kabupaten Melawi, Kalimantan Barat 79674","Sokan, Kabupaten Melawi",KALIMANTAN BARAT,79674.0,Indonesia,81298733701.0,,,-0.9053898,111.4982938,https://maps.google.com/?cid=0x0:0x81d4cd4368efe51c,
cafe,,WiFi.id CAFFE ANTON SPBU,"4G86+743, Madong Jaya, Kec. Tanah Pinoh, Kabupaten Melawi, Kalimantan Barat 79674","Madong Jaya, Kec. Tanah Pinoh, Kabupaten Melawi",KALIMANTAN BARAT,79674.0,Indonesia,82150258016.0,,,-0.885246,111.5100781,https://maps.google.com/?cid=0x0:0xb984af544759df39,
cafe,cafe,Kalimantan Barat 79674,"Kabupaten Melawi, Kalimantan Barat","Kabupaten Melawi, Kalimantan Barat",KALIMANTAN BARAT,,Indonesia,,,,-0.7723312,111.3798928,https://maps.google.com/?cid=0x0:0x6d8acf73897d9e8b,
cafe,Kafe,EXOCYBER Wifi Center,"jalan provinsi kota baru sokan, Batu Begigi, Kec. Tanah Pinoh, Kabupaten Melawi, Kalimantan Barat 79674","Batu Begigi, Kec. Tanah Pinoh, Kabupaten Melawi",KALIMANTAN BARAT,79674.0,Indonesia,82148136233.0,,,-0.7933417,111.5521284,https://maps.google.com/?cid=0x0:0xb4933750e6e5ebf6,
cafe,cafe,Kedai Seblak Nusa,"Jl. Raya, Batu Begigi, Kec. Tanah Pinoh, Kabupaten Melawi, Kalimantan Barat","Kabupaten Melawi, Kalimantan Barat",KALIMANTAN BARAT,,Indonesia,,,,-0.7914023,111.5549383,https://maps.google.com/?cid=0x0:0x764b3445629acd93,
cafe,Kedai Kopi,FIRANDA CAFE,"6H75+RCG, Batu Begigi, Kec. Tanah Pinoh, Kabupaten Melawi, Kalimantan Barat","Kabupaten Melawi, Kalimantan Barat",KALIMANTAN BARAT,,Indonesia,,,,-0.7854383,111.5585868,https://maps.google.com/?cid=0x0:0x86c62308becfadd0,
cafe,Indonesia,Cafe Ariyan,"6G3V+QF5, Batu Begigi, Kec. Tanah Pinoh, Kabupaten Melawi, Kalimantan Barat 79674","Batu Begigi, Kec. Tanah Pinoh, Kabupaten Melawi",KALIMANTAN BARAT,79674.0,Indonesia,,,,-0.7956102,111.5437388,https://maps.google.com/?cid=0x0:0x7c758bf85a988f9b,
cafe,Kedai Kopi,Kedai J.A,"6H43+WJ, Batu Begigi, Kec. Tanah Pinoh, Kabupaten Melawi, Kalimantan Barat 79674","Batu Begigi, Kec. Tanah Pinoh, Kabupaten Melawi",KALIMANTAN BARAT,79674.0,Indonesia,82148492157.0,,,-0.7926264,111.5540522,https://maps.google.com/?cid=0x0:0x6e03f7346495ef57,
cafe,Makanan Kecil,Penginapan empat putri,"Batu Begigi, Kec. Tanah Pinoh, Kabupaten Melawi, Kalimantan Barat 79674","Kec. Tanah Pinoh, Kabupaten Melawi",KALIMANTAN BARAT,79674.0,Indonesia,85246522427.0,,,-0.7934244,111.5527682,https://maps.google.com/?cid=0x0:0x5fb965ea7ca66f67,
cafe,Indonesia,Win and friend,"6H43+P6Q, Dekat, Batu Begigi, Kec. Tanah Pinoh, Kabupaten Melawi, Kalimantan Barat 79674","Dekat, Batu Begigi, Kec. Tanah Pinoh, Kabupaten Melawi",KALIMANTAN BARAT,79674.0,Indonesia,,,,-0.7931575,111.5531127,https://maps.google.com/?cid=0x0:0x1fe9d86a6c084663,
cafe,Kedai Kopi,KOPI NALA ( PT KARYA PERSADA NALADIVA ),"Sepakat, Sokan, Kabupaten Melawi, Kalimantan Barat 79674","Sokan, Kabupaten Melawi",KALIMANTAN BARAT,79674.0,Indonesia,8125009002.0,,,-0.9041459,111.4995488,https://maps.google.com/?cid=0x0:0x44b775d09fb855f8,
cafe,Kedai Kopi,Kopi rindu,"Jl. Provinsi,Dusun Gelombang No.Desa, Loka Jaya, Kec. Tanah Pinoh, Kabupaten Melawi, Kalimantan Barat 79674","Loka Jaya, Kec. Tanah Pinoh, Kabupaten Melawi",KALIMANTAN BARAT,79674.0,Indonesia,,,,-0.7992383,111.5417583,https://maps.google.com/?cid=0x0:0xd34441e2c4f0b227,
cafe,Kedai Kopi,Cafe 01,"Dusun kanual 1, Loka Jaya, pelanjung, Kabupaten Melawi, Kalimantan Barat 79674","Loka Jaya, pelanjung, Kabupaten Melawi",KALIMANTAN BARAT,79674.0,Indonesia,8978349798.0,,,-0.8090575,111.5384499,https://maps.google.com/?cid=0x0:0x4260897c58983962,
cafe,Kedai Kopi,Cafe Toegoe,"Tj. Niaga, Kec. Nanga Pinoh, Kabupaten Melawi, Kalimantan Barat 78672","Kec. Nanga Pinoh, Kabupaten Melawi",KALIMANTAN BARAT,78672.0,Indonesia,82220887771.0,,,-0.3335043,111.7383596,https://maps.google.com/?cid=0x0:0x5f451f9689972993,
cafe,Kedai Kopi,R.C KEDAI KOPI CANDRA,"6G3R+VXM, Suka Maju, Kec. Tanah Pinoh, Kabupaten Melawi, Kalimantan Barat","Kabupaten Melawi, Kalimantan Barat",KALIMANTAN BARAT,,Indonesia,85388747333.0,,,-0.7952974,111.542418,https://maps.google.com/?cid=0x0:0x3e5c9430f16b016e,
cafe,Dapur Umum,MARTABAK DIAMOND 99,"6G4X+4JX, Batu Begigi, Kec. Tanah Pinoh, Kabupaten Melawi, Kalimantan Barat 79674","Batu Begigi, Kec. Tanah Pinoh, Kabupaten Melawi",KALIMANTAN BARAT,79674.0,Indonesia,82178333690.0,,,-0.79464,111.549119,https://maps.google.com/?cid=0x0:0x96eb4c198895e6bf,
cafe,Indonesia,KANTIN DANTI,"Batu Begigi, Kec. Tanah Pinoh, Kabupaten Melawi, Kalimantan Barat 79674","Kec. Tanah Pinoh, Kabupaten Melawi",KALIMANTAN BARAT,79674.0,Indonesia,,,,-0.7927258,111.5539315,https://maps.google.com/?cid=0x0:0xf1fa04a97ec8399e,
cafe,Kedai Kopi,Jaya Motor (Warkop Semampir),"6H53+4RH, Batu Begigi, Kec. Tanah Pinoh, Kabupaten Melawi, Kalimantan Barat","Kabupaten Melawi, Kalimantan Barat",KALIMANTAN BARAT,,Indonesia,,,,-0.792361,111.554353,https://maps.google.com/?cid=0x0:0x2bd94de038ce028d,
cafe,Kafe,nurWiFi simpang adau,"3FWQ+C86, Tj. Sokan, Sokan, Kabupaten Melawi, Kalimantan Barat 79674","Tj. Sokan, Sokan, Kabupaten Melawi",KALIMANTAN BARAT,79674.0,Indonesia,,,,-0.9039746,111.4882701,https://maps.google.com/?cid=0x0:0xa918a3bf3329195e,
cafe,Kedai Kopi,Buana Rasa Cafe,"MP8Q+J83, Jalan Juang, Nanga Pinoh, Tj. Niaga, Melawi, Kabupaten Melawi, Kalimantan Barat 79672","Jalan Juang, Nanga Pinoh, Tj. Niaga, Melawi, Kabupaten Melawi",KALIMANTAN BARAT,79672.0,Indonesia,56821969.0,,,-0.3334788,111.7382996,https://maps.google.com/?cid=0x0:0x1afd1e650313f758,
cafe,Padang,RM ETEK Masakan Padang,"6G4V+4C, Suka Maju, Kec. Tanah Pinoh, Kabupaten Melawi, Kalimantan Barat","Kabupaten Melawi, Kalimantan Barat",KALIMANTAN BARAT,,Indonesia,,,,-0.794666,111.5434924,https://maps.google.com/?cid=0x0:0x1b271e120ec9c082,
cafe,Kedai Kopi,Satu Waktu Coffee,"Jalan Provinsi, Sidomulyo, Kec. Nanga Pinoh, Kabupaten Melawi, Kalimantan Barat 79672","Sidomulyo, Kec. Nanga Pinoh, Kabupaten Melawi",KALIMANTAN BARAT,79672.0,Indonesia,,,,-0.3365587,111.7260961,https://maps.google.com/?cid=0x0:0x3ab156e9d18cd1d6,
cafe,Sarapan,RUMAH MAKAN PAK MENG SOKAN,"Sepakat, Sokan, Kabupaten Melawi, Kalimantan Barat 79674","Sokan, Kabupaten Melawi",KALIMANTAN BARAT,79674.0,Indonesia,81298733701.0,,,-0.9053898,111.4982938,https://maps.google.com/?cid=0x0:0x81d4cd4368efe51c,
cafe,Kedai Kopi,TOKO EKO SERVIS JAM DAN JUAL PULSA,"3FWX+XJM, Nanga Sokan, Sokan, Kabupaten Melawi, Kalimantan Barat 79674","Nanga Sokan, Sokan, Kabupaten Melawi",KALIMANTAN BARAT,79674.0,Indonesia,,,,-0.901793,111.499073,https://maps.google.com/?cid=0x0:0x8ff789462fc664a1,
