Category,Real Category,Business Name,Address,City,State,Postal Code,Country,Phone,Email,Website,Latitude,Longitude,Map Link,Details Link
toko bangunan,Toko Bahan Bangunan,Terang matahari Hardware,"Hilir Ktr., Kec. Ngabang, Kabupaten Landak, Kalimantan Barat 79357","Kec. Ngabang, Kabupaten Landak",KALIMANTAN BARAT,79357.0,Indonesia,87712804566.0,,,0.3818973,109.9561916,https://maps.google.com/?cid=0x0:0xfa94da211ea22748,
toko bangunan,toko bangunan,Kalimantan Barat 79365,"Kec. Air Besar, Kabupaten Landak, Kalimantan Barat","Kabupaten Landak, Kalimantan Barat",KALIMANTAN BARAT,,Indonesia,,,,0.9225877,110.0449662,https://maps.google.com/?cid=0x0:0x8668b83c1ca1ca6f,
toko bangunan,Toko Perlengkapan Rumah,Toko Bangunan Mulia,"Jl. Ps. Baru No.12, Hilir Ktr., Kec. Ngabang, Kabupaten Landak, Kalimantan Barat 79357","Hilir Ktr., Kec. Ngabang, Kabupaten Landak",KALIMANTAN BARAT,79357.0,Indonesia,8111982700.0,,,0.3835956,109.9601286,https://maps.google.com/?cid=0x0:0xa5f68c663ca213c5,
toko bangunan,Toko Perlengkapan Rumah,Tb.Citra Bangunan,"9XM6+Q6J, Jl. Ps. Laut, Hilir Tengah, Kec. Ngabang, Kabupaten Landak, Kalimantan Barat 79357","Jl. Ps. Laut, Hilir Tengah, Kec. Ngabang, Kabupaten Landak",KALIMANTAN BARAT,79357.0,Indonesia,8111982700.0,,,0.3844723,109.9605089,https://maps.google.com/?cid=0x0:0xf1f5abc70590bad0,
toko bangunan,toko bangunan,Toko Hasil Baru,"Q422+RQ2, Jl. Serimbu Ngabang, Serimbu, Kec. Air Besar, Kabupaten Landak, Kalimantan Barat 79367","Jl. Serimbu Ngabang, Serimbu, Kec. Air Besar, Kabupaten Landak",KALIMANTAN BARAT,79367.0,Indonesia,,,,0.7520081,110.1018882,https://maps.google.com/?cid=0x0:0x890610c205455e58,
toko bangunan,Toko Bahan Bangunan,Landak Bangunan,"9XP5+WP3, Jl. Bardan Nadi, Hilir Tengah, Kec. Ngabang, Kabupaten Landak, Kalimantan Barat 79357","Jl. Bardan Nadi, Hilir Tengah, Kec. Ngabang, Kabupaten Landak",KALIMANTAN BARAT,79357.0,Indonesia,8111982700.0,,,0.3872733,109.9593016,https://maps.google.com/?cid=0x0:0xc75305c32de6bfe4,
toko bangunan,Toko Bahan Bangunan,Cipta Bangunan,"9WWX+H97, Hilir Tengah, Kec. Ngabang, Kabupaten Landak, Kalimantan Barat 79357","Hilir Tengah, Kec. Ngabang, Kabupaten Landak",KALIMANTAN BARAT,79357.0,Indonesia,8111982700.0,,,0.396421,109.9484203,https://maps.google.com/?cid=0x0:0xf088f261fd607a8d,
toko bangunan,Toko Bahan Bangunan,Toko Multi Bangunan,"9XP5+2MP, Jl. Lintas Kalimantan Poros Tengah, Hilir Ktr., Kec. Ngabang, Kabupaten Landak, Kalimantan Barat 79357","Jl. Lintas Kalimantan Poros Tengah, Hilir Ktr., Kec. Ngabang, Kabupaten Landak",KALIMANTAN BARAT,79357.0,Indonesia,8111982700.0,,,0.3850776,109.9592099,https://maps.google.com/?cid=0x0:0x60b3c06f8c4a7011,
toko bangunan,toko bangunan,Toko bangunan,"Jl. Pangeran Cinata No.59, RT.10/RW.05, Raja, Kec. Ngabang, Kabupaten Landak, Kalimantan Barat 79354","RT.10/RW.05, Raja, Kec. Ngabang, Kabupaten Landak",KALIMANTAN BARAT,79354.0,Indonesia,81311923119.0,,,0.3960259,109.9508377,https://maps.google.com/?cid=0x0:0x336a17eb466b1a49,
toko bangunan,Toko Perlengkapan Rumah,Toko sumber material,"Jl. Lintas Kalimantan Poros Tengah, Amboyo Inti, Kec. Ngabang, Kabupaten Landak, Kalimantan Barat","Kabupaten Landak, Kalimantan Barat",KALIMANTAN BARAT,,Indonesia,,,,0.367728,109.9221852,https://maps.google.com/?cid=0x0:0x841c7ba8e6a535a1,
toko bangunan,Toko Bahan Bangunan,MAJU JAYA MAKLIE,"9XV4+XRX, Hilir Tengah, Kec. Ngabang, Kabupaten Landak, Kalimantan Barat 79357","Hilir Tengah, Kec. Ngabang, Kabupaten Landak",KALIMANTAN BARAT,79357.0,Indonesia,8111982700.0,,,0.3949754,109.9571039,https://maps.google.com/?cid=0x0:0x912fe6dfbc45dd05,
toko bangunan,Toko Bahan Bangunan,TOKO ONO WAY MENJUAL BAHAN BANGUNAN DAN SARANA PERTANIAN,"sei bandung, Kec. Menjalin, Kabupaten Landak, Kalimantan Barat 79362","Kec. Menjalin, Kabupaten Landak",KALIMANTAN BARAT,79362.0,Indonesia,82174890800.0,,,0.4570836,109.3296623,https://maps.google.com/?cid=0x0:0xe3454284dc0628dc,
toko bangunan,Toko Bahan Bangunan,Setia Bangunan,"9XJ3+63F, Hilir Ktr., Kec. Ngabang, Kabupaten Landak, Kalimantan Barat 79357","Hilir Ktr., Kec. Ngabang, Kabupaten Landak",KALIMANTAN BARAT,79357.0,Indonesia,82149338200.0,,,0.3805561,109.9526752,https://maps.google.com/?cid=0x0:0xb85c771525c54ecd,
toko bangunan,Toko,Toko mekar 38,"8MF4+27H, Saham, Kec. Sengah Temila, Kabupaten Landak, Kalimantan Barat 79358","Saham, Kec. Sengah Temila, Kabupaten Landak",KALIMANTAN BARAT,79358.0,Indonesia,81521990644.0,,,0.3225668,109.655732,https://maps.google.com/?cid=0x0:0x74fb50e202edc72a,
toko bangunan,Toko Cat,Samurai Paint - TB Mutiara Bangunan,"9XPC+42G, Jl. Lintas Kalimantan Poros Tengah, Hilir Tengah, Kec. Ngabang, Kabupaten Landak, Kalimantan Barat 79357","Jl. Lintas Kalimantan Poros Tengah, Hilir Tengah, Kec. Ngabang, Kabupaten Landak",KALIMANTAN BARAT,79357.0,Indonesia,,,,0.3853175,109.970073,https://maps.google.com/?cid=0x0:0x26dce5eae4c84526,
toko bangunan,toko bangunan,Toko bangunan,"PP2W+J54, Selange, Kec. Meranti, Kabupaten Landak, Kalimantan Barat 79366","Selange, Kec. Meranti, Kabupaten Landak",KALIMANTAN BARAT,79366.0,Indonesia,,,,0.7015223,109.7454392,https://maps.google.com/?cid=0x0:0xc316b5d0ff16484e,
toko bangunan,Toko Bahan Bangunan,Toko Bangunan Aneka jaya,"Jl. Raya Ciomas Kreteg Blok Sholeh No.82, RT.2/RW.5, Padasuka, Kec. Ciomas, Kabupaten Bogor, Jawa Barat 16610","RT.2/RW.5, Padasuka, Kec. Ciomas, Kabupaten Bogor",KALIMANTAN BARAT,16610.0,Indonesia,8388827583.0,,,-6.6013019,106.762599,https://maps.google.com/?cid=0x0:0x6380840d6401309e,
toko bangunan,Toko Bahan Bangunan,Toko Sari Bangunan,"Jl. Batu Tulis No.91, RT.005/04, RT.05/RW.04, Batutulis, Kec. Bogor Sel., Kota Bogor, Jawa Barat 16133","RT.005/04, RT.05/RW.04, Batutulis, Kec. Bogor Sel., Kota Bogor",KALIMANTAN BARAT,16133.0,Indonesia,85266458291.0,,,-6.6206632,106.8078841,https://maps.google.com/?cid=0x0:0x40292ab5fd84d9c5,
toko bangunan,Toko Bahan Bangunan,Tb.Sumber Bangunan Baru,"Jl. Raya Gn. Salak Endah, Gn. Picung, Kec. Pamijahan, Kabupaten Bogor, Jawa Barat 16810","Gn. Picung, Kec. Pamijahan, Kabupaten Bogor",KALIMANTAN BARAT,16810.0,Indonesia,85169983355.0,,,-6.6606812,106.6670953,https://maps.google.com/?cid=0x0:0x35b2bf83588ca4e3,
toko bangunan,Toko Bahan Bangunan,Toko Bahan Bangunan Utama,"Jl. Kb. Pedes No.2, RT.07/RW.03, Kb. Pedes, Kec. Tanah Sereal, Kota Bogor, Jawa Barat 16162","RT.07/RW.03, Kb. Pedes, Kec. Tanah Sereal, Kota Bogor",KALIMANTAN BARAT,16162.0,Indonesia,2518335057.0,,,-6.5682338,106.799767,https://maps.google.com/?cid=0x0:0xef38080ad714dd8f,
toko bangunan,Toko Bahan Bangunan,Toko Bangunan Jiyah,"Jl. Raya Ciomas No.325, Ciomas, Kec. Ciomas, Kabupaten Bogor, Jawa Barat 16610","Ciomas, Kec. Ciomas, Kabupaten Bogor",KALIMANTAN BARAT,16610.0,Indonesia,85266458291.0,,,-6.6027174,106.7678384,https://maps.google.com/?cid=0x0:0x45a4da23be7a4a26,
toko bangunan,Toko Bahan Bangunan,Toko Bangunan Tirta Jaya,"RT.03/RW.02, Mekarwangi, Kec. Tanah Sereal, Kota Bogor, Jawa Barat 16168","Mekarwangi, Kec. Tanah Sereal, Kota Bogor",KALIMANTAN BARAT,16168.0,Indonesia,89637746158.0,,,-6.5347057,106.7803167,https://maps.google.com/?cid=0x0:0x40a5f3c92bacce7a,
toko bangunan,Toko Bahan Bangunan,TOKO BANGUNAN LESTARI,"Jl. K.H. Halimi No.36b, Wr. Menteng, Kec. Cijeruk, Kabupaten Bogor, Jawa Barat 16740","Wr. Menteng, Kec. Cijeruk, Kabupaten Bogor",KALIMANTAN BARAT,16740.0,Indonesia,87851162038.0,,,-6.7046755,106.7977637,https://maps.google.com/?cid=0x0:0xdc451013e58d1a5c,
toko bangunan,Toko Bahan Bangunan,TB Harmoni 8,"Jalan Kampung Pasir Karet No. 104, RT.04/RW.04, Cijayanti, Kabupaten Bogor, Jawa Barat 16811","RT.04/RW.04, Cijayanti, Kabupaten Bogor",KALIMANTAN BARAT,16811.0,Indonesia,85281028685.0,,,-6.615071,106.8871766,https://maps.google.com/?cid=0x0:0xb569e845cde64714,
toko bangunan,toko bangunan,Kalimantan Barat 79364,"Kabupaten Landak, Kalimantan Barat","Kabupaten Landak, Kalimantan Barat",KALIMANTAN BARAT,,Indonesia,,,,0.6737656,109.6163185,https://maps.google.com/?cid=0x0:0x8890c5a7792b01c3,
toko bangunan,Toko Bahan Bangunan,Bravo Aregas,"JHQ7+C8F, Jl. Bengkayang - Ngabang, Tembawang Bale, Kec. Banyuke Hulu, Kabupaten Landak, Kalimantan Barat 79364","Jl. Bengkayang - Ngabang, Tembawang Bale, Kec. Banyuke Hulu, Kabupaten Landak",KALIMANTAN BARAT,79364.0,Indonesia,,,,0.6387488,109.5631173,https://maps.google.com/?cid=0x0:0xe67353b4ce237d8,
toko bangunan,Toko Bahan Bangunan,TB. Elegant Material,"Jl. Bengkayang - Ngabang, Darit, Kec. Menyuke, Kabupaten Landak, Kalimantan Barat 79364","Darit, Kec. Menyuke, Kabupaten Landak",KALIMANTAN BARAT,79364.0,Indonesia,81253364030.0,,,0.5857487,109.6293016,https://maps.google.com/?cid=0x0:0xd86f6c28f6ad6445,
toko bangunan,toko bangunan,Gudang Pabanta,"PG95+XFH, Jl. Bengkayang - Ngabang, Semade, Kec. Banyuke Hulu, Kabupaten Landak, Kalimantan Barat 79364","Jl. Bengkayang - Ngabang, Semade, Kec. Banyuke Hulu, Kabupaten Landak",KALIMANTAN BARAT,79364.0,Indonesia,,,,0.7195681,109.5086433,https://maps.google.com/?cid=0x0:0xa48ed5796e09f7bb,
toko bangunan,Toko Bahan Bangunan,MAJU JAYA MAKLIE,"9XV4+XRX, Hilir Tengah, Kec. Ngabang, Kabupaten Landak, Kalimantan Barat 79357","Hilir Tengah, Kec. Ngabang, Kabupaten Landak",KALIMANTAN BARAT,79357.0,Indonesia,8111982700.0,,,0.3949754,109.9571039,https://maps.google.com/?cid=0x0:0x912fe6dfbc45dd05,
toko bangunan,toko bangunan,Toko bangunan,"Jl. Pangeran Cinata No.59, RT.10/RW.05, Raja, Kec. Ngabang, Kabupaten Landak, Kalimantan Barat 79354","RT.10/RW.05, Raja, Kec. Ngabang, Kabupaten Landak",KALIMANTAN BARAT,79354.0,Indonesia,81311923119.0,,,0.3960259,109.9508377,https://maps.google.com/?cid=0x0:0x336a17eb466b1a49,
toko bangunan,Toko Perlengkapan Rumah,Toko Bangunan Mulia,"Jl. Ps. Baru No.12, Hilir Ktr., Kec. Ngabang, Kabupaten Landak, Kalimantan Barat 79357","Hilir Ktr., Kec. Ngabang, Kabupaten Landak",KALIMANTAN BARAT,79357.0,Indonesia,8111982700.0,,,0.3835956,109.9601286,https://maps.google.com/?cid=0x0:0xa5f68c663ca213c5,
toko bangunan,Toko Bahan Bangunan,SENTOSA BANGUNAN,"Amboyo Inti, Kec. Ngabang, Kabupaten Landak, Kalimantan Barat 79357","Kec. Ngabang, Kabupaten Landak",KALIMANTAN BARAT,79357.0,Indonesia,8111982700.0,,,0.3683875,109.9244531,https://maps.google.com/?cid=0x0:0xae7edc6a72dfe218,
toko bangunan,Toko Bahan Bangunan,Toko Multi Bangunan,"9XP5+2MP, Jl. Lintas Kalimantan Poros Tengah, Hilir Ktr., Kec. Ngabang, Kabupaten Landak, Kalimantan Barat 79357","Jl. Lintas Kalimantan Poros Tengah, Hilir Ktr., Kec. Ngabang, Kabupaten Landak",KALIMANTAN BARAT,79357.0,Indonesia,8111982700.0,,,0.3850776,109.9592099,https://maps.google.com/?cid=0x0:0x60b3c06f8c4a7011,
toko bangunan,Toko Bahan Bangunan,Terang matahari Hardware,"Hilir Ktr., Kec. Ngabang, Kabupaten Landak, Kalimantan Barat 79357","Kec. Ngabang, Kabupaten Landak",KALIMANTAN BARAT,79357.0,Indonesia,87712804566.0,,,0.3818973,109.9561916,https://maps.google.com/?cid=0x0:0xfa94da211ea22748,
toko bangunan,Toko Bahan Bangunan,Kencana Jaya. PD,"JL Umar Wirahadi Kusumah No.Km 7, Semedang, Kec. Kuala Behe, Kabupaten Landak, Kalimantan Barat 79357","Semedang, Kec. Kuala Behe, Kabupaten Landak",KALIMANTAN BARAT,79357.0,Indonesia,82318533725.0,,,0.6095949,110.0330554,https://maps.google.com/?cid=0x0:0x357992ea406aea45,
toko bangunan,Toko Perlengkapan Rumah,Makmur Bangunan,"Jl. Lintas Kalimantan Poros Tengah, Hilir Tengah, Kec. Ngabang, Kabupaten Landak, Kalimantan Barat 79357","Hilir Tengah, Kec. Ngabang, Kabupaten Landak",KALIMANTAN BARAT,79357.0,Indonesia,8111982700.0,,,0.3858608,109.9596058,https://maps.google.com/?cid=0x0:0x3e86d5a659f5bb54,
toko bangunan,Toko Bahan Bangunan,Landak Bangunan,"9XP5+WP3, Jl. Bardan Nadi, Hilir Tengah, Kec. Ngabang, Kabupaten Landak, Kalimantan Barat 79357","Jl. Bardan Nadi, Hilir Tengah, Kec. Ngabang, Kabupaten Landak",KALIMANTAN BARAT,79357.0,Indonesia,8111982700.0,,,0.3872733,109.9593016,https://maps.google.com/?cid=0x0:0xc75305c32de6bfe4,
toko bangunan,Toko,Toko mekar 38,"8MF4+27H, Saham, Kec. Sengah Temila, Kabupaten Landak, Kalimantan Barat 79358","Saham, Kec. Sengah Temila, Kabupaten Landak",KALIMANTAN BARAT,79358.0,Indonesia,81521990644.0,,,0.3225668,109.655732,https://maps.google.com/?cid=0x0:0x74fb50e202edc72a,
toko bangunan,Toko Bahan Bangunan,Cipta Bangunan,"9WWX+H97, Hilir Tengah, Kec. Ngabang, Kabupaten Landak, Kalimantan Barat 79357","Hilir Tengah, Kec. Ngabang, Kabupaten Landak",KALIMANTAN BARAT,79357.0,Indonesia,8111982700.0,,,0.396421,109.9484203,https://maps.google.com/?cid=0x0:0xf088f261fd607a8d,
toko bangunan,Toko Bahan Bangunan,Toko bintang jaya,"Jl. Raya Mungguk, Hilir Tengah, Kec. Ngabang, Kabupaten Landak, Kalimantan Barat 79357","Hilir Tengah, Kec. Ngabang, Kabupaten Landak",KALIMANTAN BARAT,79357.0,Indonesia,8111982700.0,,,0.4021229,109.9452074,https://maps.google.com/?cid=0x0:0x9998ec04f275d15e,
toko bangunan,Toko Bahan Bangunan,TB. Sengat Jubata,"9XMC+7XX, Jl. Raya Pulau Bendu, Hilir Tengah, Kec. Ngabang, Kabupaten Landak, Kalimantan Barat 79357","Jl. Raya Pulau Bendu, Hilir Tengah, Kec. Ngabang, Kabupaten Landak",KALIMANTAN BARAT,79357.0,Indonesia,,,,0.3831397,109.972569,https://maps.google.com/?cid=0x0:0x7d0e8047b7d55da8,
toko bangunan,toko bangunan,Kec. Jelimpo,"Kabupaten Landak, Kalimantan Barat","Kabupaten Landak, Kalimantan Barat",KALIMANTAN BARAT,,Indonesia,,,,0.3150332,110.0885231,https://maps.google.com/?cid=0x0:0x30fd1a6bdb685b75,
toko bangunan,Toko Bahan Bangunan,Anugerah Sukses Bangunan,"9XP8+J7V, Jl. Raya Pulau Bendu, Hilir Tengah, Kec. Ngabang, Kabupaten Landak, Kalimantan Barat 79357","Jl. Raya Pulau Bendu, Hilir Tengah, Kec. Ngabang, Kabupaten Landak",KALIMANTAN BARAT,79357.0,Indonesia,,,,0.3866153,109.9656649,https://maps.google.com/?cid=0x0:0x8e803c577aeb05ab,
toko bangunan,Toko Perlengkapan Rumah,Tb.Citra Bangunan,"9XM6+Q6J, Jl. Ps. Laut, Hilir Tengah, Kec. Ngabang, Kabupaten Landak, Kalimantan Barat 79357","Jl. Ps. Laut, Hilir Tengah, Kec. Ngabang, Kabupaten Landak",KALIMANTAN BARAT,79357.0,Indonesia,8111982700.0,,,0.3844723,109.9605089,https://maps.google.com/?cid=0x0:0xf1f5abc70590bad0,
toko bangunan,toko bangunan,TOKO BANGUNAN SENGGENG RAYA,"Jelimpo, Kec. Jelimpo, Kabupaten Landak, Kalimantan Barat","Kabupaten Landak, Kalimantan Barat",KALIMANTAN BARAT,,Indonesia,,,,0.31504,110.0888559,https://maps.google.com/?cid=0x0:0xd23eb0924cd6cecf,
toko bangunan,Toko Cat,Samurai Paint - TB Mutiara Bangunan,"9XPC+42G, Jl. Lintas Kalimantan Poros Tengah, Hilir Tengah, Kec. Ngabang, Kabupaten Landak, Kalimantan Barat 79357","Jl. Lintas Kalimantan Poros Tengah, Hilir Tengah, Kec. Ngabang, Kabupaten Landak",KALIMANTAN BARAT,79357.0,Indonesia,,,,0.3853175,109.970073,https://maps.google.com/?cid=0x0:0x26dce5eae4c84526,
toko bangunan,Toko Bahan Bangunan,Mutiara jaya batako,"9XHJ+8GP, Tebedak, Kec. Ngabang, Kabupaten Landak, Kalimantan Barat","Kabupaten Landak, Kalimantan Barat",KALIMANTAN BARAT,,Indonesia,82189890468.0,,,0.3783366,109.9813376,https://maps.google.com/?cid=0x0:0x121e23a16c133010,
toko bangunan,Toko Bahan Bangunan,Toko Bangunan Sumber Berkat,"66X5+7G4, Jl. Tayan - Sosok, Menyabo, Kec. Tayan Hulu, Kabupaten Sanggau, Kalimantan Barat 78562","Jl. Tayan - Sosok, Menyabo, Kec. Tayan Hulu, Kabupaten Sanggau",KALIMANTAN BARAT,78562.0,Indonesia,81376455945.0,,,0.2481488,110.2088302,https://maps.google.com/?cid=0x0:0x4c3c726c926afb9c,
toko bangunan,Toko Bahan Bangunan,Terang Megah Bangunan,"9XM6+M6R, Jl. Ps. Laut, Hilir Tengah, Kec. Ngabang, Kabupaten Landak, Kalimantan Barat 79357","Jl. Ps. Laut, Hilir Tengah, Kec. Ngabang, Kabupaten Landak",KALIMANTAN BARAT,79357.0,Indonesia,81256482222.0,,,0.3842268,109.9605229,https://maps.google.com/?cid=0x0:0x950191c7bb6bab58,
toko bangunan,toko bangunan,Kalimantan Barat 79367,"Kabupaten Landak, Kalimantan Barat","Kabupaten Landak, Kalimantan Barat",KALIMANTAN BARAT,,Indonesia,,,,0.7436183,109.9973244,https://maps.google.com/?cid=0x0:0xb49541f7c227bcc0,
toko bangunan,Toko Bahan Bangunan,Kencana Jaya. PD,"JL Umar Wirahadi Kusumah No.Km 7, Semedang, Kec. Kuala Behe, Kabupaten Landak, Kalimantan Barat 79357","Semedang, Kec. Kuala Behe, Kabupaten Landak",KALIMANTAN BARAT,79357.0,Indonesia,82318533725.0,,,0.6095949,110.0330554,https://maps.google.com/?cid=0x0:0x357992ea406aea45,
toko bangunan,Toko Bahan Bangunan,Harapan Terang Perus,"J26P+3PX, Dusun Nanggawer, Semedang, Kec. Kuala Behe, Kabupaten Landak, Kalimantan Barat 79357","Dusun Nanggawer, Semedang, Kec. Kuala Behe, Kabupaten Landak",KALIMANTAN BARAT,79357.0,Indonesia,261202789.0,,,0.6102297,110.0368603,https://maps.google.com/?cid=0x0:0x259e59104e2ce4aa,
toko bangunan,Toko Bahan Bangunan,N. P JAYA,"88CM+388, Simpang Kasturi, Kec. Mandor, Kabupaten Landak, Kalimantan Barat 79355","Simpang Kasturi, Kec. Mandor, Kabupaten Landak",KALIMANTAN BARAT,79355.0,Indonesia,,,,0.3201736,109.3333307,https://maps.google.com/?cid=0x0:0x568c09ad9ee3fe6f,
toko bangunan,Toko Bahan Bangunan,TB. Nipah jaya,"35GQ+W86, Jl. Sungai Nipah, Sei Nipah, Kec. Jongkat, Kab. Mempawah, Kalimantan Barat 78351","Jl. Sungai Nipah, Sei Nipah, Kec. Jongkat, Kab. Mempawah",KALIMANTAN BARAT,78351.0,Indonesia,,,,0.0772848,109.1882742,https://maps.google.com/?cid=0x0:0x15cf40b0c1ee1ae,
toko bangunan,toko bangunan,Kalimantan Barat 79363,"Kec. Mempawah Hulu, Kabupaten Landak, Kalimantan Barat","Kabupaten Landak, Kalimantan Barat",KALIMANTAN BARAT,,Indonesia,,,,0.6745598,109.4259114,https://maps.google.com/?cid=0x0:0xdcefe0766b98359b,
toko bangunan,Toko Bahan Bangunan,TB Anugerah Jaya - Samurai Paint,"Jl. Anjungan - Bengkayang, Karangan, Kec. Mempawah Hulu, Kabupaten Landak, Kalimantan Barat 79362","Karangan, Kec. Mempawah Hulu, Kabupaten Landak",KALIMANTAN BARAT,79362.0,Indonesia,81250397373.0,,,0.5469996,109.3757326,https://maps.google.com/?cid=0x0:0xc88a288f969e15f1,
toko bangunan,Toko Bahan Bangunan,Toko Mitra Bangunan,"9X97+666, Pulau Pedalaman, Mempawah Tim., Kab. Mempawah, Kalimantan Barat 78912","Pulau Pedalaman, Mempawah Tim., Kab. Mempawah",KALIMANTAN BARAT,78912.0,Indonesia,81376455945.0,,,0.3680477,108.9630308,https://maps.google.com/?cid=0x0:0x17547a099ee96211,
toko bangunan,Toko Perlengkapan Rumah,Mitra Bangunan,"73J7+PP5, Galang, Kec. Sungai Pinyuh, Kab. Mempawah, Kalimantan Barat 78353","Galang, Kec. Sungai Pinyuh, Kab. Mempawah",KALIMANTAN BARAT,78353.0,Indonesia,87773969598.0,,,0.2817675,109.0643496,https://maps.google.com/?cid=0x0:0x8bf32e373a4f6737,
toko bangunan,Toko Bahan Bangunan,TB. HULU BANGUN,"G9FH+832, Garu, Kec. Mempawah Hulu, Kabupaten Landak, Kalimantan Barat","Kabupaten Landak, Kalimantan Barat",KALIMANTAN BARAT,,Indonesia,,,,0.5232551,109.3776253,https://maps.google.com/?cid=0x0:0xda1f8687ebe3934,
toko bangunan,Toko Bahan Bangunan,Toko Bangunan,"8XX7+QGW, Tengah, Kec. Mempawah Hilir, Kab. Mempawah, Kalimantan Barat 78911","Tengah, Kec. Mempawah Hilir, Kab. Mempawah",KALIMANTAN BARAT,78911.0,Indonesia,81376455945.0,,,0.3494953,108.9638408,https://maps.google.com/?cid=0x0:0xcd76e734f6165bf4,
toko bangunan,Toko Perlengkapan Rumah,Toko Bangunan Jaya Baru,"CWRV+7F4, Malikian, Kec. Mempawah Hilir, Kab. Mempawah, Kalimantan Barat 78371","Malikian, Kec. Mempawah Hilir, Kab. Mempawah",KALIMANTAN BARAT,78371.0,Indonesia,81376455945.0,,,0.4406365,108.943715,https://maps.google.com/?cid=0x0:0xde93ef92f58dc7bc,
toko bangunan,Toko Perlengkapan Rumah,Toko Bangunan Perintis Jaya,"9567+9XR, Anjungan Melancar, Kec. Anjongan, Kab. Mempawah, Kalimantan Barat 78353","Anjungan Melancar, Kec. Anjongan, Kab. Mempawah",KALIMANTAN BARAT,78353.0,Indonesia,82174890900.0,,,0.360977,109.1649031,https://maps.google.com/?cid=0x0:0xe00273cacfc60b3d,
toko bangunan,Toko Bahan Bangunan,Toko Bangunan Sumber Makmur dan Besi,"Jl. Sungai Nipah, Jungkat, Kec. Jongkat, Kab. Mempawah, Kalimantan Barat 78351","Jungkat, Kec. Jongkat, Kab. Mempawah",KALIMANTAN BARAT,78351.0,Indonesia,82280327716.0,,,0.0798002,109.1850077,https://maps.google.com/?cid=0x0:0x71afb90255d61cf8,
toko bangunan,Toko Bahan Bangunan,Toko Bangunan Citra Jaya,"Kecurit, Kec. Toho, Kab. Mempawah, Kalimantan Barat 78353","Kec. Toho, Kab. Mempawah",KALIMANTAN BARAT,78353.0,Indonesia,,,,0.3919451,109.1923719,https://maps.google.com/?cid=0x0:0xf90345c33b564e05,
toko bangunan,Toko Bahan Bangunan,Toko Bangunan Sumut Toho,"Jl. Anjungan - Bengkayang, Pak Laheng, Kec. Toho, Kab. Mempawah, Kalimantan Barat 78361","Pak Laheng, Kec. Toho, Kab. Mempawah",KALIMANTAN BARAT,78361.0,Indonesia,82369417707.0,,,0.4189913,109.227276,https://maps.google.com/?cid=0x0:0xc844b120f25d76c7,
toko bangunan,Toko Bahan Bangunan,Toko Bangunan Mitra Jaya Anjungan,"9568+V9C, Anjungan Melancar, Kec. Anjongan, Kab. Mempawah, Kalimantan Barat 78353","Anjungan Melancar, Kec. Anjongan, Kab. Mempawah",KALIMANTAN BARAT,78353.0,Indonesia,85828693710.0,,,0.3621877,109.1658908,https://maps.google.com/?cid=0x0:0x562efbfb1651f6a7,
toko bangunan,Toko Pertanian,Toko Pertanian dan Bangunan,"GF7H+P24, Pasar, Sompak, Kec. Sompak, Kabupaten Landak, Kalimantan Barat","Kabupaten Landak, Kalimantan Barat",KALIMANTAN BARAT,,Indonesia,,,,0.5142634,109.4775873,https://maps.google.com/?cid=0x0:0xae99f7f3c96bc6d9,
toko bangunan,toko bangunan,Toko Bangunan Basule,"H97J+WGG, Karangan, Kec. Mempawah Hulu, Kabupaten Landak, Kalimantan Barat 79362","Karangan, Kec. Mempawah Hulu, Kabupaten Landak",KALIMANTAN BARAT,79362.0,Indonesia,,,,0.5648118,109.3813366,https://maps.google.com/?cid=0x0:0xe99cad227cb87961,
toko bangunan,toko bangunan,TB. RAUL Pamula,"H98J+FQJ, Jl. Karangan, Karangan, Kec. Mempawah Hulu, Kabupaten Landak, Kalimantan Barat 79362","Jl. Karangan, Karangan, Kec. Mempawah Hulu, Kabupaten Landak",KALIMANTAN BARAT,79362.0,Indonesia,85393532111.0,,,0.5662164,109.3818775,https://maps.google.com/?cid=0x0:0xb5a0244ab70a6ae9,
toko bangunan,toko bangunan,PT ANUGERAH JAYA,"H94G+FQ3, Karangan, Kec. Mempawah Hulu, Kabupaten Landak, Kalimantan Barat 79362","Karangan, Kec. Mempawah Hulu, Kabupaten Landak",KALIMANTAN BARAT,79362.0,Indonesia,561885896.0,,,0.556144,109.3769092,https://maps.google.com/?cid=0x0:0x89badcd3186b2f20,
toko bangunan,Toko,Toko Daya Maju Menjalin,"Jl. Anjungan - Bengkayang, Menjalin, Kec. Menjalin, Kabupaten Landak, Kalimantan Barat 79362","Menjalin, Kec. Menjalin, Kabupaten Landak",KALIMANTAN BARAT,79362.0,Indonesia,85697493389.0,,,0.4698238,109.3376227,https://maps.google.com/?cid=0x0:0x9044695a839b3f60,
toko bangunan,Toko Bahan Bangunan,TOKO ONO WAY MENJUAL BAHAN BANGUNAN DAN SARANA PERTANIAN,"sei bandung, Kec. Menjalin, Kabupaten Landak, Kalimantan Barat 79362","Kec. Menjalin, Kabupaten Landak",KALIMANTAN BARAT,79362.0,Indonesia,82174890800.0,,,0.4570836,109.3296623,https://maps.google.com/?cid=0x0:0xe3454284dc0628dc,
toko bangunan,toko bangunan,Kalimantan Barat 79362,"Kabupaten Landak, Kalimantan Barat","Kabupaten Landak, Kalimantan Barat",KALIMANTAN BARAT,,Indonesia,,,,0.5318366,109.3307345,https://maps.google.com/?cid=0x0:0x1c5c3307eefb6954,
toko bangunan,Toko Bahan Bangunan,TB. HULU BANGUN,"G9FH+832, Garu, Kec. Mempawah Hulu, Kabupaten Landak, Kalimantan Barat","Kabupaten Landak, Kalimantan Barat",KALIMANTAN BARAT,,Indonesia,,,,0.5232551,109.3776253,https://maps.google.com/?cid=0x0:0xda1f8687ebe3934,
toko bangunan,Toko Pertanian,Toko Pertanian dan Bangunan,"GF7H+P24, Pasar, Sompak, Kec. Sompak, Kabupaten Landak, Kalimantan Barat","Kabupaten Landak, Kalimantan Barat",KALIMANTAN BARAT,,Indonesia,,,,0.5142634,109.4775873,https://maps.google.com/?cid=0x0:0xae99f7f3c96bc6d9,
toko bangunan,Toko,Bintang Samudra Mebel,"F8RP+88X, Dusun Apo Desa, bengkawe, Kec. Menjalin, Kabupaten Landak, Kalimantan Barat","Kabupaten Landak, Kalimantan Barat",KALIMANTAN BARAT,,Indonesia,,,,0.4908533,109.3358631,https://maps.google.com/?cid=0x0:0x3f920eeacbb45a3f,
toko bangunan,toko bangunan,Kalimantan Barat 79364,"Kabupaten Landak, Kalimantan Barat","Kabupaten Landak, Kalimantan Barat",KALIMANTAN BARAT,,Indonesia,,,,0.6737656,109.6163185,https://maps.google.com/?cid=0x0:0x8890c5a7792b01c3,
toko bangunan,Toko Bahan Bangunan,TB. Elegant Material,"Jl. Bengkayang - Ngabang, Darit, Kec. Menyuke, Kabupaten Landak, Kalimantan Barat 79364","Darit, Kec. Menyuke, Kabupaten Landak",KALIMANTAN BARAT,79364.0,Indonesia,81253364030.0,,,0.5857487,109.6293016,https://maps.google.com/?cid=0x0:0xd86f6c28f6ad6445,
toko bangunan,Toko Bahan Bangunan,Bravo Aregas,"JHQ7+C8F, Jl. Bengkayang - Ngabang, Tembawang Bale, Kec. Banyuke Hulu, Kabupaten Landak, Kalimantan Barat 79364","Jl. Bengkayang - Ngabang, Tembawang Bale, Kec. Banyuke Hulu, Kabupaten Landak",KALIMANTAN BARAT,79364.0,Indonesia,,,,0.6387488,109.5631173,https://maps.google.com/?cid=0x0:0xe67353b4ce237d8,
toko bangunan,Toko Bahan Bangunan,SENTOSA BANGUNAN,"Amboyo Inti, Kec. Ngabang, Kabupaten Landak, Kalimantan Barat 79357","Kec. Ngabang, Kabupaten Landak",KALIMANTAN BARAT,79357.0,Indonesia,8111982700.0,,,0.3683875,109.9244531,https://maps.google.com/?cid=0x0:0xae7edc6a72dfe218,
toko bangunan,Pasar,Toko suka suka,"Tembawang Bale, Kec. Banyuke Hulu, Kabupaten Landak, Kalimantan Barat 79364","Kec. Banyuke Hulu, Kabupaten Landak",KALIMANTAN BARAT,79364.0,Indonesia,,,,0.6383073,109.5633144,https://maps.google.com/?cid=0x0:0x3165de693d9cce9b,
toko bangunan,Toko Bahan Bangunan,TOKO ONO WAY MENJUAL BAHAN BANGUNAN DAN SARANA PERTANIAN,"sei bandung, Kec. Menjalin, Kabupaten Landak, Kalimantan Barat 79362","Kec. Menjalin, Kabupaten Landak",KALIMANTAN BARAT,79362.0,Indonesia,82174890800.0,,,0.4570836,109.3296623,https://maps.google.com/?cid=0x0:0xe3454284dc0628dc,
toko bangunan,Toko,Toko mekar 38,"8MF4+27H, Saham, Kec. Sengah Temila, Kabupaten Landak, Kalimantan Barat 79358","Saham, Kec. Sengah Temila, Kabupaten Landak",KALIMANTAN BARAT,79358.0,Indonesia,81521990644.0,,,0.3225668,109.655732,https://maps.google.com/?cid=0x0:0x74fb50e202edc72a,
toko bangunan,Toko Bahan Bangunan,MAJU JAYA MAKLIE,"9XV4+XRX, Hilir Tengah, Kec. Ngabang, Kabupaten Landak, Kalimantan Barat 79357","Hilir Tengah, Kec. Ngabang, Kabupaten Landak",KALIMANTAN BARAT,79357.0,Indonesia,8111982700.0,,,0.3949754,109.9571039,https://maps.google.com/?cid=0x0:0x912fe6dfbc45dd05,
toko bangunan,toko bangunan,Toko bangunan,"PP2W+J54, Selange, Kec. Meranti, Kabupaten Landak, Kalimantan Barat 79366","Selange, Kec. Meranti, Kabupaten Landak",KALIMANTAN BARAT,79366.0,Indonesia,,,,0.7015223,109.7454392,https://maps.google.com/?cid=0x0:0xc316b5d0ff16484e,
toko bangunan,toko bangunan,QR batako dan cafe,"MPWV+CVP, Hilir, Kec. Meranti, Kabupaten Landak, Kalimantan Barat 79366","Hilir, Kec. Meranti, Kabupaten Landak",KALIMANTAN BARAT,79366.0,Indonesia,,,,0.696046,109.7449881,https://maps.google.com/?cid=0x0:0xdb7032210c8fea6,
toko bangunan,Toko Perlengkapan Rumah,Toko Bangunan Mulia,"Jl. Ps. Baru No.12, Hilir Ktr., Kec. Ngabang, Kabupaten Landak, Kalimantan Barat 79357","Hilir Ktr., Kec. Ngabang, Kabupaten Landak",KALIMANTAN BARAT,79357.0,Indonesia,8111982700.0,,,0.3835956,109.9601286,https://maps.google.com/?cid=0x0:0xa5f68c663ca213c5,
toko bangunan,toko bangunan,Toko bangunan,"Jl. Pangeran Cinata No.59, RT.10/RW.05, Raja, Kec. Ngabang, Kabupaten Landak, Kalimantan Barat 79354","RT.10/RW.05, Raja, Kec. Ngabang, Kabupaten Landak",KALIMANTAN BARAT,79354.0,Indonesia,81311923119.0,,,0.3960259,109.9508377,https://maps.google.com/?cid=0x0:0x336a17eb466b1a49,
toko bangunan,Toko Bahan Bangunan,TB. Elegant Material,"Jl. Bengkayang - Ngabang, Darit, Kec. Menyuke, Kabupaten Landak, Kalimantan Barat 79364","Darit, Kec. Menyuke, Kabupaten Landak",KALIMANTAN BARAT,79364.0,Indonesia,81253364030.0,,,0.5857487,109.6293016,https://maps.google.com/?cid=0x0:0xd86f6c28f6ad6445,
toko bangunan,Toko Bahan Bangunan,Toko Bangunan Mahardika,"MXWR+JHR, Jl. Meranti Raya, RT.003/RW.005, Bojong Menteng, Kec. Rawalumbu, Kota Bks, Jawa Barat 17117","Jl. Meranti Raya, RT.003/RW.005, Bojong Menteng, Kec. Rawalumbu, Kota Bks",KALIMANTAN BARAT,17117.0,Indonesia,81214172751.0,,,-6.3033891,106.9914034,https://maps.google.com/?cid=0x0:0x5c8cf46b4186f06a,
toko bangunan,Toko Bahan Bangunan,Ponti Karya,"PX7R+6V8, Jl. Lumbu Bar. Raya, RT.010/RW.028, Bojong Rawalumbu, Kec. Rawalumbu, Kota Bks, Jawa Barat 17116","Jl. Lumbu Bar. Raya, RT.010/RW.028, Bojong Rawalumbu, Kec. Rawalumbu, Kota Bks",KALIMANTAN BARAT,17116.0,Indonesia,87851162036.0,,,-6.2869523,106.9922058,https://maps.google.com/?cid=0x0:0xefa55c5b36a18bef,
toko bangunan,Toko Perlengkapan Rumah,tokoh kayu,"allian, Aur Sampuk, Kabupaten Landak, Kalimantan Barat 79366","Aur Sampuk, Kabupaten Landak",KALIMANTAN BARAT,79366.0,Indonesia,83121529593.0,,,0.3266024,109.5568089,https://maps.google.com/?cid=0x0:0x1b37fc4f5e5a5ec6,
toko bangunan,toko bangunan,Kalimantan Barat 79366,"Kec. Meranti, Kabupaten Landak, Kalimantan Barat","Kabupaten Landak, Kalimantan Barat",KALIMANTAN BARAT,,Indonesia,,,,0.7627643,109.7353569,https://maps.google.com/?cid=0x0:0xa8d09b215b6af2c7,
toko bangunan,toko bangunan,Toko bangunan,"PP2W+J54, Selange, Kec. Meranti, Kabupaten Landak, Kalimantan Barat 79366","Selange, Kec. Meranti, Kabupaten Landak",KALIMANTAN BARAT,79366.0,Indonesia,,,,0.7015223,109.7454392,https://maps.google.com/?cid=0x0:0xc316b5d0ff16484e,
toko bangunan,toko bangunan,Toko bangunan,"8MQV+RFW, Pahauman, Kec. Sengah Temila, Kabupaten Landak, Kalimantan Barat","Kabupaten Landak, Kalimantan Barat",KALIMANTAN BARAT,,Indonesia,,,,0.3396153,109.6936906,https://maps.google.com/?cid=0x0:0x49618735756cb83c,
toko bangunan,Toko Bahan Bangunan,TOKO BANGUNAN ANISA BELLA,"Jl. Selat Panjang No.57, Siantan Hulu, Kec. Pontianak Utara, Kota Pontianak, Kalimantan Barat 78243","Siantan Hulu, Kec. Pontianak Utara, Kota Pontianak",KALIMANTAN BARAT,78243.0,Indonesia,82174890900.0,,,-0.0157206,109.3701771,https://maps.google.com/?cid=0x0:0xa6f53234755f25a3,
toko bangunan,Toko Bahan Bangunan,TOKO BANGUNAN LESTARI,"Jl. K.H. Halimi No.36b, Wr. Menteng, Kec. Cijeruk, Kabupaten Bogor, Jawa Barat 16740","Wr. Menteng, Kec. Cijeruk, Kabupaten Bogor",KALIMANTAN BARAT,16740.0,Indonesia,87851162038.0,,,-6.7046755,106.7977637,https://maps.google.com/?cid=0x0:0xdc451013e58d1a5c,
toko bangunan,Toko Bahan Bangunan,TB. BERKAH LESTARI,"7RJR+WC8, Jl. Kp. Cimande, Lemah Duhur, Kec. Caringin, Kabupaten Bogor, Jawa Barat 16730","Jl. Kp. Cimande, Lemah Duhur, Kec. Caringin, Kabupaten Bogor",KALIMANTAN BARAT,16730.0,Indonesia,85778809088.0,,,-6.7175476,106.8410412,https://maps.google.com/?cid=0x0:0xcf21c7903517491f,
toko bangunan,Toko Bahan Bangunan,SENTOSA BANGUNAN,"Amboyo Inti, Kec. Ngabang, Kabupaten Landak, Kalimantan Barat 79357","Kec. Ngabang, Kabupaten Landak",KALIMANTAN BARAT,79357.0,Indonesia,8111982700.0,,,0.3683875,109.9244531,https://maps.google.com/?cid=0x0:0xae7edc6a72dfe218,
toko bangunan,toko bangunan,Ngabang,"Hilir Tengah, Kec. Ngabang, Kabupaten Landak, Kalimantan Barat","Kabupaten Landak, Kalimantan Barat",KALIMANTAN BARAT,,Indonesia,,,,0.396117,109.950996,https://maps.google.com/?cid=0x0:0x36ecc951d5c3f67,
toko bangunan,toko bangunan,Toko bangunan,"Jl. Pangeran Cinata No.59, RT.10/RW.05, Raja, Kec. Ngabang, Kabupaten Landak, Kalimantan Barat 79354","RT.10/RW.05, Raja, Kec. Ngabang, Kabupaten Landak",KALIMANTAN BARAT,79354.0,Indonesia,81311923119.0,,,0.3960259,109.9508377,https://maps.google.com/?cid=0x0:0x336a17eb466b1a49,
toko bangunan,Toko Bahan Bangunan,Cipta Bangunan,"9WWX+H97, Hilir Tengah, Kec. Ngabang, Kabupaten Landak, Kalimantan Barat 79357","Hilir Tengah, Kec. Ngabang, Kabupaten Landak",KALIMANTAN BARAT,79357.0,Indonesia,8111982700.0,,,0.396421,109.9484203,https://maps.google.com/?cid=0x0:0xf088f261fd607a8d,
toko bangunan,Toko Perlengkapan Rumah,Makmur Bangunan,"Jl. Lintas Kalimantan Poros Tengah, Hilir Tengah, Kec. Ngabang, Kabupaten Landak, Kalimantan Barat 79357","Hilir Tengah, Kec. Ngabang, Kabupaten Landak",KALIMANTAN BARAT,79357.0,Indonesia,8111982700.0,,,0.3858608,109.9596058,https://maps.google.com/?cid=0x0:0x3e86d5a659f5bb54,
toko bangunan,Toko Bahan Bangunan,Landak Bangunan,"9XP5+WP3, Jl. Bardan Nadi, Hilir Tengah, Kec. Ngabang, Kabupaten Landak, Kalimantan Barat 79357","Jl. Bardan Nadi, Hilir Tengah, Kec. Ngabang, Kabupaten Landak",KALIMANTAN BARAT,79357.0,Indonesia,8111982700.0,,,0.3872733,109.9593016,https://maps.google.com/?cid=0x0:0xc75305c32de6bfe4,
toko bangunan,Toko Perlengkapan Rumah,Toko Bangunan Mulia,"Jl. Ps. Baru No.12, Hilir Ktr., Kec. Ngabang, Kabupaten Landak, Kalimantan Barat 79357","Hilir Ktr., Kec. Ngabang, Kabupaten Landak",KALIMANTAN BARAT,79357.0,Indonesia,8111982700.0,,,0.3835956,109.9601286,https://maps.google.com/?cid=0x0:0xa5f68c663ca213c5,
toko bangunan,Toko Bahan Bangunan,Toko Multi Bangunan,"9XP5+2MP, Jl. Lintas Kalimantan Poros Tengah, Hilir Ktr., Kec. Ngabang, Kabupaten Landak, Kalimantan Barat 79357","Jl. Lintas Kalimantan Poros Tengah, Hilir Ktr., Kec. Ngabang, Kabupaten Landak",KALIMANTAN BARAT,79357.0,Indonesia,8111982700.0,,,0.3850776,109.9592099,https://maps.google.com/?cid=0x0:0x60b3c06f8c4a7011,
toko bangunan,Toko Bahan Bangunan,MAJU JAYA MAKLIE,"9XV4+XRX, Hilir Tengah, Kec. Ngabang, Kabupaten Landak, Kalimantan Barat 79357","Hilir Tengah, Kec. Ngabang, Kabupaten Landak",KALIMANTAN BARAT,79357.0,Indonesia,8111982700.0,,,0.3949754,109.9571039,https://maps.google.com/?cid=0x0:0x912fe6dfbc45dd05,
toko bangunan,Toko Perlengkapan Rumah,Tb.Citra Bangunan,"9XM6+Q6J, Jl. Ps. Laut, Hilir Tengah, Kec. Ngabang, Kabupaten Landak, Kalimantan Barat 79357","Jl. Ps. Laut, Hilir Tengah, Kec. Ngabang, Kabupaten Landak",KALIMANTAN BARAT,79357.0,Indonesia,8111982700.0,,,0.3844723,109.9605089,https://maps.google.com/?cid=0x0:0xf1f5abc70590bad0,
toko bangunan,Toko Bahan Bangunan,Toko bintang jaya,"Jl. Raya Mungguk, Hilir Tengah, Kec. Ngabang, Kabupaten Landak, Kalimantan Barat 79357","Hilir Tengah, Kec. Ngabang, Kabupaten Landak",KALIMANTAN BARAT,79357.0,Indonesia,8111982700.0,,,0.4021229,109.9452074,https://maps.google.com/?cid=0x0:0x9998ec04f275d15e,
toko bangunan,Toko Bahan Bangunan,Setia Bangunan,"9XJ3+63F, Hilir Ktr., Kec. Ngabang, Kabupaten Landak, Kalimantan Barat 79357","Hilir Ktr., Kec. Ngabang, Kabupaten Landak",KALIMANTAN BARAT,79357.0,Indonesia,82149338200.0,,,0.3805561,109.9526752,https://maps.google.com/?cid=0x0:0xb85c771525c54ecd,
toko bangunan,Toko Perlengkapan Rumah,Toko sumber material,"Jl. Lintas Kalimantan Poros Tengah, Amboyo Inti, Kec. Ngabang, Kabupaten Landak, Kalimantan Barat","Kabupaten Landak, Kalimantan Barat",KALIMANTAN BARAT,,Indonesia,,,,0.367728,109.9221852,https://maps.google.com/?cid=0x0:0x841c7ba8e6a535a1,
toko bangunan,Toko Bahan Bangunan,Terang Megah Bangunan,"9XM6+M6R, Jl. Ps. Laut, Hilir Tengah, Kec. Ngabang, Kabupaten Landak, Kalimantan Barat 79357","Jl. Ps. Laut, Hilir Tengah, Kec. Ngabang, Kabupaten Landak",KALIMANTAN BARAT,79357.0,Indonesia,81256482222.0,,,0.3842268,109.9605229,https://maps.google.com/?cid=0x0:0x950191c7bb6bab58,
toko bangunan,Toko Bahan Bangunan,Tirta bangunan,"Jl. Raya Jemb. Baru Jl. Raya Pulau Bendu No.58, Hilir Tengah, Kec. Ngabang, Kabupaten Landak, Kalimantan Barat 79357","Hilir Tengah, Kec. Ngabang, Kabupaten Landak",KALIMANTAN BARAT,79357.0,Indonesia,,,,0.3867694,109.9636554,https://maps.google.com/?cid=0x0:0x7c977fd4b715ffe8,
toko bangunan,Toko Cat,Samurai Paint - TB Mutiara Bangunan,"9XPC+42G, Jl. Lintas Kalimantan Poros Tengah, Hilir Tengah, Kec. Ngabang, Kabupaten Landak, Kalimantan Barat 79357","Jl. Lintas Kalimantan Poros Tengah, Hilir Tengah, Kec. Ngabang, Kabupaten Landak",KALIMANTAN BARAT,79357.0,Indonesia,,,,0.3853175,109.970073,https://maps.google.com/?cid=0x0:0x26dce5eae4c84526,
toko bangunan,toko bangunan,Sebangki,"Kumpang Tengah, Kec. Sebangki, Kabupaten Landak, Kalimantan Barat","Kabupaten Landak, Kalimantan Barat",KALIMANTAN BARAT,,Indonesia,,,,0.153873,109.629601,https://maps.google.com/?cid=0x0:0x924d17b3bff67c56,
toko bangunan,toko bangunan,Kalimantan Barat 79358,"Kabupaten Landak, Kalimantan Barat","Kabupaten Landak, Kalimantan Barat",KALIMANTAN BARAT,,Indonesia,,,,0.2290802,109.6401242,https://maps.google.com/?cid=0x0:0x49f2151083760b7e,
toko bangunan,Toko Bahan Bangunan,SENTOSA BANGUNAN,"Amboyo Inti, Kec. Ngabang, Kabupaten Landak, Kalimantan Barat 79357","Kec. Ngabang, Kabupaten Landak",KALIMANTAN BARAT,79357.0,Indonesia,8111982700.0,,,0.3683875,109.9244531,https://maps.google.com/?cid=0x0:0xae7edc6a72dfe218,
toko bangunan,Toko Perlengkapan Rumah,Toko Bangunan Mulia,"Jl. Ps. Baru No.12, Hilir Ktr., Kec. Ngabang, Kabupaten Landak, Kalimantan Barat 79357","Hilir Ktr., Kec. Ngabang, Kabupaten Landak",KALIMANTAN BARAT,79357.0,Indonesia,8111982700.0,,,0.3835956,109.9601286,https://maps.google.com/?cid=0x0:0xa5f68c663ca213c5,
toko bangunan,Toko Bahan Bangunan,Toko bintang jaya,"Jl. Raya Mungguk, Hilir Tengah, Kec. Ngabang, Kabupaten Landak, Kalimantan Barat 79357","Hilir Tengah, Kec. Ngabang, Kabupaten Landak",KALIMANTAN BARAT,79357.0,Indonesia,8111982700.0,,,0.4021229,109.9452074,https://maps.google.com/?cid=0x0:0x9998ec04f275d15e,
toko bangunan,Toko Bahan Bangunan,TOKO ONO WAY MENJUAL BAHAN BANGUNAN DAN SARANA PERTANIAN,"sei bandung, Kec. Menjalin, Kabupaten Landak, Kalimantan Barat 79362","Kec. Menjalin, Kabupaten Landak",KALIMANTAN BARAT,79362.0,Indonesia,82174890800.0,,,0.4570836,109.3296623,https://maps.google.com/?cid=0x0:0xe3454284dc0628dc,
toko bangunan,toko bangunan,Toko bangunan,"Jl. Pangeran Cinata No.59, RT.10/RW.05, Raja, Kec. Ngabang, Kabupaten Landak, Kalimantan Barat 79354","RT.10/RW.05, Raja, Kec. Ngabang, Kabupaten Landak",KALIMANTAN BARAT,79354.0,Indonesia,81311923119.0,,,0.3960259,109.9508377,https://maps.google.com/?cid=0x0:0x336a17eb466b1a49,
toko bangunan,Toko Bahan Bangunan,MAJU JAYA MAKLIE,"9XV4+XRX, Hilir Tengah, Kec. Ngabang, Kabupaten Landak, Kalimantan Barat 79357","Hilir Tengah, Kec. Ngabang, Kabupaten Landak",KALIMANTAN BARAT,79357.0,Indonesia,8111982700.0,,,0.3949754,109.9571039,https://maps.google.com/?cid=0x0:0x912fe6dfbc45dd05,
toko bangunan,Toko Bahan Bangunan,Studio Bangunan (Pusat Penjualan dan Konsultasi Cat Jotun Pontianak),"W9P7+FRJ, Jl. Sungai Raya Dalam No.A8, Sungai Raya, Kec. Sungai Raya, Kabupaten Kubu Raya, Kalimantan Barat 78117","Jl. Sungai Raya Dalam No.A8, Sungai Raya, Kec. Sungai Raya, Kabupaten Kubu Raya",KALIMANTAN BARAT,78117.0,Indonesia,87861101462.0,,,-0.0635475,109.3647957,https://maps.google.com/?cid=0x0:0x954761178d063242,
toko bangunan,Toko Bahan Bangunan,Cipta Bangunan,"9WWX+H97, Hilir Tengah, Kec. Ngabang, Kabupaten Landak, Kalimantan Barat 79357","Hilir Tengah, Kec. Ngabang, Kabupaten Landak",KALIMANTAN BARAT,79357.0,Indonesia,8111982700.0,,,0.396421,109.9484203,https://maps.google.com/?cid=0x0:0xf088f261fd607a8d,
toko bangunan,toko bangunan,Toko bangunan,"8MQV+RFW, Pahauman, Kec. Sengah Temila, Kabupaten Landak, Kalimantan Barat","Kabupaten Landak, Kalimantan Barat",KALIMANTAN BARAT,,Indonesia,,,,0.3396153,109.6936906,https://maps.google.com/?cid=0x0:0x49618735756cb83c,
toko bangunan,toko bangunan,Kalimantan Barat 79356,"Kabupaten Landak, Kalimantan Barat","Kabupaten Landak, Kalimantan Barat",KALIMANTAN BARAT,,Indonesia,,,,0.3883464,109.7115472,https://maps.google.com/?cid=0x0:0x20df62cbb3031bce,
toko bangunan,Toko,Toko mekar 38,"8MF4+27H, Saham, Kec. Sengah Temila, Kabupaten Landak, Kalimantan Barat 79358","Saham, Kec. Sengah Temila, Kabupaten Landak",KALIMANTAN BARAT,79358.0,Indonesia,81521990644.0,,,0.3225668,109.655732,https://maps.google.com/?cid=0x0:0x74fb50e202edc72a,
toko bangunan,Toko Bahan Bangunan,Samurai paint - Tb. Putra Telaga,"9HF7+FC7, Jl. Lintas Kalimantan Poros Tengah, Andeng, Kec. Sengah Temila, Kabupaten Landak, Kalimantan Barat 79356","Jl. Lintas Kalimantan Poros Tengah, Andeng, Kec. Sengah Temila, Kabupaten Landak",KALIMANTAN BARAT,79356.0,Indonesia,,,,0.3736504,109.5635442,https://maps.google.com/?cid=0x0:0x5d4fa21b89fbc488,
toko bangunan,Toko Bahan Bangunan,SENTOSA BANGUNAN,"Amboyo Inti, Kec. Ngabang, Kabupaten Landak, Kalimantan Barat 79357","Kec. Ngabang, Kabupaten Landak",KALIMANTAN BARAT,79357.0,Indonesia,8111982700.0,,,0.3683875,109.9244531,https://maps.google.com/?cid=0x0:0xae7edc6a72dfe218,
toko bangunan,Minimarket,TB BAJU MERAH,"9HC7+XWF, simpang, Andeng, Kec. Sengah Temila, Kabupaten Landak, Kalimantan Barat","Kabupaten Landak, Kalimantan Barat",KALIMANTAN BARAT,,Indonesia,85845180472.0,,,0.3724346,109.5648015,https://maps.google.com/?cid=0x0:0x1f35137ecbef634b,
toko bangunan,Toko umum,Batako cinta,"9HQH+P9M, Bagarong mekar, Kec. Sengah Temila, Kabupaten Landak, Kalimantan Barat","Kabupaten Landak, Kalimantan Barat",KALIMANTAN BARAT,,Indonesia,,,,0.388928,109.5779937,https://maps.google.com/?cid=0x0:0x7e288bce49f60b20,
toko bangunan,Toko Pakan Hewan,toko pak bela sidas,"kelawit, marecon, Kabupaten Landak, Kalimantan Barat 79356","marecon, Kabupaten Landak",KALIMANTAN BARAT,79356.0,Indonesia,81258766916.0,,,0.4237287,109.7591675,https://maps.google.com/?cid=0x0:0xbd651855a7cfdcd2,
toko bangunan,Toko Perlengkapan Rumah,tokoh kayu,"allian, Aur Sampuk, Kabupaten Landak, Kalimantan Barat 79366","Aur Sampuk, Kabupaten Landak",KALIMANTAN BARAT,79366.0,Indonesia,83121529593.0,,,0.3266024,109.5568089,https://maps.google.com/?cid=0x0:0x1b37fc4f5e5a5ec6,
toko bangunan,Toko umum,Toko Tunas Baru,"Jalan raya, Simpang Pasir, Kec. Sengah Temila, Kabupaten Landak, Kalimantan Barat 79356","Simpang Pasir, Kec. Sengah Temila, Kabupaten Landak",KALIMANTAN BARAT,79356.0,Indonesia,82154342410.0,,,0.4014474,109.7463969,https://maps.google.com/?cid=0x0:0xa7189416363fcdd9,
toko bangunan,toko bangunan,Toko bangunan,"8MQV+RFW, Pahauman, Kec. Sengah Temila, Kabupaten Landak, Kalimantan Barat","Kabupaten Landak, Kalimantan Barat",KALIMANTAN BARAT,,Indonesia,,,,0.3396153,109.6936906,https://maps.google.com/?cid=0x0:0x49618735756cb83c,
toko bangunan,toko bangunan,Kalimantan Barat 79363,"Kec. Mempawah Hulu, Kabupaten Landak, Kalimantan Barat","Kabupaten Landak, Kalimantan Barat",KALIMANTAN BARAT,,Indonesia,,,,0.6745598,109.4259114,https://maps.google.com/?cid=0x0:0xdcefe0766b98359b,
toko bangunan,Toko Pertanian,Toko Pertanian dan Bangunan,"GF7H+P24, Pasar, Sompak, Kec. Sompak, Kabupaten Landak, Kalimantan Barat","Kabupaten Landak, Kalimantan Barat",KALIMANTAN BARAT,,Indonesia,,,,0.5142634,109.4775873,https://maps.google.com/?cid=0x0:0xae99f7f3c96bc6d9,
toko bangunan,Toko Bahan Bangunan,TB Anugerah Jaya - Samurai Paint,"Jl. Anjungan - Bengkayang, Karangan, Kec. Mempawah Hulu, Kabupaten Landak, Kalimantan Barat 79362","Karangan, Kec. Mempawah Hulu, Kabupaten Landak",KALIMANTAN BARAT,79362.0,Indonesia,81250397373.0,,,0.5469996,109.3757326,https://maps.google.com/?cid=0x0:0xc88a288f969e15f1,
toko bangunan,Toko,Toko mekar 38,"8MF4+27H, Saham, Kec. Sengah Temila, Kabupaten Landak, Kalimantan Barat 79358","Saham, Kec. Sengah Temila, Kabupaten Landak",KALIMANTAN BARAT,79358.0,Indonesia,81521990644.0,,,0.3225668,109.655732,https://maps.google.com/?cid=0x0:0x74fb50e202edc72a,
toko bangunan,Toko Bahan Bangunan,Toko Benua Raya Bangunan,"Jl. Jerendeng Abdul Rahman, Malo Jelayan, Kec. Bengkayang, Kabupaten Bengkayang, Kalimantan Barat 79214","Malo Jelayan, Kec. Bengkayang, Kabupaten Bengkayang",KALIMANTAN BARAT,79214.0,Indonesia,87773968995.0,,,0.8190022,109.4815295,https://maps.google.com/?cid=0x0:0x56ae473edc6595c,
toko bangunan,Toko,Toko Daya Maju Menjalin,"Jl. Anjungan - Bengkayang, Menjalin, Kec. Menjalin, Kabupaten Landak, Kalimantan Barat 79362","Menjalin, Kec. Menjalin, Kabupaten Landak",KALIMANTAN BARAT,79362.0,Indonesia,85697493389.0,,,0.4698238,109.3376227,https://maps.google.com/?cid=0x0:0x9044695a839b3f60,
toko bangunan,Toko Bahan Bangunan,Cipta Bangunan,"9WWX+H97, Hilir Tengah, Kec. Ngabang, Kabupaten Landak, Kalimantan Barat 79357","Hilir Tengah, Kec. Ngabang, Kabupaten Landak",KALIMANTAN BARAT,79357.0,Indonesia,8111982700.0,,,0.396421,109.9484203,https://maps.google.com/?cid=0x0:0xf088f261fd607a8d,
toko bangunan,Toko Bahan Bangunan,Nusa Dharma,"Jl. Tabrani No.169, Malo Jelayan, Kec. Teriak, Kabupaten Bengkayang, Kalimantan Barat 79214","Malo Jelayan, Kec. Teriak, Kabupaten Bengkayang",KALIMANTAN BARAT,79214.0,Indonesia,,,,0.8185297,109.4822768,https://maps.google.com/?cid=0x0:0x6bb605b9eade6d5d,
toko bangunan,Toko Bahan Bangunan,Toko Sinar bangunan,"Jl. Jerendeng Abdul Rahman No.79, Bumi Amas, Kec. Bengkayang, Kabupaten Bengkayang, Kalimantan Barat 79211","Bumi Amas, Kec. Bengkayang, Kabupaten Bengkayang",KALIMANTAN BARAT,79211.0,Indonesia,87773968995.0,,,0.8183598,109.4808851,https://maps.google.com/?cid=0x0:0x7f9be6f0fcf97731,
toko bangunan,Toko Bahan Bangunan,TB. HULU BANGUN,"G9FH+832, Garu, Kec. Mempawah Hulu, Kabupaten Landak, Kalimantan Barat","Kabupaten Landak, Kalimantan Barat",KALIMANTAN BARAT,,Indonesia,,,,0.5232551,109.3776253,https://maps.google.com/?cid=0x0:0xda1f8687ebe3934,
hardware store,Toko Bahan Bangunan,Terang matahari Hardware,"Hilir Ktr., Kec. Ngabang, Kabupaten Landak, Kalimantan Barat 79357","Kec. Ngabang, Kabupaten Landak",KALIMANTAN BARAT,79357.0,Indonesia,87712804566.0,,,0.3818973,109.9561916,https://maps.google.com/?cid=0x0:0xfa94da211ea22748,
hardware store,Toko Bahan Bangunan,Landak Bangunan,"9XP5+WP3, Jl. Bardan Nadi, Hilir Tengah, Kec. Ngabang, Kabupaten Landak, Kalimantan Barat 79357","Jl. Bardan Nadi, Hilir Tengah, Kec. Ngabang, Kabupaten Landak",KALIMANTAN BARAT,79357.0,Indonesia,8111982700.0,,,0.3872733,109.9593016,https://maps.google.com/?cid=0x0:0xc75305c32de6bfe4,
hardware store,hardware store,Kalimantan Barat 79364,"Kabupaten Landak, Kalimantan Barat","Kabupaten Landak, Kalimantan Barat",KALIMANTAN BARAT,,Indonesia,,,,0.6737656,109.6163185,https://maps.google.com/?cid=0x0:0x8890c5a7792b01c3,
hardware store,Toko Bahan Bangunan,Bravo Aregas,"JHQ7+C8F, Jl. Bengkayang - Ngabang, Tembawang Bale, Kec. Banyuke Hulu, Kabupaten Landak, Kalimantan Barat 79364","Jl. Bengkayang - Ngabang, Tembawang Bale, Kec. Banyuke Hulu, Kabupaten Landak",KALIMANTAN BARAT,79364.0,Indonesia,,,,0.6387488,109.5631173,https://maps.google.com/?cid=0x0:0xe67353b4ce237d8,
hardware store,Toko Bahan Bangunan,TB. Elegant Material,"Jl. Bengkayang - Ngabang, Darit, Kec. Menyuke, Kabupaten Landak, Kalimantan Barat 79364","Darit, Kec. Menyuke, Kabupaten Landak",KALIMANTAN BARAT,79364.0,Indonesia,81253364030.0,,,0.5857487,109.6293016,https://maps.google.com/?cid=0x0:0xd86f6c28f6ad6445,
hardware store,Toko Bahan Bangunan,Terang matahari Hardware,"Hilir Ktr., Kec. Ngabang, Kabupaten Landak, Kalimantan Barat 79357","Kec. Ngabang, Kabupaten Landak",KALIMANTAN BARAT,79357.0,Indonesia,87712804566.0,,,0.3818973,109.9561916,https://maps.google.com/?cid=0x0:0xfa94da211ea22748,
hardware store,Toko Bahan Bangunan,Landak Bangunan,"9XP5+WP3, Jl. Bardan Nadi, Hilir Tengah, Kec. Ngabang, Kabupaten Landak, Kalimantan Barat 79357","Jl. Bardan Nadi, Hilir Tengah, Kec. Ngabang, Kabupaten Landak",KALIMANTAN BARAT,79357.0,Indonesia,8111982700.0,,,0.3872733,109.9593016,https://maps.google.com/?cid=0x0:0xc75305c32de6bfe4,
hardware store,Toko Perlengkapan Rumah,MR. D.I.Y,"9WGV+P6F, Hilir Ktr., Kec. Ngabang, Kabupaten Landak, Kalimantan Barat","Kabupaten Landak, Kalimantan Barat",KALIMANTAN BARAT,,Indonesia,,,,0.3768339,109.943013,https://maps.google.com/?cid=0x0:0x45afe221ece7d871,
hardware store,hardware store,Kec. Jelimpo,"Kabupaten Landak, Kalimantan Barat","Kabupaten Landak, Kalimantan Barat",KALIMANTAN BARAT,,Indonesia,,,,0.3150332,110.0885231,https://maps.google.com/?cid=0x0:0x30fd1a6bdb685b75,
hardware store,hardware store,Kalimantan Barat 79367,"Kabupaten Landak, Kalimantan Barat","Kabupaten Landak, Kalimantan Barat",KALIMANTAN BARAT,,Indonesia,,,,0.7436183,109.9973244,https://maps.google.com/?cid=0x0:0xb49541f7c227bcc0,
hardware store,Toko Bahan Bangunan,Terang matahari Hardware,"Hilir Ktr., Kec. Ngabang, Kabupaten Landak, Kalimantan Barat 79357","Kec. Ngabang, Kabupaten Landak",KALIMANTAN BARAT,79357.0,Indonesia,87712804566.0,,,0.3818973,109.9561916,https://maps.google.com/?cid=0x0:0xfa94da211ea22748,
hardware store,Toko Bahan Bangunan,Mitra SImpang. TB,"JL Simpang Palakan Muncang No.64, RT.02/RW.09, Semedang, Kec. Kuala Behe, Kabupaten Landak, Kalimantan Barat 79357","RT.02/RW.09, Semedang, Kec. Kuala Behe, Kabupaten Landak",KALIMANTAN BARAT,79357.0,Indonesia,85780078557.0,,,0.6095949,110.0330554,https://maps.google.com/?cid=0x0:0x3d6026597996d3ef,
hardware store,Toko Bahan Bangunan,TB. Nipah jaya,"35GQ+W86, Jl. Sungai Nipah, Sei Nipah, Kec. Jongkat, Kab. Mempawah, Kalimantan Barat 78351","Jl. Sungai Nipah, Sei Nipah, Kec. Jongkat, Kab. Mempawah",KALIMANTAN BARAT,78351.0,Indonesia,,,,0.0772848,109.1882742,https://maps.google.com/?cid=0x0:0x15cf40b0c1ee1ae,
hardware store,Toko Bahan Bangunan,N. P JAYA,"88CM+388, Simpang Kasturi, Kec. Mandor, Kabupaten Landak, Kalimantan Barat 79355","Simpang Kasturi, Kec. Mandor, Kabupaten Landak",KALIMANTAN BARAT,79355.0,Indonesia,,,,0.3201736,109.3333307,https://maps.google.com/?cid=0x0:0x568c09ad9ee3fe6f,
hardware store,Toko Bahan Bangunan,TB. HULU BANGUN,"G9FH+832, Garu, Kec. Mempawah Hulu, Kabupaten Landak, Kalimantan Barat","Kabupaten Landak, Kalimantan Barat",KALIMANTAN BARAT,,Indonesia,,,,0.5232551,109.3776253,https://maps.google.com/?cid=0x0:0xda1f8687ebe3934,
hardware store,hardware store,Kalimantan Barat 79363,"Kec. Mempawah Hulu, Kabupaten Landak, Kalimantan Barat","Kabupaten Landak, Kalimantan Barat",KALIMANTAN BARAT,,Indonesia,,,,0.6745598,109.4259114,https://maps.google.com/?cid=0x0:0xdcefe0766b98359b,
hardware store,Toko,Toko Dara Km 98,"G97F+F7Q, Jl. Anjungan - Bengkayang, setom, karagan, Kab. Mempawah, Kalimantan Barat 79362","Jl. Anjungan - Bengkayang, setom, karagan, Kab. Mempawah",KALIMANTAN BARAT,79362.0,Indonesia,81350179689.0,,,0.513725,109.3732195,https://maps.google.com/?cid=0x0:0x2d2bfe9db1fdbf1f,
hardware store,Toko,Toko Daya Maju Menjalin,"Jl. Anjungan - Bengkayang, Menjalin, Kec. Menjalin, Kabupaten Landak, Kalimantan Barat 79362","Menjalin, Kec. Menjalin, Kabupaten Landak",KALIMANTAN BARAT,79362.0,Indonesia,85697493389.0,,,0.4698238,109.3376227,https://maps.google.com/?cid=0x0:0x9044695a839b3f60,
hardware store,Toko Bahan Bangunan,Toko Benua Raya Bangunan,"Jl. Jerendeng Abdul Rahman, Malo Jelayan, Kec. Bengkayang, Kabupaten Bengkayang, Kalimantan Barat 79214","Malo Jelayan, Kec. Bengkayang, Kabupaten Bengkayang",KALIMANTAN BARAT,79214.0,Indonesia,87773968995.0,,,0.8190022,109.4815295,https://maps.google.com/?cid=0x0:0x56ae473edc6595c,
hardware store,Toko sembako pemerintah,MR.DIY,"Jl. Raya Sanggau Ledo, Bani Amas, Kec. Bengkayang, Kabupaten Bengkayang, Kalimantan Barat 79211","Bani Amas, Kec. Bengkayang, Kabupaten Bengkayang",KALIMANTAN BARAT,79211.0,Indonesia,,,,0.8500973,109.5010611,https://maps.google.com/?cid=0x0:0x2f09cbed5647ad9c,
hardware store,Toko Bahan Bangunan,Toko Mitra Bangunan,"9X97+666, Pulau Pedalaman, Mempawah Tim., Kab. Mempawah, Kalimantan Barat 78912","Pulau Pedalaman, Mempawah Tim., Kab. Mempawah",KALIMANTAN BARAT,78912.0,Indonesia,81376455945.0,,,0.3680477,108.9630308,https://maps.google.com/?cid=0x0:0x17547a099ee96211,
hardware store,Toko Bahan Bangunan,Bravo Aregas,"JHQ7+C8F, Jl. Bengkayang - Ngabang, Tembawang Bale, Kec. Banyuke Hulu, Kabupaten Landak, Kalimantan Barat 79364","Jl. Bengkayang - Ngabang, Tembawang Bale, Kec. Banyuke Hulu, Kabupaten Landak",KALIMANTAN BARAT,79364.0,Indonesia,,,,0.6387488,109.5631173,https://maps.google.com/?cid=0x0:0xe67353b4ce237d8,
hardware store,Toko,Toko Daya Maju Menjalin,"Jl. Anjungan - Bengkayang, Menjalin, Kec. Menjalin, Kabupaten Landak, Kalimantan Barat 79362","Menjalin, Kec. Menjalin, Kabupaten Landak",KALIMANTAN BARAT,79362.0,Indonesia,85697493389.0,,,0.4698238,109.3376227,https://maps.google.com/?cid=0x0:0x9044695a839b3f60,
hardware store,Toko Bahan Bangunan,Toko 129 Menjalin,"Jl. Anjungan - Bengkayang No.96, Menjalin, Kec. Menjalin, Kabupaten Landak, Kalimantan Barat 79362","Menjalin, Kec. Menjalin, Kabupaten Landak",KALIMANTAN BARAT,79362.0,Indonesia,,,,0.4497314,109.3257307,https://maps.google.com/?cid=0x0:0x82e728f77a0bea28,
hardware store,Toko Bahan Bangunan,Terang matahari Hardware,"Hilir Ktr., Kec. Ngabang, Kabupaten Landak, Kalimantan Barat 79357","Kec. Ngabang, Kabupaten Landak",KALIMANTAN BARAT,79357.0,Indonesia,87712804566.0,,,0.3818973,109.9561916,https://maps.google.com/?cid=0x0:0xfa94da211ea22748,
hardware store,Toko,Bintang Samudra Mebel,"F8RP+88X, Dusun Apo Desa, bengkawe, Kec. Menjalin, Kabupaten Landak, Kalimantan Barat","Kabupaten Landak, Kalimantan Barat",KALIMANTAN BARAT,,Indonesia,,,,0.4908533,109.3358631,https://maps.google.com/?cid=0x0:0x3f920eeacbb45a3f,
hardware store,hardware store,Kalimantan Barat 79362,"Kabupaten Landak, Kalimantan Barat","Kabupaten Landak, Kalimantan Barat",KALIMANTAN BARAT,,Indonesia,,,,0.5318366,109.3307345,https://maps.google.com/?cid=0x0:0x1c5c3307eefb6954,
hardware store,hardware store,Kalimantan Barat 79364,"Kabupaten Landak, Kalimantan Barat","Kabupaten Landak, Kalimantan Barat",KALIMANTAN BARAT,,Indonesia,,,,0.6737656,109.6163185,https://maps.google.com/?cid=0x0:0x8890c5a7792b01c3,
hardware store,Toko Bahan Bangunan,TB. Elegant Material,"Jl. Bengkayang - Ngabang, Darit, Kec. Menyuke, Kabupaten Landak, Kalimantan Barat 79364","Darit, Kec. Menyuke, Kabupaten Landak",KALIMANTAN BARAT,79364.0,Indonesia,81253364030.0,,,0.5857487,109.6293016,https://maps.google.com/?cid=0x0:0xd86f6c28f6ad6445,
hardware store,Toko Bahan Bangunan,Bravo Aregas,"JHQ7+C8F, Jl. Bengkayang - Ngabang, Tembawang Bale, Kec. Banyuke Hulu, Kabupaten Landak, Kalimantan Barat 79364","Jl. Bengkayang - Ngabang, Tembawang Bale, Kec. Banyuke Hulu, Kabupaten Landak",KALIMANTAN BARAT,79364.0,Indonesia,,,,0.6387488,109.5631173,https://maps.google.com/?cid=0x0:0xe67353b4ce237d8,
hardware store,hardware store,Meranti,"Meranti, Kec. Meranti, Kabupaten Landak, Kalimantan Barat","Kabupaten Landak, Kalimantan Barat",KALIMANTAN BARAT,,Indonesia,,,,0.681964,109.741898,https://maps.google.com/?cid=0x0:0xb3ff0bfecb41dd7b,
hardware store,hardware store,Kalimantan Barat,,Kalimantan Barat,KALIMANTAN BARAT,,Indonesia,,,,-0.2787808,111.4752851,https://maps.google.com/?cid=0x0:0xcd5ceced4c2148a0,
hardware store,hardware store,CV. Meranti Hardware,"Jl. Mekar Sari No.35, RT.002/RW.003, Bekasi Jaya, Kec. Bekasi Tim., Kota Bks, Jawa Barat 17112","RT.002/RW.003, Bekasi Jaya, Kec. Bekasi Tim., Kota Bks",KALIMANTAN BARAT,17112.0,Indonesia,2134275291.0,,,-6.2321409,107.0129839,https://maps.google.com/?cid=0x0:0xc0211867316b8784,
hardware store,Toko Bahan Bangunan,Meranti Hardware,"C-G-21, Savanna Lifestyle Retails, Jalan BBLS 2, Southville City, 43800 Dengkil, Selangor, Malaysia",Dengkil,KALIMANTAN BARAT,43800.0,Indonesia,60146231488.0,,,2.9020707,101.7647613,https://maps.google.com/?cid=0x0:0xb6e177e7010645ad,
hardware store,hardware store,Toko bangunan,"PP2W+J54, Selange, Kec. Meranti, Kabupaten Landak, Kalimantan Barat 79366","Selange, Kec. Meranti, Kabupaten Landak",KALIMANTAN BARAT,79366.0,Indonesia,,,,0.7015223,109.7454392,https://maps.google.com/?cid=0x0:0xc316b5d0ff16484e,
hardware store,Toko Bahan Bangunan,Mesti Jaya Hardware Sdn Bhd,"8658, Jalan Besar, Jalan Sungai Buah Luar, 43800 Dengkil, Selangor, Malaysia",Dengkil,KALIMANTAN BARAT,43800.0,Indonesia,60166981288.0,,,2.8989683,101.765453,https://maps.google.com/?cid=0x0:0x6715832bd33d54bd,
hardware store,hardware store,Ngabang,"Hilir Tengah, Kec. Ngabang, Kabupaten Landak, Kalimantan Barat","Kabupaten Landak, Kalimantan Barat",KALIMANTAN BARAT,,Indonesia,,,,0.396117,109.950996,https://maps.google.com/?cid=0x0:0x36ecc951d5c3f67,
hardware store,Toko Bahan Bangunan,Terang matahari Hardware,"Hilir Ktr., Kec. Ngabang, Kabupaten Landak, Kalimantan Barat 79357","Kec. Ngabang, Kabupaten Landak",KALIMANTAN BARAT,79357.0,Indonesia,87712804566.0,,,0.3818973,109.9561916,https://maps.google.com/?cid=0x0:0xfa94da211ea22748,
hardware store,hardware store,Toko bangunan,"Jl. Pangeran Cinata No.59, RT.10/RW.05, Raja, Kec. Ngabang, Kabupaten Landak, Kalimantan Barat 79354","RT.10/RW.05, Raja, Kec. Ngabang, Kabupaten Landak",KALIMANTAN BARAT,79354.0,Indonesia,81311923119.0,,,0.3960259,109.9508377,https://maps.google.com/?cid=0x0:0x336a17eb466b1a49,
hardware store,Toko Bahan Bangunan,SENTOSA BANGUNAN,"Amboyo Inti, Kec. Ngabang, Kabupaten Landak, Kalimantan Barat 79357","Kec. Ngabang, Kabupaten Landak",KALIMANTAN BARAT,79357.0,Indonesia,8111982700.0,,,0.3683875,109.9244531,https://maps.google.com/?cid=0x0:0xae7edc6a72dfe218,
hardware store,Toko bahan makanan,Tuppy Store Ngabang,"Gg. Arjuna No.91, Raja, Kec. Ngabang, Kabupaten Landak, Kalimantan Barat 79357","Raja, Kec. Ngabang, Kabupaten Landak",KALIMANTAN BARAT,79357.0,Indonesia,8115701739.0,,,0.3974868,109.9488692,https://maps.google.com/?cid=0x0:0x29fde2b3a694a51c,
hardware store,hardware store,Kalimantan Barat 79358,"Kabupaten Landak, Kalimantan Barat","Kabupaten Landak, Kalimantan Barat",KALIMANTAN BARAT,,Indonesia,,,,0.2290802,109.6401242,https://maps.google.com/?cid=0x0:0x49f2151083760b7e,
hardware store,hardware store,Sebangki,"Kumpang Tengah, Kec. Sebangki, Kabupaten Landak, Kalimantan Barat","Kabupaten Landak, Kalimantan Barat",KALIMANTAN BARAT,,Indonesia,,,,0.153873,109.629601,https://maps.google.com/?cid=0x0:0x924d17b3bff67c56,
hardware store,hardware store,Kalimantan Barat 79356,"Kabupaten Landak, Kalimantan Barat","Kabupaten Landak, Kalimantan Barat",KALIMANTAN BARAT,,Indonesia,,,,0.3883464,109.7115472,https://maps.google.com/?cid=0x0:0x20df62cbb3031bce,
hardware store,Toko umum,Toko Tunas Baru,"Jalan raya, Simpang Pasir, Kec. Sengah Temila, Kabupaten Landak, Kalimantan Barat 79356","Simpang Pasir, Kec. Sengah Temila, Kabupaten Landak",KALIMANTAN BARAT,79356.0,Indonesia,82154342410.0,,,0.4014474,109.7463969,https://maps.google.com/?cid=0x0:0xa7189416363fcdd9,
hardware store,Toko Perlengkapan Rumah,tokoh kayu,"allian, Aur Sampuk, Kabupaten Landak, Kalimantan Barat 79366","Aur Sampuk, Kabupaten Landak",KALIMANTAN BARAT,79366.0,Indonesia,83121529593.0,,,0.3266024,109.5568089,https://maps.google.com/?cid=0x0:0x1b37fc4f5e5a5ec6,
hardware store,Toko Bahan Bangunan,TB. Elegant Material,"Jl. Bengkayang - Ngabang, Darit, Kec. Menyuke, Kabupaten Landak, Kalimantan Barat 79364","Darit, Kec. Menyuke, Kabupaten Landak",KALIMANTAN BARAT,79364.0,Indonesia,81253364030.0,,,0.5857487,109.6293016,https://maps.google.com/?cid=0x0:0xd86f6c28f6ad6445,
hardware store,Minimarket,TB BAJU MERAH,"9HC7+XWF, simpang, Andeng, Kec. Sengah Temila, Kabupaten Landak, Kalimantan Barat","Kabupaten Landak, Kalimantan Barat",KALIMANTAN BARAT,,Indonesia,85845180472.0,,,0.3724346,109.5648015,https://maps.google.com/?cid=0x0:0x1f35137ecbef634b,
hardware store,Toko Alat Tulis,Cerry Stationery,"Pasar, Jl. Lintas Kalimantan Poros Tengah, Senakin, Kec. Sengah Temila, Kabupaten Landak, Kalimantan Barat 79356","Jl. Lintas Kalimantan Poros Tengah, Senakin, Kec. Sengah Temila, Kabupaten Landak",KALIMANTAN BARAT,79356.0,Indonesia,89670122974.0,,,0.3720268,109.5694043,https://maps.google.com/?cid=0x0:0x83925a1d346e3f7a,
hardware store,Toko Pakan Hewan,toko pak bela sidas,"kelawit, marecon, Kabupaten Landak, Kalimantan Barat 79356","marecon, Kabupaten Landak",KALIMANTAN BARAT,79356.0,Indonesia,81258766916.0,,,0.4237287,109.7591675,https://maps.google.com/?cid=0x0:0xbd651855a7cfdcd2,
hardware store,Toko Perlengkapan Rumah,MR. D.I.Y,"9WGV+P6F, Hilir Ktr., Kec. Ngabang, Kabupaten Landak, Kalimantan Barat","Kabupaten Landak, Kalimantan Barat",KALIMANTAN BARAT,,Indonesia,,,,0.3768339,109.943013,https://maps.google.com/?cid=0x0:0x45afe221ece7d871,
hardware store,Toko Pertanian,TOKO SUMBER JAYA,"CP2X+V2J, Jl. Lintas Kalimantan Poros Tengah, Banying, Kec. Sengah Temila, Kabupaten Landak, Kalimantan Barat 79356","Jl. Lintas Kalimantan Poros Tengah, Banying, Kec. Sengah Temila, Kabupaten Landak",KALIMANTAN BARAT,79356.0,Indonesia,81253395669.0,,,0.402207,109.7475247,https://maps.google.com/?cid=0x0:0x79e3243427bfc884,
hardware store,Toko Bahan Bangunan,Toko bintang jaya,"Jl. Raya Mungguk, Hilir Tengah, Kec. Ngabang, Kabupaten Landak, Kalimantan Barat 79357","Hilir Tengah, Kec. Ngabang, Kabupaten Landak",KALIMANTAN BARAT,79357.0,Indonesia,8111982700.0,,,0.4021229,109.9452074,https://maps.google.com/?cid=0x0:0x9998ec04f275d15e,
hardware store,Toko,Toko mekar 38,"8MF4+27H, Saham, Kec. Sengah Temila, Kabupaten Landak, Kalimantan Barat 79358","Saham, Kec. Sengah Temila, Kabupaten Landak",KALIMANTAN BARAT,79358.0,Indonesia,81521990644.0,,,0.3225668,109.655732,https://maps.google.com/?cid=0x0:0x74fb50e202edc72a,
hardware store,Toko,Toko Cahaya Pagi,"9HF6+QX7, Jl. Lintas Kalimantan Poros Tengah, Andeng, Kec. Sengah Temila, Kabupaten Landak, Kalimantan Barat 79356","Jl. Lintas Kalimantan Poros Tengah, Andeng, Kec. Sengah Temila, Kabupaten Landak",KALIMANTAN BARAT,79356.0,Indonesia,,,,0.3744175,109.5624108,https://maps.google.com/?cid=0x0:0xaa63d691929723e2,
hardware store,hardware store,Kalimantan Barat 79363,"Kec. Mempawah Hulu, Kabupaten Landak, Kalimantan Barat","Kabupaten Landak, Kalimantan Barat",KALIMANTAN BARAT,,Indonesia,,,,0.6745598,109.4259114,https://maps.google.com/?cid=0x0:0xdcefe0766b98359b,
hardware store,Toko,Toko Daya Maju Menjalin,"Jl. Anjungan - Bengkayang, Menjalin, Kec. Menjalin, Kabupaten Landak, Kalimantan Barat 79362","Menjalin, Kec. Menjalin, Kabupaten Landak",KALIMANTAN BARAT,79362.0,Indonesia,85697493389.0,,,0.4698238,109.3376227,https://maps.google.com/?cid=0x0:0x9044695a839b3f60,
hardware store,Toko Bahan Bangunan,Bravo Aregas,"JHQ7+C8F, Jl. Bengkayang - Ngabang, Tembawang Bale, Kec. Banyuke Hulu, Kabupaten Landak, Kalimantan Barat 79364","Jl. Bengkayang - Ngabang, Tembawang Bale, Kec. Banyuke Hulu, Kabupaten Landak",KALIMANTAN BARAT,79364.0,Indonesia,,,,0.6387488,109.5631173,https://maps.google.com/?cid=0x0:0xe67353b4ce237d8,
hardware store,Toko,E - ATK_Ponsel,"Jl. Anjungan - Bengkayang, Menjalin, Kec. Menjalin, Kabupaten Landak, Kalimantan Barat 79362","Menjalin, Kec. Menjalin, Kabupaten Landak",KALIMANTAN BARAT,79362.0,Indonesia,85245237590.0,,,0.4648446,109.3333239,https://maps.google.com/?cid=0x0:0x389cd38ab4363990,
hardware store,Toko Bahan Bangunan,Nusa Dharma,"Jl. Tabrani No.169, Malo Jelayan, Kec. Teriak, Kabupaten Bengkayang, Kalimantan Barat 79214","Malo Jelayan, Kec. Teriak, Kabupaten Bengkayang",KALIMANTAN BARAT,79214.0,Indonesia,,,,0.8185297,109.4822768,https://maps.google.com/?cid=0x0:0x6bb605b9eade6d5d,
hardware store,Toko sembako pemerintah,MR.DIY,"Jl. Raya Sanggau Ledo, Bani Amas, Kec. Bengkayang, Kabupaten Bengkayang, Kalimantan Barat 79211","Bani Amas, Kec. Bengkayang, Kabupaten Bengkayang",KALIMANTAN BARAT,79211.0,Indonesia,,,,0.8500973,109.5010611,https://maps.google.com/?cid=0x0:0x2f09cbed5647ad9c,
hardware store,Toko,Bintang Samudra Mebel,"F8RP+88X, Dusun Apo Desa, bengkawe, Kec. Menjalin, Kabupaten Landak, Kalimantan Barat","Kabupaten Landak, Kalimantan Barat",KALIMANTAN BARAT,,Indonesia,,,,0.4908533,109.3358631,https://maps.google.com/?cid=0x0:0x3f920eeacbb45a3f,
hardware store,Jasa Ketik,"Toko ATK, Jasa Install Ulang Windows, Pengetikan Document, Pulsa, Token Listrik dan lain-lain","Jl. Karangan, Karangan, Kec. Mempawah Hulu, Kabupaten Landak, Kalimantan Barat 79362","Karangan, Kec. Mempawah Hulu, Kabupaten Landak",KALIMANTAN BARAT,79362.0,Indonesia,8981262055.0,,,0.5558234,109.3752368,https://maps.google.com/?cid=0x0:0x892a88af4503e206,
hardware store,Toko Pertanian,Toko Pertanian dan Bangunan,"GF7H+P24, Pasar, Sompak, Kec. Sompak, Kabupaten Landak, Kalimantan Barat","Kabupaten Landak, Kalimantan Barat",KALIMANTAN BARAT,,Indonesia,,,,0.5142634,109.4775873,https://maps.google.com/?cid=0x0:0xae99f7f3c96bc6d9,
hardware store,hardware store,Toko Pembangunan,"Jl. Tabrani No.177, RT.014/RW.08, Malo Jelayan, Kec. Teriak, Kabupaten Bengkayang, Kalimantan Barat 79212","RT.014/RW.08, Malo Jelayan, Kec. Teriak, Kabupaten Bengkayang",KALIMANTAN BARAT,79212.0,Indonesia,,,,0.8188135,109.4820216,https://maps.google.com/?cid=0x0:0x75af5b8af845016e,
hardware store,Toko Bahan Bangunan,Toko Pertanian Natasya,"FG52+CRX, Pakumbang, Kec. Sompak, Kabupaten Landak, Kalimantan Barat 79355","Pakumbang, Kec. Sompak, Kabupaten Landak",KALIMANTAN BARAT,79355.0,Indonesia,85345932283.0,,,0.458621,109.5020997,https://maps.google.com/?cid=0x0:0xc6a8ffc687fc630a,
hardware store,Grosir Perlengkapan Rumah Tangga,Tiar shop,"Jl. Utama Ruko Grand Kahuripan Sindoro DF 18, RT.6/RW.6, Dayeuh, Kec. Cileungsi, Kabupaten Bogor, Jawa Barat 16820","RT.6/RW.6, Dayeuh, Kec. Cileungsi, Kabupaten Bogor",KALIMANTAN BARAT,16820.0,Indonesia,81318216709.0,,,-6.4463798,106.9653123,https://maps.google.com/?cid=0x0:0xd0703564653d2fc4,
hardware store,Toko Barang Rumah Tangga Asia,EA Shop,"HX97+3XV, Jl. Pamugaran, Dayeuh, Kec. Cileungsi, Kabupaten Bogor, Jawa Barat 16820","Jl. Pamugaran, Dayeuh, Kec. Cileungsi, Kabupaten Bogor",KALIMANTAN BARAT,16820.0,Indonesia,89631094649.0,,,-6.4322521,106.9649279,https://maps.google.com/?cid=0x0:0x713331d108b1fd52,
