Category,Real Category,Business Name,Address,City,State,Postal Code,Country,Phone,Email,Website,Latitude,Longitude,Map Link,Details Link
mall,mall,Kalimantan Barat 79671,"Kabupaten Melawi, Kalimantan Barat","Kabupaten Melawi, Kalimantan Barat",KALIMANTAN BARAT,,Indonesia,,,,-0.4539656,111.5229817,https://maps.google.com/?cid=0x0:0xfc272e555b0cebaa,
mall,Toko Swalayan,Mitra Buana,"MQ32+48P, Jl. Juang, Paal, Kec. Nanga Pinoh, Kabupaten Melawi, Kalimantan Barat 79672","Jl. Juang, Paal, Kec. Nanga Pinoh, Kabupaten Melawi",KALIMANTAN BARAT,79672.0,Indonesia,,,,-0.3471597,111.7508402,https://maps.google.com/?cid=0x0:0xf97eacf0990f6502,
mall,Toko Swalayan,Mutiara Kasih Batu Buil,"Jl. Lintas Kalimantan Poros Tengah, Batu Buil, Kec. Belimbing, Kabupaten Melawi, Kalimantan Barat 79671","Batu Buil, Kec. Belimbing, Kabupaten Melawi",KALIMANTAN BARAT,79671.0,Indonesia,,,,-0.2891339,111.605262,https://maps.google.com/?cid=0x0:0x8d2144328f279cd0,
mall,Pembangunan Perumahan,UD.HERNANDA SARISAKTI,"Belonsat, Belimbing, Belonsat, Kec. Belimbing, Kabupaten Melawi, Kalimantan Barat 78655","Belimbing, Belonsat, Kec. Belimbing, Kabupaten Melawi",KALIMANTAN BARAT,78655.0,Indonesia,85345041450.0,,,-0.2765782,111.5041125,https://maps.google.com/?cid=0x0:0xc09db8aafed4a4b9,
mall,Toko,Fany lestari pertanian,"Jl. Lintas Kalimantan Poros Tengah, Batu Nanta, Kec. Belimbing, Kabupaten Melawi, Kalimantan Barat 78655","Batu Nanta, Kec. Belimbing, Kabupaten Melawi",KALIMANTAN BARAT,78655.0,Indonesia,82133650870.0,,,-0.2574858,111.5708881,https://maps.google.com/?cid=0x0:0x77c4178795de4fcb,
mall,Toko Swalayan,SEMBAKO PAK MUNDIR,"PF7R+QH8, Belonsat, Kec. Belimbing, Kabupaten Melawi, Kalimantan Barat 78655","Belonsat, Kec. Belimbing, Kabupaten Melawi",KALIMANTAN BARAT,78655.0,Indonesia,81259668422.0,,,-0.2855931,111.4914418,https://maps.google.com/?cid=0x0:0xacb8e5a31309c7b4,
mall,Toko bahan makanan,Bilqis Mart,"MP36+793, Sidomulyo, Kec. Nanga Pinoh, Kabupaten Melawi, Kalimantan Barat 79671","Sidomulyo, Kec. Nanga Pinoh, Kabupaten Melawi",KALIMANTAN BARAT,79671.0,Indonesia,,,,-0.3468508,111.7109216,https://maps.google.com/?cid=0x0:0x3ce922ad19d71d9c,
mall,Pusat Perbelanjaan,Kop. Manunggal Jaya Sarai,"MFRJ+52W, Unnamed Road, Belonsat, Kec. Belimbing, Kabupaten Sintang, Kalimantan Barat 78655","Unnamed Road, Belonsat, Kec. Belimbing, Kabupaten Sintang",KALIMANTAN BARAT,78655.0,Indonesia,,,,-0.3095103,111.4800843,https://maps.google.com/?cid=0x0:0x8904cdf91d36382b,
mall,Servis Komputer,Toko dan Service laptop Mas Mundir,"PF7R+QH7, Belonsat, Kec. Belimbing, Kabupaten Melawi, Kalimantan Barat 78655","Belonsat, Kec. Belimbing, Kabupaten Melawi",KALIMANTAN BARAT,78655.0,Indonesia,81347418290.0,,,-0.2855842,111.4914362,https://maps.google.com/?cid=0x0:0x658106913b39dedb,
mall,Toko,Kios kaban kita,"JC94+JC7, Upit, Kec. Belimbing, Kabupaten Melawi, Kalimantan Barat","Kabupaten Melawi, Kalimantan Barat",KALIMANTAN BARAT,,Indonesia,,,,-0.3809735,111.4060423,https://maps.google.com/?cid=0x0:0x21b829a6a03e7aba,
mall,Toko bahan makanan,Supermarket Mitra Indah,"MP8Q+2QX, Jl. Juang, Tj. Niaga, Kec. Nanga Pinoh, Kabupaten Melawi, Kalimantan Barat 79672","Jl. Juang, Tj. Niaga, Kec. Nanga Pinoh, Kabupaten Melawi",KALIMANTAN BARAT,79672.0,Indonesia,,,,-0.3348844,111.739498,https://maps.google.com/?cid=0x0:0x7b2694231a2d05c9,
mall,Toko bahan makanan,Alfamart Batu Buil,"Jl. Sintang-Nanga Pinoh, Dusun Desa, RT.006/RW.001, Batu Buil, Kec. Belimbing, Kab. Melawi, Kalimantan Barat 79671","Dusun Desa, RT.006/RW.001, Batu Buil, Kec. Belimbing, Kab. Melawi",KALIMANTAN BARAT,79671.0,Indonesia,1500959.0,,,-0.289094,111.6064448,https://maps.google.com/?cid=0x0:0x3d78df79f317e996,
mall,Toko Komputer,TOKO SENTRAL KOMPUTER /AJUK,"MP6V+GH2, Jl. Marhaban, Paal, Kec. Nanga Pinoh, Kabupaten Melawi, Kalimantan Barat 79672","Jl. Marhaban, Paal, Kec. Nanga Pinoh, Kabupaten Melawi",KALIMANTAN BARAT,79672.0,Indonesia,,,,-0.3387388,111.7438876,https://maps.google.com/?cid=0x0:0x4f09aa1ca2cf6490,
mall,Toko,TOKO DETRI SHOP,"Jl. Cemp. No.117, Paal, Kec. Nanga Pinoh, Kabupaten Melawi, Kalimantan Barat 79672","Paal, Kec. Nanga Pinoh, Kabupaten Melawi",KALIMANTAN BARAT,79672.0,Indonesia,85346677664.0,,,-0.3320888,111.738602,https://maps.google.com/?cid=0x0:0xcbc83097a1febca7,
mall,Toko Pertanian,Berkat Tani,"JPX7+52J, Sidomulyo, Kec. Nanga Pinoh, Kabupaten Melawi, Kalimantan Barat 79671","Sidomulyo, Kec. Nanga Pinoh, Kabupaten Melawi",KALIMANTAN BARAT,79671.0,Indonesia,82153965844.0,,,-0.3520468,111.7125246,https://maps.google.com/?cid=0x0:0xed091f260bd019bd,
mall,Salon Kecantikan,Agen Drw Skincare Sari Ratna,"PF8R+HPQ, Belonsat, Kec. Belimbing, Kabupaten Melawi, Kalimantan Barat 78655","Belonsat, Kec. Belimbing, Kabupaten Melawi",KALIMANTAN BARAT,78655.0,Indonesia,82255081089.0,,,-0.2835251,111.4918555,https://maps.google.com/?cid=0x0:0x2269ed96d3a0e292,
mall,Pasar tradisional,Belimbing Store,"X8RF+373, Gg. Belimbing, Sungai Jawi Luar, Kec. Pontianak Bar., Kota Pontianak, Kalimantan Barat 78244","Gg. Belimbing, Sungai Jawi Luar, Kec. Pontianak Bar., Kota Pontianak",KALIMANTAN BARAT,78244.0,Indonesia,89660635888.0,,,-0.0098577,109.3231811,https://maps.google.com/?cid=0x0:0x9bc5af65d9d367d1,
mall,mall,Pontianak Jeruju,"PFCG+F4M, Belonsat, Kec. Belimbing, Kabupaten Melawi, Kalimantan Barat 78655","Belonsat, Kec. Belimbing, Kabupaten Melawi",KALIMANTAN BARAT,78655.0,Indonesia,,,,-0.2787808,111.4752851,https://maps.google.com/?cid=0x0:0x828abd8345fc7aa8,
mall,Toko,Alfamart Sidomulyo,"Jl Desa, Sidomulyo, Kec. Nanga Pinoh, Kab. Melawi, Kalimantan Barat 79672","Sidomulyo, Kec. Nanga Pinoh, Kab. Melawi",KALIMANTAN BARAT,79672.0,Indonesia,1500959.0,,,-0.3391865,111.7208259,https://maps.google.com/?cid=0x0:0x138bc30c1e65a518,
mall,,Dekranasda Melawi,"MP4W+5X6, Paal, Kec. Nanga Pinoh, Kabupaten Melawi, Kalimantan Barat 79672","Paal, Kec. Nanga Pinoh, Kabupaten Melawi",KALIMANTAN BARAT,79672.0,Indonesia,,,,-0.3445779,111.747403,https://maps.google.com/?cid=0x0:0xe695aed50731f148,
mall,Toko,SAMZ STICKER,"Km No.3 Baru, Paal, Kec. Nanga Pinoh, Kabupaten Melawi, Kalimantan Barat 79672","Paal, Kec. Nanga Pinoh, Kabupaten Melawi",KALIMANTAN BARAT,79672.0,Indonesia,85652180143.0,,,-0.3523636,111.7513009,https://maps.google.com/?cid=0x0:0xc4c8cf85d17e3aac,
mall,Toko Pakaian,Adilla Shop,"Jl. Juang No.KM 2, Kenual, Kec. Nanga Pinoh, Kabupaten Melawi, Kalimantan Barat 79672","Kenual, Kec. Nanga Pinoh, Kabupaten Melawi",KALIMANTAN BARAT,79672.0,Indonesia,85250550601.0,,,-0.3444112,111.7468177,https://maps.google.com/?cid=0x0:0x6e638d174c87b829,
mall,Pusat Perbelanjaan,Minimart,"HRWF+5C6, Jl. Belimbing 3, Depok, Kec. Pancoran Mas, Kota Depok, Jawa Barat 16431","Jl. Belimbing 3, Depok, Kec. Pancoran Mas, Kota Depok",KALIMANTAN BARAT,16431.0,Indonesia,8965421548.0,,,-6.4046577,106.8234489,https://maps.google.com/?cid=0x0:0xfe2fc6dc24cdc2ad,
mall,Pusat Perbelanjaan,warung bu mimi,"HRW8+4F6, Unnamed Road, Depok, Kec. Pancoran Mas, Kota Depok, Jawa Barat 16431","Unnamed Road, Depok, Kec. Pancoran Mas, Kota Depok",KALIMANTAN BARAT,16431.0,Indonesia,87870403419.0,,,-6.4047183,106.8161299,https://maps.google.com/?cid=0x0:0x3d17812ace9b8b92,
mall,Toko Swalayan,Mutiara Kasih Batu Buil,"Jl. Lintas Kalimantan Poros Tengah, Batu Buil, Kec. Belimbing, Kabupaten Melawi, Kalimantan Barat 79671","Batu Buil, Kec. Belimbing, Kabupaten Melawi",KALIMANTAN BARAT,79671.0,Indonesia,,,,-0.2891339,111.605262,https://maps.google.com/?cid=0x0:0x8d2144328f279cd0,
mall,mall,Kec. Belimbing Hulu,"Kabupaten Melawi, Kalimantan Barat","Kabupaten Melawi, Kalimantan Barat",KALIMANTAN BARAT,,Indonesia,,,,-0.3702887,111.5294943,https://maps.google.com/?cid=0x0:0x26dc94245ead4c2a,
mall,Pembangunan Perumahan,UD.HERNANDA SARISAKTI,"Belonsat, Belimbing, Belonsat, Kec. Belimbing, Kabupaten Melawi, Kalimantan Barat 78655","Belimbing, Belonsat, Kec. Belimbing, Kabupaten Melawi",KALIMANTAN BARAT,78655.0,Indonesia,85345041450.0,,,-0.2765782,111.5041125,https://maps.google.com/?cid=0x0:0xc09db8aafed4a4b9,
mall,Toko Swalayan,SEMBAKO PAK MUNDIR,"PF7R+QH8, Belonsat, Kec. Belimbing, Kabupaten Melawi, Kalimantan Barat 78655","Belonsat, Kec. Belimbing, Kabupaten Melawi",KALIMANTAN BARAT,78655.0,Indonesia,81259668422.0,,,-0.2855931,111.4914418,https://maps.google.com/?cid=0x0:0xacb8e5a31309c7b4,
mall,Servis Komputer,Toko dan Service laptop Mas Mundir,"PF7R+QH7, Belonsat, Kec. Belimbing, Kabupaten Melawi, Kalimantan Barat 78655","Belonsat, Kec. Belimbing, Kabupaten Melawi",KALIMANTAN BARAT,78655.0,Indonesia,81347418290.0,,,-0.2855842,111.4914362,https://maps.google.com/?cid=0x0:0x658106913b39dedb,
mall,Toko,Fany lestari pertanian,"Jl. Lintas Kalimantan Poros Tengah, Batu Nanta, Kec. Belimbing, Kabupaten Melawi, Kalimantan Barat 78655","Batu Nanta, Kec. Belimbing, Kabupaten Melawi",KALIMANTAN BARAT,78655.0,Indonesia,82133650870.0,,,-0.2574858,111.5708881,https://maps.google.com/?cid=0x0:0x77c4178795de4fcb,
mall,Pusat Perbelanjaan,Kop. Manunggal Jaya Sarai,"MFRJ+52W, Unnamed Road, Belonsat, Kec. Belimbing, Kabupaten Sintang, Kalimantan Barat 78655","Unnamed Road, Belonsat, Kec. Belimbing, Kabupaten Sintang",KALIMANTAN BARAT,78655.0,Indonesia,,,,-0.3095103,111.4800843,https://maps.google.com/?cid=0x0:0x8904cdf91d36382b,
mall,Toko bahan makanan,Alfamart Batu Buil,"Jl. Sintang-Nanga Pinoh, Dusun Desa, RT.006/RW.001, Batu Buil, Kec. Belimbing, Kab. Melawi, Kalimantan Barat 79671","Dusun Desa, RT.006/RW.001, Batu Buil, Kec. Belimbing, Kab. Melawi",KALIMANTAN BARAT,79671.0,Indonesia,1500959.0,,,-0.289094,111.6064448,https://maps.google.com/?cid=0x0:0x3d78df79f317e996,
mall,Salon Kecantikan,Agen Drw Skincare Sari Ratna,"PF8R+HPQ, Belonsat, Kec. Belimbing, Kabupaten Melawi, Kalimantan Barat 78655","Belonsat, Kec. Belimbing, Kabupaten Melawi",KALIMANTAN BARAT,78655.0,Indonesia,82255081089.0,,,-0.2835251,111.4918555,https://maps.google.com/?cid=0x0:0x2269ed96d3a0e292,
mall,mall,Pontianak Jeruju,"PFCG+F4M, Belonsat, Kec. Belimbing, Kabupaten Melawi, Kalimantan Barat 78655","Belonsat, Kec. Belimbing, Kabupaten Melawi",KALIMANTAN BARAT,78655.0,Indonesia,,,,-0.2787808,111.4752851,https://maps.google.com/?cid=0x0:0x828abd8345fc7aa8,
mall,mall,TERAS KOPI ANNORA,"PH8X+GWM, Batu Buil, Kec. Belimbing, Kabupaten Melawi, Kalimantan Barat 79671","Batu Buil, Kec. Belimbing, Kabupaten Melawi",KALIMANTAN BARAT,79671.0,Indonesia,,,,-0.2836643,111.5997988,https://maps.google.com/?cid=0x0:0x8e4aab2c50bdf9a9,
mall,mall,Kalimantan Barat 79681,"Kabupaten Melawi, Kalimantan Barat","Kabupaten Melawi, Kalimantan Barat",KALIMANTAN BARAT,,Indonesia,,,,-0.5928174,111.9999435,https://maps.google.com/?cid=0x0:0x56ab64304e08062b,
mall,Toko Pakaian,Saskia_collection,"JX4X+685, Unnamed Road, Nanga Ella Hilir, Kec. Ella Hilir, Kabupaten Melawi, Kalimantan Barat 79681","Unnamed Road, Nanga Ella Hilir, Kec. Ella Hilir, Kabupaten Melawi",KALIMANTAN BARAT,79681.0,Indonesia,85750809060.0,,,-0.3944982,111.9983458,https://maps.google.com/?cid=0x0:0x4a6d4c8b44e4cb6c,
mall,Kafe,Warung Pak Buyung,"J242+39C, Nanga Ella Hilir, Kec. Ella Hilir, Kabupaten Melawi, Kalimantan Barat 79681","Nanga Ella Hilir, Kec. Ella Hilir, Kabupaten Melawi",KALIMANTAN BARAT,79681.0,Indonesia,,,,-0.39481,112.0009046,https://maps.google.com/?cid=0x0:0xba7b09a917de510a,
mall,mall,Menukung,"Nanga Ella Hulu, Kec. Menukung, Kabupaten Melawi, Kalimantan Barat","Kabupaten Melawi, Kalimantan Barat",KALIMANTAN BARAT,,Indonesia,,,,-0.395657,112.1717,https://maps.google.com/?cid=0x0:0x8d04b3ff9fa0089c,
mall,Toko bahan makanan,toko Sempati,"H6JG+39P, Menukung Kota, Kec. Menukung, Kabupaten Melawi, Kalimantan Barat 79682","Menukung Kota, Kec. Menukung, Kabupaten Melawi",KALIMANTAN BARAT,79682.0,Indonesia,,,,-0.4195122,112.2259225,https://maps.google.com/?cid=0x0:0x2fd6fa9212678e79,
mall,Pusat Perbelanjaan,Cianjur Jawa barat,"H7R2+R44, Menukung Kota, Kec. Menukung, Kabupaten Melawi, Kalimantan Barat 79682","Menukung Kota, Kec. Menukung, Kabupaten Melawi",KALIMANTAN BARAT,79682.0,Indonesia,,,,-0.4079819,112.2503239,https://maps.google.com/?cid=0x0:0xb1f2e8985ccfc225,
mall,Toko bahan makanan,Supermarket Mitra Indah,"MP8Q+2QX, Jl. Juang, Tj. Niaga, Kec. Nanga Pinoh, Kabupaten Melawi, Kalimantan Barat 79672","Jl. Juang, Tj. Niaga, Kec. Nanga Pinoh, Kabupaten Melawi",KALIMANTAN BARAT,79672.0,Indonesia,,,,-0.3348844,111.739498,https://maps.google.com/?cid=0x0:0x7b2694231a2d05c9,
mall,Pusat Perbelanjaan,Mitra Indah Super Market,"Baru, Kec. Nanga Pinoh, Kabupaten Melawi, Kalimantan Barat","Kabupaten Melawi, Kalimantan Barat",KALIMANTAN BARAT,,Indonesia,,,,-0.3125909,111.6971663,https://maps.google.com/?cid=0x0:0x8f1061ab1649ee32,
mall,mall,Nanga Pinoh,"Sidomulyo, Kec. Nanga Pinoh, Kabupaten Melawi, Kalimantan Barat","Kabupaten Melawi, Kalimantan Barat",KALIMANTAN BARAT,,Indonesia,,,,-0.331892,111.733398,https://maps.google.com/?cid=0x0:0x1b19b0cfdd74bdad,
mall,Toko Ponsel,Merak Ponsel,"Paal, Kec. Nanga Pinoh, Kabupaten Melawi, Kalimantan Barat 79672","Kec. Nanga Pinoh, Kabupaten Melawi",KALIMANTAN BARAT,79672.0,Indonesia,,,,-0.3318756,111.7379734,https://maps.google.com/?cid=0x0:0xdd3e18ea21a5715a,
mall,mall,Kalimantan Barat 79672,"Kabupaten Melawi, Kalimantan Barat","Kabupaten Melawi, Kalimantan Barat",KALIMANTAN BARAT,,Indonesia,,,,-0.4530658,111.8091625,https://maps.google.com/?cid=0x0:0xf8a34da63da634fa,
mall,Toko Swalayan,Mitra Buana,"MQ32+48P, Jl. Juang, Paal, Kec. Nanga Pinoh, Kabupaten Melawi, Kalimantan Barat 79672","Jl. Juang, Paal, Kec. Nanga Pinoh, Kabupaten Melawi",KALIMANTAN BARAT,79672.0,Indonesia,,,,-0.3471597,111.7508402,https://maps.google.com/?cid=0x0:0xf97eacf0990f6502,
mall,Toko bahan makanan,Supermarket Mitra Indah,"MP8Q+2QX, Jl. Juang, Tj. Niaga, Kec. Nanga Pinoh, Kabupaten Melawi, Kalimantan Barat 79672","Jl. Juang, Tj. Niaga, Kec. Nanga Pinoh, Kabupaten Melawi",KALIMANTAN BARAT,79672.0,Indonesia,,,,-0.3348844,111.739498,https://maps.google.com/?cid=0x0:0x7b2694231a2d05c9,
mall,Toko bahan makanan,Bilqis Mart,"MP36+793, Sidomulyo, Kec. Nanga Pinoh, Kabupaten Melawi, Kalimantan Barat 79671","Sidomulyo, Kec. Nanga Pinoh, Kabupaten Melawi",KALIMANTAN BARAT,79671.0,Indonesia,,,,-0.3468508,111.7109216,https://maps.google.com/?cid=0x0:0x3ce922ad19d71d9c,
mall,Toko Komputer,TOKO SENTRAL KOMPUTER /AJUK,"MP6V+GH2, Jl. Marhaban, Paal, Kec. Nanga Pinoh, Kabupaten Melawi, Kalimantan Barat 79672","Jl. Marhaban, Paal, Kec. Nanga Pinoh, Kabupaten Melawi",KALIMANTAN BARAT,79672.0,Indonesia,,,,-0.3387388,111.7438876,https://maps.google.com/?cid=0x0:0x4f09aa1ca2cf6490,
mall,Toko,TOKO DETRI SHOP,"Jl. Cemp. No.117, Paal, Kec. Nanga Pinoh, Kabupaten Melawi, Kalimantan Barat 79672","Paal, Kec. Nanga Pinoh, Kabupaten Melawi",KALIMANTAN BARAT,79672.0,Indonesia,85346677664.0,,,-0.3320888,111.738602,https://maps.google.com/?cid=0x0:0xcbc83097a1febca7,
mall,Toko Pakaian,Adilla Shop,"Jl. Juang No.KM 2, Kenual, Kec. Nanga Pinoh, Kabupaten Melawi, Kalimantan Barat 79672","Kenual, Kec. Nanga Pinoh, Kabupaten Melawi",KALIMANTAN BARAT,79672.0,Indonesia,85250550601.0,,,-0.3444112,111.7468177,https://maps.google.com/?cid=0x0:0x6e638d174c87b829,
mall,Toko,SAMZ STICKER,"Km No.3 Baru, Paal, Kec. Nanga Pinoh, Kabupaten Melawi, Kalimantan Barat 79672","Paal, Kec. Nanga Pinoh, Kabupaten Melawi",KALIMANTAN BARAT,79672.0,Indonesia,85652180143.0,,,-0.3523636,111.7513009,https://maps.google.com/?cid=0x0:0xc4c8cf85d17e3aac,
mall,Toko Pertanian,Berkat Tani,"JPX7+52J, Sidomulyo, Kec. Nanga Pinoh, Kabupaten Melawi, Kalimantan Barat 79671","Sidomulyo, Kec. Nanga Pinoh, Kabupaten Melawi",KALIMANTAN BARAT,79671.0,Indonesia,82153965844.0,,,-0.3520468,111.7125246,https://maps.google.com/?cid=0x0:0xed091f260bd019bd,
mall,Toko,Tk. Sembako Mutiara,"MP9Q+9F4, Jl. Cemp., Paal, Kec. Nanga Pinoh, Kabupaten Melawi, Kalimantan Barat 79672","Jl. Cemp., Paal, Kec. Nanga Pinoh, Kabupaten Melawi",KALIMANTAN BARAT,79672.0,Indonesia,,,,-0.3316211,111.7387153,https://maps.google.com/?cid=0x0:0xa81e699ec87fabbe,
mall,Toko Pakaian Remaja,Lumpia Nia,"MP7R+R96, Jl. Beringin, Paal, Kec. Nanga Pinoh, Kabupaten Melawi, Kalimantan Barat 79672","Jl. Beringin, Paal, Kec. Nanga Pinoh, Kabupaten Melawi",KALIMANTAN BARAT,79672.0,Indonesia,895373727553.0,,,-0.3354539,111.740896,https://maps.google.com/?cid=0x0:0x2c4b837ed377dd66,
mall,Toko Optik,Optik melawi,"MP9P+8JV, Jl. Lintas Kalimantan Poros Tengah, Tj. Niaga, Kec. Nanga Pinoh, Kabupaten Melawi, Kalimantan Barat 79672","Jl. Lintas Kalimantan Poros Tengah, Tj. Niaga, Kec. Nanga Pinoh, Kabupaten Melawi",KALIMANTAN BARAT,79672.0,Indonesia,,,,-0.3316382,111.7365531,https://maps.google.com/?cid=0x0:0x47f38bfd3498383,
mall,Toko Perlengkapan Bayi,NUNO STORE (BABY SHOP),"MP8Q+J65, Tj. Niaga, Kec. Nanga Pinoh, Kabupaten Melawi, Kalimantan Barat 79672","Tj. Niaga, Kec. Nanga Pinoh, Kabupaten Melawi",KALIMANTAN BARAT,79672.0,Indonesia,82252145050.0,,,-0.3334956,111.7381122,https://maps.google.com/?cid=0x0:0x10be6c4e936442e4,
mall,Toko,Alfamart Sidomulyo,"Jl Desa, Sidomulyo, Kec. Nanga Pinoh, Kab. Melawi, Kalimantan Barat 79672","Sidomulyo, Kec. Nanga Pinoh, Kab. Melawi",KALIMANTAN BARAT,79672.0,Indonesia,1500959.0,,,-0.3391865,111.7208259,https://maps.google.com/?cid=0x0:0x138bc30c1e65a518,
mall,Toko Pakaian,Saskia_collection,"JX4X+685, Unnamed Road, Nanga Ella Hilir, Kec. Ella Hilir, Kabupaten Melawi, Kalimantan Barat 79681","Unnamed Road, Nanga Ella Hilir, Kec. Ella Hilir, Kabupaten Melawi",KALIMANTAN BARAT,79681.0,Indonesia,85750809060.0,,,-0.3944982,111.9983458,https://maps.google.com/?cid=0x0:0x4a6d4c8b44e4cb6c,
mall,Mal outlet,Pontianak Mall,"X89P+C7H, Jl. Teuku Umar, Darat Sekip, Kec. Pontianak Kota, Kota Pontianak, Kalimantan Barat 78243","Jl. Teuku Umar, Darat Sekip, Kec. Pontianak Kota, Kota Pontianak",KALIMANTAN BARAT,78243.0,Indonesia,,,,-0.0314263,109.3357298,https://maps.google.com/?cid=0x0:0x3786f44dd7e8543,
mall,Kafe,Warung Pak Buyung,"J242+39C, Nanga Ella Hilir, Kec. Ella Hilir, Kabupaten Melawi, Kalimantan Barat 79681","Nanga Ella Hilir, Kec. Ella Hilir, Kabupaten Melawi",KALIMANTAN BARAT,79681.0,Indonesia,,,,-0.39481,112.0009046,https://maps.google.com/?cid=0x0:0xba7b09a917de510a,
mall,Toko Swalayan,Indomaret Propinsi,"MP8M+P4M, Propinsi Road,, Sidomulyo, Kec. Nanga Pinoh, Kabupaten Melawi, Kalimantan Barat 79672","Propinsi Road,, Sidomulyo, Kec. Nanga Pinoh, Kabupaten Melawi",KALIMANTAN BARAT,79672.0,Indonesia,,,,-0.3331597,111.7327846,https://maps.google.com/?cid=0x0:0xf1d974b434fd52c9,
mall,Mal outlet,Mall Ramayana,"Jl. Tanjung Pura, Benua Melayu Laut, Kec. Pontianak Sel., Kota Pontianak, Kalimantan Barat 78123","Benua Melayu Laut, Kec. Pontianak Sel., Kota Pontianak",KALIMANTAN BARAT,78123.0,Indonesia,561747014.0,,,-0.036985,109.3474475,https://maps.google.com/?cid=0x0:0x6986d23d56e441c3,
mall,Toko Swalayan,AGEN KAMBING,"JM7V+23F, Tj. Sari, Kec. Nanga Pinoh, Kabupaten Melawi, Kalimantan Barat 79671","Tj. Sari, Kec. Nanga Pinoh, Kabupaten Melawi",KALIMANTAN BARAT,79671.0,Indonesia,,,,-0.3874304,111.6926786,https://maps.google.com/?cid=0x0:0xe9f2e53fa3e224bb,
mall,Jasa Konstruksi dan Bangunan,"Jual lesung,telenan,terbuat dari kayu","PPHR+RF, Melamut Bersatu, Kec. Pinoh Utara, Kabupaten Melawi, Kalimantan Barat","Kabupaten Melawi, Kalimantan Barat",KALIMANTAN BARAT,,Indonesia,,,,-0.2704727,111.7411773,https://maps.google.com/?cid=0x0:0xeafbbf861ea9afce,
mall,Toko Pakaian,Kaizen store distro,"MP8J+MXW, Sidomulyo, Kec. Nanga Pinoh, Kabupaten Melawi, Kalimantan Barat 79672","Sidomulyo, Kec. Nanga Pinoh, Kabupaten Melawi",KALIMANTAN BARAT,79672.0,Indonesia,81257373756.0,,,-0.3332562,111.732439,https://maps.google.com/?cid=0x0:0x65833f4038531a36,
mall,Toko Ponsel,ILLUSION CELL,"MP9Q+7HP, Paal, Kec. Nanga Pinoh, Kabupaten Melawi, Kalimantan Barat 79672","Paal, Kec. Nanga Pinoh, Kabupaten Melawi",KALIMANTAN BARAT,79672.0,Indonesia,81352527862.0,,,-0.3317884,111.7389487,https://maps.google.com/?cid=0x0:0x9b6bacd457593baf,
mall,mall,Kalimantan Barat 79672,"Kabupaten Melawi, Kalimantan Barat","Kabupaten Melawi, Kalimantan Barat",KALIMANTAN BARAT,,Indonesia,,,,-0.4530658,111.8091625,https://maps.google.com/?cid=0x0:0xf8a34da63da634fa,
mall,Toko Swalayan,Mitra Buana,"MQ32+48P, Jl. Juang, Paal, Kec. Nanga Pinoh, Kabupaten Melawi, Kalimantan Barat 79672","Jl. Juang, Paal, Kec. Nanga Pinoh, Kabupaten Melawi",KALIMANTAN BARAT,79672.0,Indonesia,,,,-0.3471597,111.7508402,https://maps.google.com/?cid=0x0:0xf97eacf0990f6502,
mall,Toko bahan makanan,Supermarket Mitra Indah,"MP8Q+2QX, Jl. Juang, Tj. Niaga, Kec. Nanga Pinoh, Kabupaten Melawi, Kalimantan Barat 79672","Jl. Juang, Tj. Niaga, Kec. Nanga Pinoh, Kabupaten Melawi",KALIMANTAN BARAT,79672.0,Indonesia,,,,-0.3348844,111.739498,https://maps.google.com/?cid=0x0:0x7b2694231a2d05c9,
mall,Toko Komputer,TOKO SENTRAL KOMPUTER /AJUK,"MP6V+GH2, Jl. Marhaban, Paal, Kec. Nanga Pinoh, Kabupaten Melawi, Kalimantan Barat 79672","Jl. Marhaban, Paal, Kec. Nanga Pinoh, Kabupaten Melawi",KALIMANTAN BARAT,79672.0,Indonesia,,,,-0.3387388,111.7438876,https://maps.google.com/?cid=0x0:0x4f09aa1ca2cf6490,
mall,,Dekranasda Melawi,"MP4W+5X6, Paal, Kec. Nanga Pinoh, Kabupaten Melawi, Kalimantan Barat 79672","Paal, Kec. Nanga Pinoh, Kabupaten Melawi",KALIMANTAN BARAT,79672.0,Indonesia,,,,-0.3445779,111.747403,https://maps.google.com/?cid=0x0:0xe695aed50731f148,
mall,Toko,TOKO DETRI SHOP,"Jl. Cemp. No.117, Paal, Kec. Nanga Pinoh, Kabupaten Melawi, Kalimantan Barat 79672","Paal, Kec. Nanga Pinoh, Kabupaten Melawi",KALIMANTAN BARAT,79672.0,Indonesia,85346677664.0,,,-0.3320888,111.738602,https://maps.google.com/?cid=0x0:0xcbc83097a1febca7,
mall,Toko Pertanian,Berkat Tani,"JPX7+52J, Sidomulyo, Kec. Nanga Pinoh, Kabupaten Melawi, Kalimantan Barat 79671","Sidomulyo, Kec. Nanga Pinoh, Kabupaten Melawi",KALIMANTAN BARAT,79671.0,Indonesia,82153965844.0,,,-0.3520468,111.7125246,https://maps.google.com/?cid=0x0:0xed091f260bd019bd,
mall,Toko Ponsel,Merak Ponsel,"Paal, Kec. Nanga Pinoh, Kabupaten Melawi, Kalimantan Barat 79672","Kec. Nanga Pinoh, Kabupaten Melawi",KALIMANTAN BARAT,79672.0,Indonesia,,,,-0.3318756,111.7379734,https://maps.google.com/?cid=0x0:0xdd3e18ea21a5715a,
mall,Toko Pakaian,Adilla Shop,"Jl. Juang No.KM 2, Kenual, Kec. Nanga Pinoh, Kabupaten Melawi, Kalimantan Barat 79672","Kenual, Kec. Nanga Pinoh, Kabupaten Melawi",KALIMANTAN BARAT,79672.0,Indonesia,85250550601.0,,,-0.3444112,111.7468177,https://maps.google.com/?cid=0x0:0x6e638d174c87b829,
mall,Toko,Alfamart Sidomulyo,"Jl Desa, Sidomulyo, Kec. Nanga Pinoh, Kab. Melawi, Kalimantan Barat 79672","Sidomulyo, Kec. Nanga Pinoh, Kab. Melawi",KALIMANTAN BARAT,79672.0,Indonesia,1500959.0,,,-0.3391865,111.7208259,https://maps.google.com/?cid=0x0:0x138bc30c1e65a518,
mall,Toko,SAMZ STICKER,"Km No.3 Baru, Paal, Kec. Nanga Pinoh, Kabupaten Melawi, Kalimantan Barat 79672","Paal, Kec. Nanga Pinoh, Kabupaten Melawi",KALIMANTAN BARAT,79672.0,Indonesia,85652180143.0,,,-0.3523636,111.7513009,https://maps.google.com/?cid=0x0:0xc4c8cf85d17e3aac,
mall,Toko,Tk. Sembako Mutiara,"MP9Q+9F4, Jl. Cemp., Paal, Kec. Nanga Pinoh, Kabupaten Melawi, Kalimantan Barat 79672","Jl. Cemp., Paal, Kec. Nanga Pinoh, Kabupaten Melawi",KALIMANTAN BARAT,79672.0,Indonesia,,,,-0.3316211,111.7387153,https://maps.google.com/?cid=0x0:0xa81e699ec87fabbe,
mall,Toko Optik,Optik melawi,"MP9P+8JV, Jl. Lintas Kalimantan Poros Tengah, Tj. Niaga, Kec. Nanga Pinoh, Kabupaten Melawi, Kalimantan Barat 79672","Jl. Lintas Kalimantan Poros Tengah, Tj. Niaga, Kec. Nanga Pinoh, Kabupaten Melawi",KALIMANTAN BARAT,79672.0,Indonesia,,,,-0.3316382,111.7365531,https://maps.google.com/?cid=0x0:0x47f38bfd3498383,
mall,Toko Pakaian Remaja,Lumpia Nia,"MP7R+R96, Jl. Beringin, Paal, Kec. Nanga Pinoh, Kabupaten Melawi, Kalimantan Barat 79672","Jl. Beringin, Paal, Kec. Nanga Pinoh, Kabupaten Melawi",KALIMANTAN BARAT,79672.0,Indonesia,895373727553.0,,,-0.3354539,111.740896,https://maps.google.com/?cid=0x0:0x2c4b837ed377dd66,
mall,Toko Perlengkapan Bayi,NUNO STORE (BABY SHOP),"MP8Q+J65, Tj. Niaga, Kec. Nanga Pinoh, Kabupaten Melawi, Kalimantan Barat 79672","Tj. Niaga, Kec. Nanga Pinoh, Kabupaten Melawi",KALIMANTAN BARAT,79672.0,Indonesia,82252145050.0,,,-0.3334956,111.7381122,https://maps.google.com/?cid=0x0:0x10be6c4e936442e4,
mall,Kafe,Warung Pak Buyung,"J242+39C, Nanga Ella Hilir, Kec. Ella Hilir, Kabupaten Melawi, Kalimantan Barat 79681","Nanga Ella Hilir, Kec. Ella Hilir, Kabupaten Melawi",KALIMANTAN BARAT,79681.0,Indonesia,,,,-0.39481,112.0009046,https://maps.google.com/?cid=0x0:0xba7b09a917de510a,
mall,Toko Pakaian,Saskia_collection,"JX4X+685, Unnamed Road, Nanga Ella Hilir, Kec. Ella Hilir, Kabupaten Melawi, Kalimantan Barat 79681","Unnamed Road, Nanga Ella Hilir, Kec. Ella Hilir, Kabupaten Melawi",KALIMANTAN BARAT,79681.0,Indonesia,85750809060.0,,,-0.3944982,111.9983458,https://maps.google.com/?cid=0x0:0x4a6d4c8b44e4cb6c,
mall,Toko Elektronik,Garuda Elektronik,"MP9P+XW2, Tj. Niaga, Kec. Nanga Pinoh, Kabupaten Melawi, Kalimantan Barat 79672","Tj. Niaga, Kec. Nanga Pinoh, Kabupaten Melawi",KALIMANTAN BARAT,79672.0,Indonesia,87825798574.0,,,-0.3301036,111.7372571,https://maps.google.com/?cid=0x0:0x1dcb260d3d510303,
mall,Toko Pakaian,Tokowellaanew,"MP7X+CJ3, Paal, Kec. Nanga Pinoh, Kabupaten Melawi, Kalimantan Barat 79672","Paal, Kec. Nanga Pinoh, Kabupaten Melawi",KALIMANTAN BARAT,79672.0,Indonesia,89651939392.0,,,-0.3364842,111.7490532,https://maps.google.com/?cid=0x0:0x82031c873b4e36a7,
mall,Restoran,Aming Coffee Melawi,"MP7R+9F3, Jl. Juang, Tj. Niaga, Kec. Nanga Pinoh, Kabupaten Melawi, Kalimantan Barat 79672","Jl. Juang, Tj. Niaga, Kec. Nanga Pinoh, Kabupaten Melawi",KALIMANTAN BARAT,79672.0,Indonesia,,,,-0.3366176,111.7411632,https://maps.google.com/?cid=0x0:0x6e50bd5f3ec2ff,
mall,Toko Swalayan,Indomaret Propinsi,"MP8M+P4M, Propinsi Road,, Sidomulyo, Kec. Nanga Pinoh, Kabupaten Melawi, Kalimantan Barat 79672","Propinsi Road,, Sidomulyo, Kec. Nanga Pinoh, Kabupaten Melawi",KALIMANTAN BARAT,79672.0,Indonesia,,,,-0.3331597,111.7327846,https://maps.google.com/?cid=0x0:0xf1d974b434fd52c9,
mall,Jasa Konstruksi dan Bangunan,"Jual lesung,telenan,terbuat dari kayu","PPHR+RF, Melamut Bersatu, Kec. Pinoh Utara, Kabupaten Melawi, Kalimantan Barat","Kabupaten Melawi, Kalimantan Barat",KALIMANTAN BARAT,,Indonesia,,,,-0.2704727,111.7411773,https://maps.google.com/?cid=0x0:0xeafbbf861ea9afce,
mall,Mal outlet,Ayani Megamall,"Jl. Jenderal Ahmad Yani No.4, Parit Tokaya, Kec. Pontianak Sel., Kota Pontianak, Kalimantan Barat 78113","Parit Tokaya, Kec. Pontianak Sel., Kota Pontianak",KALIMANTAN BARAT,78113.0,Indonesia,561763888.0,,,-0.051244,109.345662,https://maps.google.com/?cid=0x0:0x5217d4caea80b3d0,
mall,Pusat Bisnis,Mal Pontianak,"X87W+5VF, Benua Melayu Laut, Kec. Pontianak Sel., Kota Pontianak, Kalimantan Barat 78243","Benua Melayu Laut, Kec. Pontianak Sel., Kota Pontianak",KALIMANTAN BARAT,78243.0,Indonesia,,,,-0.0370684,109.3471737,https://maps.google.com/?cid=0x0:0x4f3671b1284caba8,
mall,Jepang,Kimukatsu Ayani Megamal Pontianak,"Jl. Jend A. Yani No 4, Parit Tokaya, Pontianak Selatan, Pontianak, Kalbar, 78113 Ayani Megamal Pontianak Ground Floor Unit AG 12, Parit Tokaya, Kec. Pontianak Sel., Kota Pontianak, Kalimantan Barat 78113",Ayani Megamal Pontianak Ground Floor Unit AG 12,KALIMANTAN BARAT,78113.0,Indonesia,5618189098.0,,,-0.0514575,109.3456469,https://maps.google.com/?cid=0x0:0xdea128d614d158e2,
mall,Toko Pakaian,Matahari Departement Store,"Ayani Megamal, Jl. Jenderal Ahmad Yani, Parit Tokaya, South Pontianak, Pontianak, West Kalimantan 78113","Jl. Jenderal Ahmad Yani, Parit Tokaya, South Pontianak, Pontianak",KALIMANTAN BARAT,78113.0,Indonesia,561761325.0,,,-0.0518069,109.3451784,https://maps.google.com/?cid=0x0:0x477d0562b85551cf,
mall,Studio Foto,selfie time,"Ayani Megamall Pontianak, Jl. Jenderal Ahmad Yani No.4 A2-01, Parit Tokaya, Kec. Pontianak Sel., Kota Pontianak, Kalimantan Barat 78113","Jl. Jenderal Ahmad Yani No.4 A2-01, Parit Tokaya, Kec. Pontianak Sel., Kota Pontianak",KALIMANTAN BARAT,78113.0,Indonesia,85819836826.0,,,-0.0492704,109.3438156,https://maps.google.com/?cid=0x0:0xd605317c37dfc327,
mall,mall,Kalimantan Barat 79673,"Kec. Sayan, Kabupaten Melawi, Kalimantan Barat","Kabupaten Melawi, Kalimantan Barat",KALIMANTAN BARAT,,Indonesia,,,,-0.7351798,111.7137694,https://maps.google.com/?cid=0x0:0x6560f1dffd0c539e,
mall,Toko Ponsel,Deddy cell 2 desa bina jaya,"6J45+8H3, Bina Jaya, Kec. Tanah Pinoh, Kabupaten Melawi, Kalimantan Barat 79674","Bina Jaya, Kec. Tanah Pinoh, Kabupaten Melawi",KALIMANTAN BARAT,79674.0,Indonesia,82153373688.0,,,-0.7942367,111.6089185,https://maps.google.com/?cid=0x0:0xf0f7538c07e7c5e0,
mall,Toko,Photocopy ZULFA MAKMUR 3 ( Kotabaru ),"Batu Begigi, Kec. Tanah Pinoh, Kabupaten Melawi, Kalimantan Barat 79674","Kec. Tanah Pinoh, Kabupaten Melawi",KALIMANTAN BARAT,79674.0,Indonesia,8125845454.0,,,-0.7936701,111.5528315,https://maps.google.com/?cid=0x0:0xfcb18c0cd45c1084,
mall,Pasar Malam,Sayan Night Market,"no 80571, Jl. Raya Tebongkang No.39, Singakerta, Kecamatan Ubud, Kabupaten Gianyar, Bali 80571","Jl. Raya Tebongkang No.39, Singakerta, Kecamatan Ubud, Kabupaten Gianyar",KALIMANTAN BARAT,80571.0,Indonesia,,,,-8.519804,115.240218,https://maps.google.com/?cid=0x0:0x3464d4d77244c659,
mall,Pasar tradisional,Night Market Peliatan,"F7J9+VG7, Peliatan, Kecamatan Ubud, Kabupaten Gianyar, Bali 80571","Peliatan, Kecamatan Ubud, Kabupaten Gianyar",KALIMANTAN BARAT,80571.0,Indonesia,,,,-8.5178347,115.268789,https://maps.google.com/?cid=0x0:0x718d56a53d84fe13,
mall,Pasar,Pasar Senggol Kedewatan Ubud,"G67W+MXW, Jl. Raya Lungsiakan, Kedewatan, Kecamatan Ubud, Kabupaten Gianyar, Bali 80571","Jl. Raya Lungsiakan, Kedewatan, Kecamatan Ubud, Kabupaten Gianyar",KALIMANTAN BARAT,80571.0,Indonesia,81510798362.0,,,-8.4857548,115.2474598,https://maps.google.com/?cid=0x0:0x6e55cbd0f7db5dde,
mall,Toko Roti,Souffle Pancake - Cak Rohman,"F6JQ+6WW, Jl. Raya Sayan, Sayan, Kecamatan Ubud, Kabupaten Gianyar, Bali 80571","Jl. Raya Sayan, Sayan, Kecamatan Ubud, Kabupaten Gianyar",KALIMANTAN BARAT,80571.0,Indonesia,81547468310.0,,,-8.5194691,115.2398307,https://maps.google.com/?cid=0x0:0xb20f6cd2831f9f4b,
mall,Pasar,Ubud Street Market,"F7R7+V5F, Jl. Karna, Ubud, Kecamatan Ubud, Kabupaten Gianyar, Bali 80571","Jl. Karna, Ubud, Kecamatan Ubud, Kabupaten Gianyar",KALIMANTAN BARAT,80571.0,Indonesia,,,,-8.5078082,115.2629127,https://maps.google.com/?cid=0x0:0x4d8cca07fc0a812c,
mall,Toko Pakaian,Saskia_collection,"JX4X+685, Unnamed Road, Nanga Ella Hilir, Kec. Ella Hilir, Kabupaten Melawi, Kalimantan Barat 79681","Unnamed Road, Nanga Ella Hilir, Kec. Ella Hilir, Kabupaten Melawi",KALIMANTAN BARAT,79681.0,Indonesia,85750809060.0,,,-0.3944982,111.9983458,https://maps.google.com/?cid=0x0:0x4a6d4c8b44e4cb6c,
mall,Toko Pakaian,Shelly ollshop,"Nanga Ella Hilir, Kec. Ella Hilir, Kabupaten Melawi, Kalimantan Barat 79681","Kec. Ella Hilir, Kabupaten Melawi",KALIMANTAN BARAT,79681.0,Indonesia,85348996162.0,,,-0.4130295,112.0036599,https://maps.google.com/?cid=0x0:0xa733d5d81ebf19e4,
mall,Pusat Perbelanjaan,Mal SKA,"Jl. Soekarno - Hatta No.114, Delima, Kec. Tampan, Kota Pekanbaru, Riau 28292","Delima, Kec. Tampan, Kota Pekanbaru",KALIMANTAN BARAT,28292.0,Indonesia,761864000.0,,,0.4989779,101.419025,https://maps.google.com/?cid=0x0:0xcb644449e8a62d2,
mall,Pusat Perbelanjaan,Kantor Pengelola Mal,"Mall SKA Lantai 2, JL Soekarno Hatta, No. 5, Delima, Kec. Tampan, Kota Pekanbaru, Riau 28292","JL Soekarno Hatta, No. 5, Delima, Kec. Tampan, Kota Pekanbaru",KALIMANTAN BARAT,28292.0,Indonesia,761864000.0,,,0.4996458,101.4179195,https://maps.google.com/?cid=0x0:0x41d7f330726eface,
mall,Pusat Perbelanjaan,Mal Ciputra Seraya,"Jl. Riau No.58, Kp. Baru, Kec. Senapelan, Kota Pekanbaru, Riau 28154","Kp. Baru, Kec. Senapelan, Kota Pekanbaru",KALIMANTAN BARAT,28154.0,Indonesia,761868888.0,,,0.5359841,101.4306163,https://maps.google.com/?cid=0x0:0xbdfa90dde03f63ed,
mall,Restoran,D'COST Mall SKA,"Mall SKA, Jl. Tuanku Tambusai Lantai 2, Delima, Kec. Tampan, Kota Pekanbaru, Riau 28292","Jl. Tuanku Tambusai Lantai 2, Delima, Kec. Tampan, Kota Pekanbaru",KALIMANTAN BARAT,28292.0,Indonesia,,,,0.499944,101.4176555,https://maps.google.com/?cid=0x0:0x88883003d0c8c2dd,
mall,Restoran,Pepper Lunch Mall SKA Pekanbaru,"Mal SKA, Jl. Soekarno - Hatta No.89 - 92, Delima, Kec. Tampan, Kota Pekanbaru, Riau 28294","Jl. Soekarno - Hatta No.89 - 92, Delima, Kec. Tampan, Kota Pekanbaru",KALIMANTAN BARAT,28294.0,Indonesia,7617894121.0,,,0.4997659,101.4182585,https://maps.google.com/?cid=0x0:0xe8387ccd3b8f927b,
mall,mall,Kec. Tanah Pinoh,"Kabupaten Melawi, Kalimantan Barat","Kabupaten Melawi, Kalimantan Barat",KALIMANTAN BARAT,,Indonesia,,,,-0.7945298,111.5460674,https://maps.google.com/?cid=0x0:0x6079bd527623d50e,
mall,Toko,Photocopy ZULFA MAKMUR 3 ( Kotabaru ),"Batu Begigi, Kec. Tanah Pinoh, Kabupaten Melawi, Kalimantan Barat 79674","Kec. Tanah Pinoh, Kabupaten Melawi",KALIMANTAN BARAT,79674.0,Indonesia,8125845454.0,,,-0.7936701,111.5528315,https://maps.google.com/?cid=0x0:0xfcb18c0cd45c1084,
mall,Pusat Perbelanjaan,"Deddy Conter. Hot Spot Area,hp,pulsa,acc Dan Coffe Shop, Carteran Mobil","Togan Baru, Tanah Pinoh Bar., Kabupaten Melawi, Kalimantan Barat 79674","Tanah Pinoh Bar., Kabupaten Melawi",KALIMANTAN BARAT,79674.0,Indonesia,81345257818.0,,,-0.8074117,111.3871267,https://maps.google.com/?cid=0x0:0xaffea8a4457e6f72,
mall,mall,Kalimantan Barat 79674,"Kabupaten Melawi, Kalimantan Barat","Kabupaten Melawi, Kalimantan Barat",KALIMANTAN BARAT,,Indonesia,,,,-0.7723312,111.3798928,https://maps.google.com/?cid=0x0:0x6d8acf73897d9e8b,
mall,Pusat Perbelanjaan,"Deddy Conter. Hot Spot Area,hp,pulsa,acc Dan Coffe Shop, Carteran Mobil","Togan Baru, Tanah Pinoh Bar., Kabupaten Melawi, Kalimantan Barat 79674","Tanah Pinoh Bar., Kabupaten Melawi",KALIMANTAN BARAT,79674.0,Indonesia,81345257818.0,,,-0.8074117,111.3871267,https://maps.google.com/?cid=0x0:0xaffea8a4457e6f72,
mall,Toko,Photocopy ZULFA MAKMUR 3 ( Kotabaru ),"Batu Begigi, Kec. Tanah Pinoh, Kabupaten Melawi, Kalimantan Barat 79674","Kec. Tanah Pinoh, Kabupaten Melawi",KALIMANTAN BARAT,79674.0,Indonesia,8125845454.0,,,-0.7936701,111.5528315,https://maps.google.com/?cid=0x0:0xfcb18c0cd45c1084,
supermarket,Toko bahan makanan,SENTOSA,"JGHH+CJP, Tiong Keranji, Kec. Belimbing Hulu, Kabupaten Melawi, Kalimantan Barat 79671","Tiong Keranji, Kec. Belimbing Hulu, Kabupaten Melawi",KALIMANTAN BARAT,79671.0,Indonesia,85252295748.0,,,-0.3714002,111.5290695,https://maps.google.com/?cid=0x0:0x4f7f9ea917bc9b75,
supermarket,supermarket,Kalimantan Barat 79671,"Kabupaten Melawi, Kalimantan Barat","Kabupaten Melawi, Kalimantan Barat",KALIMANTAN BARAT,,Indonesia,,,,-0.4539656,111.5229817,https://maps.google.com/?cid=0x0:0xfc272e555b0cebaa,
supermarket,Toko umum,Toko Apriyanto,"Tiong Keranji, Kec. Belimbing Hulu, Kabupaten Melawi, Kalimantan Barat 79671","Kec. Belimbing Hulu, Kabupaten Melawi",KALIMANTAN BARAT,79671.0,Indonesia,,,,-0.3739182,111.5301121,https://maps.google.com/?cid=0x0:0x5eb81bd2e3589080,
supermarket,Toko Pertanian,SAHABAT JAYA,"PH9X+2FQ, Batu Buil, Kec. Belimbing, Kabupaten Melawi, Kalimantan Barat 79671","Batu Buil, Kec. Belimbing, Kabupaten Melawi",KALIMANTAN BARAT,79671.0,Indonesia,,,,-0.2824156,111.5987287,https://maps.google.com/?cid=0x0:0xe6bef2d1ea376d97,
supermarket,Toko Swalayan,FajasSembako,"Des.tiong Keranjik kec. Belimbing hulu kabupaten Melawi, Pontianak, Kalimantan Barat 62730",Pontianak,KALIMANTAN BARAT,62730.0,Indonesia,81258480197.0,,,-0.3684609,111.5238543,https://maps.google.com/?cid=0x0:0x8c08682b4757334a,
supermarket,Pusat Perbelanjaan,Mini Market Mitra Buana,"MP9Q+239, Jl. Juang, Paal, Kec. Nanga Pinoh, Kabupaten Melawi, Kalimantan Barat 79672","Jl. Juang, Paal, Kec. Nanga Pinoh, Kabupaten Melawi",KALIMANTAN BARAT,79672.0,Indonesia,,,,-0.332473,111.737745,https://maps.google.com/?cid=0x0:0xa0bde43313a51d08,
supermarket,Toko,TOKO CITRA CERIA,"QH37+VW7, Jl. Lintas Kalimantan Poros Tengah, Batu Nanta, Kec. Belimbing, Kabupaten Melawi, Kalimantan Barat 78655","Jl. Lintas Kalimantan Poros Tengah, Batu Nanta, Kec. Belimbing, Kabupaten Melawi",KALIMANTAN BARAT,78655.0,Indonesia,,,,-0.2453268,111.5648032,https://maps.google.com/?cid=0x0:0x1244ac03193b3a6f,
supermarket,Toko bahan makanan,Alfamart Batu Buil,"Jl. Sintang-Nanga Pinoh, Dusun Desa, RT.006/RW.001, Batu Buil, Kec. Belimbing, Kab. Melawi, Kalimantan Barat 79671","Dusun Desa, RT.006/RW.001, Batu Buil, Kec. Belimbing, Kab. Melawi",KALIMANTAN BARAT,79671.0,Indonesia,1500959.0,,,-0.289094,111.6064448,https://maps.google.com/?cid=0x0:0x3d78df79f317e996,
supermarket,Minimarket,Warung Sayuran Eras Grocery,"Jalan Poros, Bukit Sebangkoi, Kec. Belimbing Hulu, Kabupaten Melawi, Kalimantan Barat 79671","Bukit Sebangkoi, Kec. Belimbing Hulu, Kabupaten Melawi",KALIMANTAN BARAT,79671.0,Indonesia,,,,-0.3702887,111.5294943,https://maps.google.com/?cid=0x0:0x42d1745e65fc3f6f,
supermarket,Minimarket,INDOMARET BATU BUIL,"PJ64+6R9, Unnamed Road, Batu Buil, Kec. Belimbing, Kabupaten Melawi, Kalimantan Barat 79671","Unnamed Road, Batu Buil, Kec. Belimbing, Kabupaten Melawi",KALIMANTAN BARAT,79671.0,Indonesia,,,,-0.2894517,111.607124,https://maps.google.com/?cid=0x0:0x71390d7ac7f10a10,
supermarket,Toko,Singkawang,"Belonsat, Kec. Belimbing, Kabupaten Melawi, Kalimantan Barat","Kabupaten Melawi, Kalimantan Barat",KALIMANTAN BARAT,,Indonesia,,,,-0.2787808,111.4752851,https://maps.google.com/?cid=0x0:0x47e4419a647f568d,
supermarket,Pusat Perbelanjaan,mutiara mart,"jl. Sintang, Batu Ampar, Kec. Nanga Pinoh, Batu Buil, Kalimantan Barat","Batu Buil, Kalimantan Barat",KALIMANTAN BARAT,,Indonesia,81258142026.0,,,-0.3670441,111.6405236,https://maps.google.com/?cid=0x0:0x9ef1fca2e215b262,
supermarket,Toko,Toko Mbah SANAM,"PHH5+356, Batu Nanta, Kec. Belimbing, Kabupaten Melawi, Kalimantan Barat 79671","Batu Nanta, Kec. Belimbing, Kabupaten Melawi",KALIMANTAN BARAT,79671.0,Indonesia,,,,-0.2723434,111.5578754,https://maps.google.com/?cid=0x0:0x17a809511f43fb2e,
supermarket,Restoran,Toko Putra Putri,"toko putra putri depan simpang jl.kotabaru, km5, Tj. Lay, Kec. Nanga Pinoh, Kabupaten Melawi, Kalimantan Barat 79672","km5, Tj. Lay, Kec. Nanga Pinoh, Kabupaten Melawi",KALIMANTAN BARAT,79672.0,Indonesia,,,,-0.37275,111.7554054,https://maps.google.com/?cid=0x0:0xea48c5c52659629f,
supermarket,Toko,Tk. Sumber Agung,"JPV5+GFH, Jl. Raya Propinsi, Sidomulyo, Kec. Nanga Pinoh, Kabupaten Melawi, Kalimantan Barat 79671","Jl. Raya Propinsi, Sidomulyo, Kec. Nanga Pinoh, Kabupaten Melawi",KALIMANTAN BARAT,79671.0,Indonesia,85245458254.0,,,-0.356181,111.7087333,https://maps.google.com/?cid=0x0:0x5770d532c5f9b3ad,
supermarket,Pusat Perbelanjaan,Mitra Indah Super Market,"Baru, Kec. Nanga Pinoh, Kabupaten Melawi, Kalimantan Barat","Kabupaten Melawi, Kalimantan Barat",KALIMANTAN BARAT,,Indonesia,,,,-0.3125909,111.6971663,https://maps.google.com/?cid=0x0:0x8f1061ab1649ee32,
supermarket,Minimarket,Indomaret Tanjung Niaga,"MP7R+J54, Jl. Juang, Tj. Niaga, Kec. Nanga Pinoh, Kabupaten Melawi, Kalimantan Barat 79672","Jl. Juang, Tj. Niaga, Kec. Nanga Pinoh, Kabupaten Melawi",KALIMANTAN BARAT,79672.0,Indonesia,,,,-0.3359835,111.7404478,https://maps.google.com/?cid=0x0:0x7b777b689547b204,
supermarket,Toko Swalayan,Toko Gelora,"MP9P+HX3, Jl. Beringin, Tj. Niaga, Kec. Nanga Pinoh, Kabupaten Melawi, Kalimantan Barat 79672","Jl. Beringin, Tj. Niaga, Kec. Nanga Pinoh, Kabupaten Melawi",KALIMANTAN BARAT,79672.0,Indonesia,82148553320.0,,,-0.3311219,111.7374155,https://maps.google.com/?cid=0x0:0xbe66f367c61efb5f,
supermarket,Perhimpunan Pengembang Perumahan,wife teluk kedupai,"JHM4+QF2, kedupai, Kec. Belimbing, Kabupaten Melawi, Kalimantan Barat","Kabupaten Melawi, Kalimantan Barat",KALIMANTAN BARAT,,Indonesia,,,,-0.3656151,111.5561303,https://maps.google.com/?cid=0x0:0x8305871d7d6b732f,
supermarket,Toko bahan makanan,Supermarket Mitra Indah,"MP8Q+2QX, Jl. Juang, Tj. Niaga, Kec. Nanga Pinoh, Kabupaten Melawi, Kalimantan Barat 79672","Jl. Juang, Tj. Niaga, Kec. Nanga Pinoh, Kabupaten Melawi",KALIMANTAN BARAT,79672.0,Indonesia,,,,-0.3348844,111.739498,https://maps.google.com/?cid=0x0:0x7b2694231a2d05c9,
supermarket,Toko umum,Toko Mekar sari 2,"MGH9+932, Beloyang, Kec. Belimbing Hulu, Kabupaten Melawi, Kalimantan Barat 79671","Beloyang, Kec. Belimbing Hulu, Kabupaten Melawi",KALIMANTAN BARAT,79671.0,Indonesia,,,,-0.3216046,111.5176333,https://maps.google.com/?cid=0x0:0x736c62a7fbb2a960,
supermarket,Toko Swalayan,Indomaret Propinsi 4,"MP7G+FHV, Unnamed Road, Sidomulyo, Kec. Nanga Pinoh, Kabupaten Melawi, Kalimantan Barat 79672","Unnamed Road, Sidomulyo, Kec. Nanga Pinoh, Kabupaten Melawi",KALIMANTAN BARAT,79672.0,Indonesia,,,,-0.3362656,111.7264375,https://maps.google.com/?cid=0x0:0xd3d46005cd5b83ca,
supermarket,Toko Swalayan,Indomaret Propinsi,"MP8M+P4M, Propinsi Road,, Sidomulyo, Kec. Nanga Pinoh, Kabupaten Melawi, Kalimantan Barat 79672","Propinsi Road,, Sidomulyo, Kec. Nanga Pinoh, Kabupaten Melawi",KALIMANTAN BARAT,79672.0,Indonesia,,,,-0.3331597,111.7327846,https://maps.google.com/?cid=0x0:0xf1d974b434fd52c9,
supermarket,Toko Swalayan,Mitra Buana,"MQ32+48P, Jl. Juang, Paal, Kec. Nanga Pinoh, Kabupaten Melawi, Kalimantan Barat 79672","Jl. Juang, Paal, Kec. Nanga Pinoh, Kabupaten Melawi",KALIMANTAN BARAT,79672.0,Indonesia,,,,-0.3471597,111.7508402,https://maps.google.com/?cid=0x0:0xf97eacf0990f6502,
supermarket,Toko bahan makanan,Alfamart Raya Juang,"Jl. Raya Juang, Dusun Mekar Sari Ii, Desa, RT.015/RW.004, Paal, Kec. Nanga Pinoh, Kab. Melawi, Kalimantan Barat 79672","Dusun Mekar Sari Ii, Desa, RT.015/RW.004, Paal, Kec. Nanga Pinoh, Kab. Melawi",KALIMANTAN BARAT,79672.0,Indonesia,1500959.0,,,-0.339953,111.7445413,https://maps.google.com/?cid=0x0:0x3a546bda30d7e0ff,
supermarket,Toko,Alfamart Sidomulyo,"Jl Desa, Sidomulyo, Kec. Nanga Pinoh, Kab. Melawi, Kalimantan Barat 79672","Sidomulyo, Kec. Nanga Pinoh, Kab. Melawi",KALIMANTAN BARAT,79672.0,Indonesia,1500959.0,,,-0.3391865,111.7208259,https://maps.google.com/?cid=0x0:0x138bc30c1e65a518,
supermarket,Pusat Perbelanjaan,Jual Kambing di Nanga pinoh.kabupaten melawi.kalimantan barat,"Jl. Raya Propinsi, Sidomulyo, Kec. Nanga Pinoh, Kabupaten Melawi, Kalimantan Barat 79671","Sidomulyo, Kec. Nanga Pinoh, Kabupaten Melawi",KALIMANTAN BARAT,79671.0,Indonesia,89694294379.0,,,-0.3485889,111.7107668,https://maps.google.com/?cid=0x0:0x7995a223cfc6a252,
supermarket,Toko bahan makanan,Alfamart,"Jl. Raya Kota Baru Desa No.Km 3, Paal, Kec. Nanga Pinoh, Kab. Melawi, Kalimantan Barat 79672","Paal, Kec. Nanga Pinoh, Kab. Melawi",KALIMANTAN BARAT,79672.0,Indonesia,1500959.0,,,-0.3485542,111.7516681,https://maps.google.com/?cid=0x0:0x284fe4c16c2db699,
supermarket,Toko bahan makanan,Warung Mbah Reza/Pak Semin,"PGF3+CWR, Belonsat, Kec. Belimbing, Kabupaten Melawi, Kalimantan Barat","Kabupaten Melawi, Kalimantan Barat",KALIMANTAN BARAT,,Indonesia,,,,-0.2763902,111.504765,https://maps.google.com/?cid=0x0:0x60c1752c7b23389e,
supermarket,supermarket,Kec. Belimbing Hulu,"Kabupaten Melawi, Kalimantan Barat","Kabupaten Melawi, Kalimantan Barat",KALIMANTAN BARAT,,Indonesia,,,,-0.3702887,111.5294943,https://maps.google.com/?cid=0x0:0x26dc94245ead4c2a,
supermarket,Toko bahan makanan,SENTOSA,"JGHH+CJP, Tiong Keranji, Kec. Belimbing Hulu, Kabupaten Melawi, Kalimantan Barat 79671","Tiong Keranji, Kec. Belimbing Hulu, Kabupaten Melawi",KALIMANTAN BARAT,79671.0,Indonesia,85252295748.0,,,-0.3714002,111.5290695,https://maps.google.com/?cid=0x0:0x4f7f9ea917bc9b75,
supermarket,Toko Pertanian,SAHABAT JAYA,"PH9X+2FQ, Batu Buil, Kec. Belimbing, Kabupaten Melawi, Kalimantan Barat 79671","Batu Buil, Kec. Belimbing, Kabupaten Melawi",KALIMANTAN BARAT,79671.0,Indonesia,,,,-0.2824156,111.5987287,https://maps.google.com/?cid=0x0:0xe6bef2d1ea376d97,
supermarket,Toko,Toko Indah Mandiri,"PJ65+6CH, Jl. Lintas Kalimantan Poros Tengah, Batu Buil, Kec. Belimbing, Kabupaten Melawi, Kalimantan Barat 79671","Jl. Lintas Kalimantan Poros Tengah, Batu Buil, Kec. Belimbing, Kabupaten Melawi",KALIMANTAN BARAT,79671.0,Indonesia,85245704319.0,,,-0.2894432,111.6086122,https://maps.google.com/?cid=0x0:0xaace26547cb5733b,
supermarket,Minimarket,Warung Sayuran Eras Grocery,"Jalan Poros, Bukit Sebangkoi, Kec. Belimbing Hulu, Kabupaten Melawi, Kalimantan Barat 79671","Bukit Sebangkoi, Kec. Belimbing Hulu, Kabupaten Melawi",KALIMANTAN BARAT,79671.0,Indonesia,,,,-0.3702887,111.5294943,https://maps.google.com/?cid=0x0:0x42d1745e65fc3f6f,
supermarket,Toko Swalayan,FajasSembako,"Des.tiong Keranjik kec. Belimbing hulu kabupaten Melawi, Pontianak, Kalimantan Barat 62730",Pontianak,KALIMANTAN BARAT,62730.0,Indonesia,81258480197.0,,,-0.3684609,111.5238543,https://maps.google.com/?cid=0x0:0x8c08682b4757334a,
supermarket,Toko umum,Toko Mekar sari 2,"MGH9+932, Beloyang, Kec. Belimbing Hulu, Kabupaten Melawi, Kalimantan Barat 79671","Beloyang, Kec. Belimbing Hulu, Kabupaten Melawi",KALIMANTAN BARAT,79671.0,Indonesia,,,,-0.3216046,111.5176333,https://maps.google.com/?cid=0x0:0x736c62a7fbb2a960,
supermarket,Toko,Toko Mbah SANAM,"PHH5+356, Batu Nanta, Kec. Belimbing, Kabupaten Melawi, Kalimantan Barat 79671","Batu Nanta, Kec. Belimbing, Kabupaten Melawi",KALIMANTAN BARAT,79671.0,Indonesia,,,,-0.2723434,111.5578754,https://maps.google.com/?cid=0x0:0x17a809511f43fb2e,
supermarket,Minimarket,INDOMARET BATU BUIL,"PJ64+6R9, Unnamed Road, Batu Buil, Kec. Belimbing, Kabupaten Melawi, Kalimantan Barat 79671","Unnamed Road, Batu Buil, Kec. Belimbing, Kabupaten Melawi",KALIMANTAN BARAT,79671.0,Indonesia,,,,-0.2894517,111.607124,https://maps.google.com/?cid=0x0:0x71390d7ac7f10a10,
supermarket,Toko,Singkawang,"Belonsat, Kec. Belimbing, Kabupaten Melawi, Kalimantan Barat","Kabupaten Melawi, Kalimantan Barat",KALIMANTAN BARAT,,Indonesia,,,,-0.2787808,111.4752851,https://maps.google.com/?cid=0x0:0x47e4419a647f568d,
supermarket,supermarket,Toko sumber utama,"PJ54+XGX, Jl.Poros PT.SDK, Batu Buil, Kec. Belimbing, Kabupaten Melawi, Kalimantan Barat 79671","Jl.Poros PT.SDK, Batu Buil, Kec. Belimbing, Kabupaten Melawi",KALIMANTAN BARAT,79671.0,Indonesia,,,,-0.2899955,111.6064385,https://maps.google.com/?cid=0x0:0xa1e84cccab507b0c,
supermarket,Perhimpunan Pengembang Perumahan,wife teluk kedupai,"JHM4+QF2, kedupai, Kec. Belimbing, Kabupaten Melawi, Kalimantan Barat","Kabupaten Melawi, Kalimantan Barat",KALIMANTAN BARAT,,Indonesia,,,,-0.3656151,111.5561303,https://maps.google.com/?cid=0x0:0x8305871d7d6b732f,
supermarket,supermarket,Kantin umi,"MJH4+4H4, Batu Buil, Kec. Belimbing, Kabupaten Melawi, Kalimantan Barat 79671","Batu Buil, Kec. Belimbing, Kabupaten Melawi",KALIMANTAN BARAT,79671.0,Indonesia,,,,-0.322244,111.6064513,https://maps.google.com/?cid=0x0:0x5ed8114919d2ff99,
supermarket,Toko bahan makanan,Alfamart Batu Buil,"Jl. Sintang-Nanga Pinoh, Dusun Desa, RT.006/RW.001, Batu Buil, Kec. Belimbing, Kab. Melawi, Kalimantan Barat 79671","Dusun Desa, RT.006/RW.001, Batu Buil, Kec. Belimbing, Kab. Melawi",KALIMANTAN BARAT,79671.0,Indonesia,1500959.0,,,-0.289094,111.6064448,https://maps.google.com/?cid=0x0:0x3d78df79f317e996,
supermarket,Kedai Kopi,Rumah alex,"PFCG+F4M, Belonsat, Kec. Belimbing, Kabupaten Melawi, Kalimantan Barat","Kabupaten Melawi, Kalimantan Barat",KALIMANTAN BARAT,,Indonesia,,,,-0.2787808,111.4752851,https://maps.google.com/?cid=0x0:0x1c492e77d72609be,
supermarket,Toko,TOKO CITRA CERIA,"QH37+VW7, Jl. Lintas Kalimantan Poros Tengah, Batu Nanta, Kec. Belimbing, Kabupaten Melawi, Kalimantan Barat 78655","Jl. Lintas Kalimantan Poros Tengah, Batu Nanta, Kec. Belimbing, Kabupaten Melawi",KALIMANTAN BARAT,78655.0,Indonesia,,,,-0.2453268,111.5648032,https://maps.google.com/?cid=0x0:0x1244ac03193b3a6f,
supermarket,Toko bahan makanan,Warung Mbah Reza/Pak Semin,"PGF3+CWR, Belonsat, Kec. Belimbing, Kabupaten Melawi, Kalimantan Barat","Kabupaten Melawi, Kalimantan Barat",KALIMANTAN BARAT,,Indonesia,,,,-0.2763902,111.504765,https://maps.google.com/?cid=0x0:0x60c1752c7b23389e,
supermarket,Ayam,Ayam geprek gaspolll,"PJ64+7M9, Jl. Lintas Kalimantan Poros Tengah, Batu Buil, Kec. Belimbing, Kabupaten Melawi, Kalimantan Barat 79671","Jl. Lintas Kalimantan Poros Tengah, Batu Buil, Kec. Belimbing, Kabupaten Melawi",KALIMANTAN BARAT,79671.0,Indonesia,81255251007.0,,,-0.2895946,111.6065521,https://maps.google.com/?cid=0x0:0x4b74abd84d86b989,
supermarket,Toko Tahu,Pabrik tahu,"PFCG+F4M, Jalan Pasundan, Belonsat, Kec. Belimbing, Kabupaten Melawi, Kalimantan Barat","Kabupaten Melawi, Kalimantan Barat",KALIMANTAN BARAT,,Indonesia,,,,-0.2787808,111.4752851,https://maps.google.com/?cid=0x0:0x8decf1ec732ab7d,
supermarket,Pusat Perbelanjaan,mutiara mart,"jl. Sintang, Batu Ampar, Kec. Nanga Pinoh, Batu Buil, Kalimantan Barat","Batu Buil, Kalimantan Barat",KALIMANTAN BARAT,,Indonesia,81258142026.0,,,-0.3670441,111.6405236,https://maps.google.com/?cid=0x0:0x9ef1fca2e215b262,
supermarket,supermarket,Kalimantan Barat 79681,"Kabupaten Melawi, Kalimantan Barat","Kabupaten Melawi, Kalimantan Barat",KALIMANTAN BARAT,,Indonesia,,,,-0.5928174,111.9999435,https://maps.google.com/?cid=0x0:0x56ab64304e08062b,
supermarket,Toko bahan makanan,Toko Citra Bersama,"J232+C63, Nanga Ella Hilir, Kec. Ella Hilir, Kabupaten Melawi, Kalimantan Barat 79681","Nanga Ella Hilir, Kec. Ella Hilir, Kabupaten Melawi",KALIMANTAN BARAT,79681.0,Indonesia,82154346636.0,,,-0.3964993,112.0005527,https://maps.google.com/?cid=0x0:0xd09125a4c8d7ab16,
supermarket,Toko bahan makanan,Intan mart,"H3V5+GV6, Jln logpon sbk, Popai, Kec. Ella Hilir, Kabupaten Melawi, Kalimantan Barat 79681","Jln logpon sbk, Popai, Kec. Ella Hilir, Kabupaten Melawi",KALIMANTAN BARAT,79681.0,Indonesia,85348152626.0,,,-0.4062205,112.0596329,https://maps.google.com/?cid=0x0:0xac525276bbf25109,
supermarket,supermarket,Karya Kita Bersama,"J232+8CJ, Nanga Ella Hilir, Kec. Ella Hilir, Kabupaten Melawi, Kalimantan Barat 79681","Nanga Ella Hilir, Kec. Ella Hilir, Kabupaten Melawi",KALIMANTAN BARAT,79681.0,Indonesia,,,,-0.3966573,112.0010288,https://maps.google.com/?cid=0x0:0xb41875a48e811453,
supermarket,Pusat Perbelanjaan,Toko Sejahtera,"Jl. HM Saleh No.139, RT.003/RW.001, Menukung Kota, Kec. Menukung, Kabupaten Melawi, Kalimantan Barat","Kabupaten Melawi, Kalimantan Barat",KALIMANTAN BARAT,,Indonesia,,,,-0.4079819,112.2503239,https://maps.google.com/?cid=0x0:0xcb81bcc01bb2190a,
supermarket,supermarket,Menukung,"Nanga Ella Hulu, Kec. Menukung, Kabupaten Melawi, Kalimantan Barat","Kabupaten Melawi, Kalimantan Barat",KALIMANTAN BARAT,,Indonesia,,,,-0.395657,112.1717,https://maps.google.com/?cid=0x0:0x8d04b3ff9fa0089c,
supermarket,supermarket,Toko Akong,"H6JG+8MW, Nanga Ella Hulu, Kec. Menukung, Kabupaten Melawi, Kalimantan Barat 79682","Nanga Ella Hulu, Kec. Menukung, Kabupaten Melawi",KALIMANTAN BARAT,79682.0,Indonesia,,,,-0.4191457,112.2267171,https://maps.google.com/?cid=0x0:0xb42f66b9be274c99,
supermarket,Toko,Toko sembako Perma,"J5HF+3HC, Nanga Ella Hulu, Kec. Menukung, Kabupaten Melawi, Kalimantan Barat 79682","Nanga Ella Hulu, Kec. Menukung, Kabupaten Melawi",KALIMANTAN BARAT,79682.0,Indonesia,,,,-0.3723167,112.1738879,https://maps.google.com/?cid=0x0:0x764379a832f97436,
supermarket,supermarket,Nanga Pinoh,"Sidomulyo, Kec. Nanga Pinoh, Kabupaten Melawi, Kalimantan Barat","Kabupaten Melawi, Kalimantan Barat",KALIMANTAN BARAT,,Indonesia,,,,-0.331892,111.733398,https://maps.google.com/?cid=0x0:0x1b19b0cfdd74bdad,
supermarket,Toko bahan makanan,Supermarket Mitra Indah,"MP8Q+2QX, Jl. Juang, Tj. Niaga, Kec. Nanga Pinoh, Kabupaten Melawi, Kalimantan Barat 79672","Jl. Juang, Tj. Niaga, Kec. Nanga Pinoh, Kabupaten Melawi",KALIMANTAN BARAT,79672.0,Indonesia,,,,-0.3348844,111.739498,https://maps.google.com/?cid=0x0:0x7b2694231a2d05c9,
supermarket,Toko Swalayan,Indomaret Propinsi,"MP8M+P4M, Propinsi Road,, Sidomulyo, Kec. Nanga Pinoh, Kabupaten Melawi, Kalimantan Barat 79672","Propinsi Road,, Sidomulyo, Kec. Nanga Pinoh, Kabupaten Melawi",KALIMANTAN BARAT,79672.0,Indonesia,,,,-0.3331597,111.7327846,https://maps.google.com/?cid=0x0:0xf1d974b434fd52c9,
supermarket,Pasar,Pasar Nanga Pinoh,"Tj. Niaga, Kec. Nanga Pinoh, Kabupaten Melawi, Kalimantan Barat 79673","Kec. Nanga Pinoh, Kabupaten Melawi",KALIMANTAN BARAT,79673.0,Indonesia,,,,-0.3336653,111.7383589,https://maps.google.com/?cid=0x0:0xcd0e058ca3dac445,
supermarket,Minimarket,Toko Sumber Makmur Ng.pinoh,"MP9P+4W3, Jl. Lintas Kalimantan Poros Tengah, Tj. Niaga, Kec. Nanga Pinoh, Kabupaten Melawi, Kalimantan Barat 79672","Jl. Lintas Kalimantan Poros Tengah, Tj. Niaga, Kec. Nanga Pinoh, Kabupaten Melawi",KALIMANTAN BARAT,79672.0,Indonesia,,,,-0.3322286,111.7373088,https://maps.google.com/?cid=0x0:0xd0bc7a67d08c04b9,
supermarket,Minimarket,Indomaret Tanjung Niaga,"MP7R+J54, Jl. Juang, Tj. Niaga, Kec. Nanga Pinoh, Kabupaten Melawi, Kalimantan Barat 79672","Jl. Juang, Tj. Niaga, Kec. Nanga Pinoh, Kabupaten Melawi",KALIMANTAN BARAT,79672.0,Indonesia,,,,-0.3359835,111.7404478,https://maps.google.com/?cid=0x0:0x7b777b689547b204,
supermarket,Toko Swalayan,Indomaret Propinsi 4,"MP7G+FHV, Unnamed Road, Sidomulyo, Kec. Nanga Pinoh, Kabupaten Melawi, Kalimantan Barat 79672","Unnamed Road, Sidomulyo, Kec. Nanga Pinoh, Kabupaten Melawi",KALIMANTAN BARAT,79672.0,Indonesia,,,,-0.3362656,111.7264375,https://maps.google.com/?cid=0x0:0xd3d46005cd5b83ca,
supermarket,Toko Swalayan,TOKO HASIL ALAM 2 NANGA PINOH MELAWI,"Jl. Juang, Paal, Kec. Nanga Pinoh, Kabupaten Melawi, Kalimantan Barat 79672","Paal, Kec. Nanga Pinoh, Kabupaten Melawi",KALIMANTAN BARAT,79672.0,Indonesia,82148946703.0,,,-0.3537831,111.7523058,https://maps.google.com/?cid=0x0:0x5a3a751a1d571a5e,
supermarket,Toko Swalayan,TOKO HASIL ALAM NANGA PINOH,"Jl.Merkasan, Tj. Niaga, Kec. Nanga Pinoh, Kabupaten Melawi, Kalimantan Barat","Kabupaten Melawi, Kalimantan Barat",KALIMANTAN BARAT,,Indonesia,,,,-0.333802,111.7377219,https://maps.google.com/?cid=0x0:0xbb26956f6f4cb51,
supermarket,Toko bahan makanan,Alfamart,"Jl. Raya Kota Baru Desa No.Km 3, Paal, Kec. Nanga Pinoh, Kab. Melawi, Kalimantan Barat 79672","Paal, Kec. Nanga Pinoh, Kab. Melawi",KALIMANTAN BARAT,79672.0,Indonesia,1500959.0,,,-0.3485542,111.7516681,https://maps.google.com/?cid=0x0:0x284fe4c16c2db699,
supermarket,Pusat Perbelanjaan,Mini Market Mitra Buana,"MP9Q+239, Jl. Juang, Paal, Kec. Nanga Pinoh, Kabupaten Melawi, Kalimantan Barat 79672","Jl. Juang, Paal, Kec. Nanga Pinoh, Kabupaten Melawi",KALIMANTAN BARAT,79672.0,Indonesia,,,,-0.332473,111.737745,https://maps.google.com/?cid=0x0:0xa0bde43313a51d08,
supermarket,Toko Swalayan,Mitra Buana,"MQ32+48P, Jl. Juang, Paal, Kec. Nanga Pinoh, Kabupaten Melawi, Kalimantan Barat 79672","Jl. Juang, Paal, Kec. Nanga Pinoh, Kabupaten Melawi",KALIMANTAN BARAT,79672.0,Indonesia,,,,-0.3471597,111.7508402,https://maps.google.com/?cid=0x0:0xf97eacf0990f6502,
supermarket,Toko Ponsel,Merak Ponsel,"Paal, Kec. Nanga Pinoh, Kabupaten Melawi, Kalimantan Barat 79672","Kec. Nanga Pinoh, Kabupaten Melawi",KALIMANTAN BARAT,79672.0,Indonesia,,,,-0.3318756,111.7379734,https://maps.google.com/?cid=0x0:0xdd3e18ea21a5715a,
supermarket,Toko Elektronik,Garuda Elektronik,"MP9P+XW2, Tj. Niaga, Kec. Nanga Pinoh, Kabupaten Melawi, Kalimantan Barat 79672","Tj. Niaga, Kec. Nanga Pinoh, Kabupaten Melawi",KALIMANTAN BARAT,79672.0,Indonesia,87825798574.0,,,-0.3301036,111.7372571,https://maps.google.com/?cid=0x0:0x1dcb260d3d510303,
supermarket,supermarket,Kalimantan Barat 79672,"Kabupaten Melawi, Kalimantan Barat","Kabupaten Melawi, Kalimantan Barat",KALIMANTAN BARAT,,Indonesia,,,,-0.4530658,111.8091625,https://maps.google.com/?cid=0x0:0xf8a34da63da634fa,
supermarket,Pusat Perbelanjaan,Mini Market Mitra Buana,"MP9Q+239, Jl. Juang, Paal, Kec. Nanga Pinoh, Kabupaten Melawi, Kalimantan Barat 79672","Jl. Juang, Paal, Kec. Nanga Pinoh, Kabupaten Melawi",KALIMANTAN BARAT,79672.0,Indonesia,,,,-0.332473,111.737745,https://maps.google.com/?cid=0x0:0xa0bde43313a51d08,
supermarket,Toko bahan makanan,Supermarket Mitra Indah,"MP8Q+2QX, Jl. Juang, Tj. Niaga, Kec. Nanga Pinoh, Kabupaten Melawi, Kalimantan Barat 79672","Jl. Juang, Tj. Niaga, Kec. Nanga Pinoh, Kabupaten Melawi",KALIMANTAN BARAT,79672.0,Indonesia,,,,-0.3348844,111.739498,https://maps.google.com/?cid=0x0:0x7b2694231a2d05c9,
supermarket,Pusat Perbelanjaan,BEL'Smart,"MQ25+9VQ, Paal, Kec. Nanga Pinoh, Kabupaten Melawi, Kalimantan Barat 79672","Paal, Kec. Nanga Pinoh, Kabupaten Melawi",KALIMANTAN BARAT,79672.0,Indonesia,,,,-0.3490357,111.7597207,https://maps.google.com/?cid=0x0:0x4e50f4db5868689d,
supermarket,Toko Swalayan,Indomaret Propinsi,"MP8M+P4M, Propinsi Road,, Sidomulyo, Kec. Nanga Pinoh, Kabupaten Melawi, Kalimantan Barat 79672","Propinsi Road,, Sidomulyo, Kec. Nanga Pinoh, Kabupaten Melawi",KALIMANTAN BARAT,79672.0,Indonesia,,,,-0.3331597,111.7327846,https://maps.google.com/?cid=0x0:0xf1d974b434fd52c9,
supermarket,Toko Swalayan,Indomaret Propinsi 4,"MP7G+FHV, Unnamed Road, Sidomulyo, Kec. Nanga Pinoh, Kabupaten Melawi, Kalimantan Barat 79672","Unnamed Road, Sidomulyo, Kec. Nanga Pinoh, Kabupaten Melawi",KALIMANTAN BARAT,79672.0,Indonesia,,,,-0.3362656,111.7264375,https://maps.google.com/?cid=0x0:0xd3d46005cd5b83ca,
supermarket,Minimarket,Indomaret Juang KM4,"JQV3+M97, Jl. Provinsi Kota, Paal, Kec. Nanga Pinoh, Kabupaten Melawi, Kalimantan Barat 79672","Jl. Provinsi Kota, Paal, Kec. Nanga Pinoh, Kabupaten Melawi",KALIMANTAN BARAT,79672.0,Indonesia,,,,-0.3558315,111.7534332,https://maps.google.com/?cid=0x0:0x7bca71720f5ddce1,
supermarket,Restoran,Toko Putra Putri,"toko putra putri depan simpang jl.kotabaru, km5, Tj. Lay, Kec. Nanga Pinoh, Kabupaten Melawi, Kalimantan Barat 79672","km5, Tj. Lay, Kec. Nanga Pinoh, Kabupaten Melawi",KALIMANTAN BARAT,79672.0,Indonesia,,,,-0.37275,111.7554054,https://maps.google.com/?cid=0x0:0xea48c5c52659629f,
supermarket,Minimarket,Toko Sumber Makmur Ng.pinoh,"MP9P+4W3, Jl. Lintas Kalimantan Poros Tengah, Tj. Niaga, Kec. Nanga Pinoh, Kabupaten Melawi, Kalimantan Barat 79672","Jl. Lintas Kalimantan Poros Tengah, Tj. Niaga, Kec. Nanga Pinoh, Kabupaten Melawi",KALIMANTAN BARAT,79672.0,Indonesia,,,,-0.3322286,111.7373088,https://maps.google.com/?cid=0x0:0xd0bc7a67d08c04b9,
supermarket,Minimarket,Indomaret Tanjung Niaga,"MP7R+J54, Jl. Juang, Tj. Niaga, Kec. Nanga Pinoh, Kabupaten Melawi, Kalimantan Barat 79672","Jl. Juang, Tj. Niaga, Kec. Nanga Pinoh, Kabupaten Melawi",KALIMANTAN BARAT,79672.0,Indonesia,,,,-0.3359835,111.7404478,https://maps.google.com/?cid=0x0:0x7b777b689547b204,
supermarket,Toko Swalayan,Toko Gelora,"MP9P+HX3, Jl. Beringin, Tj. Niaga, Kec. Nanga Pinoh, Kabupaten Melawi, Kalimantan Barat 79672","Jl. Beringin, Tj. Niaga, Kec. Nanga Pinoh, Kabupaten Melawi",KALIMANTAN BARAT,79672.0,Indonesia,82148553320.0,,,-0.3311219,111.7374155,https://maps.google.com/?cid=0x0:0xbe66f367c61efb5f,
supermarket,Toko,Tk. Sumber Agung,"JPV5+GFH, Jl. Raya Propinsi, Sidomulyo, Kec. Nanga Pinoh, Kabupaten Melawi, Kalimantan Barat 79671","Jl. Raya Propinsi, Sidomulyo, Kec. Nanga Pinoh, Kabupaten Melawi",KALIMANTAN BARAT,79671.0,Indonesia,85245458254.0,,,-0.356181,111.7087333,https://maps.google.com/?cid=0x0:0x5770d532c5f9b3ad,
supermarket,Toko,Toko Rama Rani,"JQR4+838, Kelakik, Kec. Nanga Pinoh, Kabupaten Melawi, Kalimantan Barat 79672","Kelakik, Kec. Nanga Pinoh, Kabupaten Melawi",KALIMANTAN BARAT,79672.0,Indonesia,,,,-0.3592023,111.7552152,https://maps.google.com/?cid=0x0:0x7932ddc8ea1f6bdd,
supermarket,Toko,Toko Usaha Baru,"Tj. Niaga, Kec. Nanga Pinoh, Kabupaten Melawi, Kalimantan Barat 79672","Kec. Nanga Pinoh, Kabupaten Melawi",KALIMANTAN BARAT,79672.0,Indonesia,82148450945.0,,,-0.3370355,111.737619,https://maps.google.com/?cid=0x0:0x7439b796f3142331,
supermarket,Pusat Perbelanjaan,Mitra Indah Super Market,"Baru, Kec. Nanga Pinoh, Kabupaten Melawi, Kalimantan Barat","Kabupaten Melawi, Kalimantan Barat",KALIMANTAN BARAT,,Indonesia,,,,-0.3125909,111.6971663,https://maps.google.com/?cid=0x0:0x8f1061ab1649ee32,
supermarket,Pasar,Pasar Nanga Pinoh,"Tj. Niaga, Kec. Nanga Pinoh, Kabupaten Melawi, Kalimantan Barat 79673","Kec. Nanga Pinoh, Kabupaten Melawi",KALIMANTAN BARAT,79673.0,Indonesia,,,,-0.3336653,111.7383589,https://maps.google.com/?cid=0x0:0xcd0e058ca3dac445,
supermarket,Toko Swalayan,TOKO HASIL ALAM 2 NANGA PINOH MELAWI,"Jl. Juang, Paal, Kec. Nanga Pinoh, Kabupaten Melawi, Kalimantan Barat 79672","Paal, Kec. Nanga Pinoh, Kabupaten Melawi",KALIMANTAN BARAT,79672.0,Indonesia,82148946703.0,,,-0.3537831,111.7523058,https://maps.google.com/?cid=0x0:0x5a3a751a1d571a5e,
supermarket,Toserba,Toko Usaha Baru,"MP4X+3H4, Jl. Juang, Paal, Kec. Nanga Pinoh, Kabupaten Melawi, Kalimantan Barat 79672","Jl. Juang, Paal, Kec. Nanga Pinoh, Kabupaten Melawi",KALIMANTAN BARAT,79672.0,Indonesia,,,,-0.3448536,111.7489618,https://maps.google.com/?cid=0x0:0xdfaad4810e963640,
supermarket,Toko bahan makanan,Bintang toko,"Tj. Sari, Kec. Nanga Pinoh, Kabupaten Melawi, Kalimantan Barat 79671","Kec. Nanga Pinoh, Kabupaten Melawi",KALIMANTAN BARAT,79671.0,Indonesia,82157691145.0,,,-0.3949049,111.6856867,https://maps.google.com/?cid=0x0:0x47d0e74370971b5d,
supermarket,supermarket,Toko kembar,"HQ4W+7V9, Manggala, Kec. Pinoh Sel., Kabupaten Melawi, Kalimantan Barat 79672","Manggala, Kec. Pinoh Sel., Kabupaten Melawi",KALIMANTAN BARAT,79672.0,Indonesia,,,,-0.4443364,111.7972384,https://maps.google.com/?cid=0x0:0xc1807ac3b3839e89,
supermarket,Toko Swalayan,Mitra Buana,"MQ32+48P, Jl. Juang, Paal, Kec. Nanga Pinoh, Kabupaten Melawi, Kalimantan Barat 79672","Jl. Juang, Paal, Kec. Nanga Pinoh, Kabupaten Melawi",KALIMANTAN BARAT,79672.0,Indonesia,,,,-0.3471597,111.7508402,https://maps.google.com/?cid=0x0:0xf97eacf0990f6502,
supermarket,Toko,Alfamart Sidomulyo,"Jl Desa, Sidomulyo, Kec. Nanga Pinoh, Kab. Melawi, Kalimantan Barat 79672","Sidomulyo, Kec. Nanga Pinoh, Kab. Melawi",KALIMANTAN BARAT,79672.0,Indonesia,1500959.0,,,-0.3391865,111.7208259,https://maps.google.com/?cid=0x0:0x138bc30c1e65a518,
supermarket,Toko bahan makanan,Alfamart,"Jl. Raya Kota Baru Desa No.Km 3, Paal, Kec. Nanga Pinoh, Kab. Melawi, Kalimantan Barat 79672","Paal, Kec. Nanga Pinoh, Kab. Melawi",KALIMANTAN BARAT,79672.0,Indonesia,1500959.0,,,-0.3485542,111.7516681,https://maps.google.com/?cid=0x0:0x284fe4c16c2db699,
supermarket,Pusat Perbelanjaan,Jual Kambing di Nanga pinoh.kabupaten melawi.kalimantan barat,"Jl. Raya Propinsi, Sidomulyo, Kec. Nanga Pinoh, Kabupaten Melawi, Kalimantan Barat 79671","Sidomulyo, Kec. Nanga Pinoh, Kabupaten Melawi",KALIMANTAN BARAT,79671.0,Indonesia,89694294379.0,,,-0.3485889,111.7107668,https://maps.google.com/?cid=0x0:0x7995a223cfc6a252,
supermarket,Toko bahan makanan,Alfamart Raya Juang,"Jl. Raya Juang, Dusun Mekar Sari Ii, Desa, RT.015/RW.004, Paal, Kec. Nanga Pinoh, Kab. Melawi, Kalimantan Barat 79672","Dusun Mekar Sari Ii, Desa, RT.015/RW.004, Paal, Kec. Nanga Pinoh, Kab. Melawi",KALIMANTAN BARAT,79672.0,Indonesia,1500959.0,,,-0.339953,111.7445413,https://maps.google.com/?cid=0x0:0x3a546bda30d7e0ff,
supermarket,Pusat Perbelanjaan,mutiara mart,"jl. Sintang, Batu Ampar, Kec. Nanga Pinoh, Batu Buil, Kalimantan Barat","Batu Buil, Kalimantan Barat",KALIMANTAN BARAT,,Indonesia,81258142026.0,,,-0.3670441,111.6405236,https://maps.google.com/?cid=0x0:0x9ef1fca2e215b262,
supermarket,supermarket,Kalimantan Barat 79672,"Kabupaten Melawi, Kalimantan Barat","Kabupaten Melawi, Kalimantan Barat",KALIMANTAN BARAT,,Indonesia,,,,-0.4530658,111.8091625,https://maps.google.com/?cid=0x0:0xf8a34da63da634fa,
supermarket,Pusat Perbelanjaan,Mini Market Mitra Buana,"MP9Q+239, Jl. Juang, Paal, Kec. Nanga Pinoh, Kabupaten Melawi, Kalimantan Barat 79672","Jl. Juang, Paal, Kec. Nanga Pinoh, Kabupaten Melawi",KALIMANTAN BARAT,79672.0,Indonesia,,,,-0.332473,111.737745,https://maps.google.com/?cid=0x0:0xa0bde43313a51d08,
supermarket,Toko bahan makanan,Supermarket Mitra Indah,"MP8Q+2QX, Jl. Juang, Tj. Niaga, Kec. Nanga Pinoh, Kabupaten Melawi, Kalimantan Barat 79672","Jl. Juang, Tj. Niaga, Kec. Nanga Pinoh, Kabupaten Melawi",KALIMANTAN BARAT,79672.0,Indonesia,,,,-0.3348844,111.739498,https://maps.google.com/?cid=0x0:0x7b2694231a2d05c9,
supermarket,Minimarket,Indomaret Juang KM4,"JQV3+M97, Jl. Provinsi Kota, Paal, Kec. Nanga Pinoh, Kabupaten Melawi, Kalimantan Barat 79672","Jl. Provinsi Kota, Paal, Kec. Nanga Pinoh, Kabupaten Melawi",KALIMANTAN BARAT,79672.0,Indonesia,,,,-0.3558315,111.7534332,https://maps.google.com/?cid=0x0:0x7bca71720f5ddce1,
supermarket,Restoran,Toko Putra Putri,"toko putra putri depan simpang jl.kotabaru, km5, Tj. Lay, Kec. Nanga Pinoh, Kabupaten Melawi, Kalimantan Barat 79672","km5, Tj. Lay, Kec. Nanga Pinoh, Kabupaten Melawi",KALIMANTAN BARAT,79672.0,Indonesia,,,,-0.37275,111.7554054,https://maps.google.com/?cid=0x0:0xea48c5c52659629f,
supermarket,Toko Swalayan,Indomaret Propinsi 4,"MP7G+FHV, Unnamed Road, Sidomulyo, Kec. Nanga Pinoh, Kabupaten Melawi, Kalimantan Barat 79672","Unnamed Road, Sidomulyo, Kec. Nanga Pinoh, Kabupaten Melawi",KALIMANTAN BARAT,79672.0,Indonesia,,,,-0.3362656,111.7264375,https://maps.google.com/?cid=0x0:0xd3d46005cd5b83ca,
supermarket,Minimarket,Toko Sumber Makmur Ng.pinoh,"MP9P+4W3, Jl. Lintas Kalimantan Poros Tengah, Tj. Niaga, Kec. Nanga Pinoh, Kabupaten Melawi, Kalimantan Barat 79672","Jl. Lintas Kalimantan Poros Tengah, Tj. Niaga, Kec. Nanga Pinoh, Kabupaten Melawi",KALIMANTAN BARAT,79672.0,Indonesia,,,,-0.3322286,111.7373088,https://maps.google.com/?cid=0x0:0xd0bc7a67d08c04b9,
supermarket,Toko Swalayan,Toko Gelora,"MP9P+HX3, Jl. Beringin, Tj. Niaga, Kec. Nanga Pinoh, Kabupaten Melawi, Kalimantan Barat 79672","Jl. Beringin, Tj. Niaga, Kec. Nanga Pinoh, Kabupaten Melawi",KALIMANTAN BARAT,79672.0,Indonesia,82148553320.0,,,-0.3311219,111.7374155,https://maps.google.com/?cid=0x0:0xbe66f367c61efb5f,
supermarket,Minimarket,Indomaret Tanjung Niaga,"MP7R+J54, Jl. Juang, Tj. Niaga, Kec. Nanga Pinoh, Kabupaten Melawi, Kalimantan Barat 79672","Jl. Juang, Tj. Niaga, Kec. Nanga Pinoh, Kabupaten Melawi",KALIMANTAN BARAT,79672.0,Indonesia,,,,-0.3359835,111.7404478,https://maps.google.com/?cid=0x0:0x7b777b689547b204,
supermarket,Pusat Perbelanjaan,Top Market Juang,"Paal, Kec. Nanga Pinoh, Kabupaten Melawi, Kalimantan Barat 79672","Kec. Nanga Pinoh, Kabupaten Melawi",KALIMANTAN BARAT,79672.0,Indonesia,85388477673.0,,,-0.3384968,111.7437102,https://maps.google.com/?cid=0x0:0x3762da4dc2e725b9,
supermarket,Toko Swalayan,Mitra Buana,"MQ32+48P, Jl. Juang, Paal, Kec. Nanga Pinoh, Kabupaten Melawi, Kalimantan Barat 79672","Jl. Juang, Paal, Kec. Nanga Pinoh, Kabupaten Melawi",KALIMANTAN BARAT,79672.0,Indonesia,,,,-0.3471597,111.7508402,https://maps.google.com/?cid=0x0:0xf97eacf0990f6502,
supermarket,Toko,Tk. Sumber Agung,"JPV5+GFH, Jl. Raya Propinsi, Sidomulyo, Kec. Nanga Pinoh, Kabupaten Melawi, Kalimantan Barat 79671","Jl. Raya Propinsi, Sidomulyo, Kec. Nanga Pinoh, Kabupaten Melawi",KALIMANTAN BARAT,79671.0,Indonesia,85245458254.0,,,-0.356181,111.7087333,https://maps.google.com/?cid=0x0:0x5770d532c5f9b3ad,
supermarket,Toko,Alfamart Sidomulyo,"Jl Desa, Sidomulyo, Kec. Nanga Pinoh, Kab. Melawi, Kalimantan Barat 79672","Sidomulyo, Kec. Nanga Pinoh, Kab. Melawi",KALIMANTAN BARAT,79672.0,Indonesia,1500959.0,,,-0.3391865,111.7208259,https://maps.google.com/?cid=0x0:0x138bc30c1e65a518,
supermarket,Toserba,Toko Usaha Baru,"MP4X+3H4, Jl. Juang, Paal, Kec. Nanga Pinoh, Kabupaten Melawi, Kalimantan Barat 79672","Jl. Juang, Paal, Kec. Nanga Pinoh, Kabupaten Melawi",KALIMANTAN BARAT,79672.0,Indonesia,,,,-0.3448536,111.7489618,https://maps.google.com/?cid=0x0:0xdfaad4810e963640,
supermarket,Toko Swalayan,TOKO HASIL ALAM 2 NANGA PINOH MELAWI,"Jl. Juang, Paal, Kec. Nanga Pinoh, Kabupaten Melawi, Kalimantan Barat 79672","Paal, Kec. Nanga Pinoh, Kabupaten Melawi",KALIMANTAN BARAT,79672.0,Indonesia,82148946703.0,,,-0.3537831,111.7523058,https://maps.google.com/?cid=0x0:0x5a3a751a1d571a5e,
supermarket,Toko bahan makanan,Alfamart,"Jl. Raya Kota Baru Desa No.Km 3, Paal, Kec. Nanga Pinoh, Kab. Melawi, Kalimantan Barat 79672","Paal, Kec. Nanga Pinoh, Kab. Melawi",KALIMANTAN BARAT,79672.0,Indonesia,1500959.0,,,-0.3485542,111.7516681,https://maps.google.com/?cid=0x0:0x284fe4c16c2db699,
supermarket,Pusat Perbelanjaan,Jual Kambing di Nanga pinoh.kabupaten melawi.kalimantan barat,"Jl. Raya Propinsi, Sidomulyo, Kec. Nanga Pinoh, Kabupaten Melawi, Kalimantan Barat 79671","Sidomulyo, Kec. Nanga Pinoh, Kabupaten Melawi",KALIMANTAN BARAT,79671.0,Indonesia,89694294379.0,,,-0.3485889,111.7107668,https://maps.google.com/?cid=0x0:0x7995a223cfc6a252,
supermarket,Pasar,Pasar Nanga Pinoh,"Tj. Niaga, Kec. Nanga Pinoh, Kabupaten Melawi, Kalimantan Barat 79673","Kec. Nanga Pinoh, Kabupaten Melawi",KALIMANTAN BARAT,79673.0,Indonesia,,,,-0.3336653,111.7383589,https://maps.google.com/?cid=0x0:0xcd0e058ca3dac445,
supermarket,Toko bahan makanan,Alfamart Raya Juang,"Jl. Raya Juang, Dusun Mekar Sari Ii, Desa, RT.015/RW.004, Paal, Kec. Nanga Pinoh, Kab. Melawi, Kalimantan Barat 79672","Dusun Mekar Sari Ii, Desa, RT.015/RW.004, Paal, Kec. Nanga Pinoh, Kab. Melawi",KALIMANTAN BARAT,79672.0,Indonesia,1500959.0,,,-0.339953,111.7445413,https://maps.google.com/?cid=0x0:0x3a546bda30d7e0ff,
supermarket,supermarket,Toko kembar,"HQ4W+7V9, Manggala, Kec. Pinoh Sel., Kabupaten Melawi, Kalimantan Barat 79672","Manggala, Kec. Pinoh Sel., Kabupaten Melawi",KALIMANTAN BARAT,79672.0,Indonesia,,,,-0.4443364,111.7972384,https://maps.google.com/?cid=0x0:0xc1807ac3b3839e89,
supermarket,Toko Swalayan,TOKO HASIL ALAM NANGA PINOH,"Jl.Merkasan, Tj. Niaga, Kec. Nanga Pinoh, Kabupaten Melawi, Kalimantan Barat","Kabupaten Melawi, Kalimantan Barat",KALIMANTAN BARAT,,Indonesia,,,,-0.333802,111.7377219,https://maps.google.com/?cid=0x0:0xbb26956f6f4cb51,
supermarket,supermarket,Kalimantan Barat 79673,"Kec. Sayan, Kabupaten Melawi, Kalimantan Barat","Kabupaten Melawi, Kalimantan Barat",KALIMANTAN BARAT,,Indonesia,,,,-0.7351798,111.7137694,https://maps.google.com/?cid=0x0:0x6560f1dffd0c539e,
supermarket,Pusat Tenaga Kerja,Toko Ner Siling,"7JMX+648, Siling Permai, Kec. Sayan, Kabupaten Melawi, Kalimantan Barat 79673","Siling Permai, Kec. Sayan, Kabupaten Melawi",KALIMANTAN BARAT,79673.0,Indonesia,,,,-0.7169519,111.64782,https://maps.google.com/?cid=0x0:0xf7f19a88d51c811,
supermarket,supermarket,dQYeaKG0GpWk0-kP5Y230QE,,,KALIMANTAN BARAT,,Indonesia,82154427994.0,,,-0.7559485,111.4953276,https://maps.google.com/?cid=0x0:0x5b4b01d75566d093,
supermarket,Pasar Malam,Sayan Night Market,"no 80571, Jl. Raya Tebongkang No.39, Singakerta, Kecamatan Ubud, Kabupaten Gianyar, Bali 80571","Jl. Raya Tebongkang No.39, Singakerta, Kecamatan Ubud, Kabupaten Gianyar",KALIMANTAN BARAT,80571.0,Indonesia,,,,-8.519804,115.240218,https://maps.google.com/?cid=0x0:0x3464d4d77244c659,
supermarket,Toko Swalayan,Bintang Supermarket Ubud,"Jl. Raya Sanggingan No.45, Sayan, Kecamatan Ubud, Kabupaten Gianyar, Bali 80515","Sayan, Kecamatan Ubud, Kabupaten Gianyar",KALIMANTAN BARAT,80515.0,Indonesia,361972972.0,,,-8.4997384,115.2523733,https://maps.google.com/?cid=0x0:0xedf5038642b75298,
supermarket,Toko Swalayan,GS The Fresh Mampang,"Jl. Buncit Raya No.301, Duren Tiga, Kec. Pancoran, Kota Jakarta Selatan, Daerah Khusus Ibukota Jakarta 12760","Duren Tiga, Kec. Pancoran, Kota Jakarta Selatan",KALIMANTAN BARAT,12760.0,Indonesia,2126961986.0,,,-6.256991,106.828987,https://maps.google.com/?cid=0x0:0x47a84d3b86619147,
supermarket,Toko Swalayan,GS Supermarket Jatiasih,"GsSupermarket :, Jl. Wibawa Mukti II No.125, RT.002/ RW017/RW.017, Jatiasih, Kec. Jatiasih, Kota Bks, Jawa Barat 17423","Jl. Wibawa Mukti II No.125, RT.002/ RW017/RW.017, Jatiasih, Kec. Jatiasih, Kota Bks",KALIMANTAN BARAT,17423.0,Indonesia,2182736918.0,,,-6.3070579,106.955731,https://maps.google.com/?cid=0x0:0x74efd6ce433268e6,
supermarket,supermarket,TOKO HM,"4F2P+3C, desa sepakat, Sokan, Kabupaten Melawi, Kalimantan Barat","Kabupaten Melawi, Kalimantan Barat",KALIMANTAN BARAT,,Indonesia,,,,-0.8998125,111.4860625,https://maps.google.com/?cid=0x0:0x5c26fe2c075d3a09,
supermarket,Pusat Perbelanjaan,GS The Fresh BOXIES,"Jl. Raya Tajur No.125, RT.01/RW.06, Tajur, Kec. Bogor Tim., Kota Bogor, Jawa Barat 16141","RT.01/RW.06, Tajur, Kec. Bogor Tim., Kota Bogor",KALIMANTAN BARAT,16141.0,Indonesia,,,,-6.6338534,106.8265902,https://maps.google.com/?cid=0x0:0xf2e999dd0f1bdf6,
supermarket,Toko bahan makanan,Toko sakbani,"HWHF+2M4, Jl. Pabuaran, Cicadas, Kec. Gn. Putri, Kabupaten Bogor, Jawa Barat 16964","Jl. Pabuaran, Cicadas, Kec. Gn. Putri, Kabupaten Bogor",KALIMANTAN BARAT,16964.0,Indonesia,,,,-6.4224966,106.9241949,https://maps.google.com/?cid=0x0:0x4c2c4f0be314e3d1,
supermarket,Toko Swalayan,GS Supermarket Legenda Wisata,"Blok T Cluster, Jl. Da Vinci Jl. Legenda Wisata Boulevard No.16, Nagrak, Kec. Gn. Putri, Kabupaten Bogor, Jawa Barat 16967","Jl. Da Vinci Jl. Legenda Wisata Boulevard No.16, Nagrak, Kec. Gn. Putri, Kabupaten Bogor",KALIMANTAN BARAT,16967.0,Indonesia,2122950333.0,,,-6.3910974,106.9480619,https://maps.google.com/?cid=0x0:0xd6b083eb344b5a12,
supermarket,Toko Swalayan,GS The Fresh Mampang,"Jl. Buncit Raya No.301, Duren Tiga, Kec. Pancoran, Kota Jakarta Selatan, Daerah Khusus Ibukota Jakarta 12760","Duren Tiga, Kec. Pancoran, Kota Jakarta Selatan",KALIMANTAN BARAT,12760.0,Indonesia,2126961986.0,,,-6.256991,106.828987,https://maps.google.com/?cid=0x0:0x47a84d3b86619147,
supermarket,Toko Swalayan,GS Supermarket Jatiasih,"GsSupermarket :, Jl. Wibawa Mukti II No.125, RT.002/ RW017/RW.017, Jatiasih, Kec. Jatiasih, Kota Bks, Jawa Barat 17423","Jl. Wibawa Mukti II No.125, RT.002/ RW017/RW.017, Jatiasih, Kec. Jatiasih, Kota Bks",KALIMANTAN BARAT,17423.0,Indonesia,2182736918.0,,,-6.3070579,106.955731,https://maps.google.com/?cid=0x0:0x74efd6ce433268e6,
supermarket,Toko Swalayan,Gs supermarket,"Jl. KH. Hasyim Ashari No.93, RT.002/RW.003, Poris Plawad Utara, Kec. Cipondoh, Kota Tangerang, Banten 15148","RT.002/RW.003, Poris Plawad Utara, Kec. Cipondoh, Kota Tangerang",KALIMANTAN BARAT,15148.0,Indonesia,2155712070.0,,,-6.1879187,106.661738,https://maps.google.com/?cid=0x0:0x86a83e6d17a220b2,
supermarket,Toko Swalayan,Novalsabilla 'The Ginding',"8WFH+M9F, Jl. Raya Puncak, Citeko, Kec. Cisarua, Kabupaten Bogor, Jawa Barat 16750","Jl. Raya Puncak, Citeko, Kec. Cisarua, Kabupaten Bogor",KALIMANTAN BARAT,16750.0,Indonesia,81290523382.0,,,-6.675824,106.928425,https://maps.google.com/?cid=0x0:0xcb3c94da24b2a1e3,
supermarket,Toko Bahan Bangunan,Pratama Supermarket Bahan Bangunan Sukatani,"Jl. Pilar Sukatani No.204, Sukaraya, Kec. Karangbahagia, Kabupaten Bekasi, Jawa Barat 17535","Sukaraya, Kec. Karangbahagia, Kabupaten Bekasi",KALIMANTAN BARAT,17535.0,Indonesia,2189072770.0,,,-6.217434,107.1664019,https://maps.google.com/?cid=0x0:0xcc40347a47d8a121,
supermarket,Toko umum,TOKO SEMBAKO LAZUARDI96,"Unnamed Road, Ragajaya, Kecamatan Bojonggede, Kabupaten Bogor, Jawa Barat 16920","Ragajaya, Kecamatan Bojonggede, Kabupaten Bogor",KALIMANTAN BARAT,16920.0,Indonesia,81384406900.0,,,-6.4516269,106.7854204,https://maps.google.com/?cid=0x0:0x72a2a1b2e3b6f905,
supermarket,Toko Swalayan,GS The Fresh Supermarket Kemang Pratama,"Linc Square Kemang Pratama, Jl. Kemang Pratama Raya, RT.004/RW.001, Bojong Rawalumbu, Kec. Rawalumbu, Kota Bks, Jawa Barat 17116","Jl. Kemang Pratama Raya, RT.004/RW.001, Bojong Rawalumbu, Kec. Rawalumbu, Kota Bks",KALIMANTAN BARAT,17116.0,Indonesia,2182416910.0,,,-6.2779418,106.9910558,https://maps.google.com/?cid=0x0:0x4ce692f4b9ef21ee,
supermarket,supermarket,Kec. Tanah Pinoh,"Kabupaten Melawi, Kalimantan Barat","Kabupaten Melawi, Kalimantan Barat",KALIMANTAN BARAT,,Indonesia,,,,-0.7945298,111.5460674,https://maps.google.com/?cid=0x0:0x6079bd527623d50e,
supermarket,Kantor Perusahaan,CV PULAU RAYA (Rahman Pahwadi),"6G4W+6CJ, Batu Begigi, Kec. Tanah Pinoh, Kabupaten Melawi, Kalimantan Barat 79674","Batu Begigi, Kec. Tanah Pinoh, Kabupaten Melawi",KALIMANTAN BARAT,79674.0,Indonesia,85787803653.0,,,-0.794416,111.5460123,https://maps.google.com/?cid=0x0:0xecb469bb9bcd0dad,
supermarket,Pusat Perbelanjaan,Mini Market Mitra Buana,"MP9Q+239, Jl. Juang, Paal, Kec. Nanga Pinoh, Kabupaten Melawi, Kalimantan Barat 79672","Jl. Juang, Paal, Kec. Nanga Pinoh, Kabupaten Melawi",KALIMANTAN BARAT,79672.0,Indonesia,,,,-0.332473,111.737745,https://maps.google.com/?cid=0x0:0xa0bde43313a51d08,
supermarket,Toko Swalayan,Mitra Buana,"MQ32+48P, Jl. Juang, Paal, Kec. Nanga Pinoh, Kabupaten Melawi, Kalimantan Barat 79672","Jl. Juang, Paal, Kec. Nanga Pinoh, Kabupaten Melawi",KALIMANTAN BARAT,79672.0,Indonesia,,,,-0.3471597,111.7508402,https://maps.google.com/?cid=0x0:0xf97eacf0990f6502,
supermarket,Pusat Tenaga Kerja,Toko Ner Siling,"7JMX+648, Siling Permai, Kec. Sayan, Kabupaten Melawi, Kalimantan Barat 79673","Siling Permai, Kec. Sayan, Kabupaten Melawi",KALIMANTAN BARAT,79673.0,Indonesia,,,,-0.7169519,111.64782,https://maps.google.com/?cid=0x0:0xf7f19a88d51c811,
supermarket,supermarket,SgceaOWQMrnc2roP25n4oAU,,,KALIMANTAN BARAT,,Indonesia,82154427994.0,,,-0.7559485,111.4953276,https://maps.google.com/?cid=0x0:0x5b4b01d75566d093,
supermarket,supermarket,Toko ATK dan Foto copy Syauqi,"6G4W+MXR, Suka Maju, Kec. Tanah Pinoh, Kabupaten Melawi, Kalimantan Barat 79674","Suka Maju, Kec. Tanah Pinoh, Kabupaten Melawi",KALIMANTAN BARAT,79674.0,Indonesia,85245206630.0,,,-0.7932551,111.5473826,https://maps.google.com/?cid=0x0:0x64cf587e0c3d792d,
supermarket,supermarket,Kalimantan Barat 79674,"Kabupaten Melawi, Kalimantan Barat","Kabupaten Melawi, Kalimantan Barat",KALIMANTAN BARAT,,Indonesia,,,,-0.7723312,111.3798928,https://maps.google.com/?cid=0x0:0x6d8acf73897d9e8b,
supermarket,Kantor Perusahaan,CV PULAU RAYA (Rahman Pahwadi),"6G4W+6CJ, Batu Begigi, Kec. Tanah Pinoh, Kabupaten Melawi, Kalimantan Barat 79674","Batu Begigi, Kec. Tanah Pinoh, Kabupaten Melawi",KALIMANTAN BARAT,79674.0,Indonesia,85787803653.0,,,-0.794416,111.5460123,https://maps.google.com/?cid=0x0:0xecb469bb9bcd0dad,
supermarket,Pusat Tenaga Kerja,Toko Ner Siling,"7JMX+648, Siling Permai, Kec. Sayan, Kabupaten Melawi, Kalimantan Barat 79673","Siling Permai, Kec. Sayan, Kabupaten Melawi",KALIMANTAN BARAT,79673.0,Indonesia,,,,-0.7169519,111.64782,https://maps.google.com/?cid=0x0:0xf7f19a88d51c811,
supermarket,supermarket,Santi Hotspot,"7FCV+CHJ, Bukit Raya, Tanah Pinoh Bar., Kabupaten Melawi, Kalimantan Barat","Kabupaten Melawi, Kalimantan Barat",KALIMANTAN BARAT,,Indonesia,,,,-0.728918,111.4938948,https://maps.google.com/?cid=0x0:0x3717b8f71cacf19f,
