Category,Real Category,Business Name,Address,City,State,Postal Code,Country,Phone,Email,Website,Latitude,Longitude,Map Link,Details Link
komplek housing,komplek housing,Kalimantan Barat 79671,"Kabupaten Melawi, Kalimantan Barat","Kabupaten Melawi, Kalimantan Barat",KALIMANTAN BARAT,,Indonesia,,,,-0.4539656,111.5229817,https://maps.google.com/?cid=0x0:0xfc272e555b0cebaa,
komplek housing,Komplek perumahan,Perumahan,"PH7X+7C, Batu Buil, Kec. Belimbing, Kabupaten Melawi, Kalimantan Barat","Kabupaten Melawi, Kalimantan Barat",KALIMANTAN BARAT,,Indonesia,,,,-0.2868262,111.598478,https://maps.google.com/?cid=0x0:0x6902310d16f47bd2,
komplek housing,Masjid,"Rumah mesjid al jihad, SDK 1","MHWW+X5G, Batu Buil, Kec. Belimbing, Kabupaten Melawi, Kalimantan Barat 79671","Batu Buil, Kec. Belimbing, Kabupaten Melawi",KALIMANTAN BARAT,79671.0,Indonesia,,,,-0.3025725,111.5954572,https://maps.google.com/?cid=0x0:0xe23385fcfc7ac7e0,
komplek housing,Pembangunan Perumahan,Perumahan Barunia,"PFCG+F4M, Belonsat, Kec. Belimbing, Kabupaten Melawi, Kalimantan Barat","Kabupaten Melawi, Kalimantan Barat",KALIMANTAN BARAT,,Indonesia,,,,-0.2787808,111.4752851,https://maps.google.com/?cid=0x0:0xba0104d5b0dbdb6f,
komplek housing,Perumahan,Mas AL,"PF5V+W6G, Belonsat, Kec. Belimbing, Kabupaten Melawi, Kalimantan Barat","Kabupaten Melawi, Kalimantan Barat",KALIMANTAN BARAT,,Indonesia,,,,-0.2901843,111.4930863,https://maps.google.com/?cid=0x0:0xe4578a7ec5dd7abe,
komplek housing,Kantor Perusahaan,Rumah Dinas Pak Alex,"MHWW+XWX, Batu Buil, Kec. Belimbing, Kabupaten Melawi, Kalimantan Barat 79671","Batu Buil, Kec. Belimbing, Kabupaten Melawi",KALIMANTAN BARAT,79671.0,Indonesia,,,,-0.3025122,111.5973498,https://maps.google.com/?cid=0x0:0x7c735bfffed8b604,
komplek housing,Komplek perumahan,Pontianak,"JGHG+V87, Beloyang, Kec. Belimbing Hulu, Kabupaten Melawi, Kalimantan Barat 79671","Beloyang, Kec. Belimbing Hulu, Kabupaten Melawi",KALIMANTAN BARAT,79671.0,Indonesia,,,,-0.3704733,111.5266532,https://maps.google.com/?cid=0x0:0x662d5d606f63e5ef,
komplek housing,Komplek perumahan,Rumah budi,"PGX9+HX, Guhung, Kec. Belimbing, Kabupaten Melawi, Kalimantan Barat 78655","Guhung, Kec. Belimbing, Kabupaten Melawi",KALIMANTAN BARAT,78655.0,Indonesia,,,,-0.251073,111.519888,https://maps.google.com/?cid=0x0:0xa66ece8af62eebdc,
komplek housing,komplek housing,Batu ampar,"PFCG+F4M, Belonsat, Kec. Belimbing, Kabupaten Melawi, Kalimantan Barat","Kabupaten Melawi, Kalimantan Barat",KALIMANTAN BARAT,,Indonesia,,,,-0.2787808,111.4752851,https://maps.google.com/?cid=0x0:0x15abcbd4c6e5a97,
komplek housing,Kedai Kopi,Dua Saudara TALIS dan IGUN,"JM84+VH8, Pemuar, Kec. Belimbing, Kabupaten Melawi, Kalimantan Barat 79671","Pemuar, Kec. Belimbing, Kabupaten Melawi",KALIMANTAN BARAT,79671.0,Indonesia,,,,-0.3828476,111.6564456,https://maps.google.com/?cid=0x0:0x12c2bbb68cb2c71,
komplek housing,Komplek perumahan,Rumah kendra,"PJ32+J9, Batu Buil, Kec. Belimbing, Kabupaten Melawi, Kalimantan Barat","Kabupaten Melawi, Kalimantan Barat",KALIMANTAN BARAT,,Indonesia,,,,-0.2959601,111.6008961,https://maps.google.com/?cid=0x0:0x57ae5b4962309dcb,
komplek housing,Komplek perumahan,Rumah HARTONO,"MGH4+V67, Beloyang, Kec. Belimbing Hulu, Kabupaten Melawi, Kalimantan Barat 79671","Beloyang, Kec. Belimbing Hulu, Kabupaten Melawi",KALIMANTAN BARAT,79671.0,Indonesia,,,,-0.3203815,111.5058848,https://maps.google.com/?cid=0x0:0xb95a7824d7149bb0,
komplek housing,Perumahan,Rayon Batu Buil PSHT,"PJ46+VQG, Batu Buil, Kec. Belimbing, Kabupaten Melawi, Kalimantan Barat 79671","Batu Buil, Kec. Belimbing, Kabupaten Melawi",KALIMANTAN BARAT,79671.0,Indonesia,81545503031.0,,,-0.292042,111.61197,https://maps.google.com/?cid=0x0:0xf75f08b3fd081f71,
komplek housing,Komplek perumahan,Rumah Pak Jainal,"MFPJ+XR, Belonsat, Kec. Belimbing, Kabupaten Melawi, Kalimantan Barat","Kabupaten Melawi, Kalimantan Barat",KALIMANTAN BARAT,,Indonesia,,,,-0.3126149,111.4820943,https://maps.google.com/?cid=0x0:0x5b56dd771598bb6d,
komplek housing,komplek housing,Lok jalan,"MG6M+2XJ, Beloyang, Kec. Belimbing Hulu, Kabupaten Melawi, Kalimantan Barat 79671","Beloyang, Kec. Belimbing Hulu, Kabupaten Melawi",KALIMANTAN BARAT,79671.0,Indonesia,,,,-0.3399125,111.5349059,https://maps.google.com/?cid=0x0:0x184cb9b12720f98d,
komplek housing,Komplek perumahan,Anna house,"MJWW+FHM, Pemuar, Kec. Belimbing, Kabupaten Melawi, Kalimantan Barat 79671","Pemuar, Kec. Belimbing, Kabupaten Melawi",KALIMANTAN BARAT,79671.0,Indonesia,,,,-0.3033269,111.6458127,https://maps.google.com/?cid=0x0:0xc12124d990810223,
komplek housing,komplek housing,Rumah pak Nasir Keranjik,"JGJH+362, Tiong Keranji, Kec. Belimbing Hulu, Kabupaten Melawi, Kalimantan Barat 79671","Tiong Keranji, Kec. Belimbing Hulu, Kabupaten Melawi",KALIMANTAN BARAT,79671.0,Indonesia,,,,-0.3704534,111.5282839,https://maps.google.com/?cid=0x0:0x42df589cb51c6921,
komplek housing,Komplek perumahan,Riyanto,"QG5J+8XP, Guhung, Kec. Belimbing, Kabupaten Melawi, Kalimantan Barat","Kabupaten Melawi, Kalimantan Barat",KALIMANTAN BARAT,,Indonesia,,,,-0.2416502,111.5324561,https://maps.google.com/?cid=0x0:0xe69b35cc2234de2b,
komplek housing,komplek housing,Aji,"MHXX+2HG, Jl. PMKS SDK No.1, RW.1, Batu Buil, Kec. Belimbing, Kabupaten Melawi, Kalimantan Barat","Kabupaten Melawi, Kalimantan Barat",KALIMANTAN BARAT,,Indonesia,,,,-0.3022923,111.5995217,https://maps.google.com/?cid=0x0:0xf8e0d71780dba343,
komplek housing,Pembangunan Perumahan,Junjung permai,"GHP5+WGR, Junjung Permai, Kec. Belimbing Hulu, Kabupaten Melawi, Kalimantan Barat 79671","Junjung Permai, Kec. Belimbing Hulu, Kabupaten Melawi",KALIMANTAN BARAT,79671.0,Indonesia,,,,-0.4626374,111.5587544,https://maps.google.com/?cid=0x0:0xa4a3fd5c4422c8e2,
komplek housing,komplek housing,Kec. Belimbing,"Kabupaten Melawi, Kalimantan Barat","Kabupaten Melawi, Kalimantan Barat",KALIMANTAN BARAT,,Indonesia,,,,-0.4542631,111.4275888,https://maps.google.com/?cid=0x0:0x17da7a0f07bcce5c,
komplek housing,Komplek perumahan,Rumah Via,"MJWW+FHM, Pemuar, Kec. Belimbing, Kabupaten Melawi, Kalimantan Barat 79671","Pemuar, Kec. Belimbing, Kabupaten Melawi",KALIMANTAN BARAT,79671.0,Indonesia,,,,-0.3044946,111.646178,https://maps.google.com/?cid=0x0:0xe1f8238dea810c79,
komplek housing,Balai Pertemuan Desa,Desa pemuar,"JJWX+V7V, Pemuar, Kec. Belimbing, Kabupaten Melawi, Kalimantan Barat 79671","Pemuar, Kec. Belimbing, Kabupaten Melawi",KALIMANTAN BARAT,79671.0,Indonesia,,,,-0.352774,111.6481861,https://maps.google.com/?cid=0x0:0xcb78d5e9f8287246,
komplek housing,Komplek perumahan,Rumah saya,"MJ5G+XHM, Pemuar, Kec. Belimbing, Kabupaten Melawi, Kalimantan Barat 79671","Pemuar, Kec. Belimbing, Kabupaten Melawi",KALIMANTAN BARAT,79671.0,Indonesia,,,,-0.340029,111.6264179,https://maps.google.com/?cid=0x0:0xb5939200f043d6de,
komplek housing,Pembangunan Perumahan,Hamasya 19,"MGCC+53P, Beloyang, Kec. Belimbing Hulu, Kabupaten Melawi, Kalimantan Barat 79671","Beloyang, Kec. Belimbing Hulu, Kabupaten Melawi",KALIMANTAN BARAT,79671.0,Indonesia,,,,-0.3295466,111.5202064,https://maps.google.com/?cid=0x0:0x9433018cffa177b7,
komplek housing,Gereja,Rumah Pastory GKII Rhema,"Pemuar, Kec. Belimbing, Kabupaten Melawi, Kalimantan Barat 79671","Kec. Belimbing, Kabupaten Melawi",KALIMANTAN BARAT,79671.0,Indonesia,,,,-0.382716,111.6566296,https://maps.google.com/?cid=0x0:0xe84f876eed83fdb5,
komplek housing,komplek housing,Rumah pak Tanasir,"JGCR+78H, Tiong Keranji, Kec. Belimbing Hulu, Kabupaten Melawi, Kalimantan Barat 79671","Tiong Keranji, Kec. Belimbing Hulu, Kabupaten Melawi",KALIMANTAN BARAT,79671.0,Indonesia,,,,-0.3793238,111.540868,https://maps.google.com/?cid=0x0:0x2faab5e35441ca,
komplek housing,Komplek perumahan,Tempat Hp,"MHXX+G5X, Batu Buil, Kec. Belimbing, Kabupaten Melawi, Kalimantan Barat 79671","Batu Buil, Kec. Belimbing, Kabupaten Melawi",KALIMANTAN BARAT,79671.0,Indonesia,,,,-0.3011302,111.5979828,https://maps.google.com/?cid=0x0:0x615d79b85757f94e,
komplek housing,Pembangunan Perumahan,Bang Why,"JGCR+78H, Tiong Keranji, Kec. Belimbing Hulu, Kabupaten Melawi, Kalimantan Barat 79671","Tiong Keranji, Kec. Belimbing Hulu, Kabupaten Melawi",KALIMANTAN BARAT,79671.0,Indonesia,,,,-0.3793238,111.540868,https://maps.google.com/?cid=0x0:0xe6dd157834e2b8c3,
komplek housing,Pembangunan Perumahan,HOME MC BUNG BOY,"MGCC+W92, Beloyang, Kec. Belimbing Hulu, Kabupaten Melawi, Kalimantan Barat 79671","Beloyang, Kec. Belimbing Hulu, Kabupaten Melawi",KALIMANTAN BARAT,79671.0,Indonesia,85163595770.0,,,-0.3277481,111.5208757,https://maps.google.com/?cid=0x0:0xc7b1965a15dbd78f,
komplek housing,komplek housing,Kec. Belimbing Hulu,"Kabupaten Melawi, Kalimantan Barat","Kabupaten Melawi, Kalimantan Barat",KALIMANTAN BARAT,,Indonesia,,,,-0.3702887,111.5294943,https://maps.google.com/?cid=0x0:0x26dc94245ead4c2a,
komplek housing,Masjid,"Rumah mesjid al jihad, SDK 1","MHWW+X5G, Batu Buil, Kec. Belimbing, Kabupaten Melawi, Kalimantan Barat 79671","Batu Buil, Kec. Belimbing, Kabupaten Melawi",KALIMANTAN BARAT,79671.0,Indonesia,,,,-0.3025725,111.5954572,https://maps.google.com/?cid=0x0:0xe23385fcfc7ac7e0,
komplek housing,komplek housing,Lok jalan,"MG6M+2XJ, Beloyang, Kec. Belimbing Hulu, Kabupaten Melawi, Kalimantan Barat 79671","Beloyang, Kec. Belimbing Hulu, Kabupaten Melawi",KALIMANTAN BARAT,79671.0,Indonesia,,,,-0.3399125,111.5349059,https://maps.google.com/?cid=0x0:0x184cb9b12720f98d,
komplek housing,Perumahan,Mas AL,"PF5V+W6G, Belonsat, Kec. Belimbing, Kabupaten Melawi, Kalimantan Barat","Kabupaten Melawi, Kalimantan Barat",KALIMANTAN BARAT,,Indonesia,,,,-0.2901843,111.4930863,https://maps.google.com/?cid=0x0:0xe4578a7ec5dd7abe,
komplek housing,Komplek perumahan,Rumah HARTONO,"MGH4+V67, Beloyang, Kec. Belimbing Hulu, Kabupaten Melawi, Kalimantan Barat 79671","Beloyang, Kec. Belimbing Hulu, Kabupaten Melawi",KALIMANTAN BARAT,79671.0,Indonesia,,,,-0.3203815,111.5058848,https://maps.google.com/?cid=0x0:0xb95a7824d7149bb0,
komplek housing,Kantor Perusahaan,Rumah Dinas Pak Alex,"MHWW+XWX, Batu Buil, Kec. Belimbing, Kabupaten Melawi, Kalimantan Barat 79671","Batu Buil, Kec. Belimbing, Kabupaten Melawi",KALIMANTAN BARAT,79671.0,Indonesia,,,,-0.3025122,111.5973498,https://maps.google.com/?cid=0x0:0x7c735bfffed8b604,
komplek housing,komplek housing,Rumah pak Nasir Keranjik,"JGJH+362, Tiong Keranji, Kec. Belimbing Hulu, Kabupaten Melawi, Kalimantan Barat 79671","Tiong Keranji, Kec. Belimbing Hulu, Kabupaten Melawi",KALIMANTAN BARAT,79671.0,Indonesia,,,,-0.3704534,111.5282839,https://maps.google.com/?cid=0x0:0x42df589cb51c6921,
komplek housing,Komplek perumahan,Rumah Pak Harun Pendi,"MGP6+5F, Beloyang, Kec. Belimbing Hulu, Kabupaten Melawi, Kalimantan Barat","Kabupaten Melawi, Kalimantan Barat",KALIMANTAN BARAT,,Indonesia,,,,-0.3150289,111.5114105,https://maps.google.com/?cid=0x0:0xd962defd65c4137e,
komplek housing,Komplek perumahan,Rumah Pak Asong,"MGP5+8C, Beloyang, Kec. Belimbing Hulu, Kabupaten Melawi, Kalimantan Barat","Kabupaten Melawi, Kalimantan Barat",KALIMANTAN BARAT,,Indonesia,,,,-0.3142346,111.508619,https://maps.google.com/?cid=0x0:0x30f61e89ada7a0a4,
komplek housing,Komplek perumahan,Rumah budi,"PGX9+HX, Guhung, Kec. Belimbing, Kabupaten Melawi, Kalimantan Barat 78655","Guhung, Kec. Belimbing, Kabupaten Melawi",KALIMANTAN BARAT,78655.0,Indonesia,,,,-0.251073,111.519888,https://maps.google.com/?cid=0x0:0xa66ece8af62eebdc,
komplek housing,Komplek perumahan,Rumah Pak Jainal,"MFPJ+XR, Belonsat, Kec. Belimbing, Kabupaten Melawi, Kalimantan Barat","Kabupaten Melawi, Kalimantan Barat",KALIMANTAN BARAT,,Indonesia,,,,-0.3126149,111.4820943,https://maps.google.com/?cid=0x0:0x5b56dd771598bb6d,
komplek housing,Komplek perumahan,Perumahan,"PH7X+7C, Batu Buil, Kec. Belimbing, Kabupaten Melawi, Kalimantan Barat","Kabupaten Melawi, Kalimantan Barat",KALIMANTAN BARAT,,Indonesia,,,,-0.2868262,111.598478,https://maps.google.com/?cid=0x0:0x6902310d16f47bd2,
komplek housing,Komplek perumahan,Rumah kendra,"PJ32+J9, Batu Buil, Kec. Belimbing, Kabupaten Melawi, Kalimantan Barat","Kabupaten Melawi, Kalimantan Barat",KALIMANTAN BARAT,,Indonesia,,,,-0.2959601,111.6008961,https://maps.google.com/?cid=0x0:0x57ae5b4962309dcb,
komplek housing,Pembangunan Perumahan,Junjung permai,"GHP5+WGR, Junjung Permai, Kec. Belimbing Hulu, Kabupaten Melawi, Kalimantan Barat 79671","Junjung Permai, Kec. Belimbing Hulu, Kabupaten Melawi",KALIMANTAN BARAT,79671.0,Indonesia,,,,-0.4626374,111.5587544,https://maps.google.com/?cid=0x0:0xa4a3fd5c4422c8e2,
komplek housing,Pembangunan Perumahan,Hamasya 19,"MGCC+53P, Beloyang, Kec. Belimbing Hulu, Kabupaten Melawi, Kalimantan Barat 79671","Beloyang, Kec. Belimbing Hulu, Kabupaten Melawi",KALIMANTAN BARAT,79671.0,Indonesia,,,,-0.3295466,111.5202064,https://maps.google.com/?cid=0x0:0x9433018cffa177b7,
komplek housing,komplek housing,PERUM PT AAC,"MGJ4+7WX, Beloyang, Kec. Belimbing Hulu, Kabupaten Melawi, Kalimantan Barat","Kabupaten Melawi, Kalimantan Barat",KALIMANTAN BARAT,,Indonesia,,,,-0.320154,111.507488,https://maps.google.com/?cid=0x0:0x388a79dd0a10c637,
komplek housing,Pembangunan Perumahan,Bang Why,"JGCR+78H, Tiong Keranji, Kec. Belimbing Hulu, Kabupaten Melawi, Kalimantan Barat 79671","Tiong Keranji, Kec. Belimbing Hulu, Kabupaten Melawi",KALIMANTAN BARAT,79671.0,Indonesia,,,,-0.3793238,111.540868,https://maps.google.com/?cid=0x0:0xe6dd157834e2b8c3,
komplek housing,komplek housing,Batu ampar,"PFCG+F4M, Belonsat, Kec. Belimbing, Kabupaten Melawi, Kalimantan Barat","Kabupaten Melawi, Kalimantan Barat",KALIMANTAN BARAT,,Indonesia,,,,-0.2787808,111.4752851,https://maps.google.com/?cid=0x0:0x15abcbd4c6e5a97,
komplek housing,komplek housing,Rumah pak Tanasir,"JGCR+78H, Tiong Keranji, Kec. Belimbing Hulu, Kabupaten Melawi, Kalimantan Barat 79671","Tiong Keranji, Kec. Belimbing Hulu, Kabupaten Melawi",KALIMANTAN BARAT,79671.0,Indonesia,,,,-0.3793238,111.540868,https://maps.google.com/?cid=0x0:0x2faab5e35441ca,
komplek housing,Pembangunan Perumahan,Perumahan Barunia,"PFCG+F4M, Belonsat, Kec. Belimbing, Kabupaten Melawi, Kalimantan Barat","Kabupaten Melawi, Kalimantan Barat",KALIMANTAN BARAT,,Indonesia,,,,-0.2787808,111.4752851,https://maps.google.com/?cid=0x0:0xba0104d5b0dbdb6f,
komplek housing,Perumahan,Rayon Batu Buil PSHT,"PJ46+VQG, Batu Buil, Kec. Belimbing, Kabupaten Melawi, Kalimantan Barat 79671","Batu Buil, Kec. Belimbing, Kabupaten Melawi",KALIMANTAN BARAT,79671.0,Indonesia,81545503031.0,,,-0.292042,111.61197,https://maps.google.com/?cid=0x0:0xf75f08b3fd081f71,
komplek housing,Komplek perumahan,Pendopo mas Eko H,"MGJ4+R33, Beloyang, Kec. Belimbing Hulu, Kabupaten Melawi, Kalimantan Barat 79671","Beloyang, Kec. Belimbing Hulu, Kabupaten Melawi",KALIMANTAN BARAT,79671.0,Indonesia,,,,-0.3179997,111.5051727,https://maps.google.com/?cid=0x0:0xad6d8a17c692f335,
komplek housing,Komplek perumahan,Rumah tajus,"MGC7+33V, Beloyang, Kec. Belimbing Hulu, Kabupaten Melawi, Kalimantan Barat 79671","Beloyang, Kec. Belimbing Hulu, Kabupaten Melawi",KALIMANTAN BARAT,79671.0,Indonesia,,,,-0.3297539,111.5126645,https://maps.google.com/?cid=0x0:0x8fc3f92f0be103cd,
komplek housing,Inspektur Tempat Tinggal,Rumah Pak Budiyarno,"JGCJ+PG, Beloyang, Kec. Belimbing Hulu, Kabupaten Melawi, Kalimantan Barat 79671","Beloyang, Kec. Belimbing Hulu, Kabupaten Melawi",KALIMANTAN BARAT,79671.0,Indonesia,,,,-0.3781944,111.5312951,https://maps.google.com/?cid=0x0:0x506bdb3573fc186d,
komplek housing,Pembangunan Perumahan,Haji SADIMAN,"MG6M+2XJ, Beloyang, Kec. Belimbing Hulu, Kabupaten Melawi, Kalimantan Barat 79671","Beloyang, Kec. Belimbing Hulu, Kabupaten Melawi",KALIMANTAN BARAT,79671.0,Indonesia,,,,-0.3399125,111.5349059,https://maps.google.com/?cid=0x0:0xf4e052cd60a8e37b,
komplek housing,komplek housing,Rumah pak Tanasir Tiong Keranjik,"JGHH+X3G, Desa, Tiong Keranji, Kec. Belimbing Hulu, Kabupaten Melawi, Kalimantan Barat 79671","Desa, Tiong Keranji, Kec. Belimbing Hulu, Kabupaten Melawi",KALIMANTAN BARAT,79671.0,Indonesia,,,,-0.3701897,111.5277308,https://maps.google.com/?cid=0x0:0x3e09db92889014e,
komplek housing,Pembangunan Perumahan,Rumah Meisya Maheswari,"JGCR+78H, Tiong Keranji, Kec. Belimbing Hulu, Kabupaten Melawi, Kalimantan Barat 79671","Tiong Keranji, Kec. Belimbing Hulu, Kabupaten Melawi",KALIMANTAN BARAT,79671.0,Indonesia,,,,-0.3793238,111.540868,https://maps.google.com/?cid=0x0:0x5eed7acdf06e23fd,
komplek housing,Komplek perumahan,Rumah Tajus arsya,"MG6M+2XJ, Beloyang, Kec. Belimbing Hulu, Kabupaten Melawi, Kalimantan Barat 79671","Beloyang, Kec. Belimbing Hulu, Kabupaten Melawi",KALIMANTAN BARAT,79671.0,Indonesia,,,,-0.3399125,111.5349059,https://maps.google.com/?cid=0x0:0x17b436b4771230d6,
komplek housing,komplek housing,Kalimantan Barat 79681,"Kabupaten Melawi, Kalimantan Barat","Kabupaten Melawi, Kalimantan Barat",KALIMANTAN BARAT,,Indonesia,,,,-0.5928174,111.9999435,https://maps.google.com/?cid=0x0:0x56ab64304e08062b,
komplek housing,Perhimpunan Pengembang Perumahan,Ella 1 ( batu menangis ),"G2CG+V9, Nanga Kalan, Kec. Ella Hilir, Kabupaten Melawi, Kalimantan Barat","Kabupaten Melawi, Kalimantan Barat",KALIMANTAN BARAT,,Indonesia,,,,-0.4778116,112.0258974,https://maps.google.com/?cid=0x0:0xcc3fa49a41d46055,
komplek housing,Komplek perumahan,Rumah Masrokan,"J232+C37, Nanga Ella Hilir, Kec. Ella Hilir, Kabupaten Melawi, Kalimantan Barat 79681","Nanga Ella Hilir, Kec. Ella Hilir, Kabupaten Melawi",KALIMANTAN BARAT,79681.0,Indonesia,,,,-0.3968434,112.0001308,https://maps.google.com/?cid=0x0:0xb80be64305072ef2,
komplek housing,Perhimpunan Pengembang Perumahan,Rumah Dores,"H2P3+HCJ, Nanga Ella Hilir, Kec. Ella Hilir, Kabupaten Melawi, Kalimantan Barat 79681","Nanga Ella Hilir, Kec. Ella Hilir, Kabupaten Melawi",KALIMANTAN BARAT,79681.0,Indonesia,,,,-0.4129141,112.0036058,https://maps.google.com/?cid=0x0:0x9b9c71a01698a657,
komplek housing,Komplek perumahan,Rumah Farel,"H2W3+8VJ, Nanga Ella Hilir, Kec. Ella Hilir, Kabupaten Melawi, Kalimantan Barat 79681","Nanga Ella Hilir, Kec. Ella Hilir, Kabupaten Melawi",KALIMANTAN BARAT,79681.0,Indonesia,,,,-0.4041755,112.0046568,https://maps.google.com/?cid=0x0:0x8d8fa361f0a87ac1,
komplek housing,Pembangunan Perumahan,Liman,"H3FR+6C, Domet Permai, Kec. Ella Hilir, Kabupaten Melawi, Kalimantan Barat","Kabupaten Melawi, Kalimantan Barat",KALIMANTAN BARAT,,Indonesia,,,,-0.4269603,112.0901503,https://maps.google.com/?cid=0x0:0x96fce191c5770861,
komplek housing,Perhimpunan Pengembang Perumahan,Tanjung Biru,"J2GF+RXR, Lengkong Nyadom, Kec. Ella Hilir, Kabupaten Melawi, Kalimantan Barat 79681","Lengkong Nyadom, Kec. Ella Hilir, Kabupaten Melawi",KALIMANTAN BARAT,79681.0,Indonesia,,,,-0.3719195,112.0250738,https://maps.google.com/?cid=0x0:0x30eeae37edc0d9ad,
komplek housing,Komplek perumahan,Rumah Bang Frew,"H2X3+V88, Nanga Ella Hilir, Kec. Ella Hilir, Kabupaten Melawi, Kalimantan Barat 79681","Nanga Ella Hilir, Kec. Ella Hilir, Kabupaten Melawi",KALIMANTAN BARAT,79681.0,Indonesia,,,,-0.4001668,112.0035638,https://maps.google.com/?cid=0x0:0xff776828b7c10cbd,
komplek housing,Pembangunan Perumahan,Rumah Dores,"83QF+VF, Kerangan Kora, Kec. Ella Hilir, Kabupaten Melawi, Kalimantan Barat","Kabupaten Melawi, Kalimantan Barat",KALIMANTAN BARAT,,Indonesia,,,,-0.6603494,112.0736404,https://maps.google.com/?cid=0x0:0x4f3c320b72fbe3ba,
komplek housing,komplek housing,Kec. Ella Hilir,"Kabupaten Melawi, Kalimantan Barat","Kabupaten Melawi, Kalimantan Barat",KALIMANTAN BARAT,,Indonesia,,,,-0.5222196,112.0953297,https://maps.google.com/?cid=0x0:0x327ba57c5d1172b2,
komplek housing,komplek housing,Menukung,"Nanga Ella Hulu, Kec. Menukung, Kabupaten Melawi, Kalimantan Barat","Kabupaten Melawi, Kalimantan Barat",KALIMANTAN BARAT,,Indonesia,,,,-0.395657,112.1717,https://maps.google.com/?cid=0x0:0x8d04b3ff9fa0089c,
komplek housing,komplek housing,Nanga Pinoh,"Sidomulyo, Kec. Nanga Pinoh, Kabupaten Melawi, Kalimantan Barat","Kabupaten Melawi, Kalimantan Barat",KALIMANTAN BARAT,,Indonesia,,,,-0.331892,111.733398,https://maps.google.com/?cid=0x0:0x1b19b0cfdd74bdad,
komplek housing,Komplek perumahan,desa Sidomulyo Nanga Pinoh kab,"MP9M+69R, Sidomulyo, Kec. Nanga Pinoh, Kabupaten Melawi, Kalimantan Barat","Kabupaten Melawi, Kalimantan Barat",KALIMANTAN BARAT,,Indonesia,,,,-0.331892,111.733398,https://maps.google.com/?cid=0x0:0xa05e719c7676ce96,
komplek housing,Komplek perumahan,Kp pertanian,"MP9M+69R, Sidomulyo, Kec. Nanga Pinoh, Kabupaten Melawi, Kalimantan Barat","Kabupaten Melawi, Kalimantan Barat",KALIMANTAN BARAT,,Indonesia,85654258963.0,,,-0.331892,111.733398,https://maps.google.com/?cid=0x0:0x4ab301d85a957c75,
komplek housing,Komplek perumahan,Rumah Zia,"MP9J+9W4, Dusun Mekar Sari, Sidomulyo, Kec. Nanga Pinoh, Kabupaten Melawi, Kalimantan Barat 79672","Dusun Mekar Sari, Sidomulyo, Kec. Nanga Pinoh, Kabupaten Melawi",KALIMANTAN BARAT,79672.0,Indonesia,,,,-0.3316125,111.7323281,https://maps.google.com/?cid=0x0:0xde4c0e61b2b2c085,
komplek housing,Komplek perumahan,Benny House,"MP9M+69R, gang taubat, Sidomulyo, Kec. Nanga Pinoh, Kabupaten Melawi, Kalimantan Barat","Kabupaten Melawi, Kalimantan Barat",KALIMANTAN BARAT,,Indonesia,,,,-0.331892,111.733398,https://maps.google.com/?cid=0x0:0x1830d4ed4dbd9c4c,
komplek housing,Komplek perumahan,HOME KOMDISC,"MP9M+69R, Jl Kota Baru GG Berkah, Sidomulyo, Kec. Nanga Pinoh, Kabupaten Melawi, Kalimantan Barat","Kabupaten Melawi, Kalimantan Barat",KALIMANTAN BARAT,,Indonesia,,,,-0.331892,111.733398,https://maps.google.com/?cid=0x0:0x988df7f627f974ba,
komplek housing,Komplek perumahan,Mickaeldirkido,"MP9M+69R, Sidomulyo, Kec. Nanga Pinoh, Kabupaten Melawi, Kalimantan Barat","Kabupaten Melawi, Kalimantan Barat",KALIMANTAN BARAT,,Indonesia,,,,-0.331892,111.733398,https://maps.google.com/?cid=0x0:0x8ffbc1f1a65ce7ff,
komplek housing,Komplek perumahan,Perumahan Griya Selama Indah,"Jl. Cemp. No.26, Paal, Kec. Nanga Pinoh, Kabupaten Melawi, Kalimantan Barat 79672","Paal, Kec. Nanga Pinoh, Kabupaten Melawi",KALIMANTAN BARAT,79672.0,Indonesia,81257627375.0,,,-0.3311589,111.7388479,https://maps.google.com/?cid=0x0:0x3b87ab5e7092c814,
komplek housing,Rumah Pondokan,Kosan pak bambang,"MP9M+69R, Sidomulyo, Kec. Nanga Pinoh, Kabupaten Melawi, Kalimantan Barat","Kabupaten Melawi, Kalimantan Barat",KALIMANTAN BARAT,,Indonesia,,,,-0.331892,111.733398,https://maps.google.com/?cid=0x0:0x54da6cfbe0079bf5,
komplek housing,Komplek perumahan,BTN TELKOM,"MP6W+HPC, Paal, Kec. Nanga Pinoh, Kabupaten Melawi, Kalimantan Barat 79672","Paal, Kec. Nanga Pinoh, Kabupaten Melawi",KALIMANTAN BARAT,79672.0,Indonesia,,,,-0.3385745,111.7467557,https://maps.google.com/?cid=0x0:0x27b2e3e344d32700,
komplek housing,Komplek perumahan,Nanga pinuh,"MP8P+5Q6, Duduk tanah Tinggi, RT.001/RW.004, Tj. Niaga, Kec. Nanga Pinoh","Kabupaten Melawi, Kalimantan Barat",KALIMANTAN BARAT,,Indonesia,,,,-0.3345803,111.7368939,https://maps.google.com/?cid=0x0:0x10fffc4a4471348d,
komplek housing,komplek housing,Kalimantan Barat 79672,"Kabupaten Melawi, Kalimantan Barat","Kabupaten Melawi, Kalimantan Barat",KALIMANTAN BARAT,,Indonesia,,,,-0.4530658,111.8091625,https://maps.google.com/?cid=0x0:0xf8a34da63da634fa,
komplek housing,Komplek perumahan,Home,"MP4W+CJ5, Jl. Juang, Paal, Kec. Nanga Pinoh, Kabupaten Melawi, Kalimantan Barat 79672","Jl. Juang, Paal, Kec. Nanga Pinoh, Kabupaten Melawi",KALIMANTAN BARAT,79672.0,Indonesia,,,,-0.3439788,111.746595,https://maps.google.com/?cid=0x0:0x116ee3c61dbdde6,
komplek housing,Komplek perumahan,Rumah edo,"JQX4+VCC, Paal, Kec. Nanga Pinoh, Kabupaten Melawi, Kalimantan Barat 79672","Paal, Kec. Nanga Pinoh, Kabupaten Melawi",KALIMANTAN BARAT,79672.0,Indonesia,,,,-0.3505239,111.7556784,https://maps.google.com/?cid=0x0:0xdeffb351bc8bbfb7,
komplek housing,Komplek perumahan,Rumah Lenno,"MP8W+XC4, Jl. Nawawi, Paal, Kec. Nanga Pinoh, Kabupaten Melawi, Kalimantan Barat 79672","Jl. Nawawi, Paal, Kec. Nanga Pinoh, Kabupaten Melawi",KALIMANTAN BARAT,79672.0,Indonesia,,,,-0.3326118,111.746088,https://maps.google.com/?cid=0x0:0x23171e5b1e38b29f,
komplek housing,Komplek perumahan,Rumah Diana Pangesta,"JQJ5+JCJ, Gg. Abdul Hamid, Kelakik, Kec. Nanga Pinoh, Kabupaten Melawi, Kalimantan Barat 79672","Gg. Abdul Hamid, Kelakik, Kec. Nanga Pinoh, Kabupaten Melawi",KALIMANTAN BARAT,79672.0,Indonesia,,,,-0.3684054,111.7585042,https://maps.google.com/?cid=0x0:0x50c00d0dc42cef35,
komplek housing,Komplek perumahan,Perumahan Borneo Mandiri,"JQ99+JHG, Jl. Lintas Kalimantan Poros Tengah, Kelakik, Kec. Nanga Pinoh, Kabupaten Melawi, Kalimantan Barat 79672","Jl. Lintas Kalimantan Poros Tengah, Kelakik, Kec. Nanga Pinoh, Kabupaten Melawi",KALIMANTAN BARAT,79672.0,Indonesia,,,,-0.380936,111.7689451,https://maps.google.com/?cid=0x0:0x6eff47489c72093f,
komplek housing,Komplek perumahan,Rumah Pak Syafarudin,"MP8G+422, Sidomulyo, Kec. Nanga Pinoh, Kabupaten Melawi, Kalimantan Barat 79672","Sidomulyo, Kec. Nanga Pinoh, Kabupaten Melawi",KALIMANTAN BARAT,79672.0,Indonesia,,,,-0.3347395,111.7250293,https://maps.google.com/?cid=0x0:0x55b896b291ae9143,
komplek housing,Komplek perumahan,Dhons Village,"MQ27+57, Kelakik, Kec. Nanga Pinoh, Kabupaten Melawi, Kalimantan Barat 79672","Kelakik, Kec. Nanga Pinoh, Kabupaten Melawi",KALIMANTAN BARAT,79672.0,Indonesia,,,,-0.3495923,111.7631264,https://maps.google.com/?cid=0x0:0x30f4624db86479a8,
komplek housing,Komplek perumahan,Rumah Bernadus,"MP5R+WFC, Jl. Patikrama, Kenual, Kec. Nanga Pinoh, Kabupaten Melawi, Kalimantan Barat 79672","Jl. Patikrama, Kenual, Kec. Nanga Pinoh, Kabupaten Melawi",KALIMANTAN BARAT,79672.0,Indonesia,,,,-0.3401854,111.7411462,https://maps.google.com/?cid=0x0:0x55ea531d3f2a5508,
komplek housing,Komplek perumahan,My Home(heri),"GQXX+4QF, Jl. Mangga, Manggala, Kec. Pinoh Sel., Kabupaten Melawi, Kalimantan Barat 79672","Jl. Mangga, Manggala, Kec. Pinoh Sel., Kabupaten Melawi",KALIMANTAN BARAT,79672.0,Indonesia,,,,-0.4521784,111.7994364,https://maps.google.com/?cid=0x0:0xc6dd2922be5ccc96,
komplek housing,Komplek perumahan,Rumah P. Sishadi ayam,"JMHV+RXQ, Tj. Sari, Kec. Nanga Pinoh, Kabupaten Melawi, Kalimantan Barat 79672","Tj. Sari, Kec. Nanga Pinoh, Kabupaten Melawi",KALIMANTAN BARAT,79672.0,Indonesia,,,,-0.370709,111.6952252,https://maps.google.com/?cid=0x0:0xe611f7b9b39c57fb,
komplek housing,Komplek perumahan,My Sweet Home,"MP7J+F9J, Dsn.Rondah Permai, Baru, Nanga Pinoh, Melawi Regency, West Kalimantan","Kabupaten Melawi, Kalimantan Barat",KALIMANTAN BARAT,,Indonesia,,,,-0.336283,111.7308886,https://maps.google.com/?cid=0x0:0xa949571c7e09b2a1,
komplek housing,Tempat Ibadah,Komplek Prawindo,"MQ43+JVV, Paal, Kec. Nanga Pinoh, Kabupaten Melawi, Kalimantan Barat 79672","Paal, Kec. Nanga Pinoh, Kabupaten Melawi",KALIMANTAN BARAT,79672.0,Indonesia,,,,-0.3433837,111.7546738,https://maps.google.com/?cid=0x0:0xef69dcf6583aa0f3,
komplek housing,komplek housing,Warung Hanif.,"Gg. Mangga No.Blok K, Sidomulyo, Nanga Pinoh, Melawi Regency, West Kalimantan 79672","Sidomulyo, Nanga Pinoh, Melawi Regency",KALIMANTAN BARAT,79672.0,Indonesia,,,,-0.3361911,111.7312215,https://maps.google.com/?cid=0x0:0x4213838c00c45a5d,
komplek housing,Komplek perumahan,Rumah Angga,"JRQ3+G83, Tj. Paoh, Kec. Pinoh Utara, Kabupaten Melawi, Kalimantan Barat 79672","Tj. Paoh, Kec. Pinoh Utara, Kabupaten Melawi",KALIMANTAN BARAT,79672.0,Indonesia,,,,-0.3609301,111.8041133,https://maps.google.com/?cid=0x0:0xe9db565e0db743a9,
komplek housing,Komplek perumahan,Ridha Home,"JQX3+JQF, Paal, Kec. Nanga Pinoh, Kabupaten Melawi, Kalimantan Barat 79672","Paal, Kec. Nanga Pinoh, Kabupaten Melawi",KALIMANTAN BARAT,79672.0,Indonesia,,,,-0.3509347,111.7544361,https://maps.google.com/?cid=0x0:0x8eb4ca0ced4ea746,
komplek housing,Komplek perumahan,Rumah saya,"JQWJ+497, Paal, Kec. Nanga Pinoh, Kabupaten Melawi, Kalimantan Barat 79672","Paal, Kec. Nanga Pinoh, Kabupaten Melawi",KALIMANTAN BARAT,79672.0,Indonesia,,,,-0.3552432,111.7800647,https://maps.google.com/?cid=0x0:0x56c29f4d0de520fe,
komplek housing,Komplek perumahan,Gang. H. Abdul Manan,"MP5V+3PR, Gg. H. Abdul Manan, Kenual, Kec. Nanga Pinoh, Kabupaten Melawi, Kalimantan Barat 79672","Gg. H. Abdul Manan, Kenual, Kec. Nanga Pinoh, Kabupaten Melawi",KALIMANTAN BARAT,79672.0,Indonesia,,,,-0.3423253,111.7442521,https://maps.google.com/?cid=0x0:0xb40dfae589250a57,
komplek housing,Pembangunan Perumahan,epongbosroti,"GRQ4+VG3, Manggala, Kec. Pinoh Sel., Kabupaten Melawi, Kalimantan Barat 79672","Manggala, Kec. Pinoh Sel., Kabupaten Melawi",KALIMANTAN BARAT,79672.0,Indonesia,,,,-0.460363,111.8063089,https://maps.google.com/?cid=0x0:0x1aa63daaae984580,
komplek housing,Komplek perumahan,AA,"JQ69+82X, Tj. Lay, Kec. Nanga Pinoh, Kabupaten Melawi, Kalimantan Barat","Kabupaten Melawi, Kalimantan Barat",KALIMANTAN BARAT,,Indonesia,,,,-0.3891465,111.7676123,https://maps.google.com/?cid=0x0:0x4f10ede755ce6754,
komplek housing,Kantor Pemerintah,DESA MANDAU BARU,"9RP2+6C, Mandau Baru, Kec. Pinoh Sel., Kabupaten Melawi, Kalimantan Barat 79672","Mandau Baru, Kec. Pinoh Sel., Kabupaten Melawi",KALIMANTAN BARAT,79672.0,Indonesia,,,,-0.6145067,111.801064,https://maps.google.com/?cid=0x0:0x8a4016e720631009,
komplek housing,Komplek perumahan,MADIN BUSTANUT THOLABAH,"Landau Garong, Kec. Pinoh Sel., Kabupaten Melawi, Kalimantan Barat 79672","Kec. Pinoh Sel., Kabupaten Melawi",KALIMANTAN BARAT,79672.0,Indonesia,,,,-0.5061952,111.8357987,https://maps.google.com/?cid=0x0:0xcb44de3713266e41,
komplek housing,Kantor Perusahaan,Komplek rumah dinas DPRD Melawi,"JQV4+7C4, Jl. Lintas Kalimantan Poros Tengah, Paal, Kec. Nanga Pinoh, Kabupaten Melawi, Kalimantan Barat 79672","Jl. Lintas Kalimantan Poros Tengah, Paal, Kec. Nanga Pinoh, Kabupaten Melawi",KALIMANTAN BARAT,79672.0,Indonesia,,,,-0.3561813,111.7560494,https://maps.google.com/?cid=0x0:0xf60d4821e0b5058,
komplek housing,Perumahan,Along iqbal,"JQF4+Q4R, Tj. Lay, Kec. Nanga Pinoh, Kabupaten Melawi, Kalimantan Barat 79672","Tj. Lay, Kec. Nanga Pinoh, Kabupaten Melawi",KALIMANTAN BARAT,79672.0,Indonesia,,,,-0.3751512,111.7553467,https://maps.google.com/?cid=0x0:0xd5c75b1e02bac121,
komplek housing,Perumahan,Rumah regi,"JRQ3+4Q6, Tj. Paoh, Kec. Pinoh Utara, Kabupaten Melawi, Kalimantan Barat 79672","Tj. Paoh, Kec. Pinoh Utara, Kabupaten Melawi",KALIMANTAN BARAT,79672.0,Indonesia,,,,-0.3622021,111.8043926,https://maps.google.com/?cid=0x0:0x7ce40c3f3517b1ec,
komplek housing,Kantor Pemerintah,Manggala,"MP5W+FQV, Jl. Marhaban, Paal, Kec. Nanga Pinoh, Kabupaten Melawi, Kalimantan Barat 79672","Jl. Marhaban, Paal, Kec. Nanga Pinoh, Kabupaten Melawi",KALIMANTAN BARAT,79672.0,Indonesia,,,,-0.3412646,111.7469312,https://maps.google.com/?cid=0x0:0xa7245db0df805d4c,
komplek housing,komplek housing,Kec. Pinoh Sel.,"Kabupaten Melawi, Kalimantan Barat","Kabupaten Melawi, Kalimantan Barat",KALIMANTAN BARAT,,Indonesia,,,,-0.4522997,111.7996551,https://maps.google.com/?cid=0x0:0x99bc41d7e1ad13cd,
komplek housing,Komplek perumahan,Rumah Agung Prasetyo Paling Ganteng,"MP7W+9GM, Gg. Babussalam, Paal, Kec. Nanga Pinoh, Kabupaten Melawi, Kalimantan Barat 79672","Gg. Babussalam, Paal, Kec. Nanga Pinoh, Kabupaten Melawi",KALIMANTAN BARAT,79672.0,Indonesia,,,,-0.3365429,111.746297,https://maps.google.com/?cid=0x0:0x5b077694fc660333,
komplek housing,Makanan Kecil,Rumah Doni,"GRR4+38P, Jl. Mengkirai, Manggala, Kec. Pinoh Sel., Kabupaten Melawi, Kalimantan Barat 79672","Jl. Mengkirai, Manggala, Kec. Pinoh Sel., Kabupaten Melawi",KALIMANTAN BARAT,79672.0,Indonesia,,,,-0.4597934,111.8058282,https://maps.google.com/?cid=0x0:0x44fb7d135a6ca773,
komplek housing,komplek housing,Kalimantan Barat 79672,"Kabupaten Melawi, Kalimantan Barat","Kabupaten Melawi, Kalimantan Barat",KALIMANTAN BARAT,,Indonesia,,,,-0.4530658,111.8091625,https://maps.google.com/?cid=0x0:0xf8a34da63da634fa,
komplek housing,Komplek perumahan,Home,"MP4W+CJ5, Jl. Juang, Paal, Kec. Nanga Pinoh, Kabupaten Melawi, Kalimantan Barat 79672","Jl. Juang, Paal, Kec. Nanga Pinoh, Kabupaten Melawi",KALIMANTAN BARAT,79672.0,Indonesia,,,,-0.3439788,111.746595,https://maps.google.com/?cid=0x0:0x116ee3c61dbdde6,
komplek housing,Komplek perumahan,D2T,"JPXR+V65, Kenual, Kec. Nanga Pinoh, Kabupaten Melawi, Kalimantan Barat 79672","Kenual, Kec. Nanga Pinoh, Kabupaten Melawi",KALIMANTAN BARAT,79672.0,Indonesia,,,,-0.3503559,111.7406215,https://maps.google.com/?cid=0x0:0x955bcac4b08b376b,
komplek housing,Komplek perumahan,Rumah edo,"JQX4+VCC, Paal, Kec. Nanga Pinoh, Kabupaten Melawi, Kalimantan Barat 79672","Paal, Kec. Nanga Pinoh, Kabupaten Melawi",KALIMANTAN BARAT,79672.0,Indonesia,,,,-0.3505239,111.7556784,https://maps.google.com/?cid=0x0:0xdeffb351bc8bbfb7,
komplek housing,Komplek perumahan,Rumah Lenno,"MP8W+XC4, Jl. Nawawi, Paal, Kec. Nanga Pinoh, Kabupaten Melawi, Kalimantan Barat 79672","Jl. Nawawi, Paal, Kec. Nanga Pinoh, Kabupaten Melawi",KALIMANTAN BARAT,79672.0,Indonesia,,,,-0.3326118,111.746088,https://maps.google.com/?cid=0x0:0x23171e5b1e38b29f,
komplek housing,Komplek perumahan,Rumah Diana Pangesta,"JQJ5+JCJ, Gg. Abdul Hamid, Kelakik, Kec. Nanga Pinoh, Kabupaten Melawi, Kalimantan Barat 79672","Gg. Abdul Hamid, Kelakik, Kec. Nanga Pinoh, Kabupaten Melawi",KALIMANTAN BARAT,79672.0,Indonesia,,,,-0.3684054,111.7585042,https://maps.google.com/?cid=0x0:0x50c00d0dc42cef35,
komplek housing,Perumahan,Rumah regi,"JRQ3+4Q6, Tj. Paoh, Kec. Pinoh Utara, Kabupaten Melawi, Kalimantan Barat 79672","Tj. Paoh, Kec. Pinoh Utara, Kabupaten Melawi",KALIMANTAN BARAT,79672.0,Indonesia,,,,-0.3622021,111.8043926,https://maps.google.com/?cid=0x0:0x7ce40c3f3517b1ec,
komplek housing,Komplek perumahan,Rumah Pak Syafarudin,"MP8G+422, Sidomulyo, Kec. Nanga Pinoh, Kabupaten Melawi, Kalimantan Barat 79672","Sidomulyo, Kec. Nanga Pinoh, Kabupaten Melawi",KALIMANTAN BARAT,79672.0,Indonesia,,,,-0.3347395,111.7250293,https://maps.google.com/?cid=0x0:0x55b896b291ae9143,
komplek housing,komplek housing,Warung Hanif.,"Gg. Mangga No.Blok K, Sidomulyo, Nanga Pinoh, Melawi Regency, West Kalimantan 79672","Sidomulyo, Nanga Pinoh, Melawi Regency",KALIMANTAN BARAT,79672.0,Indonesia,,,,-0.3361911,111.7312215,https://maps.google.com/?cid=0x0:0x4213838c00c45a5d,
komplek housing,Komplek perumahan,My Sweet Home,"MP7J+F9J, Dsn.Rondah Permai, Baru, Nanga Pinoh, Melawi Regency, West Kalimantan","Kabupaten Melawi, Kalimantan Barat",KALIMANTAN BARAT,,Indonesia,,,,-0.336283,111.7308886,https://maps.google.com/?cid=0x0:0xa949571c7e09b2a1,
komplek housing,Tempat Ibadah,Komplek Prawindo,"MQ43+JVV, Paal, Kec. Nanga Pinoh, Kabupaten Melawi, Kalimantan Barat 79672","Paal, Kec. Nanga Pinoh, Kabupaten Melawi",KALIMANTAN BARAT,79672.0,Indonesia,,,,-0.3433837,111.7546738,https://maps.google.com/?cid=0x0:0xef69dcf6583aa0f3,
komplek housing,Komplek perumahan,Perumahan Borneo Mandiri,"JQ99+JHG, Jl. Lintas Kalimantan Poros Tengah, Kelakik, Kec. Nanga Pinoh, Kabupaten Melawi, Kalimantan Barat 79672","Jl. Lintas Kalimantan Poros Tengah, Kelakik, Kec. Nanga Pinoh, Kabupaten Melawi",KALIMANTAN BARAT,79672.0,Indonesia,,,,-0.380936,111.7689451,https://maps.google.com/?cid=0x0:0x6eff47489c72093f,
komplek housing,Komplek perumahan,Rumah Bernadus,"MP5R+WFC, Jl. Patikrama, Kenual, Kec. Nanga Pinoh, Kabupaten Melawi, Kalimantan Barat 79672","Jl. Patikrama, Kenual, Kec. Nanga Pinoh, Kabupaten Melawi",KALIMANTAN BARAT,79672.0,Indonesia,,,,-0.3401854,111.7411462,https://maps.google.com/?cid=0x0:0x55ea531d3f2a5508,
komplek housing,Komplek perumahan,Rumah P. Sishadi ayam,"JMHV+RXQ, Tj. Sari, Kec. Nanga Pinoh, Kabupaten Melawi, Kalimantan Barat 79672","Tj. Sari, Kec. Nanga Pinoh, Kabupaten Melawi",KALIMANTAN BARAT,79672.0,Indonesia,,,,-0.370709,111.6952252,https://maps.google.com/?cid=0x0:0xe611f7b9b39c57fb,
komplek housing,Komplek perumahan,Dhons Village,"MQ27+57, Kelakik, Kec. Nanga Pinoh, Kabupaten Melawi, Kalimantan Barat 79672","Kelakik, Kec. Nanga Pinoh, Kabupaten Melawi",KALIMANTAN BARAT,79672.0,Indonesia,,,,-0.3495923,111.7631264,https://maps.google.com/?cid=0x0:0x30f4624db86479a8,
komplek housing,Komplek perumahan,AA,"JQ69+82X, Tj. Lay, Kec. Nanga Pinoh, Kabupaten Melawi, Kalimantan Barat","Kabupaten Melawi, Kalimantan Barat",KALIMANTAN BARAT,,Indonesia,,,,-0.3891465,111.7676123,https://maps.google.com/?cid=0x0:0x4f10ede755ce6754,
komplek housing,Komplek perumahan,Ridha Home,"JQX3+JQF, Paal, Kec. Nanga Pinoh, Kabupaten Melawi, Kalimantan Barat 79672","Paal, Kec. Nanga Pinoh, Kabupaten Melawi",KALIMANTAN BARAT,79672.0,Indonesia,,,,-0.3509347,111.7544361,https://maps.google.com/?cid=0x0:0x8eb4ca0ced4ea746,
komplek housing,Komplek perumahan,Rumah Rendy Kristendy,"MQ26+XM, Paal, Kec. Nanga Pinoh, Kabupaten Melawi, Kalimantan Barat","Kabupaten Melawi, Kalimantan Barat",KALIMANTAN BARAT,,Indonesia,,,,-0.3475514,111.7617079,https://maps.google.com/?cid=0x0:0xfd0f1d1fe496ac8b,
komplek housing,Komplek perumahan,My Home(heri),"GQXX+4QF, Jl. Mangga, Manggala, Kec. Pinoh Sel., Kabupaten Melawi, Kalimantan Barat 79672","Jl. Mangga, Manggala, Kec. Pinoh Sel., Kabupaten Melawi",KALIMANTAN BARAT,79672.0,Indonesia,,,,-0.4521784,111.7994364,https://maps.google.com/?cid=0x0:0xc6dd2922be5ccc96,
komplek housing,Komplek perumahan,Tempat penerima paket,"jl. smpn 02 rumah No.12, Sidomulyo, Kec. Nanga Pinoh, Kabupaten Melawi, Kalimantan Barat 79672","Sidomulyo, Kec. Nanga Pinoh, Kabupaten Melawi",KALIMANTAN BARAT,79672.0,Indonesia,,,,-0.3266944,111.7249195,https://maps.google.com/?cid=0x0:0xbb244c8c93a8420e,
komplek housing,Kantor Perusahaan,Komplek rumah dinas DPRD Melawi,"JQV4+7C4, Jl. Lintas Kalimantan Poros Tengah, Paal, Kec. Nanga Pinoh, Kabupaten Melawi, Kalimantan Barat 79672","Jl. Lintas Kalimantan Poros Tengah, Paal, Kec. Nanga Pinoh, Kabupaten Melawi",KALIMANTAN BARAT,79672.0,Indonesia,,,,-0.3561813,111.7560494,https://maps.google.com/?cid=0x0:0xf60d4821e0b5058,
komplek housing,Perumahan,Along iqbal,"JQF4+Q4R, Tj. Lay, Kec. Nanga Pinoh, Kabupaten Melawi, Kalimantan Barat 79672","Tj. Lay, Kec. Nanga Pinoh, Kabupaten Melawi",KALIMANTAN BARAT,79672.0,Indonesia,,,,-0.3751512,111.7553467,https://maps.google.com/?cid=0x0:0xd5c75b1e02bac121,
komplek housing,Otoritas Perumahan,Perumahan,"MP9R+54X, Nanga Pinoh - Ela Hilir, Paal, Kec. Nanga Pinoh, Kabupaten Melawi, Kalimantan Barat","Kabupaten Melawi, Kalimantan Barat",KALIMANTAN BARAT,,Indonesia,,,,-0.3320086,111.7403487,https://maps.google.com/?cid=0x0:0x554dab6edd96a6e2,
komplek housing,Komplek perumahan,Gang. H. Abdul Manan,"MP5V+3PR, Gg. H. Abdul Manan, Kenual, Kec. Nanga Pinoh, Kabupaten Melawi, Kalimantan Barat 79672","Gg. H. Abdul Manan, Kenual, Kec. Nanga Pinoh, Kabupaten Melawi",KALIMANTAN BARAT,79672.0,Indonesia,,,,-0.3423253,111.7442521,https://maps.google.com/?cid=0x0:0xb40dfae589250a57,
komplek housing,Komplek perumahan,MADIN BUSTANUT THOLABAH,"Landau Garong, Kec. Pinoh Sel., Kabupaten Melawi, Kalimantan Barat 79672","Kec. Pinoh Sel., Kabupaten Melawi",KALIMANTAN BARAT,79672.0,Indonesia,,,,-0.5061952,111.8357987,https://maps.google.com/?cid=0x0:0xcb44de3713266e41,
komplek housing,Komplek perumahan,BTN Borneo,"JQJH+2PH, Kelakik, Kec. Nanga Pinoh, Kabupaten Melawi, Kalimantan Barat 79672","Kelakik, Kec. Nanga Pinoh, Kabupaten Melawi",KALIMANTAN BARAT,79672.0,Indonesia,,,,-0.369947,111.7793523,https://maps.google.com/?cid=0x0:0x2f56278b6dea872b,
komplek housing,Komplek perumahan,Perumahan Guru SD,"P276+CP9, Engkurai, Kec. Pinoh Utara, Kabupaten Melawi, Kalimantan Barat","Kabupaten Melawi, Kalimantan Barat",KALIMANTAN BARAT,,Indonesia,,,,-0.2864555,112.0118669,https://maps.google.com/?cid=0x0:0xcd39396f410ff0ba,
komplek housing,Komplek perumahan,Rumah Agung Prasetyo Paling Ganteng,"MP7W+9GM, Gg. Babussalam, Paal, Kec. Nanga Pinoh, Kabupaten Melawi, Kalimantan Barat 79672","Gg. Babussalam, Paal, Kec. Nanga Pinoh, Kabupaten Melawi",KALIMANTAN BARAT,79672.0,Indonesia,,,,-0.3365429,111.746297,https://maps.google.com/?cid=0x0:0x5b077694fc660333,
komplek housing,komplek housing,Kec. Pinoh Utara,"Kabupaten Melawi, Kalimantan Barat","Kabupaten Melawi, Kalimantan Barat",KALIMANTAN BARAT,,Indonesia,,,,-0.3165404,111.762884,https://maps.google.com/?cid=0x0:0x3eb04f5b77d90147,
komplek housing,komplek housing,Kec. Sayan,"Kabupaten Melawi, Kalimantan Barat","Kabupaten Melawi, Kalimantan Barat",KALIMANTAN BARAT,,Indonesia,,,,-0.7351798,111.7137694,https://maps.google.com/?cid=0x0:0xcb7b1e938b494032,
komplek housing,komplek housing,Kalimantan Barat 79673,"Kec. Sayan, Kabupaten Melawi, Kalimantan Barat","Kabupaten Melawi, Kalimantan Barat",KALIMANTAN BARAT,,Indonesia,,,,-0.7351798,111.7137694,https://maps.google.com/?cid=0x0:0x6560f1dffd0c539e,
komplek housing,Komplek perumahan,Rumah Ipan,"7MPG+VJC, Nanga Sayan, Kec. Sayan, Kabupaten Melawi, Kalimantan Barat 79673","Nanga Sayan, Kec. Sayan, Kabupaten Melawi",KALIMANTAN BARAT,79673.0,Indonesia,,,,-0.7147566,111.6757511,https://maps.google.com/?cid=0x0:0x9e672dde11abb2f2,
komplek housing,Perumahan,Dusun Sanggau Mandiri,"8Q3Q+FGQ, Meta Bersatu, Kec. Sayan, Kabupaten Melawi, Kalimantan Barat 79673","Meta Bersatu, Kec. Sayan, Kabupaten Melawi",KALIMANTAN BARAT,79673.0,Indonesia,,,,-0.6962803,111.7888491,https://maps.google.com/?cid=0x0:0x9afd74fa5bd300b8,
komplek housing,Komplek perumahan,Berobai Permai,"9MC6+5FJ, Berobai Permai, Kec. Sayan, Kabupaten Melawi, Kalimantan Barat 79673","Berobai Permai, Kec. Sayan, Kabupaten Melawi",KALIMANTAN BARAT,79673.0,Indonesia,,,,-0.629536,111.6611562,https://maps.google.com/?cid=0x0:0x142d787d7be6612,
komplek housing,Komplek perumahan,Rumah Aontambora,"8P3J+VM6, Mekar Pelita, Kec. Sayan, Kabupaten Melawi, Kalimantan Barat 79673","Mekar Pelita, Kec. Sayan, Kabupaten Melawi",KALIMANTAN BARAT,79673.0,Indonesia,,,,-0.6953344,111.7316557,https://maps.google.com/?cid=0x0:0x3897a6eb97b411b8,
komplek housing,komplek housing,Sayan,"Kecamatan Ubud, Kabupaten Gianyar, Bali","Kabupaten Gianyar, Bali",KALIMANTAN BARAT,,Indonesia,,,,-8.5090428,115.2452322,https://maps.google.com/?cid=0x0:0x5030bfbca830f60,
komplek housing,komplek housing,Kalimantan Barat 79675,"Kabupaten Melawi, Kalimantan Barat","Kabupaten Melawi, Kalimantan Barat",KALIMANTAN BARAT,,Indonesia,,,,-1.0571933,111.3798928,https://maps.google.com/?cid=0x0:0x9429eb57dc989adc,
komplek housing,Pusat kebudayaan,kerangan panjang,"RCX2+GFW, Nanga Ora, Sokan, Kabupaten Melawi, Kalimantan Barat 79675","Nanga Ora, Sokan, Kabupaten Melawi",KALIMANTAN BARAT,79675.0,Indonesia,,,,-1.1511287,111.4012022,https://maps.google.com/?cid=0x0:0x9ee5e582a450907a,
komplek housing,Komplek perumahan,Cecep home,"Jalan No.3, Nanga Sokan, Sokan, Melawi Regency, West Kalimantan 79675","Nanga Sokan, Sokan, Melawi Regency",KALIMANTAN BARAT,79675.0,Indonesia,,,,-0.9028207,111.5011061,https://maps.google.com/?cid=0x0:0x4c8c83941e66a20c,
komplek housing,Komplek perumahan,Desa tanjung sokan,"3FWQ+9G9, Tj. Sokan, Sokan, Kabupaten Melawi, Kalimantan Barat","Kabupaten Melawi, Kalimantan Barat",KALIMANTAN BARAT,,Indonesia,,,,-0.9040983,111.488855,https://maps.google.com/?cid=0x0:0x21f2836403575759,
komplek housing,komplek housing,Desa Gelata,"XFPW+43P, Gelata, Sokan, Kabupaten Melawi, Kalimantan Barat 79675","Gelata, Sokan, Kabupaten Melawi",KALIMANTAN BARAT,79675.0,Indonesia,,,,-1.0146709,111.4952002,https://maps.google.com/?cid=0x0:0xc0d6409903cdc7ff,
komplek housing,Komplek perumahan,Home Kristian Natalyo,"2FG3+P8, Keluing Taja, Sokan, Kabupaten Melawi, Kalimantan Barat","Kabupaten Melawi, Kalimantan Barat",KALIMANTAN BARAT,,Indonesia,,,,-0.9738092,111.454032,https://maps.google.com/?cid=0x0:0xed8f6a2d34ec814d,
komplek housing,Komplek perumahan,TN. QADDI TATA MANHKU JEGARA,"3GV2+685, Nanga Sokan, Sokan, Kabupaten Melawi, Kalimantan Barat","Kabupaten Melawi, Kalimantan Barat",KALIMANTAN BARAT,,Indonesia,,,,-0.9069984,111.5008613,https://maps.google.com/?cid=0x0:0xbfa7ee8d10cc0d22,
komplek housing,Pembangunan Perumahan,Nanga sokan,"7MX8+XCG, Nanga Sayan, Kec. Sayan, Kabupaten Melawi, Kalimantan Barat","Kabupaten Melawi, Kalimantan Barat",KALIMANTAN BARAT,,Indonesia,,,,-0.7000681,111.6660725,https://maps.google.com/?cid=0x0:0x6e4d16c5a96fb102,
komplek housing,Komplek perumahan,Ummu Faal,"3GV2+H2P, Sepakat, Sokan, Kabupaten Melawi, Kalimantan Barat 79674","Sepakat, Sokan, Kabupaten Melawi",KALIMANTAN BARAT,79674.0,Indonesia,,,,-0.9060375,111.5000781,https://maps.google.com/?cid=0x0:0x79d513ff1ed4042c,
komplek housing,Komplek perumahan,Tengkanyang permai,"4F2P+3CX, Tj. Sokan, Sokan, Kabupaten Melawi, Kalimantan Barat","Kabupaten Melawi, Kalimantan Barat",KALIMANTAN BARAT,,Indonesia,,,,-0.899753,111.486099,https://maps.google.com/?cid=0x0:0x7cf0e9567d149bbe,
komplek housing,komplek housing,Rumah Daud,"4MQ7+RV, Nanga Kompi, Kec. Sayan, Kabupaten Melawi, Kalimantan Barat","Kabupaten Melawi, Kalimantan Barat",KALIMANTAN BARAT,,Indonesia,,,,-0.8603888,111.6646582,https://maps.google.com/?cid=0x0:0xbf0a62149d331907,
komplek housing,komplek housing,Sokan,"Kabupaten Melawi, Kalimantan Barat","Kabupaten Melawi, Kalimantan Barat",KALIMANTAN BARAT,,Indonesia,,,,-1.0571933,111.3798928,https://maps.google.com/?cid=0x0:0x9390df1f8b50a713,
komplek housing,Komplek perumahan,kavling trias ederra,"Jl. Raya Villa Bekasi Indah, Jejalenjaya, Kec. Tambun Utara, Kabupaten Bekasi, Jawa Barat 17510","Jejalenjaya, Kec. Tambun Utara, Kabupaten Bekasi",KALIMANTAN BARAT,17510.0,Indonesia,,,,-6.223737,107.0662187,https://maps.google.com/?cid=0x0:0x79f349b0ea7155a1,
komplek housing,komplek housing,Komplek Housing,"Blok Bojong Nangka I, Jl. Ring Rudal Blok Bojong Nangka I No.68, RT.001/RW.007, Jatirahayu, Kec. Pd. Melati, Kota Bks, Jawa Barat 17414","Jl. Ring Rudal Blok Bojong Nangka I No.68, RT.001/RW.007, Jatirahayu, Kec. Pd. Melati, Kota Bks",KALIMANTAN BARAT,17414.0,Indonesia,,,,-6.293724,106.9165114,https://maps.google.com/?cid=0x0:0x9c50464976dee674,
komplek housing,Komplek perumahan,LONGKUNG,"6G3R+66R, Tj. Gn., Kec. Tanah Pinoh, Kabupaten Melawi, Kalimantan Barat 79674","Tj. Gn., Kec. Tanah Pinoh, Kabupaten Melawi",KALIMANTAN BARAT,79674.0,Indonesia,,,,-0.7975146,111.540474,https://maps.google.com/?cid=0x0:0x5d33631aad9e64a,
komplek housing,komplek housing,Kec. Tanah Pinoh,"Kabupaten Melawi, Kalimantan Barat","Kabupaten Melawi, Kalimantan Barat",KALIMANTAN BARAT,,Indonesia,,,,-0.7945298,111.5460674,https://maps.google.com/?cid=0x0:0x6079bd527623d50e,
komplek housing,Komplek perumahan,Rumah keluarga kecil Bg Jeki,"6G4W+4JM, Batu Begigi, Kec. Tanah Pinoh, Kabupaten Melawi, Kalimantan Barat 79674","Batu Begigi, Kec. Tanah Pinoh, Kabupaten Melawi",KALIMANTAN BARAT,79674.0,Indonesia,,,,-0.7946601,111.5465609,https://maps.google.com/?cid=0x0:0xa44a8d3b6e70064c,
komplek housing,komplek housing,Dewi's Family,"6H65+7RW, Batu Begigi, Kec. Tanah Pinoh, Kabupaten Melawi, Kalimantan Barat 79674","Batu Begigi, Kec. Tanah Pinoh, Kabupaten Melawi",KALIMANTAN BARAT,79674.0,Indonesia,,,,-0.7892667,111.5595833,https://maps.google.com/?cid=0x0:0xb702272d159700b2,
komplek housing,Komplek perumahan,Rumah Munawir,"6H33+M8, Batu Begigi, Kec. Tanah Pinoh, Kabupaten Melawi, Kalimantan Barat","Kabupaten Melawi, Kalimantan Barat",KALIMANTAN BARAT,,Indonesia,,,,-0.7958006,111.553373,https://maps.google.com/?cid=0x0:0x15e18e84a8010072,
komplek housing,Komplek perumahan,Rumah Bg EN,"6G8P+RR, Suka Maju, Kec. Tanah Pinoh, Kabupaten Melawi, Kalimantan Barat","Kabupaten Melawi, Kalimantan Barat",KALIMANTAN BARAT,,Indonesia,,,,-0.782995,111.537025,https://maps.google.com/?cid=0x0:0x4cf64d49987b1394,
komplek housing,Komplek perumahan,Dusun Tombak,"6JG3+XMR, Bina Jaya, Kec. Tanah Pinoh, Kabupaten Melawi, Kalimantan Barat 79674","Bina Jaya, Kec. Tanah Pinoh, Kabupaten Melawi",KALIMANTAN BARAT,79674.0,Indonesia,,,,-0.7725041,111.6041482,https://maps.google.com/?cid=0x0:0x4aa47754941c9d54,
komplek housing,Komplek perumahan,NURDI RAMADANI S.P,"5GXQ+4J2, Loka Jaya, Kec. Tanah Pinoh, Kabupaten Melawi, Kalimantan Barat","Kabupaten Melawi, Kalimantan Barat",KALIMANTAN BARAT,,Indonesia,,,,-0.8026003,111.5387637,https://maps.google.com/?cid=0x0:0x4765cb0cc62240a8,
komplek housing,Komplek perumahan,Langkau urangk senganan aik pinoh,"6H36+PM5, Batu Begigi, Kec. Tanah Pinoh, Kabupaten Melawi, Kalimantan Barat 79674","Batu Begigi, Kec. Tanah Pinoh, Kabupaten Melawi",KALIMANTAN BARAT,79674.0,Indonesia,,,,-0.7957342,111.5617354,https://maps.google.com/?cid=0x0:0x71d92e0dd9e4319f,
komplek housing,komplek housing,Rumah nizar,"5GWR+435, Gang ketiti patah, Loka Jaya, Kec. Tanah Pinoh, Kabupaten Melawi, Kalimantan Barat 79674","Gang ketiti patah, Loka Jaya, Kec. Tanah Pinoh, Kabupaten Melawi",KALIMANTAN BARAT,79674.0,Indonesia,,,,-0.8047482,111.5402231,https://maps.google.com/?cid=0x0:0xf84463ad2d1e11a3,
komplek housing,Komplek perumahan,Rumah yot,"6H8M+53, Bina Karya, Kec. Tanah Pinoh, Kabupaten Melawi, Kalimantan Barat","Kabupaten Melawi, Kalimantan Barat",KALIMANTAN BARAT,,Indonesia,,,,-0.7845515,111.5826413,https://maps.google.com/?cid=0x0:0xe08e4ac4b9b67d1e,
komplek housing,Komplek perumahan,Maradona,"6G4W+QX3, Suka Maju, Kec. Tanah Pinoh, Kabupaten Melawi, Kalimantan Barat 79674","Suka Maju, Kec. Tanah Pinoh, Kabupaten Melawi",KALIMANTAN BARAT,79674.0,Indonesia,,,,-0.7922624,111.5466071,https://maps.google.com/?cid=0x0:0x38bcac421b947f6c,
komplek housing,Komplek perumahan,rumah dafa,"6G3W+254, Batu Begigi, Kec. Tanah Pinoh, Kabupaten Melawi, Kalimantan Barat 79674","Batu Begigi, Kec. Tanah Pinoh, Kabupaten Melawi",KALIMANTAN BARAT,79674.0,Indonesia,,,,-0.7974942,111.5454581,https://maps.google.com/?cid=0x0:0xf47e686d4940aed6,
komplek housing,Perhimpunan Pengembang Perumahan,DUSUN HARAPAN JAYA,"8GGM+8W5, Ulak Muid, Tanah Pinoh Bar., Kabupaten Melawi, Kalimantan Barat 79674","Ulak Muid, Tanah Pinoh Bar., Kabupaten Melawi",KALIMANTAN BARAT,79674.0,Indonesia,,,,-0.6742381,111.5348604,https://maps.google.com/?cid=0x0:0xf1b7113dcd6245a4,
komplek housing,Komplek perumahan,Langkau urangk senganan,"6G4X+593, Batu Begigi, Kec. Tanah Pinoh, Kabupaten Melawi, Kalimantan Barat 79674","Batu Begigi, Kec. Tanah Pinoh, Kabupaten Melawi",KALIMANTAN BARAT,79674.0,Indonesia,,,,-0.79491,111.547631,https://maps.google.com/?cid=0x0:0x8ae67878b9f64d6d,
komplek housing,komplek housing,Dusun jaya karya,"5G4M+QH, Madong Jaya, Kec. Tanah Pinoh, Kabupaten Melawi, Kalimantan Barat","Kabupaten Melawi, Kalimantan Barat",KALIMANTAN BARAT,,Indonesia,,,,-0.843016,111.5339904,https://maps.google.com/?cid=0x0:0x97cd13c6de96bbbe,
komplek housing,Komplek perumahan,BURHANSYAH,"6G3W+J92, Batu Begigi, Kec. Tanah Pinoh, Kabupaten Melawi, Kalimantan Barat 79674","Batu Begigi, Kec. Tanah Pinoh, Kabupaten Melawi",KALIMANTAN BARAT,79674.0,Indonesia,,,,-0.7952065,111.5457498,https://maps.google.com/?cid=0x0:0x9f5edf716f006229,
komplek housing,Komplek perumahan,Batu begigi,"6G4X+593, Batu Begigi, Kec. Tanah Pinoh, Kabupaten Melawi, Kalimantan Barat 79674","Batu Begigi, Kec. Tanah Pinoh, Kabupaten Melawi",KALIMANTAN BARAT,79674.0,Indonesia,,,,-0.794867,111.547572,https://maps.google.com/?cid=0x0:0x6b213319b6acac41,
komplek housing,Komplek perumahan,Rumah kak eka,"6G3W+CFC, Baru, Bata Luar, Kec. Tanah Pinoh, Kabupaten Melawi, Kalimantan Barat","Kabupaten Melawi, Kalimantan Barat",KALIMANTAN BARAT,,Indonesia,,,,-0.7964483,111.5461253,https://maps.google.com/?cid=0x0:0xb20f0d20898dbe93,
komplek housing,Komplek perumahan,Mursalin (mor kange),"5GWQ+3G4, Loka Jaya, Kec. Tanah Pinoh, Kabupaten Melawi, Kalimantan Barat","Kabupaten Melawi, Kalimantan Barat",KALIMANTAN BARAT,,Indonesia,,,,-0.8048713,111.5388341,https://maps.google.com/?cid=0x0:0xdfbf1da0ebe80a1f,
komplek housing,Komplek perumahan,perumahan bapak Sitorus,"5GCH+8HP, Keranjik, Kec. Tanah Pinoh, Kabupaten Melawi, Kalimantan Barat 79674","Keranjik, Kec. Tanah Pinoh, Kabupaten Melawi",KALIMANTAN BARAT,79674.0,Indonesia,,,,-0.8291737,111.5289438,https://maps.google.com/?cid=0x0:0x29577a1d91b8f39d,
komplek housing,Komplek perumahan,Perumahan mansur,"5GJR+QF, Keranjik, Kec. Tanah Pinoh, Kabupaten Melawi, Kalimantan Barat","Kabupaten Melawi, Kalimantan Barat",KALIMANTAN BARAT,,Indonesia,,,,-0.818057,111.541193,https://maps.google.com/?cid=0x0:0xc2490dbca6612183,
komplek housing,Komplek perumahan,Rumah Rosni M/Atot,"6H36+PM5, Dusun Tanjung kenaya, Batu Begigi, Kec. Tanah Pinoh, Kabupaten Melawi, Kalimantan Barat 79674","Dusun Tanjung kenaya, Batu Begigi, Kec. Tanah Pinoh, Kabupaten Melawi",KALIMANTAN BARAT,79674.0,Indonesia,,,,-0.7957342,111.5617354,https://maps.google.com/?cid=0x0:0xb87717ed250c3b7f,
komplek housing,Komplek perumahan,Martarida,"6H75+VX5, Batu Begigi, Kec. Tanah Pinoh, Kabupaten Melawi, Kalimantan Barat 79674","Batu Begigi, Kec. Tanah Pinoh, Kabupaten Melawi",KALIMANTAN BARAT,79674.0,Indonesia,,,,-0.7853611,111.5599716,https://maps.google.com/?cid=0x0:0x92070fe78cc7b9a0,
komplek housing,Komplek perumahan,Rumah Dayang Erniyati,"6H36+PM5, Batu Begigi, Kec. Tanah Pinoh, Kabupaten Melawi, Kalimantan Barat 79674","Batu Begigi, Kec. Tanah Pinoh, Kabupaten Melawi",KALIMANTAN BARAT,79674.0,Indonesia,,,,-0.7957342,111.5617354,https://maps.google.com/?cid=0x0:0x19a12622b46c8782,
komplek housing,Komplek perumahan,langkau injang Isam,"6G4R+MRX, Suka Maju, Kec. Tanah Pinoh, Kabupaten Melawi, Kalimantan Barat 79674","Suka Maju, Kec. Tanah Pinoh, Kabupaten Melawi",KALIMANTAN BARAT,79674.0,Indonesia,,,,-0.793394,111.542175,https://maps.google.com/?cid=0x0:0x3e4dd6dedd9401ff,
komplek housing,komplek housing,Kalimantan Barat 79674,"Kabupaten Melawi, Kalimantan Barat","Kabupaten Melawi, Kalimantan Barat",KALIMANTAN BARAT,,Indonesia,,,,-0.7723312,111.3798928,https://maps.google.com/?cid=0x0:0x6d8acf73897d9e8b,
komplek housing,Komplek perumahan,LONGKUNG,"6G3R+66R, Tj. Gn., Kec. Tanah Pinoh, Kabupaten Melawi, Kalimantan Barat 79674","Tj. Gn., Kec. Tanah Pinoh, Kabupaten Melawi",KALIMANTAN BARAT,79674.0,Indonesia,,,,-0.7975146,111.540474,https://maps.google.com/?cid=0x0:0x5d33631aad9e64a,
komplek housing,Komplek perumahan,Dusun Kenual II,"5GPR+G47, Loka Jaya, Kec. Tanah Pinoh, Kabupaten Melawi, Kalimantan Barat 79674","Loka Jaya, Kec. Tanah Pinoh, Kabupaten Melawi",KALIMANTAN BARAT,79674.0,Indonesia,,,,-0.8137157,111.5402959,https://maps.google.com/?cid=0x0:0x3ced00368601fa41,
komplek housing,Komplek perumahan,NURDI RAMADANI S.P,"5GXQ+4J2, Loka Jaya, Kec. Tanah Pinoh, Kabupaten Melawi, Kalimantan Barat","Kabupaten Melawi, Kalimantan Barat",KALIMANTAN BARAT,,Indonesia,,,,-0.8026003,111.5387637,https://maps.google.com/?cid=0x0:0x4765cb0cc62240a8,
komplek housing,Komplek perumahan,Rumah Munawir,"6H33+M8, Batu Begigi, Kec. Tanah Pinoh, Kabupaten Melawi, Kalimantan Barat","Kabupaten Melawi, Kalimantan Barat",KALIMANTAN BARAT,,Indonesia,,,,-0.7958006,111.553373,https://maps.google.com/?cid=0x0:0x15e18e84a8010072,
komplek housing,Komplek perumahan,Dusun Tombak,"6JG3+XMR, Bina Jaya, Kec. Tanah Pinoh, Kabupaten Melawi, Kalimantan Barat 79674","Bina Jaya, Kec. Tanah Pinoh, Kabupaten Melawi",KALIMANTAN BARAT,79674.0,Indonesia,,,,-0.7725041,111.6041482,https://maps.google.com/?cid=0x0:0x4aa47754941c9d54,
komplek housing,Komplek perumahan,Rumah Bg EN,"6G8P+RR, Suka Maju, Kec. Tanah Pinoh, Kabupaten Melawi, Kalimantan Barat","Kabupaten Melawi, Kalimantan Barat",KALIMANTAN BARAT,,Indonesia,,,,-0.782995,111.537025,https://maps.google.com/?cid=0x0:0x4cf64d49987b1394,
komplek housing,komplek housing,Dewi's Family,"6H65+7RW, Batu Begigi, Kec. Tanah Pinoh, Kabupaten Melawi, Kalimantan Barat 79674","Batu Begigi, Kec. Tanah Pinoh, Kabupaten Melawi",KALIMANTAN BARAT,79674.0,Indonesia,,,,-0.7892667,111.5595833,https://maps.google.com/?cid=0x0:0xb702272d159700b2,
komplek housing,komplek housing,Rumah nizar,"5GWR+435, Gang ketiti patah, Loka Jaya, Kec. Tanah Pinoh, Kabupaten Melawi, Kalimantan Barat 79674","Gang ketiti patah, Loka Jaya, Kec. Tanah Pinoh, Kabupaten Melawi",KALIMANTAN BARAT,79674.0,Indonesia,,,,-0.8047482,111.5402231,https://maps.google.com/?cid=0x0:0xf84463ad2d1e11a3,
komplek housing,Komplek perumahan,Rumah yot,"6H8M+53, Bina Karya, Kec. Tanah Pinoh, Kabupaten Melawi, Kalimantan Barat","Kabupaten Melawi, Kalimantan Barat",KALIMANTAN BARAT,,Indonesia,,,,-0.7845515,111.5826413,https://maps.google.com/?cid=0x0:0xe08e4ac4b9b67d1e,
komplek housing,Komplek perumahan,Langkau urangk senganan aik pinoh,"6H36+PM5, Batu Begigi, Kec. Tanah Pinoh, Kabupaten Melawi, Kalimantan Barat 79674","Batu Begigi, Kec. Tanah Pinoh, Kabupaten Melawi",KALIMANTAN BARAT,79674.0,Indonesia,,,,-0.7957342,111.5617354,https://maps.google.com/?cid=0x0:0x71d92e0dd9e4319f,
komplek housing,Komplek perumahan,Mursalin (mor kange),"5GWQ+3G4, Loka Jaya, Kec. Tanah Pinoh, Kabupaten Melawi, Kalimantan Barat","Kabupaten Melawi, Kalimantan Barat",KALIMANTAN BARAT,,Indonesia,,,,-0.8048713,111.5388341,https://maps.google.com/?cid=0x0:0xdfbf1da0ebe80a1f,
komplek housing,Komplek perumahan,perumahan bapak Sitorus,"5GCH+8HP, Keranjik, Kec. Tanah Pinoh, Kabupaten Melawi, Kalimantan Barat 79674","Keranjik, Kec. Tanah Pinoh, Kabupaten Melawi",KALIMANTAN BARAT,79674.0,Indonesia,,,,-0.8291737,111.5289438,https://maps.google.com/?cid=0x0:0x29577a1d91b8f39d,
komplek housing,Komplek perumahan,Perumahan mansur,"5GJR+QF, Keranjik, Kec. Tanah Pinoh, Kabupaten Melawi, Kalimantan Barat","Kabupaten Melawi, Kalimantan Barat",KALIMANTAN BARAT,,Indonesia,,,,-0.818057,111.541193,https://maps.google.com/?cid=0x0:0xc2490dbca6612183,
komplek housing,komplek housing,Dusun jaya karya,"5G4M+QH, Madong Jaya, Kec. Tanah Pinoh, Kabupaten Melawi, Kalimantan Barat","Kabupaten Melawi, Kalimantan Barat",KALIMANTAN BARAT,,Indonesia,,,,-0.843016,111.5339904,https://maps.google.com/?cid=0x0:0x97cd13c6de96bbbe,
komplek housing,Komplek perumahan,Maradona,"6G4W+QX3, Suka Maju, Kec. Tanah Pinoh, Kabupaten Melawi, Kalimantan Barat 79674","Suka Maju, Kec. Tanah Pinoh, Kabupaten Melawi",KALIMANTAN BARAT,79674.0,Indonesia,,,,-0.7922624,111.5466071,https://maps.google.com/?cid=0x0:0x38bcac421b947f6c,
komplek housing,Komplek perumahan,Rumah kak eka,"6G3W+CFC, Baru, Bata Luar, Kec. Tanah Pinoh, Kabupaten Melawi, Kalimantan Barat","Kabupaten Melawi, Kalimantan Barat",KALIMANTAN BARAT,,Indonesia,,,,-0.7964483,111.5461253,https://maps.google.com/?cid=0x0:0xb20f0d20898dbe93,
komplek housing,Perhimpunan Pengembang Perumahan,DUSUN HARAPAN JAYA,"8GGM+8W5, Ulak Muid, Tanah Pinoh Bar., Kabupaten Melawi, Kalimantan Barat 79674","Ulak Muid, Tanah Pinoh Bar., Kabupaten Melawi",KALIMANTAN BARAT,79674.0,Indonesia,,,,-0.6742381,111.5348604,https://maps.google.com/?cid=0x0:0xf1b7113dcd6245a4,
komplek housing,Komplek perumahan,Rumah Rosni Mulyanto/Atot,"6H65+V7, Batu Begigi, Kec. Tanah Pinoh, Kabupaten Melawi, Kalimantan Barat","Kabupaten Melawi, Kalimantan Barat",KALIMANTAN BARAT,,Indonesia,,,,-0.7882998,111.5574563,https://maps.google.com/?cid=0x0:0x4f64c87d90fda7f8,
komplek housing,Komplek perumahan,rumah dafa,"6G3W+254, Batu Begigi, Kec. Tanah Pinoh, Kabupaten Melawi, Kalimantan Barat 79674","Batu Begigi, Kec. Tanah Pinoh, Kabupaten Melawi",KALIMANTAN BARAT,79674.0,Indonesia,,,,-0.7974942,111.5454581,https://maps.google.com/?cid=0x0:0xf47e686d4940aed6,
komplek housing,Komplek perumahan,BURHANSYAH,"6G3W+J92, Batu Begigi, Kec. Tanah Pinoh, Kabupaten Melawi, Kalimantan Barat 79674","Batu Begigi, Kec. Tanah Pinoh, Kabupaten Melawi",KALIMANTAN BARAT,79674.0,Indonesia,,,,-0.7952065,111.5457498,https://maps.google.com/?cid=0x0:0x9f5edf716f006229,
komplek housing,Komplek perumahan,Batu begigi,"6G4X+593, Batu Begigi, Kec. Tanah Pinoh, Kabupaten Melawi, Kalimantan Barat 79674","Batu Begigi, Kec. Tanah Pinoh, Kabupaten Melawi",KALIMANTAN BARAT,79674.0,Indonesia,,,,-0.794867,111.547572,https://maps.google.com/?cid=0x0:0x6b213319b6acac41,
komplek housing,Komplek perumahan,Langkau urangk senganan,"6G4X+593, Batu Begigi, Kec. Tanah Pinoh, Kabupaten Melawi, Kalimantan Barat 79674","Batu Begigi, Kec. Tanah Pinoh, Kabupaten Melawi",KALIMANTAN BARAT,79674.0,Indonesia,,,,-0.79491,111.547631,https://maps.google.com/?cid=0x0:0x8ae67878b9f64d6d,
komplek housing,komplek housing,Tanah Pinoh Bar.,"Kabupaten Melawi, Kalimantan Barat","Kabupaten Melawi, Kalimantan Barat",KALIMANTAN BARAT,,Indonesia,,,,-0.737113,111.3321974,https://maps.google.com/?cid=0x0:0xecf1b67cb71663,
komplek housing,Komplek perumahan,Rumah Wirawan,"59RP+XR8, Togan Baru, Tanah Pinoh Bar., Kabupaten Melawi, Kalimantan Barat 79674","Togan Baru, Tanah Pinoh Bar., Kabupaten Melawi",KALIMANTAN BARAT,79674.0,Indonesia,,,,-0.8075864,111.3870895,https://maps.google.com/?cid=0x0:0xa582108748739e8a,
komplek housing,Pembangunan Perumahan,Desa tanjung beringin raya,"6HV9+M38, Tj. Beringin Raya, Kec. Tanah Pinoh, Kabupaten Melawi, Kalimantan Barat 79674","Tj. Beringin Raya, Kec. Tanah Pinoh, Kabupaten Melawi",KALIMANTAN BARAT,79674.0,Indonesia,,,,-0.7558391,111.5676975,https://maps.google.com/?cid=0x0:0x9926ec945b719524,
komplek housing,komplek housing,Rumah simon k,"8G2G+8WR, Ulak Muid, Tanah Pinoh Bar., Kabupaten Melawi, Kalimantan Barat 79674","Ulak Muid, Tanah Pinoh Bar., Kabupaten Melawi",KALIMANTAN BARAT,79674.0,Indonesia,,,,-0.6989083,111.5272704,https://maps.google.com/?cid=0x0:0x652ccb00f4b6830b,
komplek housing,Perhimpunan Pengembang Perumahan,Laman Togap,"693P+2QJ, Togan Baru, Tanah Pinoh Bar., Kabupaten Melawi, Kalimantan Barat 79674","Togan Baru, Tanah Pinoh Bar., Kabupaten Melawi",KALIMANTAN BARAT,79674.0,Indonesia,,,,-0.7974111,111.3869014,https://maps.google.com/?cid=0x0:0xef1b2ce05f325f74,
komplek housing,Perhimpunan Pengembang Perumahan,Nanga Pongin,"692G+2HX, Togan Baru, Tanah Pinoh Bar., Kabupaten Melawi, Kalimantan Barat 79674","Togan Baru, Tanah Pinoh Bar., Kabupaten Melawi",KALIMANTAN BARAT,79674.0,Indonesia,,,,-0.7998932,111.3764991,https://maps.google.com/?cid=0x0:0x47b5b24c9b0bba3f,
perumahan,Perumahan,Mas AL,"PF5V+W6G, Belonsat, Kec. Belimbing, Kabupaten Melawi, Kalimantan Barat","Kabupaten Melawi, Kalimantan Barat",KALIMANTAN BARAT,,Indonesia,,,,-0.2901843,111.4930863,https://maps.google.com/?cid=0x0:0xe4578a7ec5dd7abe,
perumahan,perumahan,Kalimantan Barat 79671,"Kabupaten Melawi, Kalimantan Barat","Kabupaten Melawi, Kalimantan Barat",KALIMANTAN BARAT,,Indonesia,,,,-0.4539656,111.5229817,https://maps.google.com/?cid=0x0:0xfc272e555b0cebaa,
perumahan,Komplek perumahan,Rumah HARTONO,"MGH4+V67, Beloyang, Kec. Belimbing Hulu, Kabupaten Melawi, Kalimantan Barat 79671","Beloyang, Kec. Belimbing Hulu, Kabupaten Melawi",KALIMANTAN BARAT,79671.0,Indonesia,,,,-0.3203815,111.5058848,https://maps.google.com/?cid=0x0:0xb95a7824d7149bb0,
perumahan,Komplek perumahan,Pusat Desa,"HMM4+P8R, Nusa Kenyikap, Kec. Belimbing, Kabupaten Melawi, Kalimantan Barat","Kabupaten Melawi, Kalimantan Barat",KALIMANTAN BARAT,,Indonesia,,,,-0.4156397,111.6557617,https://maps.google.com/?cid=0x0:0x5e6de82726d82c45,
perumahan,Komplek perumahan,Pontianak,"JGHG+V87, Beloyang, Kec. Belimbing Hulu, Kabupaten Melawi, Kalimantan Barat 79671","Beloyang, Kec. Belimbing Hulu, Kabupaten Melawi",KALIMANTAN BARAT,79671.0,Indonesia,,,,-0.3704733,111.5266532,https://maps.google.com/?cid=0x0:0x662d5d606f63e5ef,
perumahan,perumahan,Batu ampar,"PFCG+F4M, Belonsat, Kec. Belimbing, Kabupaten Melawi, Kalimantan Barat","Kabupaten Melawi, Kalimantan Barat",KALIMANTAN BARAT,,Indonesia,,,,-0.2787808,111.4752851,https://maps.google.com/?cid=0x0:0x15abcbd4c6e5a97,
perumahan,Komplek perumahan,Langkau kami,"G9PG+GP, Langan, Kec. Belimbing, Kabupaten Melawi, Kalimantan Barat 79671","Langan, Kec. Belimbing, Kabupaten Melawi",KALIMANTAN BARAT,79671.0,Indonesia,,,,-0.4636788,111.3768189,https://maps.google.com/?cid=0x0:0xa16c24bcc9ce49ba,
perumahan,Pembangunan Perumahan,Perumahan Barunia,"PFCG+F4M, Belonsat, Kec. Belimbing, Kabupaten Melawi, Kalimantan Barat","Kabupaten Melawi, Kalimantan Barat",KALIMANTAN BARAT,,Indonesia,,,,-0.2787808,111.4752851,https://maps.google.com/?cid=0x0:0xba0104d5b0dbdb6f,
perumahan,Perumahan,Rayon Batu Buil PSHT,"PJ46+VQG, Batu Buil, Kec. Belimbing, Kabupaten Melawi, Kalimantan Barat 79671","Batu Buil, Kec. Belimbing, Kabupaten Melawi",KALIMANTAN BARAT,79671.0,Indonesia,81545503031.0,,,-0.292042,111.61197,https://maps.google.com/?cid=0x0:0xf75f08b3fd081f71,
perumahan,Masjid,"Rumah mesjid al jihad, SDK 1","MHWW+X5G, Batu Buil, Kec. Belimbing, Kabupaten Melawi, Kalimantan Barat 79671","Batu Buil, Kec. Belimbing, Kabupaten Melawi",KALIMANTAN BARAT,79671.0,Indonesia,,,,-0.3025725,111.5954572,https://maps.google.com/?cid=0x0:0xe23385fcfc7ac7e0,
perumahan,Komplek perumahan,Rumah kendra,"PJ32+J9, Batu Buil, Kec. Belimbing, Kabupaten Melawi, Kalimantan Barat","Kabupaten Melawi, Kalimantan Barat",KALIMANTAN BARAT,,Indonesia,,,,-0.2959601,111.6008961,https://maps.google.com/?cid=0x0:0x57ae5b4962309dcb,
perumahan,Komplek perumahan,Rumah Pak Jainal,"MFPJ+XR, Belonsat, Kec. Belimbing, Kabupaten Melawi, Kalimantan Barat","Kabupaten Melawi, Kalimantan Barat",KALIMANTAN BARAT,,Indonesia,,,,-0.3126149,111.4820943,https://maps.google.com/?cid=0x0:0x5b56dd771598bb6d,
perumahan,Pembangunan Perumahan,Dhewa's HOME,"MGM4+289, Beloyang, Kec. Belimbing Hulu, Kabupaten Melawi, Kalimantan Barat 79671","Beloyang, Kec. Belimbing Hulu, Kabupaten Melawi",KALIMANTAN BARAT,79671.0,Indonesia,,,,-0.3174727,111.5058741,https://maps.google.com/?cid=0x0:0xc3eac5390a711e76,
perumahan,Komplek perumahan,Rumah warga,"PHP4+W2H, Batu Nanta, Kec. Belimbing, Kabupaten Melawi, Kalimantan Barat","Kabupaten Melawi, Kalimantan Barat",KALIMANTAN BARAT,,Indonesia,,,,-0.2626769,111.5551091,https://maps.google.com/?cid=0x0:0x1a2bac7c20360b93,
perumahan,perumahan,Rumah pak Nasir Keranjik,"JGJH+362, Tiong Keranji, Kec. Belimbing Hulu, Kabupaten Melawi, Kalimantan Barat 79671","Tiong Keranji, Kec. Belimbing Hulu, Kabupaten Melawi",KALIMANTAN BARAT,79671.0,Indonesia,,,,-0.3704534,111.5282839,https://maps.google.com/?cid=0x0:0x42df589cb51c6921,
perumahan,Kedai Kopi,Dua Saudara TALIS dan IGUN,"JM84+VH8, Pemuar, Kec. Belimbing, Kabupaten Melawi, Kalimantan Barat 79671","Pemuar, Kec. Belimbing, Kabupaten Melawi",KALIMANTAN BARAT,79671.0,Indonesia,,,,-0.3828476,111.6564456,https://maps.google.com/?cid=0x0:0x12c2bbb68cb2c71,
perumahan,Komplek perumahan,Rumah Calon,"MJXP+V8, Batu Buil, Kec. Belimbing, Kabupaten Melawi, Kalimantan Barat 79671","Batu Buil, Kec. Belimbing, Kabupaten Melawi",KALIMANTAN BARAT,79671.0,Indonesia,,,,-0.3002985,111.6358568,https://maps.google.com/?cid=0x0:0xc6e4598d69103de,
perumahan,Pembangunan Perumahan,Junjung permai,"GHP5+WGR, Junjung Permai, Kec. Belimbing Hulu, Kabupaten Melawi, Kalimantan Barat 79671","Junjung Permai, Kec. Belimbing Hulu, Kabupaten Melawi",KALIMANTAN BARAT,79671.0,Indonesia,,,,-0.4626374,111.5587544,https://maps.google.com/?cid=0x0:0xa4a3fd5c4422c8e2,
perumahan,Komplek perumahan,Rumah Fredi,"MGJ6+MH, Beloyang, Kec. Belimbing Hulu, Kabupaten Melawi, Kalimantan Barat","Kabupaten Melawi, Kalimantan Barat",KALIMANTAN BARAT,,Indonesia,,,,-0.3183035,111.5114393,https://maps.google.com/?cid=0x0:0xd23bf7dd0966f940,
perumahan,Komplek perumahan,TIONG KERANJIK,"Tiong Keranji, Kec. Belimbing Hulu, Kabupaten Melawi, Kalimantan Barat 79671","Kec. Belimbing Hulu, Kabupaten Melawi",KALIMANTAN BARAT,79671.0,Indonesia,82155048532.0,,,-0.3700732,111.5280291,https://maps.google.com/?cid=0x0:0x4ee23e01c8883cc9,
perumahan,perumahan,Lok jalan,"MG6M+2XJ, Beloyang, Kec. Belimbing Hulu, Kabupaten Melawi, Kalimantan Barat 79671","Beloyang, Kec. Belimbing Hulu, Kabupaten Melawi",KALIMANTAN BARAT,79671.0,Indonesia,,,,-0.3399125,111.5349059,https://maps.google.com/?cid=0x0:0x184cb9b12720f98d,
perumahan,Komplek perumahan,Rumah budi,"PGX9+HX, Guhung, Kec. Belimbing, Kabupaten Melawi, Kalimantan Barat 78655","Guhung, Kec. Belimbing, Kabupaten Melawi",KALIMANTAN BARAT,78655.0,Indonesia,,,,-0.251073,111.519888,https://maps.google.com/?cid=0x0:0xa66ece8af62eebdc,
perumahan,Pembangunan Perumahan,HOME MC BUNG BOY,"MGCC+W92, Beloyang, Kec. Belimbing Hulu, Kabupaten Melawi, Kalimantan Barat 79671","Beloyang, Kec. Belimbing Hulu, Kabupaten Melawi",KALIMANTAN BARAT,79671.0,Indonesia,85163595770.0,,,-0.3277481,111.5208757,https://maps.google.com/?cid=0x0:0xc7b1965a15dbd78f,
perumahan,Komplek perumahan,Rumah irawan,"PGW8+H2H, Guhung, Kec. Belimbing, Kabupaten Melawi, Kalimantan Barat","Kabupaten Melawi, Kalimantan Barat",KALIMANTAN BARAT,,Indonesia,,,,-0.2535591,111.5151012,https://maps.google.com/?cid=0x0:0x248c3afe2c91d313,
perumahan,Komplek perumahan,Rumah Pak Asong,"MGP5+8C, Beloyang, Kec. Belimbing Hulu, Kabupaten Melawi, Kalimantan Barat","Kabupaten Melawi, Kalimantan Barat",KALIMANTAN BARAT,,Indonesia,,,,-0.3142346,111.508619,https://maps.google.com/?cid=0x0:0x30f61e89ada7a0a4,
perumahan,perumahan,Aji,"MHXX+2HG, Jl. PMKS SDK No.1, RW.1, Batu Buil, Kec. Belimbing, Kabupaten Melawi, Kalimantan Barat","Kabupaten Melawi, Kalimantan Barat",KALIMANTAN BARAT,,Indonesia,,,,-0.3022923,111.5995217,https://maps.google.com/?cid=0x0:0xf8e0d71780dba343,
perumahan,Pembangunan Perumahan,P.tanti,"PFCG+F4M, Belonsat, Kec. Belimbing, Kabupaten Melawi, Kalimantan Barat","Kabupaten Melawi, Kalimantan Barat",KALIMANTAN BARAT,,Indonesia,,,,-0.2787808,111.4752851,https://maps.google.com/?cid=0x0:0x18b3a0833a93f492,
perumahan,Komplek perumahan,Rinto rejong,"MJWX+63J, Pemuar, Kec. Belimbing, Kabupaten Melawi, Kalimantan Barat","Kabupaten Melawi, Kalimantan Barat",KALIMANTAN BARAT,,Indonesia,,,,-0.3044044,111.6476464,https://maps.google.com/?cid=0x0:0x75bed4351afffe77,
perumahan,perumahan,Kec. Belimbing Hulu,"Kabupaten Melawi, Kalimantan Barat","Kabupaten Melawi, Kalimantan Barat",KALIMANTAN BARAT,,Indonesia,,,,-0.3702887,111.5294943,https://maps.google.com/?cid=0x0:0x26dc94245ead4c2a,
perumahan,Komplek perumahan,Pontianak,"JGHG+V87, Beloyang, Kec. Belimbing Hulu, Kabupaten Melawi, Kalimantan Barat 79671","Beloyang, Kec. Belimbing Hulu, Kabupaten Melawi",KALIMANTAN BARAT,79671.0,Indonesia,,,,-0.3704733,111.5266532,https://maps.google.com/?cid=0x0:0x662d5d606f63e5ef,
perumahan,Komplek perumahan,Rumah HARTONO,"MGH4+V67, Beloyang, Kec. Belimbing Hulu, Kabupaten Melawi, Kalimantan Barat 79671","Beloyang, Kec. Belimbing Hulu, Kabupaten Melawi",KALIMANTAN BARAT,79671.0,Indonesia,,,,-0.3203815,111.5058848,https://maps.google.com/?cid=0x0:0xb95a7824d7149bb0,
perumahan,perumahan,Lok jalan,"MG6M+2XJ, Beloyang, Kec. Belimbing Hulu, Kabupaten Melawi, Kalimantan Barat 79671","Beloyang, Kec. Belimbing Hulu, Kabupaten Melawi",KALIMANTAN BARAT,79671.0,Indonesia,,,,-0.3399125,111.5349059,https://maps.google.com/?cid=0x0:0x184cb9b12720f98d,
perumahan,Komplek perumahan,Rumah Fredi,"MGJ6+MH, Beloyang, Kec. Belimbing Hulu, Kabupaten Melawi, Kalimantan Barat","Kabupaten Melawi, Kalimantan Barat",KALIMANTAN BARAT,,Indonesia,,,,-0.3183035,111.5114393,https://maps.google.com/?cid=0x0:0xd23bf7dd0966f940,
perumahan,perumahan,Batu ampar,"PFCG+F4M, Belonsat, Kec. Belimbing, Kabupaten Melawi, Kalimantan Barat","Kabupaten Melawi, Kalimantan Barat",KALIMANTAN BARAT,,Indonesia,,,,-0.2787808,111.4752851,https://maps.google.com/?cid=0x0:0x15abcbd4c6e5a97,
perumahan,perumahan,Rumah pak Nasir Keranjik,"JGJH+362, Tiong Keranji, Kec. Belimbing Hulu, Kabupaten Melawi, Kalimantan Barat 79671","Tiong Keranji, Kec. Belimbing Hulu, Kabupaten Melawi",KALIMANTAN BARAT,79671.0,Indonesia,,,,-0.3704534,111.5282839,https://maps.google.com/?cid=0x0:0x42df589cb51c6921,
perumahan,Pembangunan Perumahan,Dhewa's HOME,"MGM4+289, Beloyang, Kec. Belimbing Hulu, Kabupaten Melawi, Kalimantan Barat 79671","Beloyang, Kec. Belimbing Hulu, Kabupaten Melawi",KALIMANTAN BARAT,79671.0,Indonesia,,,,-0.3174727,111.5058741,https://maps.google.com/?cid=0x0:0xc3eac5390a711e76,
perumahan,Pembangunan Perumahan,Perumahan Barunia,"PFCG+F4M, Belonsat, Kec. Belimbing, Kabupaten Melawi, Kalimantan Barat","Kabupaten Melawi, Kalimantan Barat",KALIMANTAN BARAT,,Indonesia,,,,-0.2787808,111.4752851,https://maps.google.com/?cid=0x0:0xba0104d5b0dbdb6f,
perumahan,Kantor Perusahaan,Rumah Dinas Pak Alex,"MHWW+XWX, Batu Buil, Kec. Belimbing, Kabupaten Melawi, Kalimantan Barat 79671","Batu Buil, Kec. Belimbing, Kabupaten Melawi",KALIMANTAN BARAT,79671.0,Indonesia,,,,-0.3025122,111.5973498,https://maps.google.com/?cid=0x0:0x7c735bfffed8b604,
perumahan,perumahan,Rumah pak Tanasir,"JGCR+78H, Tiong Keranji, Kec. Belimbing Hulu, Kabupaten Melawi, Kalimantan Barat 79671","Tiong Keranji, Kec. Belimbing Hulu, Kabupaten Melawi",KALIMANTAN BARAT,79671.0,Indonesia,,,,-0.3793238,111.540868,https://maps.google.com/?cid=0x0:0x2faab5e35441ca,
perumahan,Komplek perumahan,Rumah Pak Asong,"MGP5+8C, Beloyang, Kec. Belimbing Hulu, Kabupaten Melawi, Kalimantan Barat","Kabupaten Melawi, Kalimantan Barat",KALIMANTAN BARAT,,Indonesia,,,,-0.3142346,111.508619,https://maps.google.com/?cid=0x0:0x30f61e89ada7a0a4,
perumahan,Komplek perumahan,Rumah kendra,"PJ32+J9, Batu Buil, Kec. Belimbing, Kabupaten Melawi, Kalimantan Barat","Kabupaten Melawi, Kalimantan Barat",KALIMANTAN BARAT,,Indonesia,,,,-0.2959601,111.6008961,https://maps.google.com/?cid=0x0:0x57ae5b4962309dcb,
perumahan,Pembangunan Perumahan,Junjung permai,"GHP5+WGR, Junjung Permai, Kec. Belimbing Hulu, Kabupaten Melawi, Kalimantan Barat 79671","Junjung Permai, Kec. Belimbing Hulu, Kabupaten Melawi",KALIMANTAN BARAT,79671.0,Indonesia,,,,-0.4626374,111.5587544,https://maps.google.com/?cid=0x0:0xa4a3fd5c4422c8e2,
perumahan,Komplek perumahan,TIONG KERANJIK,"Tiong Keranji, Kec. Belimbing Hulu, Kabupaten Melawi, Kalimantan Barat 79671","Kec. Belimbing Hulu, Kabupaten Melawi",KALIMANTAN BARAT,79671.0,Indonesia,82155048532.0,,,-0.3700732,111.5280291,https://maps.google.com/?cid=0x0:0x4ee23e01c8883cc9,
perumahan,Pembangunan Perumahan,Desa Beloyang,"MGG7+M5H, Beloyang, Kec. Belimbing Hulu, Kabupaten Melawi, Kalimantan Barat","Kabupaten Melawi, Kalimantan Barat",KALIMANTAN BARAT,,Indonesia,,,,-0.323319,111.5129846,https://maps.google.com/?cid=0x0:0xbf41e412c65e60a,
perumahan,Perumahan,Rayon Batu Buil PSHT,"PJ46+VQG, Batu Buil, Kec. Belimbing, Kabupaten Melawi, Kalimantan Barat 79671","Batu Buil, Kec. Belimbing, Kabupaten Melawi",KALIMANTAN BARAT,79671.0,Indonesia,81545503031.0,,,-0.292042,111.61197,https://maps.google.com/?cid=0x0:0xf75f08b3fd081f71,
perumahan,Komplek perumahan,Rumah Rezy,"PFCG+F4M, Belonsat, Kec. Belimbing, Kabupaten Melawi, Kalimantan Barat","Kabupaten Melawi, Kalimantan Barat",KALIMANTAN BARAT,,Indonesia,,,,-0.2787808,111.4752851,https://maps.google.com/?cid=0x0:0xec56ef5b454b9669,
perumahan,perumahan,PERUM PT AAC,"MGJ4+7WX, Beloyang, Kec. Belimbing Hulu, Kabupaten Melawi, Kalimantan Barat","Kabupaten Melawi, Kalimantan Barat",KALIMANTAN BARAT,,Indonesia,,,,-0.320154,111.507488,https://maps.google.com/?cid=0x0:0x388a79dd0a10c637,
perumahan,Masjid,"Rumah mesjid al jihad, SDK 1","MHWW+X5G, Batu Buil, Kec. Belimbing, Kabupaten Melawi, Kalimantan Barat 79671","Batu Buil, Kec. Belimbing, Kabupaten Melawi",KALIMANTAN BARAT,79671.0,Indonesia,,,,-0.3025725,111.5954572,https://maps.google.com/?cid=0x0:0xe23385fcfc7ac7e0,
perumahan,Pembangunan Perumahan,HOME MC BUNG BOY,"MGCC+W92, Beloyang, Kec. Belimbing Hulu, Kabupaten Melawi, Kalimantan Barat 79671","Beloyang, Kec. Belimbing Hulu, Kabupaten Melawi",KALIMANTAN BARAT,79671.0,Indonesia,85163595770.0,,,-0.3277481,111.5208757,https://maps.google.com/?cid=0x0:0xc7b1965a15dbd78f,
perumahan,perumahan,Rumah pak Tanasir Tiong Keranjik,"JGHH+X3G, Desa, Tiong Keranji, Kec. Belimbing Hulu, Kabupaten Melawi, Kalimantan Barat 79671","Desa, Tiong Keranji, Kec. Belimbing Hulu, Kabupaten Melawi",KALIMANTAN BARAT,79671.0,Indonesia,,,,-0.3701897,111.5277308,https://maps.google.com/?cid=0x0:0x3e09db92889014e,
perumahan,Komplek perumahan,Rumah ratu,"MGHF+8H, Beloyang, Kec. Belimbing Hulu, Kabupaten Melawi, Kalimantan Barat 79671","Beloyang, Kec. Belimbing Hulu, Kabupaten Melawi",KALIMANTAN BARAT,79671.0,Indonesia,,,,-0.3217326,111.5239418,https://maps.google.com/?cid=0x0:0x32bee74ce3913a98,
perumahan,Komplek perumahan,Rumah Pak Harun Pendi,"MGP6+5F, Beloyang, Kec. Belimbing Hulu, Kabupaten Melawi, Kalimantan Barat","Kabupaten Melawi, Kalimantan Barat",KALIMANTAN BARAT,,Indonesia,,,,-0.3150289,111.5114105,https://maps.google.com/?cid=0x0:0xd962defd65c4137e,
perumahan,Komplek perumahan,Rumah Pak Jainal,"MFPJ+XR, Belonsat, Kec. Belimbing, Kabupaten Melawi, Kalimantan Barat","Kabupaten Melawi, Kalimantan Barat",KALIMANTAN BARAT,,Indonesia,,,,-0.3126149,111.4820943,https://maps.google.com/?cid=0x0:0x5b56dd771598bb6d,
perumahan,Pembangunan Perumahan,Hamasya 19,"MGCC+53P, Beloyang, Kec. Belimbing Hulu, Kabupaten Melawi, Kalimantan Barat 79671","Beloyang, Kec. Belimbing Hulu, Kabupaten Melawi",KALIMANTAN BARAT,79671.0,Indonesia,,,,-0.3295466,111.5202064,https://maps.google.com/?cid=0x0:0x9433018cffa177b7,
perumahan,perumahan,Kalimantan Barat 79681,"Kabupaten Melawi, Kalimantan Barat","Kabupaten Melawi, Kalimantan Barat",KALIMANTAN BARAT,,Indonesia,,,,-0.5928174,111.9999435,https://maps.google.com/?cid=0x0:0x56ab64304e08062b,
perumahan,Perhimpunan Pengembang Perumahan,Ella 1 ( batu menangis ),"G2CG+V9, Nanga Kalan, Kec. Ella Hilir, Kabupaten Melawi, Kalimantan Barat","Kabupaten Melawi, Kalimantan Barat",KALIMANTAN BARAT,,Indonesia,,,,-0.4778116,112.0258974,https://maps.google.com/?cid=0x0:0xcc3fa49a41d46055,
perumahan,Komplek perumahan,Rumah Masrokan,"J232+C37, Nanga Ella Hilir, Kec. Ella Hilir, Kabupaten Melawi, Kalimantan Barat 79681","Nanga Ella Hilir, Kec. Ella Hilir, Kabupaten Melawi",KALIMANTAN BARAT,79681.0,Indonesia,,,,-0.3968434,112.0001308,https://maps.google.com/?cid=0x0:0xb80be64305072ef2,
perumahan,Komplek perumahan,Rumah Kiki Hindayani,"J223+54G, Nanga Ella Hilir, Kec. Ella Hilir, Kabupaten Melawi, Kalimantan Barat 79681","Nanga Ella Hilir, Kec. Ella Hilir, Kabupaten Melawi",KALIMANTAN BARAT,79681.0,Indonesia,,,,-0.400085,112.0025751,https://maps.google.com/?cid=0x0:0x91cd65b3d6d8bc95,
perumahan,Perhimpunan Pengembang Perumahan,Rumah Org kece,"J222+PH8, Nanga Ella Hilir, Kec. Ella Hilir, Kabupaten Melawi, Kalimantan Barat 79681","Nanga Ella Hilir, Kec. Ella Hilir, Kabupaten Melawi",KALIMANTAN BARAT,79681.0,Indonesia,,,,-0.3987206,112.0008551,https://maps.google.com/?cid=0x0:0x5c9277cd69b5b676,
perumahan,Perhimpunan Pengembang Perumahan,Rumah Dores,"H2P3+HCJ, Nanga Ella Hilir, Kec. Ella Hilir, Kabupaten Melawi, Kalimantan Barat 79681","Nanga Ella Hilir, Kec. Ella Hilir, Kabupaten Melawi",KALIMANTAN BARAT,79681.0,Indonesia,,,,-0.4129141,112.0036058,https://maps.google.com/?cid=0x0:0x9b9c71a01698a657,
perumahan,Perhimpunan Pengembang Perumahan,Agt KL Yusni Johansyah,"H2X2+CWH, Unnamed Road, Nanga Ella Hilir, Kec. Ella Hilir, Kabupaten Melawi, Kalimantan Barat 79681","Unnamed Road, Nanga Ella Hilir, Kec. Ella Hilir, Kabupaten Melawi",KALIMANTAN BARAT,79681.0,Indonesia,,,,-0.40145,112.0023604,https://maps.google.com/?cid=0x0:0x3a4f89857b7f9671,
perumahan,Komplek perumahan,Rumah Bang Frew,"H2X3+V88, Nanga Ella Hilir, Kec. Ella Hilir, Kabupaten Melawi, Kalimantan Barat 79681","Nanga Ella Hilir, Kec. Ella Hilir, Kabupaten Melawi",KALIMANTAN BARAT,79681.0,Indonesia,,,,-0.4001668,112.0035638,https://maps.google.com/?cid=0x0:0xff776828b7c10cbd,
perumahan,Komplek perumahan,Rumah Farel,"H2W3+8VJ, Nanga Ella Hilir, Kec. Ella Hilir, Kabupaten Melawi, Kalimantan Barat 79681","Nanga Ella Hilir, Kec. Ella Hilir, Kabupaten Melawi",KALIMANTAN BARAT,79681.0,Indonesia,,,,-0.4041755,112.0046568,https://maps.google.com/?cid=0x0:0x8d8fa361f0a87ac1,
perumahan,Perhimpunan Pengembang Perumahan,Rumah nyai Rahmah(nyai uban),"H3V9+CMR, Popai, Kec. Ella Hilir, Kabupaten Melawi, Kalimantan Barat 79681","Popai, Kec. Ella Hilir, Kabupaten Melawi",KALIMANTAN BARAT,79681.0,Indonesia,,,,-0.4063932,112.0691507,https://maps.google.com/?cid=0x0:0x3fb5aaf8bf6dc4e5,
perumahan,Perhimpunan Pengembang Perumahan,Tanjung Biru,"J2GF+RXR, Lengkong Nyadom, Kec. Ella Hilir, Kabupaten Melawi, Kalimantan Barat 79681","Lengkong Nyadom, Kec. Ella Hilir, Kabupaten Melawi",KALIMANTAN BARAT,79681.0,Indonesia,,,,-0.3719195,112.0250738,https://maps.google.com/?cid=0x0:0x30eeae37edc0d9ad,
perumahan,Pembangunan Perumahan,Sungai Kerosik,"F46J+WG, Nanga Nyuruh, Kec. Ella Hilir, Kabupaten Melawi, Kalimantan Barat","Kabupaten Melawi, Kalimantan Barat",KALIMANTAN BARAT,,Indonesia,,,,-0.5376236,112.1312724,https://maps.google.com/?cid=0x0:0xa1ededf86240d3f4,
perumahan,Perhimpunan Pengembang Perumahan,TEMPAT RESEPSI,"H2X3+X28, Nanga Ella Hilir, Kec. Ella Hilir, Kabupaten Melawi, Kalimantan Barat 79681","Nanga Ella Hilir, Kec. Ella Hilir, Kabupaten Melawi",KALIMANTAN BARAT,79681.0,Indonesia,,,,-0.4000934,112.0025698,https://maps.google.com/?cid=0x0:0x8e77026fd0edbb97,
perumahan,Pembangunan Perumahan,Liman,"H3FR+6C, Domet Permai, Kec. Ella Hilir, Kabupaten Melawi, Kalimantan Barat","Kabupaten Melawi, Kalimantan Barat",KALIMANTAN BARAT,,Indonesia,,,,-0.4269603,112.0901503,https://maps.google.com/?cid=0x0:0x96fce191c5770861,
perumahan,Perhimpunan Pengembang Perumahan,Nia Village,"J233+JGF, Sungai bakau, Nanga Ella Hilir, Kec. Ella Hilir, Kabupaten Melawi, Kalimantan Barat","Kabupaten Melawi, Kalimantan Barat",KALIMANTAN BARAT,,Indonesia,,,,-0.3947004,112.0032673,https://maps.google.com/?cid=0x0:0x991e54ef865b468b,
perumahan,Pembangunan Perumahan,Kalan,"G284+Q96, Nanga Kalan, Kec. Ella Hilir, Kabupaten Melawi, Kalimantan Barat","Kabupaten Melawi, Kalimantan Barat",KALIMANTAN BARAT,,Indonesia,,,,-0.4830969,112.0059052,https://maps.google.com/?cid=0x0:0x754b031451a8d2ca,
perumahan,Perhimpunan Pengembang Perumahan,Graha Gnx,"J242+RW9, Nanga Ella Hilir, Kec. Ella Hilir, Kabupaten Melawi, Kalimantan Barat 79681","Nanga Ella Hilir, Kec. Ella Hilir, Kabupaten Melawi",KALIMANTAN BARAT,79681.0,Indonesia,,,,-0.393145,112.0023826,https://maps.google.com/?cid=0x0:0x464f7819b46684d1,
perumahan,Komplek perumahan,Ahmad sultan home,"H4X5+V3, Nanga Nuak, Kec. Ella Hilir, Kabupaten Melawi, Kalimantan Barat","Kabupaten Melawi, Kalimantan Barat",KALIMANTAN BARAT,,Indonesia,81347138818.0,,,-0.4003733,112.1076167,https://maps.google.com/?cid=0x0:0x421586d4a113284c,
perumahan,Komplek perumahan,Rusli'House,"H466+79, Domet Permai, Kec. Ella Hilir, Kabupaten Melawi, Kalimantan Barat 79681","Domet Permai, Kec. Ella Hilir, Kabupaten Melawi",KALIMANTAN BARAT,79681.0,Indonesia,,,,-0.439303,112.110974,https://maps.google.com/?cid=0x0:0x4add762f62cdc4aa,
perumahan,Pembangunan Perumahan,Rumah Dores,"83QF+VF, Kerangan Kora, Kec. Ella Hilir, Kabupaten Melawi, Kalimantan Barat","Kabupaten Melawi, Kalimantan Barat",KALIMANTAN BARAT,,Indonesia,,,,-0.6603494,112.0736404,https://maps.google.com/?cid=0x0:0x4f3c320b72fbe3ba,
perumahan,Perhimpunan Pengembang Perumahan,Belaban nyuruh,"H2X3+9F5, Nanga Ella Hilir, Nanga Nyuruh, Kabupaten Melawi, Kalimantan Barat","Kabupaten Melawi, Kalimantan Barat",KALIMANTAN BARAT,,Indonesia,,,,-0.4016062,112.0037246,https://maps.google.com/?cid=0x0:0x8450643b430a8e10,
perumahan,Komplek perumahan,rm petrus anis,"H274+2R7, Nanga Ella Hilir, Kec. Ella Hilir, Kabupaten Melawi, Kalimantan Barat","Kabupaten Melawi, Kalimantan Barat",KALIMANTAN BARAT,,Indonesia,,,,-0.4374671,112.0070347,https://maps.google.com/?cid=0x0:0xa6d78846df207344,
perumahan,Perhimpunan Pengembang Perumahan,Nanga Kalan,"G298+6RV, Nanga Kalan, Kec. Ella Hilir, Kabupaten Melawi, Kalimantan Barat 79681","Nanga Kalan, Kec. Ella Hilir, Kabupaten Melawi",KALIMANTAN BARAT,79681.0,Indonesia,,,,-0.4818899,112.0170554,https://maps.google.com/?cid=0x0:0xc0eec63651e4464c,
perumahan,Pembangunan Perumahan,Domet permai,"H467+C74, Domet Permai, Kec. Ella Hilir, Kabupaten Melawi, Kalimantan Barat 79681","Domet Permai, Kec. Ella Hilir, Kabupaten Melawi",KALIMANTAN BARAT,79681.0,Indonesia,,,,-0.4389767,112.1132142,https://maps.google.com/?cid=0x0:0x68eae01df7d43dd2,
perumahan,Komplek perumahan,Ruko,"H2P2+VP8, Jl. Nanga Pinoh, Pelempai Jaya, Kec. Ella Hilir, Kabupaten Melawi, Kalimantan Barat 79681","Jl. Nanga Pinoh, Pelempai Jaya, Kec. Ella Hilir, Kabupaten Melawi",KALIMANTAN BARAT,79681.0,Indonesia,,,,-0.4127724,112.0018891,https://maps.google.com/?cid=0x0:0x77d2cb6b76c222f2,
perumahan,perumahan,Menukung,"Nanga Ella Hulu, Kec. Menukung, Kabupaten Melawi, Kalimantan Barat","Kabupaten Melawi, Kalimantan Barat",KALIMANTAN BARAT,,Indonesia,,,,-0.395657,112.1717,https://maps.google.com/?cid=0x0:0x8d04b3ff9fa0089c,
perumahan,perumahan,Nanga Pinoh,"Sidomulyo, Kec. Nanga Pinoh, Kabupaten Melawi, Kalimantan Barat","Kabupaten Melawi, Kalimantan Barat",KALIMANTAN BARAT,,Indonesia,,,,-0.331892,111.733398,https://maps.google.com/?cid=0x0:0x1b19b0cfdd74bdad,
perumahan,Komplek perumahan,desa Sidomulyo Nanga Pinoh kab,"MP9M+69R, Sidomulyo, Kec. Nanga Pinoh, Kabupaten Melawi, Kalimantan Barat","Kabupaten Melawi, Kalimantan Barat",KALIMANTAN BARAT,,Indonesia,,,,-0.331892,111.733398,https://maps.google.com/?cid=0x0:0xa05e719c7676ce96,
perumahan,Komplek perumahan,Kp pertanian,"MP9M+69R, Sidomulyo, Kec. Nanga Pinoh, Kabupaten Melawi, Kalimantan Barat","Kabupaten Melawi, Kalimantan Barat",KALIMANTAN BARAT,,Indonesia,85654258963.0,,,-0.331892,111.733398,https://maps.google.com/?cid=0x0:0x4ab301d85a957c75,
perumahan,Komplek perumahan,Rumah Zia,"MP9J+9W4, Dusun Mekar Sari, Sidomulyo, Kec. Nanga Pinoh, Kabupaten Melawi, Kalimantan Barat 79672","Dusun Mekar Sari, Sidomulyo, Kec. Nanga Pinoh, Kabupaten Melawi",KALIMANTAN BARAT,79672.0,Indonesia,,,,-0.3316125,111.7323281,https://maps.google.com/?cid=0x0:0xde4c0e61b2b2c085,
perumahan,Komplek perumahan,Perumahan Griya Selama Indah,"Jl. Cemp. No.26, Paal, Kec. Nanga Pinoh, Kabupaten Melawi, Kalimantan Barat 79672","Paal, Kec. Nanga Pinoh, Kabupaten Melawi",KALIMANTAN BARAT,79672.0,Indonesia,81257627375.0,,,-0.3311589,111.7388479,https://maps.google.com/?cid=0x0:0x3b87ab5e7092c814,
perumahan,Komplek perumahan,Mickaeldirkido,"MP9M+69R, Sidomulyo, Kec. Nanga Pinoh, Kabupaten Melawi, Kalimantan Barat","Kabupaten Melawi, Kalimantan Barat",KALIMANTAN BARAT,,Indonesia,,,,-0.331892,111.733398,https://maps.google.com/?cid=0x0:0x8ffbc1f1a65ce7ff,
perumahan,Pembangunan Perumahan,Moli sinurat,"MP9M+69R, Sidomulyo, Kec. Nanga Pinoh, Kabupaten Melawi, Kalimantan Barat","Kabupaten Melawi, Kalimantan Barat",KALIMANTAN BARAT,,Indonesia,,,,-0.331892,111.733398,https://maps.google.com/?cid=0x0:0x25120789d15e65bb,
perumahan,Komplek perumahan,My home adzkia,"MP9M+69R, Sidomulyo, Kec. Nanga Pinoh, Kabupaten Melawi, Kalimantan Barat","Kabupaten Melawi, Kalimantan Barat",KALIMANTAN BARAT,,Indonesia,,,,-0.331892,111.733398,https://maps.google.com/?cid=0x0:0x3730200d6d84714,
perumahan,Komplek perumahan,Benny House,"MP9M+69R, gang taubat, Sidomulyo, Kec. Nanga Pinoh, Kabupaten Melawi, Kalimantan Barat","Kabupaten Melawi, Kalimantan Barat",KALIMANTAN BARAT,,Indonesia,,,,-0.331892,111.733398,https://maps.google.com/?cid=0x0:0x1830d4ed4dbd9c4c,
perumahan,Komplek perumahan,HOME KOMDISC,"MP9M+69R, Jl Kota Baru GG Berkah, Sidomulyo, Kec. Nanga Pinoh, Kabupaten Melawi, Kalimantan Barat","Kabupaten Melawi, Kalimantan Barat",KALIMANTAN BARAT,,Indonesia,,,,-0.331892,111.733398,https://maps.google.com/?cid=0x0:0x988df7f627f974ba,
perumahan,Rumah Pondokan,Kosan pak bambang,"MP9M+69R, Sidomulyo, Kec. Nanga Pinoh, Kabupaten Melawi, Kalimantan Barat","Kabupaten Melawi, Kalimantan Barat",KALIMANTAN BARAT,,Indonesia,,,,-0.331892,111.733398,https://maps.google.com/?cid=0x0:0x54da6cfbe0079bf5,
perumahan,Komplek perumahan,Rumah pak Yono,"MP9M+69R, Sidomulyo, Kec. Nanga Pinoh, Kabupaten Melawi, Kalimantan Barat","Kabupaten Melawi, Kalimantan Barat",KALIMANTAN BARAT,,Indonesia,,,,-0.331892,111.733398,https://maps.google.com/?cid=0x0:0x2b5a48616c957a4,
perumahan,Kafe,Kafe remang remang dekat dengan kantor pertaniaan,"MP9M+69R sebela kantor pertaniaan, Sidomulyo, Kec. Nanga Pinoh, Kabupaten Melawi, Kalimantan Barat","Kabupaten Melawi, Kalimantan Barat",KALIMANTAN BARAT,,Indonesia,,,,-0.331892,111.733398,https://maps.google.com/?cid=0x0:0x46b2a21b48279dac,
perumahan,Toko Alat Dapur,Grosir  Eceran Peralatan Dapur,"Jl. Juang No.68 KM.01, Nanga Pinoh, Melawi, Sidomulyo, Kec. Nanga Pinoh, Nanga Pinoh, Kalimantan Barat 79672","Nanga Pinoh, Melawi, Sidomulyo, Kec. Nanga Pinoh, Nanga Pinoh",KALIMANTAN BARAT,79672.0,Indonesia,85386270713.0,,,-0.331892,111.733398,https://maps.google.com/?cid=0x0:0x209914b116f02ad5,
perumahan,Padang,Rumah Mskan Padang Sera Naga Pinoh,"MP9M+69R, Sidomulyo, Kec. Nanga Pinoh, Kabupaten Melawi, Kalimantan Barat 79672","Sidomulyo, Kec. Nanga Pinoh, Kabupaten Melawi",KALIMANTAN BARAT,79672.0,Indonesia,895701712124.0,,,-0.331892,111.733398,https://maps.google.com/?cid=0x0:0x9c4a0dab1b479482,
perumahan,Padang,Andalas Rumah Makan,"MP9M+9CF, JL. Juang Nangapinoh, Sidomulyo, Kec. Nanga Pinoh, Kabupaten Melawi, Kalimantan Barat 79672","JL. Juang Nangapinoh, Sidomulyo, Kec. Nanga Pinoh, Kabupaten Melawi",KALIMANTAN BARAT,79672.0,Indonesia,56821449.0,,,-0.331562,111.733532,https://maps.google.com/?cid=0x0:0x29bc1ba79365830e,
perumahan,Komplek perumahan,PERUMAHAN GURU,"MWH8+9HQ, Nanga MAN, Kec. Pinoh Utara, Kabupaten Melawi, Kalimantan Barat 79672","Nanga MAN, Kec. Pinoh Utara, Kabupaten Melawi",KALIMANTAN BARAT,79672.0,Indonesia,,,,-0.3215487,111.9164779,https://maps.google.com/?cid=0x0:0x2150dff24310c08c,
perumahan,Kafe,Serundung Permai,"MP6P+FMX, Unnamed Road, Kenual, Kec. Nanga Pinoh, Kabupaten Melawi, Kalimantan Barat 79672","Unnamed Road, Kenual, Kec. Nanga Pinoh, Kabupaten Melawi",KALIMANTAN BARAT,79672.0,Indonesia,,,,-0.3387501,111.7367395,https://maps.google.com/?cid=0x0:0x16c1c10dc2222040,
perumahan,Restoran,Rumah makan kembar,"MP9M+69R, Jl, Sidomulyo, Kec. Nanga Pinoh, Kabupaten Melawi, Kalimantan Barat","Kabupaten Melawi, Kalimantan Barat",KALIMANTAN BARAT,,Indonesia,,,,-0.331892,111.733398,https://maps.google.com/?cid=0x0:0x4da4b211f8acdac4,
perumahan,Komplek perumahan,Perumahan Borneo Mandiri,"JQ99+JHG, Jl. Lintas Kalimantan Poros Tengah, Kelakik, Kec. Nanga Pinoh, Kabupaten Melawi, Kalimantan Barat 79672","Jl. Lintas Kalimantan Poros Tengah, Kelakik, Kec. Nanga Pinoh, Kabupaten Melawi",KALIMANTAN BARAT,79672.0,Indonesia,,,,-0.380936,111.7689451,https://maps.google.com/?cid=0x0:0x6eff47489c72093f,
perumahan,perumahan,Kalimantan Barat 79672,"Kabupaten Melawi, Kalimantan Barat","Kabupaten Melawi, Kalimantan Barat",KALIMANTAN BARAT,,Indonesia,,,,-0.4530658,111.8091625,https://maps.google.com/?cid=0x0:0xf8a34da63da634fa,
perumahan,Komplek perumahan,Boby hariyanto,"BTN RSUD, Jalan CASIA 1 No.9A, Kelakik, Kec. Nanga Pinoh, Kabupaten Melawi, Kalimantan Barat 79672","Jalan CASIA 1 No.9A, Kelakik, Kec. Nanga Pinoh, Kabupaten Melawi",KALIMANTAN BARAT,79672.0,Indonesia,,,,-0.3577177,111.7664333,https://maps.google.com/?cid=0x0:0xf1ef7013b9d61a32,
perumahan,Komplek perumahan,Rumah Lenno,"MP8W+XC4, Jl. Nawawi, Paal, Kec. Nanga Pinoh, Kabupaten Melawi, Kalimantan Barat 79672","Jl. Nawawi, Paal, Kec. Nanga Pinoh, Kabupaten Melawi",KALIMANTAN BARAT,79672.0,Indonesia,,,,-0.3326118,111.746088,https://maps.google.com/?cid=0x0:0x23171e5b1e38b29f,
perumahan,Komplek perumahan,Rumah Diana Pangesta,"JQJ5+JCJ, Gg. Abdul Hamid, Kelakik, Kec. Nanga Pinoh, Kabupaten Melawi, Kalimantan Barat 79672","Gg. Abdul Hamid, Kelakik, Kec. Nanga Pinoh, Kabupaten Melawi",KALIMANTAN BARAT,79672.0,Indonesia,,,,-0.3684054,111.7585042,https://maps.google.com/?cid=0x0:0x50c00d0dc42cef35,
perumahan,Komplek perumahan,Rumah bellaarka,"JQV8+9F, Kelakik, Kec. Nanga Pinoh, Kabupaten Melawi, Kalimantan Barat 79672","Kelakik, Kec. Nanga Pinoh, Kabupaten Melawi",KALIMANTAN BARAT,79672.0,Indonesia,,,,-0.3565226,111.7661217,https://maps.google.com/?cid=0x0:0x63f4228b9fd392c,
perumahan,Komplek perumahan,Rumah Muklis,"JPGW+CM2, Tj. Lay, Kec. Nanga Pinoh, Kabupaten Melawi, Kalimantan Barat 79672","Tj. Lay, Kec. Nanga Pinoh, Kabupaten Melawi",KALIMANTAN BARAT,79672.0,Indonesia,,,,-0.3739987,111.7466502,https://maps.google.com/?cid=0x0:0xf6555ae15d5a569a,
perumahan,Perumahan,Rumah regi,"JRQ3+4Q6, Tj. Paoh, Kec. Pinoh Utara, Kabupaten Melawi, Kalimantan Barat 79672","Tj. Paoh, Kec. Pinoh Utara, Kabupaten Melawi",KALIMANTAN BARAT,79672.0,Indonesia,,,,-0.3622021,111.8043926,https://maps.google.com/?cid=0x0:0x7ce40c3f3517b1ec,
perumahan,Komplek perumahan,Rumah Angga,"JRQ3+G83, Tj. Paoh, Kec. Pinoh Utara, Kabupaten Melawi, Kalimantan Barat 79672","Tj. Paoh, Kec. Pinoh Utara, Kabupaten Melawi",KALIMANTAN BARAT,79672.0,Indonesia,,,,-0.3609301,111.8041133,https://maps.google.com/?cid=0x0:0xe9db565e0db743a9,
perumahan,Komplek perumahan,Rumah edo,"JQX4+VCC, Paal, Kec. Nanga Pinoh, Kabupaten Melawi, Kalimantan Barat 79672","Paal, Kec. Nanga Pinoh, Kabupaten Melawi",KALIMANTAN BARAT,79672.0,Indonesia,,,,-0.3505239,111.7556784,https://maps.google.com/?cid=0x0:0xdeffb351bc8bbfb7,
perumahan,Komplek perumahan,Home,"MP4W+CJ5, Jl. Juang, Paal, Kec. Nanga Pinoh, Kabupaten Melawi, Kalimantan Barat 79672","Jl. Juang, Paal, Kec. Nanga Pinoh, Kabupaten Melawi",KALIMANTAN BARAT,79672.0,Indonesia,,,,-0.3439788,111.746595,https://maps.google.com/?cid=0x0:0x116ee3c61dbdde6,
perumahan,Komplek perumahan,Rumah Pak Syafarudin,"MP8G+422, Sidomulyo, Kec. Nanga Pinoh, Kabupaten Melawi, Kalimantan Barat 79672","Sidomulyo, Kec. Nanga Pinoh, Kabupaten Melawi",KALIMANTAN BARAT,79672.0,Indonesia,,,,-0.3347395,111.7250293,https://maps.google.com/?cid=0x0:0x55b896b291ae9143,
perumahan,Pembangunan Perumahan,Mantri Sonten,"MP6X+VW, Paal, Kec. Nanga Pinoh, Kabupaten Melawi, Kalimantan Barat 79672","Paal, Kec. Nanga Pinoh, Kabupaten Melawi",KALIMANTAN BARAT,79672.0,Indonesia,,,,-0.33785,111.7498617,https://maps.google.com/?cid=0x0:0xe254ae5787dbf525,
perumahan,Komplek perumahan,MADIN BUSTANUT THOLABAH,"Landau Garong, Kec. Pinoh Sel., Kabupaten Melawi, Kalimantan Barat 79672","Kec. Pinoh Sel., Kabupaten Melawi",KALIMANTAN BARAT,79672.0,Indonesia,,,,-0.5061952,111.8357987,https://maps.google.com/?cid=0x0:0xcb44de3713266e41,
perumahan,Kantor Perusahaan,Komplek rumah dinas DPRD Melawi,"JQV4+7C4, Jl. Lintas Kalimantan Poros Tengah, Paal, Kec. Nanga Pinoh, Kabupaten Melawi, Kalimantan Barat 79672","Jl. Lintas Kalimantan Poros Tengah, Paal, Kec. Nanga Pinoh, Kabupaten Melawi",KALIMANTAN BARAT,79672.0,Indonesia,,,,-0.3561813,111.7560494,https://maps.google.com/?cid=0x0:0xf60d4821e0b5058,
perumahan,Komplek perumahan,Rumah Rendy Kristendy,"MQ26+XM, Paal, Kec. Nanga Pinoh, Kabupaten Melawi, Kalimantan Barat","Kabupaten Melawi, Kalimantan Barat",KALIMANTAN BARAT,,Indonesia,,,,-0.3475514,111.7617079,https://maps.google.com/?cid=0x0:0xfd0f1d1fe496ac8b,
perumahan,Komplek perumahan,RUMAH LIK SARIM,"GQRX+RWF, Jl. Pinus, Manggala, Kec. Pinoh Sel., Kabupaten Melawi, Kalimantan Barat 79672","Jl. Pinus, Manggala, Kec. Pinoh Sel., Kabupaten Melawi",KALIMANTAN BARAT,79672.0,Indonesia,,,,-0.4579309,111.7997998,https://maps.google.com/?cid=0x0:0xfc42f2d55fc731c8,
perumahan,Komplek perumahan,FJR,"JPVX+PRG, Tj. Niaga, Kec. Nanga Pinoh, Kabupaten Melawi, Kalimantan Barat 79672","Tj. Niaga, Kec. Nanga Pinoh, Kabupaten Melawi",KALIMANTAN BARAT,79672.0,Indonesia,,,,-0.3556757,111.7495746,https://maps.google.com/?cid=0x0:0x12ee9805a6454114,
perumahan,Komplek perumahan,Rumah saya,"JQWJ+497, Paal, Kec. Nanga Pinoh, Kabupaten Melawi, Kalimantan Barat 79672","Paal, Kec. Nanga Pinoh, Kabupaten Melawi",KALIMANTAN BARAT,79672.0,Indonesia,,,,-0.3552432,111.7800647,https://maps.google.com/?cid=0x0:0x56c29f4d0de520fe,
perumahan,Perumahan,Along iqbal,"JQF4+Q4R, Tj. Lay, Kec. Nanga Pinoh, Kabupaten Melawi, Kalimantan Barat 79672","Tj. Lay, Kec. Nanga Pinoh, Kabupaten Melawi",KALIMANTAN BARAT,79672.0,Indonesia,,,,-0.3751512,111.7553467,https://maps.google.com/?cid=0x0:0xd5c75b1e02bac121,
perumahan,Komplek perumahan,Selaoh Desa Nanga Man Kecamatan Pinoh Utara Kabupaten Melawi,"MW7R+3WV, Sungai Pinang, Kec. Pinoh Utara, Kabupaten Melawi, Kalimantan Barat 79672","Sungai Pinang, Kec. Pinoh Utara, Kabupaten Melawi",KALIMANTAN BARAT,79672.0,Indonesia,,,,-0.3372731,111.9423103,https://maps.google.com/?cid=0x0:0x519c937fe2bd2ba7,
perumahan,Komplek perumahan,Rumah Bernadus,"MP5R+WFC, Jl. Patikrama, Kenual, Kec. Nanga Pinoh, Kabupaten Melawi, Kalimantan Barat 79672","Jl. Patikrama, Kenual, Kec. Nanga Pinoh, Kabupaten Melawi",KALIMANTAN BARAT,79672.0,Indonesia,,,,-0.3401854,111.7411462,https://maps.google.com/?cid=0x0:0x55ea531d3f2a5508,
perumahan,Komplek perumahan,Rumah Agung Prasetyo Paling Ganteng,"MP7W+9GM, Gg. Babussalam, Paal, Kec. Nanga Pinoh, Kabupaten Melawi, Kalimantan Barat 79672","Gg. Babussalam, Paal, Kec. Nanga Pinoh, Kabupaten Melawi",KALIMANTAN BARAT,79672.0,Indonesia,,,,-0.3365429,111.746297,https://maps.google.com/?cid=0x0:0x5b077694fc660333,
perumahan,Pembangunan Perumahan,Rumah Sugiarto,"MP2R+9H4, Kenual, Kec. Nanga Pinoh, Kabupaten Melawi, Kalimantan Barat 79672","Kenual, Kec. Nanga Pinoh, Kabupaten Melawi",KALIMANTAN BARAT,79672.0,Indonesia,,,,-0.3491079,111.7414533,https://maps.google.com/?cid=0x0:0x2d9d057b6f024b62,
perumahan,Komplek perumahan,Akmanir Yasipun,"GQRX+RWF, Jl. Pinus, Manggala, Kec. Pinoh Sel., Kabupaten Melawi, Kalimantan Barat 79672","Jl. Pinus, Manggala, Kec. Pinoh Sel., Kabupaten Melawi",KALIMANTAN BARAT,79672.0,Indonesia,,,,-0.4579289,111.7997938,https://maps.google.com/?cid=0x0:0x77ebc4e9ae5f5a0d,
perumahan,Komplek perumahan,rumah robu,"MR35+HC, Semadin Lengkong, Kec. Nanga Pinoh, Kabupaten Melawi, Kalimantan Barat","Kabupaten Melawi, Kalimantan Barat",KALIMANTAN BARAT,,Indonesia,,,,-0.3460418,111.8085849,https://maps.google.com/?cid=0x0:0x3dba911aa59d1f6c,
perumahan,Kantor Pemerintah,Manggala,"GQXX+3VJ, Manggala, Kec. Pinoh Sel., Kabupaten Melawi, Kalimantan Barat","Kabupaten Melawi, Kalimantan Barat",KALIMANTAN BARAT,,Indonesia,,,,-0.4522997,111.7996551,https://maps.google.com/?cid=0x0:0x2ad5582c074e8cb4,
perumahan,perumahan,Kalimantan Barat 79672,"Kabupaten Melawi, Kalimantan Barat","Kabupaten Melawi, Kalimantan Barat",KALIMANTAN BARAT,,Indonesia,,,,-0.4530658,111.8091625,https://maps.google.com/?cid=0x0:0xf8a34da63da634fa,
perumahan,Komplek perumahan,Selaoh Desa Nanga Man Kecamatan Pinoh Utara Kabupaten Melawi,"MW7R+3WV, Sungai Pinang, Kec. Pinoh Utara, Kabupaten Melawi, Kalimantan Barat 79672","Sungai Pinang, Kec. Pinoh Utara, Kabupaten Melawi",KALIMANTAN BARAT,79672.0,Indonesia,,,,-0.3372731,111.9423103,https://maps.google.com/?cid=0x0:0x519c937fe2bd2ba7,
perumahan,Perumahan,Rumah regi,"JRQ3+4Q6, Tj. Paoh, Kec. Pinoh Utara, Kabupaten Melawi, Kalimantan Barat 79672","Tj. Paoh, Kec. Pinoh Utara, Kabupaten Melawi",KALIMANTAN BARAT,79672.0,Indonesia,,,,-0.3622021,111.8043926,https://maps.google.com/?cid=0x0:0x7ce40c3f3517b1ec,
perumahan,Komplek perumahan,Boby hariyanto,"BTN RSUD, Jalan CASIA 1 No.9A, Kelakik, Kec. Nanga Pinoh, Kabupaten Melawi, Kalimantan Barat 79672","Jalan CASIA 1 No.9A, Kelakik, Kec. Nanga Pinoh, Kabupaten Melawi",KALIMANTAN BARAT,79672.0,Indonesia,,,,-0.3577177,111.7664333,https://maps.google.com/?cid=0x0:0xf1ef7013b9d61a32,
perumahan,Komplek perumahan,Perumahan Borneo Mandiri,"JQ99+JHG, Jl. Lintas Kalimantan Poros Tengah, Kelakik, Kec. Nanga Pinoh, Kabupaten Melawi, Kalimantan Barat 79672","Jl. Lintas Kalimantan Poros Tengah, Kelakik, Kec. Nanga Pinoh, Kabupaten Melawi",KALIMANTAN BARAT,79672.0,Indonesia,,,,-0.380936,111.7689451,https://maps.google.com/?cid=0x0:0x6eff47489c72093f,
perumahan,Komplek perumahan,Rumah Lenno,"MP8W+XC4, Jl. Nawawi, Paal, Kec. Nanga Pinoh, Kabupaten Melawi, Kalimantan Barat 79672","Jl. Nawawi, Paal, Kec. Nanga Pinoh, Kabupaten Melawi",KALIMANTAN BARAT,79672.0,Indonesia,,,,-0.3326118,111.746088,https://maps.google.com/?cid=0x0:0x23171e5b1e38b29f,
perumahan,Komplek perumahan,Rumah bellaarka,"JQV8+9F, Kelakik, Kec. Nanga Pinoh, Kabupaten Melawi, Kalimantan Barat 79672","Kelakik, Kec. Nanga Pinoh, Kabupaten Melawi",KALIMANTAN BARAT,79672.0,Indonesia,,,,-0.3565226,111.7661217,https://maps.google.com/?cid=0x0:0x63f4228b9fd392c,
perumahan,Komplek perumahan,Rumah Diana Pangesta,"JQJ5+JCJ, Gg. Abdul Hamid, Kelakik, Kec. Nanga Pinoh, Kabupaten Melawi, Kalimantan Barat 79672","Gg. Abdul Hamid, Kelakik, Kec. Nanga Pinoh, Kabupaten Melawi",KALIMANTAN BARAT,79672.0,Indonesia,,,,-0.3684054,111.7585042,https://maps.google.com/?cid=0x0:0x50c00d0dc42cef35,
perumahan,Komplek perumahan,Home,"MP4W+CJ5, Jl. Juang, Paal, Kec. Nanga Pinoh, Kabupaten Melawi, Kalimantan Barat 79672","Jl. Juang, Paal, Kec. Nanga Pinoh, Kabupaten Melawi",KALIMANTAN BARAT,79672.0,Indonesia,,,,-0.3439788,111.746595,https://maps.google.com/?cid=0x0:0x116ee3c61dbdde6,
perumahan,Komplek perumahan,Rumah Pak Syafarudin,"MP8G+422, Sidomulyo, Kec. Nanga Pinoh, Kabupaten Melawi, Kalimantan Barat 79672","Sidomulyo, Kec. Nanga Pinoh, Kabupaten Melawi",KALIMANTAN BARAT,79672.0,Indonesia,,,,-0.3347395,111.7250293,https://maps.google.com/?cid=0x0:0x55b896b291ae9143,
perumahan,Komplek perumahan,Rumah edo,"JQX4+VCC, Paal, Kec. Nanga Pinoh, Kabupaten Melawi, Kalimantan Barat 79672","Paal, Kec. Nanga Pinoh, Kabupaten Melawi",KALIMANTAN BARAT,79672.0,Indonesia,,,,-0.3505239,111.7556784,https://maps.google.com/?cid=0x0:0xdeffb351bc8bbfb7,
perumahan,Komplek perumahan,Darwin,"Casia 2 No.15a, Kelakik, Kec. Nanga Pinoh, Kabupaten Melawi, Kalimantan Barat 79672","Kelakik, Kec. Nanga Pinoh, Kabupaten Melawi",KALIMANTAN BARAT,79672.0,Indonesia,,,,-0.3575365,111.7668176,https://maps.google.com/?cid=0x0:0xe63dc03f4f6f3a44,
perumahan,Komplek perumahan,Rumah Muklis,"JPGW+CM2, Tj. Lay, Kec. Nanga Pinoh, Kabupaten Melawi, Kalimantan Barat 79672","Tj. Lay, Kec. Nanga Pinoh, Kabupaten Melawi",KALIMANTAN BARAT,79672.0,Indonesia,,,,-0.3739987,111.7466502,https://maps.google.com/?cid=0x0:0xf6555ae15d5a569a,
perumahan,Komplek perumahan,Rumah Agung Prasetyo Paling Ganteng,"MP7W+9GM, Gg. Babussalam, Paal, Kec. Nanga Pinoh, Kabupaten Melawi, Kalimantan Barat 79672","Gg. Babussalam, Paal, Kec. Nanga Pinoh, Kabupaten Melawi",KALIMANTAN BARAT,79672.0,Indonesia,,,,-0.3365429,111.746297,https://maps.google.com/?cid=0x0:0x5b077694fc660333,
perumahan,Pembangunan Perumahan,Rumah Sugiarto,"MP2R+9H4, Kenual, Kec. Nanga Pinoh, Kabupaten Melawi, Kalimantan Barat 79672","Kenual, Kec. Nanga Pinoh, Kabupaten Melawi",KALIMANTAN BARAT,79672.0,Indonesia,,,,-0.3491079,111.7414533,https://maps.google.com/?cid=0x0:0x2d9d057b6f024b62,
perumahan,Komplek perumahan,Rumah,"MP3R+G48, Kenual, Kec. Nanga Pinoh, Kabupaten Melawi, Kalimantan Barat 79672","Kenual, Kec. Nanga Pinoh, Kabupaten Melawi",KALIMANTAN BARAT,79672.0,Indonesia,,,,-0.346283,111.7402756,https://maps.google.com/?cid=0x0:0xf252d56361789c6e,
perumahan,Komplek perumahan,FJR,"JPVX+PRG, Tj. Niaga, Kec. Nanga Pinoh, Kabupaten Melawi, Kalimantan Barat 79672","Tj. Niaga, Kec. Nanga Pinoh, Kabupaten Melawi",KALIMANTAN BARAT,79672.0,Indonesia,,,,-0.3556757,111.7495746,https://maps.google.com/?cid=0x0:0x12ee9805a6454114,
perumahan,Perumahan,Along iqbal,"JQF4+Q4R, Tj. Lay, Kec. Nanga Pinoh, Kabupaten Melawi, Kalimantan Barat 79672","Tj. Lay, Kec. Nanga Pinoh, Kabupaten Melawi",KALIMANTAN BARAT,79672.0,Indonesia,,,,-0.3751512,111.7553467,https://maps.google.com/?cid=0x0:0xd5c75b1e02bac121,
perumahan,Kantor Perusahaan,Komplek rumah dinas DPRD Melawi,"JQV4+7C4, Jl. Lintas Kalimantan Poros Tengah, Paal, Kec. Nanga Pinoh, Kabupaten Melawi, Kalimantan Barat 79672","Jl. Lintas Kalimantan Poros Tengah, Paal, Kec. Nanga Pinoh, Kabupaten Melawi",KALIMANTAN BARAT,79672.0,Indonesia,,,,-0.3561813,111.7560494,https://maps.google.com/?cid=0x0:0xf60d4821e0b5058,
perumahan,Komplek perumahan,Rumah Rendy Kristendy,"MQ26+XM, Paal, Kec. Nanga Pinoh, Kabupaten Melawi, Kalimantan Barat","Kabupaten Melawi, Kalimantan Barat",KALIMANTAN BARAT,,Indonesia,,,,-0.3475514,111.7617079,https://maps.google.com/?cid=0x0:0xfd0f1d1fe496ac8b,
perumahan,Komplek perumahan,PERUMAHAN GURU,"MWH8+9HQ, Nanga MAN, Kec. Pinoh Utara, Kabupaten Melawi, Kalimantan Barat 79672","Nanga MAN, Kec. Pinoh Utara, Kabupaten Melawi",KALIMANTAN BARAT,79672.0,Indonesia,,,,-0.3215487,111.9164779,https://maps.google.com/?cid=0x0:0x2150dff24310c08c,
perumahan,Komplek perumahan,Rumah Bernadus,"MP5R+WFC, Jl. Patikrama, Kenual, Kec. Nanga Pinoh, Kabupaten Melawi, Kalimantan Barat 79672","Jl. Patikrama, Kenual, Kec. Nanga Pinoh, Kabupaten Melawi",KALIMANTAN BARAT,79672.0,Indonesia,,,,-0.3401854,111.7411462,https://maps.google.com/?cid=0x0:0x55ea531d3f2a5508,
perumahan,perumahan,Kalimantan Barat 79673,"Kec. Sayan, Kabupaten Melawi, Kalimantan Barat","Kabupaten Melawi, Kalimantan Barat",KALIMANTAN BARAT,,Indonesia,,,,-0.7351798,111.7137694,https://maps.google.com/?cid=0x0:0x6560f1dffd0c539e,
perumahan,Pembangunan Perumahan,Desa Nanga Sayan,"8M54+M2P, Nanga Sayan, Kec. Sayan, Kabupaten Melawi, Kalimantan Barat","Kabupaten Melawi, Kalimantan Barat",KALIMANTAN BARAT,,Indonesia,,,,-0.6907985,111.6550933,https://maps.google.com/?cid=0x0:0x8c8fdc27413467df,
perumahan,Komplek perumahan,Rumah Ipan,"7MPG+VJC, Nanga Sayan, Kec. Sayan, Kabupaten Melawi, Kalimantan Barat 79673","Nanga Sayan, Kec. Sayan, Kabupaten Melawi",KALIMANTAN BARAT,79673.0,Indonesia,,,,-0.7147566,111.6757511,https://maps.google.com/?cid=0x0:0x9e672dde11abb2f2,
perumahan,Pembangunan Perumahan,Nanga linsog,"9JFG+65, Karangan Purun, Kec. Sayan, Kabupaten Melawi, Kalimantan Barat","Kabupaten Melawi, Kalimantan Barat",KALIMANTAN BARAT,,Indonesia,,,,-0.6269375,111.6254375,https://maps.google.com/?cid=0x0:0x5c8a6f2eef207c4e,
perumahan,Komplek perumahan,Karanganpoeroeng,"9M8M+M88, Berobai Permai, Kec. Sayan, Kabupaten Melawi, Kalimantan Barat","Kabupaten Melawi, Kalimantan Barat",KALIMANTAN BARAT,,Indonesia,,,,-0.633333,111.683333,https://maps.google.com/?cid=0x0:0xfc3c3287afeada28,
perumahan,Pembangunan Perumahan,Desa Nanga Raku,"6QJW+VMP, Nanga Raku, Kec. Sayan, Kabupaten Melawi, Kalimantan Barat","Kabupaten Melawi, Kalimantan Barat",KALIMANTAN BARAT,,Indonesia,,,,-0.767775,111.7967014,https://maps.google.com/?cid=0x0:0x4788162a00ab3df3,
perumahan,Perumahan,Dusun Sanggau Mandiri,"8Q3Q+FGQ, Meta Bersatu, Kec. Sayan, Kabupaten Melawi, Kalimantan Barat 79673","Meta Bersatu, Kec. Sayan, Kabupaten Melawi",KALIMANTAN BARAT,79673.0,Indonesia,,,,-0.6962803,111.7888491,https://maps.google.com/?cid=0x0:0x9afd74fa5bd300b8,
perumahan,Komplek perumahan,Berobai Permai,"9MC6+5FJ, Berobai Permai, Kec. Sayan, Kabupaten Melawi, Kalimantan Barat 79673","Berobai Permai, Kec. Sayan, Kabupaten Melawi",KALIMANTAN BARAT,79673.0,Indonesia,,,,-0.629536,111.6611562,https://maps.google.com/?cid=0x0:0x142d787d7be6612,
perumahan,Komplek perumahan,Rumah Aontambora,"8P3J+VM6, Mekar Pelita, Kec. Sayan, Kabupaten Melawi, Kalimantan Barat 79673","Mekar Pelita, Kec. Sayan, Kabupaten Melawi",KALIMANTAN BARAT,79673.0,Indonesia,,,,-0.6953344,111.7316557,https://maps.google.com/?cid=0x0:0x3897a6eb97b411b8,
perumahan,Komplek perumahan,Ulfa,"7MHG+MFV, Sayan Jaya, Kec. Sayan, Kabupaten Melawi, Kalimantan Barat 79673","Sayan Jaya, Kec. Sayan, Kabupaten Melawi",KALIMANTAN BARAT,79673.0,Indonesia,,,,-0.7207744,111.6761746,https://maps.google.com/?cid=0x0:0xdd6b949b17769c68,
perumahan,Komplek perumahan,Rumah Tiara,"7MP8+2G, Nanga Sayan, Kec. Sayan, Kabupaten Melawi, Kalimantan Barat","Kabupaten Melawi, Kalimantan Barat",KALIMANTAN BARAT,,Indonesia,,,,-0.7152317,111.666641,https://maps.google.com/?cid=0x0:0x721b650663f26e52,
perumahan,Komplek perumahan,Artin ajja,"7MX8+XCG, Nanga Sayan, Kec. Sayan, Kabupaten Melawi, Kalimantan Barat","Kabupaten Melawi, Kalimantan Barat",KALIMANTAN BARAT,,Indonesia,,,,-0.7000681,111.6660725,https://maps.google.com/?cid=0x0:0x55c17acb810dc773,
perumahan,Komplek perumahan,RUMAH SAKHI,"7MM6+7M5, Nanga Sayan, Kec. Sayan, Kabupaten Melawi, Kalimantan Barat","Kabupaten Melawi, Kalimantan Barat",KALIMANTAN BARAT,,Indonesia,,,,-0.7170984,111.6613121,https://maps.google.com/?cid=0x0:0xdb7ce56fe533ace8,
perumahan,Komplek perumahan,Rumah elby,"6Q6P+V44, Nanga Raku, Kec. Sayan, Kabupaten Melawi, Kalimantan Barat","Kabupaten Melawi, Kalimantan Barat",KALIMANTAN BARAT,,Indonesia,,,,-0.7878647,111.7853143,https://maps.google.com/?cid=0x0:0xc87206e717bd97d8,
perumahan,perumahan,Rumah Daud,"4MQ7+RV, Nanga Kompi, Kec. Sayan, Kabupaten Melawi, Kalimantan Barat","Kabupaten Melawi, Kalimantan Barat",KALIMANTAN BARAT,,Indonesia,,,,-0.8603888,111.6646582,https://maps.google.com/?cid=0x0:0xbf0a62149d331907,
perumahan,Komplek perumahan,Rumah ruly,"7MMF+FQJ, Siling Permai, Kec. Sayan, Kabupaten Melawi, Kalimantan Barat","Kabupaten Melawi, Kalimantan Barat",KALIMANTAN BARAT,,Indonesia,,,,-0.7162995,111.6743896,https://maps.google.com/?cid=0x0:0x27273ed7409bf89,
perumahan,Pembangunan Perumahan,Nur soliqin,"7MX8+XCG, Rt09rw03Beloyang, Kec. Sayan, Kabupaten Melawi, Kalimantan Barat","Kabupaten Melawi, Kalimantan Barat",KALIMANTAN BARAT,,Indonesia,,,,-0.7000681,111.6660725,https://maps.google.com/?cid=0x0:0xde1040feaf61f9f8,
perumahan,Komplek perumahan,Pondok Mumu,"7MJG+385, Lingkar Indah, Kec. Sayan, Kabupaten Melawi, Kalimantan Barat 79673","Lingkar Indah, Kec. Sayan, Kabupaten Melawi",KALIMANTAN BARAT,79673.0,Indonesia,,,,-0.7198625,111.6758594,https://maps.google.com/?cid=0x0:0x473fa6e8af653e99,
perumahan,Komplek perumahan,Rumah Aidil WE,"7MM6+MQM, JL. Pangeran Mangku, Nanga Sayan, Kec. Sayan, Kabupaten Melawi, Kalimantan Barat","Kabupaten Melawi, Kalimantan Barat",KALIMANTAN BARAT,,Indonesia,,,,-0.7157833,111.6619347,https://maps.google.com/?cid=0x0:0xefabfb9368806839,
perumahan,Komplek perumahan,Kepala Gading,"9M39+PP, Karangan Purun, Kec. Sayan, Kabupaten Melawi, Kalimantan Barat","Kabupaten Melawi, Kalimantan Barat",KALIMANTAN BARAT,,Indonesia,,,,-0.6455327,111.6690765,https://maps.google.com/?cid=0x0:0x10095241dce4366a,
perumahan,Vila,Breeze,"F7R2+4PP, Sayan, Kecamatan Ubud, Kabupaten Gianyar, Bali 80571","Sayan, Kecamatan Ubud, Kabupaten Gianyar",KALIMANTAN BARAT,80571.0,Indonesia,,,,-8.5096626,115.2518301,https://maps.google.com/?cid=0x0:0x81748067f6fda81c,
perumahan,Komplek perumahan,Satria dewa,"Jl. Penestanan Kelod Gg. Dewi Kunti No.madri 1, Sayan, Kecamatan Ubud, Kabupaten Gianyar, Bali 80571","Sayan, Kecamatan Ubud, Kabupaten Gianyar",KALIMANTAN BARAT,80571.0,Indonesia,,,,-8.5077796,115.2466153,https://maps.google.com/?cid=0x0:0x73590b443c4cb4da,
perumahan,Komplek perumahan,Kamanaya Ubud,"Jl. Sindu, Sayan, Kecamatan Ubud, Kabupaten Gianyar, Bali 80571","Sayan, Kecamatan Ubud, Kabupaten Gianyar",KALIMANTAN BARAT,80571.0,Indonesia,85858810071.0,,,-8.513685,115.2347732,https://maps.google.com/?cid=0x0:0xe105fe2b21b1ca65,
perumahan,perumahan,Home,"F6VR+FF7, Jl.Raya, Sayan, Ubud, Gianyar Regency, Bali 80571","Jl.Raya, Sayan, Ubud, Gianyar Regency",KALIMANTAN BARAT,80571.0,Indonesia,,,,-8.5100685,115.2414639,https://maps.google.com/?cid=0x0:0xcc5e73700fbb8b5d,
perumahan,Komplek perumahan,Jero Griya,"Sayan, Kecamatan Ubud, Kabupaten Gianyar, Bali 80571","Kecamatan Ubud, Kabupaten Gianyar",KALIMANTAN BARAT,80571.0,Indonesia,,,,-8.5109425,115.2405449,https://maps.google.com/?cid=0x0:0xd4ca34407730c2e5,
perumahan,perumahan,OEMAH NOMBROG 3,"Jl. Nagasari Jl. Banjar Penestanan Kaja, Sayan, Kecamatan Ubud, Kabupaten Gianyar, Bali 80571","Sayan, Kecamatan Ubud, Kabupaten Gianyar",KALIMANTAN BARAT,80571.0,Indonesia,,,,-8.5059869,115.2485936,https://maps.google.com/?cid=0x0:0x782486b6b6419193,
perumahan,Pembangunan Perumahan,Pondok Lengkong,"G62W+9PC, Sayan, Kecamatan Ubud, Kabupaten Gianyar, Bali 80571","Sayan, Kecamatan Ubud, Kabupaten Gianyar",KALIMANTAN BARAT,80571.0,Indonesia,,,,-8.4990631,115.2467804,https://maps.google.com/?cid=0x0:0x834a50eaf87484a1,
perumahan,Taman,Secret garden Tiny House,"F6PQ+2JR, Unnamed Road, Sayan, Kecamatan Ubud, Kabupaten Gianyar, Bali 80571","Unnamed Road, Sayan, Kecamatan Ubud, Kabupaten Gianyar",KALIMANTAN BARAT,80571.0,Indonesia,,,,-8.5148922,115.2390219,https://maps.google.com/?cid=0x0:0xd2e1b361f0be83cb,
perumahan,Vila,Koya D' Uma,"Sayan, Kecamatan Ubud, Kabupaten Gianyar, Bali 80571","Kecamatan Ubud, Kabupaten Gianyar",KALIMANTAN BARAT,80571.0,Indonesia,81237278438.0,,,-8.5103743,115.2538902,https://maps.google.com/?cid=0x0:0x3b7b6147e7301681,
perumahan,Pembangunan Perumahan,Nanga Ora,"4G24+R4J, Nanga Sokan, Sokan, Kabupaten Melawi, Kalimantan Barat 79674","Nanga Sokan, Sokan, Kabupaten Melawi",KALIMANTAN BARAT,79674.0,Indonesia,,,,-0.897881,111.5051258,https://maps.google.com/?cid=0x0:0xbc60271ab493d9ab,
perumahan,perumahan,Kalimantan Barat 79675,"Kabupaten Melawi, Kalimantan Barat","Kabupaten Melawi, Kalimantan Barat",KALIMANTAN BARAT,,Indonesia,,,,-1.0571933,111.3798928,https://maps.google.com/?cid=0x0:0x9429eb57dc989adc,
perumahan,Pusat kebudayaan,kerangan panjang,"RCX2+GFW, Nanga Ora, Sokan, Kabupaten Melawi, Kalimantan Barat 79675","Nanga Ora, Sokan, Kabupaten Melawi",KALIMANTAN BARAT,79675.0,Indonesia,,,,-1.1511287,111.4012022,https://maps.google.com/?cid=0x0:0x9ee5e582a450907a,
perumahan,Kantor Pemerintah,Desa teluk pongkal,"X7W6+67C, Tlk. Pongkal, Sokan, Kabupaten Melawi, Kalimantan Barat","Kabupaten Melawi, Kalimantan Barat",KALIMANTAN BARAT,,Indonesia,,,,-1.0044352,111.2606554,https://maps.google.com/?cid=0x0:0xb9cfcd53c877f746,
perumahan,Pembangunan Perumahan,Desa Nanga Ora,"RCWG+6P, Nanga Ora, Sokan, Kabupaten Melawi, Kalimantan Barat","Kabupaten Melawi, Kalimantan Barat",KALIMANTAN BARAT,,Indonesia,,,,-1.1543845,111.4267996,https://maps.google.com/?cid=0x0:0xe9be74c58c32ef53,
perumahan,Pembangunan Perumahan,Nanga sokan,"7MX8+XCG, Nanga Sayan, Kec. Sayan, Kabupaten Melawi, Kalimantan Barat","Kabupaten Melawi, Kalimantan Barat",KALIMANTAN BARAT,,Indonesia,,,,-0.7000681,111.6660725,https://maps.google.com/?cid=0x0:0x6e4d16c5a96fb102,
perumahan,Komplek perumahan,Desa tanjung sokan,"3FWQ+9G9, Tj. Sokan, Sokan, Kabupaten Melawi, Kalimantan Barat","Kabupaten Melawi, Kalimantan Barat",KALIMANTAN BARAT,,Indonesia,,,,-0.9040983,111.488855,https://maps.google.com/?cid=0x0:0x21f2836403575759,
perumahan,perumahan,Desa Gelata,"XFPW+43P, Gelata, Sokan, Kabupaten Melawi, Kalimantan Barat 79675","Gelata, Sokan, Kabupaten Melawi",KALIMANTAN BARAT,79675.0,Indonesia,,,,-1.0146709,111.4952002,https://maps.google.com/?cid=0x0:0xc0d6409903cdc7ff,
perumahan,Komplek perumahan,Cecep home,"Jalan No.3, Nanga Sokan, Sokan, Melawi Regency, West Kalimantan 79675","Nanga Sokan, Sokan, Melawi Regency",KALIMANTAN BARAT,79675.0,Indonesia,,,,-0.9028207,111.5011061,https://maps.google.com/?cid=0x0:0x4c8c83941e66a20c,
perumahan,Rumah wisata,Desa Nanga Libas,"WF6J+HV2, Nanga Libas, Sokan, Kabupaten Melawi, Kalimantan Barat 79675","Nanga Libas, Sokan, Kabupaten Melawi",KALIMANTAN BARAT,79675.0,Indonesia,,,,-1.088618,111.4821493,https://maps.google.com/?cid=0x0:0x2d9175d2e0fb7128,
perumahan,Komplek perumahan,Manga betangai,"2GRM+QXR, Nanga Betangai, Sokan, Kabupaten Melawi, Kalimantan Barat 79675","Nanga Betangai, Sokan, Kabupaten Melawi",KALIMANTAN BARAT,79675.0,Indonesia,,,,-0.9580132,111.5349059,https://maps.google.com/?cid=0x0:0xd05ff324e0494956,
perumahan,Komplek perumahan,Tengkanyang permai,"4F2P+3CX, Tj. Sokan, Sokan, Kabupaten Melawi, Kalimantan Barat","Kabupaten Melawi, Kalimantan Barat",KALIMANTAN BARAT,,Indonesia,,,,-0.899753,111.486099,https://maps.google.com/?cid=0x0:0x7cf0e9567d149bbe,
perumahan,Komplek perumahan,Home Kristian Natalyo,"2FG3+P8, Keluing Taja, Sokan, Kabupaten Melawi, Kalimantan Barat","Kabupaten Melawi, Kalimantan Barat",KALIMANTAN BARAT,,Indonesia,,,,-0.9738092,111.454032,https://maps.google.com/?cid=0x0:0xed8f6a2d34ec814d,
perumahan,perumahan,Rumah Daud,"4MQ7+RV, Nanga Kompi, Kec. Sayan, Kabupaten Melawi, Kalimantan Barat","Kabupaten Melawi, Kalimantan Barat",KALIMANTAN BARAT,,Indonesia,,,,-0.8603888,111.6646582,https://maps.google.com/?cid=0x0:0xbf0a62149d331907,
perumahan,Komplek perumahan,TN. QADDI TATA MANHKU JEGARA,"3GV2+685, Nanga Sokan, Sokan, Kabupaten Melawi, Kalimantan Barat","Kabupaten Melawi, Kalimantan Barat",KALIMANTAN BARAT,,Indonesia,,,,-0.9069984,111.5008613,https://maps.google.com/?cid=0x0:0xbfa7ee8d10cc0d22,
perumahan,Komplek perumahan,Ummu Faal,"3GV2+H2P, Sepakat, Sokan, Kabupaten Melawi, Kalimantan Barat 79674","Sepakat, Sokan, Kabupaten Melawi",KALIMANTAN BARAT,79674.0,Indonesia,,,,-0.9060375,111.5000781,https://maps.google.com/?cid=0x0:0x79d513ff1ed4042c,
perumahan,perumahan,Sokan,"Kabupaten Melawi, Kalimantan Barat","Kabupaten Melawi, Kalimantan Barat",KALIMANTAN BARAT,,Indonesia,,,,-1.0571933,111.3798928,https://maps.google.com/?cid=0x0:0x9390df1f8b50a713,
perumahan,perumahan,Dusun jaya karya,"5G4M+QH, Madong Jaya, Kec. Tanah Pinoh, Kabupaten Melawi, Kalimantan Barat","Kabupaten Melawi, Kalimantan Barat",KALIMANTAN BARAT,,Indonesia,,,,-0.843016,111.5339904,https://maps.google.com/?cid=0x0:0x97cd13c6de96bbbe,
perumahan,Komplek perumahan,Desa rompam,"5H4F+53, Pelita Kenaya, Kec. Tanah Pinoh, Kabupaten Melawi, Kalimantan Barat","Kabupaten Melawi, Kalimantan Barat",KALIMANTAN BARAT,,Indonesia,,,,-0.8446104,111.5726386,https://maps.google.com/?cid=0x0:0x50f2deef2363b96,
perumahan,Kompleks Kondominium,Perumahan Taman Soka,"CRMC+3GR, Perum Taman Soka, Tanah Baru, Kec. Bogor Utara, Kota Bogor, Jawa Barat 16154","Perum Taman Soka, Tanah Baru, Kec. Bogor Utara, Kota Bogor",KALIMANTAN BARAT,16154.0,Indonesia,2518651494.0,,,-6.5672743,106.8212676,https://maps.google.com/?cid=0x0:0xdea9369b17f52d23,
perumahan,perumahan,Kec. Tanah Pinoh,"Kabupaten Melawi, Kalimantan Barat","Kabupaten Melawi, Kalimantan Barat",KALIMANTAN BARAT,,Indonesia,,,,-0.7945298,111.5460674,https://maps.google.com/?cid=0x0:0x6079bd527623d50e,
perumahan,Komplek perumahan,Rumah Ajo Topik,"6H37+Q6J, Batu Begigi, Kec. Tanah Pinoh, Kabupaten Melawi, Kalimantan Barat 79674","Batu Begigi, Kec. Tanah Pinoh, Kabupaten Melawi",KALIMANTAN BARAT,79674.0,Indonesia,,,,-0.7955411,111.5630196,https://maps.google.com/?cid=0x0:0x72c3e0a74aef6306,
perumahan,Komplek perumahan,LONGKUNG,"6G3R+66R, Tj. Gn., Kec. Tanah Pinoh, Kabupaten Melawi, Kalimantan Barat 79674","Tj. Gn., Kec. Tanah Pinoh, Kabupaten Melawi",KALIMANTAN BARAT,79674.0,Indonesia,,,,-0.7975146,111.540474,https://maps.google.com/?cid=0x0:0x5d33631aad9e64a,
perumahan,Komplek perumahan,Rumah keluarga kecil Bg Jeki,"6G4W+4JM, Batu Begigi, Kec. Tanah Pinoh, Kabupaten Melawi, Kalimantan Barat 79674","Batu Begigi, Kec. Tanah Pinoh, Kabupaten Melawi",KALIMANTAN BARAT,79674.0,Indonesia,,,,-0.7946601,111.5465609,https://maps.google.com/?cid=0x0:0xa44a8d3b6e70064c,
perumahan,Komplek perumahan,Rumah Munawir,"6H33+M8, Batu Begigi, Kec. Tanah Pinoh, Kabupaten Melawi, Kalimantan Barat","Kabupaten Melawi, Kalimantan Barat",KALIMANTAN BARAT,,Indonesia,,,,-0.7958006,111.553373,https://maps.google.com/?cid=0x0:0x15e18e84a8010072,
perumahan,Komplek perumahan,Dusun Kenual II,"5GPR+G47, Loka Jaya, Kec. Tanah Pinoh, Kabupaten Melawi, Kalimantan Barat 79674","Loka Jaya, Kec. Tanah Pinoh, Kabupaten Melawi",KALIMANTAN BARAT,79674.0,Indonesia,,,,-0.8137157,111.5402959,https://maps.google.com/?cid=0x0:0x3ced00368601fa41,
perumahan,Perhimpunan Pengembang Perumahan,Pangkalan Pasir Aba Dan,"6G3R+4P, Loka Jaya, Kec. Tanah Pinoh, Kabupaten Melawi, Kalimantan Barat 79674","Loka Jaya, Kec. Tanah Pinoh, Kabupaten Melawi",KALIMANTAN BARAT,79674.0,Indonesia,81352414455.0,,,-0.7972147,111.5417697,https://maps.google.com/?cid=0x0:0x75c941bf419fa5c7,
perumahan,perumahan,Dewi's Family,"6H65+7RW, Batu Begigi, Kec. Tanah Pinoh, Kabupaten Melawi, Kalimantan Barat 79674","Batu Begigi, Kec. Tanah Pinoh, Kabupaten Melawi",KALIMANTAN BARAT,79674.0,Indonesia,,,,-0.7892667,111.5595833,https://maps.google.com/?cid=0x0:0xb702272d159700b2,
perumahan,Komplek perumahan,Rumah Bg EN,"6G8P+RR, Suka Maju, Kec. Tanah Pinoh, Kabupaten Melawi, Kalimantan Barat","Kabupaten Melawi, Kalimantan Barat",KALIMANTAN BARAT,,Indonesia,,,,-0.782995,111.537025,https://maps.google.com/?cid=0x0:0x4cf64d49987b1394,
perumahan,Komplek perumahan,Rumah Dayang Erniyati,"6H36+PM5, Batu Begigi, Kec. Tanah Pinoh, Kabupaten Melawi, Kalimantan Barat 79674","Batu Begigi, Kec. Tanah Pinoh, Kabupaten Melawi",KALIMANTAN BARAT,79674.0,Indonesia,,,,-0.7957342,111.5617354,https://maps.google.com/?cid=0x0:0x19a12622b46c8782,
perumahan,Komplek perumahan,Langkau urangk senganan aik pinoh,"6H36+PM5, Batu Begigi, Kec. Tanah Pinoh, Kabupaten Melawi, Kalimantan Barat 79674","Batu Begigi, Kec. Tanah Pinoh, Kabupaten Melawi",KALIMANTAN BARAT,79674.0,Indonesia,,,,-0.7957342,111.5617354,https://maps.google.com/?cid=0x0:0x71d92e0dd9e4319f,
perumahan,Komplek perumahan,Rumah Rosni M/Atot,"6H36+PM5, Dusun Tanjung kenaya, Batu Begigi, Kec. Tanah Pinoh, Kabupaten Melawi, Kalimantan Barat 79674","Dusun Tanjung kenaya, Batu Begigi, Kec. Tanah Pinoh, Kabupaten Melawi",KALIMANTAN BARAT,79674.0,Indonesia,,,,-0.7957342,111.5617354,https://maps.google.com/?cid=0x0:0xb87717ed250c3b7f,
perumahan,Komplek perumahan,NURDI RAMADANI S.P,"5GXQ+4J2, Loka Jaya, Kec. Tanah Pinoh, Kabupaten Melawi, Kalimantan Barat","Kabupaten Melawi, Kalimantan Barat",KALIMANTAN BARAT,,Indonesia,,,,-0.8026003,111.5387637,https://maps.google.com/?cid=0x0:0x4765cb0cc62240a8,
perumahan,Komplek perumahan,perumahan bapak Sitorus,"5GCH+8HP, Keranjik, Kec. Tanah Pinoh, Kabupaten Melawi, Kalimantan Barat 79674","Keranjik, Kec. Tanah Pinoh, Kabupaten Melawi",KALIMANTAN BARAT,79674.0,Indonesia,,,,-0.8291737,111.5289438,https://maps.google.com/?cid=0x0:0x29577a1d91b8f39d,
perumahan,Komplek perumahan,Perumahan mansur,"5GJR+QF, Keranjik, Kec. Tanah Pinoh, Kabupaten Melawi, Kalimantan Barat","Kabupaten Melawi, Kalimantan Barat",KALIMANTAN BARAT,,Indonesia,,,,-0.818057,111.541193,https://maps.google.com/?cid=0x0:0xc2490dbca6612183,
perumahan,Komplek perumahan,Dusun Tombak,"6JG3+XMR, Bina Jaya, Kec. Tanah Pinoh, Kabupaten Melawi, Kalimantan Barat 79674","Bina Jaya, Kec. Tanah Pinoh, Kabupaten Melawi",KALIMANTAN BARAT,79674.0,Indonesia,,,,-0.7725041,111.6041482,https://maps.google.com/?cid=0x0:0x4aa47754941c9d54,
perumahan,perumahan,Rumah nizar,"5GWR+435, Gang ketiti patah, Loka Jaya, Kec. Tanah Pinoh, Kabupaten Melawi, Kalimantan Barat 79674","Gang ketiti patah, Loka Jaya, Kec. Tanah Pinoh, Kabupaten Melawi",KALIMANTAN BARAT,79674.0,Indonesia,,,,-0.8047482,111.5402231,https://maps.google.com/?cid=0x0:0xf84463ad2d1e11a3,
perumahan,Komplek perumahan,Batu begigi,"6G4X+593, Batu Begigi, Kec. Tanah Pinoh, Kabupaten Melawi, Kalimantan Barat 79674","Batu Begigi, Kec. Tanah Pinoh, Kabupaten Melawi",KALIMANTAN BARAT,79674.0,Indonesia,,,,-0.794867,111.547572,https://maps.google.com/?cid=0x0:0x6b213319b6acac41,
perumahan,Komplek perumahan,Langkau urangk senganan,"6G4X+593, Batu Begigi, Kec. Tanah Pinoh, Kabupaten Melawi, Kalimantan Barat 79674","Batu Begigi, Kec. Tanah Pinoh, Kabupaten Melawi",KALIMANTAN BARAT,79674.0,Indonesia,,,,-0.79491,111.547631,https://maps.google.com/?cid=0x0:0x8ae67878b9f64d6d,
perumahan,Komplek perumahan,Rumah Rosni Mulyanto/Atot,"6H65+V7, Batu Begigi, Kec. Tanah Pinoh, Kabupaten Melawi, Kalimantan Barat","Kabupaten Melawi, Kalimantan Barat",KALIMANTAN BARAT,,Indonesia,,,,-0.7882998,111.5574563,https://maps.google.com/?cid=0x0:0x4f64c87d90fda7f8,
perumahan,Komplek perumahan,Mursalin (mor kange),"5GWQ+3G4, Loka Jaya, Kec. Tanah Pinoh, Kabupaten Melawi, Kalimantan Barat","Kabupaten Melawi, Kalimantan Barat",KALIMANTAN BARAT,,Indonesia,,,,-0.8048713,111.5388341,https://maps.google.com/?cid=0x0:0xdfbf1da0ebe80a1f,
perumahan,Komplek perumahan,rumah dafa,"6G3W+254, Batu Begigi, Kec. Tanah Pinoh, Kabupaten Melawi, Kalimantan Barat 79674","Batu Begigi, Kec. Tanah Pinoh, Kabupaten Melawi",KALIMANTAN BARAT,79674.0,Indonesia,,,,-0.7974942,111.5454581,https://maps.google.com/?cid=0x0:0xf47e686d4940aed6,
perumahan,perumahan,Kalimantan Barat 79674,"Kabupaten Melawi, Kalimantan Barat","Kabupaten Melawi, Kalimantan Barat",KALIMANTAN BARAT,,Indonesia,,,,-0.7723312,111.3798928,https://maps.google.com/?cid=0x0:0x6d8acf73897d9e8b,
perumahan,Komplek perumahan,Rumah Ajo Topik,"6H37+Q6J, Batu Begigi, Kec. Tanah Pinoh, Kabupaten Melawi, Kalimantan Barat 79674","Batu Begigi, Kec. Tanah Pinoh, Kabupaten Melawi",KALIMANTAN BARAT,79674.0,Indonesia,,,,-0.7955411,111.5630196,https://maps.google.com/?cid=0x0:0x72c3e0a74aef6306,
perumahan,Komplek perumahan,LONGKUNG,"6G3R+66R, Tj. Gn., Kec. Tanah Pinoh, Kabupaten Melawi, Kalimantan Barat 79674","Tj. Gn., Kec. Tanah Pinoh, Kabupaten Melawi",KALIMANTAN BARAT,79674.0,Indonesia,,,,-0.7975146,111.540474,https://maps.google.com/?cid=0x0:0x5d33631aad9e64a,
perumahan,Komplek perumahan,Rumah Munawir,"6H33+M8, Batu Begigi, Kec. Tanah Pinoh, Kabupaten Melawi, Kalimantan Barat","Kabupaten Melawi, Kalimantan Barat",KALIMANTAN BARAT,,Indonesia,,,,-0.7958006,111.553373,https://maps.google.com/?cid=0x0:0x15e18e84a8010072,
perumahan,Komplek perumahan,Rumah keluarga kecil Bg Jeki,"6G4W+4JM, Batu Begigi, Kec. Tanah Pinoh, Kabupaten Melawi, Kalimantan Barat 79674","Batu Begigi, Kec. Tanah Pinoh, Kabupaten Melawi",KALIMANTAN BARAT,79674.0,Indonesia,,,,-0.7946601,111.5465609,https://maps.google.com/?cid=0x0:0xa44a8d3b6e70064c,
perumahan,Perhimpunan Pengembang Perumahan,Pangkalan Pasir Aba Dan,"6G3R+4P, Loka Jaya, Kec. Tanah Pinoh, Kabupaten Melawi, Kalimantan Barat 79674","Loka Jaya, Kec. Tanah Pinoh, Kabupaten Melawi",KALIMANTAN BARAT,79674.0,Indonesia,81352414455.0,,,-0.7972147,111.5417697,https://maps.google.com/?cid=0x0:0x75c941bf419fa5c7,
perumahan,Komplek perumahan,Dusun Kenual II,"5GPR+G47, Loka Jaya, Kec. Tanah Pinoh, Kabupaten Melawi, Kalimantan Barat 79674","Loka Jaya, Kec. Tanah Pinoh, Kabupaten Melawi",KALIMANTAN BARAT,79674.0,Indonesia,,,,-0.8137157,111.5402959,https://maps.google.com/?cid=0x0:0x3ced00368601fa41,
perumahan,Komplek perumahan,Rumah Dayang Erniyati,"6H36+PM5, Batu Begigi, Kec. Tanah Pinoh, Kabupaten Melawi, Kalimantan Barat 79674","Batu Begigi, Kec. Tanah Pinoh, Kabupaten Melawi",KALIMANTAN BARAT,79674.0,Indonesia,,,,-0.7957342,111.5617354,https://maps.google.com/?cid=0x0:0x19a12622b46c8782,
perumahan,Komplek perumahan,perumahan bapak Sitorus,"5GCH+8HP, Keranjik, Kec. Tanah Pinoh, Kabupaten Melawi, Kalimantan Barat 79674","Keranjik, Kec. Tanah Pinoh, Kabupaten Melawi",KALIMANTAN BARAT,79674.0,Indonesia,,,,-0.8291737,111.5289438,https://maps.google.com/?cid=0x0:0x29577a1d91b8f39d,
perumahan,Komplek perumahan,Rumah Wirawan,"59RP+XR8, Togan Baru, Tanah Pinoh Bar., Kabupaten Melawi, Kalimantan Barat 79674","Togan Baru, Tanah Pinoh Bar., Kabupaten Melawi",KALIMANTAN BARAT,79674.0,Indonesia,,,,-0.8075864,111.3870895,https://maps.google.com/?cid=0x0:0xa582108748739e8a,
perumahan,perumahan,Dewi's Family,"6H65+7RW, Batu Begigi, Kec. Tanah Pinoh, Kabupaten Melawi, Kalimantan Barat 79674","Batu Begigi, Kec. Tanah Pinoh, Kabupaten Melawi",KALIMANTAN BARAT,79674.0,Indonesia,,,,-0.7892667,111.5595833,https://maps.google.com/?cid=0x0:0xb702272d159700b2,
perumahan,Komplek perumahan,Dusun Tombak,"6JG3+XMR, Bina Jaya, Kec. Tanah Pinoh, Kabupaten Melawi, Kalimantan Barat 79674","Bina Jaya, Kec. Tanah Pinoh, Kabupaten Melawi",KALIMANTAN BARAT,79674.0,Indonesia,,,,-0.7725041,111.6041482,https://maps.google.com/?cid=0x0:0x4aa47754941c9d54,
perumahan,Komplek perumahan,Rumah Bg EN,"6G8P+RR, Suka Maju, Kec. Tanah Pinoh, Kabupaten Melawi, Kalimantan Barat","Kabupaten Melawi, Kalimantan Barat",KALIMANTAN BARAT,,Indonesia,,,,-0.782995,111.537025,https://maps.google.com/?cid=0x0:0x4cf64d49987b1394,
perumahan,Komplek perumahan,Rumah Rosni M/Atot,"6H36+PM5, Dusun Tanjung kenaya, Batu Begigi, Kec. Tanah Pinoh, Kabupaten Melawi, Kalimantan Barat 79674","Dusun Tanjung kenaya, Batu Begigi, Kec. Tanah Pinoh, Kabupaten Melawi",KALIMANTAN BARAT,79674.0,Indonesia,,,,-0.7957342,111.5617354,https://maps.google.com/?cid=0x0:0xb87717ed250c3b7f,
perumahan,Komplek perumahan,Langkau urangk senganan aik pinoh,"6H36+PM5, Batu Begigi, Kec. Tanah Pinoh, Kabupaten Melawi, Kalimantan Barat 79674","Batu Begigi, Kec. Tanah Pinoh, Kabupaten Melawi",KALIMANTAN BARAT,79674.0,Indonesia,,,,-0.7957342,111.5617354,https://maps.google.com/?cid=0x0:0x71d92e0dd9e4319f,
perumahan,perumahan,Rumah nizar,"5GWR+435, Gang ketiti patah, Loka Jaya, Kec. Tanah Pinoh, Kabupaten Melawi, Kalimantan Barat 79674","Gang ketiti patah, Loka Jaya, Kec. Tanah Pinoh, Kabupaten Melawi",KALIMANTAN BARAT,79674.0,Indonesia,,,,-0.8047482,111.5402231,https://maps.google.com/?cid=0x0:0xf84463ad2d1e11a3,
perumahan,Komplek perumahan,Perumahan mansur,"5GJR+QF, Keranjik, Kec. Tanah Pinoh, Kabupaten Melawi, Kalimantan Barat","Kabupaten Melawi, Kalimantan Barat",KALIMANTAN BARAT,,Indonesia,,,,-0.818057,111.541193,https://maps.google.com/?cid=0x0:0xc2490dbca6612183,
perumahan,Komplek perumahan,Batu begigi,"6G4X+593, Batu Begigi, Kec. Tanah Pinoh, Kabupaten Melawi, Kalimantan Barat 79674","Batu Begigi, Kec. Tanah Pinoh, Kabupaten Melawi",KALIMANTAN BARAT,79674.0,Indonesia,,,,-0.794867,111.547572,https://maps.google.com/?cid=0x0:0x6b213319b6acac41,
perumahan,Komplek perumahan,Langkau urangk senganan,"6G4X+593, Batu Begigi, Kec. Tanah Pinoh, Kabupaten Melawi, Kalimantan Barat 79674","Batu Begigi, Kec. Tanah Pinoh, Kabupaten Melawi",KALIMANTAN BARAT,79674.0,Indonesia,,,,-0.79491,111.547631,https://maps.google.com/?cid=0x0:0x8ae67878b9f64d6d,
perumahan,Komplek perumahan,KAMPUNG LAMAN TOGAP,"59RQ+W7X, Togan Baru, Tanah Pinoh Bar., Kabupaten Melawi, Kalimantan Barat 79674","Togan Baru, Tanah Pinoh Bar., Kabupaten Melawi",KALIMANTAN BARAT,79674.0,Indonesia,,,,-0.8076424,111.3882351,https://maps.google.com/?cid=0x0:0x2fad10e02c77ebf4,
perumahan,Komplek perumahan,NURDI RAMADANI S.P,"5GXQ+4J2, Loka Jaya, Kec. Tanah Pinoh, Kabupaten Melawi, Kalimantan Barat","Kabupaten Melawi, Kalimantan Barat",KALIMANTAN BARAT,,Indonesia,,,,-0.8026003,111.5387637,https://maps.google.com/?cid=0x0:0x4765cb0cc62240a8,
