Category;Real Category;Business Name;Address;City;State;Postal Code;Country;Phone;Latitude;Longitude;Map Link
"restaurant";"restaurant";"Banda Aceh";"Kota Banda Aceh, Aceh";"Kota Banda Aceh, Aceh";"ACEH";"";"Indonesia";"";"5.5482904";"95.3237559";"https://maps.google.com/?cid=0x0:0x3039d80b220cb90"
"restaurant";"Hidangan Laut";"Imperial Kitchen";"Jalan : Teuku Umar No. 21 Seutui, Sukaramai, Kec. Baiturrahman, Kota Banda Aceh, Aceh 23243";"Sukaramai, Kec. Baiturrahman, Kota Banda Aceh";"ACEH";"23243";"Indonesia";" 0811680777";"5.543275";"95.3130436";"https://maps.google.com/?cid=0x0:0xcc098220167d5c8"
"restaurant";"Timur Tengah";"CJ WOOD BEACH CAFE";"Jl. Sultan Iskandar Muda No.122, Blang Oi, Kec. Meuraxa, Kota Banda Aceh, Aceh";"Kota Banda Aceh, Aceh";"ACEH";"";"Indonesia";" 081992686961";"5.5519283";"95.3012265";"https://maps.google.com/?cid=0x0:0x30a4c9681637df21"
"restaurant";"Hidangan Laut";"Aceh Seafood Restaurant  Meeting";"Jl. Prof. Dr. Ibrahim Hasan No.31, Gampong Blang, Kec. Meuraxa, Kota Banda Aceh, Aceh 23234";"Gampong Blang, Kec. Meuraxa, Kota Banda Aceh";"ACEH";"23234";"Indonesia";"";"5.5499044";"95.286356";"https://maps.google.com/?cid=0x0:0x89f586c21d3ead2f"
"restaurant";"Restoran";"Kuala Village";"H8MH+RHW, Lambaro Skep, Kec. Kuta Alam, Kota Banda Aceh, Aceh";"Kota Banda Aceh, Aceh";"ACEH";"";"Indonesia";" 082160033013";"5.5846072";"95.3289505";"https://maps.google.com/?cid=0x0:0xe760d002bc8ca531"
"restaurant";"Restoran";"Paopia Garden Cafe  Resto";"G8QX+849, Pango Raya, Kec. Ulee Kareng, Kota Banda Aceh, Aceh 23116";"Pango Raya, Kec. Ulee Kareng, Kota Banda Aceh";"ACEH";"23116";"Indonesia";" 085260682261";"5.5382974";"95.3478541";"https://maps.google.com/?cid=0x0:0x88c2a09c86f6fcea"
"restaurant";"Sate";"Benjawas Resto  Cafe";"Jl. T. Hasan Dek, Lamseupeung, Kec. Lueng Bata, Kota Banda Aceh, Aceh 23127";"Lamseupeung, Kec. Lueng Bata, Kota Banda Aceh";"ACEH";"23127";"Indonesia";" 08116895758";"5.551937";"95.3308794";"https://maps.google.com/?cid=0x0:0x2490d2d29f6cea44"
"restaurant";"Roti bakar";"Canai Mamak KL";"Jl. Teuku Umar No.51, Seutui, Kec. Baiturrahman, Kota Banda Aceh, Aceh 23116";"Seutui, Kec. Baiturrahman, Kota Banda Aceh";"ACEH";"23116";"Indonesia";" 08116845471";"5.542418";"95.3122245";"https://maps.google.com/?cid=0x0:0x1ac20491ba6eb66c"
"restaurant";"Kafe";"Hip Burger";"H85V+RF8, Jl. T. Panglima Nyak Makam, Lambhuk, Kec. Ulee Kareng, Kota Banda Aceh, Aceh 24415";"Jl. T. Panglima Nyak Makam, Lambhuk, Kec. Ulee Kareng, Kota Banda Aceh";"ACEH";"24415";"Indonesia";"";"5.5595432";"95.3437108";"https://maps.google.com/?cid=0x0:0x26bb6759c578ee97"
"restaurant";"Steak";"Country Steak House";"Jl. Taman Sri Ratu Safiatuddin No.44 D, Peunayong, Kec. Kuta Alam, Kota Banda Aceh, Aceh";"Kota Banda Aceh, Aceh";"ACEH";"";"Indonesia";" 065124213";"5.5567533";"95.3195846";"https://maps.google.com/?cid=0x0:0x57ada1ff28097c5"
"restaurant";"Sate";"Sate Matang D'Wan";"Blang Cut, Kec. Lueng Bata, Kota Banda Aceh, Aceh 23127";"Kec. Lueng Bata, Kota Banda Aceh";"ACEH";"23127";"Indonesia";" 081360450466";"5.5450224";"95.3350015";"https://maps.google.com/?cid=0x0:0x64aca37c6e22a38c"
"restaurant";"Restoran";"Steak On You";"Lambhuk, Kec. Ulee Kareng, Kota Banda Aceh, Aceh 23118";"Kec. Ulee Kareng, Kota Banda Aceh";"ACEH";"23118";"Indonesia";" 081361440888";"5.5531463";"95.3442954";"https://maps.google.com/?cid=0x0:0x814793124b2100e6"
"restaurant";"Indonesia";"Alex's kitchen";"Jl. Sultan Malikul Saleh, Lam Lagang, Kec. Banda Raya, Kota Banda Aceh, Aceh 23117";"Lam Lagang, Kec. Banda Raya, Kota Banda Aceh";"ACEH";"23117";"Indonesia";" 08126914030";"5.5356463";"95.3156501";"https://maps.google.com/?cid=0x0:0x42231d94d4a68aca"
"restaurant";"Timur Tengah";"WICIS INDONESIA";"Jl. Dr. Mr. Mohd Hasan No.56, Sukadamai, Kec. Lueng Bata, Kota Banda Aceh, Aceh 23127";"Sukadamai, Kec. Lueng Bata, Kota Banda Aceh";"ACEH";"23127";"Indonesia";" 081360690475";"5.5479555";"95.3303409";"https://maps.google.com/?cid=0x0:0xdeee07ce6681fc61"
"restaurant";"restaurant";"Banda Aceh";"Kota Banda Aceh, Aceh";"Kota Banda Aceh, Aceh";"ACEH";"";"Indonesia";"";"5.5482904";"95.3237559";"https://maps.google.com/?cid=0x0:0x3039d80b220cb90"
"restaurant";"Roti bakar";"Canai Mamak KL";"Jl. Teuku Umar No.51, Seutui, Kec. Baiturrahman, Kota Banda Aceh, Aceh 23116";"Seutui, Kec. Baiturrahman, Kota Banda Aceh";"ACEH";"23116";"Indonesia";" 08116845471";"5.542418";"95.3122245";"https://maps.google.com/?cid=0x0:0x1ac20491ba6eb66c"
"restaurant";"Padang";"Restoran Bunda";"Simpang 5 Jalan Pantai Perak No.789, Kuta Alam, Kec. Kuta Alam, Kota Banda Aceh, Aceh 23121";"Kuta Alam, Kec. Kuta Alam, Kota Banda Aceh";"ACEH";"23121";"Indonesia";" 065131360";"5.5553622";"95.3218572";"https://maps.google.com/?cid=0x0:0xbc2393356b37691d"
"restaurant";"Indonesia";"Kuliner Jepang H3 Pendopo Food Park";"Jl. Sultan Mahmudsyah No.6, Kp. Baru, Kec. Baiturrahman, Kota Banda Aceh, Aceh 23127";"Kp. Baru, Kec. Baiturrahman, Kota Banda Aceh";"ACEH";"23127";"Indonesia";" 081260400696";"5.5480783";"95.319745";"https://maps.google.com/?cid=0x0:0xedad50d81192fc1"
"restaurant";"Rumah Makan";"Rumah Makan Spesifik Aceh";"H74M+7XJ, Ulee Lheue, Kec. Meuraxa, Kota Banda Aceh, Aceh 23232";"Ulee Lheue, Kec. Meuraxa, Kota Banda Aceh";"ACEH";"23232";"Indonesia";" 081269525422";"5.5557081";"95.2848952";"https://maps.google.com/?cid=0x0:0xfa70195de5b6d5a7"
"restaurant";"Sate";"Benjawas Resto  Cafe";"Jl. T. Hasan Dek, Lamseupeung, Kec. Lueng Bata, Kota Banda Aceh, Aceh 23127";"Lamseupeung, Kec. Lueng Bata, Kota Banda Aceh";"ACEH";"23127";"Indonesia";" 08116895758";"5.551937";"95.3308794";"https://maps.google.com/?cid=0x0:0x2490d2d29f6cea44"
"restaurant";"Restoran";"Paopia Garden Cafe  Resto";"G8QX+849, Pango Raya, Kec. Ulee Kareng, Kota Banda Aceh, Aceh 23116";"Pango Raya, Kec. Ulee Kareng, Kota Banda Aceh";"ACEH";"23116";"Indonesia";" 085260682261";"5.5382974";"95.3478541";"https://maps.google.com/?cid=0x0:0x88c2a09c86f6fcea"
"restaurant";"Indonesia";"STEAK 45";"Jalan Tgk Chik Diponegoro No.17, Peuniti, Kec. Baiturrahman, Kota Banda Aceh, Aceh 23241";"Peuniti, Kec. Baiturrahman, Kota Banda Aceh";"ACEH";"23241";"Indonesia";" 08116844545";"5.551065";"95.3214276";"https://maps.google.com/?cid=0x0:0x277bfe2eadd2ade"
"restaurant";"Korea";"Dapoor ANAK KOLONG (KOREAN GRILL  STEW)";"Jalan Twk Raja Keumala, Lorong masuk Dawa Kopi, Depan Inong Scarf, Batoh, Kec. Lueng Bata, Kota Banda Aceh, Aceh 23127";"Lorong masuk Dawa Kopi, Depan Inong Scarf, Batoh, Kec. Lueng Bata, Kota Banda Aceh";"ACEH";"23127";"Indonesia";" 085277084177";"5.5446903";"95.330045";"https://maps.google.com/?cid=0x0:0x1f8b0421214732c8"
"restaurant";"Kafe";"Hip Burger";"H85V+RF8, Jl. T. Panglima Nyak Makam, Lambhuk, Kec. Ulee Kareng, Kota Banda Aceh, Aceh 24415";"Jl. T. Panglima Nyak Makam, Lambhuk, Kec. Ulee Kareng, Kota Banda Aceh";"ACEH";"24415";"Indonesia";"";"5.5595432";"95.3437108";"https://maps.google.com/?cid=0x0:0x26bb6759c578ee97"
"restaurant";"Hidangan Laut";"Imperial Kitchen";"Jalan : Teuku Umar No. 21 Seutui, Sukaramai, Kec. Baiturrahman, Kota Banda Aceh, Aceh 23243";"Sukaramai, Kec. Baiturrahman, Kota Banda Aceh";"ACEH";"23243";"Indonesia";" 0811680777";"5.543275";"95.3130436";"https://maps.google.com/?cid=0x0:0xcc098220167d5c8"
"restaurant";"Mi";"Mie  Nasi Goreng Bardi";"G8P7+325, Jl. Residen Danubroto, Lam Lagang, Kec. Banda Raya, Kota Banda Aceh, Aceh 23122";"Jl. Residen Danubroto, Lam Lagang, Kec. Banda Raya, Kota Banda Aceh";"ACEH";"23122";"Indonesia";" 085277116735";"5.5351318";"95.3125977";"https://maps.google.com/?cid=0x0:0x1498b3f307194330"
"restaurant";"Sate";"Sate Matang D'Wan";"Blang Cut, Kec. Lueng Bata, Kota Banda Aceh, Aceh 23127";"Kec. Lueng Bata, Kota Banda Aceh";"ACEH";"23127";"Indonesia";" 081360450466";"5.5450224";"95.3350015";"https://maps.google.com/?cid=0x0:0x64aca37c6e22a38c"
"restaurant";"Hidangan Laut";"Seafood Karibia";"Jalan Kyai Hamzah No.42, Kuta Alam, Kec. Kuta Alam, Kota Banda Aceh, Aceh 24415";"Kuta Alam, Kec. Kuta Alam, Kota Banda Aceh";"ACEH";"24415";"Indonesia";" 082366884534";"5.5558393";"95.3279673";"https://maps.google.com/?cid=0x0:0xef9db4b4e18a32bd"
"restaurant";"Hidangan Laut";"Imperial Kitchen";"Jalan : Teuku Umar No. 21 Seutui, Sukaramai, Kec. Baiturrahman, Kota Banda Aceh, Aceh 23243";"Sukaramai, Kec. Baiturrahman, Kota Banda Aceh";"ACEH";"23243";"Indonesia";" 0811680777";"5.543275";"95.3130436";"https://maps.google.com/?cid=0x0:0xcc098220167d5c8"
"restaurant";"Rumah Makan";"Rumah Makan Spesifik Aceh";"H74M+7XJ, Ulee Lheue, Kec. Meuraxa, Kota Banda Aceh, Aceh 23232";"Ulee Lheue, Kec. Meuraxa, Kota Banda Aceh";"ACEH";"23232";"Indonesia";" 081269525422";"5.5557081";"95.2848952";"https://maps.google.com/?cid=0x0:0xfa70195de5b6d5a7"
"restaurant";"restaurant";"Aceh 24582";"Kabupaten Bener Meriah, Aceh";"Kabupaten Bener Meriah, Aceh";"ACEH";"";"Indonesia";"";"4.733267";"97.0498442";"https://maps.google.com/?cid=0x0:0x24377db9b3ac434d"
"restaurant";"Indonesia";"Alex's kitchen";"Jl. Sultan Malikul Saleh, Lam Lagang, Kec. Banda Raya, Kota Banda Aceh, Aceh 23117";"Lam Lagang, Kec. Banda Raya, Kota Banda Aceh";"ACEH";"23117";"Indonesia";" 08126914030";"5.5356463";"95.3156501";"https://maps.google.com/?cid=0x0:0x42231d94d4a68aca"
"restaurant";"Restoran";"Grand Aceh Kuliner";"Jl. Sultan Iskandar Muda Jl. Utama Gampong Lambung, Deah Baro, Kec. Meuraxa, Kota Banda Aceh, Aceh 23233";"Deah Baro, Kec. Meuraxa, Kota Banda Aceh";"ACEH";"23233";"Indonesia";" 08116818142";"5.5535199";"95.2923994";"https://maps.google.com/?cid=0x0:0xfcc082777b122ae0"
"restaurant";"Sate";"Sate Matang D'Wan";"Blang Cut, Kec. Lueng Bata, Kota Banda Aceh, Aceh 23127";"Kec. Lueng Bata, Kota Banda Aceh";"ACEH";"23127";"Indonesia";" 081360450466";"5.5450224";"95.3350015";"https://maps.google.com/?cid=0x0:0x64aca37c6e22a38c"
"restaurant";"Roti bakar";"Canai Mamak KL";"Jl. Teuku Umar No.51, Seutui, Kec. Baiturrahman, Kota Banda Aceh, Aceh 23116";"Seutui, Kec. Baiturrahman, Kota Banda Aceh";"ACEH";"23116";"Indonesia";" 08116845471";"5.542418";"95.3122245";"https://maps.google.com/?cid=0x0:0x1ac20491ba6eb66c"
"restaurant";"Padang";"Restoran Bunda";"Simpang 5 Jalan Pantai Perak No.789, Kuta Alam, Kec. Kuta Alam, Kota Banda Aceh, Aceh 23121";"Kuta Alam, Kec. Kuta Alam, Kota Banda Aceh";"ACEH";"23121";"Indonesia";" 065131360";"5.5553622";"95.3218572";"https://maps.google.com/?cid=0x0:0xbc2393356b37691d"
"restaurant";"Hidangan Laut";"Seafood Karibia";"Jalan Kyai Hamzah No.42, Kuta Alam, Kec. Kuta Alam, Kota Banda Aceh, Aceh 24415";"Kuta Alam, Kec. Kuta Alam, Kota Banda Aceh";"ACEH";"24415";"Indonesia";" 082366884534";"5.5558393";"95.3279673";"https://maps.google.com/?cid=0x0:0xef9db4b4e18a32bd"
"restaurant";"Restoran";"PONCA";"Mutiara, Kec. Bandar, Kabupaten Bener Meriah, Aceh 24582";"Kec. Bandar, Kabupaten Bener Meriah";"ACEH";"24582";"Indonesia";" 081262105720";"4.7550918";"96.9122501";"https://maps.google.com/?cid=0x0:0x588bd8d08ed68a8b"
"restaurant";"Mi";"Mie Ayah Simpang Lhong Raya";"G8G9+6RX, Jl. Wedana, Lhong Raya, Kec. Banda Raya, Kota Banda Aceh, Aceh 23231";"Jl. Wedana, Lhong Raya, Kec. Banda Raya, Kota Banda Aceh";"ACEH";"23231";"Indonesia";" 085260868371";"5.5256072";"95.3196895";"https://maps.google.com/?cid=0x0:0xd3d381d8e7b517ef"
"restaurant";"Timur Tengah";"CJ WOOD BEACH CAFE";"Jl. Sultan Iskandar Muda No.122, Blang Oi, Kec. Meuraxa, Kota Banda Aceh, Aceh";"Kota Banda Aceh, Aceh";"ACEH";"";"Indonesia";" 081992686961";"5.5519283";"95.3012265";"https://maps.google.com/?cid=0x0:0x30a4c9681637df21"
"restaurant";"Rumah Makan";"RM Aceh Spesifik";"Jl. Mr. Teuku Moh. Hasan Jl. T. Hasan Dek, Kuta Alam, Kec. Kuta Alam, Kota Banda Aceh, Aceh 24415";"Kuta Alam, Kec. Kuta Alam, Kota Banda Aceh";"ACEH";"24415";"Indonesia";" 085277775812";"5.5571924";"95.3301582";"https://maps.google.com/?cid=0x0:0xa3ad0f11ad01e67a"
"restaurant";"Kafe";"Hip Burger";"H85V+RF8, Jl. T. Panglima Nyak Makam, Lambhuk, Kec. Ulee Kareng, Kota Banda Aceh, Aceh 24415";"Jl. T. Panglima Nyak Makam, Lambhuk, Kec. Ulee Kareng, Kota Banda Aceh";"ACEH";"24415";"Indonesia";"";"5.5595432";"95.3437108";"https://maps.google.com/?cid=0x0:0x26bb6759c578ee97"
"restaurant";"restaurant";"Banda Aceh";"Kota Banda Aceh, Aceh";"Kota Banda Aceh, Aceh";"ACEH";"";"Indonesia";"";"5.5482904";"95.3237559";"https://maps.google.com/?cid=0x0:0x3039d80b220cb90"
"restaurant";"Restoran";"Kuala Village";"H8MH+RHW, Lambaro Skep, Kec. Kuta Alam, Kota Banda Aceh, Aceh";"Kota Banda Aceh, Aceh";"ACEH";"";"Indonesia";" 082160033013";"5.5846072";"95.3289505";"https://maps.google.com/?cid=0x0:0xe760d002bc8ca531"
"restaurant";"Roti bakar";"Canai Mamak KL";"Jl. Teuku Umar No.51, Seutui, Kec. Baiturrahman, Kota Banda Aceh, Aceh 23116";"Seutui, Kec. Baiturrahman, Kota Banda Aceh";"ACEH";"23116";"Indonesia";" 08116845471";"5.542418";"95.3122245";"https://maps.google.com/?cid=0x0:0x1ac20491ba6eb66c"
"restaurant";"Hidangan Laut";"Seafood Karibia";"Jalan Kyai Hamzah No.42, Kuta Alam, Kec. Kuta Alam, Kota Banda Aceh, Aceh 24415";"Kuta Alam, Kec. Kuta Alam, Kota Banda Aceh";"ACEH";"24415";"Indonesia";" 082366884534";"5.5558393";"95.3279673";"https://maps.google.com/?cid=0x0:0xef9db4b4e18a32bd"
"restaurant";"Indonesia";"Alex's kitchen";"Jl. Sultan Malikul Saleh, Lam Lagang, Kec. Banda Raya, Kota Banda Aceh, Aceh 23117";"Lam Lagang, Kec. Banda Raya, Kota Banda Aceh";"ACEH";"23117";"Indonesia";" 08126914030";"5.5356463";"95.3156501";"https://maps.google.com/?cid=0x0:0x42231d94d4a68aca"
"restaurant";"Hidangan Laut";"Imperial Kitchen";"Jalan : Teuku Umar No. 21 Seutui, Sukaramai, Kec. Baiturrahman, Kota Banda Aceh, Aceh 23243";"Sukaramai, Kec. Baiturrahman, Kota Banda Aceh";"ACEH";"23243";"Indonesia";" 0811680777";"5.543275";"95.3130436";"https://maps.google.com/?cid=0x0:0xcc098220167d5c8"
"restaurant";"Padang";"Restoran Bunda";"Simpang 5 Jalan Pantai Perak No.789, Kuta Alam, Kec. Kuta Alam, Kota Banda Aceh, Aceh 23121";"Kuta Alam, Kec. Kuta Alam, Kota Banda Aceh";"ACEH";"23121";"Indonesia";" 065131360";"5.5553622";"95.3218572";"https://maps.google.com/?cid=0x0:0xbc2393356b37691d"
"restaurant";"Sate";"Sate Matang D'Wan";"Blang Cut, Kec. Lueng Bata, Kota Banda Aceh, Aceh 23127";"Kec. Lueng Bata, Kota Banda Aceh";"ACEH";"23127";"Indonesia";" 081360450466";"5.5450224";"95.3350015";"https://maps.google.com/?cid=0x0:0x64aca37c6e22a38c"
"restaurant";"Korea";"Dapoor ANAK KOLONG (KOREAN GRILL  STEW)";"Jalan Twk Raja Keumala, Lorong masuk Dawa Kopi, Depan Inong Scarf, Batoh, Kec. Lueng Bata, Kota Banda Aceh, Aceh 23127";"Lorong masuk Dawa Kopi, Depan Inong Scarf, Batoh, Kec. Lueng Bata, Kota Banda Aceh";"ACEH";"23127";"Indonesia";" 085277084177";"5.5446903";"95.330045";"https://maps.google.com/?cid=0x0:0x1f8b0421214732c8"
"restaurant";"Rumah Makan";"Rumah Makan Spesifik Aceh";"H74M+7XJ, Ulee Lheue, Kec. Meuraxa, Kota Banda Aceh, Aceh 23232";"Ulee Lheue, Kec. Meuraxa, Kota Banda Aceh";"ACEH";"23232";"Indonesia";" 081269525422";"5.5557081";"95.2848952";"https://maps.google.com/?cid=0x0:0xfa70195de5b6d5a7"
"restaurant";"Mi";"Mie Ayah Simpang Lhong Raya";"G8G9+6RX, Jl. Wedana, Lhong Raya, Kec. Banda Raya, Kota Banda Aceh, Aceh 23231";"Jl. Wedana, Lhong Raya, Kec. Banda Raya, Kota Banda Aceh";"ACEH";"23231";"Indonesia";" 085260868371";"5.5256072";"95.3196895";"https://maps.google.com/?cid=0x0:0xd3d381d8e7b517ef"
"restaurant";"Sesuai untuk keluarga";"REX PEUNAYONG";"H859+4P4, Peunayong, Kec. Kuta Alam, Kota Banda Aceh, Aceh";"Kota Banda Aceh, Aceh";"ACEH";"";"Indonesia";"";"5.5577504";"95.3193177";"https://maps.google.com/?cid=0x0:0xcf230a640c681314"
"restaurant";"Restoran";"Steak On You";"Lambhuk, Kec. Ulee Kareng, Kota Banda Aceh, Aceh 23118";"Kec. Ulee Kareng, Kota Banda Aceh";"ACEH";"23118";"Indonesia";" 081361440888";"5.5531463";"95.3442954";"https://maps.google.com/?cid=0x0:0x814793124b2100e6"
"restaurant";"Restoran";"Grand Aceh Kuliner";"Jl. Sultan Iskandar Muda Jl. Utama Gampong Lambung, Deah Baro, Kec. Meuraxa, Kota Banda Aceh, Aceh 23233";"Deah Baro, Kec. Meuraxa, Kota Banda Aceh";"ACEH";"23233";"Indonesia";" 08116818142";"5.5535199";"95.2923994";"https://maps.google.com/?cid=0x0:0xfcc082777b122ae0"
"restaurant";"restaurant";"Banda Aceh";"Kota Banda Aceh, Aceh";"Kota Banda Aceh, Aceh";"ACEH";"";"Indonesia";"";"5.5482904";"95.3237559";"https://maps.google.com/?cid=0x0:0x3039d80b220cb90"
"restaurant";"Roti bakar";"Canai Mamak KL";"Jl. Teuku Umar No.51, Seutui, Kec. Baiturrahman, Kota Banda Aceh, Aceh 23116";"Seutui, Kec. Baiturrahman, Kota Banda Aceh";"ACEH";"23116";"Indonesia";" 08116845471";"5.542418";"95.3122245";"https://maps.google.com/?cid=0x0:0x1ac20491ba6eb66c"
"restaurant";"Sate";"Benjawas Resto  Cafe";"Jl. T. Hasan Dek, Lamseupeung, Kec. Lueng Bata, Kota Banda Aceh, Aceh 23127";"Lamseupeung, Kec. Lueng Bata, Kota Banda Aceh";"ACEH";"23127";"Indonesia";" 08116895758";"5.551937";"95.3308794";"https://maps.google.com/?cid=0x0:0x2490d2d29f6cea44"
"restaurant";"Rumah Makan";"Lem Bakrie";"H82W+94W, Jl. Prof. Ali Hasyimi, Lamteh, Kec. Ulee Kareng, Kota Banda Aceh, Aceh 23127";"Jl. Prof. Ali Hasyimi, Lamteh, Kec. Ulee Kareng, Kota Banda Aceh";"ACEH";"23127";"Indonesia";" 085277320036";"5.55098";"95.3453146";"https://maps.google.com/?cid=0x0:0x2e2b3aaba3aebba6"
"restaurant";"Indonesia";"Alex's kitchen";"Jl. Sultan Malikul Saleh, Lam Lagang, Kec. Banda Raya, Kota Banda Aceh, Aceh 23117";"Lam Lagang, Kec. Banda Raya, Kota Banda Aceh";"ACEH";"23117";"Indonesia";" 08126914030";"5.5356463";"95.3156501";"https://maps.google.com/?cid=0x0:0x42231d94d4a68aca"
"restaurant";"Mi";"Mie Ayah Simpang Lhong Raya";"G8G9+6RX, Jl. Wedana, Lhong Raya, Kec. Banda Raya, Kota Banda Aceh, Aceh 23231";"Jl. Wedana, Lhong Raya, Kec. Banda Raya, Kota Banda Aceh";"ACEH";"23231";"Indonesia";" 085260868371";"5.5256072";"95.3196895";"https://maps.google.com/?cid=0x0:0xd3d381d8e7b517ef"
"restaurant";"Indonesia";"Kuliner Jepang H3 Pendopo Food Park";"Jl. Sultan Mahmudsyah No.6, Kp. Baru, Kec. Baiturrahman, Kota Banda Aceh, Aceh 23127";"Kp. Baru, Kec. Baiturrahman, Kota Banda Aceh";"ACEH";"23127";"Indonesia";" 081260400696";"5.5480783";"95.319745";"https://maps.google.com/?cid=0x0:0xedad50d81192fc1"
"restaurant";"Rumah Makan";"Rumah Makan Spesifik Aceh";"H74M+7XJ, Ulee Lheue, Kec. Meuraxa, Kota Banda Aceh, Aceh 23232";"Ulee Lheue, Kec. Meuraxa, Kota Banda Aceh";"ACEH";"23232";"Indonesia";" 081269525422";"5.5557081";"95.2848952";"https://maps.google.com/?cid=0x0:0xfa70195de5b6d5a7"
"restaurant";"Restoran";"Grand Aceh Kuliner";"Jl. Sultan Iskandar Muda Jl. Utama Gampong Lambung, Deah Baro, Kec. Meuraxa, Kota Banda Aceh, Aceh 23233";"Deah Baro, Kec. Meuraxa, Kota Banda Aceh";"ACEH";"23233";"Indonesia";" 08116818142";"5.5535199";"95.2923994";"https://maps.google.com/?cid=0x0:0xfcc082777b122ae0"
"restaurant";"Hidangan Laut";"Seafood Karibia";"Jalan Kyai Hamzah No.42, Kuta Alam, Kec. Kuta Alam, Kota Banda Aceh, Aceh 24415";"Kuta Alam, Kec. Kuta Alam, Kota Banda Aceh";"ACEH";"24415";"Indonesia";" 082366884534";"5.5558393";"95.3279673";"https://maps.google.com/?cid=0x0:0xef9db4b4e18a32bd"
"restaurant";"Restoran";"Steak On You";"Lambhuk, Kec. Ulee Kareng, Kota Banda Aceh, Aceh 23118";"Kec. Ulee Kareng, Kota Banda Aceh";"ACEH";"23118";"Indonesia";" 081361440888";"5.5531463";"95.3442954";"https://maps.google.com/?cid=0x0:0x814793124b2100e6"
"restaurant";"Sesuai untuk keluarga";"REX PEUNAYONG";"H859+4P4, Peunayong, Kec. Kuta Alam, Kota Banda Aceh, Aceh";"Kota Banda Aceh, Aceh";"ACEH";"";"Indonesia";"";"5.5577504";"95.3193177";"https://maps.google.com/?cid=0x0:0xcf230a640c681314"
"restaurant";"Padang";"Restoran Bunda";"Simpang 5 Jalan Pantai Perak No.789, Kuta Alam, Kec. Kuta Alam, Kota Banda Aceh, Aceh 23121";"Kuta Alam, Kec. Kuta Alam, Kota Banda Aceh";"ACEH";"23121";"Indonesia";" 065131360";"5.5553622";"95.3218572";"https://maps.google.com/?cid=0x0:0xbc2393356b37691d"
"restaurant";"Restoran";"Warung Nasi Hasan 3";"G8RW+WH7, Jl. Prof. Ali Hasyimi, Pango Raya, Kec. Ulee Kareng, Kota Banda Aceh, Aceh 23116";"Jl. Prof. Ali Hasyimi, Pango Raya, Kec. Ulee Kareng, Kota Banda Aceh";"ACEH";"23116";"Indonesia";" 08126979965";"5.5422932";"95.3464127";"https://maps.google.com/?cid=0x0:0xbb0b3fa4a03b912a"
"restaurant";"restaurant";"Kec. Bener Kelipah";"Kabupaten Bener Meriah, Aceh";"Kabupaten Bener Meriah, Aceh";"ACEH";"";"Indonesia";"";"4.7701481";"96.923098";"https://maps.google.com/?cid=0x0:0x3a7e0c8dc476f1e"
"restaurant";"Restoran";"DAPUR_KOPI";"QW37+QFF, Jl. Ps. Inpres, Puja Mulia, Kec. Bandar, Kabupaten Bener Meriah, Aceh 24582";"Jl. Ps. Inpres, Puja Mulia, Kec. Bandar, Kabupaten Bener Meriah";"ACEH";"24582";"Indonesia";" 082369966369";"4.754448";"96.913658";"https://maps.google.com/?cid=0x0:0x132f34046fac9644"
"restaurant";"Kafe";"DESEMBER CAFE";"QW37+QFH, Puja Mulia, Kec. Bandar, Kabupaten Bener Meriah, Aceh 24582";"Puja Mulia, Kec. Bandar, Kabupaten Bener Meriah";"ACEH";"24582";"Indonesia";" 081360639093";"4.7544451";"96.9137363";"https://maps.google.com/?cid=0x0:0x597d117df0e6d36"
"restaurant";"Kedai Kopi";"Sinar Mila Caffee  Resto";"Dekat Jl. Syiah Utama, Simpang Utama, Pd. Baru, Kec. Bandar, Kabupaten Bener Meriah, Aceh 24582";"Simpang Utama, Pd. Baru, Kec. Bandar, Kabupaten Bener Meriah";"ACEH";"24582";"Indonesia";" 082292840100";"4.7524656";"96.9046527";"https://maps.google.com/?cid=0x0:0x7f175643850a07a"
"restaurant";"Restoran";"Dapoer Bita";"QW38+R53, Jl. Ps. Inpres, Pd. Baru, Kec. Bandar, Kabupaten Bener Meriah, Aceh 24582";"Jl. Ps. Inpres, Pd. Baru, Kec. Bandar, Kabupaten Bener Meriah";"ACEH";"24582";"Indonesia";" 085226942350";"4.7545059";"96.9154285";"https://maps.google.com/?cid=0x0:0x27a46403cb59ab23"
"restaurant";"Bakso";"Bakso Cindelaras 2";"Mutiara, Kec. Bandar, Kabupaten Bener Meriah, Aceh 24582";"Kec. Bandar, Kabupaten Bener Meriah";"ACEH";"24582";"Indonesia";"";"4.7543622";"96.9099344";"https://maps.google.com/?cid=0x0:0x4db10a49c9dcfb5f"
"restaurant";"Bakso";"Bakso Cindelaras 1";"QW37+J86, Puja Mulia, Kec. Bandar, Kabupaten Bener Meriah, Aceh 24582";"Puja Mulia, Kec. Bandar, Kabupaten Bener Meriah";"ACEH";"24582";"Indonesia";"";"4.7540393";"96.9132771";"https://maps.google.com/?cid=0x0:0xfa649524ce4c4783"
"restaurant";"Kebun Raya";"Kebun Arabika Gayo II Pak Maisir";"QW85+M6C, Jongok Meluem, Kec. Bener Kelipah, Kabupaten Bener Meriah, Aceh 24582";"Jongok Meluem, Kec. Bener Kelipah, Kabupaten Bener Meriah";"ACEH";"24582";"Indonesia";" 081376503479";"4.7666752";"96.9080199";"https://maps.google.com/?cid=0x0:0x8cf7bb7007c67fd7"
"restaurant";"Padang";"Rumah Makan Rizki";"QW47+6FP, Janarata, Kec. Bandar, Kabupaten Bener Meriah, Aceh 24582";"Janarata, Kec. Bandar, Kabupaten Bener Meriah";"ACEH";"24582";"Indonesia";"";"4.755595";"96.9136955";"https://maps.google.com/?cid=0x0:0xeb5d82570b8e8b65"
"restaurant";"Restoran";"PONCA";"Mutiara, Kec. Bandar, Kabupaten Bener Meriah, Aceh 24582";"Kec. Bandar, Kabupaten Bener Meriah";"ACEH";"24582";"Indonesia";" 081262105720";"4.7550918";"96.9122501";"https://maps.google.com/?cid=0x0:0x588bd8d08ed68a8b"
"restaurant";"Mi";"BAKSO RUSUK POCUT PUTROE";"Puja Mulia, Kec. Bandar, Kabupaten Bener Meriah, Aceh 24582";"Kec. Bandar, Kabupaten Bener Meriah";"ACEH";"24582";"Indonesia";"";"4.7547213";"96.9137012";"https://maps.google.com/?cid=0x0:0xa09745100a9a570e"
"restaurant";"Sarapan";"Grand melati coffee  roastery";"QW47+4FC, Janarata, Kec. Bandar, Kabupaten Bener Meriah, Aceh 24582";"Janarata, Kec. Bandar, Kabupaten Bener Meriah";"ACEH";"24582";"Indonesia";" 08137540409";"4.7553032";"96.9136254";"https://maps.google.com/?cid=0x0:0xf58de791498d5ffc"
"restaurant";"Kafe";"Kawa cafe";"QWM5+JXJ, Jl. KKA, Bener Pepanyi, Kec. Permata, Kabupaten Bener Meriah, Aceh 24582";"Jl. KKA, Bener Pepanyi, Kec. Permata, Kabupaten Bener Meriah";"ACEH";"24582";"Indonesia";"";"4.7840957";"96.9098874";"https://maps.google.com/?cid=0x0:0xee1f3caf0f1b524d"
"restaurant";"Kedai Kopi";"Vakem Coffe Shop";"Puja Mulia, Kec. Bandar, Kabupaten Bener Meriah, Aceh 24582";"Kec. Bandar, Kabupaten Bener Meriah";"ACEH";"24582";"Indonesia";" 085262716295";"4.7534399";"96.9130637";"https://maps.google.com/?cid=0x0:0xf737db809bacf89"
"restaurant";"restaurant";"Aceh";"";"Aceh";"ACEH";"";"Indonesia";"";"4.695135";"96.7493993";"https://maps.google.com/?cid=0x0:0x1039d80b220ca60"
"restaurant";"Grosir Kopi";"Baizan CafeCoffeeshop";"Jalan Takengon Jl. Pd. Baru, Reje Guru, Kec. Bukit, Kabupaten Bener Meriah, Aceh 24581";"Reje Guru, Kec. Bukit, Kabupaten Bener Meriah";"ACEH";"24581";"Indonesia";" 082211449035";"4.7221778";"96.8735184";"https://maps.google.com/?cid=0x0:0x3891e0428892d189"
"restaurant";"Kedai Kopi";"Puncak Hill Resto";"Jl. KKA - Bener Meriah, Hutan, Kec. Nisam Antara, Kabupaten Aceh Utara, Aceh 24313";"Hutan, Kec. Nisam Antara, Kabupaten Aceh Utara";"ACEH";"24313";"Indonesia";" 02272375860";"4.9495682";"96.9421165";"https://maps.google.com/?cid=0x0:0x30ef6e6710ddb7a6"
"restaurant";"Restoran";"Dedingin Cafe";"PV85+9QF, Jl. Empun Bayak, Bale Atu, Kec. Bukit, Kabupaten Bener Meriah, Aceh 24581";"Jl. Empun Bayak, Bale Atu, Kec. Bukit, Kabupaten Bener Meriah";"ACEH";"24581";"Indonesia";" 082260218223";"4.71595";"96.8594262";"https://maps.google.com/?cid=0x0:0x6b155df17ce1c23b"
"restaurant";"Kafe";"Kafe";"PV9C+FQQ, Jalan Teritit - Simpang Tiga Redelong Blang Sentang, Uring, Bukit, Bener Meriah Regency, Aceh 24581";"Jalan Teritit - Simpang Tiga Redelong Blang Sentang, Uring, Bukit, Bener Meriah Regency";"ACEH";"24581";"Indonesia";" 082281399967";"4.7187089";"96.8719878";"https://maps.google.com/?cid=0x0:0x17764e747879dc3c"
"restaurant";"Nasi";"Warung mie arang bm";"Jl. Pd. Baru Jl. Simpang Teritit No.7, Serule Kayu, Kec. Bukit, Kabupaten Bener Meriah, Aceh 24581";"Serule Kayu, Kec. Bukit, Kabupaten Bener Meriah";"ACEH";"24581";"Indonesia";" 085270772788";"4.7009385";"96.8625783";"https://maps.google.com/?cid=0x0:0x9bca49871098bd11"
"restaurant";"restaurant";"Kec. Bukit";"Kabupaten Bener Meriah, Aceh";"Kabupaten Bener Meriah, Aceh";"ACEH";"";"Indonesia";"";"4.7210007";"96.872884";"https://maps.google.com/?cid=0x0:0x188fe33ad294aadd"
"restaurant";"Sesuai untuk keluarga";"D  D RESTAURANT";"Iboih, Sukakarya, Kota Sabang, Aceh 24411";"Sukakarya, Kota Sabang";"ACEH";"24411";"Indonesia";" 085260850400";"5.8736571";"95.2522957";"https://maps.google.com/?cid=0x0:0x1049eda73985df37"
"restaurant";"restaurant";"Hotel Belangi Syariah Takengon";"Jl. Soekarno - Hatta, Kebet, Kec. Bebesen, Kabupaten Aceh Tengah, Aceh 24471";"Kebet, Kec. Bebesen, Kabupaten Aceh Tengah";"ACEH";"24471";"Indonesia";" 085260849478";"4.6300304";"96.8344354";"https://maps.google.com/?cid=0x0:0x531d4f3480e41c41"
"restaurant";"restaurant";"Depik Inn Guesthouse";"Lot Kala, Kec. Kebayakan, Kabupaten Aceh Tengah, Aceh 24519";"Kec. Kebayakan, Kabupaten Aceh Tengah";"ACEH";"24519";"Indonesia";" 082286115308";"4.6356933";"96.8599914";"https://maps.google.com/?cid=0x0:0x4fc666142e26f607"
"restaurant";"restaurant";"Wisma Tursina (RedDoorz Hotel)";"Jl. Lebe Kader, Simpang Empat, Kec. Bebesen, Kabupaten Aceh Tengah, Aceh 24471";"Simpang Empat, Kec. Bebesen, Kabupaten Aceh Tengah";"ACEH";"24471";"Indonesia";" 0895417300072";"4.6379054";"96.8410804";"https://maps.google.com/?cid=0x0:0xd09d01e1e60cb87"
"restaurant";"restaurant";"Penginapan pondok wisata";"Jl. Raya Bireuen - Takengon No.205a, Paya Tumpi I, Kec. Kebayakan, Kabupaten Aceh Tengah, Aceh 24519";"Paya Tumpi I, Kec. Kebayakan, Kabupaten Aceh Tengah";"ACEH";"24519";"Indonesia";" 085260078728";"4.6471563";"96.8351348";"https://maps.google.com/?cid=0x0:0x8e73ff2d5c6908a9"
"restaurant";"restaurant";"At-Tamimi Guest House Syariah at Desa Wisata Takengon";"Jalan Sengeda Blang, Jl. Merah Mersa No.1, Takengon Tim., Kec. Lut Tawar, Kabupaten Aceh Tengah, Aceh 24511";"Jl. Merah Mersa No.1, Takengon Tim., Kec. Lut Tawar, Kabupaten Aceh Tengah";"ACEH";"24511";"Indonesia";" 0895417300072";"4.6228935";"96.8521898";"https://maps.google.com/?cid=0x0:0x926e4b04e3e70131"
"restaurant";"restaurant";"Oliver's Inn";"Jl. Abdul Wahab No.8AA, Simpang Perumnas, Kec. Kebayakan, Kabupaten Aceh Tengah, Aceh 24519";"Simpang Perumnas, Kec. Kebayakan, Kabupaten Aceh Tengah";"ACEH";"24519";"Indonesia";" 081320001783";"4.6369296";"96.8469246";"https://maps.google.com/?cid=0x0:0xff7878ceadae0d1c"
"restaurant";"restaurant";"Kec. Gajah Putih";"Kabupaten Bener Meriah, Aceh";"Kabupaten Bener Meriah, Aceh";"ACEH";"";"Indonesia";"";"4.8103413";"96.7371594";"https://maps.google.com/?cid=0x0:0xc34ec80407ef00cb"
"restaurant";"Kedai Kopi";"Durian gajah putih";"RP5Q+35M, Timang Gajah, Kec. Gajah Putih, Kabupaten Bener Meriah, Aceh 24571";"Timang Gajah, Kec. Gajah Putih, Kabupaten Bener Meriah";"ACEH";"24571";"Indonesia";"";"4.8074903";"96.7382066";"https://maps.google.com/?cid=0x0:0x41c8f50dc9779bc"
"restaurant";"Kafe";"Teras Cafe";"RP8Q+6PG, RONGA-RONGA, Gajah Putih, Kec. Gajah Putih, Kabupaten Bener Meriah, Aceh 24571";"RONGA-RONGA, Gajah Putih, Kec. Gajah Putih, Kabupaten Bener Meriah";"ACEH";"24571";"Indonesia";" 085362966502";"4.8155508";"96.7393153";"https://maps.google.com/?cid=0x0:0x6e8149b17531f717"
"restaurant";"Padang";"Kantin Compi C";"QQ33+X48, Lampahan Bar., Kec. Timang Gajah, Kabupaten Bener Meriah, Aceh 24571";"Lampahan Bar., Kec. Timang Gajah, Kabupaten Bener Meriah";"ACEH";"24571";"Indonesia";"";"4.7549028";"96.752832";"https://maps.google.com/?cid=0x0:0xb2fe8ccbdad4a323"
"restaurant";"Restoran";"DC Kuphi";"RP7Q+WHG, Jl. Raya Bireuen - Takengon, Reronga, Kec. Gajah Putih, Kabupaten Bener Meriah, Aceh 24571";"Jl. Raya Bireuen - Takengon, Reronga, Kec. Gajah Putih, Kabupaten Bener Meriah";"ACEH";"24571";"Indonesia";" 085292969774";"4.8148023";"96.7389512";"https://maps.google.com/?cid=0x0:0xf494a298044769f9"
"restaurant";"Bakso";"Pawon Ceu'edoh";"QQ3C+W39, Jl. Raya Bireuen - Takengon, Karang Jadi, Kec. Timang Gajah, Kabupaten Bener Meriah, Aceh 24571";"Jl. Raya Bireuen - Takengon, Karang Jadi, Kec. Timang Gajah, Kabupaten Bener Meriah";"ACEH";"24571";"Indonesia";" 082118014868";"4.7547758";"96.7702352";"https://maps.google.com/?cid=0x0:0xc8bf14b1489e08df"
"restaurant";"Kedai Kopi";"Ane Coffee";"Jl. Raya Bireuen - Takengon, Lampahan Bar., Kec. Timang Gajah, Kabupaten Bener Meriah, Aceh 24571";"Lampahan Bar., Kec. Timang Gajah, Kabupaten Bener Meriah";"ACEH";"24571";"Indonesia";"";"4.7583927";"96.7619341";"https://maps.google.com/?cid=0x0:0x4e3dcbaba0ef6042"
"restaurant";"Sate";"Sate Matang Bg Har  Leo Coffee";"Lampahan Bar., Kec. Timang Gajah, Kabupaten Bener Meriah, Aceh 24571";"Kec. Timang Gajah, Kabupaten Bener Meriah";"ACEH";"24571";"Indonesia";" 085210006278";"4.7593869";"96.7570343";"https://maps.google.com/?cid=0x0:0xbf56cf5d56799467"
"restaurant";"Kedai Kopi";"KOPI DAN RESTO";"QQ3F+MC4, Karang Jadi, Kec. Timang Gajah, Kabupaten Bener Meriah, Aceh 24571";"Karang Jadi, Kec. Timang Gajah, Kabupaten Bener Meriah";"ACEH";"24571";"Indonesia";" 085260640636";"4.7541473";"96.7735824";"https://maps.google.com/?cid=0x0:0x34c327fdcb90608c"
"restaurant";"Rumah Makan";"Rumah makan lia nazwa";"QQ82+H46, Sumber Jaya, Kec. Timang Gajah, Kabupaten Bener Meriah, Aceh 24571";"Sumber Jaya, Kec. Timang Gajah, Kabupaten Bener Meriah";"ACEH";"24571";"Indonesia";"";"4.7664089";"96.7502797";"https://maps.google.com/?cid=0x0:0x89eabd548c382ba7"
"restaurant";"Kedai Kopi";"Warung Putra Balker";"QPVM+X8X, Setie, Kec. Timang Gajah, Kabupaten Bener Meriah, Aceh 24571";"Setie, Kec. Timang Gajah, Kabupaten Bener Meriah";"ACEH";"24571";"Indonesia";"";"4.7949923";"96.7333716";"https://maps.google.com/?cid=0x0:0xa95bc8af11fd28e3"
"restaurant";"Padang";"Lampahan";"QQ53+69M, Lampahan Bar., Kec. Timang Gajah, Kabupaten Bener Meriah, Aceh 24571";"Lampahan Bar., Kec. Timang Gajah, Kabupaten Bener Meriah";"ACEH";"24571";"Indonesia";"";"4.7580775";"96.753414";"https://maps.google.com/?cid=0x0:0xb58da31f58bd7e17"
"restaurant";"Bakso";"Mampir ngombe";"Lampahan - pantan lues, Suka Damai, Kec. Timang Gajah, Kabupaten Bener Meriah, Aceh 24571";"Suka Damai, Kec. Timang Gajah, Kabupaten Bener Meriah";"ACEH";"24571";"Indonesia";" 082236838786";"4.7668026";"96.7621936";"https://maps.google.com/?cid=0x0:0x43816a7e9894919b"
"restaurant";"Kafe";"Jaya abadi";"QQHF+V9X, Sumber Jaya, Kec. Timang Gajah, Kabupaten Bener Meriah, Aceh 24571";"Sumber Jaya, Kec. Timang Gajah, Kabupaten Bener Meriah";"ACEH";"24571";"Indonesia";"";"4.7797474";"96.7734911";"https://maps.google.com/?cid=0x0:0xd78b5d8876100c0b"
"restaurant";"Sarapan";"warung sudi mampir KAK CUT";"PWRW+MPR, Unnamed Road, Petukel Blang Jorong, Kec. Bandar, Kabupaten Bener Meriah, Aceh 24582";"Unnamed Road, Petukel Blang Jorong, Kec. Bandar, Kabupaten Bener Meriah";"ACEH";"24582";"Indonesia";" 085280448828";"4.7417277";"96.9467507";"https://maps.google.com/?cid=0x0:0x5c02a6fc7a0baed"
"restaurant";"Sarapan";"Bakso Madura Sidodadi";"Selamat Rejo, Kec. Bandar, Kabupaten Bener Meriah, Aceh 24582";"Kec. Bandar, Kabupaten Bener Meriah";"ACEH";"24582";"Indonesia";" 085262476481";"4.7449856";"96.9438993";"https://maps.google.com/?cid=0x0:0x1f47de289d647273"
"restaurant";"restaurant";"Kec. Mesidah";"Kabupaten Bener Meriah, Aceh";"Kabupaten Bener Meriah, Aceh";"ACEH";"";"Indonesia";"";"4.7627916";"97.0109687";"https://maps.google.com/?cid=0x0:0xdf564a5272d2d37b"
"restaurant";"Perkebunan Pohon";"perkebunan kopi";"P2RC+C9F, Gn. Sayang, Kec. Mesidah, Kabupaten Bener Meriah, Aceh 24582";"Gn. Sayang, Kec. Mesidah, Kabupaten Bener Meriah";"ACEH";"24582";"Indonesia";"";"4.741074";"97.0209077";"https://maps.google.com/?cid=0x0:0xdf531550aff5dd46"
"restaurant";"Indonesia";"Samana sefood";"Gn. Musara, kec.Benerkalifah, Kabupaten Bener Meriah, Aceh 24582";"kec.Benerkalifah, Kabupaten Bener Meriah";"ACEH";"24582";"Indonesia";" 08116876661";"4.7761781";"96.9240412";"https://maps.google.com/?cid=0x0:0xde00f47854ab1e05"
"restaurant";"Bakso";"WR. BANG HADI RAHMAT";"QW4X+XMX, Selisih Mara, Kec. Bandar, Kabupaten Bener Meriah, Aceh 24582";"Selisih Mara, Kec. Bandar, Kabupaten Bener Meriah";"ACEH";"24582";"Indonesia";"";"4.7574755";"96.9492488";"https://maps.google.com/?cid=0x0:0x3f4894d964b176e8"
"restaurant";"Kafe";"Kin Cafe X Kin Kitchen (Makanan dan Minuman)";"Simpang Utama, Kec. Bandar, Kabupaten Bener Meriah, Aceh 24582";"Kec. Bandar, Kabupaten Bener Meriah";"ACEH";"24582";"Indonesia";" 082160023885";"4.7524553";"96.9050993";"https://maps.google.com/?cid=0x0:0x13190d8b3b2db857"
"restaurant";"Mi";"Warung Mie Aceh";"PWRW+JHQ, Petukel Blang Jorong, Kec. Bandar, Kabupaten Bener Meriah, Aceh 24582";"Petukel Blang Jorong, Kec. Bandar, Kabupaten Bener Meriah";"ACEH";"24582";"Indonesia";"";"4.7415801";"96.9464872";"https://maps.google.com/?cid=0x0:0x46b4766fd26cf5ba"
"restaurant";"Bar Kopi Espresso";"Zukardi Kopi gayo";"PWCW+XF4, Tansaran Bidin, Kec. Bandar, Kabupaten Bener Meriah, Aceh 24582";"Tansaran Bidin, Kec. Bandar, Kabupaten Bener Meriah";"ACEH";"24582";"Indonesia";" 081289084255";"4.7223857";"96.9461945";"https://maps.google.com/?cid=0x0:0xbd8589bdc1e1ff45"
"restaurant";"Kafe";"Kinico Coffee Shop";"PWX7+G6F, Tawar Sedenge, Kec. Bandar, Kabupaten Bener Meriah, Aceh 24582";"Tawar Sedenge, Kec. Bandar, Kabupaten Bener Meriah";"ACEH";"24582";"Indonesia";" 082285169505";"4.7488152";"96.9130606";"https://maps.google.com/?cid=0x0:0x5a33c1a68839a426"
"restaurant";"Kafe";"KIREI CAFE";"QV2X+VW3, Pd. Gajah, Kec. Bandar, Kabupaten Bener Meriah, Aceh 24582";"Pd. Gajah, Kec. Bandar, Kabupaten Bener Meriah";"ACEH";"24582";"Indonesia";" 082277738686";"4.7521293";"96.8997982";"https://maps.google.com/?cid=0x0:0x68a26079389dc0da"
"restaurant";"Bakso";"Bakso langgeng";"Sidodadi, Kec. Bandar, Kabupaten Bener Meriah, Aceh 24582";"Kec. Bandar, Kabupaten Bener Meriah";"ACEH";"24582";"Indonesia";"";"4.7457408";"96.9426301";"https://maps.google.com/?cid=0x0:0x9dfe842256fcea9c"
"restaurant";"Restoran";"Waroeng izzatun";"Sinar Jaya Paya Ringkel, Kec. Bandar, Kabupaten Bener Meriah, Aceh 24582";"Kec. Bandar, Kabupaten Bener Meriah";"ACEH";"24582";"Indonesia";"";"4.7404939";"96.9705757";"https://maps.google.com/?cid=0x0:0xa4e38fb866bf5ec6"
"restaurant";"Bakso";"Bakso Lava Senyum berkah";"QWFF+W83, Bener Kelipah Utara, Kec. Bener Kelipah, Kabupaten Bener Meriah, Aceh 24582";"Bener Kelipah Utara, Kec. Bener Kelipah, Kabupaten Bener Meriah";"ACEH";"24582";"Indonesia";"";"4.7747701";"96.9232851";"https://maps.google.com/?cid=0x0:0xb16ca7e483d4c054"
"restaurant";"Kafetaria";"Ayu Ara Permata";"QXX3+VH9, Pantan Tengah Jaya, Kec. Permata, Kabupaten Bener Meriah, Aceh 24582";"Pantan Tengah Jaya, Kec. Permata, Kabupaten Bener Meriah";"ACEH";"24582";"Indonesia";"";"4.7996627";"96.953995";"https://maps.google.com/?cid=0x0:0xba947aba9e2460f5"
"restaurant";"Kedai Kopi";"Natural Permata Kopi";"RWC8+QWC, Gelampang, Kec. Permata, Kabupaten Bener Meriah, Aceh 24582";"Gelampang, Kec. Permata, Kabupaten Bener Meriah";"ACEH";"24582";"Indonesia";" 082360486916";"4.821944";"96.9172579";"https://maps.google.com/?cid=0x0:0xa3a5db569355e11c"
"restaurant";"restaurant";"Aceh 24582";"Kabupaten Bener Meriah, Aceh";"Kabupaten Bener Meriah, Aceh";"ACEH";"";"Indonesia";"";"4.733267";"97.0498442";"https://maps.google.com/?cid=0x0:0x24377db9b3ac434d"
"restaurant";"Kafe";"Sungkite aji";"RW97+3GR, Jl. KKA, Gelampang, Kec. Permata, Kabupaten Bener Meriah, Aceh 24582";"Jl. KKA, Gelampang, Kec. Permata, Kabupaten Bener Meriah";"ACEH";"24582";"Indonesia";"";"4.8177292";"96.9137748";"https://maps.google.com/?cid=0x0:0xcf0b82828c95e3e3"
"restaurant";"Restoran";"Warung Mie Guci";"VW24+JFW, Burni Pase, Kec. Permata, Kabupaten Bener Meriah, Aceh 24394";"Burni Pase, Kec. Permata, Kabupaten Bener Meriah";"ACEH";"24394";"Indonesia";"";"4.8516077";"96.9061889";"https://maps.google.com/?cid=0x0:0xfbea9b8b87f3893c"
"restaurant";"Kafe";"Kawa cafe";"QWM5+JXJ, Jl. KKA, Bener Pepanyi, Kec. Permata, Kabupaten Bener Meriah, Aceh 24582";"Jl. KKA, Bener Pepanyi, Kec. Permata, Kabupaten Bener Meriah";"ACEH";"24582";"Indonesia";"";"4.7840957";"96.9098874";"https://maps.google.com/?cid=0x0:0xee1f3caf0f1b524d"
"restaurant";"Rumah Makan";"Rumah Makan Spesifik Aceh";"H74M+7XJ, Ulee Lheue, Kec. Meuraxa, Kota Banda Aceh, Aceh 23232";"Ulee Lheue, Kec. Meuraxa, Kota Banda Aceh";"ACEH";"23232";"Indonesia";" 081269525422";"5.5557081";"95.2848952";"https://maps.google.com/?cid=0x0:0xfa70195de5b6d5a7"
"restaurant";"restaurant";"Kuliner kak endut";"RXC8+F6X, Temas Mumanang, Kec. Permata, Kabupaten Bener Meriah, Aceh";"Kabupaten Bener Meriah, Aceh";"ACEH";"";"Indonesia";"";"4.8212265";"96.9656127";"https://maps.google.com/?cid=0x0:0xe17b94d17b3257f5"
"restaurant";"Sesuai untuk keluarga";"REX PEUNAYONG";"H859+4P4, Peunayong, Kec. Kuta Alam, Kota Banda Aceh, Aceh";"Kota Banda Aceh, Aceh";"ACEH";"";"Indonesia";"";"5.5577504";"95.3193177";"https://maps.google.com/?cid=0x0:0xcf230a640c681314"
"restaurant";"Sate";"Sate Matang D'Wan";"Blang Cut, Kec. Lueng Bata, Kota Banda Aceh, Aceh 23127";"Kec. Lueng Bata, Kota Banda Aceh";"ACEH";"23127";"Indonesia";" 081360450466";"5.5450224";"95.3350015";"https://maps.google.com/?cid=0x0:0x64aca37c6e22a38c"
"restaurant";"Taman";"Kebun konadi jinger";"VVFW+62J, Seni Antara, Kec. Permata, Kabupaten Bener Meriah, Aceh 24394";"Seni Antara, Kec. Permata, Kabupaten Bener Meriah";"ACEH";"24394";"Indonesia";" 082273339002";"4.8730883";"96.8950166";"https://maps.google.com/?cid=0x0:0x7b33250671c47075"
"restaurant";"Tujuan Wisata";"Maha Corner";"Mon Ikeun, Kec. Lhoknga, Kabupaten Aceh Besar, Aceh 23353";"Kec. Lhoknga, Kabupaten Aceh Besar";"ACEH";"23353";"Indonesia";" 0811670314";"5.4670481";"95.2414679";"https://maps.google.com/?cid=0x0:0x810c410478e429fe"
"restaurant";"Kedai Kopi";"KARI KAMBING AYAH";"RW97+CF5, Gelampang, Kec. Permata, Kabupaten Bener Meriah, Aceh 24582";"Gelampang, Kec. Permata, Kabupaten Bener Meriah";"ACEH";"24582";"Indonesia";" 085290361570";"4.8187396";"96.9137253";"https://maps.google.com/?cid=0x0:0x5788e633590f568d"
"restaurant";"Makanan Siap Saji";"Bakso ira jaya";"Jl.kka,gelampang,kec,permata,kab,bener meriah, Buntul, Aceh 24582";"Buntul";"ACEH";"24582";"Indonesia";"";"4.8213134";"96.9164287";"https://maps.google.com/?cid=0x0:0x2ad14595721ac486"
"restaurant";"Padang";"Andi siang malam";"Blang Rakal, Kec. Pintu Rime Gayo, Kabupaten Bener Meriah, Aceh 24571";"Kec. Pintu Rime Gayo, Kabupaten Bener Meriah";"ACEH";"24571";"Indonesia";" 081231704790";"4.9041388";"96.7386946";"https://maps.google.com/?cid=0x0:0x15d979178fad0091"
"restaurant";"restaurant";"Kec. Pintu Rime Gayo";"Kabupaten Bener Meriah, Aceh";"Kabupaten Bener Meriah, Aceh";"ACEH";"";"Indonesia";"";"4.849318";"96.7411267";"https://maps.google.com/?cid=0x0:0x28686d3d13d5dcf5"
"restaurant";"Indonesia";"60 hot chicken";"Km 60, Kabupaten Bener Meriah, Aceh 24554";"Kabupaten Bener Meriah";"ACEH";"24554";"Indonesia";" 082210991087";"4.8370705";"96.7427553";"https://maps.google.com/?cid=0x0:0x2b9ee522573963ba"
"restaurant";"Kedai Kopi";"SIMPANG LANCANG";"VP6W+7Q, Simpang Lancang, Kec. Pintu Rime Gayo, Kabupaten Bener Meriah, Aceh 24571";"Simpang Lancang, Kec. Pintu Rime Gayo, Kabupaten Bener Meriah";"ACEH";"24571";"Indonesia";"";"4.8608108";"96.7459895";"https://maps.google.com/?cid=0x0:0x9bf50b1742731881"
"restaurant";"Kafe";"Rumah makan abu";"Jl. Raya Bireuen - Takengon, Blang Rakal, Kec. Pintu Rime Gayo, Kabupaten Bener Meriah, Aceh 24571";"Blang Rakal, Kec. Pintu Rime Gayo, Kabupaten Bener Meriah";"ACEH";"24571";"Indonesia";" 082225156684";"4.9042529";"96.7389515";"https://maps.google.com/?cid=0x0:0x6d9b18b977672fab"
"restaurant";"Kedai Kopi";"Pojok Yellow Km60";"RPMV+WFH, Rime Raya, Kec. Pintu Rime Gayo, Kabupaten Bener Meriah, Aceh 24571";"Rime Raya, Kec. Pintu Rime Gayo, Kabupaten Bener Meriah";"ACEH";"24571";"Indonesia";"";"4.8348168";"96.7437448";"https://maps.google.com/?cid=0x0:0x8372d02b0f8d149d"
"restaurant";"Taman";"Pondok Wisata Pinus";"Jl. Raya Bireuen - Takengon No.KM 42, Negeri Antara, Kec. Pintu Rime Gayo, Kabupaten Bener Meriah, Aceh 24571";"Negeri Antara, Kec. Pintu Rime Gayo, Kabupaten Bener Meriah";"ACEH";"24571";"Indonesia";" 081394110009";"4.9148183";"96.7316057";"https://maps.google.com/?cid=0x0:0xa75e052b401b203"
"restaurant";"Makanan Siap Saji";"Rumah makan SEDULOR-SEDULOR KU";"VPVP+9CJ, Alur Cincin, Kec. Pintu Rime Gayo, Kabupaten Bener Meriah, Aceh 24571";"Alur Cincin, Kec. Pintu Rime Gayo, Kabupaten Bener Meriah";"ACEH";"24571";"Indonesia";"";"4.8934567";"96.7360188";"https://maps.google.com/?cid=0x0:0x20a285f5f57fd03c"
"restaurant";"Restoran";"Bakso Pangsit";"RPXR+R86, Jl. Raya Bireuen - Takengon, Singah Mulo, Kec. Pintu Rime Gayo, Kabupaten Bener Meriah, Aceh 24571";"Jl. Raya Bireuen - Takengon, Singah Mulo, Kec. Pintu Rime Gayo, Kabupaten Bener Meriah";"ACEH";"24571";"Indonesia";" 085289542531";"4.849534";"96.7407808";"https://maps.google.com/?cid=0x0:0xff0d932ed205571f"
"restaurant";"Rumah Makan";"Abcoffee";"RPXQ+4W2, Singah Mulo, Kec. Pintu Rime Gayo, Kabupaten Bener Meriah, Aceh 24571";"Singah Mulo, Kec. Pintu Rime Gayo, Kabupaten Bener Meriah";"ACEH";"24571";"Indonesia";" 082165050002";"4.8477591";"96.739764";"https://maps.google.com/?cid=0x0:0x6e036a50d74ab864"
"restaurant";"Sesuai untuk keluarga";"cumil (cuik's cemil)";"banjar sari, simpang lancang, Kec. Pintu Rime Gayo, Kabupaten Bener Meriah, Aceh 24571";"simpang lancang, Kec. Pintu Rime Gayo, Kabupaten Bener Meriah";"ACEH";"24571";"Indonesia";" 082215838226";"4.8729579";"96.7566608";"https://maps.google.com/?cid=0x0:0x5237ac41bfd9e2d9"
"restaurant";"restaurant";"Warung Bang Edi";"WPV8+38J, Negeri Antara, Kec. Pintu Rime Gayo, Kabupaten Bener Meriah, Aceh";"Kabupaten Bener Meriah, Aceh";"ACEH";"";"Indonesia";"";"4.9427244";"96.7157572";"https://maps.google.com/?cid=0x0:0x843f09a897df1542"
"restaurant";"Nasi Goreng";"Sarinah";"WQ8P+FQ6, Pancar Jelobok, Kec. Pintu Rime Gayo, Kabupaten Bener Meriah, Aceh 24571";"Pancar Jelobok, Kec. Pintu Rime Gayo, Kabupaten Bener Meriah";"ACEH";"24571";"Indonesia";"";"4.9158295";"96.7863201";"https://maps.google.com/?cid=0x0:0x1cfa96dab935b4ad"
"restaurant";"Bar Kopi Espresso";"Block C Coffee Shops";"Jl. Raya Bireuen - Takengon, Blang Rakal, Kec. Pintu Rime Gayo, Kabupaten Bener Meriah, Aceh 24571";"Blang Rakal, Kec. Pintu Rime Gayo, Kabupaten Bener Meriah";"ACEH";"24571";"Indonesia";" 081370658986";"4.8849605";"96.7255472";"https://maps.google.com/?cid=0x0:0x77520afe84ae748a"
"restaurant";"restaurant";"Aceh 24582";"Kabupaten Bener Meriah, Aceh";"Kabupaten Bener Meriah, Aceh";"ACEH";"";"Indonesia";"";"4.733267";"97.0498442";"https://maps.google.com/?cid=0x0:0x24377db9b3ac434d"
"restaurant";"Kedai Kopi";"Sinar Mila Caffee  Resto";"Dekat Jl. Syiah Utama, Simpang Utama, Pd. Baru, Kec. Bandar, Kabupaten Bener Meriah, Aceh 24582";"Simpang Utama, Pd. Baru, Kec. Bandar, Kabupaten Bener Meriah";"ACEH";"24582";"Indonesia";" 082292840100";"4.7524656";"96.9046527";"https://maps.google.com/?cid=0x0:0x7f175643850a07a"
"restaurant";"Sate";"UD.Cirasa";"PVFF+4JW, Unnamed Rd,, Ps. Simpang Tiga, Kec. Bukit, Kabupaten Bener Meriah, Aceh 24582";"Unnamed Rd,, Ps. Simpang Tiga, Kec. Bukit, Kabupaten Bener Meriah";"ACEH";"24582";"Indonesia";"";"4.7228624";"96.8740837";"https://maps.google.com/?cid=0x0:0xdf9c40faba15392a"
"restaurant";"Restoran";"DAPUR_KOPI";"QW37+QFF, Jl. Ps. Inpres, Puja Mulia, Kec. Bandar, Kabupaten Bener Meriah, Aceh 24582";"Jl. Ps. Inpres, Puja Mulia, Kec. Bandar, Kabupaten Bener Meriah";"ACEH";"24582";"Indonesia";" 082369966369";"4.754448";"96.913658";"https://maps.google.com/?cid=0x0:0x132f34046fac9644"
"restaurant";"Padang";"Warung Makan -Selera Anda-";"QW47+6FC, Jl. Syiah Utama, Mupakat Jadi, Kec. Bandar, Kabupaten Bener Meriah, Aceh 24582";"Jl. Syiah Utama, Mupakat Jadi, Kec. Bandar, Kabupaten Bener Meriah";"ACEH";"24582";"Indonesia";"";"4.7555713";"96.913639";"https://maps.google.com/?cid=0x0:0x3c0cbe0033110714"
"restaurant";"Padang";"Idola Resto  Cafe";"JRFX+V92, Jl. HM Hasan Gayo, Simpang Warigi, Kemili, Kec. Bebesen, Kabupaten Aceh Tengah, Aceh 24519";"Jl. HM Hasan Gayo, Simpang Warigi, Kemili, Kec. Bebesen, Kabupaten Aceh Tengah";"ACEH";"24519";"Indonesia";" 085275555622";"4.6246276";"96.8484031";"https://maps.google.com/?cid=0x0:0x2d32952106486b"
"restaurant";"Restoran";"Kue Putu Lik Nyono";"QV2R+2V6, Jl. Syiah Utama, Mupakat Jadi, Kec. Bukit, Kabupaten Bener Meriah, Aceh 24582";"Jl. Syiah Utama, Mupakat Jadi, Kec. Bukit, Kabupaten Bener Meriah";"ACEH";"24582";"Indonesia";"";"4.7500337";"96.8921436";"https://maps.google.com/?cid=0x0:0x3c3df61ad477070b"
"restaurant";"Brunch";"Misop kampung nianda";"QW47+778, Jl. Syiah Utama, Puja Mulia, Kec. Bandar, Kabupaten Bener Meriah, Aceh 24582";"Jl. Syiah Utama, Puja Mulia, Kec. Bandar, Kabupaten Bener Meriah";"ACEH";"24582";"Indonesia";"";"4.7556626";"96.913207";"https://maps.google.com/?cid=0x0:0x4c38105b8b46deb8"
"restaurant";"Sate";"Benjawas Resto  Cafe";"Jl. T. Hasan Dek, Lamseupeung, Kec. Lueng Bata, Kota Banda Aceh, Aceh 23127";"Lamseupeung, Kec. Lueng Bata, Kota Banda Aceh";"ACEH";"23127";"Indonesia";" 08116895758";"5.551937";"95.3308794";"https://maps.google.com/?cid=0x0:0x2490d2d29f6cea44"
"restaurant";"Kedai Kopi";"Caffe bdl  nasi padang";"Jl. Syiah Utama No.83, Simpang Utama, Pondok baru, Kabupaten Bener Meriah, Aceh 24582";"Simpang Utama, Pondok baru, Kabupaten Bener Meriah";"ACEH";"24582";"Indonesia";" 082267648011";"4.752882";"96.906392";"https://maps.google.com/?cid=0x0:0xdebfe373fcddef72"
"restaurant";"Restoran";"rumah makan Simpang melati";"QW47+6CG, Jl. Syiah Utama, Puja Mulia, Kec. Bandar, Kabupaten Bener Meriah, Aceh 24582";"Jl. Syiah Utama, Puja Mulia, Kec. Bandar, Kabupaten Bener Meriah";"ACEH";"24582";"Indonesia";"";"4.755556";"96.9135791";"https://maps.google.com/?cid=0x0:0x9b2424097c238d78"
"restaurant";"Restoran";"Lemong Resto  Cafe";"JVR7+849, Unnamed Road, Lot Kala, Kebayakan, Central Aceh Regency, Aceh 24519";"Unnamed Road, Lot Kala, Kebayakan, Central Aceh Regency";"ACEH";"24519";"Indonesia";" 081361735423";"4.640792";"96.8628446";"https://maps.google.com/?cid=0x0:0x4058af5becc59e38"
"restaurant";"Restoran";"Dapoer Bita";"QW38+R53, Jl. Ps. Inpres, Pd. Baru, Kec. Bandar, Kabupaten Bener Meriah, Aceh 24582";"Jl. Ps. Inpres, Pd. Baru, Kec. Bandar, Kabupaten Bener Meriah";"ACEH";"24582";"Indonesia";" 085226942350";"4.7545059";"96.9154285";"https://maps.google.com/?cid=0x0:0x27a46403cb59ab23"
"restaurant";"Restoran";"Waroeng Oemah Djemen KIFATIH.SB";"PV96+W5Q, Tingkem Benyer, Kec. Bukit, Kabupaten Bener Meriah, Aceh 24582";"Tingkem Benyer, Kec. Bukit, Kabupaten Bener Meriah";"ACEH";"24582";"Indonesia";" 085283000207";"4.7198351";"96.8604855";"https://maps.google.com/?cid=0x0:0xdadb0edc7f2c1477"
"restaurant";"restaurant";"Kec. Timang Gajah";"Kabupaten Bener Meriah, Aceh";"Kabupaten Bener Meriah, Aceh";"ACEH";"";"Indonesia";"";"4.7581426";"96.76263";"https://maps.google.com/?cid=0x0:0x64723af8a148d625"
"restaurant";"Kedai Kopi";"Ane Coffee";"Jl. Raya Bireuen - Takengon, Lampahan Bar., Kec. Timang Gajah, Kabupaten Bener Meriah, Aceh 24571";"Lampahan Bar., Kec. Timang Gajah, Kabupaten Bener Meriah";"ACEH";"24571";"Indonesia";"";"4.7583927";"96.7619341";"https://maps.google.com/?cid=0x0:0x4e3dcbaba0ef6042"
"restaurant";"Rumah Makan";"Rumah makan lia nazwa";"QQ82+H46, Sumber Jaya, Kec. Timang Gajah, Kabupaten Bener Meriah, Aceh 24571";"Sumber Jaya, Kec. Timang Gajah, Kabupaten Bener Meriah";"ACEH";"24571";"Indonesia";"";"4.7664089";"96.7502797";"https://maps.google.com/?cid=0x0:0x89eabd548c382ba7"
"restaurant";"Padang";"Lampahan";"QQ53+69M, Lampahan Bar., Kec. Timang Gajah, Kabupaten Bener Meriah, Aceh 24571";"Lampahan Bar., Kec. Timang Gajah, Kabupaten Bener Meriah";"ACEH";"24571";"Indonesia";"";"4.7580775";"96.753414";"https://maps.google.com/?cid=0x0:0xb58da31f58bd7e17"
"restaurant";"Rumah Makan";"Resto Arador";"PQRJ+CP, Pajar Harapan, Kec. Timang Gajah, Kabupaten Bener Meriah, Aceh 24561";"Pajar Harapan, Kec. Timang Gajah, Kabupaten Bener Meriah";"ACEH";"24561";"Indonesia";"";"4.7410284";"96.7818009";"https://maps.google.com/?cid=0x0:0x890c6537a2ce6b94"
"restaurant";"Sarapan";"Belangi Gayo Coffee Lampahan";"QQ57+6W7, Jl. Raya Bireuen - Takengon, Lampahan, Kec. Timang Gajah, Kabupaten Bener Meriah, Aceh 24571";"Jl. Raya Bireuen - Takengon, Lampahan, Kec. Timang Gajah, Kabupaten Bener Meriah";"ACEH";"24571";"Indonesia";" 085321154843";"4.7580346";"96.7648046";"https://maps.google.com/?cid=0x0:0xdd946b0ca6c55b7"
"restaurant";"Sate";"Sate Matang Bg Har  Leo Coffee";"Lampahan Bar., Kec. Timang Gajah, Kabupaten Bener Meriah, Aceh 24571";"Kec. Timang Gajah, Kabupaten Bener Meriah";"ACEH";"24571";"Indonesia";" 085210006278";"4.7593869";"96.7570343";"https://maps.google.com/?cid=0x0:0xbf56cf5d56799467"
"restaurant";"Padang";"Dapoer upikabu";"QQ58+HRX, Lampahan, Kec. Timang Gajah, Kabupaten Bener Meriah, Aceh 24571";"Lampahan, Kec. Timang Gajah, Kabupaten Bener Meriah";"ACEH";"24571";"Indonesia";" 081260555619";"4.7589983";"96.7670949";"https://maps.google.com/?cid=0x0:0x1ae802d95b6d7a3e"
"restaurant";"Kafe";"Twins Burger";"QQ54+RRC, Jl. Raya Bireuen - Takengon, Lampahan Bar., Kec. Timang Gajah, Kabupaten Bener Meriah, Aceh 24571";"Jl. Raya Bireuen - Takengon, Lampahan Bar., Kec. Timang Gajah, Kabupaten Bener Meriah";"ACEH";"24571";"Indonesia";" 082277246110";"4.7595721";"96.7570049";"https://maps.google.com/?cid=0x0:0xc3a20b5853990649"
"restaurant";"Bakso";"BAKSO BABEH || eBY.KINLAPER";"Mekar Ayu, Kec. Timang Gajah, Kabupaten Bener Meriah, Aceh 24580";"Kec. Timang Gajah, Kabupaten Bener Meriah";"ACEH";"24580";"Indonesia";" 082251559899";"4.7646509";"96.7503179";"https://maps.google.com/?cid=0x0:0x6ee9b18cf804d7dd"
"restaurant";"Kafe";"Jaya abadi";"QQHF+V9X, Sumber Jaya, Kec. Timang Gajah, Kabupaten Bener Meriah, Aceh 24571";"Sumber Jaya, Kec. Timang Gajah, Kabupaten Bener Meriah";"ACEH";"24571";"Indonesia";"";"4.7797474";"96.7734911";"https://maps.google.com/?cid=0x0:0xd78b5d8876100c0b"
"restaurant";"Komplek perumahan";"Warung Mie Mekar Ayu";"QQ63+8H4, Jl. Raya Bireuen - Takengon, Mekar Ayu, Kec. Timang Gajah, Kabupaten Bener Meriah, Aceh 24571";"Jl. Raya Bireuen - Takengon, Mekar Ayu, Kec. Timang Gajah, Kabupaten Bener Meriah";"ACEH";"24571";"Indonesia";"";"4.7607739";"96.7539638";"https://maps.google.com/?cid=0x0:0x287b3ef82ce7a2ab"
"restaurant";"Kedai Kopi";"KOPI DAN RESTO";"QQ3F+MC4, Karang Jadi, Kec. Timang Gajah, Kabupaten Bener Meriah, Aceh 24571";"Karang Jadi, Kec. Timang Gajah, Kabupaten Bener Meriah";"ACEH";"24571";"Indonesia";" 085260640636";"4.7541473";"96.7735824";"https://maps.google.com/?cid=0x0:0x34c327fdcb90608c"
"restaurant";"Bakso";"Waroeng bandoeng";"QQ63+7JJ, Jl. Raya Bireuen - Takengon, Mekar Ayu, Kec. Timang Gajah, Kabupaten Bener Meriah, Aceh 24571";"Jl. Raya Bireuen - Takengon, Mekar Ayu, Kec. Timang Gajah, Kabupaten Bener Meriah";"ACEH";"24571";"Indonesia";" 085317196468";"4.7607018";"96.7540123";"https://maps.google.com/?cid=0x0:0x3d2b089a5e508dd"
"restaurant";"Restoran";"Dapur Meme";"PRFF+Q85, Wonosobo, Kec. Wih Pesam, Kabupaten Bener Meriah, Aceh 24471";"Wonosobo, Kec. Wih Pesam, Kabupaten Bener Meriah";"ACEH";"24471";"Indonesia";" 081321705855";"4.7243773";"96.8233539";"https://maps.google.com/?cid=0x0:0x8dceb1b3c8cf24f0"
"restaurant";"Padang";"Rumah Makan Surya 24 Jam";"PRF4+5HX, Pante Raya, Kec. Wih Pesam, Kabupaten Bener Meriah, Aceh 24471";"Pante Raya, Kec. Wih Pesam, Kabupaten Bener Meriah";"ACEH";"24471";"Indonesia";" 085275807080";"4.722985";"96.8064871";"https://maps.google.com/?cid=0x0:0xfeddaa5b17702bb1"
"restaurant";"Padang";"WAROENG PATEN";"Jl. Raya Bireuen - Takengon, Burni Telong, Kec. Wih Pesam, Kabupaten Bener Meriah, Aceh 24471";"Burni Telong, Kec. Wih Pesam, Kabupaten Bener Meriah";"ACEH";"24471";"Indonesia";" 082166863640";"4.7148781";"96.8126808";"https://maps.google.com/?cid=0x0:0x4d916a30c2bb7670"
"restaurant";"Nasi";"NANA RESTO";"MRPM+5HJ, Simpang Teritit, Kec. Wih Pesam, Kabupaten Bener Meriah, Aceh";"Kabupaten Bener Meriah, Aceh";"ACEH";"";"Indonesia";"";"4.685472";"96.8338951";"https://maps.google.com/?cid=0x0:0xf353279e7fe43845"
"restaurant";"Kedai Kopi";"Warung siang malam";"PRF4+5GQ, Pante Raya, Kec. Wih Pesam, Kabupaten Bener Meriah, Aceh 24471";"Pante Raya, Kec. Wih Pesam, Kabupaten Bener Meriah";"ACEH";"24471";"Indonesia";" 082242378635";"4.722971";"96.8063438";"https://maps.google.com/?cid=0x0:0x3ba7fe1b2109d12b"
"restaurant";"Bakso";"Restoran Dua Benua";"PRF4+3VP, Jl. Raya Bireuen - Takengon, Lut Kucak, Kec. Wih Pesam, Kabupaten Bener Meriah, Aceh 24471";"Jl. Raya Bireuen - Takengon, Lut Kucak, Kec. Wih Pesam, Kabupaten Bener Meriah";"ACEH";"24471";"Indonesia";" 081265460242";"4.7227037";"96.8072121";"https://maps.google.com/?cid=0x0:0x49944a8e9b0e9281"
"restaurant";"Brunch";"WR.MUTIARA";"MRPM+6M5, Simpang Teritit, Kec. Wih Pesam, Kabupaten Bener Meriah, Aceh 24471";"Simpang Teritit, Kec. Wih Pesam, Kabupaten Bener Meriah";"ACEH";"24471";"Indonesia";" 085277731864";"4.6855196";"96.8342212";"https://maps.google.com/?cid=0x0:0xe8b2482b538edb0e"
"restaurant";"Sate";"Sate Caffee";"Jl. Raya Bireuen - Takengon, Simpang Balek, Kec. Wih Pesam, Kabupaten Bener Meriah, Aceh 24471";"Simpang Balek, Kec. Wih Pesam, Kabupaten Bener Meriah";"ACEH";"24471";"Indonesia";" 085383756646";"4.7275399";"96.797692";"https://maps.google.com/?cid=0x0:0x37e34fc5d8fca5da"
"restaurant";"Padang";"Seafood Tiga Putri";"PRG2+Q3H, Simpang Balek, Kec. Wih Pesam, Kabupaten Bener Meriah, Aceh";"Kabupaten Bener Meriah, Aceh";"ACEH";"";"Indonesia";"";"4.726925";"96.80055";"https://maps.google.com/?cid=0x0:0x6095060ec96b3425"
"restaurant";"Mi";"Mie Aceh Juwita Lama";"MRMM+QC6, Simpang Teritit, Kec. Wih Pesam, Kabupaten Bener Meriah, Aceh 24471";"Simpang Teritit, Kec. Wih Pesam, Kabupaten Bener Meriah";"ACEH";"24471";"Indonesia";"";"4.6844152";"96.8335222";"https://maps.google.com/?cid=0x0:0xd534fc3d7e1fc1d3"
"restaurant";"Kedai Kopi";"Maman Coffee Shop-Kopi Gayo";"Jl. Raya Bireuen - Takengon, Simpang Balek, Kec. Wih Pesam, Kabupaten Bener Meriah, Aceh 24581";"Simpang Balek, Kec. Wih Pesam, Kabupaten Bener Meriah";"ACEH";"24581";"Indonesia";"";"4.7284143";"96.7967142";"https://maps.google.com/?cid=0x0:0x1e8eff455e0f1f2b"
"restaurant";"Bakso";"Pawon Ceu'edoh";"QQ3C+W39, Jl. Raya Bireuen - Takengon, Karang Jadi, Kec. Timang Gajah, Kabupaten Bener Meriah, Aceh 24571";"Jl. Raya Bireuen - Takengon, Karang Jadi, Kec. Timang Gajah, Kabupaten Bener Meriah";"ACEH";"24571";"Indonesia";" 082118014868";"4.7547758";"96.7702352";"https://maps.google.com/?cid=0x0:0xc8bf14b1489e08df"
"restaurant";"Hidangan Laut";"Sambel Joss Pante Raya";"PRF5+23X, Lut Kucak, Kec. Wih Pesam, Kabupaten Bener Meriah, Aceh 24471";"Lut Kucak, Kec. Wih Pesam, Kabupaten Bener Meriah";"ACEH";"24471";"Indonesia";" 082226029408";"4.7226133";"96.8077287";"https://maps.google.com/?cid=0x0:0x581c118a89be0a7b"
"restaurant";"Padang";"Rm.Minang Putra Pante Raya";"PRC5+W2P, Lut Kucak, Kec. Wih Pesam, Kabupaten Bener Meriah, Aceh 24471";"Lut Kucak, Kec. Wih Pesam, Kabupaten Bener Meriah";"ACEH";"24471";"Indonesia";" 085277732800";"4.7223497";"96.807586";"https://maps.google.com/?cid=0x0:0x5007114a9d16a5da"
"hotel";"hotel";"Banda Aceh";"Kota Banda Aceh, Aceh";"Kota Banda Aceh, Aceh";"ACEH";"";"Indonesia";"";"5.5482904";"95.3237559";"https://maps.google.com/?cid=0x0:0x3039d80b220cb90"
"hotel";"hotel";"Ayani Hotel Banda Aceh";"Jl. Jend. Ahmad Yani No.20, Peunayong, Kec. Kuta Alam, Kota Banda Aceh, Aceh 23122";"Peunayong, Kec. Kuta Alam, Kota Banda Aceh";"ACEH";"23122";"Indonesia";" 06518012111";"5.5570339";"95.3193251";"https://maps.google.com/?cid=0x0:0xc7d116533d0b5450"
"hotel";"hotel";"N/A";"";"";"ACEH";"";"Indonesia";"";"";"";"https://maps.google.com/?cid=0x0:0xc7d116533d0b5450%7C/g/11c1l49977%7Cid-ID"
"hotel";"hotel";"N/A";"";"";"ACEH";"";"Indonesia";"";"";"";"https://maps.google.com/?cid=0x0:0x70e72305d8d7d91%7C/m/0c3tz97%7Cid-ID"
"hotel";"hotel";"Hotel Kyriad Muraya";"Jl. Tgk. Moh. Daud Beureueh No.5, Laksana, Kec. Kuta Alam, Kota Banda Aceh, Aceh 23122";"Laksana, Kec. Kuta Alam, Kota Banda Aceh";"ACEH";"23122";"Indonesia";" 06516300123";"5.5564827";"95.3223241";"https://maps.google.com/?cid=0x0:0x308adaca83dd1d8c"
"hotel";"hotel";"N/A";"";"";"ACEH";"";"Indonesia";"";"";"";"https://maps.google.com/?cid=0x0:0x308adaca83dd1d8c%7C/g/11cjhzz70h%7Cid-ID"
"hotel";"hotel";"Portola Grand Arabia Hotel";"Jl. Prof. A. Majid Ibrahim II No.3, Kp. Baru, Kec. Baiturrahman, Kota Banda Aceh, Aceh 23246";"Kp. Baru, Kec. Baiturrahman, Kota Banda Aceh";"ACEH";"23246";"Indonesia";" 08116505200";"5.5516545";"95.3133069";"https://maps.google.com/?cid=0x0:0xe1f37611722102c5"
"hotel";"hotel";"N/A";"";"";"ACEH";"";"Indonesia";"";"";"";"https://maps.google.com/?cid=0x0:0xe1f37611722102c5%7C/g/1pzxqtcy9%7Cid-ID"
"hotel";"hotel";"Kumala Hotel Banda Aceh";"Jl. Prof. Ali Hasyimi No.9-10, Lamteh, Kec. Ulee Kareng, Kota Banda Aceh, Aceh 23118";"Lamteh, Kec. Ulee Kareng, Kota Banda Aceh";"ACEH";"23118";"Indonesia";" 08116835855";"5.5514115";"95.3453647";"https://maps.google.com/?cid=0x0:0x9828ac1cd87d07d0"
"hotel";"hotel";"N/A";"";"";"ACEH";"";"Indonesia";"";"";"";"https://maps.google.com/?cid=0x0:0x9828ac1cd87d07d0%7C/g/11ckqrc334%7Cid-ID"
"hotel";"hotel";"Hotel Grand Nanggroe";"Jl. T. Imum, Cot Mesjid, Kec. Lueng Bata, Kota Banda Aceh, Aceh 23123";"Cot Mesjid, Kec. Lueng Bata, Kota Banda Aceh";"ACEH";"23123";"Indonesia";" 08126965348";"5.537205";"95.341121";"https://maps.google.com/?cid=0x0:0x3d61586c4952a861"
"hotel";"hotel";"Hotel Rasamala";"Jl. Teuku Umar No.257, Geuceu Kayee Jato, Kec. Banda Raya, Kota Banda Aceh, Aceh 23239";"Geuceu Kayee Jato, Kec. Banda Raya, Kota Banda Aceh";"ACEH";"23239";"Indonesia";" 065148447";"5.5379553";"95.3078754";"https://maps.google.com/?cid=0x0:0x79a78d1150294aa5"
"hotel";"hotel";"ALHAMBRA HOTEL BANDA ACEH";"Jl. Pante Pirak No.10, Simpang Lima, Kec. Kuta Alam, Kota Banda Aceh, Aceh 23127";"Simpang Lima, Kec. Kuta Alam, Kota Banda Aceh";"ACEH";"23127";"Indonesia";" 085392228838";"5.5555478";"95.3219149";"https://maps.google.com/?cid=0x0:0x284abe9b638234fd"
"hotel";"hotel";"Portola Arabia Hotel";"Jl. Khairil Anwar No.55, Peunayong, Kec. Kuta Alam, Kota Banda Aceh, Aceh 23122";"Peunayong, Kec. Kuta Alam, Kota Banda Aceh";"ACEH";"23122";"Indonesia";" 08116505500";"5.5577848";"95.3202096";"https://maps.google.com/?cid=0x0:0x4a5cae196a1700f4"
"hotel";"hotel";"Banda Aceh";"Kota Banda Aceh, Aceh";"Kota Banda Aceh, Aceh";"ACEH";"";"Indonesia";"";"5.5482904";"95.3237559";"https://maps.google.com/?cid=0x0:0x3039d80b220cb90"
"hotel";"hotel";"Hermes Palace Hotel";"Jl. T. Panglima Nyak Makam, Lambhuk, Kec. Ulee Kareng, Kota Banda Aceh, Aceh 23117";"Lambhuk, Kec. Ulee Kareng, Kota Banda Aceh";"ACEH";"23117";"Indonesia";" 06517555888";"5.5559751";"95.3437379";"https://maps.google.com/?cid=0x0:0x70e72305d8d7d91"
"hotel";"hotel";"N/A";"";"";"ACEH";"";"Indonesia";"";"";"";"https://maps.google.com/?cid=0x0:0x70e72305d8d7d91%7C/m/0c3tz97%7Cid-ID"
"hotel";"hotel";"N/A";"";"";"ACEH";"";"Indonesia";"";"";"";"https://maps.google.com/?cid=0x0:0xc7d116533d0b5450%7C/g/11c1l49977%7Cid-ID"
"hotel";"hotel";"Hotel Kyriad Muraya";"Jl. Tgk. Moh. Daud Beureueh No.5, Laksana, Kec. Kuta Alam, Kota Banda Aceh, Aceh 23122";"Laksana, Kec. Kuta Alam, Kota Banda Aceh";"ACEH";"23122";"Indonesia";" 06516300123";"5.5564827";"95.3223241";"https://maps.google.com/?cid=0x0:0x308adaca83dd1d8c"
"hotel";"hotel";"N/A";"";"";"ACEH";"";"Indonesia";"";"";"";"https://maps.google.com/?cid=0x0:0x308adaca83dd1d8c%7C/g/11cjhzz70h%7Cid-ID"
"hotel";"hotel";"Portola Grand Arabia Hotel";"Jl. Prof. A. Majid Ibrahim II No.3, Kp. Baru, Kec. Baiturrahman, Kota Banda Aceh, Aceh 23246";"Kp. Baru, Kec. Baiturrahman, Kota Banda Aceh";"ACEH";"23246";"Indonesia";" 08116505200";"5.5516545";"95.3133069";"https://maps.google.com/?cid=0x0:0xe1f37611722102c5"
"hotel";"hotel";"N/A";"";"";"ACEH";"";"Indonesia";"";"";"";"https://maps.google.com/?cid=0x0:0xe1f37611722102c5%7C/g/1pzxqtcy9%7Cid-ID"
"hotel";"hotel";"Kumala Hotel Banda Aceh";"Jl. Prof. Ali Hasyimi No.9-10, Lamteh, Kec. Ulee Kareng, Kota Banda Aceh, Aceh 23118";"Lamteh, Kec. Ulee Kareng, Kota Banda Aceh";"ACEH";"23118";"Indonesia";" 08116835855";"5.5514115";"95.3453647";"https://maps.google.com/?cid=0x0:0x9828ac1cd87d07d0"
"hotel";"hotel";"N/A";"";"";"ACEH";"";"Indonesia";"";"";"";"https://maps.google.com/?cid=0x0:0x9828ac1cd87d07d0%7C/g/11ckqrc334%7Cid-ID"
"hotel";"hotel";"Hotel Grand Nanggroe";"Jl. T. Imum, Cot Mesjid, Kec. Lueng Bata, Kota Banda Aceh, Aceh 23123";"Cot Mesjid, Kec. Lueng Bata, Kota Banda Aceh";"ACEH";"23123";"Indonesia";" 08126965348";"5.537205";"95.341121";"https://maps.google.com/?cid=0x0:0x3d61586c4952a861"
"hotel";"hotel";"Hotel Rasamala";"Jl. Teuku Umar No.257, Geuceu Kayee Jato, Kec. Banda Raya, Kota Banda Aceh, Aceh 23239";"Geuceu Kayee Jato, Kec. Banda Raya, Kota Banda Aceh";"ACEH";"23239";"Indonesia";" 065148447";"5.5379553";"95.3078754";"https://maps.google.com/?cid=0x0:0x79a78d1150294aa5"
"hotel";"hotel";"ALHAMBRA HOTEL BANDA ACEH";"Jl. Pante Pirak No.10, Simpang Lima, Kec. Kuta Alam, Kota Banda Aceh, Aceh 23127";"Simpang Lima, Kec. Kuta Alam, Kota Banda Aceh";"ACEH";"23127";"Indonesia";" 085392228838";"5.5555478";"95.3219149";"https://maps.google.com/?cid=0x0:0x284abe9b638234fd"
"hotel";"hotel";"Portola Arabia Hotel";"Jl. Khairil Anwar No.55, Peunayong, Kec. Kuta Alam, Kota Banda Aceh, Aceh 23122";"Peunayong, Kec. Kuta Alam, Kota Banda Aceh";"ACEH";"23122";"Indonesia";" 08116505500";"5.5577848";"95.3202096";"https://maps.google.com/?cid=0x0:0x4a5cae196a1700f4"
"hotel";"hotel";"N/A";"";"";"ACEH";"";"Indonesia";"";"";"";"https://maps.google.com/?cid=0x0:0x70e72305d8d7d91%7C/m/0c3tz97%7Cid-ID"
"hotel";"hotel";"Hotel Grand Nanggroe";"Jl. T. Imum, Cot Mesjid, Kec. Lueng Bata, Kota Banda Aceh, Aceh 23123";"Cot Mesjid, Kec. Lueng Bata, Kota Banda Aceh";"ACEH";"23123";"Indonesia";" 08126965348";"5.537205";"95.341121";"https://maps.google.com/?cid=0x0:0x3d61586c4952a861"
"hotel";"hotel";"Hermes Palace Hotel";"Jl. T. Panglima Nyak Makam, Lambhuk, Kec. Ulee Kareng, Kota Banda Aceh, Aceh 23117";"Lambhuk, Kec. Ulee Kareng, Kota Banda Aceh";"ACEH";"23117";"Indonesia";" 06517555888";"5.5559751";"95.3437379";"https://maps.google.com/?cid=0x0:0x70e72305d8d7d91"
"hotel";"hotel";"Aceh 24582";"Kabupaten Bener Meriah, Aceh";"Kabupaten Bener Meriah, Aceh";"ACEH";"";"Indonesia";"";"4.733267";"97.0498442";"https://maps.google.com/?cid=0x0:0x24377db9b3ac434d"
"hotel";"Komplek perumahan";"Bandar Udara Internasional Sultan Iskandar Muda";"Blang Bintang, Bueng Bakjok, Kec. Kuta Baro, Kabupaten Aceh Besar, Aceh 23373";"Bueng Bakjok, Kec. Kuta Baro, Kabupaten Aceh Besar";"ACEH";"23373";"Indonesia";"";"5.5180848";"95.4173095";"https://maps.google.com/?cid=0x0:0x9c36bfdf6cbbbd"
"hotel";"hotel";"Parkside Petro Gayo Hotel Takengon";"Jl. Sengeda, Nunang Antara, Kec. Bebesen, Kabupaten Aceh Tengah, Aceh 24519";"Nunang Antara, Kec. Bebesen, Kabupaten Aceh Tengah";"ACEH";"24519";"Indonesia";" 082190638839";"4.6316281";"96.8539979";"https://maps.google.com/?cid=0x0:0x2b3f5320e65030a8"
"hotel";"hotel";"N/A";"";"";"ACEH";"";"Indonesia";"";"";"";"https://maps.google.com/?cid=0x0:0x2b3f5320e65030a8%7C/g/11h2p310xs%7Cid-ID"
"hotel";"hotel";"AL FATTAH Boutique Hotel, Cafe  Meeting Room";"Jl. Pendopo Bupati, Uring, Kec. Bukit, Kabupaten Bener Meriah, Aceh 24582";"Uring, Kec. Bukit, Kabupaten Bener Meriah";"ACEH";"24582";"Indonesia";" 082361148989";"4.7178927";"96.8698829";"https://maps.google.com/?cid=0x0:0xc23e1f56b6238849"
"hotel";"hotel";"Portola Grand Renggali Hotel";"Danau, Kabupaten Aceh Tengah, Aceh 24519";"Kabupaten Aceh Tengah";"ACEH";"24519";"Indonesia";" 08116837100";"4.6121859";"96.8641628";"https://maps.google.com/?cid=0x0:0xcd3d745aa1299e22"
"hotel";"hotel";"Mabit Hotel Takengon";"Jln, Takengon - Bireuen, Kec. Bebesen, Kabupaten Aceh Tengah, Aceh 24552";"Takengon - Bireuen, Kec. Bebesen, Kabupaten Aceh Tengah";"ACEH";"24552";"Indonesia";" 085134609519";"4.6398362";"96.8395871";"https://maps.google.com/?cid=0x0:0x4268132256ddf98b"
"hotel";"hotel";"Petro Inn Takengon";"Jl. Sengeda, Nunang Antara, Kec. Bebesen, Kabupaten Aceh Tengah, Aceh 24519";"Nunang Antara, Kec. Bebesen, Kabupaten Aceh Tengah";"ACEH";"24519";"Indonesia";" 085710765975";"4.6318419";"96.8535458";"https://maps.google.com/?cid=0x0:0xda70b7aebfa35504"
"hotel";"hotel";"Linge Land Hotel Syari'ah";"Jl. Yos Sudarso No.1001, Blang Kolak II, Kec. Bebesen, Kabupaten Aceh Tengah, Aceh 24552";"Blang Kolak II, Kec. Bebesen, Kabupaten Aceh Tengah";"ACEH";"24552";"Indonesia";" 0811680936";"4.6222413";"96.8384283";"https://maps.google.com/?cid=0x0:0xdd6b84af16eed3bb"
"hotel";"hotel";"Hotel Belangi Syariah Takengon";"Jl. Soekarno - Hatta, Kebet, Kec. Bebesen, Kabupaten Aceh Tengah, Aceh 24471";"Kebet, Kec. Bebesen, Kabupaten Aceh Tengah";"ACEH";"24471";"Indonesia";" 085260849478";"4.6300304";"96.8344354";"https://maps.google.com/?cid=0x0:0x531d4f3480e41c41"
"hotel";"hotel";"N/A";"";"";"ACEH";"";"Indonesia";"";"";"";"https://maps.google.com/?cid=0x0:0x531d4f3480e41c41%7C/g/11mbwbj777%7Cid-ID"
"hotel";"hotel";"Hermes Palace Hotel";"Jl. T. Panglima Nyak Makam, Lambhuk, Kec. Ulee Kareng, Kota Banda Aceh, Aceh 23117";"Lambhuk, Kec. Ulee Kareng, Kota Banda Aceh";"ACEH";"23117";"Indonesia";" 06517555888";"5.5559751";"95.3437379";"https://maps.google.com/?cid=0x0:0x70e72305d8d7d91"
"hotel";"hotel";"N/A";"";"";"ACEH";"";"Indonesia";"";"";"";"https://maps.google.com/?cid=0x0:0x70e72305d8d7d91%7C/m/0c3tz97%7Cid-ID"
"hotel";"hotel";"Banda Aceh";"Kota Banda Aceh, Aceh";"Kota Banda Aceh, Aceh";"ACEH";"";"Indonesia";"";"5.5482904";"95.3237559";"https://maps.google.com/?cid=0x0:0x3039d80b220cb90"
"hotel";"hotel";"N/A";"";"";"ACEH";"";"Indonesia";"";"";"";"https://maps.google.com/?cid=0x0:0x308adaca83dd1d8c%7C/g/11cjhzz70h%7Cid-ID"
"hotel";"hotel";"Ayani Hotel Banda Aceh";"Jl. Jend. Ahmad Yani No.20, Peunayong, Kec. Kuta Alam, Kota Banda Aceh, Aceh 23122";"Peunayong, Kec. Kuta Alam, Kota Banda Aceh";"ACEH";"23122";"Indonesia";" 06518012111";"5.5570339";"95.3193251";"https://maps.google.com/?cid=0x0:0xc7d116533d0b5450"
"hotel";"hotel";"N/A";"";"";"ACEH";"";"Indonesia";"";"";"";"https://maps.google.com/?cid=0x0:0xc7d116533d0b5450%7C/g/11c1l49977%7Cid-ID"
"hotel";"hotel";"Portola Grand Arabia Hotel";"Jl. Prof. A. Majid Ibrahim II No.3, Kp. Baru, Kec. Baiturrahman, Kota Banda Aceh, Aceh 23246";"Kp. Baru, Kec. Baiturrahman, Kota Banda Aceh";"ACEH";"23246";"Indonesia";" 08116505200";"5.5516545";"95.3133069";"https://maps.google.com/?cid=0x0:0xe1f37611722102c5"
"hotel";"hotel";"N/A";"";"";"ACEH";"";"Indonesia";"";"";"";"https://maps.google.com/?cid=0x0:0xe1f37611722102c5%7C/g/1pzxqtcy9%7Cid-ID"
"hotel";"hotel";"Kumala Hotel Banda Aceh";"Jl. Prof. Ali Hasyimi No.9-10, Lamteh, Kec. Ulee Kareng, Kota Banda Aceh, Aceh 23118";"Lamteh, Kec. Ulee Kareng, Kota Banda Aceh";"ACEH";"23118";"Indonesia";" 08116835855";"5.5514115";"95.3453647";"https://maps.google.com/?cid=0x0:0x9828ac1cd87d07d0"
"hotel";"hotel";"N/A";"";"";"ACEH";"";"Indonesia";"";"";"";"https://maps.google.com/?cid=0x0:0x9828ac1cd87d07d0%7C/g/11ckqrc334%7Cid-ID"
"hotel";"hotel";"Hotel Grand Nanggroe";"Jl. T. Imum, Cot Mesjid, Kec. Lueng Bata, Kota Banda Aceh, Aceh 23123";"Cot Mesjid, Kec. Lueng Bata, Kota Banda Aceh";"ACEH";"23123";"Indonesia";" 08126965348";"5.537205";"95.341121";"https://maps.google.com/?cid=0x0:0x3d61586c4952a861"
"hotel";"hotel";"Hotel Rasamala";"Jl. Teuku Umar No.257, Geuceu Kayee Jato, Kec. Banda Raya, Kota Banda Aceh, Aceh 23239";"Geuceu Kayee Jato, Kec. Banda Raya, Kota Banda Aceh";"ACEH";"23239";"Indonesia";" 065148447";"5.5379553";"95.3078754";"https://maps.google.com/?cid=0x0:0x79a78d1150294aa5"
"hotel";"hotel";"ALHAMBRA HOTEL BANDA ACEH";"Jl. Pante Pirak No.10, Simpang Lima, Kec. Kuta Alam, Kota Banda Aceh, Aceh 23127";"Simpang Lima, Kec. Kuta Alam, Kota Banda Aceh";"ACEH";"23127";"Indonesia";" 085392228838";"5.5555478";"95.3219149";"https://maps.google.com/?cid=0x0:0x284abe9b638234fd"
"hotel";"hotel";"Portola Arabia Hotel";"Jl. Khairil Anwar No.55, Peunayong, Kec. Kuta Alam, Kota Banda Aceh, Aceh 23122";"Peunayong, Kec. Kuta Alam, Kota Banda Aceh";"ACEH";"23122";"Indonesia";" 08116505500";"5.5577848";"95.3202096";"https://maps.google.com/?cid=0x0:0x4a5cae196a1700f4"
"hotel";"hotel";"Banda Aceh";"Kota Banda Aceh, Aceh";"Kota Banda Aceh, Aceh";"ACEH";"";"Indonesia";"";"5.5482904";"95.3237559";"https://maps.google.com/?cid=0x0:0x3039d80b220cb90"
"hotel";"hotel";"Hermes Palace Hotel";"Jl. T. Panglima Nyak Makam, Lambhuk, Kec. Ulee Kareng, Kota Banda Aceh, Aceh 23117";"Lambhuk, Kec. Ulee Kareng, Kota Banda Aceh";"ACEH";"23117";"Indonesia";" 06517555888";"5.5559751";"95.3437379";"https://maps.google.com/?cid=0x0:0x70e72305d8d7d91"
"hotel";"hotel";"N/A";"";"";"ACEH";"";"Indonesia";"";"";"";"https://maps.google.com/?cid=0x0:0x70e72305d8d7d91%7C/m/0c3tz97%7Cid-ID"
"hotel";"hotel";"N/A";"";"";"ACEH";"";"Indonesia";"";"";"";"https://maps.google.com/?cid=0x0:0x308adaca83dd1d8c%7C/g/11cjhzz70h%7Cid-ID"
"hotel";"hotel";"Ayani Hotel Banda Aceh";"Jl. Jend. Ahmad Yani No.20, Peunayong, Kec. Kuta Alam, Kota Banda Aceh, Aceh 23122";"Peunayong, Kec. Kuta Alam, Kota Banda Aceh";"ACEH";"23122";"Indonesia";" 06518012111";"5.5570339";"95.3193251";"https://maps.google.com/?cid=0x0:0xc7d116533d0b5450"
"hotel";"hotel";"N/A";"";"";"ACEH";"";"Indonesia";"";"";"";"https://maps.google.com/?cid=0x0:0xc7d116533d0b5450%7C/g/11c1l49977%7Cid-ID"
"hotel";"hotel";"N/A";"";"";"ACEH";"";"Indonesia";"";"";"";"https://maps.google.com/?cid=0x0:0xe1f37611722102c5%7C/g/1pzxqtcy9%7Cid-ID"
"hotel";"hotel";"Portola Grand Arabia Hotel";"Jl. Prof. A. Majid Ibrahim II No.3, Kp. Baru, Kec. Baiturrahman, Kota Banda Aceh, Aceh 23246";"Kp. Baru, Kec. Baiturrahman, Kota Banda Aceh";"ACEH";"23246";"Indonesia";" 08116505200";"5.5516545";"95.3133069";"https://maps.google.com/?cid=0x0:0xe1f37611722102c5"
"hotel";"hotel";"Kumala Hotel Banda Aceh";"Jl. Prof. Ali Hasyimi No.9-10, Lamteh, Kec. Ulee Kareng, Kota Banda Aceh, Aceh 23118";"Lamteh, Kec. Ulee Kareng, Kota Banda Aceh";"ACEH";"23118";"Indonesia";" 08116835855";"5.5514115";"95.3453647";"https://maps.google.com/?cid=0x0:0x9828ac1cd87d07d0"
"hotel";"hotel";"N/A";"";"";"ACEH";"";"Indonesia";"";"";"";"https://maps.google.com/?cid=0x0:0x9828ac1cd87d07d0%7C/g/11ckqrc334%7Cid-ID"
"hotel";"hotel";"Hotel Grand Nanggroe";"Jl. T. Imum, Cot Mesjid, Kec. Lueng Bata, Kota Banda Aceh, Aceh 23123";"Cot Mesjid, Kec. Lueng Bata, Kota Banda Aceh";"ACEH";"23123";"Indonesia";" 08126965348";"5.537205";"95.341121";"https://maps.google.com/?cid=0x0:0x3d61586c4952a861"
"hotel";"hotel";"Hotel Rasamala";"Jl. Teuku Umar No.257, Geuceu Kayee Jato, Kec. Banda Raya, Kota Banda Aceh, Aceh 23239";"Geuceu Kayee Jato, Kec. Banda Raya, Kota Banda Aceh";"ACEH";"23239";"Indonesia";" 065148447";"5.5379553";"95.3078754";"https://maps.google.com/?cid=0x0:0x79a78d1150294aa5"
"hotel";"hotel";"ALHAMBRA HOTEL BANDA ACEH";"Jl. Pante Pirak No.10, Simpang Lima, Kec. Kuta Alam, Kota Banda Aceh, Aceh 23127";"Simpang Lima, Kec. Kuta Alam, Kota Banda Aceh";"ACEH";"23127";"Indonesia";" 085392228838";"5.5555478";"95.3219149";"https://maps.google.com/?cid=0x0:0x284abe9b638234fd"
"hotel";"hotel";"Portola Arabia Hotel";"Jl. Khairil Anwar No.55, Peunayong, Kec. Kuta Alam, Kota Banda Aceh, Aceh 23122";"Peunayong, Kec. Kuta Alam, Kota Banda Aceh";"ACEH";"23122";"Indonesia";" 08116505500";"5.5577848";"95.3202096";"https://maps.google.com/?cid=0x0:0x4a5cae196a1700f4"
"hotel";"hotel";"Kec. Bener Kelipah";"Kabupaten Bener Meriah, Aceh";"Kabupaten Bener Meriah, Aceh";"ACEH";"";"Indonesia";"";"4.7701481";"96.923098";"https://maps.google.com/?cid=0x0:0x3a7e0c8dc476f1e"
"hotel";"hotel";"AL FATTAH Boutique Hotel, Cafe  Meeting Room";"Jl. Pendopo Bupati, Uring, Kec. Bukit, Kabupaten Bener Meriah, Aceh 24582";"Uring, Kec. Bukit, Kabupaten Bener Meriah";"ACEH";"24582";"Indonesia";" 082361148989";"4.7178927";"96.8698829";"https://maps.google.com/?cid=0x0:0xc23e1f56b6238849"
"hotel";"hotel";"Mabit Hotel Takengon";"Jln, Takengon - Bireuen, Kec. Bebesen, Kabupaten Aceh Tengah, Aceh 24552";"Takengon - Bireuen, Kec. Bebesen, Kabupaten Aceh Tengah";"ACEH";"24552";"Indonesia";" 085134609519";"4.6398362";"96.8395871";"https://maps.google.com/?cid=0x0:0x4268132256ddf98b"
"hotel";"hotel";"wisma pelangi";"Jl. Syiah Utama, Pd. Baru, Kec. Bandar, Kabupaten Bener Meriah, Aceh 24582";"Pd. Baru, Kec. Bandar, Kabupaten Bener Meriah";"ACEH";"24582";"Indonesia";" 082272029063";"4.7546226";"96.9099097";"https://maps.google.com/?cid=0x0:0x6ce150c3565c2a15"
"hotel";"hotel";"QQ HOMESTAY TAKENGON";"Jl. Sengeda No.99, Nunang Antara, Kec. Bebesen, Kabupaten Aceh Tengah, Aceh 24519";"Nunang Antara, Kec. Bebesen, Kabupaten Aceh Tengah";"ACEH";"24519";"Indonesia";" 085276382700";"4.6335512";"96.8532489";"https://maps.google.com/?cid=0x0:0x412c210b426de45f"
"hotel";"hotel";"Penginapan Sulthan Syariah RedPartner";"Jl. Lebe, Keder, Mongal, Kec. Bebesen, Kabupaten Aceh Tengah, Aceh 24552";"Keder, Mongal, Kec. Bebesen, Kabupaten Aceh Tengah";"ACEH";"24552";"Indonesia";" 0895417300072";"4.6426046";"96.8389017";"https://maps.google.com/?cid=0x0:0x6f78cec07ea4cfdf"
"hotel";"hotel";"Hotel Grand Bayu Hill";"Mongal, Kec. Bebesen, Kabupaten Aceh Tengah, Aceh 24471";"Kec. Bebesen, Kabupaten Aceh Tengah";"ACEH";"24471";"Indonesia";" 06432626534";"4.6420249";"96.8393528";"https://maps.google.com/?cid=0x0:0x9989eec058460473"
"hotel";"hotel";"Wisma Tursina (RedDoorz Hotel)";"Jl. Lebe Kader, Simpang Empat, Kec. Bebesen, Kabupaten Aceh Tengah, Aceh 24471";"Simpang Empat, Kec. Bebesen, Kabupaten Aceh Tengah";"ACEH";"24471";"Indonesia";" 0895417300072";"4.6379054";"96.8410804";"https://maps.google.com/?cid=0x0:0xd09d01e1e60cb87"
"hotel";"hotel";"Biehomestay";"Jl. Puteri pukes kampung, Kala Lengkio, Kec. Kebayakan, Kabupaten Aceh Tengah, Aceh 24519";"Kala Lengkio, Kec. Kebayakan, Kabupaten Aceh Tengah";"ACEH";"24519";"Indonesia";" 082312345923";"4.6370833";"96.8612183";"https://maps.google.com/?cid=0x0:0x9beb97e7d28fd8af"
"hotel";"hotel";"Hotel Riyadh";"Jl sagi onom, Nunang Antara, Kec. Bebesen, Kabupaten Aceh Tengah, Aceh 24517";"Nunang Antara, Kec. Bebesen, Kabupaten Aceh Tengah";"ACEH";"24517";"Indonesia";" 08116800566";"4.6327876";"96.855218";"https://maps.google.com/?cid=0x0:0x203c2dfb1204fe49"
"hotel";"hotel";"Penginapan AIA Residence";"Lot Kala, Kec. Kebayakan, Kabupaten Aceh Tengah, Aceh 24517";"Kec. Kebayakan, Kabupaten Aceh Tengah";"ACEH";"24517";"Indonesia";" 082163541400";"4.6370729";"96.8578575";"https://maps.google.com/?cid=0x0:0x7985fb8adb63863"
"hotel";"hotel";"Hotel Qory Syari'ah";"Jl. Soekarno - Hatta, Mongal, Kec. Bebesen, Kabupaten Aceh Tengah, Aceh 24552";"Mongal, Kec. Bebesen, Kabupaten Aceh Tengah";"ACEH";"24552";"Indonesia";" 085260603747";"4.64552";"96.8344756";"https://maps.google.com/?cid=0x0:0x8df61c54859bf551"
"hotel";"hotel";"Fairuz Hotel Management By Calandra";"Jl. Qurata Aini No.190, Nunang Antara, Kec. Bebesen, Kabupaten Aceh Tengah, Aceh 24519";"Nunang Antara, Kec. Bebesen, Kabupaten Aceh Tengah";"ACEH";"24519";"Indonesia";" 081260713420";"4.6363454";"96.8487169";"https://maps.google.com/?cid=0x0:0xa2c9c1c19f06eab6"
"hotel";"hotel";"Oliver's Inn";"Jl. Abdul Wahab No.8AA, Simpang Perumnas, Kec. Kebayakan, Kabupaten Aceh Tengah, Aceh 24519";"Simpang Perumnas, Kec. Kebayakan, Kabupaten Aceh Tengah";"ACEH";"24519";"Indonesia";" 081320001783";"4.6369296";"96.8469246";"https://maps.google.com/?cid=0x0:0xff7878ceadae0d1c"
"hotel";"hotel";"Aceh";"";"Aceh";"ACEH";"";"Indonesia";"";"4.695135";"96.7493993";"https://maps.google.com/?cid=0x0:0x1039d80b220ca60"
"hotel";"hotel";"Ayani Hotel Banda Aceh";"Jl. Jend. Ahmad Yani No.20, Peunayong, Kec. Kuta Alam, Kota Banda Aceh, Aceh 23122";"Peunayong, Kec. Kuta Alam, Kota Banda Aceh";"ACEH";"23122";"Indonesia";" 06518012111";"5.5570339";"95.3193251";"https://maps.google.com/?cid=0x0:0xc7d116533d0b5450"
"hotel";"hotel";"N/A";"";"";"ACEH";"";"Indonesia";"";"";"";"https://maps.google.com/?cid=0x0:0xc7d116533d0b5450%7C/g/11c1l49977%7Cid-ID"
"hotel";"hotel";"N/A";"";"";"ACEH";"";"Indonesia";"";"";"";"https://maps.google.com/?cid=0x0:0x70e72305d8d7d91%7C/m/0c3tz97%7Cid-ID"
"hotel";"hotel";"Parkside Petro Gayo Hotel Takengon";"Jl. Sengeda, Nunang Antara, Kec. Bebesen, Kabupaten Aceh Tengah, Aceh 24519";"Nunang Antara, Kec. Bebesen, Kabupaten Aceh Tengah";"ACEH";"24519";"Indonesia";" 082190638839";"4.6316281";"96.8539979";"https://maps.google.com/?cid=0x0:0x2b3f5320e65030a8"
"hotel";"hotel";"N/A";"";"";"ACEH";"";"Indonesia";"";"";"";"https://maps.google.com/?cid=0x0:0x2b3f5320e65030a8%7C/g/11h2p310xs%7Cid-ID"
"hotel";"hotel";"Kumala Hotel Banda Aceh";"Jl. Prof. Ali Hasyimi No.9-10, Lamteh, Kec. Ulee Kareng, Kota Banda Aceh, Aceh 23118";"Lamteh, Kec. Ulee Kareng, Kota Banda Aceh";"ACEH";"23118";"Indonesia";" 08116835855";"5.5514115";"95.3453647";"https://maps.google.com/?cid=0x0:0x9828ac1cd87d07d0"
"hotel";"hotel";"N/A";"";"";"ACEH";"";"Indonesia";"";"";"";"https://maps.google.com/?cid=0x0:0x9828ac1cd87d07d0%7C/g/11ckqrc334%7Cid-ID"
"hotel";"hotel";"Hotel Kyriad Muraya";"Jl. Tgk. Moh. Daud Beureueh No.5, Laksana, Kec. Kuta Alam, Kota Banda Aceh, Aceh 23122";"Laksana, Kec. Kuta Alam, Kota Banda Aceh";"ACEH";"23122";"Indonesia";" 06516300123";"5.5564827";"95.3223241";"https://maps.google.com/?cid=0x0:0x308adaca83dd1d8c"
"hotel";"hotel";"N/A";"";"";"ACEH";"";"Indonesia";"";"";"";"https://maps.google.com/?cid=0x0:0x308adaca83dd1d8c%7C/g/11cjhzz70h%7Cid-ID"
"hotel";"hotel";"N/A";"";"";"ACEH";"";"Indonesia";"";"";"";"https://maps.google.com/?cid=0x0:0x9de96f125b8a0897%7C/g/1hd_s7vmv%7Cid-ID"
"hotel";"hotel";"Freddies Santai Sumurtiga";"Jl. KH Agus Salim, Ie Meulee, Kec. Sukajaya, Kota Sabang, Aceh 23521";"Ie Meulee, Kec. Sukajaya, Kota Sabang";"ACEH";"23521";"Indonesia";" 081360255001";"5.8911886";"95.3402972";"https://maps.google.com/?cid=0x0:0x9de96f125b8a0897"
"hotel";"hotel";"HOTEL BIN DAOD";"Jl. Nasional No.99, Sp. Dolog, Kec. Johan Pahlawan, Kabupaten Aceh Barat, Aceh 23681";"Sp. Dolog, Kec. Johan Pahlawan, Kabupaten Aceh Barat";"ACEH";"23681";"Indonesia";" 06557114303";"4.1558816";"96.138577";"https://maps.google.com/?cid=0x0:0x7f14e4743e3c5b9d"
"hotel";"hotel";"N/A";"";"";"ACEH";"";"Indonesia";"";"";"";"https://maps.google.com/?cid=0x0:0x7f14e4743e3c5b9d%7C/g/11j3gfcrjt%7Cid-ID"
"hotel";"hotel";"Kec. Gajah Putih";"Kabupaten Bener Meriah, Aceh";"Kabupaten Bener Meriah, Aceh";"ACEH";"";"Indonesia";"";"4.8103413";"96.7371594";"https://maps.google.com/?cid=0x0:0xc34ec80407ef00cb"
"hotel";"hotel";"Parkside Petro Gayo Hotel Takengon";"Jl. Sengeda, Nunang Antara, Kec. Bebesen, Kabupaten Aceh Tengah, Aceh 24519";"Nunang Antara, Kec. Bebesen, Kabupaten Aceh Tengah";"ACEH";"24519";"Indonesia";" 082190638839";"4.6316281";"96.8539979";"https://maps.google.com/?cid=0x0:0x2b3f5320e65030a8"
"hotel";"hotel";"N/A";"";"";"ACEH";"";"Indonesia";"";"";"";"https://maps.google.com/?cid=0x0:0x2b3f5320e65030a8%7C/g/11h2p310xs%7Cid-ID"
"hotel";"hotel";"AL FATTAH Boutique Hotel, Cafe  Meeting Room";"Jl. Pendopo Bupati, Uring, Kec. Bukit, Kabupaten Bener Meriah, Aceh 24582";"Uring, Kec. Bukit, Kabupaten Bener Meriah";"ACEH";"24582";"Indonesia";" 082361148989";"4.7178927";"96.8698829";"https://maps.google.com/?cid=0x0:0xc23e1f56b6238849"
"hotel";"hotel";"Mabit Hotel Takengon";"Jln, Takengon - Bireuen, Kec. Bebesen, Kabupaten Aceh Tengah, Aceh 24552";"Takengon - Bireuen, Kec. Bebesen, Kabupaten Aceh Tengah";"ACEH";"24552";"Indonesia";" 085134609519";"4.6398362";"96.8395871";"https://maps.google.com/?cid=0x0:0x4268132256ddf98b"
"hotel";"hotel";"Petro Inn Takengon";"Jl. Sengeda, Nunang Antara, Kec. Bebesen, Kabupaten Aceh Tengah, Aceh 24519";"Nunang Antara, Kec. Bebesen, Kabupaten Aceh Tengah";"ACEH";"24519";"Indonesia";" 085710765975";"4.6318419";"96.8535458";"https://maps.google.com/?cid=0x0:0xda70b7aebfa35504"
"hotel";"hotel";"N/A";"";"";"ACEH";"";"Indonesia";"";"";"";"https://maps.google.com/?cid=0x0:0x7a26c24973263e89%7C/g/1pp2t_2fh%7Cid-ID"
"hotel";"hotel";"Permatahati Hotel and Convention Center";"Jl. Rel Kereta Api No.02, Meunasah Manyang, Kec. Ingin Jaya, Kabupaten Aceh Besar, Aceh 23371";"Meunasah Manyang, Kec. Ingin Jaya, Kabupaten Aceh Besar";"ACEH";"23371";"Indonesia";" 08116770066";"5.5321727";"95.3526294";"https://maps.google.com/?cid=0x0:0x7a26c24973263e89"
"hotel";"hotel";"Linge Land Hotel Syari'ah";"Jl. Yos Sudarso No.1001, Blang Kolak II, Kec. Bebesen, Kabupaten Aceh Tengah, Aceh 24552";"Blang Kolak II, Kec. Bebesen, Kabupaten Aceh Tengah";"ACEH";"24552";"Indonesia";" 0811680936";"4.6222413";"96.8384283";"https://maps.google.com/?cid=0x0:0xdd6b84af16eed3bb"
"hotel";"hotel";"Hotel Belangi Syariah Takengon";"Jl. Soekarno - Hatta, Kebet, Kec. Bebesen, Kabupaten Aceh Tengah, Aceh 24471";"Kebet, Kec. Bebesen, Kabupaten Aceh Tengah";"ACEH";"24471";"Indonesia";" 085260849478";"4.6300304";"96.8344354";"https://maps.google.com/?cid=0x0:0x531d4f3480e41c41"
"hotel";"hotel";"N/A";"";"";"ACEH";"";"Indonesia";"";"";"";"https://maps.google.com/?cid=0x0:0x531d4f3480e41c41%7C/g/11mbwbj777%7Cid-ID"
"hotel";"hotel";"Penginapan Sulthan Syariah RedPartner";"Jl. Lebe, Keder, Mongal, Kec. Bebesen, Kabupaten Aceh Tengah, Aceh 24552";"Keder, Mongal, Kec. Bebesen, Kabupaten Aceh Tengah";"ACEH";"24552";"Indonesia";" 0895417300072";"4.6426046";"96.8389017";"https://maps.google.com/?cid=0x0:0x6f78cec07ea4cfdf"
"hotel";"hotel";"QQ HOMESTAY TAKENGON";"Jl. Sengeda No.99, Nunang Antara, Kec. Bebesen, Kabupaten Aceh Tengah, Aceh 24519";"Nunang Antara, Kec. Bebesen, Kabupaten Aceh Tengah";"ACEH";"24519";"Indonesia";" 085276382700";"4.6335512";"96.8532489";"https://maps.google.com/?cid=0x0:0x412c210b426de45f"
"hotel";"hotel";"Wisma Tursina (RedDoorz Hotel)";"Jl. Lebe Kader, Simpang Empat, Kec. Bebesen, Kabupaten Aceh Tengah, Aceh 24471";"Simpang Empat, Kec. Bebesen, Kabupaten Aceh Tengah";"ACEH";"24471";"Indonesia";" 0895417300072";"4.6379054";"96.8410804";"https://maps.google.com/?cid=0x0:0xd09d01e1e60cb87"
"hotel";"hotel";"N/A";"";"";"ACEH";"";"Indonesia";"";"";"";"https://maps.google.com/?cid=0x0:0x2b3f5320e65030a8%7C/g/11h2p310xs%7Cid-ID"
"hotel";"hotel";"Parkside Petro Gayo Hotel Takengon";"Jl. Sengeda, Nunang Antara, Kec. Bebesen, Kabupaten Aceh Tengah, Aceh 24519";"Nunang Antara, Kec. Bebesen, Kabupaten Aceh Tengah";"ACEH";"24519";"Indonesia";" 082190638839";"4.6316281";"96.8539979";"https://maps.google.com/?cid=0x0:0x2b3f5320e65030a8"
"hotel";"hotel";"Kec. Mesidah";"Kabupaten Bener Meriah, Aceh";"Kabupaten Bener Meriah, Aceh";"ACEH";"";"Indonesia";"";"4.7627916";"97.0109687";"https://maps.google.com/?cid=0x0:0xdf564a5272d2d37b"
"hotel";"hotel";"AL FATTAH Boutique Hotel, Cafe  Meeting Room";"Jl. Pendopo Bupati, Uring, Kec. Bukit, Kabupaten Bener Meriah, Aceh 24582";"Uring, Kec. Bukit, Kabupaten Bener Meriah";"ACEH";"24582";"Indonesia";" 082361148989";"4.7178927";"96.8698829";"https://maps.google.com/?cid=0x0:0xc23e1f56b6238849"
"hotel";"hotel";"Ayani Hotel Banda Aceh";"Jl. Jend. Ahmad Yani No.20, Peunayong, Kec. Kuta Alam, Kota Banda Aceh, Aceh 23122";"Peunayong, Kec. Kuta Alam, Kota Banda Aceh";"ACEH";"23122";"Indonesia";" 06518012111";"5.5570339";"95.3193251";"https://maps.google.com/?cid=0x0:0xc7d116533d0b5450"
"hotel";"hotel";"N/A";"";"";"ACEH";"";"Indonesia";"";"";"";"https://maps.google.com/?cid=0x0:0xc7d116533d0b5450%7C/g/11c1l49977%7Cid-ID"
"hotel";"hotel";"SEI Hotel Banda Aceh";"Jl. Tanoh Abee No.71, Mulia, Kec. Kuta Alam, Kota Banda Aceh, Aceh 23123";"Mulia, Kec. Kuta Alam, Kota Banda Aceh";"ACEH";"23123";"Indonesia";" 082185106952";"5.5628844";"95.322844";"https://maps.google.com/?cid=0x0:0xd10e8fa03b750c2e"
"hotel";"hotel";"Hotel Amel Convention Hall";"Gp, Jl. Sultan Iskandar Muda, Blang Oi, Kec. Meuraxa, Kota Banda Aceh, Aceh 23233";"Jl. Sultan Iskandar Muda, Blang Oi, Kec. Meuraxa, Kota Banda Aceh";"ACEH";"23233";"Indonesia";" 082320000048";"5.5521329";"95.3023152";"https://maps.google.com/?cid=0x0:0xca46af412c292978"
"hotel";"hotel";"My Home Hotel Aceh";"Jl Sri Ratu Safiatuddin Block 6-8 C, Peunayong, Kota Banda Aceh, Aceh 23122";"Peunayong, Kota Banda Aceh";"ACEH";"23122";"Indonesia";" 08116880309";"5.5562393";"95.3202007";"https://maps.google.com/?cid=0x0:0x3e065603363be38c"
"hotel";"hotel";"Mabit Hotel Takengon";"Jln, Takengon - Bireuen, Kec. Bebesen, Kabupaten Aceh Tengah, Aceh 24552";"Takengon - Bireuen, Kec. Bebesen, Kabupaten Aceh Tengah";"ACEH";"24552";"Indonesia";" 085134609519";"4.6398362";"96.8395871";"https://maps.google.com/?cid=0x0:0x4268132256ddf98b"
"hotel";"hotel";"Abaka Hotel";"H923+746, Lamglumpang, Kec. Ulee Kareng, Kota Banda Aceh, Aceh";"Kota Banda Aceh, Aceh";"ACEH";"";"Indonesia";" 08116820333";"5.5506624";"95.3527724";"https://maps.google.com/?cid=0x0:0x369db8e386d736b6"
"hotel";"hotel";"Petro Inn Takengon";"Jl. Sengeda, Nunang Antara, Kec. Bebesen, Kabupaten Aceh Tengah, Aceh 24519";"Nunang Antara, Kec. Bebesen, Kabupaten Aceh Tengah";"ACEH";"24519";"Indonesia";" 085710765975";"4.6318419";"96.8535458";"https://maps.google.com/?cid=0x0:0xda70b7aebfa35504"
"hotel";"hotel";"Hotel Amoda dan Cafe";"Landom, Kec. Lueng Bata, Kota Banda Aceh, Aceh 23122";"Kec. Lueng Bata, Kota Banda Aceh";"ACEH";"23122";"Indonesia";" 06517316039";"5.5320287";"95.3386727";"https://maps.google.com/?cid=0x0:0xe8b4e4d38b5a3c6e"
"hotel";"hotel";"Hotel Mekkah";"Daud Beureu'eh Lampriet, Jl. Tgk Daud Beureueh, Bandar Baru, Kec. Kuta Alam, Kota Banda Aceh, Aceh 23126";"Jl. Tgk Daud Beureueh, Bandar Baru, Kec. Kuta Alam, Kota Banda Aceh";"ACEH";"23126";"Indonesia";" 081262975052";"5.566531";"95.3379111";"https://maps.google.com/?cid=0x0:0x6cd89c85700bbc70"
"hotel";"hotel";"Aceh 24582";"Kabupaten Bener Meriah, Aceh";"Kabupaten Bener Meriah, Aceh";"ACEH";"";"Indonesia";"";"4.733267";"97.0498442";"https://maps.google.com/?cid=0x0:0x24377db9b3ac434d"
"hotel";"hotel";"Hotel Grand Permata Hati";"Jl. Sultan Iskandar Muda No.217, Blang Oi, Kec. Meuraxa, Kota Banda Aceh, Aceh 23233";"Blang Oi, Kec. Meuraxa, Kota Banda Aceh";"ACEH";"23233";"Indonesia";" 08116770088";"5.5528884";"95.2979955";"https://maps.google.com/?cid=0x0:0xb61384a4068b7508"
"hotel";"Masjid";"Masjid Raya Baiturrahman";"Jl. Moh. Jam No.1, Kp. Baru, Kec. Baiturrahman, Kota Banda Aceh, Aceh";"Kota Banda Aceh, Aceh";"ACEH";"";"Indonesia";"";"5.5535711";"95.317285";"https://maps.google.com/?cid=0x0:0xbabe816ca4be1e2f"
"hotel";"hotel";"N/A";"";"";"ACEH";"";"Indonesia";"";"";"";"https://maps.google.com/?cid=0x0:0x7a26c24973263e89%7C/g/1pp2t_2fh%7Cid-ID"
"hotel";"hotel";"Permatahati Hotel and Convention Center";"Jl. Rel Kereta Api No.02, Meunasah Manyang, Kec. Ingin Jaya, Kabupaten Aceh Besar, Aceh 23371";"Meunasah Manyang, Kec. Ingin Jaya, Kabupaten Aceh Besar";"ACEH";"23371";"Indonesia";" 08116770066";"5.5321727";"95.3526294";"https://maps.google.com/?cid=0x0:0x7a26c24973263e89"
"hotel";"Komplek perumahan";"Bandar Udara Internasional Sultan Iskandar Muda";"Blang Bintang, Bueng Bakjok, Kec. Kuta Baro, Kabupaten Aceh Besar, Aceh 23373";"Bueng Bakjok, Kec. Kuta Baro, Kabupaten Aceh Besar";"ACEH";"23373";"Indonesia";"";"5.5180848";"95.4173095";"https://maps.google.com/?cid=0x0:0x9c36bfdf6cbbbd"
"hotel";"hotel";"Parkside Petro Gayo Hotel Takengon";"Jl. Sengeda, Nunang Antara, Kec. Bebesen, Kabupaten Aceh Tengah, Aceh 24519";"Nunang Antara, Kec. Bebesen, Kabupaten Aceh Tengah";"ACEH";"24519";"Indonesia";" 082190638839";"4.6316281";"96.8539979";"https://maps.google.com/?cid=0x0:0x2b3f5320e65030a8"
"hotel";"hotel";"N/A";"";"";"ACEH";"";"Indonesia";"";"";"";"https://maps.google.com/?cid=0x0:0x2b3f5320e65030a8%7C/g/11h2p310xs%7Cid-ID"
"hotel";"hotel";"AL FATTAH Boutique Hotel, Cafe  Meeting Room";"Jl. Pendopo Bupati, Uring, Kec. Bukit, Kabupaten Bener Meriah, Aceh 24582";"Uring, Kec. Bukit, Kabupaten Bener Meriah";"ACEH";"24582";"Indonesia";" 082361148989";"4.7178927";"96.8698829";"https://maps.google.com/?cid=0x0:0xc23e1f56b6238849"
"hotel";"hotel";"Portola Grand Renggali Hotel";"Danau, Kabupaten Aceh Tengah, Aceh 24519";"Kabupaten Aceh Tengah";"ACEH";"24519";"Indonesia";" 08116837100";"4.6121859";"96.8641628";"https://maps.google.com/?cid=0x0:0xcd3d745aa1299e22"
"hotel";"hotel";"Mabit Hotel Takengon";"Jln, Takengon - Bireuen, Kec. Bebesen, Kabupaten Aceh Tengah, Aceh 24552";"Takengon - Bireuen, Kec. Bebesen, Kabupaten Aceh Tengah";"ACEH";"24552";"Indonesia";" 085134609519";"4.6398362";"96.8395871";"https://maps.google.com/?cid=0x0:0x4268132256ddf98b"
"hotel";"hotel";"Petro Inn Takengon";"Jl. Sengeda, Nunang Antara, Kec. Bebesen, Kabupaten Aceh Tengah, Aceh 24519";"Nunang Antara, Kec. Bebesen, Kabupaten Aceh Tengah";"ACEH";"24519";"Indonesia";" 085710765975";"4.6318419";"96.8535458";"https://maps.google.com/?cid=0x0:0xda70b7aebfa35504"
"hotel";"hotel";"Linge Land Hotel Syari'ah";"Jl. Yos Sudarso No.1001, Blang Kolak II, Kec. Bebesen, Kabupaten Aceh Tengah, Aceh 24552";"Blang Kolak II, Kec. Bebesen, Kabupaten Aceh Tengah";"ACEH";"24552";"Indonesia";" 0811680936";"4.6222413";"96.8384283";"https://maps.google.com/?cid=0x0:0xdd6b84af16eed3bb"
"hotel";"hotel";"Hotel Amel Convention Hall";"Gp, Jl. Sultan Iskandar Muda, Blang Oi, Kec. Meuraxa, Kota Banda Aceh, Aceh 23233";"Jl. Sultan Iskandar Muda, Blang Oi, Kec. Meuraxa, Kota Banda Aceh";"ACEH";"23233";"Indonesia";" 082320000048";"5.5521329";"95.3023152";"https://maps.google.com/?cid=0x0:0xca46af412c292978"
"hotel";"hotel";"Kec. Pintu Rime Gayo";"Kabupaten Bener Meriah, Aceh";"Kabupaten Bener Meriah, Aceh";"ACEH";"";"Indonesia";"";"4.849318";"96.7411267";"https://maps.google.com/?cid=0x0:0x28686d3d13d5dcf5"
"hotel";"hotel";"AL FATTAH Boutique Hotel, Cafe  Meeting Room";"Jl. Pendopo Bupati, Uring, Kec. Bukit, Kabupaten Bener Meriah, Aceh 24582";"Uring, Kec. Bukit, Kabupaten Bener Meriah";"ACEH";"24582";"Indonesia";" 082361148989";"4.7178927";"96.8698829";"https://maps.google.com/?cid=0x0:0xc23e1f56b6238849"
"hotel";"hotel";"OYO 90618 Hanania House Syariah";"MPWX+3Q2, Jl. Jenderal Ahmad Yani, Blang Mancung Bawah, Kec. Ketol, Kabupaten Aceh Tengah, Aceh 24354";"Jl. Jenderal Ahmad Yani, Blang Mancung Bawah, Kec. Ketol, Kabupaten Aceh Tengah";"ACEH";"24354";"Indonesia";" 0817788016";"4.695135";"96.749399";"https://maps.google.com/?cid=0x0:0x5300d80424671604"
"hotel";"hotel";"Hotel Triarga Takengon";"lr hotel triarga, Jl. Gatot Subroto No.477, Bale Atu, Kec. Lut Tawar, Kabupaten Aceh Tengah, Aceh 24552";"Jl. Gatot Subroto No.477, Bale Atu, Kec. Lut Tawar, Kabupaten Aceh Tengah";"ACEH";"24552";"Indonesia";" 081360907900";"4.6238932";"96.8496883";"https://maps.google.com/?cid=0x0:0x781cf771ad029dfb"
"hotel";"hotel";"Portola Grand Renggali Hotel";"Danau, Kabupaten Aceh Tengah, Aceh 24519";"Kabupaten Aceh Tengah";"ACEH";"24519";"Indonesia";" 08116837100";"4.6121859";"96.8641628";"https://maps.google.com/?cid=0x0:0xcd3d745aa1299e22"
"hotel";"hotel";"Parkside Petro Gayo Hotel Takengon";"Jl. Sengeda, Nunang Antara, Kec. Bebesen, Kabupaten Aceh Tengah, Aceh 24519";"Nunang Antara, Kec. Bebesen, Kabupaten Aceh Tengah";"ACEH";"24519";"Indonesia";" 082190638839";"4.6316281";"96.8539979";"https://maps.google.com/?cid=0x0:0x2b3f5320e65030a8"
"hotel";"hotel";"N/A";"";"";"ACEH";"";"Indonesia";"";"";"";"https://maps.google.com/?cid=0x0:0x2b3f5320e65030a8%7C/g/11h2p310xs%7Cid-ID"
"hotel";"hotel";"Aceh 24582";"Kabupaten Bener Meriah, Aceh";"Kabupaten Bener Meriah, Aceh";"ACEH";"";"Indonesia";"";"4.733267";"97.0498442";"https://maps.google.com/?cid=0x0:0x24377db9b3ac434d"
"hotel";"hotel";"Petro Inn Takengon";"Jl. Sengeda, Nunang Antara, Kec. Bebesen, Kabupaten Aceh Tengah, Aceh 24519";"Nunang Antara, Kec. Bebesen, Kabupaten Aceh Tengah";"ACEH";"24519";"Indonesia";" 085710765975";"4.6318419";"96.8535458";"https://maps.google.com/?cid=0x0:0xda70b7aebfa35504"
"hotel";"hotel";"AL FATTAH Boutique Hotel, Cafe  Meeting Room";"Jl. Pendopo Bupati, Uring, Kec. Bukit, Kabupaten Bener Meriah, Aceh 24582";"Uring, Kec. Bukit, Kabupaten Bener Meriah";"ACEH";"24582";"Indonesia";" 082361148989";"4.7178927";"96.8698829";"https://maps.google.com/?cid=0x0:0xc23e1f56b6238849"
"hotel";"hotel";"Dream Hill Villa Burtelege Managed by Calandra";"Jl.Burtelege, One-One, Kec. Lut Tawar, Kabupaten Aceh Tengah, Aceh 24519";"One-One, Kec. Lut Tawar, Kabupaten Aceh Tengah";"ACEH";"24519";"Indonesia";" 081396495656";"4.6113987";"96.8539376";"https://maps.google.com/?cid=0x0:0xace016bbc661ffa3"
"hotel";"hotel";"Mabit Hotel Takengon";"Jln, Takengon - Bireuen, Kec. Bebesen, Kabupaten Aceh Tengah, Aceh 24552";"Takengon - Bireuen, Kec. Bebesen, Kabupaten Aceh Tengah";"ACEH";"24552";"Indonesia";" 085134609519";"4.6398362";"96.8395871";"https://maps.google.com/?cid=0x0:0x4268132256ddf98b"
"hotel";"hotel";"Linge Land Hotel Syari'ah";"Jl. Yos Sudarso No.1001, Blang Kolak II, Kec. Bebesen, Kabupaten Aceh Tengah, Aceh 24552";"Blang Kolak II, Kec. Bebesen, Kabupaten Aceh Tengah";"ACEH";"24552";"Indonesia";" 0811680936";"4.6222413";"96.8384283";"https://maps.google.com/?cid=0x0:0xdd6b84af16eed3bb"
"hotel";"hotel";"Hotel Belangi Syariah Takengon";"Jl. Soekarno - Hatta, Kebet, Kec. Bebesen, Kabupaten Aceh Tengah, Aceh 24471";"Kebet, Kec. Bebesen, Kabupaten Aceh Tengah";"ACEH";"24471";"Indonesia";" 085260849478";"4.6300304";"96.8344354";"https://maps.google.com/?cid=0x0:0x531d4f3480e41c41"
"hotel";"hotel";"N/A";"";"";"ACEH";"";"Indonesia";"";"";"";"https://maps.google.com/?cid=0x0:0x531d4f3480e41c41%7C/g/11mbwbj777%7Cid-ID"
"hotel";"hotel";"Wisma Tursina (RedDoorz Hotel)";"Jl. Lebe Kader, Simpang Empat, Kec. Bebesen, Kabupaten Aceh Tengah, Aceh 24471";"Simpang Empat, Kec. Bebesen, Kabupaten Aceh Tengah";"ACEH";"24471";"Indonesia";" 0895417300072";"4.6379054";"96.8410804";"https://maps.google.com/?cid=0x0:0xd09d01e1e60cb87"
"hotel";"hotel";"Hotel Grand Bayu Hill";"Mongal, Kec. Bebesen, Kabupaten Aceh Tengah, Aceh 24471";"Kec. Bebesen, Kabupaten Aceh Tengah";"ACEH";"24471";"Indonesia";" 06432626534";"4.6420249";"96.8393528";"https://maps.google.com/?cid=0x0:0x9989eec058460473"
"hotel";"hotel";"Hotel Amel Convention Hall";"Gp, Jl. Sultan Iskandar Muda, Blang Oi, Kec. Meuraxa, Kota Banda Aceh, Aceh 23233";"Jl. Sultan Iskandar Muda, Blang Oi, Kec. Meuraxa, Kota Banda Aceh";"ACEH";"23233";"Indonesia";" 082320000048";"5.5521329";"95.3023152";"https://maps.google.com/?cid=0x0:0xca46af412c292978"
"hotel";"hotel";"QQ HOMESTAY TAKENGON";"Jl. Sengeda No.99, Nunang Antara, Kec. Bebesen, Kabupaten Aceh Tengah, Aceh 24519";"Nunang Antara, Kec. Bebesen, Kabupaten Aceh Tengah";"ACEH";"24519";"Indonesia";" 085276382700";"4.6335512";"96.8532489";"https://maps.google.com/?cid=0x0:0x412c210b426de45f"
"hotel";"hotel";"Kec. Timang Gajah";"Kabupaten Bener Meriah, Aceh";"Kabupaten Bener Meriah, Aceh";"ACEH";"";"Indonesia";"";"4.7581426";"96.76263";"https://maps.google.com/?cid=0x0:0x64723af8a148d625"
"hotel";"hotel";"AL FATTAH Boutique Hotel, Cafe  Meeting Room";"Jl. Pendopo Bupati, Uring, Kec. Bukit, Kabupaten Bener Meriah, Aceh 24582";"Uring, Kec. Bukit, Kabupaten Bener Meriah";"ACEH";"24582";"Indonesia";" 082361148989";"4.7178927";"96.8698829";"https://maps.google.com/?cid=0x0:0xc23e1f56b6238849"
"hotel";"hotel";"Hotel Arafah";"Jl. Raya Bireuen - Takengon No.32 - 34, Simpang Empat, Kec. Bebesen, Kabupaten Aceh Tengah, Aceh 24471";"Simpang Empat, Kec. Bebesen, Kabupaten Aceh Tengah";"ACEH";"24471";"Indonesia";" 064321813";"4.6377301";"96.8412416";"https://maps.google.com/?cid=0x0:0x411471b92cf275d6"
"hotel";"hotel";"OYO 90618 Hanania House Syariah";"MPWX+3Q2, Jl. Jenderal Ahmad Yani, Blang Mancung Bawah, Kec. Ketol, Kabupaten Aceh Tengah, Aceh 24354";"Jl. Jenderal Ahmad Yani, Blang Mancung Bawah, Kec. Ketol, Kabupaten Aceh Tengah";"ACEH";"24354";"Indonesia";" 0817788016";"4.695135";"96.749399";"https://maps.google.com/?cid=0x0:0x5300d80424671604"
"hotel";"hotel";"Hotel Triarga Takengon";"lr hotel triarga, Jl. Gatot Subroto No.477, Bale Atu, Kec. Lut Tawar, Kabupaten Aceh Tengah, Aceh 24552";"Jl. Gatot Subroto No.477, Bale Atu, Kec. Lut Tawar, Kabupaten Aceh Tengah";"ACEH";"24552";"Indonesia";" 081360907900";"4.6238932";"96.8496883";"https://maps.google.com/?cid=0x0:0x781cf771ad029dfb"
"hotel";"hotel";"wisma pelangi";"Jl. Syiah Utama, Pd. Baru, Kec. Bandar, Kabupaten Bener Meriah, Aceh 24582";"Pd. Baru, Kec. Bandar, Kabupaten Bener Meriah";"ACEH";"24582";"Indonesia";" 082272029063";"4.7546226";"96.9099097";"https://maps.google.com/?cid=0x0:0x6ce150c3565c2a15"
"hotel";"hotel";"Hotel Matang Raya";"Gampong, Bireun Meunasah Dayah, Matangglumpangdua, Peusangan, Kabupaten Bireuen, Aceh 24261";"Bireun Meunasah Dayah, Matangglumpangdua, Peusangan, Kabupaten Bireuen";"ACEH";"24261";"Indonesia";" 085217020150";"5.1974569";"96.7829449";"https://maps.google.com/?cid=0x0:0x808dc5079fc246b7"
"hotel";"hotel";"Portola Grand Renggali Hotel";"Danau, Kabupaten Aceh Tengah, Aceh 24519";"Kabupaten Aceh Tengah";"ACEH";"24519";"Indonesia";" 08116837100";"4.6121859";"96.8641628";"https://maps.google.com/?cid=0x0:0xcd3d745aa1299e22"
"hotel";"hotel";"Mabit Hotel Takengon";"Jln, Takengon - Bireuen, Kec. Bebesen, Kabupaten Aceh Tengah, Aceh 24552";"Takengon - Bireuen, Kec. Bebesen, Kabupaten Aceh Tengah";"ACEH";"24552";"Indonesia";" 085134609519";"4.6398362";"96.8395871";"https://maps.google.com/?cid=0x0:0x4268132256ddf98b"
"hotel";"hotel";"Wisma Tursina (RedDoorz Hotel)";"Jl. Lebe Kader, Simpang Empat, Kec. Bebesen, Kabupaten Aceh Tengah, Aceh 24471";"Simpang Empat, Kec. Bebesen, Kabupaten Aceh Tengah";"ACEH";"24471";"Indonesia";" 0895417300072";"4.6379054";"96.8410804";"https://maps.google.com/?cid=0x0:0xd09d01e1e60cb87"
"hotel";"hotel";""Pusaka" losmen";"Jl. Gempar Alam Komplek Terminal Lama No.58, Kemili, Kec. Bebesen, Kabupaten Aceh Tengah, Aceh 24519";"Kemili, Kec. Bebesen, Kabupaten Aceh Tengah";"ACEH";"24519";"Indonesia";" 0895417300072";"4.6245762";"96.8508198";"https://maps.google.com/?cid=0x0:0x16135c7f2521c677"
"hotel";"hotel";"Umah Bango Bungalow";"Jl. Sara Rasa, Gg. Awan Kodok, Lr. Umah Bango, Keramat Mupakat, Bebesen, Central Aceh Regency, Aceh 24519";"Gg. Awan Kodok, Lr. Umah Bango, Keramat Mupakat, Bebesen, Central Aceh Regency";"ACEH";"24519";"Indonesia";" 082277441331";"4.6255226";"96.8557748";"https://maps.google.com/?cid=0x0:0x42accfdc5cd976ad"
"hotel";"hotel";"At-Tamimi Guest House Syariah at Desa Wisata Takengon";"Jalan Sengeda Blang, Jl. Merah Mersa No.1, Takengon Tim., Kec. Lut Tawar, Kabupaten Aceh Tengah, Aceh 24511";"Jl. Merah Mersa No.1, Takengon Tim., Kec. Lut Tawar, Kabupaten Aceh Tengah";"ACEH";"24511";"Indonesia";" 0895417300072";"4.6228935";"96.8521898";"https://maps.google.com/?cid=0x0:0x926e4b04e3e70131"
"hotel";"hotel";"Penginapan Alfatih";"Jl. Yos Sudarso No.103, Blang Kolak II, Kec. Bebesen, Kabupaten Aceh Tengah, Aceh 24519";"Blang Kolak II, Kec. Bebesen, Kabupaten Aceh Tengah";"ACEH";"24519";"Indonesia";" 081360060073";"4.6231416";"96.8370671";"https://maps.google.com/?cid=0x0:0x3b988f68092d9bb9"
"hotel";"hotel";"Kec. Wih Pesam";"Kabupaten Bener Meriah, Aceh";"Kabupaten Bener Meriah, Aceh";"ACEH";"";"Indonesia";"";"4.7226414";"96.8075443";"https://maps.google.com/?cid=0x0:0x12bccf5d1e0778eb"
"hotel";"hotel";"Parkside Petro Gayo Hotel Takengon";"Jl. Sengeda, Nunang Antara, Kec. Bebesen, Kabupaten Aceh Tengah, Aceh 24519";"Nunang Antara, Kec. Bebesen, Kabupaten Aceh Tengah";"ACEH";"24519";"Indonesia";" 082190638839";"4.6316281";"96.8539979";"https://maps.google.com/?cid=0x0:0x2b3f5320e65030a8"
"hotel";"hotel";"N/A";"";"";"ACEH";"";"Indonesia";"";"";"";"https://maps.google.com/?cid=0x0:0x2b3f5320e65030a8%7C/g/11h2p310xs%7Cid-ID"
"hotel";"hotel";"Mabit Hotel Takengon";"Jln, Takengon - Bireuen, Kec. Bebesen, Kabupaten Aceh Tengah, Aceh 24552";"Takengon - Bireuen, Kec. Bebesen, Kabupaten Aceh Tengah";"ACEH";"24552";"Indonesia";" 085134609519";"4.6398362";"96.8395871";"https://maps.google.com/?cid=0x0:0x4268132256ddf98b"
"hotel";"hotel";"Petro Inn Takengon";"Jl. Sengeda, Nunang Antara, Kec. Bebesen, Kabupaten Aceh Tengah, Aceh 24519";"Nunang Antara, Kec. Bebesen, Kabupaten Aceh Tengah";"ACEH";"24519";"Indonesia";" 085710765975";"4.6318419";"96.8535458";"https://maps.google.com/?cid=0x0:0xda70b7aebfa35504"
"hotel";"hotel";"Hotel Belangi Syariah Takengon";"Jl. Soekarno - Hatta, Kebet, Kec. Bebesen, Kabupaten Aceh Tengah, Aceh 24471";"Kebet, Kec. Bebesen, Kabupaten Aceh Tengah";"ACEH";"24471";"Indonesia";" 085260849478";"4.6300304";"96.8344354";"https://maps.google.com/?cid=0x0:0x531d4f3480e41c41"
"hotel";"hotel";"N/A";"";"";"ACEH";"";"Indonesia";"";"";"";"https://maps.google.com/?cid=0x0:0x531d4f3480e41c41%7C/g/11mbwbj777%7Cid-ID"
"hotel";"hotel";"Hotel Grand Bayu Hill";"Mongal, Kec. Bebesen, Kabupaten Aceh Tengah, Aceh 24471";"Kec. Bebesen, Kabupaten Aceh Tengah";"ACEH";"24471";"Indonesia";" 06432626534";"4.6420249";"96.8393528";"https://maps.google.com/?cid=0x0:0x9989eec058460473"
"hotel";"hotel";"PLUM Hotel Lading Banda Aceh";"Jl. Cut Mutia No.19, Kp. Baru, Kec. Baiturrahman, Kota Banda Aceh, Aceh 23242";"Kp. Baru, Kec. Baiturrahman, Kota Banda Aceh";"ACEH";"23242";"Indonesia";" 08116888089";"5.5558086";"95.3174426";"https://maps.google.com/?cid=0x0:0x9ff50911ab5454e1"
"hotel";"hotel";"Biehomestay";"Jl. Puteri pukes kampung, Kala Lengkio, Kec. Kebayakan, Kabupaten Aceh Tengah, Aceh 24519";"Kala Lengkio, Kec. Kebayakan, Kabupaten Aceh Tengah";"ACEH";"24519";"Indonesia";" 082312345923";"4.6370833";"96.8612183";"https://maps.google.com/?cid=0x0:0x9beb97e7d28fd8af"
"hotel";"hotel";"Wisma Tursina (RedDoorz Hotel)";"Jl. Lebe Kader, Simpang Empat, Kec. Bebesen, Kabupaten Aceh Tengah, Aceh 24471";"Simpang Empat, Kec. Bebesen, Kabupaten Aceh Tengah";"ACEH";"24471";"Indonesia";" 0895417300072";"4.6379054";"96.8410804";"https://maps.google.com/?cid=0x0:0xd09d01e1e60cb87"
"hotel";"hotel";"Penginapan Sulthan Syariah RedPartner";"Jl. Lebe, Keder, Mongal, Kec. Bebesen, Kabupaten Aceh Tengah, Aceh 24552";"Keder, Mongal, Kec. Bebesen, Kabupaten Aceh Tengah";"ACEH";"24552";"Indonesia";" 0895417300072";"4.6426046";"96.8389017";"https://maps.google.com/?cid=0x0:0x6f78cec07ea4cfdf"
"hotel";"hotel";"QQ HOMESTAY TAKENGON";"Jl. Sengeda No.99, Nunang Antara, Kec. Bebesen, Kabupaten Aceh Tengah, Aceh 24519";"Nunang Antara, Kec. Bebesen, Kabupaten Aceh Tengah";"ACEH";"24519";"Indonesia";" 085276382700";"4.6335512";"96.8532489";"https://maps.google.com/?cid=0x0:0x412c210b426de45f"
"hotel";"hotel";"Belazee homestay";"Jl. Kala Pasir, Keramat Mupakat, Kec. Bebesen, Kabupaten Aceh Tengah, Aceh 24552";"Keramat Mupakat, Kec. Bebesen, Kabupaten Aceh Tengah";"ACEH";"24552";"Indonesia";" 085360415225";"4.6297298";"96.8537951";"https://maps.google.com/?cid=0x0:0x40db8a540045825e"
"cafe";"cafe";"Banda Aceh";"Kota Banda Aceh, Aceh";"Kota Banda Aceh, Aceh";"ACEH";"";"Indonesia";"";"5.5482904";"95.3237559";"https://maps.google.com/?cid=0x0:0x3039d80b220cb90"
"cafe";"Kedai Kopi";"CIRCLE CAFE";"Jl. Gabus, Bandar Baru, Lampriet, Kota Banda Aceh, Aceh 23123";"Bandar Baru, Lampriet, Kota Banda Aceh";"ACEH";"23123";"Indonesia";" 085218000493";"5.5653058";"95.3355904";"https://maps.google.com/?cid=0x0:0xfb8a3c7e6c74e18c"
"cafe";"Kafe";"Twins Coffee";"H9M2+WH8, Jembatan Krueng Cut, Tibang, Kec. Syiah Kuala, Kota Banda Aceh, Aceh";"Kota Banda Aceh, Aceh";"ACEH";"";"Indonesia";" 082272105040";"5.5847905";"95.3514542";"https://maps.google.com/?cid=0x0:0xf9837416e34fb9b4"
"cafe";"Kedai Kopi";"Ivory Coffee  Culinary";"Jl. Teuku Umar No.19, Seutui, Kec. Baiturrahman, Kota Banda Aceh, Aceh 23116";"Seutui, Kec. Baiturrahman, Kota Banda Aceh";"ACEH";"23116";"Indonesia";" 08116070801";"5.5430791";"95.3128579";"https://maps.google.com/?cid=0x0:0x74b326e8ec2d8584"
"cafe";"Kedai Kopi";"Rand Coffee  Eatery";"Jl. Tengku Chik Ditiro No.93, Sp. Surabaya, Kec. Baiturrahman, Kota Banda Aceh, Aceh 23127";"Sp. Surabaya, Kec. Baiturrahman, Kota Banda Aceh";"ACEH";"23127";"Indonesia";"";"5.5511295";"95.3287448";"https://maps.google.com/?cid=0x0:0x2f72da099da81d36"
"cafe";"Kedai Kopi";"History Cafe  Resto";"Jl. Sultan Mahmudsyah No.10, Peuniti, Kec. Baiturrahman, Kota Banda Aceh, Aceh 23116";"Peuniti, Kec. Baiturrahman, Kota Banda Aceh";"ACEH";"23116";"Indonesia";" 08116848586";"5.5483964";"95.3212254";"https://maps.google.com/?cid=0x0:0x818682059ed3924"
"cafe";"Kafe";"Le Rasa Cafe";"Jalan Tandi III No. 27, Ateuk Munjeng, Kec. Baiturrahman, Kota Banda Aceh, Aceh 23244";"Ateuk Munjeng, Kec. Baiturrahman, Kota Banda Aceh";"ACEH";"23244";"Indonesia";"";"5.5376663";"95.3214332";"https://maps.google.com/?cid=0x0:0x6e7789ba975462e8"
"cafe";"Kedai Kopi";"Abu Dhabi Coffee";"G8WF+V99, Jl. TM Pahlawan, Ateuk Pahlawan, Kec. Baiturrahman, Kota Banda Aceh, Aceh 23127";"Jl. TM Pahlawan, Ateuk Pahlawan, Kec. Baiturrahman, Kota Banda Aceh";"ACEH";"23127";"Indonesia";"";"5.5471713";"95.3234919";"https://maps.google.com/?cid=0x0:0x88d557ffaea4fc06"
"cafe";"Restoran";"Paopia Garden Cafe  Resto";"G8QX+849, Pango Raya, Kec. Ulee Kareng, Kota Banda Aceh, Aceh 23116";"Pango Raya, Kec. Ulee Kareng, Kota Banda Aceh";"ACEH";"23116";"Indonesia";" 085260682261";"5.5382974";"95.3478541";"https://maps.google.com/?cid=0x0:0x88c2a09c86f6fcea"
"cafe";"Kafe";"Double D";"Jl. Adam No.7, Ateuk Pahlawan, Kec. Baiturrahman, Kota Banda Aceh, Aceh 23241";"Ateuk Pahlawan, Kec. Baiturrahman, Kota Banda Aceh";"ACEH";"23241";"Indonesia";" 085277014739";"5.5475091";"95.325293";"https://maps.google.com/?cid=0x0:0x284f6a42caf92000"
"cafe";"Kafe";"Leuser Coffee";"Jl. T. Panglima Nyak Makam No.108, RW.Lampineung, Ie Masen Kaye Adang, Kec. Syiah Kuala, Kota Banda Aceh, Aceh 23116";"RW.Lampineung, Ie Masen Kaye Adang, Kec. Syiah Kuala, Kota Banda Aceh";"ACEH";"23116";"Indonesia";" 085277747888";"5.5579166";"95.3443611";"https://maps.google.com/?cid=0x0:0x349ed96e65f99d66"
"cafe";"Kafe";"Hip Burger";"H85V+RF8, Jl. T. Panglima Nyak Makam, Lambhuk, Kec. Ulee Kareng, Kota Banda Aceh, Aceh 24415";"Jl. T. Panglima Nyak Makam, Lambhuk, Kec. Ulee Kareng, Kota Banda Aceh";"ACEH";"24415";"Indonesia";"";"5.5595432";"95.3437108";"https://maps.google.com/?cid=0x0:0x26bb6759c578ee97"
"cafe";"Kedai Kopi";"Taman Sari 36 Coffee";"Jl. Tengku H Abdullah Ujung Rimba No.36, Kp. Baru, Kec. Baiturrahman, Kota Banda Aceh, Aceh 23116";"Kp. Baru, Kec. Baiturrahman, Kota Banda Aceh";"ACEH";"23116";"Indonesia";"";"5.548335";"95.3159567";"https://maps.google.com/?cid=0x0:0x1b4188c2353bcd47"
"cafe";"Kedai Kopi";"Coffee Bay";"Jl. Sultan Iskandar Muda, Gampong Pie, Kec. Meuraxa, Kota Banda Aceh, Aceh 23234";"Gampong Pie, Kec. Meuraxa, Kota Banda Aceh";"ACEH";"23234";"Indonesia";" 08116808116";"5.5549233";"95.2872244";"https://maps.google.com/?cid=0x0:0x331dc8d492b456b6"
"cafe";"cafe";"Banda Aceh";"Kota Banda Aceh, Aceh";"Kota Banda Aceh, Aceh";"ACEH";"";"Indonesia";"";"5.5482904";"95.3237559";"https://maps.google.com/?cid=0x0:0x3039d80b220cb90"
"cafe";"Kedai Kopi";"CIRCLE CAFE";"Jl. Gabus, Bandar Baru, Lampriet, Kota Banda Aceh, Aceh 23123";"Bandar Baru, Lampriet, Kota Banda Aceh";"ACEH";"23123";"Indonesia";" 085218000493";"5.5653058";"95.3355904";"https://maps.google.com/?cid=0x0:0xfb8a3c7e6c74e18c"
"cafe";"Kedai Kopi";"Put  Key Coffee and Eatery";"Jl. Tgk Moh. Daud Beureuh No.177, Bandar Baru, Kec. Kuta Alam, Kota Banda Aceh, Aceh 24415";"Bandar Baru, Kec. Kuta Alam, Kota Banda Aceh";"ACEH";"24415";"Indonesia";"";"5.5650733";"95.3364276";"https://maps.google.com/?cid=0x0:0x8bbf3e16cb67687e"
"cafe";"Kedai Kopi";"Abu Dhabi Coffee";"G8WF+V99, Jl. TM Pahlawan, Ateuk Pahlawan, Kec. Baiturrahman, Kota Banda Aceh, Aceh 23127";"Jl. TM Pahlawan, Ateuk Pahlawan, Kec. Baiturrahman, Kota Banda Aceh";"ACEH";"23127";"Indonesia";"";"5.5471713";"95.3234919";"https://maps.google.com/?cid=0x0:0x88d557ffaea4fc06"
"cafe";"Kafe";"dnD Coffee";"H89V+V29, Jl. Tengku Indrapuri, Kota Baru, Kec. Kuta Alam, Kota Banda Aceh, Aceh 23125";"Jl. Tengku Indrapuri, Kota Baru, Kec. Kuta Alam, Kota Banda Aceh";"ACEH";"23125";"Indonesia";"";"5.5696524";"95.3426237";"https://maps.google.com/?cid=0x0:0x2013d630f30f53d7"
"cafe";"Kafe";"Soho Coffee and Eatery";"Gp. Banda, Jl. H. Dimurthala Kuta Alam No.8, Kuta Alam, Kec. Kuta Alam, Kota Banda Aceh, Aceh 23127";"Jl. H. Dimurthala Kuta Alam No.8, Kuta Alam, Kec. Kuta Alam, Kota Banda Aceh";"ACEH";"23127";"Indonesia";" 081265764898";"5.5549601";"95.3221121";"https://maps.google.com/?cid=0x0:0x4871a84d4bc831b2"
"cafe";"Kedai Kopi";"Tower Coffee";"Kuta Alam, Kec. Kuta Alam, Kota Banda Aceh, Aceh 23127";"Kec. Kuta Alam, Kota Banda Aceh";"ACEH";"23127";"Indonesia";" 085361672650";"5.555289";"95.321782";"https://maps.google.com/?cid=0x0:0xa1cca874a1eb790f"
"cafe";"Kedai Kopi";"Rand Coffee  Eatery";"Jl. Tengku Chik Ditiro No.93, Sp. Surabaya, Kec. Baiturrahman, Kota Banda Aceh, Aceh 23127";"Sp. Surabaya, Kec. Baiturrahman, Kota Banda Aceh";"ACEH";"23127";"Indonesia";"";"5.5511295";"95.3287448";"https://maps.google.com/?cid=0x0:0x2f72da099da81d36"
"cafe";"Kedai Kopi";"History Cafe  Resto";"Jl. Sultan Mahmudsyah No.10, Peuniti, Kec. Baiturrahman, Kota Banda Aceh, Aceh 23116";"Peuniti, Kec. Baiturrahman, Kota Banda Aceh";"ACEH";"23116";"Indonesia";" 08116848586";"5.5483964";"95.3212254";"https://maps.google.com/?cid=0x0:0x818682059ed3924"
"cafe";"Kedai Kopi";"Tanarencong Coffee Shop";"Jl. TM Pahlawan, Peuniti, Kec. Baiturrahman, Kota Banda Aceh, Aceh 23127";"Peuniti, Kec. Baiturrahman, Kota Banda Aceh";"ACEH";"23127";"Indonesia";"";"5.5499532";"95.3240481";"https://maps.google.com/?cid=0x0:0x2e7547a4ec451770"
"cafe";"Kafe";"Le Rasa Cafe";"Jalan Tandi III No. 27, Ateuk Munjeng, Kec. Baiturrahman, Kota Banda Aceh, Aceh 23244";"Ateuk Munjeng, Kec. Baiturrahman, Kota Banda Aceh";"ACEH";"23244";"Indonesia";"";"5.5376663";"95.3214332";"https://maps.google.com/?cid=0x0:0x6e7789ba975462e8"
"cafe";"Kedai Kopi";"Palapa Reborn Coffee";"Jl. Teuku Chik Di Tiro No.98, Peuniti, Kec. Baiturrahman, Kota Banda Aceh, Aceh 23127";"Peuniti, Kec. Baiturrahman, Kota Banda Aceh";"ACEH";"23127";"Indonesia";" 082131931781";"5.5509565";"95.3240554";"https://maps.google.com/?cid=0x0:0x287d229c260463bc"
"cafe";"Kafe";"Signature Coffee Shop";"Sanggamara Junction, Peunayong, Kuta Alam, Banda Aceh City, Aceh";"Kota Banda Aceh, Aceh";"ACEH";"";"Indonesia";"";"5.5560753";"95.3213123";"https://maps.google.com/?cid=0x0:0xedde67209581f0b4"
"cafe";"Kafe";"Double D";"Jl. Adam No.7, Ateuk Pahlawan, Kec. Baiturrahman, Kota Banda Aceh, Aceh 23241";"Ateuk Pahlawan, Kec. Baiturrahman, Kota Banda Aceh";"ACEH";"23241";"Indonesia";" 085277014739";"5.5475091";"95.325293";"https://maps.google.com/?cid=0x0:0x284f6a42caf92000"
"cafe";"Kafe";"BONÈS Coffee Stop  Roastery";"Jl. Ps. Inpres No.241, Puja Mulia, Kec. Bandar, Kabupaten Bener Meriah, Aceh 24582";"Puja Mulia, Kec. Bandar, Kabupaten Bener Meriah";"ACEH";"24582";"Indonesia";" 08128171781";"4.7543041";"96.9158731";"https://maps.google.com/?cid=0x0:0xeeb5d3d8b9257da2"
"cafe";"cafe";"Aceh 24582";"Kabupaten Bener Meriah, Aceh";"Kabupaten Bener Meriah, Aceh";"ACEH";"";"Indonesia";"";"4.733267";"97.0498442";"https://maps.google.com/?cid=0x0:0x24377db9b3ac434d"
"cafe";"Tujuan Wisata";"Maha Corner";"Mon Ikeun, Kec. Lhoknga, Kabupaten Aceh Besar, Aceh 23353";"Kec. Lhoknga, Kabupaten Aceh Besar";"ACEH";"23353";"Indonesia";" 0811670314";"5.4670481";"95.2414679";"https://maps.google.com/?cid=0x0:0x810c410478e429fe"
"cafe";"Kedai Kopi";"CIRCLE CAFE";"Jl. Gabus, Bandar Baru, Lampriet, Kota Banda Aceh, Aceh 23123";"Bandar Baru, Lampriet, Kota Banda Aceh";"ACEH";"23123";"Indonesia";" 085218000493";"5.5653058";"95.3355904";"https://maps.google.com/?cid=0x0:0xfb8a3c7e6c74e18c"
"cafe";"Kedai Kopi";"DEPUTROE COFFEE";"Jl. Pondok Baru-Blang Jorong No.98, Tawar Sedenge, Kec. Bandar, Kabupaten Bener Meriah, Aceh 24582";"Tawar Sedenge, Kec. Bandar, Kabupaten Bener Meriah";"ACEH";"24582";"Indonesia";" 08126931751";"4.7512169";"96.9132738";"https://maps.google.com/?cid=0x0:0x2dc1ebdc8e41b56e"
"cafe";"Kafe";"Le Rasa Cafe";"Jalan Tandi III No. 27, Ateuk Munjeng, Kec. Baiturrahman, Kota Banda Aceh, Aceh 23244";"Ateuk Munjeng, Kec. Baiturrahman, Kota Banda Aceh";"ACEH";"23244";"Indonesia";"";"5.5376663";"95.3214332";"https://maps.google.com/?cid=0x0:0x6e7789ba975462e8"
"cafe";"Kafe";"42 Cafehouse";"Jl. Todak No.42, Bandar Baru, Kec. Kuta Alam, Kota Banda Aceh, Aceh 23126";"Bandar Baru, Kec. Kuta Alam, Kota Banda Aceh";"ACEH";"23126";"Indonesia";" 082122831282";"5.5648314";"95.3333135";"https://maps.google.com/?cid=0x0:0x6acda266db623d47"
"cafe";"Restoran";"Paopia Garden Cafe  Resto";"G8QX+849, Pango Raya, Kec. Ulee Kareng, Kota Banda Aceh, Aceh 23116";"Pango Raya, Kec. Ulee Kareng, Kota Banda Aceh";"ACEH";"23116";"Indonesia";" 085260682261";"5.5382974";"95.3478541";"https://maps.google.com/?cid=0x0:0x88c2a09c86f6fcea"
"cafe";"Kedai Kopi";"Rumoeh Mirah Coffee";"H82C+C88, Peuniti, Kec. Baiturrahman, Kota Banda Aceh, Aceh 23127";"Peuniti, Kec. Baiturrahman, Kota Banda Aceh";"ACEH";"23127";"Indonesia";"";"5.551094";"95.3209213";"https://maps.google.com/?cid=0x0:0x1109474c7e8f2dc0"
"cafe";"Kafe";"E.N CAFE";"lamprit, Jl. Gabus No.22, Bandar Baru, Kota Banda Aceh, Aceh 23126";"Jl. Gabus No.22, Bandar Baru, Kota Banda Aceh";"ACEH";"23126";"Indonesia";"";"5.5656814";"95.3360097";"https://maps.google.com/?cid=0x0:0x6cb67f818bb86ebb"
"cafe";"Kafe";"Roenang Coffee  Eatery";"QW36+Q23 Depan Kantor Camat, Jl. Syiah Utama, Mutiara, Kec. Bandar, Kabupaten Bener Meriah, Aceh 24582";"Jl. Syiah Utama, Mutiara, Kec. Bandar, Kabupaten Bener Meriah";"ACEH";"24582";"Indonesia";" 081325263399";"4.7543892";"96.9100382";"https://maps.google.com/?cid=0x0:0x426392625f003fcd"
"cafe";"Kafe";"Kinico Coffee Shop";"PWX7+G6F, Tawar Sedenge, Kec. Bandar, Kabupaten Bener Meriah, Aceh 24582";"Tawar Sedenge, Kec. Bandar, Kabupaten Bener Meriah";"ACEH";"24582";"Indonesia";" 082285169505";"4.7488152";"96.9130606";"https://maps.google.com/?cid=0x0:0x5a33c1a68839a426"
"cafe";"Kafe";"roman kopi gayo";"makmur sentosa, jl takengon Jl. Pd. Baru, Pd. Baru, Aceh 24582";"jl takengon Jl. Pd. Baru, Pd. Baru";"ACEH";"24582";"Indonesia";" 081375746943";"4.7518781";"96.9031943";"https://maps.google.com/?cid=0x0:0x292025f343386d8e"
"cafe";"Kafe";"Keyntes Cofee Shop";"QW35+FC8, Simpang Utama, Kec. Bandar, Kabupaten Bener Meriah, Aceh 24582";"Simpang Utama, Kec. Bandar, Kabupaten Bener Meriah";"ACEH";"24582";"Indonesia";" 085270585910";"4.7536612";"96.9085668";"https://maps.google.com/?cid=0x0:0x5eb1442ec6cae9df"
"cafe";"cafe";"Banda Aceh";"Kota Banda Aceh, Aceh";"Kota Banda Aceh, Aceh";"ACEH";"";"Indonesia";"";"5.5482904";"95.3237559";"https://maps.google.com/?cid=0x0:0x3039d80b220cb90"
"cafe";"Kedai Kopi";"CIRCLE CAFE";"Jl. Gabus, Bandar Baru, Lampriet, Kota Banda Aceh, Aceh 23123";"Bandar Baru, Lampriet, Kota Banda Aceh";"ACEH";"23123";"Indonesia";" 085218000493";"5.5653058";"95.3355904";"https://maps.google.com/?cid=0x0:0xfb8a3c7e6c74e18c"
"cafe";"Kedai Kopi";"Put  Key Coffee and Eatery";"Jl. Tgk Moh. Daud Beureuh No.177, Bandar Baru, Kec. Kuta Alam, Kota Banda Aceh, Aceh 24415";"Bandar Baru, Kec. Kuta Alam, Kota Banda Aceh";"ACEH";"24415";"Indonesia";"";"5.5650733";"95.3364276";"https://maps.google.com/?cid=0x0:0x8bbf3e16cb67687e"
"cafe";"Kedai Kopi";"Abu Dhabi Coffee";"G8WF+V99, Jl. TM Pahlawan, Ateuk Pahlawan, Kec. Baiturrahman, Kota Banda Aceh, Aceh 23127";"Jl. TM Pahlawan, Ateuk Pahlawan, Kec. Baiturrahman, Kota Banda Aceh";"ACEH";"23127";"Indonesia";"";"5.5471713";"95.3234919";"https://maps.google.com/?cid=0x0:0x88d557ffaea4fc06"
"cafe";"Kedai Kopi";"Rand Coffee  Eatery";"Jl. Tengku Chik Ditiro No.93, Sp. Surabaya, Kec. Baiturrahman, Kota Banda Aceh, Aceh 23127";"Sp. Surabaya, Kec. Baiturrahman, Kota Banda Aceh";"ACEH";"23127";"Indonesia";"";"5.5511295";"95.3287448";"https://maps.google.com/?cid=0x0:0x2f72da099da81d36"
"cafe";"Kafe";"Le Rasa Cafe";"Jalan Tandi III No. 27, Ateuk Munjeng, Kec. Baiturrahman, Kota Banda Aceh, Aceh 23244";"Ateuk Munjeng, Kec. Baiturrahman, Kota Banda Aceh";"ACEH";"23244";"Indonesia";"";"5.5376663";"95.3214332";"https://maps.google.com/?cid=0x0:0x6e7789ba975462e8"
"cafe";"Kedai Kopi";"Tower Coffee";"Kuta Alam, Kec. Kuta Alam, Kota Banda Aceh, Aceh 23127";"Kec. Kuta Alam, Kota Banda Aceh";"ACEH";"23127";"Indonesia";" 085361672650";"5.555289";"95.321782";"https://maps.google.com/?cid=0x0:0xa1cca874a1eb790f"
"cafe";"Restoran";"Paopia Garden Cafe  Resto";"G8QX+849, Pango Raya, Kec. Ulee Kareng, Kota Banda Aceh, Aceh 23116";"Pango Raya, Kec. Ulee Kareng, Kota Banda Aceh";"ACEH";"23116";"Indonesia";" 085260682261";"5.5382974";"95.3478541";"https://maps.google.com/?cid=0x0:0x88c2a09c86f6fcea"
"cafe";"Kedai Kopi";"The Oak Cafe and Inn";"Jl. Senangin No.18, Bandar Baru, Kec. Kuta Alam, Kota Banda Aceh, Aceh";"Kota Banda Aceh, Aceh";"ACEH";"";"Indonesia";" 081260001418";"5.5683636";"95.3373374";"https://maps.google.com/?cid=0x0:0x9fa16364917423e0"
"cafe";"Kedai Kopi";"Coffee Bay";"Jl. Sultan Iskandar Muda, Gampong Pie, Kec. Meuraxa, Kota Banda Aceh, Aceh 23234";"Gampong Pie, Kec. Meuraxa, Kota Banda Aceh";"ACEH";"23234";"Indonesia";" 08116808116";"5.5549233";"95.2872244";"https://maps.google.com/?cid=0x0:0x331dc8d492b456b6"
"cafe";"Kedai Kopi";"Ivory Coffee  Culinary";"Jl. Teuku Umar No.19, Seutui, Kec. Baiturrahman, Kota Banda Aceh, Aceh 23116";"Seutui, Kec. Baiturrahman, Kota Banda Aceh";"ACEH";"23116";"Indonesia";" 08116070801";"5.5430791";"95.3128579";"https://maps.google.com/?cid=0x0:0x74b326e8ec2d8584"
"cafe";"Kedai Kopi";"Taman Sari 36 Coffee";"Jl. Tengku H Abdullah Ujung Rimba No.36, Kp. Baru, Kec. Baiturrahman, Kota Banda Aceh, Aceh 23116";"Kp. Baru, Kec. Baiturrahman, Kota Banda Aceh";"ACEH";"23116";"Indonesia";"";"5.548335";"95.3159567";"https://maps.google.com/?cid=0x0:0x1b4188c2353bcd47"
"cafe";"Kafe";"Soho Coffee and Eatery";"Gp. Banda, Jl. H. Dimurthala Kuta Alam No.8, Kuta Alam, Kec. Kuta Alam, Kota Banda Aceh, Aceh 23127";"Jl. H. Dimurthala Kuta Alam No.8, Kuta Alam, Kec. Kuta Alam, Kota Banda Aceh";"ACEH";"23127";"Indonesia";" 081265764898";"5.5549601";"95.3221121";"https://maps.google.com/?cid=0x0:0x4871a84d4bc831b2"
"cafe";"Kafe";"Double D";"Jl. Adam No.7, Ateuk Pahlawan, Kec. Baiturrahman, Kota Banda Aceh, Aceh 23241";"Ateuk Pahlawan, Kec. Baiturrahman, Kota Banda Aceh";"ACEH";"23241";"Indonesia";" 085277014739";"5.5475091";"95.325293";"https://maps.google.com/?cid=0x0:0x284f6a42caf92000"
"cafe";"Kedai Kopi";"History Cafe  Resto";"Jl. Sultan Mahmudsyah No.10, Peuniti, Kec. Baiturrahman, Kota Banda Aceh, Aceh 23116";"Peuniti, Kec. Baiturrahman, Kota Banda Aceh";"ACEH";"23116";"Indonesia";" 08116848586";"5.5483964";"95.3212254";"https://maps.google.com/?cid=0x0:0x818682059ed3924"
"cafe";"cafe";"Banda Aceh";"Kota Banda Aceh, Aceh";"Kota Banda Aceh, Aceh";"ACEH";"";"Indonesia";"";"5.5482904";"95.3237559";"https://maps.google.com/?cid=0x0:0x3039d80b220cb90"
"cafe";"Kafe";"Jala Cafe";"G8CC+CQR, Lhong Raya, Kec. Banda Raya, Kota Banda Aceh, Aceh 23231";"Lhong Raya, Kec. Banda Raya, Kota Banda Aceh";"ACEH";"23231";"Indonesia";" 08116807300";"5.5211243";"95.3218903";"https://maps.google.com/?cid=0x0:0x6317dbb75fed6633"
"cafe";"Kedai Kopi";"LIMA BELAS Meutuah Cafe n Coffee";"Geuceu Kayee Jato, Kec. Banda Raya, Kota Banda Aceh, Aceh 23232";"Kec. Banda Raya, Kota Banda Aceh";"ACEH";"23232";"Indonesia";"";"5.5360017";"95.3070074";"https://maps.google.com/?cid=0x0:0xbdec96a258d73fc3"
"cafe";"Kafe";"Le Rasa Cafe";"Jalan Tandi III No. 27, Ateuk Munjeng, Kec. Baiturrahman, Kota Banda Aceh, Aceh 23244";"Ateuk Munjeng, Kec. Baiturrahman, Kota Banda Aceh";"ACEH";"23244";"Indonesia";"";"5.5376663";"95.3214332";"https://maps.google.com/?cid=0x0:0x6e7789ba975462e8"
"cafe";"Kedai Kopi";"The Oak Cafe and Inn";"Jl. Senangin No.18, Bandar Baru, Kec. Kuta Alam, Kota Banda Aceh, Aceh";"Kota Banda Aceh, Aceh";"ACEH";"";"Indonesia";" 081260001418";"5.5683636";"95.3373374";"https://maps.google.com/?cid=0x0:0x9fa16364917423e0"
"cafe";"Kedai Kopi";"Taman Sari 36 Coffee";"Jl. Tengku H Abdullah Ujung Rimba No.36, Kp. Baru, Kec. Baiturrahman, Kota Banda Aceh, Aceh 23116";"Kp. Baru, Kec. Baiturrahman, Kota Banda Aceh";"ACEH";"23116";"Indonesia";"";"5.548335";"95.3159567";"https://maps.google.com/?cid=0x0:0x1b4188c2353bcd47"
"cafe";"Kedai Kopi";"3 In 1 Coffee Shop";"Jl. T. Panglima Nyak Makam, Lambhuk, Kec. Ulee Kareng, Kota Banda Aceh, Aceh 24415";"Lambhuk, Kec. Ulee Kareng, Kota Banda Aceh";"ACEH";"24415";"Indonesia";"";"5.5563869";"95.3441328";"https://maps.google.com/?cid=0x0:0x1f2c9012e28c4ec5"
"cafe";"Kedai Kopi";"SOBA";"Jl. Tengku Abu Lam U, Kp. Baru, Kec. Baiturrahman, Kota Banda Aceh, Aceh";"Kota Banda Aceh, Aceh";"ACEH";"";"Indonesia";" 082214968139";"5.548405";"95.3172712";"https://maps.google.com/?cid=0x0:0xcd4d6db4757caf5b"
"cafe";"Kafe";"Soho Coffee and Eatery";"Gp. Banda, Jl. H. Dimurthala Kuta Alam No.8, Kuta Alam, Kec. Kuta Alam, Kota Banda Aceh, Aceh 23127";"Jl. H. Dimurthala Kuta Alam No.8, Kuta Alam, Kec. Kuta Alam, Kota Banda Aceh";"ACEH";"23127";"Indonesia";" 081265764898";"5.5549601";"95.3221121";"https://maps.google.com/?cid=0x0:0x4871a84d4bc831b2"
"cafe";"Kafe";"Leuser Coffee";"Jl. T. Panglima Nyak Makam No.108, RW.Lampineung, Ie Masen Kaye Adang, Kec. Syiah Kuala, Kota Banda Aceh, Aceh 23116";"RW.Lampineung, Ie Masen Kaye Adang, Kec. Syiah Kuala, Kota Banda Aceh";"ACEH";"23116";"Indonesia";" 085277747888";"5.5579166";"95.3443611";"https://maps.google.com/?cid=0x0:0x349ed96e65f99d66"
"cafe";"Kedai Kopi";"Rand Coffee  Eatery";"Jl. Tengku Chik Ditiro No.93, Sp. Surabaya, Kec. Baiturrahman, Kota Banda Aceh, Aceh 23127";"Sp. Surabaya, Kec. Baiturrahman, Kota Banda Aceh";"ACEH";"23127";"Indonesia";"";"5.5511295";"95.3287448";"https://maps.google.com/?cid=0x0:0x2f72da099da81d36"
"cafe";"Kedai Kopi";"Abu Dhabi Coffee";"G8WF+V99, Jl. TM Pahlawan, Ateuk Pahlawan, Kec. Baiturrahman, Kota Banda Aceh, Aceh 23127";"Jl. TM Pahlawan, Ateuk Pahlawan, Kec. Baiturrahman, Kota Banda Aceh";"ACEH";"23127";"Indonesia";"";"5.5471713";"95.3234919";"https://maps.google.com/?cid=0x0:0x88d557ffaea4fc06"
"cafe";"Kafe";"E.N CAFE";"lamprit, Jl. Gabus No.22, Bandar Baru, Kota Banda Aceh, Aceh 23126";"Jl. Gabus No.22, Bandar Baru, Kota Banda Aceh";"ACEH";"23126";"Indonesia";"";"5.5656814";"95.3360097";"https://maps.google.com/?cid=0x0:0x6cb67f818bb86ebb"
"cafe";"Kafe";"BONÈS Coffee Stop  Roastery";"Jl. Ps. Inpres No.241, Puja Mulia, Kec. Bandar, Kabupaten Bener Meriah, Aceh 24582";"Puja Mulia, Kec. Bandar, Kabupaten Bener Meriah";"ACEH";"24582";"Indonesia";" 08128171781";"4.7543041";"96.9158731";"https://maps.google.com/?cid=0x0:0xeeb5d3d8b9257da2"
"cafe";"cafe";"Kec. Bener Kelipah";"Kabupaten Bener Meriah, Aceh";"Kabupaten Bener Meriah, Aceh";"ACEH";"";"Indonesia";"";"4.7701481";"96.923098";"https://maps.google.com/?cid=0x0:0x3a7e0c8dc476f1e"
"cafe";"Kedai Kopi";"DEPUTROE COFFEE";"Jl. Pondok Baru-Blang Jorong No.98, Tawar Sedenge, Kec. Bandar, Kabupaten Bener Meriah, Aceh 24582";"Tawar Sedenge, Kec. Bandar, Kabupaten Bener Meriah";"ACEH";"24582";"Indonesia";" 08126931751";"4.7512169";"96.9132738";"https://maps.google.com/?cid=0x0:0x2dc1ebdc8e41b56e"
"cafe";"Kebun Raya";"Kebun Arabika Gayo II Pak Maisir";"QW85+M6C, Jongok Meluem, Kec. Bener Kelipah, Kabupaten Bener Meriah, Aceh 24582";"Jongok Meluem, Kec. Bener Kelipah, Kabupaten Bener Meriah";"ACEH";"24582";"Indonesia";" 081376503479";"4.7666752";"96.9080199";"https://maps.google.com/?cid=0x0:0x8cf7bb7007c67fd7"
"cafe";"Kedai Kopi";"Mayaco Coffee";"Jl. Syiah Utama, Simpang Utama, Kec. Bandar, Kabupaten Bener Meriah, Aceh 24582";"Simpang Utama, Kec. Bandar, Kabupaten Bener Meriah";"ACEH";"24582";"Indonesia";" 08126956951";"4.7547141";"96.9101628";"https://maps.google.com/?cid=0x0:0x62f2c3a9b4c78023"
"cafe";"Kafe";"Madiha Coffee";"QW45+GCH, Jl.Sejahtera , Dusun Sepakat, Desa Simpang Utama, Kec :, Mutiara, Kec. Bandar, Kabupaten Bener Meriah, Aceh 24582";"Jl.Sejahtera , Dusun Sepakat, Desa Simpang Utama, Kec :, Mutiara, Kec. Bandar, Kabupaten Bener Meriah";"ACEH";"24582";"Indonesia";" 085326622097";"4.7563093";"96.9085977";"https://maps.google.com/?cid=0x0:0xa6324cf991464beb"
"cafe";"Kafe";"Roenang Coffee  Eatery";"QW36+Q23 Depan Kantor Camat, Jl. Syiah Utama, Mutiara, Kec. Bandar, Kabupaten Bener Meriah, Aceh 24582";"Jl. Syiah Utama, Mutiara, Kec. Bandar, Kabupaten Bener Meriah";"ACEH";"24582";"Indonesia";" 081325263399";"4.7543892";"96.9100382";"https://maps.google.com/?cid=0x0:0x426392625f003fcd"
"cafe";"Kafe";"Kinico Coffee Shop";"PWX7+G6F, Tawar Sedenge, Kec. Bandar, Kabupaten Bener Meriah, Aceh 24582";"Tawar Sedenge, Kec. Bandar, Kabupaten Bener Meriah";"ACEH";"24582";"Indonesia";" 082285169505";"4.7488152";"96.9130606";"https://maps.google.com/?cid=0x0:0x5a33c1a68839a426"
"cafe";"Kafe";"Keyntes Cofee Shop";"QW35+FC8, Simpang Utama, Kec. Bandar, Kabupaten Bener Meriah, Aceh 24582";"Simpang Utama, Kec. Bandar, Kabupaten Bener Meriah";"ACEH";"24582";"Indonesia";" 085270585910";"4.7536612";"96.9085668";"https://maps.google.com/?cid=0x0:0x5eb1442ec6cae9df"
"cafe";"Kafe";"SEKAR GAYO COFFEE";"QW35+9GG, Jalan Terminal, Purwosari, Kec. Bandar, Kabupaten Bener Meriah, Aceh 24582";"Jalan Terminal, Purwosari, Kec. Bandar, Kabupaten Bener Meriah";"ACEH";"24582";"Indonesia";" 085277777375";"4.7534487";"96.9088171";"https://maps.google.com/?cid=0x0:0x44592509c1d2361d"
"cafe";"Kedai Kopi";"Hey Beans Coffee";"QW37+M32, Pd. Baru, Kec. Bandar, Kabupaten Bener Meriah, Aceh 24582";"Pd. Baru, Kec. Bandar, Kabupaten Bener Meriah";"ACEH";"24582";"Indonesia";" 082370720265";"4.7541304";"96.9126538";"https://maps.google.com/?cid=0x0:0xd8c24ad55affcfca"
"cafe";"Kedai Kopi";"Seladang cafe";"Jl. Raya Bireuen - Takengon, Jamur Ujung, Kec. Wih Pesam, Kabupaten Bener Meriah, Aceh 24471";"Jamur Ujung, Kec. Wih Pesam, Kabupaten Bener Meriah";"ACEH";"24471";"Indonesia";"";"4.7065029";"96.8242532";"https://maps.google.com/?cid=0x0:0x61724fbab4a1b5cb"
"cafe";"Kafe";"Samar cafe";"Kampung tawar sedenge, Pd. Baru, Kec. Bandar, Kabupaten Bener Meriah, Aceh 24582";"Pd. Baru, Kec. Bandar, Kabupaten Bener Meriah";"ACEH";"24582";"Indonesia";"";"4.7520793";"96.9130504";"https://maps.google.com/?cid=0x0:0x9faea2a76fb02872"
"cafe";"Kafe";"Fx Coffee";"Jl. Pd. Baru, Simpang Utama, Kec. Bandar, Kabupaten Bener Meriah, Aceh 24582";"Simpang Utama, Kec. Bandar, Kabupaten Bener Meriah";"ACEH";"24582";"Indonesia";"";"4.7526495";"96.9057484";"https://maps.google.com/?cid=0x0:0xb984dd304cbd0fb3"
"cafe";"cafe";"Aceh";"";"Aceh";"ACEH";"";"Indonesia";"";"4.695135";"96.7493993";"https://maps.google.com/?cid=0x0:0x1039d80b220ca60"
"cafe";"Kafe";"Coffee Bukit Santai";"CPPX+C5W, Jl. Medan Banda Aceh, Suka Mulia, Kec. Lembah Seulawah, Kabupaten Aceh Besar, Aceh 23362";"Jl. Medan Banda Aceh, Suka Mulia, Kec. Lembah Seulawah, Kabupaten Aceh Besar";"ACEH";"23362";"Indonesia";"";"5.4361186";"95.7479413";"https://maps.google.com/?cid=0x0:0x3bbf07b8abad4e3a"
"cafe";"Grosir Kopi";"Baizan CafeCoffeeshop";"Jalan Takengon Jl. Pd. Baru, Reje Guru, Kec. Bukit, Kabupaten Bener Meriah, Aceh 24581";"Reje Guru, Kec. Bukit, Kabupaten Bener Meriah";"ACEH";"24581";"Indonesia";" 082211449035";"4.7221778";"96.8735184";"https://maps.google.com/?cid=0x0:0x3891e0428892d189"
"cafe";"Kafe";"R.A.N Kopi gayo aceh";"Jl. Cipayung Girang, Cipayung Datar, Kec. Megamendung, Kabupaten Bogor, Jawa Barat 16770";"Cipayung Datar, Kec. Megamendung, Kabupaten Bogor";"ACEH";"16770";"Indonesia";"";"-6.6417521";"106.8705974";"https://maps.google.com/?cid=0x0:0x1c5cb429406a4862"
"cafe";"Kafe";"Kafe";"PV9C+FQQ, Jalan Teritit - Simpang Tiga Redelong Blang Sentang, Uring, Bukit, Bener Meriah Regency, Aceh 24581";"Jalan Teritit - Simpang Tiga Redelong Blang Sentang, Uring, Bukit, Bener Meriah Regency";"ACEH";"24581";"Indonesia";" 082281399967";"4.7187089";"96.8719878";"https://maps.google.com/?cid=0x0:0x17764e747879dc3c"
"cafe";"Kedai Kopi";"WARKOP KANG IWAN";"Jl. Repormasi No.1, Cipayung Datar, Kec. Megamendung, Kabupaten Bogor, Jawa Barat 16770";"Cipayung Datar, Kec. Megamendung, Kabupaten Bogor";"ACEH";"16770";"Indonesia";"";"-6.6369204";"106.8658101";"https://maps.google.com/?cid=0x0:0x494c52f6b0de33b7"
"cafe";"Restoran";"Kedai Bukit Sentul";"Jl. Raya Bojong Koneng, Cijayanti, Kec. Babakan Madang, Kabupaten Bogor, Jawa Barat 16810";"Cijayanti, Kec. Babakan Madang, Kabupaten Bogor";"ACEH";"16810";"Indonesia";" 081287637754";"-6.6183354";"106.8984877";"https://maps.google.com/?cid=0x0:0x38816a276fa20434"
"cafe";"Kafe";"Bukit Cafe  Cloth";"Jl. Bukit Indah No.7 Blok A7, Serua, Kec. Ciputat, Kota Tangerang Selatan, Banten 15414";"Serua, Kec. Ciputat, Kota Tangerang Selatan";"ACEH";"15414";"Indonesia";" 081311113195";"-6.3173782";"106.7153997";"https://maps.google.com/?cid=0x0:0x3f5a9e73f43f95ac"
"cafe";"Kedai Kopi";"Waroeng Bukit";"Jl. Oasis Hills No.6, Sukaluyu, Kec. Tamansari, Kabupaten Bogor, Jawa Barat 16610";"Sukaluyu, Kec. Tamansari, Kabupaten Bogor";"ACEH";"16610";"Indonesia";" 085891768280";"-6.6374811";"106.7466838";"https://maps.google.com/?cid=0x0:0xfc6d8ed404989e99"
"cafe";"Kafe";"Bukit Senja Cafe";"Tugu Utara, Kec. Cisarua, Kabupaten Bogor, Jawa Barat 16750";"Kec. Cisarua, Kabupaten Bogor";"ACEH";"16750";"Indonesia";" 081928822789";"-6.6932573";"106.9761444";"https://maps.google.com/?cid=0x0:0x93dcc6b16fdcb01f"
"cafe";"Vila";"Villa Bukit Cafe";"Jl. Lalapenta, Pabuaran, Kec. Sukamakmur, Kabupaten Bogor, Jawa Barat 16830";"Pabuaran, Kec. Sukamakmur, Kabupaten Bogor";"ACEH";"16830";"Indonesia";" 081389011010";"-6.5608929";"106.9575603";"https://maps.google.com/?cid=0x0:0xe9b9da21dfbf5f09"
"cafe";"Restoran";"New View Bukit Pelangi";"Jl. Bukit Pelangi No.2, Gn. Geulis, Kec. Sukaraja, Kabupaten Bogor, Jawa Barat 16710";"Gn. Geulis, Kec. Sukaraja, Kabupaten Bogor";"ACEH";"16710";"Indonesia";"";"-6.6311462";"106.8839045";"https://maps.google.com/?cid=0x0:0x8dd8e0aaea5666bd"
"cafe";"Kafe";"Bukit Pelangi Cafe";"Jl. Bukit Pelangi, Gn. Geulis, Kec. Sukaraja, Kabupaten Bogor, Jawa Barat 16770";"Gn. Geulis, Kec. Sukaraja, Kabupaten Bogor";"ACEH";"16770";"Indonesia";" 083891631978";"-6.6394327";"106.8732271";"https://maps.google.com/?cid=0x0:0x4a562f91e96c656e"
"cafe";"Kafe";"Bukit Sepuluh";"FQ4M+63C S5-22, Jl. Bukit Cimanggu City Raya, Sukadamai, Tanah Sereal, Bogor City, West Java 16166";"Jl. Bukit Cimanggu City Raya, Sukadamai, Tanah Sereal, Bogor City";"ACEH";"16166";"Indonesia";"";"-6.5444341";"106.7826283";"https://maps.google.com/?cid=0x0:0x85eb0b42a674b871"
"cafe";"Kedai Kopi";"Ane Coffee";"Jl. Raya Bireuen - Takengon, Lampahan Bar., Kec. Timang Gajah, Kabupaten Bener Meriah, Aceh 24571";"Lampahan Bar., Kec. Timang Gajah, Kabupaten Bener Meriah";"ACEH";"24571";"Indonesia";"";"4.7583927";"96.7619341";"https://maps.google.com/?cid=0x0:0x4e3dcbaba0ef6042"
"cafe";"cafe";"Kec. Gajah Putih";"Kabupaten Bener Meriah, Aceh";"Kabupaten Bener Meriah, Aceh";"ACEH";"";"Indonesia";"";"4.8103413";"96.7371594";"https://maps.google.com/?cid=0x0:0xc34ec80407ef00cb"
"cafe";"Kafe";"Teras Cafe";"RP8Q+6PG, RONGA-RONGA, Gajah Putih, Kec. Gajah Putih, Kabupaten Bener Meriah, Aceh 24571";"RONGA-RONGA, Gajah Putih, Kec. Gajah Putih, Kabupaten Bener Meriah";"ACEH";"24571";"Indonesia";" 085362966502";"4.8155508";"96.7393153";"https://maps.google.com/?cid=0x0:0x6e8149b17531f717"
"cafe";"Kafe";"G - ONE coffee roastery";"Jl. Raya Bireuen - Takengon, Reronga, Kec. Gajah Putih, Kabupaten Bener Meriah, Aceh 24571";"Reronga, Kec. Gajah Putih, Kabupaten Bener Meriah";"ACEH";"24571";"Indonesia";" 085835456593";"4.8158636";"96.7390349";"https://maps.google.com/?cid=0x0:0x3a458f45a92a464c"
"cafe";"Kedai Kopi";"Bener Meriah Coffee";"QPFQ+8MR, Simpang Layang, Kec. Timang Gajah, Kabupaten Bener Meriah, Aceh 24553";"Simpang Layang, Kec. Timang Gajah, Kabupaten Bener Meriah";"ACEH";"24553";"Indonesia";" 085360615001";"4.7733615";"96.7391372";"https://maps.google.com/?cid=0x0:0xc64cd42e958e5c90"
"cafe";"Restoran";"DC Kuphi";"RP7Q+WHG, Jl. Raya Bireuen - Takengon, Reronga, Kec. Gajah Putih, Kabupaten Bener Meriah, Aceh 24571";"Jl. Raya Bireuen - Takengon, Reronga, Kec. Gajah Putih, Kabupaten Bener Meriah";"ACEH";"24571";"Indonesia";" 085292969774";"4.8148023";"96.7389512";"https://maps.google.com/?cid=0x0:0xf494a298044769f9"
"cafe";"Kafe";"CAFETARIA GAJAH PUTIH";"HRV5+8WW, Jl. Universitas Gajah Putih Takengon, Simpang Kelaping, Kec. Pegasing, Kabupaten Aceh Tengah, Aceh 24552";"Jl. Universitas Gajah Putih Takengon, Simpang Kelaping, Kec. Pegasing, Kabupaten Aceh Tengah";"ACEH";"24552";"Indonesia";"";"4.5933533";"96.8098179";"https://maps.google.com/?cid=0x0:0xd5483c1a0d1cabe4"
"cafe";"Kedai Kopi";"Durian gajah putih";"RP5Q+35M, Timang Gajah, Kec. Gajah Putih, Kabupaten Bener Meriah, Aceh 24571";"Timang Gajah, Kec. Gajah Putih, Kabupaten Bener Meriah";"ACEH";"24571";"Indonesia";"";"4.8074903";"96.7382066";"https://maps.google.com/?cid=0x0:0x41c8f50dc9779bc"
"cafe";"Kafe";"Cafe Hitam Putih";"JRFM+XH6, Jl. Terminal Paya Ilang, Blang Kolak II, Kec. Bebesen, Kabupaten Aceh Tengah, Aceh 24471";"Jl. Terminal Paya Ilang, Blang Kolak II, Kec. Bebesen, Kabupaten Aceh Tengah";"ACEH";"24471";"Indonesia";" 085370323057";"4.6249111";"96.8338854";"https://maps.google.com/?cid=0x0:0xc096319ad8eec252"
"cafe";"Kafe";"Villa Blok C Coffee";"PQWF+95H, Jl. Raya Bireuen - Takengon, Mude Benara, Kec. Timang Gajah, Kabupaten Bener Meriah, Aceh 24571";"Jl. Raya Bireuen - Takengon, Mude Benara, Kec. Timang Gajah, Kabupaten Bener Meriah";"ACEH";"24571";"Indonesia";" 081265920302";"4.7459306";"96.7729953";"https://maps.google.com/?cid=0x0:0x800bda72c605235a"
"cafe";"Kedai Kopi";"Cafe KEDAI KOPI";"Komplek pasar, Lampahan, Kec. Timang Gajah, Kabupaten Bener Meriah, Aceh 24553";"Lampahan, Kec. Timang Gajah, Kabupaten Bener Meriah";"ACEH";"24553";"Indonesia";" 085371377170";"4.7587801";"96.7642792";"https://maps.google.com/?cid=0x0:0xc662645d3b171a6e"
"cafe";"Kedai Kopi";"Estrella cafe ( coffeeshop )";"Lampahan, Kec. Timang Gajah, Kabupaten Bener Meriah, Aceh";"Kabupaten Bener Meriah, Aceh";"ACEH";"";"Indonesia";" 082235792234";"4.7580454";"96.7632795";"https://maps.google.com/?cid=0x0:0x615f62dbc653bcac"
"cafe";"Kedai Kopi";"Warung Putra Balker";"QPVM+X8X, Setie, Kec. Timang Gajah, Kabupaten Bener Meriah, Aceh 24571";"Setie, Kec. Timang Gajah, Kabupaten Bener Meriah";"ACEH";"24571";"Indonesia";"";"4.7949923";"96.7333716";"https://maps.google.com/?cid=0x0:0xa95bc8af11fd28e3"
"cafe";"Kafe";"Redje Kupi Roastery";"Jl. Merapi No.344, Lampahan, Kec. Timang Gajah, Kabupaten Bener Meriah, Aceh 24553";"Lampahan, Kec. Timang Gajah, Kabupaten Bener Meriah";"ACEH";"24553";"Indonesia";" 082320429484";"4.759652";"96.7681159";"https://maps.google.com/?cid=0x0:0x4d0aec4d7f107159"
"cafe";"cafe";"Kec. Mesidah";"Kabupaten Bener Meriah, Aceh";"Kabupaten Bener Meriah, Aceh";"ACEH";"";"Indonesia";"";"4.7627916";"97.0109687";"https://maps.google.com/?cid=0x0:0xdf564a5272d2d37b"
"cafe";"Kafe";"Madiha Coffee";"QW45+GCH, Jl.Sejahtera , Dusun Sepakat, Desa Simpang Utama, Kec :, Mutiara, Kec. Bandar, Kabupaten Bener Meriah, Aceh 24582";"Jl.Sejahtera , Dusun Sepakat, Desa Simpang Utama, Kec :, Mutiara, Kec. Bandar, Kabupaten Bener Meriah";"ACEH";"24582";"Indonesia";" 085326622097";"4.7563093";"96.9085977";"https://maps.google.com/?cid=0x0:0xa6324cf991464beb"
"cafe";"Perkebunan Pohon";"perkebunan kopi";"P2RC+C9F, Gn. Sayang, Kec. Mesidah, Kabupaten Bener Meriah, Aceh 24582";"Gn. Sayang, Kec. Mesidah, Kabupaten Bener Meriah";"ACEH";"24582";"Indonesia";"";"4.741074";"97.0209077";"https://maps.google.com/?cid=0x0:0xdf531550aff5dd46"
"cafe";"Grosir Kopi";"Baizan CafeCoffeeshop";"Jalan Takengon Jl. Pd. Baru, Reje Guru, Kec. Bukit, Kabupaten Bener Meriah, Aceh 24581";"Reje Guru, Kec. Bukit, Kabupaten Bener Meriah";"ACEH";"24581";"Indonesia";" 082211449035";"4.7221778";"96.8735184";"https://maps.google.com/?cid=0x0:0x3891e0428892d189"
"cafe";"Kafe";"MDC Coffee House";"Karang Rejo, Kec. Bukit, Kabupaten Bener Meriah, Aceh 24582";"Kec. Bukit, Kabupaten Bener Meriah";"ACEH";"24582";"Indonesia";"";"4.7189623";"96.8386821";"https://maps.google.com/?cid=0x0:0xce14d72d7c9a7741"
"cafe";"Kafe";"Story";"PWXM+VFX, Jadi Sepakat, Kec. Bandar, Kabupaten Bener Meriah, Aceh 24582";"Jadi Sepakat, Kec. Bandar, Kabupaten Bener Meriah";"ACEH";"24582";"Indonesia";"";"4.7497423";"96.9337485";"https://maps.google.com/?cid=0x0:0x6508d086d8b0444d"
"cafe";"Toko kopi";"arha coffee";"PWRW+FV8, Petukel Blang Jorong, Kec. Bandar, Kabupaten Bener Meriah, Aceh 24582";"Petukel Blang Jorong, Kec. Bandar, Kabupaten Bener Meriah";"ACEH";"24582";"Indonesia";" 081361781367";"4.7411619";"96.9471936";"https://maps.google.com/?cid=0x0:0x533070c4c2ac8789"
"cafe";"Kafe";"Redsoldadu coffee";"PRFH+C9, Wonosobo, Kec. Wih Pesam, Kabupaten Bener Meriah, Aceh 24471";"Wonosobo, Kec. Wih Pesam, Kabupaten Bener Meriah";"ACEH";"24471";"Indonesia";"";"4.7235968";"96.828411";"https://maps.google.com/?cid=0x0:0xc596bda5e2726ade"
"cafe";"Bar Kopi Espresso";"Zukardi Kopi gayo";"PWCW+XF4, Tansaran Bidin, Kec. Bandar, Kabupaten Bener Meriah, Aceh 24582";"Tansaran Bidin, Kec. Bandar, Kabupaten Bener Meriah";"ACEH";"24582";"Indonesia";" 081289084255";"4.7223857";"96.9461945";"https://maps.google.com/?cid=0x0:0xbd8589bdc1e1ff45"
"cafe";"Kedai Kopi";"MD Coffee Shop";"QQ64+84J, Jl. Raya Bireuen - Takengon, Mekar Ayu, Kec. Timang Gajah, Kabupaten Bener Meriah, Aceh 24571";"Jl. Raya Bireuen - Takengon, Mekar Ayu, Kec. Timang Gajah, Kabupaten Bener Meriah";"ACEH";"24571";"Indonesia";" 082162558822";"4.7608292";"96.7552778";"https://maps.google.com/?cid=0x0:0x1631eb26bd3dce5e"
"cafe";"Kafe";"Mija cofe";"QW85+PGP, Jongok Meluem, Kec. Bener Kelipah, Kabupaten Bener Meriah, Aceh 24582";"Jongok Meluem, Kec. Bener Kelipah, Kabupaten Bener Meriah";"ACEH";"24582";"Indonesia";"";"4.7668319";"96.9088296";"https://maps.google.com/?cid=0x0:0x1f5389229c539561"
"cafe";"Kafe";"Lisma Coffee";"Tingkem Bersatu, Kec. Bukit, Kabupaten Bener Meriah, Aceh 24582";"Kec. Bukit, Kabupaten Bener Meriah";"ACEH";"24582";"Indonesia";"";"4.7074972";"96.8694769";"https://maps.google.com/?cid=0x0:0xdb9e8fc6cfe6f252"
"cafe";"Sarapan";"warung sudi mampir KAK CUT";"PWRW+MPR, Unnamed Road, Petukel Blang Jorong, Kec. Bandar, Kabupaten Bener Meriah, Aceh 24582";"Unnamed Road, Petukel Blang Jorong, Kec. Bandar, Kabupaten Bener Meriah";"ACEH";"24582";"Indonesia";" 085280448828";"4.7417277";"96.9467507";"https://maps.google.com/?cid=0x0:0x5c02a6fc7a0baed"
"cafe";"Dapur Umum";"Warung mak anwar";"Q276+7R6, Jamur Atu, Kec. Mesidah, Kabupaten Bener Meriah, Aceh 24582";"Jamur Atu, Kec. Mesidah, Kabupaten Bener Meriah";"ACEH";"24582";"Indonesia";"";"4.7634188";"97.0116018";"https://maps.google.com/?cid=0x0:0x430cd7d5129b06e4"
"cafe";"Kedai Kopi";"Natural Permata Kopi";"RWC8+QWC, Gelampang, Kec. Permata, Kabupaten Bener Meriah, Aceh 24582";"Gelampang, Kec. Permata, Kabupaten Bener Meriah";"ACEH";"24582";"Indonesia";" 082360486916";"4.821944";"96.9172579";"https://maps.google.com/?cid=0x0:0xa3a5db569355e11c"
"cafe";"cafe";"Aceh 24582";"Kabupaten Bener Meriah, Aceh";"Kabupaten Bener Meriah, Aceh";"ACEH";"";"Indonesia";"";"4.733267";"97.0498442";"https://maps.google.com/?cid=0x0:0x24377db9b3ac434d"
"cafe";"Kedai Kopi";"Permata Kopi";"G9PF+7CQ, Cot Cut, Kec. Kuta Baro, Kabupaten Aceh Besar, Aceh 24412";"Cot Cut, Kec. Kuta Baro, Kabupaten Aceh Besar";"ACEH";"24412";"Indonesia";"";"5.5357024";"95.3737076";"https://maps.google.com/?cid=0x0:0x100c3009bebc3c25"
"cafe";"Kafetaria";"Ayu Ara Permata";"QXX3+VH9, Pantan Tengah Jaya, Kec. Permata, Kabupaten Bener Meriah, Aceh 24582";"Pantan Tengah Jaya, Kec. Permata, Kabupaten Bener Meriah";"ACEH";"24582";"Indonesia";"";"4.7996627";"96.953995";"https://maps.google.com/?cid=0x0:0xba947aba9e2460f5"
"cafe";"Kedai Kopi";"BUNTUL Coffee Arabika";"Gelampang, Kec. Permata, Kabupaten Bener Meriah, Aceh 24582";"Kec. Permata, Kabupaten Bener Meriah";"ACEH";"24582";"Indonesia";"";"4.8185665";"96.9139298";"https://maps.google.com/?cid=0x0:0xa8d2d95ed1bee32f"
"cafe";"Kafe";"Nayla roastery";"RWC8+JCQ, Gelampang, Kec. Permata, Kabupaten Bener Meriah, Aceh 24582";"Gelampang, Kec. Permata, Kabupaten Bener Meriah";"ACEH";"24582";"Indonesia";"";"4.821521";"96.9160954";"https://maps.google.com/?cid=0x0:0xf77f43774bf57a93"
"cafe";"Kafe";"Kawa cafe";"QWM5+JXJ, Jl. KKA, Bener Pepanyi, Kec. Permata, Kabupaten Bener Meriah, Aceh 24582";"Jl. KKA, Bener Pepanyi, Kec. Permata, Kabupaten Bener Meriah";"ACEH";"24582";"Indonesia";"";"4.7840957";"96.9098874";"https://maps.google.com/?cid=0x0:0xee1f3caf0f1b524d"
"cafe";"Restoran";"Warung Mie Guci";"VW24+JFW, Burni Pase, Kec. Permata, Kabupaten Bener Meriah, Aceh 24394";"Burni Pase, Kec. Permata, Kabupaten Bener Meriah";"ACEH";"24394";"Indonesia";"";"4.8516077";"96.9061889";"https://maps.google.com/?cid=0x0:0xfbea9b8b87f3893c"
"cafe";"Kedai Kopi";"Kopi Tarek";"Lampaseh Aceh, Kec. Meuraxa, Kota Banda Aceh, Aceh";"Kota Banda Aceh, Aceh";"ACEH";"";"Indonesia";" 081260838198";"5.5614591";"95.3042011";"https://maps.google.com/?cid=0x0:0x505aa2db3fdface7"
"cafe";"Kafe";"42 Cafehouse";"Jl. Todak No.42, Bandar Baru, Kec. Kuta Alam, Kota Banda Aceh, Aceh 23126";"Bandar Baru, Kec. Kuta Alam, Kota Banda Aceh";"ACEH";"23126";"Indonesia";" 082122831282";"5.5648314";"95.3333135";"https://maps.google.com/?cid=0x0:0x6acda266db623d47"
"cafe";"Kafe";"BENU COFFEE ROASTER BANDA BATOH";"Jl. AMD No.1, RW.2, Peunyeurat, Kec. Banda Raya, Kota Banda Aceh, Aceh 23245";"RW.2, Peunyeurat, Kec. Banda Raya, Kota Banda Aceh";"ACEH";"23245";"Indonesia";"";"5.5325572";"95.3273797";"https://maps.google.com/?cid=0x0:0x15187b4bd8804f1b"
"cafe";"Kedai Kopi";"BTJ KUPI";"Belakang kejaksaan tinggi aceh, Lampeuneurut Gampong, Kabupaten Aceh Besar, Aceh";"Kabupaten Aceh Besar, Aceh";"ACEH";"";"Indonesia";" 085275511301";"5.5223855";"95.3279049";"https://maps.google.com/?cid=0x0:0xec4f6c34266f4de7"
"cafe";"Bar";"Kaffe permata indah.RAMES";"GQPV+94F, Jl. Takengon - Blangkejeren II, Lelumu, Kec. Pegasing, Kabupaten Aceh Tengah, Aceh 24561";"Jl. Takengon - Blangkejeren II, Lelumu, Kec. Pegasing, Kabupaten Aceh Tengah";"ACEH";"24561";"Indonesia";"";"4.5359343";"96.7927919";"https://maps.google.com/?cid=0x0:0x333eb595b0f48e6"
"cafe";"Kedai Kopi";"CIRCLE CAFE";"Jl. Gabus, Bandar Baru, Lampriet, Kota Banda Aceh, Aceh 23123";"Bandar Baru, Lampriet, Kota Banda Aceh";"ACEH";"23123";"Indonesia";" 085218000493";"5.5653058";"95.3355904";"https://maps.google.com/?cid=0x0:0xfb8a3c7e6c74e18c"
"cafe";"Kedai Kopi";"SIMPANG LANCANG";"VP6W+7Q, Simpang Lancang, Kec. Pintu Rime Gayo, Kabupaten Bener Meriah, Aceh 24571";"Simpang Lancang, Kec. Pintu Rime Gayo, Kabupaten Bener Meriah";"ACEH";"24571";"Indonesia";"";"4.8608108";"96.7459895";"https://maps.google.com/?cid=0x0:0x9bf50b1742731881"
"cafe";"cafe";"Kec. Pintu Rime Gayo";"Kabupaten Bener Meriah, Aceh";"Kabupaten Bener Meriah, Aceh";"ACEH";"";"Indonesia";"";"4.849318";"96.7411267";"https://maps.google.com/?cid=0x0:0x28686d3d13d5dcf5"
"cafe";"Kedai Kopi";"Nuris Coffee";"Blang Rakal, Kec. Pintu Rime Gayo, Kabupaten Bener Meriah, Aceh 24553";"Kec. Pintu Rime Gayo, Kabupaten Bener Meriah";"ACEH";"24553";"Indonesia";" 085805141538";"4.9084804";"96.7341008";"https://maps.google.com/?cid=0x0:0x8cd2ee5816a385aa"
"cafe";"Rumah Makan";"Adi Blang Kuyu Cafe";"Jl. Raya Bireuen - Takengon No.KM 36, Negeri Antara, Kec. Pintu Rime Gayo, Kabupaten Bener Meriah, Aceh 24264";"Negeri Antara, Kec. Pintu Rime Gayo, Kabupaten Bener Meriah";"ACEH";"24264";"Indonesia";" 085275851853";"4.9555076";"96.702215";"https://maps.google.com/?cid=0x0:0xf68deb780ab163e4"
"cafe";"Kedai Kopi";"Pojok Yellow Km60";"RPMV+WFH, Rime Raya, Kec. Pintu Rime Gayo, Kabupaten Bener Meriah, Aceh 24571";"Rime Raya, Kec. Pintu Rime Gayo, Kabupaten Bener Meriah";"ACEH";"24571";"Indonesia";"";"4.8348168";"96.7437448";"https://maps.google.com/?cid=0x0:0x8372d02b0f8d149d"
"cafe";"Rumah Makan";"Abcoffee";"RPXQ+4W2, Singah Mulo, Kec. Pintu Rime Gayo, Kabupaten Bener Meriah, Aceh 24571";"Singah Mulo, Kec. Pintu Rime Gayo, Kabupaten Bener Meriah";"ACEH";"24571";"Indonesia";" 082165050002";"4.8477591";"96.739764";"https://maps.google.com/?cid=0x0:0x6e036a50d74ab864"
"cafe";"Tujuan Wisata";"KEBER PINTU RIME GAYO";"Negeri Antara, Kec. Pintu Rime Gayo, Kabupaten Bener Meriah, Aceh 24571";"Kec. Pintu Rime Gayo, Kabupaten Bener Meriah";"ACEH";"24571";"Indonesia";" 082231610630";"4.9161325";"96.7327148";"https://maps.google.com/?cid=0x0:0xb3dd33514ceef2b6"
"cafe";"Kedai Kopi";"Ara Coffee shop";"VPGM+2RF, Jl. Raya Bireuen - Takengon, Simpang Lancang, Kec. Pintu Rime Gayo, Kabupaten Bener Meriah, Aceh 24571";"Jl. Raya Bireuen - Takengon, Simpang Lancang, Kec. Pintu Rime Gayo, Kabupaten Bener Meriah";"ACEH";"24571";"Indonesia";" 085260564661";"4.87507";"96.7345487";"https://maps.google.com/?cid=0x0:0x9b5d0b26f58c929b"
"cafe";"Grosir Kopi";"Promontory Coffee";"VQXV+W7H Permainan, Pancar Jelobok, Kec. Pintu Rime Gayo, Kabupaten Bener Meriah, Aceh";"Kabupaten Bener Meriah, Aceh";"ACEH";"";"Indonesia";" 082230739997";"4.8998226";"96.7932314";"https://maps.google.com/?cid=0x0:0x46b92e9447f927d"
"cafe";"Kafe";"Wir coffee";"Jl. Raya Bireuen - Takengon, Negeri Antara, Kec. Pintu Rime Gayo, Kabupaten Bener Meriah, Aceh";"Kabupaten Bener Meriah, Aceh";"ACEH";"";"Indonesia";"";"4.911099";"96.7350695";"https://maps.google.com/?cid=0x0:0x7a571c17a201af9c"
"cafe";"Taman";"Pondok Wisata Pinus";"Jl. Raya Bireuen - Takengon No.KM 42, Negeri Antara, Kec. Pintu Rime Gayo, Kabupaten Bener Meriah, Aceh 24571";"Negeri Antara, Kec. Pintu Rime Gayo, Kabupaten Bener Meriah";"ACEH";"24571";"Indonesia";" 081394110009";"4.9148183";"96.7316057";"https://maps.google.com/?cid=0x0:0xa75e052b401b203"
"cafe";"Padang";"Andi siang malam";"Blang Rakal, Kec. Pintu Rime Gayo, Kabupaten Bener Meriah, Aceh 24571";"Kec. Pintu Rime Gayo, Kabupaten Bener Meriah";"ACEH";"24571";"Indonesia";" 081231704790";"4.9041388";"96.7386946";"https://maps.google.com/?cid=0x0:0x15d979178fad0091"
"cafe";"Kafe";"G - ONE coffee roastery";"Jl. Raya Bireuen - Takengon, Reronga, Kec. Gajah Putih, Kabupaten Bener Meriah, Aceh 24571";"Reronga, Kec. Gajah Putih, Kabupaten Bener Meriah";"ACEH";"24571";"Indonesia";" 085835456593";"4.8158636";"96.7390349";"https://maps.google.com/?cid=0x0:0x3a458f45a92a464c"
"cafe";"Kafe";"Pratamacofferoastery";"WP3Q+FJQ, Jl. Raya Bireuen - Takengon, Blang Rakal, Kec. Pintu Rime Gayo, Kabupaten Bener Meriah, Aceh 24571";"Jl. Raya Bireuen - Takengon, Blang Rakal, Kec. Pintu Rime Gayo, Kabupaten Bener Meriah";"ACEH";"24571";"Indonesia";" 085260346556";"4.9036037";"96.7390263";"https://maps.google.com/?cid=0x0:0xc2d1fb05adcbc6a7"
"cafe";"Kafe";"Roenang Coffee  Eatery";"QW36+Q23 Depan Kantor Camat, Jl. Syiah Utama, Mutiara, Kec. Bandar, Kabupaten Bener Meriah, Aceh 24582";"Jl. Syiah Utama, Mutiara, Kec. Bandar, Kabupaten Bener Meriah";"ACEH";"24582";"Indonesia";" 081325263399";"4.7543892";"96.9100382";"https://maps.google.com/?cid=0x0:0x426392625f003fcd"
"cafe";"Kafe";"BONÈS Coffee Stop  Roastery";"Jl. Ps. Inpres No.241, Puja Mulia, Kec. Bandar, Kabupaten Bener Meriah, Aceh 24582";"Puja Mulia, Kec. Bandar, Kabupaten Bener Meriah";"ACEH";"24582";"Indonesia";" 08128171781";"4.7543041";"96.9158731";"https://maps.google.com/?cid=0x0:0xeeb5d3d8b9257da2"
"cafe";"cafe";"Aceh 24582";"Kabupaten Bener Meriah, Aceh";"Kabupaten Bener Meriah, Aceh";"ACEH";"";"Indonesia";"";"4.733267";"97.0498442";"https://maps.google.com/?cid=0x0:0x24377db9b3ac434d"
"cafe";"Kedai Kopi";"DEPUTROE COFFEE";"Jl. Pondok Baru-Blang Jorong No.98, Tawar Sedenge, Kec. Bandar, Kabupaten Bener Meriah, Aceh 24582";"Tawar Sedenge, Kec. Bandar, Kabupaten Bener Meriah";"ACEH";"24582";"Indonesia";" 08126931751";"4.7512169";"96.9132738";"https://maps.google.com/?cid=0x0:0x2dc1ebdc8e41b56e"
"cafe";"Kedai Kopi";"Mayaco Coffee";"Jl. Syiah Utama, Simpang Utama, Kec. Bandar, Kabupaten Bener Meriah, Aceh 24582";"Simpang Utama, Kec. Bandar, Kabupaten Bener Meriah";"ACEH";"24582";"Indonesia";" 08126956951";"4.7547141";"96.9101628";"https://maps.google.com/?cid=0x0:0x62f2c3a9b4c78023"
"cafe";"Kafe";"Kontco Coffee";"PVG5+XM5, Jl. Bandara Rembele, Burni Telong, Kec. Bukit, Kabupaten Bener Meriah, Aceh 24582";"Jl. Bandara Rembele, Burni Telong, Kec. Bukit, Kabupaten Bener Meriah";"ACEH";"24582";"Indonesia";" 085340569763";"4.7273799";"96.8592202";"https://maps.google.com/?cid=0x0:0x6f845ec1f5d870ce"
"cafe";"Kafe";"Konami Coffee";"Uring, Kec. Bukit, Kabupaten Bener Meriah, Aceh 24582";"Kec. Bukit, Kabupaten Bener Meriah";"ACEH";"24582";"Indonesia";" 08116816157";"4.7190557";"96.8671036";"https://maps.google.com/?cid=0x0:0x3bfcd7efbf9441f2"
"cafe";"Kafe";"roman kopi gayo";"makmur sentosa, jl takengon Jl. Pd. Baru, Pd. Baru, Aceh 24582";"jl takengon Jl. Pd. Baru, Pd. Baru";"ACEH";"24582";"Indonesia";" 081375746943";"4.7518781";"96.9031943";"https://maps.google.com/?cid=0x0:0x292025f343386d8e"
"cafe";"Kafe";"Kinico Coffee Shop";"PWX7+G6F, Tawar Sedenge, Kec. Bandar, Kabupaten Bener Meriah, Aceh 24582";"Tawar Sedenge, Kec. Bandar, Kabupaten Bener Meriah";"ACEH";"24582";"Indonesia";" 082285169505";"4.7488152";"96.9130606";"https://maps.google.com/?cid=0x0:0x5a33c1a68839a426"
"cafe";"Kafe";"Fx Coffee";"Jl. Pd. Baru, Simpang Utama, Kec. Bandar, Kabupaten Bener Meriah, Aceh 24582";"Simpang Utama, Kec. Bandar, Kabupaten Bener Meriah";"ACEH";"24582";"Indonesia";"";"4.7526495";"96.9057484";"https://maps.google.com/?cid=0x0:0xb984dd304cbd0fb3"
"cafe";"Kafe";"Keyntes Cofee Shop";"QW35+FC8, Simpang Utama, Kec. Bandar, Kabupaten Bener Meriah, Aceh 24582";"Simpang Utama, Kec. Bandar, Kabupaten Bener Meriah";"ACEH";"24582";"Indonesia";" 085270585910";"4.7536612";"96.9085668";"https://maps.google.com/?cid=0x0:0x5eb1442ec6cae9df"
"cafe";"Kedai Kopi";"BUNTUL Coffee Arabika";"Gelampang, Kec. Permata, Kabupaten Bener Meriah, Aceh 24582";"Kec. Permata, Kabupaten Bener Meriah";"ACEH";"24582";"Indonesia";"";"4.8185665";"96.9139298";"https://maps.google.com/?cid=0x0:0xa8d2d95ed1bee32f"
"cafe";"Kedai Kopi";"Vakem Coffe Shop";"Puja Mulia, Kec. Bandar, Kabupaten Bener Meriah, Aceh 24582";"Kec. Bandar, Kabupaten Bener Meriah";"ACEH";"24582";"Indonesia";" 085262716295";"4.7534399";"96.9130637";"https://maps.google.com/?cid=0x0:0xf737db809bacf89"
"cafe";"Kedai Kopi";"Hey Beans Coffee";"QW37+M32, Pd. Baru, Kec. Bandar, Kabupaten Bener Meriah, Aceh 24582";"Pd. Baru, Kec. Bandar, Kabupaten Bener Meriah";"ACEH";"24582";"Indonesia";" 082370720265";"4.7541304";"96.9126538";"https://maps.google.com/?cid=0x0:0xd8c24ad55affcfca"
"cafe";"Kedai Kopi";"Ane Coffee";"Jl. Raya Bireuen - Takengon, Lampahan Bar., Kec. Timang Gajah, Kabupaten Bener Meriah, Aceh 24571";"Lampahan Bar., Kec. Timang Gajah, Kabupaten Bener Meriah";"ACEH";"24571";"Indonesia";"";"4.7583927";"96.7619341";"https://maps.google.com/?cid=0x0:0x4e3dcbaba0ef6042"
"cafe";"Kafe";"Caffee19 resto cafe Damaran baru";"Caffee19, Damaran Baru, Kec. Timang Gajah, Kabupaten Bener Meriah, Aceh 24555";"Damaran Baru, Kec. Timang Gajah, Kabupaten Bener Meriah";"ACEH";"24555";"Indonesia";" 082277012199";"4.7403516";"96.7793656";"https://maps.google.com/?cid=0x0:0x85594b59290e4af9"
"cafe";"cafe";"Kec. Timang Gajah";"Kabupaten Bener Meriah, Aceh";"Kabupaten Bener Meriah, Aceh";"ACEH";"";"Indonesia";"";"4.7581426";"96.76263";"https://maps.google.com/?cid=0x0:0x64723af8a148d625"
"cafe";"Kedai Kopi";"Bener Meriah Coffee";"QPFQ+8MR, Simpang Layang, Kec. Timang Gajah, Kabupaten Bener Meriah, Aceh 24553";"Simpang Layang, Kec. Timang Gajah, Kabupaten Bener Meriah";"ACEH";"24553";"Indonesia";" 085360615001";"4.7733615";"96.7391372";"https://maps.google.com/?cid=0x0:0xc64cd42e958e5c90"
"cafe";"Kafe";"Entan CAFE";"PQRH+VGF, Unnamed Road, Bandar Lampahan, Timang Gajah, Bener Meriah Regency, Aceh 24561";"Unnamed Road, Bandar Lampahan, Timang Gajah, Bener Meriah Regency";"ACEH";"24561";"Indonesia";" 082274513026";"4.7421949";"96.7787999";"https://maps.google.com/?cid=0x0:0x3e9af692ea6476ab"
"cafe";"Kafe";"Sele Kupi Gayo Wak Ali";"Mekar Ayu, Kec. Timang Gajah, Kabupaten Bener Meriah, Aceh 24571";"Kec. Timang Gajah, Kabupaten Bener Meriah";"ACEH";"24571";"Indonesia";" 082366135504";"4.7618151";"96.7532588";"https://maps.google.com/?cid=0x0:0x2e747c5c4bd2e941"
"cafe";"Kedai Kopi";"Cafe KEDAI KOPI";"Komplek pasar, Lampahan, Kec. Timang Gajah, Kabupaten Bener Meriah, Aceh 24553";"Lampahan, Kec. Timang Gajah, Kabupaten Bener Meriah";"ACEH";"24553";"Indonesia";" 085371377170";"4.7587801";"96.7642792";"https://maps.google.com/?cid=0x0:0xc662645d3b171a6e"
"cafe";"Kedai Kopi";"Jogja riuni coffee";"QQ56+H8P, Lampahan Bar., Kec. Timang Gajah, Kabupaten Bener Meriah, Aceh 24571";"Lampahan Bar., Kec. Timang Gajah, Kabupaten Bener Meriah";"ACEH";"24571";"Indonesia";" 082215256790";"4.7589723";"96.7608145";"https://maps.google.com/?cid=0x0:0x2f20c6aabfdf75f4"
"cafe";"Kafe";"Redje Kupi Roastery";"Jl. Merapi No.344, Lampahan, Kec. Timang Gajah, Kabupaten Bener Meriah, Aceh 24553";"Lampahan, Kec. Timang Gajah, Kabupaten Bener Meriah";"ACEH";"24553";"Indonesia";" 082320429484";"4.759652";"96.7681159";"https://maps.google.com/?cid=0x0:0x4d0aec4d7f107159"
"cafe";"Kafe";"WARUNG POJOK 77";"QQ3C+PJF, Karang Jadi, Kec. Timang Gajah, Kabupaten Bener Meriah, Aceh 24571";"Karang Jadi, Kec. Timang Gajah, Kabupaten Bener Meriah";"ACEH";"24571";"Indonesia";" 085260640636";"4.7543084";"96.7708956";"https://maps.google.com/?cid=0x0:0xb59e2bd918969634"
"cafe";"Kafe";"Villa Blok C Coffee";"PQWF+95H, Jl. Raya Bireuen - Takengon, Mude Benara, Kec. Timang Gajah, Kabupaten Bener Meriah, Aceh 24571";"Jl. Raya Bireuen - Takengon, Mude Benara, Kec. Timang Gajah, Kabupaten Bener Meriah";"ACEH";"24571";"Indonesia";" 081265920302";"4.7459306";"96.7729953";"https://maps.google.com/?cid=0x0:0x800bda72c605235a"
"cafe";"Bakso";"Warkop Juned";"QQ49+V7J, Lampahan Tim., Kec. Timang Gajah, Kabupaten Bener Meriah, Aceh 24571";"Lampahan Tim., Kec. Timang Gajah, Kabupaten Bener Meriah";"ACEH";"24571";"Indonesia";"";"4.7572147";"96.7681523";"https://maps.google.com/?cid=0x0:0x3fb335c60b591f23"
"cafe";"Sarapan";"Belangi Gayo Coffee Lampahan";"QQ57+6W7, Jl. Raya Bireuen - Takengon, Lampahan, Kec. Timang Gajah, Kabupaten Bener Meriah, Aceh 24571";"Jl. Raya Bireuen - Takengon, Lampahan, Kec. Timang Gajah, Kabupaten Bener Meriah";"ACEH";"24571";"Indonesia";" 085321154843";"4.7580346";"96.7648046";"https://maps.google.com/?cid=0x0:0xdd946b0ca6c55b7"
"cafe";"Kafe";"Rerampe Coffee Shop";"Mude Benara, Kec. Timang Gajah, Kabupaten Bener Meriah, Aceh 24571";"Kec. Timang Gajah, Kabupaten Bener Meriah";"ACEH";"24571";"Indonesia";" 082364638034";"4.7493886";"96.7698936";"https://maps.google.com/?cid=0x0:0xb2f076ef9d2af659"
"cafe";"Restoran";"Cafe DHELA";"PQGX+VQG, Simpang Balek, Kec. Wih Pesam, Kabupaten Bener Meriah, Aceh 24471";"Simpang Balek, Kec. Wih Pesam, Kabupaten Bener Meriah";"ACEH";"24471";"Indonesia";" 085359229155";"4.7271479";"96.7994397";"https://maps.google.com/?cid=0x0:0x9604a73dd9a95b58"
"cafe";"Kedai Kopi";"bescam caffe";"PR2G+3JG, Sukarame Atas, Kec. Wih Pesam, Kabupaten Bener Meriah, Aceh 24471";"Sukarame Atas, Kec. Wih Pesam, Kabupaten Bener Meriah";"ACEH";"24471";"Indonesia";" 082297860317";"4.7001771";"96.8265897";"https://maps.google.com/?cid=0x0:0x5258d5b3e130b54e"
"cafe";"Grosir Kopi";"Baizan CafeCoffeeshop";"Jalan Takengon Jl. Pd. Baru, Reje Guru, Kec. Bukit, Kabupaten Bener Meriah, Aceh 24581";"Reje Guru, Kec. Bukit, Kabupaten Bener Meriah";"ACEH";"24581";"Indonesia";" 082211449035";"4.7221778";"96.8735184";"https://maps.google.com/?cid=0x0:0x3891e0428892d189"
"cafe";"Kedai Kopi";"Vakem Coffe Shop";"Puja Mulia, Kec. Bandar, Kabupaten Bener Meriah, Aceh 24582";"Kec. Bandar, Kabupaten Bener Meriah";"ACEH";"24582";"Indonesia";" 085262716295";"4.7534399";"96.9130637";"https://maps.google.com/?cid=0x0:0xf737db809bacf89"
"cafe";"Kedai Kopi";"Seladang cafe";"Jl. Raya Bireuen - Takengon, Jamur Ujung, Kec. Wih Pesam, Kabupaten Bener Meriah, Aceh 24471";"Jamur Ujung, Kec. Wih Pesam, Kabupaten Bener Meriah";"ACEH";"24471";"Indonesia";"";"4.7065029";"96.8242532";"https://maps.google.com/?cid=0x0:0x61724fbab4a1b5cb"
"cafe";"Kedai Kopi";"Cafébata";"Hakim Tunggul Naru, Kec. Bukit, Kabupaten Bener Meriah, Aceh 24582";"Kec. Bukit, Kabupaten Bener Meriah";"ACEH";"24582";"Indonesia";" 081269165626";"4.731887";"96.8553409";"https://maps.google.com/?cid=0x0:0x581a6b810462d385"
"cafe";"Toko kopi";"Gemilang Kopi";"PQHP+8HW, Kebun Baru, Kec. Wih Pesam, Kabupaten Bener Meriah, Aceh 24561";"Kebun Baru, Kec. Wih Pesam, Kabupaten Bener Meriah";"ACEH";"24561";"Indonesia";"";"4.7283734";"96.7864656";"https://maps.google.com/?cid=0x0:0x3dc3033a246adf17"
"cafe";"Kafe";"Bindaood Coffee  Roasted";"Jl. Raya Bireuen - Takengon, Pante Raya, Kec. Wih Pesam, Kabupaten Bener Meriah, Aceh 24581";"Pante Raya, Kec. Wih Pesam, Kabupaten Bener Meriah";"ACEH";"24581";"Indonesia";" 082273181827";"4.7240466";"96.8047173";"https://maps.google.com/?cid=0x0:0x4801810fdf1c59b0"
"cafe";"Kafe";"Berghendal Koffie";"MRMM+C25, Simpang Teritit, Kec. Wih Pesam, Kabupaten Bener Meriah, Aceh 24471";"Simpang Teritit, Kec. Wih Pesam, Kabupaten Bener Meriah";"ACEH";"24471";"Indonesia";"";"4.6835085";"96.832619";"https://maps.google.com/?cid=0x0:0x5480a2a6b0bef542"
"cafe";"Kedai Kopi";"Cafe Ujung Bandara";"PRCM+8QR, Jl. Bandara Rembele, Burni Telong, Kec. Bukit, Kabupaten Bener Meriah, Aceh";"Kabupaten Bener Meriah, Aceh";"ACEH";"";"Indonesia";" 082229030340";"4.7208731";"96.8343963";"https://maps.google.com/?cid=0x0:0x57e2d7837eb690bd"
"cafe";"Kafe";"Star Beans Coffe Mobil";"24581, Jl. Raya Bireuen - Takengon, Merie I, Kec. Wih Pesam, Kabupaten Bener Meriah, Aceh 24475";"Jl. Raya Bireuen - Takengon, Merie I, Kec. Wih Pesam, Kabupaten Bener Meriah";"ACEH";"24475";"Indonesia";" 081262432425";"4.6756371";"96.8257192";"https://maps.google.com/?cid=0x0:0xf6082274ebddc057"
"cafe";"Kedai Kopi";"Retnow Cafe";"MRVF+W2, Sukarame Atas, Kec. Wih Pesam, Kabupaten Bener Meriah, Aceh 24471";"Sukarame Atas, Kec. Wih Pesam, Kabupaten Bener Meriah";"ACEH";"24471";"Indonesia";"";"4.6947876";"96.8225818";"https://maps.google.com/?cid=0x0:0x8042c68056c22661"
"cafe";"Kedai Kopi";"TOWN COFFEE - KOPI GAYO";"Jalan Raya Bireuen - Takengon, Pante Raya, Kec. Wih Pesam, Kabupaten Bener Meriah, Aceh 24581";"Pante Raya, Kec. Wih Pesam, Kabupaten Bener Meriah";"ACEH";"24581";"Indonesia";" 0811682286";"4.7261096";"96.802454";"https://maps.google.com/?cid=0x0:0x6cd7b10f1e43bfd8"
"cafe";"Kedai Kopi";"Warkop Cirasa";"PRF4+6QR, Pante Raya, Kec. Wih Pesam, Kabupaten Bener Meriah, Aceh 24471";"Pante Raya, Kec. Wih Pesam, Kabupaten Bener Meriah";"ACEH";"24471";"Indonesia";"";"4.723109";"96.8069013";"https://maps.google.com/?cid=0x0:0x85e41fdc40ba8aa0"
