Category;Real Category;Business Name;Address;City;State;Postal Code;Country;Phone;Latitude;Longitude;Map Link
"toko bangunan";"Toko Bahan Bangunan";"Zahra Bangunan";"Jl. Dr. Mr. Mohd Hasan, Batoh, Kec. Lueng Bata, Kota Banda Aceh, Aceh 23127";"Batoh, Kec. Lueng Bata, Kota Banda Aceh";"ACEH";"23127";"Indonesia";" 085697225016";"5.5425651";"95.3305542";"https://maps.google.com/?cid=0x0:0x9785538145c2ac3"
"toko bangunan";"Toko Bahan Bangunan";"UD. Puga Jaya (Toko Bahan Bangunan Bang Adek)";"H983+87W, Jl. Kebun Raja, Lamgugob, Kec. Syiah Kuala, Kota Banda Aceh, Aceh";"Kota Banda Aceh, Aceh";"ACEH";"";"Indonesia";" 085697225016";"5.5658619";"95.353211";"https://maps.google.com/?cid=0x0:0xc2f7cb214e7565be"
"toko bangunan";"toko bangunan";"Banda Aceh";"Kota Banda Aceh, Aceh";"Kota Banda Aceh, Aceh";"ACEH";"";"Indonesia";"";"5.5482904";"95.3237559";"https://maps.google.com/?cid=0x0:0x3039d80b220cb90"
"toko bangunan";"Toko Bahan Bangunan";"TOKO BESI BINTANG BANGUNAN";"Jl. Pocut Baren No.29, Keuramat, Kec. Kuta Alam, Kota Banda Aceh, Aceh 23126";"Keuramat, Kec. Kuta Alam, Kota Banda Aceh";"ACEH";"23126";"Indonesia";" 081360031288";"5.5617508";"95.3240203";"https://maps.google.com/?cid=0x0:0xa98c67e001462b53"
"toko bangunan";"Toko Bahan Bangunan";"Toko Bangunan SINAR BAHAGIA";"G8R4+G6G, Punge Blang Cut, Kec. Jaya Baru, Kota Banda Aceh, Aceh 23116";"Punge Blang Cut, Kec. Jaya Baru, Kota Banda Aceh";"ACEH";"23116";"Indonesia";" 081374133537";"5.5413144";"95.3055744";"https://maps.google.com/?cid=0x0:0xb118ca7458dd520c"
"toko bangunan";"Toko Bahan Bangunan";"Toko Bangunan Agung Mulia";"H88F+RP8, Jl. Teungku Di Blang, Mulia, Kec. Kuta Alam, Kota Banda Aceh, Aceh";"Kota Banda Aceh, Aceh";"ACEH";"";"Indonesia";" 08154053540";"5.567047";"95.3243291";"https://maps.google.com/?cid=0x0:0xa00ac4c4de2d7614"
"toko bangunan";"Toko Bahan Bangunan";"Toko Bangunan Restu Baru";"Punge Jurong, Kec. Meuraxa, Kota Banda Aceh, Aceh";"Kota Banda Aceh, Aceh";"ACEH";"";"Indonesia";" 085697225016";"5.5505698";"95.3063395";"https://maps.google.com/?cid=0x0:0x19be35fae5e58e08"
"toko bangunan";"Toko Bahan Bangunan";"Baru Tabina";"Jl. WR Supratman, Peunayong, Kec. Kuta Alam, Kota Banda Aceh, Aceh";"Kota Banda Aceh, Aceh";"ACEH";"";"Indonesia";" 081374133537";"5.5605378";"95.3207611";"https://maps.google.com/?cid=0x0:0x29c5a5bbd1da12a2"
"toko bangunan";"Toko Bahan Bangunan";"SOLID BANGUNAN";"G8Q8+63P, Neusu Aceh, Kec. Baiturrahman, Kota Banda Aceh, Aceh 23116";"Neusu Aceh, Kec. Baiturrahman, Kota Banda Aceh";"ACEH";"23116";"Indonesia";"";"5.5380938";"95.3152032";"https://maps.google.com/?cid=0x0:0x5bc4e2747d58ce5"
"toko bangunan";"Toko Bahan Bangunan";"Toko Bangunan Balia";"G8G3+M57, Geuceu Iniem, Kec. Banda Raya, Kota Banda Aceh, Aceh 23232";"Geuceu Iniem, Kec. Banda Raya, Kota Banda Aceh";"ACEH";"23232";"Indonesia";"";"5.5266501";"95.3029277";"https://maps.google.com/?cid=0x0:0xf90c60957a4d309e"
"toko bangunan";"Toko Bahan Bangunan";"toko bangunan TERATAI JAYA";"H9H2+MJ3, Jl. Teuku Nyak Arief, Jeulingke, Kec. Syiah Kuala, Kota Banda Aceh, Aceh 23114";"Jl. Teuku Nyak Arief, Jeulingke, Kec. Syiah Kuala, Kota Banda Aceh";"ACEH";"23114";"Indonesia";"";"5.5791255";"95.3515394";"https://maps.google.com/?cid=0x0:0x1f49c2a470f4d9bd"
"toko bangunan";"Toko Bahan Bangunan";"MULIA ATAP";"H82C+CRC, Peuniti, Kec. Baiturrahman, Kota Banda Aceh, Aceh";"Kota Banda Aceh, Aceh";"ACEH";"";"Indonesia";" 081361112653";"5.55106";"95.322016";"https://maps.google.com/?cid=0x0:0x11b76beab141a595"
"toko bangunan";"Toko Bahan Bangunan";"Toko Bangunan Jambo Akhie";"G8JQ+QVH, Landom, Kec. Lueng Bata, Kota Banda Aceh, Aceh 23122";"Landom, Kec. Lueng Bata, Kota Banda Aceh";"ACEH";"23122";"Indonesia";" 08154053540";"5.5319478";"95.3397414";"https://maps.google.com/?cid=0x0:0x1fbef36a02b6f916"
"toko bangunan";"Toko Bahan Bangunan";"Toko bangunan LANGKAH RASEUKI";"Iemasen Ulee Kareng, Kec. Ulee Kareng, Kota Banda Aceh, Aceh";"Kota Banda Aceh, Aceh";"ACEH";"";"Indonesia";" 085697225016";"5.5537857";"95.3585289";"https://maps.google.com/?cid=0x0:0x7a74ce813294b78b"
"toko bangunan";"toko bangunan";"Banda Aceh";"Kota Banda Aceh, Aceh";"Kota Banda Aceh, Aceh";"ACEH";"";"Indonesia";"";"5.5482904";"95.3237559";"https://maps.google.com/?cid=0x0:0x3039d80b220cb90"
"toko bangunan";"Toko Bahan Bangunan";"Zahra Bangunan";"Jl. Dr. Mr. Mohd Hasan, Batoh, Kec. Lueng Bata, Kota Banda Aceh, Aceh 23127";"Batoh, Kec. Lueng Bata, Kota Banda Aceh";"ACEH";"23127";"Indonesia";" 085697225016";"5.5425651";"95.3305542";"https://maps.google.com/?cid=0x0:0x9785538145c2ac3"
"toko bangunan";"Toko Bahan Bangunan";"UD. Puga Jaya (Toko Bahan Bangunan Bang Adek)";"H983+87W, Jl. Kebun Raja, Lamgugob, Kec. Syiah Kuala, Kota Banda Aceh, Aceh";"Kota Banda Aceh, Aceh";"ACEH";"";"Indonesia";" 085697225016";"5.5658619";"95.353211";"https://maps.google.com/?cid=0x0:0xc2f7cb214e7565be"
"toko bangunan";"Toko Bahan Bangunan";"TOKO BESI BINTANG BANGUNAN";"Jl. Pocut Baren No.29, Keuramat, Kec. Kuta Alam, Kota Banda Aceh, Aceh 23126";"Keuramat, Kec. Kuta Alam, Kota Banda Aceh";"ACEH";"23126";"Indonesia";" 081360031288";"5.5617508";"95.3240203";"https://maps.google.com/?cid=0x0:0xa98c67e001462b53"
"toko bangunan";"Toko Bahan Bangunan";"SOLID BANGUNAN";"G8Q8+63P, Neusu Aceh, Kec. Baiturrahman, Kota Banda Aceh, Aceh 23116";"Neusu Aceh, Kec. Baiturrahman, Kota Banda Aceh";"ACEH";"23116";"Indonesia";" 082279187548";"5.5380938";"95.3152032";"https://maps.google.com/?cid=0x0:0x5bc4e2747d58ce5"
"toko bangunan";"Toko Bahan Bangunan";"Toko Dunia Bangunan. 24 Jam.";"H82H+CVX, Jl. Teuku Imuem Jl. Teuku Chik Di Tiro, Ateuk Pahlawan, Kec. Baiturrahman, Kota Banda Aceh, Aceh 174_175";"Kota Banda Aceh, Aceh";"ACEH";"";"Indonesia";" 085260178145";"5.5511237";"95.3297328";"https://maps.google.com/?cid=0x0:0xc5443108175d2ef2"
"toko bangunan";"Toko Bahan Bangunan";"Baru Tabina";"Jl. WR Supratman, Peunayong, Kec. Kuta Alam, Kota Banda Aceh, Aceh";"Kota Banda Aceh, Aceh";"ACEH";"";"Indonesia";" 081374133537";"5.5605378";"95.3207611";"https://maps.google.com/?cid=0x0:0x29c5a5bbd1da12a2"
"toko bangunan";"Toko Bahan Bangunan";"Toko Bangunan SINAR BAHAGIA";"G8R4+G6G, Punge Blang Cut, Kec. Jaya Baru, Kota Banda Aceh, Aceh 23116";"Punge Blang Cut, Kec. Jaya Baru, Kota Banda Aceh";"ACEH";"23116";"Indonesia";" 081374133537";"5.5413144";"95.3055744";"https://maps.google.com/?cid=0x0:0xb118ca7458dd520c"
"toko bangunan";"Toko Bahan Bangunan";"Toko Bangunan Agung Mulia";"H88F+RP8, Jl. Teungku Di Blang, Mulia, Kec. Kuta Alam, Kota Banda Aceh, Aceh";"Kota Banda Aceh, Aceh";"ACEH";"";"Indonesia";" 08154053540";"5.567047";"95.3243291";"https://maps.google.com/?cid=0x0:0xa00ac4c4de2d7614"
"toko bangunan";"Toko Bahan Bangunan";"Toko Bangunan Restu Baru";"Punge Jurong, Kec. Meuraxa, Kota Banda Aceh, Aceh";"Kota Banda Aceh, Aceh";"ACEH";"";"Indonesia";" 085697225016";"5.5505698";"95.3063395";"https://maps.google.com/?cid=0x0:0x19be35fae5e58e08"
"toko bangunan";"Toko Bahan Bangunan";"toko bangunan TERATAI JAYA";"H9H2+MJ3, Jl. Teuku Nyak Arief, Jeulingke, Kec. Syiah Kuala, Kota Banda Aceh, Aceh 23114";"Jl. Teuku Nyak Arief, Jeulingke, Kec. Syiah Kuala, Kota Banda Aceh";"ACEH";"23114";"Indonesia";"";"5.5791255";"95.3515394";"https://maps.google.com/?cid=0x0:0x1f49c2a470f4d9bd"
"toko bangunan";"Toko Bahan Bangunan";"Toko Bangunan Sahabat Baru";"Jl. Teuku Iskandar No.2, Lamglumpang, Kec. Ulee Kareng, Kota Banda Aceh, Aceh 23127";"Lamglumpang, Kec. Ulee Kareng, Kota Banda Aceh";"ACEH";"23127";"Indonesia";" 082279187548";"5.5497336";"95.3587896";"https://maps.google.com/?cid=0x0:0xed8d0ee3ba9bd01b"
"toko bangunan";"Toko Bahan Bangunan";"Toko Bangunan Jambo Akhie";"G8JQ+QVH, Landom, Kec. Lueng Bata, Kota Banda Aceh, Aceh 23122";"Landom, Kec. Lueng Bata, Kota Banda Aceh";"ACEH";"23122";"Indonesia";" 08154053540";"5.5319478";"95.3397414";"https://maps.google.com/?cid=0x0:0x1fbef36a02b6f916"
"toko bangunan";"Toko Bahan Bangunan";"Toko Bangunan Balia";"G8G3+M57, Geuceu Iniem, Kec. Banda Raya, Kota Banda Aceh, Aceh 23232";"Geuceu Iniem, Kec. Banda Raya, Kota Banda Aceh";"ACEH";"23232";"Indonesia";"";"5.5266501";"95.3029277";"https://maps.google.com/?cid=0x0:0xf90c60957a4d309e"
"toko bangunan";"toko bangunan";"Banda Aceh";"Kota Banda Aceh, Aceh";"Kota Banda Aceh, Aceh";"ACEH";"";"Indonesia";"";"5.5482904";"95.3237559";"https://maps.google.com/?cid=0x0:0x3039d80b220cb90"
"toko bangunan";"Toko Bahan Bangunan";"Zahra Bangunan";"Jl. Dr. Mr. Mohd Hasan, Batoh, Kec. Lueng Bata, Kota Banda Aceh, Aceh 23127";"Batoh, Kec. Lueng Bata, Kota Banda Aceh";"ACEH";"23127";"Indonesia";" 085697225016";"5.5425651";"95.3305542";"https://maps.google.com/?cid=0x0:0x9785538145c2ac3"
"toko bangunan";"Toko Bahan Bangunan";"UD. Puga Jaya (Toko Bahan Bangunan Bang Adek)";"H983+87W, Jl. Kebun Raja, Lamgugob, Kec. Syiah Kuala, Kota Banda Aceh, Aceh";"Kota Banda Aceh, Aceh";"ACEH";"";"Indonesia";" 085697225016";"5.5658619";"95.353211";"https://maps.google.com/?cid=0x0:0xc2f7cb214e7565be"
"toko bangunan";"Toko Bahan Bangunan";"Toko Dunia Bangunan. 24 Jam.";"H82H+CVX, Jl. Teuku Imuem Jl. Teuku Chik Di Tiro, Ateuk Pahlawan, Kec. Baiturrahman, Kota Banda Aceh, Aceh 174_175";"Kota Banda Aceh, Aceh";"ACEH";"";"Indonesia";" 085260178145";"5.5511237";"95.3297328";"https://maps.google.com/?cid=0x0:0xc5443108175d2ef2"
"toko bangunan";"Toko Bahan Bangunan";"Toko Bangunan SINAR BAHAGIA";"G8R4+G6G, Punge Blang Cut, Kec. Jaya Baru, Kota Banda Aceh, Aceh 23116";"Punge Blang Cut, Kec. Jaya Baru, Kota Banda Aceh";"ACEH";"23116";"Indonesia";" 081374133537";"5.5413144";"95.3055744";"https://maps.google.com/?cid=0x0:0xb118ca7458dd520c"
"toko bangunan";"Toko Bahan Bangunan";"Toko Bangunan Restu Baru";"Punge Jurong, Kec. Meuraxa, Kota Banda Aceh, Aceh";"Kota Banda Aceh, Aceh";"ACEH";"";"Indonesia";" 085697225016";"5.5505698";"95.3063395";"https://maps.google.com/?cid=0x0:0x19be35fae5e58e08"
"toko bangunan";"Toko Bahan Bangunan";"Toko Bangunan Jambo Akhie";"G8JQ+QVH, Landom, Kec. Lueng Bata, Kota Banda Aceh, Aceh 23122";"Landom, Kec. Lueng Bata, Kota Banda Aceh";"ACEH";"23122";"Indonesia";" 08154053540";"5.5319478";"95.3397414";"https://maps.google.com/?cid=0x0:0x1fbef36a02b6f916"
"toko bangunan";"Toko Bahan Bangunan";"Toko Mitra Kana";"G8JQ+WMM, Cot Mesjid, Kec. Lueng Bata, Kota Banda Aceh, Aceh 23122";"Cot Mesjid, Kec. Lueng Bata, Kota Banda Aceh";"ACEH";"23122";"Indonesia";" 082186774774";"5.5323276";"95.339161";"https://maps.google.com/?cid=0x0:0x60d05c2e98eb286d"
"toko bangunan";"Toko Bahan Bangunan";"SOLID BANGUNAN";"G8Q8+63P, Neusu Aceh, Kec. Baiturrahman, Kota Banda Aceh, Aceh 23116";"Neusu Aceh, Kec. Baiturrahman, Kota Banda Aceh";"ACEH";"23116";"Indonesia";"";"5.5380938";"95.3152032";"https://maps.google.com/?cid=0x0:0x5bc4e2747d58ce5"
"toko bangunan";"Toko Bahan Bangunan";"Toko bangunan / toko bahan bangunan";"H9J7+PM3, Rukoh, Kec. Syiah Kuala, Kota Banda Aceh, Aceh";"Kota Banda Aceh, Aceh";"ACEH";"";"Indonesia";" 081361112653";"5.581784";"95.3641847";"https://maps.google.com/?cid=0x0:0xca53fca6947362de"
"toko bangunan";"Toko Bahan Bangunan";"toko bangunan TERATAI JAYA";"H9H2+MJ3, Jl. Teuku Nyak Arief, Jeulingke, Kec. Syiah Kuala, Kota Banda Aceh, Aceh 23114";"Jl. Teuku Nyak Arief, Jeulingke, Kec. Syiah Kuala, Kota Banda Aceh";"ACEH";"23114";"Indonesia";"";"5.5791255";"95.3515394";"https://maps.google.com/?cid=0x0:0x1f49c2a470f4d9bd"
"toko bangunan";"Toko Bahan Bangunan";"Toko Bangunan Agung Mulia";"H88F+RP8, Jl. Teungku Di Blang, Mulia, Kec. Kuta Alam, Kota Banda Aceh, Aceh";"Kota Banda Aceh, Aceh";"ACEH";"";"Indonesia";" 08154053540";"5.567047";"95.3243291";"https://maps.google.com/?cid=0x0:0xa00ac4c4de2d7614"
"toko bangunan";"Toko Bahan Bangunan";"Toko bangunan Mitra Saudara";"G8R8+284, Jl. Hasan Saleh, Neusu Aceh, Kec. Baiturrahman, Kota Banda Aceh, Aceh 23116";"Jl. Hasan Saleh, Neusu Aceh, Kec. Baiturrahman, Kota Banda Aceh";"ACEH";"23116";"Indonesia";" 085167599087";"5.540005";"95.3158296";"https://maps.google.com/?cid=0x0:0x1d70d1fa6e2b9fb1"
"toko bangunan";"Toko Bahan Bangunan";"Baru Tabina";"Jl. WR Supratman, Peunayong, Kec. Kuta Alam, Kota Banda Aceh, Aceh";"Kota Banda Aceh, Aceh";"ACEH";"";"Indonesia";" 081374133537";"5.5605378";"95.3207611";"https://maps.google.com/?cid=0x0:0x29c5a5bbd1da12a2"
"toko bangunan";"toko bangunan";"Banda Aceh";"Kota Banda Aceh, Aceh";"Kota Banda Aceh, Aceh";"ACEH";"";"Indonesia";"";"5.5482904";"95.3237559";"https://maps.google.com/?cid=0x0:0x3039d80b220cb90"
"toko bangunan";"Toko Bahan Bangunan";"Zahra Bangunan";"Jl. Dr. Mr. Mohd Hasan, Batoh, Kec. Lueng Bata, Kota Banda Aceh, Aceh 23127";"Batoh, Kec. Lueng Bata, Kota Banda Aceh";"ACEH";"23127";"Indonesia";" 085697225016";"5.5425651";"95.3305542";"https://maps.google.com/?cid=0x0:0x9785538145c2ac3"
"toko bangunan";"Toko Bahan Bangunan";"UD. Puga Jaya (Toko Bahan Bangunan Bang Adek)";"H983+87W, Jl. Kebun Raja, Lamgugob, Kec. Syiah Kuala, Kota Banda Aceh, Aceh";"Kota Banda Aceh, Aceh";"ACEH";"";"Indonesia";" 085697225016";"5.5658619";"95.353211";"https://maps.google.com/?cid=0x0:0xc2f7cb214e7565be"
"toko bangunan";"Toko Bahan Bangunan";"TOKO BESI BINTANG BANGUNAN";"Jl. Pocut Baren No.29, Keuramat, Kec. Kuta Alam, Kota Banda Aceh, Aceh 23126";"Keuramat, Kec. Kuta Alam, Kota Banda Aceh";"ACEH";"23126";"Indonesia";" 081360031288";"5.5617508";"95.3240203";"https://maps.google.com/?cid=0x0:0xa98c67e001462b53"
"toko bangunan";"Toko Bahan Bangunan";"Toko Bangunan SINAR BAHAGIA";"G8R4+G6G, Punge Blang Cut, Kec. Jaya Baru, Kota Banda Aceh, Aceh 23116";"Punge Blang Cut, Kec. Jaya Baru, Kota Banda Aceh";"ACEH";"23116";"Indonesia";" 081374133537";"5.5413144";"95.3055744";"https://maps.google.com/?cid=0x0:0xb118ca7458dd520c"
"toko bangunan";"Toko Bahan Bangunan";"Baru Tabina";"Jl. WR Supratman, Peunayong, Kec. Kuta Alam, Kota Banda Aceh, Aceh";"Kota Banda Aceh, Aceh";"ACEH";"";"Indonesia";" 081374133537";"5.5605378";"95.3207611";"https://maps.google.com/?cid=0x0:0x29c5a5bbd1da12a2"
"toko bangunan";"Toko Bahan Bangunan";"Toko Mitra Kana";"G8JQ+WMM, Cot Mesjid, Kec. Lueng Bata, Kota Banda Aceh, Aceh 23122";"Cot Mesjid, Kec. Lueng Bata, Kota Banda Aceh";"ACEH";"23122";"Indonesia";" 082186774774";"5.5323276";"95.339161";"https://maps.google.com/?cid=0x0:0x60d05c2e98eb286d"
"toko bangunan";"Toko Bahan Bangunan";"Toko Bangunan Restu Baru";"Punge Jurong, Kec. Meuraxa, Kota Banda Aceh, Aceh";"Kota Banda Aceh, Aceh";"ACEH";"";"Indonesia";" 085697225016";"5.5505698";"95.3063395";"https://maps.google.com/?cid=0x0:0x19be35fae5e58e08"
"toko bangunan";"Toko Bahan Bangunan";"SOLID BANGUNAN";"G8Q8+63P, Neusu Aceh, Kec. Baiturrahman, Kota Banda Aceh, Aceh 23116";"Neusu Aceh, Kec. Baiturrahman, Kota Banda Aceh";"ACEH";"23116";"Indonesia";" 082279187548";"5.5380938";"95.3152032";"https://maps.google.com/?cid=0x0:0x5bc4e2747d58ce5"
"toko bangunan";"Toko Bahan Bangunan";"Toko Bangunan Agung Mulia";"H88F+RP8, Jl. Teungku Di Blang, Mulia, Kec. Kuta Alam, Kota Banda Aceh, Aceh";"Kota Banda Aceh, Aceh";"ACEH";"";"Indonesia";" 08154053540";"5.567047";"95.3243291";"https://maps.google.com/?cid=0x0:0xa00ac4c4de2d7614"
"toko bangunan";"Toko Bahan Bangunan";"Toko Bangunan Balia";"G8G3+M57, Geuceu Iniem, Kec. Banda Raya, Kota Banda Aceh, Aceh 23232";"Geuceu Iniem, Kec. Banda Raya, Kota Banda Aceh";"ACEH";"23232";"Indonesia";"";"5.5266501";"95.3029277";"https://maps.google.com/?cid=0x0:0xf90c60957a4d309e"
"toko bangunan";"Toko Bahan Bangunan";"Toko bangunan LANGKAH RASEUKI";"Iemasen Ulee Kareng, Kec. Ulee Kareng, Kota Banda Aceh, Aceh";"Kota Banda Aceh, Aceh";"ACEH";"";"Indonesia";" 085697225016";"5.5537857";"95.3585289";"https://maps.google.com/?cid=0x0:0x7a74ce813294b78b"
"toko bangunan";"Toko Bahan Bangunan";"Toko Bangunan Sahabat Baru";"Jl. Teuku Iskandar No.2, Lamglumpang, Kec. Ulee Kareng, Kota Banda Aceh, Aceh 23127";"Lamglumpang, Kec. Ulee Kareng, Kota Banda Aceh";"ACEH";"23127";"Indonesia";" 082279187548";"5.5497336";"95.3587896";"https://maps.google.com/?cid=0x0:0xed8d0ee3ba9bd01b"
"toko bangunan";"Toko Bahan Bangunan";"toko bangunan TERATAI JAYA";"H9H2+MJ3, Jl. Teuku Nyak Arief, Jeulingke, Kec. Syiah Kuala, Kota Banda Aceh, Aceh 23114";"Jl. Teuku Nyak Arief, Jeulingke, Kec. Syiah Kuala, Kota Banda Aceh";"ACEH";"23114";"Indonesia";"";"5.5791255";"95.3515394";"https://maps.google.com/?cid=0x0:0x1f49c2a470f4d9bd"
"toko bangunan";"Toko Bahan Bangunan";"Zahra Bangunan";"Jl. Dr. Mr. Mohd Hasan, Batoh, Kec. Lueng Bata, Kota Banda Aceh, Aceh 23127";"Batoh, Kec. Lueng Bata, Kota Banda Aceh";"ACEH";"23127";"Indonesia";"";"5.5425651";"95.3305542";"https://maps.google.com/?cid=0x0:0x9785538145c2ac3"
"toko bangunan";"toko bangunan";"Banda Aceh";"Kota Banda Aceh, Aceh";"Kota Banda Aceh, Aceh";"ACEH";"";"Indonesia";"";"5.5482904";"95.3237559";"https://maps.google.com/?cid=0x0:0x3039d80b220cb90"
"toko bangunan";"Toko Bahan Bangunan";"UD. Puga Jaya (Toko Bahan Bangunan Bang Adek)";"H983+87W, Jl. Kebun Raja, Lamgugob, Kec. Syiah Kuala, Kota Banda Aceh, Aceh";"Kota Banda Aceh, Aceh";"ACEH";"";"Indonesia";" 085697225016";"5.5658619";"95.353211";"https://maps.google.com/?cid=0x0:0xc2f7cb214e7565be"
"toko bangunan";"Toko Bahan Bangunan";"Toko Bangunan SINAR BAHAGIA";"G8R4+G6G, Punge Blang Cut, Kec. Jaya Baru, Kota Banda Aceh, Aceh 23116";"Punge Blang Cut, Kec. Jaya Baru, Kota Banda Aceh";"ACEH";"23116";"Indonesia";" 081374133537";"5.5413144";"95.3055744";"https://maps.google.com/?cid=0x0:0xb118ca7458dd520c"
"toko bangunan";"Toko Bahan Bangunan";"TOKO BESI BINTANG BANGUNAN";"Jl. Pocut Baren No.29, Keuramat, Kec. Kuta Alam, Kota Banda Aceh, Aceh 23126";"Keuramat, Kec. Kuta Alam, Kota Banda Aceh";"ACEH";"23126";"Indonesia";" 081360031288";"5.5617508";"95.3240203";"https://maps.google.com/?cid=0x0:0xa98c67e001462b53"
"toko bangunan";"Toko Bahan Bangunan";"Toko Bangunan Restu Baru";"Punge Jurong, Kec. Meuraxa, Kota Banda Aceh, Aceh";"Kota Banda Aceh, Aceh";"ACEH";"";"Indonesia";" 085697225016";"5.5505698";"95.3063395";"https://maps.google.com/?cid=0x0:0x19be35fae5e58e08"
"toko bangunan";"Toko Bahan Bangunan";"Baru Tabina";"Jl. WR Supratman, Peunayong, Kec. Kuta Alam, Kota Banda Aceh, Aceh";"Kota Banda Aceh, Aceh";"ACEH";"";"Indonesia";" 081374133537";"5.5605378";"95.3207611";"https://maps.google.com/?cid=0x0:0x29c5a5bbd1da12a2"
"toko bangunan";"Toko Bahan Bangunan";"Toko Bangunan Agung Mulia";"H88F+RP8, Jl. Teungku Di Blang, Mulia, Kec. Kuta Alam, Kota Banda Aceh, Aceh";"Kota Banda Aceh, Aceh";"ACEH";"";"Indonesia";" 08154053540";"5.567047";"95.3243291";"https://maps.google.com/?cid=0x0:0xa00ac4c4de2d7614"
"toko bangunan";"Toko Cat";"Sumber Jaya";"G9X5+V96, Jl. Teuku Iskandar, Ceurih, Kec. Ulee Kareng, Kota Banda Aceh, Aceh 24451";"Jl. Teuku Iskandar, Ceurih, Kec. Ulee Kareng, Kota Banda Aceh";"ACEH";"24451";"Indonesia";" 085277204222";"5.5496747";"95.3583869";"https://maps.google.com/?cid=0x0:0x7c4e2bc396e6c120"
"toko bangunan";"Toko Bahan Bangunan";"Toko Bangunan Balia";"G8G3+M57, Geuceu Iniem, Kec. Banda Raya, Kota Banda Aceh, Aceh 23232";"Geuceu Iniem, Kec. Banda Raya, Kota Banda Aceh";"ACEH";"23232";"Indonesia";"";"5.5266501";"95.3029277";"https://maps.google.com/?cid=0x0:0xf90c60957a4d309e"
"toko bangunan";"Toko Bahan Bangunan";"Toko Bangunan Sahabat Baru";"Jl. Teuku Iskandar No.2, Lamglumpang, Kec. Ulee Kareng, Kota Banda Aceh, Aceh 23127";"Lamglumpang, Kec. Ulee Kareng, Kota Banda Aceh";"ACEH";"23127";"Indonesia";" 082279187548";"5.5497336";"95.3587896";"https://maps.google.com/?cid=0x0:0xed8d0ee3ba9bd01b"
"toko bangunan";"Toko Bahan Bangunan";"Toko bangunan LANGKAH RASEUKI";"Iemasen Ulee Kareng, Kec. Ulee Kareng, Kota Banda Aceh, Aceh";"Kota Banda Aceh, Aceh";"ACEH";"";"Indonesia";" 085697225016";"5.5537857";"95.3585289";"https://maps.google.com/?cid=0x0:0x7a74ce813294b78b"
"toko bangunan";"Toko Bahan Bangunan";"Toko Bangunan Jambo Akhie";"G8JQ+QVH, Landom, Kec. Lueng Bata, Kota Banda Aceh, Aceh 23122";"Landom, Kec. Lueng Bata, Kota Banda Aceh";"ACEH";"23122";"Indonesia";" 08154053540";"5.5319478";"95.3397414";"https://maps.google.com/?cid=0x0:0x1fbef36a02b6f916"
"toko bangunan";"Toko Bahan Bangunan";"toko bangunan TERATAI JAYA";"H9H2+MJ3, Jl. Teuku Nyak Arief, Jeulingke, Kec. Syiah Kuala, Kota Banda Aceh, Aceh 23114";"Jl. Teuku Nyak Arief, Jeulingke, Kec. Syiah Kuala, Kota Banda Aceh";"ACEH";"23114";"Indonesia";"";"5.5791255";"95.3515394";"https://maps.google.com/?cid=0x0:0x1f49c2a470f4d9bd"
"toko bangunan";"toko bangunan";"Kec. Bener Kelipah";"Kabupaten Bener Meriah, Aceh";"Kabupaten Bener Meriah, Aceh";"ACEH";"";"Indonesia";"";"4.7701481";"96.923098";"https://maps.google.com/?cid=0x0:0x3a7e0c8dc476f1e"
"toko bangunan";"Toko Bahan Bangunan";"Toko Bangunan BINA BARU";"QV2X+RW5, Pd. Gajah, Kec. Bandar, Kabupaten Bener Meriah, Aceh 24582";"Pd. Gajah, Kec. Bandar, Kabupaten Bener Meriah";"ACEH";"24582";"Indonesia";"";"4.7520106";"96.8998645";"https://maps.google.com/?cid=0x0:0x3b1827c422336e0"
"toko bangunan";"Toko Bahan Bangunan";"Toko bangunan karya baru";"RW3W+W5C, Ramung Jaya, Kec. Permata, Kabupaten Bener Meriah, Aceh";"Kabupaten Bener Meriah, Aceh";"ACEH";"";"Indonesia";" 083161290912";"4.8048162";"96.9454005";"https://maps.google.com/?cid=0x0:0xba34de8b1d5847e1"
"toko bangunan";"Toko Bahan Bangunan";"Indah warna bener meriah";"QW47+52J, Jl. Syiah Utama, Simpang Utama, Kec. Bandar, Kabupaten Bener Meriah, Aceh 24582";"Jl. Syiah Utama, Simpang Utama, Kec. Bandar, Kabupaten Bener Meriah";"ACEH";"24582";"Indonesia";"";"4.7554652";"96.9125289";"https://maps.google.com/?cid=0x0:0x707bc46e1d0187d0"
"toko bangunan";"Toko Bahan Bangunan";"Surya Jaya 2";"QW27+M7C, RW.sidenge, Tawar Sedenge, Kec. Bandar, Kabupaten Bener Meriah, Aceh 24582";"RW.sidenge, Tawar Sedenge, Kec. Bandar, Kabupaten Bener Meriah";"ACEH";"24582";"Indonesia";"";"4.7514817";"96.9133331";"https://maps.google.com/?cid=0x0:0xf96e115176f50693"
"toko bangunan";"Toko Bahan Bangunan";"Toko besi  bangunan MITRA 02";"PR93+RWP, Lut Kucak, Kec. Wih Pesam, Kabupaten Bener Meriah, Aceh 24471";"Lut Kucak, Kec. Wih Pesam, Kabupaten Bener Meriah";"ACEH";"24471";"Indonesia";" 085207072729";"4.7195935";"96.8048397";"https://maps.google.com/?cid=0x0:0x1c9b0ffa0c4bc3b3"
"toko bangunan";"Toko Bahan Bangunan";"Toko surya baru";"QW48+MM7, Pd. Baru, Lhokseumawe, Kabupaten Bener Meriah, Aceh 24582";"Pd. Baru, Lhokseumawe, Kabupaten Bener Meriah";"ACEH";"24582";"Indonesia";"";"4.756492";"96.9165836";"https://maps.google.com/?cid=0x0:0x90d4c8f55c2eb310"
"toko bangunan";"Toko Bahan Bangunan";"TOKO BINTANG JAYA KERAMIK";"PWX7+Q68, Jl. Blang Jorong, Pd. Baru, Kec. Bandar, Kabupaten Bener Meriah, Aceh 24582";"Jl. Blang Jorong, Pd. Baru, Kec. Bandar, Kabupaten Bener Meriah";"ACEH";"24582";"Indonesia";" 081362385666";"4.7494123";"96.9130994";"https://maps.google.com/?cid=0x0:0x81704bc2e4e9d04c"
"toko bangunan";"Toko Perabot untuk Taman";"Mekar jaya perabot";"Jalan pondok baru buntul, simpang, Bahgie Bertona, Pondok baru, Kabupaten Bener Meriah, Aceh 24582";"simpang, Bahgie Bertona, Pondok baru, Kabupaten Bener Meriah";"ACEH";"24582";"Indonesia";" 082367006688";"4.7563816";"96.917841";"https://maps.google.com/?cid=0x0:0x663a84ec16a43c36"
"toko bangunan";"toko bangunan";"Toko Hidup Subur";"QW47+42V, Jl. Syiah Utama, Janarata, Kec. Bandar, Kabupaten Bener Meriah, Aceh 24582";"Jl. Syiah Utama, Janarata, Kec. Bandar, Kabupaten Bener Meriah";"ACEH";"24582";"Indonesia";"";"4.7552236";"96.9125504";"https://maps.google.com/?cid=0x0:0x669c06f324a70deb"
"toko bangunan";"Toko Bahan Bangunan";"Toko Anugrah Jaya";"Uring, Kec. Bukit, Kabupaten Bener Meriah, Aceh 24582";"Kec. Bukit, Kabupaten Bener Meriah";"ACEH";"24582";"Indonesia";" 0816992047";"4.717481";"96.8716351";"https://maps.google.com/?cid=0x0:0x41aa8c3ad2af5bf0"
"toko bangunan";"toko bangunan";"Aceh";"";"Aceh";"ACEH";"";"Indonesia";"";"4.695135";"96.7493993";"https://maps.google.com/?cid=0x0:0x1039d80b220ca60"
"toko bangunan";"Toko Bahan Bangunan";"Zahra Bangunan";"Jl. Dr. Mr. Mohd Hasan, Batoh, Kec. Lueng Bata, Kota Banda Aceh, Aceh 23127";"Batoh, Kec. Lueng Bata, Kota Banda Aceh";"ACEH";"23127";"Indonesia";" 085697225016";"5.5425651";"95.3305542";"https://maps.google.com/?cid=0x0:0x9785538145c2ac3"
"toko bangunan";"Toko Bahan Bangunan";"Toko Bangunan Jasa Bukit Tiga Peunaron";"JM56+RPM, Arul Pinang, Kec. Peunaron, Kabupaten Aceh Timur, Aceh 24392";"Arul Pinang, Kec. Peunaron, Kabupaten Aceh Timur";"ACEH";"24392";"Indonesia";"";"4.6095819";"97.6617735";"https://maps.google.com/?cid=0x0:0x1dc433f0d8a2d0ea"
"toko bangunan";"Toko Bahan Bangunan";"Toko Bangunan Sejahtera Baru";"F9VF+2VR, Lambarih Bakmee, Kec. SukaMakmur, Kabupaten Aceh Besar, Aceh 23363";"Lambarih Bakmee, Kec. SukaMakmur, Kabupaten Aceh Besar";"ACEH";"23363";"Indonesia";" 082186774774";"5.4926174";"95.3746298";"https://maps.google.com/?cid=0x0:0x13f51277a759d9b5"
"toko bangunan";"Toko Bahan Bangunan";"TOKO BESI BINTANG BANGUNAN";"Jl. Pocut Baren No.29, Keuramat, Kec. Kuta Alam, Kota Banda Aceh, Aceh 23126";"Keuramat, Kec. Kuta Alam, Kota Banda Aceh";"ACEH";"23126";"Indonesia";" 081360031288";"5.5617508";"95.3240203";"https://maps.google.com/?cid=0x0:0xa98c67e001462b53"
"toko bangunan";"Toko Bahan Bangunan";"Toko Dunia Bangunan. 24 Jam.";"H82H+CVX, Jl. Teuku Imuem Jl. Teuku Chik Di Tiro, Ateuk Pahlawan, Kec. Baiturrahman, Kota Banda Aceh, Aceh 174_175";"Kota Banda Aceh, Aceh";"ACEH";"";"Indonesia";" 085260178145";"5.5511237";"95.3297328";"https://maps.google.com/?cid=0x0:0xc5443108175d2ef2"
"toko bangunan";"Toko";"Toko bangunan sinar baru";"rima, Jalan ulee lheu - simpang, Lamjamee, Kec. Jaya Baru, Kota Banda Aceh, Aceh 23234";"Jalan ulee lheu - simpang, Lamjamee, Kec. Jaya Baru, Kota Banda Aceh";"ACEH";"23234";"Indonesia";" 082279187548";"5.5398079";"95.2848595";"https://maps.google.com/?cid=0x0:0x7657166469a743c7"
"toko bangunan";"Toko Bahan Bangunan";"TOKO BANGUNAN MANDIRI BARU";"Jl. Teuku Iskandar, Lamglumpang, Kec. Ulee Kareng, Kota Banda Aceh, Aceh 23127";"Lamglumpang, Kec. Ulee Kareng, Kota Banda Aceh";"ACEH";"23127";"Indonesia";" 0817823371";"5.5520791";"95.3492516";"https://maps.google.com/?cid=0x0:0x2dfc9d8d2d36fce8"
"toko bangunan";"Toko Bahan Bangunan";"Zahara Jaya";"H838+29W, Kp. Baru, Kec. Baiturrahman, Kota Banda Aceh, Aceh 23116";"Kp. Baru, Kec. Baiturrahman, Kota Banda Aceh";"ACEH";"23116";"Indonesia";" 065123718";"5.5526101";"95.3159489";"https://maps.google.com/?cid=0x0:0xef4ab7341c24f4b0"
"toko bangunan";"Toko Cat";"Sumber Warna";"Jl. Teuku Umar No.245, Geuceu Kayee Jato, Kec. Banda Raya, Kota Banda Aceh, Aceh 23239";"Geuceu Kayee Jato, Kec. Banda Raya, Kota Banda Aceh";"ACEH";"23239";"Indonesia";" 081269212102";"5.5382376";"95.3081446";"https://maps.google.com/?cid=0x0:0xc78d6c11ec762de5"
"toko bangunan";"Toko Bahan Bangunan";"Toko Bangunan";"G9X6+74F, Ceurih, Kec. Ulee Kareng, Kota Banda Aceh, Aceh";"Kota Banda Aceh, Aceh";"ACEH";"";"Indonesia";"";"5.5481845";"95.3602841";"https://maps.google.com/?cid=0x0:0xf71251347f44de5d"
"toko bangunan";"Toko Bahan Bangunan";"Toko Bangunan Pelita Makmur";"Jl. WR Supratman No.18, Peunayong, Kec. Kuta Alam, Kota Banda Aceh, Aceh";"Kota Banda Aceh, Aceh";"ACEH";"";"Indonesia";"";"5.5605595";"95.3207272";"https://maps.google.com/?cid=0x0:0x76cafb8bbaca3455"
"toko bangunan";"Toko Bahan Bangunan";"Toko Besi Jaya Baru";"Jl. Teuku Umar No.247, Geuceu Kayee Jato, Kec. Banda Raya, Kota Banda Aceh, Aceh 23116";"Geuceu Kayee Jato, Kec. Banda Raya, Kota Banda Aceh";"ACEH";"23116";"Indonesia";" 065142154";"5.5381936";"95.3081139";"https://maps.google.com/?cid=0x0:0x9779be8222def773"
"toko bangunan";"Toko Bahan Bangunan";"Toko Anugrah Jaya";"Uring, Kec. Bukit, Kabupaten Bener Meriah, Aceh 24582";"Kec. Bukit, Kabupaten Bener Meriah";"ACEH";"24582";"Indonesia";" 0816992047";"4.717481";"96.8716351";"https://maps.google.com/?cid=0x0:0x41aa8c3ad2af5bf0"
"toko bangunan";"toko bangunan";"Kec. Gajah Putih";"Kabupaten Bener Meriah, Aceh";"Kabupaten Bener Meriah, Aceh";"ACEH";"";"Indonesia";"";"4.8103413";"96.7371594";"https://maps.google.com/?cid=0x0:0xc34ec80407ef00cb"
"toko bangunan";"Kantor Perusahaan";"Toko jasa mekar jaya";"RP2M+WCR, Timang Gajah, Kec. Gajah Putih, Kabupaten Bener Meriah, Aceh 24571";"Timang Gajah, Kec. Gajah Putih, Kabupaten Bener Meriah";"ACEH";"24571";"Indonesia";" 082397747851";"4.8023503";"96.7335044";"https://maps.google.com/?cid=0x0:0xf858168932c843e9"
"toko bangunan";"Toko Bahan Bangunan";"Toko Bangunan BINA BARU";"QV2X+RW5, Pd. Gajah, Kec. Bandar, Kabupaten Bener Meriah, Aceh 24582";"Pd. Gajah, Kec. Bandar, Kabupaten Bener Meriah";"ACEH";"24582";"Indonesia";"";"4.7520106";"96.8998645";"https://maps.google.com/?cid=0x0:0x3b1827c422336e0"
"toko bangunan";"Toko Bahan Bangunan";"Toko Anugrah Jaya";"Uring, Kec. Bukit, Kabupaten Bener Meriah, Aceh 24582";"Kec. Bukit, Kabupaten Bener Meriah";"ACEH";"24582";"Indonesia";" 0816992047";"4.717481";"96.8716351";"https://maps.google.com/?cid=0x0:0x41aa8c3ad2af5bf0"
"toko bangunan";"Toko";"THE Bangunan CIMUNING ( toko alat dan bahan bangunan / toko material)";"samping masjid nurul insan, Jl. WR. Supratman, RT.002/RW.006, Cimuning, Kec. Mustika Jaya, Kota Bks, Jawa Barat 17155";"Jl. WR. Supratman, RT.002/RW.006, Cimuning, Kec. Mustika Jaya, Kota Bks";"ACEH";"17155";"Indonesia";" 0817823371";"-6.3112924";"107.0276565";"https://maps.google.com/?cid=0x0:0xdf5471e58ee9279f"
"toko bangunan";"Toko Bahan Bangunan";"Toko Bangunan Kita";"Jl. Raya Bantar Gebang - Setu No.1, RT.001/RW.006, Padurenan, Kec. Mustika Jaya, Kota Bks, Jawa Barat 17156";"RT.001/RW.006, Padurenan, Kec. Mustika Jaya, Kota Bks";"ACEH";"17156";"Indonesia";" 08154053540";"-6.3214848";"107.0168807";"https://maps.google.com/?cid=0x0:0x6d275aedf0d0c86f"
"toko bangunan";"Toko Bahan Bangunan";"TB. ACC";"Jl. Otista Raya No.435, Bidara Cina, Kecamatan Jatinegara, Kota Jakarta Timur, Daerah Khusus Ibukota Jakarta 13330";"Bidara Cina, Kecamatan Jatinegara, Kota Jakarta Timur";"ACEH";"13330";"Indonesia";" 0218194623";"-6.2425242";"106.869277";"https://maps.google.com/?cid=0x0:0x6f8ed1f97d6092a6"
"toko bangunan";"Toko Bahan Bangunan";"toko Keramik Home Material";"Jl. Mustika Jaya No.53 A, RT.002/RW.011, Legenda, Kec. Mustika Jaya, Kota Bks, Jawa Barat 17158";"RT.002/RW.011, Legenda, Kec. Mustika Jaya, Kota Bks";"ACEH";"17158";"Indonesia";" 082111170687";"-6.2982739";"107.030408";"https://maps.google.com/?cid=0x0:0x1892a7a052755824"
"toko bangunan";"Toko Bahan Bangunan";"Rekan Bangunan";"Jl. H. Nonon Sonthanie No.8-9, RT.006/RW.002, Duren Jaya, Kec. Bekasi Tim., Kota Bks, Jawa Barat 17111";"RT.006/RW.002, Duren Jaya, Kec. Bekasi Tim., Kota Bks";"ACEH";"17111";"Indonesia";" 02122102937";"-6.2426518";"107.0145379";"https://maps.google.com/?cid=0x0:0x7dc0dd11c341e824"
"toko bangunan";"toko bangunan";"Kec. Mesidah";"Kabupaten Bener Meriah, Aceh";"Kabupaten Bener Meriah, Aceh";"ACEH";"";"Indonesia";"";"4.7627916";"97.0109687";"https://maps.google.com/?cid=0x0:0xdf564a5272d2d37b"
"toko bangunan";"Toko Bahan Bangunan";"Toko besi  bangunan MITRA 02";"PR93+RWP, Lut Kucak, Kec. Wih Pesam, Kabupaten Bener Meriah, Aceh 24471";"Lut Kucak, Kec. Wih Pesam, Kabupaten Bener Meriah";"ACEH";"24471";"Indonesia";" 085207072729";"4.7195935";"96.8048397";"https://maps.google.com/?cid=0x0:0x1c9b0ffa0c4bc3b3"
"toko bangunan";"Toko Bahan Bangunan";"Toko bangunan karya baru";"RW3W+W5C, Ramung Jaya, Kec. Permata, Kabupaten Bener Meriah, Aceh";"Kabupaten Bener Meriah, Aceh";"ACEH";"";"Indonesia";" 083161290912";"4.8048162";"96.9454005";"https://maps.google.com/?cid=0x0:0xba34de8b1d5847e1"
"toko bangunan";"Toko Bahan Bangunan";"Toko Bangunan BINA BARU";"QV2X+RW5, Pd. Gajah, Kec. Bandar, Kabupaten Bener Meriah, Aceh 24582";"Pd. Gajah, Kec. Bandar, Kabupaten Bener Meriah";"ACEH";"24582";"Indonesia";"";"4.7520106";"96.8998645";"https://maps.google.com/?cid=0x0:0x3b1827c422336e0"
"toko bangunan";"Toko Bahan Bangunan";"toko bangunan hidup baru";"PQCR+3XG, Jl. Pante Raya, Cinta Damai, Kec. Wih Pesam, Kabupaten Bener Meriah, Aceh 24471";"Jl. Pante Raya, Cinta Damai, Kec. Wih Pesam, Kabupaten Bener Meriah";"ACEH";"24471";"Indonesia";" 081362949742";"4.7201845";"96.792454";"https://maps.google.com/?cid=0x0:0x3a808a62b35c515f"
"toko bangunan";"Toko Bahan Bangunan";"Indah warna bener meriah";"QW47+52J, Jl. Syiah Utama, Simpang Utama, Kec. Bandar, Kabupaten Bener Meriah, Aceh 24582";"Jl. Syiah Utama, Simpang Utama, Kec. Bandar, Kabupaten Bener Meriah";"ACEH";"24582";"Indonesia";"";"4.7554652";"96.9125289";"https://maps.google.com/?cid=0x0:0x707bc46e1d0187d0"
"toko bangunan";"Toko Perlengkapan Rumah";"Toko Besi Berkat Jasa";"PVCF+23P, Jl. Pd. Baru, Blang Sentang, Kec. Bukit, Kabupaten Bener Meriah, Aceh 24582";"Jl. Pd. Baru, Blang Sentang, Kec. Bukit, Kabupaten Bener Meriah";"ACEH";"24582";"Indonesia";" 081360848484";"4.7200846";"96.8727125";"https://maps.google.com/?cid=0x0:0x167dabffd688dcaa"
"toko bangunan";"Kantor Perusahaan";"Toko jasa mekar jaya";"RP2M+WCR, Timang Gajah, Kec. Gajah Putih, Kabupaten Bener Meriah, Aceh 24571";"Timang Gajah, Kec. Gajah Putih, Kabupaten Bener Meriah";"ACEH";"24571";"Indonesia";" 082397747851";"4.8023503";"96.7335044";"https://maps.google.com/?cid=0x0:0xf858168932c843e9"
"toko bangunan";"Toko";"TOKO SAHABAT BANGUNAN";"PR92+396, Jl. Pante Raya, Lut Kucak, Kec. Wih Pesam, Kabupaten Bener Meriah, Aceh";"Kabupaten Bener Meriah, Aceh";"ACEH";"";"Indonesia";"";"4.7176678";"96.8008905";"https://maps.google.com/?cid=0x0:0x7f122f5ab8c49984"
"toko bangunan";"Pusat Perbelanjaan";"Toko Bangunan HIDUP SUBUR";"PQHX+273, Simpang Balek, Kec. Wih Pesam, Kabupaten Bener Meriah, Aceh 24471";"Simpang Balek, Kec. Wih Pesam, Kabupaten Bener Meriah";"ACEH";"24471";"Indonesia";" 081362385666";"4.727512";"96.7981735";"https://maps.google.com/?cid=0x0:0xa8fa65faf3da029d"
"toko bangunan";"Toko Bahan Bangunan";"Zahra Bangunan";"Jl. Dr. Mr. Mohd Hasan, Batoh, Kec. Lueng Bata, Kota Banda Aceh, Aceh 23127";"Batoh, Kec. Lueng Bata, Kota Banda Aceh";"ACEH";"23127";"Indonesia";" 085697225016";"5.5425651";"95.3305542";"https://maps.google.com/?cid=0x0:0x9785538145c2ac3"
"toko bangunan";"Toko Perlengkapan Rumah";"Mesga elektrik";"PRF5+F33, Jl. Bandara Rembele, Pante Raya, Kec. Wih Pesam, Kabupaten Bener Meriah, Aceh 24471";"Jl. Bandara Rembele, Pante Raya, Kec. Wih Pesam, Kabupaten Bener Meriah";"ACEH";"24471";"Indonesia";"";"4.723508";"96.8077871";"https://maps.google.com/?cid=0x0:0xc86878b64618aa64"
"toko bangunan";"Toko Perhiasan";"Batu Indah Jade";"Rundeng, Kec. Johan Pahlawan, Kabupaten Aceh Barat, Aceh";"Kabupaten Aceh Barat, Aceh";"ACEH";"";"Indonesia";" 082366262006";"4.1543314";"96.1368821";"https://maps.google.com/?cid=0x0:0x97b6acd037aaf182"
"toko bangunan";"Toko Perhiasan Kostum";"Toko permata Aceh";"Jl. Swadaya, Drien Rampak, Kec. Johan Pahlawan, Kabupaten Aceh Barat, Aceh 23615";"Drien Rampak, Kec. Johan Pahlawan, Kabupaten Aceh Barat";"ACEH";"23615";"Indonesia";" 082277484259";"4.1539851";"96.1280635";"https://maps.google.com/?cid=0x0:0xe4cd117d384497d7"
"toko bangunan";"toko bangunan";"Aceh 24582";"Kabupaten Bener Meriah, Aceh";"Kabupaten Bener Meriah, Aceh";"ACEH";"";"Indonesia";"";"4.733267";"97.0498442";"https://maps.google.com/?cid=0x0:0x24377db9b3ac434d"
"toko bangunan";"Toko Bahan Bangunan";"TB.sinar Baru";"RW97+7V2, Gelampang, Kec. Permata, Kabupaten Bener Meriah, Aceh 24582";"Gelampang, Kec. Permata, Kabupaten Bener Meriah";"ACEH";"24582";"Indonesia";" 082362819827";"4.8181449";"96.9146534";"https://maps.google.com/?cid=0x0:0x57af9e6f775de25"
"toko bangunan";"Toko Bahan Bangunan";"sinar abadi";"RW97+8JH, Gelampang, Kec. Permata, Kabupaten Bener Meriah, Aceh 24582";"Gelampang, Kec. Permata, Kabupaten Bener Meriah";"ACEH";"24582";"Indonesia";" 085359331773";"4.8183188";"96.9141046";"https://maps.google.com/?cid=0x0:0x233541421a0fb9be"
"toko bangunan";"toko bangunan";"Usaha Batu Bata";"RWG9+R46, Buntul Peteri, Kec. Permata, Kabupaten Bener Meriah, Aceh 24582";"Buntul Peteri, Kec. Permata, Kabupaten Bener Meriah";"ACEH";"24582";"Indonesia";"";"4.8270293";"96.9177705";"https://maps.google.com/?cid=0x0:0xbd529279fdb21dda"
"toko bangunan";"Toko Bahan Bangunan";"Toko Bangunan Permata Bangunan 2";"Rantau Bais, Kec. Tanah Putih, Kabupaten Rokan Hilir, Riau";"Kabupaten Rokan Hilir, Riau";"ACEH";"";"Indonesia";"";"1.4954296";"101.1779971";"https://maps.google.com/?cid=0x0:0x44f342585bd9f7fe"
"toko bangunan";"Taman Kanak-kanak";"SMAN 1 Pintu Rime Gayo";"RPRR+V64, Blang Ara, Kec. Pintu Rime Gayo, Kabupaten Bener Meriah, Aceh 24571";"Blang Ara, Kec. Pintu Rime Gayo, Kabupaten Bener Meriah";"ACEH";"24571";"Indonesia";"";"4.8421419";"96.7405783";"https://maps.google.com/?cid=0x0:0xe138a912f6f0760a"
"toko bangunan";"toko bangunan";"Kec. Pintu Rime Gayo";"Kabupaten Bener Meriah, Aceh";"Kabupaten Bener Meriah, Aceh";"ACEH";"";"Indonesia";"";"4.849318";"96.7411267";"https://maps.google.com/?cid=0x0:0x28686d3d13d5dcf5"
"toko bangunan";"Kantor Pemerintah";"Kantor Camat Pintu Rime Gayo";"Blang Rakal, Kec. Pintu Rime Gayo, Kabupaten Bener Meriah, Aceh 24571";"Kec. Pintu Rime Gayo, Kabupaten Bener Meriah";"ACEH";"24571";"Indonesia";" 085270732070";"4.9026747";"96.744674";"https://maps.google.com/?cid=0x0:0x277036ad2b7e67c5"
"toko bangunan";"Pembangunan Perumahan";"MEUNASAH BLANG BETONA";"RPWG+2X8, Rime Raya, Kec. Pintu Rime Gayo, Kabupaten Bener Meriah, Aceh 24571";"Rime Raya, Kec. Pintu Rime Gayo, Kabupaten Bener Meriah";"ACEH";"24571";"Indonesia";"";"4.8450484";"96.7274393";"https://maps.google.com/?cid=0x0:0x69fa3e4ff3d6bdc4"
"toko bangunan";"Kantor Perusahaan";"Toko jasa mekar jaya";"RP2M+WCR, Timang Gajah, Kec. Gajah Putih, Kabupaten Bener Meriah, Aceh 24571";"Timang Gajah, Kec. Gajah Putih, Kabupaten Bener Meriah";"ACEH";"24571";"Indonesia";" 082397747851";"4.8023503";"96.7335044";"https://maps.google.com/?cid=0x0:0xf858168932c843e9"
"toko bangunan";"toko bangunan";"Toko Bangunan Fajar indah";"isaq, Jl. Raya Bireuen - Takengon";"Kabupaten Bener Meriah, Aceh";"ACEH";"";"Indonesia";"";"4.911099";"96.7350695";"https://maps.google.com/?cid=0x0:0x2c37b6c5c1df7547"
"toko bangunan";"Toko Bahan Bangunan";"Toko Anugrah Jaya";"Uring, Kec. Bukit, Kabupaten Bener Meriah, Aceh 24582";"Kec. Bukit, Kabupaten Bener Meriah";"ACEH";"24582";"Indonesia";" 0816992047";"4.717481";"96.8716351";"https://maps.google.com/?cid=0x0:0x41aa8c3ad2af5bf0"
"toko bangunan";"Toko Bahan Bangunan";"Toko bangunan karya baru";"RW3W+W5C, Ramung Jaya, Kec. Permata, Kabupaten Bener Meriah, Aceh";"Kabupaten Bener Meriah, Aceh";"ACEH";"";"Indonesia";" 083161290912";"4.8048162";"96.9454005";"https://maps.google.com/?cid=0x0:0xba34de8b1d5847e1"
"toko bangunan";"toko bangunan";"Aceh 24582";"Kabupaten Bener Meriah, Aceh";"Kabupaten Bener Meriah, Aceh";"ACEH";"";"Indonesia";"";"4.733267";"97.0498442";"https://maps.google.com/?cid=0x0:0x24377db9b3ac434d"
"toko bangunan";"Toko Bahan Bangunan";"Toko Bangunan BINA BARU";"QV2X+RW5, Pd. Gajah, Kec. Bandar, Kabupaten Bener Meriah, Aceh 24582";"Pd. Gajah, Kec. Bandar, Kabupaten Bener Meriah";"ACEH";"24582";"Indonesia";"";"4.7520106";"96.8998645";"https://maps.google.com/?cid=0x0:0x3b1827c422336e0"
"toko bangunan";"Toko Bahan Bangunan";"Toko BSK";"JVG2+HM7, Jl. Sengeda, Takengon Tim., Kec. Lut Tawar, Kabupaten Aceh Tengah, Aceh 24519";"Jl. Sengeda, Takengon Tim., Kec. Lut Tawar, Kabupaten Aceh Tengah";"ACEH";"24519";"Indonesia";" 064321339";"4.6264117";"96.851686";"https://maps.google.com/?cid=0x0:0x2092e5377d5a998b"
"toko bangunan";"Toko Bahan Bangunan";"Toko besi  bangunan MITRA 02";"PR93+RWP, Lut Kucak, Kec. Wih Pesam, Kabupaten Bener Meriah, Aceh 24471";"Lut Kucak, Kec. Wih Pesam, Kabupaten Bener Meriah";"ACEH";"24471";"Indonesia";" 085207072729";"4.7195935";"96.8048397";"https://maps.google.com/?cid=0x0:0x1c9b0ffa0c4bc3b3"
"toko bangunan";"Toko Bahan Bangunan";"TOKO BESI MURNI BARU";"QW34+3C8, Simpang Utama, Kec. Bandar, Kabupaten Bener Meriah, Aceh 24582";"Simpang Utama, Kec. Bandar, Kabupaten Bener Meriah";"ACEH";"24582";"Indonesia";"";"4.7526704";"96.9060781";"https://maps.google.com/?cid=0x0:0xf8da11935137ba38"
"toko bangunan";"Toko Bahan Bangunan";"Toko BSK 2";"JVF2+H8V, Jalan HM Hasan Gayo Tengah, Takengon Tim., Kec. Lut Tawar, Kabupaten Aceh Tengah, Aceh 24519";"Jalan HM Hasan Gayo Tengah, Takengon Tim., Kec. Lut Tawar, Kabupaten Aceh Tengah";"ACEH";"24519";"Indonesia";"";"4.6239895";"96.8507896";"https://maps.google.com/?cid=0x0:0xa99221c89d4012d2"
"toko bangunan";"Toko Bahan Bangunan";"Toko bangunan mandiri muda";"JRQM+7WP, Jl. Soekarno - Hatta, Empus Talu, Kec. Bebesen, Kabupaten Aceh Tengah, Aceh 24471";"Jl. Soekarno - Hatta, Empus Talu, Kec. Bebesen, Kabupaten Aceh Tengah";"ACEH";"24471";"Indonesia";" 085360545415";"4.6382009";"96.8348329";"https://maps.google.com/?cid=0x0:0xf6406ca9097144e4"
"toko bangunan";"Toko Bahan Bangunan";"Toko Bangunan RAYA MULIA 2";"Jl. Prada Utama, Lamgugob, Kec. Syiah Kuala, Kota Banda Aceh, Aceh";"Kota Banda Aceh, Aceh";"ACEH";"";"Indonesia";" 085167599087";"5.5749662";"95.3550309";"https://maps.google.com/?cid=0x0:0xd31eb58cf56fe415"
"toko bangunan";"Toko Bahan Bangunan";"Toko besi Sinar cahaya makmur";"Simpang Empat, Kec. Bebesen, Kabupaten Aceh Tengah, Aceh 24519";"Kec. Bebesen, Kabupaten Aceh Tengah";"ACEH";"24519";"Indonesia";" 088287090994";"4.6365346";"96.8469172";"https://maps.google.com/?cid=0x0:0xc906a5e98cebf1d9"
"toko bangunan";"Toko Bahan Bangunan";"Toko Setia Kawan";"JVF2+W48, Bale Atu, Kec. Lut Tawar, Kabupaten Aceh Tengah, Aceh 24519";"Bale Atu, Kec. Lut Tawar, Kabupaten Aceh Tengah";"ACEH";"24519";"Indonesia";" 064321692";"4.6247984";"96.8503199";"https://maps.google.com/?cid=0x0:0xf78c6bd2c4b87654"
"toko bangunan";"Toko Bahan Bangunan";"TB.sinar Baru";"RW97+7V2, Gelampang, Kec. Permata, Kabupaten Bener Meriah, Aceh 24582";"Gelampang, Kec. Permata, Kabupaten Bener Meriah";"ACEH";"24582";"Indonesia";" 082362819827";"4.8181449";"96.9146534";"https://maps.google.com/?cid=0x0:0x57af9e6f775de25"
"toko bangunan";"Toko Bahan Bangunan";"Toko besi DUNIA RAYA";"Jl. Abdul Wahab, Simpang Empat, Kec. Kebayakan, Kabupaten Aceh Tengah, Aceh";"Kabupaten Aceh Tengah, Aceh";"ACEH";"";"Indonesia";" 087784554999";"4.6363336";"96.846106";"https://maps.google.com/?cid=0x0:0xaefd6aca8244d2fd"
"toko bangunan";"Kantor Perusahaan";"Toko jasa mekar jaya";"RP2M+WCR, Timang Gajah, Kec. Gajah Putih, Kabupaten Bener Meriah, Aceh 24571";"Timang Gajah, Kec. Gajah Putih, Kabupaten Bener Meriah";"ACEH";"24571";"Indonesia";" 082397747851";"4.8023503";"96.7335044";"https://maps.google.com/?cid=0x0:0xf858168932c843e9"
"toko bangunan";"toko bangunan";"Kec. Timang Gajah";"Kabupaten Bener Meriah, Aceh";"Kabupaten Bener Meriah, Aceh";"ACEH";"";"Indonesia";"";"4.7581426";"96.76263";"https://maps.google.com/?cid=0x0:0x64723af8a148d625"
"toko bangunan";"Toko Bahan Bangunan";"Panglong Wak ipol mekarayu";"QQ56+W4R, Mekar Ayu, Kec. Timang Gajah, Kabupaten Bener Meriah, Aceh 24571";"Mekar Ayu, Kec. Timang Gajah, Kabupaten Bener Meriah";"ACEH";"24571";"Indonesia";"";"4.7598564";"96.7602759";"https://maps.google.com/?cid=0x0:0x812fbf9d110d62ca"
"toko bangunan";"Toko Beras";"Toko Saudara Baru";"PQJW+83J, kabupaten b.meriah, Jl. Raya Bireuen - Takengon, Bener Mulie, Kec. Wih Pesam, Kabupaten Bener Meriah, Aceh 24471";"kabupaten b.meriah, Jl. Raya Bireuen - Takengon, Bener Mulie, Kec. Wih Pesam, Kabupaten Bener Meriah";"ACEH";"24471";"Indonesia";" 082239670406";"4.7308354";"96.7951392";"https://maps.google.com/?cid=0x0:0xa1e59d66d88131b0"
"toko bangunan";"Toko Bahan Bangunan";"Raja keramik";"PQHQ+5GW, Jl. Simpang Balik-Blang Mancung, Kebun Baru, Kec. Wih Pesam, Kabupaten Bener Meriah, Aceh 24561";"Jl. Simpang Balik-Blang Mancung, Kebun Baru, Kec. Wih Pesam, Kabupaten Bener Meriah";"ACEH";"24561";"Indonesia";" 085262466409";"4.727982";"96.788837";"https://maps.google.com/?cid=0x0:0x301d62cae657d195"
"toko bangunan";"Toko Bahan Bangunan";"Toko Bangunan BINA BARU";"QV2X+RW5, Pd. Gajah, Kec. Bandar, Kabupaten Bener Meriah, Aceh 24582";"Pd. Gajah, Kec. Bandar, Kabupaten Bener Meriah";"ACEH";"24582";"Indonesia";"";"4.7520106";"96.8998645";"https://maps.google.com/?cid=0x0:0x3b1827c422336e0"
"toko bangunan";"Toko Bahan Bangunan";"Toko besi  bangunan MITRA 02";"PR93+RWP, Lut Kucak, Kec. Wih Pesam, Kabupaten Bener Meriah, Aceh 24471";"Lut Kucak, Kec. Wih Pesam, Kabupaten Bener Meriah";"ACEH";"24471";"Indonesia";" 085207072729";"4.7195935";"96.8048397";"https://maps.google.com/?cid=0x0:0x1c9b0ffa0c4bc3b3"
"toko bangunan";"Toko";"TOKO SAHABAT BANGUNAN";"PR92+396, Jl. Pante Raya, Lut Kucak, Kec. Wih Pesam, Kabupaten Bener Meriah, Aceh";"Kabupaten Bener Meriah, Aceh";"ACEH";"";"Indonesia";"";"4.7176678";"96.8008905";"https://maps.google.com/?cid=0x0:0x7f122f5ab8c49984"
"toko bangunan";"Toko Bahan Bangunan";"Toko Anugrah Jaya";"Uring, Kec. Bukit, Kabupaten Bener Meriah, Aceh 24582";"Kec. Bukit, Kabupaten Bener Meriah";"ACEH";"24582";"Indonesia";" 0816992047";"4.717481";"96.8716351";"https://maps.google.com/?cid=0x0:0x41aa8c3ad2af5bf0"
"toko bangunan";"Pusat Perbelanjaan";"Toko Bangunan HIDUP SUBUR";"PQHX+273, Simpang Balek, Kec. Wih Pesam, Kabupaten Bener Meriah, Aceh 24471";"Simpang Balek, Kec. Wih Pesam, Kabupaten Bener Meriah";"ACEH";"24471";"Indonesia";" 081362385666";"4.727512";"96.7981735";"https://maps.google.com/?cid=0x0:0xa8fa65faf3da029d"
"toko bangunan";"Toko Bahan Bangunan";"Toko Dunia Keramik";"PQCR+3XG, Jl. Pante Raya, Cinta Damai, Kec. Wih Pesam, Kabupaten Bener Meriah, Aceh 24471";"Jl. Pante Raya, Cinta Damai, Kec. Wih Pesam, Kabupaten Bener Meriah";"ACEH";"24471";"Indonesia";" 082361176387";"4.7201845";"96.792454";"https://maps.google.com/?cid=0x0:0x876d9fa30aa762c6"
"toko bangunan";"Toko";"BATU ALAM JAYA (SI WAN)";"PQGV+PW8, Jl. Simpang Balik-Blang Mancung, Blang Mancung, Kec. Wih Pesam, Kabupaten Aceh Tengah, Aceh 24571";"Jl. Simpang Balik-Blang Mancung, Blang Mancung, Kec. Wih Pesam, Kabupaten Aceh Tengah";"ACEH";"24571";"Indonesia";" 085260894789";"4.726777";"96.7948232";"https://maps.google.com/?cid=0x0:0x508394a4beb45d4f"
"toko bangunan";"Toko Bahan Bangunan";"DUNIA KERAMIK";"Jl. Raya Bireuen - Takengon, Lut Kucak, Kec. Wih Pesam, Kabupaten Bener Meriah, Aceh 24471";"Lut Kucak, Kec. Wih Pesam, Kabupaten Bener Meriah";"ACEH";"24471";"Indonesia";" 085359224777";"4.7217518";"96.8076732";"https://maps.google.com/?cid=0x0:0x896396c6d007e666"
"toko bangunan";"Toko Bahan Bangunan";"Toko Selamat jaya";"PMHM+M2C, Rejewali, Kec. Ketol, Kabupaten Aceh Tengah, Aceh 24571";"Rejewali, Kec. Ketol, Kabupaten Aceh Tengah";"ACEH";"24571";"Indonesia";"";"4.7291918";"96.6825245";"https://maps.google.com/?cid=0x0:0x7884b5f09f4d5c3e"
"toko bangunan";"Toko Bahan Bangunan";"Toko besi  bangunan MITRA 02";"PR93+RWP, Lut Kucak, Kec. Wih Pesam, Kabupaten Bener Meriah, Aceh 24471";"Lut Kucak, Kec. Wih Pesam, Kabupaten Bener Meriah";"ACEH";"24471";"Indonesia";" 085207072729";"4.7195935";"96.8048397";"https://maps.google.com/?cid=0x0:0x1c9b0ffa0c4bc3b3"
"toko bangunan";"Toko Bahan Bangunan";"toko bangunan hidup baru";"PQCR+3XG, Jl. Pante Raya, Cinta Damai, Kec. Wih Pesam, Kabupaten Bener Meriah, Aceh 24471";"Jl. Pante Raya, Cinta Damai, Kec. Wih Pesam, Kabupaten Bener Meriah";"ACEH";"24471";"Indonesia";" 081362949742";"4.7201845";"96.792454";"https://maps.google.com/?cid=0x0:0x3a808a62b35c515f"
"toko bangunan";"Toko";"TOKO SAHABAT BANGUNAN";"PR92+396, Jl. Pante Raya, Lut Kucak, Kec. Wih Pesam, Kabupaten Bener Meriah, Aceh";"Kabupaten Bener Meriah, Aceh";"ACEH";"";"Indonesia";"";"4.7176678";"96.8008905";"https://maps.google.com/?cid=0x0:0x7f122f5ab8c49984"
"toko bangunan";"Pusat Perbelanjaan";"Toko Bangunan HIDUP SUBUR";"PQHX+273, Simpang Balek, Kec. Wih Pesam, Kabupaten Bener Meriah, Aceh 24471";"Simpang Balek, Kec. Wih Pesam, Kabupaten Bener Meriah";"ACEH";"24471";"Indonesia";" 081362385666";"4.727512";"96.7981735";"https://maps.google.com/?cid=0x0:0xa8fa65faf3da029d"
"toko bangunan";"Toko Bahan Bangunan";"DUNIA KERAMIK";"Jl. Raya Bireuen - Takengon, Lut Kucak, Kec. Wih Pesam, Kabupaten Bener Meriah, Aceh 24471";"Lut Kucak, Kec. Wih Pesam, Kabupaten Bener Meriah";"ACEH";"24471";"Indonesia";" 085359224777";"4.7217518";"96.8076732";"https://maps.google.com/?cid=0x0:0x896396c6d007e666"
"toko bangunan";"Toko Bahan Bangunan";"Usaha Jaya,material";"PQJH+277, Jl. Simpang Balik-Blang Mancung, Bener Ayu, Kec. Wih Pesam, Kabupaten Bener Meriah, Aceh 24561";"Jl. Simpang Balik-Blang Mancung, Bener Ayu, Kec. Wih Pesam, Kabupaten Bener Meriah";"ACEH";"24561";"Indonesia";"";"4.7300424";"96.7781712";"https://maps.google.com/?cid=0x0:0x7335bd0dc0634ab1"
"toko bangunan";"Toko Bahan Bangunan";"Toko Bangunan BINA BARU";"QV2X+RW5, Pd. Gajah, Kec. Bandar, Kabupaten Bener Meriah, Aceh 24582";"Pd. Gajah, Kec. Bandar, Kabupaten Bener Meriah";"ACEH";"24582";"Indonesia";"";"4.7520106";"96.8998645";"https://maps.google.com/?cid=0x0:0x3b1827c422336e0"
"toko bangunan";"Toko Bahan Bangunan";"Toko bangunan karya baru";"RW3W+W5C, Ramung Jaya, Kec. Permata, Kabupaten Bener Meriah, Aceh";"Kabupaten Bener Meriah, Aceh";"ACEH";"";"Indonesia";" 083161290912";"4.8048162";"96.9454005";"https://maps.google.com/?cid=0x0:0xba34de8b1d5847e1"
"toko bangunan";"Toko";"BATU ALAM JAYA (SI WAN)";"PQGV+PW8, Jl. Simpang Balik-Blang Mancung, Blang Mancung, Kec. Wih Pesam, Kabupaten Aceh Tengah, Aceh 24571";"Jl. Simpang Balik-Blang Mancung, Blang Mancung, Kec. Wih Pesam, Kabupaten Aceh Tengah";"ACEH";"24571";"Indonesia";" 085260894789";"4.726777";"96.7948232";"https://maps.google.com/?cid=0x0:0x508394a4beb45d4f"
"toko bangunan";"Toko Bahan Bangunan";"Toko Dunia Keramik";"PQCR+3XG, Jl. Pante Raya, Cinta Damai, Kec. Wih Pesam, Kabupaten Bener Meriah, Aceh 24471";"Jl. Pante Raya, Cinta Damai, Kec. Wih Pesam, Kabupaten Bener Meriah";"ACEH";"24471";"Indonesia";" 082361176387";"4.7201845";"96.792454";"https://maps.google.com/?cid=0x0:0x876d9fa30aa762c6"
"toko bangunan";"Toko Beras";"Toko Saudara Baru";"PQJW+83J, kabupaten b.meriah, Jl. Raya Bireuen - Takengon, Bener Mulie, Kec. Wih Pesam, Kabupaten Bener Meriah, Aceh 24471";"kabupaten b.meriah, Jl. Raya Bireuen - Takengon, Bener Mulie, Kec. Wih Pesam, Kabupaten Bener Meriah";"ACEH";"24471";"Indonesia";" 082239670406";"4.7308354";"96.7951392";"https://maps.google.com/?cid=0x0:0xa1e59d66d88131b0"
"toko bangunan";"Kantor Perusahaan";"PT. MITRA BARU LAS";"Simpang Balek, Kec. Wih Pesam, Kabupaten Bener Meriah, Aceh 24471";"Kec. Wih Pesam, Kabupaten Bener Meriah";"ACEH";"24471";"Indonesia";" 082247481193";"4.7250316";"96.7941169";"https://maps.google.com/?cid=0x0:0xfb076e651c2cc488"
"toko bangunan";"Tukang Kayu";"Panglong Birahpanyang.ilham prabot";"PV49+WPW, Tingkem Bersatu, Kec. Bukit, Kabupaten Bener Meriah, Aceh 24582";"Tingkem Bersatu, Kec. Bukit, Kabupaten Bener Meriah";"ACEH";"24582";"Indonesia";" 085370141380";"4.7073703";"96.8693167";"https://maps.google.com/?cid=0x0:0x7f1bfc86a7f72be2"
"toko bangunan";"Toko Bahan Bangunan";"Toko Anugrah Jaya";"Uring, Kec. Bukit, Kabupaten Bener Meriah, Aceh 24582";"Kec. Bukit, Kabupaten Bener Meriah";"ACEH";"24582";"Indonesia";" 0816992047";"4.717481";"96.8716351";"https://maps.google.com/?cid=0x0:0x41aa8c3ad2af5bf0"
"building materials";"building materials";"Banda Aceh";"Kota Banda Aceh, Aceh";"Kota Banda Aceh, Aceh";"ACEH";"";"Indonesia";"";"5.5482904";"95.3237559";"https://maps.google.com/?cid=0x0:0x3039d80b220cb90"
"building materials";"Toko Bahan Bangunan";"Zahra Bangunan";"Jl. Dr. Mr. Mohd Hasan, Batoh, Kec. Lueng Bata, Kota Banda Aceh, Aceh 23127";"Batoh, Kec. Lueng Bata, Kota Banda Aceh";"ACEH";"23127";"Indonesia";" 085697225016";"5.5425651";"95.3305542";"https://maps.google.com/?cid=0x0:0x9785538145c2ac3"
"building materials";"Toko Bahan Bangunan";"MULIA ATAP";"H82C+CRC, Peuniti, Kec. Baiturrahman, Kota Banda Aceh, Aceh";"Kota Banda Aceh, Aceh";"ACEH";"";"Indonesia";" 081361112653";"5.55106";"95.322016";"https://maps.google.com/?cid=0x0:0x11b76beab141a595"
"building materials";"Toko Bahan Bangunan";"Sylva Raseuki";"Jl. Teuku Chik Di Tiro No.160-162, Ateuk Pahlawan, Kec. Baiturrahman, Kota Banda Aceh, Aceh 23127";"Ateuk Pahlawan, Kec. Baiturrahman, Kota Banda Aceh";"ACEH";"23127";"Indonesia";" 065123383";"5.550791";"95.3295705";"https://maps.google.com/?cid=0x0:0x9befd9da91167003"
"building materials";"Toko Suku Cadang Mobil";"Aceh Inti Timber Co Ltd. PT";"Jl. Pocut Baren No.50, Peunayong, Kec. Kuta Alam, Kota Banda Aceh, Aceh";"Kota Banda Aceh, Aceh";"ACEH";"";"Indonesia";" 065121138";"5.562597";"95.320516";"https://maps.google.com/?cid=0x0:0x62996262af004e48"
"building materials";"Toko Bahan Bangunan";"Baru Tabina";"Jl. WR Supratman, Peunayong, Kec. Kuta Alam, Kota Banda Aceh, Aceh";"Kota Banda Aceh, Aceh";"ACEH";"";"Indonesia";" 081374133537";"5.5605378";"95.3207611";"https://maps.google.com/?cid=0x0:0x29c5a5bbd1da12a2"
"building materials";"Toko Bahan Bangunan";"Aman Timber. CV";"G8P7+4VH, Lam Lagang, Kec. Banda Raya, Kota Banda Aceh, Aceh 23122";"Lam Lagang, Kec. Banda Raya, Kota Banda Aceh";"ACEH";"23122";"Indonesia";" 065131822";"5.5353216";"95.3147317";"https://maps.google.com/?cid=0x0:0x8f5fc0d0f21468e9"
"building materials";"Toko Bahan Bangunan";"Toko Bangunan Putro Maju";"H8FF+9FF, Jl. Sisingamangaraja, Lampulo, Kec. Kuta Alam, Kota Banda Aceh, Aceh";"Kota Banda Aceh, Aceh";"ACEH";"";"Indonesia";" 087757645408";"5.5734371";"95.323661";"https://maps.google.com/?cid=0x0:0x1816d99794754ba"
"building materials";"Toko Bahan Bangunan";"Toko Mitra Kana";"G8JQ+WMM, Cot Mesjid, Kec. Lueng Bata, Kota Banda Aceh, Aceh 23122";"Cot Mesjid, Kec. Lueng Bata, Kota Banda Aceh";"ACEH";"23122";"Indonesia";" 082186774774";"5.5323276";"95.339161";"https://maps.google.com/?cid=0x0:0x60d05c2e98eb286d"
"building materials";"Toko Bahan Bangunan";"PAS material bangunan";"Jl. Sultan Iskandar Muda No.7, Lambung, Kec. Meuraxa, Kota Banda Aceh, Aceh";"Kota Banda Aceh, Aceh";"ACEH";"";"Indonesia";" 085769908768";"5.5535518";"95.2945086";"https://maps.google.com/?cid=0x0:0x3aafffb629a8ad50"
"building materials";"Toko Bahan Bangunan";"GM Gallery Banda Aceh";"Jl. Dr. Mr. Mohd Hasan No.90 - 91, Lamcot, Kec. Darul Imarah, Kabupaten Aceh Besar, Aceh";"Kabupaten Aceh Besar, Aceh";"ACEH";"";"Indonesia";" 081361378798";"5.5256455";"95.3299508";"https://maps.google.com/?cid=0x0:0xec8edb50965a672e"
"building materials";"Toko Bahan Bangunan";"Mitra Abadi";"H837+8W5 NO WA OI54O54249, Kp. Baru, Kec. Baiturrahman, Kota Banda Aceh, Aceh 23116";"Kp. Baru, Kec. Baiturrahman, Kota Banda Aceh";"ACEH";"23116";"Indonesia";" 065131263";"5.5532625";"95.3148594";"https://maps.google.com/?cid=0x0:0x76af1142a595572c"
"building materials";"Jasa Konstruksi dan Bangunan";"ACP Dan Sealant Aceh";"Jl. Teuku Umar No.311A, Geuceu Kayee Jato, Kec. Banda Raya, Kota Banda Aceh, Aceh 23239";"Geuceu Kayee Jato, Kec. Banda Raya, Kota Banda Aceh";"ACEH";"23239";"Indonesia";" 08117680573";"5.5352841";"95.30526";"https://maps.google.com/?cid=0x0:0x8661dc7723ad89c1"
"building materials";"Toko Bahan Bangunan";"Adek Abang. TB";"Jl. Pocut Baren No.71, Keuramat, Kec. Kuta Alam, Kota Banda Aceh, Aceh 24415";"Keuramat, Kec. Kuta Alam, Kota Banda Aceh";"ACEH";"24415";"Indonesia";" 085277543172";"5.5619769";"95.3225166";"https://maps.google.com/?cid=0x0:0xfa14f329061791e4"
"building materials";"Toko Bahan Bangunan";"Zahra Bangunan";"Jl. Dr. Mr. Mohd Hasan, Batoh, Kec. Lueng Bata, Kota Banda Aceh, Aceh 23127";"Batoh, Kec. Lueng Bata, Kota Banda Aceh";"ACEH";"23127";"Indonesia";" 085697225016";"5.5425651";"95.3305542";"https://maps.google.com/?cid=0x0:0x9785538145c2ac3"
"building materials";"building materials";"Banda Aceh";"Kota Banda Aceh, Aceh";"Kota Banda Aceh, Aceh";"ACEH";"";"Indonesia";"";"5.5482904";"95.3237559";"https://maps.google.com/?cid=0x0:0x3039d80b220cb90"
"building materials";"Toko Bahan Bangunan";"MULIA ATAP";"H82C+CRC, Peuniti, Kec. Baiturrahman, Kota Banda Aceh, Aceh";"Kota Banda Aceh, Aceh";"ACEH";"";"Indonesia";" 081361112653";"5.55106";"95.322016";"https://maps.google.com/?cid=0x0:0x11b76beab141a595"
"building materials";"Toko Bahan Bangunan";"Baru Tabina";"Jl. WR Supratman, Peunayong, Kec. Kuta Alam, Kota Banda Aceh, Aceh";"Kota Banda Aceh, Aceh";"ACEH";"";"Indonesia";" 081374133537";"5.5605378";"95.3207611";"https://maps.google.com/?cid=0x0:0x29c5a5bbd1da12a2"
"building materials";"Toko Bahan Bangunan";"Toko Mitra Kana";"G8JQ+WMM, Cot Mesjid, Kec. Lueng Bata, Kota Banda Aceh, Aceh 23122";"Cot Mesjid, Kec. Lueng Bata, Kota Banda Aceh";"ACEH";"23122";"Indonesia";" 082186774774";"5.5323276";"95.339161";"https://maps.google.com/?cid=0x0:0x60d05c2e98eb286d"
"building materials";"Toko Suku Cadang Mobil";"Aceh Inti Timber Co Ltd. PT";"Jl. Pocut Baren No.50, Peunayong, Kec. Kuta Alam, Kota Banda Aceh, Aceh";"Kota Banda Aceh, Aceh";"ACEH";"";"Indonesia";" 065121138";"5.562597";"95.320516";"https://maps.google.com/?cid=0x0:0x62996262af004e48"
"building materials";"Toko Bahan Bangunan";"Aman Timber. CV";"G8P7+4VH, Lam Lagang, Kec. Banda Raya, Kota Banda Aceh, Aceh 23122";"Lam Lagang, Kec. Banda Raya, Kota Banda Aceh";"ACEH";"23122";"Indonesia";" 065131822";"5.5353216";"95.3147317";"https://maps.google.com/?cid=0x0:0x8f5fc0d0f21468e9"
"building materials";"Toko Bahan Bangunan";"Mitra Abadi";"H837+8W5 NO WA OI54O54249, Kp. Baru, Kec. Baiturrahman, Kota Banda Aceh, Aceh 23116";"Kp. Baru, Kec. Baiturrahman, Kota Banda Aceh";"ACEH";"23116";"Indonesia";" 065131263";"5.5532625";"95.3148594";"https://maps.google.com/?cid=0x0:0x76af1142a595572c"
"building materials";"Toko Bahan Bangunan";"Toko Bangunan Putro Maju";"H8FF+9FF, Jl. Sisingamangaraja, Lampulo, Kec. Kuta Alam, Kota Banda Aceh, Aceh";"Kota Banda Aceh, Aceh";"ACEH";"";"Indonesia";" 087757645408";"5.5734371";"95.323661";"https://maps.google.com/?cid=0x0:0x1816d99794754ba"
"building materials";"Toko Bahan Bangunan";"Sylva Raseuki";"Jl. Teuku Chik Di Tiro No.160-162, Ateuk Pahlawan, Kec. Baiturrahman, Kota Banda Aceh, Aceh 23127";"Ateuk Pahlawan, Kec. Baiturrahman, Kota Banda Aceh";"ACEH";"23127";"Indonesia";" 065123383";"5.550791";"95.3295705";"https://maps.google.com/?cid=0x0:0x9befd9da91167003"
"building materials";"Jasa Konstruksi dan Bangunan";"ACP Dan Sealant Aceh";"Jl. Teuku Umar No.311A, Geuceu Kayee Jato, Kec. Banda Raya, Kota Banda Aceh, Aceh 23239";"Geuceu Kayee Jato, Kec. Banda Raya, Kota Banda Aceh";"ACEH";"23239";"Indonesia";" 08117680573";"5.5352841";"95.30526";"https://maps.google.com/?cid=0x0:0x8661dc7723ad89c1"
"building materials";"Toko Bahan Bangunan";"TOKO SINAR MENTARI (DISTRIBUTOR ATAP ONDULINE WILAYAH ACEH)";"G8R6+83P, Seutui, Kec. Baiturrahman, Kota Banda Aceh, Aceh 23116";"Seutui, Kec. Baiturrahman, Kota Banda Aceh";"ACEH";"23116";"Indonesia";" 081212122530";"5.5408275";"95.310218";"https://maps.google.com/?cid=0x0:0x8d04bb448e3d34ae"
"building materials";"Toko Bahan Bangunan";"Sabeina";"Jl. Hasan Saleh, Neusu Jaya, Kec. Baiturrahman, Kota Banda Aceh, Aceh 23116";"Neusu Jaya, Kec. Baiturrahman, Kota Banda Aceh";"ACEH";"23116";"Indonesia";" 081350546969";"5.5419627";"95.3165094";"https://maps.google.com/?cid=0x0:0x68eb67e6b95fd29b"
"building materials";"Toko Bahan Bangunan";"Cahaya Abadi";"G8Q5+VW4, Seutui, Kec. Baiturrahman, Kota Banda Aceh, Aceh 23116";"Seutui, Kec. Baiturrahman, Kota Banda Aceh";"ACEH";"23116";"Indonesia";" 065142768";"5.5396379";"95.3098297";"https://maps.google.com/?cid=0x0:0x350c472059119908"
"building materials";"Toko Bahan Bangunan";"Zahra Bangunan";"Jl. Dr. Mr. Mohd Hasan, Batoh, Kec. Lueng Bata, Kota Banda Aceh, Aceh 23127";"Batoh, Kec. Lueng Bata, Kota Banda Aceh";"ACEH";"23127";"Indonesia";" 085697225016";"5.5425651";"95.3305542";"https://maps.google.com/?cid=0x0:0x9785538145c2ac3"
"building materials";"Toko Bahan Bangunan";"Emeral Gypsum Depo Jayaboard";"Jalan Rama Setia No. 88-94 , Kel Lampaseh Kota, Kec, Kuta Raja, Banda Aceh City, Aceh 23231";"Kel Lampaseh Kota, Kec, Kuta Raja, Banda Aceh City";"ACEH";"23231";"Indonesia";" 08126994999";"5.5574385";"95.3129602";"https://maps.google.com/?cid=0x0:0xca72f70fb97aa74a"
"building materials";"building materials";"Banda Aceh";"Kota Banda Aceh, Aceh";"Kota Banda Aceh, Aceh";"ACEH";"";"Indonesia";"";"5.5482904";"95.3237559";"https://maps.google.com/?cid=0x0:0x3039d80b220cb90"
"building materials";"Toko Bahan Bangunan";"SOLID BANGUNAN";"G8Q8+63P, Neusu Aceh, Kec. Baiturrahman, Kota Banda Aceh, Aceh 23116";"Neusu Aceh, Kec. Baiturrahman, Kota Banda Aceh";"ACEH";"23116";"Indonesia";"";"5.5380938";"95.3152032";"https://maps.google.com/?cid=0x0:0x5bc4e2747d58ce5"
"building materials";"Toko Bahan Bangunan";"Baru Tabina";"Jl. WR Supratman, Peunayong, Kec. Kuta Alam, Kota Banda Aceh, Aceh";"Kota Banda Aceh, Aceh";"ACEH";"";"Indonesia";" 081374133537";"5.5605378";"95.3207611";"https://maps.google.com/?cid=0x0:0x29c5a5bbd1da12a2"
"building materials";"Toko Suku Cadang Mobil";"Aceh Inti Timber Co Ltd. PT";"Jl. Pocut Baren No.50, Peunayong, Kec. Kuta Alam, Kota Banda Aceh, Aceh";"Kota Banda Aceh, Aceh";"ACEH";"";"Indonesia";" 065121138";"5.562597";"95.320516";"https://maps.google.com/?cid=0x0:0x62996262af004e48"
"building materials";"Toko Bahan Bangunan";"Toko Mitra Kana";"G8JQ+WMM, Cot Mesjid, Kec. Lueng Bata, Kota Banda Aceh, Aceh 23122";"Cot Mesjid, Kec. Lueng Bata, Kota Banda Aceh";"ACEH";"23122";"Indonesia";" 082186774774";"5.5323276";"95.339161";"https://maps.google.com/?cid=0x0:0x60d05c2e98eb286d"
"building materials";"Toko Bahan Bangunan";"Sylva Raseuki";"Jl. Teuku Chik Di Tiro No.160-162, Ateuk Pahlawan, Kec. Baiturrahman, Kota Banda Aceh, Aceh 23127";"Ateuk Pahlawan, Kec. Baiturrahman, Kota Banda Aceh";"ACEH";"23127";"Indonesia";" 065123383";"5.550791";"95.3295705";"https://maps.google.com/?cid=0x0:0x9befd9da91167003"
"building materials";"Toko Bahan Bangunan";"Aman Timber. CV";"G8P7+4VH, Lam Lagang, Kec. Banda Raya, Kota Banda Aceh, Aceh 23122";"Lam Lagang, Kec. Banda Raya, Kota Banda Aceh";"ACEH";"23122";"Indonesia";" 065131822";"5.5353216";"95.3147317";"https://maps.google.com/?cid=0x0:0x8f5fc0d0f21468e9"
"building materials";"Toko Bahan Bangunan";"Mitra Abadi";"H837+8W5 NO WA OI54O54249, Kp. Baru, Kec. Baiturrahman, Kota Banda Aceh, Aceh 23116";"Kp. Baru, Kec. Baiturrahman, Kota Banda Aceh";"ACEH";"23116";"Indonesia";" 065131263";"5.5532625";"95.3148594";"https://maps.google.com/?cid=0x0:0x76af1142a595572c"
"building materials";"Toko Bahan Bangunan";"Toko Bangunan Putro Maju";"H8FF+9FF, Jl. Sisingamangaraja, Lampulo, Kec. Kuta Alam, Kota Banda Aceh, Aceh";"Kota Banda Aceh, Aceh";"ACEH";"";"Indonesia";" 087757645408";"5.5734371";"95.323661";"https://maps.google.com/?cid=0x0:0x1816d99794754ba"
"building materials";"Toko Bahan Bangunan";"TOKO BESI BINTANG BANGUNAN";"Jl. Pocut Baren No.29, Keuramat, Kec. Kuta Alam, Kota Banda Aceh, Aceh 23126";"Keuramat, Kec. Kuta Alam, Kota Banda Aceh";"ACEH";"23126";"Indonesia";" 081360031288";"5.5617508";"95.3240203";"https://maps.google.com/?cid=0x0:0xa98c67e001462b53"
"building materials";"Toko Bahan Bangunan";"Surya Abadi";"JL. Mr. Muhammad Hasan, No. 78, Batoh, Batoh, Banda Aceh, Kota Banda Aceh, Aceh";"Kota Banda Aceh, Aceh";"ACEH";"";"Indonesia";" 081269858762";"5.5415765";"95.3299639";"https://maps.google.com/?cid=0x0:0xd48d42b58b4688"
"building materials";"Toko Bahan Bangunan";"Baru Jadi";"JL. Teuku Hasan Jl. T. Hasan Dek No.6 - 7, Simpang Surabaya, Kec. Kuta Alam, Kota Banda Aceh, Aceh 24415";"Simpang Surabaya, Kec. Kuta Alam, Kota Banda Aceh";"ACEH";"24415";"Indonesia";" 085260240635";"5.5579299";"95.3297448";"https://maps.google.com/?cid=0x0:0xc233cc4aa07aa9d1"
"building materials";"Toko Bahan Bangunan";"Zahra Bangunan";"Jl. Dr. Mr. Mohd Hasan, Batoh, Kec. Lueng Bata, Kota Banda Aceh, Aceh 23127";"Batoh, Kec. Lueng Bata, Kota Banda Aceh";"ACEH";"23127";"Indonesia";" 085697225016";"5.5425651";"95.3305542";"https://maps.google.com/?cid=0x0:0x9785538145c2ac3"
"building materials";"building materials";"Banda Aceh";"Kota Banda Aceh, Aceh";"Kota Banda Aceh, Aceh";"ACEH";"";"Indonesia";"";"5.5482904";"95.3237559";"https://maps.google.com/?cid=0x0:0x3039d80b220cb90"
"building materials";"Toko Bahan Bangunan";"Emeral Gypsum Depo Jayaboard";"Jalan Rama Setia No. 88-94 , Kel Lampaseh Kota, Kec, Kuta Raja, Banda Aceh City, Aceh 23231";"Kel Lampaseh Kota, Kec, Kuta Raja, Banda Aceh City";"ACEH";"23231";"Indonesia";" 08126994999";"5.5574385";"95.3129602";"https://maps.google.com/?cid=0x0:0xca72f70fb97aa74a"
"building materials";"Toko Bahan Bangunan";"Baru Tabina";"Jl. WR Supratman, Peunayong, Kec. Kuta Alam, Kota Banda Aceh, Aceh";"Kota Banda Aceh, Aceh";"ACEH";"";"Indonesia";" 081374133537";"5.5605378";"95.3207611";"https://maps.google.com/?cid=0x0:0x29c5a5bbd1da12a2"
"building materials";"Toko Bahan Bangunan";"SOLID BANGUNAN";"G8Q8+63P, Neusu Aceh, Kec. Baiturrahman, Kota Banda Aceh, Aceh 23116";"Neusu Aceh, Kec. Baiturrahman, Kota Banda Aceh";"ACEH";"23116";"Indonesia";"";"5.5380938";"95.3152032";"https://maps.google.com/?cid=0x0:0x5bc4e2747d58ce5"
"building materials";"Toko Bahan Bangunan";"Sylva Raseuki";"Jl. Teuku Chik Di Tiro No.160-162, Ateuk Pahlawan, Kec. Baiturrahman, Kota Banda Aceh, Aceh 23127";"Ateuk Pahlawan, Kec. Baiturrahman, Kota Banda Aceh";"ACEH";"23127";"Indonesia";" 065123383";"5.550791";"95.3295705";"https://maps.google.com/?cid=0x0:0x9befd9da91167003"
"building materials";"Toko Suku Cadang Mobil";"Aceh Inti Timber Co Ltd. PT";"Jl. Pocut Baren No.50, Peunayong, Kec. Kuta Alam, Kota Banda Aceh, Aceh";"Kota Banda Aceh, Aceh";"ACEH";"";"Indonesia";" 065121138";"5.562597";"95.320516";"https://maps.google.com/?cid=0x0:0x62996262af004e48"
"building materials";"Toko Bahan Bangunan";"Toko Mitra Kana";"G8JQ+WMM, Cot Mesjid, Kec. Lueng Bata, Kota Banda Aceh, Aceh 23122";"Cot Mesjid, Kec. Lueng Bata, Kota Banda Aceh";"ACEH";"23122";"Indonesia";" 082186774774";"5.5323276";"95.339161";"https://maps.google.com/?cid=0x0:0x60d05c2e98eb286d"
"building materials";"Toko Bahan Bangunan";"Aman Timber. CV";"G8P7+4VH, Lam Lagang, Kec. Banda Raya, Kota Banda Aceh, Aceh 23122";"Lam Lagang, Kec. Banda Raya, Kota Banda Aceh";"ACEH";"23122";"Indonesia";" 065131822";"5.5353216";"95.3147317";"https://maps.google.com/?cid=0x0:0x8f5fc0d0f21468e9"
"building materials";"Toko Bahan Bangunan";"Mitra Abadi";"H837+8W5 NO WA OI54O54249, Kp. Baru, Kec. Baiturrahman, Kota Banda Aceh, Aceh 23116";"Kp. Baru, Kec. Baiturrahman, Kota Banda Aceh";"ACEH";"23116";"Indonesia";" 065131263";"5.5532625";"95.3148594";"https://maps.google.com/?cid=0x0:0x76af1142a595572c"
"building materials";"Toko Bahan Bangunan";"Surya Abadi";"JL. Mr. Muhammad Hasan, No. 78, Batoh, Batoh, Banda Aceh, Kota Banda Aceh, Aceh";"Kota Banda Aceh, Aceh";"ACEH";"";"Indonesia";" 081269858762";"5.5415765";"95.3299639";"https://maps.google.com/?cid=0x0:0xd48d42b58b4688"
"building materials";"Toko Bahan Bangunan";"Toko Bangunan Putro Maju";"H8FF+9FF, Jl. Sisingamangaraja, Lampulo, Kec. Kuta Alam, Kota Banda Aceh, Aceh";"Kota Banda Aceh, Aceh";"ACEH";"";"Indonesia";" 087757645408";"5.5734371";"95.323661";"https://maps.google.com/?cid=0x0:0x1816d99794754ba"
"building materials";"Toko Bahan Bangunan";"Cahaya Abadi";"G8Q5+VW4, Seutui, Kec. Baiturrahman, Kota Banda Aceh, Aceh 23116";"Seutui, Kec. Baiturrahman, Kota Banda Aceh";"ACEH";"23116";"Indonesia";" 065142768";"5.5396379";"95.3098297";"https://maps.google.com/?cid=0x0:0x350c472059119908"
"building materials";"Penyedia batu alam";"ATJEH STONE Pusat Batu Alam Aceh";"G8VW+PMP, Jl. Prof. Ali Hasyimi, Ilie, Kec. Ulee Kareng, Kota Banda Aceh, Aceh 23116";"Jl. Prof. Ali Hasyimi, Ilie, Kec. Ulee Kareng, Kota Banda Aceh";"ACEH";"23116";"Indonesia";" 081312117773";"5.5443324";"95.3467049";"https://maps.google.com/?cid=0x0:0x1c3977dd44466ffc"
"building materials";"building materials";"Banda Aceh";"Kota Banda Aceh, Aceh";"Kota Banda Aceh, Aceh";"ACEH";"";"Indonesia";"";"5.5482904";"95.3237559";"https://maps.google.com/?cid=0x0:0x3039d80b220cb90"
"building materials";"Toko Bahan Bangunan";"Zahra Bangunan";"Jl. Dr. Mr. Mohd Hasan, Batoh, Kec. Lueng Bata, Kota Banda Aceh, Aceh 23127";"Batoh, Kec. Lueng Bata, Kota Banda Aceh";"ACEH";"23127";"Indonesia";" 085697225016";"5.5425651";"95.3305542";"https://maps.google.com/?cid=0x0:0x9785538145c2ac3"
"building materials";"Toko Bahan Bangunan";"Emeral Gypsum Depo Jayaboard";"Jalan Rama Setia No. 88-94 , Kel Lampaseh Kota, Kec, Kuta Raja, Banda Aceh City, Aceh 23231";"Kel Lampaseh Kota, Kec, Kuta Raja, Banda Aceh City";"ACEH";"23231";"Indonesia";" 08126994999";"5.5574385";"95.3129602";"https://maps.google.com/?cid=0x0:0xca72f70fb97aa74a"
"building materials";"Toko Bahan Bangunan";"SOLID BANGUNAN";"G8Q8+63P, Neusu Aceh, Kec. Baiturrahman, Kota Banda Aceh, Aceh 23116";"Neusu Aceh, Kec. Baiturrahman, Kota Banda Aceh";"ACEH";"23116";"Indonesia";"";"5.5380938";"95.3152032";"https://maps.google.com/?cid=0x0:0x5bc4e2747d58ce5"
"building materials";"Toko Bahan Bangunan";"Baru Tabina";"Jl. WR Supratman, Peunayong, Kec. Kuta Alam, Kota Banda Aceh, Aceh";"Kota Banda Aceh, Aceh";"ACEH";"";"Indonesia";" 081374133537";"5.5605378";"95.3207611";"https://maps.google.com/?cid=0x0:0x29c5a5bbd1da12a2"
"building materials";"Toko Bahan Bangunan";"Sylva Raseuki";"Jl. Teuku Chik Di Tiro No.160-162, Ateuk Pahlawan, Kec. Baiturrahman, Kota Banda Aceh, Aceh 23127";"Ateuk Pahlawan, Kec. Baiturrahman, Kota Banda Aceh";"ACEH";"23127";"Indonesia";" 065123383";"5.550791";"95.3295705";"https://maps.google.com/?cid=0x0:0x9befd9da91167003"
"building materials";"Toko Suku Cadang Mobil";"Aceh Inti Timber Co Ltd. PT";"Jl. Pocut Baren No.50, Peunayong, Kec. Kuta Alam, Kota Banda Aceh, Aceh";"Kota Banda Aceh, Aceh";"ACEH";"";"Indonesia";" 065121138";"5.562597";"95.320516";"https://maps.google.com/?cid=0x0:0x62996262af004e48"
"building materials";"Toko Bahan Bangunan";"Toko Mitra Kana";"G8JQ+WMM, Cot Mesjid, Kec. Lueng Bata, Kota Banda Aceh, Aceh 23122";"Cot Mesjid, Kec. Lueng Bata, Kota Banda Aceh";"ACEH";"23122";"Indonesia";" 082186774774";"5.5323276";"95.339161";"https://maps.google.com/?cid=0x0:0x60d05c2e98eb286d"
"building materials";"Toko Bahan Bangunan";"Mitra Abadi";"H837+8W5 NO WA OI54O54249, Kp. Baru, Kec. Baiturrahman, Kota Banda Aceh, Aceh 23116";"Kp. Baru, Kec. Baiturrahman, Kota Banda Aceh";"ACEH";"23116";"Indonesia";" 065131263";"5.5532625";"95.3148594";"https://maps.google.com/?cid=0x0:0x76af1142a595572c"
"building materials";"Toko Bahan Bangunan";"Toko Bangunan Putro Maju";"H8FF+9FF, Jl. Sisingamangaraja, Lampulo, Kec. Kuta Alam, Kota Banda Aceh, Aceh";"Kota Banda Aceh, Aceh";"ACEH";"";"Indonesia";" 087757645408";"5.5734371";"95.323661";"https://maps.google.com/?cid=0x0:0x1816d99794754ba"
"building materials";"Toko Bahan Bangunan";"Aman Timber. CV";"G8P7+4VH, Lam Lagang, Kec. Banda Raya, Kota Banda Aceh, Aceh 23122";"Lam Lagang, Kec. Banda Raya, Kota Banda Aceh";"ACEH";"23122";"Indonesia";" 065131822";"5.5353216";"95.3147317";"https://maps.google.com/?cid=0x0:0x8f5fc0d0f21468e9"
"building materials";"Toko Bahan Bangunan";"Surya Abadi";"JL. Mr. Muhammad Hasan, No. 78, Batoh, Batoh, Banda Aceh, Kota Banda Aceh, Aceh";"Kota Banda Aceh, Aceh";"ACEH";"";"Indonesia";" 081269858762";"5.5415765";"95.3299639";"https://maps.google.com/?cid=0x0:0xd48d42b58b4688"
"building materials";"Penyedia batu alam";"ATJEH STONE Pusat Batu Alam Aceh";"G8VW+PMP, Jl. Prof. Ali Hasyimi, Ilie, Kec. Ulee Kareng, Kota Banda Aceh, Aceh 23116";"Jl. Prof. Ali Hasyimi, Ilie, Kec. Ulee Kareng, Kota Banda Aceh";"ACEH";"23116";"Indonesia";" 081312117773";"5.5443324";"95.3467049";"https://maps.google.com/?cid=0x0:0x1c3977dd44466ffc"
"building materials";"Toko Bahan Bangunan";"TOKO BESI BINTANG BANGUNAN";"Jl. Pocut Baren No.29, Keuramat, Kec. Kuta Alam, Kota Banda Aceh, Aceh 23126";"Keuramat, Kec. Kuta Alam, Kota Banda Aceh";"ACEH";"23126";"Indonesia";" 081360031288";"5.5617508";"95.3240203";"https://maps.google.com/?cid=0x0:0xa98c67e001462b53"
"building materials";"building materials";"Kec. Bener Kelipah";"Kabupaten Bener Meriah, Aceh";"Kabupaten Bener Meriah, Aceh";"ACEH";"";"Indonesia";"";"4.7701481";"96.923098";"https://maps.google.com/?cid=0x0:0x3a7e0c8dc476f1e"
"building materials";"Toko Bahan Bangunan";"Indah warna bener meriah";"QW47+52J, Jl. Syiah Utama, Simpang Utama, Kec. Bandar, Kabupaten Bener Meriah, Aceh 24582";"Jl. Syiah Utama, Simpang Utama, Kec. Bandar, Kabupaten Bener Meriah";"ACEH";"24582";"Indonesia";"";"4.7554652";"96.9125289";"https://maps.google.com/?cid=0x0:0x707bc46e1d0187d0"
"building materials";"Toko Bahan Bangunan";"Toko Bangunan BINA BARU";"QV2X+RW5, Pd. Gajah, Kec. Bandar, Kabupaten Bener Meriah, Aceh 24582";"Pd. Gajah, Kec. Bandar, Kabupaten Bener Meriah";"ACEH";"24582";"Indonesia";"";"4.7520106";"96.8998645";"https://maps.google.com/?cid=0x0:0x3b1827c422336e0"
"building materials";"Toko Bahan Bangunan";"TOKO BESI MURNI BARU";"QW34+3C8, Simpang Utama, Kec. Bandar, Kabupaten Bener Meriah, Aceh 24582";"Simpang Utama, Kec. Bandar, Kabupaten Bener Meriah";"ACEH";"24582";"Indonesia";"";"4.7526704";"96.9060781";"https://maps.google.com/?cid=0x0:0xf8da11935137ba38"
"building materials";"Toko Bahan Bangunan";"Toko bangunan karya baru";"RW3W+W5C, Ramung Jaya, Kec. Permata, Kabupaten Bener Meriah, Aceh";"Kabupaten Bener Meriah, Aceh";"ACEH";"";"Indonesia";" 083161290912";"4.8048162";"96.9454005";"https://maps.google.com/?cid=0x0:0xba34de8b1d5847e1"
"building materials";"Toko Bahan Bangunan";"Toko surya baru";"QW48+MM7, Pd. Baru, Lhokseumawe, Kabupaten Bener Meriah, Aceh 24582";"Pd. Baru, Lhokseumawe, Kabupaten Bener Meriah";"ACEH";"24582";"Indonesia";"";"4.756492";"96.9165836";"https://maps.google.com/?cid=0x0:0x90d4c8f55c2eb310"
"building materials";"Toko Perabot untuk Taman";"Mekar jaya perabot";"Jalan pondok baru buntul, simpang, Bahgie Bertona, Pondok baru, Kabupaten Bener Meriah, Aceh 24582";"simpang, Bahgie Bertona, Pondok baru, Kabupaten Bener Meriah";"ACEH";"24582";"Indonesia";" 082367006688";"4.7563816";"96.917841";"https://maps.google.com/?cid=0x0:0x663a84ec16a43c36"
"building materials";"Toko Bahan Bangunan";"TOKO BINTANG JAYA KERAMIK";"PWX7+Q68, Jl. Blang Jorong, Pd. Baru, Kec. Bandar, Kabupaten Bener Meriah, Aceh 24582";"Jl. Blang Jorong, Pd. Baru, Kec. Bandar, Kabupaten Bener Meriah";"ACEH";"24582";"Indonesia";" 081362385666";"4.7494123";"96.9130994";"https://maps.google.com/?cid=0x0:0x81704bc2e4e9d04c"
"building materials";"building materials";"Toko Hidup Subur";"QW47+42V, Jl. Syiah Utama, Janarata, Kec. Bandar, Kabupaten Bener Meriah, Aceh 24582";"Jl. Syiah Utama, Janarata, Kec. Bandar, Kabupaten Bener Meriah";"ACEH";"24582";"Indonesia";"";"4.7552236";"96.9125504";"https://maps.google.com/?cid=0x0:0x669c06f324a70deb"
"building materials";"Toko Bahan Bangunan";"Toko Bangunan Jasa Bukit Tiga Peunaron";"JM56+RPM, Arul Pinang, Kec. Peunaron, Kabupaten Aceh Timur, Aceh 24392";"Arul Pinang, Kec. Peunaron, Kabupaten Aceh Timur";"ACEH";"24392";"Indonesia";"";"4.6095819";"97.6617735";"https://maps.google.com/?cid=0x0:0x1dc433f0d8a2d0ea"
"building materials";"Toko Bahan Bangunan";"Construction Materials IBN";"Blang Reuling, Kec. Sawang, Kabupaten Aceh Utara, Aceh 24352";"Kec. Sawang, Kabupaten Aceh Utara";"ACEH";"24352";"Indonesia";" 081375777927";"5.18328";"96.9151938";"https://maps.google.com/?cid=0x0:0x1a0d40f586810d3d"
"building materials";"building materials";"Aceh";"";"Aceh";"ACEH";"";"Indonesia";"";"4.695135";"96.7493993";"https://maps.google.com/?cid=0x0:0x1039d80b220ca60"
"building materials";"Pembangunan Perumahan";"Basecamp KPLM";"Jl. Laksamana Malahayati No.111, Kajhu, Kec. Baitussalam, Kabupaten Aceh Besar, Aceh";"Kabupaten Aceh Besar, Aceh";"ACEH";"";"Indonesia";" 085360032444";"5.5964727";"95.3730772";"https://maps.google.com/?cid=0x0:0x21c35720fb498891"
"building materials";"Toko Bahan Bangunan";"Bukit Raya Bangunan";"Jl. Mad Nur, Iwul, Kec. Parung, Kabupaten Bogor, Jawa Barat 16330";"Iwul, Kec. Parung, Kabupaten Bogor";"ACEH";"16330";"Indonesia";" 08111559981";"-6.4616862";"106.7069828";"https://maps.google.com/?cid=0x0:0xc4d947072e4a48df"
"building materials";"Toko Bahan Bangunan";"Building Material";"Jalan Raya Bogor KM 41.5 Mitra 10, Kec. Cibinong, Kabupaten Bogor, Jawa Barat";"Kabupaten Bogor, Jawa Barat";"ACEH";"";"Indonesia";" 08888553230";"-6.4611293";"106.8578126";"https://maps.google.com/?cid=0x0:0xdf26c1dd6cf56797"
"building materials";"Toko Bahan Bangunan";"Sinar baru";"4VJV+J3F, Blang Teurakan, Kec. Sawang, Kabupaten Aceh Utara, Aceh 24184";"Blang Teurakan, Kec. Sawang, Kabupaten Aceh Utara";"ACEH";"24184";"Indonesia";"";"5.131564";"96.8925996";"https://maps.google.com/?cid=0x0:0x6053388329405336"
"building materials";"building materials";"Kec. Gajah Putih";"Kabupaten Bener Meriah, Aceh";"Kabupaten Bener Meriah, Aceh";"ACEH";"";"Indonesia";"";"4.8103413";"96.7371594";"https://maps.google.com/?cid=0x0:0xc34ec80407ef00cb"
"building materials";"Toko Bahan Bangunan";"Toko Bangunan BINA BARU";"QV2X+RW5, Pd. Gajah, Kec. Bandar, Kabupaten Bener Meriah, Aceh 24582";"Pd. Gajah, Kec. Bandar, Kabupaten Bener Meriah";"ACEH";"24582";"Indonesia";"";"4.7520106";"96.8998645";"https://maps.google.com/?cid=0x0:0x3b1827c422336e0"
"building materials";"Toko Perlengkapan Rumah";"Gajah Traso PT";"5QXM+6JH, JL. Medan Banda Aceh, Matang Glumpang Dua, 23611";"JL. Medan Banda Aceh";"ACEH";"23611";"Indonesia";" 064441359";"5.1980649";"96.784122";"https://maps.google.com/?cid=0x0:0xf793f5e744c7d579"
"building materials";"Toko Bahan Bangunan";"Sejahtera 3";"JVG2+8GR, Jl. Sara Rasa, Takengon Tim., Kec. Lut Tawar, Kabupaten Aceh Tengah, Aceh 24519";"Jl. Sara Rasa, Takengon Tim., Kec. Lut Tawar, Kabupaten Aceh Tengah";"ACEH";"24519";"Indonesia";" 085207109610";"4.6258595";"96.8512808";"https://maps.google.com/?cid=0x0:0x5764348e60b9c946"
"building materials";"Toko Bahan Bangunan";"GA Materials";"Jl. Raya Condet No.12 A, RT.3/RW.4, Batu Ampar, Kec. Kramat jati, Kota Jakarta Timur, Daerah Khusus Ibukota Jakarta 13520";"RT.3/RW.4, Batu Ampar, Kec. Kramat jati, Kota Jakarta Timur";"ACEH";"13520";"Indonesia";" 02180879216";"-6.2758112";"106.8559176";"https://maps.google.com/?cid=0x0:0xb0fcbed69a555215"
"building materials";"Toko";"CV. Jampea Anugerah Sejahtera ( Distributor Gypsum, Hollow, Baja Ringan, Besi, Semen, Dll )";"Jl. Insinyur H. Juanda No.111, RT.007/RW.001, Duren Jaya, Kec. Bekasi Tim., Kota Bks, Jawa Barat 17111";"RT.007/RW.001, Duren Jaya, Kec. Bekasi Tim., Kota Bks";"ACEH";"17111";"Indonesia";" 081229292986";"-6.2486342";"107.0224714";"https://maps.google.com/?cid=0x0:0xf5efc43096477b89"
"building materials";"building materials";"Kec. Mesidah";"Kabupaten Bener Meriah, Aceh";"Kabupaten Bener Meriah, Aceh";"ACEH";"";"Indonesia";"";"4.7627916";"97.0109687";"https://maps.google.com/?cid=0x0:0xdf564a5272d2d37b"
"building materials";"Toko Bahan Bangunan";"Toko bangunan karya baru";"RW3W+W5C, Ramung Jaya, Kec. Permata, Kabupaten Bener Meriah, Aceh";"Kabupaten Bener Meriah, Aceh";"ACEH";"";"Indonesia";" 083161290912";"4.8048162";"96.9454005";"https://maps.google.com/?cid=0x0:0xba34de8b1d5847e1"
"building materials";"building materials";"JL. SHIAH UTAMA, PONDOK BARU - BENER MERIAH";"QW46+2C2 MDS JAYA, Jl. Syiah Utama, Simpang Utama, Mutiara, Kec. Bandar, Kabupaten Bener Meriah, Aceh 24582";"Jl. Syiah Utama, Simpang Utama, Mutiara, Kec. Bandar, Kabupaten Bener Meriah";"ACEH";"24582";"Indonesia";" 085262175027";"4.7524966";"96.9048535";"https://maps.google.com/?cid=0x0:0x14e98aabcb83d05"
"building materials";"Toko";"TOKO SAHABAT BANGUNAN";"PR92+396, Jl. Pante Raya, Lut Kucak, Kec. Wih Pesam, Kabupaten Bener Meriah, Aceh";"Kabupaten Bener Meriah, Aceh";"ACEH";"";"Indonesia";"";"4.7176678";"96.8008905";"https://maps.google.com/?cid=0x0:0x7f122f5ab8c49984"
"building materials";"building materials";"Aceh 24582";"Kabupaten Bener Meriah, Aceh";"Kabupaten Bener Meriah, Aceh";"ACEH";"";"Indonesia";"";"4.733267";"97.0498442";"https://maps.google.com/?cid=0x0:0x24377db9b3ac434d"
"building materials";"Toko Bahan Bangunan";"TB.sinar Baru";"RW97+7V2, Gelampang, Kec. Permata, Kabupaten Bener Meriah, Aceh 24582";"Gelampang, Kec. Permata, Kabupaten Bener Meriah";"ACEH";"24582";"Indonesia";" 082362819827";"4.8181449";"96.9146534";"https://maps.google.com/?cid=0x0:0x57af9e6f775de25"
"building materials";"Toko Bahan Bangunan";"sinar abadi";"RW97+8JH, Gelampang, Kec. Permata, Kabupaten Bener Meriah, Aceh 24582";"Gelampang, Kec. Permata, Kabupaten Bener Meriah";"ACEH";"24582";"Indonesia";" 085359331773";"4.8183188";"96.9141046";"https://maps.google.com/?cid=0x0:0x233541421a0fb9be"
"building materials";"building materials";"Usaha Batu Bata";"RWG9+R46, Buntul Peteri, Kec. Permata, Kabupaten Bener Meriah, Aceh 24582";"Buntul Peteri, Kec. Permata, Kabupaten Bener Meriah";"ACEH";"24582";"Indonesia";"";"4.8270293";"96.9177705";"https://maps.google.com/?cid=0x0:0xbd529279fdb21dda"
"building materials";"Toko Bahan Bangunan";"PERMATA MATERIALS";"Jl. Lengkong Karya No.28, Lengkong Karya, Kec. Serpong, Kota Tangerang Selatan, Banten 15310";"Lengkong Karya, Kec. Serpong, Kota Tangerang Selatan";"ACEH";"15310";"Indonesia";" 0215374187";"-6.2832596";"106.682937";"https://maps.google.com/?cid=0x0:0x1a1ecc56062bded1"
"building materials";"Toko Bahan Bangunan";"TB PERMATA BANGUNAN";"JPR7+6M9, Jl. Cendana Rawakalong, Rawakalong, Kec. Setu, Kabupaten Bogor, Jawa Barat";"Kabupaten Bogor, Jawa Barat";"ACEH";"";"Indonesia";" 081286226069";"-6.3594159";"106.7142392";"https://maps.google.com/?cid=0x0:0x83ff757f9fe985a6"
"building materials";"Toko Bahan Bangunan";"Tb permata";"CJJJ+F2M, Leuwiliang, Kec. Leuwiliang, Kabupaten Bogor, Jawa Barat 16640";"Leuwiliang, Kec. Leuwiliang, Kabupaten Bogor";"ACEH";"16640";"Indonesia";"";"-6.5688481";"106.6297455";"https://maps.google.com/?cid=0x0:0xca0e0579e9843897"
"building materials";"building materials";"Kec. Pintu Rime Gayo";"Kabupaten Bener Meriah, Aceh";"Kabupaten Bener Meriah, Aceh";"ACEH";"";"Indonesia";"";"4.849318";"96.7411267";"https://maps.google.com/?cid=0x0:0x28686d3d13d5dcf5"
"building materials";"Sekolah Menengah Umum";"Pintu Rime Gayo";"RPXR+PFW, Singah Mulo, Kec. Pintu Rime Gayo, Kabupaten Bener Meriah, Aceh";"Kabupaten Bener Meriah, Aceh";"ACEH";"";"Indonesia";"";"4.8493636";"96.7411999";"https://maps.google.com/?cid=0x0:0xc0882338989abc52"
"building materials";"Taman Kanak-kanak";"SMAN 1 Pintu Rime Gayo";"RPRR+V64, Blang Ara, Kec. Pintu Rime Gayo, Kabupaten Bener Meriah, Aceh 24571";"Blang Ara, Kec. Pintu Rime Gayo, Kabupaten Bener Meriah";"ACEH";"24571";"Indonesia";"";"4.8421419";"96.7405783";"https://maps.google.com/?cid=0x0:0xe138a912f6f0760a"
"building materials";"building materials";"JL. SHIAH UTAMA, PONDOK BARU - BENER MERIAH";"QW46+2C2 MDS JAYA, Jl. Syiah Utama, Simpang Utama, Mutiara, Kec. Bandar, Kabupaten Bener Meriah, Aceh 24582";"Jl. Syiah Utama, Simpang Utama, Mutiara, Kec. Bandar, Kabupaten Bener Meriah";"ACEH";"24582";"Indonesia";" 085262175027";"4.7524966";"96.9048535";"https://maps.google.com/?cid=0x0:0x14e98aabcb83d05"
"building materials";"building materials";"Aceh 24582";"Kabupaten Bener Meriah, Aceh";"Kabupaten Bener Meriah, Aceh";"ACEH";"";"Indonesia";"";"4.733267";"97.0498442";"https://maps.google.com/?cid=0x0:0x24377db9b3ac434d"
"building materials";"Toko Bahan Bangunan";"Sumber Setia";"JVF2+Q23, Bale Atu, Kec. Lut Tawar, Kabupaten Aceh Tengah, Aceh 24519";"Bale Atu, Kec. Lut Tawar, Kabupaten Aceh Tengah";"ACEH";"24519";"Indonesia";" 082364674462";"4.6243912";"96.8500313";"https://maps.google.com/?cid=0x0:0x807a7be40545f85e"
"building materials";"Toko Bahan Bangunan";"Indah warna bener meriah";"QW47+52J, Jl. Syiah Utama, Simpang Utama, Kec. Bandar, Kabupaten Bener Meriah, Aceh 24582";"Jl. Syiah Utama, Simpang Utama, Kec. Bandar, Kabupaten Bener Meriah";"ACEH";"24582";"Indonesia";"";"4.7554652";"96.9125289";"https://maps.google.com/?cid=0x0:0x707bc46e1d0187d0"
"building materials";"Toko Bahan Bangunan";"Toko Anugrah Jaya";"Uring, Kec. Bukit, Kabupaten Bener Meriah, Aceh 24582";"Kec. Bukit, Kabupaten Bener Meriah";"ACEH";"24582";"Indonesia";" 0816992047";"4.717481";"96.8716351";"https://maps.google.com/?cid=0x0:0x41aa8c3ad2af5bf0"
"building materials";"Toko Bahan Bangunan";"TB.sinar Baru";"RW97+7V2, Gelampang, Kec. Permata, Kabupaten Bener Meriah, Aceh 24582";"Gelampang, Kec. Permata, Kabupaten Bener Meriah";"ACEH";"24582";"Indonesia";" 082362819827";"4.8181449";"96.9146534";"https://maps.google.com/?cid=0x0:0x57af9e6f775de25"
"building materials";"Tukang Kayu";"Panglong Birahpanyang.ilham prabot";"PV49+WPW, Tingkem Bersatu, Kec. Bukit, Kabupaten Bener Meriah, Aceh 24582";"Tingkem Bersatu, Kec. Bukit, Kabupaten Bener Meriah";"ACEH";"24582";"Indonesia";" 085370141380";"4.7073703";"96.8693167";"https://maps.google.com/?cid=0x0:0x7f1bfc86a7f72be2"
"building materials";"Toko Bahan Bangunan";"HIDUP SUBUR TAKENGON";"JRFW+WCM, Kuteni Reje, Kec. Lut Tawar, Kabupaten Aceh Tengah, Aceh 24519";"Kuteni Reje, Kec. Lut Tawar, Kabupaten Aceh Tengah";"ACEH";"24519";"Indonesia";" 064322364";"4.6248466";"96.8460552";"https://maps.google.com/?cid=0x0:0x3188d7e0a0ef8c73"
"building materials";"Toko Bahan Bangunan";"Grc krawangan";"MVW6+V32, Serule Kayu, Kec. Bukit, Kabupaten Bener Meriah, Aceh 24582";"Serule Kayu, Kec. Bukit, Kabupaten Bener Meriah";"ACEH";"24582";"Indonesia";" 085261472299";"4.6973889";"96.8602666";"https://maps.google.com/?cid=0x0:0x66dd2ea70ec615f8"
"building materials";"Toko Bahan Bangunan";"Toko BSK";"JVG2+HM7, Jl. Sengeda, Takengon Tim., Kec. Lut Tawar, Kabupaten Aceh Tengah, Aceh 24519";"Jl. Sengeda, Takengon Tim., Kec. Lut Tawar, Kabupaten Aceh Tengah";"ACEH";"24519";"Indonesia";" 064321339";"4.6264117";"96.851686";"https://maps.google.com/?cid=0x0:0x2092e5377d5a998b"
"building materials";"Toko Bahan Bangunan";"sinar abadi";"RW97+8JH, Gelampang, Kec. Permata, Kabupaten Bener Meriah, Aceh 24582";"Gelampang, Kec. Permata, Kabupaten Bener Meriah";"ACEH";"24582";"Indonesia";" 085359331773";"4.8183188";"96.9141046";"https://maps.google.com/?cid=0x0:0x233541421a0fb9be"
"building materials";"Toko Bahan Bangunan";"Toko BSK 2";"JVF2+H8V, Jalan HM Hasan Gayo Tengah, Takengon Tim., Kec. Lut Tawar, Kabupaten Aceh Tengah, Aceh 24519";"Jalan HM Hasan Gayo Tengah, Takengon Tim., Kec. Lut Tawar, Kabupaten Aceh Tengah";"ACEH";"24519";"Indonesia";"";"4.6239895";"96.8507896";"https://maps.google.com/?cid=0x0:0xa99221c89d4012d2"
"building materials";"Toko Bahan Bangunan";"TOKO BESI MURNI BARU";"QW34+3C8, Simpang Utama, Kec. Bandar, Kabupaten Bener Meriah, Aceh 24582";"Simpang Utama, Kec. Bandar, Kabupaten Bener Meriah";"ACEH";"24582";"Indonesia";"";"4.7526704";"96.9060781";"https://maps.google.com/?cid=0x0:0xf8da11935137ba38"
"building materials";"Toko Bahan Bangunan";"Toko Bangunan BINA BARU";"QV2X+RW5, Pd. Gajah, Kec. Bandar, Kabupaten Bener Meriah, Aceh 24582";"Pd. Gajah, Kec. Bandar, Kabupaten Bener Meriah";"ACEH";"24582";"Indonesia";"";"4.7520106";"96.8998645";"https://maps.google.com/?cid=0x0:0x3b1827c422336e0"
"building materials";"Kantor Perusahaan";"Toko jasa mekar jaya";"RP2M+WCR, Timang Gajah, Kec. Gajah Putih, Kabupaten Bener Meriah, Aceh 24571";"Timang Gajah, Kec. Gajah Putih, Kabupaten Bener Meriah";"ACEH";"24571";"Indonesia";" 082397747851";"4.8023503";"96.7335044";"https://maps.google.com/?cid=0x0:0xf858168932c843e9"
"building materials";"building materials";"Kec. Timang Gajah";"Kabupaten Bener Meriah, Aceh";"Kabupaten Bener Meriah, Aceh";"ACEH";"";"Indonesia";"";"4.7581426";"96.76263";"https://maps.google.com/?cid=0x0:0x64723af8a148d625"
"building materials";"Toko Bahan Bangunan";"Panglong Wak ipol mekarayu";"QQ56+W4R, Mekar Ayu, Kec. Timang Gajah, Kabupaten Bener Meriah, Aceh 24571";"Mekar Ayu, Kec. Timang Gajah, Kabupaten Bener Meriah";"ACEH";"24571";"Indonesia";"";"4.7598564";"96.7602759";"https://maps.google.com/?cid=0x0:0x812fbf9d110d62ca"
"building materials";"Toko Bahan Bangunan";"Toko besi  bangunan MITRA 02";"PR93+RWP, Lut Kucak, Kec. Wih Pesam, Kabupaten Bener Meriah, Aceh 24471";"Lut Kucak, Kec. Wih Pesam, Kabupaten Bener Meriah";"ACEH";"24471";"Indonesia";" 085207072729";"4.7195935";"96.8048397";"https://maps.google.com/?cid=0x0:0x1c9b0ffa0c4bc3b3"
"building materials";"Kantor Perusahaan";"PT. MITRA BARU LAS";"Simpang Balek, Kec. Wih Pesam, Kabupaten Bener Meriah, Aceh 24471";"Kec. Wih Pesam, Kabupaten Bener Meriah";"ACEH";"24471";"Indonesia";" 082247481193";"4.7250316";"96.7941169";"https://maps.google.com/?cid=0x0:0xfb076e651c2cc488"
"building materials";"Toko Bahan Bangunan";"Raja keramik";"PQHQ+5GW, Jl. Simpang Balik-Blang Mancung, Kebun Baru, Kec. Wih Pesam, Kabupaten Bener Meriah, Aceh 24561";"Jl. Simpang Balik-Blang Mancung, Kebun Baru, Kec. Wih Pesam, Kabupaten Bener Meriah";"ACEH";"24561";"Indonesia";" 085262466409";"4.727982";"96.788837";"https://maps.google.com/?cid=0x0:0x301d62cae657d195"
"building materials";"Tukang Kayu";"Panglong Birahpanyang.ilham prabot";"PV49+WPW, Tingkem Bersatu, Kec. Bukit, Kabupaten Bener Meriah, Aceh 24582";"Tingkem Bersatu, Kec. Bukit, Kabupaten Bener Meriah";"ACEH";"24582";"Indonesia";" 085370141380";"4.7073703";"96.8693167";"https://maps.google.com/?cid=0x0:0x7f1bfc86a7f72be2"
"building materials";"Toko";"TOKO SAHABAT BANGUNAN";"PR92+396, Jl. Pante Raya, Lut Kucak, Kec. Wih Pesam, Kabupaten Bener Meriah, Aceh";"Kabupaten Bener Meriah, Aceh";"ACEH";"";"Indonesia";"";"4.7176678";"96.8008905";"https://maps.google.com/?cid=0x0:0x7f122f5ab8c49984"
"building materials";"Pemasok Bahan Bangunan";"gudang triplek seng dan plpon pvc";"PR93+MRC, Jl. Pante Raya, Lut Kucak, Kec. Wih Pesam, Kabupaten Bener Meriah, Aceh 24471";"Jl. Pante Raya, Lut Kucak, Kec. Wih Pesam, Kabupaten Bener Meriah";"ACEH";"24471";"Indonesia";" 085207072729";"4.7191862";"96.8045074";"https://maps.google.com/?cid=0x0:0xdd4b7ec0001c4740"
"building materials";"Toko Bahan Bangunan";"DUNIA KERAMIK";"Jl. Raya Bireuen - Takengon, Lut Kucak, Kec. Wih Pesam, Kabupaten Bener Meriah, Aceh 24471";"Lut Kucak, Kec. Wih Pesam, Kabupaten Bener Meriah";"ACEH";"24471";"Indonesia";" 085359224777";"4.7217518";"96.8076732";"https://maps.google.com/?cid=0x0:0x896396c6d007e666"
"building materials";"Toko Bahan Bangunan";"Toko Bangunan BINA BARU";"QV2X+RW5, Pd. Gajah, Kec. Bandar, Kabupaten Bener Meriah, Aceh 24582";"Pd. Gajah, Kec. Bandar, Kabupaten Bener Meriah";"ACEH";"24582";"Indonesia";"";"4.7520106";"96.8998645";"https://maps.google.com/?cid=0x0:0x3b1827c422336e0"
"building materials";"Gudang";"Batako pres";"jln pante raya -lukup sabun, Simpang Antara, Kec. Wih Pesam, Kabupaten Bener Meriah, Aceh 24591";"Simpang Antara, Kec. Wih Pesam, Kabupaten Bener Meriah";"ACEH";"24591";"Indonesia";" 081265637384";"4.7189869";"96.7776482";"https://maps.google.com/?cid=0x0:0xccc3bbddc23602c"
"building materials";"Pusat Perbelanjaan";"Toko Bangunan HIDUP SUBUR";"PQHX+273, Simpang Balek, Kec. Wih Pesam, Kabupaten Bener Meriah, Aceh 24471";"Simpang Balek, Kec. Wih Pesam, Kabupaten Bener Meriah";"ACEH";"24471";"Indonesia";" 081362385666";"4.727512";"96.7981735";"https://maps.google.com/?cid=0x0:0xa8fa65faf3da029d"
"building materials";"Toko Beras";"Toko Saudara Baru";"PQJW+83J, kabupaten b.meriah, Jl. Raya Bireuen - Takengon, Bener Mulie, Kec. Wih Pesam, Kabupaten Bener Meriah, Aceh 24471";"kabupaten b.meriah, Jl. Raya Bireuen - Takengon, Bener Mulie, Kec. Wih Pesam, Kabupaten Bener Meriah";"ACEH";"24471";"Indonesia";" 082239670406";"4.7308354";"96.7951392";"https://maps.google.com/?cid=0x0:0xa1e59d66d88131b0"
"building materials";"Toko Bahan Bangunan";"Indah warna bener meriah";"QW47+52J, Jl. Syiah Utama, Simpang Utama, Kec. Bandar, Kabupaten Bener Meriah, Aceh 24582";"Jl. Syiah Utama, Simpang Utama, Kec. Bandar, Kabupaten Bener Meriah";"ACEH";"24582";"Indonesia";"";"4.7554652";"96.9125289";"https://maps.google.com/?cid=0x0:0x707bc46e1d0187d0"
"building materials";"Toko Bahan Bangunan";"toko bangunan hidup baru";"PQCR+3XG, Jl. Pante Raya, Cinta Damai, Kec. Wih Pesam, Kabupaten Bener Meriah, Aceh 24471";"Jl. Pante Raya, Cinta Damai, Kec. Wih Pesam, Kabupaten Bener Meriah";"ACEH";"24471";"Indonesia";" 081362949742";"4.7201845";"96.792454";"https://maps.google.com/?cid=0x0:0x3a808a62b35c515f"
"building materials";"Toko Perlengkapan Rumah";"Mesga elektrik";"PRF5+F33, Jl. Bandara Rembele, Pante Raya, Kec. Wih Pesam, Kabupaten Bener Meriah, Aceh 24471";"Jl. Bandara Rembele, Pante Raya, Kec. Wih Pesam, Kabupaten Bener Meriah";"ACEH";"24471";"Indonesia";"";"4.723508";"96.8077871";"https://maps.google.com/?cid=0x0:0xc86878b64618aa64"
"hardware store";"hardware store";"Banda Aceh";"Kota Banda Aceh, Aceh";"Kota Banda Aceh, Aceh";"ACEH";"";"Indonesia";"";"5.5482904";"95.3237559";"https://maps.google.com/?cid=0x0:0x3039d80b220cb90"
"hardware store";"Toko Bahan Bangunan";"One HARDWARE";"Jl. Moh. Jam No.99, Kp. Baru, Kec. Baiturrahman, Kota Banda Aceh, Aceh 23242";"Kp. Baru, Kec. Baiturrahman, Kota Banda Aceh";"ACEH";"23242";"Indonesia";" 085167599087";"5.5533946";"95.3143585";"https://maps.google.com/?cid=0x0:0x96558df6ca96ec5a"
"hardware store";"Toko Perlengkapan Rumah";"Mr. DIY Plaza Aceh";"Lt.LG No 2-3  6, Plaza Aceh, Jl. T. Hasan Dek, Beurawe, Kec. Kuta Alam, Kota Banda Aceh, Aceh 23127";"Plaza Aceh, Jl. T. Hasan Dek, Beurawe, Kec. Kuta Alam, Kota Banda Aceh";"ACEH";"23127";"Indonesia";" 02130022789";"5.554372";"95.331015";"https://maps.google.com/?cid=0x0:0x7942e065ca121ec0"
"hardware store";"Toko Perlengkapan Rumah";"MR.DIY SEUTUI";"Ruko Teuku Umar Aceh, Jl. Teuku Umar No. 326, 328, dan 330, Seutui, Kec. Baiturrahman, Kota Banda Aceh, Aceh 23000";"Jl. Teuku Umar No. 326, 328, dan 330, Seutui, Kec. Baiturrahman, Kota Banda Aceh";"ACEH";"23000";"Indonesia";" 02130022789";"5.5403066";"95.3097519";"https://maps.google.com/?cid=0x0:0x25c0ce69261f056b"
"hardware store";"Toko Cat";"Sumber Jaya";"G9X5+V96, Jl. Teuku Iskandar, Ceurih, Kec. Ulee Kareng, Kota Banda Aceh, Aceh 24451";"Jl. Teuku Iskandar, Ceurih, Kec. Ulee Kareng, Kota Banda Aceh";"ACEH";"24451";"Indonesia";" 085277204222";"5.5496747";"95.3583869";"https://maps.google.com/?cid=0x0:0x7c4e2bc396e6c120"
"hardware store";"Toko Bahan Bangunan";"Toko Bangunan Restu Baru";"Punge Jurong, Kec. Meuraxa, Kota Banda Aceh, Aceh";"Kota Banda Aceh, Aceh";"ACEH";"";"Indonesia";" 085697225016";"5.5505698";"95.3063395";"https://maps.google.com/?cid=0x0:0x19be35fae5e58e08"
"hardware store";"Toko";"Serba Bangunan";"Jl. Rama Setia, Lampaseh Kota, Kec. Kuta Raja, Kota Banda Aceh, Aceh 23231";"Lampaseh Kota, Kec. Kuta Raja, Kota Banda Aceh";"ACEH";"23231";"Indonesia";" 082370005258";"5.5572051";"95.3129491";"https://maps.google.com/?cid=0x0:0x3c7edb83cb4abf75"
"hardware store";"Toko Bahan Bangunan";"Zahra Bangunan";"Jl. Dr. Mr. Mohd Hasan, Batoh, Kec. Lueng Bata, Kota Banda Aceh, Aceh 23127";"Batoh, Kec. Lueng Bata, Kota Banda Aceh";"ACEH";"23127";"Indonesia";" 085697225016";"5.5425651";"95.3305542";"https://maps.google.com/?cid=0x0:0x9785538145c2ac3"
"hardware store";"Toko Bahan Bangunan";"Toko Bangunan RAYA MULIA 2";"Jl. Prada Utama, Lamgugob, Kec. Syiah Kuala, Kota Banda Aceh, Aceh";"Kota Banda Aceh, Aceh";"ACEH";"";"Indonesia";" 085167599087";"5.5749662";"95.3550309";"https://maps.google.com/?cid=0x0:0xd31eb58cf56fe415"
"hardware store";"Servis Komputer";"drlaptopid (Services Laptop/Komputer)";"H9H6+MPH, Kopelma Darussalam, Kec. Syiah Kuala, Kota Banda Aceh, Aceh";"Kota Banda Aceh, Aceh";"ACEH";"";"Indonesia";" 085371199754";"5.5791206";"95.3617754";"https://maps.google.com/?cid=0x0:0x5d22f1bffeed7a01"
"hardware store";"Toko Bahan Bangunan";"UD. Puga Jaya (Toko Bahan Bangunan Bang Adek)";"H983+87W, Jl. Kebun Raja, Lamgugob, Kec. Syiah Kuala, Kota Banda Aceh, Aceh";"Kota Banda Aceh, Aceh";"ACEH";"";"Indonesia";"";"5.5658619";"95.353211";"https://maps.google.com/?cid=0x0:0xc2f7cb214e7565be"
"hardware store";"Toko Bahan Bangunan";"Baru Tabina";"Jl. WR Supratman, Peunayong, Kec. Kuta Alam, Kota Banda Aceh, Aceh";"Kota Banda Aceh, Aceh";"ACEH";"";"Indonesia";" 081374133537";"5.5605378";"95.3207611";"https://maps.google.com/?cid=0x0:0x29c5a5bbd1da12a2"
"hardware store";"Toko Perlengkapan Rumah";"AZKO Batoh Banda Aceh";"Jl. Dr. Mr. Mohd Hasan No.17, Lamcot, Kec. Darul Imarah, Kabupaten Aceh Besar, Aceh 23352";"Lamcot, Kec. Darul Imarah, Kabupaten Aceh Besar";"ACEH";"23352";"Indonesia";" 085266655607";"5.5262394";"95.3299685";"https://maps.google.com/?cid=0x0:0x29ae8851d75b2460"
"hardware store";"Toko Perlengkapan Rumah";"Toko bangunan dan teknik. Maju jaya teknik";"Jl. Teuku Iskandar, Ceurih, Kec. Ulee Kareng, Kota Banda Aceh, Aceh 23117";"Ceurih, Kec. Ulee Kareng, Kota Banda Aceh";"ACEH";"23117";"Indonesia";" 081268704070";"5.55027";"95.3578291";"https://maps.google.com/?cid=0x0:0xc23b22d528ff5e20"
"hardware store";"hardware store";"Banda Aceh";"Kota Banda Aceh, Aceh";"Kota Banda Aceh, Aceh";"ACEH";"";"Indonesia";"";"5.5482904";"95.3237559";"https://maps.google.com/?cid=0x0:0x3039d80b220cb90"
"hardware store";"Toko Bahan Bangunan";"One HARDWARE";"Jl. Moh. Jam No.99, Kp. Baru, Kec. Baiturrahman, Kota Banda Aceh, Aceh 23242";"Kp. Baru, Kec. Baiturrahman, Kota Banda Aceh";"ACEH";"23242";"Indonesia";" 085167599087";"5.5533946";"95.3143585";"https://maps.google.com/?cid=0x0:0x96558df6ca96ec5a"
"hardware store";"Toko Perlengkapan Rumah";"Mr. DIY Plaza Aceh";"Lt.LG No 2-3  6, Plaza Aceh, Jl. T. Hasan Dek, Beurawe, Kec. Kuta Alam, Kota Banda Aceh, Aceh 23127";"Plaza Aceh, Jl. T. Hasan Dek, Beurawe, Kec. Kuta Alam, Kota Banda Aceh";"ACEH";"23127";"Indonesia";" 02130022789";"5.554372";"95.331015";"https://maps.google.com/?cid=0x0:0x7942e065ca121ec0"
"hardware store";"Toko Cat";"Sumber Jaya";"G9X5+V96, Jl. Teuku Iskandar, Ceurih, Kec. Ulee Kareng, Kota Banda Aceh, Aceh 24451";"Jl. Teuku Iskandar, Ceurih, Kec. Ulee Kareng, Kota Banda Aceh";"ACEH";"24451";"Indonesia";" 085277204222";"5.5496747";"95.3583869";"https://maps.google.com/?cid=0x0:0x7c4e2bc396e6c120"
"hardware store";"Toko Perlengkapan Rumah";"AZKO Suzuya Mall";"Gedung Suzuya Mall, Jl. Teuku Umar Lt. 3, Lamtemen Tim., Kec. Jaya Baru, Kota Banda Aceh, Aceh 23232";"Jl. Teuku Umar Lt. 3, Lamtemen Tim., Kec. Jaya Baru, Kota Banda Aceh";"ACEH";"23232";"Indonesia";" 08551500582";"5.5375853";"95.3069294";"https://maps.google.com/?cid=0x0:0x6ff3f24d15547206"
"hardware store";"Toko Bahan Bangunan";"Zahra Bangunan";"Jl. Dr. Mr. Mohd Hasan, Batoh, Kec. Lueng Bata, Kota Banda Aceh, Aceh 23127";"Batoh, Kec. Lueng Bata, Kota Banda Aceh";"ACEH";"23127";"Indonesia";" 085697225016";"5.5425651";"95.3305542";"https://maps.google.com/?cid=0x0:0x9785538145c2ac3"
"hardware store";"Servis Komputer";"drlaptopid (Services Laptop/Komputer)";"H9H6+MPH, Kopelma Darussalam, Kec. Syiah Kuala, Kota Banda Aceh, Aceh";"Kota Banda Aceh, Aceh";"ACEH";"";"Indonesia";" 085371199754";"5.5791206";"95.3617754";"https://maps.google.com/?cid=0x0:0x5d22f1bffeed7a01"
"hardware store";"Toko Bahan Bangunan";"Toko Bangunan Restu Baru";"Punge Jurong, Kec. Meuraxa, Kota Banda Aceh, Aceh";"Kota Banda Aceh, Aceh";"ACEH";"";"Indonesia";" 085697225016";"5.5505698";"95.3063395";"https://maps.google.com/?cid=0x0:0x19be35fae5e58e08"
"hardware store";"Toko";"Serba Bangunan";"Jl. Rama Setia, Lampaseh Kota, Kec. Kuta Raja, Kota Banda Aceh, Aceh 23231";"Lampaseh Kota, Kec. Kuta Raja, Kota Banda Aceh";"ACEH";"23231";"Indonesia";" 082370005258";"5.5572051";"95.3129491";"https://maps.google.com/?cid=0x0:0x3c7edb83cb4abf75"
"hardware store";"Toko Bahan Bangunan";"Baru Tabina";"Jl. WR Supratman, Peunayong, Kec. Kuta Alam, Kota Banda Aceh, Aceh";"Kota Banda Aceh, Aceh";"ACEH";"";"Indonesia";" 081374133537";"5.5605378";"95.3207611";"https://maps.google.com/?cid=0x0:0x29c5a5bbd1da12a2"
"hardware store";"Toko Bahan Bangunan";"UD. Puga Jaya (Toko Bahan Bangunan Bang Adek)";"H983+87W, Jl. Kebun Raja, Lamgugob, Kec. Syiah Kuala, Kota Banda Aceh, Aceh";"Kota Banda Aceh, Aceh";"ACEH";"";"Indonesia";"";"5.5658619";"95.353211";"https://maps.google.com/?cid=0x0:0xc2f7cb214e7565be"
"hardware store";"Toko Bahan Bangunan";"Toko Bangunan RAYA MULIA 2";"Jl. Prada Utama, Lamgugob, Kec. Syiah Kuala, Kota Banda Aceh, Aceh";"Kota Banda Aceh, Aceh";"ACEH";"";"Indonesia";" 085167599087";"5.5749662";"95.3550309";"https://maps.google.com/?cid=0x0:0xd31eb58cf56fe415"
"hardware store";"Toko Perlengkapan Rumah";"AZKO Batoh Banda Aceh";"Jl. Dr. Mr. Mohd Hasan No.17, Lamcot, Kec. Darul Imarah, Kabupaten Aceh Besar, Aceh 23352";"Lamcot, Kec. Darul Imarah, Kabupaten Aceh Besar";"ACEH";"23352";"Indonesia";" 085266655607";"5.5262394";"95.3299685";"https://maps.google.com/?cid=0x0:0x29ae8851d75b2460"
"hardware store";"Toko Perlengkapan Rumah";"Toko bangunan dan teknik. Maju jaya teknik";"Jl. Teuku Iskandar, Ceurih, Kec. Ulee Kareng, Kota Banda Aceh, Aceh 23117";"Ceurih, Kec. Ulee Kareng, Kota Banda Aceh";"ACEH";"23117";"Indonesia";" 081268704070";"5.55027";"95.3578291";"https://maps.google.com/?cid=0x0:0xc23b22d528ff5e20"
"hardware store";"Toko Bahan Bangunan";"One HARDWARE";"Jl. Moh. Jam No.99, Kp. Baru, Kec. Baiturrahman, Kota Banda Aceh, Aceh 23242";"Kp. Baru, Kec. Baiturrahman, Kota Banda Aceh";"ACEH";"23242";"Indonesia";" 085167599087";"5.5533946";"95.3143585";"https://maps.google.com/?cid=0x0:0x96558df6ca96ec5a"
"hardware store";"hardware store";"Banda Aceh";"Kota Banda Aceh, Aceh";"Kota Banda Aceh, Aceh";"ACEH";"";"Indonesia";"";"5.5482904";"95.3237559";"https://maps.google.com/?cid=0x0:0x3039d80b220cb90"
"hardware store";"Toko Perlengkapan Rumah";"AZKO Batoh Banda Aceh";"Jl. Dr. Mr. Mohd Hasan No.17, Lamcot, Kec. Darul Imarah, Kabupaten Aceh Besar, Aceh 23352";"Lamcot, Kec. Darul Imarah, Kabupaten Aceh Besar";"ACEH";"23352";"Indonesia";" 08551500582";"5.5262363";"95.329962";"https://maps.google.com/?cid=0x0:0x1529fa14ef58453b"
"hardware store";"Toko Perlengkapan Rumah";"AZKO Suzuya Mall";"Gedung Suzuya Mall, Jl. Teuku Umar Lt. 3, Lamtemen Tim., Kec. Jaya Baru, Kota Banda Aceh, Aceh 23232";"Jl. Teuku Umar Lt. 3, Lamtemen Tim., Kec. Jaya Baru, Kota Banda Aceh";"ACEH";"23232";"Indonesia";" 08551500582";"5.5375853";"95.3069294";"https://maps.google.com/?cid=0x0:0x6ff3f24d15547206"
"hardware store";"Toko Bahan Bangunan";"Toko Bangunan Restu Baru";"Punge Jurong, Kec. Meuraxa, Kota Banda Aceh, Aceh";"Kota Banda Aceh, Aceh";"ACEH";"";"Indonesia";" 085697225016";"5.5505698";"95.3063395";"https://maps.google.com/?cid=0x0:0x19be35fae5e58e08"
"hardware store";"Toko Perlengkapan Rumah";"AZKO Batoh Banda Aceh";"Jl. Dr. Mr. Mohd Hasan No.17, Lamcot, Kec. Darul Imarah, Kabupaten Aceh Besar, Aceh 23352";"Lamcot, Kec. Darul Imarah, Kabupaten Aceh Besar";"ACEH";"23352";"Indonesia";" 085266655607";"5.5262394";"95.3299685";"https://maps.google.com/?cid=0x0:0x29ae8851d75b2460"
"hardware store";"Toko Cat";"Sumber Jaya";"G9X5+V96, Jl. Teuku Iskandar, Ceurih, Kec. Ulee Kareng, Kota Banda Aceh, Aceh 24451";"Jl. Teuku Iskandar, Ceurih, Kec. Ulee Kareng, Kota Banda Aceh";"ACEH";"24451";"Indonesia";" 085277204222";"5.5496747";"95.3583869";"https://maps.google.com/?cid=0x0:0x7c4e2bc396e6c120"
"hardware store";"Toko Bahan Bangunan";"Zahra Bangunan";"Jl. Dr. Mr. Mohd Hasan, Batoh, Kec. Lueng Bata, Kota Banda Aceh, Aceh 23127";"Batoh, Kec. Lueng Bata, Kota Banda Aceh";"ACEH";"23127";"Indonesia";"";"5.5425651";"95.3305542";"https://maps.google.com/?cid=0x0:0x9785538145c2ac3"
"hardware store";"Toko Perlengkapan Rumah";"Mr. DIY Plaza Aceh";"Lt.LG No 2-3  6, Plaza Aceh, Jl. T. Hasan Dek, Beurawe, Kec. Kuta Alam, Kota Banda Aceh, Aceh 23127";"Plaza Aceh, Jl. T. Hasan Dek, Beurawe, Kec. Kuta Alam, Kota Banda Aceh";"ACEH";"23127";"Indonesia";" 02130022789";"5.554372";"95.331015";"https://maps.google.com/?cid=0x0:0x7942e065ca121ec0"
"hardware store";"Toko Bahan Bangunan";"UD. Puga Jaya (Toko Bahan Bangunan Bang Adek)";"H983+87W, Jl. Kebun Raja, Lamgugob, Kec. Syiah Kuala, Kota Banda Aceh, Aceh";"Kota Banda Aceh, Aceh";"ACEH";"";"Indonesia";" 085697225016";"5.5658619";"95.353211";"https://maps.google.com/?cid=0x0:0xc2f7cb214e7565be"
"hardware store";"Toko Bahan Bangunan";"Baru Tabina";"Jl. WR Supratman, Peunayong, Kec. Kuta Alam, Kota Banda Aceh, Aceh";"Kota Banda Aceh, Aceh";"ACEH";"";"Indonesia";" 081374133537";"5.5605378";"95.3207611";"https://maps.google.com/?cid=0x0:0x29c5a5bbd1da12a2"
"hardware store";"Toko Perlengkapan Rumah";"MR.DIY SEUTUI";"Ruko Teuku Umar Aceh, Jl. Teuku Umar No. 326, 328, dan 330, Seutui, Kec. Baiturrahman, Kota Banda Aceh, Aceh 23000";"Jl. Teuku Umar No. 326, 328, dan 330, Seutui, Kec. Baiturrahman, Kota Banda Aceh";"ACEH";"23000";"Indonesia";" 02130022789";"5.5403066";"95.3097519";"https://maps.google.com/?cid=0x0:0x25c0ce69261f056b"
"hardware store";"hardware store";"N/A";"";"";"ACEH";"";"Indonesia";" 065142154";"5.5441754";"95.327875";"https://maps.google.com/?cid=0x0:0xed85ad71763a5910"
"hardware store";"Servis Komputer";"drlaptopid (Services Laptop/Komputer)";"H9H6+MPH, Kopelma Darussalam, Kec. Syiah Kuala, Kota Banda Aceh, Aceh";"Kota Banda Aceh, Aceh";"ACEH";"";"Indonesia";" 085371199754";"5.5791206";"95.3617754";"https://maps.google.com/?cid=0x0:0x5d22f1bffeed7a01"
"hardware store";"hardware store";"Banda Aceh";"Kota Banda Aceh, Aceh";"Kota Banda Aceh, Aceh";"ACEH";"";"Indonesia";"";"5.5482904";"95.3237559";"https://maps.google.com/?cid=0x0:0x3039d80b220cb90"
"hardware store";"Toko Perlengkapan Rumah";"AZKO Suzuya Mall";"Gedung Suzuya Mall, Jl. Teuku Umar Lt. 3, Lamtemen Tim., Kec. Jaya Baru, Kota Banda Aceh, Aceh 23232";"Jl. Teuku Umar Lt. 3, Lamtemen Tim., Kec. Jaya Baru, Kota Banda Aceh";"ACEH";"23232";"Indonesia";" 08551500582";"5.5375853";"95.3069294";"https://maps.google.com/?cid=0x0:0x6ff3f24d15547206"
"hardware store";"Toko Bahan Bangunan";"One HARDWARE";"Jl. Moh. Jam No.99, Kp. Baru, Kec. Baiturrahman, Kota Banda Aceh, Aceh 23242";"Kp. Baru, Kec. Baiturrahman, Kota Banda Aceh";"ACEH";"23242";"Indonesia";" 085167599087";"5.5533946";"95.3143585";"https://maps.google.com/?cid=0x0:0x96558df6ca96ec5a"
"hardware store";"Toko Perlengkapan Rumah";"AZKO Batoh Banda Aceh";"Jl. Dr. Mr. Mohd Hasan No.17, Lamcot, Kec. Darul Imarah, Kabupaten Aceh Besar, Aceh 23352";"Lamcot, Kec. Darul Imarah, Kabupaten Aceh Besar";"ACEH";"23352";"Indonesia";" 08551500582";"5.5262363";"95.329962";"https://maps.google.com/?cid=0x0:0x1529fa14ef58453b"
"hardware store";"Toko Bahan Bangunan";"Toko Bangunan Restu Baru";"Punge Jurong, Kec. Meuraxa, Kota Banda Aceh, Aceh";"Kota Banda Aceh, Aceh";"ACEH";"";"Indonesia";" 085697225016";"5.5505698";"95.3063395";"https://maps.google.com/?cid=0x0:0x19be35fae5e58e08"
"hardware store";"Toko Perlengkapan Rumah";"AZKO Batoh Banda Aceh";"Jl. Dr. Mr. Mohd Hasan No.17, Lamcot, Kec. Darul Imarah, Kabupaten Aceh Besar, Aceh 23352";"Lamcot, Kec. Darul Imarah, Kabupaten Aceh Besar";"ACEH";"23352";"Indonesia";" 085266655607";"5.5262394";"95.3299685";"https://maps.google.com/?cid=0x0:0x29ae8851d75b2460"
"hardware store";"Toko Cat";"Sumber Jaya";"G9X5+V96, Jl. Teuku Iskandar, Ceurih, Kec. Ulee Kareng, Kota Banda Aceh, Aceh 24451";"Jl. Teuku Iskandar, Ceurih, Kec. Ulee Kareng, Kota Banda Aceh";"ACEH";"24451";"Indonesia";" 085277204222";"5.5496747";"95.3583869";"https://maps.google.com/?cid=0x0:0x7c4e2bc396e6c120"
"hardware store";"Toko Perlengkapan Rumah";"Mr. DIY Plaza Aceh";"Lt.LG No 2-3  6, Plaza Aceh, Jl. T. Hasan Dek, Beurawe, Kec. Kuta Alam, Kota Banda Aceh, Aceh 23127";"Plaza Aceh, Jl. T. Hasan Dek, Beurawe, Kec. Kuta Alam, Kota Banda Aceh";"ACEH";"23127";"Indonesia";" 02130022789";"5.554372";"95.331015";"https://maps.google.com/?cid=0x0:0x7942e065ca121ec0"
"hardware store";"Toko Bahan Bangunan";"Baru Tabina";"Jl. WR Supratman, Peunayong, Kec. Kuta Alam, Kota Banda Aceh, Aceh";"Kota Banda Aceh, Aceh";"ACEH";"";"Indonesia";" 081374133537";"5.5605378";"95.3207611";"https://maps.google.com/?cid=0x0:0x29c5a5bbd1da12a2"
"hardware store";"Toko Bahan Bangunan";"UD. Puga Jaya (Toko Bahan Bangunan Bang Adek)";"H983+87W, Jl. Kebun Raja, Lamgugob, Kec. Syiah Kuala, Kota Banda Aceh, Aceh";"Kota Banda Aceh, Aceh";"ACEH";"";"Indonesia";" 085697225016";"5.5658619";"95.353211";"https://maps.google.com/?cid=0x0:0xc2f7cb214e7565be"
"hardware store";"Toko Perlengkapan Rumah";"MR.DIY SEUTUI";"Ruko Teuku Umar Aceh, Jl. Teuku Umar No. 326, 328, dan 330, Seutui, Kec. Baiturrahman, Kota Banda Aceh, Aceh 23000";"Jl. Teuku Umar No. 326, 328, dan 330, Seutui, Kec. Baiturrahman, Kota Banda Aceh";"ACEH";"23000";"Indonesia";" 02130022789";"5.5403066";"95.3097519";"https://maps.google.com/?cid=0x0:0x25c0ce69261f056b"
"hardware store";"Toko Bahan Bangunan";"Toko Bintang Baru II";"Jl. Sultan Malikul Saleh No.9-10, Lam Lagang, Kec. Banda Raya, Kota Banda Aceh, Aceh 23122";"Lam Lagang, Kec. Banda Raya, Kota Banda Aceh";"ACEH";"23122";"Indonesia";" 085167599087";"5.5359892";"95.31588";"https://maps.google.com/?cid=0x0:0xfffb5be6f11940e5"
"hardware store";"Servis Komputer";"drlaptopid (Services Laptop/Komputer)";"H9H6+MPH, Kopelma Darussalam, Kec. Syiah Kuala, Kota Banda Aceh, Aceh";"Kota Banda Aceh, Aceh";"ACEH";"";"Indonesia";" 085371199754";"5.5791206";"95.3617754";"https://maps.google.com/?cid=0x0:0x5d22f1bffeed7a01"
"hardware store";"hardware store";"N/A";"";"";"ACEH";"";"Indonesia";" 065142154";"5.5441754";"95.327875";"https://maps.google.com/?cid=0x0:0xed85ad71763a5910"
"hardware store";"Toko Bahan Bangunan";"One HARDWARE";"Jl. Moh. Jam No.99, Kp. Baru, Kec. Baiturrahman, Kota Banda Aceh, Aceh 23242";"Kp. Baru, Kec. Baiturrahman, Kota Banda Aceh";"ACEH";"23242";"Indonesia";" 085167599087";"5.5533946";"95.3143585";"https://maps.google.com/?cid=0x0:0x96558df6ca96ec5a"
"hardware store";"hardware store";"Banda Aceh";"Kota Banda Aceh, Aceh";"Kota Banda Aceh, Aceh";"ACEH";"";"Indonesia";"";"5.5482904";"95.3237559";"https://maps.google.com/?cid=0x0:0x3039d80b220cb90"
"hardware store";"Toko Perlengkapan Rumah";"AZKO Suzuya Mall";"Gedung Suzuya Mall, Jl. Teuku Umar Lt. 3, Lamtemen Tim., Kec. Jaya Baru, Kota Banda Aceh, Aceh 23232";"Jl. Teuku Umar Lt. 3, Lamtemen Tim., Kec. Jaya Baru, Kota Banda Aceh";"ACEH";"23232";"Indonesia";" 08551500582";"5.5375853";"95.3069294";"https://maps.google.com/?cid=0x0:0x6ff3f24d15547206"
"hardware store";"Toko Cat";"Sumber Jaya";"G9X5+V96, Jl. Teuku Iskandar, Ceurih, Kec. Ulee Kareng, Kota Banda Aceh, Aceh 24451";"Jl. Teuku Iskandar, Ceurih, Kec. Ulee Kareng, Kota Banda Aceh";"ACEH";"24451";"Indonesia";" 085277204222";"5.5496747";"95.3583869";"https://maps.google.com/?cid=0x0:0x7c4e2bc396e6c120"
"hardware store";"Toko Perlengkapan Rumah";"MR.DIY SEUTUI";"Ruko Teuku Umar Aceh, Jl. Teuku Umar No. 326, 328, dan 330, Seutui, Kec. Baiturrahman, Kota Banda Aceh, Aceh 23000";"Jl. Teuku Umar No. 326, 328, dan 330, Seutui, Kec. Baiturrahman, Kota Banda Aceh";"ACEH";"23000";"Indonesia";" 02130022789";"5.5403066";"95.3097519";"https://maps.google.com/?cid=0x0:0x25c0ce69261f056b"
"hardware store";"Toko Bahan Bangunan";"Toko Bangunan Restu Baru";"Punge Jurong, Kec. Meuraxa, Kota Banda Aceh, Aceh";"Kota Banda Aceh, Aceh";"ACEH";"";"Indonesia";" 085697225016";"5.5505698";"95.3063395";"https://maps.google.com/?cid=0x0:0x19be35fae5e58e08"
"hardware store";"Toko";"Serba Bangunan";"Jl. Rama Setia, Lampaseh Kota, Kec. Kuta Raja, Kota Banda Aceh, Aceh 23231";"Lampaseh Kota, Kec. Kuta Raja, Kota Banda Aceh";"ACEH";"23231";"Indonesia";" 082370005258";"5.5572051";"95.3129491";"https://maps.google.com/?cid=0x0:0x3c7edb83cb4abf75"
"hardware store";"Toko Bahan Bangunan";"Zahra Bangunan";"Jl. Dr. Mr. Mohd Hasan, Batoh, Kec. Lueng Bata, Kota Banda Aceh, Aceh 23127";"Batoh, Kec. Lueng Bata, Kota Banda Aceh";"ACEH";"23127";"Indonesia";"";"5.5425651";"95.3305542";"https://maps.google.com/?cid=0x0:0x9785538145c2ac3"
"hardware store";"Toko Bahan Bangunan";"Baru Tabina";"Jl. WR Supratman, Peunayong, Kec. Kuta Alam, Kota Banda Aceh, Aceh";"Kota Banda Aceh, Aceh";"ACEH";"";"Indonesia";" 081374133537";"5.5605378";"95.3207611";"https://maps.google.com/?cid=0x0:0x29c5a5bbd1da12a2"
"hardware store";"Servis Komputer";"drlaptopid (Services Laptop/Komputer)";"H9H6+MPH, Kopelma Darussalam, Kec. Syiah Kuala, Kota Banda Aceh, Aceh";"Kota Banda Aceh, Aceh";"ACEH";"";"Indonesia";" 085371199754";"5.5791206";"95.3617754";"https://maps.google.com/?cid=0x0:0x5d22f1bffeed7a01"
"hardware store";"Toko Bahan Bangunan";"UD. Puga Jaya (Toko Bahan Bangunan Bang Adek)";"H983+87W, Jl. Kebun Raja, Lamgugob, Kec. Syiah Kuala, Kota Banda Aceh, Aceh";"Kota Banda Aceh, Aceh";"ACEH";"";"Indonesia";" 085697225016";"5.5658619";"95.353211";"https://maps.google.com/?cid=0x0:0xc2f7cb214e7565be"
"hardware store";"Toko Bahan Bangunan";"Toko Bangunan RAYA MULIA 2";"Jl. Prada Utama, Lamgugob, Kec. Syiah Kuala, Kota Banda Aceh, Aceh";"Kota Banda Aceh, Aceh";"ACEH";"";"Indonesia";" 085167599087";"5.5749662";"95.3550309";"https://maps.google.com/?cid=0x0:0xd31eb58cf56fe415"
"hardware store";"Toko Perlengkapan Rumah";"AZKO Batoh Banda Aceh";"Jl. Dr. Mr. Mohd Hasan No.17, Lamcot, Kec. Darul Imarah, Kabupaten Aceh Besar, Aceh 23352";"Lamcot, Kec. Darul Imarah, Kabupaten Aceh Besar";"ACEH";"23352";"Indonesia";" 085266655607";"5.5262394";"95.3299685";"https://maps.google.com/?cid=0x0:0x29ae8851d75b2460"
"hardware store";"Toko Perlengkapan Rumah";"AZKO Batoh Banda Aceh";"Jl. Dr. Mr. Mohd Hasan No.17, Lamcot, Kec. Darul Imarah, Kabupaten Aceh Besar, Aceh 23352";"Lamcot, Kec. Darul Imarah, Kabupaten Aceh Besar";"ACEH";"23352";"Indonesia";" 08551500582";"5.5262363";"95.329962";"https://maps.google.com/?cid=0x0:0x1529fa14ef58453b"
"hardware store";"hardware store";"Kec. Bener Kelipah";"Kabupaten Bener Meriah, Aceh";"Kabupaten Bener Meriah, Aceh";"ACEH";"";"Indonesia";"";"4.7701481";"96.923098";"https://maps.google.com/?cid=0x0:0x3a7e0c8dc476f1e"
"hardware store";"Toko Bahan Bangunan";"Toko Bangunan BINA BARU";"QV2X+RW5, Pd. Gajah, Kec. Bandar, Kabupaten Bener Meriah, Aceh 24582";"Pd. Gajah, Kec. Bandar, Kabupaten Bener Meriah";"ACEH";"24582";"Indonesia";"";"4.7520106";"96.8998645";"https://maps.google.com/?cid=0x0:0x3b1827c422336e0"
"hardware store";"Pusat Perbelanjaan";"Toko Mogana Karpet";"QW37+VQ5, Jl. Ps. Inpres, Puja Mulia, Kec. Bandar, Kabupaten Bener Meriah, Aceh 24582";"Jl. Ps. Inpres, Puja Mulia, Kec. Bandar, Kabupaten Bener Meriah";"ACEH";"24582";"Indonesia";"";"4.7546422";"96.914474";"https://maps.google.com/?cid=0x0:0xe471f04507efe6d1"
"hardware store";"Toko Fotokopi";"CAHAYA GRAFIKA";"Jln Blang jorong Jl. Pd. Baru, Tawar Sedenge, Kec. Bandar, Kabupaten Bener Meriah, Aceh 24582";"Tawar Sedenge, Kec. Bandar, Kabupaten Bener Meriah";"ACEH";"24582";"Indonesia";" 081265664171";"4.7516898";"96.913142";"https://maps.google.com/?cid=0x0:0x1d3d1a525f5a1ef9"
"hardware store";"Toko Elektronik";"Toko Rizky Ananda Electronik";"PVFF+5G2 NO WA OI54O54249, Ps. Simpang Tiga, Kec. Bukit, Kabupaten Bener Meriah, Aceh 24582";"Ps. Simpang Tiga, Kec. Bukit, Kabupaten Bener Meriah";"ACEH";"24582";"Indonesia";" 085276023588";"4.7228875";"96.8737656";"https://maps.google.com/?cid=0x0:0xe409e5b951235ea0"
"hardware store";"Toko Elektronik";"Ayscell";"PV49+QM3, Tingkem Bersatu, Kec. Bukit, Kabupaten Bener Meriah, Aceh 24582";"Tingkem Bersatu, Kec. Bukit, Kabupaten Bener Meriah";"ACEH";"24582";"Indonesia";" 085277466100";"4.7068817";"96.8691789";"https://maps.google.com/?cid=0x0:0x4e6a60e10c2c2ddb"
"hardware store";"Toko Buku";"Zona Media";"Jln. Terminal, Tawar Sedenge, Kec. Bandar, Kabupaten Bener Meriah, Aceh 24582";"Tawar Sedenge, Kec. Bandar, Kabupaten Bener Meriah";"ACEH";"24582";"Indonesia";" 081313679177";"4.7480646";"96.9125545";"https://maps.google.com/?cid=0x0:0xc750aba027a8568b"
"hardware store";"Toko Bahan Bangunan";"Pvcindo One";"Jl. Teuku Umar No.88, Sukaramai, Kec. Baiturrahman, Kota Banda Aceh, Aceh 23116";"Sukaramai, Kec. Baiturrahman, Kota Banda Aceh";"ACEH";"23116";"Indonesia";" 065147248";"5.5435951";"95.3124615";"https://maps.google.com/?cid=0x0:0xce5c39f56118ad09"
"hardware store";"Toko Bahan Bangunan";"Toko bangunan parung bukit murah jaya";"Jl. H. Mawi, RT.02/RW.02, Parung, Kec. Parung, Kabupaten Bogor, Jawa Barat 16330";"RT.02/RW.02, Parung, Kec. Parung, Kabupaten Bogor";"ACEH";"16330";"Indonesia";" 085942026999";"-6.4251051";"106.7269814";"https://maps.google.com/?cid=0x0:0x8fe5c01751f73961"
"hardware store";"Toko Bahan Bangunan";"One HARDWARE";"Jl. Moh. Jam No.99, Kp. Baru, Kec. Baiturrahman, Kota Banda Aceh, Aceh 23242";"Kp. Baru, Kec. Baiturrahman, Kota Banda Aceh";"ACEH";"23242";"Indonesia";" 085167599087";"5.5533946";"95.3143585";"https://maps.google.com/?cid=0x0:0x96558df6ca96ec5a"
"hardware store";"hardware store";"Hardware Toko";"Niaga Bukit Sentul Plaza Bl C%2F18 Cijayanti Babakan Madang Kabupaten Bogor Jawa Barat, Sumur Batu, Kec. Babakan Madang, Kabupaten Bogor, Jawa Barat 16810";"Sumur Batu, Kec. Babakan Madang, Kabupaten Bogor";"ACEH";"16810";"Indonesia";" 02187961456";"-6.586853";"106.877403";"https://maps.google.com/?cid=0x0:0x62428eca88dbeb56"
"hardware store";"Pusat Perbelanjaan";"Murah Raya Hardware Store";"PQJW+542, Jl. Raya Bireuen - Takengon, Simpang Balek, Kec. Wih Pesam, Kabupaten Bener Meriah, Aceh 24471";"Jl. Raya Bireuen - Takengon, Simpang Balek, Kec. Wih Pesam, Kabupaten Bener Meriah";"ACEH";"24471";"Indonesia";" 085362706420";"4.7303786";"96.7952812";"https://maps.google.com/?cid=0x0:0x3e8fe0065713afdb"
"hardware store";"Toko bahan makanan";"UD berdikari";"PRF4+7MG, Pante Raya Bener Meriah, Jl. Raya Bireuen - Takengon, Lut Kucak, Kec. Wih Pesam, Kabupaten Bener Meriah, Aceh 24471";"Pante Raya Bener Meriah, Jl. Raya Bireuen - Takengon, Lut Kucak, Kec. Wih Pesam, Kabupaten Bener Meriah";"ACEH";"24471";"Indonesia";" 082274613921";"4.7231812";"96.8067149";"https://maps.google.com/?cid=0x0:0x82867c528376270b"
"hardware store";"Toko Bahan Bangunan";"One HARDWARE";"Jl. Moh. Jam No.99, Kp. Baru, Kec. Baiturrahman, Kota Banda Aceh, Aceh 23242";"Kp. Baru, Kec. Baiturrahman, Kota Banda Aceh";"ACEH";"23242";"Indonesia";" 085167599087";"5.5533946";"95.3143585";"https://maps.google.com/?cid=0x0:0x96558df6ca96ec5a"
"hardware store";"Toko makanan beku";"abizar grosir";"CMF4+343, Cemplang, Kec. Cibungbulang, Kabupaten Bogor, Jawa Barat";"Kabupaten Bogor, Jawa Barat";"ACEH";"";"Indonesia";" 081281311773";"-6.577356";"106.6552916";"https://maps.google.com/?cid=0x0:0x4ef63dfd91d64e60"
"hardware store";"Toko bahan makanan";"Abizar frozen food";"CMF3+33P, Cemplang, Kec. Cibungbulang, Kabupaten Bogor, Jawa Barat 16640";"Cemplang, Kec. Cibungbulang, Kabupaten Bogor";"ACEH";"16640";"Indonesia";" 081281311773";"-6.5772891";"106.6526906";"https://maps.google.com/?cid=0x0:0xec98692f8290d6ae"
"hardware store";"Toko Bahan Bangunan";"Pvcindo One";"Jl. Teuku Umar No.88, Sukaramai, Kec. Baiturrahman, Kota Banda Aceh, Aceh 23116";"Sukaramai, Kec. Baiturrahman, Kota Banda Aceh";"ACEH";"23116";"Indonesia";" 065147248";"5.5435951";"95.3124615";"https://maps.google.com/?cid=0x0:0xce5c39f56118ad09"
"hardware store";"Toko Bahan Bangunan";"One HARDWARE";"Jl. Moh. Jam No.99, Kp. Baru, Kec. Baiturrahman, Kota Banda Aceh, Aceh 23242";"Kp. Baru, Kec. Baiturrahman, Kota Banda Aceh";"ACEH";"23242";"Indonesia";" 085167599087";"5.5533946";"95.3143585";"https://maps.google.com/?cid=0x0:0x96558df6ca96ec5a"
"hardware store";"Jasa teknik listrik";"Pinte Elektronika Service";"PVCF+23J, Jl. Pd. Baru, Blang Sentang, Kec. Bukit, Kabupaten Bener Meriah, Aceh 24582";"Jl. Pd. Baru, Blang Sentang, Kec. Bukit, Kabupaten Bener Meriah";"ACEH";"24582";"Indonesia";" 085260859436";"4.7200867";"96.8726496";"https://maps.google.com/?cid=0x0:0xb1cc376445414750"
"hardware store";"Toko Bahan Bangunan";"sinar abadi";"RW97+8JH, Gelampang, Kec. Permata, Kabupaten Bener Meriah, Aceh 24582";"Gelampang, Kec. Permata, Kabupaten Bener Meriah";"ACEH";"24582";"Indonesia";" 085359331773";"4.8183188";"96.9141046";"https://maps.google.com/?cid=0x0:0x233541421a0fb9be"
"hardware store";"Toko Bahan Bangunan";"TB.sinar Baru";"RW97+7V2, Gelampang, Kec. Permata, Kabupaten Bener Meriah, Aceh 24582";"Gelampang, Kec. Permata, Kabupaten Bener Meriah";"ACEH";"24582";"Indonesia";" 082362819827";"4.8181449";"96.9146534";"https://maps.google.com/?cid=0x0:0x57af9e6f775de25"
"hardware store";"hardware store";"Aceh 24582";"Kabupaten Bener Meriah, Aceh";"Kabupaten Bener Meriah, Aceh";"ACEH";"";"Indonesia";"";"4.733267";"97.0498442";"https://maps.google.com/?cid=0x0:0x24377db9b3ac434d"
"hardware store";"hardware store";"Kec. Pintu Rime Gayo";"Kabupaten Bener Meriah, Aceh";"Kabupaten Bener Meriah, Aceh";"ACEH";"";"Indonesia";"";"4.849318";"96.7411267";"https://maps.google.com/?cid=0x0:0x28686d3d13d5dcf5"
"hardware store";"hardware store";"Aceh 24582";"Kabupaten Bener Meriah, Aceh";"Kabupaten Bener Meriah, Aceh";"ACEH";"";"Indonesia";"";"4.733267";"97.0498442";"https://maps.google.com/?cid=0x0:0x24377db9b3ac434d"
"hardware store";"Pusat Perbelanjaan";"MR.DIY";"Ruko Takengon Aceh Tengah, Jl. Lebe Kader, Blang Kolak I, Kec. Bebesen, Kabupaten Aceh Tengah, Aceh 24519";"Jl. Lebe Kader, Blang Kolak I, Kec. Bebesen, Kabupaten Aceh Tengah";"ACEH";"24519";"Indonesia";" 02130022789";"4.627258";"96.8452958";"https://maps.google.com/?cid=0x0:0x461543bbb0063485"
"hardware store";"Pusat Perbelanjaan";"Murah Raya Hardware Store";"PQJW+542, Jl. Raya Bireuen - Takengon, Simpang Balek, Kec. Wih Pesam, Kabupaten Bener Meriah, Aceh 24471";"Jl. Raya Bireuen - Takengon, Simpang Balek, Kec. Wih Pesam, Kabupaten Bener Meriah";"ACEH";"24471";"Indonesia";" 085362706420";"4.7303786";"96.7952812";"https://maps.google.com/?cid=0x0:0x3e8fe0065713afdb"
"hardware store";"Toko Bahan Bangunan";"Sumber Setia";"JVF2+Q23, Bale Atu, Kec. Lut Tawar, Kabupaten Aceh Tengah, Aceh 24519";"Bale Atu, Kec. Lut Tawar, Kabupaten Aceh Tengah";"ACEH";"24519";"Indonesia";" 082364674462";"4.6243912";"96.8500313";"https://maps.google.com/?cid=0x0:0x807a7be40545f85e"
"hardware store";"Toko Bahan Bangunan";"TB.sinar Baru";"RW97+7V2, Gelampang, Kec. Permata, Kabupaten Bener Meriah, Aceh 24582";"Gelampang, Kec. Permata, Kabupaten Bener Meriah";"ACEH";"24582";"Indonesia";" 082362819827";"4.8181449";"96.9146534";"https://maps.google.com/?cid=0x0:0x57af9e6f775de25"
"hardware store";"Toko Perlengkapan Rumah";"Damai Jaya";"Takengon Tim., Kec. Lut Tawar, Kabupaten Aceh Tengah, Aceh 24519";"Kec. Lut Tawar, Kabupaten Aceh Tengah";"ACEH";"24519";"Indonesia";" 064321287";"4.6197042";"96.8488339";"https://maps.google.com/?cid=0x0:0x67e93644923506a3"
"hardware store";"Toko Perlengkapan Rumah";"MR.DIY";"Jl. Pondok Baru Uring Bukit Simpang Tiga, Blang Sentang, Bukit, Bener Meriah Regency, Aceh 24581";"Blang Sentang, Bukit, Bener Meriah Regency";"ACEH";"24581";"Indonesia";"";"4.7191493";"96.872069";"https://maps.google.com/?cid=0x0:0xd3496d48b0314d32"
"hardware store";"Toko Bahan Bangunan";"TB Sulya Bersaudara";"Isaq, Jl. Takengon - Angkup, Uning, Kec. Pegasing, Kabupaten Aceh Tengah, Aceh";"Kabupaten Aceh Tengah, Aceh";"ACEH";"";"Indonesia";"";"4.6168366";"96.8183828";"https://maps.google.com/?cid=0x0:0xee7dd8e04d7ccce9"
"hardware store";"Pusat Perbelanjaan";"Toko Bangunan HIDUP SUBUR";"PQHX+273, Simpang Balek, Kec. Wih Pesam, Kabupaten Bener Meriah, Aceh 24471";"Simpang Balek, Kec. Wih Pesam, Kabupaten Bener Meriah";"ACEH";"24471";"Indonesia";" 081362385666";"4.727512";"96.7981735";"https://maps.google.com/?cid=0x0:0xa8fa65faf3da029d"
"hardware store";"Toko Bahan Bangunan";"Toko Bangunan BINA BARU";"QV2X+RW5, Pd. Gajah, Kec. Bandar, Kabupaten Bener Meriah, Aceh 24582";"Pd. Gajah, Kec. Bandar, Kabupaten Bener Meriah";"ACEH";"24582";"Indonesia";"";"4.7520106";"96.8998645";"https://maps.google.com/?cid=0x0:0x3b1827c422336e0"
"hardware store";"Toko Perlengkapan Rumah";"Toko Subur";"Bujang, Kec. Lut Tawar, Kabupaten Aceh Tengah, Aceh 24519";"Kec. Lut Tawar, Kabupaten Aceh Tengah";"ACEH";"24519";"Indonesia";"";"4.6186273";"96.8491835";"https://maps.google.com/?cid=0x0:0xed5d6ce520db78"
"hardware store";"Toko Bahan Bangunan";"Toko besi surya abadi";"Gelampang, buntul kota, Kabupaten Bener Meriah, Aceh 24585";"buntul kota, Kabupaten Bener Meriah";"ACEH";"24585";"Indonesia";" 081362867280";"4.8195315";"96.9128637";"https://maps.google.com/?cid=0x0:0x67baa3b32f0ed9cb"
"hardware store";"Pusat Perbelanjaan";"Murah Raya Hardware Store";"PQJW+542, Jl. Raya Bireuen - Takengon, Simpang Balek, Kec. Wih Pesam, Kabupaten Bener Meriah, Aceh 24471";"Jl. Raya Bireuen - Takengon, Simpang Balek, Kec. Wih Pesam, Kabupaten Bener Meriah";"ACEH";"24471";"Indonesia";" 085362706420";"4.7303786";"96.7952812";"https://maps.google.com/?cid=0x0:0x3e8fe0065713afdb"
"hardware store";"hardware store";"Kec. Timang Gajah";"Kabupaten Bener Meriah, Aceh";"Kabupaten Bener Meriah, Aceh";"ACEH";"";"Indonesia";"";"4.7581426";"96.76263";"https://maps.google.com/?cid=0x0:0x64723af8a148d625"
"hardware store";"Pusat Perbelanjaan";"Toko Bangunan HIDUP SUBUR";"PQHX+273, Simpang Balek, Kec. Wih Pesam, Kabupaten Bener Meriah, Aceh 24471";"Simpang Balek, Kec. Wih Pesam, Kabupaten Bener Meriah";"ACEH";"24471";"Indonesia";" 081362385666";"4.727512";"96.7981735";"https://maps.google.com/?cid=0x0:0xa8fa65faf3da029d"
"hardware store";"Toko Bahan Bangunan";"One HARDWARE";"Jl. Moh. Jam No.99, Kp. Baru, Kec. Baiturrahman, Kota Banda Aceh, Aceh 23242";"Kp. Baru, Kec. Baiturrahman, Kota Banda Aceh";"ACEH";"23242";"Indonesia";" 085167599087";"5.5533946";"95.3143585";"https://maps.google.com/?cid=0x0:0x96558df6ca96ec5a"
"hardware store";"Toko Elektronik";"Aneka Electronik";"PQHW+HPW, Simpang Balek, Kec. Wih Pesam, Kabupaten Bener Meriah, Aceh 24471";"Simpang Balek, Kec. Wih Pesam, Kabupaten Bener Meriah";"ACEH";"24471";"Indonesia";" 081321188140";"4.7289844";"96.7968366";"https://maps.google.com/?cid=0x0:0xaf4c90e399e1c70d"
"hardware store";"Toko Perlengkapan Rumah";"MR.DIY";"Jl. Pondok Baru Uring Bukit Simpang Tiga, Blang Sentang, Bukit, Bener Meriah Regency, Aceh 24581";"Blang Sentang, Bukit, Bener Meriah Regency";"ACEH";"24581";"Indonesia";"";"4.7191493";"96.872069";"https://maps.google.com/?cid=0x0:0xd3496d48b0314d32"
"hardware store";"Toko Alat Tulis Kantor";"HIJRAH FOTOCOPY";"Jl. Simpang Balik-Blang Mancung, Simpang Balek, Kec. Wih Pesam, Kabupaten Bener Meriah, Aceh 24471";"Simpang Balek, Kec. Wih Pesam, Kabupaten Bener Meriah";"ACEH";"24471";"Indonesia";" 089539344127";"4.7268973";"96.7949639";"https://maps.google.com/?cid=0x0:0x934045a10bce21a3"
"hardware store";"hardware store";"Innovation Store Showroom Hermes Palace";"Jl. Teuku Hasan Dek - Kel. Beurawe, Kec. Kuta Alam, Banda Aceh, Hermes Palace Mal Ground Floor B1, Aceh, D.i Aceh 23124";"Kec. Kuta Alam, Banda Aceh, Hermes Palace Mal Ground Floor B1, Aceh";"ACEH";"23124";"Indonesia";" 06517559180";"4.695135";"96.749399";"https://maps.google.com/?cid=0x0:0xb5162f510bc75a36"
"hardware store";"Pusat Perbelanjaan";"Murah Raya Hardware Store";"PQJW+542, Jl. Raya Bireuen - Takengon, Simpang Balek, Kec. Wih Pesam, Kabupaten Bener Meriah, Aceh 24471";"Jl. Raya Bireuen - Takengon, Simpang Balek, Kec. Wih Pesam, Kabupaten Bener Meriah";"ACEH";"24471";"Indonesia";" 085362706420";"4.7303786";"96.7952812";"https://maps.google.com/?cid=0x0:0x3e8fe0065713afdb"
"hardware store";"Pusat Perbelanjaan";"Toko Bangunan HIDUP SUBUR";"PQHX+273, Simpang Balek, Kec. Wih Pesam, Kabupaten Bener Meriah, Aceh 24471";"Simpang Balek, Kec. Wih Pesam, Kabupaten Bener Meriah";"ACEH";"24471";"Indonesia";" 081362385666";"4.727512";"96.7981735";"https://maps.google.com/?cid=0x0:0xa8fa65faf3da029d"
"hardware store";"Toko Bahan Bangunan";"Toko besi  bangunan MITRA 02";"PR93+RWP, Lut Kucak, Kec. Wih Pesam, Kabupaten Bener Meriah, Aceh 24471";"Lut Kucak, Kec. Wih Pesam, Kabupaten Bener Meriah";"ACEH";"24471";"Indonesia";" 085207072729";"4.7195935";"96.8048397";"https://maps.google.com/?cid=0x0:0x1c9b0ffa0c4bc3b3"
"hardware store";"Toko Perlengkapan Rumah";"Mahirah Gorden";"Jalan Sp Balik, Blang Mancung, Kec. Wih Pesam, Kabupaten Bener Meriah, Aceh 24851";"Blang Mancung, Kec. Wih Pesam, Kabupaten Bener Meriah";"ACEH";"24851";"Indonesia";" 085292364050";"4.7270919";"96.7953638";"https://maps.google.com/?cid=0x0:0xd3f9d3d97489597c"
"hardware store";"Toko";"TOKO SAHABAT BANGUNAN";"PR92+396, Jl. Pante Raya, Lut Kucak, Kec. Wih Pesam, Kabupaten Bener Meriah, Aceh";"Kabupaten Bener Meriah, Aceh";"ACEH";"";"Indonesia";"";"4.7176678";"96.8008905";"https://maps.google.com/?cid=0x0:0x7f122f5ab8c49984"
"hardware store";"hardware store";"Innovation Store Showroom Hermes Palace";"Jl. Teuku Hasan Dek - Kel. Beurawe, Kec. Kuta Alam, Banda Aceh, Hermes Palace Mal Ground Floor B1, Aceh, D.i Aceh 23124";"Kec. Kuta Alam, Banda Aceh, Hermes Palace Mal Ground Floor B1, Aceh";"ACEH";"23124";"Indonesia";" 06517559180";"4.695135";"96.749399";"https://maps.google.com/?cid=0x0:0xb5162f510bc75a36"
"hardware store";"Toko Elektronik";"Aneka Electronik";"PQHW+HPW, Simpang Balek, Kec. Wih Pesam, Kabupaten Bener Meriah, Aceh 24471";"Simpang Balek, Kec. Wih Pesam, Kabupaten Bener Meriah";"ACEH";"24471";"Indonesia";" 081321188140";"4.7289844";"96.7968366";"https://maps.google.com/?cid=0x0:0xaf4c90e399e1c70d"
"supermarket bangunan";"supermarket bangunan";"Banda Aceh";"Kota Banda Aceh, Aceh";"Kota Banda Aceh, Aceh";"ACEH";"";"Indonesia";"";"5.5482904";"95.3237559";"https://maps.google.com/?cid=0x0:0x3039d80b220cb90"
"supermarket bangunan";"Toko Bahan Bangunan";"Zahra Bangunan";"Jl. Dr. Mr. Mohd Hasan, Batoh, Kec. Lueng Bata, Kota Banda Aceh, Aceh 23127";"Batoh, Kec. Lueng Bata, Kota Banda Aceh";"ACEH";"23127";"Indonesia";" 085697225016";"5.5425651";"95.3305542";"https://maps.google.com/?cid=0x0:0x9785538145c2ac3"
"supermarket bangunan";"Toko Bahan Bangunan";"Toko Dunia Bangunan. 24 Jam.";"H82H+CVX, Jl. Teuku Imuem Jl. Teuku Chik Di Tiro, Ateuk Pahlawan, Kec. Baiturrahman, Kota Banda Aceh, Aceh 174_175";"Kota Banda Aceh, Aceh";"ACEH";"";"Indonesia";" 085260178145";"5.5511237";"95.3297328";"https://maps.google.com/?cid=0x0:0xc5443108175d2ef2"
"supermarket bangunan";"Toko Bahan Bangunan";"Toko Bangunan Sejahtera Baru";"F9VF+2VR, Lambarih Bakmee, Kec. SukaMakmur, Kabupaten Aceh Besar, Aceh 23363";"Lambarih Bakmee, Kec. SukaMakmur, Kabupaten Aceh Besar";"ACEH";"23363";"Indonesia";" 082186774774";"5.4926174";"95.3746298";"https://maps.google.com/?cid=0x0:0x13f51277a759d9b5"
"supermarket bangunan";"Toko Bahan Bangunan";"Toko bangunan / toko bahan bangunan";"H9J7+PM3, Rukoh, Kec. Syiah Kuala, Kota Banda Aceh, Aceh";"Kota Banda Aceh, Aceh";"ACEH";"";"Indonesia";" 081361112653";"5.581784";"95.3641847";"https://maps.google.com/?cid=0x0:0xca53fca6947362de"
"supermarket bangunan";"Toko";"Toko bangunan sinar baru";"rima, Jalan ulee lheu - simpang, Lamjamee, Kec. Jaya Baru, Kota Banda Aceh, Aceh 23234";"Jalan ulee lheu - simpang, Lamjamee, Kec. Jaya Baru, Kota Banda Aceh";"ACEH";"23234";"Indonesia";" 082279187548";"5.5398079";"95.2848595";"https://maps.google.com/?cid=0x0:0x7657166469a743c7"
"supermarket bangunan";"Toko Cat";"Sumber Warna";"Jl. Teuku Umar No.245, Geuceu Kayee Jato, Kec. Banda Raya, Kota Banda Aceh, Aceh 23239";"Geuceu Kayee Jato, Kec. Banda Raya, Kota Banda Aceh";"ACEH";"23239";"Indonesia";" 081269212102";"5.5382376";"95.3081446";"https://maps.google.com/?cid=0x0:0xc78d6c11ec762de5"
"supermarket bangunan";"Toko Bahan Bangunan";"TOKO BANGUNAN MANDIRI BARU";"Jl. Teuku Iskandar, Lamglumpang, Kec. Ulee Kareng, Kota Banda Aceh, Aceh 23127";"Lamglumpang, Kec. Ulee Kareng, Kota Banda Aceh";"ACEH";"23127";"Indonesia";" 0817823371";"5.5520791";"95.3492516";"https://maps.google.com/?cid=0x0:0x2dfc9d8d2d36fce8"
"supermarket bangunan";"Toko Bahan Bangunan";"Zahara Jaya";"H838+29W, Kp. Baru, Kec. Baiturrahman, Kota Banda Aceh, Aceh 23116";"Kp. Baru, Kec. Baiturrahman, Kota Banda Aceh";"ACEH";"23116";"Indonesia";" 065123718";"5.5526101";"95.3159489";"https://maps.google.com/?cid=0x0:0xef4ab7341c24f4b0"
"supermarket bangunan";"Toko Makanan";"Merdeka Supply";"Jln. Tgk. Imum, Lamseupeung, Kec. Lueng Bata, Kota Banda Aceh, Aceh 23247";"Lamseupeung, Kec. Lueng Bata, Kota Banda Aceh";"ACEH";"23247";"Indonesia";" 081361616030";"5.5505355";"95.332469";"https://maps.google.com/?cid=0x0:0xc304a3aae5e543c8"
"supermarket bangunan";"Toko Bahan Bangunan";"Toko Besi Jaya Baru";"Jl. Teuku Umar No.247, Geuceu Kayee Jato, Kec. Banda Raya, Kota Banda Aceh, Aceh 23116";"Geuceu Kayee Jato, Kec. Banda Raya, Kota Banda Aceh";"ACEH";"23116";"Indonesia";" 065142154";"5.5381936";"95.3081139";"https://maps.google.com/?cid=0x0:0x9779be8222def773"
"supermarket bangunan";"Toko Bahan Bangunan";"Toko Bangunan";"G9X6+74F, Ceurih, Kec. Ulee Kareng, Kota Banda Aceh, Aceh";"Kota Banda Aceh, Aceh";"ACEH";"";"Indonesia";"";"5.5481845";"95.3602841";"https://maps.google.com/?cid=0x0:0xf71251347f44de5d"
"supermarket bangunan";"Toko Bahan Bangunan";"Toko Bangunan Pelita Makmur";"Jl. WR Supratman No.18, Peunayong, Kec. Kuta Alam, Kota Banda Aceh, Aceh";"Kota Banda Aceh, Aceh";"ACEH";"";"Indonesia";"";"5.5605595";"95.3207272";"https://maps.google.com/?cid=0x0:0x76cafb8bbaca3455"
"supermarket bangunan";"Toko Bahan Bangunan";"Toko Bangunan Restu Baru";"Punge Jurong, Kec. Meuraxa, Kota Banda Aceh, Aceh";"Kota Banda Aceh, Aceh";"ACEH";"";"Indonesia";" 085697225016";"5.5505698";"95.3063395";"https://maps.google.com/?cid=0x0:0x19be35fae5e58e08"
"supermarket bangunan";"supermarket bangunan";"Banda Aceh";"Kota Banda Aceh, Aceh";"Kota Banda Aceh, Aceh";"ACEH";"";"Indonesia";"";"5.5482904";"95.3237559";"https://maps.google.com/?cid=0x0:0x3039d80b220cb90"
"supermarket bangunan";"Toko Bahan Bangunan";"Zahra Bangunan";"Jl. Dr. Mr. Mohd Hasan, Batoh, Kec. Lueng Bata, Kota Banda Aceh, Aceh 23127";"Batoh, Kec. Lueng Bata, Kota Banda Aceh";"ACEH";"23127";"Indonesia";" 085697225016";"5.5425651";"95.3305542";"https://maps.google.com/?cid=0x0:0x9785538145c2ac3"
"supermarket bangunan";"Toko Bahan Bangunan";"TOKO BESI BINTANG BANGUNAN";"Jl. Pocut Baren No.29, Keuramat, Kec. Kuta Alam, Kota Banda Aceh, Aceh 23126";"Keuramat, Kec. Kuta Alam, Kota Banda Aceh";"ACEH";"23126";"Indonesia";" 081360031288";"5.5617508";"95.3240203";"https://maps.google.com/?cid=0x0:0xa98c67e001462b53"
"supermarket bangunan";"Toko Bahan Bangunan";"Toko Bangunan Restu Baru";"Punge Jurong, Kec. Meuraxa, Kota Banda Aceh, Aceh";"Kota Banda Aceh, Aceh";"ACEH";"";"Indonesia";" 085697225016";"5.5505698";"95.3063395";"https://maps.google.com/?cid=0x0:0x19be35fae5e58e08"
"supermarket bangunan";"Toko Bahan Bangunan";"Toko Bangunan Sejahtera Baru";"F9VF+2VR, Lambarih Bakmee, Kec. SukaMakmur, Kabupaten Aceh Besar, Aceh 23363";"Lambarih Bakmee, Kec. SukaMakmur, Kabupaten Aceh Besar";"ACEH";"23363";"Indonesia";" 082186774774";"5.4926174";"95.3746298";"https://maps.google.com/?cid=0x0:0x13f51277a759d9b5"
"supermarket bangunan";"Toko Bahan Bangunan";"Toko bangunan / toko bahan bangunan";"H9J7+PM3, Rukoh, Kec. Syiah Kuala, Kota Banda Aceh, Aceh";"Kota Banda Aceh, Aceh";"ACEH";"";"Indonesia";" 081361112653";"5.581784";"95.3641847";"https://maps.google.com/?cid=0x0:0xca53fca6947362de"
"supermarket bangunan";"Toko Bahan Bangunan";"TOKO BANGUNAN MANDIRI BARU";"Jl. Teuku Iskandar, Lamglumpang, Kec. Ulee Kareng, Kota Banda Aceh, Aceh 23127";"Lamglumpang, Kec. Ulee Kareng, Kota Banda Aceh";"ACEH";"23127";"Indonesia";" 0817823371";"5.5520791";"95.3492516";"https://maps.google.com/?cid=0x0:0x2dfc9d8d2d36fce8"
"supermarket bangunan";"Toko";"Toko bangunan sinar baru";"rima, Jalan ulee lheu - simpang, Lamjamee, Kec. Jaya Baru, Kota Banda Aceh, Aceh 23234";"Jalan ulee lheu - simpang, Lamjamee, Kec. Jaya Baru, Kota Banda Aceh";"ACEH";"23234";"Indonesia";" 082279187548";"5.5398079";"95.2848595";"https://maps.google.com/?cid=0x0:0x7657166469a743c7"
"supermarket bangunan";"Toko Cat";"Sumber Warna";"Jl. Teuku Umar No.245, Geuceu Kayee Jato, Kec. Banda Raya, Kota Banda Aceh, Aceh 23239";"Geuceu Kayee Jato, Kec. Banda Raya, Kota Banda Aceh";"ACEH";"23239";"Indonesia";" 081269212102";"5.5382376";"95.3081446";"https://maps.google.com/?cid=0x0:0xc78d6c11ec762de5"
"supermarket bangunan";"Toko Bahan Bangunan";"Zahara Jaya";"H838+29W, Kp. Baru, Kec. Baiturrahman, Kota Banda Aceh, Aceh 23116";"Kp. Baru, Kec. Baiturrahman, Kota Banda Aceh";"ACEH";"23116";"Indonesia";" 065123718";"5.5526101";"95.3159489";"https://maps.google.com/?cid=0x0:0xef4ab7341c24f4b0"
"supermarket bangunan";"Toko Bahan Bangunan";"Toko Bangunan Pelita Makmur";"Jl. WR Supratman No.18, Peunayong, Kec. Kuta Alam, Kota Banda Aceh, Aceh";"Kota Banda Aceh, Aceh";"ACEH";"";"Indonesia";"";"5.5605595";"95.3207272";"https://maps.google.com/?cid=0x0:0x76cafb8bbaca3455"
"supermarket bangunan";"Toko Bahan Bangunan";"Toko Besi Jaya Baru";"Jl. Teuku Umar No.247, Geuceu Kayee Jato, Kec. Banda Raya, Kota Banda Aceh, Aceh 23116";"Geuceu Kayee Jato, Kec. Banda Raya, Kota Banda Aceh";"ACEH";"23116";"Indonesia";" 065142154";"5.5381936";"95.3081139";"https://maps.google.com/?cid=0x0:0x9779be8222def773"
"supermarket bangunan";"Toko Bahan Bangunan";"Toko Bangunan";"G9X6+74F, Ceurih, Kec. Ulee Kareng, Kota Banda Aceh, Aceh";"Kota Banda Aceh, Aceh";"ACEH";"";"Indonesia";"";"5.5481845";"95.3602841";"https://maps.google.com/?cid=0x0:0xf71251347f44de5d"
"supermarket bangunan";"Toko Bahan Bangunan";"Toko Bangunan Sahabat Baru";"Jl. Teuku Iskandar No.2, Lamglumpang, Kec. Ulee Kareng, Kota Banda Aceh, Aceh 23127";"Lamglumpang, Kec. Ulee Kareng, Kota Banda Aceh";"ACEH";"23127";"Indonesia";" 082279187548";"5.5497336";"95.3587896";"https://maps.google.com/?cid=0x0:0xed8d0ee3ba9bd01b"
"supermarket bangunan";"supermarket bangunan";"Banda Aceh";"Kota Banda Aceh, Aceh";"Kota Banda Aceh, Aceh";"ACEH";"";"Indonesia";"";"5.5482904";"95.3237559";"https://maps.google.com/?cid=0x0:0x3039d80b220cb90"
"supermarket bangunan";"Toko Bahan Bangunan";"Zahra Bangunan";"Jl. Dr. Mr. Mohd Hasan, Batoh, Kec. Lueng Bata, Kota Banda Aceh, Aceh 23127";"Batoh, Kec. Lueng Bata, Kota Banda Aceh";"ACEH";"23127";"Indonesia";" 085697225016";"5.5425651";"95.3305542";"https://maps.google.com/?cid=0x0:0x9785538145c2ac3"
"supermarket bangunan";"Toko Bahan Bangunan";"TOKO BESI BINTANG BANGUNAN";"Jl. Pocut Baren No.29, Keuramat, Kec. Kuta Alam, Kota Banda Aceh, Aceh 23126";"Keuramat, Kec. Kuta Alam, Kota Banda Aceh";"ACEH";"23126";"Indonesia";" 081360031288";"5.5617508";"95.3240203";"https://maps.google.com/?cid=0x0:0xa98c67e001462b53"
"supermarket bangunan";"Toko Bahan Bangunan";"Toko Bangunan Restu Baru";"Punge Jurong, Kec. Meuraxa, Kota Banda Aceh, Aceh";"Kota Banda Aceh, Aceh";"ACEH";"";"Indonesia";" 085697225016";"5.5505698";"95.3063395";"https://maps.google.com/?cid=0x0:0x19be35fae5e58e08"
"supermarket bangunan";"Toko Bahan Bangunan";"Toko bangunan / toko bahan bangunan";"H9J7+PM3, Rukoh, Kec. Syiah Kuala, Kota Banda Aceh, Aceh";"Kota Banda Aceh, Aceh";"ACEH";"";"Indonesia";" 081361112653";"5.581784";"95.3641847";"https://maps.google.com/?cid=0x0:0xca53fca6947362de"
"supermarket bangunan";"Toko Bahan Bangunan";"Toko Bangunan Jambo Akhie";"G8JQ+QVH, Landom, Kec. Lueng Bata, Kota Banda Aceh, Aceh 23122";"Landom, Kec. Lueng Bata, Kota Banda Aceh";"ACEH";"23122";"Indonesia";" 08154053540";"5.5319478";"95.3397414";"https://maps.google.com/?cid=0x0:0x1fbef36a02b6f916"
"supermarket bangunan";"Toko Bahan Bangunan";"Toko Bangunan Sahabat Baru";"Jl. Teuku Iskandar No.2, Lamglumpang, Kec. Ulee Kareng, Kota Banda Aceh, Aceh 23127";"Lamglumpang, Kec. Ulee Kareng, Kota Banda Aceh";"ACEH";"23127";"Indonesia";" 082279187548";"5.5497336";"95.3587896";"https://maps.google.com/?cid=0x0:0xed8d0ee3ba9bd01b"
"supermarket bangunan";"Toko";"Toko bangunan sinar baru";"rima, Jalan ulee lheu - simpang, Lamjamee, Kec. Jaya Baru, Kota Banda Aceh, Aceh 23234";"Jalan ulee lheu - simpang, Lamjamee, Kec. Jaya Baru, Kota Banda Aceh";"ACEH";"23234";"Indonesia";" 082279187548";"5.5398079";"95.2848595";"https://maps.google.com/?cid=0x0:0x7657166469a743c7"
"supermarket bangunan";"Toko Bahan Bangunan";"Toko Bangunan Agung Mulia";"H88F+RP8, Jl. Teungku Di Blang, Mulia, Kec. Kuta Alam, Kota Banda Aceh, Aceh";"Kota Banda Aceh, Aceh";"ACEH";"";"Indonesia";" 08154053540";"5.567047";"95.3243291";"https://maps.google.com/?cid=0x0:0xa00ac4c4de2d7614"
"supermarket bangunan";"Toko Bahan Bangunan";"toko bangunan TERATAI JAYA";"H9H2+MJ3, Jl. Teuku Nyak Arief, Jeulingke, Kec. Syiah Kuala, Kota Banda Aceh, Aceh 23114";"Jl. Teuku Nyak Arief, Jeulingke, Kec. Syiah Kuala, Kota Banda Aceh";"ACEH";"23114";"Indonesia";"";"5.5791255";"95.3515394";"https://maps.google.com/?cid=0x0:0x1f49c2a470f4d9bd"
"supermarket bangunan";"Toko Bahan Bangunan";"Toko Bangunan Balia";"G8G3+M57, Geuceu Iniem, Kec. Banda Raya, Kota Banda Aceh, Aceh 23232";"Geuceu Iniem, Kec. Banda Raya, Kota Banda Aceh";"ACEH";"23232";"Indonesia";"";"5.5266501";"95.3029277";"https://maps.google.com/?cid=0x0:0xf90c60957a4d309e"
"supermarket bangunan";"Toko Bahan Bangunan";"TOKO BANGUNAN MANDIRI BARU";"Jl. Teuku Iskandar, Lamglumpang, Kec. Ulee Kareng, Kota Banda Aceh, Aceh 23127";"Lamglumpang, Kec. Ulee Kareng, Kota Banda Aceh";"ACEH";"23127";"Indonesia";" 0817823371";"5.5520791";"95.3492516";"https://maps.google.com/?cid=0x0:0x2dfc9d8d2d36fce8"
"supermarket bangunan";"Toko Cat";"Sumber Warna";"Jl. Teuku Umar No.245, Geuceu Kayee Jato, Kec. Banda Raya, Kota Banda Aceh, Aceh 23239";"Geuceu Kayee Jato, Kec. Banda Raya, Kota Banda Aceh";"ACEH";"23239";"Indonesia";" 081269212102";"5.5382376";"95.3081446";"https://maps.google.com/?cid=0x0:0xc78d6c11ec762de5"
"supermarket bangunan";"Toko Bahan Bangunan";"Toko Bangunan Sejahtera Baru";"F9VF+2VR, Lambarih Bakmee, Kec. SukaMakmur, Kabupaten Aceh Besar, Aceh 23363";"Lambarih Bakmee, Kec. SukaMakmur, Kabupaten Aceh Besar";"ACEH";"23363";"Indonesia";" 0816992047";"5.4926174";"95.3746298";"https://maps.google.com/?cid=0x0:0x13f51277a759d9b5"
"supermarket bangunan";"Toko Bahan Bangunan";"Zahra Bangunan";"Jl. Dr. Mr. Mohd Hasan, Batoh, Kec. Lueng Bata, Kota Banda Aceh, Aceh 23127";"Batoh, Kec. Lueng Bata, Kota Banda Aceh";"ACEH";"23127";"Indonesia";" 085697225016";"5.5425651";"95.3305542";"https://maps.google.com/?cid=0x0:0x9785538145c2ac3"
"supermarket bangunan";"Toko Bahan Bangunan";"TOKO BESI BINTANG BANGUNAN";"Jl. Pocut Baren No.29, Keuramat, Kec. Kuta Alam, Kota Banda Aceh, Aceh 23126";"Keuramat, Kec. Kuta Alam, Kota Banda Aceh";"ACEH";"23126";"Indonesia";" 081360031288";"5.5617508";"95.3240203";"https://maps.google.com/?cid=0x0:0xa98c67e001462b53"
"supermarket bangunan";"supermarket bangunan";"Banda Aceh";"Kota Banda Aceh, Aceh";"Kota Banda Aceh, Aceh";"ACEH";"";"Indonesia";"";"5.5482904";"95.3237559";"https://maps.google.com/?cid=0x0:0x3039d80b220cb90"
"supermarket bangunan";"Toko Bahan Bangunan";"Toko Dunia Bangunan. 24 Jam.";"H82H+CVX, Jl. Teuku Imuem Jl. Teuku Chik Di Tiro, Ateuk Pahlawan, Kec. Baiturrahman, Kota Banda Aceh, Aceh 174_175";"Kota Banda Aceh, Aceh";"ACEH";"";"Indonesia";" 085260178145";"5.5511237";"95.3297328";"https://maps.google.com/?cid=0x0:0xc5443108175d2ef2"
"supermarket bangunan";"Toko Bahan Bangunan";"Toko Bangunan Restu Baru";"Punge Jurong, Kec. Meuraxa, Kota Banda Aceh, Aceh";"Kota Banda Aceh, Aceh";"ACEH";"";"Indonesia";" 085697225016";"5.5505698";"95.3063395";"https://maps.google.com/?cid=0x0:0x19be35fae5e58e08"
"supermarket bangunan";"Toko Bahan Bangunan";"Toko bangunan / toko bahan bangunan";"H9J7+PM3, Rukoh, Kec. Syiah Kuala, Kota Banda Aceh, Aceh";"Kota Banda Aceh, Aceh";"ACEH";"";"Indonesia";" 081361112653";"5.581784";"95.3641847";"https://maps.google.com/?cid=0x0:0xca53fca6947362de"
"supermarket bangunan";"Toko Bahan Bangunan";"TOKO MALIN BANGUNAN";"H83R+667, Lambhuk, Kec. Ulee Kareng, Kota Banda Aceh, Aceh";"Kota Banda Aceh, Aceh";"ACEH";"";"Indonesia";" 085697225016";"5.5530472";"95.3405423";"https://maps.google.com/?cid=0x0:0x4be7f8f3db9b38e6"
"supermarket bangunan";"Toko";"Toko bangunan sinar baru";"rima, Jalan ulee lheu - simpang, Lamjamee, Kec. Jaya Baru, Kota Banda Aceh, Aceh 23234";"Jalan ulee lheu - simpang, Lamjamee, Kec. Jaya Baru, Kota Banda Aceh";"ACEH";"23234";"Indonesia";" 082279187548";"5.5398079";"95.2848595";"https://maps.google.com/?cid=0x0:0x7657166469a743c7"
"supermarket bangunan";"Toko Bahan Bangunan";"Toko Bangunan Balia";"G8G3+M57, Geuceu Iniem, Kec. Banda Raya, Kota Banda Aceh, Aceh 23232";"Geuceu Iniem, Kec. Banda Raya, Kota Banda Aceh";"ACEH";"23232";"Indonesia";"";"5.5266501";"95.3029277";"https://maps.google.com/?cid=0x0:0xf90c60957a4d309e"
"supermarket bangunan";"Toko Bahan Bangunan";"TOKO BANGUNAN MANDIRI BARU";"Jl. Teuku Iskandar, Lamglumpang, Kec. Ulee Kareng, Kota Banda Aceh, Aceh 23127";"Lamglumpang, Kec. Ulee Kareng, Kota Banda Aceh";"ACEH";"23127";"Indonesia";" 0817823371";"5.5520791";"95.3492516";"https://maps.google.com/?cid=0x0:0x2dfc9d8d2d36fce8"
"supermarket bangunan";"Toko Bahan Bangunan";"Toko Bangunan Sejahtera Baru";"F9VF+2VR, Lambarih Bakmee, Kec. SukaMakmur, Kabupaten Aceh Besar, Aceh 23363";"Lambarih Bakmee, Kec. SukaMakmur, Kabupaten Aceh Besar";"ACEH";"23363";"Indonesia";" 082186774774";"5.4926174";"95.3746298";"https://maps.google.com/?cid=0x0:0x13f51277a759d9b5"
"supermarket bangunan";"Toko Cat";"Sumber Warna";"Jl. Teuku Umar No.245, Geuceu Kayee Jato, Kec. Banda Raya, Kota Banda Aceh, Aceh 23239";"Geuceu Kayee Jato, Kec. Banda Raya, Kota Banda Aceh";"ACEH";"23239";"Indonesia";" 081269212102";"5.5382376";"95.3081446";"https://maps.google.com/?cid=0x0:0xc78d6c11ec762de5"
"supermarket bangunan";"Toko Bahan Bangunan";"Zahara Jaya";"H838+29W, Kp. Baru, Kec. Baiturrahman, Kota Banda Aceh, Aceh 23116";"Kp. Baru, Kec. Baiturrahman, Kota Banda Aceh";"ACEH";"23116";"Indonesia";" 065123718";"5.5526101";"95.3159489";"https://maps.google.com/?cid=0x0:0xef4ab7341c24f4b0"
"supermarket bangunan";"Toko Bahan Bangunan";"Toko Bangunan";"G9X6+74F, Ceurih, Kec. Ulee Kareng, Kota Banda Aceh, Aceh";"Kota Banda Aceh, Aceh";"ACEH";"";"Indonesia";"";"5.5481845";"95.3602841";"https://maps.google.com/?cid=0x0:0xf71251347f44de5d"
"supermarket bangunan";"supermarket bangunan";"Banda Aceh";"Kota Banda Aceh, Aceh";"Kota Banda Aceh, Aceh";"ACEH";"";"Indonesia";"";"5.5482904";"95.3237559";"https://maps.google.com/?cid=0x0:0x3039d80b220cb90"
"supermarket bangunan";"Toko Bahan Bangunan";"Zahra Bangunan";"Jl. Dr. Mr. Mohd Hasan, Batoh, Kec. Lueng Bata, Kota Banda Aceh, Aceh 23127";"Batoh, Kec. Lueng Bata, Kota Banda Aceh";"ACEH";"23127";"Indonesia";"";"5.5425651";"95.3305542";"https://maps.google.com/?cid=0x0:0x9785538145c2ac3"
"supermarket bangunan";"Toko Bahan Bangunan";"Toko Dunia Bangunan. 24 Jam.";"H82H+CVX, Jl. Teuku Imuem Jl. Teuku Chik Di Tiro, Ateuk Pahlawan, Kec. Baiturrahman, Kota Banda Aceh, Aceh 174_175";"Kota Banda Aceh, Aceh";"ACEH";"";"Indonesia";" 085260178145";"5.5511237";"95.3297328";"https://maps.google.com/?cid=0x0:0xc5443108175d2ef2"
"supermarket bangunan";"Toko Bahan Bangunan";"Toko Bangunan Sahabat Baru";"Jl. Teuku Iskandar No.2, Lamglumpang, Kec. Ulee Kareng, Kota Banda Aceh, Aceh 23127";"Lamglumpang, Kec. Ulee Kareng, Kota Banda Aceh";"ACEH";"23127";"Indonesia";" 082279187548";"5.5497336";"95.3587896";"https://maps.google.com/?cid=0x0:0xed8d0ee3ba9bd01b"
"supermarket bangunan";"Toko Bahan Bangunan";"Toko bangunan / toko bahan bangunan";"H9J7+PM3, Rukoh, Kec. Syiah Kuala, Kota Banda Aceh, Aceh";"Kota Banda Aceh, Aceh";"ACEH";"";"Indonesia";" 081361112653";"5.581784";"95.3641847";"https://maps.google.com/?cid=0x0:0xca53fca6947362de"
"supermarket bangunan";"Toko";"Toko bangunan sinar baru";"rima, Jalan ulee lheu - simpang, Lamjamee, Kec. Jaya Baru, Kota Banda Aceh, Aceh 23234";"Jalan ulee lheu - simpang, Lamjamee, Kec. Jaya Baru, Kota Banda Aceh";"ACEH";"23234";"Indonesia";" 082279187548";"5.5398079";"95.2848595";"https://maps.google.com/?cid=0x0:0x7657166469a743c7"
"supermarket bangunan";"Toko Bahan Bangunan";"TOKO BANGUNAN MANDIRI BARU";"Jl. Teuku Iskandar, Lamglumpang, Kec. Ulee Kareng, Kota Banda Aceh, Aceh 23127";"Lamglumpang, Kec. Ulee Kareng, Kota Banda Aceh";"ACEH";"23127";"Indonesia";" 0817823371";"5.5520791";"95.3492516";"https://maps.google.com/?cid=0x0:0x2dfc9d8d2d36fce8"
"supermarket bangunan";"Toko Bahan Bangunan";"Toko Bangunan Balia";"G8G3+M57, Geuceu Iniem, Kec. Banda Raya, Kota Banda Aceh, Aceh 23232";"Geuceu Iniem, Kec. Banda Raya, Kota Banda Aceh";"ACEH";"23232";"Indonesia";"";"5.5266501";"95.3029277";"https://maps.google.com/?cid=0x0:0xf90c60957a4d309e"
"supermarket bangunan";"Toko Bahan Bangunan";"Toko Bangunan Sejahtera Baru";"F9VF+2VR, Lambarih Bakmee, Kec. SukaMakmur, Kabupaten Aceh Besar, Aceh 23363";"Lambarih Bakmee, Kec. SukaMakmur, Kabupaten Aceh Besar";"ACEH";"23363";"Indonesia";" 082186774774";"5.4926174";"95.3746298";"https://maps.google.com/?cid=0x0:0x13f51277a759d9b5"
"supermarket bangunan";"Toko Cat";"Sumber Warna";"Jl. Teuku Umar No.245, Geuceu Kayee Jato, Kec. Banda Raya, Kota Banda Aceh, Aceh 23239";"Geuceu Kayee Jato, Kec. Banda Raya, Kota Banda Aceh";"ACEH";"23239";"Indonesia";" 081269212102";"5.5382376";"95.3081446";"https://maps.google.com/?cid=0x0:0xc78d6c11ec762de5"
"supermarket bangunan";"Toko Bahan Bangunan";"Zahara Jaya";"H838+29W, Kp. Baru, Kec. Baiturrahman, Kota Banda Aceh, Aceh 23116";"Kp. Baru, Kec. Baiturrahman, Kota Banda Aceh";"ACEH";"23116";"Indonesia";" 065123718";"5.5526101";"95.3159489";"https://maps.google.com/?cid=0x0:0xef4ab7341c24f4b0"
"supermarket bangunan";"Kantor Perusahaan";"Toko Bangunan Usaha Maju";"Jl. Medan - Banda Aceh No.KM 18, RW.5, Lambaro Samahani, Kec. Kuta Malaka, Kabupaten Aceh Besar, Aceh 23361";"RW.5, Lambaro Samahani, Kec. Kuta Malaka, Kabupaten Aceh Besar";"ACEH";"23361";"Indonesia";" 082351003207";"5.4431919";"95.4005394";"https://maps.google.com/?cid=0x0:0x6f388fb1bb26cacd"
"supermarket bangunan";"Toko Bahan Bangunan";"Toko Bangunan";"G9X6+74F, Ceurih, Kec. Ulee Kareng, Kota Banda Aceh, Aceh";"Kota Banda Aceh, Aceh";"ACEH";"";"Indonesia";"";"5.5481845";"95.3602841";"https://maps.google.com/?cid=0x0:0xf71251347f44de5d"
"supermarket bangunan";"Toko Bahan Bangunan";"Toko Besi Jaya Baru";"Jl. Teuku Umar No.247, Geuceu Kayee Jato, Kec. Banda Raya, Kota Banda Aceh, Aceh 23116";"Geuceu Kayee Jato, Kec. Banda Raya, Kota Banda Aceh";"ACEH";"23116";"Indonesia";" 065142154";"5.5381936";"95.3081139";"https://maps.google.com/?cid=0x0:0x9779be8222def773"
"supermarket bangunan";"Toko Bahan Bangunan";"Toko Bangunan BINA BARU";"QV2X+RW5, Pd. Gajah, Kec. Bandar, Kabupaten Bener Meriah, Aceh 24582";"Pd. Gajah, Kec. Bandar, Kabupaten Bener Meriah";"ACEH";"24582";"Indonesia";"";"4.7520106";"96.8998645";"https://maps.google.com/?cid=0x0:0x3b1827c422336e0"
"supermarket bangunan";"supermarket bangunan";"Kec. Bener Kelipah";"Kabupaten Bener Meriah, Aceh";"Kabupaten Bener Meriah, Aceh";"ACEH";"";"Indonesia";"";"4.7701481";"96.923098";"https://maps.google.com/?cid=0x0:0x3a7e0c8dc476f1e"
"supermarket bangunan";"Toko Bahan Bangunan";"Indah warna bener meriah";"QW47+52J, Jl. Syiah Utama, Simpang Utama, Kec. Bandar, Kabupaten Bener Meriah, Aceh 24582";"Jl. Syiah Utama, Simpang Utama, Kec. Bandar, Kabupaten Bener Meriah";"ACEH";"24582";"Indonesia";"";"4.7554652";"96.9125289";"https://maps.google.com/?cid=0x0:0x707bc46e1d0187d0"
"supermarket bangunan";"Toko Bahan Bangunan";"TOKO BESI MURNI BARU";"QW34+3C8, Simpang Utama, Kec. Bandar, Kabupaten Bener Meriah, Aceh 24582";"Simpang Utama, Kec. Bandar, Kabupaten Bener Meriah";"ACEH";"24582";"Indonesia";"";"4.7526704";"96.9060781";"https://maps.google.com/?cid=0x0:0xf8da11935137ba38"
"supermarket bangunan";"Toko Bahan Bangunan";"Toko surya baru";"QW48+MM7, Pd. Baru, Lhokseumawe, Kabupaten Bener Meriah, Aceh 24582";"Pd. Baru, Lhokseumawe, Kabupaten Bener Meriah";"ACEH";"24582";"Indonesia";"";"4.756492";"96.9165836";"https://maps.google.com/?cid=0x0:0x90d4c8f55c2eb310"
"supermarket bangunan";"Toko Bahan Bangunan";"Surya Jaya 2";"QW27+M7C, RW.sidenge, Tawar Sedenge, Kec. Bandar, Kabupaten Bener Meriah, Aceh 24582";"RW.sidenge, Tawar Sedenge, Kec. Bandar, Kabupaten Bener Meriah";"ACEH";"24582";"Indonesia";"";"4.7514817";"96.9133331";"https://maps.google.com/?cid=0x0:0xf96e115176f50693"
"supermarket bangunan";"Toko Bahan Bangunan";"TOKO BINTANG JAYA KERAMIK";"PWX7+Q68, Jl. Blang Jorong, Pd. Baru, Kec. Bandar, Kabupaten Bener Meriah, Aceh 24582";"Jl. Blang Jorong, Pd. Baru, Kec. Bandar, Kabupaten Bener Meriah";"ACEH";"24582";"Indonesia";" 081362385666";"4.7494123";"96.9130994";"https://maps.google.com/?cid=0x0:0x81704bc2e4e9d04c"
"supermarket bangunan";"Toko Perabot untuk Taman";"Mekar jaya perabot";"Jalan pondok baru buntul, simpang, Bahgie Bertona, Pondok baru, Kabupaten Bener Meriah, Aceh 24582";"simpang, Bahgie Bertona, Pondok baru, Kabupaten Bener Meriah";"ACEH";"24582";"Indonesia";" 082367006688";"4.7563816";"96.917841";"https://maps.google.com/?cid=0x0:0x663a84ec16a43c36"
"supermarket bangunan";"supermarket bangunan";"Toko Hidup Subur";"QW47+42V, Jl. Syiah Utama, Janarata, Kec. Bandar, Kabupaten Bener Meriah, Aceh 24582";"Jl. Syiah Utama, Janarata, Kec. Bandar, Kabupaten Bener Meriah";"ACEH";"24582";"Indonesia";"";"4.7552236";"96.9125504";"https://maps.google.com/?cid=0x0:0x669c06f324a70deb"
"supermarket bangunan";"Toko Bahan Bangunan";"Zahra Bangunan";"Jl. Dr. Mr. Mohd Hasan, Batoh, Kec. Lueng Bata, Kota Banda Aceh, Aceh 23127";"Batoh, Kec. Lueng Bata, Kota Banda Aceh";"ACEH";"23127";"Indonesia";"";"5.5425651";"95.3305542";"https://maps.google.com/?cid=0x0:0x9785538145c2ac3"
"supermarket bangunan";"supermarket bangunan";"Aceh";"";"Aceh";"ACEH";"";"Indonesia";"";"4.695135";"96.7493993";"https://maps.google.com/?cid=0x0:0x1039d80b220ca60"
"supermarket bangunan";"Toko Bahan Bangunan";"Toko Bangunan Restu Baru";"Punge Jurong, Kec. Meuraxa, Kota Banda Aceh, Aceh";"Kota Banda Aceh, Aceh";"ACEH";"";"Indonesia";" 085697225016";"5.5505698";"95.3063395";"https://maps.google.com/?cid=0x0:0x19be35fae5e58e08"
"supermarket bangunan";"Toko Bahan Bangunan";"Super Bangunan Supermarket Bahan Bangun No #1";"Jl. Raya Cikaret No.8, Harapan Jaya, Kec. Cibinong, Kabupaten Bogor, Jawa Barat 16914";"Harapan Jaya, Kec. Cibinong, Kabupaten Bogor";"ACEH";"16914";"Indonesia";" 085710923235";"-6.4669858";"106.8393338";"https://maps.google.com/?cid=0x0:0x53373791abd65da6"
"supermarket bangunan";"Toko Bahan Bangunan";"TOKO BESI BINTANG BANGUNAN";"Jl. Pocut Baren No.29, Keuramat, Kec. Kuta Alam, Kota Banda Aceh, Aceh 23126";"Keuramat, Kec. Kuta Alam, Kota Banda Aceh";"ACEH";"23126";"Indonesia";" 081360031288";"5.5617508";"95.3240203";"https://maps.google.com/?cid=0x0:0xa98c67e001462b53"
"supermarket bangunan";"Toko Bahan Bangunan";"Toko Dunia Bangunan. 24 Jam.";"H82H+CVX, Jl. Teuku Imuem Jl. Teuku Chik Di Tiro, Ateuk Pahlawan, Kec. Baiturrahman, Kota Banda Aceh, Aceh 174_175";"Kota Banda Aceh, Aceh";"ACEH";"";"Indonesia";" 085260178145";"5.5511237";"95.3297328";"https://maps.google.com/?cid=0x0:0xc5443108175d2ef2"
"supermarket bangunan";"Toko";"Toko bangunan sinar baru";"rima, Jalan ulee lheu - simpang, Lamjamee, Kec. Jaya Baru, Kota Banda Aceh, Aceh 23234";"Jalan ulee lheu - simpang, Lamjamee, Kec. Jaya Baru, Kota Banda Aceh";"ACEH";"23234";"Indonesia";" 082279187548";"5.5398079";"95.2848595";"https://maps.google.com/?cid=0x0:0x7657166469a743c7"
"supermarket bangunan";"Toko Cat";"Sumber Warna";"Jl. Teuku Umar No.245, Geuceu Kayee Jato, Kec. Banda Raya, Kota Banda Aceh, Aceh 23239";"Geuceu Kayee Jato, Kec. Banda Raya, Kota Banda Aceh";"ACEH";"23239";"Indonesia";" 081269212102";"5.5382376";"95.3081446";"https://maps.google.com/?cid=0x0:0xc78d6c11ec762de5"
"supermarket bangunan";"Toko Bahan Bangunan";"Toko Bangunan";"G9X6+74F, Ceurih, Kec. Ulee Kareng, Kota Banda Aceh, Aceh";"Kota Banda Aceh, Aceh";"ACEH";"";"Indonesia";"";"5.5481845";"95.3602841";"https://maps.google.com/?cid=0x0:0xf71251347f44de5d"
"supermarket bangunan";"Toko Bahan Bangunan";"Toko Bangunan Pelita Makmur";"Jl. WR Supratman No.18, Peunayong, Kec. Kuta Alam, Kota Banda Aceh, Aceh";"Kota Banda Aceh, Aceh";"ACEH";"";"Indonesia";"";"5.5605595";"95.3207272";"https://maps.google.com/?cid=0x0:0x76cafb8bbaca3455"
"supermarket bangunan";"Toko Bahan Bangunan";"Toko Besi Jaya Baru";"Jl. Teuku Umar No.247, Geuceu Kayee Jato, Kec. Banda Raya, Kota Banda Aceh, Aceh 23116";"Geuceu Kayee Jato, Kec. Banda Raya, Kota Banda Aceh";"ACEH";"23116";"Indonesia";" 065142154";"5.5381936";"95.3081139";"https://maps.google.com/?cid=0x0:0x9779be8222def773"
"supermarket bangunan";"Toko Perlengkapan Rumah";"Berjat jasa 02";"Tingkem Asli, Kec. Bukit, Kabupaten Bener Meriah, Aceh 24581";"Kec. Bukit, Kabupaten Bener Meriah";"ACEH";"24581";"Indonesia";" 082163219124";"4.7053422";"96.8679434";"https://maps.google.com/?cid=0x0:0xed05b431306a177"
"supermarket bangunan";"Toko Bahan Bangunan";"Toko bangunan / toko bahan bangunan";"H9J7+PM3, Rukoh, Kec. Syiah Kuala, Kota Banda Aceh, Aceh";"Kota Banda Aceh, Aceh";"ACEH";"";"Indonesia";" 081361112653";"5.581784";"95.3641847";"https://maps.google.com/?cid=0x0:0xca53fca6947362de"
"supermarket bangunan";"Toko Perlengkapan Rumah";"Sepermarket Bahan Bangunan Asia Niaga";"Jl. Jenderal Ahmad Yani No.123, Blang Sinibong, Kec. Langsa Kota, Kota Langsa, Aceh 24375";"Blang Sinibong, Kec. Langsa Kota, Kota Langsa";"ACEH";"24375";"Indonesia";" 085166898817";"4.4725893";"97.9756602";"https://maps.google.com/?cid=0x0:0xbf87768a6495f87a"
"supermarket bangunan";"Toko Bahan Bangunan";"TOKO BESI BINTANG BANGUNAN";"Jl. Pocut Baren No.29, Keuramat, Kec. Kuta Alam, Kota Banda Aceh, Aceh 23126";"Keuramat, Kec. Kuta Alam, Kota Banda Aceh";"ACEH";"23126";"Indonesia";" 081360031288";"5.5617508";"95.3240203";"https://maps.google.com/?cid=0x0:0xa98c67e001462b53"
"supermarket bangunan";"Toko Bahan Bangunan";"Toko Besi Kembang Tanjung";"JL. Tgk.P.Polem No.157, Laksana, Kec. Kuta Alam, Kota Banda Aceh, Aceh 24415";"Laksana, Kec. Kuta Alam, Kota Banda Aceh";"ACEH";"24415";"Indonesia";" 085360007290";"5.5600596";"95.3211101";"https://maps.google.com/?cid=0x0:0x6e424079421ecca8"
"supermarket bangunan";"Toko Bahan Bangunan";"Toko Bangunan BINA BARU";"QV2X+RW5, Pd. Gajah, Kec. Bandar, Kabupaten Bener Meriah, Aceh 24582";"Pd. Gajah, Kec. Bandar, Kabupaten Bener Meriah";"ACEH";"24582";"Indonesia";"";"4.7520106";"96.8998645";"https://maps.google.com/?cid=0x0:0x3b1827c422336e0"
"supermarket bangunan";"Toko bahan makanan";"Warung kelontong cek pon";"QV2X+RW5, Pd. Gajah, Kec. Bandar, Kabupaten Bener Meriah, Aceh 24582";"Pd. Gajah, Kec. Bandar, Kabupaten Bener Meriah";"ACEH";"24582";"Indonesia";"";"4.7520063";"96.8998479";"https://maps.google.com/?cid=0x0:0xdbef12cbc9f9dd0f"
"supermarket bangunan";"Toko Bahan Bangunan";"Supermarket Bahan Bangunan Tirta Bangunan";"Jl. Raya Babakan Madang, Sentul, Kec. Babakan Madang, Kabupaten Bogor, Jawa Barat 16810";"Sentul, Kec. Babakan Madang, Kabupaten Bogor";"ACEH";"16810";"Indonesia";" 08881300271";"-6.5601203";"106.8537161";"https://maps.google.com/?cid=0x0:0xc9e77a7f8f9d2f66"
"supermarket bangunan";"Toko Bahan Bangunan";"Super Bangunan";"Jl. Gajah Mada No.90 4, RT.4/RW.8, Krukut, Kec. Taman Sari, Kota Jakarta Barat, Daerah Khusus Ibukota Jakarta 11140";"RT.4/RW.8, Krukut, Kec. Taman Sari, Kota Jakarta Barat";"ACEH";"11140";"Indonesia";" 0216330802";"-6.155223";"106.817786";"https://maps.google.com/?cid=0x0:0xad5cbbfe71e8670a"
"supermarket bangunan";"Toko Bahan Bangunan";"Super Bangunan";"Jl. Kejayaan I No.17-19, RT.10/RW.1, Krukut, Kec. Taman Sari, Kota Jakarta Barat, Daerah Khusus Ibukota Jakarta 11140";"RT.10/RW.1, Krukut, Kec. Taman Sari, Kota Jakarta Barat";"ACEH";"11140";"Indonesia";" 0216339226";"-6.1564519";"106.8161472";"https://maps.google.com/?cid=0x0:0xa65f462a3ecf5cc"
"supermarket bangunan";"supermarket bangunan";"N/A";"";"";"ACEH";"";"Indonesia";" 085947000018";"-6.2297465";"106.829518";"https://maps.google.com/?cid=0x0:0xa1da7ae6dc5969f4"
"supermarket bangunan";"Grosir bahan konstruksi";"Supermarket Sumber Bangunan";"J5GG+HC7, Sukamahi, Kec. Cikarang Pusat, Kabupaten Bekasi, Jawa Barat 17530";"Sukamahi, Kec. Cikarang Pusat, Kabupaten Bekasi";"ACEH";"17530";"Indonesia";" 085133339501";"-6.3735753";"107.1760423";"https://maps.google.com/?cid=0x0:0x6a22acadf7672133"
"supermarket bangunan";"Pemasok Bahan Bangunan";"Pasar Bangunan Bekasi";"Jl. Parpostel No.99, RT.001/RW.008, Jatiasih, Kec. Jatiasih, Kota Bks, Jawa Barat 17423";"RT.001/RW.008, Jatiasih, Kec. Jatiasih, Kota Bks";"ACEH";"17423";"Indonesia";" 081380064196";"-6.3136193";"106.9555786";"https://maps.google.com/?cid=0x0:0xe940e617696ffc44"
"supermarket bangunan";"Toko Bahan Bangunan";"Mitra Bangunan Supermarket Bekasi";"Jl. Ir H Juanda No.99 E-G, RT.007/RW.001, Duren Jaya, Kec. Bekasi Tim., Kota Bks, Jawa Barat 17111";"RT.007/RW.001, Duren Jaya, Kec. Bekasi Tim., Kota Bks";"ACEH";"17111";"Indonesia";" 081381880123";"-6.2478223";"107.0194033";"https://maps.google.com/?cid=0x0:0x93b3c40f87f5e136"
"supermarket bangunan";"Toko Bahan Bangunan";"Pratama Supermarket Bahan Bangunan Jababeka";"Jl. Cikarang Baru Raya No.2, Mekarmukti, Kec. Cikarang Utara, Kabupaten Bekasi, Jawa Barat 17530";"Mekarmukti, Kec. Cikarang Utara, Kabupaten Bekasi";"ACEH";"17530";"Indonesia";" 083161259386";"-6.3004397";"107.167426";"https://maps.google.com/?cid=0x0:0x16010b489f707de5"
"supermarket bangunan";"supermarket bangunan";"Kec. Mesidah";"Kabupaten Bener Meriah, Aceh";"Kabupaten Bener Meriah, Aceh";"ACEH";"";"Indonesia";"";"4.7627916";"97.0109687";"https://maps.google.com/?cid=0x0:0xdf564a5272d2d37b"
"supermarket bangunan";"Toko Bahan Bangunan";"Toko besi  bangunan MITRA 02";"PR93+RWP, Lut Kucak, Kec. Wih Pesam, Kabupaten Bener Meriah, Aceh 24471";"Lut Kucak, Kec. Wih Pesam, Kabupaten Bener Meriah";"ACEH";"24471";"Indonesia";" 085207072729";"4.7195935";"96.8048397";"https://maps.google.com/?cid=0x0:0x1c9b0ffa0c4bc3b3"
"supermarket bangunan";"Toko Bahan Bangunan";"Toko bangunan karya baru";"RW3W+W5C, Ramung Jaya, Kec. Permata, Kabupaten Bener Meriah, Aceh";"Kabupaten Bener Meriah, Aceh";"ACEH";"";"Indonesia";" 083161290912";"4.8048162";"96.9454005";"https://maps.google.com/?cid=0x0:0xba34de8b1d5847e1"
"supermarket bangunan";"Toko Bahan Bangunan";"Toko Bangunan Pacific Jaya";"62R4+5VM, Paloh Lada, Kec. Dewantara, Kabupaten Aceh Utara, Aceh";"Kabupaten Aceh Utara, Aceh";"ACEH";"";"Indonesia";" 082186774774";"5.2404522";"97.0071786";"https://maps.google.com/?cid=0x0:0xb01dad4468be43c1"
"supermarket bangunan";"supermarket bangunan";"Aceh 24582";"Kabupaten Bener Meriah, Aceh";"Kabupaten Bener Meriah, Aceh";"ACEH";"";"Indonesia";"";"4.733267";"97.0498442";"https://maps.google.com/?cid=0x0:0x24377db9b3ac434d"
"supermarket bangunan";"Toko Bahan Bangunan";"Toko Bangunan RAHMAT ABADI SP. DAMA";"474Q+WRJ, AH25, Ulee Tanoh, Kec. Tanah Pasir, Kabupaten Aceh Utara, Aceh 24382";"AH25, Ulee Tanoh, Kec. Tanah Pasir, Kabupaten Aceh Utara";"ACEH";"24382";"Indonesia";" 0817823371";"5.1073326";"97.2895105";"https://maps.google.com/?cid=0x0:0x9665f8257bbbe8c2"
"supermarket bangunan";"Toko Bahan Bangunan";"TB Sinar Bintang";"Uteun Geulinggang, Kec. Dewantara, Kabupaten Aceh Utara, Aceh";"Kabupaten Aceh Utara, Aceh";"ACEH";"";"Indonesia";" 0816992047";"5.2409094";"97.013557";"https://maps.google.com/?cid=0x0:0x291daba9e0025103"
"supermarket bangunan";"Toko Bahan Bangunan";"TOKO BESI BINTANG BANGUNAN";"Jl. Pocut Baren No.29, Keuramat, Kec. Kuta Alam, Kota Banda Aceh, Aceh 23126";"Keuramat, Kec. Kuta Alam, Kota Banda Aceh";"ACEH";"23126";"Indonesia";" 081360031288";"5.5617508";"95.3240203";"https://maps.google.com/?cid=0x0:0xa98c67e001462b53"
"supermarket bangunan";"Toko Bahan Bangunan";"Toko Bangunan Rahmat Jaya";"37FX+QR5, Unnamed Road, Hueng, Kec. Tanah Luas, Kabupaten Aceh Utara, Aceh 24386";"Unnamed Road, Hueng, Kec. Tanah Luas, Kabupaten Aceh Utara";"ACEH";"24386";"Indonesia";" 081360095178";"5.0743849";"97.2996149";"https://maps.google.com/?cid=0x0:0xe9b05b7e15656f4f"
"supermarket bangunan";"Toko";"Toko Tijarah";"GX26+R8C, Jl. Prof. A Majid Ibrahim, Lhok Banie, Kec. Langsa Bar., Kota Langsa, Aceh 24375";"Jl. Prof. A Majid Ibrahim, Lhok Banie, Kec. Langsa Bar., Kota Langsa";"ACEH";"24375";"Indonesia";" 083869524613";"4.5020568";"97.9607747";"https://maps.google.com/?cid=0x0:0x45ec34620a131c83"
"supermarket bangunan";"Toko Bahan Bangunan";"TB.sinar Baru";"RW97+7V2, Gelampang, Kec. Permata, Kabupaten Bener Meriah, Aceh 24582";"Gelampang, Kec. Permata, Kabupaten Bener Meriah";"ACEH";"24582";"Indonesia";" 082362819827";"4.8181449";"96.9146534";"https://maps.google.com/?cid=0x0:0x57af9e6f775de25"
"supermarket bangunan";"Toko Bahan Bangunan";"Toko bangunan karya baru";"RW3W+W5C, Ramung Jaya, Kec. Permata, Kabupaten Bener Meriah, Aceh";"Kabupaten Bener Meriah, Aceh";"ACEH";"";"Indonesia";" 083161290912";"4.8048162";"96.9454005";"https://maps.google.com/?cid=0x0:0xba34de8b1d5847e1"
"supermarket bangunan";"Toko Bahan Bangunan";"sinar abadi";"RW97+8JH, Gelampang, Kec. Permata, Kabupaten Bener Meriah, Aceh 24582";"Gelampang, Kec. Permata, Kabupaten Bener Meriah";"ACEH";"24582";"Indonesia";" 085359331773";"4.8183188";"96.9141046";"https://maps.google.com/?cid=0x0:0x233541421a0fb9be"
"supermarket bangunan";"Toko Bahan Bangunan";"Permata Bangunan 2";"Bakti Jaya, Kec. Setu, Kota Tangerang Selatan, Banten 15315";"Kec. Setu, Kota Tangerang Selatan";"ACEH";"15315";"Indonesia";" 081219354019";"-6.3596357";"106.7159315";"https://maps.google.com/?cid=0x0:0xb1ae43fdb650705"
"supermarket bangunan";"Toko Bahan Bangunan";"Toko Bangunan Permata";"Jl. Kemandoran I No.73A 6, RT.6/RW.16, Grogol Utara, Kec. Kby. Lama, Kota Jakarta Selatan, Daerah Khusus Ibukota Jakarta 12210";"RT.6/RW.16, Grogol Utara, Kec. Kby. Lama, Kota Jakarta Selatan";"ACEH";"12210";"Indonesia";" 0215300856";"-6.2130737";"106.7908108";"https://maps.google.com/?cid=0x0:0xd81d4334d4982d6"
"supermarket bangunan";"Toko Bahan Bangunan";"Supermarket Bangunan ACC";"Jl. Kol. Ahmad Syam, Katulampa, Kec. Bogor Tim., Kota Bogor, Jawa Barat 16144";"Katulampa, Kec. Bogor Tim., Kota Bogor";"ACEH";"16144";"Indonesia";" 081908646565";"-6.6217797";"106.8288087";"https://maps.google.com/?cid=0x0:0x4f179a874c379761"
"supermarket bangunan";"Toko Bahan Bangunan";"Pos Bahan Bangunan";"Jl. Raya Kby. Lama No.7, RT.2/RW.13, Grogol Utara, Kec. Kby. Lama, Kota Jakarta Selatan, Daerah Khusus Ibukota Jakarta 12210";"RT.2/RW.13, Grogol Utara, Kec. Kby. Lama, Kota Jakarta Selatan";"ACEH";"12210";"Indonesia";" 02160769699";"-6.2199493";"106.7783957";"https://maps.google.com/?cid=0x0:0x68b874b0825620f9"
"supermarket bangunan";"supermarket bangunan";"Kec. Pintu Rime Gayo";"Kabupaten Bener Meriah, Aceh";"Kabupaten Bener Meriah, Aceh";"ACEH";"";"Indonesia";"";"4.849318";"96.7411267";"https://maps.google.com/?cid=0x0:0x28686d3d13d5dcf5"
"supermarket bangunan";"Toko Perlengkapan Rumah";"Sepermarket Bahan Bangunan Asia Niaga";"Jl. Jenderal Ahmad Yani No.123, Blang Sinibong, Kec. Langsa Kota, Kota Langsa, Aceh 24375";"Blang Sinibong, Kec. Langsa Kota, Kota Langsa";"ACEH";"24375";"Indonesia";" 085166898817";"4.4725893";"97.9756602";"https://maps.google.com/?cid=0x0:0xbf87768a6495f87a"
"supermarket bangunan";"Kantor Pemerintah";"Kantor Reje Kampung";"VQXH+7GH, Perdamaian, Kec. Pintu Rime Gayo, Kabupaten Bener Meriah, Aceh 24571";"Perdamaian, Kec. Pintu Rime Gayo, Kabupaten Bener Meriah";"ACEH";"24571";"Indonesia";"";"4.8981824";"96.7788461";"https://maps.google.com/?cid=0x0:0x4f44b6e3b3a35bf0"
"supermarket bangunan";"Sekolah Menengah Pertama";"SMPN 3 SATU ATAP PINTU RIME GAYO";"VQ97+JGP, Weh Porak, Kec. Pintu Rime Gayo, Kabupaten Bener Meriah, Aceh 24571";"Weh Porak, Kec. Pintu Rime Gayo, Kabupaten Bener Meriah";"ACEH";"24571";"Indonesia";"";"4.8690759";"96.7638163";"https://maps.google.com/?cid=0x0:0xe01a7c5665cf1254"
"supermarket bangunan";"Kantor Pemerintah";"Kantor Camat Pintu Rime Gayo";"Blang Rakal, Kec. Pintu Rime Gayo, Kabupaten Bener Meriah, Aceh 24571";"Kec. Pintu Rime Gayo, Kabupaten Bener Meriah";"ACEH";"24571";"Indonesia";" 085270732070";"4.9026747";"96.744674";"https://maps.google.com/?cid=0x0:0x277036ad2b7e67c5"
"supermarket bangunan";"supermarket bangunan";"Toko Bangunan Fajar indah";"isaq, Jl. Raya Bireuen - Takengon";"Kabupaten Bener Meriah, Aceh";"ACEH";"";"Indonesia";"";"4.911099";"96.7350695";"https://maps.google.com/?cid=0x0:0x2c37b6c5c1df7547"
"supermarket bangunan";"Toko Bahan Bangunan";"Toko BSK";"JVG2+HM7, Jl. Sengeda, Takengon Tim., Kec. Lut Tawar, Kabupaten Aceh Tengah, Aceh 24519";"Jl. Sengeda, Takengon Tim., Kec. Lut Tawar, Kabupaten Aceh Tengah";"ACEH";"24519";"Indonesia";" 064321339";"4.6264117";"96.851686";"https://maps.google.com/?cid=0x0:0x2092e5377d5a998b"
"supermarket bangunan";"Toko Perlengkapan Rumah";"Damai Jaya Makmur";"Jl. Abdul Wahab No.8, Spg Perumnas, Kec. Bebesen, Kabupaten Aceh Tengah, Aceh 24519";"Spg Perumnas, Kec. Bebesen, Kabupaten Aceh Tengah";"ACEH";"24519";"Indonesia";" 085373888899";"4.6368637";"96.8470097";"https://maps.google.com/?cid=0x0:0xe2a963f144c10051"
"supermarket bangunan";"supermarket bangunan";"Aceh 24582";"Kabupaten Bener Meriah, Aceh";"Kabupaten Bener Meriah, Aceh";"ACEH";"";"Indonesia";"";"4.733267";"97.0498442";"https://maps.google.com/?cid=0x0:0x24377db9b3ac434d"
"supermarket bangunan";"Toko Bahan Bangunan";"Toko besi  bangunan MITRA 02";"PR93+RWP, Lut Kucak, Kec. Wih Pesam, Kabupaten Bener Meriah, Aceh 24471";"Lut Kucak, Kec. Wih Pesam, Kabupaten Bener Meriah";"ACEH";"24471";"Indonesia";" 085207072729";"4.7195935";"96.8048397";"https://maps.google.com/?cid=0x0:0x1c9b0ffa0c4bc3b3"
"supermarket bangunan";"Toko Bahan Bangunan";"Sumber Setia";"JVF2+Q23, Bale Atu, Kec. Lut Tawar, Kabupaten Aceh Tengah, Aceh 24519";"Bale Atu, Kec. Lut Tawar, Kabupaten Aceh Tengah";"ACEH";"24519";"Indonesia";" 082364674462";"4.6243912";"96.8500313";"https://maps.google.com/?cid=0x0:0x807a7be40545f85e"
"supermarket bangunan";"Toko Bahan Bangunan";"Toko bangunan karya baru";"RW3W+W5C, Ramung Jaya, Kec. Permata, Kabupaten Bener Meriah, Aceh";"Kabupaten Bener Meriah, Aceh";"ACEH";"";"Indonesia";" 083161290912";"4.8048162";"96.9454005";"https://maps.google.com/?cid=0x0:0xba34de8b1d5847e1"
"supermarket bangunan";"Toko Bahan Bangunan";"Toko Bangunan BINA BARU";"QV2X+RW5, Pd. Gajah, Kec. Bandar, Kabupaten Bener Meriah, Aceh 24582";"Pd. Gajah, Kec. Bandar, Kabupaten Bener Meriah";"ACEH";"24582";"Indonesia";"";"4.7520106";"96.8998645";"https://maps.google.com/?cid=0x0:0x3b1827c422336e0"
"supermarket bangunan";"Toko Bahan Bangunan";"Toko Setia Kawan";"JVF2+W48, Bale Atu, Kec. Lut Tawar, Kabupaten Aceh Tengah, Aceh 24519";"Bale Atu, Kec. Lut Tawar, Kabupaten Aceh Tengah";"ACEH";"24519";"Indonesia";" 064321692";"4.6247984";"96.8503199";"https://maps.google.com/?cid=0x0:0xf78c6bd2c4b87654"
"supermarket bangunan";"Toko Bahan Bangunan";"Toko bangunan mandiri muda";"JRQM+7WP, Jl. Soekarno - Hatta, Empus Talu, Kec. Bebesen, Kabupaten Aceh Tengah, Aceh 24471";"Jl. Soekarno - Hatta, Empus Talu, Kec. Bebesen, Kabupaten Aceh Tengah";"ACEH";"24471";"Indonesia";" 085360545415";"4.6382009";"96.8348329";"https://maps.google.com/?cid=0x0:0xf6406ca9097144e4"
"supermarket bangunan";"Toko Bahan Bangunan";"Indah warna bener meriah";"QW47+52J, Jl. Syiah Utama, Simpang Utama, Kec. Bandar, Kabupaten Bener Meriah, Aceh 24582";"Jl. Syiah Utama, Simpang Utama, Kec. Bandar, Kabupaten Bener Meriah";"ACEH";"24582";"Indonesia";"";"4.7554652";"96.9125289";"https://maps.google.com/?cid=0x0:0x707bc46e1d0187d0"
"supermarket bangunan";"Toko Bahan Bangunan";"HIDUP SUBUR TAKENGON";"JRFW+WCM, Kuteni Reje, Kec. Lut Tawar, Kabupaten Aceh Tengah, Aceh 24519";"Kuteni Reje, Kec. Lut Tawar, Kabupaten Aceh Tengah";"ACEH";"24519";"Indonesia";" 064322364";"4.6248466";"96.8460552";"https://maps.google.com/?cid=0x0:0x3188d7e0a0ef8c73"
"supermarket bangunan";"Toko Bahan Bangunan";"TOKO BESI MURNI BARU";"QW34+3C8, Simpang Utama, Kec. Bandar, Kabupaten Bener Meriah, Aceh 24582";"Simpang Utama, Kec. Bandar, Kabupaten Bener Meriah";"ACEH";"24582";"Indonesia";"";"4.7526704";"96.9060781";"https://maps.google.com/?cid=0x0:0xf8da11935137ba38"
"supermarket bangunan";"Toko Bahan Bangunan";"Toko BSK 2";"JVF2+H8V, Jalan HM Hasan Gayo Tengah, Takengon Tim., Kec. Lut Tawar, Kabupaten Aceh Tengah, Aceh 24519";"Jalan HM Hasan Gayo Tengah, Takengon Tim., Kec. Lut Tawar, Kabupaten Aceh Tengah";"ACEH";"24519";"Indonesia";"";"4.6239895";"96.8507896";"https://maps.google.com/?cid=0x0:0xa99221c89d4012d2"
"supermarket bangunan";"Toko Bahan Bangunan";"TB.sinar Baru";"RW97+7V2, Gelampang, Kec. Permata, Kabupaten Bener Meriah, Aceh 24582";"Gelampang, Kec. Permata, Kabupaten Bener Meriah";"ACEH";"24582";"Indonesia";" 082362819827";"4.8181449";"96.9146534";"https://maps.google.com/?cid=0x0:0x57af9e6f775de25"
"supermarket bangunan";"Toko Bahan Bangunan";"TOKO BESI BINTANG BANGUNAN";"Jl. Pocut Baren No.29, Keuramat, Kec. Kuta Alam, Kota Banda Aceh, Aceh 23126";"Keuramat, Kec. Kuta Alam, Kota Banda Aceh";"ACEH";"23126";"Indonesia";" 081360031288";"5.5617508";"95.3240203";"https://maps.google.com/?cid=0x0:0xa98c67e001462b53"
"supermarket bangunan";"Toko Bahan Bangunan";"TB. Makmur";"Jl. Batu Tulis No.14, RT.01/RW.04, Bondongan, Kec. Bogor Sel., Kota Bogor, Jawa Barat 16131";"RT.01/RW.04, Bondongan, Kec. Bogor Sel., Kota Bogor";"ACEH";"16131";"Indonesia";" 087873418010";"-6.6174903";"106.809557";"https://maps.google.com/?cid=0x0:0x4b2fa0c6a6e8cb6c"
"supermarket bangunan";"Toko Bahan Bangunan";"Toko Besi Kembang Tanjung";"JL. Tgk.P.Polem No.157, Laksana, Kec. Kuta Alam, Kota Banda Aceh, Aceh 24415";"Laksana, Kec. Kuta Alam, Kota Banda Aceh";"ACEH";"24415";"Indonesia";" 085360007290";"5.5600596";"95.3211101";"https://maps.google.com/?cid=0x0:0x6e424079421ecca8"
"supermarket bangunan";"Toko Bahan Bangunan";"Bazar Bangunan Tambun";"Jl. Sultan Hasanudin No.86, Setiadarma, Kec. Tambun Sel., Kabupaten Bekasi, Jawa Barat 17510";"Setiadarma, Kec. Tambun Sel., Kabupaten Bekasi";"ACEH";"17510";"Indonesia";" 081380006889";"-6.2614176";"107.0577964";"https://maps.google.com/?cid=0x0:0xdac55e03cb00b2a2"
"supermarket bangunan";"Toko Bahan Bangunan";"Toko besi  bangunan MITRA 02";"PR93+RWP, Lut Kucak, Kec. Wih Pesam, Kabupaten Bener Meriah, Aceh 24471";"Lut Kucak, Kec. Wih Pesam, Kabupaten Bener Meriah";"ACEH";"24471";"Indonesia";" 085207072729";"4.7195935";"96.8048397";"https://maps.google.com/?cid=0x0:0x1c9b0ffa0c4bc3b3"
"supermarket bangunan";"supermarket bangunan";"Kec. Wih Pesam";"Kabupaten Bener Meriah, Aceh";"Kabupaten Bener Meriah, Aceh";"ACEH";"";"Indonesia";"";"4.7226414";"96.8075443";"https://maps.google.com/?cid=0x0:0x12bccf5d1e0778eb"
"supermarket bangunan";"Toko";"TOKO SAHABAT BANGUNAN";"PR92+396, Jl. Pante Raya, Lut Kucak, Kec. Wih Pesam, Kabupaten Bener Meriah, Aceh";"Kabupaten Bener Meriah, Aceh";"ACEH";"";"Indonesia";"";"4.7176678";"96.8008905";"https://maps.google.com/?cid=0x0:0x7f122f5ab8c49984"
"supermarket bangunan";"Pusat Perbelanjaan";"Toko Bangunan HIDUP SUBUR";"PQHX+273, Simpang Balek, Kec. Wih Pesam, Kabupaten Bener Meriah, Aceh 24471";"Simpang Balek, Kec. Wih Pesam, Kabupaten Bener Meriah";"ACEH";"24471";"Indonesia";" 081362385666";"4.727512";"96.7981735";"https://maps.google.com/?cid=0x0:0xa8fa65faf3da029d"
"supermarket bangunan";"Toko Swalayan";"4 Market BM";"Jalan Bireuen-Takengon, Pante Raya Barat, Wih Pesam, Simpang Balek di samping Serba 35 ribu (4 Market BM) (4 Market BM. KAB. BENER MERIAH, WIH PESAM, NANGGROE ACEH DARUSSALAM (NAD, 24591";"Pante Raya Barat, Wih Pesam, Simpang Balek di samping Serba 35 ribu (4 Market BM) (4 Market BM. KAB. BENER MERIAH, WIH PESAM";"ACEH";"24591";"Indonesia";"";"4.7261329";"96.8020214";"https://maps.google.com/?cid=0x0:0x56fb51668dbdd6a0"
"supermarket bangunan";"Toko Swalayan";"M M Sultan Market";"PQJW+62R, Bener Mulie, Kec. Wih Pesam, Kabupaten Bener Meriah, Aceh 24471";"Bener Mulie, Kec. Wih Pesam, Kabupaten Bener Meriah";"ACEH";"24471";"Indonesia";"";"4.7306029";"96.7950064";"https://maps.google.com/?cid=0x0:0xc6bf0b8c9c5cbff5"
"supermarket bangunan";"Toko Bahan Bangunan";"Toko Dunia Keramik";"PQCR+3XG, Jl. Pante Raya, Cinta Damai, Kec. Wih Pesam, Kabupaten Bener Meriah, Aceh 24471";"Jl. Pante Raya, Cinta Damai, Kec. Wih Pesam, Kabupaten Bener Meriah";"ACEH";"24471";"Indonesia";" 082361176387";"4.7201845";"96.792454";"https://maps.google.com/?cid=0x0:0x876d9fa30aa762c6"
