Category;Real Category;Business Name;Address;City;State;Postal Code;Country;Phone;Latitude;Longitude;Map Link
"mall";"mall";"Banda Aceh";"Kota Banda Aceh, Aceh";"Kota Banda Aceh, Aceh";"ACEH";"";"Indonesia";"";"5.5482904";"95.3237559";"https://maps.google.com/?cid=0x0:0x3039d80b220cb90"
"mall";"Toko Swalayan";"Suzuya Mall Banda Aceh";"Jl. Teuku Umar, Lamtemen Tim., Kec. Jaya Baru, Kota Banda Aceh, Aceh 23232";"Lamtemen Tim., Kec. Jaya Baru, Kota Banda Aceh";"ACEH";"23232";"Indonesia";" 06518011022";"5.5377324";"95.3068005";"https://maps.google.com/?cid=0x0:0xc5c56efc74442dea"
"mall";"Pusat Perbelanjaan";"Plaza Aceh";"Jl. T. Hasan Dek Jl. Teuku Iskandar No.49, Beurawe, Kec. Kuta Alam, Kota Banda Aceh, Aceh 23127";"Beurawe, Kec. Kuta Alam, Kota Banda Aceh";"ACEH";"23127";"Indonesia";" 08116899890";"5.5547881";"95.3308683";"https://maps.google.com/?cid=0x0:0x45c9eb2ec9e62a76"
"mall";"Toserba";"Matahari Department Store Plaza Aceh";"Jl. T. Hasan Dek, Beurawe, Kec. Kuta Alam, Kota Banda Aceh, Aceh 23127";"Beurawe, Kec. Kuta Alam, Kota Banda Aceh";"ACEH";"23127";"Indonesia";" 0651636661";"5.5545532";"95.3310993";"https://maps.google.com/?cid=0x0:0xd1401e47fe4c0b67"
"mall";"Pusat Perbelanjaan";"Gampong Baroe, Pasar Aceh, Gorden";"H838+W6M, Kp. Baru, Kec. Baiturrahman, Kota Banda Aceh, Aceh 23116";"Kp. Baru, Kec. Baiturrahman, Kota Banda Aceh";"ACEH";"23116";"Indonesia";"";"5.5548305";"95.3155438";"https://maps.google.com/?cid=0x0:0x2b5ef539746ad24e"
"mall";"Toko Suvenir";"Pasar Aceh Shopping Centre Gedung";"Jl. KH Ahmad Dahlan No.71, Kp. Baru, Kec. Baiturrahman, Kota Banda Aceh, Aceh 23116";"Kp. Baru, Kec. Baiturrahman, Kota Banda Aceh";"ACEH";"23116";"Indonesia";"";"5.5556474";"95.3151147";"https://maps.google.com/?cid=0x0:0x97846ae111d14ba0"
"mall";"Toko";"Saudi Store 4 Banda Aceh";"G8R6+RHG, Seutui, Kec. Baiturrahman, Kota Banda Aceh, Aceh 23116";"Seutui, Kec. Baiturrahman, Kota Banda Aceh";"ACEH";"23116";"Indonesia";" 06517317768";"5.5420555";"95.3114522";"https://maps.google.com/?cid=0x0:0x29b038a6168a91b0"
"mall";"Toko Suvenir";"Souvenir Putroe Aceh 2";"Jl. Sri Ratu Syafiatuddin, Peunayong, Kec. Kuta Alam, Kota Banda Aceh, Aceh 23127";"Peunayong, Kec. Kuta Alam, Kota Banda Aceh";"ACEH";"23127";"Indonesia";" 08126935792";"5.5571469";"95.3201523";"https://maps.google.com/?cid=0x0:0xf0767768b4cb677"
"mall";"Toko Perlengkapan Rumah";"Buccerry gallery";"Jl. Dr. Mr. Mohd Hasan No.69, Sukadamai, Kec. Lueng Bata, Kota Banda Aceh, Aceh 23127";"Sukadamai, Kec. Lueng Bata, Kota Banda Aceh";"ACEH";"23127";"Indonesia";"";"5.5468223";"95.3300469";"https://maps.google.com/?cid=0x0:0xbe63eefc06e2edd6"
"mall";"Toko Pakaian";"Indonesia Grosir";"G8W8+RF9, Jl. Teuku Umar, Kp. Baru, Kec. Baiturrahman, Kota Banda Aceh, Aceh 23116";"Jl. Teuku Umar, Kp. Baru, Kec. Baiturrahman, Kota Banda Aceh";"ACEH";"23116";"Indonesia";"";"5.5470345";"95.3162285";"https://maps.google.com/?cid=0x0:0x794fd58d345c2d20"
"mall";"Toko Swalayan";"Manggadua swalayan";"H839+Q8V, Kp. Baru, Kec. Baiturrahman, Kota Banda Aceh, Aceh 23127";"Kp. Baru, Kec. Baiturrahman, Kota Banda Aceh";"ACEH";"23127";"Indonesia";" 0811955209";"5.5544817";"95.3183031";"https://maps.google.com/?cid=0x0:0x249763ed8338990c"
"mall";"Pusat Perbelanjaan";"Novisa Galery";"Jl. Teuku Iskandar, Beurawe, Kec. Kuta Alam, Kota Banda Aceh, Aceh";"Kota Banda Aceh, Aceh";"ACEH";"";"Indonesia";"";"5.5541674";"95.3320798";"https://maps.google.com/?cid=0x0:0x3318e30d24a9c69f"
"mall";"Toko Pakaian";"NRstoree";"Jl t.m makam pahlawan kp No.12, Ateuk Pahlawan, Kec. Baiturrahman, Kota Banda Aceh, Aceh";"Kota Banda Aceh, Aceh";"ACEH";"";"Indonesia";" 082364736623";"5.5484395";"95.3241271";"https://maps.google.com/?cid=0x0:0xff9c2ce7824cc567"
"mall";"Pusat Perbelanjaan";"MELILEA BANDA ACEH IG:@ilovemelileaaceh";"Daerah Batoh Sebelah Hotel Al Fatih (Kios Merantau Cell, Jl. Elang Bar., Sukadamai, Kec. Lueng Bata, Kota Banda Aceh, Aceh 23249";"Jl. Elang Bar., Sukadamai, Kec. Lueng Bata, Kota Banda Aceh";"ACEH";"23249";"Indonesia";" 082215141312";"5.5459247";"95.3298094";"https://maps.google.com/?cid=0x0:0xc69d652b94e9bf62"
"mall";"mall";"Banda Aceh";"Kota Banda Aceh, Aceh";"Kota Banda Aceh, Aceh";"ACEH";"";"Indonesia";"";"5.5482904";"95.3237559";"https://maps.google.com/?cid=0x0:0x3039d80b220cb90"
"mall";"Toko Swalayan";"Suzuya Mall Banda Aceh";"Jl. Teuku Umar, Lamtemen Tim., Kec. Jaya Baru, Kota Banda Aceh, Aceh 23232";"Lamtemen Tim., Kec. Jaya Baru, Kota Banda Aceh";"ACEH";"23232";"Indonesia";" 06518011022";"5.5377324";"95.3068005";"https://maps.google.com/?cid=0x0:0xc5c56efc74442dea"
"mall";"Pusat Perbelanjaan";"Plaza Aceh";"Jl. T. Hasan Dek Jl. Teuku Iskandar No.49, Beurawe, Kec. Kuta Alam, Kota Banda Aceh, Aceh 23127";"Beurawe, Kec. Kuta Alam, Kota Banda Aceh";"ACEH";"23127";"Indonesia";" 08116899890";"5.5547881";"95.3308683";"https://maps.google.com/?cid=0x0:0x45c9eb2ec9e62a76"
"mall";"Toko";"Saudi Store 4 Banda Aceh";"G8R6+RHG, Seutui, Kec. Baiturrahman, Kota Banda Aceh, Aceh 23116";"Seutui, Kec. Baiturrahman, Kota Banda Aceh";"ACEH";"23116";"Indonesia";" 06517317768";"5.5420555";"95.3114522";"https://maps.google.com/?cid=0x0:0x29b038a6168a91b0"
"mall";"Toserba";"Matahari Department Store Plaza Aceh";"Jl. T. Hasan Dek, Beurawe, Kec. Kuta Alam, Kota Banda Aceh, Aceh 23127";"Beurawe, Kec. Kuta Alam, Kota Banda Aceh";"ACEH";"23127";"Indonesia";" 0651636661";"5.5545532";"95.3310993";"https://maps.google.com/?cid=0x0:0xd1401e47fe4c0b67"
"mall";"Toko Swalayan";"Manggadua swalayan";"H839+Q8V, Kp. Baru, Kec. Baiturrahman, Kota Banda Aceh, Aceh 23127";"Kp. Baru, Kec. Baiturrahman, Kota Banda Aceh";"ACEH";"23127";"Indonesia";" 0811955209";"5.5544817";"95.3183031";"https://maps.google.com/?cid=0x0:0x249763ed8338990c"
"mall";"Pusat Perbelanjaan";"Gampong Baroe, Pasar Aceh, Gorden";"H838+W6M, Kp. Baru, Kec. Baiturrahman, Kota Banda Aceh, Aceh 23116";"Kp. Baru, Kec. Baiturrahman, Kota Banda Aceh";"ACEH";"23116";"Indonesia";"";"5.5548305";"95.3155438";"https://maps.google.com/?cid=0x0:0x2b5ef539746ad24e"
"mall";"Toko Suvenir";"Pasar Aceh Shopping Centre Gedung";"Jl. KH Ahmad Dahlan No.71, Kp. Baru, Kec. Baiturrahman, Kota Banda Aceh, Aceh 23116";"Kp. Baru, Kec. Baiturrahman, Kota Banda Aceh";"ACEH";"23116";"Indonesia";"";"5.5556474";"95.3151147";"https://maps.google.com/?cid=0x0:0x97846ae111d14ba0"
"mall";"Toko Pakaian";"NRstoree";"Jl t.m makam pahlawan kp No.12, Ateuk Pahlawan, Kec. Baiturrahman, Kota Banda Aceh, Aceh";"Kota Banda Aceh, Aceh";"ACEH";"";"Indonesia";" 082364736623";"5.5484395";"95.3241271";"https://maps.google.com/?cid=0x0:0xff9c2ce7824cc567"
"mall";"Toko Suvenir";"Souvenir Putroe Aceh 2";"Jl. Sri Ratu Syafiatuddin, Peunayong, Kec. Kuta Alam, Kota Banda Aceh, Aceh 23127";"Peunayong, Kec. Kuta Alam, Kota Banda Aceh";"ACEH";"23127";"Indonesia";" 08126935792";"5.5571469";"95.3201523";"https://maps.google.com/?cid=0x0:0xf0767768b4cb677"
"mall";"Toko Pakaian";"Indonesia Grosir";"G8W8+RF9, Jl. Teuku Umar, Kp. Baru, Kec. Baiturrahman, Kota Banda Aceh, Aceh 23116";"Jl. Teuku Umar, Kp. Baru, Kec. Baiturrahman, Kota Banda Aceh";"ACEH";"23116";"Indonesia";"";"5.5470345";"95.3162285";"https://maps.google.com/?cid=0x0:0x794fd58d345c2d20"
"mall";"Toko Perlengkapan Rumah";"Buccerry gallery";"Jl. Dr. Mr. Mohd Hasan No.69, Sukadamai, Kec. Lueng Bata, Kota Banda Aceh, Aceh 23127";"Sukadamai, Kec. Lueng Bata, Kota Banda Aceh";"ACEH";"23127";"Indonesia";"";"5.5468223";"95.3300469";"https://maps.google.com/?cid=0x0:0xbe63eefc06e2edd6"
"mall";"Pusat Perbelanjaan";"Novisa Galery";"Jl. Teuku Iskandar, Beurawe, Kec. Kuta Alam, Kota Banda Aceh, Aceh";"Kota Banda Aceh, Aceh";"ACEH";"";"Indonesia";"";"5.5541674";"95.3320798";"https://maps.google.com/?cid=0x0:0x3318e30d24a9c69f"
"mall";"Pusat Perbelanjaan";"AL-AFYA PERDANA";"Teuku Cik Ditiro No.17, Peuniti, Kec. Baiturrahman, Kota Banda Aceh, Aceh 23127";"Peuniti, Kec. Baiturrahman, Kota Banda Aceh";"ACEH";"23127";"Indonesia";" 089512777774";"5.5513989";"95.322723";"https://maps.google.com/?cid=0x0:0xe20c3deaa871caa7"
"mall";"Toko Swalayan";"Suzuya Mall Banda Aceh";"Jl. Teuku Umar, Lamtemen Tim., Kec. Jaya Baru, Kota Banda Aceh, Aceh 23232";"Lamtemen Tim., Kec. Jaya Baru, Kota Banda Aceh";"ACEH";"23232";"Indonesia";" 06518011022";"5.5377324";"95.3068005";"https://maps.google.com/?cid=0x0:0xc5c56efc74442dea"
"mall";"mall";"Banda Aceh";"Kota Banda Aceh, Aceh";"Kota Banda Aceh, Aceh";"ACEH";"";"Indonesia";"";"5.5482904";"95.3237559";"https://maps.google.com/?cid=0x0:0x3039d80b220cb90"
"mall";"Pusat Perbelanjaan";"Plaza Aceh";"Jl. T. Hasan Dek Jl. Teuku Iskandar No.49, Beurawe, Kec. Kuta Alam, Kota Banda Aceh, Aceh 23127";"Beurawe, Kec. Kuta Alam, Kota Banda Aceh";"ACEH";"23127";"Indonesia";" 08116899890";"5.5547881";"95.3308683";"https://maps.google.com/?cid=0x0:0x45c9eb2ec9e62a76"
"mall";"Pusat Perbelanjaan";"Gampong Baroe, Pasar Aceh, Gorden";"H838+W6M, Kp. Baru, Kec. Baiturrahman, Kota Banda Aceh, Aceh 23116";"Kp. Baru, Kec. Baiturrahman, Kota Banda Aceh";"ACEH";"23116";"Indonesia";"";"5.5548305";"95.3155438";"https://maps.google.com/?cid=0x0:0x2b5ef539746ad24e"
"mall";"Toserba";"Matahari Department Store Plaza Aceh";"Jl. T. Hasan Dek, Beurawe, Kec. Kuta Alam, Kota Banda Aceh, Aceh 23127";"Beurawe, Kec. Kuta Alam, Kota Banda Aceh";"ACEH";"23127";"Indonesia";" 0651636661";"5.5545532";"95.3310993";"https://maps.google.com/?cid=0x0:0xd1401e47fe4c0b67"
"mall";"Toko Suvenir";"Pasar Aceh Shopping Centre Gedung";"Jl. KH Ahmad Dahlan No.71, Kp. Baru, Kec. Baiturrahman, Kota Banda Aceh, Aceh 23116";"Kp. Baru, Kec. Baiturrahman, Kota Banda Aceh";"ACEH";"23116";"Indonesia";"";"5.5556474";"95.3151147";"https://maps.google.com/?cid=0x0:0x97846ae111d14ba0"
"mall";"Toko";"Saudi Store 4 Banda Aceh";"G8R6+RHG, Seutui, Kec. Baiturrahman, Kota Banda Aceh, Aceh 23116";"Seutui, Kec. Baiturrahman, Kota Banda Aceh";"ACEH";"23116";"Indonesia";" 06517317768";"5.5420555";"95.3114522";"https://maps.google.com/?cid=0x0:0x29b038a6168a91b0"
"mall";"Toko Ponsel";"ATJEH PONSEL BANDA ACEH";"Jl. T. Panglima Polem, Laksana, Kec. Kuta Alam, Kota Banda Aceh, Aceh 24415";"Laksana, Kec. Kuta Alam, Kota Banda Aceh";"ACEH";"24415";"Indonesia";" 082178973218";"5.5570911";"95.321422";"https://maps.google.com/?cid=0x0:0xc4ad11e87245959b"
"mall";"Pusat Perbelanjaan";"Novisa Galery";"Jl. Teuku Iskandar, Beurawe, Kec. Kuta Alam, Kota Banda Aceh, Aceh";"Kota Banda Aceh, Aceh";"ACEH";"";"Indonesia";"";"5.5541674";"95.3320798";"https://maps.google.com/?cid=0x0:0x3318e30d24a9c69f"
"mall";"Toko Pakaian";"Indonesia Grosir";"G8W8+RF9, Jl. Teuku Umar, Kp. Baru, Kec. Baiturrahman, Kota Banda Aceh, Aceh 23116";"Jl. Teuku Umar, Kp. Baru, Kec. Baiturrahman, Kota Banda Aceh";"ACEH";"23116";"Indonesia";"";"5.5470345";"95.3162285";"https://maps.google.com/?cid=0x0:0x794fd58d345c2d20"
"mall";"Toko Suvenir";"Souvenir Putroe Aceh 2";"Jl. Sri Ratu Syafiatuddin, Peunayong, Kec. Kuta Alam, Kota Banda Aceh, Aceh 23127";"Peunayong, Kec. Kuta Alam, Kota Banda Aceh";"ACEH";"23127";"Indonesia";" 08126935792";"5.5571469";"95.3201523";"https://maps.google.com/?cid=0x0:0xf0767768b4cb677"
"mall";"Toko Perlengkapan Rumah";"Buccerry gallery";"Jl. Dr. Mr. Mohd Hasan No.69, Sukadamai, Kec. Lueng Bata, Kota Banda Aceh, Aceh 23127";"Sukadamai, Kec. Lueng Bata, Kota Banda Aceh";"ACEH";"23127";"Indonesia";"";"5.5468223";"95.3300469";"https://maps.google.com/?cid=0x0:0xbe63eefc06e2edd6"
"mall";"Toko Swalayan";"NIPPON mart";"Jl. Dharma, Laksana, Kec. Kuta Alam, Kota Banda Aceh, Aceh 24415";"Laksana, Kec. Kuta Alam, Kota Banda Aceh";"ACEH";"24415";"Indonesia";" 08126913242";"5.5579166";"95.3247575";"https://maps.google.com/?cid=0x0:0x90b3d24aab5dbdb8"
"mall";"Pusat Perbelanjaan";"banda park tower";"G8XG+299, Ateuk Pahlawan, Kec. Baiturrahman, Kota Banda Aceh, Aceh 23127";"Ateuk Pahlawan, Kec. Baiturrahman, Kota Banda Aceh";"ACEH";"23127";"Indonesia";"";"5.547392";"95.325866";"https://maps.google.com/?cid=0x0:0xe84131177e586d2b"
"mall";"mall";"Banda Aceh";"Kota Banda Aceh, Aceh";"Kota Banda Aceh, Aceh";"ACEH";"";"Indonesia";"";"5.5482904";"95.3237559";"https://maps.google.com/?cid=0x0:0x3039d80b220cb90"
"mall";"Toko Swalayan";"Suzuya Mall Banda Aceh";"Jl. Teuku Umar, Lamtemen Tim., Kec. Jaya Baru, Kota Banda Aceh, Aceh 23232";"Lamtemen Tim., Kec. Jaya Baru, Kota Banda Aceh";"ACEH";"23232";"Indonesia";" 06518011022";"5.5377324";"95.3068005";"https://maps.google.com/?cid=0x0:0xc5c56efc74442dea"
"mall";"Pusat Perbelanjaan";"Plaza Aceh";"Jl. T. Hasan Dek Jl. Teuku Iskandar No.49, Beurawe, Kec. Kuta Alam, Kota Banda Aceh, Aceh 23127";"Beurawe, Kec. Kuta Alam, Kota Banda Aceh";"ACEH";"23127";"Indonesia";" 08116899890";"5.5547881";"95.3308683";"https://maps.google.com/?cid=0x0:0x45c9eb2ec9e62a76"
"mall";"Toserba";"Matahari Department Store Plaza Aceh";"Jl. T. Hasan Dek, Beurawe, Kec. Kuta Alam, Kota Banda Aceh, Aceh 23127";"Beurawe, Kec. Kuta Alam, Kota Banda Aceh";"ACEH";"23127";"Indonesia";" 0651636661";"5.5545532";"95.3310993";"https://maps.google.com/?cid=0x0:0xd1401e47fe4c0b67"
"mall";"Pusat Perbelanjaan";"Gampong Baroe, Pasar Aceh, Gorden";"H838+W6M, Kp. Baru, Kec. Baiturrahman, Kota Banda Aceh, Aceh 23116";"Kp. Baru, Kec. Baiturrahman, Kota Banda Aceh";"ACEH";"23116";"Indonesia";"";"5.5548305";"95.3155438";"https://maps.google.com/?cid=0x0:0x2b5ef539746ad24e"
"mall";"Toko";"Saudi Store 4 Banda Aceh";"G8R6+RHG, Seutui, Kec. Baiturrahman, Kota Banda Aceh, Aceh 23116";"Seutui, Kec. Baiturrahman, Kota Banda Aceh";"ACEH";"23116";"Indonesia";" 06517317768";"5.5420555";"95.3114522";"https://maps.google.com/?cid=0x0:0x29b038a6168a91b0"
"mall";"Toko Pakaian";"Indonesia Grosir";"G8W8+RF9, Jl. Teuku Umar, Kp. Baru, Kec. Baiturrahman, Kota Banda Aceh, Aceh 23116";"Jl. Teuku Umar, Kp. Baru, Kec. Baiturrahman, Kota Banda Aceh";"ACEH";"23116";"Indonesia";"";"5.5470345";"95.3162285";"https://maps.google.com/?cid=0x0:0x794fd58d345c2d20"
"mall";"Toko Suvenir";"Pasar Aceh Shopping Centre Gedung";"Jl. KH Ahmad Dahlan No.71, Kp. Baru, Kec. Baiturrahman, Kota Banda Aceh, Aceh 23116";"Kp. Baru, Kec. Baiturrahman, Kota Banda Aceh";"ACEH";"23116";"Indonesia";"";"5.5556474";"95.3151147";"https://maps.google.com/?cid=0x0:0x97846ae111d14ba0"
"mall";"Toko Swalayan";"Manggadua swalayan";"H839+Q8V, Kp. Baru, Kec. Baiturrahman, Kota Banda Aceh, Aceh 23127";"Kp. Baru, Kec. Baiturrahman, Kota Banda Aceh";"ACEH";"23127";"Indonesia";" 0811955209";"5.5544817";"95.3183031";"https://maps.google.com/?cid=0x0:0x249763ed8338990c"
"mall";"Toko Perlengkapan Rumah";"Buccerry gallery";"Jl. Dr. Mr. Mohd Hasan No.69, Sukadamai, Kec. Lueng Bata, Kota Banda Aceh, Aceh 23127";"Sukadamai, Kec. Lueng Bata, Kota Banda Aceh";"ACEH";"23127";"Indonesia";"";"5.5468223";"95.3300469";"https://maps.google.com/?cid=0x0:0xbe63eefc06e2edd6"
"mall";"Toko Suvenir";"Souvenir Putroe Aceh 2";"Jl. Sri Ratu Syafiatuddin, Peunayong, Kec. Kuta Alam, Kota Banda Aceh, Aceh 23127";"Peunayong, Kec. Kuta Alam, Kota Banda Aceh";"ACEH";"23127";"Indonesia";" 08126935792";"5.5571469";"95.3201523";"https://maps.google.com/?cid=0x0:0xf0767768b4cb677"
"mall";"Pusat Perbelanjaan";"Novisa Galery";"Jl. Teuku Iskandar, Beurawe, Kec. Kuta Alam, Kota Banda Aceh, Aceh";"Kota Banda Aceh, Aceh";"ACEH";"";"Indonesia";"";"5.5541674";"95.3320798";"https://maps.google.com/?cid=0x0:0x3318e30d24a9c69f"
"mall";"Toko Pakaian";"NRstoree";"Jl t.m makam pahlawan kp No.12, Ateuk Pahlawan, Kec. Baiturrahman, Kota Banda Aceh, Aceh";"Kota Banda Aceh, Aceh";"ACEH";"";"Indonesia";" 082364736623";"5.5484395";"95.3241271";"https://maps.google.com/?cid=0x0:0xff9c2ce7824cc567"
"mall";"Pusat Perbelanjaan";"banda park tower";"G8XG+299, Ateuk Pahlawan, Kec. Baiturrahman, Kota Banda Aceh, Aceh 23127";"Ateuk Pahlawan, Kec. Baiturrahman, Kota Banda Aceh";"ACEH";"23127";"Indonesia";"";"5.547392";"95.325866";"https://maps.google.com/?cid=0x0:0xe84131177e586d2b"
"mall";"Toko Swalayan";"Suzuya Mall Banda Aceh";"Jl. Teuku Umar, Lamtemen Tim., Kec. Jaya Baru, Kota Banda Aceh, Aceh 23232";"Lamtemen Tim., Kec. Jaya Baru, Kota Banda Aceh";"ACEH";"23232";"Indonesia";" 06518011022";"5.5377324";"95.3068005";"https://maps.google.com/?cid=0x0:0xc5c56efc74442dea"
"mall";"mall";"Banda Aceh";"Kota Banda Aceh, Aceh";"Kota Banda Aceh, Aceh";"ACEH";"";"Indonesia";"";"5.5482904";"95.3237559";"https://maps.google.com/?cid=0x0:0x3039d80b220cb90"
"mall";"Pusat Perbelanjaan";"Plaza Aceh";"Jl. T. Hasan Dek Jl. Teuku Iskandar No.49, Beurawe, Kec. Kuta Alam, Kota Banda Aceh, Aceh 23127";"Beurawe, Kec. Kuta Alam, Kota Banda Aceh";"ACEH";"23127";"Indonesia";" 08116899890";"5.5547881";"95.3308683";"https://maps.google.com/?cid=0x0:0x45c9eb2ec9e62a76"
"mall";"Kantor Pemerintah";"Mal Pelayanan Publik";"Ps. Aceh, Jl. Pangeran Diponegoro Lantai 3, Kp. Baru, Kec. Baiturrahman, Kota Banda Aceh, Aceh";"Kota Banda Aceh, Aceh";"ACEH";"";"Indonesia";"";"5.554937";"95.31711";"https://maps.google.com/?cid=0x0:0xb367894ebd75b80f"
"mall";"Toserba";"Matahari Department Store Plaza Aceh";"Jl. T. Hasan Dek, Beurawe, Kec. Kuta Alam, Kota Banda Aceh, Aceh 23127";"Beurawe, Kec. Kuta Alam, Kota Banda Aceh";"ACEH";"23127";"Indonesia";" 0651636661";"5.5545532";"95.3310993";"https://maps.google.com/?cid=0x0:0xd1401e47fe4c0b67"
"mall";"Toko Suvenir";"Pasar Aceh";"Jl. Pangeran Diponegoro, Kp. Baru, Kec. Baiturrahman, Kota Banda Aceh, Aceh 23116";"Kp. Baru, Kec. Baiturrahman, Kota Banda Aceh";"ACEH";"23116";"Indonesia";"";"5.556149";"95.3153132";"https://maps.google.com/?cid=0x0:0xe3db34a85478696e"
"mall";"Pusat Perbelanjaan";"Gampong Baroe, Pasar Aceh, Gorden";"H838+W6M, Kp. Baru, Kec. Baiturrahman, Kota Banda Aceh, Aceh 23116";"Kp. Baru, Kec. Baiturrahman, Kota Banda Aceh";"ACEH";"23116";"Indonesia";"";"5.5548305";"95.3155438";"https://maps.google.com/?cid=0x0:0x2b5ef539746ad24e"
"mall";"Toko";"Saudi Store 4 Banda Aceh";"G8R6+RHG, Seutui, Kec. Baiturrahman, Kota Banda Aceh, Aceh 23116";"Seutui, Kec. Baiturrahman, Kota Banda Aceh";"ACEH";"23116";"Indonesia";" 06517317768";"5.5420555";"95.3114522";"https://maps.google.com/?cid=0x0:0x29b038a6168a91b0"
"mall";"Toko Suvenir";"Pasar Aceh Shopping Centre Gedung";"Jl. KH Ahmad Dahlan No.71, Kp. Baru, Kec. Baiturrahman, Kota Banda Aceh, Aceh 23116";"Kp. Baru, Kec. Baiturrahman, Kota Banda Aceh";"ACEH";"23116";"Indonesia";"";"5.5556474";"95.3151147";"https://maps.google.com/?cid=0x0:0x97846ae111d14ba0"
"mall";"Toko Swalayan";"Manggadua swalayan";"H839+Q8V, Kp. Baru, Kec. Baiturrahman, Kota Banda Aceh, Aceh 23127";"Kp. Baru, Kec. Baiturrahman, Kota Banda Aceh";"ACEH";"23127";"Indonesia";" 0811955209";"5.5544817";"95.3183031";"https://maps.google.com/?cid=0x0:0x249763ed8338990c"
"mall";"Toko Pakaian";"Indonesia Grosir";"G8W8+RF9, Jl. Teuku Umar, Kp. Baru, Kec. Baiturrahman, Kota Banda Aceh, Aceh 23116";"Jl. Teuku Umar, Kp. Baru, Kec. Baiturrahman, Kota Banda Aceh";"ACEH";"23116";"Indonesia";"";"5.5470345";"95.3162285";"https://maps.google.com/?cid=0x0:0x794fd58d345c2d20"
"mall";"Toko Perlengkapan Rumah";"Buccerry gallery";"Jl. Dr. Mr. Mohd Hasan No.69, Sukadamai, Kec. Lueng Bata, Kota Banda Aceh, Aceh 23127";"Sukadamai, Kec. Lueng Bata, Kota Banda Aceh";"ACEH";"23127";"Indonesia";"";"5.5468223";"95.3300469";"https://maps.google.com/?cid=0x0:0xbe63eefc06e2edd6"
"mall";"Pusat Perbelanjaan";"Novisa Galery";"Jl. Teuku Iskandar, Beurawe, Kec. Kuta Alam, Kota Banda Aceh, Aceh";"Kota Banda Aceh, Aceh";"ACEH";"";"Indonesia";"";"5.5541674";"95.3320798";"https://maps.google.com/?cid=0x0:0x3318e30d24a9c69f"
"mall";"Toko Suvenir";"Souvenir Putroe Aceh 2";"Jl. Sri Ratu Syafiatuddin, Peunayong, Kec. Kuta Alam, Kota Banda Aceh, Aceh 23127";"Peunayong, Kec. Kuta Alam, Kota Banda Aceh";"ACEH";"23127";"Indonesia";" 08126935792";"5.5571469";"95.3201523";"https://maps.google.com/?cid=0x0:0xf0767768b4cb677"
"mall";"Toko Sepatu";"BOB Store";"Jl. Blang Juroeng, Kel.Puja Mulia Kec. Bandar. Kab. Bener Meriah Provinsi. Aceh Puja Mulia, Pasar, Pd. Baru, Kec. Bandar, Kabupaten Bener Meriah, Aceh 24582";"Kel.Puja Mulia Kec. Bandar. Kab. Bener Meriah Provinsi. Aceh Puja Mulia, Pasar, Pd. Baru, Kec. Bandar, Kabupaten Bener Meriah";"ACEH";"24582";"Indonesia";" 085668943429";"4.7545626";"96.913156";"https://maps.google.com/?cid=0x0:0x7f9b204c3a1437a3"
"mall";"Minimarket";"Mogana Market";"Jl. Ps. Inpres, Pd. Baru, Kec. Bandar, Kabupaten Bener Meriah, Aceh 24582";"Pd. Baru, Kec. Bandar, Kabupaten Bener Meriah";"ACEH";"24582";"Indonesia";" 085277863644";"4.7547098";"96.9147172";"https://maps.google.com/?cid=0x0:0x76a5a1544e81e800"
"mall";"mall";"Kec. Bener Kelipah";"Kabupaten Bener Meriah, Aceh";"Kabupaten Bener Meriah, Aceh";"ACEH";"";"Indonesia";"";"4.7701481";"96.923098";"https://maps.google.com/?cid=0x0:0x3a7e0c8dc476f1e"
"mall";"Kantor Perusahaan";"BANDAR - PONDOK BARU";"QW46+3WR, Janarata, Kec. Bandar, Kabupaten Bener Meriah, Aceh 24582";"Janarata, Kec. Bandar, Kabupaten Bener Meriah";"ACEH";"24582";"Indonesia";"";"4.7552496";"96.9122779";"https://maps.google.com/?cid=0x0:0xb155b569084f9c83"
"mall";"Komplek perumahan";"Gudang mulyatani";"QWG2+G8J, Jl. KKA, Bandar Jaya, Kec. Bener Kelipah, Kabupaten Bener Meriah, Aceh 24582";"Jl. KKA, Bandar Jaya, Kec. Bener Kelipah, Kabupaten Bener Meriah";"ACEH";"24582";"Indonesia";" 085260342200";"4.7763486";"96.9007717";"https://maps.google.com/?cid=0x0:0x2753874a2b0de972"
"mall";"Toko bahan makanan";"Lamsir Jaya";"QW36+XCF, Jl. Syiah Utama, Pd. Baru, Kec. Bandar, Kabupaten Bener Meriah, Aceh 24582";"Jl. Syiah Utama, Pd. Baru, Kec. Bandar, Kabupaten Bener Meriah";"ACEH";"24582";"Indonesia";" 081260454986";"4.7549387";"96.9110455";"https://maps.google.com/?cid=0x0:0xe440677eb9137640"
"mall";"Pusat Perbelanjaan";"32 Store";"QW23+VMW, Jl. Syiah Utama, Simpang Utama, Kec. Bandar, Kabupaten Bener Meriah, Aceh 24582";"Jl. Syiah Utama, Simpang Utama, Kec. Bandar, Kabupaten Bener Meriah";"ACEH";"24582";"Indonesia";" 082276399161";"4.7522253";"96.9042122";"https://maps.google.com/?cid=0x0:0x49a3815d597af5b3"
"mall";"Toko Ponsel";"NAGOYA PONSEL";"QW47+587, Janarata, Kec. Bandar, Kabupaten Bener Meriah, Aceh 24582";"Janarata, Kec. Bandar, Kabupaten Bener Meriah";"ACEH";"24582";"Indonesia";" 081360041800";"4.7554033";"96.9132944";"https://maps.google.com/?cid=0x0:0x140d8666cd0ccd6"
"mall";"Pusat Perbelanjaan";"MareGalery";"QW39+326, Pd. Baru, Kec. Bandar, Kabupaten Bener Meriah, Aceh 24582";"Pd. Baru, Kec. Bandar, Kabupaten Bener Meriah";"ACEH";"24582";"Indonesia";" 082158519570";"4.7526743";"96.9175287";"https://maps.google.com/?cid=0x0:0xa7c57844130bc5e4"
"mall";"Pusat Perbelanjaan";"ISTANA RATU";"QW37+WFJ, Jl. Listrik, Pd. Baru, Kec. Bandar, Kabupaten Bener Meriah, Aceh 24582";"Jl. Listrik, Pd. Baru, Kec. Bandar, Kabupaten Bener Meriah";"ACEH";"24582";"Indonesia";" 085262298412";"4.7548376";"96.9136496";"https://maps.google.com/?cid=0x0:0x1602c67babb78b16"
"mall";"Pusat Perbelanjaan";"STROBERRY";"jln. perdagangan no. 242 kel. mutiara, Pd. Baru, Kec. Bandar, Kabupaten Bener Meriah, Aceh 24582";"Pd. Baru, Kec. Bandar, Kabupaten Bener Meriah";"ACEH";"24582";"Indonesia";" 081362850801";"4.7550597";"96.9134025";"https://maps.google.com/?cid=0x0:0xd5597cb9f90a33ff"
"mall";"Pusat Perbelanjaan";"Rifqi Jaya Cabang Beureunuen";"QW47+6FX, Jl. Syiah Utama, Puja Mulia, Kec. Bandar, Kabupaten Bener Meriah, Aceh 24582";"Jl. Syiah Utama, Puja Mulia, Kec. Bandar, Kabupaten Bener Meriah";"ACEH";"24582";"Indonesia";" 082272624475";"4.7556054";"96.9137307";"https://maps.google.com/?cid=0x0:0xc54e141dd6bbe3d"
"mall";"Toko";"Sofyan House (Delis Shop)";"QWGF+FGG, Unnamed Road, Bener Kelipah Utara, Kec. Bener Kelipah, Kabupaten Bener Meriah, Aceh 24582";"Unnamed Road, Bener Kelipah Utara, Kec. Bener Kelipah, Kabupaten Bener Meriah";"ACEH";"24582";"Indonesia";" 085220984491";"4.7761965";"96.923843";"https://maps.google.com/?cid=0x0:0x157bcf2f9f32b9cd"
"mall";"Pusat Perbelanjaan";"HARFAH STORE";"QV2W+CWQ, Pd. Gajah, Kec. Bandar, Kabupaten Bener Meriah, Aceh 24582";"Pd. Gajah, Kec. Bandar, Kabupaten Bener Meriah";"ACEH";"24582";"Indonesia";" 082312517731";"4.7510892";"96.8973577";"https://maps.google.com/?cid=0x0:0x1096e03c4109ee0f"
"mall";"Pusat Perbelanjaan";"Plaza Aceh";"Jl. T. Hasan Dek Jl. Teuku Iskandar No.49, Beurawe, Kec. Kuta Alam, Kota Banda Aceh, Aceh 23127";"Beurawe, Kec. Kuta Alam, Kota Banda Aceh";"ACEH";"23127";"Indonesia";" 08116899890";"5.5547881";"95.3308683";"https://maps.google.com/?cid=0x0:0x45c9eb2ec9e62a76"
"mall";"mall";"Aceh";"";"Aceh";"ACEH";"";"Indonesia";"";"4.695135";"96.7493993";"https://maps.google.com/?cid=0x0:0x1039d80b220ca60"
"mall";"mall";"Bukit Aceh";"21700 Kuala Berang, Trengganu, Malaysia";"Kuala Berang";"ACEH";"21700";"Indonesia";"";"5.1222222";"102.9636111";"https://maps.google.com/?cid=0x0:0x8932954ee11bbab0"
"mall";"Toko Swalayan";"SWALAYAN BUKIT BARO";"Jl. Montasik, Teubang Phui Mesjid, Kec. Montasik, Kabupaten Aceh Besar, Aceh 23363";"Teubang Phui Mesjid, Kec. Montasik, Kabupaten Aceh Besar";"ACEH";"23363";"Indonesia";" 081269006060";"5.4612028";"95.4207548";"https://maps.google.com/?cid=0x0:0xa3fa38253527a0cb"
"mall";"Pusat Perbelanjaan";"Botani Square";"Jl. Raya Pajajaran No.40, Tugu Kujang, Kecamatan Bogor Tengah, Kota Bogor, Jawa Barat 16127";"Tugu Kujang, Kecamatan Bogor Tengah, Kota Bogor";"ACEH";"16127";"Indonesia";" 02518386658";"-6.6014221";"106.8071254";"https://maps.google.com/?cid=0x0:0x9edb391e7c74be19"
"mall";"Pusat Perbelanjaan";"Grand Mall Cimanggis";"Jl. Raya Bogor No.30, Tugu, Kec. Cimanggis, Kota Depok, Jawa Barat 16451";"Tugu, Kec. Cimanggis, Kota Depok";"ACEH";"16451";"Indonesia";" 085696195691";"-6.364831";"106.859123";"https://maps.google.com/?cid=0x0:0x49fb1a5e0303efea"
"mall";"Toko bahan makanan";"Super Indo Grand Cimanggis Mall";"Jl. Raya Jakarta-Bogor No.27, Tugu, Kec. Cimanggis, Kota Depok, Jawa Barat 16451";"Tugu, Kec. Cimanggis, Kota Depok";"ACEH";"16451";"Indonesia";" 081373403678";"-6.3650007";"106.8586278";"https://maps.google.com/?cid=0x0:0x3e1c6400f4f57fa3"
"mall";"mall";"Kec. Gajah Putih";"Kabupaten Bener Meriah, Aceh";"Kabupaten Bener Meriah, Aceh";"ACEH";"";"Indonesia";"";"4.8103413";"96.7371594";"https://maps.google.com/?cid=0x0:0xc34ec80407ef00cb"
"mall";"";"BBI. Timang Gajah";"RP2M+XM7, Timang Gajah, Kec. Gajah Putih, Kabupaten Bener Meriah, Aceh 24571";"Timang Gajah, Kec. Gajah Putih, Kabupaten Bener Meriah";"ACEH";"24571";"Indonesia";"";"4.8024174";"96.7341871";"https://maps.google.com/?cid=0x0:0x56e95316b5e74d87"
"mall";"Toko";"Rose Grafika";"Jl. Raya Bireuen - Takengon, Ronga, ronga, Kabupaten Bener Meriah, Aceh 24571";"Ronga, ronga, Kabupaten Bener Meriah";"ACEH";"24571";"Indonesia";" 085207072795";"4.8164104";"96.7376353";"https://maps.google.com/?cid=0x0:0x31400231eaf95d9f"
"mall";"Toko Ponsel";"Mekar Cell";"QQ67+78R, Mekar Ayu, Kec. Timang Gajah, Kabupaten Bener Meriah, Aceh 24571";"Mekar Ayu, Kec. Timang Gajah, Kabupaten Bener Meriah";"ACEH";"24571";"Indonesia";"";"4.7607325";"96.7632646";"https://maps.google.com/?cid=0x0:0x76393e956aab4a02"
"mall";"Toko";"Rizal";"Jl. Raya Bireuen - Takengon No.58, Negeri Antara, Kec. Pintu Rime Gayo, Kabupaten Bener Meriah, Aceh";"Kabupaten Bener Meriah, Aceh";"ACEH";"";"Indonesia";"";"4.8466038";"96.7401666";"https://maps.google.com/?cid=0x0:0xc929970e4a23120d"
"mall";"Pusat Perbelanjaan";"UD TANI SEJAHTERA";"RP9Q+872 ronga ronga, Jl. Raya Bireuen - Takengon, Reronga, Kec. Gajah Putih, Kabupaten Bener Meriah, Aceh 24571";"Jl. Raya Bireuen - Takengon, Reronga, Kec. Gajah Putih, Kabupaten Bener Meriah";"ACEH";"24571";"Indonesia";" 085277695212";"4.8182708";"96.7381426";"https://maps.google.com/?cid=0x0:0x483b5bf6cdec3a96"
"mall";"Pusat Perbelanjaan";"UD.KEN ECHA";"QQ67+HG5, Mekar Ayu, Kec. Timang Gajah, Kabupaten Bener Meriah, Aceh 24571";"Mekar Ayu, Kec. Timang Gajah, Kabupaten Bener Meriah";"ACEH";"24571";"Indonesia";"";"4.7613981";"96.763872";"https://maps.google.com/?cid=0x0:0xe9223539afff1c91"
"mall";"Pusat Perbelanjaan";"Ud.Nurisma";"QPCW+M9W, Simpang Layang, Kec. Timang Gajah, Kabupaten Bener Meriah, Aceh 24571";"Simpang Layang, Kec. Timang Gajah, Kabupaten Bener Meriah";"ACEH";"24571";"Indonesia";" 082139907245";"4.771737";"96.7459588";"https://maps.google.com/?cid=0x0:0x89d9cfa4dc44543b"
"mall";"Toko bahan makanan";"UD.AFDHAL";"Jl. Raya Bireuen - Takengon, Singah Mulo, Kec. Pintu Rime Gayo, Kabupaten Bener Meriah, Aceh 24571";"Singah Mulo, Kec. Pintu Rime Gayo, Kabupaten Bener Meriah";"ACEH";"24571";"Indonesia";" 081269588588";"4.8495698";"96.7407235";"https://maps.google.com/?cid=0x0:0x5788c58079ef0db8"
"mall";"Minimarket";"kedai kelontong kk yus";"RP8P+WX2, Reronga, Kec. Gajah Putih, Kabupaten Bener Meriah, Aceh 24571";"Reronga, Kec. Gajah Putih, Kabupaten Bener Meriah";"ACEH";"24571";"Indonesia";"";"4.8172133";"96.7373478";"https://maps.google.com/?cid=0x0:0x7a24b112fbe98e51"
"mall";"Toko Fotokopi";"UD. ASNA JAYA AGEN BSILink dan POTOCOPY";"RP8Q+C9H, Jln. Bireuen-Takengon Ronga-Ronga, Bener Mulie, Kec. Gajah Putih";"Kabupaten Bener Meriah, Aceh";"ACEH";"";"Indonesia";"";"4.8160662";"96.7384797";"https://maps.google.com/?cid=0x0:0x22a0055432da9360"
"mall";"mall";"MIRZA AHD";"RP2M+RC3, Jl. Raya Bireuen - Takengon, Timang Gajah, Kec. Gajah Putih, Kabupaten Bener Meriah, Aceh 24571";"Jl. Raya Bireuen - Takengon, Timang Gajah, Kec. Gajah Putih, Kabupaten Bener Meriah";"ACEH";"24571";"Indonesia";"";"4.8020168";"96.7335391";"https://maps.google.com/?cid=0x0:0x23b31eb1c55c7910"
"mall";"Pusat Perbelanjaan";"Summarecon Mall Kelapa Gading";"Jl. Boulevard Raya, Klp. Gading Tim., Kec. Klp. Gading, Jkt Utara, Daerah Khusus Ibukota Jakarta 14240";"Klp. Gading Tim., Kec. Klp. Gading, Jkt Utara";"ACEH";"14240";"Indonesia";" 0214531101";"-6.1572666";"106.9084263";"https://maps.google.com/?cid=0x0:0x1c1a278e20ff1c47"
"mall";"Pusat Perbelanjaan";"Mall Of Indonesia";"Jl. Boulevard Bar. Raya No.12, RT.18/RW.19, Klp. Gading Bar., Kec. Klp. Gading, Jkt Utara, Daerah Khusus Ibukota Jakarta 14240";"RT.18/RW.19, Klp. Gading Bar., Kec. Klp. Gading, Jkt Utara";"ACEH";"14240";"Indonesia";" 02145867888";"-6.1514549";"106.8918949";"https://maps.google.com/?cid=0x0:0x3431c7aaadd1f1b6"
"mall";"mall";"Kec. Mesidah";"Kabupaten Bener Meriah, Aceh";"Kabupaten Bener Meriah, Aceh";"ACEH";"";"Indonesia";"";"4.7627916";"97.0109687";"https://maps.google.com/?cid=0x0:0xdf564a5272d2d37b"
"mall";"Pusat Perbelanjaan";"MareGalery";"QW39+326, Pd. Baru, Kec. Bandar, Kabupaten Bener Meriah, Aceh 24582";"Pd. Baru, Kec. Bandar, Kabupaten Bener Meriah";"ACEH";"24582";"Indonesia";" 082158519570";"4.7526743";"96.9175287";"https://maps.google.com/?cid=0x0:0xa7c57844130bc5e4"
"mall";"Pusat Perbelanjaan";"SAFIQHA CONTER";"RW97+RGR buntul kota, Gelampang, Kec. Permata, Kabupaten Bener Meriah, Aceh 24582";"Gelampang, Kec. Permata, Kabupaten Bener Meriah";"ACEH";"24582";"Indonesia";" 081268933171";"4.8196129";"96.9137721";"https://maps.google.com/?cid=0x0:0x2dab8488bf8615a"
"mall";"Padang";"Warung ikan kak rizky";"Blang Pulo, Kec. Bandar, Kabupaten Bener Meriah, Aceh 24582";"Kec. Bandar, Kabupaten Bener Meriah";"ACEH";"24582";"Indonesia";" 082281827510";"4.7403884";"96.9785258";"https://maps.google.com/?cid=0x0:0x174ff6ed2d26852e"
"mall";"Taman";"Irma'S Garden";"PRGG+7J8, Wonosobo, Kec. Wih Pesam, Kabupaten Bener Meriah, Aceh 24471";"Wonosobo, Kec. Wih Pesam, Kabupaten Bener Meriah";"ACEH";"24471";"Indonesia";" 081294288391";"4.7256562";"96.8265807";"https://maps.google.com/?cid=0x0:0x8c1d29de0f5490c8"
"mall";"Toko";"Sofyan House (Delis Shop)";"QWGF+FGG, Unnamed Road, Bener Kelipah Utara, Kec. Bener Kelipah, Kabupaten Bener Meriah, Aceh 24582";"Unnamed Road, Bener Kelipah Utara, Kec. Bener Kelipah, Kabupaten Bener Meriah";"ACEH";"24582";"Indonesia";" 085220984491";"4.7761965";"96.923843";"https://maps.google.com/?cid=0x0:0x157bcf2f9f32b9cd"
"mall";"mall";"UD syahnaya syauqi";"P2VV+WHX, Wer Tingkem, Kec. Mesidah, Kabupaten Bener Meriah, Aceh 24582";"Wer Tingkem, Kec. Mesidah, Kabupaten Bener Meriah";"ACEH";"24582";"Indonesia";"";"4.7448552";"97.043981";"https://maps.google.com/?cid=0x0:0xd38023ff7efaab46"
"mall";"mall";"UD Rizkull";"Q272+5CF, Pantan Kuli, Kec. Mesidah, Kabupaten Bener Meriah, Aceh 24582";"Pantan Kuli, Kec. Mesidah, Kabupaten Bener Meriah";"ACEH";"24582";"Indonesia";"";"4.76298";"97.0010474";"https://maps.google.com/?cid=0x0:0xff99930de5195cb5"
"mall";"Pusat Perbelanjaan";"UD.DAMi";"RWC8+RXH, Gelampang, Kec. Permata, Kabupaten Bener Meriah, Aceh 24582";"Gelampang, Kec. Permata, Kabupaten Bener Meriah";"ACEH";"24582";"Indonesia";"";"4.8220584";"96.9174918";"https://maps.google.com/?cid=0x0:0x20f0832c4a8f4b37"
"mall";"Toko Aksesori Ponsel";"Agen pulsa";"P2VV+WHX, Wer Tingkem, Kec. Mesidah, Kabupaten Bener Meriah, Aceh 24582";"Wer Tingkem, Kec. Mesidah, Kabupaten Bener Meriah";"ACEH";"24582";"Indonesia";" 085123173342";"4.7449546";"97.0442725";"https://maps.google.com/?cid=0x0:0xf61211a26a25e37b"
"mall";"Pusat Perbelanjaan";"HARFAH STORE";"QV2W+CWQ, Pd. Gajah, Kec. Bandar, Kabupaten Bener Meriah, Aceh 24582";"Pd. Gajah, Kec. Bandar, Kabupaten Bener Meriah";"ACEH";"24582";"Indonesia";" 082312517731";"4.7510892";"96.8973577";"https://maps.google.com/?cid=0x0:0x1096e03c4109ee0f"
"mall";"Pusat Perbelanjaan";"32 Store";"QW23+VMW, Jl. Syiah Utama, Simpang Utama, Kec. Bandar, Kabupaten Bener Meriah, Aceh 24582";"Jl. Syiah Utama, Simpang Utama, Kec. Bandar, Kabupaten Bener Meriah";"ACEH";"24582";"Indonesia";" 082276399161";"4.7522253";"96.9042122";"https://maps.google.com/?cid=0x0:0x49a3815d597af5b3"
"mall";"Toko";"Toko Permata";"Janarata, Kec. Bandar, Kabupaten Bener Meriah, Aceh 24582";"Kec. Bandar, Kabupaten Bener Meriah";"ACEH";"24582";"Indonesia";" 085260300078";"4.755099";"96.9139366";"https://maps.google.com/?cid=0x0:0x3db2cd15aa2ce195"
"mall";"Toko Swalayan";"Permata Bunda Mart Punge";"Jl. Sultan Iskandar Muda No.36, Punge Ujong, Kec. Meuraxa, Kota Banda Aceh, Aceh 23116";"Punge Ujong, Kec. Meuraxa, Kota Banda Aceh";"ACEH";"23116";"Indonesia";" 085260115832";"5.5507585";"95.3056557";"https://maps.google.com/?cid=0x0:0xa15b3bf04a5c5ba1"
"mall";"mall";"Aceh 24582";"Kabupaten Bener Meriah, Aceh";"Kabupaten Bener Meriah, Aceh";"ACEH";"";"Indonesia";"";"4.733267";"97.0498442";"https://maps.google.com/?cid=0x0:0x24377db9b3ac434d"
"mall";"Toko Swalayan";"Suzuya Mall Banda Aceh";"Jl. Teuku Umar, Lamtemen Tim., Kec. Jaya Baru, Kota Banda Aceh, Aceh 23232";"Lamtemen Tim., Kec. Jaya Baru, Kota Banda Aceh";"ACEH";"23232";"Indonesia";" 06518011022";"5.5377324";"95.3068005";"https://maps.google.com/?cid=0x0:0xc5c56efc74442dea"
"mall";"Pusat Perbelanjaan";"EDIKA Shop";"Jl. KKA, Buntul Peteri, Kec. Permata, Kabupaten Bener Meriah, Aceh 24582";"Buntul Peteri, Kec. Permata, Kabupaten Bener Meriah";"ACEH";"24582";"Indonesia";" 06437011010";"4.8300333";"96.9175254";"https://maps.google.com/?cid=0x0:0x7cc03d0956dc1cc2"
"mall";"Toko";"Eka Tani";"RW4W+93M, jalan ramung, Buntul Peteri, Kec. Permata, Kabupaten Bener Meriah, Aceh 24582";"jalan ramung, Buntul Peteri, Kec. Permata, Kabupaten Bener Meriah";"ACEH";"24582";"Indonesia";" 085358886500";"4.805967";"96.945168";"https://maps.google.com/?cid=0x0:0x6a10eb55dcd1d6fb"
"mall";"Pusat Perbelanjaan";"SAFIQHA CONTER";"RW97+RGR buntul kota, Gelampang, Kec. Permata, Kabupaten Bener Meriah, Aceh 24582";"Gelampang, Kec. Permata, Kabupaten Bener Meriah";"ACEH";"24582";"Indonesia";" 081268933171";"4.8196129";"96.9137721";"https://maps.google.com/?cid=0x0:0x2dab8488bf8615a"
"mall";"Kantor Perusahaan";"Permata Indonesia";"G8RJ+C7Q, Batoh, Kec. Lueng Bata, Kota Banda Aceh, Aceh";"Kota Banda Aceh, Aceh";"ACEH";"";"Indonesia";" 0651731578";"5.541093";"95.3307498";"https://maps.google.com/?cid=0x0:0xb7736beae31bbc6d"
"mall";"Pusat Perbelanjaan";"Toko Kelongtong Yusrizal";"RW97+6HP, Jl. KKA, Gelampang, Kec. Permata, Kabupaten Bener Meriah, Aceh 24582";"Jl. KKA, Gelampang, Kec. Permata, Kabupaten Bener Meriah";"ACEH";"24582";"Indonesia";" 082199032460";"4.8180978";"96.9139533";"https://maps.google.com/?cid=0x0:0xd1365bd94589d5b6"
"mall";"Pusat Perbelanjaan";"UD.DAMi";"RWC8+RXH, Gelampang, Kec. Permata, Kabupaten Bener Meriah, Aceh 24582";"Gelampang, Kec. Permata, Kabupaten Bener Meriah";"ACEH";"24582";"Indonesia";"";"4.8220584";"96.9174918";"https://maps.google.com/?cid=0x0:0x20f0832c4a8f4b37"
"mall";"mall";"Kec. Pintu Rime Gayo";"Kabupaten Bener Meriah, Aceh";"Kabupaten Bener Meriah, Aceh";"ACEH";"";"Indonesia";"";"4.849318";"96.7411267";"https://maps.google.com/?cid=0x0:0x28686d3d13d5dcf5"
"mall";"Toko";"Rizal";"Jl. Raya Bireuen - Takengon No.58, Negeri Antara, Kec. Pintu Rime Gayo, Kabupaten Bener Meriah, Aceh";"Kabupaten Bener Meriah, Aceh";"ACEH";"";"Indonesia";"";"4.8466038";"96.7401666";"https://maps.google.com/?cid=0x0:0xc929970e4a23120d"
"mall";"Kantor Pemerintah";"Kantor Camat Pintu Rime Gayo";"Blang Rakal, Kec. Pintu Rime Gayo, Kabupaten Bener Meriah, Aceh 24571";"Kec. Pintu Rime Gayo, Kabupaten Bener Meriah";"ACEH";"24571";"Indonesia";" 085270732070";"4.9026747";"96.744674";"https://maps.google.com/?cid=0x0:0x277036ad2b7e67c5"
"mall";"";"BBI. Timang Gajah";"RP2M+XM7, Timang Gajah, Kec. Gajah Putih, Kabupaten Bener Meriah, Aceh 24571";"Timang Gajah, Kec. Gajah Putih, Kabupaten Bener Meriah";"ACEH";"24571";"Indonesia";"";"4.8024174";"96.7341871";"https://maps.google.com/?cid=0x0:0x56e95316b5e74d87"
"mall";"Pusat Perbelanjaan";"UD Istana Tani";"WP3Q+VC7, Jl. Raya Bireuen - Takengon, Blang Rakal, Kec. Pintu Rime Gayo, Kabupaten Bener Meriah, Aceh 24571";"Jl. Raya Bireuen - Takengon, Blang Rakal, Kec. Pintu Rime Gayo, Kabupaten Bener Meriah";"ACEH";"24571";"Indonesia";"";"4.9046615";"96.7385495";"https://maps.google.com/?cid=0x0:0x19768c99401f77eb"
"mall";"Taman Kanak-kanak";"SMAN 1 Pintu Rime Gayo";"RPRR+V64, Blang Ara, Kec. Pintu Rime Gayo, Kabupaten Bener Meriah, Aceh 24571";"Blang Ara, Kec. Pintu Rime Gayo, Kabupaten Bener Meriah";"ACEH";"24571";"Indonesia";"";"4.8421419";"96.7405783";"https://maps.google.com/?cid=0x0:0xe138a912f6f0760a"
"mall";"Toko bahan makanan";"UD.AFDHAL";"Jl. Raya Bireuen - Takengon, Singah Mulo, Kec. Pintu Rime Gayo, Kabupaten Bener Meriah, Aceh 24571";"Singah Mulo, Kec. Pintu Rime Gayo, Kabupaten Bener Meriah";"ACEH";"24571";"Indonesia";" 081269588588";"4.8495698";"96.7407235";"https://maps.google.com/?cid=0x0:0x5788c58079ef0db8"
"mall";"mall";"Rime Raya";"Kec. Pintu Rime Gayo, Kabupaten Bener Meriah, Aceh";"Kabupaten Bener Meriah, Aceh";"ACEH";"";"Indonesia";"";"4.8317115";"96.7253164";"https://maps.google.com/?cid=0x0:0xd7c946330be6fdc2"
"mall";"Toko";"Rose Grafika";"Jl. Raya Bireuen - Takengon, Ronga, ronga, Kabupaten Bener Meriah, Aceh 24571";"Ronga, ronga, Kabupaten Bener Meriah";"ACEH";"24571";"Indonesia";" 085207072795";"4.8164104";"96.7376353";"https://maps.google.com/?cid=0x0:0x31400231eaf95d9f"
"mall";"mall";"Aceh 24582";"Kabupaten Bener Meriah, Aceh";"Kabupaten Bener Meriah, Aceh";"ACEH";"";"Indonesia";"";"4.733267";"97.0498442";"https://maps.google.com/?cid=0x0:0x24377db9b3ac434d"
"mall";"Toko Swalayan";"Suzuya Mall Banda Aceh";"Jl. Teuku Umar, Lamtemen Tim., Kec. Jaya Baru, Kota Banda Aceh, Aceh 23232";"Lamtemen Tim., Kec. Jaya Baru, Kota Banda Aceh";"ACEH";"23232";"Indonesia";" 06518011022";"5.5377324";"95.3068005";"https://maps.google.com/?cid=0x0:0xc5c56efc74442dea"
"mall";"Toko bahan makanan";"Lamsir Jaya";"QW36+XCF, Jl. Syiah Utama, Pd. Baru, Kec. Bandar, Kabupaten Bener Meriah, Aceh 24582";"Jl. Syiah Utama, Pd. Baru, Kec. Bandar, Kabupaten Bener Meriah";"ACEH";"24582";"Indonesia";" 081260454986";"4.7549387";"96.9110455";"https://maps.google.com/?cid=0x0:0xe440677eb9137640"
"mall";"Pusat Perbelanjaan";"Plaza Aceh";"Jl. T. Hasan Dek Jl. Teuku Iskandar No.49, Beurawe, Kec. Kuta Alam, Kota Banda Aceh, Aceh 23127";"Beurawe, Kec. Kuta Alam, Kota Banda Aceh";"ACEH";"23127";"Indonesia";" 08116899890";"5.5547881";"95.3308683";"https://maps.google.com/?cid=0x0:0x45c9eb2ec9e62a76"
"mall";"Pusat Perbelanjaan";"32 Store";"QW23+VMW, Jl. Syiah Utama, Simpang Utama, Kec. Bandar, Kabupaten Bener Meriah, Aceh 24582";"Jl. Syiah Utama, Simpang Utama, Kec. Bandar, Kabupaten Bener Meriah";"ACEH";"24582";"Indonesia";" 082276399161";"4.7522253";"96.9042122";"https://maps.google.com/?cid=0x0:0x49a3815d597af5b3"
"mall";"Toko Sepatu";"BOB Store";"Jl. Blang Juroeng, Kel.Puja Mulia Kec. Bandar. Kab. Bener Meriah Provinsi. Aceh Puja Mulia, Pasar, Pd. Baru, Kec. Bandar, Kabupaten Bener Meriah, Aceh 24582";"Kel.Puja Mulia Kec. Bandar. Kab. Bener Meriah Provinsi. Aceh Puja Mulia, Pasar, Pd. Baru, Kec. Bandar, Kabupaten Bener Meriah";"ACEH";"24582";"Indonesia";" 085668943429";"4.7545626";"96.913156";"https://maps.google.com/?cid=0x0:0x7f9b204c3a1437a3"
"mall";"Pusat Perbelanjaan";"Rifqi Jaya Cabang Beureunuen";"QW47+6FX, Jl. Syiah Utama, Puja Mulia, Kec. Bandar, Kabupaten Bener Meriah, Aceh 24582";"Jl. Syiah Utama, Puja Mulia, Kec. Bandar, Kabupaten Bener Meriah";"ACEH";"24582";"Indonesia";" 082272624475";"4.7556054";"96.9137307";"https://maps.google.com/?cid=0x0:0xc54e141dd6bbe3d"
"mall";"Pusat Perbelanjaan";"Sunda akiqah";"PVHH+M2G, Bujang, Kec. Bukit, Kabupaten Bener Meriah, Aceh 24582";"Bujang, Kec. Bukit, Kabupaten Bener Meriah";"ACEH";"24582";"Indonesia";" 085373149457";"4.7291902";"96.8775845";"https://maps.google.com/?cid=0x0:0x716cc3e9c0f03f0a"
"mall";"Pusat Perbelanjaan";"Ud. Sentral Palawija";"PVCF+X99, Blang Sentang, Kec. Bukit, Kabupaten Bener Meriah, Aceh 24582";"Blang Sentang, Kec. Bukit, Kabupaten Bener Meriah";"ACEH";"24582";"Indonesia";" 085214349991";"4.722408";"96.8734949";"https://maps.google.com/?cid=0x0:0xa11b0c40ace39416"
"mall";"Minimarket";"Mogana Market";"Jl. Ps. Inpres, Pd. Baru, Kec. Bandar, Kabupaten Bener Meriah, Aceh 24582";"Pd. Baru, Kec. Bandar, Kabupaten Bener Meriah";"ACEH";"24582";"Indonesia";" 085277863644";"4.7547098";"96.9147172";"https://maps.google.com/?cid=0x0:0x76a5a1544e81e800"
"mall";"Pemasok Pupuk";"SINAR TANI BENER MERIAH Agrochemical and Fertilizers";"Jl. Syiah Utama, Puja Mulia, Kec. Bandar, Kabupaten Bener Meriah, Aceh 24582";"Puja Mulia, Kec. Bandar, Kabupaten Bener Meriah";"ACEH";"24582";"Indonesia";" 085260770202";"4.7558024";"96.9143807";"https://maps.google.com/?cid=0x0:0x96c11e151340655d"
"mall";"Pusat Perbelanjaan";"HARFAH STORE";"QV2W+CWQ, Pd. Gajah, Kec. Bandar, Kabupaten Bener Meriah, Aceh 24582";"Pd. Gajah, Kec. Bandar, Kabupaten Bener Meriah";"ACEH";"24582";"Indonesia";" 082312517731";"4.7510892";"96.8973577";"https://maps.google.com/?cid=0x0:0x1096e03c4109ee0f"
"mall";"Toko Pakaian";"UD. Adik abang";"Puja Mulia, Kec. Bandar, Kabupaten Bener Meriah, Aceh 24582";"Kec. Bandar, Kabupaten Bener Meriah";"ACEH";"24582";"Indonesia";" 08119661610";"4.7488156";"96.9133036";"https://maps.google.com/?cid=0x0:0x54ab0bd3536a055d"
"mall";"Pusat Perbelanjaan";"SINAR INDAH";"QW37+HMM, Puja Mulia, Kec. Bandar, Kabupaten Bener Meriah, Aceh 24582";"Puja Mulia, Kec. Bandar, Kabupaten Bener Meriah";"ACEH";"24582";"Indonesia";" 08126978864";"4.7539509";"96.9141796";"https://maps.google.com/?cid=0x0:0xd9f5eb555a6a2da4"
"mall";"";"BBI. Timang Gajah";"RP2M+XM7, Timang Gajah, Kec. Gajah Putih, Kabupaten Bener Meriah, Aceh 24571";"Timang Gajah, Kec. Gajah Putih, Kabupaten Bener Meriah";"ACEH";"24571";"Indonesia";"";"4.8024174";"96.7341871";"https://maps.google.com/?cid=0x0:0x56e95316b5e74d87"
"mall";"mall";"Kec. Timang Gajah";"Kabupaten Bener Meriah, Aceh";"Kabupaten Bener Meriah, Aceh";"ACEH";"";"Indonesia";"";"4.7581426";"96.76263";"https://maps.google.com/?cid=0x0:0x64723af8a148d625"
"mall";"Pusat Perbelanjaan";"Deastro Jakarta";"PQJW+45V, Jl. Raya Bireuen - Takengon, Simpang Balek, Kec. Wih Pesam, Kabupaten Bener Meriah, Aceh 24471";"Jl. Raya Bireuen - Takengon, Simpang Balek, Kec. Wih Pesam, Kabupaten Bener Meriah";"ACEH";"24471";"Indonesia";" 085296006890";"4.7303643";"96.7954064";"https://maps.google.com/?cid=0x0:0x690b92b83fcdea39"
"mall";"Pusat Perbelanjaan";"UD.KEN ECHA";"QQ67+HG5, Mekar Ayu, Kec. Timang Gajah, Kabupaten Bener Meriah, Aceh 24571";"Mekar Ayu, Kec. Timang Gajah, Kabupaten Bener Meriah";"ACEH";"24571";"Indonesia";"";"4.7613981";"96.763872";"https://maps.google.com/?cid=0x0:0xe9223539afff1c91"
"mall";"Pusat Perbelanjaan";"Ud.Nurisma";"QPCW+M9W, Simpang Layang, Kec. Timang Gajah, Kabupaten Bener Meriah, Aceh 24571";"Simpang Layang, Kec. Timang Gajah, Kabupaten Bener Meriah";"ACEH";"24571";"Indonesia";" 082139907245";"4.771737";"96.7459588";"https://maps.google.com/?cid=0x0:0x89d9cfa4dc44543b"
"mall";"Toko";"toko kue,pulsa,token listrik,bbm dll";"QQ49+V5F, Lampahan Tim., Kec. Timang Gajah, Kabupaten Bener Meriah, Aceh 24571";"Lampahan Tim., Kec. Timang Gajah, Kabupaten Bener Meriah";"ACEH";"24571";"Indonesia";" 082165884551";"4.7571896";"96.7679336";"https://maps.google.com/?cid=0x0:0xc8d8526141caa5e"
"mall";"Pusat Perbelanjaan";"RATU STORE";"PQHW+5GJ, Jl. Simpang Balik-Blang Mancung, Simpang Balek, Kec. Wih Pesam, Kabupaten Bener Meriah, Aceh 24471";"Jl. Simpang Balik-Blang Mancung, Simpang Balek, Kec. Wih Pesam, Kabupaten Bener Meriah";"ACEH";"24471";"Indonesia";" 082370941041";"4.7279683";"96.7962651";"https://maps.google.com/?cid=0x0:0x661a30ae000ddf93"
"mall";"Sekolah menengah";"SMA NEGERI 2 TIMANG GAJAH";"QQ67+8CV, Mekar Ayu, Kec. Timang Gajah, Kabupaten Bener Meriah, Aceh 24571";"Mekar Ayu, Kec. Timang Gajah, Kabupaten Bener Meriah";"ACEH";"24571";"Indonesia";" 082163552268";"4.7608538";"96.7635409";"https://maps.google.com/?cid=0x0:0xd109dd58573a832f"
"mall";"Pasar";"Rejeki Unggas";"PPFW+X9P, Jl. Simpang Balik-Blang Mancung, Blang Paku, Kec. Wih Pesam, Kabupaten Bener Meriah, Aceh 24571";"Jl. Simpang Balik-Blang Mancung, Blang Paku, Kec. Wih Pesam, Kabupaten Bener Meriah";"ACEH";"24571";"Indonesia";" 082246840060";"4.7249582";"96.7459641";"https://maps.google.com/?cid=0x0:0xb2b23100774b1d88"
"mall";"Toko";"TOKO PUTRI KEMBAR";"QQ57+455, Jl. Raya Bireuen - Takengon, Lampahan Bar., Kec. Timang Gajah, Kabupaten Bener Meriah, Aceh 24571";"Jl. Raya Bireuen - Takengon, Lampahan Bar., Kec. Timang Gajah, Kabupaten Bener Meriah";"ACEH";"24571";"Indonesia";" 082165641863";"4.7577591";"96.7629738";"https://maps.google.com/?cid=0x0:0xfda3c371b8a7a990"
"mall";"Pusat Perbelanjaan";"Murah Raya Hardware Store";"PQJW+542, Jl. Raya Bireuen - Takengon, Simpang Balek, Kec. Wih Pesam, Kabupaten Bener Meriah, Aceh 24471";"Jl. Raya Bireuen - Takengon, Simpang Balek, Kec. Wih Pesam, Kabupaten Bener Meriah";"ACEH";"24471";"Indonesia";" 085362706420";"4.7303786";"96.7952812";"https://maps.google.com/?cid=0x0:0x3e8fe0065713afdb"
"mall";"Pusat Perbelanjaan";"Toko Mas Mulia";"Jl. Simpang Balik-Blang Mancung, Blang Kucak, Kec. Wih Pesam, Kabupaten Bener Meriah, Aceh 24571";"Blang Kucak, Kec. Wih Pesam, Kabupaten Bener Meriah";"ACEH";"24571";"Indonesia";"";"4.7280315";"96.7678989";"https://maps.google.com/?cid=0x0:0xff2300bb2c82b5aa"
"mall";"Toko Mainan";"Toko mainan anak anak ceria kids";"Jl. Raya Bireuen - Takengon, Lampahan, Kec. Timang Gajah, Kabupaten Bener Meriah, Aceh 24571";"Lampahan, Kec. Timang Gajah, Kabupaten Bener Meriah";"ACEH";"24571";"Indonesia";" 085217727205";"4.7586373";"96.7670864";"https://maps.google.com/?cid=0x0:0x3d91ec0beb02dbaa"
"mall";"Toko";"Agen resmi PT NASA";"PQ92+VF3, Unnamed Road, Blang Benara, Kec. Wih Pesam, Kabupaten Bener Meriah, Aceh 24571";"Unnamed Road, Blang Benara, Kec. Wih Pesam, Kabupaten Bener Meriah";"ACEH";"24571";"Indonesia";" 081361524588";"4.7196269";"96.7511698";"https://maps.google.com/?cid=0x0:0xef549ddf2966dcf6"
"mall";"Pusat Perbelanjaan";"RATU STORE";"PQHW+5GJ, Jl. Simpang Balik-Blang Mancung, Simpang Balek, Kec. Wih Pesam, Kabupaten Bener Meriah, Aceh 24471";"Jl. Simpang Balik-Blang Mancung, Simpang Balek, Kec. Wih Pesam, Kabupaten Bener Meriah";"ACEH";"24471";"Indonesia";" 082370941041";"4.7279683";"96.7962651";"https://maps.google.com/?cid=0x0:0x661a30ae000ddf93"
"mall";"Toko Ponsel";"Dika Ponsel";"PRC4+FV9, Lut Kucak, Kec. Wih Pesam, Kabupaten Bener Meriah, Aceh 24471";"Lut Kucak, Kec. Wih Pesam, Kabupaten Bener Meriah";"ACEH";"24471";"Indonesia";" 085260146400";"4.7211594";"96.8072306";"https://maps.google.com/?cid=0x0:0x6c81f2acc6f47eb9"
"mall";"Toko Sepatu";"BOB Store";"Jl. Blang Juroeng, Kel.Puja Mulia Kec. Bandar. Kab. Bener Meriah Provinsi. Aceh Puja Mulia, Pasar, Pd. Baru, Kec. Bandar, Kabupaten Bener Meriah, Aceh 24582";"Kel.Puja Mulia Kec. Bandar. Kab. Bener Meriah Provinsi. Aceh Puja Mulia, Pasar, Pd. Baru, Kec. Bandar, Kabupaten Bener Meriah";"ACEH";"24582";"Indonesia";" 085668943429";"4.7545626";"96.913156";"https://maps.google.com/?cid=0x0:0x7f9b204c3a1437a3"
"mall";"Pusat Perbelanjaan";"Lippo Mall Puri";"Jl. Puri Indah Raya Blok U 1, RT.3/RW.2, Kembangan Sel., Kec. Kembangan, Kota Jakarta Barat, Daerah Khusus Ibukota Jakarta 11610";"RT.3/RW.2, Kembangan Sel., Kec. Kembangan, Kota Jakarta Barat";"ACEH";"11610";"Indonesia";" 02129111111";"-6.1884554";"106.7389094";"https://maps.google.com/?cid=0x0:0x41cca4768f8bf65b"
"mall";"Toko bahan makanan";"Om Saprol";"PQC3+G7C, Blang Benara, Kec. Wih Pesam, Kabupaten Bener Meriah, Aceh 24571";"Blang Benara, Kec. Wih Pesam, Kabupaten Bener Meriah";"ACEH";"24571";"Indonesia";"";"4.7213157";"96.7531435";"https://maps.google.com/?cid=0x0:0xfabab6250677db37"
"mall";"Pusat Perbelanjaan";"Toko Asia";"MRPM+8J7, Simpang Teritit, Kec. Wih Pesam, Kabupaten Bener Meriah, Aceh 24471";"Simpang Teritit, Kec. Wih Pesam, Kabupaten Bener Meriah";"ACEH";"24471";"Indonesia";" 082272322303";"4.685788";"96.8340399";"https://maps.google.com/?cid=0x0:0xa9f012586104f679"
"mall";"";"Usaha Muda";"PRF5+629, Pante Raya, Kec. Wih Pesam, Kabupaten Bener Meriah, Aceh 24471";"Pante Raya, Kec. Wih Pesam, Kabupaten Bener Meriah";"ACEH";"24471";"Indonesia";" 085260899184";"4.72304";"96.8076027";"https://maps.google.com/?cid=0x0:0x7644e979899ca58f"
"mall";"Pasar";"Rejeki Unggas";"PPFW+X9P, Jl. Simpang Balik-Blang Mancung, Blang Paku, Kec. Wih Pesam, Kabupaten Bener Meriah, Aceh 24571";"Jl. Simpang Balik-Blang Mancung, Blang Paku, Kec. Wih Pesam, Kabupaten Bener Meriah";"ACEH";"24571";"Indonesia";" 082246840060";"4.7249582";"96.7459641";"https://maps.google.com/?cid=0x0:0xb2b23100774b1d88"
"mall";"Pusat Perbelanjaan";"Murah Raya Hardware Store";"PQJW+542, Jl. Raya Bireuen - Takengon, Simpang Balek, Kec. Wih Pesam, Kabupaten Bener Meriah, Aceh 24471";"Jl. Raya Bireuen - Takengon, Simpang Balek, Kec. Wih Pesam, Kabupaten Bener Meriah";"ACEH";"24471";"Indonesia";" 085362706420";"4.7303786";"96.7952812";"https://maps.google.com/?cid=0x0:0x3e8fe0065713afdb"
"mall";"Toko Pakaian";"Kedai Sansa";"PPCW+G7F, Unnamed Road, Blang Paku, Kec. Wih Pesam, Kabupaten Bener Meriah, Aceh 24571";"Unnamed Road, Blang Paku, Kec. Wih Pesam, Kabupaten Bener Meriah";"ACEH";"24571";"Indonesia";" 082285628216";"4.7213218";"96.745667";"https://maps.google.com/?cid=0x0:0x69c00e745f65d1b7"
"mall";"Pusat Perbelanjaan";"Mall Of Indonesia";"Jl. Boulevard Bar. Raya No.12, RT.18/RW.19, Klp. Gading Bar., Kec. Klp. Gading, Jkt Utara, Daerah Khusus Ibukota Jakarta 14240";"RT.18/RW.19, Klp. Gading Bar., Kec. Klp. Gading, Jkt Utara";"ACEH";"14240";"Indonesia";" 02145867888";"-6.1514549";"106.8918949";"https://maps.google.com/?cid=0x0:0x3431c7aaadd1f1b6"
"mall";"Pusat Perbelanjaan";"Koprasi Dayah Aswaja";"PQHV+5JH, Simpang Balek, Kec. Wih Pesam, Kabupaten Bener Meriah, Aceh 24471";"Simpang Balek, Kec. Wih Pesam, Kabupaten Bener Meriah";"ACEH";"24471";"Indonesia";" 085277123546";"4.7279493";"96.7941096";"https://maps.google.com/?cid=0x0:0x297ef9ab17213b97"
"mall";"Pusat Perbelanjaan";"Ud. Sentral Palawija";"PVCF+X99, Blang Sentang, Kec. Bukit, Kabupaten Bener Meriah, Aceh 24582";"Blang Sentang, Kec. Bukit, Kabupaten Bener Meriah";"ACEH";"24582";"Indonesia";" 085214349991";"4.722408";"96.8734949";"https://maps.google.com/?cid=0x0:0xa11b0c40ace39416"
"mall";"Pusat Perbelanjaan";"32 Store";"QW23+VMW, Jl. Syiah Utama, Simpang Utama, Kec. Bandar, Kabupaten Bener Meriah, Aceh 24582";"Jl. Syiah Utama, Simpang Utama, Kec. Bandar, Kabupaten Bener Meriah";"ACEH";"24582";"Indonesia";" 082276399161";"4.7522253";"96.9042122";"https://maps.google.com/?cid=0x0:0x49a3815d597af5b3"
"supermarket";"supermarket";"Banda Aceh";"Kota Banda Aceh, Aceh";"Kota Banda Aceh, Aceh";"ACEH";"";"Indonesia";"";"5.5482904";"95.3237559";"https://maps.google.com/?cid=0x0:0x3039d80b220cb90"
"supermarket";"Toko bahan makanan";"Darussalam Supermarket";"Jl. Utama Rukoh No.45-C, Kopelma Darussalam, Kec. Syiah Kuala, Kota Banda Aceh, Aceh 24415";"Kopelma Darussalam, Kec. Syiah Kuala, Kota Banda Aceh";"ACEH";"24415";"Indonesia";"";"5.5727133";"95.3635091";"https://maps.google.com/?cid=0x0:0x7ec192104910528b"
"supermarket";"Toko Swalayan";"Hijrah Swalayan";"Jl. Hasan Saleh No.15A, Neusu Aceh, Kec. Baiturrahman, Kota Banda Aceh, Aceh 23116";"Neusu Aceh, Kec. Baiturrahman, Kota Banda Aceh";"ACEH";"23116";"Indonesia";" 082160005582";"5.5390676";"95.3153855";"https://maps.google.com/?cid=0x0:0xee73f70e953ded6c"
"supermarket";"Toserba";"Swalayan 2M";"G8R8+WHC, Neusu Jaya, Kec. Baiturrahman, Kota Banda Aceh, Aceh 23116";"Neusu Jaya, Kec. Baiturrahman, Kota Banda Aceh";"ACEH";"23116";"Indonesia";"";"5.5423037";"95.3163848";"https://maps.google.com/?cid=0x0:0x8021e2b3089a331f"
"supermarket";"Kafe";"Swalayan Cut Nun";"H925+34R, Jl. Teuku Iskandar, Ceurih, Kec. Ulee Kareng, Kota Banda Aceh, Aceh 24451";"Jl. Teuku Iskandar, Ceurih, Kec. Ulee Kareng, Kota Banda Aceh";"ACEH";"24451";"Indonesia";"";"5.5502415";"95.3577544";"https://maps.google.com/?cid=0x0:0x4389db0c09f306d2"
"supermarket";"Toko Swalayan";"Tabina Swalayan";"Jl. Pocut Baren No.98 ABC, Keuramat, Kec. Kuta Alam, Kota Banda Aceh, Aceh 23123";"Keuramat, Kec. Kuta Alam, Kota Banda Aceh";"ACEH";"23123";"Indonesia";" 065124298";"5.5622104";"95.3272019";"https://maps.google.com/?cid=0x0:0x8a275b182b1e559b"
"supermarket";"Toko Swalayan";"Swalayan Nanggroe";"Jl. Teuku Chik Di Tiro, Sukadamai, Kec. Lueng Bata, Kota Banda Aceh, Aceh 24411";"Sukadamai, Kec. Lueng Bata, Kota Banda Aceh";"ACEH";"24411";"Indonesia";"";"5.5507603";"95.3290269";"https://maps.google.com/?cid=0x0:0xfb7b82180c6d79c4"
"supermarket";"Toko Swalayan";"Alvin swalayan";"Jl. AMD No.1, RW.2, Peunyeurat, Kec. Banda Raya, Kota Banda Aceh, Aceh 23117";"RW.2, Peunyeurat, Kec. Banda Raya, Kota Banda Aceh";"ACEH";"23117";"Indonesia";" 085361418880";"5.5322362";"95.3273363";"https://maps.google.com/?cid=0x0:0xcaccf5b4c0697489"
"supermarket";"Pusat Perbelanjaan";"SUZUYA SIMPANG LIMA";"Jl. H. Dimurthala Kuta Alam No.1, Kuta Alam, Kec. Kuta Alam, Kota Banda Aceh, Aceh 23127";"Kuta Alam, Kec. Kuta Alam, Kota Banda Aceh";"ACEH";"23127";"Indonesia";" 06518011020";"5.55524";"95.3217643";"https://maps.google.com/?cid=0x0:0x9ad84c8879185816"
"supermarket";"Toko Swalayan";"Toko Sinbun Sibreh";"Jl. Pangeran Diponegoro No.21, Kp. Baru, Kec. Baiturrahman, Kota Banda Aceh, Aceh 23116";"Kp. Baru, Kec. Baiturrahman, Kota Banda Aceh";"ACEH";"23116";"Indonesia";"";"5.5532701";"95.3195906";"https://maps.google.com/?cid=0x0:0x494785e1e172ebbb"
"supermarket";"Grosir Barang Kelontong";"ABADI MART";"Jl. Dharma, Laksana, Kec. Kuta Alam, Kota Banda Aceh, Aceh 24415";"Laksana, Kec. Kuta Alam, Kota Banda Aceh";"ACEH";"24415";"Indonesia";" 082168031142";"5.5583314";"95.3245021";"https://maps.google.com/?cid=0x0:0x6e704b7799d5eee2"
"supermarket";"Pusat Perbelanjaan";"Swalayan PanganUtama";"Jln Tgk imum lueng bata, Lueng Bata, Kec. Lueng Bata, Kota Banda Aceh, Aceh 23127";"Lueng Bata, Kec. Lueng Bata, Kota Banda Aceh";"ACEH";"23127";"Indonesia";" 08116814900";"5.5428255";"95.3359702";"https://maps.google.com/?cid=0x0:0xc3819aef19f77a39"
"supermarket";"Grosir Kopi";"Rasya Mart";"Jl. Dr. Mr. Mohd Hasan, Sukadamai, Kec. Lueng Bata, Kota Banda Aceh, Aceh 23249";"Sukadamai, Kec. Lueng Bata, Kota Banda Aceh";"ACEH";"23249";"Indonesia";" 0895615552066";"5.548314";"95.3300595";"https://maps.google.com/?cid=0x0:0xc6b5003c282d59a9"
"supermarket";"Toko Swalayan";"Neusu Swalayan";"G8V8+3J6, Neusu Jaya, Kec. Baiturrahman, Kota Banda Aceh, Aceh 23116";"Neusu Jaya, Kec. Baiturrahman, Kota Banda Aceh";"ACEH";"23116";"Indonesia";"";"5.5426566";"95.3164598";"https://maps.google.com/?cid=0x0:0x8662fd087994f660"
"supermarket";"Toko Swalayan";"Hijrah Swalayan";"Jl. Hasan Saleh No.15A, Neusu Aceh, Kec. Baiturrahman, Kota Banda Aceh, Aceh 23116";"Neusu Aceh, Kec. Baiturrahman, Kota Banda Aceh";"ACEH";"23116";"Indonesia";" 082160005582";"5.5390676";"95.3153855";"https://maps.google.com/?cid=0x0:0xee73f70e953ded6c"
"supermarket";"supermarket";"Banda Aceh";"Kota Banda Aceh, Aceh";"Kota Banda Aceh, Aceh";"ACEH";"";"Indonesia";"";"5.5482904";"95.3237559";"https://maps.google.com/?cid=0x0:0x3039d80b220cb90"
"supermarket";"Toko bahan makanan";"SimpangLima Grocery Store";"Jl. Tengku Angkasa H Abdullah Ujong Rimba No 20, Kp. Baru, Kec. Baiturrahman, Kota Banda Aceh, Aceh 23242";"Kp. Baru, Kec. Baiturrahman, Kota Banda Aceh";"ACEH";"23242";"Indonesia";" 0811686677";"5.5504966";"95.3167777";"https://maps.google.com/?cid=0x0:0x22361fe0a56c2da4"
"supermarket";"Toko Swalayan";"Manggadua swalayan";"H839+Q8V, Kp. Baru, Kec. Baiturrahman, Kota Banda Aceh, Aceh 23127";"Kp. Baru, Kec. Baiturrahman, Kota Banda Aceh";"ACEH";"23127";"Indonesia";" 0811955209";"5.5544817";"95.3183031";"https://maps.google.com/?cid=0x0:0x249763ed8338990c"
"supermarket";"Kafe";"Swalayan Cut Nun";"H925+34R, Jl. Teuku Iskandar, Ceurih, Kec. Ulee Kareng, Kota Banda Aceh, Aceh 24451";"Jl. Teuku Iskandar, Ceurih, Kec. Ulee Kareng, Kota Banda Aceh";"ACEH";"24451";"Indonesia";"";"5.5502415";"95.3577544";"https://maps.google.com/?cid=0x0:0x4389db0c09f306d2"
"supermarket";"Toserba";"Swalayan 2M";"G8R8+WHC, Neusu Jaya, Kec. Baiturrahman, Kota Banda Aceh, Aceh 23116";"Neusu Jaya, Kec. Baiturrahman, Kota Banda Aceh";"ACEH";"23116";"Indonesia";"";"5.5423037";"95.3163848";"https://maps.google.com/?cid=0x0:0x8021e2b3089a331f"
"supermarket";"Toko Swalayan";"Swalayan Nanggroe";"Jl. Teuku Chik Di Tiro, Sukadamai, Kec. Lueng Bata, Kota Banda Aceh, Aceh 24411";"Sukadamai, Kec. Lueng Bata, Kota Banda Aceh";"ACEH";"24411";"Indonesia";"";"5.5507603";"95.3290269";"https://maps.google.com/?cid=0x0:0xfb7b82180c6d79c4"
"supermarket";"Toko Swalayan";"Toko Sinbun Sibreh";"Jl. Pangeran Diponegoro No.21, Kp. Baru, Kec. Baiturrahman, Kota Banda Aceh, Aceh 23116";"Kp. Baru, Kec. Baiturrahman, Kota Banda Aceh";"ACEH";"23116";"Indonesia";"";"5.5532701";"95.3195906";"https://maps.google.com/?cid=0x0:0x494785e1e172ebbb"
"supermarket";"Toko Swalayan";"Alvin swalayan";"Jl. AMD No.1, RW.2, Peunyeurat, Kec. Banda Raya, Kota Banda Aceh, Aceh 23117";"RW.2, Peunyeurat, Kec. Banda Raya, Kota Banda Aceh";"ACEH";"23117";"Indonesia";" 085361418880";"5.5322362";"95.3273363";"https://maps.google.com/?cid=0x0:0xcaccf5b4c0697489"
"supermarket";"Toko Swalayan";"Standard Swalayan";"G8P8+3F6, Jl. Sultan Malikul Saleh, Lam Lagang, Kec. Banda Raya, Kota Banda Aceh, Aceh 23122";"Jl. Sultan Malikul Saleh, Lam Lagang, Kec. Banda Raya, Kota Banda Aceh";"ACEH";"23122";"Indonesia";"";"5.5351528";"95.3161558";"https://maps.google.com/?cid=0x0:0xa35d828125111398"
"supermarket";"Grosir Barang Kelontong";"ABADI MART";"Jl. Dharma, Laksana, Kec. Kuta Alam, Kota Banda Aceh, Aceh 24415";"Laksana, Kec. Kuta Alam, Kota Banda Aceh";"ACEH";"24415";"Indonesia";" 082168031142";"5.5583314";"95.3245021";"https://maps.google.com/?cid=0x0:0x6e704b7799d5eee2"
"supermarket";"Toko Swalayan";"Neusu Swalayan";"G8V8+3J6, Neusu Jaya, Kec. Baiturrahman, Kota Banda Aceh, Aceh 23116";"Neusu Jaya, Kec. Baiturrahman, Kota Banda Aceh";"ACEH";"23116";"Indonesia";"";"5.5426566";"95.3164598";"https://maps.google.com/?cid=0x0:0x8662fd087994f660"
"supermarket";"Pusat Perbelanjaan";"Swalayan PanganUtama";"Jln Tgk imum lueng bata, Lueng Bata, Kec. Lueng Bata, Kota Banda Aceh, Aceh 23127";"Lueng Bata, Kec. Lueng Bata, Kota Banda Aceh";"ACEH";"23127";"Indonesia";" 08116814900";"5.5428255";"95.3359702";"https://maps.google.com/?cid=0x0:0xc3819aef19f77a39"
"supermarket";"Toko Swalayan";"Tandi Mart";"Neusu Aceh, Kec. Baiturrahman, Kota Banda Aceh, Aceh 23244";"Kec. Baiturrahman, Kota Banda Aceh";"ACEH";"23244";"Indonesia";"";"5.5409413";"95.3200406";"https://maps.google.com/?cid=0x0:0x209691efd669a706"
"supermarket";"Toko bahan makanan";"Darussalam Supermarket";"Jl. Utama Rukoh No.45-C, Kopelma Darussalam, Kec. Syiah Kuala, Kota Banda Aceh, Aceh 24415";"Kopelma Darussalam, Kec. Syiah Kuala, Kota Banda Aceh";"ACEH";"24415";"Indonesia";"";"5.5727133";"95.3635091";"https://maps.google.com/?cid=0x0:0x7ec192104910528b"
"supermarket";"Toko Swalayan";"Hijrah Swalayan";"Jl. Hasan Saleh No.15A, Neusu Aceh, Kec. Baiturrahman, Kota Banda Aceh, Aceh 23116";"Neusu Aceh, Kec. Baiturrahman, Kota Banda Aceh";"ACEH";"23116";"Indonesia";" 082160005582";"5.5390676";"95.3153855";"https://maps.google.com/?cid=0x0:0xee73f70e953ded6c"
"supermarket";"supermarket";"Banda Aceh";"Kota Banda Aceh, Aceh";"Kota Banda Aceh, Aceh";"ACEH";"";"Indonesia";"";"5.5482904";"95.3237559";"https://maps.google.com/?cid=0x0:0x3039d80b220cb90"
"supermarket";"Toserba";"Swalayan 2M";"G8R8+WHC, Neusu Jaya, Kec. Baiturrahman, Kota Banda Aceh, Aceh 23116";"Neusu Jaya, Kec. Baiturrahman, Kota Banda Aceh";"ACEH";"23116";"Indonesia";"";"5.5423037";"95.3163848";"https://maps.google.com/?cid=0x0:0x8021e2b3089a331f"
"supermarket";"Toko Swalayan";"Tabina Swalayan";"Jl. Pocut Baren No.98 ABC, Keuramat, Kec. Kuta Alam, Kota Banda Aceh, Aceh 23123";"Keuramat, Kec. Kuta Alam, Kota Banda Aceh";"ACEH";"23123";"Indonesia";" 065124298";"5.5622104";"95.3272019";"https://maps.google.com/?cid=0x0:0x8a275b182b1e559b"
"supermarket";"Toko Swalayan";"Swalayan Nanggroe";"Jl. Teuku Chik Di Tiro, Sukadamai, Kec. Lueng Bata, Kota Banda Aceh, Aceh 24411";"Sukadamai, Kec. Lueng Bata, Kota Banda Aceh";"ACEH";"24411";"Indonesia";"";"5.5507603";"95.3290269";"https://maps.google.com/?cid=0x0:0xfb7b82180c6d79c4"
"supermarket";"Toko Swalayan";"Neusu Swalayan";"G8V8+3J6, Neusu Jaya, Kec. Baiturrahman, Kota Banda Aceh, Aceh 23116";"Neusu Jaya, Kec. Baiturrahman, Kota Banda Aceh";"ACEH";"23116";"Indonesia";"";"5.5426566";"95.3164598";"https://maps.google.com/?cid=0x0:0x8662fd087994f660"
"supermarket";"Kafe";"Swalayan Cut Nun";"H925+34R, Jl. Teuku Iskandar, Ceurih, Kec. Ulee Kareng, Kota Banda Aceh, Aceh 24451";"Jl. Teuku Iskandar, Ceurih, Kec. Ulee Kareng, Kota Banda Aceh";"ACEH";"24451";"Indonesia";"";"5.5502415";"95.3577544";"https://maps.google.com/?cid=0x0:0x4389db0c09f306d2"
"supermarket";"Toko Swalayan";"Toko Sinbun Sibreh";"Jl. Pangeran Diponegoro No.21, Kp. Baru, Kec. Baiturrahman, Kota Banda Aceh, Aceh 23116";"Kp. Baru, Kec. Baiturrahman, Kota Banda Aceh";"ACEH";"23116";"Indonesia";"";"5.5532701";"95.3195906";"https://maps.google.com/?cid=0x0:0x494785e1e172ebbb"
"supermarket";"Toko Swalayan";"Lambhuk Swalayan";"H83R+88R, T Jalan Sultan Iskandar Muda, Lambhuk, Kec. Ulee Kareng, Kota Banda Aceh, Aceh";"Kota Banda Aceh, Aceh";"ACEH";"";"Indonesia";"";"5.5533742";"95.3407708";"https://maps.google.com/?cid=0x0:0x4fb456015b3347fc"
"supermarket";"Pusat Perbelanjaan";"Swalayan PanganUtama";"Jln Tgk imum lueng bata, Lueng Bata, Kec. Lueng Bata, Kota Banda Aceh, Aceh 23127";"Lueng Bata, Kec. Lueng Bata, Kota Banda Aceh";"ACEH";"23127";"Indonesia";" 08116814900";"5.5428255";"95.3359702";"https://maps.google.com/?cid=0x0:0xc3819aef19f77a39"
"supermarket";"Grosir Barang Kelontong";"ABADI MART";"Jl. Dharma, Laksana, Kec. Kuta Alam, Kota Banda Aceh, Aceh 24415";"Laksana, Kec. Kuta Alam, Kota Banda Aceh";"ACEH";"24415";"Indonesia";" 082168031142";"5.5583314";"95.3245021";"https://maps.google.com/?cid=0x0:0x6e704b7799d5eee2"
"supermarket";"Pusat Perbelanjaan";"SUZUYA SIMPANG LIMA";"Jl. H. Dimurthala Kuta Alam No.1, Kuta Alam, Kec. Kuta Alam, Kota Banda Aceh, Aceh 23127";"Kuta Alam, Kec. Kuta Alam, Kota Banda Aceh";"ACEH";"23127";"Indonesia";" 06518011020";"5.55524";"95.3217643";"https://maps.google.com/?cid=0x0:0x9ad84c8879185816"
"supermarket";"Grosir Kopi";"Rasya Mart";"Jl. Dr. Mr. Mohd Hasan, Sukadamai, Kec. Lueng Bata, Kota Banda Aceh, Aceh 23249";"Sukadamai, Kec. Lueng Bata, Kota Banda Aceh";"ACEH";"23249";"Indonesia";" 0895615552066";"5.548314";"95.3300595";"https://maps.google.com/?cid=0x0:0xc6b5003c282d59a9"
"supermarket";"Toko bahan makanan";"Darussalam Supermarket";"Jl. Utama Rukoh No.45-C, Kopelma Darussalam, Kec. Syiah Kuala, Kota Banda Aceh, Aceh 24415";"Kopelma Darussalam, Kec. Syiah Kuala, Kota Banda Aceh";"ACEH";"24415";"Indonesia";"";"5.5727133";"95.3635091";"https://maps.google.com/?cid=0x0:0x7ec192104910528b"
"supermarket";"supermarket";"Banda Aceh";"Kota Banda Aceh, Aceh";"Kota Banda Aceh, Aceh";"ACEH";"";"Indonesia";"";"5.5482904";"95.3237559";"https://maps.google.com/?cid=0x0:0x3039d80b220cb90"
"supermarket";"Toko bahan makanan";"SimpangLima Grocery Store";"Jl. Tengku Angkasa H Abdullah Ujong Rimba No 20, Kp. Baru, Kec. Baiturrahman, Kota Banda Aceh, Aceh 23242";"Kp. Baru, Kec. Baiturrahman, Kota Banda Aceh";"ACEH";"23242";"Indonesia";" 0811686677";"5.5504966";"95.3167777";"https://maps.google.com/?cid=0x0:0x22361fe0a56c2da4"
"supermarket";"Toko Swalayan";"Tabina Swalayan";"Jl. Pocut Baren No.98 ABC, Keuramat, Kec. Kuta Alam, Kota Banda Aceh, Aceh 23123";"Keuramat, Kec. Kuta Alam, Kota Banda Aceh";"ACEH";"23123";"Indonesia";" 065124298";"5.5622104";"95.3272019";"https://maps.google.com/?cid=0x0:0x8a275b182b1e559b"
"supermarket";"Toko Swalayan";"Swalayan Nanggroe";"Jl. Teuku Chik Di Tiro, Sukadamai, Kec. Lueng Bata, Kota Banda Aceh, Aceh 24411";"Sukadamai, Kec. Lueng Bata, Kota Banda Aceh";"ACEH";"24411";"Indonesia";"";"5.5507603";"95.3290269";"https://maps.google.com/?cid=0x0:0xfb7b82180c6d79c4"
"supermarket";"Kafe";"Swalayan Cut Nun";"H925+34R, Jl. Teuku Iskandar, Ceurih, Kec. Ulee Kareng, Kota Banda Aceh, Aceh 24451";"Jl. Teuku Iskandar, Ceurih, Kec. Ulee Kareng, Kota Banda Aceh";"ACEH";"24451";"Indonesia";"";"5.5502415";"95.3577544";"https://maps.google.com/?cid=0x0:0x4389db0c09f306d2"
"supermarket";"Toserba";"Swalayan 2M";"G8R8+WHC, Neusu Jaya, Kec. Baiturrahman, Kota Banda Aceh, Aceh 23116";"Neusu Jaya, Kec. Baiturrahman, Kota Banda Aceh";"ACEH";"23116";"Indonesia";"";"5.5423037";"95.3163848";"https://maps.google.com/?cid=0x0:0x8021e2b3089a331f"
"supermarket";"Toko Swalayan";"Alvin swalayan";"Jl. AMD No.1, RW.2, Peunyeurat, Kec. Banda Raya, Kota Banda Aceh, Aceh 23117";"RW.2, Peunyeurat, Kec. Banda Raya, Kota Banda Aceh";"ACEH";"23117";"Indonesia";" 085361418880";"5.5322362";"95.3273363";"https://maps.google.com/?cid=0x0:0xcaccf5b4c0697489"
"supermarket";"Pusat Perbelanjaan";"SUZUYA SIMPANG LIMA";"Jl. H. Dimurthala Kuta Alam No.1, Kuta Alam, Kec. Kuta Alam, Kota Banda Aceh, Aceh 23127";"Kuta Alam, Kec. Kuta Alam, Kota Banda Aceh";"ACEH";"23127";"Indonesia";" 06518011020";"5.55524";"95.3217643";"https://maps.google.com/?cid=0x0:0x9ad84c8879185816"
"supermarket";"Toko Swalayan";"Toko Sinbun Sibreh";"Jl. Pangeran Diponegoro No.21, Kp. Baru, Kec. Baiturrahman, Kota Banda Aceh, Aceh 23116";"Kp. Baru, Kec. Baiturrahman, Kota Banda Aceh";"ACEH";"23116";"Indonesia";"";"5.5532701";"95.3195906";"https://maps.google.com/?cid=0x0:0x494785e1e172ebbb"
"supermarket";"Pusat Perbelanjaan";"Swalayan PanganUtama";"Jln Tgk imum lueng bata, Lueng Bata, Kec. Lueng Bata, Kota Banda Aceh, Aceh 23127";"Lueng Bata, Kec. Lueng Bata, Kota Banda Aceh";"ACEH";"23127";"Indonesia";" 08116814900";"5.5428255";"95.3359702";"https://maps.google.com/?cid=0x0:0xc3819aef19f77a39"
"supermarket";"Grosir Barang Kelontong";"ABADI MART";"Jl. Dharma, Laksana, Kec. Kuta Alam, Kota Banda Aceh, Aceh 24415";"Laksana, Kec. Kuta Alam, Kota Banda Aceh";"ACEH";"24415";"Indonesia";" 082168031142";"5.5583314";"95.3245021";"https://maps.google.com/?cid=0x0:0x6e704b7799d5eee2"
"supermarket";"Toko Swalayan";"Neusu Swalayan";"G8V8+3J6, Neusu Jaya, Kec. Baiturrahman, Kota Banda Aceh, Aceh 23116";"Neusu Jaya, Kec. Baiturrahman, Kota Banda Aceh";"ACEH";"23116";"Indonesia";"";"5.5426566";"95.3164598";"https://maps.google.com/?cid=0x0:0x8662fd087994f660"
"supermarket";"Toko Swalayan";"Manggadua swalayan";"H839+Q8V, Kp. Baru, Kec. Baiturrahman, Kota Banda Aceh, Aceh 23127";"Kp. Baru, Kec. Baiturrahman, Kota Banda Aceh";"ACEH";"23127";"Indonesia";" 0811955209";"5.5544817";"95.3183031";"https://maps.google.com/?cid=0x0:0x249763ed8338990c"
"supermarket";"Toko bahan makanan";"Darussalam Supermarket";"Jl. Utama Rukoh No.45-C, Kopelma Darussalam, Kec. Syiah Kuala, Kota Banda Aceh, Aceh 24415";"Kopelma Darussalam, Kec. Syiah Kuala, Kota Banda Aceh";"ACEH";"24415";"Indonesia";"";"5.5727133";"95.3635091";"https://maps.google.com/?cid=0x0:0x7ec192104910528b"
"supermarket";"supermarket";"Banda Aceh";"Kota Banda Aceh, Aceh";"Kota Banda Aceh, Aceh";"ACEH";"";"Indonesia";"";"5.5482904";"95.3237559";"https://maps.google.com/?cid=0x0:0x3039d80b220cb90"
"supermarket";"Toko bahan makanan";"SimpangLima Grocery Store";"Jl. Tengku Angkasa H Abdullah Ujong Rimba No 20, Kp. Baru, Kec. Baiturrahman, Kota Banda Aceh, Aceh 23242";"Kp. Baru, Kec. Baiturrahman, Kota Banda Aceh";"ACEH";"23242";"Indonesia";" 0811686677";"5.5504966";"95.3167777";"https://maps.google.com/?cid=0x0:0x22361fe0a56c2da4"
"supermarket";"Toko Swalayan";"Tabina Swalayan";"Jl. Pocut Baren No.98 ABC, Keuramat, Kec. Kuta Alam, Kota Banda Aceh, Aceh 23123";"Keuramat, Kec. Kuta Alam, Kota Banda Aceh";"ACEH";"23123";"Indonesia";" 065124298";"5.5622104";"95.3272019";"https://maps.google.com/?cid=0x0:0x8a275b182b1e559b"
"supermarket";"Kafe";"Swalayan Cut Nun";"H925+34R, Jl. Teuku Iskandar, Ceurih, Kec. Ulee Kareng, Kota Banda Aceh, Aceh 24451";"Jl. Teuku Iskandar, Ceurih, Kec. Ulee Kareng, Kota Banda Aceh";"ACEH";"24451";"Indonesia";"";"5.5502415";"95.3577544";"https://maps.google.com/?cid=0x0:0x4389db0c09f306d2"
"supermarket";"Toko Swalayan";"Swalayan Nanggroe";"Jl. Teuku Chik Di Tiro, Sukadamai, Kec. Lueng Bata, Kota Banda Aceh, Aceh 24411";"Sukadamai, Kec. Lueng Bata, Kota Banda Aceh";"ACEH";"24411";"Indonesia";"";"5.5507603";"95.3290269";"https://maps.google.com/?cid=0x0:0xfb7b82180c6d79c4"
"supermarket";"Pusat Perbelanjaan";"SUZUYA SIMPANG LIMA";"Jl. H. Dimurthala Kuta Alam No.1, Kuta Alam, Kec. Kuta Alam, Kota Banda Aceh, Aceh 23127";"Kuta Alam, Kec. Kuta Alam, Kota Banda Aceh";"ACEH";"23127";"Indonesia";" 06518011020";"5.55524";"95.3217643";"https://maps.google.com/?cid=0x0:0x9ad84c8879185816"
"supermarket";"Toserba";"Swalayan 2M";"G8R8+WHC, Neusu Jaya, Kec. Baiturrahman, Kota Banda Aceh, Aceh 23116";"Neusu Jaya, Kec. Baiturrahman, Kota Banda Aceh";"ACEH";"23116";"Indonesia";"";"5.5423037";"95.3163848";"https://maps.google.com/?cid=0x0:0x8021e2b3089a331f"
"supermarket";"Pusat Perbelanjaan";"Swalayan PanganUtama";"Jln Tgk imum lueng bata, Lueng Bata, Kec. Lueng Bata, Kota Banda Aceh, Aceh 23127";"Lueng Bata, Kec. Lueng Bata, Kota Banda Aceh";"ACEH";"23127";"Indonesia";" 08116814900";"5.5428255";"95.3359702";"https://maps.google.com/?cid=0x0:0xc3819aef19f77a39"
"supermarket";"Toko Swalayan";"Toko Sinbun Sibreh";"Jl. Pangeran Diponegoro No.21, Kp. Baru, Kec. Baiturrahman, Kota Banda Aceh, Aceh 23116";"Kp. Baru, Kec. Baiturrahman, Kota Banda Aceh";"ACEH";"23116";"Indonesia";"";"5.5532701";"95.3195906";"https://maps.google.com/?cid=0x0:0x494785e1e172ebbb"
"supermarket";"Toko Swalayan";"Neusu Swalayan";"G8V8+3J6, Neusu Jaya, Kec. Baiturrahman, Kota Banda Aceh, Aceh 23116";"Neusu Jaya, Kec. Baiturrahman, Kota Banda Aceh";"ACEH";"23116";"Indonesia";"";"5.5426566";"95.3164598";"https://maps.google.com/?cid=0x0:0x8662fd087994f660"
"supermarket";"Toko Swalayan";"Alvin swalayan";"Jl. AMD No.1, RW.2, Peunyeurat, Kec. Banda Raya, Kota Banda Aceh, Aceh 23117";"RW.2, Peunyeurat, Kec. Banda Raya, Kota Banda Aceh";"ACEH";"23117";"Indonesia";" 085361418880";"5.5322362";"95.3273363";"https://maps.google.com/?cid=0x0:0xcaccf5b4c0697489"
"supermarket";"Toko Swalayan";"Lambhuk Swalayan";"H83R+88R, T Jalan Sultan Iskandar Muda, Lambhuk, Kec. Ulee Kareng, Kota Banda Aceh, Aceh";"Kota Banda Aceh, Aceh";"ACEH";"";"Indonesia";"";"5.5533742";"95.3407708";"https://maps.google.com/?cid=0x0:0x4fb456015b3347fc"
"supermarket";"Grosir Barang Kelontong";"ABADI MART";"Jl. Dharma, Laksana, Kec. Kuta Alam, Kota Banda Aceh, Aceh 24415";"Laksana, Kec. Kuta Alam, Kota Banda Aceh";"ACEH";"24415";"Indonesia";" 082168031142";"5.5583314";"95.3245021";"https://maps.google.com/?cid=0x0:0x6e704b7799d5eee2"
"supermarket";"supermarket";"Kec. Bener Kelipah";"Kabupaten Bener Meriah, Aceh";"Kabupaten Bener Meriah, Aceh";"ACEH";"";"Indonesia";"";"4.7701481";"96.923098";"https://maps.google.com/?cid=0x0:0x3a7e0c8dc476f1e"
"supermarket";"Toko bahan makanan";"Gema Market";"QWFF+XP4, Bener Kelipah Utara, Kec. Bener Kelipah, Kabupaten Bener Meriah, Aceh 24582";"Bener Kelipah Utara, Kec. Bener Kelipah, Kabupaten Bener Meriah";"ACEH";"24582";"Indonesia";" 081212128662";"4.7748815";"96.9243239";"https://maps.google.com/?cid=0x0:0x9361b9748698687c"
"supermarket";"Toko bahan makanan";"YUSRA MARKET";"QW47+46R, Unnamed Road, Mutiara, Kec. Bandar, Kabupaten Bener Meriah, Aceh 24582";"Unnamed Road, Mutiara, Kec. Bandar, Kabupaten Bener Meriah";"ACEH";"24582";"Indonesia";" 082239424047";"4.7553717";"96.9130116";"https://maps.google.com/?cid=0x0:0x824b1c685abc96f0"
"supermarket";"Minimarket";"MARKET BAROKAH";"QW37+88P, Puja Mulia, Kec. Bandar, Kabupaten Bener Meriah, Aceh 24582";"Puja Mulia, Kec. Bandar, Kabupaten Bener Meriah";"ACEH";"24582";"Indonesia";" 082507364834";"4.75334";"96.9133429";"https://maps.google.com/?cid=0x0:0x87039bdf07cbddd0"
"supermarket";"Minimarket";"Faeyza mart";"QW37+MHV, Puja Mulia, Kec. Bandar, Kabupaten Bener Meriah, Aceh 24582";"Puja Mulia, Kec. Bandar, Kabupaten Bener Meriah";"ACEH";"24582";"Indonesia";" 082276020599";"4.7542312";"96.9139244";"https://maps.google.com/?cid=0x0:0xe10235821aca99fb"
"supermarket";"Grosir Barang Kelontong";"Bintang makmur market";"QW47+9XJ, Janarata, Kec. Bandar, Kabupaten Bener Meriah, Aceh 24582";"Janarata, Kec. Bandar, Kabupaten Bener Meriah";"ACEH";"24582";"Indonesia";" 085360666079";"4.7559735";"96.9148766";"https://maps.google.com/?cid=0x0:0xfd36711643dd0848"
"supermarket";"Toko Swalayan";"UD FAISAL";"QW27+W6Q, Puja Mulia, Kec. Bandar, Kabupaten Bener Meriah, Aceh 24582";"Puja Mulia, Kec. Bandar, Kabupaten Bener Meriah";"ACEH";"24582";"Indonesia";"";"4.752347";"96.9131181";"https://maps.google.com/?cid=0x0:0x4ae847604bd895c5"
"supermarket";"Toko bahan makanan";"NAIZA MARKET";"QWM7+P25, Jl. KKA, Bener Pepanyi, Kec. Permata, Kabupaten Bener Meriah, Aceh";"Kabupaten Bener Meriah, Aceh";"ACEH";"";"Indonesia";" 085270747097";"4.7842544";"96.9126071";"https://maps.google.com/?cid=0x0:0x4b08ecac6ef9e72"
"supermarket";"Toko bahan makanan";"Kurnia Jaya Market";"QW47+8VX, Jl. Pd. Baru, Puja Mulia, Kec. Bandar, Kabupaten Bener Meriah, Aceh 24582";"Jl. Pd. Baru, Puja Mulia, Kec. Bandar, Kabupaten Bener Meriah";"ACEH";"24582";"Indonesia";"";"4.7558659";"96.9147333";"https://maps.google.com/?cid=0x0:0xc90523905ab01fc9"
"supermarket";"Toko grosir";"UD Harmonis";"QW37+X3H, Jl. Pd. Baru, Janarata, Kec. Bandar, Kabupaten Bener Meriah, Aceh 24582";"Jl. Pd. Baru, Janarata, Kec. Bandar, Kabupaten Bener Meriah";"ACEH";"24582";"Indonesia";" 081394067538";"4.7549318";"96.9127285";"https://maps.google.com/?cid=0x0:0xbd4cd6d6b5e86bf"
"supermarket";"Pusat Perbelanjaan";"Toko sofia";"QW9C+PXW, Gn. Musara, Kec. Bener Kelipah, Kabupaten Bener Meriah, Aceh 24582";"Gn. Musara, Kec. Bener Kelipah, Kabupaten Bener Meriah";"ACEH";"24582";"Indonesia";"";"4.7693621";"96.9224433";"https://maps.google.com/?cid=0x0:0x684788d284f814c4"
"supermarket";"supermarket";"AFC Bener Meriah";"Arif ponsel, Jl. Pd. Baru, Tawar Sedenge, Kec. Bandar, Kabupaten Bener Meriah, Aceh 24582";"Jl. Pd. Baru, Tawar Sedenge, Kec. Bandar, Kabupaten Bener Meriah";"ACEH";"24582";"Indonesia";" 082223651942";"4.7519494";"96.9132538";"https://maps.google.com/?cid=0x0:0xfa97fd7e49f1e9a0"
"supermarket";"Minimarket";"Indomaret";"Jl. Syiah Utama No.1, Simpang Utama, Kec. Bandar, Kabupaten Bener Meriah, Aceh 24582";"Simpang Utama, Kec. Bandar, Kabupaten Bener Meriah";"ACEH";"24582";"Indonesia";"";"4.7546322";"96.9102767";"https://maps.google.com/?cid=0x0:0x7625b0366c30fcf0"
"supermarket";"Toko bahan makanan";"Yusra market pondok";"QW58+JQ6, Pd. Baru, Kec. Bandar, Kabupaten Bener Meriah, Aceh 24582";"Pd. Baru, Kec. Bandar, Kabupaten Bener Meriah";"ACEH";"24582";"Indonesia";"";"4.7590293";"96.9168884";"https://maps.google.com/?cid=0x0:0xf2faa86d04bcb607"
"supermarket";"Toko bahan makanan";"SimpangLima Grocery Store";"Jl. Tengku Angkasa H Abdullah Ujong Rimba No 20, Kp. Baru, Kec. Baiturrahman, Kota Banda Aceh, Aceh 23242";"Kp. Baru, Kec. Baiturrahman, Kota Banda Aceh";"ACEH";"23242";"Indonesia";" 0811686677";"5.5504966";"95.3167777";"https://maps.google.com/?cid=0x0:0x22361fe0a56c2da4"
"supermarket";"Toko Perlengkapan Rumah";"CK Swalayan";"Blang Sentang, Kec. Bukit, Kabupaten Bener Meriah, Aceh 24581";"Kec. Bukit, Kabupaten Bener Meriah";"ACEH";"24581";"Indonesia";" 081286842763";"4.7149258";"96.8721003";"https://maps.google.com/?cid=0x0:0x8dbc70a3938a5631"
"supermarket";"supermarket";"Aceh";"";"Aceh";"ACEH";"";"Indonesia";"";"4.695135";"96.7493993";"https://maps.google.com/?cid=0x0:0x1039d80b220ca60"
"supermarket";"supermarket";"Bukit Aceh";"21700 Kuala Berang, Trengganu, Malaysia";"Kuala Berang";"ACEH";"21700";"Indonesia";"";"5.1222222";"102.9636111";"https://maps.google.com/?cid=0x0:0x8932954ee11bbab0"
"supermarket";"Toko Perlengkapan Rumah";"Toko ACAK";"Ps. Simpang Tiga, Kec. Bukit, Kabupaten Bener Meriah, Aceh 24582";"Kec. Bukit, Kabupaten Bener Meriah";"ACEH";"24582";"Indonesia";"";"4.7227398";"96.874106";"https://maps.google.com/?cid=0x0:0x676af46bc8d80835"
"supermarket";"Minimarket";"Mini mart";"Jln. Bireun Raya - Takengon / Gajah putih / Ronga ronga, Kabupaten Bener Meriah, Aceh 24553";"Kabupaten Bener Meriah";"ACEH";"24553";"Indonesia";" 082272806542";"4.8165552";"96.7377989";"https://maps.google.com/?cid=0x0:0x572a365adf39dfc8"
"supermarket";"supermarket";"Kec. Gajah Putih";"Kabupaten Bener Meriah, Aceh";"Kabupaten Bener Meriah, Aceh";"ACEH";"";"Indonesia";"";"4.8103413";"96.7371594";"https://maps.google.com/?cid=0x0:0xc34ec80407ef00cb"
"supermarket";"Toko bahan makanan";"Sabar Market";"Jl. Raya Bireuen - Takengon, Reronga, Kec. Gajah Putih, Kabupaten Bener Meriah, Aceh 24553";"Reronga, Kec. Gajah Putih, Kabupaten Bener Meriah";"ACEH";"24553";"Indonesia";" 085313222213";"4.8166659";"96.7375252";"https://maps.google.com/?cid=0x0:0x18105f1208c71064"
"supermarket";"Toko bahan makanan";"Rayyan mart";"QQ72+Q43, Mekar Ayu, Kec. Timang Gajah, Kabupaten Bener Meriah, Aceh 24571";"Mekar Ayu, Kec. Timang Gajah, Kabupaten Bener Meriah";"ACEH";"24571";"Indonesia";" 085296097621";"4.7643963";"96.7502815";"https://maps.google.com/?cid=0x0:0x3f0eb64eb8892c24"
"supermarket";"Toko";"Mutiara tani";"RP2M+56, Timang Gajah, Kec. Gajah Putih, Kabupaten Bener Meriah, Aceh";"Kabupaten Bener Meriah, Aceh";"ACEH";"";"Indonesia";"";"4.8003801";"96.7331265";"https://maps.google.com/?cid=0x0:0xa3569f950c81db49"
"supermarket";"Toko Swalayan";"Lisa Market";"QP73+7J2, Cekal Baru, Kec. Timang Gajah, Kabupaten Bener Meriah, Aceh 24571";"Cekal Baru, Kec. Timang Gajah, Kabupaten Bener Meriah";"ACEH";"24571";"Indonesia";"";"4.7631342";"96.7040228";"https://maps.google.com/?cid=0x0:0x2e2fe4d02ae4102f"
"supermarket";"Toko";"KiosHafiz";"RPCW+QPP, Semberjo A, Reronga, Kec. Gajah Putih, Kabupaten Bener Meriah, Aceh 24571";"Semberjo A, Reronga, Kec. Gajah Putih, Kabupaten Bener Meriah";"ACEH";"24571";"Indonesia";" 082165442345";"4.821968";"96.7468333";"https://maps.google.com/?cid=0x0:0x42004dd66b3d3ce4"
"supermarket";"Toko";"SINAR PHONE STORE";"Jl. Raya Bireuen - Takengon, Reronga, Kec. Gajah Putih, Kabupaten Bener Meriah, Aceh 24571";"Reronga, Kec. Gajah Putih, Kabupaten Bener Meriah";"ACEH";"24571";"Indonesia";"";"4.8159258";"96.7383663";"https://maps.google.com/?cid=0x0:0x37a6cbe2e8d2a8be"
"supermarket";"Toko bahan makanan";"UD.Jaya Elpiji";"QPFR+4MV, Jl. Raya Bireuen - Takengon, Simpang Layang, Kec. Timang Gajah, Kabupaten Bener Meriah, Aceh 24571";"Jl. Raya Bireuen - Takengon, Simpang Layang, Kec. Timang Gajah, Kabupaten Bener Meriah";"ACEH";"24571";"Indonesia";" 082273880004";"4.772857";"96.741667";"https://maps.google.com/?cid=0x0:0x7824071fdb19a7ca"
"supermarket";"Toko";"UD.DEPOT LARIS TOSERBA 24 JAM";"VP3V+JC8, Jl. Raya Bireuen - Takengon, Singah Mulo, Kec. Pintu Rime Gayo, Kabupaten Bener Meriah, Aceh 24571";"Jl. Raya Bireuen - Takengon, Singah Mulo, Kec. Pintu Rime Gayo, Kabupaten Bener Meriah";"ACEH";"24571";"Indonesia";" 085156466226";"4.8540269";"96.7435733";"https://maps.google.com/?cid=0x0:0x7217e39cd6d0efba"
"supermarket";"Minimarket";"Bripoe";"QQ58+FPC, Jl. Raya Bireuen - Takengon, Lampahan, Kec. Timang Gajah, kabupaten ben, Aceh 24571";"Jl. Raya Bireuen - Takengon, Lampahan, Kec. Timang Gajah, kabupaten ben";"ACEH";"24571";"Indonesia";" 085360062222";"4.7586914";"96.7667561";"https://maps.google.com/?cid=0x0:0x1f0e2fd0fc37f74a"
"supermarket";"Toko bahan makanan";"ISCO SETIA";"Lampahan Bar., Kec. Timang Gajah, Kabupaten Bener Meriah, Aceh 24571";"Kec. Timang Gajah, Kabupaten Bener Meriah";"ACEH";"24571";"Indonesia";" 085270700024";"4.7580208";"96.7625349";"https://maps.google.com/?cid=0x0:0xf08cbd453e4306b2"
"supermarket";"Toko";"UD. Nadia";"RP2M+V9X, Timang Gajah, Kec. Gajah Putih, Kabupaten Bener Meriah, Aceh";"Kabupaten Bener Meriah, Aceh";"ACEH";"";"Indonesia";"";"4.8022336";"96.7334826";"https://maps.google.com/?cid=0x0:0xfb3b4967b51999e"
"supermarket";"Toko umum";"UD. Kardi";"Jl. Raya Bireuen - Takengon Desa No.KM 58, Rimba Raya, Kec. Pintu Rime Gayo, Kabupaten Bener Meriah, Aceh 24571";"Rimba Raya, Kec. Pintu Rime Gayo, Kabupaten Bener Meriah";"ACEH";"24571";"Indonesia";"";"4.8422364";"96.7391149";"https://maps.google.com/?cid=0x0:0x658326d06d36fe5e"
"supermarket";"Area Mendaki";"Kebun Gelampabg";"PXHV+X4F, Jl. Cemparam - Gelampang, Mesidah, Bener Meriah, Kec. Mesidah, Kabupaten Bener Meriah, Aceh 24582";"Jl. Cemparam - Gelampang, Mesidah, Bener Meriah, Kec. Mesidah, Kabupaten Bener Meriah";"ACEH";"24582";"Indonesia";" 085262937311";"4.7299377";"96.9928039";"https://maps.google.com/?cid=0x0:0xb086994878effde0"
"supermarket";"supermarket";"Kec. Mesidah";"Kabupaten Bener Meriah, Aceh";"Kabupaten Bener Meriah, Aceh";"ACEH";"";"Indonesia";"";"4.7627916";"97.0109687";"https://maps.google.com/?cid=0x0:0xdf564a5272d2d37b"
"supermarket";"Toko Swalayan";"M M Mufakat Market";"PRF4+5MW, Pante Raya, Kec. Wih Pesam, Kabupaten Bener Meriah, Aceh 24471";"Pante Raya, Kec. Wih Pesam, Kabupaten Bener Meriah";"ACEH";"24471";"Indonesia";"";"4.72299";"96.8067152";"https://maps.google.com/?cid=0x0:0x8fc19d2d2cb94ff9"
"supermarket";"Toko Swalayan";"M M ABD Market";"PRF4+4QR, Pante Raya, Kec. Wih Pesam, Kabupaten Bener Meriah, Aceh 24471";"Pante Raya, Kec. Wih Pesam, Kabupaten Bener Meriah";"ACEH";"24471";"Indonesia";"";"4.7228728";"96.8068792";"https://maps.google.com/?cid=0x0:0x17f6c7d029216d6f"
"supermarket";"Pusat Perbelanjaan";"UD. MA";"QV2W+HWX, Jl. Pd. Baru, Pd. Gajah, Kec. Bandar, Kabupaten Bener Meriah, Aceh 24582";"Jl. Pd. Baru, Pd. Gajah, Kec. Bandar, Kabupaten Bener Meriah";"ACEH";"24582";"Indonesia";" 082277949411";"4.7514767";"96.8973667";"https://maps.google.com/?cid=0x0:0x97ef38a486275251"
"supermarket";"Toko Swalayan";"UD. LANCAR REJEKI";"Jln. Pondok baru-cemparam. Desaselisih, mara, Pondok baru, Aceh 24582";"mara, Pondok baru";"ACEH";"24582";"Indonesia";" 081362656761";"4.7575162";"96.9493657";"https://maps.google.com/?cid=0x0:0xb45bf8b42b777fde"
"supermarket";"Toko bahan makanan";"toko arsindo";"PWXP+QPH, Unnamed Road, Sidodadi, Kec. Bandar, Kabupaten Bener Meriah, Aceh 24582";"Unnamed Road, Sidodadi, Kec. Bandar, Kabupaten Bener Meriah";"ACEH";"24582";"Indonesia";"";"4.7494442";"96.9368555";"https://maps.google.com/?cid=0x0:0x59ec676869553b26"
"supermarket";"Toko Swalayan";"4 Market BM";"Jalan Bireuen-Takengon, Pante Raya Barat, Wih Pesam, Simpang Balek di samping Serba 35 ribu (4 Market BM) (4 Market BM. KAB. BENER MERIAH, WIH PESAM, NANGGROE ACEH DARUSSALAM (NAD, 24591";"Pante Raya Barat, Wih Pesam, Simpang Balek di samping Serba 35 ribu (4 Market BM) (4 Market BM. KAB. BENER MERIAH, WIH PESAM";"ACEH";"24591";"Indonesia";"";"4.7261329";"96.8020214";"https://maps.google.com/?cid=0x0:0x56fb51668dbdd6a0"
"supermarket";"Toko bahan makanan";"CHIARA MARKET";"QW27+28J, Purwosari, Kec. Bandar, Kabupaten Bener Meriah, Aceh 24582";"Purwosari, Kec. Bandar, Kabupaten Bener Meriah";"ACEH";"24582";"Indonesia";" 082231415232";"4.7500986";"96.9132537";"https://maps.google.com/?cid=0x0:0x10cffe84d1b1b677"
"supermarket";"Minimarket";"UD. LINTAS JAYAA";"PWXQ+6R, Sidodadi, Kec. Bandar, Kabupaten Bener Meriah, Aceh";"Kabupaten Bener Meriah, Aceh";"ACEH";"";"Indonesia";"";"4.7480108";"96.9395493";"https://maps.google.com/?cid=0x0:0x48278674db810f8a"
"supermarket";"Minimarket";"Kios Bik Pika";"PWQQ+2R, Tj. Pura, Kec. Bandar, Kabupaten Bener Meriah, Aceh";"Kabupaten Bener Meriah, Aceh";"ACEH";"";"Indonesia";"";"4.7376114";"96.9395982";"https://maps.google.com/?cid=0x0:0x6529f248750b35d2"
"supermarket";"Toko Makanan Alami";"BATAGOR ketibung/lokop";"Pd. Ulung, Kec. Bandar, Kabupaten Bener Meriah, Aceh 24582";"Kec. Bandar, Kabupaten Bener Meriah";"ACEH";"24582";"Indonesia";"";"4.7600284";"96.9329471";"https://maps.google.com/?cid=0x0:0x2ea2793fd92da38f"
"supermarket";"Minimarket";"ENI MARKET";"PQG7+W9H, Jl. Simpang Balik-Blang Mancung, Blang Kucak, Kec. Wih Pesam, Kabupaten Bener Meriah, Aceh 24571";"Jl. Simpang Balik-Blang Mancung, Blang Kucak, Kec. Wih Pesam, Kabupaten Bener Meriah";"ACEH";"24571";"Indonesia";"";"4.7273172";"96.7634874";"https://maps.google.com/?cid=0x0:0x6750a6a5ee19057c"
"supermarket";"Kedai Kopi";"UD.BARONA";"PXQ2+8MF, Petukel Blang Jorong, Kec. Bandar, Kabupaten Bener Meriah, Aceh 24582";"Petukel Blang Jorong, Kec. Bandar, Kabupaten Bener Meriah";"ACEH";"24582";"Indonesia";"";"4.7383041";"96.9516819";"https://maps.google.com/?cid=0x0:0x128f3b546760168c"
"supermarket";"supermarket";"Aceh 24582";"Kabupaten Bener Meriah, Aceh";"Kabupaten Bener Meriah, Aceh";"ACEH";"";"Indonesia";"";"4.733267";"97.0498442";"https://maps.google.com/?cid=0x0:0x24377db9b3ac434d"
"supermarket";"Toko bahan makanan";"Permata Bunda Swalayan";"G7HW+VM9, Lamtemen Bar., Kec. Jaya Baru, Kota Banda Aceh, Aceh 23232";"Lamtemen Bar., Kec. Jaya Baru, Kota Banda Aceh";"ACEH";"23232";"Indonesia";"";"5.5296555";"95.2967297";"https://maps.google.com/?cid=0x0:0x23758e9257a65c03"
"supermarket";"Toko Swalayan";"Permata Market";"Blang Teungoh, Kec. Kuala, Kabupaten Nagan Raya, Aceh 23681";"Kec. Kuala, Kabupaten Nagan Raya";"ACEH";"23681";"Indonesia";" 081360404049";"4.1162385";"96.2976528";"https://maps.google.com/?cid=0x0:0xa44f4386af97855c"
"supermarket";"Toko bahan makanan";"Permata Lingke Mart";"Jl. Teungku Syarif No.19, Jeulingke, Kec. Syiah Kuala, Kota Banda Aceh, Aceh 24415";"Jeulingke, Kec. Syiah Kuala, Kota Banda Aceh";"ACEH";"24415";"Indonesia";"";"5.57497";"95.345736";"https://maps.google.com/?cid=0x0:0x74d6feaad17efc97"
"supermarket";"Toko bahan makanan";"Fahry Mart minimarket";"RW97+9FH, Gelampang, Kec. Permata, Kabupaten Bener Meriah, Aceh 24582";"Gelampang, Kec. Permata, Kabupaten Bener Meriah";"ACEH";"24582";"Indonesia";"";"4.8184287";"96.9137402";"https://maps.google.com/?cid=0x0:0x667eb97de85b5327"
"supermarket";"Toko bahan makanan";"SimpangLima Grocery Store";"Jl. Tengku Angkasa H Abdullah Ujong Rimba No 20, Kp. Baru, Kec. Baiturrahman, Kota Banda Aceh, Aceh 23242";"Kp. Baru, Kec. Baiturrahman, Kota Banda Aceh";"ACEH";"23242";"Indonesia";" 0811686677";"5.5504966";"95.3167777";"https://maps.google.com/?cid=0x0:0x22361fe0a56c2da4"
"supermarket";"Otoritas Perumahan";"Pasar Baru Buntul Kemumu";"RWC7+7H2, Gelampang, Kec. Permata, Kabupaten Bener Meriah, Aceh 24582";"Gelampang, Kec. Permata, Kabupaten Bener Meriah";"ACEH";"24582";"Indonesia";"";"4.8206472";"96.9138864";"https://maps.google.com/?cid=0x0:0xc17d9b3eb02c57bf"
"supermarket";"Toko bahan makanan";"Permata Bunda Mart Lamprit";"H88P+PRQ, Jl. Ayah Gani, Bandar Baru, Kec. Kuta Alam, Kota Banda Aceh, Aceh";"Kota Banda Aceh, Aceh";"ACEH";"";"Indonesia";"";"5.5668346";"95.3371215";"https://maps.google.com/?cid=0x0:0x42809226cff7fb5d"
"supermarket";"Grosir Buah";"Aneka Buah Wardi";"RW97+GGQ, Jl. KKA, Gelampang, Kec. Permata, Kabupaten Bener Meriah, Aceh 24582";"Jl. KKA, Gelampang, Kec. Permata, Kabupaten Bener Meriah";"ACEH";"24582";"Indonesia";" 085361552643";"4.8188401";"96.9138601";"https://maps.google.com/?cid=0x0:0xb55493303a88fc81"
"supermarket";"Kantor Pemerintah";"Jelobok dusun tawar nate";"RXH4+Q83, Jelobok, Kec. Permata, Kabupaten Bener Meriah, Aceh";"Kabupaten Bener Meriah, Aceh";"ACEH";"";"Indonesia";"";"4.8293914";"96.9558073";"https://maps.google.com/?cid=0x0:0x8311e4f205474fab"
"supermarket";"Dapur Umum";"Ud.tamah ara";"RW7J+J9C, Weh Tenang Uken, Kec. Permata, Kabupaten Bener Meriah, Aceh";"Kabupaten Bener Meriah, Aceh";"ACEH";"";"Indonesia";"";"4.8140506";"96.9309059";"https://maps.google.com/?cid=0x0:0xfece611795d1dfaa"
"supermarket";"Toko umum";"Tirta kios";"VW52+8X6, Jl. KKA, Seni Antara, Kec. Permata, Kabupaten Bener Meriah, Aceh";"Kabupaten Bener Meriah, Aceh";"ACEH";"";"Indonesia";"";"4.8582793";"96.9023966";"https://maps.google.com/?cid=0x0:0x2b730f835678f228"
"supermarket";"supermarket";"Kedai Umar Pak Lia";"RWC7+FGM, Gelampang, Kec. Permata, Kabupaten Bener Meriah, Aceh 24582";"Gelampang, Kec. Permata, Kabupaten Bener Meriah";"ACEH";"24582";"Indonesia";"";"4.8212099";"96.9138011";"https://maps.google.com/?cid=0x0:0x5bd52f49a5268503"
"supermarket";"Toko kopi";"Rumah Ujung";"VV8R+36P, Jl. KKA, Seni Antara, Kec. Permata, Kabupaten Bener Meriah, Aceh 24394";"Jl. KKA, Seni Antara, Kec. Permata, Kabupaten Bener Meriah";"ACEH";"24394";"Indonesia";" 082277334422";"4.865207";"96.8905805";"https://maps.google.com/?cid=0x0:0x65a02129405598c9"
"supermarket";"Toko";"UD.DEPOT LARIS TOSERBA 24 JAM";"VP3V+JC8, Jl. Raya Bireuen - Takengon, Singah Mulo, Kec. Pintu Rime Gayo, Kabupaten Bener Meriah, Aceh 24571";"Jl. Raya Bireuen - Takengon, Singah Mulo, Kec. Pintu Rime Gayo, Kabupaten Bener Meriah";"ACEH";"24571";"Indonesia";" 085156466226";"4.8540269";"96.7435733";"https://maps.google.com/?cid=0x0:0x7217e39cd6d0efba"
"supermarket";"supermarket";"Kec. Pintu Rime Gayo";"Kabupaten Bener Meriah, Aceh";"Kabupaten Bener Meriah, Aceh";"ACEH";"";"Indonesia";"";"4.849318";"96.7411267";"https://maps.google.com/?cid=0x0:0x28686d3d13d5dcf5"
"supermarket";"Makanan Siap Saji";"TOKO BINA BARU";"Jln. Bireuen-Takengon Km.45 Belang Rakal, Bener Mulie, Kec. Pintu Rime Gayo, Kabupaten Bener Meriah, Aceh 24571";"Bener Mulie, Kec. Pintu Rime Gayo, Kabupaten Bener Meriah";"ACEH";"24571";"Indonesia";"";"4.9041038";"96.7388875";"https://maps.google.com/?cid=0x0:0x629eaf90103d18cc"
"supermarket";"Toko umum";"UD. Kardi";"Jl. Raya Bireuen - Takengon Desa No.KM 58, Rimba Raya, Kec. Pintu Rime Gayo, Kabupaten Bener Meriah, Aceh 24571";"Rimba Raya, Kec. Pintu Rime Gayo, Kabupaten Bener Meriah";"ACEH";"24571";"Indonesia";"";"4.8422364";"96.7391149";"https://maps.google.com/?cid=0x0:0x658326d06d36fe5e"
"supermarket";"Toko bahan makanan";"Sabar Market";"Jl. Raya Bireuen - Takengon, Reronga, Kec. Gajah Putih, Kabupaten Bener Meriah, Aceh 24553";"Reronga, Kec. Gajah Putih, Kabupaten Bener Meriah";"ACEH";"24553";"Indonesia";" 085313222213";"4.8166659";"96.7375252";"https://maps.google.com/?cid=0x0:0x18105f1208c71064"
"supermarket";"Toko bahan makanan";"UD. RAFLI";"VP2V+X7F, Singah Mulo, Kec. Pintu Rime Gayo, Kabupaten Bener Meriah, Aceh 24571";"Singah Mulo, Kec. Pintu Rime Gayo, Kabupaten Bener Meriah";"ACEH";"24571";"Indonesia";" 082287754973";"4.8510711";"96.7430061";"https://maps.google.com/?cid=0x0:0x5dae14241523a911"
"supermarket";"Toko";"Mirza Ponsel";"RPHV+XR3, Rime Raya, Kec. Pintu Rime Gayo, Kabupaten Bener Meriah, Aceh 24571";"Rime Raya, Kec. Pintu Rime Gayo, Kabupaten Bener Meriah";"ACEH";"24571";"Indonesia";"";"4.8298991";"96.7445517";"https://maps.google.com/?cid=0x0:0x5bc4f9d85fcda667"
"supermarket";"Kantor Perusahaan";"Sp.werlah";"VPVQ+Q54, Alur Cincin, Kec. Pintu Rime Gayo, Kabupaten Bener Meriah, Aceh 24571";"Alur Cincin, Kec. Pintu Rime Gayo, Kabupaten Bener Meriah";"ACEH";"24571";"Indonesia";"";"4.8943863";"96.7379493";"https://maps.google.com/?cid=0x0:0x122054856ea84cc2"
"supermarket";"Toko";"Teuka Baru";"RPXR+M6W, Singah Mulo, Kec. Pintu Rime Gayo, Kabupaten Bener Meriah, Aceh 24571";"Singah Mulo, Kec. Pintu Rime Gayo, Kabupaten Bener Meriah";"ACEH";"24571";"Indonesia";" 081264562942";"4.8492327";"96.740586";"https://maps.google.com/?cid=0x0:0xf6860abe8a4d40ba"
"supermarket";"Kedai Kopi";"Nuris Coffee";"Blang Rakal, Kec. Pintu Rime Gayo, Kabupaten Bener Meriah, Aceh 24553";"Kec. Pintu Rime Gayo, Kabupaten Bener Meriah";"ACEH";"24553";"Indonesia";" 085805141538";"4.9084804";"96.7341008";"https://maps.google.com/?cid=0x0:0x8cd2ee5816a385aa"
"supermarket";"Toko Elektronik";"Aneka Elektronik";"Blang Rakal, Kec. Pintu Rime Gayo, Kabupaten Bener Meriah, Aceh 24571";"Kec. Pintu Rime Gayo, Kabupaten Bener Meriah";"ACEH";"24571";"Indonesia";" 087822318681";"4.9034143";"96.7388305";"https://maps.google.com/?cid=0x0:0x28256329901d87aa"
"supermarket";"Toko umum";"TOKO SEMBAKO SUMBER REZEKI";"RPXR+PFC, Singah Mulo, Kec. Pintu Rime Gayo, Kabupaten Bener Meriah, Aceh";"Kabupaten Bener Meriah, Aceh";"ACEH";"";"Indonesia";"";"4.8495704";"96.7404975";"https://maps.google.com/?cid=0x0:0xeccef62364b55f4a"
"supermarket";"supermarket";"Warung";"WPV5+QJQ, Negeri Antara, Kec. Pintu Rime Gayo, Kabupaten Bener Meriah, Aceh 24264";"Negeri Antara, Kec. Pintu Rime Gayo, Kabupaten Bener Meriah";"ACEH";"24264";"Indonesia";"";"4.943701";"96.7101426";"https://maps.google.com/?cid=0x0:0xc60e6937dc0a7780"
"supermarket";"Toko";"Wimey";"Jl. Raya Bireuen - Takengon No.Km 60, RW.no 501, Rime Raya, Kec. Pintu Rime Gayo, Kabupaten Bener Meriah, Aceh 24553";"RW.no 501, Rime Raya, Kec. Pintu Rime Gayo, Kabupaten Bener Meriah";"ACEH";"24553";"Indonesia";" 081230936333";"4.8374268";"96.7430059";"https://maps.google.com/?cid=0x0:0x37e8d02e11e984ef"
"supermarket";"Pusat Perbelanjaan";"Geubrina Jaya Market Simpang Tiga";"Jl. Pd. Baru No.355, Uring, Kec. Bukit, Kabupaten Bener Meriah, Aceh 24582";"Uring, Kec. Bukit, Kabupaten Bener Meriah";"ACEH";"24582";"Indonesia";"";"4.717986";"96.8715744";"https://maps.google.com/?cid=0x0:0x8236bb5f1f009149"
"supermarket";"supermarket";"Aceh 24582";"Kabupaten Bener Meriah, Aceh";"Kabupaten Bener Meriah, Aceh";"ACEH";"";"Indonesia";"";"4.733267";"97.0498442";"https://maps.google.com/?cid=0x0:0x24377db9b3ac434d"
"supermarket";"Toko bahan makanan";"YUSRA MARKET";"QW47+46R, Unnamed Road, Mutiara, Kec. Bandar, Kabupaten Bener Meriah, Aceh 24582";"Unnamed Road, Mutiara, Kec. Bandar, Kabupaten Bener Meriah";"ACEH";"24582";"Indonesia";" 082239424047";"4.7553717";"96.9130116";"https://maps.google.com/?cid=0x0:0x824b1c685abc96f0"
"supermarket";"Toko bahan makanan";"Darussalam Supermarket";"Jl. Utama Rukoh No.45-C, Kopelma Darussalam, Kec. Syiah Kuala, Kota Banda Aceh, Aceh 24415";"Kopelma Darussalam, Kec. Syiah Kuala, Kota Banda Aceh";"ACEH";"24415";"Indonesia";"";"5.5727133";"95.3635091";"https://maps.google.com/?cid=0x0:0x7ec192104910528b"
"supermarket";"Toko Swalayan";"UD FAISAL";"QW27+W6Q, Puja Mulia, Kec. Bandar, Kabupaten Bener Meriah, Aceh 24582";"Puja Mulia, Kec. Bandar, Kabupaten Bener Meriah";"ACEH";"24582";"Indonesia";"";"4.752347";"96.9131181";"https://maps.google.com/?cid=0x0:0x4ae847604bd895c5"
"supermarket";"Minimarket";"Indomaret";"Jl. Syiah Utama No.1, Simpang Utama, Kec. Bandar, Kabupaten Bener Meriah, Aceh 24582";"Simpang Utama, Kec. Bandar, Kabupaten Bener Meriah";"ACEH";"24582";"Indonesia";"";"4.7546322";"96.9102767";"https://maps.google.com/?cid=0x0:0x7625b0366c30fcf0"
"supermarket";"Toko bahan makanan";"Yusra market pondok";"QW58+JQ6, Pd. Baru, Kec. Bandar, Kabupaten Bener Meriah, Aceh 24582";"Pd. Baru, Kec. Bandar, Kabupaten Bener Meriah";"ACEH";"24582";"Indonesia";"";"4.7590293";"96.9168884";"https://maps.google.com/?cid=0x0:0xf2faa86d04bcb607"
"supermarket";"Toko Sepatu";"BOB Store";"Jl. Blang Juroeng, Kel.Puja Mulia Kec. Bandar. Kab. Bener Meriah Provinsi. Aceh Puja Mulia, Pasar, Pd. Baru, Kec. Bandar, Kabupaten Bener Meriah, Aceh 24582";"Kel.Puja Mulia Kec. Bandar. Kab. Bener Meriah Provinsi. Aceh Puja Mulia, Pasar, Pd. Baru, Kec. Bandar, Kabupaten Bener Meriah";"ACEH";"24582";"Indonesia";" 085668943429";"4.7545626";"96.913156";"https://maps.google.com/?cid=0x0:0x7f9b204c3a1437a3"
"supermarket";"Minimarket";"MARKET BAROKAH";"QW37+88P, Puja Mulia, Kec. Bandar, Kabupaten Bener Meriah, Aceh 24582";"Puja Mulia, Kec. Bandar, Kabupaten Bener Meriah";"ACEH";"24582";"Indonesia";" 082507364834";"4.75334";"96.9133429";"https://maps.google.com/?cid=0x0:0x87039bdf07cbddd0"
"supermarket";"Toko umum";"UD Sumber Rezeki";"PWX7+G6G, Tawar Sedenge, Kec. Bandar, Kabupaten Bener Meriah, Aceh 24582";"Tawar Sedenge, Kec. Bandar, Kabupaten Bener Meriah";"ACEH";"24582";"Indonesia";" 081397222006";"4.7488155";"96.913066";"https://maps.google.com/?cid=0x0:0x93f128c921658912"
"supermarket";"Toko Pakaian";"Madinah store";"Jl. Syiah Utama Jl. Pd. Baru No.920, Pd. Baru, Kec. Bandar, Kabupaten Bener Meriah, Aceh 24582";"Pd. Baru, Kec. Bandar, Kabupaten Bener Meriah";"ACEH";"24582";"Indonesia";"";"4.756136";"96.9157683";"https://maps.google.com/?cid=0x0:0x57e9bb8abac7bbe0"
"supermarket";"Pusat Perbelanjaan";"Ud AZKIA";"Jl. Syiah Utama, Panji Mulia II, Kec. Bukit, Kabupaten Bener Meriah, Aceh 24582";"Panji Mulia II, Kec. Bukit, Kabupaten Bener Meriah";"ACEH";"24582";"Indonesia";" 081310354722";"4.743185";"96.8875912";"https://maps.google.com/?cid=0x0:0x9c4c5f0a115811d6"
"supermarket";"Pusat Perbelanjaan";"UD. MA";"QV2W+HWX, Jl. Pd. Baru, Pd. Gajah, Kec. Bandar, Kabupaten Bener Meriah, Aceh 24582";"Jl. Pd. Baru, Pd. Gajah, Kec. Bandar, Kabupaten Bener Meriah";"ACEH";"24582";"Indonesia";" 082277949411";"4.7514767";"96.8973667";"https://maps.google.com/?cid=0x0:0x97ef38a486275251"
"supermarket";"Toko";"Arbinja Mart";"H2P4+6FH, Wakil Jalil, Kec. Bintang, Kabupaten Aceh Tengah, Aceh 24582";"Wakil Jalil, Kec. Bintang, Kabupaten Aceh Tengah";"ACEH";"24582";"Indonesia";"";"4.5855716";"97.0062275";"https://maps.google.com/?cid=0x0:0x425f657212f2f6af"
"supermarket";"Toko Swalayan";"RITAZA MART";"PQWF+5R8, Mude Benara, Kec. Timang Gajah, Kabupaten Bener Meriah, Aceh 24571";"Mude Benara, Kec. Timang Gajah, Kabupaten Bener Meriah";"ACEH";"24571";"Indonesia";"";"4.7454036";"96.7745887";"https://maps.google.com/?cid=0x0:0x3576000572bf7b35"
"supermarket";"supermarket";"Kec. Timang Gajah";"Kabupaten Bener Meriah, Aceh";"Kabupaten Bener Meriah, Aceh";"ACEH";"";"Indonesia";"";"4.7581426";"96.76263";"https://maps.google.com/?cid=0x0:0x64723af8a148d625"
"supermarket";"Toko bahan makanan";"Aron mart";"QQ58+GH5, Jl. Raya Bireuen - Takengon, Lampahan, Kec. Timang Gajah, Kabupaten Bener Meriah, Aceh 24571";"Jl. Raya Bireuen - Takengon, Lampahan, Kec. Timang Gajah, Kabupaten Bener Meriah";"ACEH";"24571";"Indonesia";" 085266832703";"4.7587671";"96.7664818";"https://maps.google.com/?cid=0x0:0x955b1193281a349c"
"supermarket";"Toko bahan makanan";"ISCO SETIA";"Lampahan Bar., Kec. Timang Gajah, Kabupaten Bener Meriah, Aceh 24571";"Kec. Timang Gajah, Kabupaten Bener Meriah";"ACEH";"24571";"Indonesia";" 085270700024";"4.7580208";"96.7625349";"https://maps.google.com/?cid=0x0:0xf08cbd453e4306b2"
"supermarket";"Toko bahan makanan";"Rayyan mart";"QQ72+Q43, Mekar Ayu, Kec. Timang Gajah, Kabupaten Bener Meriah, Aceh 24571";"Mekar Ayu, Kec. Timang Gajah, Kabupaten Bener Meriah";"ACEH";"24571";"Indonesia";" 085296097621";"4.7643963";"96.7502815";"https://maps.google.com/?cid=0x0:0x3f0eb64eb8892c24"
"supermarket";"Minimarket";"Farel Kemiko";"QQ54+XQ5, Mekar Ayu, Kec. Timang Gajah, Kabupaten Bener Meriah, Aceh 24571";"Mekar Ayu, Kec. Timang Gajah, Kabupaten Bener Meriah";"ACEH";"24571";"Indonesia";"";"4.7598942";"96.7569786";"https://maps.google.com/?cid=0x0:0xaa5b6e6080282d16"
"supermarket";"Toko Swalayan";"Lisa Market";"QP73+7J2, Cekal Baru, Kec. Timang Gajah, Kabupaten Bener Meriah, Aceh 24571";"Cekal Baru, Kec. Timang Gajah, Kabupaten Bener Meriah";"ACEH";"24571";"Indonesia";"";"4.7631342";"96.7040228";"https://maps.google.com/?cid=0x0:0x2e2fe4d02ae4102f"
"supermarket";"Minimarket";"Bripoe";"QQ58+FPC, Jl. Raya Bireuen - Takengon, Lampahan, Kec. Timang Gajah, kabupaten ben, Aceh 24571";"Jl. Raya Bireuen - Takengon, Lampahan, Kec. Timang Gajah, kabupaten ben";"ACEH";"24571";"Indonesia";" 085360062222";"4.7586914";"96.7667561";"https://maps.google.com/?cid=0x0:0x1f0e2fd0fc37f74a"
"supermarket";"Toko bahan makanan";"Toko Amar jaya";"QQ75+7G6, Mekar Ayu, Kec. Timang Gajah, Kabupaten Bener Meriah, Aceh 24571";"Mekar Ayu, Kec. Timang Gajah, Kabupaten Bener Meriah";"ACEH";"24571";"Indonesia";"";"4.7631695";"96.7587673";"https://maps.google.com/?cid=0x0:0xd08b3871ee1a4dd6"
"supermarket";"Minimarket";"Kede mutia sari";"PQRJ+CG8, Jl. Raya Bireuen - Takengon, Damaran Baru, Kec. Timang Gajah, Kabupaten Bener Meriah, Aceh 24561";"Jl. Raya Bireuen - Takengon, Damaran Baru, Kec. Timang Gajah, Kabupaten Bener Meriah";"ACEH";"24561";"Indonesia";"";"4.7410288";"96.7813257";"https://maps.google.com/?cid=0x0:0xfe509a5b0a996a48"
"supermarket";"Toko Perlengkapan Rumah";"Do'a Sehat";"QQ59+65P, Lampahan Tim., Kec. Timang Gajah, Kabupaten Bener Meriah, Aceh 24571";"Lampahan Tim., Kec. Timang Gajah, Kabupaten Bener Meriah";"ACEH";"24571";"Indonesia";"";"4.7581652";"96.7679637";"https://maps.google.com/?cid=0x0:0x43d0425102dc8d78"
"supermarket";"Toko Swalayan";"Zikri";"QQ97+XC6, Dusun 1, Sumber Jaya, Kec. Timang Gajah, Kabupaten Bener Meriah, Aceh 24571";"Dusun 1, Sumber Jaya, Kec. Timang Gajah, Kabupaten Bener Meriah";"ACEH";"24571";"Indonesia";"";"4.7699165";"96.763519";"https://maps.google.com/?cid=0x0:0x9447114da1682b44"
"supermarket";"Toko Swalayan";"UD. Fikra";"Jl. Raya Bireuen - Takengon, Lampahan, Kec. Timang Gajah, Kabupaten Bener Meriah, Aceh 24555";"Lampahan, Kec. Timang Gajah, Kabupaten Bener Meriah";"ACEH";"24555";"Indonesia";" 081296628415";"4.7586875";"96.7668143";"https://maps.google.com/?cid=0x0:0xfe3d373bca9084b6"
"supermarket";"Toko";"Kios wak obet";"QQ86+PGP, Sumber Jaya, Kec. Timang Gajah, Kabupaten Bener Meriah, Aceh 24571";"Sumber Jaya, Kec. Timang Gajah, Kabupaten Bener Meriah";"ACEH";"24571";"Indonesia";"";"4.7668362";"96.761332";"https://maps.google.com/?cid=0x0:0x4c606337fb26496c"
"supermarket";"Toko Swalayan";"M M ABD Market";"PRF4+4QR, Pante Raya, Kec. Wih Pesam, Kabupaten Bener Meriah, Aceh 24471";"Pante Raya, Kec. Wih Pesam, Kabupaten Bener Meriah";"ACEH";"24471";"Indonesia";"";"4.7228728";"96.8068792";"https://maps.google.com/?cid=0x0:0x17f6c7d029216d6f"
"supermarket";"Toko Swalayan";"M M Mufakat Market";"PRF4+5MW, Pante Raya, Kec. Wih Pesam, Kabupaten Bener Meriah, Aceh 24471";"Pante Raya, Kec. Wih Pesam, Kabupaten Bener Meriah";"ACEH";"24471";"Indonesia";"";"4.72299";"96.8067152";"https://maps.google.com/?cid=0x0:0x8fc19d2d2cb94ff9"
"supermarket";"Toko Swalayan";"M M Sultan Market";"PQJW+62R, Bener Mulie, Kec. Wih Pesam, Kabupaten Bener Meriah, Aceh 24471";"Bener Mulie, Kec. Wih Pesam, Kabupaten Bener Meriah";"ACEH";"24471";"Indonesia";"";"4.7306029";"96.7950064";"https://maps.google.com/?cid=0x0:0xc6bf0b8c9c5cbff5"
"supermarket";"Minimarket";"UD. HIDAYAH";"PR48+CQ3, Jamur Ujung, Kec. Wih Pesam, Kabupaten Bener Meriah, Aceh 24471";"Jamur Ujung, Kec. Wih Pesam, Kabupaten Bener Meriah";"ACEH";"24471";"Indonesia";"";"4.705871";"96.8171648";"https://maps.google.com/?cid=0x0:0x3a76fcdd0acf8569"
"supermarket";"Toko Swalayan";"PJ MARKET";"PRF4+6CX, Pante Raya, Kec. Wih Pesam, Kabupaten Bener Meriah, Aceh 24471";"Pante Raya, Kec. Wih Pesam, Kabupaten Bener Meriah";"ACEH";"24471";"Indonesia";"";"4.72308";"96.806146";"https://maps.google.com/?cid=0x0:0x17461cc39c243755"
"supermarket";"Minimarket";"Indomaret";"MRXG+W8Q, Sukarame Atas, Kec. Wih Pesam, Kabupaten Bener Meriah, Aceh 24471";"Sukarame Atas, Kec. Wih Pesam, Kabupaten Bener Meriah";"ACEH";"24471";"Indonesia";"";"4.6997468";"96.8256272";"https://maps.google.com/?cid=0x0:0xbc12fd55f459715c"
"supermarket";"Toko Pertanian";"UD. Bunga Tani";"PPFV+RF8, Blang Paku, Kec. Wih Pesam, Kabupaten Bener Meriah, Aceh 24571";"Blang Paku, Kec. Wih Pesam, Kabupaten Bener Meriah";"ACEH";"24571";"Indonesia";"";"4.7245464";"96.7437142";"https://maps.google.com/?cid=0x0:0xbc70a4166d941b2f"
"supermarket";"Toko Swalayan";"UD FAISAL";"QW27+W6Q, Puja Mulia, Kec. Bandar, Kabupaten Bener Meriah, Aceh 24582";"Puja Mulia, Kec. Bandar, Kabupaten Bener Meriah";"ACEH";"24582";"Indonesia";"";"4.752347";"96.9131181";"https://maps.google.com/?cid=0x0:0x4ae847604bd895c5"
"supermarket";"Minimarket";"Faeyza mart";"QW37+MHV, Puja Mulia, Kec. Bandar, Kabupaten Bener Meriah, Aceh 24582";"Puja Mulia, Kec. Bandar, Kabupaten Bener Meriah";"ACEH";"24582";"Indonesia";" 082276020599";"4.7542312";"96.9139244";"https://maps.google.com/?cid=0x0:0xe10235821aca99fb"
"supermarket";"Minimarket";"Hananan Toserba";"PQHP+Q6V, Kebun Baru, Kec. Wih Pesam, Kabupaten Bener Meriah, Aceh 24561";"Kebun Baru, Kec. Wih Pesam, Kabupaten Bener Meriah";"ACEH";"24561";"Indonesia";" 081262787664";"4.7294778";"96.7855404";"https://maps.google.com/?cid=0x0:0xfc1ba6df12ba6f09"
"supermarket";"Toko";"Toko Cahaya Kampas";"Jalan Raya Bireuën - Takengon Lut Kucak, Bener Mulie, Kec. Wih Pesam, Kabupaten Bener Meriah, Aceh 24580";"Bener Mulie, Kec. Wih Pesam, Kabupaten Bener Meriah";"ACEH";"24580";"Indonesia";" 081264365696";"4.7204371";"96.8075244";"https://maps.google.com/?cid=0x0:0xfca166ac841a2ede"
"supermarket";"Toko bahan makanan";"YUSRA MARKET";"QW47+46R, Unnamed Road, Mutiara, Kec. Bandar, Kabupaten Bener Meriah, Aceh 24582";"Unnamed Road, Mutiara, Kec. Bandar, Kabupaten Bener Meriah";"ACEH";"24582";"Indonesia";" 082239424047";"4.7553717";"96.9130116";"https://maps.google.com/?cid=0x0:0x824b1c685abc96f0"
"supermarket";"Toko bahan makanan";"ISCO SETIA";"Lampahan Bar., Kec. Timang Gajah, Kabupaten Bener Meriah, Aceh 24571";"Kec. Timang Gajah, Kabupaten Bener Meriah";"ACEH";"24571";"Indonesia";" 085270700024";"4.7580208";"96.7625349";"https://maps.google.com/?cid=0x0:0xf08cbd453e4306b2"
"supermarket";"Toko bahan makanan";"Sabar Market";"Jl. Raya Bireuen - Takengon, Reronga, Kec. Gajah Putih, Kabupaten Bener Meriah, Aceh 24553";"Reronga, Kec. Gajah Putih, Kabupaten Bener Meriah";"ACEH";"24553";"Indonesia";" 085313222213";"4.8166659";"96.7375252";"https://maps.google.com/?cid=0x0:0x18105f1208c71064"
