Category;Real Category;Business Name;Address;City;State;Postal Code;Country;Phone;Latitude;Longitude;Map Link
"perumahan";"perumahan";"Banda Aceh";"Kota Banda Aceh, Aceh";"Kota Banda Aceh, Aceh";"ACEH";"";"Indonesia";"";"5.5482904";"95.3237559";"https://maps.google.com/?cid=0x0:0x3039d80b220cb90"
"perumahan";"Komplek perumahan";"Komplek Perumahan Tibang 2";"H8JW+Q33, Tibang, Kec. Syiah Kuala, Kota Banda Aceh, Aceh";"Kota Banda Aceh, Aceh";"ACEH";"";"Indonesia";"";"5.5818821";"95.3451739";"https://maps.google.com/?cid=0x0:0x24e75a36784cada2"
"perumahan";"Komplek perumahan";"Komplek Permata Hijau Residence";"H8JQ+85P, Jl. Delima, Lambaro Skep, Kec. Kuta Alam, Kota Banda Aceh, Aceh 24415";"Jl. Delima, Lambaro Skep, Kec. Kuta Alam, Kota Banda Aceh";"ACEH";"24415";"Indonesia";" 082277488831";"5.5808411";"95.3379403";"https://maps.google.com/?cid=0x0:0x14d43f1ee9245db1"
"perumahan";"Perumahan";"Perumahan Gratama Ateuk Jawo";"G8RF+3RH, Ateuk Jawo, Kec. Baiturrahman, Kota Banda Aceh, Aceh 23116";"Ateuk Jawo, Kec. Baiturrahman, Kota Banda Aceh";"ACEH";"23116";"Indonesia";" 08116831100";"5.540189";"95.3246013";"https://maps.google.com/?cid=0x0:0xaa5321ffe4edac07"
"perumahan";"Komplek perumahan";"PERUMAHAN SAMUDRA INDAH RESIDENCE";"Komplek perumahan samudra indah residence, Jl. Puklat, Meunasah Papeun, Kec. Krueng Barona Jaya, Kabupaten Aceh Besar, Aceh";"Kabupaten Aceh Besar, Aceh";"ACEH";"";"Indonesia";" 082320907278";"5.5632154";"95.3546085";"https://maps.google.com/?cid=0x0:0x575db0b9f9d36a23"
"perumahan";"Komplek perumahan";"green aceh residence";"Jl. Belibis No.40, Ateuk Pahlawan, Kec. Baiturrahman, Kota Banda Aceh, Aceh 23127";"Ateuk Pahlawan, Kec. Baiturrahman, Kota Banda Aceh";"ACEH";"23127";"Indonesia";"";"5.5499803";"95.3274987";"https://maps.google.com/?cid=0x0:0xa7d2016d5cc9b28c"
"perumahan";"Perumahan";"Komplek Daud Mansur";"G8VH+4MC, Lampaloh, Kec. Lueng Bata, Kota Banda Aceh, Aceh 23127";"Lampaloh, Kec. Lueng Bata, Kota Banda Aceh";"ACEH";"23127";"Indonesia";"";"5.5428113";"95.3291488";"https://maps.google.com/?cid=0x0:0x370cc3e036eebcb2"
"perumahan";"Komplek perumahan";"Rumah Yans";"G8QF+PH9, Ateuk Munjeng, Kec. Baiturrahman, Kota Banda Aceh, Aceh 23116";"Ateuk Munjeng, Kec. Baiturrahman, Kota Banda Aceh";"ACEH";"23116";"Indonesia";"";"5.5397633";"95.3239522";"https://maps.google.com/?cid=0x0:0x9a0573c0fca69322"
"perumahan";"Rumah wisata";"Lokasi perumahan";"G8H2+P4F, Lamtemen Bar., Kec. Jaya Baru, Kota Banda Aceh, Aceh 23232";"Lamtemen Bar., Kec. Jaya Baru, Kota Banda Aceh";"ACEH";"23232";"Indonesia";"";"5.5293158";"95.3002995";"https://maps.google.com/?cid=0x0:0x772b32f9b3968f12"
"perumahan";"Pembangunan Perumahan";"Alto Emma Complek";"Jl. Amaliah No.69, Peuniti, Kec. Baiturrahman, Kota Banda Aceh, Aceh 23116";"Peuniti, Kec. Baiturrahman, Kota Banda Aceh";"ACEH";"23116";"Indonesia";" 085277061347";"5.5473785";"95.3222725";"https://maps.google.com/?cid=0x0:0x46d4fe91bb676093"
"perumahan";"Komplek perumahan";"Rumah";"G8QH+83G, Batoh, Kec. Lueng Bata, Kota Banda Aceh, Aceh";"Kota Banda Aceh, Aceh";"ACEH";"";"Indonesia";"";"5.5383149";"95.3277162";"https://maps.google.com/?cid=0x0:0xd038651bc2a2e3fb"
"perumahan";"Komplek perumahan";"MK Residence lll";"H8MR+MP6, Tibang, Kec. Syiah Kuala, Kota Banda Aceh, Aceh";"Kota Banda Aceh, Aceh";"ACEH";"";"Indonesia";"";"5.583191";"95.3418225";"https://maps.google.com/?cid=0x0:0x87ce79f3d57dcc80"
"perumahan";"Perhimpunan Pengembang Perumahan";"Jl. Amaliah No. 99 Peuniti";"Jl. Amaliah Jl. Cut Mutia No.99, Peuniti, Kec. Baiturrahman, Kota Banda Aceh, Aceh 23241";"Peuniti, Kec. Baiturrahman, Kota Banda Aceh";"ACEH";"23241";"Indonesia";"";"5.5450293";"95.3221075";"https://maps.google.com/?cid=0x0:0x4c023dc4e04aab6"
"perumahan";"Komplek perumahan";"MelatiFiveHouse";"G8VC+WVH, Peuniti, Kec. Baiturrahman, Kota Banda Aceh, Aceh 23116";"Peuniti, Kec. Baiturrahman, Kota Banda Aceh";"ACEH";"23116";"Indonesia";"";"5.5448009";"95.3222208";"https://maps.google.com/?cid=0x0:0xe7d2475fa7b16161"
"perumahan";"perumahan";"Banda Aceh";"Kota Banda Aceh, Aceh";"Kota Banda Aceh, Aceh";"ACEH";"";"Indonesia";"";"5.5482904";"95.3237559";"https://maps.google.com/?cid=0x0:0x3039d80b220cb90"
"perumahan";"Pembangunan Perumahan";"Rumah Murah Tanpa DP Banda AcehAceh Besar";"Lorong Sehat No.01, Peuniti, Kec. Baiturrahman, Kota Banda Aceh, Aceh 23241";"Peuniti, Kec. Baiturrahman, Kota Banda Aceh";"ACEH";"23241";"Indonesia";" 085262987114";"5.5463477";"95.3223949";"https://maps.google.com/?cid=0x0:0xd261c0bcea15ed59"
"perumahan";"Komplek perumahan";"Komplek Permata Hijau Residence";"H8JQ+85P, Jl. Delima, Lambaro Skep, Kec. Kuta Alam, Kota Banda Aceh, Aceh 24415";"Jl. Delima, Lambaro Skep, Kec. Kuta Alam, Kota Banda Aceh";"ACEH";"24415";"Indonesia";" 082277488831";"5.5808411";"95.3379403";"https://maps.google.com/?cid=0x0:0x14d43f1ee9245db1"
"perumahan";"Perumahan";"Rumôh TAB";"Jl. T. Pawang Daud No.1E, Panteriek, Kec. Lueng Bata, Kota Banda Aceh, Aceh 23247";"Panteriek, Kec. Lueng Bata, Kota Banda Aceh";"ACEH";"23247";"Indonesia";"";"5.547182";"95.3347797";"https://maps.google.com/?cid=0x0:0x53766134c5b9f364"
"perumahan";"Perumahan";"Perumahan Gratama Ateuk Jawo";"G8RF+3RH, Ateuk Jawo, Kec. Baiturrahman, Kota Banda Aceh, Aceh 23116";"Ateuk Jawo, Kec. Baiturrahman, Kota Banda Aceh";"ACEH";"23116";"Indonesia";" 08116831100";"5.540189";"95.3246013";"https://maps.google.com/?cid=0x0:0xaa5321ffe4edac07"
"perumahan";"Pusat Bisnis";"Bandar Properti";"Jl. Tgk. Direuleung No.3, Ilie, Kec. Ulee Kareng, Kota Banda Aceh, Aceh 23116";"Ilie, Kec. Ulee Kareng, Kota Banda Aceh";"ACEH";"23116";"Indonesia";" 081360195804";"5.543773";"95.3459724";"https://maps.google.com/?cid=0x0:0x78a3713a96dd6dc9"
"perumahan";"Komplek perumahan";"Rumah Ust. M. Ivan Hidayat";"G8VH+V88, Jln Tgk Chik, Lampaloh, Kec. Lueng Bata, Kota Banda Aceh, Aceh 23127";"Jln Tgk Chik, Lampaloh, Kec. Lueng Bata, Kota Banda Aceh";"ACEH";"23127";"Indonesia";"";"5.5446515";"95.3283181";"https://maps.google.com/?cid=0x0:0x7c81d70d74e8a633"
"perumahan";"Komplek perumahan";"PERUMAHAN SAMUDRA INDAH RESIDENCE";"Komplek perumahan samudra indah residence, Jl. Puklat, Meunasah Papeun, Kec. Krueng Barona Jaya, Kabupaten Aceh Besar, Aceh";"Kabupaten Aceh Besar, Aceh";"ACEH";"";"Indonesia";" 082320907278";"5.5632154";"95.3546085";"https://maps.google.com/?cid=0x0:0x575db0b9f9d36a23"
"perumahan";"perumahan";"N/A";"";"";"ACEH";"";"Indonesia";" 081361713624";"5.5611019";"95.3287025";"https://maps.google.com/?cid=0x0:0xac305ebcd6e4ba9a"
"perumahan";"Perhimpunan Pengembang Perumahan";"Samudra Indah lamjabat residence";"G7WW+69M, Jl. Puteh Reu, Gampong Baro, Kec. Meuraxa, Kota Banda Aceh, Aceh";"Kota Banda Aceh, Aceh";"ACEH";"";"Indonesia";"";"5.5459676";"95.2956529";"https://maps.google.com/?cid=0x0:0x49ecc733978ce991"
"perumahan";"Pembangunan Perumahan";"JEUMPET RESIDENCE";"G7CW+866, Unnamed Road, Jeumpet Ajun, Kec. Darul Imarah, Kabupaten Aceh Besar, Aceh 23233";"Unnamed Road, Jeumpet Ajun, Kec. Darul Imarah, Kabupaten Aceh Besar";"ACEH";"23233";"Indonesia";"";"5.5207976";"95.2955014";"https://maps.google.com/?cid=0x0:0x1dae5d257382a77f"
"perumahan";"Gedung Pernikahan";"Hadrah Group Office";"Jl. Tengku Teupin Raya No.04, Kota Baru, Kec. Kuta Alam, Kota Banda Aceh, Aceh";"Kota Banda Aceh, Aceh";"ACEH";"";"Indonesia";" 081336798851";"5.5695095";"95.3430566";"https://maps.google.com/?cid=0x0:0x8be6695145547bd4"
"perumahan";"Pembangunan Perumahan";"Alto Emma Complek";"Jl. Amaliah No.69, Peuniti, Kec. Baiturrahman, Kota Banda Aceh, Aceh 23116";"Peuniti, Kec. Baiturrahman, Kota Banda Aceh";"ACEH";"23116";"Indonesia";" 085277061347";"5.5473785";"95.3222725";"https://maps.google.com/?cid=0x0:0x46d4fe91bb676093"
"perumahan";"Perumahan";"Samudra indah lamdingin residence";"H8HG+6R6, Lamdingin, Kec. Kuta Alam, Kota Banda Aceh, Aceh";"Kota Banda Aceh, Aceh";"ACEH";"";"Indonesia";"";"5.5787447";"95.3261831";"https://maps.google.com/?cid=0x0:0xb480e470e55202e2"
"perumahan";"perumahan";"Banda Aceh";"Kota Banda Aceh, Aceh";"Kota Banda Aceh, Aceh";"ACEH";"";"Indonesia";"";"5.5482904";"95.3237559";"https://maps.google.com/?cid=0x0:0x3039d80b220cb90"
"perumahan";"Kompleks Kondominium";"RUMAH PAK BHABINKAMTIBMAS";"QW27+W6Q, Puja Mulia, Kec. Bandar, Kabupaten Bener Meriah, Aceh 24582";"Puja Mulia, Kec. Bandar, Kabupaten Bener Meriah";"ACEH";"24582";"Indonesia";"";"4.7524025";"96.9133981";"https://maps.google.com/?cid=0x0:0xde68d108d2458ad5"
"perumahan";"Komplek perumahan";"Rumah kita shn Aceh";"QV3W+GCV, Pd. Gajah, Kec. Bandar, Kabupaten Bener Meriah, Aceh 24582";"Pd. Gajah, Kec. Bandar, Kabupaten Bener Meriah";"ACEH";"24582";"Indonesia";"";"4.7538638";"96.8960437";"https://maps.google.com/?cid=0x0:0xf6d0aaeed227340"
"perumahan";"Pembangunan Perumahan";"JEUMPET RESIDENCE";"G7CW+866, Unnamed Road, Jeumpet Ajun, Kec. Darul Imarah, Kabupaten Aceh Besar, Aceh 23233";"Unnamed Road, Jeumpet Ajun, Kec. Darul Imarah, Kabupaten Aceh Besar";"ACEH";"23233";"Indonesia";"";"5.5207976";"95.2955014";"https://maps.google.com/?cid=0x0:0x1dae5d257382a77f"
"perumahan";"Penjaga Rumah";"SS’s House";"Jadi Sepakat, Kec. Bandar, Kabupaten Bener Meriah, Aceh 24582";"Kec. Bandar, Kabupaten Bener Meriah";"ACEH";"24582";"Indonesia";"";"4.7504091";"96.9289845";"https://maps.google.com/?cid=0x0:0x8b4e94df367920d7"
"perumahan";"Rumah Kayu";"Rumah Reje Kampung Simpang Utama";"QW44+5M7, Ds. Nangka, Simpang Utama, Kec. Bandar, Kabupaten Bener Meriah, Aceh 24582";"Ds. Nangka, Simpang Utama, Kec. Bandar, Kabupaten Bener Meriah";"ACEH";"24582";"Indonesia";"";"4.7554006";"96.9066842";"https://maps.google.com/?cid=0x0:0xb9e42843970dc8b"
"perumahan";"Komplek perumahan";"Selamat Rejo";"QX22+G6Q, Selamat Rejo, Kec. Bandar, Kabupaten Bener Meriah, Aceh 24582";"Selamat Rejo, Kec. Bandar, Kabupaten Bener Meriah";"ACEH";"24582";"Indonesia";"";"4.7513449";"96.9506214";"https://maps.google.com/?cid=0x0:0x948dfb482c16cce"
"perumahan";"Pembangunan Perumahan";"Ahmadi (Aman Ita)";"PWR9+FPH, Beranun Teleden, Kec. Bandar, Kabupaten Bener Meriah, Aceh 24582";"Beranun Teleden, Kec. Bandar, Kabupaten Bener Meriah";"ACEH";"24582";"Indonesia";"";"4.7411856";"96.9193687";"https://maps.google.com/?cid=0x0:0xf43954deba4692ab"
"perumahan";"Komplek perumahan";"Hendri Kurniawan";"QQ2M+366, Bandar Lampahan, Banda Aceh, Kabupaten Bener Meriah, Aceh 24571";"Bandar Lampahan, Banda Aceh, Kabupaten Bener Meriah";"ACEH";"24571";"Indonesia";"";"4.7499086";"96.7817647";"https://maps.google.com/?cid=0x0:0xce0bf9684d01dfbd"
"perumahan";"Komplek perumahan";"Menasah almukmi";"PWMJ+F47, Tj. Pura, Kec. Bandar, Kabupaten Bener Meriah, Aceh 24582";"Tj. Pura, Kec. Bandar, Kabupaten Bener Meriah";"ACEH";"24582";"Indonesia";"";"4.7336556";"96.9302997";"https://maps.google.com/?cid=0x0:0x408fb4aac5e95839"
"perumahan";"Komplek perumahan";"Rumah tarii";"QW46+6PR, Pd. Baru, Kec. Bandar, Kabupaten Bener Meriah, Aceh 24582";"Pd. Baru, Kec. Bandar, Kabupaten Bener Meriah";"ACEH";"24582";"Indonesia";"";"4.7556186";"96.9117809";"https://maps.google.com/?cid=0x0:0x63662338cd0cca84"
"perumahan";"Komplek perumahan";"Dream House";"PWX6+5M9, Purwosari, Kec. Bandar, Kabupaten Bener Meriah, Aceh 24582";"Purwosari, Kec. Bandar, Kabupaten Bener Meriah";"ACEH";"24582";"Indonesia";"";"4.7479212";"96.9117313";"https://maps.google.com/?cid=0x0:0x3a6018f17c7df31c"
"perumahan";"Komplek perumahan";"Ahmadi";"PWJ4+VX5, Bukit Wih Ilang, Kec. Bandar, Kabupaten Bener Meriah, Aceh 24582";"Bukit Wih Ilang, Kec. Bandar, Kabupaten Bener Meriah";"ACEH";"24582";"Indonesia";"";"4.7321299";"96.9074977";"https://maps.google.com/?cid=0x0:0xf4041d2dff63b92a"
"perumahan";"perumahan";"Rumah bik ira";"QW37+7JM, Puja Mulia, Kec. Bandar, Kabupaten Bener Meriah, Aceh 24582";"Puja Mulia, Kec. Bandar, Kabupaten Bener Meriah";"ACEH";"24582";"Indonesia";"";"4.7531317";"96.9140585";"https://maps.google.com/?cid=0x0:0x2364781e539853ab"
"perumahan";"perumahan";"Banda Aceh";"Kota Banda Aceh, Aceh";"Kota Banda Aceh, Aceh";"ACEH";"";"Indonesia";"";"5.5482904";"95.3237559";"https://maps.google.com/?cid=0x0:0x3039d80b220cb90"
"perumahan";"Perumahan";"Komplek Daud Mansur";"G8VH+4MC, Lampaloh, Kec. Lueng Bata, Kota Banda Aceh, Aceh 23127";"Lampaloh, Kec. Lueng Bata, Kota Banda Aceh";"ACEH";"23127";"Indonesia";"";"5.5428113";"95.3291488";"https://maps.google.com/?cid=0x0:0x370cc3e036eebcb2"
"perumahan";"Komplek perumahan";"Rumah zyan";"Jl. Alue Blang, Neusu Aceh, Kec. Baiturrahman, Kota Banda Aceh, Aceh";"Kota Banda Aceh, Aceh";"ACEH";"";"Indonesia";"";"5.5376333";"95.317182";"https://maps.google.com/?cid=0x0:0x269ff5454ff9b0d4"
"perumahan";"Pembangunan Perumahan";"Alto Emma Complek";"Jl. Amaliah No.69, Peuniti, Kec. Baiturrahman, Kota Banda Aceh, Aceh 23116";"Peuniti, Kec. Baiturrahman, Kota Banda Aceh";"ACEH";"23116";"Indonesia";" 085277061347";"5.5473785";"95.3222725";"https://maps.google.com/?cid=0x0:0x46d4fe91bb676093"
"perumahan";"Komplek perumahan";"green aceh residence";"Jl. Belibis No.40, Ateuk Pahlawan, Kec. Baiturrahman, Kota Banda Aceh, Aceh 23127";"Ateuk Pahlawan, Kec. Baiturrahman, Kota Banda Aceh";"ACEH";"23127";"Indonesia";"";"5.5499803";"95.3274987";"https://maps.google.com/?cid=0x0:0xa7d2016d5cc9b28c"
"perumahan";"Komplek perumahan";"Rumah";"G8QH+83G, Batoh, Kec. Lueng Bata, Kota Banda Aceh, Aceh";"Kota Banda Aceh, Aceh";"ACEH";"";"Indonesia";"";"5.5383149";"95.3277162";"https://maps.google.com/?cid=0x0:0xd038651bc2a2e3fb"
"perumahan";"Komplek perumahan";"Rumah Yans";"G8QF+PH9, Ateuk Munjeng, Kec. Baiturrahman, Kota Banda Aceh, Aceh 23116";"Ateuk Munjeng, Kec. Baiturrahman, Kota Banda Aceh";"ACEH";"23116";"Indonesia";"";"5.5397633";"95.3239522";"https://maps.google.com/?cid=0x0:0x9a0573c0fca69322"
"perumahan";"Komplek perumahan";"Rumah Kakek";"H82J+CX8, Lamseupeung, Kec. Lueng Bata, Kota Banda Aceh, Aceh 23127";"Lamseupeung, Kec. Lueng Bata, Kota Banda Aceh";"ACEH";"23127";"Indonesia";"";"5.55104";"95.3324592";"https://maps.google.com/?cid=0x0:0xf0dd896373fa0b8b"
"perumahan";"Perhimpunan Pengembang Perumahan";"Jl. Amaliah No. 99 Peuniti";"Jl. Amaliah Jl. Cut Mutia No.99, Peuniti, Kec. Baiturrahman, Kota Banda Aceh, Aceh 23241";"Peuniti, Kec. Baiturrahman, Kota Banda Aceh";"ACEH";"23241";"Indonesia";"";"5.5450293";"95.3221075";"https://maps.google.com/?cid=0x0:0x4c023dc4e04aab6"
"perumahan";"Komplek perumahan";"Rumah Mami";"Jl. Amrin No.4, Ateuk Pahlawan, Kec. Baiturrahman, Kota Banda Aceh, Aceh 23127";"Ateuk Pahlawan, Kec. Baiturrahman, Kota Banda Aceh";"ACEH";"23127";"Indonesia";"";"5.5442751";"95.3265041";"https://maps.google.com/?cid=0x0:0x239fd59cc63a31ca"
"perumahan";"Komplek perumahan";"peukan bada aceh";"G8XF+8G6, Peuniti, Kec. Baiturrahman, Kota Banda Aceh, Aceh";"Kota Banda Aceh, Aceh";"ACEH";"";"Indonesia";"";"5.5482904";"95.3237559";"https://maps.google.com/?cid=0x0:0x4d7d4c0db0ddbeaa"
"perumahan";"Komplek perumahan";"Rumah RAFA";"G8QF+PH9, Ateuk Munjeng, Kec. Baiturrahman, Kota Banda Aceh, Aceh 23116";"Ateuk Munjeng, Kec. Baiturrahman, Kota Banda Aceh";"ACEH";"23116";"Indonesia";"";"5.5398681";"95.3239378";"https://maps.google.com/?cid=0x0:0x204dfe55c1f59dc"
"perumahan";"Pembangunan Perumahan";"JEUMPET RESIDENCE";"G7CW+866, Unnamed Road, Jeumpet Ajun, Kec. Darul Imarah, Kabupaten Aceh Besar, Aceh 23233";"Unnamed Road, Jeumpet Ajun, Kec. Darul Imarah, Kabupaten Aceh Besar";"ACEH";"23233";"Indonesia";"";"5.5207976";"95.2955014";"https://maps.google.com/?cid=0x0:0x1dae5d257382a77f"
"perumahan";"Komplek perumahan";"Rumah Ust. M. Ivan Hidayat";"G8VH+V88, Jln Tgk Chik, Lampaloh, Kec. Lueng Bata, Kota Banda Aceh, Aceh 23127";"Jln Tgk Chik, Lampaloh, Kec. Lueng Bata, Kota Banda Aceh";"ACEH";"23127";"Indonesia";"";"5.5446515";"95.3283181";"https://maps.google.com/?cid=0x0:0x7c81d70d74e8a633"
"perumahan";"perumahan";"Banda Aceh";"Kota Banda Aceh, Aceh";"Kota Banda Aceh, Aceh";"ACEH";"";"Indonesia";"";"5.5482904";"95.3237559";"https://maps.google.com/?cid=0x0:0x3039d80b220cb90"
"perumahan";"Perumahan";"Perumahan Gratama Ateuk Jawo";"G8RF+3RH, Ateuk Jawo, Kec. Baiturrahman, Kota Banda Aceh, Aceh 23116";"Ateuk Jawo, Kec. Baiturrahman, Kota Banda Aceh";"ACEH";"23116";"Indonesia";" 08116831100";"5.540189";"95.3246013";"https://maps.google.com/?cid=0x0:0xaa5321ffe4edac07"
"perumahan";"Komplek perumahan";"PERUMAHAN SAMUDRA INDAH RESIDENCE";"Komplek perumahan samudra indah residence, Jl. Puklat, Meunasah Papeun, Kec. Krueng Barona Jaya, Kabupaten Aceh Besar, Aceh";"Kabupaten Aceh Besar, Aceh";"ACEH";"";"Indonesia";" 082320907278";"5.5632154";"95.3546085";"https://maps.google.com/?cid=0x0:0x575db0b9f9d36a23"
"perumahan";"Komplek perumahan";"Rumah zyan";"Jl. Alue Blang, Neusu Aceh, Kec. Baiturrahman, Kota Banda Aceh, Aceh";"Kota Banda Aceh, Aceh";"ACEH";"";"Indonesia";"";"5.5376333";"95.317182";"https://maps.google.com/?cid=0x0:0x269ff5454ff9b0d4"
"perumahan";"Perhimpunan Pengembang Perumahan";"Samudra Indah lamjabat residence";"G7WW+69M, Jl. Puteh Reu, Gampong Baro, Kec. Meuraxa, Kota Banda Aceh, Aceh";"Kota Banda Aceh, Aceh";"ACEH";"";"Indonesia";"";"5.5459676";"95.2956529";"https://maps.google.com/?cid=0x0:0x49ecc733978ce991"
"perumahan";"Komplek perumahan";"Rumah";"G8QH+83G, Batoh, Kec. Lueng Bata, Kota Banda Aceh, Aceh";"Kota Banda Aceh, Aceh";"ACEH";"";"Indonesia";"";"5.5383149";"95.3277162";"https://maps.google.com/?cid=0x0:0xd038651bc2a2e3fb"
"perumahan";"Komplek perumahan";"Komplek Permata Hijau Residence";"H8JQ+85P, Jl. Delima, Lambaro Skep, Kec. Kuta Alam, Kota Banda Aceh, Aceh 24415";"Jl. Delima, Lambaro Skep, Kec. Kuta Alam, Kota Banda Aceh";"ACEH";"24415";"Indonesia";" 082277488831";"5.5808411";"95.3379403";"https://maps.google.com/?cid=0x0:0x14d43f1ee9245db1"
"perumahan";"Komplek perumahan";"Rumah Kakek";"H82J+CX8, Lamseupeung, Kec. Lueng Bata, Kota Banda Aceh, Aceh 23127";"Lamseupeung, Kec. Lueng Bata, Kota Banda Aceh";"ACEH";"23127";"Indonesia";"";"5.55104";"95.3324592";"https://maps.google.com/?cid=0x0:0xf0dd896373fa0b8b"
"perumahan";"Perumahan";"Komplek Daud Mansur";"G8VH+4MC, Lampaloh, Kec. Lueng Bata, Kota Banda Aceh, Aceh 23127";"Lampaloh, Kec. Lueng Bata, Kota Banda Aceh";"ACEH";"23127";"Indonesia";"";"5.5428113";"95.3291488";"https://maps.google.com/?cid=0x0:0x370cc3e036eebcb2"
"perumahan";"Komplek perumahan";"green aceh residence";"Jl. Belibis No.40, Ateuk Pahlawan, Kec. Baiturrahman, Kota Banda Aceh, Aceh 23127";"Ateuk Pahlawan, Kec. Baiturrahman, Kota Banda Aceh";"ACEH";"23127";"Indonesia";"";"5.5499803";"95.3274987";"https://maps.google.com/?cid=0x0:0xa7d2016d5cc9b28c"
"perumahan";"Komplek perumahan";"Rumah Yans";"G8QF+PH9, Ateuk Munjeng, Kec. Baiturrahman, Kota Banda Aceh, Aceh 23116";"Ateuk Munjeng, Kec. Baiturrahman, Kota Banda Aceh";"ACEH";"23116";"Indonesia";"";"5.5397633";"95.3239522";"https://maps.google.com/?cid=0x0:0x9a0573c0fca69322"
"perumahan";"Komplek perumahan";"Rumah Razzan";"Asrama Keraton Barak 1 no 3, Jl. Sultan Mahmudsyah, Kampung Baru, Baiturrahman, Banda Aceh City, Aceh";"Kota Banda Aceh, Aceh";"ACEH";"";"Indonesia";"";"5.5504551";"95.3195441";"https://maps.google.com/?cid=0x0:0x486441cc69d9b3ba"
"perumahan";"Komplek perumahan";"peukan bada aceh";"G8XF+8G6, Peuniti, Kec. Baiturrahman, Kota Banda Aceh, Aceh";"Kota Banda Aceh, Aceh";"ACEH";"";"Indonesia";"";"5.5482904";"95.3237559";"https://maps.google.com/?cid=0x0:0x4d7d4c0db0ddbeaa"
"perumahan";"Komplek perumahan";"Rumah Mami";"Jl. Amrin No.4, Ateuk Pahlawan, Kec. Baiturrahman, Kota Banda Aceh, Aceh 23127";"Ateuk Pahlawan, Kec. Baiturrahman, Kota Banda Aceh";"ACEH";"23127";"Indonesia";"";"5.5442751";"95.3265041";"https://maps.google.com/?cid=0x0:0x239fd59cc63a31ca"
"perumahan";"perumahan";"Kec. Bener Kelipah";"Kabupaten Bener Meriah, Aceh";"Kabupaten Bener Meriah, Aceh";"ACEH";"";"Indonesia";"";"4.7701481";"96.923098";"https://maps.google.com/?cid=0x0:0x3a7e0c8dc476f1e"
"perumahan";"Rumah Kayu";"Rumah Reje Kampung Simpang Utama";"QW44+5M7, Ds. Nangka, Simpang Utama, Kec. Bandar, Kabupaten Bener Meriah, Aceh 24582";"Ds. Nangka, Simpang Utama, Kec. Bandar, Kabupaten Bener Meriah";"ACEH";"24582";"Indonesia";"";"4.7554006";"96.9066842";"https://maps.google.com/?cid=0x0:0xb9e42843970dc8b"
"perumahan";"Pasar Grosir Sayur";"Dusun pasar";"QWHH+7HG, Bener Kelipah Utara, Kec. Bener Kelipah, Kabupaten Bener Meriah, Aceh 24582";"Bener Kelipah Utara, Kec. Bener Kelipah, Kabupaten Bener Meriah";"ACEH";"24582";"Indonesia";"";"4.7781965";"96.9289642";"https://maps.google.com/?cid=0x0:0x29fa285445fe5aa6"
"perumahan";"Kantor Pemerintahan Daerah";"Bener meriah";"QW35+2WF, Mutiara, Kec. Bandar, Kabupaten Bener Meriah, Aceh 24582";"Mutiara, Kec. Bandar, Kabupaten Bener Meriah";"ACEH";"24582";"Indonesia";"";"4.7525538";"96.9097865";"https://maps.google.com/?cid=0x0:0xed144960765487b9"
"perumahan";"Kompleks Kondominium";"RUMAH PAK BHABINKAMTIBMAS";"QW27+W6Q, Puja Mulia, Kec. Bandar, Kabupaten Bener Meriah, Aceh 24582";"Puja Mulia, Kec. Bandar, Kabupaten Bener Meriah";"ACEH";"24582";"Indonesia";"";"4.7524025";"96.9133981";"https://maps.google.com/?cid=0x0:0xde68d108d2458ad5"
"perumahan";"Komplek perumahan";"Rumah bik itu";"QWHF+8W, Bener Kelipah Utara, Kec. Bener Kelipah, Kabupaten Bener Meriah, Aceh";"Kabupaten Bener Meriah, Aceh";"ACEH";"";"Indonesia";"";"4.7782238";"96.9247518";"https://maps.google.com/?cid=0x0:0x91739ae0a57b82e0"
"perumahan";"Komplek perumahan";"Simpang balik,kebun baru";"QWCH+P29, Bener Kelipah Sel., Kec. Bener Kelipah, Kabupaten Bener Meriah, Aceh 24582";"Bener Kelipah Sel., Kec. Bener Kelipah, Kabupaten Bener Meriah";"ACEH";"24582";"Indonesia";"";"4.7717798";"96.9276224";"https://maps.google.com/?cid=0x0:0x6bd5bc3d138f7ea6"
"perumahan";"Gedung Apartemen";"Rumah Cucu Alm.Mbah Kasiran";"QV4X+7G8, Pd. Gajah, Kec. Bandar, Kabupaten Bener Meriah, Aceh 24582";"Pd. Gajah, Kec. Bandar, Kabupaten Bener Meriah";"ACEH";"24582";"Indonesia";"";"4.7556649";"96.8988384";"https://maps.google.com/?cid=0x0:0x64e8c562bc3bd723"
"perumahan";"Komplek perumahan";"Rumah tarii";"QW46+6PR, Pd. Baru, Kec. Bandar, Kabupaten Bener Meriah, Aceh 24582";"Pd. Baru, Kec. Bandar, Kabupaten Bener Meriah";"ACEH";"24582";"Indonesia";"";"4.7556186";"96.9117809";"https://maps.google.com/?cid=0x0:0x63662338cd0cca84"
"perumahan";"perumahan";"Gerbang utama kampung mutiara";"QW46+4WV, Mutiara, Kec. Bandar, Kabupaten Bener Meriah, Aceh 24519";"Mutiara, Kec. Bandar, Kabupaten Bener Meriah";"ACEH";"24519";"Indonesia";"";"4.7553745";"96.9122838";"https://maps.google.com/?cid=0x0:0xaf573be1a2edce7b"
"perumahan";"Komplek perumahan";"Rumah om meidir";"QWGG+66H, Bener Kelipah Utara, Kec. Bener Kelipah, Kabupaten Bener Meriah, Aceh 24582";"Bener Kelipah Utara, Kec. Bener Kelipah, Kabupaten Bener Meriah";"ACEH";"24582";"Indonesia";"";"4.7755512";"96.9256092";"https://maps.google.com/?cid=0x0:0xdd904e64bac1555e"
"perumahan";"Perhimpunan Pengembang Perumahan";"Nosar baru";"QVPW+43C, Jl. KKA, Nosar Baru, Kec. Bener Kelipah, Kabupaten Bener Meriah, Aceh";"Kabupaten Bener Meriah, Aceh";"ACEH";"";"Indonesia";"";"4.7853096";"96.8951286";"https://maps.google.com/?cid=0x0:0xb650fed9d9148565"
"perumahan";"Komplek perumahan";"Rumah kita shn Aceh";"QV3W+GCV, Pd. Gajah, Kec. Bandar, Kabupaten Bener Meriah, Aceh 24582";"Pd. Gajah, Kec. Bandar, Kabupaten Bener Meriah";"ACEH";"24582";"Indonesia";"";"4.7538638";"96.8960437";"https://maps.google.com/?cid=0x0:0xf6d0aaeed227340"
"perumahan";"Vila";"Hasni";"QWHF+7V, Bener Kelipah Utara, Kec. Bener Kelipah, Kabupaten Bener Meriah, Aceh";"Kabupaten Bener Meriah, Aceh";"ACEH";"";"Indonesia";"";"4.778232";"96.9247235";"https://maps.google.com/?cid=0x0:0xccd5f0ed2d5e79c9"
"perumahan";"perumahan";"Aceh";"";"Aceh";"ACEH";"";"Indonesia";"";"4.695135";"96.7493993";"https://maps.google.com/?cid=0x0:0x1039d80b220ca60"
"perumahan";"Komplek perumahan";"Rumah alfani Amri";"Jl. Takengon Jl. Pd. Baru No.35, Tingkem Bersatu, Kec. Bukit, Kabupaten Bener Meriah, Aceh 24581";"Tingkem Bersatu, Kec. Bukit, Kabupaten Bener Meriah";"ACEH";"24581";"Indonesia";" 082362237011";"4.7096513";"96.8714617";"https://maps.google.com/?cid=0x0:0xcaa8cd2efbff4bbb"
"perumahan";"Inspektur Tempat Tinggal";"Rumah Ku";"PV8G+7MR, Blang Sentang, Kec. Bukit, Kabupaten Bener Meriah, Aceh 24581";"Blang Sentang, Kec. Bukit, Kabupaten Bener Meriah";"ACEH";"24581";"Indonesia";"";"4.7157375";"96.8766406";"https://maps.google.com/?cid=0x0:0xd7a454ebc5534a68"
"perumahan";"Perhimpunan Pengembang Perumahan";"Ivan gayo";"PR3Q+CPM, Jl. Bandara Rembele, Rembele, Kec. Bukit, Kabupaten Bener Meriah, Aceh 24581";"Jl. Bandara Rembele, Rembele, Kec. Bukit, Kabupaten Bener Meriah";"ACEH";"24581";"Indonesia";"";"4.7027664";"96.8390349";"https://maps.google.com/?cid=0x0:0xad26dde46eabbfb9"
"perumahan";"Komplek perumahan";"PERUMAHAN BUKIT SULTAN";"Jl Kapten Dasuki Bakri, Desa No, Cimayang, Kec. Pamijahan, Kabupaten Bogor, Jawa Barat 16810";"Desa No, Cimayang, Kec. Pamijahan, Kabupaten Bogor";"ACEH";"16810";"Indonesia";"";"-6.6020293";"106.6674628";"https://maps.google.com/?cid=0x0:0x6986b54b71122737"
"perumahan";"Komplek perumahan";"Bukit Nanggerang Village";"Jl. Bukit Nanggerang Village, Nanggerang, Kec. Tajur Halang, Kabupaten Bogor, Jawa Barat 16320";"Nanggerang, Kec. Tajur Halang, Kabupaten Bogor";"ACEH";"16320";"Indonesia";" 085719511171";"-6.4653506";"106.7754046";"https://maps.google.com/?cid=0x0:0x35a09ec0c4896751"
"perumahan";"Hotel";"Perum Bukit Cimelati Asri";"Pasawahan, Kec. Cicurug, Kabupaten Sukabumi, Jawa Barat 43359";"Kec. Cicurug, Kabupaten Sukabumi";"ACEH";"43359";"Indonesia";" 085714037982";"-6.7575869";"106.7638174";"https://maps.google.com/?cid=0x0:0x62b7a78f303d1f06"
"perumahan";"Komplek perumahan";"Duta Pakis Residence";"Jl. Cibetung Muara No.2, Putat Nutug, Kec. Ciseeng, Kabupaten Bogor, Jawa Barat 16120";"Putat Nutug, Kec. Ciseeng, Kabupaten Bogor";"ACEH";"16120";"Indonesia";" 081213774800";"-6.4589206";"106.6647751";"https://maps.google.com/?cid=0x0:0x1c86fbdeb1d99683"
"perumahan";"Komplek perumahan";"Bukit Cikujang Residence";"3V7P+PV8, Cibentang, Kec. Gn. Guruh, Kabupaten Sukabumi, Jawa Barat 43156";"Cibentang, Kec. Gn. Guruh, Kabupaten Sukabumi";"ACEH";"43156";"Indonesia";" 081809888414";"-6.9357187";"106.8871893";"https://maps.google.com/?cid=0x0:0x2a86bf635ff1d72d"
"perumahan";"Gedung Apartemen";"Cibungbulang town hill";"Perumahan Jl. Citoh Raya, Cimanggu 2, Kec. Cibungbulang, Kabupaten Bogor, Jawa Barat 16630";"Cimanggu 2, Kec. Cibungbulang, Kabupaten Bogor";"ACEH";"16630";"Indonesia";" 085210333398";"-6.5743299";"106.6657368";"https://maps.google.com/?cid=0x0:0x21555aa9812b6332"
"perumahan";"Komplek perumahan";"Bukit pelangi III";"Kavling Bukit pelangi 3, Jl. Cibogo, Leuwigajah, Kec. Cimahi Sel., Kota Cimahi, Jawa Barat 40532";"Jl. Cibogo, Leuwigajah, Kec. Cimahi Sel., Kota Cimahi";"ACEH";"40532";"Indonesia";" 082117051705";"-6.9113105";"107.5286409";"https://maps.google.com/?cid=0x0:0x74b586a79a0c0b03"
"perumahan";"Pembangunan Perumahan";"Perum Alam Sanggar Indah";"Jl. ASI 2 No.No, Citapen, Kec. Cihampelas, Kabupaten Bandung Barat, Jawa Barat 40562";"Citapen, Kec. Cihampelas, Kabupaten Bandung Barat";"ACEH";"40562";"Indonesia";"";"-6.9445509";"107.4937643";"https://maps.google.com/?cid=0x0:0x27f32b9c990d648b"
"perumahan";"Komplek perumahan";"VINEWOOD CITY";"Jl. Raya Kali CBL, Srijaya, Kec. Tambun Utara, Kabupaten Bekasi, Jawa Barat 17510";"Srijaya, Kec. Tambun Utara, Kabupaten Bekasi";"ACEH";"17510";"Indonesia";" 081211100610";"-6.177233";"107.0728518";"https://maps.google.com/?cid=0x0:0xc49ec79cb9ad0777"
"perumahan";"perumahan";"Kec. Gajah Putih";"Kabupaten Bener Meriah, Aceh";"Kabupaten Bener Meriah, Aceh";"ACEH";"";"Indonesia";"";"4.8103413";"96.7371594";"https://maps.google.com/?cid=0x0:0xc34ec80407ef00cb"
"perumahan";"perumahan";"rumah bg GaLL";"RP8P+F9H, Reronga, Kec. Gajah Putih, Kabupaten Bener Meriah, Aceh 24571";"Reronga, Kec. Gajah Putih, Kabupaten Bener Meriah";"ACEH";"24571";"Indonesia";"";"4.816573";"96.734697";"https://maps.google.com/?cid=0x0:0x4085780216dc18f0"
"perumahan";"Komplek perumahan";"Komplek perumahan";"RP7F+8J, Simpang Rahmat, Kec. Gajah Putih, Kabupaten Bener Meriah, Aceh 24571";"Simpang Rahmat, Kec. Gajah Putih, Kabupaten Bener Meriah";"ACEH";"24571";"Indonesia";"";"4.8131225";"96.7242014";"https://maps.google.com/?cid=0x0:0xdc25f33b2c928429"
"perumahan";"perumahan";"Pito";"QPW5+8PC, Meriah Jaya, Kec. Gajah Putih, Kabupaten Bener Meriah, Aceh 24571";"Meriah Jaya, Kec. Gajah Putih, Kabupaten Bener Meriah";"ACEH";"24571";"Indonesia";"";"4.7958204";"96.7092661";"https://maps.google.com/?cid=0x0:0x92f5d8100d61354a"
"perumahan";"Komplek perumahan";"Rumah saya";"RP7Q+P76 Kantor camat, Reronga, Kec. Gajah Putih, Kabupaten Bener Meriah, Aceh 24571";"Reronga, Kec. Gajah Putih, Kabupaten Bener Meriah";"ACEH";"24571";"Indonesia";"";"4.8142808";"96.7381251";"https://maps.google.com/?cid=0x0:0xd081d3a5f8309a22"
"perumahan";"Komplek perumahan";"Farhann deh";"QP44+8V7, Cekal Baru, Kec. Timang Gajah, Kabupaten Bener Meriah, Aceh 24571";"Cekal Baru, Kec. Timang Gajah, Kabupaten Bener Meriah";"ACEH";"24571";"Indonesia";"";"4.7557879";"96.7071674";"https://maps.google.com/?cid=0x0:0x2ecda0734bc2dd08"
"perumahan";"Komplek perumahan";"Gedokkecamatantimang gajah";"RP2M+RV3, Timang Gajah, Kec. Timang Gajah, Kabupaten Bener Meriah, Aceh";"Kabupaten Bener Meriah, Aceh";"ACEH";"";"Indonesia";"";"4.8020063";"96.7346809";"https://maps.google.com/?cid=0x0:0xc9aa7ef25fcb8e37"
"perumahan";"Komplek perumahan";"Tanah ilang";"RP6P+4R9, Umah Besi, Kec. Gajah Putih, Kabupaten Bener Meriah, Aceh 24571";"Umah Besi, Kec. Gajah Putih, Kabupaten Bener Meriah";"ACEH";"24571";"Indonesia";"";"4.8102883";"96.7371206";"https://maps.google.com/?cid=0x0:0x82b7b5c250138cd"
"perumahan";"perumahan";"DENZ TAYO";"QQ99+4QH, Bukit Mulie, Kec. Timang Gajah, Kabupaten Bener Meriah, Aceh 24571";"Bukit Mulie, Kec. Timang Gajah, Kabupaten Bener Meriah";"ACEH";"24571";"Indonesia";"";"4.7674152";"96.7698701";"https://maps.google.com/?cid=0x0:0x377b8937635235d3"
"perumahan";"Komplek perumahan";"Airo";"QP62+XFH, Cekal Baru, Kec. Timang Gajah, Kabupaten Bener Meriah, Aceh 24571";"Cekal Baru, Kec. Timang Gajah, Kabupaten Bener Meriah";"ACEH";"24571";"Indonesia";"";"4.762445";"96.7012424";"https://maps.google.com/?cid=0x0:0x24307012c313f02c"
"perumahan";"Komplek perumahan";"Rumah";"RP9V+X3G, Reronga, Kec. Gajah Putih, Kabupaten Bener Meriah, Aceh 24571";"Reronga, Kec. Gajah Putih, Kabupaten Bener Meriah";"ACEH";"24571";"Indonesia";"";"4.8199499";"96.7427087";"https://maps.google.com/?cid=0x0:0x1717be5171fb0bd1"
"perumahan";"Komplek perumahan";"Rumah Ismanto";"Jl. Raya Bireuen - Takengon, Blang Rongka, Kec. Timang Gajah, Kabupaten Bener Meriah, Aceh 24571";"Blang Rongka, Kec. Timang Gajah, Kabupaten Bener Meriah";"ACEH";"24571";"Indonesia";" 082295408681";"4.7817421";"96.7379066";"https://maps.google.com/?cid=0x0:0xa6de3ac752985e9f"
"perumahan";"Pembangunan Perumahan";"Gayo setie";"RQ69+77C, Gayo Setie, Kec. Gajah Putih, Kabupaten Bener Meriah, Aceh";"Kabupaten Bener Meriah, Aceh";"ACEH";"";"Indonesia";"";"4.8106861";"96.7681366";"https://maps.google.com/?cid=0x0:0x257193be14257d38"
"perumahan";"Otoritas Perumahan";"Rumah rendy";"RP8H+2PQ, Simpang Rahmat, Kec. Gajah Putih, Kabupaten Bener Meriah, Aceh";"Kabupaten Bener Meriah, Aceh";"ACEH";"";"Indonesia";"";"4.814358";"96.72865";"https://maps.google.com/?cid=0x0:0x812aa2178229639d"
"perumahan";"perumahan";"Kec. Mesidah";"Kabupaten Bener Meriah, Aceh";"Kabupaten Bener Meriah, Aceh";"ACEH";"";"Indonesia";"";"4.7627916";"97.0109687";"https://maps.google.com/?cid=0x0:0xdf564a5272d2d37b"
"perumahan";"Pembangunan Perumahan";"Rumah alea";"Q3QR+X3, Hakim Peteri Pintu, Kec. Mesidah, Kabupaten Bener Meriah, Aceh";"Kabupaten Bener Meriah, Aceh";"ACEH";"";"Indonesia";"";"4.7899644";"97.0901312";"https://maps.google.com/?cid=0x0:0x3639a17be1dc714a"
"perumahan";"perumahan";"Rumah Ilham damai";"Q25R+V9C, Gn. Sayang, Kec. Mesidah, Kabupaten Bener Meriah, Aceh 24582";"Gn. Sayang, Kec. Mesidah, Kabupaten Bener Meriah";"ACEH";"24582";"Indonesia";"";"4.7596837";"97.0408858";"https://maps.google.com/?cid=0x0:0x586d87d6c0c2eaad"
"perumahan";"Perhimpunan Pengembang Perumahan";"Ambia";"QX69+XWX, Cemparam Lama, Kec. Mesidah, Kabupaten Bener Meriah, Aceh 24582";"Cemparam Lama, Kec. Mesidah, Kabupaten Bener Meriah";"ACEH";"24582";"Indonesia";"";"4.7624893";"96.9698519";"https://maps.google.com/?cid=0x0:0x1b28ec6dc75f0b1"
"perumahan";"Komplek perumahan";"Selamat Rejo";"QX22+G6Q, Selamat Rejo, Kec. Bandar, Kabupaten Bener Meriah, Aceh 24582";"Selamat Rejo, Kec. Bandar, Kabupaten Bener Meriah";"ACEH";"24582";"Indonesia";"";"4.7513449";"96.9506214";"https://maps.google.com/?cid=0x0:0x948dfb482c16cce"
"perumahan";"Komplek perumahan";"Rumah Mulya arifin";"Q266+247, Jamur Atu, Kec. Mesidah, Kabupaten Bener Meriah, Aceh 24582";"Jamur Atu, Kec. Mesidah, Kabupaten Bener Meriah";"ACEH";"24582";"Indonesia";"";"4.7600365";"97.0102814";"https://maps.google.com/?cid=0x0:0xd2106aed846f43e5"
"perumahan";"Komplek perumahan";"Rumah alea";"Q4H5+HJC, Simpur, Kec. Mesidah, Kabupaten Bener Meriah, Aceh 24582";"Simpur, Kec. Mesidah, Kabupaten Bener Meriah";"ACEH";"24582";"Indonesia";"";"4.778928";"97.1090215";"https://maps.google.com/?cid=0x0:0xdd6f59ff7d67c6ab"
"perumahan";"Penjaga Rumah";"SS’s House";"Jadi Sepakat, Kec. Bandar, Kabupaten Bener Meriah, Aceh 24582";"Kec. Bandar, Kabupaten Bener Meriah";"ACEH";"24582";"Indonesia";"";"4.7504091";"96.9289845";"https://maps.google.com/?cid=0x0:0x8b4e94df367920d7"
"perumahan";"perumahan";"Rumah nisa";"PXQJ+W9, Hutan Bandar, Kec. Bandar, Kabupaten Bener Meriah, Aceh";"Kabupaten Bener Meriah, Aceh";"ACEH";"";"Indonesia";"";"4.739756";"96.9809361";"https://maps.google.com/?cid=0x0:0x518ad3d58bb98584"
"perumahan";"Komplek perumahan";"Menasah almukmi";"PWMJ+F47, Tj. Pura, Kec. Bandar, Kabupaten Bener Meriah, Aceh 24582";"Tj. Pura, Kec. Bandar, Kabupaten Bener Meriah";"ACEH";"24582";"Indonesia";"";"4.7336556";"96.9302997";"https://maps.google.com/?cid=0x0:0x408fb4aac5e95839"
"perumahan";"Pembangunan Perumahan";"Rumah Zulian";"Q26P+8W2, Gn. Sayang, Kec. Mesidah, Kabupaten Bener Meriah, Aceh 24582";"Gn. Sayang, Kec. Mesidah, Kabupaten Bener Meriah";"ACEH";"24582";"Indonesia";"";"4.760755";"97.0372625";"https://maps.google.com/?cid=0x0:0x4238a43e0246c740"
"perumahan";"Masjid";"Masjid cunda lhokseumawe";"QX53+FQ6, Bintang Musara, Kec. Bandar, Kabupaten Bener Meriah, Aceh 24582";"Bintang Musara, Kec. Bandar, Kabupaten Bener Meriah";"ACEH";"24582";"Indonesia";"";"4.7586547";"96.9543831";"https://maps.google.com/?cid=0x0:0x1012781d71d9759b"
"perumahan";"Kantor Pemerintah";"Puskesmas Mesidah";"P2W6+V4R, Sosial, Kec. Mesidah, Kabupaten Bener Meriah, Aceh 24582";"Sosial, Kec. Mesidah, Kabupaten Bener Meriah";"ACEH";"24582";"Indonesia";"";"4.7472292";"97.0102687";"https://maps.google.com/?cid=0x0:0x815f998eefd550a5"
"perumahan";"perumahan";"Dsn Buntul sara ine";"QX68+FC8, Cemparam Lama, Kec. Mesidah, Kabupaten Bener Meriah, Aceh 24582";"Cemparam Lama, Kec. Mesidah, Kabupaten Bener Meriah";"ACEH";"24582";"Indonesia";"";"4.7611598";"96.9660661";"https://maps.google.com/?cid=0x0:0xd07817591c284c10"
"perumahan";"perumahan";"Aceh 24582";"Kabupaten Bener Meriah, Aceh";"Kabupaten Bener Meriah, Aceh";"ACEH";"";"Indonesia";"";"4.733267";"97.0498442";"https://maps.google.com/?cid=0x0:0x24377db9b3ac434d"
"perumahan";"Perumahan";"Komplek Permata Hijau";"F9Q3+4W5, Jl. Kayee Lee - Peukan Bileue, Ateuk Mon Panah, Kec. Simpang Tiga, Kabupaten Aceh Besar, Aceh 23238";"Jl. Kayee Lee - Peukan Bileue, Ateuk Mon Panah, Kec. Simpang Tiga, Kabupaten Aceh Besar";"ACEH";"23238";"Indonesia";"";"5.487751";"95.3548736";"https://maps.google.com/?cid=0x0:0x6392c9d865fac53e"
"perumahan";"Perumahan";"Perumahan Permata | Bundaran Lambaro";"G945+Q9Q Bundaran, Lambaro, Kec. Ingin Jaya, Kabupaten Aceh Besar, Aceh 23238";"Lambaro, Kec. Ingin Jaya, Kabupaten Aceh Besar";"ACEH";"23238";"Indonesia";"";"5.5069547";"95.3584967";"https://maps.google.com/?cid=0x0:0xeb4c26e6f78fd069"
"perumahan";"Komplek perumahan";"Komplek Permata Hijau Residence";"H8JQ+85P, Jl. Delima, Lambaro Skep, Kec. Kuta Alam, Kota Banda Aceh, Aceh 24415";"Jl. Delima, Lambaro Skep, Kec. Kuta Alam, Kota Banda Aceh";"ACEH";"24415";"Indonesia";" 082277488831";"5.5808411";"95.3379403";"https://maps.google.com/?cid=0x0:0x14d43f1ee9245db1"
"perumahan";"Rumah wisata";"Homestay Permata Bunda";"Hakim Bale Bujang, Kec. Lut Tawar, Kabupaten Aceh Tengah, Aceh";"Kabupaten Aceh Tengah, Aceh";"ACEH";"";"Indonesia";" 082219021191";"4.6155625";"96.8561875";"https://maps.google.com/?cid=0x0:0xeca727528b7728d"
"perumahan";"perumahan";"Kec. Permata";"Kabupaten Bener Meriah, Aceh";"Kabupaten Bener Meriah, Aceh";"ACEH";"";"Indonesia";"";"4.8181695";"96.9137753";"https://maps.google.com/?cid=0x0:0x317ca410d0a23a40"
"perumahan";"Perumahan";"PERUMAHAN PERMATA";"Cot Girek, Kec. Muara Dua, Kota Lhokseumawe, Aceh 24355";"Kec. Muara Dua, Kota Lhokseumawe";"ACEH";"24355";"Indonesia";" 085262209004";"5.1359221";"97.1261174";"https://maps.google.com/?cid=0x0:0x7c40f5f470ce2815"
"perumahan";"Komplek perumahan";"Perumahan Permata Biru";"642F+4CP, Jalan Abdullah bitai Gg. Permata biru, Banda Masen, Kec. Banda Sakti, Kota Lhokseumawe, Aceh";"Kota Lhokseumawe, Aceh";"ACEH";"";"Indonesia";" 08126422678";"5.2003493";"97.1235676";"https://maps.google.com/?cid=0x0:0x2b2ce2c0d17914f"
"perumahan";"Otoritas Perumahan";"Permata, buntul kemumu";"RWC8+MRC, Gelampang, Kec. Permata, Kabupaten Bener Meriah, Aceh 24582";"Gelampang, Kec. Permata, Kabupaten Bener Meriah";"ACEH";"24582";"Indonesia";"";"4.8216788";"96.9170222";"https://maps.google.com/?cid=0x0:0xaae428beb7dcfb92"
"perumahan";"Kantor Pemerintah";"Desa bintang permata";"RW66+75P, Jl. KKA, Bintang Permata, Kec. Permata, Kabupaten Bener Meriah, Aceh 24582";"Jl. KKA, Bintang Permata, Kec. Permata, Kabupaten Bener Meriah";"ACEH";"24582";"Indonesia";"";"4.8107051";"96.9104634";"https://maps.google.com/?cid=0x0:0xb480ccb29eddbd52"
"perumahan";"Komplek perumahan";"Perumahan Permata Biru";"45C5+65M, Jl.Medan-banda Aceh simp.alue raya belakang politeknik lsm.desa, Rayeuk kareung, Kec. Blang Mangat, Kota Lhokseumawe";"Kota Lhokseumawe, Aceh";"ACEH";"";"Indonesia";" 085311739556";"5.1205849";"97.1579187";"https://maps.google.com/?cid=0x0:0xe0a2732480e7237a"
"perumahan";"Pembangunan Perumahan";"Komplek permata";"44RH+X4X, Cot Girek, Kec. Muara Dua, Kota Lhokseumawe, Aceh";"Kota Lhokseumawe, Aceh";"ACEH";"";"Indonesia";"";"5.142479";"97.1278617";"https://maps.google.com/?cid=0x0:0x385bfc635bbf3cd3"
"perumahan";"Komplek perumahan";"Mukti kondisi";"QXR9+7M9, Weh Tenang Tua, Kec. Permata, Kabupaten Bener Meriah, Aceh 24582";"Weh Tenang Tua, Kec. Permata, Kabupaten Bener Meriah";"ACEH";"24582";"Indonesia";"";"4.7906508";"96.969233";"https://maps.google.com/?cid=0x0:0xc8121fb4587b967b"
"perumahan";"Perhimpunan Pengembang Perumahan";"Rumah abdi";"RX9G+RJM, Temas Mumanang, Kec. Permata, Kabupaten Bener Meriah, Aceh 24582";"Temas Mumanang, Kec. Permata, Kabupaten Bener Meriah";"ACEH";"24582";"Indonesia";"";"4.81982";"96.9768307";"https://maps.google.com/?cid=0x0:0xb24d36f7bdb040d3"
"perumahan";"perumahan";"Kec. Pintu Rime Gayo";"Kabupaten Bener Meriah, Aceh";"Kabupaten Bener Meriah, Aceh";"ACEH";"";"Indonesia";"";"4.849318";"96.7411267";"https://maps.google.com/?cid=0x0:0x28686d3d13d5dcf5"
"perumahan";"Pembangunan Perumahan";"Kampong baru";"VP2M+32, Musara Pakat, Kec. Pintu Rime Gayo, Kabupaten Bener Meriah, Aceh";"Kabupaten Bener Meriah, Aceh";"ACEH";"";"Indonesia";"";"4.8502393";"96.7325307";"https://maps.google.com/?cid=0x0:0xae16a6fa55696221"
"perumahan";"Pembangunan Perumahan";"MEUNASAH BLANG BETONA";"RPWG+2X8, Rime Raya, Kec. Pintu Rime Gayo, Kabupaten Bener Meriah, Aceh 24571";"Rime Raya, Kec. Pintu Rime Gayo, Kabupaten Bener Meriah";"ACEH";"24571";"Indonesia";"";"4.8450484";"96.7274393";"https://maps.google.com/?cid=0x0:0x69fa3e4ff3d6bdc4"
"perumahan";"Komplek perumahan";"Riadi kece";"VPGM+F8, Simpang Lancang, Kec. Pintu Rime Gayo, Kabupaten Bener Meriah, Aceh 24571";"Simpang Lancang, Kec. Pintu Rime Gayo, Kabupaten Bener Meriah";"ACEH";"24571";"Indonesia";"";"4.8763117";"96.7332983";"https://maps.google.com/?cid=0x0:0x5b6851c67fb28254"
"perumahan";"Rumah Kayu";"Rumah yeni";"Km 40, Negeri Antara, Kec. Pintu Rime Gayo, Kabupaten Bener Meriah, Aceh";"Kabupaten Bener Meriah, Aceh";"ACEH";"";"Indonesia";"";"4.9403792";"96.7177366";"https://maps.google.com/?cid=0x0:0x259463e169da18a7"
"perumahan";"Komplek perumahan";"Rumah Pak Sat";"WP2W+VFR, Jalan Aman Tan, Blang Rakal, Kec. Pintu Rime Gayo, Kabupaten Bener Meriah, Aceh 24571";"Jalan Aman Tan, Blang Rakal, Kec. Pintu Rime Gayo, Kabupaten Bener Meriah";"ACEH";"24571";"Indonesia";"";"4.9022445";"96.7461429";"https://maps.google.com/?cid=0x0:0x86835bb50ab73430"
"perumahan";"Pembangunan Perumahan";"One piece";"RPJW+FCF, Rime Raya, Kec. Pintu Rime Gayo, Kabupaten Bener Meriah, Aceh 24571";"Rime Raya, Kec. Pintu Rime Gayo, Kabupaten Bener Meriah";"ACEH";"24571";"Indonesia";"";"4.8311848";"96.7460349";"https://maps.google.com/?cid=0x0:0x8e870ff9d2e319f4"
"perumahan";"Pembangunan Perumahan";"Pulo intan";"RQP5+3GR, Pulo Intan, Kec. Pintu Rime Gayo, Kabupaten Bener Meriah, Aceh 24571";"Pulo Intan, Kec. Pintu Rime Gayo, Kabupaten Bener Meriah";"ACEH";"24571";"Indonesia";"";"4.8352431";"96.7587673";"https://maps.google.com/?cid=0x0:0x85faa274c7f0be3f"
"perumahan";"Pembangunan Perumahan";"Sp Sayeung";"WPR8+C8V, Negeri Antara, Kec. Pintu Rime Gayo, Kabupaten Bener Meriah, Aceh 24571";"Negeri Antara, Kec. Pintu Rime Gayo, Kabupaten Bener Meriah";"ACEH";"24571";"Indonesia";"";"4.9420687";"96.716188";"https://maps.google.com/?cid=0x0:0xb00454da7d534a13"
"perumahan";"Komplek perumahan";"Rumah aira";"12, blok C no 7, Taman Firdaus";"Kabupaten Bener Meriah, Aceh";"ACEH";"";"Indonesia";"";"4.8722946";"96.7895574";"https://maps.google.com/?cid=0x0:0xe0ea94e94d374465"
"perumahan";"Perumahan";"PT seuben";"Jl. Raya Bireuen - Takengon No.KM 36, Negeri Antara, Kec. Pintu Rime Gayo, Kabupaten Bener Meriah, Aceh 24264";"Negeri Antara, Kec. Pintu Rime Gayo, Kabupaten Bener Meriah";"ACEH";"24264";"Indonesia";"";"4.9549024";"96.7024103";"https://maps.google.com/?cid=0x0:0x19ac86263edb7e63"
"perumahan";"Pembangunan Perumahan";"Perkuburan umum";"VQQ6+H9M, Bintang Berangun, Kec. Pintu Rime Gayo, Kabupaten Bener Meriah, Aceh 24571";"Bintang Berangun, Kec. Pintu Rime Gayo, Kabupaten Bener Meriah";"ACEH";"24571";"Indonesia";"";"4.8889602";"96.7609108";"https://maps.google.com/?cid=0x0:0x51372e858a9b3b61"
"perumahan";"Rumah Kayu";"Rumah kakek";"Km40, Negeri Antara";"Kabupaten Bener Meriah, Aceh";"ACEH";"";"Indonesia";"";"4.9323381";"96.7172907";"https://maps.google.com/?cid=0x0:0x737c8dc9568c6370"
"perumahan";"Pembangunan Perumahan";"Marlina";"WPR7+RHV, Negeri Antara, Kec. Pintu Rime Gayo, Kabupaten Bener Meriah, Aceh 24571";"Negeri Antara, Kec. Pintu Rime Gayo, Kabupaten Bener Meriah";"ACEH";"24571";"Indonesia";"";"4.942027";"96.713907";"https://maps.google.com/?cid=0x0:0x1b039c0605723623"
"perumahan";"perumahan";"Aceh 24582";"Kabupaten Bener Meriah, Aceh";"Kabupaten Bener Meriah, Aceh";"ACEH";"";"Indonesia";"";"4.733267";"97.0498442";"https://maps.google.com/?cid=0x0:0x24377db9b3ac434d"
"perumahan";"Rumah Kayu";"Rumah Reje Kampung Simpang Utama";"QW44+5M7, Ds. Nangka, Simpang Utama, Kec. Bandar, Kabupaten Bener Meriah, Aceh 24582";"Ds. Nangka, Simpang Utama, Kec. Bandar, Kabupaten Bener Meriah";"ACEH";"24582";"Indonesia";"";"4.7554006";"96.9066842";"https://maps.google.com/?cid=0x0:0xb9e42843970dc8b"
"perumahan";"Kantor Pemerintah";"Kejurun Syiah utama";"HXF2+25P, Kejurun Syiah Utama, Kec. Bintang, Kabupaten Aceh Tengah, Aceh";"Kabupaten Aceh Tengah, Aceh";"ACEH";"";"Indonesia";"";"4.5725974";"96.9504378";"https://maps.google.com/?cid=0x0:0x576edea1575a665"
"perumahan";"Komplek perumahan";"Rumah Arumi";"PVVJ+XR4, Panji Mulia I, Kec. Bukit, Kabupaten Bener Meriah, Aceh 24582";"Panji Mulia I, Kec. Bukit, Kabupaten Bener Meriah";"ACEH";"24582";"Indonesia";"";"4.7448938";"96.8820826";"https://maps.google.com/?cid=0x0:0x7c21b69fe9ca75b"
"perumahan";"Komplek perumahan";"Tami";"Jl. Syiah Utama No. 92, Pondok Baru Desa Mutiara, Janarata, Kec. Bandar, Kabupaten Bener Meriah, Aceh 24582";"Pondok Baru Desa Mutiara, Janarata, Kec. Bandar, Kabupaten Bener Meriah";"ACEH";"24582";"Indonesia";"";"4.8043742";"96.9658745";"https://maps.google.com/?cid=0x0:0x12003acd4fddc381"
"perumahan";"Komplek perumahan";"Rumah MAHDI lane";"M6C6+RF2, Blang Panu, Kec. Syiah Utama, Kabupaten Bener Meriah, Aceh 24582";"Blang Panu, Kec. Syiah Utama, Kabupaten Bener Meriah";"ACEH";"24582";"Indonesia";"";"4.6712365";"97.2111468";"https://maps.google.com/?cid=0x0:0x8f9886f80ad229c5"
"perumahan";"Komplek perumahan";"Petukel Blang jorong";"PWRV+8F5, Petukel Blang Jorong, Kec. Bandar, Kabupaten Bener Meriah, Aceh 24582";"Petukel Blang Jorong, Kec. Bandar, Kabupaten Bener Meriah";"ACEH";"24582";"Indonesia";"";"4.7407638";"96.9437266";"https://maps.google.com/?cid=0x0:0x1eb29b5ca4e41c93"
"perumahan";"Penjaga Rumah";"SS’s House";"Jadi Sepakat, Kec. Bandar, Kabupaten Bener Meriah, Aceh 24582";"Kec. Bandar, Kabupaten Bener Meriah";"ACEH";"24582";"Indonesia";"";"4.7504091";"96.9289845";"https://maps.google.com/?cid=0x0:0x8b4e94df367920d7"
"perumahan";"Komplek perumahan";"Rumah tarii";"QW46+6PR, Pd. Baru, Kec. Bandar, Kabupaten Bener Meriah, Aceh 24582";"Pd. Baru, Kec. Bandar, Kabupaten Bener Meriah";"ACEH";"24582";"Indonesia";"";"4.7556186";"96.9117809";"https://maps.google.com/?cid=0x0:0x63662338cd0cca84"
"perumahan";"Komplek perumahan";"Selamat Rejo";"QX22+G6Q, Selamat Rejo, Kec. Bandar, Kabupaten Bener Meriah, Aceh 24582";"Selamat Rejo, Kec. Bandar, Kabupaten Bener Meriah";"ACEH";"24582";"Indonesia";"";"4.7513449";"96.9506214";"https://maps.google.com/?cid=0x0:0x948dfb482c16cce"
"perumahan";"Kompleks Kondominium";"RUMAH PAK BHABINKAMTIBMAS";"QW27+W6Q, Puja Mulia, Kec. Bandar, Kabupaten Bener Meriah, Aceh 24582";"Puja Mulia, Kec. Bandar, Kabupaten Bener Meriah";"ACEH";"24582";"Indonesia";"";"4.7524025";"96.9133981";"https://maps.google.com/?cid=0x0:0xde68d108d2458ad5"
"perumahan";"Pembangunan Perumahan";"Beluh ulak";"Q4FW+WP, Rusip, Kec. Syiah Utama, Kabupaten Bener Meriah, Aceh 24582";"Rusip, Kec. Syiah Utama, Kabupaten Bener Meriah";"ACEH";"24582";"Indonesia";"";"4.7748205";"97.1468069";"https://maps.google.com/?cid=0x0:0x29d3723d80757a2b"
"perumahan";"Komplek perumahan";"Bahgie Bertona,Bener Meriah,Aceh";"QW59+5G5, Jl. Syiah Utama No.Desa, Bahgie Bertona, Kec. Bandar, Kabupaten Bener Meriah, Aceh 24582";"Jl. Syiah Utama No.Desa, Bahgie Bertona, Kec. Bandar, Kabupaten Bener Meriah";"ACEH";"24582";"Indonesia";"";"4.7567125";"96.9184732";"https://maps.google.com/?cid=0x0:0x40ba6c5efaaa9c20"
"perumahan";"Komplek perumahan";"Rumah saumi";"RWCP+PRR, Weh Tenang Uken, Kec. Permata, Kabupaten Bener Meriah, Aceh";"Kabupaten Bener Meriah, Aceh";"ACEH";"";"Indonesia";"";"4.8218601";"96.937016";"https://maps.google.com/?cid=0x0:0x27a7ae44d1554a8d"
"perumahan";"perumahan";"Kec. Timang Gajah";"Kabupaten Bener Meriah, Aceh";"Kabupaten Bener Meriah, Aceh";"ACEH";"";"Indonesia";"";"4.7581426";"96.76263";"https://maps.google.com/?cid=0x0:0x64723af8a148d625"
"perumahan";"Komplek perumahan";"Farhann deh";"QP44+8V7, Cekal Baru, Kec. Timang Gajah, Kabupaten Bener Meriah, Aceh 24571";"Cekal Baru, Kec. Timang Gajah, Kabupaten Bener Meriah";"ACEH";"24571";"Indonesia";"";"4.7557879";"96.7071674";"https://maps.google.com/?cid=0x0:0x2ecda0734bc2dd08"
"perumahan";"Komplek perumahan";"Gedokkecamatantimang gajah";"RP2M+RV3, Timang Gajah, Kec. Timang Gajah, Kabupaten Bener Meriah, Aceh";"Kabupaten Bener Meriah, Aceh";"ACEH";"";"Indonesia";"";"4.8020063";"96.7346809";"https://maps.google.com/?cid=0x0:0xc9aa7ef25fcb8e37"
"perumahan";"Komplek perumahan";"Kenine";"PQRP+MXH, Kenine, Kec. Timang Gajah, Kabupaten Bener Meriah, Aceh 24561";"Kenine, Kec. Timang Gajah, Kabupaten Bener Meriah";"ACEH";"24561";"Indonesia";"";"4.7416878";"96.7874902";"https://maps.google.com/?cid=0x0:0x40951d4a0a65b36c"
"perumahan";"Kantor Perusahaan";"Kampung Damaran Baru kec.timang gajah kab. Bener meriah - aceh";"PQWR+W9, Damaran Baru, Kec. Timang Gajah, Kabupaten Bener Meriah, Aceh";"Kabupaten Bener Meriah, Aceh";"ACEH";"";"Indonesia";"";"4.747349";"96.790894";"https://maps.google.com/?cid=0x0:0xb70968f9ec799092"
"perumahan";"Pembangunan Perumahan";"Rumah bulek jawa";"Karang Jadi, Kec. Timang Gajah, Kabupaten Bener Meriah, Aceh";"Kabupaten Bener Meriah, Aceh";"ACEH";"";"Indonesia";"";"4.7529666";"96.7741027";"https://maps.google.com/?cid=0x0:0xf07008ebfb633266"
"perumahan";"Pembangunan Perumahan";"Rumah Siska Riana";"QQ87+C53, Suka Damai, Timang Gajah, Bener Meriah, Suka Damai, Kabupaten Aceh Tengah, Aceh";"Kabupaten Aceh Tengah, Aceh";"ACEH";"";"Indonesia";"";"4.7660141";"96.7629107";"https://maps.google.com/?cid=0x0:0x80c61535495a269d"
"perumahan";"Komplek perumahan";"Airo";"QP62+XFH, Cekal Baru, Kec. Timang Gajah, Kabupaten Bener Meriah, Aceh 24571";"Cekal Baru, Kec. Timang Gajah, Kabupaten Bener Meriah";"ACEH";"24571";"Indonesia";"";"4.762445";"96.7012424";"https://maps.google.com/?cid=0x0:0x24307012c313f02c"
"perumahan";"Komplek perumahan";"Rumah Rizki";"QQ6F+CMM, Lampahan, Kec. Timang Gajah, Kabupaten Bener Meriah, Aceh";"Kabupaten Bener Meriah, Aceh";"ACEH";"";"Indonesia";"";"4.7620663";"96.7732584";"https://maps.google.com/?cid=0x0:0xccc16cb90d70d3c9"
"perumahan";"Perhimpunan Pengembang Perumahan";"Rumah Sapto Agus Pramono";"QQ3C+PJF, Karang Jadi, Kec. Timang Gajah, Kabupaten Bener Meriah, Aceh 24571";"Karang Jadi, Kec. Timang Gajah, Kabupaten Bener Meriah";"ACEH";"24571";"Indonesia";"";"4.7535514";"96.771537";"https://maps.google.com/?cid=0x0:0xb7ea1ae08d60ada9"
"perumahan";"Komplek perumahan";"Rumah Ismanto";"Jl. Raya Bireuen - Takengon, Blang Rongka, Kec. Timang Gajah, Kabupaten Bener Meriah, Aceh 24571";"Blang Rongka, Kec. Timang Gajah, Kabupaten Bener Meriah";"ACEH";"24571";"Indonesia";" 082295408681";"4.7817421";"96.7379066";"https://maps.google.com/?cid=0x0:0xa6de3ac752985e9f"
"perumahan";"Perhimpunan Pengembang Perumahan";"RUMAH ERICK";"QQ3F+79V, Karang Jadi, Kec. Timang Gajah, Kabupaten Bener Meriah, Aceh 24571";"Karang Jadi, Kec. Timang Gajah, Kabupaten Bener Meriah";"ACEH";"24571";"Indonesia";"";"4.7532334";"96.7734242";"https://maps.google.com/?cid=0x0:0x26f3619aef1d392a"
"perumahan";"Komplek perumahan";"Abdussalam";"QQ64+9RF, Jl. Raya Bireuen - Takengon, Mekar Ayu, Kec. Timang Gajah, Kabupaten Bener Meriah, Aceh 24571";"Jl. Raya Bireuen - Takengon, Mekar Ayu, Kec. Timang Gajah, Kabupaten Bener Meriah";"ACEH";"24571";"Indonesia";"";"4.7605377";"96.7571634";"https://maps.google.com/?cid=0x0:0x8eaeff5fac891ce"
"perumahan";"perumahan";"𝚁𝚄𝙼𝙰𝙷 𝙰𝚉𝚁𝙸𝙻";"QQ6C+85, Lampahan, Kec. Timang Gajah, Kabupaten Bener Meriah, Aceh 24571";"Lampahan, Kec. Timang Gajah, Kabupaten Bener Meriah";"ACEH";"24571";"Indonesia";"";"4.760847";"96.770477";"https://maps.google.com/?cid=0x0:0x8e5f43a8db9d7d6d"
"perumahan";"Komplek perumahan";"RUMAH SAYA";"PQHW+FGP, Simpang Balek, Kec. Wih Pesam, Kabupaten Bener Meriah, Aceh";"Kabupaten Bener Meriah, Aceh";"ACEH";"";"Indonesia";"";"4.7287107";"96.7963333";"https://maps.google.com/?cid=0x0:0xadfaae558797bc47"
"perumahan";"perumahan";"Kec. Wih Pesam";"Kabupaten Bener Meriah, Aceh";"Kabupaten Bener Meriah, Aceh";"ACEH";"";"Indonesia";"";"4.7226414";"96.8075443";"https://maps.google.com/?cid=0x0:0x12bccf5d1e0778eb"
"perumahan";"perumahan";"Kp. Wih Pesam";"PRH7+RQ9, Wih Pesam, Kec. Wih Pesam, Kabupaten Bener Meriah, Aceh";"Kabupaten Bener Meriah, Aceh";"ACEH";"";"Indonesia";"";"4.7295457";"96.8144829";"https://maps.google.com/?cid=0x0:0x970322f749442efb"
"perumahan";"Komplek perumahan";"Perumahan PARAMA SATWIKA RESIDENCE";"PRC9+C6J, Wonosobo, Kec. Wih Pesam, Kabupaten Bener Meriah, Aceh";"Kabupaten Bener Meriah, Aceh";"ACEH";"";"Indonesia";"";"4.7210809";"96.8180078";"https://maps.google.com/?cid=0x0:0x6c7c86df6913bc0e"
"perumahan";"Komplek perumahan";"Perumahan POLRI Bener Meriah";"PRMG+54M, Wih Pesam, Kec. Wih Pesam, Kabupaten Bener Meriah, Aceh 24582";"Wih Pesam, Kec. Wih Pesam, Kabupaten Bener Meriah";"ACEH";"24582";"Indonesia";"";"4.7329546";"96.8253023";"https://maps.google.com/?cid=0x0:0xad684eb53325e082"
"perumahan";"Perhimpunan Pengembang Perumahan";"Lorong Al Hidayah";"PRF5+MRP, lorong al hidayah, Pante Raya, Kec. Wih Pesam, Kabupaten Bener Meriah, Aceh";"Kabupaten Bener Meriah, Aceh";"ACEH";"";"Indonesia";"";"4.7242193";"96.8095886";"https://maps.google.com/?cid=0x0:0x363144aff3e127af"
"perumahan";"Pembangunan Perumahan";"STELLA RESIDENCE";"PRH8+GR, Wih Pesam, Kec. Wih Pesam, Kabupaten Bener Meriah, Aceh";"Kabupaten Bener Meriah, Aceh";"ACEH";"";"Indonesia";"";"4.7287703";"96.8171021";"https://maps.google.com/?cid=0x0:0xb57c6b87aa6db52"
"perumahan";"Komplek perumahan";"Rumah bg yan";"PQGV+F54, Kebun Baru, Kec. Wih Pesam, Kabupaten Bener Meriah, Aceh 24471";"Kebun Baru, Kec. Wih Pesam, Kabupaten Bener Meriah";"ACEH";"24471";"Indonesia";"";"4.7253938";"96.7926595";"https://maps.google.com/?cid=0x0:0x662010805074e89f"
"perumahan";"Perhimpunan Pengembang Perumahan";"KR";"PR93+VMG, Jl. Pante Raya, Lut Kucak, Kec. Wih Pesam, Kabupaten Bener Meriah, Aceh 24471";"Jl. Pante Raya, Lut Kucak, Kec. Wih Pesam, Kabupaten Bener Meriah";"ACEH";"24471";"Indonesia";" 085373792768";"4.7200885";"96.8037771";"https://maps.google.com/?cid=0x0:0x48fc40d0fcd4806a"
"perumahan";"Komplek perumahan";"An-Nisa Mansion Bener Meriah";"Kebun Baru, Kec. Wih Pesam, Kabupaten Bener Meriah, Aceh 24561";"Kec. Wih Pesam, Kabupaten Bener Meriah";"ACEH";"24561";"Indonesia";" 081212117529";"4.7257084";"96.7903518";"https://maps.google.com/?cid=0x0:0xd0c39bbbf183d40b"
"perumahan";"Komplek perumahan";"Rumah Pasys";"PRH8+CWP, Wih Pesam, Kec. Wih Pesam, Kabupaten Bener Meriah, Aceh";"Kabupaten Bener Meriah, Aceh";"ACEH";"";"Indonesia";"";"4.7285958";"96.8173377";"https://maps.google.com/?cid=0x0:0x6524ab33137d69bf"
"perumahan";"Komplek perumahan";"rumah syima";"PR36+GC, Syura Jadi, Kec. Wih Pesam, Kabupaten Bener Meriah, Aceh";"Kabupaten Bener Meriah, Aceh";"ACEH";"";"Indonesia";"";"4.7038027";"96.8111419";"https://maps.google.com/?cid=0x0:0xe1057b939183f752"
"perumahan";"Kantor Pemerintah";"Pante raya";"PRF4+V3H, Pante Raya, Kec. Wih Pesam, Kabupaten Bener Meriah, Aceh 24471";"Pante Raya, Kec. Wih Pesam, Kabupaten Bener Meriah";"ACEH";"24471";"Indonesia";"";"4.7246877";"96.8052207";"https://maps.google.com/?cid=0x0:0x500232b21c67cd7a"
"perumahan";"Pembangunan Perumahan";"Abeng Bambang Setiyadi";"PQG3+5PG, Jl. Simpang Balik-Blang Mancung, Blang Benara, Kec. Wih Pesam, Kabupaten Bener Meriah, Aceh 24571";"Jl. Simpang Balik-Blang Mancung, Blang Benara, Kec. Wih Pesam, Kabupaten Bener Meriah";"ACEH";"24571";"Indonesia";"";"4.7254627";"96.7540967";"https://maps.google.com/?cid=0x0:0xb02de0b2ed807422"
"housing complex";"housing complex";"Banda Aceh";"Kota Banda Aceh, Aceh";"Kota Banda Aceh, Aceh";"ACEH";"";"Indonesia";"";"5.5482904";"95.3237559";"https://maps.google.com/?cid=0x0:0x3039d80b220cb90"
"housing complex";"Pembangunan Perumahan";"LAMTEUMEN RESIDENCE type 50 (360jt)";"G8Q2+FFW, Lamtemen Tim., Kec. Jaya Baru, Kota Banda Aceh, Aceh 23232";"Lamtemen Tim., Kec. Jaya Baru, Kota Banda Aceh";"ACEH";"23232";"Indonesia";" 085311869356";"5.5387311";"95.3011919";"https://maps.google.com/?cid=0x0:0xeabc4af083fded53"
"housing complex";"Pembangunan Perumahan";"JEUMPET RESIDENCE";"G7CW+866, Unnamed Road, Jeumpet Ajun, Kec. Darul Imarah, Kabupaten Aceh Besar, Aceh 23233";"Unnamed Road, Jeumpet Ajun, Kec. Darul Imarah, Kabupaten Aceh Besar";"ACEH";"23233";"Indonesia";"";"5.5207976";"95.2955014";"https://maps.google.com/?cid=0x0:0x1dae5d257382a77f"
"housing complex";"Apartemen sewa liburan";"SUMAN RESIDENCE";"Jl. Kayee Adang Utama, Lamgugob, Kec. Syiah Kuala, Kota Banda Aceh, Aceh 23115";"Lamgugob, Kec. Syiah Kuala, Kota Banda Aceh";"ACEH";"23115";"Indonesia";" 082211040701";"5.5724758";"95.3556079";"https://maps.google.com/?cid=0x0:0x1fca56db1acd3a7c"
"housing complex";"Komplek perumahan";"Perumahan Flamboyan Krueng Cut No.A13";"Baet, Kec. Baitussalam, Kabupaten Aceh Besar, Aceh";"Kabupaten Aceh Besar, Aceh";"ACEH";"";"Indonesia";"";"5.5868586";"95.355559";"https://maps.google.com/?cid=0x0:0x8336674c17f57adc"
"housing complex";"Agen Properti Komersial";"hunian";"G7MQ+933, Jl. Beutari I, Lampoh Daya, Kec. Jaya Baru, Kota Banda Aceh, Aceh";"Kota Banda Aceh, Aceh";"ACEH";"";"Indonesia";"";"5.5333772";"95.2876598";"https://maps.google.com/?cid=0x0:0xba8e5ebc2b05c6a9"
"housing complex";"Kantor Perusahaan";"Perumahan";"G8C6+7C3, Lam Ara, Kec. Banda Raya, Kota Banda Aceh, Aceh 23231";"Lam Ara, Kec. Banda Raya, Kota Banda Aceh";"ACEH";"23231";"Indonesia";"";"5.5206034";"95.3110072";"https://maps.google.com/?cid=0x0:0xff47ea2d9fe27bb5"
"housing complex";"Pusat Bisnis";"Bandar Properti";"Jl. Tgk. Direuleung No.3, Ilie, Kec. Ulee Kareng, Kota Banda Aceh, Aceh 23116";"Ilie, Kec. Ulee Kareng, Kota Banda Aceh";"ACEH";"23116";"Indonesia";" 081360195804";"5.543773";"95.3459724";"https://maps.google.com/?cid=0x0:0x78a3713a96dd6dc9"
"housing complex";"Perumahan rakyat";"Rumahaceh";"H72W+6FH, Blang Oi, Kec. Meuraxa, Kota Banda Aceh, Aceh";"Kota Banda Aceh, Aceh";"ACEH";"";"Indonesia";"";"5.55078";"95.296051";"https://maps.google.com/?cid=0x0:0x24dedab6fd3da73d"
"housing complex";"Komplek perumahan";"Kantor";"G8RH+72Q, Batoh, Kec. Lueng Bata, Kota Banda Aceh, Aceh";"Kota Banda Aceh, Aceh";"ACEH";"";"Indonesia";"";"5.5407047";"95.3276128";"https://maps.google.com/?cid=0x0:0xb272b621aa81aa0d"
"housing complex";"Komplek perumahan";"housing complex";"Jl. Perdamaian Raya No.6, Pango Deah, Kec. Ulee Kareng, Kota Banda Aceh, Aceh 24415";"Pango Deah, Kec. Ulee Kareng, Kota Banda Aceh";"ACEH";"24415";"Indonesia";"";"5.5398691";"95.3531008";"https://maps.google.com/?cid=0x0:0x3ee0251fe9e3c04e"
"housing complex";"Komplek perumahan";"Housing Information Center";"JL Pemancar, Sp III No.5, Lamtemen Tim., Kec. Jaya Baru, Kota Banda Aceh, Aceh 23232";"Sp III No.5, Lamtemen Tim., Kec. Jaya Baru, Kota Banda Aceh";"ACEH";"23232";"Indonesia";" 065141742";"5.540553";"95.304333";"https://maps.google.com/?cid=0x0:0x54f69a9f4b7bef13"
"housing complex";"Guest house";"Housing 58";"Blower, Jl. Singgah Mata No.58, Sukaramai, Kec. Baiturrahman, Kota Banda Aceh, Aceh 23243";"Jl. Singgah Mata No.58, Sukaramai, Kec. Baiturrahman, Kota Banda Aceh";"ACEH";"23243";"Indonesia";" 085609800218";"5.5453556";"95.3095236";"https://maps.google.com/?cid=0x0:0x250ec86f3fbc9839"
"housing complex";"housing complex";"Banda Aceh";"Kota Banda Aceh, Aceh";"Kota Banda Aceh, Aceh";"ACEH";"";"Indonesia";"";"5.5482904";"95.3237559";"https://maps.google.com/?cid=0x0:0x3039d80b220cb90"
"housing complex";"Komplek perumahan";"housing complex";"Jl. Perdamaian Raya No.6, Pango Deah, Kec. Ulee Kareng, Kota Banda Aceh, Aceh 24415";"Pango Deah, Kec. Ulee Kareng, Kota Banda Aceh";"ACEH";"24415";"Indonesia";"";"5.5398691";"95.3531008";"https://maps.google.com/?cid=0x0:0x3ee0251fe9e3c04e"
"housing complex";"Pembangunan Perumahan";"JEUMPET RESIDENCE";"G7CW+866, Unnamed Road, Jeumpet Ajun, Kec. Darul Imarah, Kabupaten Aceh Besar, Aceh 23233";"Unnamed Road, Jeumpet Ajun, Kec. Darul Imarah, Kabupaten Aceh Besar";"ACEH";"23233";"Indonesia";"";"5.5207976";"95.2955014";"https://maps.google.com/?cid=0x0:0x1dae5d257382a77f"
"housing complex";"Apartemen sewa liburan";"SUMAN RESIDENCE";"Jl. Kayee Adang Utama, Lamgugob, Kec. Syiah Kuala, Kota Banda Aceh, Aceh 23115";"Lamgugob, Kec. Syiah Kuala, Kota Banda Aceh";"ACEH";"23115";"Indonesia";" 082211040701";"5.5724758";"95.3556079";"https://maps.google.com/?cid=0x0:0x1fca56db1acd3a7c"
"housing complex";"Makanan Kecil";"Takoyaki - D'Potachiz";"Jalan Pala No.222, Geuceu Meunara, Kec. Jaya Baru, Kota Banda Aceh, Aceh 23241";"Geuceu Meunara, Kec. Jaya Baru, Kota Banda Aceh";"ACEH";"23241";"Indonesia";"";"5.5259227";"95.2977655";"https://maps.google.com/?cid=0x0:0x569bc04ed964adab"
"housing complex";"Guest house";"Housing 58";"Blower, Jl. Singgah Mata No.58, Sukaramai, Kec. Baiturrahman, Kota Banda Aceh, Aceh 23243";"Jl. Singgah Mata No.58, Sukaramai, Kec. Baiturrahman, Kota Banda Aceh";"ACEH";"23243";"Indonesia";" 085609800218";"5.5453556";"95.3095236";"https://maps.google.com/?cid=0x0:0x250ec86f3fbc9839"
"housing complex";"Komplek perumahan";"Complex Ten house";"G7VW+3W3, Dusun lampoh Baro, Surien, Kec. Meuraxa, Kota Banda Aceh, Aceh";"Kota Banda Aceh, Aceh";"ACEH";"";"Indonesia";"";"5.5426396";"95.297285";"https://maps.google.com/?cid=0x0:0x521d6846e3cb7bda"
"housing complex";"Komplek perumahan";"Komplek Permata Hijau Residence";"H8JQ+85P, Jl. Delima, Lambaro Skep, Kec. Kuta Alam, Kota Banda Aceh, Aceh 24415";"Jl. Delima, Lambaro Skep, Kec. Kuta Alam, Kota Banda Aceh";"ACEH";"24415";"Indonesia";" 082277488831";"5.5808411";"95.3379403";"https://maps.google.com/?cid=0x0:0x14d43f1ee9245db1"
"housing complex";"Kantor Perusahaan";"Perumahan";"G8C6+7C3, Lam Ara, Kec. Banda Raya, Kota Banda Aceh, Aceh 23231";"Lam Ara, Kec. Banda Raya, Kota Banda Aceh";"ACEH";"23231";"Indonesia";"";"5.5206034";"95.3110072";"https://maps.google.com/?cid=0x0:0xff47ea2d9fe27bb5"
"housing complex";"Pusat Bisnis";"Bandar Properti";"Jl. Tgk. Direuleung No.3, Ilie, Kec. Ulee Kareng, Kota Banda Aceh, Aceh 23116";"Ilie, Kec. Ulee Kareng, Kota Banda Aceh";"ACEH";"23116";"Indonesia";" 081360195804";"5.543773";"95.3459724";"https://maps.google.com/?cid=0x0:0x78a3713a96dd6dc9"
"housing complex";"Komplek perumahan";"Perumahan Flamboyan Krueng Cut No.A13";"Baet, Kec. Baitussalam, Kabupaten Aceh Besar, Aceh";"Kabupaten Aceh Besar, Aceh";"ACEH";"";"Indonesia";"";"5.5868586";"95.355559";"https://maps.google.com/?cid=0x0:0x8336674c17f57adc"
"housing complex";"housing complex";"Bandar Development";"";"";"ACEH";"";"Indonesia";" 081360195804";"5.5611019";"95.3287025";"https://maps.google.com/?cid=0x0:0xaaeaf3f67573a1f4"
"housing complex";"Komplek perumahan";"Housing complex";"MR9W+4V6, RT.10/RW.3, Kalisari, Kec. Ps. Rebo, Kota Jakarta Timur, Daerah Khusus Ibukota Jakarta 13790";"RT.10/RW.3, Kalisari, Kec. Ps. Rebo, Kota Jakarta Timur";"ACEH";"13790";"Indonesia";"";"-6.3321875";"106.8471875";"https://maps.google.com/?cid=0x0:0x4b6254039cc72ec"
"housing complex";"Komplek perumahan";"Housing complex";"8MF8+GXF, Gn. Sari, Kec. Pamijahan, Kabupaten Bogor, Jawa Barat 16810";"Gn. Sari, Kec. Pamijahan, Kabupaten Bogor";"ACEH";"16810";"Indonesia";"";"-6.67623";"106.6674698";"https://maps.google.com/?cid=0x0:0x2ae08f32015fb52f"
"housing complex";"housing complex";"Banda Aceh";"Kota Banda Aceh, Aceh";"Kota Banda Aceh, Aceh";"ACEH";"";"Indonesia";"";"5.5482904";"95.3237559";"https://maps.google.com/?cid=0x0:0x3039d80b220cb90"
"housing complex";"Komplek perumahan";"housing complex";"Jl. Perdamaian Raya No.6, Pango Deah, Kec. Ulee Kareng, Kota Banda Aceh, Aceh 24415";"Pango Deah, Kec. Ulee Kareng, Kota Banda Aceh";"ACEH";"24415";"Indonesia";"";"5.5398691";"95.3531008";"https://maps.google.com/?cid=0x0:0x3ee0251fe9e3c04e"
"housing complex";"Pembangunan Perumahan";"JEUMPET RESIDENCE";"G7CW+866, Unnamed Road, Jeumpet Ajun, Kec. Darul Imarah, Kabupaten Aceh Besar, Aceh 23233";"Unnamed Road, Jeumpet Ajun, Kec. Darul Imarah, Kabupaten Aceh Besar";"ACEH";"23233";"Indonesia";"";"5.5207976";"95.2955014";"https://maps.google.com/?cid=0x0:0x1dae5d257382a77f"
"housing complex";"Apartemen sewa liburan";"SUMAN RESIDENCE";"Jl. Kayee Adang Utama, Lamgugob, Kec. Syiah Kuala, Kota Banda Aceh, Aceh 23115";"Lamgugob, Kec. Syiah Kuala, Kota Banda Aceh";"ACEH";"23115";"Indonesia";" 082211040701";"5.5724758";"95.3556079";"https://maps.google.com/?cid=0x0:0x1fca56db1acd3a7c"
"housing complex";"Perhimpunan Pengembang Perumahan";"Samudra Indah lamjabat residence";"G7WW+69M, Jl. Puteh Reu, Gampong Baro, Kec. Meuraxa, Kota Banda Aceh, Aceh";"Kota Banda Aceh, Aceh";"ACEH";"";"Indonesia";"";"5.5459676";"95.2956529";"https://maps.google.com/?cid=0x0:0x49ecc733978ce991"
"housing complex";"Komplek perumahan";"My house";"PWFX+FFH, Wonosari, Kec. Bandar, Kabupaten Bener Meriah, Aceh 24582";"Wonosari, Kec. Bandar, Kabupaten Bener Meriah";"ACEH";"24582";"Indonesia";"";"4.723684";"96.9487335";"https://maps.google.com/?cid=0x0:0x554bf7133bc4fef7"
"housing complex";"Pembangunan Perumahan";"Grand Asia Residence";"G8VV+GR2, Jl. Tgk. Direuleung, Ilie, Kec. Ulee Kareng, Kota Banda Aceh, Aceh 23116";"Jl. Tgk. Direuleung, Ilie, Kec. Ulee Kareng, Kota Banda Aceh";"ACEH";"23116";"Indonesia";"";"5.5437524";"95.3445274";"https://maps.google.com/?cid=0x0:0x43fb475e8331afc4"
"housing complex";"Pembangunan Perumahan";"Tanah";"G7QP+HC3, Lamjamee, Kec. Jaya Baru, Kota Banda Aceh, Aceh";"Kota Banda Aceh, Aceh";"ACEH";"";"Indonesia";"";"5.5388754";"95.2860341";"https://maps.google.com/?cid=0x0:0xbcd206a35449ae65"
"housing complex";"housing complex";"Aceh 24582";"Kabupaten Bener Meriah, Aceh";"Kabupaten Bener Meriah, Aceh";"ACEH";"";"Indonesia";"";"4.733267";"97.0498442";"https://maps.google.com/?cid=0x0:0x24377db9b3ac434d"
"housing complex";"housing complex";"AL FATTAH Boutique Hotel, Cafe  Meeting Room";"Jl. Pendopo Bupati, Uring, Kec. Bukit, Kabupaten Bener Meriah, Aceh 24582";"Uring, Kec. Bukit, Kabupaten Bener Meriah";"ACEH";"24582";"Indonesia";" 082361148989";"4.7178927";"96.8698829";"https://maps.google.com/?cid=0x0:0xc23e1f56b6238849"
"housing complex";"housing complex";"Banda Aceh";"Kota Banda Aceh, Aceh";"Kota Banda Aceh, Aceh";"ACEH";"";"Indonesia";"";"5.5482904";"95.3237559";"https://maps.google.com/?cid=0x0:0x3039d80b220cb90"
"housing complex";"Komplek perumahan";"housing complex";"Jl. Perdamaian Raya No.6, Pango Deah, Kec. Ulee Kareng, Kota Banda Aceh, Aceh 24415";"Pango Deah, Kec. Ulee Kareng, Kota Banda Aceh";"ACEH";"24415";"Indonesia";"";"5.5398691";"95.3531008";"https://maps.google.com/?cid=0x0:0x3ee0251fe9e3c04e"
"housing complex";"Komplek perumahan";"Housing Information Center";"JL Pemancar, Sp III No.5, Lamtemen Tim., Kec. Jaya Baru, Kota Banda Aceh, Aceh 23232";"Sp III No.5, Lamtemen Tim., Kec. Jaya Baru, Kota Banda Aceh";"ACEH";"23232";"Indonesia";" 065141742";"5.540553";"95.304333";"https://maps.google.com/?cid=0x0:0x54f69a9f4b7bef13"
"housing complex";"Komplek perumahan";"Casavilla Residence";"G7XR+GWX, Casavilla Residence, Lamjabat, Meuraxa, Banda Aceh City, Aceh";"Kota Banda Aceh, Aceh";"ACEH";"";"Indonesia";"";"5.5488702";"95.2923632";"https://maps.google.com/?cid=0x0:0x815fdeaca1635fcc"
"housing complex";"Apartemen sewa liburan";"SUMAN RESIDENCE";"Jl. Kayee Adang Utama, Lamgugob, Kec. Syiah Kuala, Kota Banda Aceh, Aceh 23115";"Lamgugob, Kec. Syiah Kuala, Kota Banda Aceh";"ACEH";"23115";"Indonesia";" 082211040701";"5.5724758";"95.3556079";"https://maps.google.com/?cid=0x0:0x1fca56db1acd3a7c"
"housing complex";"Pusat Bisnis";"Bandar Properti";"Jl. Tgk. Direuleung No.3, Ilie, Kec. Ulee Kareng, Kota Banda Aceh, Aceh 23116";"Ilie, Kec. Ulee Kareng, Kota Banda Aceh";"ACEH";"23116";"Indonesia";" 081360195804";"5.543773";"95.3459724";"https://maps.google.com/?cid=0x0:0x78a3713a96dd6dc9"
"housing complex";"Perhimpunan Pengembang Perumahan";"Rumah";"G9W2+F2M, Lorong melati, Lhok Bengkuang Timur, Tapaktuan, Aceh Selatan, Aceh";"Aceh Selatan, Aceh";"ACEH";"";"Indonesia";"";"5.546219";"95.350044";"https://maps.google.com/?cid=0x0:0x7be678129347d1b"
"housing complex";"housing complex";"Bandar Development";"";"";"ACEH";"";"Indonesia";" 081360195804";"5.5611019";"95.3287025";"https://maps.google.com/?cid=0x0:0xaaeaf3f67573a1f4"
"housing complex";"Komplek perumahan";"Rumah";"XQ9W+HV3, Jl. Gg. Mawar, Bandar, Kec. Bandar, Kabupaten Batang, Jawa Tengah 51254";"Jl. Gg. Mawar, Bandar, Kec. Bandar, Kabupaten Batang";"ACEH";"51254";"Indonesia";"";"-7.0311268";"109.797149";"https://maps.google.com/?cid=0x0:0x8bd3443e713d3d7e"
"housing complex";"Komplek perumahan";"House";"XQ8X+XCH, Bandar, Kec. Bandar, Kabupaten Batang, Jawa Tengah 51254";"Bandar, Kec. Bandar, Kabupaten Batang";"ACEH";"51254";"Indonesia";"";"-7.032554";"109.7986018";"https://maps.google.com/?cid=0x0:0x507f37501ed742cb"
"housing complex";"Komplek perumahan";"Rumah Ika Widia";"XQ5R+9QV, Jl, RT.07/RW.01, Binagun, Binangun, Bandar, Batang Regency, Central Java 51254";"Jl, RT.07/RW.01, Binagun, Binangun, Bandar, Batang Regency";"ACEH";"51254";"Indonesia";"";"-7.0415043";"109.7919087";"https://maps.google.com/?cid=0x0:0x68a7e862097c5db"
"housing complex";"Komplek perumahan";"Mino Rahayu bandar batang Jawa tengah";"XQCW+4GH, Bandar, Kec. Bandar, Kabupaten Batang, Jawa Tengah 51254";"Bandar, Kec. Bandar, Kabupaten Batang";"ACEH";"51254";"Indonesia";"";"-7.0296894";"109.7963642";"https://maps.google.com/?cid=0x0:0xe224048dc835ecbf"
"housing complex";"Pembangunan Perumahan";"Bandar, Kab. Batang";"XQ8X+XCH, Bandar, Kec. Bandar, Kabupaten Batang, Jawa Tengah";"Kabupaten Batang, Jawa Tengah";"ACEH";"";"Indonesia";"";"-7.032554";"109.7986018";"https://maps.google.com/?cid=0x0:0xa5eff462712ee0f3"
"housing complex";"housing complex";"Rumah tinggal";"XQCX+47C, Gg. Teratai, Bandar, Kec. Bandar, Kabupaten Batang, Jawa Tengah 51254";"Gg. Teratai, Bandar, Kec. Bandar, Kabupaten Batang";"ACEH";"51254";"Indonesia";"";"-7.029677";"109.7981508";"https://maps.google.com/?cid=0x0:0x945ae4b925a77958"
"housing complex";"housing complex";"Banda Aceh";"Kota Banda Aceh, Aceh";"Kota Banda Aceh, Aceh";"ACEH";"";"Indonesia";"";"5.5482904";"95.3237559";"https://maps.google.com/?cid=0x0:0x3039d80b220cb90"
"housing complex";"Komplek perumahan";"housing complex";"Jl. Perdamaian Raya No.6, Pango Deah, Kec. Ulee Kareng, Kota Banda Aceh, Aceh 24415";"Pango Deah, Kec. Ulee Kareng, Kota Banda Aceh";"ACEH";"24415";"Indonesia";"";"5.5398691";"95.3531008";"https://maps.google.com/?cid=0x0:0x3ee0251fe9e3c04e"
"housing complex";"Komplek perumahan";"Housing Information Center";"JL Pemancar, Sp III No.5, Lamtemen Tim., Kec. Jaya Baru, Kota Banda Aceh, Aceh 23232";"Sp III No.5, Lamtemen Tim., Kec. Jaya Baru, Kota Banda Aceh";"ACEH";"23232";"Indonesia";" 065141742";"5.540553";"95.304333";"https://maps.google.com/?cid=0x0:0x54f69a9f4b7bef13"
"housing complex";"Komplek perumahan";"Casavilla Residence";"G7XR+GWX, Casavilla Residence, Lamjabat, Meuraxa, Banda Aceh City, Aceh";"Kota Banda Aceh, Aceh";"ACEH";"";"Indonesia";"";"5.5488702";"95.2923632";"https://maps.google.com/?cid=0x0:0x815fdeaca1635fcc"
"housing complex";"Pembangunan Perumahan";"LAMTEUMEN RESIDENCE type 50 (360jt)";"G8Q2+FFW, Lamtemen Tim., Kec. Jaya Baru, Kota Banda Aceh, Aceh 23232";"Lamtemen Tim., Kec. Jaya Baru, Kota Banda Aceh";"ACEH";"23232";"Indonesia";" 085311869356";"5.5387311";"95.3011919";"https://maps.google.com/?cid=0x0:0xeabc4af083fded53"
"housing complex";"Apartemen sewa liburan";"SUMAN RESIDENCE";"Jl. Kayee Adang Utama, Lamgugob, Kec. Syiah Kuala, Kota Banda Aceh, Aceh 23115";"Lamgugob, Kec. Syiah Kuala, Kota Banda Aceh";"ACEH";"23115";"Indonesia";" 082211040701";"5.5724758";"95.3556079";"https://maps.google.com/?cid=0x0:0x1fca56db1acd3a7c"
"housing complex";"Perhimpunan Pengembang Perumahan";"Samudra Indah lamjabat residence";"G7WW+69M, Jl. Puteh Reu, Gampong Baro, Kec. Meuraxa, Kota Banda Aceh, Aceh";"Kota Banda Aceh, Aceh";"ACEH";"";"Indonesia";"";"5.5459676";"95.2956529";"https://maps.google.com/?cid=0x0:0x49ecc733978ce991"
"housing complex";"Pembangunan Perumahan";"PT. Bataka Property";"G7MP+Q25, Lamjamee, Kec. Jaya Baru, Kota Banda Aceh, Aceh";"Kota Banda Aceh, Aceh";"ACEH";"";"Indonesia";"";"5.5343869";"95.2851008";"https://maps.google.com/?cid=0x0:0x35ae6b382fcda709"
"housing complex";"housing complex";"Jawa Timur 63583";"Kec. Bandar, Kabupaten Pacitan, Jawa Timur";"Kabupaten Pacitan, Jawa Timur";"ACEH";"";"Indonesia";"";"-8.0061354";"111.2725789";"https://maps.google.com/?cid=0x0:0x1c00c5eb5b5406f0"
"housing complex";"housing complex";"Griya kost denok";"Tegalrejo, Kec. Purwantoro, Kabupaten Wonogiri, Jawa Tengah 57695";"Kec. Purwantoro, Kabupaten Wonogiri";"ACEH";"57695";"Indonesia";" 081333557376";"-7.8510625";"111.2635625";"https://maps.google.com/?cid=0x0:0xac177f0fe87c0154"
"housing complex";"housing complex";"Kec. Bener Kelipah";"Kabupaten Bener Meriah, Aceh";"Kabupaten Bener Meriah, Aceh";"ACEH";"";"Indonesia";"";"4.7701481";"96.923098";"https://maps.google.com/?cid=0x0:0x3a7e0c8dc476f1e"
"housing complex";"Vila";"Hasni";"QWHF+7V, Bener Kelipah Utara, Kec. Bener Kelipah, Kabupaten Bener Meriah, Aceh";"Kabupaten Bener Meriah, Aceh";"ACEH";"";"Indonesia";"";"4.778232";"96.9247235";"https://maps.google.com/?cid=0x0:0xccd5f0ed2d5e79c9"
"housing complex";"Gedung Pertemuan";"Aula Pemuda Janarata";"QW47+C6W, Janarata, Kec. Bandar, Kabupaten Bener Meriah, Aceh 24582";"Janarata, Kec. Bandar, Kabupaten Bener Meriah";"ACEH";"24582";"Indonesia";"";"4.7561334";"96.913073";"https://maps.google.com/?cid=0x0:0x647514052aa87319"
"housing complex";"Kompleks Kondominium";"RUMAH PAK BHABINKAMTIBMAS";"QW27+W6Q, Puja Mulia, Kec. Bandar, Kabupaten Bener Meriah, Aceh 24582";"Puja Mulia, Kec. Bandar, Kabupaten Bener Meriah";"ACEH";"24582";"Indonesia";"";"4.7524025";"96.9133981";"https://maps.google.com/?cid=0x0:0xde68d108d2458ad5"
"housing complex";"Pasar Grosir Sayur";"Dusun pasar";"QWHH+7HG, Bener Kelipah Utara, Kec. Bener Kelipah, Kabupaten Bener Meriah, Aceh 24582";"Bener Kelipah Utara, Kec. Bener Kelipah, Kabupaten Bener Meriah";"ACEH";"24582";"Indonesia";"";"4.7781965";"96.9289642";"https://maps.google.com/?cid=0x0:0x29fa285445fe5aa6"
"housing complex";"Penjaga Rumah";"SS’s House";"Jadi Sepakat, Kec. Bandar, Kabupaten Bener Meriah, Aceh 24582";"Kec. Bandar, Kabupaten Bener Meriah";"ACEH";"24582";"Indonesia";"";"4.7504091";"96.9289845";"https://maps.google.com/?cid=0x0:0x8b4e94df367920d7"
"housing complex";"Gedung Apartemen";"Rumah Cucu Alm.Mbah Kasiran";"QV4X+7G8, Pd. Gajah, Kec. Bandar, Kabupaten Bener Meriah, Aceh 24582";"Pd. Gajah, Kec. Bandar, Kabupaten Bener Meriah";"ACEH";"24582";"Indonesia";"";"4.7556649";"96.8988384";"https://maps.google.com/?cid=0x0:0x64e8c562bc3bd723"
"housing complex";"Komplek perumahan";"Rumah bik itu";"QWHF+8W, Bener Kelipah Utara, Kec. Bener Kelipah, Kabupaten Bener Meriah, Aceh";"Kabupaten Bener Meriah, Aceh";"ACEH";"";"Indonesia";"";"4.7782238";"96.9247518";"https://maps.google.com/?cid=0x0:0x91739ae0a57b82e0"
"housing complex";"Komplek perumahan";"Rika house";"QW47+V6W, Janarata, Kec. Bandar, Kabupaten Bener Meriah, Aceh 24582";"Janarata, Kec. Bandar, Kabupaten Bener Meriah";"ACEH";"24582";"Indonesia";"";"4.7572431";"96.9131407";"https://maps.google.com/?cid=0x0:0xea788d32544d09d8"
"housing complex";"Rumah Kayu";"Rumah Reje Kampung Simpang Utama";"QW44+5M7, Ds. Nangka, Simpang Utama, Kec. Bandar, Kabupaten Bener Meriah, Aceh 24582";"Ds. Nangka, Simpang Utama, Kec. Bandar, Kabupaten Bener Meriah";"ACEH";"24582";"Indonesia";"";"4.7554006";"96.9066842";"https://maps.google.com/?cid=0x0:0xb9e42843970dc8b"
"housing complex";"Kantor Pemerintahan Daerah";"Bener meriah";"QW35+2WF, Mutiara, Kec. Bandar, Kabupaten Bener Meriah, Aceh 24582";"Mutiara, Kec. Bandar, Kabupaten Bener Meriah";"ACEH";"24582";"Indonesia";"";"4.7525538";"96.9097865";"https://maps.google.com/?cid=0x0:0xed144960765487b9"
"housing complex";"Pusat Perbelanjaan";"Gudang istanA";"QW37+P64, Puja Mulia, Kec. Bandar, Kabupaten Bener Meriah, Aceh 24582";"Puja Mulia, Kec. Bandar, Kabupaten Bener Meriah";"ACEH";"24582";"Indonesia";"";"4.7542765";"96.9130584";"https://maps.google.com/?cid=0x0:0x218d4e57d7b5666"
"housing complex";"housing complex";"Rumah";"QV3W+4PC, Dusun Rahayu, Pd. Gajah, Kec. Bandar, Kabupaten Bener Meriah, Aceh 24582";"Dusun Rahayu, Pd. Gajah, Kec. Bandar, Kabupaten Bener Meriah";"ACEH";"24582";"Indonesia";"";"4.7528024";"96.896767";"https://maps.google.com/?cid=0x0:0x7c954fba7cce81de"
"housing complex";"housing complex";"Rumahq";"PWX5+HM4, Purwosari, Kec. Bandar, Kabupaten Bener Meriah, Aceh 24582";"Purwosari, Kec. Bandar, Kabupaten Bener Meriah";"ACEH";"24582";"Indonesia";"";"4.7488949";"96.9092085";"https://maps.google.com/?cid=0x0:0x8edb6bef0faf9c12"
"housing complex";"housing complex";"Aceh";"";"Aceh";"ACEH";"";"Indonesia";"";"4.695135";"96.7493993";"https://maps.google.com/?cid=0x0:0x1039d80b220ca60"
"housing complex";"Komplek perumahan";"Rumah sewa taqwa muchlas";"Jalan pondok baru_geresek, Waq Pd. Sayur, Kec. Bukit, Kabupaten Bener Meriah, Aceh 24581";"Waq Pd. Sayur, Kec. Bukit, Kabupaten Bener Meriah";"ACEH";"24581";"Indonesia";" 085270156881";"4.7532532";"96.8905542";"https://maps.google.com/?cid=0x0:0x8d31daf1dd693031"
"housing complex";"Inspektur Tempat Tinggal";"Rumah Ku";"PV8G+7MR, Blang Sentang, Kec. Bukit, Kabupaten Bener Meriah, Aceh 24581";"Blang Sentang, Kec. Bukit, Kabupaten Bener Meriah";"ACEH";"24581";"Indonesia";"";"4.7157375";"96.8766406";"https://maps.google.com/?cid=0x0:0xd7a454ebc5534a68"
"housing complex";"housing complex";"Kec. Gajah Putih";"Kabupaten Bener Meriah, Aceh";"Kabupaten Bener Meriah, Aceh";"ACEH";"";"Indonesia";"";"4.8103413";"96.7371594";"https://maps.google.com/?cid=0x0:0xc34ec80407ef00cb"
"housing complex";"housing complex";"Kec. Mesidah";"Kabupaten Bener Meriah, Aceh";"Kabupaten Bener Meriah, Aceh";"ACEH";"";"Indonesia";"";"4.7627916";"97.0109687";"https://maps.google.com/?cid=0x0:0xdf564a5272d2d37b"
"housing complex";"Pembangunan Perumahan";"Rumah alea";"Q3QR+X3, Hakim Peteri Pintu, Kec. Mesidah, Kabupaten Bener Meriah, Aceh";"Kabupaten Bener Meriah, Aceh";"ACEH";"";"Indonesia";"";"4.7899644";"97.0901312";"https://maps.google.com/?cid=0x0:0x3639a17be1dc714a"
"housing complex";"Perhimpunan Pengembang Perumahan";"Ambia";"QX69+XWX, Cemparam Lama, Kec. Mesidah, Kabupaten Bener Meriah, Aceh 24582";"Cemparam Lama, Kec. Mesidah, Kabupaten Bener Meriah";"ACEH";"24582";"Indonesia";"";"4.7624893";"96.9698519";"https://maps.google.com/?cid=0x0:0x1b28ec6dc75f0b1"
"housing complex";"housing complex";"Dsn Buntul sara ine";"QX68+FC8, Cemparam Lama, Kec. Mesidah, Kabupaten Bener Meriah, Aceh 24582";"Cemparam Lama, Kec. Mesidah, Kabupaten Bener Meriah";"ACEH";"24582";"Indonesia";"";"4.7611598";"96.9660661";"https://maps.google.com/?cid=0x0:0xd07817591c284c10"
"housing complex";"Masjid";"Masjid cunda lhokseumawe";"QX53+FQ6, Bintang Musara, Kec. Bandar, Kabupaten Bener Meriah, Aceh 24582";"Bintang Musara, Kec. Bandar, Kabupaten Bener Meriah";"ACEH";"24582";"Indonesia";"";"4.7586547";"96.9543831";"https://maps.google.com/?cid=0x0:0x1012781d71d9759b"
"housing complex";"Komplek perumahan";"My house";"PWFX+FFH, Wonosari, Kec. Bandar, Kabupaten Bener Meriah, Aceh 24582";"Wonosari, Kec. Bandar, Kabupaten Bener Meriah";"ACEH";"24582";"Indonesia";"";"4.723684";"96.9487335";"https://maps.google.com/?cid=0x0:0x554bf7133bc4fef7"
"housing complex";"Komplek perumahan";"Rumah alea";"Q4H5+HJC, Simpur, Kec. Mesidah, Kabupaten Bener Meriah, Aceh 24582";"Simpur, Kec. Mesidah, Kabupaten Bener Meriah";"ACEH";"24582";"Indonesia";"";"4.778928";"97.1090215";"https://maps.google.com/?cid=0x0:0xdd6f59ff7d67c6ab"
"housing complex";"Komplek perumahan";"Alian Homestay";"Q35P+RXM, Hakim Peteri Pintu, Kec. Mesidah, Kabupaten Bener Meriah, Aceh 24582";"Hakim Peteri Pintu, Kec. Mesidah, Kabupaten Bener Meriah";"ACEH";"24582";"Indonesia";"";"4.7595892";"97.0874158";"https://maps.google.com/?cid=0x0:0x890e86862630bcb1"
"housing complex";"Penjaga Rumah";"SS’s House";"Jadi Sepakat, Kec. Bandar, Kabupaten Bener Meriah, Aceh 24582";"Kec. Bandar, Kabupaten Bener Meriah";"ACEH";"24582";"Indonesia";"";"4.7504091";"96.9289845";"https://maps.google.com/?cid=0x0:0x8b4e94df367920d7"
"housing complex";"housing complex";"Rumah nisa";"PXQJ+W9, Hutan Bandar, Kec. Bandar, Kabupaten Bener Meriah, Aceh";"Kabupaten Bener Meriah, Aceh";"ACEH";"";"Indonesia";"";"4.739756";"96.9809361";"https://maps.google.com/?cid=0x0:0x518ad3d58bb98584"
"housing complex";"Komplek perumahan";"Rumah Mulya arifin";"Q266+247, Jamur Atu, Kec. Mesidah, Kabupaten Bener Meriah, Aceh 24582";"Jamur Atu, Kec. Mesidah, Kabupaten Bener Meriah";"ACEH";"24582";"Indonesia";"";"4.7600365";"97.0102814";"https://maps.google.com/?cid=0x0:0xd2106aed846f43e5"
"housing complex";"Pembangunan Perumahan";"Rumah Zulian";"Q26P+8W2, Gn. Sayang, Kec. Mesidah, Kabupaten Bener Meriah, Aceh 24582";"Gn. Sayang, Kec. Mesidah, Kabupaten Bener Meriah";"ACEH";"24582";"Indonesia";"";"4.760755";"97.0372625";"https://maps.google.com/?cid=0x0:0x4238a43e0246c740"
"housing complex";"Perhimpunan Pengembang Perumahan";"Desa Bintang Musara";"QX53+565, Bintang Musara, Kec. Bandar, Kabupaten Bener Meriah, Aceh 24582";"Bintang Musara, Kec. Bandar, Kabupaten Bener Meriah";"ACEH";"24582";"Indonesia";"";"4.7579843";"96.9530484";"https://maps.google.com/?cid=0x0:0x3c7956c11f05b942"
"housing complex";"Komplek perumahan";"Loksukon";"QX73+827, Bintang Musara, Kec. Bandar, Kabupaten Bener Meriah, Aceh 24582";"Bintang Musara, Kec. Bandar, Kabupaten Bener Meriah";"ACEH";"24582";"Indonesia";"";"4.763279";"96.9525466";"https://maps.google.com/?cid=0x0:0xc20f23d729f5508e"
"housing complex";"housing complex";"Aceh 24582";"Kabupaten Bener Meriah, Aceh";"Kabupaten Bener Meriah, Aceh";"ACEH";"";"Indonesia";"";"4.733267";"97.0498442";"https://maps.google.com/?cid=0x0:0x24377db9b3ac434d"
"housing complex";"Otoritas Perumahan";"Permata, buntul kemumu";"RWC8+MRC, Gelampang, Kec. Permata, Kabupaten Bener Meriah, Aceh 24582";"Gelampang, Kec. Permata, Kabupaten Bener Meriah";"ACEH";"24582";"Indonesia";"";"4.8216788";"96.9170222";"https://maps.google.com/?cid=0x0:0xaae428beb7dcfb92"
"housing complex";"housing complex";"Rijal";"RX97+32R, Uning Sejuk, Kec. Permata, Kabupaten Bener Meriah, Aceh 24582";"Uning Sejuk, Kec. Permata, Kabupaten Bener Meriah";"ACEH";"24582";"Indonesia";"";"4.8177387";"96.9625198";"https://maps.google.com/?cid=0x0:0xb4405fadf06cda54"
"housing complex";"Kantor Pemerintah";"Desa bintang permata";"RW66+75P, Jl. KKA, Bintang Permata, Kec. Permata, Kabupaten Bener Meriah, Aceh 24582";"Jl. KKA, Bintang Permata, Kec. Permata, Kabupaten Bener Meriah";"ACEH";"24582";"Indonesia";"";"4.8107051";"96.9104634";"https://maps.google.com/?cid=0x0:0xb480ccb29eddbd52"
"housing complex";"Komplek perumahan";"Mukti konadi";"RX36+QRF, Weh Tenang Tua, Kec. Permata, Kabupaten Bener Meriah, Aceh 24582";"Weh Tenang Tua, Kec. Permata, Kabupaten Bener Meriah";"ACEH";"24582";"Indonesia";"";"4.8044319";"96.9620547";"https://maps.google.com/?cid=0x0:0xdd0f41b87dd65070"
"housing complex";"Pembangunan Perumahan";"RUMAH DX BOY";"QXP7+WQJ, Weh Tenang Tua, Kec. Permata, Kabupaten Bener Meriah, Aceh 24582";"Weh Tenang Tua, Kec. Permata, Kabupaten Bener Meriah";"ACEH";"24582";"Indonesia";"";"4.7873289";"96.9643765";"https://maps.google.com/?cid=0x0:0xbd5e403f41731633"
"housing complex";"Komplek perumahan";"Komplek bumi permata Lamnyong";"H949+3CW, Komplek bumi permata lamnyong, Rumpet, Kec. Krueng Barona Jaya, Kota Banda Aceh, Aceh 24411";"Komplek bumi permata lamnyong, Rumpet, Kec. Krueng Barona Jaya, Kota Banda Aceh";"ACEH";"24411";"Indonesia";" 081377112276";"5.5552492";"95.3685806";"https://maps.google.com/?cid=0x0:0x39b8da1339d7752a"
"housing complex";"Komplek perumahan";"Beli kopi";"RX93+394, Pemango, Kec. Permata, Kabupaten Bener Meriah, Aceh 24582";"Pemango, Kec. Permata, Kabupaten Bener Meriah";"ACEH";"24582";"Indonesia";"";"4.817745";"96.9539135";"https://maps.google.com/?cid=0x0:0x1c2f60c3ac242913"
"housing complex";"Perhimpunan Pengembang Perumahan";"Rumah abdi";"RX9G+RJM, Temas Mumanang, Kec. Permata, Kabupaten Bener Meriah, Aceh 24582";"Temas Mumanang, Kec. Permata, Kabupaten Bener Meriah";"ACEH";"24582";"Indonesia";"";"4.81982";"96.9768307";"https://maps.google.com/?cid=0x0:0xb24d36f7bdb040d3"
"housing complex";"Perhimpunan Pengembang Perumahan";"Pantan Tengah jaya";"QXW2+X74, Pantan Tengah Jaya, Kec. Permata, Kabupaten Bener Meriah, Aceh 24582";"Pantan Tengah Jaya, Kec. Permata, Kabupaten Bener Meriah";"ACEH";"24582";"Indonesia";"";"4.7973818";"96.9506932";"https://maps.google.com/?cid=0x0:0xd3a2dbe7d0aa36f6"
"housing complex";"Komplek perumahan";"Rumah Pak Yan";"RX77+322, Tawar Bengi, Kec. Permata, Kabupaten Bener Meriah, Aceh 24582";"Tawar Bengi, Kec. Permata, Kabupaten Bener Meriah";"ACEH";"24582";"Indonesia";"";"4.8126349";"96.9625138";"https://maps.google.com/?cid=0x0:0x1cce22fe5f43ab3a"
"housing complex";"Komplek perumahan";"Rumah liaa";"QWXR+W6P, Darul Aman, Kec. Permata, Kabupaten Bener Meriah, Aceh 24582";"Darul Aman, Kec. Permata, Kabupaten Bener Meriah";"ACEH";"24582";"Indonesia";"";"4.7999384";"96.9405187";"https://maps.google.com/?cid=0x0:0xfd4b2b45534b22e"
"housing complex";"Pembangunan Perumahan";"Komplek Bumi Permata Lamnyong Blok H8";"Komplek Perumahan Bumi Permata Lamnyong, Blok H8, Rumpet, Kec. Krueng Barona Jaya, Kabupaten Aceh Besar, Aceh 24411";"Blok H8, Rumpet, Kec. Krueng Barona Jaya, Kabupaten Aceh Besar";"ACEH";"24411";"Indonesia";"";"5.5532284";"95.3686818";"https://maps.google.com/?cid=0x0:0x8b138756318377ee"
"housing complex";"Masjid";"Uning sejuk";"RX38+9HX, Weh Tenang Tua, Kec. Permata, Kabupaten Bener Meriah, Aceh 24582";"Weh Tenang Tua, Kec. Permata, Kabupaten Bener Meriah";"ACEH";"24582";"Indonesia";"";"4.8034844";"96.9664965";"https://maps.google.com/?cid=0x0:0xf9f66639a6f9482f"
"housing complex";"housing complex";"Kec. Pintu Rime Gayo";"Kabupaten Bener Meriah, Aceh";"Kabupaten Bener Meriah, Aceh";"ACEH";"";"Indonesia";"";"4.849318";"96.7411267";"https://maps.google.com/?cid=0x0:0x28686d3d13d5dcf5"
"housing complex";"Pembangunan Perumahan";"MEUNASAH BLANG BETONA";"RPWG+2X8, Rime Raya, Kec. Pintu Rime Gayo, Kabupaten Bener Meriah, Aceh 24571";"Rime Raya, Kec. Pintu Rime Gayo, Kabupaten Bener Meriah";"ACEH";"24571";"Indonesia";"";"4.8450484";"96.7274393";"https://maps.google.com/?cid=0x0:0x69fa3e4ff3d6bdc4"
"housing complex";"Kantor Pemerintah";"Kantor Camat Pintu Rime Gayo";"Blang Rakal, Kec. Pintu Rime Gayo, Kabupaten Bener Meriah, Aceh 24571";"Kec. Pintu Rime Gayo, Kabupaten Bener Meriah";"ACEH";"24571";"Indonesia";" 085270732070";"4.9026747";"96.744674";"https://maps.google.com/?cid=0x0:0x277036ad2b7e67c5"
"housing complex";"Taman Kanak-kanak";"SMAN 1 Pintu Rime Gayo";"RPRR+V64, Blang Ara, Kec. Pintu Rime Gayo, Kabupaten Bener Meriah, Aceh 24571";"Blang Ara, Kec. Pintu Rime Gayo, Kabupaten Bener Meriah";"ACEH";"24571";"Indonesia";"";"4.8421419";"96.7405783";"https://maps.google.com/?cid=0x0:0xe138a912f6f0760a"
"housing complex";"Komplek perumahan";"Perumahan GIZATAMA RESIDENCE";"Unnamed Road, Uning Teritit, Kec. Bukit, Kabupaten Bener Meriah, Aceh 24471";"Uning Teritit, Kec. Bukit, Kabupaten Bener Meriah";"ACEH";"24471";"Indonesia";" 082304514305";"4.6976971";"96.8532792";"https://maps.google.com/?cid=0x0:0xb8e55628f60891f9"
"housing complex";"Kantor Pemerintah";"Kantor Reje Kampung";"VQXH+7GH, Perdamaian, Kec. Pintu Rime Gayo, Kabupaten Bener Meriah, Aceh 24571";"Perdamaian, Kec. Pintu Rime Gayo, Kabupaten Bener Meriah";"ACEH";"24571";"Indonesia";"";"4.8981824";"96.7788461";"https://maps.google.com/?cid=0x0:0x4f44b6e3b3a35bf0"
"housing complex";"housing complex";"Aceh 24582";"Kabupaten Bener Meriah, Aceh";"Kabupaten Bener Meriah, Aceh";"ACEH";"";"Indonesia";"";"4.733267";"97.0498442";"https://maps.google.com/?cid=0x0:0x24377db9b3ac434d"
"housing complex";"Kantor Pemerintah";"Kejurun Syiah utama";"HXF2+25P, Kejurun Syiah Utama, Kec. Bintang, Kabupaten Aceh Tengah, Aceh";"Kabupaten Aceh Tengah, Aceh";"ACEH";"";"Indonesia";"";"4.5725974";"96.9504378";"https://maps.google.com/?cid=0x0:0x576edea1575a665"
"housing complex";"Komplek perumahan";"Rasidahlee house";"PV53+822, Kute Kering, Kec. Bukit, Kabupaten Bener Meriah, Aceh 24582";"Kute Kering, Kec. Bukit, Kabupaten Bener Meriah";"ACEH";"24582";"Indonesia";"";"4.7082612";"96.8525217";"https://maps.google.com/?cid=0x0:0x5c9b2a2b18a5c52d"
"housing complex";"Komplek perumahan";"My house";"PWFX+FFH, Wonosari, Kec. Bandar, Kabupaten Bener Meriah, Aceh 24582";"Wonosari, Kec. Bandar, Kabupaten Bener Meriah";"ACEH";"24582";"Indonesia";"";"4.723684";"96.9487335";"https://maps.google.com/?cid=0x0:0x554bf7133bc4fef7"
"housing complex";"Komplek perumahan";"Rumah kita shn Aceh";"QV3W+GCV, Pd. Gajah, Kec. Bandar, Kabupaten Bener Meriah, Aceh 24582";"Pd. Gajah, Kec. Bandar, Kabupaten Bener Meriah";"ACEH";"24582";"Indonesia";"";"4.7538638";"96.8960437";"https://maps.google.com/?cid=0x0:0xf6d0aaeed227340"
"housing complex";"Komplek perumahan";"Tami";"Jl. Syiah Utama No. 92, Pondok Baru Desa Mutiara, Janarata, Kec. Bandar, Kabupaten Bener Meriah, Aceh 24582";"Pondok Baru Desa Mutiara, Janarata, Kec. Bandar, Kabupaten Bener Meriah";"ACEH";"24582";"Indonesia";"";"4.8043742";"96.9658745";"https://maps.google.com/?cid=0x0:0x12003acd4fddc381"
"housing complex";"Komplek perumahan";"Rumah MAHDI lane";"M6C6+RF2, Blang Panu, Kec. Syiah Utama, Kabupaten Bener Meriah, Aceh 24582";"Blang Panu, Kec. Syiah Utama, Kabupaten Bener Meriah";"ACEH";"24582";"Indonesia";"";"4.6712365";"97.2111468";"https://maps.google.com/?cid=0x0:0x8f9886f80ad229c5"
"housing complex";"Komplek perumahan";"Perumahan POLRI Bener Meriah";"PRMG+54M, Wih Pesam, Kec. Wih Pesam, Kabupaten Bener Meriah, Aceh 24582";"Wih Pesam, Kec. Wih Pesam, Kabupaten Bener Meriah";"ACEH";"24582";"Indonesia";"";"4.7329546";"96.8253023";"https://maps.google.com/?cid=0x0:0xad684eb53325e082"
"housing complex";"Komplek perumahan";"Rasidah house";"Kute Kering, Kec. Bukit, Kabupaten Bener Meriah, Aceh 24471";"Kec. Bukit, Kabupaten Bener Meriah";"ACEH";"24471";"Indonesia";"";"4.6984439";"96.8563105";"https://maps.google.com/?cid=0x0:0x8b98b58f6fa2c5be"
"housing complex";"Inspektur Tempat Tinggal";"Aceh tengah";"H285+QR, Linung Bulen I, Kec. Bintang, Kabupaten Aceh Tengah, Aceh";"Kabupaten Aceh Tengah, Aceh";"ACEH";"";"Indonesia";"";"4.5668987";"97.0095263";"https://maps.google.com/?cid=0x0:0x28f156f1add0477d"
"housing complex";"Komplek perumahan";"Villa Yan";"JX99+WG, Gegarang, Kec. Bintang, Kabupaten Aceh Tengah, Aceh 24582";"Gegarang, Kec. Bintang, Kabupaten Aceh Tengah";"ACEH";"24582";"Indonesia";"";"4.6196192";"96.969188";"https://maps.google.com/?cid=0x0:0x5dd534a99fb8732d"
"housing complex";"Kantor Pemerintah";"Merodot";"JX2V+HPJ, Merodot, Kec. Bintang, Kabupaten Aceh Tengah, Aceh 24582";"Merodot, Kec. Bintang, Kabupaten Aceh Tengah";"ACEH";"24582";"Indonesia";"";"4.6014658";"96.9942625";"https://maps.google.com/?cid=0x0:0xc75f3c3213ffad35"
"housing complex";"Pembangunan Perumahan";"Ahmadi (Aman Ita)";"PWR9+FPH, Beranun Teleden, Kec. Bandar, Kabupaten Bener Meriah, Aceh 24582";"Beranun Teleden, Kec. Bandar, Kabupaten Bener Meriah";"ACEH";"24582";"Indonesia";"";"4.7411856";"96.9193687";"https://maps.google.com/?cid=0x0:0xf43954deba4692ab"
"housing complex";"Komplek perumahan";"Bahgie Bertona,Bener Meriah,Aceh";"QW59+5G5, Jl. Syiah Utama No.Desa, Bahgie Bertona, Kec. Bandar, Kabupaten Bener Meriah, Aceh 24582";"Jl. Syiah Utama No.Desa, Bahgie Bertona, Kec. Bandar, Kabupaten Bener Meriah";"ACEH";"24582";"Indonesia";"";"4.7567125";"96.9184732";"https://maps.google.com/?cid=0x0:0x40ba6c5efaaa9c20"
"housing complex";"housing complex";"Kec. Timang Gajah";"Kabupaten Bener Meriah, Aceh";"Kabupaten Bener Meriah, Aceh";"ACEH";"";"Indonesia";"";"4.7581426";"96.76263";"https://maps.google.com/?cid=0x0:0x64723af8a148d625"
"housing complex";"Komplek perumahan";"RUMAH KAMI";"QP73+8J9, Cekal Baru, Kec. Timang Gajah, Kabupaten Bener Meriah, Aceh 24571";"Cekal Baru, Kec. Timang Gajah, Kabupaten Bener Meriah";"ACEH";"24571";"Indonesia";"";"4.763291";"96.7041008";"https://maps.google.com/?cid=0x0:0xb2dee954895b3b27"
"housing complex";"";"Rumah DANDI";"QQ8F+45X, Bukit Mulie, Kec. Timang Gajah, Kabupaten Bener Meriah, Aceh 24571";"Bukit Mulie, Kec. Timang Gajah, Kabupaten Bener Meriah";"ACEH";"24571";"Indonesia";"";"4.7648135";"96.7731457";"https://maps.google.com/?cid=0x0:0x334cff648f0e9d3f"
"housing complex";"Komplek perumahan";"RUMAH";"QPCF+P8, Pantan Kemuning, Kec. Timang Gajah, Kabupaten Bener Meriah, Aceh";"Kabupaten Bener Meriah, Aceh";"ACEH";"";"Indonesia";"";"4.7717514";"96.7230662";"https://maps.google.com/?cid=0x0:0x753e44d2976a28e0"
"housing complex";"Vila";"RUMAH DHEZAKY";"PPHX+JHP, Desa. Sukamakmur induk Kec.Wih Pesam. Kab. Bener Meriah. .Aceh Tengah, Suka Makmur";"Kabupaten Bener Meriah, Aceh";"ACEH";"";"Indonesia";"";"4.7290942";"96.7489393";"https://maps.google.com/?cid=0x0:0x9fdfd43ff72bd0b7"
"housing complex";"Komplek perumahan";"Rumah Pak Ridwan Ependi";"kode pos 24581, Jalan Elak Simpang tgk H Husen, Sukaramai, Bawah, Kec. Wih Pesam, Kabupaten Bener Meriah, Aceh";"Kabupaten Bener Meriah, Aceh";"ACEH";"";"Indonesia";" 085261135562";"4.6892977";"96.7706485";"https://maps.google.com/?cid=0x0:0x8b5ff4b3ad59dc8a"
"housing complex";"housing complex";"Rumahhhh";"MRQC+J4H, Bukit Pepanyi, Kec. Wih Pesam, Kabupaten Bener Meriah, Aceh 24471";"Bukit Pepanyi, Kec. Wih Pesam, Kabupaten Bener Meriah";"ACEH";"24471";"Indonesia";" 08536888895";"4.6890705";"96.8203463";"https://maps.google.com/?cid=0x0:0xf0769b9f2fdf4f6a"
