Category;Real Category;Business Name;Address;City;State;Postal Code;Country;Phone;Latitude;Longitude;Map Link
"hotel";"hotel";"Andei";"Distrik Biak Utara, Kabupaten Biak Numfor, Papua";"Kabupaten Biak Numfor, Papua";"PAPUA";"";"Indonesia";"";"-0.917489";"136.0324844";"https://maps.google.com/?cid=0x0:0x538a33a79fdea1d5"
"hotel";"hotel";"HOTEL AINA";"CGM6+R9J, Jl. Raya Kemiri, Sentani Kota, Kec. Sentani, Kabupaten Jayapura, Papua";"Kabupaten Jayapura, Papua";"PAPUA";"";"Indonesia";" 085243960057";"-2.5654218";"140.5108844";"https://maps.google.com/?cid=0x0:0xe10f3eb6fe778f83"
"hotel";"hotel";"Intsia Beach Hotel";"Jl. Walter Monginsidi No.7, Fandoi, Kec. Biak Kota, Kabupaten Biak Numfor, Papua 98111";"Fandoi, Kec. Biak Kota, Kabupaten Biak Numfor";"PAPUA";"98111";"Indonesia";" 098121891";"-1.1862086";"136.0837686";"https://maps.google.com/?cid=0x0:0x564eb7930861f544"
"hotel";"Hotel bintang 4";"Padaido Hotel";"R37M+CJJ, Fandoi, Kec. Biak Kota, Kabupaten Biak Numfor, Papua 98111";"Fandoi, Kec. Biak Kota, Kabupaten Biak Numfor";"PAPUA";"98111";"Indonesia";" 081344393177";"-1.1864133";"136.0840154";"https://maps.google.com/?cid=0x0:0x5972d1b6bdd68ae8"
"hotel";"Museum";"Objek Wisata Goa Jepang Biak Papua";"Kampung Wisata, Binsari, Jl. Goa Jepang, Kec. Samofa, Kabupaten Biak Numfor, Papua 98118";"Binsari, Jl. Goa Jepang, Kec. Samofa, Kabupaten Biak Numfor";"PAPUA";"98118";"Indonesia";"";"-1.1778447";"136.1049498";"https://maps.google.com/?cid=0x0:0x93df93a4aad95a9b"
"hotel";"hotel";"Asana Biak Papua";"Jl. M Yamin No.04, Mandala, Kec. Biak Kota, Kabupaten Biak Numfor, Papua 98111";"Mandala, Kec. Biak Kota, Kabupaten Biak Numfor";"PAPUA";"98111";"Indonesia";" 08114743111";"-1.1918619";"136.1049095";"https://maps.google.com/?cid=0x0:0x94321ded15c5a4a3"
"hotel";"hotel";"Agung Hotel";"R36V+MW8, Mandala, Kec. Biak Kota, Kabupaten Biak Numfor, Papua 98111";"Mandala, Kec. Biak Kota, Kabupaten Biak Numfor";"PAPUA";"98111";"Indonesia";"";"-1.1883413";"136.0948382";"https://maps.google.com/?cid=0x0:0x30d4b4e3f34c7a61"
"hotel";"hotel";"Hotel Marasi";"R445+X37, Jl. M Yamin, Ambroben, Kec. Biak Kota, Kabupaten Biak Numfor, Papua 98118";"Jl. M Yamin, Ambroben, Kec. Biak Kota, Kabupaten Biak Numfor";"PAPUA";"98118";"Indonesia";"";"-1.192595";"136.1076812";"https://maps.google.com/?cid=0x0:0x166c2b58a3cf153e"
"hotel";"Rumah wisata";"Hotel Dahlia";"Jalan Selat Madura No. 6 Samofa, Fandoi, Kec. Biak Kota, Kabupaten Biak Numfor, Papua 98114";"Fandoi, Kec. Biak Kota, Kabupaten Biak Numfor";"PAPUA";"98114";"Indonesia";" 098121851";"-1.1834553";"136.0833969";"https://maps.google.com/?cid=0x0:0x8a02fc27d38841c9"
"hotel";"hotel";"Hotel Basana Inn";"Jl. Imam Bonjol, Fandoi, Biak, Kabupaten Biak Numfor, Papua 98112";"Fandoi, Biak, Kabupaten Biak Numfor";"PAPUA";"98112";"Indonesia";" 098122281";"-1.1811297";"136.0825355";"https://maps.google.com/?cid=0x0:0x1b08ff238ba2abe9"
"hotel";"hotel";"N/A";"";"";"PAPUA";"";"Indonesia";"";"";"";"https://maps.google.com/?cid=0x0:0x1b08ff238ba2abe9%7C/g/11h0ft_9b%7Cid-ID"
"hotel";"hotel";"Hotel Manna";"Jl. Imam Bonjol, Fandoi, Biak Papua, Kabupaten Biak Numfor, Papua 98112";"Fandoi, Biak Papua, Kabupaten Biak Numfor";"PAPUA";"98112";"Indonesia";" 098122224";"-1.1808075";"136.0821667";"https://maps.google.com/?cid=0x0:0x58ba27a7cb3a5bd6"
"hotel";"hotel";"Hotel Mapia";"Jl. Jend. Ahmad Yani No.23, Mandala, Kec. Biak Kota, Kabupaten Biak Numfor, Papua 98111";"Mandala, Kec. Biak Kota, Kabupaten Biak Numfor";"PAPUA";"98111";"Indonesia";" 098121383";"-1.1848375";"136.0856602";"https://maps.google.com/?cid=0x0:0x15f6e40202cd7120"
"hotel";"hotel";"Arumbai Hotel";"Jl. Imam Bonjol No.2, Fandoi, Kec. Biak Kota, Kabupaten Biak Numfor, Papua 98111";"Fandoi, Kec. Biak Kota, Kabupaten Biak Numfor";"PAPUA";"98111";"Indonesia";"";"-1.1831962";"136.0817419";"https://maps.google.com/?cid=0x0:0x92f1df543a771343"
"hotel";"Hotel bintang 4";"Padaido Hotel";"R37M+CJJ, Fandoi, Kec. Biak Kota, Kabupaten Biak Numfor, Papua 98111";"Fandoi, Kec. Biak Kota, Kabupaten Biak Numfor";"PAPUA";"98111";"Indonesia";" 081344393177";"-1.1864133";"136.0840154";"https://maps.google.com/?cid=0x0:0x5972d1b6bdd68ae8"
"hotel";"Hotel";"Hotel ANDHINEE";"Swapodibo, Kec. Biak Kota, Kabupaten Biak Numfor, Papua 98118";"Kec. Biak Kota, Kabupaten Biak Numfor";"PAPUA";"98118";"Indonesia";"";"-1.1898328";"136.1220136";"https://maps.google.com/?cid=0x0:0xecb41df80b4ce6c4"
"hotel";"hotel";"Distrik Andey";"Kabupaten Biak Numfor, Papua";"Kabupaten Biak Numfor, Papua";"PAPUA";"";"Indonesia";"";"-0.8632296";"135.9457066";"https://maps.google.com/?cid=0x0:0xbdf1e0ba9b83aec1"
"hotel";"hotel";"HOTEL AINA";"CGM6+R9J, Jl. Raya Kemiri, Sentani Kota, Kec. Sentani, Kabupaten Jayapura, Papua";"Kabupaten Jayapura, Papua";"PAPUA";"";"Indonesia";" 085243960057";"-2.5654218";"140.5108844";"https://maps.google.com/?cid=0x0:0xe10f3eb6fe778f83"
"hotel";"hotel";"Hotel Manna";"Jl. Imam Bonjol, Fandoi, Biak Papua, Kabupaten Biak Numfor, Papua 98112";"Fandoi, Biak Papua, Kabupaten Biak Numfor";"PAPUA";"98112";"Indonesia";" 098122224";"-1.1808075";"136.0821667";"https://maps.google.com/?cid=0x0:0x58ba27a7cb3a5bd6"
"hotel";"hotel";"Papua 98157";"Kabupaten Biak Numfor, Papua";"Kabupaten Biak Numfor, Papua";"PAPUA";"";"Indonesia";"";"-0.8013579";"135.8849587";"https://maps.google.com/?cid=0x0:0xc4bb574f645569e5"
"hotel";"hotel";"Penginapan lestari";"Jl.Yan Mamoribo No.80, Mamoribo, Waisai, Kabupaten Biak Numfor, Papua 98481";"Mamoribo, Waisai, Kabupaten Biak Numfor";"PAPUA";"98481";"Indonesia";" 02198826634";"-0.976628";"135.83272";"https://maps.google.com/?cid=0x0:0x335024486992d26"
"hotel";"hotel";"Intsia Beach Hotel";"Jl. Walter Monginsidi No.7, Fandoi, Kec. Biak Kota, Kabupaten Biak Numfor, Papua 98111";"Fandoi, Kec. Biak Kota, Kabupaten Biak Numfor";"PAPUA";"98111";"Indonesia";" 098121891";"-1.1862086";"136.0837686";"https://maps.google.com/?cid=0x0:0x564eb7930861f544"
"hotel";"Museum";"Objek Wisata Goa Jepang Biak Papua";"Kampung Wisata, Binsari, Jl. Goa Jepang, Kec. Samofa, Kabupaten Biak Numfor, Papua 98118";"Binsari, Jl. Goa Jepang, Kec. Samofa, Kabupaten Biak Numfor";"PAPUA";"98118";"Indonesia";"";"-1.1778447";"136.1049498";"https://maps.google.com/?cid=0x0:0x93df93a4aad95a9b"
"hotel";"hotel";"Papua 98154";"Kabupaten Biak Numfor, Papua";"Kabupaten Biak Numfor, Papua";"PAPUA";"";"Indonesia";"";"-0.9529483";"135.8659561";"https://maps.google.com/?cid=0x0:0x7baacb17c171a3e7"
"hotel";"hotel";"N/A";"";"";"PAPUA";"";"Indonesia";"";"";"";"https://maps.google.com/?cid=0x0:0xe0dc40892972b01f%7C/g/11j0z5hwyq%7Cid-ID"
"hotel";"hotel";"Swiss-Belhotel Cendrawasih Biak";"Jl. Imam Bonjol No.46, Fandoi, Kec. Biak Kota, Kabupaten Biak Numfor, Papua 98111";"Fandoi, Kec. Biak Kota, Kabupaten Biak Numfor";"PAPUA";"98111";"Indonesia";" 09818215555";"-1.1801431";"136.0821927";"https://maps.google.com/?cid=0x0:0xe0dc40892972b01f"
"hotel";"hotel";"Agung Hotel";"R36V+MW8, Mandala, Kec. Biak Kota, Kabupaten Biak Numfor, Papua 98111";"Mandala, Kec. Biak Kota, Kabupaten Biak Numfor";"PAPUA";"98111";"Indonesia";"";"-1.1883413";"136.0948382";"https://maps.google.com/?cid=0x0:0x30d4b4e3f34c7a61"
"hotel";"hotel";"Asana Biak Papua";"Jl. M Yamin No.04, Mandala, Kec. Biak Kota, Kabupaten Biak Numfor, Papua 98111";"Mandala, Kec. Biak Kota, Kabupaten Biak Numfor";"PAPUA";"98111";"Indonesia";" 08114743111";"-1.1918619";"136.1049095";"https://maps.google.com/?cid=0x0:0x94321ded15c5a4a3"
"hotel";"hotel";"Hotel Basana Inn";"Jl. Imam Bonjol, Fandoi, Biak, Kabupaten Biak Numfor, Papua 98112";"Fandoi, Biak, Kabupaten Biak Numfor";"PAPUA";"98112";"Indonesia";" 098122281";"-1.1811297";"136.0825355";"https://maps.google.com/?cid=0x0:0x1b08ff238ba2abe9"
"hotel";"hotel";"N/A";"";"";"PAPUA";"";"Indonesia";"";"";"";"https://maps.google.com/?cid=0x0:0x1b08ff238ba2abe9%7C/g/11h0ft_9b%7Cid-ID"
"hotel";"hotel";"HOMESTAY KARAWATU INN";"R39H+HC6, Jl. Dahlia, Burokub, Kec. Biak Kota, Kabupaten Biak Numfor, Papua 98111";"Jl. Dahlia, Burokub, Kec. Biak Kota, Kabupaten Biak Numfor";"PAPUA";"98111";"Indonesia";" 09812911069";"-1.1810921";"136.0785209";"https://maps.google.com/?cid=0x0:0xa2c4864ec378cf15"
"hotel";"hotel";"Arumbai Hotel";"Jl. Imam Bonjol No.2, Fandoi, Kec. Biak Kota, Kabupaten Biak Numfor, Papua 98111";"Fandoi, Kec. Biak Kota, Kabupaten Biak Numfor";"PAPUA";"98111";"Indonesia";"";"-1.1831962";"136.0817419";"https://maps.google.com/?cid=0x0:0x92f1df543a771343"
"hotel";"hotel";"Hotel Sahid Papua";"Jl. Klp. 2 No.18, Entrop, Distrik Jayapura Selatan, Kota Jayapura, Papua 99221";"Entrop, Distrik Jayapura Selatan, Kota Jayapura";"PAPUA";"99221";"Indonesia";" 08114814009";"-2.5661461";"140.6996539";"https://maps.google.com/?cid=0x0:0x9c8a2fd141b3aa33"
"hotel";"hotel";"N/A";"";"";"PAPUA";"";"Indonesia";"";"";"";"https://maps.google.com/?cid=0x0:0x9c8a2fd141b3aa33%7C/g/11b73kkp76%7Cid-ID"
"hotel";"hotel";"Penginapan lestari";"Jl.Yan Mamoribo No.80, Mamoribo, Waisai, Kabupaten Biak Numfor, Papua 98481";"Mamoribo, Waisai, Kabupaten Biak Numfor";"PAPUA";"98481";"Indonesia";" 02198826634";"-0.976628";"135.83272";"https://maps.google.com/?cid=0x0:0x335024486992d26"
"hotel";"hotel";"Intsia Beach Hotel";"Jl. Walter Monginsidi No.7, Fandoi, Kec. Biak Kota, Kabupaten Biak Numfor, Papua 98111";"Fandoi, Kec. Biak Kota, Kabupaten Biak Numfor";"PAPUA";"98111";"Indonesia";" 098121891";"-1.1862086";"136.0837686";"https://maps.google.com/?cid=0x0:0x564eb7930861f544"
"hotel";"hotel";"Hotel Mapia";"Jl. Jend. Ahmad Yani No.23, Mandala, Kec. Biak Kota, Kabupaten Biak Numfor, Papua 98111";"Mandala, Kec. Biak Kota, Kabupaten Biak Numfor";"PAPUA";"98111";"Indonesia";" 098121383";"-1.1848375";"136.0856602";"https://maps.google.com/?cid=0x0:0x15f6e40202cd7120"
"hotel";"hotel";"Hotel R6";"Jl.Cendrawasih SP2, Papua 99952";"Kabupaten Mimika, Papua";"PAPUA";"";"Indonesia";" 082245112457";"-4.538464";"136.8691429";"https://maps.google.com/?cid=0x0:0xb392d58fbaabfb69"
"hotel";"hotel";"Bruyadori";"Distrik Bruyadori, Kabupaten Biak Numfor, Papua";"Kabupaten Biak Numfor, Papua";"PAPUA";"";"Indonesia";"";"-1.0864326";"134.9673492";"https://maps.google.com/?cid=0x0:0x19722ff5380dd827"
"hotel";"hotel";"Hotel Sahid Papua";"Jl. Klp. 2 No.18, Entrop, Distrik Jayapura Selatan, Kota Jayapura, Papua 99221";"Entrop, Distrik Jayapura Selatan, Kota Jayapura";"PAPUA";"99221";"Indonesia";" 08114814009";"-2.5661461";"140.6996539";"https://maps.google.com/?cid=0x0:0x9c8a2fd141b3aa33"
"hotel";"hotel";"Hotel Rivior Sarmi";"4PVX+XHH, Sarmi, Kec. Sarmi, Kabupaten Sarmi, Papua 99373";"Sarmi, Kec. Sarmi, Kabupaten Sarmi";"PAPUA";"99373";"Indonesia";" 081247768282";"-1.8550507";"138.7489752";"https://maps.google.com/?cid=0x0:0x687222ae96a90f78"
"hotel";"hotel";"Hotel Dafonsoro";"Jl. Percetakan Negara No.20-24, Gurabesi, Kec. Jayapura Utara, Kota Jayapura, Papua 99221";"Gurabesi, Kec. Jayapura Utara, Kota Jayapura";"PAPUA";"99221";"Indonesia";" 085788877739";"-2.5406973";"140.7041061";"https://maps.google.com/?cid=0x0:0xda20a7d826a77577"
"hotel";"hotel";"Intsia Beach Hotel";"Jl. Walter Monginsidi No.7, Fandoi, Kec. Biak Kota, Kabupaten Biak Numfor, Papua 98111";"Fandoi, Kec. Biak Kota, Kabupaten Biak Numfor";"PAPUA";"98111";"Indonesia";" 098121891";"-1.1862086";"136.0837686";"https://maps.google.com/?cid=0x0:0x564eb7930861f544"
"hotel";"hotel";"Hotel Marasi";"R445+X37, Jl. M Yamin, Ambroben, Kec. Biak Kota, Kabupaten Biak Numfor, Papua 98118";"Jl. M Yamin, Ambroben, Kec. Biak Kota, Kabupaten Biak Numfor";"PAPUA";"98118";"Indonesia";"";"-1.192595";"136.1076812";"https://maps.google.com/?cid=0x0:0x166c2b58a3cf153e"
"hotel";"hotel";"Hotel Mapia";"Jl. Jend. Ahmad Yani No.23, Mandala, Kec. Biak Kota, Kabupaten Biak Numfor, Papua 98111";"Mandala, Kec. Biak Kota, Kabupaten Biak Numfor";"PAPUA";"98111";"Indonesia";" 098121383";"-1.1848375";"136.0856602";"https://maps.google.com/?cid=0x0:0x15f6e40202cd7120"
"hotel";"hotel";"BRILIAN HOME STAY";"Awabutu, Paniai Tim., Kabupaten Paniai, Papua 98726";"Paniai Tim., Kabupaten Paniai";"PAPUA";"98726";"Indonesia";"";"-3.9279032";"136.374559";"https://maps.google.com/?cid=0x0:0x7ec9835201b20301"
"hotel";"hotel";"Horison Sentani Papua";"Jl. Raya Kemiri No.79A, Hinekombe, Kec. Sentani, Kabupaten Jayapura, Papua 99352";"Hinekombe, Kec. Sentani, Kabupaten Jayapura";"PAPUA";"99352";"Indonesia";" 09675198888";"-2.564948";"140.5134784";"https://maps.google.com/?cid=0x0:0x2481b253bbad1508"
"hotel";"hotel";"Horiso";"CM59+9JM, Vim, Kec. Abepura, Kota Jayapura, Papua 99224";"Vim, Kec. Abepura, Kota Jayapura";"PAPUA";"99224";"Indonesia";"";"-2.5915361";"140.6690326";"https://maps.google.com/?cid=0x0:0x16e76f5f85bc4565"
"hotel";"hotel";"Horison Inn Relat Jayapura";"Jl. Pantai Klp. No.21 - 23, Argapura, Distrik Jayapura Selatan, Kota Jayapura, Papua";"Kota Jayapura, Papua";"PAPUA";"";"Indonesia";" 09675160779";"-2.5537101";"140.7148929";"https://maps.google.com/?cid=0x0:0xb98fc1bbb5c5c494"
"hotel";"hotel";"Hotel Mutiara";"CM3C+873, Jl. Perkutut, Vim, Kec. Abepura, Kota Jayapura, Papua 99225";"Jl. Perkutut, Vim, Kec. Abepura, Kota Jayapura";"PAPUA";"99225";"Indonesia";" 081348430963";"-2.5967398";"140.6706613";"https://maps.google.com/?cid=0x0:0xb730b0fce1d80fe4"
"hotel";"hotel";"Numbay Hotel";"Jl. Trikora No.23, Dok V, Trikora, Kec. Jayapura Utara, Kota Jayapura, Papua 99114";"Dok V, Trikora, Kec. Jayapura Utara, Kota Jayapura";"PAPUA";"99114";"Indonesia";" 09675166939";"-2.527363";"140.7185297";"https://maps.google.com/?cid=0x0:0x2a95e5b69088c98d"
"hotel";"hotel";"Penginapan fyadiren";"2RG7+922, Yenmanu, Distrik Numfor Barat, Kabupaten Biak Numfor, Papua 98172";"Yenmanu, Distrik Numfor Barat, Kabupaten Biak Numfor";"PAPUA";"98172";"Indonesia";" 082199243453";"-0.9742806";"134.8122776";"https://maps.google.com/?cid=0x0:0xf78a0745361bd553"
"hotel";"hotel";"Rimba Papua Hotel";"Jl. Kwamki Narama No. 1, Kwamki, Kec. Mimika Baru, Kabupaten Mimika, Papua 99971";"Kwamki, Kec. Mimika Baru, Kabupaten Mimika";"PAPUA";"99971";"Indonesia";" 0901494949";"-4.5151124";"136.884599";"https://maps.google.com/?cid=0x0:0xa65056700db32492"
"hotel";"hotel";"Swiss-Belinn Timika";"Kwamki, Kec. Mimika Baru, Kabupaten Mimika, Papua 99971";"Kec. Mimika Baru, Kabupaten Mimika";"PAPUA";"99971";"Indonesia";" 09013265949";"-4.5320138";"136.8642398";"https://maps.google.com/?cid=0x0:0xe2933010e70ba939"
"hotel";"hotel";"RAFAEL INN TIMIKA";"Jl. Kelimutu, Kwamki, Kec. Mimika Baru, Kabupaten Mimika, Papua 99912";"Kwamki, Kec. Mimika Baru, Kabupaten Mimika";"PAPUA";"99912";"Indonesia";" 081222201567";"-4.5369955";"136.8758451";"https://maps.google.com/?cid=0x0:0xb5f301a0d62aeed0"
"hotel";"hotel";"Horison Diana Timika";"Jl. Budi Utomo No.8, Kwamki, Kec. Mimika Baru, Kabupaten Mimika, Papua 99971";"Kwamki, Kec. Mimika Baru, Kabupaten Mimika";"PAPUA";"99971";"Indonesia";" 08114941818";"-4.5421375";"136.8835025";"https://maps.google.com/?cid=0x0:0xc5f75bca5af54755"
"hotel";"hotel";"Hotel Horison Ultima Timika";"Jl. Hasanuddin No.9, Nawaripi, Kec. Mimika Baru, Kabupaten Mimika, Papua 99971";"Nawaripi, Kec. Mimika Baru, Kabupaten Mimika";"PAPUA";"99971";"Indonesia";" 09013264888";"-4.5657683";"136.8827914";"https://maps.google.com/?cid=0x0:0x2acb1e774fc2c064"
"hotel";"hotel";"SAMUMAMBO HOTEL";"jl. cenderawasih belakang manna bakerei, Kwamki, Kec. Mimika Baru, Kabupaten Mimika, Papua 99910";"Kwamki, Kec. Mimika Baru, Kabupaten Mimika";"PAPUA";"99910";"Indonesia";" 081344090664";"-4.5424836";"136.8797497";"https://maps.google.com/?cid=0x0:0xcb5241de257efb93"
"hotel";"hotel";"Komoro Tame Hotel  Resort";"Jalan Cendrawasih SP II, Kwamki, Kec. Mimika Baru, Kabupaten Mimika, Papua 99910";"Kwamki, Kec. Mimika Baru, Kabupaten Mimika";"PAPUA";"99910";"Indonesia";" 09013260059";"-4.5411009";"136.8800714";"https://maps.google.com/?cid=0x0:0xe4c13d4863f484f5"
"hotel";"Hotel";"RedDoorz @ Jalan Cendrawasih Timika";"Jalan Cendrawasih Belakang Manna, Kwamki, Bakerei, Kabupaten Mimika, Papua 99910";"Kwamki, Bakerei, Kabupaten Mimika";"PAPUA";"99910";"Indonesia";" 0895417300072";"-4.5424845";"136.8797499";"https://maps.google.com/?cid=0x0:0xe497a05bd4efc640"
"hotel";"Taman";"Pusat kota kuala kencana";"JV39+Q2H, Kuala Kencana, Kec. Kuala Kencana, Kabupaten Mimika, Papua";"Kabupaten Mimika, Papua";"PAPUA";"";"Indonesia";"";"-4.3955572";"136.8676097";"https://maps.google.com/?cid=0x0:0xc130e6059a0d59c3"
"hotel";"hotel";"Distrik Poiru";"Kabupaten Biak Numfor, Papua";"Kabupaten Biak Numfor, Papua";"PAPUA";"";"Indonesia";"";"-0.9700197";"134.9424126";"https://maps.google.com/?cid=0x0:0xaa1a5134d7f11a74"
"hotel";"Restoran";"SUSHI BAR ADJA";"Rimba Papua Hotel, Kwamki, Kec. Mimika Baru, Kabupaten Mimika, Papua";"Kabupaten Mimika, Papua";"PAPUA";"";"Indonesia";" 081212369151";"-4.5151124";"136.884599";"https://maps.google.com/?cid=0x0:0xdbf7c5bd59350554"
"hotel";"hotel";"Hotel Karya Papua";"JGX6+2PM, Jl. R.E. Martadinata Kalinona, Nabarua, Distrik Nabire, Papua 98816";"Jl. R.E. Martadinata Kalinona, Nabarua, Distrik Nabire";"PAPUA";"98816";"Indonesia";" 082164655697";"-3.3524082";"135.5118114";"https://maps.google.com/?cid=0x0:0x8196bf4b8aafbb3f"
"hotel";"hotel";"Hotel Mapia";"Jl. Jend. Ahmad Yani No.23, Mandala, Kec. Biak Kota, Kabupaten Biak Numfor, Papua 98111";"Mandala, Kec. Biak Kota, Kabupaten Biak Numfor";"PAPUA";"98111";"Indonesia";" 098121383";"-1.1848375";"136.0856602";"https://maps.google.com/?cid=0x0:0x15f6e40202cd7120"
"hotel";"hotel";"Asana Biak Papua";"Jl. M Yamin No.04, Mandala, Kec. Biak Kota, Kabupaten Biak Numfor, Papua 98111";"Mandala, Kec. Biak Kota, Kabupaten Biak Numfor";"PAPUA";"98111";"Indonesia";" 08114743111";"-1.1918619";"136.1049095";"https://maps.google.com/?cid=0x0:0x94321ded15c5a4a3"
"hotel";"hotel";"Distrik Aimando Padaido";"Kabupaten Biak Numfor, Papua";"Kabupaten Biak Numfor, Papua";"PAPUA";"";"Indonesia";"";"-1.2143849";"136.5981595";"https://maps.google.com/?cid=0x0:0x7b5c29938f349564"
"hotel";"hotel";"Asana Biak Papua";"Jl. M Yamin No.04, Mandala, Kec. Biak Kota, Kabupaten Biak Numfor, Papua 98111";"Mandala, Kec. Biak Kota, Kabupaten Biak Numfor";"PAPUA";"98111";"Indonesia";" 08114743111";"-1.1918619";"136.1049095";"https://maps.google.com/?cid=0x0:0x94321ded15c5a4a3"
"hotel";"hotel";"Intsia Beach Hotel";"Jl. Walter Monginsidi No.7, Fandoi, Kec. Biak Kota, Kabupaten Biak Numfor, Papua 98111";"Fandoi, Kec. Biak Kota, Kabupaten Biak Numfor";"PAPUA";"98111";"Indonesia";" 098121891";"-1.1862086";"136.0837686";"https://maps.google.com/?cid=0x0:0x564eb7930861f544"
"hotel";"hotel";"Hotel Manna";"Jl. Imam Bonjol, Fandoi, Biak Papua, Kabupaten Biak Numfor, Papua 98112";"Fandoi, Biak Papua, Kabupaten Biak Numfor";"PAPUA";"98112";"Indonesia";" 098122224";"-1.1808075";"136.0821667";"https://maps.google.com/?cid=0x0:0x58ba27a7cb3a5bd6"
"hotel";"hotel";"Hotel Of Hasel";"Jl. Esau No.37 Mandala Pulau Biak, Mandala, Kec. Biak Kota, Kabupaten Biak Numfor, Papua 98111";"Mandala, Kec. Biak Kota, Kabupaten Biak Numfor";"PAPUA";"98111";"Indonesia";" 083119229269";"-1.180235";"136.0901681";"https://maps.google.com/?cid=0x0:0x65d093f8a4282080"
"hotel";"hotel";"Srafa Inn";"Jl. Sriwijaya No.21, Brambaken, kamorfuar, Kabupaten Biak Numfor, Papua 98111";"Brambaken, kamorfuar, Kabupaten Biak Numfor";"PAPUA";"98111";"Indonesia";" 0981222662";"-1.1595789";"136.083491";"https://maps.google.com/?cid=0x0:0x64679ba26e556e55"
"hotel";"hotel";"Distrik Oridek";"Kabupaten Biak Numfor, Papua";"Kabupaten Biak Numfor, Papua";"PAPUA";"";"Indonesia";"";"-1.146118";"136.2744853";"https://maps.google.com/?cid=0x0:0x33a1275478c34e"
"hotel";"hotel";"Asana Biak Papua";"Jl. M Yamin No.04, Mandala, Kec. Biak Kota, Kabupaten Biak Numfor, Papua 98111";"Mandala, Kec. Biak Kota, Kabupaten Biak Numfor";"PAPUA";"98111";"Indonesia";" 08114743111";"-1.1918619";"136.1049095";"https://maps.google.com/?cid=0x0:0x94321ded15c5a4a3"
"hotel";"hotel";"Nirmala Beach Hotel and Resort";"R3G3+QH, Jalan Sorido No.26, Samau, Biak Kota, Biak Numfor Regency, Papua 98115";"Jalan Sorido No.26, Samau, Biak Kota, Biak Numfor Regency";"PAPUA";"98115";"Indonesia";" 0811495195";"-1.173556";"136.0525649";"https://maps.google.com/?cid=0x0:0xb5989ec0f08e9def"
"hotel";"hotel";"N/A";"";"";"PAPUA";"";"Indonesia";"";"";"";"https://maps.google.com/?cid=0x0:0xe0dc40892972b01f%7C/g/11j0z5hwyq%7Cid-ID"
"hotel";"hotel";"Agung Hotel";"R36V+MW8, Mandala, Kec. Biak Kota, Kabupaten Biak Numfor, Papua 98111";"Mandala, Kec. Biak Kota, Kabupaten Biak Numfor";"PAPUA";"98111";"Indonesia";"";"-1.1883413";"136.0948382";"https://maps.google.com/?cid=0x0:0x30d4b4e3f34c7a61"
"hotel";"hotel";"HOMESTAY KARAWATU INN";"R39H+HC6, Jl. Dahlia, Burokub, Kec. Biak Kota, Kabupaten Biak Numfor, Papua 98111";"Jl. Dahlia, Burokub, Kec. Biak Kota, Kabupaten Biak Numfor";"PAPUA";"98111";"Indonesia";" 09812911069";"-1.1810921";"136.0785209";"https://maps.google.com/?cid=0x0:0xa2c4864ec378cf15"
"hotel";"hotel";"Hotel Basana Inn";"Jl. Imam Bonjol, Fandoi, Biak, Kabupaten Biak Numfor, Papua 98112";"Fandoi, Biak, Kabupaten Biak Numfor";"PAPUA";"98112";"Indonesia";" 098122281";"-1.1811297";"136.0825355";"https://maps.google.com/?cid=0x0:0x1b08ff238ba2abe9"
"hotel";"hotel";"N/A";"";"";"PAPUA";"";"Indonesia";"";"";"";"https://maps.google.com/?cid=0x0:0x1b08ff238ba2abe9%7C/g/11h0ft_9b%7Cid-ID"
"hotel";"hotel";"Arumbai Hotel";"Jl. Imam Bonjol No.2, Fandoi, Kec. Biak Kota, Kabupaten Biak Numfor, Papua 98111";"Fandoi, Kec. Biak Kota, Kabupaten Biak Numfor";"PAPUA";"98111";"Indonesia";"";"-1.1831962";"136.0817419";"https://maps.google.com/?cid=0x0:0x92f1df543a771343"
"hotel";"hotel";"Intsia Beach Hotel";"Jl. Walter Monginsidi No.7, Fandoi, Kec. Biak Kota, Kabupaten Biak Numfor, Papua 98111";"Fandoi, Kec. Biak Kota, Kabupaten Biak Numfor";"PAPUA";"98111";"Indonesia";" 098121891";"-1.1862086";"136.0837686";"https://maps.google.com/?cid=0x0:0x564eb7930861f544"
"hotel";"hotel";"Nirmala Hotel";"Jl. Selat Madura No.13, Fandoi, Kec. Biak Kota, Kabupaten Biak Numfor, Papua 98111";"Fandoi, Kec. Biak Kota, Kabupaten Biak Numfor";"PAPUA";"98111";"Indonesia";" 098122005";"-1.1832068";"136.0835725";"https://maps.google.com/?cid=0x0:0x1fa7300a4c006ebd"
"hotel";"hotel";"Hotel Marasi";"R445+X37, Jl. M Yamin, Ambroben, Kec. Biak Kota, Kabupaten Biak Numfor, Papua 98118";"Jl. M Yamin, Ambroben, Kec. Biak Kota, Kabupaten Biak Numfor";"PAPUA";"98118";"Indonesia";"";"-1.192595";"136.1076812";"https://maps.google.com/?cid=0x0:0x166c2b58a3cf153e"
"hotel";"hotel";"Hotel Mapia";"Jl. Jend. Ahmad Yani No.23, Mandala, Kec. Biak Kota, Kabupaten Biak Numfor, Papua 98111";"Mandala, Kec. Biak Kota, Kabupaten Biak Numfor";"PAPUA";"98111";"Indonesia";" 098121383";"-1.1848375";"136.0856602";"https://maps.google.com/?cid=0x0:0x15f6e40202cd7120"
"hotel";"hotel";"Hotel Manna";"Jl. Imam Bonjol, Fandoi, Biak Papua, Kabupaten Biak Numfor, Papua 98112";"Fandoi, Biak Papua, Kabupaten Biak Numfor";"PAPUA";"98112";"Indonesia";" 098122224";"-1.1808075";"136.0821667";"https://maps.google.com/?cid=0x0:0x58ba27a7cb3a5bd6"
"hotel";"hotel";"Bondifuar";"Sansundi, Kabupaten Biak Numfor, Papua";"Kabupaten Biak Numfor, Papua";"PAPUA";"";"Indonesia";"";"-0.690129";"135.8185211";"https://maps.google.com/?cid=0x0:0x425bf86d4ccf74c7"
"hotel";"hotel";"Asana Biak Papua";"Jl. M Yamin No.04, Mandala, Kec. Biak Kota, Kabupaten Biak Numfor, Papua 98111";"Mandala, Kec. Biak Kota, Kabupaten Biak Numfor";"PAPUA";"98111";"Indonesia";" 08114743111";"-1.1918619";"136.1049095";"https://maps.google.com/?cid=0x0:0x94321ded15c5a4a3"
"hotel";"hotel";"Bisnis Hotel";"Kwamki, Kec. Mimika Baru, Kabupaten Mimika, Papua 99971";"Kec. Mimika Baru, Kabupaten Mimika";"PAPUA";"99971";"Indonesia";" 09013264510";"-4.5452777";"136.8833867";"https://maps.google.com/?cid=0x0:0x690d0340d9882c9c"
"hotel";"hotel";"Hotel Mapia";"Jl. Jend. Ahmad Yani No.23, Mandala, Kec. Biak Kota, Kabupaten Biak Numfor, Papua 98111";"Mandala, Kec. Biak Kota, Kabupaten Biak Numfor";"PAPUA";"98111";"Indonesia";" 098121383";"-1.1848375";"136.0856602";"https://maps.google.com/?cid=0x0:0x15f6e40202cd7120"
"hotel";"hotel";"Hotel Dafonsoro";"Jl. Percetakan Negara No.20-24, Gurabesi, Kec. Jayapura Utara, Kota Jayapura, Papua 99221";"Gurabesi, Kec. Jayapura Utara, Kota Jayapura";"PAPUA";"99221";"Indonesia";" 085788877739";"-2.5406973";"140.7041061";"https://maps.google.com/?cid=0x0:0xda20a7d826a77577"
"hotel";"hotel";"N/A";"";"";"PAPUA";"";"Indonesia";"";"";"";"https://maps.google.com/?cid=0x0:0xbd14f75af0c6e48b%7C/g/120xv389%7Cid-ID"
"hotel";"hotel";"Swiss-Belhotel Jayapura, Papua";"Pusat Bisnis Jayapura, Jl. Pacific Permai, Bayangkara, Kec. Jayapura Utara, Kota Jayapura, Papua 99112";"Jl. Pacific Permai, Bayangkara, Kec. Jayapura Utara, Kota Jayapura";"PAPUA";"99112";"Indonesia";" 0967551888";"-2.539046";"140.711573";"https://maps.google.com/?cid=0x0:0xbd14f75af0c6e48b"
"hotel";"hotel";"Hotel Manna";"Jl. Imam Bonjol, Fandoi, Biak Papua, Kabupaten Biak Numfor, Papua 98112";"Fandoi, Biak Papua, Kabupaten Biak Numfor";"PAPUA";"98112";"Indonesia";" 098122224";"-1.1808075";"136.0821667";"https://maps.google.com/?cid=0x0:0x58ba27a7cb3a5bd6"
"hotel";"hotel";"Hotel Karya Papua";"JGX6+2PM, Jl. R.E. Martadinata Kalinona, Nabarua, Distrik Nabire, Papua 98816";"Jl. R.E. Martadinata Kalinona, Nabarua, Distrik Nabire";"PAPUA";"98816";"Indonesia";" 082164655697";"-3.3524082";"135.5118114";"https://maps.google.com/?cid=0x0:0x8196bf4b8aafbb3f"
"hotel";"hotel";"Nirmala Beach Hotel and Resort";"R3G3+QH, Jalan Sorido No.26, Samau, Biak Kota, Biak Numfor Regency, Papua 98115";"Jalan Sorido No.26, Samau, Biak Kota, Biak Numfor Regency";"PAPUA";"98115";"Indonesia";" 0811495195";"-1.173556";"136.0525649";"https://maps.google.com/?cid=0x0:0xb5989ec0f08e9def"
"hotel";"Tujuan Wisata";"Raja Tiga Adoki";"VX4M+PH5, Adoki, Kec. Yendidori, Kabupaten Biak Numfor, Papua 98116";"Adoki, Kec. Yendidori, Kabupaten Biak Numfor";"PAPUA";"98116";"Indonesia";"";"-1.1432278";"135.9839918";"https://maps.google.com/?cid=0x0:0xae9564f78f25adbe"
"hotel";"hotel";"Arumbai Hotel";"Jl. Imam Bonjol No.2, Fandoi, Kec. Biak Kota, Kabupaten Biak Numfor, Papua 98111";"Fandoi, Kec. Biak Kota, Kabupaten Biak Numfor";"PAPUA";"98111";"Indonesia";"";"-1.1831962";"136.0817419";"https://maps.google.com/?cid=0x0:0x92f1df543a771343"
"hotel";"hotel";"Hotel Basana Inn";"Jl. Imam Bonjol, Fandoi, Biak, Kabupaten Biak Numfor, Papua 98112";"Fandoi, Biak, Kabupaten Biak Numfor";"PAPUA";"98112";"Indonesia";" 098122281";"-1.1811297";"136.0825355";"https://maps.google.com/?cid=0x0:0x1b08ff238ba2abe9"
"hotel";"Museum";"Objek Wisata Goa Jepang Biak Papua";"Kampung Wisata, Binsari, Jl. Goa Jepang, Kec. Samofa, Kabupaten Biak Numfor, Papua 98118";"Binsari, Jl. Goa Jepang, Kec. Samofa, Kabupaten Biak Numfor";"PAPUA";"98118";"Indonesia";"";"-1.1778447";"136.1049498";"https://maps.google.com/?cid=0x0:0x93df93a4aad95a9b"
"restaurant";"restaurant";"Papua 98111";"Kabupaten Biak Numfor, Papua";"Kabupaten Biak Numfor, Papua";"PAPUA";"";"Indonesia";"";"-1.1761491";"136.0897124";"https://maps.google.com/?cid=0x0:0x2a08da43231bb9ff"
"restaurant";"Masakan Asia";"Phinisi Cafe  Resto Biak";"R3CR+XPG Near TOKO MANDIRI BARU, Jl. Raya Bosnik, Karang Mulia, Samofa, Biak Numfor Regency, Papua 98111";"Jl. Raya Bosnik, Karang Mulia, Samofa, Biak Numfor Regency";"PAPUA";"98111";"Indonesia";"";"-1.1775711";"136.0918153";"https://maps.google.com/?cid=0x0:0x275c328e8b99a970"
"restaurant";"China";"House Of Supernova";"Jl. Airlangga, Waupnor, Kec. Biak Kota, Kabupaten Biak Numfor, Papua 98115";"Waupnor, Kec. Biak Kota, Kabupaten Biak Numfor";"PAPUA";"98115";"Indonesia";"";"-1.1801045";"136.0755514";"https://maps.google.com/?cid=0x0:0x1c6ac29efe712325"
"restaurant";"Prasmanan";"Depot Afifah";"R38M+6P3, Jl. Jend. Ahmad Yani, Fandoi, Kec. Biak Kota, Kabupaten Biak Numfor, Papua 98111";"Jl. Jend. Ahmad Yani, Fandoi, Kec. Biak Kota, Kabupaten Biak Numfor";"PAPUA";"98111";"Indonesia";" 098123436";"-1.1844773";"136.0843071";"https://maps.google.com/?cid=0x0:0xa39b15022074a9ac"
"restaurant";"Toko Roti";"Restoran Jakarta  Cafe - Hawai Bakery";"Jl. Imam Bonjol No.10, Fandoi, Kec. Biak Kota, Kabupaten Biak Numfor, Papua 98111";"Fandoi, Kec. Biak Kota, Kabupaten Biak Numfor";"PAPUA";"98111";"Indonesia";" 09818212975";"-1.1833091";"136.0822542";"https://maps.google.com/?cid=0x0:0x4f8c71442b3699bd"
"restaurant";"Restoran";"RB Cafe  Resto";"R3MQ+CWM, Brambaken, Kec. Samofa, Kabupaten Biak Numfor, Papua 98111";"Brambaken, Kec. Samofa, Kabupaten Biak Numfor";"PAPUA";"98111";"Indonesia";"";"-1.1664379";"136.0898802";"https://maps.google.com/?cid=0x0:0x75f17d82e246699e"
"restaurant";"Jawa";"Warung Makan Dannis";"Fandoi, Kec. Biak Kota, Kabupaten Biak Numfor, Papua 98111";"Kec. Biak Kota, Kabupaten Biak Numfor";"PAPUA";"98111";"Indonesia";" 081340981068";"-1.1773124";"136.0789394";"https://maps.google.com/?cid=0x0:0x191a8a644281410"
"restaurant";"Restoran";"Bebek Madura Om Amor";"Jl. Majapahit, Samofa, Kec. Samofa, Kabupaten Biak Numfor, Papua 98111";"Samofa, Kec. Samofa, Kabupaten Biak Numfor";"PAPUA";"98111";"Indonesia";" 085336862656";"-1.1740719";"136.0902543";"https://maps.google.com/?cid=0x0:0x920d788df2ece9a3"
"restaurant";"Kedai Kopi";"BBc Cafe  Resto Biak-Papua";"R3MQ+6CG, Brambaken, Kec. Samofa, Kabupaten Biak Numfor, Papua 98111";"Brambaken, Kec. Samofa, Kabupaten Biak Numfor";"PAPUA";"98111";"Indonesia";" 085215086162";"-1.1669262";"136.0885849";"https://maps.google.com/?cid=0x0:0x29dee206c0f8e573"
"restaurant";"Bakso";"Rumah Makan Solo";"R3CP+2CH, Mandala, Kec. Biak Kota, Kabupaten Biak Numfor, Papua 98111";"Mandala, Kec. Biak Kota, Kabupaten Biak Numfor";"PAPUA";"98111";"Indonesia";"";"-1.1799411";"136.0860956";"https://maps.google.com/?cid=0x0:0x21d7dee2262f24a5"
"restaurant";"Katering";"99 Restoran";"biak, Jl. Imam Bonjol No.32, Fandoi, Kec. Biak Kota, Kabupaten Biak Numfor, Papua 98112";"Jl. Imam Bonjol No.32, Fandoi, Kec. Biak Kota, Kabupaten Biak Numfor";"PAPUA";"98112";"Indonesia";" 098121450";"-1.1819157";"136.0825408";"https://maps.google.com/?cid=0x0:0xe657a176ad761bd1"
"restaurant";"Ikan Bakar";"Warung Makan Barokah";"R38M+5RV, Fandoi, Kec. Biak Kota, Kabupaten Biak Numfor, Papua 98111";"Fandoi, Kec. Biak Kota, Kabupaten Biak Numfor";"PAPUA";"98111";"Indonesia";"";"-1.1845003";"136.0845364";"https://maps.google.com/?cid=0x0:0x232ce5c7e443bbd9"
"restaurant";"Sulawesi Selatan";"Coto Makassar Biak";"R3FH+75F, Jl. Sisingamangaraja, Samofa, Kec. Samofa, Kabupaten Biak Numfor, Papua 98111";"Jl. Sisingamangaraja, Samofa, Kec. Samofa, Kabupaten Biak Numfor";"PAPUA";"98111";"Indonesia";"";"-1.1768011";"136.0779234";"https://maps.google.com/?cid=0x0:0x74112560ecf04d51"
"restaurant";"Ikan Bakar";"Ikan Bakar Kole Kole";"R3QQ+3JG, Mandouw, Kec. Samofa, Kabupaten Biak Numfor, Papua 98111";"Mandouw, Kec. Samofa, Kabupaten Biak Numfor";"PAPUA";"98111";"Indonesia";" 082199279094";"-1.162309";"136.0890924";"https://maps.google.com/?cid=0x0:0xab0a53fa5d42b39c"
"restaurant";"restaurant";"Papua 98112";"Kabupaten Biak Numfor, Papua";"Kabupaten Biak Numfor, Papua";"PAPUA";"";"Indonesia";"";"-1.1704798";"136.068244";"https://maps.google.com/?cid=0x0:0x36b6ebf6f8a4c3c6"
"restaurant";"Katering";"99 Restoran";"biak, Jl. Imam Bonjol No.32, Fandoi, Kec. Biak Kota, Kabupaten Biak Numfor, Papua 98112";"Jl. Imam Bonjol No.32, Fandoi, Kec. Biak Kota, Kabupaten Biak Numfor";"PAPUA";"98112";"Indonesia";" 098121450";"-1.1819157";"136.0825408";"https://maps.google.com/?cid=0x0:0xe657a176ad761bd1"
"restaurant";"Rumah Makan";"RM. DAPOER CLARA";"Jl. Sisingamangaraja No.12, Sorido, Kec. Samofa, Kabupaten Biak Numfor, Papua 98112";"Sorido, Kec. Samofa, Kabupaten Biak Numfor";"PAPUA";"98112";"Indonesia";" 085244547889";"-1.1710501";"136.0675506";"https://maps.google.com/?cid=0x0:0x7facc94c3ed6f6fa"
"restaurant";"Kedai Kopi";"BBc Cafe  Resto Biak-Papua";"R3MQ+6CG, Brambaken, Kec. Samofa, Kabupaten Biak Numfor, Papua 98111";"Brambaken, Kec. Samofa, Kabupaten Biak Numfor";"PAPUA";"98111";"Indonesia";" 085215086162";"-1.1669262";"136.0885849";"https://maps.google.com/?cid=0x0:0x29dee206c0f8e573"
"restaurant";"Toko Roti";"Restoran Jakarta  Cafe - Hawai Bakery";"Jl. Imam Bonjol No.10, Fandoi, Kec. Biak Kota, Kabupaten Biak Numfor, Papua 98111";"Fandoi, Kec. Biak Kota, Kabupaten Biak Numfor";"PAPUA";"98111";"Indonesia";" 09818212975";"-1.1833091";"136.0822542";"https://maps.google.com/?cid=0x0:0x4f8c71442b3699bd"
"restaurant";"Prasmanan";"Depot Afifah";"R38M+6P3, Jl. Jend. Ahmad Yani, Fandoi, Kec. Biak Kota, Kabupaten Biak Numfor, Papua 98111";"Jl. Jend. Ahmad Yani, Fandoi, Kec. Biak Kota, Kabupaten Biak Numfor";"PAPUA";"98111";"Indonesia";" 098123436";"-1.1844773";"136.0843071";"https://maps.google.com/?cid=0x0:0xa39b15022074a9ac"
"restaurant";"Kedai Kopi";"Three - C Caffe  Resto";"Kios Putih, Belakang, Yafdas, Samofa, Biak Numfor Regency, Papua";"Kabupaten Biak Numfor, Papua";"PAPUA";"";"Indonesia";" 08124825299";"-1.1568604";"136.0741199";"https://maps.google.com/?cid=0x0:0xda23b17446b60b0c"
"restaurant";"Restoran";"RM. Pondok Bambu";"R39J+7H5, Jl. Selat Gaspar, Fandoi, Kec. Biak Kota, Kabupaten Biak Numfor, Papua 98111";"Jl. Selat Gaspar, Fandoi, Kec. Biak Kota, Kabupaten Biak Numfor";"PAPUA";"98111";"Indonesia";"";"-1.1818615";"136.0814848";"https://maps.google.com/?cid=0x0:0x9609d1da6b8d87b1"
"restaurant";"Kafe";"Olin Resto  Cafe";"R3MJ+548, Jl. Condronegoro, Samofa, Kec. Samofa, Kabupaten Biak Numfor, Papua 98111";"Jl. Condronegoro, Samofa, Kec. Samofa, Kabupaten Biak Numfor";"PAPUA";"98111";"Indonesia";"";"-1.1670816";"136.0803283";"https://maps.google.com/?cid=0x0:0x95c05f68ab97797b"
"restaurant";"Prasmanan";"Angkasa _ Prasmanan";"R3GC+FMJ, Jl. Sisingamangaraja, Samofa, Kec. Samofa, Kabupaten Biak Numfor, Papua 98112";"Jl. Sisingamangaraja, Samofa, Kec. Samofa, Kabupaten Biak Numfor";"PAPUA";"98112";"Indonesia";"";"-1.1737786";"136.0716357";"https://maps.google.com/?cid=0x0:0xc8d7edf09c78872a"
"restaurant";"Jawa";"Warung Makan Dannis";"Fandoi, Kec. Biak Kota, Kabupaten Biak Numfor, Papua 98111";"Kec. Biak Kota, Kabupaten Biak Numfor";"PAPUA";"98111";"Indonesia";" 081340981068";"-1.1773124";"136.0789394";"https://maps.google.com/?cid=0x0:0x191a8a644281410"
"restaurant";"Hidangan Laut";"RM sukacita";"R3FH+2JW, Samofa, Kec. Samofa, Kabupaten Biak Numfor, Papua 98111";"Samofa, Kec. Samofa, Kabupaten Biak Numfor";"PAPUA";"98111";"Indonesia";" 098124629";"-1.1773858";"136.0790755";"https://maps.google.com/?cid=0x0:0x82fcb39516e9f875"
"restaurant";"Brunch";"RM. Padang Sari Kapau";"R3GF+436, Samofa, Kec. Samofa, Kabupaten Biak Numfor, Papua 98112";"Samofa, Kec. Samofa, Kabupaten Biak Numfor";"PAPUA";"98112";"Indonesia";"";"-1.1747009";"136.0726525";"https://maps.google.com/?cid=0x0:0xcfc7f679c5907212"
"restaurant";"Sulawesi Selatan";"Coto Makassar Biak";"R3FH+75F, Jl. Sisingamangaraja, Samofa, Kec. Samofa, Kabupaten Biak Numfor, Papua 98111";"Jl. Sisingamangaraja, Samofa, Kec. Samofa, Kabupaten Biak Numfor";"PAPUA";"98111";"Indonesia";"";"-1.1768011";"136.0779234";"https://maps.google.com/?cid=0x0:0x74112560ecf04d51"
"restaurant";"restaurant";"Papua 98113";"Kabupaten Biak Numfor, Papua";"Kabupaten Biak Numfor, Papua";"PAPUA";"";"Indonesia";"";"-1.15291";"136.0634745";"https://maps.google.com/?cid=0x0:0xb1fa8f2f87b90209"
"restaurant";"China";"House Of Supernova";"Jl. Airlangga, Waupnor, Kec. Biak Kota, Kabupaten Biak Numfor, Papua 98115";"Waupnor, Kec. Biak Kota, Kabupaten Biak Numfor";"PAPUA";"98115";"Indonesia";"";"-1.1801045";"136.0755514";"https://maps.google.com/?cid=0x0:0x1c6ac29efe712325"
"restaurant";"Rumah Makan";"RM. DAPOER CLARA";"Jl. Sisingamangaraja No.12, Sorido, Kec. Samofa, Kabupaten Biak Numfor, Papua 98112";"Sorido, Kec. Samofa, Kabupaten Biak Numfor";"PAPUA";"98112";"Indonesia";" 085244547889";"-1.1710501";"136.0675506";"https://maps.google.com/?cid=0x0:0x7facc94c3ed6f6fa"
"restaurant";"Katering";"99 Restoran";"biak, Jl. Imam Bonjol No.32, Fandoi, Kec. Biak Kota, Kabupaten Biak Numfor, Papua 98112";"Jl. Imam Bonjol No.32, Fandoi, Kec. Biak Kota, Kabupaten Biak Numfor";"PAPUA";"98112";"Indonesia";" 098121450";"-1.1819157";"136.0825408";"https://maps.google.com/?cid=0x0:0xe657a176ad761bd1"
"restaurant";"Toko Roti";"Restoran Jakarta  Cafe - Hawai Bakery";"Jl. Imam Bonjol No.10, Fandoi, Kec. Biak Kota, Kabupaten Biak Numfor, Papua 98111";"Fandoi, Kec. Biak Kota, Kabupaten Biak Numfor";"PAPUA";"98111";"Indonesia";" 09818212975";"-1.1833091";"136.0822542";"https://maps.google.com/?cid=0x0:0x4f8c71442b3699bd"
"restaurant";"Restoran";"Rumah Makan Simpang Raya";"R3P8+J98, Jl. Raya Sorido, Sorido, Kec. Biak Kota, Kabupaten Biak Numfor, Papua 98113";"Jl. Raya Sorido, Sorido, Kec. Biak Kota, Kabupaten Biak Numfor";"PAPUA";"98113";"Indonesia";"";"-1.1634696";"136.065948";"https://maps.google.com/?cid=0x0:0xe1c7bd1929b68268"
"restaurant";"Kedai Kopi";"Warung Makan Lake Toba";"Jl. Raya Sorido No.52, Sorido, Kec. Biak Kota, Kabupaten Biak Numfor, Papua 98113";"Sorido, Kec. Biak Kota, Kabupaten Biak Numfor";"PAPUA";"98113";"Indonesia";" 081240410167";"-1.1612496";"136.0629803";"https://maps.google.com/?cid=0x0:0x6867d79dcde7c93f"
"restaurant";"Prasmanan";"Depot Afifah";"R38M+6P3, Jl. Jend. Ahmad Yani, Fandoi, Kec. Biak Kota, Kabupaten Biak Numfor, Papua 98111";"Jl. Jend. Ahmad Yani, Fandoi, Kec. Biak Kota, Kabupaten Biak Numfor";"PAPUA";"98111";"Indonesia";" 098123436";"-1.1844773";"136.0843071";"https://maps.google.com/?cid=0x0:0xa39b15022074a9ac"
"restaurant";"Restoran";"RB Cafe  Resto";"R3MQ+CWM, Brambaken, Kec. Samofa, Kabupaten Biak Numfor, Papua 98111";"Brambaken, Kec. Samofa, Kabupaten Biak Numfor";"PAPUA";"98111";"Indonesia";"";"-1.1664379";"136.0898802";"https://maps.google.com/?cid=0x0:0x75f17d82e246699e"
"restaurant";"Kedai Kopi";"BBc Cafe  Resto Biak-Papua";"R3MQ+6CG, Brambaken, Kec. Samofa, Kabupaten Biak Numfor, Papua 98111";"Brambaken, Kec. Samofa, Kabupaten Biak Numfor";"PAPUA";"98111";"Indonesia";" 085215086162";"-1.1669262";"136.0885849";"https://maps.google.com/?cid=0x0:0x29dee206c0f8e573"
"restaurant";"Rumah Makan";"Warung Makan Margo Sukur";"R3P8+9JW, Jl. Sisingamangaraja, Sorido, Kec. Biak Kota, Kabupaten Biak Numfor, Papua 98112";"Jl. Sisingamangaraja, Sorido, Kec. Biak Kota, Kabupaten Biak Numfor";"PAPUA";"98112";"Indonesia";"";"-1.1640245";"136.0665798";"https://maps.google.com/?cid=0x0:0x3677119f0551ffa7"
"restaurant";"Padang";"Rumah Makan PR";"R3M8+GJP, Jl. Sisingamangaraja, Samofa, Kec. Biak Kota, Kabupaten Biak Numfor, Papua";"Kabupaten Biak Numfor, Papua";"PAPUA";"";"Indonesia";" 081342816565";"-1.1661611";"136.0665647";"https://maps.google.com/?cid=0x0:0x20cdf6ef5502b908"
"restaurant";"Prasmanan";"Angkasa _ Prasmanan";"R3GC+FMJ, Jl. Sisingamangaraja, Samofa, Kec. Samofa, Kabupaten Biak Numfor, Papua 98112";"Jl. Sisingamangaraja, Samofa, Kec. Samofa, Kabupaten Biak Numfor";"PAPUA";"98112";"Indonesia";"";"-1.1737786";"136.0716357";"https://maps.google.com/?cid=0x0:0xc8d7edf09c78872a"
"restaurant";"Mi";"Warung Makan Yafdas";"R3VC+6M6, Jl. Sriwijaya, Yafdas, Kec. Samofa, Kabupaten Biak Numfor, Papua 98112";"Jl. Sriwijaya, Yafdas, Kec. Samofa, Kabupaten Biak Numfor";"PAPUA";"98112";"Indonesia";"";"-1.1570434";"136.0715531";"https://maps.google.com/?cid=0x0:0x9cb827c6e7e6649b"
"restaurant";"restaurant";"Papua 98114";"Kabupaten Biak Numfor, Papua";"Kabupaten Biak Numfor, Papua";"PAPUA";"";"Indonesia";"";"-1.1386625";"136.0491689";"https://maps.google.com/?cid=0x0:0xb7899b24d8a2c999"
"restaurant";"Toko Roti";"Restoran Jakarta  Cafe - Hawai Bakery";"Jl. Imam Bonjol No.10, Fandoi, Kec. Biak Kota, Kabupaten Biak Numfor, Papua 98111";"Fandoi, Kec. Biak Kota, Kabupaten Biak Numfor";"PAPUA";"98111";"Indonesia";" 09818212975";"-1.1833091";"136.0822542";"https://maps.google.com/?cid=0x0:0x4f8c71442b3699bd"
"restaurant";"Prasmanan";"Depot Afifah";"R38M+6P3, Jl. Jend. Ahmad Yani, Fandoi, Kec. Biak Kota, Kabupaten Biak Numfor, Papua 98111";"Jl. Jend. Ahmad Yani, Fandoi, Kec. Biak Kota, Kabupaten Biak Numfor";"PAPUA";"98111";"Indonesia";" 098123436";"-1.1844773";"136.0843071";"https://maps.google.com/?cid=0x0:0xa39b15022074a9ac"
"restaurant";"China";"House Of Supernova";"Jl. Airlangga, Waupnor, Kec. Biak Kota, Kabupaten Biak Numfor, Papua 98115";"Waupnor, Kec. Biak Kota, Kabupaten Biak Numfor";"PAPUA";"98115";"Indonesia";"";"-1.1801045";"136.0755514";"https://maps.google.com/?cid=0x0:0x1c6ac29efe712325"
"restaurant";"Kedai Kopi";"BBc Cafe  Resto Biak-Papua";"R3MQ+6CG, Brambaken, Kec. Samofa, Kabupaten Biak Numfor, Papua 98111";"Brambaken, Kec. Samofa, Kabupaten Biak Numfor";"PAPUA";"98111";"Indonesia";" 085215086162";"-1.1669262";"136.0885849";"https://maps.google.com/?cid=0x0:0x29dee206c0f8e573"
"restaurant";"Nasi";"Warung Ainis";"jalan pertama No.Depan, Inggiri, Kec. Biak Kota, Kabupaten Biak Numfor, Papua 98115";"Inggiri, Kec. Biak Kota, Kabupaten Biak Numfor";"PAPUA";"98115";"Indonesia";"";"-1.1519645";"136.0469647";"https://maps.google.com/?cid=0x0:0xf036c1d4c2ee71b4"
"restaurant";"Masakan Asia";"Phinisi Cafe  Resto Biak";"R3CR+XPG Near TOKO MANDIRI BARU, Jl. Raya Bosnik, Karang Mulia, Samofa, Biak Numfor Regency, Papua 98111";"Jl. Raya Bosnik, Karang Mulia, Samofa, Biak Numfor Regency";"PAPUA";"98111";"Indonesia";"";"-1.1775711";"136.0918153";"https://maps.google.com/?cid=0x0:0x275c328e8b99a970"
"restaurant";"Restoran";"RB Cafe  Resto";"R3MQ+CWM, Brambaken, Kec. Samofa, Kabupaten Biak Numfor, Papua 98111";"Brambaken, Kec. Samofa, Kabupaten Biak Numfor";"PAPUA";"98111";"Indonesia";"";"-1.1664379";"136.0898802";"https://maps.google.com/?cid=0x0:0x75f17d82e246699e"
"restaurant";"Indonesia";"Warung makan pati";"R39J+MG5, Jl. Selat Gaspar, Fandoi, Kec. Biak Kota, Kabupaten Biak Numfor, Papua 98111";"Jl. Selat Gaspar, Fandoi, Kec. Biak Kota, Kabupaten Biak Numfor";"PAPUA";"98111";"Indonesia";" 085244571313";"-1.1808667";"136.0813439";"https://maps.google.com/?cid=0x0:0x3934cc79923070d"
"restaurant";"Ikan Bakar";"Ikan Bakar Kole Kole";"R3QQ+3JG, Mandouw, Kec. Samofa, Kabupaten Biak Numfor, Papua 98111";"Mandouw, Kec. Samofa, Kabupaten Biak Numfor";"PAPUA";"98111";"Indonesia";" 082199279094";"-1.162309";"136.0890924";"https://maps.google.com/?cid=0x0:0xab0a53fa5d42b39c"
"restaurant";"Indonesia";"Warung Makan El-Shaddai";"Jl. Selat Madura No.13, Fandoi, Kec. Biak Kota, Kabupaten Biak Numfor, Papua 98111";"Fandoi, Kec. Biak Kota, Kabupaten Biak Numfor";"PAPUA";"98111";"Indonesia";"";"-1.1832465";"136.0835437";"https://maps.google.com/?cid=0x0:0xcff5b3896902d185"
"restaurant";"China";"Restoran 99 Samofa";"R3JP+GVF, Jl. Wandamen, Samofa, Kec. Samofa, Kabupaten Biak Numfor, Papua 98111";"Jl. Wandamen, Samofa, Kec. Samofa, Kabupaten Biak Numfor";"PAPUA";"98111";"Indonesia";"";"-1.1686825";"136.0871809";"https://maps.google.com/?cid=0x0:0x567c22d9fa629a29"
"restaurant";"Kedai Kopi";"KOFFIE KITONG";"Jl. Imam Bonjol No.56, Fandoi, Kec. Biak Kota, Kabupaten Biak Numfor, Papua 98111";"Fandoi, Kec. Biak Kota, Kabupaten Biak Numfor";"PAPUA";"98111";"Indonesia";"";"-1.1802223";"136.0824899";"https://maps.google.com/?cid=0x0:0xc57a1d51c6bd7d53"
"restaurant";"Kedai Kopi";"Three - C Caffe  Resto";"Kios Putih, Belakang, Yafdas, Samofa, Biak Numfor Regency, Papua";"Kabupaten Biak Numfor, Papua";"PAPUA";"";"Indonesia";" 08124825299";"-1.1568604";"136.0741199";"https://maps.google.com/?cid=0x0:0xda23b17446b60b0c"
"restaurant";"restaurant";"Papua 98115";"Kec. Biak Kota, Kabupaten Biak Numfor, Papua";"Kabupaten Biak Numfor, Papua";"PAPUA";"";"Indonesia";"";"-1.1614138";"136.0515529";"https://maps.google.com/?cid=0x0:0x9abbe05255913eb1"
"restaurant";"China";"House Of Supernova";"Jl. Airlangga, Waupnor, Kec. Biak Kota, Kabupaten Biak Numfor, Papua 98115";"Waupnor, Kec. Biak Kota, Kabupaten Biak Numfor";"PAPUA";"98115";"Indonesia";"";"-1.1801045";"136.0755514";"https://maps.google.com/?cid=0x0:0x1c6ac29efe712325"
"restaurant";"Rumah Makan";"RM. DAPOER CLARA";"Jl. Sisingamangaraja No.12, Sorido, Kec. Samofa, Kabupaten Biak Numfor, Papua 98112";"Sorido, Kec. Samofa, Kabupaten Biak Numfor";"PAPUA";"98112";"Indonesia";" 085244547889";"-1.1710501";"136.0675506";"https://maps.google.com/?cid=0x0:0x7facc94c3ed6f6fa"
"restaurant";"Katering";"99 Restoran";"biak, Jl. Imam Bonjol No.32, Fandoi, Kec. Biak Kota, Kabupaten Biak Numfor, Papua 98112";"Jl. Imam Bonjol No.32, Fandoi, Kec. Biak Kota, Kabupaten Biak Numfor";"PAPUA";"98112";"Indonesia";" 098121450";"-1.1819157";"136.0825408";"https://maps.google.com/?cid=0x0:0xe657a176ad761bd1"
"restaurant";"Prasmanan";"Depot Afifah";"R38M+6P3, Jl. Jend. Ahmad Yani, Fandoi, Kec. Biak Kota, Kabupaten Biak Numfor, Papua 98111";"Jl. Jend. Ahmad Yani, Fandoi, Kec. Biak Kota, Kabupaten Biak Numfor";"PAPUA";"98111";"Indonesia";" 098123436";"-1.1844773";"136.0843071";"https://maps.google.com/?cid=0x0:0xa39b15022074a9ac"
"restaurant";"Restoran";"Rumah Makan Simpang Raya";"R3P8+J98, Jl. Raya Sorido, Sorido, Kec. Biak Kota, Kabupaten Biak Numfor, Papua 98113";"Jl. Raya Sorido, Sorido, Kec. Biak Kota, Kabupaten Biak Numfor";"PAPUA";"98113";"Indonesia";"";"-1.1634696";"136.065948";"https://maps.google.com/?cid=0x0:0xe1c7bd1929b68268"
"restaurant";"Kedai Kopi";"BBc Cafe  Resto Biak-Papua";"R3MQ+6CG, Brambaken, Kec. Samofa, Kabupaten Biak Numfor, Papua 98111";"Brambaken, Kec. Samofa, Kabupaten Biak Numfor";"PAPUA";"98111";"Indonesia";" 085215086162";"-1.1669262";"136.0885849";"https://maps.google.com/?cid=0x0:0x29dee206c0f8e573"
"restaurant";"Kedai Kopi";"Three - C Caffe  Resto";"Kios Putih, Belakang, Yafdas, Samofa, Biak Numfor Regency, Papua";"Kabupaten Biak Numfor, Papua";"PAPUA";"";"Indonesia";" 08124825299";"-1.1568604";"136.0741199";"https://maps.google.com/?cid=0x0:0xda23b17446b60b0c"
"restaurant";"Padang";"Rumah Makan PR";"R3M8+GJP, Jl. Sisingamangaraja, Samofa, Kec. Biak Kota, Kabupaten Biak Numfor, Papua";"Kabupaten Biak Numfor, Papua";"PAPUA";"";"Indonesia";" 081342816565";"-1.1661611";"136.0665647";"https://maps.google.com/?cid=0x0:0x20cdf6ef5502b908"
"restaurant";"Kedai Kopi";"Warung Makan Lake Toba";"Jl. Raya Sorido No.52, Sorido, Kec. Biak Kota, Kabupaten Biak Numfor, Papua 98113";"Sorido, Kec. Biak Kota, Kabupaten Biak Numfor";"PAPUA";"98113";"Indonesia";" 081240410167";"-1.1612496";"136.0629803";"https://maps.google.com/?cid=0x0:0x6867d79dcde7c93f"
"restaurant";"Restoran";"RB Cafe  Resto";"R3MQ+CWM, Brambaken, Kec. Samofa, Kabupaten Biak Numfor, Papua 98111";"Brambaken, Kec. Samofa, Kabupaten Biak Numfor";"PAPUA";"98111";"Indonesia";"";"-1.1664379";"136.0898802";"https://maps.google.com/?cid=0x0:0x75f17d82e246699e"
"restaurant";"Nasi";"Warung Ainis";"jalan pertama No.Depan, Inggiri, Kec. Biak Kota, Kabupaten Biak Numfor, Papua 98115";"Inggiri, Kec. Biak Kota, Kabupaten Biak Numfor";"PAPUA";"98115";"Indonesia";"";"-1.1519645";"136.0469647";"https://maps.google.com/?cid=0x0:0xf036c1d4c2ee71b4"
"restaurant";"Prasmanan";"Angkasa _ Prasmanan";"R3GC+FMJ, Jl. Sisingamangaraja, Samofa, Kec. Samofa, Kabupaten Biak Numfor, Papua 98112";"Jl. Sisingamangaraja, Samofa, Kec. Samofa, Kabupaten Biak Numfor";"PAPUA";"98112";"Indonesia";"";"-1.1737786";"136.0716357";"https://maps.google.com/?cid=0x0:0xc8d7edf09c78872a"
"restaurant";"Rumah Makan";"Warung Makan Margo Sukur";"R3P8+9JW, Jl. Sisingamangaraja, Sorido, Kec. Biak Kota, Kabupaten Biak Numfor, Papua 98112";"Jl. Sisingamangaraja, Sorido, Kec. Biak Kota, Kabupaten Biak Numfor";"PAPUA";"98112";"Indonesia";"";"-1.1640245";"136.0665798";"https://maps.google.com/?cid=0x0:0x3677119f0551ffa7"
"restaurant";"restaurant";"Papua 98116";"Kec. Yendidori, Kabupaten Biak Numfor, Papua";"Kabupaten Biak Numfor, Papua";"PAPUA";"";"Indonesia";"";"-1.1152139";"136.0086594";"https://maps.google.com/?cid=0x0:0xa8c3dc42c3bee07d"
"restaurant";"Toko Roti";"Restoran Jakarta  Cafe - Hawai Bakery";"Jl. Imam Bonjol No.10, Fandoi, Kec. Biak Kota, Kabupaten Biak Numfor, Papua 98111";"Fandoi, Kec. Biak Kota, Kabupaten Biak Numfor";"PAPUA";"98111";"Indonesia";" 09818212975";"-1.1833091";"136.0822542";"https://maps.google.com/?cid=0x0:0x4f8c71442b3699bd"
"restaurant";"Prasmanan";"Depot Afifah";"R38M+6P3, Jl. Jend. Ahmad Yani, Fandoi, Kec. Biak Kota, Kabupaten Biak Numfor, Papua 98111";"Jl. Jend. Ahmad Yani, Fandoi, Kec. Biak Kota, Kabupaten Biak Numfor";"PAPUA";"98111";"Indonesia";" 098123436";"-1.1844773";"136.0843071";"https://maps.google.com/?cid=0x0:0xa39b15022074a9ac"
"restaurant";"Katering";"99 Restoran";"biak, Jl. Imam Bonjol No.32, Fandoi, Kec. Biak Kota, Kabupaten Biak Numfor, Papua 98112";"Jl. Imam Bonjol No.32, Fandoi, Kec. Biak Kota, Kabupaten Biak Numfor";"PAPUA";"98112";"Indonesia";" 098121450";"-1.1819157";"136.0825408";"https://maps.google.com/?cid=0x0:0xe657a176ad761bd1"
"restaurant";"Kedai Kopi";"BBc Cafe  Resto Biak-Papua";"R3MQ+6CG, Brambaken, Kec. Samofa, Kabupaten Biak Numfor, Papua 98111";"Brambaken, Kec. Samofa, Kabupaten Biak Numfor";"PAPUA";"98111";"Indonesia";" 085215086162";"-1.1669262";"136.0885849";"https://maps.google.com/?cid=0x0:0x29dee206c0f8e573"
"restaurant";"Restoran";"RB Cafe  Resto";"R3MQ+CWM, Brambaken, Kec. Samofa, Kabupaten Biak Numfor, Papua 98111";"Brambaken, Kec. Samofa, Kabupaten Biak Numfor";"PAPUA";"98111";"Indonesia";"";"-1.1664379";"136.0898802";"https://maps.google.com/?cid=0x0:0x75f17d82e246699e"
"restaurant";"Kedai Kopi";"Three - C Caffe  Resto";"Kios Putih, Belakang, Yafdas, Samofa, Biak Numfor Regency, Papua";"Kabupaten Biak Numfor, Papua";"PAPUA";"";"Indonesia";" 08124825299";"-1.1568604";"136.0741199";"https://maps.google.com/?cid=0x0:0xda23b17446b60b0c"
"restaurant";"Bakso";"Rumah Makan Solo";"R3CP+2CH, Mandala, Kec. Biak Kota, Kabupaten Biak Numfor, Papua 98111";"Mandala, Kec. Biak Kota, Kabupaten Biak Numfor";"PAPUA";"98111";"Indonesia";"";"-1.1799411";"136.0860956";"https://maps.google.com/?cid=0x0:0x21d7dee2262f24a5"
"restaurant";"Ikan Bakar";"Ikan Bakar Kole Kole";"R3QQ+3JG, Mandouw, Kec. Samofa, Kabupaten Biak Numfor, Papua 98111";"Mandouw, Kec. Samofa, Kabupaten Biak Numfor";"PAPUA";"98111";"Indonesia";" 082199279094";"-1.162309";"136.0890924";"https://maps.google.com/?cid=0x0:0xab0a53fa5d42b39c"
"restaurant";"Masakan Asia";"Phinisi Cafe  Resto Biak";"R3CR+XPG Near TOKO MANDIRI BARU, Jl. Raya Bosnik, Karang Mulia, Samofa, Biak Numfor Regency, Papua 98111";"Jl. Raya Bosnik, Karang Mulia, Samofa, Biak Numfor Regency";"PAPUA";"98111";"Indonesia";"";"-1.1775711";"136.0918153";"https://maps.google.com/?cid=0x0:0x275c328e8b99a970"
"restaurant";"Indonesia";"Warung Makan El-Shaddai";"Jl. Selat Madura No.13, Fandoi, Kec. Biak Kota, Kabupaten Biak Numfor, Papua 98111";"Fandoi, Kec. Biak Kota, Kabupaten Biak Numfor";"PAPUA";"98111";"Indonesia";"";"-1.1832465";"136.0835437";"https://maps.google.com/?cid=0x0:0xcff5b3896902d185"
"restaurant";"Kafe";"Pondok Kopi Honai";"Jl. Angkasa, Trikora, Kec. Samofa, Kabupaten Biak Numfor, Papua 98111";"Trikora, Kec. Samofa, Kabupaten Biak Numfor";"PAPUA";"98111";"Indonesia";" 0811481867";"-1.1733415";"136.0948814";"https://maps.google.com/?cid=0x0:0x5a12f9220243f753"
"restaurant";"Nasi";"Rumah Makan Minang Jalur Dua";"Jl. Majapahit No.748, Samofa, Biak, Kabupaten Biak Numfor, Papua 98117";"Samofa, Biak, Kabupaten Biak Numfor";"PAPUA";"98117";"Indonesia";"";"-1.1735597";"136.0902046";"https://maps.google.com/?cid=0x0:0xd3809c5789c15744"
"restaurant";"Indonesia";"Warung makan pati";"R39J+MG5, Jl. Selat Gaspar, Fandoi, Kec. Biak Kota, Kabupaten Biak Numfor, Papua 98111";"Jl. Selat Gaspar, Fandoi, Kec. Biak Kota, Kabupaten Biak Numfor";"PAPUA";"98111";"Indonesia";" 085244571313";"-1.1808667";"136.0813439";"https://maps.google.com/?cid=0x0:0x3934cc79923070d"
"restaurant";"restaurant";"Kec. Biak Kota";"Kabupaten Biak Numfor, Papua";"Kabupaten Biak Numfor, Papua";"PAPUA";"";"Indonesia";"";"-1.1837602";"136.0797406";"https://maps.google.com/?cid=0x0:0x28487caea0b09c5a"
"restaurant";"Toko Roti";"Restoran Jakarta  Cafe - Hawai Bakery";"Jl. Imam Bonjol No.10, Fandoi, Kec. Biak Kota, Kabupaten Biak Numfor, Papua 98111";"Fandoi, Kec. Biak Kota, Kabupaten Biak Numfor";"PAPUA";"98111";"Indonesia";" 09818212975";"-1.1833091";"136.0822542";"https://maps.google.com/?cid=0x0:0x4f8c71442b3699bd"
"restaurant";"Katering";"99 Restoran";"biak, Jl. Imam Bonjol No.32, Fandoi, Kec. Biak Kota, Kabupaten Biak Numfor, Papua 98112";"Jl. Imam Bonjol No.32, Fandoi, Kec. Biak Kota, Kabupaten Biak Numfor";"PAPUA";"98112";"Indonesia";" 098121450";"-1.1819157";"136.0825408";"https://maps.google.com/?cid=0x0:0xe657a176ad761bd1"
"restaurant";"Restoran";"RM. Pondok Bambu";"R39J+7H5, Jl. Selat Gaspar, Fandoi, Kec. Biak Kota, Kabupaten Biak Numfor, Papua 98111";"Jl. Selat Gaspar, Fandoi, Kec. Biak Kota, Kabupaten Biak Numfor";"PAPUA";"98111";"Indonesia";"";"-1.1818615";"136.0814848";"https://maps.google.com/?cid=0x0:0x9609d1da6b8d87b1"
"restaurant";"Prasmanan";"Depot Afifah";"R38M+6P3, Jl. Jend. Ahmad Yani, Fandoi, Kec. Biak Kota, Kabupaten Biak Numfor, Papua 98111";"Jl. Jend. Ahmad Yani, Fandoi, Kec. Biak Kota, Kabupaten Biak Numfor";"PAPUA";"98111";"Indonesia";" 098123436";"-1.1844773";"136.0843071";"https://maps.google.com/?cid=0x0:0xa39b15022074a9ac"
"restaurant";"China";"House Of Supernova";"Jl. Airlangga, Waupnor, Kec. Biak Kota, Kabupaten Biak Numfor, Papua 98115";"Waupnor, Kec. Biak Kota, Kabupaten Biak Numfor";"PAPUA";"98115";"Indonesia";"";"-1.1801045";"136.0755514";"https://maps.google.com/?cid=0x0:0x1c6ac29efe712325"
"restaurant";"Hidangan Laut";"RM sukacita";"R3FH+2JW, Samofa, Kec. Samofa, Kabupaten Biak Numfor, Papua 98111";"Samofa, Kec. Samofa, Kabupaten Biak Numfor";"PAPUA";"98111";"Indonesia";" 098124629";"-1.1773858";"136.0790755";"https://maps.google.com/?cid=0x0:0x82fcb39516e9f875"
"restaurant";"Kedai Kopi";"Three - C Caffe  Resto";"Kios Putih, Belakang, Yafdas, Samofa, Biak Numfor Regency, Papua";"Kabupaten Biak Numfor, Papua";"PAPUA";"";"Indonesia";" 08124825299";"-1.1568604";"136.0741199";"https://maps.google.com/?cid=0x0:0xda23b17446b60b0c"
"restaurant";"Restoran";"RB Cafe  Resto";"R3MQ+CWM, Brambaken, Kec. Samofa, Kabupaten Biak Numfor, Papua 98111";"Brambaken, Kec. Samofa, Kabupaten Biak Numfor";"PAPUA";"98111";"Indonesia";"";"-1.1664379";"136.0898802";"https://maps.google.com/?cid=0x0:0x75f17d82e246699e"
"restaurant";"Kedai Kopi";"Bin Myos Cafe";"R462+293, Mandala, Kec. Biak Kota, Kabupaten Biak Numfor, Papua 98118";"Mandala, Kec. Biak Kota, Kabupaten Biak Numfor";"PAPUA";"98118";"Indonesia";"";"-1.1899898";"136.100933";"https://maps.google.com/?cid=0x0:0x4a1b8a3c68386ed8"
"restaurant";"Jawa";"Warung Makan Dannis";"Fandoi, Kec. Biak Kota, Kabupaten Biak Numfor, Papua 98111";"Kec. Biak Kota, Kabupaten Biak Numfor";"PAPUA";"98111";"Indonesia";" 081340981068";"-1.1773124";"136.0789394";"https://maps.google.com/?cid=0x0:0x191a8a644281410"
"restaurant";"Ikan Bakar";"Warung Makan Barokah";"R38M+5RV, Fandoi, Kec. Biak Kota, Kabupaten Biak Numfor, Papua 98111";"Fandoi, Kec. Biak Kota, Kabupaten Biak Numfor";"PAPUA";"98111";"Indonesia";"";"-1.1845003";"136.0845364";"https://maps.google.com/?cid=0x0:0x232ce5c7e443bbd9"
"restaurant";"Masakan Asia";"Phinisi Cafe  Resto Biak";"R3CR+XPG Near TOKO MANDIRI BARU, Jl. Raya Bosnik, Karang Mulia, Samofa, Biak Numfor Regency, Papua 98111";"Jl. Raya Bosnik, Karang Mulia, Samofa, Biak Numfor Regency";"PAPUA";"98111";"Indonesia";"";"-1.1775711";"136.0918153";"https://maps.google.com/?cid=0x0:0x275c328e8b99a970"
"restaurant";"Rumah Makan";"warung makan rizeky anugrah";"R3CP+2G6, Mandala, Kec. Biak Kota, Kabupaten Biak Numfor, Papua 98111";"Mandala, Kec. Biak Kota, Kabupaten Biak Numfor";"PAPUA";"98111";"Indonesia";" 081248818038";"-1.1799658";"136.0862521";"https://maps.google.com/?cid=0x0:0x529584d69baf93f4"
"restaurant";"restaurant";"Kec. Biak Kota";"Kabupaten Biak Numfor, Papua";"Kabupaten Biak Numfor, Papua";"PAPUA";"";"Indonesia";"";"-1.1837602";"136.0797406";"https://maps.google.com/?cid=0x0:0x28487caea0b09c5a"
"restaurant";"Toko Roti";"Restoran Jakarta  Cafe - Hawai Bakery";"Jl. Imam Bonjol No.10, Fandoi, Kec. Biak Kota, Kabupaten Biak Numfor, Papua 98111";"Fandoi, Kec. Biak Kota, Kabupaten Biak Numfor";"PAPUA";"98111";"Indonesia";" 09818212975";"-1.1833091";"136.0822542";"https://maps.google.com/?cid=0x0:0x4f8c71442b3699bd"
"restaurant";"Katering";"99 Restoran";"biak, Jl. Imam Bonjol No.32, Fandoi, Kec. Biak Kota, Kabupaten Biak Numfor, Papua 98112";"Jl. Imam Bonjol No.32, Fandoi, Kec. Biak Kota, Kabupaten Biak Numfor";"PAPUA";"98112";"Indonesia";" 098121450";"-1.1819157";"136.0825408";"https://maps.google.com/?cid=0x0:0xe657a176ad761bd1"
"restaurant";"Kedai Kopi";"BBc Cafe  Resto Biak-Papua";"R3MQ+6CG, Brambaken, Kec. Samofa, Kabupaten Biak Numfor, Papua 98111";"Brambaken, Kec. Samofa, Kabupaten Biak Numfor";"PAPUA";"98111";"Indonesia";" 085215086162";"-1.1669262";"136.0885849";"https://maps.google.com/?cid=0x0:0x29dee206c0f8e573"
"restaurant";"Jawa";"Warung Makan Dannis";"Fandoi, Kec. Biak Kota, Kabupaten Biak Numfor, Papua 98111";"Kec. Biak Kota, Kabupaten Biak Numfor";"PAPUA";"98111";"Indonesia";" 081340981068";"-1.1773124";"136.0789394";"https://maps.google.com/?cid=0x0:0x191a8a644281410"
"restaurant";"China";"House Of Supernova";"Jl. Airlangga, Waupnor, Kec. Biak Kota, Kabupaten Biak Numfor, Papua 98115";"Waupnor, Kec. Biak Kota, Kabupaten Biak Numfor";"PAPUA";"98115";"Indonesia";"";"-1.1801045";"136.0755514";"https://maps.google.com/?cid=0x0:0x1c6ac29efe712325"
"restaurant";"Restoran";"RM. Pondok Bambu";"R39J+7H5, Jl. Selat Gaspar, Fandoi, Kec. Biak Kota, Kabupaten Biak Numfor, Papua 98111";"Jl. Selat Gaspar, Fandoi, Kec. Biak Kota, Kabupaten Biak Numfor";"PAPUA";"98111";"Indonesia";"";"-1.1818615";"136.0814848";"https://maps.google.com/?cid=0x0:0x9609d1da6b8d87b1"
"restaurant";"Indonesia";"Warung Makan El-Shaddai";"Jl. Selat Madura No.13, Fandoi, Kec. Biak Kota, Kabupaten Biak Numfor, Papua 98111";"Fandoi, Kec. Biak Kota, Kabupaten Biak Numfor";"PAPUA";"98111";"Indonesia";"";"-1.1832465";"136.0835437";"https://maps.google.com/?cid=0x0:0xcff5b3896902d185"
"restaurant";"Restoran";"Furama Restaurant";"R37P+W8M, Jl. Jend. Ahmad Yani, Mandala, Kec. Biak Kota, Kabupaten Biak Numfor, Papua 98111";"Jl. Jend. Ahmad Yani, Mandala, Kec. Biak Kota, Kabupaten Biak Numfor";"PAPUA";"98111";"Indonesia";" 098122022";"-1.1851501";"136.0857988";"https://maps.google.com/?cid=0x0:0xed16253ac0f2f479"
"restaurant";"Kafe";"Olin Resto  Cafe";"R3MJ+548, Jl. Condronegoro, Samofa, Kec. Samofa, Kabupaten Biak Numfor, Papua 98111";"Jl. Condronegoro, Samofa, Kec. Samofa, Kabupaten Biak Numfor";"PAPUA";"98111";"Indonesia";"";"-1.1670816";"136.0803283";"https://maps.google.com/?cid=0x0:0x95c05f68ab97797b"
"restaurant";"Indonesia";"Warung makan pati";"R39J+MG5, Jl. Selat Gaspar, Fandoi, Kec. Biak Kota, Kabupaten Biak Numfor, Papua 98111";"Jl. Selat Gaspar, Fandoi, Kec. Biak Kota, Kabupaten Biak Numfor";"PAPUA";"98111";"Indonesia";" 085244571313";"-1.1808667";"136.0813439";"https://maps.google.com/?cid=0x0:0x3934cc79923070d"
"restaurant";"Sulawesi Selatan";"Coto Makassar Biak";"R3FH+75F, Jl. Sisingamangaraja, Samofa, Kec. Samofa, Kabupaten Biak Numfor, Papua 98111";"Jl. Sisingamangaraja, Samofa, Kec. Samofa, Kabupaten Biak Numfor";"PAPUA";"98111";"Indonesia";"";"-1.1768011";"136.0779234";"https://maps.google.com/?cid=0x0:0x74112560ecf04d51"
"restaurant";"Restoran";"RB Cafe  Resto";"R3MQ+CWM, Brambaken, Kec. Samofa, Kabupaten Biak Numfor, Papua 98111";"Brambaken, Kec. Samofa, Kabupaten Biak Numfor";"PAPUA";"98111";"Indonesia";"";"-1.1664379";"136.0898802";"https://maps.google.com/?cid=0x0:0x75f17d82e246699e"
"restaurant";"China";"KFC Hadi Biak";"Hadi Biak, Jl. Imam Bonjol No.56, Fandoi, Biak Kota, Biak Numfor Regency, Papua 98111";"Jl. Imam Bonjol No.56, Fandoi, Biak Kota, Biak Numfor Regency";"PAPUA";"98111";"Indonesia";" 14022";"-1.1798528";"136.0826014";"https://maps.google.com/?cid=0x0:0x35f9bfcf5c693c92"
"restaurant";"restaurant";"Papua 98153";"Kabupaten Biak Numfor, Papua";"Kabupaten Biak Numfor, Papua";"PAPUA";"";"Indonesia";"";"-0.9418311";"136.0372508";"https://maps.google.com/?cid=0x0:0xdaa7c4e762f36ed7"
"restaurant";"Kedai Kopi";"Three - C Caffe  Resto";"Kios Putih, Belakang, Yafdas, Samofa, Biak Numfor Regency, Papua";"Kabupaten Biak Numfor, Papua";"PAPUA";"";"Indonesia";" 08124825299";"-1.1568604";"136.0741199";"https://maps.google.com/?cid=0x0:0xda23b17446b60b0c"
"restaurant";"Katering";"99 Restoran";"biak, Jl. Imam Bonjol No.32, Fandoi, Kec. Biak Kota, Kabupaten Biak Numfor, Papua 98112";"Jl. Imam Bonjol No.32, Fandoi, Kec. Biak Kota, Kabupaten Biak Numfor";"PAPUA";"98112";"Indonesia";" 098121450";"-1.1819157";"136.0825408";"https://maps.google.com/?cid=0x0:0xe657a176ad761bd1"
"restaurant";"Kafe";"Pondok Kopi Honai";"Jl. Angkasa, Trikora, Kec. Samofa, Kabupaten Biak Numfor, Papua 98111";"Trikora, Kec. Samofa, Kabupaten Biak Numfor";"PAPUA";"98111";"Indonesia";" 0811481867";"-1.1733415";"136.0948814";"https://maps.google.com/?cid=0x0:0x5a12f9220243f753"
"restaurant";"Prasmanan";"Depot Afifah";"R38M+6P3, Jl. Jend. Ahmad Yani, Fandoi, Kec. Biak Kota, Kabupaten Biak Numfor, Papua 98111";"Jl. Jend. Ahmad Yani, Fandoi, Kec. Biak Kota, Kabupaten Biak Numfor";"PAPUA";"98111";"Indonesia";" 098123436";"-1.1844773";"136.0843071";"https://maps.google.com/?cid=0x0:0xa39b15022074a9ac"
"restaurant";"Ikan Bakar";"Ikan Bakar Kole Kole";"R3QQ+3JG, Mandouw, Kec. Samofa, Kabupaten Biak Numfor, Papua 98111";"Mandouw, Kec. Samofa, Kabupaten Biak Numfor";"PAPUA";"98111";"Indonesia";" 082199279094";"-1.162309";"136.0890924";"https://maps.google.com/?cid=0x0:0xab0a53fa5d42b39c"
"restaurant";"Nasi";"Warung makan algia";"32VQ+VCV, Saukobye, Distrik Biak Utara, Kabupaten Biak Numfor, Papua 98153";"Saukobye, Distrik Biak Utara, Kabupaten Biak Numfor";"PAPUA";"98153";"Indonesia";"";"-0.9052689";"136.0385582";"https://maps.google.com/?cid=0x0:0x2c3d0c23c328c1be"
"restaurant";"China";"Restoran 99 Samofa";"R3JP+GVF, Jl. Wandamen, Samofa, Kec. Samofa, Kabupaten Biak Numfor, Papua 98111";"Jl. Wandamen, Samofa, Kec. Samofa, Kabupaten Biak Numfor";"PAPUA";"98111";"Indonesia";"";"-1.1686825";"136.0871809";"https://maps.google.com/?cid=0x0:0x567c22d9fa629a29"
"restaurant";"Bar Karaoke";"Cafe Seruput Kopi Dangdut ( SKD)";"XX6J+Q24, Waupnor, Kec. Biak Kota, Kabupaten Biak Numfor, Papua 98112";"Waupnor, Kec. Biak Kota, Kabupaten Biak Numfor";"PAPUA";"98112";"Indonesia";"";"-1.0381022";"135.9800848";"https://maps.google.com/?cid=0x0:0x76c794e335378b28"
"restaurant";"Jus";"Kedai Yaswar";"Jl. Raya Sorido, Inggiri, Kec. Biak Kota, Kabupaten Biak Numfor, Papua 98115";"Inggiri, Kec. Biak Kota, Kabupaten Biak Numfor";"PAPUA";"98115";"Indonesia";" 082398784104";"-1.0381022";"135.9800848";"https://maps.google.com/?cid=0x0:0xe7d35df5ef3aa2b4"
"restaurant";"Kafe";"Kopi Aten Byak";"Jl. Raya Bosnik, Karang Mulia, Kec. Samofa, Kabupaten Biak Numfor, Papua 98111";"Karang Mulia, Kec. Samofa, Kabupaten Biak Numfor";"PAPUA";"98111";"Indonesia";"";"-1.1782121";"136.093859";"https://maps.google.com/?cid=0x0:0xfb71e099e6f8be67"
"restaurant";"Restoran";"Three C Coffee";"Jl. Jend. Sudirman No.3, Fandoi, Kec. Biak Kota, Kabupaten Biak Numfor, Papua 98111";"Fandoi, Kec. Biak Kota, Kabupaten Biak Numfor";"PAPUA";"98111";"Indonesia";"";"-1.1842788";"136.0815633";"https://maps.google.com/?cid=0x0:0xcff056f2a245a19e"
"restaurant";"restaurant";"HOMESTAY KARAWATU INN";"R39H+HC6, Jl. Dahlia, Burokub, Kec. Biak Kota, Kabupaten Biak Numfor, Papua 98111";"Jl. Dahlia, Burokub, Kec. Biak Kota, Kabupaten Biak Numfor";"PAPUA";"98111";"Indonesia";" 09812911069";"-1.1810921";"136.0785209";"https://maps.google.com/?cid=0x0:0xa2c4864ec378cf15"
"restaurant";"restaurant";"Asana Biak Papua";"Jl. M Yamin No.04, Mandala, Kec. Biak Kota, Kabupaten Biak Numfor, Papua 98111";"Mandala, Kec. Biak Kota, Kabupaten Biak Numfor";"PAPUA";"98111";"Indonesia";" 08114743111";"-1.1918619";"136.1049095";"https://maps.google.com/?cid=0x0:0x94321ded15c5a4a3"
"restaurant";"restaurant";"Papua 98152";"Kabupaten Biak Numfor, Papua";"Kabupaten Biak Numfor, Papua";"PAPUA";"";"Indonesia";"";"-1.0707188";"136.2474381";"https://maps.google.com/?cid=0x0:0x5f671ec5fdbb6997"
"restaurant";"Toko Roti";"Restoran Jakarta  Cafe - Hawai Bakery";"Jl. Imam Bonjol No.10, Fandoi, Kec. Biak Kota, Kabupaten Biak Numfor, Papua 98111";"Fandoi, Kec. Biak Kota, Kabupaten Biak Numfor";"PAPUA";"98111";"Indonesia";" 09818212975";"-1.1833091";"136.0822542";"https://maps.google.com/?cid=0x0:0x4f8c71442b3699bd"
"restaurant";"Kedai Kopi";"BBc Cafe  Resto Biak-Papua";"R3MQ+6CG, Brambaken, Kec. Samofa, Kabupaten Biak Numfor, Papua 98111";"Brambaken, Kec. Samofa, Kabupaten Biak Numfor";"PAPUA";"98111";"Indonesia";" 085215086162";"-1.1669262";"136.0885849";"https://maps.google.com/?cid=0x0:0x29dee206c0f8e573"
"restaurant";"Katering";"99 Restoran";"biak, Jl. Imam Bonjol No.32, Fandoi, Kec. Biak Kota, Kabupaten Biak Numfor, Papua 98112";"Jl. Imam Bonjol No.32, Fandoi, Kec. Biak Kota, Kabupaten Biak Numfor";"PAPUA";"98112";"Indonesia";" 098121450";"-1.1819157";"136.0825408";"https://maps.google.com/?cid=0x0:0xe657a176ad761bd1"
"restaurant";"China";"House Of Supernova";"Jl. Airlangga, Waupnor, Kec. Biak Kota, Kabupaten Biak Numfor, Papua 98115";"Waupnor, Kec. Biak Kota, Kabupaten Biak Numfor";"PAPUA";"98115";"Indonesia";"";"-1.1801045";"136.0755514";"https://maps.google.com/?cid=0x0:0x1c6ac29efe712325"
"restaurant";"Ikan Bakar";"Ikan Bakar Kole Kole";"R3QQ+3JG, Mandouw, Kec. Samofa, Kabupaten Biak Numfor, Papua 98111";"Mandouw, Kec. Samofa, Kabupaten Biak Numfor";"PAPUA";"98111";"Indonesia";" 082199279094";"-1.162309";"136.0890924";"https://maps.google.com/?cid=0x0:0xab0a53fa5d42b39c"
"restaurant";"Kedai Kopi";"Three - C Caffe  Resto";"Kios Putih, Belakang, Yafdas, Samofa, Biak Numfor Regency, Papua";"Kabupaten Biak Numfor, Papua";"PAPUA";"";"Indonesia";" 08124825299";"-1.1568604";"136.0741199";"https://maps.google.com/?cid=0x0:0xda23b17446b60b0c"
"restaurant";"Masakan Asia";"Phinisi Cafe  Resto Biak";"R3CR+XPG Near TOKO MANDIRI BARU, Jl. Raya Bosnik, Karang Mulia, Samofa, Biak Numfor Regency, Papua 98111";"Jl. Raya Bosnik, Karang Mulia, Samofa, Biak Numfor Regency";"PAPUA";"98111";"Indonesia";"";"-1.1775711";"136.0918153";"https://maps.google.com/?cid=0x0:0x275c328e8b99a970"
"restaurant";"Prasmanan";"Depot Afifah";"R38M+6P3, Jl. Jend. Ahmad Yani, Fandoi, Kec. Biak Kota, Kabupaten Biak Numfor, Papua 98111";"Jl. Jend. Ahmad Yani, Fandoi, Kec. Biak Kota, Kabupaten Biak Numfor";"PAPUA";"98111";"Indonesia";" 098123436";"-1.1844773";"136.0843071";"https://maps.google.com/?cid=0x0:0xa39b15022074a9ac"
"restaurant";"Kafe";"Olin Resto  Cafe";"R3MJ+548, Jl. Condronegoro, Samofa, Kec. Samofa, Kabupaten Biak Numfor, Papua 98111";"Jl. Condronegoro, Samofa, Kec. Samofa, Kabupaten Biak Numfor";"PAPUA";"98111";"Indonesia";"";"-1.1670816";"136.0803283";"https://maps.google.com/?cid=0x0:0x95c05f68ab97797b"
"restaurant";"Kedai Kopi";"Bin Myos Cafe";"R462+293, Mandala, Kec. Biak Kota, Kabupaten Biak Numfor, Papua 98118";"Mandala, Kec. Biak Kota, Kabupaten Biak Numfor";"PAPUA";"98118";"Indonesia";"";"-1.1899898";"136.100933";"https://maps.google.com/?cid=0x0:0x4a1b8a3c68386ed8"
"restaurant";"Restoran";"Warung Makan Sido Semi";"R4P2+P6R, Jl. Raya Maraw, Sumberker, Kec. Samofa, Kabupaten Biak Numfor, Papua 98118";"Jl. Raya Maraw, Sumberker, Kec. Samofa, Kabupaten Biak Numfor";"PAPUA";"98118";"Indonesia";" 09812911438";"-1.1631379";"136.1005307";"https://maps.google.com/?cid=0x0:0xca51940c84bc6d88"
"restaurant";"Makanan Kecil";"KEAVEN";"R43C+V5J, Jl. Ambroben, Ambroben, Kec. Biak Kota, Kabupaten Biak Numfor, Papua 98111";"Jl. Ambroben, Ambroben, Kec. Biak Kota, Kabupaten Biak Numfor";"PAPUA";"98111";"Indonesia";"";"-1.1952936";"136.1203992";"https://maps.google.com/?cid=0x0:0x825d34dc6be95be6"
"restaurant";"Sulawesi Selatan";"Coto Makassar Biak";"R3FH+75F, Jl. Sisingamangaraja, Samofa, Kec. Samofa, Kabupaten Biak Numfor, Papua 98111";"Jl. Sisingamangaraja, Samofa, Kec. Samofa, Kabupaten Biak Numfor";"PAPUA";"98111";"Indonesia";"";"-1.1768011";"136.0779234";"https://maps.google.com/?cid=0x0:0x74112560ecf04d51"
"restaurant";"restaurant";"Papua 98172";"Kabupaten Biak Numfor, Papua";"Kabupaten Biak Numfor, Papua";"PAPUA";"";"Indonesia";"";"-1.0910129";"134.9066503";"https://maps.google.com/?cid=0x0:0x961f86bb7868e68d"
"restaurant";"Katering";"99 Restoran";"biak, Jl. Imam Bonjol No.32, Fandoi, Kec. Biak Kota, Kabupaten Biak Numfor, Papua 98112";"Jl. Imam Bonjol No.32, Fandoi, Kec. Biak Kota, Kabupaten Biak Numfor";"PAPUA";"98112";"Indonesia";" 098121450";"-1.1819157";"136.0825408";"https://maps.google.com/?cid=0x0:0xe657a176ad761bd1"
"restaurant";"restaurant";"RM BAMBU KUNING";"2RG7+922, Yenmanu, Distrik Numfor Barat, Kabupaten Biak Numfor, Papua 98172";"Yenmanu, Distrik Numfor Barat, Kabupaten Biak Numfor";"PAPUA";"98172";"Indonesia";" 082199243453";"-0.9741179";"134.8125225";"https://maps.google.com/?cid=0x0:0x8a314fc2bb4a7147"
"restaurant";"Restoran";"RB Cafe  Resto";"R3MQ+CWM, Brambaken, Kec. Samofa, Kabupaten Biak Numfor, Papua 98111";"Brambaken, Kec. Samofa, Kabupaten Biak Numfor";"PAPUA";"98111";"Indonesia";"";"-1.1664379";"136.0898802";"https://maps.google.com/?cid=0x0:0x75f17d82e246699e"
"restaurant";"restaurant";"RM BAMBU KUNING";"2RG7+922, Yenmanu, Distrik Numfor Barat, Kabupaten Biak Numfor, Papua 98172";"Yenmanu, Distrik Numfor Barat, Kabupaten Biak Numfor";"PAPUA";"98172";"Indonesia";" 082199243453";"-0.9741179";"134.8125225";"https://maps.google.com/?cid=0x0:0x8a314fc2bb4a7147"
"restaurant";"restaurant";"Papua 98154";"Kabupaten Biak Numfor, Papua";"Kabupaten Biak Numfor, Papua";"PAPUA";"";"Indonesia";"";"-0.9529483";"135.8659561";"https://maps.google.com/?cid=0x0:0x7baacb17c171a3e7"
"restaurant";"Toko Roti";"Restoran Jakarta  Cafe - Hawai Bakery";"Jl. Imam Bonjol No.10, Fandoi, Kec. Biak Kota, Kabupaten Biak Numfor, Papua 98111";"Fandoi, Kec. Biak Kota, Kabupaten Biak Numfor";"PAPUA";"98111";"Indonesia";" 09818212975";"-1.1833091";"136.0822542";"https://maps.google.com/?cid=0x0:0x4f8c71442b3699bd"
"restaurant";"Restoran";"RB Cafe  Resto";"R3MQ+CWM, Brambaken, Kec. Samofa, Kabupaten Biak Numfor, Papua 98111";"Brambaken, Kec. Samofa, Kabupaten Biak Numfor";"PAPUA";"98111";"Indonesia";"";"-1.1664379";"136.0898802";"https://maps.google.com/?cid=0x0:0x75f17d82e246699e"
"restaurant";"Kedai Kopi";"Three - C Caffe  Resto";"Kios Putih, Belakang, Yafdas, Samofa, Biak Numfor Regency, Papua";"Kabupaten Biak Numfor, Papua";"PAPUA";"";"Indonesia";" 08124825299";"-1.1568604";"136.0741199";"https://maps.google.com/?cid=0x0:0xda23b17446b60b0c"
"restaurant";"Katering";"99 Restoran";"biak, Jl. Imam Bonjol No.32, Fandoi, Kec. Biak Kota, Kabupaten Biak Numfor, Papua 98112";"Jl. Imam Bonjol No.32, Fandoi, Kec. Biak Kota, Kabupaten Biak Numfor";"PAPUA";"98112";"Indonesia";" 098121450";"-1.1819157";"136.0825408";"https://maps.google.com/?cid=0x0:0xe657a176ad761bd1"
"restaurant";"Restoran";"RM. Pondok Bambu";"R39J+7H5, Jl. Selat Gaspar, Fandoi, Kec. Biak Kota, Kabupaten Biak Numfor, Papua 98111";"Jl. Selat Gaspar, Fandoi, Kec. Biak Kota, Kabupaten Biak Numfor";"PAPUA";"98111";"Indonesia";"";"-1.1818615";"136.0814848";"https://maps.google.com/?cid=0x0:0x9609d1da6b8d87b1"
"restaurant";"restaurant";"Marisen";"Distrik Biak Barat, Kabupaten Biak Numfor, Papua";"Kabupaten Biak Numfor, Papua";"PAPUA";"";"Indonesia";"";"-1.0462603";"135.851709";"https://maps.google.com/?cid=0x0:0x4bf1624f431c7592"
"restaurant";"Prasmanan";"Depot Afifah";"R38M+6P3, Jl. Jend. Ahmad Yani, Fandoi, Kec. Biak Kota, Kabupaten Biak Numfor, Papua 98111";"Jl. Jend. Ahmad Yani, Fandoi, Kec. Biak Kota, Kabupaten Biak Numfor";"PAPUA";"98111";"Indonesia";" 098123436";"-1.1844773";"136.0843071";"https://maps.google.com/?cid=0x0:0xa39b15022074a9ac"
"restaurant";"Ikan Bakar";"Ikan Bakar Kole Kole";"R3QQ+3JG, Mandouw, Kec. Samofa, Kabupaten Biak Numfor, Papua 98111";"Mandouw, Kec. Samofa, Kabupaten Biak Numfor";"PAPUA";"98111";"Indonesia";" 082199279094";"-1.162309";"136.0890924";"https://maps.google.com/?cid=0x0:0xab0a53fa5d42b39c"
"restaurant";"Restoran";"Awin pu Kios";"Desa Insusbari, Distrik Swandiwe, Biak Barat, Papua";"Biak Barat, Papua";"PAPUA";"";"Indonesia";" 081210358072";"-0.9415113";"135.7886924";"https://maps.google.com/?cid=0x0:0x29c6085cc9648945"
"restaurant";"Jus";"Kedai Yaswar";"Jl. Raya Sorido, Inggiri, Kec. Biak Kota, Kabupaten Biak Numfor, Papua 98115";"Inggiri, Kec. Biak Kota, Kabupaten Biak Numfor";"PAPUA";"98115";"Indonesia";" 082398784104";"-1.0381022";"135.9800848";"https://maps.google.com/?cid=0x0:0xe7d35df5ef3aa2b4"
"restaurant";"Makanan Kecil";"Waroeng nDeso";"WXJV+4PQ, Moibaken, Kec. Yendidori, Kabupaten Biak Numfor, Papua";"Kabupaten Biak Numfor, Papua";"PAPUA";"";"Indonesia";"";"-1.0696623";"135.99437";"https://maps.google.com/?cid=0x0:0x931c3542878ce283"
"restaurant";"Mi";"Warung maam";"Jl. Raya dolog, Syabes, Kec. Yendidori, Kabupaten Biak Numfor, Papua 98511";"Syabes, Kec. Yendidori, Kabupaten Biak Numfor";"PAPUA";"98511";"Indonesia";" 082285093370";"-1.0381022";"135.9800848";"https://maps.google.com/?cid=0x0:0x98fc6a234cefb225"
"restaurant";"Sulawesi Selatan";"Segeri Rumah Makan";"JL Selat Makassar, No. 20A, Syabes, Biak, Kabupaten Biak Numfor, Papua 98111";"No. 20A, Syabes, Biak, Kabupaten Biak Numfor";"PAPUA";"98111";"Indonesia";" 098121089";"-1.0381022";"135.9800848";"https://maps.google.com/?cid=0x0:0xc72c1d72b8052f5e"
"restaurant";"restaurant";"Papua 98157";"Kabupaten Biak Numfor, Papua";"Kabupaten Biak Numfor, Papua";"PAPUA";"";"Indonesia";"";"-0.8013579";"135.8849587";"https://maps.google.com/?cid=0x0:0xc4bb574f645569e5"
"restaurant";"Toko Roti";"Restoran Jakarta  Cafe - Hawai Bakery";"Jl. Imam Bonjol No.10, Fandoi, Kec. Biak Kota, Kabupaten Biak Numfor, Papua 98111";"Fandoi, Kec. Biak Kota, Kabupaten Biak Numfor";"PAPUA";"98111";"Indonesia";" 09818212975";"-1.1833091";"136.0822542";"https://maps.google.com/?cid=0x0:0x4f8c71442b3699bd"
"restaurant";"Katering";"99 Restoran";"biak, Jl. Imam Bonjol No.32, Fandoi, Kec. Biak Kota, Kabupaten Biak Numfor, Papua 98112";"Jl. Imam Bonjol No.32, Fandoi, Kec. Biak Kota, Kabupaten Biak Numfor";"PAPUA";"98112";"Indonesia";" 098121450";"-1.1819157";"136.0825408";"https://maps.google.com/?cid=0x0:0xe657a176ad761bd1"
"restaurant";"China";"Restoran 99 Samofa";"R3JP+GVF, Jl. Wandamen, Samofa, Kec. Samofa, Kabupaten Biak Numfor, Papua 98111";"Jl. Wandamen, Samofa, Kec. Samofa, Kabupaten Biak Numfor";"PAPUA";"98111";"Indonesia";"";"-1.1686825";"136.0871809";"https://maps.google.com/?cid=0x0:0x567c22d9fa629a29"
"restaurant";"restaurant";"Aman";"Distrik Warsa, Kabupaten Biak Numfor, Papua";"Kabupaten Biak Numfor, Papua";"PAPUA";"";"Indonesia";"";"-0.8039513";"135.9491482";"https://maps.google.com/?cid=0x0:0xd2a87bbd521a4487"
"restaurant";"Hidangan Laut";"Marina Star Restaurant Seafood";"Kompleks, Jl. Bubara Jl. Pelabuhan Perikanan, Distrik Sorong, Kota Sorong, Papua Bar. 98414";"Jl. Bubara Jl. Pelabuhan Perikanan, Distrik Sorong, Kota Sorong";"PAPUA";"98414";"Indonesia";" 081240250548";"-0.8790069";"131.2552456";"https://maps.google.com/?cid=0x0:0x6d780e763a272c1a"
"restaurant";"Restoran";"Restaurant Yougwa";"CJ63+H23, Jl. Raya Abepura - Sentani, Asei Kecil, Kec. Sentani Tim., Kabupaten Jayapura, Papua 99351";"Jl. Raya Abepura - Sentani, Asei Kecil, Kec. Sentani Tim., Kabupaten Jayapura";"PAPUA";"99351";"Indonesia";" 08114801448";"-2.5886245";"140.602559";"https://maps.google.com/?cid=0x0:0x65e60fc66014e79c"
"restaurant";"Padang";"Warung masakan padang pantura";"32VQ+G8F, Jalan raya pantura, Andei, Distrik Biak Utara, Kabupaten Biak Numfor, Papua 98153";"Jalan raya pantura, Andei, Distrik Biak Utara, Kabupaten Biak Numfor";"PAPUA";"98153";"Indonesia";"";"-0.9061985";"136.0382848";"https://maps.google.com/?cid=0x0:0xe179a47a5bd3c837"
"restaurant";"restaurant";"Warung Makan Pantura";"32VQ+H8F, Unnamed Road, Saukobye, Distrik Biak Utara, Kabupaten Biak Numfor, Papua 98153";"Unnamed Road, Saukobye, Distrik Biak Utara, Kabupaten Biak Numfor";"PAPUA";"98153";"Indonesia";"";"-0.9060643";"136.0383028";"https://maps.google.com/?cid=0x0:0xde14a3c51d030661"
"restaurant";"Restoran";"Awin pu Kios";"Desa Insusbari, Distrik Swandiwe, Biak Barat, Papua";"Biak Barat, Papua";"PAPUA";"";"Indonesia";" 081210358072";"-0.9415113";"135.7886924";"https://maps.google.com/?cid=0x0:0x29c6085cc9648945"
"restaurant";"Ikan Bakar";"Ikan Bakar Kole Kole";"R3QQ+3JG, Mandouw, Kec. Samofa, Kabupaten Biak Numfor, Papua 98111";"Mandouw, Kec. Samofa, Kabupaten Biak Numfor";"PAPUA";"98111";"Indonesia";" 082199279094";"-1.162309";"136.0890924";"https://maps.google.com/?cid=0x0:0xab0a53fa5d42b39c"
"restaurant";"Kedai Kopi";"Swans House x Garasi Kopi";"Jl. Condronegoro No.1, Samofa, Kec. Samofa, Kabupaten Biak Numfor, Papua 98112";"Samofa, Kec. Samofa, Kabupaten Biak Numfor";"PAPUA";"98112";"Indonesia";" 085229224501";"-1.1655";"136.0693894";"https://maps.google.com/?cid=0x0:0x55ad48a000b61768"
"restaurant";"Hidangan Laut";"B-One Restaurant";"FP45+5CR, Numbai, Distrik Jayapura Selatan, Kota Jayapura, Papua 99222";"Numbai, Distrik Jayapura Selatan, Kota Jayapura";"PAPUA";"99222";"Indonesia";" 081344533058";"-2.5445125";"140.7085143";"https://maps.google.com/?cid=0x0:0xb8053f84d614fc3e"
"restaurant";"Restoran";"Cristho Resto";"Jl. Raya Sentani - Waena, Asei Kecil, Kec. Sentani Tim., Kabupaten Jayapura, Papua 99351";"Asei Kecil, Kec. Sentani Tim., Kabupaten Jayapura";"PAPUA";"99351";"Indonesia";" 082248269002";"-2.5885674";"140.5954984";"https://maps.google.com/?cid=0x0:0xe37fe4d7ad0bc892"
"restaurant";"restaurant";"Distrik Padaido";"Kabupaten Biak Numfor, Papua";"Kabupaten Biak Numfor, Papua";"PAPUA";"";"Indonesia";"";"-1.2535987";"136.3759228";"https://maps.google.com/?cid=0x0:0x3fb215253a432cb0"
"restaurant";"Prasmanan";"Depot Afifah";"R38M+6P3, Jl. Jend. Ahmad Yani, Fandoi, Kec. Biak Kota, Kabupaten Biak Numfor, Papua 98111";"Jl. Jend. Ahmad Yani, Fandoi, Kec. Biak Kota, Kabupaten Biak Numfor";"PAPUA";"98111";"Indonesia";" 098123436";"-1.1844773";"136.0843071";"https://maps.google.com/?cid=0x0:0xa39b15022074a9ac"
"restaurant";"Hotel bintang 4";"Padaido Hotel";"R37M+CJJ, Fandoi, Kec. Biak Kota, Kabupaten Biak Numfor, Papua 98111";"Fandoi, Kec. Biak Kota, Kabupaten Biak Numfor";"PAPUA";"98111";"Indonesia";" 081344393177";"-1.1864133";"136.0840154";"https://maps.google.com/?cid=0x0:0x5972d1b6bdd68ae8"
"restaurant";"Makanan Kecil";"WARUNG MAKAN ELDIRA";"Samping toko biak indah, Jl, Marauw, Kampung Anjareuw, Kabupaten Biak Numfor, Papua 98551";"Jl, Marauw, Kampung Anjareuw, Kabupaten Biak Numfor";"PAPUA";"98551";"Indonesia";" 082248803890";"-1.1648906";"136.0966088";"https://maps.google.com/?cid=0x0:0x19af3e0e1306e8c6"
"restaurant";"restaurant";"PADAIDO CAFE";"R37M+9G4, Fandoi, Kec. Biak Kota, Kabupaten Biak Numfor, Papua 98111";"Fandoi, Kec. Biak Kota, Kabupaten Biak Numfor";"PAPUA";"98111";"Indonesia";"";"-1.1866229";"136.0838136";"https://maps.google.com/?cid=0x0:0x1759c67d23d8adda"
"restaurant";"restaurant";"Dapoerafa";"R3RJ+87W, Jl. Sriwijaya, Brambaken, Kec. Samofa, Kabupaten Biak Numfor, Papua 98111";"Jl. Sriwijaya, Brambaken, Kec. Samofa, Kabupaten Biak Numfor";"PAPUA";"98111";"Indonesia";"";"-1.1591434";"136.0806893";"https://maps.google.com/?cid=0x0:0x798124ab5efdc2e2"
"restaurant";"restaurant";"Papua 98155";"Kabupaten Biak Numfor, Papua";"Kabupaten Biak Numfor, Papua";"PAPUA";"";"Indonesia";"";"-1.0788059";"135.9229866";"https://maps.google.com/?cid=0x0:0xa4f1b9a1d481f173"
"restaurant";"Prasmanan";"Depot Afifah";"R38M+6P3, Jl. Jend. Ahmad Yani, Fandoi, Kec. Biak Kota, Kabupaten Biak Numfor, Papua 98111";"Jl. Jend. Ahmad Yani, Fandoi, Kec. Biak Kota, Kabupaten Biak Numfor";"PAPUA";"98111";"Indonesia";" 098123436";"-1.1844773";"136.0843071";"https://maps.google.com/?cid=0x0:0xa39b15022074a9ac"
"restaurant";"Katering";"99 Restoran";"biak, Jl. Imam Bonjol No.32, Fandoi, Kec. Biak Kota, Kabupaten Biak Numfor, Papua 98112";"Jl. Imam Bonjol No.32, Fandoi, Kec. Biak Kota, Kabupaten Biak Numfor";"PAPUA";"98112";"Indonesia";" 098121450";"-1.1819157";"136.0825408";"https://maps.google.com/?cid=0x0:0xe657a176ad761bd1"
"restaurant";"Kantor Perusahaan";"Samber binyeri";"RWH5+769, Samber, Kec. Yendidori, Kabupaten Biak Numfor, Papua";"Kabupaten Biak Numfor, Papua";"PAPUA";"";"Indonesia";"";"-1.171834";"135.908121";"https://maps.google.com/?cid=0x0:0x2bcb5a5e3d29c357"
"restaurant";"Perhimpunan Pengembang Perumahan";"Rumah kediaman Bapak Karma";"WXPG+Q9, Wirmaker, Kec. Yendidori, Kabupaten Biak Numfor, Papua";"Kabupaten Biak Numfor, Papua";"PAPUA";"";"Indonesia";"";"-1.063065";"135.9759522";"https://maps.google.com/?cid=0x0:0xbfdb35be87d3b093"
"restaurant";"Komplek perumahan";"Rest Area Wardo";"XR8H+PXR, Kanaan, Distrik Biak Barat, Kabupaten Biak Numfor, Papua 98154";"Kanaan, Distrik Biak Barat, Kabupaten Biak Numfor";"PAPUA";"98154";"Indonesia";"";"-1.0331319";"135.8298798";"https://maps.google.com/?cid=0x0:0x37c98df8c0d667ff"
"restaurant";"Tujuan Wisata";"Adoki Tanjung Sarweri";"Adoki, Kec. Yendidori, Kabupaten Biak Numfor, Papua 98118";"Kec. Yendidori, Kabupaten Biak Numfor";"PAPUA";"98118";"Indonesia";"";"-1.1469674";"135.9778429";"https://maps.google.com/?cid=0x0:0x6742cb883e5f2af3"
"restaurant";"Tujuan Wisata";"Negeri Dongeng Telaga Barupi";"WW79+W5, Kali Barupi, Kababur, Distrik Biak Barat, Kabupaten Biak Numfor, Papua 98155";"Kali Barupi, Kababur, Distrik Biak Barat, Kabupaten Biak Numfor";"PAPUA";"98155";"Indonesia";"";"-1.0846819";"135.9182422";"https://maps.google.com/?cid=0x0:0x8dff524fa59b2949"
"restaurant";"Ikan Bakar";"Sentra Kuliner Ikan KALAMO";"RWH4+GJW, Samber, Kec. Yendidori, Kabupaten Biak Numfor, Papua";"Kabupaten Biak Numfor, Papua";"PAPUA";"";"Indonesia";"";"-1.170799";"135.9062504";"https://maps.google.com/?cid=0x0:0x6c62017bebe27e9d"
"restaurant";"Minimarket";"Rejeki satu";"biak, Jl. Raya Sorido, Adoki, Kec. Yendidori, Kabupaten Biak Numfor, Papua";"Kabupaten Biak Numfor, Papua";"PAPUA";"";"Indonesia";"";"-1.145138";"135.9764783";"https://maps.google.com/?cid=0x0:0x59977f9f702ed0b9"
"restaurant";"Tujuan Wisata";"Wisata Kampung Samber";"RWH4+4FH, Samber, Kec. Yendidori, Kabupaten Biak Numfor, Papua";"Kabupaten Biak Numfor, Papua";"PAPUA";"";"Indonesia";"";"-1.1721914";"135.9062276";"https://maps.google.com/?cid=0x0:0xc60768378d60e17a"
"restaurant";"Kios";"Kios Yerifu";"VW6R+7MG, Adoki - Samber, Urfu, Kec. Yendidori, Kabupaten Biak Numfor, Papua 98155";"Adoki - Samber, Urfu, Kec. Yendidori, Kabupaten Biak Numfor";"PAPUA";"98155";"Indonesia";" 082198465787";"-1.1393213";"135.9417068";"https://maps.google.com/?cid=0x0:0x7907c2d0005a5c1"
"restaurant";"Toko bahan makanan";"Wardo";"XR9H+5MV, Kanaan, Distrik Biak Barat, Kabupaten Biak Numfor, Papua 98154";"Kanaan, Distrik Biak Barat, Kabupaten Biak Numfor";"PAPUA";"98154";"Indonesia";"";"-1.0320235";"135.8291581";"https://maps.google.com/?cid=0x0:0xd17615874189ceaa"
"restaurant";"Makanan Kecil";"WARUNG MAKAN ELDIRA";"Samping toko biak indah, Jl, Marauw, Kampung Anjareuw, Kabupaten Biak Numfor, Papua 98551";"Jl, Marauw, Kampung Anjareuw, Kabupaten Biak Numfor";"PAPUA";"98551";"Indonesia";" 082248803890";"-1.1648906";"136.0966088";"https://maps.google.com/?cid=0x0:0x19af3e0e1306e8c6"
"restaurant";"restaurant";"Papua 98118";"Kabupaten Biak Numfor, Papua";"Kabupaten Biak Numfor, Papua";"PAPUA";"";"Indonesia";"";"-1.1449556";"136.10403";"https://maps.google.com/?cid=0x0:0x25e958740e846491"
"restaurant";"Kedai Kopi";"Three - C Caffe  Resto";"Kios Putih, Belakang, Yafdas, Samofa, Biak Numfor Regency, Papua";"Kabupaten Biak Numfor, Papua";"PAPUA";"";"Indonesia";" 08124825299";"-1.1568604";"136.0741199";"https://maps.google.com/?cid=0x0:0xda23b17446b60b0c"
"restaurant";"China";"Restoran 99 Samofa";"R3JP+GVF, Jl. Wandamen, Samofa, Kec. Samofa, Kabupaten Biak Numfor, Papua 98111";"Jl. Wandamen, Samofa, Kec. Samofa, Kabupaten Biak Numfor";"PAPUA";"98111";"Indonesia";"";"-1.1686825";"136.0871809";"https://maps.google.com/?cid=0x0:0x567c22d9fa629a29"
"restaurant";"Masakan Asia";"Phinisi Cafe  Resto Biak";"R3CR+XPG Near TOKO MANDIRI BARU, Jl. Raya Bosnik, Karang Mulia, Samofa, Biak Numfor Regency, Papua 98111";"Jl. Raya Bosnik, Karang Mulia, Samofa, Biak Numfor Regency";"PAPUA";"98111";"Indonesia";"";"-1.1775711";"136.0918153";"https://maps.google.com/?cid=0x0:0x275c328e8b99a970"
"restaurant";"Restoran";"Warung Makan Sido Semi";"R4P2+P6R, Jl. Raya Maraw, Sumberker, Kec. Samofa, Kabupaten Biak Numfor, Papua 98118";"Jl. Raya Maraw, Sumberker, Kec. Samofa, Kabupaten Biak Numfor";"PAPUA";"98118";"Indonesia";" 09812911438";"-1.1631379";"136.1005307";"https://maps.google.com/?cid=0x0:0xca51940c84bc6d88"
"restaurant";"Padang";"Warung makan cahaya minang";"Jl. Sriwijaya, Brambaken, Kec. Samofa, Kabupaten Biak Numfor, Papua 98111";"Brambaken, Kec. Samofa, Kabupaten Biak Numfor";"PAPUA";"98111";"Indonesia";" 081240332345";"-1.1588557";"136.0782627";"https://maps.google.com/?cid=0x0:0x2d2629e65b71174c"
"restaurant";"Sate";"Sate Kambing Mandiri";"R3CW+X54, Karang Mulia, Kec. Samofa, Kabupaten Biak Numfor, Papua 98111";"Karang Mulia, Kec. Samofa, Kabupaten Biak Numfor";"PAPUA";"98111";"Indonesia";" 082131147397";"-1.1776008";"136.0954533";"https://maps.google.com/?cid=0x0:0x5aa1827c54941464"
"restaurant";"Kedai Kopi";"BBc Cafe  Resto Biak-Papua";"R3MQ+6CG, Brambaken, Kec. Samofa, Kabupaten Biak Numfor, Papua 98111";"Brambaken, Kec. Samofa, Kabupaten Biak Numfor";"PAPUA";"98111";"Indonesia";" 085215086162";"-1.1669262";"136.0885849";"https://maps.google.com/?cid=0x0:0x29dee206c0f8e573"
"restaurant";"Restoran";"RB Cafe  Resto";"R3MQ+CWM, Brambaken, Kec. Samofa, Kabupaten Biak Numfor, Papua 98111";"Brambaken, Kec. Samofa, Kabupaten Biak Numfor";"PAPUA";"98111";"Indonesia";"";"-1.1664379";"136.0898802";"https://maps.google.com/?cid=0x0:0x75f17d82e246699e"
"restaurant";"Toko Swalayan";"Warung Mekar Sari";"R3PM+V4W, Brambaken, Kec. Samofa, Kabupaten Biak Numfor, Papua 98111";"Brambaken, Kec. Samofa, Kabupaten Biak Numfor";"PAPUA";"98111";"Indonesia";" 081240319560";"-1.16275";"136.0828162";"https://maps.google.com/?cid=0x0:0x56a992eb0d9065a8"
"restaurant";"Sate";"Warung makan bu yayah";"R3HW+WFX, Jl. Angkasa, Samofa, Kec. Samofa, Kabupaten Biak Numfor, Papua 98118";"Jl. Angkasa, Samofa, Kec. Samofa, Kabupaten Biak Numfor";"PAPUA";"98118";"Indonesia";"";"-1.1701336";"136.0962234";"https://maps.google.com/?cid=0x0:0x3cd1efb66767ca17"
"restaurant";"Ikan Bakar";"Ikan Bakar Kole Kole";"R3QQ+3JG, Mandouw, Kec. Samofa, Kabupaten Biak Numfor, Papua 98111";"Mandouw, Kec. Samofa, Kabupaten Biak Numfor";"PAPUA";"98111";"Indonesia";" 082199279094";"-1.162309";"136.0890924";"https://maps.google.com/?cid=0x0:0xab0a53fa5d42b39c"
"restaurant";"Prasmanan";"Angkasa _ Prasmanan";"R3GC+FMJ, Jl. Sisingamangaraja, Samofa, Kec. Samofa, Kabupaten Biak Numfor, Papua 98112";"Jl. Sisingamangaraja, Samofa, Kec. Samofa, Kabupaten Biak Numfor";"PAPUA";"98112";"Indonesia";"";"-1.1737786";"136.0716357";"https://maps.google.com/?cid=0x0:0xc8d7edf09c78872a"
"restaurant";"Jawa";"Warung Siomay";"R3MW+XVF, Sumberker, Kec. Samofa, Kabupaten Biak Numfor, Papua 98118";"Sumberker, Kec. Samofa, Kabupaten Biak Numfor";"PAPUA";"98118";"Indonesia";"";"-1.1650696";"136.0971817";"https://maps.google.com/?cid=0x0:0xfd9502b19bb7e8b3"
"restaurant";"restaurant";"Papua 98156";"Kabupaten Biak Numfor, Papua";"Kabupaten Biak Numfor, Papua";"PAPUA";"";"Indonesia";"";"-1.0808865";"136.0372508";"https://maps.google.com/?cid=0x0:0x6d8c17ba7e95fe38"
"restaurant";"Hidangan Laut";"RM sukacita";"R3FH+2JW, Samofa, Kec. Samofa, Kabupaten Biak Numfor, Papua 98111";"Samofa, Kec. Samofa, Kabupaten Biak Numfor";"PAPUA";"98111";"Indonesia";" 098124629";"-1.1773858";"136.0790755";"https://maps.google.com/?cid=0x0:0x82fcb39516e9f875"
"restaurant";"China";"Restoran 99 Samofa";"R3JP+GVF, Jl. Wandamen, Samofa, Kec. Samofa, Kabupaten Biak Numfor, Papua 98111";"Jl. Wandamen, Samofa, Kec. Samofa, Kabupaten Biak Numfor";"PAPUA";"98111";"Indonesia";"";"-1.1686825";"136.0871809";"https://maps.google.com/?cid=0x0:0x567c22d9fa629a29"
"restaurant";"Brunch";"RM. Padang Sari Kapau";"R3GF+436, Samofa, Kec. Samofa, Kabupaten Biak Numfor, Papua 98112";"Samofa, Kec. Samofa, Kabupaten Biak Numfor";"PAPUA";"98112";"Indonesia";"";"-1.1747009";"136.0726525";"https://maps.google.com/?cid=0x0:0xcfc7f679c5907212"
"restaurant";"Prasmanan";"Angkasa _ Prasmanan";"R3GC+FMJ, Jl. Sisingamangaraja, Samofa, Kec. Samofa, Kabupaten Biak Numfor, Papua 98112";"Jl. Sisingamangaraja, Samofa, Kec. Samofa, Kabupaten Biak Numfor";"PAPUA";"98112";"Indonesia";"";"-1.1737786";"136.0716357";"https://maps.google.com/?cid=0x0:0xc8d7edf09c78872a"
"restaurant";"Kafe";"NEW BLACKDAWN FOOD  BAKERY";"Mata jalan arah ke Toko Artha Graha/arah Komplek Brimob, Jl. Condronegoro, Samofa, Kec. Samofa, Kabupaten Biak Numfor, Papua 98111";"Jl. Condronegoro, Samofa, Kec. Samofa, Kabupaten Biak Numfor";"PAPUA";"98111";"Indonesia";" 081344011559";"-1.1708085";"136.0878042";"https://maps.google.com/?cid=0x0:0x59f5ac5fb6b20c8"
"restaurant";"Restoran";"Warung Makan Solata Khas Toraja";"R3HQ+HVR, Samofa, Kec. Samofa, Kabupaten Biak Numfor, Papua 98111";"Samofa, Kec. Samofa, Kabupaten Biak Numfor";"PAPUA";"98111";"Indonesia";"";"-1.1710142";"136.089639";"https://maps.google.com/?cid=0x0:0x315dc3a340342582"
"restaurant";"Padang";"Warung makan cahaya minang";"Jl. Sriwijaya, Brambaken, Kec. Samofa, Kabupaten Biak Numfor, Papua 98111";"Brambaken, Kec. Samofa, Kabupaten Biak Numfor";"PAPUA";"98111";"Indonesia";" 081240332345";"-1.1588557";"136.0782627";"https://maps.google.com/?cid=0x0:0x2d2629e65b71174c"
"restaurant";"Masakan Asia";"Phinisi Cafe  Resto Biak";"R3CR+XPG Near TOKO MANDIRI BARU, Jl. Raya Bosnik, Karang Mulia, Samofa, Biak Numfor Regency, Papua 98111";"Jl. Raya Bosnik, Karang Mulia, Samofa, Biak Numfor Regency";"PAPUA";"98111";"Indonesia";"";"-1.1775711";"136.0918153";"https://maps.google.com/?cid=0x0:0x275c328e8b99a970"
"restaurant";"Restoran";"RB Cafe  Resto";"R3MQ+CWM, Brambaken, Kec. Samofa, Kabupaten Biak Numfor, Papua 98111";"Brambaken, Kec. Samofa, Kabupaten Biak Numfor";"PAPUA";"98111";"Indonesia";"";"-1.1664379";"136.0898802";"https://maps.google.com/?cid=0x0:0x75f17d82e246699e"
"restaurant";"Sulawesi Selatan";"Coto Makassar Biak";"R3FH+75F, Jl. Sisingamangaraja, Samofa, Kec. Samofa, Kabupaten Biak Numfor, Papua 98111";"Jl. Sisingamangaraja, Samofa, Kec. Samofa, Kabupaten Biak Numfor";"PAPUA";"98111";"Indonesia";"";"-1.1768011";"136.0779234";"https://maps.google.com/?cid=0x0:0x74112560ecf04d51"
"restaurant";"Sarapan";"Wong Samofa";"R3HQ+J9R, Jl. Condronegoro, Samofa, kanan lapas, Biak, Papua 98551";"Jl. Condronegoro, Samofa, kanan lapas, Biak";"PAPUA";"98551";"Indonesia";"";"-1.1710899";"136.0884206";"https://maps.google.com/?cid=0x0:0x86ef9d0a3372dc6b"
"restaurant";"Kedai Kopi";"BBc Cafe  Resto Biak-Papua";"R3MQ+6CG, Brambaken, Kec. Samofa, Kabupaten Biak Numfor, Papua 98111";"Brambaken, Kec. Samofa, Kabupaten Biak Numfor";"PAPUA";"98111";"Indonesia";" 085215086162";"-1.1669262";"136.0885849";"https://maps.google.com/?cid=0x0:0x29dee206c0f8e573"
"restaurant";"Kafe";"Olin Resto  Cafe";"R3MJ+548, Jl. Condronegoro, Samofa, Kec. Samofa, Kabupaten Biak Numfor, Papua 98111";"Jl. Condronegoro, Samofa, Kec. Samofa, Kabupaten Biak Numfor";"PAPUA";"98111";"Indonesia";"";"-1.1670816";"136.0803283";"https://maps.google.com/?cid=0x0:0x95c05f68ab97797b"
"restaurant";"restaurant";"Distrik Yawosi";"Kabupaten Biak Numfor, Papua";"Kabupaten Biak Numfor, Papua";"PAPUA";"";"Indonesia";"";"-0.8350919";"136.0182645";"https://maps.google.com/?cid=0x0:0x7439514076bef34"
"restaurant";"Kafe";"Olin Resto  Cafe";"R3MJ+548, Jl. Condronegoro, Samofa, Kec. Samofa, Kabupaten Biak Numfor, Papua 98111";"Jl. Condronegoro, Samofa, Kec. Samofa, Kabupaten Biak Numfor";"PAPUA";"98111";"Indonesia";"";"-1.1670816";"136.0803283";"https://maps.google.com/?cid=0x0:0x95c05f68ab97797b"
"restaurant";"Toko Roti";"Restoran Jakarta  Cafe - Hawai Bakery";"Jl. Imam Bonjol No.10, Fandoi, Kec. Biak Kota, Kabupaten Biak Numfor, Papua 98111";"Fandoi, Kec. Biak Kota, Kabupaten Biak Numfor";"PAPUA";"98111";"Indonesia";" 09818212975";"-1.1833091";"136.0822542";"https://maps.google.com/?cid=0x0:0x4f8c71442b3699bd"
"restaurant";"Sate";"Warung makan bu yayah";"R3HW+WFX, Jl. Angkasa, Samofa, Kec. Samofa, Kabupaten Biak Numfor, Papua 98118";"Jl. Angkasa, Samofa, Kec. Samofa, Kabupaten Biak Numfor";"PAPUA";"98118";"Indonesia";"";"-1.1701336";"136.0962234";"https://maps.google.com/?cid=0x0:0x3cd1efb66767ca17"
"restaurant";"Nasi";"Warung soyo rejo";"R3HP+QXM, Samofa, Kec. Samofa, Kabupaten Biak Numfor, Papua 98111";"Samofa, Kec. Samofa, Kabupaten Biak Numfor";"PAPUA";"98111";"Indonesia";"";"-1.1705299";"136.0874227";"https://maps.google.com/?cid=0x0:0xf06320614d4454df"
"restaurant";"Restoran";"Warung Makan Sido Semi";"R4P2+P6R, Jl. Raya Maraw, Sumberker, Kec. Samofa, Kabupaten Biak Numfor, Papua 98118";"Jl. Raya Maraw, Sumberker, Kec. Samofa, Kabupaten Biak Numfor";"PAPUA";"98118";"Indonesia";" 09812911438";"-1.1631379";"136.1005307";"https://maps.google.com/?cid=0x0:0xca51940c84bc6d88"
"restaurant";"Jus";"Kedai Yaswar";"Jl. Raya Sorido, Inggiri, Kec. Biak Kota, Kabupaten Biak Numfor, Papua 98115";"Inggiri, Kec. Biak Kota, Kabupaten Biak Numfor";"PAPUA";"98115";"Indonesia";" 082398784104";"-1.0381022";"135.9800848";"https://maps.google.com/?cid=0x0:0xe7d35df5ef3aa2b4"
"restaurant";"Katering";"99 Restoran";"biak, Jl. Imam Bonjol No.32, Fandoi, Kec. Biak Kota, Kabupaten Biak Numfor, Papua 98112";"Jl. Imam Bonjol No.32, Fandoi, Kec. Biak Kota, Kabupaten Biak Numfor";"PAPUA";"98112";"Indonesia";" 098121450";"-1.1819157";"136.0825408";"https://maps.google.com/?cid=0x0:0xe657a176ad761bd1"
"restaurant";"Restoran";"WARUNG MBOK YEM";"R3GR+H35, Jl. Majapahit, Samofa, Kec. Samofa, Kabupaten Biak Numfor, Papua 98111";"Jl. Majapahit, Samofa, Kec. Samofa, Kabupaten Biak Numfor";"PAPUA";"98111";"Indonesia";" 081240516402";"-1.1736036";"136.0902301";"https://maps.google.com/?cid=0x0:0xc573759d11b4006f"
"restaurant";"Jawa";"Warung Makan Dannis";"Fandoi, Kec. Biak Kota, Kabupaten Biak Numfor, Papua 98111";"Kec. Biak Kota, Kabupaten Biak Numfor";"PAPUA";"98111";"Indonesia";" 081340981068";"-1.1773124";"136.0789394";"https://maps.google.com/?cid=0x0:0x191a8a644281410"
"restaurant";"Prasmanan";"Depot Afifah";"R38M+6P3, Jl. Jend. Ahmad Yani, Fandoi, Kec. Biak Kota, Kabupaten Biak Numfor, Papua 98111";"Jl. Jend. Ahmad Yani, Fandoi, Kec. Biak Kota, Kabupaten Biak Numfor";"PAPUA";"98111";"Indonesia";" 098123436";"-1.1844773";"136.0843071";"https://maps.google.com/?cid=0x0:0xa39b15022074a9ac"
"restaurant";"Masakan Asia";"RUMAH MAKAN PRASMANAN";"R3FR+6GC, Karang Mulia, Kec. Samofa, Kabupaten Biak Numfor, Papua 98111";"Karang Mulia, Kec. Samofa, Kabupaten Biak Numfor";"PAPUA";"98111";"Indonesia";" 082197599990";"-1.1769388";"136.0912628";"https://maps.google.com/?cid=0x0:0xfa49baed5d1496e9"
"restaurant";"Manado";"RM. AROMA SULAWESI";"R3H9+H2F, Jl. Sisingamangaraja, Sorido, Kec. Samofa, Kabupaten Biak Numfor, Papua 98112";"Jl. Sisingamangaraja, Sorido, Kec. Samofa, Kabupaten Biak Numfor";"PAPUA";"98112";"Indonesia";"";"-1.1710567";"136.0675541";"https://maps.google.com/?cid=0x0:0x8a79682f05e4153"
"restaurant";"Indonesia";"Warung Makan El-Shaddai";"Jl. Selat Madura No.13, Fandoi, Kec. Biak Kota, Kabupaten Biak Numfor, Papua 98111";"Fandoi, Kec. Biak Kota, Kabupaten Biak Numfor";"PAPUA";"98111";"Indonesia";"";"-1.1832465";"136.0835437";"https://maps.google.com/?cid=0x0:0xcff5b3896902d185"
"restaurant";"Restoran";"Hawai Bakery";"R454+7HM, Kompleks Bandara Frans Kaisepo, Mandala, Biak Kota, Biak Numfor Regency, Papua 98118";"Kompleks Bandara Frans Kaisepo, Mandala, Biak Kota, Biak Numfor Regency";"PAPUA";"98118";"Indonesia";"";"-1.1917975";"136.1064317";"https://maps.google.com/?cid=0x0:0x43f80582da840922"
"restaurant";"Toko Roti";"Restoran Jakarta  Cafe - Hawai Bakery";"Jl. Imam Bonjol No.10, Fandoi, Kec. Biak Kota, Kabupaten Biak Numfor, Papua 98111";"Fandoi, Kec. Biak Kota, Kabupaten Biak Numfor";"PAPUA";"98111";"Indonesia";" 09818212975";"-1.1833091";"136.0822542";"https://maps.google.com/?cid=0x0:0x4f8c71442b3699bd"
"restaurant";"restaurant";"N/A";"";"";"PAPUA";"";"Indonesia";"";"";"";"https://maps.google.com/?cid=0x0:0x4f8c71442b3699bdu0026onu003dCumi+Bakaru0026midu003d/g/11g6v01pzv"
"restaurant";"restaurant";"N/A";"";"";"PAPUA";"";"Indonesia";"";"";"";"https://maps.google.com/?cid=0x0:0x4f8c71442b3699bdu0026onu003dKailan+Cah+Sapiu0026midu003d/g/11g6v01pzv"
"restaurant";"restaurant";"N/A";"";"";"PAPUA";"";"Indonesia";"";"";"";"https://maps.google.com/?cid=0x0:0x4f8c71442b3699bdu0026onu003dEs+Teau0026midu003d/g/11g6v01pzv"
"restaurant";"restaurant";"N/A";"";"";"PAPUA";"";"Indonesia";"";"";"";"https://maps.google.com/?cid=0x0:0x4f8c71442b3699bdu0026onu003dKepiting+ASAPu0026midu003d/g/11g6v01pzv"
"restaurant";"restaurant";"N/A";"";"";"PAPUA";"";"Indonesia";"";"";"";"https://maps.google.com/?cid=0x0:0x4f8c71442b3699bdu0026onu003dNasi+Goreng+Bebek+Gorengu0026midu003d/g/11g6v01pzv"
"restaurant";"restaurant";"N/A";"";"";"PAPUA";"";"Indonesia";"";"";"";"https://maps.google.com/?cid=0x0:0x4f8c71442b3699bdu0026onu003dPizzau0026midu003d/g/11g6v01pzv"
"restaurant";"restaurant";"N/A";"";"";"PAPUA";"";"Indonesia";"";"";"";"https://maps.google.com/?cid=0x0:0x4f8c71442b3699bdu0026onu003dYi+Fu+Mie+Ayamu0026midu003d/g/11g6v01pzv"
"restaurant";"restaurant";"N/A";"";"";"PAPUA";"";"Indonesia";"";"";"";"https://maps.google.com/?cid=0x0:0x4f8c71442b3699bdu0026onu003dTeh+Caramelu0026midu003d/g/11g6v01pzv"
"restaurant";"restaurant";"N/A";"";"";"PAPUA";"";"Indonesia";"";"";"";"https://maps.google.com/?cid=0x0:0x4f8c71442b3699bdu0026onu003dEs+Kelapa+Mudau0026midu003d/g/11g6v01pzv"
"restaurant";"restaurant";"N/A";"";"";"PAPUA";"";"Indonesia";"";"";"";"https://maps.google.com/?cid=0x0:0x4f8c71442b3699bdu0026onu003dHot+Coffeeu0026midu003d/g/11g6v01pzv"
"restaurant";"restaurant";"N/A";"";"";"PAPUA";"";"Indonesia";"";"";"";"https://maps.google.com/?cid=0x0:0x4f8c71442b3699bdu0026onu003dRoti+Bakar+Kejuu0026midu003d/g/11g6v01pzv"
"restaurant";"restaurant";"N/A";"";"";"PAPUA";"";"Indonesia";"";"";"";"https://maps.google.com/?cid=0x0:0x4f8c71442b3699bdu0026onu003dNasi+Goreng+Thaiu0026midu003d/g/11g6v01pzv"
"restaurant";"restaurant";"Andei";"Distrik Biak Utara, Kabupaten Biak Numfor, Papua";"Kabupaten Biak Numfor, Papua";"PAPUA";"";"Indonesia";"";"-0.917489";"136.0324844";"https://maps.google.com/?cid=0x0:0x538a33a79fdea1d5"
"restaurant";"Nasi";"Warung makan algia";"32VQ+VCV, Saukobye, Distrik Biak Utara, Kabupaten Biak Numfor, Papua 98153";"Saukobye, Distrik Biak Utara, Kabupaten Biak Numfor";"PAPUA";"98153";"Indonesia";"";"-0.9052689";"136.0385582";"https://maps.google.com/?cid=0x0:0x2c3d0c23c328c1be"
"restaurant";"Jawa";"Warung Makan Dannis";"Fandoi, Kec. Biak Kota, Kabupaten Biak Numfor, Papua 98111";"Kec. Biak Kota, Kabupaten Biak Numfor";"PAPUA";"98111";"Indonesia";" 081340981068";"-1.1773124";"136.0789394";"https://maps.google.com/?cid=0x0:0x191a8a644281410"
"restaurant";"Indonesia";"Warung Makan El-Shaddai";"Jl. Selat Madura No.13, Fandoi, Kec. Biak Kota, Kabupaten Biak Numfor, Papua 98111";"Fandoi, Kec. Biak Kota, Kabupaten Biak Numfor";"PAPUA";"98111";"Indonesia";"";"-1.1832465";"136.0835437";"https://maps.google.com/?cid=0x0:0xcff5b3896902d185"
"restaurant";"Prasmanan";"Depot Afifah";"R38M+6P3, Jl. Jend. Ahmad Yani, Fandoi, Kec. Biak Kota, Kabupaten Biak Numfor, Papua 98111";"Jl. Jend. Ahmad Yani, Fandoi, Kec. Biak Kota, Kabupaten Biak Numfor";"PAPUA";"98111";"Indonesia";" 098123436";"-1.1844773";"136.0843071";"https://maps.google.com/?cid=0x0:0xa39b15022074a9ac"
"restaurant";"Padang";"Warung masakan padang pantura";"32VQ+G8F, Jalan raya pantura, Andei, Distrik Biak Utara, Kabupaten Biak Numfor, Papua 98153";"Jalan raya pantura, Andei, Distrik Biak Utara, Kabupaten Biak Numfor";"PAPUA";"98153";"Indonesia";"";"-0.9061985";"136.0382848";"https://maps.google.com/?cid=0x0:0xe179a47a5bd3c837"
"restaurant";"Masakan Asia";"Phinisi Cafe  Resto Biak";"R3CR+XPG Near TOKO MANDIRI BARU, Jl. Raya Bosnik, Karang Mulia, Samofa, Biak Numfor Regency, Papua 98111";"Jl. Raya Bosnik, Karang Mulia, Samofa, Biak Numfor Regency";"PAPUA";"98111";"Indonesia";"";"-1.1775711";"136.0918153";"https://maps.google.com/?cid=0x0:0x275c328e8b99a970"
"restaurant";"Jawa";"Warung mie Ayam Ayrah";"Mambesak, Distrik Biak Utara, Kabupaten Biak Numfor, Papua 98513";"Distrik Biak Utara, Kabupaten Biak Numfor";"PAPUA";"98513";"Indonesia";" 082248140470";"-0.9327576";"136.0460401";"https://maps.google.com/?cid=0x0:0x17cde742c2b63834"
"restaurant";"Restoran";"Warung Makan Andi Syaika";"4FJJ+PGV, Massi, Kec. Dekai, Kabupaten Yahukimo, Papua 99571";"Massi, Kec. Dekai, Kabupaten Yahukimo";"PAPUA";"99571";"Indonesia";" 082198244642";"-4.8681438";"139.4812883";"https://maps.google.com/?cid=0x0:0x3feb32891a941197"
"restaurant";"Restoran";"Rumah Makan “ANDRIE”";"9JXQ+G95, Jl. Raya Sentani - Waena, Waena, Kec. Sentani Tim., Kota Jayapura, Papua 99351";"Jl. Raya Sentani - Waena, Waena, Kec. Sentani Tim., Kota Jayapura";"PAPUA";"99351";"Indonesia";" 082398050099";"-2.6012262";"140.6384701";"https://maps.google.com/?cid=0x0:0x5d4bf78d555d2a12"
"restaurant";"Kedai Crepe";"Kedai ANDERI";"R3HR+363, Taman Jalur Dua, Karang Mulia, Kec. Samofa, Kabupaten Biak Numfor, Papua 98111";"Taman Jalur Dua, Karang Mulia, Kec. Samofa, Kabupaten Biak Numfor";"PAPUA";"98111";"Indonesia";" 082333888820";"-1.1726124";"136.0903468";"https://maps.google.com/?cid=0x0:0xc460a7492fcaf692"
"restaurant";"restaurant";"Distrik Andey";"Kabupaten Biak Numfor, Papua";"Kabupaten Biak Numfor, Papua";"PAPUA";"";"Indonesia";"";"-0.8632296";"135.9457066";"https://maps.google.com/?cid=0x0:0xbdf1e0ba9b83aec1"
"restaurant";"Indonesia";"Warung makan pati";"R39J+MG5, Jl. Selat Gaspar, Fandoi, Kec. Biak Kota, Kabupaten Biak Numfor, Papua 98111";"Jl. Selat Gaspar, Fandoi, Kec. Biak Kota, Kabupaten Biak Numfor";"PAPUA";"98111";"Indonesia";" 085244571313";"-1.1808667";"136.0813439";"https://maps.google.com/?cid=0x0:0x3934cc79923070d"
"restaurant";"Nasi";"Warung Ainis";"jalan pertama No.Depan, Inggiri, Kec. Biak Kota, Kabupaten Biak Numfor, Papua 98115";"Inggiri, Kec. Biak Kota, Kabupaten Biak Numfor";"PAPUA";"98115";"Indonesia";"";"-1.1519645";"136.0469647";"https://maps.google.com/?cid=0x0:0xf036c1d4c2ee71b4"
"restaurant";"restaurant";"Papua 98157";"Kabupaten Biak Numfor, Papua";"Kabupaten Biak Numfor, Papua";"PAPUA";"";"Indonesia";"";"-0.8013579";"135.8849587";"https://maps.google.com/?cid=0x0:0xc4bb574f645569e5"
"restaurant";"Restoran";"Warung Makan Andi Syaika";"4FJJ+PGV, Massi, Kec. Dekai, Kabupaten Yahukimo, Papua 99571";"Massi, Kec. Dekai, Kabupaten Yahukimo";"PAPUA";"99571";"Indonesia";" 082198244642";"-4.8681438";"139.4812883";"https://maps.google.com/?cid=0x0:0x3feb32891a941197"
"restaurant";"Restoran";"Rumah Makan “ANDRIE”";"9JXQ+G95, Jl. Raya Sentani - Waena, Waena, Kec. Sentani Tim., Kota Jayapura, Papua 99351";"Jl. Raya Sentani - Waena, Waena, Kec. Sentani Tim., Kota Jayapura";"PAPUA";"99351";"Indonesia";" 082398050099";"-2.6012262";"140.6384701";"https://maps.google.com/?cid=0x0:0x5d4bf78d555d2a12"
"restaurant";"Restoran";"Dapur Papua Resto (tag by EnCHy)";"CH94+3PC, Jl. Raya Airport Sentani, Nendali, Kec. Sentani Tim., Kabupaten Jayapura, Papua 99359";"Jl. Raya Airport Sentani, Nendali, Kec. Sentani Tim., Kabupaten Jayapura";"PAPUA";"99359";"Indonesia";"";"-2.5823105";"140.556775";"https://maps.google.com/?cid=0x0:0x31316751d4c3a979"
"restaurant";"Martabak";"Waiter's Food";"QFR2+G2M, Ureifasei Tiga/Paradoi, Kec. Urei Faisei, Kabupaten Waropen, Papua";"Kabupaten Waropen, Papua";"PAPUA";"";"Indonesia";" 085244541720";"-2.2086557";"136.450046";"https://maps.google.com/?cid=0x0:0x97bbfbe3793a4fbb"
"restaurant";"Padang";"Resto Yougwa Danau Sentani";"Jl. Batu Ceper No.73 15, RT.15/RW.1, Kb. Klp., Kecamatan Gambir, Kota Jakarta Pusat, Daerah Khusus Ibukota Jakarta 10120";"RT.15/RW.1, Kb. Klp., Kecamatan Gambir, Kota Jakarta Pusat";"PAPUA";"10120";"Indonesia";" 08119622272";"-6.162043";"106.8243928";"https://maps.google.com/?cid=0x0:0xd6689d47fce71c89"
"restaurant";"Restoran";"Warung Makan neng 'ndi";"Jl. Angkasa No.11, Klp. Lima, Kec. Merauke, Kabupaten Merauke, Papua 99614";"Klp. Lima, Kec. Merauke, Kabupaten Merauke";"PAPUA";"99614";"Indonesia";"";"-8.4924312";"140.4034715";"https://maps.google.com/?cid=0x0:0xa6395fad3c6778c5"
"restaurant";"Restoran";"Restaurant Yougwa";"CJ63+H23, Jl. Raya Abepura - Sentani, Asei Kecil, Kec. Sentani Tim., Kabupaten Jayapura, Papua 99351";"Jl. Raya Abepura - Sentani, Asei Kecil, Kec. Sentani Tim., Kabupaten Jayapura";"PAPUA";"99351";"Indonesia";" 08114801448";"-2.5886245";"140.602559";"https://maps.google.com/?cid=0x0:0x65e60fc66014e79c"
"restaurant";"Pujasera";"Warung Makan Anggreini";"Jl. Aru V No.1, Waupnor, Kec. Biak Kota, Kabupaten Biak Numfor, Papua 98112";"Waupnor, Kec. Biak Kota, Kabupaten Biak Numfor";"PAPUA";"98112";"Indonesia";"";"-1.1797892";"136.0700556";"https://maps.google.com/?cid=0x0:0x26adcd0941ae3ee3"
"restaurant";"Nasi";"R.M NADHIFA";"Jl. Polres Sentani No. 4, Doyo Baru, Walibu, Doyo Baru, Distrik Waibu, Kabupaten Jayapura, Papua 99352";"Doyo Baru, Walibu, Doyo Baru, Distrik Waibu, Kabupaten Jayapura";"PAPUA";"99352";"Indonesia";" 081243355529";"-2.5395473";"140.4631765";"https://maps.google.com/?cid=0x0:0x1fa059deaed0e61e"
"restaurant";"Nasi";"Warung Makan Ajeng";"Doyo Baru, Distrik Waibu, Kec. Sentani, Kabupaten Jayapura, Papua 99352";"Distrik Waibu, Kec. Sentani, Kabupaten Jayapura";"PAPUA";"99352";"Indonesia";"";"-2.544657";"140.4721151";"https://maps.google.com/?cid=0x0:0xfd15ca78d29d46b"
"restaurant";"Padang";"Rumah Makan Padang Anak Mande";"4R99+887, Waseki Indah, Distrik Prafi, Kabupaten Manokwari, Papua Bar. 98356";"Waseki Indah, Distrik Prafi, Kabupaten Manokwari";"PAPUA";"98356";"Indonesia";"";"-0.8817893";"133.8182996";"https://maps.google.com/?cid=0x0:0xe1fe5c7f06d231e5"
"restaurant";"Hidangan Laut";"B-One Restaurant";"FP45+5CR, Numbai, Distrik Jayapura Selatan, Kota Jayapura, Papua 99222";"Numbai, Distrik Jayapura Selatan, Kota Jayapura";"PAPUA";"99222";"Indonesia";" 081344533058";"-2.5445125";"140.7085143";"https://maps.google.com/?cid=0x0:0xb8053f84d614fc3e"
"restaurant";"Sarapan";"Kedai RYFQY AJI Pawon ndesooo";"G45X+H23, Jl. Manokwari - Bintuni, Sabri, Distrik Ransiki, Kab. Manokwari Selatan, Papua Bar. 98355";"Jl. Manokwari - Bintuni, Sabri, Distrik Ransiki, Kab. Manokwari Selatan";"PAPUA";"98355";"Indonesia";"";"-1.4911099";"134.1475465";"https://maps.google.com/?cid=0x0:0xafe1d93f23d95b0f"
"restaurant";"Restoran";"Awin pu Kios";"Desa Insusbari, Distrik Swandiwe, Biak Barat, Papua";"Biak Barat, Papua";"PAPUA";"";"Indonesia";" 081210358072";"-0.9415113";"135.7886924";"https://maps.google.com/?cid=0x0:0x29c6085cc9648945"
"restaurant";"Nasi";"Warung Ainis";"jalan pertama No.Depan, Inggiri, Kec. Biak Kota, Kabupaten Biak Numfor, Papua 98115";"Inggiri, Kec. Biak Kota, Kabupaten Biak Numfor";"PAPUA";"98115";"Indonesia";"";"-1.1519645";"136.0469647";"https://maps.google.com/?cid=0x0:0xf036c1d4c2ee71b4"
"restaurant";"restaurant";"N/A";"";"";"PAPUA";"";"Indonesia";"";"";"";"https://maps.google.com/?cid=0x0:0x29c6085cc9648945u0026onu0026midu003d/g/11vj9w8z29"
"restaurant";"Jawa";"Warung Makan Dannis";"Fandoi, Kec. Biak Kota, Kabupaten Biak Numfor, Papua 98111";"Kec. Biak Kota, Kabupaten Biak Numfor";"PAPUA";"98111";"Indonesia";" 081340981068";"-1.1773124";"136.0789394";"https://maps.google.com/?cid=0x0:0x191a8a644281410"
"restaurant";"Katering";"99 Restoran";"biak, Jl. Imam Bonjol No.32, Fandoi, Kec. Biak Kota, Kabupaten Biak Numfor, Papua 98112";"Jl. Imam Bonjol No.32, Fandoi, Kec. Biak Kota, Kabupaten Biak Numfor";"PAPUA";"98112";"Indonesia";" 098121450";"-1.1819157";"136.0825408";"https://maps.google.com/?cid=0x0:0xe657a176ad761bd1"
"restaurant";"Restoran";"RB Cafe  Resto";"R3MQ+CWM, Brambaken, Kec. Samofa, Kabupaten Biak Numfor, Papua 98111";"Brambaken, Kec. Samofa, Kabupaten Biak Numfor";"PAPUA";"98111";"Indonesia";"";"-1.1664379";"136.0898802";"https://maps.google.com/?cid=0x0:0x75f17d82e246699e"
"restaurant";"Kedai Kopi";"Three - C Caffe  Resto";"Kios Putih, Belakang, Yafdas, Samofa, Biak Numfor Regency, Papua";"Kabupaten Biak Numfor, Papua";"PAPUA";"";"Indonesia";" 08124825299";"-1.1568604";"136.0741199";"https://maps.google.com/?cid=0x0:0xda23b17446b60b0c"
"restaurant";"Rumah Makan";"RM. RESTU IBU";"Jl. Raya, Sorendidori, Kec. Supiori Tim., Kabupaten Supiori, Papua";"Kabupaten Supiori, Papua";"PAPUA";"";"Indonesia";" 081344955945";"-0.7332346";"135.7348039";"https://maps.google.com/?cid=0x0:0x4c9ee4c411419611"
"restaurant";"Nasi";"Warung makan algia";"32VQ+VCV, Saukobye, Distrik Biak Utara, Kabupaten Biak Numfor, Papua 98153";"Saukobye, Distrik Biak Utara, Kabupaten Biak Numfor";"PAPUA";"98153";"Indonesia";"";"-0.9052689";"136.0385582";"https://maps.google.com/?cid=0x0:0x2c3d0c23c328c1be"
"restaurant";"China";"Restoran 99 Samofa";"R3JP+GVF, Jl. Wandamen, Samofa, Kec. Samofa, Kabupaten Biak Numfor, Papua 98111";"Jl. Wandamen, Samofa, Kec. Samofa, Kabupaten Biak Numfor";"PAPUA";"98111";"Indonesia";"";"-1.1686825";"136.0871809";"https://maps.google.com/?cid=0x0:0x567c22d9fa629a29"
"restaurant";"Kedai Kopi";"Swans House x Garasi Kopi";"Jl. Condronegoro No.1, Samofa, Kec. Samofa, Kabupaten Biak Numfor, Papua 98112";"Samofa, Kec. Samofa, Kabupaten Biak Numfor";"PAPUA";"98112";"Indonesia";" 085229224501";"-1.1655";"136.0693894";"https://maps.google.com/?cid=0x0:0x55ad48a000b61768"
"restaurant";"Sesuai untuk keluarga";"Satria Perasa";"7P8M+RG9, Sorendidori, Kec. Supiori Tim., Kabupaten Supiori, Papua 98161";"Sorendidori, Kec. Supiori Tim., Kabupaten Supiori";"PAPUA";"98161";"Indonesia";"";"-0.7329712";"135.7338582";"https://maps.google.com/?cid=0x0:0x94c293728ce83b7e"
"restaurant";"Hidangan Laut";"Lalapan Dua Saudara";"Sorendidori, Kec. Supiori Tim., Kabupaten Supiori, Papua 98573";"Kec. Supiori Tim., Kabupaten Supiori";"PAPUA";"98573";"Indonesia";" 082198204697";"-0.7385518";"135.7458874";"https://maps.google.com/?cid=0x0:0x332dbdb69ba41486"
"restaurant";"Indonesia";"Warung Makan El-Shaddai";"Jl. Selat Madura No.13, Fandoi, Kec. Biak Kota, Kabupaten Biak Numfor, Papua 98111";"Fandoi, Kec. Biak Kota, Kabupaten Biak Numfor";"PAPUA";"98111";"Indonesia";"";"-1.1832465";"136.0835437";"https://maps.google.com/?cid=0x0:0xcff5b3896902d185"
"restaurant";"restaurant";"Papua 98171";"Papua";"Papua";"PAPUA";"";"Indonesia";"";"-3.160225";"134.6630541";"https://maps.google.com/?cid=0x0:0xcf85a6c0ad6b9347"
"restaurant";"Restoran";"RB Cafe  Resto";"R3MQ+CWM, Brambaken, Kec. Samofa, Kabupaten Biak Numfor, Papua 98111";"Brambaken, Kec. Samofa, Kabupaten Biak Numfor";"PAPUA";"98111";"Indonesia";"";"-1.1664379";"136.0898802";"https://maps.google.com/?cid=0x0:0x75f17d82e246699e"
"restaurant";"Restoran";"RM. Pondok Bambu";"R39J+7H5, Jl. Selat Gaspar, Fandoi, Kec. Biak Kota, Kabupaten Biak Numfor, Papua 98111";"Jl. Selat Gaspar, Fandoi, Kec. Biak Kota, Kabupaten Biak Numfor";"PAPUA";"98111";"Indonesia";"";"-1.1818615";"136.0814848";"https://maps.google.com/?cid=0x0:0x9609d1da6b8d87b1"
"restaurant";"Prasmanan";"Depot Afifah";"R38M+6P3, Jl. Jend. Ahmad Yani, Fandoi, Kec. Biak Kota, Kabupaten Biak Numfor, Papua 98111";"Jl. Jend. Ahmad Yani, Fandoi, Kec. Biak Kota, Kabupaten Biak Numfor";"PAPUA";"98111";"Indonesia";" 098123436";"-1.1844773";"136.0843071";"https://maps.google.com/?cid=0x0:0xa39b15022074a9ac"
"restaurant";"Hidangan Laut";"B-One Restaurant";"FP45+5CR, Numbai, Distrik Jayapura Selatan, Kota Jayapura, Papua 99222";"Numbai, Distrik Jayapura Selatan, Kota Jayapura";"PAPUA";"99222";"Indonesia";" 081344533058";"-2.5445125";"140.7085143";"https://maps.google.com/?cid=0x0:0xb8053f84d614fc3e"
"restaurant";"Rumah Makan";"RM RESTU BUNDO";"R3RF+WW3, Brambaken, Kec. Samofa, Kabupaten Biak Numfor, Papua 98112";"Brambaken, Kec. Samofa, Kabupaten Biak Numfor";"PAPUA";"98112";"Indonesia";"";"-1.1577326";"136.0747922";"https://maps.google.com/?cid=0x0:0xe595c1243db155a5"
"restaurant";"Kedai Kopi";"ROTI BAKAR KEIBAR CIPUTAT";"Ruko Ciputat Center, Jl. Ir H. Juanda No. 75 L, RT.7/RW.2, Cireundeu, Kec. Ciputat Tim., Kota Tangerang Selatan, Banten 15412";"Jl. Ir H. Juanda No. 75 L, RT.7/RW.2, Cireundeu, Kec. Ciputat Tim., Kota Tangerang Selatan";"PAPUA";"15412";"Indonesia";" 0895333630114";"-6.296588";"106.7658063";"https://maps.google.com/?cid=0x0:0xfb0227eb153f68f3"
"restaurant";"Kedai Kopi";"Dapoer Soenda BAS (formerly BAS Coffee  Eatery)";"Jl. Ir H. Juanda No.19, Cireundeu, Kec. Ciputat Tim., Kota Tangerang Selatan, Banten 15412";"Cireundeu, Kec. Ciputat Tim., Kota Tangerang Selatan";"PAPUA";"15412";"Indonesia";" 081381375760";"-6.2943632";"106.7652601";"https://maps.google.com/?cid=0x0:0x6f06d87c59c9e6ff"
"restaurant";"Kedai Kopi";"BUFEYA - THANKS BREW CAFE";"Jl. Jombang Raya No.20, RT.04/RW.01, Pd. Pucung, Kec. Pd. Aren, Kota Tangerang Selatan, Banten 15229";"RT.04/RW.01, Pd. Pucung, Kec. Pd. Aren, Kota Tangerang Selatan";"PAPUA";"15229";"Indonesia";" 081316869633";"-6.2743025";"106.707639";"https://maps.google.com/?cid=0x0:0x1947e95f43779706"
"restaurant";"Makanan Sehat";"Restoran Taman Ayam Panggang Situ Gintung";"Jl. Ir H. Juanda No.6, Cireundeu, Kec. Ciputat Tim., Kota Tangerang Selatan, Banten 15412";"Cireundeu, Kec. Ciputat Tim., Kota Tangerang Selatan";"PAPUA";"15412";"Indonesia";" 0217402637";"-6.3016949";"106.7615509";"https://maps.google.com/?cid=0x0:0xbe489bea7ad4cff1"
"restaurant";"Shabu Shabu";"AB Suki";"Ruko taman Palem Lestari, Jl. Taman Palem Lestari No.1 Blok. D7, RT.10/RW.13, Cengkareng Bar., Kecamatan Cengkareng, Kota Jakarta Barat, Daerah Khusus Ibukota Jakarta 11730";"Jl. Taman Palem Lestari No.1 Blok. D7, RT.10/RW.13, Cengkareng Bar., Kecamatan Cengkareng, Kota Jakarta Barat";"PAPUA";"11730";"Indonesia";" 02155950447";"-6.139332";"106.7243336";"https://maps.google.com/?cid=0x0:0x32ed4f8877d104fb"
"restaurant";"Toko Makanan";"Waroeng Steak and Shake Ciputat";"Jl. Ir H. Juanda No.67, Rempoa, Kec. Ciputat Tim., Kota Tangerang Selatan, Banten 12240";"Rempoa, Kec. Ciputat Tim., Kota Tangerang Selatan";"PAPUA";"12240";"Indonesia";"";"-6.2956138";"106.7653317";"https://maps.google.com/?cid=0x0:0xe7fcc74661e0e7ad"
"restaurant";"restaurant";"Papua 98172";"Kabupaten Biak Numfor, Papua";"Kabupaten Biak Numfor, Papua";"PAPUA";"";"Indonesia";"";"-1.0910129";"134.9066503";"https://maps.google.com/?cid=0x0:0x961f86bb7868e68d"
"restaurant";"Rumah Makan";"RestoCafe Rumah Laut";"Jl. Koti, Numbai, Distrik Jayapura Selatan, Kota Jayapura, Papua 99222";"Numbai, Distrik Jayapura Selatan, Kota Jayapura";"PAPUA";"99222";"Indonesia";" 09675160842";"-2.5443152";"140.7078561";"https://maps.google.com/?cid=0x0:0xa0b850e17d17f09d"
"restaurant";"restaurant";"RM BAMBU KUNING";"2RG7+922, Yenmanu, Distrik Numfor Barat, Kabupaten Biak Numfor, Papua 98172";"Yenmanu, Distrik Numfor Barat, Kabupaten Biak Numfor";"PAPUA";"98172";"Indonesia";" 082199243453";"-0.9741179";"134.8125225";"https://maps.google.com/?cid=0x0:0x8a314fc2bb4a7147"
"restaurant";"restaurant";"Kec. Orkeri";"Kabupaten Biak Numfor, Papua";"Kabupaten Biak Numfor, Papua";"PAPUA";"";"Indonesia";"";"-1.1242869";"134.8703628";"https://maps.google.com/?cid=0x0:0xfe69107f507ededd"
"restaurant";"Restoran";"Restaurant Yougwa";"CJ63+H23, Jl. Raya Abepura - Sentani, Asei Kecil, Kec. Sentani Tim., Kabupaten Jayapura, Papua 99351";"Jl. Raya Abepura - Sentani, Asei Kecil, Kec. Sentani Tim., Kabupaten Jayapura";"PAPUA";"99351";"Indonesia";" 08114801448";"-2.5886245";"140.602559";"https://maps.google.com/?cid=0x0:0x65e60fc66014e79c"
"restaurant";"Restoran";"Dapur Papua Resto (tag by EnCHy)";"CH94+3PC, Jl. Raya Airport Sentani, Nendali, Kec. Sentani Tim., Kabupaten Jayapura, Papua 99359";"Jl. Raya Airport Sentani, Nendali, Kec. Sentani Tim., Kabupaten Jayapura";"PAPUA";"99359";"Indonesia";"";"-2.5823105";"140.556775";"https://maps.google.com/?cid=0x0:0x31316751d4c3a979"
"restaurant";"restaurant";"N/A";"";"";"PAPUA";"";"Indonesia";"";"";"";"https://maps.google.com/?cid=0x0:0x65e60fc66014e79cu0026onu003dMujair+Goreng+Ricau0026midu003d/g/11bywk_6w9"
"restaurant";"restaurant";"N/A";"";"";"PAPUA";"";"Indonesia";"";"";"";"https://maps.google.com/?cid=0x0:0x65e60fc66014e79cu0026onu003dEs+Jeruku0026midu003d/g/11bywk_6w9"
"restaurant";"restaurant";"N/A";"";"";"PAPUA";"";"Indonesia";"";"";"";"https://maps.google.com/?cid=0x0:0x65e60fc66014e79cu0026onu003dPapeda+Ikan+Kuah+Asamu0026midu003d/g/11bywk_6w9"
"restaurant";"restaurant";"N/A";"";"";"PAPUA";"";"Indonesia";"";"";"";"https://maps.google.com/?cid=0x0:0x65e60fc66014e79cu0026onu003dTempe+Mendoanu0026midu003d/g/11bywk_6w9"
"restaurant";"restaurant";"N/A";"";"";"PAPUA";"";"Indonesia";"";"";"";"https://maps.google.com/?cid=0x0:0x65e60fc66014e79cu0026onu003dMujair+Asam+Manisu0026midu003d/g/11bywk_6w9"
"restaurant";"restaurant";"N/A";"";"";"PAPUA";"";"Indonesia";"";"";"";"https://maps.google.com/?cid=0x0:0x65e60fc66014e79cu0026onu003dJus+Sirsaku0026midu003d/g/11bywk_6w9"
"restaurant";"restaurant";"N/A";"";"";"PAPUA";"";"Indonesia";"";"";"";"https://maps.google.com/?cid=0x0:0x65e60fc66014e79cu0026onu003dIkan+Mujair+Bakaru0026midu003d/g/11bywk_6w9"
"restaurant";"restaurant";"N/A";"";"";"PAPUA";"";"Indonesia";"";"";"";"https://maps.google.com/?cid=0x0:0x65e60fc66014e79cu0026onu003dGabus+Goreng+Ricau0026midu003d/g/11bywk_6w9"
"restaurant";"restaurant";"N/A";"";"";"PAPUA";"";"Indonesia";"";"";"";"https://maps.google.com/?cid=0x0:0x65e60fc66014e79cu0026onu003dKangkung+Tumisu0026midu003d/g/11bywk_6w9"
"restaurant";"restaurant";"N/A";"";"";"PAPUA";"";"Indonesia";"";"";"";"https://maps.google.com/?cid=0x0:0x65e60fc66014e79cu0026onu003dKaangkung+Bunga+Pepayau0026midu003d/g/11bywk_6w9"
"restaurant";"restaurant";"N/A";"";"";"PAPUA";"";"Indonesia";"";"";"";"https://maps.google.com/?cid=0x0:0x65e60fc66014e79cu0026onu003dBakwan+Jagungu0026midu003d/g/11bywk_6w9"
"restaurant";"restaurant";"N/A";"";"";"PAPUA";"";"Indonesia";"";"";"";"https://maps.google.com/?cid=0x0:0x65e60fc66014e79cu0026onu003dGabus+Wokuu0026midu003d/g/11bywk_6w9"
"restaurant";"restaurant";"Distrik Aimando Padaido";"Kabupaten Biak Numfor, Papua";"Kabupaten Biak Numfor, Papua";"PAPUA";"";"Indonesia";"";"-1.2143849";"136.5981595";"https://maps.google.com/?cid=0x0:0x7b5c29938f349564"
"restaurant";"restaurant";"Kedai Indaf Sau";"PJW3+G7C, Unnamed Road, Samber Pasi, Distrik Aimando Padaido, Kabupaten Biak Numfor, Papua";"Kabupaten Biak Numfor, Papua";"PAPUA";"";"Indonesia";"";"-1.2536818";"136.6031449";"https://maps.google.com/?cid=0x0:0xc8e5d3fb3773c862"
"restaurant";"restaurant";"Pulau Meos Mangguandi";"PH6X+VVM, Distrik Aimando, Kab, Meos Mangguandi, Distrik Aimando Padaido, Kabupaten Biak Numfor, Papua";"Kabupaten Biak Numfor, Papua";"PAPUA";"";"Indonesia";"";"-1.2877938";"136.5996748";"https://maps.google.com/?cid=0x0:0x1b4848ad7aaf7a14"
"restaurant";"Restoran";"Three Home";"V8JV+J79, Kakur, Distrik Oridek, Kabupaten Biak Numfor, Papua";"Kabupaten Biak Numfor, Papua";"PAPUA";"";"Indonesia";"";"-1.118455";"136.3432245";"https://maps.google.com/?cid=0x0:0x6f05018689a20"
"restaurant";"Kedai Kopi";"Three - C Caffe  Resto";"Kios Putih, Belakang, Yafdas, Samofa, Biak Numfor Regency, Papua";"Kabupaten Biak Numfor, Papua";"PAPUA";"";"Indonesia";" 08124825299";"-1.1568604";"136.0741199";"https://maps.google.com/?cid=0x0:0xda23b17446b60b0c"
"restaurant";"Katering";"99 Restoran";"biak, Jl. Imam Bonjol No.32, Fandoi, Kec. Biak Kota, Kabupaten Biak Numfor, Papua 98112";"Jl. Imam Bonjol No.32, Fandoi, Kec. Biak Kota, Kabupaten Biak Numfor";"PAPUA";"98112";"Indonesia";" 098121450";"-1.1819157";"136.0825408";"https://maps.google.com/?cid=0x0:0xe657a176ad761bd1"
"restaurant";"Makanan Kecil";"WARUNG MAKAN ELDIRA";"Samping toko biak indah, Jl, Marauw, Kampung Anjareuw, Kabupaten Biak Numfor, Papua 98551";"Jl, Marauw, Kampung Anjareuw, Kabupaten Biak Numfor";"PAPUA";"98551";"Indonesia";" 082248803890";"-1.1648906";"136.0966088";"https://maps.google.com/?cid=0x0:0x19af3e0e1306e8c6"
"restaurant";"restaurant";"Bondifuar";"Sansundi, Kabupaten Biak Numfor, Papua";"Kabupaten Biak Numfor, Papua";"PAPUA";"";"Indonesia";"";"-0.690129";"135.8185211";"https://maps.google.com/?cid=0x0:0x425bf86d4ccf74c7"
"restaurant";"Restoran";"RB Cafe  Resto";"R3MQ+CWM, Brambaken, Kec. Samofa, Kabupaten Biak Numfor, Papua 98111";"Brambaken, Kec. Samofa, Kabupaten Biak Numfor";"PAPUA";"98111";"Indonesia";"";"-1.1664379";"136.0898802";"https://maps.google.com/?cid=0x0:0x75f17d82e246699e"
"restaurant";"restaurant";"Syurdori bagian darat";"7Q6H+37F, Syurdori bagian, darat, Kec. Supiori Tim., Kabupaten Supiori, Papua 98161";"Syurdori bagian, darat, Kec. Supiori Tim., Kabupaten Supiori";"PAPUA";"98161";"Indonesia";"";"-0.7398204";"135.7781669";"https://maps.google.com/?cid=0x0:0xf45debd1fb9ed611"
"restaurant";"restaurant";"N/A";"";"";"PAPUA";"";"Indonesia";"";"";"";"https://maps.google.com/?cid=0x0:0x75f17d82e246699eu0026onu003dNasi+Goreng+Cakalangu0026midu003d/g/11sv__fzpl"
"restaurant";"restaurant";"N/A";"";"";"PAPUA";"";"Indonesia";"";"";"";"https://maps.google.com/?cid=0x0:0x75f17d82e246699eu0026onu0026midu003d/g/11sv__fzpl"
"restaurant";"restaurant";"warung Ais";"R3MQ+9RH, Jl. Pd. Indah, Brambaken, Kec. Samofa, Kabupaten Biak Numfor, Papua 98111";"Jl. Pd. Indah, Brambaken, Kec. Samofa, Kabupaten Biak Numfor";"PAPUA";"98111";"Indonesia";"";"-1.1665553";"136.0896206";"https://maps.google.com/?cid=0x0:0x4b2b82ee1a629f85"
