Category;Real Category;Business Name;Address;City;State;Postal Code;Country;Phone;Latitude;Longitude;Map Link
"restaurant";"restaurant";"Aceh 23653";"Kec. Teunom, Kabupaten Aceh Jaya, Aceh";"Kabupaten Aceh Jaya, Aceh";"ACEH";"";"Indonesia";"";"4.5590872";"95.8775964";"https://maps.google.com/?cid=0x0:0xd1bbc87731e6c060"
"restaurant";"Restoran";"RM. Aceh Barat , Teunom";"CRW6+RM4, Jl. Meulaboh - Banda Aceh, Panton, Kec. Teunom, Kabupaten Aceh Jaya, Aceh 23653";"Jl. Meulaboh - Banda Aceh, Panton, Kec. Teunom, Kabupaten Aceh Jaya";"ACEH";"23653";"Indonesia";"";"4.4470063";"95.8117019";"https://maps.google.com/?cid=0x0:0x6a03f079e2f532ce"
"restaurant";"Restoran";"Rumah makan PMTOH";"Keude Teunom, Kec. Teunom, Kabupaten Aceh Jaya, Aceh 23653";"Kec. Teunom, Kabupaten Aceh Jaya";"ACEH";"23653";"Indonesia";"";"4.4466779";"95.8114394";"https://maps.google.com/?cid=0x0:0xe3946417f5b5fc2"
"restaurant";"Padang";"R.M.MAHKOTA Teunom Aceh jaya";"kd, Panton, Kec. Teunom, Kabupaten Aceh Jaya, Aceh 23653";"Panton, Kec. Teunom, Kabupaten Aceh Jaya";"ACEH";"23653";"Indonesia";" 082290226804";"4.4467375";"95.8117969";"https://maps.google.com/?cid=0x0:0xb4c91bdb20c5d25d"
"restaurant";"Indonesia";"Mie Kocok Caroline Jaya";"CRW6+PHG, Desa, Keude Teunom, Kec. Teunom, Kabupaten Aceh Jaya, Aceh 23653";"Desa, Keude Teunom, Kec. Teunom, Kabupaten Aceh Jaya";"ACEH";"23653";"Indonesia";"";"4.4468101";"95.8114591";"https://maps.google.com/?cid=0x0:0x8acdcccf198e1225"
"restaurant";"Ladang batu bara";"Waroeng Pemadam Kelaparan (Teunom)";"CRV9+63Q, Jl. Meulaboh - Banda Aceh, Panton, Kec. Teunom, Kabupaten Aceh Jaya, Aceh 23653";"Jl. Meulaboh - Banda Aceh, Panton, Kec. Teunom, Kabupaten Aceh Jaya";"ACEH";"23653";"Indonesia";"";"4.4430834";"95.8177297";"https://maps.google.com/?cid=0x0:0x24676651a691b663"
"restaurant";"Kafe";"Warkop Cek Mus";"CRV7+Q9X, Panton, Kec. Teunom, Kabupaten Aceh Jaya, Aceh 23653";"Panton, Kec. Teunom, Kabupaten Aceh Jaya";"ACEH";"23653";"Indonesia";" 085206348056";"4.4444946";"95.8134731";"https://maps.google.com/?cid=0x0:0x76850c52524504ab"
"restaurant";"Kafe";"Warkop Aduen pakcek";"Warkop aduen pakcek,jln, Jl. Meulaboh - Banda Aceh, Panton, Kec. Teunom, Kabupaten Aceh Jaya, Aceh 23653";"Jl. Meulaboh - Banda Aceh, Panton, Kec. Teunom, Kabupaten Aceh Jaya";"ACEH";"23653";"Indonesia";" 082275877363";"4.4459439";"95.812358";"https://maps.google.com/?cid=0x0:0xf2b1d63de020d3a5"
"restaurant";"Kedai Kopi";"Cafe Amora Teunom, Aceh Jaya";"CRW6+WP2, Jl. Lintas Barat Sumatera, Panton, Kec. Teunom, Kabupaten Aceh Jaya, Aceh 23653";"Jl. Lintas Barat Sumatera, Panton, Kec. Teunom, Kabupaten Aceh Jaya";"ACEH";"23653";"Indonesia";" 082211274948";"4.447274";"95.8117629";"https://maps.google.com/?cid=0x0:0xcf34999ef44085cc"
"restaurant";"Kedai Kopi";"Cafe-2N";"FR27+HFQ, Padang Kleng, Kec. Teunom, Kabupaten Aceh Jaya, Aceh 23653";"Padang Kleng, Kec. Teunom, Kabupaten Aceh Jaya";"ACEH";"23653";"Indonesia";"";"4.4515869";"95.8136069";"https://maps.google.com/?cid=0x0:0xc6696a0fc4c27f31"
"restaurant";"Rumah Makan";"Rumah Makan Sederhana Teunom";"CRW6+VJP, Panton, Kec. Teunom, Kabupaten Aceh Jaya, Aceh 23653";"Panton, Kec. Teunom, Kabupaten Aceh Jaya";"ACEH";"23653";"Indonesia";" 081249763024";"4.4472035";"95.8115879";"https://maps.google.com/?cid=0x0:0x45e04db679d42c86"
"restaurant";"Bakso";"Bakso";"CV92+WRC, Jl. Meulaboh - Banda Aceh, Paya Baro, Kec. Teunom, Kabupaten Aceh Jaya, Aceh 23653";"Jl. Meulaboh - Banda Aceh, Paya Baro, Kec. Teunom, Kabupaten Aceh Jaya";"ACEH";"23653";"Indonesia";" 085212462837";"4.4198055";"95.852017";"https://maps.google.com/?cid=0x0:0x823fabeab9552760"
"restaurant";"Padang";"Rumah Makan Saung Pecel Lele YAHDUN";"Jl. Meulaboh - Banda Aceh, Tanoh Manyang, Kec. Teunom, Kabupaten Aceh Jaya, Aceh 23653";"Tanoh Manyang, Kec. Teunom, Kabupaten Aceh Jaya";"ACEH";"23653";"Indonesia";" 0895411250054";"4.4741326";"95.79298";"https://maps.google.com/?cid=0x0:0xe544c7bc5ea13b00"
"restaurant";"Restoran";"Warong Kuneng";"FR77+95H, Keude Teunom, Kec. Teunom, Kabupaten Aceh Jaya, Aceh 23653";"Keude Teunom, Kec. Teunom, Kabupaten Aceh Jaya";"ACEH";"23653";"Indonesia";" 081269002589";"4.4634376";"95.8129703";"https://maps.google.com/?cid=0x0:0xd83600a36665d836"
"restaurant";"restaurant";"Aceh 23654";"Kec. Woyla, Aceh";"Aceh";"ACEH";"";"Indonesia";"";"4.4143635";"96.0255738";"https://maps.google.com/?cid=0x0:0xafd411fd2a1143af"
"restaurant";"Kedai Kopi";"Warkop Sanora Tugu Krueng Sabee";"JJ4W+46G, Jl. Meulaboh - Banda Aceh, Keude Krueng Sabee, Kec. Krueng Sabee, Kabupaten Aceh Jaya, Aceh 23654";"Jl. Meulaboh - Banda Aceh, Keude Krueng Sabee, Kec. Krueng Sabee, Kabupaten Aceh Jaya";"ACEH";"23654";"Indonesia";" 08126938843";"4.6053134";"95.645584";"https://maps.google.com/?cid=0x0:0x832b75006a37a6c3"
"restaurant";"restaurant";"Bu Sie Itek Bireuen";"JJ4Q+XQ6, Jl. Meulaboh - Banda Aceh, Mon Mata, Kec. Krueng Sabee, Kabupaten Aceh Jaya, Aceh 23654";"Jl. Meulaboh - Banda Aceh, Mon Mata, Kec. Krueng Sabee, Kabupaten Aceh Jaya";"ACEH";"23654";"Indonesia";" 082367430115";"4.6074173";"95.6393797";"https://maps.google.com/?cid=0x0:0x39041b2d84127b1"
"restaurant";"Kafe";"Kafe Buket Raja";"Kuala Bhee, Kec. Woyla, Kabupaten Aceh Barat, Aceh 23654";"Kec. Woyla, Kabupaten Aceh Barat";"ACEH";"23654";"Indonesia";" 082128959262";"4.3872781";"96.0480031";"https://maps.google.com/?cid=0x0:0x96b4ba84ebe6b3d6"
"restaurant";"Kafe";"warung kak dira";"JJ3W+829, Keude Krueng Sabee, Kec. Krueng Sabee, Kabupaten Aceh Jaya, Aceh 23654";"Keude Krueng Sabee, Kec. Krueng Sabee, Kabupaten Aceh Jaya";"ACEH";"23654";"Indonesia";"";"4.603431";"95.64501";"https://maps.google.com/?cid=0x0:0x59a0f9e77db34e30"
"restaurant";"Restoran";"Resto Suak Gedebang";"7X2M+XH6, Suak Geudubang, Kec. Samatiga, Kabupaten Aceh Barat, Aceh 23652";"Suak Geudubang, Kec. Samatiga, Kabupaten Aceh Barat";"ACEH";"23652";"Indonesia";"";"4.2524022";"95.9838847";"https://maps.google.com/?cid=0x0:0xe9b3fd53f449183a"
"restaurant";"Kafetaria";"ANDELA CAFE";"Jl.meulaboh - kuala bhee simpang kuwet, Layung, Kec. Bubon, Kabupaten Aceh Barat, Aceh 23651";"Layung, Kec. Bubon, Kabupaten Aceh Barat";"ACEH";"23651";"Indonesia";" 082210605015";"4.2994964";"96.0863159";"https://maps.google.com/?cid=0x0:0x218731e12583e4e"
"restaurant";"Restoran";"Mie Bakso Bang Man";"Pantai Calang No.2, Bahagia, Kec. Krueng Sabee, Kabupaten Aceh Jaya, Aceh 23654";"Bahagia, Kec. Krueng Sabee, Kabupaten Aceh Jaya";"ACEH";"23654";"Indonesia";"";"4.6322601";"95.5866686";"https://maps.google.com/?cid=0x0:0xa304e1eb3fb9359"
"restaurant";"Sate";"Sate Padang";"HMR5+87W, Kabong, Kec. Krueng Sabee, Kabupaten Aceh Jaya, Aceh 23654";"Kabong, Kec. Krueng Sabee, Kabupaten Aceh Jaya";"ACEH";"23654";"Indonesia";"";"4.5908707";"95.6582327";"https://maps.google.com/?cid=0x0:0xf95daa4adcada4bf"
"restaurant";"Pusat jajanan kaki lima";"Mr.banana";"93M5+M78, Lueng Buloh, Kec. Woyla, Kabupaten Aceh Barat, Aceh 23654";"Lueng Buloh, Kec. Woyla, Kabupaten Aceh Barat";"ACEH";"23654";"Indonesia";"";"4.3841582";"96.0581963";"https://maps.google.com/?cid=0x0:0x20826fd659a704be"
"restaurant";"Nasi";"Rumah makan dedi punya";"82V7+PGQ, Jl. Alue Kemuning, Pasi Mali, Kec. Woyla Bar., Kabupaten Aceh Barat, Aceh 23654";"Jl. Alue Kemuning, Pasi Mali, Kec. Woyla Bar., Kabupaten Aceh Barat";"ACEH";"23654";"Indonesia";" 082370399501";"4.34434";"96.013846";"https://maps.google.com/?cid=0x0:0xeaf88820f29a656e"
"restaurant";"Kedai Kopi";"Jalan Meulaboh";"JJ6J+P6G, Jl. Meulaboh - Banda Aceh, Mon Mata, Kec. Krueng Sabee, Kabupaten Aceh Jaya, Aceh 23654";"Jl. Meulaboh - Banda Aceh, Mon Mata, Kec. Krueng Sabee, Kabupaten Aceh Jaya";"ACEH";"23654";"Indonesia";"";"4.6118213";"95.6305645";"https://maps.google.com/?cid=0x0:0x1c4cb108f36d25b1"
"restaurant";"Kedai Kopi";"Cafe R4";"6XXQ+42Q, Suak Pante Breuh, Kec. Samatiga, Kabupaten Aceh Barat, Aceh 23652";"Suak Pante Breuh, Kec. Samatiga, Kabupaten Aceh Barat";"ACEH";"23652";"Indonesia";" 081362718174";"4.2478359";"95.9876123";"https://maps.google.com/?cid=0x0:0x506db2174d94c6f4"
"restaurant";"Kedai Kopi";"Wahyuna Jaya Cafe";"6XXP+6WC, Suak Pante Breuh, Kec. Samatiga, Kabupaten Aceh Barat, Aceh 23652";"Suak Pante Breuh, Kec. Samatiga, Kabupaten Aceh Barat";"ACEH";"23652";"Indonesia";" 082325864410";"4.2480554";"95.9872685";"https://maps.google.com/?cid=0x0:0x8eea64ecfe3a86e4"
"restaurant";"restaurant";"Aceh 23655";"Kec. Setia Bakti, Kabupaten Aceh Jaya, Aceh";"Kabupaten Aceh Jaya, Aceh";"ACEH";"";"Indonesia";"";"4.7457854";"95.6878736";"https://maps.google.com/?cid=0x0:0x52d192e4749e2bd4"
"restaurant";"Mi";"Mie Lobster Yah Muh Rigaih";"Jl. Banda Aceh - Calang, Gampong Baro, Kec. Setia Bakti, Kabupaten Aceh Jaya, Aceh 23655";"Gampong Baro, Kec. Setia Bakti, Kabupaten Aceh Jaya";"ACEH";"23655";"Indonesia";" 085262678544";"4.6654292";"95.5585137";"https://maps.google.com/?cid=0x0:0x642e01e85b9e9c55"
"restaurant";"Kafe";"Dareg (Dapur Boreg)";"Jl. Teuku Umar, Dayah Baro, Kec. Krueng Sabee, Kabupaten Aceh Jaya, Aceh 23655";"Dayah Baro, Kec. Krueng Sabee, Kabupaten Aceh Jaya";"ACEH";"23655";"Indonesia";"";"4.6321365";"95.58743";"https://maps.google.com/?cid=0x0:0xa4b284bdab4edf95"
"restaurant";"Kafe";"Waroeng Bu Makdek";"Dayah Baro, Kec. Krueng Sabee, Kabupaten Aceh Jaya, Aceh 23655";"Kec. Krueng Sabee, Kabupaten Aceh Jaya";"ACEH";"23655";"Indonesia";" 082164139400";"4.6337566";"95.5932216";"https://maps.google.com/?cid=0x0:0xb15102b87c40361c"
"restaurant";"Kantor Perusahaan";"warung permata gampong baro sayueng";"MH88+QJF, Jl. Banda Aceh - Calang, Lhok Buya, Kec. Setia Bakti, Kabupaten Aceh Jaya, Aceh 23655";"Jl. Banda Aceh - Calang, Lhok Buya, Kec. Setia Bakti, Kabupaten Aceh Jaya";"ACEH";"23655";"Indonesia";" 081275273975";"4.6670568";"95.5664873";"https://maps.google.com/?cid=0x0:0xc1e911a605df86b6"
"restaurant";"Kedai Kopi";"Warung Makan Rigaih";"MH74+474, Jl. Meulaboh - Banda Aceh, Gampong Baro, Kec. Setia Bakti, Kabupaten Aceh Jaya, Aceh 23655";"Jl. Meulaboh - Banda Aceh, Gampong Baro, Kec. Setia Bakti, Kabupaten Aceh Jaya";"ACEH";"23655";"Indonesia";"";"4.6627588";"95.5556964";"https://maps.google.com/?cid=0x0:0xbfaf9de0f8fd3908"
"restaurant";"Kedai Kopi";"Kuta Glee Cafe";"JHJJ+QFC, Bahagia, Kec. Krueng Sabee, Kabupaten Aceh Jaya, Aceh 23655";"Bahagia, Kec. Krueng Sabee, Kabupaten Aceh Jaya";"ACEH";"23655";"Indonesia";"";"4.6319463";"95.5811387";"https://maps.google.com/?cid=0x0:0x4717ed405c7b65ae"
"restaurant";"Kafe";"Caffe awak dro bg Safril";"Lhok Bot, Kec. Setia Bakti, Kabupaten Aceh Jaya, Aceh 23655";"Kec. Setia Bakti, Kabupaten Aceh Jaya";"ACEH";"23655";"Indonesia";" 082294548426";"4.6775345";"95.6051291";"https://maps.google.com/?cid=0x0:0x57d88c0ac991f5d0"
"restaurant";"Kafe";"Pasie Luah Resto And Karaoke";"JHJR+4VM, Dayah Baro, Kec. Krueng Sabee, Kabupaten Aceh Jaya, Aceh 23655";"Dayah Baro, Kec. Krueng Sabee, Kabupaten Aceh Jaya";"ACEH";"23655";"Indonesia";" 081360356569";"4.6303476";"95.592159";"https://maps.google.com/?cid=0x0:0xfe87f651ea6dbb"
"restaurant";"Kafe";"Warkop Muna Mie Kepiting";"MH3P+47X, Lhok Buya, Kec. Setia Bakti, Kabupaten Aceh Jaya, Aceh 23655";"Lhok Buya, Kec. Setia Bakti, Kabupaten Aceh Jaya";"ACEH";"23655";"Indonesia";"";"4.6528608";"95.5857196";"https://maps.google.com/?cid=0x0:0x62bd41cf2e70c2d1"
"restaurant";"Rumah Makan";"Warung Ciribon";"MH88+RH5, Jl. Banda Aceh - Calang, Lhok Buya, Kec. Setia Bakti, Kabupaten Aceh Jaya, Aceh 23655";"Jl. Banda Aceh - Calang, Lhok Buya, Kec. Setia Bakti, Kabupaten Aceh Jaya";"ACEH";"23655";"Indonesia";"";"4.6670049";"95.5664936";"https://maps.google.com/?cid=0x0:0xdf173bdeab107882"
"restaurant";"Kedai Kopi";"Caffe  Resto Ampoen Cuet";"PGF5+WM2, Lhok Geulumpang, Kec. Setia Bakti, Kabupaten Aceh Jaya, Aceh 23656";"Lhok Geulumpang, Kec. Setia Bakti, Kabupaten Aceh Jaya";"ACEH";"23656";"Indonesia";" 085243016862";"4.7247539";"95.5091437";"https://maps.google.com/?cid=0x0:0x3283f3f8ebede9b4"
"restaurant";"Restoran";"Warung Kuah Cue";"JJ97+9FC, Keutapang, Kec. Krueng Sabee, Kabupaten Aceh Jaya, Aceh 23655";"Keutapang, Kec. Krueng Sabee, Kabupaten Aceh Jaya";"ACEH";"23655";"Indonesia";"";"4.6184371";"95.6136356";"https://maps.google.com/?cid=0x0:0x69e6e858fdbcc99e"
"restaurant";"Kedai Kopi";"Kupi Awak Droe";"JHPM+2FF, Bahagia, Kec. Krueng Sabee, Kabupaten Aceh Jaya, Aceh 23655";"Bahagia, Kec. Krueng Sabee, Kabupaten Aceh Jaya";"ACEH";"23655";"Indonesia";"";"4.6350737";"95.5836719";"https://maps.google.com/?cid=0x0:0x7fdbb65ed2373971"
"restaurant";"restaurant";"Aceh 23656";"Kabupaten Aceh Jaya, Aceh";"Kabupaten Aceh Jaya, Aceh";"ACEH";"";"Indonesia";"";"4.9116238";"95.6037465";"https://maps.google.com/?cid=0x0:0x1aed070c2c639dba"
"restaurant";"Kedai Kopi";"Caffe  Resto Ampoen Cuet";"PGF5+WM2, Lhok Geulumpang, Kec. Setia Bakti, Kabupaten Aceh Jaya, Aceh 23656";"Lhok Geulumpang, Kec. Setia Bakti, Kabupaten Aceh Jaya";"ACEH";"23656";"Indonesia";" 085243016862";"4.7247539";"95.5091437";"https://maps.google.com/?cid=0x0:0x3283f3f8ebede9b4"
"restaurant";"Rumah Makan";"RM Tuah Kota Naga";"QFJ6+JV2, Gampong Baro P, Kec. Darul Hikmah, Kabupaten Aceh Jaya, Aceh 23656";"Gampong Baro P, Kec. Darul Hikmah, Kabupaten Aceh Jaya";"ACEH";"23656";"Indonesia";"";"4.7815209";"95.4621514";"https://maps.google.com/?cid=0x0:0x7a695a978d853a3e"
"restaurant";"Restoran";"RM Geulumpang Raya";"MGVG+7HH, Lhok Timon, Kec. Setia Bakti, Kabupaten Aceh Jaya, Aceh 23656";"Lhok Timon, Kec. Setia Bakti, Kabupaten Aceh Jaya";"ACEH";"23656";"Indonesia";"";"4.6931793";"95.5264734";"https://maps.google.com/?cid=0x0:0x851f90f096d99a04"
"restaurant";"Rumah Makan";"Rumah Makan Pak Boy";"RC8R+626, Jeumpheuk, Kec. Sampoiniet, Kabupaten Aceh Jaya, Aceh 23656";"Jeumpheuk, Kec. Sampoiniet, Kabupaten Aceh Jaya";"ACEH";"23656";"Indonesia";"";"4.8155311";"95.4400288";"https://maps.google.com/?cid=0x0:0x1be3bc728670a72e"
"restaurant";"Rumah Makan";"RM Sederhana (Patek)";"Jl. Banda Aceh - Calang No.175, Sawang, Kec. Setia Bakti, Kabupaten Aceh Jaya, Aceh 23656";"Sawang, Kec. Setia Bakti, Kabupaten Aceh Jaya";"ACEH";"23656";"Indonesia";"";"4.769357";"95.4786151";"https://maps.google.com/?cid=0x0:0x637d5e18ba23465d"
"restaurant";"Restoran";"Rumah Makan Pulo Raya";"VCM3+GR3, Jl. Banda Aceh - Calang, Meunasah Kulam, Kec. Sampoiniet, Kabupaten Aceh Jaya, Aceh 23657";"Jl. Banda Aceh - Calang, Meunasah Kulam, Kec. Sampoiniet, Kabupaten Aceh Jaya";"ACEH";"23657";"Indonesia";"";"4.8837616";"95.4045496";"https://maps.google.com/?cid=0x0:0x66aa737665f509ff"
"restaurant";"";"Warmindo Lhok Kruet";"VCC2+4V7, Jl. Banda Aceh - Calang, Lhok Kruet, Kec. Sampoiniet, Kabupaten Aceh Jaya, Aceh 23657";"Jl. Banda Aceh - Calang, Lhok Kruet, Kec. Sampoiniet, Kabupaten Aceh Jaya";"ACEH";"23657";"Indonesia";"";"4.8702925";"95.4021634";"https://maps.google.com/?cid=0x0:0x791006a5758b919"
"restaurant";"Tujuan Wisata";"CRU Sampoiniet, Sarah Deu";"WFGQ+5RP, Pante Purba, Kec. Sampoiniet, Kabupaten Aceh Jaya, Aceh 23656";"Pante Purba, Kec. Sampoiniet, Kabupaten Aceh Jaya";"ACEH";"23656";"Indonesia";" 085362836024";"4.9254657";"95.4895871";"https://maps.google.com/?cid=0x0:0x428c30294fd0ef21"
"restaurant";"Toko Makanan Organik";"WARUNG MIE BALAP CEK BANDI KUBA";"RF76+V29, Dusun Tanjong Harapan, Kuala Bakong, Kec. Sampoiniet, Kabupaten Aceh Jaya, Aceh 23656";"Dusun Tanjong Harapan, Kuala Bakong, Kec. Sampoiniet, Kabupaten Aceh Jaya";"ACEH";"23656";"Indonesia";"";"4.8146633";"95.4601185";"https://maps.google.com/?cid=0x0:0xf8318a9eb500ee8f"
"restaurant";"Kedai Kopi";"AAN CAFFEE";"Cot Langsat, Kec. Sampoiniet, Kabupaten Aceh Jaya, Aceh 23656";"Kec. Sampoiniet, Kabupaten Aceh Jaya";"ACEH";"23656";"Indonesia";"";"4.8408541";"95.5168138";"https://maps.google.com/?cid=0x0:0x3931350ca32f629d"
"restaurant";"Rumah Makan";"Rumah Makan Sie Kameng";"QFQ5+GJJ, Jl. Banda Aceh - Calang, Gampong Baro P, Kec. Darul Hikmah, Kabupaten Aceh Jaya, Aceh 23656";"Jl. Banda Aceh - Calang, Gampong Baro P, Kec. Darul Hikmah, Kabupaten Aceh Jaya";"ACEH";"23656";"Indonesia";"";"4.7888438";"95.4590222";"https://maps.google.com/?cid=0x0:0xf724e78ba64cb2b2"
"restaurant";"Mi";"Mie Lobster Yah Muh Rigaih";"Jl. Banda Aceh - Calang, Gampong Baro, Kec. Setia Bakti, Kabupaten Aceh Jaya, Aceh 23655";"Gampong Baro, Kec. Setia Bakti, Kabupaten Aceh Jaya";"ACEH";"23655";"Indonesia";" 085262678544";"4.6654292";"95.5585137";"https://maps.google.com/?cid=0x0:0x642e01e85b9e9c55"
"restaurant";"Kedai Kopi";"Kedai sinta";"VFCQ+9G3, Unnamed Road, Seumantok, Kec. Sampoiniet, Kabupaten Aceh Jaya, Aceh 23656";"Unnamed Road, Seumantok, Kec. Sampoiniet, Kabupaten Aceh Jaya";"ACEH";"23656";"Indonesia";"";"4.8708968";"95.48881";"https://maps.google.com/?cid=0x0:0x277a3c3f9bcbbb27"
"restaurant";"restaurant";"Aceh 23657";"Kabupaten Aceh Jaya, Aceh";"Kabupaten Aceh Jaya, Aceh";"ACEH";"";"Indonesia";"";"5.0787006";"95.435853";"https://maps.google.com/?cid=0x0:0x3ad6a5bdfe2df870"
"restaurant";"Mi";"Waroeng Guritno Lamno";"Jl. Lintas Barat Sumatera, Bak Paoh, Jaya, Kabupaten Aceh Jaya, Aceh 23657";"Bak Paoh, Jaya, Kabupaten Aceh Jaya";"ACEH";"23657";"Indonesia";" 082324295799";"5.0924683";"95.3630404";"https://maps.google.com/?cid=0x0:0xd135c2f280486339"
"restaurant";"Restoran";"Bu Sie Itek Lamno";"3992+6R3, Teumareum, Kec. Indra Jaya, Kabupaten Aceh Jaya, Aceh 23657";"Teumareum, Kec. Indra Jaya, Kabupaten Aceh Jaya";"ACEH";"23657";"Indonesia";"";"5.068011";"95.3520592";"https://maps.google.com/?cid=0x0:0x9de1eedec92ad32a"
"restaurant";"Restoran";"RM. Aneuk Phon";"39H3+8X4, Lhuet, Jaya, Kabupaten Aceh Jaya, Aceh 23657";"Lhuet, Jaya, Kabupaten Aceh Jaya";"ACEH";"23657";"Indonesia";"";"5.0782735";"95.3549666";"https://maps.google.com/?cid=0x0:0x2d8351fa21ef26e6"
"restaurant";"Restoran";"Skala Kupi Lamno";"Leupe, Jaya, Kabupaten Aceh Jaya, Aceh 23657";"Jaya, Kabupaten Aceh Jaya";"ACEH";"23657";"Indonesia";" 082366436577";"5.0836875";"95.3601875";"https://maps.google.com/?cid=0x0:0xb8d4f493c5a8696c"
"restaurant";"Restoran";"Warung makan";"39R7+M2C, Jl. Banda Aceh - Calang, Bak Paoh, Jaya, Kabupaten Aceh Jaya, Aceh 23657";"Jl. Banda Aceh - Calang, Bak Paoh, Jaya, Kabupaten Aceh Jaya";"ACEH";"23657";"Indonesia";" 085216901161";"5.0916962";"95.3625264";"https://maps.google.com/?cid=0x0:0xaf9f7829807408a7"
"restaurant";"Rumah Makan";"Waroeng Kampungku Lamno";"39Q8+9C5, Meunasah Weh, Jaya, Kabupaten Aceh Jaya, Aceh 23657";"Meunasah Weh, Jaya, Kabupaten Aceh Jaya";"ACEH";"23657";"Indonesia";" 081370452762";"5.0883949";"95.366112";"https://maps.google.com/?cid=0x0:0x80a81688c8b4359a"
"restaurant";"Toko";"Warung Penatapan Geurutee Bang Is Tangse";"48M5+P2H, Jl. Banda Aceh - Calang, Babah Ie, Jaya, Kabupaten Aceh Jaya, Aceh 23657";"Jl. Banda Aceh - Calang, Babah Ie, Jaya, Kabupaten Aceh Jaya";"ACEH";"23657";"Indonesia";"";"5.1343249";"95.3076239";"https://maps.google.com/?cid=0x0:0xdac0f4ee42c61457"
"restaurant";"Kedai Kopi";"Rangkang Blang Jaya Sabena";"Jalan banda Aceh - Calang KM 80, Lhuet, Jaya, Lhuet, Jaya, Kabupaten Aceh Jaya, Aceh 23657";"Lhuet, Jaya, Lhuet, Jaya, Kabupaten Aceh Jaya";"ACEH";"23657";"Indonesia";" 081360983076";"5.0775981";"95.3539401";"https://maps.google.com/?cid=0x0:0xd064cc16a82c45cd"
"restaurant";"Kafe";"Blue Sky Cafe";"Jl. Banda Aceh - Calang No.km. 79, Lamno, Jaya, Kabupaten Aceh Jaya, Aceh";"Kabupaten Aceh Jaya, Aceh";"ACEH";"";"Indonesia";" 082370089709";"5.0811367";"95.3577035";"https://maps.google.com/?cid=0x0:0xc4ee80736774e9fd"
"restaurant";"Kedai Kopi";"Diskusi";"Jl. Banda Aceh - Calang, Lhuet, Jaya, Kabupaten Aceh Jaya, Aceh 23657";"Lhuet, Jaya, Kabupaten Aceh Jaya";"ACEH";"23657";"Indonesia";" 082277618705";"5.0785721";"95.3552809";"https://maps.google.com/?cid=0x0:0x969eb5f2d3249462"
"restaurant";"Kedai Kopi";"Rumbia_Coffee94";"Leupe, Jaya, Kabupaten Aceh Jaya, Aceh 23657";"Jaya, Kabupaten Aceh Jaya";"ACEH";"23657";"Indonesia";" 085270413749";"5.0814515";"95.3580064";"https://maps.google.com/?cid=0x0:0x450b5f70158d0906"
"restaurant";"Pusat Perbelanjaan";"Beusarie Niaga Cafe";"Gle Putoh, Jaya, Kabupaten Aceh Jaya, Aceh 23657";"Jaya, Kabupaten Aceh Jaya";"ACEH";"23657";"Indonesia";"";"5.0990508";"95.3600272";"https://maps.google.com/?cid=0x0:0x1c5a0c619fa1f189"
"restaurant";"Hidangan Laut";"Shallowspearfishing Cafe  Restauran";"Keude Unga, Kec. Indra Jaya, Kabupaten Aceh Jaya, Aceh";"Kabupaten Aceh Jaya, Aceh";"ACEH";"";"Indonesia";"";"4.9998636";"95.3654929";"https://maps.google.com/?cid=0x0:0xeb8908c441a89756"
"restaurant";"restaurant";"Kec. Indra Jaya";"Kabupaten Aceh Jaya, Aceh";"Kabupaten Aceh Jaya, Aceh";"ACEH";"";"Indonesia";"";"5.0632418";"95.3386622";"https://maps.google.com/?cid=0x0:0x9bf6e49fb0e9adcc"
"restaurant";"Restoran";"Bu Sie Itek Lamno";"3992+6R3, Teumareum, Kec. Indra Jaya, Kabupaten Aceh Jaya, Aceh 23657";"Teumareum, Kec. Indra Jaya, Kabupaten Aceh Jaya";"ACEH";"23657";"Indonesia";"";"5.068011";"95.3520592";"https://maps.google.com/?cid=0x0:0x9de1eedec92ad32a"
"restaurant";"Hidangan Laut";"Shallowspearfishing Cafe  Restauran";"Keude Unga, Kec. Indra Jaya, Kabupaten Aceh Jaya, Aceh";"Kabupaten Aceh Jaya, Aceh";"ACEH";"";"Indonesia";"";"4.9998636";"95.3654929";"https://maps.google.com/?cid=0x0:0xeb8908c441a89756"
"restaurant";"Mi";"Waroeng Guritno Lamno";"Jl. Lintas Barat Sumatera, Bak Paoh, Jaya, Kabupaten Aceh Jaya, Aceh 23657";"Bak Paoh, Jaya, Kabupaten Aceh Jaya";"ACEH";"23657";"Indonesia";" 082324295799";"5.0924683";"95.3630404";"https://maps.google.com/?cid=0x0:0xd135c2f280486339"
"restaurant";"Restoran";"RM. Aneuk Phon";"39H3+8X4, Lhuet, Jaya, Kabupaten Aceh Jaya, Aceh 23657";"Lhuet, Jaya, Kabupaten Aceh Jaya";"ACEH";"23657";"Indonesia";"";"5.0782735";"95.3549666";"https://maps.google.com/?cid=0x0:0x2d8351fa21ef26e6"
"restaurant";"Rumah Makan";"Waroeng Kampungku Lamno";"39Q8+9C5, Meunasah Weh, Jaya, Kabupaten Aceh Jaya, Aceh 23657";"Meunasah Weh, Jaya, Kabupaten Aceh Jaya";"ACEH";"23657";"Indonesia";" 081370452762";"5.0883949";"95.366112";"https://maps.google.com/?cid=0x0:0x80a81688c8b4359a"
"restaurant";"Rumah Makan";"Mie Kepiting | Lamno";"3932+FRJ, Jl. Banda Aceh - Calang, Kuala, Kec. Indra Jaya, Kabupaten Aceh Jaya, Aceh 23657";"Jl. Banda Aceh - Calang, Kuala, Kec. Indra Jaya, Kabupaten Aceh Jaya";"ACEH";"23657";"Indonesia";" 081362844662";"5.053719";"95.3520162";"https://maps.google.com/?cid=0x0:0x5b844ec8a8c34955"
"restaurant";"Sarapan";"Rumah Makan Primadona";"Keude Unga, Kec. Indra Jaya, Kabupaten Aceh Jaya, Aceh 23657";"Kec. Indra Jaya, Kabupaten Aceh Jaya";"ACEH";"23657";"Indonesia";" 082160000575";"5.0116976";"95.3656274";"https://maps.google.com/?cid=0x0:0xf06258882a12c455"
"restaurant";"Kedai Kopi";"Kantin Osip Budi";"388Q+39W, Jangeut, Kec. Indra Jaya, Kabupaten Aceh Jaya, Aceh 23657";"Jangeut, Kec. Indra Jaya, Kabupaten Aceh Jaya";"ACEH";"23657";"Indonesia";" 082363783394";"5.0652346";"95.3384459";"https://maps.google.com/?cid=0x0:0x5a1e4b7ddb4398dc"
"restaurant";"Kedai Kopi";"Nanda coffee";"Unnamed Road, Alue Mie, Kec. Indra Jaya, Kabupaten Aceh Jaya, Aceh 23657";"Alue Mie, Kec. Indra Jaya, Kabupaten Aceh Jaya";"ACEH";"23657";"Indonesia";" 081263972363";"5.0685624";"95.3461916";"https://maps.google.com/?cid=0x0:0x868dbe54554a3759"
"restaurant";"Kedai Kopi";"Rangkang Blang Jaya Sabena";"Jalan banda Aceh - Calang KM 80, Lhuet, Jaya, Lhuet, Jaya, Kabupaten Aceh Jaya, Aceh 23657";"Lhuet, Jaya, Lhuet, Jaya, Kabupaten Aceh Jaya";"ACEH";"23657";"Indonesia";" 081360983076";"5.0775981";"95.3539401";"https://maps.google.com/?cid=0x0:0xd064cc16a82c45cd"
"restaurant";"Kafe";"Blue Sky Cafe";"Jl. Banda Aceh - Calang No.km. 79, Lamno, Jaya, Kabupaten Aceh Jaya, Aceh";"Kabupaten Aceh Jaya, Aceh";"ACEH";"";"Indonesia";" 082370089709";"5.0811367";"95.3577035";"https://maps.google.com/?cid=0x0:0xc4ee80736774e9fd"
"restaurant";"Kedai Kopi";"Edos kupi";"Simpang gle bayu, Teumareum, Kec. Indra Jaya, Kabupaten Aceh Jaya, Aceh 23657";"Teumareum, Kec. Indra Jaya, Kabupaten Aceh Jaya";"ACEH";"23657";"Indonesia";" 082286458569";"5.0634692";"95.3519639";"https://maps.google.com/?cid=0x0:0xdec632e0316d8773"
"restaurant";"Kafe";"Warong ANEUK KUPI";"38CX+V66, Babah Dua, Kec. Indra Jaya, Kabupaten Aceh Jaya, Aceh 23657";"Babah Dua, Kec. Indra Jaya, Kabupaten Aceh Jaya";"ACEH";"23657";"Indonesia";"";"5.0728159";"95.3474467";"https://maps.google.com/?cid=0x0:0xb6445eb2a1dbfad6"
"restaurant";"restaurant";"Kec. Indra Jaya";"Kabupaten Pidie, Aceh";"Kabupaten Pidie, Aceh";"ACEH";"";"Indonesia";"";"5.3162867";"95.9602464";"https://maps.google.com/?cid=0x0:0xcceede14e8e3d2e3"
"restaurant";"Kedai Kopi";"Pondok Sawet";"7WV9+H2P, Glee Gapui, Kec. Indra Jaya, Kabupaten Pidie, Aceh 24167";"Glee Gapui, Kec. Indra Jaya, Kabupaten Pidie";"ACEH";"24167";"Indonesia";" 082273718013";"5.2939604";"95.9175831";"https://maps.google.com/?cid=0x0:0x5097aff480d468e9"
"restaurant";"Kedai Kopi";"Warkop Senyum Ketawa caleue";"Dayah Caleue, Kec. Indra Jaya, Kabupaten Pidie, Aceh 24171";"Kec. Indra Jaya, Kabupaten Pidie";"ACEH";"24171";"Indonesia";" 081375780256";"5.3150811";"95.9609987";"https://maps.google.com/?cid=0x0:0xe9acc07e1551bd61"
"restaurant";"Kedai Kopi";"House malaka";"24167, Glee Gapui, Kec. Indra Jaya, Kabupaten Pidie, Aceh 24167";"Glee Gapui, Kec. Indra Jaya, Kabupaten Pidie";"ACEH";"24167";"Indonesia";"";"5.2955816";"95.9182734";"https://maps.google.com/?cid=0x0:0xd9ab3b94ba39f325"
"restaurant";"Mi";"Mie Kocok  Kanji Caleue";"8XC5+WGM, Blang Seupeng, Kec. Peukan Baro, Kabupaten Pidie, Aceh 24151";"Blang Seupeng, Kec. Peukan Baro, Kabupaten Pidie";"ACEH";"24151";"Indonesia";"";"5.3223324";"95.9588073";"https://maps.google.com/?cid=0x0:0xab2c7be792b8de23"
"restaurant";"Kedai Kopi";"Bumbu PUSAKA INDATU";"8X47+JC3, Jl. Bungie, Mee Lampoih Saka, Kec. Peukan Baro, Kabupaten Pidie, Aceh 24151";"Jl. Bungie, Mee Lampoih Saka, Kec. Peukan Baro, Kabupaten Pidie";"ACEH";"24151";"Indonesia";" 081290998088";"5.3065233";"95.9635524";"https://maps.google.com/?cid=0x0:0xb8902d08ed056123"
"restaurant";"Dapur Umum";"Bu Gureng Bang RIH";"Blang Garot, Kec. Indra Jaya, Kabupaten Pidie, Aceh 24183";"Kec. Indra Jaya, Kabupaten Pidie";"ACEH";"24183";"Indonesia";"";"5.3410504";"95.9257336";"https://maps.google.com/?cid=0x0:0xf433ec6e5bfd1ada"
"restaurant";"Restoran";"Gs Lepo Lepo";"Glee Gapui, Kec. Indra Jaya, Kabupaten Pidie, Aceh 24167";"Kec. Indra Jaya, Kabupaten Pidie";"ACEH";"24167";"Indonesia";" 081263865910";"5.2938957";"95.9180736";"https://maps.google.com/?cid=0x0:0x9aca8b5234c113c4"
"restaurant";"Restoran";"Restoran Persimura";"Jln. Caleue Lhok Kaju, Baro Jruek, Kec. Indra Jaya, Kabupaten Pidie, Aceh";"Kabupaten Pidie, Aceh";"ACEH";"";"Indonesia";"";"5.3275635";"95.944443";"https://maps.google.com/?cid=0x0:0xae6aa657f25e1cbb"
"restaurant";"Restoran";"GEUDONG PUTEH GLEGAPUI";"Glee Gapui, Kec. Indra Jaya, Kabupaten Pidie, Aceh 24167";"Kec. Indra Jaya, Kabupaten Pidie";"ACEH";"24167";"Indonesia";" 082277575377";"5.293566";"95.9177471";"https://maps.google.com/?cid=0x0:0x2d3a5d50480f8ae"
"restaurant";"Mi";"Mie Cheara";"8X95+7M3, Dayah Caleue, Kec. Indra Jaya, Kabupaten Pidie, Aceh 24151";"Dayah Caleue, Kec. Indra Jaya, Kabupaten Pidie";"ACEH";"24151";"Indonesia";" 082363020201";"5.3181601";"95.9592063";"https://maps.google.com/?cid=0x0:0x552aef88a1d4b75b"
"restaurant";"Rumah Makan";"Aura Sate";"8X85+RH5, Unnamed Road, Dayah Caleue, Kec. Indra Jaya, Kabupaten Pidie, Aceh 24151";"Unnamed Road, Dayah Caleue, Kec. Indra Jaya, Kabupaten Pidie";"ACEH";"24151";"Indonesia";" 082370302678";"5.3170039";"95.9589909";"https://maps.google.com/?cid=0x0:0x4838a94cdd162ca"
"restaurant";"Mi";"Mie Kocok Abu";"8X85+JWQ, Jln B. Aceh Medan Samping Mesjid AL-ABRAR, Dayah Caleue, Kec. Indra Jaya, Kabupaten Pidie, Aceh 24151";"Jln B. Aceh Medan Samping Mesjid AL-ABRAR, Dayah Caleue, Kec. Indra Jaya, Kabupaten Pidie";"ACEH";"24151";"Indonesia";" 081262601555";"5.3165768";"95.9598647";"https://maps.google.com/?cid=0x0:0xaf9f92970e658542"
"restaurant";"Nasi";"Warung nasi Ujong blang";"8X86+JVJ, Jl. Kp. Blang - Lampoih Saka, Lueng Guci Rumpong, Kec. Peukan Baro, Kabupaten Pidie, Aceh 24151";"Jl. Kp. Blang - Lampoih Saka, Lueng Guci Rumpong, Kec. Peukan Baro, Kabupaten Pidie";"ACEH";"24151";"Indonesia";"";"5.3165667";"95.9621317";"https://maps.google.com/?cid=0x0:0xfab274c11952fcc0"
"restaurant";"Restoran";"RM Hikmah";"QF7J+VC7, Patek, Kec. Darul Hikmah, Kabupaten Aceh Jaya, Aceh 23656";"Patek, Kec. Darul Hikmah, Kabupaten Aceh Jaya";"ACEH";"23656";"Indonesia";" 081263219480";"4.764664";"95.4810583";"https://maps.google.com/?cid=0x0:0x1e23f168bc6721e5"
"restaurant";"restaurant";"Aceh 23656";"Kabupaten Aceh Jaya, Aceh";"Kabupaten Aceh Jaya, Aceh";"ACEH";"";"Indonesia";"";"4.9116238";"95.6037465";"https://maps.google.com/?cid=0x0:0x1aed070c2c639dba"
"restaurant";"Rumah Makan";"RM Tuah Kota Naga";"QFJ6+JV2, Gampong Baro P, Kec. Darul Hikmah, Kabupaten Aceh Jaya, Aceh 23656";"Gampong Baro P, Kec. Darul Hikmah, Kabupaten Aceh Jaya";"ACEH";"23656";"Indonesia";"";"4.7815209";"95.4621514";"https://maps.google.com/?cid=0x0:0x7a695a978d853a3e"
"restaurant";"Kedai Kopi";"Caffe  Resto Ampoen Cuet";"PGF5+WM2, Lhok Geulumpang, Kec. Setia Bakti, Kabupaten Aceh Jaya, Aceh 23656";"Lhok Geulumpang, Kec. Setia Bakti, Kabupaten Aceh Jaya";"ACEH";"23656";"Indonesia";" 085243016862";"4.7247539";"95.5091437";"https://maps.google.com/?cid=0x0:0x3283f3f8ebede9b4"
"restaurant";"Rumah Makan";"RM Sederhana (Patek)";"Jl. Banda Aceh - Calang No.175, Sawang, Kec. Setia Bakti, Kabupaten Aceh Jaya, Aceh 23656";"Sawang, Kec. Setia Bakti, Kabupaten Aceh Jaya";"ACEH";"23656";"Indonesia";"";"4.769357";"95.4786151";"https://maps.google.com/?cid=0x0:0x637d5e18ba23465d"
"restaurant";"Kafe";"Prikitiew Kupi";"RGH7+WV9, Suak Beukah, Kec. Darul Hikmah, Kabupaten Aceh Jaya, Aceh 23656";"Suak Beukah, Kec. Darul Hikmah, Kabupaten Aceh Jaya";"ACEH";"23656";"Indonesia";"";"4.8297877";"95.5147348";"https://maps.google.com/?cid=0x0:0x96291596b7b3980e"
"restaurant";"Rumah Makan";"Rumah makan Aceh raya";"QF8J+5J6, Patek, Kec. Darul Hikmah, Kabupaten Aceh Jaya, Aceh 23656";"Patek, Kec. Darul Hikmah, Kabupaten Aceh Jaya";"ACEH";"23656";"Indonesia";"";"4.765468";"95.4814018";"https://maps.google.com/?cid=0x0:0x13f5ed93a5e7b293"
"restaurant";"restaurant";"Rumah Makan Bunda";"Jl. T. Umar Jl. Meulaboh - Banda Aceh No.Km. 136, Lhok Geulumpang, Kec. Setia Bakti, Kabupaten Aceh Jaya, Aceh 23656";"Lhok Geulumpang, Kec. Setia Bakti, Kabupaten Aceh Jaya";"ACEH";"23656";"Indonesia";" 081280300053";"4.6929691";"95.5269046";"https://maps.google.com/?cid=0x0:0x2842f5a1979e116e"
"restaurant";"Restoran";"Rumah Makan Nagan Raya";"QFCF+VQ3, Jl. Meulaboh - Banda Aceh, Patek, Kec. Darul Hikmah, Kabupaten Aceh Jaya, Aceh 23656";"Jl. Meulaboh - Banda Aceh, Patek, Kec. Darul Hikmah, Kabupaten Aceh Jaya";"ACEH";"23656";"Indonesia";"";"4.7721386";"95.4744308";"https://maps.google.com/?cid=0x0:0x14fd75a18230521d"
"restaurant";"Rumah Makan";"Rumah Makan Sie Kameng";"QFQ5+GJJ, Jl. Banda Aceh - Calang, Gampong Baro P, Kec. Darul Hikmah, Kabupaten Aceh Jaya, Aceh 23656";"Jl. Banda Aceh - Calang, Gampong Baro P, Kec. Darul Hikmah, Kabupaten Aceh Jaya";"ACEH";"23656";"Indonesia";"";"4.7888438";"95.4590222";"https://maps.google.com/?cid=0x0:0xf724e78ba64cb2b2"
"restaurant";"Restoran";"Warung Makan Dekja";"QFP5+QV4, Jl. Banda Aceh - Calang, Gampong Baro P, Kec. Darul Hikmah, Kabupaten Aceh Jaya, Aceh 23656";"Jl. Banda Aceh - Calang, Gampong Baro P, Kec. Darul Hikmah, Kabupaten Aceh Jaya";"ACEH";"23656";"Indonesia";"";"4.7868973";"95.4597018";"https://maps.google.com/?cid=0x0:0x979cbb8839d6689e"
"restaurant";"Rumah Makan";"RM Roda Baru Patek";"Jl. Banda Aceh - Calang No.175, Patek, Kec. Darul Hikmah, Kabupaten Aceh Jaya, Aceh 23656";"Patek, Kec. Darul Hikmah, Kabupaten Aceh Jaya";"ACEH";"23656";"Indonesia";"";"4.7793471";"95.4641795";"https://maps.google.com/?cid=0x0:0x81b99ae75102c198"
"restaurant";"Mi";"Mie Lobster Yah Muh Rigaih";"Jl. Banda Aceh - Calang, Gampong Baro, Kec. Setia Bakti, Kabupaten Aceh Jaya, Aceh 23655";"Gampong Baro, Kec. Setia Bakti, Kabupaten Aceh Jaya";"ACEH";"23655";"Indonesia";" 085262678544";"4.6654292";"95.5585137";"https://maps.google.com/?cid=0x0:0x642e01e85b9e9c55"
"restaurant";"Kedai Kopi";"Warung Makan Rigaih";"MH74+474, Jl. Meulaboh - Banda Aceh, Gampong Baro, Kec. Setia Bakti, Kabupaten Aceh Jaya, Aceh 23655";"Jl. Meulaboh - Banda Aceh, Gampong Baro, Kec. Setia Bakti, Kabupaten Aceh Jaya";"ACEH";"23655";"Indonesia";"";"4.6627588";"95.5556964";"https://maps.google.com/?cid=0x0:0xbfaf9de0f8fd3908"
"restaurant";"Kedai Kopi";"KEUDAI DAN WARUNG ADEEK BULAT";"HWMF+54G, Alue Punti, Kec. Pasie Raya, Kabupaten Aceh Jaya, Aceh 23653";"Alue Punti, Kec. Pasie Raya, Kabupaten Aceh Jaya";"ACEH";"23653";"Indonesia";"";"4.5834058";"95.9230464";"https://maps.google.com/?cid=0x0:0xe7c6cb274e8fd161"
"restaurant";"restaurant";"Aceh 23653";"Kec. Teunom, Kabupaten Aceh Jaya, Aceh";"Kabupaten Aceh Jaya, Aceh";"ACEH";"";"Indonesia";"";"4.5590872";"95.8775964";"https://maps.google.com/?cid=0x0:0xd1bbc87731e6c060"
"restaurant";"Restoran";"Rumah makan PMTOH";"Keude Teunom, Kec. Teunom, Kabupaten Aceh Jaya, Aceh 23653";"Kec. Teunom, Kabupaten Aceh Jaya";"ACEH";"23653";"Indonesia";"";"4.4466779";"95.8114394";"https://maps.google.com/?cid=0x0:0xe3946417f5b5fc2"
"restaurant";"Kafe";"COFFEE 2P COFFEE";"FV96+8XW, Pasi Teubee, Kec. Pasie Raya, Kabupaten Aceh Jaya, Aceh 23653";"Pasi Teubee, Kec. Pasie Raya, Kabupaten Aceh Jaya";"ACEH";"23653";"Indonesia";"";"4.468845";"95.8631694";"https://maps.google.com/?cid=0x0:0x7b50b9c8620194ff"
"restaurant";"Kafe";"Pasie Luah Resto And Karaoke";"JHJR+4VM, Dayah Baro, Kec. Krueng Sabee, Kabupaten Aceh Jaya, Aceh 23655";"Dayah Baro, Kec. Krueng Sabee, Kabupaten Aceh Jaya";"ACEH";"23655";"Indonesia";" 081360356569";"4.6303476";"95.592159";"https://maps.google.com/?cid=0x0:0xfe87f651ea6dbb"
"restaurant";"Mi";"Mie Alue Poeng Panga";"Jembatan, Jl. Meulaboh - Banda Aceh, Kuta Tuha, Kec. Panga, Kabupaten Aceh Jaya, Aceh 23653";"Jl. Meulaboh - Banda Aceh, Kuta Tuha, Kec. Panga, Kabupaten Aceh Jaya";"ACEH";"23653";"Indonesia";"";"4.5436473";"95.7160287";"https://maps.google.com/?cid=0x0:0xa07c9679b3db6d25"
"restaurant";"Restoran";"Bakso Dua Dara Panga";"Kuta Tuha, Kec. Panga, Kabupaten Aceh Jaya, Aceh 23653";"Kec. Panga, Kabupaten Aceh Jaya";"ACEH";"23653";"Indonesia";" 082332970602";"4.5451951";"95.715629";"https://maps.google.com/?cid=0x0:0xa281fad63fc0dbfa"
"restaurant";"Restoran";"Caffee Nisero";"Kuta Tuha, Kec. Panga, Kabupaten Aceh Jaya, Aceh 23654";"Kec. Panga, Kabupaten Aceh Jaya";"ACEH";"23654";"Indonesia";" 085297643266";"4.5375953";"95.7064181";"https://maps.google.com/?cid=0x0:0x166db6695fc413d9"
"restaurant";"Kedai Kopi";"Warkop WAROENG KUPHI "NA" RIZQI";"GV2Q+M2F, Pasi Teubee, Kec. Pasie Raya, Kabupaten Aceh Jaya, Aceh 23653";"Pasi Teubee, Kec. Pasie Raya, Kabupaten Aceh Jaya";"ACEH";"23653";"Indonesia";"";"4.5016825";"95.8875522";"https://maps.google.com/?cid=0x0:0xdcef630040ffe2ea"
"restaurant";"Padang";"R.M.MAHKOTA Teunom Aceh jaya";"kd, Panton, Kec. Teunom, Kabupaten Aceh Jaya, Aceh 23653";"Panton, Kec. Teunom, Kabupaten Aceh Jaya";"ACEH";"23653";"Indonesia";" 082290226804";"4.4467375";"95.8117969";"https://maps.google.com/?cid=0x0:0xb4c91bdb20c5d25d"
"restaurant";"Kafe";"Warkop Cek Mus";"CRV7+Q9X, Panton, Kec. Teunom, Kabupaten Aceh Jaya, Aceh 23653";"Panton, Kec. Teunom, Kabupaten Aceh Jaya";"ACEH";"23653";"Indonesia";" 085206348056";"4.4444946";"95.8134731";"https://maps.google.com/?cid=0x0:0x76850c52524504ab"
"restaurant";"Kedai Kopi";"Twilight COFFEE.";"GV6R+38V, Tim Pleung, Kec. Pasie Raya, Kabupaten Aceh Jaya, Aceh";"Kabupaten Aceh Jaya, Aceh";"ACEH";"";"Indonesia";"";"4.5102365";"95.890794";"https://maps.google.com/?cid=0x0:0x669eb468db51fce6"
"restaurant";"Restoran";"Bakso Sagoe";"GPJH+M3F, Jl. Meulaboh - Banda Aceh, Keude Panga, Kec. Panga, Kabupaten Aceh Jaya, Aceh 23653";"Jl. Meulaboh - Banda Aceh, Keude Panga, Kec. Panga, Kabupaten Aceh Jaya";"ACEH";"23653";"Indonesia";" 082274751019";"4.5316978";"95.7276749";"https://maps.google.com/?cid=0x0:0x1d482f35ed0c49ba"
"restaurant";"Rumah Makan";"Rumah Makan Sie Kameng Bang Min";"GPW8+H87, Kuta Tuha, Kec. Panga, Kabupaten Aceh Jaya, Aceh 23653";"Kuta Tuha, Kec. Panga, Kabupaten Aceh Jaya";"ACEH";"23653";"Indonesia";"";"4.5464154";"95.7157861";"https://maps.google.com/?cid=0x0:0xc809f18eb6caa00f"
"hotel";"hotel";"EVA SKY HOTEL";"Jl. Sisingamangaraja, Drien Rampak, Kec. Johan Pahlawan, Kabupaten Aceh Barat, Aceh 23616";"Drien Rampak, Kec. Johan Pahlawan, Kabupaten Aceh Barat";"ACEH";"23616";"Indonesia";" 085262456864";"4.163213";"96.1321874";"https://maps.google.com/?cid=0x0:0x580676ba7098b2c3"
"hotel";"hotel";"Aceh 23653";"Kec. Teunom, Kabupaten Aceh Jaya, Aceh";"Kabupaten Aceh Jaya, Aceh";"ACEH";"";"Indonesia";"";"4.5590872";"95.8775964";"https://maps.google.com/?cid=0x0:0xd1bbc87731e6c060"
"hotel";"hotel";"Penginapan KANA HASYA HOMESTAY "Rumoh Jamee"";"Jl. Singgah Mata II Lr. Tripa No.8, Kuta Padang, Kec. Johan Pahlawan, Kabupaten Aceh Barat, Aceh 23614";"Kuta Padang, Kec. Johan Pahlawan, Kabupaten Aceh Barat";"ACEH";"23614";"Indonesia";" 085372826977";"4.1551432";"96.1208821";"https://maps.google.com/?cid=0x0:0x3f0c8119272ac1e7"
"hotel";"hotel";"Hotel Tiara Meulaboh";"Jl. Teuku Umar No.157, Ujung Kalak, Kec. Johan Pahlawan, Kabupaten Aceh Barat, Aceh 23681";"Ujung Kalak, Kec. Johan Pahlawan, Kabupaten Aceh Barat";"ACEH";"23681";"Indonesia";" 085109009968";"4.1430734";"96.1272596";"https://maps.google.com/?cid=0x0:0xed6113af0ac145b"
"hotel";"hotel";"Hotel Pantai Barat";"JHHW+QR7, Keutapang, Kec. Krueng Sabee, Kabupaten Aceh Jaya, Aceh 23655";"Keutapang, Kec. Krueng Sabee, Kabupaten Aceh Jaya";"ACEH";"23655";"Indonesia";"";"4.6294055";"95.597041";"https://maps.google.com/?cid=0x0:0x9e22dd28785fd7be"
"hotel";"hotel";"Aceh 23654";"Kec. Woyla, Aceh";"Aceh";"ACEH";"";"Indonesia";"";"4.4143635";"96.0255738";"https://maps.google.com/?cid=0x0:0xafd411fd2a1143af"
"hotel";"hotel";"HOTEL BIN DAOD";"Jl. Nasional No.99, Sp. Dolog, Kec. Johan Pahlawan, Kabupaten Aceh Barat, Aceh 23681";"Sp. Dolog, Kec. Johan Pahlawan, Kabupaten Aceh Barat";"ACEH";"23681";"Indonesia";" 06557114303";"4.1558816";"96.138577";"https://maps.google.com/?cid=0x0:0x7f14e4743e3c5b9d"
"hotel";"hotel";"N/A";"";"";"ACEH";"";"Indonesia";"";"";"";"https://maps.google.com/?cid=0x0:0x7f14e4743e3c5b9d%7C/g/11j3gfcrjt%7Cid-ID"
"hotel";"hotel";"HOTEL MONTELLA MR SYARI'AH";"Jl. Bakti Pemuda II, Seuneubok, Kec. Johan Pahlawan, Kabupaten Aceh Barat, Aceh";"Kabupaten Aceh Barat, Aceh";"ACEH";"";"Indonesia";"";"4.1600463";"96.1229439";"https://maps.google.com/?cid=0x0:0x892a4a73387c2db7"
"hotel";"hotel";"Ghania homestay syariah meulaboh";"Jl. Cut Meutia No.165B, Ujong Baroh, babussalam, Kabupaten Aceh Barat, Aceh 23612";"Ujong Baroh, babussalam, Kabupaten Aceh Barat";"ACEH";"23612";"Indonesia";" 085260250975";"4.14916";"96.1283408";"https://maps.google.com/?cid=0x0:0x18afdb8309476c04"
"hotel";"hotel";"CASA TRIPA";"Jl. Singgah Mata II Lorong Tripa No.9 - 13, Kuta Padang, Kec. Johan Pahlawan, Kabupaten Aceh Barat, Aceh 23612";"Kuta Padang, Kec. Johan Pahlawan, Kabupaten Aceh Barat";"ACEH";"23612";"Indonesia";" 08116811961";"4.1547384";"96.1210098";"https://maps.google.com/?cid=0x0:0x72b2bcaefa900066"
"hotel";"hotel";"UWAIS HOMESTAY MEULABOH";"Jl. Gajah Mada Jl. Rusa No.086, Drien Rampak, Kec. Johan Pahlawan, Kabupaten Aceh Barat, Aceh 23617";"Drien Rampak, Kec. Johan Pahlawan, Kabupaten Aceh Barat";"ACEH";"23617";"Indonesia";" 082119998435";"4.1535097";"96.1301235";"https://maps.google.com/?cid=0x0:0x1f206a1415daef54"
"hotel";"hotel";"Parkside Meuligou Hotel Meulaboh";"Jl. Iskandar Muda No.35, Ujung Kalak, Kec. Johan Pahlawan, Kabupaten Aceh Barat, Aceh 23681";"Ujung Kalak, Kec. Johan Pahlawan, Kabupaten Aceh Barat";"ACEH";"23681";"Indonesia";"  Lokasi Strategis di Jantung Meulaboh>AParkside Meuligo Hotel berdiri megah di pusat kota Meulaboh, ibu kota dari Kabupaten Aceh Barat yang kaya akan budaya dan sejarah. Lokasinya yang sangat strategis menjadikannya pilihan akomodasi yang ideal bagi para wisatawan maupun pebisnis yang berkunjung ke wilayah ini. Dari hotel ini, berbagai fasilitas dan kebutuhan dapat dijangkau dengan sangat mudah, mulai dari pusat perbelanjaan modern hingga warung makan tradisional yangAuthentic.>AAksesibilitas yang Prima>ASalah satu keunggulan utama Parkside Meuligo Hotel adalah kemudahan aksesnya. Terletak di jantung kota, hotel ini dapat dicapai dengan berbagai jenis transportasi. Bagi Anda yang tiba melalui jalur udara, Bandara Cut Nyak Dien Nagan Raya hanya berjarak sekitar 30 menit berkendara. Sementara itu, terminal bus Meulaboh juga tidak jauh dari hotel, memudahkan akses bagi para wisatawan yang menggunakan transportasi darat. Selain itu, berbagai jenis transportasi lokal seperti becak dan ojek juga readily available di sekitar hotel, memberikan fleksibilitas dalam menjelajahi kota.>ASurga Belanja dan Kuliner di Sekitar Hotel>APara penggemar belanja akan dimanjakan dengan berbagai pilihan pusat perbelanjaan yang terletak hanya beberapa langkah dari Parkside Meuligo Hotel. Mulai dari toko-toko modern yang menawarkan berbagai macam produk fashion, elektronik, hingga kebutuhan sehari-hari, hingga pasar tradisional yang menjual berbagai hasil bumi lokal dan kerajinan tangan khas Aceh Barat. Anda dapat dengan leluasa berburu oleh-oleh atau sekadar menikmati suasana ramai dan interaksi dengan para pedagang lokal.>ASelain surga belanja, kawasan sekitar hotel juga merupakan pusat kuliner yang menggugah selera. Berbagai jenis warung makan dan restoran dapat ditemukan dengan mudah, mulai dari hidangan khas Aceh yang kaya akan rempah seperti Mie Aceh, Sate Matang, dan Ayam Tangkap, hingga masakan Indonesia populer lainnya. Bagi Anda yang ingin mencicipi jajanan lokal, berbagai pedagang kaki lima juga menjajakan aneka camilan lezat sepertiTimphan, Boh Tim-Tim, dan berbagai jenis kue tradisional lainnya. Suasana malam di sekitar hotel juga cukup ramai dengan berbagai kedai kopi yang menawarkan kopi Aceh yang terkenal aromatik.>AFasilitas dan Layanan Unggulan Parkside Meuligo Hotel>AMeskipun dikelilingi oleh berbagai kemudahan di luar, Parkside Meuligo Hotel juga menawarkan berbagai fasilitas dan layanan yang akan membuat pengalaman menginap Anda semakin nyaman dan berkesan. Hotel ini memiliki kamar-kamar yang didesain modern dan dilengkapi dengan berbagai fasilitas seperti AC, televisi layar datar, akses Wi-Fi gratis, dan kamar mandi dalam dengan perlengkapan mandi lengkap.>ASelain itu, hotel ini juga menyediakan fasilitas lain seperti restoran yang menyajikan berbagai pilihan menu lokal dan internasional, ruang pertemuan bagi para pebisnis, serta layanan resepsionis 24 jam yang siap membantu segala kebutuhan Anda. Staf hotel yang ramah dan profesional akan memastikan Anda merasa seperti di rumah sendiri selama menginap di Parkside Meuligo Hotel.>AMenjelajahi Keindahan Meulaboh dan Sekitarnya>ADengan lokasinya yang strategis, Parkside Meuligo Hotel juga menjadi titik awal yang ideal untuk menjelajahi berbagai daya tarik wisata di Meulaboh dan sekitarnya. Anda dapat mengunjungi Masjid Agung Baitul Makmur yang megah, Tugu Kupiah Teuku Umar sebagai simbol perjuangan pahlawan nasional, atau menikmati keindahan Pantai Suak Ribee yang terkenal dengan pasir putihnya. Bagi Anda yang tertarik dengan sejarah tsunami Aceh, Meulaboh juga memiliki beberapa situs স্মৃতি yang dapat dikunjungi.>AKesimpulan>AParkside Meuligo Hotel bukan hanya sekadar tempat untuk bermalam, tetapi juga merupakan pintu gerbang untuk menikmati segala kemudahan dan keindahan yang ditawarkan oleh kota Meulaboh. Lokasinya yang berada di pusat kota, kemudahan akses, serta dikelilingi oleh berbagai fasilitas belanja dan kuliner, menjadikan hotel ini pilihan akomodasi yang sangat tepat bagi siapapun yang berkunjung ke ibu kota Kabupaten Aceh Barat ini. Dengan fasilitas dan";"4.1440193";"96.1256224";"https://maps.google.com/?cid=0x0:0xb433c2fc7dabf291"
"hotel";"hotel";"The Ren'z Homestay";"Jl. Imam Bonjol QQ No.88, Seuneubok, Kec. Johan Pahlawan, Kabupaten Aceh Barat, Aceh 23611";"Seuneubok, Kec. Johan Pahlawan, Kabupaten Aceh Barat";"ACEH";"23611";"Indonesia";" 085359914757";"4.1617121";"96.1236092";"https://maps.google.com/?cid=0x0:0x71d0dff85ac1abbf"
"hotel";"hotel";"Penginapan KANA HASYA HOMESTAY "Rumoh Jamee"";"Jl. Singgah Mata II Lr. Tripa No.8, Kuta Padang, Kec. Johan Pahlawan, Kabupaten Aceh Barat, Aceh 23614";"Kuta Padang, Kec. Johan Pahlawan, Kabupaten Aceh Barat";"ACEH";"23614";"Indonesia";" 085372826977";"4.1551432";"96.1208821";"https://maps.google.com/?cid=0x0:0x3f0c8119272ac1e7"
"hotel";"hotel";"RedDoorz Syariah @ Jalan Gajah Mada Meulaboh";"Jl. Gajah Mada lr banteng No.1A, Drien Rampak, Kec. Johan Pahlawan, Kabupaten Aceh Barat, Aceh 23611";"Drien Rampak, Kec. Johan Pahlawan, Kabupaten Aceh Barat";"ACEH";"23611";"Indonesia";" 0895417300072";"4.155281";"96.1309595";"https://maps.google.com/?cid=0x0:0x897c52f86ebf1bf7"
"hotel";"hotel";"Hotel Pantai Barat";"JHHW+QR7, Keutapang, Kec. Krueng Sabee, Kabupaten Aceh Jaya, Aceh 23655";"Keutapang, Kec. Krueng Sabee, Kabupaten Aceh Jaya";"ACEH";"23655";"Indonesia";"";"4.6294055";"95.597041";"https://maps.google.com/?cid=0x0:0x9e22dd28785fd7be"
"hotel";"hotel";"111 Ocean View";"VC75+QHQ, Jl. Lama Banda Aceh-Meulaboh, Lhok Kruet, Kec. Sampoiniet, Kabupaten Aceh Jaya, Aceh 23656";"Jl. Lama Banda Aceh-Meulaboh, Lhok Kruet, Kec. Sampoiniet, Kabupaten Aceh Jaya";"ACEH";"23656";"Indonesia";" 082276597450";"4.8644581";"95.4089803";"https://maps.google.com/?cid=0x0:0x9d7c66b332fbcde9"
"hotel";"hotel";"Alya homestay";"Jl. Iskandar Muda, Kuta Padang, Kec. Johan Pahlawan, Kabupaten Aceh Barat, Aceh 23613";"Kuta Padang, Kec. Johan Pahlawan, Kabupaten Aceh Barat";"ACEH";"23613";"Indonesia";" 085275707000";"4.1442906";"96.1249652";"https://maps.google.com/?cid=0x0:0x5021b12508e13223"
"hotel";"hotel";"Hotel Pantai Barat";"JHHW+QR7, Keutapang, Kec. Krueng Sabee, Kabupaten Aceh Jaya, Aceh 23655";"Keutapang, Kec. Krueng Sabee, Kabupaten Aceh Jaya";"ACEH";"23655";"Indonesia";"";"4.6294055";"95.597041";"https://maps.google.com/?cid=0x0:0x9e22dd28785fd7be"
"hotel";"hotel";"Aceh 23655";"Kec. Setia Bakti, Kabupaten Aceh Jaya, Aceh";"Kabupaten Aceh Jaya, Aceh";"ACEH";"";"Indonesia";"";"4.7457854";"95.6878736";"https://maps.google.com/?cid=0x0:0x52d192e4749e2bd4"
"hotel";"hotel";"111 Ocean View";"VC75+QHQ, Jl. Lama Banda Aceh-Meulaboh, Lhok Kruet, Kec. Sampoiniet, Kabupaten Aceh Jaya, Aceh 23656";"Jl. Lama Banda Aceh-Meulaboh, Lhok Kruet, Kec. Sampoiniet, Kabupaten Aceh Jaya";"ACEH";"23656";"Indonesia";" 082276597450";"4.8644581";"95.4089803";"https://maps.google.com/?cid=0x0:0x9d7c66b332fbcde9"
"hotel";"hotel";"Aceh 23656";"Kabupaten Aceh Jaya, Aceh";"Kabupaten Aceh Jaya, Aceh";"ACEH";"";"Indonesia";"";"4.9116238";"95.6037465";"https://maps.google.com/?cid=0x0:0x1aed070c2c639dba"
"hotel";"hotel";"Grand Aceh Hotel";"Jl. Dr. Mr. Mohd Hasan, Sukadamai, Kec. Lueng Bata, Kota Banda Aceh, Aceh 23127";"Sukadamai, Kec. Lueng Bata, Kota Banda Aceh";"ACEH";"23127";"Indonesia";" 082283801100";"5.5485836";"95.3299402";"https://maps.google.com/?cid=0x0:0xe852c31754754718"
"hotel";"hotel";"N/A";"";"";"ACEH";"";"Indonesia";"";"";"";"https://maps.google.com/?cid=0x0:0xe852c31754754718%7C/g/11clv_q3dk%7Cid-ID"
"hotel";"hotel";"N/A";"";"";"ACEH";"";"Indonesia";"";"";"";"https://maps.google.com/?cid=0x0:0x70e72305d8d7d91%7C/m/0c3tz97%7Cid-ID"
"hotel";"hotel";"Hotel Medan";"Jl. Jend. Ahmad Yani No.17, Peunayong, Kec. Kuta Alam, Kota Banda Aceh, Aceh";"Kota Banda Aceh, Aceh";"ACEH";"";"Indonesia";" 065121501";"5.5574522";"95.3187103";"https://maps.google.com/?cid=0x0:0x42083d304b99e444"
"hotel";"hotel";"Seventeen Hotel";"Jl. Teuku Umar No.350, Seutui, Kec. Baiturrahman, Kota Banda Aceh, Aceh 23243";"Seutui, Kec. Baiturrahman, Kota Banda Aceh";"ACEH";"23243";"Indonesia";" 034971425588";"5.54001";"95.309364";"https://maps.google.com/?cid=0x0:0x8bf5e6dedb221119"
"hotel";"hotel";"N/A";"";"";"ACEH";"";"Indonesia";"";"";"";"https://maps.google.com/?cid=0x0:0x42083d304b99e444%7C/g/1ptxwt8_b%7Cid-ID"
"hotel";"hotel";"Oasis Atjeh Hotel";"Lueng Bata, Kec. Lueng Bata, Kota Banda Aceh, Aceh 23123";"Kec. Lueng Bata, Kota Banda Aceh";"ACEH";"23123";"Indonesia";" 082171561714";"5.5405426";"95.3391556";"https://maps.google.com/?cid=0x0:0x7b436909e9225b84"
"hotel";"hotel";"N/A";"";"";"ACEH";"";"Indonesia";"";"";"";"https://maps.google.com/?cid=0x0:0x7b436909e9225b84%7C/g/11g_yrk36%7Cid-ID"
"hotel";"hotel";"Hotel Wisata Banda Aceh";"Jl. Jend. Ahmad Yani No.19-21, Peunayong, Kec. Kuta Alam, Kota Banda Aceh, Aceh";"Kota Banda Aceh, Aceh";"ACEH";"";"Indonesia";" 065121834";"5.5580418";"95.3189492";"https://maps.google.com/?cid=0x0:0xc6aedda62724c6a7"
"hotel";"hotel";"Rumoh Aceh Hotel";"Jl. Cut Mutia, Kuta Ateueh, Sukakarya, Kota Sabang, Aceh";"Kota Sabang, Aceh";"ACEH";"";"Indonesia";" 082294608916";"5.8951825";"95.3207359";"https://maps.google.com/?cid=0x0:0x3353b3afc950ca5a"
"hotel";"hotel";"SEI Hotel Banda Aceh";"Jl. Tanoh Abee No.71, Mulia, Kec. Kuta Alam, Kota Banda Aceh, Aceh 23123";"Mulia, Kec. Kuta Alam, Kota Banda Aceh";"ACEH";"23123";"Indonesia";" 082185106952";"5.5628844";"95.322844";"https://maps.google.com/?cid=0x0:0xd10e8fa03b750c2e"
"hotel";"hotel";"Hotel Pantai Barat";"JHHW+QR7, Keutapang, Kec. Krueng Sabee, Kabupaten Aceh Jaya, Aceh 23655";"Keutapang, Kec. Krueng Sabee, Kabupaten Aceh Jaya";"ACEH";"23655";"Indonesia";"";"4.6294055";"95.597041";"https://maps.google.com/?cid=0x0:0x9e22dd28785fd7be"
"hotel";"hotel";"111 Ocean View";"VC75+QHQ, Jl. Lama Banda Aceh-Meulaboh, Lhok Kruet, Kec. Sampoiniet, Kabupaten Aceh Jaya, Aceh 23656";"Jl. Lama Banda Aceh-Meulaboh, Lhok Kruet, Kec. Sampoiniet, Kabupaten Aceh Jaya";"ACEH";"23656";"Indonesia";" 082276597450";"4.8644581";"95.4089803";"https://maps.google.com/?cid=0x0:0x9d7c66b332fbcde9"
"hotel";"Hotel";"Wisma Lamno Training Center Jaya";"39P7+794, Jalan lama Sigli - Banda Aceh Toll Rd, Meunasah Weh, Jaya, Aceh Jaya Regency, Aceh 23657";"Jalan lama Sigli - Banda Aceh Toll Rd, Meunasah Weh, Jaya, Aceh Jaya Regency";"ACEH";"23657";"Indonesia";" 081377269470";"5.0856357";"95.3634523";"https://maps.google.com/?cid=0x0:0x33cd756f03ace69"
"hotel";"hotel";"Aceh 23657";"Kabupaten Aceh Jaya, Aceh";"Kabupaten Aceh Jaya, Aceh";"ACEH";"";"Indonesia";"";"5.0787006";"95.435853";"https://maps.google.com/?cid=0x0:0x3ad6a5bdfe2df870"
"hotel";"Taman";"Jambo Khop Pulo Keuluwang";"47GV+W86, Gampong Seudeuen, Jaya, Kabupaten Aceh Jaya, Aceh";"Kabupaten Aceh Jaya, Aceh";"ACEH";"";"Indonesia";" 085260725566";"5.1272875";"95.2932656";"https://maps.google.com/?cid=0x0:0x8531390d3b7d078"
"hotel";"Rumah wisata";"Hotel burak";"388W+G59, Alue Mie, Kec. Indra Jaya, Kabupaten Aceh Jaya, Aceh 23657";"Alue Mie, Kec. Indra Jaya, Kabupaten Aceh Jaya";"ACEH";"23657";"Indonesia";"";"5.067016";"95.3459916";"https://maps.google.com/?cid=0x0:0x97298152ede73dae"
"hotel";"hotel";"111 Ocean View";"VC75+QHQ, Jl. Lama Banda Aceh-Meulaboh, Lhok Kruet, Kec. Sampoiniet, Kabupaten Aceh Jaya, Aceh 23656";"Jl. Lama Banda Aceh-Meulaboh, Lhok Kruet, Kec. Sampoiniet, Kabupaten Aceh Jaya";"ACEH";"23656";"Indonesia";" 082276597450";"4.8644581";"95.4089803";"https://maps.google.com/?cid=0x0:0x9d7c66b332fbcde9"
"hotel";"Penginapan";"Lamno";"39Q8+4V6, Ps. Lamno, Jaya, Kabupaten Aceh Jaya, Aceh";"Kabupaten Aceh Jaya, Aceh";"ACEH";"";"Indonesia";"";"5.0877804";"95.3671383";"https://maps.google.com/?cid=0x0:0x64472ef49e3ea554"
"hotel";"Hotel";"Hotel asong kita";"Sabet, Jaya, Kabupaten Aceh Jaya, Aceh";"Kabupaten Aceh Jaya, Aceh";"ACEH";"";"Indonesia";"";"5.1693463";"95.4268977";"https://maps.google.com/?cid=0x0:0x337012cee6a21211"
"hotel";"Hotel";"Kos";"39Q9+366, Ps. Lamno, Jaya, Kabupaten Aceh Jaya, Aceh 23657";"Ps. Lamno, Jaya, Kabupaten Aceh Jaya";"ACEH";"23657";"Indonesia";"";"5.0876624";"95.3680142";"https://maps.google.com/?cid=0x0:0xab3136f294bf3106"
"hotel";"Hotel";"Wisma ibu neng";"Ranto Sabon, Kec. Sampoiniet, Kabupaten Aceh Jaya, Aceh 23659";"Kec. Sampoiniet, Kabupaten Aceh Jaya";"ACEH";"23659";"Indonesia";" 0822245080";"5.030857";"95.5774814";"https://maps.google.com/?cid=0x0:0xa2ffc5d99af2f906"
"hotel";"Gedung Apartemen";"Reza ni bos";"38GR+37J, Meunasah Teungoh, Kec. Indra Jaya, Kabupaten Aceh Jaya, Aceh 23657";"Meunasah Teungoh, Kec. Indra Jaya, Kabupaten Aceh Jaya";"ACEH";"23657";"Indonesia";"";"5.0752068";"95.340651";"https://maps.google.com/?cid=0x0:0x58aa0e71f24a987f"
"hotel";"hotel";"Grand Aceh Hotel";"Jl. Dr. Mr. Mohd Hasan, Sukadamai, Kec. Lueng Bata, Kota Banda Aceh, Aceh 23127";"Sukadamai, Kec. Lueng Bata, Kota Banda Aceh";"ACEH";"23127";"Indonesia";" 082283801100";"5.5485836";"95.3299402";"https://maps.google.com/?cid=0x0:0xe852c31754754718"
"hotel";"hotel";"N/A";"";"";"ACEH";"";"Indonesia";"";"";"";"https://maps.google.com/?cid=0x0:0xe852c31754754718%7C/g/11clv_q3dk%7Cid-ID"
"hotel";"hotel";"Hotel Amel Convention Hall";"Gp, Jl. Sultan Iskandar Muda, Blang Oi, Kec. Meuraxa, Kota Banda Aceh, Aceh 23233";"Jl. Sultan Iskandar Muda, Blang Oi, Kec. Meuraxa, Kota Banda Aceh";"ACEH";"23233";"Indonesia";" 082320000048";"5.5521329";"95.3023152";"https://maps.google.com/?cid=0x0:0xca46af412c292978"
"hotel";"hotel";"Hotel Amoda dan Cafe";"Landom, Kec. Lueng Bata, Kota Banda Aceh, Aceh 23122";"Kec. Lueng Bata, Kota Banda Aceh";"ACEH";"23122";"Indonesia";" 06517316039";"5.5320287";"95.3386727";"https://maps.google.com/?cid=0x0:0xe8b4e4d38b5a3c6e"
"hotel";"hotel";"Kec. Indra Jaya";"Kabupaten Aceh Jaya, Aceh";"Kabupaten Aceh Jaya, Aceh";"ACEH";"";"Indonesia";"";"5.0632418";"95.3386622";"https://maps.google.com/?cid=0x0:0x9bf6e49fb0e9adcc"
"hotel";"hotel";"N/A";"";"";"ACEH";"";"Indonesia";"";"";"";"https://maps.google.com/?cid=0x0:0xc7d116533d0b5450%7C/g/11c1l49977%7Cid-ID"
"hotel";"hotel";"Ayani Hotel Banda Aceh";"Jl. Jend. Ahmad Yani No.20, Peunayong, Kec. Kuta Alam, Kota Banda Aceh, Aceh 23122";"Peunayong, Kec. Kuta Alam, Kota Banda Aceh";"ACEH";"23122";"Indonesia";" 06518012111";"5.5570339";"95.3193251";"https://maps.google.com/?cid=0x0:0xc7d116533d0b5450"
"hotel";"hotel";"Hotel Amoda dan Cafe";"Landom, Kec. Lueng Bata, Kota Banda Aceh, Aceh 23122";"Kec. Lueng Bata, Kota Banda Aceh";"ACEH";"23122";"Indonesia";" 06517316039";"5.5320287";"95.3386727";"https://maps.google.com/?cid=0x0:0xe8b4e4d38b5a3c6e"
"hotel";"hotel";"Hotel Medan";"Jl. Jend. Ahmad Yani No.17, Peunayong, Kec. Kuta Alam, Kota Banda Aceh, Aceh";"Kota Banda Aceh, Aceh";"ACEH";"";"Indonesia";" 065121501";"5.5574522";"95.3187103";"https://maps.google.com/?cid=0x0:0x42083d304b99e444"
"hotel";"hotel";"N/A";"";"";"ACEH";"";"Indonesia";"";"";"";"https://maps.google.com/?cid=0x0:0x42083d304b99e444%7C/g/1ptxwt8_b%7Cid-ID"
"hotel";"hotel";"Fhandika Boutique Inc.";"Jl. Sultan Iskandar Muda No.6, Lambung, Kec. Meuraxa, Kota Banda Aceh, Aceh";"Kota Banda Aceh, Aceh";"ACEH";"";"Indonesia";" 065143697";"5.5532641";"95.2948859";"https://maps.google.com/?cid=0x0:0x440a936467fcf9f1"
"hotel";"hotel";"Hotel Pantai Barat";"JHHW+QR7, Keutapang, Kec. Krueng Sabee, Kabupaten Aceh Jaya, Aceh 23655";"Keutapang, Kec. Krueng Sabee, Kabupaten Aceh Jaya";"ACEH";"23655";"Indonesia";"";"4.6294055";"95.597041";"https://maps.google.com/?cid=0x0:0x9e22dd28785fd7be"
"hotel";"hotel";"Pidie Hotel";"Jl. Medan - Banda Aceh No.Km. 1, SP. Pidie, Kec. Kota Sigli, Kabupaten Pidie, Aceh 24173";"SP. Pidie, Kec. Kota Sigli, Kabupaten Pidie";"ACEH";"24173";"Indonesia";" 085373584488";"5.3794001";"95.9496961";"https://maps.google.com/?cid=0x0:0x2d732ee8b6c6cc6"
"hotel";"hotel";"Abaka Hotel";"H923+746, Lamglumpang, Kec. Ulee Kareng, Kota Banda Aceh, Aceh";"Kota Banda Aceh, Aceh";"ACEH";"";"Indonesia";" 08116820333";"5.5506624";"95.3527724";"https://maps.google.com/?cid=0x0:0x369db8e386d736b6"
"hotel";"hotel";"111 Ocean View";"VC75+QHQ, Jl. Lama Banda Aceh-Meulaboh, Lhok Kruet, Kec. Sampoiniet, Kabupaten Aceh Jaya, Aceh 23656";"Jl. Lama Banda Aceh-Meulaboh, Lhok Kruet, Kec. Sampoiniet, Kabupaten Aceh Jaya";"ACEH";"23656";"Indonesia";" 082276597450";"4.8644581";"95.4089803";"https://maps.google.com/?cid=0x0:0x9d7c66b332fbcde9"
"hotel";"hotel";"Reddoorz Syariah Near Balai Meuseuraya Aceh";"Jl. T. Panglima Nyak Makam No.17, Kota Baru, Kec. Kuta Alam, Kota Banda Aceh, Aceh 23125";"Kota Baru, Kec. Kuta Alam, Kota Banda Aceh";"ACEH";"23125";"Indonesia";" 0895417300072";"5.5678452";"95.342831";"https://maps.google.com/?cid=0x0:0x82562df78ac2a104"
"hotel";"hotel";"Saho Coffee and Rooms";"F6FP+XGQ, Mon Ikeun, Kec. Lhoknga, Kabupaten Aceh Besar, Aceh";"Kabupaten Aceh Besar, Aceh";"ACEH";"";"Indonesia";"";"5.4747911";"95.2366765";"https://maps.google.com/?cid=0x0:0x9a7f054aa776ac2b"
"hotel";"hotel";"Hotel Indra Djaya";"Jl. Raya Puncak - Cianjur No.220, Cipayung Datar, Kec. Megamendung, Kabupaten Bogor, Jawa Barat 16770";"Cipayung Datar, Kec. Megamendung, Kabupaten Bogor";"ACEH";"16770";"Indonesia";" 02518254149";"-6.6511871";"106.8913635";"https://maps.google.com/?cid=0x0:0x6640088a9ada699b"
"hotel";"hotel";"Kec. Indra Jaya";"Kabupaten Pidie, Aceh";"Kabupaten Pidie, Aceh";"ACEH";"";"Indonesia";"";"5.3162867";"95.9602464";"https://maps.google.com/?cid=0x0:0xcceede14e8e3d2e3"
"hotel";"hotel";"ILONA BOUTIQUE HOTEL";"Jl. Rel Kereta Api No.05, Gp, RW.Menasah, Meunasah Manyang Pagar Air, Kec. Ingin Jaya, Kabupaten Aceh Besar, Aceh 23371";"Gp, RW.Menasah, Meunasah Manyang Pagar Air, Kec. Ingin Jaya, Kabupaten Aceh Besar";"ACEH";"23371";"Indonesia";"";"5.5312905";"95.352965";"https://maps.google.com/?cid=0x0:0x9edd5f926c6ce750"
"hotel";"hotel";"Safira Hotel";"Jalan Diniah Lorong Walet No.4, Blang Paseh, Kec. Kota Sigli, Kabupaten Pidie, Aceh 24113";"Blang Paseh, Kec. Kota Sigli, Kabupaten Pidie";"ACEH";"24113";"Indonesia";" 081360007654";"5.3751333";"95.9697682";"https://maps.google.com/?cid=0x0:0x92e98654e369d432"
"hotel";"hotel";"Hotel Cempaka";"Blang Asan, Kec. Kota Sigli, Kabupaten Pidie, Aceh 24114";"Kec. Kota Sigli, Kabupaten Pidie";"ACEH";"24114";"Indonesia";" 065325370";"5.3800456";"95.9553681";"https://maps.google.com/?cid=0x0:0x8635f2338e510a0"
"hotel";"hotel";"Grand Blang Asan Hotel";"Jln.Tengku Chik Ditiro No.6, Blang Asan, Kec. Kota Sigli, Kabupaten Pidie, Aceh 24112";"Blang Asan, Kec. Kota Sigli, Kabupaten Pidie";"ACEH";"24112";"Indonesia";" 02129707601";"5.3789873";"95.9520578";"https://maps.google.com/?cid=0x0:0x404439b738a98d83"
"hotel";"hotel";"N/A";"";"";"ACEH";"";"Indonesia";"";"";"";"https://maps.google.com/?cid=0x0:0x404439b738a98d83%7C/g/11b6grsh53%7Cid-ID"
"hotel";"hotel";"Iboih Inn Aceh";"Jl. Pantai Iboih, Iboih, Sukakarya, Kota Sabang, Aceh 24411";"Iboih, Sukakarya, Kota Sabang";"ACEH";"24411";"Indonesia";" 0811841570";"5.8782587";"95.254081";"https://maps.google.com/?cid=0x0:0xa4e8acb39f7e318d"
"hotel";"hotel";"N/A";"";"";"ACEH";"";"Indonesia";"";"";"";"https://maps.google.com/?cid=0x0:0xa4e8acb39f7e318d%7C/g/122vl3n8%7Cid-ID"
"hotel";"hotel";"Saho Coffee and Rooms";"F6FP+XGQ, Mon Ikeun, Kec. Lhoknga, Kabupaten Aceh Besar, Aceh";"Kabupaten Aceh Besar, Aceh";"ACEH";"";"Indonesia";"";"5.4747911";"95.2366765";"https://maps.google.com/?cid=0x0:0x9a7f054aa776ac2b"
"hotel";"hotel";"Hotel Madinah";"Jl. T. Daud Beureueh, Kuta Alam, Bandar Baru, Kec. Kuta Alam, Kota Banda Aceh, Aceh";"Kota Banda Aceh, Aceh";"ACEH";"";"Indonesia";" 065121415";"5.5660745";"95.3373368";"https://maps.google.com/?cid=0x0:0x93db35951bec102a"
"hotel";"hotel";"Hotel Pantai Barat";"JHHW+QR7, Keutapang, Kec. Krueng Sabee, Kabupaten Aceh Jaya, Aceh 23655";"Keutapang, Kec. Krueng Sabee, Kabupaten Aceh Jaya";"ACEH";"23655";"Indonesia";"";"4.6294055";"95.597041";"https://maps.google.com/?cid=0x0:0x9e22dd28785fd7be"
"hotel";"hotel";"Hotel Kuala Radja";"Jalan Teuku Daud Beureu’eh, No. 187, Kelurahan Lampriet, Kecamatan Kuta Alang, Bandar Baru, Kec. Kuta Alam, Kota Banda Aceh, Aceh 23241";"No. 187, Kelurahan Lampriet, Kecamatan Kuta Alang, Bandar Baru, Kec. Kuta Alam, Kota Banda Aceh";"ACEH";"23241";"Indonesia";" 065129687";"5.5657738";"95.3371222";"https://maps.google.com/?cid=0x0:0xd46e6b4c4d216bd1"
"hotel";"hotel";"Aceh 23656";"Kabupaten Aceh Jaya, Aceh";"Kabupaten Aceh Jaya, Aceh";"ACEH";"";"Indonesia";"";"4.9116238";"95.6037465";"https://maps.google.com/?cid=0x0:0x1aed070c2c639dba"
"hotel";"hotel";"111 Ocean View";"VC75+QHQ, Jl. Lama Banda Aceh-Meulaboh, Lhok Kruet, Kec. Sampoiniet, Kabupaten Aceh Jaya, Aceh 23656";"Jl. Lama Banda Aceh-Meulaboh, Lhok Kruet, Kec. Sampoiniet, Kabupaten Aceh Jaya";"ACEH";"23656";"Indonesia";" 082276597450";"4.8644581";"95.4089803";"https://maps.google.com/?cid=0x0:0x9d7c66b332fbcde9"
"hotel";"hotel";"Hadrah Hotel";"Jl. T. Panglima Nyak Makam, Lambhuk, Kec. Ulee Kareng, Kota Banda Aceh, Aceh 24415";"Lambhuk, Kec. Ulee Kareng, Kota Banda Aceh";"ACEH";"24415";"Indonesia";" 02180692666";"5.5556207";"95.3441351";"https://maps.google.com/?cid=0x0:0xe9ea8ea456a7dc8d"
"hotel";"Penginapan religi";"Rumah Bukyus/Yahli";"RF5M+6G5, Jl. Patek - Krueng Tho, Blang Dalam, Kec. Darul Hikmah, Kabupaten Aceh Jaya, Aceh 23656";"Jl. Patek - Krueng Tho, Blang Dalam, Kec. Darul Hikmah, Kabupaten Aceh Jaya";"ACEH";"23656";"Indonesia";"";"4.808011";"95.483846";"https://maps.google.com/?cid=0x0:0xab4adb2841df8dce"
"hotel";"Tujuan Wisata";"Pantai Pasie Saka";"Yousufguoda Hyderabad, Babah Nipah, Kec. Sampoiniet, Kabupaten Aceh Jaya, Aceh";"Kabupaten Aceh Jaya, Aceh";"ACEH";"";"Indonesia";"";"4.8211176";"95.4154041";"https://maps.google.com/?cid=0x0:0x5766b7189ab9df9b"
"hotel";"Hotel";"DOLUNAY HOMESTAY";"Pasie Luwah, Dayah Baro, Kec. Krueng Sabee, Kabupaten Aceh Jaya, Aceh 23654";"Dayah Baro, Kec. Krueng Sabee, Kabupaten Aceh Jaya";"ACEH";"23654";"Indonesia";" 082164826095";"4.6312394";"95.5912229";"https://maps.google.com/?cid=0x0:0x41b7df5f0ae551fa"
"hotel";"hotel";"Aceh 23653";"Kec. Teunom, Kabupaten Aceh Jaya, Aceh";"Kabupaten Aceh Jaya, Aceh";"ACEH";"";"Indonesia";"";"4.5590872";"95.8775964";"https://maps.google.com/?cid=0x0:0xd1bbc87731e6c060"
"hotel";"hotel";"Grand Aceh Hotel";"Jl. Dr. Mr. Mohd Hasan, Sukadamai, Kec. Lueng Bata, Kota Banda Aceh, Aceh 23127";"Sukadamai, Kec. Lueng Bata, Kota Banda Aceh";"ACEH";"23127";"Indonesia";" 082283801100";"5.5485836";"95.3299402";"https://maps.google.com/?cid=0x0:0xe852c31754754718"
"hotel";"hotel";"N/A";"";"";"ACEH";"";"Indonesia";"";"";"";"https://maps.google.com/?cid=0x0:0xe852c31754754718%7C/g/11clv_q3dk%7Cid-ID"
"hotel";"hotel";"N/A";"";"";"ACEH";"";"Indonesia";"";"";"";"https://maps.google.com/?cid=0x0:0xc7d116533d0b5450%7C/g/11c1l49977%7Cid-ID"
"hotel";"hotel";"Ayani Hotel Banda Aceh";"Jl. Jend. Ahmad Yani No.20, Peunayong, Kec. Kuta Alam, Kota Banda Aceh, Aceh 23122";"Peunayong, Kec. Kuta Alam, Kota Banda Aceh";"ACEH";"23122";"Indonesia";" 06518012111";"5.5570339";"95.3193251";"https://maps.google.com/?cid=0x0:0xc7d116533d0b5450"
"hotel";"hotel";"Hotel Amoda dan Cafe";"Landom, Kec. Lueng Bata, Kota Banda Aceh, Aceh 23122";"Kec. Lueng Bata, Kota Banda Aceh";"ACEH";"23122";"Indonesia";" 06517316039";"5.5320287";"95.3386727";"https://maps.google.com/?cid=0x0:0xe8b4e4d38b5a3c6e"
"hotel";"hotel";"My Home Hotel Aceh";"Jl Sri Ratu Safiatuddin Block 6-8 C, Peunayong, Kota Banda Aceh, Aceh 23122";"Peunayong, Kota Banda Aceh";"ACEH";"23122";"Indonesia";" 08116880309";"5.5562393";"95.3202007";"https://maps.google.com/?cid=0x0:0x3e065603363be38c"
"hotel";"hotel";"Pavilliun Selawa Hotel";"Jl. Prof. A. Majid Ibrahim II No.3, Kp. Baru, Kec. Baiturrahman, Kota Banda Aceh, Aceh 23116";"Kp. Baru, Kec. Baiturrahman, Kota Banda Aceh";"ACEH";"23116";"Indonesia";" 06265122788";"5.5517431";"95.3133024";"https://maps.google.com/?cid=0x0:0xf8e8ec5d0e4e796f"
"hotel";"hotel";"Abaka Hotel";"H923+746, Lamglumpang, Kec. Ulee Kareng, Kota Banda Aceh, Aceh";"Kota Banda Aceh, Aceh";"ACEH";"";"Indonesia";" 08116820333";"5.5506624";"95.3527724";"https://maps.google.com/?cid=0x0:0x369db8e386d736b6"
"hotel";"hotel";"ILONA BOUTIQUE HOTEL";"Jl. Rel Kereta Api No.05, Gp, RW.Menasah, Meunasah Manyang Pagar Air, Kec. Ingin Jaya, Kabupaten Aceh Besar, Aceh 23371";"Gp, RW.Menasah, Meunasah Manyang Pagar Air, Kec. Ingin Jaya, Kabupaten Aceh Besar";"ACEH";"23371";"Indonesia";"";"5.5312905";"95.352965";"https://maps.google.com/?cid=0x0:0x9edd5f926c6ce750"
"hotel";"hotel";"Hotel Medan";"Jl. Jend. Ahmad Yani No.17, Peunayong, Kec. Kuta Alam, Kota Banda Aceh, Aceh";"Kota Banda Aceh, Aceh";"ACEH";"";"Indonesia";" 065121501";"5.5574522";"95.3187103";"https://maps.google.com/?cid=0x0:0x42083d304b99e444"
"hotel";"hotel";"N/A";"";"";"ACEH";"";"Indonesia";"";"";"";"https://maps.google.com/?cid=0x0:0x42083d304b99e444%7C/g/1ptxwt8_b%7Cid-ID"
"hotel";"hotel";"Hotel 61";"Jl. T. Panglima Polem No.32-34, Laksana, Kec. Kuta Alam, Kota Banda Aceh, Aceh 23122";"Laksana, Kec. Kuta Alam, Kota Banda Aceh";"ACEH";"23122";"Indonesia";" 0651638866";"5.5593663";"95.3213398";"https://maps.google.com/?cid=0x0:0x4927c09f2ecd1f3c"
"hotel";"hotel";"N/A";"";"";"ACEH";"";"Indonesia";"";"";"";"https://maps.google.com/?cid=0x0:0x4927c09f2ecd1f3c%7C/g/1hc16zhd7%7Cid-ID"
"cafe";"cafe";"Aceh 23653";"Kec. Teunom, Kabupaten Aceh Jaya, Aceh";"Kabupaten Aceh Jaya, Aceh";"ACEH";"";"Indonesia";"";"4.5590872";"95.8775964";"https://maps.google.com/?cid=0x0:0xd1bbc87731e6c060"
"cafe";"Kedai Kopi";"Warkop Botet";"CRX5+PV7, Panton, Kec. Teunom, Kabupaten Aceh Jaya, Aceh 23653";"Panton, Kec. Teunom, Kabupaten Aceh Jaya";"ACEH";"23653";"Indonesia";"";"4.4492978";"95.809682";"https://maps.google.com/?cid=0x0:0x9de1b735618b65e6"
"cafe";"Kedai Kopi";"Al Coffeeshop";"FR27+V52, Jl. Meulaboh - Banda Aceh, Padang Kleng, Kec. Teunom, Kabupaten Aceh Jaya, Aceh 23653";"Jl. Meulaboh - Banda Aceh, Padang Kleng, Kec. Teunom, Kabupaten Aceh Jaya";"ACEH";"23653";"Indonesia";" 085260772277";"4.4521296";"95.8129015";"https://maps.google.com/?cid=0x0:0xed25721fb54a2b50"
"cafe";"Kafe";"Warkop Sp Ulim";"FR2C+9WX, Tanoh Anou, Kec. Teunom, Kabupaten Aceh Jaya, Aceh 23653";"Tanoh Anou, Kec. Teunom, Kabupaten Aceh Jaya";"ACEH";"23653";"Indonesia";"";"4.4509802";"95.8223467";"https://maps.google.com/?cid=0x0:0x74f1cad8660a5e4e"
"cafe";"Kedai Kopi";"Warkop seulanga";"CRW7+72F, Jl. Meulaboh - Banda Aceh, Panton, Kec. Teunom, Kabupaten Aceh Jaya, Aceh 23653";"Jl. Meulaboh - Banda Aceh, Panton, Kec. Teunom, Kabupaten Aceh Jaya";"ACEH";"23653";"Indonesia";"";"4.4456967";"95.8125424";"https://maps.google.com/?cid=0x0:0xa8515b4264de7d67"
"cafe";"Kedai Kopi";"Cafe Amora Teunom, Aceh Jaya";"CRW6+WP2, Jl. Lintas Barat Sumatera, Panton, Kec. Teunom, Kabupaten Aceh Jaya, Aceh 23653";"Jl. Lintas Barat Sumatera, Panton, Kec. Teunom, Kabupaten Aceh Jaya";"ACEH";"23653";"Indonesia";" 082211274948";"4.447274";"95.8117629";"https://maps.google.com/?cid=0x0:0xcf34999ef44085cc"
"cafe";"Kafe";"Warkop Andy Jaya";"Gampong, Padang Kleng, Kec. Teunom, Kabupaten Aceh Jaya, Aceh 23653";"Padang Kleng, Kec. Teunom, Kabupaten Aceh Jaya";"ACEH";"23653";"Indonesia";" 082293122790";"4.4497125";"95.8183675";"https://maps.google.com/?cid=0x0:0xa057ee453ba169da"
"cafe";"Kedai Kopi";"Kios bg Rahimuddin";"Teupin Ara, Kec. Teunom, Kabupaten Aceh Jaya, Aceh 23653";"Kec. Teunom, Kabupaten Aceh Jaya";"ACEH";"23653";"Indonesia";" 085227596682";"4.4353549";"95.8317034";"https://maps.google.com/?cid=0x0:0x298ff1101c24cafb"
"cafe";"Kedai Kopi";"JAMBÔ KUPI IE JÔK";"Jl. Meulaboh - Banda Aceh, Padang Kleng, Kec. Teunom, Kabupaten Aceh Jaya, Aceh 23653";"Padang Kleng, Kec. Teunom, Kabupaten Aceh Jaya";"ACEH";"23653";"Indonesia";" 085276485900";"4.4497149";"95.8142718";"https://maps.google.com/?cid=0x0:0xfb8eb28bccf0f09e"
"cafe";"Kedai Kopi";"Cafe-2N";"FR27+HFQ, Padang Kleng, Kec. Teunom, Kabupaten Aceh Jaya, Aceh 23653";"Padang Kleng, Kec. Teunom, Kabupaten Aceh Jaya";"ACEH";"23653";"Indonesia";"";"4.4515869";"95.8136069";"https://maps.google.com/?cid=0x0:0xc6696a0fc4c27f31"
"cafe";"Restoran";"RM. Aceh Barat , Teunom";"CRW6+RM4, Jl. Meulaboh - Banda Aceh, Panton, Kec. Teunom, Kabupaten Aceh Jaya, Aceh 23653";"Jl. Meulaboh - Banda Aceh, Panton, Kec. Teunom, Kabupaten Aceh Jaya";"ACEH";"23653";"Indonesia";"";"4.4470063";"95.8117019";"https://maps.google.com/?cid=0x0:0x6a03f079e2f532ce"
"cafe";"Nasi Goreng";"Warong Cut Muh";"CRX5+QJ3, Unnamed Road, Panton, Kec. Teunom, Kabupaten Aceh Jaya, Aceh 23653";"Unnamed Road, Panton, Kec. Teunom, Kabupaten Aceh Jaya";"ACEH";"23653";"Indonesia";" 081287992550";"4.4493786";"95.8090388";"https://maps.google.com/?cid=0x0:0xb0011246efe5cb6e"
"cafe";"Kedai Kopi";"WARKOP WI-FI PAKDOT";"Jl. Lintas Barat Sumatera, Panton, Kec. Teunom, Kabupaten Aceh Jaya, Aceh 23653";"Panton, Kec. Teunom, Kabupaten Aceh Jaya";"ACEH";"23653";"Indonesia";" 085260720619";"4.4389232";"95.8191666";"https://maps.google.com/?cid=0x0:0x56b67020eb5a2357"
"cafe";"Kedai Kopi";"Warkop Raju Abdya";"FQFV+J32, Tanoh Manyang, Kec. Teunom, Kabupaten Aceh Jaya, Aceh 23653";"Tanoh Manyang, Kec. Teunom, Kabupaten Aceh Jaya";"ACEH";"23653";"Indonesia";"";"4.474022";"95.7926378";"https://maps.google.com/?cid=0x0:0xf338f27da0323624"
"cafe";"cafe";"Aceh 23654";"Kec. Woyla, Aceh";"Aceh";"ACEH";"";"Indonesia";"";"4.4143635";"96.0255738";"https://maps.google.com/?cid=0x0:0xafd411fd2a1143af"
"cafe";"Kafe";"Kafe Seneubok";"93P4+3P7, Lueng Tanoh Tho, Kec. Woyla, Kabupaten Aceh Barat, Aceh 23654";"Lueng Tanoh Tho, Kec. Woyla, Kabupaten Aceh Barat";"ACEH";"23654";"Indonesia";" 085213247159";"4.3851613";"96.0567914";"https://maps.google.com/?cid=0x0:0xf4dfdb3fbd604e82"
"cafe";"Kafe";"Kafe Buket Raja";"Kuala Bhee, Kec. Woyla, Kabupaten Aceh Barat, Aceh 23654";"Kec. Woyla, Kabupaten Aceh Barat";"ACEH";"23654";"Indonesia";" 082128959262";"4.3872781";"96.0480031";"https://maps.google.com/?cid=0x0:0x96b4ba84ebe6b3d6"
"cafe";"Kedai Kopi";"ESEMPE PREMIUM";"93M6+4FG, Lueng Buloh, Kec. Woyla, Kabupaten Aceh Barat, Aceh 23654";"Lueng Buloh, Kec. Woyla, Kabupaten Aceh Barat";"ACEH";"23654";"Indonesia";"";"4.3828193";"96.061217";"https://maps.google.com/?cid=0x0:0x3b5662f2d120194d"
"cafe";"Kedai Kopi";"Laviska Coffee";"JHMG+754, Bahagia, Kec. Krueng Sabee, Kabupaten Aceh Jaya, Aceh 23655";"Bahagia, Kec. Krueng Sabee, Kabupaten Aceh Jaya";"ACEH";"23655";"Indonesia";"";"4.6336382";"95.5748916";"https://maps.google.com/?cid=0x0:0x1e26594cce846c09"
"cafe";"Kedai Kopi";"Cafe R4";"6XXQ+42Q, Suak Pante Breuh, Kec. Samatiga, Kabupaten Aceh Barat, Aceh 23652";"Suak Pante Breuh, Kec. Samatiga, Kabupaten Aceh Barat";"ACEH";"23652";"Indonesia";" 081362718174";"4.2478359";"95.9876123";"https://maps.google.com/?cid=0x0:0x506db2174d94c6f4"
"cafe";"Kafe";"Kausar baru";"833Q+8P7, Alue Lhok, Kec. Bubon, Kabupaten Aceh Barat, Aceh 23654";"Alue Lhok, Kec. Bubon, Kabupaten Aceh Barat";"ACEH";"23654";"Indonesia";"";"4.3032816";"96.0893011";"https://maps.google.com/?cid=0x0:0xed73c968830cab2a"
"cafe";"Kafe";"R.A BOBA";"Layung, Kec. Bubon, Kabupaten Aceh Barat, Aceh";"Kabupaten Aceh Barat, Aceh";"ACEH";"";"Indonesia";" 082275124695";"4.2999405";"96.0860278";"https://maps.google.com/?cid=0x0:0x32a9ffa9377cfe4d"
"cafe";"Kafe";"Waroeng Leubok Tibang";"C3V3+QPR, Unnamed Road, Pasi Janeng, Kec. Woyla Tim., Kabupaten Aceh Barat, Aceh 23654";"Unnamed Road, Pasi Janeng, Kec. Woyla Tim., Kabupaten Aceh Barat";"ACEH";"23654";"Indonesia";"";"4.4444904";"96.0542788";"https://maps.google.com/?cid=0x0:0xbd0c793208ee3214"
"cafe";"Kedai Kopi";"UD. YAHBIT";"8X6W+VR3, Blang Luah Lm, Kec. Woyla Bar., Kabupaten Aceh Barat, Aceh 23654";"Blang Luah Lm, Kec. Woyla Bar., Kabupaten Aceh Barat";"ACEH";"23654";"Indonesia";" 085276492812";"4.3121372";"95.9970501";"https://maps.google.com/?cid=0x0:0xa0edbaf80b88bd7a"
"cafe";"Kedai Kopi";"Warkopnissa";"93M2+XPX, Tingkeum Panyang, Kec. Woyla, Kabupaten Aceh Barat, Aceh 23654";"Tingkeum Panyang, Kec. Woyla, Kabupaten Aceh Barat";"ACEH";"23654";"Indonesia";"";"4.3849851";"96.0518531";"https://maps.google.com/?cid=0x0:0x1883091c027b9eea"
"cafe";"Kedai Kopi";"Warung Pintô Angèn";"93H8+MH7, Lueng Buloh, Kec. Woyla, Kabupaten Aceh Barat, Aceh 23654";"Lueng Buloh, Kec. Woyla, Kabupaten Aceh Barat";"ACEH";"23654";"Indonesia";" 085290783200";"4.3791537";"96.0664105";"https://maps.google.com/?cid=0x0:0xb0f08aff6d92d43d"
"cafe";"Kafe";"Warkop Geutanyo";"8X96+6RP, Jl. Meulaboh - Banda Aceh, Drien Rampak, Kec. Arongan Lambalek, Kabupaten Aceh Barat, Aceh 23652";"Jl. Meulaboh - Banda Aceh, Drien Rampak, Kec. Arongan Lambalek, Kabupaten Aceh Barat";"ACEH";"23652";"Indonesia";"";"4.3180839";"95.9620815";"https://maps.google.com/?cid=0x0:0x9af9d24664a3f8f7"
"cafe";"Kafe";"Warkop Lem ki";"Unnamed Road, 23654, Gunong Panah, Kec. Bubon, Kabupaten Aceh Barat, Aceh 23654";"23654, Gunong Panah, Kec. Bubon, Kabupaten Aceh Barat";"ACEH";"23654";"Indonesia";" 08523696554";"4.3081422";"96.0948349";"https://maps.google.com/?cid=0x0:0x62543c7d43f391cd"
"cafe";"cafe";"Aceh 23655";"Kec. Setia Bakti, Kabupaten Aceh Jaya, Aceh";"Kabupaten Aceh Jaya, Aceh";"ACEH";"";"Indonesia";"";"4.7457854";"95.6878736";"https://maps.google.com/?cid=0x0:0x52d192e4749e2bd4"
"cafe";"Kafe";"Caffe awak dro bg Safril";"Lhok Bot, Kec. Setia Bakti, Kabupaten Aceh Jaya, Aceh 23655";"Kec. Setia Bakti, Kabupaten Aceh Jaya";"ACEH";"23655";"Indonesia";" 082294548426";"4.6775345";"95.6051291";"https://maps.google.com/?cid=0x0:0x57d88c0ac991f5d0"
"cafe";"Kedai Kopi";"171 Coffee  Eatery";"Jl. Teuku Umar dusun bate lhe No.mor 57, Keutapang, Kec. Krueng Sabee, Kabupaten Aceh Jaya, Aceh 23655";"Keutapang, Kec. Krueng Sabee, Kabupaten Aceh Jaya";"ACEH";"23655";"Indonesia";" 082160000171";"4.6308936";"95.5955092";"https://maps.google.com/?cid=0x0:0x9a501710bbc91aba"
"cafe";"Kedai Kopi";"MC Coffee";"Jl. Meulaboh - Banda Aceh, Keutapang, Kec. Krueng Sabee, Kabupaten Aceh Jaya, Aceh 23655";"Keutapang, Kec. Krueng Sabee, Kabupaten Aceh Jaya";"ACEH";"23655";"Indonesia";" 081377160954";"4.619059";"95.6135406";"https://maps.google.com/?cid=0x0:0xdf7a86c383411322"
"cafe";"Kafe";"Warkop Muna Mie Kepiting";"MH3P+47X, Lhok Buya, Kec. Setia Bakti, Kabupaten Aceh Jaya, Aceh 23655";"Lhok Buya, Kec. Setia Bakti, Kabupaten Aceh Jaya";"ACEH";"23655";"Indonesia";"";"4.6528608";"95.5857196";"https://maps.google.com/?cid=0x0:0x62bd41cf2e70c2d1"
"cafe";"Kafe";"End coffe";"JHJR+MJR, Dayah Baro, Kec. Krueng Sabee, Kabupaten Aceh Jaya, Aceh 23655";"Dayah Baro, Kec. Krueng Sabee, Kabupaten Aceh Jaya";"ACEH";"23655";"Indonesia";"";"4.6317393";"95.5915233";"https://maps.google.com/?cid=0x0:0x91bb146479db071c"
"cafe";"Kedai Kopi";"BLACK WHITE COFFEE AND FOOD";"JHMP+266, Bahagia, Kec. Krueng Sabee, Kabupaten Aceh Jaya, Aceh 23655";"Bahagia, Kec. Krueng Sabee, Kabupaten Aceh Jaya";"ACEH";"23655";"Indonesia";" 082160000171";"4.6326263";"95.5856161";"https://maps.google.com/?cid=0x0:0x3e41b6b1a59b17a4"
"cafe";"Kedai Kopi";"Thaii Kupi";"JJH2+368, Jl. Teuku Umar, Keutapang, Kec. Krueng Sabee, Kabupaten Aceh Jaya, Aceh 23655";"Jl. Teuku Umar, Keutapang, Kec. Krueng Sabee, Kabupaten Aceh Jaya";"ACEH";"23655";"Indonesia";" 085260366548";"4.6276725";"95.6005768";"https://maps.google.com/?cid=0x0:0xc8aae8d7a5340a5b"
"cafe";"Kafe";"Warkoba";"JHPJ+XFV, Kp. Blang, Kec. Krueng Sabee, Kabupaten Aceh Jaya, Aceh 23655";"Kp. Blang, Kec. Krueng Sabee, Kabupaten Aceh Jaya";"ACEH";"23655";"Indonesia";" 082267057209";"4.6374908";"95.5811808";"https://maps.google.com/?cid=0x0:0xd41e7bbbbbd765e3"
"cafe";"Kedai Kopi";"Warung Dek Nong";"MH88+VC5, Lhok Buya, Kec. Setia Bakti, Kabupaten Aceh Jaya, Aceh 23655";"Lhok Buya, Kec. Setia Bakti, Kabupaten Aceh Jaya";"ACEH";"23655";"Indonesia";" 082211020917";"4.6671913";"95.5660717";"https://maps.google.com/?cid=0x0:0x5a1833edf9704e34"
"cafe";"Kedai Kopi";"NEGO COFFEE";"JHJR+C6J, Jl. Teuku Umar, Dayah Baro, Kec. Krueng Sabee, Kabupaten Aceh Jaya, Aceh 23655";"Jl. Teuku Umar, Dayah Baro, Kec. Krueng Sabee, Kabupaten Aceh Jaya";"ACEH";"23655";"Indonesia";" 082361115105";"4.631081";"95.590528";"https://maps.google.com/?cid=0x0:0x94207b734c78d67e"
"cafe";"Kafe";"Satu Tujuh Satu Coffee  Eatery";"JHJR+W23, Dayah Baro, Kec. Krueng Sabee, Kabupaten Aceh Jaya, Aceh 23655";"Dayah Baro, Kec. Krueng Sabee, Kabupaten Aceh Jaya";"ACEH";"23655";"Indonesia";"";"4.6322122";"95.5901635";"https://maps.google.com/?cid=0x0:0x19334164bdb17192"
"cafe";"Kedai Kopi";"Azza Coffee";"JHPJ+GG7, Bahagia, Kec. Krueng Sabee, Kabupaten Aceh Jaya, Aceh 23655";"Bahagia, Kec. Krueng Sabee, Kabupaten Aceh Jaya";"ACEH";"23655";"Indonesia";" 082218206430";"4.6362765";"95.5812892";"https://maps.google.com/?cid=0x0:0x9abe5bae86444427"
"cafe";"Kafe";"Warkop PB";"Dayah Baro, Kec. Krueng Sabee, Kabupaten Aceh Jaya, Aceh 23655";"Kec. Krueng Sabee, Kabupaten Aceh Jaya";"ACEH";"23655";"Indonesia";" 085277029933";"4.6340917";"95.5913222";"https://maps.google.com/?cid=0x0:0x45eba35bf0e1c306"
"cafe";"cafe";"Aceh 23656";"Kabupaten Aceh Jaya, Aceh";"Kabupaten Aceh Jaya, Aceh";"ACEH";"";"Indonesia";"";"4.9116238";"95.6037465";"https://maps.google.com/?cid=0x0:0x1aed070c2c639dba"
"cafe";"Kedai Kopi";"AAN CAFFEE";"Cot Langsat, Kec. Sampoiniet, Kabupaten Aceh Jaya, Aceh 23656";"Kec. Sampoiniet, Kabupaten Aceh Jaya";"ACEH";"23656";"Indonesia";"";"4.8408541";"95.5168138";"https://maps.google.com/?cid=0x0:0x3931350ca32f629d"
"cafe";"Kafe";"Waroeng Apri Puncak";"Jln. Lama Banda Aceh - Meulaboh Gunung Ceuncrang Desa Sawang, Lageun, Kec. Setia Bakti, Kabupaten Aceh Jaya, Aceh 23656";"Lageun, Kec. Setia Bakti, Kabupaten Aceh Jaya";"ACEH";"23656";"Indonesia";" 082277494820";"4.7241984";"95.5092421";"https://maps.google.com/?cid=0x0:0xdeb4dcef311e5590"
"cafe";"Kedai Kopi";"Warkop Lot Ki";"RCGJ+RHR, Babah Nipah, Kec. Sampoiniet, Kabupaten Aceh Jaya, Aceh 23656";"Babah Nipah, Kec. Sampoiniet, Kabupaten Aceh Jaya";"ACEH";"23656";"Indonesia";"";"4.8271232";"95.4313937";"https://maps.google.com/?cid=0x0:0x8fe71cc3c37a3c24"
"cafe";"Kedai Kopi";"Warung Uning";"V9JX+3QJ, Lhok Kruet, Kec. Sampoiniet, Kabupaten Aceh Jaya, Aceh 23657";"Lhok Kruet, Kec. Sampoiniet, Kabupaten Aceh Jaya";"ACEH";"23657";"Indonesia";"";"4.8802072";"95.3993779";"https://maps.google.com/?cid=0x0:0x3de47c92a5a68629"
"cafe";"Kafe";"Seramoe Kupie";"RC7R+CVJ, Jl. Banda Aceh - Calang, Kuala Bakong, Kec. Sampoiniet, Kabupaten Aceh Jaya, Aceh 23656";"Jl. Banda Aceh - Calang, Kuala Bakong, Kec. Sampoiniet, Kabupaten Aceh Jaya";"ACEH";"23656";"Indonesia";" 08116883443";"4.8135952";"95.4421423";"https://maps.google.com/?cid=0x0:0x82a005d16b8b0d01"
"cafe";"Kafe";"WBC cafe";"Unnamed Road, Padang, Kec. Setia Bakti, Kabupaten Aceh Jaya, Aceh 23656";"Padang, Kec. Setia Bakti, Kabupaten Aceh Jaya";"ACEH";"23656";"Indonesia";" 082267643762";"4.7566405";"95.5484813";"https://maps.google.com/?cid=0x0:0xdf1084f29fc2af5"
"cafe";"Kedai Kopi";"Kedai sinta";"VFCQ+9G3, Unnamed Road, Seumantok, Kec. Sampoiniet, Kabupaten Aceh Jaya, Aceh 23656";"Unnamed Road, Seumantok, Kec. Sampoiniet, Kabupaten Aceh Jaya";"ACEH";"23656";"Indonesia";"";"4.8708968";"95.48881";"https://maps.google.com/?cid=0x0:0x277a3c3f9bcbbb27"
"cafe";"Pusat Perbelanjaan";"Seulanga duo";"VFJP+J5H, Unnamed Road, Ligan, Seumantok, Kec. Sampoiniet, Kabupaten Aceh Jaya, Aceh 23656";"Unnamed Road, Ligan, Seumantok, Kec. Sampoiniet, Kabupaten Aceh Jaya";"ACEH";"23656";"Indonesia";" 082277905360";"4.8815717";"95.4854717";"https://maps.google.com/?cid=0x0:0x6ddfbe41234a4461"
"cafe";"Kedai Kopi";"Rumah Maria ulva";"VFMR+P72, Seumantok, Kec. Sampoiniet, Kabupaten Aceh Jaya, Aceh 23656";"Seumantok, Kec. Sampoiniet, Kabupaten Aceh Jaya";"ACEH";"23656";"Indonesia";"";"4.884261";"95.4906488";"https://maps.google.com/?cid=0x0:0xc242c102070363b3"
"cafe";"Toko";"UD. Saba Sabena";"Babah Nipah, Kec. Sampoiniet, Kabupaten Aceh Jaya, Aceh 23656";"Kec. Sampoiniet, Kabupaten Aceh Jaya";"ACEH";"23656";"Indonesia";"";"4.8373434";"95.4298828";"https://maps.google.com/?cid=0x0:0x1ec0fdfccebc7e6f"
"cafe";"Restoran";"Warkop bustamam";"VC49+JX9, Jl. Banda Aceh - Calang, Kuala Ligan, Kec. Sampoiniet, Kabupaten Aceh Jaya, Aceh 23656";"Jl. Banda Aceh - Calang, Kuala Ligan, Kec. Sampoiniet, Kabupaten Aceh Jaya";"ACEH";"23656";"Indonesia";"";"4.8565338";"95.4199702";"https://maps.google.com/?cid=0x0:0xb2b2ae4ddc3e32b1"
"cafe";"Sarapan";"Kak wan kuphi";"VFMP+VP6, Ie Jeureungeh, Kec. Sampoiniet, Kabupaten Aceh Jaya, Aceh 23656";"Ie Jeureungeh, Kec. Sampoiniet, Kabupaten Aceh Jaya";"ACEH";"23656";"Indonesia";"";"4.8846539";"95.4867726";"https://maps.google.com/?cid=0x0:0x58931dc80425de64"
"cafe";"Kafe";"Prikitiew Kupi";"RGH7+WV9, Suak Beukah, Kec. Darul Hikmah, Kabupaten Aceh Jaya, Aceh 23656";"Suak Beukah, Kec. Darul Hikmah, Kabupaten Aceh Jaya";"ACEH";"23656";"Indonesia";"";"4.8297877";"95.5147348";"https://maps.google.com/?cid=0x0:0x96291596b7b3980e"
"cafe";"cafe";"Aceh 23657";"Kabupaten Aceh Jaya, Aceh";"Kabupaten Aceh Jaya, Aceh";"ACEH";"";"Indonesia";"";"5.0787006";"95.435853";"https://maps.google.com/?cid=0x0:0x3ad6a5bdfe2df870"
"cafe";"Kafe";"Geurutee";"38VM+RX, Gampong Baro, Jaya, Kabupaten Aceh Jaya, Aceh";"Kabupaten Aceh Jaya, Aceh";"ACEH";"";"Indonesia";"";"5.0954847";"95.3347961";"https://maps.google.com/?cid=0x0:0xfde2cb96da24e0e3"
"cafe";"Kedai Kopi";"Geurutee Coffee";"48M5+7R2, Jl. Banda Aceh - Calang, Babah Ie, Jaya, Kabupaten Aceh Jaya, Aceh 23657";"Jl. Banda Aceh - Calang, Babah Ie, Jaya, Kabupaten Aceh Jaya";"ACEH";"23657";"Indonesia";"";"5.1331458";"95.3095038";"https://maps.google.com/?cid=0x0:0x2789ee28dfc401cc"
"cafe";"Kedai Kopi";"Diskusi";"Jl. Banda Aceh - Calang, Lhuet, Jaya, Kabupaten Aceh Jaya, Aceh 23657";"Lhuet, Jaya, Kabupaten Aceh Jaya";"ACEH";"23657";"Indonesia";" 082277618705";"5.0785721";"95.3552809";"https://maps.google.com/?cid=0x0:0x969eb5f2d3249462"
"cafe";"Toko";"Warung Penatapan Geurutee Bang Is Tangse";"48M5+P2H, Jl. Banda Aceh - Calang, Babah Ie, Jaya, Kabupaten Aceh Jaya, Aceh 23657";"Jl. Banda Aceh - Calang, Babah Ie, Jaya, Kabupaten Aceh Jaya";"ACEH";"23657";"Indonesia";"";"5.1343249";"95.3076239";"https://maps.google.com/?cid=0x0:0xdac0f4ee42c61457"
"cafe";"Kedai Kopi";"Portugis Coffee";"Unnamed Road, Pante Keutapang, Jaya, Kabupaten Aceh Jaya, Aceh 23657";"Pante Keutapang, Jaya, Kabupaten Aceh Jaya";"ACEH";"23657";"Indonesia";" 085286717144";"5.0880507";"95.3696194";"https://maps.google.com/?cid=0x0:0x42d8cf514290dd3b"
"cafe";"Mi";"Waroeng Guritno Lamno";"Jl. Lintas Barat Sumatera, Bak Paoh, Jaya, Kabupaten Aceh Jaya, Aceh 23657";"Bak Paoh, Jaya, Kabupaten Aceh Jaya";"ACEH";"23657";"Indonesia";" 082324295799";"5.0924683";"95.3630404";"https://maps.google.com/?cid=0x0:0xd135c2f280486339"
"cafe";"Kedai Kopi";"Rangkang Blang Jaya Sabena";"Jalan banda Aceh - Calang KM 80, Lhuet, Jaya, Lhuet, Jaya, Kabupaten Aceh Jaya, Aceh 23657";"Lhuet, Jaya, Lhuet, Jaya, Kabupaten Aceh Jaya";"ACEH";"23657";"Indonesia";" 081360983076";"5.0775981";"95.3539401";"https://maps.google.com/?cid=0x0:0xd064cc16a82c45cd"
"cafe";"Kafe";"Portugis Coffee Lamno";"Jl. Meulaboh - Banda Aceh No.KM. 78, Ps. Lamno, Jaya, Kabupaten Aceh Jaya, Aceh 23657";"Ps. Lamno, Jaya, Kabupaten Aceh Jaya";"ACEH";"23657";"Indonesia";" 085286717144";"5.0914966";"95.3625878";"https://maps.google.com/?cid=0x0:0x89307e8a71a6c090"
"cafe";"Kedai Kopi";"Warkop Aneuk Meutara";"39G3+2V9, Meutara, Jaya, Kabupaten Aceh Jaya, Aceh 23657";"Meutara, Jaya, Kabupaten Aceh Jaya";"ACEH";"23657";"Indonesia";" 085358289351";"5.075036";"95.3547318";"https://maps.google.com/?cid=0x0:0x392bb8e7298694d3"
"cafe";"Kedai Kopi";"Samahani Gayo Arabica Coffee";"Jl. Banda Aceh - Calang No.Km. 20, Bak Paoh, Jaya, Kabupaten Aceh Jaya, Aceh 23657";"Bak Paoh, Jaya, Kabupaten Aceh Jaya";"ACEH";"23657";"Indonesia";"";"5.092637";"95.3624954";"https://maps.google.com/?cid=0x0:0xd9266ee05c3140e"
"cafe";"Kafe";"Warkop Venus Coffee";"Jl. Lama Banda Aceh-Meulaboh, Meunasah Weh, Jaya, Kabupaten Aceh Jaya, Aceh 23657";"Meunasah Weh, Jaya, Kabupaten Aceh Jaya";"ACEH";"23657";"Indonesia";" 06518055042";"5.0861702";"95.3643742";"https://maps.google.com/?cid=0x0:0xd33de0c8a2159fcb"
"cafe";"Kedai Kopi";"DaulayCafe";"39QC+G9R, Bak Paoh, Jaya, Kabupaten Aceh Jaya, Aceh 23657";"Bak Paoh, Jaya, Kabupaten Aceh Jaya";"ACEH";"23657";"Indonesia";"";"5.0888584";"95.3708895";"https://maps.google.com/?cid=0x0:0xd86c9a0ce14235ec"
"cafe";"Restoran";"Skala Kupi Lamno";"Leupe, Jaya, Kabupaten Aceh Jaya, Aceh 23657";"Jaya, Kabupaten Aceh Jaya";"ACEH";"23657";"Indonesia";" 082366436577";"5.0836875";"95.3601875";"https://maps.google.com/?cid=0x0:0xb8d4f493c5a8696c"
"cafe";"cafe";"Kec. Indra Jaya";"Kabupaten Aceh Jaya, Aceh";"Kabupaten Aceh Jaya, Aceh";"ACEH";"";"Indonesia";"";"5.0632418";"95.3386622";"https://maps.google.com/?cid=0x0:0x9bf6e49fb0e9adcc"
"cafe";"Kedai Kopi";"Nanda coffee";"Unnamed Road, Alue Mie, Kec. Indra Jaya, Kabupaten Aceh Jaya, Aceh 23657";"Alue Mie, Kec. Indra Jaya, Kabupaten Aceh Jaya";"ACEH";"23657";"Indonesia";" 081263972363";"5.0685624";"95.3461916";"https://maps.google.com/?cid=0x0:0x868dbe54554a3759"
"cafe";"Hidangan Laut";"Shallowspearfishing Cafe  Restauran";"Keude Unga, Kec. Indra Jaya, Kabupaten Aceh Jaya, Aceh";"Kabupaten Aceh Jaya, Aceh";"ACEH";"";"Indonesia";"";"4.9998636";"95.3654929";"https://maps.google.com/?cid=0x0:0xeb8908c441a89756"
"cafe";"Kedai Kopi";"Kantin Osip Budi";"388Q+39W, Jangeut, Kec. Indra Jaya, Kabupaten Aceh Jaya, Aceh 23657";"Jangeut, Kec. Indra Jaya, Kabupaten Aceh Jaya";"ACEH";"23657";"Indonesia";" 082363783394";"5.0652346";"95.3384459";"https://maps.google.com/?cid=0x0:0x5a1e4b7ddb4398dc"
"cafe";"Kedai Kopi";"Rangkang Blang Jaya Sabena";"Jalan banda Aceh - Calang KM 80, Lhuet, Jaya, Lhuet, Jaya, Kabupaten Aceh Jaya, Aceh 23657";"Lhuet, Jaya, Lhuet, Jaya, Kabupaten Aceh Jaya";"ACEH";"23657";"Indonesia";" 081360983076";"5.0775981";"95.3539401";"https://maps.google.com/?cid=0x0:0xd064cc16a82c45cd"
"cafe";"Kedai Kopi";"Edos kupi";"Simpang gle bayu, Teumareum, Kec. Indra Jaya, Kabupaten Aceh Jaya, Aceh 23657";"Teumareum, Kec. Indra Jaya, Kabupaten Aceh Jaya";"ACEH";"23657";"Indonesia";" 082286458569";"5.0634692";"95.3519639";"https://maps.google.com/?cid=0x0:0xdec632e0316d8773"
"cafe";"Kedai Kopi";"Diskusi";"Jl. Banda Aceh - Calang, Lhuet, Jaya, Kabupaten Aceh Jaya, Aceh 23657";"Lhuet, Jaya, Kabupaten Aceh Jaya";"ACEH";"23657";"Indonesia";" 082277618705";"5.0785721";"95.3552809";"https://maps.google.com/?cid=0x0:0x969eb5f2d3249462"
"cafe";"Kedai Kopi";"Warkop Aneuk Meutara";"39G3+2V9, Meutara, Jaya, Kabupaten Aceh Jaya, Aceh 23657";"Meutara, Jaya, Kabupaten Aceh Jaya";"ACEH";"23657";"Indonesia";" 085358289351";"5.075036";"95.3547318";"https://maps.google.com/?cid=0x0:0x392bb8e7298694d3"
"cafe";"Kafe";"#TEMANFORA COFFEE";"39G3+RGV, Lhuet, Jaya, Kabupaten Aceh Jaya, Aceh 23657";"Lhuet, Jaya, Kabupaten Aceh Jaya";"ACEH";"23657";"Indonesia";" 082272356529";"5.0771127";"95.3537946";"https://maps.google.com/?cid=0x0:0xb937a39ecb7df1a"
"cafe";"Kafe";"Warkop Venus Coffee";"Jl. Lama Banda Aceh-Meulaboh, Meunasah Weh, Jaya, Kabupaten Aceh Jaya, Aceh 23657";"Meunasah Weh, Jaya, Kabupaten Aceh Jaya";"ACEH";"23657";"Indonesia";" 06518055042";"5.0861702";"95.3643742";"https://maps.google.com/?cid=0x0:0xd33de0c8a2159fcb"
"cafe";"Restoran";"Bu Sie Itek Lamno";"3992+6R3, Teumareum, Kec. Indra Jaya, Kabupaten Aceh Jaya, Aceh 23657";"Teumareum, Kec. Indra Jaya, Kabupaten Aceh Jaya";"ACEH";"23657";"Indonesia";"";"5.068011";"95.3520592";"https://maps.google.com/?cid=0x0:0x9de1eedec92ad32a"
"cafe";"Kedai Kopi";"DaulayCafe";"39QC+G9R, Bak Paoh, Jaya, Kabupaten Aceh Jaya, Aceh 23657";"Bak Paoh, Jaya, Kabupaten Aceh Jaya";"ACEH";"23657";"Indonesia";"";"5.0888584";"95.3708895";"https://maps.google.com/?cid=0x0:0xd86c9a0ce14235ec"
"cafe";"Kedai Kopi";"Asep kupi";"38FR+QXG, Meunasah Tutong, Kec. Indra Jaya, Kabupaten Aceh Jaya, Aceh 23657";"Meunasah Tutong, Kec. Indra Jaya, Kabupaten Aceh Jaya";"ACEH";"23657";"Indonesia";"";"5.0744483";"95.3424457";"https://maps.google.com/?cid=0x0:0xe4116b5ae28836c9"
"cafe";"Kafe";"Pulok Pirak Coffee";"Jl. Lama Banda Aceh-Meulaboh, Meunasah Weh, Jaya, Kabupaten Aceh Jaya, Aceh 23657";"Meunasah Weh, Jaya, Kabupaten Aceh Jaya";"ACEH";"23657";"Indonesia";"";"5.0853225";"95.3633348";"https://maps.google.com/?cid=0x0:0x96802767c8a55414"
"cafe";"cafe";"Kec. Indra Jaya";"Kabupaten Pidie, Aceh";"Kabupaten Pidie, Aceh";"ACEH";"";"Indonesia";"";"5.3162867";"95.9602464";"https://maps.google.com/?cid=0x0:0xcceede14e8e3d2e3"
"cafe";"Kedai Kopi";"KAMIL Coffee";"Dayah Caleue, Kec. Indra Jaya, Kabupaten Pidie, Aceh 24151";"Kec. Indra Jaya, Kabupaten Pidie";"ACEH";"24151";"Indonesia";" 082266017177";"5.3149186";"95.9610741";"https://maps.google.com/?cid=0x0:0x9a820ba964504709"
"cafe";"Kedai Kopi";"Warkop Senyum Ketawa caleue";"Dayah Caleue, Kec. Indra Jaya, Kabupaten Pidie, Aceh 24171";"Kec. Indra Jaya, Kabupaten Pidie";"ACEH";"24171";"Indonesia";" 081375780256";"5.3150811";"95.9609987";"https://maps.google.com/?cid=0x0:0xe9acc07e1551bd61"
"cafe";"Kafe";"Seuramoe Kupi";"Jl. Medan - Banda Aceh No.4, Dayah Caleue, Kec. Indra Jaya, Kabupaten Pidie, Aceh 24171";"Dayah Caleue, Kec. Indra Jaya, Kabupaten Pidie";"ACEH";"24171";"Indonesia";"";"5.3159361";"95.9605684";"https://maps.google.com/?cid=0x0:0x440dc91f2a669133"
"cafe";"Kafe";"Cafee Bineh Blang";"8WXP+295, Pante Lhok Kaju, Kec. Indra Jaya, Kabupaten Pidie, Aceh 24164";"Pante Lhok Kaju, Kec. Indra Jaya, Kabupaten Pidie";"ACEH";"24164";"Indonesia";"";"5.3475103";"95.9359942";"https://maps.google.com/?cid=0x0:0x4595fb9cf5f7ca5f"
"cafe";"Kedai Kopi";"CORNER";"Dayah Caleue, Kec. Indra Jaya, Kabupaten Pidie, Aceh 24151";"Kec. Indra Jaya, Kabupaten Pidie";"ACEH";"24151";"Indonesia";" 085297952275";"5.3171636";"95.9587121";"https://maps.google.com/?cid=0x0:0x590f561a2a4c214b"
"cafe";"Kafe";"Mon Kupi Dapu Kayee";"8X95+7M3, Dayah Caleue, Kec. Indra Jaya, Kabupaten Pidie, Aceh";"Kabupaten Pidie, Aceh";"ACEH";"";"Indonesia";"";"5.3179676";"95.9588692";"https://maps.google.com/?cid=0x0:0xb24187f57ff5edcc"
"cafe";"Restoran";"The House Caffee";"8W6M+9J2, Unnamed Road, Teungoh Blang, Kec. Indra Jaya, Kabupaten Pidie, Aceh 24182";"Unnamed Road, Teungoh Blang, Kec. Indra Jaya, Kabupaten Pidie";"ACEH";"24182";"Indonesia";" 081362253933";"5.3108939";"95.9340301";"https://maps.google.com/?cid=0x0:0xac41b3a7503c6200"
"cafe";"Kafe";"Coffee Fans 86";"8X37+WJR, Dayah Bubue, Kec. Peukan Baro, Kabupaten Pidie, Aceh 24151";"Dayah Bubue, Kec. Peukan Baro, Kabupaten Pidie";"ACEH";"24151";"Indonesia";"";"5.3048706";"95.9640233";"https://maps.google.com/?cid=0x0:0xb2d0e0f9625200bc"
"cafe";"Kedai Kopi";"ABI COFFIE";"8X85+WWX, Dayah Caleue, Kec. Indra Jaya, Kabupaten Pidie, Aceh";"Kabupaten Pidie, Aceh";"ACEH";"";"Indonesia";" 082312880969";"5.3173547";"95.9598743";"https://maps.google.com/?cid=0x0:0x2e4b1e53acef65f6"
"cafe";"Kafe";"AW Coffee";"8X37+JRX, Jl. Medan Banda Aceh, Dayah Bubue, Kec. Peukan Baro, Kabupaten Pidie, Aceh 24151";"Jl. Medan Banda Aceh, Dayah Bubue, Kec. Peukan Baro, Kabupaten Pidie";"ACEH";"24151";"Indonesia";"";"5.3041216";"95.9646177";"https://maps.google.com/?cid=0x0:0x79d3fad9f8282c11"
"cafe";"Kafe";"Warkop Palapa";"Jl. Medan - Banda Aceh No.1, Dayah Caleue, Kec. Indra Jaya, Kabupaten Pidie, Aceh 24151";"Dayah Caleue, Kec. Indra Jaya, Kabupaten Pidie";"ACEH";"24151";"Indonesia";"";"5.3165423";"95.9602074";"https://maps.google.com/?cid=0x0:0xa14eccbc471db81d"
"cafe";"cafe";"KARI KUPI KEUBANG";"8WGC+MW4, Keubang, Kec. Indra Jaya, Kabupaten Pidie, Aceh 24183";"Keubang, Kec. Indra Jaya, Kabupaten Pidie";"ACEH";"24183";"Indonesia";" 081269929405";"5.3266437";"95.9223378";"https://maps.google.com/?cid=0x0:0x205a2afc2730e7b9"
"cafe";"Kedai Kopi";"Relui Kupi";"8X59+58P, Jl. Bungie, Mee Lampoih Saka, Kec. Peukan Baro, Kabupaten Pidie, Aceh 24151";"Jl. Bungie, Mee Lampoih Saka, Kec. Peukan Baro, Kabupaten Pidie";"ACEH";"24151";"Indonesia";" 082304156587";"5.3079651";"95.9683423";"https://maps.google.com/?cid=0x0:0x2e9e76445454160e"
"cafe";"cafe";"Aceh 23656";"Kabupaten Aceh Jaya, Aceh";"Kabupaten Aceh Jaya, Aceh";"ACEH";"";"Indonesia";"";"4.9116238";"95.6037465";"https://maps.google.com/?cid=0x0:0x1aed070c2c639dba"
"cafe";"Restoran";"RM Hikmah";"QF7J+VC7, Patek, Kec. Darul Hikmah, Kabupaten Aceh Jaya, Aceh 23656";"Patek, Kec. Darul Hikmah, Kabupaten Aceh Jaya";"ACEH";"23656";"Indonesia";" 081263219480";"4.764664";"95.4810583";"https://maps.google.com/?cid=0x0:0x1e23f168bc6721e5"
"cafe";"Kafe";"Prikitiew Kupi";"RGH7+WV9, Suak Beukah, Kec. Darul Hikmah, Kabupaten Aceh Jaya, Aceh 23656";"Suak Beukah, Kec. Darul Hikmah, Kabupaten Aceh Jaya";"ACEH";"23656";"Indonesia";"";"4.8297877";"95.5147348";"https://maps.google.com/?cid=0x0:0x96291596b7b3980e"
"cafe";"Toko";"Warkop Palak Li";"RGJ6+7WW, desa krung tho, Pajar, Kec. Darul Hikmah, Kabupaten Aceh Jaya, Aceh 23656";"desa krung tho, Pajar, Kec. Darul Hikmah, Kabupaten Aceh Jaya";"ACEH";"23656";"Indonesia";" 085297412771";"4.830729";"95.5123204";"https://maps.google.com/?cid=0x0:0x76e5a5b60e8a87c7"
"cafe";"cafe";"Kheun Hate Premium Coffee";"Simpang Gampong Reuntang (Depan Menasah, Jl. Patek - Krueng Tho, Blang Dalam, Kec. Darul Hikmah, Kabupaten Aceh Jaya, Aceh 23656";"Jl. Patek - Krueng Tho, Blang Dalam, Kec. Darul Hikmah, Kabupaten Aceh Jaya";"ACEH";"23656";"Indonesia";" 08518607780";"4.8063861";"95.5005622";"https://maps.google.com/?cid=0x0:0x78d9bfe3d002cb00"
"cafe";"Kedai Kopi";"Hikmah cofee";"QFQ5+GJJ, Jl. Banda Aceh - Calang, Gampong Baro P, Kec. Darul Hikmah, Kabupaten Aceh Jaya, Aceh 23656";"Jl. Banda Aceh - Calang, Gampong Baro P, Kec. Darul Hikmah, Kabupaten Aceh Jaya";"ACEH";"23656";"Indonesia";"";"4.7888768";"95.4590394";"https://maps.google.com/?cid=0x0:0xdff0b90c13554cf9"
"cafe";"Kafe";"WBC cafe";"Unnamed Road, Padang, Kec. Setia Bakti, Kabupaten Aceh Jaya, Aceh 23656";"Padang, Kec. Setia Bakti, Kabupaten Aceh Jaya";"ACEH";"23656";"Indonesia";" 082267643762";"4.7566405";"95.5484813";"https://maps.google.com/?cid=0x0:0xdf1084f29fc2af5"
"cafe";"Kafe";"Waroeng Apri Puncak";"Jln. Lama Banda Aceh - Meulaboh Gunung Ceuncrang Desa Sawang, Lageun, Kec. Setia Bakti, Kabupaten Aceh Jaya, Aceh 23656";"Lageun, Kec. Setia Bakti, Kabupaten Aceh Jaya";"ACEH";"23656";"Indonesia";" 082277494820";"4.7241984";"95.5092421";"https://maps.google.com/?cid=0x0:0xdeb4dcef311e5590"
"cafe";"Kedai Kopi";"Bakso Makti";"RG85+54G, Jl. Patek - Krueng Tho, Cot Pange, Kec. Darul Hikmah, Kabupaten Aceh Jaya, Aceh 23656";"Jl. Patek - Krueng Tho, Cot Pange, Kec. Darul Hikmah, Kabupaten Aceh Jaya";"ACEH";"23656";"Indonesia";" 085257384245";"4.8085956";"95.4858361";"https://maps.google.com/?cid=0x0:0x8ac50fc4995f3f5f"
"cafe";"Kedai Kopi";"28 Mart";"Pajar, Kec. Darul Hikmah, Kabupaten Aceh Jaya, Aceh 23656";"Kec. Darul Hikmah, Kabupaten Aceh Jaya";"ACEH";"23656";"Indonesia";" 082292037868";"4.8212198";"95.5299952";"https://maps.google.com/?cid=0x0:0x9de14b7226e64a9d"
"cafe";"Kedai Kopi";"Pangkas Cell  Warung Makni";"RG86+R6X, Jl. Patek - Krueng Tho, Cot Pange, Kec. Darul Hikmah, Kabupaten Aceh Jaya, Aceh 23656";"Jl. Patek - Krueng Tho, Cot Pange, Kec. Darul Hikmah, Kabupaten Aceh Jaya";"ACEH";"23656";"Indonesia";" 08126328001";"4.8171242";"95.5105947";"https://maps.google.com/?cid=0x0:0x5807526f1db343ef"
"cafe";"Kedai Kopi";"Theras coffe";"Lamtengoh Suak bekah, Pasar Suak bekah, Kabupaten Aceh Jaya, Aceh 23658";"Pasar Suak bekah, Kabupaten Aceh Jaya";"ACEH";"23658";"Indonesia";" 082386303720";"4.8296335";"95.514951";"https://maps.google.com/?cid=0x0:0xbd5248d11057c911"
"cafe";"Kedai Kopi";"Akang UoN";"QGCM+RG4, Sawang, Kec. Setia Bakti, Kabupaten Aceh Jaya, Aceh 23656";"Sawang, Kec. Setia Bakti, Kabupaten Aceh Jaya";"ACEH";"23656";"Indonesia";"";"4.7720205";"95.5338199";"https://maps.google.com/?cid=0x0:0x7108b1bc1f77631d"
"cafe";"Kedai Kopi";"Yahbit Di Kupi";"Babah Nipah, Kec. Sampoiniet, Kabupaten Aceh Jaya, Aceh 23656";"Kec. Sampoiniet, Kabupaten Aceh Jaya";"ACEH";"23656";"Indonesia";" 085216101199";"4.8270758";"95.4289044";"https://maps.google.com/?cid=0x0:0x48e9e0504084f3aa"
"cafe";"cafe";"Aceh 23653";"Kec. Teunom, Kabupaten Aceh Jaya, Aceh";"Kabupaten Aceh Jaya, Aceh";"ACEH";"";"Indonesia";"";"4.5590872";"95.8775964";"https://maps.google.com/?cid=0x0:0xd1bbc87731e6c060"
"cafe";"Kedai Kopi";"KEUDAI DAN WARUNG ADEEK BULAT";"HWMF+54G, Alue Punti, Kec. Pasie Raya, Kabupaten Aceh Jaya, Aceh 23653";"Alue Punti, Kec. Pasie Raya, Kabupaten Aceh Jaya";"ACEH";"23653";"Indonesia";"";"4.5834058";"95.9230464";"https://maps.google.com/?cid=0x0:0xe7c6cb274e8fd161"
"cafe";"Kafe";"COFFEE 2P COFFEE";"FV96+8XW, Pasi Teubee, Kec. Pasie Raya, Kabupaten Aceh Jaya, Aceh 23653";"Pasi Teubee, Kec. Pasie Raya, Kabupaten Aceh Jaya";"ACEH";"23653";"Indonesia";"";"4.468845";"95.8631694";"https://maps.google.com/?cid=0x0:0x7b50b9c8620194ff"
"cafe";"Kedai Kopi";"Warkop WAROENG KUPHI "NA" RIZQI";"GV2Q+M2F, Pasi Teubee, Kec. Pasie Raya, Kabupaten Aceh Jaya, Aceh 23653";"Pasi Teubee, Kec. Pasie Raya, Kabupaten Aceh Jaya";"ACEH";"23653";"Indonesia";"";"4.5016825";"95.8875522";"https://maps.google.com/?cid=0x0:0xdcef630040ffe2ea"
"cafe";"Kedai Kopi";"WARKOP POJOK UT";"FVXM+GG, Pasi Teubee, Kec. Pasie Raya, Kabupaten Aceh Jaya, Aceh";"Kabupaten Aceh Jaya, Aceh";"ACEH";"";"Indonesia";"";"4.4988785";"95.8838473";"https://maps.google.com/?cid=0x0:0xe7358736374cba77"
"cafe";"Kedai Kopi";"Warkop Botet";"CRX5+PV7, Panton, Kec. Teunom, Kabupaten Aceh Jaya, Aceh 23653";"Panton, Kec. Teunom, Kabupaten Aceh Jaya";"ACEH";"23653";"Indonesia";"";"4.4492978";"95.809682";"https://maps.google.com/?cid=0x0:0x9de1b735618b65e6"
"cafe";"Kedai Kopi";"Kedai Coffee Pak Pen";"FR6V+XX9, Unnamed Road, Rambong Payong, Kec. Pasie Raya, Kabupaten Aceh Jaya, Aceh 23653";"Unnamed Road, Rambong Payong, Kec. Pasie Raya, Kabupaten Aceh Jaya";"ACEH";"23653";"Indonesia";" 085262498999";"4.4624005";"95.8449819";"https://maps.google.com/?cid=0x0:0xda66f1656e33ac33"
"cafe";"Kafe";"WarNet Kopi _ Datar Luas";"Unnamed Road, Keude Krueng Sabee, Kec. Krueng Sabee, Kabupaten Aceh Jaya, Aceh";"Kabupaten Aceh Jaya, Aceh";"ACEH";"";"Indonesia";" 085260817975";"4.6087173";"95.6507197";"https://maps.google.com/?cid=0x0:0xe92b27361c5a7ddf"
"cafe";"Kedai Kopi";"Al Coffeeshop";"FR27+V52, Jl. Meulaboh - Banda Aceh, Padang Kleng, Kec. Teunom, Kabupaten Aceh Jaya, Aceh 23653";"Jl. Meulaboh - Banda Aceh, Padang Kleng, Kec. Teunom, Kabupaten Aceh Jaya";"ACEH";"23653";"Indonesia";" 085260772277";"4.4521296";"95.8129015";"https://maps.google.com/?cid=0x0:0xed25721fb54a2b50"
"cafe";"Kafe";"Warkop. Metro Ponsel";"HWJC+7XF, Unnamed Road, Alue Janh, Alue Punti, Kec. Pasie Raya, Kabupaten Aceh Jaya, Aceh 23653";"Unnamed Road, Alue Janh, Alue Punti, Kec. Pasie Raya, Kabupaten Aceh Jaya";"ACEH";"23653";"Indonesia";" 085260725566";"4.5806874";"95.9224087";"https://maps.google.com/?cid=0x0:0x66e23540012b206f"
"cafe";"Kedai Kopi";"Kide ngoh di";"FVMC+W59, Unnamed Road, Alue Krueng, Kec. Pasie Raya, Kabupaten Aceh Jaya, Aceh 23653";"Unnamed Road, Alue Krueng, Kec. Pasie Raya, Kabupaten Aceh Jaya";"ACEH";"23653";"Indonesia";"";"4.4847923";"95.870496";"https://maps.google.com/?cid=0x0:0x929d11163e90e85e"
"cafe";"Kafe";"WARKOP SIMPANG A2 ALUE JANG";"HWHC+RWR, Alue Jang, Kec. Pasie Raya, Kabupaten Aceh Jaya, Aceh 23653";"Alue Jang, Kec. Pasie Raya, Kabupaten Aceh Jaya";"ACEH";"23653";"Indonesia";" 082362227663";"4.5798556";"95.9223852";"https://maps.google.com/?cid=0x0:0x3034bdfff882663"
"cafe";"Kantor Pemerintah";"desa bintah";"GWXF+8W3, Bintah, Kec. Pasie Raya, Kabupaten Aceh Jaya, Aceh";"Kabupaten Aceh Jaya, Aceh";"ACEH";"";"Indonesia";"";"4.54826";"95.9247997";"https://maps.google.com/?cid=0x0:0x41fa1b06eab604b1"
"cafe";"Kafe";"Warkop Kopi Ie Tubeee Gunong Sp 1";"GVGG+P34, Tuwi Kareung I, Kec. Pasie Raya, Kabupaten Aceh Jaya, Aceh 23653";"Tuwi Kareung I, Kec. Pasie Raya, Kabupaten Aceh Jaya";"ACEH";"23653";"Indonesia";" 082364153614";"4.526765";"95.8751894";"https://maps.google.com/?cid=0x0:0x549e5a7fc246e5c9"
