Category;Real Category;Business Name;Address;City;State;Postal Code;Country;Phone;Latitude;Longitude;Map Link
"toko bangunan";"Toko Perlengkapan Rumah";"Toko Bina Baru";"CRX7+QHH, Jl. Lintas Barat Sumatera, Padang Kleng, Kec. Teunom, Kabupaten Aceh Jaya, Aceh 23653";"Jl. Lintas Barat Sumatera, Padang Kleng, Kec. Teunom, Kabupaten Aceh Jaya";"ACEH";"23653";"Indonesia";"";"4.4494335";"95.8139959";"https://maps.google.com/?cid=0x0:0x25535cd481938555"
"toko bangunan";"toko bangunan";"Aceh 23653";"Kec. Teunom, Kabupaten Aceh Jaya, Aceh";"Kabupaten Aceh Jaya, Aceh";"ACEH";"";"Indonesia";"";"4.5590872";"95.8775964";"https://maps.google.com/?cid=0x0:0xd1bbc87731e6c060"
"toko bangunan";"Kantor Perusahaan";"UD. Mandiri Profil";"Jl. Meulaboh - Banda Aceh, Mon Mata, Kec. Krueng Sabee, Kabupaten Aceh Jaya, Aceh 23654";"Mon Mata, Kec. Krueng Sabee, Kabupaten Aceh Jaya";"ACEH";"23654";"Indonesia";" 081247747655";"4.6076236";"95.6414452";"https://maps.google.com/?cid=0x0:0xb408a897b5f64590"
"toko bangunan";"Toko Bahan Bangunan";"SB_SURYA BARU";"GPR9+939, Jl. Meulaboh - Banda Aceh, Kuta Tuha, Kec. Panga, Kabupaten Aceh Jaya, Aceh 23653";"Jl. Meulaboh - Banda Aceh, Kuta Tuha, Kec. Panga, Kabupaten Aceh Jaya";"ACEH";"23653";"Indonesia";"";"4.5409166";"95.7177197";"https://maps.google.com/?cid=0x0:0x14f59fe1dc346718"
"toko bangunan";"Toko Bahan Bangunan";"Toko Besi Hidup Baru";"JJ5R+3G8, Jl. Meulaboh - Banda Aceh, Mon Mata, Kec. Krueng Sabee, Kabupaten Aceh Jaya, Aceh 23654";"Jl. Meulaboh - Banda Aceh, Mon Mata, Kec. Krueng Sabee, Kabupaten Aceh Jaya";"ACEH";"23654";"Indonesia";" 081397005152";"4.6076502";"95.6413395";"https://maps.google.com/?cid=0x0:0xa53502ee610dfbd3"
"toko bangunan";"Toko Fotokopi";"Foto copy ocean";"CRW7+54F, Keude Teunom, Kec. Teunom, Kabupaten Aceh Jaya, Aceh 23653";"Keude Teunom, Kec. Teunom, Kabupaten Aceh Jaya";"ACEH";"23653";"Indonesia";"";"4.4454369";"95.8128103";"https://maps.google.com/?cid=0x0:0x6fc9805072617711"
"toko bangunan";"Toko";"Toko Tunas Baru Teunom";"CRX7+F9C, Panton, Kec. Teunom, Kabupaten Aceh Jaya, Aceh 23653";"Panton, Kec. Teunom, Kabupaten Aceh Jaya";"ACEH";"23653";"Indonesia";" 085277829450";"4.4486823";"95.8133779";"https://maps.google.com/?cid=0x0:0xfb777344118ae97"
"toko bangunan";"toko bangunan";"Aceh 23654";"Kec. Woyla, Aceh";"Aceh";"ACEH";"";"Indonesia";"";"4.4143635";"96.0255738";"https://maps.google.com/?cid=0x0:0xafd411fd2a1143af"
"toko bangunan";"Toko Bahan Bangunan";"Toko Besi Awak Droe";"JJ3W+J4W, Keude Krueng Sabee, Kec. Krueng Sabee, Kabupaten Aceh Jaya, Aceh 23654";"Keude Krueng Sabee, Kec. Krueng Sabee, Kabupaten Aceh Jaya";"ACEH";"23654";"Indonesia";" 081360510965";"4.6041024";"95.6453393";"https://maps.google.com/?cid=0x0:0xb66ca6e6cbfef042"
"toko bangunan";"Kantor Perusahaan";"UD. Mandiri Profil";"Jl. Meulaboh - Banda Aceh, Mon Mata, Kec. Krueng Sabee, Kabupaten Aceh Jaya, Aceh 23654";"Mon Mata, Kec. Krueng Sabee, Kabupaten Aceh Jaya";"ACEH";"23654";"Indonesia";" 081247747655";"4.6076236";"95.6414452";"https://maps.google.com/?cid=0x0:0xb408a897b5f64590"
"toko bangunan";"Toko Bahan Bangunan";"SB_SURYA BARU";"GPR9+939, Jl. Meulaboh - Banda Aceh, Kuta Tuha, Kec. Panga, Kabupaten Aceh Jaya, Aceh 23653";"Jl. Meulaboh - Banda Aceh, Kuta Tuha, Kec. Panga, Kabupaten Aceh Jaya";"ACEH";"23653";"Indonesia";"";"4.5409166";"95.7177197";"https://maps.google.com/?cid=0x0:0x14f59fe1dc346718"
"toko bangunan";"Toko";"CV. Jaya Usaha";"JJ8F+3JQ, Jl. Meulaboh - Banda Aceh, Padang Datar, Kec. Krueng Sabee, Kabupaten Aceh Jaya, Aceh 23654";"Jl. Meulaboh - Banda Aceh, Padang Datar, Kec. Krueng Sabee, Kabupaten Aceh Jaya";"ACEH";"23654";"Indonesia";"";"4.6145085";"95.625109";"https://maps.google.com/?cid=0x0:0x5e5d3ce1854fad22"
"toko bangunan";"Toko Bahan Bangunan";"UD Bangun Perdana";"85FM+9W7 gunong meuh, Jl. Geumpang - Tutut, Alue Lhok, Kec. Kaway XVI, Kabupaten Aceh Barat, Aceh 23681";"Jl. Geumpang - Tutut, Alue Lhok, Kec. Kaway XVI, Kabupaten Aceh Barat";"ACEH";"23681";"Indonesia";"";"4.3231812";"96.1846772";"https://maps.google.com/?cid=0x0:0x8a6c03f23f41e57f"
"toko bangunan";"Toko Bahan Bangunan";"TokoBahan Bangunan";"82XM+QVP, Unnamed Road, Padang Jawa, Kec. Woyla, Kabupaten Aceh Barat, Aceh 23654";"Unnamed Road, Padang Jawa, Kec. Woyla, Kabupaten Aceh Barat";"ACEH";"23654";"Indonesia";" 081361595202";"4.349456";"96.0347072";"https://maps.google.com/?cid=0x0:0xec79ac47fe4e1ed1"
"toko bangunan";"Toko Bahan Bangunan";"Toko Besi Usaha Riza Famili";"82XM+PRC, Unnamed Road, Padang Jawa, Kec. Woyla, Kabupaten Aceh Barat, Aceh 23654";"Unnamed Road, Padang Jawa, Kec. Woyla, Kabupaten Aceh Barat";"ACEH";"23654";"Indonesia";" 081361595202";"4.3493008";"96.0345212";"https://maps.google.com/?cid=0x0:0x8de05044474f1df7"
"toko bangunan";"Toko";"UD. MIH JAYA";"8XJ3+XRW, Unnamed Road, Simpang Peut, Kec. Arongan Lambalek, Kabupaten Aceh Barat, Aceh 23652";"Unnamed Road, Simpang Peut, Kec. Arongan Lambalek, Kabupaten Aceh Barat";"ACEH";"23652";"Indonesia";" 085260902505";"4.3324824";"95.9545724";"https://maps.google.com/?cid=0x0:0x3aaa6fa6b24c919f"
"toko bangunan";"Pusat Perbelanjaan";"Sultan Swalayan";"JHMJ+9VM, Bahagia, Kec. Krueng Sabee, Kabupaten Aceh Jaya, Aceh 23655";"Bahagia, Kec. Krueng Sabee, Kabupaten Aceh Jaya";"ACEH";"23655";"Indonesia";"";"4.6334702";"95.5821661";"https://maps.google.com/?cid=0x0:0x7a08d32add1be3b4"
"toko bangunan";"Toko Bahan Bangunan";"toko bangunan beuna jaya";"Bangkeh, Kec. Geumpang, Kabupaten Pidie, Aceh 24186";"Kec. Geumpang, Kabupaten Pidie";"ACEH";"24186";"Indonesia";" 082353274322";"4.8474143";"96.1241671";"https://maps.google.com/?cid=0x0:0xae05d3a8c0fbbe19"
"toko bangunan";"Toko Bahan Bangunan";"TOKO BANGUNAN HIDAYAH";"85RM+9FC, Padang Sikabu, Kec. Kaway XVI, Kabupaten Aceh Barat, Aceh 23681";"Padang Sikabu, Kec. Kaway XVI, Kabupaten Aceh Barat";"ACEH";"23681";"Indonesia";" 085260875358";"4.3409422";"96.1836455";"https://maps.google.com/?cid=0x0:0xd9810d90677391d4"
"toko bangunan";"Toko Perlengkapan Rumah";"Toko Bina Baru";"CRX7+QHH, Jl. Lintas Barat Sumatera, Padang Kleng, Kec. Teunom, Kabupaten Aceh Jaya, Aceh 23653";"Jl. Lintas Barat Sumatera, Padang Kleng, Kec. Teunom, Kabupaten Aceh Jaya";"ACEH";"23653";"Indonesia";"";"4.4494335";"95.8139959";"https://maps.google.com/?cid=0x0:0x25535cd481938555"
"toko bangunan";"Toko Bahan Bangunan";"5 UTAMA";"SP TUGU BPD, Jl. Meulaboh - Banda Aceh, Dayah Baro, Kec. Krueng Sabee, Kabupaten Aceh Jaya, Aceh 23655";"Jl. Meulaboh - Banda Aceh, Dayah Baro, Kec. Krueng Sabee, Kabupaten Aceh Jaya";"ACEH";"23655";"Indonesia";" 085260658707";"4.6409785";"95.5900672";"https://maps.google.com/?cid=0x0:0x10bd2e61d76cd5af"
"toko bangunan";"Toko Bahan Bangunan";"Toko Besi Awak Droe";"JJ3W+J4W, Keude Krueng Sabee, Kec. Krueng Sabee, Kabupaten Aceh Jaya, Aceh 23654";"Keude Krueng Sabee, Kec. Krueng Sabee, Kabupaten Aceh Jaya";"ACEH";"23654";"Indonesia";" 081360510965";"4.6041024";"95.6453393";"https://maps.google.com/?cid=0x0:0xb66ca6e6cbfef042"
"toko bangunan";"toko bangunan";"Aceh 23655";"Kec. Setia Bakti, Kabupaten Aceh Jaya, Aceh";"Kabupaten Aceh Jaya, Aceh";"ACEH";"";"Indonesia";"";"4.7457854";"95.6878736";"https://maps.google.com/?cid=0x0:0x52d192e4749e2bd4"
"toko bangunan";"Toko Bahan Bangunan";"5 UTAMA";"SP TUGU BPD, Jl. Meulaboh - Banda Aceh, Dayah Baro, Kec. Krueng Sabee, Kabupaten Aceh Jaya, Aceh 23655";"Jl. Meulaboh - Banda Aceh, Dayah Baro, Kec. Krueng Sabee, Kabupaten Aceh Jaya";"ACEH";"23655";"Indonesia";" 085260658707";"4.6409785";"95.5900672";"https://maps.google.com/?cid=0x0:0x10bd2e61d76cd5af"
"toko bangunan";"Kantor Perusahaan";"UD. Mandiri Profil";"Jl. Meulaboh - Banda Aceh, Mon Mata, Kec. Krueng Sabee, Kabupaten Aceh Jaya, Aceh 23654";"Mon Mata, Kec. Krueng Sabee, Kabupaten Aceh Jaya";"ACEH";"23654";"Indonesia";" 081247747655";"4.6076236";"95.6414452";"https://maps.google.com/?cid=0x0:0xb408a897b5f64590"
"toko bangunan";"Toko";"CV. Jaya Usaha";"JJ8F+3JQ, Jl. Meulaboh - Banda Aceh, Padang Datar, Kec. Krueng Sabee, Kabupaten Aceh Jaya, Aceh 23654";"Jl. Meulaboh - Banda Aceh, Padang Datar, Kec. Krueng Sabee, Kabupaten Aceh Jaya";"ACEH";"23654";"Indonesia";"";"4.6145085";"95.625109";"https://maps.google.com/?cid=0x0:0x5e5d3ce1854fad22"
"toko bangunan";"Toko Perlengkapan Rumah";"Toko Bina Baru";"CRX7+QHH, Jl. Lintas Barat Sumatera, Padang Kleng, Kec. Teunom, Kabupaten Aceh Jaya, Aceh 23653";"Jl. Lintas Barat Sumatera, Padang Kleng, Kec. Teunom, Kabupaten Aceh Jaya";"ACEH";"23653";"Indonesia";"";"4.4494335";"95.8139959";"https://maps.google.com/?cid=0x0:0x25535cd481938555"
"toko bangunan";"toko bangunan";"Toko Bangunan AA Baru Rigaih";"MH73+237, Jl. Meulaboh - Banda Aceh, Moulaboh, Rigah, Kec. Setia Bakti, Kabupaten Aceh Jaya, Aceh";"Kabupaten Aceh Jaya, Aceh";"ACEH";"";"Indonesia";"";"4.6625265";"95.5526679";"https://maps.google.com/?cid=0x0:0x422e6cd946102a4"
"toko bangunan";"Toko Bahan Bangunan";"Zahra Bangunan";"Jl. Dr. Mr. Mohd Hasan, Batoh, Kec. Lueng Bata, Kota Banda Aceh, Aceh 23127";"Batoh, Kec. Lueng Bata, Kota Banda Aceh";"ACEH";"23127";"Indonesia";" 083191742636";"5.5425651";"95.3305542";"https://maps.google.com/?cid=0x0:0x9785538145c2ac3"
"toko bangunan";"Toko Bahan Bangunan";"SB_SURYA BARU";"GPR9+939, Jl. Meulaboh - Banda Aceh, Kuta Tuha, Kec. Panga, Kabupaten Aceh Jaya, Aceh 23653";"Jl. Meulaboh - Banda Aceh, Kuta Tuha, Kec. Panga, Kabupaten Aceh Jaya";"ACEH";"23653";"Indonesia";"";"4.5409166";"95.7177197";"https://maps.google.com/?cid=0x0:0x14f59fe1dc346718"
"toko bangunan";"Pusat Perbelanjaan";"Sultan Swalayan";"JHMJ+9VM, Bahagia, Kec. Krueng Sabee, Kabupaten Aceh Jaya, Aceh 23655";"Bahagia, Kec. Krueng Sabee, Kabupaten Aceh Jaya";"ACEH";"23655";"Indonesia";"";"4.6334702";"95.5821661";"https://maps.google.com/?cid=0x0:0x7a08d32add1be3b4"
"toko bangunan";"Toko Bahan Bangunan";"Toko Bangunan Mudah Rezeki";"7XGH+VWJ, Jl. Medan - Banda Aceh, Baro Yaman, Kec. Mutiara, Kabupaten Pidie, Aceh 24186";"Jl. Medan - Banda Aceh, Baro Yaman, Kec. Mutiara, Kabupaten Pidie";"ACEH";"24186";"Indonesia";" 081269110111";"5.2772135";"95.9797531";"https://maps.google.com/?cid=0x0:0x35c5fb47563cbc1d"
"toko bangunan";"Toko Bahan Bangunan";"SULTAN JAYA(TOKO BANGUNAN)";"Jl. Bandara Sultan Iskandar Muda, Ajee Cut, Kec. Ingin Jaya, Kabupaten Aceh Besar, Aceh 24411";"Ajee Cut, Kec. Ingin Jaya, Kabupaten Aceh Besar";"ACEH";"24411";"Indonesia";" 085362992535";"5.510563";"95.3880613";"https://maps.google.com/?cid=0x0:0xaa81de74e089cb09"
"toko bangunan";"Toko Bahan Bangunan";"Toko Bangunan Dayah Ulee titi";"GC52+M3R, Jl. Bandara SIM, pasie lamgarot, Kec. Blang Bintang, Kabupaten Aceh Besar, Aceh 24451";"Jl. Bandara SIM, pasie lamgarot, Kec. Blang Bintang, Kabupaten Aceh Besar";"ACEH";"24451";"Indonesia";" 085210561423";"5.5092413";"95.4001541";"https://maps.google.com/?cid=0x0:0x889da3c2f9b63d94"
"toko bangunan";"Toko Bahan Bangunan";"toko bangunan beuna jaya";"Bangkeh, Kec. Geumpang, Kabupaten Pidie, Aceh 24186";"Kec. Geumpang, Kabupaten Pidie";"ACEH";"24186";"Indonesia";" 082353274322";"4.8474143";"96.1241671";"https://maps.google.com/?cid=0x0:0xae05d3a8c0fbbe19"
"toko bangunan";"toko bangunan";"Aceh 23656";"Kabupaten Aceh Jaya, Aceh";"Kabupaten Aceh Jaya, Aceh";"ACEH";"";"Indonesia";"";"4.9116238";"95.6037465";"https://maps.google.com/?cid=0x0:0x1aed070c2c639dba"
"toko bangunan";"Toko Bahan Bangunan";"UD. Puga Jaya (Toko Bahan Bangunan Bang Adek)";"H983+87W, Jl. Kebun Raja, Lamgugob, Kec. Syiah Kuala, Kota Banda Aceh, Aceh";"Kota Banda Aceh, Aceh";"ACEH";"";"Indonesia";"";"5.5658619";"95.353211";"https://maps.google.com/?cid=0x0:0xc2f7cb214e7565be"
"toko bangunan";"toko bangunan";"UD. Fathyya Fathir";"RGJ8+338, Lam Teungoh, Kec. Darul Hikmah, Kabupaten Aceh Jaya, Aceh 23656";"Lam Teungoh, Kec. Darul Hikmah, Kabupaten Aceh Jaya";"ACEH";"23656";"Indonesia";" 085260049695";"4.830156";"95.5151922";"https://maps.google.com/?cid=0x0:0x241878ea04e1e445"
"toko bangunan";"toko bangunan";"SULTAN TOKO BANGUNAN";"JHMJ+HV7, Sentosa, Kec. Krueng Sabee, Kabupaten Aceh Jaya, Aceh 23654";"Sentosa, Kec. Krueng Sabee, Kabupaten Aceh Jaya";"ACEH";"23654";"Indonesia";"";"4.633889";"95.5822205";"https://maps.google.com/?cid=0x0:0x23bdf3bd5b227e7e"
"toko bangunan";"Toko Bahan Bangunan";"SULTAN JAYA(TOKO BANGUNAN)";"Jl. Bandara Sultan Iskandar Muda, Ajee Cut, Kec. Ingin Jaya, Kabupaten Aceh Besar, Aceh 24411";"Ajee Cut, Kec. Ingin Jaya, Kabupaten Aceh Besar";"ACEH";"24411";"Indonesia";" 085362992535";"5.510563";"95.3880613";"https://maps.google.com/?cid=0x0:0xaa81de74e089cb09"
"toko bangunan";"Toko Bahan Bangunan";"Toko Bangunan Seuneulop Baru";"FCP3+W3Q, Jl. Montasik - Blang Bintang, Mata Ie, Kec. Montasik, Kabupaten Aceh Besar, Aceh 23373";"Jl. Montasik - Blang Bintang, Mata Ie, Kec. Montasik, Kabupaten Aceh Besar";"ACEH";"23373";"Indonesia";" 085206559598";"5.4873343";"95.4027437";"https://maps.google.com/?cid=0x0:0xcfe5fbadf130e482"
"toko bangunan";"Toko Bahan Bangunan";"Toko Bangunan M. Zubaili";"Jl. Tgk. Glee Iniem No.1, Tungkob, Kec. Darussalam, Kabupaten Aceh Besar, Aceh 23373";"Tungkob, Kec. Darussalam, Kabupaten Aceh Besar";"ACEH";"23373";"Indonesia";" 085260067265";"5.5698462";"95.38426";"https://maps.google.com/?cid=0x0:0x916331985aff5682"
"toko bangunan";"Toko Bahan Bangunan";"TOKO DAMAI INDAH BANGUNAN";"G7MH+249, Payatieng, Kec. Peukan Bada, Kabupaten Aceh Besar, Aceh";"Kabupaten Aceh Besar, Aceh";"ACEH";"";"Indonesia";" 085364882222";"5.5325367";"95.2778479";"https://maps.google.com/?cid=0x0:0xb23e4cea3a78f7c"
"toko bangunan";"Gudang";"Meuligoe Bangunan";"4VJP+M7M, Beungga, Kec. Tangse, Kabupaten Pidie, Aceh 24165";"Beungga, Kec. Tangse, Kabupaten Pidie";"ACEH";"24165";"Indonesia";"";"5.1317175";"95.8856637";"https://maps.google.com/?cid=0x0:0xb432fde1e0b64f7e"
"toko bangunan";"Toko Bahan Bangunan";"Toko Besi Awak Droe";"JJ3W+J4W, Keude Krueng Sabee, Kec. Krueng Sabee, Kabupaten Aceh Jaya, Aceh 23654";"Keude Krueng Sabee, Kec. Krueng Sabee, Kabupaten Aceh Jaya";"ACEH";"23654";"Indonesia";" 081360510965";"4.6041024";"95.6453393";"https://maps.google.com/?cid=0x0:0xb66ca6e6cbfef042"
"toko bangunan";"Toko Bahan Bangunan";"Zahra Bangunan";"Jl. Dr. Mr. Mohd Hasan, Batoh, Kec. Lueng Bata, Kota Banda Aceh, Aceh 23127";"Batoh, Kec. Lueng Bata, Kota Banda Aceh";"ACEH";"23127";"Indonesia";" 083191742636";"5.5425651";"95.3305542";"https://maps.google.com/?cid=0x0:0x9785538145c2ac3"
"toko bangunan";"Toko Bahan Bangunan";"RIZQI JAYA";"39R7+M2W, Bak Paoh, Jaya, Kabupaten Aceh Jaya, Aceh 23657";"Bak Paoh, Jaya, Kabupaten Aceh Jaya";"ACEH";"23657";"Indonesia";" 085261909078";"5.0917483";"95.3625629";"https://maps.google.com/?cid=0x0:0x3f10ee5077e1ea79"
"toko bangunan";"Toko Bahan Bangunan";"Rajin Usaha";"39J5+RGM, Leupe, Jaya, Kabupaten Aceh Jaya, Aceh 23657";"Leupe, Jaya, Kabupaten Aceh Jaya";"ACEH";"23657";"Indonesia";" 085260497394";"5.0820836";"95.3587876";"https://maps.google.com/?cid=0x0:0x4c9a0545d8ce0388"
"toko bangunan";"Toko Bahan Bangunan";"Sumber Setia";"JVF2+Q23, Bale Atu, Kec. Lut Tawar, Kabupaten Aceh Tengah, Aceh 24519";"Bale Atu, Kec. Lut Tawar, Kabupaten Aceh Tengah";"ACEH";"24519";"Indonesia";" 082364674462";"4.6243912";"96.8500313";"https://maps.google.com/?cid=0x0:0x807a7be40545f85e"
"toko bangunan";"toko bangunan";"Aceh 23657";"Kabupaten Aceh Jaya, Aceh";"Kabupaten Aceh Jaya, Aceh";"ACEH";"";"Indonesia";"";"5.0787006";"95.435853";"https://maps.google.com/?cid=0x0:0x3ad6a5bdfe2df870"
"toko bangunan";"Toko Bahan Bangunan";"RIZQI JAYA";"39R7+M2W, Bak Paoh, Jaya, Kabupaten Aceh Jaya, Aceh 23657";"Bak Paoh, Jaya, Kabupaten Aceh Jaya";"ACEH";"23657";"Indonesia";" 085261909078";"5.0917483";"95.3625629";"https://maps.google.com/?cid=0x0:0x3f10ee5077e1ea79"
"toko bangunan";"Toko Bahan Bangunan";"Toko bangun jaya 2";"39Q7+2X9, Meunasah Weh, Jaya, Kabupaten Aceh Jaya, Aceh 23657";"Meunasah Weh, Jaya, Kabupaten Aceh Jaya";"ACEH";"23657";"Indonesia";"";"5.0875305";"95.364993";"https://maps.google.com/?cid=0x0:0xfce91d5a907cf64"
"toko bangunan";"Toko Bahan Bangunan";"Toko bangun jaya 1";"Meunasah Weh, Jaya, Kabupaten Aceh Jaya, Aceh 23657";"Jaya, Kabupaten Aceh Jaya";"ACEH";"23657";"Indonesia";" 081269666662";"5.0845213";"95.3629516";"https://maps.google.com/?cid=0x0:0x374a1246dc94d268"
"toko bangunan";"Toko Bahan Bangunan";"toko bangunan TERATAI JAYA";"H9H2+MJ3, Jl. Teuku Nyak Arief, Jeulingke, Kec. Syiah Kuala, Kota Banda Aceh, Aceh 23114";"Jl. Teuku Nyak Arief, Jeulingke, Kec. Syiah Kuala, Kota Banda Aceh";"ACEH";"23114";"Indonesia";"";"5.5791255";"95.3515394";"https://maps.google.com/?cid=0x0:0x1f49c2a470f4d9bd"
"toko bangunan";"Toko Bahan Bangunan";"Arviza Keramik";"Jl. Pocut Baren No.18A, Nusa, Jaya, Kabupaten Aceh Jaya, Aceh 23657";"Nusa, Jaya, Kabupaten Aceh Jaya";"ACEH";"23657";"Indonesia";" 065126322";"5.070233";"95.325512";"https://maps.google.com/?cid=0x0:0xb9d5e21962ed567b"
"toko bangunan";"Toko Bahan Bangunan";"SULTAN JAYA(TOKO BANGUNAN)";"Jl. Bandara Sultan Iskandar Muda, Ajee Cut, Kec. Ingin Jaya, Kabupaten Aceh Besar, Aceh 24411";"Ajee Cut, Kec. Ingin Jaya, Kabupaten Aceh Besar";"ACEH";"24411";"Indonesia";" 085362992535";"5.510563";"95.3880613";"https://maps.google.com/?cid=0x0:0xaa81de74e089cb09"
"toko bangunan";"Toko Bahan Bangunan";"Zahara Jaya";"H838+29W, Kp. Baru, Kec. Baiturrahman, Kota Banda Aceh, Aceh 23116";"Kp. Baru, Kec. Baiturrahman, Kota Banda Aceh";"ACEH";"23116";"Indonesia";" 065123718";"5.5526101";"95.3159489";"https://maps.google.com/?cid=0x0:0xef4ab7341c24f4b0"
"toko bangunan";"Toko Cat";"Sumber Jaya";"G9X5+V96, Jl. Teuku Iskandar, Ceurih, Kec. Ulee Kareng, Kota Banda Aceh, Aceh 24451";"Jl. Teuku Iskandar, Ceurih, Kec. Ulee Kareng, Kota Banda Aceh";"ACEH";"24451";"Indonesia";" 085277204222";"5.5496747";"95.3583869";"https://maps.google.com/?cid=0x0:0x7c4e2bc396e6c120"
"toko bangunan";"Toko Bahan Bangunan";"Zahra Bangunan";"Jl. Dr. Mr. Mohd Hasan, Batoh, Kec. Lueng Bata, Kota Banda Aceh, Aceh 23127";"Batoh, Kec. Lueng Bata, Kota Banda Aceh";"ACEH";"23127";"Indonesia";" 083191742636";"5.5425651";"95.3305542";"https://maps.google.com/?cid=0x0:0x9785538145c2ac3"
"toko bangunan";"Toko Bahan Bangunan";"Keudee Bangunan";"Lampenerat, JL. Doktor Insiyur Teuku Muhammad Hasan, No. 6, Aceh Besar, Alue Mie, Banda Aceh, Kabupaten Aceh Jaya, Aceh 23657";"JL. Doktor Insiyur Teuku Muhammad Hasan, No. 6, Aceh Besar, Alue Mie, Banda Aceh, Kabupaten Aceh Jaya";"ACEH";"23657";"Indonesia";" 082160111000";"5.067412";"95.343751";"https://maps.google.com/?cid=0x0:0xfdda38066da60d71"
"toko bangunan";"Toko Bahan Bangunan";"Toko Fitrah Jaya Bangunan";"G739+GGF, Beradeun, Kec. Peukan Bada, Kabupaten Aceh Besar, Aceh 23353";"Beradeun, Kec. Peukan Bada, Kabupaten Aceh Besar";"ACEH";"23353";"Indonesia";" 085361525061";"5.5033608";"95.268695";"https://maps.google.com/?cid=0x0:0xa055ff9eb051d572"
"toko bangunan";"Toko Bahan Bangunan";"Toko Bangunan Pacific Jaya";"62R4+5VM, Paloh Lada, Kec. Dewantara, Kabupaten Aceh Utara, Aceh";"Kabupaten Aceh Utara, Aceh";"ACEH";"";"Indonesia";"";"5.2404522";"97.0071786";"https://maps.google.com/?cid=0x0:0xb01dad4468be43c1"
"toko bangunan";"Kontraktor Atap";"Kanopi murah dan berkualitas";"Babah Krueng, lamno, Kabupaten Aceh Jaya, Aceh 23657";"lamno, Kabupaten Aceh Jaya";"ACEH";"23657";"Indonesia";" 082316081820";"5.0912046";"95.3773723";"https://maps.google.com/?cid=0x0:0x8bd3f72af539685d"
"toko bangunan";"Toko Bahan Bangunan";"RIZQI JAYA";"39R7+M2W, Bak Paoh, Jaya, Kabupaten Aceh Jaya, Aceh 23657";"Bak Paoh, Jaya, Kabupaten Aceh Jaya";"ACEH";"23657";"Indonesia";" 085261909078";"5.0917483";"95.3625629";"https://maps.google.com/?cid=0x0:0x3f10ee5077e1ea79"
"toko bangunan";"toko bangunan";"Kec. Indra Jaya";"Kabupaten Aceh Jaya, Aceh";"Kabupaten Aceh Jaya, Aceh";"ACEH";"";"Indonesia";"";"5.0632418";"95.3386622";"https://maps.google.com/?cid=0x0:0x9bf6e49fb0e9adcc"
"toko bangunan";"Toko Bahan Bangunan";"Toko bangun jaya 2";"39Q7+2X9, Meunasah Weh, Jaya, Kabupaten Aceh Jaya, Aceh 23657";"Meunasah Weh, Jaya, Kabupaten Aceh Jaya";"ACEH";"23657";"Indonesia";"";"5.0875305";"95.364993";"https://maps.google.com/?cid=0x0:0xfce91d5a907cf64"
"toko bangunan";"Toko Bahan Bangunan";"Toko bangun jaya 1";"Meunasah Weh, Jaya, Kabupaten Aceh Jaya, Aceh 23657";"Jaya, Kabupaten Aceh Jaya";"ACEH";"23657";"Indonesia";" 081269666662";"5.0845213";"95.3629516";"https://maps.google.com/?cid=0x0:0x374a1246dc94d268"
"toko bangunan";"Toko Bahan Bangunan";"Arviza Keramik";"Jl. Pocut Baren No.18A, Nusa, Jaya, Kabupaten Aceh Jaya, Aceh 23657";"Nusa, Jaya, Kabupaten Aceh Jaya";"ACEH";"23657";"Indonesia";" 065126322";"5.070233";"95.325512";"https://maps.google.com/?cid=0x0:0xb9d5e21962ed567b"
"toko bangunan";"Toko Bahan Bangunan";"Zahra Bangunan";"Jl. Dr. Mr. Mohd Hasan, Batoh, Kec. Lueng Bata, Kota Banda Aceh, Aceh 23127";"Batoh, Kec. Lueng Bata, Kota Banda Aceh";"ACEH";"23127";"Indonesia";" 083191742636";"5.5425651";"95.3305542";"https://maps.google.com/?cid=0x0:0x9785538145c2ac3"
"toko bangunan";"Toko Bahan Bangunan";"Keudee Bangunan";"Lampenerat, JL. Doktor Insiyur Teuku Muhammad Hasan, No. 6, Aceh Besar, Alue Mie, Banda Aceh, Kabupaten Aceh Jaya, Aceh 23657";"JL. Doktor Insiyur Teuku Muhammad Hasan, No. 6, Aceh Besar, Alue Mie, Banda Aceh, Kabupaten Aceh Jaya";"ACEH";"23657";"Indonesia";" 082160111000";"5.067412";"95.343751";"https://maps.google.com/?cid=0x0:0xfdda38066da60d71"
"toko bangunan";"Kontraktor Atap";"Kanopi murah dan berkualitas";"Babah Krueng, lamno, Kabupaten Aceh Jaya, Aceh 23657";"lamno, Kabupaten Aceh Jaya";"ACEH";"23657";"Indonesia";" 082316081820";"5.0912046";"95.3773723";"https://maps.google.com/?cid=0x0:0x8bd3f72af539685d"
"toko bangunan";"Bengkel Mobil";"Service Radiator Bak Sukun da Asah Batu Cincin Permata";"JL. Teungku Imum Leung Bata, No. 206, Panteriek, Keude Unga, Banda Aceh, Kabupaten Aceh Jaya, Aceh 23657";"No. 206, Panteriek, Keude Unga, Banda Aceh, Kabupaten Aceh Jaya";"ACEH";"23657";"Indonesia";" 085226579943";"5.036572";"95.361808";"https://maps.google.com/?cid=0x0:0xe1a7679620b284ca"
"toko bangunan";"";"Abadi Alumunium";"393H+9FF, Meudang Ghon, Kec. Indra Jaya, Kabupaten Aceh Jaya, Aceh 23657";"Meudang Ghon, Kec. Indra Jaya, Kabupaten Aceh Jaya";"ACEH";"23657";"Indonesia";" 0651635547";"5.053428";"95.378661";"https://maps.google.com/?cid=0x0:0x1291670aff1e1bc0"
"toko bangunan";"Toko Bahan Bangunan";"UD. Puga Jaya (Toko Bahan Bangunan Bang Adek)";"H983+87W, Jl. Kebun Raja, Lamgugob, Kec. Syiah Kuala, Kota Banda Aceh, Aceh";"Kota Banda Aceh, Aceh";"ACEH";"";"Indonesia";"";"5.5658619";"95.353211";"https://maps.google.com/?cid=0x0:0xc2f7cb214e7565be"
"toko bangunan";"Toko Bahan Bangunan";"SULTAN JAYA(TOKO BANGUNAN)";"Jl. Bandara Sultan Iskandar Muda, Ajee Cut, Kec. Ingin Jaya, Kabupaten Aceh Besar, Aceh 24411";"Ajee Cut, Kec. Ingin Jaya, Kabupaten Aceh Besar";"ACEH";"24411";"Indonesia";" 085362992535";"5.510563";"95.3880613";"https://maps.google.com/?cid=0x0:0xaa81de74e089cb09"
"toko bangunan";"Toko Bahan Bangunan";"Makmur Jaya Bangunan";"Jl. Simpang Rima-Ulee Lheue no. 10, Desa, Lamgeu-Eu, Kec. Peukan Bada, Kabupaten Aceh Besar, Aceh";"Kabupaten Aceh Besar, Aceh";"ACEH";"";"Indonesia";" 081360602703";"5.5307086";"95.2746564";"https://maps.google.com/?cid=0x0:0xab17f524489f822b"
"toko bangunan";"Toko Cat";"Sumber Jaya";"G9X5+V96, Jl. Teuku Iskandar, Ceurih, Kec. Ulee Kareng, Kota Banda Aceh, Aceh 24451";"Jl. Teuku Iskandar, Ceurih, Kec. Ulee Kareng, Kota Banda Aceh";"ACEH";"24451";"Indonesia";" 085277204222";"5.5496747";"95.3583869";"https://maps.google.com/?cid=0x0:0x7c4e2bc396e6c120"
"toko bangunan";"toko bangunan";"Kec. Indra Jaya";"Kabupaten Pidie, Aceh";"Kabupaten Pidie, Aceh";"ACEH";"";"Indonesia";"";"5.3162867";"95.9602464";"https://maps.google.com/?cid=0x0:0xcceede14e8e3d2e3"
"toko bangunan";"Toko Bahan Bangunan";"Toko Bangunan Bina Sabena";"Keubang, Kec. Indra Jaya, Kabupaten Pidie, Aceh 24183";"Kec. Indra Jaya, Kabupaten Pidie";"ACEH";"24183";"Indonesia";" 081317013239";"5.3264888";"95.9221148";"https://maps.google.com/?cid=0x0:0x95305576d5d18f3a"
"toko bangunan";"Toko Bahan Bangunan";"Tuah Mata";"Di depan Mesjid Taqwa, JLN. Medan-Banda Aceh, Lampoh Saka, KM. 8, Kec. Peukan Baro, Aceh 24172";"JLN. Medan-Banda Aceh, Lampoh Saka, KM. 8, Kec. Peukan Baro";"ACEH";"24172";"Indonesia";" 081269075098";"5.3076256";"95.963832";"https://maps.google.com/?cid=0x0:0xb77f52f93a38bb5b"
"toko bangunan";"Toko bahan makanan";"Toko bangunan sabee jaya";"Jl. Medan - Banda Aceh, Meunasah Lueng Bambi, Kec. Peukan Baro, Kabupaten Pidie, Aceh 24172";"Meunasah Lueng Bambi, Kec. Peukan Baro, Kabupaten Pidie";"ACEH";"24172";"Indonesia";"";"5.3420507";"95.9639569";"https://maps.google.com/?cid=0x0:0xa96e122d70497825"
"toko bangunan";"Toko";"Toko Bahan Bangunan Siha Baru";"JALAN TEUBENG, Tijue, Kec. Pidie, Kabupaten Pidie, Aceh 24151";"Tijue, Kec. Pidie, Kabupaten Pidie";"ACEH";"24151";"Indonesia";"";"5.3578292";"95.9604301";"https://maps.google.com/?cid=0x0:0x47709ff6cfea92a6"
"toko bangunan";"Toko Perlengkapan Rumah";"Toko Bahan Bangunan Indah Warna";"7XQC+X9V, Blang Lileue, Kec. Mutiara, Kabupaten Pidie, Aceh 24151";"Blang Lileue, Kec. Mutiara, Kabupaten Pidie";"ACEH";"24151";"Indonesia";"";"5.2896524";"95.970922";"https://maps.google.com/?cid=0x0:0xe5e998d92e92f0ea"
"toko bangunan";"Toko Bahan Bangunan";"Toko Bangunan Mudah Rezeki";"7XGH+VWJ, Jl. Medan - Banda Aceh, Baro Yaman, Kec. Mutiara, Kabupaten Pidie, Aceh 24186";"Jl. Medan - Banda Aceh, Baro Yaman, Kec. Mutiara, Kabupaten Pidie";"ACEH";"24186";"Indonesia";" 081269110111";"5.2772135";"95.9797531";"https://maps.google.com/?cid=0x0:0x35c5fb47563cbc1d"
"toko bangunan";"Toko Bahan Bangunan";"Toko Bangunan Pulo Rahmat";"8XQ9+J3W, Balee Rastong, Kec. Peukan Baro, Kabupaten Pidie, Aceh 24164";"Balee Rastong, Kec. Peukan Baro, Kabupaten Pidie";"ACEH";"24164";"Indonesia";" 082369898036";"5.3389616";"95.9677126";"https://maps.google.com/?cid=0x0:0xafcdd465f1171fa1"
"toko bangunan";"Pusat Perbelanjaan";"Asia Utama Beureunuen";"Jl. Medan - Banda Aceh, Beureunuen, Blang Lileue, Kec. Mutiara, Kabupaten Pidie, Aceh 24173";"Beureunuen, Blang Lileue, Kec. Mutiara, Kabupaten Pidie";"ACEH";"24173";"Indonesia";" 085270448445";"5.2884393";"95.9717897";"https://maps.google.com/?cid=0x0:0xc070ae80ed4eef5c"
"toko bangunan";"Toko";"Toko Bangunan Baru Mandiri";"7WCG+5QH, Jl. Jabal Ghafur, Lameue Mns Raya, Kec. Sakti, Kabupaten Pidie, Aceh 24181";"Jl. Jabal Ghafur, Lameue Mns Raya, Kec. Sakti, Kabupaten Pidie";"ACEH";"24181";"Indonesia";"";"5.2704442";"95.9269742";"https://maps.google.com/?cid=0x0:0x485d902863234f10"
"toko bangunan";"Toko Bahan Bangunan";"Toko bangunan hidup baru";"Jl. Medan - Banda Aceh, Rapana, Kec. Mutiara, Kabupaten Pidie, Aceh";"Kabupaten Pidie, Aceh";"ACEH";"";"Indonesia";"";"5.2778736";"95.9730691";"https://maps.google.com/?cid=0x0:0x8ecaf417110d795a"
"toko bangunan";"Toko Bahan Bangunan";"Toko SEHATI";"Jl. Tgk. Chik di Tiro No.31 - 33, Mesjid Yaman, Kec. Mutiara, Kabupaten Pidie, Aceh 24173";"Mesjid Yaman, Kec. Mutiara, Kabupaten Pidie";"ACEH";"24173";"Indonesia";" 0653821661";"5.279591";"95.978447";"https://maps.google.com/?cid=0x0:0xadb0768d54ab1a4e"
"toko bangunan";"Kafe";"Keude Lampoh Saka";"Tanjong Hagu, Kec. Peukan Baro, Kabupaten Pidie, Aceh 24151";"Kec. Peukan Baro, Kabupaten Pidie";"ACEH";"24151";"Indonesia";"";"5.3077656";"95.9637851";"https://maps.google.com/?cid=0x0:0xfffb4338ee8d2f4f"
"toko bangunan";"Toko Bahan Bangunan";"Toko Bangunan Terlengkap";"7XGC+H5V, Jl. Medan - Banda Aceh, Rapana, Kec. Mutiara, Kabupaten Pidie, Aceh 24151";"Jl. Medan - Banda Aceh, Rapana, Kec. Mutiara, Kabupaten Pidie";"ACEH";"24151";"Indonesia";"";"5.2764798";"95.9704222";"https://maps.google.com/?cid=0x0:0xfabf3360da110390"
"toko bangunan";"toko bangunan";"Aceh 23656";"Kabupaten Aceh Jaya, Aceh";"Kabupaten Aceh Jaya, Aceh";"ACEH";"";"Indonesia";"";"4.9116238";"95.6037465";"https://maps.google.com/?cid=0x0:0x1aed070c2c639dba"
"toko bangunan";"Toko Bahan Bangunan";"Zahra Bangunan";"Jl. Dr. Mr. Mohd Hasan, Batoh, Kec. Lueng Bata, Kota Banda Aceh, Aceh 23127";"Batoh, Kec. Lueng Bata, Kota Banda Aceh";"ACEH";"23127";"Indonesia";" 083191742636";"5.5425651";"95.3305542";"https://maps.google.com/?cid=0x0:0x9785538145c2ac3"
"toko bangunan";"Toko Bahan Bangunan";"Toko Bangunan Jambo Akhie";"G8JQ+QVH, Landom, Kec. Lueng Bata, Kota Banda Aceh, Aceh 23122";"Landom, Kec. Lueng Bata, Kota Banda Aceh";"ACEH";"23122";"Indonesia";"";"5.5319478";"95.3397414";"https://maps.google.com/?cid=0x0:0x1fbef36a02b6f916"
"toko bangunan";"Toko Bahan Bangunan";"Toko Dunia Bangunan. 24 Jam.";"H82H+CVX, Jl. Teuku Imuem Jl. Teuku Chik Di Tiro, Ateuk Pahlawan, Kec. Baiturrahman, Kota Banda Aceh, Aceh 174_175";"Kota Banda Aceh, Aceh";"ACEH";"";"Indonesia";" 085260178145";"5.5511237";"95.3297328";"https://maps.google.com/?cid=0x0:0xc5443108175d2ef2"
"toko bangunan";"toko bangunan";"Toko Bangunan AA Baru Rigaih";"MH73+237, Jl. Meulaboh - Banda Aceh, Moulaboh, Rigah, Kec. Setia Bakti, Kabupaten Aceh Jaya, Aceh";"Kabupaten Aceh Jaya, Aceh";"ACEH";"";"Indonesia";"";"4.6625265";"95.5526679";"https://maps.google.com/?cid=0x0:0x422e6cd946102a4"
"toko bangunan";"Toko Bahan Bangunan";"toko bangunan TERATAI JAYA";"H9H2+MJ3, Jl. Teuku Nyak Arief, Jeulingke, Kec. Syiah Kuala, Kota Banda Aceh, Aceh 23114";"Jl. Teuku Nyak Arief, Jeulingke, Kec. Syiah Kuala, Kota Banda Aceh";"ACEH";"23114";"Indonesia";"";"5.5791255";"95.3515394";"https://maps.google.com/?cid=0x0:0x1f49c2a470f4d9bd"
"toko bangunan";"Toko Bahan Bangunan";"Toko Besi Awak Droe";"JJ3W+J4W, Keude Krueng Sabee, Kec. Krueng Sabee, Kabupaten Aceh Jaya, Aceh 23654";"Keude Krueng Sabee, Kec. Krueng Sabee, Kabupaten Aceh Jaya";"ACEH";"23654";"Indonesia";" 081360510965";"4.6041024";"95.6453393";"https://maps.google.com/?cid=0x0:0xb66ca6e6cbfef042"
"toko bangunan";"Pasar";"Pasar Darul Hikmah";"QF8J+5J6, Patek, Kec. Darul Hikmah, Kabupaten Aceh Jaya, Aceh 23656";"Patek, Kec. Darul Hikmah, Kabupaten Aceh Jaya";"ACEH";"23656";"Indonesia";"";"4.7654209";"95.4815068";"https://maps.google.com/?cid=0x0:0x62441df30b37f7dc"
"toko bangunan";"Kantor Perusahaan";"UD. Mandiri Profil";"Jl. Meulaboh - Banda Aceh, Mon Mata, Kec. Krueng Sabee, Kabupaten Aceh Jaya, Aceh 23654";"Mon Mata, Kec. Krueng Sabee, Kabupaten Aceh Jaya";"ACEH";"23654";"Indonesia";" 081247747655";"4.6076236";"95.6414452";"https://maps.google.com/?cid=0x0:0xb408a897b5f64590"
"toko bangunan";"Toko Bahan Bangunan";"TOKO BESI BINTANG BANGUNAN";"Jl. Pocut Baren No.29, Keuramat, Kec. Kuta Alam, Kota Banda Aceh, Aceh 23126";"Keuramat, Kec. Kuta Alam, Kota Banda Aceh";"ACEH";"23126";"Indonesia";" 081360031288";"5.5617508";"95.3240203";"https://maps.google.com/?cid=0x0:0xa98c67e001462b53"
"toko bangunan";"Toko Bahan Bangunan";"Toko Bangunan Sejahtera Baru";"F9VF+2VR, Lambarih Bakmee, Kec. SukaMakmur, Kabupaten Aceh Besar, Aceh 23363";"Lambarih Bakmee, Kec. SukaMakmur, Kabupaten Aceh Besar";"ACEH";"23363";"Indonesia";" 083191742636";"5.4926174";"95.3746298";"https://maps.google.com/?cid=0x0:0x13f51277a759d9b5"
"toko bangunan";"Toko Bahan Bangunan";"RIZQI JAYA";"39R7+M2W, Bak Paoh, Jaya, Kabupaten Aceh Jaya, Aceh 23657";"Bak Paoh, Jaya, Kabupaten Aceh Jaya";"ACEH";"23657";"Indonesia";" 085261909078";"5.0917483";"95.3625629";"https://maps.google.com/?cid=0x0:0x3f10ee5077e1ea79"
"toko bangunan";"Toko Bahan Bangunan";"Toko Besi Hidup Baru";"JJ5R+3G8, Jl. Meulaboh - Banda Aceh, Mon Mata, Kec. Krueng Sabee, Kabupaten Aceh Jaya, Aceh 23654";"Jl. Meulaboh - Banda Aceh, Mon Mata, Kec. Krueng Sabee, Kabupaten Aceh Jaya";"ACEH";"23654";"Indonesia";" 081397005152";"4.6076502";"95.6413395";"https://maps.google.com/?cid=0x0:0xa53502ee610dfbd3"
"toko bangunan";"Toko Bahan Bangunan";"Toko bangunan / toko bahan bangunan";"H9J7+PM3, Rukoh, Kec. Syiah Kuala, Kota Banda Aceh, Aceh";"Kota Banda Aceh, Aceh";"ACEH";"";"Indonesia";"";"5.581784";"95.3641847";"https://maps.google.com/?cid=0x0:0xca53fca6947362de"
"toko bangunan";"toko bangunan";"Aceh 23653";"Kec. Teunom, Kabupaten Aceh Jaya, Aceh";"Kabupaten Aceh Jaya, Aceh";"ACEH";"";"Indonesia";"";"4.5590872";"95.8775964";"https://maps.google.com/?cid=0x0:0xd1bbc87731e6c060"
"toko bangunan";"Toko Bahan Bangunan";"SB_SURYA BARU";"GPR9+939, Jl. Meulaboh - Banda Aceh, Kuta Tuha, Kec. Panga, Kabupaten Aceh Jaya, Aceh 23653";"Jl. Meulaboh - Banda Aceh, Kuta Tuha, Kec. Panga, Kabupaten Aceh Jaya";"ACEH";"23653";"Indonesia";"";"4.5409166";"95.7177197";"https://maps.google.com/?cid=0x0:0x14f59fe1dc346718"
"toko bangunan";"Kantor Perusahaan";"UD. Mandiri Profil";"Jl. Meulaboh - Banda Aceh, Mon Mata, Kec. Krueng Sabee, Kabupaten Aceh Jaya, Aceh 23654";"Mon Mata, Kec. Krueng Sabee, Kabupaten Aceh Jaya";"ACEH";"23654";"Indonesia";" 081247747655";"4.6076236";"95.6414452";"https://maps.google.com/?cid=0x0:0xb408a897b5f64590"
"toko bangunan";"Toko Perlengkapan Rumah";"Toko Bina Baru";"CRX7+QHH, Jl. Lintas Barat Sumatera, Padang Kleng, Kec. Teunom, Kabupaten Aceh Jaya, Aceh 23653";"Jl. Lintas Barat Sumatera, Padang Kleng, Kec. Teunom, Kabupaten Aceh Jaya";"ACEH";"23653";"Indonesia";"";"4.4494335";"95.8139959";"https://maps.google.com/?cid=0x0:0x25535cd481938555"
"toko bangunan";"Toko Bahan Bangunan";"Toko Besi Hidup Baru";"JJ5R+3G8, Jl. Meulaboh - Banda Aceh, Mon Mata, Kec. Krueng Sabee, Kabupaten Aceh Jaya, Aceh 23654";"Jl. Meulaboh - Banda Aceh, Mon Mata, Kec. Krueng Sabee, Kabupaten Aceh Jaya";"ACEH";"23654";"Indonesia";" 081397005152";"4.6076502";"95.6413395";"https://maps.google.com/?cid=0x0:0xa53502ee610dfbd3"
"toko bangunan";"Toko Bahan Bangunan";"toko bangunan beuna jaya";"Bangkeh, Kec. Geumpang, Kabupaten Pidie, Aceh 24186";"Kec. Geumpang, Kabupaten Pidie";"ACEH";"24186";"Indonesia";" 082353274322";"4.8474143";"96.1241671";"https://maps.google.com/?cid=0x0:0xae05d3a8c0fbbe19"
"toko bangunan";"Toko Bahan Bangunan";"Zahra Bangunan";"Jl. Dr. Mr. Mohd Hasan, Batoh, Kec. Lueng Bata, Kota Banda Aceh, Aceh 23127";"Batoh, Kec. Lueng Bata, Kota Banda Aceh";"ACEH";"23127";"Indonesia";" 083191742636";"5.5425651";"95.3305542";"https://maps.google.com/?cid=0x0:0x9785538145c2ac3"
"toko bangunan";"Toko Bahan Bangunan";"UD Bangun Perdana";"85FM+9W7 gunong meuh, Jl. Geumpang - Tutut, Alue Lhok, Kec. Kaway XVI, Kabupaten Aceh Barat, Aceh 23681";"Jl. Geumpang - Tutut, Alue Lhok, Kec. Kaway XVI, Kabupaten Aceh Barat";"ACEH";"23681";"Indonesia";"";"4.3231812";"96.1846772";"https://maps.google.com/?cid=0x0:0x8a6c03f23f41e57f"
"toko bangunan";"Toko Bahan Bangunan";"Tb. CAHAYA MUTIARA";"Kuta Padang, Kec. Johan Pahlawan, Kabupaten Aceh Barat, Aceh 23681";"Kec. Johan Pahlawan, Kabupaten Aceh Barat";"ACEH";"23681";"Indonesia";"";"4.1467988";"96.1271803";"https://maps.google.com/?cid=0x0:0x953d64c3c492fcd5"
"toko bangunan";"Toko Bahan Bangunan";"Toko Bangunan Mudah Rezeki";"7XGH+VWJ, Jl. Medan - Banda Aceh, Baro Yaman, Kec. Mutiara, Kabupaten Pidie, Aceh 24186";"Jl. Medan - Banda Aceh, Baro Yaman, Kec. Mutiara, Kabupaten Pidie";"ACEH";"24186";"Indonesia";" 081269110111";"5.2772135";"95.9797531";"https://maps.google.com/?cid=0x0:0x35c5fb47563cbc1d"
"toko bangunan";"Toko Bahan Bangunan";"RIZQI JAYA";"39R7+M2W, Bak Paoh, Jaya, Kabupaten Aceh Jaya, Aceh 23657";"Bak Paoh, Jaya, Kabupaten Aceh Jaya";"ACEH";"23657";"Indonesia";" 085261909078";"5.0917483";"95.3625629";"https://maps.google.com/?cid=0x0:0x3f10ee5077e1ea79"
"toko bangunan";"Toko Bahan Bangunan";"Toko Besi Usaha Riza Famili";"82XM+PRC, Unnamed Road, Padang Jawa, Kec. Woyla, Kabupaten Aceh Barat, Aceh 23654";"Unnamed Road, Padang Jawa, Kec. Woyla, Kabupaten Aceh Barat";"ACEH";"23654";"Indonesia";" 081361595202";"4.3493008";"96.0345212";"https://maps.google.com/?cid=0x0:0x8de05044474f1df7"
"toko bangunan";"Toko Bahan Bangunan";"Toko Bangunan Pulo Rahmat";"8XQ9+J3W, Balee Rastong, Kec. Peukan Baro, Kabupaten Pidie, Aceh 24164";"Balee Rastong, Kec. Peukan Baro, Kabupaten Pidie";"ACEH";"24164";"Indonesia";" 082369898036";"5.3389616";"95.9677126";"https://maps.google.com/?cid=0x0:0xafcdd465f1171fa1"
"toko bangunan";"Toko Bahan Bangunan";"Toko REZEKI TAMITA.";"Jl. Singgah Mata, Kuta Padang, Kec. Johan Pahlawan, Kabupaten Aceh Barat, Aceh 23681";"Kuta Padang, Kec. Johan Pahlawan, Kabupaten Aceh Barat";"ACEH";"23681";"Indonesia";" 081360012027";"4.145774";"96.1277489";"https://maps.google.com/?cid=0x0:0x578bf6444e5de110"
"building materials";"building materials";"Aceh 23653";"Kec. Teunom, Kabupaten Aceh Jaya, Aceh";"Kabupaten Aceh Jaya, Aceh";"ACEH";"";"Indonesia";"";"4.5590872";"95.8775964";"https://maps.google.com/?cid=0x0:0xd1bbc87731e6c060"
"building materials";"Toko Perlengkapan Rumah";"Toko Bina Baru";"CRX7+QHH, Jl. Lintas Barat Sumatera, Padang Kleng, Kec. Teunom, Kabupaten Aceh Jaya, Aceh 23653";"Jl. Lintas Barat Sumatera, Padang Kleng, Kec. Teunom, Kabupaten Aceh Jaya";"ACEH";"23653";"Indonesia";"";"4.4494335";"95.8139959";"https://maps.google.com/?cid=0x0:0x25535cd481938555"
"building materials";"Toko Bahan Bangunan";"SB_SURYA BARU";"GPR9+939, Jl. Meulaboh - Banda Aceh, Kuta Tuha, Kec. Panga, Kabupaten Aceh Jaya, Aceh 23653";"Jl. Meulaboh - Banda Aceh, Kuta Tuha, Kec. Panga, Kabupaten Aceh Jaya";"ACEH";"23653";"Indonesia";"";"4.5409166";"95.7177197";"https://maps.google.com/?cid=0x0:0x14f59fe1dc346718"
"building materials";"Toko Bahan Bangunan";"Toko Besi Awak Droe";"JJ3W+J4W, Keude Krueng Sabee, Kec. Krueng Sabee, Kabupaten Aceh Jaya, Aceh 23654";"Keude Krueng Sabee, Kec. Krueng Sabee, Kabupaten Aceh Jaya";"ACEH";"23654";"Indonesia";" 081360510965";"4.6041024";"95.6453393";"https://maps.google.com/?cid=0x0:0xb66ca6e6cbfef042"
"building materials";"Kantor Perusahaan";"UD. Mandiri Profil";"Jl. Meulaboh - Banda Aceh, Mon Mata, Kec. Krueng Sabee, Kabupaten Aceh Jaya, Aceh 23654";"Mon Mata, Kec. Krueng Sabee, Kabupaten Aceh Jaya";"ACEH";"23654";"Indonesia";" 081247747655";"4.6076236";"95.6414452";"https://maps.google.com/?cid=0x0:0xb408a897b5f64590"
"building materials";"Toko Bahan Bangunan";"SB_SURYA BARU";"GPR9+939, Jl. Meulaboh - Banda Aceh, Kuta Tuha, Kec. Panga, Kabupaten Aceh Jaya, Aceh 23653";"Jl. Meulaboh - Banda Aceh, Kuta Tuha, Kec. Panga, Kabupaten Aceh Jaya";"ACEH";"23653";"Indonesia";"";"4.5409166";"95.7177197";"https://maps.google.com/?cid=0x0:0x14f59fe1dc346718"
"building materials";"building materials";"Aceh 23654";"Kec. Woyla, Aceh";"Aceh";"ACEH";"";"Indonesia";"";"4.4143635";"96.0255738";"https://maps.google.com/?cid=0x0:0xafd411fd2a1143af"
"building materials";"Toko Bahan Bangunan";"Toko Besi Awak Droe";"JJ3W+J4W, Keude Krueng Sabee, Kec. Krueng Sabee, Kabupaten Aceh Jaya, Aceh 23654";"Keude Krueng Sabee, Kec. Krueng Sabee, Kabupaten Aceh Jaya";"ACEH";"23654";"Indonesia";" 081360510965";"4.6041024";"95.6453393";"https://maps.google.com/?cid=0x0:0xb66ca6e6cbfef042"
"building materials";"Toko Bahan Bangunan";"Toko Besi Hidup Baru";"JJ5R+3G8, Jl. Meulaboh - Banda Aceh, Mon Mata, Kec. Krueng Sabee, Kabupaten Aceh Jaya, Aceh 23654";"Jl. Meulaboh - Banda Aceh, Mon Mata, Kec. Krueng Sabee, Kabupaten Aceh Jaya";"ACEH";"23654";"Indonesia";" 081397005152";"4.6076502";"95.6413395";"https://maps.google.com/?cid=0x0:0xa53502ee610dfbd3"
"building materials";"Toko Bahan Bangunan";"UD Bangun Perdana";"85FM+9W7 gunong meuh, Jl. Geumpang - Tutut, Alue Lhok, Kec. Kaway XVI, Kabupaten Aceh Barat, Aceh 23681";"Jl. Geumpang - Tutut, Alue Lhok, Kec. Kaway XVI, Kabupaten Aceh Barat";"ACEH";"23681";"Indonesia";"";"4.3231812";"96.1846772";"https://maps.google.com/?cid=0x0:0x8a6c03f23f41e57f"
"building materials";"Toko";"UD. MIH JAYA";"8XJ3+XRW, Unnamed Road, Simpang Peut, Kec. Arongan Lambalek, Kabupaten Aceh Barat, Aceh 23652";"Unnamed Road, Simpang Peut, Kec. Arongan Lambalek, Kabupaten Aceh Barat";"ACEH";"23652";"Indonesia";" 085260902505";"4.3324824";"95.9545724";"https://maps.google.com/?cid=0x0:0x3aaa6fa6b24c919f"
"building materials";"Toko Bahan Bangunan";"5 UTAMA";"SP TUGU BPD, Jl. Meulaboh - Banda Aceh, Dayah Baro, Kec. Krueng Sabee, Kabupaten Aceh Jaya, Aceh 23655";"Jl. Meulaboh - Banda Aceh, Dayah Baro, Kec. Krueng Sabee, Kabupaten Aceh Jaya";"ACEH";"23655";"Indonesia";" 085260658707";"4.6409785";"95.5900672";"https://maps.google.com/?cid=0x0:0x10bd2e61d76cd5af"
"building materials";"Toko Bahan Bangunan";"Toko Besi Usaha Riza Famili";"82XM+PRC, Unnamed Road, Padang Jawa, Kec. Woyla, Kabupaten Aceh Barat, Aceh 23654";"Unnamed Road, Padang Jawa, Kec. Woyla, Kabupaten Aceh Barat";"ACEH";"23654";"Indonesia";" 081361595202";"4.3493008";"96.0345212";"https://maps.google.com/?cid=0x0:0x8de05044474f1df7"
"building materials";"Toko Bahan Bangunan";"TokoBahan Bangunan";"82XM+QVP, Unnamed Road, Padang Jawa, Kec. Woyla, Kabupaten Aceh Barat, Aceh 23654";"Unnamed Road, Padang Jawa, Kec. Woyla, Kabupaten Aceh Barat";"ACEH";"23654";"Indonesia";" 081361595202";"4.349456";"96.0347072";"https://maps.google.com/?cid=0x0:0xec79ac47fe4e1ed1"
"building materials";"Bengkel Mobil";"Azwar Bengkel Las";"Jl. Tgk Ibrahim, Tingkeum Panyang, Kec. Woyla, Kabupaten Aceh Barat, Aceh 23654";"Tingkeum Panyang, Kec. Woyla, Kabupaten Aceh Barat";"ACEH";"23654";"Indonesia";"";"4.3849103";"96.0512056";"https://maps.google.com/?cid=0x0:0xa36ebcff056569bf"
"building materials";"Toko Perlengkapan Rumah";"Toko Bina Baru";"CRX7+QHH, Jl. Lintas Barat Sumatera, Padang Kleng, Kec. Teunom, Kabupaten Aceh Jaya, Aceh 23653";"Jl. Lintas Barat Sumatera, Padang Kleng, Kec. Teunom, Kabupaten Aceh Jaya";"ACEH";"23653";"Indonesia";"";"4.4494335";"95.8139959";"https://maps.google.com/?cid=0x0:0x25535cd481938555"
"building materials";"Toko Bahan Bangunan";"toko bangunan beuna jaya";"Bangkeh, Kec. Geumpang, Kabupaten Pidie, Aceh 24186";"Kec. Geumpang, Kabupaten Pidie";"ACEH";"24186";"Indonesia";" 082353274322";"4.8474143";"96.1241671";"https://maps.google.com/?cid=0x0:0xae05d3a8c0fbbe19"
"building materials";"Toko Bahan Bangunan";"TOKO UD.AIFA";"93P4+5JP, Lueng Tanoh Tho, Kec. Woyla, Kabupaten Aceh Barat, Aceh 23654";"Lueng Tanoh Tho, Kec. Woyla, Kabupaten Aceh Barat";"ACEH";"23654";"Indonesia";" 082262406243";"4.3857898";"96.0569074";"https://maps.google.com/?cid=0x0:0x7f0a0173c2c4d13b"
"building materials";"Kantor Perusahaan";"UD. Mandiri Profil";"Jl. Meulaboh - Banda Aceh, Mon Mata, Kec. Krueng Sabee, Kabupaten Aceh Jaya, Aceh 23654";"Mon Mata, Kec. Krueng Sabee, Kabupaten Aceh Jaya";"ACEH";"23654";"Indonesia";" 081247747655";"4.6076236";"95.6414452";"https://maps.google.com/?cid=0x0:0xb408a897b5f64590"
"building materials";"building materials";"Aceh 23655";"Kec. Setia Bakti, Kabupaten Aceh Jaya, Aceh";"Kabupaten Aceh Jaya, Aceh";"ACEH";"";"Indonesia";"";"4.7457854";"95.6878736";"https://maps.google.com/?cid=0x0:0x52d192e4749e2bd4"
"building materials";"Toko Bahan Bangunan";"Toko Besi Awak Droe";"JJ3W+J4W, Keude Krueng Sabee, Kec. Krueng Sabee, Kabupaten Aceh Jaya, Aceh 23654";"Keude Krueng Sabee, Kec. Krueng Sabee, Kabupaten Aceh Jaya";"ACEH";"23654";"Indonesia";" 081360510965";"4.6041024";"95.6453393";"https://maps.google.com/?cid=0x0:0xb66ca6e6cbfef042"
"building materials";"Toko";"CV. Jaya Usaha";"JJ8F+3JQ, Jl. Meulaboh - Banda Aceh, Padang Datar, Kec. Krueng Sabee, Kabupaten Aceh Jaya, Aceh 23654";"Jl. Meulaboh - Banda Aceh, Padang Datar, Kec. Krueng Sabee, Kabupaten Aceh Jaya";"ACEH";"23654";"Indonesia";"";"4.6145085";"95.625109";"https://maps.google.com/?cid=0x0:0x5e5d3ce1854fad22"
"building materials";"Toko Bahan Bangunan";"Toko Besi Hidup Baru";"JJ5R+3G8, Jl. Meulaboh - Banda Aceh, Mon Mata, Kec. Krueng Sabee, Kabupaten Aceh Jaya, Aceh 23654";"Jl. Meulaboh - Banda Aceh, Mon Mata, Kec. Krueng Sabee, Kabupaten Aceh Jaya";"ACEH";"23654";"Indonesia";" 081397005152";"4.6076502";"95.6413395";"https://maps.google.com/?cid=0x0:0xa53502ee610dfbd3"
"building materials";"Toko Bahan Bangunan";"SB_SURYA BARU";"GPR9+939, Jl. Meulaboh - Banda Aceh, Kuta Tuha, Kec. Panga, Kabupaten Aceh Jaya, Aceh 23653";"Jl. Meulaboh - Banda Aceh, Kuta Tuha, Kec. Panga, Kabupaten Aceh Jaya";"ACEH";"23653";"Indonesia";"";"4.5409166";"95.7177197";"https://maps.google.com/?cid=0x0:0x14f59fe1dc346718"
"building materials";"building materials";"Aceh 23656";"Kabupaten Aceh Jaya, Aceh";"Kabupaten Aceh Jaya, Aceh";"ACEH";"";"Indonesia";"";"4.9116238";"95.6037465";"https://maps.google.com/?cid=0x0:0x1aed070c2c639dba"
"building materials";"Tujuan Wisata";"CRU Sampoiniet, Sarah Deu";"WFGQ+5RP, Pante Purba, Kec. Sampoiniet, Kabupaten Aceh Jaya, Aceh 23656";"Pante Purba, Kec. Sampoiniet, Kabupaten Aceh Jaya";"ACEH";"23656";"Indonesia";" 085362836024";"4.9254657";"95.4895871";"https://maps.google.com/?cid=0x0:0x428c30294fd0ef21"
"building materials";"building materials";"UD. Fathyya Fathir";"RGJ8+338, Lam Teungoh, Kec. Darul Hikmah, Kabupaten Aceh Jaya, Aceh 23656";"Lam Teungoh, Kec. Darul Hikmah, Kabupaten Aceh Jaya";"ACEH";"23656";"Indonesia";" 085260049695";"4.830156";"95.5151922";"https://maps.google.com/?cid=0x0:0x241878ea04e1e445"
"building materials";"building materials";"Kec. Sampoiniet";"Kabupaten Aceh Jaya, Aceh";"Kabupaten Aceh Jaya, Aceh";"ACEH";"";"Indonesia";"";"4.8800575";"95.3995079";"https://maps.google.com/?cid=0x0:0x716b1ce3e5342de3"
"building materials";"building materials";"Aceh 23657";"Kabupaten Aceh Jaya, Aceh";"Kabupaten Aceh Jaya, Aceh";"ACEH";"";"Indonesia";"";"5.0787006";"95.435853";"https://maps.google.com/?cid=0x0:0x3ad6a5bdfe2df870"
"building materials";"Toko Bahan Bangunan";"RIZQI JAYA";"39R7+M2W, Bak Paoh, Jaya, Kabupaten Aceh Jaya, Aceh 23657";"Bak Paoh, Jaya, Kabupaten Aceh Jaya";"ACEH";"23657";"Indonesia";" 085261909078";"5.0917483";"95.3625629";"https://maps.google.com/?cid=0x0:0x3f10ee5077e1ea79"
"building materials";"Toko Bahan Bangunan";"Rajin Usaha";"39J5+RGM, Leupe, Jaya, Kabupaten Aceh Jaya, Aceh 23657";"Leupe, Jaya, Kabupaten Aceh Jaya";"ACEH";"23657";"Indonesia";" 085260497394";"5.0820836";"95.3587876";"https://maps.google.com/?cid=0x0:0x4c9a0545d8ce0388"
"building materials";"Kontraktor Atap";"Kanopi murah dan berkualitas";"Babah Krueng, lamno, Kabupaten Aceh Jaya, Aceh 23657";"lamno, Kabupaten Aceh Jaya";"ACEH";"23657";"Indonesia";" 082316081820";"5.0912046";"95.3773723";"https://maps.google.com/?cid=0x0:0x8bd3f72af539685d"
"building materials";"Toko Mebel";"PT. Mutiara Jaya";"Baet, Kec. Baitussalam, Kabupaten Aceh Besar, Aceh";"Kabupaten Aceh Besar, Aceh";"ACEH";"";"Indonesia";"";"5.5858102";"95.3564572";"https://maps.google.com/?cid=0x0:0x71bb5df57ab8bc9e"
"building materials";"Toko Bahan Bangunan";"Blangkrung Jaya";"H9PC+R9Q, Blang Krueng, Kec. Baitussalam, Kabupaten Aceh Besar, Aceh";"Kabupaten Aceh Besar, Aceh";"ACEH";"";"Indonesia";" 082367378994";"5.5870957";"95.3709983";"https://maps.google.com/?cid=0x0:0x28d65781e2688e9c"
"building materials";"Toko Bahan Bangunan";"Makmur Jaya Bangunan";"Jl. Simpang Rima-Ulee Lheue no. 10, Desa, Lamgeu-Eu, Kec. Peukan Bada, Kabupaten Aceh Besar, Aceh";"Kabupaten Aceh Besar, Aceh";"ACEH";"";"Indonesia";" 081360602703";"5.5307086";"95.2746564";"https://maps.google.com/?cid=0x0:0xab17f524489f822b"
"building materials";"Toko Bahan Bangunan";"UD. Puga Jaya (Toko Bahan Bangunan Bang Adek)";"H983+87W, Jl. Kebun Raja, Lamgugob, Kec. Syiah Kuala, Kota Banda Aceh, Aceh";"Kota Banda Aceh, Aceh";"ACEH";"";"Indonesia";"";"5.5658619";"95.353211";"https://maps.google.com/?cid=0x0:0xc2f7cb214e7565be"
"building materials";"Toko Cat";"Sumber Jaya";"G9X5+V96, Jl. Teuku Iskandar, Ceurih, Kec. Ulee Kareng, Kota Banda Aceh, Aceh 24451";"Jl. Teuku Iskandar, Ceurih, Kec. Ulee Kareng, Kota Banda Aceh";"ACEH";"24451";"Indonesia";" 085277204222";"5.5496747";"95.3583869";"https://maps.google.com/?cid=0x0:0x7c4e2bc396e6c120"
"building materials";"Toko Bahan Bangunan";"Toko bangun jaya 1";"Meunasah Weh, Jaya, Kabupaten Aceh Jaya, Aceh 23657";"Jaya, Kabupaten Aceh Jaya";"ACEH";"23657";"Indonesia";" 081269666662";"5.0845213";"95.3629516";"https://maps.google.com/?cid=0x0:0x374a1246dc94d268"
"building materials";"Toko Bahan Bangunan";"Zahara Jaya";"H838+29W, Kp. Baru, Kec. Baiturrahman, Kota Banda Aceh, Aceh 23116";"Kp. Baru, Kec. Baiturrahman, Kota Banda Aceh";"ACEH";"23116";"Indonesia";" 065123718";"5.5526101";"95.3159489";"https://maps.google.com/?cid=0x0:0xef4ab7341c24f4b0"
"building materials";"Toko Bahan Bangunan";"Arviza Keramik";"Jl. Pocut Baren No.18A, Nusa, Jaya, Kabupaten Aceh Jaya, Aceh 23657";"Nusa, Jaya, Kabupaten Aceh Jaya";"ACEH";"23657";"Indonesia";" 065126322";"5.070233";"95.325512";"https://maps.google.com/?cid=0x0:0xb9d5e21962ed567b"
"building materials";"Toko Bahan Bangunan";"Emeral Gypsum Depo Jayaboard";"Jalan Rama Setia No. 88-94 , Kel Lampaseh Kota, Kec, Kuta Raja, Banda Aceh City, Aceh 23231";"Kel Lampaseh Kota, Kec, Kuta Raja, Banda Aceh City";"ACEH";"23231";"Indonesia";" 08126994999";"5.5574385";"95.3129602";"https://maps.google.com/?cid=0x0:0xca72f70fb97aa74a"
"building materials";"Kantor Perusahaan";"UD. Mandiri Profil";"Jl. Meulaboh - Banda Aceh, Mon Mata, Kec. Krueng Sabee, Kabupaten Aceh Jaya, Aceh 23654";"Mon Mata, Kec. Krueng Sabee, Kabupaten Aceh Jaya";"ACEH";"23654";"Indonesia";" 081247747655";"4.6076236";"95.6414452";"https://maps.google.com/?cid=0x0:0xb408a897b5f64590"
"building materials";"building materials";"Kec. Indra Jaya";"Kabupaten Aceh Jaya, Aceh";"Kabupaten Aceh Jaya, Aceh";"ACEH";"";"Indonesia";"";"5.0632418";"95.3386622";"https://maps.google.com/?cid=0x0:0x9bf6e49fb0e9adcc"
"building materials";"Toko Bahan Bangunan";"RIZQI JAYA";"39R7+M2W, Bak Paoh, Jaya, Kabupaten Aceh Jaya, Aceh 23657";"Bak Paoh, Jaya, Kabupaten Aceh Jaya";"ACEH";"23657";"Indonesia";" 085261909078";"5.0917483";"95.3625629";"https://maps.google.com/?cid=0x0:0x3f10ee5077e1ea79"
"building materials";"Toko Bahan Bangunan";"Rajin Usaha";"39J5+RGM, Leupe, Jaya, Kabupaten Aceh Jaya, Aceh 23657";"Leupe, Jaya, Kabupaten Aceh Jaya";"ACEH";"23657";"Indonesia";" 085260497394";"5.0820836";"95.3587876";"https://maps.google.com/?cid=0x0:0x4c9a0545d8ce0388"
"building materials";"Kontraktor Atap";"Kanopi murah dan berkualitas";"Babah Krueng, lamno, Kabupaten Aceh Jaya, Aceh 23657";"lamno, Kabupaten Aceh Jaya";"ACEH";"23657";"Indonesia";" 082316081820";"5.0912046";"95.3773723";"https://maps.google.com/?cid=0x0:0x8bd3f72af539685d"
"building materials";"";"Abadi Alumunium";"393H+9FF, Meudang Ghon, Kec. Indra Jaya, Kabupaten Aceh Jaya, Aceh 23657";"Meudang Ghon, Kec. Indra Jaya, Kabupaten Aceh Jaya";"ACEH";"23657";"Indonesia";" 0651635547";"5.053428";"95.378661";"https://maps.google.com/?cid=0x0:0x1291670aff1e1bc0"
"building materials";"Toko Bahan Bangunan";"Arviza Keramik";"Jl. Pocut Baren No.18A, Nusa, Jaya, Kabupaten Aceh Jaya, Aceh 23657";"Nusa, Jaya, Kabupaten Aceh Jaya";"ACEH";"23657";"Indonesia";" 065126322";"5.070233";"95.325512";"https://maps.google.com/?cid=0x0:0xb9d5e21962ed567b"
"building materials";"Toko Bahan Bangunan";"Keudee Bangunan";"Lampenerat, JL. Doktor Insiyur Teuku Muhammad Hasan, No. 6, Aceh Besar, Alue Mie, Banda Aceh, Kabupaten Aceh Jaya, Aceh 23657";"JL. Doktor Insiyur Teuku Muhammad Hasan, No. 6, Aceh Besar, Alue Mie, Banda Aceh, Kabupaten Aceh Jaya";"ACEH";"23657";"Indonesia";" 082160111000";"5.067412";"95.343751";"https://maps.google.com/?cid=0x0:0xfdda38066da60d71"
"building materials";"Toko Bahan Bangunan";"Toko bangun jaya 1";"Meunasah Weh, Jaya, Kabupaten Aceh Jaya, Aceh 23657";"Jaya, Kabupaten Aceh Jaya";"ACEH";"23657";"Indonesia";" 081269666662";"5.0845213";"95.3629516";"https://maps.google.com/?cid=0x0:0x374a1246dc94d268"
"building materials";"Kantor Perusahaan";"ALFa ATK  Fotocopy";"389W+CFG, Alue Mie, Kec. Indra Jaya, Kabupaten Aceh Jaya, Aceh 23657";"Alue Mie, Kec. Indra Jaya, Kabupaten Aceh Jaya";"ACEH";"23657";"Indonesia";"";"5.0685925";"95.3462205";"https://maps.google.com/?cid=0x0:0x9a0166f4812ffec8"
"building materials";"Toko Bahan Bangunan";"Emeral Gypsum Depo Jayaboard";"Jalan Rama Setia No. 88-94 , Kel Lampaseh Kota, Kec, Kuta Raja, Banda Aceh City, Aceh 23231";"Kel Lampaseh Kota, Kec, Kuta Raja, Banda Aceh City";"ACEH";"23231";"Indonesia";" 08126994999";"5.5574385";"95.3129602";"https://maps.google.com/?cid=0x0:0xca72f70fb97aa74a"
"building materials";"Bengkel Fiberglass";"Beutari";"Jl. Medan - Banda Aceh, Aneuk Galong Baro, Kec. SukaMakmur, Kabupaten Aceh Besar, Aceh 23361";"Aneuk Galong Baro, Kec. SukaMakmur, Kabupaten Aceh Besar";"ACEH";"23361";"Indonesia";" 081377223301";"5.4772086";"95.3899217";"https://maps.google.com/?cid=0x0:0xf1f6e1e5ab8fb8"
"building materials";"Bengkel Mobil";"Service Radiator Bak Sukun da Asah Batu Cincin Permata";"JL. Teungku Imum Leung Bata, No. 206, Panteriek, Keude Unga, Banda Aceh, Kabupaten Aceh Jaya, Aceh 23657";"No. 206, Panteriek, Keude Unga, Banda Aceh, Kabupaten Aceh Jaya";"ACEH";"23657";"Indonesia";" 085226579943";"5.036572";"95.361808";"https://maps.google.com/?cid=0x0:0xe1a7679620b284ca"
"building materials";"Kantor Perusahaan";"PT indo mineral lintas andalas";"XCC5+2VV, Ceunamprong, Kec. Indra Jaya, Kabupaten Aceh Jaya, Aceh";"Kabupaten Aceh Jaya, Aceh";"ACEH";"";"Indonesia";"";"4.9701239";"95.4096633";"https://maps.google.com/?cid=0x0:0xe6db6af3941df2ac"
"building materials";"Toko Bahan Bangunan";"PD. Indra Jaya";"Jl. Perintis Kemerdekaan, Karsamenak, Kec. Kawalu, Kab. Tasikmalaya, Jawa Barat 46182";"Karsamenak, Kec. Kawalu, Kab. Tasikmalaya";"ACEH";"46182";"Indonesia";" 082121042106";"-7.3670582";"108.2147088";"https://maps.google.com/?cid=0x0:0xeade5c5259cd9557"
"building materials";"building materials";"Kec. Indra Jaya";"Kabupaten Pidie, Aceh";"Kabupaten Pidie, Aceh";"ACEH";"";"Indonesia";"";"5.3162867";"95.9602464";"https://maps.google.com/?cid=0x0:0xcceede14e8e3d2e3"
"building materials";"Rumah Kayu";"PAGAR KAYU SIGLI";"Meuluweuk, Dayah Caleue, Kec. Peukan Baro, Kabupaten Pidie, Aceh 23657";"Dayah Caleue, Kec. Peukan Baro, Kabupaten Pidie";"ACEH";"23657";"Indonesia";" 085260337070";"5.3242475";"95.949659";"https://maps.google.com/?cid=0x0:0x9442959745ea6372"
"building materials";"Toko Bahan Bangunan";"Tuah Mata";"Di depan Mesjid Taqwa, JLN. Medan-Banda Aceh, Lampoh Saka, KM. 8, Kec. Peukan Baro, Aceh 24172";"JLN. Medan-Banda Aceh, Lampoh Saka, KM. 8, Kec. Peukan Baro";"ACEH";"24172";"Indonesia";" 081269075098";"5.3076256";"95.963832";"https://maps.google.com/?cid=0x0:0xb77f52f93a38bb5b"
"building materials";"Pusat Perbelanjaan";"Damai Indah";"9XH2+Q26, Jl. Medan Banda Aceh, Mns Peukan, Kec. Pidie, Kabupaten Pidie, Aceh 24112";"Jl. Medan Banda Aceh, Mns Peukan, Kec. Pidie, Kabupaten Pidie";"ACEH";"24112";"Indonesia";" 085372923406";"5.3794044";"95.9500123";"https://maps.google.com/?cid=0x0:0xea08dc6f3fa5b258"
"building materials";"Pusat Perbelanjaan";"Asia Utama Beureunuen";"Jl. Medan - Banda Aceh, Beureunuen, Blang Lileue, Kec. Mutiara, Kabupaten Pidie, Aceh 24173";"Beureunuen, Blang Lileue, Kec. Mutiara, Kabupaten Pidie";"ACEH";"24173";"Indonesia";" 085270448445";"5.2884393";"95.9717897";"https://maps.google.com/?cid=0x0:0xc070ae80ed4eef5c"
"building materials";"Toko Bahan Bangunan";"Semangat Baru";"6VMQ+MHW, Jijiem, Kec. Keumala, Kabupaten Pidie, Aceh 24187";"Jijiem, Kec. Keumala, Kabupaten Pidie";"ACEH";"24187";"Indonesia";" 082317688769";"5.2342481";"95.8889515";"https://maps.google.com/?cid=0x0:0xc3a6d4ee529abfec"
"building materials";"Toko Perlengkapan Rumah";"Toko Bahan Bangunan Indah Warna";"7XQC+X9V, Blang Lileue, Kec. Mutiara, Kabupaten Pidie, Aceh 24151";"Blang Lileue, Kec. Mutiara, Kabupaten Pidie";"ACEH";"24151";"Indonesia";"";"5.2896524";"95.970922";"https://maps.google.com/?cid=0x0:0xe5e998d92e92f0ea"
"building materials";"Kontraktor konstruksi interior";"Duta jaya plafon pvc";"Jl. Beureunuen - Tangse, Mns Bale, Kec. Sakti, Kabupaten Pidie, Aceh 24181";"Mns Bale, Kec. Sakti, Kabupaten Pidie";"ACEH";"24181";"Indonesia";" 082387492920";"5.2553659";"95.9449268";"https://maps.google.com/?cid=0x0:0x8942559f54f1ab49"
"building materials";"Toko Bahan Bangunan";"Toko Bangunan Mudah Rezeki";"7XGH+VWJ, Jl. Medan - Banda Aceh, Baro Yaman, Kec. Mutiara, Kabupaten Pidie, Aceh 24186";"Jl. Medan - Banda Aceh, Baro Yaman, Kec. Mutiara, Kabupaten Pidie";"ACEH";"24186";"Indonesia";" 081269110111";"5.2772135";"95.9797531";"https://maps.google.com/?cid=0x0:0x35c5fb47563cbc1d"
"building materials";"Toko Bahan Bangunan";"BERKAH SAUDARA";"Meunasah Keude, Kec. Bandar Baru, Kabupaten Pidie Jaya, Aceh 24171";"Kec. Bandar Baru, Kabupaten Pidie Jaya";"ACEH";"24171";"Indonesia";" 082367051036";"5.2557613";"96.0620743";"https://maps.google.com/?cid=0x0:0xc2c062fb24a849f9"
"building materials";"Toko Bahan Bangunan";"Toko Bangunan Pulo Rahmat";"8XQ9+J3W, Balee Rastong, Kec. Peukan Baro, Kabupaten Pidie, Aceh 24164";"Balee Rastong, Kec. Peukan Baro, Kabupaten Pidie";"ACEH";"24164";"Indonesia";" 082369898036";"5.3389616";"95.9677126";"https://maps.google.com/?cid=0x0:0xafcdd465f1171fa1"
"building materials";"Gudang";"Toko Bina Beuna";"Jl. Pasi lhok, Kembang Tanjung, Aron Asan Kumbang, Kec. Kembang Tj., Kabupaten Pidie, Aceh 24182";"Kembang Tanjung, Aron Asan Kumbang, Kec. Kembang Tj., Kabupaten Pidie";"ACEH";"24182";"Indonesia";" 081377444563";"5.3051003";"96.0155452";"https://maps.google.com/?cid=0x0:0x210cb29d4d489af7"
"building materials";"Toko Perlengkapan Rumah";"Usaha Jaya";"7W2V+G57, Ps. Kota Bakti, Kec. Sakti, Kabupaten Pidie, Aceh 24181";"Ps. Kota Bakti, Kec. Sakti, Kabupaten Pidie";"ACEH";"24181";"Indonesia";"";"5.251282";"95.9429116";"https://maps.google.com/?cid=0x0:0x97fd72d25f43056"
"building materials";"Toko Bahan Bangunan";"Mudah Utama";"Simpang Bundaran Jl Baru, Blk. Sawah, Kec. Kota Sigli, Kabupaten Pidie, Aceh 24111";"Blk. Sawah, Kec. Kota Sigli, Kabupaten Pidie";"ACEH";"24111";"Indonesia";" 082176602070";"5.3801168";"95.9593483";"https://maps.google.com/?cid=0x0:0xba135d63b6a42e52"
"building materials";"building materials";"Aceh 23656";"Kabupaten Aceh Jaya, Aceh";"Kabupaten Aceh Jaya, Aceh";"ACEH";"";"Indonesia";"";"4.9116238";"95.6037465";"https://maps.google.com/?cid=0x0:0x1aed070c2c639dba"
"building materials";"Kantor Perusahaan";"UD. Mandiri Profil";"Jl. Meulaboh - Banda Aceh, Mon Mata, Kec. Krueng Sabee, Kabupaten Aceh Jaya, Aceh 23654";"Mon Mata, Kec. Krueng Sabee, Kabupaten Aceh Jaya";"ACEH";"23654";"Indonesia";" 081247747655";"4.6076236";"95.6414452";"https://maps.google.com/?cid=0x0:0xb408a897b5f64590"
"building materials";"Toko Bahan Bangunan";"Rajin Usaha";"39J5+RGM, Leupe, Jaya, Kabupaten Aceh Jaya, Aceh 23657";"Leupe, Jaya, Kabupaten Aceh Jaya";"ACEH";"23657";"Indonesia";" 085260497394";"5.0820836";"95.3587876";"https://maps.google.com/?cid=0x0:0x4c9a0545d8ce0388"
"building materials";"building materials";"Kec. Darul Hikmah";"Kabupaten Aceh Jaya, Aceh";"Kabupaten Aceh Jaya, Aceh";"ACEH";"";"Indonesia";"";"4.8297111";"95.5148944";"https://maps.google.com/?cid=0x0:0x5f19606d37c56213"
"building materials";"Toko Bahan Bangunan";"5 UTAMA";"SP TUGU BPD, Jl. Meulaboh - Banda Aceh, Dayah Baro, Kec. Krueng Sabee, Kabupaten Aceh Jaya, Aceh 23655";"Jl. Meulaboh - Banda Aceh, Dayah Baro, Kec. Krueng Sabee, Kabupaten Aceh Jaya";"ACEH";"23655";"Indonesia";" 085260658707";"4.6409785";"95.5900672";"https://maps.google.com/?cid=0x0:0x10bd2e61d76cd5af"
"building materials";"Toko";"CV. Jaya Usaha";"JJ8F+3JQ, Jl. Meulaboh - Banda Aceh, Padang Datar, Kec. Krueng Sabee, Kabupaten Aceh Jaya, Aceh 23654";"Jl. Meulaboh - Banda Aceh, Padang Datar, Kec. Krueng Sabee, Kabupaten Aceh Jaya";"ACEH";"23654";"Indonesia";"";"4.6145085";"95.625109";"https://maps.google.com/?cid=0x0:0x5e5d3ce1854fad22"
"building materials";"Toko Bahan Bangunan";"RIZQI JAYA";"39R7+M2W, Bak Paoh, Jaya, Kabupaten Aceh Jaya, Aceh 23657";"Bak Paoh, Jaya, Kabupaten Aceh Jaya";"ACEH";"23657";"Indonesia";" 085261909078";"5.0917483";"95.3625629";"https://maps.google.com/?cid=0x0:0x3f10ee5077e1ea79"
"building materials";"Gudang";"Meuligoe Bangunan";"4VJP+M7M, Beungga, Kec. Tangse, Kabupaten Pidie, Aceh 24165";"Beungga, Kec. Tangse, Kabupaten Pidie";"ACEH";"24165";"Indonesia";"";"5.1317175";"95.8856637";"https://maps.google.com/?cid=0x0:0xb432fde1e0b64f7e"
"building materials";"Toko Bahan Bangunan";"Toko Besi Awak Droe";"JJ3W+J4W, Keude Krueng Sabee, Kec. Krueng Sabee, Kabupaten Aceh Jaya, Aceh 23654";"Keude Krueng Sabee, Kec. Krueng Sabee, Kabupaten Aceh Jaya";"ACEH";"23654";"Indonesia";" 081360510965";"4.6041024";"95.6453393";"https://maps.google.com/?cid=0x0:0xb66ca6e6cbfef042"
"building materials";"Toko Bahan Bangunan";"Zahra Bangunan";"Jl. Dr. Mr. Mohd Hasan, Batoh, Kec. Lueng Bata, Kota Banda Aceh, Aceh 23127";"Batoh, Kec. Lueng Bata, Kota Banda Aceh";"ACEH";"23127";"Indonesia";" 083191742636";"5.5425651";"95.3305542";"https://maps.google.com/?cid=0x0:0x9785538145c2ac3"
"building materials";"Toko Bahan Bangunan";"Toko Besi Hidup Baru";"JJ5R+3G8, Jl. Meulaboh - Banda Aceh, Mon Mata, Kec. Krueng Sabee, Kabupaten Aceh Jaya, Aceh 23654";"Jl. Meulaboh - Banda Aceh, Mon Mata, Kec. Krueng Sabee, Kabupaten Aceh Jaya";"ACEH";"23654";"Indonesia";" 081397005152";"4.6076502";"95.6413395";"https://maps.google.com/?cid=0x0:0xa53502ee610dfbd3"
"building materials";"Toko Bahan Bangunan";"Keudee Bangunan";"Lampenerat, JL. Doktor Insiyur Teuku Muhammad Hasan, No. 6, Aceh Besar, Alue Mie, Banda Aceh, Kabupaten Aceh Jaya, Aceh 23657";"JL. Doktor Insiyur Teuku Muhammad Hasan, No. 6, Aceh Besar, Alue Mie, Banda Aceh, Kabupaten Aceh Jaya";"ACEH";"23657";"Indonesia";" 082160111000";"5.067412";"95.343751";"https://maps.google.com/?cid=0x0:0xfdda38066da60d71"
"building materials";"Toko Bahan Bangunan";"Toko bangun jaya 2";"39Q7+2X9, Meunasah Weh, Jaya, Kabupaten Aceh Jaya, Aceh 23657";"Meunasah Weh, Jaya, Kabupaten Aceh Jaya";"ACEH";"23657";"Indonesia";"";"5.0875305";"95.364993";"https://maps.google.com/?cid=0x0:0xfce91d5a907cf64"
"building materials";"Toko Bahan Bangunan";"TOKO REZA JAYA";"5V4F+QC, Lhok Keutapang, Kec. Tangse, Kabupaten Pidie, Aceh 24187";"Lhok Keutapang, Kec. Tangse, Kabupaten Pidie";"ACEH";"24187";"Indonesia";" 08126910072";"5.1569413";"95.873566";"https://maps.google.com/?cid=0x0:0x5f4b1645c5f9c801"
"building materials";"building materials";"Aceh 23653";"Kec. Teunom, Kabupaten Aceh Jaya, Aceh";"Kabupaten Aceh Jaya, Aceh";"ACEH";"";"Indonesia";"";"4.5590872";"95.8775964";"https://maps.google.com/?cid=0x0:0xd1bbc87731e6c060"
"building materials";"Toko Perlengkapan Rumah";"Toko Bina Baru";"CRX7+QHH, Jl. Lintas Barat Sumatera, Padang Kleng, Kec. Teunom, Kabupaten Aceh Jaya, Aceh 23653";"Jl. Lintas Barat Sumatera, Padang Kleng, Kec. Teunom, Kabupaten Aceh Jaya";"ACEH";"23653";"Indonesia";"";"4.4494335";"95.8139959";"https://maps.google.com/?cid=0x0:0x25535cd481938555"
"building materials";"Toko Bahan Bangunan";"Toko Besi Awak Droe";"JJ3W+J4W, Keude Krueng Sabee, Kec. Krueng Sabee, Kabupaten Aceh Jaya, Aceh 23654";"Keude Krueng Sabee, Kec. Krueng Sabee, Kabupaten Aceh Jaya";"ACEH";"23654";"Indonesia";" 081360510965";"4.6041024";"95.6453393";"https://maps.google.com/?cid=0x0:0xb66ca6e6cbfef042"
"building materials";"Toko Bahan Bangunan";"SB_SURYA BARU";"GPR9+939, Jl. Meulaboh - Banda Aceh, Kuta Tuha, Kec. Panga, Kabupaten Aceh Jaya, Aceh 23653";"Jl. Meulaboh - Banda Aceh, Kuta Tuha, Kec. Panga, Kabupaten Aceh Jaya";"ACEH";"23653";"Indonesia";"";"4.5409166";"95.7177197";"https://maps.google.com/?cid=0x0:0x14f59fe1dc346718"
"building materials";"Toko Bahan Bangunan";"Toko Besi Hidup Baru";"JJ5R+3G8, Jl. Meulaboh - Banda Aceh, Mon Mata, Kec. Krueng Sabee, Kabupaten Aceh Jaya, Aceh 23654";"Jl. Meulaboh - Banda Aceh, Mon Mata, Kec. Krueng Sabee, Kabupaten Aceh Jaya";"ACEH";"23654";"Indonesia";" 081397005152";"4.6076502";"95.6413395";"https://maps.google.com/?cid=0x0:0xa53502ee610dfbd3"
"building materials";"Toko";"CV. Jaya Usaha";"JJ8F+3JQ, Jl. Meulaboh - Banda Aceh, Padang Datar, Kec. Krueng Sabee, Kabupaten Aceh Jaya, Aceh 23654";"Jl. Meulaboh - Banda Aceh, Padang Datar, Kec. Krueng Sabee, Kabupaten Aceh Jaya";"ACEH";"23654";"Indonesia";"";"4.6145085";"95.625109";"https://maps.google.com/?cid=0x0:0x5e5d3ce1854fad22"
"building materials";"Toko Bahan Bangunan";"5 UTAMA";"SP TUGU BPD, Jl. Meulaboh - Banda Aceh, Dayah Baro, Kec. Krueng Sabee, Kabupaten Aceh Jaya, Aceh 23655";"Jl. Meulaboh - Banda Aceh, Dayah Baro, Kec. Krueng Sabee, Kabupaten Aceh Jaya";"ACEH";"23655";"Indonesia";" 085260658707";"4.6409785";"95.5900672";"https://maps.google.com/?cid=0x0:0x10bd2e61d76cd5af"
"building materials";"Toko";"UD Nisya beujaya";"C25X+JC, Jawa, Kec. Woyla, Kabupaten Aceh Barat, Aceh";"Kabupaten Aceh Barat, Aceh";"ACEH";"";"Indonesia";" 082262406243";"4.4082537";"96.0483323";"https://maps.google.com/?cid=0x0:0x881ff6ed6d0ea75"
"building materials";"Toko Buku";"UD. HYRENT Fotocopy dan Computer";"Simpang Tugu, Keude Krueng Sabee, Kec. Krueng Sabee, Kabupaten Aceh Jaya, Aceh 23654";"Keude Krueng Sabee, Kec. Krueng Sabee, Kabupaten Aceh Jaya";"ACEH";"23654";"Indonesia";"";"4.6057023";"95.645695";"https://maps.google.com/?cid=0x0:0x981ee5e6738cb7d8"
"building materials";"Toko Bahan Bangunan";"toko bangunan beuna jaya";"Bangkeh, Kec. Geumpang, Kabupaten Pidie, Aceh 24186";"Kec. Geumpang, Kabupaten Pidie";"ACEH";"24186";"Indonesia";" 082353274322";"4.8474143";"96.1241671";"https://maps.google.com/?cid=0x0:0xae05d3a8c0fbbe19"
"building materials";"building materials";"BUMG BEWAK JAYA UNIT BATAKO";"HQ34+WCJ, Tuwi Kayee, Kec. Panga, Kabupaten Aceh Jaya, Aceh 23653";"Tuwi Kayee, Kec. Panga, Kabupaten Aceh Jaya";"ACEH";"23653";"Indonesia";" 085359075957";"4.5548265";"95.7560216";"https://maps.google.com/?cid=0x0:0xa7e0a23065e55356"
"building materials";"Bengkel Fiberglass";"Beutari";"Jl. Medan - Banda Aceh, Aneuk Galong Baro, Kec. SukaMakmur, Kabupaten Aceh Besar, Aceh 23361";"Aneuk Galong Baro, Kec. SukaMakmur, Kabupaten Aceh Besar";"ACEH";"23361";"Indonesia";" 081377223301";"5.4772086";"95.3899217";"https://maps.google.com/?cid=0x0:0xf1f6e1e5ab8fb8"
"hardware store";"hardware store";"Aceh 23653";"Kec. Teunom, Kabupaten Aceh Jaya, Aceh";"Kabupaten Aceh Jaya, Aceh";"ACEH";"";"Indonesia";"";"4.5590872";"95.8775964";"https://maps.google.com/?cid=0x0:0xd1bbc87731e6c060"
"hardware store";"Toko Perlengkapan Rumah";"Toko Bina Baru";"CRX7+QHH, Jl. Lintas Barat Sumatera, Padang Kleng, Kec. Teunom, Kabupaten Aceh Jaya, Aceh 23653";"Jl. Lintas Barat Sumatera, Padang Kleng, Kec. Teunom, Kabupaten Aceh Jaya";"ACEH";"23653";"Indonesia";"";"4.4494335";"95.8139959";"https://maps.google.com/?cid=0x0:0x25535cd481938555"
"hardware store";"Toko Elektronik";"Toko CM ELECTRONIC";"Panton, Kec. Teunom, Kabupaten Aceh Jaya, Aceh 23653";"Kec. Teunom, Kabupaten Aceh Jaya";"ACEH";"23653";"Indonesia";" 085277841819";"4.4485322";"95.8135144";"https://maps.google.com/?cid=0x0:0xe60395ea9fc0ab13"
"hardware store";"Toko Elektronik";"TOKO BRUNEI ELEKTRONIC";"CRW6+HR5, Panton, Kec. Teunom, Kabupaten Aceh Jaya, Aceh 23653";"Panton, Kec. Teunom, Kabupaten Aceh Jaya";"ACEH";"23653";"Indonesia";" 085370475596";"4.4463792";"95.8121035";"https://maps.google.com/?cid=0x0:0x956de032a9c7a14d"
"hardware store";"Toko Elektronik";"Putra Teunom Workshop";"CRX7+63V, Panton, Kec. Teunom, Kabupaten Aceh Jaya, Aceh 23653";"Panton, Kec. Teunom, Kabupaten Aceh Jaya";"ACEH";"23653";"Indonesia";" 085261077757";"4.4481017";"95.8126684";"https://maps.google.com/?cid=0x0:0x8cd9a0c4e4bf1351"
"hardware store";"Toko Buku";"UD. HYRENT Fotocopy dan Computer";"Simpang Tugu, Keude Krueng Sabee, Kec. Krueng Sabee, Kabupaten Aceh Jaya, Aceh 23654";"Keude Krueng Sabee, Kec. Krueng Sabee, Kabupaten Aceh Jaya";"ACEH";"23654";"Indonesia";"";"4.6057023";"95.645695";"https://maps.google.com/?cid=0x0:0x981ee5e6738cb7d8"
"hardware store";"Toko Bahan Bangunan";"5 UTAMA";"SP TUGU BPD, Jl. Meulaboh - Banda Aceh, Dayah Baro, Kec. Krueng Sabee, Kabupaten Aceh Jaya, Aceh 23655";"Jl. Meulaboh - Banda Aceh, Dayah Baro, Kec. Krueng Sabee, Kabupaten Aceh Jaya";"ACEH";"23655";"Indonesia";" 085260658707";"4.6409785";"95.5900672";"https://maps.google.com/?cid=0x0:0x10bd2e61d76cd5af"
"hardware store";"Toko Ponsel";"SPCell";"GPR8+WX8, Kuta Tuha, Kec. Panga, Kabupaten Aceh Jaya, Aceh 23653";"Kuta Tuha, Kec. Panga, Kabupaten Aceh Jaya";"ACEH";"23653";"Indonesia";" 082277664646";"4.5422848";"95.7174529";"https://maps.google.com/?cid=0x0:0xa3fff9f137c9c433"
"hardware store";"Sekolah Menengah Pertama";"MAN 2 Meulaboh";"CRQ9+PMJ, Panton, Kec. Teunom, Kabupaten Aceh Jaya, Aceh 23653";"Panton, Kec. Teunom, Kabupaten Aceh Jaya";"ACEH";"23653";"Indonesia";"";"4.4393405";"95.8191386";"https://maps.google.com/?cid=0x0:0xe9b58354ac21bc2d"
"hardware store";"Kantor Pemerintah";"Polsek Teunom";"FQ9X+G44, Tanoh Manyang, Kec. Teunom, Kabupaten Aceh Jaya, Aceh 23653";"Tanoh Manyang, Kec. Teunom, Kabupaten Aceh Jaya";"ACEH";"23653";"Indonesia";"";"4.4687602";"95.7978387";"https://maps.google.com/?cid=0x0:0x7f27641b370058be"
"hardware store";"Toko Bahan Bangunan";"One HARDWARE";"Jl. Moh. Jam No.99, Kp. Baru, Kec. Baiturrahman, Kota Banda Aceh, Aceh 23242";"Kp. Baru, Kec. Baiturrahman, Kota Banda Aceh";"ACEH";"23242";"Indonesia";" 085296375922";"5.5533946";"95.3143585";"https://maps.google.com/?cid=0x0:0x96558df6ca96ec5a"
"hardware store";"Sekolah";"MAN ACEH JAYA";"CRQ9+QJ9, Panton, Kec. Teunom, Kabupaten Aceh Jaya, Aceh 23653";"Panton, Kec. Teunom, Kabupaten Aceh Jaya";"ACEH";"23653";"Indonesia";"";"4.4394073";"95.8191085";"https://maps.google.com/?cid=0x0:0xba3cf5c8b6c3f15b"
"hardware store";"Sekolah Agama";"MIN 3 ACEH JAYA";"CRPG+JJV, Jl. Meulaboh - Banda Aceh, Gampong Baro, Kec. Teunom, Kabupaten Aceh Jaya, Aceh 23653";"Jl. Meulaboh - Banda Aceh, Gampong Baro, Kec. Teunom, Kabupaten Aceh Jaya";"ACEH";"23653";"Indonesia";"";"4.4366236";"95.82655";"https://maps.google.com/?cid=0x0:0x3f35cc5e68fcff6b"
"hardware store";"Sekolah";"MIN 10 ACEH JAYA";"CRR9+397, Panton, Kec. Teunom, Kabupaten Aceh Jaya, Aceh 23653";"Panton, Kec. Teunom, Kabupaten Aceh Jaya";"ACEH";"23653";"Indonesia";"";"4.4401568";"95.8184235";"https://maps.google.com/?cid=0x0:0x57e9bf93ac4ce37b"
"hardware store";"hardware store";"Aceh 23654";"Kec. Woyla, Aceh";"Aceh";"ACEH";"";"Indonesia";"";"4.4143635";"96.0255738";"https://maps.google.com/?cid=0x0:0xafd411fd2a1143af"
"hardware store";"Toko Bahan Bangunan";"5 UTAMA";"SP TUGU BPD, Jl. Meulaboh - Banda Aceh, Dayah Baro, Kec. Krueng Sabee, Kabupaten Aceh Jaya, Aceh 23655";"Jl. Meulaboh - Banda Aceh, Dayah Baro, Kec. Krueng Sabee, Kabupaten Aceh Jaya";"ACEH";"23655";"Indonesia";" 085260658707";"4.6409785";"95.5900672";"https://maps.google.com/?cid=0x0:0x10bd2e61d76cd5af"
"hardware store";"Toko Bahan Bangunan";"UD Bangun Perdana";"85FM+9W7 gunong meuh, Jl. Geumpang - Tutut, Alue Lhok, Kec. Kaway XVI, Kabupaten Aceh Barat, Aceh 23681";"Jl. Geumpang - Tutut, Alue Lhok, Kec. Kaway XVI, Kabupaten Aceh Barat";"ACEH";"23681";"Indonesia";"";"4.3231812";"96.1846772";"https://maps.google.com/?cid=0x0:0x8a6c03f23f41e57f"
"hardware store";"Toko Buku";"Zikry Gallery";"JHQP+W34, Sentosa, Kec. Krueng Sabee, Kabupaten Aceh Jaya, Aceh 23655";"Sentosa, Kec. Krueng Sabee, Kabupaten Aceh Jaya";"ACEH";"23655";"Indonesia";"";"4.6393437";"95.5846248";"https://maps.google.com/?cid=0x0:0x91f3ce8ef7901b96"
"hardware store";"Toko Perlengkapan Rumah";"Toko Bina Baru";"CRX7+QHH, Jl. Lintas Barat Sumatera, Padang Kleng, Kec. Teunom, Kabupaten Aceh Jaya, Aceh 23653";"Jl. Lintas Barat Sumatera, Padang Kleng, Kec. Teunom, Kabupaten Aceh Jaya";"ACEH";"23653";"Indonesia";"";"4.4494335";"95.8139959";"https://maps.google.com/?cid=0x0:0x25535cd481938555"
"hardware store";"Toko Ponsel";"SPCell";"GPR8+WX8, Kuta Tuha, Kec. Panga, Kabupaten Aceh Jaya, Aceh 23653";"Kuta Tuha, Kec. Panga, Kabupaten Aceh Jaya";"ACEH";"23653";"Indonesia";" 082277664646";"4.5422848";"95.7174529";"https://maps.google.com/?cid=0x0:0xa3fff9f137c9c433"
"hardware store";"Toko Suku Cadang Mobil";"CV. SULTAN MOTOR CALANG";"Jl. Teuku Umar, Bahagia, Kec. Krueng Sabee, Kabupaten Aceh Jaya, Aceh 23655";"Bahagia, Kec. Krueng Sabee, Kabupaten Aceh Jaya";"ACEH";"23655";"Indonesia";" 085358587700";"4.6331211";"95.5826596";"https://maps.google.com/?cid=0x0:0x1ecf6c5b59e50e0a"
"hardware store";"Komplek perumahan";"Komplek Pemda Padang Datar";"JJ6G+P75, Padang Datar, Kec. Krueng Sabee, Kabupaten Aceh Jaya, Aceh 23654";"Padang Datar, Kec. Krueng Sabee, Kabupaten Aceh Jaya";"ACEH";"23654";"Indonesia";" 081270359072";"4.6117568";"95.6257363";"https://maps.google.com/?cid=0x0:0x9b8af766f4d210f2"
"hardware store";"Sekolah Dasar";"Sekolah Dasar Negeri 4 Krueng Sabee";"JJ8F+69R, Padang Datar, Kec. Krueng Sabee, Kabupaten Aceh Jaya, Aceh 23654";"Padang Datar, Kec. Krueng Sabee, Kabupaten Aceh Jaya";"ACEH";"23654";"Indonesia";"";"4.6156191";"95.6233827";"https://maps.google.com/?cid=0x0:0xc950f51a165486c7"
"hardware store";"Toko Bahan Bangunan";"5 UTAMA";"SP TUGU BPD, Jl. Meulaboh - Banda Aceh, Dayah Baro, Kec. Krueng Sabee, Kabupaten Aceh Jaya, Aceh 23655";"Jl. Meulaboh - Banda Aceh, Dayah Baro, Kec. Krueng Sabee, Kabupaten Aceh Jaya";"ACEH";"23655";"Indonesia";" 085260658707";"4.6409785";"95.5900672";"https://maps.google.com/?cid=0x0:0x10bd2e61d76cd5af"
"hardware store";"Kantor Perusahaan";"UD. Mandiri Profil";"Jl. Meulaboh - Banda Aceh, Mon Mata, Kec. Krueng Sabee, Kabupaten Aceh Jaya, Aceh 23654";"Mon Mata, Kec. Krueng Sabee, Kabupaten Aceh Jaya";"ACEH";"23654";"Indonesia";" 081247747655";"4.6076236";"95.6414452";"https://maps.google.com/?cid=0x0:0xb408a897b5f64590"
"hardware store";"Tujuan Wisata";"CRU Sampoiniet, Sarah Deu";"WFGQ+5RP, Pante Purba, Kec. Sampoiniet, Kabupaten Aceh Jaya, Aceh 23656";"Pante Purba, Kec. Sampoiniet, Kabupaten Aceh Jaya";"ACEH";"23656";"Indonesia";" 085362836024";"4.9254657";"95.4895871";"https://maps.google.com/?cid=0x0:0x428c30294fd0ef21"
"hardware store";"Jembatan";"Gampông Wisata Nilam Ranto Sabon";"VFMR+8JQ, Unnamed Road, Seumantok, Sampoiniet, Aceh Jaya Regency, Aceh 23656";"Unnamed Road, Seumantok, Sampoiniet, Aceh Jaya Regency";"ACEH";"23656";"Indonesia";"";"4.8833313";"95.4915977";"https://maps.google.com/?cid=0x0:0x701e79bbc92dd0f7"
"hardware store";"Toko Bahan Bangunan";"5 UTAMA";"SP TUGU BPD, Jl. Meulaboh - Banda Aceh, Dayah Baro, Kec. Krueng Sabee, Kabupaten Aceh Jaya, Aceh 23655";"Jl. Meulaboh - Banda Aceh, Dayah Baro, Kec. Krueng Sabee, Kabupaten Aceh Jaya";"ACEH";"23655";"Indonesia";" 085260658707";"4.6409785";"95.5900672";"https://maps.google.com/?cid=0x0:0x10bd2e61d76cd5af"
"hardware store";"hardware store";"Aceh 23657";"Kabupaten Aceh Jaya, Aceh";"Kabupaten Aceh Jaya, Aceh";"ACEH";"";"Indonesia";"";"5.0787006";"95.435853";"https://maps.google.com/?cid=0x0:0x3ad6a5bdfe2df870"
"hardware store";"Toko Bahan Bangunan";"Toko bangun jaya 1";"Meunasah Weh, Jaya, Kabupaten Aceh Jaya, Aceh 23657";"Jaya, Kabupaten Aceh Jaya";"ACEH";"23657";"Indonesia";" 081269666662";"5.0845213";"95.3629516";"https://maps.google.com/?cid=0x0:0x374a1246dc94d268"
"hardware store";"Toko Bahan Bangunan";"TG Hardware Trading  Supplies";"Lot 90 Semambu, 6, Jalan Industri Semambu 2, Kawasan Perindustrian Semambu, 25300 Kuantan, Pahang, Malaysia";"Kuantan";"ACEH";"25300";"Indonesia";" +6095689898";"3.8482085";"103.3294291";"https://maps.google.com/?cid=0x0:0xfbb35ce5a8940742"
"hardware store";"Toko Bahan Bangunan";"Rajin Usaha";"39J5+RGM, Leupe, Jaya, Kabupaten Aceh Jaya, Aceh 23657";"Leupe, Jaya, Kabupaten Aceh Jaya";"ACEH";"23657";"Indonesia";" 085260497394";"5.0820836";"95.3587876";"https://maps.google.com/?cid=0x0:0x4c9a0545d8ce0388"
"hardware store";"Kantor Perusahaan";"ALFa ATK  Fotocopy";"389W+CFG, Alue Mie, Kec. Indra Jaya, Kabupaten Aceh Jaya, Aceh 23657";"Alue Mie, Kec. Indra Jaya, Kabupaten Aceh Jaya";"ACEH";"23657";"Indonesia";"";"5.0685925";"95.3462205";"https://maps.google.com/?cid=0x0:0x9a0166f4812ffec8"
"hardware store";"hardware store";"Kec. Indra Jaya";"Kabupaten Aceh Jaya, Aceh";"Kabupaten Aceh Jaya, Aceh";"ACEH";"";"Indonesia";"";"5.0632418";"95.3386622";"https://maps.google.com/?cid=0x0:0x9bf6e49fb0e9adcc"
"hardware store";"Toko Bahan Bangunan";"Toko bangun jaya 1";"Meunasah Weh, Jaya, Kabupaten Aceh Jaya, Aceh 23657";"Jaya, Kabupaten Aceh Jaya";"ACEH";"23657";"Indonesia";" 081269666662";"5.0845213";"95.3629516";"https://maps.google.com/?cid=0x0:0x374a1246dc94d268"
"hardware store";"Toko Bahan Bangunan";"INDRAJAYA HARDWARE";"Jl. Dr. Sutomo Jl. Kalitan No.19, rt2/rw2, Kec. Laweyan, Kota Surakarta, Jawa Tengah 57125";"rt2/rw2, Kec. Laweyan, Kota Surakarta";"ACEH";"57125";"Indonesia";" 085743103163";"-7.5645778";"110.8098547";"https://maps.google.com/?cid=0x0:0xdf13f204b7fc228d"
"hardware store";"Toko Bahan Bangunan";"Indra Jaya tb";"MPQ2+C3M, Jl. Cikukun, Cikukun, Malabar, Kec. Wanareja, Kabupaten Cilacap, Jawa Tengah 53265";"Jl. Cikukun, Cikukun, Malabar, Kec. Wanareja, Kabupaten Cilacap";"ACEH";"53265";"Indonesia";"";"-7.3114113";"108.7001786";"https://maps.google.com/?cid=0x0:0x4d486bd5d461034"
"hardware store";"Toko Bahan Bangunan";"TB. Indra Jaya";"7JMJ+FQ7, Karangreja, Sitirejo, Kec. Klirong, Kabupaten Kebumen, Jawa Tengah 54381";"Karangreja, Sitirejo, Kec. Klirong, Kabupaten Kebumen";"ACEH";"54381";"Indonesia";"";"-7.7163391";"109.631937";"https://maps.google.com/?cid=0x0:0x58ae5a5ab97debde"
"hardware store";"Pusat Perbelanjaan";"INDRA JAYA";"3582+C4W, Dukuh, Gembong Kulon, Kec. Talang, Kabupaten Tegal, Jawa Tengah 52193";"Dukuh, Gembong Kulon, Kec. Talang, Kabupaten Tegal";"ACEH";"52193";"Indonesia";"";"-6.9338914";"109.1503416";"https://maps.google.com/?cid=0x0:0xe315b31112107084"
"hardware store";"Toko Bahan Bangunan";"Indra Jaya";"Jl. Sorogenen No.8, Sorosutan, Kec. Umbulharjo, Kota Yogyakarta, Daerah Istimewa Yogyakarta 55162";"Sorosutan, Kec. Umbulharjo, Kota Yogyakarta";"ACEH";"55162";"Indonesia";" 08122796400";"-7.8249211";"110.3796708";"https://maps.google.com/?cid=0x0:0x6e9c8265435df3c8"
"hardware store";"Pusat Perbelanjaan";"Asia Utama Beureunuen";"Jl. Medan - Banda Aceh, Beureunuen, Blang Lileue, Kec. Mutiara, Kabupaten Pidie, Aceh 24173";"Beureunuen, Blang Lileue, Kec. Mutiara, Kabupaten Pidie";"ACEH";"24173";"Indonesia";" 085270448445";"5.2884393";"95.9717897";"https://maps.google.com/?cid=0x0:0xc070ae80ed4eef5c"
"hardware store";"hardware store";"Kec. Indra Jaya";"Kabupaten Pidie, Aceh";"Kabupaten Pidie, Aceh";"ACEH";"";"Indonesia";"";"5.3162867";"95.9602464";"https://maps.google.com/?cid=0x0:0xcceede14e8e3d2e3"
"hardware store";"Toko Bahan Bangunan";"Mudah Utama";"Simpang Bundaran Jl Baru, Blk. Sawah, Kec. Kota Sigli, Kabupaten Pidie, Aceh 24111";"Blk. Sawah, Kec. Kota Sigli, Kabupaten Pidie";"ACEH";"24111";"Indonesia";" 082176602070";"5.3801168";"95.9593483";"https://maps.google.com/?cid=0x0:0xba135d63b6a42e52"
"hardware store";"Toko";"Toko Bahan Bangunan Siha Baru";"JALAN TEUBENG, Tijue, Kec. Pidie, Kabupaten Pidie, Aceh 24151";"Tijue, Kec. Pidie, Kabupaten Pidie";"ACEH";"24151";"Indonesia";"";"5.3578292";"95.9604301";"https://maps.google.com/?cid=0x0:0x47709ff6cfea92a6"
"hardware store";"Pusat Perbelanjaan";"MR.DIY";"Jl. Medan Banda Aceh, Mee Tanjong Usi, Kec. Mutiara Tim., Kabupaten Pidie, Aceh 24161";"Mee Tanjong Usi, Kec. Mutiara Tim., Kabupaten Pidie";"ACEH";"24161";"Indonesia";"";"5.26485";"95.9895404";"https://maps.google.com/?cid=0x0:0x79a898e3c71870cf"
"hardware store";"Toko Bahan Bangunan";"Mr. DIY Sigli";"Jl. Profesor Abdul Majid Ibrahim No.3, Gampong Asan, Kec. Kota Sigli, Kabupaten Pidie, Aceh 24112";"Gampong Asan, Kec. Kota Sigli, Kabupaten Pidie";"ACEH";"24112";"Indonesia";" 02130022789";"5.3745476";"95.9580955";"https://maps.google.com/?cid=0x0:0x48600031c59c9300"
"hardware store";"Toko Perlengkapan Rumah";"Toko Bahan Bangunan Indah Warna";"7XQC+X9V, Blang Lileue, Kec. Mutiara, Kabupaten Pidie, Aceh 24151";"Blang Lileue, Kec. Mutiara, Kabupaten Pidie";"ACEH";"24151";"Indonesia";"";"5.2896524";"95.970922";"https://maps.google.com/?cid=0x0:0xe5e998d92e92f0ea"
"hardware store";"Toko Bahan Bangunan";"Toko Bangunan Bina Sabena";"Keubang, Kec. Indra Jaya, Kabupaten Pidie, Aceh 24183";"Kec. Indra Jaya, Kabupaten Pidie";"ACEH";"24183";"Indonesia";" 081317013239";"5.3264888";"95.9221148";"https://maps.google.com/?cid=0x0:0x95305576d5d18f3a"
"hardware store";"Toko Perlengkapan Rumah";"Cahaya Prabot";"Rambayan Lueng, Kec. Peukan Baro, Kabupaten Pidie, Aceh 24151";"Kec. Peukan Baro, Kabupaten Pidie";"ACEH";"24151";"Indonesia";" 082329656577";"5.2985625";"95.9660625";"https://maps.google.com/?cid=0x0:0x2f5d4a914293ddbe"
"hardware store";"Toko Perlengkapan Rumah";"Karya Plafond PVC";"Baroh Bar. Yaman, Kec. Mutiara, Kabupaten Pidie, Aceh 24151";"Kec. Mutiara, Kabupaten Pidie";"ACEH";"24151";"Indonesia";" 08116890800";"5.2829207";"95.9756017";"https://maps.google.com/?cid=0x0:0x6026a7e5ddc7231"
"hardware store";"Toko Bahan Bangunan";"Toko JASA KAWAN";"Jln.Tgk.Chik Di Tiro, Kec. Kota Sigli, Kabupaten Pidie, Aceh 24151";"Kec. Kota Sigli, Kabupaten Pidie";"ACEH";"24151";"Indonesia";" 082361733310";"5.3794291";"95.9507327";"https://maps.google.com/?cid=0x0:0xc8181dcfe0a8cd2e"
"hardware store";"Toko Bahan Bangunan";"Toko FIRAZ JAYA";"9WFW+PH9, Jl. Lkr. Keuniree, Keuniree, Kec. Pidie, Kabupaten Pidie, Aceh 24111";"Jl. Lkr. Keuniree, Keuniree, Kec. Pidie, Kabupaten Pidie";"ACEH";"24111";"Indonesia";" 085362672014";"5.3742755";"95.9464893";"https://maps.google.com/?cid=0x0:0x25c46bc14d567c83"
"hardware store";"Grosir";"CV UTHYA SAMARA";"Baroh Bar. Yaman, Kec. Mutiara, Kabupaten Pidie, Aceh 24151";"Kec. Mutiara, Kabupaten Pidie";"ACEH";"24151";"Indonesia";" 082370727205";"5.2813189";"95.9764398";"https://maps.google.com/?cid=0x0:0xd58c561a6c981d58"
"hardware store";"Pusat Perbelanjaan";"Adira Foto Copy";"8X57+CG5, Jalan Lampoih Saka Jl. Sukon Bambi, Mee Lampoih Saka, Kec. Peukan Baro, Kabupaten Pidie, Aceh 24151";"Jalan Lampoih Saka Jl. Sukon Bambi, Mee Lampoih Saka, Kec. Peukan Baro, Kabupaten Pidie";"ACEH";"24151";"Indonesia";"";"5.3085109";"95.9638746";"https://maps.google.com/?cid=0x0:0x61e032604b844d21"
"hardware store";"Kantor Perusahaan";"UD. Mandiri Profil";"Jl. Meulaboh - Banda Aceh, Mon Mata, Kec. Krueng Sabee, Kabupaten Aceh Jaya, Aceh 23654";"Mon Mata, Kec. Krueng Sabee, Kabupaten Aceh Jaya";"ACEH";"23654";"Indonesia";" 081247747655";"4.6076236";"95.6414452";"https://maps.google.com/?cid=0x0:0xb408a897b5f64590"
"hardware store";"Toko Bahan Bangunan";"5 UTAMA";"SP TUGU BPD, Jl. Meulaboh - Banda Aceh, Dayah Baro, Kec. Krueng Sabee, Kabupaten Aceh Jaya, Aceh 23655";"Jl. Meulaboh - Banda Aceh, Dayah Baro, Kec. Krueng Sabee, Kabupaten Aceh Jaya";"ACEH";"23655";"Indonesia";" 085260658707";"4.6409785";"95.5900672";"https://maps.google.com/?cid=0x0:0x10bd2e61d76cd5af"
"hardware store";"hardware store";"Aceh 23656";"Kabupaten Aceh Jaya, Aceh";"Kabupaten Aceh Jaya, Aceh";"ACEH";"";"Indonesia";"";"4.9116238";"95.6037465";"https://maps.google.com/?cid=0x0:0x1aed070c2c639dba"
"hardware store";"";"Hikmah Perdana Alum";"W6PX+MF8, Jl. Pancasila, Aren, Jatinegara, Kec. Jatinegara, Kabupaten Tegal, Jawa Tengah 52473";"Jl. Pancasila, Aren, Jatinegara, Kec. Jatinegara, Kabupaten Tegal";"ACEH";"52473";"Indonesia";" 085876406701";"-7.0633428";"109.2487044";"https://maps.google.com/?cid=0x0:0x7baf9a71da0d2bd8"
"hardware store";"hardware store";"Aceh 23653";"Kec. Teunom, Kabupaten Aceh Jaya, Aceh";"Kabupaten Aceh Jaya, Aceh";"ACEH";"";"Indonesia";"";"4.5590872";"95.8775964";"https://maps.google.com/?cid=0x0:0xd1bbc87731e6c060"
"hardware store";"Toko Perlengkapan Rumah";"Toko Bina Baru";"CRX7+QHH, Jl. Lintas Barat Sumatera, Padang Kleng, Kec. Teunom, Kabupaten Aceh Jaya, Aceh 23653";"Jl. Lintas Barat Sumatera, Padang Kleng, Kec. Teunom, Kabupaten Aceh Jaya";"ACEH";"23653";"Indonesia";"";"4.4494335";"95.8139959";"https://maps.google.com/?cid=0x0:0x25535cd481938555"
"hardware store";"Toko Bahan Bangunan";"5 UTAMA";"SP TUGU BPD, Jl. Meulaboh - Banda Aceh, Dayah Baro, Kec. Krueng Sabee, Kabupaten Aceh Jaya, Aceh 23655";"Jl. Meulaboh - Banda Aceh, Dayah Baro, Kec. Krueng Sabee, Kabupaten Aceh Jaya";"ACEH";"23655";"Indonesia";" 085260658707";"4.6409785";"95.5900672";"https://maps.google.com/?cid=0x0:0x10bd2e61d76cd5af"
"supermarket bangunan";"Toko Bahan Bangunan";"SB_SURYA BARU";"GPR9+939, Jl. Meulaboh - Banda Aceh, Kuta Tuha, Kec. Panga, Kabupaten Aceh Jaya, Aceh 23653";"Jl. Meulaboh - Banda Aceh, Kuta Tuha, Kec. Panga, Kabupaten Aceh Jaya";"ACEH";"23653";"Indonesia";"";"4.5409166";"95.7177197";"https://maps.google.com/?cid=0x0:0x14f59fe1dc346718"
"supermarket bangunan";"supermarket bangunan";"Aceh 23653";"Kec. Teunom, Kabupaten Aceh Jaya, Aceh";"Kabupaten Aceh Jaya, Aceh";"ACEH";"";"Indonesia";"";"4.5590872";"95.8775964";"https://maps.google.com/?cid=0x0:0xd1bbc87731e6c060"
"supermarket bangunan";"Toko Perlengkapan Rumah";"Toko Bina Baru";"CRX7+QHH, Jl. Lintas Barat Sumatera, Padang Kleng, Kec. Teunom, Kabupaten Aceh Jaya, Aceh 23653";"Jl. Lintas Barat Sumatera, Padang Kleng, Kec. Teunom, Kabupaten Aceh Jaya";"ACEH";"23653";"Indonesia";"";"4.4494335";"95.8139959";"https://maps.google.com/?cid=0x0:0x25535cd481938555"
"supermarket bangunan";"Toko Fotokopi";"Foto copy ocean";"CRW7+54F, Keude Teunom, Kec. Teunom, Kabupaten Aceh Jaya, Aceh 23653";"Keude Teunom, Kec. Teunom, Kabupaten Aceh Jaya";"ACEH";"23653";"Indonesia";"";"4.4454369";"95.8128103";"https://maps.google.com/?cid=0x0:0x6fc9805072617711"
"supermarket bangunan";"Toko Bahan Bangunan";"Toko Besi Awak Droe";"JJ3W+J4W, Keude Krueng Sabee, Kec. Krueng Sabee, Kabupaten Aceh Jaya, Aceh 23654";"Keude Krueng Sabee, Kec. Krueng Sabee, Kabupaten Aceh Jaya";"ACEH";"23654";"Indonesia";" 081360510965";"4.6041024";"95.6453393";"https://maps.google.com/?cid=0x0:0xb66ca6e6cbfef042"
"supermarket bangunan";"Toko Bahan Bangunan";"Zahra Bangunan";"Jl. Dr. Mr. Mohd Hasan, Batoh, Kec. Lueng Bata, Kota Banda Aceh, Aceh 23127";"Batoh, Kec. Lueng Bata, Kota Banda Aceh";"ACEH";"23127";"Indonesia";" 083191742636";"5.5425651";"95.3305542";"https://maps.google.com/?cid=0x0:0x9785538145c2ac3"
"supermarket bangunan";"Toko Bahan Bangunan";"Toko Besi Hidup Baru";"JJ5R+3G8, Jl. Meulaboh - Banda Aceh, Mon Mata, Kec. Krueng Sabee, Kabupaten Aceh Jaya, Aceh 23654";"Jl. Meulaboh - Banda Aceh, Mon Mata, Kec. Krueng Sabee, Kabupaten Aceh Jaya";"ACEH";"23654";"Indonesia";" 081397005152";"4.6076502";"95.6413395";"https://maps.google.com/?cid=0x0:0xa53502ee610dfbd3"
"supermarket bangunan";"Pusat Perbelanjaan";"Sultan Swalayan";"JHMJ+9VM, Bahagia, Kec. Krueng Sabee, Kabupaten Aceh Jaya, Aceh 23655";"Bahagia, Kec. Krueng Sabee, Kabupaten Aceh Jaya";"ACEH";"23655";"Indonesia";"";"4.6334702";"95.5821661";"https://maps.google.com/?cid=0x0:0x7a08d32add1be3b4"
"supermarket bangunan";"Toko Bahan Bangunan";"5 UTAMA";"SP TUGU BPD, Jl. Meulaboh - Banda Aceh, Dayah Baro, Kec. Krueng Sabee, Kabupaten Aceh Jaya, Aceh 23655";"Jl. Meulaboh - Banda Aceh, Dayah Baro, Kec. Krueng Sabee, Kabupaten Aceh Jaya";"ACEH";"23655";"Indonesia";" 085260658707";"4.6409785";"95.5900672";"https://maps.google.com/?cid=0x0:0x10bd2e61d76cd5af"
"supermarket bangunan";"Kantor Perusahaan";"UD. Mandiri Profil";"Jl. Meulaboh - Banda Aceh, Mon Mata, Kec. Krueng Sabee, Kabupaten Aceh Jaya, Aceh 23654";"Mon Mata, Kec. Krueng Sabee, Kabupaten Aceh Jaya";"ACEH";"23654";"Indonesia";" 081247747655";"4.6076236";"95.6414452";"https://maps.google.com/?cid=0x0:0xb408a897b5f64590"
"supermarket bangunan";"supermarket bangunan";"Aceh 23654";"Kec. Woyla, Aceh";"Aceh";"ACEH";"";"Indonesia";"";"4.4143635";"96.0255738";"https://maps.google.com/?cid=0x0:0xafd411fd2a1143af"
"supermarket bangunan";"Toko Bahan Bangunan";"Toko Besi Awak Droe";"JJ3W+J4W, Keude Krueng Sabee, Kec. Krueng Sabee, Kabupaten Aceh Jaya, Aceh 23654";"Keude Krueng Sabee, Kec. Krueng Sabee, Kabupaten Aceh Jaya";"ACEH";"23654";"Indonesia";" 081360510965";"4.6041024";"95.6453393";"https://maps.google.com/?cid=0x0:0xb66ca6e6cbfef042"
"supermarket bangunan";"Toko Bahan Bangunan";"UD Bangun Perdana";"85FM+9W7 gunong meuh, Jl. Geumpang - Tutut, Alue Lhok, Kec. Kaway XVI, Kabupaten Aceh Barat, Aceh 23681";"Jl. Geumpang - Tutut, Alue Lhok, Kec. Kaway XVI, Kabupaten Aceh Barat";"ACEH";"23681";"Indonesia";"";"4.3231812";"96.1846772";"https://maps.google.com/?cid=0x0:0x8a6c03f23f41e57f"
"supermarket bangunan";"Toko";"CV. Jaya Usaha";"JJ8F+3JQ, Jl. Meulaboh - Banda Aceh, Padang Datar, Kec. Krueng Sabee, Kabupaten Aceh Jaya, Aceh 23654";"Jl. Meulaboh - Banda Aceh, Padang Datar, Kec. Krueng Sabee, Kabupaten Aceh Jaya";"ACEH";"23654";"Indonesia";"";"4.6145085";"95.625109";"https://maps.google.com/?cid=0x0:0x5e5d3ce1854fad22"
"supermarket bangunan";"Toko Bahan Bangunan";"TokoBahan Bangunan";"82XM+QVP, Unnamed Road, Padang Jawa, Kec. Woyla, Kabupaten Aceh Barat, Aceh 23654";"Unnamed Road, Padang Jawa, Kec. Woyla, Kabupaten Aceh Barat";"ACEH";"23654";"Indonesia";" 081361595202";"4.349456";"96.0347072";"https://maps.google.com/?cid=0x0:0xec79ac47fe4e1ed1"
"supermarket bangunan";"Toko Bahan Bangunan";"Toko Besi Usaha Riza Famili";"82XM+PRC, Unnamed Road, Padang Jawa, Kec. Woyla, Kabupaten Aceh Barat, Aceh 23654";"Unnamed Road, Padang Jawa, Kec. Woyla, Kabupaten Aceh Barat";"ACEH";"23654";"Indonesia";" 081361595202";"4.3493008";"96.0345212";"https://maps.google.com/?cid=0x0:0x8de05044474f1df7"
"supermarket bangunan";"Toko Bahan Bangunan";"TOKO BANGUNAN HIDAYAH";"85RM+9FC, Padang Sikabu, Kec. Kaway XVI, Kabupaten Aceh Barat, Aceh 23681";"Padang Sikabu, Kec. Kaway XVI, Kabupaten Aceh Barat";"ACEH";"23681";"Indonesia";" 085260875358";"4.3409422";"96.1836455";"https://maps.google.com/?cid=0x0:0xd9810d90677391d4"
"supermarket bangunan";"Toko Perlengkapan Rumah";"Toko Bina Baru";"CRX7+QHH, Jl. Lintas Barat Sumatera, Padang Kleng, Kec. Teunom, Kabupaten Aceh Jaya, Aceh 23653";"Jl. Lintas Barat Sumatera, Padang Kleng, Kec. Teunom, Kabupaten Aceh Jaya";"ACEH";"23653";"Indonesia";"";"4.4494335";"95.8139959";"https://maps.google.com/?cid=0x0:0x25535cd481938555"
"supermarket bangunan";"Toko Bahan Bangunan";"5 UTAMA";"SP TUGU BPD, Jl. Meulaboh - Banda Aceh, Dayah Baro, Kec. Krueng Sabee, Kabupaten Aceh Jaya, Aceh 23655";"Jl. Meulaboh - Banda Aceh, Dayah Baro, Kec. Krueng Sabee, Kabupaten Aceh Jaya";"ACEH";"23655";"Indonesia";" 085260658707";"4.6409785";"95.5900672";"https://maps.google.com/?cid=0x0:0x10bd2e61d76cd5af"
"supermarket bangunan";"Toko Bahan Bangunan";"Toko Bangunan Mitra Mandiri";"68RC+P6V, Gampong, Blang Baro, Kec. Seunagan, Kabupaten Nagan Raya, Aceh 23671";"Gampong, Blang Baro, Kec. Seunagan, Kabupaten Nagan Raya";"ACEH";"23671";"Indonesia";" 085262785537";"4.2418577";"96.3205566";"https://maps.google.com/?cid=0x0:0x114ab0ab7d1b1bea"
"supermarket bangunan";"Grosir";"Toko BSM (Bahan bangunan)";"Jl. Singgah Mata No.1, Ujong Baroh, Kec. Johan Pahlawan, Kabupaten Aceh Barat, Aceh 23681";"Ujong Baroh, Kec. Johan Pahlawan, Kabupaten Aceh Barat";"ACEH";"23681";"Indonesia";" 085318181874";"4.1455825";"96.1281432";"https://maps.google.com/?cid=0x0:0xede95c029980a66c"
"supermarket bangunan";"Toko Bahan Bangunan";"Tb. CAHAYA MUTIARA";"Kuta Padang, Kec. Johan Pahlawan, Kabupaten Aceh Barat, Aceh 23681";"Kec. Johan Pahlawan, Kabupaten Aceh Barat";"ACEH";"23681";"Indonesia";"";"4.1467988";"96.1271803";"https://maps.google.com/?cid=0x0:0x953d64c3c492fcd5"
"supermarket bangunan";"Toko";"UD. MIH JAYA";"8XJ3+XRW, Unnamed Road, Simpang Peut, Kec. Arongan Lambalek, Kabupaten Aceh Barat, Aceh 23652";"Unnamed Road, Simpang Peut, Kec. Arongan Lambalek, Kabupaten Aceh Barat";"ACEH";"23652";"Indonesia";" 085260902505";"4.3324824";"95.9545724";"https://maps.google.com/?cid=0x0:0x3aaa6fa6b24c919f"
"supermarket bangunan";"supermarket bangunan";"Aceh 23655";"Kec. Setia Bakti, Kabupaten Aceh Jaya, Aceh";"Kabupaten Aceh Jaya, Aceh";"ACEH";"";"Indonesia";"";"4.7457854";"95.6878736";"https://maps.google.com/?cid=0x0:0x52d192e4749e2bd4"
"supermarket bangunan";"Toko Bahan Bangunan";"Zahra Bangunan";"Jl. Dr. Mr. Mohd Hasan, Batoh, Kec. Lueng Bata, Kota Banda Aceh, Aceh 23127";"Batoh, Kec. Lueng Bata, Kota Banda Aceh";"ACEH";"23127";"Indonesia";" 083191742636";"5.5425651";"95.3305542";"https://maps.google.com/?cid=0x0:0x9785538145c2ac3"
"supermarket bangunan";"Pusat Perbelanjaan";"Sultan Swalayan";"JHMJ+9VM, Bahagia, Kec. Krueng Sabee, Kabupaten Aceh Jaya, Aceh 23655";"Bahagia, Kec. Krueng Sabee, Kabupaten Aceh Jaya";"ACEH";"23655";"Indonesia";"";"4.6334702";"95.5821661";"https://maps.google.com/?cid=0x0:0x7a08d32add1be3b4"
"supermarket bangunan";"Kantor Perusahaan";"UD. Mandiri Profil";"Jl. Meulaboh - Banda Aceh, Mon Mata, Kec. Krueng Sabee, Kabupaten Aceh Jaya, Aceh 23654";"Mon Mata, Kec. Krueng Sabee, Kabupaten Aceh Jaya";"ACEH";"23654";"Indonesia";" 081247747655";"4.6076236";"95.6414452";"https://maps.google.com/?cid=0x0:0xb408a897b5f64590"
"supermarket bangunan";"Toko Bahan Bangunan";"Toko Besi Hidup Baru";"JJ5R+3G8, Jl. Meulaboh - Banda Aceh, Mon Mata, Kec. Krueng Sabee, Kabupaten Aceh Jaya, Aceh 23654";"Jl. Meulaboh - Banda Aceh, Mon Mata, Kec. Krueng Sabee, Kabupaten Aceh Jaya";"ACEH";"23654";"Indonesia";" 081397005152";"4.6076502";"95.6413395";"https://maps.google.com/?cid=0x0:0xa53502ee610dfbd3"
"supermarket bangunan";"Toko";"CV. Jaya Usaha";"JJ8F+3JQ, Jl. Meulaboh - Banda Aceh, Padang Datar, Kec. Krueng Sabee, Kabupaten Aceh Jaya, Aceh 23654";"Jl. Meulaboh - Banda Aceh, Padang Datar, Kec. Krueng Sabee, Kabupaten Aceh Jaya";"ACEH";"23654";"Indonesia";"";"4.6145085";"95.625109";"https://maps.google.com/?cid=0x0:0x5e5d3ce1854fad22"
"supermarket bangunan";"Toko Bahan Bangunan";"Toko Besi Awak Droe";"JJ3W+J4W, Keude Krueng Sabee, Kec. Krueng Sabee, Kabupaten Aceh Jaya, Aceh 23654";"Keude Krueng Sabee, Kec. Krueng Sabee, Kabupaten Aceh Jaya";"ACEH";"23654";"Indonesia";" 081360510965";"4.6041024";"95.6453393";"https://maps.google.com/?cid=0x0:0xb66ca6e6cbfef042"
"supermarket bangunan";"Toko Bahan Bangunan";"SB_SURYA BARU";"GPR9+939, Jl. Meulaboh - Banda Aceh, Kuta Tuha, Kec. Panga, Kabupaten Aceh Jaya, Aceh 23653";"Jl. Meulaboh - Banda Aceh, Kuta Tuha, Kec. Panga, Kabupaten Aceh Jaya";"ACEH";"23653";"Indonesia";"";"4.5409166";"95.7177197";"https://maps.google.com/?cid=0x0:0x14f59fe1dc346718"
"supermarket bangunan";"supermarket bangunan";"Toko Bangunan AA Baru Rigaih";"MH73+237, Jl. Meulaboh - Banda Aceh, Moulaboh, Rigah, Kec. Setia Bakti, Kabupaten Aceh Jaya, Aceh";"Kabupaten Aceh Jaya, Aceh";"ACEH";"";"Indonesia";"";"4.6625265";"95.5526679";"https://maps.google.com/?cid=0x0:0x422e6cd946102a4"
"supermarket bangunan";"Toko Perlengkapan Rumah";"Toko Bahan Bangunan Indah Warna";"7XQC+X9V, Blang Lileue, Kec. Mutiara, Kabupaten Pidie, Aceh 24151";"Blang Lileue, Kec. Mutiara, Kabupaten Pidie";"ACEH";"24151";"Indonesia";"";"5.2896524";"95.970922";"https://maps.google.com/?cid=0x0:0xe5e998d92e92f0ea"
"supermarket bangunan";"Toko Bahan Bangunan";"Mudah Utama";"Simpang Bundaran Jl Baru, Blk. Sawah, Kec. Kota Sigli, Kabupaten Pidie, Aceh 24111";"Blk. Sawah, Kec. Kota Sigli, Kabupaten Pidie";"ACEH";"24111";"Indonesia";" 082176602070";"5.3801168";"95.9593483";"https://maps.google.com/?cid=0x0:0xba135d63b6a42e52"
"supermarket bangunan";"Toko Perlengkapan Rumah";"Toko Bina Baru";"CRX7+QHH, Jl. Lintas Barat Sumatera, Padang Kleng, Kec. Teunom, Kabupaten Aceh Jaya, Aceh 23653";"Jl. Lintas Barat Sumatera, Padang Kleng, Kec. Teunom, Kabupaten Aceh Jaya";"ACEH";"23653";"Indonesia";"";"4.4494335";"95.8139959";"https://maps.google.com/?cid=0x0:0x25535cd481938555"
"supermarket bangunan";"Toko Bahan Bangunan";"Toko Bahan Bangunan TB. Setia";"Jl. Letjen Suprapto No.6, Brebes Tengah, Brebes, Kec. Brebes, Kabupaten Brebes, Jawa Tengah 52212";"Brebes Tengah, Brebes, Kec. Brebes, Kabupaten Brebes";"ACEH";"52212";"Indonesia";" 0283672884";"-6.8699953";"109.040141";"https://maps.google.com/?cid=0x0:0x885d19d2d11777f2"
"supermarket bangunan";"supermarket bangunan";"Aceh 23656";"Kabupaten Aceh Jaya, Aceh";"Kabupaten Aceh Jaya, Aceh";"ACEH";"";"Indonesia";"";"4.9116238";"95.6037465";"https://maps.google.com/?cid=0x0:0x1aed070c2c639dba"
"supermarket bangunan";"Toko Bahan Bangunan";"SULTAN JAYA(TOKO BANGUNAN)";"Jl. Bandara Sultan Iskandar Muda, Ajee Cut, Kec. Ingin Jaya, Kabupaten Aceh Besar, Aceh 24411";"Ajee Cut, Kec. Ingin Jaya, Kabupaten Aceh Besar";"ACEH";"24411";"Indonesia";" 085362992535";"5.510563";"95.3880613";"https://maps.google.com/?cid=0x0:0xaa81de74e089cb09"
"supermarket bangunan";"supermarket bangunan";"UD. Fathyya Fathir";"RGJ8+338, Lam Teungoh, Kec. Darul Hikmah, Kabupaten Aceh Jaya, Aceh 23656";"Lam Teungoh, Kec. Darul Hikmah, Kabupaten Aceh Jaya";"ACEH";"23656";"Indonesia";" 085260049695";"4.830156";"95.5151922";"https://maps.google.com/?cid=0x0:0x241878ea04e1e445"
"supermarket bangunan";"supermarket bangunan";"toko banunan khaidar amar";"QFQ5+PP3, Gampong Baro P, Kec. Darul Hikmah, Kabupaten Aceh Jaya, Aceh 23656";"Gampong Baro P, Kec. Darul Hikmah, Kabupaten Aceh Jaya";"ACEH";"23656";"Indonesia";"";"4.789238";"95.4590464";"https://maps.google.com/?cid=0x0:0x17d0aed9ebc7c4c"
"supermarket bangunan";"Toko Cat";"Sumber Jaya";"G9X5+V96, Jl. Teuku Iskandar, Ceurih, Kec. Ulee Kareng, Kota Banda Aceh, Aceh 24451";"Jl. Teuku Iskandar, Ceurih, Kec. Ulee Kareng, Kota Banda Aceh";"ACEH";"24451";"Indonesia";" 085277204222";"5.5496747";"95.3583869";"https://maps.google.com/?cid=0x0:0x7c4e2bc396e6c120"
"supermarket bangunan";"Pusat Perbelanjaan";"Sultan Swalayan";"JHMJ+9VM, Bahagia, Kec. Krueng Sabee, Kabupaten Aceh Jaya, Aceh 23655";"Bahagia, Kec. Krueng Sabee, Kabupaten Aceh Jaya";"ACEH";"23655";"Indonesia";"";"4.6334702";"95.5821661";"https://maps.google.com/?cid=0x0:0x7a08d32add1be3b4"
"supermarket bangunan";"Toko Bahan Bangunan";"Zahra Bangunan";"Jl. Dr. Mr. Mohd Hasan, Batoh, Kec. Lueng Bata, Kota Banda Aceh, Aceh 23127";"Batoh, Kec. Lueng Bata, Kota Banda Aceh";"ACEH";"23127";"Indonesia";" 083191742636";"5.5425651";"95.3305542";"https://maps.google.com/?cid=0x0:0x9785538145c2ac3"
"supermarket bangunan";"Toko Bahan Bangunan";"Toko Bangunan M. Zubaili";"Jl. Tgk. Glee Iniem No.1, Tungkob, Kec. Darussalam, Kabupaten Aceh Besar, Aceh 23373";"Tungkob, Kec. Darussalam, Kabupaten Aceh Besar";"ACEH";"23373";"Indonesia";" 085260067265";"5.5698462";"95.38426";"https://maps.google.com/?cid=0x0:0x916331985aff5682"
"supermarket bangunan";"Toko Bahan Bangunan";"TOKO BESI BINTANG BANGUNAN";"Jl. Pocut Baren No.29, Keuramat, Kec. Kuta Alam, Kota Banda Aceh, Aceh 23126";"Keuramat, Kec. Kuta Alam, Kota Banda Aceh";"ACEH";"23126";"Indonesia";" 081360031288";"5.5617508";"95.3240203";"https://maps.google.com/?cid=0x0:0xa98c67e001462b53"
"supermarket bangunan";"Toko Bahan Bangunan";"Toko Bangunan Seuneulop Baru";"FCP3+W3Q, Jl. Montasik - Blang Bintang, Mata Ie, Kec. Montasik, Kabupaten Aceh Besar, Aceh 23373";"Jl. Montasik - Blang Bintang, Mata Ie, Kec. Montasik, Kabupaten Aceh Besar";"ACEH";"23373";"Indonesia";" 085206559598";"5.4873343";"95.4027437";"https://maps.google.com/?cid=0x0:0xcfe5fbadf130e482"
"supermarket bangunan";"Toko Perlengkapan Rumah";"Toko Bina Baru";"CRX7+QHH, Jl. Lintas Barat Sumatera, Padang Kleng, Kec. Teunom, Kabupaten Aceh Jaya, Aceh 23653";"Jl. Lintas Barat Sumatera, Padang Kleng, Kec. Teunom, Kabupaten Aceh Jaya";"ACEH";"23653";"Indonesia";"";"4.4494335";"95.8139959";"https://maps.google.com/?cid=0x0:0x25535cd481938555"
"supermarket bangunan";"Toko Bahan Bangunan";"Toko Bangunan Semoga Maju";"Banda Safa, Kec. Kuta Cot Glie, Kabupaten Aceh Besar, Aceh 23372";"Kec. Kuta Cot Glie, Kabupaten Aceh Besar";"ACEH";"23372";"Indonesia";" 081313363830";"5.3915696";"95.5146221";"https://maps.google.com/?cid=0x0:0xbfcb6b1df256257f"
"supermarket bangunan";"Toko Bahan Bangunan";"Toko Dunia Bangunan. 24 Jam.";"H82H+CVX, Jl. Teuku Imuem Jl. Teuku Chik Di Tiro, Ateuk Pahlawan, Kec. Baiturrahman, Kota Banda Aceh, Aceh 174_175";"Kota Banda Aceh, Aceh";"ACEH";"";"Indonesia";" 085260178145";"5.5511237";"95.3297328";"https://maps.google.com/?cid=0x0:0xc5443108175d2ef2"
"supermarket bangunan";"Toko Bahan Bangunan";"Toko Bangunan Jambo Akhie";"G8JQ+QVH, Landom, Kec. Lueng Bata, Kota Banda Aceh, Aceh 23122";"Landom, Kec. Lueng Bata, Kota Banda Aceh";"ACEH";"23122";"Indonesia";"";"5.5319478";"95.3397414";"https://maps.google.com/?cid=0x0:0x1fbef36a02b6f916"
"supermarket bangunan";"Toko Bahan Bangunan";"RIZQI JAYA";"39R7+M2W, Bak Paoh, Jaya, Kabupaten Aceh Jaya, Aceh 23657";"Bak Paoh, Jaya, Kabupaten Aceh Jaya";"ACEH";"23657";"Indonesia";" 085261909078";"5.0917483";"95.3625629";"https://maps.google.com/?cid=0x0:0x3f10ee5077e1ea79"
"supermarket bangunan";"supermarket bangunan";"Aceh 23657";"Kabupaten Aceh Jaya, Aceh";"Kabupaten Aceh Jaya, Aceh";"ACEH";"";"Indonesia";"";"5.0787006";"95.435853";"https://maps.google.com/?cid=0x0:0x3ad6a5bdfe2df870"
"supermarket bangunan";"Toko Bahan Bangunan";"Toko bangun jaya 2";"39Q7+2X9, Meunasah Weh, Jaya, Kabupaten Aceh Jaya, Aceh 23657";"Meunasah Weh, Jaya, Kabupaten Aceh Jaya";"ACEH";"23657";"Indonesia";"";"5.0875305";"95.364993";"https://maps.google.com/?cid=0x0:0xfce91d5a907cf64"
"supermarket bangunan";"Toko Bahan Bangunan";"Toko bangun jaya 1";"Meunasah Weh, Jaya, Kabupaten Aceh Jaya, Aceh 23657";"Jaya, Kabupaten Aceh Jaya";"ACEH";"23657";"Indonesia";" 081269666662";"5.0845213";"95.3629516";"https://maps.google.com/?cid=0x0:0x374a1246dc94d268"
"supermarket bangunan";"Toko Bahan Bangunan";"Zahra Bangunan";"Jl. Dr. Mr. Mohd Hasan, Batoh, Kec. Lueng Bata, Kota Banda Aceh, Aceh 23127";"Batoh, Kec. Lueng Bata, Kota Banda Aceh";"ACEH";"23127";"Indonesia";" 083191742636";"5.5425651";"95.3305542";"https://maps.google.com/?cid=0x0:0x9785538145c2ac3"
"supermarket bangunan";"Toko Bahan Bangunan";"SULTAN JAYA(TOKO BANGUNAN)";"Jl. Bandara Sultan Iskandar Muda, Ajee Cut, Kec. Ingin Jaya, Kabupaten Aceh Besar, Aceh 24411";"Ajee Cut, Kec. Ingin Jaya, Kabupaten Aceh Besar";"ACEH";"24411";"Indonesia";" 085362992535";"5.510563";"95.3880613";"https://maps.google.com/?cid=0x0:0xaa81de74e089cb09"
"supermarket bangunan";"Toko Bahan Bangunan";"toko bangunan TERATAI JAYA";"H9H2+MJ3, Jl. Teuku Nyak Arief, Jeulingke, Kec. Syiah Kuala, Kota Banda Aceh, Aceh 23114";"Jl. Teuku Nyak Arief, Jeulingke, Kec. Syiah Kuala, Kota Banda Aceh";"ACEH";"23114";"Indonesia";"";"5.5791255";"95.3515394";"https://maps.google.com/?cid=0x0:0x1f49c2a470f4d9bd"
"supermarket bangunan";"Toko";"Toko bangunan sinar baru";"rima, Jalan ulee lheu - simpang, Lamjamee, Kec. Jaya Baru, Kota Banda Aceh, Aceh 23234";"Jalan ulee lheu - simpang, Lamjamee, Kec. Jaya Baru, Kota Banda Aceh";"ACEH";"23234";"Indonesia";" 082361058888";"5.5398079";"95.2848595";"https://maps.google.com/?cid=0x0:0x7657166469a743c7"
"supermarket bangunan";"Toko Bahan Bangunan";"Jaya Bangunan";"JL. Teuku Umar, No. 73, Setui, Sukaramai, Banda Aceh, Kota Banda Aceh, Aceh 23116";"No. 73, Setui, Sukaramai, Banda Aceh, Kota Banda Aceh";"ACEH";"23116";"Indonesia";" 065141045";"5.543664";"95.3127103";"https://maps.google.com/?cid=0x0:0x52a9281259292334"
"supermarket bangunan";"Toko Bahan Bangunan";"Arviza Keramik";"Jl. Pocut Baren No.18A, Nusa, Jaya, Kabupaten Aceh Jaya, Aceh 23657";"Nusa, Jaya, Kabupaten Aceh Jaya";"ACEH";"23657";"Indonesia";" 065126322";"5.070233";"95.325512";"https://maps.google.com/?cid=0x0:0xb9d5e21962ed567b"
"supermarket bangunan";"Toko Bahan Bangunan";"Toko Dunia Bangunan. 24 Jam.";"H82H+CVX, Jl. Teuku Imuem Jl. Teuku Chik Di Tiro, Ateuk Pahlawan, Kec. Baiturrahman, Kota Banda Aceh, Aceh 174_175";"Kota Banda Aceh, Aceh";"ACEH";"";"Indonesia";" 085260178145";"5.5511237";"95.3297328";"https://maps.google.com/?cid=0x0:0xc5443108175d2ef2"
"supermarket bangunan";"Toko Bahan Bangunan";"Keudee Bangunan";"Lampenerat, JL. Doktor Insiyur Teuku Muhammad Hasan, No. 6, Aceh Besar, Alue Mie, Banda Aceh, Kabupaten Aceh Jaya, Aceh 23657";"JL. Doktor Insiyur Teuku Muhammad Hasan, No. 6, Aceh Besar, Alue Mie, Banda Aceh, Kabupaten Aceh Jaya";"ACEH";"23657";"Indonesia";" 082160111000";"5.067412";"95.343751";"https://maps.google.com/?cid=0x0:0xfdda38066da60d71"
"supermarket bangunan";"Toko Cat";"Sumber Jaya";"G9X5+V96, Jl. Teuku Iskandar, Ceurih, Kec. Ulee Kareng, Kota Banda Aceh, Aceh 24451";"Jl. Teuku Iskandar, Ceurih, Kec. Ulee Kareng, Kota Banda Aceh";"ACEH";"24451";"Indonesia";" 085277204222";"5.5496747";"95.3583869";"https://maps.google.com/?cid=0x0:0x7c4e2bc396e6c120"
"supermarket bangunan";"Toko Bahan Bangunan";"UD. Puga Jaya (Toko Bahan Bangunan Bang Adek)";"H983+87W, Jl. Kebun Raja, Lamgugob, Kec. Syiah Kuala, Kota Banda Aceh, Aceh";"Kota Banda Aceh, Aceh";"ACEH";"";"Indonesia";"";"5.5658619";"95.353211";"https://maps.google.com/?cid=0x0:0xc2f7cb214e7565be"
"supermarket bangunan";"supermarket bangunan";"Kec. Indra Jaya";"Kabupaten Aceh Jaya, Aceh";"Kabupaten Aceh Jaya, Aceh";"ACEH";"";"Indonesia";"";"5.0632418";"95.3386622";"https://maps.google.com/?cid=0x0:0x9bf6e49fb0e9adcc"
"supermarket bangunan";"Toko Bahan Bangunan";"RIZQI JAYA";"39R7+M2W, Bak Paoh, Jaya, Kabupaten Aceh Jaya, Aceh 23657";"Bak Paoh, Jaya, Kabupaten Aceh Jaya";"ACEH";"23657";"Indonesia";" 085261909078";"5.0917483";"95.3625629";"https://maps.google.com/?cid=0x0:0x3f10ee5077e1ea79"
"supermarket bangunan";"Toko Bahan Bangunan";"Toko bangun jaya 2";"39Q7+2X9, Meunasah Weh, Jaya, Kabupaten Aceh Jaya, Aceh 23657";"Meunasah Weh, Jaya, Kabupaten Aceh Jaya";"ACEH";"23657";"Indonesia";"";"5.0875305";"95.364993";"https://maps.google.com/?cid=0x0:0xfce91d5a907cf64"
"supermarket bangunan";"Toko Swalayan";"UD.MMH JAYA";"39C2+WQW, Jl. Banda Aceh - Calang, Babah Dua, Kec. Indra Jaya, Kabupaten Aceh Jaya, Aceh 23657";"Jl. Banda Aceh - Calang, Babah Dua, Kec. Indra Jaya, Kabupaten Aceh Jaya";"ACEH";"23657";"Indonesia";"";"5.0722571";"95.3519543";"https://maps.google.com/?cid=0x0:0xecb068616e4391c6"
"supermarket bangunan";"Toko Bahan Bangunan";"Toko bangun jaya 1";"Meunasah Weh, Jaya, Kabupaten Aceh Jaya, Aceh 23657";"Jaya, Kabupaten Aceh Jaya";"ACEH";"23657";"Indonesia";" 081269666662";"5.0845213";"95.3629516";"https://maps.google.com/?cid=0x0:0x374a1246dc94d268"
"supermarket bangunan";"Toko Bahan Bangunan";"Keudee Bangunan";"Lampenerat, JL. Doktor Insiyur Teuku Muhammad Hasan, No. 6, Aceh Besar, Alue Mie, Banda Aceh, Kabupaten Aceh Jaya, Aceh 23657";"JL. Doktor Insiyur Teuku Muhammad Hasan, No. 6, Aceh Besar, Alue Mie, Banda Aceh, Kabupaten Aceh Jaya";"ACEH";"23657";"Indonesia";" 082160111000";"5.067412";"95.343751";"https://maps.google.com/?cid=0x0:0xfdda38066da60d71"
"supermarket bangunan";"Toko Swalayan";"Putra Jaya Swalayan";"H982+F22, Pineung, Kec. Syiah Kuala, Kota Banda Aceh, Aceh";"Kota Banda Aceh, Aceh";"ACEH";"";"Indonesia";" 085216710983";"5.5661279";"95.3500312";"https://maps.google.com/?cid=0x0:0xcabd143f2407f6ad"
"supermarket bangunan";"Toko Bahan Bangunan";"Toko bangunan / toko bahan bangunan";"H9J7+PM3, Rukoh, Kec. Syiah Kuala, Kota Banda Aceh, Aceh";"Kota Banda Aceh, Aceh";"ACEH";"";"Indonesia";"";"5.581784";"95.3641847";"https://maps.google.com/?cid=0x0:0xca53fca6947362de"
"supermarket bangunan";"Toko Bahan Bangunan";"Arviza Keramik";"Jl. Pocut Baren No.18A, Nusa, Jaya, Kabupaten Aceh Jaya, Aceh 23657";"Nusa, Jaya, Kabupaten Aceh Jaya";"ACEH";"23657";"Indonesia";" 065126322";"5.070233";"95.325512";"https://maps.google.com/?cid=0x0:0xb9d5e21962ed567b"
"supermarket bangunan";"Toko Perlengkapan Rumah";"Sepermarket Bahan Bangunan Asia Niaga";"Jl. Jenderal Ahmad Yani No.123, Blang Sinibong, Kec. Langsa Kota, Kota Langsa, Aceh 24375";"Blang Sinibong, Kec. Langsa Kota, Kota Langsa";"ACEH";"24375";"Indonesia";" 08116700155";"4.4725893";"97.9756602";"https://maps.google.com/?cid=0x0:0xbf87768a6495f87a"
"supermarket bangunan";"Bengkel Mobil";"Service Radiator Bak Sukun da Asah Batu Cincin Permata";"JL. Teungku Imum Leung Bata, No. 206, Panteriek, Keude Unga, Banda Aceh, Kabupaten Aceh Jaya, Aceh 23657";"No. 206, Panteriek, Keude Unga, Banda Aceh, Kabupaten Aceh Jaya";"ACEH";"23657";"Indonesia";" 085226579943";"5.036572";"95.361808";"https://maps.google.com/?cid=0x0:0xe1a7679620b284ca"
"supermarket bangunan";"Toko Bahan Bangunan";"Zahra Bangunan";"Jl. Dr. Mr. Mohd Hasan, Batoh, Kec. Lueng Bata, Kota Banda Aceh, Aceh 23127";"Batoh, Kec. Lueng Bata, Kota Banda Aceh";"ACEH";"23127";"Indonesia";" 083191742636";"5.5425651";"95.3305542";"https://maps.google.com/?cid=0x0:0x9785538145c2ac3"
"supermarket bangunan";"Toko Bahan Bangunan";"UD. Puga Jaya (Toko Bahan Bangunan Bang Adek)";"H983+87W, Jl. Kebun Raja, Lamgugob, Kec. Syiah Kuala, Kota Banda Aceh, Aceh";"Kota Banda Aceh, Aceh";"ACEH";"";"Indonesia";"";"5.5658619";"95.353211";"https://maps.google.com/?cid=0x0:0xc2f7cb214e7565be"
"supermarket bangunan";"Toko Cat";"Sumber Jaya";"G9X5+V96, Jl. Teuku Iskandar, Ceurih, Kec. Ulee Kareng, Kota Banda Aceh, Aceh 24451";"Jl. Teuku Iskandar, Ceurih, Kec. Ulee Kareng, Kota Banda Aceh";"ACEH";"24451";"Indonesia";" 085277204222";"5.5496747";"95.3583869";"https://maps.google.com/?cid=0x0:0x7c4e2bc396e6c120"
"supermarket bangunan";"supermarket bangunan";"Kec. Indra Jaya";"Kabupaten Pidie, Aceh";"Kabupaten Pidie, Aceh";"ACEH";"";"Indonesia";"";"5.3162867";"95.9602464";"https://maps.google.com/?cid=0x0:0xcceede14e8e3d2e3"
"supermarket bangunan";"Toko Perlengkapan Rumah";"Toko Bahan Bangunan Indah Warna";"7XQC+X9V, Blang Lileue, Kec. Mutiara, Kabupaten Pidie, Aceh 24151";"Blang Lileue, Kec. Mutiara, Kabupaten Pidie";"ACEH";"24151";"Indonesia";"";"5.2896524";"95.970922";"https://maps.google.com/?cid=0x0:0xe5e998d92e92f0ea"
"supermarket bangunan";"Toko";"Toko Bahan Bangunan Siha Baru";"JALAN TEUBENG, Tijue, Kec. Pidie, Kabupaten Pidie, Aceh 24151";"Tijue, Kec. Pidie, Kabupaten Pidie";"ACEH";"24151";"Indonesia";"";"5.3578292";"95.9604301";"https://maps.google.com/?cid=0x0:0x47709ff6cfea92a6"
"supermarket bangunan";"Toko Bahan Bangunan";"Tuah Mata";"Di depan Mesjid Taqwa, JLN. Medan-Banda Aceh, Lampoh Saka, KM. 8, Kec. Peukan Baro, Aceh 24172";"JLN. Medan-Banda Aceh, Lampoh Saka, KM. 8, Kec. Peukan Baro";"ACEH";"24172";"Indonesia";" 081269075098";"5.3076256";"95.963832";"https://maps.google.com/?cid=0x0:0xb77f52f93a38bb5b"
"supermarket bangunan";"Toko bahan makanan";"Toko bangunan sabee jaya";"Jl. Medan - Banda Aceh, Meunasah Lueng Bambi, Kec. Peukan Baro, Kabupaten Pidie, Aceh 24172";"Meunasah Lueng Bambi, Kec. Peukan Baro, Kabupaten Pidie";"ACEH";"24172";"Indonesia";"";"5.3420507";"95.9639569";"https://maps.google.com/?cid=0x0:0xa96e122d70497825"
"supermarket bangunan";"Toko Bahan Bangunan";"Toko Bangunan Pulo Rahmat";"8XQ9+J3W, Balee Rastong, Kec. Peukan Baro, Kabupaten Pidie, Aceh 24164";"Balee Rastong, Kec. Peukan Baro, Kabupaten Pidie";"ACEH";"24164";"Indonesia";" 082369898036";"5.3389616";"95.9677126";"https://maps.google.com/?cid=0x0:0xafcdd465f1171fa1"
"supermarket bangunan";"Rumah Kayu";"PAGAR KAYU SIGLI";"Meuluweuk, Dayah Caleue, Kec. Peukan Baro, Kabupaten Pidie, Aceh 23657";"Dayah Caleue, Kec. Peukan Baro, Kabupaten Pidie";"ACEH";"23657";"Indonesia";" 085260337070";"5.3242475";"95.949659";"https://maps.google.com/?cid=0x0:0x9442959745ea6372"
"supermarket bangunan";"Toko Bahan Bangunan";"Toko Bangunan Mudah Rezeki";"7XGH+VWJ, Jl. Medan - Banda Aceh, Baro Yaman, Kec. Mutiara, Kabupaten Pidie, Aceh 24186";"Jl. Medan - Banda Aceh, Baro Yaman, Kec. Mutiara, Kabupaten Pidie";"ACEH";"24186";"Indonesia";" 081269110111";"5.2772135";"95.9797531";"https://maps.google.com/?cid=0x0:0x35c5fb47563cbc1d"
"supermarket bangunan";"Kafe";"Keude Lampoh Saka";"Tanjong Hagu, Kec. Peukan Baro, Kabupaten Pidie, Aceh 24151";"Kec. Peukan Baro, Kabupaten Pidie";"ACEH";"24151";"Indonesia";"";"5.3077656";"95.9637851";"https://maps.google.com/?cid=0x0:0xfffb4338ee8d2f4f"
"supermarket bangunan";"Toko Bahan Bangunan";"Toko Dunia Bangunan. 24 Jam.";"H82H+CVX, Jl. Teuku Imuem Jl. Teuku Chik Di Tiro, Ateuk Pahlawan, Kec. Baiturrahman, Kota Banda Aceh, Aceh 174_175";"Kota Banda Aceh, Aceh";"ACEH";"";"Indonesia";" 085260178145";"5.5511237";"95.3297328";"https://maps.google.com/?cid=0x0:0xc5443108175d2ef2"
"supermarket bangunan";"Pusat Perbelanjaan";"Asia Utama Beureunuen";"Jl. Medan - Banda Aceh, Beureunuen, Blang Lileue, Kec. Mutiara, Kabupaten Pidie, Aceh 24173";"Beureunuen, Blang Lileue, Kec. Mutiara, Kabupaten Pidie";"ACEH";"24173";"Indonesia";" 085270448445";"5.2884393";"95.9717897";"https://maps.google.com/?cid=0x0:0xc070ae80ed4eef5c"
"supermarket bangunan";"Toko Bahan Bangunan";"Toko bangunan hidup baru";"Jl. Medan - Banda Aceh, Rapana, Kec. Mutiara, Kabupaten Pidie, Aceh";"Kabupaten Pidie, Aceh";"ACEH";"";"Indonesia";"";"5.2778736";"95.9730691";"https://maps.google.com/?cid=0x0:0x8ecaf417110d795a"
"supermarket bangunan";"Toko";"Toko Bangunan Baru Mandiri";"7WCG+5QH, Jl. Jabal Ghafur, Lameue Mns Raya, Kec. Sakti, Kabupaten Pidie, Aceh 24181";"Jl. Jabal Ghafur, Lameue Mns Raya, Kec. Sakti, Kabupaten Pidie";"ACEH";"24181";"Indonesia";"";"5.2704442";"95.9269742";"https://maps.google.com/?cid=0x0:0x485d902863234f10"
"supermarket bangunan";"Toko Bahan Bangunan";"Toko Bangunan Terlengkap";"7XGC+H5V, Jl. Medan - Banda Aceh, Rapana, Kec. Mutiara, Kabupaten Pidie, Aceh 24151";"Jl. Medan - Banda Aceh, Rapana, Kec. Mutiara, Kabupaten Pidie";"ACEH";"24151";"Indonesia";"";"5.2764798";"95.9704222";"https://maps.google.com/?cid=0x0:0xfabf3360da110390"
"supermarket bangunan";"Toko Bahan Bangunan";"Zahra Bangunan";"Jl. Dr. Mr. Mohd Hasan, Batoh, Kec. Lueng Bata, Kota Banda Aceh, Aceh 23127";"Batoh, Kec. Lueng Bata, Kota Banda Aceh";"ACEH";"23127";"Indonesia";" 083191742636";"5.5425651";"95.3305542";"https://maps.google.com/?cid=0x0:0x9785538145c2ac3"
"supermarket bangunan";"supermarket bangunan";"Aceh 23656";"Kabupaten Aceh Jaya, Aceh";"Kabupaten Aceh Jaya, Aceh";"ACEH";"";"Indonesia";"";"4.9116238";"95.6037465";"https://maps.google.com/?cid=0x0:0x1aed070c2c639dba"
"supermarket bangunan";"Toko Bahan Bangunan";"TOKO BESI BINTANG BANGUNAN";"Jl. Pocut Baren No.29, Keuramat, Kec. Kuta Alam, Kota Banda Aceh, Aceh 23126";"Keuramat, Kec. Kuta Alam, Kota Banda Aceh";"ACEH";"23126";"Indonesia";" 081360031288";"5.5617508";"95.3240203";"https://maps.google.com/?cid=0x0:0xa98c67e001462b53"
"supermarket bangunan";"Pusat Perbelanjaan";"Sultan Swalayan";"JHMJ+9VM, Bahagia, Kec. Krueng Sabee, Kabupaten Aceh Jaya, Aceh 23655";"Bahagia, Kec. Krueng Sabee, Kabupaten Aceh Jaya";"ACEH";"23655";"Indonesia";"";"4.6334702";"95.5821661";"https://maps.google.com/?cid=0x0:0x7a08d32add1be3b4"
"supermarket bangunan";"Toko Bahan Bangunan";"Toko Dunia Bangunan. 24 Jam.";"H82H+CVX, Jl. Teuku Imuem Jl. Teuku Chik Di Tiro, Ateuk Pahlawan, Kec. Baiturrahman, Kota Banda Aceh, Aceh 174_175";"Kota Banda Aceh, Aceh";"ACEH";"";"Indonesia";" 085260178145";"5.5511237";"95.3297328";"https://maps.google.com/?cid=0x0:0xc5443108175d2ef2"
"supermarket bangunan";"Toko Bahan Bangunan";"SB_SURYA BARU";"GPR9+939, Jl. Meulaboh - Banda Aceh, Kuta Tuha, Kec. Panga, Kabupaten Aceh Jaya, Aceh 23653";"Jl. Meulaboh - Banda Aceh, Kuta Tuha, Kec. Panga, Kabupaten Aceh Jaya";"ACEH";"23653";"Indonesia";"";"4.5409166";"95.7177197";"https://maps.google.com/?cid=0x0:0x14f59fe1dc346718"
"supermarket bangunan";"supermarket bangunan";"Toko Bangunan AA Baru Rigaih";"MH73+237, Jl. Meulaboh - Banda Aceh, Moulaboh, Rigah, Kec. Setia Bakti, Kabupaten Aceh Jaya, Aceh";"Kabupaten Aceh Jaya, Aceh";"ACEH";"";"Indonesia";"";"4.6625265";"95.5526679";"https://maps.google.com/?cid=0x0:0x422e6cd946102a4"
"supermarket bangunan";"Toko Bahan Bangunan";"5 UTAMA";"SP TUGU BPD, Jl. Meulaboh - Banda Aceh, Dayah Baro, Kec. Krueng Sabee, Kabupaten Aceh Jaya, Aceh 23655";"Jl. Meulaboh - Banda Aceh, Dayah Baro, Kec. Krueng Sabee, Kabupaten Aceh Jaya";"ACEH";"23655";"Indonesia";" 085260658707";"4.6409785";"95.5900672";"https://maps.google.com/?cid=0x0:0x10bd2e61d76cd5af"
"supermarket bangunan";"Kantor Perusahaan";"UD. Mandiri Profil";"Jl. Meulaboh - Banda Aceh, Mon Mata, Kec. Krueng Sabee, Kabupaten Aceh Jaya, Aceh 23654";"Mon Mata, Kec. Krueng Sabee, Kabupaten Aceh Jaya";"ACEH";"23654";"Indonesia";" 081247747655";"4.6076236";"95.6414452";"https://maps.google.com/?cid=0x0:0xb408a897b5f64590"
"supermarket bangunan";"Toko Bahan Bangunan";"Toko bangunan / toko bahan bangunan";"H9J7+PM3, Rukoh, Kec. Syiah Kuala, Kota Banda Aceh, Aceh";"Kota Banda Aceh, Aceh";"ACEH";"";"Indonesia";"";"5.581784";"95.3641847";"https://maps.google.com/?cid=0x0:0xca53fca6947362de"
"supermarket bangunan";"Toko Bahan Bangunan";"Toko Besi Awak Droe";"JJ3W+J4W, Keude Krueng Sabee, Kec. Krueng Sabee, Kabupaten Aceh Jaya, Aceh 23654";"Keude Krueng Sabee, Kec. Krueng Sabee, Kabupaten Aceh Jaya";"ACEH";"23654";"Indonesia";" 081360510965";"4.6041024";"95.6453393";"https://maps.google.com/?cid=0x0:0xb66ca6e6cbfef042"
"supermarket bangunan";"Toko Bahan Bangunan";"Toko Besi Hidup Baru";"JJ5R+3G8, Jl. Meulaboh - Banda Aceh, Mon Mata, Kec. Krueng Sabee, Kabupaten Aceh Jaya, Aceh 23654";"Jl. Meulaboh - Banda Aceh, Mon Mata, Kec. Krueng Sabee, Kabupaten Aceh Jaya";"ACEH";"23654";"Indonesia";" 081397005152";"4.6076502";"95.6413395";"https://maps.google.com/?cid=0x0:0xa53502ee610dfbd3"
"supermarket bangunan";"Toko Bahan Bangunan";"RIZQI JAYA";"39R7+M2W, Bak Paoh, Jaya, Kabupaten Aceh Jaya, Aceh 23657";"Bak Paoh, Jaya, Kabupaten Aceh Jaya";"ACEH";"23657";"Indonesia";" 085261909078";"5.0917483";"95.3625629";"https://maps.google.com/?cid=0x0:0x3f10ee5077e1ea79"
"supermarket bangunan";"Gudang";"Meuligoe Bangunan";"4VJP+M7M, Beungga, Kec. Tangse, Kabupaten Pidie, Aceh 24165";"Beungga, Kec. Tangse, Kabupaten Pidie";"ACEH";"24165";"Indonesia";"";"5.1317175";"95.8856637";"https://maps.google.com/?cid=0x0:0xb432fde1e0b64f7e"
"supermarket bangunan";"supermarket bangunan";"Aceh 23653";"Kec. Teunom, Kabupaten Aceh Jaya, Aceh";"Kabupaten Aceh Jaya, Aceh";"ACEH";"";"Indonesia";"";"4.5590872";"95.8775964";"https://maps.google.com/?cid=0x0:0xd1bbc87731e6c060"
"supermarket bangunan";"Toko Perlengkapan Rumah";"Toko Bina Baru";"CRX7+QHH, Jl. Lintas Barat Sumatera, Padang Kleng, Kec. Teunom, Kabupaten Aceh Jaya, Aceh 23653";"Jl. Lintas Barat Sumatera, Padang Kleng, Kec. Teunom, Kabupaten Aceh Jaya";"ACEH";"23653";"Indonesia";"";"4.4494335";"95.8139959";"https://maps.google.com/?cid=0x0:0x25535cd481938555"
"supermarket bangunan";"Toko Bahan Bangunan";"SB_SURYA BARU";"GPR9+939, Jl. Meulaboh - Banda Aceh, Kuta Tuha, Kec. Panga, Kabupaten Aceh Jaya, Aceh 23653";"Jl. Meulaboh - Banda Aceh, Kuta Tuha, Kec. Panga, Kabupaten Aceh Jaya";"ACEH";"23653";"Indonesia";"";"4.5409166";"95.7177197";"https://maps.google.com/?cid=0x0:0x14f59fe1dc346718"
"supermarket bangunan";"Kantor Perusahaan";"UD. Mandiri Profil";"Jl. Meulaboh - Banda Aceh, Mon Mata, Kec. Krueng Sabee, Kabupaten Aceh Jaya, Aceh 23654";"Mon Mata, Kec. Krueng Sabee, Kabupaten Aceh Jaya";"ACEH";"23654";"Indonesia";" 081247747655";"4.6076236";"95.6414452";"https://maps.google.com/?cid=0x0:0xb408a897b5f64590"
"supermarket bangunan";"Toko Bahan Bangunan";"Toko Besi Hidup Baru";"JJ5R+3G8, Jl. Meulaboh - Banda Aceh, Mon Mata, Kec. Krueng Sabee, Kabupaten Aceh Jaya, Aceh 23654";"Jl. Meulaboh - Banda Aceh, Mon Mata, Kec. Krueng Sabee, Kabupaten Aceh Jaya";"ACEH";"23654";"Indonesia";" 081397005152";"4.6076502";"95.6413395";"https://maps.google.com/?cid=0x0:0xa53502ee610dfbd3"
"supermarket bangunan";"Pusat Perbelanjaan";"Sultan Swalayan";"JHMJ+9VM, Bahagia, Kec. Krueng Sabee, Kabupaten Aceh Jaya, Aceh 23655";"Bahagia, Kec. Krueng Sabee, Kabupaten Aceh Jaya";"ACEH";"23655";"Indonesia";"";"4.6334702";"95.5821661";"https://maps.google.com/?cid=0x0:0x7a08d32add1be3b4"
"supermarket bangunan";"Toko Bahan Bangunan";"5 UTAMA";"SP TUGU BPD, Jl. Meulaboh - Banda Aceh, Dayah Baro, Kec. Krueng Sabee, Kabupaten Aceh Jaya, Aceh 23655";"Jl. Meulaboh - Banda Aceh, Dayah Baro, Kec. Krueng Sabee, Kabupaten Aceh Jaya";"ACEH";"23655";"Indonesia";" 085260658707";"4.6409785";"95.5900672";"https://maps.google.com/?cid=0x0:0x10bd2e61d76cd5af"
"supermarket bangunan";"Toko Bahan Bangunan";"UD Mita Usaha";"Jl, Tengah Peulumat, Tapak Tuan, Kabupaten Aceh Selatan, Aceh 23754";"Tengah Peulumat, Tapak Tuan, Kabupaten Aceh Selatan";"ACEH";"23754";"Indonesia";" 085277924711";"3.5052806";"97.0313529";"https://maps.google.com/?cid=0x0:0x52f46386cfbac3e7"
"supermarket bangunan";"Toko";"CV. Jaya Usaha";"JJ8F+3JQ, Jl. Meulaboh - Banda Aceh, Padang Datar, Kec. Krueng Sabee, Kabupaten Aceh Jaya, Aceh 23654";"Jl. Meulaboh - Banda Aceh, Padang Datar, Kec. Krueng Sabee, Kabupaten Aceh Jaya";"ACEH";"23654";"Indonesia";"";"4.6145085";"95.625109";"https://maps.google.com/?cid=0x0:0x5e5d3ce1854fad22"
"supermarket bangunan";"Toko Bahan Bangunan";"TOKO UD.AIFA";"93P4+5JP, Lueng Tanoh Tho, Kec. Woyla, Kabupaten Aceh Barat, Aceh 23654";"Lueng Tanoh Tho, Kec. Woyla, Kabupaten Aceh Barat";"ACEH";"23654";"Indonesia";" 082262406243";"4.3857898";"96.0569074";"https://maps.google.com/?cid=0x0:0x7f0a0173c2c4d13b"
"supermarket bangunan";"Toko Fotokopi";"Foto copy ocean";"CRW7+54F, Keude Teunom, Kec. Teunom, Kabupaten Aceh Jaya, Aceh 23653";"Keude Teunom, Kec. Teunom, Kabupaten Aceh Jaya";"ACEH";"23653";"Indonesia";"";"4.4454369";"95.8128103";"https://maps.google.com/?cid=0x0:0x6fc9805072617711"
"supermarket bangunan";"Toko";"UD Nisya beujaya";"C25X+JC, Jawa, Kec. Woyla, Kabupaten Aceh Barat, Aceh";"Kabupaten Aceh Barat, Aceh";"ACEH";"";"Indonesia";" 082262406243";"4.4082537";"96.0483323";"https://maps.google.com/?cid=0x0:0x881ff6ed6d0ea75"
"supermarket bangunan";"Toko Bahan Bangunan";"UD Bangun Perdana";"85FM+9W7 gunong meuh, Jl. Geumpang - Tutut, Alue Lhok, Kec. Kaway XVI, Kabupaten Aceh Barat, Aceh 23681";"Jl. Geumpang - Tutut, Alue Lhok, Kec. Kaway XVI, Kabupaten Aceh Barat";"ACEH";"23681";"Indonesia";"";"4.3231812";"96.1846772";"https://maps.google.com/?cid=0x0:0x8a6c03f23f41e57f"
"supermarket bangunan";"Toko Bahan Bangunan";"Toko Besi Usaha Riza Famili";"82XM+PRC, Unnamed Road, Padang Jawa, Kec. Woyla, Kabupaten Aceh Barat, Aceh 23654";"Unnamed Road, Padang Jawa, Kec. Woyla, Kabupaten Aceh Barat";"ACEH";"23654";"Indonesia";" 081361595202";"4.3493008";"96.0345212";"https://maps.google.com/?cid=0x0:0x8de05044474f1df7"
