Category;Real Category;Business Name;Address;City;State;Postal Code;Country;Phone;Latitude;Longitude;Map Link
"mall";"mall";"Aceh 23653";"Kec. Teunom, Kabupaten Aceh Jaya, Aceh";"Kabupaten Aceh Jaya, Aceh";"ACEH";"";"Indonesia";"";"4.5590872";"95.8775964";"https://maps.google.com/?cid=0x0:0xd1bbc87731e6c060"
"mall";"Gudang";"mitra bukalapak";"FR2C+9WW, Tanoh Anou, Kec. Teunom, Kabupaten Aceh Jaya, Aceh 23653";"Tanoh Anou, Kec. Teunom, Kabupaten Aceh Jaya";"ACEH";"23653";"Indonesia";" 082370699399";"4.4509898";"95.8223336";"https://maps.google.com/?cid=0x0:0xcad9b0090cba4c5d"
"mall";"Pusat Perbelanjaan";"sultan swalayan";"Jl. Meulaboh - Banda Aceh, Panton, Kec. Teunom, Kabupaten Aceh Jaya, Aceh 23653";"Panton, Kec. Teunom, Kabupaten Aceh Jaya";"ACEH";"23653";"Indonesia";" 085362364636";"4.445264";"95.8123024";"https://maps.google.com/?cid=0x0:0x109bb69ede877c4d"
"mall";"Kantor Perusahaan";"UD KANA TANI";"Jl. Meulaboh - Banda Aceh, Panton, Kec. Teunom, Kabupaten Aceh Jaya, Aceh 23653";"Panton, Kec. Teunom, Kabupaten Aceh Jaya";"ACEH";"23653";"Indonesia";"";"4.4485718";"95.8135987";"https://maps.google.com/?cid=0x0:0xb205415801318215"
"mall";"";"Area Persawahan Gampong Alue Jang";"HWP4+JW3, Alue Punti, Kec. Pasie Raya, Kabupaten Aceh Jaya, Aceh 23653";"Alue Punti, Kec. Pasie Raya, Kabupaten Aceh Jaya";"ACEH";"23653";"Indonesia";" 085260725566";"4.5865206";"95.9072907";"https://maps.google.com/?cid=0x0:0xdbbf293ae57922de"
"mall";"Pusat Perbelanjaan";"Pangkalan UD Uskendo Sabena";"CRV7+R9P, Panton, Kec. Teunom, Kabupaten Aceh Jaya, Aceh 23653";"Panton, Kec. Teunom, Kabupaten Aceh Jaya";"ACEH";"23653";"Indonesia";" 085260131314";"4.4445909";"95.8134647";"https://maps.google.com/?cid=0x0:0xc820f540897964d5"
"mall";"Toko Fotokopi";"Azzam Galery Foto Copy";"JJ4W+G4P, Unnamed Road, Keude Krueng Sabee, Krueng Sabee, Aceh Jaya Regency, Aceh 23654";"Unnamed Road, Keude Krueng Sabee, Krueng Sabee, Aceh Jaya Regency";"ACEH";"23654";"Indonesia";" 085220594561";"4.6063455";"95.6453319";"https://maps.google.com/?cid=0x0:0x5c893b26b7f219b7"
"mall";"Agen Gas Elpiji";"Pangkalan Dodi Oil Elpiji";"CRX7+MHR, Jl. Meulaboh - Banda Aceh, Panton, Kec. Teunom, Kabupaten Aceh Jaya, Aceh 23653";"Jl. Meulaboh - Banda Aceh, Panton, Kec. Teunom, Kabupaten Aceh Jaya";"ACEH";"23653";"Indonesia";" 085277254869";"4.449242";"95.813884";"https://maps.google.com/?cid=0x0:0x3bec074ca658a788"
"mall";"Pusat Perbelanjaan";"Pusat Perbelanjaan";"93M4+PJV, Lueng Tanoh Tho, Kec. Woyla, Kabupaten Aceh Barat, Aceh 23654";"Lueng Tanoh Tho, Kec. Woyla, Kabupaten Aceh Barat";"ACEH";"23654";"Indonesia";"";"4.384364";"96.0565433";"https://maps.google.com/?cid=0x0:0x13703bf328a1dfc8"
"mall";"Komplek perumahan";"UD.Rizky panga";"HP4X+HX, RW.Kude, Gampong Harapan, Kec. Panga, Kabupaten Aceh Jaya, Aceh 23653";"RW.Kude, Gampong Harapan, Kec. Panga, Kabupaten Aceh Jaya";"ACEH";"23653";"Indonesia";" 082176081190";"4.5564728";"95.749867";"https://maps.google.com/?cid=0x0:0x5a99d6fc0aeb9327"
"mall";"Pusat Perbelanjaan";"Sultan Swalayan";"JHMJ+9VM, Bahagia, Kec. Krueng Sabee, Kabupaten Aceh Jaya, Aceh 23655";"Bahagia, Kec. Krueng Sabee, Kabupaten Aceh Jaya";"ACEH";"23655";"Indonesia";"";"4.6334702";"95.5821661";"https://maps.google.com/?cid=0x0:0x7a08d32add1be3b4"
"mall";"Pusat Perbelanjaan";"Toko Tajul Tex, Kota Calang";"JHQJ+7CX, Sentosa, Kec. Krueng Sabee, Kabupaten Aceh Jaya, Aceh 23655";"Sentosa, Kec. Krueng Sabee, Kabupaten Aceh Jaya";"ACEH";"23655";"Indonesia";"";"4.6382375";"95.5811094";"https://maps.google.com/?cid=0x0:0x3f8a8e2ad25c5c16"
"mall";"Pusat Perbelanjaan";"Pangkalan Syahlan Elpiji";"HWPF+65V, Bintah, Kec. Pasie Raya, Kabupaten Aceh Jaya, Aceh 23653";"Bintah, Kec. Pasie Raya, Kabupaten Aceh Jaya";"ACEH";"23653";"Indonesia";" 081269400621";"4.5856011";"95.9229078";"https://maps.google.com/?cid=0x0:0x4ee5dff62932bb43"
"mall";"Toko";"NurbaitiOlshop";"9W5H+7W9, Unnamed Road, Rimba Langgeh, Kec. Arongan Lambalek, Kabupaten Aceh Barat, Aceh 23652";"Unnamed Road, Rimba Langgeh, Kec. Arongan Lambalek, Kabupaten Aceh Barat";"ACEH";"23652";"Indonesia";"";"4.3581618";"95.9298572";"https://maps.google.com/?cid=0x0:0xf0ab70020f223830"
"mall";"mall";"Aceh 23654";"Kec. Woyla, Aceh";"Aceh";"ACEH";"";"Indonesia";"";"4.4143635";"96.0255738";"https://maps.google.com/?cid=0x0:0xafd411fd2a1143af"
"mall";"Pusat Perbelanjaan";"Sultan Swalayan";"JHMJ+9VM, Bahagia, Kec. Krueng Sabee, Kabupaten Aceh Jaya, Aceh 23655";"Bahagia, Kec. Krueng Sabee, Kabupaten Aceh Jaya";"ACEH";"23655";"Indonesia";"";"4.6334702";"95.5821661";"https://maps.google.com/?cid=0x0:0x7a08d32add1be3b4"
"mall";"Toko Fotokopi";"Azzam Galery Foto Copy";"JJ4W+G4P, Unnamed Road, Keude Krueng Sabee, Krueng Sabee, Aceh Jaya Regency, Aceh 23654";"Unnamed Road, Keude Krueng Sabee, Krueng Sabee, Aceh Jaya Regency";"ACEH";"23654";"Indonesia";" 085220594561";"4.6063455";"95.6453319";"https://maps.google.com/?cid=0x0:0x5c893b26b7f219b7"
"mall";"Pusat Perbelanjaan";"Pusat Perbelanjaan";"93M4+PJV, Lueng Tanoh Tho, Kec. Woyla, Kabupaten Aceh Barat, Aceh 23654";"Lueng Tanoh Tho, Kec. Woyla, Kabupaten Aceh Barat";"ACEH";"23654";"Indonesia";"";"4.384364";"96.0565433";"https://maps.google.com/?cid=0x0:0x13703bf328a1dfc8"
"mall";"Pusat Bisnis";"Toko Serba 35.000";"JHPJ+XFV, Kp. Blang, Kec. Krueng Sabee, Kabupaten Aceh Jaya, Aceh 23655";"Kp. Blang, Kec. Krueng Sabee, Kabupaten Aceh Jaya";"ACEH";"23655";"Indonesia";" 082273862969";"4.6374886";"95.581186";"https://maps.google.com/?cid=0x0:0x843f452d0ed10bd4"
"mall";"Pusat Perbelanjaan";"Toko Tajul Tex, Kota Calang";"JHQJ+7CX, Sentosa, Kec. Krueng Sabee, Kabupaten Aceh Jaya, Aceh 23655";"Sentosa, Kec. Krueng Sabee, Kabupaten Aceh Jaya";"ACEH";"23655";"Indonesia";"";"4.6382375";"95.5811094";"https://maps.google.com/?cid=0x0:0x3f8a8e2ad25c5c16"
"mall";"Toko Ponsel";"CAKRA II CELL";"Jl. Meulaboh - Banda Aceh, simpang tugu, Keude Krueng Sabee, Kec. Krueng Sabee, Kabupaten Aceh Jaya, Aceh 23654";"simpang tugu, Keude Krueng Sabee, Kec. Krueng Sabee, Kabupaten Aceh Jaya";"ACEH";"23654";"Indonesia";" 082363512588";"4.6055955";"95.6455846";"https://maps.google.com/?cid=0x0:0xa8628b3c652212d2"
"mall";"Pusat Perbelanjaan";"Lhok calang";"JHJH+CRP, Bahagia, Kec. Krueng Sabee, Kabupaten Aceh Jaya, Aceh";"Kabupaten Aceh Jaya, Aceh";"ACEH";"";"Indonesia";" 085261415854";"4.6310885";"95.579577";"https://maps.google.com/?cid=0x0:0xb9378568b5dd1d4b"
"mall";"Pusat Perbelanjaan";"Pasar Kuala bhee";"92PW+3HP, Lhung Tgk Yah, Kec. Woyla, Kabupaten Aceh Barat, Aceh 23654";"Lhung Tgk Yah, Kec. Woyla, Kabupaten Aceh Barat";"ACEH";"23654";"Indonesia";"";"4.3852195";"96.0464585";"https://maps.google.com/?cid=0x0:0xc89492ff6e53f7ed"
"mall";"Pusat Perbelanjaan";"Peukan Kuala Bhee";"92PW+7GJ, Kuala Bhee, Kec. Woyla, Kabupaten Aceh Barat, Aceh 23654";"Kuala Bhee, Kec. Woyla, Kabupaten Aceh Barat";"ACEH";"23654";"Indonesia";"";"4.3857056";"96.046259";"https://maps.google.com/?cid=0x0:0x9406d1dd4b0f98ef"
"mall";"Pusat Perbelanjaan";"Central Perfume";"93P4+5P3, Lueng Tanoh Tho, Kec. Woyla, Kabupaten Aceh Barat, Aceh 23654";"Lueng Tanoh Tho, Kec. Woyla, Kabupaten Aceh Barat";"ACEH";"23654";"Indonesia";" 08126903967";"4.3853807";"96.056794";"https://maps.google.com/?cid=0x0:0x84aabff4aafb8225"
"mall";"Pusat Perbelanjaan";"Suzuya Mall Banda Aceh";"Jl. Teuku Umar, Lamtemen Tim., Kec. Jaya Baru, Kota Banda Aceh, Aceh 23232";"Lamtemen Tim., Kec. Jaya Baru, Kota Banda Aceh";"ACEH";"23232";"Indonesia";" 06518011022";"5.5377324";"95.3068005";"https://maps.google.com/?cid=0x0:0xc5c56efc74442dea"
"mall";"Komplek perumahan";"Komplek Pemda Padang Datar";"JJ6G+P75, Padang Datar, Kec. Krueng Sabee, Kabupaten Aceh Jaya, Aceh 23654";"Padang Datar, Kec. Krueng Sabee, Kabupaten Aceh Jaya";"ACEH";"23654";"Indonesia";" 081270359072";"4.6117568";"95.6257363";"https://maps.google.com/?cid=0x0:0x9b8af766f4d210f2"
"mall";"Toko Kelontong Asia";"Kios Novi Yazi";"922P+53V, Padang Jawa, Kec. Woyla, Kabupaten Aceh Barat, Aceh 23654";"Padang Jawa, Kec. Woyla, Kabupaten Aceh Barat";"ACEH";"23654";"Indonesia";"";"4.3504802";"96.0351644";"https://maps.google.com/?cid=0x0:0xddeac2c7ec45f1c8"
"mall";"mall";"Aceh 23655";"Kec. Setia Bakti, Kabupaten Aceh Jaya, Aceh";"Kabupaten Aceh Jaya, Aceh";"ACEH";"";"Indonesia";"";"4.7457854";"95.6878736";"https://maps.google.com/?cid=0x0:0x52d192e4749e2bd4"
"mall";"Kantor Pemerintah";"PPI Rigaih";"Jl. Banda Aceh - Calang, Lhok timon, Kec. Setia Bakti, Kabupaten Aceh Jaya, Aceh 23655";"Lhok timon, Kec. Setia Bakti, Kabupaten Aceh Jaya";"ACEH";"23655";"Indonesia";" 082361194610";"4.6633171";"95.5561019";"https://maps.google.com/?cid=0x0:0xffeb9ce6aac8f7d"
"mall";"Pusat Perbelanjaan";"Sultan Swalayan";"JHMJ+9VM, Bahagia, Kec. Krueng Sabee, Kabupaten Aceh Jaya, Aceh 23655";"Bahagia, Kec. Krueng Sabee, Kabupaten Aceh Jaya";"ACEH";"23655";"Indonesia";"";"4.6334702";"95.5821661";"https://maps.google.com/?cid=0x0:0x7a08d32add1be3b4"
"mall";"Pusat Bisnis";"Toko Serba 35.000";"JHPJ+XFV, Kp. Blang, Kec. Krueng Sabee, Kabupaten Aceh Jaya, Aceh 23655";"Kp. Blang, Kec. Krueng Sabee, Kabupaten Aceh Jaya";"ACEH";"23655";"Indonesia";" 082273862969";"4.6374886";"95.581186";"https://maps.google.com/?cid=0x0:0x843f452d0ed10bd4"
"mall";"Pusat Perbelanjaan";"Komplek Pasar Calang";"JHPM+X75, Unnamed Rd, Krueng Sabee,, Sentosa, Kec. Krueng Sabee, Kabupaten Aceh Jaya, Aceh 23655";"Unnamed Rd, Krueng Sabee,, Sentosa, Kec. Krueng Sabee, Kabupaten Aceh Jaya";"ACEH";"23655";"Indonesia";" 085370698477";"4.6373826";"95.5832344";"https://maps.google.com/?cid=0x0:0xfb2f0855a849c354"
"mall";"Kafe";"B.C.A Coffee Shop";"Dayah Baro, Kec. Krueng Sabee, Kab. Aceh Jya, Aceh 23654";"Kec. Krueng Sabee, Kab. Aceh Jya";"ACEH";"23654";"Indonesia";" 085260905558";"4.637135";"95.584296";"https://maps.google.com/?cid=0x0:0x346f79fce1b7434b"
"mall";"Toko Bahan Bangunan";"Pangkalan UD Mandiri Sejahtera";"MH85+63Q, Jl. Banda Aceh - Calang, Gampong Baro, Kec. Setia Bakti, Kabupaten Aceh Jaya, Aceh 23655";"Jl. Banda Aceh - Calang, Gampong Baro, Kec. Setia Bakti, Kabupaten Aceh Jaya";"ACEH";"23655";"Indonesia";" 085360142080";"4.6655772";"95.5577334";"https://maps.google.com/?cid=0x0:0x1a3b7968f00dfb08"
"mall";"Pusat Perbelanjaan";"Suzuya Mall Banda Aceh";"Jl. Teuku Umar, Lamtemen Tim., Kec. Jaya Baru, Kota Banda Aceh, Aceh 23232";"Lamtemen Tim., Kec. Jaya Baru, Kota Banda Aceh";"ACEH";"23232";"Indonesia";" 06518011022";"5.5377324";"95.3068005";"https://maps.google.com/?cid=0x0:0xc5c56efc74442dea"
"mall";"Pusat Perbelanjaan";"Lhok calang";"JHJH+CRP, Bahagia, Kec. Krueng Sabee, Kabupaten Aceh Jaya, Aceh";"Kabupaten Aceh Jaya, Aceh";"ACEH";"";"Indonesia";" 085261415854";"4.6310885";"95.579577";"https://maps.google.com/?cid=0x0:0xb9378568b5dd1d4b"
"mall";"Pusat Perbelanjaan";"Pangkalan Nayra";"Jl. Teuku Umar, Dayah Baro, Kec. Krueng Sabee, Kabupaten Aceh Jaya, Aceh 23655";"Dayah Baro, Kec. Krueng Sabee, Kabupaten Aceh Jaya";"ACEH";"23655";"Indonesia";" 085277593104";"4.6323122";"95.5907223";"https://maps.google.com/?cid=0x0:0x3aa57f23ad5bd919"
"mall";"Toko Fotokopi";"Azzam Galery Foto Copy";"JJ4W+G4P, Unnamed Road, Keude Krueng Sabee, Krueng Sabee, Aceh Jaya Regency, Aceh 23654";"Unnamed Road, Keude Krueng Sabee, Krueng Sabee, Aceh Jaya Regency";"ACEH";"23654";"Indonesia";" 085220594561";"4.6063455";"95.6453319";"https://maps.google.com/?cid=0x0:0x5c893b26b7f219b7"
"mall";"Toko Ponsel";"CAKRA II CELL";"Jl. Meulaboh - Banda Aceh, simpang tugu, Keude Krueng Sabee, Kec. Krueng Sabee, Kabupaten Aceh Jaya, Aceh 23654";"simpang tugu, Keude Krueng Sabee, Kec. Krueng Sabee, Kabupaten Aceh Jaya";"ACEH";"23654";"Indonesia";" 082363512588";"4.6055955";"95.6455846";"https://maps.google.com/?cid=0x0:0xa8628b3c652212d2"
"mall";"Agen Gas Elpiji";"Pangkalan Aska Elpiji";"QHCP+9CF, Unnamed Road, Sapek, Kec. Setia Bakti, Kabupaten Aceh Jaya, Aceh 23656";"Unnamed Road, Sapek, Kec. Setia Bakti, Kabupaten Aceh Jaya";"ACEH";"23656";"Indonesia";" 081360369933";"4.770933";"95.586058";"https://maps.google.com/?cid=0x0:0x241682a17c456f7d"
"mall";"Pusat Perbelanjaan";"Pangkalan UD Jasa Meugah";"Jl. Teuku Umar, Bahagia, Kec. Krueng Sabee, Kabupaten Aceh Jaya, Aceh 23655";"Bahagia, Kec. Krueng Sabee, Kabupaten Aceh Jaya";"ACEH";"23655";"Indonesia";" 085360611555";"4.633464";"95.585182";"https://maps.google.com/?cid=0x0:0xb78fe1438db5858e"
"mall";"mall";"Aceh 23656";"Kabupaten Aceh Jaya, Aceh";"Kabupaten Aceh Jaya, Aceh";"ACEH";"";"Indonesia";"";"4.9116238";"95.6037465";"https://maps.google.com/?cid=0x0:0x1aed070c2c639dba"
"mall";"Toko bahan makanan";"Pangkalan Babah Nipah Elpiji";"RCPH+WV3, Babah Nipah, Kec. Sampoiniet, Kabupaten Aceh Jaya, Aceh 23656";"Babah Nipah, Kec. Sampoiniet, Kabupaten Aceh Jaya";"ACEH";"23656";"Indonesia";" 085260779779";"4.8372596";"95.4296826";"https://maps.google.com/?cid=0x0:0xf0fbe4162501e249"
"mall";"Toko Ponsel";"Walie Olshop";"RGP9+368, Ujong Rimba, Kec. Darul Hikmah, Kabupaten Aceh Jaya, Aceh 23656";"Ujong Rimba, Kec. Darul Hikmah, Kabupaten Aceh Jaya";"ACEH";"23656";"Indonesia";" 081263159688";"4.8351705";"95.5180683";"https://maps.google.com/?cid=0x0:0xb962b37a59c283b6"
"mall";"Tujuan Wisata";"CRU Sampoiniet, Sarah Deu";"WFGQ+5RP, Pante Purba, Kec. Sampoiniet, Kabupaten Aceh Jaya, Aceh 23656";"Pante Purba, Kec. Sampoiniet, Kabupaten Aceh Jaya";"ACEH";"23656";"Indonesia";" 085362836024";"4.9254657";"95.4895871";"https://maps.google.com/?cid=0x0:0x428c30294fd0ef21"
"mall";"Pusat Perbelanjaan";"Pangkalan Hu balza";"RGJ8+93M, Unnamed Road, Pajar, Kec. Sampoiniet, Kabupaten Aceh Jaya, Aceh 23656";"Unnamed Road, Pajar, Kec. Sampoiniet, Kabupaten Aceh Jaya";"ACEH";"23656";"Indonesia";" 085277036982";"4.8309602";"95.5151726";"https://maps.google.com/?cid=0x0:0x910e4e89449ff97d"
"mall";"Kantor Pemerintah";"PPI Rigaih";"Jl. Banda Aceh - Calang, Lhok timon, Kec. Setia Bakti, Kabupaten Aceh Jaya, Aceh 23655";"Lhok timon, Kec. Setia Bakti, Kabupaten Aceh Jaya";"ACEH";"23655";"Indonesia";" 082361194610";"4.6633171";"95.5561019";"https://maps.google.com/?cid=0x0:0xffeb9ce6aac8f7d"
"mall";"Pusat Perbelanjaan";"Blang suenong";"V9JX+2RC, Lhok Kruet, Kec. Sampoiniet, Kabupaten Aceh Jaya, Aceh";"Kabupaten Aceh Jaya, Aceh";"ACEH";"";"Indonesia";"";"4.8800575";"95.3995079";"https://maps.google.com/?cid=0x0:0xa880e4716ed58adf"
"mall";"Pusat Perbelanjaan";"Keude Sampoiniet";"Jl. Medan Banda Aceh No.315, Keude Sampoiniet, Kec. Baktiya Bar., Kabupaten Aceh Utara, Aceh 24382";"Keude Sampoiniet, Kec. Baktiya Bar., Kabupaten Aceh Utara";"ACEH";"24382";"Indonesia";" 085217769970";"5.1192446";"97.3649603";"https://maps.google.com/?cid=0x0:0x7bce1ed4309fe662"
"mall";"Kedai Kopi";"UD.ALFATHIR(RIJECK SHOP)";"RGH8+W33, Lamteungoh, Kec. Darul Hikmah, Kabupaten Aceh Jaya, Aceh 23656";"Lamteungoh, Kec. Darul Hikmah, Kabupaten Aceh Jaya";"ACEH";"23656";"Indonesia";" 081265196617";"4.8297651";"95.5151798";"https://maps.google.com/?cid=0x0:0xed29c79ca7339106"
"mall";"Agen Gas Elpiji";"Pangkalan Aska Elpiji";"QHCP+9CF, Unnamed Road, Sapek, Kec. Setia Bakti, Kabupaten Aceh Jaya, Aceh 23656";"Unnamed Road, Sapek, Kec. Setia Bakti, Kabupaten Aceh Jaya";"ACEH";"23656";"Indonesia";" 081360369933";"4.770933";"95.586058";"https://maps.google.com/?cid=0x0:0x241682a17c456f7d"
"mall";"Pusat Perbelanjaan";"Wyzastuff.collection";"Masen, Kec. Darul Hikmah, Kabupaten Aceh Jaya, Aceh 23643";"Kec. Darul Hikmah, Kabupaten Aceh Jaya";"ACEH";"23643";"Indonesia";"";"5.0094587";"95.7158675";"https://maps.google.com/?cid=0x0:0x9060e9f265a01684"
"mall";"Pusat Perbelanjaan";"Suzuya Mall Banda Aceh";"Jl. Teuku Umar, Lamtemen Tim., Kec. Jaya Baru, Kota Banda Aceh, Aceh 23232";"Lamtemen Tim., Kec. Jaya Baru, Kota Banda Aceh";"ACEH";"23232";"Indonesia";" 06518011022";"5.5377324";"95.3068005";"https://maps.google.com/?cid=0x0:0xc5c56efc74442dea"
"mall";"Toko Swalayan";"Pangkalan UD Mulya";"RG74+J4M, Jl. Patek - Krueng Tho, Blang Dalam, Kec. Darul Hikmah, Kabupaten Aceh Jaya, Aceh 23656";"Jl. Patek - Krueng Tho, Blang Dalam, Kec. Darul Hikmah, Kabupaten Aceh Jaya";"ACEH";"23656";"Indonesia";" 081360007466";"4.81408";"95.5053021";"https://maps.google.com/?cid=0x0:0x7956846a8fc23ffa"
"mall";"Pusat Perbelanjaan";"Sultan Swalayan";"JHMJ+9VM, Bahagia, Kec. Krueng Sabee, Kabupaten Aceh Jaya, Aceh 23655";"Bahagia, Kec. Krueng Sabee, Kabupaten Aceh Jaya";"ACEH";"23655";"Indonesia";"";"4.6334702";"95.5821661";"https://maps.google.com/?cid=0x0:0x7a08d32add1be3b4"
"mall";"mall";"Aceh 23657";"Kabupaten Aceh Jaya, Aceh";"Kabupaten Aceh Jaya, Aceh";"ACEH";"";"Indonesia";"";"5.0787006";"95.435853";"https://maps.google.com/?cid=0x0:0x3ad6a5bdfe2df870"
"mall";"Toko";"JAYA TRANSAKSI UTAMA";"496M+W85, Sango, Jaya, Kabupaten Aceh Jaya, Aceh 23657";"Sango, Jaya, Kabupaten Aceh Jaya";"ACEH";"23657";"Indonesia";" 085287417947";"5.1122684";"95.3833911";"https://maps.google.com/?cid=0x0:0xe09f84a17b51521e"
"mall";"Pusat Perbelanjaan";"Pangkalan Barata Jaya";"48PQ+5MP, Unnamed Road, Meudheun, Jaya, Kabupaten Aceh Jaya, Aceh 23657";"Unnamed Road, Meudheun, Jaya, Kabupaten Aceh Jaya";"ACEH";"23657";"Indonesia";" 085206075053";"5.1354551";"95.3392001";"https://maps.google.com/?cid=0x0:0x9c78f7a36075f84d"
"mall";"Pusat Perbelanjaan";"Pangkalan Baro Tabina";"39JF+RCC, Cot Dulang, Jaya, Kabupaten Aceh Jaya, Aceh 23657";"Cot Dulang, Jaya, Kabupaten Aceh Jaya";"ACEH";"23657";"Indonesia";" 085381754672";"5.0820593";"95.3735127";"https://maps.google.com/?cid=0x0:0xc0101314c60ad3a5"
"mall";"Bar Kopi Espresso";"Beusarie Niaga Market";"39X6+J2V, Gle Putoh, Jaya, Kabupaten Aceh Jaya, Aceh 23657";"Gle Putoh, Jaya, Kabupaten Aceh Jaya";"ACEH";"23657";"Indonesia";"";"5.0991223";"95.3600373";"https://maps.google.com/?cid=0x0:0xc246310fa693ea6d"
"mall";"Pusat Perbelanjaan";"Pangkalan Ade Beurata";"38JF+58W, Unnamed Road, Darat, Jaya, Kabupaten Aceh Jaya, Aceh 23657";"Unnamed Road, Darat, Jaya, Kabupaten Aceh Jaya";"ACEH";"23657";"Indonesia";" 085361912842";"5.0804796";"95.3233235";"https://maps.google.com/?cid=0x0:0x484b0b833f27774e"
"mall";"Pusat Perbelanjaan";"Pangkalan Mona";"4CH5+VC4, Pante Cermin, Jaya, Kabupaten Aceh Jaya, Aceh 23657";"Pante Cermin, Jaya, Kabupaten Aceh Jaya";"ACEH";"23657";"Indonesia";" 082210753048";"5.1296301";"95.4085819";"https://maps.google.com/?cid=0x0:0xabc912e58ab199f3"
"mall";"Pusat Perbelanjaan";"Pangkalan Rahmat Jaya";"389W+69H, Alue Mie, Kec. Indra Jaya, Kabupaten Aceh Jaya, Aceh 23657";"Alue Mie, Kec. Indra Jaya, Kabupaten Aceh Jaya";"ACEH";"23657";"Indonesia";" 085360480209";"5.0680636";"95.3459758";"https://maps.google.com/?cid=0x0:0x958fab15b0856c00"
"mall";"Pusat Perbelanjaan";"Pangkalan Usaha Keluarga";"489R+X9H, Lambaroh, Jaya, Kabupaten Aceh Jaya, Aceh 23657";"Lambaroh, Jaya, Kabupaten Aceh Jaya";"ACEH";"23657";"Indonesia";" 085275202137";"5.1199444";"95.3409963";"https://maps.google.com/?cid=0x0:0xaf333d5db3b48d72"
"mall";"Minimarket";"toko Wen Keude";"388X+F66, Teumareum, Kec. Indra Jaya, Kabupaten Aceh Jaya, Aceh 23657";"Teumareum, Kec. Indra Jaya, Kabupaten Aceh Jaya";"ACEH";"23657";"Indonesia";"";"5.0661511";"95.3480016";"https://maps.google.com/?cid=0x0:0xfe9b011baba47f5"
"mall";"Pusat Perbelanjaan";"AFAMAT mutia";"4CH6+997, Pante Cermin, Jaya, Kabupaten Aceh Jaya, Aceh 23657";"Pante Cermin, Jaya, Kabupaten Aceh Jaya";"ACEH";"23657";"Indonesia";"";"5.128217";"95.4108967";"https://maps.google.com/?cid=0x0:0x837a3f300f17de10"
"mall";"Pusat Perbelanjaan";"Pangkalan Udep Beusare";"39C2+G4P, Babah Dua, Kec. Indra Jaya, Kabupaten Aceh Jaya, Aceh 23657";"Babah Dua, Kec. Indra Jaya, Kabupaten Aceh Jaya";"ACEH";"23657";"Indonesia";" 085277776225";"5.0713452";"95.3503361";"https://maps.google.com/?cid=0x0:0x9443bf01854422dc"
"mall";"Pasar Grosir Sayur";"Taman sayuran";"388Q+2F5, Unnamed Road, Jangeut, Kec. Indra Jaya, Kabupaten Aceh Jaya, Aceh 23657";"Unnamed Road, Jangeut, Kec. Indra Jaya, Kabupaten Aceh Jaya";"ACEH";"23657";"Indonesia";" 081264700117";"5.065005";"95.3387466";"https://maps.google.com/?cid=0x0:0x3180e289f7ade366"
"mall";"Pusat Perbelanjaan";"Pangkalan Harapan Kita";"39Q8+JJQ, Ps. Lamno, Jaya, Kabupaten Aceh Jaya, Aceh 23657";"Ps. Lamno, Jaya, Kabupaten Aceh Jaya";"ACEH";"23657";"Indonesia";" 085277605800";"5.0890858";"95.3666136";"https://maps.google.com/?cid=0x0:0x55bba9d89ca26fa"
"mall";"mall";"Kec. Indra Jaya";"Kabupaten Aceh Jaya, Aceh";"Kabupaten Aceh Jaya, Aceh";"ACEH";"";"Indonesia";"";"5.0632418";"95.3386622";"https://maps.google.com/?cid=0x0:0x9bf6e49fb0e9adcc"
"mall";"Pusat Perbelanjaan";"Pasar Sehat Indra Jaya";"39C2+WQW, Jl. Banda Aceh - Calang, Babah Dua, Kec. Indra Jaya, Kabupaten Aceh Jaya, Aceh 23657";"Jl. Banda Aceh - Calang, Babah Dua, Kec. Indra Jaya, Kabupaten Aceh Jaya";"ACEH";"23657";"Indonesia";"";"5.0728216";"95.353253";"https://maps.google.com/?cid=0x0:0xdaac75b72e7d90cb"
"mall";"Minimarket";"toko Wen Keude";"388X+F66, Teumareum, Kec. Indra Jaya, Kabupaten Aceh Jaya, Aceh 23657";"Teumareum, Kec. Indra Jaya, Kabupaten Aceh Jaya";"ACEH";"23657";"Indonesia";"";"5.0661511";"95.3480016";"https://maps.google.com/?cid=0x0:0xfe9b011baba47f5"
"mall";"Pasar Grosir Sayur";"Taman sayuran";"388Q+2F5, Unnamed Road, Jangeut, Kec. Indra Jaya, Kabupaten Aceh Jaya, Aceh 23657";"Unnamed Road, Jangeut, Kec. Indra Jaya, Kabupaten Aceh Jaya";"ACEH";"23657";"Indonesia";" 081264700117";"5.065005";"95.3387466";"https://maps.google.com/?cid=0x0:0x3180e289f7ade366"
"mall";"Pusat Perbelanjaan";"Pangkalan Udep Beusare";"39C2+G4P, Babah Dua, Kec. Indra Jaya, Kabupaten Aceh Jaya, Aceh 23657";"Babah Dua, Kec. Indra Jaya, Kabupaten Aceh Jaya";"ACEH";"23657";"Indonesia";" 085277776225";"5.0713452";"95.3503361";"https://maps.google.com/?cid=0x0:0x9443bf01854422dc"
"mall";"Pusat Perbelanjaan";"Pangkalan Athaibah";"389W+MV3, Alue Mie, Kec. Indra Jaya, Kabupaten Aceh Jaya, Aceh 23657";"Alue Mie, Kec. Indra Jaya, Kabupaten Aceh Jaya";"ACEH";"23657";"Indonesia";" 085260159119";"5.069129";"95.3471845";"https://maps.google.com/?cid=0x0:0x434826bef869b3a7"
"mall";"Pusat Perbelanjaan";"Pangkalan Ade Beurata";"38JF+58W, Unnamed Road, Darat, Jaya, Kabupaten Aceh Jaya, Aceh 23657";"Unnamed Road, Darat, Jaya, Kabupaten Aceh Jaya";"ACEH";"23657";"Indonesia";" 085361912842";"5.0804796";"95.3233235";"https://maps.google.com/?cid=0x0:0x484b0b833f27774e"
"mall";"Pusat Perbelanjaan";"Pangkalan Baro Tabina";"39JF+RCC, Cot Dulang, Jaya, Kabupaten Aceh Jaya, Aceh 23657";"Cot Dulang, Jaya, Kabupaten Aceh Jaya";"ACEH";"23657";"Indonesia";" 085381754672";"5.0820593";"95.3735127";"https://maps.google.com/?cid=0x0:0xc0101314c60ad3a5"
"mall";"Pusat Perbelanjaan";"Pangkalan Harapan Kita";"39Q8+JJQ, Ps. Lamno, Jaya, Kabupaten Aceh Jaya, Aceh 23657";"Ps. Lamno, Jaya, Kabupaten Aceh Jaya";"ACEH";"23657";"Indonesia";" 085277605800";"5.0890858";"95.3666136";"https://maps.google.com/?cid=0x0:0x55bba9d89ca26fa"
"mall";"Pusat Perbelanjaan";"Pangkalan Mona";"4CH5+VC4, Pante Cermin, Jaya, Kabupaten Aceh Jaya, Aceh 23657";"Pante Cermin, Jaya, Kabupaten Aceh Jaya";"ACEH";"23657";"Indonesia";" 082210753048";"5.1296301";"95.4085819";"https://maps.google.com/?cid=0x0:0xabc912e58ab199f3"
"mall";"Toko";"JAYA TRANSAKSI UTAMA";"496M+W85, Sango, Jaya, Kabupaten Aceh Jaya, Aceh 23657";"Sango, Jaya, Kabupaten Aceh Jaya";"ACEH";"23657";"Indonesia";" 085287417947";"5.1122684";"95.3833911";"https://maps.google.com/?cid=0x0:0xe09f84a17b51521e"
"mall";"Pusat Perbelanjaan";"Pangkalan Kuala Elpiji";"295C+J4Q, Jl. Banda Aceh - Calang, Keude Unga, Kec. Indra Jaya, Kabupaten Aceh Jaya, Aceh 23657";"Jl. Banda Aceh - Calang, Keude Unga, Kec. Indra Jaya, Kabupaten Aceh Jaya";"ACEH";"23657";"Indonesia";" 082167396369";"5.0090881";"95.3703556";"https://maps.google.com/?cid=0x0:0x15f1b0826306726d"
"mall";"Pusat Perbelanjaan";"Pangkalan Irwan Jaya Gas";"39P8+V5P, Meunasah Weh, Jaya, Kabupaten Aceh Jaya, Aceh 23657";"Meunasah Weh, Jaya, Kabupaten Aceh Jaya";"ACEH";"23657";"Indonesia";" 085360295953";"5.0872012";"95.3654668";"https://maps.google.com/?cid=0x0:0xac1644f75093cecf"
"mall";"Bar Kopi Espresso";"Beusarie Niaga Market";"39X6+J2V, Gle Putoh, Jaya, Kabupaten Aceh Jaya, Aceh 23657";"Gle Putoh, Jaya, Kabupaten Aceh Jaya";"ACEH";"23657";"Indonesia";"";"5.0991223";"95.3600373";"https://maps.google.com/?cid=0x0:0xc246310fa693ea6d"
"mall";"mall";"Kec. Indra Jaya";"Kabupaten Pidie, Aceh";"Kabupaten Pidie, Aceh";"ACEH";"";"Indonesia";"";"5.3162867";"95.9602464";"https://maps.google.com/?cid=0x0:0xcceede14e8e3d2e3"
"mall";"Pusat Perbelanjaan";"Baru Jadi";"8X85+PMG, Dayah Caleue, Kec. Indra Jaya, Kabupaten Pidie, Aceh 24151";"Dayah Caleue, Kec. Indra Jaya, Kabupaten Pidie";"ACEH";"24151";"Indonesia";" 085277475838";"5.3168041";"95.9592016";"https://maps.google.com/?cid=0x0:0x20edb537f99569f1"
"mall";"Pusat Perbelanjaan";"GEUBRINA RIZKI";"Jl. Medan - Banda Aceh, caleu, Kec. Indra Jaya, Kabupaten Pidie, Aceh 24171";"caleu, Kec. Indra Jaya, Kabupaten Pidie";"ACEH";"24171";"Indonesia";" 085260136182";"5.3146827";"95.9609092";"https://maps.google.com/?cid=0x0:0x1db3b6c6a6da5461"
"mall";"Toko Pakaian Wanita";"Funky Colection";"8X85+QR8, Dayah Caleue, Kec. Indra Jaya, Kabupaten Pidie, Aceh 24151";"Dayah Caleue, Kec. Indra Jaya, Kabupaten Pidie";"ACEH";"24151";"Indonesia";" 085277642982";"5.3169248";"95.9595855";"https://maps.google.com/?cid=0x0:0x129d70772fe9a3a2"
"mall";"Pusat Perbelanjaan";"Pasar Ikan Caleue";"8X85+HP3, Dayah Caleue, Kec. Indra Jaya, Kabupaten Pidie, Aceh 24151";"Dayah Caleue, Kec. Indra Jaya, Kabupaten Pidie";"ACEH";"24151";"Indonesia";"";"5.3163956";"95.9592927";"https://maps.google.com/?cid=0x0:0x41390a0bd0348c33"
"mall";"Pusat Perbelanjaan";"UD. TUAH PUSAKA";"8W2M+53H, Neulop II, Kec. Indra Jaya, Kabupaten Pidie, Aceh 24182";"Neulop II, Kec. Indra Jaya, Kabupaten Pidie";"ACEH";"24182";"Indonesia";"";"5.3004337";"95.9327486";"https://maps.google.com/?cid=0x0:0xea3c41f222d2fa0b"
"mall";"mall";"UD. TOKO KEUGURA LAMREUNEUNG";"Lamreuneung, Kec. Indra Jaya, Kabupaten Pidie, Aceh 24182";"Kec. Indra Jaya, Kabupaten Pidie";"ACEH";"24182";"Indonesia";" 082367562948";"5.3188531";"95.9406291";"https://maps.google.com/?cid=0x0:0xcc590f61bbd2bdea"
"mall";"Pusat Perbelanjaan";"Mimi Chik Din";"8WPF+JHC, Dayah Muara Garot, Kec. Indra Jaya, Kabupaten Pidie, Aceh 24183";"Dayah Muara Garot, Kec. Indra Jaya, Kabupaten Pidie";"ACEH";"24183";"Indonesia";"";"5.336554";"95.9239006";"https://maps.google.com/?cid=0x0:0xe5fd416297c3abd4"
"mall";"Pusat Perbelanjaan";"USAHA KITA";"8X76+W7H, Dayah Caleue, Kec. Indra Jaya, Kabupaten Pidie, Aceh 24151";"Dayah Caleue, Kec. Indra Jaya, Kabupaten Pidie";"ACEH";"24151";"Indonesia";"";"5.3148696";"95.9607192";"https://maps.google.com/?cid=0x0:0xbbb4ec9e9e648528"
"mall";"Toko bahan makanan";"warkop suci";"8W8F+M43, Meulayu, Kec. Indra Jaya, Kabupaten Pidie, Aceh 24183";"Meulayu, Kec. Indra Jaya, Kabupaten Pidie";"ACEH";"24183";"Indonesia";"";"5.3166302";"95.922802";"https://maps.google.com/?cid=0x0:0x9b6564ea33017ec9"
"mall";"Toko Fotokopi";"Kelontong Mas Ady Photography";"8WGC+GQP, Keubang, Kec. Indra Jaya, Kabupaten Pidie, Aceh 24183";"Keubang, Kec. Indra Jaya, Kabupaten Pidie";"ACEH";"24183";"Indonesia";" 085359895223";"5.3263403";"95.9219557";"https://maps.google.com/?cid=0x0:0xddbf09a4aa42c969"
"mall";"Pusat Perbelanjaan";"UD.KEUGURA PULO IE";"Lamreuneung, Kec. Indra Jaya, Kabupaten Pidie, Aceh 24182";"Kec. Indra Jaya, Kabupaten Pidie";"ACEH";"24182";"Indonesia";" 085373942667";"5.3189549";"95.9401774";"https://maps.google.com/?cid=0x0:0x74555c06d1fba01"
"mall";"Pusat Perbelanjaan";"Toko Baru Jadi";"8WPF+QC2, Ulee Tutue Raya, Kec. Delima, Kabupaten Pidie, Aceh 24183";"Ulee Tutue Raya, Kec. Delima, Kabupaten Pidie";"ACEH";"24183";"Indonesia";" 082368171351";"5.3368862";"95.9235047";"https://maps.google.com/?cid=0x0:0xe4ec40c4f86c686c"
"mall";"Toko bahan makanan";"UD LINA RAHMAT";"7WR7+X24, Dayah Sinthop, Kec. Mila, Kabupaten Pidie, Aceh 24183";"Dayah Sinthop, Kec. Mila, Kabupaten Pidie";"ACEH";"24183";"Indonesia";"";"5.2923754";"95.9125792";"https://maps.google.com/?cid=0x0:0x153e0cbb36f357aa"
"mall";"mall";"Aceh 23656";"Kabupaten Aceh Jaya, Aceh";"Kabupaten Aceh Jaya, Aceh";"ACEH";"";"Indonesia";"";"4.9116238";"95.6037465";"https://maps.google.com/?cid=0x0:0x1aed070c2c639dba"
"mall";"Toko umum";"Toko Balqis";"RGH9+VX9, Desa kampong Baroe Lamtengoh jaya, Pajar, Kec. Darul Hikmah, Kabupaten Aceh Jaya, Aceh 23656";"Desa kampong Baroe Lamtengoh jaya, Pajar, Kec. Darul Hikmah, Kabupaten Aceh Jaya";"ACEH";"23656";"Indonesia";"";"4.82967";"95.5199698";"https://maps.google.com/?cid=0x0:0xd8406de2abc8c644"
"mall";"Toko Ponsel";"Walie Olshop";"RGP9+368, Ujong Rimba, Kec. Darul Hikmah, Kabupaten Aceh Jaya, Aceh 23656";"Ujong Rimba, Kec. Darul Hikmah, Kabupaten Aceh Jaya";"ACEH";"23656";"Indonesia";" 081263159688";"4.8351705";"95.5180683";"https://maps.google.com/?cid=0x0:0xb962b37a59c283b6"
"mall";"Pusat Perbelanjaan";"Wyzastuff.collection";"Masen, Kec. Darul Hikmah, Kabupaten Aceh Jaya, Aceh 23643";"Kec. Darul Hikmah, Kabupaten Aceh Jaya";"ACEH";"23643";"Indonesia";"";"5.0094587";"95.7158675";"https://maps.google.com/?cid=0x0:0x9060e9f265a01684"
"mall";"Kantor Pemerintah";"PPI Rigaih";"Jl. Banda Aceh - Calang, Lhok timon, Kec. Setia Bakti, Kabupaten Aceh Jaya, Aceh 23655";"Lhok timon, Kec. Setia Bakti, Kabupaten Aceh Jaya";"ACEH";"23655";"Indonesia";" 082361194610";"4.6633171";"95.5561019";"https://maps.google.com/?cid=0x0:0xffeb9ce6aac8f7d"
"mall";"Toko Swalayan";"Pangkalan UD Mulya";"RG74+J4M, Jl. Patek - Krueng Tho, Blang Dalam, Kec. Darul Hikmah, Kabupaten Aceh Jaya, Aceh 23656";"Jl. Patek - Krueng Tho, Blang Dalam, Kec. Darul Hikmah, Kabupaten Aceh Jaya";"ACEH";"23656";"Indonesia";" 081360007466";"4.81408";"95.5053021";"https://maps.google.com/?cid=0x0:0x7956846a8fc23ffa"
"mall";"Toko bahan makanan";"Pangkalan Babah Nipah Elpiji";"RCPH+WV3, Babah Nipah, Kec. Sampoiniet, Kabupaten Aceh Jaya, Aceh 23656";"Babah Nipah, Kec. Sampoiniet, Kabupaten Aceh Jaya";"ACEH";"23656";"Indonesia";" 085260779779";"4.8372596";"95.4296826";"https://maps.google.com/?cid=0x0:0xf0fbe4162501e249"
"mall";"Pasar";"Pasar Tradisional Suak Beukah";"RGH7+PM7, Suak Beukah, Kec. Darul Hikmah, Kabupaten Aceh Jaya, Aceh 23656";"Suak Beukah, Kec. Darul Hikmah, Kabupaten Aceh Jaya";"ACEH";"23656";"Indonesia";"";"4.8292981";"95.5141808";"https://maps.google.com/?cid=0x0:0x4b55803175a9d049"
"mall";"Agen Gas Elpiji";"Pangkalan Aska Elpiji";"QHCP+9CF, Unnamed Road, Sapek, Kec. Setia Bakti, Kabupaten Aceh Jaya, Aceh 23656";"Unnamed Road, Sapek, Kec. Setia Bakti, Kabupaten Aceh Jaya";"ACEH";"23656";"Indonesia";" 081360369933";"4.770933";"95.586058";"https://maps.google.com/?cid=0x0:0x241682a17c456f7d"
"mall";"mall";"Kec. Darul Hikmah";"Kabupaten Aceh Jaya, Aceh";"Kabupaten Aceh Jaya, Aceh";"ACEH";"";"Indonesia";"";"4.8297111";"95.5148944";"https://maps.google.com/?cid=0x0:0x5f19606d37c56213"
"mall";"Pusat Perbelanjaan";"Toko Tajul Tex, Kota Calang";"JHQJ+7CX, Sentosa, Kec. Krueng Sabee, Kabupaten Aceh Jaya, Aceh 23655";"Sentosa, Kec. Krueng Sabee, Kabupaten Aceh Jaya";"ACEH";"23655";"Indonesia";"";"4.6382375";"95.5811094";"https://maps.google.com/?cid=0x0:0x3f8a8e2ad25c5c16"
"mall";"Pusat Perbelanjaan";"Pangkalan Hu balza";"RGJ8+93M, Unnamed Road, Pajar, Kec. Sampoiniet, Kabupaten Aceh Jaya, Aceh 23656";"Unnamed Road, Pajar, Kec. Sampoiniet, Kabupaten Aceh Jaya";"ACEH";"23656";"Indonesia";" 085277036982";"4.8309602";"95.5151726";"https://maps.google.com/?cid=0x0:0x910e4e89449ff97d"
"mall";"Pusat Perbelanjaan";"Blang suenong";"V9JX+2RC, Lhok Kruet, Kec. Sampoiniet, Kabupaten Aceh Jaya, Aceh";"Kabupaten Aceh Jaya, Aceh";"ACEH";"";"Indonesia";"";"4.8800575";"95.3995079";"https://maps.google.com/?cid=0x0:0xa880e4716ed58adf"
"mall";"Pusat Perbelanjaan";"Sultan Swalayan";"JHMJ+9VM, Bahagia, Kec. Krueng Sabee, Kabupaten Aceh Jaya, Aceh 23655";"Bahagia, Kec. Krueng Sabee, Kabupaten Aceh Jaya";"ACEH";"23655";"Indonesia";"";"4.6334702";"95.5821661";"https://maps.google.com/?cid=0x0:0x7a08d32add1be3b4"
"mall";"mall";"Aceh 23653";"Kec. Teunom, Kabupaten Aceh Jaya, Aceh";"Kabupaten Aceh Jaya, Aceh";"ACEH";"";"Indonesia";"";"4.5590872";"95.8775964";"https://maps.google.com/?cid=0x0:0xd1bbc87731e6c060"
"mall";"";"Area Persawahan Gampong Alue Jang";"HWP4+JW3, Alue Punti, Kec. Pasie Raya, Kabupaten Aceh Jaya, Aceh 23653";"Alue Punti, Kec. Pasie Raya, Kabupaten Aceh Jaya";"ACEH";"23653";"Indonesia";" 085260725566";"4.5865206";"95.9072907";"https://maps.google.com/?cid=0x0:0xdbbf293ae57922de"
"mall";"Toko umum";"UD.BERKAH";"GV2P+GQ2, Pasi Teubee, Kec. Pasie Raya, Kabupaten Aceh Jaya, Aceh 23653";"Pasi Teubee, Kec. Pasie Raya, Kabupaten Aceh Jaya";"ACEH";"23653";"Indonesia";" 085359881234";"4.5012685";"95.8868956";"https://maps.google.com/?cid=0x0:0x495e50094bf6cc2d"
"mall";"Pusat Perbelanjaan";"sultan swalayan";"Jl. Meulaboh - Banda Aceh, Panton, Kec. Teunom, Kabupaten Aceh Jaya, Aceh 23653";"Panton, Kec. Teunom, Kabupaten Aceh Jaya";"ACEH";"23653";"Indonesia";" 085362364636";"4.445264";"95.8123024";"https://maps.google.com/?cid=0x0:0x109bb69ede877c4d"
"mall";"Komplek perumahan";"perumahan cot beureuhoi";"FQ8V+46J, perumahan cot beureuhoi, Tanoh Manyang, Kec. Teunom, Kabupaten Aceh Jaya, Aceh 23653";"perumahan cot beureuhoi, Tanoh Manyang, Kec. Teunom, Kabupaten Aceh Jaya";"ACEH";"23653";"Indonesia";"";"4.4653434";"95.793027";"https://maps.google.com/?cid=0x0:0x49f04f3d57009d58"
"mall";"Gudang";"mitra bukalapak";"FR2C+9WW, Tanoh Anou, Kec. Teunom, Kabupaten Aceh Jaya, Aceh 23653";"Tanoh Anou, Kec. Teunom, Kabupaten Aceh Jaya";"ACEH";"23653";"Indonesia";" 082370699399";"4.4509898";"95.8223336";"https://maps.google.com/?cid=0x0:0xcad9b0090cba4c5d"
"mall";"Kantor Pemerintah";"Kantor Camat Pasie Raya";"GV5P+99X, Tim Pleung, Kec. Pasie Raya, Kabupaten Aceh Jaya, Aceh 23653";"Tim Pleung, Kec. Pasie Raya, Kabupaten Aceh Jaya";"ACEH";"23653";"Indonesia";"";"4.5084921";"95.8859796";"https://maps.google.com/?cid=0x0:0x6a0805a7d0948026"
"mall";"Toko Fotokopi";"Azzam Galery Foto Copy";"JJ4W+G4P, Unnamed Road, Keude Krueng Sabee, Krueng Sabee, Aceh Jaya Regency, Aceh 23654";"Unnamed Road, Keude Krueng Sabee, Krueng Sabee, Aceh Jaya Regency";"ACEH";"23654";"Indonesia";" 085220594561";"4.6063455";"95.6453319";"https://maps.google.com/?cid=0x0:0x5c893b26b7f219b7"
"mall";"Kantor Pemerintah";"PPI Rigaih";"Jl. Banda Aceh - Calang, Lhok timon, Kec. Setia Bakti, Kabupaten Aceh Jaya, Aceh 23655";"Lhok timon, Kec. Setia Bakti, Kabupaten Aceh Jaya";"ACEH";"23655";"Indonesia";" 082361194610";"4.6633171";"95.5561019";"https://maps.google.com/?cid=0x0:0xffeb9ce6aac8f7d"
"mall";"Komplek perumahan";"UD.Rizky panga";"HP4X+HX, RW.Kude, Gampong Harapan, Kec. Panga, Kabupaten Aceh Jaya, Aceh 23653";"RW.Kude, Gampong Harapan, Kec. Panga, Kabupaten Aceh Jaya";"ACEH";"23653";"Indonesia";" 082176081190";"4.5564728";"95.749867";"https://maps.google.com/?cid=0x0:0x5a99d6fc0aeb9327"
"mall";"Pusat Perbelanjaan";"Pusat Perbelanjaan";"93M4+PJV, Lueng Tanoh Tho, Kec. Woyla, Kabupaten Aceh Barat, Aceh 23654";"Lueng Tanoh Tho, Kec. Woyla, Kabupaten Aceh Barat";"ACEH";"23654";"Indonesia";"";"4.384364";"96.0565433";"https://maps.google.com/?cid=0x0:0x13703bf328a1dfc8"
"mall";"Pusat Perbelanjaan";"Suzuya Mall Banda Aceh";"Jl. Teuku Umar, Lamtemen Tim., Kec. Jaya Baru, Kota Banda Aceh, Aceh 23232";"Lamtemen Tim., Kec. Jaya Baru, Kota Banda Aceh";"ACEH";"23232";"Indonesia";" 06518011022";"5.5377324";"95.3068005";"https://maps.google.com/?cid=0x0:0xc5c56efc74442dea"
"mall";"Grosir Perlengkapan Rumah Tangga";"Gudang kasur";"GPQ9+CQX, Jl. Lintas Barat Sumatera, Kuta Tuha, Kec. Panga, Kabupaten Aceh Jaya, Aceh 23653";"Jl. Lintas Barat Sumatera, Kuta Tuha, Kec. Panga, Kabupaten Aceh Jaya";"ACEH";"23653";"Indonesia";"";"4.5386419";"95.7194727";"https://maps.google.com/?cid=0x0:0x9e0f5e98bc4749a6"
"mall";"Kantor Perusahaan";"UD KANA TANI";"Jl. Meulaboh - Banda Aceh, Panton, Kec. Teunom, Kabupaten Aceh Jaya, Aceh 23653";"Panton, Kec. Teunom, Kabupaten Aceh Jaya";"ACEH";"23653";"Indonesia";"";"4.4485718";"95.8135987";"https://maps.google.com/?cid=0x0:0xb205415801318215"
"supermarket";"supermarket";"Aceh 23653";"Kec. Teunom, Kabupaten Aceh Jaya, Aceh";"Kabupaten Aceh Jaya, Aceh";"ACEH";"";"Indonesia";"";"4.5590872";"95.8775964";"https://maps.google.com/?cid=0x0:0xd1bbc87731e6c060"
"supermarket";"Pusat Perbelanjaan";"Pasar Teunom";"CRW6+QJV, Panton, Kec. Teunom, Kabupaten Aceh Jaya, Aceh 23653";"Panton, Kec. Teunom, Kabupaten Aceh Jaya";"ACEH";"23653";"Indonesia";"";"4.4469859";"95.8115376";"https://maps.google.com/?cid=0x0:0x41f0791cf3a9bfd4"
"supermarket";"Minimarket";"Indomaret Panton";"CRX7+RMR, Jl. Meulaboh - Banda Aceh, Padang Kleng, Kec. Teunom, Kabupaten Aceh Jaya, Aceh 23653";"Jl. Meulaboh - Banda Aceh, Padang Kleng, Kec. Teunom, Kabupaten Aceh Jaya";"ACEH";"23653";"Indonesia";" 08116310487";"4.4496186";"95.8141433";"https://maps.google.com/?cid=0x0:0xb533a38edc9e9c03"
"supermarket";"Toko Perlengkapan Rumah";"Tunas Muda Teunom";"FQ9W+GVJ, Jl. Meulaboh - Banda Aceh, Tanoh Manyang, Kec. Teunom, Kabupaten Aceh Jaya, Aceh 23653";"Jl. Meulaboh - Banda Aceh, Tanoh Manyang, Kec. Teunom, Kabupaten Aceh Jaya";"ACEH";"23653";"Indonesia";" 082111496477";"4.4688319";"95.797133";"https://maps.google.com/?cid=0x0:0xb353622990fced68"
"supermarket";"Grosir Barang Kelontong";"Keudee Muhammad Nur";"CVQ3+G52, Tuwi krueng, Kec. Teunom, Kabupaten Aceh Jaya, Aceh 23653";"Tuwi krueng, Kec. Teunom, Kabupaten Aceh Jaya";"ACEH";"23653";"Indonesia";" 081361170621";"4.4387726";"95.8529029";"https://maps.google.com/?cid=0x0:0x63bddc018095d211"
"supermarket";"Kedai Kopi";"Kios bg Rahimuddin";"Teupin Ara, Kec. Teunom, Kabupaten Aceh Jaya, Aceh 23653";"Kec. Teunom, Kabupaten Aceh Jaya";"ACEH";"23653";"Indonesia";" 085227596682";"4.4353549";"95.8317034";"https://maps.google.com/?cid=0x0:0x298ff1101c24cafb"
"supermarket";"Toko Elektronik";"Toko CM ELECTRONIC";"Panton, Kec. Teunom, Kabupaten Aceh Jaya, Aceh 23653";"Kec. Teunom, Kabupaten Aceh Jaya";"ACEH";"23653";"Indonesia";" 085277841819";"4.4485322";"95.8135144";"https://maps.google.com/?cid=0x0:0xe60395ea9fc0ab13"
"supermarket";"supermarket";"Kios Mak Sokhib";"FR82+28M, Jl. Meulaboh - Banda Aceh, aluambang, Kec. Teunom, Kabupaten Aceh Jaya, Aceh";"Kabupaten Aceh Jaya, Aceh";"ACEH";"";"Indonesia";" 081397000658";"4.4650792";"95.8007886";"https://maps.google.com/?cid=0x0:0x644daa2346308fca"
"supermarket";"Toko Ponsel";"Amora Shop";"CRX6+2WW, Panton, Kec. Teunom, Kabupaten Aceh Jaya, Aceh 23653";"Panton, Kec. Teunom, Kabupaten Aceh Jaya";"ACEH";"23653";"Indonesia";"";"4.4476177";"95.8123215";"https://maps.google.com/?cid=0x0:0xbac15f2fd870bae7"
"supermarket";"Toko umum";"UD. AAA FAMILY";"Tuwi Kareung I, Kec. Pasie Raya, Kabupaten Aceh Jaya, Aceh 23653";"Kec. Pasie Raya, Kabupaten Aceh Jaya";"ACEH";"23653";"Indonesia";"";"4.5062069";"95.8870595";"https://maps.google.com/?cid=0x0:0xfd00d3a381cc950d"
"supermarket";"Toko Ponsel";"Amora Ponsel";"Jl. Meulaboh - Banda Aceh, keude, Kec. Teunom, Kabupaten Aceh Jaya, Aceh 23653";"keude, Kec. Teunom, Kabupaten Aceh Jaya";"ACEH";"23653";"Indonesia";" 082282045596";"4.4475444";"95.8122636";"https://maps.google.com/?cid=0x0:0xe97d0875c66c965b"
"supermarket";"Toko Ponsel";"WOYLA PONSEL";"Panton, Kec. Teunom, Kabupaten Aceh Jaya, Aceh 23653";"Kec. Teunom, Kabupaten Aceh Jaya";"ACEH";"23653";"Indonesia";" 081269274890";"4.4495704";"95.814479";"https://maps.google.com/?cid=0x0:0xfecaaf191b919d77"
"supermarket";"Gudang";"Budi Prabot";"CRV7+XCM, Panton, Kec. Teunom, Kabupaten Aceh Jaya, Aceh 23653";"Panton, Kec. Teunom, Kabupaten Aceh Jaya";"ACEH";"23653";"Indonesia";"";"4.4449586";"95.8135606";"https://maps.google.com/?cid=0x0:0x226574206d1f9466"
"supermarket";"Toko Pertanian";"AGRO JAYA TANI";"CVPH+C29, Teupin Ara, Kec. Teunom, Kabupaten Aceh Jaya, Aceh 23653";"Teupin Ara, Kec. Teunom, Kabupaten Aceh Jaya";"ACEH";"23653";"Indonesia";" 085262228849";"4.4360295";"95.8775964";"https://maps.google.com/?cid=0x0:0xf991770b7c14b7c4"
"supermarket";"supermarket";"Aceh 23654";"Kec. Woyla, Aceh";"Aceh";"ACEH";"";"Indonesia";"";"4.4143635";"96.0255738";"https://maps.google.com/?cid=0x0:0xafd411fd2a1143af"
"supermarket";"Pusat Perbelanjaan";"Sultan Swalayan";"JHMJ+9VM, Bahagia, Kec. Krueng Sabee, Kabupaten Aceh Jaya, Aceh 23655";"Bahagia, Kec. Krueng Sabee, Kabupaten Aceh Jaya";"ACEH";"23655";"Indonesia";"";"4.6334702";"95.5821661";"https://maps.google.com/?cid=0x0:0x7a08d32add1be3b4"
"supermarket";"Toko bahan makanan";"Indomaret krueng sabee";"JJ97+6JP, Keutapang, Kec. Krueng Sabee, Kabupaten Aceh Jaya, Aceh 23655";"Keutapang, Kec. Krueng Sabee, Kabupaten Aceh Jaya";"ACEH";"23655";"Indonesia";"";"4.6180468";"95.6140538";"https://maps.google.com/?cid=0x0:0xad4f7823e962471d"
"supermarket";"Toserba";"Helmi Market";"93M2+X8P, Tingkeum Panyang, Kec. Woyla, Kabupaten Aceh Barat, Aceh 23654";"Tingkeum Panyang, Kec. Woyla, Kabupaten Aceh Barat";"ACEH";"23654";"Indonesia";"";"4.3849985";"96.0509438";"https://maps.google.com/?cid=0x0:0x11c7c0fca1fd9ee3"
"supermarket";"Toko";"Toko Aris Jaya";"8XH3+C23, Simpang Peut, Kec. Arongan Lambalek, Kabupaten Aceh Barat, Aceh 23652";"Simpang Peut, Kec. Arongan Lambalek, Kabupaten Aceh Barat";"ACEH";"23652";"Indonesia";" 085260758400";"4.3285217";"95.9525359";"https://maps.google.com/?cid=0x0:0x1e9efe5202c09c57"
"supermarket";"Toko bahan makanan";"Kedai Ayah";"8XVW+M9F, Unnamed Road, Woyla Bar, Lueng Baro, Kec. Woyla Bar., Kabupaten Aceh Barat, Aceh 23654";"Unnamed Road, Woyla Bar, Lueng Baro, Kec. Woyla Bar., Kabupaten Aceh Barat";"ACEH";"23654";"Indonesia";"";"4.3441928";"95.995911";"https://maps.google.com/?cid=0x0:0x86ee926a8c803403"
"supermarket";"Grosir Barang Kelontong";"Ud.aja mandiri";"Keulembah, Aceh 23654";"Kabupaten Aceh Barat, Aceh";"ACEH";"";"Indonesia";" 082276438535";"4.4047459";"96.0479783";"https://maps.google.com/?cid=0x0:0x930cc30ca771518d"
"supermarket";"Toko Swalayan";"Arongan Cell";"9W69+7QQ, Seuneubok Teungoh, Kec. Arongan Lambalek, Kabupaten Aceh Barat, Aceh 23652";"Seuneubok Teungoh, Kec. Arongan Lambalek, Kabupaten Aceh Barat";"ACEH";"23652";"Indonesia";" 085262605500";"4.3607088";"95.919485";"https://maps.google.com/?cid=0x0:0xd638417777e7d62d"
"supermarket";"Kedai Kopi";"UD.HIJRAH";"Bakat, Kec. Woyla, Kabupaten Aceh Barat, Aceh 23654";"Kec. Woyla, Kabupaten Aceh Barat";"ACEH";"23654";"Indonesia";"";"4.3887149";"96.0388152";"https://maps.google.com/?cid=0x0:0x305a5ead6055cb20"
"supermarket";"Komplek perumahan";"Komplek Pemda Padang Datar";"JJ6G+P75, Padang Datar, Kec. Krueng Sabee, Kabupaten Aceh Jaya, Aceh 23654";"Padang Datar, Kec. Krueng Sabee, Kabupaten Aceh Jaya";"ACEH";"23654";"Indonesia";" 081270359072";"4.6117568";"95.6257363";"https://maps.google.com/?cid=0x0:0x9b8af766f4d210f2"
"supermarket";"Toko Swalayan";"Kios Marhalin";"9W4F+8JV, Seuneubok Teungoh, Kec. Arongan Lambalek, Kabupaten Aceh Barat, Aceh 23652";"Seuneubok Teungoh, Kec. Arongan Lambalek, Kabupaten Aceh Barat";"ACEH";"23652";"Indonesia";"";"4.3558542";"95.9240566";"https://maps.google.com/?cid=0x0:0x8e7f2158d419cf4f"
"supermarket";"Toko Ponsel";"VASA CELL";"93M2+XC7, Unnamed Road, Tingkeum Panyang, Kec. Woyla, Kabupaten Aceh Barat, Aceh 23654";"Unnamed Road, Tingkeum Panyang, Kec. Woyla, Kabupaten Aceh Barat";"ACEH";"23654";"Indonesia";"";"4.3849187";"96.0510525";"https://maps.google.com/?cid=0x0:0xc962ecb74a2fa2cd"
"supermarket";"Toko bahan makanan";"Syifa shop.Bsr";"926W+F9G, Aron Tunong, Kec. Woyla, Kabupaten Aceh Barat, Aceh 23654";"Aron Tunong, Kec. Woyla, Kabupaten Aceh Barat";"ACEH";"23654";"Indonesia";" 082254256679";"4.361184";"96.0459398";"https://maps.google.com/?cid=0x0:0x3dbdc71212f194d3"
"supermarket";"Toko";"UD.Riski Rafka";"82R7+J6H, Pasi Jeut, Kec. Woyla Bar., Kabupaten Aceh Barat, Aceh 23654";"Pasi Jeut, Kec. Woyla Bar., Kabupaten Aceh Barat";"ACEH";"23654";"Indonesia";" 085320486576";"4.3415566";"96.0131028";"https://maps.google.com/?cid=0x0:0x59512e7d7d2aeb4f"
"supermarket";"supermarket";"Aceh 23655";"Kec. Setia Bakti, Kabupaten Aceh Jaya, Aceh";"Kabupaten Aceh Jaya, Aceh";"ACEH";"";"Indonesia";"";"4.7457854";"95.6878736";"https://maps.google.com/?cid=0x0:0x52d192e4749e2bd4"
"supermarket";"Grosir";"Ud Mitra Utama Group";"Lhok Buya, Kec. Setia Bakti, Kabupaten Aceh Jaya, Aceh 23655";"Kec. Setia Bakti, Kabupaten Aceh Jaya";"ACEH";"23655";"Indonesia";" 082360131142";"4.6577139";"95.5836149";"https://maps.google.com/?cid=0x0:0xf96771bba5918aad"
"supermarket";"Pusat Perbelanjaan";"Sultan Swalayan";"JHMJ+9VM, Bahagia, Kec. Krueng Sabee, Kabupaten Aceh Jaya, Aceh 23655";"Bahagia, Kec. Krueng Sabee, Kabupaten Aceh Jaya";"ACEH";"23655";"Indonesia";"";"4.6334702";"95.5821661";"https://maps.google.com/?cid=0x0:0x7a08d32add1be3b4"
"supermarket";"Kedai Kopi";"Coffe Espresso - Azzahra Market Lhok Buya";"MH5M+P2M, Lhok Buya, Kec. Setia Bakti, Kabupaten Aceh Jaya, Aceh 23655";"Lhok Buya, Kec. Setia Bakti, Kabupaten Aceh Jaya";"ACEH";"23655";"Indonesia";"";"4.6585908";"95.5832987";"https://maps.google.com/?cid=0x0:0x6e6d5fa1aae9b810"
"supermarket";"Toserba";"Toko UD ZKR";"JHQJ+G9Q, Sentosa, Kec. Krueng Sabee, Kabupaten Aceh Jaya, Aceh 23655";"Sentosa, Kec. Krueng Sabee, Kabupaten Aceh Jaya";"ACEH";"23655";"Indonesia";"";"4.6388261";"95.5809994";"https://maps.google.com/?cid=0x0:0x189b501180b69418"
"supermarket";"Toko umum";"Toko bijaksana grosir";"MH4P+C43, Lhok Buya, Kec. Setia Bakti, Kabupaten Aceh Jaya, Aceh 23655";"Lhok Buya, Kec. Setia Bakti, Kabupaten Aceh Jaya";"ACEH";"23655";"Indonesia";"";"4.6560183";"95.5852993";"https://maps.google.com/?cid=0x0:0x6e907deda2cc7f0c"
"supermarket";"Toko bahan makanan";"UD. MITA BACUT";"MH72+4V7, Jl. Banda Aceh - Calang, Gampong Baro, Kec. Setia Bakti, Kabupaten Aceh Jaya, Aceh 23655";"Jl. Banda Aceh - Calang, Gampong Baro, Kec. Setia Bakti, Kabupaten Aceh Jaya";"ACEH";"23655";"Indonesia";" 081373373288";"4.6627759";"95.5521833";"https://maps.google.com/?cid=0x0:0x9f557ad4fbdcb8ca"
"supermarket";"Toko umum";"Toko Balqisa";"MH74+G6J, rigah, ds, Lhok Timon, Kec. Setia Bakti, Kabupaten Aceh Jaya, Aceh 23655";"rigah, ds, Lhok Timon, Kec. Setia Bakti, Kabupaten Aceh Jaya";"ACEH";"23655";"Indonesia";"";"4.6638346";"95.5555026";"https://maps.google.com/?cid=0x0:0x2f17ec859a5245c3"
"supermarket";"Toko Perlengkapan Rumah";"SINAR HARAPAN";"JHQJ+39Q, Jl. Teuku Umar, Kp. Blang, Kec. Krueng Sabee, Kabupaten Aceh Jaya, Aceh 23655";"Jl. Teuku Umar, Kp. Blang, Kec. Krueng Sabee, Kabupaten Aceh Jaya";"ACEH";"23655";"Indonesia";" 085260040885";"4.6377069";"95.5809991";"https://maps.google.com/?cid=0x0:0x113030256ab2b230"
"supermarket";"Toko";"Toko bg din";"MH74+55M, Rigaih, Kec. Setia Bakti, Kabupaten Aceh Jaya, Aceh 23655";"Rigaih, Kec. Setia Bakti, Kabupaten Aceh Jaya";"ACEH";"23655";"Indonesia";"";"4.6618726";"95.5545816";"https://maps.google.com/?cid=0x0:0x44e1ab5715a6a8ed"
"supermarket";"Minimarket";"Indomaret SPBU Keutapang";"JHPX+2V9, Keutapang, Kec. Krueng Sabee, Kabupaten Aceh Jaya, Aceh 23655";"Keutapang, Kec. Krueng Sabee, Kabupaten Aceh Jaya";"ACEH";"23655";"Indonesia";"";"4.6350447";"95.5997345";"https://maps.google.com/?cid=0x0:0x97ade11b39f99162"
"supermarket";"Minimarket";"Indomaret Dayah Baro";"JHMQ+C26, Dayah Baro, Kec. Krueng Sabee, Kabupaten Aceh Jaya, Aceh 23655";"Dayah Baro, Kec. Krueng Sabee, Kabupaten Aceh Jaya";"ACEH";"23655";"Indonesia";"";"4.6335393";"95.5875047";"https://maps.google.com/?cid=0x0:0xe43563c414004b8"
"supermarket";"Toko Perlengkapan Rumah";"KiosAAN";"PHW4+X3W, Unnamed Road, Sawang, Kec. Setia Bakti, Kabupaten Aceh Jaya, Aceh 23656";"Unnamed Road, Sawang, Kec. Setia Bakti, Kabupaten Aceh Jaya";"ACEH";"23656";"Indonesia";" 082276766641";"4.7475251";"95.5552435";"https://maps.google.com/?cid=0x0:0x720c8b26065f088c"
"supermarket";"Grosir Sayur dan Buah";"Dedek sayur";"MH8G+637, Gampong Baro, Kec. Setia Bakti, Kabupaten Aceh Jaya, Aceh";"Kabupaten Aceh Jaya, Aceh";"ACEH";"";"Indonesia";"";"4.66554";"95.5751827";"https://maps.google.com/?cid=0x0:0xeeaab83798583051"
"supermarket";"supermarket";"Aceh 23656";"Kabupaten Aceh Jaya, Aceh";"Kabupaten Aceh Jaya, Aceh";"ACEH";"";"Indonesia";"";"4.9116238";"95.6037465";"https://maps.google.com/?cid=0x0:0x1aed070c2c639dba"
"supermarket";"Kedai Kopi";"Coffee Mitra Setia";"VFFQ+MCF, Unnamed Road, Seumantok, Kec. Sampoiniet, Kabupaten Aceh Jaya, Aceh 23656";"Unnamed Road, Seumantok, Kec. Sampoiniet, Kabupaten Aceh Jaya";"ACEH";"23656";"Indonesia";" 082277852751";"4.874182";"95.4885617";"https://maps.google.com/?cid=0x0:0xebc0bed7a2f58f38"
"supermarket";"Pusat Perbelanjaan";"UD.FIRYA ELPIJI";"W92X+2MH, Jl. Banda Aceh - Calang, Crak Mong, Kec. Sampoiniet, Kabupaten Aceh Jaya, Aceh 23657";"Jl. Banda Aceh - Calang, Crak Mong, Kec. Sampoiniet, Kabupaten Aceh Jaya";"ACEH";"23657";"Indonesia";" 081269073076";"4.9000679";"95.3992219";"https://maps.google.com/?cid=0x0:0x3191f2c7258445c2"
"supermarket";"Tujuan Wisata";"CRU Sampoiniet, Sarah Deu";"WFGQ+5RP, Pante Purba, Kec. Sampoiniet, Kabupaten Aceh Jaya, Aceh 23656";"Pante Purba, Kec. Sampoiniet, Kabupaten Aceh Jaya";"ACEH";"23656";"Indonesia";" 085362836024";"4.9254657";"95.4895871";"https://maps.google.com/?cid=0x0:0x428c30294fd0ef21"
"supermarket";"Pusat Perbelanjaan";"Berkah";"RFW2+7JP, Babah Nipah, Kec. Sampoiniet, Kabupaten Aceh Jaya, Aceh";"Kabupaten Aceh Jaya, Aceh";"ACEH";"";"Indonesia";"";"4.8457102";"95.4515725";"https://maps.google.com/?cid=0x0:0x556f20465d9779a3"
"supermarket";"Pusat Perbelanjaan";"Sultan Swalayan";"JHMJ+9VM, Bahagia, Kec. Krueng Sabee, Kabupaten Aceh Jaya, Aceh 23655";"Bahagia, Kec. Krueng Sabee, Kabupaten Aceh Jaya";"ACEH";"23655";"Indonesia";"";"4.6334702";"95.5821661";"https://maps.google.com/?cid=0x0:0x7a08d32add1be3b4"
"supermarket";"Pusat Perbelanjaan";"Toko UD Mulya Cot Pange";"RG74+J4C, Jl. Patek - Krueng Tho, Blang Dalam, Kec. Darul Hikmah, Kabupaten Aceh Jaya, Aceh 23656";"Jl. Patek - Krueng Tho, Blang Dalam, Kec. Darul Hikmah, Kabupaten Aceh Jaya";"ACEH";"23656";"Indonesia";"";"4.814074";"95.5052647";"https://maps.google.com/?cid=0x0:0x6e7075d26d2d94e3"
"supermarket";"Toko Swalayan";"Baruna Jaya";"W93W+G2W, Jl. Teuku Umar Pulo Raya Lintas Meulabuh No.Desa, Crak Mong, Kec. Sampoiniet, Kabupaten Aceh Jaya, Aceh 23657";"Jl. Teuku Umar Pulo Raya Lintas Meulabuh No.Desa, Crak Mong, Kec. Sampoiniet, Kabupaten Aceh Jaya";"ACEH";"23657";"Indonesia";" 085271715893";"4.9031524";"95.3952685";"https://maps.google.com/?cid=0x0:0x188255ad74f1fc33"
"supermarket";"Minimarket";"Mini Market Isa Fatapura";"W93W+G2W, Jl. Teuku Umar Pulo Raya Lintas Meulabuh No.Desa, Crak Mong, Kec. Sampoiniet, Kabupaten Aceh Jaya, Aceh 23657";"Jl. Teuku Umar Pulo Raya Lintas Meulabuh No.Desa, Crak Mong, Kec. Sampoiniet, Kabupaten Aceh Jaya";"ACEH";"23657";"Indonesia";"";"4.9032864";"95.3952403";"https://maps.google.com/?cid=0x0:0x5bcca00b3fddcc78"
"supermarket";"Kios";"Keudè Kak Dia";"Jl. Ie Jeureungeh-Rantoe Saboen, Kec. Sampoiniet, Kabupaten Aceh Jaya, Aceh 23656";"Kec. Sampoiniet, Kabupaten Aceh Jaya";"ACEH";"23656";"Indonesia";"";"5.0208541";"95.5354816";"https://maps.google.com/?cid=0x0:0xc7ecc858109d1929"
"supermarket";"Toko";"Mega Swalayan";"39W6+2PX, Gle Putoh, Jaya, Kabupaten Aceh Jaya, Aceh 23657";"Gle Putoh, Jaya, Kabupaten Aceh Jaya";"ACEH";"23657";"Indonesia";"";"5.0951229";"95.3618657";"https://maps.google.com/?cid=0x0:0xe211dad2581a0703"
"supermarket";"supermarket";"Rumah makan";"VCF2+62G, Lhok Kruet, Kec. Sampoiniet, Kabupaten Aceh Jaya, Aceh 23657";"Lhok Kruet, Kec. Sampoiniet, Kabupaten Aceh Jaya";"ACEH";"23657";"Indonesia";"";"4.873071";"95.400093";"https://maps.google.com/?cid=0x0:0x6fc9e87760b6b83"
"supermarket";"Toko bahan makanan";"keude yahli";"Lhok Buya, Kec. Setia Bakti, Kabupaten Aceh Jaya, Aceh 23655";"Kec. Setia Bakti, Kabupaten Aceh Jaya";"ACEH";"23655";"Indonesia";" 085262260395";"4.6578108";"95.5840752";"https://maps.google.com/?cid=0x0:0xbddccc2e2cdaa4dc"
"supermarket";"Minimarket";"Indomaret SPBU Keutapang";"JHPX+2V9, Keutapang, Kec. Krueng Sabee, Kabupaten Aceh Jaya, Aceh 23655";"Keutapang, Kec. Krueng Sabee, Kabupaten Aceh Jaya";"ACEH";"23655";"Indonesia";"";"4.6350447";"95.5997345";"https://maps.google.com/?cid=0x0:0x97ade11b39f99162"
"supermarket";"supermarket";"Aceh 23657";"Kabupaten Aceh Jaya, Aceh";"Kabupaten Aceh Jaya, Aceh";"ACEH";"";"Indonesia";"";"5.0787006";"95.435853";"https://maps.google.com/?cid=0x0:0x3ad6a5bdfe2df870"
"supermarket";"Toko";"Mega Swalayan";"39W6+2PX, Gle Putoh, Jaya, Kabupaten Aceh Jaya, Aceh 23657";"Gle Putoh, Jaya, Kabupaten Aceh Jaya";"ACEH";"23657";"Indonesia";"";"5.0951229";"95.3618657";"https://maps.google.com/?cid=0x0:0xe211dad2581a0703"
"supermarket";"Pusat Perbelanjaan";"TIJARAH";"48CR+6C6, Jl. Banda Aceh - Calang, Lambaroh, Jaya, Kabupaten Aceh Jaya, Aceh 23657";"Jl. Banda Aceh - Calang, Lambaroh, Jaya, Kabupaten Aceh Jaya";"ACEH";"23657";"Indonesia";" 085262345607";"5.1205386";"95.3410215";"https://maps.google.com/?cid=0x0:0xeb2a23e4a1ab023c"
"supermarket";"Toko Swalayan";"UD.MMH JAYA";"39C2+WQW, Jl. Banda Aceh - Calang, Babah Dua, Kec. Indra Jaya, Kabupaten Aceh Jaya, Aceh 23657";"Jl. Banda Aceh - Calang, Babah Dua, Kec. Indra Jaya, Kabupaten Aceh Jaya";"ACEH";"23657";"Indonesia";"";"5.0722571";"95.3519543";"https://maps.google.com/?cid=0x0:0xecb068616e4391c6"
"supermarket";"Pusat Perbelanjaan";"UD.FIRYA ELPIJI";"W92X+2MH, Jl. Banda Aceh - Calang, Crak Mong, Kec. Sampoiniet, Kabupaten Aceh Jaya, Aceh 23657";"Jl. Banda Aceh - Calang, Crak Mong, Kec. Sampoiniet, Kabupaten Aceh Jaya";"ACEH";"23657";"Indonesia";" 081269073076";"4.9000679";"95.3992219";"https://maps.google.com/?cid=0x0:0x3191f2c7258445c2"
"supermarket";"Toko Swalayan";"UD.semangat baru";"39C2+G4P, Babah Dua, Kec. Indra Jaya, Kabupaten Aceh Jaya, Aceh 23657";"Babah Dua, Kec. Indra Jaya, Kabupaten Aceh Jaya";"ACEH";"23657";"Indonesia";" 082261871745";"5.0714198";"95.3503412";"https://maps.google.com/?cid=0x0:0x46b15308d8a976c9"
"supermarket";"Toko Swalayan";"UD DEDI SIMPANG";"39Q8+FJW, Ps. Lamno, Jaya, Kabupaten Aceh Jaya, Aceh 23657";"Ps. Lamno, Jaya, Kabupaten Aceh Jaya";"ACEH";"23657";"Indonesia";"";"5.088543";"95.3665661";"https://maps.google.com/?cid=0x0:0x75b1be82f9c0e63d"
"supermarket";"Toko Swalayan";"Panteriek Swalayan";"JL. Teungku Imum Leung Bata, No. 96, Panteriek, Keude Unga, Banda Aceh, Kabupaten Aceh Jaya, Aceh 23657";"No. 96, Panteriek, Keude Unga, Banda Aceh, Kabupaten Aceh Jaya";"ACEH";"23657";"Indonesia";" 081310402557";"5.036583";"95.361853";"https://maps.google.com/?cid=0x0:0x5dc6c591ddb50c57"
"supermarket";"Bar Kopi Espresso";"Beusarie Niaga Market";"39X6+J2V, Gle Putoh, Jaya, Kabupaten Aceh Jaya, Aceh 23657";"Gle Putoh, Jaya, Kabupaten Aceh Jaya";"ACEH";"23657";"Indonesia";"";"5.0991223";"95.3600373";"https://maps.google.com/?cid=0x0:0xc246310fa693ea6d"
"supermarket";"Pom bensin/SPBU";"SPBU Pertamina14.236.419";"Jl. Banda Aceh - Calang, Gle Putoh, Jaya, Kabupaten Aceh Jaya, Aceh 23657";"Gle Putoh, Jaya, Kabupaten Aceh Jaya";"ACEH";"23657";"Indonesia";"";"5.0987905";"95.3601745";"https://maps.google.com/?cid=0x0:0x95af45b64093d276"
"supermarket";"supermarket";"Alesha Mart";"Jl. Meulaboh - Banda Aceh, Lamno, Jaya, Kabupaten Aceh Jaya, Aceh";"Kabupaten Aceh Jaya, Aceh";"ACEH";"";"Indonesia";"";"5.0965581";"95.3608943";"https://maps.google.com/?cid=0x0:0x4e4c7150b25c914b"
"supermarket";"Toko";"Kios Bunda";"496M+M2G, Sango, Jaya, Kabupaten Aceh Jaya, Aceh 23657";"Sango, Jaya, Kabupaten Aceh Jaya";"ACEH";"23657";"Indonesia";" 085210427812";"5.1116868";"95.3826034";"https://maps.google.com/?cid=0x0:0xa903819884d48133"
"supermarket";"Toko Swalayan";"Juragan sembako";"39C2+G4P, Babah Dua, Kec. Indra Jaya, Kabupaten Aceh Jaya, Aceh 23657";"Babah Dua, Kec. Indra Jaya, Kabupaten Aceh Jaya";"ACEH";"23657";"Indonesia";"";"5.0714235";"95.3503411";"https://maps.google.com/?cid=0x0:0x8d876ef8a00a4843"
"supermarket";"Toko";"Lambaro Swalayan";"JL. Banda Aceh-Medan, No. 19, Lambaro, Keude Unga, Banda Aceh, Kabupaten Aceh Jaya, Aceh 23657";"No. 19, Lambaro, Keude Unga, Banda Aceh, Kabupaten Aceh Jaya";"ACEH";"23657";"Indonesia";" 06518070140";"5.036654";"95.361915";"https://maps.google.com/?cid=0x0:0x7e37b9876b6eb36c"
"supermarket";"supermarket";"Kec. Indra Jaya";"Kabupaten Aceh Jaya, Aceh";"Kabupaten Aceh Jaya, Aceh";"ACEH";"";"Indonesia";"";"5.0632418";"95.3386622";"https://maps.google.com/?cid=0x0:0x9bf6e49fb0e9adcc"
"supermarket";"Toko Swalayan";"UD.semangat baru";"39C2+G4P, Babah Dua, Kec. Indra Jaya, Kabupaten Aceh Jaya, Aceh 23657";"Babah Dua, Kec. Indra Jaya, Kabupaten Aceh Jaya";"ACEH";"23657";"Indonesia";" 082261871745";"5.0714198";"95.3503412";"https://maps.google.com/?cid=0x0:0x46b15308d8a976c9"
"supermarket";"Toko Swalayan";"Juragan sembako";"39C2+G4P, Babah Dua, Kec. Indra Jaya, Kabupaten Aceh Jaya, Aceh 23657";"Babah Dua, Kec. Indra Jaya, Kabupaten Aceh Jaya";"ACEH";"23657";"Indonesia";"";"5.0714235";"95.3503411";"https://maps.google.com/?cid=0x0:0x8d876ef8a00a4843"
"supermarket";"Toko";"Mega Swalayan";"39W6+2PX, Gle Putoh, Jaya, Kabupaten Aceh Jaya, Aceh 23657";"Gle Putoh, Jaya, Kabupaten Aceh Jaya";"ACEH";"23657";"Indonesia";"";"5.0951229";"95.3618657";"https://maps.google.com/?cid=0x0:0xe211dad2581a0703"
"supermarket";"Toko Swalayan";"Panteriek Swalayan";"JL. Teungku Imum Leung Bata, No. 96, Panteriek, Keude Unga, Banda Aceh, Kabupaten Aceh Jaya, Aceh 23657";"No. 96, Panteriek, Keude Unga, Banda Aceh, Kabupaten Aceh Jaya";"ACEH";"23657";"Indonesia";" 081310402557";"5.036583";"95.361853";"https://maps.google.com/?cid=0x0:0x5dc6c591ddb50c57"
"supermarket";"Minimarket";"Pondok indah market";"Desa Ujong Muloh, Lambeusoe, Lamno, Kec. Indra Jaya, Kabupaten Aceh Jaya, Aceh";"Kabupaten Aceh Jaya, Aceh";"ACEH";"";"Indonesia";" 085277643606";"5.0526904";"95.3406907";"https://maps.google.com/?cid=0x0:0x137f9f9a4836db8f"
"supermarket";"Toko Swalayan";"UD DEDI SIMPANG";"39Q8+FJW, Ps. Lamno, Jaya, Kabupaten Aceh Jaya, Aceh 23657";"Ps. Lamno, Jaya, Kabupaten Aceh Jaya";"ACEH";"23657";"Indonesia";"";"5.088543";"95.3665661";"https://maps.google.com/?cid=0x0:0x75b1be82f9c0e63d"
"supermarket";"Toko umum";"PRODUKSI MIE KUNING,Tgk Arsyidi";"39Q8+7RW, Ps. Lamno, Jaya, Kabupaten Aceh Jaya, Aceh 23657";"Ps. Lamno, Jaya, Kabupaten Aceh Jaya";"ACEH";"23657";"Indonesia";"";"5.0880351";"95.3670231";"https://maps.google.com/?cid=0x0:0x6096b5137fc65d43"
"supermarket";"Pusat Perbelanjaan";"UD.FIRYA ELPIJI";"W92X+2MH, Jl. Banda Aceh - Calang, Crak Mong, Kec. Sampoiniet, Kabupaten Aceh Jaya, Aceh 23657";"Jl. Banda Aceh - Calang, Crak Mong, Kec. Sampoiniet, Kabupaten Aceh Jaya";"ACEH";"23657";"Indonesia";" 081269073076";"4.9000679";"95.3992219";"https://maps.google.com/?cid=0x0:0x3191f2c7258445c2"
"supermarket";"Toko";"Lambaro Swalayan";"JL. Banda Aceh-Medan, No. 19, Lambaro, Keude Unga, Banda Aceh, Kabupaten Aceh Jaya, Aceh 23657";"No. 19, Lambaro, Keude Unga, Banda Aceh, Kabupaten Aceh Jaya";"ACEH";"23657";"Indonesia";" 06518070140";"5.036654";"95.361915";"https://maps.google.com/?cid=0x0:0x7e37b9876b6eb36c"
"supermarket";"Toko Swalayan";"Toko Indra Jaya";"Jl. Tubanan Baru III No.c 60, Tubanan, Kec. Tandes, Surabaya, Jawa Timur 60188";"Tubanan, Kec. Tandes, Surabaya";"ACEH";"60188";"Indonesia";"";"-7.267348";"112.6815332";"https://maps.google.com/?cid=0x0:0x7023983b8893571"
"supermarket";"Toko Swalayan";"Toko Indra Jaya";"Jl. Palmeriam Utara No.29, RT.14/RW.7, Palmeriam, Kec. Matraman, Kota Jakarta Timur, Daerah Khusus Ibukota Jakarta 13140";"RT.14/RW.7, Palmeriam, Kec. Matraman, Kota Jakarta Timur";"ACEH";"13140";"Indonesia";"";"-6.2051649";"106.8604443";"https://maps.google.com/?cid=0x0:0xe0f1ef9fb040df5f"
"supermarket";"Toko Perlengkapan Rumah";"Toko Indra Jaya";"HW4H+3HP, Jl. Lumbir - Karang Pucung, Wanasari, Cingebul, Kec. Lumbir, Kabupaten Banyumas, Jawa Tengah 53177";"Jl. Lumbir - Karang Pucung, Wanasari, Cingebul, Kec. Lumbir, Kabupaten Banyumas";"ACEH";"53177";"Indonesia";"";"-7.444791";"108.9289521";"https://maps.google.com/?cid=0x0:0x12717de018098c63"
"supermarket";"Toko";"INDRA JAYA 99";"Duku Karangsari Wlahar Rt/Rw 07/03, Karangsari, Wlahar, Kec. Larangan, Kabupaten Brebes, Jawa Tengah 52262";"Karangsari, Wlahar, Kec. Larangan, Kabupaten Brebes";"ACEH";"52262";"Indonesia";" 081212132599";"-7.0941372";"108.9709954";"https://maps.google.com/?cid=0x0:0x5acc86e0617e34b3"
"supermarket";"Kios";"Kios Ichwani";"8X65+VJQ, Keutapang, Kec. Indra Jaya, Kabupaten Pidie, Aceh";"Kabupaten Pidie, Aceh";"ACEH";"";"Indonesia";"";"5.3122053";"95.9591013";"https://maps.google.com/?cid=0x0:0x934ad2740f608f3a"
"supermarket";"supermarket";"Kec. Indra Jaya";"Kabupaten Pidie, Aceh";"Kabupaten Pidie, Aceh";"ACEH";"";"Indonesia";"";"5.3162867";"95.9602464";"https://maps.google.com/?cid=0x0:0xcceede14e8e3d2e3"
"supermarket";"Toko Swalayan";"UD. AZWAR";"Keutapang, Kec. Indra Jaya, Kabupaten Pidie, Aceh";"Kabupaten Pidie, Aceh";"ACEH";"";"Indonesia";" 085358284550";"5.3119574";"95.9584877";"https://maps.google.com/?cid=0x0:0xf9a81668fa5268b1"
"supermarket";"Toko bahan makanan";"PILAR MART";"8X95+6MX, Dayah Caleue, Kec. Indra Jaya, Kabupaten Pidie, Aceh 24151";"Dayah Caleue, Kec. Indra Jaya, Kabupaten Pidie";"ACEH";"24151";"Indonesia";"";"5.3181031";"95.9592421";"https://maps.google.com/?cid=0x0:0x1bc61a735925560a"
"supermarket";"Toko";"Wiwid Olshop";"8X76+C92, Dayah Caleue, Kec. Indra Jaya, Kabupaten Pidie, Aceh 24151";"Dayah Caleue, Kec. Indra Jaya, Kabupaten Pidie";"ACEH";"24151";"Indonesia";"";"5.3135016";"95.9609033";"https://maps.google.com/?cid=0x0:0x4019ca8456c66e85"
"supermarket";"Toko Swalayan";"Kios Nuraini";"Desa tampieng Baroh, Dayah Caleue, Kec. Indra Jaya, Kabupaten Pidie, Aceh 24171";"Dayah Caleue, Kec. Indra Jaya, Kabupaten Pidie";"ACEH";"24171";"Indonesia";" 082296973524";"5.3185221";"95.9551158";"https://maps.google.com/?cid=0x0:0x80907f257ad1cba8"
"supermarket";"Pusat Perbelanjaan";"EL SIGLI PONSEL";"Dayah Caleue, Kec. Indra Jaya, Kabupaten Pidie, Aceh 24151";"Kec. Indra Jaya, Kabupaten Pidie";"ACEH";"24151";"Indonesia";" 085277777718";"5.3181296";"95.9592259";"https://maps.google.com/?cid=0x0:0xe53eb1b8697b2278"
"supermarket";"Minimarket";"Alfamart Caleu";"8X85+XQH, Jl. Medan - Banda Aceh, Dayah Caleue, Kec. Indra Jaya, Kabupaten Pidie, Aceh";"Kabupaten Pidie, Aceh";"ACEH";"";"Indonesia";"";"5.3174265";"95.9594719";"https://maps.google.com/?cid=0x0:0xbc0b6ed79cc91209"
"supermarket";"Toko Swalayan";"PT GROUP JAYA BEUSAMA";"Jl. Medan Banda Aceh, Simpang Keumangan, Kec. Mutiara, Kabupaten Pidie, Aceh 24173";"Simpang Keumangan, Kec. Mutiara, Kabupaten Pidie";"ACEH";"24173";"Indonesia";" 0812903332";"5.2848408";"95.9744671";"https://maps.google.com/?cid=0x0:0x901ea84e38d81d34"
"supermarket";"Toko Swalayan";"Beurandeh Jaya";"9X38+4X5, Puuk, Kec. Pidie, Kabupaten Pidie, Aceh 24164";"Puuk, Kec. Pidie, Kabupaten Pidie";"ACEH";"24164";"Indonesia";" 085360053500";"5.352773";"95.9674905";"https://maps.google.com/?cid=0x0:0xb168ee74571c799"
"supermarket";"Toko Swalayan";"Cherry Mart";"Jl. Lintas Medan Jl. Banda Aceh, Baro Yaman, Mutiara, Kabupaten Pidie, Aceh, Indonesia, Jl. Lintas Sumatra, Baro Yaman, Kec. Mutiara, Kabupaten Pidie, Aceh 24186";"Baro Yaman, Mutiara, Kabupaten Pidie, Aceh, Indonesia, Jl. Lintas Sumatra, Baro Yaman, Kec. Mutiara, Kabupaten Pidie";"ACEH";"24186";"Indonesia";" 08126933666";"5.2782468";"95.9795015";"https://maps.google.com/?cid=0x0:0x1fb20a7e998eded9"
"supermarket";"Toko Swalayan";"Kios Ridwan";"8XF3+VQ3, Unnamed Road, Jim, Kec. Peukan Baro, Kabupaten Pidie, Aceh 24182";"Unnamed Road, Jim, Kec. Peukan Baro, Kabupaten Pidie";"ACEH";"24182";"Indonesia";"";"5.3246295";"95.9544285";"https://maps.google.com/?cid=0x0:0xbed7bb7b179bb77c"
"supermarket";"Toko Swalayan";"SWASERBA NUPUENA";"Dayah Caleue, Kec. Indra Jaya, Kabupaten Pidie, Aceh 24151";"Kec. Indra Jaya, Kabupaten Pidie";"ACEH";"24151";"Indonesia";" 085277875880";"5.3152102";"95.9608821";"https://maps.google.com/?cid=0x0:0x6b3933368d52077b"
"supermarket";"Minimarket";"POJOK MALLY";"Dayah Caleue, Kec. Indra Jaya, Kabupaten Pidie, Aceh 24151";"Kec. Indra Jaya, Kabupaten Pidie";"ACEH";"24151";"Indonesia";" 085261083580";"5.3131862";"95.9615793";"https://maps.google.com/?cid=0x0:0x763acadd9eb3de40"
"supermarket";"supermarket";"Aceh 23656";"Kabupaten Aceh Jaya, Aceh";"Kabupaten Aceh Jaya, Aceh";"ACEH";"";"Indonesia";"";"4.9116238";"95.6037465";"https://maps.google.com/?cid=0x0:0x1aed070c2c639dba"
"supermarket";"Pasar";"Pasar Darul Hikmah";"QF8J+5J6, Patek, Kec. Darul Hikmah, Kabupaten Aceh Jaya, Aceh 23656";"Patek, Kec. Darul Hikmah, Kabupaten Aceh Jaya";"ACEH";"23656";"Indonesia";"";"4.7654209";"95.4815068";"https://maps.google.com/?cid=0x0:0x62441df30b37f7dc"
"supermarket";"Grosir";"UD.AZKA";"RF5P+C9C, Jl. Patek - Krueng Tho, Pajar, Kec. Darul Hikmah, Kabupaten Aceh Jaya, Aceh 23656";"Jl. Patek - Krueng Tho, Pajar, Kec. Darul Hikmah, Kabupaten Aceh Jaya";"ACEH";"23656";"Indonesia";" 081362770004";"4.8085693";"95.4858821";"https://maps.google.com/?cid=0x0:0xabdd01ca012f47f2"
"supermarket";"Toko Elektronik";"SA Elektronik";"RGJ7+7WG, Pajar, Kec. Darul Hikmah, Kabupaten Aceh Jaya, Aceh 23656";"Pajar, Kec. Darul Hikmah, Kabupaten Aceh Jaya";"ACEH";"23656";"Indonesia";" 081265127066";"4.8306795";"95.5148397";"https://maps.google.com/?cid=0x0:0xa52523e57c9896e1"
"supermarket";"Kedai Kopi";"28 Mart";"Pajar, Kec. Darul Hikmah, Kabupaten Aceh Jaya, Aceh 23656";"Kec. Darul Hikmah, Kabupaten Aceh Jaya";"ACEH";"23656";"Indonesia";" 082292037868";"4.8212198";"95.5299952";"https://maps.google.com/?cid=0x0:0x9de14b7226e64a9d"
"supermarket";"Pusat Perbelanjaan";"Sultan Swalayan";"JHMJ+9VM, Bahagia, Kec. Krueng Sabee, Kabupaten Aceh Jaya, Aceh 23655";"Bahagia, Kec. Krueng Sabee, Kabupaten Aceh Jaya";"ACEH";"23655";"Indonesia";"";"4.6334702";"95.5821661";"https://maps.google.com/?cid=0x0:0x7a08d32add1be3b4"
"supermarket";"Toko";"Ran Elektro";"QFM6+3CR, Patek, Gampong Baro P, Kec. Darul Hikmah, Kabupaten Aceh Jaya, Aceh 23656";"Patek, Gampong Baro P, Kec. Darul Hikmah, Kabupaten Aceh Jaya";"ACEH";"23656";"Indonesia";" 082269438216";"4.7827396";"95.4610238";"https://maps.google.com/?cid=0x0:0x57c5516c662063de"
"supermarket";"Kedai Kopi";"Coffee Mitra Setia";"VFFQ+MCF, Unnamed Road, Seumantok, Kec. Sampoiniet, Kabupaten Aceh Jaya, Aceh 23656";"Unnamed Road, Seumantok, Kec. Sampoiniet, Kabupaten Aceh Jaya";"ACEH";"23656";"Indonesia";" 082277852751";"4.874182";"95.4885617";"https://maps.google.com/?cid=0x0:0xebc0bed7a2f58f38"
"supermarket";"Toserba";"Toko UD ZKR";"JHQJ+G9Q, Sentosa, Kec. Krueng Sabee, Kabupaten Aceh Jaya, Aceh 23655";"Sentosa, Kec. Krueng Sabee, Kabupaten Aceh Jaya";"ACEH";"23655";"Indonesia";"";"4.6388261";"95.5809994";"https://maps.google.com/?cid=0x0:0x189b501180b69418"
"supermarket";"Toko Perlengkapan Rumah";"KiosAAN";"PHW4+X3W, Unnamed Road, Sawang, Kec. Setia Bakti, Kabupaten Aceh Jaya, Aceh 23656";"Unnamed Road, Sawang, Kec. Setia Bakti, Kabupaten Aceh Jaya";"ACEH";"23656";"Indonesia";" 082276766641";"4.7475251";"95.5552435";"https://maps.google.com/?cid=0x0:0x720c8b26065f088c"
"supermarket";"Toko";"UD SABARELA";"RGH7+RJ3, lamteungoh, Kec. Darul Hikmah, Kabupaten Aceh Jaya, Aceh 23656";"lamteungoh, Kec. Darul Hikmah, Kabupaten Aceh Jaya";"ACEH";"23656";"Indonesia";" 081360901896";"4.8295193";"95.5140578";"https://maps.google.com/?cid=0x0:0x3ea65bf6b4414e9f"
"supermarket";"Toko Pertanian";"UD. KARYA TANI";"RGH8+V5C, Unnamed Road, Pajar, Kec. Darul Hikmah, Kabupaten Aceh Jaya, Aceh 23656";"Unnamed Road, Pajar, Kec. Darul Hikmah, Kabupaten Aceh Jaya";"ACEH";"23656";"Indonesia";" 08126956833";"4.8296977";"95.5154041";"https://maps.google.com/?cid=0x0:0x4d1e6a1bd5bbb5e9"
"supermarket";"Toko grosir";"UD. Doa aneuk";"WJG9+QRR, Gn. Cut, Kec. Darul Hikmah, Kabupaten Aceh Jaya, Aceh 23656";"Gn. Cut, Kec. Darul Hikmah, Kabupaten Aceh Jaya";"ACEH";"23656";"Indonesia";"";"4.9269997";"95.6195112";"https://maps.google.com/?cid=0x0:0x2cb0d9a5e7d6ff4d"
"supermarket";"Toko bahan makanan";"keude yahli";"Lhok Buya, Kec. Setia Bakti, Kabupaten Aceh Jaya, Aceh 23655";"Kec. Setia Bakti, Kabupaten Aceh Jaya";"ACEH";"23655";"Indonesia";" 085262260395";"4.6578108";"95.5840752";"https://maps.google.com/?cid=0x0:0xbddccc2e2cdaa4dc"
"supermarket";"Toko umum";"UD. AAA FAMILY";"Tuwi Kareung I, Kec. Pasie Raya, Kabupaten Aceh Jaya, Aceh 23653";"Kec. Pasie Raya, Kabupaten Aceh Jaya";"ACEH";"23653";"Indonesia";"";"4.5062069";"95.8870595";"https://maps.google.com/?cid=0x0:0xfd00d3a381cc950d"
"supermarket";"supermarket";"Aceh 23653";"Kec. Teunom, Kabupaten Aceh Jaya, Aceh";"Kabupaten Aceh Jaya, Aceh";"ACEH";"";"Indonesia";"";"4.5590872";"95.8775964";"https://maps.google.com/?cid=0x0:0xd1bbc87731e6c060"
"supermarket";"Pusat Perbelanjaan";"Pasar Teunom";"CRW6+QJV, Panton, Kec. Teunom, Kabupaten Aceh Jaya, Aceh 23653";"Panton, Kec. Teunom, Kabupaten Aceh Jaya";"ACEH";"23653";"Indonesia";"";"4.4469859";"95.8115376";"https://maps.google.com/?cid=0x0:0x41f0791cf3a9bfd4"
"supermarket";"Toko umum";"kios buk meli";"Jl. Teunom-sarah raya No.Km. 24, Alue Punti, Kec. Pasie Raya, Kabupaten Aceh Jaya, Aceh 23653";"Alue Punti, Kec. Pasie Raya, Kabupaten Aceh Jaya";"ACEH";"23653";"Indonesia";"";"4.5744192";"95.9209644";"https://maps.google.com/?cid=0x0:0xbecb7513a66d6a53"
"supermarket";"Grosir Barang Kelontong";"Keudee Muhammad Nur";"CVQ3+G52, Tuwi krueng, Kec. Teunom, Kabupaten Aceh Jaya, Aceh 23653";"Tuwi krueng, Kec. Teunom, Kabupaten Aceh Jaya";"ACEH";"23653";"Indonesia";" 081361170621";"4.4387726";"95.8529029";"https://maps.google.com/?cid=0x0:0x63bddc018095d211"
"supermarket";"supermarket";"Kios Mak Sokhib";"FR82+28M, Jl. Meulaboh - Banda Aceh, aluambang, Kec. Teunom, Kabupaten Aceh Jaya, Aceh";"Kabupaten Aceh Jaya, Aceh";"ACEH";"";"Indonesia";" 081397000658";"4.4650792";"95.8007886";"https://maps.google.com/?cid=0x0:0x644daa2346308fca"
"supermarket";"Pusat Perbelanjaan";"sultan swalayan";"Jl. Meulaboh - Banda Aceh, Panton, Kec. Teunom, Kabupaten Aceh Jaya, Aceh 23653";"Panton, Kec. Teunom, Kabupaten Aceh Jaya";"ACEH";"23653";"Indonesia";" 085362364636";"4.445264";"95.8123024";"https://maps.google.com/?cid=0x0:0x109bb69ede877c4d"
"supermarket";"Toko Roti";"Aneka Keripik Renyah Kuta Tuha Panga";"GPW8+G6P, Kuta Tuha, Kec. Panga, Kabupaten Aceh Jaya, Aceh 23653";"Kuta Tuha, Kec. Panga, Kabupaten Aceh Jaya";"ACEH";"23653";"Indonesia";"";"4.5463333";"95.7155846";"https://maps.google.com/?cid=0x0:0x623cc882d73c1084"
"supermarket";"Toserba";"Toko UD ZKR";"JHQJ+G9Q, Sentosa, Kec. Krueng Sabee, Kabupaten Aceh Jaya, Aceh 23655";"Sentosa, Kec. Krueng Sabee, Kabupaten Aceh Jaya";"ACEH";"23655";"Indonesia";"";"4.6388261";"95.5809994";"https://maps.google.com/?cid=0x0:0x189b501180b69418"
"supermarket";"Minimarket";"Toko Desa Gampong Mon Mata";"JJ4R+WHJ, Jl. Meulaboh - Banda Aceh, Mon Mata, Kec. Krueng Sabee, Kabupaten Aceh Jaya, Aceh 23654";"Jl. Meulaboh - Banda Aceh, Mon Mata, Kec. Krueng Sabee, Kabupaten Aceh Jaya";"ACEH";"23654";"Indonesia";"";"4.6073485";"95.641402";"https://maps.google.com/?cid=0x0:0x2be4aaef617df161"
"supermarket";"Grosir";"Ud Mitra Utama Group";"Lhok Buya, Kec. Setia Bakti, Kabupaten Aceh Jaya, Aceh 23655";"Kec. Setia Bakti, Kabupaten Aceh Jaya";"ACEH";"23655";"Indonesia";" 082360131142";"4.6577139";"95.5836149";"https://maps.google.com/?cid=0x0:0xf96771bba5918aad"
"supermarket";"Toko bahan makanan";"keude yahli";"Lhok Buya, Kec. Setia Bakti, Kabupaten Aceh Jaya, Aceh 23655";"Kec. Setia Bakti, Kabupaten Aceh Jaya";"ACEH";"23655";"Indonesia";" 085262260395";"4.6578108";"95.5840752";"https://maps.google.com/?cid=0x0:0xbddccc2e2cdaa4dc"
"supermarket";"Toko Perlengkapan Rumah";"Tunas Muda Teunom";"FQ9W+GVJ, Jl. Meulaboh - Banda Aceh, Tanoh Manyang, Kec. Teunom, Kabupaten Aceh Jaya, Aceh 23653";"Jl. Meulaboh - Banda Aceh, Tanoh Manyang, Kec. Teunom, Kabupaten Aceh Jaya";"ACEH";"23653";"Indonesia";" 082111496477";"4.4688319";"95.797133";"https://maps.google.com/?cid=0x0:0xb353622990fced68"
"supermarket";"Kedai Kopi";"Warkop linkford";"FV96+385, Pasi Geulima, Kec. Teunom, Kabupaten Aceh Jaya, Aceh 23653";"Pasi Geulima, Kec. Teunom, Kabupaten Aceh Jaya";"ACEH";"23653";"Indonesia";" 081360300856";"4.4676377";"95.860851";"https://maps.google.com/?cid=0x0:0x4f14dcef3e9771dd"
