Category;Real Category;Business Name;Address;City;State;Postal Code;Country;Phone;Latitude;Longitude;Map Link
"perumahan";"Pembangunan Perumahan";"Rsh";"FR2P+2R9, Gampong Baro, Kec. Teunom, Kabupaten Aceh Jaya, Aceh 23653";"Gampong Baro, Kec. Teunom, Kabupaten Aceh Jaya";"ACEH";"23653";"Indonesia";"";"4.450542";"95.837056";"https://maps.google.com/?cid=0x0:0xdab8aab6c6bab303"
"perumahan";"perumahan";"Aceh 23653";"Kec. Teunom, Kabupaten Aceh Jaya, Aceh";"Kabupaten Aceh Jaya, Aceh";"ACEH";"";"Indonesia";"";"4.5590872";"95.8775964";"https://maps.google.com/?cid=0x0:0xd1bbc87731e6c060"
"perumahan";"Masjid";"Teunom";"CRPG+HVX, Jl. Meulaboh - Banda Aceh, Paya Baro, Kec. Teunom, Kabupaten Aceh Jaya, Aceh 23653";"Jl. Meulaboh - Banda Aceh, Paya Baro, Kec. Teunom, Kabupaten Aceh Jaya";"ACEH";"23653";"Indonesia";"";"4.4364989";"95.8272307";"https://maps.google.com/?cid=0x0:0xae29e421dc8f242c"
"perumahan";"Komplek perumahan";"Rumah";"CRX5+WHP, Alue Ambang, Kec. Teunom, Kabupaten Aceh Jaya, Aceh";"Kabupaten Aceh Jaya, Aceh";"ACEH";"";"Indonesia";"";"4.4495962";"95.8085231";"https://maps.google.com/?cid=0x0:0x2908b4303e722fd6"
"perumahan";"Pembangunan Perumahan";"Rumoh dek jul";"CRX9+X33, Panton, Kec. Teunom, Kabupaten Aceh Jaya, Aceh 23653";"Panton, Kec. Teunom, Kabupaten Aceh Jaya";"ACEH";"23653";"Indonesia";"";"4.4498354";"95.816549";"https://maps.google.com/?cid=0x0:0x48708e98faa15164"
"perumahan";"Pembangunan Perumahan";"Rumoh boting TM";"FR66+C5, Keude Teunom, Kec. Teunom, Kabupaten Aceh Jaya, Aceh 23653";"Keude Teunom, Kec. Teunom, Kabupaten Aceh Jaya";"ACEH";"23653";"Indonesia";"";"4.4610932";"95.8104057";"https://maps.google.com/?cid=0x0:0xb339d3beacb8b93a"
"perumahan";"Masjid";"Mesjid";"FR5M+Q3H, Gampong Baro, Kec. Teunom, Kabupaten Aceh Jaya, Aceh 23653";"Gampong Baro, Kec. Teunom, Kabupaten Aceh Jaya";"ACEH";"23653";"Indonesia";"";"4.4594379";"95.8327464";"https://maps.google.com/?cid=0x0:0xe432e42385e361b3"
"perumahan";"Pembangunan Perumahan";"Rumah Sekretaris Gampong Tuwi Kareung";"FVXM+M46, Tuwi Kareung I, Kec. Pasie Raya, Kabupaten Aceh Jaya, Aceh 23653";"Tuwi Kareung I, Kec. Pasie Raya, Kabupaten Aceh Jaya";"ACEH";"23653";"Indonesia";"";"4.4991551";"95.8827606";"https://maps.google.com/?cid=0x0:0x1e04335658b2ea50"
"perumahan";"Pembangunan Perumahan";"Hamdani Family";"CRGQ+35Q, Paya Baro, Kec. Teunom, Kabupaten Aceh Jaya, Aceh 23653";"Paya Baro, Kec. Teunom, Kabupaten Aceh Jaya";"ACEH";"23653";"Indonesia";" 081264404817";"4.4252148";"95.8379976";"https://maps.google.com/?cid=0x0:0x8587666cf8606f38"
"perumahan";"Komplek perumahan";"Rumah Nurul/ Heri";"CRW6+H4H, Alue Ambang, Kec. Teunom, Kabupaten Aceh Jaya, Aceh 23653";"Alue Ambang, Kec. Teunom, Kabupaten Aceh Jaya";"ACEH";"23653";"Indonesia";"";"4.4458903";"95.8105833";"https://maps.google.com/?cid=0x0:0x7d671acea2db438f"
"perumahan";"Pembangunan Perumahan";"Rumah cut lem droe";"FV72+G28, Pasi Geulima, Kec. Teunom, Kabupaten Aceh Jaya, Aceh 23653";"Pasi Geulima, Kec. Teunom, Kabupaten Aceh Jaya";"ACEH";"23653";"Indonesia";"";"4.4636199";"95.8489933";"https://maps.google.com/?cid=0x0:0x244afd50cdd0e1d1"
"perumahan";"Komplek perumahan";"Rumah T. HASYIMI PUTEH";"FR28+656, Padang Kleng, Kec. Teunom, Kabupaten Aceh Jaya, Aceh 23653";"Padang Kleng, Kec. Teunom, Kabupaten Aceh Jaya";"ACEH";"23653";"Indonesia";"";"4.451556";"95.815552";"https://maps.google.com/?cid=0x0:0x973cf218c73c2c3d"
"perumahan";"Pembangunan Perumahan";"Rumah Kaur Umum dan Perencanaan";"GV2M+6H2, Tuwi Kareung I, Kec. Pasie Raya, Kabupaten Aceh Jaya, Aceh 23653";"Tuwi Kareung I, Kec. Pasie Raya, Kabupaten Aceh Jaya";"ACEH";"23653";"Indonesia";" 085361413961";"4.5005163";"95.8838964";"https://maps.google.com/?cid=0x0:0xc3b8777e08848d45"
"perumahan";"Komplek perumahan";"Rumah sofan";"HWHC+RWR, Alue Jang, Kec. Pasie Raya, Kabupaten Aceh Jaya, Aceh 23653";"Alue Jang, Kec. Pasie Raya, Kabupaten Aceh Jaya";"ACEH";"23653";"Indonesia";"";"4.5796195";"95.9224545";"https://maps.google.com/?cid=0x0:0x26bcf43a9e79b6c1"
"perumahan";"perumahan";"Kilang padi Ujong simpang";"9W2X+GXV, Ujong Simpang, Kec. Arongan Lambalek, Kabupaten Aceh Barat, Aceh";"Kabupaten Aceh Barat, Aceh";"ACEH";"";"Indonesia";"";"4.3513644";"95.9499285";"https://maps.google.com/?cid=0x0:0x12d2704a649be287"
"perumahan";"perumahan";"Aceh 23654";"Kec. Woyla, Aceh";"Aceh";"ACEH";"";"Indonesia";"";"4.4143635";"96.0255738";"https://maps.google.com/?cid=0x0:0xafd411fd2a1143af"
"perumahan";"Pertanian";"Gampong Ulee Pulo";"92FM+W53, Drien Sibak, Kec. Sungai MAS, Kabupaten Aceh Barat, Aceh 23654";"Drien Sibak, Kec. Sungai MAS, Kabupaten Aceh Barat";"ACEH";"23654";"Indonesia";"";"4.374768";"96.0329289";"https://maps.google.com/?cid=0x0:0xb58b903587b89b0"
"perumahan";"perumahan";"Kilang padi";"9X54+FP4, Ujong Simpang, Kec. Arongan Lambalek, Kabupaten Aceh Barat, Aceh";"Kabupaten Aceh Barat, Aceh";"ACEH";"";"Indonesia";"";"4.3586401";"95.956825";"https://maps.google.com/?cid=0x0:0x455ecae9fe6c9ec5"
"perumahan";"perumahan";"Rumah nenek ayyubi";"933R+Q7Q, Suak Tring, Kec. Woyla, Kabupaten Aceh Barat, Aceh 23654";"Suak Tring, Kec. Woyla, Kabupaten Aceh Barat";"ACEH";"23654";"Indonesia";"";"4.3537494";"96.0913232";"https://maps.google.com/?cid=0x0:0x6e834cd7a6fdbf9a"
"perumahan";"Komplek perumahan";"Rumah pipi";"845R+438, Suak Pangkat, Kec. Bubon, Kabupaten Aceh Barat, Aceh 23654";"Suak Pangkat, Kec. Bubon, Kabupaten Aceh Barat";"ACEH";"23654";"Indonesia";"";"4.307796";"96.1402025";"https://maps.google.com/?cid=0x0:0xaa933bf0759bcdb1"
"perumahan";"Perhimpunan Pengembang Perumahan";"Simpang Ie Sayang Woyla Barat";"92C8+27G, Ie Sayang, Kec. Woyla Bar., Kabupaten Aceh Barat, Aceh 23654";"Ie Sayang, Kec. Woyla Bar., Kabupaten Aceh Barat";"ACEH";"23654";"Indonesia";"";"4.3700533";"96.0157057";"https://maps.google.com/?cid=0x0:0x2795b2fa3cc0fdc7"
"perumahan";"Komplek perumahan";"Rumah Abdullah U";"82C5+7XQ, Napai, Kec. Woyla Bar., Kabupaten Aceh Barat, Aceh 23654";"Napai, Kec. Woyla Bar., Kabupaten Aceh Barat";"ACEH";"23654";"Indonesia";"";"4.32072";"96.0099768";"https://maps.google.com/?cid=0x0:0xc4ba6592884f4b24"
"perumahan";"Perhimpunan Pengembang Perumahan";"Ridwan";"C37F+GM, Seuneubok Dalam, Kec. Woyla Tim., Kabupaten Aceh Barat, Aceh";"Kabupaten Aceh Barat, Aceh";"ACEH";"";"Indonesia";"";"4.4138072";"96.0741372";"https://maps.google.com/?cid=0x0:0x9c37191816635086"
"perumahan";"Komplek perumahan";"Istana Bakeuti";"73WQ+FFJ, Layung, Kec. Bubon, Kabupaten Aceh Barat, Aceh";"Kabupaten Aceh Barat, Aceh";"ACEH";"";"Indonesia";"";"4.2958095";"96.0896344";"https://maps.google.com/?cid=0x0:0xfa8f9a9045fa7bde"
"perumahan";"Komplek perumahan";"Rumah Bee";"92PX+JJP, Jl. Gunoeng Bhee, Kuala Bhee, Kec. Woyla, Kabupaten Aceh Barat, Aceh 23654";"Jl. Gunoeng Bhee, Kuala Bhee, Kec. Woyla, Kabupaten Aceh Barat";"ACEH";"23654";"Indonesia";"";"4.3865922";"96.0490747";"https://maps.google.com/?cid=0x0:0x4773e18371cd657b"
"perumahan";"Perhimpunan Pengembang Perumahan";"Rm.kanda mansur Lb";"G24R+QCJ, Leubok Beutong, Kec. Sungai MAS, Kabupaten Aceh Barat, Aceh";"Kabupaten Aceh Barat, Aceh";"ACEH";"";"Indonesia";"";"4.5069586";"96.0410133";"https://maps.google.com/?cid=0x0:0xd43dacbae250cf34"
"perumahan";"Pembangunan Perumahan";"Perumahan AFD 6 PT.KTS";"94XF+6H, Paya Luah, Kec. Woyla, Kabupaten Aceh Barat, Aceh";"Kabupaten Aceh Barat, Aceh";"ACEH";"";"Indonesia";"";"4.3980019";"96.1239901";"https://maps.google.com/?cid=0x0:0x74538f55c25acaaa"
"perumahan";"Komplek perumahan";"Rumah sabrani";"Alue Bagok, Kec. Arongan Lambalek, Kabupaten Aceh Barat, Aceh 23654";"Kec. Arongan Lambalek, Kabupaten Aceh Barat";"ACEH";"23654";"Indonesia";"";"4.3290903";"95.9766484";"https://maps.google.com/?cid=0x0:0x1b7e8b336d6bff38"
"perumahan";"Komplek perumahan";"RUMAH KHALIS";"MH8F+HV, Lhok Buya, Kec. Setia Bakti, Kabupaten Aceh Jaya, Aceh 23655";"Lhok Buya, Kec. Setia Bakti, Kabupaten Aceh Jaya";"ACEH";"23655";"Indonesia";"";"4.6664837";"95.5746648";"https://maps.google.com/?cid=0x0:0xc8ab60e9719ff28b"
"perumahan";"perumahan";"Aceh 23655";"Kec. Setia Bakti, Kabupaten Aceh Jaya, Aceh";"Kabupaten Aceh Jaya, Aceh";"ACEH";"";"Indonesia";"";"4.7457854";"95.6878736";"https://maps.google.com/?cid=0x0:0x52d192e4749e2bd4"
"perumahan";"Perhimpunan Pengembang Perumahan";"Lhok Timon, Setia Bakti, Kabupaten Aceh Jaya, Aceh, Indonesia";"PG6W+89X, Lhok Timon, Kec. Setia Bakti, Kabupaten Aceh Jaya, Aceh 23656";"Lhok Timon, Kec. Setia Bakti, Kabupaten Aceh Jaya";"ACEH";"23656";"Indonesia";"";"4.7108717";"95.5459787";"https://maps.google.com/?cid=0x0:0xd4ca392602a0067"
"perumahan";"Inspektur Tempat Tinggal";"Rumah Alul";"MH9X+P95, Lhok Buya, Kec. Setia Bakti, Kabupaten Aceh Jaya, Aceh 23655";"Lhok Buya, Kec. Setia Bakti, Kabupaten Aceh Jaya";"ACEH";"23655";"Indonesia";"";"4.6692687";"95.5984925";"https://maps.google.com/?cid=0x0:0xc973f9049a5e5bc6"
"perumahan";"Pembangunan Perumahan";"Rmh Edi saputra";"MJG4+H5, Lhok Buya, Kec. Setia Bakti, Kabupaten Aceh Jaya, Aceh";"Kabupaten Aceh Jaya, Aceh";"ACEH";"";"Indonesia";"";"4.6764759";"95.6054967";"https://maps.google.com/?cid=0x0:0x92fa61c7fe4c8c86"
"perumahan";"Komplek perumahan";"Sakti uye";"MH5M+3J, Lhok Buya, Kec. Setia Bakti, Kabupaten Aceh Jaya, Aceh";"Kabupaten Aceh Jaya, Aceh";"ACEH";"";"Indonesia";"";"4.6576639";"95.5841543";"https://maps.google.com/?cid=0x0:0xf5cab0fe05bb58ae"
"perumahan";"Pembangunan Perumahan";"Komplek rumah nelayan";"MH4Q+5RF, Lhok Buya, Kec. Setia Bakti, Kabupaten Aceh Jaya, Aceh 23655";"Lhok Buya, Kec. Setia Bakti, Kabupaten Aceh Jaya";"ACEH";"23655";"Indonesia";"";"4.655513";"95.5896352";"https://maps.google.com/?cid=0x0:0x3253c330d00317dd"
"perumahan";"Komplek perumahan";"Dara sakti";"MH8H+R86, Lhok Buya, Kec. Setia Bakti, Kabupaten Aceh Jaya, Aceh 23655";"Lhok Buya, Kec. Setia Bakti, Kabupaten Aceh Jaya";"ACEH";"23655";"Indonesia";"";"4.6670595";"95.5785039";"https://maps.google.com/?cid=0x0:0xa7a4983557c5dabd"
"perumahan";"Perhimpunan Pengembang Perumahan";"Komplek Perumahan Pemda Keutapang";"JJM3+76C, Unnamed Road, Keutapang, Kec. Krueng Sabee, Kabupaten Aceh Jaya, Aceh 23655";"Unnamed Road, Keutapang, Kec. Krueng Sabee, Kabupaten Aceh Jaya";"ACEH";"23655";"Indonesia";"";"4.6331838";"95.60302";"https://maps.google.com/?cid=0x0:0x63f4795061f499a4"
"perumahan";"Perhimpunan Pengembang Perumahan";"wardah";"QJPW+W8V, Pante Kuyun, Kec. Setia Bakti, Kabupaten Aceh Jaya, Aceh";"Kabupaten Aceh Jaya, Aceh";"ACEH";"";"Indonesia";"";"4.7873684";"95.6457951";"https://maps.google.com/?cid=0x0:0x691bfe6cdf72775d"
"perumahan";"Komplek perumahan";"Komplek Pemda Padang Datar";"JJ6G+P75, Padang Datar, Kec. Krueng Sabee, Kabupaten Aceh Jaya, Aceh 23654";"Padang Datar, Kec. Krueng Sabee, Kabupaten Aceh Jaya";"ACEH";"23654";"Indonesia";" 081270359072";"4.6117568";"95.6257363";"https://maps.google.com/?cid=0x0:0x9b8af766f4d210f2"
"perumahan";"Perumahan";"Bila";"JJ7H+HVV, Padang Datar, Kec. Krueng Sabee, Kabupaten Aceh Jaya, Aceh 23654";"Padang Datar, Kec. Krueng Sabee, Kabupaten Aceh Jaya";"ACEH";"23654";"Indonesia";"";"4.6139841";"95.6296587";"https://maps.google.com/?cid=0x0:0xa712ebace10e93f"
"perumahan";"Pembangunan Perumahan";"Rumah wahyu rianda";"MH7M+27J, Lhok Buya, Kec. Setia Bakti, Kabupaten Aceh Jaya, Aceh";"Kabupaten Aceh Jaya, Aceh";"ACEH";"";"Indonesia";"";"4.6625533";"95.5831284";"https://maps.google.com/?cid=0x0:0x3c0dacd7d3f733b9"
"perumahan";"Komplek perumahan";"Dara uyee";"MH8H+R86, Lhok Buya, Kec. Setia Bakti, Kabupaten Aceh Jaya, Aceh 23655";"Lhok Buya, Kec. Setia Bakti, Kabupaten Aceh Jaya";"ACEH";"23655";"Indonesia";"";"4.6670594";"95.5782953";"https://maps.google.com/?cid=0x0:0xee2bc272f8b2182d"
"perumahan";"perumahan";"Aceh 23656";"Kabupaten Aceh Jaya, Aceh";"Kabupaten Aceh Jaya, Aceh";"ACEH";"";"Indonesia";"";"4.9116238";"95.6037465";"https://maps.google.com/?cid=0x0:0x1aed070c2c639dba"
"perumahan";"Komplek perumahan";"Rumah Azhadin";"RF66+8X4, Kuala Bakong, Kec. Sampoiniet, Kabupaten Aceh Jaya, Aceh 23656";"Kuala Bakong, Kec. Sampoiniet, Kabupaten Aceh Jaya";"ACEH";"23656";"Indonesia";" 081360502152";"4.8107544";"95.4624397";"https://maps.google.com/?cid=0x0:0x3d967e642b596a96"
"perumahan";"Komplek perumahan";"Rumah sendiri";"RFW2+7JP, Babah Nipah, Kec. Sampoiniet, Kabupaten Aceh Jaya, Aceh";"Kabupaten Aceh Jaya, Aceh";"ACEH";"";"Indonesia";"";"4.8457102";"95.4515725";"https://maps.google.com/?cid=0x0:0x1f1b12c4d5825d9f"
"perumahan";"perumahan";"JERRY";"RF93+762, Jeumpheuk, Kec. Sampoiniet, Kabupaten Aceh Jaya, Aceh 23656";"Jeumpheuk, Kec. Sampoiniet, Kabupaten Aceh Jaya";"ACEH";"23656";"Indonesia";"";"4.8182311";"95.4537041";"https://maps.google.com/?cid=0x0:0x4965fb2ed09ff81a"
"perumahan";"Kebun Buah";"Lampoh Pak. Budi";"VCV4+H9, Meunasah Kulam, Kec. Sampoiniet, Kabupaten Aceh Jaya, Aceh";"Kabupaten Aceh Jaya, Aceh";"ACEH";"";"Indonesia";"";"4.8939296";"95.405895";"https://maps.google.com/?cid=0x0:0x30c44c4b0b04c812"
"perumahan";"Pembangunan Perumahan";"Rumah wardani";"VFCQ+9G3, Seumantok, Kec. Sampoiniet, Kabupaten Aceh Jaya, Aceh 23656";"Seumantok, Kec. Sampoiniet, Kabupaten Aceh Jaya";"ACEH";"23656";"Indonesia";"";"4.8718832";"95.4885468";"https://maps.google.com/?cid=0x0:0xbc30bfc368ed1f0"
"perumahan";"Komplek perumahan";"Batasan Seumantok";"VFFM+VP3, Seumantok, Kec. Sampoiniet, Kabupaten Aceh Jaya, Aceh 23656";"Seumantok, Kec. Sampoiniet, Kabupaten Aceh Jaya";"ACEH";"23656";"Indonesia";"";"4.8746398";"95.4843028";"https://maps.google.com/?cid=0x0:0x50914de1bf125ee0"
"perumahan";"Perhimpunan Pengembang Perumahan";"Lhok Timon, Setia Bakti, Kabupaten Aceh Jaya, Aceh, Indonesia";"PG6W+89X, Lhok Timon, Kec. Setia Bakti, Kabupaten Aceh Jaya, Aceh 23656";"Lhok Timon, Kec. Setia Bakti, Kabupaten Aceh Jaya";"ACEH";"23656";"Indonesia";"";"4.7108717";"95.5459787";"https://maps.google.com/?cid=0x0:0xd4ca392602a0067"
"perumahan";"Komplek perumahan";"Fandrie";"RF36+PRM, Kuala Bakong, Kec. Sampoiniet, Kabupaten Aceh Jaya, Aceh 23656";"Kuala Bakong, Kec. Sampoiniet, Kabupaten Aceh Jaya";"ACEH";"23656";"Indonesia";"";"4.8043319";"95.4620545";"https://maps.google.com/?cid=0x0:0xc56cebb541f4f9b8"
"perumahan";"perumahan";"House Hawasaka";"RFPC+GGX, Mataie, Kec. Sampoiniet, Kabupaten Aceh Jaya, Aceh 23656";"Mataie, Kec. Sampoiniet, Kabupaten Aceh Jaya";"ACEH";"23656";"Indonesia";"";"4.8357008";"95.4710335";"https://maps.google.com/?cid=0x0:0x39156303f44bbd6b"
"perumahan";"Rumah Kayu";"Rumah Pak T";"WC32+2V6, Crak Mong, Kec. Sampoiniet, Kabupaten Aceh Jaya, Aceh 23657";"Crak Mong, Kec. Sampoiniet, Kabupaten Aceh Jaya";"ACEH";"23657";"Indonesia";"";"4.9025325";"95.4021337";"https://maps.google.com/?cid=0x0:0x1e2c1e4c1f911576"
"perumahan";"Pembangunan Perumahan";"Home DRACULA";"RF76+7MG, Kuala Bakong, Kec. Sampoiniet, Kabupaten Aceh Jaya, Aceh 23656";"Kuala Bakong, Kec. Sampoiniet, Kabupaten Aceh Jaya";"ACEH";"23656";"Indonesia";"";"4.8128615";"95.4621443";"https://maps.google.com/?cid=0x0:0xe16fd15f79e084e"
"perumahan";"Pembangunan Perumahan";"De mah";"RF85+7G9, Kuala Bakong, Kec. Sampoiniet, Kabupaten Aceh Jaya, Aceh 23656";"Kuala Bakong, Kec. Sampoiniet, Kabupaten Aceh Jaya";"ACEH";"23656";"Indonesia";"";"4.8161751";"95.4583336";"https://maps.google.com/?cid=0x0:0x3a2646e31096218"
"perumahan";"Perhimpunan Pengembang Perumahan";"Seumantok";"VFFR+X2, Seumantok, Kec. Sampoiniet, Kabupaten Aceh Jaya, Aceh";"Kabupaten Aceh Jaya, Aceh";"ACEH";"";"Indonesia";"";"4.8749808";"95.4900711";"https://maps.google.com/?cid=0x0:0xec465641d7832b25"
"perumahan";"perumahan";"Aceh 23657";"Kabupaten Aceh Jaya, Aceh";"Kabupaten Aceh Jaya, Aceh";"ACEH";"";"Indonesia";"";"5.0787006";"95.435853";"https://maps.google.com/?cid=0x0:0x3ad6a5bdfe2df870"
"perumahan";"perumahan";"Rumah cek pah";"387Q+6M6, Jangeut, Kec. Indra Jaya, Kabupaten Aceh Jaya, Aceh 23657";"Jangeut, Kec. Indra Jaya, Kabupaten Aceh Jaya";"ACEH";"23657";"Indonesia";"";"5.0630324";"95.3391335";"https://maps.google.com/?cid=0x0:0xfad5f10fac4ac1fa"
"perumahan";"perumahan";"Lamno";"3CVC+Q32, Alue Rayeuk, Jaya, Kabupaten Aceh Jaya, Aceh 23657";"Alue Rayeuk, Jaya, Kabupaten Aceh Jaya";"ACEH";"23657";"Indonesia";"";"5.0943915";"95.4201377";"https://maps.google.com/?cid=0x0:0x65ff63819773a1bf"
"perumahan";"Pembangunan Perumahan";"Desa Gampong Baro";"38WC+HW2, Gampong Baro, Jaya, Kabupaten Aceh Jaya, Aceh 23657";"Gampong Baro, Jaya, Kabupaten Aceh Jaya";"ACEH";"23657";"Indonesia";"";"5.096396";"95.3222652";"https://maps.google.com/?cid=0x0:0x7f93e977c2a77ae1"
"perumahan";"Komplek perumahan";"Lorong Dusun Pasi";"Bak Paoh, Jaya, Kabupaten Aceh Jaya, Aceh 23657";"Jaya, Kabupaten Aceh Jaya";"ACEH";"23657";"Indonesia";"";"5.089948";"95.3727637";"https://maps.google.com/?cid=0x0:0x70c6e6d6cba4fe1a"
"perumahan";"Komplek perumahan";"rumah putroe";"383V+J9C, Kuala, Kec. Indra Jaya, Kabupaten Aceh Jaya, Aceh 23657";"Kuala, Kec. Indra Jaya, Kabupaten Aceh Jaya";"ACEH";"23657";"Indonesia";"";"5.054071";"95.3433868";"https://maps.google.com/?cid=0x0:0xdde9aeba4f625dd3"
"perumahan";"Masjid";"Desa Gle Putoh";"4932+WJ6, Jl. Lintas Barat Sumatera, Gle Putoh, Jaya, Kabupaten Aceh Jaya, Aceh 23657";"Jl. Lintas Barat Sumatera, Gle Putoh, Jaya, Kabupaten Aceh Jaya";"ACEH";"23657";"Indonesia";"";"5.1047871";"95.3515233";"https://maps.google.com/?cid=0x0:0xf2692462a4c7b85a"
"perumahan";"Komplek perumahan";"Rumah Zaki";"39P7+G74, Meunasah Weh, Jaya, Kabupaten Aceh Jaya, Aceh 23657";"Meunasah Weh, Jaya, Kabupaten Aceh Jaya";"ACEH";"23657";"Indonesia";"";"5.0859442";"95.3625807";"https://maps.google.com/?cid=0x0:0xa1cbe70354075046"
"perumahan";"Komplek perumahan";"Gampong lamtui";"487P+87C, Lamtui, Jaya, Kabupaten Aceh Jaya, Aceh 23657";"Lamtui, Jaya, Kabupaten Aceh Jaya";"ACEH";"23657";"Indonesia";"";"5.1133447";"95.3356591";"https://maps.google.com/?cid=0x0:0x69ba2f3fbefd4264"
"perumahan";"Komplek perumahan";"Rumah tharieq";"39W6+JGW, Gle Putoh, Jaya, Kabupaten Aceh Jaya, Aceh 23657";"Gle Putoh, Jaya, Kabupaten Aceh Jaya";"ACEH";"23657";"Indonesia";"";"5.096945";"95.3627681";"https://maps.google.com/?cid=0x0:0x9e4f3b3ba17936f3"
"perumahan";"perumahan";"Rumah Walidi Nuha";"39G3+9M5, Meutara, Jaya, Kabupaten Aceh Jaya, Aceh 23657";"Meutara, Jaya, Kabupaten Aceh Jaya";"ACEH";"23657";"Indonesia";"";"5.0757959";"95.354292";"https://maps.google.com/?cid=0x0:0x574352183d6af96"
"perumahan";"Komplek perumahan";"Rumah Aniez";"WC23+G9M, Crak Mong, Kec. Sampoiniet, Kabupaten Aceh Jaya, Aceh 23657";"Crak Mong, Kec. Sampoiniet, Kabupaten Aceh Jaya";"ACEH";"23657";"Indonesia";"";"4.9013432";"95.4034287";"https://maps.google.com/?cid=0x0:0x13229edcc6275d81"
"perumahan";"Komplek perumahan";"Rumah maryam aceh";"39F4+G3H, Meutara, Jaya, Kabupaten Aceh Jaya, Aceh 23657";"Meutara, Jaya, Kabupaten Aceh Jaya";"ACEH";"23657";"Indonesia";"";"5.0736571";"95.3553454";"https://maps.google.com/?cid=0x0:0xe6563895a7c733ec"
"perumahan";"Komplek perumahan";"rumah fazhlul";"39P7+GH2, Meunasah Weh, Jaya, Kabupaten Aceh Jaya, Aceh 23657";"Meunasah Weh, Jaya, Kabupaten Aceh Jaya";"ACEH";"23657";"Indonesia";"";"5.086273";"95.3638842";"https://maps.google.com/?cid=0x0:0xacee54df7e06ff4d"
"perumahan";"perumahan";"Rumah cek pah";"387Q+6M6, Jangeut, Kec. Indra Jaya, Kabupaten Aceh Jaya, Aceh 23657";"Jangeut, Kec. Indra Jaya, Kabupaten Aceh Jaya";"ACEH";"23657";"Indonesia";"";"5.0630324";"95.3391335";"https://maps.google.com/?cid=0x0:0xfad5f10fac4ac1fa"
"perumahan";"perumahan";"Kec. Indra Jaya";"Kabupaten Aceh Jaya, Aceh";"Kabupaten Aceh Jaya, Aceh";"ACEH";"";"Indonesia";"";"5.0632418";"95.3386622";"https://maps.google.com/?cid=0x0:0x9bf6e49fb0e9adcc"
"perumahan";"Komplek perumahan";"rumah putroe";"383V+J9C, Kuala, Kec. Indra Jaya, Kabupaten Aceh Jaya, Aceh 23657";"Kuala, Kec. Indra Jaya, Kabupaten Aceh Jaya";"ACEH";"23657";"Indonesia";"";"5.054071";"95.3433868";"https://maps.google.com/?cid=0x0:0xdde9aeba4f625dd3"
"perumahan";"Toko Ponsel";"Yolanda Olshop Aceh";"Bak Paoh, Jaya, Kabupaten Aceh Jaya, Aceh 23657";"Jaya, Kabupaten Aceh Jaya";"ACEH";"23657";"Indonesia";"";"5.0897022";"95.3705905";"https://maps.google.com/?cid=0x0:0x1da6f669d1fad043"
"perumahan";"Perhimpunan Pengembang Perumahan";"Rumah olistia";"384W+724, Kuala, Kec. Indra Jaya, Kabupaten Aceh Jaya, Aceh 23657";"Kuala, Kec. Indra Jaya, Kabupaten Aceh Jaya";"ACEH";"23657";"Indonesia";"";"5.0550579";"95.3441396";"https://maps.google.com/?cid=0x0:0x5605ddb3b49464f6"
"perumahan";"Komplek perumahan";"Desa Teumareum";"387W+C79, Unnamed Road, Teumareum, Kec. Indra Jaya, Kabupaten Aceh Jaya, Aceh 23657";"Unnamed Road, Teumareum, Kec. Indra Jaya, Kabupaten Aceh Jaya";"ACEH";"23657";"Indonesia";"";"5.0635302";"95.3457223";"https://maps.google.com/?cid=0x0:0x24aa903bddeb793c"
"perumahan";"Inspektur Tempat Tinggal";"Rumah";"38GR+55G, Meunasah Teungoh, Kec. Indra Jaya, Kabupaten Aceh Jaya, Aceh 23657";"Meunasah Teungoh, Kec. Indra Jaya, Kabupaten Aceh Jaya";"ACEH";"23657";"Indonesia";"";"5.07481";"95.3398597";"https://maps.google.com/?cid=0x0:0x8fc2502ddbc9b52b"
"perumahan";"Komplek perumahan";"Rumah ozi";"389W+MV3, Alue Mie, Kec. Indra Jaya, Kabupaten Aceh Jaya, Aceh 23657";"Alue Mie, Kec. Indra Jaya, Kabupaten Aceh Jaya";"ACEH";"23657";"Indonesia";"";"5.0689736";"95.3472655";"https://maps.google.com/?cid=0x0:0x229de6534ae42296"
"perumahan";"Komplek perumahan";"Lorong Dusun Pasi";"Bak Paoh, Jaya, Kabupaten Aceh Jaya, Aceh 23657";"Jaya, Kabupaten Aceh Jaya";"ACEH";"23657";"Indonesia";"";"5.089948";"95.3727637";"https://maps.google.com/?cid=0x0:0x70c6e6d6cba4fe1a"
"perumahan";"Komplek perumahan";"Babah dua";"39F2+58C, Babah Dua, Kec. Indra Jaya, Kabupaten Aceh Jaya, Aceh 23657";"Babah Dua, Kec. Indra Jaya, Kabupaten Aceh Jaya";"ACEH";"23657";"Indonesia";"";"5.0729264";"95.3507797";"https://maps.google.com/?cid=0x0:0x89fa5d97fd267a70"
"perumahan";"Pembangunan Perumahan";"Rumah Baitul Mal";"39F2+58C, Babah Dua, Kec. Indra Jaya, Kabupaten Aceh Jaya, Aceh 23657";"Babah Dua, Kec. Indra Jaya, Kabupaten Aceh Jaya";"ACEH";"23657";"Indonesia";"";"5.0729264";"95.3507797";"https://maps.google.com/?cid=0x0:0xfbae2941a753c85a"
"perumahan";"perumahan";"Rumah Walidi Nuha";"39G3+9M5, Meutara, Jaya, Kabupaten Aceh Jaya, Aceh 23657";"Meutara, Jaya, Kabupaten Aceh Jaya";"ACEH";"23657";"Indonesia";"";"5.0757959";"95.354292";"https://maps.google.com/?cid=0x0:0x574352183d6af96"
"perumahan";"Komplek perumahan";"Tanah rinaldi";"389W+69H, Alue Mie, Kec. Indra Jaya, Kabupaten Aceh Jaya, Aceh 23657";"Alue Mie, Kec. Indra Jaya, Kabupaten Aceh Jaya";"ACEH";"23657";"Indonesia";"";"5.0680486";"95.3459575";"https://maps.google.com/?cid=0x0:0x24cb7e835eed1a9d"
"perumahan";"Komplek perumahan";"rumah fazhlul";"39P7+GH2, Meunasah Weh, Jaya, Kabupaten Aceh Jaya, Aceh 23657";"Meunasah Weh, Jaya, Kabupaten Aceh Jaya";"ACEH";"23657";"Indonesia";"";"5.086273";"95.3638842";"https://maps.google.com/?cid=0x0:0xacee54df7e06ff4d"
"perumahan";"Balai Pertemuan Desa";"Suwiek Teungoh, Kec. Indrajaya, kab. Pidie";"7WJF+HG8, Teungoh Suwiek, Kec. Indra Jaya, Kabupaten Pidie, Aceh 24182";"Teungoh Suwiek, Kec. Indra Jaya, Kabupaten Pidie";"ACEH";"24182";"Indonesia";"";"5.2814241";"95.9238403";"https://maps.google.com/?cid=0x0:0xa720ef27ef5469f3"
"perumahan";"Komplek perumahan";"Rumah TM";"8W3J+845, Baro Gapui, Kec. Indra Jaya, Kabupaten Pidie, Aceh 24182";"Baro Gapui, Kec. Indra Jaya, Kabupaten Pidie";"ACEH";"24182";"Indonesia";"";"5.3021974";"95.9308833";"https://maps.google.com/?cid=0x0:0x9ae20efc1aeabb9d"
"perumahan";"perumahan";"Kec. Indra Jaya";"Kabupaten Pidie, Aceh";"Kabupaten Pidie, Aceh";"ACEH";"";"Indonesia";"";"5.3162867";"95.9602464";"https://maps.google.com/?cid=0x0:0xcceede14e8e3d2e3"
"perumahan";"Komplek perumahan";"Rumah aceh";"8W2M+RFW, Neulop II, Kec. Indra Jaya, Kabupaten Pidie, Aceh 24182";"Neulop II, Kec. Indra Jaya, Kabupaten Pidie";"ACEH";"24182";"Indonesia";"";"5.3021148";"95.933706";"https://maps.google.com/?cid=0x0:0x41e78d78bf03b68"
"perumahan";"Komplek perumahan";"Rumah Razi";"8W7X+47R, Cot Seukee, Kec. Indra Jaya, Kabupaten Pidie, Aceh 24182";"Cot Seukee, Kec. Indra Jaya, Kabupaten Pidie";"ACEH";"24182";"Indonesia";"";"5.312872";"95.9481258";"https://maps.google.com/?cid=0x0:0xa1f7022740a55c1b"
"perumahan";"Komplek perumahan";"Rumah ardian";"8WHR+PVF, Baro Jruek, Kec. Indra Jaya, Kabupaten Pidie, Aceh";"Kabupaten Pidie, Aceh";"ACEH";"";"Indonesia";"";"5.3293868";"95.941839";"https://maps.google.com/?cid=0x0:0x7d2de759248d5c4e"
"perumahan";"Pembangunan Perumahan";"Tgk munawar hadi";"8W2M+XCX, Neulop II, Kec. Indra Jaya, Kabupaten Pidie, Aceh 24182";"Neulop II, Kec. Indra Jaya, Kabupaten Pidie";"ACEH";"24182";"Indonesia";"";"5.3026791";"95.934787";"https://maps.google.com/?cid=0x0:0x72cd1f5837dce7ec"
"perumahan";"Komplek perumahan";"Rumah Alfian dan Nora";"8W5W+MCV, Rumia, Kec. Indra Jaya, Kabupaten Pidie, Aceh";"Kabupaten Pidie, Aceh";"ACEH";"";"Indonesia";"";"5.309234";"95.9460314";"https://maps.google.com/?cid=0x0:0x181c811e8ae83d3a"
"perumahan";"perumahan";"Rumah MR";"8W2M+FRH, Neulop II, Kec. Indra Jaya, Kabupaten Pidie, Aceh 24182";"Neulop II, Kec. Indra Jaya, Kabupaten Pidie";"ACEH";"24182";"Indonesia";"";"5.3011755";"95.9346017";"https://maps.google.com/?cid=0x0:0x8235ca3b744e9eb4"
"perumahan";"perumahan";"Rumah mak tuan";"8WMG+V8M, Dayah Muara Garot, Kec. Indra Jaya, Kabupaten Pidie, Aceh";"Kabupaten Pidie, Aceh";"ACEH";"";"Indonesia";"";"5.3345137";"95.9252532";"https://maps.google.com/?cid=0x0:0xfd9be83bb364f6a"
"perumahan";"Pembangunan Perumahan";"Rumah Ku";"Medan. Lorong Hasan Basri, Jl. Medan Banda Aceh, Dayah Caleue, Kec. Indra Jaya, Kabupaten Pidie, Aceh";"Kabupaten Pidie, Aceh";"ACEH";"";"Indonesia";"";"5.3135979";"95.9619676";"https://maps.google.com/?cid=0x0:0x9d14523779952702"
"perumahan";"Perhimpunan Pengembang Perumahan";"Rumoh Aceh";"8W6M+2JR, Teungoh Blang, Kec. Indra Jaya, Kabupaten Pidie, Aceh 24182";"Teungoh Blang, Kec. Indra Jaya, Kabupaten Pidie";"ACEH";"24182";"Indonesia";"";"5.3101014";"95.9340063";"https://maps.google.com/?cid=0x0:0x67956b27495c5b74"
"perumahan";"Komplek perumahan";"Balai AL-DJAUHARIY Pengajian Al-Maul Husna";"8WMG+V8M, Dayah Muara Garot, Kec. Indra Jaya, Kabupaten Pidie, Aceh";"Kabupaten Pidie, Aceh";"ACEH";"";"Indonesia";"";"5.3344008";"95.9251893";"https://maps.google.com/?cid=0x0:0xd33874b1b6c0f869"
"perumahan";"Pembangunan Perumahan";"Jul";"Jl. Medan Banda Aceh No.2, Dayah Caleue, Kec. Indra Jaya, Kabupaten Pidie, Aceh 24151";"Dayah Caleue, Kec. Indra Jaya, Kabupaten Pidie";"ACEH";"24151";"Indonesia";"";"5.3198763";"95.9584307";"https://maps.google.com/?cid=0x0:0x63c0964ff093ab09"
"perumahan";"perumahan";"Aceh 23656";"Kabupaten Aceh Jaya, Aceh";"Kabupaten Aceh Jaya, Aceh";"ACEH";"";"Indonesia";"";"4.9116238";"95.6037465";"https://maps.google.com/?cid=0x0:0x1aed070c2c639dba"
"perumahan";"Pembangunan Perumahan";"Yah ih";"RHC2+538, Teupin Asan, Kec. Darul Hikmah, Kabupaten Aceh Jaya, Aceh 23656";"Teupin Asan, Kec. Darul Hikmah, Kabupaten Aceh Jaya";"ACEH";"23656";"Indonesia";"";"4.8203913";"95.5502491";"https://maps.google.com/?cid=0x0:0x6cd5491fcd22147d"
"perumahan";"Pembangunan Perumahan";"Rumah shd";"RF6R+7VX, Jl. Patek - Krueng Tho, Blang Dalam, Kec. Darul Hikmah, Kabupaten Aceh Jaya, Aceh 23656";"Jl. Patek - Krueng Tho, Blang Dalam, Kec. Darul Hikmah, Kabupaten Aceh Jaya";"ACEH";"23656";"Indonesia";"";"4.8107377";"95.4922357";"https://maps.google.com/?cid=0x0:0xed558c5be5d540c"
"perumahan";"Komplek perumahan";"DARUL HIKMA";"RGH7+VX8, Pajar, Kec. Darul Hikmah, Kabupaten Aceh Jaya, Aceh";"Kabupaten Aceh Jaya, Aceh";"ACEH";"";"Indonesia";"";"4.8296554";"95.5149407";"https://maps.google.com/?cid=0x0:0xd88e671ac42c4efe"
"perumahan";"perumahan";"JERRY";"RF93+762, Jeumpheuk, Kec. Sampoiniet, Kabupaten Aceh Jaya, Aceh 23656";"Jeumpheuk, Kec. Sampoiniet, Kabupaten Aceh Jaya";"ACEH";"23656";"Indonesia";"";"4.8182311";"95.4537041";"https://maps.google.com/?cid=0x0:0x4965fb2ed09ff81a"
"perumahan";"Pembangunan Perumahan";"Patek Fajar";"RF5M+FW3, Blang Dalam, Kec. Darul Hikmah, Kabupaten Aceh Jaya, Aceh 23656";"Blang Dalam, Kec. Darul Hikmah, Kabupaten Aceh Jaya";"ACEH";"23656";"Indonesia";"";"4.8086287";"95.4847956";"https://maps.google.com/?cid=0x0:0x3441bbb2c53d4b39"
"perumahan";"Pembangunan Perumahan";"RLH MUSTAFARUDDIN";"RGHC+C38, Desa kampong Baroe Lamtengoh jaya, Pajar, Kec. Darul Hikmah, Kabupaten Aceh Jaya, Aceh 23656";"Desa kampong Baroe Lamtengoh jaya, Pajar, Kec. Darul Hikmah, Kabupaten Aceh Jaya";"ACEH";"23656";"Indonesia";"";"4.8285286";"95.5201983";"https://maps.google.com/?cid=0x0:0xf44ce18282faaaae"
"perumahan";"Restoran";"Basecamp";"RG63+4F, Blang Dalam, Kec. Darul Hikmah, Kabupaten Aceh Jaya, Aceh";"Kabupaten Aceh Jaya, Aceh";"ACEH";"";"Indonesia";"";"4.8102663";"95.5036361";"https://maps.google.com/?cid=0x0:0xd4dac344ff9ffe58"
"perumahan";"Komplek perumahan";"Rumah Nidar";"RGH6+V3M, Jl. Patek - Krueng Tho, Pajar, Kec. Darul Hikmah, Kabupaten Aceh Jaya, Aceh 23656";"Jl. Patek - Krueng Tho, Pajar, Kec. Darul Hikmah, Kabupaten Aceh Jaya";"ACEH";"23656";"Indonesia";"";"4.829093";"95.5098427";"https://maps.google.com/?cid=0x0:0xe2a6d789e6ec8a8f"
"perumahan";"Komplek perumahan";"Rumah Azhadin";"RF66+8X4, Kuala Bakong, Kec. Sampoiniet, Kabupaten Aceh Jaya, Aceh 23656";"Kuala Bakong, Kec. Sampoiniet, Kabupaten Aceh Jaya";"ACEH";"23656";"Indonesia";" 081360502152";"4.8107544";"95.4624397";"https://maps.google.com/?cid=0x0:0x3d967e642b596a96"
"perumahan";"Komplek perumahan";"Rumah sendiri";"RFW2+7JP, Babah Nipah, Kec. Sampoiniet, Kabupaten Aceh Jaya, Aceh";"Kabupaten Aceh Jaya, Aceh";"ACEH";"";"Indonesia";"";"4.8457102";"95.4515725";"https://maps.google.com/?cid=0x0:0x1f1b12c4d5825d9f"
"perumahan";"Pembangunan Perumahan";"Rehan";"RG9V+4Q9, Pajar, Kec. Darul Hikmah, Kabupaten Aceh Jaya, Aceh 23656";"Pajar, Kec. Darul Hikmah, Kabupaten Aceh Jaya";"ACEH";"23656";"Indonesia";"";"4.8177993";"95.5444805";"https://maps.google.com/?cid=0x0:0x9db2125b1528300a"
"perumahan";"Komplek perumahan";"Rumah Reza Juanda  Astuti";"RF5P+C9C, Jl. Patek - Krueng Tho, Pajar, Kec. Darul Hikmah, Kabupaten Aceh Jaya, Aceh 23656";"Jl. Patek - Krueng Tho, Pajar, Kec. Darul Hikmah, Kabupaten Aceh Jaya";"ACEH";"23656";"Indonesia";"";"4.8085556";"95.4859294";"https://maps.google.com/?cid=0x0:0xda107090a4362b2c"
"perumahan";"perumahan";"Rumah ahmadi";"RGG5+W9G, Pajar, Kec. Darul Hikmah, Kabupaten Aceh Jaya, Aceh 23656";"Pajar, Kec. Darul Hikmah, Kabupaten Aceh Jaya";"ACEH";"23656";"Indonesia";"";"4.827153";"95.507432";"https://maps.google.com/?cid=0x0:0x918b0242a5f0a1d0"
"perumahan";"perumahan";"Aceh 23653";"Kec. Teunom, Kabupaten Aceh Jaya, Aceh";"Kabupaten Aceh Jaya, Aceh";"ACEH";"";"Indonesia";"";"4.5590872";"95.8775964";"https://maps.google.com/?cid=0x0:0xd1bbc87731e6c060"
"perumahan";"Pembangunan Perumahan";"Rumah Kaur Umum dan Perencanaan";"GV2M+6H2, Tuwi Kareung I, Kec. Pasie Raya, Kabupaten Aceh Jaya, Aceh 23653";"Tuwi Kareung I, Kec. Pasie Raya, Kabupaten Aceh Jaya";"ACEH";"23653";"Indonesia";" 085361413961";"4.5005163";"95.8838964";"https://maps.google.com/?cid=0x0:0xc3b8777e08848d45"
"perumahan";"Pembangunan Perumahan";"Rumah Sekretaris Gampong Tuwi Kareung";"FVXM+M46, Tuwi Kareung I, Kec. Pasie Raya, Kabupaten Aceh Jaya, Aceh 23653";"Tuwi Kareung I, Kec. Pasie Raya, Kabupaten Aceh Jaya";"ACEH";"23653";"Indonesia";"";"4.4991551";"95.8827606";"https://maps.google.com/?cid=0x0:0x1e04335658b2ea50"
"perumahan";"Pembangunan Perumahan";"Rumah";"HW89+FH, Tuwi Perya, Kec. Pasie Raya, Kabupaten Aceh Jaya, Aceh 23653";"Tuwi Perya, Kec. Pasie Raya, Kabupaten Aceh Jaya";"ACEH";"23653";"Indonesia";" 082294002212";"4.5661704";"95.9189476";"https://maps.google.com/?cid=0x0:0x44baf4d6fe5be862"
"perumahan";"Gedung Apartemen";"Tuwi Peuriya";"GV6V+X74, Tim Pleung, Kec. Pasie Raya, Kabupaten Aceh Jaya, Aceh 23653";"Tim Pleung, Kec. Pasie Raya, Kabupaten Aceh Jaya";"ACEH";"23653";"Indonesia";"";"4.5123968";"95.8932104";"https://maps.google.com/?cid=0x0:0xb479774edc372fd0"
"perumahan";"Pembangunan Perumahan";"Rumoh Fauzi";"GV3Q+8G4, Unnamed Road, Pasi Teubee, Kec. Pasie Raya, Kabupaten Aceh Jaya, Aceh 23653";"Unnamed Road, Pasi Teubee, Kec. Pasie Raya, Kabupaten Aceh Jaya";"ACEH";"23653";"Indonesia";"";"4.5032556";"95.8888288";"https://maps.google.com/?cid=0x0:0xf911efdc26c4a6cc"
"perumahan";"Perhimpunan Pengembang Perumahan";"Baraja ( rumah)";"HWMF+54G, Alue Punti, Kec. Pasie Raya, Kabupaten Aceh Jaya, Aceh 23653";"Alue Punti, Kec. Pasie Raya, Kabupaten Aceh Jaya";"ACEH";"23653";"Indonesia";"";"4.5829379";"95.9228234";"https://maps.google.com/?cid=0x0:0x496b15f9a04f0705"
"perumahan";"Gedung Apartemen";"Rumah Kasi Pelayanan dan Kesejahteraan Tuwi Kareung";"GV2Q+VQG, Tuwi Kareung I, Kec. Pasie Raya, Kabupaten Aceh Jaya, Aceh 23653";"Tuwi Kareung I, Kec. Pasie Raya, Kabupaten Aceh Jaya";"ACEH";"23653";"Indonesia";" 082135002241";"4.5021786";"95.889444";"https://maps.google.com/?cid=0x0:0xc30a80c99da52fff"
"perumahan";"Pembangunan Perumahan";"Alue Raya Panga";"HQ93+25, Gampong Harapan, Kec. Panga, Kabupaten Aceh Jaya, Aceh 23653";"Gampong Harapan, Kec. Panga, Kabupaten Aceh Jaya";"ACEH";"23653";"Indonesia";"";"4.56759";"95.7529862";"https://maps.google.com/?cid=0x0:0xd1faf7e45615feed"
"perumahan";"Perhimpunan Pengembang Perumahan";"Rumah Viya";"FVWH+65, Pasi Teubee, Kec. Pasie Raya, Kabupaten Aceh Jaya, Aceh 23653";"Pasi Teubee, Kec. Pasie Raya, Kabupaten Aceh Jaya";"ACEH";"23653";"Indonesia";"";"4.495633";"95.8779319";"https://maps.google.com/?cid=0x0:0xbd4adbdc8c2bddf2"
"perumahan";"Komplek perumahan";"Rumah sofan";"HWHC+RWR, Alue Jang, Kec. Pasie Raya, Kabupaten Aceh Jaya, Aceh 23653";"Alue Jang, Kec. Pasie Raya, Kabupaten Aceh Jaya";"ACEH";"23653";"Indonesia";"";"4.5796195";"95.9224545";"https://maps.google.com/?cid=0x0:0x26bcf43a9e79b6c1"
"perumahan";"Pembangunan Perumahan";"Rumah bang irfan";"HW73+JH5, Tuwi Perya, Kec. Pasie Raya, Kabupaten Aceh Jaya, Aceh";"Kabupaten Aceh Jaya, Aceh";"ACEH";"";"Indonesia";"";"4.5640047";"95.9039944";"https://maps.google.com/?cid=0x0:0xe410f0ef3329b89e"
"perumahan";"Komplek perumahan";"Rumah dayat";"GV4R+R7, Desa, Lhok Guci, Kec. Pasie Raya, Kabupaten Aceh Jaya, Aceh 23653";"Desa, Lhok Guci, Kec. Pasie Raya, Kabupaten Aceh Jaya";"ACEH";"23653";"Indonesia";"";"4.50736";"95.8908837";"https://maps.google.com/?cid=0x0:0xb93a0ec5985d2e66"
"perumahan";"Perhimpunan Pengembang Perumahan";"Amir's residence";"FVF7+F89, Pasi Teubee, Kec. Pasie Raya, Kabupaten Aceh Jaya, Aceh 23653";"Pasi Teubee, Kec. Pasie Raya, Kabupaten Aceh Jaya";"ACEH";"23653";"Indonesia";"";"4.473915";"95.8635416";"https://maps.google.com/?cid=0x0:0xca51f715867c0c32"
"housing complex";"Pembangunan Perumahan";"Hamdani Family";"CRGQ+35Q, Paya Baro, Kec. Teunom, Kabupaten Aceh Jaya, Aceh 23653";"Paya Baro, Kec. Teunom, Kabupaten Aceh Jaya";"ACEH";"23653";"Indonesia";" 081264404817";"4.4252148";"95.8379976";"https://maps.google.com/?cid=0x0:0x8587666cf8606f38"
"housing complex";"housing complex";"Aceh 23653";"Kec. Teunom, Kabupaten Aceh Jaya, Aceh";"Kabupaten Aceh Jaya, Aceh";"ACEH";"";"Indonesia";"";"4.5590872";"95.8775964";"https://maps.google.com/?cid=0x0:0xd1bbc87731e6c060"
"housing complex";"Masjid";"Mesjid";"FR5M+Q3H, Gampong Baro, Kec. Teunom, Kabupaten Aceh Jaya, Aceh 23653";"Gampong Baro, Kec. Teunom, Kabupaten Aceh Jaya";"ACEH";"23653";"Indonesia";"";"4.4594379";"95.8327464";"https://maps.google.com/?cid=0x0:0xe432e42385e361b3"
"housing complex";"Pembangunan Perumahan";"Rsh";"FR2P+2R9, Gampong Baro, Kec. Teunom, Kabupaten Aceh Jaya, Aceh 23653";"Gampong Baro, Kec. Teunom, Kabupaten Aceh Jaya";"ACEH";"23653";"Indonesia";"";"4.450542";"95.837056";"https://maps.google.com/?cid=0x0:0xdab8aab6c6bab303"
"housing complex";"Komplek perumahan";"Rumah T. HASYIMI PUTEH";"FR28+656, Padang Kleng, Kec. Teunom, Kabupaten Aceh Jaya, Aceh 23653";"Padang Kleng, Kec. Teunom, Kabupaten Aceh Jaya";"ACEH";"23653";"Indonesia";"";"4.451556";"95.815552";"https://maps.google.com/?cid=0x0:0x973cf218c73c2c3d"
"housing complex";"Pembangunan Perumahan";"Rumah cut lem droe";"FV72+G28, Pasi Geulima, Kec. Teunom, Kabupaten Aceh Jaya, Aceh 23653";"Pasi Geulima, Kec. Teunom, Kabupaten Aceh Jaya";"ACEH";"23653";"Indonesia";"";"4.4636199";"95.8489933";"https://maps.google.com/?cid=0x0:0x244afd50cdd0e1d1"
"housing complex";"Komplek perumahan";"Rumah Nurul/ Heri";"CRW6+H4H, Alue Ambang, Kec. Teunom, Kabupaten Aceh Jaya, Aceh 23653";"Alue Ambang, Kec. Teunom, Kabupaten Aceh Jaya";"ACEH";"23653";"Indonesia";"";"4.4458903";"95.8105833";"https://maps.google.com/?cid=0x0:0x7d671acea2db438f"
"housing complex";"Pembangunan Perumahan";"Momol";"CRV6+FR6, Panton, Kec. Teunom, Kabupaten Aceh Jaya, Aceh 23653";"Panton, Kec. Teunom, Kabupaten Aceh Jaya";"ACEH";"23653";"Indonesia";"";"4.443658";"95.8120129";"https://maps.google.com/?cid=0x0:0xf9807569947e8859"
"housing complex";"Komplek perumahan";"COT KUMBANG";"FRF8+XQF, Padang Kleng, Kec. Teunom, Kabupaten Aceh Jaya, Aceh 23653";"Padang Kleng, Kec. Teunom, Kabupaten Aceh Jaya";"ACEH";"23653";"Indonesia";"";"4.474938";"95.816925";"https://maps.google.com/?cid=0x0:0x5583f9ca461adc34"
"housing complex";"Komplek perumahan";"Rumah Nabillatuljannah";"FR65+XR2, Tanoh Manyang, Kec. Teunom, Kabupaten Aceh Jaya, Aceh 23653";"Tanoh Manyang, Kec. Teunom, Kabupaten Aceh Jaya";"ACEH";"23653";"Indonesia";"";"4.4617972";"95.8099752";"https://maps.google.com/?cid=0x0:0xbde256418e123000"
"housing complex";"Komplek perumahan";"Rumah sofan";"HWHC+RWR, Alue Jang, Kec. Pasie Raya, Kabupaten Aceh Jaya, Aceh 23653";"Alue Jang, Kec. Pasie Raya, Kabupaten Aceh Jaya";"ACEH";"23653";"Indonesia";"";"4.5796195";"95.9224545";"https://maps.google.com/?cid=0x0:0x26bcf43a9e79b6c1"
"housing complex";"Pembangunan Perumahan";"Rumoh bang Adhar";"CRHH+VCQ, Paya Baro, Kec. Teunom, Kabupaten Aceh Jaya, Aceh 23653";"Paya Baro, Kec. Teunom, Kabupaten Aceh Jaya";"ACEH";"23653";"Indonesia";"";"4.4297244";"95.8285997";"https://maps.google.com/?cid=0x0:0x7917913e751dfd15"
"housing complex";"Komplek perumahan";"BRGhouse";"Unnamed Road, Panton, Kec. Teunom, Kabupaten Aceh Jaya, Aceh 23653";"Panton, Kec. Teunom, Kabupaten Aceh Jaya";"ACEH";"23653";"Indonesia";"";"4.4485974";"95.8092433";"https://maps.google.com/?cid=0x0:0xde116d702c81b5f"
"housing complex";"Perhimpunan Pengembang Perumahan";"fajri.bengke.spd";"CRPJ+4MW, Teupin Ara, Kec. Teunom, Kabupaten Aceh Jaya, Aceh 23653";"Teupin Ara, Kec. Teunom, Kabupaten Aceh Jaya";"ACEH";"23653";"Indonesia";" 085262499491";"4.4352434";"95.8318439";"https://maps.google.com/?cid=0x0:0x4e04589166eded7a"
"housing complex";"housing complex";"Kilang padi";"9X54+FP4, Ujong Simpang, Kec. Arongan Lambalek, Kabupaten Aceh Barat, Aceh";"Kabupaten Aceh Barat, Aceh";"ACEH";"";"Indonesia";"";"4.3586401";"95.956825";"https://maps.google.com/?cid=0x0:0x455ecae9fe6c9ec5"
"housing complex";"housing complex";"Aceh 23654";"Kec. Woyla, Aceh";"Aceh";"ACEH";"";"Indonesia";"";"4.4143635";"96.0255738";"https://maps.google.com/?cid=0x0:0xafd411fd2a1143af"
"housing complex";"Pembangunan Perumahan";"Padang datar";"JJ7H+FR6, Padang Datar, Kec. Krueng Sabee, Kabupaten Aceh Jaya, Aceh 23654";"Padang Datar, Kec. Krueng Sabee, Kabupaten Aceh Jaya";"ACEH";"23654";"Indonesia";"";"4.613709";"95.6295623";"https://maps.google.com/?cid=0x0:0xe1b237de9f186361"
"housing complex";"Komplek perumahan";"Rumah pipi";"845R+438, Suak Pangkat, Kec. Bubon, Kabupaten Aceh Barat, Aceh 23654";"Suak Pangkat, Kec. Bubon, Kabupaten Aceh Barat";"ACEH";"23654";"Indonesia";"";"4.307796";"96.1402025";"https://maps.google.com/?cid=0x0:0xaa933bf0759bcdb1"
"housing complex";"Komplek perumahan";"حسب الله و نعم الوكيل";"845Q+7C9, Seuneubok Trap, Kec. Bubon, Kabupaten Aceh Barat, Aceh";"Kabupaten Aceh Barat, Aceh";"ACEH";"";"Indonesia";"";"4.308165";"96.1385991";"https://maps.google.com/?cid=0x0:0x473a7ee6126f496c"
"housing complex";"Rumah Kayu";"RUMAH TGK IBRAHIM (ABI)";"JMQ3+M22, Ranto Panyang, Kec. Krueng Sabee, Kabupaten Aceh Jaya, Aceh 23655";"Ranto Panyang, Kec. Krueng Sabee, Kabupaten Aceh Jaya";"ACEH";"23655";"Indonesia";"";"4.6391285";"95.6525252";"https://maps.google.com/?cid=0x0:0xbb21adae7e39d4a0"
"housing complex";"Komplek perumahan";"Akram Camp";"JHPV+3F5, Dayah Baro, Kec. Krueng Sabee, Kabupaten Aceh Jaya, Aceh 23655";"Dayah Baro, Kec. Krueng Sabee, Kabupaten Aceh Jaya";"ACEH";"23655";"Indonesia";"";"4.6345352";"95.592956";"https://maps.google.com/?cid=0x0:0x7dc79c8d4798fbab"
"housing complex";"Komplek perumahan";"Kadiaman ABANG,DA";"93XC+6FW, Alue Sikaya, Kec. Woyla, Kabupaten Aceh Barat, Aceh 23654";"Alue Sikaya, Kec. Woyla, Kabupaten Aceh Barat";"ACEH";"23654";"Indonesia";"";"4.3980754";"96.0716864";"https://maps.google.com/?cid=0x0:0x6e1622a1528f715"
"housing complex";"Komplek perumahan";"Kompon Wy";"HP2F+7Q8, Tuwi Kareung Panga, Kec. Panga, Kabupaten Aceh Jaya, Aceh 23653";"Tuwi Kareung Panga, Kec. Panga, Kabupaten Aceh Jaya";"ACEH";"23653";"Indonesia";"";"4.5506741";"95.7244526";"https://maps.google.com/?cid=0x0:0x550837e19444e41d"
"housing complex";"housing complex";"Rumah nenek ayyubi";"933R+Q7Q, Suak Tring, Kec. Woyla, Kabupaten Aceh Barat, Aceh 23654";"Suak Tring, Kec. Woyla, Kabupaten Aceh Barat";"ACEH";"23654";"Indonesia";"";"4.3537494";"96.0913232";"https://maps.google.com/?cid=0x0:0x6e834cd7a6fdbf9a"
"housing complex";"Perhimpunan Pengembang Perumahan";"Rumah Emma";"GVCR+58V, Krueng Beukah, Kec. Pasie Raya, Kabupaten Aceh Jaya, Aceh";"Kabupaten Aceh Jaya, Aceh";"ACEH";"";"Indonesia";"";"4.5204945";"95.890794";"https://maps.google.com/?cid=0x0:0x965068eabf67c980"
"housing complex";"Komplek perumahan";"Rumah Bee";"92PX+JJP, Jl. Gunoeng Bhee, Kuala Bhee, Kec. Woyla, Kabupaten Aceh Barat, Aceh 23654";"Jl. Gunoeng Bhee, Kuala Bhee, Kec. Woyla, Kabupaten Aceh Barat";"ACEH";"23654";"Indonesia";"";"4.3865922";"96.0490747";"https://maps.google.com/?cid=0x0:0x4773e18371cd657b"
"housing complex";"";"Perumahan OF7 KTS";"C32X+HMV, Paya Luah, Kec. Woyla, Kabupaten Aceh Barat, Aceh 23654";"Paya Luah, Kec. Woyla, Kabupaten Aceh Barat";"ACEH";"23654";"Indonesia";"";"4.4014786";"96.099186";"https://maps.google.com/?cid=0x0:0x2c80d386c4fe8beb"
"housing complex";"Komplek perumahan";"Rumah Abdullah U";"82C5+7XQ, Napai, Kec. Woyla Bar., Kabupaten Aceh Barat, Aceh 23654";"Napai, Kec. Woyla Bar., Kabupaten Aceh Barat";"ACEH";"23654";"Indonesia";"";"4.32072";"96.0099768";"https://maps.google.com/?cid=0x0:0xc4ba6592884f4b24"
"housing complex";"housing complex";"Aceh 23655";"Kec. Setia Bakti, Kabupaten Aceh Jaya, Aceh";"Kabupaten Aceh Jaya, Aceh";"ACEH";"";"Indonesia";"";"4.7457854";"95.6878736";"https://maps.google.com/?cid=0x0:0x52d192e4749e2bd4"
"housing complex";"Komplek perumahan";"BOSS ELGA";"MH7M+88G, Lhok Buya, Kec. Setia Bakti, Kabupaten Aceh Jaya, Aceh 23655";"Lhok Buya, Kec. Setia Bakti, Kabupaten Aceh Jaya";"ACEH";"23655";"Indonesia";"";"4.6627949";"95.5846046";"https://maps.google.com/?cid=0x0:0x1e4aab0b40131397"
"housing complex";"Inspektur Tempat Tinggal";"Rumah Alul";"MH9X+P95, Lhok Buya, Kec. Setia Bakti, Kabupaten Aceh Jaya, Aceh 23655";"Lhok Buya, Kec. Setia Bakti, Kabupaten Aceh Jaya";"ACEH";"23655";"Indonesia";"";"4.6692687";"95.5984925";"https://maps.google.com/?cid=0x0:0xc973f9049a5e5bc6"
"housing complex";"Pembangunan Perumahan";"Komplek rumah nelayan";"MH4Q+5RF, Lhok Buya, Kec. Setia Bakti, Kabupaten Aceh Jaya, Aceh 23655";"Lhok Buya, Kec. Setia Bakti, Kabupaten Aceh Jaya";"ACEH";"23655";"Indonesia";"";"4.655513";"95.5896352";"https://maps.google.com/?cid=0x0:0x3253c330d00317dd"
"housing complex";"Pembangunan Perumahan";"Rmh Edi saputra";"MJG4+H5, Lhok Buya, Kec. Setia Bakti, Kabupaten Aceh Jaya, Aceh";"Kabupaten Aceh Jaya, Aceh";"ACEH";"";"Indonesia";"";"4.6764759";"95.6054967";"https://maps.google.com/?cid=0x0:0x92fa61c7fe4c8c86"
"housing complex";"Gedung Apartemen";"Khaira Azman";"QH9M+QJM, Sapek, Kec. Setia Bakti, Kabupaten Aceh Jaya, Aceh 23656";"Sapek, Kec. Setia Bakti, Kabupaten Aceh Jaya";"ACEH";"23656";"Indonesia";"";"4.7694613";"95.5840621";"https://maps.google.com/?cid=0x0:0xa1b43be4ad3a13c2"
"housing complex";"Komplek perumahan";"Dara sakti";"MH8H+R86, Lhok Buya, Kec. Setia Bakti, Kabupaten Aceh Jaya, Aceh 23655";"Lhok Buya, Kec. Setia Bakti, Kabupaten Aceh Jaya";"ACEH";"23655";"Indonesia";"";"4.6670595";"95.5785039";"https://maps.google.com/?cid=0x0:0xa7a4983557c5dabd"
"housing complex";"Komplek perumahan";"Dara uyee";"MH8H+R86, Lhok Buya, Kec. Setia Bakti, Kabupaten Aceh Jaya, Aceh 23655";"Lhok Buya, Kec. Setia Bakti, Kabupaten Aceh Jaya";"ACEH";"23655";"Indonesia";"";"4.6670594";"95.5782953";"https://maps.google.com/?cid=0x0:0xee2bc272f8b2182d"
"housing complex";"Pembangunan Perumahan";"Rumah wahyu rianda";"MH7M+27J, Lhok Buya, Kec. Setia Bakti, Kabupaten Aceh Jaya, Aceh";"Kabupaten Aceh Jaya, Aceh";"ACEH";"";"Indonesia";"";"4.6625533";"95.5831284";"https://maps.google.com/?cid=0x0:0x3c0dacd7d3f733b9"
"housing complex";"Perhimpunan Pengembang Perumahan";"Azzam";"JHMW+8GG, Unnamed Road, Dayah Baro, Kec. Krueng Sabee, Kabupaten Aceh Jaya, Aceh 23655";"Unnamed Road, Dayah Baro, Kec. Krueng Sabee, Kabupaten Aceh Jaya";"ACEH";"23655";"Indonesia";"";"4.6333101";"95.5963279";"https://maps.google.com/?cid=0x0:0xac7478f07bbd9f5a"
"housing complex";"Kompleks Kondominium";"RUMAH MIZI";"JHVQ+C6P, Panton Makmur, Kec. Krueng Sabee, Kabupaten Aceh Jaya, Aceh 23655";"Panton Makmur, Kec. Krueng Sabee, Kabupaten Aceh Jaya";"ACEH";"23655";"Indonesia";"";"4.6435798";"95.5880923";"https://maps.google.com/?cid=0x0:0x4220348d0182167e"
"housing complex";"Komplek perumahan";"rumah pak amin (bola)";"JHMV+G74, Jl. Ali Gunong, Dayah Baro, Kec. Krueng Sabee, Kabupaten Aceh Jaya, Aceh 23655";"Jl. Ali Gunong, Dayah Baro, Kec. Krueng Sabee, Kabupaten Aceh Jaya";"ACEH";"23655";"Indonesia";"";"4.6341673";"95.5933696";"https://maps.google.com/?cid=0x0:0xb24bf3a4c55f8368"
"housing complex";"Pembangunan Perumahan";"Rumah cut wan";"MH84+8WH, Gampong Baro, Kec. Setia Bakti, Kabupaten Aceh Jaya, Aceh";"Kabupaten Aceh Jaya, Aceh";"ACEH";"";"Indonesia";"";"4.6658002";"95.5574513";"https://maps.google.com/?cid=0x0:0xe91adb90d9bcdeeb"
"housing complex";"housing complex";"Rumah Erna";"PG6C+39W, Lhok Geulumpang, Kec. Setia Bakti, Kabupaten Aceh Jaya, Aceh 23656";"Lhok Geulumpang, Kec. Setia Bakti, Kabupaten Aceh Jaya";"ACEH";"23656";"Indonesia";"";"4.7099956";"95.5203134";"https://maps.google.com/?cid=0x0:0x27347b79907c9761"
"housing complex";"housing complex";"Aceh 23656";"Kabupaten Aceh Jaya, Aceh";"Kabupaten Aceh Jaya, Aceh";"ACEH";"";"Indonesia";"";"4.9116238";"95.6037465";"https://maps.google.com/?cid=0x0:0x1aed070c2c639dba"
"housing complex";"Komplek perumahan";"Rumah sendiri";"RFW2+7JP, Babah Nipah, Kec. Sampoiniet, Kabupaten Aceh Jaya, Aceh";"Kabupaten Aceh Jaya, Aceh";"ACEH";"";"Indonesia";"";"4.8457102";"95.4515725";"https://maps.google.com/?cid=0x0:0x1f1b12c4d5825d9f"
"housing complex";"housing complex";"House Hawasaka";"RFPC+GGX, Mataie, Kec. Sampoiniet, Kabupaten Aceh Jaya, Aceh 23656";"Mataie, Kec. Sampoiniet, Kabupaten Aceh Jaya";"ACEH";"23656";"Indonesia";"";"4.8357008";"95.4710335";"https://maps.google.com/?cid=0x0:0x39156303f44bbd6b"
"housing complex";"housing complex";"JERRY";"RF93+762, Jeumpheuk, Kec. Sampoiniet, Kabupaten Aceh Jaya, Aceh 23656";"Jeumpheuk, Kec. Sampoiniet, Kabupaten Aceh Jaya";"ACEH";"23656";"Indonesia";"";"4.8182311";"95.4537041";"https://maps.google.com/?cid=0x0:0x4965fb2ed09ff81a"
"housing complex";"Pembangunan Perumahan";"Rumah wardani";"VFCQ+9G3, Seumantok, Kec. Sampoiniet, Kabupaten Aceh Jaya, Aceh 23656";"Seumantok, Kec. Sampoiniet, Kabupaten Aceh Jaya";"ACEH";"23656";"Indonesia";"";"4.8718832";"95.4885468";"https://maps.google.com/?cid=0x0:0xbc30bfc368ed1f0"
"housing complex";"Restoran";"Basecamp";"RG63+4F, Blang Dalam, Kec. Darul Hikmah, Kabupaten Aceh Jaya, Aceh";"Kabupaten Aceh Jaya, Aceh";"ACEH";"";"Indonesia";"";"4.8102663";"95.5036361";"https://maps.google.com/?cid=0x0:0xd4dac344ff9ffe58"
"housing complex";"Kebun Buah";"Lampoh Pak. Budi";"VCV4+H9, Meunasah Kulam, Kec. Sampoiniet, Kabupaten Aceh Jaya, Aceh";"Kabupaten Aceh Jaya, Aceh";"ACEH";"";"Indonesia";"";"4.8939296";"95.405895";"https://maps.google.com/?cid=0x0:0x30c44c4b0b04c812"
"housing complex";"Gedung Apartemen";"Khaira Azman";"QH9M+QJM, Sapek, Kec. Setia Bakti, Kabupaten Aceh Jaya, Aceh 23656";"Sapek, Kec. Setia Bakti, Kabupaten Aceh Jaya";"ACEH";"23656";"Indonesia";"";"4.7694613";"95.5840621";"https://maps.google.com/?cid=0x0:0xa1b43be4ad3a13c2"
"housing complex";"Dapur Umum";"Khusai kuba";"RF85+7G9, Kuala Bakong, Kec. Sampoiniet, Kabupaten Aceh Jaya, Aceh 23656";"Kuala Bakong, Kec. Sampoiniet, Kabupaten Aceh Jaya";"ACEH";"23656";"Indonesia";"";"4.8157738";"95.4580747";"https://maps.google.com/?cid=0x0:0x20c04df87be7ee7"
"housing complex";"Pembangunan Perumahan";"Yah ih";"RHC2+538, Teupin Asan, Kec. Darul Hikmah, Kabupaten Aceh Jaya, Aceh 23656";"Teupin Asan, Kec. Darul Hikmah, Kabupaten Aceh Jaya";"ACEH";"23656";"Indonesia";"";"4.8203913";"95.5502491";"https://maps.google.com/?cid=0x0:0x6cd5491fcd22147d"
"housing complex";"Perhimpunan Pengembang Perumahan";"Seumantok";"VFFR+X2, Seumantok, Kec. Sampoiniet, Kabupaten Aceh Jaya, Aceh";"Kabupaten Aceh Jaya, Aceh";"ACEH";"";"Indonesia";"";"4.8749808";"95.4900711";"https://maps.google.com/?cid=0x0:0xec465641d7832b25"
"housing complex";"Komplek perumahan";"Rumah Pak Adun";"VCVC+76W, Meunasah Kulam, Kec. Sampoiniet, Kabupaten Aceh Jaya, Aceh 23657";"Meunasah Kulam, Kec. Sampoiniet, Kabupaten Aceh Jaya";"ACEH";"23657";"Indonesia";"";"4.8941798";"95.4196668";"https://maps.google.com/?cid=0x0:0xdf7da0ebf52ff211"
"housing complex";"Komplek perumahan";"Fandrie";"RF36+PRM, Kuala Bakong, Kec. Sampoiniet, Kabupaten Aceh Jaya, Aceh 23656";"Kuala Bakong, Kec. Sampoiniet, Kabupaten Aceh Jaya";"ACEH";"23656";"Indonesia";"";"4.8043319";"95.4620545";"https://maps.google.com/?cid=0x0:0xc56cebb541f4f9b8"
"housing complex";"Rumah Kayu";"Rumah Pak T";"WC32+2V6, Crak Mong, Kec. Sampoiniet, Kabupaten Aceh Jaya, Aceh 23657";"Crak Mong, Kec. Sampoiniet, Kabupaten Aceh Jaya";"ACEH";"23657";"Indonesia";"";"4.9025325";"95.4021337";"https://maps.google.com/?cid=0x0:0x1e2c1e4c1f911576"
"housing complex";"housing complex";"Aceh 23657";"Kabupaten Aceh Jaya, Aceh";"Kabupaten Aceh Jaya, Aceh";"ACEH";"";"Indonesia";"";"5.0787006";"95.435853";"https://maps.google.com/?cid=0x0:0x3ad6a5bdfe2df870"
"housing complex";"housing complex";"Rumah cek pah";"387Q+6M6, Jangeut, Kec. Indra Jaya, Kabupaten Aceh Jaya, Aceh 23657";"Jangeut, Kec. Indra Jaya, Kabupaten Aceh Jaya";"ACEH";"23657";"Indonesia";"";"5.0630324";"95.3391335";"https://maps.google.com/?cid=0x0:0xfad5f10fac4ac1fa"
"housing complex";"housing complex";"Rumah Walidi Nuha";"39G3+9M5, Meutara, Jaya, Kabupaten Aceh Jaya, Aceh 23657";"Meutara, Jaya, Kabupaten Aceh Jaya";"ACEH";"23657";"Indonesia";"";"5.0757959";"95.354292";"https://maps.google.com/?cid=0x0:0x574352183d6af96"
"housing complex";"Komplek perumahan";"Mikha house";"39M7+XMW, Meunasah Weh, Jaya, Kabupaten Aceh Jaya, Aceh 23657";"Meunasah Weh, Jaya, Kabupaten Aceh Jaya";"ACEH";"23657";"Indonesia";"";"5.0849847";"95.3641887";"https://maps.google.com/?cid=0x0:0x6f586a92ea634b59"
"housing complex";"Komplek perumahan";"Rumah sendiri";"RFW2+7JP, Babah Nipah, Kec. Sampoiniet, Kabupaten Aceh Jaya, Aceh";"Kabupaten Aceh Jaya, Aceh";"ACEH";"";"Indonesia";"";"4.8457102";"95.4515725";"https://maps.google.com/?cid=0x0:0x1f1b12c4d5825d9f"
"housing complex";"Kompleks Apartemen";"Rumah coyy";"483C+784, Panton Makmur, Jaya, Kabupaten Aceh Jaya, Aceh 23657";"Panton Makmur, Jaya, Kabupaten Aceh Jaya";"ACEH";"23657";"Indonesia";"";"5.1036219";"95.3204623";"https://maps.google.com/?cid=0x0:0xc743f6a51aca1888"
"housing complex";"Komplek perumahan";"rumah putroe";"383V+J9C, Kuala, Kec. Indra Jaya, Kabupaten Aceh Jaya, Aceh 23657";"Kuala, Kec. Indra Jaya, Kabupaten Aceh Jaya";"ACEH";"23657";"Indonesia";"";"5.054071";"95.3433868";"https://maps.google.com/?cid=0x0:0xdde9aeba4f625dd3"
"housing complex";"Makanan Kecil";"Dusun imum wahab";"496M+W85, Sango, Jaya, Kabupaten Aceh Jaya, Aceh 23657";"Sango, Jaya, Kabupaten Aceh Jaya";"ACEH";"23657";"Indonesia";"";"5.1122722";"95.3833721";"https://maps.google.com/?cid=0x0:0x3a2411bc7e5136ad"
"housing complex";"Komplek perumahan";"rumah fazhlul";"39P7+GH2, Meunasah Weh, Jaya, Kabupaten Aceh Jaya, Aceh 23657";"Meunasah Weh, Jaya, Kabupaten Aceh Jaya";"ACEH";"23657";"Indonesia";"";"5.086273";"95.3638842";"https://maps.google.com/?cid=0x0:0xacee54df7e06ff4d"
"housing complex";"Komplek perumahan";"Rumah Zaki";"39P7+G74, Meunasah Weh, Jaya, Kabupaten Aceh Jaya, Aceh 23657";"Meunasah Weh, Jaya, Kabupaten Aceh Jaya";"ACEH";"23657";"Indonesia";"";"5.0859442";"95.3625807";"https://maps.google.com/?cid=0x0:0xa1cbe70354075046"
"housing complex";"Masjid";"Desa Gle Putoh";"4932+WJ6, Jl. Lintas Barat Sumatera, Gle Putoh, Jaya, Kabupaten Aceh Jaya, Aceh 23657";"Jl. Lintas Barat Sumatera, Gle Putoh, Jaya, Kabupaten Aceh Jaya";"ACEH";"23657";"Indonesia";"";"5.1047871";"95.3515233";"https://maps.google.com/?cid=0x0:0xf2692462a4c7b85a"
"housing complex";"Pembangunan Perumahan";"Desa Gampong Baro";"38WC+HW2, Gampong Baro, Jaya, Kabupaten Aceh Jaya, Aceh 23657";"Gampong Baro, Jaya, Kabupaten Aceh Jaya";"ACEH";"23657";"Indonesia";"";"5.096396";"95.3222652";"https://maps.google.com/?cid=0x0:0x7f93e977c2a77ae1"
"housing complex";"Komplek perumahan";"Rumahku";"489P+V2W, Jambo Masi, dusun mesjid, Kabupaten Aceh Jaya, Aceh 23657";"Jambo Masi, dusun mesjid, Kabupaten Aceh Jaya";"ACEH";"23657";"Indonesia";"";"5.1197474";"95.3350876";"https://maps.google.com/?cid=0x0:0x6edc22f7220902a9"
"housing complex";"Komplek perumahan";"rumah ku";"39P7+HR6, Meunasah Weh, Jaya, Kabupaten Aceh Jaya, Aceh 23657";"Meunasah Weh, Jaya, Kabupaten Aceh Jaya";"ACEH";"23657";"Indonesia";"";"5.0864126";"95.3645138";"https://maps.google.com/?cid=0x0:0x898556b934987921"
"housing complex";"housing complex";"Rumah cek pah";"387Q+6M6, Jangeut, Kec. Indra Jaya, Kabupaten Aceh Jaya, Aceh 23657";"Jangeut, Kec. Indra Jaya, Kabupaten Aceh Jaya";"ACEH";"23657";"Indonesia";"";"5.0630324";"95.3391335";"https://maps.google.com/?cid=0x0:0xfad5f10fac4ac1fa"
"housing complex";"housing complex";"Kec. Indra Jaya";"Kabupaten Aceh Jaya, Aceh";"Kabupaten Aceh Jaya, Aceh";"ACEH";"";"Indonesia";"";"5.0632418";"95.3386622";"https://maps.google.com/?cid=0x0:0x9bf6e49fb0e9adcc"
"housing complex";"Komplek perumahan";"rumah putroe";"383V+J9C, Kuala, Kec. Indra Jaya, Kabupaten Aceh Jaya, Aceh 23657";"Kuala, Kec. Indra Jaya, Kabupaten Aceh Jaya";"ACEH";"23657";"Indonesia";"";"5.054071";"95.3433868";"https://maps.google.com/?cid=0x0:0xdde9aeba4f625dd3"
"housing complex";"Toko Ponsel";"Yolanda Olshop Aceh";"Bak Paoh, Jaya, Kabupaten Aceh Jaya, Aceh 23657";"Jaya, Kabupaten Aceh Jaya";"ACEH";"23657";"Indonesia";"";"5.0897022";"95.3705905";"https://maps.google.com/?cid=0x0:0x1da6f669d1fad043"
"housing complex";"Inspektur Tempat Tinggal";"Rumah";"38GR+55G, Meunasah Teungoh, Kec. Indra Jaya, Kabupaten Aceh Jaya, Aceh 23657";"Meunasah Teungoh, Kec. Indra Jaya, Kabupaten Aceh Jaya";"ACEH";"23657";"Indonesia";"";"5.07481";"95.3398597";"https://maps.google.com/?cid=0x0:0x8fc2502ddbc9b52b"
"housing complex";"housing complex";"Rumah Walidi Nuha";"39G3+9M5, Meutara, Jaya, Kabupaten Aceh Jaya, Aceh 23657";"Meutara, Jaya, Kabupaten Aceh Jaya";"ACEH";"23657";"Indonesia";"";"5.0757959";"95.354292";"https://maps.google.com/?cid=0x0:0x574352183d6af96"
"housing complex";"Perhimpunan Pengembang Perumahan";"Rumah olistia";"384W+724, Kuala, Kec. Indra Jaya, Kabupaten Aceh Jaya, Aceh 23657";"Kuala, Kec. Indra Jaya, Kabupaten Aceh Jaya";"ACEH";"23657";"Indonesia";"";"5.0550579";"95.3441396";"https://maps.google.com/?cid=0x0:0x5605ddb3b49464f6"
"housing complex";"Pembangunan Perumahan";"Rumah Baitul Mal";"39F2+58C, Babah Dua, Kec. Indra Jaya, Kabupaten Aceh Jaya, Aceh 23657";"Babah Dua, Kec. Indra Jaya, Kabupaten Aceh Jaya";"ACEH";"23657";"Indonesia";"";"5.0729264";"95.3507797";"https://maps.google.com/?cid=0x0:0xfbae2941a753c85a"
"housing complex";"Komplek perumahan";"Desa Teumareum";"387W+C79, Unnamed Road, Teumareum, Kec. Indra Jaya, Kabupaten Aceh Jaya, Aceh 23657";"Unnamed Road, Teumareum, Kec. Indra Jaya, Kabupaten Aceh Jaya";"ACEH";"23657";"Indonesia";"";"5.0635302";"95.3457223";"https://maps.google.com/?cid=0x0:0x24aa903bddeb793c"
"housing complex";"Komplek perumahan";"Rumah Kasman Jbt";"XCC5+2VV, Ceunamprong, Kec. Indra Jaya, Kabupaten Aceh Jaya, Aceh";"Kabupaten Aceh Jaya, Aceh";"ACEH";"";"Indonesia";"";"4.9701239";"95.4096633";"https://maps.google.com/?cid=0x0:0x40afc3f101a4b10"
"housing complex";"Inspektur Tempat Tinggal";"Rumah randi";"387Q+7JF, Jangeut, Kec. Indra Jaya, Kabupaten Aceh Jaya, Aceh 23657";"Jangeut, Kec. Indra Jaya, Kabupaten Aceh Jaya";"ACEH";"23657";"Indonesia";"";"5.0631837";"95.3390437";"https://maps.google.com/?cid=0x0:0x8159d622f8ad6132"
"housing complex";"Komplek perumahan";"Rumah ozi";"389W+MV3, Alue Mie, Kec. Indra Jaya, Kabupaten Aceh Jaya, Aceh 23657";"Alue Mie, Kec. Indra Jaya, Kabupaten Aceh Jaya";"ACEH";"23657";"Indonesia";"";"5.0689736";"95.3472655";"https://maps.google.com/?cid=0x0:0x229de6534ae42296"
"housing complex";"Komplek perumahan";"Bdratn nfis";"383W+M9P, Kuala, Kec. Indra Jaya, Kabupaten Aceh Jaya, Aceh 23657";"Kuala, Kec. Indra Jaya, Kabupaten Aceh Jaya";"ACEH";"23657";"Indonesia";"";"5.0543711";"95.3470188";"https://maps.google.com/?cid=0x0:0xbecfef5255e70226"
"housing complex";"Komplek perumahan";"rumah fazhlul";"39P7+GH2, Meunasah Weh, Jaya, Kabupaten Aceh Jaya, Aceh 23657";"Meunasah Weh, Jaya, Kabupaten Aceh Jaya";"ACEH";"23657";"Indonesia";"";"5.086273";"95.3638842";"https://maps.google.com/?cid=0x0:0xacee54df7e06ff4d"
"housing complex";"Komplek perumahan";"Rumah TM";"8W3J+845, Baro Gapui, Kec. Indra Jaya, Kabupaten Pidie, Aceh 24182";"Baro Gapui, Kec. Indra Jaya, Kabupaten Pidie";"ACEH";"24182";"Indonesia";"";"5.3021974";"95.9308833";"https://maps.google.com/?cid=0x0:0x9ae20efc1aeabb9d"
"housing complex";"housing complex";"Kec. Indra Jaya";"Kabupaten Pidie, Aceh";"Kabupaten Pidie, Aceh";"ACEH";"";"Indonesia";"";"5.3162867";"95.9602464";"https://maps.google.com/?cid=0x0:0xcceede14e8e3d2e3"
"housing complex";"Komplek perumahan";"AKBAR";"7WH9,6F, Dayah Tuha";"Kabupaten Pidie, Aceh";"ACEH";"";"Indonesia";"";"5.2780648";"95.9186855";"https://maps.google.com/?cid=0x0:0x804a4db3f2b85e65"
"housing complex";"Komplek perumahan";"Pakeh Garden Family (TMF)";"8X76+C93, Dayah Caleue, Kec. Indra Jaya, Kabupaten Pidie, Aceh 24151";"Dayah Caleue, Kec. Indra Jaya, Kabupaten Pidie";"ACEH";"24151";"Indonesia";"";"5.314005";"95.960769";"https://maps.google.com/?cid=0x0:0xa728e594e9b137ff"
"housing complex";"Perhimpunan Pengembang Perumahan";"Rumoh Aceh";"8W6M+2JR, Teungoh Blang, Kec. Indra Jaya, Kabupaten Pidie, Aceh 24182";"Teungoh Blang, Kec. Indra Jaya, Kabupaten Pidie";"ACEH";"24182";"Indonesia";"";"5.3101014";"95.9340063";"https://maps.google.com/?cid=0x0:0x67956b27495c5b74"
"housing complex";"Komplek perumahan";"TTS";"8W4W+9Q3, Baro Bluek, Kec. Indra Jaya, Kabupaten Pidie, Aceh 24167";"Baro Bluek, Kec. Indra Jaya, Kabupaten Pidie";"ACEH";"24167";"Indonesia";"";"5.3058899";"95.9469158";"https://maps.google.com/?cid=0x0:0xbae9488a7b0d3848"
"housing complex";"Komplek perumahan";"Pak ichsan";"8WWJ+F4, Raya Lhok Kaju, Kec. Indra Jaya, Kabupaten Pidie, Aceh";"Kabupaten Pidie, Aceh";"ACEH";"";"Indonesia";"";"5.3461968";"95.9302535";"https://maps.google.com/?cid=0x0:0x421abbaeee575f1f"
"housing complex";"Komplek perumahan";"Rumoh ajun";"8WJG+3JP, Garot Cut, Kec. Indra Jaya, Kabupaten Pidie, Aceh 24182";"Garot Cut, Kec. Indra Jaya, Kabupaten Pidie";"ACEH";"24182";"Indonesia";"";"5.3297991";"95.9262701";"https://maps.google.com/?cid=0x0:0x531e1e71a82c798"
"housing complex";"Komplek perumahan";"Ubayya hamdan";"8W2M+W7J, Neulop II, Kec. Indra Jaya, Kabupaten Pidie, Aceh 24182";"Neulop II, Kec. Indra Jaya, Kabupaten Pidie";"ACEH";"24182";"Indonesia";" 085262793632";"5.3023326";"95.933149";"https://maps.google.com/?cid=0x0:0x51fdc55259cbf63a"
"housing complex";"Komplek perumahan";"Rumah Razi";"8W7X+47R, Cot Seukee, Kec. Indra Jaya, Kabupaten Pidie, Aceh 24182";"Cot Seukee, Kec. Indra Jaya, Kabupaten Pidie";"ACEH";"24182";"Indonesia";"";"5.312872";"95.9481258";"https://maps.google.com/?cid=0x0:0xa1f7022740a55c1b"
"housing complex";"Perhimpunan Pengembang Perumahan";"Fauzi";"7WJG+FG7, Teungoh Suwiek, Kec. Indra Jaya, Kabupaten Pidie, Aceh 24182";"Teungoh Suwiek, Kec. Indra Jaya, Kabupaten Pidie";"ACEH";"24182";"Indonesia";"";"5.281824";"95.925414";"https://maps.google.com/?cid=0x0:0xc4b6b803191bfeee"
"housing complex";"Komplek perumahan";"Rumah ardian";"8WHR+PVF, Baro Jruek, Kec. Indra Jaya, Kabupaten Pidie, Aceh";"Kabupaten Pidie, Aceh";"ACEH";"";"Indonesia";"";"5.3293868";"95.941839";"https://maps.google.com/?cid=0x0:0x7d2de759248d5c4e"
"housing complex";"Komplek perumahan";"BANG HERI UD.TUNGKOP JAYA";"8WCH+PQP, Sukon Tungkop, Kec. Indra Jaya, Kabupaten Pidie, Aceh 24182";"Sukon Tungkop, Kec. Indra Jaya, Kabupaten Pidie";"ACEH";"24182";"Indonesia";"";"5.3217478";"95.929946";"https://maps.google.com/?cid=0x0:0x421c9d7fb5ec08ab"
"housing complex";"Komplek perumahan";"Ini saya";"8XF4+3FM, Dayah Muara, Kec. Peukan Baro, Kabupaten Pidie, Aceh 24182";"Dayah Muara, Kec. Peukan Baro, Kabupaten Pidie";"ACEH";"24182";"Indonesia";"";"5.3231506";"95.956515";"https://maps.google.com/?cid=0x0:0x7c62a32e63fe7020"
"housing complex";"Pembangunan Perumahan";"Yah ih";"RHC2+538, Teupin Asan, Kec. Darul Hikmah, Kabupaten Aceh Jaya, Aceh 23656";"Teupin Asan, Kec. Darul Hikmah, Kabupaten Aceh Jaya";"ACEH";"23656";"Indonesia";"";"4.8203913";"95.5502491";"https://maps.google.com/?cid=0x0:0x6cd5491fcd22147d"
"housing complex";"housing complex";"Aceh 23656";"Kabupaten Aceh Jaya, Aceh";"Kabupaten Aceh Jaya, Aceh";"ACEH";"";"Indonesia";"";"4.9116238";"95.6037465";"https://maps.google.com/?cid=0x0:0x1aed070c2c639dba"
"housing complex";"Komplek perumahan";"DARUL HIKMA";"RGH7+VX8, Pajar, Kec. Darul Hikmah, Kabupaten Aceh Jaya, Aceh";"Kabupaten Aceh Jaya, Aceh";"ACEH";"";"Indonesia";"";"4.8296554";"95.5149407";"https://maps.google.com/?cid=0x0:0xd88e671ac42c4efe"
"housing complex";"housing complex";"JERRY";"RF93+762, Jeumpheuk, Kec. Sampoiniet, Kabupaten Aceh Jaya, Aceh 23656";"Jeumpheuk, Kec. Sampoiniet, Kabupaten Aceh Jaya";"ACEH";"23656";"Indonesia";"";"4.8182311";"95.4537041";"https://maps.google.com/?cid=0x0:0x4965fb2ed09ff81a"
"housing complex";"Komplek perumahan";"Rumah sendiri";"RFW2+7JP, Babah Nipah, Kec. Sampoiniet, Kabupaten Aceh Jaya, Aceh";"Kabupaten Aceh Jaya, Aceh";"ACEH";"";"Indonesia";"";"4.8457102";"95.4515725";"https://maps.google.com/?cid=0x0:0x1f1b12c4d5825d9f"
"housing complex";"housing complex";"House Hawasaka";"RFPC+GGX, Mataie, Kec. Sampoiniet, Kabupaten Aceh Jaya, Aceh 23656";"Mataie, Kec. Sampoiniet, Kabupaten Aceh Jaya";"ACEH";"23656";"Indonesia";"";"4.8357008";"95.4710335";"https://maps.google.com/?cid=0x0:0x39156303f44bbd6b"
"housing complex";"Gedung Apartemen";"Khaira Azman";"QH9M+QJM, Sapek, Kec. Setia Bakti, Kabupaten Aceh Jaya, Aceh 23656";"Sapek, Kec. Setia Bakti, Kabupaten Aceh Jaya";"ACEH";"23656";"Indonesia";"";"4.7694613";"95.5840621";"https://maps.google.com/?cid=0x0:0xa1b43be4ad3a13c2"
"housing complex";"Kebun Buah";"Lampoh Pak. Budi";"VCV4+H9, Meunasah Kulam, Kec. Sampoiniet, Kabupaten Aceh Jaya, Aceh";"Kabupaten Aceh Jaya, Aceh";"ACEH";"";"Indonesia";"";"4.8939296";"95.405895";"https://maps.google.com/?cid=0x0:0x30c44c4b0b04c812"
"housing complex";"Komplek perumahan";"Rumah Reza Juanda  Astuti";"RF5P+C9C, Jl. Patek - Krueng Tho, Pajar, Kec. Darul Hikmah, Kabupaten Aceh Jaya, Aceh 23656";"Jl. Patek - Krueng Tho, Pajar, Kec. Darul Hikmah, Kabupaten Aceh Jaya";"ACEH";"23656";"Indonesia";"";"4.8085556";"95.4859294";"https://maps.google.com/?cid=0x0:0xda107090a4362b2c"
"housing complex";"Komplek perumahan";"Rumah Nidar";"RGH6+V3M, Jl. Patek - Krueng Tho, Pajar, Kec. Darul Hikmah, Kabupaten Aceh Jaya, Aceh 23656";"Jl. Patek - Krueng Tho, Pajar, Kec. Darul Hikmah, Kabupaten Aceh Jaya";"ACEH";"23656";"Indonesia";"";"4.829093";"95.5098427";"https://maps.google.com/?cid=0x0:0xe2a6d789e6ec8a8f"
"housing complex";"Bangunan Bersejarah";"Plan 1";"VC3C+FW9, Kuala Ligan, Kec. Sampoiniet, Kabupaten Aceh Jaya, Aceh 23656";"Kuala Ligan, Kec. Sampoiniet, Kabupaten Aceh Jaya";"ACEH";"23656";"Indonesia";"";"4.853585";"95.4209733";"https://maps.google.com/?cid=0x0:0xca84d50140ae237a"
"housing complex";"Pembangunan Perumahan";"Rumah buk mala";"QHCH+3WR, Sapek, Kec. Setia Bakti, Kabupaten Aceh Jaya, Aceh";"Kabupaten Aceh Jaya, Aceh";"ACEH";"";"Indonesia";"";"4.770245";"95.579774";"https://maps.google.com/?cid=0x0:0xfb8b940324c6e517"
"housing complex";"Komplek perumahan";"rumah dafid almudasir";"RGH6+V3M, Jl. Patek - Krueng Tho, Pajar, Kec. Darul Hikmah, Kabupaten Aceh Jaya, Aceh 23656";"Jl. Patek - Krueng Tho, Pajar, Kec. Darul Hikmah, Kabupaten Aceh Jaya";"ACEH";"23656";"Indonesia";"";"4.8292171";"95.5099182";"https://maps.google.com/?cid=0x0:0x1872773e26a5af6d"
"housing complex";"Komplek perumahan";"Gudang MRJ";"RF5W+WFC, Jl. Patek - Krueng Tho, Blang Dalam, Kec. Darul Hikmah, Kabupaten Aceh Jaya, Aceh 23656";"Jl. Patek - Krueng Tho, Blang Dalam, Kec. Darul Hikmah, Kabupaten Aceh Jaya";"ACEH";"23656";"Indonesia";"";"4.8098043";"95.4961395";"https://maps.google.com/?cid=0x0:0xec59fdb7d2a54f77"
"housing complex";"housing complex";"Aceh 23653";"Kec. Teunom, Kabupaten Aceh Jaya, Aceh";"Kabupaten Aceh Jaya, Aceh";"ACEH";"";"Indonesia";"";"4.5590872";"95.8775964";"https://maps.google.com/?cid=0x0:0xd1bbc87731e6c060"
"housing complex";"Pembangunan Perumahan";"Rumah Kaur Umum dan Perencanaan";"GV2M+6H2, Tuwi Kareung I, Kec. Pasie Raya, Kabupaten Aceh Jaya, Aceh 23653";"Tuwi Kareung I, Kec. Pasie Raya, Kabupaten Aceh Jaya";"ACEH";"23653";"Indonesia";" 085361413961";"4.5005163";"95.8838964";"https://maps.google.com/?cid=0x0:0xc3b8777e08848d45"
"housing complex";"Komplek perumahan";"Kediaman Imum Chik Masjid Besar Baiturrahman Kecamatan Pasie Raya";"GV2Q+J6Q, Tuwi Kareung I, Kec. Pasie Raya, Kabupaten Aceh Jaya, Aceh 23653";"Tuwi Kareung I, Kec. Pasie Raya, Kabupaten Aceh Jaya";"ACEH";"23653";"Indonesia";"";"4.5015911";"95.8881155";"https://maps.google.com/?cid=0x0:0x11881bb4dfa8ebc6"
"housing complex";"Pembangunan Perumahan";"Alue Raya Panga";"HQ93+25, Gampong Harapan, Kec. Panga, Kabupaten Aceh Jaya, Aceh 23653";"Gampong Harapan, Kec. Panga, Kabupaten Aceh Jaya";"ACEH";"23653";"Indonesia";"";"4.56759";"95.7529862";"https://maps.google.com/?cid=0x0:0xd1faf7e45615feed"
"housing complex";"Komplek perumahan";"Rumah dayat";"GV4R+R7, Desa, Lhok Guci, Kec. Pasie Raya, Kabupaten Aceh Jaya, Aceh 23653";"Desa, Lhok Guci, Kec. Pasie Raya, Kabupaten Aceh Jaya";"ACEH";"23653";"Indonesia";"";"4.50736";"95.8908837";"https://maps.google.com/?cid=0x0:0xb93a0ec5985d2e66"
"housing complex";"Komplek perumahan";"Rumah T. HASYIMI PUTEH";"FR28+656, Padang Kleng, Kec. Teunom, Kabupaten Aceh Jaya, Aceh 23653";"Padang Kleng, Kec. Teunom, Kabupaten Aceh Jaya";"ACEH";"23653";"Indonesia";"";"4.451556";"95.815552";"https://maps.google.com/?cid=0x0:0x973cf218c73c2c3d"
"housing complex";"Komplek perumahan";"Rumah sofan";"HWHC+RWR, Alue Jang, Kec. Pasie Raya, Kabupaten Aceh Jaya, Aceh 23653";"Alue Jang, Kec. Pasie Raya, Kabupaten Aceh Jaya";"ACEH";"23653";"Indonesia";"";"4.5796195";"95.9224545";"https://maps.google.com/?cid=0x0:0x26bcf43a9e79b6c1"
"housing complex";"Komplek perumahan";"Pribadi";"GV4R+R7, Desa, Lhok Guci, Kec. Pasie Raya, Kabupaten Aceh Jaya, Aceh 23653";"Desa, Lhok Guci, Kec. Pasie Raya, Kabupaten Aceh Jaya";"ACEH";"23653";"Indonesia";"";"4.5070829";"95.8907092";"https://maps.google.com/?cid=0x0:0x6375340268cc10dc"
"housing complex";"Perhimpunan Pengembang Perumahan";"Baraja ( rumah)";"HWMF+54G, Alue Punti, Kec. Pasie Raya, Kabupaten Aceh Jaya, Aceh 23653";"Alue Punti, Kec. Pasie Raya, Kabupaten Aceh Jaya";"ACEH";"23653";"Indonesia";"";"4.5829379";"95.9228234";"https://maps.google.com/?cid=0x0:0x496b15f9a04f0705"
"housing complex";"Pembangunan Perumahan";"Hamdani Family";"CRGQ+35Q, Paya Baro, Kec. Teunom, Kabupaten Aceh Jaya, Aceh 23653";"Paya Baro, Kec. Teunom, Kabupaten Aceh Jaya";"ACEH";"23653";"Indonesia";" 081264404817";"4.4252148";"95.8379976";"https://maps.google.com/?cid=0x0:0x8587666cf8606f38"
"housing complex";"Perhimpunan Pengembang Perumahan";"Rumah Viya";"FVWH+65, Pasi Teubee, Kec. Pasie Raya, Kabupaten Aceh Jaya, Aceh 23653";"Pasi Teubee, Kec. Pasie Raya, Kabupaten Aceh Jaya";"ACEH";"23653";"Indonesia";"";"4.495633";"95.8779319";"https://maps.google.com/?cid=0x0:0xbd4adbdc8c2bddf2"
"housing complex";"Pembangunan Perumahan";"Rsh";"FR2P+2R9, Gampong Baro, Kec. Teunom, Kabupaten Aceh Jaya, Aceh 23653";"Gampong Baro, Kec. Teunom, Kabupaten Aceh Jaya";"ACEH";"23653";"Indonesia";"";"4.450542";"95.837056";"https://maps.google.com/?cid=0x0:0xdab8aab6c6bab303"
"housing complex";"Pembangunan Perumahan";"Aminah";"HP4R+7Q, Tuwi Kareung Panga, Kec. Panga, Kabupaten Aceh Jaya, Aceh 23653";"Tuwi Kareung Panga, Kec. Panga, Kabupaten Aceh Jaya";"ACEH";"23653";"Indonesia";"";"4.555739";"95.741957";"https://maps.google.com/?cid=0x0:0x891c3883d1cfd2e3"
"housing complex";"Komplek perumahan";"Alue raya";"GPX9+4RG, Kuta Tuha, Kec. Panga, Kabupaten Aceh Jaya, Aceh";"Kabupaten Aceh Jaya, Aceh";"ACEH";"";"Indonesia";"";"4.547818";"95.719589";"https://maps.google.com/?cid=0x0:0x339842b68af214ef"
