Category;Real Category;Business Name;Address;City;State;Postal Code;Country;Phone;Email;Website;Latitude;Longitude;Map Link;Details Link
mall;Pasar;Los Pekan Kec. Amandraya;QM49+83G, Unnamed Road, Tuindrao, Kec. Amandraya, Kabupaten Nias Selatan, Sumatera Utara 22866;Unnamed Road, Tuindrao, Kec. Amandraya, Kabupaten Nias Selatan;SUMATERA UTARA;22866;Indonesia;;;;0.7558085;976.677.084;https://maps.google.com/?cid=0x0:0xe1698cc61a6aa55c;
mall;Pusat Perbelanjaan;Pasar Rakyat Ulususua Kecamatan Ulususua;Ramba-Ramba, Kec. Amandraya, Kabupaten Nias Selatan, Sumatera Utara 22866;Kec. Amandraya, Kabupaten Nias Selatan;SUMATERA UTARA;22866;Indonesia;;;;0.8039159;977.034.855;https://maps.google.com/?cid=0x0:0x858afc9170990b89;
mall;mall;Kec. Amandraya;Kabupaten Nias Selatan, Sumatera Utara;Kabupaten Nias Selatan, Sumatera Utara;SUMATERA UTARA;;Indonesia;;;;0.7519013;976.700.678;https://maps.google.com/?cid=0x0:0x4039d80b220e1b0;
mall;Pusat Perbelanjaan;Pekan Godu Desa Susua kecamatan Ulususua;RP33+GJ6, kampung Godu Desa Susua, Ramba-Ramba, Kec. Ulususua, Kabupaten Nias Selatan, Sumatera Utara 22866;kampung Godu Desa Susua, Ramba-Ramba, Kec. Ulususua, Kabupaten Nias Selatan;SUMATERA UTARA;22866;Indonesia;;;;0.8037753;977.040.015;https://maps.google.com/?cid=0x0:0x241b5395f28b980c;
mall;Pusat Perbelanjaan;UD. DARNELL;RM8M+QGH, Fondrakoraya, Kec. Amandraya, Kabupaten Nias Selatan, Sumatera Utara 22864;Fondrakoraya, Kec. Amandraya, Kabupaten Nias Selatan;SUMATERA UTARA;22864;Indonesia;;;;0.816947;976.838.506;https://maps.google.com/?cid=0x0:0xddf5812590a9f2c1;
mall;Toko;Tekhearo laia;MPPF+PP5, Sifaoroasi, Kec. Amandraya, Kabupaten Nias Selatan, Sumatera Utara 22866;Sifaoroasi, Kec. Amandraya, Kabupaten Nias Selatan;SUMATERA UTARA;22866;Indonesia;;;;0.686766;97.724.369;https://maps.google.com/?cid=0x0:0x511ad89c2a28aae4;
mall;mall;Sumatera Utara 22866;Kabupaten Nias Selatan, Sumatera Utara;Kabupaten Nias Selatan, Sumatera Utara;SUMATERA UTARA;;Indonesia;;;;0.7276191;977.199.454;https://maps.google.com/?cid=0x0:0xe99692ae94a1dd7b;
mall;Pasar;Pekan So'onogeu Hilisimaetano;MPCM+3M4, Desa Pekan, Hilisimaetano, Kec. Maniamolo, Kabupaten Nias Selatan, Sumatera Utara 22866;Desa Pekan, Hilisimaetano, Kec. Maniamolo, Kabupaten Nias Selatan;SUMATERA UTARA;22866;Indonesia;;;;0.6701341;977.342.094;https://maps.google.com/?cid=0x0:0xe183ccc071d8e3a4;
mall;Pusat Perbelanjaan;Pekan Godu Desa Susua kecamatan Ulususua;RP33+GJ6, kampung Godu Desa Susua, Ramba-Ramba, Kec. Ulususua, Kabupaten Nias Selatan, Sumatera Utara 22866;kampung Godu Desa Susua, Ramba-Ramba, Kec. Ulususua, Kabupaten Nias Selatan;SUMATERA UTARA;22866;Indonesia;;;;0.8037753;977.040.015;https://maps.google.com/?cid=0x0:0x241b5395f28b980c;
mall;Pusat Perbelanjaan;Pasar Rakyat Ulususua Kecamatan Ulususua;Ramba-Ramba, Kec. Amandraya, Kabupaten Nias Selatan, Sumatera Utara 22866;Kec. Amandraya, Kabupaten Nias Selatan;SUMATERA UTARA;22866;Indonesia;;;;0.8039159;977.034.855;https://maps.google.com/?cid=0x0:0x858afc9170990b89;
mall;Pusat Perbelanjaan;SUN PLAZA;Jl. KH. Zainul Arifin No.7, Madras Hulu, Kec. Medan Polonia, Kota Medan, Sumatera Utara 20152;Madras Hulu, Kec. Medan Polonia, Kota Medan;SUMATERA UTARA;20152;Indonesia;614501000;;;35.833.872;986.715.272;https://maps.google.com/?cid=0x0:0xf4a6500e549d1a82;
mall;Pasar;Los Pekan Kec. Amandraya;QM49+83G, Unnamed Road, Tuindrao, Kec. Amandraya, Kabupaten Nias Selatan, Sumatera Utara 22866;Unnamed Road, Tuindrao, Kec. Amandraya, Kabupaten Nias Selatan;SUMATERA UTARA;22866;Indonesia;;;;0.7558085;976.677.084;https://maps.google.com/?cid=0x0:0xe1698cc61a6aa55c;
mall;Pusat Perbelanjaan;UD. DARNELL;RM8M+QGH, Fondrakoraya, Kec. Amandraya, Kabupaten Nias Selatan, Sumatera Utara 22864;Fondrakoraya, Kec. Amandraya, Kabupaten Nias Selatan;SUMATERA UTARA;22864;Indonesia;;;;0.816947;976.838.506;https://maps.google.com/?cid=0x0:0xddf5812590a9f2c1;
mall;Toko;Tekhearo laia;MPPF+PP5, Sifaoroasi, Kec. Amandraya, Kabupaten Nias Selatan, Sumatera Utara 22866;Sifaoroasi, Kec. Amandraya, Kabupaten Nias Selatan;SUMATERA UTARA;22866;Indonesia;;;;0.686766;97.724.369;https://maps.google.com/?cid=0x0:0x511ad89c2a28aae4;
mall;Gedung Pertemuan;Hermes Place | Polonia;Jl. Mongonsidi No.45, Polonia, Kec. Medan Polonia, Kota Medan, Sumatera Utara 20152;Polonia, Kec. Medan Polonia, Kota Medan;SUMATERA UTARA;20152;Indonesia;614579000;;;35.707.977;986.660.457;https://maps.google.com/?cid=0x0:0xfedd1dbed9550d6f;
mall;Pusat Perbelanjaan;UD. SALMAN;RMFM+F9M, Fondrakoraya, Kec. Ulususua, Kabupaten Nias Selatan, Sumatera Utara 22864;Fondrakoraya, Kec. Ulususua, Kabupaten Nias Selatan;SUMATERA UTARA;22864;Indonesia;;;;0.8237206;976.834.067;https://maps.google.com/?cid=0x0:0xee5bc703fc6c907f;
mall;Toko Swalayan;DeliPark Mall;Jl. Putri Hijau Dalam No.1 Blok OPQ, Kesawan, Kec. Medan Bar., Kota Medan, Sumatera Utara 20111;Kesawan, Kec. Medan Bar., Kota Medan;SUMATERA UTARA;20111;Indonesia;6188812888;;;35.945.606;986.744.074;https://maps.google.com/?cid=0x0:0xc035ba4fa455d423;
mall;mall;Harimbale SO'ONOGEU;MP3R+P5Q, Jl. Hilisimaetano, Hilisimaetano, Kec. Tlk. Dalam, Kabupaten Nias Selatan, Sumatera Utara 22865;Jl. Hilisimaetano, Hilisimaetano, Kec. Tlk. Dalam, Kabupaten Nias Selatan;SUMATERA UTARA;22865;Indonesia;85265798389;;;0.6543395;977.404.832;https://maps.google.com/?cid=0x0:0x88cc70e43e7156e0;
mall;mall;Harimbale So'onogeu;JPVJ+58M, Hilisimaetano, Kec. Maniamolo, Kabupaten Nias Selatan, Sumatera Utara 22865;Hilisimaetano, Kec. Maniamolo, Kabupaten Nias Selatan;SUMATERA UTARA;22865;Indonesia;;;;0.6429536;97.730.807;https://maps.google.com/?cid=0x0:0xcefcca9fd6729497;
mall;mall;UD. ILER;RM8M+XHJ, Fondrakoraya, Kec. Amandraya, Kabupaten Nias Selatan, Sumatera Utara 22864;Fondrakoraya, Kec. Amandraya, Kabupaten Nias Selatan;SUMATERA UTARA;22864;Indonesia;;;;0.8174524;976.838.892;https://maps.google.com/?cid=0x0:0xd9b723e21086c59f;
mall;Toko umum;UD. Roni/Nira;MP9M+MVR, Hilisimaetano, Kec. Maniamolo, Kabupaten Nias Selatan, Sumatera Utara;Kabupaten Nias Selatan, Sumatera Utara;SUMATERA UTARA;;Indonesia;;;;0.6692472;977.346.253;https://maps.google.com/?cid=0x0:0x3c7872691dc08469;
mall;Toko;UD.ALVARO;RJ9H+2WG, Simpang Empat, Hilinamazihono, Tlk. Dalam, Kabupaten Nias Selatan, Sumatera Utara 22864;Simpang Empat, Hilinamazihono, Tlk. Dalam, Kabupaten Nias Selatan;SUMATERA UTARA;22864;Indonesia;82367484222;;;0.8175608;976.298.367;https://maps.google.com/?cid=0x0:0xd5e4c8ecaac937c5;
mall;Gedung Apartemen;Mall@Bassura;Jl. Jenderal Basuki Rachmat No.1A, Cipinang Besar Sel., Kecamatan Jatinegara, Kota Jakarta Timur, Daerah Khusus Ibukota Jakarta 13410;Cipinang Besar Sel., Kecamatan Jatinegara, Kota Jakarta Timur;SUMATERA UTARA;13410;Indonesia;2122807300;;;-62.240.597;1.068.778.851;https://maps.google.com/?cid=0x0:0x610648e929845480;
mall;Pusat Perbelanjaan;Pondok Indah Mall 1;Jl. Metro Pondok Indah No.Kav. 4, RT.1/RW.16, Pd. Pinang, Kec. Kby. Lama, Kota Jakarta Selatan, Daerah Khusus Ibukota Jakarta 12310;RT.1/RW.16, Pd. Pinang, Kec. Kby. Lama, Kota Jakarta Selatan;SUMATERA UTARA;12310;Indonesia;217506750;;;-62.652.166;1.067.843.165;https://maps.google.com/?cid=0x0:0x682837113c4ea854;
mall;Pusat Perbelanjaan;Arion Mall;Jl. Pemuda No.Kavling 3-4, RT.2/RW.7, Rawamangun, Kec. Pulo Gadung, Kota Jakarta Timur, Daerah Khusus Ibukota Jakarta 13220;RT.2/RW.7, Rawamangun, Kec. Pulo Gadung, Kota Jakarta Timur;SUMATERA UTARA;13220;Indonesia;214711652;;;-61.938.923;106.890.485;https://maps.google.com/?cid=0x0:0x2c3ea95ddd6b2533;
mall;Taman Hiburan;Trans Studio Mall Cibubur;Jl. Alternatif Cibubur No.230 A, Harjamukti, Kec. Cimanggis, Kota Depok, Jawa Barat 16454;Harjamukti, Kec. Cimanggis, Kota Depok;SUMATERA UTARA;16454;Indonesia;2139705050;;;-63.756.707;1.069.019.455;https://maps.google.com/?cid=0x0:0x5e89bf86511886e2;
mall;Pusat Perbelanjaan;Kalibata city square;Jl. Raya Kalibata No.1, Rawajati, Kec. Pancoran, Kota Jakarta Selatan, Daerah Khusus Ibukota Jakarta 12750;Rawajati, Kec. Pancoran, Kota Jakarta Selatan;SUMATERA UTARA;12750;Indonesia;;;;-62.562.715;1.068.521.776;https://maps.google.com/?cid=0x0:0x59db28d93506d0e6;
mall;Pusat Perbelanjaan;Mall Artha Gading Jakarta;Jl. Artha Gading Sel. No.1, Klp. Gading Bar., Kec. Klp. Gading, Jkt Utara, Daerah Khusus Ibukota Jakarta 14240;Klp. Gading Bar., Kec. Klp. Gading, Jkt Utara;SUMATERA UTARA;14240;Indonesia;2145864000;;;-61.457.739;1.068.919.187;https://maps.google.com/?cid=0x0:0x176166b3d087c724;
mall;Pusat Perbelanjaan;Mall Grand Metropolitan Bekasi;Jl. KH. Noer Ali, RT.007/RW.003, Pekayon Jaya, Kec. Bekasi Sel., Kota Bks, Jawa Barat 17148;RT.007/RW.003, Pekayon Jaya, Kec. Bekasi Sel., Kota Bks;SUMATERA UTARA;17148;Indonesia;2129464646;;;-62.491.162;1.069.845.353;https://maps.google.com/?cid=0x0:0x553935395094b20e;
mall;Bioskop;Bassura XXI;Mall Bassura City, Jl. Jenderal Basuki Rachmat No.1 Lantai 2, RT.8/RW.10, Cipinang Besar Sel., Kecamatan Jatinegara, Kota Jakarta Timur, Daerah Khusus Ibukota Jakarta 13410;Jl. Jenderal Basuki Rachmat No.1 Lantai 2, RT.8/RW.10, Cipinang Besar Sel., Kecamatan Jatinegara, Kota Jakarta Timur;SUMATERA UTARA;13410;Indonesia;2122807229;;;-62.244.138;106.877.728;https://maps.google.com/?cid=0x0:0x143868372e9c01cf;
mall;Toko Alat Kecantikan;SOGO;Jl. Raya Casablanca No.88, RT.2/RW.14, Menteng Dalam, Kec. Tebet, Kota Jakarta Selatan, Daerah Khusus Ibukota Jakarta 12870;RT.2/RW.14, Menteng Dalam, Kec. Tebet, Kota Jakarta Selatan;SUMATERA UTARA;12870;Indonesia;8111252807;;;-62.229.772;106.843.111;https://maps.google.com/?cid=0x0:0xa96f0bcb4777740e;
mall;Toserba;Sogo PIM 2;Jl. Metro Pondok Indah No.33b 1, RT.1/RW.16, Pd. Pinang, Kec. Kby. Lama, Kota Jakarta Selatan, Daerah Khusus Ibukota Jakarta 12310;RT.1/RW.16, Pd. Pinang, Kec. Kby. Lama, Kota Jakarta Selatan;SUMATERA UTARA;12310;Indonesia;;;;-62.655.879;1.067.825.256;https://maps.google.com/?cid=0x0:0x101d7eac72263a84;
mall;Toko Pakaian;Pomelo Outlet Mal Artha Gadingu200b;Pomelo Outlet Mal Artha Gading GF Unit 3  5 |, Jl. Artha Gading Sel. No.1, Klp. Gading Bar., Jkt Utara, Daerah Khusus Ibukota Jakarta 14240;Jl. Artha Gading Sel. No.1, Klp. Gading Bar., Jkt Utara;SUMATERA UTARA;14240;Indonesia;2138879149;;;-61.457.646;10.689.171;https://maps.google.com/?cid=0x0:0xd82711a5bac2866e;
mall;Pusat Perbelanjaan;SOGO Supermal Karawaci;Jl. Boulevard Diponegoro No.105, Bencongan, Kec. Karawaci, Kabupaten Tangerang, Banten 15811;Bencongan, Kec. Karawaci, Kabupaten Tangerang;SUMATERA UTARA;15811;Indonesia;81220264343;;;-62.268.867;1.066.079.419;https://maps.google.com/?cid=0x0:0x1005776af5a7c985;
mall;Toserba;Seibu Grand Indonesia;Jl. M.H. Thamrin No.1, RT.1/RW.5, Kb. Melati, Kec. Menteng, Kota Jakarta Pusat, Daerah Khusus Ibukota Jakarta 10310;RT.1/RW.5, Kb. Melati, Kec. Menteng, Kota Jakarta Pusat;SUMATERA UTARA;10310;Indonesia;2123580100;;;-6.195.462;1.068.197.925;https://maps.google.com/?cid=0x0:0x2a655f7752e3505c;
mall;Pembangunan Perumahan;Nurhayati tafonao;Jalan simpang gereja No.05, Sifaoroasi Gomo, Kec. Gomo, Kabupaten Nias Selatan, Sumatera Utara 22873;Sifaoroasi Gomo, Kec. Gomo, Kabupaten Nias Selatan;SUMATERA UTARA;22873;Indonesia;;;;0.8542467;978.072.921;https://maps.google.com/?cid=0x0:0x530d4e1e0cf261b2;
mall;mall;Kec. Boronadu;Kabupaten Nias Selatan, Sumatera Utara;Kabupaten Nias Selatan, Sumatera Utara;SUMATERA UTARA;;Indonesia;;;;0.8458179;977.295.635;https://maps.google.com/?cid=0x0:0x711c22fe137db771;
mall;Pusat Perbelanjaan;Ud. Serasi Gomo;VR45+69F, Jl. Baru, Orahili Gomo, Kec. Gomo, Kabupaten Nias Selatan, Sumatera Utara;Kabupaten Nias Selatan, Sumatera Utara;SUMATERA UTARA;;Indonesia;;;;0.855551;978.084.288;https://maps.google.com/?cid=0x0:0x2acc1d7d105ad439;
mall;Pusat Perbelanjaan;UD. WENDRI;VR45+8CX, Sifaoroasi Gomo, Kec. Gomo, Kabupaten Nias Selatan, Sumatera Utara 22873;Sifaoroasi Gomo, Kec. Gomo, Kabupaten Nias Selatan;SUMATERA UTARA;22873;Indonesia;85373239789;;;0.8558626;978.086.188;https://maps.google.com/?cid=0x0:0xc961b13780b61b5f;
mall;Toko bahan makanan;UD. FLORENS LAIA;RRQ9+8P4, Hilisao'oto, Kec. Lahusa, Kabupaten Nias Selatan, Sumatera Utara 22874;Hilisao'oto, Kec. Lahusa, Kabupaten Nias Selatan;SUMATERA UTARA;22874;Indonesia;85373401472;;;0.8382616;978.193.127;https://maps.google.com/?cid=0x0:0x891526a748b0d5b9;
mall;mall;UD. ORADA;Jl. Gubsu No.16, Orahili Gomo, Kec. Gomo, Kabupaten Nias Selatan, Sumatera Utara 22873;Orahili Gomo, Kec. Gomo, Kabupaten Nias Selatan;SUMATERA UTARA;22873;Indonesia;85264444190;;;0.8547847;978.072.237;https://maps.google.com/?cid=0x0:0x6387eca098aea4f5;
mall;mall;Warung Desni;VR94+5JV, Lolosoni, Kec. Gomo, Kabupaten Nias Selatan, Sumatera Utara 22873;Lolosoni, Kec. Gomo, Kabupaten Nias Selatan;SUMATERA UTARA;22873;Indonesia;;;;0.8679949;978.065.328;https://maps.google.com/?cid=0x0:0x8368c9b04c3a160c;
mall;Pusat Perbelanjaan;Pasar Rakyat Ulususua Kecamatan Ulususua;Ramba-Ramba, Kec. Amandraya, Kabupaten Nias Selatan, Sumatera Utara 22866;Kec. Amandraya, Kabupaten Nias Selatan;SUMATERA UTARA;22866;Indonesia;;;;0.8039159;977.034.855;https://maps.google.com/?cid=0x0:0x858afc9170990b89;
mall;mall;Sumatera Utara 22865;Kabupaten Nias Selatan, Sumatera Utara;Kabupaten Nias Selatan, Sumatera Utara;SUMATERA UTARA;;Indonesia;;;;0.6522317;978.068.851;https://maps.google.com/?cid=0x0:0x74ff33de5c459c9c;
mall;Toko bahan makanan;Pasar Korea;HR9F+9HQ, Ps. Tlk. Dalam, Kec. Tlk. Dalam, Kabupaten Nias Selatan, Sumatera Utara 22865;Ps. Tlk. Dalam, Kec. Tlk. Dalam, Kabupaten Nias Selatan;SUMATERA UTARA;22865;Indonesia;;;;0.5684654;978.239.758;https://maps.google.com/?cid=0x0:0xf0e6bc84937864bd;
mall;;SBK Swalayan;Jl. Jenderal Sudirman, Ps. Tlk. Dalam, Kec. Tlk. Dalam, Kabupaten Nias Selatan, Sumatera Utara 22865;Ps. Tlk. Dalam, Kec. Tlk. Dalam, Kabupaten Nias Selatan;SUMATERA UTARA;22865;Indonesia;81264950504;;;0.5665053;978.183.744;https://maps.google.com/?cid=0x0:0x29ddecefff3206;
mall;Toko;UD. Fandy Telukdalam;Jl. DI Panjaitan No.9, Ps. Tlk. Dalam, Kec. Tlk. Dalam, Kabupaten Nias Selatan, Sumatera Utara 22865;Ps. Tlk. Dalam, Kec. Tlk. Dalam, Kabupaten Nias Selatan;SUMATERA UTARA;22865;Indonesia;82312668168;;;0.5670463;978.186.019;https://maps.google.com/?cid=0x0:0xccb562ae38cb84fa;
mall;Minimarket;CV BALIZATO;HR9C+VRJ, Ps. Tlk. Dalam, Kec. Tlk. Dalam, Kabupaten Nias Selatan, Sumatera Utara 22865;Ps. Tlk. Dalam, Kec. Tlk. Dalam, Kabupaten Nias Selatan;SUMATERA UTARA;22865;Indonesia;81375309828;;;0.5697197;978.220.197;https://maps.google.com/?cid=0x0:0x7d62b3e1e2ccf0d9;
mall;Toko Pakaian;grand bowo colection;HR9C+PHX, Jl. Diponegoro, Ps. Tlk. Dalam, Kec. Tlk. Dalam, Kabupaten Nias Selatan, Sumatera Utara 22865;Jl. Diponegoro, Ps. Tlk. Dalam, Kec. Tlk. Dalam, Kabupaten Nias Selatan;SUMATERA UTARA;22865;Indonesia;82366517450;;;0.5693657;978.214.882;https://maps.google.com/?cid=0x0:0x4786b042a8e82a40;
mall;Pasar;Pekan So'onogeu Hilisimaetano;MPCM+3M4, Desa Pekan, Hilisimaetano, Kec. Maniamolo, Kabupaten Nias Selatan, Sumatera Utara 22866;Desa Pekan, Hilisimaetano, Kec. Maniamolo, Kabupaten Nias Selatan;SUMATERA UTARA;22866;Indonesia;;;;0.6701341;977.342.094;https://maps.google.com/?cid=0x0:0xe183ccc071d8e3a4;
mall;Toko Swalayan;Grosir Kesya Dachi;HR98+FC2, Ps. Tlk. Dalam, Kec. Tlk. Dalam, Kabupaten Nias Selatan, Sumatera Utara 22865;Ps. Tlk. Dalam, Kec. Tlk. Dalam, Kabupaten Nias Selatan;SUMATERA UTARA;22865;Indonesia;85272530446;;;0.5686322;97.816.019;https://maps.google.com/?cid=0x0:0x49ee154ba9fdb750;
mall;Toko umum;UD.Saota;Jalan Saonigeho Lorong II Desa No.KM. 2,5, Hililaza, Kec. Tlk. Dalam, Kabupaten Nias Selatan, Sumatera Utara 22865;Hililaza, Kec. Tlk. Dalam, Kabupaten Nias Selatan;SUMATERA UTARA;22865;Indonesia;85262370803;;;0.5708273;978.011.519;https://maps.google.com/?cid=0x0:0xbda4294840191705;
mall;Pusat Perbelanjaan;UD. Tunas Baru;HRCF+MM2, Ps. Tlk. Dalam, Kec. Tlk. Dalam, Kabupaten Nias Selatan, Sumatera Utara 22865;Ps. Tlk. Dalam, Kec. Tlk. Dalam, Kabupaten Nias Selatan;SUMATERA UTARA;22865;Indonesia;;;;0.5716394;978.241.468;https://maps.google.com/?cid=0x0:0x47c1c8c6ab9693de;
mall;Pusat Perbelanjaan;Setia Mandiri Pecah Belah;HR93+VQG, Hiligeho, Kec. Tlk. Dalam, Kabupaten Nias Selatan, Sumatera Utara 22865;Hiligeho, Kec. Tlk. Dalam, Kabupaten Nias Selatan;SUMATERA UTARA;22865;Indonesia;;;;0.5695761;97.804.313;https://maps.google.com/?cid=0x0:0xe8e008397d791bbb;
mall;Toko Rokok Elektrik;Muscle Vapestore;Jl. Jenderal Sudirman, Ps. Tlk. Dalam, Kec. Tlk. Dalam, Kabupaten Nias Selatan, Sumatera Utara 22865;Ps. Tlk. Dalam, Kec. Tlk. Dalam, Kabupaten Nias Selatan;SUMATERA UTARA;22865;Indonesia;85296012500;;;0.5664392;978.180.345;https://maps.google.com/?cid=0x0:0x538ed55ae8d8af72;
mall;Pembangunan Perumahan;Nurhayati tafonao;Jalan simpang gereja No.05, Sifaoroasi Gomo, Kec. Gomo, Kabupaten Nias Selatan, Sumatera Utara 22873;Sifaoroasi Gomo, Kec. Gomo, Kabupaten Nias Selatan;SUMATERA UTARA;22873;Indonesia;;;;0.8542467;978.072.921;https://maps.google.com/?cid=0x0:0x530d4e1e0cf261b2;
mall;Grosir produk pertanian;UD.TANI MAKMUR{M.M};PVCR+9Q7, Jl. Hiliorudua, Bawozihono, Kec. Lahusa, Kabupaten Nias Selatan, Sumatera Utara;Kabupaten Nias Selatan, Sumatera Utara;SUMATERA UTARA;;Indonesia;;;;0.7209152;978.919.166;https://maps.google.com/?cid=0x0:0x7acd7ca179704602;
mall;Toko;Olshop Fajar Tulo Amz;PVXM+3J9, Jl. Hiliabolata I, Bawootalua, Kec. Lahusa, Kabupaten Nias Selatan, Sumatera Utara;Kabupaten Nias Selatan, Sumatera Utara;SUMATERA UTARA;;Indonesia;;;;0.7476587;978.841.162;https://maps.google.com/?cid=0x0:0x941c3e7e290d8414;
mall;Toko;Tekhearo laia;MPPF+PP5, Sifaoroasi, Kec. Amandraya, Kabupaten Nias Selatan, Sumatera Utara 22866;Sifaoroasi, Kec. Amandraya, Kabupaten Nias Selatan;SUMATERA UTARA;22866;Indonesia;;;;0.686766;97.724.369;https://maps.google.com/?cid=0x0:0x511ad89c2a28aae4;
mall;Pembangunan Perumahan;Saraina;QVQM+26V, Siwalubanua, Kec. Somambawa, Kabupaten Nias Selatan, Sumatera Utara;Kabupaten Nias Selatan, Sumatera Utara;SUMATERA UTARA;;Indonesia;;;;0.7876173;978.830.488;https://maps.google.com/?cid=0x0:0xcd1a6008e637eaa;
mall;Toko umum;UD.LAIA;Ps. Tlk. Dalam, Kec. Tlk. Dalam, Kabupaten Nias Selatan, Sumatera Utara 22865;Kec. Tlk. Dalam, Kabupaten Nias Selatan;SUMATERA UTARA;22865;Indonesia;;;;0.5649308;978.196.732;https://maps.google.com/?cid=0x0:0xd65ff1ce49fba52c;
mall;Toko bahan makanan;UD. FLORENS LAIA;RRQ9+8P4, Hilisao'oto, Kec. Lahusa, Kabupaten Nias Selatan, Sumatera Utara 22874;Hilisao'oto, Kec. Lahusa, Kabupaten Nias Selatan;SUMATERA UTARA;22874;Indonesia;85373401472;;;0.8382616;978.193.127;https://maps.google.com/?cid=0x0:0x891526a748b0d5b9;
mall;Pusat Perbelanjaan;UD.FANY(ATK  FOTOCOPY);RVHF+H2F, SIMPANG MEHAGA, DESA MEHAGA, Silima Banua, Kec. Somambawa, Kabupaten Nias Selatan, Sumatera Utara;Kabupaten Nias Selatan, Sumatera Utara;SUMATERA UTARA;;Indonesia;81263654272;;;0.8289476;978.725.453;https://maps.google.com/?cid=0x0:0xc6413a590436a16b;
mall;Toko Swalayan;ALFAMIDI SUDIRMAN Teluk Dalam;Jl. Jenderal Sudirman No.88, Ps. Tlk. Dalam, Kec. Tlk. Dalam, Kabupaten Nias Selatan, Sumatera Utara 22865;Ps. Tlk. Dalam, Kec. Tlk. Dalam, Kabupaten Nias Selatan;SUMATERA UTARA;22865;Indonesia;;;;0.5649182;978.190.674;https://maps.google.com/?cid=0x0:0xcd4a663e19513bbe;
mall;Pasar;RUMAH POTONG HEWAN LAHUSA;QV4G+X65, Bawootalua, Kec. Lahusa, Kabupaten Nias Selatan, Sumatera Utara 22874;Bawootalua, Kec. Lahusa, Kabupaten Nias Selatan;SUMATERA UTARA;22874;Indonesia;;;;0.7573791;978.756.216;https://maps.google.com/?cid=0x0:0xf035b925b6b7b410;
mall;mall;Sumatera Utara 22873;Kabupaten Nias Selatan, Sumatera Utara;Kabupaten Nias Selatan, Sumatera Utara;SUMATERA UTARA;;Indonesia;;;;0.8784586;977.634.019;https://maps.google.com/?cid=0x0:0x1c559d138e2f7e02;
mall;Pembangunan Perumahan;Nurhayati tafonao;Jalan simpang gereja No.05, Sifaoroasi Gomo, Kec. Gomo, Kabupaten Nias Selatan, Sumatera Utara 22873;Sifaoroasi Gomo, Kec. Gomo, Kabupaten Nias Selatan;SUMATERA UTARA;22873;Indonesia;;;;0.8542467;978.072.921;https://maps.google.com/?cid=0x0:0x530d4e1e0cf261b2;
mall;Pusat Perbelanjaan;Ud. Serasi Gomo;VR45+69F, Jl. Baru, Orahili Gomo, Kec. Gomo, Kabupaten Nias Selatan, Sumatera Utara;Kabupaten Nias Selatan, Sumatera Utara;SUMATERA UTARA;;Indonesia;;;;0.855551;978.084.288;https://maps.google.com/?cid=0x0:0x2acc1d7d105ad439;
mall;Pusat Perbelanjaan;UD. Tiga Sinar;Umbu Orahua, Idanotae, Kabupaten Nias Selatan, Sumatera Utara 22873;Idanotae, Kabupaten Nias Selatan;SUMATERA UTARA;22873;Indonesia;82368124762;;;0.9083329;978.147.108;https://maps.google.com/?cid=0x0:0xd7866f958c479e2f;
mall;Grosir Barang Kelontong;Usaha Golden;WMHP+67C, Unnamed Road, Marao, Kecamatan Ulunoyo, Kabupaten Nias Selatan, Sumatera Utara 22861;Unnamed Road, Marao, Kecamatan Ulunoyo, Kabupaten Nias Selatan;SUMATERA UTARA;22861;Indonesia;82166163843;;;0.9280617;976.856.527;https://maps.google.com/?cid=0x0:0x18ed0bde7383a313;
mall;Pusat Perbelanjaan;Medan Mall;Jl. M. T. Haryono No.8, Pusat Ps., Kec. Medan Kota, Kota Medan, Sumatera Utara 20212;Pusat Ps., Kec. Medan Kota, Kota Medan;SUMATERA UTARA;20212;Indonesia;614531800;;;358.767;986.867.939;https://maps.google.com/?cid=0x0:0x19be424c62eb0f57;
mall;Hipermarket;Plaza Medan Fair;Plaza Medan Fair, Jl. Gatot Subroto No.30, Sekip, Kec. Medan Petisah, Kota Medan, Sumatera Utara 20113;Jl. Gatot Subroto No.30, Sekip, Kec. Medan Petisah, Kota Medan;SUMATERA UTARA;20113;Indonesia;614140888;;;35.923.784;98.663.167;https://maps.google.com/?cid=0x0:0xd6a7308b04df6237;
mall;Pusat Perbelanjaan;SUN PLAZA;Jl. KH. Zainul Arifin No.7, Madras Hulu, Kec. Medan Polonia, Kota Medan, Sumatera Utara 20152;Madras Hulu, Kec. Medan Polonia, Kota Medan;SUMATERA UTARA;20152;Indonesia;614501000;;;35.833.872;986.715.272;https://maps.google.com/?cid=0x0:0xf4a6500e549d1a82;
mall;Pusat Perbelanjaan;Pekan Godu Desa Susua kecamatan Ulususua;RP33+GJ6, kampung Godu Desa Susua, Ramba-Ramba, Kec. Ulususua, Kabupaten Nias Selatan, Sumatera Utara 22866;kampung Godu Desa Susua, Ramba-Ramba, Kec. Ulususua, Kabupaten Nias Selatan;SUMATERA UTARA;22866;Indonesia;;;;0.8037753;977.040.015;https://maps.google.com/?cid=0x0:0x241b5395f28b980c;
mall;Toko bahan makanan;UD. FLORENS LAIA;RRQ9+8P4, Hilisao'oto, Kec. Lahusa, Kabupaten Nias Selatan, Sumatera Utara 22874;Hilisao'oto, Kec. Lahusa, Kabupaten Nias Selatan;SUMATERA UTARA;22874;Indonesia;85373401472;;;0.8382616;978.193.127;https://maps.google.com/?cid=0x0:0x891526a748b0d5b9;
mall;Toko bahan makanan;Kedai YORIS D'LAW;RRJG+984, Tuhegewo, Desa Hilisao'ötö, Kec, Hilisao'oto, Kec. Sidua'ori, Kabupaten Nias Selatan, Sumatera Utara 22874;Tuhegewo, Desa Hilisao'ötö, Kec, Hilisao'oto, Kec. Sidua'ori, Kabupaten Nias Selatan;SUMATERA UTARA;22874;Indonesia;85106422356;;;0.8308818;978.258.194;https://maps.google.com/?cid=0x0:0x1aad1b09cda80bb9;
mall;Gedung Apartemen;Mall@Bassura;Jl. Jenderal Basuki Rachmat No.1A, Cipinang Besar Sel., Kecamatan Jatinegara, Kota Jakarta Timur, Daerah Khusus Ibukota Jakarta 13410;Cipinang Besar Sel., Kecamatan Jatinegara, Kota Jakarta Timur;SUMATERA UTARA;13410;Indonesia;2122807300;;;-62.240.597;1.068.778.851;https://maps.google.com/?cid=0x0:0x610648e929845480;
mall;Pusat Perbelanjaan;Pondok Indah Mall 1;Jl. Metro Pondok Indah No.Kav. 4, RT.1/RW.16, Pd. Pinang, Kec. Kby. Lama, Kota Jakarta Selatan, Daerah Khusus Ibukota Jakarta 12310;RT.1/RW.16, Pd. Pinang, Kec. Kby. Lama, Kota Jakarta Selatan;SUMATERA UTARA;12310;Indonesia;217506750;;;-62.652.166;1.067.843.165;https://maps.google.com/?cid=0x0:0x682837113c4ea854;
mall;Pusat Perbelanjaan;Summarecon Mall Kelapa Gading;Jl. Boulevard Raya, Klp. Gading Tim., Kec. Klp. Gading, Jkt Utara, Daerah Khusus Ibukota Jakarta 14240;Klp. Gading Tim., Kec. Klp. Gading, Jkt Utara;SUMATERA UTARA;14240;Indonesia;214531101;;;-61.572.666;1.069.084.263;https://maps.google.com/?cid=0x0:0x1c1a278e20ff1c47;
mall;Pusat Perbelanjaan;Cibubur Junction;Jl. Jambore No.8, RT.8/RW.7, Cibubur, Kec. Ciracas, Kota Jakarta Timur, Daerah Khusus Ibukota Jakarta 13720;RT.8/RW.7, Cibubur, Kec. Ciracas, Kota Jakarta Timur;SUMATERA UTARA;13720;Indonesia;2187755678;;;-63.695.998;1.068.941.904;https://maps.google.com/?cid=0x0:0x27d5a981ec2cf74b;
mall;Pusat Perbelanjaan;Mall Of Indonesia;Jl. Boulevard Bar. Raya No.12, RT.18/RW.19, Klp. Gading Bar., Kec. Klp. Gading, Jkt Utara, Daerah Khusus Ibukota Jakarta 14240;RT.18/RW.19, Klp. Gading Bar., Kec. Klp. Gading, Jkt Utara;SUMATERA UTARA;14240;Indonesia;2145867888;;;-61.514.549;1.068.918.949;https://maps.google.com/?cid=0x0:0x3431c7aaadd1f1b6;
mall;Pusat Perbelanjaan;Bintaro Plaza;Jl. Bintaro Utama 3A No.81, Pd. Karya, Kec. Pd. Aren, Kota Tangerang Selatan, Banten 15225;Pd. Karya, Kec. Pd. Aren, Kota Tangerang Selatan;SUMATERA UTARA;15225;Indonesia;81548880003;;;-62.728.272;1.067.424.398;https://maps.google.com/?cid=0x0:0x7857d07e357e2606;
mall;Pusat Perbelanjaan;MKG 1;Jalan Nasional 13 No.13, RT.13/RW.18, Klp. Gading Tim., Kec. Klp. Gading, Jkt Utara, Daerah Khusus Ibukota Jakarta 14240;RT.13/RW.18, Klp. Gading Tim., Kec. Klp. Gading, Jkt Utara;SUMATERA UTARA;14240;Indonesia;214531101;;;-61.591.032;1.069.068.567;https://maps.google.com/?cid=0x0:0xbe697cd5c2d78e45;
mall;Pusat Perbelanjaan;Mal Kelapa Gading 2;Menara Satu Sentra Klp. Gading, Kompleks Jl. Boulevard Raya, Klp. Gading Tim., Kec. Klp. Gading, Jkt Utara, Daerah Khusus Ibukota Jakarta 14240;Kompleks Jl. Boulevard Raya, Klp. Gading Tim., Kec. Klp. Gading, Jkt Utara;SUMATERA UTARA;14240;Indonesia;214531101;;;-6.157.809;1.069.076.198;https://maps.google.com/?cid=0x0:0x8ab66acdf75a2503;
mall;Pusat Perbelanjaan;Mall Kota Kasablanka;Jl. Raya Casablanca No.Kav 88, Menteng Dalam, Kec. Tebet, Kota Jakarta Selatan, Daerah Khusus Ibukota Jakarta 12870;Menteng Dalam, Kec. Tebet, Kota Jakarta Selatan;SUMATERA UTARA;12870;Indonesia;2129465000;;;-62.240.353;1.068.425.979;https://maps.google.com/?cid=0x0:0xaf54cb631563acce;
mall;Pusat Perbelanjaan;Gafoy;Mall Klp. Gading, Jl. Boulevard Raya, RT.13/RW.18, Klp. Gading Tim., Kec. Klp. Gading, Jkt Utara, Daerah Khusus Ibukota Jakarta 14240;Jl. Boulevard Raya, RT.13/RW.18, Klp. Gading Tim., Kec. Klp. Gading, Jkt Utara;SUMATERA UTARA;14240;Indonesia;;;;-61.595.728;1.069.071.263;https://maps.google.com/?cid=0x0:0x78e1975168386a62;
mall;Pusat Perbelanjaan;La Piazza;Jl. Boulevard Raya Blok . M, RT.13/RW.18, Klp. Gading Tim., Kec. Klp. Gading, Jkt Utara, Daerah Khusus Ibukota Jakarta 14240;RT.13/RW.18, Klp. Gading Tim., Kec. Klp. Gading, Jkt Utara;SUMATERA UTARA;14240;Indonesia;214531101;;;-61.592.374;1.069.071.621;https://maps.google.com/?cid=0x0:0xa6a4a343bacb1fbe;
mall;Pusat Perbelanjaan;ITC Roxy Mas;Jl. Kh Hasyim Ashari No.125, Cideng, Kecamatan Gambir, Kota Jakarta Pusat, Daerah Khusus Ibukota Jakarta 10150;Cideng, Kecamatan Gambir, Kota Jakarta Pusat;SUMATERA UTARA;10150;Indonesia;216305001;;;-6.166.433;1.068.029.841;https://maps.google.com/?cid=0x0:0x6ced474954906233;
mall;Pusat Perbelanjaan;Mall Grand Metropolitan Bekasi;Jl. KH. Noer Ali, RT.007/RW.003, Pekayon Jaya, Kec. Bekasi Sel., Kota Bks, Jawa Barat 17148;RT.007/RW.003, Pekayon Jaya, Kec. Bekasi Sel., Kota Bks;SUMATERA UTARA;17148;Indonesia;2129464646;;;-62.491.162;1.069.845.353;https://maps.google.com/?cid=0x0:0x553935395094b20e;
mall;mall;Kec. Hilimegai;Kabupaten Nias Selatan, Sumatera Utara;Kabupaten Nias Selatan, Sumatera Utara;SUMATERA UTARA;;Indonesia;;;;0.9036874;976.222.804;https://maps.google.com/?cid=0x0:0x90dbe191a730425e;
mall;Toko umum;UD Nanda Ndr;WJ59+X47, Satu, Togizita, Hilimegai, South Nias Regency, North Sumatra 22864;Satu, Togizita, Hilimegai, South Nias Regency;SUMATERA UTARA;22864;Indonesia;81362415596;;;0.9099197;976.178.029;https://maps.google.com/?cid=0x0:0x65494df3626addb3;
mall;Pasar;Pasar Togizita;WJ3C+QGF, Togizita, Kec. Hilimegai, Kabupaten Nias Selatan, Sumatera Utara 22864;Togizita, Kec. Hilimegai, Kabupaten Nias Selatan;SUMATERA UTARA;22864;Indonesia;;;;0.9044462;976.212.821;https://maps.google.com/?cid=0x0:0xf33ec7719d9407a6;
mall;Toko Swalayan;Kedai STEPHAN;VHQJ+3G8, Lolowau, Kec. Lalowau, Kabupaten Nias Selatan, Sumatera Utara 22864;Lolowau, Kec. Lalowau, Kabupaten Nias Selatan;SUMATERA UTARA;22864;Indonesia;82161257585;;;0.8876504;975.813.298;https://maps.google.com/?cid=0x0:0x70c32a4a8ec47fb5;
mall;Pusat Perbelanjaan;UD.ERNI;VHRJ+85R, Unnamed Road, Lolowau, Kec. Lalowau, Kabupaten Nias Selatan, Sumatera Utara 22864;Unnamed Road, Lolowau, Kec. Lalowau, Kabupaten Nias Selatan;SUMATERA UTARA;22864;Indonesia;;;;0.8908567;975.803.944;https://maps.google.com/?cid=0x0:0x586bb7786e3b947d;
mall;Pusat Perbelanjaan;UD. SALMAN;RMFM+F9M, Fondrakoraya, Kec. Ulususua, Kabupaten Nias Selatan, Sumatera Utara 22864;Fondrakoraya, Kec. Ulususua, Kabupaten Nias Selatan;SUMATERA UTARA;22864;Indonesia;;;;0.8237206;976.834.067;https://maps.google.com/?cid=0x0:0xee5bc703fc6c907f;
mall;Pusat Perbelanjaan;Toko Syukur 2;Lolowau, Kec. Lalowau, Kabupaten Nias Selatan, Sumatera Utara 22864;Kec. Lalowau, Kabupaten Nias Selatan;SUMATERA UTARA;22864;Indonesia;81269526556;;;0.8931156;975.811.666;https://maps.google.com/?cid=0x0:0xfc79831999b28744;
mall;Toko;Ud. Ramos A.elima Halawa;VHVJ+XHF, Lolowau, Kec. Lalowau, Kabupaten Nias Selatan, Sumatera Utara 22864;Lolowau, Kec. Lalowau, Kabupaten Nias Selatan;SUMATERA UTARA;22864;Indonesia;82164252043;;;0.8949477;975.814.274;https://maps.google.com/?cid=0x0:0xf25e9d7b33a4cb9c;
mall;Pusat Perbelanjaan;Pekan Godu Desa Susua kecamatan Ulususua;RP33+GJ6, kampung Godu Desa Susua, Ramba-Ramba, Kec. Ulususua, Kabupaten Nias Selatan, Sumatera Utara 22866;kampung Godu Desa Susua, Ramba-Ramba, Kec. Ulususua, Kabupaten Nias Selatan;SUMATERA UTARA;22866;Indonesia;;;;0.8037753;977.040.015;https://maps.google.com/?cid=0x0:0x241b5395f28b980c;
mall;Pusat Perbelanjaan;UD. DARNELL;RM8M+QGH, Fondrakoraya, Kec. Amandraya, Kabupaten Nias Selatan, Sumatera Utara 22864;Fondrakoraya, Kec. Amandraya, Kabupaten Nias Selatan;SUMATERA UTARA;22864;Indonesia;;;;0.816947;976.838.506;https://maps.google.com/?cid=0x0:0xddf5812590a9f2c1;
mall;Toko Swalayan;UD.PUTRA;Lolowau, Kec. Lalowau, Kabupaten Nias Selatan, Sumatera Utara 22864;Kec. Lalowau, Kabupaten Nias Selatan;SUMATERA UTARA;22864;Indonesia;85275528548;;;0.8925534;975.811.739;https://maps.google.com/?cid=0x0:0x642f1669515e4b6d;
mall;Pusat Perbelanjaan;UD. PUTRI;VHRJ+R9P, Lolofaoso, Kec. Lalowau, Kabupaten Nias Selatan, Sumatera Utara 22864;Lolofaoso, Kec. Lalowau, Kabupaten Nias Selatan;SUMATERA UTARA;22864;Indonesia;;;;0.8919339;97.580.667;https://maps.google.com/?cid=0x0:0x1bb56ec7ffd33239;
mall;mall;Kec. Hilisalawa'ahe;Kabupaten Nias Selatan, Sumatera Utara;Kabupaten Nias Selatan, Sumatera Utara;SUMATERA UTARA;;Indonesia;;;;0.9334927;9.756.552;https://maps.google.com/?cid=0x0:0x45a298cec7e9fef9;
mall;mall;Toko HUGO (GIAWA S.);Lolowau, Kec. Lalowau, Kabupaten Nias Selatan, Sumatera Utara 22864;Kec. Lalowau, Kabupaten Nias Selatan;SUMATERA UTARA;22864;Indonesia;;;;0.8982856;975.806.455;https://maps.google.com/?cid=0x0:0x4252179339a6f98a;
mall;mall;Sumatera Utara 22867;Kabupaten Nias Selatan, Sumatera Utara;Kabupaten Nias Selatan, Sumatera Utara;SUMATERA UTARA;;Indonesia;;;;0.9212063;976.710.889;https://maps.google.com/?cid=0x0:0xe28ccee9e4064a40;
mall;Grosir Barang Kelontong;Usaha Golden;WMHP+67C, Unnamed Road, Marao, Kecamatan Ulunoyo, Kabupaten Nias Selatan, Sumatera Utara 22861;Unnamed Road, Marao, Kecamatan Ulunoyo, Kabupaten Nias Selatan;SUMATERA UTARA;22861;Indonesia;82166163843;;;0.9280617;976.856.527;https://maps.google.com/?cid=0x0:0x18ed0bde7383a313;
mall;Pusat Perbelanjaan;UD. SABDANI;WJWP+HJH, Jl. Ulunoyo, Koendrafo, Pekan Hililaza, Kabupaten Nias Selatan, Sumatera Utara 22867;Jl. Ulunoyo, Koendrafo, Pekan Hililaza, Kabupaten Nias Selatan;SUMATERA UTARA;22867;Indonesia;;;;0.9464456;976.366.125;https://maps.google.com/?cid=0x0:0x7ffba5cab50921a2;
mall;Pasar;Pasar Togizita;WJ3C+QGF, Togizita, Kec. Hilimegai, Kabupaten Nias Selatan, Sumatera Utara 22864;Togizita, Kec. Hilimegai, Kabupaten Nias Selatan;SUMATERA UTARA;22864;Indonesia;;;;0.9044462;976.212.821;https://maps.google.com/?cid=0x0:0xf33ec7719d9407a6;
mall;Perhimpunan Pengembang Perumahan;Pasar Tuhemberua;Jl. Raya, Tuhemberua, Kec. Lolomatua, Kabupaten Nias Selatan, Sumatera Utara 22852;Tuhemberua, Kec. Lolomatua, Kabupaten Nias Selatan;SUMATERA UTARA;22852;Indonesia;;;;0.9136912;976.574.446;https://maps.google.com/?cid=0x0:0xc4161dfb2fca2112;
mall;Pusat Pendidikan;Ud.Charas;Jl. Umbunasi, Hiliwaebu, Kec. Lolomatua, Kabupaten Nias Selatan, Sumatera Utara 22852;Hiliwaebu, Kec. Lolomatua, Kabupaten Nias Selatan;SUMATERA UTARA;22852;Indonesia;81315370001;;;0.9159644;976.570.509;https://maps.google.com/?cid=0x0:0x295af1e9e18e2afe;
mall;Pusat Perbelanjaan;Toko Syukur 2;Lolowau, Kec. Lalowau, Kabupaten Nias Selatan, Sumatera Utara 22864;Kec. Lalowau, Kabupaten Nias Selatan;SUMATERA UTARA;22864;Indonesia;81269526556;;;0.8931156;975.811.666;https://maps.google.com/?cid=0x0:0xfc79831999b28744;
mall;Toko;Ud. Ramos A.elima Halawa;VHVJ+XHF, Lolowau, Kec. Lalowau, Kabupaten Nias Selatan, Sumatera Utara 22864;Lolowau, Kec. Lalowau, Kabupaten Nias Selatan;SUMATERA UTARA;22864;Indonesia;82164252043;;;0.8949477;975.814.274;https://maps.google.com/?cid=0x0:0xf25e9d7b33a4cb9c;
mall;Balai Pertemuan Desa;Kantor Kepala Desa Hilifalawu Kecamatan Huruna;Hilifalawu, Kec. Huruna, Kabupaten Nias Selatan, Sumatera Utara;Kabupaten Nias Selatan, Sumatera Utara;SUMATERA UTARA;;Indonesia;81264519005;;;0.9826582;976.323.458;https://maps.google.com/?cid=0x0:0x9283448ef379abf1;
mall;Toko umum;UD Nanda Ndr;WJ59+X47, Satu, Togizita, Hilimegai, South Nias Regency, North Sumatra 22864;Satu, Togizita, Hilimegai, South Nias Regency;SUMATERA UTARA;22864;Indonesia;81362415596;;;0.9099197;976.178.029;https://maps.google.com/?cid=0x0:0x65494df3626addb3;
mall;Pusat Perbelanjaan;UD. SALMAN;RMFM+F9M, Fondrakoraya, Kec. Ulususua, Kabupaten Nias Selatan, Sumatera Utara 22864;Fondrakoraya, Kec. Ulususua, Kabupaten Nias Selatan;SUMATERA UTARA;22864;Indonesia;;;;0.8237206;976.834.067;https://maps.google.com/?cid=0x0:0xee5bc703fc6c907f;
mall;Pusat Perbelanjaan;UD.ERNI;VHRJ+85R, Unnamed Road, Lolowau, Kec. Lalowau, Kabupaten Nias Selatan, Sumatera Utara 22864;Unnamed Road, Lolowau, Kec. Lalowau, Kabupaten Nias Selatan;SUMATERA UTARA;22864;Indonesia;;;;0.8908567;975.803.944;https://maps.google.com/?cid=0x0:0x586bb7786e3b947d;
mall;Toko Swalayan;UD.PUTRA;Lolowau, Kec. Lalowau, Kabupaten Nias Selatan, Sumatera Utara 22864;Kec. Lalowau, Kabupaten Nias Selatan;SUMATERA UTARA;22864;Indonesia;85275528548;;;0.8925534;975.811.739;https://maps.google.com/?cid=0x0:0x642f1669515e4b6d;
mall;mall;Kec. Huruna;Kabupaten Nias Selatan, Sumatera Utara;Kabupaten Nias Selatan, Sumatera Utara;SUMATERA UTARA;;Indonesia;;;;0.9861964;976.190.128;https://maps.google.com/?cid=0x0:0x489ef38f203c27a5;
mall;Pasar tradisional;Harimbale Duria;2JJ4+GR4, Jl. Lōlōwa'u, Ehosakhozi, Lolowau, Kabupaten Nias Selatan, Sumatera Utara 22852;Jl. Lōlōwa'u, Ehosakhozi, Lolowau, Kabupaten Nias Selatan;SUMATERA UTARA;22852;Indonesia;83879305604;;;10.312.725;976.070.851;https://maps.google.com/?cid=0x0:0x6a6b9f47203b7d0e;
mall;Pusat Perbelanjaan;UD. USAHA BARU;2JM4+9HV, Sisobawino II, Kec. Lolofitu Moi, Kabupaten Nias Barat, Sumatera Utara 22852;Sisobawino II, Kec. Lolofitu Moi, Kabupaten Nias Barat;SUMATERA UTARA;22852;Indonesia;;;;10.334.893;976.064.207;https://maps.google.com/?cid=0x0:0xa807eddac4dc4b38;
mall;Toko;UD.BALOIDO;2JMG+83V, Balodano, Kec. Ma'u, Kabupaten Nias, Sumatera Utara 22852;Balodano, Kec. Ma'u, Kabupaten Nias;SUMATERA UTARA;22852;Indonesia;;;;10.333.733;976.251.581;https://maps.google.com/?cid=0x0:0x854480e49851876b;
mall;Pusat Perbelanjaan;MargoCity;Jl. Margonda Raya No.358, Kemiri Muka, Kecamatan Beji, Kota Depok, Jawa Barat 16423;Kemiri Muka, Kecamatan Beji, Kota Depok;SUMATERA UTARA;16423;Indonesia;2178870888;;;-6.372.967;1.068.344.235;https://maps.google.com/?cid=0x0:0xd3365350a2ebe2f;
mall;Pusat Perbelanjaan;Mall Plaza Senayan;Jl. Asia Afrika No.8, RT.1/RW.3, Gelora, Kecamatan Tanah Abang, Kota Jakarta Pusat, Daerah Khusus Ibukota Jakarta 10270;RT.1/RW.3, Gelora, Kecamatan Tanah Abang, Kota Jakarta Pusat;SUMATERA UTARA;10270;Indonesia;215725555;;;-62.255.918;1.067.993.027;https://maps.google.com/?cid=0x0:0x788e3a1eef75ac94;
mall;mall;Sumatera Utara 22874;Kec. Somambawa, Sumatera Utara;Sumatera Utara;SUMATERA UTARA;;Indonesia;;;;0.812216;978.395.151;https://maps.google.com/?cid=0x0:0x98a468159f14150a;
mall;Pasar;RUMAH POTONG HEWAN LAHUSA;QV4G+X65, Bawootalua, Kec. Lahusa, Kabupaten Nias Selatan, Sumatera Utara 22874;Bawootalua, Kec. Lahusa, Kabupaten Nias Selatan;SUMATERA UTARA;22874;Indonesia;;;;0.7573791;978.756.216;https://maps.google.com/?cid=0x0:0xf035b925b6b7b410;
mall;Toko bahan makanan;Pasar Korea;HR9F+9HQ, Ps. Tlk. Dalam, Kec. Tlk. Dalam, Kabupaten Nias Selatan, Sumatera Utara 22865;Ps. Tlk. Dalam, Kec. Tlk. Dalam, Kabupaten Nias Selatan;SUMATERA UTARA;22865;Indonesia;;;;0.5684654;978.239.758;https://maps.google.com/?cid=0x0:0xf0e6bc84937864bd;
mall;Toko bahan makanan;UD. FLORENS LAIA;RRQ9+8P4, Hilisao'oto, Kec. Lahusa, Kabupaten Nias Selatan, Sumatera Utara 22874;Hilisao'oto, Kec. Lahusa, Kabupaten Nias Selatan;SUMATERA UTARA;22874;Indonesia;85373401472;;;0.8382616;978.193.127;https://maps.google.com/?cid=0x0:0x891526a748b0d5b9;
mall;Grosir produk pertanian;UD.TANI MAKMUR{M.M};PVCR+9Q7, Jl. Hiliorudua, Bawozihono, Kec. Lahusa, Kabupaten Nias Selatan, Sumatera Utara;Kabupaten Nias Selatan, Sumatera Utara;SUMATERA UTARA;;Indonesia;;;;0.7209152;978.919.166;https://maps.google.com/?cid=0x0:0x7acd7ca179704602;
mall;Pembangunan Perumahan;Nurhayati tafonao;Jalan simpang gereja No.05, Sifaoroasi Gomo, Kec. Gomo, Kabupaten Nias Selatan, Sumatera Utara 22873;Sifaoroasi Gomo, Kec. Gomo, Kabupaten Nias Selatan;SUMATERA UTARA;22873;Indonesia;;;;0.8542467;978.072.921;https://maps.google.com/?cid=0x0:0x530d4e1e0cf261b2;
mall;Toko bahan makanan;Kedai YORIS D'LAW;RRJG+984, Tuhegewo, Desa Hilisao'ötö, Kec, Hilisao'oto, Kec. Sidua'ori, Kabupaten Nias Selatan, Sumatera Utara 22874;Tuhegewo, Desa Hilisao'ötö, Kec, Hilisao'oto, Kec. Sidua'ori, Kabupaten Nias Selatan;SUMATERA UTARA;22874;Indonesia;85106422356;;;0.8308818;978.258.194;https://maps.google.com/?cid=0x0:0x1aad1b09cda80bb9;
mall;Minimarket;CV BALIZATO;HR9C+VRJ, Ps. Tlk. Dalam, Kec. Tlk. Dalam, Kabupaten Nias Selatan, Sumatera Utara 22865;Ps. Tlk. Dalam, Kec. Tlk. Dalam, Kabupaten Nias Selatan;SUMATERA UTARA;22865;Indonesia;81375309828;;;0.5697197;978.220.197;https://maps.google.com/?cid=0x0:0x7d62b3e1e2ccf0d9;
mall;Pusat Perbelanjaan;Ud. Serasi Gomo;VR45+69F, Jl. Baru, Orahili Gomo, Kec. Gomo, Kabupaten Nias Selatan, Sumatera Utara;Kabupaten Nias Selatan, Sumatera Utara;SUMATERA UTARA;;Indonesia;;;;0.855551;978.084.288;https://maps.google.com/?cid=0x0:0x2acc1d7d105ad439;
mall;Tujuan Wisata;PUNCAK SURGA;Hilialawa, Kec. Somambawa, Kabupaten Nias Selatan, Sumatera Utara 07228;Kec. Somambawa, Kabupaten Nias Selatan;SUMATERA UTARA;7228;Indonesia;85297373291;;;0.8683051;978.961.742;https://maps.google.com/?cid=0x0:0x2e689531d44a5fb8;
mall;;SBK Swalayan;Jl. Jenderal Sudirman, Ps. Tlk. Dalam, Kec. Tlk. Dalam, Kabupaten Nias Selatan, Sumatera Utara 22865;Ps. Tlk. Dalam, Kec. Tlk. Dalam, Kabupaten Nias Selatan;SUMATERA UTARA;22865;Indonesia;81264950504;;;0.5665053;978.183.744;https://maps.google.com/?cid=0x0:0x29ddecefff3206;
mall;Toko Pakaian;grand bowo colection;HR9C+PHX, Jl. Diponegoro, Ps. Tlk. Dalam, Kec. Tlk. Dalam, Kabupaten Nias Selatan, Sumatera Utara 22865;Jl. Diponegoro, Ps. Tlk. Dalam, Kec. Tlk. Dalam, Kabupaten Nias Selatan;SUMATERA UTARA;22865;Indonesia;82366517450;;;0.5693657;978.214.882;https://maps.google.com/?cid=0x0:0x4786b042a8e82a40;
mall;Pusat Perbelanjaan;Kios Jesslyne;Dusun 02 Tuhewosi, Golambanua II, Kec. Somambawa, Kabupaten Nias Selatan, Sumatera Utara 22874;Golambanua II, Kec. Somambawa, Kabupaten Nias Selatan;SUMATERA UTARA;22874;Indonesia;;;;0.8685885;978.972.833;https://maps.google.com/?cid=0x0:0x1af1e84cfdac9e29;
mall;Pembangunan Perumahan;Saraina;QVQM+26V, Siwalubanua, Kec. Somambawa, Kabupaten Nias Selatan, Sumatera Utara;Kabupaten Nias Selatan, Sumatera Utara;SUMATERA UTARA;;Indonesia;;;;0.7876173;978.830.488;https://maps.google.com/?cid=0x0:0xcd1a6008e637eaa;
mall;Minimarket;ALFAMIDI LAHUSA;QV3G+XP9, Jl. Merdeka, Bawootalua, Kec. Lahusa, Kabupaten Nias Selatan, Sumatera Utara 22874;Jl. Merdeka, Bawootalua, Kec. Lahusa, Kabupaten Nias Selatan;SUMATERA UTARA;22874;Indonesia;;;;0.7549144;978.768.479;https://maps.google.com/?cid=0x0:0xce2d5e053f7a18c7;
mall;Pusat Perbelanjaan;UD. WENDRI;VR45+8CX, Sifaoroasi Gomo, Kec. Gomo, Kabupaten Nias Selatan, Sumatera Utara 22873;Sifaoroasi Gomo, Kec. Gomo, Kabupaten Nias Selatan;SUMATERA UTARA;22873;Indonesia;85373239789;;;0.8558626;978.086.188;https://maps.google.com/?cid=0x0:0xc961b13780b61b5f;
mall;mall;UD. BAHARI KECAMATAN LAHUSA;QV4H+96V, Unnamed Road, Bawootalua, Kec. Lahusa, Kabupaten Nias Selatan, Sumatera Utara 22874;Unnamed Road, Bawootalua, Kec. Lahusa, Kabupaten Nias Selatan;SUMATERA UTARA;22874;Indonesia;;;;0.7559754;978.780.522;https://maps.google.com/?cid=0x0:0x899325790559565;
mall;mall;Sumatera Utara 22867;Kabupaten Nias Selatan, Sumatera Utara;Kabupaten Nias Selatan, Sumatera Utara;SUMATERA UTARA;;Indonesia;;;;0.9212063;976.710.889;https://maps.google.com/?cid=0x0:0xe28ccee9e4064a40;
mall;Perhimpunan Pengembang Perumahan;Pasar Tuhemberua;Jl. Raya, Tuhemberua, Kec. Lolomatua, Kabupaten Nias Selatan, Sumatera Utara 22852;Tuhemberua, Kec. Lolomatua, Kabupaten Nias Selatan;SUMATERA UTARA;22852;Indonesia;;;;0.9136912;976.574.446;https://maps.google.com/?cid=0x0:0xc4161dfb2fca2112;
mall;Pasar;Pasar Togizita;WJ3C+QGF, Togizita, Kec. Hilimegai, Kabupaten Nias Selatan, Sumatera Utara 22864;Togizita, Kec. Hilimegai, Kabupaten Nias Selatan;SUMATERA UTARA;22864;Indonesia;;;;0.9044462;976.212.821;https://maps.google.com/?cid=0x0:0xf33ec7719d9407a6;
mall;Sekolah Menengah Umum;SMA Negeri 1 Lolomatua;WJVP+P8C, Jl. Ulunoyo Desa, Koendrafo, Kec. Lolomatua, Kabupaten Nias Selatan, Sumatera Utara 22867;Jl. Ulunoyo Desa, Koendrafo, Kec. Lolomatua, Kabupaten Nias Selatan;SUMATERA UTARA;22867;Indonesia;;;;0.9443018;97.635.768;https://maps.google.com/?cid=0x0:0x50c9f13cff4b7ef6;
mall;Pusat Perbelanjaan;Toko Syukur 2;Lolowau, Kec. Lalowau, Kabupaten Nias Selatan, Sumatera Utara 22864;Kec. Lalowau, Kabupaten Nias Selatan;SUMATERA UTARA;22864;Indonesia;81269526556;;;0.8931156;975.811.666;https://maps.google.com/?cid=0x0:0xfc79831999b28744;
mall;Pusat Perbelanjaan;UD. SABDANI;WJWP+HJH, Jl. Ulunoyo, Koendrafo, Pekan Hililaza, Kabupaten Nias Selatan, Sumatera Utara 22867;Jl. Ulunoyo, Koendrafo, Pekan Hililaza, Kabupaten Nias Selatan;SUMATERA UTARA;22867;Indonesia;;;;0.9464456;976.366.125;https://maps.google.com/?cid=0x0:0x7ffba5cab50921a2;
mall;Pusat Pendidikan;Ud.Charas;Jl. Umbunasi, Hiliwaebu, Kec. Lolomatua, Kabupaten Nias Selatan, Sumatera Utara 22852;Hiliwaebu, Kec. Lolomatua, Kabupaten Nias Selatan;SUMATERA UTARA;22852;Indonesia;81315370001;;;0.9159644;976.570.509;https://maps.google.com/?cid=0x0:0x295af1e9e18e2afe;
mall;Toko Swalayan;Kedai STEPHAN;VHQJ+3G8, Lolowau, Kec. Lalowau, Kabupaten Nias Selatan, Sumatera Utara 22864;Lolowau, Kec. Lalowau, Kabupaten Nias Selatan;SUMATERA UTARA;22864;Indonesia;82161257585;;;0.8876504;975.813.298;https://maps.google.com/?cid=0x0:0x70c32a4a8ec47fb5;
mall;Pusat Perbelanjaan;UD. SALMAN;RMFM+F9M, Fondrakoraya, Kec. Ulususua, Kabupaten Nias Selatan, Sumatera Utara 22864;Fondrakoraya, Kec. Ulususua, Kabupaten Nias Selatan;SUMATERA UTARA;22864;Indonesia;;;;0.8237206;976.834.067;https://maps.google.com/?cid=0x0:0xee5bc703fc6c907f;
mall;Toko;Ud. Ramos A.elima Halawa;VHVJ+XHF, Lolowau, Kec. Lalowau, Kabupaten Nias Selatan, Sumatera Utara 22864;Lolowau, Kec. Lalowau, Kabupaten Nias Selatan;SUMATERA UTARA;22864;Indonesia;82164252043;;;0.8949477;975.814.274;https://maps.google.com/?cid=0x0:0xf25e9d7b33a4cb9c;
mall;Toko umum;UD Nanda Ndr;WJ59+X47, Satu, Togizita, Hilimegai, South Nias Regency, North Sumatra 22864;Satu, Togizita, Hilimegai, South Nias Regency;SUMATERA UTARA;22864;Indonesia;81362415596;;;0.9099197;976.178.029;https://maps.google.com/?cid=0x0:0x65494df3626addb3;
mall;Pusat Perbelanjaan;UD. PUTRI;VHRJ+R9P, Lolofaoso, Kec. Lalowau, Kabupaten Nias Selatan, Sumatera Utara 22864;Lolofaoso, Kec. Lalowau, Kabupaten Nias Selatan;SUMATERA UTARA;22864;Indonesia;;;;0.8919339;97.580.667;https://maps.google.com/?cid=0x0:0x1bb56ec7ffd33239;
mall;Toko Swalayan;UD.PUTRA;Lolowau, Kec. Lalowau, Kabupaten Nias Selatan, Sumatera Utara 22864;Kec. Lalowau, Kabupaten Nias Selatan;SUMATERA UTARA;22864;Indonesia;85275528548;;;0.8925534;975.811.739;https://maps.google.com/?cid=0x0:0x642f1669515e4b6d;
mall;Pusat Perbelanjaan;Pasar Loloanaa;Loloana'a, Desa, Halifadolo, Kec. Moro'o, Kabupaten Nias Barat, Sumatera Utara 22862;Desa, Halifadolo, Kec. Moro'o, Kabupaten Nias Barat;SUMATERA UTARA;22862;Indonesia;;;;10.603.899;974.340.667;https://maps.google.com/?cid=0x0:0x9d68e27112add1;
mall;mall;Kec. Lolomatua;Kabupaten Nias Selatan, Sumatera Utara;Kabupaten Nias Selatan, Sumatera Utara;SUMATERA UTARA;;Indonesia;;;;0.9455707;9.763.671;https://maps.google.com/?cid=0x0:0xfda47f2e74ee6228;
mall;Pusat Perbelanjaan;Laoli Lian;99X3+HHV, Lawira Satua, Kec. Lotu, Kabupaten Nias Utara, Sumatera Utara 22851;Lawira Satua, Kec. Lotu, Kabupaten Nias Utara;SUMATERA UTARA;22851;Indonesia;82167075853;;;13.989.817;973.539.368;https://maps.google.com/?cid=0x0:0x56169d8728382d20;
mall;Toko;UD.BALOIDO;2JMG+83V, Balodano, Kec. Ma'u, Kabupaten Nias, Sumatera Utara 22852;Balodano, Kec. Ma'u, Kabupaten Nias;SUMATERA UTARA;22852;Indonesia;;;;10.333.733;976.251.581;https://maps.google.com/?cid=0x0:0x854480e49851876b;
mall;mall;Los Pekan Desa Sifaoro'asi;2J2Q+F8W, Desa, Sifaoro'asi, Kec. Huruna, Kabupaten Nias Selatan, Sumatera Utara 22871;Desa, Sifaoro'asi, Kec. Huruna, Kabupaten Nias Selatan;SUMATERA UTARA;22871;Indonesia;;;;10.012.348;976.383.229;https://maps.google.com/?cid=0x0:0x47c5a3487785cd9c;
mall;mall;Toko HUGO (GIAWA S.);Lolowau, Kec. Lalowau, Kabupaten Nias Selatan, Sumatera Utara 22864;Kec. Lalowau, Kabupaten Nias Selatan;SUMATERA UTARA;22864;Indonesia;;;;0.8982856;975.806.455;https://maps.google.com/?cid=0x0:0x4252179339a6f98a;
mall;Toko;Ud. Ramos A.elima Halawa;VHVJ+XHF, Lolowau, Kec. Lalowau, Kabupaten Nias Selatan, Sumatera Utara 22864;Lolowau, Kec. Lalowau, Kabupaten Nias Selatan;SUMATERA UTARA;22864;Indonesia;82164252043;;;0.8949477;975.814.274;https://maps.google.com/?cid=0x0:0xf25e9d7b33a4cb9c;
mall;mall;Sumatera Utara 22864;Fadoro Ewo, Kec. Onohazumba, Sumatera Utara;Sumatera Utara;SUMATERA UTARA;;Indonesia;;;;0.9546136;975.463.885;https://maps.google.com/?cid=0x0:0x375fb153a9e5ec99;
mall;Toko Swalayan;Kedai STEPHAN;VHQJ+3G8, Lolowau, Kec. Lalowau, Kabupaten Nias Selatan, Sumatera Utara 22864;Lolowau, Kec. Lalowau, Kabupaten Nias Selatan;SUMATERA UTARA;22864;Indonesia;82161257585;;;0.8876504;975.813.298;https://maps.google.com/?cid=0x0:0x70c32a4a8ec47fb5;
mall;Toko Swalayan;UD.PUTRA;Lolowau, Kec. Lalowau, Kabupaten Nias Selatan, Sumatera Utara 22864;Kec. Lalowau, Kabupaten Nias Selatan;SUMATERA UTARA;22864;Indonesia;85275528548;;;0.8925534;975.811.739;https://maps.google.com/?cid=0x0:0x642f1669515e4b6d;
mall;Pusat Perbelanjaan;UD.ERNI;VHRJ+85R, Unnamed Road, Lolowau, Kec. Lalowau, Kabupaten Nias Selatan, Sumatera Utara 22864;Unnamed Road, Lolowau, Kec. Lalowau, Kabupaten Nias Selatan;SUMATERA UTARA;22864;Indonesia;;;;0.8908567;975.803.944;https://maps.google.com/?cid=0x0:0x586bb7786e3b947d;
mall;Kantor Pemerintah;Desa Lolowau;VHWG+367, Lolowau, Kec. Lalowau, Kabupaten Nias Selatan, Sumatera Utara;Kabupaten Nias Selatan, Sumatera Utara;SUMATERA UTARA;;Indonesia;;;;0.895244;97.576.678;https://maps.google.com/?cid=0x0:0xa65c43605ee89f5;
mall;Pasar tradisional;Harimbale Duria;2JJ4+GR4, Jl. Lōlōwa'u, Ehosakhozi, Lolowau, Kabupaten Nias Selatan, Sumatera Utara 22852;Jl. Lōlōwa'u, Ehosakhozi, Lolowau, Kabupaten Nias Selatan;SUMATERA UTARA;22852;Indonesia;83879305604;;;10.312.725;976.070.851;https://maps.google.com/?cid=0x0:0x6a6b9f47203b7d0e;
mall;Pusat Perbelanjaan;UD. PUTRI;VHRJ+R9P, Lolofaoso, Kec. Lalowau, Kabupaten Nias Selatan, Sumatera Utara 22864;Lolofaoso, Kec. Lalowau, Kabupaten Nias Selatan;SUMATERA UTARA;22864;Indonesia;;;;0.8919339;97.580.667;https://maps.google.com/?cid=0x0:0x1bb56ec7ffd33239;
mall;mall;Onombiniö Amariani Giawa Asasöndü Sebua Lolowau;VH6Q+7RW, Jl. Amuri, Sisarahili Ekholo, Kec. Lalowau, Kabupaten Nias Selatan, Sumatera Utara 22864;Jl. Amuri, Sisarahili Ekholo, Kec. Lalowau, Kabupaten Nias Selatan;SUMATERA UTARA;22864;Indonesia;;;;0.8607441;975.895.696;https://maps.google.com/?cid=0x0:0xb27ebb47d114abc5;
mall;mall;Kec. Lalowau;Kabupaten Nias Selatan, Sumatera Utara;Kabupaten Nias Selatan, Sumatera Utara;SUMATERA UTARA;;Indonesia;;;;0.8987401;975.807.578;https://maps.google.com/?cid=0x0:0xf95176532e196f80;
mall;mall;Kec. Maniamolo;Kabupaten Nias Selatan, Sumatera Utara;Kabupaten Nias Selatan, Sumatera Utara;SUMATERA UTARA;;Indonesia;;;;0.6692396;977.345.621;https://maps.google.com/?cid=0x0:0xf48d422cb70255ad;
mall;Pasar;Pekan So'onogeu Hilisimaetano;MPCM+3M4, Desa Pekan, Hilisimaetano, Kec. Maniamolo, Kabupaten Nias Selatan, Sumatera Utara 22866;Desa Pekan, Hilisimaetano, Kec. Maniamolo, Kabupaten Nias Selatan;SUMATERA UTARA;22866;Indonesia;;;;0.6701341;977.342.094;https://maps.google.com/?cid=0x0:0xe183ccc071d8e3a4;
mall;Toko umum;UD. Roni/Nira;MP9M+MVR, Hilisimaetano, Kec. Maniamolo, Kabupaten Nias Selatan, Sumatera Utara;Kabupaten Nias Selatan, Sumatera Utara;SUMATERA UTARA;;Indonesia;;;;0.6692472;977.346.253;https://maps.google.com/?cid=0x0:0x3c7872691dc08469;
mall;mall;Pasar Tradisional So'onogeu, Maniamolo, Kab.Nias Selatan;MP2R+WJV, Jl. Maniamolo Raya, Hilisimaetano, Kec. Maniamolo, Kabupaten Nias Selatan, Sumatera Utara 22865;Jl. Maniamolo Raya, Hilisimaetano, Kec. Maniamolo, Kabupaten Nias Selatan;SUMATERA UTARA;22865;Indonesia;;;;0.6523631;977.415.344;https://maps.google.com/?cid=0x0:0xc4e963180832cce8;
mall;mall;Harimbale SO'ONOGEU;MP3R+P5Q, Jl. Hilisimaetano, Hilisimaetano, Kec. Tlk. Dalam, Kabupaten Nias Selatan, Sumatera Utara 22865;Jl. Hilisimaetano, Hilisimaetano, Kec. Tlk. Dalam, Kabupaten Nias Selatan;SUMATERA UTARA;22865;Indonesia;85265798389;;;0.6543395;977.404.832;https://maps.google.com/?cid=0x0:0x88cc70e43e7156e0;
mall;mall;Harimbale So'onogeu;JPVJ+58M, Hilisimaetano, Kec. Maniamolo, Kabupaten Nias Selatan, Sumatera Utara 22865;Hilisimaetano, Kec. Maniamolo, Kabupaten Nias Selatan;SUMATERA UTARA;22865;Indonesia;;;;0.6429536;97.730.807;https://maps.google.com/?cid=0x0:0xcefcca9fd6729497;
mall;mall;Kec. Mazino;Kabupaten Nias Selatan, Sumatera Utara;Kabupaten Nias Selatan, Sumatera Utara;SUMATERA UTARA;;Indonesia;;;;0.7077305;978.529.239;https://maps.google.com/?cid=0x0:0x1008d7e391715f91;
mall;mall;Saudara Tailor;PVW2+XCX Hiliorahua, Oikhoda Balaekha, Hilisimaetano, Kec. Lahusa, Kabupaten Nias Selatan, Sumatera Utara 22865;Oikhoda Balaekha, Hilisimaetano, Kec. Lahusa, Kabupaten Nias Selatan;SUMATERA UTARA;22865;Indonesia;82294743640;;;0.747482;978.511.199;https://maps.google.com/?cid=0x0:0x2b153d41cedb39a6;
mall;Pusat Perbelanjaan;Medan Mall;Jl. M. T. Haryono No.8, Pusat Ps., Kec. Medan Kota, Kota Medan, Sumatera Utara 20212;Pusat Ps., Kec. Medan Kota, Kota Medan;SUMATERA UTARA;20212;Indonesia;614531800;;;358.767;986.867.939;https://maps.google.com/?cid=0x0:0x19be424c62eb0f57;
mall;Pusat Perbelanjaan;Lippo Mall Puri;Jl. Puri Indah Raya Blok U 1, RT.3/RW.2, Kembangan Sel., Kec. Kembangan, Kota Jakarta Barat, Daerah Khusus Ibukota Jakarta 11610;RT.3/RW.2, Kembangan Sel., Kec. Kembangan, Kota Jakarta Barat;SUMATERA UTARA;11610;Indonesia;2129111111;;;-61.884.554;1.067.389.094;https://maps.google.com/?cid=0x0:0x41cca4768f8bf65b;
mall;Pusat Perbelanjaan;Puri Indah Mall;Jl. Puri Agung No.1, Kembangan Sel., Kec. Kembangan, Kota Jakarta Barat, Daerah Khusus Ibukota Jakarta 11610;Kembangan Sel., Kec. Kembangan, Kota Jakarta Barat;SUMATERA UTARA;11610;Indonesia;215822582;;;-61.890.746;1.067.334.914;https://maps.google.com/?cid=0x0:0x6653aecc17740a12;
mall;Pusat Perbelanjaan;C4 Mall puri indah;West Jakarta No.1 2, RT.1/RW.2, South Kembangan, Kembangan, West Jakarta City, Jakarta 11610;RT.1/RW.2, South Kembangan, Kembangan, West Jakarta City;SUMATERA UTARA;11610;Indonesia;;;;-61.880.104;1.067.340.969;https://maps.google.com/?cid=0x0:0xf14d6339023c70c;
mall;Kantor Perusahaan;Lippo Puri Tower;puri boulevard blok U1 CBD Indah, Jalan Meruya Utara, RT.3/RW.2, Kembangan Sel., Kec. Kembangan, Kota Jakarta Barat, Daerah Khusus Ibukota Jakarta 11620;Jalan Meruya Utara, RT.3/RW.2, Kembangan Sel., Kec. Kembangan, Kota Jakarta Barat;SUMATERA UTARA;11620;Indonesia;;;;-61.884.677;1.067.384.497;https://maps.google.com/?cid=0x0:0xabcb9ed64147e644;
mall;Restoran;Rumah Makan Padang 7 Datuak;Lippo mall, lantai LG, RT.3/RW.2, South Kembangan, Kembangan, West Jakarta City, Jakarta 11610;lantai LG, RT.3/RW.2, South Kembangan, Kembangan, West Jakarta City;SUMATERA UTARA;11610;Indonesia;;;;-61.887.254;1.067.379.368;https://maps.google.com/?cid=0x0:0x37f1358530af3ace;
mall;Toko Swalayan;The FoodHall Lippo Mall Puri;Lippo Mall Puri, Jl. Kembang Kerep No.25, RT.3/RW.2, South Kembangan, Kembangan, West Jakarta City, Jakarta 11610;Jl. Kembang Kerep No.25, RT.3/RW.2, South Kembangan, Kembangan, West Jakarta City;SUMATERA UTARA;11610;Indonesia;85133369935;;;-61.876.277;1.067.395.002;https://maps.google.com/?cid=0x0:0x9105e9a734565606;
mall;Jepang;Ramen YA! Lippo Mall Puri;Lippo Mall Puri, LG -15, Kembangan Sel., Kec. Kembangan, Kota Jakarta Barat, Daerah Khusus Ibukota Jakarta 11620;LG -15, Kembangan Sel., Kec. Kembangan, Kota Jakarta Barat;SUMATERA UTARA;11620;Indonesia;;;;-61.885.136;1.067.388.358;https://maps.google.com/?cid=0x0:0xe881ff0ad54d74d3;
mall;Pusat Perbelanjaan;Medan Mall;Jl. M. T. Haryono No.8, Pusat Ps., Kec. Medan Kota, Kota Medan, Sumatera Utara 20212;Pusat Ps., Kec. Medan Kota, Kota Medan;SUMATERA UTARA;20212;Indonesia;614531800;;;358.767;986.867.939;https://maps.google.com/?cid=0x0:0x19be424c62eb0f57;
mall;Pusat Perbelanjaan;Lippo Plaza Medan;Jl. Imam Bonjol No.6, Suka Damai, Kec. Medan Polonia, Kota Medan, Sumatera Utara 20112;Suka Damai, Kec. Medan Polonia, Kota Medan;SUMATERA UTARA;20112;Indonesia;6180511111;;;35.864.512;986.733.531;https://maps.google.com/?cid=0x0:0xb3196f95b6d5cdd4;
mall;Pusat Perbelanjaan;Mall Centre Point (Medan);Jl. Jawa No.8, Gg. Buntu, Kec. Medan Tim., Kota Medan, Sumatera Utara 20231;Gg. Buntu, Kec. Medan Tim., Kota Medan;SUMATERA UTARA;20231;Indonesia;6180510733;;;35.915.164;986.806.315;https://maps.google.com/?cid=0x0:0x4d9985cafc1a23c6;
mall;Masjid;Masjid Raya Pusat Pasar Medan;Jl. Pusat Pasar No.4, Pusat Ps., Kec. Medan Kota, Kota Medan, Sumatera Utara 20212;Pusat Ps., Kec. Medan Kota, Kota Medan;SUMATERA UTARA;20212;Indonesia;;;;35.905.356;986.854.378;https://maps.google.com/?cid=0x0:0xdf3f8854b683626f;
mall;Pusat Perbelanjaan;Gajah Mada Plaza Mall;Jl. Gajah Mada No.19 26, RT.2/RW.1, North Petojo, Gambir, Central Jakarta City, Jakarta 10130;RT.2/RW.1, North Petojo, Gambir, Central Jakarta City;SUMATERA UTARA;10130;Indonesia;2163858888;;;-61.607.576;1.068.187.836;https://maps.google.com/?cid=0x0:0x66b6d7b7ea79dc8a;
mall;Pusat Perbelanjaan;Mall Senayan City;Jl. Asia Afrika No.Lot 19, Gelora, Kecamatan Tanah Abang, Kota Jakarta Pusat, Daerah Khusus Ibukota Jakarta 10270;Gelora, Kecamatan Tanah Abang, Kota Jakarta Pusat;SUMATERA UTARA;10270;Indonesia;2172781000;;;-62.271.953;1.067.970.117;https://maps.google.com/?cid=0x0:0x300c043104acc004;
mall;Pusat Perbelanjaan;Pondok Indah Mall 1;Jl. Metro Pondok Indah No.Kav. 4, RT.1/RW.16, Pd. Pinang, Kec. Kby. Lama, Kota Jakarta Selatan, Daerah Khusus Ibukota Jakarta 12310;RT.1/RW.16, Pd. Pinang, Kec. Kby. Lama, Kota Jakarta Selatan;SUMATERA UTARA;12310;Indonesia;217506750;;;-62.652.166;1.067.843.165;https://maps.google.com/?cid=0x0:0x682837113c4ea854;
mall;Pusat Perbelanjaan;Grand Indonesia Shopping Town;Jl. M.H. Thamrin No.1, Menteng, Kec. Menteng, Kota Jakarta Pusat, Daerah Khusus Ibukota Jakarta 10310;Menteng, Kec. Menteng, Kota Jakarta Pusat;SUMATERA UTARA;10310;Indonesia;2123580001;;;-61.965.848;1.068.224.882;https://maps.google.com/?cid=0x0:0xccfcc89b95aaf1ae;
mall;Pusat Perbelanjaan;Summarecon Mall Kelapa Gading;Jl. Boulevard Raya, Klp. Gading Tim., Kec. Klp. Gading, Jkt Utara, Daerah Khusus Ibukota Jakarta 14240;Klp. Gading Tim., Kec. Klp. Gading, Jkt Utara;SUMATERA UTARA;14240;Indonesia;214531101;;;-61.572.666;1.069.084.263;https://maps.google.com/?cid=0x0:0x1c1a278e20ff1c47;
mall;Pusat Perbelanjaan;Grand Indonesia;Jl. MH Thamrin No.1, Menteng, Kec. Menteng, Kota Jakarta Pusat, Daerah Khusus Ibukota Jakarta 10310;Menteng, Kec. Menteng, Kota Jakarta Pusat;SUMATERA UTARA;10310;Indonesia;2123580001;;;-61.950.412;1.068.210.081;https://maps.google.com/?cid=0x0:0xb04ce66a7cb711d9;
mall;Pusat Perbelanjaan;Plaza Indonesia;Jl. M.H. Thamrin No.Kav.28-30, Gondangdia, Kec. Menteng, Kota Jakarta Pusat, Daerah Khusus Ibukota Jakarta 10350;Gondangdia, Kec. Menteng, Kota Jakarta Pusat;SUMATERA UTARA;10350;Indonesia;2129920000;;;-61.935.977;1.068.219.468;https://maps.google.com/?cid=0x0:0x7d7fe17ad64a053f;
mall;Pusat Perbelanjaan;Pusat Grosir Metro tanah abang;Jl. H. Fachrudin, RT.14/RW.6, Karet Tengsin, Kecamatan Tanah Abang, Kota Jakarta Pusat, Daerah Khusus Ibukota Jakarta 10240;RT.14/RW.6, Karet Tengsin, Kecamatan Tanah Abang, Kota Jakarta Pusat;SUMATERA UTARA;10240;Indonesia;;;;-61.876.243;1.068.156.726;https://maps.google.com/?cid=0x0:0x39d0ae97f402e6a;
mall;Toserba;Matahari Department Store Medan Mall;Medan Mall, Jl. M. T. Haryono No.8, RW.9, Pusat Ps., Kec. Medan Kota, Kota Medan, Sumatera Utara 20212;Jl. M. T. Haryono No.8, RW.9, Pusat Ps., Kec. Medan Kota, Kota Medan;SUMATERA UTARA;20212;Indonesia;614565453;;;35.879.808;986.866.675;https://maps.google.com/?cid=0x0:0x64721bb0d786ef55;
mall;mall;Kec. O'o'u;Kabupaten Nias Selatan, Sumatera Utara;Kabupaten Nias Selatan, Sumatera Utara;SUMATERA UTARA;;Indonesia;;;;0.8277964;976.254.226;https://maps.google.com/?cid=0x0:0x8404a2fec6ebbce2;
mall;Toko;UD.ALVARO;RJ9H+2WG, Simpang Empat, Hilinamazihono, Tlk. Dalam, Kabupaten Nias Selatan, Sumatera Utara 22864;Simpang Empat, Hilinamazihono, Tlk. Dalam, Kabupaten Nias Selatan;SUMATERA UTARA;22864;Indonesia;82367484222;;;0.8175608;976.298.367;https://maps.google.com/?cid=0x0:0xd5e4c8ecaac937c5;
mall;Pusat Perbelanjaan;Pekan Godu Desa Susua kecamatan Ulususua;RP33+GJ6, kampung Godu Desa Susua, Ramba-Ramba, Kec. Ulususua, Kabupaten Nias Selatan, Sumatera Utara 22866;kampung Godu Desa Susua, Ramba-Ramba, Kec. Ulususua, Kabupaten Nias Selatan;SUMATERA UTARA;22866;Indonesia;;;;0.8037753;977.040.015;https://maps.google.com/?cid=0x0:0x241b5395f28b980c;
mall;Pasar;Los Pekan Kec. Amandraya;QM49+83G, Unnamed Road, Tuindrao, Kec. Amandraya, Kabupaten Nias Selatan, Sumatera Utara 22866;Unnamed Road, Tuindrao, Kec. Amandraya, Kabupaten Nias Selatan;SUMATERA UTARA;22866;Indonesia;;;;0.7558085;976.677.084;https://maps.google.com/?cid=0x0:0xe1698cc61a6aa55c;
mall;Pusat Perbelanjaan;UD. SALMAN;RMFM+F9M, Fondrakoraya, Kec. Ulususua, Kabupaten Nias Selatan, Sumatera Utara 22864;Fondrakoraya, Kec. Ulususua, Kabupaten Nias Selatan;SUMATERA UTARA;22864;Indonesia;;;;0.8237206;976.834.067;https://maps.google.com/?cid=0x0:0xee5bc703fc6c907f;
mall;Pusat Perbelanjaan;Summarecon Mall Kelapa Gading;Jl. Boulevard Raya, Klp. Gading Tim., Kec. Klp. Gading, Jkt Utara, Daerah Khusus Ibukota Jakarta 14240;Klp. Gading Tim., Kec. Klp. Gading, Jkt Utara;SUMATERA UTARA;14240;Indonesia;214531101;;;-61.572.666;1.069.084.263;https://maps.google.com/?cid=0x0:0x1c1a278e20ff1c47;
mall;Pusat Perbelanjaan;Aozo Olshop;No.52, RT.25/RW.3, Kb. Manggis, Kec. Matraman, Kota Jakarta Timur, Daerah Khusus Ibukota Jakarta 13150;RT.25/RW.3, Kb. Manggis, Kec. Matraman, Kota Jakarta Timur;SUMATERA UTARA;13150;Indonesia;81218145282;;;-62.083.799;1.068.525.237;https://maps.google.com/?cid=0x0:0xfe83f66cc9bfb1db;
mall;Toko Swalayan;Kedai STEPHAN;VHQJ+3G8, Lolowau, Kec. Lalowau, Kabupaten Nias Selatan, Sumatera Utara 22864;Lolowau, Kec. Lalowau, Kabupaten Nias Selatan;SUMATERA UTARA;22864;Indonesia;82161257585;;;0.8876504;975.813.298;https://maps.google.com/?cid=0x0:0x70c32a4a8ec47fb5;
mall;mall;Kec. Onohazumba;Kabupaten Nias Selatan, Sumatera Utara;Kabupaten Nias Selatan, Sumatera Utara;SUMATERA UTARA;;Indonesia;;;;0.9512675;97.593.993;https://maps.google.com/?cid=0x0:0xeea8d49c9a6e5f0c;
mall;Gereja;Ono hazumba;XH2V+GJ2, Soroma'asi, Kec. Onohazumba, Kabupaten Nias Selatan, Sumatera Utara;Kabupaten Nias Selatan, Sumatera Utara;SUMATERA UTARA;;Indonesia;;;;0.9512746;975.940.153;https://maps.google.com/?cid=0x0:0xbaf5fc5d61ec4a37;
mall;Toko;Ud. Ramos A.elima Halawa;VHVJ+XHF, Lolowau, Kec. Lalowau, Kabupaten Nias Selatan, Sumatera Utara 22864;Lolowau, Kec. Lalowau, Kabupaten Nias Selatan;SUMATERA UTARA;22864;Indonesia;82164252043;;;0.8949477;975.814.274;https://maps.google.com/?cid=0x0:0xf25e9d7b33a4cb9c;
mall;Pusat Perbelanjaan;Toko Syukur 2;Lolowau, Kec. Lalowau, Kabupaten Nias Selatan, Sumatera Utara 22864;Kec. Lalowau, Kabupaten Nias Selatan;SUMATERA UTARA;22864;Indonesia;81269526556;;;0.8931156;975.811.666;https://maps.google.com/?cid=0x0:0xfc79831999b28744;
mall;Pusat Perbelanjaan;UD.ERNI;VHRJ+85R, Unnamed Road, Lolowau, Kec. Lalowau, Kabupaten Nias Selatan, Sumatera Utara 22864;Unnamed Road, Lolowau, Kec. Lalowau, Kabupaten Nias Selatan;SUMATERA UTARA;22864;Indonesia;;;;0.8908567;975.803.944;https://maps.google.com/?cid=0x0:0x586bb7786e3b947d;
mall;Pasar tradisional;Harimbale Duria;2JJ4+GR4, Jl. Lōlōwa'u, Ehosakhozi, Lolowau, Kabupaten Nias Selatan, Sumatera Utara 22852;Jl. Lōlōwa'u, Ehosakhozi, Lolowau, Kabupaten Nias Selatan;SUMATERA UTARA;22852;Indonesia;83879305604;;;10.312.725;976.070.851;https://maps.google.com/?cid=0x0:0x6a6b9f47203b7d0e;
mall;Toko umum;UD Nanda Ndr;WJ59+X47, Satu, Togizita, Hilimegai, South Nias Regency, North Sumatra 22864;Satu, Togizita, Hilimegai, South Nias Regency;SUMATERA UTARA;22864;Indonesia;81362415596;;;0.9099197;976.178.029;https://maps.google.com/?cid=0x0:0x65494df3626addb3;
mall;Pusat Perbelanjaan;UD. PUTRI;VHRJ+R9P, Lolofaoso, Kec. Lalowau, Kabupaten Nias Selatan, Sumatera Utara 22864;Lolofaoso, Kec. Lalowau, Kabupaten Nias Selatan;SUMATERA UTARA;22864;Indonesia;;;;0.8919339;97.580.667;https://maps.google.com/?cid=0x0:0x1bb56ec7ffd33239;
mall;Sekolah pendidikan umum;SMAN 1 ONOHAZUMBA;Sisarahili Oyo, Kec. Onohazumba, Kabupaten Nias Selatan, Sumatera Utara 22864;Kec. Onohazumba, Kabupaten Nias Selatan;SUMATERA UTARA;22864;Indonesia;;;;0.9432119;975.976.675;https://maps.google.com/?cid=0x0:0xab3f7c0ab11933f9;
mall;Toko Swalayan;UD.PUTRA;Lolowau, Kec. Lalowau, Kabupaten Nias Selatan, Sumatera Utara 22864;Kec. Lalowau, Kabupaten Nias Selatan;SUMATERA UTARA;22864;Indonesia;85275528548;;;0.8925534;975.811.739;https://maps.google.com/?cid=0x0:0x642f1669515e4b6d;
mall;Toko;UD. Zainal;Depan Pasar Pekan, Lawelu, Kec. Ulu Moro'o, Kabupaten Nias Barat, Sumatera Utara 22862;Lawelu, Kec. Ulu Moro'o, Kabupaten Nias Barat;SUMATERA UTARA;22862;Indonesia;85370948288;;;1.012.439;975.349.202;https://maps.google.com/?cid=0x0:0xe7cc2d57c74e9013;
mall;Pusat Perbelanjaan;UD. SABDANI;WJWP+HJH, Jl. Ulunoyo, Koendrafo, Pekan Hililaza, Kabupaten Nias Selatan, Sumatera Utara 22867;Jl. Ulunoyo, Koendrafo, Pekan Hililaza, Kabupaten Nias Selatan;SUMATERA UTARA;22867;Indonesia;;;;0.9464456;976.366.125;https://maps.google.com/?cid=0x0:0x7ffba5cab50921a2;
mall;Pasar;Pekan So'onogeu Hilisimaetano;MPCM+3M4, Desa Pekan, Hilisimaetano, Kec. Maniamolo, Kabupaten Nias Selatan, Sumatera Utara 22866;Desa Pekan, Hilisimaetano, Kec. Maniamolo, Kabupaten Nias Selatan;SUMATERA UTARA;22866;Indonesia;;;;0.6701341;977.342.094;https://maps.google.com/?cid=0x0:0xe183ccc071d8e3a4;
mall;Toko;UD.ALVARO;RJ9H+2WG, Simpang Empat, Hilinamazihono, Tlk. Dalam, Kabupaten Nias Selatan, Sumatera Utara 22864;Simpang Empat, Hilinamazihono, Tlk. Dalam, Kabupaten Nias Selatan;SUMATERA UTARA;22864;Indonesia;82367484222;;;0.8175608;976.298.367;https://maps.google.com/?cid=0x0:0xd5e4c8ecaac937c5;
mall;Pusat Perbelanjaan;UD. USAHA BARU;2JM4+9HV, Sisobawino II, Kec. Lolofitu Moi, Kabupaten Nias Barat, Sumatera Utara 22852;Sisobawino II, Kec. Lolofitu Moi, Kabupaten Nias Barat;SUMATERA UTARA;22852;Indonesia;;;;10.334.893;976.064.207;https://maps.google.com/?cid=0x0:0xa807eddac4dc4b38;
mall;mall;Harimbale So'onogeu;JPVJ+58M, Hilisimaetano, Kec. Maniamolo, Kabupaten Nias Selatan, Sumatera Utara 22865;Hilisimaetano, Kec. Maniamolo, Kabupaten Nias Selatan;SUMATERA UTARA;22865;Indonesia;;;;0.6429536;97.730.807;https://maps.google.com/?cid=0x0:0xcefcca9fd6729497;
mall;Sekolah menengah;SMK NEGERI 1 ONOHAZUMBA;XH8H+6RM, Fadoro Ewo, Kec. Lalowau, Kabupaten Nias Selatan, Sumatera Utara 22864;Fadoro Ewo, Kec. Lalowau, Kabupaten Nias Selatan;SUMATERA UTARA;22864;Indonesia;;;;0.9655824;975.795.582;https://maps.google.com/?cid=0x0:0x41657f75a5e07be0;
mall;Toko;UD.BALOIDO;2JMG+83V, Balodano, Kec. Ma'u, Kabupaten Nias, Sumatera Utara 22852;Balodano, Kec. Ma'u, Kabupaten Nias;SUMATERA UTARA;22852;Indonesia;;;;10.333.733;976.251.581;https://maps.google.com/?cid=0x0:0x854480e49851876b;
mall;mall;Kec. Pulau-Pulau Batu;Kabupaten Nias Selatan, Sumatera Utara;Kabupaten Nias Selatan, Sumatera Utara;SUMATERA UTARA;;Indonesia;;;;-0.0523019;982.824.655;https://maps.google.com/?cid=0x0:0xc69c3107fbcddb60;
mall;Pusat Perbelanjaan;Bipang LIEONNO;W7WM+F56, Ps. Pulau Tello, Kec. Pulau-Pulau Batu, Kabupaten Nias Selatan, Sumatera Utara 22881;Ps. Pulau Tello, Kec. Pulau-Pulau Batu, Kabupaten Nias Selatan;SUMATERA UTARA;22881;Indonesia;81397000770;;;-0.0538397;982.828.963;https://maps.google.com/?cid=0x0:0x30ad120962e568e7;
mall;Toserba;TOKO HBM;W7XM+G8P, jln. Raja sitipu, Ps. Pulau Tello, Kec. Pulau-Pulau Batu, Kabupaten Nias Selatan, Sumatera Utara 22881;jln. Raja sitipu, Ps. Pulau Tello, Kec. Pulau-Pulau Batu, Kabupaten Nias Selatan;SUMATERA UTARA;22881;Indonesia;;;;-0.0511654;982.833.425;https://maps.google.com/?cid=0x0:0x57e9b9b4fcaf33c;
mall;Pusat Perbelanjaan;Toko ATK Sejahtera;W7XM+W5H, Ps. Pulau Tello, Kec. Pulau-Pulau Batu, Kabupaten Nias Selatan, Sumatera Utara 22881;Ps. Pulau Tello, Kec. Pulau-Pulau Batu, Kabupaten Nias Selatan;SUMATERA UTARA;22881;Indonesia;85214034177;;;-0.0501824;982.829.996;https://maps.google.com/?cid=0x0:0x4f5fcb764c02ec67;
mall;Pusat Perbelanjaan;Toko ATK FANBERS Pulau Tello;X72M+H6X, Ps. Pulau Tello, Kec. Pulau-Pulau Batu, Kabupaten Nias Selatan, Sumatera Utara 22881;Ps. Pulau Tello, Kec. Pulau-Pulau Batu, Kabupaten Nias Selatan;SUMATERA UTARA;22881;Indonesia;82369686330;;;-0.0485223;982.830.944;https://maps.google.com/?cid=0x0:0xf91d2b7dbe18246e;
mall;mall;UD. IWADA;Jl. Raja Sitepu No.67a, Ps. Pulau Tello, Kampung Cina, Kabupaten Nias Selatan, Sumatera Utara;Kabupaten Nias Selatan, Sumatera Utara;SUMATERA UTARA;;Indonesia;82272878208;;;-0.0561462;982.834.958;https://maps.google.com/?cid=0x0:0x2876a7fccc6931f6;
mall;mall;Kec. Pulau-pulau Batu Barat;Kabupaten Nias Selatan, Sumatera Utara;Kabupaten Nias Selatan, Sumatera Utara;SUMATERA UTARA;;Indonesia;;;;-0.1375886;983.423.066;https://maps.google.com/?cid=0x0:0x9fa58cf04fda20ae;
mall;mall;Kec. Pulau-Pulau Batu;Kabupaten Nias Selatan, Sumatera Utara;Kabupaten Nias Selatan, Sumatera Utara;SUMATERA UTARA;;Indonesia;;;;-0.0523019;982.824.655;https://maps.google.com/?cid=0x0:0xc69c3107fbcddb60;
mall;Toserba;TelloKu;W7WM+876, Ps. Pulau Tello, Kec. Pulau-Pulau Batu, Kabupaten Nias Selatan, Sumatera Utara 22881;Ps. Pulau Tello, Kec. Pulau-Pulau Batu, Kabupaten Nias Selatan;SUMATERA UTARA;22881;Indonesia;81380572941;;;-0.0542014;982.831.379;https://maps.google.com/?cid=0x0:0xf71adeed03d89447;
mall;Pusat Perbelanjaan;Toserba Pulau Tello;W7XM+C63, Jl. Ps. Atas, Ps. Pulau Tello, Kec. Pulau-Pulau Batu, Kabupaten Nias Selatan, Sumatera Utara 22881;Jl. Ps. Atas, Ps. Pulau Tello, Kec. Pulau-Pulau Batu, Kabupaten Nias Selatan;SUMATERA UTARA;22881;Indonesia;85262273708;;;-0.0514854;982.830.428;https://maps.google.com/?cid=0x0:0xa6fc1b642789914d;
mall;mall;Kec. Pulau-Pulau Batu;Kabupaten Nias Selatan, Sumatera Utara;Kabupaten Nias Selatan, Sumatera Utara;SUMATERA UTARA;;Indonesia;;;;-0.0523019;982.824.655;https://maps.google.com/?cid=0x0:0xc69c3107fbcddb60;
mall;Pusat Perbelanjaan;Bipang LIEONNO;W7WM+F56, Ps. Pulau Tello, Kec. Pulau-Pulau Batu, Kabupaten Nias Selatan, Sumatera Utara 22881;Ps. Pulau Tello, Kec. Pulau-Pulau Batu, Kabupaten Nias Selatan;SUMATERA UTARA;22881;Indonesia;81397000770;;;-0.0538397;982.828.963;https://maps.google.com/?cid=0x0:0x30ad120962e568e7;
mall;Toserba;TOKO HBM;W7XM+G8P, jln. Raja sitipu, Ps. Pulau Tello, Kec. Pulau-Pulau Batu, Kabupaten Nias Selatan, Sumatera Utara 22881;jln. Raja sitipu, Ps. Pulau Tello, Kec. Pulau-Pulau Batu, Kabupaten Nias Selatan;SUMATERA UTARA;22881;Indonesia;;;;-0.0511654;982.833.425;https://maps.google.com/?cid=0x0:0x57e9b9b4fcaf33c;
mall;Pusat Perbelanjaan;Toko A. Mesra;Silimaewali, Kec. Pulau-Pulau Batu, Kabupaten Nias Selatan, Sumatera Utara 22881;Kec. Pulau-Pulau Batu, Kabupaten Nias Selatan;SUMATERA UTARA;22881;Indonesia;81262800104;;;-0.0621269;982.858.324;https://maps.google.com/?cid=0x0:0xe7da0c4506624a20;
mall;Pusat Perbelanjaan;Toko ATK FANBERS Pulau Tello;X72M+H6X, Ps. Pulau Tello, Kec. Pulau-Pulau Batu, Kabupaten Nias Selatan, Sumatera Utara 22881;Ps. Pulau Tello, Kec. Pulau-Pulau Batu, Kabupaten Nias Selatan;SUMATERA UTARA;22881;Indonesia;82369686330;;;-0.0485223;982.830.944;https://maps.google.com/?cid=0x0:0xf91d2b7dbe18246e;
mall;mall;UD. IWADA;Jl. Raja Sitepu No.67a, Ps. Pulau Tello, Kampung Cina, Kabupaten Nias Selatan, Sumatera Utara;Kabupaten Nias Selatan, Sumatera Utara;SUMATERA UTARA;;Indonesia;82272878208;;;-0.0561462;982.834.958;https://maps.google.com/?cid=0x0:0x2876a7fccc6931f6;
mall;Toko;Pasar Hiliweto Gidӧ;4P8G+X2M, Desa Hiliweto, Kecamatan Hiliweto Gidӧ, Wea-Wea, Kec. Sogae'adu, Kabupaten Nias, Sumatera Utara 22871;Desa Hiliweto, Kecamatan Hiliweto Gidӧ, Wea-Wea, Kec. Sogae'adu, Kabupaten Nias;SUMATERA UTARA;22871;Indonesia;;;;11.174.649;977.250.378;https://maps.google.com/?cid=0x0:0x4836436a61425dfc;
mall;mall;Sumatera Utara 22881;Kabupaten Nias Selatan, Sumatera Utara;Kabupaten Nias Selatan, Sumatera Utara;SUMATERA UTARA;;Indonesia;;;;-0.0938478;984.242.465;https://maps.google.com/?cid=0x0:0x5875f02854671a50;
mall;Pusat Perbelanjaan;UD.LILY;5P52+JQM, Umbu, Kec. Gido, Kabupaten Nias, Sumatera Utara;Kabupaten Nias, Sumatera Utara;SUMATERA UTARA;;Indonesia;82276166391;;;11.590.902;977.019.371;https://maps.google.com/?cid=0x0:0xa0de17377241b827;
mall;Toserba;TelloKu;W7WM+876, Ps. Pulau Tello, Kec. Pulau-Pulau Batu, Kabupaten Nias Selatan, Sumatera Utara 22881;Ps. Pulau Tello, Kec. Pulau-Pulau Batu, Kabupaten Nias Selatan;SUMATERA UTARA;22881;Indonesia;81380572941;;;-0.0542014;982.831.379;https://maps.google.com/?cid=0x0:0xf71adeed03d89447;
mall;Pusat Perbelanjaan;UD. TOMOSI;Unnamed Road, Sifaoroasi Uluhou, Kec. Bawolato, Kabupaten Nias, Sumatera Utara 22876;Sifaoroasi Uluhou, Kec. Bawolato, Kabupaten Nias;SUMATERA UTARA;22876;Indonesia;;;;0.949518;978.008.012;https://maps.google.com/?cid=0x0:0x1ab9801dcd9915b5;
mall;Toko umum;UD. DJAYA 95;XRMV+65R, Hilifaosi, Kec. Bawolato, Kabupaten Nias, Sumatera Utara;Kabupaten Nias, Sumatera Utara;SUMATERA UTARA;;Indonesia;8815024677;;;0.983109;978.428.975;https://maps.google.com/?cid=0x0:0x1f94bd403ab31556;
mall;mall;Sumatera Utara 22874;Kec. Somambawa, Sumatera Utara;Sumatera Utara;SUMATERA UTARA;;Indonesia;;;;0.812216;978.395.151;https://maps.google.com/?cid=0x0:0x98a468159f14150a;
mall;Toko bahan makanan;Pasar Korea;HR9F+9HQ, Ps. Tlk. Dalam, Kec. Tlk. Dalam, Kabupaten Nias Selatan, Sumatera Utara 22865;Ps. Tlk. Dalam, Kec. Tlk. Dalam, Kabupaten Nias Selatan;SUMATERA UTARA;22865;Indonesia;;;;0.5684654;978.239.758;https://maps.google.com/?cid=0x0:0xf0e6bc84937864bd;
mall;Toko bahan makanan;Kedai YORIS D'LAW;RRJG+984, Tuhegewo, Desa Hilisao'ötö, Kec, Hilisao'oto, Kec. Sidua'ori, Kabupaten Nias Selatan, Sumatera Utara 22874;Tuhegewo, Desa Hilisao'ötö, Kec, Hilisao'oto, Kec. Sidua'ori, Kabupaten Nias Selatan;SUMATERA UTARA;22874;Indonesia;85106422356;;;0.8308818;978.258.194;https://maps.google.com/?cid=0x0:0x1aad1b09cda80bb9;
mall;Toko bahan makanan;UD. FLORENS LAIA;RRQ9+8P4, Hilisao'oto, Kec. Lahusa, Kabupaten Nias Selatan, Sumatera Utara 22874;Hilisao'oto, Kec. Lahusa, Kabupaten Nias Selatan;SUMATERA UTARA;22874;Indonesia;85373401472;;;0.8382616;978.193.127;https://maps.google.com/?cid=0x0:0x891526a748b0d5b9;
mall;Pembangunan Perumahan;Nurhayati tafonao;Jalan simpang gereja No.05, Sifaoroasi Gomo, Kec. Gomo, Kabupaten Nias Selatan, Sumatera Utara 22873;Sifaoroasi Gomo, Kec. Gomo, Kabupaten Nias Selatan;SUMATERA UTARA;22873;Indonesia;;;;0.8542467;978.072.921;https://maps.google.com/?cid=0x0:0x530d4e1e0cf261b2;
mall;Pusat Perbelanjaan;Ud. Serasi Gomo;VR45+69F, Jl. Baru, Orahili Gomo, Kec. Gomo, Kabupaten Nias Selatan, Sumatera Utara;Kabupaten Nias Selatan, Sumatera Utara;SUMATERA UTARA;;Indonesia;;;;0.855551;978.084.288;https://maps.google.com/?cid=0x0:0x2acc1d7d105ad439;
mall;Pembangunan Perumahan;Saraina;QVQM+26V, Siwalubanua, Kec. Somambawa, Kabupaten Nias Selatan, Sumatera Utara;Kabupaten Nias Selatan, Sumatera Utara;SUMATERA UTARA;;Indonesia;;;;0.7876173;978.830.488;https://maps.google.com/?cid=0x0:0xcd1a6008e637eaa;
mall;Pusat Perbelanjaan;UD. Tiga Sinar;Umbu Orahua, Idanotae, Kabupaten Nias Selatan, Sumatera Utara 22873;Idanotae, Kabupaten Nias Selatan;SUMATERA UTARA;22873;Indonesia;82368124762;;;0.9083329;978.147.108;https://maps.google.com/?cid=0x0:0xd7866f958c479e2f;
mall;Tujuan Wisata;PUNCAK SURGA;Hilialawa, Kec. Somambawa, Kabupaten Nias Selatan, Sumatera Utara 07228;Kec. Somambawa, Kabupaten Nias Selatan;SUMATERA UTARA;7228;Indonesia;85297373291;;;0.8683051;978.961.742;https://maps.google.com/?cid=0x0:0x2e689531d44a5fb8;
mall;Pusat Perbelanjaan;Kios Jesslyne;Dusun 02 Tuhewosi, Golambanua II, Kec. Somambawa, Kabupaten Nias Selatan, Sumatera Utara 22874;Golambanua II, Kec. Somambawa, Kabupaten Nias Selatan;SUMATERA UTARA;22874;Indonesia;;;;0.8685885;978.972.833;https://maps.google.com/?cid=0x0:0x1af1e84cfdac9e29;
mall;Toko;Olshop Fajar Tulo Amz;PVXM+3J9, Jl. Hiliabolata I, Bawootalua, Kec. Lahusa, Kabupaten Nias Selatan, Sumatera Utara;Kabupaten Nias Selatan, Sumatera Utara;SUMATERA UTARA;;Indonesia;;;;0.7476587;978.841.162;https://maps.google.com/?cid=0x0:0x941c3e7e290d8414;
mall;;SBK Swalayan;Jl. Jenderal Sudirman, Ps. Tlk. Dalam, Kec. Tlk. Dalam, Kabupaten Nias Selatan, Sumatera Utara 22865;Ps. Tlk. Dalam, Kec. Tlk. Dalam, Kabupaten Nias Selatan;SUMATERA UTARA;22865;Indonesia;81264950504;;;0.5665053;978.183.744;https://maps.google.com/?cid=0x0:0x29ddecefff3206;
mall;Minimarket;CV BALIZATO;HR9C+VRJ, Ps. Tlk. Dalam, Kec. Tlk. Dalam, Kabupaten Nias Selatan, Sumatera Utara 22865;Ps. Tlk. Dalam, Kec. Tlk. Dalam, Kabupaten Nias Selatan;SUMATERA UTARA;22865;Indonesia;81375309828;;;0.5697197;978.220.197;https://maps.google.com/?cid=0x0:0x7d62b3e1e2ccf0d9;
mall;Toko Swalayan;Grosir Kesya Dachi;HR98+FC2, Ps. Tlk. Dalam, Kec. Tlk. Dalam, Kabupaten Nias Selatan, Sumatera Utara 22865;Ps. Tlk. Dalam, Kec. Tlk. Dalam, Kabupaten Nias Selatan;SUMATERA UTARA;22865;Indonesia;85272530446;;;0.5686322;97.816.019;https://maps.google.com/?cid=0x0:0x49ee154ba9fdb750;
mall;Toko;Pasar Hiliweto Gidӧ;4P8G+X2M, Desa Hiliweto, Kecamatan Hiliweto Gidӧ, Wea-Wea, Kec. Sogae'adu, Kabupaten Nias, Sumatera Utara 22871;Desa Hiliweto, Kecamatan Hiliweto Gidӧ, Wea-Wea, Kec. Sogae'adu, Kabupaten Nias;SUMATERA UTARA;22871;Indonesia;;;;11.174.649;977.250.378;https://maps.google.com/?cid=0x0:0x4836436a61425dfc;
mall;Toko Pakaian;grand bowo colection;HR9C+PHX, Jl. Diponegoro, Ps. Tlk. Dalam, Kec. Tlk. Dalam, Kabupaten Nias Selatan, Sumatera Utara 22865;Jl. Diponegoro, Ps. Tlk. Dalam, Kec. Tlk. Dalam, Kabupaten Nias Selatan;SUMATERA UTARA;22865;Indonesia;82366517450;;;0.5693657;978.214.882;https://maps.google.com/?cid=0x0:0x4786b042a8e82a40;
mall;Grosir produk pertanian;UD.TANI MAKMUR{M.M};PVCR+9Q7, Jl. Hiliorudua, Bawozihono, Kec. Lahusa, Kabupaten Nias Selatan, Sumatera Utara;Kabupaten Nias Selatan, Sumatera Utara;SUMATERA UTARA;;Indonesia;;;;0.7209152;978.919.166;https://maps.google.com/?cid=0x0:0x7acd7ca179704602;
mall;Pusat Perbelanjaan;UD. TOMOSI;Unnamed Road, Sifaoroasi Uluhou, Kec. Bawolato, Kabupaten Nias, Sumatera Utara 22876;Sifaoroasi Uluhou, Kec. Bawolato, Kabupaten Nias;SUMATERA UTARA;22876;Indonesia;;;;0.949518;978.008.012;https://maps.google.com/?cid=0x0:0x1ab9801dcd9915b5;
mall;Pusat Perbelanjaan;UD. Tunas Baru;HRCF+MM2, Ps. Tlk. Dalam, Kec. Tlk. Dalam, Kabupaten Nias Selatan, Sumatera Utara 22865;Ps. Tlk. Dalam, Kec. Tlk. Dalam, Kabupaten Nias Selatan;SUMATERA UTARA;22865;Indonesia;;;;0.5716394;978.241.468;https://maps.google.com/?cid=0x0:0x47c1c8c6ab9693de;
mall;Pasar;RUMAH POTONG HEWAN LAHUSA;QV4G+X65, Bawootalua, Kec. Lahusa, Kabupaten Nias Selatan, Sumatera Utara 22874;Bawootalua, Kec. Lahusa, Kabupaten Nias Selatan;SUMATERA UTARA;22874;Indonesia;;;;0.7573791;978.756.216;https://maps.google.com/?cid=0x0:0xf035b925b6b7b410;
mall;Pusat Perbelanjaan;Pekan Godu Desa Susua kecamatan Ulususua;RP33+GJ6, kampung Godu Desa Susua, Ramba-Ramba, Kec. Ulususua, Kabupaten Nias Selatan, Sumatera Utara 22866;kampung Godu Desa Susua, Ramba-Ramba, Kec. Ulususua, Kabupaten Nias Selatan;SUMATERA UTARA;22866;Indonesia;;;;0.8037753;977.040.015;https://maps.google.com/?cid=0x0:0x241b5395f28b980c;
mall;Pusat Perbelanjaan;UD.FANY(ATK  FOTOCOPY);RVHF+H2F, SIMPANG MEHAGA, DESA MEHAGA, Silima Banua, Kec. Somambawa, Kabupaten Nias Selatan, Sumatera Utara;Kabupaten Nias Selatan, Sumatera Utara;SUMATERA UTARA;;Indonesia;81263654272;;;0.8289476;978.725.453;https://maps.google.com/?cid=0x0:0xc6413a590436a16b;
mall;mall;Kedei a asa zebua;RRGH+H64, Unnamed Road, Hilisao'oto, Kec. Sidua'ori, Kabupaten Nias Selatan, Sumatera Utara 22874;Unnamed Road, Hilisao'oto, Kec. Sidua'ori, Kabupaten Nias Selatan;SUMATERA UTARA;22874;Indonesia;;;;0.8263938;97.828.091;https://maps.google.com/?cid=0x0:0xcb92d83129cd7c0f;
mall;mall;UD. ORADA;Jl. Gubsu No.16, Orahili Gomo, Kec. Gomo, Kabupaten Nias Selatan, Sumatera Utara 22873;Orahili Gomo, Kec. Gomo, Kabupaten Nias Selatan;SUMATERA UTARA;22873;Indonesia;85264444190;;;0.8547847;978.072.237;https://maps.google.com/?cid=0x0:0x6387eca098aea4f5;
mall;mall;Kec. Simuk;Kabupaten Nias Selatan, Sumatera Utara;Kabupaten Nias Selatan, Sumatera Utara;SUMATERA UTARA;;Indonesia;;;;-0.0783257;978.549.892;https://maps.google.com/?cid=0x0:0xc4f3bec2af601d1b;
mall;Tujuan Wisata;PUNCAK SURGA;Hilialawa, Kec. Somambawa, Kabupaten Nias Selatan, Sumatera Utara 07228;Kec. Somambawa, Kabupaten Nias Selatan;SUMATERA UTARA;7228;Indonesia;85297373291;;;0.8683051;978.961.742;https://maps.google.com/?cid=0x0:0x2e689531d44a5fb8;
mall;Pembangunan Perumahan;Saraina;QVQM+26V, Siwalubanua, Kec. Somambawa, Kabupaten Nias Selatan, Sumatera Utara;Kabupaten Nias Selatan, Sumatera Utara;SUMATERA UTARA;;Indonesia;;;;0.7876173;978.830.488;https://maps.google.com/?cid=0x0:0xcd1a6008e637eaa;
mall;mall;Kec. Somambawa;Kabupaten Nias Selatan, Sumatera Utara;Kabupaten Nias Selatan, Sumatera Utara;SUMATERA UTARA;;Indonesia;;;;0.8407091;978.869.291;https://maps.google.com/?cid=0x0:0x780ff11e2dc65b3e;
mall;Pusat Perbelanjaan;"UD. Darren Fotocopy  ATK""""";RVJH+X3, Silima Banua, Kec. Somambawa, Kabupaten Nias Selatan, Sumatera Utara;Kabupaten Nias Selatan, Sumatera Utara;SUMATERA UTARA;;Indonesia;81360751567;;;0.8324475;9.787.768;https://maps.google.com/?cid=0x0:0x98eb66b11fd04949;
mall;Toko;Olshop Fajar Tulo Amz;PVXM+3J9, Jl. Hiliabolata I, Bawootalua, Kec. Lahusa, Kabupaten Nias Selatan, Sumatera Utara;Kabupaten Nias Selatan, Sumatera Utara;SUMATERA UTARA;;Indonesia;;;;0.7476587;978.841.162;https://maps.google.com/?cid=0x0:0x941c3e7e290d8414;
mall;Pusat Perbelanjaan;UD.FANY(ATK  FOTOCOPY);RVHF+H2F, SIMPANG MEHAGA, DESA MEHAGA, Silima Banua, Kec. Somambawa, Kabupaten Nias Selatan, Sumatera Utara;Kabupaten Nias Selatan, Sumatera Utara;SUMATERA UTARA;;Indonesia;81263654272;;;0.8289476;978.725.453;https://maps.google.com/?cid=0x0:0xc6413a590436a16b;
mall;Pasar;RUMAH POTONG HEWAN LAHUSA;QV4G+X65, Bawootalua, Kec. Lahusa, Kabupaten Nias Selatan, Sumatera Utara 22874;Bawootalua, Kec. Lahusa, Kabupaten Nias Selatan;SUMATERA UTARA;22874;Indonesia;;;;0.7573791;978.756.216;https://maps.google.com/?cid=0x0:0xf035b925b6b7b410;
mall;mall;Kec. Susua;Kabupaten Nias Selatan, Sumatera Utara;Kabupaten Nias Selatan, Sumatera Utara;SUMATERA UTARA;;Indonesia;;;;0.7651293;977.699.064;https://maps.google.com/?cid=0x0:0xf424425ce72de1d9;
mall;Pusat Perbelanjaan;Pekan Godu Desa Susua kecamatan Ulususua;RP33+GJ6, kampung Godu Desa Susua, Ramba-Ramba, Kec. Ulususua, Kabupaten Nias Selatan, Sumatera Utara 22866;kampung Godu Desa Susua, Ramba-Ramba, Kec. Ulususua, Kabupaten Nias Selatan;SUMATERA UTARA;22866;Indonesia;;;;0.8037753;977.040.015;https://maps.google.com/?cid=0x0:0x241b5395f28b980c;
mall;Pusat Perbelanjaan;Pasar Rakyat Ulususua Kecamatan Ulususua;Ramba-Ramba, Kec. Amandraya, Kabupaten Nias Selatan, Sumatera Utara 22866;Kec. Amandraya, Kabupaten Nias Selatan;SUMATERA UTARA;22866;Indonesia;;;;0.8039159;977.034.855;https://maps.google.com/?cid=0x0:0x858afc9170990b89;
mall;Pusat Perbelanjaan;Jeruk Meletus SMS Mall;Mall Serpong, Summarecon, Jl. Boulevard Raya Gading Serpong No.2, Pakulonan Bar., Kec. Klp. Dua, Kabupaten Tangerang, Banten 15810;Summarecon, Jl. Boulevard Raya Gading Serpong No.2, Pakulonan Bar., Kec. Klp. Dua, Kabupaten Tangerang;SUMATERA UTARA;15810;Indonesia;89524686108;;;-62.408.872;1.066.283.935;https://maps.google.com/?cid=0x0:0xc490e1f9b68658e3;
mall;Pusat Perbelanjaan;Grand Serpong Mall;Jl. MH. Thamrin KM 2.7, Kebon Nanas, RT.007/RW.001, Panunggangan Utara, Kec. Pinang, Kota Tangerang, Banten 15143;Kebon Nanas, RT.007/RW.001, Panunggangan Utara, Kec. Pinang, Kota Tangerang;SUMATERA UTARA;15143;Indonesia;;;;-62.219.969;1.066.327.042;https://maps.google.com/?cid=0x0:0xa03c439a7f632bf1;
mall;Toserba;STAR Department Store - Summarecon Mal Serpong;Sumarecon Mall Serpong, Jl. Gading Serpong Boulevard No.238, Pakulonan Bar., Kec. Klp. Dua, Kabupaten Tangerang, Banten 15810;Jl. Gading Serpong Boulevard No.238, Pakulonan Bar., Kec. Klp. Dua, Kabupaten Tangerang;SUMATERA UTARA;15810;Indonesia;2154201990;;;-62.396.851;1.066.293.008;https://maps.google.com/?cid=0x0:0x579c03d05bde77d5;
mall;Pusat Perbelanjaan;BSD Plaza;Jl. Pahlawan Seribu Sektor 4, Lengkong Wetan, Serpong Sub-District, South Tangerang City, Banten 15322;Lengkong Wetan, Serpong Sub-District, South Tangerang City;SUMATERA UTARA;15322;Indonesia;215371171;;;-62.794.797;1.066.625.764;https://maps.google.com/?cid=0x0:0xfa4e7a509dd69041;
mall;Grosir Daging;Daging Sapi L1-018 Pasar Sinpansa Gading Serpong;Sentra Gading Serpong, Pasar modern, Jl. Klp. Gading Tim. No.selatan, Pakulonan Bar., Kec. Klp. Dua, Kabupaten Tangerang, Banten 15810;Pasar modern, Jl. Klp. Gading Tim. No.selatan, Pakulonan Bar., Kec. Klp. Dua, Kabupaten Tangerang;SUMATERA UTARA;15810;Indonesia;82213451191;;;-62.383.947;106.628.854;https://maps.google.com/?cid=0x0:0x3f2497a8337f4fda;
mall;Toko Swalayan;Farmers Market - Summarecon Mall Serpong;Mall Serpong, Jl. Gading Serpong Boulevard Lantai Dasar Sumarecon, Pakulonan Bar., Kec. Klp. Dua, Kabupaten Tangerang, Banten 15810;Jl. Gading Serpong Boulevard Lantai Dasar Sumarecon, Pakulonan Bar., Kec. Klp. Dua, Kabupaten Tangerang;SUMATERA UTARA;15810;Indonesia;;;;-62.408.899;1.066.283.694;https://maps.google.com/?cid=0x0:0xef1373bf7c38e2b6;
mall;China;Foek Lam Summarecon Mall Serpong;Summarecon Mall Serpong 2 - Sentra Gading Blok BA No.17, West Pakulonan, Kelapa Dua, Tangerang Regency, Banten 15810;West Pakulonan, Kelapa Dua, Tangerang Regency;SUMATERA UTARA;15810;Indonesia;2129310700;;;-62.427.026;1.066.279.826;https://maps.google.com/?cid=0x0:0xc923c6ddb4297231;
mall;mall;Kec. Tanah Masa;Kabupaten Nias Selatan, Sumatera Utara;Kabupaten Nias Selatan, Sumatera Utara;SUMATERA UTARA;;Indonesia;;;;-0.2498447;984.952.228;https://maps.google.com/?cid=0x0:0x205328de0242cf7a;
mall;Pusat Perbelanjaan;Pusat Grosir Metro tanah abang;Jl. H. Fachrudin, RT.14/RW.6, Karet Tengsin, Kecamatan Tanah Abang, Kota Jakarta Pusat, Daerah Khusus Ibukota Jakarta 10240;RT.14/RW.6, Karet Tengsin, Kecamatan Tanah Abang, Kota Jakarta Pusat;SUMATERA UTARA;10240;Indonesia;;;;-61.876.243;1.068.156.726;https://maps.google.com/?cid=0x0:0x39d0ae97f402e6a;
mall;mall;KJA NISORANIA;FF8W+HXV, jl. Singgolong-golong, Eho, Kec. Hibala, Kabupaten Nias Selatan, Sumatera Utara 22881;jl. Singgolong-golong, Eho, Kec. Hibala, Kabupaten Nias Selatan;SUMATERA UTARA;22881;Indonesia;81314404614;;;-0.5335215;984.974.152;https://maps.google.com/?cid=0x0:0xa60ab1d36fdcaca4;
mall;Grosir;Kedai wak ajen regar;RMJX+3R7, Unnamed Roadw, Tlk. Dalam, Kec. Tlk. Dalam, Kabupaten Asahan, Sumatera Utara 21271;Unnamed Roadw, Tlk. Dalam, Kec. Tlk. Dalam, Kabupaten Asahan;SUMATERA UTARA;21271;Indonesia;;;;28.301.535;996.995.549;https://maps.google.com/?cid=0x0:0x322a1108453da75;
mall;mall;Tlk. Dalam;Kec. Tlk. Dalam, Kabupaten Asahan, Sumatera Utara;Kabupaten Asahan, Sumatera Utara;SUMATERA UTARA;;Indonesia;;;;28.264.648;997.344.154;https://maps.google.com/?cid=0x0:0x7f5b6ddaab8e192c;
mall;Grosir;Kedai atok husin;RPGM+HQM, Jln Biliton, Tlk. Dalam, Kec. Tlk. Dalam, Kabupaten Asahan, Sumatera Utara 21271;Jln Biliton, Tlk. Dalam, Kec. Tlk. Dalam, Kabupaten Asahan;SUMATERA UTARA;21271;Indonesia;;;;28.264.648;997.344.154;https://maps.google.com/?cid=0x0:0xdc66c5159b7c5fc5;
mall;Toko bahan makanan;Pasar Korea;HR9F+9HQ, Ps. Tlk. Dalam, Kec. Tlk. Dalam, Kabupaten Nias Selatan, Sumatera Utara 22865;Ps. Tlk. Dalam, Kec. Tlk. Dalam, Kabupaten Nias Selatan;SUMATERA UTARA;22865;Indonesia;;;;0.5684654;978.239.758;https://maps.google.com/?cid=0x0:0xf0e6bc84937864bd;
mall;Toko;UD. Fandy Telukdalam;Jl. DI Panjaitan No.9, Ps. Tlk. Dalam, Kec. Tlk. Dalam, Kabupaten Nias Selatan, Sumatera Utara 22865;Ps. Tlk. Dalam, Kec. Tlk. Dalam, Kabupaten Nias Selatan;SUMATERA UTARA;22865;Indonesia;82312668168;;;0.5670463;978.186.019;https://maps.google.com/?cid=0x0:0xccb562ae38cb84fa;
mall;Minimarket;CV BALIZATO;HR9C+VRJ, Ps. Tlk. Dalam, Kec. Tlk. Dalam, Kabupaten Nias Selatan, Sumatera Utara 22865;Ps. Tlk. Dalam, Kec. Tlk. Dalam, Kabupaten Nias Selatan;SUMATERA UTARA;22865;Indonesia;81375309828;;;0.5697197;978.220.197;https://maps.google.com/?cid=0x0:0x7d62b3e1e2ccf0d9;
mall;Pusat Perbelanjaan;UD. Tunas Baru;HRCF+MM2, Ps. Tlk. Dalam, Kec. Tlk. Dalam, Kabupaten Nias Selatan, Sumatera Utara 22865;Ps. Tlk. Dalam, Kec. Tlk. Dalam, Kabupaten Nias Selatan;SUMATERA UTARA;22865;Indonesia;;;;0.5716394;978.241.468;https://maps.google.com/?cid=0x0:0x47c1c8c6ab9693de;
mall;Pembangunan Perumahan;a. serlin laoli km 6 simpang loho;HQJC+VWF, Bawonahono, Kec. Fanayama, Kabupaten Nias Selatan, Sumatera Utara;Kabupaten Nias Selatan, Sumatera Utara;SUMATERA UTARA;;Indonesia;;;;0.5817729;977.722.315;https://maps.google.com/?cid=0x0:0xdec6a4071945e0ff;
mall;Toko Swalayan;Grosir Kesya Dachi;HR98+FC2, Ps. Tlk. Dalam, Kec. Tlk. Dalam, Kabupaten Nias Selatan, Sumatera Utara 22865;Ps. Tlk. Dalam, Kec. Tlk. Dalam, Kabupaten Nias Selatan;SUMATERA UTARA;22865;Indonesia;85272530446;;;0.5686322;97.816.019;https://maps.google.com/?cid=0x0:0x49ee154ba9fdb750;
mall;Toko Pakaian;grand bowo colection;HR9C+PHX, Jl. Diponegoro, Ps. Tlk. Dalam, Kec. Tlk. Dalam, Kabupaten Nias Selatan, Sumatera Utara 22865;Jl. Diponegoro, Ps. Tlk. Dalam, Kec. Tlk. Dalam, Kabupaten Nias Selatan;SUMATERA UTARA;22865;Indonesia;82366517450;;;0.5693657;978.214.882;https://maps.google.com/?cid=0x0:0x4786b042a8e82a40;
mall;Toko Rokok Elektrik;Muscle Vapestore;Jl. Jenderal Sudirman, Ps. Tlk. Dalam, Kec. Tlk. Dalam, Kabupaten Nias Selatan, Sumatera Utara 22865;Ps. Tlk. Dalam, Kec. Tlk. Dalam, Kabupaten Nias Selatan;SUMATERA UTARA;22865;Indonesia;85296012500;;;0.5664392;978.180.345;https://maps.google.com/?cid=0x0:0x538ed55ae8d8af72;
mall;Pusat Perbelanjaan;Setia Mandiri Pecah Belah;HR93+VQG, Hiligeho, Kec. Tlk. Dalam, Kabupaten Nias Selatan, Sumatera Utara 22865;Hiligeho, Kec. Tlk. Dalam, Kabupaten Nias Selatan;SUMATERA UTARA;22865;Indonesia;;;;0.5695761;97.804.313;https://maps.google.com/?cid=0x0:0xe8e008397d791bbb;
mall;mall;Tempat hilisimaetano KEC teluk dalam;PVW3+HJV, Jl. Hilisimaetanö, Hilisimaetano, Kec. Lahusa, Kabupaten Nias Selatan, Sumatera Utara;Kabupaten Nias Selatan, Sumatera Utara;SUMATERA UTARA;;Indonesia;;;;0.7464869;978.540.335;https://maps.google.com/?cid=0x0:0xdd5cfb890f29aeab;
mall;mall;Kec. Tlk. Dalam;Kabupaten Nias Selatan, Sumatera Utara;Kabupaten Nias Selatan, Sumatera Utara;SUMATERA UTARA;;Indonesia;;;;0.5681253;978.191.708;https://maps.google.com/?cid=0x0:0xf25594a6f3d26202;
mall;;SBK Swalayan;Jl. Jenderal Sudirman, Ps. Tlk. Dalam, Kec. Tlk. Dalam, Kabupaten Nias Selatan, Sumatera Utara 22865;Ps. Tlk. Dalam, Kec. Tlk. Dalam, Kabupaten Nias Selatan;SUMATERA UTARA;22865;Indonesia;81264950504;;;0.5665053;978.183.744;https://maps.google.com/?cid=0x0:0x29ddecefff3206;
mall;Toko bahan makanan;Pasar Korea;HR9F+9HQ, Ps. Tlk. Dalam, Kec. Tlk. Dalam, Kabupaten Nias Selatan, Sumatera Utara 22865;Ps. Tlk. Dalam, Kec. Tlk. Dalam, Kabupaten Nias Selatan;SUMATERA UTARA;22865;Indonesia;;;;0.5684654;978.239.758;https://maps.google.com/?cid=0x0:0xf0e6bc84937864bd;
mall;Toko;UD. Fandy Telukdalam;Jl. DI Panjaitan No.9, Ps. Tlk. Dalam, Kec. Tlk. Dalam, Kabupaten Nias Selatan, Sumatera Utara 22865;Ps. Tlk. Dalam, Kec. Tlk. Dalam, Kabupaten Nias Selatan;SUMATERA UTARA;22865;Indonesia;82312668168;;;0.5670463;978.186.019;https://maps.google.com/?cid=0x0:0xccb562ae38cb84fa;
mall;Minimarket;CV BALIZATO;HR9C+VRJ, Ps. Tlk. Dalam, Kec. Tlk. Dalam, Kabupaten Nias Selatan, Sumatera Utara 22865;Ps. Tlk. Dalam, Kec. Tlk. Dalam, Kabupaten Nias Selatan;SUMATERA UTARA;22865;Indonesia;81375309828;;;0.5697197;978.220.197;https://maps.google.com/?cid=0x0:0x7d62b3e1e2ccf0d9;
mall;Toko Pakaian;grand bowo colection;HR9C+PHX, Jl. Diponegoro, Ps. Tlk. Dalam, Kec. Tlk. Dalam, Kabupaten Nias Selatan, Sumatera Utara 22865;Jl. Diponegoro, Ps. Tlk. Dalam, Kec. Tlk. Dalam, Kabupaten Nias Selatan;SUMATERA UTARA;22865;Indonesia;82366517450;;;0.5693657;978.214.882;https://maps.google.com/?cid=0x0:0x4786b042a8e82a40;
mall;Pasar;Pasar Jepang;Jln di ponegoro, Hilitobara, Kec. Tlk. Dalam, Kabupaten Nias Selatan, Sumatera Utara 22865;Hilitobara, Kec. Tlk. Dalam, Kabupaten Nias Selatan;SUMATERA UTARA;22865;Indonesia;;;;0.5587469;978.176.479;https://maps.google.com/?cid=0x0:0x95ebe04318e7a0be;
mall;Toko Rokok Elektrik;Muscle Vapestore;Jl. Jenderal Sudirman, Ps. Tlk. Dalam, Kec. Tlk. Dalam, Kabupaten Nias Selatan, Sumatera Utara 22865;Ps. Tlk. Dalam, Kec. Tlk. Dalam, Kabupaten Nias Selatan;SUMATERA UTARA;22865;Indonesia;85296012500;;;0.5664392;978.180.345;https://maps.google.com/?cid=0x0:0x538ed55ae8d8af72;
mall;Pusat Perbelanjaan;UD. Tunas Baru;HRCF+MM2, Ps. Tlk. Dalam, Kec. Tlk. Dalam, Kabupaten Nias Selatan, Sumatera Utara 22865;Ps. Tlk. Dalam, Kec. Tlk. Dalam, Kabupaten Nias Selatan;SUMATERA UTARA;22865;Indonesia;;;;0.5716394;978.241.468;https://maps.google.com/?cid=0x0:0x47c1c8c6ab9693de;
mall;Toko umum;UD.Saota;Jalan Saonigeho Lorong II Desa No.KM. 2,5, Hililaza, Kec. Tlk. Dalam, Kabupaten Nias Selatan, Sumatera Utara 22865;Hililaza, Kec. Tlk. Dalam, Kabupaten Nias Selatan;SUMATERA UTARA;22865;Indonesia;85262370803;;;0.5708273;978.011.519;https://maps.google.com/?cid=0x0:0xbda4294840191705;
mall;Pusat Perbelanjaan;Setia Mandiri Pecah Belah;HR93+VQG, Hiligeho, Kec. Tlk. Dalam, Kabupaten Nias Selatan, Sumatera Utara 22865;Hiligeho, Kec. Tlk. Dalam, Kabupaten Nias Selatan;SUMATERA UTARA;22865;Indonesia;;;;0.5695761;97.804.313;https://maps.google.com/?cid=0x0:0xe8e008397d791bbb;
mall;mall;Ps. Tlk. Dalam;Kec. Tlk. Dalam, Kabupaten Nias Selatan, Sumatera Utara;Kabupaten Nias Selatan, Sumatera Utara;SUMATERA UTARA;;Indonesia;;;;0.5654053;978.150.412;https://maps.google.com/?cid=0x0:0x300bb6ddacf5c2b8;
mall;Terminal Feri;Pelabuhan Telukdalam;HR3C+VCW, Tlk., Hilitobara, Kec. Tlk. Dalam, Kabupaten Nias Selatan, Sumatera Utara 22865;Tlk., Hilitobara, Kec. Tlk. Dalam, Kabupaten Nias Selatan;SUMATERA UTARA;22865;Indonesia;;;;0.5547466;978.210.905;https://maps.google.com/?cid=0x0:0x6bc1d50eed0905dd;
mall;Toko Swalayan;ALFAMIDI SUDIRMAN Teluk Dalam;Jl. Jenderal Sudirman No.88, Ps. Tlk. Dalam, Kec. Tlk. Dalam, Kabupaten Nias Selatan, Sumatera Utara 22865;Ps. Tlk. Dalam, Kec. Tlk. Dalam, Kabupaten Nias Selatan;SUMATERA UTARA;22865;Indonesia;;;;0.5649182;978.190.674;https://maps.google.com/?cid=0x0:0xcd4a663e19513bbe;
mall;Toko umum;UD.LAIA;Ps. Tlk. Dalam, Kec. Tlk. Dalam, Kabupaten Nias Selatan, Sumatera Utara 22865;Kec. Tlk. Dalam, Kabupaten Nias Selatan;SUMATERA UTARA;22865;Indonesia;;;;0.5649308;978.196.732;https://maps.google.com/?cid=0x0:0xd65ff1ce49fba52c;
mall;mall;UD. David;HR89+VC2, Jl. DI Panjaitan, Ps. Tlk. Dalam, Kec. Tlk. Dalam, Kabupaten Nias Selatan, Sumatera Utara 22865;Jl. DI Panjaitan, Ps. Tlk. Dalam, Kec. Tlk. Dalam, Kabupaten Nias Selatan;SUMATERA UTARA;22865;Indonesia;;;;0.5671294;978.185.217;https://maps.google.com/?cid=0x0:0xddc4ada5c2548142;
mall;mall;Kec. Tlk. Dalam;Kabupaten Nias Selatan, Sumatera Utara;Kabupaten Nias Selatan, Sumatera Utara;SUMATERA UTARA;;Indonesia;;;;0.5681253;978.191.708;https://maps.google.com/?cid=0x0:0xf25594a6f3d26202;
mall;Toko bahan makanan;Pasar Korea;HR9F+9HQ, Ps. Tlk. Dalam, Kec. Tlk. Dalam, Kabupaten Nias Selatan, Sumatera Utara 22865;Ps. Tlk. Dalam, Kec. Tlk. Dalam, Kabupaten Nias Selatan;SUMATERA UTARA;22865;Indonesia;;;;0.5684654;978.239.758;https://maps.google.com/?cid=0x0:0xf0e6bc84937864bd;
mall;;SBK Swalayan;Jl. Jenderal Sudirman, Ps. Tlk. Dalam, Kec. Tlk. Dalam, Kabupaten Nias Selatan, Sumatera Utara 22865;Ps. Tlk. Dalam, Kec. Tlk. Dalam, Kabupaten Nias Selatan;SUMATERA UTARA;22865;Indonesia;81264950504;;;0.5665053;978.183.744;https://maps.google.com/?cid=0x0:0x29ddecefff3206;
mall;Toko Pakaian;grand bowo colection;HR9C+PHX, Jl. Diponegoro, Ps. Tlk. Dalam, Kec. Tlk. Dalam, Kabupaten Nias Selatan, Sumatera Utara 22865;Jl. Diponegoro, Ps. Tlk. Dalam, Kec. Tlk. Dalam, Kabupaten Nias Selatan;SUMATERA UTARA;22865;Indonesia;82366517450;;;0.5693657;978.214.882;https://maps.google.com/?cid=0x0:0x4786b042a8e82a40;
mall;Pusat Perbelanjaan;UD. Tunas Baru;HRCF+MM2, Ps. Tlk. Dalam, Kec. Tlk. Dalam, Kabupaten Nias Selatan, Sumatera Utara 22865;Ps. Tlk. Dalam, Kec. Tlk. Dalam, Kabupaten Nias Selatan;SUMATERA UTARA;22865;Indonesia;;;;0.5716394;978.241.468;https://maps.google.com/?cid=0x0:0x47c1c8c6ab9693de;
mall;Toko Swalayan;Grosir Kesya Dachi;HR98+FC2, Ps. Tlk. Dalam, Kec. Tlk. Dalam, Kabupaten Nias Selatan, Sumatera Utara 22865;Ps. Tlk. Dalam, Kec. Tlk. Dalam, Kabupaten Nias Selatan;SUMATERA UTARA;22865;Indonesia;85272530446;;;0.5686322;97.816.019;https://maps.google.com/?cid=0x0:0x49ee154ba9fdb750;
mall;Toko Rokok Elektrik;Muscle Vapestore;Jl. Jenderal Sudirman, Ps. Tlk. Dalam, Kec. Tlk. Dalam, Kabupaten Nias Selatan, Sumatera Utara 22865;Ps. Tlk. Dalam, Kec. Tlk. Dalam, Kabupaten Nias Selatan;SUMATERA UTARA;22865;Indonesia;85296012500;;;0.5664392;978.180.345;https://maps.google.com/?cid=0x0:0x538ed55ae8d8af72;
mall;Toko umum;UD.Saota;Jalan Saonigeho Lorong II Desa No.KM. 2,5, Hililaza, Kec. Tlk. Dalam, Kabupaten Nias Selatan, Sumatera Utara 22865;Hililaza, Kec. Tlk. Dalam, Kabupaten Nias Selatan;SUMATERA UTARA;22865;Indonesia;85262370803;;;0.5708273;978.011.519;https://maps.google.com/?cid=0x0:0xbda4294840191705;
mall;Toko;UD. Fandy Telukdalam;Jl. DI Panjaitan No.9, Ps. Tlk. Dalam, Kec. Tlk. Dalam, Kabupaten Nias Selatan, Sumatera Utara 22865;Ps. Tlk. Dalam, Kec. Tlk. Dalam, Kabupaten Nias Selatan;SUMATERA UTARA;22865;Indonesia;82312668168;;;0.5670463;978.186.019;https://maps.google.com/?cid=0x0:0xccb562ae38cb84fa;
mall;mall;Ps. Tlk. Dalam;Kec. Tlk. Dalam, Kabupaten Nias Selatan, Sumatera Utara;Kabupaten Nias Selatan, Sumatera Utara;SUMATERA UTARA;;Indonesia;;;;0.5654053;978.150.412;https://maps.google.com/?cid=0x0:0x300bb6ddacf5c2b8;
mall;Pusat Perbelanjaan;Setia Mandiri Pecah Belah;HR93+VQG, Hiligeho, Kec. Tlk. Dalam, Kabupaten Nias Selatan, Sumatera Utara 22865;Hiligeho, Kec. Tlk. Dalam, Kabupaten Nias Selatan;SUMATERA UTARA;22865;Indonesia;;;;0.5695761;97.804.313;https://maps.google.com/?cid=0x0:0xe8e008397d791bbb;
mall;Toko Swalayan;ALFAMIDI SUDIRMAN Teluk Dalam;Jl. Jenderal Sudirman No.88, Ps. Tlk. Dalam, Kec. Tlk. Dalam, Kabupaten Nias Selatan, Sumatera Utara 22865;Ps. Tlk. Dalam, Kec. Tlk. Dalam, Kabupaten Nias Selatan;SUMATERA UTARA;22865;Indonesia;;;;0.5649182;978.190.674;https://maps.google.com/?cid=0x0:0xcd4a663e19513bbe;
mall;Toko umum;UD.LAIA;Ps. Tlk. Dalam, Kec. Tlk. Dalam, Kabupaten Nias Selatan, Sumatera Utara 22865;Kec. Tlk. Dalam, Kabupaten Nias Selatan;SUMATERA UTARA;22865;Indonesia;;;;0.5649308;978.196.732;https://maps.google.com/?cid=0x0:0xd65ff1ce49fba52c;
mall;Kantor Pemerintah;Kantor Camat Teluk Dalam;HR85+JW4, Ps. Tlk. Dalam, Kec. Tlk. Dalam, Kabupaten Nias Selatan, Sumatera Utara 22865;Ps. Tlk. Dalam, Kec. Tlk. Dalam, Kabupaten Nias Selatan;SUMATERA UTARA;22865;Indonesia;82275026687;;;0.566513;9.780.983;https://maps.google.com/?cid=0x0:0x19e0954be022672d;
mall;Pembangunan Perumahan;a. serlin laoli km 6 simpang loho;HQJC+VWF, Bawonahono, Kec. Fanayama, Kabupaten Nias Selatan, Sumatera Utara;Kabupaten Nias Selatan, Sumatera Utara;SUMATERA UTARA;;Indonesia;;;;0.5817729;977.722.315;https://maps.google.com/?cid=0x0:0xdec6a4071945e0ff;
mall;mall;Tempat hilisimaetano KEC teluk dalam;PVW3+HJV, Jl. Hilisimaetanö, Hilisimaetano, Kec. Lahusa, Kabupaten Nias Selatan, Sumatera Utara;Kabupaten Nias Selatan, Sumatera Utara;SUMATERA UTARA;;Indonesia;;;;0.7464869;978.540.335;https://maps.google.com/?cid=0x0:0xdd5cfb890f29aeab;
mall;Klub Malam;Baloho;HR99+7MC, Ps. Tlk. Dalam, Kec. Tlk. Dalam, Kabupaten Nias Selatan, Sumatera Utara;Kabupaten Nias Selatan, Sumatera Utara;SUMATERA UTARA;;Indonesia;;;;0.5681914;978.191.333;https://maps.google.com/?cid=0x0:0xf7c78feca5dae6ec;
mall;mall;Hello sunshine;Botohilitano, Kec. Fanayama, Kabupaten Nias Selatan, Sumatera Utara 22865;Kec. Fanayama, Kabupaten Nias Selatan;SUMATERA UTARA;22865;Indonesia;81236557548;;;0.570077;977.315.392;https://maps.google.com/?cid=0x0:0x11b2af5364abaf45;
mall;Grosir produk pertanian;UD.TANI MAKMUR{M.M};PVCR+9Q7, Jl. Hiliorudua, Bawozihono, Kec. Lahusa, Kabupaten Nias Selatan, Sumatera Utara;Kabupaten Nias Selatan, Sumatera Utara;SUMATERA UTARA;;Indonesia;;;;0.7209152;978.919.166;https://maps.google.com/?cid=0x0:0x7acd7ca179704602;
mall;mall;Sumatera Utara 22865;Kabupaten Nias Selatan, Sumatera Utara;Kabupaten Nias Selatan, Sumatera Utara;SUMATERA UTARA;;Indonesia;;;;0.6522317;978.068.851;https://maps.google.com/?cid=0x0:0x74ff33de5c459c9c;
mall;Pusat Perbelanjaan;Lippo Mall Puri;Jl. Puri Indah Raya Blok U 1, RT.3/RW.2, Kembangan Sel., Kec. Kembangan, Kota Jakarta Barat, Daerah Khusus Ibukota Jakarta 11610;RT.3/RW.2, Kembangan Sel., Kec. Kembangan, Kota Jakarta Barat;SUMATERA UTARA;11610;Indonesia;2129111111;;;-61.884.554;1.067.389.094;https://maps.google.com/?cid=0x0:0x41cca4768f8bf65b;
mall;Pusat Perbelanjaan;Gajah Mada Plaza Mall;Jl. Gajah Mada No.19 26, RT.2/RW.1, North Petojo, Gambir, Central Jakarta City, Jakarta 10130;RT.2/RW.1, North Petojo, Gambir, Central Jakarta City;SUMATERA UTARA;10130;Indonesia;2163858888;;;-61.607.576;1.068.187.836;https://maps.google.com/?cid=0x0:0x66b6d7b7ea79dc8a;
mall;Pusat Perbelanjaan;Plaza Indonesia;Jl. M.H. Thamrin No.Kav.28-30, Gondangdia, Kec. Menteng, Kota Jakarta Pusat, Daerah Khusus Ibukota Jakarta 10350;Gondangdia, Kec. Menteng, Kota Jakarta Pusat;SUMATERA UTARA;10350;Indonesia;2129920000;;;-61.935.977;1.068.219.468;https://maps.google.com/?cid=0x0:0x7d7fe17ad64a053f;
mall;Pusat Perbelanjaan;Mall Plaza Senayan;Jl. Asia Afrika No.8, RT.1/RW.3, Gelora, Kecamatan Tanah Abang, Kota Jakarta Pusat, Daerah Khusus Ibukota Jakarta 10270;RT.1/RW.3, Gelora, Kecamatan Tanah Abang, Kota Jakarta Pusat;SUMATERA UTARA;10270;Indonesia;215725555;;;-62.255.918;1.067.993.027;https://maps.google.com/?cid=0x0:0x788e3a1eef75ac94;
mall;Pusat Perbelanjaan;Pluit Village Mall;Jl. Pluit Indah, RT.6/RW.4, Pluit, Kec. Penjaringan, Jkt Utara, Daerah Khusus Ibukota Jakarta 14450;RT.6/RW.4, Pluit, Kec. Penjaringan, Jkt Utara;SUMATERA UTARA;14450;Indonesia;216683888;;;-61.164.462;1.067.896.199;https://maps.google.com/?cid=0x0:0xdacb917bfb866141;
mall;Pusat Perbelanjaan;Bintaro Jaya Xchange Mall;Jl. Lkr. Jaya No.24, Pd. Jaya, Kec. Pd. Aren, Tangerang, Banten 15227;Pd. Jaya, Kec. Pd. Aren, Tangerang;SUMATERA UTARA;15227;Indonesia;2129865000;;;-62.853.789;1.067.276.002;https://maps.google.com/?cid=0x0:0x7a92959c5f05e001;
mall;Pusat Perbelanjaan;Lippo Mall Nusantara;Kawasan Bisnis Granadha, Jl. Jend. Sudirman No.Kav. 50, Karet Semanggi, Kecamatan Setiabudi, Kota Jakarta Selatan, Daerah Khusus Ibukota Jakarta 12930;Jl. Jend. Sudirman No.Kav. 50, Karet Semanggi, Kecamatan Setiabudi, Kota Jakarta Selatan;SUMATERA UTARA;12930;Indonesia;81292197433;;;-62.208.309;106.813.989;https://maps.google.com/?cid=0x0:0x7a508480f6b357e9;
mall;Pusat Perbelanjaan;Emporium Pluit Mall;Jl. Pluit Selatan Raya No.1, Penjaringan, Kec. Penjaringan, Jkt Utara, Daerah Khusus Ibukota Jakarta 14440;Penjaringan, Kec. Penjaringan, Jkt Utara;SUMATERA UTARA;14440;Indonesia;2166676288;;;-61.272.711;1.067.909.758;https://maps.google.com/?cid=0x0:0x54cb9f1766bde458;
mall;Pusat Perbelanjaan;Puri Indah Mall;Jl. Puri Agung No.1, Kembangan Sel., Kec. Kembangan, Kota Jakarta Barat, Daerah Khusus Ibukota Jakarta 11610;Kembangan Sel., Kec. Kembangan, Kota Jakarta Barat;SUMATERA UTARA;11610;Indonesia;215822582;;;-61.890.746;1.067.334.914;https://maps.google.com/?cid=0x0:0x6653aecc17740a12;
mall;Kedai Kopi;TOMORO COFFEE - Gajah Mada Plaza;Jl. Gajah Mada No.19, RT.2/RW.1, Petojo Utara, Kecamatan Gambir, Kota Jakarta Pusat, Daerah Khusus Ibukota Jakarta 10130;RT.2/RW.1, Petojo Utara, Kecamatan Gambir, Kota Jakarta Pusat;SUMATERA UTARA;10130;Indonesia;;;;-6.160.875;1.068.182.303;https://maps.google.com/?cid=0x0:0x43cd66a05fc74326;
mall;Agen real estat;Green Sedayu Mall;Blk. B17, Jl. Taman Palem Lestari No.2, RT.7/RW.13, Cengkareng Bar., Kecamatan Cengkareng, Kota Jakarta Barat, Daerah Khusus Ibukota Jakarta 11730;Jl. Taman Palem Lestari No.2, RT.7/RW.13, Cengkareng Bar., Kecamatan Cengkareng, Kota Jakarta Barat;SUMATERA UTARA;11730;Indonesia;81386635688;;;-61.388.522;1.067.287.214;https://maps.google.com/?cid=0x0:0xd7fefe5d9828a2b1;
mall;Kedai Kopi;TOMORO COFFEE - Gedung City Plaza;No.42RT, Jl. Gatot Subroto No.3, RT.3/RW.2, Kuningan Bar., Kec. Mampang Prpt., Kota Jakarta Selatan, Daerah Khusus Ibukota Jakarta 12710;Jl. Gatot Subroto No.3, RT.3/RW.2, Kuningan Bar., Kec. Mampang Prpt., Kota Jakarta Selatan;SUMATERA UTARA;12710;Indonesia;81119207461;;;-62.361.996;1.068.233.396;https://maps.google.com/?cid=0x0:0xf6f838fcb2558e8;
mall;mall;Sumatera Utara 22867;Kabupaten Nias Selatan, Sumatera Utara;Kabupaten Nias Selatan, Sumatera Utara;SUMATERA UTARA;;Indonesia;;;;0.9212063;976.710.889;https://maps.google.com/?cid=0x0:0xe28ccee9e4064a40;
mall;Grosir Barang Kelontong;Usaha Golden;WMHP+67C, Unnamed Road, Marao, Kecamatan Ulunoyo, Kabupaten Nias Selatan, Sumatera Utara 22861;Unnamed Road, Marao, Kecamatan Ulunoyo, Kabupaten Nias Selatan;SUMATERA UTARA;22861;Indonesia;82166163843;;;0.9280617;976.856.527;https://maps.google.com/?cid=0x0:0x18ed0bde7383a313;
mall;Pusat Perbelanjaan;UD. SABDANI;WJWP+HJH, Jl. Ulunoyo, Koendrafo, Pekan Hililaza, Kabupaten Nias Selatan, Sumatera Utara 22867;Jl. Ulunoyo, Koendrafo, Pekan Hililaza, Kabupaten Nias Selatan;SUMATERA UTARA;22867;Indonesia;;;;0.9464456;976.366.125;https://maps.google.com/?cid=0x0:0x7ffba5cab50921a2;
mall;Toko Swalayan;Kedai STEPHAN;VHQJ+3G8, Lolowau, Kec. Lalowau, Kabupaten Nias Selatan, Sumatera Utara 22864;Lolowau, Kec. Lalowau, Kabupaten Nias Selatan;SUMATERA UTARA;22864;Indonesia;82161257585;;;0.8876504;975.813.298;https://maps.google.com/?cid=0x0:0x70c32a4a8ec47fb5;
mall;Pusat Perbelanjaan;UD.ERNI;VHRJ+85R, Unnamed Road, Lolowau, Kec. Lalowau, Kabupaten Nias Selatan, Sumatera Utara 22864;Unnamed Road, Lolowau, Kec. Lalowau, Kabupaten Nias Selatan;SUMATERA UTARA;22864;Indonesia;;;;0.8908567;975.803.944;https://maps.google.com/?cid=0x0:0x586bb7786e3b947d;
mall;Pusat Perbelanjaan;UD. AERYL HULU;5F6C+GMC, Desa, Ononazara, Kec. Tugala Oyo, Kabupaten Nias Utara, Sumatera Utara 22861;Desa, Ononazara, Kec. Tugala Oyo, Kabupaten Nias Utara;SUMATERA UTARA;22861;Indonesia;85296698019;;;11.613.212;97.471.648;https://maps.google.com/?cid=0x0:0xb271a7f8aa3bf168;
mall;Pasar;Pekan So'onogeu Hilisimaetano;MPCM+3M4, Desa Pekan, Hilisimaetano, Kec. Maniamolo, Kabupaten Nias Selatan, Sumatera Utara 22866;Desa Pekan, Hilisimaetano, Kec. Maniamolo, Kabupaten Nias Selatan;SUMATERA UTARA;22866;Indonesia;;;;0.6701341;977.342.094;https://maps.google.com/?cid=0x0:0xe183ccc071d8e3a4;
mall;Toko;Ud. Ramos A.elima Halawa;VHVJ+XHF, Lolowau, Kec. Lalowau, Kabupaten Nias Selatan, Sumatera Utara 22864;Lolowau, Kec. Lalowau, Kabupaten Nias Selatan;SUMATERA UTARA;22864;Indonesia;82164252043;;;0.8949477;975.814.274;https://maps.google.com/?cid=0x0:0xf25e9d7b33a4cb9c;
mall;Pusat Pendidikan;Ud.Charas;Jl. Umbunasi, Hiliwaebu, Kec. Lolomatua, Kabupaten Nias Selatan, Sumatera Utara 22852;Hiliwaebu, Kec. Lolomatua, Kabupaten Nias Selatan;SUMATERA UTARA;22852;Indonesia;81315370001;;;0.9159644;976.570.509;https://maps.google.com/?cid=0x0:0x295af1e9e18e2afe;
mall;Toko umum;UD Nanda Ndr;WJ59+X47, Satu, Togizita, Hilimegai, South Nias Regency, North Sumatra 22864;Satu, Togizita, Hilimegai, South Nias Regency;SUMATERA UTARA;22864;Indonesia;81362415596;;;0.9099197;976.178.029;https://maps.google.com/?cid=0x0:0x65494df3626addb3;
mall;Pusat Perbelanjaan;UD. SALMAN;RMFM+F9M, Fondrakoraya, Kec. Ulususua, Kabupaten Nias Selatan, Sumatera Utara 22864;Fondrakoraya, Kec. Ulususua, Kabupaten Nias Selatan;SUMATERA UTARA;22864;Indonesia;;;;0.8237206;976.834.067;https://maps.google.com/?cid=0x0:0xee5bc703fc6c907f;
mall;Pusat Perbelanjaan;Toko Syukur 2;Lolowau, Kec. Lalowau, Kabupaten Nias Selatan, Sumatera Utara 22864;Kec. Lalowau, Kabupaten Nias Selatan;SUMATERA UTARA;22864;Indonesia;81269526556;;;0.8931156;975.811.666;https://maps.google.com/?cid=0x0:0xfc79831999b28744;
mall;Toko;UD.ALVARO;RJ9H+2WG, Simpang Empat, Hilinamazihono, Tlk. Dalam, Kabupaten Nias Selatan, Sumatera Utara 22864;Simpang Empat, Hilinamazihono, Tlk. Dalam, Kabupaten Nias Selatan;SUMATERA UTARA;22864;Indonesia;82367484222;;;0.8175608;976.298.367;https://maps.google.com/?cid=0x0:0xd5e4c8ecaac937c5;
mall;Perhimpunan Pengembang Perumahan;Pasar Tuhemberua;Jl. Raya, Tuhemberua, Kec. Lolomatua, Kabupaten Nias Selatan, Sumatera Utara 22852;Tuhemberua, Kec. Lolomatua, Kabupaten Nias Selatan;SUMATERA UTARA;22852;Indonesia;;;;0.9136912;976.574.446;https://maps.google.com/?cid=0x0:0xc4161dfb2fca2112;
mall;Toko;UD.BALOIDO;2JMG+83V, Balodano, Kec. Ma'u, Kabupaten Nias, Sumatera Utara 22852;Balodano, Kec. Ma'u, Kabupaten Nias;SUMATERA UTARA;22852;Indonesia;;;;10.333.733;976.251.581;https://maps.google.com/?cid=0x0:0x854480e49851876b;
mall;Pusat Perbelanjaan;UD. PUTRI;VHRJ+R9P, Lolofaoso, Kec. Lalowau, Kabupaten Nias Selatan, Sumatera Utara 22864;Lolofaoso, Kec. Lalowau, Kabupaten Nias Selatan;SUMATERA UTARA;22864;Indonesia;;;;0.8919339;97.580.667;https://maps.google.com/?cid=0x0:0x1bb56ec7ffd33239;
mall;Toko Swalayan;UD.PUTRA;Lolowau, Kec. Lalowau, Kabupaten Nias Selatan, Sumatera Utara 22864;Kec. Lalowau, Kabupaten Nias Selatan;SUMATERA UTARA;22864;Indonesia;85275528548;;;0.8925534;975.811.739;https://maps.google.com/?cid=0x0:0x642f1669515e4b6d;
mall;mall;Kec. Umbunasi;Kabupaten Nias Selatan, Sumatera Utara;Kabupaten Nias Selatan, Sumatera Utara;SUMATERA UTARA;;Indonesia;;;;0.9049892;977.575.795;https://maps.google.com/?cid=0x0:0x759c688b550c8c83;
mall;Grosir Barang Kelontong;Usaha Golden;WMHP+67C, Unnamed Road, Marao, Kecamatan Ulunoyo, Kabupaten Nias Selatan, Sumatera Utara 22861;Unnamed Road, Marao, Kecamatan Ulunoyo, Kabupaten Nias Selatan;SUMATERA UTARA;22861;Indonesia;82166163843;;;0.9280617;976.856.527;https://maps.google.com/?cid=0x0:0x18ed0bde7383a313;
mall;Pusat Perbelanjaan;UD. Tiga Sinar;Umbu Orahua, Idanotae, Kabupaten Nias Selatan, Sumatera Utara 22873;Idanotae, Kabupaten Nias Selatan;SUMATERA UTARA;22873;Indonesia;82368124762;;;0.9083329;978.147.108;https://maps.google.com/?cid=0x0:0xd7866f958c479e2f;
mall;Pusat Perbelanjaan;UD. TOMOSI;Unnamed Road, Sifaoroasi Uluhou, Kec. Bawolato, Kabupaten Nias, Sumatera Utara 22876;Sifaoroasi Uluhou, Kec. Bawolato, Kabupaten Nias;SUMATERA UTARA;22876;Indonesia;;;;0.949518;978.008.012;https://maps.google.com/?cid=0x0:0x1ab9801dcd9915b5;
mall;Pusat Perbelanjaan;UD.LILY;5P52+JQM, Umbu, Kec. Gido, Kabupaten Nias, Sumatera Utara;Kabupaten Nias, Sumatera Utara;SUMATERA UTARA;;Indonesia;82276166391;;;11.590.902;977.019.371;https://maps.google.com/?cid=0x0:0xa0de17377241b827;
mall;Pusat Perbelanjaan;UD. Nius Ndruru;WQMX+542, Sifaoroasi Uluhou, Kec. Bawolato, Kabupaten Nias, Sumatera Utara 22876;Sifaoroasi Uluhou, Kec. Bawolato, Kabupaten Nias;SUMATERA UTARA;22876;Indonesia;;;;0.9328826;97.797.759;https://maps.google.com/?cid=0x0:0x6d09d3602ad9d8d2;
mall;Toko umum;UD. UMBU HAGA;4JJR+8C7, Ehosakhozi, Kec. HiliSerangkai, Kabupaten Nias Barat, Sumatera Utara 22871;Ehosakhozi, Kec. HiliSerangkai, Kabupaten Nias Barat;SUMATERA UTARA;22871;Indonesia;85371902927;;;11.307.925;976.410.532;https://maps.google.com/?cid=0x0:0x94c12626ff095952;
mall;Pusat Pendidikan;Ud.Charas;Jl. Umbunasi, Hiliwaebu, Kec. Lolomatua, Kabupaten Nias Selatan, Sumatera Utara 22852;Hiliwaebu, Kec. Lolomatua, Kabupaten Nias Selatan;SUMATERA UTARA;22852;Indonesia;81315370001;;;0.9159644;976.570.509;https://maps.google.com/?cid=0x0:0x295af1e9e18e2afe;
mall;Pusat Perbelanjaan;Pasar Rakyat Ulususua Kecamatan Ulususua;Ramba-Ramba, Kec. Amandraya, Kabupaten Nias Selatan, Sumatera Utara 22866;Kec. Amandraya, Kabupaten Nias Selatan;SUMATERA UTARA;22866;Indonesia;;;;0.8039159;977.034.855;https://maps.google.com/?cid=0x0:0x858afc9170990b89;
mall;mall;Kec. Ulususua;Kabupaten Nias Selatan, Sumatera Utara;Kabupaten Nias Selatan, Sumatera Utara;SUMATERA UTARA;;Indonesia;;;;0.8037018;977.045.146;https://maps.google.com/?cid=0x0:0x87b45889e4c7bdb1;
mall;Pusat Perbelanjaan;UD. DARNELL;RM8M+QGH, Fondrakoraya, Kec. Amandraya, Kabupaten Nias Selatan, Sumatera Utara 22864;Fondrakoraya, Kec. Amandraya, Kabupaten Nias Selatan;SUMATERA UTARA;22864;Indonesia;;;;0.816947;976.838.506;https://maps.google.com/?cid=0x0:0xddf5812590a9f2c1;
mall;Pusat Perbelanjaan;Pekan Godu Desa Susua kecamatan Ulususua;RP33+GJ6, kampung Godu Desa Susua, Ramba-Ramba, Kec. Ulususua, Kabupaten Nias Selatan, Sumatera Utara 22866;kampung Godu Desa Susua, Ramba-Ramba, Kec. Ulususua, Kabupaten Nias Selatan;SUMATERA UTARA;22866;Indonesia;;;;0.8037753;977.040.015;https://maps.google.com/?cid=0x0:0x241b5395f28b980c;
supermarket;Komplek perumahan;Jalan Desa Tuindrao;QM2C+Q3J, Unnamed Rd,, Tuindrao, Kec. Amandraya, Kabupaten Nias Selatan, Sumatera Utara 22866;Unnamed Rd,, Tuindrao, Kec. Amandraya, Kabupaten Nias Selatan;SUMATERA UTARA;22866;Indonesia;85297168237;;;0.7519622;976.701.488;https://maps.google.com/?cid=0x0:0x7c715f2761ec222a;
supermarket;supermarket;Kec. Amandraya;Kabupaten Nias Selatan, Sumatera Utara;Kabupaten Nias Selatan, Sumatera Utara;SUMATERA UTARA;;Indonesia;;;;0.7519013;976.700.678;https://maps.google.com/?cid=0x0:0x4039d80b220e1b0;
supermarket;Minimarket;UD.JOHAN A.EKA;QM49+F48, Tuindrao, Kec. Amandraya, Kabupaten Nias Selatan, Sumatera Utara 22866;Tuindrao, Kec. Amandraya, Kabupaten Nias Selatan;SUMATERA UTARA;22866;Indonesia;82274329259;;;0.7561718;976.678.407;https://maps.google.com/?cid=0x0:0x67f43e83d027d852;
supermarket;Toko umum;Kedei Famiko Simpang Ladeha;QM76+VC8, Lolomoyo, Kec. Amandraya, Kabupaten Nias Selatan, Sumatera Utara 22866;Lolomoyo, Kec. Amandraya, Kabupaten Nias Selatan;SUMATERA UTARA;22866;Indonesia;;;;0.764668;976.610.843;https://maps.google.com/?cid=0x0:0x2096700a32c0646e;
supermarket;Pusat Perbelanjaan;UD.Putra Kembar;QM86+82F, Unnamed Rd,, Lolomoyo, Kec. Amandraya, Kabupaten Nias Selatan, Sumatera Utara 22866;Unnamed Rd,, Lolomoyo, Kec. Amandraya, Kabupaten Nias Selatan;SUMATERA UTARA;22866;Indonesia;82374329259;;;0.7658199;976.600.391;https://maps.google.com/?cid=0x0:0xd76ad48502a0d712;
supermarket;Toko;UD. Neska;Desa Idala Jaya, Hilisimaetano, Kec. Maniamolo, Kabupaten Nias Selatan, Sumatera Utara 22865;Hilisimaetano, Kec. Maniamolo, Kabupaten Nias Selatan;SUMATERA UTARA;22865;Indonesia;82272058438;;;0.6536445;977.408.169;https://maps.google.com/?cid=0x0:0xb559543e11625c7c;
supermarket;Toko umum;Candra hal;MPRM+WCC, Hilifalawu, Kec. Maniamolo, Kabupaten Nias Selatan, Sumatera Utara 22866;Hilifalawu, Kec. Maniamolo, Kabupaten Nias Selatan;SUMATERA UTARA;22866;Indonesia;;;;0.6923046;977.335.226;https://maps.google.com/?cid=0x0:0x41d95498a5023055;
supermarket;Toko;UD. MITRA;PMXH+HM5 satu, Tuindrao, Amandraya, South Nias Regency, North Sumatra 22866;Tuindrao, Amandraya, South Nias Regency;SUMATERA UTARA;22866;Indonesia;;;;0.7488813;976.792.293;https://maps.google.com/?cid=0x0:0x1e66420e16896df9;
supermarket;Minimarket;Aman Mart Kalimalang;HNI PLAZA, Jl. Raya Kalimalang, RT.3/RW.10, Pd. Klp., Kec. Duren Sawit, Kota Jakarta Timur, Daerah Khusus Ibukota Jakarta 13450;Jl. Raya Kalimalang, RT.3/RW.10, Pd. Klp., Kec. Duren Sawit, Kota Jakarta Timur;SUMATERA UTARA;13450;Indonesia;;;;-62.475.398;1.069.271.388;https://maps.google.com/?cid=0x0:0xecde7059de6922b9;
supermarket;Toko Swalayan;Amanmart;MW2C+6X8, Jl. Raya Kranggan, RT.004/RW.009, Jatiraden, Kec. Jatisampurna, Kota Bks, Jawa Barat 17432;Jl. Raya Kranggan, RT.004/RW.009, Jatiraden, Kec. Jatisampurna, Kota Bks;SUMATERA UTARA;17432;Indonesia;;;;-63.493.438;1.069.224.415;https://maps.google.com/?cid=0x0:0xc20317068d602650;
supermarket;Kantor Perusahaan;HNI PLAZA;Jl. Raya Kalimalang, RT.3/RW.10, Pd. Klp., Kec. Duren Sawit, Kota Jakarta Timur, Daerah Khusus Ibukota Jakarta 13450;RT.3/RW.10, Pd. Klp., Kec. Duren Sawit, Kota Jakarta Timur;SUMATERA UTARA;13450;Indonesia;;;;-62.476.501;1.069.268.043;https://maps.google.com/?cid=0x0:0x84a61a8e91086d99;
supermarket;Toko;Orahili susua;JQ95+Q5G, Orahili Fau, fodrake, Kabupaten Nias Selatan, Sumatera Utara 22865;Orahili Fau, fodrake, Kabupaten Nias Selatan;SUMATERA UTARA;22865;Indonesia;85270381506;;;0.6194326;977.579.683;https://maps.google.com/?cid=0x0:0x81305babb5748516;
supermarket;supermarket;Sumatera Utara 22866;Kabupaten Nias Selatan, Sumatera Utara;Kabupaten Nias Selatan, Sumatera Utara;SUMATERA UTARA;;Indonesia;;;;0.7276191;977.199.454;https://maps.google.com/?cid=0x0:0xe99692ae94a1dd7b;
supermarket;supermarket;Ama Caesar Tafonao;VQQJ+Q92, Sungai Lotu, Lawa-lawa Luo Idanotae, Kec. Gomo, Kabupaten Nias Selatan, Sumatera Utara 22873;Sungai Lotu, Lawa-lawa Luo Idanotae, Kec. Gomo, Kabupaten Nias Selatan;SUMATERA UTARA;22873;Indonesia;;;;0.8893934;977.808.943;https://maps.google.com/?cid=0x0:0x90eaddfe447f2a79;
supermarket;Toko Roti;Aroma Bakery  Cake Shop;Jl. Karya Jaya No.88A, Pangkalan Masyhur, Kec. Medan Johor, Kota Medan, Sumatera Utara 20219;Pangkalan Masyhur, Kec. Medan Johor, Kota Medan;SUMATERA UTARA;20219;Indonesia;85373031723;;;3.534.535;98.677.891;https://maps.google.com/?cid=0x0:0x6f688d2492b54d66;
supermarket;supermarket;Kec. Boronadu;Kabupaten Nias Selatan, Sumatera Utara;Kabupaten Nias Selatan, Sumatera Utara;SUMATERA UTARA;;Indonesia;;;;0.8458179;977.295.635;https://maps.google.com/?cid=0x0:0x711c22fe137db771;
supermarket;Toko;UD saudara;WQ72+5MJ, Lawindra, Kec. Umbunasi, Kabupaten Nias Selatan, Sumatera Utara;Kabupaten Nias Selatan, Sumatera Utara;SUMATERA UTARA;;Indonesia;;;;0.9127547;977.515.981;https://maps.google.com/?cid=0x0:0x253278672fb8f76e;
supermarket;supermarket;UD. WENDY;VR44+CXM, Jl, Tundrumbaho, Sifaoroasi Gomo, Kec. Gomo, Kabupaten Nias Selatan, Sumatera Utara 22873;Jl, Tundrumbaho, Sifaoroasi Gomo, Kec. Gomo, Kabupaten Nias Selatan;SUMATERA UTARA;22873;Indonesia;;;;0.8560991;978.074.069;https://maps.google.com/?cid=0x0:0x8fe17f1a5b5ee6d4;
supermarket;Grosir Barang Kelontong;AMA WIWI NDRURU;WQ39+GQ2, Fanedanu, Kec. Gomo, Kabupaten Nias Selatan, Sumatera Utara 22873;Fanedanu, Kec. Gomo, Kabupaten Nias Selatan;SUMATERA UTARA;22873;Indonesia;;;;0.9037737;977.693.807;https://maps.google.com/?cid=0x0:0xe7bb9ce325c5f146;
supermarket;Toko umum;Desa Hiliana'a Susua;RQ37+F5V, Hilianaa Susua, Kec. Susua, Kabupaten Nias Selatan, Sumatera Utara 22873;Hilianaa Susua, Kec. Susua, Kabupaten Nias Selatan;SUMATERA UTARA;22873;Indonesia;;;;0.8037381;97.762.911;https://maps.google.com/?cid=0x0:0xbdba6d90d19edfa8;
supermarket;Kedai Kopi;UD irsan david;VQCG+GQQ, Hilianaa Gomo, Kec. Gomo, Kabupaten Nias Selatan, Sumatera Utara 22873;Hilianaa Gomo, Kec. Gomo, Kabupaten Nias Selatan;SUMATERA UTARA;22873;Indonesia;;;;0.8713436;977.769.875;https://maps.google.com/?cid=0x0:0xcd152fa41aec028e;
supermarket;supermarket;Sumatera Utara 22865;Kabupaten Nias Selatan, Sumatera Utara;Kabupaten Nias Selatan, Sumatera Utara;SUMATERA UTARA;;Indonesia;;;;0.6522317;978.068.851;https://maps.google.com/?cid=0x0:0x74ff33de5c459c9c;
supermarket;Inspektur Tempat Tinggal;Hiliamaetaniha, Teluk Dalam Nias Selatan.;Tlk., Hiliamaetaniha, Kec. Tlk. Dalam, Kabupaten Nias Selatan, Sumatera Utara 22865;Hiliamaetaniha, Kec. Tlk. Dalam, Kabupaten Nias Selatan;SUMATERA UTARA;22865;Indonesia;81294040067;;;0.5749949;977.455.364;https://maps.google.com/?cid=0x0:0x926d9ccdae89dc5a;
supermarket;;SBK Swalayan;Jl. Jenderal Sudirman, Ps. Tlk. Dalam, Kec. Tlk. Dalam, Kabupaten Nias Selatan, Sumatera Utara 22865;Ps. Tlk. Dalam, Kec. Tlk. Dalam, Kabupaten Nias Selatan;SUMATERA UTARA;22865;Indonesia;81264950504;;;0.5665053;978.183.744;https://maps.google.com/?cid=0x0:0x29ddecefff3206;
supermarket;Toko;UD. Kanaya;HR99+4F8, Jl. Diponegoro, Ps. Tlk. Dalam, Kec. Tlk. Dalam, Kabupaten Nias Selatan, Sumatera Utara 22865;Jl. Diponegoro, Ps. Tlk. Dalam, Kec. Tlk. Dalam, Kabupaten Nias Selatan;SUMATERA UTARA;22865;Indonesia;;;;0.5677979;978.186.902;https://maps.google.com/?cid=0x0:0x1d3792c62dc3ae60;
supermarket;Minimarket;Alfamidi Diponegoro Teluk Dalam;HRCF+GG6, Jl. Diponegoro, Ps. Tlk. Dalam, Kec. Tlk. Dalam, Kabupaten Nias Selatan, Sumatera Utara 22865;Jl. Diponegoro, Ps. Tlk. Dalam, Kec. Tlk. Dalam, Kabupaten Nias Selatan;SUMATERA UTARA;22865;Indonesia;;;;0.5712867;978.237.722;https://maps.google.com/?cid=0x0:0x1114ffc32334efe8;
supermarket;Toko Perlengkapan Rumah;UD Heni Duha;HRVM+9CF, Hiliamuri, Kec. Tlk. Dalam, Kabupaten Nias Selatan, Sumatera Utara 22865;Hiliamuri, Kec. Tlk. Dalam, Kabupaten Nias Selatan;SUMATERA UTARA;22865;Indonesia;82173120274;;;0.593685;97.833.519;https://maps.google.com/?cid=0x0:0x2c4664ca80dd9b0b;
supermarket;Toko;Cinta Mart;Jl. Diponegoro No.83, Tetehosi, Kecamatan Idanogawo, Kabupaten Nias, Sumatera Utara 22872;Tetehosi, Kecamatan Idanogawo, Kabupaten Nias;SUMATERA UTARA;22872;Indonesia;;;;10.266.668;977.717.121;https://maps.google.com/?cid=0x0:0xe5b75e354314622b;
supermarket;Minimarket;UD. Asran Maju;Jl. Diponegoro No.75, Tetehosi, Kecamatan Idanogawo, Kabupaten Nias, Sumatera Utara 22872;Tetehosi, Kecamatan Idanogawo, Kabupaten Nias;SUMATERA UTARA;22872;Indonesia;85275554193;;;10.266.938;977.715.478;https://maps.google.com/?cid=0x0:0xaec618fd8626c5a6;
supermarket;Toko Swalayan;Ud.Setia Kawan / STK;Jl. Jenderal Ahmad Yani, Ps. Tlk. Dalam, Kec. Tlk. Dalam, Kabupaten Nias Selatan, Sumatera Utara 22865;Ps. Tlk. Dalam, Kec. Tlk. Dalam, Kabupaten Nias Selatan;SUMATERA UTARA;22865;Indonesia;82338383832;;;0.5676903;978.190.109;https://maps.google.com/?cid=0x0:0x3020fe7b47fe1a2c;
supermarket;Toko Swalayan;Depot Air Karunia Abadi;HR98+GJ8, Jl. Saonigeho, Ps. Tlk. Dalam, Kec. Tlk. Dalam, Kabupaten Nias Selatan, Sumatera Utara 22865;Jl. Saonigeho, Ps. Tlk. Dalam, Kec. Tlk. Dalam, Kabupaten Nias Selatan;SUMATERA UTARA;22865;Indonesia;85358542000;;;0.568785;978.165.803;https://maps.google.com/?cid=0x0:0x95cb95b486bdf78f;
supermarket;supermarket;Nueli wehalo;JRCC+M5H, Hilimondregeraya, Kec. Tlk. Dalam, Kabupaten Nias Selatan, Sumatera Utara 22865;Hilimondregeraya, Kec. Tlk. Dalam, Kabupaten Nias Selatan;SUMATERA UTARA;22865;Indonesia;;;;0.6216871;978.204.791;https://maps.google.com/?cid=0x0:0x8a918314d29e46e4;
supermarket;Toko umum;UD. DEVI;XVF2+M62, Jl. Arah Tlk. Dalam, Hilialawa, Kec. Bawolato, Kabupaten Nias, Sumatera Utara 22876;Jl. Arah Tlk. Dalam, Hilialawa, Kec. Bawolato, Kabupaten Nias;SUMATERA UTARA;22876;Indonesia;;;;0.974131;978.505.157;https://maps.google.com/?cid=0x0:0x360e5ce65fb93519;
supermarket;Toko bahan makanan;SRC ZINO MART;Jl. Pelita No.9, Ps. Tlk. Dalam, Kec. Tlk. Dalam, Kabupaten Nias Selatan, Sumatera Utara 22865;Ps. Tlk. Dalam, Kec. Tlk. Dalam, Kabupaten Nias Selatan;SUMATERA UTARA;22865;Indonesia;8126043599;;;0.5684684;978.233.562;https://maps.google.com/?cid=0x0:0xaef5149de1757d6;
supermarket;Toko;Orahili susua;JQ95+Q5G, Orahili Fau, fodrake, Kabupaten Nias Selatan, Sumatera Utara 22865;Orahili Fau, fodrake, Kabupaten Nias Selatan;SUMATERA UTARA;22865;Indonesia;85270381506;;;0.6194326;977.579.683;https://maps.google.com/?cid=0x0:0x81305babb5748516;
supermarket;Toko;UD. Neska;Desa Idala Jaya, Hilisimaetano, Kec. Maniamolo, Kabupaten Nias Selatan, Sumatera Utara 22865;Hilisimaetano, Kec. Maniamolo, Kabupaten Nias Selatan;SUMATERA UTARA;22865;Indonesia;82272058438;;;0.6536445;977.408.169;https://maps.google.com/?cid=0x0:0xb559543e11625c7c;
supermarket;Toko Swalayan;UD. Talenta / Ama Lenta;HRCF+QJJ, Ps. Tlk. Dalam, Kec. Tlk. Dalam, Kabupaten Nias Selatan, Sumatera Utara 22865;Ps. Tlk. Dalam, Kec. Tlk. Dalam, Kabupaten Nias Selatan;SUMATERA UTARA;22865;Indonesia;;;;0.5719629;978.240.037;https://maps.google.com/?cid=0x0:0xca7ca74e6229b66b;
supermarket;Minimarket;Toko A/i Priska;JP49+C4P, Jl. Desa, Bawomaenamolo, Kec. Tlk. Dalam, Kabupaten Nias Selatan, Sumatera Utara 22865;Jl. Desa, Bawomaenamolo, Kec. Tlk. Dalam, Kabupaten Nias Selatan;SUMATERA UTARA;22865;Indonesia;;;;0.6060985;977.178.348;https://maps.google.com/?cid=0x0:0x798074b2d56cc668;
supermarket;Minimarket;Indomaret;Jl. Saonigeho Lorong II, Ps. Tlk. Dalam, Kec. Tlk. Dalam, Kabupaten Nias Selatan, Sumatera Utara 22865;Ps. Tlk. Dalam, Kec. Tlk. Dalam, Kabupaten Nias Selatan;SUMATERA UTARA;22865;Indonesia;;;;0.568347;978.182.174;https://maps.google.com/?cid=0x0:0x4cd6b761dcafbfd;
supermarket;Toko;UD. Alfred;HR89+JFH, Jl. DI Panjaitan, Ps. Tlk. Dalam, Kec. Tlk. Dalam, Kabupaten Nias Selatan, Sumatera Utara 22865;Jl. DI Panjaitan, Ps. Tlk. Dalam, Kec. Tlk. Dalam, Kabupaten Nias Selatan;SUMATERA UTARA;22865;Indonesia;;;;0.5665563;978.187.221;https://maps.google.com/?cid=0x0:0xa5b027f922047ed2;
supermarket;Pusat Perbelanjaan;Floren bll;PVCR+9Q7, Jl. Hiliorudua, Bawozihono, Kec. Lahusa, Kabupaten Nias Selatan, Sumatera Utara;Kabupaten Nias Selatan, Sumatera Utara;SUMATERA UTARA;;Indonesia;;;;0.7209152;978.919.166;https://maps.google.com/?cid=0x0:0x87bff51fac0320a1;
supermarket;Pasar;Solusi Belanja Harian Owen;HR89+2W7, Jl. Imam Bonjol, Ps. Tlk. Dalam, Kec. Tlk. Dalam, Kabupaten Nias Selatan, Sumatera Utara 22865;Jl. Imam Bonjol, Ps. Tlk. Dalam, Kec. Tlk. Dalam, Kabupaten Nias Selatan;SUMATERA UTARA;22865;Indonesia;;;;0.5650373;97.819.809;https://maps.google.com/?cid=0x0:0x24c96af4119fb41a;
supermarket;Toko umum;UD Onosakhi;HR99+7JP, Ps. Tlk. Dalam, Kec. Tlk. Dalam, Kabupaten Nias Selatan, Sumatera Utara 22865;Ps. Tlk. Dalam, Kec. Tlk. Dalam, Kabupaten Nias Selatan;SUMATERA UTARA;22865;Indonesia;;;;0.5682082;978.190.805;https://maps.google.com/?cid=0x0:0xbde74b18b31a3981;
supermarket;Brunch;Sri;HR99+7MC, Ps. Tlk. Dalam, Kec. Tlk. Dalam, Kabupaten Nias Selatan, Sumatera Utara;Kabupaten Nias Selatan, Sumatera Utara;SUMATERA UTARA;;Indonesia;;;;0.5681913;978.191.333;https://maps.google.com/?cid=0x0:0xdf6381bcf6a2fb1e;
supermarket;Toko;UD.OFE;VR45+93V, Sifaoroasi Gomo, Kec. Gomo, Kabupaten Nias Selatan, Sumatera Utara 22873;Sifaoroasi Gomo, Kec. Gomo, Kabupaten Nias Selatan;SUMATERA UTARA;22873;Indonesia;;;;0.8559306;978.076.891;https://maps.google.com/?cid=0x0:0xb710b42328c5db81;
supermarket;Grosir Barang Kelontong;AMA WIWI NDRURU;WQ39+GQ2, Fanedanu, Kec. Gomo, Kabupaten Nias Selatan, Sumatera Utara 22873;Fanedanu, Kec. Gomo, Kabupaten Nias Selatan;SUMATERA UTARA;22873;Indonesia;;;;0.9037737;977.693.807;https://maps.google.com/?cid=0x0:0xe7bb9ce325c5f146;
supermarket;Minimarket;Kedai Jhon Jhon;VRFM+CJP, Hilindraonolase, Lahusa, Kec. Gomo, Kabupaten Nias Selatan, Sumatera Utara;Kabupaten Nias Selatan, Sumatera Utara;SUMATERA UTARA;;Indonesia;;;;0.8735863;978.340.757;https://maps.google.com/?cid=0x0:0xc949f562432c0604;
supermarket;supermarket;Sumatera Utara 22873;Kabupaten Nias Selatan, Sumatera Utara;Kabupaten Nias Selatan, Sumatera Utara;SUMATERA UTARA;;Indonesia;;;;0.8784586;977.634.019;https://maps.google.com/?cid=0x0:0x1c559d138e2f7e02;
supermarket;Kedai Kopi;UD irsan david;VQCG+GQQ, Hilianaa Gomo, Kec. Gomo, Kabupaten Nias Selatan, Sumatera Utara 22873;Hilianaa Gomo, Kec. Gomo, Kabupaten Nias Selatan;SUMATERA UTARA;22873;Indonesia;;;;0.8713436;977.769.875;https://maps.google.com/?cid=0x0:0xcd152fa41aec028e;
supermarket;Toko Buah dan Sayuran;Brastagi Supermarket Tiara;Jl. Cut Mutia No.1, Madras Hulu, Kec. Medan Polonia, Kota Medan, Sumatera Utara 20212;Madras Hulu, Kec. Medan Polonia, Kota Medan;SUMATERA UTARA;20212;Indonesia;614516000;;;35.801.417;986.758.297;https://maps.google.com/?cid=0x0:0xcbec8b0c99682029;
supermarket;Toko;UD saudara;WQ72+5MJ, Lawindra, Kec. Umbunasi, Kabupaten Nias Selatan, Sumatera Utara;Kabupaten Nias Selatan, Sumatera Utara;SUMATERA UTARA;;Indonesia;;;;0.9127547;977.515.981;https://maps.google.com/?cid=0x0:0x253278672fb8f76e;
supermarket;Toko umum;Desa Hiliana'a Susua;RQ37+F5V, Hilianaa Susua, Kec. Susua, Kabupaten Nias Selatan, Sumatera Utara 22873;Hilianaa Susua, Kec. Susua, Kabupaten Nias Selatan;SUMATERA UTARA;22873;Indonesia;;;;0.8037381;97.762.911;https://maps.google.com/?cid=0x0:0xbdba6d90d19edfa8;
supermarket;Toko Swalayan;GS The Fresh Mampang;Jl. Buncit Raya No.301, Duren Tiga, Kec. Pancoran, Kota Jakarta Selatan, Daerah Khusus Ibukota Jakarta 12760;Duren Tiga, Kec. Pancoran, Kota Jakarta Selatan;SUMATERA UTARA;12760;Indonesia;2126961986;;;-6.256.991;106.828.987;https://maps.google.com/?cid=0x0:0x47a84d3b86619147;
supermarket;supermarket;UD. WENDY;VR44+CXM, Jl, Tundrumbaho, Sifaoroasi Gomo, Kec. Gomo, Kabupaten Nias Selatan, Sumatera Utara 22873;Jl, Tundrumbaho, Sifaoroasi Gomo, Kec. Gomo, Kabupaten Nias Selatan;SUMATERA UTARA;22873;Indonesia;;;;0.8560991;978.074.069;https://maps.google.com/?cid=0x0:0x8fe17f1a5b5ee6d4;
supermarket;Toko Swalayan;SUZUYA Superstore Kampung Baru Medan;Jl. Brigjend Katamso No.710, Kp. Baru, Kec. Medan Maimun, Kota Medan, Sumatera Utara 20217;Kp. Baru, Kec. Medan Maimun, Kota Medan;SUMATERA UTARA;20217;Indonesia;617882617;;;35.487.673;986.876.515;https://maps.google.com/?cid=0x0:0xc38fc38fc6e27750;
supermarket;Komplek perumahan;Jalan Desa Tuindrao;QM2C+Q3J, Unnamed Rd,, Tuindrao, Kec. Amandraya, Kabupaten Nias Selatan, Sumatera Utara 22866;Unnamed Rd,, Tuindrao, Kec. Amandraya, Kabupaten Nias Selatan;SUMATERA UTARA;22866;Indonesia;85297168237;;;0.7519622;976.701.488;https://maps.google.com/?cid=0x0:0x7c715f2761ec222a;
supermarket;supermarket;UD.GWEN Mart;Sifaoroasi Gomo, Kec. Gomo, Kabupaten Nias Selatan, Sumatera Utara;Kabupaten Nias Selatan, Sumatera Utara;SUMATERA UTARA;;Indonesia;;;;0.8516968;978.097.627;https://maps.google.com/?cid=0x0:0x2933a26015ff4e2b;
supermarket;Toko Swalayan;UD. PANDI FAMILY;RR5M+FW3, Ulu Idanoduo, Kec. Sidua'ori, Kabupaten Nias Selatan, Sumatera Utara 22874;Ulu Idanoduo, Kec. Sidua'ori, Kabupaten Nias Selatan;SUMATERA UTARA;22874;Indonesia;;;;0.8086422;978.348.053;https://maps.google.com/?cid=0x0:0xba90198c4fa029a4;
supermarket;Dapur Umum;DetaGulo;2J96+8H9 Simpang Melati, Jl. Lōlōwa'u, Ehosakhozi, Lolowau, Kabupaten Nias Selatan, Sumatera Utara 22852;Jl. Lōlōwa'u, Ehosakhozi, Lolowau, Kabupaten Nias Selatan;SUMATERA UTARA;22852;Indonesia;;;;10.182.986;976.114.867;https://maps.google.com/?cid=0x0:0x325ae0b6e6297c97;
supermarket;Perhimpunan Pengembang Perumahan;Pasar Tuhemberua;Jl. Raya, Tuhemberua, Kec. Lolomatua, Kabupaten Nias Selatan, Sumatera Utara 22852;Tuhemberua, Kec. Lolomatua, Kabupaten Nias Selatan;SUMATERA UTARA;22852;Indonesia;;;;0.9136912;976.574.446;https://maps.google.com/?cid=0x0:0xc4161dfb2fca2112;
supermarket;Minimarket;UD. Asran Maju;Jl. Diponegoro No.75, Tetehosi, Kecamatan Idanogawo, Kabupaten Nias, Sumatera Utara 22872;Tetehosi, Kecamatan Idanogawo, Kabupaten Nias;SUMATERA UTARA;22872;Indonesia;85275554193;;;10.266.938;977.715.478;https://maps.google.com/?cid=0x0:0xaec618fd8626c5a6;
supermarket;ATM;ATM BII Brastagi Supermarket;Jl. Gatot Subroto No. 288, Simpang Tanjung, Medan Sunggal, Sei Putih Tengah, Kec. Medan Petisah, Kota Medan, Sumatera Utara 20112;Simpang Tanjung, Medan Sunggal, Sei Putih Tengah, Kec. Medan Petisah, Kota Medan;SUMATERA UTARA;20112;Indonesia;211500611;;;35.910.718;986.547.617;https://maps.google.com/?cid=0x0:0xa75db4a24b6ceb82;
supermarket;Toko Buah dan Sayuran;Brastagi Supermarket;Jl. Gatot Subroto No.288, Sei Putih Tengah, Kec. Medan Petisah, Kota Medan, Sumatera Utara 20113;Sei Putih Tengah, Kec. Medan Petisah, Kota Medan;SUMATERA UTARA;20113;Indonesia;614572371;;;35.909.151;986.547.992;https://maps.google.com/?cid=0x0:0x9c8d28a69d64b4f;
supermarket;Toko Swalayan;Gs supermarket;Jl. KH. Hasyim Ashari No.93, RT.002/RW.003, Poris Plawad Utara, Kec. Cipondoh, Kota Tangerang, Banten 15148;RT.002/RW.003, Poris Plawad Utara, Kec. Cipondoh, Kota Tangerang;SUMATERA UTARA;15148;Indonesia;2155712070;;;-61.879.187;106.661.738;https://maps.google.com/?cid=0x0:0x86a83e6d17a220b2;
supermarket;Toko Swalayan;SuperIndo Mampang;Warung Buncit City Point,, Jl. Mampang Prapatan Raya, Jakarta Selatan, 12710;Jl. Mampang Prapatan Raya;SUMATERA UTARA;12710;Indonesia;217946253;;;-62.607;106.829.217;https://maps.google.com/?cid=0x0:0x900deda6ca5c1348;
supermarket;Toko;Cinta Mart;Jl. Diponegoro No.83, Tetehosi, Kecamatan Idanogawo, Kabupaten Nias, Sumatera Utara 22872;Tetehosi, Kecamatan Idanogawo, Kabupaten Nias;SUMATERA UTARA;22872;Indonesia;;;;10.266.668;977.717.121;https://maps.google.com/?cid=0x0:0xe5b75e354314622b;
supermarket;Toko Swalayan;GS THE FRESH JATIBENING;Jl. Caman Raya No.7-24, RT.004/RW.003, Jatibening, Kec. Pd. Gede, Kota Bks, Jawa Barat 17412;RT.004/RW.003, Jatibening, Kec. Pd. Gede, Kota Bks;SUMATERA UTARA;17412;Indonesia;2184982211;;;-62.676.455;1.069.436.409;https://maps.google.com/?cid=0x0:0x2cdb50c3ee3206c;
supermarket;Toko Swalayan;GS Supermarket Jatiasih;GsSupermarket :, Jl. Wibawa Mukti II No.125, RT.002/ RW017/RW.017, Jatiasih, Kec. Jatiasih, Kota Bks, Jawa Barat 17423;Jl. Wibawa Mukti II No.125, RT.002/ RW017/RW.017, Jatiasih, Kec. Jatiasih, Kota Bks;SUMATERA UTARA;17423;Indonesia;2182736918;;;-63.070.579;106.955.731;https://maps.google.com/?cid=0x0:0x74efd6ce433268e6;
supermarket;Toko Swalayan;GS Supermarket Legenda Wisata;Blok T Cluster, Jl. Da Vinci Jl. Legenda Wisata Boulevard No.16, Nagrak, Kec. Gn. Putri, Kabupaten Bogor, Jawa Barat 16967;Jl. Da Vinci Jl. Legenda Wisata Boulevard No.16, Nagrak, Kec. Gn. Putri, Kabupaten Bogor;SUMATERA UTARA;16967;Indonesia;2122950333;;;-63.910.974;1.069.480.619;https://maps.google.com/?cid=0x0:0xd6b083eb344b5a12;
supermarket;Toko;My Shop;QMRV+Q7G, RT.004/RW.003, Nerogtog, Kec. Pinang, Kota Tangerang, Banten 15145;RT.004/RW.003, Nerogtog, Kec. Pinang, Kota Tangerang;SUMATERA UTARA;15145;Indonesia;;;;-62.080.568;1.066.932.099;https://maps.google.com/?cid=0x0:0x78aef888ff11492b;
supermarket;Toko Swalayan;GS The Fresh Supermarket Kemang Pratama;Linc Square Kemang Pratama, Jl. Kemang Pratama Raya, RT.004/RW.001, Bojong Rawalumbu, Kec. Rawalumbu, Kota Bks, Jawa Barat 17116;Jl. Kemang Pratama Raya, RT.004/RW.001, Bojong Rawalumbu, Kec. Rawalumbu, Kota Bks;SUMATERA UTARA;17116;Indonesia;2182416910;;;-62.779.418;1.069.910.558;https://maps.google.com/?cid=0x0:0x4ce692f4b9ef21ee;
supermarket;Pusat Perbelanjaan;GS The Fresh BOXIES;Jl. Raya Tajur No.125, RT.01/RW.06, Tajur, Kec. Bogor Tim., Kota Bogor, Jawa Barat 16141;RT.01/RW.06, Tajur, Kec. Bogor Tim., Kota Bogor;SUMATERA UTARA;16141;Indonesia;;;;-66.338.534;1.068.265.902;https://maps.google.com/?cid=0x0:0xf2e999dd0f1bdf6;
supermarket;Inspektur Tempat Tinggal;Hiliamaetaniha, Teluk Dalam Nias Selatan.;Tlk., Hiliamaetaniha, Kec. Tlk. Dalam, Kabupaten Nias Selatan, Sumatera Utara 22865;Hiliamaetaniha, Kec. Tlk. Dalam, Kabupaten Nias Selatan;SUMATERA UTARA;22865;Indonesia;81294040067;;;0.5749949;977.455.364;https://maps.google.com/?cid=0x0:0x926d9ccdae89dc5a;
supermarket;supermarket;Kec. Hilimegai;Kabupaten Nias Selatan, Sumatera Utara;Kabupaten Nias Selatan, Sumatera Utara;SUMATERA UTARA;;Indonesia;;;;0.9036874;976.222.804;https://maps.google.com/?cid=0x0:0x90dbe191a730425e;
supermarket;Toko;Hiliwosi;RMMJ+22F, Fondrakoraya, Kec. Ulususua, Kabupaten Nias Selatan, Sumatera Utara 22864;Fondrakoraya, Kec. Ulususua, Kabupaten Nias Selatan;SUMATERA UTARA;22864;Indonesia;81361070735;;;0.8325276;976.800.083;https://maps.google.com/?cid=0x0:0xfd4919e3bb9a5168;
supermarket;Pasar;Pasar Hililaza;WJWP+CPG, Hililaza, Hiliotalua, Kec. Lolomatua, Kabupaten Nias Selatan, Sumatera Utara 22867;Hililaza, Hiliotalua, Kec. Lolomatua, Kabupaten Nias Selatan;SUMATERA UTARA;22867;Indonesia;;;;0.9460715;976.368.227;https://maps.google.com/?cid=0x0:0xa971301976ed9379;
supermarket;Toko Swalayan;UD.RAFIQ GAS;VHVJ+PC7, Jl. Nias Tengah, Lolowau, Kec. Lalowau, Kabupaten Nias Selatan, Sumatera Utara 22864;Jl. Nias Tengah, Lolowau, Kec. Lalowau, Kabupaten Nias Selatan;SUMATERA UTARA;22864;Indonesia;82369773183;;;0.8942813;975.810.531;https://maps.google.com/?cid=0x0:0xe62c4c4c711412be;
supermarket;Grosir Mebel;UD. MARVEL;WM56+M9G, Unnamed Road, Hiliwaebu, Kecamatan Ulunoyo, Kabupaten Nias Selatan, Sumatera Utara 22867;Unnamed Road, Hiliwaebu, Kecamatan Ulunoyo, Kabupaten Nias Selatan;SUMATERA UTARA;22867;Indonesia;;;;0.9091787;976.609.616;https://maps.google.com/?cid=0x0:0xd21928e146275b5c;
supermarket;Toko bahan makanan;UD. DESI PENGECER BBM;VHGJ+VPQ, Tuhegafoa, Kec. Lalowau, Kabupaten Nias Selatan, Sumatera Utara 22864;Tuhegafoa, Kec. Lalowau, Kabupaten Nias Selatan;SUMATERA UTARA;22864;Indonesia;;;;0.8772238;975.818.541;https://maps.google.com/?cid=0x0:0x7cf5c53be272eead;
supermarket;Toko;Fajy Store;Jl. Negara Satu No.40 Dusun 2, Tuindrao, Kec. Amandraya, Kabupaten Nias Selatan, Sumatera Utara 22866;Tuindrao, Kec. Amandraya, Kabupaten Nias Selatan;SUMATERA UTARA;22866;Indonesia;81321156697;;;0.7541825;976.692.075;https://maps.google.com/?cid=0x0:0x31697b5178971640;
supermarket;Toko umum;Kedei Famiko Simpang Ladeha;QM76+VC8, Lolomoyo, Kec. Amandraya, Kabupaten Nias Selatan, Sumatera Utara 22866;Lolomoyo, Kec. Amandraya, Kabupaten Nias Selatan;SUMATERA UTARA;22866;Indonesia;;;;0.764668;976.610.843;https://maps.google.com/?cid=0x0:0x2096700a32c0646e;
supermarket;Komplek perumahan;Rumah kita;WJM6+42H, Unnamed Road, Lauso, Kec. Lalowau, Kabupaten Nias Selatan, Sumatera Utara 22864;Unnamed Road, Lauso, Kec. Lalowau, Kabupaten Nias Selatan;SUMATERA UTARA;22864;Indonesia;;;;0.9328248;976.101.017;https://maps.google.com/?cid=0x0:0x6a792d191f292c86;
supermarket;Toko umum;UD KERIT;RMMH+9RH, Hilifaosi, Kec. Hilimegai, Kabupaten Nias, Sumatera Utara;Kabupaten Nias, Sumatera Utara;SUMATERA UTARA;;Indonesia;;;;0.8334283;976.795.944;https://maps.google.com/?cid=0x0:0xcca13c6ec16fe1b3;
supermarket;supermarket;Kec. Hilisalawa'ahe;Kabupaten Nias Selatan, Sumatera Utara;Kabupaten Nias Selatan, Sumatera Utara;SUMATERA UTARA;;Indonesia;;;;0.9334927;9.756.552;https://maps.google.com/?cid=0x0:0x45a298cec7e9fef9;
supermarket;Toko;UD VESTER Naomi sea;Sisobahili Siwalawa, Kec. Lalowau, Kabupaten Nias Selatan, Sumatera Utara 22864;Kec. Lalowau, Kabupaten Nias Selatan;SUMATERA UTARA;22864;Indonesia;85306300195;;;0.932815;975.663.068;https://maps.google.com/?cid=0x0:0x35348f2dd2d1a971;
supermarket;Pusat Perbelanjaan;UD. RETHA;WH2J+GXG, Lolowau, Kec. Lalowau, Kabupaten Nias Selatan, Sumatera Utara 22864;Lolowau, Kec. Lalowau, Kabupaten Nias Selatan;SUMATERA UTARA;22864;Indonesia;81384503929;;;0.9013094;975.824.423;https://maps.google.com/?cid=0x0:0xceba32412dbd9bff;
supermarket;Komplek perumahan;Rumah kita;WJM6+42H, Unnamed Road, Lauso, Kec. Lalowau, Kabupaten Nias Selatan, Sumatera Utara 22864;Unnamed Road, Lauso, Kec. Lalowau, Kabupaten Nias Selatan;SUMATERA UTARA;22864;Indonesia;;;;0.9328248;976.101.017;https://maps.google.com/?cid=0x0:0x6a792d191f292c86;
supermarket;Toko umum;Berlina;XH4P+QR2, Soroma'asi, Kec. Onohazumba, Kabupaten Nias Selatan, Sumatera Utara 22864;Soroma'asi, Kec. Onohazumba, Kabupaten Nias Selatan;SUMATERA UTARA;22864;Indonesia;;;;0.9568916;975.870.271;https://maps.google.com/?cid=0x0:0x475a9eba9915682d;
supermarket;Toko;UD. TUWUNI;WH2J+5J9, Unnamed Road, Lolowau, Kec. Lalowau, Kabupaten Nias Selatan, Sumatera Utara 22864;Unnamed Road, Lolowau, Kec. Lalowau, Kabupaten Nias Selatan;SUMATERA UTARA;22864;Indonesia;;;;0.9004168;975.816.019;https://maps.google.com/?cid=0x0:0x37194e9b8067e58f;
supermarket;Toko;UD.PASRAH;XHCH+PJV, Soroma'asi, Kec. Onohazumba, Kabupaten Nias Selatan, Sumatera Utara 22864;Soroma'asi, Kec. Onohazumba, Kabupaten Nias Selatan;SUMATERA UTARA;22864;Indonesia;;;;0.9718736;975.790.409;https://maps.google.com/?cid=0x0:0x541ebf50d90aab00;
supermarket;supermarket;Sumatera Utara 22867;Kabupaten Nias Selatan, Sumatera Utara;Kabupaten Nias Selatan, Sumatera Utara;SUMATERA UTARA;;Indonesia;;;;0.9212063;976.710.889;https://maps.google.com/?cid=0x0:0xe28ccee9e4064a40;
supermarket;Komplek perumahan;Rumah Stephan Gulo;XJW9+53X, Jl. Lōlōwa'u, Ehosakhozi, Kec. Huruna, Kabupaten Nias Selatan, Sumatera Utara 22852;Jl. Lōlōwa'u, Ehosakhozi, Kec. Huruna, Kabupaten Nias Selatan;SUMATERA UTARA;22852;Indonesia;;;;0.9953803;976.178.279;https://maps.google.com/?cid=0x0:0x7f49955f40605a9a;
supermarket;Pusat Perbelanjaan;UD.putra;XJPC+VWP, Hilizoliga, Kec. Lalowau, Kabupaten Nias Selatan, Sumatera Utara 22864;Hilizoliga, Kec. Lalowau, Kabupaten Nias Selatan;SUMATERA UTARA;22864;Indonesia;85367320924;;;0.9872172;976.223.348;https://maps.google.com/?cid=0x0:0xff055320a94996b0;
supermarket;Grosir Mebel;UD. MARVEL;WM56+M9G, Unnamed Road, Hiliwaebu, Kecamatan Ulunoyo, Kabupaten Nias Selatan, Sumatera Utara 22867;Unnamed Road, Hiliwaebu, Kecamatan Ulunoyo, Kabupaten Nias Selatan;SUMATERA UTARA;22867;Indonesia;;;;0.9091787;976.609.616;https://maps.google.com/?cid=0x0:0xd21928e146275b5c;
supermarket;supermarket;Kec. Huruna;Kabupaten Nias Selatan, Sumatera Utara;Kabupaten Nias Selatan, Sumatera Utara;SUMATERA UTARA;;Indonesia;;;;0.9861964;976.190.128;https://maps.google.com/?cid=0x0:0x489ef38f203c27a5;
supermarket;Toko;Rumah Yonzi halawa;XJG5+8F8, Olayama, Kec. Huruna, Kabupaten Nias Selatan, Sumatera Utara 22864;Olayama, Kec. Huruna, Kabupaten Nias Selatan;SUMATERA UTARA;22864;Indonesia;;;;0.9757907;976.087.108;https://maps.google.com/?cid=0x0:0x10398a8b3acf15b6;
supermarket;Dapur Umum;DetaGulo;2J96+8H9 Simpang Melati, Jl. Lōlōwa'u, Ehosakhozi, Lolowau, Kabupaten Nias Selatan, Sumatera Utara 22852;Jl. Lōlōwa'u, Ehosakhozi, Lolowau, Kabupaten Nias Selatan;SUMATERA UTARA;22852;Indonesia;;;;10.182.986;976.114.867;https://maps.google.com/?cid=0x0:0x325ae0b6e6297c97;
supermarket;Toko umum;UD.RONALD;Siforoasi, Kec. Lolomatua, Kabupaten Nias Selatan, Sumatera Utara 22871;Kec. Lolomatua, Kabupaten Nias Selatan;SUMATERA UTARA;22871;Indonesia;;;;0.9998674;976.374.822;https://maps.google.com/?cid=0x0:0x6ab520b5ea3c767d;
supermarket;Perhimpunan Pengembang Perumahan;Pasar Tuhemberua;Jl. Raya, Tuhemberua, Kec. Lolomatua, Kabupaten Nias Selatan, Sumatera Utara 22852;Tuhemberua, Kec. Lolomatua, Kabupaten Nias Selatan;SUMATERA UTARA;22852;Indonesia;;;;0.9136912;976.574.446;https://maps.google.com/?cid=0x0:0xc4161dfb2fca2112;
supermarket;Pasar;Pasar Hililaza;WJWP+CPG, Hililaza, Hiliotalua, Kec. Lolomatua, Kabupaten Nias Selatan, Sumatera Utara 22867;Hililaza, Hiliotalua, Kec. Lolomatua, Kabupaten Nias Selatan;SUMATERA UTARA;22867;Indonesia;;;;0.9460715;976.368.227;https://maps.google.com/?cid=0x0:0xa971301976ed9379;
supermarket;Minimarket;ALFAMIDI LAHUSA;QV3G+XP9, Jl. Merdeka, Bawootalua, Kec. Lahusa, Kabupaten Nias Selatan, Sumatera Utara 22874;Jl. Merdeka, Bawootalua, Kec. Lahusa, Kabupaten Nias Selatan;SUMATERA UTARA;22874;Indonesia;;;;0.7549144;978.768.479;https://maps.google.com/?cid=0x0:0xce2d5e053f7a18c7;
supermarket;;SBK Swalayan;Jl. Jenderal Sudirman, Ps. Tlk. Dalam, Kec. Tlk. Dalam, Kabupaten Nias Selatan, Sumatera Utara 22865;Ps. Tlk. Dalam, Kec. Tlk. Dalam, Kabupaten Nias Selatan;SUMATERA UTARA;22865;Indonesia;81264950504;;;0.5665053;978.183.744;https://maps.google.com/?cid=0x0:0x29ddecefff3206;
supermarket;supermarket;Sumatera Utara 22874;Kec. Somambawa, Sumatera Utara;Sumatera Utara;SUMATERA UTARA;;Indonesia;;;;0.812216;978.395.151;https://maps.google.com/?cid=0x0:0x98a468159f14150a;
supermarket;Toko;UD. Baliokara;QRPX+55R, Desa Mondrowe, Kec. Sidua'ori, Kabupaten Nias Selatan, Sumatera Utara 22874;Desa Mondrowe, Kec. Sidua'ori, Kabupaten Nias Selatan;SUMATERA UTARA;22874;Indonesia;85275130085;;;0.7854989;978.478.898;https://maps.google.com/?cid=0x0:0xfef854a7c36dbf1a;
supermarket;Toko bahan makanan;UD.DESI;Jl. Bawõlato, Sihareo, Kec. Lahusa, Kabupaten Nias Selatan, Sumatera Utara 22874;Sihareo, Kec. Lahusa, Kabupaten Nias Selatan;SUMATERA UTARA;22874;Indonesia;82360202696;;;0.8408185;9.788.687;https://maps.google.com/?cid=0x0:0xfb712e54fed23429;
supermarket;supermarket;Sumatera Utara 22867;Kabupaten Nias Selatan, Sumatera Utara;Kabupaten Nias Selatan, Sumatera Utara;SUMATERA UTARA;;Indonesia;;;;0.9212063;976.710.889;https://maps.google.com/?cid=0x0:0xe28ccee9e4064a40;
supermarket;Toko;Cinta Mart;Jl. Diponegoro No.83, Tetehosi, Kecamatan Idanogawo, Kabupaten Nias, Sumatera Utara 22872;Tetehosi, Kecamatan Idanogawo, Kabupaten Nias;SUMATERA UTARA;22872;Indonesia;;;;10.266.668;977.717.121;https://maps.google.com/?cid=0x0:0xe5b75e354314622b;
supermarket;Pasar;Pasar Hililaza;WJWP+CPG, Hililaza, Hiliotalua, Kec. Lolomatua, Kabupaten Nias Selatan, Sumatera Utara 22867;Hililaza, Hiliotalua, Kec. Lolomatua, Kabupaten Nias Selatan;SUMATERA UTARA;22867;Indonesia;;;;0.9460715;976.368.227;https://maps.google.com/?cid=0x0:0xa971301976ed9379;
supermarket;Pusat Perbelanjaan;UD. RETHA;WH2J+GXG, Lolowau, Kec. Lalowau, Kabupaten Nias Selatan, Sumatera Utara 22864;Lolowau, Kec. Lalowau, Kabupaten Nias Selatan;SUMATERA UTARA;22864;Indonesia;81384503929;;;0.9013094;975.824.423;https://maps.google.com/?cid=0x0:0xceba32412dbd9bff;
supermarket;Toko Swalayan;Lolo Anaa Idanegawo;2QH7+WCM, Tetehosi, Kecamatan Idanogawo, Kabupaten Nias, Sumatera Utara 22872;Tetehosi, Kecamatan Idanogawo, Kabupaten Nias;SUMATERA UTARA;22872;Indonesia;81270265274;;;10.298.434;977.635.324;https://maps.google.com/?cid=0x0:0x2c39ec5d342201eb;
supermarket;Toko Swalayan;UD.RAFIQ GAS;VHVJ+PC7, Jl. Nias Tengah, Lolowau, Kec. Lalowau, Kabupaten Nias Selatan, Sumatera Utara 22864;Jl. Nias Tengah, Lolowau, Kec. Lalowau, Kabupaten Nias Selatan;SUMATERA UTARA;22864;Indonesia;82369773183;;;0.8942813;975.810.531;https://maps.google.com/?cid=0x0:0xe62c4c4c711412be;
supermarket;Komplek perumahan;Rumah Stephan Gulo;XJW9+53X, Jl. Lōlōwa'u, Ehosakhozi, Kec. Huruna, Kabupaten Nias Selatan, Sumatera Utara 22852;Jl. Lōlōwa'u, Ehosakhozi, Kec. Huruna, Kabupaten Nias Selatan;SUMATERA UTARA;22852;Indonesia;;;;0.9953803;976.178.279;https://maps.google.com/?cid=0x0:0x7f49955f40605a9a;
supermarket;Grosir Mebel;UD. MARVEL;WM56+M9G, Unnamed Road, Hiliwaebu, Kecamatan Ulunoyo, Kabupaten Nias Selatan, Sumatera Utara 22867;Unnamed Road, Hiliwaebu, Kecamatan Ulunoyo, Kabupaten Nias Selatan;SUMATERA UTARA;22867;Indonesia;;;;0.9091787;976.609.616;https://maps.google.com/?cid=0x0:0xd21928e146275b5c;
supermarket;Pusat Perbelanjaan;UD. Laow;Jl. Bakaru, Lolozasai, Kec. Gido, Kabupaten Nias, Sumatera Utara 22871;Lolozasai, Kec. Gido, Kabupaten Nias;SUMATERA UTARA;22871;Indonesia;;;;11.456.205;977.087.923;https://maps.google.com/?cid=0x0:0x95eabf3a96303b18;
supermarket;Komplek perumahan;Loloanaa;WM66+46W, Tuhemberua, Kec. Lolomatua, Kabupaten Nias Selatan, Sumatera Utara 22867;Tuhemberua, Kec. Lolomatua, Kabupaten Nias Selatan;SUMATERA UTARA;22867;Indonesia;;;;0.9104978;976.614.955;https://maps.google.com/?cid=0x0:0x4fec2a5b0aeb82f8;
supermarket;Toko bahan makanan;UD. DESI PENGECER BBM;VHGJ+VPQ, Tuhegafoa, Kec. Lalowau, Kabupaten Nias Selatan, Sumatera Utara 22864;Tuhegafoa, Kec. Lalowau, Kabupaten Nias Selatan;SUMATERA UTARA;22864;Indonesia;;;;0.8772238;975.818.541;https://maps.google.com/?cid=0x0:0x7cf5c53be272eead;
supermarket;Komplek perumahan;Rumah kita;WJM6+42H, Unnamed Road, Lauso, Kec. Lalowau, Kabupaten Nias Selatan, Sumatera Utara 22864;Unnamed Road, Lauso, Kec. Lalowau, Kabupaten Nias Selatan;SUMATERA UTARA;22864;Indonesia;;;;0.9328248;976.101.017;https://maps.google.com/?cid=0x0:0x6a792d191f292c86;
supermarket;Perhimpunan Pengembang Perumahan;Pasar Tuhemberua;Jl. Raya, Tuhemberua, Kec. Lolomatua, Kabupaten Nias Selatan, Sumatera Utara 22852;Tuhemberua, Kec. Lolomatua, Kabupaten Nias Selatan;SUMATERA UTARA;22852;Indonesia;;;;0.9136912;976.574.446;https://maps.google.com/?cid=0x0:0xc4161dfb2fca2112;
supermarket;Toko Perlengkapan Rumah;Kedai Wendy;WJWP+CJ9, Koendrafo, Kec. Lolomatua, Kabupaten Nias Selatan, Sumatera Utara 22867;Koendrafo, Kec. Lolomatua, Kabupaten Nias Selatan;SUMATERA UTARA;22867;Indonesia;81269494017;;;0.946031;976.366.243;https://maps.google.com/?cid=0x0:0x56d53755346317bf;
supermarket;Toko umum;UD.RONALD;Siforoasi, Kec. Lolomatua, Kabupaten Nias Selatan, Sumatera Utara 22871;Kec. Lolomatua, Kabupaten Nias Selatan;SUMATERA UTARA;22871;Indonesia;;;;0.9998674;976.374.822;https://maps.google.com/?cid=0x0:0x6ab520b5ea3c767d;
supermarket;Dapur Umum;DetaGulo;2J96+8H9 Simpang Melati, Jl. Lōlōwa'u, Ehosakhozi, Lolowau, Kabupaten Nias Selatan, Sumatera Utara 22852;Jl. Lōlōwa'u, Ehosakhozi, Lolowau, Kabupaten Nias Selatan;SUMATERA UTARA;22852;Indonesia;;;;10.182.986;976.114.867;https://maps.google.com/?cid=0x0:0x325ae0b6e6297c97;
supermarket;Sarapan;Menjual Sembako;WM37+V6G, Hiliwaebu, Kecamatan Ulunoyo, Kabupaten Nias Selatan, Sumatera Utara;Kabupaten Nias Selatan, Sumatera Utara;SUMATERA UTARA;;Indonesia;;;;0.9046926;976.630.886;https://maps.google.com/?cid=0x0:0x17ad61e355e38313;
supermarket;Gudang;Kilang Padi Trisno Halawa;VMFQ+M9R, Sambulu, Kecamatan Ulunoyo, Kabupaten Nias Selatan, Sumatera Utara 22867;Sambulu, Kecamatan Ulunoyo, Kabupaten Nias Selatan;SUMATERA UTARA;22867;Indonesia;81263111518;;;0.8742435;976.883.942;https://maps.google.com/?cid=0x0:0x63fb29516796d892;
supermarket;Toko umum;Berlina;XH4P+QR2, Soroma'asi, Kec. Onohazumba, Kabupaten Nias Selatan, Sumatera Utara 22864;Soroma'asi, Kec. Onohazumba, Kabupaten Nias Selatan;SUMATERA UTARA;22864;Indonesia;;;;0.9568916;975.870.271;https://maps.google.com/?cid=0x0:0x475a9eba9915682d;
supermarket;Toko;Rumah Yonzi halawa;XJG5+8F8, Olayama, Kec. Huruna, Kabupaten Nias Selatan, Sumatera Utara 22864;Olayama, Kec. Huruna, Kabupaten Nias Selatan;SUMATERA UTARA;22864;Indonesia;;;;0.9757907;976.087.108;https://maps.google.com/?cid=0x0:0x10398a8b3acf15b6;
supermarket;Toko;UD. TUWUNI;WH2J+5J9, Unnamed Road, Lolowau, Kec. Lalowau, Kabupaten Nias Selatan, Sumatera Utara 22864;Unnamed Road, Lolowau, Kec. Lalowau, Kabupaten Nias Selatan;SUMATERA UTARA;22864;Indonesia;;;;0.9004168;975.816.019;https://maps.google.com/?cid=0x0:0x37194e9b8067e58f;
supermarket;supermarket;Warung Pak Ama Dian Laia;XJ7Q+5FR, Jl. Lölömoyo, Lawa-Lawa Luo, Kec. Lolomatua, Kabupaten Nias Selatan, Sumatera Utara;Kabupaten Nias Selatan, Sumatera Utara;SUMATERA UTARA;;Indonesia;81375421760;;;0.9629897;976.386.339;https://maps.google.com/?cid=0x0:0xdf438b35dc4d0f73;
supermarket;Pusat Perbelanjaan;UD. Laow;Jl. Bakaru, Lolozasai, Kec. Gido, Kabupaten Nias, Sumatera Utara 22871;Lolozasai, Kec. Gido, Kabupaten Nias;SUMATERA UTARA;22871;Indonesia;;;;11.456.205;977.087.923;https://maps.google.com/?cid=0x0:0x95eabf3a96303b18;
supermarket;supermarket;Sumatera Utara 22864;Fadoro Ewo, Kec. Onohazumba, Sumatera Utara;Sumatera Utara;SUMATERA UTARA;;Indonesia;;;;0.9546136;975.463.885;https://maps.google.com/?cid=0x0:0x375fb153a9e5ec99;
supermarket;Kantor Pemerintah;Desa Lolowau;VHWG+367, Lolowau, Kec. Lalowau, Kabupaten Nias Selatan, Sumatera Utara;Kabupaten Nias Selatan, Sumatera Utara;SUMATERA UTARA;;Indonesia;;;;0.895244;97.576.678;https://maps.google.com/?cid=0x0:0xa65c43605ee89f5;
supermarket;Pusat Perbelanjaan;UD. RETHA;WH2J+GXG, Lolowau, Kec. Lalowau, Kabupaten Nias Selatan, Sumatera Utara 22864;Lolowau, Kec. Lalowau, Kabupaten Nias Selatan;SUMATERA UTARA;22864;Indonesia;81384503929;;;0.9013094;975.824.423;https://maps.google.com/?cid=0x0:0xceba32412dbd9bff;
supermarket;Toko Swalayan;UD.RAFIQ GAS;VHVJ+PC7, Jl. Nias Tengah, Lolowau, Kec. Lalowau, Kabupaten Nias Selatan, Sumatera Utara 22864;Jl. Nias Tengah, Lolowau, Kec. Lalowau, Kabupaten Nias Selatan;SUMATERA UTARA;22864;Indonesia;82369773183;;;0.8942813;975.810.531;https://maps.google.com/?cid=0x0:0xe62c4c4c711412be;
supermarket;Toko;UD. TUWUNI;WH2J+5J9, Unnamed Road, Lolowau, Kec. Lalowau, Kabupaten Nias Selatan, Sumatera Utara 22864;Unnamed Road, Lolowau, Kec. Lalowau, Kabupaten Nias Selatan;SUMATERA UTARA;22864;Indonesia;;;;0.9004168;975.816.019;https://maps.google.com/?cid=0x0:0x37194e9b8067e58f;
supermarket;supermarket;Kec. Lalowau;Kabupaten Nias Selatan, Sumatera Utara;Kabupaten Nias Selatan, Sumatera Utara;SUMATERA UTARA;;Indonesia;;;;0.8987401;975.807.578;https://maps.google.com/?cid=0x0:0xf95176532e196f80;
supermarket;Toko bahan makanan;UD. DESI PENGECER BBM;VHGJ+VPQ, Tuhegafoa, Kec. Lalowau, Kabupaten Nias Selatan, Sumatera Utara 22864;Tuhegafoa, Kec. Lalowau, Kabupaten Nias Selatan;SUMATERA UTARA;22864;Indonesia;;;;0.8772238;975.818.541;https://maps.google.com/?cid=0x0:0x7cf5c53be272eead;
supermarket;Toko;UD VESTER Naomi sea;Sisobahili Siwalawa, Kec. Lalowau, Kabupaten Nias Selatan, Sumatera Utara 22864;Kec. Lalowau, Kabupaten Nias Selatan;SUMATERA UTARA;22864;Indonesia;85306300195;;;0.932815;975.663.068;https://maps.google.com/?cid=0x0:0x35348f2dd2d1a971;
supermarket;Toko bahan makanan;Warung A. Tinu Waruwu;VHX2+8JC, Lolowau, Kec. Lalowau, Kabupaten Nias Selatan, Sumatera Utara;Kabupaten Nias Selatan, Sumatera Utara;SUMATERA UTARA;;Indonesia;;;;0.8983067;97.551.503;https://maps.google.com/?cid=0x0:0xdb36569d06741b83;
supermarket;Komplek perumahan;Rumah kita;WJM6+42H, Unnamed Road, Lauso, Kec. Lalowau, Kabupaten Nias Selatan, Sumatera Utara 22864;Unnamed Road, Lauso, Kec. Lalowau, Kabupaten Nias Selatan;SUMATERA UTARA;22864;Indonesia;;;;0.9328248;976.101.017;https://maps.google.com/?cid=0x0:0x6a792d191f292c86;
supermarket;supermarket;Kec. Maniamolo;Kabupaten Nias Selatan, Sumatera Utara;Kabupaten Nias Selatan, Sumatera Utara;SUMATERA UTARA;;Indonesia;;;;0.6692396;977.345.621;https://maps.google.com/?cid=0x0:0xf48d422cb70255ad;
supermarket;Toko;UD. Neska;Desa Idala Jaya, Hilisimaetano, Kec. Maniamolo, Kabupaten Nias Selatan, Sumatera Utara 22865;Hilisimaetano, Kec. Maniamolo, Kabupaten Nias Selatan;SUMATERA UTARA;22865;Indonesia;82272058438;;;0.6536445;977.408.169;https://maps.google.com/?cid=0x0:0xb559543e11625c7c;
supermarket;Toko;Orahili susua;JQ95+Q5G, Orahili Fau, fodrake, Kabupaten Nias Selatan, Sumatera Utara 22865;Orahili Fau, fodrake, Kabupaten Nias Selatan;SUMATERA UTARA;22865;Indonesia;85270381506;;;0.6194326;977.579.683;https://maps.google.com/?cid=0x0:0x81305babb5748516;
supermarket;Toko umum;Candra hal;MPRM+WCC, Hilifalawu, Kec. Maniamolo, Kabupaten Nias Selatan, Sumatera Utara 22866;Hilifalawu, Kec. Maniamolo, Kabupaten Nias Selatan;SUMATERA UTARA;22866;Indonesia;;;;0.6923046;977.335.226;https://maps.google.com/?cid=0x0:0x41d95498a5023055;
supermarket;Minimarket;Toko A/i Priska;JP49+C4P, Jl. Desa, Bawomaenamolo, Kec. Tlk. Dalam, Kabupaten Nias Selatan, Sumatera Utara 22865;Jl. Desa, Bawomaenamolo, Kec. Tlk. Dalam, Kabupaten Nias Selatan;SUMATERA UTARA;22865;Indonesia;;;;0.6060985;977.178.348;https://maps.google.com/?cid=0x0:0x798074b2d56cc668;
supermarket;supermarket;Sumatera Utara 22873;Kabupaten Nias Selatan, Sumatera Utara;Kabupaten Nias Selatan, Sumatera Utara;SUMATERA UTARA;;Indonesia;;;;0.8784586;977.634.019;https://maps.google.com/?cid=0x0:0x1c559d138e2f7e02;
supermarket;Toko Buah dan Sayuran;Brastagi Supermarket Tiara;Jl. Cut Mutia No.1, Madras Hulu, Kec. Medan Polonia, Kota Medan, Sumatera Utara 20212;Madras Hulu, Kec. Medan Polonia, Kota Medan;SUMATERA UTARA;20212;Indonesia;614516000;;;35.801.417;986.758.297;https://maps.google.com/?cid=0x0:0xcbec8b0c99682029;
supermarket;supermarket;market mantap;HMXH+W67, Unnamed Road, Gaharu, Kec. Medan Tim., Kota Medan, Sumatera Utara 20234;Unnamed Road, Gaharu, Kec. Medan Tim., Kota Medan;SUMATERA UTARA;20234;Indonesia;85954852263;;;35.997.852;986.780.515;https://maps.google.com/?cid=0x0:0x9457299de7566dab;
supermarket;Toko Swalayan;Oke SUPERMARKET;GQCP+CJW, Jl. Dahlan Tj., Limau Manis, Kec. Tj. Morawa, Kabupaten Deli Serdang, Sumatera Utara 20362;Jl. Dahlan Tj., Limau Manis, Kec. Tj. Morawa, Kabupaten Deli Serdang;SUMATERA UTARA;20362;Indonesia;;;;35.211.056;987.865.779;https://maps.google.com/?cid=0x0:0x33ec73d7219820d3;
supermarket;Toko Swalayan;GS The Fresh Mampang;Jl. Buncit Raya No.301, Duren Tiga, Kec. Pancoran, Kota Jakarta Selatan, Daerah Khusus Ibukota Jakarta 12760;Duren Tiga, Kec. Pancoran, Kota Jakarta Selatan;SUMATERA UTARA;12760;Indonesia;2126961986;;;-6.256.991;106.828.987;https://maps.google.com/?cid=0x0:0x47a84d3b86619147;
supermarket;Toko Swalayan;GS THE FRESH JATIBENING;Jl. Caman Raya No.7-24, RT.004/RW.003, Jatibening, Kec. Pd. Gede, Kota Bks, Jawa Barat 17412;RT.004/RW.003, Jatibening, Kec. Pd. Gede, Kota Bks;SUMATERA UTARA;17412;Indonesia;2184982211;;;-62.676.455;1.069.436.409;https://maps.google.com/?cid=0x0:0x2cdb50c3ee3206c;
supermarket;Pusat Perbelanjaan;GS The Fresh BOXIES;Jl. Raya Tajur No.125, RT.01/RW.06, Tajur, Kec. Bogor Tim., Kota Bogor, Jawa Barat 16141;RT.01/RW.06, Tajur, Kec. Bogor Tim., Kota Bogor;SUMATERA UTARA;16141;Indonesia;;;;-66.338.534;1.068.265.902;https://maps.google.com/?cid=0x0:0xf2e999dd0f1bdf6;
supermarket;supermarket;Kec. O'o'u;Kabupaten Nias Selatan, Sumatera Utara;Kabupaten Nias Selatan, Sumatera Utara;SUMATERA UTARA;;Indonesia;;;;0.8277964;976.254.226;https://maps.google.com/?cid=0x0:0x8404a2fec6ebbce2;
supermarket;Komplek perumahan;Jalan Desa Tuindrao;QM2C+Q3J, Unnamed Rd,, Tuindrao, Kec. Amandraya, Kabupaten Nias Selatan, Sumatera Utara 22866;Unnamed Rd,, Tuindrao, Kec. Amandraya, Kabupaten Nias Selatan;SUMATERA UTARA;22866;Indonesia;85297168237;;;0.7519622;976.701.488;https://maps.google.com/?cid=0x0:0x7c715f2761ec222a;
supermarket;Minimarket;UD.JOHAN A.EKA;QM49+F48, Tuindrao, Kec. Amandraya, Kabupaten Nias Selatan, Sumatera Utara 22866;Tuindrao, Kec. Amandraya, Kabupaten Nias Selatan;SUMATERA UTARA;22866;Indonesia;82274329259;;;0.7561718;976.678.407;https://maps.google.com/?cid=0x0:0x67f43e83d027d852;
supermarket;Pusat Perbelanjaan;Aido Supermarket;Jl. Padang Sidempuan No.89, Pandan, Kec. Pandan, Kabupaten Tapanuli Tengah, Sumatera Utara 22537;Pandan, Kec. Pandan, Kabupaten Tapanuli Tengah;SUMATERA UTARA;22537;Indonesia;;;;16.799.608;988.238.786;https://maps.google.com/?cid=0x0:0x11b37e7fc5d4f8dc;
supermarket;Toko umum;Kedei Famiko Simpang Ladeha;QM76+VC8, Lolomoyo, Kec. Amandraya, Kabupaten Nias Selatan, Sumatera Utara 22866;Lolomoyo, Kec. Amandraya, Kabupaten Nias Selatan;SUMATERA UTARA;22866;Indonesia;;;;0.764668;976.610.843;https://maps.google.com/?cid=0x0:0x2096700a32c0646e;
supermarket;Toko;Fajy Store;Jl. Negara Satu No.40 Dusun 2, Tuindrao, Kec. Amandraya, Kabupaten Nias Selatan, Sumatera Utara 22866;Tuindrao, Kec. Amandraya, Kabupaten Nias Selatan;SUMATERA UTARA;22866;Indonesia;81321156697;;;0.7541825;976.692.075;https://maps.google.com/?cid=0x0:0x31697b5178971640;
supermarket;Minimarket;UD. Famahowu;RJM9+GRP Desa Siofabanua, Dusun I, Hilimbowo, Kec. O'o'u, Kabupaten Nias Selatan, Sumatera Utara 22864;Dusun I, Hilimbowo, Kec. O'o'u, Kabupaten Nias Selatan;SUMATERA UTARA;22864;Indonesia;;;;0.8338311;976.195.626;https://maps.google.com/?cid=0x0:0xe71778f071d5c8d8;
supermarket;Pusat Perbelanjaan;UD.Putra Kembar;QM86+82F, Unnamed Rd,, Lolomoyo, Kec. Amandraya, Kabupaten Nias Selatan, Sumatera Utara 22866;Unnamed Rd,, Lolomoyo, Kec. Amandraya, Kabupaten Nias Selatan;SUMATERA UTARA;22866;Indonesia;82374329259;;;0.7658199;976.600.391;https://maps.google.com/?cid=0x0:0xd76ad48502a0d712;
supermarket;supermarket;Rumah Tian;RJ7J+6JW Rumah Tian Ndruru, Hilinamazihono, Kec. O'o'u, Kabupaten Nias Selatan, Sumatera Utara;Kabupaten Nias Selatan, Sumatera Utara;SUMATERA UTARA;;Indonesia;;;;0.8131125;976.315.781;https://maps.google.com/?cid=0x0:0x6a792e1df1e07165;
supermarket;Universitas Negeri;Olabisi Onabanjo University, Ogun State, Nigeria. Permanent Site;WVG9+7GF, Olabisi Onabanjo University, Sigunsin, Nigeria;Sigunsin, Nigeria;SUMATERA UTARA;;Indonesia;;;;692.569;38.687.898;https://maps.google.com/?cid=0x0:0xdcfc14a0de71344f;
supermarket;Toko;New Motion Ground;WV8F+5RV, Olabisi Onabanjo University, Sigunsin, Nigeria;Sigunsin, Nigeria;SUMATERA UTARA;;Indonesia;;;;69.154.949;38.745.443;https://maps.google.com/?cid=0x0:0xa3c968863b01a6de;
supermarket;Universitas;Olabisi Onabanjo University;WRFP+9HF, Ago-Iwoye - Ilisan road, Ago-Iwoye, Nigeria;Ago-Iwoye, Nigeria;SUMATERA UTARA;;Indonesia;2,34806E+12;;;69.234.407;38.364.065;https://maps.google.com/?cid=0x0:0x51ce11c27d6dddee;
supermarket;supermarket;Kec. Onohazumba;Kabupaten Nias Selatan, Sumatera Utara;Kabupaten Nias Selatan, Sumatera Utara;SUMATERA UTARA;;Indonesia;;;;0.9512675;97.593.993;https://maps.google.com/?cid=0x0:0xeea8d49c9a6e5f0c;
supermarket;Pusat Perbelanjaan;UD. RETHA;WH2J+GXG, Lolowau, Kec. Lalowau, Kabupaten Nias Selatan, Sumatera Utara 22864;Lolowau, Kec. Lalowau, Kabupaten Nias Selatan;SUMATERA UTARA;22864;Indonesia;81384503929;;;0.9013094;975.824.423;https://maps.google.com/?cid=0x0:0xceba32412dbd9bff;
supermarket;Komplek perumahan;Rumah Stephan Gulo;XJW9+53X, Jl. Lōlōwa'u, Ehosakhozi, Kec. Huruna, Kabupaten Nias Selatan, Sumatera Utara 22852;Jl. Lōlōwa'u, Ehosakhozi, Kec. Huruna, Kabupaten Nias Selatan;SUMATERA UTARA;22852;Indonesia;;;;0.9953803;976.178.279;https://maps.google.com/?cid=0x0:0x7f49955f40605a9a;
supermarket;Pusat Perbelanjaan;UD.putra;XJPC+VWP, Hilizoliga, Kec. Lalowau, Kabupaten Nias Selatan, Sumatera Utara 22864;Hilizoliga, Kec. Lalowau, Kabupaten Nias Selatan;SUMATERA UTARA;22864;Indonesia;85367320924;;;0.9872172;976.223.348;https://maps.google.com/?cid=0x0:0xff055320a94996b0;
supermarket;Sekolah pendidikan umum;SMAN 1 ONOHAZUMBA;Sisarahili Oyo, Kec. Onohazumba, Kabupaten Nias Selatan, Sumatera Utara 22864;Kec. Onohazumba, Kabupaten Nias Selatan;SUMATERA UTARA;22864;Indonesia;;;;0.9432119;975.976.675;https://maps.google.com/?cid=0x0:0xab3f7c0ab11933f9;
supermarket;Toko bahan makanan;UD. DESI PENGECER BBM;VHGJ+VPQ, Tuhegafoa, Kec. Lalowau, Kabupaten Nias Selatan, Sumatera Utara 22864;Tuhegafoa, Kec. Lalowau, Kabupaten Nias Selatan;SUMATERA UTARA;22864;Indonesia;;;;0.8772238;975.818.541;https://maps.google.com/?cid=0x0:0x7cf5c53be272eead;
supermarket;Gereja;Ono hazumba;XH2V+GJ2, Soroma'asi, Kec. Onohazumba, Kabupaten Nias Selatan, Sumatera Utara;Kabupaten Nias Selatan, Sumatera Utara;SUMATERA UTARA;;Indonesia;;;;0.9512746;975.940.153;https://maps.google.com/?cid=0x0:0xbaf5fc5d61ec4a37;
supermarket;Toko;UD.PASRAH;XHCH+PJV, Soroma'asi, Kec. Onohazumba, Kabupaten Nias Selatan, Sumatera Utara 22864;Soroma'asi, Kec. Onohazumba, Kabupaten Nias Selatan;SUMATERA UTARA;22864;Indonesia;;;;0.9718736;975.790.409;https://maps.google.com/?cid=0x0:0x541ebf50d90aab00;
supermarket;Toko umum;Berlina;XH4P+QR2, Soroma'asi, Kec. Onohazumba, Kabupaten Nias Selatan, Sumatera Utara 22864;Soroma'asi, Kec. Onohazumba, Kabupaten Nias Selatan;SUMATERA UTARA;22864;Indonesia;;;;0.9568916;975.870.271;https://maps.google.com/?cid=0x0:0x475a9eba9915682d;
supermarket;Komplek perumahan;Rumah kita;WJM6+42H, Unnamed Road, Lauso, Kec. Lalowau, Kabupaten Nias Selatan, Sumatera Utara 22864;Unnamed Road, Lauso, Kec. Lalowau, Kabupaten Nias Selatan;SUMATERA UTARA;22864;Indonesia;;;;0.9328248;976.101.017;https://maps.google.com/?cid=0x0:0x6a792d191f292c86;
supermarket;Toko;UD VESTER Naomi sea;Sisobahili Siwalawa, Kec. Lalowau, Kabupaten Nias Selatan, Sumatera Utara 22864;Kec. Lalowau, Kabupaten Nias Selatan;SUMATERA UTARA;22864;Indonesia;85306300195;;;0.932815;975.663.068;https://maps.google.com/?cid=0x0:0x35348f2dd2d1a971;
supermarket;Toko Perlengkapan Rumah;Kedai Wendy;WJWP+CJ9, Koendrafo, Kec. Lolomatua, Kabupaten Nias Selatan, Sumatera Utara 22867;Koendrafo, Kec. Lolomatua, Kabupaten Nias Selatan;SUMATERA UTARA;22867;Indonesia;81269494017;;;0.946031;976.366.243;https://maps.google.com/?cid=0x0:0x56d53755346317bf;
supermarket;Dapur Umum;DetaGulo;2J96+8H9 Simpang Melati, Jl. Lōlōwa'u, Ehosakhozi, Lolowau, Kabupaten Nias Selatan, Sumatera Utara 22852;Jl. Lōlōwa'u, Ehosakhozi, Lolowau, Kabupaten Nias Selatan;SUMATERA UTARA;22852;Indonesia;;;;10.182.986;976.114.867;https://maps.google.com/?cid=0x0:0x325ae0b6e6297c97;
supermarket;Toko;Rumah Yonzi halawa;XJG5+8F8, Olayama, Kec. Huruna, Kabupaten Nias Selatan, Sumatera Utara 22864;Olayama, Kec. Huruna, Kabupaten Nias Selatan;SUMATERA UTARA;22864;Indonesia;;;;0.9757907;976.087.108;https://maps.google.com/?cid=0x0:0x10398a8b3acf15b6;
supermarket;Toko umum;U.D Berlian Jaya;W7RP+32C, Silimaewali, Kec. Pulau-Pulau Batu, Kabupaten Nias Selatan, Sumatera Utara 22881;Silimaewali, Kec. Pulau-Pulau Batu, Kabupaten Nias Selatan;SUMATERA UTARA;22881;Indonesia;82304547077;;;-0.0598087;982.850.135;https://maps.google.com/?cid=0x0:0xe9cccdbec7968671;
supermarket;Pusat Perbelanjaan;UD.WYBER;X779+48R, Loboi, Kec. Pulau-Pulau Batu, Kabupaten Nias Selatan, Sumatera Utara 22881;Loboi, Kec. Pulau-Pulau Batu, Kabupaten Nias Selatan;SUMATERA UTARA;22881;Indonesia;;;;-0.0374749;982.671.734;https://maps.google.com/?cid=0x0:0x9dac40de8bda4e2b;
supermarket;supermarket;Kec. Pulau-Pulau Batu;Kabupaten Nias Selatan, Sumatera Utara;Kabupaten Nias Selatan, Sumatera Utara;SUMATERA UTARA;;Indonesia;;;;-0.0523019;982.824.655;https://maps.google.com/?cid=0x0:0xc69c3107fbcddb60;
supermarket;Grosir minuman beralkohol;SMARCO SUPERMART;Jl. Ir. H. Juanda No.63, Mesjid, Kec. Medan Maimun, Kota Medan, Sumatera Utara 20214;Mesjid, Kec. Medan Maimun, Kota Medan;SUMATERA UTARA;20214;Indonesia;81239883655;;;35.723.005;986.802.188;https://maps.google.com/?cid=0x0:0xdd71a899ec68fd31;
supermarket;Minimarket;Smarco Superstore Supermarket;Jl. Gagak Hitam No.28, Tj. Rejo, Kec. Medan Sunggal, Kota Medan, Sumatera Utara 20122;Tj. Rejo, Kec. Medan Sunggal, Kota Medan;SUMATERA UTARA;20122;Indonesia;81239883655;;;35.754.968;986.257.062;https://maps.google.com/?cid=0x0:0x66794b77627be68d;
supermarket;supermarket;Kec. Pulau-pulau Batu Barat;Kabupaten Nias Selatan, Sumatera Utara;Kabupaten Nias Selatan, Sumatera Utara;SUMATERA UTARA;;Indonesia;;;;-0.1375886;983.423.066;https://maps.google.com/?cid=0x0:0x9fa58cf04fda20ae;
supermarket;Toko bahan makanan;6633 Super Mart;3-5, Jalan Pasar, 31000 Batu Gajah, Perak, Malaysia;Batu Gajah;SUMATERA UTARA;31000;Indonesia;;;;4.469.784;1.010.410.411;https://maps.google.com/?cid=0x0:0x9bea8af5bce19ba;
supermarket;Pusat Perbelanjaan;Swalayan Timur Baru Galang;Jl. Bukit Barisan No.125, Sungei Putih, Kec. Galang, Kabupaten Deli Serdang, Sumatera Utara 20585;Sungei Putih, Kec. Galang, Kabupaten Deli Serdang;SUMATERA UTARA;20585;Indonesia;82167600181;;;34.326.013;989.003.784;https://maps.google.com/?cid=0x0:0xdc6673a772f5f528;
supermarket;Toko bahan makanan;Timur Jaya Mart Galang;CVMX+2QC, Jl. Perintis Kemerdekaan, Sungei Putih, Kec. Galang, Kabupaten Deli Serdang, Sumatera Utara 20585;Jl. Perintis Kemerdekaan, Sungei Putih, Kec. Galang, Kabupaten Deli Serdang;SUMATERA UTARA;20585;Indonesia;81380986099;;;34.325.584;988.993.935;https://maps.google.com/?cid=0x0:0xc551798e4da667c4;
supermarket;Takoyaki;Takoyaki Genki - Irian Supermarket HM JONI;Irian Supermarket  Dept Store, Bahagia No, 1Teladan Tim, Medan Kota, Medan City, North Sumatra 20216;Bahagia No, 1Teladan Tim, Medan Kota, Medan City;SUMATERA UTARA;20216;Indonesia;87897307300;;;35.681.237;987.033.612;https://maps.google.com/?cid=0x0:0xe6a5e821fba7921b;
supermarket;Pusat Perbelanjaan;Irian Supermarket  Dept. Store;Jl. HM. Joni No.47-46, Teladan Tim., Kec. Medan Area, Kota Medan, Sumatera Utara 20216;Teladan Tim., Kec. Medan Area, Kota Medan;SUMATERA UTARA;20216;Indonesia;;;;35.681.237;987.033.612;https://maps.google.com/?cid=0x0:0x685ecab8f86f1421;
supermarket;Fotografer;Jack Pro;Samping Irian Supermarket, Jl. HM. Joni Gg. Istimewa No.26 A, Teladan Tim., Kec. Medan Area, Kota Medan, Sumatera Utara 20217;Jl. HM. Joni Gg. Istimewa No.26 A, Teladan Tim., Kec. Medan Area, Kota Medan;SUMATERA UTARA;20217;Indonesia;;;;35.687.402;987.010.647;https://maps.google.com/?cid=0x0:0x41db5ea3363de867;
supermarket;supermarket;Kec. Pulau Pulau Batu Timur;Kabupaten Nias Selatan, Sumatera Utara;Kabupaten Nias Selatan, Sumatera Utara;SUMATERA UTARA;;Indonesia;;;;-0.0470494;985.270.445;https://maps.google.com/?cid=0x0:0xec329ae6b61511b3;
supermarket;supermarket;Kec. Pulau-Pulau Batu;Kabupaten Nias Selatan, Sumatera Utara;Kabupaten Nias Selatan, Sumatera Utara;SUMATERA UTARA;;Indonesia;;;;-0.0523019;982.824.655;https://maps.google.com/?cid=0x0:0xc69c3107fbcddb60;
supermarket;Toko umum;U.D Berlian Jaya;W7RP+32C, Silimaewali, Kec. Pulau-Pulau Batu, Kabupaten Nias Selatan, Sumatera Utara 22881;Silimaewali, Kec. Pulau-Pulau Batu, Kabupaten Nias Selatan;SUMATERA UTARA;22881;Indonesia;82304547077;;;-0.0598087;982.850.135;https://maps.google.com/?cid=0x0:0xe9cccdbec7968671;
supermarket;Pusat Perbelanjaan;UD.WYBER;X779+48R, Loboi, Kec. Pulau-Pulau Batu, Kabupaten Nias Selatan, Sumatera Utara 22881;Loboi, Kec. Pulau-Pulau Batu, Kabupaten Nias Selatan;SUMATERA UTARA;22881;Indonesia;;;;-0.0374749;982.671.734;https://maps.google.com/?cid=0x0:0x9dac40de8bda4e2b;
supermarket;supermarket;Sumatera Utara 22874;Kec. Somambawa, Sumatera Utara;Sumatera Utara;SUMATERA UTARA;;Indonesia;;;;0.812216;978.395.151;https://maps.google.com/?cid=0x0:0x98a468159f14150a;
supermarket;Toko;UD. Baliokara;QRPX+55R, Desa Mondrowe, Kec. Sidua'ori, Kabupaten Nias Selatan, Sumatera Utara 22874;Desa Mondrowe, Kec. Sidua'ori, Kabupaten Nias Selatan;SUMATERA UTARA;22874;Indonesia;85275130085;;;0.7854989;978.478.898;https://maps.google.com/?cid=0x0:0xfef854a7c36dbf1a;
supermarket;Toko Swalayan;UD. PANDI FAMILY;RR5M+FW3, Ulu Idanoduo, Kec. Sidua'ori, Kabupaten Nias Selatan, Sumatera Utara 22874;Ulu Idanoduo, Kec. Sidua'ori, Kabupaten Nias Selatan;SUMATERA UTARA;22874;Indonesia;;;;0.8086422;978.348.053;https://maps.google.com/?cid=0x0:0xba90198c4fa029a4;
supermarket;;SBK Swalayan;Jl. Jenderal Sudirman, Ps. Tlk. Dalam, Kec. Tlk. Dalam, Kabupaten Nias Selatan, Sumatera Utara 22865;Ps. Tlk. Dalam, Kec. Tlk. Dalam, Kabupaten Nias Selatan;SUMATERA UTARA;22865;Indonesia;81264950504;;;0.5665053;978.183.744;https://maps.google.com/?cid=0x0:0x29ddecefff3206;
supermarket;Toko Perlengkapan Rumah;UD Heni Duha;HRVM+9CF, Hiliamuri, Kec. Tlk. Dalam, Kabupaten Nias Selatan, Sumatera Utara 22865;Hiliamuri, Kec. Tlk. Dalam, Kabupaten Nias Selatan;SUMATERA UTARA;22865;Indonesia;82173120274;;;0.593685;97.833.519;https://maps.google.com/?cid=0x0:0x2c4664ca80dd9b0b;
supermarket;Toko Swalayan;ALFAMIDI SUDIRMAN Teluk Dalam;Jl. Jenderal Sudirman No.88, Ps. Tlk. Dalam, Kec. Tlk. Dalam, Kabupaten Nias Selatan, Sumatera Utara 22865;Ps. Tlk. Dalam, Kec. Tlk. Dalam, Kabupaten Nias Selatan;SUMATERA UTARA;22865;Indonesia;;;;0.5649182;978.190.674;https://maps.google.com/?cid=0x0:0xcd4a663e19513bbe;
supermarket;Grosir Barang Kelontong;UD. Zionathan Ndruru;Jl.Simpanghiwo, Silima Banua, Kec. Somambawa, Kabupaten Nias Selatan, Sumatera Utara 22874;Silima Banua, Kec. Somambawa, Kabupaten Nias Selatan;SUMATERA UTARA;22874;Indonesia;81270310763;;;0.8110463;978.729.876;https://maps.google.com/?cid=0x0:0x2376f6203633f290;
supermarket;Toko bahan makanan;SRC ZINO MART;Jl. Pelita No.9, Ps. Tlk. Dalam, Kec. Tlk. Dalam, Kabupaten Nias Selatan, Sumatera Utara 22865;Ps. Tlk. Dalam, Kec. Tlk. Dalam, Kabupaten Nias Selatan;SUMATERA UTARA;22865;Indonesia;8126043599;;;0.5684684;978.233.562;https://maps.google.com/?cid=0x0:0xaef5149de1757d6;
supermarket;Toko;UD. Kanaya;HR99+4F8, Jl. Diponegoro, Ps. Tlk. Dalam, Kec. Tlk. Dalam, Kabupaten Nias Selatan, Sumatera Utara 22865;Jl. Diponegoro, Ps. Tlk. Dalam, Kec. Tlk. Dalam, Kabupaten Nias Selatan;SUMATERA UTARA;22865;Indonesia;;;;0.5677979;978.186.902;https://maps.google.com/?cid=0x0:0x1d3792c62dc3ae60;
supermarket;Minimarket;Alfamidi Diponegoro Teluk Dalam;HRCF+GG6, Jl. Diponegoro, Ps. Tlk. Dalam, Kec. Tlk. Dalam, Kabupaten Nias Selatan, Sumatera Utara 22865;Jl. Diponegoro, Ps. Tlk. Dalam, Kec. Tlk. Dalam, Kabupaten Nias Selatan;SUMATERA UTARA;22865;Indonesia;;;;0.5712867;978.237.722;https://maps.google.com/?cid=0x0:0x1114ffc32334efe8;
supermarket;Toko;Kedai A. Delavar Hulu;QRX6+6WW, Hilihoya Desa Hoya, Kec. Sidua'ori, Kabupaten Nias Selatan;Kabupaten Nias Selatan, Sumatera Utara;SUMATERA UTARA;;Indonesia;;;;0.7981215;978.123.224;https://maps.google.com/?cid=0x0:0x86f29be3f1c9356a;
supermarket;Toko;UD.OFE;VR45+93V, Sifaoroasi Gomo, Kec. Gomo, Kabupaten Nias Selatan, Sumatera Utara 22873;Sifaoroasi Gomo, Kec. Gomo, Kabupaten Nias Selatan;SUMATERA UTARA;22873;Indonesia;;;;0.8559306;978.076.891;https://maps.google.com/?cid=0x0:0xb710b42328c5db81;
supermarket;Toko umum;UD. Greace;Orahili Gomo, Kec. Gomo, Kabupaten Nias Selatan, Sumatera Utara 22865;Kec. Gomo, Kabupaten Nias Selatan;SUMATERA UTARA;22865;Indonesia;85161092325;;;0.8570963;978.150.412;https://maps.google.com/?cid=0x0:0x471c0bc2e9f85df3;
supermarket;Toko Swalayan;Depot Air Karunia Abadi;HR98+GJ8, Jl. Saonigeho, Ps. Tlk. Dalam, Kec. Tlk. Dalam, Kabupaten Nias Selatan, Sumatera Utara 22865;Jl. Saonigeho, Ps. Tlk. Dalam, Kec. Tlk. Dalam, Kabupaten Nias Selatan;SUMATERA UTARA;22865;Indonesia;85358542000;;;0.568785;978.165.803;https://maps.google.com/?cid=0x0:0x95cb95b486bdf78f;
supermarket;Minimarket;UD. Asran Maju;Jl. Diponegoro No.75, Tetehosi, Kecamatan Idanogawo, Kabupaten Nias, Sumatera Utara 22872;Tetehosi, Kecamatan Idanogawo, Kabupaten Nias;SUMATERA UTARA;22872;Indonesia;85275554193;;;10.266.938;977.715.478;https://maps.google.com/?cid=0x0:0xaec618fd8626c5a6;
supermarket;Pusat Perbelanjaan;UD. 6 Bersaudara;5MR3+6GJ, Unnamed Road, Tuhegeo I, Kec. GunungSitoli Idanoi, Kota Gunungsitoli, Sumatera Utara 22871;Unnamed Road, Tuhegeo I, Kec. GunungSitoli Idanoi, Kota Gunungsitoli;SUMATERA UTARA;22871;Indonesia;;;;11.905.931;976.537.653;https://maps.google.com/?cid=0x0:0xdcee3a26dd8016e8;
supermarket;Toko;Cinta Mart;Jl. Diponegoro No.83, Tetehosi, Kecamatan Idanogawo, Kabupaten Nias, Sumatera Utara 22872;Tetehosi, Kecamatan Idanogawo, Kabupaten Nias;SUMATERA UTARA;22872;Indonesia;;;;10.266.668;977.717.121;https://maps.google.com/?cid=0x0:0xe5b75e354314622b;
supermarket;Pusat Perbelanjaan;UD.putra;XJPC+VWP, Hilizoliga, Kec. Lalowau, Kabupaten Nias Selatan, Sumatera Utara 22864;Hilizoliga, Kec. Lalowau, Kabupaten Nias Selatan;SUMATERA UTARA;22864;Indonesia;85367320924;;;0.9872172;976.223.348;https://maps.google.com/?cid=0x0:0xff055320a94996b0;
supermarket;Pusat Perbelanjaan;UD. RETHA;WH2J+GXG, Lolowau, Kec. Lalowau, Kabupaten Nias Selatan, Sumatera Utara 22864;Lolowau, Kec. Lalowau, Kabupaten Nias Selatan;SUMATERA UTARA;22864;Indonesia;81384503929;;;0.9013094;975.824.423;https://maps.google.com/?cid=0x0:0xceba32412dbd9bff;
supermarket;Inspektur Tempat Tinggal;Hiliamaetaniha, Teluk Dalam Nias Selatan.;Tlk., Hiliamaetaniha, Kec. Tlk. Dalam, Kabupaten Nias Selatan, Sumatera Utara 22865;Hiliamaetaniha, Kec. Tlk. Dalam, Kabupaten Nias Selatan;SUMATERA UTARA;22865;Indonesia;81294040067;;;0.5749949;977.455.364;https://maps.google.com/?cid=0x0:0x926d9ccdae89dc5a;
supermarket;Toko;UD saudara;WQ72+5MJ, Lawindra, Kec. Umbunasi, Kabupaten Nias Selatan, Sumatera Utara;Kabupaten Nias Selatan, Sumatera Utara;SUMATERA UTARA;;Indonesia;;;;0.9127547;977.515.981;https://maps.google.com/?cid=0x0:0x253278672fb8f76e;
supermarket;Toko;Asrul Farasi;Jl. Humene Satua No.26, Humene, Kec. GunungSitoli Idanoi, Kota Gunungsitoli, Sumatera Utara;Kota Gunungsitoli, Sumatera Utara;SUMATERA UTARA;;Indonesia;82304148686;;;11.945.288;976.789.136;https://maps.google.com/?cid=0x0:0x7f5a82a7fea8e9a3;
supermarket;Toko Swalayan;Ud.Setia Kawan / STK;Jl. Jenderal Ahmad Yani, Ps. Tlk. Dalam, Kec. Tlk. Dalam, Kabupaten Nias Selatan, Sumatera Utara 22865;Ps. Tlk. Dalam, Kec. Tlk. Dalam, Kabupaten Nias Selatan;SUMATERA UTARA;22865;Indonesia;82338383832;;;0.5676903;978.190.109;https://maps.google.com/?cid=0x0:0x3020fe7b47fe1a2c;
supermarket;Pusat Perbelanjaan;UD. Laow;Jl. Bakaru, Lolozasai, Kec. Gido, Kabupaten Nias, Sumatera Utara 22871;Lolozasai, Kec. Gido, Kabupaten Nias;SUMATERA UTARA;22871;Indonesia;;;;11.456.205;977.087.923;https://maps.google.com/?cid=0x0:0x95eabf3a96303b18;
supermarket;Toko;UD PETER;Jl. Merdeka No.41, Heliweto Gido, Kec. Sogae'adu, Kabupaten Nias, Sumatera Utara 22871;Heliweto Gido, Kec. Sogae'adu, Kabupaten Nias;SUMATERA UTARA;22871;Indonesia;82347340696;;;11.184.898;977.237.406;https://maps.google.com/?cid=0x0:0x5031033a9367fb6a;
supermarket;supermarket;UD. WENDY;VR44+CXM, Jl, Tundrumbaho, Sifaoroasi Gomo, Kec. Gomo, Kabupaten Nias Selatan, Sumatera Utara 22873;Jl, Tundrumbaho, Sifaoroasi Gomo, Kec. Gomo, Kabupaten Nias Selatan;SUMATERA UTARA;22873;Indonesia;;;;0.8560991;978.074.069;https://maps.google.com/?cid=0x0:0x8fe17f1a5b5ee6d4;
supermarket;Minimarket;FoodMax Supermarket;Jl. R.A. Kartini No.16, Cilandak Bar., Kec. Cilandak, Kota Jakarta Selatan, Daerah Khusus Ibukota Jakarta 12430;Cilandak Bar., Kec. Cilandak, Kota Jakarta Selatan;SUMATERA UTARA;12430;Indonesia;;;;-62.926.283;1.067.862.876;https://maps.google.com/?cid=0x0:0x2127dec7d159dc41;
supermarket;Toko bahan makanan;Foodmax;Jl. Puri Casablanca No.1, RT.4/RW.12, Kuningan, Menteng Dalam, Kec. Tebet, Kota Jakarta Selatan, Daerah Khusus Ibukota Jakarta;Kota Jakarta Selatan, Daerah Khusus Ibukota Jakarta;SUMATERA UTARA;;Indonesia;;;;-62.235.996;1.068.387.288;https://maps.google.com/?cid=0x0:0xcc5c9bc2dc1b0e1f;
supermarket;supermarket;Kec. Simuk;Kabupaten Nias Selatan, Sumatera Utara;Kabupaten Nias Selatan, Sumatera Utara;SUMATERA UTARA;;Indonesia;;;;-0.0783257;978.549.892;https://maps.google.com/?cid=0x0:0xc4f3bec2af601d1b;
supermarket;Toko;Grosir fesra MENDROFA;6H37+G7G, Dahadano Botombawo, Kec. Botomuzoi, Kabupaten Nias, Sumatera Utara;Kabupaten Nias, Sumatera Utara;SUMATERA UTARA;;Indonesia;;;;12.038.152;975.631.911;https://maps.google.com/?cid=0x0:0x1afaf1ae8378ce79;
supermarket;Toko;UD.SAFAR;RW, Fadoro Hunogoa, Kec. HiliSerangkai, Kabupaten Nias, Sumatera Utara 22851;Fadoro Hunogoa, Kec. HiliSerangkai, Kabupaten Nias;SUMATERA UTARA;22851;Indonesia;82135853547;;;1.145.483;975.955.686;https://maps.google.com/?cid=0x0:0xb771878e2bc1f14c;
supermarket;Sekolah Menengah Pertama;SMA Negeri 1 Somambawa;RV7F+PGF, Silima Banua, Kec. Lahusa, Kabupaten Nias Selatan, Sumatera Utara 22852;Silima Banua, Kec. Lahusa, Kabupaten Nias Selatan;SUMATERA UTARA;22852;Indonesia;;;;0.814303;978.738.013;https://maps.google.com/?cid=0x0:0xcdad8f87976bf828;
supermarket;supermarket;Kec. Somambawa;Kabupaten Nias Selatan, Sumatera Utara;Kabupaten Nias Selatan, Sumatera Utara;SUMATERA UTARA;;Indonesia;;;;0.8407091;978.869.291;https://maps.google.com/?cid=0x0:0x780ff11e2dc65b3e;
supermarket;Grosir Barang Kelontong;UD. Zionathan Ndruru;Jl.Simpanghiwo, Silima Banua, Kec. Somambawa, Kabupaten Nias Selatan, Sumatera Utara 22874;Silima Banua, Kec. Somambawa, Kabupaten Nias Selatan;SUMATERA UTARA;22874;Indonesia;81270310763;;;0.8110463;978.729.876;https://maps.google.com/?cid=0x0:0x2376f6203633f290;
supermarket;Toko bahan makanan;UD.DESI;Jl. Bawõlato, Sihareo, Kec. Lahusa, Kabupaten Nias Selatan, Sumatera Utara 22874;Sihareo, Kec. Lahusa, Kabupaten Nias Selatan;SUMATERA UTARA;22874;Indonesia;82360202696;;;0.8408185;9.788.687;https://maps.google.com/?cid=0x0:0xfb712e54fed23429;
supermarket;Toko Swalayan;Toko Mini SISU;3HQ7+65H, Unnamed Road, Si Ajam, Kec. Sei Balai, Kabupaten Batu Bara, Sumatera Utara 21252;Unnamed Road, Si Ajam, Kec. Sei Balai, Kabupaten Batu Bara;SUMATERA UTARA;21252;Indonesia;;;;30.880.647;99.562.972;https://maps.google.com/?cid=0x0:0xf05b4691e7ecac5b;
supermarket;Toko Swalayan;Toko Mini SAIKEM;3HV4+GX5, Unnamed Road, Si Ajam, Kec. Sei Balai, Kabupaten Batu Bara, Sumatera Utara 21252;Unnamed Road, Si Ajam, Kec. Sei Balai, Kabupaten Batu Bara;SUMATERA UTARA;21252;Indonesia;;;;30.937.745;995.574.986;https://maps.google.com/?cid=0x0:0x6f1b078ac57c8a94;
supermarket;supermarket;Susúa;Lluveras, Sabana Grande 00637, Puerto Riko;Sabana Grande;SUMATERA UTARA;637;Indonesia;;;;180.332.971;-669.112.876;https://maps.google.com/?cid=0x0:0x39dce2856299a0c7;
supermarket;Toko bahan makanan;Supermercado Rodríguez;23MQ+9FP, PR-121, Guánica, Sabana Grande 00637, Puerto Riko;Guánica, Sabana Grande;SUMATERA UTARA;637;Indonesia;17878730827;;;180.334.514;-669.113.061;https://maps.google.com/?cid=0x0:0xa1167768be8f2821;
supermarket;Minimarket;Simpang Tusam;V5P8+JJC, SMP Negeri 1 Tanah Jawa, Balimbingan, Kec. Tanah Jawa, Kabupaten Simalungun, Sumatera Utara 21181;SMP Negeri 1 Tanah Jawa, Balimbingan, Kec. Tanah Jawa, Kabupaten Simalungun;SUMATERA UTARA;21181;Indonesia;82276263211;;;28.865.575;991.665.295;https://maps.google.com/?cid=0x0:0x941eea12f96379f8;
supermarket;Toko bahan makanan;Warung Aisyah;Balimbingan, Kec. Tanah Jawa, Kabupaten Simalungun, Sumatera Utara;Kabupaten Simalungun, Sumatera Utara;SUMATERA UTARA;;Indonesia;;;;28.853.321;991.768.268;https://maps.google.com/?cid=0x0:0xe7edc5139d1dd31;
supermarket;Pusat Perbelanjaan;UD.putra;XJPC+VWP, Hilizoliga, Kec. Lalowau, Kabupaten Nias Selatan, Sumatera Utara 22864;Hilizoliga, Kec. Lalowau, Kabupaten Nias Selatan;SUMATERA UTARA;22864;Indonesia;85367320924;;;0.9872172;976.223.348;https://maps.google.com/?cid=0x0:0xff055320a94996b0;
supermarket;Kantor Perusahaan;Hypermart - Abepura;Jl. Raya Abepura - Sentani No.81, Asano, Kec. Abepura, Kota Jayapura, Papua 99351;Asano, Kec. Abepura, Kota Jayapura;SUMATERA UTARA;99351;Indonesia;8114467777;;;-26.166.812;1.406.801.223;https://maps.google.com/?cid=0x0:0x4a244a93dff8c00b;
supermarket;Toko Swalayan;Rental Hypermart Tanah Hitam;Jl. Abepantai - Tanah Hitam, Asano, Kec. Abepura, Kota Jayapura, Papua 99351;Asano, Kec. Abepura, Kota Jayapura;SUMATERA UTARA;99351;Indonesia;82198315726;;;-26.168.275;1.406.805.443;https://maps.google.com/?cid=0x0:0x7f6b215788dd8963;
supermarket;Toko;SR Parfume Tanah Hitam;9MMH+CX3, Asano, Kec. Abepura, Kota Jayapura, Papua 99351;Asano, Kec. Abepura, Kota Jayapura;SUMATERA UTARA;99351;Indonesia;82349590687;;;-26.163.893;1.406.799.236;https://maps.google.com/?cid=0x0:0x205e69146c33ec06;
supermarket;supermarket;N/A;;;SUMATERA UTARA;;Indonesia;;;;;;https://maps.google.com/?cid=0x0:0x29ddecefff3206;
supermarket;supermarket;N/A;;;SUMATERA UTARA;;Indonesia;;;;;;https://maps.google.com/?cid=0x0:0x555319e692164b42;
supermarket;supermarket;N/A;;;SUMATERA UTARA;;Indonesia;;;;;;https://maps.google.com/?cid=0x0:0x30f10a73efa5add;
supermarket;supermarket;N/A;;;SUMATERA UTARA;;Indonesia;;;;;;https://maps.google.com/?cid=0x0:0xb6ef5bcd785d0986;
supermarket;supermarket;N/A;;;SUMATERA UTARA;;Indonesia;;;;;;https://maps.google.com/?cid=0x0:0xd17f1e9e9cf8bd9e;
supermarket;supermarket;N/A;;;SUMATERA UTARA;;Indonesia;;;;;;https://maps.google.com/?cid=0x0:0xf4a1767c18e0ae3f;
supermarket;supermarket;N/A;;;SUMATERA UTARA;;Indonesia;;;;;;https://maps.google.com/?cid=0x0:0xf2e295a5e09dc5cd;
supermarket;supermarket;N/A;;;SUMATERA UTARA;;Indonesia;;;;;;https://maps.google.com/?cid=0x0:0xaf44d3525bb6b9ce;
supermarket;supermarket;N/A;;;SUMATERA UTARA;;Indonesia;;;;;;https://maps.google.com/?cid=0x0:0xf25594a6f3d26202;
supermarket;supermarket;N/A;;;SUMATERA UTARA;;Indonesia;;;;;;https://maps.google.com/?cid=0x0:0x29ddecefff3206;
supermarket;supermarket;N/A;;;SUMATERA UTARA;;Indonesia;;;;;;https://maps.google.com/?cid=0x0:0xcd4a663e19513bbe;
supermarket;supermarket;N/A;;;SUMATERA UTARA;;Indonesia;;;;;;https://maps.google.com/?cid=0x0:0x1114ffc32334efe8;
supermarket;supermarket;N/A;;;SUMATERA UTARA;;Indonesia;;;;;;https://maps.google.com/?cid=0x0:0x926d9ccdae89dc5a;
supermarket;supermarket;N/A;;;SUMATERA UTARA;;Indonesia;;;;;;https://maps.google.com/?cid=0x0:0x95cb95b486bdf78f;
supermarket;supermarket;N/A;;;SUMATERA UTARA;;Indonesia;;;;;;https://maps.google.com/?cid=0x0:0x2c4664ca80dd9b0b;
supermarket;supermarket;N/A;;;SUMATERA UTARA;;Indonesia;;;;;;https://maps.google.com/?cid=0x0:0xaf44d3525bb6b9ce;
supermarket;supermarket;N/A;;;SUMATERA UTARA;;Indonesia;;;;;;https://maps.google.com/?cid=0x0:0x4cd6b761dcafbfd;
supermarket;supermarket;N/A;;;SUMATERA UTARA;;Indonesia;;;;;;https://maps.google.com/?cid=0x0:0x3020fe7b47fe1a2c;
supermarket;supermarket;N/A;;;SUMATERA UTARA;;Indonesia;;;;;;https://maps.google.com/?cid=0x0:0x300bb6ddacf5c2b8;
supermarket;supermarket;N/A;;;SUMATERA UTARA;;Indonesia;;;;;;https://maps.google.com/?cid=0x0:0xd77b0d9acac0ea0c;
supermarket;supermarket;N/A;;;SUMATERA UTARA;;Indonesia;;;;;;https://maps.google.com/?cid=0x0:0x8a918314d29e46e4;
supermarket;supermarket;N/A;;;SUMATERA UTARA;;Indonesia;;;;;;https://maps.google.com/?cid=0x0:0x95ebe04318e7a0be;
supermarket;supermarket;N/A;;;SUMATERA UTARA;;Indonesia;;;;;;https://maps.google.com/?cid=0x0:0xf25594a6f3d26202;
supermarket;supermarket;N/A;;;SUMATERA UTARA;;Indonesia;;;;;;https://maps.google.com/?cid=0x0:0x29ddecefff3206;
supermarket;supermarket;N/A;;;SUMATERA UTARA;;Indonesia;;;;;;https://maps.google.com/?cid=0x0:0xcd4a663e19513bbe;
supermarket;supermarket;N/A;;;SUMATERA UTARA;;Indonesia;;;;;;https://maps.google.com/?cid=0x0:0x1114ffc32334efe8;
supermarket;supermarket;N/A;;;SUMATERA UTARA;;Indonesia;;;;;;https://maps.google.com/?cid=0x0:0x926d9ccdae89dc5a;
supermarket;supermarket;N/A;;;SUMATERA UTARA;;Indonesia;;;;;;https://maps.google.com/?cid=0x0:0x2c4664ca80dd9b0b;
supermarket;supermarket;N/A;;;SUMATERA UTARA;;Indonesia;;;;;;https://maps.google.com/?cid=0x0:0x95cb95b486bdf78f;
supermarket;supermarket;N/A;;;SUMATERA UTARA;;Indonesia;;;;;;https://maps.google.com/?cid=0x0:0xaf44d3525bb6b9ce;
supermarket;supermarket;N/A;;;SUMATERA UTARA;;Indonesia;;;;;;https://maps.google.com/?cid=0x0:0x3020fe7b47fe1a2c;
supermarket;supermarket;N/A;;;SUMATERA UTARA;;Indonesia;;;;;;https://maps.google.com/?cid=0x0:0x5450f8a0182ad015;
supermarket;supermarket;N/A;;;SUMATERA UTARA;;Indonesia;;;;;;https://maps.google.com/?cid=0x0:0x4cd6b761dcafbfd;
supermarket;supermarket;N/A;;;SUMATERA UTARA;;Indonesia;;;;;;https://maps.google.com/?cid=0x0:0x300bb6ddacf5c2b8;
supermarket;supermarket;N/A;;;SUMATERA UTARA;;Indonesia;;;;;;https://maps.google.com/?cid=0x0:0xd77b0d9acac0ea0c;
supermarket;supermarket;N/A;;;SUMATERA UTARA;;Indonesia;;;;;;https://maps.google.com/?cid=0x0:0x8a918314d29e46e4;
supermarket;supermarket;N/A;;;SUMATERA UTARA;;Indonesia;;;;;;https://maps.google.com/?cid=0x0:0xd17f1e9e9cf8bd9e;
supermarket;supermarket;N/A;;;SUMATERA UTARA;;Indonesia;;;;;;https://maps.google.com/?cid=0x0:0x60a90a19c88a5ca3;
supermarket;supermarket;N/A;;;SUMATERA UTARA;;Indonesia;;;;;;https://maps.google.com/?cid=0x0:0x30f10a73efa5add;
supermarket;supermarket;N/A;;;SUMATERA UTARA;;Indonesia;;;;;;https://maps.google.com/?cid=0x0:0xb6ef5bcd785d0986;
supermarket;supermarket;N/A;;;SUMATERA UTARA;;Indonesia;;;;;;https://maps.google.com/?cid=0x0:0x74ff33de5c459c9c;
supermarket;supermarket;N/A;;;SUMATERA UTARA;;Indonesia;;;;;;https://maps.google.com/?cid=0x0:0xcbec8b0c99682029;
supermarket;supermarket;N/A;;;SUMATERA UTARA;;Indonesia;;;;;;https://maps.google.com/?cid=0x0:0x129ab49a30642175;
supermarket;supermarket;N/A;;;SUMATERA UTARA;;Indonesia;;;;;;https://maps.google.com/?cid=0x0:0x29ddecefff3206;
supermarket;supermarket;N/A;;;SUMATERA UTARA;;Indonesia;;;;;;https://maps.google.com/?cid=0x0:0xbd9c7a478e5bc2bf;
supermarket;supermarket;N/A;;;SUMATERA UTARA;;Indonesia;;;;;;https://maps.google.com/?cid=0x0:0xdbe19f05acc1c242;
supermarket;supermarket;N/A;;;SUMATERA UTARA;;Indonesia;;;;;;https://maps.google.com/?cid=0x0:0xacc7c3b0fc4a838b;
supermarket;supermarket;N/A;;;SUMATERA UTARA;;Indonesia;;;;;;https://maps.google.com/?cid=0x0:0x1d9f019365fe82f4;
supermarket;supermarket;N/A;;;SUMATERA UTARA;;Indonesia;;;;;;https://maps.google.com/?cid=0x0:0xe28ccee9e4064a40;
supermarket;supermarket;N/A;;;SUMATERA UTARA;;Indonesia;;;;;;https://maps.google.com/?cid=0x0:0xd21928e146275b5c;
supermarket;supermarket;N/A;;;SUMATERA UTARA;;Indonesia;;;;;;https://maps.google.com/?cid=0x0:0x7f49955f40605a9a;
supermarket;supermarket;N/A;;;SUMATERA UTARA;;Indonesia;;;;;;https://maps.google.com/?cid=0x0:0xceba32412dbd9bff;
supermarket;supermarket;N/A;;;SUMATERA UTARA;;Indonesia;;;;;;https://maps.google.com/?cid=0x0:0xc4161dfb2fca2112;
supermarket;supermarket;N/A;;;SUMATERA UTARA;;Indonesia;;;;;;https://maps.google.com/?cid=0x0:0x56d53755346317bf;
supermarket;supermarket;N/A;;;SUMATERA UTARA;;Indonesia;;;;;;https://maps.google.com/?cid=0x0:0x17ad61e355e38313;
supermarket;supermarket;N/A;;;SUMATERA UTARA;;Indonesia;;;;;;https://maps.google.com/?cid=0x0:0xa971301976ed9379;
supermarket;supermarket;N/A;;;SUMATERA UTARA;;Indonesia;;;;;;https://maps.google.com/?cid=0x0:0x63fb29516796d892;
supermarket;supermarket;N/A;;;SUMATERA UTARA;;Indonesia;;;;;;https://maps.google.com/?cid=0x0:0x6a792d191f292c86;
supermarket;supermarket;N/A;;;SUMATERA UTARA;;Indonesia;;;;;;https://maps.google.com/?cid=0x0:0x325ae0b6e6297c97;
supermarket;supermarket;N/A;;;SUMATERA UTARA;;Indonesia;;;;;;https://maps.google.com/?cid=0x0:0x6ab520b5ea3c767d;
supermarket;supermarket;N/A;;;SUMATERA UTARA;;Indonesia;;;;;;https://maps.google.com/?cid=0x0:0xe62c4c4c711412be;
supermarket;supermarket;N/A;;;SUMATERA UTARA;;Indonesia;;;;;;https://maps.google.com/?cid=0x0:0x10398a8b3acf15b6;
supermarket;supermarket;N/A;;;SUMATERA UTARA;;Indonesia;;;;;;https://maps.google.com/?cid=0x0:0x475a9eba9915682d;
supermarket;supermarket;N/A;;;SUMATERA UTARA;;Indonesia;;;;;;https://maps.google.com/?cid=0x0:0x759c688b550c8c83;
supermarket;supermarket;N/A;;;SUMATERA UTARA;;Indonesia;;;;;;https://maps.google.com/?cid=0x0:0x253278672fb8f76e;
supermarket;supermarket;N/A;;;SUMATERA UTARA;;Indonesia;;;;;;https://maps.google.com/?cid=0x0:0x35e76cd6673d4e76;
supermarket;supermarket;N/A;;;SUMATERA UTARA;;Indonesia;;;;;;https://maps.google.com/?cid=0x0:0xe7bb9ce325c5f146;
supermarket;supermarket;N/A;;;SUMATERA UTARA;;Indonesia;;;;;;https://maps.google.com/?cid=0x0:0x241b5395f28b980c;
supermarket;supermarket;N/A;;;SUMATERA UTARA;;Indonesia;;;;;;https://maps.google.com/?cid=0x0:0xe183ccc071d8e3a4;
supermarket;supermarket;N/A;;;SUMATERA UTARA;;Indonesia;;;;;;https://maps.google.com/?cid=0x0:0xbc8fc8371cbfa391;
supermarket;supermarket;N/A;;;SUMATERA UTARA;;Indonesia;;;;;;https://maps.google.com/?cid=0x0:0xcca13c6ec16fe1b3;
supermarket;supermarket;N/A;;;SUMATERA UTARA;;Indonesia;;;;;;https://maps.google.com/?cid=0x0:0x63fb29516796d892;
supermarket;supermarket;N/A;;;SUMATERA UTARA;;Indonesia;;;;;;https://maps.google.com/?cid=0x0:0xd76ad48502a0d712;
supermarket;supermarket;N/A;;;SUMATERA UTARA;;Indonesia;;;;;;https://maps.google.com/?cid=0x0:0x4ed48daa040b0aa4;
