Category,Real Category,Business Name,Address,City,State,Postal Code,Country,Phone,Email,Website,Latitude,Longitude,Map Link,Details Link
mall,Pusat Perbelanjaan,Merauke Town Square,"Jl. Raya Mandala No.74, Mandala, Kec. Merauke, Kabupaten Merauke, Papua 99616","Mandala, Kec. Merauke, Kabupaten Merauke",PAPUA,99616.0,Indonesia,082198131900,,,-84.899.535,1.403.918.251,https://maps.google.com/?cid=0x0:0x8f8b117a1149369d,
mall,Pusat Perbelanjaan,SBM (Sentra Belanja Merauke),"FCX5+PRF, Klp. Lima, Kec. Merauke, Kabupaten Merauke, Papua 99615","Klp. Lima, Kec. Merauke, Kabupaten Merauke",PAPUA,99615.0,Indonesia,082248334073,,,-85.006.848,1.404.095.393,https://maps.google.com/?cid=0x0:0x8fa38b3dd2424f70,
mall,Kedai Teh,Bobaho - Merauke Town Square,"G95R+XPJ, Jl. Raya Mandala, Maro, Kec. Merauke, Kabupaten Merauke, Papua 99614","Jl. Raya Mandala, Maro, Kec. Merauke, Kabupaten Merauke",PAPUA,99614.0,Indonesia,082238805533,,,-84.900.269,140.391.751,https://maps.google.com/?cid=0x0:0x45b289af4291bc84,
mall,mall,Papua 99612,"Kabupaten Merauke, Papua","Kabupaten Merauke, Papua",PAPUA,,Indonesia,,,,-84.002.076,1.405.756.887,https://maps.google.com/?cid=0x0:0xbc93c9cba9167257,
mall,Pusat Perbelanjaan,Merauke Town Square,"Jl. Raya Mandala No.74, Mandala, Kec. Merauke, Kabupaten Merauke, Papua 99616","Mandala, Kec. Merauke, Kabupaten Merauke",PAPUA,99616.0,Indonesia,082198131900,,,-84.899.535,1.403.918.251,https://maps.google.com/?cid=0x0:0x8f8b117a1149369d,
mall,Pusat Perbelanjaan,Nifa Mandiri,"JG24+PX3, Marga Mulya, Kec. Semangga, Kabupaten Merauke, Papua 99612","Marga Mulya, Kec. Semangga, Kabupaten Merauke",PAPUA,99612.0,Indonesia,,,,-83.982.359,1.405.074.075,https://maps.google.com/?cid=0x0:0x86e0512c7a2cf85b,
mall,Kompleks Apartemen,MS marga mulya,"HFV8+4JC, Unnamed Road, Marga Mulya, Kec. Semangga, Kabupaten Merauke, Papua 99651","Unnamed Road, Marga Mulya, Kec. Semangga, Kabupaten Merauke",PAPUA,99651.0,Indonesia,08124808268,,,-84.071.949,1.404.665.123,https://maps.google.com/?cid=0x0:0x90ce9a66ee8e413b,
mall,Kantor Perusahaan,PCM Aggnames 2 (sticker),"Marga Mulya, Kec. Semangga, Kabupaten Merauke, Papua 99651","Kec. Semangga, Kabupaten Merauke",PAPUA,99651.0,Indonesia,085234951272,,,-84.056.023,140.465.774,https://maps.google.com/?cid=0x0:0x34665248b546bc4c,
mall,Komplek perumahan,Pertokoan amun kay,"MGG3+859, Unnamed Road, Amunkai, Tanah Miring, Merauke Regency, Papua 99651","Unnamed Road, Amunkai, Tanah Miring, Merauke Regency",PAPUA,99651.0,Indonesia,,,,-83.242.083,1.405.029.832,https://maps.google.com/?cid=0x0:0x3bf78165de068cfb,
mall,Toko bahan makanan,"Orange Supermarket, Merauke","G95R+XP7, Jl. Raya Mandala, Maro, Kec. Merauke, Kabupaten Merauke, Papua 99614","Jl. Raya Mandala, Maro, Kec. Merauke, Kabupaten Merauke",PAPUA,99614.0,Indonesia,,,,-84.900.962,1.403.917.897,https://maps.google.com/?cid=0x0:0xc0bfdbcaf1e7ef4c,
mall,mall,Zafran Jaya,"HFRC+M6Q, Marga Mulya, Kec. Semangga, Kabupaten Merauke, Papua","Kabupaten Merauke, Papua",PAPUA,,Indonesia,,,,-8.408.646,140.470.448,https://maps.google.com/?cid=0x0:0x13cf79db172977c7,
mall,Toko,Dhewa cell,"JGF3+M35, Yasa Mulya, Tanah Miring, Kabupaten Merauke, Papua 99612","Yasa Mulya, Tanah Miring, Kabupaten Merauke",PAPUA,99612.0,Indonesia,081344064582,,,-83.758.696,1.405.027.451,https://maps.google.com/?cid=0x0:0xd1e8835b739f3853,
mall,Toko,Togam,"HC6W+RMM, Semangga Jaya, Kec. Semangga, Kabupaten Merauke, Papua 99651","Semangga Jaya, Kec. Semangga, Kabupaten Merauke",PAPUA,99651.0,Indonesia,085299975118,,,-84.386.576,1.404.460.477,https://maps.google.com/?cid=0x0:0x2757554644b5f604,
mall,Toko Bahan Bangunan,TOKO BANGUNAN,"Unnamed Road, Waninggap Miraf, Tanah Miring, Kabupaten Merauke, Papua 99651","Waninggap Miraf, Tanah Miring, Kabupaten Merauke",PAPUA,99651.0,Indonesia,,,,-83.397.731,140.492.116,https://maps.google.com/?cid=0x0:0x97bbd03ddc3f62d1,
mall,Toko Swalayan,"AyuMas-Mart""""","JGF3+85Q, Jl. Poros SP2, Yasa Mulya, Tanah Miring, Kabupaten Merauke, Papua 99612","Jl. Poros SP2, Yasa Mulya, Tanah Miring, Kabupaten Merauke",PAPUA,99612.0,Indonesia,082334972087,,,-83.766.626,1.405.029.746,https://maps.google.com/?cid=0x0:0x252d977d4970829a,
mall,Pusat Perbelanjaan,Kios Buah Cahyo,"MF3Q+67V, Unnamed Road, Waninggap Miraf, Tanah Miring, Kabupaten Merauke, Papua 99651","Unnamed Road, Waninggap Miraf, Tanah Miring, Kabupaten Merauke",PAPUA,99651.0,Indonesia,081344455421,,,-83.468.969,1.404.881.801,https://maps.google.com/?cid=0x0:0x6a098f7c2400a5ca,
mall,Toko,TOKO NAVILA,"SP5, Jl. Poros, Waninggap Miraf, Tanah Miring, Kabupaten Merauke, Papua 99651","Jl. Poros, Waninggap Miraf, Tanah Miring, Kabupaten Merauke",PAPUA,99651.0,Indonesia,081344686251,,,-83.398.724,1.404.916.561,https://maps.google.com/?cid=0x0:0x1b65d0fb9314aafb,
mall,Toko umum,Kios putra tani marga mulia,"HFW4+PMP, Marga Mulya, Kec. Semangga, Kabupaten Merauke, Papua 99651","Marga Mulya, Kec. Semangga, Kabupaten Merauke",PAPUA,99651.0,Indonesia,081269703226,,,-84.031.694,1.404.566.927,https://maps.google.com/?cid=0x0:0x311ad599fc518bbf,
mall,mall,Alfan Kelapa Muda,"JGV8+62H, Waninggap Say, Tanah Miring, Kabupaten Merauke, Papua","Kabupaten Merauke, Papua",PAPUA,,Indonesia,,,,-83.569.443,1.405.151.169,https://maps.google.com/?cid=0x0:0xc78dd13599bb92e4,
mall,Toko,"dapur jangkep, kios sayur bumbu dapur ...","MF5R+W8V, Unnamed Road, Waninggap Miraf, Tanah Miring, Kabupaten Merauke, Papua 99651","Unnamed Road, Waninggap Miraf, Tanah Miring, Kabupaten Merauke",PAPUA,99651.0,Indonesia,081341791202,,,-83.401.287,1.404.907.908,https://maps.google.com/?cid=0x0:0x420ae1846b7b7c18,
mall,Bengkel Mobil,bengkel bodong,"HFH6+XV6, Semangga Jaya, Kec. Semangga, Kabupaten Merauke, Papua 99651","Semangga Jaya, Kec. Semangga, Kabupaten Merauke",PAPUA,99651.0,Indonesia,082197561005,,,-84.200.807,14.046.214,https://maps.google.com/?cid=0x0:0x4f095877dbf9798d,
mall,Biro Wisata,Monumen Kapsul Waktu,"Alun-alun, Klp. Lima, Kec. Merauke, Kabupaten Merauke, Papua 99615","Klp. Lima, Kec. Merauke, Kabupaten Merauke",PAPUA,99615.0,Indonesia,,,,-85.080.639,1.404.118.485,https://maps.google.com/?cid=0x0:0x63ca51db6d66ee84,
mall,Toko,Kios Hayatul,"MF5Q+6XQ, Unnamed Road, Waninggap Miraf, Tanah Miring, Kabupaten Merauke, Papua 99651","Unnamed Road, Waninggap Miraf, Tanah Miring, Kabupaten Merauke",PAPUA,99651.0,Indonesia,,,,-83.419.245,1.404.899.951,https://maps.google.com/?cid=0x0:0xd8a38e821615a67f,
mall,mall,Merauke,"Kec. Merauke, Kabupaten Merauke, Papua","Kabupaten Merauke, Papua",PAPUA,,Indonesia,,,,-84.991.117,1.404.049.814,https://maps.google.com/?cid=0x0:0x578edb6cfc3c6f21,
mall,Pusat Perbelanjaan,SBM (Sentra Belanja Merauke),"FCX5+PRF, Klp. Lima, Kec. Merauke, Kabupaten Merauke, Papua 99615","Klp. Lima, Kec. Merauke, Kabupaten Merauke",PAPUA,99615.0,Indonesia,082248334073,,,-85.006.848,1.404.095.393,https://maps.google.com/?cid=0x0:0x8fa38b3dd2424f70,
mall,Toko,ALO,"GC24+9G7, Jl. Cemara, Klp. Lima, Kec. Merauke, Kabupaten Merauke, Papua 99615","Jl. Cemara, Klp. Lima, Kec. Merauke, Kabupaten Merauke",PAPUA,99615.0,Indonesia,081213505486,,,-84.990.889,1.404.062.973,https://maps.google.com/?cid=0x0:0xef84d92085821361,
mall,Pusat Perbelanjaan,Swalayan senyum 5000 merauke,"Jl. Raya Mandala Lampu merah ahmad yani, Mandala, Kec. Merauke, Kabupaten Merauke, Papua 99615","Mandala, Kec. Merauke, Kabupaten Merauke",PAPUA,99615.0,Indonesia,,,,-85.124.023,1.404.042.472,https://maps.google.com/?cid=0x0:0x52fe0b9875ba946,
mall,Toko,JUMA/ Jeshop Merauke,"Jl. Ternate No.kelurahan, RT.01 Rw01, Seringgu Jaya, Kec. Merauke, Kabupaten Merauke, Papua 99614","RT.01 Rw01, Seringgu Jaya, Kec. Merauke, Kabupaten Merauke",PAPUA,99614.0,Indonesia,085197006061,,,-84.948.516,1.403.842.798,https://maps.google.com/?cid=0x0:0xaa7eaaaae0863ad1,
mall,Toko Swalayan,SUPERMARKET B-MART,"Jl. Brawijaya, Klp. Lima, Kec. Merauke, Kabupaten Merauke, Papua 99615","Klp. Lima, Kec. Merauke, Kabupaten Merauke",PAPUA,99615.0,Indonesia,085251625532,,,-84.968.455,1.404.036.489,https://maps.google.com/?cid=0x0:0xc5c50d5ba0af773d,
mall,Pusat Perbelanjaan,PAPUA MART,"FCM5+7Q5, Rimba Jaya, Kec. Merauke, Kabupaten Merauke, Papua 99615","Rimba Jaya, Kec. Merauke, Kabupaten Merauke",PAPUA,99615.0,Indonesia,082248232084,,,-85.168.698,1.404.094.999,https://maps.google.com/?cid=0x0:0x9deaa636eaaa0b0f,
mall,Pusat Perbelanjaan,Borobudur Dept Store,"FCX5+HFP, Klp. Lima, Kec. Merauke, Kabupaten Merauke, Papua 99615","Klp. Lima, Kec. Merauke, Kabupaten Merauke",PAPUA,99615.0,Indonesia,,,,-85.010.442,140.408.711,https://maps.google.com/?cid=0x0:0x13257e9145445419,
mall,Pusat Perbelanjaan,Sophie Paris Merauke,"GC62+GRQ, Jl. Mangga Dua, Klp. Lima, Kec. Merauke, Kabupaten Merauke, Papua 99614","Jl. Mangga Dua, Klp. Lima, Kec. Merauke, Kabupaten Merauke",PAPUA,99614.0,Indonesia,082399240499,,,-84.886.636,1.404.021.161,https://maps.google.com/?cid=0x0:0xc27a67da6c380963,
mall,mall,Papua 99613,"Kabupaten Merauke, Papua","Kabupaten Merauke, Papua",PAPUA,,Indonesia,,,,-84.612.089,1.404.204.808,https://maps.google.com/?cid=0x0:0x9b4b6c4d6e670447,
mall,Pusat Perbelanjaan,Merauke Town Square,"Jl. Raya Mandala No.74, Mandala, Kec. Merauke, Kabupaten Merauke, Papua 99616","Mandala, Kec. Merauke, Kabupaten Merauke",PAPUA,99616.0,Indonesia,082198131900,,,-84.899.535,1.403.918.251,https://maps.google.com/?cid=0x0:0x8f8b117a1149369d,
mall,Pusat Perbelanjaan,SBM (Sentra Belanja Merauke),"FCX5+PRF, Klp. Lima, Kec. Merauke, Kabupaten Merauke, Papua 99615","Klp. Lima, Kec. Merauke, Kabupaten Merauke",PAPUA,99615.0,Indonesia,082248334073,,,-85.006.848,1.404.095.393,https://maps.google.com/?cid=0x0:0x8fa38b3dd2424f70,
mall,Toko,ALO,"GC24+9G7, Jl. Cemara, Klp. Lima, Kec. Merauke, Kabupaten Merauke, Papua 99615","Jl. Cemara, Klp. Lima, Kec. Merauke, Kabupaten Merauke",PAPUA,99615.0,Indonesia,081213505486,,,-84.990.889,1.404.062.973,https://maps.google.com/?cid=0x0:0xef84d92085821361,
mall,Toko bahan makanan,Toko Garuda,"Jl. Raya Mandala, Maro, Kec. Merauke, Kabupaten Merauke, Papua 99614","Maro, Kec. Merauke, Kabupaten Merauke",PAPUA,99614.0,Indonesia,08114930999,,,-84.908.534,1.403.920.709,https://maps.google.com/?cid=0x0:0x888fa68a2b912003,
mall,Toko bahan makanan,"Orange Supermarket, Merauke","G95R+XP7, Jl. Raya Mandala, Maro, Kec. Merauke, Kabupaten Merauke, Papua 99614","Jl. Raya Mandala, Maro, Kec. Merauke, Kabupaten Merauke",PAPUA,99614.0,Indonesia,,,,-84.900.962,1.403.917.897,https://maps.google.com/?cid=0x0:0xc0bfdbcaf1e7ef4c,
mall,Toko,JUMA/ Jeshop Merauke,"Jl. Ternate No.kelurahan, RT.01 Rw01, Seringgu Jaya, Kec. Merauke, Kabupaten Merauke, Papua 99614","RT.01 Rw01, Seringgu Jaya, Kec. Merauke, Kabupaten Merauke",PAPUA,99614.0,Indonesia,085197006061,,,-84.948.516,1.403.842.798,https://maps.google.com/?cid=0x0:0xaa7eaaaae0863ad1,
mall,Pusat Perbelanjaan,Borobudur Dept Store,"FCX5+HFP, Klp. Lima, Kec. Merauke, Kabupaten Merauke, Papua 99615","Klp. Lima, Kec. Merauke, Kabupaten Merauke",PAPUA,99615.0,Indonesia,,,,-85.010.442,140.408.711,https://maps.google.com/?cid=0x0:0x13257e9145445419,
mall,Toko Swalayan,Toko SanWira Wiramart,"G95R+PQ9, Jl. Raya Mandala, Maro, Kec. Merauke, Kabupaten Merauke, Papua 99614","Jl. Raya Mandala, Maro, Kec. Merauke, Kabupaten Merauke",PAPUA,99614.0,Indonesia,,,,-84.907.002,1.403.919.752,https://maps.google.com/?cid=0x0:0xf43a661e7ddb0a11,
mall,Toko Swalayan,SUPERMARKET B-MART,"Jl. Brawijaya, Klp. Lima, Kec. Merauke, Kabupaten Merauke, Papua 99615","Klp. Lima, Kec. Merauke, Kabupaten Merauke",PAPUA,99615.0,Indonesia,085251625532,,,-84.968.455,1.404.036.489,https://maps.google.com/?cid=0x0:0xc5c50d5ba0af773d,
mall,Pusat Perbelanjaan,Toko Hari-Hari,"GC24+58X, Jl. Brawijaya, Klp. Lima, Kec. Merauke, Kabupaten Merauke, Papua 99615","Jl. Brawijaya, Klp. Lima, Kec. Merauke, Kabupaten Merauke",PAPUA,99615.0,Indonesia,,,,-84.995.182,1.404.058.595,https://maps.google.com/?cid=0x0:0xc4f4e581b8fdec85,
mall,Pusat Perbelanjaan,Toko Matahari,"GC23+WCM, Jl. Brawijaya, Klp. Lima, Kec. Merauke, Kabupaten Merauke, Papua 99615","Jl. Brawijaya, Klp. Lima, Kec. Merauke, Kabupaten Merauke",PAPUA,99615.0,Indonesia,081343045232,,,-84.976.617,1.404.035.363,https://maps.google.com/?cid=0x0:0x5b71b676b2d52c66,
mall,Pusat Perbelanjaan,Toko Galaxy,"Jl. Raya Mandala No.121, Mandala, Kec. Merauke, Kabupaten Merauke, Papua 99614","Mandala, Kec. Merauke, Kabupaten Merauke",PAPUA,99614.0,Indonesia,0971321185,,,-84.947.647,1.403.934.893,https://maps.google.com/?cid=0x0:0x3b71c58f64d83f39,
mall,Pusat Perbelanjaan,PAPUA MART,"FCM5+7Q5, Rimba Jaya, Kec. Merauke, Kabupaten Merauke, Papua 99615","Rimba Jaya, Kec. Merauke, Kabupaten Merauke",PAPUA,99615.0,Indonesia,082248232084,,,-85.168.698,1.404.094.999,https://maps.google.com/?cid=0x0:0x9deaa636eaaa0b0f,
mall,Toko,Togam,"HC6W+RMM, Semangga Jaya, Kec. Semangga, Kabupaten Merauke, Papua 99651","Semangga Jaya, Kec. Semangga, Kabupaten Merauke",PAPUA,99651.0,Indonesia,085299975118,,,-84.386.576,1.404.460.477,https://maps.google.com/?cid=0x0:0x2757554644b5f604,
mall,Toko Suvenir,Siska Crocodile,"kal polder kodim Merauke, Maro, Kec. Merauke, Kabupaten Merauke, Papua 99614","Maro, Kec. Merauke, Kabupaten Merauke",PAPUA,99614.0,Indonesia,081354056669,,,-84.813.003,1.403.983.077,https://maps.google.com/?cid=0x0:0x3a669ca5aa41500c,
mall,Pusat Perbelanjaan,AGUSKASIRAN,"G96W+38P, Maro, Kec. Merauke, Kabupaten Merauke, Papua 99614","Maro, Kec. Merauke, Kabupaten Merauke",PAPUA,99614.0,Indonesia,08114809424,,,-84.897.858,1.403.958.431,https://maps.google.com/?cid=0x0:0x97722a97943f7368,
mall,Toko Swalayan,Toko Metro,"Jl. Raya Mandala No.204, Mandala, Kec. Merauke, Kabupaten Merauke, Papua 99614","Mandala, Kec. Merauke, Kabupaten Merauke",PAPUA,99614.0,Indonesia,081343225075,,,-85.013.332,1.403.975.989,https://maps.google.com/?cid=0x0:0xf3884707fb721c96,
mall,Pusat Perbelanjaan,Mahkota Buaya,"Seringgu Jaya, Kec. Merauke, Kabupaten Merauke, Papua 99614","Kec. Merauke, Kabupaten Merauke",PAPUA,99614.0,Indonesia,081344232730,,,-84.930.503,140.391.132,https://maps.google.com/?cid=0x0:0xdfae013eadbd7301,
mall,Kios,Kios Sari,"G99W+GGX, Jl. TMP Polder, Maro, Merauke, Merauke Regency, Papua 99614","Jl. TMP Polder, Maro, Merauke, Merauke Regency",PAPUA,99614.0,Indonesia,,,,-8.481.125,1.403.963.475,https://maps.google.com/?cid=0x0:0x83b3342e6642839a,
mall,Pusat Perbelanjaan,Unalala merauke,"F9XW+FV7, Mandala, Kec. Merauke, Kabupaten Merauke, Papua 99614","Mandala, Kec. Merauke, Kabupaten Merauke",PAPUA,99614.0,Indonesia,,,,-85.013.494,1.403.971.848,https://maps.google.com/?cid=0x0:0x36f4c710c3fb0852,
mall,Pusat Perbelanjaan,Toko Cahaya,"GC24+3MF, Jl. Brawijaya, Klp. Lima, Kec. Merauke, Kabupaten Merauke, Papua 99615","Jl. Brawijaya, Klp. Lima, Kec. Merauke, Kabupaten Merauke",PAPUA,99615.0,Indonesia,,,,-8.499.801,1.404.066.735,https://maps.google.com/?cid=0x0:0xfc701000636cb315,
mall,mall,Papua 99614,"Kec. Merauke, Kabupaten Merauke, Papua","Kabupaten Merauke, Papua",PAPUA,,Indonesia,,,,-84.915.703,1.403.791.577,https://maps.google.com/?cid=0x0:0xb9161b59fa0573f2,
mall,Pusat Perbelanjaan,Merauke Town Square,"Jl. Raya Mandala No.74, Mandala, Kec. Merauke, Kabupaten Merauke, Papua 99616","Mandala, Kec. Merauke, Kabupaten Merauke",PAPUA,99616.0,Indonesia,082198131900,,,-84.899.535,1.403.918.251,https://maps.google.com/?cid=0x0:0x8f8b117a1149369d,
mall,Pusat Perbelanjaan,SBM (Sentra Belanja Merauke),"FCX5+PRF, Klp. Lima, Kec. Merauke, Kabupaten Merauke, Papua 99615","Klp. Lima, Kec. Merauke, Kabupaten Merauke",PAPUA,99615.0,Indonesia,082248334073,,,-85.006.848,1.404.095.393,https://maps.google.com/?cid=0x0:0x8fa38b3dd2424f70,
mall,Toko,JUMA/ Jeshop Merauke,"Jl. Ternate No.kelurahan, RT.01 Rw01, Seringgu Jaya, Kec. Merauke, Kabupaten Merauke, Papua 99614","RT.01 Rw01, Seringgu Jaya, Kec. Merauke, Kabupaten Merauke",PAPUA,99614.0,Indonesia,085197006061,,,-84.948.516,1.403.842.798,https://maps.google.com/?cid=0x0:0xaa7eaaaae0863ad1,
mall,Pusat Perbelanjaan,Borobudur Dept Store,"FCX5+HFP, Klp. Lima, Kec. Merauke, Kabupaten Merauke, Papua 99615","Klp. Lima, Kec. Merauke, Kabupaten Merauke",PAPUA,99615.0,Indonesia,,,,-85.010.442,140.408.711,https://maps.google.com/?cid=0x0:0x13257e9145445419,
mall,Pusat Perbelanjaan,Toko Galaxy,"Jl. Raya Mandala No.121, Mandala, Kec. Merauke, Kabupaten Merauke, Papua 99614","Mandala, Kec. Merauke, Kabupaten Merauke",PAPUA,99614.0,Indonesia,0971321185,,,-84.947.647,1.403.934.893,https://maps.google.com/?cid=0x0:0x3b71c58f64d83f39,
mall,Toko bahan makanan,"Orange Supermarket, Merauke","G95R+XP7, Jl. Raya Mandala, Maro, Kec. Merauke, Kabupaten Merauke, Papua 99614","Jl. Raya Mandala, Maro, Kec. Merauke, Kabupaten Merauke",PAPUA,99614.0,Indonesia,,,,-84.900.962,1.403.917.897,https://maps.google.com/?cid=0x0:0xc0bfdbcaf1e7ef4c,
mall,Pusat Perbelanjaan,Mahkota Buaya,"Seringgu Jaya, Kec. Merauke, Kabupaten Merauke, Papua 99614","Kec. Merauke, Kabupaten Merauke",PAPUA,99614.0,Indonesia,081344232730,,,-84.930.503,140.391.132,https://maps.google.com/?cid=0x0:0xdfae013eadbd7301,
mall,Toko Swalayan,SUPERMARKET B-MART,"Jl. Brawijaya, Klp. Lima, Kec. Merauke, Kabupaten Merauke, Papua 99615","Klp. Lima, Kec. Merauke, Kabupaten Merauke",PAPUA,99615.0,Indonesia,085251625532,,,-84.968.455,1.404.036.489,https://maps.google.com/?cid=0x0:0xc5c50d5ba0af773d,
mall,Toko Swalayan,Toko SanWira Wiramart,"G95R+PQ9, Jl. Raya Mandala, Maro, Kec. Merauke, Kabupaten Merauke, Papua 99614","Jl. Raya Mandala, Maro, Kec. Merauke, Kabupaten Merauke",PAPUA,99614.0,Indonesia,,,,-84.907.002,1.403.919.752,https://maps.google.com/?cid=0x0:0xf43a661e7ddb0a11,
mall,Pusat Perbelanjaan,Swalayan senyum 5000 merauke,"Jl. Raya Mandala Lampu merah ahmad yani, Mandala, Kec. Merauke, Kabupaten Merauke, Papua 99615","Mandala, Kec. Merauke, Kabupaten Merauke",PAPUA,99615.0,Indonesia,,,,-85.124.023,1.404.042.472,https://maps.google.com/?cid=0x0:0x52fe0b9875ba946,
mall,Pusat Perbelanjaan,Toko Hari-Hari,"GC24+58X, Jl. Brawijaya, Klp. Lima, Kec. Merauke, Kabupaten Merauke, Papua 99615","Jl. Brawijaya, Klp. Lima, Kec. Merauke, Kabupaten Merauke",PAPUA,99615.0,Indonesia,,,,-84.995.182,1.404.058.595,https://maps.google.com/?cid=0x0:0xc4f4e581b8fdec85,
mall,Pusat Perbelanjaan,BUAYA GEMILANG,"Jl. Timor No.15, Seringgu Jaya, Kec. Merauke, Kabupaten Merauke, Papua 99614","Seringgu Jaya, Kec. Merauke, Kabupaten Merauke",PAPUA,99614.0,Indonesia,082198355765,,,-84.927.264,1.403.920.324,https://maps.google.com/?cid=0x0:0x60ecb15ff2223db4,
mall,Pusat Perbelanjaan,Toko Matahari,"GC23+WCM, Jl. Brawijaya, Klp. Lima, Kec. Merauke, Kabupaten Merauke, Papua 99615","Jl. Brawijaya, Klp. Lima, Kec. Merauke, Kabupaten Merauke",PAPUA,99615.0,Indonesia,081343045232,,,-84.976.617,1.404.035.363,https://maps.google.com/?cid=0x0:0x5b71b676b2d52c66,
mall,Kios,Ajay Kulit,"G94R+WVH, Maro, Kec. Merauke, Kabupaten Merauke, Papua 99614","Maro, Kec. Merauke, Kabupaten Merauke",PAPUA,99614.0,Indonesia,,,,-84.926.767,1.403.922.225,https://maps.google.com/?cid=0x0:0xaf801dc40a170181,
mall,Pusat Perbelanjaan,Flamingoshop,"F9QH+VWR, Jl. Menara Lampu Satu, Samkai, Kec. Merauke, Kabupaten Merauke, Papua 99614","Jl. Menara Lampu Satu, Samkai, Kec. Merauke, Kabupaten Merauke",PAPUA,99614.0,Indonesia,082290000252,,,-85.102.607,140.379.768,https://maps.google.com/?cid=0x0:0xdb336a00199c2d3f,
mall,Toko bahan makanan,Toko Garuda,"Jl. Raya Mandala, Maro, Kec. Merauke, Kabupaten Merauke, Papua 99614","Maro, Kec. Merauke, Kabupaten Merauke",PAPUA,99614.0,Indonesia,08114930999,,,-84.908.534,1.403.920.709,https://maps.google.com/?cid=0x0:0x888fa68a2b912003,
mall,Toko Kerajinan Tangan,Ridwan Artoboyo kulit,"F9XQ+6HX, Gg. Merpati, Seringgu Jaya, Kec. Merauke, Kabupaten Merauke, Papua 99614","Gg. Merpati, Seringgu Jaya, Kec. Merauke, Kabupaten Merauke",PAPUA,99614.0,Indonesia,085244444456,,,-85.018.817,1.403.889.869,https://maps.google.com/?cid=0x0:0x7df887283db8c782,
mall,Jasa Medis Lokal,"TOKO ALAT KESEHATAN KUVI MEDIKA""""","Jl. Parakomando No.42, Mandala, Kec. Merauke, Kabupaten Merauke, Papua 99614","Mandala, Kec. Merauke, Kabupaten Merauke",PAPUA,99614.0,Indonesia,082399741668,,,-84.949.091,1.404.012.881,https://maps.google.com/?cid=0x0:0xf049de8053dc076,
mall,Pembangunan Perumahan,Lia Tas Merauke,"F9XJ+MP4, Perumahan Kaliweda, Samkai, Kec. Merauke, Kabupaten Merauke, Papua 99614","Perumahan Kaliweda, Samkai, Kec. Merauke, Kabupaten Merauke",PAPUA,99614.0,Indonesia,085231313147,,,-85.008.631,1.403.818.214,https://maps.google.com/?cid=0x0:0x80fabc48aa1c1793,
mall,mall,Merauke,"Kec. Merauke, Kabupaten Merauke, Papua","Kabupaten Merauke, Papua",PAPUA,,Indonesia,,,,-84.991.117,1.404.049.814,https://maps.google.com/?cid=0x0:0x578edb6cfc3c6f21,
mall,Toko,ALO,"GC24+9G7, Jl. Cemara, Klp. Lima, Kec. Merauke, Kabupaten Merauke, Papua 99615","Jl. Cemara, Klp. Lima, Kec. Merauke, Kabupaten Merauke",PAPUA,99615.0,Indonesia,081213505486,,,-84.990.889,1.404.062.973,https://maps.google.com/?cid=0x0:0xef84d92085821361,
mall,Toko Swalayan,Toko Metro,"Jl. Raya Mandala No.204, Mandala, Kec. Merauke, Kabupaten Merauke, Papua 99614","Mandala, Kec. Merauke, Kabupaten Merauke",PAPUA,99614.0,Indonesia,081343225075,,,-85.013.332,1.403.975.989,https://maps.google.com/?cid=0x0:0xf3884707fb721c96,
mall,Pusat Perbelanjaan,PAPUA MART,"FCM5+7Q5, Rimba Jaya, Kec. Merauke, Kabupaten Merauke, Papua 99615","Rimba Jaya, Kec. Merauke, Kabupaten Merauke",PAPUA,99615.0,Indonesia,082248232084,,,-85.168.698,1.404.094.999,https://maps.google.com/?cid=0x0:0x9deaa636eaaa0b0f,
mall,Pusat Perbelanjaan,Unalala merauke,"F9XW+FV7, Mandala, Kec. Merauke, Kabupaten Merauke, Papua 99614","Mandala, Kec. Merauke, Kabupaten Merauke",PAPUA,99614.0,Indonesia,,,,-85.013.494,1.403.971.848,https://maps.google.com/?cid=0x0:0x36f4c710c3fb0852,
mall,Pusat Perbelanjaan,FL Shop,"G93J+QP4, Gg. H. Kasim, Karang Indah, Kec. Merauke, Kabupaten Merauke, Papua 99614","Gg. H. Kasim, Karang Indah, Kec. Merauke, Kabupaten Merauke",PAPUA,99614.0,Indonesia,,,,-84.956.133,140.381.837,https://maps.google.com/?cid=0x0:0xeebd62233fd12ae4,
mall,Toko Suvenir,Yestoya Oleh-Oleh,"Jl. PGT, Rimba Jaya, Kec. Merauke, Kabupaten Merauke, Papua 99615","Rimba Jaya, Kec. Merauke, Kabupaten Merauke",PAPUA,99615.0,Indonesia,08124820921,,,-85.205.082,1.404.130.847,https://maps.google.com/?cid=0x0:0xa2aa182000f23957,
mall,Toko Hewan Peliharaan,Merauke Petshop,"F9WQ+R9Q, Seringgu Jaya, Kec. Merauke, Kabupaten Merauke, Papua 99614","Seringgu Jaya, Kec. Merauke, Kabupaten Merauke",PAPUA,99614.0,Indonesia,,,,-85.029.803,1.403.884.557,https://maps.google.com/?cid=0x0:0xbaebd79af0216061,
mall,mall,Papua 99615,"Kec. Merauke, Kabupaten Merauke, Papua","Kabupaten Merauke, Papua",PAPUA,,Indonesia,,,,-851.425,1.404.204.808,https://maps.google.com/?cid=0x0:0x70b22f32fa86fa9f,
mall,Pusat Perbelanjaan,Merauke Town Square,"Jl. Raya Mandala No.74, Mandala, Kec. Merauke, Kabupaten Merauke, Papua 99616","Mandala, Kec. Merauke, Kabupaten Merauke",PAPUA,99616.0,Indonesia,082198131900,,,-84.899.535,1.403.918.251,https://maps.google.com/?cid=0x0:0x8f8b117a1149369d,
mall,Pusat Perbelanjaan,SBM (Sentra Belanja Merauke),"FCX5+PRF, Klp. Lima, Kec. Merauke, Kabupaten Merauke, Papua 99615","Klp. Lima, Kec. Merauke, Kabupaten Merauke",PAPUA,99615.0,Indonesia,082248334073,,,-85.006.848,1.404.095.393,https://maps.google.com/?cid=0x0:0x8fa38b3dd2424f70,
mall,Toko,ALO,"GC24+9G7, Jl. Cemara, Klp. Lima, Kec. Merauke, Kabupaten Merauke, Papua 99615","Jl. Cemara, Klp. Lima, Kec. Merauke, Kabupaten Merauke",PAPUA,99615.0,Indonesia,081213505486,,,-84.990.889,1.404.062.973,https://maps.google.com/?cid=0x0:0xef84d92085821361,
mall,Pusat Perbelanjaan,PAPUA MART,"FCM5+7Q5, Rimba Jaya, Kec. Merauke, Kabupaten Merauke, Papua 99615","Rimba Jaya, Kec. Merauke, Kabupaten Merauke",PAPUA,99615.0,Indonesia,082248232084,,,-85.168.698,1.404.094.999,https://maps.google.com/?cid=0x0:0x9deaa636eaaa0b0f,
mall,Toko Swalayan,SUPERMARKET B-MART,"Jl. Brawijaya, Klp. Lima, Kec. Merauke, Kabupaten Merauke, Papua 99615","Klp. Lima, Kec. Merauke, Kabupaten Merauke",PAPUA,99615.0,Indonesia,085251625532,,,-84.968.455,1.404.036.489,https://maps.google.com/?cid=0x0:0xc5c50d5ba0af773d,
mall,Pusat Perbelanjaan,Borobudur Dept Store,"FCX5+HFP, Klp. Lima, Kec. Merauke, Kabupaten Merauke, Papua 99615","Klp. Lima, Kec. Merauke, Kabupaten Merauke",PAPUA,99615.0,Indonesia,,,,-85.010.442,140.408.711,https://maps.google.com/?cid=0x0:0x13257e9145445419,
mall,Pusat Perbelanjaan,Toko Hari-Hari,"GC24+58X, Jl. Brawijaya, Klp. Lima, Kec. Merauke, Kabupaten Merauke, Papua 99615","Jl. Brawijaya, Klp. Lima, Kec. Merauke, Kabupaten Merauke",PAPUA,99615.0,Indonesia,,,,-84.995.182,1.404.058.595,https://maps.google.com/?cid=0x0:0xc4f4e581b8fdec85,
mall,Pusat Perbelanjaan,Toko Matahari,"GC23+WCM, Jl. Brawijaya, Klp. Lima, Kec. Merauke, Kabupaten Merauke, Papua 99615","Jl. Brawijaya, Klp. Lima, Kec. Merauke, Kabupaten Merauke",PAPUA,99615.0,Indonesia,081343045232,,,-84.976.617,1.404.035.363,https://maps.google.com/?cid=0x0:0x5b71b676b2d52c66,
mall,Toko Suvenir,Yestoya Oleh-Oleh,"Jl. PGT, Rimba Jaya, Kec. Merauke, Kabupaten Merauke, Papua 99615","Rimba Jaya, Kec. Merauke, Kabupaten Merauke",PAPUA,99615.0,Indonesia,08124820921,,,-85.205.082,1.404.130.847,https://maps.google.com/?cid=0x0:0xa2aa182000f23957,
mall,Toko bahan makanan,Toko Garuda,"Jl. Raya Mandala, Maro, Kec. Merauke, Kabupaten Merauke, Papua 99614","Maro, Kec. Merauke, Kabupaten Merauke",PAPUA,99614.0,Indonesia,08114930999,,,-84.908.534,1.403.920.709,https://maps.google.com/?cid=0x0:0x888fa68a2b912003,
mall,Toko bahan makanan,"Orange Supermarket, Merauke","G95R+XP7, Jl. Raya Mandala, Maro, Kec. Merauke, Kabupaten Merauke, Papua 99614","Jl. Raya Mandala, Maro, Kec. Merauke, Kabupaten Merauke",PAPUA,99614.0,Indonesia,,,,-84.900.962,1.403.917.897,https://maps.google.com/?cid=0x0:0xc0bfdbcaf1e7ef4c,
mall,Gudang,BINTORO INDAH GROUP,"Jl. Pembangunan, Rimba Jaya, Kec. Merauke, Kabupaten Merauke, Papua 99615","Rimba Jaya, Kec. Merauke, Kabupaten Merauke",PAPUA,99615.0,Indonesia,081244861244,,,-85.252.147,1.404.235.688,https://maps.google.com/?cid=0x0:0x47694e941bf45dc1,
mall,Pusat Perbelanjaan,Sophie Paris Merauke,"GC62+GRQ, Jl. Mangga Dua, Klp. Lima, Kec. Merauke, Kabupaten Merauke, Papua 99614","Jl. Mangga Dua, Klp. Lima, Kec. Merauke, Kabupaten Merauke",PAPUA,99614.0,Indonesia,082399240499,,,-84.886.636,1.404.021.161,https://maps.google.com/?cid=0x0:0xc27a67da6c380963,
mall,Pusat Perbelanjaan,Toko Galaxy,"Jl. Raya Mandala No.121, Mandala, Kec. Merauke, Kabupaten Merauke, Papua 99614","Mandala, Kec. Merauke, Kabupaten Merauke",PAPUA,99614.0,Indonesia,0971321185,,,-84.947.647,1.403.934.893,https://maps.google.com/?cid=0x0:0x3b71c58f64d83f39,
mall,Toko Swalayan,Toko SanWira Wiramart,"G95R+PQ9, Jl. Raya Mandala, Maro, Kec. Merauke, Kabupaten Merauke, Papua 99614","Jl. Raya Mandala, Maro, Kec. Merauke, Kabupaten Merauke",PAPUA,99614.0,Indonesia,,,,-84.907.002,1.403.919.752,https://maps.google.com/?cid=0x0:0xf43a661e7ddb0a11,
mall,Toko,JUMA/ Jeshop Merauke,"Jl. Ternate No.kelurahan, RT.01 Rw01, Seringgu Jaya, Kec. Merauke, Kabupaten Merauke, Papua 99614","RT.01 Rw01, Seringgu Jaya, Kec. Merauke, Kabupaten Merauke",PAPUA,99614.0,Indonesia,085197006061,,,-84.948.516,1.403.842.798,https://maps.google.com/?cid=0x0:0xaa7eaaaae0863ad1,
mall,Toko Swalayan,Toko Metro,"Jl. Raya Mandala No.204, Mandala, Kec. Merauke, Kabupaten Merauke, Papua 99614","Mandala, Kec. Merauke, Kabupaten Merauke",PAPUA,99614.0,Indonesia,081343225075,,,-85.013.332,1.403.975.989,https://maps.google.com/?cid=0x0:0xf3884707fb721c96,
mall,Pusat Perbelanjaan,Toko Cahaya,"GC24+3MF, Jl. Brawijaya, Klp. Lima, Kec. Merauke, Kabupaten Merauke, Papua 99615","Jl. Brawijaya, Klp. Lima, Kec. Merauke, Kabupaten Merauke",PAPUA,99615.0,Indonesia,,,,-8.499.801,1.404.066.735,https://maps.google.com/?cid=0x0:0xfc701000636cb315,
mall,Pusat Perbelanjaan,Kios Dua Putri,"F9RX+HJP, jalan gak, antara gang masjid dan gang sayur, Bambu Pemali, Kec. Merauke, Kabupaten Merauke, Papua 99615","jalan gak, antara gang masjid dan gang sayur, Bambu Pemali, Kec. Merauke, Kabupaten Merauke",PAPUA,99615.0,Indonesia,082199457444,,,-85.085.427,1.403.990.863,https://maps.google.com/?cid=0x0:0xad1fb2bd8989200c,
mall,Pusat Perbelanjaan,Mahkota Buaya,"Seringgu Jaya, Kec. Merauke, Kabupaten Merauke, Papua 99614","Kec. Merauke, Kabupaten Merauke",PAPUA,99614.0,Indonesia,081344232730,,,-84.930.503,140.391.132,https://maps.google.com/?cid=0x0:0xdfae013eadbd7301,
mall,Pusat Perbelanjaan,Unalala merauke,"F9XW+FV7, Mandala, Kec. Merauke, Kabupaten Merauke, Papua 99614","Mandala, Kec. Merauke, Kabupaten Merauke",PAPUA,99614.0,Indonesia,,,,-85.013.494,1.403.971.848,https://maps.google.com/?cid=0x0:0x36f4c710c3fb0852,
mall,Pusat Perbelanjaan,BUAYA GEMILANG,"Jl. Timor No.15, Seringgu Jaya, Kec. Merauke, Kabupaten Merauke, Papua 99614","Seringgu Jaya, Kec. Merauke, Kabupaten Merauke",PAPUA,99614.0,Indonesia,082198355765,,,-84.927.264,1.403.920.324,https://maps.google.com/?cid=0x0:0x60ecb15ff2223db4,
mall,Pusat Perbelanjaan,KIOS MERAUKE JAYA,"Jl. Garuda Spadem, Rimba Jaya, Kec. Merauke, Kabupaten Merauke, Papua 99615","Rimba Jaya, Kec. Merauke, Kabupaten Merauke",PAPUA,99615.0,Indonesia,082398961628,,,-85.234.141,1.404.140.625,https://maps.google.com/?cid=0x0:0x85f4528a3a2b9731,
mall,mall,Kec. Merauke,"Kabupaten Merauke, Papua","Kabupaten Merauke, Papua",PAPUA,,Indonesia,,,,-84.973.832,140.395.268,https://maps.google.com/?cid=0x0:0x4e78efac9403e008,
mall,Pusat Perbelanjaan,SBM (Sentra Belanja Merauke),"FCX5+PRF, Klp. Lima, Kec. Merauke, Kabupaten Merauke, Papua 99615","Klp. Lima, Kec. Merauke, Kabupaten Merauke",PAPUA,99615.0,Indonesia,082248334073,,,-85.006.848,1.404.095.393,https://maps.google.com/?cid=0x0:0x8fa38b3dd2424f70,
mall,Toko,ALO,"GC24+9G7, Jl. Cemara, Klp. Lima, Kec. Merauke, Kabupaten Merauke, Papua 99615","Jl. Cemara, Klp. Lima, Kec. Merauke, Kabupaten Merauke",PAPUA,99615.0,Indonesia,081213505486,,,-84.990.889,1.404.062.973,https://maps.google.com/?cid=0x0:0xef84d92085821361,
mall,Pusat Perbelanjaan,PAPUA MART,"FCM5+7Q5, Rimba Jaya, Kec. Merauke, Kabupaten Merauke, Papua 99615","Rimba Jaya, Kec. Merauke, Kabupaten Merauke",PAPUA,99615.0,Indonesia,082248232084,,,-85.168.698,1.404.094.999,https://maps.google.com/?cid=0x0:0x9deaa636eaaa0b0f,
mall,Toko,JUMA/ Jeshop Merauke,"Jl. Ternate No.kelurahan, RT.01 Rw01, Seringgu Jaya, Kec. Merauke, Kabupaten Merauke, Papua 99614","RT.01 Rw01, Seringgu Jaya, Kec. Merauke, Kabupaten Merauke",PAPUA,99614.0,Indonesia,085197006061,,,-84.948.516,1.403.842.798,https://maps.google.com/?cid=0x0:0xaa7eaaaae0863ad1,
mall,Pusat Perbelanjaan,Borobudur Dept Store,"FCX5+HFP, Klp. Lima, Kec. Merauke, Kabupaten Merauke, Papua 99615","Klp. Lima, Kec. Merauke, Kabupaten Merauke",PAPUA,99615.0,Indonesia,,,,-85.010.442,140.408.711,https://maps.google.com/?cid=0x0:0x13257e9145445419,
mall,Pusat Perbelanjaan,Merauke Town Square,"Jl. Raya Mandala No.74, Mandala, Kec. Merauke, Kabupaten Merauke, Papua 99616","Mandala, Kec. Merauke, Kabupaten Merauke",PAPUA,99616.0,Indonesia,082198131900,,,-84.899.535,1.403.918.251,https://maps.google.com/?cid=0x0:0x8f8b117a1149369d,
mall,Toko Swalayan,SUPERMARKET B-MART,"Jl. Brawijaya, Klp. Lima, Kec. Merauke, Kabupaten Merauke, Papua 99615","Klp. Lima, Kec. Merauke, Kabupaten Merauke",PAPUA,99615.0,Indonesia,085251625532,,,-84.968.455,1.404.036.489,https://maps.google.com/?cid=0x0:0xc5c50d5ba0af773d,
mall,Pusat Perbelanjaan,Toko Hari-Hari,"GC24+58X, Jl. Brawijaya, Klp. Lima, Kec. Merauke, Kabupaten Merauke, Papua 99615","Jl. Brawijaya, Klp. Lima, Kec. Merauke, Kabupaten Merauke",PAPUA,99615.0,Indonesia,,,,-84.995.182,1.404.058.595,https://maps.google.com/?cid=0x0:0xc4f4e581b8fdec85,
mall,Toko bahan makanan,Toko Garuda,"Jl. Raya Mandala, Maro, Kec. Merauke, Kabupaten Merauke, Papua 99614","Maro, Kec. Merauke, Kabupaten Merauke",PAPUA,99614.0,Indonesia,08114930999,,,-84.908.534,1.403.920.709,https://maps.google.com/?cid=0x0:0x888fa68a2b912003,
mall,Toko bahan makanan,"Orange Supermarket, Merauke","G95R+XP7, Jl. Raya Mandala, Maro, Kec. Merauke, Kabupaten Merauke, Papua 99614","Jl. Raya Mandala, Maro, Kec. Merauke, Kabupaten Merauke",PAPUA,99614.0,Indonesia,,,,-84.900.962,1.403.917.897,https://maps.google.com/?cid=0x0:0xc0bfdbcaf1e7ef4c,
mall,Pusat Perbelanjaan,Toko Matahari,"GC23+WCM, Jl. Brawijaya, Klp. Lima, Kec. Merauke, Kabupaten Merauke, Papua 99615","Jl. Brawijaya, Klp. Lima, Kec. Merauke, Kabupaten Merauke",PAPUA,99615.0,Indonesia,081343045232,,,-84.976.617,1.404.035.363,https://maps.google.com/?cid=0x0:0x5b71b676b2d52c66,
mall,Pusat Perbelanjaan,Sophie Paris Merauke,"GC62+GRQ, Jl. Mangga Dua, Klp. Lima, Kec. Merauke, Kabupaten Merauke, Papua 99614","Jl. Mangga Dua, Klp. Lima, Kec. Merauke, Kabupaten Merauke",PAPUA,99614.0,Indonesia,082399240499,,,-84.886.636,1.404.021.161,https://maps.google.com/?cid=0x0:0xc27a67da6c380963,
mall,Pusat Perbelanjaan,Toko Galaxy,"Jl. Raya Mandala No.121, Mandala, Kec. Merauke, Kabupaten Merauke, Papua 99614","Mandala, Kec. Merauke, Kabupaten Merauke",PAPUA,99614.0,Indonesia,0971321185,,,-84.947.647,1.403.934.893,https://maps.google.com/?cid=0x0:0x3b71c58f64d83f39,
mall,Toko Swalayan,Toko Metro,"Jl. Raya Mandala No.204, Mandala, Kec. Merauke, Kabupaten Merauke, Papua 99614","Mandala, Kec. Merauke, Kabupaten Merauke",PAPUA,99614.0,Indonesia,081343225075,,,-85.013.332,1.403.975.989,https://maps.google.com/?cid=0x0:0xf3884707fb721c96,
mall,Toko Swalayan,Toko SanWira Wiramart,"G95R+PQ9, Jl. Raya Mandala, Maro, Kec. Merauke, Kabupaten Merauke, Papua 99614","Jl. Raya Mandala, Maro, Kec. Merauke, Kabupaten Merauke",PAPUA,99614.0,Indonesia,,,,-84.907.002,1.403.919.752,https://maps.google.com/?cid=0x0:0xf43a661e7ddb0a11,
mall,Toko Suvenir,Yestoya Oleh-Oleh,"Jl. PGT, Rimba Jaya, Kec. Merauke, Kabupaten Merauke, Papua 99615","Rimba Jaya, Kec. Merauke, Kabupaten Merauke",PAPUA,99615.0,Indonesia,08124820921,,,-85.205.082,1.404.130.847,https://maps.google.com/?cid=0x0:0xa2aa182000f23957,
mall,Toko Swalayan,KIOS LESTARI,"Wasur, Kec. Merauke, Kabupaten Merauke, Papua 99616","Kec. Merauke, Kabupaten Merauke",PAPUA,99616.0,Indonesia,085254251218,,,-8.531.756,1.404.686.567,https://maps.google.com/?cid=0x0:0xaa932315600053c7,
mall,Pusat Perbelanjaan,Papuedia,"FCR3+6CP, Gg. Hindun, Mandala, Kec. Merauke, Kabupaten Merauke, Papua 99616","Gg. Hindun, Mandala, Kec. Merauke, Kabupaten Merauke",PAPUA,99616.0,Indonesia,09713330629,,,-85.094.053,1.404.035.747,https://maps.google.com/?cid=0x0:0x3b3370de44c55194,
mall,Pusat Perbelanjaan,Flamingoshop,"F9QH+VWR, Jl. Menara Lampu Satu, Samkai, Kec. Merauke, Kabupaten Merauke, Papua 99614","Jl. Menara Lampu Satu, Samkai, Kec. Merauke, Kabupaten Merauke",PAPUA,99614.0,Indonesia,082290000252,,,-85.102.607,140.379.768,https://maps.google.com/?cid=0x0:0xdb336a00199c2d3f,
mall,mall,Papua 99616,"Kabupaten Merauke, Papua","Kabupaten Merauke, Papua",PAPUA,,Indonesia,,,,-87.602.047,1.407.624.493,https://maps.google.com/?cid=0x0:0x9815394c40e41634,
mall,Toko Hewan Peliharaan,Merauke Petshop,"F9WQ+R9Q, Seringgu Jaya, Kec. Merauke, Kabupaten Merauke, Papua 99614","Seringgu Jaya, Kec. Merauke, Kabupaten Merauke",PAPUA,99614.0,Indonesia,,,,-85.029.803,1.403.884.557,https://maps.google.com/?cid=0x0:0xbaebd79af0216061,
mall,Pusat Perbelanjaan,Unalala merauke,"F9XW+FV7, Mandala, Kec. Merauke, Kabupaten Merauke, Papua 99614","Mandala, Kec. Merauke, Kabupaten Merauke",PAPUA,99614.0,Indonesia,,,,-85.013.494,1.403.971.848,https://maps.google.com/?cid=0x0:0x36f4c710c3fb0852,
mall,Pusat Perbelanjaan,KIOS MERAUKE JAYA,"Jl. Garuda Spadem, Rimba Jaya, Kec. Merauke, Kabupaten Merauke, Papua 99615","Rimba Jaya, Kec. Merauke, Kabupaten Merauke",PAPUA,99615.0,Indonesia,082398961628,,,-85.234.141,1.404.140.625,https://maps.google.com/?cid=0x0:0x85f4528a3a2b9731,
mall,mall,Merauke,"Kec. Merauke, Kabupaten Merauke, Papua","Kabupaten Merauke, Papua",PAPUA,,Indonesia,,,,-84.991.117,1.404.049.814,https://maps.google.com/?cid=0x0:0x578edb6cfc3c6f21,
mall,Pusat Perbelanjaan,FL Shop,"G93J+QP4, Gg. H. Kasim, Karang Indah, Kec. Merauke, Kabupaten Merauke, Papua 99614","Gg. H. Kasim, Karang Indah, Kec. Merauke, Kabupaten Merauke",PAPUA,99614.0,Indonesia,,,,-84.956.133,140.381.837,https://maps.google.com/?cid=0x0:0xeebd62233fd12ae4,
mall,Pusat Perbelanjaan,Summarecon Mall Serpong,"Jl. Boulevard Raya Gading Serpong, Pakulonan Bar., Kec. Klp. Dua, Kabupaten Tangerang, Banten 15810","Pakulonan Bar., Kec. Klp. Dua, Kabupaten Tangerang",PAPUA,15810.0,Indonesia,0215460888,,,-62.409.034,1.066.288.212,https://maps.google.com/?cid=0x0:0x355ee4742c69b52c,
mall,Pusat Perbelanjaan,Grand Serpong Mall,"Jl. MH. Thamrin KM 2.7, Kebon Nanas, RT.007/RW.001, Panunggangan Utara, Kec. Pinang, Kota Tangerang, Banten 15143","Kebon Nanas, RT.007/RW.001, Panunggangan Utara, Kec. Pinang, Kota Tangerang",PAPUA,15143.0,Indonesia,,,,-62.219.969,1.066.327.042,https://maps.google.com/?cid=0x0:0xa03c439a7f632bf1,
mall,Pusat Perbelanjaan,Jeruk Meletus SMS Mall,"Mall Serpong, Summarecon, Jl. Boulevard Raya Gading Serpong No.2, Pakulonan Bar., Kec. Klp. Dua, Kabupaten Tangerang, Banten 15810","Summarecon, Jl. Boulevard Raya Gading Serpong No.2, Pakulonan Bar., Kec. Klp. Dua, Kabupaten Tangerang",PAPUA,15810.0,Indonesia,089524686108,,,-62.408.872,1.066.283.935,https://maps.google.com/?cid=0x0:0xc490e1f9b68658e3,
mall,Restoran,Pasar muting 4,"PPQX+23G, Unnamed Road, Mandekman, Kec. Ulilin, Kabupaten Merauke, Papua 99652","Unnamed Road, Mandekman, Kec. Ulilin, Kabupaten Merauke",PAPUA,99652.0,Indonesia,,,,-72.624.267,1.407.477.091,https://maps.google.com/?cid=0x0:0x850b5bed794128bf,
mall,Restoran,Warung Santai Muting 4,"PPRW+6P4, Unnamed Road, Mandekman, Kec. Ulilin, Kabupaten Merauke, Papua 99652","Unnamed Road, Mandekman, Kec. Ulilin, Kabupaten Merauke",PAPUA,99652.0,Indonesia,,,,-72.594.963,1.407.468.162,https://maps.google.com/?cid=0x0:0x210075127226746,
mall,Pusat Perbelanjaan,Merauke Town Square,"Jl. Raya Mandala No.74, Mandala, Kec. Merauke, Kabupaten Merauke, Papua 99616","Mandala, Kec. Merauke, Kabupaten Merauke",PAPUA,99616.0,Indonesia,082198131900,,,-84.899.535,1.403.918.251,https://maps.google.com/?cid=0x0:0x8f8b117a1149369d,
mall,Pusat Perbelanjaan,SBM (Sentra Belanja Merauke),"FCX5+PRF, Klp. Lima, Kec. Merauke, Kabupaten Merauke, Papua 99615","Klp. Lima, Kec. Merauke, Kabupaten Merauke",PAPUA,99615.0,Indonesia,082248334073,,,-85.006.848,1.404.095.393,https://maps.google.com/?cid=0x0:0x8fa38b3dd2424f70,
mall,Kedai Teh,Bobaho - Merauke Town Square,"G95R+XPJ, Jl. Raya Mandala, Maro, Kec. Merauke, Kabupaten Merauke, Papua 99614","Jl. Raya Mandala, Maro, Kec. Merauke, Kabupaten Merauke",PAPUA,99614.0,Indonesia,082238805533,,,-84.900.269,140.391.751,https://maps.google.com/?cid=0x0:0x45b289af4291bc84,
mall,mall,Best Western Lake Lucille Inn,"1300 W Lake Lucille Dr, Wasilla, AK 99654, Amerika Serikat","Wasilla, AK",PAPUA,99654.0,Indonesia,19073731776,,,615.770.009,-1.494.844.673,https://maps.google.com/?cid=0x0:0x3d770ba0805a9a34,
mall,Pusat Perbelanjaan,Merauke Town Square,"Jl. Raya Mandala No.74, Mandala, Kec. Merauke, Kabupaten Merauke, Papua 99616","Mandala, Kec. Merauke, Kabupaten Merauke",PAPUA,99616.0,Indonesia,082198131900,,,-84.899.535,1.403.918.251,https://maps.google.com/?cid=0x0:0x8f8b117a1149369d,
mall,Pusat Perbelanjaan,SBM (Sentra Belanja Merauke),"FCX5+PRF, Klp. Lima, Kec. Merauke, Kabupaten Merauke, Papua 99615","Klp. Lima, Kec. Merauke, Kabupaten Merauke",PAPUA,99615.0,Indonesia,082248334073,,,-85.006.848,1.404.095.393,https://maps.google.com/?cid=0x0:0x8fa38b3dd2424f70,
mall,Toko bahan makanan,KIOS CAHAYA PINRANG,"2V72+Q5J, Kiworo, Kimaam, Kabupaten Merauke, Papua 99655","Kiworo, Kimaam, Kabupaten Merauke",PAPUA,99655.0,Indonesia,082399443139,,,-79.855.432,1.388.503.791,https://maps.google.com/?cid=0x0:0x9a342338cd05eb85,
mall,mall,Kec. Semangga,"Kabupaten Merauke, Papua","Kabupaten Merauke, Papua",PAPUA,,Indonesia,,,,-84.364.694,1.404.446.978,https://maps.google.com/?cid=0x0:0x1d2de3cc7a912a37,
mall,Toko,Togam,"HC6W+RMM, Semangga Jaya, Kec. Semangga, Kabupaten Merauke, Papua 99651","Semangga Jaya, Kec. Semangga, Kabupaten Merauke",PAPUA,99651.0,Indonesia,085299975118,,,-84.386.576,1.404.460.477,https://maps.google.com/?cid=0x0:0x2757554644b5f604,
mall,Pusat Perbelanjaan,Merauke Town Square,"Jl. Raya Mandala No.74, Mandala, Kec. Merauke, Kabupaten Merauke, Papua 99616","Mandala, Kec. Merauke, Kabupaten Merauke",PAPUA,99616.0,Indonesia,082198131900,,,-84.899.535,1.403.918.251,https://maps.google.com/?cid=0x0:0x8f8b117a1149369d,
mall,Kantor Perusahaan,PCM Aggnames 2 (sticker),"Marga Mulya, Kec. Semangga, Kabupaten Merauke, Papua 99651","Kec. Semangga, Kabupaten Merauke",PAPUA,99651.0,Indonesia,085234951272,,,-84.056.023,140.465.774,https://maps.google.com/?cid=0x0:0x34665248b546bc4c,
mall,Pusat Perbelanjaan,Ud. Muhyie,"J9P9+RQ4, Muram Sari, Kec. Semangga, Kabupaten Merauke, Papua 99651","Muram Sari, Kec. Semangga, Kabupaten Merauke",PAPUA,99651.0,Indonesia,085244452888,,,-83.629.914,1.403.694.572,https://maps.google.com/?cid=0x0:0x49283258bbf88141,
mall,Kompleks Apartemen,MS marga mulya,"HFV8+4JC, Unnamed Road, Marga Mulya, Kec. Semangga, Kabupaten Merauke, Papua 99651","Unnamed Road, Marga Mulya, Kec. Semangga, Kabupaten Merauke",PAPUA,99651.0,Indonesia,08124808268,,,-84.071.949,1.404.665.123,https://maps.google.com/?cid=0x0:0x90ce9a66ee8e413b,
mall,Pusat Perbelanjaan,Nifa Mandiri,"JG24+PX3, Marga Mulya, Kec. Semangga, Kabupaten Merauke, Papua 99612","Marga Mulya, Kec. Semangga, Kabupaten Merauke",PAPUA,99612.0,Indonesia,,,,-83.982.359,1.405.074.075,https://maps.google.com/?cid=0x0:0x86e0512c7a2cf85b,
mall,mall,Zafran Jaya,"HFRC+M6Q, Marga Mulya, Kec. Semangga, Kabupaten Merauke, Papua","Kabupaten Merauke, Papua",PAPUA,,Indonesia,,,,-8.408.646,140.470.448,https://maps.google.com/?cid=0x0:0x13cf79db172977c7,
mall,Bengkel Mobil,bengkel bodong,"HFH6+XV6, Semangga Jaya, Kec. Semangga, Kabupaten Merauke, Papua 99651","Semangga Jaya, Kec. Semangga, Kabupaten Merauke",PAPUA,99651.0,Indonesia,082197561005,,,-84.200.807,14.046.214,https://maps.google.com/?cid=0x0:0x4f095877dbf9798d,
mall,Pusat Perbelanjaan,Swalayan senyum 5000 merauke,"Jl. Raya Mandala Lampu merah ahmad yani, Mandala, Kec. Merauke, Kabupaten Merauke, Papua 99615","Mandala, Kec. Merauke, Kabupaten Merauke",PAPUA,99615.0,Indonesia,,,,-85.124.023,1.404.042.472,https://maps.google.com/?cid=0x0:0x52fe0b9875ba946,
mall,Toko bahan makanan,Kios Rahmat,"J9MC+QG3, Unnamed Road, Muram Sari, Kec. Semangga, Kabupaten Merauke, Papua 99651","Unnamed Road, Muram Sari, Kec. Semangga, Kabupaten Merauke",PAPUA,99651.0,Indonesia,082399551800,,,-83.656.245,1.403.712.848,https://maps.google.com/?cid=0x0:0xde47a8e1bdccf463,
mall,Pusat Perbelanjaan,Borobudur Dept Store,"FCX5+HFP, Klp. Lima, Kec. Merauke, Kabupaten Merauke, Papua 99615","Klp. Lima, Kec. Merauke, Kabupaten Merauke",PAPUA,99615.0,Indonesia,,,,-85.010.442,140.408.711,https://maps.google.com/?cid=0x0:0x13257e9145445419,
mall,Toko,ALO,"GC24+9G7, Jl. Cemara, Klp. Lima, Kec. Merauke, Kabupaten Merauke, Papua 99615","Jl. Cemara, Klp. Lima, Kec. Merauke, Kabupaten Merauke",PAPUA,99615.0,Indonesia,081213505486,,,-84.990.889,1.404.062.973,https://maps.google.com/?cid=0x0:0xef84d92085821361,
mall,Toko bahan makanan,"Orange Supermarket, Merauke","G95R+XP7, Jl. Raya Mandala, Maro, Kec. Merauke, Kabupaten Merauke, Papua 99614","Jl. Raya Mandala, Maro, Kec. Merauke, Kabupaten Merauke",PAPUA,99614.0,Indonesia,,,,-84.900.962,1.403.917.897,https://maps.google.com/?cid=0x0:0xc0bfdbcaf1e7ef4c,
mall,Toko Swalayan,Toko SanWira Wiramart,"G95R+PQ9, Jl. Raya Mandala, Maro, Kec. Merauke, Kabupaten Merauke, Papua 99614","Jl. Raya Mandala, Maro, Kec. Merauke, Kabupaten Merauke",PAPUA,99614.0,Indonesia,,,,-84.907.002,1.403.919.752,https://maps.google.com/?cid=0x0:0xf43a661e7ddb0a11,
mall,Toko umum,Kios putra tani marga mulia,"HFW4+PMP, Marga Mulya, Kec. Semangga, Kabupaten Merauke, Papua 99651","Marga Mulya, Kec. Semangga, Kabupaten Merauke",PAPUA,99651.0,Indonesia,081269703226,,,-84.031.694,1.404.566.927,https://maps.google.com/?cid=0x0:0x311ad599fc518bbf,
mall,Toko,JUMA/ Jeshop Merauke,"Jl. Ternate No.kelurahan, RT.01 Rw01, Seringgu Jaya, Kec. Merauke, Kabupaten Merauke, Papua 99614","RT.01 Rw01, Seringgu Jaya, Kec. Merauke, Kabupaten Merauke",PAPUA,99614.0,Indonesia,085197006061,,,-84.948.516,1.403.842.798,https://maps.google.com/?cid=0x0:0xaa7eaaaae0863ad1,
mall,Pusat Perbelanjaan,Pinang AL-Vien (Agen Pinang Sumatra),"FCW7+RH8, Jl. Pemuda, Klp. Lima, Kec. Merauke, Kabupaten Merauke, Papua 99615","Jl. Pemuda, Klp. Lima, Kec. Merauke, Kabupaten Merauke",PAPUA,99615.0,Indonesia,081363222124,,,-85.029.643,1.404.139.502,https://maps.google.com/?cid=0x0:0xba7f820a92e173d4,
mall,Toko Swalayan,SUPERMARKET B-MART,"Jl. Brawijaya, Klp. Lima, Kec. Merauke, Kabupaten Merauke, Papua 99615","Klp. Lima, Kec. Merauke, Kabupaten Merauke",PAPUA,99615.0,Indonesia,085251625532,,,-84.968.455,1.404.036.489,https://maps.google.com/?cid=0x0:0xc5c50d5ba0af773d,
mall,Pusat Perbelanjaan,AGUSKASIRAN,"G96W+38P, Maro, Kec. Merauke, Kabupaten Merauke, Papua 99614","Maro, Kec. Merauke, Kabupaten Merauke",PAPUA,99614.0,Indonesia,08114809424,,,-84.897.858,1.403.958.431,https://maps.google.com/?cid=0x0:0x97722a97943f7368,
mall,Kantor Perusahaan,UD.MEKAR SARI JAYA,"GCMM+FR3, Kuprik, Kec. Semangga, Kabupaten Merauke, Papua 99613","Kuprik, Kec. Semangga, Kabupaten Merauke",PAPUA,99613.0,Indonesia,081342613800,,,-84.663.531,1.404.345.484,https://maps.google.com/?cid=0x0:0x46e63c9b7c269719,
mall,Pusat Perbelanjaan,BUAYA GEMILANG,"Jl. Timor No.15, Seringgu Jaya, Kec. Merauke, Kabupaten Merauke, Papua 99614","Seringgu Jaya, Kec. Merauke, Kabupaten Merauke",PAPUA,99614.0,Indonesia,082198355765,,,-84.927.264,1.403.920.324,https://maps.google.com/?cid=0x0:0x60ecb15ff2223db4,
mall,mall,Tanah Miring,"Kabupaten Merauke, Papua","Kabupaten Merauke, Papua",PAPUA,,Indonesia,,,,-83.393.441,1.404.913.089,https://maps.google.com/?cid=0x0:0x73f37e72bdda6722,
mall,Toko Bahan Bangunan,TOKO BANGUNAN,"Unnamed Road, Waninggap Miraf, Tanah Miring, Kabupaten Merauke, Papua 99651","Waninggap Miraf, Tanah Miring, Kabupaten Merauke",PAPUA,99651.0,Indonesia,,,,-83.397.731,140.492.116,https://maps.google.com/?cid=0x0:0x97bbd03ddc3f62d1,
mall,Komplek perumahan,Pertokoan amun kay,"MGG3+859, Unnamed Road, Amunkai, Tanah Miring, Merauke Regency, Papua 99651","Unnamed Road, Amunkai, Tanah Miring, Merauke Regency",PAPUA,99651.0,Indonesia,,,,-83.242.083,1.405.029.832,https://maps.google.com/?cid=0x0:0x3bf78165de068cfb,
mall,Kios,Kios Andika Maros,"Yasa Mulya, Tanah Miring, Kabupaten Merauke, Papua 99612","Tanah Miring, Kabupaten Merauke",PAPUA,99612.0,Indonesia,,,,-83.755.942,1.405.022.806,https://maps.google.com/?cid=0x0:0xdfb5a3c020ea8d13,
mall,Pusat Perbelanjaan,Kios Buah Cahyo,"MF3Q+67V, Unnamed Road, Waninggap Miraf, Tanah Miring, Kabupaten Merauke, Papua 99651","Unnamed Road, Waninggap Miraf, Tanah Miring, Kabupaten Merauke",PAPUA,99651.0,Indonesia,081344455421,,,-83.468.969,1.404.881.801,https://maps.google.com/?cid=0x0:0x6a098f7c2400a5ca,
mall,Pusat Perbelanjaan,Merauke Town Square,"Jl. Raya Mandala No.74, Mandala, Kec. Merauke, Kabupaten Merauke, Papua 99616","Mandala, Kec. Merauke, Kabupaten Merauke",PAPUA,99616.0,Indonesia,082198131900,,,-84.899.535,1.403.918.251,https://maps.google.com/?cid=0x0:0x8f8b117a1149369d,
mall,Toko,Kios Hayatul,"MF5Q+6XQ, Unnamed Road, Waninggap Miraf, Tanah Miring, Kabupaten Merauke, Papua 99651","Unnamed Road, Waninggap Miraf, Tanah Miring, Kabupaten Merauke",PAPUA,99651.0,Indonesia,,,,-83.419.245,1.404.899.951,https://maps.google.com/?cid=0x0:0xd8a38e821615a67f,
mall,Toko,"KIOS dan AGEN BRILINK HESTIKA """"","Waninggap Miraf, Tanah Miring, Kabupaten Merauke, Papua 99651","Tanah Miring, Kabupaten Merauke",PAPUA,99651.0,Indonesia,085254307100,,,-83.374.097,1.404.888.779,https://maps.google.com/?cid=0x0:0x36e3735b8f8261b2,
mall,Komplek perumahan,Bayu Elektrik,"MFH6+XRM, Unnamed Road, Isanombias, Tanah Miring, Kabupaten Merauke, Papua 99651","Unnamed Road, Isanombias, Tanah Miring, Kabupaten Merauke",PAPUA,99651.0,Indonesia,082282220876,,,-83.200.391,1.404.620.431,https://maps.google.com/?cid=0x0:0x6385d2ca7d87b993,
mall,Toko,"dapur jangkep, kios sayur bumbu dapur ...","MF5R+W8V, Unnamed Road, Waninggap Miraf, Tanah Miring, Kabupaten Merauke, Papua 99651","Unnamed Road, Waninggap Miraf, Tanah Miring, Kabupaten Merauke",PAPUA,99651.0,Indonesia,081341791202,,,-83.401.287,1.404.907.908,https://maps.google.com/?cid=0x0:0x420ae1846b7b7c18,
mall,Pusat Perbelanjaan,Nifa Mandiri,"JG24+PX3, Marga Mulya, Kec. Semangga, Kabupaten Merauke, Papua 99612","Marga Mulya, Kec. Semangga, Kabupaten Merauke",PAPUA,99612.0,Indonesia,,,,-83.982.359,1.405.074.075,https://maps.google.com/?cid=0x0:0x86e0512c7a2cf85b,
mall,Kompleks Apartemen,MS marga mulya,"HFV8+4JC, Unnamed Road, Marga Mulya, Kec. Semangga, Kabupaten Merauke, Papua 99651","Unnamed Road, Marga Mulya, Kec. Semangga, Kabupaten Merauke",PAPUA,99651.0,Indonesia,08124808268,,,-84.071.949,1.404.665.123,https://maps.google.com/?cid=0x0:0x90ce9a66ee8e413b,
mall,Kantor Perusahaan,PCM Aggnames 2 (sticker),"Marga Mulya, Kec. Semangga, Kabupaten Merauke, Papua 99651","Kec. Semangga, Kabupaten Merauke",PAPUA,99651.0,Indonesia,085234951272,,,-84.056.023,140.465.774,https://maps.google.com/?cid=0x0:0x34665248b546bc4c,
mall,Toko,Togam,"HC6W+RMM, Semangga Jaya, Kec. Semangga, Kabupaten Merauke, Papua 99651","Semangga Jaya, Kec. Semangga, Kabupaten Merauke",PAPUA,99651.0,Indonesia,085299975118,,,-84.386.576,1.404.460.477,https://maps.google.com/?cid=0x0:0x2757554644b5f604,
mall,Toko,Dhewa cell,"JGF3+M35, Yasa Mulya, Tanah Miring, Kabupaten Merauke, Papua 99612","Yasa Mulya, Tanah Miring, Kabupaten Merauke",PAPUA,99612.0,Indonesia,081344064582,,,-83.758.696,1.405.027.451,https://maps.google.com/?cid=0x0:0xd1e8835b739f3853,
mall,Pusat Perbelanjaan,Ud. Muhyie,"J9P9+RQ4, Muram Sari, Kec. Semangga, Kabupaten Merauke, Papua 99651","Muram Sari, Kec. Semangga, Kabupaten Merauke",PAPUA,99651.0,Indonesia,085244452888,,,-83.629.914,1.403.694.572,https://maps.google.com/?cid=0x0:0x49283258bbf88141,
mall,mall,Zafran Jaya,"HFRC+M6Q, Marga Mulya, Kec. Semangga, Kabupaten Merauke, Papua","Kabupaten Merauke, Papua",PAPUA,,Indonesia,,,,-8.408.646,140.470.448,https://maps.google.com/?cid=0x0:0x13cf79db172977c7,
mall,Toko umum,Kios putra tani marga mulia,"HFW4+PMP, Marga Mulya, Kec. Semangga, Kabupaten Merauke, Papua 99651","Marga Mulya, Kec. Semangga, Kabupaten Merauke",PAPUA,99651.0,Indonesia,081269703226,,,-84.031.694,1.404.566.927,https://maps.google.com/?cid=0x0:0x311ad599fc518bbf,
mall,Toko Swalayan,"AyuMas-Mart""""","JGF3+85Q, Jl. Poros SP2, Yasa Mulya, Tanah Miring, Kabupaten Merauke, Papua 99612","Jl. Poros SP2, Yasa Mulya, Tanah Miring, Kabupaten Merauke",PAPUA,99612.0,Indonesia,082334972087,,,-83.766.626,1.405.029.746,https://maps.google.com/?cid=0x0:0x252d977d4970829a,
mall,Pusat Perbelanjaan,Galaxy Partani Mas,"P9RG+R4P, Salor Indah, Kec. Kurik, Kabupaten Merauke, Papua 99651","Salor Indah, Kec. Kurik, Kabupaten Merauke",PAPUA,99651.0,Indonesia,082280153547,,,-82.579.097,1.403.753.265,https://maps.google.com/?cid=0x0:0xe8d7b688d49e79cd,
mall,Bengkel Mobil,bengkel bodong,"HFH6+XV6, Semangga Jaya, Kec. Semangga, Kabupaten Merauke, Papua 99651","Semangga Jaya, Kec. Semangga, Kabupaten Merauke",PAPUA,99651.0,Indonesia,082197561005,,,-84.200.807,14.046.214,https://maps.google.com/?cid=0x0:0x4f095877dbf9798d,
mall,mall,Alfan Kelapa Muda,"JGV8+62H, Waninggap Say, Tanah Miring, Kabupaten Merauke, Papua","Kabupaten Merauke, Papua",PAPUA,,Indonesia,,,,-83.569.443,1.405.151.169,https://maps.google.com/?cid=0x0:0xc78dd13599bb92e4,
mall,mall,Kec. Jagebob,"Kabupaten Merauke, Papua","Kabupaten Merauke, Papua",PAPUA,,Indonesia,,,,-79.103.659,1.407.624.493,https://maps.google.com/?cid=0x0:0x80144929da721d4c,
mall,Kios,Kios BERKAH ABADI,"6QF5+2FR, Unnamed Road, Melin Megikar, Kec. Jagebob, Kabupaten Merauke, Papua 99656","Unnamed Road, Melin Megikar, Kec. Jagebob, Kabupaten Merauke",PAPUA,99656.0,Indonesia,,,,-77.773.776,1.407.586.339,https://maps.google.com/?cid=0x0:0x72b5010ca535c5ad,
mall,Toko Swalayan,KEM MART Gurinda Jaya,"RQ35+RP8, Jl.Trilora I, Gurinda Jaya, Kec. Jagebob, Kabupaten Merauke, Papua 99651","Jl.Trilora I, Gurinda Jaya, Kec. Jagebob, Kabupaten Merauke",PAPUA,99651.0,Indonesia,082399480079,,,-81.954.682,1.407.593.421,https://maps.google.com/?cid=0x0:0xb8141c72bc35caf9,
mall,Toko Perlengkapan Rumah,Kios RESIL,"WQFJ+7Q5, Angger Parmegi, Kec. Jagebob, Kabupaten Merauke, Papua 99651","Angger Parmegi, Kec. Jagebob, Kabupaten Merauke",PAPUA,99651.0,Indonesia,,,,-8.076.243,1.407.822.164,https://maps.google.com/?cid=0x0:0xda583b6f358d038c,
mall,Kios,Kios Pak. Suparno,"VQC9+22, Mimi Baru, Kec. Jagebob, Kabupaten Merauke, Papua","Kabupaten Merauke, Papua",PAPUA,,Indonesia,,,,-81.298.788,1.407.675.943,https://maps.google.com/?cid=0x0:0xea35710293994302,
mall,mall,Papua 99656,"Kabupaten Merauke, Papua","Kabupaten Merauke, Papua",PAPUA,,Indonesia,,,,-77.517.288,1.405.964.124,https://maps.google.com/?cid=0x0:0xb3a6fd7c10c7fd8b,
mall,mall,Kec. Sota,"Kabupaten Merauke, Papua","Kabupaten Merauke, Papua",PAPUA,,Indonesia,,,,-83.128.958,1.408.872.648,https://maps.google.com/?cid=0x0:0x32d447f0882bcf32,
mall,Pusat Perbelanjaan,Merauke Town Square,"Jl. Raya Mandala No.74, Mandala, Kec. Merauke, Kabupaten Merauke, Papua 99616","Mandala, Kec. Merauke, Kabupaten Merauke",PAPUA,99616.0,Indonesia,082198131900,,,-84.899.535,1.403.918.251,https://maps.google.com/?cid=0x0:0x8f8b117a1149369d,
mall,Pos Perbatasan Negara,Pos Lintas Batas Negara (PLBN) Sota,"Jl. Trans Papua, Sota, Kec. Sota, Kabupaten Merauke, Papua 99656","Sota, Kec. Sota, Kabupaten Merauke",PAPUA,99656.0,Indonesia,,,,-84.284.299,1.410.180.992,https://maps.google.com/?cid=0x0:0x1271bce99a62c275,
mall,Kios,Kios Mamah Yani,"FV79+W8J, Yanggandur, Kec. Sota, Kabupaten Merauke, Papua 99656","Yanggandur, Kec. Sota, Kabupaten Merauke",PAPUA,99656.0,Indonesia,081344380845,,,-85.351.635,1.408.682.565,https://maps.google.com/?cid=0x0:0x66c522b3fb7508d3,
mall,Toko Swalayan,POKOS HOME PRODUK LOKAL YANGGANDUR,"FV67+39R, Unnamed Road, Yanggandur, Kec. Sota, Kabupaten Merauke, Papua 99656","Unnamed Road, Yanggandur, Kec. Sota, Kabupaten Merauke",PAPUA,99656.0,Indonesia,,,,-85.397.501,14.086.338,https://maps.google.com/?cid=0x0:0x4f54400f66ae7133,
mall,Kios,KIOS REVASE JLR.4 B,"H292+M59, Sota, Kec. Sota, Kabupaten Merauke, Papua 99656","Sota, Kec. Sota, Kabupaten Merauke",PAPUA,99656.0,Indonesia,,,,-8.430.828,1.410.004.848,https://maps.google.com/?cid=0x0:0xfa550183ca43ca57,
mall,Taman Peringatan,Tugu 0 KM Merauke - Sabang,"H2C8+V99, Jl. Poros, Sota, Kec. Sota, Kabupaten Merauke, Papua","Kabupaten Merauke, Papua",PAPUA,,Indonesia,,,,-84.278.252,1.410.159.802,https://maps.google.com/?cid=0x0:0xa6a48bfbe1ff4bdd,
mall,Toko Elektronik,Toko Vertical Bangunan,"Jalan LB Murdani, Padang Raharja, Malind, Merauke Regency, Papua 99656","Padang Raharja, Malind, Merauke Regency",PAPUA,99656.0,Indonesia,085244887491,,,-827.982,1.402.349.438,https://maps.google.com/?cid=0x0:0xa9829aba21ffccb1,
mall,Toko,Kios sumberjaya,"P6CP+325, Unnamed Road, Padang Raharja, Distrik Malind, Kabupaten Merauke, Papua 99656","Unnamed Road, Padang Raharja, Distrik Malind, Kabupaten Merauke",PAPUA,99656.0,Indonesia,081241242192,,,-82.798.678,1.402.351.218,https://maps.google.com/?cid=0x0:0x7ccf873da0609f1f,
mall,Kios,Kios BERKAH ABADI,"6QF5+2FR, Unnamed Road, Melin Megikar, Kec. Jagebob, Kabupaten Merauke, Papua 99656","Unnamed Road, Melin Megikar, Kec. Jagebob, Kabupaten Merauke",PAPUA,99656.0,Indonesia,,,,-77.773.776,1.407.586.339,https://maps.google.com/?cid=0x0:0x72b5010ca535c5ad,
mall,Toko Swalayan,KEM MART Gurinda Jaya,"RQ35+RP8, Jl.Trilora I, Gurinda Jaya, Kec. Jagebob, Kabupaten Merauke, Papua 99651","Jl.Trilora I, Gurinda Jaya, Kec. Jagebob, Kabupaten Merauke",PAPUA,99651.0,Indonesia,082399480079,,,-81.954.682,1.407.593.421,https://maps.google.com/?cid=0x0:0xb8141c72bc35caf9,
mall,Toko,TOKO ALAT PANCING,"P7GW+6QH, Harapan Makmur, Kec. Kurik, Kabupaten Merauke, Papua 99651","Harapan Makmur, Kec. Kurik, Kabupaten Merauke",PAPUA,99651.0,Indonesia,,,,-82.744.441,140.296.992,https://maps.google.com/?cid=0x0:0x376827dea3a0ee79,
mall,Pusat Perbelanjaan,Foto Copy SR,"P7CV+X6V, Harapan Makmur, Kec. Kurik, Kabupaten Merauke, Papua 99651","Harapan Makmur, Kec. Kurik, Kabupaten Merauke",PAPUA,99651.0,Indonesia,081230836230,,,-8.277.525,1.402.930.387,https://maps.google.com/?cid=0x0:0x638e3e20f3f891d3,
mall,Pusat Perbelanjaan,SBM (Sentra Belanja Merauke),"FCX5+PRF, Klp. Lima, Kec. Merauke, Kabupaten Merauke, Papua 99615","Klp. Lima, Kec. Merauke, Kabupaten Merauke",PAPUA,99615.0,Indonesia,082248334073,,,-85.006.848,1.404.095.393,https://maps.google.com/?cid=0x0:0x8fa38b3dd2424f70,
mall,Toko bahan makanan,KIOS NUR,"P8C2+X2P, Harapan Makmur, Kec. Kurik, Kabupaten Merauke, Papua 99651","Harapan Makmur, Kec. Kurik, Kabupaten Merauke",PAPUA,99651.0,Indonesia,,,,-82.775.379,1.403.000.739,https://maps.google.com/?cid=0x0:0x31b85e30c386f731,
mall,Kios,Kios Pak. Suparno,"VQC9+22, Mimi Baru, Kec. Jagebob, Kabupaten Merauke, Papua","Kabupaten Merauke, Papua",PAPUA,,Indonesia,,,,-81.298.788,1.407.675.943,https://maps.google.com/?cid=0x0:0xea35710293994302,
mall,Komplek perumahan,Pokdakan Karya Baru,"P78G+3G2, Kurik, Kec. Kurik, Kabupaten Merauke, Papua","Kabupaten Merauke, Papua",PAPUA,,Indonesia,,,,-82.848.595,1.402.762.796,https://maps.google.com/?cid=0x0:0xb639b47bebb5145b,
mall,Agen Pemasaran,UD. Barokah Sub Penyalur Minyak Tanah,"Q6Q9+CJF, jl. Kusuma kampung, RT.3/RW.2, Sumber Mulya, Kec. Kurik, Kabupaten Merauke, Papua 99656","jl. Kusuma kampung, RT.3/RW.2, Sumber Mulya, Kec. Kurik, Kabupaten Merauke",PAPUA,99656.0,Indonesia,,,,-82.114.269,140.219.053,https://maps.google.com/?cid=0x0:0x77f3be255e70205c,
mall,Pusat Perbelanjaan,UD. BERKAH,"Harapan Makmur, Kec. Kurik, Kabupaten Merauke, Papua 99651","Kec. Kurik, Kabupaten Merauke",PAPUA,99651.0,Indonesia,,,,-82.790.745,140.291.651,https://maps.google.com/?cid=0x0:0x554c08afb59701c5,
mall,Toserba,PP.Citra Senyum,"P8WX+G8M, Salor Indah, Kec. Kurik, Kabupaten Merauke, Papua 99651","Salor Indah, Kec. Kurik, Kabupaten Merauke",PAPUA,99651.0,Indonesia,081344275747,,,-82.536.746,1.403.483.072,https://maps.google.com/?cid=0x0:0xedafab53eb88f818,
mall,Pusat Perbelanjaan,ASHTA District 8,"Jl. Senopati No.83, Senayan, Kec. Kby. Baru, Kota Jakarta Selatan, Daerah Khusus Ibukota Jakarta 12190","Senayan, Kec. Kby. Baru, Kota Jakarta Selatan",PAPUA,12190.0,Indonesia,02150262888,,,-6.229.976,1.068.070.846,https://maps.google.com/?cid=0x0:0x1042cab307c13c5f,
mall,Pusat Perbelanjaan,Plaza Indonesia,"Jl. M.H. Thamrin No.Kav.28-30, Gondangdia, Kec. Menteng, Kota Jakarta Pusat, Daerah Khusus Ibukota Jakarta 10350","Gondangdia, Kec. Menteng, Kota Jakarta Pusat",PAPUA,10350.0,Indonesia,02129920000,,,-61.935.977,1.068.219.468,https://maps.google.com/?cid=0x0:0x7d7fe17ad64a053f,
mall,Pusat Perbelanjaan,Mall Of Indonesia,"Jl. Boulevard Bar. Raya No.12, RT.18/RW.19, Klp. Gading Bar., Kec. Klp. Gading, Jkt Utara, Daerah Khusus Ibukota Jakarta 14240","RT.18/RW.19, Klp. Gading Bar., Kec. Klp. Gading, Jkt Utara",PAPUA,14240.0,Indonesia,02145867888,,,-61.514.549,1.068.918.949,https://maps.google.com/?cid=0x0:0x3431c7aaadd1f1b6,
mall,Pusat Perbelanjaan,Gafoy,"Mall Klp. Gading, Jl. Boulevard Raya, RT.13/RW.18, Klp. Gading Tim., Kec. Klp. Gading, Jkt Utara, Daerah Khusus Ibukota Jakarta 14240","Jl. Boulevard Raya, RT.13/RW.18, Klp. Gading Tim., Kec. Klp. Gading, Jkt Utara",PAPUA,14240.0,Indonesia,,,,-61.595.728,1.069.071.263,https://maps.google.com/?cid=0x0:0x78e1975168386a62,
mall,mall,Papua 99652,"Kabupaten Merauke, Papua","Kabupaten Merauke, Papua",PAPUA,,Indonesia,,,,-72.555.304,1.405.135.589,https://maps.google.com/?cid=0x0:0x5b3476afcfb7acee,
mall,Toko,Kios rina jaya,"PP42+468, Kafyamke, Kec. Ulilin, Kabupaten Merauke, Papua 99652","Kafyamke, Kec. Ulilin, Kabupaten Merauke",PAPUA,99652.0,Indonesia,,,,-72.940.716,1.407.006.936,https://maps.google.com/?cid=0x0:0xa3598dd99804667d,
mall,Bengkel Sepeda Motor,ARDI MOTOR,"PPMV+R8F, Mandekman, Kec. Ulilin, Kabupaten Merauke, Papua 99652","Mandekman, Kec. Ulilin, Kabupaten Merauke",PAPUA,99652.0,Indonesia,082198638652,,,-726.543,1.407.433.042,https://maps.google.com/?cid=0x0:0xe42cbdf402639590,
mall,Restoran,Pasar muting 4,"PPQX+23G, Unnamed Road, Mandekman, Kec. Ulilin, Kabupaten Merauke, Papua 99652","Unnamed Road, Mandekman, Kec. Ulilin, Kabupaten Merauke",PAPUA,99652.0,Indonesia,,,,-72.624.267,1.407.477.091,https://maps.google.com/?cid=0x0:0x850b5bed794128bf,
mall,Toko umum,Warung BUAH CANDRA,"Unnamed Road, Mandekman, Kec. Ulilin, Kabupaten Merauke, Papua 99652","Mandekman, Kec. Ulilin, Kabupaten Merauke",PAPUA,99652.0,Indonesia,,,,-72.641.399,1.407.445.953,https://maps.google.com/?cid=0x0:0xc5044cff3b0d65f1,
mall,Pusat Perbelanjaan,Toko Alisa,"GPFC+X4C, Enggal Jaya, Kec. Eligobel, Kabupaten Merauke, Papua 99652","Enggal Jaya, Kec. Eligobel, Kabupaten Merauke",PAPUA,99652.0,Indonesia,085244216669,,,-74.750.633,1.407.202.674,https://maps.google.com/?cid=0x0:0xb1111ac848fd2c1d,
mall,Pusat Perbelanjaan,KIOS BERINGIN JAYA,"PR2X+W3P, Baidub, Kec. Ulilin, Kabupaten Merauke, Papua 99652","Baidub, Kec. Ulilin, Kabupaten Merauke",PAPUA,99652.0,Indonesia,,,,-72.976.735,1.408.477.112,https://maps.google.com/?cid=0x0:0x3a5f635182353566,
mall,Toko bahan makanan,Depot isi ulang Aulia,"Enggal Jaya, Kec. Eligobel, Kabupaten Merauke, Papua 99652","Kec. Eligobel, Kabupaten Merauke",PAPUA,99652.0,Indonesia,085244216669,,,-74.750.766,1.407.202.935,https://maps.google.com/?cid=0x0:0xb554f9a4a0cb4267,
mall,mall,Kios Zaskia,"JPJC+4Q8, Bunggay, Kec. Eligobel, Kabupaten Merauke, Papua 99652","Bunggay, Kec. Eligobel, Kabupaten Merauke",PAPUA,99652.0,Indonesia,,,,-73.697.156,1.407.219.635,https://maps.google.com/?cid=0x0:0x78c834a706877f97,
mall,Pusat Perbelanjaan,Kios Reyvijaya,"GQCP+7M, Sipias, Kec. Eligobel, Kabupaten Merauke, Papua","Kabupaten Merauke, Papua",PAPUA,,Indonesia,082197608480,,,-74.792.741,1.407.866.936,https://maps.google.com/?cid=0x0:0x5b34b64ce6ccd0cb,
mall,Toko Alat Dapur,Basecamp mobil perabotan,"Poros No.11, Bunggay, Kec. Eligobel, Kabupaten Merauke, Papua 99652","Bunggay, Kec. Eligobel, Kabupaten Merauke",PAPUA,99652.0,Indonesia,,,,-7.385.639,140.645.159,https://maps.google.com/?cid=0x0:0x624a11c542f8aa8a,
mall,Toko,Toko Emas Bintang Subur (Simpati) Bupul,"GPG9+4CH, Unnamed Road, Bouwer, Enggal Jaya, Kec. Eligobel, Kabupaten Merauke, Papua 99652","Unnamed Road, Bouwer, Enggal Jaya, Kec. Eligobel, Kabupaten Merauke",PAPUA,99652.0,Indonesia,,,,-74.746.957,1.407.186.127,https://maps.google.com/?cid=0x0:0xfe2493d0730e59a2,
mall,mall,Kec. Ulilin,"Kabupaten Merauke, Papua","Kabupaten Merauke, Papua",PAPUA,,Indonesia,,,,-70.730.155,1.407.624.493,https://maps.google.com/?cid=0x0:0xf008cdb038622f70,
mall,mall,Kec. Kurik,"Kabupaten Merauke, Papua","Kabupaten Merauke, Papua",PAPUA,,Indonesia,,,,-82.803.301,1.402.897.098,https://maps.google.com/?cid=0x0:0x531cbfb7ee8e4c65,
mall,Komplek perumahan,Pokdakan Karya Baru,"P78G+3G2, Kurik, Kec. Kurik, Kabupaten Merauke, Papua","Kabupaten Merauke, Papua",PAPUA,,Indonesia,,,,-82.848.595,1.402.762.796,https://maps.google.com/?cid=0x0:0xb639b47bebb5145b,
mall,Pasar Makanan Segar,Pasar Kurik,"P744+H2P, Kurik, Kec. Kurik, Kabupaten Merauke, Papua 99651","Kurik, Kec. Kurik, Kabupaten Merauke",PAPUA,99651.0,Indonesia,,,,-82.935.455,1.402.550.659,https://maps.google.com/?cid=0x0:0xafcfd1eb08841e0d,
mall,Pusat Perbelanjaan,UD. BERKAH,"Harapan Makmur, Kec. Kurik, Kabupaten Merauke, Papua 99651","Kec. Kurik, Kabupaten Merauke",PAPUA,99651.0,Indonesia,,,,-82.790.745,140.291.651,https://maps.google.com/?cid=0x0:0x554c08afb59701c5,
mall,Toko Elektronik,Toko Vertical Bangunan,"Jalan LB Murdani, Padang Raharja, Malind, Merauke Regency, Papua 99656","Padang Raharja, Malind, Merauke Regency",PAPUA,99656.0,Indonesia,085244887491,,,-827.982,1.402.349.438,https://maps.google.com/?cid=0x0:0xa9829aba21ffccb1,
mall,Pusat Perbelanjaan,Galaxy Partani Mas,"P9RG+R4P, Salor Indah, Kec. Kurik, Kabupaten Merauke, Papua 99651","Salor Indah, Kec. Kurik, Kabupaten Merauke",PAPUA,99651.0,Indonesia,082280153547,,,-82.579.097,1.403.753.265,https://maps.google.com/?cid=0x0:0xe8d7b688d49e79cd,
mall,Toserba,PP.Citra Senyum,"P8WX+G8M, Salor Indah, Kec. Kurik, Kabupaten Merauke, Papua 99651","Salor Indah, Kec. Kurik, Kabupaten Merauke",PAPUA,99651.0,Indonesia,081344275747,,,-82.536.746,1.403.483.072,https://maps.google.com/?cid=0x0:0xedafab53eb88f818,
mall,Pusat Perbelanjaan,Merauke Town Square,"Jl. Raya Mandala No.74, Mandala, Kec. Merauke, Kabupaten Merauke, Papua 99616","Mandala, Kec. Merauke, Kabupaten Merauke",PAPUA,99616.0,Indonesia,082198131900,,,-84.899.535,1.403.918.251,https://maps.google.com/?cid=0x0:0x8f8b117a1149369d,
mall,Toko,TOKO ALAT PANCING,"P7GW+6QH, Harapan Makmur, Kec. Kurik, Kabupaten Merauke, Papua 99651","Harapan Makmur, Kec. Kurik, Kabupaten Merauke",PAPUA,99651.0,Indonesia,,,,-82.744.441,140.296.992,https://maps.google.com/?cid=0x0:0x376827dea3a0ee79,
mall,Pusat Perbelanjaan,Foto Copy SR,"P7CV+X6V, Harapan Makmur, Kec. Kurik, Kabupaten Merauke, Papua 99651","Harapan Makmur, Kec. Kurik, Kabupaten Merauke",PAPUA,99651.0,Indonesia,081230836230,,,-8.277.525,1.402.930.387,https://maps.google.com/?cid=0x0:0x638e3e20f3f891d3,
mall,Agen Pemasaran,UD. Barokah Sub Penyalur Minyak Tanah,"Q6Q9+CJF, jl. Kusuma kampung, RT.3/RW.2, Sumber Mulya, Kec. Kurik, Kabupaten Merauke, Papua 99656","jl. Kusuma kampung, RT.3/RW.2, Sumber Mulya, Kec. Kurik, Kabupaten Merauke",PAPUA,99656.0,Indonesia,,,,-82.114.269,140.219.053,https://maps.google.com/?cid=0x0:0x77f3be255e70205c,
mall,Toko,Kios sumberjaya,"P6CP+325, Unnamed Road, Padang Raharja, Distrik Malind, Kabupaten Merauke, Papua 99656","Unnamed Road, Padang Raharja, Distrik Malind, Kabupaten Merauke",PAPUA,99656.0,Indonesia,081241242192,,,-82.798.678,1.402.351.218,https://maps.google.com/?cid=0x0:0x7ccf873da0609f1f,
mall,Pusat Perbelanjaan,Ud. Muhyie,"J9P9+RQ4, Muram Sari, Kec. Semangga, Kabupaten Merauke, Papua 99651","Muram Sari, Kec. Semangga, Kabupaten Merauke",PAPUA,99651.0,Indonesia,085244452888,,,-83.629.914,1.403.694.572,https://maps.google.com/?cid=0x0:0x49283258bbf88141,
mall,Komplek perumahan,Jual kasur kapuk,"Q947+HXR, Salor Indah, Kec. Kurik, Kabupaten Merauke, Papua 99651","Salor Indah, Kec. Kurik, Kabupaten Merauke",PAPUA,99651.0,Indonesia,082198829205,,,-82.435.075,1.403.648.931,https://maps.google.com/?cid=0x0:0x6919056473ba942f,
mall,mall,Rizky colection,"P7CV+V8V, Kurik, Kec. Kurik, Kabupaten Merauke, Papua 99651","Kurik, Kec. Kurik, Kabupaten Merauke",PAPUA,99651.0,Indonesia,,,,-82.777.653,1.402.932.996,https://maps.google.com/?cid=0x0:0x8ae894c2f4e6bc1f,
mall,Pembangunan Perumahan,Kampung kurik,"P769+JP9, Kurik, Kec. Kurik, Kabupaten Merauke, Papua 99651","Kurik, Kec. Kurik, Kabupaten Merauke",PAPUA,99651.0,Indonesia,,,,-82.884.666,1.402.688.144,https://maps.google.com/?cid=0x0:0x670cc44c6ec2593c,
mall,Pusat Perbelanjaan,Pacific Place Mall,"Jl. Jend. Sudirman kav 52-53, Senayan, Kec. Kby. Baru, Kota Jakarta Selatan, Daerah Khusus Ibukota Jakarta 12190","Senayan, Kec. Kby. Baru, Kota Jakarta Selatan",PAPUA,12190.0,Indonesia,02151402828,,,-62.240.197,1.068.101.858,https://maps.google.com/?cid=0x0:0xc4a608b34b5f03cc,
mall,Pasar,Central Market PIK,"Golf Island, Kawasan Pantai Maju, Jl, Jl. Boulevard Raya, Kamal Muara, Kecamatan Penjaringan, Daerah Khusus Ibukota Jakarta 14470","Kawasan Pantai Maju, Jl, Jl. Boulevard Raya, Kamal Muara, Kecamatan Penjaringan",PAPUA,14470.0,Indonesia,,,,-609.093,1.067.456.562,https://maps.google.com/?cid=0x0:0x7013b7324079e02a,
mall,Pusat Perbelanjaan,Kalibata city square,"Jl. Raya Kalibata No.1, Rawajati, Kec. Pancoran, Kota Jakarta Selatan, Daerah Khusus Ibukota Jakarta 12750","Rawajati, Kec. Pancoran, Kota Jakarta Selatan",PAPUA,12750.0,Indonesia,,,,-62.562.715,1.068.521.776,https://maps.google.com/?cid=0x0:0x59db28d93506d0e6,
mall,Pusat Perbelanjaan,Mal Ciputra Tangerang,"Jl. Citra Raya Boulevard, Ciakar, Kec. Panongan, Kabupaten Tangerang, Banten 15710","Ciakar, Kec. Panongan, Kabupaten Tangerang",PAPUA,15710.0,Indonesia,02139715888,,,-62.609.367,1.065.248.651,https://maps.google.com/?cid=0x0:0x426b60f7dfe14e13,
mall,Restoran,D'cost Kalibata City,"Jl. Raya Kalibata No.1 Unit D.01 , D.02, RT.9/RW.4, Rawajati, Kec. Pancoran, Kota Jakarta Selatan, Daerah Khusus Ibukota Jakarta 12750","D.02, RT.9/RW.4, Rawajati, Kec. Pancoran, Kota Jakarta Selatan",PAPUA,12750.0,Indonesia,02179170013,,,-62.564.992,1.068.530.836,https://maps.google.com/?cid=0x0:0xf0d9095c1f3834fd,
mall,mall,Papua 99616,"Kabupaten Merauke, Papua","Kabupaten Merauke, Papua",PAPUA,,Indonesia,,,,-87.602.047,1.407.624.493,https://maps.google.com/?cid=0x0:0x9815394c40e41634,
mall,Pusat Perbelanjaan,Merauke Town Square,"Jl. Raya Mandala No.74, Mandala, Kec. Merauke, Kabupaten Merauke, Papua 99616","Mandala, Kec. Merauke, Kabupaten Merauke",PAPUA,99616.0,Indonesia,082198131900,,,-84.899.535,1.403.918.251,https://maps.google.com/?cid=0x0:0x8f8b117a1149369d,
mall,Pusat Perbelanjaan,Swalayan senyum 5000 merauke,"Jl. Raya Mandala Lampu merah ahmad yani, Mandala, Kec. Merauke, Kabupaten Merauke, Papua 99615","Mandala, Kec. Merauke, Kabupaten Merauke",PAPUA,99615.0,Indonesia,,,,-85.124.023,1.404.042.472,https://maps.google.com/?cid=0x0:0x52fe0b9875ba946,
mall,Pusat Perbelanjaan,PAPUA MART,"FCM5+7Q5, Rimba Jaya, Kec. Merauke, Kabupaten Merauke, Papua 99615","Rimba Jaya, Kec. Merauke, Kabupaten Merauke",PAPUA,99615.0,Indonesia,082248232084,,,-85.168.698,1.404.094.999,https://maps.google.com/?cid=0x0:0x9deaa636eaaa0b0f,
mall,Toko,ALO,"GC24+9G7, Jl. Cemara, Klp. Lima, Kec. Merauke, Kabupaten Merauke, Papua 99615","Jl. Cemara, Klp. Lima, Kec. Merauke, Kabupaten Merauke",PAPUA,99615.0,Indonesia,081213505486,,,-84.990.889,1.404.062.973,https://maps.google.com/?cid=0x0:0xef84d92085821361,
mall,Toko Suvenir,Yestoya Oleh-Oleh,"Jl. PGT, Rimba Jaya, Kec. Merauke, Kabupaten Merauke, Papua 99615","Rimba Jaya, Kec. Merauke, Kabupaten Merauke",PAPUA,99615.0,Indonesia,08124820921,,,-85.205.082,1.404.130.847,https://maps.google.com/?cid=0x0:0xa2aa182000f23957,
mall,Pusat Perbelanjaan,Borobudur Dept Store,"FCX5+HFP, Klp. Lima, Kec. Merauke, Kabupaten Merauke, Papua 99615","Klp. Lima, Kec. Merauke, Kabupaten Merauke",PAPUA,99615.0,Indonesia,,,,-85.010.442,140.408.711,https://maps.google.com/?cid=0x0:0x13257e9145445419,
mall,Toko Swalayan,KIOS LESTARI,"Wasur, Kec. Merauke, Kabupaten Merauke, Papua 99616","Kec. Merauke, Kabupaten Merauke",PAPUA,99616.0,Indonesia,085254251218,,,-8.531.756,1.404.686.567,https://maps.google.com/?cid=0x0:0xaa932315600053c7,
mall,Pusat Perbelanjaan,Unalala merauke,"F9XW+FV7, Mandala, Kec. Merauke, Kabupaten Merauke, Papua 99614","Mandala, Kec. Merauke, Kabupaten Merauke",PAPUA,99614.0,Indonesia,,,,-85.013.494,1.403.971.848,https://maps.google.com/?cid=0x0:0x36f4c710c3fb0852,
mall,Pusat Perbelanjaan,Toko Hari-Hari,"GC24+58X, Jl. Brawijaya, Klp. Lima, Kec. Merauke, Kabupaten Merauke, Papua 99615","Jl. Brawijaya, Klp. Lima, Kec. Merauke, Kabupaten Merauke",PAPUA,99615.0,Indonesia,,,,-84.995.182,1.404.058.595,https://maps.google.com/?cid=0x0:0xc4f4e581b8fdec85,
mall,Toko,JUMA/ Jeshop Merauke,"Jl. Ternate No.kelurahan, RT.01 Rw01, Seringgu Jaya, Kec. Merauke, Kabupaten Merauke, Papua 99614","RT.01 Rw01, Seringgu Jaya, Kec. Merauke, Kabupaten Merauke",PAPUA,99614.0,Indonesia,085197006061,,,-84.948.516,1.403.842.798,https://maps.google.com/?cid=0x0:0xaa7eaaaae0863ad1,
mall,Pusat Perbelanjaan,Papuedia,"FCR3+6CP, Gg. Hindun, Mandala, Kec. Merauke, Kabupaten Merauke, Papua 99616","Gg. Hindun, Mandala, Kec. Merauke, Kabupaten Merauke",PAPUA,99616.0,Indonesia,09713330629,,,-85.094.053,1.404.035.747,https://maps.google.com/?cid=0x0:0x3b3370de44c55194,
mall,Gudang,BINTORO INDAH GROUP,"Jl. Pembangunan, Rimba Jaya, Kec. Merauke, Kabupaten Merauke, Papua 99615","Rimba Jaya, Kec. Merauke, Kabupaten Merauke",PAPUA,99615.0,Indonesia,081244861244,,,-85.252.147,1.404.235.688,https://maps.google.com/?cid=0x0:0x47694e941bf45dc1,
mall,Pusat Perbelanjaan,Mekar jaya muna,"FCW6+GGP, Jl. Pemuda, Klp. Lima, Kec. Merauke, Kabupaten Merauke, Papua 99615","Jl. Pemuda, Klp. Lima, Kec. Merauke, Kabupaten Merauke",PAPUA,99615.0,Indonesia,,,,-85.036.551,1.404.113.185,https://maps.google.com/?cid=0x0:0xdd0dfde96ef199c2,
mall,Toko Swalayan,Toko SanWira Wiramart,"G95R+PQ9, Jl. Raya Mandala, Maro, Kec. Merauke, Kabupaten Merauke, Papua 99614","Jl. Raya Mandala, Maro, Kec. Merauke, Kabupaten Merauke",PAPUA,99614.0,Indonesia,,,,-84.907.002,1.403.919.752,https://maps.google.com/?cid=0x0:0xf43a661e7ddb0a11,
mall,Toko Swalayan,Toko Metro,"Jl. Raya Mandala No.204, Mandala, Kec. Merauke, Kabupaten Merauke, Papua 99614","Mandala, Kec. Merauke, Kabupaten Merauke",PAPUA,99614.0,Indonesia,081343225075,,,-85.013.332,1.403.975.989,https://maps.google.com/?cid=0x0:0xf3884707fb721c96,
mall,Pusat Perbelanjaan,Kios Dua Putri,"F9RX+HJP, jalan gak, antara gang masjid dan gang sayur, Bambu Pemali, Kec. Merauke, Kabupaten Merauke, Papua 99615","jalan gak, antara gang masjid dan gang sayur, Bambu Pemali, Kec. Merauke, Kabupaten Merauke",PAPUA,99615.0,Indonesia,082199457444,,,-85.085.427,1.403.990.863,https://maps.google.com/?cid=0x0:0xad1fb2bd8989200c,
mall,Pusat Perbelanjaan,Nifa Mandiri,"JG24+PX3, Marga Mulya, Kec. Semangga, Kabupaten Merauke, Papua 99612","Marga Mulya, Kec. Semangga, Kabupaten Merauke",PAPUA,99612.0,Indonesia,,,,-83.982.359,1.405.074.075,https://maps.google.com/?cid=0x0:0x86e0512c7a2cf85b,
mall,Toko Kerajinan Tangan,Ridwan Artoboyo kulit,"F9XQ+6HX, Gg. Merpati, Seringgu Jaya, Kec. Merauke, Kabupaten Merauke, Papua 99614","Gg. Merpati, Seringgu Jaya, Kec. Merauke, Kabupaten Merauke",PAPUA,99614.0,Indonesia,085244444456,,,-85.018.817,1.403.889.869,https://maps.google.com/?cid=0x0:0x7df887283db8c782,
mall,Pusat Perbelanjaan,Flamingoshop,"F9QH+VWR, Jl. Menara Lampu Satu, Samkai, Kec. Merauke, Kabupaten Merauke, Papua 99614","Jl. Menara Lampu Satu, Samkai, Kec. Merauke, Kabupaten Merauke",PAPUA,99614.0,Indonesia,082290000252,,,-85.102.607,140.379.768,https://maps.google.com/?cid=0x0:0xdb336a00199c2d3f,
mall,Pusat Perbelanjaan,Toko Matahari,"GC23+WCM, Jl. Brawijaya, Klp. Lima, Kec. Merauke, Kabupaten Merauke, Papua 99615","Jl. Brawijaya, Klp. Lima, Kec. Merauke, Kabupaten Merauke",PAPUA,99615.0,Indonesia,081343045232,,,-84.976.617,1.404.035.363,https://maps.google.com/?cid=0x0:0x5b71b676b2d52c66,
mall,Minimarket,Kios Leni,"G93M+M4P, Unnamed Road, Seringgu Jaya, Kec. Merauke, Kabupaten Merauke, Papua 99614","Unnamed Road, Seringgu Jaya, Kec. Merauke, Kabupaten Merauke",PAPUA,99614.0,Indonesia,,,,-84.957.911,1.403.828.243,https://maps.google.com/?cid=0x0:0x3c6bd8fa14700aaf,
mall,Toko Swalayan,SUPERMARKET B-MART,"Jl. Brawijaya, Klp. Lima, Kec. Merauke, Kabupaten Merauke, Papua 99615","Klp. Lima, Kec. Merauke, Kabupaten Merauke",PAPUA,99615.0,Indonesia,085251625532,,,-84.968.455,1.404.036.489,https://maps.google.com/?cid=0x0:0xc5c50d5ba0af773d,
mall,mall,Animha,"Kabupaten Merauke, Papua","Kabupaten Merauke, Papua",PAPUA,,Indonesia,,,,-78.733.132,1.404.308.159,https://maps.google.com/?cid=0x0:0x863cffe418e7fb84,
mall,Pusat Perbelanjaan,Galaxy Partani Mas,"P9RG+R4P, Salor Indah, Kec. Kurik, Kabupaten Merauke, Papua 99651","Salor Indah, Kec. Kurik, Kabupaten Merauke",PAPUA,99651.0,Indonesia,082280153547,,,-82.579.097,1.403.753.265,https://maps.google.com/?cid=0x0:0xe8d7b688d49e79cd,
mall,Toko Elektronik,Toko Vertical Bangunan,"Jalan LB Murdani, Padang Raharja, Malind, Merauke Regency, Papua 99656","Padang Raharja, Malind, Merauke Regency",PAPUA,99656.0,Indonesia,085244887491,,,-827.982,1.402.349.438,https://maps.google.com/?cid=0x0:0xa9829aba21ffccb1,
mall,Komplek perumahan,Pertokoan amun kay,"MGG3+859, Unnamed Road, Amunkai, Tanah Miring, Merauke Regency, Papua 99651","Unnamed Road, Amunkai, Tanah Miring, Merauke Regency",PAPUA,99651.0,Indonesia,,,,-83.242.083,1.405.029.832,https://maps.google.com/?cid=0x0:0x3bf78165de068cfb,
mall,Pusat Perbelanjaan,Merauke Town Square,"Jl. Raya Mandala No.74, Mandala, Kec. Merauke, Kabupaten Merauke, Papua 99616","Mandala, Kec. Merauke, Kabupaten Merauke",PAPUA,99616.0,Indonesia,082198131900,,,-84.899.535,1.403.918.251,https://maps.google.com/?cid=0x0:0x8f8b117a1149369d,
mall,mall,Omah,"P67G+363, Padang Raharja, Distrik Malind, Kabupaten Merauke, Papua","Kabupaten Merauke, Papua",PAPUA,,Indonesia,,,,-82.877.312,1.402.258.709,https://maps.google.com/?cid=0x0:0x131540cdd61efa89,
mall,mall,Distrik Malind,"Kabupaten Merauke, Papua","Kabupaten Merauke, Papua",PAPUA,,Indonesia,,,,-83.496.082,1.402.226.315,https://maps.google.com/?cid=0x0:0x744a3e472366f49c,
mall,Toko Elektronik,Toko Vertical Bangunan,"Jalan LB Murdani, Padang Raharja, Malind, Merauke Regency, Papua 99656","Padang Raharja, Malind, Merauke Regency",PAPUA,99656.0,Indonesia,085244887491,,,-827.982,1.402.349.438,https://maps.google.com/?cid=0x0:0xa9829aba21ffccb1,
mall,Pusat Perbelanjaan,Merauke Town Square,"Jl. Raya Mandala No.74, Mandala, Kec. Merauke, Kabupaten Merauke, Papua 99616","Mandala, Kec. Merauke, Kabupaten Merauke",PAPUA,99616.0,Indonesia,082198131900,,,-84.899.535,1.403.918.251,https://maps.google.com/?cid=0x0:0x8f8b117a1149369d,
mall,Restoran,UD BAROKAH,"M62P+4FG, Kumbe, Distrik Malind, Kabupaten Merauke, Papua 99651","Kumbe, Distrik Malind, Kabupaten Merauke",PAPUA,99651.0,Indonesia,081247094266,,,-83.496.962,1.402.362.165,https://maps.google.com/?cid=0x0:0xb6eca72724a82d0e,
mall,Agen Pemasaran,UD. Barokah Sub Penyalur Minyak Tanah,"Q6Q9+CJF, jl. Kusuma kampung, RT.3/RW.2, Sumber Mulya, Kec. Kurik, Kabupaten Merauke, Papua 99656","jl. Kusuma kampung, RT.3/RW.2, Sumber Mulya, Kec. Kurik, Kabupaten Merauke",PAPUA,99656.0,Indonesia,,,,-82.114.269,140.219.053,https://maps.google.com/?cid=0x0:0x77f3be255e70205c,
mall,Komplek perumahan,Pokdakan Karya Baru,"P78G+3G2, Kurik, Kec. Kurik, Kabupaten Merauke, Papua","Kabupaten Merauke, Papua",PAPUA,,Indonesia,,,,-82.848.595,1.402.762.796,https://maps.google.com/?cid=0x0:0xb639b47bebb5145b,
mall,mall,Omah,"P67G+363, Padang Raharja, Distrik Malind, Kabupaten Merauke, Papua","Kabupaten Merauke, Papua",PAPUA,,Indonesia,,,,-82.877.312,1.402.258.709,https://maps.google.com/?cid=0x0:0x131540cdd61efa89,
mall,Pusat Perbelanjaan,SBM (Sentra Belanja Merauke),"FCX5+PRF, Klp. Lima, Kec. Merauke, Kabupaten Merauke, Papua 99615","Klp. Lima, Kec. Merauke, Kabupaten Merauke",PAPUA,99615.0,Indonesia,082248334073,,,-85.006.848,1.404.095.393,https://maps.google.com/?cid=0x0:0x8fa38b3dd2424f70,
mall,Kedai Teh,Bobaho - Merauke Town Square,"G95R+XPJ, Jl. Raya Mandala, Maro, Kec. Merauke, Kabupaten Merauke, Papua 99614","Jl. Raya Mandala, Maro, Kec. Merauke, Kabupaten Merauke",PAPUA,99614.0,Indonesia,082238805533,,,-84.900.269,140.391.751,https://maps.google.com/?cid=0x0:0x45b289af4291bc84,
mall,mall,Tubang,"Kabupaten Merauke, Papua","Kabupaten Merauke, Papua",PAPUA,,Indonesia,,,,-77.617.804,1.394.466.005,https://maps.google.com/?cid=0x0:0xc0a2943a51458b9,
mall,Toko,MM Mart,"WWGW+RQJ, Gambor, Jegulo, Kec. Soko, Kabupaten Tuban, Jawa Timur 62372","Gambor, Jegulo, Kec. Soko, Kabupaten Tuban",PAPUA,62372.0,Indonesia,085852698222,,,-70.729.218,1.119.468.756,https://maps.google.com/?cid=0x0:0x4f8a4ea410505c7b,
mall,Pusat Perbelanjaan,Jasmine,"4325+FHM, Doromukti, Kec. Tuban, Kabupaten Tuban, Jawa Timur 62316","Doromukti, Kec. Tuban, Kabupaten Tuban",PAPUA,62316.0,Indonesia,,,,-68.987.997,1.120.589.324,https://maps.google.com/?cid=0x0:0x35a92f622d65529b,
mall,mall,Divisi 5,"HP35+M6, Taga Epe, Ngguti, Kabupaten Merauke, Papua","Kabupaten Merauke, Papua",PAPUA,,Indonesia,,,,-7.445.761,139.708.118,https://maps.google.com/?cid=0x0:0x1641019e0e264600,
mall,mall,Ngguti,"Kabupaten Merauke, Papua","Kabupaten Merauke, Papua",PAPUA,,Indonesia,,,,-75.043.722,139.609.512,https://maps.google.com/?cid=0x0:0x9d02c86a83a9645,
mall,Pusat Perbelanjaan,Mall Jayapura,"APO, Jl. Samratulangi, Bayangkara, Kec. Jayapura Utara, Kota Jayapura, Papua 99112","Jl. Samratulangi, Bayangkara, Kec. Jayapura Utara, Kota Jayapura",PAPUA,99112.0,Indonesia,09675150000,,,-25.351.775,1.407.061.874,https://maps.google.com/?cid=0x0:0x54294cb27964023,
mall,Pusat Perbelanjaan,SAGA MALL,"Kota Baru, Kec. Abepura, Kota Jayapura, Papua 99351","Kec. Abepura, Kota Jayapura",PAPUA,99351.0,Indonesia,,,,-26.105.845,1.406.654.189,https://maps.google.com/?cid=0x0:0xaf65e43ff84ff9e6,
mall,mall,Divisi 5,"HP35+M6, Taga Epe, Ngguti, Kabupaten Merauke, Papua","Kabupaten Merauke, Papua",PAPUA,,Indonesia,,,,-7.445.761,139.708.118,https://maps.google.com/?cid=0x0:0x1641019e0e264600,
mall,Pusat Perbelanjaan,Merauke Town Square,"Jl. Raya Mandala No.74, Mandala, Kec. Merauke, Kabupaten Merauke, Papua 99616","Mandala, Kec. Merauke, Kabupaten Merauke",PAPUA,99616.0,Indonesia,082198131900,,,-84.899.535,1.403.918.251,https://maps.google.com/?cid=0x0:0x8f8b117a1149369d,
mall,Pusat Perbelanjaan,SBM (Sentra Belanja Merauke),"FCX5+PRF, Klp. Lima, Kec. Merauke, Kabupaten Merauke, Papua 99615","Klp. Lima, Kec. Merauke, Kabupaten Merauke",PAPUA,99615.0,Indonesia,082248334073,,,-85.006.848,1.404.095.393,https://maps.google.com/?cid=0x0:0x8fa38b3dd2424f70,
mall,Kedai Teh,Bobaho - Merauke Town Square,"G95R+XPJ, Jl. Raya Mandala, Maro, Kec. Merauke, Kabupaten Merauke, Papua 99614","Jl. Raya Mandala, Maro, Kec. Merauke, Kabupaten Merauke",PAPUA,99614.0,Indonesia,082238805533,,,-84.900.269,140.391.751,https://maps.google.com/?cid=0x0:0x45b289af4291bc84,
mall,Pusat Perbelanjaan,Timika Mall,"57522, Jl. Hasanuddin No.9, Nawaripi, Mimika Baru, Mimika Regency, Papua 99971","Jl. Hasanuddin No.9, Nawaripi, Mimika Baru, Mimika Regency",PAPUA,99971.0,Indonesia,,,,-45.673.682,1.368.869.612,https://maps.google.com/?cid=0x0:0x146edd1a60cab3dd,
mall,Toko bahan makanan,KIOS CAHAYA PINRANG,"2V72+Q5J, Kiworo, Kimaam, Kabupaten Merauke, Papua 99655","Kiworo, Kimaam, Kabupaten Merauke",PAPUA,99655.0,Indonesia,082399443139,,,-79.855.432,1.388.503.791,https://maps.google.com/?cid=0x0:0x9a342338cd05eb85,
mall,Pusat Perbelanjaan,Mall Senayan City,"Jl. Asia Afrika No.Lot 19, Gelora, Kecamatan Tanah Abang, Kota Jakarta Pusat, Daerah Khusus Ibukota Jakarta 10270","Gelora, Kecamatan Tanah Abang, Kota Jakarta Pusat",PAPUA,10270.0,Indonesia,02172781000,,,-62.271.953,1.067.970.117,https://maps.google.com/?cid=0x0:0x300c043104acc004,
mall,Pusat Perbelanjaan,Mall Plaza Senayan,"Jl. Asia Afrika No.8, RT.1/RW.3, Gelora, Kecamatan Tanah Abang, Kota Jakarta Pusat, Daerah Khusus Ibukota Jakarta 10270","RT.1/RW.3, Gelora, Kecamatan Tanah Abang, Kota Jakarta Pusat",PAPUA,10270.0,Indonesia,0215725555,,,-62.254.775,1.067.992.649,https://maps.google.com/?cid=0x0:0x788e3a1eef75ac94,
mall,Taman,Senayan Park,"Jl. Gerbang Pemuda No.3, RT.1/RW.3, Gelora, Kecamatan Tanah Abang, Kota Jakarta Pusat, Daerah Khusus Ibukota Jakarta 10270","RT.1/RW.3, Gelora, Kecamatan Tanah Abang, Kota Jakarta Pusat",PAPUA,10270.0,Indonesia,0212512030,,,-62.128.077,1.068.036.757,https://maps.google.com/?cid=0x0:0xc0ea4d9a9d1b2936,
mall,Pizza,Pizza Marzano,"Senayan City Lower Ground, Jl. Asia Afrika Lot 19, Daerah Khusus Ibukota Jakarta 12210",Jl. Asia Afrika Lot 19,PAPUA,12210.0,Indonesia,02172781065,,,-62.268.064,1.067.970.378,https://maps.google.com/?cid=0x0:0xb570f44544859923,
mall,Masakan Jepang Autentik,Sushi Hiro Senayan City,"Senayan City, Mall, Jl. Asia Afrika LT 5, RT.1/RW.3, Gelora, Kecamatan Tanah Abang, Kota Jakarta Pusat, Daerah Khusus Ibukota Jakarta 10270","Mall, Jl. Asia Afrika LT 5, RT.1/RW.3, Gelora, Kecamatan Tanah Abang, Kota Jakarta Pusat",PAPUA,10270.0,Indonesia,02172782250,,,-62.269.324,1.067.969.276,https://maps.google.com/?cid=0x0:0x4b8f42e9ec1e6d3c,
mall,Bioskop,Cinema XXI,"Jl. Asia Afrika No.3, RT.1/RW.3, Gelora, Kecamatan Tanah Abang, Kota Jakarta Pusat, Daerah Khusus Ibukota Jakarta 10270","RT.1/RW.3, Gelora, Kecamatan Tanah Abang, Kota Jakarta Pusat",PAPUA,10270.0,Indonesia,02172781221,,,-62.268.822,1.067.976.424,https://maps.google.com/?cid=0x0:0x9cb47d55493750ee,
mall,Indonesia,Remboelan - Senayan City,"Jl. Asia Afrika Store 5 - 23, 25, 26, Gelora, Kecamatan Tanah Abang, Kota Jakarta Pusat, Daerah Khusus Ibukota Jakarta 10270","25, 26, Gelora, Kecamatan Tanah Abang, Kota Jakarta Pusat",PAPUA,10270.0,Indonesia,02172781586,,,-62.273.225,1.067.967.597,https://maps.google.com/?cid=0x0:0x4d7c5240f54edd51,
mall,Pujasera,Social Garden,"Senayan City, Ground Floor - South Lobby, Jl. Asia Afrika, RT.1/RW.3, Senayan, Jakarta, Daerah Khusus Ibukota Jakarta 10270","Ground Floor - South Lobby, Jl. Asia Afrika, RT.1/RW.3, Senayan, Jakarta",PAPUA,10270.0,Indonesia,02172781516,,,-62.278.497,1.067.970.357,https://maps.google.com/?cid=0x0:0x35d9c3bd7550e941,
mall,Pusat Perbelanjaan,Wamena Mall,"WW4W+JH7, Wamena Kota, Distrik Wamena, Kabupaten Jayawijaya, Papua 99511","Wamena Kota, Distrik Wamena, Kabupaten Jayawijaya",PAPUA,99511.0,Indonesia,081356954606,,,-40.934.521,1.389.464.176,https://maps.google.com/?cid=0x0:0x99f90a37cc207474,
mall,Pusat Perbelanjaan,Pasar Wamena,"WW4V+JJX, Jl. Irian, Wamena Kota, Distrik Wamena, Kabupaten Jayawijaya, Papua 99511","Jl. Irian, Wamena Kota, Distrik Wamena, Kabupaten Jayawijaya",PAPUA,99511.0,Indonesia,081240886222,,,-40.933.779,1.389.441.049,https://maps.google.com/?cid=0x0:0xb318b64a0be2e873,
mall,Hotel,Kos kosan ibu ril,"WW5W+R2W, Wamena Kota, Distrik Wamena, Kabupaten Jayawijaya, Papua 99511","Wamena Kota, Distrik Wamena, Kabupaten Jayawijaya",PAPUA,99511.0,Indonesia,,,,-40.903.585,1.389.450.464,https://maps.google.com/?cid=0x0:0xf95d1d09d2026d69,
mall,Toko Kesehatan dan Kecantikan,WAKI MTA,"Taman Anggrek, Mall, Jl. Letjen S. Parman lt P2, RT.12/RW.1, Tj. Duren Sel., Kec. Grogol petamburan, Kota Jakarta Barat, Daerah Khusus Ibukota Jakarta 11470","Mall, Jl. Letjen S. Parman lt P2, RT.12/RW.1, Tj. Duren Sel., Kec. Grogol petamburan, Kota Jakarta Barat",PAPUA,11470.0,Indonesia,082166000689,,,-61.785.831,1.067.922.128,https://maps.google.com/?cid=0x0:0x12212669afb1c51e,
mall,mall,Vnesia Mall,"RV9Q+W3W, RW.16, Kayu Putih, Kec. Pulo Gadung, Kota Jakarta Timur, Daerah Khusus Ibukota Jakarta 13210","RW.16, Kayu Putih, Kec. Pulo Gadung, Kota Jakarta Timur",PAPUA,13210.0,Indonesia,,,,-61.801.497,1.068.877.147,https://maps.google.com/?cid=0x0:0x86de6bfe4a96b294,
mall,mall,Ilyawab,"Kabupaten Merauke, Papua","Kabupaten Merauke, Papua",PAPUA,,Indonesia,,,,-74.504.081,1.391.221.414,https://maps.google.com/?cid=0x0:0x48a32f21f1c6967f,
mall,Pusat Perbelanjaan,Merauke Town Square,"Jl. Raya Mandala No.74, Mandala, Kec. Merauke, Kabupaten Merauke, Papua 99616","Mandala, Kec. Merauke, Kabupaten Merauke",PAPUA,99616.0,Indonesia,082198131900,,,-84.899.535,1.403.918.251,https://maps.google.com/?cid=0x0:0x8f8b117a1149369d,
mall,Pusat Perbelanjaan,Timika Mall,"57522, Jl. Hasanuddin No.9, Nawaripi, Mimika Baru, Mimika Regency, Papua 99971","Jl. Hasanuddin No.9, Nawaripi, Mimika Baru, Mimika Regency",PAPUA,99971.0,Indonesia,,,,-45.673.682,1.368.869.612,https://maps.google.com/?cid=0x0:0x146edd1a60cab3dd,
mall,Toko bahan makanan,KIOS CAHAYA PINRANG,"2V72+Q5J, Kiworo, Kimaam, Kabupaten Merauke, Papua 99655","Kiworo, Kimaam, Kabupaten Merauke",PAPUA,99655.0,Indonesia,082399443139,,,-79.855.432,1.388.503.791,https://maps.google.com/?cid=0x0:0x9a342338cd05eb85,
mall,Pusat Perbelanjaan,SBM (Sentra Belanja Merauke),"FCX5+PRF, Klp. Lima, Kec. Merauke, Kabupaten Merauke, Papua 99615","Klp. Lima, Kec. Merauke, Kabupaten Merauke",PAPUA,99615.0,Indonesia,082248334073,,,-85.006.848,1.404.095.393,https://maps.google.com/?cid=0x0:0x8fa38b3dd2424f70,
mall,Kedai Teh,Bobaho - Merauke Town Square,"G95R+XPJ, Jl. Raya Mandala, Maro, Kec. Merauke, Kabupaten Merauke, Papua 99614","Jl. Raya Mandala, Maro, Kec. Merauke, Kabupaten Merauke",PAPUA,99614.0,Indonesia,082238805533,,,-84.900.269,140.391.751,https://maps.google.com/?cid=0x0:0x45b289af4291bc84,
supermarket,Toko bahan makanan,"Orange Supermarket, Merauke","G95R+XP7, Jl. Raya Mandala, Maro, Kec. Merauke, Kabupaten Merauke, Papua 99614","Jl. Raya Mandala, Maro, Kec. Merauke, Kabupaten Merauke",PAPUA,99614.0,Indonesia,,,,-84.900.962,1.403.917.897,https://maps.google.com/?cid=0x0:0xc0bfdbcaf1e7ef4c,
supermarket,Pusat Perbelanjaan,O'MART,"FCR3+833, Mandala, Kec. Merauke, Kabupaten Merauke, Papua 99615","Mandala, Kec. Merauke, Kabupaten Merauke",PAPUA,99615.0,Indonesia,081217838188,,,-85.092.401,1.404.026.804,https://maps.google.com/?cid=0x0:0xdd3b304800cf7155,
supermarket,Pusat Perbelanjaan,Merauke Town Square,"Jl. Raya Mandala No.74, Mandala, Kec. Merauke, Kabupaten Merauke, Papua 99616","Mandala, Kec. Merauke, Kabupaten Merauke",PAPUA,99616.0,Indonesia,082198131900,,,-84.899.535,1.403.918.251,https://maps.google.com/?cid=0x0:0x8f8b117a1149369d,
supermarket,Toko bahan makanan,Golden Swalayan (GS),"F9VX+RRP, Jl. Raya Mandala, Mandala, Kec. Merauke, Kabupaten Merauke, Papua 99615","Jl. Raya Mandala, Mandala, Kec. Merauke, Kabupaten Merauke",PAPUA,99615.0,Indonesia,,,,-85.054.009,1.403.995.908,https://maps.google.com/?cid=0x0:0x2efaacdf9e86d9c2,
supermarket,Toko Swalayan,Toko Mitra Kita Swalayan Merauke,"Jl. Raya Mandala, Karang Indah, Kec. Merauke, Kabupaten Merauke, Papua","Kabupaten Merauke, Papua",PAPUA,,Indonesia,081248462491,,,-8.488.205,1.403.903.624,https://maps.google.com/?cid=0x0:0x51de7e037854071a,
supermarket,Toko Swalayan,Toko Kharisma,"Jl. Prajurit 1, Mandala, Kec. Merauke, Kabupaten Merauke, Papua 99614","Mandala, Kec. Merauke, Kabupaten Merauke",PAPUA,99614.0,Indonesia,0971322128,,,-84.947.646,1.404.002.265,https://maps.google.com/?cid=0x0:0x8ed0d579d816b31a,
supermarket,Pasar,Toko Dua,"G98Q+6QG, Jl. Raya Mandala, Karang Indah, Kec. Merauke, Kabupaten Merauke, Papua 99614","Jl. Raya Mandala, Karang Indah, Kec. Merauke, Kabupaten Merauke",PAPUA,99614.0,Indonesia,08567845008,,,-8.484.443,1.403.894.598,https://maps.google.com/?cid=0x0:0x6f24c144a2903a73,
supermarket,Toko Swalayan,Golden Mart,"FCVG+QR4, Unnamed Road, Kelapa Lima, Merauke, Merauke Regency, Papua 99615","Unnamed Road, Kelapa Lima, Merauke, Merauke Regency",PAPUA,99615.0,Indonesia,,,,-8.505.613,1.404.270.869,https://maps.google.com/?cid=0x0:0x217fb5c1af33d42b,
supermarket,Toko Bahan Bangunan,PT. Sumber Mas Bangunan,"Jl. Aru No.16, Maro, Kec. Merauke, Kabupaten Merauke, Papua 99616","Maro, Kec. Merauke, Kabupaten Merauke",PAPUA,99616.0,Indonesia,082239284010,,,-84.925.887,1.403.939.528,https://maps.google.com/?cid=0x0:0xf04300b77932dbd6,
supermarket,Toko bahan makanan,Toko Simon Dan Simon,"Jl. Raya Mandala No.92, Maro, Kec. Merauke, Kabupaten Merauke, Papua 99614","Maro, Kec. Merauke, Kabupaten Merauke",PAPUA,99614.0,Indonesia,085254361993,,,-84.916.963,1.403.923.557,https://maps.google.com/?cid=0x0:0xd66f47f08a2065fc,
supermarket,Minimarket,A-mart,"Jl. Raya Mandala, Karang Indah, Kec. Merauke, Kabupaten Merauke, Papua 99614","Karang Indah, Kec. Merauke, Kabupaten Merauke",PAPUA,99614.0,Indonesia,,,,-84.821.005,140.389.438,https://maps.google.com/?cid=0x0:0x9d342ffbf9c3e224,
supermarket,Toko bahan makanan,Mini Market Pavita,"JG88+994, Yasa Mulya, Tanah Miring, Kabupaten Merauke, Papua 99612","Yasa Mulya, Tanah Miring, Kabupaten Merauke",PAPUA,99612.0,Indonesia,,,,-83.841.166,1.405.159.624,https://maps.google.com/?cid=0x0:0xea2690ff3fd5a6ba,
supermarket,Toko umum,Orange Express,"FCQ4+78W, Jl. Ahmad Yani, Mandala, Kec. Merauke, Kabupaten Merauke, Papua 99615","Jl. Ahmad Yani, Mandala, Kec. Merauke, Kabupaten Merauke",PAPUA,99615.0,Indonesia,08114900666,,,-85.117.548,1.404.058.149,https://maps.google.com/?cid=0x0:0xb0ab4430b8c0db5a,
supermarket,Toko bahan makanan,Kios Trikora/Pgkln Lifde,"G99V+GJW, Maro, Kec. Merauke, Kabupaten Merauke, Papua 99614","Maro, Kec. Merauke, Kabupaten Merauke",PAPUA,99614.0,Indonesia,082398625351,,,-84.811.422,1.403.940.935,https://maps.google.com/?cid=0x0:0x86dcfa3355e4bc72,
supermarket,Pusat Perbelanjaan,Swalayan senyum 5000 merauke,"Jl. Raya Mandala Lampu merah ahmad yani, Mandala, Kec. Merauke, Kabupaten Merauke, Papua 99615","Mandala, Kec. Merauke, Kabupaten Merauke",PAPUA,99615.0,Indonesia,,,,-85.124.023,1.404.042.472,https://maps.google.com/?cid=0x0:0x52fe0b9875ba946,
supermarket,Toko Bahan Bangunan,Prima Swalayan,"JL. Raya Mandala, No. 187, Mandala Merauke, 99616, Mandala, Kec. Merauke, Kabupaten Merauke, Papua 99615","Mandala Merauke,",PAPUA,99616.0,Indonesia,0971325211,,,-8.495.293,140.397.277,https://maps.google.com/?cid=0x0:0xa686496e4ae2691b,
supermarket,supermarket,Papua 99612,"Kabupaten Merauke, Papua","Kabupaten Merauke, Papua",PAPUA,,Indonesia,,,,-84.002.076,1.405.756.887,https://maps.google.com/?cid=0x0:0xbc93c9cba9167257,
supermarket,Toko Swalayan,"AyuMas-Mart""""","JGF3+85Q, Jl. Poros SP2, Yasa Mulya, Tanah Miring, Kabupaten Merauke, Papua 99612","Jl. Poros SP2, Yasa Mulya, Tanah Miring, Kabupaten Merauke",PAPUA,99612.0,Indonesia,082334972087,,,-83.766.626,1.405.029.746,https://maps.google.com/?cid=0x0:0x252d977d4970829a,
supermarket,Toko bahan makanan,Mini Market Pavita,"JG88+994, Yasa Mulya, Tanah Miring, Kabupaten Merauke, Papua 99612","Yasa Mulya, Tanah Miring, Kabupaten Merauke",PAPUA,99612.0,Indonesia,,,,-83.841.166,1.405.159.624,https://maps.google.com/?cid=0x0:0xea2690ff3fd5a6ba,
supermarket,Toko,Kios Al,"JGW7+Q3P, Waninggap Say, Tanah Miring, Kabupaten Merauke, Papua 99651","Waninggap Say, Tanah Miring, Kabupaten Merauke",PAPUA,99651.0,Indonesia,082198034928,,,-83.530.462,1.405.127.125,https://maps.google.com/?cid=0x0:0xc2adbfe578fc0d22,
supermarket,Toko Swalayan,Toko Mitra Kita Swalayan Merauke,"Jl. Raya Mandala, Karang Indah, Kec. Merauke, Kabupaten Merauke, Papua","Kabupaten Merauke, Papua",PAPUA,,Indonesia,081248462491,,,-8.488.205,1.403.903.624,https://maps.google.com/?cid=0x0:0x51de7e037854071a,
supermarket,Toko bahan makanan,Adi Celuler Yasa Mulya,"JGF5+QWM, Yasa Mulya, Tanah Miring, Kabupaten Merauke, Papua 99612","Yasa Mulya, Tanah Miring, Kabupaten Merauke",PAPUA,99612.0,Indonesia,,,,-8.375.549,140.509.808,https://maps.google.com/?cid=0x0:0x6b79b796a7e54fa7,
supermarket,Pasar,Toko Dua,"G98Q+6QG, Jl. Raya Mandala, Karang Indah, Kec. Merauke, Kabupaten Merauke, Papua 99614","Jl. Raya Mandala, Karang Indah, Kec. Merauke, Kabupaten Merauke",PAPUA,99614.0,Indonesia,08567845008,,,-8.484.443,1.403.894.598,https://maps.google.com/?cid=0x0:0x6f24c144a2903a73,
supermarket,Toko bahan makanan,UD Tiga Anak Sehat,"JG96+C55, Yasa Mulya, Tanah Miring, Kabupaten Merauke, Papua 99612","Yasa Mulya, Tanah Miring, Kabupaten Merauke",PAPUA,99612.0,Indonesia,,,,-83.814.889,1.405.104.911,https://maps.google.com/?cid=0x0:0x2c7f806b25364634,
supermarket,Minimarket,Toko MITRA UTAMA,"Jl. Poros, Kuprik, Kec. Semangga, Kabupaten Merauke, Papua 99613","Kuprik, Kec. Semangga, Kabupaten Merauke",PAPUA,99613.0,Indonesia,081354111168,,,-84.685.004,1.404.328.366,https://maps.google.com/?cid=0x0:0xaee80127ddd97b4c,
supermarket,Pusat Perbelanjaan,Toko Nusantara,"Amunkai, Tanah Miring, Kabupaten Merauke, Papua 99651","Tanah Miring, Kabupaten Merauke",PAPUA,99651.0,Indonesia,,,,-83.215.232,1.405.043.222,https://maps.google.com/?cid=0x0:0xf4f3343e1205d74e,
supermarket,Toko,Kios 4A,"HC4R+69M, Unnamed Road, Semangga Jaya, Kec. Semangga, Kabupaten Merauke, Papua 99613","Unnamed Road, Semangga Jaya, Kec. Semangga, Kabupaten Merauke",PAPUA,99613.0,Indonesia,081248403829,,,-84.444.138,140.440.928,https://maps.google.com/?cid=0x0:0xbe0c03973025caf5,
supermarket,Pusat Perbelanjaan,Merauke Town Square,"Jl. Raya Mandala No.74, Mandala, Kec. Merauke, Kabupaten Merauke, Papua 99616","Mandala, Kec. Merauke, Kabupaten Merauke",PAPUA,99616.0,Indonesia,082198131900,,,-84.899.535,1.403.918.251,https://maps.google.com/?cid=0x0:0x8f8b117a1149369d,
supermarket,Kios,kios yasa Mulya jaya,"JG23+W48, Unnamed Road, Marga Mulya, Kec. Semangga, Kabupaten Merauke, Papua 99612","Unnamed Road, Marga Mulya, Kec. Semangga, Kabupaten Merauke",PAPUA,99612.0,Indonesia,,,,-83.977.077,140.502.822,https://maps.google.com/?cid=0x0:0x1d185f13a69214a,
supermarket,Toko Bahan Bangunan,Toko Anugrah Alam Kuprk,"GCMM+782, Kuprik, Kec. Semangga, Kabupaten Merauke, Papua 99613","Kuprik, Kec. Semangga, Kabupaten Merauke",PAPUA,99613.0,Indonesia,,,,-84.668.532,1.404.332.652,https://maps.google.com/?cid=0x0:0x5711382fe4aba49b,
supermarket,Toko Swalayan,KIOS MANDIRI,"MGH3+7W8, Amunkai, Tanah Miring, Kabupaten Merauke, Papua 99651","Amunkai, Tanah Miring, Kabupaten Merauke",PAPUA,99651.0,Indonesia,081344185600,,,-83.218.369,1.405.048.404,https://maps.google.com/?cid=0x0:0x29d6bb7829533828,
supermarket,Minimarket,A-mart,"Jl. Raya Mandala, Karang Indah, Kec. Merauke, Kabupaten Merauke, Papua 99614","Karang Indah, Kec. Merauke, Kabupaten Merauke",PAPUA,99614.0,Indonesia,,,,-84.821.005,140.389.438,https://maps.google.com/?cid=0x0:0x9d342ffbf9c3e224,
supermarket,Toko bahan makanan,Toko Simon Dan Simon,"Jl. Raya Mandala No.92, Maro, Kec. Merauke, Kabupaten Merauke, Papua 99614","Maro, Kec. Merauke, Kabupaten Merauke",PAPUA,99614.0,Indonesia,085254361993,,,-84.916.963,1.403.923.557,https://maps.google.com/?cid=0x0:0xd66f47f08a2065fc,
supermarket,Minimarket,"KIOS AFIFAH""""","Sarsang . Kampung yasa mulya sp2, Kabupaten Merauke, Papua","Kabupaten Merauke, Papua",PAPUA,,Indonesia,,,,-83.992.945,140.493.727,https://maps.google.com/?cid=0x0:0x7bdbb4fee30106e7,
supermarket,Toko Perlengkapan Rumah,Toko Usaha Tani,"MFP7+J3V, Isanombias, Tanah Miring, Kabupaten Merauke, Papua 99651","Isanombias, Tanah Miring, Kabupaten Merauke",PAPUA,99651.0,Indonesia,081240453954,,,-83.133.939,1.404.626.716,https://maps.google.com/?cid=0x0:0xa8633e2f50a3aab,
supermarket,Toko Swalayan,KIOS KARUNIA ILAHI,"HFVC+RW3, Marga Mulya, Kec. Semangga, Kabupaten Merauke, Papua 99651","Marga Mulya, Kec. Semangga, Kabupaten Merauke",PAPUA,99651.0,Indonesia,,,,-84.054.898,1.404.723.086,https://maps.google.com/?cid=0x0:0x908cba8586a4d0fd,
supermarket,Toko bahan makanan,Golden Swalayan (GS),"F9VX+RRP, Jl. Raya Mandala, Mandala, Kec. Merauke, Kabupaten Merauke, Papua 99615","Jl. Raya Mandala, Mandala, Kec. Merauke, Kabupaten Merauke",PAPUA,99615.0,Indonesia,,,,-85.054.009,1.403.995.908,https://maps.google.com/?cid=0x0:0x2efaacdf9e86d9c2,
supermarket,Toko Swalayan,Toko Kharisma,"Jl. Prajurit 1, Mandala, Kec. Merauke, Kabupaten Merauke, Papua 99614","Mandala, Kec. Merauke, Kabupaten Merauke",PAPUA,99614.0,Indonesia,0971322128,,,-84.947.646,1.404.002.265,https://maps.google.com/?cid=0x0:0x8ed0d579d816b31a,
supermarket,Toko Bahan Bangunan,PT. Sumber Mas Bangunan,"Jl. Aru No.16, Maro, Kec. Merauke, Kabupaten Merauke, Papua 99616","Maro, Kec. Merauke, Kabupaten Merauke",PAPUA,99616.0,Indonesia,082239284010,,,-84.925.887,1.403.939.528,https://maps.google.com/?cid=0x0:0xf04300b77932dbd6,
supermarket,Pusat Perbelanjaan,O'MART,"FCR3+833, Mandala, Kec. Merauke, Kabupaten Merauke, Papua 99615","Mandala, Kec. Merauke, Kabupaten Merauke",PAPUA,99615.0,Indonesia,081217838188,,,-85.092.401,1.404.026.804,https://maps.google.com/?cid=0x0:0xdd3b304800cf7155,
supermarket,Toko Swalayan,SUPERMARKET B-MART,"Jl. Brawijaya, Klp. Lima, Kec. Merauke, Kabupaten Merauke, Papua 99615","Klp. Lima, Kec. Merauke, Kabupaten Merauke",PAPUA,99615.0,Indonesia,085251625532,,,-84.968.455,1.404.036.489,https://maps.google.com/?cid=0x0:0xc5c50d5ba0af773d,
supermarket,Pusat Perbelanjaan,Swalayan senyum 5000 merauke,"Jl. Raya Mandala Lampu merah ahmad yani, Mandala, Kec. Merauke, Kabupaten Merauke, Papua 99615","Mandala, Kec. Merauke, Kabupaten Merauke",PAPUA,99615.0,Indonesia,,,,-85.124.023,1.404.042.472,https://maps.google.com/?cid=0x0:0x52fe0b9875ba946,
supermarket,Kedai Kopi,New Rahmat Minimarket  Coffee Shop,"Jl. Ermasu,Maro,Kec. Merauke,Kabupaten Merauke,Papua 99614, Maro, Kec. Merauke, Kabupaten Merauke, Papua 99616","Maro, Kec. Merauke, Kabupaten Merauke",PAPUA,99616.0,Indonesia,09713330832,,,-8.487.468,140.394.294,https://maps.google.com/?cid=0x0:0x60a3e46589335518,
supermarket,Toko Perlengkapan Rumah,Senang Hati Merauke Baru,"Mandala, Kec. Merauke, Kabupaten Merauke, Papua 99615","Kec. Merauke, Kabupaten Merauke",PAPUA,99615.0,Indonesia,,,,-85.117.574,1.404.044.195,https://maps.google.com/?cid=0x0:0x130f3f84bed339e7,
supermarket,Toko bahan makanan,TOKO MARTABE,"FCW7+HPQ, Klp. Lima, Kec. Merauke, Kabupaten Merauke, Papua 99615","Klp. Lima, Kec. Merauke, Kabupaten Merauke",PAPUA,99615.0,Indonesia,,,,-85.035.364,1.404.143.507,https://maps.google.com/?cid=0x0:0xa2378160c8a59d7a,
supermarket,supermarket,Papua 99613,"Kabupaten Merauke, Papua","Kabupaten Merauke, Papua",PAPUA,,Indonesia,,,,-84.612.089,1.404.204.808,https://maps.google.com/?cid=0x0:0x9b4b6c4d6e670447,
supermarket,Toko bahan makanan,"Orange Supermarket, Merauke","G95R+XP7, Jl. Raya Mandala, Maro, Kec. Merauke, Kabupaten Merauke, Papua 99614","Jl. Raya Mandala, Maro, Kec. Merauke, Kabupaten Merauke",PAPUA,99614.0,Indonesia,,,,-84.900.962,1.403.917.897,https://maps.google.com/?cid=0x0:0xc0bfdbcaf1e7ef4c,
supermarket,Toko,Toko Jaya,"G98Q+8PQ, Jl. Raya Mandala, Karang Indah, Kec. Merauke, Kabupaten Merauke, Papua 99614","Jl. Raya Mandala, Karang Indah, Kec. Merauke, Kabupaten Merauke",PAPUA,99614.0,Indonesia,0971321189,,,-84.841.573,1.403.893.704,https://maps.google.com/?cid=0x0:0x84eb9d7919c9cfab,
supermarket,Pasar,Toko Dua,"G98Q+6QG, Jl. Raya Mandala, Karang Indah, Kec. Merauke, Kabupaten Merauke, Papua 99614","Jl. Raya Mandala, Karang Indah, Kec. Merauke, Kabupaten Merauke",PAPUA,99614.0,Indonesia,08567845008,,,-8.484.443,1.403.894.598,https://maps.google.com/?cid=0x0:0x6f24c144a2903a73,
supermarket,Kedai Kopi,New Rahmat Minimarket  Coffee Shop,"Jl. Ermasu,Maro,Kec. Merauke,Kabupaten Merauke,Papua 99614, Maro, Kec. Merauke, Kabupaten Merauke, Papua 99616","Maro, Kec. Merauke, Kabupaten Merauke",PAPUA,99616.0,Indonesia,09713330832,,,-8.487.468,140.394.294,https://maps.google.com/?cid=0x0:0x60a3e46589335518,
supermarket,Toko bahan makanan,Golden Swalayan (GS),"F9VX+RRP, Jl. Raya Mandala, Mandala, Kec. Merauke, Kabupaten Merauke, Papua 99615","Jl. Raya Mandala, Mandala, Kec. Merauke, Kabupaten Merauke",PAPUA,99615.0,Indonesia,,,,-85.054.009,1.403.995.908,https://maps.google.com/?cid=0x0:0x2efaacdf9e86d9c2,
supermarket,Toko Swalayan,Toko Mitra Kita Swalayan Merauke,"Jl. Raya Mandala, Karang Indah, Kec. Merauke, Kabupaten Merauke, Papua","Kabupaten Merauke, Papua",PAPUA,,Indonesia,081248462491,,,-8.488.205,1.403.903.624,https://maps.google.com/?cid=0x0:0x51de7e037854071a,
supermarket,Toko,Kios 4A,"HC4R+69M, Unnamed Road, Semangga Jaya, Kec. Semangga, Kabupaten Merauke, Papua 99613","Unnamed Road, Semangga Jaya, Kec. Semangga, Kabupaten Merauke",PAPUA,99613.0,Indonesia,081248403829,,,-84.444.138,140.440.928,https://maps.google.com/?cid=0x0:0xbe0c03973025caf5,
supermarket,Pusat Perbelanjaan,O'MART,"FCR3+833, Mandala, Kec. Merauke, Kabupaten Merauke, Papua 99615","Mandala, Kec. Merauke, Kabupaten Merauke",PAPUA,99615.0,Indonesia,081217838188,,,-85.092.401,1.404.026.804,https://maps.google.com/?cid=0x0:0xdd3b304800cf7155,
supermarket,Toko Bahan Bangunan,Toko Anugrah Alam Kuprk,"GCMM+782, Kuprik, Kec. Semangga, Kabupaten Merauke, Papua 99613","Kuprik, Kec. Semangga, Kabupaten Merauke",PAPUA,99613.0,Indonesia,,,,-84.668.532,1.404.332.652,https://maps.google.com/?cid=0x0:0x5711382fe4aba49b,
supermarket,Toko Swalayan,Toko Kharisma,"Jl. Prajurit 1, Mandala, Kec. Merauke, Kabupaten Merauke, Papua 99614","Mandala, Kec. Merauke, Kabupaten Merauke",PAPUA,99614.0,Indonesia,0971322128,,,-84.947.646,1.404.002.265,https://maps.google.com/?cid=0x0:0x8ed0d579d816b31a,
supermarket,Minimarket,A-mart,"Jl. Raya Mandala, Karang Indah, Kec. Merauke, Kabupaten Merauke, Papua 99614","Karang Indah, Kec. Merauke, Kabupaten Merauke",PAPUA,99614.0,Indonesia,,,,-84.821.005,140.389.438,https://maps.google.com/?cid=0x0:0x9d342ffbf9c3e224,
supermarket,Toko Swalayan,OMART Mandala,"G96R+M55, Jl. Raya Mandala, Karang Indah, Kec. Merauke, Kabupaten Merauke, Papua 99614","Jl. Raya Mandala, Karang Indah, Kec. Merauke, Kabupaten Merauke",PAPUA,99614.0,Indonesia,082399258750,,,-84.883.539,140.390.478,https://maps.google.com/?cid=0x0:0xfd7afb8b026c41e5,
supermarket,Toko Swalayan,SUPERMARKET B-MART,"Jl. Brawijaya, Klp. Lima, Kec. Merauke, Kabupaten Merauke, Papua 99615","Klp. Lima, Kec. Merauke, Kabupaten Merauke",PAPUA,99615.0,Indonesia,085251625532,,,-84.968.455,1.404.036.489,https://maps.google.com/?cid=0x0:0xc5c50d5ba0af773d,
supermarket,Toko bahan makanan,Toko Satu,"Jl. Raya Mandala, Karang Indah, Kec. Merauke, Kabupaten Merauke, Papua 99614","Karang Indah, Kec. Merauke, Kabupaten Merauke",PAPUA,99614.0,Indonesia,082238806689,,,-84.839.635,1.403.893.653,https://maps.google.com/?cid=0x0:0xf3389bd785091f4f,
supermarket,Pusat Perbelanjaan,Merauke Town Square,"Jl. Raya Mandala No.74, Mandala, Kec. Merauke, Kabupaten Merauke, Papua 99616","Mandala, Kec. Merauke, Kabupaten Merauke",PAPUA,99616.0,Indonesia,082198131900,,,-84.899.535,1.403.918.251,https://maps.google.com/?cid=0x0:0x8f8b117a1149369d,
supermarket,Toko Swalayan,Toko Mutiara,"G92W+P5R, Jl. Raya Mandala, Mandala, Kec. Merauke, Kabupaten Merauke, Papua 99614","Jl. Raya Mandala, Mandala, Kec. Merauke, Kabupaten Merauke",PAPUA,99614.0,Indonesia,0608968734,,,-84.981.434,1.403.953.952,https://maps.google.com/?cid=0x0:0xda7f7f7d29d00ce7,
supermarket,Toko,Toko Trio,"G93W+23R, Mandala, Kec. Merauke, Kabupaten Merauke, Papua 99614","Mandala, Kec. Merauke, Kabupaten Merauke",PAPUA,99614.0,Indonesia,,,,-8.497.382,1.403.951.411,https://maps.google.com/?cid=0x0:0xa9a9a5d5bbb60132,
supermarket,Toko bahan makanan,Welcome Mart + ATM,"F9XR+JCF, Seringgu Jaya, Kec. Merauke, Kabupaten Merauke, Papua 99614","Seringgu Jaya, Kec. Merauke, Kabupaten Merauke",PAPUA,99614.0,Indonesia,,,,-85.009.364,1.403.910.371,https://maps.google.com/?cid=0x0:0x7713d19ee1798363,
supermarket,Toko bahan makanan,TOKO MARTABE,"FCW7+HPQ, Klp. Lima, Kec. Merauke, Kabupaten Merauke, Papua 99615","Klp. Lima, Kec. Merauke, Kabupaten Merauke",PAPUA,99615.0,Indonesia,,,,-85.035.364,1.404.143.507,https://maps.google.com/?cid=0x0:0xa2378160c8a59d7a,
supermarket,Pusat Perbelanjaan,Swalayan senyum 5000 merauke,"Jl. Raya Mandala Lampu merah ahmad yani, Mandala, Kec. Merauke, Kabupaten Merauke, Papua 99615","Mandala, Kec. Merauke, Kabupaten Merauke",PAPUA,99615.0,Indonesia,,,,-85.124.023,1.404.042.472,https://maps.google.com/?cid=0x0:0x52fe0b9875ba946,
supermarket,Toko bahan makanan,Toko Garuda,"Jl. Raya Mandala, Maro, Kec. Merauke, Kabupaten Merauke, Papua 99614","Maro, Kec. Merauke, Kabupaten Merauke",PAPUA,99614.0,Indonesia,08114930999,,,-84.908.534,1.403.920.709,https://maps.google.com/?cid=0x0:0x888fa68a2b912003,
supermarket,Toko Elektronik,Toko Bintoro Indah,"Maro, Kec. Merauke, Kabupaten Merauke, Papua 99614","Kec. Merauke, Kabupaten Merauke",PAPUA,99614.0,Indonesia,082244723332,,,-84.881.341,1.403.977.069,https://maps.google.com/?cid=0x0:0xaa8ee7fbe332653c,
supermarket,supermarket,Papua 99614,"Kec. Merauke, Kabupaten Merauke, Papua","Kabupaten Merauke, Papua",PAPUA,,Indonesia,,,,-84.915.703,1.403.791.577,https://maps.google.com/?cid=0x0:0xb9161b59fa0573f2,
supermarket,Toko bahan makanan,Golden Swalayan (GS),"F9VX+RRP, Jl. Raya Mandala, Mandala, Kec. Merauke, Kabupaten Merauke, Papua 99615","Jl. Raya Mandala, Mandala, Kec. Merauke, Kabupaten Merauke",PAPUA,99615.0,Indonesia,,,,-85.054.009,1.403.995.908,https://maps.google.com/?cid=0x0:0x2efaacdf9e86d9c2,
supermarket,Toko bahan makanan,"Orange Supermarket, Merauke","G95R+XP7, Jl. Raya Mandala, Maro, Kec. Merauke, Kabupaten Merauke, Papua 99614","Jl. Raya Mandala, Maro, Kec. Merauke, Kabupaten Merauke",PAPUA,99614.0,Indonesia,,,,-84.900.962,1.403.917.897,https://maps.google.com/?cid=0x0:0xc0bfdbcaf1e7ef4c,
supermarket,Toko,Toko Jaya,"G98Q+8PQ, Jl. Raya Mandala, Karang Indah, Kec. Merauke, Kabupaten Merauke, Papua 99614","Jl. Raya Mandala, Karang Indah, Kec. Merauke, Kabupaten Merauke",PAPUA,99614.0,Indonesia,0971321189,,,-84.841.573,1.403.893.704,https://maps.google.com/?cid=0x0:0x84eb9d7919c9cfab,
supermarket,Pusat Perbelanjaan,O'MART,"FCR3+833, Mandala, Kec. Merauke, Kabupaten Merauke, Papua 99615","Mandala, Kec. Merauke, Kabupaten Merauke",PAPUA,99615.0,Indonesia,081217838188,,,-85.092.401,1.404.026.804,https://maps.google.com/?cid=0x0:0xdd3b304800cf7155,
supermarket,Pasar,Toko Dua,"G98Q+6QG, Jl. Raya Mandala, Karang Indah, Kec. Merauke, Kabupaten Merauke, Papua 99614","Jl. Raya Mandala, Karang Indah, Kec. Merauke, Kabupaten Merauke",PAPUA,99614.0,Indonesia,08567845008,,,-8.484.443,1.403.894.598,https://maps.google.com/?cid=0x0:0x6f24c144a2903a73,
supermarket,Toko Swalayan,Toko Kharisma,"Jl. Prajurit 1, Mandala, Kec. Merauke, Kabupaten Merauke, Papua 99614","Mandala, Kec. Merauke, Kabupaten Merauke",PAPUA,99614.0,Indonesia,0971322128,,,-84.947.646,1.404.002.265,https://maps.google.com/?cid=0x0:0x8ed0d579d816b31a,
supermarket,Toko Swalayan,Toko Mutiara,"G92W+P5R, Jl. Raya Mandala, Mandala, Kec. Merauke, Kabupaten Merauke, Papua 99614","Jl. Raya Mandala, Mandala, Kec. Merauke, Kabupaten Merauke",PAPUA,99614.0,Indonesia,0608968734,,,-84.981.434,1.403.953.952,https://maps.google.com/?cid=0x0:0xda7f7f7d29d00ce7,
supermarket,Toko Swalayan,Toko Mitra Kita Swalayan Merauke,"Jl. Raya Mandala, Karang Indah, Kec. Merauke, Kabupaten Merauke, Papua","Kabupaten Merauke, Papua",PAPUA,,Indonesia,081248462491,,,-8.488.205,1.403.903.624,https://maps.google.com/?cid=0x0:0x51de7e037854071a,
supermarket,Toko bahan makanan,Welcome Mart + ATM,"F9XR+JCF, Seringgu Jaya, Kec. Merauke, Kabupaten Merauke, Papua 99614","Seringgu Jaya, Kec. Merauke, Kabupaten Merauke",PAPUA,99614.0,Indonesia,,,,-85.009.364,1.403.910.371,https://maps.google.com/?cid=0x0:0x7713d19ee1798363,
supermarket,Toko,Toko Trio,"G93W+23R, Mandala, Kec. Merauke, Kabupaten Merauke, Papua 99614","Mandala, Kec. Merauke, Kabupaten Merauke",PAPUA,99614.0,Indonesia,,,,-8.497.382,1.403.951.411,https://maps.google.com/?cid=0x0:0xa9a9a5d5bbb60132,
supermarket,Toko Swalayan,Vega Mart,"G92R+3HF, Jl. Irian Seringgu, Seringgu Jaya, Kec. Merauke, Kabupaten Merauke, Papua 99614","Jl. Irian Seringgu, Seringgu Jaya, Kec. Merauke, Kabupaten Merauke",PAPUA,99614.0,Indonesia,081240329457,,,-84.998.057,1.403.914.369,https://maps.google.com/?cid=0x0:0x2c757a4fd41e6d2e,
supermarket,Toko Swalayan,Nailan mart,"Jl. Raya Mandala No.281, Mandala, Kec. Merauke, Kabupaten Merauke, Papua 99614","Mandala, Kec. Merauke, Kabupaten Merauke",PAPUA,99614.0,Indonesia,082238232377,,,-85.097.676,1.404.031.223,https://maps.google.com/?cid=0x0:0xb2071d1febb4be47,
supermarket,Pusat Perbelanjaan,BUNDA MART,"Jl. Gak, Bambu Pemali, Kec. Merauke, Kabupaten Merauke, Papua 99614","Bambu Pemali, Kec. Merauke, Kabupaten Merauke",PAPUA,99614.0,Indonesia,0812548697556,,,-850.456,140.393.003,https://maps.google.com/?cid=0x0:0xcd35ee37f85d7086,
supermarket,Toko Swalayan,OMART Mandala,"G96R+M55, Jl. Raya Mandala, Karang Indah, Kec. Merauke, Kabupaten Merauke, Papua 99614","Jl. Raya Mandala, Karang Indah, Kec. Merauke, Kabupaten Merauke",PAPUA,99614.0,Indonesia,082399258750,,,-84.883.539,140.390.478,https://maps.google.com/?cid=0x0:0xfd7afb8b026c41e5,
supermarket,Pusat Perbelanjaan,Merauke Town Square,"Jl. Raya Mandala No.74, Mandala, Kec. Merauke, Kabupaten Merauke, Papua 99616","Mandala, Kec. Merauke, Kabupaten Merauke",PAPUA,99616.0,Indonesia,082198131900,,,-84.899.535,1.403.918.251,https://maps.google.com/?cid=0x0:0x8f8b117a1149369d,
supermarket,Toko bahan makanan,dmart,"Jl. Nusa Barong, Karang Indah, Kec. Merauke, Kabupaten Merauke, Papua 99619","Karang Indah, Kec. Merauke, Kabupaten Merauke",PAPUA,99619.0,Indonesia,081343183299,,,-84.932.521,1.403.847.406,https://maps.google.com/?cid=0x0:0xf51d4e1ea9159919,
supermarket,Toko bahan makanan,Toko Simon Dan Simon,"Jl. Raya Mandala No.92, Maro, Kec. Merauke, Kabupaten Merauke, Papua 99614","Maro, Kec. Merauke, Kabupaten Merauke",PAPUA,99614.0,Indonesia,085254361993,,,-84.916.963,1.403.923.557,https://maps.google.com/?cid=0x0:0xd66f47f08a2065fc,
supermarket,Toko bahan makanan,TOKO MARTABE,"FCW7+HPQ, Klp. Lima, Kec. Merauke, Kabupaten Merauke, Papua 99615","Klp. Lima, Kec. Merauke, Kabupaten Merauke",PAPUA,99615.0,Indonesia,,,,-85.035.364,1.404.143.507,https://maps.google.com/?cid=0x0:0xa2378160c8a59d7a,
supermarket,Toko bahan makanan,Rajawali Mart,"G96M+MM5, Jl. Natuna Depan Gereja Gunung Sinai Meruke-, Karang Indah, Kec. Merauke, Kabupaten Merauke, Papua 99614","Jl. Natuna Depan Gereja Gunung Sinai Meruke-, Karang Indah, Kec. Merauke, Kabupaten Merauke",PAPUA,99614.0,Indonesia,082398304129,,,-84.883.725,1.403.842.208,https://maps.google.com/?cid=0x0:0xe74cf58c16328f13,
supermarket,supermarket,Merauke,"Kec. Merauke, Kabupaten Merauke, Papua","Kabupaten Merauke, Papua",PAPUA,,Indonesia,,,,-84.991.117,1.404.049.814,https://maps.google.com/?cid=0x0:0x578edb6cfc3c6f21,
supermarket,Toko Swalayan,Golden Mart,"FCVG+QR4, Unnamed Road, Kelapa Lima, Merauke, Merauke Regency, Papua 99615","Unnamed Road, Kelapa Lima, Merauke, Merauke Regency",PAPUA,99615.0,Indonesia,,,,-8.505.613,1.404.270.869,https://maps.google.com/?cid=0x0:0x217fb5c1af33d42b,
supermarket,Toko Perlengkapan Rumah,Senang Hati Merauke Baru,"Mandala, Kec. Merauke, Kabupaten Merauke, Papua 99615","Kec. Merauke, Kabupaten Merauke",PAPUA,99615.0,Indonesia,,,,-85.117.574,1.404.044.195,https://maps.google.com/?cid=0x0:0x130f3f84bed339e7,
supermarket,Toko Swalayan,Toko Metro,"Jl. Raya Mandala No.204, Mandala, Kec. Merauke, Kabupaten Merauke, Papua 99614","Mandala, Kec. Merauke, Kabupaten Merauke",PAPUA,99614.0,Indonesia,081343225075,,,-85.013.332,1.403.975.989,https://maps.google.com/?cid=0x0:0xf3884707fb721c96,
supermarket,Toko Swalayan,SUPERMARKET B-MART,"Jl. Brawijaya, Klp. Lima, Kec. Merauke, Kabupaten Merauke, Papua 99615","Klp. Lima, Kec. Merauke, Kabupaten Merauke",PAPUA,99615.0,Indonesia,085251625532,,,-84.968.455,1.404.036.489,https://maps.google.com/?cid=0x0:0xc5c50d5ba0af773d,
supermarket,Toko bahan makanan,Toko Garuda,"Jl. Raya Mandala, Maro, Kec. Merauke, Kabupaten Merauke, Papua 99614","Maro, Kec. Merauke, Kabupaten Merauke",PAPUA,99614.0,Indonesia,08114930999,,,-84.908.534,1.403.920.709,https://maps.google.com/?cid=0x0:0x888fa68a2b912003,
supermarket,Toko,RGM TIM,"G97J+RQ9, Jl. Gg. Radio, Karang Indah, Kec. Merauke, Kabupaten Merauke, Papua 99614","Jl. Gg. Radio, Karang Indah, Kec. Merauke, Kabupaten Merauke",PAPUA,99614.0,Indonesia,082248456058,,,-84.854.593,1.403.819.939,https://maps.google.com/?cid=0x0:0xdf0e9324554b82af,
supermarket,Toko Elektronik,Toko Bintoro Indah,"Maro, Kec. Merauke, Kabupaten Merauke, Papua 99614","Kec. Merauke, Kabupaten Merauke",PAPUA,99614.0,Indonesia,082244723332,,,-84.881.341,1.403.977.069,https://maps.google.com/?cid=0x0:0xaa8ee7fbe332653c,
supermarket,supermarket,Papua 99615,"Kec. Merauke, Kabupaten Merauke, Papua","Kabupaten Merauke, Papua",PAPUA,,Indonesia,,,,-851.425,1.404.204.808,https://maps.google.com/?cid=0x0:0x70b22f32fa86fa9f,
supermarket,Toko bahan makanan,Golden Swalayan (GS),"F9VX+RRP, Jl. Raya Mandala, Mandala, Kec. Merauke, Kabupaten Merauke, Papua 99615","Jl. Raya Mandala, Mandala, Kec. Merauke, Kabupaten Merauke",PAPUA,99615.0,Indonesia,,,,-85.054.009,1.403.995.908,https://maps.google.com/?cid=0x0:0x2efaacdf9e86d9c2,
supermarket,Pusat Perbelanjaan,O'MART,"FCR3+833, Mandala, Kec. Merauke, Kabupaten Merauke, Papua 99615","Mandala, Kec. Merauke, Kabupaten Merauke",PAPUA,99615.0,Indonesia,081217838188,,,-85.092.401,1.404.026.804,https://maps.google.com/?cid=0x0:0xdd3b304800cf7155,
supermarket,Toko Perlengkapan Rumah,Senang Hati Merauke Baru,"Mandala, Kec. Merauke, Kabupaten Merauke, Papua 99615","Kec. Merauke, Kabupaten Merauke",PAPUA,99615.0,Indonesia,,,,-85.117.574,1.404.044.195,https://maps.google.com/?cid=0x0:0x130f3f84bed339e7,
supermarket,Kedai Kopi,New Rahmat Minimarket  Coffee Shop,"Jl. Ermasu,Maro,Kec. Merauke,Kabupaten Merauke,Papua 99614, Maro, Kec. Merauke, Kabupaten Merauke, Papua 99616","Maro, Kec. Merauke, Kabupaten Merauke",PAPUA,99616.0,Indonesia,09713330832,,,-8.487.468,140.394.294,https://maps.google.com/?cid=0x0:0x60a3e46589335518,
supermarket,Toko bahan makanan,TOKO MARTABE,"FCW7+HPQ, Klp. Lima, Kec. Merauke, Kabupaten Merauke, Papua 99615","Klp. Lima, Kec. Merauke, Kabupaten Merauke",PAPUA,99615.0,Indonesia,,,,-85.035.364,1.404.143.507,https://maps.google.com/?cid=0x0:0xa2378160c8a59d7a,
supermarket,Toko Swalayan,Toko Kharisma,"Jl. Prajurit 1, Mandala, Kec. Merauke, Kabupaten Merauke, Papua 99614","Mandala, Kec. Merauke, Kabupaten Merauke",PAPUA,99614.0,Indonesia,0971322128,,,-84.947.646,1.404.002.265,https://maps.google.com/?cid=0x0:0x8ed0d579d816b31a,
supermarket,Toko Swalayan,Toko Mitra Kita Swalayan Merauke,"Jl. Raya Mandala, Karang Indah, Kec. Merauke, Kabupaten Merauke, Papua","Kabupaten Merauke, Papua",PAPUA,,Indonesia,081248462491,,,-8.488.205,1.403.903.624,https://maps.google.com/?cid=0x0:0x51de7e037854071a,
supermarket,Toko bahan makanan,Welcome Mart + ATM,"F9XR+JCF, Seringgu Jaya, Kec. Merauke, Kabupaten Merauke, Papua 99614","Seringgu Jaya, Kec. Merauke, Kabupaten Merauke",PAPUA,99614.0,Indonesia,,,,-85.009.364,1.403.910.371,https://maps.google.com/?cid=0x0:0x7713d19ee1798363,
supermarket,Toko,Toko Jaya,"G98Q+8PQ, Jl. Raya Mandala, Karang Indah, Kec. Merauke, Kabupaten Merauke, Papua 99614","Jl. Raya Mandala, Karang Indah, Kec. Merauke, Kabupaten Merauke",PAPUA,99614.0,Indonesia,0971321189,,,-84.841.573,1.403.893.704,https://maps.google.com/?cid=0x0:0x84eb9d7919c9cfab,
supermarket,Pasar,Toko Dua,"G98Q+6QG, Jl. Raya Mandala, Karang Indah, Kec. Merauke, Kabupaten Merauke, Papua 99614","Jl. Raya Mandala, Karang Indah, Kec. Merauke, Kabupaten Merauke",PAPUA,99614.0,Indonesia,08567845008,,,-8.484.443,1.403.894.598,https://maps.google.com/?cid=0x0:0x6f24c144a2903a73,
supermarket,Toko Alat Tulis,TOKO CAHAYA INTAN STATIONERY  PERCETAKAN,"FCV4+J2H, Mandala, Kec. Merauke, Kabupaten Merauke, Papua 99615","Mandala, Kec. Merauke, Kabupaten Merauke",PAPUA,99615.0,Indonesia,08114979889,,,-85.059.293,140.405.124,https://maps.google.com/?cid=0x0:0x5defaff4b03ed649,
supermarket,Toko Swalayan,Toko Mutiara,"G92W+P5R, Jl. Raya Mandala, Mandala, Kec. Merauke, Kabupaten Merauke, Papua 99614","Jl. Raya Mandala, Mandala, Kec. Merauke, Kabupaten Merauke",PAPUA,99614.0,Indonesia,0608968734,,,-84.981.434,1.403.953.952,https://maps.google.com/?cid=0x0:0xda7f7f7d29d00ce7,
supermarket,Toko Swalayan,Golden Mart,"FCVG+QR4, Unnamed Road, Kelapa Lima, Merauke, Merauke Regency, Papua 99615","Unnamed Road, Kelapa Lima, Merauke, Merauke Regency",PAPUA,99615.0,Indonesia,,,,-8.505.613,1.404.270.869,https://maps.google.com/?cid=0x0:0x217fb5c1af33d42b,
supermarket,Toko Swalayan,Nailan mart,"Jl. Raya Mandala No.281, Mandala, Kec. Merauke, Kabupaten Merauke, Papua 99614","Mandala, Kec. Merauke, Kabupaten Merauke",PAPUA,99614.0,Indonesia,082238232377,,,-85.097.676,1.404.031.223,https://maps.google.com/?cid=0x0:0xb2071d1febb4be47,
supermarket,Pusat Perbelanjaan,BUNDA MART,"Jl. Gak, Bambu Pemali, Kec. Merauke, Kabupaten Merauke, Papua 99614","Bambu Pemali, Kec. Merauke, Kabupaten Merauke",PAPUA,99614.0,Indonesia,0812548697556,,,-850.456,140.393.003,https://maps.google.com/?cid=0x0:0xcd35ee37f85d7086,
supermarket,Toko,Toko Trio,"G93W+23R, Mandala, Kec. Merauke, Kabupaten Merauke, Papua 99614","Mandala, Kec. Merauke, Kabupaten Merauke",PAPUA,99614.0,Indonesia,,,,-8.497.382,1.403.951.411,https://maps.google.com/?cid=0x0:0xa9a9a5d5bbb60132,
supermarket,Pusat Perbelanjaan,Merauke Town Square,"Jl. Raya Mandala No.74, Mandala, Kec. Merauke, Kabupaten Merauke, Papua 99616","Mandala, Kec. Merauke, Kabupaten Merauke",PAPUA,99616.0,Indonesia,082198131900,,,-84.899.535,1.403.918.251,https://maps.google.com/?cid=0x0:0x8f8b117a1149369d,
supermarket,Toko Swalayan,Vega Mart,"G92R+3HF, Jl. Irian Seringgu, Seringgu Jaya, Kec. Merauke, Kabupaten Merauke, Papua 99614","Jl. Irian Seringgu, Seringgu Jaya, Kec. Merauke, Kabupaten Merauke",PAPUA,99614.0,Indonesia,081240329457,,,-84.998.057,1.403.914.369,https://maps.google.com/?cid=0x0:0x2c757a4fd41e6d2e,
supermarket,Toko bahan makanan,Toko Simon Dan Simon,"Jl. Raya Mandala No.92, Maro, Kec. Merauke, Kabupaten Merauke, Papua 99614","Maro, Kec. Merauke, Kabupaten Merauke",PAPUA,99614.0,Indonesia,085254361993,,,-84.916.963,1.403.923.557,https://maps.google.com/?cid=0x0:0xd66f47f08a2065fc,
supermarket,Toko Swalayan,Toko Metro,"Jl. Raya Mandala No.204, Mandala, Kec. Merauke, Kabupaten Merauke, Papua 99614","Mandala, Kec. Merauke, Kabupaten Merauke",PAPUA,99614.0,Indonesia,081343225075,,,-85.013.332,1.403.975.989,https://maps.google.com/?cid=0x0:0xf3884707fb721c96,
supermarket,Minimarket,Toko MITRA UTAMA,"Jl. Poros, Kuprik, Kec. Semangga, Kabupaten Merauke, Papua 99613","Kuprik, Kec. Semangga, Kabupaten Merauke",PAPUA,99613.0,Indonesia,081354111168,,,-84.685.004,1.404.328.366,https://maps.google.com/?cid=0x0:0xaee80127ddd97b4c,
supermarket,Toko Swalayan,SUPERMARKET B-MART,"Jl. Brawijaya, Klp. Lima, Kec. Merauke, Kabupaten Merauke, Papua 99615","Klp. Lima, Kec. Merauke, Kabupaten Merauke",PAPUA,99615.0,Indonesia,085251625532,,,-84.968.455,1.404.036.489,https://maps.google.com/?cid=0x0:0xc5c50d5ba0af773d,
supermarket,Pusat Perbelanjaan,Swalayan senyum 5000 merauke,"Jl. Raya Mandala Lampu merah ahmad yani, Mandala, Kec. Merauke, Kabupaten Merauke, Papua 99615","Mandala, Kec. Merauke, Kabupaten Merauke",PAPUA,99615.0,Indonesia,,,,-85.124.023,1.404.042.472,https://maps.google.com/?cid=0x0:0x52fe0b9875ba946,
supermarket,Toko Swalayan,OMART Mandala,"G96R+M55, Jl. Raya Mandala, Karang Indah, Kec. Merauke, Kabupaten Merauke, Papua 99614","Jl. Raya Mandala, Karang Indah, Kec. Merauke, Kabupaten Merauke",PAPUA,99614.0,Indonesia,082399258750,,,-84.883.539,140.390.478,https://maps.google.com/?cid=0x0:0xfd7afb8b026c41e5,
supermarket,supermarket,Kec. Merauke,"Kabupaten Merauke, Papua","Kabupaten Merauke, Papua",PAPUA,,Indonesia,,,,-84.973.832,140.395.268,https://maps.google.com/?cid=0x0:0x4e78efac9403e008,
supermarket,Toko bahan makanan,Golden Swalayan (GS),"F9VX+RRP, Jl. Raya Mandala, Mandala, Kec. Merauke, Kabupaten Merauke, Papua 99615","Jl. Raya Mandala, Mandala, Kec. Merauke, Kabupaten Merauke",PAPUA,99615.0,Indonesia,,,,-85.054.009,1.403.995.908,https://maps.google.com/?cid=0x0:0x2efaacdf9e86d9c2,
supermarket,Toko bahan makanan,"Orange Supermarket, Merauke","G95R+XP7, Jl. Raya Mandala, Maro, Kec. Merauke, Kabupaten Merauke, Papua 99614","Jl. Raya Mandala, Maro, Kec. Merauke, Kabupaten Merauke",PAPUA,99614.0,Indonesia,,,,-84.900.962,1.403.917.897,https://maps.google.com/?cid=0x0:0xc0bfdbcaf1e7ef4c,
supermarket,Pusat Perbelanjaan,O'MART,"FCR3+833, Mandala, Kec. Merauke, Kabupaten Merauke, Papua 99615","Mandala, Kec. Merauke, Kabupaten Merauke",PAPUA,99615.0,Indonesia,081217838188,,,-85.092.401,1.404.026.804,https://maps.google.com/?cid=0x0:0xdd3b304800cf7155,
supermarket,Toko Swalayan,Toko Kharisma,"Jl. Prajurit 1, Mandala, Kec. Merauke, Kabupaten Merauke, Papua 99614","Mandala, Kec. Merauke, Kabupaten Merauke",PAPUA,99614.0,Indonesia,0971322128,,,-84.947.646,1.404.002.265,https://maps.google.com/?cid=0x0:0x8ed0d579d816b31a,
supermarket,Toko Swalayan,Toko Mitra Kita Swalayan Merauke,"Jl. Raya Mandala, Karang Indah, Kec. Merauke, Kabupaten Merauke, Papua","Kabupaten Merauke, Papua",PAPUA,,Indonesia,081248462491,,,-8.488.205,1.403.903.624,https://maps.google.com/?cid=0x0:0x51de7e037854071a,
supermarket,Toko,Toko Jaya,"G98Q+8PQ, Jl. Raya Mandala, Karang Indah, Kec. Merauke, Kabupaten Merauke, Papua 99614","Jl. Raya Mandala, Karang Indah, Kec. Merauke, Kabupaten Merauke",PAPUA,99614.0,Indonesia,0971321189,,,-84.841.573,1.403.893.704,https://maps.google.com/?cid=0x0:0x84eb9d7919c9cfab,
supermarket,Toko bahan makanan,Welcome Mart + ATM,"F9XR+JCF, Seringgu Jaya, Kec. Merauke, Kabupaten Merauke, Papua 99614","Seringgu Jaya, Kec. Merauke, Kabupaten Merauke",PAPUA,99614.0,Indonesia,,,,-85.009.364,1.403.910.371,https://maps.google.com/?cid=0x0:0x7713d19ee1798363,
supermarket,Pasar,Toko Dua,"G98Q+6QG, Jl. Raya Mandala, Karang Indah, Kec. Merauke, Kabupaten Merauke, Papua 99614","Jl. Raya Mandala, Karang Indah, Kec. Merauke, Kabupaten Merauke",PAPUA,99614.0,Indonesia,08567845008,,,-8.484.443,1.403.894.598,https://maps.google.com/?cid=0x0:0x6f24c144a2903a73,
supermarket,Toko bahan makanan,TOKO MARTABE,"FCW7+HPQ, Klp. Lima, Kec. Merauke, Kabupaten Merauke, Papua 99615","Klp. Lima, Kec. Merauke, Kabupaten Merauke",PAPUA,99615.0,Indonesia,,,,-85.035.364,1.404.143.507,https://maps.google.com/?cid=0x0:0xa2378160c8a59d7a,
supermarket,Toko Swalayan,Nailan mart,"Jl. Raya Mandala No.281, Mandala, Kec. Merauke, Kabupaten Merauke, Papua 99614","Mandala, Kec. Merauke, Kabupaten Merauke",PAPUA,99614.0,Indonesia,082238232377,,,-85.097.676,1.404.031.223,https://maps.google.com/?cid=0x0:0xb2071d1febb4be47,
supermarket,Toko Bahan Bangunan,PT. Sumber Mas Bangunan,"Jl. Aru No.16, Maro, Kec. Merauke, Kabupaten Merauke, Papua 99616","Maro, Kec. Merauke, Kabupaten Merauke",PAPUA,99616.0,Indonesia,082239284010,,,-84.925.887,1.403.939.528,https://maps.google.com/?cid=0x0:0xf04300b77932dbd6,
supermarket,Pusat Perbelanjaan,Merauke Town Square,"Jl. Raya Mandala No.74, Mandala, Kec. Merauke, Kabupaten Merauke, Papua 99616","Mandala, Kec. Merauke, Kabupaten Merauke",PAPUA,99616.0,Indonesia,082198131900,,,-84.899.535,1.403.918.251,https://maps.google.com/?cid=0x0:0x8f8b117a1149369d,
supermarket,Pusat Perbelanjaan,BUNDA MART,"Jl. Gak, Bambu Pemali, Kec. Merauke, Kabupaten Merauke, Papua 99614","Bambu Pemali, Kec. Merauke, Kabupaten Merauke",PAPUA,99614.0,Indonesia,0812548697556,,,-850.456,140.393.003,https://maps.google.com/?cid=0x0:0xcd35ee37f85d7086,
supermarket,Toko Swalayan,Toko Mutiara,"G92W+P5R, Jl. Raya Mandala, Mandala, Kec. Merauke, Kabupaten Merauke, Papua 99614","Jl. Raya Mandala, Mandala, Kec. Merauke, Kabupaten Merauke",PAPUA,99614.0,Indonesia,0608968734,,,-84.981.434,1.403.953.952,https://maps.google.com/?cid=0x0:0xda7f7f7d29d00ce7,
supermarket,Toko,Toko Trio,"G93W+23R, Mandala, Kec. Merauke, Kabupaten Merauke, Papua 99614","Mandala, Kec. Merauke, Kabupaten Merauke",PAPUA,99614.0,Indonesia,,,,-8.497.382,1.403.951.411,https://maps.google.com/?cid=0x0:0xa9a9a5d5bbb60132,
supermarket,Toko Swalayan,Vega Mart,"G92R+3HF, Jl. Irian Seringgu, Seringgu Jaya, Kec. Merauke, Kabupaten Merauke, Papua 99614","Jl. Irian Seringgu, Seringgu Jaya, Kec. Merauke, Kabupaten Merauke",PAPUA,99614.0,Indonesia,081240329457,,,-84.998.057,1.403.914.369,https://maps.google.com/?cid=0x0:0x2c757a4fd41e6d2e,
supermarket,Toko Alat Tulis,TOKO CAHAYA INTAN STATIONERY  PERCETAKAN,"FCV4+J2H, Mandala, Kec. Merauke, Kabupaten Merauke, Papua 99615","Mandala, Kec. Merauke, Kabupaten Merauke",PAPUA,99615.0,Indonesia,08114979889,,,-85.059.293,140.405.124,https://maps.google.com/?cid=0x0:0x5defaff4b03ed649,
supermarket,Toko Swalayan,Golden Mart,"FCVG+QR4, Unnamed Road, Kelapa Lima, Merauke, Merauke Regency, Papua 99615","Unnamed Road, Kelapa Lima, Merauke, Merauke Regency",PAPUA,99615.0,Indonesia,,,,-8.505.613,1.404.270.869,https://maps.google.com/?cid=0x0:0x217fb5c1af33d42b,
supermarket,Toko bahan makanan,Toko Adil,"G95V+249, Jalan Raya Mandala, Mandala, Maro, Kec. Merauke, Kabupaten Merauke, Papua 99616","Jalan Raya Mandala, Mandala, Maro, Kec. Merauke, Kabupaten Merauke",PAPUA,99616.0,Indonesia,0971321096,,,-84.924.512,1.403.928.699,https://maps.google.com/?cid=0x0:0xa4d4455a4f3da9a5,
supermarket,supermarket,Papua 99616,"Kabupaten Merauke, Papua","Kabupaten Merauke, Papua",PAPUA,,Indonesia,,,,-87.602.047,1.407.624.493,https://maps.google.com/?cid=0x0:0x9815394c40e41634,
supermarket,Toko Perlengkapan Rumah,Senang Hati Merauke Baru,"Mandala, Kec. Merauke, Kabupaten Merauke, Papua 99615","Kec. Merauke, Kabupaten Merauke",PAPUA,99615.0,Indonesia,,,,-85.117.574,1.404.044.195,https://maps.google.com/?cid=0x0:0x130f3f84bed339e7,
supermarket,Toko Swalayan,Toko Metro,"Jl. Raya Mandala No.204, Mandala, Kec. Merauke, Kabupaten Merauke, Papua 99614","Mandala, Kec. Merauke, Kabupaten Merauke",PAPUA,99614.0,Indonesia,081343225075,,,-85.013.332,1.403.975.989,https://maps.google.com/?cid=0x0:0xf3884707fb721c96,
supermarket,supermarket,Merauke,"Kec. Merauke, Kabupaten Merauke, Papua","Kabupaten Merauke, Papua",PAPUA,,Indonesia,,,,-84.991.117,1.404.049.814,https://maps.google.com/?cid=0x0:0x578edb6cfc3c6f21,
supermarket,Toko Swalayan,SUPERMARKET B-MART,"Jl. Brawijaya, Klp. Lima, Kec. Merauke, Kabupaten Merauke, Papua 99615","Klp. Lima, Kec. Merauke, Kabupaten Merauke",PAPUA,99615.0,Indonesia,085251625532,,,-84.968.455,1.404.036.489,https://maps.google.com/?cid=0x0:0xc5c50d5ba0af773d,
supermarket,Toko Swalayan,OMART Mandala,"G96R+M55, Jl. Raya Mandala, Karang Indah, Kec. Merauke, Kabupaten Merauke, Papua 99614","Jl. Raya Mandala, Karang Indah, Kec. Merauke, Kabupaten Merauke",PAPUA,99614.0,Indonesia,082399258750,,,-84.883.539,140.390.478,https://maps.google.com/?cid=0x0:0xfd7afb8b026c41e5,
supermarket,Toko umum,Prindapan store,"JH9J+RGH, Sigabel, Kec. Muting, Kabupaten Merauke, Papua 99652","Sigabel, Kec. Muting, Kabupaten Merauke",PAPUA,99652.0,Indonesia,,,,-73.794.394,1.405.805.268,https://maps.google.com/?cid=0x0:0x328606af72fe6b7f,
supermarket,Toko Kelontong Asia,Kios ibu boimin,"JHCF+J7X, Sigabel, Kec. Muting, Kabupaten Merauke, Papua 99652","Sigabel, Kec. Muting, Kabupaten Merauke",PAPUA,99652.0,Indonesia,,,,-73.783.843,1.405.732.347,https://maps.google.com/?cid=0x0:0x24c25ba654b0bd0b,
supermarket,Toko umum,Minimarket,"HHVR+R56, Sed Agung Prasasti, Kec. Muting, Kabupaten Merauke, Papua 99652","Sed Agung Prasasti, Kec. Muting, Kabupaten Merauke",PAPUA,99652.0,Indonesia,,,,-74.056.414,1.405.916.439,https://maps.google.com/?cid=0x0:0xd2a70a4b34371cf,
supermarket,Pusat Perbelanjaan,O'MART,"FCR3+833, Mandala, Kec. Merauke, Kabupaten Merauke, Papua 99615","Mandala, Kec. Merauke, Kabupaten Merauke",PAPUA,99615.0,Indonesia,081217838188,,,-85.092.401,1.404.026.804,https://maps.google.com/?cid=0x0:0xdd3b304800cf7155,
supermarket,Toko bahan makanan,"Orange Supermarket, Merauke","G95R+XP7, Jl. Raya Mandala, Maro, Kec. Merauke, Kabupaten Merauke, Papua 99614","Jl. Raya Mandala, Maro, Kec. Merauke, Kabupaten Merauke",PAPUA,99614.0,Indonesia,,,,-84.900.962,1.403.917.897,https://maps.google.com/?cid=0x0:0xc0bfdbcaf1e7ef4c,
supermarket,Pusat Perbelanjaan,Merauke Town Square,"Jl. Raya Mandala No.74, Mandala, Kec. Merauke, Kabupaten Merauke, Papua 99616","Mandala, Kec. Merauke, Kabupaten Merauke",PAPUA,99616.0,Indonesia,082198131900,,,-84.899.535,1.403.918.251,https://maps.google.com/?cid=0x0:0x8f8b117a1149369d,
supermarket,supermarket,Best Western Lake Lucille Inn,"1300 W Lake Lucille Dr, Wasilla, AK 99654, Amerika Serikat","Wasilla, AK",PAPUA,99654.0,Indonesia,19073731776,,,615.770.009,-1.494.844.673,https://maps.google.com/?cid=0x0:0x3d770ba0805a9a34,
supermarket,supermarket,Kimaam,"Kimaam, Kabupaten Merauke, Papua","Kabupaten Merauke, Papua",PAPUA,,Indonesia,,,,-79.539.715,1.388.095.665,https://maps.google.com/?cid=0x0:0x80d2ff87697d7f5b,
supermarket,Toko Swalayan,Kios Baru 1 Kimaam,"Jalan Gotong Royong No.RT.1, Kiworo, Kimaam, Kabupaten Merauke, Papua 99655","Kiworo, Kimaam, Kabupaten Merauke",PAPUA,99655.0,Indonesia,081344263123,,,-79.855.171,138.845.935,https://maps.google.com/?cid=0x0:0xd3467309febfeb5d,
supermarket,Toko Swalayan,Kios Baru 2 Kimaam,"2R8W+48C, Kimaam, Kabupaten Merauke, Papua 99655","Kimaam, Kabupaten Merauke",PAPUA,99655.0,Indonesia,,,,-79.846.802,1.388.457.605,https://maps.google.com/?cid=0x0:0xcce5b9458b4ce814,
supermarket,Toko Swalayan,Kios Bali,"Woner, Kimaam, Kabupaten Merauke, Papua 99641","Kimaam, Kabupaten Merauke",PAPUA,99641.0,Indonesia,082399052234,,,-7.985.936,138.845.812,https://maps.google.com/?cid=0x0:0xd2e0995d4ed787cb,
supermarket,Toko,Kios Matahari,"2R8W+34X, Kimaam, Kabupaten Merauke, Papua 99655","Kimaam, Kabupaten Merauke",PAPUA,99655.0,Indonesia,,,,-79.847.704,138.845.356,https://maps.google.com/?cid=0x0:0xd4daa9503b915a1b,
supermarket,Toko Swalayan,KIOS PUTRA BONE,"2R7W+7CC, Woner, Kimaam, Kabupaten Merauke, Papua 99655","Woner, Kimaam, Kabupaten Merauke",PAPUA,99655.0,Indonesia,082198409888,,,-79.864.825,1.388.463.286,https://maps.google.com/?cid=0x0:0x36c2e89f4f6566a5,
supermarket,Toko,Toko To'do'puli,"XVQV+Q59, Kiworo, Kimaam, Kabupaten Merauke, Papua","Kabupaten Merauke, Papua",PAPUA,,Indonesia,082139952538,,,-80.105.982,1.388.929.962,https://maps.google.com/?cid=0x0:0x3080f22be20c0e88,
supermarket,supermarket,Kec. Semangga,"Kabupaten Merauke, Papua","Kabupaten Merauke, Papua",PAPUA,,Indonesia,,,,-84.364.694,1.404.446.978,https://maps.google.com/?cid=0x0:0x1d2de3cc7a912a37,
supermarket,Toko,Kios 4A,"HC4R+69M, Unnamed Road, Semangga Jaya, Kec. Semangga, Kabupaten Merauke, Papua 99613","Unnamed Road, Semangga Jaya, Kec. Semangga, Kabupaten Merauke",PAPUA,99613.0,Indonesia,081248403829,,,-84.444.138,140.440.928,https://maps.google.com/?cid=0x0:0xbe0c03973025caf5,
supermarket,Toko bahan makanan,Golden Swalayan (GS),"F9VX+RRP, Jl. Raya Mandala, Mandala, Kec. Merauke, Kabupaten Merauke, Papua 99615","Jl. Raya Mandala, Mandala, Kec. Merauke, Kabupaten Merauke",PAPUA,99615.0,Indonesia,,,,-85.054.009,1.403.995.908,https://maps.google.com/?cid=0x0:0x2efaacdf9e86d9c2,
supermarket,Minimarket,Toko MITRA UTAMA,"Jl. Poros, Kuprik, Kec. Semangga, Kabupaten Merauke, Papua 99613","Kuprik, Kec. Semangga, Kabupaten Merauke",PAPUA,99613.0,Indonesia,081354111168,,,-84.685.004,1.404.328.366,https://maps.google.com/?cid=0x0:0xaee80127ddd97b4c,
supermarket,Toko Bahan Bangunan,Toko Anugrah Alam Kuprk,"GCMM+782, Kuprik, Kec. Semangga, Kabupaten Merauke, Papua 99613","Kuprik, Kec. Semangga, Kabupaten Merauke",PAPUA,99613.0,Indonesia,,,,-84.668.532,1.404.332.652,https://maps.google.com/?cid=0x0:0x5711382fe4aba49b,
supermarket,Toko bahan makanan,kios sumber abadi,"HC7V+J84, Unnamed Road, Semangga Jaya, Kec. Semangga, Kabupaten Merauke, Papua 99651","Unnamed Road, Semangga Jaya, Kec. Semangga, Kabupaten Merauke",PAPUA,99651.0,Indonesia,081248276154,,,-84.359.833,1.404.433.327,https://maps.google.com/?cid=0x0:0x28bdf2cfbee416ba,
supermarket,Kedai Kopi,New Rahmat Minimarket  Coffee Shop,"Jl. Ermasu,Maro,Kec. Merauke,Kabupaten Merauke,Papua 99614, Maro, Kec. Merauke, Kabupaten Merauke, Papua 99616","Maro, Kec. Merauke, Kabupaten Merauke",PAPUA,99616.0,Indonesia,09713330832,,,-8.487.468,140.394.294,https://maps.google.com/?cid=0x0:0x60a3e46589335518,
supermarket,Toko bahan makanan,Welcome Mart + ATM,"F9XR+JCF, Seringgu Jaya, Kec. Merauke, Kabupaten Merauke, Papua 99614","Seringgu Jaya, Kec. Merauke, Kabupaten Merauke",PAPUA,99614.0,Indonesia,,,,-85.009.364,1.403.910.371,https://maps.google.com/?cid=0x0:0x7713d19ee1798363,
supermarket,Toko Swalayan,Vega Mart,"G92R+3HF, Jl. Irian Seringgu, Seringgu Jaya, Kec. Merauke, Kabupaten Merauke, Papua 99614","Jl. Irian Seringgu, Seringgu Jaya, Kec. Merauke, Kabupaten Merauke",PAPUA,99614.0,Indonesia,081240329457,,,-84.998.057,1.403.914.369,https://maps.google.com/?cid=0x0:0x2c757a4fd41e6d2e,
supermarket,Minimarket,Kios Rahayu,"HC9X+94F, Semangga Jaya, Kec. Semangga, Kabupaten Merauke, Papua 99651","Semangga Jaya, Kec. Semangga, Kabupaten Merauke",PAPUA,99651.0,Indonesia,,,,-8.431.568,140.447.791,https://maps.google.com/?cid=0x0:0x6c19695d66f21c2f,
supermarket,Toko,Toko Jaya,"G98Q+8PQ, Jl. Raya Mandala, Karang Indah, Kec. Merauke, Kabupaten Merauke, Papua 99614","Jl. Raya Mandala, Karang Indah, Kec. Merauke, Kabupaten Merauke",PAPUA,99614.0,Indonesia,0971321189,,,-84.841.573,1.403.893.704,https://maps.google.com/?cid=0x0:0x84eb9d7919c9cfab,
supermarket,Toko Swalayan,UD siska jaya,"HC8W+493, Semangga Jaya, Kec. Semangga, Kabupaten Merauke, Papua 99651","Semangga Jaya, Kec. Semangga, Kabupaten Merauke",PAPUA,99651.0,Indonesia,,,,-84.347.342,140.445.933,https://maps.google.com/?cid=0x0:0xf8ed3b1b4bc81aa0,
supermarket,Toko Swalayan,Toko Kharisma,"Jl. Prajurit 1, Mandala, Kec. Merauke, Kabupaten Merauke, Papua 99614","Mandala, Kec. Merauke, Kabupaten Merauke",PAPUA,99614.0,Indonesia,0971322128,,,-84.947.646,1.404.002.265,https://maps.google.com/?cid=0x0:0x8ed0d579d816b31a,
supermarket,Toko Swalayan,Toko Mitra Kita Swalayan Merauke,"Jl. Raya Mandala, Karang Indah, Kec. Merauke, Kabupaten Merauke, Papua","Kabupaten Merauke, Papua",PAPUA,,Indonesia,081248462491,,,-8.488.205,1.403.903.624,https://maps.google.com/?cid=0x0:0x51de7e037854071a,
supermarket,Toko bahan makanan,Kios Felia,"Semangga Jaya, Kec. Semangga, Kabupaten Merauke, Papua 99651","Kec. Semangga, Kabupaten Merauke",PAPUA,99651.0,Indonesia,,,,-84.328.326,1.404.469.638,https://maps.google.com/?cid=0x0:0x1cbc5acac9378999,
supermarket,Toko bahan makanan,Toko Simon Dan Simon,"Jl. Raya Mandala No.92, Maro, Kec. Merauke, Kabupaten Merauke, Papua 99614","Maro, Kec. Merauke, Kabupaten Merauke",PAPUA,99614.0,Indonesia,085254361993,,,-84.916.963,1.403.923.557,https://maps.google.com/?cid=0x0:0xd66f47f08a2065fc,
supermarket,Kios,Kios Nisa,"HF32+V27, Semangga Jaya, Kec. Semangga, Kabupaten Merauke, Papua 99613","Semangga Jaya, Kec. Semangga, Kabupaten Merauke",PAPUA,99613.0,Indonesia,,,,-84.453.286,1.404.500.415,https://maps.google.com/?cid=0x0:0x960b14f2b9c7ef9e,
supermarket,Toko,Toko Trio,"G93W+23R, Mandala, Kec. Merauke, Kabupaten Merauke, Papua 99614","Mandala, Kec. Merauke, Kabupaten Merauke",PAPUA,99614.0,Indonesia,,,,-8.497.382,1.403.951.411,https://maps.google.com/?cid=0x0:0xa9a9a5d5bbb60132,
supermarket,Pasar,Toko Dua,"G98Q+6QG, Jl. Raya Mandala, Karang Indah, Kec. Merauke, Kabupaten Merauke, Papua 99614","Jl. Raya Mandala, Karang Indah, Kec. Merauke, Kabupaten Merauke",PAPUA,99614.0,Indonesia,08567845008,,,-8.484.443,1.403.894.598,https://maps.google.com/?cid=0x0:0x6f24c144a2903a73,
supermarket,Toko bahan makanan,TOKO MARTABE,"FCW7+HPQ, Klp. Lima, Kec. Merauke, Kabupaten Merauke, Papua 99615","Klp. Lima, Kec. Merauke, Kabupaten Merauke",PAPUA,99615.0,Indonesia,,,,-85.035.364,1.404.143.507,https://maps.google.com/?cid=0x0:0xa2378160c8a59d7a,
supermarket,Toko Bahan Bangunan,PT. Sumber Mas Bangunan,"Jl. Aru No.16, Maro, Kec. Merauke, Kabupaten Merauke, Papua 99616","Maro, Kec. Merauke, Kabupaten Merauke",PAPUA,99616.0,Indonesia,082239284010,,,-84.925.887,1.403.939.528,https://maps.google.com/?cid=0x0:0xf04300b77932dbd6,
supermarket,Toko,AGEN BRILINK KIOS NAJWA,"GCJQ+M2J, Jl. Protokol Kuprik, Kuprik, Kec. Semangga, Kabupaten Merauke, Papua 99613","Jl. Protokol Kuprik, Kuprik, Kec. Semangga, Kabupaten Merauke",PAPUA,99613.0,Indonesia,,,,-84.682.767,1.404.375.025,https://maps.google.com/?cid=0x0:0x778e61ae22e52f13,
supermarket,Kios,Kios Firmansyah,"GCQG+3HF, Unnamed Road, Sidomulyo, Sidomulyo, Kec. Semangga, Kabupaten Merauke, Papua 99613","Unnamed Road, Sidomulyo, Sidomulyo, Kec. Semangga, Kabupaten Merauke",PAPUA,99613.0,Indonesia,,,,-84.623.049,1.404.264.361,https://maps.google.com/?cid=0x0:0x2a3f7ef73b92a26f,
supermarket,Pusat Perbelanjaan,Kios Adam,"J9R8+33J, Muram Sari, Kec. Semangga, Kabupaten Merauke, Papua 99651","Muram Sari, Kec. Semangga, Kabupaten Merauke",PAPUA,99651.0,Indonesia,085344156876,,,-83.597.931,140.365.131,https://maps.google.com/?cid=0x0:0xe82b1119f2179fd0,
supermarket,Pembangunan Perumahan,Semangga 1,"GC24+82V, Klp. Lima, Kec. Merauke, Kabupaten Merauke, Papua","Kabupaten Merauke, Papua",PAPUA,,Indonesia,,,,-849.914,1.404.050.535,https://maps.google.com/?cid=0x0:0x6f702eaab204f908,
supermarket,supermarket,Tanah Miring,"Kabupaten Merauke, Papua","Kabupaten Merauke, Papua",PAPUA,,Indonesia,,,,-83.393.441,1.404.913.089,https://maps.google.com/?cid=0x0:0x73f37e72bdda6722,
supermarket,Toko,Kios Al,"JGW7+Q3P, Waninggap Say, Tanah Miring, Kabupaten Merauke, Papua 99651","Waninggap Say, Tanah Miring, Kabupaten Merauke",PAPUA,99651.0,Indonesia,082198034928,,,-83.530.462,1.405.127.125,https://maps.google.com/?cid=0x0:0xc2adbfe578fc0d22,
supermarket,Toko Perlengkapan Rumah,Toko Usaha Tani,"MFP7+J3V, Isanombias, Tanah Miring, Kabupaten Merauke, Papua 99651","Isanombias, Tanah Miring, Kabupaten Merauke",PAPUA,99651.0,Indonesia,081240453954,,,-83.133.939,1.404.626.716,https://maps.google.com/?cid=0x0:0xa8633e2f50a3aab,
supermarket,Toko Swalayan,"AyuMas-Mart""""","JGF3+85Q, Jl. Poros SP2, Yasa Mulya, Tanah Miring, Kabupaten Merauke, Papua 99612","Jl. Poros SP2, Yasa Mulya, Tanah Miring, Kabupaten Merauke",PAPUA,99612.0,Indonesia,082334972087,,,-83.766.626,1.405.029.746,https://maps.google.com/?cid=0x0:0x252d977d4970829a,
supermarket,Pusat Perbelanjaan,Toko Nusantara,"Amunkai, Tanah Miring, Kabupaten Merauke, Papua 99651","Tanah Miring, Kabupaten Merauke",PAPUA,99651.0,Indonesia,,,,-83.215.232,1.405.043.222,https://maps.google.com/?cid=0x0:0xf4f3343e1205d74e,
supermarket,Toko Perlengkapan Rumah,kios berkah,"PM5V+6MP, Ngguti Bob, Tanah Miring, Kabupaten Merauke, Papua 99651","Ngguti Bob, Tanah Miring, Kabupaten Merauke",PAPUA,99651.0,Indonesia,081298986981,,,-82.919.202,1.406.942.107,https://maps.google.com/?cid=0x0:0xbc1d73d88a9e6a42,
supermarket,Toko Elektronik,Toko Central Sumber Rejeki,"PF59+4HQ, Yaba Maru, Tanah Miring, Kabupaten Merauke, Papua 99651","Yaba Maru, Tanah Miring, Kabupaten Merauke",PAPUA,99651.0,Indonesia,,,,-82.921.574,1.404.689.959,https://maps.google.com/?cid=0x0:0x317162df7c9c0d47,
supermarket,Toko Swalayan,kios aurens,"MFP5+8HC, Unnamed Road, Isanombias, Tanah Miring, Kabupaten Merauke, Papua 99651","Unnamed Road, Isanombias, Tanah Miring, Kabupaten Merauke",PAPUA,99651.0,Indonesia,082398428188,,,-83.141.904,1.404.588.871,https://maps.google.com/?cid=0x0:0xae52fe2b064b3982,
supermarket,Toko bahan makanan,Mini Market Pavita,"JG88+994, Yasa Mulya, Tanah Miring, Kabupaten Merauke, Papua 99612","Yasa Mulya, Tanah Miring, Kabupaten Merauke",PAPUA,99612.0,Indonesia,,,,-83.841.166,1.405.159.624,https://maps.google.com/?cid=0x0:0xea2690ff3fd5a6ba,
supermarket,Toko Swalayan,KIOS MANDIRI,"MGH3+7W8, Amunkai, Tanah Miring, Kabupaten Merauke, Papua 99651","Amunkai, Tanah Miring, Kabupaten Merauke",PAPUA,99651.0,Indonesia,081344185600,,,-83.218.369,1.405.048.404,https://maps.google.com/?cid=0x0:0x29d6bb7829533828,
supermarket,Toko,Cutebearolshopmerauke,"MF6R+76W, Waninggap Miraf, Tanah Miring, Kabupaten Merauke, Papua 99651","Waninggap Miraf, Tanah Miring, Kabupaten Merauke",PAPUA,99651.0,Indonesia,082399389252,,,-8.339.273,1.404.905.808,https://maps.google.com/?cid=0x0:0xedc68bf99badd0b8,
supermarket,Toko Swalayan,kios Lina Jaya,"PM4V+PXH, Ngguti Bob, Tanah Miring, Kabupaten Merauke, Papua 99651","Ngguti Bob, Tanah Miring, Kabupaten Merauke",PAPUA,99651.0,Indonesia,,,,-82.926.333,1.406.964.733,https://maps.google.com/?cid=0x0:0x7d56a377b7367cbe,
supermarket,supermarket,Kec. Jagebob,"Kabupaten Merauke, Papua","Kabupaten Merauke, Papua",PAPUA,,Indonesia,,,,-79.103.659,1.407.624.493,https://maps.google.com/?cid=0x0:0x80144929da721d4c,
supermarket,Toko Perlengkapan Rumah,AMANAH MART,"WQCM+X6X, Angger Parmegi, Kec. Jagebob, Kabupaten Merauke, Papua 99656","Angger Parmegi, Kec. Jagebob, Kabupaten Merauke",PAPUA,99656.0,Indonesia,085244504857,,,-80.775.172,1.407.830.954,https://maps.google.com/?cid=0x0:0x200f50858ea307b5,
supermarket,Kios,Kios Kencana Jaya,"Unnamed Road, Gurinda Jaya, Kec. Jagebob, Kabupaten Merauke, Papua 99651","Gurinda Jaya, Kec. Jagebob, Kabupaten Merauke",PAPUA,99651.0,Indonesia,085244456719,,,-8.193.621,14.076.834,https://maps.google.com/?cid=0x0:0xbfbe2e2c1dc374c7,
supermarket,Pusat Perbelanjaan,Kios Pak De Hasan,"RR42+G24, Kamno Sari, Kec. Jagebob, Kabupaten Merauke, Papua 99656","Kamno Sari, Kec. Jagebob, Kabupaten Merauke",PAPUA,99656.0,Indonesia,,,,-81.937.458,1.408.000.713,https://maps.google.com/?cid=0x0:0x4018a2a9b39905af,
supermarket,Kios,Kios Sumber Hidup,"XMMQ+9WR, Makarti Jaya, Kec. Jagebob, Kabupaten Merauke, Papua","Kabupaten Merauke, Papua",PAPUA,,Indonesia,,,,-80.165.159,1.406.897.541,https://maps.google.com/?cid=0x0:0x6101094493b1b24,
supermarket,Kios,UD Baais Era Jaya,"RQ3X+VV2 UD Baais Era, JayaKamnosari, Kec. Jagebob, Kabupaten Merauke, Papua 99656","JayaKamnosari, Kec. Jagebob, Kabupaten Merauke",PAPUA,99656.0,Indonesia,,,,-81.953.719,1.407.996.256,https://maps.google.com/?cid=0x0:0xe4d647d6b2d730c8,
supermarket,supermarket,,,,PAPUA,,Indonesia,,,,,,https://maps.google.com/?cid=0x0:0x98a63e99d2746457,
supermarket,supermarket,Papua 99656,"Kabupaten Merauke, Papua","Kabupaten Merauke, Papua",PAPUA,,Indonesia,,,,-77.517.288,1.405.964.124,https://maps.google.com/?cid=0x0:0xb3a6fd7c10c7fd8b,
supermarket,Toko bahan makanan,"Orange Supermarket, Merauke","G95R+XP7, Jl. Raya Mandala, Maro, Kec. Merauke, Kabupaten Merauke, Papua 99614","Jl. Raya Mandala, Maro, Kec. Merauke, Kabupaten Merauke",PAPUA,99614.0,Indonesia,,,,-84.900.962,1.403.917.897,https://maps.google.com/?cid=0x0:0xc0bfdbcaf1e7ef4c,
supermarket,Toko bahan makanan,Toko Simon Dan Simon,"Jl. Raya Mandala No.92, Maro, Kec. Merauke, Kabupaten Merauke, Papua 99614","Maro, Kec. Merauke, Kabupaten Merauke",PAPUA,99614.0,Indonesia,085254361993,,,-84.916.963,1.403.923.557,https://maps.google.com/?cid=0x0:0xd66f47f08a2065fc,
supermarket,Toko bahan makanan,Golden Swalayan (GS),"F9VX+RRP, Jl. Raya Mandala, Mandala, Kec. Merauke, Kabupaten Merauke, Papua 99615","Jl. Raya Mandala, Mandala, Kec. Merauke, Kabupaten Merauke",PAPUA,99615.0,Indonesia,,,,-85.054.009,1.403.995.908,https://maps.google.com/?cid=0x0:0x2efaacdf9e86d9c2,
supermarket,Toko,Kios Gresik Indah,"P67G+5VJ, Padang Raharja, Distrik Malind, Kabupaten Merauke, Papua 99656","Padang Raharja, Distrik Malind, Kabupaten Merauke",PAPUA,99656.0,Indonesia,082199088100,,,-8.287.045,140.227.135,https://maps.google.com/?cid=0x0:0x5bb1eda52770cce6,
supermarket,Kios,Kios Anugrah,"P5XX+CCM, Unnamed Road, Suka Maju, Distrik Malind, Kabupaten Merauke, Papua 99656","Unnamed Road, Suka Maju, Distrik Malind, Kabupaten Merauke",PAPUA,99656.0,Indonesia,,,,-82.514.215,1.401.985.338,https://maps.google.com/?cid=0x0:0x2c47ecd3ca48c365,
supermarket,Pos Perbatasan Negara,Pos Lintas Batas Negara (PLBN) Sota,"Jl. Trans Papua, Sota, Kec. Sota, Kabupaten Merauke, Papua 99656","Sota, Kec. Sota, Kabupaten Merauke",PAPUA,99656.0,Indonesia,,,,-84.284.299,1.410.180.992,https://maps.google.com/?cid=0x0:0x1271bce99a62c275,
supermarket,Kios,Kios Kencana Jaya,"Unnamed Road, Gurinda Jaya, Kec. Jagebob, Kabupaten Merauke, Papua 99651","Gurinda Jaya, Kec. Jagebob, Kabupaten Merauke",PAPUA,99651.0,Indonesia,085244456719,,,-8.193.621,14.076.834,https://maps.google.com/?cid=0x0:0xbfbe2e2c1dc374c7,
supermarket,Toko umum,KIOS SABILA,"P7V5+7C3, Unnamed Road, Jaya Makmur, Kec. Kurik, Kabupaten Merauke, Papua 99656","Unnamed Road, Jaya Makmur, Kec. Kurik, Kabupaten Merauke",PAPUA,99656.0,Indonesia,08124808287,,,-82.568.629,1.402.585.332,https://maps.google.com/?cid=0x0:0x81e6786d6276998e,
supermarket,Pasar Makanan Segar,Pasar Kurik,"P744+H2P, Kurik, Kec. Kurik, Kabupaten Merauke, Papua 99651","Kurik, Kec. Kurik, Kabupaten Merauke",PAPUA,99651.0,Indonesia,,,,-82.935.455,1.402.550.659,https://maps.google.com/?cid=0x0:0xafcfd1eb08841e0d,
supermarket,Toko Swalayan,Toko Mitra Kita Swalayan Merauke,"Jl. Raya Mandala, Karang Indah, Kec. Merauke, Kabupaten Merauke, Papua","Kabupaten Merauke, Papua",PAPUA,,Indonesia,081248462491,,,-8.488.205,1.403.903.624,https://maps.google.com/?cid=0x0:0x51de7e037854071a,
supermarket,Kedai Kopi,New Rahmat Minimarket  Coffee Shop,"Jl. Ermasu,Maro,Kec. Merauke,Kabupaten Merauke,Papua 99614, Maro, Kec. Merauke, Kabupaten Merauke, Papua 99616","Maro, Kec. Merauke, Kabupaten Merauke",PAPUA,99616.0,Indonesia,09713330832,,,-8.487.468,140.394.294,https://maps.google.com/?cid=0x0:0x60a3e46589335518,
supermarket,Toko bahan makanan,Kios Sofyan,"P62V+W4C, Unnamed Road, Rawasari, Distrik Malind, Kabupaten Merauke, Papua 99651","Unnamed Road, Rawasari, Distrik Malind, Kabupaten Merauke",PAPUA,99651.0,Indonesia,,,,-82.976.862,1.402.427.589,https://maps.google.com/?cid=0x0:0x745397c7bc76181a,
supermarket,Taman Peringatan,Tugu 0 KM Merauke - Sabang,"H2C8+V99, Jl. Poros, Sota, Kec. Sota, Kabupaten Merauke, Papua","Kabupaten Merauke, Papua",PAPUA,,Indonesia,,,,-84.278.252,1.410.159.802,https://maps.google.com/?cid=0x0:0xa6a48bfbe1ff4bdd,
supermarket,Minimarket,Kios Nita,"P77J+7GR, Unnamed Road, Candrajaya, Kec. Kurik, Kabupaten Merauke, Papua 99651","Unnamed Road, Candrajaya, Kec. Kurik, Kabupaten Merauke",PAPUA,99651.0,Indonesia,,,,-82.867.538,1.402.812.625,https://maps.google.com/?cid=0x0:0x12f276e2613deac5,
supermarket,Pasar,Toko Dua,"G98Q+6QG, Jl. Raya Mandala, Karang Indah, Kec. Merauke, Kabupaten Merauke, Papua 99614","Jl. Raya Mandala, Karang Indah, Kec. Merauke, Kabupaten Merauke",PAPUA,99614.0,Indonesia,08567845008,,,-8.484.443,1.403.894.598,https://maps.google.com/?cid=0x0:0x6f24c144a2903a73,
supermarket,Toko,KIOS BERKAH,"P63X+968, Rawasari, Distrik Malind, Kabupaten Merauke, Papua 99651","Rawasari, Distrik Malind, Kabupaten Merauke",PAPUA,99651.0,Indonesia,082399674962,,,-82.965.998,1.402.480.802,https://maps.google.com/?cid=0x0:0x1d6f584011b4a34a,
supermarket,Toko Bahan Bangunan,PT. Sumber Mas Bangunan,"Jl. Aru No.16, Maro, Kec. Merauke, Kabupaten Merauke, Papua 99616","Maro, Kec. Merauke, Kabupaten Merauke",PAPUA,99616.0,Indonesia,082239284010,,,-84.925.887,1.403.939.528,https://maps.google.com/?cid=0x0:0xf04300b77932dbd6,
supermarket,Toko bahan makanan,Kios Nila rejeki,"P8J6+7J2, Harapan Makmur, Kec. Kurik, Kabupaten Merauke, Papua 99651","Harapan Makmur, Kec. Kurik, Kabupaten Merauke",PAPUA,99651.0,Indonesia,081234777917,,,-82.693.618,1.403.115.145,https://maps.google.com/?cid=0x0:0x645c84b9a1e77bfa,
supermarket,Toko bahan makanan,Welcome Mart + ATM,"F9XR+JCF, Seringgu Jaya, Kec. Merauke, Kabupaten Merauke, Papua 99614","Seringgu Jaya, Kec. Merauke, Kabupaten Merauke",PAPUA,99614.0,Indonesia,,,,-85.009.364,1.403.910.371,https://maps.google.com/?cid=0x0:0x7713d19ee1798363,
supermarket,supermarket,Kios azzahra,"Rawasari, Distrik Malind, Kabupaten Merauke, Papua","Kabupaten Merauke, Papua",PAPUA,,Indonesia,,,,-83.040.485,1.402.407.544,https://maps.google.com/?cid=0x0:0x3c29929dceaffcb1,
supermarket,Pusat Perbelanjaan,Daily Supermarket Puri Mansion,"Ruko Puri Mansion Blok C 2, RT.2/RW.1, Kembangan Sel., Kec. Kembangan, Kota Jakarta Barat, Daerah Khusus Ibukota Jakarta 11610","RT.2/RW.1, Kembangan Sel., Kec. Kembangan, Kota Jakarta Barat",PAPUA,11610.0,Indonesia,081944117272,,,-61.782.717,106.727.934,https://maps.google.com/?cid=0x0:0xb5555bd3bf987072,
supermarket,Pemasok Bahan Bangunan,Supermarket Bangunan Abadi ( Bangunan Abadi ) Meruya,"Jl. Meruya Ilir Raya No.13 3, RT.3/RW.2, Meruya Utara, Kec. Kembangan, Kota Jakarta Barat, Daerah Khusus Ibukota Jakarta 11610","RT.3/RW.2, Meruya Utara, Kec. Kembangan, Kota Jakarta Barat",PAPUA,11610.0,Indonesia,0215856801,,,-61.976.477,1.067.425.118,https://maps.google.com/?cid=0x0:0x13872e6ebcfc2cac,
supermarket,Toko bahan makanan,SBA (Supermarket Bangunan Abadi),"Jl. Pd. Kacang No.88B, Pd. Kacang Bar., Kec. Pd. Aren, Kota Tangerang Selatan, Banten 15226","Pd. Kacang Bar., Kec. Pd. Aren, Kota Tangerang Selatan",PAPUA,15226.0,Indonesia,02173460185,,,-6.254.577,106.688.324,https://maps.google.com/?cid=0x0:0x370ec3ee4dda53b,
supermarket,Toko Swalayan,GS Supermarket Jatiasih,"GsSupermarket :, Jl. Wibawa Mukti II No.125, RT.002/ RW017/RW.017, Jatiasih, Kec. Jatiasih, Kota Bks, Jawa Barat 17423","Jl. Wibawa Mukti II No.125, RT.002/ RW017/RW.017, Jatiasih, Kec. Jatiasih, Kota Bks",PAPUA,17423.0,Indonesia,02182736918,,,-63.070.579,106.955.731,https://maps.google.com/?cid=0x0:0x74efd6ce433268e6,
supermarket,Toko Swalayan,GS The Fresh Supermarket Kemang Pratama,"Linc Square Kemang Pratama, Jl. Kemang Pratama Raya, RT.004/RW.001, Bojong Rawalumbu, Kec. Rawalumbu, Kota Bks, Jawa Barat 17116","Jl. Kemang Pratama Raya, RT.004/RW.001, Bojong Rawalumbu, Kec. Rawalumbu, Kota Bks",PAPUA,17116.0,Indonesia,02182416910,,,-62.779.418,1.069.910.558,https://maps.google.com/?cid=0x0:0x4ce692f4b9ef21ee,
supermarket,supermarket,Papua 99652,"Kabupaten Merauke, Papua","Kabupaten Merauke, Papua",PAPUA,,Indonesia,,,,-72.555.304,1.405.135.589,https://maps.google.com/?cid=0x0:0x5b3476afcfb7acee,
supermarket,Toko Swalayan,Kios muriani jaya hj. Ali,"jaya jlr 5, RT.04/RW.02, Sigabel, Kec. Muting, Kabupaten Merauke, Papua 99625","RT.04/RW.02, Sigabel, Kec. Muting, Kabupaten Merauke",PAPUA,99625.0,Indonesia,081315497776,,,-73.801.935,1.405.823.497,https://maps.google.com/?cid=0x0:0xe498fd529b6e056a,
supermarket,Pusat Perbelanjaan,Kios Sederhana,"Mandekman, Kec. Ulilin, Kabupaten Merauke, Papua 99635","Kec. Ulilin, Kabupaten Merauke",PAPUA,99635.0,Indonesia,081369867559,,,-72.651.835,1.407.436.369,https://maps.google.com/?cid=0x0:0xca4656b6c69476c4,
supermarket,Toko Swalayan,Toko Kelontongan Mas Yani,"GFGH+QPF, Wan Wai Bob, Kec. Muting, Kabupaten Merauke, Papua 99652","Wan Wai Bob, Kec. Muting, Kabupaten Merauke",PAPUA,99652.0,Indonesia,082112309774,,,-7.473.067,1.404.793.012,https://maps.google.com/?cid=0x0:0x167a6549bba9fd50,
supermarket,Toko umum,Prindapan store,"JH9J+RGH, Sigabel, Kec. Muting, Kabupaten Merauke, Papua 99652","Sigabel, Kec. Muting, Kabupaten Merauke",PAPUA,99652.0,Indonesia,,,,-73.794.394,1.405.805.268,https://maps.google.com/?cid=0x0:0x328606af72fe6b7f,
supermarket,Toko umum,UD talo-talo,"Kampung elnggol jaya alfasera 3, Kec. Muting, Kabupaten Merauke, Papua 99616","Kec. Muting, Kabupaten Merauke",PAPUA,99616.0,Indonesia,081248632245,,,-74.093.721,1.405.491.632,https://maps.google.com/?cid=0x0:0x55ae1cfcb1cd354c,
supermarket,Toko Kelontong Asia,Kios ibu boimin,"JHCF+J7X, Sigabel, Kec. Muting, Kabupaten Merauke, Papua 99652","Sigabel, Kec. Muting, Kabupaten Merauke",PAPUA,99652.0,Indonesia,,,,-73.783.843,1.405.732.347,https://maps.google.com/?cid=0x0:0x24c25ba654b0bd0b,
supermarket,Toko umum,TOKO NIA SEJATI,"MMG7+XQ9, Muting, Kec. Muting, Kabupaten Merauke, Papua 99652","Muting, Kec. Muting, Kabupaten Merauke",PAPUA,99652.0,Indonesia,,,,-73.225.872,1.406.644.717,https://maps.google.com/?cid=0x0:0xbf68dd253f80ee7,
supermarket,supermarket,Kios lavender,"MMP6+X4, Muting, Kec. Muting, Kabupaten Merauke, Papua","Kabupaten Merauke, Papua",PAPUA,,Indonesia,,,,-7.312.607,140.660.266,https://maps.google.com/?cid=0x0:0x1d495f51a33e74f4,
supermarket,Toko Swalayan,Kios Al-Barokah,"JH8H+XJ, Sigabel, Kec. Muting, Kabupaten Merauke, Papua","Kabupaten Merauke, Papua",PAPUA,,Indonesia,,,,-73.818.782,1.405.791.647,https://maps.google.com/?cid=0x0:0x5663e861f1d8a6ed,
supermarket,Toko,KIOS CAHAYA WAJO,"Unnamed Road, Bumun, Kec. Eligobel, Kabupaten Merauke, Papua 99652","Bumun, Kec. Eligobel, Kabupaten Merauke",PAPUA,99652.0,Indonesia,,,,-73.671.077,140.760.765,https://maps.google.com/?cid=0x0:0x1a8ae06c94a18b36,
supermarket,Toko bahan makanan,"Orange Supermarket, Merauke","G95R+XP7, Jl. Raya Mandala, Maro, Kec. Merauke, Kabupaten Merauke, Papua 99614","Jl. Raya Mandala, Maro, Kec. Merauke, Kabupaten Merauke",PAPUA,99614.0,Indonesia,,,,-84.900.962,1.403.917.897,https://maps.google.com/?cid=0x0:0xc0bfdbcaf1e7ef4c,
supermarket,Kios,Kios abah jupri,"Jln poros No.1, Bupul, Kec. Eligobel, Kabupaten Merauke, Papua","Kabupaten Merauke, Papua",PAPUA,,Indonesia,,,,-74.850.649,1.407.869.558,https://maps.google.com/?cid=0x0:0x5862722a800d873,
supermarket,Kios,Kios abah jupri,"GQ5R+FG, Sipias, Kec. Eligobel, Kabupaten Merauke, Papua","Kabupaten Merauke, Papua",PAPUA,,Indonesia,,,,-74.913.125,1.407.913.125,https://maps.google.com/?cid=0x0:0x9dee84d501ac4cf1,
supermarket,supermarket,Kec. Ulilin,"Kabupaten Merauke, Papua","Kabupaten Merauke, Papua",PAPUA,,Indonesia,,,,-70.730.155,1.407.624.493,https://maps.google.com/?cid=0x0:0xf008cdb038622f70,
supermarket,supermarket,Kec. Kurik,"Kabupaten Merauke, Papua","Kabupaten Merauke, Papua",PAPUA,,Indonesia,,,,-82.803.301,1.402.897.098,https://maps.google.com/?cid=0x0:0x531cbfb7ee8e4c65,
supermarket,Pasar Makanan Segar,Pasar Kurik,"P744+H2P, Kurik, Kec. Kurik, Kabupaten Merauke, Papua 99651","Kurik, Kec. Kurik, Kabupaten Merauke",PAPUA,99651.0,Indonesia,,,,-82.935.455,1.402.550.659,https://maps.google.com/?cid=0x0:0xafcfd1eb08841e0d,
supermarket,Toko umum,KIOS SABILA,"P7V5+7C3, Unnamed Road, Jaya Makmur, Kec. Kurik, Kabupaten Merauke, Papua 99656","Unnamed Road, Jaya Makmur, Kec. Kurik, Kabupaten Merauke",PAPUA,99656.0,Indonesia,08124808287,,,-82.568.629,1.402.585.332,https://maps.google.com/?cid=0x0:0x81e6786d6276998e,
supermarket,Toko bahan makanan,Kios Nila rejeki,"P8J6+7J2, Harapan Makmur, Kec. Kurik, Kabupaten Merauke, Papua 99651","Harapan Makmur, Kec. Kurik, Kabupaten Merauke",PAPUA,99651.0,Indonesia,081234777917,,,-82.693.618,1.403.115.145,https://maps.google.com/?cid=0x0:0x645c84b9a1e77bfa,
supermarket,Minimarket,SEHATI MEGA AND ADARA CAKE,"P732+XW9, Kurik, Kec. Kurik, Kabupaten Merauke, Papua 99651","Kurik, Kec. Kurik, Kabupaten Merauke",PAPUA,99651.0,Indonesia,,,,-82.950.644,1.402.523.318,https://maps.google.com/?cid=0x0:0x1e2e3b921c064920,
supermarket,Toko,Kios Jaya Makmur,"Unnamed Road, Salor Indah, Kec. Kurik, Kabupaten Merauke, Papua 99651","Salor Indah, Kec. Kurik, Kabupaten Merauke",PAPUA,99651.0,Indonesia,081247632327,,,-82.159.466,1.403.668.474,https://maps.google.com/?cid=0x0:0x2f36aa0b3d25fdd5,
supermarket,Pasar,BAKSO MEKAR JAYA (PAK KENI) PASAR KURIK,"P743+CV2, Kurik, Kec. Kurik, Kabupaten Merauke, Papua","Kabupaten Merauke, Papua",PAPUA,,Indonesia,,,,-82.939.922,1.402.546.374,https://maps.google.com/?cid=0x0:0xf9d658eab8781ba6,
supermarket,Minimarket,KIOS KUNING ICFF KURIK,"P743+3Q3, Kurik, Kec. Kurik, Kabupaten Merauke, Papua","Kabupaten Merauke, Papua",PAPUA,,Indonesia,,,,-8.294.865,1.402.544.327,https://maps.google.com/?cid=0x0:0x5b83310f04fdcdc9,
supermarket,Kios,Erlangga kiosmarind,"P9M8+8Q2, Jl. Pembangunan Salor, Salor Indah, Kec. Kurik, Kabupaten Merauke, Papua 99651","Jl. Pembangunan Salor, Salor Indah, Kec. Kurik, Kabupaten Merauke",PAPUA,99651.0,Indonesia,,,,-82.667.425,1.403.668.824,https://maps.google.com/?cid=0x0:0x425bc114f7b7159e,
supermarket,Minimarket,Kios Nita,"P77J+7GR, Unnamed Road, Candrajaya, Kec. Kurik, Kabupaten Merauke, Papua 99651","Unnamed Road, Candrajaya, Kec. Kurik, Kabupaten Merauke",PAPUA,99651.0,Indonesia,,,,-82.867.538,1.402.812.625,https://maps.google.com/?cid=0x0:0x12f276e2613deac5,
supermarket,Toko umum,KIOS BIRU WALIDAEN,"P743+8M9, Kurik, Kec. Kurik, Kabupaten Merauke, Papua 99651","Kurik, Kec. Kurik, Kabupaten Merauke",PAPUA,99651.0,Indonesia,081234565516,,,-82.942.007,1.402.542.342,https://maps.google.com/?cid=0x0:0x93b00115041a9021,
supermarket,Toko Swalayan,Kios Lancar Jaya,"P8J5+GW, Harapan Makmur, Kec. Kurik, Kabupaten Merauke, Papua","Kabupaten Merauke, Papua",PAPUA,,Indonesia,,,,-82.681.517,1.403.098.616,https://maps.google.com/?cid=0x0:0xb4522339157077c2,
supermarket,Dapur Umum,Kios Rizki,"P86P+9Q, Harapan Makmur, Kec. Kurik, Kabupaten Merauke, Papua","Kabupaten Merauke, Papua",PAPUA,,Indonesia,082298621564,,,-82.890.258,1.403.369.411,https://maps.google.com/?cid=0x0:0x52607a18a7bfead3,
supermarket,Komplek perumahan,Bp. Mardi Wiyono (MMG TENDA),"Q926+8PR, Jl. Mushola, Salor Indah, Kec. Kurik, Kabupaten Merauke, Papua 99651","Jl. Mushola, Salor Indah, Kec. Kurik, Kabupaten Merauke",PAPUA,99651.0,Indonesia,,,,-82.491.051,1.403.617.428,https://maps.google.com/?cid=0x0:0x3625ee3aafd42c12,
supermarket,Minimarket,Kois AKILA,"P79J+3G, Kurik, Kec. Kurik, Kabupaten Merauke, Papua","Kabupaten Merauke, Papua",PAPUA,,Indonesia,,,,-82.822.957,1.402.813.898,https://maps.google.com/?cid=0x0:0x2d33acd4db3da3d4,
supermarket,Kios,Kios Anugrah,"P5XX+CCM, Unnamed Road, Suka Maju, Distrik Malind, Kabupaten Merauke, Papua 99656","Unnamed Road, Suka Maju, Distrik Malind, Kabupaten Merauke",PAPUA,99656.0,Indonesia,,,,-82.514.215,1.401.985.338,https://maps.google.com/?cid=0x0:0x2c47ecd3ca48c365,
supermarket,Toko bahan makanan,"Orange Supermarket, Merauke","G95R+XP7, Jl. Raya Mandala, Maro, Kec. Merauke, Kabupaten Merauke, Papua 99614","Jl. Raya Mandala, Maro, Kec. Merauke, Kabupaten Merauke",PAPUA,99614.0,Indonesia,,,,-84.900.962,1.403.917.897,https://maps.google.com/?cid=0x0:0xc0bfdbcaf1e7ef4c,
supermarket,Toko bahan makanan,KIOS MD,"Q926+FM3, Salor Indah, Kec. Kurik, Kabupaten Merauke, Papua 99651","Salor Indah, Kec. Kurik, Kabupaten Merauke",PAPUA,99651.0,Indonesia,085254467054,,,-82.488.748,1.403.616.695,https://maps.google.com/?cid=0x0:0xd6d576861bd44404,
supermarket,Toko bahan makanan,Kuri Mart,"2FPF+3WM, Maniwak, Distrik Wasior, Kabupaten Teluk Wondama, Papua Bar. 98362","Maniwak, Distrik Wasior, Kabupaten Teluk Wondama",PAPUA,98362.0,Indonesia,,,,-29.647.961,1.344.748.018,https://maps.google.com/?cid=0x0:0xb22f95ce19a212d,
supermarket,Toko umum,KIOS ESHAN SALOR,"Q924+W82, Salor Indah, Kec. Kurik, Kabupaten Merauke, Papua 99651","Salor Indah, Kec. Kurik, Kabupaten Merauke",PAPUA,99651.0,Indonesia,085244445564,,,-8.247.728,1.403.557.788,https://maps.google.com/?cid=0x0:0xeccc67c34a4c000f,
supermarket,Toko,Kios Gresik Indah,"P67G+5VJ, Padang Raharja, Distrik Malind, Kabupaten Merauke, Papua 99656","Padang Raharja, Distrik Malind, Kabupaten Merauke",PAPUA,99656.0,Indonesia,082199088100,,,-8.287.045,140.227.135,https://maps.google.com/?cid=0x0:0x5bb1eda52770cce6,
supermarket,Toko,KIOS BERKAH,"P63X+968, Rawasari, Distrik Malind, Kabupaten Merauke, Papua 99651","Rawasari, Distrik Malind, Kabupaten Merauke",PAPUA,99651.0,Indonesia,082399674962,,,-82.965.998,1.402.480.802,https://maps.google.com/?cid=0x0:0x1d6f584011b4a34a,
supermarket,Pusat Perbelanjaan,Grosir Minyak Sembako UTC,"Jl. Raya Keadilan No.8, RT.01/RW.08, Rangkapan Jaya Baru, Kec. Pancoran Mas, Kota Depok, Jawa Barat 16434","RT.01/RW.08, Rangkapan Jaya Baru, Kec. Pancoran Mas, Kota Depok",PAPUA,16434.0,Indonesia,085966318358,,,-64.131.133,1.067.925.522,https://maps.google.com/?cid=0x0:0x698a1f3185277ab5,
supermarket,,PINK MART,"Salor Indah, Kec. Kurik, Kabupaten Merauke, Papua 99646","Kec. Kurik, Kabupaten Merauke",PAPUA,99646.0,Indonesia,081343048099,,,-8.244.266,1.403.576.186,https://maps.google.com/?cid=0x0:0x4d7ab1590a60143a,
supermarket,supermarket,Papua 99616,"Kabupaten Merauke, Papua","Kabupaten Merauke, Papua",PAPUA,,Indonesia,,,,-87.602.047,1.407.624.493,https://maps.google.com/?cid=0x0:0x9815394c40e41634,
supermarket,Toko bahan makanan,Golden Swalayan (GS),"F9VX+RRP, Jl. Raya Mandala, Mandala, Kec. Merauke, Kabupaten Merauke, Papua 99615","Jl. Raya Mandala, Mandala, Kec. Merauke, Kabupaten Merauke",PAPUA,99615.0,Indonesia,,,,-85.054.009,1.403.995.908,https://maps.google.com/?cid=0x0:0x2efaacdf9e86d9c2,
supermarket,Toko Swalayan,Nailan mart,"Jl. Raya Mandala No.281, Mandala, Kec. Merauke, Kabupaten Merauke, Papua 99614","Mandala, Kec. Merauke, Kabupaten Merauke",PAPUA,99614.0,Indonesia,082238232377,,,-85.097.676,1.404.031.223,https://maps.google.com/?cid=0x0:0xb2071d1febb4be47,
supermarket,Toko Perlengkapan Rumah,Senang Hati Merauke Baru,"Mandala, Kec. Merauke, Kabupaten Merauke, Papua 99615","Kec. Merauke, Kabupaten Merauke",PAPUA,99615.0,Indonesia,,,,-85.117.574,1.404.044.195,https://maps.google.com/?cid=0x0:0x130f3f84bed339e7,
supermarket,Toko bahan makanan,"Orange Supermarket, Merauke","G95R+XP7, Jl. Raya Mandala, Maro, Kec. Merauke, Kabupaten Merauke, Papua 99614","Jl. Raya Mandala, Maro, Kec. Merauke, Kabupaten Merauke",PAPUA,99614.0,Indonesia,,,,-84.900.962,1.403.917.897,https://maps.google.com/?cid=0x0:0xc0bfdbcaf1e7ef4c,
supermarket,Minimarket,Toko MITRA UTAMA,"Jl. Poros, Kuprik, Kec. Semangga, Kabupaten Merauke, Papua 99613","Kuprik, Kec. Semangga, Kabupaten Merauke",PAPUA,99613.0,Indonesia,081354111168,,,-84.685.004,1.404.328.366,https://maps.google.com/?cid=0x0:0xaee80127ddd97b4c,
supermarket,Pusat Perbelanjaan,BUNDA MART,"Jl. Gak, Bambu Pemali, Kec. Merauke, Kabupaten Merauke, Papua 99614","Bambu Pemali, Kec. Merauke, Kabupaten Merauke",PAPUA,99614.0,Indonesia,0812548697556,,,-850.456,140.393.003,https://maps.google.com/?cid=0x0:0xcd35ee37f85d7086,
supermarket,Toko bahan makanan,Welcome Mart + ATM,"F9XR+JCF, Seringgu Jaya, Kec. Merauke, Kabupaten Merauke, Papua 99614","Seringgu Jaya, Kec. Merauke, Kabupaten Merauke",PAPUA,99614.0,Indonesia,,,,-85.009.364,1.403.910.371,https://maps.google.com/?cid=0x0:0x7713d19ee1798363,
supermarket,Toko Swalayan,Vega Mart,"G92R+3HF, Jl. Irian Seringgu, Seringgu Jaya, Kec. Merauke, Kabupaten Merauke, Papua 99614","Jl. Irian Seringgu, Seringgu Jaya, Kec. Merauke, Kabupaten Merauke",PAPUA,99614.0,Indonesia,081240329457,,,-84.998.057,1.403.914.369,https://maps.google.com/?cid=0x0:0x2c757a4fd41e6d2e,
supermarket,Kedai Kopi,New Rahmat Minimarket  Coffee Shop,"Jl. Ermasu,Maro,Kec. Merauke,Kabupaten Merauke,Papua 99614, Maro, Kec. Merauke, Kabupaten Merauke, Papua 99616","Maro, Kec. Merauke, Kabupaten Merauke",PAPUA,99616.0,Indonesia,09713330832,,,-8.487.468,140.394.294,https://maps.google.com/?cid=0x0:0x60a3e46589335518,
supermarket,Toko Alat Tulis,TOKO CAHAYA INTAN STATIONERY  PERCETAKAN,"FCV4+J2H, Mandala, Kec. Merauke, Kabupaten Merauke, Papua 99615","Mandala, Kec. Merauke, Kabupaten Merauke",PAPUA,99615.0,Indonesia,08114979889,,,-85.059.293,140.405.124,https://maps.google.com/?cid=0x0:0x5defaff4b03ed649,
supermarket,Toko,Kios 4A,"HC4R+69M, Unnamed Road, Semangga Jaya, Kec. Semangga, Kabupaten Merauke, Papua 99613","Unnamed Road, Semangga Jaya, Kec. Semangga, Kabupaten Merauke",PAPUA,99613.0,Indonesia,081248403829,,,-84.444.138,140.440.928,https://maps.google.com/?cid=0x0:0xbe0c03973025caf5,
supermarket,Toko bahan makanan,TOKO MARTABE,"FCW7+HPQ, Klp. Lima, Kec. Merauke, Kabupaten Merauke, Papua 99615","Klp. Lima, Kec. Merauke, Kabupaten Merauke",PAPUA,99615.0,Indonesia,,,,-85.035.364,1.404.143.507,https://maps.google.com/?cid=0x0:0xa2378160c8a59d7a,
supermarket,Toko Swalayan,kios fira,"F9MQ+G32, Samkai, Kec. Merauke, Kabupaten Merauke, Papua 99614","Samkai, Kec. Merauke, Kabupaten Merauke",PAPUA,99614.0,Indonesia,,,,-85.162.454,1.403.876.443,https://maps.google.com/?cid=0x0:0xb831a68e196d440d,
supermarket,Toko Swalayan,Golden Mart,"FCVG+QR4, Unnamed Road, Kelapa Lima, Merauke, Merauke Regency, Papua 99615","Unnamed Road, Kelapa Lima, Merauke, Merauke Regency",PAPUA,99615.0,Indonesia,,,,-8.505.613,1.404.270.869,https://maps.google.com/?cid=0x0:0x217fb5c1af33d42b,
supermarket,Toko,Toko Trio,"G93W+23R, Mandala, Kec. Merauke, Kabupaten Merauke, Papua 99614","Mandala, Kec. Merauke, Kabupaten Merauke",PAPUA,99614.0,Indonesia,,,,-8.497.382,1.403.951.411,https://maps.google.com/?cid=0x0:0xa9a9a5d5bbb60132,
supermarket,Kios,Kios Yuki,"Jl Onggatmit, RT/RW : 12/03, Bambu Pemali, Kec. Merauke, Kabupaten Merauke, Papua 99616","RT/RW : 12/03, Bambu Pemali, Kec. Merauke, Kabupaten Merauke",PAPUA,99616.0,Indonesia,085343261243,,,-85.094.569,1.403.985.253,https://maps.google.com/?cid=0x0:0xe5ce5c74ae2c6fbb,
supermarket,Kios,Kios indah,"FF9C+JMX, Wasur, Kec. Merauke, Kabupaten Merauke, Papua 99616","Wasur, Kec. Merauke, Kabupaten Merauke",PAPUA,99616.0,Indonesia,,,,-85.308.948,1.404.717.233,https://maps.google.com/?cid=0x0:0x453292c926e1fc01,
supermarket,Toko Swalayan,Toko Kharisma,"Jl. Prajurit 1, Mandala, Kec. Merauke, Kabupaten Merauke, Papua 99614","Mandala, Kec. Merauke, Kabupaten Merauke",PAPUA,99614.0,Indonesia,0971322128,,,-84.947.646,1.404.002.265,https://maps.google.com/?cid=0x0:0x8ed0d579d816b31a,
supermarket,Pusat Perbelanjaan,Kios new global,"F9XC+QR4 masjid ddi, Jl. Menara Lampu Satu, Samkai, Kec. Merauke, Kabupaten Merauke, Papua 99614","Jl. Menara Lampu Satu, Samkai, Kec. Merauke, Kabupaten Merauke",PAPUA,99614.0,Indonesia,,,,-85.006.027,1.403.720.863,https://maps.google.com/?cid=0x0:0xa56841ec64104ad7,
supermarket,Toko Swalayan,Toko Mitra Kita Swalayan Merauke,"Jl. Raya Mandala, Karang Indah, Kec. Merauke, Kabupaten Merauke, Papua","Kabupaten Merauke, Papua",PAPUA,,Indonesia,081248462491,,,-8.488.205,1.403.903.624,https://maps.google.com/?cid=0x0:0x51de7e037854071a,
supermarket,Toko Swalayan,Kios nila rejeki 2,"VFV5+WW8, Baad, Animha, Kabupaten Merauke, Papua 99651","Baad, Animha, Kabupaten Merauke",PAPUA,99651.0,Indonesia,081318387649,,,-81.039.787,140.460.192,https://maps.google.com/?cid=0x0:0x6753f3c5f6e2cc25,
supermarket,Toko bahan makanan,Kios Nila rejeki,"P8J6+7J2, Harapan Makmur, Kec. Kurik, Kabupaten Merauke, Papua 99651","Harapan Makmur, Kec. Kurik, Kabupaten Merauke",PAPUA,99651.0,Indonesia,081234777917,,,-82.693.618,1.403.115.145,https://maps.google.com/?cid=0x0:0x645c84b9a1e77bfa,
supermarket,supermarket,Distrik Malind,"Kabupaten Merauke, Papua","Kabupaten Merauke, Papua",PAPUA,,Indonesia,,,,-83.496.082,1.402.226.315,https://maps.google.com/?cid=0x0:0x744a3e472366f49c,
supermarket,Kios,Kios Anugrah,"P5XX+CCM, Unnamed Road, Suka Maju, Distrik Malind, Kabupaten Merauke, Papua 99656","Unnamed Road, Suka Maju, Distrik Malind, Kabupaten Merauke",PAPUA,99656.0,Indonesia,,,,-82.514.215,1.401.985.338,https://maps.google.com/?cid=0x0:0x2c47ecd3ca48c365,
supermarket,Toko,Kios Gresik Indah,"P67G+5VJ, Padang Raharja, Distrik Malind, Kabupaten Merauke, Papua 99656","Padang Raharja, Distrik Malind, Kabupaten Merauke",PAPUA,99656.0,Indonesia,082199088100,,,-8.287.045,140.227.135,https://maps.google.com/?cid=0x0:0x5bb1eda52770cce6,
supermarket,Toko,KIOS BERKAH,"P63X+968, Rawasari, Distrik Malind, Kabupaten Merauke, Papua 99651","Rawasari, Distrik Malind, Kabupaten Merauke",PAPUA,99651.0,Indonesia,082399674962,,,-82.965.998,1.402.480.802,https://maps.google.com/?cid=0x0:0x1d6f584011b4a34a,
supermarket,Toko bahan makanan,Minimarket Wono Mandiri,"J6XP+XCP, Kumbe, Distrik Malind, Kabupaten Merauke, Papua 99651","Kumbe, Distrik Malind, Kabupaten Merauke",PAPUA,99651.0,Indonesia,,,,-83.500.286,1.402.360.659,https://maps.google.com/?cid=0x0:0xecf6836b6afaf1c1,
supermarket,Toko umum,KIOS SABILA,"P7V5+7C3, Unnamed Road, Jaya Makmur, Kec. Kurik, Kabupaten Merauke, Papua 99656","Unnamed Road, Jaya Makmur, Kec. Kurik, Kabupaten Merauke",PAPUA,99656.0,Indonesia,08124808287,,,-82.568.629,1.402.585.332,https://maps.google.com/?cid=0x0:0x81e6786d6276998e,
supermarket,Toko bahan makanan,Kios Sofyan,"P62V+W4C, Unnamed Road, Rawasari, Distrik Malind, Kabupaten Merauke, Papua 99651","Unnamed Road, Rawasari, Distrik Malind, Kabupaten Merauke",PAPUA,99651.0,Indonesia,,,,-82.976.862,1.402.427.589,https://maps.google.com/?cid=0x0:0x745397c7bc76181a,
supermarket,Toko umum,KIOS SAMPING SMK,"M62G+CM8, Kumbe, Distrik Malind, Kabupaten Merauke, Papua 99651","Kumbe, Distrik Malind, Kabupaten Merauke",PAPUA,99651.0,Indonesia,,,,-8.348.228,140.227.107,https://maps.google.com/?cid=0x0:0x356aa9e608389680,
supermarket,Pasar Makanan Segar,Pasar Kurik,"P744+H2P, Kurik, Kec. Kurik, Kabupaten Merauke, Papua 99651","Kurik, Kec. Kurik, Kabupaten Merauke",PAPUA,99651.0,Indonesia,,,,-82.935.455,1.402.550.659,https://maps.google.com/?cid=0x0:0xafcfd1eb08841e0d,
supermarket,Toko Swalayan,Kios mbak lis,"Q5J3+F46, Suka Maju, Distrik Malind, Kabupaten Merauke, Papua 99656","Suka Maju, Distrik Malind, Kabupaten Merauke",PAPUA,99656.0,Indonesia,,,,-82.188.428,1.401.527.609,https://maps.google.com/?cid=0x0:0x44d6f4157379061e,
supermarket,Toko bahan makanan,tempe sukamaju,"P5XX+CCM, Suka Maju, Distrik Malind, Kabupaten Merauke, Papua 99656","Suka Maju, Distrik Malind, Kabupaten Merauke",PAPUA,99656.0,Indonesia,,,,-82.523.187,1.401.977.486,https://maps.google.com/?cid=0x0:0xd28e58459573c48b,
supermarket,Toko bahan makanan,Kios Nila rejeki,"P8J6+7J2, Harapan Makmur, Kec. Kurik, Kabupaten Merauke, Papua 99651","Harapan Makmur, Kec. Kurik, Kabupaten Merauke",PAPUA,99651.0,Indonesia,081234777917,,,-82.693.618,1.403.115.145,https://maps.google.com/?cid=0x0:0x645c84b9a1e77bfa,
supermarket,Toko bahan makanan,"Orange Supermarket, Merauke","G95R+XP7, Jl. Raya Mandala, Maro, Kec. Merauke, Kabupaten Merauke, Papua 99614","Jl. Raya Mandala, Maro, Kec. Merauke, Kabupaten Merauke",PAPUA,99614.0,Indonesia,,,,-84.900.962,1.403.917.897,https://maps.google.com/?cid=0x0:0xc0bfdbcaf1e7ef4c,
supermarket,supermarket,Kios azzahra,"Rawasari, Distrik Malind, Kabupaten Merauke, Papua","Kabupaten Merauke, Papua",PAPUA,,Indonesia,,,,-83.040.485,1.402.407.544,https://maps.google.com/?cid=0x0:0x3c29929dceaffcb1,
supermarket,Toko umum,KIOS BIRU WALIDAEN,"P743+8M9, Kurik, Kec. Kurik, Kabupaten Merauke, Papua 99651","Kurik, Kec. Kurik, Kabupaten Merauke",PAPUA,99651.0,Indonesia,081234565516,,,-82.942.007,1.402.542.342,https://maps.google.com/?cid=0x0:0x93b00115041a9021,
supermarket,Toko bahan makanan,Golden Swalayan (GS),"F9VX+RRP, Jl. Raya Mandala, Mandala, Kec. Merauke, Kabupaten Merauke, Papua 99615","Jl. Raya Mandala, Mandala, Kec. Merauke, Kabupaten Merauke",PAPUA,99615.0,Indonesia,,,,-85.054.009,1.403.995.908,https://maps.google.com/?cid=0x0:0x2efaacdf9e86d9c2,
supermarket,Toko Daging,Mbak Mi Frozen food,"Q6P4+MP, Sumber Mulya, Kec. Kurik, Kabupaten Merauke, Papua","Kabupaten Merauke, Papua",PAPUA,,Indonesia,,,,-82.133.334,1.402.067.605,https://maps.google.com/?cid=0x0:0xe6722b1abfb502ec,
supermarket,Minimarket,Kios Nita,"P77J+7GR, Unnamed Road, Candrajaya, Kec. Kurik, Kabupaten Merauke, Papua 99651","Unnamed Road, Candrajaya, Kec. Kurik, Kabupaten Merauke",PAPUA,99651.0,Indonesia,,,,-82.867.538,1.402.812.625,https://maps.google.com/?cid=0x0:0x12f276e2613deac5,
supermarket,Minimarket,KIOS KUNING ICFF KURIK,"P743+3Q3, Kurik, Kec. Kurik, Kabupaten Merauke, Papua","Kabupaten Merauke, Papua",PAPUA,,Indonesia,,,,-8.294.865,1.402.544.327,https://maps.google.com/?cid=0x0:0x5b83310f04fdcdc9,
supermarket,Kompleks Apartemen,Kali Bian Sebrang. Bian kampung buepe,"WX4G+WQ8, Sanggase, Okaba, Kabupaten Merauke, Papua","Kabupaten Merauke, Papua",PAPUA,,Indonesia,,,,-80.927.139,1.399.769.575,https://maps.google.com/?cid=0x0:0xf988b53ba0135cfe,
supermarket,Pasar,BAKSO MEKAR JAYA (PAK KENI) PASAR KURIK,"P743+CV2, Kurik, Kec. Kurik, Kabupaten Merauke, Papua","Kabupaten Merauke, Papua",PAPUA,,Indonesia,,,,-82.939.922,1.402.546.374,https://maps.google.com/?cid=0x0:0xf9d658eab8781ba6,
supermarket,Toko umum,Orange Express,"FCQ4+78W, Jl. Ahmad Yani, Mandala, Kec. Merauke, Kabupaten Merauke, Papua 99615","Jl. Ahmad Yani, Mandala, Kec. Merauke, Kabupaten Merauke",PAPUA,99615.0,Indonesia,08114900666,,,-85.117.548,1.404.058.149,https://maps.google.com/?cid=0x0:0xb0ab4430b8c0db5a,
supermarket,supermarket,Tubang,"Kabupaten Merauke, Papua","Kabupaten Merauke, Papua",PAPUA,,Indonesia,,,,-77.617.804,1.394.466.005,https://maps.google.com/?cid=0x0:0xc0a2943a51458b9,
supermarket,supermarket,Best Western Lake Lucille Inn,"1300 W Lake Lucille Dr, Wasilla, AK 99654, Amerika Serikat","Wasilla, AK",PAPUA,99654.0,Indonesia,19073731776,,,615.770.009,-1.494.844.673,https://maps.google.com/?cid=0x0:0x3d770ba0805a9a34,
supermarket,supermarket,"Wasilla, Alaska 99654","Wasilla, Alaska, Amerika Serikat","Wasilla, Alaska, Amerika Serikat",PAPUA,,Indonesia,,,,615.809.026,-1.494.415.038,https://maps.google.com/?cid=0x0:0x105eb9b36955bff,
supermarket,Toserba,Mega Waena Departement Store,"Jl. Raya Waena Sentani, Waena, Kec. Heram, Kota Jayapura, Papua 99351","Waena, Kec. Heram, Kota Jayapura",PAPUA,99351.0,Indonesia,,,,-25.973.349,1.406.348.789,https://maps.google.com/?cid=0x0:0xd96e42f2c11ca1e9,
supermarket,Pusat Perbelanjaan,Mega Abepura Department Store,"Jl. Raya Abepura - Sentani No.10, Kota Baru, Kec. Abepura, Kota Jayapura, Papua 99351","Kota Baru, Kec. Abepura, Kota Jayapura",PAPUA,99351.0,Indonesia,,,,-2.611.092,1.406.662.139,https://maps.google.com/?cid=0x0:0x9667ed828f5238cc,
supermarket,Restoran,KFC Waena,"Jl. Raya Abepura - Sentani No.Kel, Kp. Waena, Kec. Heram, Kota Jayapura, Papua 99351","Kp. Waena, Kec. Heram, Kota Jayapura",PAPUA,99351.0,Indonesia,02114022,,,-25.972.915,1.406.348.464,https://maps.google.com/?cid=0x0:0x8f948d30ef674300,
supermarket,supermarket,Ngguti,"Kabupaten Merauke, Papua","Kabupaten Merauke, Papua",PAPUA,,Indonesia,,,,-75.043.722,139.609.512,https://maps.google.com/?cid=0x0:0x9d02c86a83a9645,
supermarket,Pusat Perbelanjaan,Papua Supermarket  Dept. Store,"4869+F77 Bar, Sawagumu, Kec. Sorong Utara, Kota Sorong, Papua Bar. 98416","Sawagumu, Kec. Sorong Utara, Kota Sorong",PAPUA,98416.0,Indonesia,09513160123,,,-0.888831,1.313.181.847,https://maps.google.com/?cid=0x0:0x7b5f0926a74ad213,
supermarket,Minimarket,SAGA Supermarket  Dept. Store,"Jalan A. Yani, Ruko Kuda Laut, Klademak, Kecamatan Sorong Manoi, Kota Sorong, Papua Bar. 98414","Ruko Kuda Laut, Klademak, Kecamatan Sorong Manoi, Kota Sorong",PAPUA,98414.0,Indonesia,0951322784,,,-0.8765248,1.312.576.755,https://maps.google.com/?cid=0x0:0x963043ed646a7e1e,
supermarket,supermarket,Smart Minimarket,"JP66+WCF, Banamepe, Edera, Kabupaten Mappi, Papua","Kabupaten Mappi, Papua",PAPUA,,Indonesia,,,,-73.876.836,1.397.110.495,https://maps.google.com/?cid=0x0:0x7b9d0e61f96daf74,
supermarket,supermarket,Papua 99655,"Kabupaten Merauke, Papua","Kabupaten Merauke, Papua",PAPUA,,Indonesia,,,,-78.639.441,138.558.749,https://maps.google.com/?cid=0x0:0x31579390eab1faa9,
supermarket,Toko bahan makanan,"Orange Supermarket, Merauke","G95R+XP7, Jl. Raya Mandala, Maro, Kec. Merauke, Kabupaten Merauke, Papua 99614","Jl. Raya Mandala, Maro, Kec. Merauke, Kabupaten Merauke",PAPUA,99614.0,Indonesia,,,,-84.900.962,1.403.917.897,https://maps.google.com/?cid=0x0:0xc0bfdbcaf1e7ef4c,
supermarket,Toko bahan makanan,Toko Simon Dan Simon,"Jl. Raya Mandala No.92, Maro, Kec. Merauke, Kabupaten Merauke, Papua 99614","Maro, Kec. Merauke, Kabupaten Merauke",PAPUA,99614.0,Indonesia,085254361993,,,-84.916.963,1.403.923.557,https://maps.google.com/?cid=0x0:0xd66f47f08a2065fc,
supermarket,Toko Swalayan,Kios Baru 1 Kimaam,"Jalan Gotong Royong No.RT.1, Kiworo, Kimaam, Kabupaten Merauke, Papua 99655","Kiworo, Kimaam, Kabupaten Merauke",PAPUA,99655.0,Indonesia,081344263123,,,-79.855.171,138.845.935,https://maps.google.com/?cid=0x0:0xd3467309febfeb5d,
supermarket,supermarket,Kios Baru 3 Kimaam,"2R7W+7C4, Woner, Kimaam, Kabupaten Merauke, Papua 99655","Woner, Kimaam, Kabupaten Merauke",PAPUA,99655.0,Indonesia,,,,-79.868.605,138.846.067,https://maps.google.com/?cid=0x0:0x9debdc3e656ec85a,
supermarket,Toko bahan makanan,"Orange Supermarket, Merauke","G95R+XP7, Jl. Raya Mandala, Maro, Kec. Merauke, Kabupaten Merauke, Papua 99614","Jl. Raya Mandala, Maro, Kec. Merauke, Kabupaten Merauke",PAPUA,99614.0,Indonesia,,,,-84.900.962,1.403.917.897,https://maps.google.com/?cid=0x0:0xc0bfdbcaf1e7ef4c,
supermarket,Pusat Perbelanjaan,O'MART,"FCR3+833, Mandala, Kec. Merauke, Kabupaten Merauke, Papua 99615","Mandala, Kec. Merauke, Kabupaten Merauke",PAPUA,99615.0,Indonesia,081217838188,,,-85.092.401,1.404.026.804,https://maps.google.com/?cid=0x0:0xdd3b304800cf7155,
supermarket,Pusat Perbelanjaan,Merauke Town Square,"Jl. Raya Mandala No.74, Mandala, Kec. Merauke, Kabupaten Merauke, Papua 99616","Mandala, Kec. Merauke, Kabupaten Merauke",PAPUA,99616.0,Indonesia,082198131900,,,-84.899.535,1.403.918.251,https://maps.google.com/?cid=0x0:0x8f8b117a1149369d,
supermarket,Pusat Perbelanjaan,BUNDA MART,"Jl. Gak, Bambu Pemali, Kec. Merauke, Kabupaten Merauke, Papua 99614","Bambu Pemali, Kec. Merauke, Kabupaten Merauke",PAPUA,99614.0,Indonesia,0812548697556,,,-850.456,140.393.003,https://maps.google.com/?cid=0x0:0xcd35ee37f85d7086,
supermarket,Toko bahan makanan,Warung Wa Inan,"RT.004/RW.022, Pekayon Jaya, Kec. Bekasi Sel., Kota Bks, Jawa Barat 17148","Pekayon Jaya, Kec. Bekasi Sel., Kota Bks",PAPUA,17148.0,Indonesia,,,,-62.597.443,1.069.827.992,https://maps.google.com/?cid=0x0:0xdda577b07ac9941d,
supermarket,Toko Roti,Wawa Bakery,"Perumahan Taman Cibodas, 8 blok b7 nomor 30 15138, Jl. Raya Taman Cibodas, RT.006/RW.009, Sangiang Jaya, Kec. Periuk, Kota Tangerang, Banten 15132","8 blok b7 nomor 30 15138, Jl. Raya Taman Cibodas, RT.006/RW.009, Sangiang Jaya, Kec. Periuk, Kota Tangerang",PAPUA,15132.0,Indonesia,,,,-61.866.712,1.066.008.343,https://maps.google.com/?cid=0x0:0xfb9585c6f03599cd,
supermarket,supermarket,Toko Wa Endin,"Jl. Labuhan H. No.64, RT.002/RW.003, Jatimekar, Kec. Jatiasih, Kota Bks, Jawa Barat 17422","RT.002/RW.003, Jatimekar, Kec. Jatiasih, Kota Bks",PAPUA,17422.0,Indonesia,,,,-63.016.613,1.069.387.699,https://maps.google.com/?cid=0x0:0x7ae602c4d69d1005,
supermarket,supermarket,Ilyawab,"Kabupaten Merauke, Papua","Kabupaten Merauke, Papua",PAPUA,,Indonesia,,,,-74.504.081,1.391.221.414,https://maps.google.com/?cid=0x0:0x48a32f21f1c6967f,
supermarket,Toko Swalayan,Kios Bali,"Woner, Kimaam, Kabupaten Merauke, Papua 99641","Kimaam, Kabupaten Merauke",PAPUA,99641.0,Indonesia,082399052234,,,-7.985.936,138.845.812,https://maps.google.com/?cid=0x0:0xd2e0995d4ed787cb,
supermarket,Toko Swalayan,Kios Baru 1 Kimaam,"Jalan Gotong Royong No.RT.1, Kiworo, Kimaam, Kabupaten Merauke, Papua 99655","Kiworo, Kimaam, Kabupaten Merauke",PAPUA,99655.0,Indonesia,081344263123,,,-79.855.171,138.845.935,https://maps.google.com/?cid=0x0:0xd3467309febfeb5d,
supermarket,Toko bahan makanan,Welcome Mart + ATM,"F9XR+JCF, Seringgu Jaya, Kec. Merauke, Kabupaten Merauke, Papua 99614","Seringgu Jaya, Kec. Merauke, Kabupaten Merauke",PAPUA,99614.0,Indonesia,,,,-85.009.364,1.403.910.371,https://maps.google.com/?cid=0x0:0x7713d19ee1798363,
supermarket,Toko bahan makanan,"Orange Supermarket, Merauke","G95R+XP7, Jl. Raya Mandala, Maro, Kec. Merauke, Kabupaten Merauke, Papua 99614","Jl. Raya Mandala, Maro, Kec. Merauke, Kabupaten Merauke",PAPUA,99614.0,Indonesia,,,,-84.900.962,1.403.917.897,https://maps.google.com/?cid=0x0:0xc0bfdbcaf1e7ef4c,
supermarket,Toko,Toko To'do'puli,"XVQV+Q59, Kiworo, Kimaam, Kabupaten Merauke, Papua","Kabupaten Merauke, Papua",PAPUA,,Indonesia,082139952538,,,-80.105.982,1.388.929.962,https://maps.google.com/?cid=0x0:0x3080f22be20c0e88,
supermarket,Toko,Kios Matahari,"2R8W+34X, Kimaam, Kabupaten Merauke, Papua 99655","Kimaam, Kabupaten Merauke",PAPUA,99655.0,Indonesia,,,,-79.847.704,138.845.356,https://maps.google.com/?cid=0x0:0xd4daa9503b915a1b,
supermarket,Toko Swalayan,KIOS PUTRA BONE,"2R7W+7CC, Woner, Kimaam, Kabupaten Merauke, Papua 99655","Woner, Kimaam, Kabupaten Merauke",PAPUA,99655.0,Indonesia,082198409888,,,-79.864.825,1.388.463.286,https://maps.google.com/?cid=0x0:0x36c2e89f4f6566a5,
supermarket,Toko Swalayan,SUPERMARKET B-MART,"Jl. Brawijaya, Klp. Lima, Kec. Merauke, Kabupaten Merauke, Papua 99615","Klp. Lima, Kec. Merauke, Kabupaten Merauke",PAPUA,99615.0,Indonesia,085251625532,,,-84.968.455,1.404.036.489,https://maps.google.com/?cid=0x0:0xc5c50d5ba0af773d,
supermarket,Pusat Perbelanjaan,BUNDA MART,"Jl. Gak, Bambu Pemali, Kec. Merauke, Kabupaten Merauke, Papua 99614","Bambu Pemali, Kec. Merauke, Kabupaten Merauke",PAPUA,99614.0,Indonesia,0812548697556,,,-850.456,140.393.003,https://maps.google.com/?cid=0x0:0xcd35ee37f85d7086,
