Category,Real Category,Business Name,Address,City,State,Postal Code,Country,Phone,Email,Website,Latitude,Longitude,Map Link,Details Link
hotel,hotel,Sulawesi Utara 95774,"Momalia I, Kec. Posigadan, Kabupaten Bolaang Mongondow Selatan, Sulawesi Utara","Kabupaten Bolaang Mongondow Selatan, Sulawesi Utara",SULAWESI UTARA,,Indonesia,,,,0.3179007,123.5774024,https://maps.google.com/?cid=0x0:0xe8ed2e820dc45687,
hotel,hotel,Hotel Mulia Lolak,"Jl. Trans-Sulawesi, Lalow, Kec. Lolak, Kabupaten Bolaang Mongondow, Sulawesi Utara","Kabupaten Bolaang Mongondow, Sulawesi Utara",SULAWESI UTARA,,Indonesia,85298113269.0,,,0.882613,124.0267222,https://maps.google.com/?cid=0x0:0x7cf22d3b0f737f84,
hotel,hotel,New Kendy's Hotel,"Jl. Trans-Sulawesi, Lalow, Kec. Lolak, Kabupaten Bolaang Mongondow, Sulawesi Utara","Kabupaten Bolaang Mongondow, Sulawesi Utara",SULAWESI UTARA,,Indonesia,4342623531.0,,,0.882084,124.0318867,https://maps.google.com/?cid=0x0:0xc533c7e47c683f5,
hotel,hotel,Fhie Homestay,"Popodu, Kec. Bolaang Uki, Kabupaten Bolaang Mongondow Selatan, Sulawesi Utara 95774","Kec. Bolaang Uki, Kabupaten Bolaang Mongondow Selatan",SULAWESI UTARA,95774.0,Indonesia,81241326800.0,,,0.3772941,123.9891732,https://maps.google.com/?cid=0x0:0x57b104c2d1bc4c8,
hotel,hotel,Bogani-Cottages,"Biniha Tim., Kec. Bolaang Uki, Kabupaten Bolaang Mongondow Selatan, Sulawesi Utara","Kabupaten Bolaang Mongondow Selatan, Sulawesi Utara",SULAWESI UTARA,,Indonesia,82188093264.0,,,0.348852,123.8900173,https://maps.google.com/?cid=0x0:0x63f61934ef33b56e,
hotel,hotel,Sulawesi Utara 95775,"Modisi, Kec. Pinolosian Tim., Kabupaten Bolaang Mongondow Selatan, Sulawesi Utara","Kabupaten Bolaang Mongondow Selatan, Sulawesi Utara",SULAWESI UTARA,,Indonesia,,,,0.4528494,124.4356892,https://maps.google.com/?cid=0x0:0x5956b774c20081f1,
hotel,hotel,Hotel Mulia Lolak,"Jl. Trans-Sulawesi, Lalow, Kec. Lolak, Kabupaten Bolaang Mongondow, Sulawesi Utara","Kabupaten Bolaang Mongondow, Sulawesi Utara",SULAWESI UTARA,,Indonesia,85298113269.0,,,0.882613,124.0267222,https://maps.google.com/?cid=0x0:0x7cf22d3b0f737f84,
hotel,hotel,Tountemboan Hotel,"Jl. Sam Ratulangi No.110, Tj. Batu, Kec. Sario, Kota Manado, Sulawesi Utara 95116","Tj. Batu, Kec. Sario, Kota Manado",SULAWESI UTARA,95116.0,Indonesia,431851117.0,,,1.4674018,124.8395495,https://maps.google.com/?cid=0x0:0x259768f7a36a667b,
hotel,hotel,Modoinding Lodge,"QCXX+GRR, Jl. Raya, Utara, Pinasungkulan, Kec. Modoinding, Kabupaten Minahasa Selatan, Sulawesi Utara 95358","Jl. Raya, Utara, Pinasungkulan, Kec. Modoinding, Kabupaten Minahasa Selatan",SULAWESI UTARA,95358.0,Indonesia,895352812257.0,,,0.7988503,124.4495146,https://maps.google.com/?cid=0x0:0x9f8e7846b8ae1b0e,
hotel,Hotel,Trisno Hinondaleng,"Jl. Beriman No.3, Modisi, Kec. Pinolosian Tim., Kabupaten Bolaang Mongondow Selatan, Sulawesi Utara 95775","Modisi, Kec. Pinolosian Tim., Kabupaten Bolaang Mongondow Selatan",SULAWESI UTARA,95775.0,Indonesia,,,,0.451593,124.436077,https://maps.google.com/?cid=0x0:0xf954349fa44c3195,
hotel,Hotel Resor,Uyo pamondolang,"FC2P+844, Modisi, Kec. Pinolosian Tim., Kabupaten Bolaang Mongondow Selatan, Sulawesi Utara","Kabupaten Bolaang Mongondow Selatan, Sulawesi Utara",SULAWESI UTARA,,Indonesia,85219760487.0,,,0.4490891,124.4343408,https://maps.google.com/?cid=0x0:0x758c1146d80e5b67,
hotel,hotel,Pinolosian,"Kec. Pinolosian, Kabupaten Bolaang Mongondow Selatan, Sulawesi Utara","Kabupaten Bolaang Mongondow Selatan, Sulawesi Utara",SULAWESI UTARA,,Indonesia,,,,0.4686331,124.1058963,https://maps.google.com/?cid=0x0:0xf5109e6126637104,
hotel,hotel,Fhie Homestay,"Popodu, Kec. Bolaang Uki, Kabupaten Bolaang Mongondow Selatan, Sulawesi Utara 95774","Kec. Bolaang Uki, Kabupaten Bolaang Mongondow Selatan",SULAWESI UTARA,95774.0,Indonesia,81241326800.0,,,0.3772941,123.9891732,https://maps.google.com/?cid=0x0:0x57b104c2d1bc4c8,
hotel,hotel,Sulawesi Utara 95775,"Modisi, Kec. Pinolosian Tim., Kabupaten Bolaang Mongondow Selatan, Sulawesi Utara","Kabupaten Bolaang Mongondow Selatan, Sulawesi Utara",SULAWESI UTARA,,Indonesia,,,,0.4528494,124.4356892,https://maps.google.com/?cid=0x0:0x5956b774c20081f1,
hotel,hotel,Hotel Mulia Lolak,"Jl. Trans-Sulawesi, Lalow, Kec. Lolak, Kabupaten Bolaang Mongondow, Sulawesi Utara","Kabupaten Bolaang Mongondow, Sulawesi Utara",SULAWESI UTARA,,Indonesia,85298113269.0,,,0.882613,124.0267222,https://maps.google.com/?cid=0x0:0x7cf22d3b0f737f84,
hotel,hotel,New Kendy's Hotel,"Jl. Trans-Sulawesi, Lalow, Kec. Lolak, Kabupaten Bolaang Mongondow, Sulawesi Utara","Kabupaten Bolaang Mongondow, Sulawesi Utara",SULAWESI UTARA,,Indonesia,4342623531.0,,,0.882084,124.0318867,https://maps.google.com/?cid=0x0:0xc533c7e47c683f5,
hotel,Hotel,Trisno Hinondaleng,"Jl. Beriman No.3, Modisi, Kec. Pinolosian Tim., Kabupaten Bolaang Mongondow Selatan, Sulawesi Utara 95775","Modisi, Kec. Pinolosian Tim., Kabupaten Bolaang Mongondow Selatan",SULAWESI UTARA,95775.0,Indonesia,,,,0.451593,124.436077,https://maps.google.com/?cid=0x0:0xf954349fa44c3195,
hotel,Hotel Resor,Uyo pamondolang,"FC2P+844, Modisi, Kec. Pinolosian Tim., Kabupaten Bolaang Mongondow Selatan, Sulawesi Utara","Kabupaten Bolaang Mongondow Selatan, Sulawesi Utara",SULAWESI UTARA,,Indonesia,85219760487.0,,,0.4490891,124.4343408,https://maps.google.com/?cid=0x0:0x758c1146d80e5b67,
hotel,hotel,Sulawesi Utara 95775,"Modisi, Kec. Pinolosian Tim., Kabupaten Bolaang Mongondow Selatan, Sulawesi Utara","Kabupaten Bolaang Mongondow Selatan, Sulawesi Utara",SULAWESI UTARA,,Indonesia,,,,0.4528494,124.4356892,https://maps.google.com/?cid=0x0:0x5956b774c20081f1,
hotel,hotel,Lun Hotel Manado,"Jl. Sugiono No.15, Pinaesaan, Kec. Wenang, Kota Manado, Sulawesi Utara 95122","Pinaesaan, Kec. Wenang, Kota Manado",SULAWESI UTARA,95122.0,Indonesia,4318805807.0,,,1.4924525,124.8455141,https://maps.google.com/?cid=0x0:0x2c221bc57867d689,
hotel,hotel,,,,SULAWESI UTARA,,Indonesia,,,,,,https://maps.google.com/?cid=0x0:0x2c221bc57867d689%7C/g/11rf9y66kk%7Cen-ID,
hotel,hotel,Tountemboan Hotel,"Jl. Sam Ratulangi No.110, Tj. Batu, Kec. Sario, Kota Manado, Sulawesi Utara 95116","Tj. Batu, Kec. Sario, Kota Manado",SULAWESI UTARA,95116.0,Indonesia,431851117.0,,,1.4674018,124.8395495,https://maps.google.com/?cid=0x0:0x259768f7a36a667b,
hotel,hotel,New Kendy's Hotel,"Jl. Trans-Sulawesi, Lalow, Kec. Lolak, Kabupaten Bolaang Mongondow, Sulawesi Utara","Kabupaten Bolaang Mongondow, Sulawesi Utara",SULAWESI UTARA,,Indonesia,4342623531.0,,,0.882084,124.0318867,https://maps.google.com/?cid=0x0:0xc533c7e47c683f5,
hotel,hotel,Modoinding Lodge,"QCXX+GRR, Jl. Raya, Utara, Pinasungkulan, Kec. Modoinding, Kabupaten Minahasa Selatan, Sulawesi Utara 95358","Jl. Raya, Utara, Pinasungkulan, Kec. Modoinding, Kabupaten Minahasa Selatan",SULAWESI UTARA,95358.0,Indonesia,895352812257.0,,,0.7988503,124.4495146,https://maps.google.com/?cid=0x0:0x9f8e7846b8ae1b0e,
hotel,Hotel,Trisno Hinondaleng,"Jl. Beriman No.3, Modisi, Kec. Pinolosian Tim., Kabupaten Bolaang Mongondow Selatan, Sulawesi Utara 95775","Modisi, Kec. Pinolosian Tim., Kabupaten Bolaang Mongondow Selatan",SULAWESI UTARA,95775.0,Indonesia,,,,0.451593,124.436077,https://maps.google.com/?cid=0x0:0xf954349fa44c3195,
hotel,Hotel Resor,Uyo pamondolang,"FC2P+844, Modisi, Kec. Pinolosian Tim., Kabupaten Bolaang Mongondow Selatan, Sulawesi Utara","Kabupaten Bolaang Mongondow Selatan, Sulawesi Utara",SULAWESI UTARA,,Indonesia,85219760487.0,,,0.4490891,124.4343408,https://maps.google.com/?cid=0x0:0x758c1146d80e5b67,
hotel,hotel,Sulawesi Utara 95774,"Momalia I, Kec. Posigadan, Kabupaten Bolaang Mongondow Selatan, Sulawesi Utara","Kabupaten Bolaang Mongondow Selatan, Sulawesi Utara",SULAWESI UTARA,,Indonesia,,,,0.3179007,123.5774024,https://maps.google.com/?cid=0x0:0xe8ed2e820dc45687,
hotel,hotel,Hotel Totabuan Citawaya Kotamobagu,"Jl. Lintas Sinindian Sinindian Kotamobagu Timur, Mogolaing, Kec. Kotamobagu Bar., Kota Kotamobagu, Sulawesi Utara 95716","Mogolaing, Kec. Kotamobagu Bar., Kota Kotamobagu",SULAWESI UTARA,95716.0,Indonesia,43424100.0,,,0.7287365,124.3065549,https://maps.google.com/?cid=0x0:0xcb6aedbd82abd616,
hotel,hotel,Modoinding Lodge,"QCXX+GRR, Jl. Raya, Utara, Pinasungkulan, Kec. Modoinding, Kabupaten Minahasa Selatan, Sulawesi Utara 95358","Jl. Raya, Utara, Pinasungkulan, Kec. Modoinding, Kabupaten Minahasa Selatan",SULAWESI UTARA,95358.0,Indonesia,895352812257.0,,,0.7988503,124.4495146,https://maps.google.com/?cid=0x0:0x9f8e7846b8ae1b0e,
hotel,hotel,MY PLACE Kost  Guest House - Manado,"Jl. Parigi 7 No.15, Malalayang Satu, Kec. Malalayang, Kota Manado, Sulawesi Utara 95162","Malalayang Satu, Kec. Malalayang, Kota Manado",SULAWESI UTARA,95162.0,Indonesia,82278595775.0,,,1.454658,124.819839,https://maps.google.com/?cid=0x0:0xb9dcb4b7f66d76fb,
hotel,hotel,Hotel Mulia Lolak,"Jl. Trans-Sulawesi, Lalow, Kec. Lolak, Kabupaten Bolaang Mongondow, Sulawesi Utara","Kabupaten Bolaang Mongondow, Sulawesi Utara",SULAWESI UTARA,,Indonesia,85298113269.0,,,0.882613,124.0267222,https://maps.google.com/?cid=0x0:0x7cf22d3b0f737f84,
hotel,hotel,OYO 1769 Rid's Hotel,"Jl. Daan Mogot No.62, Tikala Baru, Kec. Tikala, Kota Manado, Sulawesi Utara 95126","Tikala Baru, Kec. Tikala, Kota Manado",SULAWESI UTARA,95126.0,Indonesia,2129707601.0,,,1.479812,124.8569627,https://maps.google.com/?cid=0x0:0xc65b2d2c46edc67d,
hotel,hotel,,,,SULAWESI UTARA,,Indonesia,,,,,,https://maps.google.com/?cid=0x0:0xc65b2d2c46edc67d%7C/g/11h810mcqt%7Cen-ID,
hotel,hotel,RedDoorz Plus @ Jalan Pumorow Manado,"Tikala Baru, Kec. Tikala, Kota Manado, Sulawesi Utara","Kota Manado, Sulawesi Utara",SULAWESI UTARA,,Indonesia,895417300072.0,,,1.4683577,124.8562533,https://maps.google.com/?cid=0x0:0x4e900087b958fd0,
hotel,hotel,RedDoorz Near Jalan Jendral Sudirman,"Jl. Beringin No.54 - 57, Karame, Kec. Singkil, Kota Manado, Sulawesi Utara 95111","Karame, Kec. Singkil, Kota Manado",SULAWESI UTARA,95111.0,Indonesia,2180629666.0,,,1.4915742,124.849813,https://maps.google.com/?cid=0x0:0x9b6a905aa107704a,
hotel,hotel,OYO 1838 COZY Home,"Jl. R E Martadinata No.99, Paal Dua, Kec. Paal Dua, Kota Manado, Sulawesi Utara","Kota Manado, Sulawesi Utara",SULAWESI UTARA,,Indonesia,2129707601.0,,,1.4861114,124.8594991,https://maps.google.com/?cid=0x0:0x8a101f99d80f86eb,
hotel,hotel,Hotel Elfah Manado,"Jl. Yos Sudarso No.3, Paal Dua, Kec. Paal Dua, Kota Manado, Sulawesi Utara 95111","Paal Dua, Kec. Paal Dua, Kota Manado",SULAWESI UTARA,95111.0,Indonesia,431840223.0,,,1.4867416,124.8599932,https://maps.google.com/?cid=0x0:0xa4eb31cc5bb7cc31,
hotel,hotel,Cozy Home Stay  Interior,"Jl. R E Martadinata No.99, Paal Dua, Kec. Paal Dua, Kota Manado, Sulawesi Utara","Kota Manado, Sulawesi Utara",SULAWESI UTARA,,Indonesia,431864851.0,,,1.4860968,124.8595033,https://maps.google.com/?cid=0x0:0xb4db9584be6f4cd2,
hotel,hotel,Bunaken,Sulawesi Utara,Sulawesi Utara,SULAWESI UTARA,,Indonesia,,,,1.6235162,124.7602683,https://maps.google.com/?cid=0x0:0xe07329f226330faf,
restaurant,restaurant,Rumah makan,"Desa, tolondadu, Kec. Posigadan, Kabupaten Bolaang Mongondow Selatan, Sulawesi Utara 95774","tolondadu, Kec. Posigadan, Kabupaten Bolaang Mongondow Selatan",SULAWESI UTARA,95774.0,Indonesia,81543127292.0,,,0.3178394,123.577342,https://maps.google.com/?cid=0x0:0x468576a915d89986,
restaurant,restaurant,Kec. Bolaang Uki,"Kabupaten Bolaang Mongondow Selatan, Sulawesi Utara","Kabupaten Bolaang Mongondow Selatan, Sulawesi Utara",SULAWESI UTARA,,Indonesia,,,,0.3828564,123.9828414,https://maps.google.com/?cid=0x0:0xe21c23fc1263f3c5,
restaurant,Restoran,Wisata Kuliner,"9XFR+XMX, Sondana, Kec. Bolaang Uki, Kabupaten Bolaang Mongondow Selatan, Sulawesi Utara","Kabupaten Bolaang Mongondow Selatan, Sulawesi Utara",SULAWESI UTARA,,Indonesia,,,,0.37498,123.9917495,https://maps.google.com/?cid=0x0:0x99fb97a83f66a664,
restaurant,Rumah Makan,RM. Jum,"9XGV+4GC, Sondana, Kec. Bolaang Uki, Kabupaten Bolaang Mongondow Selatan, Sulawesi Utara","Kabupaten Bolaang Mongondow Selatan, Sulawesi Utara",SULAWESI UTARA,,Indonesia,,,,0.3753218,123.9937581,https://maps.google.com/?cid=0x0:0x7f5c6d028cf1689a,
restaurant,Rumah Makan,RM. WITA,"9XFQ+W6C, Pintadia, Kec. Bolaang Uki, Kabupaten Bolaang Mongondow Selatan, Sulawesi Utara","Kabupaten Bolaang Mongondow Selatan, Sulawesi Utara",SULAWESI UTARA,,Indonesia,81354299950.0,,,0.3748012,123.9880202,https://maps.google.com/?cid=0x0:0x45b50e085b2b22b,
restaurant,Rumah Makan,Molibagu Delicious Cafe,"9XMM+59Q, Jl. Trans Sulawesi, Popodu, Kec. Bolaang Uki, Kabupaten Bolaang Mongondow Selatan, Sulawesi Utara","Kabupaten Bolaang Mongondow Selatan, Sulawesi Utara",SULAWESI UTARA,,Indonesia,,,,0.3829708,123.9834883,https://maps.google.com/?cid=0x0:0x1b7050e66d62a2b,
restaurant,Restoran,mieBAKSOYUMMY,"Desa pintadia, dusun 1, Molibagu, Kec. Bolaang Uki, Kabupaten Bolaang Mongondow Selatan, Sulawesi Utara 95774","dusun 1, Molibagu, Kec. Bolaang Uki, Kabupaten Bolaang Mongondow Selatan",SULAWESI UTARA,95774.0,Indonesia,82291304953.0,,,0.3737318,123.9865304,https://maps.google.com/?cid=0x0:0x9bac4e9e0172a478,
restaurant,Rumah Makan,RM Ikan Bakar NUR 'AIN,"9XGV+5M8, Unnamed Road, Sondana, Bolaang Uki, South Bolaang Mongondow Regency, North Sulawesi","Kabupaten Bolaang Mongondow Selatan, Sulawesi Utara",SULAWESI UTARA,,Indonesia,,,,0.375401,123.994193,https://maps.google.com/?cid=0x0:0xd5d226cf14298b8d,
restaurant,Restoran Lophiiformes,Rumah Makan Nunung,"9XFR+R7W, jalan, Sondana, Kec. Bolaang Uki, Kabupaten Bolaang Mongondow Selatan, Sulawesi Utara","Kabupaten Bolaang Mongondow Selatan, Sulawesi Utara",SULAWESI UTARA,,Indonesia,82313338451.0,,,0.3746165,123.9906942,https://maps.google.com/?cid=0x0:0x4ffc04eb01ede206,
restaurant,restaurant,D' Huk Coffee  Eatery,"9XFQ+PC6, Pintadia, Kec. Bolaang Uki, Kabupaten Bolaang Mongondow Selatan, Sulawesi Utara","Kabupaten Bolaang Mongondow Selatan, Sulawesi Utara",SULAWESI UTARA,,Indonesia,82189307085.0,,,0.3743115,123.9885201,https://maps.google.com/?cid=0x0:0x3ddff1bca7c73579,
restaurant,Brunch,Kedai Kampoeng Bolango,"9XHP+QC6, Popodu, Kec. Bolaang Uki, Kabupaten Bolaang Mongondow Selatan, Sulawesi Utara","Kabupaten Bolaang Mongondow Selatan, Sulawesi Utara",SULAWESI UTARA,,Indonesia,,,,0.3794248,123.9860268,https://maps.google.com/?cid=0x0:0xb8950da8d9dd23d5,
restaurant,Dapur Umum,Rumah Makan Zaid Al-Kahfi,"Pasar, Soguo, Kec. Bolaang Uki, Kabupaten Bolaang Mongondow Selatan, Sulawesi Utara","Kabupaten Bolaang Mongondow Selatan, Sulawesi Utara",SULAWESI UTARA,,Indonesia,85395605922.0,,,0.3796089,123.9745039,https://maps.google.com/?cid=0x0:0xa95ccbfe5a99025e,
restaurant,Guest house,Penginapan Sejahtera,"Toluaya, Kec. Bolaang Uki, Kabupaten Bolaang Mongondow Selatan, Sulawesi Utara 95774","Kec. Bolaang Uki, Kabupaten Bolaang Mongondow Selatan",SULAWESI UTARA,95774.0,Indonesia,85642441233.0,,,0.3852392,123.980097,https://maps.google.com/?cid=0x0:0xc1166037b888476c,
restaurant,Restoran,Bananalicious,"92P8+VHQ, Tolondadu I, Kec. Bolaang Uki, Kabupaten Bolaang Mongondow Selatan, Sulawesi Utara","Kabupaten Bolaang Mongondow Selatan, Sulawesi Utara",SULAWESI UTARA,,Indonesia,82296503714.0,,,0.3865692,124.0173785,https://maps.google.com/?cid=0x0:0x25927f339a1b92cf,
restaurant,Restoran,Wisata Kuliner Sondana,"92G5+34Q, Unnamed Road, Tolondadu II, Kec. Bolaang Uki, Kabupaten Bolaang Mongondow Selatan, Sulawesi Utara","Kabupaten Bolaang Mongondow Selatan, Sulawesi Utara",SULAWESI UTARA,,Indonesia,,,,0.3752215,124.0078563,https://maps.google.com/?cid=0x0:0x68cae83bf17b8651,
restaurant,Padang,RM.SYAHILLAH,"9XGP+WM5, Popodu, Kec. Bolaang Uki, Kabupaten Bolaang Mongondow Selatan, Sulawesi Utara","Kabupaten Bolaang Mongondow Selatan, Sulawesi Utara",SULAWESI UTARA,,Indonesia,,,,0.3772721,123.9866786,https://maps.google.com/?cid=0x0:0xf65cf01d9d7cfe6c,
restaurant,Brunch,Kedai Senjakala,"Jalan Veteran Kompleks Trans Fajar, Pintadia, Kec. Bolaang Uki, Kabupaten Bolaang Mongondow Selatan, Sulawesi Utara 95774","Pintadia, Kec. Bolaang Uki, Kabupaten Bolaang Mongondow Selatan",SULAWESI UTARA,95774.0,Indonesia,81210002042.0,,,0.3753549,123.9840177,https://maps.google.com/?cid=0x0:0x91b9c8ddccf2eea4,
restaurant,Dapur Umum,Kantin mama iki,"9XXJ+F47, Jl. Trans Sulawesi, Molibagu, Kec. Bolaang Uki, Kabupaten Bolaang Mongondow Selatan, Sulawesi Utara","Kabupaten Bolaang Mongondow Selatan, Sulawesi Utara",SULAWESI UTARA,,Indonesia,,,,0.3986746,123.9803005,https://maps.google.com/?cid=0x0:0x66304e75d0b8c9be,
restaurant,Paviliun Pantai,Sondana Beach Resto,"92G4+6X6, Tolondadu II, Kec. Bolaang Uki, Kabupaten Bolaang Mongondow Selatan, Sulawesi Utara","Kabupaten Bolaang Mongondow Selatan, Sulawesi Utara",SULAWESI UTARA,,Indonesia,85395556681.0,,,0.3755493,124.0073759,https://maps.google.com/?cid=0x0:0xbdce30978f17532f,
restaurant,Restoran,Kebab A4,"Pintadia, Kec. Bolaang Uki, Kabupaten Bolaang Mongondow Selatan, Sulawesi Utara 95774","Kec. Bolaang Uki, Kabupaten Bolaang Mongondow Selatan",SULAWESI UTARA,95774.0,Indonesia,85696409596.0,,,0.3734196,123.9855051,https://maps.google.com/?cid=0x0:0x71855fda7403e8d3,
restaurant,Jawa,Soto Bang Arvan,"9XMJ+443, Jl. Trans Sulawesi, Toluaya, Kec. Bolaang Uki, Kabupaten Bolaang Mongondow Selatan, Sulawesi Utara","Kabupaten Bolaang Mongondow Selatan, Sulawesi Utara",SULAWESI UTARA,,Indonesia,,,,0.3827651,123.9802993,https://maps.google.com/?cid=0x0:0x4169566499060fad,
restaurant,Brunch,Kantin GPDI,"FC3P+4WC, Modisi, Kec. Pinolosian Tim., Kabupaten Bolaang Mongondow Selatan, Sulawesi Utara","Kabupaten Bolaang Mongondow Selatan, Sulawesi Utara",SULAWESI UTARA,,Indonesia,85696966366.0,,,0.4531277,124.437249,https://maps.google.com/?cid=0x0:0xb5f278eaf9ff6135,
restaurant,Rumah Makan,Kantin Bestie,"C7V6+53R, Dusun 1, Adow, Kec. Pinolosian Tengah, Kabupaten Bolaang Mongondow Selatan, Sulawesi Utara","Kabupaten Bolaang Mongondow Selatan, Sulawesi Utara",SULAWESI UTARA,,Indonesia,,,,0.4429782,124.2601503,https://maps.google.com/?cid=0x0:0x4090bcb26ce4c724,
restaurant,restaurant,Sulawesi Utara 95775,"Modisi, Kec. Pinolosian Tim., Kabupaten Bolaang Mongondow Selatan, Sulawesi Utara","Kabupaten Bolaang Mongondow Selatan, Sulawesi Utara",SULAWESI UTARA,,Indonesia,,,,0.4528494,124.4356892,https://maps.google.com/?cid=0x0:0x5956b774c20081f1,
restaurant,Rumah Makan,Warung Makan dan Penginapan Friska,"Ilomata, Kec. Pinolosian, Kabupaten Bolaang Mongondow Selatan, Sulawesi Utara","Kabupaten Bolaang Mongondow Selatan, Sulawesi Utara",SULAWESI UTARA,,Indonesia,82291963708.0,,,0.3976186,124.1113769,https://maps.google.com/?cid=0x0:0xe97de35f9c537a54,
restaurant,Kedai Kopi,UMMâBURGER,"Pojok Lapangan, Pinolosian, Kec. Pinolosian, Kabupaten Bolaang Mongondow Selatan, Sulawesi Utara 95775","Pinolosian, Kec. Pinolosian, Kabupaten Bolaang Mongondow Selatan",SULAWESI UTARA,95775.0,Indonesia,85242841819.0,,,0.3966009,124.1179679,https://maps.google.com/?cid=0x0:0xb035f8a6ef80750e,
restaurant,Restoran,Warung makan Villy (Bakso),"Dumagin B RT 4, Kabupaten Bolaang Mongondow Selatan, Sulawesi Utara 95775",Kabupaten Bolaang Mongondow Selatan,SULAWESI UTARA,95775.0,Indonesia,81355802127.0,,,0.4600568,124.3819278,https://maps.google.com/?cid=0x0:0x1b941520d5eff886,
restaurant,Toko bahan makanan,Pondok Kismis Ponsel,"94Q9+V69, Unnamed Road, Pinolosian Sel., Kec. Pinolosian, Kabupaten Bolaang Mongondow Selatan, Sulawesi Utara","Kabupaten Bolaang Mongondow Selatan, Sulawesi Utara",SULAWESI UTARA,,Indonesia,,,,0.3896633,124.1181056,https://maps.google.com/?cid=0x0:0xf40fd27a99faea07,
restaurant,Kedai Kopi,DasengCoffee,"94RC+WWM, Pinolosian Sel., Kec. Pinolosian, Kabupaten Bolaang Mongondow Selatan, Sulawesi Utara","Kabupaten Bolaang Mongondow Selatan, Sulawesi Utara",SULAWESI UTARA,,Indonesia,,,,0.3923283,124.1222826,https://maps.google.com/?cid=0x0:0x2b4d48473733bf11,
restaurant,Kedai Kopi,Nadhifa papping,"93RX+FFF, Linawan I, Kec. Pinolosian, Kabupaten Bolaang Mongondow Selatan, Sulawesi Utara","Kabupaten Bolaang Mongondow Selatan, Sulawesi Utara",SULAWESI UTARA,,Indonesia,81524055376.0,,,0.391186,124.0986776,https://maps.google.com/?cid=0x0:0x9d8ff17eab4c75de,
restaurant,Kedai Kopi,_DeSabua_,"94R6+RXC, Ilomata, Kec. Pinolosian, Kabupaten Bolaang Mongondow Selatan, Sulawesi Utara","Kabupaten Bolaang Mongondow Selatan, Sulawesi Utara",SULAWESI UTARA,,Indonesia,85757839831.0,,,0.3920709,124.1123899,https://maps.google.com/?cid=0x0:0xb60db227b0a33ed1,
restaurant,Rumah Kaca,Rumah Ewing Djauhari,"94R9+662, Pinolosian Sel., Kec. Pinolosian, Kabupaten Bolaang Mongondow Selatan, Sulawesi Utara","Kabupaten Bolaang Mongondow Selatan, Sulawesi Utara",SULAWESI UTARA,,Indonesia,,,,0.390598,124.118086,https://maps.google.com/?cid=0x0:0xbcaeff1d756db56f,
restaurant,Kedai Kopi,Kedai Sudut kampung,"Jl. Trans Sulawesi No.9, Tolotoyon, Kec. Pinolosian, Kabupaten Bolaang Mongondow Selatan, Sulawesi Utara","Kabupaten Bolaang Mongondow Selatan, Sulawesi Utara",SULAWESI UTARA,,Indonesia,,,,0.4011891,124.1199903,https://maps.google.com/?cid=0x0:0xdcd1dbfb73e7418d,
restaurant,Kedai Kopi,"Teras Coffee, BobaKu-Janji","Ilomata, Kec. Pinolosian, Kabupaten Bolaang Mongondow Selatan, Sulawesi Utara","Kabupaten Bolaang Mongondow Selatan, Sulawesi Utara",SULAWESI UTARA,,Indonesia,82296019981.0,,,0.3936808,124.1123488,https://maps.google.com/?cid=0x0:0x58fd04534fa038c5,
restaurant,Toko Makanan,KEDAI NORMAL,"Ilomata, Kec. Pinolosian, Kabupaten Bolaang Mongondow Selatan, Sulawesi Utara","Kabupaten Bolaang Mongondow Selatan, Sulawesi Utara",SULAWESI UTARA,,Indonesia,85244167094.0,,,0.3894739,124.1126373,https://maps.google.com/?cid=0x0:0x88c62511c24289bb,
restaurant,Kedai Kopi,Teras Bambu Alfathunnisa,"94W8+2WQ, Pinolosian, Kec. Pinolosian, Kabupaten Bolaang Mongondow Selatan, Sulawesi Utara","Kabupaten Bolaang Mongondow Selatan, Sulawesi Utara",SULAWESI UTARA,,Indonesia,85219579003.0,,,0.3952398,124.1172766,https://maps.google.com/?cid=0x0:0x388c1be7217fd633,
restaurant,Bar,Piyuhk Tempat Miras,"94X9+HGJ, Tolotoyon, Kec. Pinolosian, Kabupaten Bolaang Mongondow Selatan, Sulawesi Utara","Kabupaten Bolaang Mongondow Selatan, Sulawesi Utara",SULAWESI UTARA,,Indonesia,,,,0.398972,124.1187776,https://maps.google.com/?cid=0x0:0x21957f6fe4dc1e2e,
restaurant,Toko sembako pemerintah,Kios Ayyasha,"94R6+VW5, Jl. Siswa Desa Rilisnya, Ilomata, Kec. Pinolosian, Kabupaten Bolaang Mongondow Selatan, Sulawesi Utara","Kabupaten Bolaang Mongondow Selatan, Sulawesi Utara",SULAWESI UTARA,,Indonesia,85757839831.0,,,0.3921473,124.1123597,https://maps.google.com/?cid=0x0:0x8f9f05cf96790e70,
restaurant,Kedai Kopi,Kedai BO Dunia,"C3VG+84J, Linawan, Kec. Pinolosian, Kabupaten Bolaang Mongondow Selatan, Sulawesi Utara","Kabupaten Bolaang Mongondow Selatan, Sulawesi Utara",SULAWESI UTARA,,Indonesia,,,,0.4433409,124.0752783,https://maps.google.com/?cid=0x0:0xc7cbcd3324b8f995,
restaurant,Dapur Umum,GEPREK A3C,"94X6+3G7, Ilomata, Kec. Pinolosian, Kabupaten Bolaang Mongondow Selatan, Sulawesi Utara","Kabupaten Bolaang Mongondow Selatan, Sulawesi Utara",SULAWESI UTARA,,Indonesia,81527746169.0,,,0.3976596,124.1112951,https://maps.google.com/?cid=0x0:0xa814a76e67a55168,
restaurant,restaurant,Rumah makan sudi mampir,"94W5+PRM, Unnamed Road, Ilomata, Kec. Pinolosian, Kabupaten Bolaang Mongondow Selatan, Sulawesi Utara","Kabupaten Bolaang Mongondow Selatan, Sulawesi Utara",SULAWESI UTARA,,Indonesia,,,,0.3968367,124.1095488,https://maps.google.com/?cid=0x0:0x6e026c679a930b,
restaurant,restaurant,Sulawesi Utara 95775,"Modisi, Kec. Pinolosian Tim., Kabupaten Bolaang Mongondow Selatan, Sulawesi Utara","Kabupaten Bolaang Mongondow Selatan, Sulawesi Utara",SULAWESI UTARA,,Indonesia,,,,0.4528494,124.4356892,https://maps.google.com/?cid=0x0:0x5956b774c20081f1,
restaurant,restaurant,Kec. Pinolosian Tengah,"Kabupaten Bolaang Mongondow Selatan, Sulawesi Utara","Kabupaten Bolaang Mongondow Selatan, Sulawesi Utara",SULAWESI UTARA,,Indonesia,,,,0.4814411,124.2643871,https://maps.google.com/?cid=0x0:0x202271dfbca50638,
restaurant,Rumah Makan,Warung Makan dan Penginapan Friska,"Ilomata, Kec. Pinolosian, Kabupaten Bolaang Mongondow Selatan, Sulawesi Utara","Kabupaten Bolaang Mongondow Selatan, Sulawesi Utara",SULAWESI UTARA,,Indonesia,82291963708.0,,,0.3976186,124.1113769,https://maps.google.com/?cid=0x0:0xe97de35f9c537a54,
restaurant,Toko umum,Warung Li mama,"W45X+6GR, Dalapuli, Kec. Pinogaluman, Kabupaten Bolaang Mongondow Utara, Sulawesi Utara","Kabupaten Bolaang Mongondow Utara, Sulawesi Utara",SULAWESI UTARA,,Indonesia,,,,0.9081204,123.148756,https://maps.google.com/?cid=0x0:0x508d90ad1115874d,
restaurant,Restoran,Warung makan Villy (Bakso),"Dumagin B RT 4, Kabupaten Bolaang Mongondow Selatan, Sulawesi Utara 95775",Kabupaten Bolaang Mongondow Selatan,SULAWESI UTARA,95775.0,Indonesia,81355802127.0,,,0.4600568,124.3819278,https://maps.google.com/?cid=0x0:0x1b941520d5eff886,
restaurant,Toko bahan makanan,Pondok Kismis Ponsel,"94Q9+V69, Unnamed Road, Pinolosian Sel., Kec. Pinolosian, Kabupaten Bolaang Mongondow Selatan, Sulawesi Utara","Kabupaten Bolaang Mongondow Selatan, Sulawesi Utara",SULAWESI UTARA,,Indonesia,,,,0.3896633,124.1181056,https://maps.google.com/?cid=0x0:0xf40fd27a99faea07,
restaurant,Brunch,Kantin Dindah (Momz Yatri),"Adow, Kec. Pinolosian Tengah, Kabupaten Bolaang Mongondow Selatan, Sulawesi Utara 95776","Kec. Pinolosian Tengah, Kabupaten Bolaang Mongondow Selatan",SULAWESI UTARA,95776.0,Indonesia,82349868975.0,,,0.4395658,124.2629671,https://maps.google.com/?cid=0x0:0xaa1339de37bb6ff2,
restaurant,Es Krim,Kantin Ne Fika',"Dusun II, Dumagin B, Kec. Pinolosian Tim., Kabupaten Bolaang Mongondow Selatan, Sulawesi Utara 95775","Dumagin B, Kec. Pinolosian Tim., Kabupaten Bolaang Mongondow Selatan",SULAWESI UTARA,95775.0,Indonesia,85757153215.0,,,0.4618291,124.3807297,https://maps.google.com/?cid=0x0:0xf73dbc9f8f3167e5,
restaurant,Kedai Kopi,UMMâBURGER,"Pojok Lapangan, Pinolosian, Kec. Pinolosian, Kabupaten Bolaang Mongondow Selatan, Sulawesi Utara 95775","Pinolosian, Kec. Pinolosian, Kabupaten Bolaang Mongondow Selatan",SULAWESI UTARA,95775.0,Indonesia,85242841819.0,,,0.3966009,124.1179679,https://maps.google.com/?cid=0x0:0xb035f8a6ef80750e,
restaurant,Restoran,Warung makan Villy (Bakso),"Dumagin B RT 4, Kabupaten Bolaang Mongondow Selatan, Sulawesi Utara 95775",Kabupaten Bolaang Mongondow Selatan,SULAWESI UTARA,95775.0,Indonesia,81355802127.0,,,0.4600568,124.3819278,https://maps.google.com/?cid=0x0:0x1b941520d5eff886,
restaurant,Toko umum,Warung Makan Barokah,"C53V+68C, Lungkap, Kec. Pinolosian, Kabupaten Bolaang Mongondow Selatan, Sulawesi Utara","Kabupaten Bolaang Mongondow Selatan, Sulawesi Utara",SULAWESI UTARA,,Indonesia,,,,0.4019688,124.193657,https://maps.google.com/?cid=0x0:0x9af38fea4027dc1f,
restaurant,Es Krim,Kantin Ne Fika',"Dusun II, Dumagin B, Kec. Pinolosian Tim., Kabupaten Bolaang Mongondow Selatan, Sulawesi Utara 95775","Dumagin B, Kec. Pinolosian Tim., Kabupaten Bolaang Mongondow Selatan",SULAWESI UTARA,95775.0,Indonesia,85757153215.0,,,0.4618291,124.3807297,https://maps.google.com/?cid=0x0:0xf73dbc9f8f3167e5,
restaurant,restaurant,Rumah makan,"Desa, tolondadu, Kec. Posigadan, Kabupaten Bolaang Mongondow Selatan, Sulawesi Utara 95774","tolondadu, Kec. Posigadan, Kabupaten Bolaang Mongondow Selatan",SULAWESI UTARA,95774.0,Indonesia,81543127292.0,,,0.3178394,123.577342,https://maps.google.com/?cid=0x0:0x468576a915d89986,
cafe,cafe,Sulawesi Utara 95774,"Momalia I, Kec. Posigadan, Kabupaten Bolaang Mongondow Selatan, Sulawesi Utara","Kabupaten Bolaang Mongondow Selatan, Sulawesi Utara",SULAWESI UTARA,,Indonesia,,,,0.3179007,123.5774024,https://maps.google.com/?cid=0x0:0xe8ed2e820dc45687,
cafe,Restoran,MORPHIC COFFE HOUSE,"Tutuyan, Kec. Tutuyan, Kabupaten Bolaang Mongondow Timur, Sulawesi Utara","Kabupaten Bolaang Mongondow Timur, Sulawesi Utara",SULAWESI UTARA,,Indonesia,,,,0.7615435,124.6137736,https://maps.google.com/?cid=0x0:0x90ae3205501e9094,
cafe,cafe,Rumah makan,"Desa, tolondadu, Kec. Posigadan, Kabupaten Bolaang Mongondow Selatan, Sulawesi Utara 95774","tolondadu, Kec. Posigadan, Kabupaten Bolaang Mongondow Selatan",SULAWESI UTARA,95774.0,Indonesia,81543127292.0,,,0.3178394,123.577342,https://maps.google.com/?cid=0x0:0x468576a915d89986,
cafe,cafe,D' Huk Coffee  Eatery,"9XFQ+PC6, Pintadia, Kec. Bolaang Uki, Kabupaten Bolaang Mongondow Selatan, Sulawesi Utara","Kabupaten Bolaang Mongondow Selatan, Sulawesi Utara",SULAWESI UTARA,,Indonesia,82189307085.0,,,0.3743115,123.9885201,https://maps.google.com/?cid=0x0:0x3ddff1bca7c73579,
cafe,Kedai Kopi,KEMANG Kedai Coffee Nation,"Popodu, Kec. Bolaang Uki, Kabupaten Bolaang Mongondow Selatan, Sulawesi Utara","Kabupaten Bolaang Mongondow Selatan, Sulawesi Utara",SULAWESI UTARA,,Indonesia,816261999.0,,,0.3765,123.9874308,https://maps.google.com/?cid=0x0:0xb0a746d942cc9ae9,
cafe,Brunch,Kedai Kampoeng Bolango,"9XHP+QC6, Popodu, Kec. Bolaang Uki, Kabupaten Bolaang Mongondow Selatan, Sulawesi Utara","Kabupaten Bolaang Mongondow Selatan, Sulawesi Utara",SULAWESI UTARA,,Indonesia,,,,0.3794248,123.9860268,https://maps.google.com/?cid=0x0:0xb8950da8d9dd23d5,
cafe,Kedai Kopi,Butola Coffe,"92G7+7R2, Tolondadu II, Kec. Bolaang Uki, Kabupaten Bolaang Mongondow Selatan, Sulawesi Utara","Kabupaten Bolaang Mongondow Selatan, Sulawesi Utara",SULAWESI UTARA,,Indonesia,85340146428.0,,,0.3756315,124.0145024,https://maps.google.com/?cid=0x0:0x758fbac06ca93a4,
cafe,Rumah Makan,Molibagu Delicious Cafe,"9XMM+59Q, Jl. Trans Sulawesi, Popodu, Kec. Bolaang Uki, Kabupaten Bolaang Mongondow Selatan, Sulawesi Utara","Kabupaten Bolaang Mongondow Selatan, Sulawesi Utara",SULAWESI UTARA,,Indonesia,,,,0.3829708,123.9834883,https://maps.google.com/?cid=0x0:0x1b7050e66d62a2b,
cafe,Kedai Kopi,Lorong Pante Tangagah,"9W23+537, Jl. Trans Sulawesi, Tangagah, Kec. Bolaang Uki, Kabupaten Bolaang Mongondow Selatan, Sulawesi Utara","Kabupaten Bolaang Mongondow Selatan, Sulawesi Utara",SULAWESI UTARA,,Indonesia,,,,0.350406,123.902671,https://maps.google.com/?cid=0x0:0x734710ddf181a4d3,
cafe,Bed >>u0026 Breakfast,Homestay,"Tangagah, Kec. Bolaang Uki, Kabupaten Bolaang Mongondow Selatan, Sulawesi Utara 95774","Kec. Bolaang Uki, Kabupaten Bolaang Mongondow Selatan",SULAWESI UTARA,95774.0,Indonesia,82217480107.0,,,0.3491111,123.8965423,https://maps.google.com/?cid=0x0:0x518b9f440c7236cf,
cafe,Kedai Kopi,Cuan Kopi,"9XMJ+4X2, Jl. Trans Sulawesi, Molibagu, Kec. Bolaang Uki, Kabupaten Bolaang Mongondow Selatan, Sulawesi Utara","Kabupaten Bolaang Mongondow Selatan, Sulawesi Utara",SULAWESI UTARA,,Indonesia,,,,0.3827729,123.9823926,https://maps.google.com/?cid=0x0:0x9e8d584e8a479d92,
cafe,Kedai Kopi,SHERLOCK COFFEE,"8QCW+728, Pangia, Kec. Bolaang Uki, Kabupaten Bolaang Mongondow Selatan, Sulawesi Utara","Kabupaten Bolaang Mongondow Selatan, Sulawesi Utara",SULAWESI UTARA,,Indonesia,,,,0.3211895,123.7952894,https://maps.google.com/?cid=0x0:0xdd59d4422550b87e,
cafe,Kedai Kopi,BARABA COFFE,"9X7F+339, Dusun 4, Salongo, Kec. Bolaang Uki, Kabupaten Bolaang Mongondow Selatan, Sulawesi Utara","Kabupaten Bolaang Mongondow Selatan, Sulawesi Utara",SULAWESI UTARA,,Indonesia,,,,0.3626526,123.9727291,https://maps.google.com/?cid=0x0:0xa1bef396ec71565a,
cafe,Restoran,mieBAKSOYUMMY,"Desa pintadia, dusun 1, Molibagu, Kec. Bolaang Uki, Kabupaten Bolaang Mongondow Selatan, Sulawesi Utara 95774","dusun 1, Molibagu, Kec. Bolaang Uki, Kabupaten Bolaang Mongondow Selatan",SULAWESI UTARA,95774.0,Indonesia,82291304953.0,,,0.3737318,123.9865304,https://maps.google.com/?cid=0x0:0x9bac4e9e0172a478,
cafe,Kedai Kopi,DkyAliu,"Popodu, Kec. Bolaang Uki, Kabupaten Bolaang Mongondow Selatan, Sulawesi Utara 95774","Kec. Bolaang Uki, Kabupaten Bolaang Mongondow Selatan",SULAWESI UTARA,95774.0,Indonesia,82291710738.0,,,0.3804394,123.9864377,https://maps.google.com/?cid=0x0:0x5f591fb7bdc048e4,
cafe,Restoran,Wisata Kuliner,"9XFR+XMX, Sondana, Kec. Bolaang Uki, Kabupaten Bolaang Mongondow Selatan, Sulawesi Utara","Kabupaten Bolaang Mongondow Selatan, Sulawesi Utara",SULAWESI UTARA,,Indonesia,,,,0.37498,123.9917495,https://maps.google.com/?cid=0x0:0x99fb97a83f66a664,
cafe,Rumah Makan,Nyot Nyot Thai Tea Molibagu,"Jln. Soman Van Gobel, Dusun 2, Desa Toluaya, Kecamatan, Kec. Bolaang Uki, Kabupaten Bolaang Mongondow Selatan, Sulawesi Utara 95774","Dusun 2, Desa Toluaya, Kecamatan, Kec. Bolaang Uki, Kabupaten Bolaang Mongondow Selatan",SULAWESI UTARA,95774.0,Indonesia,82349757820.0,,,0.3814824,123.9807954,https://maps.google.com/?cid=0x0:0xda7707320bb558a6,
cafe,Brunch,Kedai Senjakala,"Jalan Veteran Kompleks Trans Fajar, Pintadia, Kec. Bolaang Uki, Kabupaten Bolaang Mongondow Selatan, Sulawesi Utara 95774","Pintadia, Kec. Bolaang Uki, Kabupaten Bolaang Mongondow Selatan",SULAWESI UTARA,95774.0,Indonesia,81210002042.0,,,0.3753549,123.9840177,https://maps.google.com/?cid=0x0:0x91b9c8ddccf2eea4,
cafe,Kedai Kopi,Mayako Kantin ( Aneka kue dan makanan ),"Jl Trans Sulawesi, Dusun 1, RT 2 Desa Tangagah, kecamatan Bolaang Uji, Kabupaten Bolaang Mongondow Selatan","Kabupaten Bolaang Mongondow Selatan, Sulawesi Utara",SULAWESI UTARA,,Indonesia,,,,0.3528459,123.9118906,https://maps.google.com/?cid=0x0:0xedfc217d0094f5e8,
cafe,Restoran,Kebab A4,"Pintadia, Kec. Bolaang Uki, Kabupaten Bolaang Mongondow Selatan, Sulawesi Utara 95774","Kec. Bolaang Uki, Kabupaten Bolaang Mongondow Selatan",SULAWESI UTARA,95774.0,Indonesia,85696409596.0,,,0.3734196,123.9855051,https://maps.google.com/?cid=0x0:0x71855fda7403e8d3,
cafe,Kedai Kopi,Wistara Coffee,"8VQ9+H5R, Duminanga, Kec. Bolaang Uki, Kabupaten Bolaang Mongondow Selatan, Sulawesi Utara","Kabupaten Bolaang Mongondow Selatan, Sulawesi Utara",SULAWESI UTARA,,Indonesia,,,,0.3382715,123.8676759,https://maps.google.com/?cid=0x0:0x4b294330ce9824f1,
cafe,Kedai Kopi,TORANG PE WARKOP,"8RPC+J99, Bakida, Kec. Bolaang Uki, Kabupaten Bolaang Mongondow Selatan, Sulawesi Utara","Kabupaten Bolaang Mongondow Selatan, Sulawesi Utara",SULAWESI UTARA,,Indonesia,81242591906.0,,,0.3371359,123.8206571,https://maps.google.com/?cid=0x0:0xd14f7387e0cf36fb,
cafe,Restoran,Wisata Kuliner Sondana,"92G5+34Q, Unnamed Road, Tolondadu II, Kec. Bolaang Uki, Kabupaten Bolaang Mongondow Selatan, Sulawesi Utara","Kabupaten Bolaang Mongondow Selatan, Sulawesi Utara",SULAWESI UTARA,,Indonesia,,,,0.3752215,124.0078563,https://maps.google.com/?cid=0x0:0x68cae83bf17b8651,
cafe,cafe,Sulawesi Utara 95775,"Modisi, Kec. Pinolosian Tim., Kabupaten Bolaang Mongondow Selatan, Sulawesi Utara","Kabupaten Bolaang Mongondow Selatan, Sulawesi Utara",SULAWESI UTARA,,Indonesia,,,,0.4528494,124.4356892,https://maps.google.com/?cid=0x0:0x5956b774c20081f1,
cafe,Toko Makanan,Perspektif Coffee,"Pinolosian, Kec. Pinolosian, Kabupaten Bolaang Mongondow Selatan, Sulawesi Utara 95775","Kec. Pinolosian, Kabupaten Bolaang Mongondow Selatan",SULAWESI UTARA,95775.0,Indonesia,82344100880.0,,,0.3968473,124.1143791,https://maps.google.com/?cid=0x0:0x63b4aee4e1c1dc8e,
cafe,Restoran,D'philocoffee,"W74F+JCC, Kuala, Kec. Kaidipang, Kabupaten Bolaang Mongondow Utara, Sulawesi Utara","Kabupaten Bolaang Mongondow Utara, Sulawesi Utara",SULAWESI UTARA,,Indonesia,,,,0.9065577,123.2735035,https://maps.google.com/?cid=0x0:0x70991c658bddced6,
cafe,Kafe,Cafe Pootan Jci Bianconeri Kosio Kuala Moyogang,"GXHQ+VPR, Kosio, Kec. Dumoga Bar., Kabupaten Bolaang Mongondow, Sulawesi Utara","Kabupaten Bolaang Mongondow, Sulawesi Utara",SULAWESI UTARA,,Indonesia,82291736976.0,,,0.5297257,123.9892654,https://maps.google.com/?cid=0x0:0xa39c8a26679baa29,
cafe,Komplek perumahan,Rumah Glen,"FCGV+HQP, Posilagon, Kec. Pinolosian Tim., Kabupaten Bolaang Mongondow Selatan, Sulawesi Utara","Kabupaten Bolaang Mongondow Selatan, Sulawesi Utara",SULAWESI UTARA,,Indonesia,,,,0.4757466,124.4439128,https://maps.google.com/?cid=0x0:0x1baf26bf5868b0c5,
cafe,cafe,Sulawesi Utara 95775,"Modisi, Kec. Pinolosian Tim., Kabupaten Bolaang Mongondow Selatan, Sulawesi Utara","Kabupaten Bolaang Mongondow Selatan, Sulawesi Utara",SULAWESI UTARA,,Indonesia,,,,0.4528494,124.4356892,https://maps.google.com/?cid=0x0:0x5956b774c20081f1,
cafe,Toko Makanan,Perspektif Coffee,"Pinolosian, Kec. Pinolosian, Kabupaten Bolaang Mongondow Selatan, Sulawesi Utara 95775","Kec. Pinolosian, Kabupaten Bolaang Mongondow Selatan",SULAWESI UTARA,95775.0,Indonesia,82344100880.0,,,0.3968473,124.1143791,https://maps.google.com/?cid=0x0:0x63b4aee4e1c1dc8e,
cafe,Restoran,D'philocoffee,"W74F+JCC, Kuala, Kec. Kaidipang, Kabupaten Bolaang Mongondow Utara, Sulawesi Utara","Kabupaten Bolaang Mongondow Utara, Sulawesi Utara",SULAWESI UTARA,,Indonesia,,,,0.9065577,123.2735035,https://maps.google.com/?cid=0x0:0x70991c658bddced6,
cafe,Kafe,Cafe Pootan Jci Bianconeri Kosio Kuala Moyogang,"GXHQ+VPR, Kosio, Kec. Dumoga Bar., Kabupaten Bolaang Mongondow, Sulawesi Utara","Kabupaten Bolaang Mongondow, Sulawesi Utara",SULAWESI UTARA,,Indonesia,82291736976.0,,,0.5297257,123.9892654,https://maps.google.com/?cid=0x0:0xa39c8a26679baa29,
cafe,Kedai Kopi,Nadhifa papping,"93RX+FFF, Linawan I, Kec. Pinolosian, Kabupaten Bolaang Mongondow Selatan, Sulawesi Utara","Kabupaten Bolaang Mongondow Selatan, Sulawesi Utara",SULAWESI UTARA,,Indonesia,81524055376.0,,,0.391186,124.0986776,https://maps.google.com/?cid=0x0:0x9d8ff17eab4c75de,
cafe,Komplek perumahan,Rumah Glen,"FCGV+HQP, Posilagon, Kec. Pinolosian Tim., Kabupaten Bolaang Mongondow Selatan, Sulawesi Utara","Kabupaten Bolaang Mongondow Selatan, Sulawesi Utara",SULAWESI UTARA,,Indonesia,,,,0.4757466,124.4439128,https://maps.google.com/?cid=0x0:0x1baf26bf5868b0c5,
cafe,cafe,Kec. Pinolosian Tengah,"Kabupaten Bolaang Mongondow Selatan, Sulawesi Utara","Kabupaten Bolaang Mongondow Selatan, Sulawesi Utara",SULAWESI UTARA,,Indonesia,,,,0.4814411,124.2643871,https://maps.google.com/?cid=0x0:0x202271dfbca50638,
cafe,Es Krim,Kantin Ne Fika',"Dusun II, Dumagin B, Kec. Pinolosian Tim., Kabupaten Bolaang Mongondow Selatan, Sulawesi Utara 95775","Dumagin B, Kec. Pinolosian Tim., Kabupaten Bolaang Mongondow Selatan",SULAWESI UTARA,95775.0,Indonesia,85757153215.0,,,0.4618291,124.3807297,https://maps.google.com/?cid=0x0:0xf73dbc9f8f3167e5,
cafe,cafe,Sulawesi Utara 95775,"Modisi, Kec. Pinolosian Tim., Kabupaten Bolaang Mongondow Selatan, Sulawesi Utara","Kabupaten Bolaang Mongondow Selatan, Sulawesi Utara",SULAWESI UTARA,,Indonesia,,,,0.4528494,124.4356892,https://maps.google.com/?cid=0x0:0x5956b774c20081f1,
cafe,Indonesia,Cafe Naton,"QJPF+G9P, Jl. Trans Sulawesi Lkr. Sel., Kayumoyondi, Kec. Tutuyan, Kabupaten Bolaang Mongondow Timur, Sulawesi Utara","Kabupaten Bolaang Mongondow Timur, Sulawesi Utara",SULAWESI UTARA,,Indonesia,,,,0.7863427,124.6234479,https://maps.google.com/?cid=0x0:0xcdba696a63a471ff,
cafe,Toko Makanan,Perspektif Coffee,"Pinolosian, Kec. Pinolosian, Kabupaten Bolaang Mongondow Selatan, Sulawesi Utara 95775","Kec. Pinolosian, Kabupaten Bolaang Mongondow Selatan",SULAWESI UTARA,95775.0,Indonesia,82344100880.0,,,0.3968473,124.1143791,https://maps.google.com/?cid=0x0:0x63b4aee4e1c1dc8e,
cafe,Restoran,D'philocoffee,"W74F+JCC, Kuala, Kec. Kaidipang, Kabupaten Bolaang Mongondow Utara, Sulawesi Utara","Kabupaten Bolaang Mongondow Utara, Sulawesi Utara",SULAWESI UTARA,,Indonesia,,,,0.9065577,123.2735035,https://maps.google.com/?cid=0x0:0x70991c658bddced6,
cafe,Kedai Kopi,DasengCoffee,"94RC+WWM, Pinolosian Sel., Kec. Pinolosian, Kabupaten Bolaang Mongondow Selatan, Sulawesi Utara","Kabupaten Bolaang Mongondow Selatan, Sulawesi Utara",SULAWESI UTARA,,Indonesia,,,,0.3923283,124.1222826,https://maps.google.com/?cid=0x0:0x2b4d48473733bf11,
cafe,Kafe,Cafe Pootan Jci Bianconeri Kosio Kuala Moyogang,"GXHQ+VPR, Kosio, Kec. Dumoga Bar., Kabupaten Bolaang Mongondow, Sulawesi Utara","Kabupaten Bolaang Mongondow, Sulawesi Utara",SULAWESI UTARA,,Indonesia,82291736976.0,,,0.5297257,123.9892654,https://maps.google.com/?cid=0x0:0xa39c8a26679baa29,
cafe,Grosir Kopi,Mobalang Coffee Plantation,"J8XW+V3V, Bongkudai, Kec. Modayag Bar., Kabupaten Bolaang Mongondow Timur, Sulawesi Utara","Kabupaten Bolaang Mongondow Timur, Sulawesi Utara",SULAWESI UTARA,,Indonesia,,,,0.6497257,124.3451684,https://maps.google.com/?cid=0x0:0x3d14795fee101bb0,
cafe,cafe,Sulawesi Utara 95774,"Momalia I, Kec. Posigadan, Kabupaten Bolaang Mongondow Selatan, Sulawesi Utara","Kabupaten Bolaang Mongondow Selatan, Sulawesi Utara",SULAWESI UTARA,,Indonesia,,,,0.3179007,123.5774024,https://maps.google.com/?cid=0x0:0xe8ed2e820dc45687,
cafe,Kedai Kopi,Kedai Sudut Desa,"8HCG+6JP, Momalia I, Kec. Posigadan, Kabupaten Bolaang Mongondow Selatan, Sulawesi Utara","Kabupaten Bolaang Mongondow Selatan, Sulawesi Utara",SULAWESI UTARA,,Indonesia,82311642927.0,,,0.3205942,123.5765929,https://maps.google.com/?cid=0x0:0x1e2c7cd9a0cfb40e,
cafe,Kedai Kopi,Kedai cofee NurulHuda,"8HFG+473, Momalia I, Kec. Posigadan, Kabupaten Bolaang Mongondow Selatan, Sulawesi Utara","Kabupaten Bolaang Mongondow Selatan, Sulawesi Utara",SULAWESI UTARA,,Indonesia,82271541931.0,,,0.3226441,123.5757672,https://maps.google.com/?cid=0x0:0xe20641d73817eec5,
cafe,Kedai Kopi,LEPUT COFFEE MINIMART,"8GC9+F5M, Saibuah, Kec. Posigadan, Kabupaten Bolaang Mongondow Selatan, Sulawesi Utara","Kabupaten Bolaang Mongondow Selatan, Sulawesi Utara",SULAWESI UTARA,,Indonesia,,,,0.3203986,123.5192385,https://maps.google.com/?cid=0x0:0x634bc0d74782d05b,
cafe,Restoran,warkop Althira Coffe,"Jl. Trans Sulawesi, Milangodaa, Kec. Posigadan, Kabupaten Bolaang Mongondow Selatan, Sulawesi Utara 95000","Milangodaa, Kec. Posigadan, Kabupaten Bolaang Mongondow Selatan",SULAWESI UTARA,95000.0,Indonesia,82217461282.0,,,0.3220739,123.7254208,https://maps.google.com/?cid=0x0:0x109920e2f2b4b002,
cafe,Toko Makanan,Perspektif Coffee,"Pinolosian, Kec. Pinolosian, Kabupaten Bolaang Mongondow Selatan, Sulawesi Utara 95775","Kec. Pinolosian, Kabupaten Bolaang Mongondow Selatan",SULAWESI UTARA,95775.0,Indonesia,82344100880.0,,,0.3968473,124.1143791,https://maps.google.com/?cid=0x0:0x63b4aee4e1c1dc8e,
cafe,Kedai Kopi,Waroenk Sisyan,"8GC9+F49, Saibuah, Kec. Posigadan, Kabupaten Bolaang Mongondow Selatan, Sulawesi Utara","Kabupaten Bolaang Mongondow Selatan, Sulawesi Utara",SULAWESI UTARA,,Indonesia,,,,0.3213505,123.518712,https://maps.google.com/?cid=0x0:0x71a0e0a5c84441bc,
cafe,cafe,Rumah makan,"Desa, tolondadu, Kec. Posigadan, Kabupaten Bolaang Mongondow Selatan, Sulawesi Utara 95774","tolondadu, Kec. Posigadan, Kabupaten Bolaang Mongondow Selatan",SULAWESI UTARA,95774.0,Indonesia,81543127292.0,,,0.3178394,123.577342,https://maps.google.com/?cid=0x0:0x468576a915d89986,
cafe,Kedai Kopi,Warkop Rasa(Rafel Saira),"3, Momalia I, Kec. Posigadan, Kabupaten Bolaang Mongondow Selatan, Sulawesi Utara","Kabupaten Bolaang Mongondow Selatan, Sulawesi Utara",SULAWESI UTARA,,Indonesia,,,,0.3184949,123.578635,https://maps.google.com/?cid=0x0:0xa25527513c7972ff,
cafe,cafe,Warkop Davia,"8H9H+H4P, Jl. Trans Sulawesi, Momalia I, Kec. Posigadan, Kabupaten Bolaang Mongondow Selatan, Sulawesi Utara","Kabupaten Bolaang Mongondow Selatan, Sulawesi Utara",SULAWESI UTARA,,Indonesia,,,,0.3189706,123.577824,https://maps.google.com/?cid=0x0:0x345733c939e0b7fb,
