Category,Real Category,Business Name,Address,City,State,Postal Code,Country,Phone,Email,Website,Latitude,Longitude,Map Link,Details Link
hotel,hotel,Kalimantan Tengah 74664,"Kabupaten Lamandau, Kalimantan Tengah","Kabupaten Lamandau, Kalimantan Tengah",KALIMANTAN TENGAH,,Indonesia,,,,-1.6722405,111.1414226,https://maps.google.com/?cid=0x0:0x2e393b90c2443400,
hotel,hotel,Luwansa Hotel Palangka Raya,"Jl. G. Obos No.102, Menteng, Kec. Jekan Raya, Kota Palangka Raya, Kalimantan Tengah 73112","Menteng, Kec. Jekan Raya, Kota Palangka Raya",KALIMANTAN TENGAH,73112.0,Indonesia,8115028280.0,,,-2.2259962,113.8996099,https://maps.google.com/?cid=0x0:0x7a4a991765d151de,
hotel,hotel,,,,KALIMANTAN TENGAH,,Indonesia,,,,,,https://maps.google.com/?cid=0x0:0x7a4a991765d151de%7C/g/1pzs4zfvj%7Cen-ID,
hotel,hotel,,,,KALIMANTAN TENGAH,,Indonesia,,,,,,https://maps.google.com/?cid=0x0:0x2c02323fb8c8a499%7C/g/11rq9lhmhq%7Cen-ID,
hotel,hotel,OYO 92767 Losmen Griya Mulia Katingan Kuala,"62 Pegatan Hilir, Kalimantan Tengah, Indonesia Katingan River, Central Kalimantan 74463","Kalimantan Tengah, Indonesia Katingan River",KALIMANTAN TENGAH,74463.0,Indonesia,2129707601.0,,,-3.2734579,113.3418856,https://maps.google.com/?cid=0x0:0xb92720c38de65f62,
hotel,hotel,Hotel Yanti,"Jl. Ahmad Yani No.82-A, Pahandut, Kec. Pahandut, Kota Palangka Raya, Kalimantan Tengah 74874","Pahandut, Kec. Pahandut, Kota Palangka Raya",KALIMANTAN TENGAH,74874.0,Indonesia,85377066263.0,,,-2.2097602,113.9373026,https://maps.google.com/?cid=0x0:0x1303d6fff30b61f6,
hotel,hotel,Losmen Karunia,"P8HQ+WQR, Pegatan Hilir, Kec. Katingan Kuala, Kabupaten Katingan, Kalimantan Tengah 74463","Pegatan Hilir, Kec. Katingan Kuala, Kabupaten Katingan",KALIMANTAN TENGAH,74463.0,Indonesia,,,,-3.2701382,113.3393974,https://maps.google.com/?cid=0x0:0xce3d4ec99c2b7e05,
hotel,hotel,Hotel YUS,"Jalan Kalikasa, Parenggean, Kec. Parenggean, Kabupaten Kotawaringin Timur, Kalimantan Tengah","Kabupaten Kotawaringin Timur, Kalimantan Tengah",KALIMANTAN TENGAH,,Indonesia,82324360707.0,,,-2.0154695,112.7826059,https://maps.google.com/?cid=0x0:0x3d6ad29ab9a2eb0d,
hotel,hotel,Hotel Mahkota Budi,"Jl. Setia Yakin No.RT 07, Mendawai, Kec. Sukamara, Kabupaten Sukamara, Kalimantan Tengah 74172","Mendawai, Kec. Sukamara, Kabupaten Sukamara",KALIMANTAN TENGAH,74172.0,Indonesia,81228378378.0,,,-2.7083672,111.1701359,https://maps.google.com/?cid=0x0:0xdb52d8cfe2b77fc5,
hotel,Rumah wisata,Losmen A'AN,"92XQ+V24, Kudangan, Kec. Delang, Kabupaten Lamandau, Kalimantan Tengah 74664","Kudangan, Kec. Delang, Kabupaten Lamandau",KALIMANTAN TENGAH,74664.0,Indonesia,81352746807.0,,,-1.6003557,111.0375872,https://maps.google.com/?cid=0x0:0xa51bb63b9ffa53b,
hotel,Hostel,Penginapan Putri Septiya Taman Garu,"Dekat, Jl. Lintas Kalimantan, Kawa, Kec. Lamandau, Kabupaten Lamandau, Kalimantan Tengah 74663","Jl. Lintas Kalimantan, Kawa, Kec. Lamandau, Kabupaten Lamandau",KALIMANTAN TENGAH,74663.0,Indonesia,85249544442.0,,,-1.8762693,111.1143848,https://maps.google.com/?cid=0x0:0xcb64807364d6d4f1,
hotel,hotel,Kalimantan Tengah 74663,"Kabupaten Lamandau, Kalimantan Tengah","Kabupaten Lamandau, Kalimantan Tengah",KALIMANTAN TENGAH,,Indonesia,,,,-1.9269166,111.1891151,https://maps.google.com/?cid=0x0:0xddd786c27266b53a,
hotel,Hostel,Penginapan Putri Septiya Taman Garu,"Dekat, Jl. Lintas Kalimantan, Kawa, Kec. Lamandau, Kabupaten Lamandau, Kalimantan Tengah 74663","Jl. Lintas Kalimantan, Kawa, Kec. Lamandau, Kabupaten Lamandau",KALIMANTAN TENGAH,74663.0,Indonesia,85249544442.0,,,-1.8762693,111.1143848,https://maps.google.com/?cid=0x0:0xcb64807364d6d4f1,
hotel,Hotel,Tita Resto  Hotel,"RC7Q+P4W, Nanga Bulik, Kec. Bulik, Kabupaten Lamandau, Kalimantan Tengah 74161","Nanga Bulik, Kec. Bulik, Kabupaten Lamandau",KALIMANTAN TENGAH,74161.0,Indonesia,82149545900.0,,,-2.1856481,111.4378436,https://maps.google.com/?cid=0x0:0x9da2fd5e519fb0fb,
hotel,Pondok,Penginapan Duta Permata,"3FVM+RM6, Bukit Jaya, Kec. Bulik Tim., Kabupaten Lamandau, Kalimantan Tengah 74162","Bukit Jaya, Kec. Bulik Tim., Kabupaten Lamandau",KALIMANTAN TENGAH,74162.0,Indonesia,,,,-1.9054582,111.484086,https://maps.google.com/?cid=0x0:0x5b2b5d9929ea5d64,
hotel,hotel,Kalimantan Tengah 74162,"Kabupaten Lamandau, Kalimantan Tengah","Kabupaten Lamandau, Kalimantan Tengah",KALIMANTAN TENGAH,,Indonesia,,,,-1.7404903,111.5229817,https://maps.google.com/?cid=0x0:0xcbde8a77875b152b,
hotel,Guest house,Hotel Putri Tunggal Lamandau,"Nanga Bulik, Kec. Bulik, Kabupaten Lamandau, Kalimantan Tengah 74161","Kec. Bulik, Kabupaten Lamandau",KALIMANTAN TENGAH,74161.0,Indonesia,85845021932.0,,,-2.1820998,111.4535311,https://maps.google.com/?cid=0x0:0xab839e88d92b9113,
hotel,Hotel,Tita Resto  Hotel,"RC7Q+P4W, Nanga Bulik, Kec. Bulik, Kabupaten Lamandau, Kalimantan Tengah 74161","Nanga Bulik, Kec. Bulik, Kabupaten Lamandau",KALIMANTAN TENGAH,74161.0,Indonesia,82149545900.0,,,-2.1856481,111.4378436,https://maps.google.com/?cid=0x0:0x9da2fd5e519fb0fb,
hotel,Hotel,Penginapan Putra Lamandau,"Jl. Nanga Bulik, Nanga Bulik, Kec. Bulik, Kabupaten Lamandau, Kalimantan Tengah 74161","Nanga Bulik, Kec. Bulik, Kabupaten Lamandau",KALIMANTAN TENGAH,74161.0,Indonesia,81226273169.0,,,-2.1768974,111.4441675,https://maps.google.com/?cid=0x0:0xc1bc592043ea76f7,
hotel,Hotel,Penginapan Divi,"3FVM+VGX, Tim.,, Bukit Jaya, Kec. Bulik Tim., Kabupaten Lamandau, Kalimantan Tengah 74162","Tim.,, Bukit Jaya, Kec. Bulik Tim., Kabupaten Lamandau",KALIMANTAN TENGAH,74162.0,Indonesia,82120411140.0,,,-1.9052584,111.4838609,https://maps.google.com/?cid=0x0:0x8275be115f276be,
hotel,Hotel,Penginapan Borneo Syariah 2,"RFC5+6Q6, Nanga Bulik, Kec. Bulik, Kabupaten Lamandau, Kalimantan Tengah 74161","Nanga Bulik, Kec. Bulik, Kabupaten Lamandau",KALIMANTAN TENGAH,74161.0,Indonesia,,,,-2.1792101,111.4591865,https://maps.google.com/?cid=0x0:0x23598a6a8ecca9b8,
hotel,Guest house,Losmen Lamandau,"RFF7+5VJ, Nanga Bulik, Kec. Bulik, Kabupaten Lamandau, Kalimantan Tengah 74161","Nanga Bulik, Kec. Bulik, Kabupaten Lamandau",KALIMANTAN TENGAH,74161.0,Indonesia,81296856321.0,,,-2.1770314,111.4646294,https://maps.google.com/?cid=0x0:0x7e51910330caa557,
hotel,Pondok,Penginapan Duta Permata,"3FVM+RM6, Bukit Jaya, Kec. Bulik Tim., Kabupaten Lamandau, Kalimantan Tengah 74162","Bukit Jaya, Kec. Bulik Tim., Kabupaten Lamandau",KALIMANTAN TENGAH,74162.0,Indonesia,,,,-1.9054582,111.484086,https://maps.google.com/?cid=0x0:0x5b2b5d9929ea5d64,
hotel,Hotel,Losmen Putri Tunggal,"RFC7+7R6, Unnamed Rd, Nanga Bulik, Bulik, Nanga Bulik, Kec. Bulik, Kabupaten Lamandau, Kalimantan Tengah 74161","Unnamed Rd, Nanga Bulik, Bulik, Nanga Bulik, Kec. Bulik, Kabupaten Lamandau",KALIMANTAN TENGAH,74161.0,Indonesia,81254115253.0,,,-2.1793368,111.4645188,https://maps.google.com/?cid=0x0:0x6f8cca61455e62b7,
hotel,Hotel,Losmen Pak Djon Syari'ah,"RF95+767, Jl. Batu Betanggui, Kel.Nanga Bulik, Kec. Bulik, Nanga Bulik, Lamandau, Kabupaten Lamandau, Kalimantan Tengah 74162","Jl. Batu Betanggui, Kel.Nanga Bulik, Kec. Bulik, Nanga Bulik, Lamandau, Kabupaten Lamandau",KALIMANTAN TENGAH,74162.0,Indonesia,,,,-2.1818426,111.4580513,https://maps.google.com/?cid=0x0:0x530e673ae181f483,
hotel,Hotel,Penginapan Sari Joglo,"RC4V+4RV, Nanga Bulik, Kec. Bulik, Kabupaten Lamandau, Kalimantan Tengah","Kabupaten Lamandau, Kalimantan Tengah",KALIMANTAN TENGAH,,Indonesia,,,,-2.1946281,111.444561,https://maps.google.com/?cid=0x0:0x795f9bb027ad5bd4,
hotel,Losmen,Losmen Purnama Riya,"Jl. JC Rangkap No.66, Nanga Bulik, Kec. Bulik, Kabupaten Lamandau, Kalimantan Tengah 74161","Nanga Bulik, Kec. Bulik, Kabupaten Lamandau",KALIMANTAN TENGAH,74161.0,Indonesia,,,,-2.1797222,111.4669722,https://maps.google.com/?cid=0x0:0xdfd7a2fd9b19c115,
hotel,Hotel,Penginapan Syariah Dita Borneo Travel,"Rt.04 Jl. Batu Batanggui No.133, Nanga Bulik, Bulik, Lamandau Regency, Central Kalimantan 74161","Nanga Bulik, Bulik, Lamandau Regency",KALIMANTAN TENGAH,74161.0,Indonesia,82149109474.0,,,-2.185722,111.4448641,https://maps.google.com/?cid=0x0:0x9c667640fe0ae034,
hotel,Hotel,Losmen Mama Mia,"Jalan Batu Batanggui, RT. 04 Bulik, Nanga Bulik, Lamandau, Kabupaten Lamandau, Kalimantan Tengah 74161","RT. 04 Bulik, Nanga Bulik, Lamandau, Kabupaten Lamandau",KALIMANTAN TENGAH,74161.0,Indonesia,82353204312.0,,,-2.1810044,111.4596586,https://maps.google.com/?cid=0x0:0xbdf2dd34e5bb5e30,
hotel,Bed >>u0026 Breakfast,Losmen Purnama Sari (syariah),"Losmen Purnama Sari (Syariah, Nanga Bulik, Kec. Bulik, Kabupaten Lamandau, Kalimantan Tengah 74161","Nanga Bulik, Kec. Bulik, Kabupaten Lamandau",KALIMANTAN TENGAH,74161.0,Indonesia,81348063667.0,,,-2.177646,111.4643885,https://maps.google.com/?cid=0x0:0x32415b359ce3726c,
hotel,Hotel,Penginapan Nanang Rano,"Jl. Ahmad Yani, Nanga Bulik, Kec. Bulik, Kabupaten Lamandau, Kalimantan Tengah 74162","Nanga Bulik, Kec. Bulik, Kabupaten Lamandau",KALIMANTAN TENGAH,74162.0,Indonesia,85246674609.0,,,-2.1992276,111.411287,https://maps.google.com/?cid=0x0:0xd5592fb79e902be0,
hotel,Hotel,Losmen Samudra,"Jl. JC Rangkap No.66, Nanga Bulik, Kec. Bulik, Kabupaten Lamandau, Kalimantan Tengah 74161","Nanga Bulik, Kec. Bulik, Kabupaten Lamandau",KALIMANTAN TENGAH,74161.0,Indonesia,82155810060.0,,,-2.1801904,111.4671524,https://maps.google.com/?cid=0x0:0xc57488d0c4cc1714,
hotel,hotel,Grand Kecubung Hotel,"Jl. Domba No.1, Mendawai, Kec. Arut Sel., Kabupaten Kotawaringin Barat, Kalimantan Tengah 74111","Mendawai, Kec. Arut Sel., Kabupaten Kotawaringin Barat",KALIMANTAN TENGAH,74111.0,Indonesia,53221211.0,,,-2.6826532,111.6284893,https://maps.google.com/?cid=0x0:0x68616a53d30d305,
hotel,hotel,,,,KALIMANTAN TENGAH,,Indonesia,,,,,,https://maps.google.com/?cid=0x0:0x68616a53d30d305%7C/g/12hldxk9j%7Cen-ID,
hotel,hotel,Hotel Mahkota Budi,"Jl. Setia Yakin No.RT 07, Mendawai, Kec. Sukamara, Kabupaten Sukamara, Kalimantan Tengah 74172","Mendawai, Kec. Sukamara, Kabupaten Sukamara",KALIMANTAN TENGAH,74172.0,Indonesia,81228378378.0,,,-2.7083672,111.1701359,https://maps.google.com/?cid=0x0:0xdb52d8cfe2b77fc5,
hotel,hotel,Brits Hotel Pangkalan Bun,"Jl. Ahmad Yani No.Km 2, Baru, Kec. Arut Sel., Kabupaten Kotawaringin Barat, Kalimantan Tengah 74112","Baru, Kec. Arut Sel., Kabupaten Kotawaringin Barat",KALIMANTAN TENGAH,74112.0,Indonesia,8115258100.0,,,-2.6679579,111.6490151,https://maps.google.com/?cid=0x0:0x850121623170336b,
hotel,hotel,Kalimantan Tengah 74611,"Kec. Bulik, Kabupaten Lamandau, Kalimantan Tengah","Kabupaten Lamandau, Kalimantan Tengah",KALIMANTAN TENGAH,,Indonesia,,,,-2.0058667,111.4395128,https://maps.google.com/?cid=0x0:0xb6c8a0a464bd3c0c,
hotel,Guest house,Hotel Putri Tunggal Lamandau,"Nanga Bulik, Kec. Bulik, Kabupaten Lamandau, Kalimantan Tengah 74161","Kec. Bulik, Kabupaten Lamandau",KALIMANTAN TENGAH,74161.0,Indonesia,85845021932.0,,,-2.1820998,111.4535311,https://maps.google.com/?cid=0x0:0xab839e88d92b9113,
hotel,Hotel,Tita Resto  Hotel,"RC7Q+P4W, Nanga Bulik, Kec. Bulik, Kabupaten Lamandau, Kalimantan Tengah 74161","Nanga Bulik, Kec. Bulik, Kabupaten Lamandau",KALIMANTAN TENGAH,74161.0,Indonesia,82149545900.0,,,-2.1856481,111.4378436,https://maps.google.com/?cid=0x0:0x9da2fd5e519fb0fb,
hotel,Hotel,Penginapan Sari Joglo,"RC4V+4RV, Nanga Bulik, Kec. Bulik, Kabupaten Lamandau, Kalimantan Tengah","Kabupaten Lamandau, Kalimantan Tengah",KALIMANTAN TENGAH,,Indonesia,,,,-2.1946281,111.444561,https://maps.google.com/?cid=0x0:0x795f9bb027ad5bd4,
hotel,Hotel,Losmen Putri Tunggal,"RFC7+7R6, Unnamed Rd, Nanga Bulik, Bulik, Nanga Bulik, Kec. Bulik, Kabupaten Lamandau, Kalimantan Tengah 74161","Unnamed Rd, Nanga Bulik, Bulik, Nanga Bulik, Kec. Bulik, Kabupaten Lamandau",KALIMANTAN TENGAH,74161.0,Indonesia,81254115253.0,,,-2.1793368,111.4645188,https://maps.google.com/?cid=0x0:0x6f8cca61455e62b7,
hotel,Hotel,Penginapan Borneo Syariah 2,"RFC5+6Q6, Nanga Bulik, Kec. Bulik, Kabupaten Lamandau, Kalimantan Tengah 74161","Nanga Bulik, Kec. Bulik, Kabupaten Lamandau",KALIMANTAN TENGAH,74161.0,Indonesia,,,,-2.1792101,111.4591865,https://maps.google.com/?cid=0x0:0x23598a6a8ecca9b8,
hotel,Hotel,SIPO Guest House,"Jl. Ahmad Yani No.RT.12, Nanga Bulik, Kec. Bulik, Kabupaten Lamandau, Kalimantan Tengah 74162","Nanga Bulik, Kec. Bulik, Kabupaten Lamandau",KALIMANTAN TENGAH,74162.0,Indonesia,85252630860.0,,,-2.1777092,111.435072,https://maps.google.com/?cid=0x0:0x70b1fdb744fe1076,
hotel,Guest house,Losmen Lamandau,"RFF7+5VJ, Nanga Bulik, Kec. Bulik, Kabupaten Lamandau, Kalimantan Tengah 74161","Nanga Bulik, Kec. Bulik, Kabupaten Lamandau",KALIMANTAN TENGAH,74161.0,Indonesia,81296856321.0,,,-2.1770314,111.4646294,https://maps.google.com/?cid=0x0:0x7e51910330caa557,
hotel,Hotel,Losmen Mama Mia,"Jalan Batu Batanggui, RT. 04 Bulik, Nanga Bulik, Lamandau, Kabupaten Lamandau, Kalimantan Tengah 74161","RT. 04 Bulik, Nanga Bulik, Lamandau, Kabupaten Lamandau",KALIMANTAN TENGAH,74161.0,Indonesia,82353204312.0,,,-2.1810044,111.4596586,https://maps.google.com/?cid=0x0:0xbdf2dd34e5bb5e30,
hotel,Losmen,Losmen Purnama Riya,"Jl. JC Rangkap No.66, Nanga Bulik, Kec. Bulik, Kabupaten Lamandau, Kalimantan Tengah 74161","Nanga Bulik, Kec. Bulik, Kabupaten Lamandau",KALIMANTAN TENGAH,74161.0,Indonesia,,,,-2.1797222,111.4669722,https://maps.google.com/?cid=0x0:0xdfd7a2fd9b19c115,
hotel,Bed >>u0026 Breakfast,Losmen Purnama Sari (syariah),"Losmen Purnama Sari (Syariah, Nanga Bulik, Kec. Bulik, Kabupaten Lamandau, Kalimantan Tengah 74161","Nanga Bulik, Kec. Bulik, Kabupaten Lamandau",KALIMANTAN TENGAH,74161.0,Indonesia,81348063667.0,,,-2.177646,111.4643885,https://maps.google.com/?cid=0x0:0x32415b359ce3726c,
hotel,Hotel,Penginapan Nanang Rano,"Jl. Ahmad Yani, Nanga Bulik, Kec. Bulik, Kabupaten Lamandau, Kalimantan Tengah 74162","Nanga Bulik, Kec. Bulik, Kabupaten Lamandau",KALIMANTAN TENGAH,74162.0,Indonesia,85246674609.0,,,-2.1992276,111.411287,https://maps.google.com/?cid=0x0:0xd5592fb79e902be0,
hotel,Hotel,Losmen Pak Djon Syari'ah,"RF95+767, Jl. Batu Betanggui, Kel.Nanga Bulik, Kec. Bulik, Nanga Bulik, Lamandau, Kabupaten Lamandau, Kalimantan Tengah 74162","Jl. Batu Betanggui, Kel.Nanga Bulik, Kec. Bulik, Nanga Bulik, Lamandau, Kabupaten Lamandau",KALIMANTAN TENGAH,74162.0,Indonesia,,,,-2.1818426,111.4580513,https://maps.google.com/?cid=0x0:0x530e673ae181f483,
hotel,Hotel,MELONA INN,"RC9X+J33, Jl. Melati IV, Nanga Bulik, Kec. Bulik, Kabupaten Lamandau, Kalimantan Tengah 74161","Jl. Melati IV, Nanga Bulik, Kec. Bulik, Kabupaten Lamandau",KALIMANTAN TENGAH,74161.0,Indonesia,82155047432.0,,,-2.1809779,111.4476749,https://maps.google.com/?cid=0x0:0x2e65f69baab153eb,
hotel,Hotel,HOTEL SAMALIBA,"Nanga Bulik, Kec. Bulik, Kabupaten Lamandau, Kalimantan Tengah 74161","Kec. Bulik, Kabupaten Lamandau",KALIMANTAN TENGAH,74161.0,Indonesia,,,,-2.176998,111.4449769,https://maps.google.com/?cid=0x0:0xfde27d04edb98e9b,
hotel,hotel,Kalimantan Tengah 74612,"Kec. Bulik, Kabupaten Lamandau, Kalimantan Tengah","Kabupaten Lamandau, Kalimantan Tengah",KALIMANTAN TENGAH,,Indonesia,,,,-2.0421323,111.463361,https://maps.google.com/?cid=0x0:0xc38ed0bb98a86bd0,
hotel,Guest house,Hotel Putri Tunggal Lamandau,"Nanga Bulik, Kec. Bulik, Kabupaten Lamandau, Kalimantan Tengah 74161","Kec. Bulik, Kabupaten Lamandau",KALIMANTAN TENGAH,74161.0,Indonesia,85845021932.0,,,-2.1820998,111.4535311,https://maps.google.com/?cid=0x0:0xab839e88d92b9113,
hotel,Hotel,Tita Resto  Hotel,"RC7Q+P4W, Nanga Bulik, Kec. Bulik, Kabupaten Lamandau, Kalimantan Tengah 74161","Nanga Bulik, Kec. Bulik, Kabupaten Lamandau",KALIMANTAN TENGAH,74161.0,Indonesia,82149545900.0,,,-2.1856481,111.4378436,https://maps.google.com/?cid=0x0:0x9da2fd5e519fb0fb,
hotel,Hotel,Penginapan Sari Joglo,"RC4V+4RV, Nanga Bulik, Kec. Bulik, Kabupaten Lamandau, Kalimantan Tengah","Kabupaten Lamandau, Kalimantan Tengah",KALIMANTAN TENGAH,,Indonesia,,,,-2.1946281,111.444561,https://maps.google.com/?cid=0x0:0x795f9bb027ad5bd4,
hotel,Hotel,SIPO Guest House,"Jl. Ahmad Yani No.RT.12, Nanga Bulik, Kec. Bulik, Kabupaten Lamandau, Kalimantan Tengah 74162","Nanga Bulik, Kec. Bulik, Kabupaten Lamandau",KALIMANTAN TENGAH,74162.0,Indonesia,85252630860.0,,,-2.1777092,111.435072,https://maps.google.com/?cid=0x0:0x70b1fdb744fe1076,
hotel,Hotel,Penginapan Borneo Syariah 2,"RFC5+6Q6, Nanga Bulik, Kec. Bulik, Kabupaten Lamandau, Kalimantan Tengah 74161","Nanga Bulik, Kec. Bulik, Kabupaten Lamandau",KALIMANTAN TENGAH,74161.0,Indonesia,,,,-2.1792101,111.4591865,https://maps.google.com/?cid=0x0:0x23598a6a8ecca9b8,
hotel,Hotel,Losmen Putri Tunggal,"RFC7+7R6, Unnamed Rd, Nanga Bulik, Bulik, Nanga Bulik, Kec. Bulik, Kabupaten Lamandau, Kalimantan Tengah 74161","Unnamed Rd, Nanga Bulik, Bulik, Nanga Bulik, Kec. Bulik, Kabupaten Lamandau",KALIMANTAN TENGAH,74161.0,Indonesia,81254115253.0,,,-2.1793368,111.4645188,https://maps.google.com/?cid=0x0:0x6f8cca61455e62b7,
hotel,Guest house,Losmen Lamandau,"RFF7+5VJ, Nanga Bulik, Kec. Bulik, Kabupaten Lamandau, Kalimantan Tengah 74161","Nanga Bulik, Kec. Bulik, Kabupaten Lamandau",KALIMANTAN TENGAH,74161.0,Indonesia,81296856321.0,,,-2.1770314,111.4646294,https://maps.google.com/?cid=0x0:0x7e51910330caa557,
hotel,Hotel,Losmen Mama Mia,"Jalan Batu Batanggui, RT. 04 Bulik, Nanga Bulik, Lamandau, Kabupaten Lamandau, Kalimantan Tengah 74161","RT. 04 Bulik, Nanga Bulik, Lamandau, Kabupaten Lamandau",KALIMANTAN TENGAH,74161.0,Indonesia,82353204312.0,,,-2.1810044,111.4596586,https://maps.google.com/?cid=0x0:0xbdf2dd34e5bb5e30,
hotel,Bed >>u0026 Breakfast,Losmen Purnama Sari (syariah),"Losmen Purnama Sari (Syariah, Nanga Bulik, Kec. Bulik, Kabupaten Lamandau, Kalimantan Tengah 74161","Nanga Bulik, Kec. Bulik, Kabupaten Lamandau",KALIMANTAN TENGAH,74161.0,Indonesia,81348063667.0,,,-2.177646,111.4643885,https://maps.google.com/?cid=0x0:0x32415b359ce3726c,
hotel,Losmen,Losmen Purnama Riya,"Jl. JC Rangkap No.66, Nanga Bulik, Kec. Bulik, Kabupaten Lamandau, Kalimantan Tengah 74161","Nanga Bulik, Kec. Bulik, Kabupaten Lamandau",KALIMANTAN TENGAH,74161.0,Indonesia,,,,-2.1797222,111.4669722,https://maps.google.com/?cid=0x0:0xdfd7a2fd9b19c115,
hotel,Hotel,Losmen Pak Djon Syari'ah,"RF95+767, Jl. Batu Betanggui, Kel.Nanga Bulik, Kec. Bulik, Nanga Bulik, Lamandau, Kabupaten Lamandau, Kalimantan Tengah 74162","Jl. Batu Betanggui, Kel.Nanga Bulik, Kec. Bulik, Nanga Bulik, Lamandau, Kabupaten Lamandau",KALIMANTAN TENGAH,74162.0,Indonesia,,,,-2.1818426,111.4580513,https://maps.google.com/?cid=0x0:0x530e673ae181f483,
hotel,Hotel,Penginapan Nanang Rano,"Jl. Ahmad Yani, Nanga Bulik, Kec. Bulik, Kabupaten Lamandau, Kalimantan Tengah 74162","Nanga Bulik, Kec. Bulik, Kabupaten Lamandau",KALIMANTAN TENGAH,74162.0,Indonesia,85246674609.0,,,-2.1992276,111.411287,https://maps.google.com/?cid=0x0:0xd5592fb79e902be0,
hotel,Hotel,MELONA INN,"RC9X+J33, Jl. Melati IV, Nanga Bulik, Kec. Bulik, Kabupaten Lamandau, Kalimantan Tengah 74161","Jl. Melati IV, Nanga Bulik, Kec. Bulik, Kabupaten Lamandau",KALIMANTAN TENGAH,74161.0,Indonesia,82155047432.0,,,-2.1809779,111.4476749,https://maps.google.com/?cid=0x0:0x2e65f69baab153eb,
hotel,Rumah wisata,Rumah Kiyel,"RC9X+P24, Nanga Bulik, Kec. Bulik, Kabupaten Lamandau, Kalimantan Tengah 74161","Nanga Bulik, Kec. Bulik, Kabupaten Lamandau",KALIMANTAN TENGAH,74161.0,Indonesia,,,,-2.1811768,111.4482053,https://maps.google.com/?cid=0x0:0x8443ac4e4b63e61e,
hotel,Komplek perumahan,Barak P,"RCCV+7V6, Nanga Bulik, Kec. Bulik, Kabupaten Lamandau, Kalimantan Tengah","Kabupaten Lamandau, Kalimantan Tengah",KALIMANTAN TENGAH,,Indonesia,,,,-2.1793485,111.4446385,https://maps.google.com/?cid=0x0:0xdb31bf9253d7a483,
hotel,hotel,Kalimantan Tengah 74162,"Kabupaten Lamandau, Kalimantan Tengah","Kabupaten Lamandau, Kalimantan Tengah",KALIMANTAN TENGAH,,Indonesia,,,,-1.7404903,111.5229817,https://maps.google.com/?cid=0x0:0xcbde8a77875b152b,
hotel,Guest house,Hotel Putri Tunggal Lamandau,"Nanga Bulik, Kec. Bulik, Kabupaten Lamandau, Kalimantan Tengah 74161","Kec. Bulik, Kabupaten Lamandau",KALIMANTAN TENGAH,74161.0,Indonesia,85845021932.0,,,-2.1820998,111.4535311,https://maps.google.com/?cid=0x0:0xab839e88d92b9113,
hotel,Hotel,Penginapan Putra Lamandau,"Jl. Nanga Bulik, Nanga Bulik, Kec. Bulik, Kabupaten Lamandau, Kalimantan Tengah 74161","Nanga Bulik, Kec. Bulik, Kabupaten Lamandau",KALIMANTAN TENGAH,74161.0,Indonesia,81226273169.0,,,-2.1768974,111.4441675,https://maps.google.com/?cid=0x0:0xc1bc592043ea76f7,
hotel,Hotel,Penginapan Divi,"3FVM+VGX, Tim.,, Bukit Jaya, Kec. Bulik Tim., Kabupaten Lamandau, Kalimantan Tengah 74162","Tim.,, Bukit Jaya, Kec. Bulik Tim., Kabupaten Lamandau",KALIMANTAN TENGAH,74162.0,Indonesia,82120411140.0,,,-1.9052584,111.4838609,https://maps.google.com/?cid=0x0:0x8275be115f276be,
hotel,Hotel,SIPO Guest House,"Jl. Ahmad Yani No.RT.12, Nanga Bulik, Kec. Bulik, Kabupaten Lamandau, Kalimantan Tengah 74162","Nanga Bulik, Kec. Bulik, Kabupaten Lamandau",KALIMANTAN TENGAH,74162.0,Indonesia,85252630860.0,,,-2.1777092,111.435072,https://maps.google.com/?cid=0x0:0x70b1fdb744fe1076,
hotel,Hotel,Penginapan Borneo Syariah 2,"RFC5+6Q6, Nanga Bulik, Kec. Bulik, Kabupaten Lamandau, Kalimantan Tengah 74161","Nanga Bulik, Kec. Bulik, Kabupaten Lamandau",KALIMANTAN TENGAH,74161.0,Indonesia,,,,-2.1792101,111.4591865,https://maps.google.com/?cid=0x0:0x23598a6a8ecca9b8,
hotel,Hotel,Losmen Putri Tunggal,"RFC7+7R6, Unnamed Rd, Nanga Bulik, Bulik, Nanga Bulik, Kec. Bulik, Kabupaten Lamandau, Kalimantan Tengah 74161","Unnamed Rd, Nanga Bulik, Bulik, Nanga Bulik, Kec. Bulik, Kabupaten Lamandau",KALIMANTAN TENGAH,74161.0,Indonesia,81254115253.0,,,-2.1793368,111.4645188,https://maps.google.com/?cid=0x0:0x6f8cca61455e62b7,
hotel,Pondok,Penginapan Duta Permata,"3FVM+RM6, Bukit Jaya, Kec. Bulik Tim., Kabupaten Lamandau, Kalimantan Tengah 74162","Bukit Jaya, Kec. Bulik Tim., Kabupaten Lamandau",KALIMANTAN TENGAH,74162.0,Indonesia,,,,-1.9054582,111.484086,https://maps.google.com/?cid=0x0:0x5b2b5d9929ea5d64,
hotel,Guest house,Losmen Lamandau,"RFF7+5VJ, Nanga Bulik, Kec. Bulik, Kabupaten Lamandau, Kalimantan Tengah 74161","Nanga Bulik, Kec. Bulik, Kabupaten Lamandau",KALIMANTAN TENGAH,74161.0,Indonesia,81296856321.0,,,-2.1770314,111.4646294,https://maps.google.com/?cid=0x0:0x7e51910330caa557,
hotel,Hotel,Losmen Pak Djon Syari'ah,"RF95+767, Jl. Batu Betanggui, Kel.Nanga Bulik, Kec. Bulik, Nanga Bulik, Lamandau, Kabupaten Lamandau, Kalimantan Tengah 74162","Jl. Batu Betanggui, Kel.Nanga Bulik, Kec. Bulik, Nanga Bulik, Lamandau, Kabupaten Lamandau",KALIMANTAN TENGAH,74162.0,Indonesia,,,,-2.1818426,111.4580513,https://maps.google.com/?cid=0x0:0x530e673ae181f483,
hotel,Hotel,Penginapan Sari Joglo,"RC4V+4RV, Nanga Bulik, Kec. Bulik, Kabupaten Lamandau, Kalimantan Tengah","Kabupaten Lamandau, Kalimantan Tengah",KALIMANTAN TENGAH,,Indonesia,,,,-2.1946281,111.444561,https://maps.google.com/?cid=0x0:0x795f9bb027ad5bd4,
hotel,Losmen,Losmen Purnama Riya,"Jl. JC Rangkap No.66, Nanga Bulik, Kec. Bulik, Kabupaten Lamandau, Kalimantan Tengah 74161","Nanga Bulik, Kec. Bulik, Kabupaten Lamandau",KALIMANTAN TENGAH,74161.0,Indonesia,,,,-2.1797222,111.4669722,https://maps.google.com/?cid=0x0:0xdfd7a2fd9b19c115,
hotel,Bed >>u0026 Breakfast,Losmen Purnama Sari (syariah),"Losmen Purnama Sari (Syariah, Nanga Bulik, Kec. Bulik, Kabupaten Lamandau, Kalimantan Tengah 74161","Nanga Bulik, Kec. Bulik, Kabupaten Lamandau",KALIMANTAN TENGAH,74161.0,Indonesia,81348063667.0,,,-2.177646,111.4643885,https://maps.google.com/?cid=0x0:0x32415b359ce3726c,
hotel,Hotel,Losmen Mama Mia,"Jalan Batu Batanggui, RT. 04 Bulik, Nanga Bulik, Lamandau, Kabupaten Lamandau, Kalimantan Tengah 74161","RT. 04 Bulik, Nanga Bulik, Lamandau, Kabupaten Lamandau",KALIMANTAN TENGAH,74161.0,Indonesia,82353204312.0,,,-2.1810044,111.4596586,https://maps.google.com/?cid=0x0:0xbdf2dd34e5bb5e30,
hotel,Hotel,Penginapan Syariah Dita Borneo Travel,"Rt.04 Jl. Batu Batanggui No.133, Nanga Bulik, Bulik, Lamandau Regency, Central Kalimantan 74161","Nanga Bulik, Bulik, Lamandau Regency",KALIMANTAN TENGAH,74161.0,Indonesia,82149109474.0,,,-2.185722,111.4448641,https://maps.google.com/?cid=0x0:0x9c667640fe0ae034,
hotel,Hotel,Penginapan Nanang Rano,"Jl. Ahmad Yani, Nanga Bulik, Kec. Bulik, Kabupaten Lamandau, Kalimantan Tengah 74162","Nanga Bulik, Kec. Bulik, Kabupaten Lamandau",KALIMANTAN TENGAH,74162.0,Indonesia,85246674609.0,,,-2.1992276,111.411287,https://maps.google.com/?cid=0x0:0xd5592fb79e902be0,
hotel,Hotel,MELONA INN,"RC9X+J33, Jl. Melati IV, Nanga Bulik, Kec. Bulik, Kabupaten Lamandau, Kalimantan Tengah 74161","Jl. Melati IV, Nanga Bulik, Kec. Bulik, Kabupaten Lamandau",KALIMANTAN TENGAH,74161.0,Indonesia,82155047432.0,,,-2.1809779,111.4476749,https://maps.google.com/?cid=0x0:0x2e65f69baab153eb,
hotel,Rumah wisata,Wisma fayola,"RC8V+V52, Jl. Bukit Hibul Timur, Nanga Bulik, Kec. Bulik, Kabupaten Lamandau, Kalimantan Tengah 74161","Jl. Bukit Hibul Timur, Nanga Bulik, Kec. Bulik, Kabupaten Lamandau",KALIMANTAN TENGAH,74161.0,Indonesia,82154670246.0,,,-2.1828574,111.4428867,https://maps.google.com/?cid=0x0:0x112f6c3c5fa68fe3,
hotel,Hotel,Losmen Samudra,"Jl. JC Rangkap No.66, Nanga Bulik, Kec. Bulik, Kabupaten Lamandau, Kalimantan Tengah 74161","Nanga Bulik, Kec. Bulik, Kabupaten Lamandau",KALIMANTAN TENGAH,74161.0,Indonesia,82155810060.0,,,-2.1801904,111.4671524,https://maps.google.com/?cid=0x0:0xc57488d0c4cc1714,
hotel,Hotel,Losmen Sahara,"RF78+4VG, Nanga Bulik, Kec. Bulik, Kabupaten Lamandau, Kalimantan Tengah 74161","Nanga Bulik, Kec. Bulik, Kabupaten Lamandau",KALIMANTAN TENGAH,74161.0,Indonesia,82154455553.0,,,-2.1871787,111.4671931,https://maps.google.com/?cid=0x0:0x8024b6392671d4a4,
hotel,Pondok,Villa Mas mas mendo,"3FR7+63, Bukit Jaya, Kec. Bulik Tim., Kabupaten Lamandau, Kalimantan Tengah","Kabupaten Lamandau, Kalimantan Tengah",KALIMANTAN TENGAH,,Indonesia,,,,-1.9094724,111.4627399,https://maps.google.com/?cid=0x0:0x19337e9a14dc4920,
hotel,Kantor Perusahaan,Perumahan PKS Melata,"3JH3+WC6, Nanga Koring, Kec. Bulik Tim., Kabupaten Lamandau, Kalimantan Tengah 74162","Nanga Koring, Kec. Bulik Tim., Kabupaten Lamandau",KALIMANTAN TENGAH,74162.0,Indonesia,,,,-1.9202147,111.6035216,https://maps.google.com/?cid=0x0:0x281de2e3452dc284,
hotel,Rumah wisata,Losmen A'AN,"92XQ+V24, Kudangan, Kec. Delang, Kabupaten Lamandau, Kalimantan Tengah 74664","Kudangan, Kec. Delang, Kabupaten Lamandau",KALIMANTAN TENGAH,74664.0,Indonesia,81352746807.0,,,-1.6003557,111.0375872,https://maps.google.com/?cid=0x0:0xa51bb63b9ffa53b,
hotel,Pondok,Home Stay Slalang,"C23J+QJ, Kudangan, Kec. Delang, Kabupaten Lamandau, Kalimantan Tengah","Kabupaten Lamandau, Kalimantan Tengah",KALIMANTAN TENGAH,,Indonesia,,,,-1.5956159,111.0315911,https://maps.google.com/?cid=0x0:0x926a9c54f2a90091,
hotel,hotel,Kalimantan Tengah 74664,"Kabupaten Lamandau, Kalimantan Tengah","Kabupaten Lamandau, Kalimantan Tengah",KALIMANTAN TENGAH,,Indonesia,,,,-1.6722405,111.1414226,https://maps.google.com/?cid=0x0:0x2e393b90c2443400,
hotel,hotel,Delang,"Odisha, India","Delang, Odisha, India",KALIMANTAN TENGAH,,Indonesia,,,,20.0360957,85.7615379,https://maps.google.com/?cid=0x0:0x87775bc4c2a85de4,
hotel,hotel,THE RANCH,"NIRMALA, Mangalpur, Nirmala, Odisha 752046, India","Mangalpur, Nirmala, Odisha",KALIMANTAN TENGAH,752046.0,Indonesia,919040644644.0,,,20.0360732,85.8256485,https://maps.google.com/?cid=0x0:0x7e13c8d0efea8fe6,
hotel,hotel,BIDESHI HOTEL  LODGE,"2VJC+P49, Rupadeipur, Odisha 752105, India","Rupadeipur, Odisha",KALIMANTAN TENGAH,752105.0,Indonesia,,,,20.0318551,85.8703524,https://maps.google.com/?cid=0x0:0x2fdfcb6bde1f56f5,
hotel,hotel,Team Jajabara Multi Cuisine Restaurant,"Pattnakiya square, Near satasankha, Sakhi Gopal, Satasankha, Odisha 752014, India","Near satasankha, Sakhi Gopal, Satasankha, Odisha",KALIMANTAN TENGAH,752014.0,Indonesia,919937529939.0,,,19.981129,85.825034,https://maps.google.com/?cid=0x0:0x280266300461d384,
hotel,hotel,OYO 18845 Vishal Guest House,"SH 13, Jatni, Khordha, Odisha 752050, India","Jatni, Khordha, Odisha",KALIMANTAN TENGAH,752050.0,Indonesia,911246201180.0,,,20.1591338,85.7059815,https://maps.google.com/?cid=0x0:0x32b3f68b95b7458e,
hotel,hotel,Baghvan Blue Park Resort,"Unnamed Road, Jamuna Jharapada, Odisha 752050, India","Jamuna Jharapada, Odisha",KALIMANTAN TENGAH,752050.0,Indonesia,919777537953.0,,,20.127698,85.686437,https://maps.google.com/?cid=0x0:0xd635ef9f195b0587,
hotel,hotel,OYO Swarna Mandap,"132, Bhubaneswar Puri Highway, Sakhigopal, Satyabadi, Puri, Odisha 752012, India","Bhubaneswar Puri Highway, Sakhigopal, Satyabadi, Puri, Odisha",KALIMANTAN TENGAH,752012.0,Indonesia,911246201180.0,,,19.9379512,85.8202972,https://maps.google.com/?cid=0x0:0x9a242b1ed127c1eb,
hotel,hotel,SPOT ON 92068 Bideshi Hotel,"Balanga, Rupadeipur, Odisha 752105, India","Rupadeipur, Odisha",KALIMANTAN TENGAH,752105.0,Indonesia,911246201180.0,,,20.028721,85.872248,https://maps.google.com/?cid=0x0:0x45eff9071e937427,
hotel,hotel,Flagship Payal Mandap,"278, Jagannath Sadak, Bhubaneswar, Jatni, Odisha 752104, India","Jagannath Sadak, Bhubaneswar, Jatni, Odisha",KALIMANTAN TENGAH,752104.0,Indonesia,911246201180.0,,,20.1319169,85.7181294,https://maps.google.com/?cid=0x0:0x25f960050b65bae6,
hotel,hotel,Kalimantan Tengah 74663,"Kabupaten Lamandau, Kalimantan Tengah","Kabupaten Lamandau, Kalimantan Tengah",KALIMANTAN TENGAH,,Indonesia,,,,-1.9269166,111.1891151,https://maps.google.com/?cid=0x0:0xddd786c27266b53a,
hotel,Guest house,Hotel Putri Tunggal Lamandau,"Nanga Bulik, Kec. Bulik, Kabupaten Lamandau, Kalimantan Tengah 74161","Kec. Bulik, Kabupaten Lamandau",KALIMANTAN TENGAH,74161.0,Indonesia,85845021932.0,,,-2.1820998,111.4535311,https://maps.google.com/?cid=0x0:0xab839e88d92b9113,
hotel,Hostel,Penginapan Putri Septiya Taman Garu,"Dekat, Jl. Lintas Kalimantan, Kawa, Kec. Lamandau, Kabupaten Lamandau, Kalimantan Tengah 74663","Jl. Lintas Kalimantan, Kawa, Kec. Lamandau, Kabupaten Lamandau",KALIMANTAN TENGAH,74663.0,Indonesia,85249544442.0,,,-1.8762693,111.1143848,https://maps.google.com/?cid=0x0:0xcb64807364d6d4f1,
hotel,Hotel,Penginapan Divi,"3FVM+VGX, Tim.,, Bukit Jaya, Kec. Bulik Tim., Kabupaten Lamandau, Kalimantan Tengah 74162","Tim.,, Bukit Jaya, Kec. Bulik Tim., Kabupaten Lamandau",KALIMANTAN TENGAH,74162.0,Indonesia,82120411140.0,,,-1.9052584,111.4838609,https://maps.google.com/?cid=0x0:0x8275be115f276be,
hotel,hotel,Hotel Mahkota Budi,"Jl. Setia Yakin No.RT 07, Mendawai, Kec. Sukamara, Kabupaten Sukamara, Kalimantan Tengah 74172","Mendawai, Kec. Sukamara, Kabupaten Sukamara",KALIMANTAN TENGAH,74172.0,Indonesia,81228378378.0,,,-2.7083672,111.1701359,https://maps.google.com/?cid=0x0:0xdb52d8cfe2b77fc5,
hotel,hotel,Hotel Aufa,"G2XG+QXW, Manis Mata, Kec. Manis Mata, Kabupaten Ketapang, Kalimantan Barat 78864","Manis Mata, Kec. Manis Mata, Kabupaten Ketapang",KALIMANTAN TENGAH,78864.0,Indonesia,82220943336.0,,,-2.4505141,111.0274669,https://maps.google.com/?cid=0x0:0x51b793c607602620,
hotel,hotel,Hotel Mentari,"Jl. Gerilya, Candi, Kec. Kumai, Kabupaten Kotawaringin Barat, Kalimantan Tengah 74181","Candi, Kec. Kumai, Kabupaten Kotawaringin Barat",KALIMANTAN TENGAH,74181.0,Indonesia,5322075984.0,,,-2.7351086,111.7247065,https://maps.google.com/?cid=0x0:0xec039f5d98912750,
hotel,Hotel,Penginapan Putri Tunggal,"44F7+W9V, Kawa, Kec. Lamandau, Kabupaten Lamandau, Kalimantan Tengah 74663","Kawa, Kec. Lamandau, Kabupaten Lamandau",KALIMANTAN TENGAH,74663.0,Indonesia,,,,-1.8751485,111.1134156,https://maps.google.com/?cid=0x0:0x81032de12d7bfe9e,
hotel,hotel,Kalimantan Tengah 74162,"Kabupaten Lamandau, Kalimantan Tengah","Kabupaten Lamandau, Kalimantan Tengah",KALIMANTAN TENGAH,,Indonesia,,,,-1.7404903,111.5229817,https://maps.google.com/?cid=0x0:0xcbde8a77875b152b,
hotel,Hotel,Tita Resto  Hotel,"RC7Q+P4W, Nanga Bulik, Kec. Bulik, Kabupaten Lamandau, Kalimantan Tengah 74161","Nanga Bulik, Kec. Bulik, Kabupaten Lamandau",KALIMANTAN TENGAH,74161.0,Indonesia,82149545900.0,,,-2.1856481,111.4378436,https://maps.google.com/?cid=0x0:0x9da2fd5e519fb0fb,
hotel,Hotel,Penginapan Syariah Dita Borneo Travel,"Rt.04 Jl. Batu Batanggui No.133, Nanga Bulik, Bulik, Lamandau Regency, Central Kalimantan 74161","Nanga Bulik, Bulik, Lamandau Regency",KALIMANTAN TENGAH,74161.0,Indonesia,82149109474.0,,,-2.185722,111.4448641,https://maps.google.com/?cid=0x0:0x9c667640fe0ae034,
hotel,Guest house,Hotel Putri Tunggal Lamandau,"Nanga Bulik, Kec. Bulik, Kabupaten Lamandau, Kalimantan Tengah 74161","Kec. Bulik, Kabupaten Lamandau",KALIMANTAN TENGAH,74161.0,Indonesia,85845021932.0,,,-2.1820998,111.4535311,https://maps.google.com/?cid=0x0:0xab839e88d92b9113,
hotel,Hotel,SIPO Guest House,"Jl. Ahmad Yani No.RT.12, Nanga Bulik, Kec. Bulik, Kabupaten Lamandau, Kalimantan Tengah 74162","Nanga Bulik, Kec. Bulik, Kabupaten Lamandau",KALIMANTAN TENGAH,74162.0,Indonesia,85252630860.0,,,-2.1777092,111.435072,https://maps.google.com/?cid=0x0:0x70b1fdb744fe1076,
hotel,Hotel,Penginapan Borneo Syariah 2,"RFC5+6Q6, Nanga Bulik, Kec. Bulik, Kabupaten Lamandau, Kalimantan Tengah 74161","Nanga Bulik, Kec. Bulik, Kabupaten Lamandau",KALIMANTAN TENGAH,74161.0,Indonesia,,,,-2.1792101,111.4591865,https://maps.google.com/?cid=0x0:0x23598a6a8ecca9b8,
hotel,Pondok,Penginapan Duta Permata,"3FVM+RM6, Bukit Jaya, Kec. Bulik Tim., Kabupaten Lamandau, Kalimantan Tengah 74162","Bukit Jaya, Kec. Bulik Tim., Kabupaten Lamandau",KALIMANTAN TENGAH,74162.0,Indonesia,,,,-1.9054582,111.484086,https://maps.google.com/?cid=0x0:0x5b2b5d9929ea5d64,
hotel,Hotel,Penginapan Putra Lamandau,"Jl. Nanga Bulik, Nanga Bulik, Kec. Bulik, Kabupaten Lamandau, Kalimantan Tengah 74161","Nanga Bulik, Kec. Bulik, Kabupaten Lamandau",KALIMANTAN TENGAH,74161.0,Indonesia,81226273169.0,,,-2.1768974,111.4441675,https://maps.google.com/?cid=0x0:0xc1bc592043ea76f7,
hotel,Guest house,Losmen Lamandau,"RFF7+5VJ, Nanga Bulik, Kec. Bulik, Kabupaten Lamandau, Kalimantan Tengah 74161","Nanga Bulik, Kec. Bulik, Kabupaten Lamandau",KALIMANTAN TENGAH,74161.0,Indonesia,81296856321.0,,,-2.1770314,111.4646294,https://maps.google.com/?cid=0x0:0x7e51910330caa557,
hotel,Hotel,Rumah Anto,"WJMW+P33, Bukit Raya, Kec. Menthobi Raya, Kabupaten Lamandau, Kalimantan Tengah 74117","Bukit Raya, Kec. Menthobi Raya, Kabupaten Lamandau",KALIMANTAN TENGAH,74117.0,Indonesia,,,,-2.0657274,111.6451255,https://maps.google.com/?cid=0x0:0xa7e8b3acb51ec131,
hotel,Bed >>u0026 Breakfast,Losmen Purnama Sari (syariah),"Losmen Purnama Sari (Syariah, Nanga Bulik, Kec. Bulik, Kabupaten Lamandau, Kalimantan Tengah 74161","Nanga Bulik, Kec. Bulik, Kabupaten Lamandau",KALIMANTAN TENGAH,74161.0,Indonesia,81348063667.0,,,-2.177646,111.4643885,https://maps.google.com/?cid=0x0:0x32415b359ce3726c,
hotel,Losmen,Losmen Purnama Riya,"Jl. JC Rangkap No.66, Nanga Bulik, Kec. Bulik, Kabupaten Lamandau, Kalimantan Tengah 74161","Nanga Bulik, Kec. Bulik, Kabupaten Lamandau",KALIMANTAN TENGAH,74161.0,Indonesia,,,,-2.1797222,111.4669722,https://maps.google.com/?cid=0x0:0xdfd7a2fd9b19c115,
hotel,Hotel,Losmen Putri Tunggal,"RFC7+7R6, Unnamed Rd, Nanga Bulik, Bulik, Nanga Bulik, Kec. Bulik, Kabupaten Lamandau, Kalimantan Tengah 74161","Unnamed Rd, Nanga Bulik, Bulik, Nanga Bulik, Kec. Bulik, Kabupaten Lamandau",KALIMANTAN TENGAH,74161.0,Indonesia,81254115253.0,,,-2.1793368,111.4645188,https://maps.google.com/?cid=0x0:0x6f8cca61455e62b7,
hotel,Hotel,Penginapan Sari Joglo,"RC4V+4RV, Nanga Bulik, Kec. Bulik, Kabupaten Lamandau, Kalimantan Tengah","Kabupaten Lamandau, Kalimantan Tengah",KALIMANTAN TENGAH,,Indonesia,,,,-2.1946281,111.444561,https://maps.google.com/?cid=0x0:0x795f9bb027ad5bd4,
hotel,Hotel,Losmen Pak Djon Syari'ah,"RF95+767, Jl. Batu Betanggui, Kel.Nanga Bulik, Kec. Bulik, Nanga Bulik, Lamandau, Kabupaten Lamandau, Kalimantan Tengah 74162","Jl. Batu Betanggui, Kel.Nanga Bulik, Kec. Bulik, Nanga Bulik, Lamandau, Kabupaten Lamandau",KALIMANTAN TENGAH,74162.0,Indonesia,,,,-2.1818426,111.4580513,https://maps.google.com/?cid=0x0:0x530e673ae181f483,
hotel,Hotel,Penginapan Nanang Rano,"Jl. Ahmad Yani, Nanga Bulik, Kec. Bulik, Kabupaten Lamandau, Kalimantan Tengah 74162","Nanga Bulik, Kec. Bulik, Kabupaten Lamandau",KALIMANTAN TENGAH,74162.0,Indonesia,85246674609.0,,,-2.1992276,111.411287,https://maps.google.com/?cid=0x0:0xd5592fb79e902be0,
hotel,Hotel,Losmen Mama Mia,"Jalan Batu Batanggui, RT. 04 Bulik, Nanga Bulik, Lamandau, Kabupaten Lamandau, Kalimantan Tengah 74161","RT. 04 Bulik, Nanga Bulik, Lamandau, Kabupaten Lamandau",KALIMANTAN TENGAH,74161.0,Indonesia,82353204312.0,,,-2.1810044,111.4596586,https://maps.google.com/?cid=0x0:0xbdf2dd34e5bb5e30,
hotel,Hotel,MELONA INN,"RC9X+J33, Jl. Melati IV, Nanga Bulik, Kec. Bulik, Kabupaten Lamandau, Kalimantan Tengah 74161","Jl. Melati IV, Nanga Bulik, Kec. Bulik, Kabupaten Lamandau",KALIMANTAN TENGAH,74161.0,Indonesia,82155047432.0,,,-2.1809779,111.4476749,https://maps.google.com/?cid=0x0:0x2e65f69baab153eb,
hotel,Penginapan,KONTRAKAN ROHMANSYAH,"XM63+6MC, Mukti Manunggal, Kec. Menthobi Raya, Kabupaten Lamandau, Kalimantan Tengah 74117","Mukti Manunggal, Kec. Menthobi Raya, Kabupaten Lamandau",KALIMANTAN TENGAH,74117.0,Indonesia,,,,-2.0394497,111.6541483,https://maps.google.com/?cid=0x0:0xecb5666bd388cc1c,
hotel,Hotel,Losmen Samudra,"Jl. JC Rangkap No.66, Nanga Bulik, Kec. Bulik, Kabupaten Lamandau, Kalimantan Tengah 74161","Nanga Bulik, Kec. Bulik, Kabupaten Lamandau",KALIMANTAN TENGAH,74161.0,Indonesia,82155810060.0,,,-2.1801904,111.4671524,https://maps.google.com/?cid=0x0:0xc57488d0c4cc1714,
hotel,hotel,Kec. Sematu Jaya,"Kabupaten Lamandau, Kalimantan Tengah","Kabupaten Lamandau, Kalimantan Tengah",KALIMANTAN TENGAH,,Indonesia,,,,-2.2356757,111.5156988,https://maps.google.com/?cid=0x0:0xa84b471e5053bba1,
hotel,Penginapan,Hotel ifrit,"PH96+6J, Mekar Mulya, Kec. Sematu Jaya, Kabupaten Lamandau, Kalimantan Tengah","Kabupaten Lamandau, Kalimantan Tengah",KALIMANTAN TENGAH,,Indonesia,,,,-2.2819305,111.5615541,https://maps.google.com/?cid=0x0:0x2230081ffc67abb3,
hotel,Rumah wisata,Rumah Yanto geming,"PH75+WCJ, Mekar Mulya, Kec. Sematu Jaya, Kabupaten Lamandau, Kalimantan Tengah","Kabupaten Lamandau, Kalimantan Tengah",KALIMANTAN TENGAH,,Indonesia,,,,-2.285159,111.5585138,https://maps.google.com/?cid=0x0:0xb1f19cdc8af350a1,
restaurant,restaurant,Kalimantan Tengah 74664,"Kabupaten Lamandau, Kalimantan Tengah","Kabupaten Lamandau, Kalimantan Tengah",KALIMANTAN TENGAH,,Indonesia,,,,-1.6722405,111.1414226,https://maps.google.com/?cid=0x0:0x2e393b90c2443400,
restaurant,Toko,RM. Mama CIKA,"92WQ+J2G, Kudangan, Kec. Delang, Kabupaten Lamandau, Kalimantan Tengah 74664","Kudangan, Kec. Delang, Kabupaten Lamandau",KALIMANTAN TENGAH,74664.0,Indonesia,81352770504.0,,,-1.6034257,111.0375663,https://maps.google.com/?cid=0x0:0x866abee4a4f142e2,
restaurant,Bakso,Rumah Makan Barokah Adonai,"Jl. Lintas Kalimantan, Betenung, Kec. Nanga Tayap, Kabupaten Ketapang, Kalimantan Barat 78873","Betenung, Kec. Nanga Tayap, Kabupaten Ketapang",KALIMANTAN TENGAH,78873.0,Indonesia,81253888821.0,,,-1.573416,110.9209064,https://maps.google.com/?cid=0x0:0x32296892c0ebb91e,
restaurant,Brunch,WARUNG BATAS,"CWGC+J98, Jl. Lintas Kalimantan, Betenung, Kec. Nanga Tayap, Kabupaten Ketapang, Kalimantan Barat 78873","Jl. Lintas Kalimantan, Betenung, Kec. Nanga Tayap, Kabupaten Ketapang",KALIMANTAN TENGAH,78873.0,Indonesia,81253113420.0,,,-1.5734586,110.9209423,https://maps.google.com/?cid=0x0:0xeb79717a1bbf870b,
restaurant,Sarapan,Warung Makan Taman Garu,"Jl. Lintas Kalimantan, Kawa, Kec. Lamandau, Kabupaten Lamandau, Kalimantan Tengah 74663","Kawa, Kec. Lamandau, Kabupaten Lamandau",KALIMANTAN TENGAH,74663.0,Indonesia,85249544442.0,,,-1.8762614,111.1143746,https://maps.google.com/?cid=0x0:0xbe70126e20ef08da,
restaurant,Rumah Makan,WR markiteng,"kalimatan, Jl. Lintas Kalimantan, Cuhai, Kec. Lamandau, Kabupaten Lamandau, Kalimantan Tengah","Kabupaten Lamandau, Kalimantan Tengah",KALIMANTAN TENGAH,,Indonesia,,,,-1.8230157,111.1041242,https://maps.google.com/?cid=0x0:0x7cf64e95be2c88c4,
restaurant,Rumah Makan,Warung Makan Melayu Sipa Putri,"CV69+J3, Betenung, Kec. Nanga Tayap, Kabupaten Ketapang, Kalimantan Barat","Kabupaten Ketapang, Kalimantan Barat",KALIMANTAN TENGAH,,Indonesia,82159259631.0,,,-1.5884773,110.8676817,https://maps.google.com/?cid=0x0:0xeafc962601de48a,
restaurant,Brunch,Zea Fam's,"Sungai Tuat, Kec. Lamandau, Kabupaten Lamandau, Kalimantan Tengah","Kabupaten Lamandau, Kalimantan Tengah",KALIMANTAN TENGAH,,Indonesia,,,,-1.7858192,111.0917611,https://maps.google.com/?cid=0x0:0x153657259504cc58,
restaurant,Toko,KESAH KOPI,"F5W3+QH5, Kina, Kec. Batang Kawa, Kabupaten Lamandau, Kalimantan Tengah","Kabupaten Lamandau, Kalimantan Tengah",KALIMANTAN TENGAH,,Indonesia,,,,-1.5031112,111.153976,https://maps.google.com/?cid=0x0:0x59ca094548d64652,
restaurant,Rumah Makan,Rumah Makan Andah,"RF89+P5V, Jl. JC Rangkap, Nanga Bulik, Kec. Bulik, Kabupaten Lamandau, Kalimantan Tengah 74161","Jl. JC Rangkap, Nanga Bulik, Kec. Bulik, Kabupaten Lamandau",KALIMANTAN TENGAH,74161.0,Indonesia,,,,-2.1831411,111.4679249,https://maps.google.com/?cid=0x0:0xa9df1f6babf0ea8a,
restaurant,Prasmanan,Rumah Makan Ku Cak Mat,"RC6P+28, Jl. Batu Batanggui, Nanga Bulik, Kec. Bulik, Kabupaten Lamandau, Kalimantan Tengah 74161","Jl. Batu Batanggui, Nanga Bulik, Kec. Bulik, Kabupaten Lamandau",KALIMANTAN TENGAH,74161.0,Indonesia,82151912221.0,,,-2.1899687,111.4352081,https://maps.google.com/?cid=0x0:0x25bc6ecdd4704d8e,
restaurant,Restoran,Rumah Makan RM Mahda,"RF72+8G7, Nanga Bulik, Kec. Bulik, Kabupaten Lamandau, Kalimantan Tengah 74161","Nanga Bulik, Kec. Bulik, Kabupaten Lamandau",KALIMANTAN TENGAH,74161.0,Indonesia,85350592525.0,,,-2.1867086,111.4513047,https://maps.google.com/?cid=0x0:0x88beea5fd4acc1cd,
restaurant,Restoran,RM. Fitri - Simpang Fitri Lamandau,"Nanga Bulik, Kec. Bulik, Kabupaten Lamandau, Kalimantan Tengah 74161","Kec. Bulik, Kabupaten Lamandau",KALIMANTAN TENGAH,74161.0,Indonesia,81352897499.0,,,-2.2028764,111.4561473,https://maps.google.com/?cid=0x0:0x8c4cced8f6180fb7,
restaurant,Restoran,RM. Dapoer Henny,"Jl. Melati No.05, RT.11_b, Nanga Bulik, Kec. Bulik, Kabupaten Lamandau, Kalimantan Tengah 74161","RT.11_b, Nanga Bulik, Kec. Bulik, Kabupaten Lamandau",KALIMANTAN TENGAH,74161.0,Indonesia,81255471999.0,,,-2.1847784,111.4496178,https://maps.google.com/?cid=0x0:0xc2eac28035d747f1,
restaurant,Restoran,LEVEL UP,"RC8V+VQW, Jl. Bukit Hibul Timur, Nanga Bulik, Kec. Bulik, Kabupaten Lamandau, Kalimantan Tengah 74161","Jl. Bukit Hibul Timur, Nanga Bulik, Kec. Bulik, Kabupaten Lamandau",KALIMANTAN TENGAH,74161.0,Indonesia,,,,-2.1827683,111.4444393,https://maps.google.com/?cid=0x0:0x75ec50608f1170f2,
restaurant,Rumah Makan,Warung Makan Rizky Putri,"54F3+RQ, Cuhai, Kec. Lamandau, Kabupaten Lamandau, Kalimantan Tengah","Kabupaten Lamandau, Kalimantan Tengah",KALIMANTAN TENGAH,,Indonesia,,,,-1.8254406,111.1044071,https://maps.google.com/?cid=0x0:0x9044b271f48a872c,
restaurant,Restoran,Rumah Makan Pak Akhyar - Simpang Fitri,"QFX4+56G, Nanga Bulik, Kec. Bulik, Kabupaten Lamandau, Kalimantan Tengah 74161","Nanga Bulik, Kec. Bulik, Kabupaten Lamandau",KALIMANTAN TENGAH,74161.0,Indonesia,81349099267.0,,,-2.2020522,111.4555807,https://maps.google.com/?cid=0x0:0x142b83ce9edbe414,
restaurant,restaurant,Warung Makan Jeng Ranti,"Kawa, Kec. Lamandau, Kabupaten Lamandau, Kalimantan Tengah","Kabupaten Lamandau, Kalimantan Tengah",KALIMANTAN TENGAH,,Indonesia,,,,-1.8794273,111.1153004,https://maps.google.com/?cid=0x0:0xd549b5b66e0853ad,
restaurant,restaurant,Warkop Mr.Rb,"Sungai Tuat, Kec. Lamandau, Kabupaten Lamandau, Kalimantan Tengah","Kabupaten Lamandau, Kalimantan Tengah",KALIMANTAN TENGAH,,Indonesia,,,,-1.7855392,111.0914738,https://maps.google.com/?cid=0x0:0x897aa9ad714da955,
restaurant,Batak,WARUNG AREN GULTOM,"35M3+63, Karang Taba, Kec. Lamandau, Kabupaten Lamandau, Kalimantan Tengah 74663","Karang Taba, Kec. Lamandau, Kabupaten Lamandau",KALIMANTAN TENGAH,74663.0,Indonesia,81255931417.0,,,-1.9181044,111.1528495,https://maps.google.com/?cid=0x0:0xf4f48df8bd1e1eb7,
restaurant,restaurant,Rm. Berkah,"Kudangan, Kec. Delang, Kabupaten Lamandau, Kalimantan Tengah","Kabupaten Lamandau, Kalimantan Tengah",KALIMANTAN TENGAH,,Indonesia,,,,-1.5969426,111.0355073,https://maps.google.com/?cid=0x0:0x7f4a0b7dec6bb580,
restaurant,Area Wi-Fi,Wifi Melin by EWT,"957F+VM2, Mengkalang, Kec. Batang Kawa, Kabupaten Lamandau, Kalimantan Tengah 74664","Mengkalang, Kec. Batang Kawa, Kabupaten Lamandau",KALIMANTAN TENGAH,74664.0,Indonesia,,,,-1.6359053,111.1752456,https://maps.google.com/?cid=0x0:0x8d3c24acd8dbe802,
restaurant,restaurant,Rumah Makan Papada'An,"Kudangan, Kec. Delang, Kabupaten Lamandau, Kalimantan Tengah","Kabupaten Lamandau, Kalimantan Tengah",KALIMANTAN TENGAH,,Indonesia,,,,-1.5997628,111.0380669,https://maps.google.com/?cid=0x0:0x21fe948d8ffdbfa0,
restaurant,restaurant,Bukit tengkorak,"C262+RR, Kudangan, Kec. Delang, Kabupaten Lamandau, Kalimantan Tengah","Kabupaten Lamandau, Kalimantan Tengah",KALIMANTAN TENGAH,,Indonesia,,,,-1.5879953,111.0020262,https://maps.google.com/?cid=0x0:0x64920b9950cf22fc,
restaurant,Perumahan,Gerbang Batas Provinsi Kalimantan Barat - Kalimantan Tengah,"CWGC+M8Q, Jl. Ahmad Yani, Betenung, Kec. Nanga Tayap, Kabupaten Ketapang, Kalimantan Barat 78873","Jl. Ahmad Yani, Betenung, Kec. Nanga Tayap, Kabupaten Ketapang",KALIMANTAN TENGAH,78873.0,Indonesia,,,,-1.5732793,110.9208568,https://maps.google.com/?cid=0x0:0xdd2c06709575af73,
restaurant,Bar,Nanga bulik,"6355+958, Sungai Tuat, Kec. Lamandau, Kabupaten Lamandau, Kalimantan Tengah","Kabupaten Lamandau, Kalimantan Tengah",KALIMANTAN TENGAH,,Indonesia,,,,-1.7915792,111.0579632,https://maps.google.com/?cid=0x0:0x17703f9ef0d8b890,
restaurant,restaurant,Kalimantan Tengah 74663,"Kabupaten Lamandau, Kalimantan Tengah","Kabupaten Lamandau, Kalimantan Tengah",KALIMANTAN TENGAH,,Indonesia,,,,-1.9269166,111.1891151,https://maps.google.com/?cid=0x0:0xddd786c27266b53a,
restaurant,Sarapan,Rumah makan Pak Sukro,"6C66+C92, Bayat, Kec. Belantikan Raya, Kabupaten Lamandau, Kalimantan Tengah","Kabupaten Lamandau, Kalimantan Tengah",KALIMANTAN TENGAH,,Indonesia,,,,-1.7889831,111.4109061,https://maps.google.com/?cid=0x0:0xd6c533603239fa2,
restaurant,Restoran,Wr Makan Sabar menanti,"Jalan Saparo Napon No.RT.04, Samu Jaya, Kec. Lamandau, Kabupaten Lamandau, Kalimantan Tengah 74663","Samu Jaya, Kec. Lamandau, Kabupaten Lamandau",KALIMANTAN TENGAH,74663.0,Indonesia,82159081317.0,,,-1.8824724,111.3295182,https://maps.google.com/?cid=0x0:0x2721045a0b8b39de,
restaurant,Jawa,Warung Makan Kediri Jawa Timur,"25PH+5PF, Panopa, Kec. Lamandau, Kabupaten Lamandau, Kalimantan Tengah 74663","Panopa, Kec. Lamandau, Kabupaten Lamandau",KALIMANTAN TENGAH,74663.0,Indonesia,,,,-1.9658203,111.1789695,https://maps.google.com/?cid=0x0:0x8c91895cb8a78546,
restaurant,Perhimpunan Pengembang Perumahan,Rumah Makan Simpang Tempajak,"X5GX+RH, Panopa, Kec. Lamandau, Kabupaten Lamandau, Kalimantan Tengah","Kabupaten Lamandau, Kalimantan Tengah",KALIMANTAN TENGAH,,Indonesia,,,,-2.0229375,111.1989375,https://maps.google.com/?cid=0x0:0xf0d447f04f450a5,
restaurant,Batak,Lapo Marsada,"352J+J56, Penopa - Kujan, Panopa, Kec. Lamandau, Kabupaten Lamandau, Kalimantan Tengah 74663","Penopa - Kujan, Panopa, Kec. Lamandau, Kabupaten Lamandau",KALIMANTAN TENGAH,74663.0,Indonesia,8125886954.0,,,-1.9484684,111.180379,https://maps.google.com/?cid=0x0:0x6965bf398e8c8658,
restaurant,Sarapan,Warung Makan Taman Garu,"Jl. Lintas Kalimantan, Kawa, Kec. Lamandau, Kabupaten Lamandau, Kalimantan Tengah 74663","Kawa, Kec. Lamandau, Kabupaten Lamandau",KALIMANTAN TENGAH,74663.0,Indonesia,85249544442.0,,,-1.8762614,111.1143746,https://maps.google.com/?cid=0x0:0xbe70126e20ef08da,
restaurant,Restoran,Sate Ngapak yanrisfa,"488M+QGM, Unnamed Road, Sekoban, Kec. Lamandau, Kabupaten Lamandau, Kalimantan Tengah 74663","Unnamed Road, Sekoban, Kec. Lamandau, Kabupaten Lamandau",KALIMANTAN TENGAH,74663.0,Indonesia,,,,-1.8830424,111.3337886,https://maps.google.com/?cid=0x0:0xd7d12a82ed06c124,
restaurant,Batak,WARUNG AREN GULTOM,"35M3+63, Karang Taba, Kec. Lamandau, Kabupaten Lamandau, Kalimantan Tengah 74663","Karang Taba, Kec. Lamandau, Kabupaten Lamandau",KALIMANTAN TENGAH,74663.0,Indonesia,81255931417.0,,,-1.9181044,111.1528495,https://maps.google.com/?cid=0x0:0xf4f48df8bd1e1eb7,
restaurant,Rumah Makan,Rumah Makan Andah,"RF89+P5V, Jl. JC Rangkap, Nanga Bulik, Kec. Bulik, Kabupaten Lamandau, Kalimantan Tengah 74161","Jl. JC Rangkap, Nanga Bulik, Kec. Bulik, Kabupaten Lamandau",KALIMANTAN TENGAH,74161.0,Indonesia,,,,-2.1831411,111.4679249,https://maps.google.com/?cid=0x0:0xa9df1f6babf0ea8a,
restaurant,Sarapan,Rumah makan cinta,"4F2M+RV2, Bukit Jaya, Kec. Bulik Tim., Kabupaten Lamandau, Kalimantan Tengah 74162","Bukit Jaya, Kec. Bulik Tim., Kabupaten Lamandau",KALIMANTAN TENGAH,74162.0,Indonesia,82250214153.0,,,-1.8982436,111.484509,https://maps.google.com/?cid=0x0:0x23b8d08a9f31c55c,
restaurant,Restoran,RM. Fitri - Simpang Fitri Lamandau,"Nanga Bulik, Kec. Bulik, Kabupaten Lamandau, Kalimantan Tengah 74161","Kec. Bulik, Kabupaten Lamandau",KALIMANTAN TENGAH,74161.0,Indonesia,81352897499.0,,,-2.2028764,111.4561473,https://maps.google.com/?cid=0x0:0x8c4cced8f6180fb7,
restaurant,Restoran,LEVEL UP,"RC8V+VQW, Jl. Bukit Hibul Timur, Nanga Bulik, Kec. Bulik, Kabupaten Lamandau, Kalimantan Tengah 74161","Jl. Bukit Hibul Timur, Nanga Bulik, Kec. Bulik, Kabupaten Lamandau",KALIMANTAN TENGAH,74161.0,Indonesia,,,,-2.1827683,111.4444393,https://maps.google.com/?cid=0x0:0x75ec50608f1170f2,
restaurant,Nasi,Warung Makan Cak Bro,"jl. trans, Panopa, Kec. Lamandau, Kabupaten Lamandau, Kalimantan Tengah 74663","Panopa, Kec. Lamandau, Kabupaten Lamandau",KALIMANTAN TENGAH,74663.0,Indonesia,,,,-1.9837586,111.1852324,https://maps.google.com/?cid=0x0:0xec46154202776d4f,
restaurant,Restoran,Waroeng poetritunggal,"X98M+7Q, Tamiang, Kec. Bulik, Kabupaten Lamandau, Kalimantan Tengah 74162","Tamiang, Kec. Bulik, Kabupaten Lamandau",KALIMANTAN TENGAH,74162.0,Indonesia,,,,-2.0343017,111.3844783,https://maps.google.com/?cid=0x0:0xaaaea2586766936a,
restaurant,Dapur Umum,Warung bambu,"Jl. Lintas Kalimantan, Panopa, Kec. Lamandau, Kabupaten Lamandau, Kalimantan Tengah 74173","Panopa, Kec. Lamandau, Kabupaten Lamandau",KALIMANTAN TENGAH,74173.0,Indonesia,,,,-2.0515342,111.1980494,https://maps.google.com/?cid=0x0:0x801ba51f6209db5,
restaurant,Restoran,Warung Makan Wong Ndeso,"RF83+XX9, Jl. Batu Batanggui, Nanga Bulik, Kec. Bulik, Kabupaten Lamandau, Kalimantan Tengah 74161","Jl. Batu Batanggui, Nanga Bulik, Kec. Bulik, Kabupaten Lamandau",KALIMANTAN TENGAH,74161.0,Indonesia,,,,-2.1825852,111.454999,https://maps.google.com/?cid=0x0:0x4a2e05ecbbfc5341,
restaurant,Rumah Makan,BEKGOR MELLIE LAMANDAU,"RC7Q+W9J, Unnamed Road, Nanga Bulik, Kec. Bulik, Kabupaten Lamandau, Kalimantan Tengah 74161","Unnamed Road, Nanga Bulik, Kec. Bulik, Kabupaten Lamandau",KALIMANTAN TENGAH,74161.0,Indonesia,811528850.0,,,-2.1851509,111.438383,https://maps.google.com/?cid=0x0:0x28d7b5878cd887da,
restaurant,restaurant,KONIWA cafe,"Unnamed Road No.74161, Nanga Bulik, Kec. Bulik, Kabupaten Lamandau, Kalimantan Tengah 74161","Nanga Bulik, Kec. Bulik, Kabupaten Lamandau",KALIMANTAN TENGAH,74161.0,Indonesia,,,,-2.1775822,111.4377701,https://maps.google.com/?cid=0x0:0x198e654402ae705a,
restaurant,restaurant,Warung Keysa,"Panopa, Kec. Lamandau, Kabupaten Lamandau, Kalimantan Tengah","Kabupaten Lamandau, Kalimantan Tengah",KALIMANTAN TENGAH,,Indonesia,,,,-1.9495195,111.1806805,https://maps.google.com/?cid=0x0:0x5e992ae38fbd63ed,
restaurant,Kedai Kopi,Warung sederhana RUDI JAYA,"4CX3+QM, Tangga Batu, Kec. Belantikan Raya, Kabupaten Lamandau, Kalimantan Tengah","Kabupaten Lamandau, Kalimantan Tengah",KALIMANTAN TENGAH,,Indonesia,,,,-1.850505,111.404137,https://maps.google.com/?cid=0x0:0x48b97f1898544a33,
restaurant,Dapur Umum,WM. Ayem tentrem Bu lek ikah,"RF23+43J, Nanga Bulik, Kec. Bulik, Kabupaten Lamandau, Kalimantan Tengah 74161","Nanga Bulik, Kec. Bulik, Kabupaten Lamandau",KALIMANTAN TENGAH,74161.0,Indonesia,,,,-1.9304355,111.160435,https://maps.google.com/?cid=0x0:0xb07575a7de378e1d,
restaurant,Restoran,Rumah Makan Horas,"RCFQ+35J, Jalan, Nanga Bulik, Bulik, Lamandau Regency, Central Kalimantan 74161","Jalan, Nanga Bulik, Bulik, Lamandau Regency",KALIMANTAN TENGAH,74161.0,Indonesia,81254605366.0,,,-2.1772878,111.4379043,https://maps.google.com/?cid=0x0:0x51ea71e5a06cf055,
restaurant,restaurant,Kalimantan Tengah 74162,"Kabupaten Lamandau, Kalimantan Tengah","Kabupaten Lamandau, Kalimantan Tengah",KALIMANTAN TENGAH,,Indonesia,,,,-1.7404903,111.5229817,https://maps.google.com/?cid=0x0:0xcbde8a77875b152b,
restaurant,Restoran,LEVEL UP,"RC8V+VQW, Jl. Bukit Hibul Timur, Nanga Bulik, Kec. Bulik, Kabupaten Lamandau, Kalimantan Tengah 74161","Jl. Bukit Hibul Timur, Nanga Bulik, Kec. Bulik, Kabupaten Lamandau",KALIMANTAN TENGAH,74161.0,Indonesia,,,,-2.1827683,111.4444393,https://maps.google.com/?cid=0x0:0x75ec50608f1170f2,
restaurant,Rumah Makan,Rumah Makan Andah,"RF89+P5V, Jl. JC Rangkap, Nanga Bulik, Kec. Bulik, Kabupaten Lamandau, Kalimantan Tengah 74161","Jl. JC Rangkap, Nanga Bulik, Kec. Bulik, Kabupaten Lamandau",KALIMANTAN TENGAH,74161.0,Indonesia,,,,-2.1831411,111.4679249,https://maps.google.com/?cid=0x0:0xa9df1f6babf0ea8a,
restaurant,Restoran,Rumah Makan Horas,"RCFQ+35J, Jalan, Nanga Bulik, Bulik, Lamandau Regency, Central Kalimantan 74161","Jalan, Nanga Bulik, Bulik, Lamandau Regency",KALIMANTAN TENGAH,74161.0,Indonesia,81254605366.0,,,-2.1772878,111.4379043,https://maps.google.com/?cid=0x0:0x51ea71e5a06cf055,
restaurant,Restoran,Warung Makan Wong Ndeso,"RF83+XX9, Jl. Batu Batanggui, Nanga Bulik, Kec. Bulik, Kabupaten Lamandau, Kalimantan Tengah 74161","Jl. Batu Batanggui, Nanga Bulik, Kec. Bulik, Kabupaten Lamandau",KALIMANTAN TENGAH,74161.0,Indonesia,,,,-2.1825852,111.454999,https://maps.google.com/?cid=0x0:0x4a2e05ecbbfc5341,
restaurant,Rumah Makan,Warung Makan SALSABILA,"RF93+V3G, Nanga Bulik, Kec. Bulik, Kabupaten Lamandau, Kalimantan Tengah 74161","Nanga Bulik, Kec. Bulik, Kabupaten Lamandau",KALIMANTAN TENGAH,74161.0,Indonesia,,,,-2.1803149,111.4527164,https://maps.google.com/?cid=0x0:0x34241d1cb2321b7b,
restaurant,Restoran,MAK QUEEN RESTO,"VGFW+MJF, Unnamed Road, Bunut, Bulik, Lamandau Regency, Central Kalimantan 74161","Unnamed Road, Bunut, Bulik, Lamandau Regency",KALIMANTAN TENGAH,74161.0,Indonesia,,,,-2.1258155,111.5465421,https://maps.google.com/?cid=0x0:0x99706f6f3bb8223f,
restaurant,Pasar,Pasar Malam,"RF93+P34, Nanga Bulik, Kec. Bulik, Kabupaten Lamandau, Kalimantan Tengah 74161","Nanga Bulik, Kec. Bulik, Kabupaten Lamandau",KALIMANTAN TENGAH,74161.0,Indonesia,,,,-2.1807313,111.4527101,https://maps.google.com/?cid=0x0:0xb07bfdeab35e82d5,
restaurant,Restoran,Rumah Makan RM Mahda,"RF72+8G7, Nanga Bulik, Kec. Bulik, Kabupaten Lamandau, Kalimantan Tengah 74161","Nanga Bulik, Kec. Bulik, Kabupaten Lamandau",KALIMANTAN TENGAH,74161.0,Indonesia,85350592525.0,,,-2.1867086,111.4513047,https://maps.google.com/?cid=0x0:0x88beea5fd4acc1cd,
restaurant,Restoran,Rumah Makan Grobogan,"RCFV+4QP, Jalan, Nanga Bulik, Bulik, Lamandau Regency, Central Kalimantan 74161","Jalan, Nanga Bulik, Bulik, Lamandau Regency",KALIMANTAN TENGAH,74161.0,Indonesia,,,,-2.1771691,111.4444619,https://maps.google.com/?cid=0x0:0x59342142e332d333,
restaurant,Dapur Umum,Warung Nasi Kuning Kecamatan,"RF83+VPX, Jl. Batu Batanggui, Nanga Bulik, Kec. Bulik, Kabupaten Lamandau, Kalimantan Tengah 74161","Jl. Batu Batanggui, Nanga Bulik, Kec. Bulik, Kabupaten Lamandau",KALIMANTAN TENGAH,74161.0,Indonesia,,,,-2.1827503,111.4543541,https://maps.google.com/?cid=0x0:0x6027e4841338dd33,
restaurant,Restoran,RM. Fitri - Simpang Fitri Lamandau,"Nanga Bulik, Kec. Bulik, Kabupaten Lamandau, Kalimantan Tengah 74161","Kec. Bulik, Kabupaten Lamandau",KALIMANTAN TENGAH,74161.0,Indonesia,81352897499.0,,,-2.2028764,111.4561473,https://maps.google.com/?cid=0x0:0x8c4cced8f6180fb7,
restaurant,Brunch,Warung Makan Madiun,"RC9J+9F4, Nanga Bulik, Kec. Bulik, Kabupaten Lamandau, Kalimantan Tengah 74161","Nanga Bulik, Kec. Bulik, Kabupaten Lamandau",KALIMANTAN TENGAH,74161.0,Indonesia,,,,-2.1816124,111.4312046,https://maps.google.com/?cid=0x0:0x5dc9a1aebcd874bd,
restaurant,Sarapan,Rumah makan cinta,"4F2M+RV2, Bukit Jaya, Kec. Bulik Tim., Kabupaten Lamandau, Kalimantan Tengah 74162","Bukit Jaya, Kec. Bulik Tim., Kabupaten Lamandau",KALIMANTAN TENGAH,74162.0,Indonesia,82250214153.0,,,-1.8982436,111.484509,https://maps.google.com/?cid=0x0:0x23b8d08a9f31c55c,
restaurant,Rumah Makan,RM. Anjani,"Jl. Ahmad Yani, Nanga Bulik, Kec. Bulik, Kabupaten Lamandau, Kalimantan Tengah","Kabupaten Lamandau, Kalimantan Tengah",KALIMANTAN TENGAH,,Indonesia,81281902052.0,,,-2.1946167,111.4446958,https://maps.google.com/?cid=0x0:0x2c9d8bd8e85eb91b,
restaurant,Kedai Kopi,Kedai Biker's Lamandau,"Jl. Djagui Mamud No.157, Nanga Bulik, Kec. Bulik, Kabupaten Lamandau, Kalimantan Tengah 74162","Nanga Bulik, Kec. Bulik, Kabupaten Lamandau",KALIMANTAN TENGAH,74162.0,Indonesia,82243210823.0,,,-2.1816405,111.4528485,https://maps.google.com/?cid=0x0:0x2a81578a0821fd72,
restaurant,Restoran,RM. Dapoer Henny,"Jl. Melati No.05, RT.11_b, Nanga Bulik, Kec. Bulik, Kabupaten Lamandau, Kalimantan Tengah 74161","RT.11_b, Nanga Bulik, Kec. Bulik, Kabupaten Lamandau",KALIMANTAN TENGAH,74161.0,Indonesia,81255471999.0,,,-2.1847784,111.4496178,https://maps.google.com/?cid=0x0:0xc2eac28035d747f1,
restaurant,Restoran,Warung Makan IDOLA,"Jl. Nanga Bulik, Nanga Bulik, Kec. Bulik, Kabupaten Lamandau, Kalimantan Tengah 74611","Nanga Bulik, Kec. Bulik, Kabupaten Lamandau",KALIMANTAN TENGAH,74611.0,Indonesia,,,,-2.1769275,111.4443959,https://maps.google.com/?cid=0x0:0x5f9c476501bc5e18,
restaurant,Restoran,Warung Makan daging B2 dan RW di Sama Kita,"RCCP+WGJ, Nanga Bulik, Kec. Bulik, Kabupaten Lamandau, Kalimantan Tengah 74161","Nanga Bulik, Kec. Bulik, Kabupaten Lamandau",KALIMANTAN TENGAH,74161.0,Indonesia,,,,-2.1776639,111.4362595,https://maps.google.com/?cid=0x0:0x12512f3db74d4346,
restaurant,Rumah Makan,BEKGOR MELLIE LAMANDAU,"RC7Q+W9J, Unnamed Road, Nanga Bulik, Kec. Bulik, Kabupaten Lamandau, Kalimantan Tengah 74161","Unnamed Road, Nanga Bulik, Kec. Bulik, Kabupaten Lamandau",KALIMANTAN TENGAH,74161.0,Indonesia,811528850.0,,,-2.1851509,111.438383,https://maps.google.com/?cid=0x0:0x28d7b5878cd887da,
restaurant,Rumah Makan,RM. BAROKAH,"Jl. Tjilik Riwut No.66, Nanga Bulik, Kec. Bulik, Kabupaten Lamandau, Kalimantan Tengah 74161","Nanga Bulik, Kec. Bulik, Kabupaten Lamandau",KALIMANTAN TENGAH,74161.0,Indonesia,85235047895.0,,,-2.1814629,111.4667497,https://maps.google.com/?cid=0x0:0x3e5c4182044adfbb,
restaurant,restaurant,KONIWA cafe,"Unnamed Road No.74161, Nanga Bulik, Kec. Bulik, Kabupaten Lamandau, Kalimantan Tengah 74161","Nanga Bulik, Kec. Bulik, Kabupaten Lamandau",KALIMANTAN TENGAH,74161.0,Indonesia,,,,-2.1775822,111.4377701,https://maps.google.com/?cid=0x0:0x198e654402ae705a,
restaurant,Rumah Makan,warung makan gembira,"RC5M+M42, Nanga Bulik, Kec. Bulik, Kabupaten Lamandau, Kalimantan Tengah 74161","Nanga Bulik, Kec. Bulik, Kabupaten Lamandau",KALIMANTAN TENGAH,74161.0,Indonesia,81348429608.0,,,-2.1908722,111.4327525,https://maps.google.com/?cid=0x0:0x1f17e03f8deb5006,
restaurant,Rumah Makan,Rumah Makan Ponti,"RCCP+WRM, Nanga Bulik, Kec. Bulik, Kabupaten Lamandau, Kalimantan Tengah 74161","Nanga Bulik, Kec. Bulik, Kabupaten Lamandau",KALIMANTAN TENGAH,74161.0,Indonesia,,,,-2.1772801,111.4378802,https://maps.google.com/?cid=0x0:0xbaf6fc472869ea6d,
restaurant,Restoran,Warung NR,"Jln. Cilik riwut, Nanga Bulik, Kec. Bulik, Kabupaten Lamandau, Kalimantan Tengah 74662","Nanga Bulik, Kec. Bulik, Kabupaten Lamandau",KALIMANTAN TENGAH,74662.0,Indonesia,85821930190.0,,,-2.1798419,111.4651426,https://maps.google.com/?cid=0x0:0x3ec071c569703915,
restaurant,Restoran,Bul Grill Resto Sidoarjo,"Jl. Kab. DPR I No.127, Nggrekmas, Pagerwojo, Kec. Buduran, Kabupaten Sidoarjo, Jawa Timur 61219","Nggrekmas, Pagerwojo, Kec. Buduran, Kabupaten Sidoarjo",KALIMANTAN TENGAH,61219.0,Indonesia,85757000094.0,,,-7.4411382,112.7145884,https://maps.google.com/?cid=0x0:0x2e80c64cdcdae4bc,
restaurant,Padang,RM Sekawan 77,"Jl. Tjilik Riwut, RT.01/RW.01, Nanga Bulik, Pangkalanbun, Kabupaten Lamandau, Kalimantan Tengah 74162","RT.01/RW.01, Nanga Bulik, Pangkalanbun, Kabupaten Lamandau",KALIMANTAN TENGAH,74162.0,Indonesia,82136050660.0,,,-2.1900162,111.4661003,https://maps.google.com/?cid=0x0:0x1bdbd4a3d88a1aac,
restaurant,restaurant,Warung Iki,"RF83+RJ2, Nanga Bulik, Kec. Bulik, Kabupaten Lamandau, Kalimantan Tengah 74161","Nanga Bulik, Kec. Bulik, Kabupaten Lamandau",KALIMANTAN TENGAH,74161.0,Indonesia,,,,-2.1829826,111.4540116,https://maps.google.com/?cid=0x0:0xddedae98abf921de,
restaurant,restaurant,Kalimantan Tengah 74611,"Kec. Bulik, Kabupaten Lamandau, Kalimantan Tengah","Kabupaten Lamandau, Kalimantan Tengah",KALIMANTAN TENGAH,,Indonesia,,,,-2.0058667,111.4395128,https://maps.google.com/?cid=0x0:0xb6c8a0a464bd3c0c,
restaurant,Restoran,LEVEL UP,"RC8V+VQW, Jl. Bukit Hibul Timur, Nanga Bulik, Kec. Bulik, Kabupaten Lamandau, Kalimantan Tengah 74161","Jl. Bukit Hibul Timur, Nanga Bulik, Kec. Bulik, Kabupaten Lamandau",KALIMANTAN TENGAH,74161.0,Indonesia,,,,-2.1827683,111.4444393,https://maps.google.com/?cid=0x0:0x75ec50608f1170f2,
restaurant,Restoran,Rumah Makan Horas,"RCFQ+35J, Jalan, Nanga Bulik, Bulik, Lamandau Regency, Central Kalimantan 74161","Jalan, Nanga Bulik, Bulik, Lamandau Regency",KALIMANTAN TENGAH,74161.0,Indonesia,81254605366.0,,,-2.1772878,111.4379043,https://maps.google.com/?cid=0x0:0x51ea71e5a06cf055,
restaurant,Restoran,RM. Fitri - Simpang Fitri Lamandau,"Nanga Bulik, Kec. Bulik, Kabupaten Lamandau, Kalimantan Tengah 74161","Kec. Bulik, Kabupaten Lamandau",KALIMANTAN TENGAH,74161.0,Indonesia,81352897499.0,,,-2.2028764,111.4561473,https://maps.google.com/?cid=0x0:0x8c4cced8f6180fb7,
restaurant,Restoran,Rumah Makan RM Mahda,"RF72+8G7, Nanga Bulik, Kec. Bulik, Kabupaten Lamandau, Kalimantan Tengah 74161","Nanga Bulik, Kec. Bulik, Kabupaten Lamandau",KALIMANTAN TENGAH,74161.0,Indonesia,85350592525.0,,,-2.1867086,111.4513047,https://maps.google.com/?cid=0x0:0x88beea5fd4acc1cd,
restaurant,Restoran,Warung Makan IDOLA,"Jl. Nanga Bulik, Nanga Bulik, Kec. Bulik, Kabupaten Lamandau, Kalimantan Tengah 74611","Nanga Bulik, Kec. Bulik, Kabupaten Lamandau",KALIMANTAN TENGAH,74611.0,Indonesia,,,,-2.1769275,111.4443959,https://maps.google.com/?cid=0x0:0x5f9c476501bc5e18,
restaurant,Rumah Makan,Warung Makan SALSABILA,"RF93+V3G, Nanga Bulik, Kec. Bulik, Kabupaten Lamandau, Kalimantan Tengah 74161","Nanga Bulik, Kec. Bulik, Kabupaten Lamandau",KALIMANTAN TENGAH,74161.0,Indonesia,,,,-2.1803149,111.4527164,https://maps.google.com/?cid=0x0:0x34241d1cb2321b7b,
restaurant,Restoran,Rumah Makan Pak Akhyar - Simpang Fitri,"QFX4+56G, Nanga Bulik, Kec. Bulik, Kabupaten Lamandau, Kalimantan Tengah 74161","Nanga Bulik, Kec. Bulik, Kabupaten Lamandau",KALIMANTAN TENGAH,74161.0,Indonesia,81349099267.0,,,-2.2020522,111.4555807,https://maps.google.com/?cid=0x0:0x142b83ce9edbe414,
restaurant,Brunch,Warung Makan Madiun,"RC9J+9F4, Nanga Bulik, Kec. Bulik, Kabupaten Lamandau, Kalimantan Tengah 74161","Nanga Bulik, Kec. Bulik, Kabupaten Lamandau",KALIMANTAN TENGAH,74161.0,Indonesia,,,,-2.1816124,111.4312046,https://maps.google.com/?cid=0x0:0x5dc9a1aebcd874bd,
restaurant,Restoran,RM. Dapoer Henny,"Jl. Melati No.05, RT.11_b, Nanga Bulik, Kec. Bulik, Kabupaten Lamandau, Kalimantan Tengah 74161","RT.11_b, Nanga Bulik, Kec. Bulik, Kabupaten Lamandau",KALIMANTAN TENGAH,74161.0,Indonesia,81255471999.0,,,-2.1847784,111.4496178,https://maps.google.com/?cid=0x0:0xc2eac28035d747f1,
restaurant,Hotel,Tita Resto  Hotel,"RC7Q+P4W, Nanga Bulik, Kec. Bulik, Kabupaten Lamandau, Kalimantan Tengah 74161","Nanga Bulik, Kec. Bulik, Kabupaten Lamandau",KALIMANTAN TENGAH,74161.0,Indonesia,82149545900.0,,,-2.1856481,111.4378436,https://maps.google.com/?cid=0x0:0x9da2fd5e519fb0fb,
restaurant,Rumah Makan,Rumah Makan Ponti,"RCCP+WRM, Nanga Bulik, Kec. Bulik, Kabupaten Lamandau, Kalimantan Tengah 74161","Nanga Bulik, Kec. Bulik, Kabupaten Lamandau",KALIMANTAN TENGAH,74161.0,Indonesia,,,,-2.1772801,111.4378802,https://maps.google.com/?cid=0x0:0xbaf6fc472869ea6d,
restaurant,Restoran,ROCKET CHICKEN LAMANDAU,"RF96+WCC, Jl. Batu Batanggui, Nanga Bulik, Kec. Bulik, Kabupaten Lamandau, Kalimantan Tengah 74161","Jl. Batu Batanggui, Nanga Bulik, Kec. Bulik, Kabupaten Lamandau",KALIMANTAN TENGAH,74161.0,Indonesia,81908705655.0,,,-2.1801895,111.4610041,https://maps.google.com/?cid=0x0:0x6b74b109e2dfeae5,
restaurant,Restoran,Waroeng poetritunggal,"X98M+7Q, Tamiang, Kec. Bulik, Kabupaten Lamandau, Kalimantan Tengah 74162","Tamiang, Kec. Bulik, Kabupaten Lamandau",KALIMANTAN TENGAH,74162.0,Indonesia,,,,-2.0343017,111.3844783,https://maps.google.com/?cid=0x0:0xaaaea2586766936a,
restaurant,Ayam,ROCKET CHICKEN LAMANDAU 2,"RC9W+XQ, Nanga Bulik, Kec. Bulik, Kabupaten Lamandau, Kalimantan Tengah 74161","Nanga Bulik, Kec. Bulik, Kabupaten Lamandau",KALIMANTAN TENGAH,74161.0,Indonesia,,,,-2.1798879,111.4469665,https://maps.google.com/?cid=0x0:0x6015940e16c4f791,
restaurant,Restoran,Arga Joglo,"RC57+VJ, Nanga Bulik, Kec. Bulik, Kabupaten Lamandau, Kalimantan Tengah","Kabupaten Lamandau, Kalimantan Tengah",KALIMANTAN TENGAH,,Indonesia,82353208582.0,,,-2.1901084,111.4142659,https://maps.google.com/?cid=0x0:0x23b8d8b541170943,
restaurant,Restoran,Warung Makan daging B2 dan RW di Sama Kita,"RCCP+WGJ, Nanga Bulik, Kec. Bulik, Kabupaten Lamandau, Kalimantan Tengah 74161","Nanga Bulik, Kec. Bulik, Kabupaten Lamandau",KALIMANTAN TENGAH,74161.0,Indonesia,,,,-2.1776639,111.4362595,https://maps.google.com/?cid=0x0:0x12512f3db74d4346,
restaurant,Brunch,Warung Pakde Nasgor,"XFGQ+3C4, Beruta, Kec. Bulik, Kabupaten Lamandau, Kalimantan Tengah 74162","Beruta, Kec. Bulik, Kabupaten Lamandau",KALIMANTAN TENGAH,74162.0,Indonesia,,,,-2.0248603,111.4885859,https://maps.google.com/?cid=0x0:0xc92c519d54890f4f,
restaurant,Kedai Kopi,Teras Coffe Lamandau,"Jl. W.R. Supratman No.20b, Nanga Bulik, Kec. Bulik, Kabupaten Lamandau, Kalimantan Tengah 74611","Nanga Bulik, Kec. Bulik, Kabupaten Lamandau",KALIMANTAN TENGAH,74611.0,Indonesia,82253268553.0,,,-2.1813583,111.4345042,https://maps.google.com/?cid=0x0:0x60d64bbc38c7c4e4,
restaurant,Restoran,DEPOT SOLO,"RCFW+3V4, Nanga Bulik, Kec. Bulik, Kabupaten Lamandau, Kalimantan Tengah 74161","Nanga Bulik, Kec. Bulik, Kabupaten Lamandau",KALIMANTAN TENGAH,74161.0,Indonesia,,,,-2.1773567,111.4472183,https://maps.google.com/?cid=0x0:0xfccb0e47e8a3ea12,
restaurant,Restoran,rumah makan padang,"Jl. Batu Batanggui No.RT 04, Nanga Bulik, Kec. Bulik, Kabupaten Lamandau, Kalimantan Tengah 74611","Nanga Bulik, Kec. Bulik, Kabupaten Lamandau",KALIMANTAN TENGAH,74611.0,Indonesia,81310811616.0,,,-2.1827532,111.4552846,https://maps.google.com/?cid=0x0:0x930c9ec941ee65c9,
restaurant,Prasmanan,Rumah Makan Ku Cak Mat,"RC6P+28, Jl. Batu Batanggui, Nanga Bulik, Kec. Bulik, Kabupaten Lamandau, Kalimantan Tengah 74161","Jl. Batu Batanggui, Nanga Bulik, Kec. Bulik, Kabupaten Lamandau",KALIMANTAN TENGAH,74161.0,Indonesia,82151912221.0,,,-2.1899687,111.4352081,https://maps.google.com/?cid=0x0:0x25bc6ecdd4704d8e,
restaurant,Prancis,Maison La Formule,"Jl. Hang Tuah Raya No.8 Lt.2, Gunung, Kec. Kby. Baru, Kota Jakarta Selatan, Daerah Khusus Ibukota Jakarta 12120","Gunung, Kec. Kby. Baru, Kota Jakarta Selatan",KALIMANTAN TENGAH,12120.0,Indonesia,88801276469.0,,,-6.2301289,106.7974303,https://maps.google.com/?cid=0x0:0x7266cf2b74e662e7,
restaurant,Kafe,Straits - Kyai Maja,"Jl. Kyai Maja No.39, RT.12/RW.2, Gunung, Kec. Kby. Baru, Kota Jakarta Selatan, Daerah Khusus Ibukota Jakarta 12120","RT.12/RW.2, Gunung, Kec. Kby. Baru, Kota Jakarta Selatan",KALIMANTAN TENGAH,12120.0,Indonesia,81574317317.0,,,-6.2408412,106.7892863,https://maps.google.com/?cid=0x0:0xf53de29ce9e58e0e,
restaurant,restaurant,Kalimantan Tengah 74612,"Kec. Bulik, Kabupaten Lamandau, Kalimantan Tengah","Kabupaten Lamandau, Kalimantan Tengah",KALIMANTAN TENGAH,,Indonesia,,,,-2.0421323,111.463361,https://maps.google.com/?cid=0x0:0xc38ed0bb98a86bd0,
restaurant,Restoran,LEVEL UP,"RC8V+VQW, Jl. Bukit Hibul Timur, Nanga Bulik, Kec. Bulik, Kabupaten Lamandau, Kalimantan Tengah 74161","Jl. Bukit Hibul Timur, Nanga Bulik, Kec. Bulik, Kabupaten Lamandau",KALIMANTAN TENGAH,74161.0,Indonesia,,,,-2.1827683,111.4444393,https://maps.google.com/?cid=0x0:0x75ec50608f1170f2,
restaurant,Rumah Makan,Rumah Makan Andah,"RF89+P5V, Jl. JC Rangkap, Nanga Bulik, Kec. Bulik, Kabupaten Lamandau, Kalimantan Tengah 74161","Jl. JC Rangkap, Nanga Bulik, Kec. Bulik, Kabupaten Lamandau",KALIMANTAN TENGAH,74161.0,Indonesia,,,,-2.1831411,111.4679249,https://maps.google.com/?cid=0x0:0xa9df1f6babf0ea8a,
restaurant,Restoran,Rumah Makan RM Mahda,"RF72+8G7, Nanga Bulik, Kec. Bulik, Kabupaten Lamandau, Kalimantan Tengah 74161","Nanga Bulik, Kec. Bulik, Kabupaten Lamandau",KALIMANTAN TENGAH,74161.0,Indonesia,85350592525.0,,,-2.1867086,111.4513047,https://maps.google.com/?cid=0x0:0x88beea5fd4acc1cd,
restaurant,Rumah Makan,Warung Makan SALSABILA,"RF93+V3G, Nanga Bulik, Kec. Bulik, Kabupaten Lamandau, Kalimantan Tengah 74161","Nanga Bulik, Kec. Bulik, Kabupaten Lamandau",KALIMANTAN TENGAH,74161.0,Indonesia,,,,-2.1803149,111.4527164,https://maps.google.com/?cid=0x0:0x34241d1cb2321b7b,
restaurant,Hotel,Tita Resto  Hotel,"RC7Q+P4W, Nanga Bulik, Kec. Bulik, Kabupaten Lamandau, Kalimantan Tengah 74161","Nanga Bulik, Kec. Bulik, Kabupaten Lamandau",KALIMANTAN TENGAH,74161.0,Indonesia,82149545900.0,,,-2.1856481,111.4378436,https://maps.google.com/?cid=0x0:0x9da2fd5e519fb0fb,
restaurant,Restoran,RM. Dapoer Henny,"Jl. Melati No.05, RT.11_b, Nanga Bulik, Kec. Bulik, Kabupaten Lamandau, Kalimantan Tengah 74161","RT.11_b, Nanga Bulik, Kec. Bulik, Kabupaten Lamandau",KALIMANTAN TENGAH,74161.0,Indonesia,81255471999.0,,,-2.1847784,111.4496178,https://maps.google.com/?cid=0x0:0xc2eac28035d747f1,
restaurant,Restoran,Rumah Makan Pak Akhyar - Simpang Fitri,"QFX4+56G, Nanga Bulik, Kec. Bulik, Kabupaten Lamandau, Kalimantan Tengah 74161","Nanga Bulik, Kec. Bulik, Kabupaten Lamandau",KALIMANTAN TENGAH,74161.0,Indonesia,81349099267.0,,,-2.2020522,111.4555807,https://maps.google.com/?cid=0x0:0x142b83ce9edbe414,
restaurant,Brunch,Warung Makan Madiun,"RC9J+9F4, Nanga Bulik, Kec. Bulik, Kabupaten Lamandau, Kalimantan Tengah 74161","Nanga Bulik, Kec. Bulik, Kabupaten Lamandau",KALIMANTAN TENGAH,74161.0,Indonesia,,,,-2.1816124,111.4312046,https://maps.google.com/?cid=0x0:0x5dc9a1aebcd874bd,
restaurant,Brunch,Warung Pakde Nasgor,"XFGQ+3C4, Beruta, Kec. Bulik, Kabupaten Lamandau, Kalimantan Tengah 74162","Beruta, Kec. Bulik, Kabupaten Lamandau",KALIMANTAN TENGAH,74162.0,Indonesia,,,,-2.0248603,111.4885859,https://maps.google.com/?cid=0x0:0xc92c519d54890f4f,
restaurant,Restoran,Warung makan bude simpang,"XFGQ+5H6, Beruta, Kec. Bulik, Kabupaten Lamandau, Kalimantan Tengah","Kabupaten Lamandau, Kalimantan Tengah",KALIMANTAN TENGAH,,Indonesia,,,,-2.0245939,111.4888781,https://maps.google.com/?cid=0x0:0x46900d794341a56b,
restaurant,Rumah Makan,Rumah Makan Ponti,"RCCP+WRM, Nanga Bulik, Kec. Bulik, Kabupaten Lamandau, Kalimantan Tengah 74161","Nanga Bulik, Kec. Bulik, Kabupaten Lamandau",KALIMANTAN TENGAH,74161.0,Indonesia,,,,-2.1772801,111.4378802,https://maps.google.com/?cid=0x0:0xbaf6fc472869ea6d,
restaurant,Restoran,Warung Makan IDOLA,"Jl. Nanga Bulik, Nanga Bulik, Kec. Bulik, Kabupaten Lamandau, Kalimantan Tengah 74611","Nanga Bulik, Kec. Bulik, Kabupaten Lamandau",KALIMANTAN TENGAH,74611.0,Indonesia,,,,-2.1769275,111.4443959,https://maps.google.com/?cid=0x0:0x5f9c476501bc5e18,
restaurant,Restoran,ROCKET CHICKEN LAMANDAU,"RF96+WCC, Jl. Batu Batanggui, Nanga Bulik, Kec. Bulik, Kabupaten Lamandau, Kalimantan Tengah 74161","Jl. Batu Batanggui, Nanga Bulik, Kec. Bulik, Kabupaten Lamandau",KALIMANTAN TENGAH,74161.0,Indonesia,81908705655.0,,,-2.1801895,111.4610041,https://maps.google.com/?cid=0x0:0x6b74b109e2dfeae5,
restaurant,Ayam,ROCKET CHICKEN LAMANDAU 2,"RC9W+XQ, Nanga Bulik, Kec. Bulik, Kabupaten Lamandau, Kalimantan Tengah 74161","Nanga Bulik, Kec. Bulik, Kabupaten Lamandau",KALIMANTAN TENGAH,74161.0,Indonesia,,,,-2.1798879,111.4469665,https://maps.google.com/?cid=0x0:0x6015940e16c4f791,
restaurant,Restoran,Arga Joglo,"RC57+VJ, Nanga Bulik, Kec. Bulik, Kabupaten Lamandau, Kalimantan Tengah","Kabupaten Lamandau, Kalimantan Tengah",KALIMANTAN TENGAH,,Indonesia,82353208582.0,,,-2.1901084,111.4142659,https://maps.google.com/?cid=0x0:0x23b8d8b541170943,
restaurant,Restoran,Warung Makan daging B2 dan RW di Sama Kita,"RCCP+WGJ, Nanga Bulik, Kec. Bulik, Kabupaten Lamandau, Kalimantan Tengah 74161","Nanga Bulik, Kec. Bulik, Kabupaten Lamandau",KALIMANTAN TENGAH,74161.0,Indonesia,,,,-2.1776639,111.4362595,https://maps.google.com/?cid=0x0:0x12512f3db74d4346,
restaurant,Restoran,DEPOT SOLO,"RCFW+3V4, Nanga Bulik, Kec. Bulik, Kabupaten Lamandau, Kalimantan Tengah 74161","Nanga Bulik, Kec. Bulik, Kabupaten Lamandau",KALIMANTAN TENGAH,74161.0,Indonesia,,,,-2.1773567,111.4472183,https://maps.google.com/?cid=0x0:0xfccb0e47e8a3ea12,
restaurant,Kedai Kopi,BOBA MAMACHA,"Desa beruta RT 05, Kabupaten Lamandau, Kalimantan Tengah","Kabupaten Lamandau, Kalimantan Tengah",KALIMANTAN TENGAH,,Indonesia,81310646914.0,,,-2.0267699,111.4875922,https://maps.google.com/?cid=0x0:0x39e8caddebd57d7c,
restaurant,Toko bahan makanan,Toko Bu Sum,"XFGQ+7C9, Beruta, Kec. Bulik, Kabupaten Lamandau, Kalimantan Tengah 74162","Beruta, Kec. Bulik, Kabupaten Lamandau",KALIMANTAN TENGAH,74162.0,Indonesia,,,,-2.0243298,111.4886009,https://maps.google.com/?cid=0x0:0x22b3255f633150c,
restaurant,Restoran,Kantin Bulik,"3, RT.3/RW.2, Srengseng, Kec. Kembangan, Kota Jakarta Barat, Daerah Khusus Ibukota Jakarta 11630","RT.3/RW.2, Srengseng, Kec. Kembangan, Kota Jakarta Barat",KALIMANTAN TENGAH,11630.0,Indonesia,895702652233.0,,,-6.2043535,106.7536695,https://maps.google.com/?cid=0x0:0x4600b978b930fe7c,
restaurant,Rumah Makan,Kedai Bulik,"Book G No, Jl. Kejaksaan Raya No.181, RT.11/RW.11, Pd. Bambu, Kec. Duren Sawit, Kota Jakarta Timur, Daerah Khusus Ibukota Jakarta 13430","Jl. Kejaksaan Raya No.181, RT.11/RW.11, Pd. Bambu, Kec. Duren Sawit, Kota Jakarta Timur",KALIMANTAN TENGAH,13430.0,Indonesia,81381233171.0,,,-6.2392185,106.9072021,https://maps.google.com/?cid=0x0:0x973a9e333abe4918,
restaurant,Restoran,Warung Makan Bulik,"Area Sawah, Gentawangi, Kec. Jatilawang, Kabupaten Banyumas, Jawa Tengah","Kabupaten Banyumas, Jawa Tengah",KALIMANTAN TENGAH,,Indonesia,,,,-7.5368161,109.1259315,https://maps.google.com/?cid=0x0:0x278b41ac8528c2c1,
restaurant,restaurant,Kalimantan Tengah 74162,"Kabupaten Lamandau, Kalimantan Tengah","Kabupaten Lamandau, Kalimantan Tengah",KALIMANTAN TENGAH,,Indonesia,,,,-1.7404903,111.5229817,https://maps.google.com/?cid=0x0:0xcbde8a77875b152b,
restaurant,Restoran,LEVEL UP,"RC8V+VQW, Jl. Bukit Hibul Timur, Nanga Bulik, Kec. Bulik, Kabupaten Lamandau, Kalimantan Tengah 74161","Jl. Bukit Hibul Timur, Nanga Bulik, Kec. Bulik, Kabupaten Lamandau",KALIMANTAN TENGAH,74161.0,Indonesia,,,,-2.1827683,111.4444393,https://maps.google.com/?cid=0x0:0x75ec50608f1170f2,
restaurant,Restoran,RM. Fitri - Simpang Fitri Lamandau,"Nanga Bulik, Kec. Bulik, Kabupaten Lamandau, Kalimantan Tengah 74161","Kec. Bulik, Kabupaten Lamandau",KALIMANTAN TENGAH,74161.0,Indonesia,81352897499.0,,,-2.2028764,111.4561473,https://maps.google.com/?cid=0x0:0x8c4cced8f6180fb7,
restaurant,Restoran,Warung Makan Wong Ndeso,"RF83+XX9, Jl. Batu Batanggui, Nanga Bulik, Kec. Bulik, Kabupaten Lamandau, Kalimantan Tengah 74161","Jl. Batu Batanggui, Nanga Bulik, Kec. Bulik, Kabupaten Lamandau",KALIMANTAN TENGAH,74161.0,Indonesia,,,,-2.1825852,111.454999,https://maps.google.com/?cid=0x0:0x4a2e05ecbbfc5341,
restaurant,Jawa,RUMAH MAKAN PODO TRESNO,"Jl. Batu Batanggui, Nanga Bulik, Kec. Bulik, Kabupaten Lamandau, Kalimantan Tengah 74161","Nanga Bulik, Kec. Bulik, Kabupaten Lamandau",KALIMANTAN TENGAH,74161.0,Indonesia,82338629157.0,,,-2.1799331,111.462615,https://maps.google.com/?cid=0x0:0xcc00594a1601ce39,
restaurant,Rumah Makan,Rumah Makan Andah,"RF89+P5V, Jl. JC Rangkap, Nanga Bulik, Kec. Bulik, Kabupaten Lamandau, Kalimantan Tengah 74161","Jl. JC Rangkap, Nanga Bulik, Kec. Bulik, Kabupaten Lamandau",KALIMANTAN TENGAH,74161.0,Indonesia,,,,-2.1831411,111.4679249,https://maps.google.com/?cid=0x0:0xa9df1f6babf0ea8a,
restaurant,Restoran,RM. Dapoer Henny,"Jl. Melati No.05, RT.11_b, Nanga Bulik, Kec. Bulik, Kabupaten Lamandau, Kalimantan Tengah 74161","RT.11_b, Nanga Bulik, Kec. Bulik, Kabupaten Lamandau",KALIMANTAN TENGAH,74161.0,Indonesia,81255471999.0,,,-2.1847784,111.4496178,https://maps.google.com/?cid=0x0:0xc2eac28035d747f1,
restaurant,Restoran,MAK QUEEN RESTO,"VGFW+MJF, Unnamed Road, Bunut, Bulik, Lamandau Regency, Central Kalimantan 74161","Unnamed Road, Bunut, Bulik, Lamandau Regency",KALIMANTAN TENGAH,74161.0,Indonesia,,,,-2.1258155,111.5465421,https://maps.google.com/?cid=0x0:0x99706f6f3bb8223f,
restaurant,Sarapan,Rumah makan cinta,"4F2M+RV2, Bukit Jaya, Kec. Bulik Tim., Kabupaten Lamandau, Kalimantan Tengah 74162","Bukit Jaya, Kec. Bulik Tim., Kabupaten Lamandau",KALIMANTAN TENGAH,74162.0,Indonesia,82250214153.0,,,-1.8982436,111.484509,https://maps.google.com/?cid=0x0:0x23b8d08a9f31c55c,
restaurant,Restoran,Rumah Makan RM Mahda,"RF72+8G7, Nanga Bulik, Kec. Bulik, Kabupaten Lamandau, Kalimantan Tengah 74161","Nanga Bulik, Kec. Bulik, Kabupaten Lamandau",KALIMANTAN TENGAH,74161.0,Indonesia,85350592525.0,,,-2.1867086,111.4513047,https://maps.google.com/?cid=0x0:0x88beea5fd4acc1cd,
restaurant,Rumah Makan,Warung Makan SALSABILA,"RF93+V3G, Nanga Bulik, Kec. Bulik, Kabupaten Lamandau, Kalimantan Tengah 74161","Nanga Bulik, Kec. Bulik, Kabupaten Lamandau",KALIMANTAN TENGAH,74161.0,Indonesia,,,,-2.1803149,111.4527164,https://maps.google.com/?cid=0x0:0x34241d1cb2321b7b,
restaurant,Prasmanan,Rumah Makan Ku Cak Mat,"RC6P+28, Jl. Batu Batanggui, Nanga Bulik, Kec. Bulik, Kabupaten Lamandau, Kalimantan Tengah 74161","Jl. Batu Batanggui, Nanga Bulik, Kec. Bulik, Kabupaten Lamandau",KALIMANTAN TENGAH,74161.0,Indonesia,82151912221.0,,,-2.1899687,111.4352081,https://maps.google.com/?cid=0x0:0x25bc6ecdd4704d8e,
restaurant,Kedai Kopi,Kedai Biker's Lamandau,"Jl. Djagui Mamud No.157, Nanga Bulik, Kec. Bulik, Kabupaten Lamandau, Kalimantan Tengah 74162","Nanga Bulik, Kec. Bulik, Kabupaten Lamandau",KALIMANTAN TENGAH,74162.0,Indonesia,82243210823.0,,,-2.1816405,111.4528485,https://maps.google.com/?cid=0x0:0x2a81578a0821fd72,
restaurant,Restoran,Rumah Makan Pak Akhyar - Simpang Fitri,"QFX4+56G, Nanga Bulik, Kec. Bulik, Kabupaten Lamandau, Kalimantan Tengah 74161","Nanga Bulik, Kec. Bulik, Kabupaten Lamandau",KALIMANTAN TENGAH,74161.0,Indonesia,81349099267.0,,,-2.2020522,111.4555807,https://maps.google.com/?cid=0x0:0x142b83ce9edbe414,
restaurant,Padang,RM Sekawan 77,"Jl. Tjilik Riwut, RT.01/RW.01, Nanga Bulik, Pangkalanbun, Kabupaten Lamandau, Kalimantan Tengah 74162","RT.01/RW.01, Nanga Bulik, Pangkalanbun, Kabupaten Lamandau",KALIMANTAN TENGAH,74162.0,Indonesia,82136050660.0,,,-2.1900162,111.4661003,https://maps.google.com/?cid=0x0:0x1bdbd4a3d88a1aac,
restaurant,Kedai Kopi,Teras Coffe Lamandau,"Jl. W.R. Supratman No.20b, Nanga Bulik, Kec. Bulik, Kabupaten Lamandau, Kalimantan Tengah 74611","Nanga Bulik, Kec. Bulik, Kabupaten Lamandau",KALIMANTAN TENGAH,74611.0,Indonesia,82253268553.0,,,-2.1813583,111.4345042,https://maps.google.com/?cid=0x0:0x60d64bbc38c7c4e4,
restaurant,Restoran,Rumah Makan  (Dehan Dan Dodoy),"WJMW+F8W, Bukit Raya, Kec. Menthobi Raya, Kabupaten Lamandau, Kalimantan Tengah 74117","Bukit Raya, Kec. Menthobi Raya, Kabupaten Lamandau",KALIMANTAN TENGAH,74117.0,Indonesia,81251125939.0,,,-2.0662702,111.6458344,https://maps.google.com/?cid=0x0:0xfad091011f015f57,
restaurant,Restoran,Waroeng poetritunggal,"X98M+7Q, Tamiang, Kec. Bulik, Kabupaten Lamandau, Kalimantan Tengah 74162","Tamiang, Kec. Bulik, Kabupaten Lamandau",KALIMANTAN TENGAH,74162.0,Indonesia,,,,-2.0343017,111.3844783,https://maps.google.com/?cid=0x0:0xaaaea2586766936a,
restaurant,Restoran,Warung Makan daging B2 dan RW di Sama Kita,"RCCP+WGJ, Nanga Bulik, Kec. Bulik, Kabupaten Lamandau, Kalimantan Tengah 74161","Nanga Bulik, Kec. Bulik, Kabupaten Lamandau",KALIMANTAN TENGAH,74161.0,Indonesia,,,,-2.1776639,111.4362595,https://maps.google.com/?cid=0x0:0x12512f3db74d4346,
restaurant,Rumah Makan,WM. Rizky Jaya,"RF98+R75, Nanga Bulik, Kec. Bulik, Kabupaten Lamandau, Kalimantan Tengah 74161","Nanga Bulik, Kec. Bulik, Kabupaten Lamandau",KALIMANTAN TENGAH,74161.0,Indonesia,85350663735.0,,,-2.1804765,111.4657444,https://maps.google.com/?cid=0x0:0xbbe01f1fb21453ca,
restaurant,Restoran,Rumah Makan Horas,"RCFQ+35J, Jalan, Nanga Bulik, Bulik, Lamandau Regency, Central Kalimantan 74161","Jalan, Nanga Bulik, Bulik, Lamandau Regency",KALIMANTAN TENGAH,74161.0,Indonesia,81254605366.0,,,-2.1772878,111.4379043,https://maps.google.com/?cid=0x0:0x51ea71e5a06cf055,
restaurant,restaurant,KONIWA cafe,"Unnamed Road No.74161, Nanga Bulik, Kec. Bulik, Kabupaten Lamandau, Kalimantan Tengah 74161","Nanga Bulik, Kec. Bulik, Kabupaten Lamandau",KALIMANTAN TENGAH,74161.0,Indonesia,,,,-2.1775822,111.4377701,https://maps.google.com/?cid=0x0:0x198e654402ae705a,
restaurant,Brunch,Warung Makan Madiun,"RC9J+9F4, Nanga Bulik, Kec. Bulik, Kabupaten Lamandau, Kalimantan Tengah 74161","Nanga Bulik, Kec. Bulik, Kabupaten Lamandau",KALIMANTAN TENGAH,74161.0,Indonesia,,,,-2.1816124,111.4312046,https://maps.google.com/?cid=0x0:0x5dc9a1aebcd874bd,
restaurant,Pasar,Pasar Malam,"RF93+P34, Nanga Bulik, Kec. Bulik, Kabupaten Lamandau, Kalimantan Tengah 74161","Nanga Bulik, Kec. Bulik, Kabupaten Lamandau",KALIMANTAN TENGAH,74161.0,Indonesia,,,,-2.1807313,111.4527101,https://maps.google.com/?cid=0x0:0xb07bfdeab35e82d5,
restaurant,Kafe,Cafe Erin,"3FWM+VQQ, Tim., Bukit Jaya, Kec. Bulik Tim., Kabupaten Lamandau, Kalimantan Tengah 74162","Tim., Bukit Jaya, Kec. Bulik Tim., Kabupaten Lamandau",KALIMANTAN TENGAH,74162.0,Indonesia,81258555525.0,,,-1.902794,111.484479,https://maps.google.com/?cid=0x0:0xf31812e990872767,
restaurant,Hotel,Tita Resto  Hotel,"RC7Q+P4W, Nanga Bulik, Kec. Bulik, Kabupaten Lamandau, Kalimantan Tengah 74161","Nanga Bulik, Kec. Bulik, Kabupaten Lamandau",KALIMANTAN TENGAH,74161.0,Indonesia,82149545900.0,,,-2.1856481,111.4378436,https://maps.google.com/?cid=0x0:0x9da2fd5e519fb0fb,
restaurant,Restoran,Rumah Makan Grobogan,"RCFV+4QP, Jalan, Nanga Bulik, Bulik, Lamandau Regency, Central Kalimantan 74161","Jalan, Nanga Bulik, Bulik, Lamandau Regency",KALIMANTAN TENGAH,74161.0,Indonesia,,,,-2.1771691,111.4444619,https://maps.google.com/?cid=0x0:0x59342142e332d333,
restaurant,Rumah Makan,RM. Anjani,"Jl. Ahmad Yani, Nanga Bulik, Kec. Bulik, Kabupaten Lamandau, Kalimantan Tengah","Kabupaten Lamandau, Kalimantan Tengah",KALIMANTAN TENGAH,,Indonesia,81281902052.0,,,-2.1946167,111.4446958,https://maps.google.com/?cid=0x0:0x2c9d8bd8e85eb91b,
restaurant,restaurant,Kalimantan Tengah 74664,"Kabupaten Lamandau, Kalimantan Tengah","Kabupaten Lamandau, Kalimantan Tengah",KALIMANTAN TENGAH,,Indonesia,,,,-1.6722405,111.1414226,https://maps.google.com/?cid=0x0:0x2e393b90c2443400,
restaurant,Toko,RM. Mama CIKA,"92WQ+J2G, Kudangan, Kec. Delang, Kabupaten Lamandau, Kalimantan Tengah 74664","Kudangan, Kec. Delang, Kabupaten Lamandau",KALIMANTAN TENGAH,74664.0,Indonesia,81352770504.0,,,-1.6034257,111.0375663,https://maps.google.com/?cid=0x0:0x866abee4a4f142e2,
restaurant,Dapur Umum,Warung Makan Ibu Hj. Munawaroh Jepara,"925P+RJR, Lopus, Kec. Delang, Kabupaten Lamandau, Kalimantan Tengah 74664","Lopus, Kec. Delang, Kabupaten Lamandau",KALIMANTAN TENGAH,74664.0,Indonesia,,,,-1.64038,111.0365055,https://maps.google.com/?cid=0x0:0x49414aafb38fef02,
restaurant,Sarapan,Warung Makan Taman Garu,"Jl. Lintas Kalimantan, Kawa, Kec. Lamandau, Kabupaten Lamandau, Kalimantan Tengah 74663","Kawa, Kec. Lamandau, Kabupaten Lamandau",KALIMANTAN TENGAH,74663.0,Indonesia,85249544442.0,,,-1.8762614,111.1143746,https://maps.google.com/?cid=0x0:0xbe70126e20ef08da,
restaurant,Bakso,Rumah Makan Barokah Adonai,"Jl. Lintas Kalimantan, Betenung, Kec. Nanga Tayap, Kabupaten Ketapang, Kalimantan Barat 78873","Betenung, Kec. Nanga Tayap, Kabupaten Ketapang",KALIMANTAN TENGAH,78873.0,Indonesia,81253888821.0,,,-1.573416,110.9209064,https://maps.google.com/?cid=0x0:0x32296892c0ebb91e,
restaurant,Rumah Makan,WR markiteng,"kalimatan, Jl. Lintas Kalimantan, Cuhai, Kec. Lamandau, Kabupaten Lamandau, Kalimantan Tengah","Kabupaten Lamandau, Kalimantan Tengah",KALIMANTAN TENGAH,,Indonesia,,,,-1.8230157,111.1041242,https://maps.google.com/?cid=0x0:0x7cf64e95be2c88c4,
restaurant,Rumah Makan,Rumah Makan Andah,"RF89+P5V, Jl. JC Rangkap, Nanga Bulik, Kec. Bulik, Kabupaten Lamandau, Kalimantan Tengah 74161","Jl. JC Rangkap, Nanga Bulik, Kec. Bulik, Kabupaten Lamandau",KALIMANTAN TENGAH,74161.0,Indonesia,,,,-2.1831411,111.4679249,https://maps.google.com/?cid=0x0:0xa9df1f6babf0ea8a,
restaurant,Rumah Makan,Warung Makan Rizky Putri,"54F3+RQ, Cuhai, Kec. Lamandau, Kabupaten Lamandau, Kalimantan Tengah","Kabupaten Lamandau, Kalimantan Tengah",KALIMANTAN TENGAH,,Indonesia,,,,-1.8254406,111.1044071,https://maps.google.com/?cid=0x0:0x9044b271f48a872c,
restaurant,Toko,Warung Jenthara,"C23P+63, Kudangan, Kec. Delang, Kabupaten Lamandau, Kalimantan Tengah","Kabupaten Lamandau, Kalimantan Tengah",KALIMANTAN TENGAH,,Indonesia,,,,-1.5969813,111.0351595,https://maps.google.com/?cid=0x0:0x7d1e77471c2567e6,
restaurant,restaurant,Bukit tengkorak,"C262+RR, Kudangan, Kec. Delang, Kabupaten Lamandau, Kalimantan Tengah","Kabupaten Lamandau, Kalimantan Tengah",KALIMANTAN TENGAH,,Indonesia,,,,-1.5879953,111.0020262,https://maps.google.com/?cid=0x0:0x64920b9950cf22fc,
restaurant,Restoran,RM. Fitri - Simpang Fitri Lamandau,"Nanga Bulik, Kec. Bulik, Kabupaten Lamandau, Kalimantan Tengah 74161","Kec. Bulik, Kabupaten Lamandau",KALIMANTAN TENGAH,74161.0,Indonesia,81352897499.0,,,-2.2028764,111.4561473,https://maps.google.com/?cid=0x0:0x8c4cced8f6180fb7,
restaurant,Brunch,WARUNG BATAS,"CWGC+J98, Jl. Lintas Kalimantan, Betenung, Kec. Nanga Tayap, Kabupaten Ketapang, Kalimantan Barat 78873","Jl. Lintas Kalimantan, Betenung, Kec. Nanga Tayap, Kabupaten Ketapang",KALIMANTAN TENGAH,78873.0,Indonesia,81253113420.0,,,-1.5734586,110.9209423,https://maps.google.com/?cid=0x0:0xeb79717a1bbf870b,
restaurant,Restoran,LEVEL UP,"RC8V+VQW, Jl. Bukit Hibul Timur, Nanga Bulik, Kec. Bulik, Kabupaten Lamandau, Kalimantan Tengah 74161","Jl. Bukit Hibul Timur, Nanga Bulik, Kec. Bulik, Kabupaten Lamandau",KALIMANTAN TENGAH,74161.0,Indonesia,,,,-2.1827683,111.4444393,https://maps.google.com/?cid=0x0:0x75ec50608f1170f2,
restaurant,Restoran,Rumah Makan RM Mahda,"RF72+8G7, Nanga Bulik, Kec. Bulik, Kabupaten Lamandau, Kalimantan Tengah 74161","Nanga Bulik, Kec. Bulik, Kabupaten Lamandau",KALIMANTAN TENGAH,74161.0,Indonesia,85350592525.0,,,-2.1867086,111.4513047,https://maps.google.com/?cid=0x0:0x88beea5fd4acc1cd,
restaurant,Rumah Makan,Warung Makan Melayu Sipa Putri,"CV69+J3, Betenung, Kec. Nanga Tayap, Kabupaten Ketapang, Kalimantan Barat","Kabupaten Ketapang, Kalimantan Barat",KALIMANTAN TENGAH,,Indonesia,82159259631.0,,,-1.5884773,110.8676817,https://maps.google.com/?cid=0x0:0xeafc962601de48a,
restaurant,Batak,WARUNG AREN GULTOM,"35M3+63, Karang Taba, Kec. Lamandau, Kabupaten Lamandau, Kalimantan Tengah 74663","Karang Taba, Kec. Lamandau, Kabupaten Lamandau",KALIMANTAN TENGAH,74663.0,Indonesia,81255931417.0,,,-1.9181044,111.1528495,https://maps.google.com/?cid=0x0:0xf4f48df8bd1e1eb7,
restaurant,Restoran,RM. Dapoer Henny,"Jl. Melati No.05, RT.11_b, Nanga Bulik, Kec. Bulik, Kabupaten Lamandau, Kalimantan Tengah 74161","RT.11_b, Nanga Bulik, Kec. Bulik, Kabupaten Lamandau",KALIMANTAN TENGAH,74161.0,Indonesia,81255471999.0,,,-2.1847784,111.4496178,https://maps.google.com/?cid=0x0:0xc2eac28035d747f1,
restaurant,Ayam,ROCKET CHICKEN LAMANDAU 2,"RC9W+XQ, Nanga Bulik, Kec. Bulik, Kabupaten Lamandau, Kalimantan Tengah 74161","Nanga Bulik, Kec. Bulik, Kabupaten Lamandau",KALIMANTAN TENGAH,74161.0,Indonesia,,,,-2.1798879,111.4469665,https://maps.google.com/?cid=0x0:0x6015940e16c4f791,
restaurant,restaurant,Warung Makan Jeng Ranti,"Kawa, Kec. Lamandau, Kabupaten Lamandau, Kalimantan Tengah","Kabupaten Lamandau, Kalimantan Tengah",KALIMANTAN TENGAH,,Indonesia,,,,-1.8794273,111.1153004,https://maps.google.com/?cid=0x0:0xd549b5b66e0853ad,
restaurant,Bar,Nanga bulik,"6355+958, Sungai Tuat, Kec. Lamandau, Kabupaten Lamandau, Kalimantan Tengah","Kabupaten Lamandau, Kalimantan Tengah",KALIMANTAN TENGAH,,Indonesia,,,,-1.7915792,111.0579632,https://maps.google.com/?cid=0x0:0x17703f9ef0d8b890,
restaurant,Korea,Chadol Gujeolpan One District Puri Metland,"Jl. Metland Unit 13, Ground Floor, Parung Jaya, Kec. Karang Tengah, Kota Tangerang, Banten 15159","Ground Floor, Parung Jaya, Kec. Karang Tengah, Kota Tangerang",KALIMANTAN TENGAH,15159.0,Indonesia,87760362385.0,,,-6.197296,106.7036055,https://maps.google.com/?cid=0x0:0x15eb92cb1ff0c14d,
restaurant,Indonesia,Sagoo Kitchen - One District Puri,"Jl. Metland, RT.001/RW.005, Parung Jaya, Kec. Karang Tengah, Kota Tangerang, Banten 15159","RT.001/RW.005, Parung Jaya, Kec. Karang Tengah, Kota Tangerang",KALIMANTAN TENGAH,15159.0,Indonesia,82125290826.0,,,-6.1969508,106.7034861,https://maps.google.com/?cid=0x0:0x2a981bf8684d77dc,
restaurant,Ramen,"Ramen Girl, One District Metland","One District at Puri, Petir, Kec. Cipondoh, Kota Tangerang, Banten 15159","Petir, Kec. Cipondoh, Kota Tangerang",KALIMANTAN TENGAH,15159.0,Indonesia,82228642543.0,,,-6.1970954,106.703745,https://maps.google.com/?cid=0x0:0x9e6fcb77af4a6520,
restaurant,Restoran,Kimukatsu One District Puri,"One District Puri, Jl. Metland Lt.GF, RT.001/RW.005, Parung Jaya, Karang Tengah, Tangerang City, Banten 15159","Jl. Metland Lt.GF, RT.001/RW.005, Parung Jaya, Karang Tengah, Tangerang City",KALIMANTAN TENGAH,15159.0,Indonesia,,,,-6.1971557,106.7034308,https://maps.google.com/?cid=0x0:0x9fe7d58ca8e2f6e9,
restaurant,Makanan Siap Saji,Delang in food plaza,"3P6X+C92, Delang Rd, Ramachandrapur, Odisha 752015, India","Delang Rd, Ramachandrapur, Odisha",KALIMANTAN TENGAH,752015.0,Indonesia,,,,20.0610248,85.7483912,https://maps.google.com/?cid=0x0:0x6c5637d49ac02902,
restaurant,restaurant,Kalimantan Tengah 74663,"Kabupaten Lamandau, Kalimantan Tengah","Kabupaten Lamandau, Kalimantan Tengah",KALIMANTAN TENGAH,,Indonesia,,,,-1.9269166,111.1891151,https://maps.google.com/?cid=0x0:0xddd786c27266b53a,
restaurant,Restoran,Wr Makan Sabar menanti,"Jalan Saparo Napon No.RT.04, Samu Jaya, Kec. Lamandau, Kabupaten Lamandau, Kalimantan Tengah 74663","Samu Jaya, Kec. Lamandau, Kabupaten Lamandau",KALIMANTAN TENGAH,74663.0,Indonesia,82159081317.0,,,-1.8824724,111.3295182,https://maps.google.com/?cid=0x0:0x2721045a0b8b39de,
restaurant,Restoran,LEVEL UP,"RC8V+VQW, Jl. Bukit Hibul Timur, Nanga Bulik, Kec. Bulik, Kabupaten Lamandau, Kalimantan Tengah 74161","Jl. Bukit Hibul Timur, Nanga Bulik, Kec. Bulik, Kabupaten Lamandau",KALIMANTAN TENGAH,74161.0,Indonesia,,,,-2.1827683,111.4444393,https://maps.google.com/?cid=0x0:0x75ec50608f1170f2,
restaurant,Jawa,RUMAH MAKAN PODO TRESNO,"Jl. Batu Batanggui, Nanga Bulik, Kec. Bulik, Kabupaten Lamandau, Kalimantan Tengah 74161","Nanga Bulik, Kec. Bulik, Kabupaten Lamandau",KALIMANTAN TENGAH,74161.0,Indonesia,82338629157.0,,,-2.1799331,111.462615,https://maps.google.com/?cid=0x0:0xcc00594a1601ce39,
restaurant,Rumah Makan,Rumah Makan Andah,"RF89+P5V, Jl. JC Rangkap, Nanga Bulik, Kec. Bulik, Kabupaten Lamandau, Kalimantan Tengah 74161","Jl. JC Rangkap, Nanga Bulik, Kec. Bulik, Kabupaten Lamandau",KALIMANTAN TENGAH,74161.0,Indonesia,,,,-2.1831411,111.4679249,https://maps.google.com/?cid=0x0:0xa9df1f6babf0ea8a,
restaurant,Sarapan,Warung Makan Taman Garu,"Jl. Lintas Kalimantan, Kawa, Kec. Lamandau, Kabupaten Lamandau, Kalimantan Tengah 74663","Kawa, Kec. Lamandau, Kabupaten Lamandau",KALIMANTAN TENGAH,74663.0,Indonesia,85249544442.0,,,-1.8762614,111.1143746,https://maps.google.com/?cid=0x0:0xbe70126e20ef08da,
restaurant,Jawa,Warung Makan Kediri Jawa Timur,"25PH+5PF, Panopa, Kec. Lamandau, Kabupaten Lamandau, Kalimantan Tengah 74663","Panopa, Kec. Lamandau, Kabupaten Lamandau",KALIMANTAN TENGAH,74663.0,Indonesia,,,,-1.9658203,111.1789695,https://maps.google.com/?cid=0x0:0x8c91895cb8a78546,
restaurant,Restoran,RM. Fitri - Simpang Fitri Lamandau,"Nanga Bulik, Kec. Bulik, Kabupaten Lamandau, Kalimantan Tengah 74161","Kec. Bulik, Kabupaten Lamandau",KALIMANTAN TENGAH,74161.0,Indonesia,81352897499.0,,,-2.2028764,111.4561473,https://maps.google.com/?cid=0x0:0x8c4cced8f6180fb7,
restaurant,Restoran,Rumah Makan RM Mahda,"RF72+8G7, Nanga Bulik, Kec. Bulik, Kabupaten Lamandau, Kalimantan Tengah 74161","Nanga Bulik, Kec. Bulik, Kabupaten Lamandau",KALIMANTAN TENGAH,74161.0,Indonesia,85350592525.0,,,-2.1867086,111.4513047,https://maps.google.com/?cid=0x0:0x88beea5fd4acc1cd,
restaurant,Rumah Makan,RM. Anjani,"Jl. Ahmad Yani, Nanga Bulik, Kec. Bulik, Kabupaten Lamandau, Kalimantan Tengah","Kabupaten Lamandau, Kalimantan Tengah",KALIMANTAN TENGAH,,Indonesia,81281902052.0,,,-2.1946167,111.4446958,https://maps.google.com/?cid=0x0:0x2c9d8bd8e85eb91b,
restaurant,Perhimpunan Pengembang Perumahan,Rumah Makan Simpang Tempajak,"X5GX+RH, Panopa, Kec. Lamandau, Kabupaten Lamandau, Kalimantan Tengah","Kabupaten Lamandau, Kalimantan Tengah",KALIMANTAN TENGAH,,Indonesia,,,,-2.0229375,111.1989375,https://maps.google.com/?cid=0x0:0xf0d447f04f450a5,
restaurant,Batak,Lapo Marsada,"352J+J56, Penopa - Kujan, Panopa, Kec. Lamandau, Kabupaten Lamandau, Kalimantan Tengah 74663","Penopa - Kujan, Panopa, Kec. Lamandau, Kabupaten Lamandau",KALIMANTAN TENGAH,74663.0,Indonesia,8125886954.0,,,-1.9484684,111.180379,https://maps.google.com/?cid=0x0:0x6965bf398e8c8658,
restaurant,Pasar,Pasar Malam,"RF93+P34, Nanga Bulik, Kec. Bulik, Kabupaten Lamandau, Kalimantan Tengah 74161","Nanga Bulik, Kec. Bulik, Kabupaten Lamandau",KALIMANTAN TENGAH,74161.0,Indonesia,,,,-2.1807313,111.4527101,https://maps.google.com/?cid=0x0:0xb07bfdeab35e82d5,
restaurant,Restoran,Warung Makan Wong Ndeso,"RF83+XX9, Jl. Batu Batanggui, Nanga Bulik, Kec. Bulik, Kabupaten Lamandau, Kalimantan Tengah 74161","Jl. Batu Batanggui, Nanga Bulik, Kec. Bulik, Kabupaten Lamandau",KALIMANTAN TENGAH,74161.0,Indonesia,,,,-2.1825852,111.454999,https://maps.google.com/?cid=0x0:0x4a2e05ecbbfc5341,
restaurant,Restoran,JANGSO BBQ  HOTPOT,"QFQ8+WX2, Jl. Gustie Ardie, Kujan, Kec. Bulik, Kabupaten Lamandau, Kalimantan Tengah 74161","Jl. Gustie Ardie, Kujan, Kec. Bulik, Kabupaten Lamandau",KALIMANTAN TENGAH,74161.0,Indonesia,81256047773.0,,,-2.210249,111.4673817,https://maps.google.com/?cid=0x0:0x4585265779d04384,
restaurant,Sarapan,Rumah makan Pak Sukro,"6C66+C92, Bayat, Kec. Belantikan Raya, Kabupaten Lamandau, Kalimantan Tengah","Kabupaten Lamandau, Kalimantan Tengah",KALIMANTAN TENGAH,,Indonesia,,,,-1.7889831,111.4109061,https://maps.google.com/?cid=0x0:0xd6c533603239fa2,
restaurant,Kedai Kopi,Teras Coffe Lamandau,"Jl. W.R. Supratman No.20b, Nanga Bulik, Kec. Bulik, Kabupaten Lamandau, Kalimantan Tengah 74611","Nanga Bulik, Kec. Bulik, Kabupaten Lamandau",KALIMANTAN TENGAH,74611.0,Indonesia,82253268553.0,,,-2.1813583,111.4345042,https://maps.google.com/?cid=0x0:0x60d64bbc38c7c4e4,
restaurant,Restoran,Sate Ngapak yanrisfa,"488M+QGM, Unnamed Road, Sekoban, Kec. Lamandau, Kabupaten Lamandau, Kalimantan Tengah 74663","Unnamed Road, Sekoban, Kec. Lamandau, Kabupaten Lamandau",KALIMANTAN TENGAH,74663.0,Indonesia,,,,-1.8830424,111.3337886,https://maps.google.com/?cid=0x0:0xd7d12a82ed06c124,
restaurant,Restoran,RM. Dapoer Henny,"Jl. Melati No.05, RT.11_b, Nanga Bulik, Kec. Bulik, Kabupaten Lamandau, Kalimantan Tengah 74161","RT.11_b, Nanga Bulik, Kec. Bulik, Kabupaten Lamandau",KALIMANTAN TENGAH,74161.0,Indonesia,81255471999.0,,,-2.1847784,111.4496178,https://maps.google.com/?cid=0x0:0xc2eac28035d747f1,
restaurant,Restoran,Rumah Makan Horas,"RCFQ+35J, Jalan, Nanga Bulik, Bulik, Lamandau Regency, Central Kalimantan 74161","Jalan, Nanga Bulik, Bulik, Lamandau Regency",KALIMANTAN TENGAH,74161.0,Indonesia,81254605366.0,,,-2.1772878,111.4379043,https://maps.google.com/?cid=0x0:0x51ea71e5a06cf055,
restaurant,Brunch,Warung Makan Madiun,"RC9J+9F4, Nanga Bulik, Kec. Bulik, Kabupaten Lamandau, Kalimantan Tengah 74161","Nanga Bulik, Kec. Bulik, Kabupaten Lamandau",KALIMANTAN TENGAH,74161.0,Indonesia,,,,-2.1816124,111.4312046,https://maps.google.com/?cid=0x0:0x5dc9a1aebcd874bd,
restaurant,Nasi,Warung Makan Cak Bro,"jl. trans, Panopa, Kec. Lamandau, Kabupaten Lamandau, Kalimantan Tengah 74663","Panopa, Kec. Lamandau, Kabupaten Lamandau",KALIMANTAN TENGAH,74663.0,Indonesia,,,,-1.9837586,111.1852324,https://maps.google.com/?cid=0x0:0xec46154202776d4f,
restaurant,Batak,WARUNG AREN GULTOM,"35M3+63, Karang Taba, Kec. Lamandau, Kabupaten Lamandau, Kalimantan Tengah 74663","Karang Taba, Kec. Lamandau, Kabupaten Lamandau",KALIMANTAN TENGAH,74663.0,Indonesia,81255931417.0,,,-1.9181044,111.1528495,https://maps.google.com/?cid=0x0:0xf4f48df8bd1e1eb7,
restaurant,restaurant,Kalimantan Tengah 74162,"Kabupaten Lamandau, Kalimantan Tengah","Kabupaten Lamandau, Kalimantan Tengah",KALIMANTAN TENGAH,,Indonesia,,,,-1.7404903,111.5229817,https://maps.google.com/?cid=0x0:0xcbde8a77875b152b,
restaurant,Jawa,Rumah makan simpang,"WJMW+P33, Unnamed Road, Bukit Raya, Kec. Menthobi Raya, Kabupaten Lamandau, Kalimantan Tengah 74117","Unnamed Road, Bukit Raya, Kec. Menthobi Raya, Kabupaten Lamandau",KALIMANTAN TENGAH,74117.0,Indonesia,85654268802.0,,,-2.0657401,111.6451813,https://maps.google.com/?cid=0x0:0x64497622d0971293,
restaurant,Rumah Makan,Warung Makan Mbak Wiwik,"WJMV+286, Bukit Raya, Kec. Menthobi Raya, Kabupaten Lamandau, Kalimantan Tengah 74117","Bukit Raya, Kec. Menthobi Raya, Kabupaten Lamandau",KALIMANTAN TENGAH,74117.0,Indonesia,85754982288.0,,,-2.067467,111.643263,https://maps.google.com/?cid=0x0:0xf3c8b1f04ecbdcc8,
restaurant,Restoran,Rumah Makan  (Dehan Dan Dodoy),"WJMW+F8W, Bukit Raya, Kec. Menthobi Raya, Kabupaten Lamandau, Kalimantan Tengah 74117","Bukit Raya, Kec. Menthobi Raya, Kabupaten Lamandau",KALIMANTAN TENGAH,74117.0,Indonesia,81251125939.0,,,-2.0662702,111.6458344,https://maps.google.com/?cid=0x0:0xfad091011f015f57,
restaurant,Sunda,Rumah Makan De Ajeng,"WJJR+VCM, Unnamed Road, Bukit Raya, Menthobi Raya, Lamandau Regency, Central Kalimantan 74117","Unnamed Road, Bukit Raya, Menthobi Raya, Lamandau Regency",KALIMANTAN TENGAH,74117.0,Indonesia,82353079982.0,,,-2.0677866,111.641038,https://maps.google.com/?cid=0x0:0xd06fc0ebb75776b7,
restaurant,Restoran,Warung Makan Wong Ndeso,"RF83+XX9, Jl. Batu Batanggui, Nanga Bulik, Kec. Bulik, Kabupaten Lamandau, Kalimantan Tengah 74161","Jl. Batu Batanggui, Nanga Bulik, Kec. Bulik, Kabupaten Lamandau",KALIMANTAN TENGAH,74161.0,Indonesia,,,,-2.1825852,111.454999,https://maps.google.com/?cid=0x0:0x4a2e05ecbbfc5341,
restaurant,Sarapan,Rumah makan cinta,"4F2M+RV2, Bukit Jaya, Kec. Bulik Tim., Kabupaten Lamandau, Kalimantan Tengah 74162","Bukit Jaya, Kec. Bulik Tim., Kabupaten Lamandau",KALIMANTAN TENGAH,74162.0,Indonesia,82250214153.0,,,-1.8982436,111.484509,https://maps.google.com/?cid=0x0:0x23b8d08a9f31c55c,
restaurant,Indonesia,Handika Resto,"WH5W+PFH, Bukit Makmur, Kec. Menthobi Raya, Kabupaten Lamandau, Kalimantan Tengah 74117","Bukit Makmur, Kec. Menthobi Raya, Kabupaten Lamandau",KALIMANTAN TENGAH,74117.0,Indonesia,,,,-2.0906771,111.5962313,https://maps.google.com/?cid=0x0:0xd4329aead64c1625,
restaurant,Rumah Makan,Rumah Makan Andah,"RF89+P5V, Jl. JC Rangkap, Nanga Bulik, Kec. Bulik, Kabupaten Lamandau, Kalimantan Tengah 74161","Jl. JC Rangkap, Nanga Bulik, Kec. Bulik, Kabupaten Lamandau",KALIMANTAN TENGAH,74161.0,Indonesia,,,,-2.1831411,111.4679249,https://maps.google.com/?cid=0x0:0xa9df1f6babf0ea8a,
restaurant,Dapur Umum,MIE AYAM MBAK ALIYAH,"WJMP+94M, Bukit Raya, Kec. Menthobi Raya, Kabupaten Lamandau, Kalimantan Tengah 74117","Bukit Raya, Kec. Menthobi Raya, Kabupaten Lamandau",KALIMANTAN TENGAH,74117.0,Indonesia,82352567779.0,,,-2.0665342,111.6353108,https://maps.google.com/?cid=0x0:0xd21c929493d4ef96,
restaurant,Dapur Umum,Gado mamak riris,"WG7X+F69, Sungai Mentawa, Kec. Bulik, Kabupaten Lamandau, Kalimantan Tengah 74162","Sungai Mentawa, Kec. Bulik, Kabupaten Lamandau",KALIMANTAN TENGAH,74162.0,Indonesia,81528819904.0,,,-2.0863283,111.5481004,https://maps.google.com/?cid=0x0:0xbec7b6d55197b6c3,
restaurant,Dapur Umum,Warung MakanBakso Teh Lilis,"WJMJ+7P, Bukit Raya, Kec. Menthobi Raya, Kabupaten Lamandau, Kalimantan Tengah","Kabupaten Lamandau, Kalimantan Tengah",KALIMANTAN TENGAH,,Indonesia,81346354323.0,,,-2.066822,111.63185,https://maps.google.com/?cid=0x0:0x542533f4e523eae9,
restaurant,Restoran,Rumah Makan Mbak Kokom,"WJVQ+RH6, Mukti Manunggal, Kec. Menthobi Raya, Kabupaten Lamandau, Kalimantan Tengah 74117","Mukti Manunggal, Kec. Menthobi Raya, Kabupaten Lamandau",KALIMANTAN TENGAH,74117.0,Indonesia,82159490567.0,,,-2.0554725,111.6388828,https://maps.google.com/?cid=0x0:0x6c542f8efb10291b,
restaurant,Rumah Makan,RM. BAROKAH,"Jl. Tjilik Riwut No.66, Nanga Bulik, Kec. Bulik, Kabupaten Lamandau, Kalimantan Tengah 74161","Nanga Bulik, Kec. Bulik, Kabupaten Lamandau",KALIMANTAN TENGAH,74161.0,Indonesia,85235047895.0,,,-2.1814629,111.4667497,https://maps.google.com/?cid=0x0:0x3e5c4182044adfbb,
restaurant,Jawa,RUMAH MAKAN PODO TRESNO,"Jl. Batu Batanggui, Nanga Bulik, Kec. Bulik, Kabupaten Lamandau, Kalimantan Tengah 74161","Nanga Bulik, Kec. Bulik, Kabupaten Lamandau",KALIMANTAN TENGAH,74161.0,Indonesia,82338629157.0,,,-2.1799331,111.462615,https://maps.google.com/?cid=0x0:0xcc00594a1601ce39,
restaurant,Dapur Umum,Warung Nasi Kuning Kecamatan,"RF83+VPX, Jl. Batu Batanggui, Nanga Bulik, Kec. Bulik, Kabupaten Lamandau, Kalimantan Tengah 74161","Jl. Batu Batanggui, Nanga Bulik, Kec. Bulik, Kabupaten Lamandau",KALIMANTAN TENGAH,74161.0,Indonesia,,,,-2.1827503,111.4543541,https://maps.google.com/?cid=0x0:0x6027e4841338dd33,
restaurant,Restoran,Warung Makan Sabar Menanti,"RF96+93P, Jl. Batu Batanggui, Nanga Bulik, Kec. Bulik, Kabupaten Lamandau, Kalimantan Tengah 74162","Jl. Batu Batanggui, Nanga Bulik, Kec. Bulik, Kabupaten Lamandau",KALIMANTAN TENGAH,74162.0,Indonesia,81351366666.0,,,-2.181539,111.4602097,https://maps.google.com/?cid=0x0:0x1aa200af6c27c704,
restaurant,Restoran,Keday Lesehan Rafii,"WJMV+63Q, Unnamed Road, Bukit Raya, Kec. Menthobi Raya, Kabupaten Lamandau, Kalimantan Tengah 74117","Unnamed Road, Bukit Raya, Kec. Menthobi Raya, Kabupaten Lamandau",KALIMANTAN TENGAH,74117.0,Indonesia,85705219181.0,,,-2.0669182,111.6427243,https://maps.google.com/?cid=0x0:0xf0f3c6ba6fa61002,
restaurant,Restoran,RM Batak Rade NaTabo Br Sinaga,"Jl. Nanga Bulik No.40, Nanga Bulik, Kec. Bulik, Kabupaten Lamandau, Kalimantan Tengah 74662","Nanga Bulik, Kec. Bulik, Kabupaten Lamandau",KALIMANTAN TENGAH,74662.0,Indonesia,82159015280.0,,,-2.176115,111.430645,https://maps.google.com/?cid=0x0:0x1a0d71613f52dff3,
restaurant,Restoran,Warung Makan MAMAH IRA,"RT.05/RW.02, Arga Mulya, Kec. Bulik, Kabupaten Lamandau, Kalimantan Tengah 74162","Arga Mulya, Kec. Bulik, Kabupaten Lamandau",KALIMANTAN TENGAH,74162.0,Indonesia,85849639042.0,,,-2.1412044,111.3934556,https://maps.google.com/?cid=0x0:0xa7706b7b9eb119c4,
restaurant,Restoran,MAK QUEEN RESTO,"VGFW+MJF, Unnamed Road, Bunut, Bulik, Lamandau Regency, Central Kalimantan 74161","Unnamed Road, Bunut, Bulik, Lamandau Regency",KALIMANTAN TENGAH,74161.0,Indonesia,,,,-2.1258155,111.5465421,https://maps.google.com/?cid=0x0:0x99706f6f3bb8223f,
restaurant,Restoran,RM. Dapoer Henny,"Jl. Melati No.05, RT.11_b, Nanga Bulik, Kec. Bulik, Kabupaten Lamandau, Kalimantan Tengah 74161","RT.11_b, Nanga Bulik, Kec. Bulik, Kabupaten Lamandau",KALIMANTAN TENGAH,74161.0,Indonesia,81255471999.0,,,-2.1847784,111.4496178,https://maps.google.com/?cid=0x0:0xc2eac28035d747f1,
restaurant,restaurant,KONIWA cafe,"Unnamed Road No.74161, Nanga Bulik, Kec. Bulik, Kabupaten Lamandau, Kalimantan Tengah 74161","Nanga Bulik, Kec. Bulik, Kabupaten Lamandau",KALIMANTAN TENGAH,74161.0,Indonesia,,,,-2.1775822,111.4377701,https://maps.google.com/?cid=0x0:0x198e654402ae705a,
restaurant,restaurant,Kec. Menthobi Raya,"Kabupaten Lamandau, Kalimantan Tengah","Kabupaten Lamandau, Kalimantan Tengah",KALIMANTAN TENGAH,,Indonesia,,,,-2.050416,111.6153851,https://maps.google.com/?cid=0x0:0x45123dfed8d40bd7,
restaurant,Jawa,Warung Mbak Sri Rejeki,"WJHP+PRC, Unnamed Road, Bukit Raya, Kec. Menthobi Raya, Kabupaten Lamandau, Kalimantan Tengah 74117","Unnamed Road, Bukit Raya, Kec. Menthobi Raya, Kabupaten Lamandau",KALIMANTAN TENGAH,74117.0,Indonesia,85821195423.0,,,-2.0706828,111.6370063,https://maps.google.com/?cid=0x0:0x969332d4cc9e615f,
restaurant,Mi,Mie Ayam Baru Muncul,"WJJR+W8W, Unnamed Road, Bukit Raya, Kec. Menthobi Raya, Kabupaten Lamandau, Kalimantan Tengah 74117","Unnamed Road, Bukit Raya, Kec. Menthobi Raya, Kabupaten Lamandau",KALIMANTAN TENGAH,74117.0,Indonesia,,,,-2.067643,111.640837,https://maps.google.com/?cid=0x0:0x894036be7649d45f,
restaurant,Restoran,Wr Mbak Komom,"WJWJ+HXW, Mukti Manunggal, Kec. Menthobi Raya, Kabupaten Lamandau, Kalimantan Tengah 74117","Mukti Manunggal, Kec. Menthobi Raya, Kabupaten Lamandau",KALIMANTAN TENGAH,74117.0,Indonesia,8215949057.0,,,-2.0535131,111.6324687,https://maps.google.com/?cid=0x0:0x362c27534edab9f0,
restaurant,Jawa,Warung Makan Bunda Vitha,"WJPV+JH9, Bukit Raya, Kec. Menthobi Raya, Kabupaten Lamandau, Kalimantan Tengah","Kabupaten Lamandau, Kalimantan Tengah",KALIMANTAN TENGAH,,Indonesia,82256656850.0,,,-2.0634556,111.6439713,https://maps.google.com/?cid=0x0:0x46f68a1d4331948f,
restaurant,Toko bahan makanan,Melata arapura,"2J74+VHP, Melata, Kec. Menthobi Raya, Kabupaten Lamandau, Kalimantan Tengah","Kabupaten Lamandau, Kalimantan Tengah",KALIMANTAN TENGAH,,Indonesia,,,,-1.9852984,111.6064513,https://maps.google.com/?cid=0x0:0x92737e07e2d2debe,
restaurant,restaurant,Kec. Sematu Jaya,"Kabupaten Lamandau, Kalimantan Tengah","Kabupaten Lamandau, Kalimantan Tengah",KALIMANTAN TENGAH,,Indonesia,,,,-2.2356757,111.5156988,https://maps.google.com/?cid=0x0:0xa84b471e5053bba1,
restaurant,Padang,Warung Makan Sari Rasa,"jl.trans kalimantan purwareja, Purworejo, Kec. Sematu Jaya, Kabupaten Lamandau, Kalimantan Tengah 74161","Purworejo, Kec. Sematu Jaya, Kabupaten Lamandau",KALIMANTAN TENGAH,74161.0,Indonesia,,,,-2.2354715,111.5157566,https://maps.google.com/?cid=0x0:0x979d50ca3b120d53,
restaurant,Restoran,RM.PANDAWA.SRI REJEKI,"QG3M+24J, IndonesiaYn, Jl. Lintas Kalimantan, Purworejo, Kec. Sematu Jaya, Kabupaten Lamandau, Kalimantan Tengah 74161","IndonesiaYn, Jl. Lintas Kalimantan, Purworejo, Kec. Sematu Jaya, Kabupaten Lamandau",KALIMANTAN TENGAH,74161.0,Indonesia,82151563857.0,,,-2.2474051,111.5327618,https://maps.google.com/?cid=0x0:0x36f26519b2f42b34,
restaurant,Dapur Umum,Latanza SOP IGA,"QG69+3GJ, Purworejo, Kec. Sematu Jaya, Kabupaten Lamandau, Kalimantan Tengah 74161","Purworejo, Kec. Sematu Jaya, Kabupaten Lamandau",KALIMANTAN TENGAH,74161.0,Indonesia,,,,-2.2397797,111.5187741,https://maps.google.com/?cid=0x0:0x34d946daf8670a86,
restaurant,Kedai Kopi,Waroeng Tengah,"Jl. Lintas Kalimantan, RT.004/RW.003, Purworejo, Kec. Sematu Jaya, Kabupaten Lamandau, Kalimantan Tengah 74669","RT.004/RW.003, Purworejo, Kec. Sematu Jaya, Kabupaten Lamandau",KALIMANTAN TENGAH,74669.0,Indonesia,81222594289.0,,,-2.234751,111.5152115,https://maps.google.com/?cid=0x0:0x17f35056cef6b923,
restaurant,Brunch,warung makan SARINAH,"PG3W+X2M, Mekar Mulya, Kec. Sematu Jaya, Kabupaten Lamandau, Kalimantan Tengah 74161","Mekar Mulya, Kec. Sematu Jaya, Kabupaten Lamandau",KALIMANTAN TENGAH,74161.0,Indonesia,,,,-2.2950324,111.5450394,https://maps.google.com/?cid=0x0:0xacd89c2458bcf484,
restaurant,Restoran,Rumah Makan Fitria,"QGH7+2QP, Jl. Lintas Kalimantan, Purworejo, Kec. Sematu Jaya, Kabupaten Lamandau, Kalimantan Tengah 74161","Jl. Lintas Kalimantan, Purworejo, Kec. Sematu Jaya, Kabupaten Lamandau",KALIMANTAN TENGAH,74161.0,Indonesia,,,,-2.2224102,111.5144389,https://maps.google.com/?cid=0x0:0x8b03ac8d0680d85d,
restaurant,Kedai Kopi,Warung Lesehan SHANUM,"Mekar Mulya, Kec. Sematu Jaya, Kabupaten Lamandau, Kalimantan Tengah","Kabupaten Lamandau, Kalimantan Tengah",KALIMANTAN TENGAH,,Indonesia,82158122799.0,,,-2.2879832,111.552161,https://maps.google.com/?cid=0x0:0x36a2eb73d62c7173,
restaurant,Makanan Kecil,Warung Sate TIKA,"QG87+WC5, Jl. Lintas Kalimantan, Purworejo, Kec. Sematu Jaya, Kabupaten Lamandau, Kalimantan Tengah 74161","Jl. Lintas Kalimantan, Purworejo, Kec. Sematu Jaya, Kabupaten Lamandau",KALIMANTAN TENGAH,74161.0,Indonesia,82156045876.0,,,-2.2327447,111.5136042,https://maps.google.com/?cid=0x0:0x63f988fe0bfce81,
restaurant,Makanan Kecil,Kedai Dapur Umma,"Desa purwareja RT 9, Kec. Sematu Jaya, Kabupaten Lamandau","Kabupaten Lamandau, Kalimantan Tengah",KALIMANTAN TENGAH,,Indonesia,85651920394.0,,,-2.2220636,111.5154013,https://maps.google.com/?cid=0x0:0x9ca2979fe2ef9b45,
restaurant,Makanan Kecil,Rinara Kebab,"PGWH+9WX, Jalan Trans Desa, Jangkar Prima, Sematu Jaya, Lamandau Regency, Central Kalimantan 74161","Jalan Trans Desa, Jangkar Prima, Sematu Jaya, Lamandau Regency",KALIMANTAN TENGAH,74161.0,Indonesia,,,,-2.2540219,111.5298517,https://maps.google.com/?cid=0x0:0xdc3f14b3f391d57e,
restaurant,Brunch,Warung Makan Qidela,"QGH7+RQG, Bina Bhakti, Kec. Sematu Jaya, Kabupaten Lamandau, Kalimantan Tengah 74161","Bina Bhakti, Kec. Sematu Jaya, Kabupaten Lamandau",KALIMANTAN TENGAH,74161.0,Indonesia,,,,-2.2204326,111.5144417,https://maps.google.com/?cid=0x0:0x88f2aa9b6b46839b,
restaurant,Restoran,Indah foot,"QH7F+GHR, Wonorejo, Kec. Sematu Jaya, Kabupaten Lamandau, Kalimantan Tengah 74161","Wonorejo, Kec. Sematu Jaya, Kabupaten Lamandau",KALIMANTAN TENGAH,74161.0,Indonesia,85787476301.0,,,-2.23615,111.5738916,https://maps.google.com/?cid=0x0:0x96aa8a2df65c6b68,
restaurant,Kafe,Kuliner shivi,"QH39+RPX, Unnamed Road, Wonorejo, Kec. Sematu Jaya, Kabupaten Lamandau, Kalimantan Tengah 74161","Unnamed Road, Wonorejo, Kec. Sematu Jaya, Kabupaten Lamandau",KALIMANTAN TENGAH,74161.0,Indonesia,8528830810.0,,,-2.2453905,111.5693523,https://maps.google.com/?cid=0x0:0xcebe0fe56d3eab1a,
restaurant,Makanan Kecil,Warung Makanan Trenggalek Mbak Sutilah,"PGRP+FC4, Jangkar Prima, Kec. Sematu Jaya, Kabupaten Lamandau, Kalimantan Tengah 74161","Jangkar Prima, Kec. Sematu Jaya, Kabupaten Lamandau",KALIMANTAN TENGAH,74161.0,Indonesia,,,,-2.2588505,111.5360725,https://maps.google.com/?cid=0x0:0x893199e20ef358d1,
restaurant,Masakan Asia,@Dapur linabasthuk,"Jangkar Prima, Kec. Sematu Jaya, Kabupaten Lamandau, Kalimantan Tengah 74161","Kec. Sematu Jaya, Kabupaten Lamandau",KALIMANTAN TENGAH,74161.0,Indonesia,85787243891.0,,,-2.258594,111.5294819,https://maps.google.com/?cid=0x0:0xc7431cb09143a4e1,
restaurant,Kafe,Warung makan,"Jangkar prima RT 13, Kabupaten Lamandau, Kalimantan Tengah 74161",Kabupaten Lamandau,KALIMANTAN TENGAH,74161.0,Indonesia,81345894108.0,,,-2.2567655,111.5333091,https://maps.google.com/?cid=0x0:0x6ed86b5c043e54fb,
restaurant,Restoran,Warung nadhila,"PHW7+8R, Wonorejo, Kec. Sematu Jaya, Kabupaten Lamandau, Kalimantan Tengah","Kabupaten Lamandau, Kalimantan Tengah",KALIMANTAN TENGAH,,Indonesia,81251393512.0,,,-2.2542757,111.5645513,https://maps.google.com/?cid=0x0:0x4052690e57b9629f,
cafe,cafe,Kalimantan Tengah 74664,"Kabupaten Lamandau, Kalimantan Tengah","Kabupaten Lamandau, Kalimantan Tengah",KALIMANTAN TENGAH,,Indonesia,,,,-1.6722405,111.1414226,https://maps.google.com/?cid=0x0:0x2e393b90c2443400,
cafe,Toko,KESAH KOPI,"F5W3+QH5, Kina, Kec. Batang Kawa, Kabupaten Lamandau, Kalimantan Tengah","Kabupaten Lamandau, Kalimantan Tengah",KALIMANTAN TENGAH,,Indonesia,,,,-1.5031112,111.153976,https://maps.google.com/?cid=0x0:0x59ca094548d64652,
cafe,Sarapan,Warung Makan Taman Garu,"Jl. Lintas Kalimantan, Kawa, Kec. Lamandau, Kabupaten Lamandau, Kalimantan Tengah 74663","Kawa, Kec. Lamandau, Kabupaten Lamandau",KALIMANTAN TENGAH,74663.0,Indonesia,85249544442.0,,,-1.8762614,111.1143746,https://maps.google.com/?cid=0x0:0xbe70126e20ef08da,
cafe,Area Wi-Fi,Wifi Melin by EWT,"957F+VM2, Mengkalang, Kec. Batang Kawa, Kabupaten Lamandau, Kalimantan Tengah 74664","Mengkalang, Kec. Batang Kawa, Kabupaten Lamandau",KALIMANTAN TENGAH,74664.0,Indonesia,,,,-1.6359053,111.1752456,https://maps.google.com/?cid=0x0:0x8d3c24acd8dbe802,
cafe,Bar,Nanga bulik,"6355+958, Sungai Tuat, Kec. Lamandau, Kabupaten Lamandau, Kalimantan Tengah","Kabupaten Lamandau, Kalimantan Tengah",KALIMANTAN TENGAH,,Indonesia,,,,-1.7915792,111.0579632,https://maps.google.com/?cid=0x0:0x17703f9ef0d8b890,
cafe,Dapur Umum,Warung Makan Ibu Hj. Munawaroh Jepara,"925P+RJR, Lopus, Kec. Delang, Kabupaten Lamandau, Kalimantan Tengah 74664","Lopus, Kec. Delang, Kabupaten Lamandau",KALIMANTAN TENGAH,74664.0,Indonesia,,,,-1.64038,111.0365055,https://maps.google.com/?cid=0x0:0x49414aafb38fef02,
cafe,Toko,RM. Mama CIKA,"92WQ+J2G, Kudangan, Kec. Delang, Kabupaten Lamandau, Kalimantan Tengah 74664","Kudangan, Kec. Delang, Kabupaten Lamandau",KALIMANTAN TENGAH,74664.0,Indonesia,81352770504.0,,,-1.6034257,111.0375663,https://maps.google.com/?cid=0x0:0x866abee4a4f142e2,
cafe,cafe,Warkop Mr.Rb,"Sungai Tuat, Kec. Lamandau, Kabupaten Lamandau, Kalimantan Tengah","Kabupaten Lamandau, Kalimantan Tengah",KALIMANTAN TENGAH,,Indonesia,,,,-1.7855392,111.0914738,https://maps.google.com/?cid=0x0:0x897aa9ad714da955,
cafe,Kedai Kopi,Teras Coffe Lamandau,"Jl. W.R. Supratman No.20b, Nanga Bulik, Kec. Bulik, Kabupaten Lamandau, Kalimantan Tengah 74611","Nanga Bulik, Kec. Bulik, Kabupaten Lamandau",KALIMANTAN TENGAH,74611.0,Indonesia,82253268553.0,,,-2.1813583,111.4345042,https://maps.google.com/?cid=0x0:0x60d64bbc38c7c4e4,
cafe,Rumah Makan,WR markiteng,"kalimatan, Jl. Lintas Kalimantan, Cuhai, Kec. Lamandau, Kabupaten Lamandau, Kalimantan Tengah","Kabupaten Lamandau, Kalimantan Tengah",KALIMANTAN TENGAH,,Indonesia,,,,-1.8230157,111.1041242,https://maps.google.com/?cid=0x0:0x7cf64e95be2c88c4,
cafe,Brunch,Zea Fam's,"Sungai Tuat, Kec. Lamandau, Kabupaten Lamandau, Kalimantan Tengah","Kabupaten Lamandau, Kalimantan Tengah",KALIMANTAN TENGAH,,Indonesia,,,,-1.7858192,111.0917611,https://maps.google.com/?cid=0x0:0x153657259504cc58,
cafe,cafe,Bukit tengkorak,"C262+RR, Kudangan, Kec. Delang, Kabupaten Lamandau, Kalimantan Tengah","Kabupaten Lamandau, Kalimantan Tengah",KALIMANTAN TENGAH,,Indonesia,,,,-1.5879953,111.0020262,https://maps.google.com/?cid=0x0:0x64920b9950cf22fc,
cafe,Brunch,WARUNG BATAS,"CWGC+J98, Jl. Lintas Kalimantan, Betenung, Kec. Nanga Tayap, Kabupaten Ketapang, Kalimantan Barat 78873","Jl. Lintas Kalimantan, Betenung, Kec. Nanga Tayap, Kabupaten Ketapang",KALIMANTAN TENGAH,78873.0,Indonesia,81253113420.0,,,-1.5734586,110.9209423,https://maps.google.com/?cid=0x0:0xeb79717a1bbf870b,
cafe,Restoran,LEVEL UP,"RC8V+VQW, Jl. Bukit Hibul Timur, Nanga Bulik, Kec. Bulik, Kabupaten Lamandau, Kalimantan Tengah 74161","Jl. Bukit Hibul Timur, Nanga Bulik, Kec. Bulik, Kabupaten Lamandau",KALIMANTAN TENGAH,74161.0,Indonesia,,,,-2.1827683,111.4444393,https://maps.google.com/?cid=0x0:0x75ec50608f1170f2,
cafe,Kafe,Kopi Wal,"Jl. Pupu Hermansyah, Nanga Bulik, Kec. Bulik, Kabupaten Lamandau, Kalimantan Tengah 74161","Nanga Bulik, Kec. Bulik, Kabupaten Lamandau",KALIMANTAN TENGAH,74161.0,Indonesia,81347907829.0,,,-2.1793133,111.4592332,https://maps.google.com/?cid=0x0:0x586fec0e64ee7752,
cafe,Rumah Makan,Warung Makan Melayu Sipa Putri,"CV69+J3, Betenung, Kec. Nanga Tayap, Kabupaten Ketapang, Kalimantan Barat","Kabupaten Ketapang, Kalimantan Barat",KALIMANTAN TENGAH,,Indonesia,82159259631.0,,,-1.5884773,110.8676817,https://maps.google.com/?cid=0x0:0xeafc962601de48a,
cafe,Toko,Warung Jenthara,"C23P+63, Kudangan, Kec. Delang, Kabupaten Lamandau, Kalimantan Tengah","Kabupaten Lamandau, Kalimantan Tengah",KALIMANTAN TENGAH,,Indonesia,,,,-1.5969813,111.0351595,https://maps.google.com/?cid=0x0:0x7d1e77471c2567e6,
cafe,Produsen,GILINGAN PENTOL BU IIM,"Jl. Lintas Kalimantan, Cuhai, Kec. Lamandau, Kabupaten Lamandau, Kalimantan Tengah","Kabupaten Lamandau, Kalimantan Tengah",KALIMANTAN TENGAH,,Indonesia,,,,-1.8230157,111.1041242,https://maps.google.com/?cid=0x0:0xf2c9149f7948e944,
cafe,Kafe,Cafe Batang Banyu,"HHV5+RGR, Jl. Ais Nasution, Sungai Undang, Kec. Seruyan Hilir, Kabupaten Seruyan, Kalimantan Tengah 74215","Jl. Ais Nasution, Sungai Undang, Kec. Seruyan Hilir, Kabupaten Seruyan",KALIMANTAN TENGAH,74215.0,Indonesia,85751893260.0,,,-3.4053851,112.5587518,https://maps.google.com/?cid=0x0:0xb71751bae085ff75,
cafe,Perumahan,Gerbang Batas Provinsi Kalimantan Barat - Kalimantan Tengah,"CWGC+M8Q, Jl. Ahmad Yani, Betenung, Kec. Nanga Tayap, Kabupaten Ketapang, Kalimantan Barat 78873","Jl. Ahmad Yani, Betenung, Kec. Nanga Tayap, Kabupaten Ketapang",KALIMANTAN TENGAH,78873.0,Indonesia,,,,-1.5732793,110.9208568,https://maps.google.com/?cid=0x0:0xdd2c06709575af73,
cafe,Kedai Kopi,Mahardika Coffee and Eatery,"Jl. Semeru No.82B, Palangka, Kec. Jekan Raya, Kota Palangka Raya, Kalimantan Tengah 73112","Palangka, Kec. Jekan Raya, Kota Palangka Raya",KALIMANTAN TENGAH,73112.0,Indonesia,811520095.0,,,-2.20736,113.9060515,https://maps.google.com/?cid=0x0:0x78f7377618bab06f,
cafe,Kedai Kopi,Kupi ETO,"Jl. Lintas Kalimantan Poros Tengah, Puruk Cahu, Kec. Murung, Kabupaten Murung Raya, Kalimantan Tengah 73911","Puruk Cahu, Kec. Murung, Kabupaten Murung Raya",KALIMANTAN TENGAH,73911.0,Indonesia,82239135557.0,,,-0.6498765,114.5724467,https://maps.google.com/?cid=0x0:0xfb73b3b27ffa8122,
cafe,cafe,Rm. Berkah,"Kudangan, Kec. Delang, Kabupaten Lamandau, Kalimantan Tengah","Kabupaten Lamandau, Kalimantan Tengah",KALIMANTAN TENGAH,,Indonesia,,,,-1.5969426,111.0355073,https://maps.google.com/?cid=0x0:0x7f4a0b7dec6bb580,
cafe,Kedai Kopi,Valv Coffee And Eatery,"Jl. Sangga Buana I No.668, Palangka, Kec. Jekan Raya, Kota Palangka Raya, Kalimantan Tengah 73112","Palangka, Kec. Jekan Raya, Kota Palangka Raya",KALIMANTAN TENGAH,73112.0,Indonesia,,,,-2.207539,113.9047064,https://maps.google.com/?cid=0x0:0x61f76c9e03699b48,
cafe,Kedai Kopi,WILL BACK COFFEE,"Madurejo, Kec. Arut Sel., Kabupaten Kotawaringin Barat, Kalimantan Tengah 74181","Kec. Arut Sel., Kabupaten Kotawaringin Barat",KALIMANTAN TENGAH,74181.0,Indonesia,81226585871.0,,,-2.7116007,111.6470576,https://maps.google.com/?cid=0x0:0x94ede67ae1b9e766,
cafe,Kafe,Seperti Biasa Coffee and Cake,"Jl. AntanJl. Antang Kalang No.53A, Langkai, Kec. Pahandut, Kota Palangka, 74874g Kalang, Raya, Kota Palangka Raya, Kalimantan Tengah 74874","Langkai, Kec. Pahandut, Kota Palangka, 74874g Kalang, Raya, Kota Palangka Raya",KALIMANTAN TENGAH,74874.0,Indonesia,81775285870.0,,,-2.2265972,113.9264236,https://maps.google.com/?cid=0x0:0x71c6327f66227b2c,
cafe,Kedai Kopi,BAIT.CO,"Jl. Tmg. Jayakarti No.30, Langkai, Kec. Pahandut, Kota Palangka Raya, Kalimantan Tengah 74874","Langkai, Kec. Pahandut, Kota Palangka Raya",KALIMANTAN TENGAH,74874.0,Indonesia,81351905990.0,,,-2.2252692,113.9243253,https://maps.google.com/?cid=0x0:0x5a26386943cb0f6d,
cafe,Area Mendaki,Simpang Batang Kawa,"8424+HM, Sepoyu, Kec. Delang, Kabupaten Lamandau, Kalimantan Tengah","Kabupaten Lamandau, Kalimantan Tengah",KALIMANTAN TENGAH,,Indonesia,,,,-1.698152,111.10686,https://maps.google.com/?cid=0x0:0xafb612e972f0f050,
cafe,cafe,Kalimantan Tengah 74663,"Kabupaten Lamandau, Kalimantan Tengah","Kabupaten Lamandau, Kalimantan Tengah",KALIMANTAN TENGAH,,Indonesia,,,,-1.9269166,111.1891151,https://maps.google.com/?cid=0x0:0xddd786c27266b53a,
cafe,Dapur Umum,Marniniet,"Unnamed Road, Tapin Bini, Kec. Lamandau, Kabupaten Lamandau, Kalimantan Tengah 74663","Tapin Bini, Kec. Lamandau, Kabupaten Lamandau",KALIMANTAN TENGAH,74663.0,Indonesia,81347857977.0,,,-1.8789692,111.3264021,https://maps.google.com/?cid=0x0:0xdf0d5bb2b9c14c63,
cafe,Kafe,Cafe Erin,"3FWM+VQQ, Tim., Bukit Jaya, Kec. Bulik Tim., Kabupaten Lamandau, Kalimantan Tengah 74162","Tim., Bukit Jaya, Kec. Bulik Tim., Kabupaten Lamandau",KALIMANTAN TENGAH,74162.0,Indonesia,81258555525.0,,,-1.902794,111.484479,https://maps.google.com/?cid=0x0:0xf31812e990872767,
cafe,Rumah Makan,Puncak panopa RM.ARGO MULYO,"257M+7H, Panopa, Kec. Lamandau, Kabupaten Lamandau, Kalimantan Tengah","Kabupaten Lamandau, Kalimantan Tengah",KALIMANTAN TENGAH,,Indonesia,,,,-1.9867716,111.1839058,https://maps.google.com/?cid=0x0:0xd1f69d25e2163554,
cafe,Sarapan,Warung Makan Taman Garu,"Jl. Lintas Kalimantan, Kawa, Kec. Lamandau, Kabupaten Lamandau, Kalimantan Tengah 74663","Kawa, Kec. Lamandau, Kabupaten Lamandau",KALIMANTAN TENGAH,74663.0,Indonesia,85249544442.0,,,-1.8762614,111.1143746,https://maps.google.com/?cid=0x0:0xbe70126e20ef08da,
cafe,Kafe,Yugi_Kitchen,"489R+464, Sekoban, Kec. Lamandau, Kabupaten Lamandau, Kalimantan Tengah 74663","Sekoban, Kec. Lamandau, Kabupaten Lamandau",KALIMANTAN TENGAH,74663.0,Indonesia,82236705491.0,,,-1.8822479,111.3405887,https://maps.google.com/?cid=0x0:0x803fc5dcfe6cbfa0,
cafe,Restoran,Wr Makan Sabar menanti,"Jalan Saparo Napon No.RT.04, Samu Jaya, Kec. Lamandau, Kabupaten Lamandau, Kalimantan Tengah 74663","Samu Jaya, Kec. Lamandau, Kabupaten Lamandau",KALIMANTAN TENGAH,74663.0,Indonesia,82159081317.0,,,-1.8824724,111.3295182,https://maps.google.com/?cid=0x0:0x2721045a0b8b39de,
cafe,Kedai Kopi,Tongkrongan  Agen Frozeen Food (Tombo Haus Bukja),"Desa Bukit Jaya, Rt 03 Rw 01, km 18, Bukit Jaya, Kec. Bulik Tim., Kabupaten Lamandau, Kalimantan Tengah 74162","Rt 03 Rw 01, km 18, Bukit Jaya, Kec. Bulik Tim., Kabupaten Lamandau",KALIMANTAN TENGAH,74162.0,Indonesia,85751246058.0,,,-1.9041476,111.4815312,https://maps.google.com/?cid=0x0:0xc847e4a276ad0265,
cafe,Dapur Umum,Warung ENGGAL LANCAR pak mungat,"488F+P9V, Tapin Bini, Kec. Lamandau, Kabupaten Lamandau, Kalimantan Tengah 74663","Tapin Bini, Kec. Lamandau, Kabupaten Lamandau",KALIMANTAN TENGAH,74663.0,Indonesia,,,,-1.8831389,111.3234091,https://maps.google.com/?cid=0x0:0xc88d2ce24ad9eb4d,
cafe,Kantor Perusahaan,Kanaya cafe,"V8PR+WGW, Liku, Kec. Bulik, Kabupaten Lamandau, Kalimantan Tengah","Kabupaten Lamandau, Kalimantan Tengah",KALIMANTAN TENGAH,,Indonesia,85608261949.0,,,-2.1126401,111.3413192,https://maps.google.com/?cid=0x0:0x836184ec2dc4f492,
cafe,Kedai Kopi,Kedai ayna,"6C49+7RC, Bayat, Kec. Belantikan Raya, Kabupaten Lamandau, Kalimantan Tengah","Kabupaten Lamandau, Kalimantan Tengah",KALIMANTAN TENGAH,,Indonesia,,,,-1.794301,111.419502,https://maps.google.com/?cid=0x0:0xf978d2116d8e32ed,
cafe,Sarapan,Rumah makan Pak Sukro,"6C66+C92, Bayat, Kec. Belantikan Raya, Kabupaten Lamandau, Kalimantan Tengah","Kabupaten Lamandau, Kalimantan Tengah",KALIMANTAN TENGAH,,Indonesia,,,,-1.7889831,111.4109061,https://maps.google.com/?cid=0x0:0xd6c533603239fa2,
cafe,Pusat Perbelanjaan,Samu Jaya 29,"Samu Jaya, Kec. Lamandau, Kabupaten Lamandau, Kalimantan Tengah 74663","Kec. Lamandau, Kabupaten Lamandau",KALIMANTAN TENGAH,74663.0,Indonesia,,,,-1.8789188,111.324434,https://maps.google.com/?cid=0x0:0xb1eed8e49a5ced2c,
cafe,Kafe,Ivander caffe,"25VH+8F8, Jln Trans Kalimantan, Panopa, Kec. Lamandau, Kabupaten Lamandau, Kalimantan Tengah","Kabupaten Lamandau, Kalimantan Tengah",KALIMANTAN TENGAH,,Indonesia,,,,-1.9567202,111.1786946,https://maps.google.com/?cid=0x0:0x5ed4410dd788446b,
cafe,,PONDOK PAK LABAN,"37C7+FXM, Suja, Kec. Lamandau, Kabupaten Lamandau, Kalimantan Tengah","Kabupaten Lamandau, Kalimantan Tengah",KALIMANTAN TENGAH,,Indonesia,,,,-1.9287983,111.2649313,https://maps.google.com/?cid=0x0:0xfb77cf91576594f0,
cafe,Jawa,Warung Makan Kediri Jawa Timur,"25PH+5PF, Panopa, Kec. Lamandau, Kabupaten Lamandau, Kalimantan Tengah 74663","Panopa, Kec. Lamandau, Kabupaten Lamandau",KALIMANTAN TENGAH,74663.0,Indonesia,,,,-1.9658203,111.1789695,https://maps.google.com/?cid=0x0:0x8c91895cb8a78546,
cafe,Kafe,Green Cafe,"RCFV+6VW, Nanga Bulik, Kec. Bulik, Kabupaten Lamandau, Kalimantan Tengah 74161","Nanga Bulik, Kec. Bulik, Kabupaten Lamandau",KALIMANTAN TENGAH,74161.0,Indonesia,81330203031.0,,,-2.1768957,111.4446929,https://maps.google.com/?cid=0x0:0x42fea57c6844c71b,
cafe,Restoran,LEVEL UP,"RC8V+VQW, Jl. Bukit Hibul Timur, Nanga Bulik, Kec. Bulik, Kabupaten Lamandau, Kalimantan Tengah 74161","Jl. Bukit Hibul Timur, Nanga Bulik, Kec. Bulik, Kabupaten Lamandau",KALIMANTAN TENGAH,74161.0,Indonesia,,,,-2.1827683,111.4444393,https://maps.google.com/?cid=0x0:0x75ec50608f1170f2,
cafe,Kafe,Fresh Cafe,"RCCP+W2C, Jalan, Nanga Bulik, Bulik, Lamandau Regency, Central Kalimantan 74161","Jalan, Nanga Bulik, Bulik, Lamandau Regency",KALIMANTAN TENGAH,74161.0,Indonesia,,,,-2.17768,111.4350158,https://maps.google.com/?cid=0x0:0x9520867dac605277,
cafe,Kafe,KEMIN COFFEE,"Depan SMA 1, Jl. Nanga Bulik, Nanga Bulik, Kec. Bulik, Kabupaten Lamandau, Kalimantan Tengah 74612","Jl. Nanga Bulik, Nanga Bulik, Kec. Bulik, Kabupaten Lamandau",KALIMANTAN TENGAH,74612.0,Indonesia,82244161696.0,,,-2.1771638,111.451229,https://maps.google.com/?cid=0x0:0x5165564fb083058c,
cafe,Bar,Nanga bulik,"6355+958, Sungai Tuat, Kec. Lamandau, Kabupaten Lamandau, Kalimantan Tengah","Kabupaten Lamandau, Kalimantan Tengah",KALIMANTAN TENGAH,,Indonesia,,,,-1.7915792,111.0579632,https://maps.google.com/?cid=0x0:0x17703f9ef0d8b890,
cafe,Kafe,Corner Cafe Lamandau,"RC7X+R29, Jl. Batu Batanggui, Nanga Bulik, Kec. Bulik, Kabupaten Lamandau, Kalimantan Tengah 74161","Jl. Batu Batanggui, Nanga Bulik, Kec. Bulik, Kabupaten Lamandau",KALIMANTAN TENGAH,74161.0,Indonesia,81255444014.0,,,-2.1854586,111.4476229,https://maps.google.com/?cid=0x0:0x5496c5985ef5c09a,
cafe,cafe,Kalimantan Tengah 74162,"Kabupaten Lamandau, Kalimantan Tengah","Kabupaten Lamandau, Kalimantan Tengah",KALIMANTAN TENGAH,,Indonesia,,,,-1.7404903,111.5229817,https://maps.google.com/?cid=0x0:0xcbde8a77875b152b,
cafe,Restoran,LEVEL UP,"RC8V+VQW, Jl. Bukit Hibul Timur, Nanga Bulik, Kec. Bulik, Kabupaten Lamandau, Kalimantan Tengah 74161","Jl. Bukit Hibul Timur, Nanga Bulik, Kec. Bulik, Kabupaten Lamandau",KALIMANTAN TENGAH,74161.0,Indonesia,,,,-2.1827683,111.4444393,https://maps.google.com/?cid=0x0:0x75ec50608f1170f2,
cafe,Restoran,Bakula Coffee,"RC9W+HJF, Jl. Melati, Nanga Bulik, Kec. Bulik, Kabupaten Lamandau, Kalimantan Tengah 74161","Jl. Melati, Nanga Bulik, Kec. Bulik, Kabupaten Lamandau",KALIMANTAN TENGAH,74161.0,Indonesia,82245777151.0,,,-2.1810698,111.4465371,https://maps.google.com/?cid=0x0:0xeaef325f8e3bb83c,
cafe,Kedai Kopi,Kedai Biker's Lamandau,"Jl. Djagui Mamud No.157, Nanga Bulik, Kec. Bulik, Kabupaten Lamandau, Kalimantan Tengah 74162","Nanga Bulik, Kec. Bulik, Kabupaten Lamandau",KALIMANTAN TENGAH,74162.0,Indonesia,82243210823.0,,,-2.1816405,111.4528485,https://maps.google.com/?cid=0x0:0x2a81578a0821fd72,
cafe,Kafe,Green Cafe,"RCFV+6VW, Nanga Bulik, Kec. Bulik, Kabupaten Lamandau, Kalimantan Tengah 74161","Nanga Bulik, Kec. Bulik, Kabupaten Lamandau",KALIMANTAN TENGAH,74161.0,Indonesia,81330203031.0,,,-2.1768957,111.4446929,https://maps.google.com/?cid=0x0:0x42fea57c6844c71b,
cafe,Kafe,Cafe Erin,"3FWM+VQQ, Tim., Bukit Jaya, Kec. Bulik Tim., Kabupaten Lamandau, Kalimantan Tengah 74162","Tim., Bukit Jaya, Kec. Bulik Tim., Kabupaten Lamandau",KALIMANTAN TENGAH,74162.0,Indonesia,81258555525.0,,,-1.902794,111.484479,https://maps.google.com/?cid=0x0:0xf31812e990872767,
cafe,Kedai Kopi,Teras Coffe Lamandau,"Jl. W.R. Supratman No.20b, Nanga Bulik, Kec. Bulik, Kabupaten Lamandau, Kalimantan Tengah 74611","Nanga Bulik, Kec. Bulik, Kabupaten Lamandau",KALIMANTAN TENGAH,74611.0,Indonesia,82253268553.0,,,-2.1813583,111.4345042,https://maps.google.com/?cid=0x0:0x60d64bbc38c7c4e4,
cafe,Kafe,Fresh Cafe,"RCCP+W2C, Jalan, Nanga Bulik, Bulik, Lamandau Regency, Central Kalimantan 74161","Jalan, Nanga Bulik, Bulik, Lamandau Regency",KALIMANTAN TENGAH,74161.0,Indonesia,,,,-2.17768,111.4350158,https://maps.google.com/?cid=0x0:0x9520867dac605277,
cafe,Kafe,KEMIN COFFEE,"Depan SMA 1, Jl. Nanga Bulik, Nanga Bulik, Kec. Bulik, Kabupaten Lamandau, Kalimantan Tengah 74612","Jl. Nanga Bulik, Nanga Bulik, Kec. Bulik, Kabupaten Lamandau",KALIMANTAN TENGAH,74612.0,Indonesia,82244161696.0,,,-2.1771638,111.451229,https://maps.google.com/?cid=0x0:0x5165564fb083058c,
cafe,Kedai Kopi,Coffee Time,"RC9W+QPX, Nanga Bulik, Kec. Bulik, Kabupaten Lamandau, Kalimantan Tengah","Kabupaten Lamandau, Kalimantan Tengah",KALIMANTAN TENGAH,,Indonesia,895622003059.0,,,-2.1805194,111.4468484,https://maps.google.com/?cid=0x0:0x8ca0ca3cf3ba3612,
cafe,Kafe,Meraki CafeMini Resto,"RF93+W39, Unnamed Rd, Nanga Bulik, Kec. Bulik, Kabupaten Lamandau, Kalimantan Tengah 74161","Unnamed Rd, Nanga Bulik, Kec. Bulik, Kabupaten Lamandau",KALIMANTAN TENGAH,74161.0,Indonesia,81253650057.0,,,-2.1802156,111.4527492,https://maps.google.com/?cid=0x0:0x8c6c910769e9705a,
cafe,Kafe,Nongky Yukk,"RFF2+4FQ, Nanga Bulik, Kec. Bulik, Kabupaten Lamandau, Kalimantan Tengah 74161","Nanga Bulik, Kec. Bulik, Kabupaten Lamandau",KALIMANTAN TENGAH,74161.0,Indonesia,,,,-2.1771505,111.4512294,https://maps.google.com/?cid=0x0:0x9b1a6c510b6a74c2,
cafe,Kafe,Corner Cafe Lamandau,"RC7X+R29, Jl. Batu Batanggui, Nanga Bulik, Kec. Bulik, Kabupaten Lamandau, Kalimantan Tengah 74161","Jl. Batu Batanggui, Nanga Bulik, Kec. Bulik, Kabupaten Lamandau",KALIMANTAN TENGAH,74161.0,Indonesia,81255444014.0,,,-2.1854586,111.4476229,https://maps.google.com/?cid=0x0:0x5496c5985ef5c09a,
cafe,Kedai Kopi,Tongkrongan  Agen Frozeen Food (Tombo Haus Bukja),"Desa Bukit Jaya, Rt 03 Rw 01, km 18, Bukit Jaya, Kec. Bulik Tim., Kabupaten Lamandau, Kalimantan Tengah 74162","Rt 03 Rw 01, km 18, Bukit Jaya, Kec. Bulik Tim., Kabupaten Lamandau",KALIMANTAN TENGAH,74162.0,Indonesia,85751246058.0,,,-1.9041476,111.4815312,https://maps.google.com/?cid=0x0:0xc847e4a276ad0265,
cafe,Kedai Kopi,Shika Coffee,"RC8X+Q38, Jl. Melati, Nanga Bulik, Kec. Bulik, Kabupaten Lamandau, Kalimantan Tengah 74161","Jl. Melati, Nanga Bulik, Kec. Bulik, Kabupaten Lamandau",KALIMANTAN TENGAH,74161.0,Indonesia,,,,-2.1830918,111.4476977,https://maps.google.com/?cid=0x0:0x6a67fba65623b371,
cafe,Toko,Kantin PKS MPP,"2FVX+RCV, Nuangan, Kec. Bulik Tim., Kabupaten Lamandau, Kalimantan Tengah 74162","Nuangan, Kec. Bulik Tim., Kabupaten Lamandau",KALIMANTAN TENGAH,74162.0,Indonesia,,,,-1.9553882,111.49855,https://maps.google.com/?cid=0x0:0xf9fedc712ec83690,
cafe,Kafe,Edam Burger Nanga Bulik,"RCFV+4J2, Unnamed Road, Nanga Bulik, Kec. Bulik, Kabupaten Lamandau, Kalimantan Tengah 74161","Unnamed Road, Nanga Bulik, Kec. Bulik, Kabupaten Lamandau",KALIMANTAN TENGAH,74161.0,Indonesia,81347599393.0,,,-2.1772368,111.444031,https://maps.google.com/?cid=0x0:0xd8f20c0e125d411b,
cafe,Kantor Perusahaan,Kanaya cafe,"V8PR+WGW, Liku, Kec. Bulik, Kabupaten Lamandau, Kalimantan Tengah","Kabupaten Lamandau, Kalimantan Tengah",KALIMANTAN TENGAH,,Indonesia,85608261949.0,,,-2.1126401,111.3413192,https://maps.google.com/?cid=0x0:0x836184ec2dc4f492,
cafe,Kafe,Dem Pizza,"Jl. W.R. Supratman No.099 RT 12 B, RW.XII, Nanga Bulik, Kec. Bulik, Kabupaten Lamandau, Kalimantan Tengah 74162","RW.XII, Nanga Bulik, Kec. Bulik, Kabupaten Lamandau",KALIMANTAN TENGAH,74162.0,Indonesia,82352288286.0,,,-2.1812612,111.4401779,https://maps.google.com/?cid=0x0:0xb868c7377df1f9ef,
cafe,Kafe,DnB Cafe Vape,"V93W+84Q, Sumber Mulya, Kec. Bulik, Kabupaten Lamandau, Kalimantan Tengah 74161","Sumber Mulya, Kec. Bulik, Kabupaten Lamandau",KALIMANTAN TENGAH,74161.0,Indonesia,85894140649.0,,,-2.1466502,111.3953617,https://maps.google.com/?cid=0x0:0x58783ee98e2857e3,
cafe,Kedai Kopi,Hello Coffee  Car Wash,"jl jendran sudirman, bundaran kecil arah ke alun alun RT 12c, Nanga Bulik, Kalimantan Tengah 74662","bundaran kecil arah ke alun alun RT 12c, Nanga Bulik",KALIMANTAN TENGAH,74662.0,Indonesia,82251163397.0,,,-2.1764382,111.4342596,https://maps.google.com/?cid=0x0:0xf7ea2737b08e2a23,
cafe,Kedai Kopi,Kopitagram - Cinere,"Jl. Jawa No.182 Blok H, Cinere, Kec. Cinere, Kota Depok, Jawa Barat 16514","Cinere, Kec. Cinere, Kota Depok",KALIMANTAN TENGAH,16514.0,Indonesia,,,,-6.349652,106.7785577,https://maps.google.com/?cid=0x0:0x33ddf6f80cbd3fda,
cafe,Kafe,KOMUKA | Coffee Shop | Kafe Cakung | Metland Menteng | JGC | ASYA | Harapan Indah | Pulo Gebang,"Perumahan Metland Menteng Blok F4 No.10, RT.1/RW.07, Ujung Menteng, Kec. Cakung, Kota Jakarta Timur, Daerah Khusus Ibukota Jakarta 13960","RT.1/RW.07, Ujung Menteng, Kec. Cakung, Kota Jakarta Timur",KALIMANTAN TENGAH,13960.0,Indonesia,8118017845.0,,,-6.1814221,106.9699827,https://maps.google.com/?cid=0x0:0x6724d4a5798ae8a4,
cafe,Kedai Kopi,Warkop uluh itah,"Jembatan desa perigi raya simpang pt nal Kec. Bulik. kab. Lamandau, Nanga, Kec. Bulik, Kalimantan Tengah 74162","Nanga, Kec. Bulik",KALIMANTAN TENGAH,74162.0,Indonesia,85822901971.0,,,-2.0764885,111.5363883,https://maps.google.com/?cid=0x0:0xac6984e204b3066,
cafe,Toko bahan makanan,Toko Bu Sum,"XFGQ+7C9, Beruta, Kec. Bulik, Kabupaten Lamandau, Kalimantan Tengah 74162","Beruta, Kec. Bulik, Kabupaten Lamandau",KALIMANTAN TENGAH,74162.0,Indonesia,,,,-2.0243298,111.4886009,https://maps.google.com/?cid=0x0:0x22b3255f633150c,
cafe,Restoran,Kedai_Arsy Bunut,"Nanga, Prov. Kal_teng, Jl. Bhakti Abri, Bunut, Kec. Bulik, Kabupaten Lamandau, Kalimantan Tengah 74162","Prov. Kal_teng, Jl. Bhakti Abri, Bunut, Kec. Bulik, Kabupaten Lamandau",KALIMANTAN TENGAH,74162.0,Indonesia,81256691773.0,,,-2.1180854,111.4619338,https://maps.google.com/?cid=0x0:0x2c849c056887be60,
cafe,Sarapan,Warung Mbk Rahma,"3GV6+F27, Sukamaju, Kec. Bulik Tim., Kabupaten Lamandau, Kalimantan Tengah 74162","Sukamaju, Kec. Bulik Tim., Kabupaten Lamandau",KALIMANTAN TENGAH,74162.0,Indonesia,,,,-1.9063437,111.5100329,https://maps.google.com/?cid=0x0:0xceb16963d023ceee,
cafe,Nasi,Kios Alfizar,"Jl. Bhakti Abri, Bunut, Kec. Bulik, Kabupaten Lamandau, Kalimantan Tengah 74162","Bunut, Kec. Bulik, Kabupaten Lamandau",KALIMANTAN TENGAH,74162.0,Indonesia,,,,-2.1185452,111.4615794,https://maps.google.com/?cid=0x0:0xc1c683b96ca01e83,
cafe,cafe,Kalimantan Tengah 74611,"Kec. Bulik, Kabupaten Lamandau, Kalimantan Tengah","Kabupaten Lamandau, Kalimantan Tengah",KALIMANTAN TENGAH,,Indonesia,,,,-2.0058667,111.4395128,https://maps.google.com/?cid=0x0:0xb6c8a0a464bd3c0c,
cafe,Restoran,LEVEL UP,"RC8V+VQW, Jl. Bukit Hibul Timur, Nanga Bulik, Kec. Bulik, Kabupaten Lamandau, Kalimantan Tengah 74161","Jl. Bukit Hibul Timur, Nanga Bulik, Kec. Bulik, Kabupaten Lamandau",KALIMANTAN TENGAH,74161.0,Indonesia,,,,-2.1827683,111.4444393,https://maps.google.com/?cid=0x0:0x75ec50608f1170f2,
cafe,Kafe,Kopi Wal,"Jl. Pupu Hermansyah, Nanga Bulik, Kec. Bulik, Kabupaten Lamandau, Kalimantan Tengah 74161","Nanga Bulik, Kec. Bulik, Kabupaten Lamandau",KALIMANTAN TENGAH,74161.0,Indonesia,81347907829.0,,,-2.1793133,111.4592332,https://maps.google.com/?cid=0x0:0x586fec0e64ee7752,
cafe,Restoran,Bakula Coffee,"RC9W+HJF, Jl. Melati, Nanga Bulik, Kec. Bulik, Kabupaten Lamandau, Kalimantan Tengah 74161","Jl. Melati, Nanga Bulik, Kec. Bulik, Kabupaten Lamandau",KALIMANTAN TENGAH,74161.0,Indonesia,82245777151.0,,,-2.1810698,111.4465371,https://maps.google.com/?cid=0x0:0xeaef325f8e3bb83c,
cafe,Kafe,Green Cafe,"RCFV+6VW, Nanga Bulik, Kec. Bulik, Kabupaten Lamandau, Kalimantan Tengah 74161","Nanga Bulik, Kec. Bulik, Kabupaten Lamandau",KALIMANTAN TENGAH,74161.0,Indonesia,81330203031.0,,,-2.1768957,111.4446929,https://maps.google.com/?cid=0x0:0x42fea57c6844c71b,
cafe,Kedai Kopi,Kedai Biker's Lamandau,"Jl. Djagui Mamud No.157, Nanga Bulik, Kec. Bulik, Kabupaten Lamandau, Kalimantan Tengah 74162","Nanga Bulik, Kec. Bulik, Kabupaten Lamandau",KALIMANTAN TENGAH,74162.0,Indonesia,82243210823.0,,,-2.1816405,111.4528485,https://maps.google.com/?cid=0x0:0x2a81578a0821fd72,
cafe,Kafe,KEMIN COFFEE,"Depan SMA 1, Jl. Nanga Bulik, Nanga Bulik, Kec. Bulik, Kabupaten Lamandau, Kalimantan Tengah 74612","Jl. Nanga Bulik, Nanga Bulik, Kec. Bulik, Kabupaten Lamandau",KALIMANTAN TENGAH,74612.0,Indonesia,82244161696.0,,,-2.1771638,111.451229,https://maps.google.com/?cid=0x0:0x5165564fb083058c,
cafe,Kafe,Nongky Yukk,"RFF2+4FQ, Nanga Bulik, Kec. Bulik, Kabupaten Lamandau, Kalimantan Tengah 74161","Nanga Bulik, Kec. Bulik, Kabupaten Lamandau",KALIMANTAN TENGAH,74161.0,Indonesia,,,,-2.1771505,111.4512294,https://maps.google.com/?cid=0x0:0x9b1a6c510b6a74c2,
cafe,Kedai Kopi,Coffee Time,"RC9W+QPX, Nanga Bulik, Kec. Bulik, Kabupaten Lamandau, Kalimantan Tengah","Kabupaten Lamandau, Kalimantan Tengah",KALIMANTAN TENGAH,,Indonesia,895622003059.0,,,-2.1805194,111.4468484,https://maps.google.com/?cid=0x0:0x8ca0ca3cf3ba3612,
cafe,Kafe,Corner Cafe Lamandau,"RC7X+R29, Jl. Batu Batanggui, Nanga Bulik, Kec. Bulik, Kabupaten Lamandau, Kalimantan Tengah 74161","Jl. Batu Batanggui, Nanga Bulik, Kec. Bulik, Kabupaten Lamandau",KALIMANTAN TENGAH,74161.0,Indonesia,81255444014.0,,,-2.1854586,111.4476229,https://maps.google.com/?cid=0x0:0x5496c5985ef5c09a,
cafe,Kafe,DnB Cafe Vape,"V93W+84Q, Sumber Mulya, Kec. Bulik, Kabupaten Lamandau, Kalimantan Tengah 74161","Sumber Mulya, Kec. Bulik, Kabupaten Lamandau",KALIMANTAN TENGAH,74161.0,Indonesia,85894140649.0,,,-2.1466502,111.3953617,https://maps.google.com/?cid=0x0:0x58783ee98e2857e3,
cafe,Kedai Kopi,Pesona Coffee lamandau,"RC8R+5X, Nanga Bulik, Kec. Bulik, Kabupaten Lamandau, Kalimantan Tengah","Kabupaten Lamandau, Kalimantan Tengah",KALIMANTAN TENGAH,,Indonesia,85751163573.0,,,-2.1845988,111.44246,https://maps.google.com/?cid=0x0:0x508b6290f922bbbc,
cafe,Restoran,RM. Fitri - Simpang Fitri Lamandau,"Nanga Bulik, Kec. Bulik, Kabupaten Lamandau, Kalimantan Tengah 74161","Kec. Bulik, Kabupaten Lamandau",KALIMANTAN TENGAH,74161.0,Indonesia,81352897499.0,,,-2.2028764,111.4561473,https://maps.google.com/?cid=0x0:0x8c4cced8f6180fb7,
cafe,Kedai Kopi,Kedai Kopi Ruang Santai,"RCCW+5H8, Jl. Melati II, Nanga Bulik, Kec. Bulik, Kabupaten Lamandau, Kalimantan Tengah 74161","Jl. Melati II, Nanga Bulik, Kec. Bulik, Kabupaten Lamandau",KALIMANTAN TENGAH,74161.0,Indonesia,,,,-2.1795967,111.4464608,https://maps.google.com/?cid=0x0:0xfe176efafa85d445,
cafe,Rumah Makan,Rumah Makan Andah,"RF89+P5V, Jl. JC Rangkap, Nanga Bulik, Kec. Bulik, Kabupaten Lamandau, Kalimantan Tengah 74161","Jl. JC Rangkap, Nanga Bulik, Kec. Bulik, Kabupaten Lamandau",KALIMANTAN TENGAH,74161.0,Indonesia,,,,-2.1831411,111.4679249,https://maps.google.com/?cid=0x0:0xa9df1f6babf0ea8a,
cafe,Toko bahan makanan,Toko Bu Sum,"XFGQ+7C9, Beruta, Kec. Bulik, Kabupaten Lamandau, Kalimantan Tengah 74162","Beruta, Kec. Bulik, Kabupaten Lamandau",KALIMANTAN TENGAH,74162.0,Indonesia,,,,-2.0243298,111.4886009,https://maps.google.com/?cid=0x0:0x22b3255f633150c,
cafe,Toko Makanan,Kedai 89,"RFF4+4Q4, Jl. Nanga Bulik, Nanga Bulik, Kec. Bulik, Kabupaten Lamandau, Kalimantan Tengah 74161","Jl. Nanga Bulik, Nanga Bulik, Kec. Bulik, Kabupaten Lamandau",KALIMANTAN TENGAH,74161.0,Indonesia,,,,-2.1772302,111.4569389,https://maps.google.com/?cid=0x0:0xec2dd4d5418c0bbe,
cafe,Kafe,WARUNG NUGGET SEDERHANA D'TEN.KM.16,"3FPP+WMX, Bukit Jaya, Kec. Bulik Tim., Kabupaten Lamandau, Kalimantan Tengah","Kabupaten Lamandau, Kalimantan Tengah",KALIMANTAN TENGAH,,Indonesia,85245868417.0,,,-1.9126479,111.486725,https://maps.google.com/?cid=0x0:0x8336f7eec3c16d31,
cafe,Kedai Kopi,Luha Kopi,"RC9M+F3P, Jl. W.R. Supratman, Nanga Bulik, Kec. Bulik, Kabupaten Lamandau, Kalimantan Tengah 74161","Jl. W.R. Supratman, Nanga Bulik, Kec. Bulik, Kabupaten Lamandau",KALIMANTAN TENGAH,74161.0,Indonesia,82352798171.0,,,-2.181284,111.432718,https://maps.google.com/?cid=0x0:0x1f928c4b40849341,
cafe,Kedai Kopi,WARUNG CAKNO,"Jl. Ahmad Yani, Nanga Bulik, Kec. Bulik, Kabupaten Lamandau, Kalimantan Tengah 74161","Nanga Bulik, Kec. Bulik, Kabupaten Lamandau",KALIMANTAN TENGAH,74161.0,Indonesia,85252828212.0,,,-2.1930148,111.3957185,https://maps.google.com/?cid=0x0:0x59411f659d00d72,
cafe,Kafe,Fresh Cafe,"RCCP+W2C, Jalan, Nanga Bulik, Bulik, Lamandau Regency, Central Kalimantan 74161","Jalan, Nanga Bulik, Bulik, Lamandau Regency",KALIMANTAN TENGAH,74161.0,Indonesia,,,,-2.17768,111.4350158,https://maps.google.com/?cid=0x0:0x9520867dac605277,
cafe,Kafe,Edam Burger Nanga Bulik,"RCFV+4J2, Unnamed Road, Nanga Bulik, Kec. Bulik, Kabupaten Lamandau, Kalimantan Tengah 74161","Unnamed Road, Nanga Bulik, Kec. Bulik, Kabupaten Lamandau",KALIMANTAN TENGAH,74161.0,Indonesia,81347599393.0,,,-2.1772368,111.444031,https://maps.google.com/?cid=0x0:0xd8f20c0e125d411b,
cafe,Toko,Kantin PKS MPP,"2FVX+RCV, Nuangan, Kec. Bulik Tim., Kabupaten Lamandau, Kalimantan Tengah 74162","Nuangan, Kec. Bulik Tim., Kabupaten Lamandau",KALIMANTAN TENGAH,74162.0,Indonesia,,,,-1.9553882,111.49855,https://maps.google.com/?cid=0x0:0xf9fedc712ec83690,
cafe,Kedai Kopi,Bintang 212 Wifi,"RC7Q+W6M, Nanga Bulik, Kec. Bulik, Kabupaten Lamandau, Kalimantan Tengah 74161","Nanga Bulik, Kec. Bulik, Kabupaten Lamandau",KALIMANTAN TENGAH,74161.0,Indonesia,82114506161.0,,,-2.185158,111.4380558,https://maps.google.com/?cid=0x0:0x60e1522bffbbb642,
cafe,Kedai Kopi,Icha boja77,"R9WV+68W samping isi ulang, Sumber Mulya, Kec. Bulik, Kabupaten Lamandau, Kalimantan Tengah 74161","Sumber Mulya, Kec. Bulik, Kabupaten Lamandau",KALIMANTAN TENGAH,74161.0,Indonesia,,,,-2.1543796,111.3933429,https://maps.google.com/?cid=0x0:0xb232d23bbbf1aa15,
cafe,Kafe,KOMUKA | Coffee Shop | Kafe Cakung | Metland Menteng | JGC | ASYA | Harapan Indah | Pulo Gebang,"Perumahan Metland Menteng Blok F4 No.10, RT.1/RW.07, Ujung Menteng, Kec. Cakung, Kota Jakarta Timur, Daerah Khusus Ibukota Jakarta 13960","RT.1/RW.07, Ujung Menteng, Kec. Cakung, Kota Jakarta Timur",KALIMANTAN TENGAH,13960.0,Indonesia,8118017845.0,,,-6.1814221,106.9699827,https://maps.google.com/?cid=0x0:0x6724d4a5798ae8a4,
cafe,Kedai Kopi,Kopitagram - Cinere,"Jl. Jawa No.182 Blok H, Cinere, Kec. Cinere, Kota Depok, Jawa Barat 16514","Cinere, Kec. Cinere, Kota Depok",KALIMANTAN TENGAH,16514.0,Indonesia,,,,-6.349652,106.7785577,https://maps.google.com/?cid=0x0:0x33ddf6f80cbd3fda,
cafe,Kedai Kopi,Kopitagram - Tomang,"Jl. Kasturi No.22, RT.8/RW.1, Jatipulo, Kec. Palmerah, Kota Jakarta Barat, Daerah Khusus Ibukota Jakarta 11430","RT.8/RW.1, Jatipulo, Kec. Palmerah, Kota Jakarta Barat",KALIMANTAN TENGAH,11430.0,Indonesia,,,,-6.1792196,106.8009981,https://maps.google.com/?cid=0x0:0x2d1137ace4a30d68,
cafe,Kedai Kopi,Warkop PK jas,"RC7X+VW7, Jl. Batu Batanggui, Nanga Bulik, Kec. Bulik, Kabupaten Lamandau, Kalimantan Tengah 74161","Jl. Batu Batanggui, Nanga Bulik, Kec. Bulik, Kabupaten Lamandau",KALIMANTAN TENGAH,74161.0,Indonesia,,,,-2.1853395,111.4497972,https://maps.google.com/?cid=0x0:0xb544467774dbf98,
cafe,cafe,Kalimantan Tengah 74612,"Kec. Bulik, Kabupaten Lamandau, Kalimantan Tengah","Kabupaten Lamandau, Kalimantan Tengah",KALIMANTAN TENGAH,,Indonesia,,,,-2.0421323,111.463361,https://maps.google.com/?cid=0x0:0xc38ed0bb98a86bd0,
cafe,Restoran,LEVEL UP,"RC8V+VQW, Jl. Bukit Hibul Timur, Nanga Bulik, Kec. Bulik, Kabupaten Lamandau, Kalimantan Tengah 74161","Jl. Bukit Hibul Timur, Nanga Bulik, Kec. Bulik, Kabupaten Lamandau",KALIMANTAN TENGAH,74161.0,Indonesia,,,,-2.1827683,111.4444393,https://maps.google.com/?cid=0x0:0x75ec50608f1170f2,
cafe,Kafe,Kopi Wal,"Jl. Pupu Hermansyah, Nanga Bulik, Kec. Bulik, Kabupaten Lamandau, Kalimantan Tengah 74161","Nanga Bulik, Kec. Bulik, Kabupaten Lamandau",KALIMANTAN TENGAH,74161.0,Indonesia,81347907829.0,,,-2.1793133,111.4592332,https://maps.google.com/?cid=0x0:0x586fec0e64ee7752,
cafe,Kafe,KEMIN COFFEE,"Depan SMA 1, Jl. Nanga Bulik, Nanga Bulik, Kec. Bulik, Kabupaten Lamandau, Kalimantan Tengah 74612","Jl. Nanga Bulik, Nanga Bulik, Kec. Bulik, Kabupaten Lamandau",KALIMANTAN TENGAH,74612.0,Indonesia,82244161696.0,,,-2.1771638,111.451229,https://maps.google.com/?cid=0x0:0x5165564fb083058c,
cafe,Kedai Kopi,Teras Coffe Lamandau,"Jl. W.R. Supratman No.20b, Nanga Bulik, Kec. Bulik, Kabupaten Lamandau, Kalimantan Tengah 74611","Nanga Bulik, Kec. Bulik, Kabupaten Lamandau",KALIMANTAN TENGAH,74611.0,Indonesia,82253268553.0,,,-2.1813583,111.4345042,https://maps.google.com/?cid=0x0:0x60d64bbc38c7c4e4,
cafe,Kedai Kopi,Kedai Biker's Lamandau,"Jl. Djagui Mamud No.157, Nanga Bulik, Kec. Bulik, Kabupaten Lamandau, Kalimantan Tengah 74162","Nanga Bulik, Kec. Bulik, Kabupaten Lamandau",KALIMANTAN TENGAH,74162.0,Indonesia,82243210823.0,,,-2.1816405,111.4528485,https://maps.google.com/?cid=0x0:0x2a81578a0821fd72,
cafe,Kafe,Green Cafe,"RCFV+6VW, Nanga Bulik, Kec. Bulik, Kabupaten Lamandau, Kalimantan Tengah 74161","Nanga Bulik, Kec. Bulik, Kabupaten Lamandau",KALIMANTAN TENGAH,74161.0,Indonesia,81330203031.0,,,-2.1768957,111.4446929,https://maps.google.com/?cid=0x0:0x42fea57c6844c71b,
cafe,Kafe,Fresh Cafe,"RCCP+W2C, Jalan, Nanga Bulik, Bulik, Lamandau Regency, Central Kalimantan 74161","Jalan, Nanga Bulik, Bulik, Lamandau Regency",KALIMANTAN TENGAH,74161.0,Indonesia,,,,-2.17768,111.4350158,https://maps.google.com/?cid=0x0:0x9520867dac605277,
cafe,Toko bahan makanan,Toko Bu Sum,"XFGQ+7C9, Beruta, Kec. Bulik, Kabupaten Lamandau, Kalimantan Tengah 74162","Beruta, Kec. Bulik, Kabupaten Lamandau",KALIMANTAN TENGAH,74162.0,Indonesia,,,,-2.0243298,111.4886009,https://maps.google.com/?cid=0x0:0x22b3255f633150c,
cafe,Kafe,Corner Cafe Lamandau,"RC7X+R29, Jl. Batu Batanggui, Nanga Bulik, Kec. Bulik, Kabupaten Lamandau, Kalimantan Tengah 74161","Jl. Batu Batanggui, Nanga Bulik, Kec. Bulik, Kabupaten Lamandau",KALIMANTAN TENGAH,74161.0,Indonesia,81255444014.0,,,-2.1854586,111.4476229,https://maps.google.com/?cid=0x0:0x5496c5985ef5c09a,
cafe,Kafe,Nongky Yukk,"RFF2+4FQ, Nanga Bulik, Kec. Bulik, Kabupaten Lamandau, Kalimantan Tengah 74161","Nanga Bulik, Kec. Bulik, Kabupaten Lamandau",KALIMANTAN TENGAH,74161.0,Indonesia,,,,-2.1771505,111.4512294,https://maps.google.com/?cid=0x0:0x9b1a6c510b6a74c2,
cafe,Kafe,Kedai Coffee Ratman,"WF8Q+7CC, Sungai Mentawa, Kec. Bulik, Kabupaten Lamandau, Kalimantan Tengah","Kabupaten Lamandau, Kalimantan Tengah",KALIMANTAN TENGAH,,Indonesia,,,,-2.0844979,111.4893116,https://maps.google.com/?cid=0x0:0xdc9c7c4faafcbd26,
cafe,Kafe,DnB Cafe Vape,"V93W+84Q, Sumber Mulya, Kec. Bulik, Kabupaten Lamandau, Kalimantan Tengah 74161","Sumber Mulya, Kec. Bulik, Kabupaten Lamandau",KALIMANTAN TENGAH,74161.0,Indonesia,85894140649.0,,,-2.1466502,111.3953617,https://maps.google.com/?cid=0x0:0x58783ee98e2857e3,
cafe,Kedai Kopi,BOBA MAMACHA,"Desa beruta RT 05, Kabupaten Lamandau, Kalimantan Tengah","Kabupaten Lamandau, Kalimantan Tengah",KALIMANTAN TENGAH,,Indonesia,81310646914.0,,,-2.0267699,111.4875922,https://maps.google.com/?cid=0x0:0x39e8caddebd57d7c,
cafe,Restoran,Depot Makan Podo Moro,"RC5M+P5C, Jl. Lintas Kalimantan, Nanga Bulik, Kec. Bulik, Kabupaten Lamandau, Kalimantan Tengah 74161","Jl. Lintas Kalimantan, Nanga Bulik, Kec. Bulik, Kabupaten Lamandau",KALIMANTAN TENGAH,74161.0,Indonesia,,,,-2.1906759,111.4329012,https://maps.google.com/?cid=0x0:0x6d5f152b3319a9ff,
cafe,Kafe,CAFEE ALANG2,"R94J+GJQ, Jl. Lintas Kalimantan, Nanga Bulik, Kec. Bulik, Kabupaten Lamandau, Kalimantan Tengah 74161","Jl. Lintas Kalimantan, Nanga Bulik, Kec. Bulik, Kabupaten Lamandau",KALIMANTAN TENGAH,74161.0,Indonesia,,,,-2.1936512,111.3815962,https://maps.google.com/?cid=0x0:0x83bd425209ba72b5,
cafe,Kedai Kopi,Bintang 212 Wifi,"RC7Q+W6M, Nanga Bulik, Kec. Bulik, Kabupaten Lamandau, Kalimantan Tengah 74161","Nanga Bulik, Kec. Bulik, Kabupaten Lamandau",KALIMANTAN TENGAH,74161.0,Indonesia,82114506161.0,,,-2.185158,111.4380558,https://maps.google.com/?cid=0x0:0x60e1522bffbbb642,
cafe,Restoran,RM. Fitri - Simpang Fitri Lamandau,"Nanga Bulik, Kec. Bulik, Kabupaten Lamandau, Kalimantan Tengah 74161","Kec. Bulik, Kabupaten Lamandau",KALIMANTAN TENGAH,74161.0,Indonesia,81352897499.0,,,-2.2028764,111.4561473,https://maps.google.com/?cid=0x0:0x8c4cced8f6180fb7,
cafe,Rumah Makan,Rumah Makan Andah,"RF89+P5V, Jl. JC Rangkap, Nanga Bulik, Kec. Bulik, Kabupaten Lamandau, Kalimantan Tengah 74161","Jl. JC Rangkap, Nanga Bulik, Kec. Bulik, Kabupaten Lamandau",KALIMANTAN TENGAH,74161.0,Indonesia,,,,-2.1831411,111.4679249,https://maps.google.com/?cid=0x0:0xa9df1f6babf0ea8a,
cafe,Kedai Kopi,Kedai Kopi Ruang Santai,"RCCW+5H8, Jl. Melati II, Nanga Bulik, Kec. Bulik, Kabupaten Lamandau, Kalimantan Tengah 74161","Jl. Melati II, Nanga Bulik, Kec. Bulik, Kabupaten Lamandau",KALIMANTAN TENGAH,74161.0,Indonesia,,,,-2.1795967,111.4464608,https://maps.google.com/?cid=0x0:0xfe176efafa85d445,
cafe,Kafe,Edam Burger Nanga Bulik,"RCFV+4J2, Unnamed Road, Nanga Bulik, Kec. Bulik, Kabupaten Lamandau, Kalimantan Tengah 74161","Unnamed Road, Nanga Bulik, Kec. Bulik, Kabupaten Lamandau",KALIMANTAN TENGAH,74161.0,Indonesia,81347599393.0,,,-2.1772368,111.444031,https://maps.google.com/?cid=0x0:0xd8f20c0e125d411b,
cafe,Kedai Kopi,Shika Coffee,"RC8X+Q38, Jl. Melati, Nanga Bulik, Kec. Bulik, Kabupaten Lamandau, Kalimantan Tengah 74161","Jl. Melati, Nanga Bulik, Kec. Bulik, Kabupaten Lamandau",KALIMANTAN TENGAH,74161.0,Indonesia,,,,-2.1830918,111.4476977,https://maps.google.com/?cid=0x0:0x6a67fba65623b371,
cafe,Brunch,Warung Pakde Nasgor,"XFGQ+3C4, Beruta, Kec. Bulik, Kabupaten Lamandau, Kalimantan Tengah 74162","Beruta, Kec. Bulik, Kabupaten Lamandau",KALIMANTAN TENGAH,74162.0,Indonesia,,,,-2.0248603,111.4885859,https://maps.google.com/?cid=0x0:0xc92c519d54890f4f,
cafe,Kafe,KOMUKA | Coffee Shop | Kafe Cakung | Metland Menteng | JGC | ASYA | Harapan Indah | Pulo Gebang,"Perumahan Metland Menteng Blok F4 No.10, RT.1/RW.07, Ujung Menteng, Kec. Cakung, Kota Jakarta Timur, Daerah Khusus Ibukota Jakarta 13960","RT.1/RW.07, Ujung Menteng, Kec. Cakung, Kota Jakarta Timur",KALIMANTAN TENGAH,13960.0,Indonesia,8118017845.0,,,-6.1814221,106.9699827,https://maps.google.com/?cid=0x0:0x6724d4a5798ae8a4,
cafe,Kedai Kopi,Kopitagram - Cinere,"Jl. Jawa No.182 Blok H, Cinere, Kec. Cinere, Kota Depok, Jawa Barat 16514","Cinere, Kec. Cinere, Kota Depok",KALIMANTAN TENGAH,16514.0,Indonesia,,,,-6.349652,106.7785577,https://maps.google.com/?cid=0x0:0x33ddf6f80cbd3fda,
cafe,Kedai Kopi,Hot Road Cafe Vintage,"Jl. Raden Saleh No.49, RT.5/RW.005, Karang Mulya, Kec. Karang Tengah, Kota Tangerang, Banten 15157","RT.5/RW.005, Karang Mulya, Kec. Karang Tengah, Kota Tangerang",KALIMANTAN TENGAH,15157.0,Indonesia,,,,-6.1981183,106.7222868,https://maps.google.com/?cid=0x0:0xf3719c33e2991a09,
cafe,Kedai Kopi,Wooly Cafe  Resto,"Jl. Gunung Batu, Bojong Koneng, Kec. Babakan Madang, Kabupaten Bogor, Jawa Barat 16810","Bojong Koneng, Kec. Babakan Madang, Kabupaten Bogor",KALIMANTAN TENGAH,16810.0,Indonesia,87778355949.0,,,-6.6235148,106.8990441,https://maps.google.com/?cid=0x0:0x2beb790eee35cf6f,
cafe,Kedai Kopi,Kopitagram - Tomang,"Jl. Kasturi No.22, RT.8/RW.1, Jatipulo, Kec. Palmerah, Kota Jakarta Barat, Daerah Khusus Ibukota Jakarta 11430","RT.8/RW.1, Jatipulo, Kec. Palmerah, Kota Jakarta Barat",KALIMANTAN TENGAH,11430.0,Indonesia,,,,-6.1792196,106.8009981,https://maps.google.com/?cid=0x0:0x2d1137ace4a30d68,
cafe,Kafe,Satu Meja,"Jl. Tj. Duren Utara 4 No.464 11, RT.11/RW.3, Tj. Duren Utara, Kec. Grogol petamburan, Kota Jakarta Barat, Daerah Khusus Ibukota Jakarta 11470","RT.11/RW.3, Tj. Duren Utara, Kec. Grogol petamburan, Kota Jakarta Barat",KALIMANTAN TENGAH,11470.0,Indonesia,81234569884.0,,,-6.1702274,106.7829131,https://maps.google.com/?cid=0x0:0xc5e199a8150ee887,
cafe,cafe,Kalimantan Tengah 74162,"Kabupaten Lamandau, Kalimantan Tengah","Kabupaten Lamandau, Kalimantan Tengah",KALIMANTAN TENGAH,,Indonesia,,,,-1.7404903,111.5229817,https://maps.google.com/?cid=0x0:0xcbde8a77875b152b,
cafe,Kafe,Cafe Erin,"3FWM+VQQ, Tim., Bukit Jaya, Kec. Bulik Tim., Kabupaten Lamandau, Kalimantan Tengah 74162","Tim., Bukit Jaya, Kec. Bulik Tim., Kabupaten Lamandau",KALIMANTAN TENGAH,74162.0,Indonesia,81258555525.0,,,-1.902794,111.484479,https://maps.google.com/?cid=0x0:0xf31812e990872767,
cafe,Restoran,LEVEL UP,"RC8V+VQW, Jl. Bukit Hibul Timur, Nanga Bulik, Kec. Bulik, Kabupaten Lamandau, Kalimantan Tengah 74161","Jl. Bukit Hibul Timur, Nanga Bulik, Kec. Bulik, Kabupaten Lamandau",KALIMANTAN TENGAH,74161.0,Indonesia,,,,-2.1827683,111.4444393,https://maps.google.com/?cid=0x0:0x75ec50608f1170f2,
cafe,Kedai Kopi,Kedai Biker's Lamandau,"Jl. Djagui Mamud No.157, Nanga Bulik, Kec. Bulik, Kabupaten Lamandau, Kalimantan Tengah 74162","Nanga Bulik, Kec. Bulik, Kabupaten Lamandau",KALIMANTAN TENGAH,74162.0,Indonesia,82243210823.0,,,-2.1816405,111.4528485,https://maps.google.com/?cid=0x0:0x2a81578a0821fd72,
cafe,Kedai Kopi,Tongkrongan  Agen Frozeen Food (Tombo Haus Bukja),"Desa Bukit Jaya, Rt 03 Rw 01, km 18, Bukit Jaya, Kec. Bulik Tim., Kabupaten Lamandau, Kalimantan Tengah 74162","Rt 03 Rw 01, km 18, Bukit Jaya, Kec. Bulik Tim., Kabupaten Lamandau",KALIMANTAN TENGAH,74162.0,Indonesia,85751246058.0,,,-1.9041476,111.4815312,https://maps.google.com/?cid=0x0:0xc847e4a276ad0265,
cafe,Restoran,Bakula Coffee,"RC9W+HJF, Jl. Melati, Nanga Bulik, Kec. Bulik, Kabupaten Lamandau, Kalimantan Tengah 74161","Jl. Melati, Nanga Bulik, Kec. Bulik, Kabupaten Lamandau",KALIMANTAN TENGAH,74161.0,Indonesia,82245777151.0,,,-2.1810698,111.4465371,https://maps.google.com/?cid=0x0:0xeaef325f8e3bb83c,
cafe,Kafe,Kopi Wal,"Jl. Pupu Hermansyah, Nanga Bulik, Kec. Bulik, Kabupaten Lamandau, Kalimantan Tengah 74161","Nanga Bulik, Kec. Bulik, Kabupaten Lamandau",KALIMANTAN TENGAH,74161.0,Indonesia,81347907829.0,,,-2.1793133,111.4592332,https://maps.google.com/?cid=0x0:0x586fec0e64ee7752,
cafe,Kedai Kopi,Coffee Time,"RC9W+QPX, Nanga Bulik, Kec. Bulik, Kabupaten Lamandau, Kalimantan Tengah","Kabupaten Lamandau, Kalimantan Tengah",KALIMANTAN TENGAH,,Indonesia,895622003059.0,,,-2.1805194,111.4468484,https://maps.google.com/?cid=0x0:0x8ca0ca3cf3ba3612,
cafe,Kafe,Green Cafe,"RCFV+6VW, Nanga Bulik, Kec. Bulik, Kabupaten Lamandau, Kalimantan Tengah 74161","Nanga Bulik, Kec. Bulik, Kabupaten Lamandau",KALIMANTAN TENGAH,74161.0,Indonesia,81330203031.0,,,-2.1768957,111.4446929,https://maps.google.com/?cid=0x0:0x42fea57c6844c71b,
cafe,Kafe,Fresh Cafe,"RCCP+W2C, Jalan, Nanga Bulik, Bulik, Lamandau Regency, Central Kalimantan 74161","Jalan, Nanga Bulik, Bulik, Lamandau Regency",KALIMANTAN TENGAH,74161.0,Indonesia,,,,-2.17768,111.4350158,https://maps.google.com/?cid=0x0:0x9520867dac605277,
cafe,Kafe,Simple cafe and cake,"RCCJ+2WG, Nanga Bulik, Kec. Bulik, Kabupaten Lamandau, Kalimantan Tengah 74161","Nanga Bulik, Kec. Bulik, Kabupaten Lamandau",KALIMANTAN TENGAH,74161.0,Indonesia,82283695694.0,,,-2.1798552,111.4324172,https://maps.google.com/?cid=0x0:0x915e15fa84cc99d2,
cafe,Kafe,KEMIN COFFEE,"Depan SMA 1, Jl. Nanga Bulik, Nanga Bulik, Kec. Bulik, Kabupaten Lamandau, Kalimantan Tengah 74612","Jl. Nanga Bulik, Nanga Bulik, Kec. Bulik, Kabupaten Lamandau",KALIMANTAN TENGAH,74612.0,Indonesia,82244161696.0,,,-2.1771638,111.451229,https://maps.google.com/?cid=0x0:0x5165564fb083058c,
cafe,Kafe,Meraki CafeMini Resto,"RF93+W39, Unnamed Rd, Nanga Bulik, Kec. Bulik, Kabupaten Lamandau, Kalimantan Tengah 74161","Unnamed Rd, Nanga Bulik, Kec. Bulik, Kabupaten Lamandau",KALIMANTAN TENGAH,74161.0,Indonesia,81253650057.0,,,-2.1802156,111.4527492,https://maps.google.com/?cid=0x0:0x8c6c910769e9705a,
cafe,Toko,Kantin PKS MPP,"2FVX+RCV, Nuangan, Kec. Bulik Tim., Kabupaten Lamandau, Kalimantan Tengah 74162","Nuangan, Kec. Bulik Tim., Kabupaten Lamandau",KALIMANTAN TENGAH,74162.0,Indonesia,,,,-1.9553882,111.49855,https://maps.google.com/?cid=0x0:0xf9fedc712ec83690,
cafe,Kedai Kopi,BOOTHCIN COFFE,"Sidiro sebelum Pasar Induk/Setelah Bank Kalteng, Jl. Pangeran Antasari, Naga, Kec. Bulik, Kabupaten Lamandau, Kalimantan Tengah 74161","Jl. Pangeran Antasari, Naga, Kec. Bulik, Kabupaten Lamandau",KALIMANTAN TENGAH,74161.0,Indonesia,81345611287.0,,,-2.1931896,111.4459618,https://maps.google.com/?cid=0x0:0xe05d90ee1868acad,
cafe,Kafe,Corner Cafe Lamandau,"RC7X+R29, Jl. Batu Batanggui, Nanga Bulik, Kec. Bulik, Kabupaten Lamandau, Kalimantan Tengah 74161","Jl. Batu Batanggui, Nanga Bulik, Kec. Bulik, Kabupaten Lamandau",KALIMANTAN TENGAH,74161.0,Indonesia,81255444014.0,,,-2.1854586,111.4476229,https://maps.google.com/?cid=0x0:0x5496c5985ef5c09a,
cafe,Restoran,Kedai_Arsy Bunut,"Nanga, Prov. Kal_teng, Jl. Bhakti Abri, Bunut, Kec. Bulik, Kabupaten Lamandau, Kalimantan Tengah 74162","Prov. Kal_teng, Jl. Bhakti Abri, Bunut, Kec. Bulik, Kabupaten Lamandau",KALIMANTAN TENGAH,74162.0,Indonesia,81256691773.0,,,-2.1180854,111.4619338,https://maps.google.com/?cid=0x0:0x2c849c056887be60,
cafe,Kedai Kopi,Warkop uluh itah,"Jembatan desa perigi raya simpang pt nal Kec. Bulik. kab. Lamandau, Nanga, Kec. Bulik, Kalimantan Tengah 74162","Nanga, Kec. Bulik",KALIMANTAN TENGAH,74162.0,Indonesia,85822901971.0,,,-2.0764885,111.5363883,https://maps.google.com/?cid=0x0:0xac6984e204b3066,
cafe,Kantor Perusahaan,Kanaya cafe,"V8PR+WGW, Liku, Kec. Bulik, Kabupaten Lamandau, Kalimantan Tengah","Kabupaten Lamandau, Kalimantan Tengah",KALIMANTAN TENGAH,,Indonesia,85608261949.0,,,-2.1126401,111.3413192,https://maps.google.com/?cid=0x0:0x836184ec2dc4f492,
cafe,Kafe,Dem Pizza,"Jl. W.R. Supratman No.099 RT 12 B, RW.XII, Nanga Bulik, Kec. Bulik, Kabupaten Lamandau, Kalimantan Tengah 74162","RW.XII, Nanga Bulik, Kec. Bulik, Kabupaten Lamandau",KALIMANTAN TENGAH,74162.0,Indonesia,82352288286.0,,,-2.1812612,111.4401779,https://maps.google.com/?cid=0x0:0xb868c7377df1f9ef,
cafe,Kafe,Nongky Yukk,"RFF2+4FQ, Nanga Bulik, Kec. Bulik, Kabupaten Lamandau, Kalimantan Tengah 74161","Nanga Bulik, Kec. Bulik, Kabupaten Lamandau",KALIMANTAN TENGAH,74161.0,Indonesia,,,,-2.1771505,111.4512294,https://maps.google.com/?cid=0x0:0x9b1a6c510b6a74c2,
cafe,Kedai Kopi,Hello Coffee  Car Wash,"jl jendran sudirman, bundaran kecil arah ke alun alun RT 12c, Nanga Bulik, Kalimantan Tengah 74662","bundaran kecil arah ke alun alun RT 12c, Nanga Bulik",KALIMANTAN TENGAH,74662.0,Indonesia,82251163397.0,,,-2.1764382,111.4342596,https://maps.google.com/?cid=0x0:0xf7ea2737b08e2a23,
cafe,Sarapan,Warung Mbk Rahma,"3GV6+F27, Sukamaju, Kec. Bulik Tim., Kabupaten Lamandau, Kalimantan Tengah 74162","Sukamaju, Kec. Bulik Tim., Kabupaten Lamandau",KALIMANTAN TENGAH,74162.0,Indonesia,,,,-1.9063437,111.5100329,https://maps.google.com/?cid=0x0:0xceb16963d023ceee,
cafe,Kafe,DnB Cafe Vape,"V93W+84Q, Sumber Mulya, Kec. Bulik, Kabupaten Lamandau, Kalimantan Tengah 74161","Sumber Mulya, Kec. Bulik, Kabupaten Lamandau",KALIMANTAN TENGAH,74161.0,Indonesia,85894140649.0,,,-2.1466502,111.3953617,https://maps.google.com/?cid=0x0:0x58783ee98e2857e3,
cafe,Kafe,Edam Burger Nanga Bulik,"RCFV+4J2, Unnamed Road, Nanga Bulik, Kec. Bulik, Kabupaten Lamandau, Kalimantan Tengah 74161","Unnamed Road, Nanga Bulik, Kec. Bulik, Kabupaten Lamandau",KALIMANTAN TENGAH,74161.0,Indonesia,81347599393.0,,,-2.1772368,111.444031,https://maps.google.com/?cid=0x0:0xd8f20c0e125d411b,
cafe,cafe,Kalimantan Tengah 74664,"Kabupaten Lamandau, Kalimantan Tengah","Kabupaten Lamandau, Kalimantan Tengah",KALIMANTAN TENGAH,,Indonesia,,,,-1.6722405,111.1414226,https://maps.google.com/?cid=0x0:0x2e393b90c2443400,
cafe,Toko,RM. Mama CIKA,"92WQ+J2G, Kudangan, Kec. Delang, Kabupaten Lamandau, Kalimantan Tengah 74664","Kudangan, Kec. Delang, Kabupaten Lamandau",KALIMANTAN TENGAH,74664.0,Indonesia,81352770504.0,,,-1.6034257,111.0375663,https://maps.google.com/?cid=0x0:0x866abee4a4f142e2,
cafe,cafe,Bukit tengkorak,"C262+RR, Kudangan, Kec. Delang, Kabupaten Lamandau, Kalimantan Tengah","Kabupaten Lamandau, Kalimantan Tengah",KALIMANTAN TENGAH,,Indonesia,,,,-1.5879953,111.0020262,https://maps.google.com/?cid=0x0:0x64920b9950cf22fc,
cafe,Toko,Warung Jenthara,"C23P+63, Kudangan, Kec. Delang, Kabupaten Lamandau, Kalimantan Tengah","Kabupaten Lamandau, Kalimantan Tengah",KALIMANTAN TENGAH,,Indonesia,,,,-1.5969813,111.0351595,https://maps.google.com/?cid=0x0:0x7d1e77471c2567e6,
cafe,Brunch,Zea Fam's,"Sungai Tuat, Kec. Lamandau, Kabupaten Lamandau, Kalimantan Tengah","Kabupaten Lamandau, Kalimantan Tengah",KALIMANTAN TENGAH,,Indonesia,,,,-1.7858192,111.0917611,https://maps.google.com/?cid=0x0:0x153657259504cc58,
cafe,Dapur Umum,Warung Makan Ibu Hj. Munawaroh Jepara,"925P+RJR, Lopus, Kec. Delang, Kabupaten Lamandau, Kalimantan Tengah 74664","Lopus, Kec. Delang, Kabupaten Lamandau",KALIMANTAN TENGAH,74664.0,Indonesia,,,,-1.64038,111.0365055,https://maps.google.com/?cid=0x0:0x49414aafb38fef02,
cafe,Kedai Kopi,Teras Coffe Lamandau,"Jl. W.R. Supratman No.20b, Nanga Bulik, Kec. Bulik, Kabupaten Lamandau, Kalimantan Tengah 74611","Nanga Bulik, Kec. Bulik, Kabupaten Lamandau",KALIMANTAN TENGAH,74611.0,Indonesia,82253268553.0,,,-2.1813583,111.4345042,https://maps.google.com/?cid=0x0:0x60d64bbc38c7c4e4,
cafe,Bar,Nanga bulik,"6355+958, Sungai Tuat, Kec. Lamandau, Kabupaten Lamandau, Kalimantan Tengah","Kabupaten Lamandau, Kalimantan Tengah",KALIMANTAN TENGAH,,Indonesia,,,,-1.7915792,111.0579632,https://maps.google.com/?cid=0x0:0x17703f9ef0d8b890,
cafe,Rumah Makan,WR markiteng,"kalimatan, Jl. Lintas Kalimantan, Cuhai, Kec. Lamandau, Kabupaten Lamandau, Kalimantan Tengah","Kabupaten Lamandau, Kalimantan Tengah",KALIMANTAN TENGAH,,Indonesia,,,,-1.8230157,111.1041242,https://maps.google.com/?cid=0x0:0x7cf64e95be2c88c4,
cafe,Bakso,Rumah Makan Barokah Adonai,"Jl. Lintas Kalimantan, Betenung, Kec. Nanga Tayap, Kabupaten Ketapang, Kalimantan Barat 78873","Betenung, Kec. Nanga Tayap, Kabupaten Ketapang",KALIMANTAN TENGAH,78873.0,Indonesia,81253888821.0,,,-1.573416,110.9209064,https://maps.google.com/?cid=0x0:0x32296892c0ebb91e,
cafe,Produsen,GILINGAN PENTOL BU IIM,"Jl. Lintas Kalimantan, Cuhai, Kec. Lamandau, Kabupaten Lamandau, Kalimantan Tengah","Kabupaten Lamandau, Kalimantan Tengah",KALIMANTAN TENGAH,,Indonesia,,,,-1.8230157,111.1041242,https://maps.google.com/?cid=0x0:0xf2c9149f7948e944,
cafe,Toko,KESAH KOPI,"F5W3+QH5, Kina, Kec. Batang Kawa, Kabupaten Lamandau, Kalimantan Tengah","Kabupaten Lamandau, Kalimantan Tengah",KALIMANTAN TENGAH,,Indonesia,,,,-1.5031112,111.153976,https://maps.google.com/?cid=0x0:0x59ca094548d64652,
cafe,Warnet,Wifi Aulia Kubung,"9W8V+PRG, Kubung, Kec. Delang, Kabupaten Lamandau, Kalimantan Tengah","Kabupaten Lamandau, Kalimantan Tengah",KALIMANTAN TENGAH,,Indonesia,,,,-1.6340427,110.94493,https://maps.google.com/?cid=0x0:0x3b010e6e27209ffd,
cafe,Area Wi-Fi,Wifi Melin by EWT,"957F+VM2, Mengkalang, Kec. Batang Kawa, Kabupaten Lamandau, Kalimantan Tengah 74664","Mengkalang, Kec. Batang Kawa, Kabupaten Lamandau",KALIMANTAN TENGAH,74664.0,Indonesia,,,,-1.6359053,111.1752456,https://maps.google.com/?cid=0x0:0x8d3c24acd8dbe802,
cafe,Restoran,LEVEL UP,"RC8V+VQW, Jl. Bukit Hibul Timur, Nanga Bulik, Kec. Bulik, Kabupaten Lamandau, Kalimantan Tengah 74161","Jl. Bukit Hibul Timur, Nanga Bulik, Kec. Bulik, Kabupaten Lamandau",KALIMANTAN TENGAH,74161.0,Indonesia,,,,-2.1827683,111.4444393,https://maps.google.com/?cid=0x0:0x75ec50608f1170f2,
cafe,cafe,Warkop Mr.Rb,"Sungai Tuat, Kec. Lamandau, Kabupaten Lamandau, Kalimantan Tengah","Kabupaten Lamandau, Kalimantan Tengah",KALIMANTAN TENGAH,,Indonesia,,,,-1.7855392,111.0914738,https://maps.google.com/?cid=0x0:0x897aa9ad714da955,
cafe,Kedai Kopi,Laman Coffee,"QFX4+8F4, Jl. Pangeran Antasari, Nanga Bulik, Kec. Bulik, Kabupaten Lamandau, Kalimantan Tengah 74161","Jl. Pangeran Antasari, Nanga Bulik, Kec. Bulik, Kabupaten Lamandau",KALIMANTAN TENGAH,74161.0,Indonesia,85390181669.0,,,-2.2017379,111.4561932,https://maps.google.com/?cid=0x0:0xa4e0b3a2d1e8a233,
cafe,Brunch,WARUNG BATAS,"CWGC+J98, Jl. Lintas Kalimantan, Betenung, Kec. Nanga Tayap, Kabupaten Ketapang, Kalimantan Barat 78873","Jl. Lintas Kalimantan, Betenung, Kec. Nanga Tayap, Kabupaten Ketapang",KALIMANTAN TENGAH,78873.0,Indonesia,81253113420.0,,,-1.5734586,110.9209423,https://maps.google.com/?cid=0x0:0xeb79717a1bbf870b,
cafe,Kafe,WARUNG NUGGET SEDERHANA D'TEN.KM.16,"3FPP+WMX, Bukit Jaya, Kec. Bulik Tim., Kabupaten Lamandau, Kalimantan Tengah","Kabupaten Lamandau, Kalimantan Tengah",KALIMANTAN TENGAH,,Indonesia,85245868417.0,,,-1.9126479,111.486725,https://maps.google.com/?cid=0x0:0x8336f7eec3c16d31,
cafe,Rumah Makan,Warung Makan Rizky Putri,"54F3+RQ, Cuhai, Kec. Lamandau, Kabupaten Lamandau, Kalimantan Tengah","Kabupaten Lamandau, Kalimantan Tengah",KALIMANTAN TENGAH,,Indonesia,,,,-1.8254406,111.1044071,https://maps.google.com/?cid=0x0:0x9044b271f48a872c,
cafe,Kedai Kopi,De'La Coffee and Eatery,"VWRJ+64C, Jl. Kebantenan III, RT.8/RW.7, Semper Tim., Kec. Cilincing, Jkt Utara, Daerah Khusus Ibukota Jakarta 14130","Jl. Kebantenan III, RT.8/RW.7, Semper Tim., Kec. Cilincing, Jkt Utara",KALIMANTAN TENGAH,14130.0,Indonesia,81384146579.0,,,-6.1094424,106.9302723,https://maps.google.com/?cid=0x0:0x6098d0a1284301f3,
cafe,Restoran,"DeLoRet Resto, Bar  Cafe","Jl. Pangeran Antasari No.39, RT.10/RW.1, Cilandak Bar., Kec. Cilandak, Kota Jakarta Selatan, Daerah Khusus Ibukota Jakarta 12430","RT.10/RW.1, Cilandak Bar., Kec. Cilandak, Kota Jakarta Selatan",KALIMANTAN TENGAH,12430.0,Indonesia,2175906663.0,,,-6.287844,106.8071949,https://maps.google.com/?cid=0x0:0x5d1bc6880f433767,
cafe,Pemasok makanan dan minuman katering,Ohana Cafe and Kitchen,"Jl. Intan No.8B, RT.7/RW.2, Cilandak Bar., Kec. Cilandak, Kota Jakarta Selatan, Daerah Khusus Ibukota Jakarta 12430","RT.7/RW.2, Cilandak Bar., Kec. Cilandak, Kota Jakarta Selatan",KALIMANTAN TENGAH,12430.0,Indonesia,2127841863.0,,,-6.2935495,106.800662,https://maps.google.com/?cid=0x0:0x91d0c75713cfa668,
cafe,Makanan Siap Saji,D' lie que,"Jalan Kencana Indah I Blok J1.J1/3N, RT.5/RW.2, Kembangan Sel., Kec. Kembangan, Kota Jakarta Barat, Daerah Khusus Ibukota Jakarta 11610","RT.5/RW.2, Kembangan Sel., Kec. Kembangan, Kota Jakarta Barat",KALIMANTAN TENGAH,11610.0,Indonesia,8111886301.0,,,-6.1907088,106.7458074,https://maps.google.com/?cid=0x0:0x2e2d4ce24333c35c,
cafe,cafe,Kalimantan Tengah 74663,"Kabupaten Lamandau, Kalimantan Tengah","Kabupaten Lamandau, Kalimantan Tengah",KALIMANTAN TENGAH,,Indonesia,,,,-1.9269166,111.1891151,https://maps.google.com/?cid=0x0:0xddd786c27266b53a,
cafe,Kedai Kopi,Teras Coffe Lamandau,"Jl. W.R. Supratman No.20b, Nanga Bulik, Kec. Bulik, Kabupaten Lamandau, Kalimantan Tengah 74611","Nanga Bulik, Kec. Bulik, Kabupaten Lamandau",KALIMANTAN TENGAH,74611.0,Indonesia,82253268553.0,,,-2.1813583,111.4345042,https://maps.google.com/?cid=0x0:0x60d64bbc38c7c4e4,
cafe,Sarapan,Warung Makan Taman Garu,"Jl. Lintas Kalimantan, Kawa, Kec. Lamandau, Kabupaten Lamandau, Kalimantan Tengah 74663","Kawa, Kec. Lamandau, Kabupaten Lamandau",KALIMANTAN TENGAH,74663.0,Indonesia,85249544442.0,,,-1.8762614,111.1143746,https://maps.google.com/?cid=0x0:0xbe70126e20ef08da,
cafe,Kafe,Yugi_Kitchen,"489R+464, Sekoban, Kec. Lamandau, Kabupaten Lamandau, Kalimantan Tengah 74663","Sekoban, Kec. Lamandau, Kabupaten Lamandau",KALIMANTAN TENGAH,74663.0,Indonesia,82236705491.0,,,-1.8822479,111.3405887,https://maps.google.com/?cid=0x0:0x803fc5dcfe6cbfa0,
cafe,Pusat Perbelanjaan,Samu Jaya 29,"Samu Jaya, Kec. Lamandau, Kabupaten Lamandau, Kalimantan Tengah 74663","Kec. Lamandau, Kabupaten Lamandau",KALIMANTAN TENGAH,74663.0,Indonesia,,,,-1.8789188,111.324434,https://maps.google.com/?cid=0x0:0xb1eed8e49a5ced2c,
cafe,Rumah Makan,Puncak panopa RM.ARGO MULYO,"257M+7H, Panopa, Kec. Lamandau, Kabupaten Lamandau, Kalimantan Tengah","Kabupaten Lamandau, Kalimantan Tengah",KALIMANTAN TENGAH,,Indonesia,,,,-1.9867716,111.1839058,https://maps.google.com/?cid=0x0:0xd1f69d25e2163554,
cafe,Dapur Umum,Warung ENGGAL LANCAR pak mungat,"488F+P9V, Tapin Bini, Kec. Lamandau, Kabupaten Lamandau, Kalimantan Tengah 74663","Tapin Bini, Kec. Lamandau, Kabupaten Lamandau",KALIMANTAN TENGAH,74663.0,Indonesia,,,,-1.8831389,111.3234091,https://maps.google.com/?cid=0x0:0xc88d2ce24ad9eb4d,
cafe,Kedai Kopi,BOOTHCIN COFFE,"Sidiro sebelum Pasar Induk/Setelah Bank Kalteng, Jl. Pangeran Antasari, Naga, Kec. Bulik, Kabupaten Lamandau, Kalimantan Tengah 74161","Jl. Pangeran Antasari, Naga, Kec. Bulik, Kabupaten Lamandau",KALIMANTAN TENGAH,74161.0,Indonesia,81345611287.0,,,-2.1931896,111.4459618,https://maps.google.com/?cid=0x0:0xe05d90ee1868acad,
cafe,Restoran,Wr Makan Sabar menanti,"Jalan Saparo Napon No.RT.04, Samu Jaya, Kec. Lamandau, Kabupaten Lamandau, Kalimantan Tengah 74663","Samu Jaya, Kec. Lamandau, Kabupaten Lamandau",KALIMANTAN TENGAH,74663.0,Indonesia,82159081317.0,,,-1.8824724,111.3295182,https://maps.google.com/?cid=0x0:0x2721045a0b8b39de,
cafe,Kafe,Cafe Erin,"3FWM+VQQ, Tim., Bukit Jaya, Kec. Bulik Tim., Kabupaten Lamandau, Kalimantan Tengah 74162","Tim., Bukit Jaya, Kec. Bulik Tim., Kabupaten Lamandau",KALIMANTAN TENGAH,74162.0,Indonesia,81258555525.0,,,-1.902794,111.484479,https://maps.google.com/?cid=0x0:0xf31812e990872767,
cafe,Restoran,LEVEL UP,"RC8V+VQW, Jl. Bukit Hibul Timur, Nanga Bulik, Kec. Bulik, Kabupaten Lamandau, Kalimantan Tengah 74161","Jl. Bukit Hibul Timur, Nanga Bulik, Kec. Bulik, Kabupaten Lamandau",KALIMANTAN TENGAH,74161.0,Indonesia,,,,-2.1827683,111.4444393,https://maps.google.com/?cid=0x0:0x75ec50608f1170f2,
cafe,Restoran,Bakula Coffee,"RC9W+HJF, Jl. Melati, Nanga Bulik, Kec. Bulik, Kabupaten Lamandau, Kalimantan Tengah 74161","Jl. Melati, Nanga Bulik, Kec. Bulik, Kabupaten Lamandau",KALIMANTAN TENGAH,74161.0,Indonesia,82245777151.0,,,-2.1810698,111.4465371,https://maps.google.com/?cid=0x0:0xeaef325f8e3bb83c,
cafe,Kedai Kopi,Tongkrongan  Agen Frozeen Food (Tombo Haus Bukja),"Desa Bukit Jaya, Rt 03 Rw 01, km 18, Bukit Jaya, Kec. Bulik Tim., Kabupaten Lamandau, Kalimantan Tengah 74162","Rt 03 Rw 01, km 18, Bukit Jaya, Kec. Bulik Tim., Kabupaten Lamandau",KALIMANTAN TENGAH,74162.0,Indonesia,85751246058.0,,,-1.9041476,111.4815312,https://maps.google.com/?cid=0x0:0xc847e4a276ad0265,
cafe,Kafe,Kopi Wal,"Jl. Pupu Hermansyah, Nanga Bulik, Kec. Bulik, Kabupaten Lamandau, Kalimantan Tengah 74161","Nanga Bulik, Kec. Bulik, Kabupaten Lamandau",KALIMANTAN TENGAH,74161.0,Indonesia,81347907829.0,,,-2.1793133,111.4592332,https://maps.google.com/?cid=0x0:0x586fec0e64ee7752,
cafe,Kafe,Corner Cafe Lamandau,"RC7X+R29, Jl. Batu Batanggui, Nanga Bulik, Kec. Bulik, Kabupaten Lamandau, Kalimantan Tengah 74161","Jl. Batu Batanggui, Nanga Bulik, Kec. Bulik, Kabupaten Lamandau",KALIMANTAN TENGAH,74161.0,Indonesia,81255444014.0,,,-2.1854586,111.4476229,https://maps.google.com/?cid=0x0:0x5496c5985ef5c09a,
cafe,Kafe,Fresh Cafe,"RCCP+W2C, Jalan, Nanga Bulik, Bulik, Lamandau Regency, Central Kalimantan 74161","Jalan, Nanga Bulik, Bulik, Lamandau Regency",KALIMANTAN TENGAH,74161.0,Indonesia,,,,-2.17768,111.4350158,https://maps.google.com/?cid=0x0:0x9520867dac605277,
cafe,Kedai Kopi,Kedai Biker's Lamandau,"Jl. Djagui Mamud No.157, Nanga Bulik, Kec. Bulik, Kabupaten Lamandau, Kalimantan Tengah 74162","Nanga Bulik, Kec. Bulik, Kabupaten Lamandau",KALIMANTAN TENGAH,74162.0,Indonesia,82243210823.0,,,-2.1816405,111.4528485,https://maps.google.com/?cid=0x0:0x2a81578a0821fd72,
cafe,Kantor Perusahaan,Kanaya cafe,"V8PR+WGW, Liku, Kec. Bulik, Kabupaten Lamandau, Kalimantan Tengah","Kabupaten Lamandau, Kalimantan Tengah",KALIMANTAN TENGAH,,Indonesia,85608261949.0,,,-2.1126401,111.3413192,https://maps.google.com/?cid=0x0:0x836184ec2dc4f492,
cafe,Kafe,KEMIN COFFEE,"Depan SMA 1, Jl. Nanga Bulik, Nanga Bulik, Kec. Bulik, Kabupaten Lamandau, Kalimantan Tengah 74612","Jl. Nanga Bulik, Nanga Bulik, Kec. Bulik, Kabupaten Lamandau",KALIMANTAN TENGAH,74612.0,Indonesia,82244161696.0,,,-2.1771638,111.451229,https://maps.google.com/?cid=0x0:0x5165564fb083058c,
cafe,Kafe,Major_coffe,"RC7P+WW2, Jl. Fatmawati, Nanga Bulik, Kec. Bulik, Kabupaten Lamandau, Kalimantan Tengah 74161","Jl. Fatmawati, Nanga Bulik, Kec. Bulik, Kabupaten Lamandau",KALIMANTAN TENGAH,74161.0,Indonesia,81348557077.0,,,-2.185244,111.437281,https://maps.google.com/?cid=0x0:0xb6c6be916fe972fa,
cafe,Kafe,Baik Baik Garden Cafe,"Jl. Lamandau III No.5, RT.1/RW.7, Kramat Pela, Kec. Kby. Baru, Kota Jakarta Selatan, Daerah Khusus Ibukota Jakarta 12130","RT.1/RW.7, Kramat Pela, Kec. Kby. Baru, Kota Jakarta Selatan",KALIMANTAN TENGAH,12130.0,Indonesia,85283729172.0,,,-6.244441,106.794472,https://maps.google.com/?cid=0x0:0x107109731ee0baf9,
cafe,,PONDOK PAK LABAN,"37C7+FXM, Suja, Kec. Lamandau, Kabupaten Lamandau, Kalimantan Tengah","Kabupaten Lamandau, Kalimantan Tengah",KALIMANTAN TENGAH,,Indonesia,,,,-1.9287983,111.2649313,https://maps.google.com/?cid=0x0:0xfb77cf91576594f0,
cafe,Kafe,WARUNG NUGGET SEDERHANA D'TEN.KM.16,"3FPP+WMX, Bukit Jaya, Kec. Bulik Tim., Kabupaten Lamandau, Kalimantan Tengah","Kabupaten Lamandau, Kalimantan Tengah",KALIMANTAN TENGAH,,Indonesia,85245868417.0,,,-1.9126479,111.486725,https://maps.google.com/?cid=0x0:0x8336f7eec3c16d31,
cafe,Kantor Perusahaan,Afdeling Lima estate suja,"3699+FG2, Tapin Bini, Kec. Lamandau, Kabupaten Lamandau, Kalimantan Tengah","Kabupaten Lamandau, Kalimantan Tengah",KALIMANTAN TENGAH,,Indonesia,,,,-1.9313544,111.218751,https://maps.google.com/?cid=0x0:0xcb98feea0412ebbe,
cafe,Toko Roti,Lapak Abi Daffa,"masjid nurul huda, Jl. Arahan no 147 Rt. 04 Desa Samujaya samping, Kabupaten Lamandau, Kalimantan Tengah","Kabupaten Lamandau, Kalimantan Tengah",KALIMANTAN TENGAH,,Indonesia,82279436112.0,,,-1.8803632,111.3300557,https://maps.google.com/?cid=0x0:0x352af046059951b7,
cafe,cafe,Kalimantan Tengah 74162,"Kabupaten Lamandau, Kalimantan Tengah","Kabupaten Lamandau, Kalimantan Tengah",KALIMANTAN TENGAH,,Indonesia,,,,-1.7404903,111.5229817,https://maps.google.com/?cid=0x0:0xcbde8a77875b152b,
cafe,Kafe,Cafe Erin,"3FWM+VQQ, Tim., Bukit Jaya, Kec. Bulik Tim., Kabupaten Lamandau, Kalimantan Tengah 74162","Tim., Bukit Jaya, Kec. Bulik Tim., Kabupaten Lamandau",KALIMANTAN TENGAH,74162.0,Indonesia,81258555525.0,,,-1.902794,111.484479,https://maps.google.com/?cid=0x0:0xf31812e990872767,
cafe,Kedai Kopi,Teras Coffe Lamandau,"Jl. W.R. Supratman No.20b, Nanga Bulik, Kec. Bulik, Kabupaten Lamandau, Kalimantan Tengah 74611","Nanga Bulik, Kec. Bulik, Kabupaten Lamandau",KALIMANTAN TENGAH,74611.0,Indonesia,82253268553.0,,,-2.1813583,111.4345042,https://maps.google.com/?cid=0x0:0x60d64bbc38c7c4e4,
cafe,Kedai Kopi,Kedai Biker's Lamandau,"Jl. Djagui Mamud No.157, Nanga Bulik, Kec. Bulik, Kabupaten Lamandau, Kalimantan Tengah 74162","Nanga Bulik, Kec. Bulik, Kabupaten Lamandau",KALIMANTAN TENGAH,74162.0,Indonesia,82243210823.0,,,-2.1816405,111.4528485,https://maps.google.com/?cid=0x0:0x2a81578a0821fd72,
cafe,Kafe,KEMIN COFFEE,"Depan SMA 1, Jl. Nanga Bulik, Nanga Bulik, Kec. Bulik, Kabupaten Lamandau, Kalimantan Tengah 74612","Jl. Nanga Bulik, Nanga Bulik, Kec. Bulik, Kabupaten Lamandau",KALIMANTAN TENGAH,74612.0,Indonesia,82244161696.0,,,-2.1771638,111.451229,https://maps.google.com/?cid=0x0:0x5165564fb083058c,
cafe,Kedai Kopi,Tongkrongan  Agen Frozeen Food (Tombo Haus Bukja),"Desa Bukit Jaya, Rt 03 Rw 01, km 18, Bukit Jaya, Kec. Bulik Tim., Kabupaten Lamandau, Kalimantan Tengah 74162","Rt 03 Rw 01, km 18, Bukit Jaya, Kec. Bulik Tim., Kabupaten Lamandau",KALIMANTAN TENGAH,74162.0,Indonesia,85751246058.0,,,-1.9041476,111.4815312,https://maps.google.com/?cid=0x0:0xc847e4a276ad0265,
cafe,Kafe,Corner Cafe Lamandau,"RC7X+R29, Jl. Batu Batanggui, Nanga Bulik, Kec. Bulik, Kabupaten Lamandau, Kalimantan Tengah 74161","Jl. Batu Batanggui, Nanga Bulik, Kec. Bulik, Kabupaten Lamandau",KALIMANTAN TENGAH,74161.0,Indonesia,81255444014.0,,,-2.1854586,111.4476229,https://maps.google.com/?cid=0x0:0x5496c5985ef5c09a,
cafe,Toko Makanan,Terangbulanmartabak ORTEGA,"WJJP+RPG, Unnamed Road, Bukit Raya, Kec. Menthobi Raya, Kabupaten Lamandau, Kalimantan Tengah 74117","Unnamed Road, Bukit Raya, Kec. Menthobi Raya, Kabupaten Lamandau",KALIMANTAN TENGAH,74117.0,Indonesia,82329755192.0,,,-2.067937,111.6368216,https://maps.google.com/?cid=0x0:0x72cbbd82550002e9,
cafe,Bengkel Bongkar Pasang Mesin,Bengkel jenuh,"Bengkel jenuh, Bukit Raya, Kec. Menthobi Raya, Kabupaten Lamandau, Kalimantan Tengah","Kabupaten Lamandau, Kalimantan Tengah",KALIMANTAN TENGAH,,Indonesia,81255901380.0,,,-2.0667526,111.643744,https://maps.google.com/?cid=0x0:0xaca78ab490af939e,
cafe,Kafe,Fresh Cafe,"RCCP+W2C, Jalan, Nanga Bulik, Bulik, Lamandau Regency, Central Kalimantan 74161","Jalan, Nanga Bulik, Bulik, Lamandau Regency",KALIMANTAN TENGAH,74161.0,Indonesia,,,,-2.17768,111.4350158,https://maps.google.com/?cid=0x0:0x9520867dac605277,
cafe,Rumah Makan,Warung Makan Mbak Wiwik,"WJMV+286, Bukit Raya, Kec. Menthobi Raya, Kabupaten Lamandau, Kalimantan Tengah 74117","Bukit Raya, Kec. Menthobi Raya, Kabupaten Lamandau",KALIMANTAN TENGAH,74117.0,Indonesia,85754982288.0,,,-2.067467,111.643263,https://maps.google.com/?cid=0x0:0xf3c8b1f04ecbdcc8,
cafe,Jawa,Rumah makan simpang,"WJMW+P33, Unnamed Road, Bukit Raya, Kec. Menthobi Raya, Kabupaten Lamandau, Kalimantan Tengah 74117","Unnamed Road, Bukit Raya, Kec. Menthobi Raya, Kabupaten Lamandau",KALIMANTAN TENGAH,74117.0,Indonesia,85654268802.0,,,-2.0657401,111.6451813,https://maps.google.com/?cid=0x0:0x64497622d0971293,
cafe,Rumah Makan,warung makan Santay,"WJMW+P33, Bukit Raya, Kec. Menthobi Raya, Kabupaten Lamandau, Kalimantan Tengah 74117","Bukit Raya, Kec. Menthobi Raya, Kabupaten Lamandau",KALIMANTAN TENGAH,74117.0,Indonesia,,,,-2.0653176,111.6446372,https://maps.google.com/?cid=0x0:0xa255907da669b0da,
cafe,Kafe,Meraki CafeMini Resto,"RF93+W39, Unnamed Rd, Nanga Bulik, Kec. Bulik, Kabupaten Lamandau, Kalimantan Tengah 74161","Unnamed Rd, Nanga Bulik, Kec. Bulik, Kabupaten Lamandau",KALIMANTAN TENGAH,74161.0,Indonesia,81253650057.0,,,-2.1802156,111.4527492,https://maps.google.com/?cid=0x0:0x8c6c910769e9705a,
cafe,Perhimpunan Pengembang Perumahan,PRATAMA music,"WJMQ+QG6, Bukit Raya, Kec. Menthobi Raya, Kabupaten Lamandau, Kalimantan Tengah 74117","Bukit Raya, Kec. Menthobi Raya, Kabupaten Lamandau",KALIMANTAN TENGAH,74117.0,Indonesia,82269788880.0,,,-2.065597,111.6387524,https://maps.google.com/?cid=0x0:0xa6018f60d767c592,
cafe,Restoran,Bakula Coffee,"RC9W+HJF, Jl. Melati, Nanga Bulik, Kec. Bulik, Kabupaten Lamandau, Kalimantan Tengah 74161","Jl. Melati, Nanga Bulik, Kec. Bulik, Kabupaten Lamandau",KALIMANTAN TENGAH,74161.0,Indonesia,82245777151.0,,,-2.1810698,111.4465371,https://maps.google.com/?cid=0x0:0xeaef325f8e3bb83c,
cafe,Kafe,Green Cafe,"RCFV+6VW, Nanga Bulik, Kec. Bulik, Kabupaten Lamandau, Kalimantan Tengah 74161","Nanga Bulik, Kec. Bulik, Kabupaten Lamandau",KALIMANTAN TENGAH,74161.0,Indonesia,81330203031.0,,,-2.1768957,111.4446929,https://maps.google.com/?cid=0x0:0x42fea57c6844c71b,
cafe,Restoran,Rumah Makan  (Dehan Dan Dodoy),"WJMW+F8W, Bukit Raya, Kec. Menthobi Raya, Kabupaten Lamandau, Kalimantan Tengah 74117","Bukit Raya, Kec. Menthobi Raya, Kabupaten Lamandau",KALIMANTAN TENGAH,74117.0,Indonesia,81251125939.0,,,-2.0662702,111.6458344,https://maps.google.com/?cid=0x0:0xfad091011f015f57,
cafe,Restoran,LEVEL UP,"RC8V+VQW, Jl. Bukit Hibul Timur, Nanga Bulik, Kec. Bulik, Kabupaten Lamandau, Kalimantan Tengah 74161","Jl. Bukit Hibul Timur, Nanga Bulik, Kec. Bulik, Kabupaten Lamandau",KALIMANTAN TENGAH,74161.0,Indonesia,,,,-2.1827683,111.4444393,https://maps.google.com/?cid=0x0:0x75ec50608f1170f2,
cafe,Kedai Kopi,Yoi N Co,"Melata, Kec. Menthobi Raya, Kabupaten Lamandau, Kalimantan Tengah","Kabupaten Lamandau, Kalimantan Tengah",KALIMANTAN TENGAH,,Indonesia,85753797600.0,,,-1.987888,111.6318225,https://maps.google.com/?cid=0x0:0x9c7fe73029949a1e,
cafe,Kafe,Kopi Wal,"Jl. Pupu Hermansyah, Nanga Bulik, Kec. Bulik, Kabupaten Lamandau, Kalimantan Tengah 74161","Nanga Bulik, Kec. Bulik, Kabupaten Lamandau",KALIMANTAN TENGAH,74161.0,Indonesia,81347907829.0,,,-2.1793133,111.4592332,https://maps.google.com/?cid=0x0:0x586fec0e64ee7752,
cafe,Kedai Kopi,Warung kopi p.karno RT. 11,"WJJR+W3W, Bukit Raya, Kec. Menthobi Raya, Kabupaten Lamandau, Kalimantan Tengah 74117","Bukit Raya, Kec. Menthobi Raya, Kabupaten Lamandau",KALIMANTAN TENGAH,74117.0,Indonesia,81255801154.0,,,-2.0676385,111.6402065,https://maps.google.com/?cid=0x0:0xac776df52b4edf19,
cafe,Sunda,Rumah Makan De Ajeng,"WJJR+VCM, Unnamed Road, Bukit Raya, Menthobi Raya, Lamandau Regency, Central Kalimantan 74117","Unnamed Road, Bukit Raya, Menthobi Raya, Lamandau Regency",KALIMANTAN TENGAH,74117.0,Indonesia,82353079982.0,,,-2.0677866,111.641038,https://maps.google.com/?cid=0x0:0xd06fc0ebb75776b7,
cafe,Toko Roti,Mini Cafe Sweet Bakery Hj.cica,"RC7X+RHC, Jl. Batu Batanggui, Nanga Bulik, Kec. Bulik, Kabupaten Lamandau, Kalimantan Tengah 74161","Jl. Batu Batanggui, Nanga Bulik, Kec. Bulik, Kabupaten Lamandau",KALIMANTAN TENGAH,74161.0,Indonesia,85252949470.0,,,-2.1854439,111.4489001,https://maps.google.com/?cid=0x0:0x4a12a83a8d93e09d,
cafe,cafe,Kec. Menthobi Raya,"Kabupaten Lamandau, Kalimantan Tengah","Kabupaten Lamandau, Kalimantan Tengah",KALIMANTAN TENGAH,,Indonesia,,,,-2.050416,111.6153851,https://maps.google.com/?cid=0x0:0x45123dfed8d40bd7,
cafe,Indonesia,Handika Resto,"WH5W+PFH, Bukit Makmur, Kec. Menthobi Raya, Kabupaten Lamandau, Kalimantan Tengah 74117","Bukit Makmur, Kec. Menthobi Raya, Kabupaten Lamandau",KALIMANTAN TENGAH,74117.0,Indonesia,,,,-2.0906771,111.5962313,https://maps.google.com/?cid=0x0:0xd4329aead64c1625,
cafe,Kafe,Warung Heru,"WH8V+34Q, Bukit Makmur, Kec. Menthobi Raya, Kabupaten Lamandau, Kalimantan Tengah","Kabupaten Lamandau, Kalimantan Tengah",KALIMANTAN TENGAH,,Indonesia,,,,-2.0847997,111.5928689,https://maps.google.com/?cid=0x0:0x7ec1d87cad9a3819,
cafe,Dapur Umum,Warung MakanBakso Teh Lilis,"WJMJ+7P, Bukit Raya, Kec. Menthobi Raya, Kabupaten Lamandau, Kalimantan Tengah","Kabupaten Lamandau, Kalimantan Tengah",KALIMANTAN TENGAH,,Indonesia,81346354323.0,,,-2.066822,111.63185,https://maps.google.com/?cid=0x0:0x542533f4e523eae9,
cafe,Restoran,Keday Lesehan Rafii,"WJMV+63Q, Unnamed Road, Bukit Raya, Kec. Menthobi Raya, Kabupaten Lamandau, Kalimantan Tengah 74117","Unnamed Road, Bukit Raya, Kec. Menthobi Raya, Kabupaten Lamandau",KALIMANTAN TENGAH,74117.0,Indonesia,85705219181.0,,,-2.0669182,111.6427243,https://maps.google.com/?cid=0x0:0xf0f3c6ba6fa61002,
cafe,cafe,Kec. Sematu Jaya,"Kabupaten Lamandau, Kalimantan Tengah","Kabupaten Lamandau, Kalimantan Tengah",KALIMANTAN TENGAH,,Indonesia,,,,-2.2356757,111.5156988,https://maps.google.com/?cid=0x0:0xa84b471e5053bba1,
cafe,Kantin sekolah,Caffe tuk,"QHGM+F2X, Wonorejo, Kec. Sematu Jaya, Kabupaten Lamandau, Kalimantan Tengah 74161","Wonorejo, Kec. Sematu Jaya, Kabupaten Lamandau",KALIMANTAN TENGAH,74161.0,Indonesia,82256231172.0,,,-2.223757,111.5826028,https://maps.google.com/?cid=0x0:0x25d7973ebe19c9f9,
cafe,Kedai Kopi,Waroeng Tengah,"Jl. Lintas Kalimantan, RT.004/RW.003, Purworejo, Kec. Sematu Jaya, Kabupaten Lamandau, Kalimantan Tengah 74669","RT.004/RW.003, Purworejo, Kec. Sematu Jaya, Kabupaten Lamandau",KALIMANTAN TENGAH,74669.0,Indonesia,81222594289.0,,,-2.234751,111.5152115,https://maps.google.com/?cid=0x0:0x17f35056cef6b923,
cafe,Makanan Kecil,Coffee Break,"PGVR+86H, Jalan Trans Desa, Jangkar Prima, Sematu Jaya, Lamandau Regency, Central Kalimantan 74161","Jalan Trans Desa, Jangkar Prima, Sematu Jaya, Lamandau Regency",KALIMANTAN TENGAH,74161.0,Indonesia,85654904919.0,,,-2.256693,111.540598,https://maps.google.com/?cid=0x0:0xacf22de26c87a07c,
cafe,Kafe,Aa asep,"PG5X+M78, Unnamed Road, Mekar Mulya, Kec. Sematu Jaya, Kabupaten Lamandau, Kalimantan Tengah 74161","Unnamed Road, Mekar Mulya, Kec. Sematu Jaya, Kabupaten Lamandau",KALIMANTAN TENGAH,74161.0,Indonesia,85705266663.0,,,-2.2908418,111.5482141,https://maps.google.com/?cid=0x0:0xb763352ac63a7f7f,
cafe,Kafe,Warung mbah sito,"QGXV+7Q5, Unnamed Road, Bina Bhakti, Kec. Sematu Jaya, Kabupaten Lamandau, Kalimantan Tengah 74161","Unnamed Road, Bina Bhakti, Kec. Sematu Jaya, Kabupaten Lamandau",KALIMANTAN TENGAH,74161.0,Indonesia,,,,-2.2018663,111.5444925,https://maps.google.com/?cid=0x0:0x5f3c974b6db7fad7,
cafe,Padang,Warung Makan Sari Rasa,"jl.trans kalimantan purwareja, Purworejo, Kec. Sematu Jaya, Kabupaten Lamandau, Kalimantan Tengah 74161","Purworejo, Kec. Sematu Jaya, Kabupaten Lamandau",KALIMANTAN TENGAH,74161.0,Indonesia,,,,-2.2354715,111.5157566,https://maps.google.com/?cid=0x0:0x979d50ca3b120d53,
cafe,Kedai Kopi,Warung Mbah Damin,"QGWQ+8P7, Bina Bhakti, Kec. Sematu Jaya, Kabupaten Lamandau, Kalimantan Tengah 74161","Bina Bhakti, Kec. Sematu Jaya, Kabupaten Lamandau",KALIMANTAN TENGAH,74161.0,Indonesia,,,,-2.2042195,111.5393015,https://maps.google.com/?cid=0x0:0x87793abc6f7803db,
cafe,Makanan Kecil,Warkop Simpang MAKK-EE,"QG2H+H5P, Jl. Trans Desa Jangkar Prima, Jangkar Prima, Kec. Sematu Jaya, Kabupaten Lamandau, Kalimantan Tengah 74161","Jl. Trans Desa Jangkar Prima, Jangkar Prima, Kec. Sematu Jaya, Kabupaten Lamandau",KALIMANTAN TENGAH,74161.0,Indonesia,,,,-2.248541,111.5279416,https://maps.google.com/?cid=0x0:0x488f6e2ea5a8b1fd,
cafe,Kafe,Evi streed food  drink,"Jl. Trans Desa Jangkar Prima No.52, Jangkar Prima, Kec. Sematu Jaya, Kabupaten Lamandau, Kalimantan Tengah 74161","Jangkar Prima, Kec. Sematu Jaya, Kabupaten Lamandau",KALIMANTAN TENGAH,74161.0,Indonesia,,,,-2.2503887,111.5272946,https://maps.google.com/?cid=0x0:0xba51ee8a793298b1,
cafe,Kafe,Warung makan,"Jangkar prima RT 13, Kabupaten Lamandau, Kalimantan Tengah 74161",Kabupaten Lamandau,KALIMANTAN TENGAH,74161.0,Indonesia,81345894108.0,,,-2.2567655,111.5333091,https://maps.google.com/?cid=0x0:0x6ed86b5c043e54fb,
cafe,Dapur Umum,Warung Makan Surobayo Rt 14,"QG4C+FPG, Purworejo, Kec. Sematu Jaya, Kabupaten Lamandau, Kalimantan Tengah 74161","Purworejo, Kec. Sematu Jaya, Kabupaten Lamandau",KALIMANTAN TENGAH,74161.0,Indonesia,,,,-2.2438134,111.5218381,https://maps.google.com/?cid=0x0:0x209b30f080238325,
cafe,cafe,Pentol cak sam,"RH35+4C, Tri Tunggal, Kec. Sematu Jaya, Kabupaten Lamandau, Kalimantan Tengah","Kabupaten Lamandau, Kalimantan Tengah",KALIMANTAN TENGAH,,Indonesia,,,,-2.1967185,111.5585527,https://maps.google.com/?cid=0x0:0x1eb52e5714507078,
cafe,Makanan Kecil,Angkringan barokah,"PH73+92X, Unnamed Road, Mekar Mulya, Kec. Sematu Jaya, Kabupaten Lamandau, Kalimantan Tengah 74161","Unnamed Road, Mekar Mulya, Kec. Sematu Jaya, Kabupaten Lamandau",KALIMANTAN TENGAH,74161.0,Indonesia,85211821617.0,,,-2.2865209,111.5526017,https://maps.google.com/?cid=0x0:0xf436d8d171958df7,
cafe,Kafe,DANSKAY,"QG78+X4P, Jl. Lintas Kalimantan, Purworejo, Kec. Sematu Jaya, Kabupaten Lamandau, Kalimantan Tengah 74161","Jl. Lintas Kalimantan, Purworejo, Kec. Sematu Jaya, Kabupaten Lamandau",KALIMANTAN TENGAH,74161.0,Indonesia,,,,-2.2350389,111.5153132,https://maps.google.com/?cid=0x0:0xe93fa1000a430569,
cafe,Makanan Kecil,WARUNG MAKAN  WARKOP MAS BOWO,"QGC6+VP7, Jl. Lintas Kalimantan, Purworejo, Kec. Sematu Jaya, Kabupaten Lamandau, Kalimantan Tengah 74161","Jl. Lintas Kalimantan, Purworejo, Kec. Sematu Jaya, Kabupaten Lamandau",KALIMANTAN TENGAH,74161.0,Indonesia,,,,-2.2278366,111.5118051,https://maps.google.com/?cid=0x0:0xe0e64279a5f404f5,
cafe,Tempat Pencucian Mobil,2 putra cucian mobil dan motor,"QG6H+MH4, Purworejo, Kec. Sematu Jaya, Kabupaten Lamandau, Kalimantan Tengah 74161","Purworejo, Kec. Sematu Jaya, Kabupaten Lamandau",KALIMANTAN TENGAH,74161.0,Indonesia,,,,-2.2383638,111.5289438,https://maps.google.com/?cid=0x0:0x4b7c114ce29fc09f,
cafe,Brunch,warung makan SARINAH,"PG3W+X2M, Mekar Mulya, Kec. Sematu Jaya, Kabupaten Lamandau, Kalimantan Tengah 74161","Mekar Mulya, Kec. Sematu Jaya, Kabupaten Lamandau",KALIMANTAN TENGAH,74161.0,Indonesia,,,,-2.2950324,111.5450394,https://maps.google.com/?cid=0x0:0xacd89c2458bcf484,
cafe,Restoran,Rumah Makan Fitria,"QGH7+2QP, Jl. Lintas Kalimantan, Purworejo, Kec. Sematu Jaya, Kabupaten Lamandau, Kalimantan Tengah 74161","Jl. Lintas Kalimantan, Purworejo, Kec. Sematu Jaya, Kabupaten Lamandau",KALIMANTAN TENGAH,74161.0,Indonesia,,,,-2.2224102,111.5144389,https://maps.google.com/?cid=0x0:0x8b03ac8d0680d85d,
cafe,Kedai Teh,warkop mama diva,"PHW9+V8V, Unnamed Road, Wonorejo, Kec. Sematu Jaya, Kabupaten Lamandau, Kalimantan Tengah 74161","Unnamed Road, Wonorejo, Kec. Sematu Jaya, Kabupaten Lamandau",KALIMANTAN TENGAH,74161.0,Indonesia,81521781676.0,,,-2.2527656,111.5682857,https://maps.google.com/?cid=0x0:0x4f6d1f739389a6a6,
cafe,Makanan Kecil,Kedai Dapur Umma,"Desa purwareja RT 9, Kec. Sematu Jaya, Kabupaten Lamandau","Kabupaten Lamandau, Kalimantan Tengah",KALIMANTAN TENGAH,,Indonesia,85651920394.0,,,-2.2220636,111.5154013,https://maps.google.com/?cid=0x0:0x9ca2979fe2ef9b45,
