Category,Real Category,Business Name,Address,City,State,Postal Code,Country,Phone,Email,Website,Latitude,Longitude,Map Link,Details Link
toko bangunan,toko bangunan,Kalimantan Tengah 74664,"Kabupaten Lamandau, Kalimantan Tengah","Kabupaten Lamandau, Kalimantan Tengah",KALIMANTAN TENGAH,,Indonesia,,,,-1.6722405,111.1414226,https://maps.google.com/?cid=0x0:0x2e393b90c2443400,
toko bangunan,Toko Perlengkapan Rumah,Toko Bangunan Wijaya,"QG77+XXR, Purworejo, Kec. Sematu Jaya, Kabupaten Lamandau, Kalimantan Tengah 74161","Purworejo, Kec. Sematu Jaya, Kabupaten Lamandau",KALIMANTAN TENGAH,74161.0,Indonesia,81385661699.0,,,-2.2350104,111.514896,https://maps.google.com/?cid=0x0:0x47b3e4fd269fd2b1,
toko bangunan,Toko Bahan Bangunan,Bagan lamandau,"Jalan GTM Yusuf No.RT. 12, Nanga Bulik, Bulik, Lamandau Regency, Central Kalimantan 74611","Nanga Bulik, Bulik, Lamandau Regency",KALIMANTAN TENGAH,74611.0,Indonesia,81255453557.0,,,-2.177063,111.442938,https://maps.google.com/?cid=0x0:0x779850d1f45bcfb1,
toko bangunan,Toko Bahan Bangunan,UD Ricky,"Jl. Batu Batanggui No.RT 05c, RW.No 057, Nanga Bulik, Kec. Bulik, Kabupaten Lamandau, Kalimantan Tengah 74162","RW.No 057, Nanga Bulik, Kec. Bulik, Kabupaten Lamandau",KALIMANTAN TENGAH,74162.0,Indonesia,81949697844.0,,,-2.1796736,111.4624643,https://maps.google.com/?cid=0x0:0x2c9564c23429a967,
toko bangunan,Area Wi-Fi,Wood Moulding Tanjung Keminting,"Kina, Kec. Batang Kawa, Kabupaten Lamandau, Kalimantan Tengah 74665","Kec. Batang Kawa, Kabupaten Lamandau",KALIMANTAN TENGAH,74665.0,Indonesia,8115188867.0,,,-1.5035835,111.1477512,https://maps.google.com/?cid=0x0:0xa765ac6109fc5abd,
toko bangunan,Toko Perlengkapan Rumah,Toko bangunan  besi : Sumber Makmur Sejati,"Kujan, Kec. Bulik, Kabupaten Lamandau, Kalimantan Tengah","Kabupaten Lamandau, Kalimantan Tengah",KALIMANTAN TENGAH,,Indonesia,81949697844.0,,,-2.2080215,111.4648655,https://maps.google.com/?cid=0x0:0xa05b9b29aa3d866a,
toko bangunan,toko bangunan,Kalimantan Tengah 74663,"Kabupaten Lamandau, Kalimantan Tengah","Kabupaten Lamandau, Kalimantan Tengah",KALIMANTAN TENGAH,,Indonesia,,,,-1.9269166,111.1891151,https://maps.google.com/?cid=0x0:0xddd786c27266b53a,
toko bangunan,Toko Bahan Bangunan,Kios Griya Indah,"Samu Jaya, Kec. Lamandau, Kabupaten Lamandau, Kalimantan Tengah 74663","Kec. Lamandau, Kabupaten Lamandau",KALIMANTAN TENGAH,74663.0,Indonesia,81949697844.0,,,-1.8819979,111.3291202,https://maps.google.com/?cid=0x0:0xa0f32eb9b51a544,
toko bangunan,Toko Bahan Bangunan,Toko Rizal,"489C+2V6, Jalan Poros, Tapin Bini, Kec. Lamandau, Kabupaten Lamandau, Kalimantan Tengah","Kabupaten Lamandau, Kalimantan Tengah",KALIMANTAN TENGAH,,Indonesia,,,,-1.882395,111.3219574,https://maps.google.com/?cid=0x0:0xcfe5546d18eff254,
toko bangunan,Toko Bahan Bangunan,Bagan lamandau,"Jalan GTM Yusuf No.RT. 12, Nanga Bulik, Bulik, Lamandau Regency, Central Kalimantan 74611","Nanga Bulik, Bulik, Lamandau Regency",KALIMANTAN TENGAH,74611.0,Indonesia,81255453557.0,,,-2.177063,111.442938,https://maps.google.com/?cid=0x0:0x779850d1f45bcfb1,
toko bangunan,Toko Perlengkapan Rumah,Toko Bangunan Wijaya,"QG77+XXR, Purworejo, Kec. Sematu Jaya, Kabupaten Lamandau, Kalimantan Tengah 74161","Purworejo, Kec. Sematu Jaya, Kabupaten Lamandau",KALIMANTAN TENGAH,74161.0,Indonesia,81385661699.0,,,-2.2350104,111.514896,https://maps.google.com/?cid=0x0:0x47b3e4fd269fd2b1,
toko bangunan,Toko Bahan Bangunan,TOKO BTOBIG,"Nanga Bulik, Kec. Bulik, Kabupaten Lamandau, Kalimantan Tengah","Kabupaten Lamandau, Kalimantan Tengah",KALIMANTAN TENGAH,,Indonesia,81949697844.0,,,-2.1897063,111.4664618,https://maps.google.com/?cid=0x0:0x6d2a71e614c73a76,
toko bangunan,Pasar bahan bangunan,Toko bangunan DARUL AMIEN,"RF95+73V, Jl. Batu Batanggui, Nanga Bulik, Kec. Bulik, Kabupaten Lamandau, Kalimantan Tengah 74161","Jl. Batu Batanggui, Nanga Bulik, Kec. Bulik, Kabupaten Lamandau",KALIMANTAN TENGAH,74161.0,Indonesia,81949697844.0,,,-2.1817517,111.4576845,https://maps.google.com/?cid=0x0:0x96fda81b818c6a7c,
toko bangunan,Toko Bahan Bangunan,Cahaya Lamandau,"Jl. Trans Kalimantan No.Km.3, Nanga Bulik, Kec. Bulik, Kabupaten Lamandau, Kalimantan Tengah 74161","Nanga Bulik, Kec. Bulik, Kabupaten Lamandau",KALIMANTAN TENGAH,74161.0,Indonesia,85299727922.0,,,-2.1937252,111.4441104,https://maps.google.com/?cid=0x0:0xc42250fb5d793787,
toko bangunan,Pasar bahan bangunan,TB rizky,"RF94+5XP, Nanga Bulik, Kec. Bulik, Kabupaten Lamandau, Kalimantan Tengah 74161","Nanga Bulik, Kec. Bulik, Kabupaten Lamandau",KALIMANTAN TENGAH,74161.0,Indonesia,81949697844.0,,,-2.1820172,111.4575307,https://maps.google.com/?cid=0x0:0xbbede6b09d698692,
toko bangunan,Toko Bahan Bangunan,Toko Morra Jaya Mandiri,"Jl. Melati Jl. Batu Batanggui No.Pertigaan, Nanga Bulik, Kec. Bulik, Kabupaten Lamandau, Kalimantan Tengah 74611","Nanga Bulik, Kec. Bulik, Kabupaten Lamandau",KALIMANTAN TENGAH,74611.0,Indonesia,8161999912.0,,,-2.1851271,111.4493691,https://maps.google.com/?cid=0x0:0xd1dd13c6f947b63a,
toko bangunan,Toko Bahan Bangunan,TB.KURIOUS,"Translokal, Jl. Ahmad Yani No.184, RT.12, Kec. Bulik, Kabupaten Lamandau, Kalimantan Tengah 74162","Jl. Ahmad Yani No.184, RT.12, Kec. Bulik, Kabupaten Lamandau",KALIMANTAN TENGAH,74162.0,Indonesia,81949697844.0,,,-2.1768456,111.442248,https://maps.google.com/?cid=0x0:0xb12c45b40cb899a2,
toko bangunan,Toko Bahan Bangunan,Toko Aheng,"RFF7+PM7, Nanga Bulik, Kec. Bulik, Kabupaten Lamandau, Kalimantan Tengah 74161","Nanga Bulik, Kec. Bulik, Kabupaten Lamandau",KALIMANTAN TENGAH,74161.0,Indonesia,81949697844.0,,,-2.175716,111.4641678,https://maps.google.com/?cid=0x0:0x5d673a51c5d0a1b6,
toko bangunan,Toko Bahan Bangunan,sahabat bangunan,"RF84+R69, Jl. Batu Batanggui, Nanga Bulik, Kec. Bulik, Kabupaten Lamandau, Kalimantan Tengah 74161","Jl. Batu Batanggui, Nanga Bulik, Kec. Bulik, Kabupaten Lamandau",KALIMANTAN TENGAH,74161.0,Indonesia,81949697844.0,,,-2.1829602,111.4556081,https://maps.google.com/?cid=0x0:0xf508897240d8220,
toko bangunan,Toko Bahan Bangunan,Toko Jadi Jaya,"Jln.Cempaka RT.05 No.48, Nanga Bulik, Kec. Bulik, Kabupaten Lamandau, Kalimantan Tengah 74161","Nanga Bulik, Kec. Bulik, Kabupaten Lamandau",KALIMANTAN TENGAH,74161.0,Indonesia,81949697844.0,,,-2.1770581,111.4646405,https://maps.google.com/?cid=0x0:0xcf3d21450a69a595,
toko bangunan,Toko Bahan Bangunan,UD Ricky,"Jl. Batu Batanggui No.RT 05c, RW.No 057, Nanga Bulik, Kec. Bulik, Kabupaten Lamandau, Kalimantan Tengah 74162","RW.No 057, Nanga Bulik, Kec. Bulik, Kabupaten Lamandau",KALIMANTAN TENGAH,74162.0,Indonesia,81949697844.0,,,-2.1796736,111.4624643,https://maps.google.com/?cid=0x0:0x2c9564c23429a967,
toko bangunan,Toko Perlengkapan Rumah,Toko bangunan  besi : Sumber Makmur Sejati,"Kujan, Kec. Bulik, Kabupaten Lamandau, Kalimantan Tengah","Kabupaten Lamandau, Kalimantan Tengah",KALIMANTAN TENGAH,,Indonesia,81949697844.0,,,-2.2080215,111.4648655,https://maps.google.com/?cid=0x0:0xa05b9b29aa3d866a,
toko bangunan,Toko Bahan Bangunan,TOKO JAY BANGUNAN,"Bukit Jaya, Kec. Bulik Tim., Kabupaten Lamandau, Kalimantan Tengah 74162","Kec. Bulik Tim., Kabupaten Lamandau",KALIMANTAN TENGAH,74162.0,Indonesia,81949697844.0,,,-1.9059377,111.4844697,https://maps.google.com/?cid=0x0:0x80de72b8628100fe,
toko bangunan,toko bangunan,Kalimantan Tengah 74162,"Kabupaten Lamandau, Kalimantan Tengah","Kabupaten Lamandau, Kalimantan Tengah",KALIMANTAN TENGAH,,Indonesia,,,,-1.7404903,111.5229817,https://maps.google.com/?cid=0x0:0xcbde8a77875b152b,
toko bangunan,Pasar bahan bangunan,TB rizky,"RF94+5XP, Nanga Bulik, Kec. Bulik, Kabupaten Lamandau, Kalimantan Tengah 74161","Nanga Bulik, Kec. Bulik, Kabupaten Lamandau",KALIMANTAN TENGAH,74161.0,Indonesia,81949697844.0,,,-2.1820172,111.4575307,https://maps.google.com/?cid=0x0:0xbbede6b09d698692,
toko bangunan,Toko Bahan Bangunan,TB.KURIOUS,"Translokal, Jl. Ahmad Yani No.184, RT.12, Kec. Bulik, Kabupaten Lamandau, Kalimantan Tengah 74162","Jl. Ahmad Yani No.184, RT.12, Kec. Bulik, Kabupaten Lamandau",KALIMANTAN TENGAH,74162.0,Indonesia,81949697844.0,,,-2.1768456,111.442248,https://maps.google.com/?cid=0x0:0xb12c45b40cb899a2,
toko bangunan,Toko Bahan Bangunan,Toko Aheng,"RFF7+PM7, Nanga Bulik, Kec. Bulik, Kabupaten Lamandau, Kalimantan Tengah 74161","Nanga Bulik, Kec. Bulik, Kabupaten Lamandau",KALIMANTAN TENGAH,74161.0,Indonesia,81949697844.0,,,-2.175716,111.4641678,https://maps.google.com/?cid=0x0:0x5d673a51c5d0a1b6,
toko bangunan,Pemasok Bahan Bangunan,Toko Kasih Karunia,"RF79+72R, Jl. Tjilik Riwut, Nanga Bulik, Kec. Bulik, Kabupaten Lamandau, Kalimantan Tengah 74161","Jl. Tjilik Riwut, Nanga Bulik, Kec. Bulik, Kabupaten Lamandau",KALIMANTAN TENGAH,74161.0,Indonesia,81949697844.0,,,-2.1867738,111.4675049,https://maps.google.com/?cid=0x0:0x2136ccd6a323a306,
toko bangunan,Toko Bahan Bangunan,TOKO BTOBIG,"Nanga Bulik, Kec. Bulik, Kabupaten Lamandau, Kalimantan Tengah","Kabupaten Lamandau, Kalimantan Tengah",KALIMANTAN TENGAH,,Indonesia,81949697844.0,,,-2.1897063,111.4664618,https://maps.google.com/?cid=0x0:0x6d2a71e614c73a76,
toko bangunan,Toko Bahan Bangunan,UD Ricky,"Jl. Batu Batanggui No.RT 05c, RW.No 057, Nanga Bulik, Kec. Bulik, Kabupaten Lamandau, Kalimantan Tengah 74162","RW.No 057, Nanga Bulik, Kec. Bulik, Kabupaten Lamandau",KALIMANTAN TENGAH,74162.0,Indonesia,81949697844.0,,,-2.1796736,111.4624643,https://maps.google.com/?cid=0x0:0x2c9564c23429a967,
toko bangunan,Toko Bahan Bangunan,Toko Jadi Jaya,"Jln.Cempaka RT.05 No.48, Nanga Bulik, Kec. Bulik, Kabupaten Lamandau, Kalimantan Tengah 74161","Nanga Bulik, Kec. Bulik, Kabupaten Lamandau",KALIMANTAN TENGAH,74161.0,Indonesia,81949697844.0,,,-2.1770581,111.4646405,https://maps.google.com/?cid=0x0:0xcf3d21450a69a595,
toko bangunan,Toko Bahan Bangunan,Toko Morra Jaya Mandiri,"Jl. Melati Jl. Batu Batanggui No.Pertigaan, Nanga Bulik, Kec. Bulik, Kabupaten Lamandau, Kalimantan Tengah 74611","Nanga Bulik, Kec. Bulik, Kabupaten Lamandau",KALIMANTAN TENGAH,74611.0,Indonesia,8161999912.0,,,-2.1851271,111.4493691,https://maps.google.com/?cid=0x0:0xd1dd13c6f947b63a,
toko bangunan,Toko Bahan Bangunan,Cahaya Lamandau,"Jl. Trans Kalimantan No.Km.3, Nanga Bulik, Kec. Bulik, Kabupaten Lamandau, Kalimantan Tengah 74161","Nanga Bulik, Kec. Bulik, Kabupaten Lamandau",KALIMANTAN TENGAH,74161.0,Indonesia,85299727922.0,,,-2.1937252,111.4441104,https://maps.google.com/?cid=0x0:0xc42250fb5d793787,
toko bangunan,Toko Bahan Bangunan,sahabat bangunan,"RF84+R69, Jl. Batu Batanggui, Nanga Bulik, Kec. Bulik, Kabupaten Lamandau, Kalimantan Tengah 74161","Jl. Batu Batanggui, Nanga Bulik, Kec. Bulik, Kabupaten Lamandau",KALIMANTAN TENGAH,74161.0,Indonesia,81949697844.0,,,-2.1829602,111.4556081,https://maps.google.com/?cid=0x0:0xf508897240d8220,
toko bangunan,Pasar bahan bangunan,Toko bangunan DARUL AMIEN,"RF95+73V, Jl. Batu Batanggui, Nanga Bulik, Kec. Bulik, Kabupaten Lamandau, Kalimantan Tengah 74161","Jl. Batu Batanggui, Nanga Bulik, Kec. Bulik, Kabupaten Lamandau",KALIMANTAN TENGAH,74161.0,Indonesia,81949697844.0,,,-2.1817517,111.4576845,https://maps.google.com/?cid=0x0:0x96fda81b818c6a7c,
toko bangunan,Toko Bahan Bangunan,TB. BERGUNA,"RCFQ+2M7, Nanga Bulik, Kec. Bulik, Kabupaten Lamandau, Kalimantan Tengah","Kabupaten Lamandau, Kalimantan Tengah",KALIMANTAN TENGAH,,Indonesia,,,,-2.1778949,111.4394425,https://maps.google.com/?cid=0x0:0x6bc5cde13180528e,
toko bangunan,Toko,Toko Berkah lamandau,"dekat bundaran burung, Jl. Batu Batanggui No.RT 004C, Nanga Bulik, Kec. Bulik, Kabupaten Lamandau, Kalimantan Tengah 74161","Jl. Batu Batanggui No.RT 004C, Nanga Bulik, Kec. Bulik, Kabupaten Lamandau",KALIMANTAN TENGAH,74161.0,Indonesia,81949697844.0,,,-2.1860009,111.4457628,https://maps.google.com/?cid=0x0:0x4845364abe4eddd1,
toko bangunan,Toko Bahan Bangunan,TOKO JAY BANGUNAN,"Bukit Jaya, Kec. Bulik Tim., Kabupaten Lamandau, Kalimantan Tengah 74162","Kec. Bulik Tim., Kabupaten Lamandau",KALIMANTAN TENGAH,74162.0,Indonesia,81949697844.0,,,-1.9059377,111.4844697,https://maps.google.com/?cid=0x0:0x80de72b8628100fe,
toko bangunan,Toko Bahan Bangunan,Tuli Angka Gypsum,"RG7C+C27, Unnamed Road, Nanga Bulik, Kec. Bulik, Kabupaten Lamandau, Kalimantan Tengah 74161","Unnamed Road, Nanga Bulik, Kec. Bulik, Kabupaten Lamandau",KALIMANTAN TENGAH,74161.0,Indonesia,82173389240.0,,,-2.1864736,111.5200605,https://maps.google.com/?cid=0x0:0xa538a917ff0f1c3e,
toko bangunan,Toko Perlengkapan Rumah,Toko bangunan  besi : Sumber Makmur Sejati,"Kujan, Kec. Bulik, Kabupaten Lamandau, Kalimantan Tengah","Kabupaten Lamandau, Kalimantan Tengah",KALIMANTAN TENGAH,,Indonesia,81949697844.0,,,-2.2080215,111.4648655,https://maps.google.com/?cid=0x0:0xa05b9b29aa3d866a,
toko bangunan,Toko Perlengkapan Rumah,Toko Bangunan Wijaya,"QG77+XXR, Purworejo, Kec. Sematu Jaya, Kabupaten Lamandau, Kalimantan Tengah 74161","Purworejo, Kec. Sematu Jaya, Kabupaten Lamandau",KALIMANTAN TENGAH,74161.0,Indonesia,81385661699.0,,,-2.2350104,111.514896,https://maps.google.com/?cid=0x0:0x47b3e4fd269fd2b1,
toko bangunan,,Toko PLAFON PVC,"RC8X+2J, Nanga Bulik, Kec. Bulik, Kabupaten Lamandau, Kalimantan Tengah 74161","Nanga Bulik, Kec. Bulik, Kabupaten Lamandau",KALIMANTAN TENGAH,74161.0,Indonesia,82320599030.0,,,-2.1849332,111.4490847,https://maps.google.com/?cid=0x0:0x7165f4181c45c4c3,
toko bangunan,Jasa Konstruksi dan Bangunan,Sobar Plafon PVC,"2, Jl. Lintas Kalimantan No.4664550 2091679, 111, Kujan, Kec. Bulik, Kabupaten Lamandau, Kalimantan Tengah 74161",2091679,KALIMANTAN TENGAH,664550.0,Indonesia,81949697844.0,,,-2.2090217,111.466469,https://maps.google.com/?cid=0x0:0x78a9e7eee01f7699,
toko bangunan,Kantor Perusahaan,Batu bata merah mandiri maju,"RG59+C4F, Jalan simpang sepaku, kujan, Nanga Bulik, Kec. Bulik, Kabupaten Lamandau, Kalimantan Tengah 74161","Jalan simpang sepaku, kujan, Nanga Bulik, Kec. Bulik, Kabupaten Lamandau",KALIMANTAN TENGAH,74161.0,Indonesia,82174999897.0,,,-2.1914316,111.5177959,https://maps.google.com/?cid=0x0:0xc2fd3be4caba406e,
toko bangunan,Toko bahan makanan,Borneo Supermarket,"RF96+V9C, Jl. Batu Betanggui, Nanga Bulik, Kec. Bulik, Kabupaten Lamandau, Kalimantan Tengah 74161","Jl. Batu Betanggui, Nanga Bulik, Kec. Bulik, Kabupaten Lamandau",KALIMANTAN TENGAH,74161.0,Indonesia,85751797069.0,,,-2.180302,111.4608802,https://maps.google.com/?cid=0x0:0x9626262724f41eef,
toko bangunan,Toko bahan makanan,Kayu siap pakai,"Jl. Melati III, Nanga Bulik, Kec. Bulik, Kabupaten Lamandau, Kalimantan Tengah 74161","Nanga Bulik, Kec. Bulik, Kabupaten Lamandau",KALIMANTAN TENGAH,74161.0,Indonesia,82358751048.0,,,-2.1793787,111.4468764,https://maps.google.com/?cid=0x0:0xf0ee6a5f9e639fdc,
toko bangunan,Toko Peralatan Makan,Sumber Plastik,"RCCW+X8R, Nanga Bulik, Kec. Bulik, Kabupaten Lamandau, Kalimantan Tengah 74161","Nanga Bulik, Kec. Bulik, Kabupaten Lamandau",KALIMANTAN TENGAH,74161.0,Indonesia,82115084400.0,,,-2.1775246,111.4457751,https://maps.google.com/?cid=0x0:0xcbfdba0f414181bb,
toko bangunan,toko bangunan,Kalimantan Tengah 74611,"Kec. Bulik, Kabupaten Lamandau, Kalimantan Tengah","Kabupaten Lamandau, Kalimantan Tengah",KALIMANTAN TENGAH,,Indonesia,,,,-2.0058667,111.4395128,https://maps.google.com/?cid=0x0:0xb6c8a0a464bd3c0c,
toko bangunan,Toko Bahan Bangunan,Bagan lamandau,"Jalan GTM Yusuf No.RT. 12, Nanga Bulik, Bulik, Lamandau Regency, Central Kalimantan 74611","Nanga Bulik, Bulik, Lamandau Regency",KALIMANTAN TENGAH,74611.0,Indonesia,81255453557.0,,,-2.177063,111.442938,https://maps.google.com/?cid=0x0:0x779850d1f45bcfb1,
toko bangunan,Pemasok Bahan Bangunan,Toko Kasih Karunia,"RF79+72R, Jl. Tjilik Riwut, Nanga Bulik, Kec. Bulik, Kabupaten Lamandau, Kalimantan Tengah 74161","Jl. Tjilik Riwut, Nanga Bulik, Kec. Bulik, Kabupaten Lamandau",KALIMANTAN TENGAH,74161.0,Indonesia,81949697844.0,,,-2.1867738,111.4675049,https://maps.google.com/?cid=0x0:0x2136ccd6a323a306,
toko bangunan,Pasar bahan bangunan,TB rizky,"RF94+5XP, Nanga Bulik, Kec. Bulik, Kabupaten Lamandau, Kalimantan Tengah 74161","Nanga Bulik, Kec. Bulik, Kabupaten Lamandau",KALIMANTAN TENGAH,74161.0,Indonesia,81949697844.0,,,-2.1820172,111.4575307,https://maps.google.com/?cid=0x0:0xbbede6b09d698692,
toko bangunan,Toko Bahan Bangunan,Cahaya Lamandau,"Jl. Trans Kalimantan No.Km.3, Nanga Bulik, Kec. Bulik, Kabupaten Lamandau, Kalimantan Tengah 74161","Nanga Bulik, Kec. Bulik, Kabupaten Lamandau",KALIMANTAN TENGAH,74161.0,Indonesia,85299727922.0,,,-2.1937252,111.4441104,https://maps.google.com/?cid=0x0:0xc42250fb5d793787,
toko bangunan,Toko Bahan Bangunan,Toko Aheng,"RFF7+PM7, Nanga Bulik, Kec. Bulik, Kabupaten Lamandau, Kalimantan Tengah 74161","Nanga Bulik, Kec. Bulik, Kabupaten Lamandau",KALIMANTAN TENGAH,74161.0,Indonesia,81949697844.0,,,-2.175716,111.4641678,https://maps.google.com/?cid=0x0:0x5d673a51c5d0a1b6,
toko bangunan,Toko Bahan Bangunan,UD Ricky,"Jl. Batu Batanggui No.RT 05c, RW.No 057, Nanga Bulik, Kec. Bulik, Kabupaten Lamandau, Kalimantan Tengah 74162","RW.No 057, Nanga Bulik, Kec. Bulik, Kabupaten Lamandau",KALIMANTAN TENGAH,74162.0,Indonesia,81949697844.0,,,-2.1796736,111.4624643,https://maps.google.com/?cid=0x0:0x2c9564c23429a967,
toko bangunan,Toko Bahan Bangunan,Toko Jadi Jaya,"Jln.Cempaka RT.05 No.48, Nanga Bulik, Kec. Bulik, Kabupaten Lamandau, Kalimantan Tengah 74161","Nanga Bulik, Kec. Bulik, Kabupaten Lamandau",KALIMANTAN TENGAH,74161.0,Indonesia,81949697844.0,,,-2.1770581,111.4646405,https://maps.google.com/?cid=0x0:0xcf3d21450a69a595,
toko bangunan,Toko Perlengkapan Rumah,Toko Bangunan Wijaya,"QG77+XXR, Purworejo, Kec. Sematu Jaya, Kabupaten Lamandau, Kalimantan Tengah 74161","Purworejo, Kec. Sematu Jaya, Kabupaten Lamandau",KALIMANTAN TENGAH,74161.0,Indonesia,81385661699.0,,,-2.2350104,111.514896,https://maps.google.com/?cid=0x0:0x47b3e4fd269fd2b1,
toko bangunan,Toko Bahan Bangunan,Tuli Angka Gypsum,"RG7C+C27, Unnamed Road, Nanga Bulik, Kec. Bulik, Kabupaten Lamandau, Kalimantan Tengah 74161","Unnamed Road, Nanga Bulik, Kec. Bulik, Kabupaten Lamandau",KALIMANTAN TENGAH,74161.0,Indonesia,82173389240.0,,,-2.1864736,111.5200605,https://maps.google.com/?cid=0x0:0xa538a917ff0f1c3e,
toko bangunan,Toko Perlengkapan Rumah,Toko bangunan  besi : Sumber Makmur Sejati,"Kujan, Kec. Bulik, Kabupaten Lamandau, Kalimantan Tengah","Kabupaten Lamandau, Kalimantan Tengah",KALIMANTAN TENGAH,,Indonesia,81949697844.0,,,-2.2080215,111.4648655,https://maps.google.com/?cid=0x0:0xa05b9b29aa3d866a,
toko bangunan,Toko Bahan Bangunan,TB. BERGUNA,"RCFQ+2M7, Nanga Bulik, Kec. Bulik, Kabupaten Lamandau, Kalimantan Tengah","Kabupaten Lamandau, Kalimantan Tengah",KALIMANTAN TENGAH,,Indonesia,,,,-2.1778949,111.4394425,https://maps.google.com/?cid=0x0:0x6bc5cde13180528e,
toko bangunan,Toko Bahan Bangunan,TOKO JAY BANGUNAN,"Bukit Jaya, Kec. Bulik Tim., Kabupaten Lamandau, Kalimantan Tengah 74162","Kec. Bulik Tim., Kabupaten Lamandau",KALIMANTAN TENGAH,74162.0,Indonesia,81949697844.0,,,-1.9059377,111.4844697,https://maps.google.com/?cid=0x0:0x80de72b8628100fe,
toko bangunan,Toko Bahan Bangunan,TB.KURIOUS,"Translokal, Jl. Ahmad Yani No.184, RT.12, Kec. Bulik, Kabupaten Lamandau, Kalimantan Tengah 74162","Jl. Ahmad Yani No.184, RT.12, Kec. Bulik, Kabupaten Lamandau",KALIMANTAN TENGAH,74162.0,Indonesia,81949697844.0,,,-2.1768456,111.442248,https://maps.google.com/?cid=0x0:0xb12c45b40cb899a2,
toko bangunan,Pasar bahan bangunan,Toko bangunan DARUL AMIEN,"RF95+73V, Jl. Batu Batanggui, Nanga Bulik, Kec. Bulik, Kabupaten Lamandau, Kalimantan Tengah 74161","Jl. Batu Batanggui, Nanga Bulik, Kec. Bulik, Kabupaten Lamandau",KALIMANTAN TENGAH,74161.0,Indonesia,81949697844.0,,,-2.1817517,111.4576845,https://maps.google.com/?cid=0x0:0x96fda81b818c6a7c,
toko bangunan,Toko,Toko Berkah lamandau,"dekat bundaran burung, Jl. Batu Batanggui No.RT 004C, Nanga Bulik, Kec. Bulik, Kabupaten Lamandau, Kalimantan Tengah 74161","Jl. Batu Batanggui No.RT 004C, Nanga Bulik, Kec. Bulik, Kabupaten Lamandau",KALIMANTAN TENGAH,74161.0,Indonesia,81949697844.0,,,-2.1860009,111.4457628,https://maps.google.com/?cid=0x0:0x4845364abe4eddd1,
toko bangunan,toko bangunan,Kalimantan Tengah 74612,"Kec. Bulik, Kabupaten Lamandau, Kalimantan Tengah","Kabupaten Lamandau, Kalimantan Tengah",KALIMANTAN TENGAH,,Indonesia,,,,-2.0421323,111.463361,https://maps.google.com/?cid=0x0:0xc38ed0bb98a86bd0,
toko bangunan,Pemasok Bahan Bangunan,Toko Kasih Karunia,"RF79+72R, Jl. Tjilik Riwut, Nanga Bulik, Kec. Bulik, Kabupaten Lamandau, Kalimantan Tengah 74161","Jl. Tjilik Riwut, Nanga Bulik, Kec. Bulik, Kabupaten Lamandau",KALIMANTAN TENGAH,74161.0,Indonesia,81949697844.0,,,-2.1867738,111.4675049,https://maps.google.com/?cid=0x0:0x2136ccd6a323a306,
toko bangunan,Toko Bahan Bangunan,TOKO BTOBIG,"Nanga Bulik, Kec. Bulik, Kabupaten Lamandau, Kalimantan Tengah","Kabupaten Lamandau, Kalimantan Tengah",KALIMANTAN TENGAH,,Indonesia,81949697844.0,,,-2.1897063,111.4664618,https://maps.google.com/?cid=0x0:0x6d2a71e614c73a76,
toko bangunan,Pasar bahan bangunan,TB rizky,"RF94+5XP, Nanga Bulik, Kec. Bulik, Kabupaten Lamandau, Kalimantan Tengah 74161","Nanga Bulik, Kec. Bulik, Kabupaten Lamandau",KALIMANTAN TENGAH,74161.0,Indonesia,81949697844.0,,,-2.1820172,111.4575307,https://maps.google.com/?cid=0x0:0xbbede6b09d698692,
toko bangunan,Toko Bahan Bangunan,Cahaya Lamandau,"Jl. Trans Kalimantan No.Km.3, Nanga Bulik, Kec. Bulik, Kabupaten Lamandau, Kalimantan Tengah 74161","Nanga Bulik, Kec. Bulik, Kabupaten Lamandau",KALIMANTAN TENGAH,74161.0,Indonesia,85299727922.0,,,-2.1937252,111.4441104,https://maps.google.com/?cid=0x0:0xc42250fb5d793787,
toko bangunan,Toko Bahan Bangunan,sahabat bangunan,"RF84+R69, Jl. Batu Batanggui, Nanga Bulik, Kec. Bulik, Kabupaten Lamandau, Kalimantan Tengah 74161","Jl. Batu Batanggui, Nanga Bulik, Kec. Bulik, Kabupaten Lamandau",KALIMANTAN TENGAH,74161.0,Indonesia,81949697844.0,,,-2.1829602,111.4556081,https://maps.google.com/?cid=0x0:0xf508897240d8220,
toko bangunan,Toko Bahan Bangunan,Toko Aheng,"RFF7+PM7, Nanga Bulik, Kec. Bulik, Kabupaten Lamandau, Kalimantan Tengah 74161","Nanga Bulik, Kec. Bulik, Kabupaten Lamandau",KALIMANTAN TENGAH,74161.0,Indonesia,81949697844.0,,,-2.175716,111.4641678,https://maps.google.com/?cid=0x0:0x5d673a51c5d0a1b6,
toko bangunan,Pasar bahan bangunan,Toko bangunan DARUL AMIEN,"RF95+73V, Jl. Batu Batanggui, Nanga Bulik, Kec. Bulik, Kabupaten Lamandau, Kalimantan Tengah 74161","Jl. Batu Batanggui, Nanga Bulik, Kec. Bulik, Kabupaten Lamandau",KALIMANTAN TENGAH,74161.0,Indonesia,81949697844.0,,,-2.1817517,111.4576845,https://maps.google.com/?cid=0x0:0x96fda81b818c6a7c,
toko bangunan,Toko Bahan Bangunan,UD Ricky,"Jl. Batu Batanggui No.RT 05c, RW.No 057, Nanga Bulik, Kec. Bulik, Kabupaten Lamandau, Kalimantan Tengah 74162","RW.No 057, Nanga Bulik, Kec. Bulik, Kabupaten Lamandau",KALIMANTAN TENGAH,74162.0,Indonesia,81949697844.0,,,-2.1796736,111.4624643,https://maps.google.com/?cid=0x0:0x2c9564c23429a967,
toko bangunan,Toko Bahan Bangunan,Toko Jadi Jaya,"Jln.Cempaka RT.05 No.48, Nanga Bulik, Kec. Bulik, Kabupaten Lamandau, Kalimantan Tengah 74161","Nanga Bulik, Kec. Bulik, Kabupaten Lamandau",KALIMANTAN TENGAH,74161.0,Indonesia,81949697844.0,,,-2.1770581,111.4646405,https://maps.google.com/?cid=0x0:0xcf3d21450a69a595,
toko bangunan,Toko Perlengkapan Rumah,Toko Bangunan Wijaya,"QG77+XXR, Purworejo, Kec. Sematu Jaya, Kabupaten Lamandau, Kalimantan Tengah 74161","Purworejo, Kec. Sematu Jaya, Kabupaten Lamandau",KALIMANTAN TENGAH,74161.0,Indonesia,81385661699.0,,,-2.2350104,111.514896,https://maps.google.com/?cid=0x0:0x47b3e4fd269fd2b1,
toko bangunan,Toko Bahan Bangunan,Tuli Angka Gypsum,"RG7C+C27, Unnamed Road, Nanga Bulik, Kec. Bulik, Kabupaten Lamandau, Kalimantan Tengah 74161","Unnamed Road, Nanga Bulik, Kec. Bulik, Kabupaten Lamandau",KALIMANTAN TENGAH,74161.0,Indonesia,82173389240.0,,,-2.1864736,111.5200605,https://maps.google.com/?cid=0x0:0xa538a917ff0f1c3e,
toko bangunan,Toko Perlengkapan Rumah,Toko bangunan  besi : Sumber Makmur Sejati,"Kujan, Kec. Bulik, Kabupaten Lamandau, Kalimantan Tengah","Kabupaten Lamandau, Kalimantan Tengah",KALIMANTAN TENGAH,,Indonesia,81949697844.0,,,-2.2080215,111.4648655,https://maps.google.com/?cid=0x0:0xa05b9b29aa3d866a,
toko bangunan,Toko Bahan Bangunan,TB. BERGUNA,"RCFQ+2M7, Nanga Bulik, Kec. Bulik, Kabupaten Lamandau, Kalimantan Tengah","Kabupaten Lamandau, Kalimantan Tengah",KALIMANTAN TENGAH,,Indonesia,,,,-2.1778949,111.4394425,https://maps.google.com/?cid=0x0:0x6bc5cde13180528e,
toko bangunan,Toko Bahan Bangunan,TOKO JAY BANGUNAN,"Bukit Jaya, Kec. Bulik Tim., Kabupaten Lamandau, Kalimantan Tengah 74162","Kec. Bulik Tim., Kabupaten Lamandau",KALIMANTAN TENGAH,74162.0,Indonesia,81949697844.0,,,-1.9059377,111.4844697,https://maps.google.com/?cid=0x0:0x80de72b8628100fe,
toko bangunan,toko bangunan,Toko bangunan dikon jaya,"XFFQ+F38, Unnamed Road, Beruta, Kec. Bulik, Kabupaten Lamandau, Kalimantan Tengah 74162","Unnamed Road, Beruta, Kec. Bulik, Kabupaten Lamandau",KALIMANTAN TENGAH,74162.0,Indonesia,,,,-2.0263406,111.4876953,https://maps.google.com/?cid=0x0:0x5ec2601385378231,
toko bangunan,Toko Bahan Bangunan,Kios Griya Indah,"Samu Jaya, Kec. Lamandau, Kabupaten Lamandau, Kalimantan Tengah 74663","Kec. Lamandau, Kabupaten Lamandau",KALIMANTAN TENGAH,74663.0,Indonesia,81949697844.0,,,-1.8819979,111.3291202,https://maps.google.com/?cid=0x0:0xa0f32eb9b51a544,
toko bangunan,toko bangunan,Kalimantan Tengah 74162,"Kabupaten Lamandau, Kalimantan Tengah","Kabupaten Lamandau, Kalimantan Tengah",KALIMANTAN TENGAH,,Indonesia,,,,-1.7404903,111.5229817,https://maps.google.com/?cid=0x0:0xcbde8a77875b152b,
toko bangunan,Toko Bahan Bangunan,TB.KURIOUS,"Translokal, Jl. Ahmad Yani No.184, RT.12, Kec. Bulik, Kabupaten Lamandau, Kalimantan Tengah 74162","Jl. Ahmad Yani No.184, RT.12, Kec. Bulik, Kabupaten Lamandau",KALIMANTAN TENGAH,74162.0,Indonesia,81949697844.0,,,-2.1768456,111.442248,https://maps.google.com/?cid=0x0:0xb12c45b40cb899a2,
toko bangunan,Toko Bahan Bangunan,Bagan lamandau,"Jalan GTM Yusuf No.RT. 12, Nanga Bulik, Bulik, Lamandau Regency, Central Kalimantan 74611","Nanga Bulik, Bulik, Lamandau Regency",KALIMANTAN TENGAH,74611.0,Indonesia,81255453557.0,,,-2.177063,111.442938,https://maps.google.com/?cid=0x0:0x779850d1f45bcfb1,
toko bangunan,Toko Bahan Bangunan,Toko Aheng,"RFF7+PM7, Nanga Bulik, Kec. Bulik, Kabupaten Lamandau, Kalimantan Tengah 74161","Nanga Bulik, Kec. Bulik, Kabupaten Lamandau",KALIMANTAN TENGAH,74161.0,Indonesia,81949697844.0,,,-2.175716,111.4641678,https://maps.google.com/?cid=0x0:0x5d673a51c5d0a1b6,
toko bangunan,Pemasok Bahan Bangunan,Toko Kasih Karunia,"RF79+72R, Jl. Tjilik Riwut, Nanga Bulik, Kec. Bulik, Kabupaten Lamandau, Kalimantan Tengah 74161","Jl. Tjilik Riwut, Nanga Bulik, Kec. Bulik, Kabupaten Lamandau",KALIMANTAN TENGAH,74161.0,Indonesia,81949697844.0,,,-2.1867738,111.4675049,https://maps.google.com/?cid=0x0:0x2136ccd6a323a306,
toko bangunan,Toko Bahan Bangunan,UD Ricky,"Jl. Batu Batanggui No.RT 05c, RW.No 057, Nanga Bulik, Kec. Bulik, Kabupaten Lamandau, Kalimantan Tengah 74162","RW.No 057, Nanga Bulik, Kec. Bulik, Kabupaten Lamandau",KALIMANTAN TENGAH,74162.0,Indonesia,81949697844.0,,,-2.1796736,111.4624643,https://maps.google.com/?cid=0x0:0x2c9564c23429a967,
toko bangunan,Toko Bahan Bangunan,Toko Morra Jaya Mandiri,"Jl. Melati Jl. Batu Batanggui No.Pertigaan, Nanga Bulik, Kec. Bulik, Kabupaten Lamandau, Kalimantan Tengah 74611","Nanga Bulik, Kec. Bulik, Kabupaten Lamandau",KALIMANTAN TENGAH,74611.0,Indonesia,8161999912.0,,,-2.1851271,111.4493691,https://maps.google.com/?cid=0x0:0xd1dd13c6f947b63a,
toko bangunan,Toko Bahan Bangunan,TOKO BTOBIG,"Nanga Bulik, Kec. Bulik, Kabupaten Lamandau, Kalimantan Tengah","Kabupaten Lamandau, Kalimantan Tengah",KALIMANTAN TENGAH,,Indonesia,81949697844.0,,,-2.1897063,111.4664618,https://maps.google.com/?cid=0x0:0x6d2a71e614c73a76,
toko bangunan,Toko Bahan Bangunan,Toko Jadi Jaya,"Jln.Cempaka RT.05 No.48, Nanga Bulik, Kec. Bulik, Kabupaten Lamandau, Kalimantan Tengah 74161","Nanga Bulik, Kec. Bulik, Kabupaten Lamandau",KALIMANTAN TENGAH,74161.0,Indonesia,81949697844.0,,,-2.1770581,111.4646405,https://maps.google.com/?cid=0x0:0xcf3d21450a69a595,
toko bangunan,Toko Bahan Bangunan,TOKO JAY BANGUNAN,"Bukit Jaya, Kec. Bulik Tim., Kabupaten Lamandau, Kalimantan Tengah 74162","Kec. Bulik Tim., Kabupaten Lamandau",KALIMANTAN TENGAH,74162.0,Indonesia,81949697844.0,,,-1.9059377,111.4844697,https://maps.google.com/?cid=0x0:0x80de72b8628100fe,
toko bangunan,Pasar bahan bangunan,Toko bangunan DARUL AMIEN,"RF95+73V, Jl. Batu Batanggui, Nanga Bulik, Kec. Bulik, Kabupaten Lamandau, Kalimantan Tengah 74161","Jl. Batu Batanggui, Nanga Bulik, Kec. Bulik, Kabupaten Lamandau",KALIMANTAN TENGAH,74161.0,Indonesia,81949697844.0,,,-2.1817517,111.4576845,https://maps.google.com/?cid=0x0:0x96fda81b818c6a7c,
toko bangunan,Toko Bahan Bangunan,sahabat bangunan,"RF84+R69, Jl. Batu Batanggui, Nanga Bulik, Kec. Bulik, Kabupaten Lamandau, Kalimantan Tengah 74161","Jl. Batu Batanggui, Nanga Bulik, Kec. Bulik, Kabupaten Lamandau",KALIMANTAN TENGAH,74161.0,Indonesia,81949697844.0,,,-2.1829602,111.4556081,https://maps.google.com/?cid=0x0:0xf508897240d8220,
toko bangunan,Toko Bahan Bangunan,Cahaya Lamandau,"Jl. Trans Kalimantan No.Km.3, Nanga Bulik, Kec. Bulik, Kabupaten Lamandau, Kalimantan Tengah 74161","Nanga Bulik, Kec. Bulik, Kabupaten Lamandau",KALIMANTAN TENGAH,74161.0,Indonesia,85299727922.0,,,-2.1937252,111.4441104,https://maps.google.com/?cid=0x0:0xc42250fb5d793787,
toko bangunan,Toko Perlengkapan Rumah,Toko bangunan  besi : Sumber Makmur Sejati,"Kujan, Kec. Bulik, Kabupaten Lamandau, Kalimantan Tengah","Kabupaten Lamandau, Kalimantan Tengah",KALIMANTAN TENGAH,,Indonesia,81949697844.0,,,-2.2080215,111.4648655,https://maps.google.com/?cid=0x0:0xa05b9b29aa3d866a,
toko bangunan,Toko,Toko Berkah lamandau,"dekat bundaran burung, Jl. Batu Batanggui No.RT 004C, Nanga Bulik, Kec. Bulik, Kabupaten Lamandau, Kalimantan Tengah 74161","Jl. Batu Batanggui No.RT 004C, Nanga Bulik, Kec. Bulik, Kabupaten Lamandau",KALIMANTAN TENGAH,74161.0,Indonesia,81949697844.0,,,-2.1860009,111.4457628,https://maps.google.com/?cid=0x0:0x4845364abe4eddd1,
toko bangunan,Toko Bahan Bangunan,TB. BERGUNA,"RCFQ+2M7, Nanga Bulik, Kec. Bulik, Kabupaten Lamandau, Kalimantan Tengah","Kabupaten Lamandau, Kalimantan Tengah",KALIMANTAN TENGAH,,Indonesia,,,,-2.1778949,111.4394425,https://maps.google.com/?cid=0x0:0x6bc5cde13180528e,
toko bangunan,Toko Bahan Bangunan,Tuli Angka Gypsum,"RG7C+C27, Unnamed Road, Nanga Bulik, Kec. Bulik, Kabupaten Lamandau, Kalimantan Tengah 74161","Unnamed Road, Nanga Bulik, Kec. Bulik, Kabupaten Lamandau",KALIMANTAN TENGAH,74161.0,Indonesia,82173389240.0,,,-2.1864736,111.5200605,https://maps.google.com/?cid=0x0:0xa538a917ff0f1c3e,
toko bangunan,Toko Perlengkapan Rumah,Toko Bangunan Wijaya,"QG77+XXR, Purworejo, Kec. Sematu Jaya, Kabupaten Lamandau, Kalimantan Tengah 74161","Purworejo, Kec. Sematu Jaya, Kabupaten Lamandau",KALIMANTAN TENGAH,74161.0,Indonesia,81385661699.0,,,-2.2350104,111.514896,https://maps.google.com/?cid=0x0:0x47b3e4fd269fd2b1,
toko bangunan,,Toko PLAFON PVC,"RC8X+2J, Nanga Bulik, Kec. Bulik, Kabupaten Lamandau, Kalimantan Tengah 74161","Nanga Bulik, Kec. Bulik, Kabupaten Lamandau",KALIMANTAN TENGAH,74161.0,Indonesia,82320599030.0,,,-2.1849332,111.4490847,https://maps.google.com/?cid=0x0:0x7165f4181c45c4c3,
toko bangunan,Kantor Perusahaan,Batu bata merah mandiri maju,"RG59+C4F, Jalan simpang sepaku, kujan, Nanga Bulik, Kec. Bulik, Kabupaten Lamandau, Kalimantan Tengah 74161","Jalan simpang sepaku, kujan, Nanga Bulik, Kec. Bulik, Kabupaten Lamandau",KALIMANTAN TENGAH,74161.0,Indonesia,82174999897.0,,,-2.1914316,111.5177959,https://maps.google.com/?cid=0x0:0xc2fd3be4caba406e,
toko bangunan,Toko bahan makanan,Kayu siap pakai,"Jl. Melati III, Nanga Bulik, Kec. Bulik, Kabupaten Lamandau, Kalimantan Tengah 74161","Nanga Bulik, Kec. Bulik, Kabupaten Lamandau",KALIMANTAN TENGAH,74161.0,Indonesia,82358751048.0,,,-2.1793787,111.4468764,https://maps.google.com/?cid=0x0:0xf0ee6a5f9e639fdc,
toko bangunan,toko bangunan,Kalimantan Tengah 74664,"Kabupaten Lamandau, Kalimantan Tengah","Kabupaten Lamandau, Kalimantan Tengah",KALIMANTAN TENGAH,,Indonesia,,,,-1.6722405,111.1414226,https://maps.google.com/?cid=0x0:0x2e393b90c2443400,
toko bangunan,Toko Perlengkapan Rumah,Toko Bangunan Wijaya,"QG77+XXR, Purworejo, Kec. Sematu Jaya, Kabupaten Lamandau, Kalimantan Tengah 74161","Purworejo, Kec. Sematu Jaya, Kabupaten Lamandau",KALIMANTAN TENGAH,74161.0,Indonesia,81385661699.0,,,-2.2350104,111.514896,https://maps.google.com/?cid=0x0:0x47b3e4fd269fd2b1,
toko bangunan,Toko Bahan Bangunan,Bagan lamandau,"Jalan GTM Yusuf No.RT. 12, Nanga Bulik, Bulik, Lamandau Regency, Central Kalimantan 74611","Nanga Bulik, Bulik, Lamandau Regency",KALIMANTAN TENGAH,74611.0,Indonesia,81255453557.0,,,-2.177063,111.442938,https://maps.google.com/?cid=0x0:0x779850d1f45bcfb1,
toko bangunan,Toko Bahan Bangunan,Toko Aheng,"RFF7+PM7, Nanga Bulik, Kec. Bulik, Kabupaten Lamandau, Kalimantan Tengah 74161","Nanga Bulik, Kec. Bulik, Kabupaten Lamandau",KALIMANTAN TENGAH,74161.0,Indonesia,81949697844.0,,,-2.175716,111.4641678,https://maps.google.com/?cid=0x0:0x5d673a51c5d0a1b6,
toko bangunan,Toko Bahan Bangunan,TOKO BTOBIG,"Nanga Bulik, Kec. Bulik, Kabupaten Lamandau, Kalimantan Tengah","Kabupaten Lamandau, Kalimantan Tengah",KALIMANTAN TENGAH,,Indonesia,81949697844.0,,,-2.1897063,111.4664618,https://maps.google.com/?cid=0x0:0x6d2a71e614c73a76,
toko bangunan,Toko Bahan Bangunan,Toko Jadi Jaya,"Jln.Cempaka RT.05 No.48, Nanga Bulik, Kec. Bulik, Kabupaten Lamandau, Kalimantan Tengah 74161","Nanga Bulik, Kec. Bulik, Kabupaten Lamandau",KALIMANTAN TENGAH,74161.0,Indonesia,81949697844.0,,,-2.1770581,111.4646405,https://maps.google.com/?cid=0x0:0xcf3d21450a69a595,
toko bangunan,Toko Bahan Bangunan,UD Ricky,"Jl. Batu Batanggui No.RT 05c, RW.No 057, Nanga Bulik, Kec. Bulik, Kabupaten Lamandau, Kalimantan Tengah 74162","RW.No 057, Nanga Bulik, Kec. Bulik, Kabupaten Lamandau",KALIMANTAN TENGAH,74162.0,Indonesia,81949697844.0,,,-2.1796736,111.4624643,https://maps.google.com/?cid=0x0:0x2c9564c23429a967,
toko bangunan,Area Wi-Fi,Wood Moulding Tanjung Keminting,"Kina, Kec. Batang Kawa, Kabupaten Lamandau, Kalimantan Tengah 74665","Kec. Batang Kawa, Kabupaten Lamandau",KALIMANTAN TENGAH,74665.0,Indonesia,8115188867.0,,,-1.5035835,111.1477512,https://maps.google.com/?cid=0x0:0xa765ac6109fc5abd,
toko bangunan,Toko Perlengkapan Rumah,Toko bangunan  besi : Sumber Makmur Sejati,"Kujan, Kec. Bulik, Kabupaten Lamandau, Kalimantan Tengah","Kabupaten Lamandau, Kalimantan Tengah",KALIMANTAN TENGAH,,Indonesia,81949697844.0,,,-2.2080215,111.4648655,https://maps.google.com/?cid=0x0:0xa05b9b29aa3d866a,
toko bangunan,Toko Bahan Bangunan,TOKO JAY BANGUNAN,"Bukit Jaya, Kec. Bulik Tim., Kabupaten Lamandau, Kalimantan Tengah 74162","Kec. Bulik Tim., Kabupaten Lamandau",KALIMANTAN TENGAH,74162.0,Indonesia,81949697844.0,,,-1.9059377,111.4844697,https://maps.google.com/?cid=0x0:0x80de72b8628100fe,
toko bangunan,Toko Bahan Bangunan,Toko Morra Jaya Mandiri,"Jl. Melati Jl. Batu Batanggui No.Pertigaan, Nanga Bulik, Kec. Bulik, Kabupaten Lamandau, Kalimantan Tengah 74611","Nanga Bulik, Kec. Bulik, Kabupaten Lamandau",KALIMANTAN TENGAH,74611.0,Indonesia,8161999912.0,,,-2.1851271,111.4493691,https://maps.google.com/?cid=0x0:0xd1dd13c6f947b63a,
toko bangunan,Pasar bahan bangunan,TB rizky,"RF94+5XP, Nanga Bulik, Kec. Bulik, Kabupaten Lamandau, Kalimantan Tengah 74161","Nanga Bulik, Kec. Bulik, Kabupaten Lamandau",KALIMANTAN TENGAH,74161.0,Indonesia,81949697844.0,,,-2.1820172,111.4575307,https://maps.google.com/?cid=0x0:0xbbede6b09d698692,
toko bangunan,Toko Bahan Bangunan,TB. BERGUNA,"RCFQ+2M7, Nanga Bulik, Kec. Bulik, Kabupaten Lamandau, Kalimantan Tengah","Kabupaten Lamandau, Kalimantan Tengah",KALIMANTAN TENGAH,,Indonesia,,,,-2.1778949,111.4394425,https://maps.google.com/?cid=0x0:0x6bc5cde13180528e,
toko bangunan,toko bangunan,Kalimantan Tengah 74663,"Kabupaten Lamandau, Kalimantan Tengah","Kabupaten Lamandau, Kalimantan Tengah",KALIMANTAN TENGAH,,Indonesia,,,,-1.9269166,111.1891151,https://maps.google.com/?cid=0x0:0xddd786c27266b53a,
toko bangunan,Toko Bahan Bangunan,Kios Griya Indah,"Samu Jaya, Kec. Lamandau, Kabupaten Lamandau, Kalimantan Tengah 74663","Kec. Lamandau, Kabupaten Lamandau",KALIMANTAN TENGAH,74663.0,Indonesia,81949697844.0,,,-1.8819979,111.3291202,https://maps.google.com/?cid=0x0:0xa0f32eb9b51a544,
toko bangunan,Toko Bahan Bangunan,Bagan lamandau,"Jalan GTM Yusuf No.RT. 12, Nanga Bulik, Bulik, Lamandau Regency, Central Kalimantan 74611","Nanga Bulik, Bulik, Lamandau Regency",KALIMANTAN TENGAH,74611.0,Indonesia,81255453557.0,,,-2.177063,111.442938,https://maps.google.com/?cid=0x0:0x779850d1f45bcfb1,
toko bangunan,Toko Bahan Bangunan,Cahaya Lamandau,"Jl. Trans Kalimantan No.Km.3, Nanga Bulik, Kec. Bulik, Kabupaten Lamandau, Kalimantan Tengah 74161","Nanga Bulik, Kec. Bulik, Kabupaten Lamandau",KALIMANTAN TENGAH,74161.0,Indonesia,85299727922.0,,,-2.1937252,111.4441104,https://maps.google.com/?cid=0x0:0xc42250fb5d793787,
toko bangunan,Toko Bahan Bangunan,Toko Rizal,"489C+2V6, Jalan Poros, Tapin Bini, Kec. Lamandau, Kabupaten Lamandau, Kalimantan Tengah","Kabupaten Lamandau, Kalimantan Tengah",KALIMANTAN TENGAH,,Indonesia,,,,-1.882395,111.3219574,https://maps.google.com/?cid=0x0:0xcfe5546d18eff254,
toko bangunan,Pemasok Bahan Bangunan,Toko Kasih Karunia,"RF79+72R, Jl. Tjilik Riwut, Nanga Bulik, Kec. Bulik, Kabupaten Lamandau, Kalimantan Tengah 74161","Jl. Tjilik Riwut, Nanga Bulik, Kec. Bulik, Kabupaten Lamandau",KALIMANTAN TENGAH,74161.0,Indonesia,81949697844.0,,,-2.1867738,111.4675049,https://maps.google.com/?cid=0x0:0x2136ccd6a323a306,
toko bangunan,Toko Bahan Bangunan,Toko Morra Jaya Mandiri,"Jl. Melati Jl. Batu Batanggui No.Pertigaan, Nanga Bulik, Kec. Bulik, Kabupaten Lamandau, Kalimantan Tengah 74611","Nanga Bulik, Kec. Bulik, Kabupaten Lamandau",KALIMANTAN TENGAH,74611.0,Indonesia,8161999912.0,,,-2.1851271,111.4493691,https://maps.google.com/?cid=0x0:0xd1dd13c6f947b63a,
toko bangunan,Pasar bahan bangunan,Toko bangunan DARUL AMIEN,"RF95+73V, Jl. Batu Batanggui, Nanga Bulik, Kec. Bulik, Kabupaten Lamandau, Kalimantan Tengah 74161","Jl. Batu Batanggui, Nanga Bulik, Kec. Bulik, Kabupaten Lamandau",KALIMANTAN TENGAH,74161.0,Indonesia,81949697844.0,,,-2.1817517,111.4576845,https://maps.google.com/?cid=0x0:0x96fda81b818c6a7c,
toko bangunan,Toko Bahan Bangunan,sahabat bangunan,"RF84+R69, Jl. Batu Batanggui, Nanga Bulik, Kec. Bulik, Kabupaten Lamandau, Kalimantan Tengah 74161","Jl. Batu Batanggui, Nanga Bulik, Kec. Bulik, Kabupaten Lamandau",KALIMANTAN TENGAH,74161.0,Indonesia,81949697844.0,,,-2.1829602,111.4556081,https://maps.google.com/?cid=0x0:0xf508897240d8220,
toko bangunan,Toko Bahan Bangunan,TOKO BTOBIG,"Nanga Bulik, Kec. Bulik, Kabupaten Lamandau, Kalimantan Tengah","Kabupaten Lamandau, Kalimantan Tengah",KALIMANTAN TENGAH,,Indonesia,81949697844.0,,,-2.1897063,111.4664618,https://maps.google.com/?cid=0x0:0x6d2a71e614c73a76,
toko bangunan,Toko Bahan Bangunan,Toko Jadi Jaya,"Jln.Cempaka RT.05 No.48, Nanga Bulik, Kec. Bulik, Kabupaten Lamandau, Kalimantan Tengah 74161","Nanga Bulik, Kec. Bulik, Kabupaten Lamandau",KALIMANTAN TENGAH,74161.0,Indonesia,81949697844.0,,,-2.1770581,111.4646405,https://maps.google.com/?cid=0x0:0xcf3d21450a69a595,
toko bangunan,Toko Bahan Bangunan,Toko Aheng,"RFF7+PM7, Nanga Bulik, Kec. Bulik, Kabupaten Lamandau, Kalimantan Tengah 74161","Nanga Bulik, Kec. Bulik, Kabupaten Lamandau",KALIMANTAN TENGAH,74161.0,Indonesia,81949697844.0,,,-2.175716,111.4641678,https://maps.google.com/?cid=0x0:0x5d673a51c5d0a1b6,
toko bangunan,Pasar bahan bangunan,TB rizky,"RF94+5XP, Nanga Bulik, Kec. Bulik, Kabupaten Lamandau, Kalimantan Tengah 74161","Nanga Bulik, Kec. Bulik, Kabupaten Lamandau",KALIMANTAN TENGAH,74161.0,Indonesia,81949697844.0,,,-2.1820172,111.4575307,https://maps.google.com/?cid=0x0:0xbbede6b09d698692,
toko bangunan,Toko Bahan Bangunan,TOKO JAY BANGUNAN,"Bukit Jaya, Kec. Bulik Tim., Kabupaten Lamandau, Kalimantan Tengah 74162","Kec. Bulik Tim., Kabupaten Lamandau",KALIMANTAN TENGAH,74162.0,Indonesia,81949697844.0,,,-1.9059377,111.4844697,https://maps.google.com/?cid=0x0:0x80de72b8628100fe,
toko bangunan,Toko Bahan Bangunan,TB.KURIOUS,"Translokal, Jl. Ahmad Yani No.184, RT.12, Kec. Bulik, Kabupaten Lamandau, Kalimantan Tengah 74162","Jl. Ahmad Yani No.184, RT.12, Kec. Bulik, Kabupaten Lamandau",KALIMANTAN TENGAH,74162.0,Indonesia,81949697844.0,,,-2.1768456,111.442248,https://maps.google.com/?cid=0x0:0xb12c45b40cb899a2,
toko bangunan,Toko Bahan Bangunan,UD Ricky,"Jl. Batu Batanggui No.RT 05c, RW.No 057, Nanga Bulik, Kec. Bulik, Kabupaten Lamandau, Kalimantan Tengah 74162","RW.No 057, Nanga Bulik, Kec. Bulik, Kabupaten Lamandau",KALIMANTAN TENGAH,74162.0,Indonesia,81949697844.0,,,-2.1796736,111.4624643,https://maps.google.com/?cid=0x0:0x2c9564c23429a967,
toko bangunan,Toko Perlengkapan Rumah,Toko bangunan  besi : Sumber Makmur Sejati,"Kujan, Kec. Bulik, Kabupaten Lamandau, Kalimantan Tengah","Kabupaten Lamandau, Kalimantan Tengah",KALIMANTAN TENGAH,,Indonesia,81949697844.0,,,-2.2080215,111.4648655,https://maps.google.com/?cid=0x0:0xa05b9b29aa3d866a,
toko bangunan,Jasa Konstruksi dan Bangunan,Sobar Plafon PVC,"2, Jl. Lintas Kalimantan No.4664550 2091679, 111, Kujan, Kec. Bulik, Kabupaten Lamandau, Kalimantan Tengah 74161",2091679,KALIMANTAN TENGAH,664550.0,Indonesia,81949697844.0,,,-2.2090217,111.466469,https://maps.google.com/?cid=0x0:0x78a9e7eee01f7699,
toko bangunan,Toko,Toko Berkah lamandau,"dekat bundaran burung, Jl. Batu Batanggui No.RT 004C, Nanga Bulik, Kec. Bulik, Kabupaten Lamandau, Kalimantan Tengah 74161","Jl. Batu Batanggui No.RT 004C, Nanga Bulik, Kec. Bulik, Kabupaten Lamandau",KALIMANTAN TENGAH,74161.0,Indonesia,81949697844.0,,,-2.1860009,111.4457628,https://maps.google.com/?cid=0x0:0x4845364abe4eddd1,
toko bangunan,toko bangunan,Kalimantan Tengah 74162,"Kabupaten Lamandau, Kalimantan Tengah","Kabupaten Lamandau, Kalimantan Tengah",KALIMANTAN TENGAH,,Indonesia,,,,-1.7404903,111.5229817,https://maps.google.com/?cid=0x0:0xcbde8a77875b152b,
toko bangunan,Toko Bahan Bangunan,Bagan lamandau,"Jalan GTM Yusuf No.RT. 12, Nanga Bulik, Bulik, Lamandau Regency, Central Kalimantan 74611","Nanga Bulik, Bulik, Lamandau Regency",KALIMANTAN TENGAH,74611.0,Indonesia,81255453557.0,,,-2.177063,111.442938,https://maps.google.com/?cid=0x0:0x779850d1f45bcfb1,
toko bangunan,Toko Bahan Bangunan,Toko Morra Jaya Mandiri,"Jl. Melati Jl. Batu Batanggui No.Pertigaan, Nanga Bulik, Kec. Bulik, Kabupaten Lamandau, Kalimantan Tengah 74611","Nanga Bulik, Kec. Bulik, Kabupaten Lamandau",KALIMANTAN TENGAH,74611.0,Indonesia,8161999912.0,,,-2.1851271,111.4493691,https://maps.google.com/?cid=0x0:0xd1dd13c6f947b63a,
toko bangunan,Toko Bahan Bangunan,Toko Jadi Jaya,"Jln.Cempaka RT.05 No.48, Nanga Bulik, Kec. Bulik, Kabupaten Lamandau, Kalimantan Tengah 74161","Nanga Bulik, Kec. Bulik, Kabupaten Lamandau",KALIMANTAN TENGAH,74161.0,Indonesia,81949697844.0,,,-2.1770581,111.4646405,https://maps.google.com/?cid=0x0:0xcf3d21450a69a595,
toko bangunan,Toko Bahan Bangunan,Toko Aheng,"RFF7+PM7, Nanga Bulik, Kec. Bulik, Kabupaten Lamandau, Kalimantan Tengah 74161","Nanga Bulik, Kec. Bulik, Kabupaten Lamandau",KALIMANTAN TENGAH,74161.0,Indonesia,81949697844.0,,,-2.175716,111.4641678,https://maps.google.com/?cid=0x0:0x5d673a51c5d0a1b6,
toko bangunan,Pasar bahan bangunan,TB rizky,"RF94+5XP, Nanga Bulik, Kec. Bulik, Kabupaten Lamandau, Kalimantan Tengah 74161","Nanga Bulik, Kec. Bulik, Kabupaten Lamandau",KALIMANTAN TENGAH,74161.0,Indonesia,81949697844.0,,,-2.1820172,111.4575307,https://maps.google.com/?cid=0x0:0xbbede6b09d698692,
toko bangunan,Toko Bahan Bangunan,TOKO BTOBIG,"Nanga Bulik, Kec. Bulik, Kabupaten Lamandau, Kalimantan Tengah","Kabupaten Lamandau, Kalimantan Tengah",KALIMANTAN TENGAH,,Indonesia,81949697844.0,,,-2.1897063,111.4664618,https://maps.google.com/?cid=0x0:0x6d2a71e614c73a76,
toko bangunan,Pasar bahan bangunan,Toko bangunan DARUL AMIEN,"RF95+73V, Jl. Batu Batanggui, Nanga Bulik, Kec. Bulik, Kabupaten Lamandau, Kalimantan Tengah 74161","Jl. Batu Batanggui, Nanga Bulik, Kec. Bulik, Kabupaten Lamandau",KALIMANTAN TENGAH,74161.0,Indonesia,81949697844.0,,,-2.1817517,111.4576845,https://maps.google.com/?cid=0x0:0x96fda81b818c6a7c,
toko bangunan,Toko Bahan Bangunan,UD Ricky,"Jl. Batu Batanggui No.RT 05c, RW.No 057, Nanga Bulik, Kec. Bulik, Kabupaten Lamandau, Kalimantan Tengah 74162","RW.No 057, Nanga Bulik, Kec. Bulik, Kabupaten Lamandau",KALIMANTAN TENGAH,74162.0,Indonesia,81949697844.0,,,-2.1796736,111.4624643,https://maps.google.com/?cid=0x0:0x2c9564c23429a967,
toko bangunan,Pemasok Bahan Bangunan,Toko Kasih Karunia,"RF79+72R, Jl. Tjilik Riwut, Nanga Bulik, Kec. Bulik, Kabupaten Lamandau, Kalimantan Tengah 74161","Jl. Tjilik Riwut, Nanga Bulik, Kec. Bulik, Kabupaten Lamandau",KALIMANTAN TENGAH,74161.0,Indonesia,81949697844.0,,,-2.1867738,111.4675049,https://maps.google.com/?cid=0x0:0x2136ccd6a323a306,
toko bangunan,Toko Perlengkapan Rumah,Toko bangunan  besi : Sumber Makmur Sejati,"Kujan, Kec. Bulik, Kabupaten Lamandau, Kalimantan Tengah","Kabupaten Lamandau, Kalimantan Tengah",KALIMANTAN TENGAH,,Indonesia,81949697844.0,,,-2.2080215,111.4648655,https://maps.google.com/?cid=0x0:0xa05b9b29aa3d866a,
toko bangunan,Toko Bahan Bangunan,sahabat bangunan,"RF84+R69, Jl. Batu Batanggui, Nanga Bulik, Kec. Bulik, Kabupaten Lamandau, Kalimantan Tengah 74161","Jl. Batu Batanggui, Nanga Bulik, Kec. Bulik, Kabupaten Lamandau",KALIMANTAN TENGAH,74161.0,Indonesia,81949697844.0,,,-2.1829602,111.4556081,https://maps.google.com/?cid=0x0:0xf508897240d8220,
toko bangunan,Toko Perlengkapan Rumah,Toko Bangunan Wijaya,"QG77+XXR, Purworejo, Kec. Sematu Jaya, Kabupaten Lamandau, Kalimantan Tengah 74161","Purworejo, Kec. Sematu Jaya, Kabupaten Lamandau",KALIMANTAN TENGAH,74161.0,Indonesia,81385661699.0,,,-2.2350104,111.514896,https://maps.google.com/?cid=0x0:0x47b3e4fd269fd2b1,
toko bangunan,Toko Bahan Bangunan,Cahaya Lamandau,"Jl. Trans Kalimantan No.Km.3, Nanga Bulik, Kec. Bulik, Kabupaten Lamandau, Kalimantan Tengah 74161","Nanga Bulik, Kec. Bulik, Kabupaten Lamandau",KALIMANTAN TENGAH,74161.0,Indonesia,85299727922.0,,,-2.1937252,111.4441104,https://maps.google.com/?cid=0x0:0xc42250fb5d793787,
toko bangunan,Toko Bahan Bangunan,TOKO JAY BANGUNAN,"Bukit Jaya, Kec. Bulik Tim., Kabupaten Lamandau, Kalimantan Tengah 74162","Kec. Bulik Tim., Kabupaten Lamandau",KALIMANTAN TENGAH,74162.0,Indonesia,81949697844.0,,,-1.9059377,111.4844697,https://maps.google.com/?cid=0x0:0x80de72b8628100fe,
toko bangunan,Toko,Toko Berkah lamandau,"dekat bundaran burung, Jl. Batu Batanggui No.RT 004C, Nanga Bulik, Kec. Bulik, Kabupaten Lamandau, Kalimantan Tengah 74161","Jl. Batu Batanggui No.RT 004C, Nanga Bulik, Kec. Bulik, Kabupaten Lamandau",KALIMANTAN TENGAH,74161.0,Indonesia,81949697844.0,,,-2.1860009,111.4457628,https://maps.google.com/?cid=0x0:0x4845364abe4eddd1,
toko bangunan,Toko Bahan Bangunan,TB. BERGUNA,"RCFQ+2M7, Nanga Bulik, Kec. Bulik, Kabupaten Lamandau, Kalimantan Tengah","Kabupaten Lamandau, Kalimantan Tengah",KALIMANTAN TENGAH,,Indonesia,,,,-2.1778949,111.4394425,https://maps.google.com/?cid=0x0:0x6bc5cde13180528e,
toko bangunan,Toko Bahan Bangunan,Tuli Angka Gypsum,"RG7C+C27, Unnamed Road, Nanga Bulik, Kec. Bulik, Kabupaten Lamandau, Kalimantan Tengah 74161","Unnamed Road, Nanga Bulik, Kec. Bulik, Kabupaten Lamandau",KALIMANTAN TENGAH,74161.0,Indonesia,82173389240.0,,,-2.1864736,111.5200605,https://maps.google.com/?cid=0x0:0xa538a917ff0f1c3e,
toko bangunan,Kantor Perusahaan,Batu bata merah mandiri maju,"RG59+C4F, Jalan simpang sepaku, kujan, Nanga Bulik, Kec. Bulik, Kabupaten Lamandau, Kalimantan Tengah 74161","Jalan simpang sepaku, kujan, Nanga Bulik, Kec. Bulik, Kabupaten Lamandau",KALIMANTAN TENGAH,74161.0,Indonesia,82174999897.0,,,-2.1914316,111.5177959,https://maps.google.com/?cid=0x0:0xc2fd3be4caba406e,
toko bangunan,Jasa Konstruksi dan Bangunan,Sobar Plafon PVC,"2, Jl. Lintas Kalimantan No.4664550 2091679, 111, Kujan, Kec. Bulik, Kabupaten Lamandau, Kalimantan Tengah 74161",2091679,KALIMANTAN TENGAH,664550.0,Indonesia,81949697844.0,,,-2.2090217,111.466469,https://maps.google.com/?cid=0x0:0x78a9e7eee01f7699,
toko bangunan,Komplek perumahan,Jaya Baru,"Desa Bukit Harum Depan Lapangan. Ds. Bukit Harum (H6, Kabupaten Lamandau, Kalimantan Tengah 74468",Kabupaten Lamandau,KALIMANTAN TENGAH,74468.0,Indonesia,81250195703.0,,,-2.1293569,111.6449283,https://maps.google.com/?cid=0x0:0x46e4cf885667b4d1,
toko bangunan,toko bangunan,Kec. Menthobi Raya,"Kabupaten Lamandau, Kalimantan Tengah","Kabupaten Lamandau, Kalimantan Tengah",KALIMANTAN TENGAH,,Indonesia,,,,-2.050416,111.6153851,https://maps.google.com/?cid=0x0:0x45123dfed8d40bd7,
toko bangunan,toko bangunan,Toko berkah,"3FWM+6V, Bukit Jaya, Kec. Bulik Tim., Kabupaten Lamandau, Kalimantan Tengah 74162","Bukit Jaya, Kec. Bulik Tim., Kabupaten Lamandau",KALIMANTAN TENGAH,74162.0,Indonesia,82225208860.0,,,-1.90449,111.4847034,https://maps.google.com/?cid=0x0:0x9603bd138a278733,
toko bangunan,toko bangunan,Kec. Sematu Jaya,"Kabupaten Lamandau, Kalimantan Tengah","Kabupaten Lamandau, Kalimantan Tengah",KALIMANTAN TENGAH,,Indonesia,,,,-2.2356757,111.5156988,https://maps.google.com/?cid=0x0:0xa84b471e5053bba1,
toko bangunan,Toko Perlengkapan Rumah,Toko Bangunan Wijaya,"QG77+XXR, Purworejo, Kec. Sematu Jaya, Kabupaten Lamandau, Kalimantan Tengah 74161","Purworejo, Kec. Sematu Jaya, Kabupaten Lamandau",KALIMANTAN TENGAH,74161.0,Indonesia,81385661699.0,,,-2.2350104,111.514896,https://maps.google.com/?cid=0x0:0x47b3e4fd269fd2b1,
toko bangunan,Toko Perlengkapan Rumah,Toko Mebel  Bangunan Nabila,"QGVQ+XGP, Bina Bhakti, Kec. Sematu Jaya, Kabupaten Lamandau, Kalimantan Tengah 74161","Bina Bhakti, Kec. Sematu Jaya, Kabupaten Lamandau",KALIMANTAN TENGAH,74161.0,Indonesia,81949697844.0,,,-2.2050273,111.5388328,https://maps.google.com/?cid=0x0:0x74379664805fa7d4,
toko bangunan,toko bangunan,Toko nabila,"PHV4+F3F, Jangkar Prima, Kec. Sematu Jaya, Kabupaten Lamandau, Kalimantan Tengah 74161","Jangkar Prima, Kec. Sematu Jaya, Kabupaten Lamandau",KALIMANTAN TENGAH,74161.0,Indonesia,,,,-2.2563245,111.5551795,https://maps.google.com/?cid=0x0:0x1b078d3fb7184763,
toko bangunan,Toko Bahan Bangunan,Bagan lamandau,"Jalan GTM Yusuf No.RT. 12, Nanga Bulik, Bulik, Lamandau Regency, Central Kalimantan 74611","Nanga Bulik, Bulik, Lamandau Regency",KALIMANTAN TENGAH,74611.0,Indonesia,81255453557.0,,,-2.177063,111.442938,https://maps.google.com/?cid=0x0:0x779850d1f45bcfb1,
toko bangunan,Toko,Toko matrial,"Ds.mekarmulya rw.001/rt 011 jl.haryanto, Nanga Bulik, Kec. Sematu Jaya, Kab. Lamandau, Kalimantan Tengah 74669","Nanga Bulik, Kec. Sematu Jaya, Kab. Lamandau",KALIMANTAN TENGAH,74669.0,Indonesia,,,,-2.2883909,111.551755,https://maps.google.com/?cid=0x0:0x663e201170c47e78,
toko bangunan,Toko Bahan Bangunan,Tuli Angka Gypsum,"RG7C+C27, Unnamed Road, Nanga Bulik, Kec. Bulik, Kabupaten Lamandau, Kalimantan Tengah 74161","Unnamed Road, Nanga Bulik, Kec. Bulik, Kabupaten Lamandau",KALIMANTAN TENGAH,74161.0,Indonesia,82173389240.0,,,-2.1864736,111.5200605,https://maps.google.com/?cid=0x0:0xa538a917ff0f1c3e,
toko bangunan,Toko Bahan Bangunan,Toko Jadi Jaya,"Jln.Cempaka RT.05 No.48, Nanga Bulik, Kec. Bulik, Kabupaten Lamandau, Kalimantan Tengah 74161","Nanga Bulik, Kec. Bulik, Kabupaten Lamandau",KALIMANTAN TENGAH,74161.0,Indonesia,81949697844.0,,,-2.1770581,111.4646405,https://maps.google.com/?cid=0x0:0xcf3d21450a69a595,
toko bangunan,Pemasok Bahan Bangunan,Toko Kasih Karunia,"RF79+72R, Jl. Tjilik Riwut, Nanga Bulik, Kec. Bulik, Kabupaten Lamandau, Kalimantan Tengah 74161","Jl. Tjilik Riwut, Nanga Bulik, Kec. Bulik, Kabupaten Lamandau",KALIMANTAN TENGAH,74161.0,Indonesia,81949697844.0,,,-2.1867738,111.4675049,https://maps.google.com/?cid=0x0:0x2136ccd6a323a306,
toko bangunan,Komplek perumahan,Jaya Baru,"Desa Bukit Harum Depan Lapangan. Ds. Bukit Harum (H6, Kabupaten Lamandau, Kalimantan Tengah 74468",Kabupaten Lamandau,KALIMANTAN TENGAH,74468.0,Indonesia,81250195703.0,,,-2.1293569,111.6449283,https://maps.google.com/?cid=0x0:0x46e4cf885667b4d1,
toko bangunan,toko bangunan,Toko Bangunan Berkah Jaya Abadi,"PH94+MGG, Mekar Mulya, Kec. Sematu Jaya, Kabupaten Lamandau, Kalimantan Tengah 74161","Mekar Mulya, Kec. Sematu Jaya, Kabupaten Lamandau",KALIMANTAN TENGAH,74161.0,Indonesia,,,,-2.2808081,111.5563314,https://maps.google.com/?cid=0x0:0xa45025fd8dd831bb,
hardware store,Toko Perlengkapan Rumah,ARISSAPALA Hardware,"Unnamed Road, Bulurejo, Toso, Kec. Bandar, Kabupaten Batang, Jawa Tengah 51254","Bulurejo, Toso, Kec. Bandar, Kabupaten Batang",KALIMANTAN TENGAH,51254.0,Indonesia,81225494983.0,,,-7.0480743,109.8351563,https://maps.google.com/?cid=0x0:0x4705ed43471f7041,
hardware store,Toko Perlengkapan Rumah,Toko Asri,"XR35+WXM, Sidayu, Kec. Bandar, Kabupaten Batang, Jawa Tengah 51254","Sidayu, Kec. Bandar, Kabupaten Batang",KALIMANTAN TENGAH,51254.0,Indonesia,85642692727.0,,,-7.0451548,109.809923,https://maps.google.com/?cid=0x0:0x6717f8321443dd0b,
hardware store,hardware store,Kalimantan Tengah 74664,"Kabupaten Lamandau, Kalimantan Tengah","Kabupaten Lamandau, Kalimantan Tengah",KALIMANTAN TENGAH,,Indonesia,,,,-1.6722405,111.1414226,https://maps.google.com/?cid=0x0:0x2e393b90c2443400,
hardware store,Toko Bahan Bangunan,Fa Hyin Hardware Sdn Bhd,"Lot 37, Taman OKK Hj Mahali, Papar, 89608 Kota Kinabalu, Sabah, Malaysia",Kota Kinabalu,KALIMANTAN TENGAH,89608.0,Indonesia,60168320331.0,,,5.7325406,115.9302293,https://maps.google.com/?cid=0x0:0xc7ebc968a09d5e,
hardware store,hardware store,Kalimantan Tengah 74663,"Kabupaten Lamandau, Kalimantan Tengah","Kabupaten Lamandau, Kalimantan Tengah",KALIMANTAN TENGAH,,Indonesia,,,,-1.9269166,111.1891151,https://maps.google.com/?cid=0x0:0xddd786c27266b53a,
hardware store,Toko Bahan Bangunan,Toko Morra Jaya Mandiri,"Jl. Melati Jl. Batu Batanggui No.Pertigaan, Nanga Bulik, Kec. Bulik, Kabupaten Lamandau, Kalimantan Tengah 74611","Nanga Bulik, Kec. Bulik, Kabupaten Lamandau",KALIMANTAN TENGAH,74611.0,Indonesia,8161999912.0,,,-2.1851271,111.4493691,https://maps.google.com/?cid=0x0:0xd1dd13c6f947b63a,
hardware store,Toko Bahan Bangunan,Toko Aheng,"RFF7+PM7, Nanga Bulik, Kec. Bulik, Kabupaten Lamandau, Kalimantan Tengah 74161","Nanga Bulik, Kec. Bulik, Kabupaten Lamandau",KALIMANTAN TENGAH,74161.0,Indonesia,81949697844.0,,,-2.175716,111.4641678,https://maps.google.com/?cid=0x0:0x5d673a51c5d0a1b6,
hardware store,Pemasok Bahan Bangunan,Toko Kasih Karunia,"RF79+72R, Jl. Tjilik Riwut, Nanga Bulik, Kec. Bulik, Kabupaten Lamandau, Kalimantan Tengah 74161","Jl. Tjilik Riwut, Nanga Bulik, Kec. Bulik, Kabupaten Lamandau",KALIMANTAN TENGAH,74161.0,Indonesia,81949697844.0,,,-2.1867738,111.4675049,https://maps.google.com/?cid=0x0:0x2136ccd6a323a306,
hardware store,Komplek perumahan,Jaya Baru,"Desa Bukit Harum Depan Lapangan. Ds. Bukit Harum (H6, Kabupaten Lamandau, Kalimantan Tengah 74468",Kabupaten Lamandau,KALIMANTAN TENGAH,74468.0,Indonesia,81250195703.0,,,-2.1293569,111.6449283,https://maps.google.com/?cid=0x0:0x46e4cf885667b4d1,
hardware store,Toko,Toko Pak Topo mart,"3FXM+2RM, depan kantor desa, Bukit Jaya, Kec. Bulik Tim., Kabupaten Lamandau, Kalimantan Tengah 74162","depan kantor desa, Bukit Jaya, Kec. Bulik Tim., Kabupaten Lamandau",KALIMANTAN TENGAH,74162.0,Indonesia,81575522647.0,,,-1.9024077,111.4845612,https://maps.google.com/?cid=0x0:0x3acb1100098b9323,
hardware store,Toko Penganan,MR.DIY,"Jl. Batu Batanggui No.RT 4, Nanga Bulik, Kec. Bulik, Kabupaten Lamandau, Kalimantan Tengah 74611","Nanga Bulik, Kec. Bulik, Kabupaten Lamandau",KALIMANTAN TENGAH,74611.0,Indonesia,,,,-2.1842885,111.4521645,https://maps.google.com/?cid=0x0:0x3c9ce6ac8256576,
hardware store,Toko Alat Tulis Kantor,Toko Zoe,"W693+QWC, Jl. Ahmad Yani, Nanga Bulik, Kec. Lamandau, Kabupaten Lamandau, Kalimantan Tengah 74173","Jl. Ahmad Yani, Nanga Bulik, Kec. Lamandau, Kabupaten Lamandau",KALIMANTAN TENGAH,74173.0,Indonesia,81351976461.0,,,-2.0805623,111.2047623,https://maps.google.com/?cid=0x0:0xb49e1f0cd3580c46,
hardware store,Toko Elektronik,Toko Anas Elektronick,"QFV8+289, Kujan, Kec. Bulik, Kabupaten Lamandau, Kalimantan Tengah 74161","Kujan, Kec. Bulik, Kabupaten Lamandau",KALIMANTAN TENGAH,74161.0,Indonesia,81385661699.0,,,-2.2074703,111.4658656,https://maps.google.com/?cid=0x0:0x43147a1c70380814,
hardware store,hardware store,Kalimantan Tengah 74162,"Kabupaten Lamandau, Kalimantan Tengah","Kabupaten Lamandau, Kalimantan Tengah",KALIMANTAN TENGAH,,Indonesia,,,,-1.7404903,111.5229817,https://maps.google.com/?cid=0x0:0xcbde8a77875b152b,
hardware store,Toko Bahan Bangunan,Toko Aheng,"RFF7+PM7, Nanga Bulik, Kec. Bulik, Kabupaten Lamandau, Kalimantan Tengah 74161","Nanga Bulik, Kec. Bulik, Kabupaten Lamandau",KALIMANTAN TENGAH,74161.0,Indonesia,81949697844.0,,,-2.175716,111.4641678,https://maps.google.com/?cid=0x0:0x5d673a51c5d0a1b6,
hardware store,Toko Bahan Bangunan,Toko Morra Jaya Mandiri,"Jl. Melati Jl. Batu Batanggui No.Pertigaan, Nanga Bulik, Kec. Bulik, Kabupaten Lamandau, Kalimantan Tengah 74611","Nanga Bulik, Kec. Bulik, Kabupaten Lamandau",KALIMANTAN TENGAH,74611.0,Indonesia,8161999912.0,,,-2.1851271,111.4493691,https://maps.google.com/?cid=0x0:0xd1dd13c6f947b63a,
hardware store,Pasar bahan bangunan,TB rizky,"RF94+5XP, Nanga Bulik, Kec. Bulik, Kabupaten Lamandau, Kalimantan Tengah 74161","Nanga Bulik, Kec. Bulik, Kabupaten Lamandau",KALIMANTAN TENGAH,74161.0,Indonesia,81949697844.0,,,-2.1820172,111.4575307,https://maps.google.com/?cid=0x0:0xbbede6b09d698692,
hardware store,Pemasok Bahan Bangunan,Toko Kasih Karunia,"RF79+72R, Jl. Tjilik Riwut, Nanga Bulik, Kec. Bulik, Kabupaten Lamandau, Kalimantan Tengah 74161","Jl. Tjilik Riwut, Nanga Bulik, Kec. Bulik, Kabupaten Lamandau",KALIMANTAN TENGAH,74161.0,Indonesia,81949697844.0,,,-2.1867738,111.4675049,https://maps.google.com/?cid=0x0:0x2136ccd6a323a306,
hardware store,Toko Bahan Bangunan,TOKO BTOBIG,"Nanga Bulik, Kec. Bulik, Kabupaten Lamandau, Kalimantan Tengah","Kabupaten Lamandau, Kalimantan Tengah",KALIMANTAN TENGAH,,Indonesia,81949697844.0,,,-2.1897063,111.4664618,https://maps.google.com/?cid=0x0:0x6d2a71e614c73a76,
hardware store,Toko Bahan Bangunan,Cahaya Lamandau,"Jl. Trans Kalimantan No.Km.3, Nanga Bulik, Kec. Bulik, Kabupaten Lamandau, Kalimantan Tengah 74161","Nanga Bulik, Kec. Bulik, Kabupaten Lamandau",KALIMANTAN TENGAH,74161.0,Indonesia,85299727922.0,,,-2.1937252,111.4441104,https://maps.google.com/?cid=0x0:0xc42250fb5d793787,
hardware store,Toko Bahan Bangunan,Bagan lamandau,"Jalan GTM Yusuf No.RT. 12, Nanga Bulik, Bulik, Lamandau Regency, Central Kalimantan 74611","Nanga Bulik, Bulik, Lamandau Regency",KALIMANTAN TENGAH,74611.0,Indonesia,81255453557.0,,,-2.177063,111.442938,https://maps.google.com/?cid=0x0:0x779850d1f45bcfb1,
hardware store,Toko bahan makanan,Toko sumber sthil,"Jalan Niaga Rt.07 No.12, Nanga Bulik, Kec. Bulik, Kabupaten Lamandau, Kalimantan Tengah 74161","Nanga Bulik, Kec. Bulik, Kabupaten Lamandau",KALIMANTAN TENGAH,74161.0,Indonesia,82251276791.0,,,-2.1751911,111.4626926,https://maps.google.com/?cid=0x0:0x103170e74372ac0d,
hardware store,Pembangunan Perumahan,nanga bulik kabupaten lamandau,"RCFW+3RP, Jalan, Nanga Bulik, Bulik, Lamandau Regency, Central Kalimantan 74161","Jalan, Nanga Bulik, Bulik, Lamandau Regency",KALIMANTAN TENGAH,74161.0,Indonesia,,,,-2.177298,111.4470724,https://maps.google.com/?cid=0x0:0x9755122c5b476b0c,
hardware store,Toko Alat Tulis Kantor,Toko ATK ZOE,"Jl. Ahmad Yani, Nanga Bulik, Kec. Bulik, Kabupaten Lamandau, Kalimantan Tengah 74161","Nanga Bulik, Kec. Bulik, Kabupaten Lamandau",KALIMANTAN TENGAH,74161.0,Indonesia,81251683399.0,,,-2.1772278,111.4426384,https://maps.google.com/?cid=0x0:0xacc24ec0677b0323,
hardware store,Minimarket,Almuna mini market,"RF95+MQC, Nanga Bulik, Kec. Bulik, Kabupaten Lamandau, Kalimantan Tengah 74161","Nanga Bulik, Kec. Bulik, Kabupaten Lamandau",KALIMANTAN TENGAH,74161.0,Indonesia,,,,-2.1808245,111.4594046,https://maps.google.com/?cid=0x0:0x6009c3b18e574bf0,
hardware store,Toko bahan makanan,Toko Sukses Bersama,"Jl. Batu Batanggui, Nanga Bulik, Kec. Bulik, Kabupaten Lamandau, Kalimantan Tengah 74161","Nanga Bulik, Kec. Bulik, Kabupaten Lamandau",KALIMANTAN TENGAH,74161.0,Indonesia,85348457495.0,,,-2.1796974,111.4628756,https://maps.google.com/?cid=0x0:0x88c149e6ecc7493f,
hardware store,Toko Bahan Bangunan,TB. BERGUNA,"RCFQ+2M7, Nanga Bulik, Kec. Bulik, Kabupaten Lamandau, Kalimantan Tengah","Kabupaten Lamandau, Kalimantan Tengah",KALIMANTAN TENGAH,,Indonesia,,,,-2.1778949,111.4394425,https://maps.google.com/?cid=0x0:0x6bc5cde13180528e,
hardware store,Toko,Toko Pak Topo mart,"3FXM+2RM, depan kantor desa, Bukit Jaya, Kec. Bulik Tim., Kabupaten Lamandau, Kalimantan Tengah 74162","depan kantor desa, Bukit Jaya, Kec. Bulik Tim., Kabupaten Lamandau",KALIMANTAN TENGAH,74162.0,Indonesia,81575522647.0,,,-1.9024077,111.4845612,https://maps.google.com/?cid=0x0:0x3acb1100098b9323,
hardware store,Toko Kosmetik,Rifky Cosmetics Lamandau,"Jl. Batu Batanggui No.RT.04, Nanga Bulik, Kec. Bulik, Kabupaten Lamandau, Kalimantan Tengah 74611","Nanga Bulik, Kec. Bulik, Kabupaten Lamandau",KALIMANTAN TENGAH,74611.0,Indonesia,81251989079.0,,,-2.1841045,111.4524628,https://maps.google.com/?cid=0x0:0x1fa517ce427ab70,
hardware store,Penjahit,Toko Alat jahit LUQMAN,"Jl. Tjilik Riwut No.74161, Nanga Bulik, Kec. Bulik, Kabupaten Lamandau, Kalimantan Tengah 74161","Nanga Bulik, Kec. Bulik, Kabupaten Lamandau",KALIMANTAN TENGAH,74161.0,Indonesia,82157218473.0,,,-2.1758784,111.4621593,https://maps.google.com/?cid=0x0:0xb7ee2efd6238cc48,
hardware store,Toko Jam,TOKO JAM SEJAHTERA,"RFF7+9J7, Nanga Bulik, Kec. Bulik, Kabupaten Lamandau, Kalimantan Tengah 74161","Nanga Bulik, Kec. Bulik, Kabupaten Lamandau",KALIMANTAN TENGAH,74161.0,Indonesia,81346651168.0,,,-2.1765903,111.4640481,https://maps.google.com/?cid=0x0:0x7a55f08305593c6a,
hardware store,Toko Pakaian,Toko TOP JEANS,"RFF7+4G5, Nanga Bulik, Kec. Bulik, Kabupaten Lamandau, Kalimantan Tengah 74161","Nanga Bulik, Kec. Bulik, Kabupaten Lamandau",KALIMANTAN TENGAH,74161.0,Indonesia,,,,-2.1772363,111.4638667,https://maps.google.com/?cid=0x0:0x1804e85515095bf,
hardware store,Toko Alat Tulis Kantor,TOKO BUKU  ALAT TULIS KANTOR BRILIAN,"RCFQ+439, Jl. Ahmad Yani, Nanga Bulik, Kec. Bulik, Kabupaten Lamandau, Kalimantan Tengah 74161","Jl. Ahmad Yani, Nanga Bulik, Kec. Bulik, Kabupaten Lamandau",KALIMANTAN TENGAH,74161.0,Indonesia,,,,-2.1772174,111.4377389,https://maps.google.com/?cid=0x0:0x613229128a119283,
hardware store,Toko Elektronik,Toko Anas Elektronick,"QFV8+289, Kujan, Kec. Bulik, Kabupaten Lamandau, Kalimantan Tengah 74161","Kujan, Kec. Bulik, Kabupaten Lamandau",KALIMANTAN TENGAH,74161.0,Indonesia,81385661699.0,,,-2.2074703,111.4658656,https://maps.google.com/?cid=0x0:0x43147a1c70380814,
hardware store,Komplek perumahan,Jaya Baru,"Desa Bukit Harum Depan Lapangan. Ds. Bukit Harum (H6, Kabupaten Lamandau, Kalimantan Tengah 74468",Kabupaten Lamandau,KALIMANTAN TENGAH,74468.0,Indonesia,81250195703.0,,,-2.1293569,111.6449283,https://maps.google.com/?cid=0x0:0x46e4cf885667b4d1,
hardware store,Toko Bahan Bangunan,Toko Bangunan depok Alat Teknik dan Safety Citra,"Jl. Margonda No.472, Pondok Cina, Kecamatan Beji, Kota Depok, Jawa Barat 16424","Pondok Cina, Kecamatan Beji, Kota Depok",KALIMANTAN TENGAH,16424.0,Indonesia,85710032801.0,,,-6.3656692,106.8336797,https://maps.google.com/?cid=0x0:0xcff3501c7ef59783,
hardware store,Toko Bahan Bangunan,Toko Bangunan Depok Terlengkap - Mitra10 Depok,"Jl. Margonda Raya No.202, Kemiri Muka, Kecamatan Beji, Kota Depok, Jawa Barat 16243","Kemiri Muka, Kecamatan Beji, Kota Depok",KALIMANTAN TENGAH,16243.0,Indonesia,87800021010.0,,,-6.3848418,106.8292601,https://maps.google.com/?cid=0x0:0x1f79a1c00cb2da7a,
hardware store,hardware store,Kalimantan Tengah 74611,"Kec. Bulik, Kabupaten Lamandau, Kalimantan Tengah","Kabupaten Lamandau, Kalimantan Tengah",KALIMANTAN TENGAH,,Indonesia,,,,-2.0058667,111.4395128,https://maps.google.com/?cid=0x0:0xb6c8a0a464bd3c0c,
hardware store,Toko Bahan Bangunan,Toko Aheng,"RFF7+PM7, Nanga Bulik, Kec. Bulik, Kabupaten Lamandau, Kalimantan Tengah 74161","Nanga Bulik, Kec. Bulik, Kabupaten Lamandau",KALIMANTAN TENGAH,74161.0,Indonesia,81949697844.0,,,-2.175716,111.4641678,https://maps.google.com/?cid=0x0:0x5d673a51c5d0a1b6,
hardware store,Toko Bahan Bangunan,Cahaya Lamandau,"Jl. Trans Kalimantan No.Km.3, Nanga Bulik, Kec. Bulik, Kabupaten Lamandau, Kalimantan Tengah 74161","Nanga Bulik, Kec. Bulik, Kabupaten Lamandau",KALIMANTAN TENGAH,74161.0,Indonesia,85299727922.0,,,-2.1937252,111.4441104,https://maps.google.com/?cid=0x0:0xc42250fb5d793787,
hardware store,Pasar bahan bangunan,TB rizky,"RF94+5XP, Nanga Bulik, Kec. Bulik, Kabupaten Lamandau, Kalimantan Tengah 74161","Nanga Bulik, Kec. Bulik, Kabupaten Lamandau",KALIMANTAN TENGAH,74161.0,Indonesia,81949697844.0,,,-2.1820172,111.4575307,https://maps.google.com/?cid=0x0:0xbbede6b09d698692,
hardware store,Toko,Toko Berkah lamandau,"dekat bundaran burung, Jl. Batu Batanggui No.RT 004C, Nanga Bulik, Kec. Bulik, Kabupaten Lamandau, Kalimantan Tengah 74161","Jl. Batu Batanggui No.RT 004C, Nanga Bulik, Kec. Bulik, Kabupaten Lamandau",KALIMANTAN TENGAH,74161.0,Indonesia,81949697844.0,,,-2.1860009,111.4457628,https://maps.google.com/?cid=0x0:0x4845364abe4eddd1,
hardware store,Toko Penganan,MR.DIY,"Jl. Batu Batanggui No.RT 4, Nanga Bulik, Kec. Bulik, Kabupaten Lamandau, Kalimantan Tengah 74611","Nanga Bulik, Kec. Bulik, Kabupaten Lamandau",KALIMANTAN TENGAH,74611.0,Indonesia,,,,-2.1842885,111.4521645,https://maps.google.com/?cid=0x0:0x3c9ce6ac8256576,
hardware store,Pembangunan Perumahan,nanga bulik kabupaten lamandau,"RCFW+3RP, Jalan, Nanga Bulik, Bulik, Lamandau Regency, Central Kalimantan 74161","Jalan, Nanga Bulik, Bulik, Lamandau Regency",KALIMANTAN TENGAH,74161.0,Indonesia,,,,-2.177298,111.4470724,https://maps.google.com/?cid=0x0:0x9755122c5b476b0c,
hardware store,Toko Bahan Bangunan,Bagan lamandau,"Jalan GTM Yusuf No.RT. 12, Nanga Bulik, Bulik, Lamandau Regency, Central Kalimantan 74611","Nanga Bulik, Bulik, Lamandau Regency",KALIMANTAN TENGAH,74611.0,Indonesia,81255453557.0,,,-2.177063,111.442938,https://maps.google.com/?cid=0x0:0x779850d1f45bcfb1,
hardware store,Toko bahan makanan,Toko sumber sthil,"Jalan Niaga Rt.07 No.12, Nanga Bulik, Kec. Bulik, Kabupaten Lamandau, Kalimantan Tengah 74161","Nanga Bulik, Kec. Bulik, Kabupaten Lamandau",KALIMANTAN TENGAH,74161.0,Indonesia,82251276791.0,,,-2.1751911,111.4626926,https://maps.google.com/?cid=0x0:0x103170e74372ac0d,
hardware store,hardware store,Kalimantan Tengah 74612,"Kec. Bulik, Kabupaten Lamandau, Kalimantan Tengah","Kabupaten Lamandau, Kalimantan Tengah",KALIMANTAN TENGAH,,Indonesia,,,,-2.0421323,111.463361,https://maps.google.com/?cid=0x0:0xc38ed0bb98a86bd0,
hardware store,Toko Bahan Bangunan,Toko Aheng,"RFF7+PM7, Nanga Bulik, Kec. Bulik, Kabupaten Lamandau, Kalimantan Tengah 74161","Nanga Bulik, Kec. Bulik, Kabupaten Lamandau",KALIMANTAN TENGAH,74161.0,Indonesia,81949697844.0,,,-2.175716,111.4641678,https://maps.google.com/?cid=0x0:0x5d673a51c5d0a1b6,
hardware store,Toko Penganan,MR.DIY,"Jl. Batu Batanggui No.RT 4, Nanga Bulik, Kec. Bulik, Kabupaten Lamandau, Kalimantan Tengah 74611","Nanga Bulik, Kec. Bulik, Kabupaten Lamandau",KALIMANTAN TENGAH,74611.0,Indonesia,,,,-2.1842885,111.4521645,https://maps.google.com/?cid=0x0:0x3c9ce6ac8256576,
hardware store,Toko Bahan Bangunan,Cahaya Lamandau,"Jl. Trans Kalimantan No.Km.3, Nanga Bulik, Kec. Bulik, Kabupaten Lamandau, Kalimantan Tengah 74161","Nanga Bulik, Kec. Bulik, Kabupaten Lamandau",KALIMANTAN TENGAH,74161.0,Indonesia,85299727922.0,,,-2.1937252,111.4441104,https://maps.google.com/?cid=0x0:0xc42250fb5d793787,
hardware store,Pasar bahan bangunan,TB rizky,"RF94+5XP, Nanga Bulik, Kec. Bulik, Kabupaten Lamandau, Kalimantan Tengah 74161","Nanga Bulik, Kec. Bulik, Kabupaten Lamandau",KALIMANTAN TENGAH,74161.0,Indonesia,81949697844.0,,,-2.1820172,111.4575307,https://maps.google.com/?cid=0x0:0xbbede6b09d698692,
hardware store,Toko Bahan Bangunan,Bagan lamandau,"Jalan GTM Yusuf No.RT. 12, Nanga Bulik, Bulik, Lamandau Regency, Central Kalimantan 74611","Nanga Bulik, Bulik, Lamandau Regency",KALIMANTAN TENGAH,74611.0,Indonesia,81255453557.0,,,-2.177063,111.442938,https://maps.google.com/?cid=0x0:0x779850d1f45bcfb1,
hardware store,Pembangunan Perumahan,nanga bulik kabupaten lamandau,"RCFW+3RP, Jalan, Nanga Bulik, Bulik, Lamandau Regency, Central Kalimantan 74161","Jalan, Nanga Bulik, Bulik, Lamandau Regency",KALIMANTAN TENGAH,74161.0,Indonesia,,,,-2.177298,111.4470724,https://maps.google.com/?cid=0x0:0x9755122c5b476b0c,
hardware store,Toko bahan makanan,Toko sumber sthil,"Jalan Niaga Rt.07 No.12, Nanga Bulik, Kec. Bulik, Kabupaten Lamandau, Kalimantan Tengah 74161","Nanga Bulik, Kec. Bulik, Kabupaten Lamandau",KALIMANTAN TENGAH,74161.0,Indonesia,82251276791.0,,,-2.1751911,111.4626926,https://maps.google.com/?cid=0x0:0x103170e74372ac0d,
hardware store,Toko Bahan Bangunan,Hardware Clothing,"Rukan Gading Indah, Blok V9-12, RT.18/RW.8, Klp. Gading Bar., Kec. Klp. Gading, Jkt Utara, Daerah Khusus Ibukota Jakarta 12930","Blok V9-12, RT.18/RW.8, Klp. Gading Bar., Kec. Klp. Gading, Jkt Utara",KALIMANTAN TENGAH,12930.0,Indonesia,2125539858.0,,,-6.149231,106.896942,https://maps.google.com/?cid=0x0:0x488fdb7f986cd389,
hardware store,Toko Pakaian Wanita,Hardware,"Mal Metropolitan, Jl. KH. Noer Ali No.2, RT.008/RW.002, Pekayon Jaya, Kec. Bekasi Sel., Kota Bks, Jawa Barat 17148","Jl. KH. Noer Ali No.2, RT.008/RW.002, Pekayon Jaya, Kec. Bekasi Sel., Kota Bks",KALIMANTAN TENGAH,17148.0,Indonesia,2188861991.0,,,-6.2480342,106.9915778,https://maps.google.com/?cid=0x0:0x4ae65d80217112f0,
hardware store,hardware store,Kalimantan Tengah 74162,"Kabupaten Lamandau, Kalimantan Tengah","Kabupaten Lamandau, Kalimantan Tengah",KALIMANTAN TENGAH,,Indonesia,,,,-1.7404903,111.5229817,https://maps.google.com/?cid=0x0:0xcbde8a77875b152b,
hardware store,Toko Bahan Bangunan,Toko Aheng,"RFF7+PM7, Nanga Bulik, Kec. Bulik, Kabupaten Lamandau, Kalimantan Tengah 74161","Nanga Bulik, Kec. Bulik, Kabupaten Lamandau",KALIMANTAN TENGAH,74161.0,Indonesia,81949697844.0,,,-2.175716,111.4641678,https://maps.google.com/?cid=0x0:0x5d673a51c5d0a1b6,
hardware store,Toko Bahan Bangunan,Toko Morra Jaya Mandiri,"Jl. Melati Jl. Batu Batanggui No.Pertigaan, Nanga Bulik, Kec. Bulik, Kabupaten Lamandau, Kalimantan Tengah 74611","Nanga Bulik, Kec. Bulik, Kabupaten Lamandau",KALIMANTAN TENGAH,74611.0,Indonesia,8161999912.0,,,-2.1851271,111.4493691,https://maps.google.com/?cid=0x0:0xd1dd13c6f947b63a,
hardware store,Pemasok Bahan Bangunan,Toko Kasih Karunia,"RF79+72R, Jl. Tjilik Riwut, Nanga Bulik, Kec. Bulik, Kabupaten Lamandau, Kalimantan Tengah 74161","Jl. Tjilik Riwut, Nanga Bulik, Kec. Bulik, Kabupaten Lamandau",KALIMANTAN TENGAH,74161.0,Indonesia,81949697844.0,,,-2.1867738,111.4675049,https://maps.google.com/?cid=0x0:0x2136ccd6a323a306,
hardware store,Pasar bahan bangunan,TB rizky,"RF94+5XP, Nanga Bulik, Kec. Bulik, Kabupaten Lamandau, Kalimantan Tengah 74161","Nanga Bulik, Kec. Bulik, Kabupaten Lamandau",KALIMANTAN TENGAH,74161.0,Indonesia,81949697844.0,,,-2.1820172,111.4575307,https://maps.google.com/?cid=0x0:0xbbede6b09d698692,
hardware store,Toko Bahan Bangunan,TOKO BTOBIG,"Nanga Bulik, Kec. Bulik, Kabupaten Lamandau, Kalimantan Tengah","Kabupaten Lamandau, Kalimantan Tengah",KALIMANTAN TENGAH,,Indonesia,81949697844.0,,,-2.1897063,111.4664618,https://maps.google.com/?cid=0x0:0x6d2a71e614c73a76,
hardware store,Toko Bahan Bangunan,Cahaya Lamandau,"Jl. Trans Kalimantan No.Km.3, Nanga Bulik, Kec. Bulik, Kabupaten Lamandau, Kalimantan Tengah 74161","Nanga Bulik, Kec. Bulik, Kabupaten Lamandau",KALIMANTAN TENGAH,74161.0,Indonesia,85299727922.0,,,-2.1937252,111.4441104,https://maps.google.com/?cid=0x0:0xc42250fb5d793787,
hardware store,Toko bahan makanan,Toko sumber sthil,"Jalan Niaga Rt.07 No.12, Nanga Bulik, Kec. Bulik, Kabupaten Lamandau, Kalimantan Tengah 74161","Nanga Bulik, Kec. Bulik, Kabupaten Lamandau",KALIMANTAN TENGAH,74161.0,Indonesia,82251276791.0,,,-2.1751911,111.4626926,https://maps.google.com/?cid=0x0:0x103170e74372ac0d,
hardware store,Toko Bahan Bangunan,Bagan lamandau,"Jalan GTM Yusuf No.RT. 12, Nanga Bulik, Bulik, Lamandau Regency, Central Kalimantan 74611","Nanga Bulik, Bulik, Lamandau Regency",KALIMANTAN TENGAH,74611.0,Indonesia,81255453557.0,,,-2.177063,111.442938,https://maps.google.com/?cid=0x0:0x779850d1f45bcfb1,
hardware store,Toko Alat Tulis Kantor,Toko ATK ZOE,"Jl. Ahmad Yani, Nanga Bulik, Kec. Bulik, Kabupaten Lamandau, Kalimantan Tengah 74161","Nanga Bulik, Kec. Bulik, Kabupaten Lamandau",KALIMANTAN TENGAH,74161.0,Indonesia,81251683399.0,,,-2.1772278,111.4426384,https://maps.google.com/?cid=0x0:0xacc24ec0677b0323,
hardware store,Toko,Toko Pak Topo mart,"3FXM+2RM, depan kantor desa, Bukit Jaya, Kec. Bulik Tim., Kabupaten Lamandau, Kalimantan Tengah 74162","depan kantor desa, Bukit Jaya, Kec. Bulik Tim., Kabupaten Lamandau",KALIMANTAN TENGAH,74162.0,Indonesia,81575522647.0,,,-1.9024077,111.4845612,https://maps.google.com/?cid=0x0:0x3acb1100098b9323,
hardware store,Toko Alat Listrik,Toko Sinar Utama - Sinut,"Jl. Bukit Hibul Utara turunan KORAMIL, Nanga Bulik, Kec. Bulik, Kabupaten Lamandau, Kalimantan Tengah 74662","Nanga Bulik, Kec. Bulik, Kabupaten Lamandau",KALIMANTAN TENGAH,74662.0,Indonesia,81255246400.0,,,-2.1800158,111.4323206,https://maps.google.com/?cid=0x0:0xda58d8b4e5eabf9b,
hardware store,Toko bahan makanan,Toko Sukses Bersama,"Jl. Batu Batanggui, Nanga Bulik, Kec. Bulik, Kabupaten Lamandau, Kalimantan Tengah 74161","Nanga Bulik, Kec. Bulik, Kabupaten Lamandau",KALIMANTAN TENGAH,74161.0,Indonesia,85348457495.0,,,-2.1796974,111.4628756,https://maps.google.com/?cid=0x0:0x88c149e6ecc7493f,
hardware store,Pembangunan Perumahan,nanga bulik kabupaten lamandau,"RCFW+3RP, Jalan, Nanga Bulik, Bulik, Lamandau Regency, Central Kalimantan 74161","Jalan, Nanga Bulik, Bulik, Lamandau Regency",KALIMANTAN TENGAH,74161.0,Indonesia,,,,-2.177298,111.4470724,https://maps.google.com/?cid=0x0:0x9755122c5b476b0c,
hardware store,Komplek perumahan,Jaya Baru,"Desa Bukit Harum Depan Lapangan. Ds. Bukit Harum (H6, Kabupaten Lamandau, Kalimantan Tengah 74468",Kabupaten Lamandau,KALIMANTAN TENGAH,74468.0,Indonesia,81250195703.0,,,-2.1293569,111.6449283,https://maps.google.com/?cid=0x0:0x46e4cf885667b4d1,
hardware store,Toko Bahan Bangunan,TB. BERGUNA,"RCFQ+2M7, Nanga Bulik, Kec. Bulik, Kabupaten Lamandau, Kalimantan Tengah","Kabupaten Lamandau, Kalimantan Tengah",KALIMANTAN TENGAH,,Indonesia,,,,-2.1778949,111.4394425,https://maps.google.com/?cid=0x0:0x6bc5cde13180528e,
hardware store,Toko Bahan Bangunan,UD Ricky,"Jl. Batu Batanggui No.RT 05c, RW.No 057, Nanga Bulik, Kec. Bulik, Kabupaten Lamandau, Kalimantan Tengah 74162","RW.No 057, Nanga Bulik, Kec. Bulik, Kabupaten Lamandau",KALIMANTAN TENGAH,74162.0,Indonesia,81949697844.0,,,-2.1796736,111.4624643,https://maps.google.com/?cid=0x0:0x2c9564c23429a967,
hardware store,Toko Bahan Bangunan,Toko Jadi Jaya,"Jln.Cempaka RT.05 No.48, Nanga Bulik, Kec. Bulik, Kabupaten Lamandau, Kalimantan Tengah 74161","Nanga Bulik, Kec. Bulik, Kabupaten Lamandau",KALIMANTAN TENGAH,74161.0,Indonesia,81949697844.0,,,-2.1770581,111.4646405,https://maps.google.com/?cid=0x0:0xcf3d21450a69a595,
hardware store,Minimarket,Toko Reyes,"RC7W+H2W, Nanga Bulik, Kec. Bulik, Kabupaten Lamandau, Kalimantan Tengah 74161","Nanga Bulik, Kec. Bulik, Kabupaten Lamandau",KALIMANTAN TENGAH,74161.0,Indonesia,81332022911.0,,,-2.1860093,111.445091,https://maps.google.com/?cid=0x0:0x1713765dab0e03c,
hardware store,Toko,Toko Berkah lamandau,"dekat bundaran burung, Jl. Batu Batanggui No.RT 004C, Nanga Bulik, Kec. Bulik, Kabupaten Lamandau, Kalimantan Tengah 74161","Jl. Batu Batanggui No.RT 004C, Nanga Bulik, Kec. Bulik, Kabupaten Lamandau",KALIMANTAN TENGAH,74161.0,Indonesia,81949697844.0,,,-2.1860009,111.4457628,https://maps.google.com/?cid=0x0:0x4845364abe4eddd1,
hardware store,Toko Komputer,LAMANDAU COMPUTER,"Jl. Bukit Hibul Timur, Nanga Bulik, Kec. Bulik, Kabupaten Lamandau, Kalimantan Tengah 74662","Nanga Bulik, Kec. Bulik, Kabupaten Lamandau",KALIMANTAN TENGAH,74662.0,Indonesia,82152228885.0,,,-2.185004,111.4387385,https://maps.google.com/?cid=0x0:0x7fbdc6c92c0436a8,
hardware store,Penjahit,Toko Alat jahit LUQMAN,"Jl. Tjilik Riwut No.74161, Nanga Bulik, Kec. Bulik, Kabupaten Lamandau, Kalimantan Tengah 74161","Nanga Bulik, Kec. Bulik, Kabupaten Lamandau",KALIMANTAN TENGAH,74161.0,Indonesia,82157218473.0,,,-2.1758784,111.4621593,https://maps.google.com/?cid=0x0:0xb7ee2efd6238cc48,
hardware store,Toko Kosmetik,Rifky Cosmetics Lamandau,"Jl. Batu Batanggui No.RT.04, Nanga Bulik, Kec. Bulik, Kabupaten Lamandau, Kalimantan Tengah 74611","Nanga Bulik, Kec. Bulik, Kabupaten Lamandau",KALIMANTAN TENGAH,74611.0,Indonesia,81251989079.0,,,-2.1841045,111.4524628,https://maps.google.com/?cid=0x0:0x1fa517ce427ab70,
hardware store,Toko Bahan Bangunan,TOKO JAY BANGUNAN,"Bukit Jaya, Kec. Bulik Tim., Kabupaten Lamandau, Kalimantan Tengah 74162","Kec. Bulik Tim., Kabupaten Lamandau",KALIMANTAN TENGAH,74162.0,Indonesia,81949697844.0,,,-1.9059377,111.4844697,https://maps.google.com/?cid=0x0:0x80de72b8628100fe,
hardware store,Toko Bahan Bangunan,Toko Aheng,"RFF7+PM7, Nanga Bulik, Kec. Bulik, Kabupaten Lamandau, Kalimantan Tengah 74161","Nanga Bulik, Kec. Bulik, Kabupaten Lamandau",KALIMANTAN TENGAH,74161.0,Indonesia,81949697844.0,,,-2.175716,111.4641678,https://maps.google.com/?cid=0x0:0x5d673a51c5d0a1b6,
hardware store,Toko Bahan Bangunan,Bagan lamandau,"Jalan GTM Yusuf No.RT. 12, Nanga Bulik, Bulik, Lamandau Regency, Central Kalimantan 74611","Nanga Bulik, Bulik, Lamandau Regency",KALIMANTAN TENGAH,74611.0,Indonesia,81255453557.0,,,-2.177063,111.442938,https://maps.google.com/?cid=0x0:0x779850d1f45bcfb1,
hardware store,Toko Bahan Bangunan,AQUATIC SANITARY  PLYWOOD,"PANDA BAZZAR, Pipili, Odisha 752104, India","Pipili, Odisha",KALIMANTAN TENGAH,752104.0,Indonesia,918847804347.0,,,20.118524,85.8409204,https://maps.google.com/?cid=0x0:0x34310ed4e54c65de,
hardware store,hardware store,PRIMEE TRADERS COLOR  SANITARY  HARDWARE,"2QJF+92M, Delang Rd, Humar, Delang, Odisha 752016, India","Delang Rd, Humar, Delang, Odisha",KALIMANTAN TENGAH,752016.0,Indonesia,,,,20.0309662,85.7725518,https://maps.google.com/?cid=0x0:0xf11b512c8d05eb9a,
hardware store,hardware store,Kalimantan Tengah 74663,"Kabupaten Lamandau, Kalimantan Tengah","Kabupaten Lamandau, Kalimantan Tengah",KALIMANTAN TENGAH,,Indonesia,,,,-1.9269166,111.1891151,https://maps.google.com/?cid=0x0:0xddd786c27266b53a,
hardware store,Toko Bahan Bangunan,Toko Aheng,"RFF7+PM7, Nanga Bulik, Kec. Bulik, Kabupaten Lamandau, Kalimantan Tengah 74161","Nanga Bulik, Kec. Bulik, Kabupaten Lamandau",KALIMANTAN TENGAH,74161.0,Indonesia,81949697844.0,,,-2.175716,111.4641678,https://maps.google.com/?cid=0x0:0x5d673a51c5d0a1b6,
hardware store,Toko Bahan Bangunan,Toko Morra Jaya Mandiri,"Jl. Melati Jl. Batu Batanggui No.Pertigaan, Nanga Bulik, Kec. Bulik, Kabupaten Lamandau, Kalimantan Tengah 74611","Nanga Bulik, Kec. Bulik, Kabupaten Lamandau",KALIMANTAN TENGAH,74611.0,Indonesia,8161999912.0,,,-2.1851271,111.4493691,https://maps.google.com/?cid=0x0:0xd1dd13c6f947b63a,
hardware store,Pemasok Bahan Bangunan,Toko Kasih Karunia,"RF79+72R, Jl. Tjilik Riwut, Nanga Bulik, Kec. Bulik, Kabupaten Lamandau, Kalimantan Tengah 74161","Jl. Tjilik Riwut, Nanga Bulik, Kec. Bulik, Kabupaten Lamandau",KALIMANTAN TENGAH,74161.0,Indonesia,81949697844.0,,,-2.1867738,111.4675049,https://maps.google.com/?cid=0x0:0x2136ccd6a323a306,
hardware store,Komplek perumahan,Jaya Baru,"Desa Bukit Harum Depan Lapangan. Ds. Bukit Harum (H6, Kabupaten Lamandau, Kalimantan Tengah 74468",Kabupaten Lamandau,KALIMANTAN TENGAH,74468.0,Indonesia,81250195703.0,,,-2.1293569,111.6449283,https://maps.google.com/?cid=0x0:0x46e4cf885667b4d1,
hardware store,Toko Elektronik,Toko Anas Elektronick,"QFV8+289, Kujan, Kec. Bulik, Kabupaten Lamandau, Kalimantan Tengah 74161","Kujan, Kec. Bulik, Kabupaten Lamandau",KALIMANTAN TENGAH,74161.0,Indonesia,81385661699.0,,,-2.2074703,111.4658656,https://maps.google.com/?cid=0x0:0x43147a1c70380814,
hardware store,Toko Alat Tulis Kantor,Toko Zoe,"W693+QWC, Jl. Ahmad Yani, Nanga Bulik, Kec. Lamandau, Kabupaten Lamandau, Kalimantan Tengah 74173","Jl. Ahmad Yani, Nanga Bulik, Kec. Lamandau, Kabupaten Lamandau",KALIMANTAN TENGAH,74173.0,Indonesia,81351976461.0,,,-2.0805623,111.2047623,https://maps.google.com/?cid=0x0:0xb49e1f0cd3580c46,
hardware store,Toko,Toko Pak Topo mart,"3FXM+2RM, depan kantor desa, Bukit Jaya, Kec. Bulik Tim., Kabupaten Lamandau, Kalimantan Tengah 74162","depan kantor desa, Bukit Jaya, Kec. Bulik Tim., Kabupaten Lamandau",KALIMANTAN TENGAH,74162.0,Indonesia,81575522647.0,,,-1.9024077,111.4845612,https://maps.google.com/?cid=0x0:0x3acb1100098b9323,
hardware store,Toko bahan makanan,Toko sumber sthil,"Jalan Niaga Rt.07 No.12, Nanga Bulik, Kec. Bulik, Kabupaten Lamandau, Kalimantan Tengah 74161","Nanga Bulik, Kec. Bulik, Kabupaten Lamandau",KALIMANTAN TENGAH,74161.0,Indonesia,82251276791.0,,,-2.1751911,111.4626926,https://maps.google.com/?cid=0x0:0x103170e74372ac0d,
hardware store,Toko Komputer,LAMANDAU COMPUTER,"Jl. Bukit Hibul Timur, Nanga Bulik, Kec. Bulik, Kabupaten Lamandau, Kalimantan Tengah 74662","Nanga Bulik, Kec. Bulik, Kabupaten Lamandau",KALIMANTAN TENGAH,74662.0,Indonesia,82152228885.0,,,-2.185004,111.4387385,https://maps.google.com/?cid=0x0:0x7fbdc6c92c0436a8,
hardware store,Toko Penganan,MR.DIY,"Jl. Batu Batanggui No.RT 4, Nanga Bulik, Kec. Bulik, Kabupaten Lamandau, Kalimantan Tengah 74611","Nanga Bulik, Kec. Bulik, Kabupaten Lamandau",KALIMANTAN TENGAH,74611.0,Indonesia,,,,-2.1842885,111.4521645,https://maps.google.com/?cid=0x0:0x3c9ce6ac8256576,
hardware store,Toko Alat Tulis Kantor,Toko ATK ZOE,"Jl. Ahmad Yani, Nanga Bulik, Kec. Bulik, Kabupaten Lamandau, Kalimantan Tengah 74161","Nanga Bulik, Kec. Bulik, Kabupaten Lamandau",KALIMANTAN TENGAH,74161.0,Indonesia,81251683399.0,,,-2.1772278,111.4426384,https://maps.google.com/?cid=0x0:0xacc24ec0677b0323,
hardware store,Toko Elektronik,Toko komponen elektronik,"QGR5+4JC, Kujan, Kec. Bulik, Kabupaten Lamandau, Kalimantan Tengah","Kabupaten Lamandau, Kalimantan Tengah",KALIMANTAN TENGAH,,Indonesia,85754380442.0,,,-2.2096835,111.5090287,https://maps.google.com/?cid=0x0:0xc11b7692bf5df545,
hardware store,Penjahit,Toko Alat jahit LUQMAN,"Jl. Tjilik Riwut No.74161, Nanga Bulik, Kec. Bulik, Kabupaten Lamandau, Kalimantan Tengah 74161","Nanga Bulik, Kec. Bulik, Kabupaten Lamandau",KALIMANTAN TENGAH,74161.0,Indonesia,82157218473.0,,,-2.1758784,111.4621593,https://maps.google.com/?cid=0x0:0xb7ee2efd6238cc48,
hardware store,Toko Musik,Jazsound dan toko,"RCFV+5J2, Jalan, Nanga Bulik, Bulik, Lamandau Regency, Central Kalimantan 74161","Jalan, Nanga Bulik, Bulik, Lamandau Regency",KALIMANTAN TENGAH,74161.0,Indonesia,,,,-2.1771042,111.4440169,https://maps.google.com/?cid=0x0:0x7cc8f8ab7fc7a04a,
hardware store,hardware store,Kalimantan Tengah 74162,"Kabupaten Lamandau, Kalimantan Tengah","Kabupaten Lamandau, Kalimantan Tengah",KALIMANTAN TENGAH,,Indonesia,,,,-1.7404903,111.5229817,https://maps.google.com/?cid=0x0:0xcbde8a77875b152b,
hardware store,Toko Bahan Bangunan,Toko Morra Jaya Mandiri,"Jl. Melati Jl. Batu Batanggui No.Pertigaan, Nanga Bulik, Kec. Bulik, Kabupaten Lamandau, Kalimantan Tengah 74611","Nanga Bulik, Kec. Bulik, Kabupaten Lamandau",KALIMANTAN TENGAH,74611.0,Indonesia,8161999912.0,,,-2.1851271,111.4493691,https://maps.google.com/?cid=0x0:0xd1dd13c6f947b63a,
hardware store,Toko Bahan Bangunan,Toko Aheng,"RFF7+PM7, Nanga Bulik, Kec. Bulik, Kabupaten Lamandau, Kalimantan Tengah 74161","Nanga Bulik, Kec. Bulik, Kabupaten Lamandau",KALIMANTAN TENGAH,74161.0,Indonesia,81949697844.0,,,-2.175716,111.4641678,https://maps.google.com/?cid=0x0:0x5d673a51c5d0a1b6,
hardware store,Toko Bahan Bangunan,Bagan lamandau,"Jalan GTM Yusuf No.RT. 12, Nanga Bulik, Bulik, Lamandau Regency, Central Kalimantan 74611","Nanga Bulik, Bulik, Lamandau Regency",KALIMANTAN TENGAH,74611.0,Indonesia,81255453557.0,,,-2.177063,111.442938,https://maps.google.com/?cid=0x0:0x779850d1f45bcfb1,
hardware store,Toko bahan makanan,Toko sumber sthil,"Jalan Niaga Rt.07 No.12, Nanga Bulik, Kec. Bulik, Kabupaten Lamandau, Kalimantan Tengah 74161","Nanga Bulik, Kec. Bulik, Kabupaten Lamandau",KALIMANTAN TENGAH,74161.0,Indonesia,82251276791.0,,,-2.1751911,111.4626926,https://maps.google.com/?cid=0x0:0x103170e74372ac0d,
hardware store,Pemasok Bahan Bangunan,Toko Kasih Karunia,"RF79+72R, Jl. Tjilik Riwut, Nanga Bulik, Kec. Bulik, Kabupaten Lamandau, Kalimantan Tengah 74161","Jl. Tjilik Riwut, Nanga Bulik, Kec. Bulik, Kabupaten Lamandau",KALIMANTAN TENGAH,74161.0,Indonesia,81949697844.0,,,-2.1867738,111.4675049,https://maps.google.com/?cid=0x0:0x2136ccd6a323a306,
hardware store,Komplek perumahan,Jaya Baru,"Desa Bukit Harum Depan Lapangan. Ds. Bukit Harum (H6, Kabupaten Lamandau, Kalimantan Tengah 74468",Kabupaten Lamandau,KALIMANTAN TENGAH,74468.0,Indonesia,81250195703.0,,,-2.1293569,111.6449283,https://maps.google.com/?cid=0x0:0x46e4cf885667b4d1,
hardware store,Toko Alat Tulis Kantor,Toko ATK ZOE,"Jl. Ahmad Yani, Nanga Bulik, Kec. Bulik, Kabupaten Lamandau, Kalimantan Tengah 74161","Nanga Bulik, Kec. Bulik, Kabupaten Lamandau",KALIMANTAN TENGAH,74161.0,Indonesia,81251683399.0,,,-2.1772278,111.4426384,https://maps.google.com/?cid=0x0:0xacc24ec0677b0323,
hardware store,Toko,Toko Pak Topo mart,"3FXM+2RM, depan kantor desa, Bukit Jaya, Kec. Bulik Tim., Kabupaten Lamandau, Kalimantan Tengah 74162","depan kantor desa, Bukit Jaya, Kec. Bulik Tim., Kabupaten Lamandau",KALIMANTAN TENGAH,74162.0,Indonesia,81575522647.0,,,-1.9024077,111.4845612,https://maps.google.com/?cid=0x0:0x3acb1100098b9323,
hardware store,Toko Kosmetik,Rifky Cosmetics Lamandau,"Jl. Batu Batanggui No.RT.04, Nanga Bulik, Kec. Bulik, Kabupaten Lamandau, Kalimantan Tengah 74611","Nanga Bulik, Kec. Bulik, Kabupaten Lamandau",KALIMANTAN TENGAH,74611.0,Indonesia,81251989079.0,,,-2.1841045,111.4524628,https://maps.google.com/?cid=0x0:0x1fa517ce427ab70,
hardware store,Toko Bahan Bangunan,TB. BERGUNA,"RCFQ+2M7, Nanga Bulik, Kec. Bulik, Kabupaten Lamandau, Kalimantan Tengah","Kabupaten Lamandau, Kalimantan Tengah",KALIMANTAN TENGAH,,Indonesia,,,,-2.1778949,111.4394425,https://maps.google.com/?cid=0x0:0x6bc5cde13180528e,
hardware store,Kantor Pemerintah,Desa bukit harum,"VM23+7MJ, Bukit Harum, Kec. Menthobi Raya, Kabupaten Lamandau, Kalimantan Tengah 74117","Bukit Harum, Kec. Menthobi Raya, Kabupaten Lamandau",KALIMANTAN TENGAH,74117.0,Indonesia,,,,-2.1492784,111.6541483,https://maps.google.com/?cid=0x0:0x2e8c3e8b8953d5f8,
hardware store,hardware store,Kec. Sematu Jaya,"Kabupaten Lamandau, Kalimantan Tengah","Kabupaten Lamandau, Kalimantan Tengah",KALIMANTAN TENGAH,,Indonesia,,,,-2.2356757,111.5156988,https://maps.google.com/?cid=0x0:0xa84b471e5053bba1,
hardware store,Sekolah menengah,SMA Negeri 1 Sematu Jaya,"Jalan Lintas Kalimantan Desa Purwareja RT. 09, Purworejo, Kec. Sematu Jaya, Kabupaten Lamandau, Kalimantan Tengah 74161","Purworejo, Kec. Sematu Jaya, Kabupaten Lamandau",KALIMANTAN TENGAH,74161.0,Indonesia,85245459996.0,,,-2.2252246,111.5153383,https://maps.google.com/?cid=0x0:0x1246a130ec700ed3,
hardware store,Komplek perumahan,Jaya Baru,"Desa Bukit Harum Depan Lapangan. Ds. Bukit Harum (H6, Kabupaten Lamandau, Kalimantan Tengah 74468",Kabupaten Lamandau,KALIMANTAN TENGAH,74468.0,Indonesia,81250195703.0,,,-2.1293569,111.6449283,https://maps.google.com/?cid=0x0:0x46e4cf885667b4d1,
hardware store,hardware store,Toko Bangunan Berkah Jaya Abadi,"PH94+MGG, Mekar Mulya, Kec. Sematu Jaya, Kabupaten Lamandau, Kalimantan Tengah 74161","Mekar Mulya, Kec. Sematu Jaya, Kabupaten Lamandau",KALIMANTAN TENGAH,74161.0,Indonesia,,,,-2.2808081,111.5563314,https://maps.google.com/?cid=0x0:0xa45025fd8dd831bb,
hardware store,Toko Perlengkapan Rumah,Toko Bangunan Wijaya,"QG77+XXR, Purworejo, Kec. Sematu Jaya, Kabupaten Lamandau, Kalimantan Tengah 74161","Purworejo, Kec. Sematu Jaya, Kabupaten Lamandau",KALIMANTAN TENGAH,74161.0,Indonesia,81385661699.0,,,-2.2350104,111.514896,https://maps.google.com/?cid=0x0:0x47b3e4fd269fd2b1,
hardware store,Toko Mebel,"purworejo, sematu jaya","Unnamed Road, Purworejo, Kec. Sematu Jaya, Kabupaten Lamandau, Kalimantan Tengah 74161","Purworejo, Kec. Sematu Jaya, Kabupaten Lamandau",KALIMANTAN TENGAH,74161.0,Indonesia,85822505916.0,,,-2.2478599,111.5090508,https://maps.google.com/?cid=0x0:0xf0854b85a9f265ac,
hardware store,Kantor Pemerintah,Desa bukit harum,"VM23+7MJ, Bukit Harum, Kec. Menthobi Raya, Kabupaten Lamandau, Kalimantan Tengah 74117","Bukit Harum, Kec. Menthobi Raya, Kabupaten Lamandau",KALIMANTAN TENGAH,74117.0,Indonesia,,,,-2.1492784,111.6541483,https://maps.google.com/?cid=0x0:0x2e8c3e8b8953d5f8,
building materials,Penginapan,SP Melata,"Melata, Kec. Menthobi Raya, Kabupaten Lamandau, Kalimantan Tengah 74162","Kec. Menthobi Raya, Kabupaten Lamandau",KALIMANTAN TENGAH,74162.0,Indonesia,81311669679.0,,,-1.9852984,111.6064513,https://maps.google.com/?cid=0x0:0xb219ccdd9760219c,
building materials,,Maju Jaya Aluminium,"WJMQ+2X3, Bukit Raya, Kec. Menthobi Raya, Kabupaten Lamandau, Kalimantan Tengah","Kabupaten Lamandau, Kalimantan Tengah",KALIMANTAN TENGAH,,Indonesia,85293558488.0,,,-2.0676107,111.6399641,https://maps.google.com/?cid=0x0:0x3e240dbbc437a340,
building materials,Area Wi-Fi,Wood Moulding Tanjung Keminting,"Kina, Kec. Batang Kawa, Kabupaten Lamandau, Kalimantan Tengah 74665","Kec. Batang Kawa, Kabupaten Lamandau",KALIMANTAN TENGAH,74665.0,Indonesia,8115188867.0,,,-1.5035835,111.1477512,https://maps.google.com/?cid=0x0:0xa765ac6109fc5abd,
building materials,building materials,Kalimantan Tengah 74663,"Kabupaten Lamandau, Kalimantan Tengah","Kabupaten Lamandau, Kalimantan Tengah",KALIMANTAN TENGAH,,Indonesia,,,,-1.9269166,111.1891151,https://maps.google.com/?cid=0x0:0xddd786c27266b53a,
building materials,Toko Bahan Bangunan,Kios Griya Indah,"Samu Jaya, Kec. Lamandau, Kabupaten Lamandau, Kalimantan Tengah 74663","Kec. Lamandau, Kabupaten Lamandau",KALIMANTAN TENGAH,74663.0,Indonesia,85391223737.0,,,-1.8819979,111.3291202,https://maps.google.com/?cid=0x0:0xa0f32eb9b51a544,
building materials,Kantor Perusahaan,PT. FLTI,"jl. raya loging km. 26, Sungai Buluh, Kec. Belantikan Raya, Kabupaten Lamandau, Kalimantan Tengah 74663","Sungai Buluh, Kec. Belantikan Raya, Kabupaten Lamandau",KALIMANTAN TENGAH,74663.0,Indonesia,8229908032.0,,,-1.8771491,111.4009374,https://maps.google.com/?cid=0x0:0x3ff47911270ac9e7,
building materials,Pemasok Bahan Bangunan,Toko Kasih Karunia,"RF79+72R, Jl. Tjilik Riwut, Nanga Bulik, Kec. Bulik, Kabupaten Lamandau, Kalimantan Tengah 74161","Jl. Tjilik Riwut, Nanga Bulik, Kec. Bulik, Kabupaten Lamandau",KALIMANTAN TENGAH,74161.0,Indonesia,,,,-2.1867738,111.4675049,https://maps.google.com/?cid=0x0:0x2136ccd6a323a306,
building materials,Toko Bahan Bangunan,TB.KURIOUS,"Translokal, Jl. Ahmad Yani No.184, RT.12, Kec. Bulik, Kabupaten Lamandau, Kalimantan Tengah 74162","Jl. Ahmad Yani No.184, RT.12, Kec. Bulik, Kabupaten Lamandau",KALIMANTAN TENGAH,74162.0,Indonesia,,,,-2.1768456,111.442248,https://maps.google.com/?cid=0x0:0xb12c45b40cb899a2,
building materials,Toko Bahan Bangunan,Cahaya Lamandau,"Jl. Trans Kalimantan No.Km.3, Nanga Bulik, Kec. Bulik, Kabupaten Lamandau, Kalimantan Tengah 74161","Nanga Bulik, Kec. Bulik, Kabupaten Lamandau",KALIMANTAN TENGAH,74161.0,Indonesia,85299727922.0,,,-2.1937252,111.4441104,https://maps.google.com/?cid=0x0:0xc42250fb5d793787,
building materials,Toko Bahan Bangunan,TOKO BTOBIG,"Nanga Bulik, Kec. Bulik, Kabupaten Lamandau, Kalimantan Tengah","Kabupaten Lamandau, Kalimantan Tengah",KALIMANTAN TENGAH,,Indonesia,,,,-2.1897063,111.4664618,https://maps.google.com/?cid=0x0:0x6d2a71e614c73a76,
building materials,Toko Bahan Bangunan,UD Ricky,"Jl. Batu Batanggui No.RT 05c, RW.No 057, Nanga Bulik, Kec. Bulik, Kabupaten Lamandau, Kalimantan Tengah 74162","RW.No 057, Nanga Bulik, Kec. Bulik, Kabupaten Lamandau",KALIMANTAN TENGAH,74162.0,Indonesia,82377677617.0,,,-2.1796736,111.4624643,https://maps.google.com/?cid=0x0:0x2c9564c23429a967,
building materials,Toko Bahan Bangunan,Toko Jadi Jaya,"Jln.Cempaka RT.05 No.48, Nanga Bulik, Kec. Bulik, Kabupaten Lamandau, Kalimantan Tengah 74161","Nanga Bulik, Kec. Bulik, Kabupaten Lamandau",KALIMANTAN TENGAH,74161.0,Indonesia,81256217388.0,,,-2.1770581,111.4646405,https://maps.google.com/?cid=0x0:0xcf3d21450a69a595,
building materials,Pasar bahan bangunan,TB rizky,"RF94+5XP, Nanga Bulik, Kec. Bulik, Kabupaten Lamandau, Kalimantan Tengah 74161","Nanga Bulik, Kec. Bulik, Kabupaten Lamandau",KALIMANTAN TENGAH,74161.0,Indonesia,81257422994.0,,,-2.1820172,111.4575307,https://maps.google.com/?cid=0x0:0xbbede6b09d698692,
building materials,Area Wi-Fi,Wood Moulding Tanjung Keminting,"Kina, Kec. Batang Kawa, Kabupaten Lamandau, Kalimantan Tengah 74665","Kec. Batang Kawa, Kabupaten Lamandau",KALIMANTAN TENGAH,74665.0,Indonesia,8115188867.0,,,-1.5035835,111.1477512,https://maps.google.com/?cid=0x0:0xa765ac6109fc5abd,
building materials,Toko Perlengkapan Rumah,Toko bangunan  besi : Sumber Makmur Sejati,"Kujan, Kec. Bulik, Kabupaten Lamandau, Kalimantan Tengah","Kabupaten Lamandau, Kalimantan Tengah",KALIMANTAN TENGAH,,Indonesia,81254172998.0,,,-2.2080215,111.4648655,https://maps.google.com/?cid=0x0:0xa05b9b29aa3d866a,
building materials,building materials,Sobar Plafon 2,"Jl. Batu Batanggui, Nanga Bulik, Kec. Bulik, Kabupaten Lamandau, Kalimantan Tengah 74161","Nanga Bulik, Kec. Bulik, Kabupaten Lamandau",KALIMANTAN TENGAH,74161.0,Indonesia,82379991999.0,,,-2.1854826,111.4485837,https://maps.google.com/?cid=0x0:0x56058fecfed412a0,
building materials,building materials,rumah singgah,"jalan mas pengaruh, Nanga Bulik, Kec. Bulik, Kabupaten Lamandau, Kalimantan Tengah","Kabupaten Lamandau, Kalimantan Tengah",KALIMANTAN TENGAH,,Indonesia,81348443568.0,,,-2.1798376,111.4232813,https://maps.google.com/?cid=0x0:0xb5edda1ffb371199,
building materials,Toko Bahan Bangunan,Toko Aheng,"RFF7+PM7, Nanga Bulik, Kec. Bulik, Kabupaten Lamandau, Kalimantan Tengah 74161","Nanga Bulik, Kec. Bulik, Kabupaten Lamandau",KALIMANTAN TENGAH,74161.0,Indonesia,,,,-2.175716,111.4641678,https://maps.google.com/?cid=0x0:0x5d673a51c5d0a1b6,
building materials,Toko,Toko Berkah lamandau,"dekat bundaran burung, Jl. Batu Batanggui No.RT 004C, Nanga Bulik, Kec. Bulik, Kabupaten Lamandau, Kalimantan Tengah 74161","Jl. Batu Batanggui No.RT 004C, Nanga Bulik, Kec. Bulik, Kabupaten Lamandau",KALIMANTAN TENGAH,74161.0,Indonesia,,,,-2.1860009,111.4457628,https://maps.google.com/?cid=0x0:0x4845364abe4eddd1,
building materials,building materials,Toko BJA Vendi,"PH94+MGG, Mekar Mulya, Kec. Sematu Jaya, Kabupaten Lamandau, Kalimantan Tengah 74161","Mekar Mulya, Kec. Sematu Jaya, Kabupaten Lamandau",KALIMANTAN TENGAH,74161.0,Indonesia,,,,-2.2805684,111.5562624,https://maps.google.com/?cid=0x0:0x2a4b0a83b888d085,
building materials,Toko Bahan Bangunan,sahabat bangunan,"RF84+R69, Jl. Batu Batanggui, Nanga Bulik, Kec. Bulik, Kabupaten Lamandau, Kalimantan Tengah 74161","Jl. Batu Batanggui, Nanga Bulik, Kec. Bulik, Kabupaten Lamandau",KALIMANTAN TENGAH,74161.0,Indonesia,81255578269.0,,,-2.1829602,111.4556081,https://maps.google.com/?cid=0x0:0xf508897240d8220,
building materials,Toko Bahan Bangunan,Toko Morra Jaya Mandiri,"Jl. Melati Jl. Batu Batanggui No.Pertigaan, Nanga Bulik, Kec. Bulik, Kabupaten Lamandau, Kalimantan Tengah 74611","Nanga Bulik, Kec. Bulik, Kabupaten Lamandau",KALIMANTAN TENGAH,74611.0,Indonesia,85186677913.0,,,-2.1851271,111.4493691,https://maps.google.com/?cid=0x0:0xd1dd13c6f947b63a,
building materials,Toko Bahan Bangunan,TB. BERGUNA,"RCFQ+2M7, Nanga Bulik, Kec. Bulik, Kabupaten Lamandau, Kalimantan Tengah","Kabupaten Lamandau, Kalimantan Tengah",KALIMANTAN TENGAH,,Indonesia,,,,-2.1778949,111.4394425,https://maps.google.com/?cid=0x0:0x6bc5cde13180528e,
building materials,building materials,Kalimantan Tengah 74162,"Kabupaten Lamandau, Kalimantan Tengah","Kabupaten Lamandau, Kalimantan Tengah",KALIMANTAN TENGAH,,Indonesia,,,,-1.7404903,111.5229817,https://maps.google.com/?cid=0x0:0xcbde8a77875b152b,
building materials,Toko Bahan Bangunan,TB.KURIOUS,"Translokal, Jl. Ahmad Yani No.184, RT.12, Kec. Bulik, Kabupaten Lamandau, Kalimantan Tengah 74162","Jl. Ahmad Yani No.184, RT.12, Kec. Bulik, Kabupaten Lamandau",KALIMANTAN TENGAH,74162.0,Indonesia,,,,-2.1768456,111.442248,https://maps.google.com/?cid=0x0:0xb12c45b40cb899a2,
building materials,Toko Bahan Bangunan,UD Ricky,"Jl. Batu Batanggui No.RT 05c, RW.No 057, Nanga Bulik, Kec. Bulik, Kabupaten Lamandau, Kalimantan Tengah 74162","RW.No 057, Nanga Bulik, Kec. Bulik, Kabupaten Lamandau",KALIMANTAN TENGAH,74162.0,Indonesia,82377677617.0,,,-2.1796736,111.4624643,https://maps.google.com/?cid=0x0:0x2c9564c23429a967,
building materials,Pemasok Bahan Bangunan,Toko Kasih Karunia,"RF79+72R, Jl. Tjilik Riwut, Nanga Bulik, Kec. Bulik, Kabupaten Lamandau, Kalimantan Tengah 74161","Jl. Tjilik Riwut, Nanga Bulik, Kec. Bulik, Kabupaten Lamandau",KALIMANTAN TENGAH,74161.0,Indonesia,,,,-2.1867738,111.4675049,https://maps.google.com/?cid=0x0:0x2136ccd6a323a306,
building materials,Toko Bahan Bangunan,Toko Jadi Jaya,"Jln.Cempaka RT.05 No.48, Nanga Bulik, Kec. Bulik, Kabupaten Lamandau, Kalimantan Tengah 74161","Nanga Bulik, Kec. Bulik, Kabupaten Lamandau",KALIMANTAN TENGAH,74161.0,Indonesia,81256217388.0,,,-2.1770581,111.4646405,https://maps.google.com/?cid=0x0:0xcf3d21450a69a595,
building materials,Toko Bahan Bangunan,Toko Aheng,"RFF7+PM7, Nanga Bulik, Kec. Bulik, Kabupaten Lamandau, Kalimantan Tengah 74161","Nanga Bulik, Kec. Bulik, Kabupaten Lamandau",KALIMANTAN TENGAH,74161.0,Indonesia,,,,-2.175716,111.4641678,https://maps.google.com/?cid=0x0:0x5d673a51c5d0a1b6,
building materials,Toko Bahan Bangunan,TB. BERGUNA,"RCFQ+2M7, Nanga Bulik, Kec. Bulik, Kabupaten Lamandau, Kalimantan Tengah","Kabupaten Lamandau, Kalimantan Tengah",KALIMANTAN TENGAH,,Indonesia,,,,-2.1778949,111.4394425,https://maps.google.com/?cid=0x0:0x6bc5cde13180528e,
building materials,Toko Bahan Bangunan,TOKO BTOBIG,"Nanga Bulik, Kec. Bulik, Kabupaten Lamandau, Kalimantan Tengah","Kabupaten Lamandau, Kalimantan Tengah",KALIMANTAN TENGAH,,Indonesia,,,,-2.1897063,111.4664618,https://maps.google.com/?cid=0x0:0x6d2a71e614c73a76,
building materials,Toko Bahan Bangunan,Tuli Angka Gypsum,"RG7C+C27, Unnamed Road, Nanga Bulik, Kec. Bulik, Kabupaten Lamandau, Kalimantan Tengah 74161","Unnamed Road, Nanga Bulik, Kec. Bulik, Kabupaten Lamandau",KALIMANTAN TENGAH,74161.0,Indonesia,81350329659.0,,,-2.1864736,111.5200605,https://maps.google.com/?cid=0x0:0xa538a917ff0f1c3e,
building materials,Toko Bahan Bangunan,Cahaya Lamandau,"Jl. Trans Kalimantan No.Km.3, Nanga Bulik, Kec. Bulik, Kabupaten Lamandau, Kalimantan Tengah 74161","Nanga Bulik, Kec. Bulik, Kabupaten Lamandau",KALIMANTAN TENGAH,74161.0,Indonesia,85299727922.0,,,-2.1937252,111.4441104,https://maps.google.com/?cid=0x0:0xc42250fb5d793787,
building materials,Toko,Toko Berkah lamandau,"dekat bundaran burung, Jl. Batu Batanggui No.RT 004C, Nanga Bulik, Kec. Bulik, Kabupaten Lamandau, Kalimantan Tengah 74161","Jl. Batu Batanggui No.RT 004C, Nanga Bulik, Kec. Bulik, Kabupaten Lamandau",KALIMANTAN TENGAH,74161.0,Indonesia,,,,-2.1860009,111.4457628,https://maps.google.com/?cid=0x0:0x4845364abe4eddd1,
building materials,Toko Bahan Bangunan,sahabat bangunan,"RF84+R69, Jl. Batu Batanggui, Nanga Bulik, Kec. Bulik, Kabupaten Lamandau, Kalimantan Tengah 74161","Jl. Batu Batanggui, Nanga Bulik, Kec. Bulik, Kabupaten Lamandau",KALIMANTAN TENGAH,74161.0,Indonesia,81255578269.0,,,-2.1829602,111.4556081,https://maps.google.com/?cid=0x0:0xf508897240d8220,
building materials,Toko Bahan Bangunan,Toko Morra Jaya Mandiri,"Jl. Melati Jl. Batu Batanggui No.Pertigaan, Nanga Bulik, Kec. Bulik, Kabupaten Lamandau, Kalimantan Tengah 74611","Nanga Bulik, Kec. Bulik, Kabupaten Lamandau",KALIMANTAN TENGAH,74611.0,Indonesia,85186677913.0,,,-2.1851271,111.4493691,https://maps.google.com/?cid=0x0:0xd1dd13c6f947b63a,
building materials,Kantor Perusahaan,Batu bata merah mandiri maju,"RG59+C4F, Jalan simpang sepaku, kujan, Nanga Bulik, Kec. Bulik, Kabupaten Lamandau, Kalimantan Tengah 74161","Jalan simpang sepaku, kujan, Nanga Bulik, Kec. Bulik, Kabupaten Lamandau",KALIMANTAN TENGAH,74161.0,Indonesia,87817856613.0,,,-2.1914316,111.5177959,https://maps.google.com/?cid=0x0:0xc2fd3be4caba406e,
building materials,Toko Alat Listrik,TOKO ALAT LISTRIK DAN BUKU SINAR UTAMA,"RCFW+682, Nanga Bulik, Kec. Bulik, Kabupaten Lamandau, Kalimantan Tengah 74161","Nanga Bulik, Kec. Bulik, Kabupaten Lamandau",KALIMANTAN TENGAH,74161.0,Indonesia,85252800900.0,,,-2.1769984,111.4457805,https://maps.google.com/?cid=0x0:0xb8f049024681bf76,
building materials,building materials,rumah singgah,"jalan mas pengaruh, Nanga Bulik, Kec. Bulik, Kabupaten Lamandau, Kalimantan Tengah","Kabupaten Lamandau, Kalimantan Tengah",KALIMANTAN TENGAH,,Indonesia,81348443568.0,,,-2.1798376,111.4232813,https://maps.google.com/?cid=0x0:0xb5edda1ffb371199,
building materials,building materials,Sobar Plafon 2,"Jl. Batu Batanggui, Nanga Bulik, Kec. Bulik, Kabupaten Lamandau, Kalimantan Tengah 74161","Nanga Bulik, Kec. Bulik, Kabupaten Lamandau",KALIMANTAN TENGAH,74161.0,Indonesia,82379991999.0,,,-2.1854826,111.4485837,https://maps.google.com/?cid=0x0:0x56058fecfed412a0,
building materials,Pusat Perbelanjaan,TOKO AYNI JAYA,"BTN belakang koramil Jl. Bukit Hibul Barat, Nanga Bulik, Kec. Bulik, Kabupaten Lamandau, Kalimantan Tengah 74162","Nanga Bulik, Kec. Bulik, Kabupaten Lamandau",KALIMANTAN TENGAH,74162.0,Indonesia,82352789985.0,,,-2.1794843,111.4315128,https://maps.google.com/?cid=0x0:0x185ed54df3b1ea93,
building materials,building materials,Kalimantan Tengah 74611,"Kec. Bulik, Kabupaten Lamandau, Kalimantan Tengah","Kabupaten Lamandau, Kalimantan Tengah",KALIMANTAN TENGAH,,Indonesia,,,,-2.0058667,111.4395128,https://maps.google.com/?cid=0x0:0xb6c8a0a464bd3c0c,
building materials,Toko Bahan Bangunan,TB.KURIOUS,"Translokal, Jl. Ahmad Yani No.184, RT.12, Kec. Bulik, Kabupaten Lamandau, Kalimantan Tengah 74162","Jl. Ahmad Yani No.184, RT.12, Kec. Bulik, Kabupaten Lamandau",KALIMANTAN TENGAH,74162.0,Indonesia,,,,-2.1768456,111.442248,https://maps.google.com/?cid=0x0:0xb12c45b40cb899a2,
building materials,Toko Bahan Bangunan,TOKO BTOBIG,"Nanga Bulik, Kec. Bulik, Kabupaten Lamandau, Kalimantan Tengah","Kabupaten Lamandau, Kalimantan Tengah",KALIMANTAN TENGAH,,Indonesia,,,,-2.1897063,111.4664618,https://maps.google.com/?cid=0x0:0x6d2a71e614c73a76,
building materials,Pasar bahan bangunan,TB rizky,"RF94+5XP, Nanga Bulik, Kec. Bulik, Kabupaten Lamandau, Kalimantan Tengah 74161","Nanga Bulik, Kec. Bulik, Kabupaten Lamandau",KALIMANTAN TENGAH,74161.0,Indonesia,81257422994.0,,,-2.1820172,111.4575307,https://maps.google.com/?cid=0x0:0xbbede6b09d698692,
building materials,Toko Bahan Bangunan,Tuli Angka Gypsum,"RG7C+C27, Unnamed Road, Nanga Bulik, Kec. Bulik, Kabupaten Lamandau, Kalimantan Tengah 74161","Unnamed Road, Nanga Bulik, Kec. Bulik, Kabupaten Lamandau",KALIMANTAN TENGAH,74161.0,Indonesia,81350329659.0,,,-2.1864736,111.5200605,https://maps.google.com/?cid=0x0:0xa538a917ff0f1c3e,
building materials,Toko Bahan Bangunan,Cahaya Lamandau,"Jl. Trans Kalimantan No.Km.3, Nanga Bulik, Kec. Bulik, Kabupaten Lamandau, Kalimantan Tengah 74161","Nanga Bulik, Kec. Bulik, Kabupaten Lamandau",KALIMANTAN TENGAH,74161.0,Indonesia,85299727922.0,,,-2.1937252,111.4441104,https://maps.google.com/?cid=0x0:0xc42250fb5d793787,
building materials,Kantor Perusahaan,Batu bata merah mandiri maju,"RG59+C4F, Jalan simpang sepaku, kujan, Nanga Bulik, Kec. Bulik, Kabupaten Lamandau, Kalimantan Tengah 74161","Jalan simpang sepaku, kujan, Nanga Bulik, Kec. Bulik, Kabupaten Lamandau",KALIMANTAN TENGAH,74161.0,Indonesia,87817856613.0,,,-2.1914316,111.5177959,https://maps.google.com/?cid=0x0:0xc2fd3be4caba406e,
building materials,Toko Bahan Bangunan,UD Ricky,"Jl. Batu Batanggui No.RT 05c, RW.No 057, Nanga Bulik, Kec. Bulik, Kabupaten Lamandau, Kalimantan Tengah 74162","RW.No 057, Nanga Bulik, Kec. Bulik, Kabupaten Lamandau",KALIMANTAN TENGAH,74162.0,Indonesia,82377677617.0,,,-2.1796736,111.4624643,https://maps.google.com/?cid=0x0:0x2c9564c23429a967,
building materials,Toko,Toko Berkah lamandau,"dekat bundaran burung, Jl. Batu Batanggui No.RT 004C, Nanga Bulik, Kec. Bulik, Kabupaten Lamandau, Kalimantan Tengah 74161","Jl. Batu Batanggui No.RT 004C, Nanga Bulik, Kec. Bulik, Kabupaten Lamandau",KALIMANTAN TENGAH,74161.0,Indonesia,,,,-2.1860009,111.4457628,https://maps.google.com/?cid=0x0:0x4845364abe4eddd1,
building materials,Toko Perlengkapan Rumah,Toko bangunan  besi : Sumber Makmur Sejati,"Kujan, Kec. Bulik, Kabupaten Lamandau, Kalimantan Tengah","Kabupaten Lamandau, Kalimantan Tengah",KALIMANTAN TENGAH,,Indonesia,81254172998.0,,,-2.2080215,111.4648655,https://maps.google.com/?cid=0x0:0xa05b9b29aa3d866a,
building materials,Toko Bahan Bangunan,sahabat bangunan,"RF84+R69, Jl. Batu Batanggui, Nanga Bulik, Kec. Bulik, Kabupaten Lamandau, Kalimantan Tengah 74161","Jl. Batu Batanggui, Nanga Bulik, Kec. Bulik, Kabupaten Lamandau",KALIMANTAN TENGAH,74161.0,Indonesia,81255578269.0,,,-2.1829602,111.4556081,https://maps.google.com/?cid=0x0:0xf508897240d8220,
building materials,Toko Bahan Bangunan,TB. BERGUNA,"RCFQ+2M7, Nanga Bulik, Kec. Bulik, Kabupaten Lamandau, Kalimantan Tengah","Kabupaten Lamandau, Kalimantan Tengah",KALIMANTAN TENGAH,,Indonesia,,,,-2.1778949,111.4394425,https://maps.google.com/?cid=0x0:0x6bc5cde13180528e,
building materials,building materials,Toko BJA Vendi,"PH94+MGG, Mekar Mulya, Kec. Sematu Jaya, Kabupaten Lamandau, Kalimantan Tengah 74161","Mekar Mulya, Kec. Sematu Jaya, Kabupaten Lamandau",KALIMANTAN TENGAH,74161.0,Indonesia,,,,-2.2805684,111.5562624,https://maps.google.com/?cid=0x0:0x2a4b0a83b888d085,
building materials,Toko Penganan,MR.DIY,"Jl. Batu Batanggui No.RT 4, Nanga Bulik, Kec. Bulik, Kabupaten Lamandau, Kalimantan Tengah 74611","Nanga Bulik, Kec. Bulik, Kabupaten Lamandau",KALIMANTAN TENGAH,74611.0,Indonesia,,,,-2.1842885,111.4521645,https://maps.google.com/?cid=0x0:0x3c9ce6ac8256576,
building materials,Pasar bahan bangunan,Toko bangunan DARUL AMIEN,"RF95+73V, Jl. Batu Batanggui, Nanga Bulik, Kec. Bulik, Kabupaten Lamandau, Kalimantan Tengah 74161","Jl. Batu Batanggui, Nanga Bulik, Kec. Bulik, Kabupaten Lamandau",KALIMANTAN TENGAH,74161.0,Indonesia,81257422994.0,,,-2.1817517,111.4576845,https://maps.google.com/?cid=0x0:0x96fda81b818c6a7c,
building materials,Toko Perlengkapan Rumah,Toko Mebel  Bangunan Nabila,"QGVQ+XGP, Bina Bhakti, Kec. Sematu Jaya, Kabupaten Lamandau, Kalimantan Tengah 74161","Bina Bhakti, Kec. Sematu Jaya, Kabupaten Lamandau",KALIMANTAN TENGAH,74161.0,Indonesia,82159067865.0,,,-2.2050273,111.5388328,https://maps.google.com/?cid=0x0:0x74379664805fa7d4,
building materials,Toko Bahan Bangunan,TOKO JAY BANGUNAN,"Bukit Jaya, Kec. Bulik Tim., Kabupaten Lamandau, Kalimantan Tengah 74162","Kec. Bulik Tim., Kabupaten Lamandau",KALIMANTAN TENGAH,74162.0,Indonesia,85249274295.0,,,-1.9059377,111.4844697,https://maps.google.com/?cid=0x0:0x80de72b8628100fe,
building materials,building materials,Kalimantan Tengah 74612,"Kec. Bulik, Kabupaten Lamandau, Kalimantan Tengah","Kabupaten Lamandau, Kalimantan Tengah",KALIMANTAN TENGAH,,Indonesia,,,,-2.0421323,111.463361,https://maps.google.com/?cid=0x0:0xc38ed0bb98a86bd0,
building materials,Toko Bahan Bangunan,TB.KURIOUS,"Translokal, Jl. Ahmad Yani No.184, RT.12, Kec. Bulik, Kabupaten Lamandau, Kalimantan Tengah 74162","Jl. Ahmad Yani No.184, RT.12, Kec. Bulik, Kabupaten Lamandau",KALIMANTAN TENGAH,74162.0,Indonesia,,,,-2.1768456,111.442248,https://maps.google.com/?cid=0x0:0xb12c45b40cb899a2,
building materials,Pemasok Bahan Bangunan,Toko Kasih Karunia,"RF79+72R, Jl. Tjilik Riwut, Nanga Bulik, Kec. Bulik, Kabupaten Lamandau, Kalimantan Tengah 74161","Jl. Tjilik Riwut, Nanga Bulik, Kec. Bulik, Kabupaten Lamandau",KALIMANTAN TENGAH,74161.0,Indonesia,,,,-2.1867738,111.4675049,https://maps.google.com/?cid=0x0:0x2136ccd6a323a306,
building materials,Toko Bahan Bangunan,TOKO BTOBIG,"Nanga Bulik, Kec. Bulik, Kabupaten Lamandau, Kalimantan Tengah","Kabupaten Lamandau, Kalimantan Tengah",KALIMANTAN TENGAH,,Indonesia,,,,-2.1897063,111.4664618,https://maps.google.com/?cid=0x0:0x6d2a71e614c73a76,
building materials,Toko Bahan Bangunan,Tuli Angka Gypsum,"RG7C+C27, Unnamed Road, Nanga Bulik, Kec. Bulik, Kabupaten Lamandau, Kalimantan Tengah 74161","Unnamed Road, Nanga Bulik, Kec. Bulik, Kabupaten Lamandau",KALIMANTAN TENGAH,74161.0,Indonesia,81350329659.0,,,-2.1864736,111.5200605,https://maps.google.com/?cid=0x0:0xa538a917ff0f1c3e,
building materials,Pasar bahan bangunan,TB rizky,"RF94+5XP, Nanga Bulik, Kec. Bulik, Kabupaten Lamandau, Kalimantan Tengah 74161","Nanga Bulik, Kec. Bulik, Kabupaten Lamandau",KALIMANTAN TENGAH,74161.0,Indonesia,81257422994.0,,,-2.1820172,111.4575307,https://maps.google.com/?cid=0x0:0xbbede6b09d698692,
building materials,Toko Bahan Bangunan,Cahaya Lamandau,"Jl. Trans Kalimantan No.Km.3, Nanga Bulik, Kec. Bulik, Kabupaten Lamandau, Kalimantan Tengah 74161","Nanga Bulik, Kec. Bulik, Kabupaten Lamandau",KALIMANTAN TENGAH,74161.0,Indonesia,85299727922.0,,,-2.1937252,111.4441104,https://maps.google.com/?cid=0x0:0xc42250fb5d793787,
building materials,Kantor Perusahaan,Batu bata merah mandiri maju,"RG59+C4F, Jalan simpang sepaku, kujan, Nanga Bulik, Kec. Bulik, Kabupaten Lamandau, Kalimantan Tengah 74161","Jalan simpang sepaku, kujan, Nanga Bulik, Kec. Bulik, Kabupaten Lamandau",KALIMANTAN TENGAH,74161.0,Indonesia,87817856613.0,,,-2.1914316,111.5177959,https://maps.google.com/?cid=0x0:0xc2fd3be4caba406e,
building materials,Toko Bahan Bangunan,UD Ricky,"Jl. Batu Batanggui No.RT 05c, RW.No 057, Nanga Bulik, Kec. Bulik, Kabupaten Lamandau, Kalimantan Tengah 74162","RW.No 057, Nanga Bulik, Kec. Bulik, Kabupaten Lamandau",KALIMANTAN TENGAH,74162.0,Indonesia,82377677617.0,,,-2.1796736,111.4624643,https://maps.google.com/?cid=0x0:0x2c9564c23429a967,
building materials,Toko,Toko Berkah lamandau,"dekat bundaran burung, Jl. Batu Batanggui No.RT 004C, Nanga Bulik, Kec. Bulik, Kabupaten Lamandau, Kalimantan Tengah 74161","Jl. Batu Batanggui No.RT 004C, Nanga Bulik, Kec. Bulik, Kabupaten Lamandau",KALIMANTAN TENGAH,74161.0,Indonesia,,,,-2.1860009,111.4457628,https://maps.google.com/?cid=0x0:0x4845364abe4eddd1,
building materials,Toko Perlengkapan Rumah,Toko bangunan  besi : Sumber Makmur Sejati,"Kujan, Kec. Bulik, Kabupaten Lamandau, Kalimantan Tengah","Kabupaten Lamandau, Kalimantan Tengah",KALIMANTAN TENGAH,,Indonesia,81254172998.0,,,-2.2080215,111.4648655,https://maps.google.com/?cid=0x0:0xa05b9b29aa3d866a,
building materials,Toko Bahan Bangunan,sahabat bangunan,"RF84+R69, Jl. Batu Batanggui, Nanga Bulik, Kec. Bulik, Kabupaten Lamandau, Kalimantan Tengah 74161","Jl. Batu Batanggui, Nanga Bulik, Kec. Bulik, Kabupaten Lamandau",KALIMANTAN TENGAH,74161.0,Indonesia,81255578269.0,,,-2.1829602,111.4556081,https://maps.google.com/?cid=0x0:0xf508897240d8220,
building materials,Perusahaan Konstruksi,PT. KBP SEIT LAMANDAU,"R95Q+57, Nanga Bulik, Kec. Bulik, Kabupaten Lamandau, Kalimantan Tengah","Kabupaten Lamandau, Kalimantan Tengah",KALIMANTAN TENGAH,,Indonesia,,,,-2.1920599,111.3881362,https://maps.google.com/?cid=0x0:0xc473c1f21e86589a,
building materials,Toko Bahan Bangunan,TB. BERGUNA,"RCFQ+2M7, Nanga Bulik, Kec. Bulik, Kabupaten Lamandau, Kalimantan Tengah","Kabupaten Lamandau, Kalimantan Tengah",KALIMANTAN TENGAH,,Indonesia,,,,-2.1778949,111.4394425,https://maps.google.com/?cid=0x0:0x6bc5cde13180528e,
building materials,building materials,Toko BJA Vendi,"PH94+MGG, Mekar Mulya, Kec. Sematu Jaya, Kabupaten Lamandau, Kalimantan Tengah 74161","Mekar Mulya, Kec. Sematu Jaya, Kabupaten Lamandau",KALIMANTAN TENGAH,74161.0,Indonesia,,,,-2.2805684,111.5562624,https://maps.google.com/?cid=0x0:0x2a4b0a83b888d085,
building materials,Pasar bahan bangunan,Toko bangunan DARUL AMIEN,"RF95+73V, Jl. Batu Batanggui, Nanga Bulik, Kec. Bulik, Kabupaten Lamandau, Kalimantan Tengah 74161","Jl. Batu Batanggui, Nanga Bulik, Kec. Bulik, Kabupaten Lamandau",KALIMANTAN TENGAH,74161.0,Indonesia,81257422994.0,,,-2.1817517,111.4576845,https://maps.google.com/?cid=0x0:0x96fda81b818c6a7c,
building materials,Toko Perlengkapan Rumah,Toko Bangunan Wijaya,"QG77+XXR, Purworejo, Kec. Sematu Jaya, Kabupaten Lamandau, Kalimantan Tengah 74161","Purworejo, Kec. Sematu Jaya, Kabupaten Lamandau",KALIMANTAN TENGAH,74161.0,Indonesia,,,,-2.2350104,111.514896,https://maps.google.com/?cid=0x0:0x47b3e4fd269fd2b1,
building materials,Toko Bahan Bangunan,TOKO JAY BANGUNAN,"Bukit Jaya, Kec. Bulik Tim., Kabupaten Lamandau, Kalimantan Tengah 74162","Kec. Bulik Tim., Kabupaten Lamandau",KALIMANTAN TENGAH,74162.0,Indonesia,85249274295.0,,,-1.9059377,111.4844697,https://maps.google.com/?cid=0x0:0x80de72b8628100fe,
building materials,Toko Perlengkapan Rumah,Toko Mebel  Bangunan Nabila,"QGVQ+XGP, Bina Bhakti, Kec. Sematu Jaya, Kabupaten Lamandau, Kalimantan Tengah 74161","Bina Bhakti, Kec. Sematu Jaya, Kabupaten Lamandau",KALIMANTAN TENGAH,74161.0,Indonesia,82159067865.0,,,-2.2050273,111.5388328,https://maps.google.com/?cid=0x0:0x74379664805fa7d4,
building materials,building materials,Toko nabila,"PHV4+F3F, Jangkar Prima, Kec. Sematu Jaya, Kabupaten Lamandau, Kalimantan Tengah 74161","Jangkar Prima, Kec. Sematu Jaya, Kabupaten Lamandau",KALIMANTAN TENGAH,74161.0,Indonesia,,,,-2.2563245,111.5551795,https://maps.google.com/?cid=0x0:0x1b078d3fb7184763,
building materials,building materials,Kalimantan Tengah 74162,"Kabupaten Lamandau, Kalimantan Tengah","Kabupaten Lamandau, Kalimantan Tengah",KALIMANTAN TENGAH,,Indonesia,,,,-1.7404903,111.5229817,https://maps.google.com/?cid=0x0:0xcbde8a77875b152b,
building materials,Toko Bahan Bangunan,TB.KURIOUS,"Translokal, Jl. Ahmad Yani No.184, RT.12, Kec. Bulik, Kabupaten Lamandau, Kalimantan Tengah 74162","Jl. Ahmad Yani No.184, RT.12, Kec. Bulik, Kabupaten Lamandau",KALIMANTAN TENGAH,74162.0,Indonesia,,,,-2.1768456,111.442248,https://maps.google.com/?cid=0x0:0xb12c45b40cb899a2,
building materials,Toko Bahan Bangunan,UD Ricky,"Jl. Batu Batanggui No.RT 05c, RW.No 057, Nanga Bulik, Kec. Bulik, Kabupaten Lamandau, Kalimantan Tengah 74162","RW.No 057, Nanga Bulik, Kec. Bulik, Kabupaten Lamandau",KALIMANTAN TENGAH,74162.0,Indonesia,82377677617.0,,,-2.1796736,111.4624643,https://maps.google.com/?cid=0x0:0x2c9564c23429a967,
building materials,Pemasok Bahan Bangunan,Toko Kasih Karunia,"RF79+72R, Jl. Tjilik Riwut, Nanga Bulik, Kec. Bulik, Kabupaten Lamandau, Kalimantan Tengah 74161","Jl. Tjilik Riwut, Nanga Bulik, Kec. Bulik, Kabupaten Lamandau",KALIMANTAN TENGAH,74161.0,Indonesia,,,,-2.1867738,111.4675049,https://maps.google.com/?cid=0x0:0x2136ccd6a323a306,
building materials,Toko Bahan Bangunan,Toko Jadi Jaya,"Jln.Cempaka RT.05 No.48, Nanga Bulik, Kec. Bulik, Kabupaten Lamandau, Kalimantan Tengah 74161","Nanga Bulik, Kec. Bulik, Kabupaten Lamandau",KALIMANTAN TENGAH,74161.0,Indonesia,81256217388.0,,,-2.1770581,111.4646405,https://maps.google.com/?cid=0x0:0xcf3d21450a69a595,
building materials,Toko Bahan Bangunan,TOKO BTOBIG,"Nanga Bulik, Kec. Bulik, Kabupaten Lamandau, Kalimantan Tengah","Kabupaten Lamandau, Kalimantan Tengah",KALIMANTAN TENGAH,,Indonesia,,,,-2.1897063,111.4664618,https://maps.google.com/?cid=0x0:0x6d2a71e614c73a76,
building materials,Toko Bahan Bangunan,Tuli Angka Gypsum,"RG7C+C27, Unnamed Road, Nanga Bulik, Kec. Bulik, Kabupaten Lamandau, Kalimantan Tengah 74161","Unnamed Road, Nanga Bulik, Kec. Bulik, Kabupaten Lamandau",KALIMANTAN TENGAH,74161.0,Indonesia,81350329659.0,,,-2.1864736,111.5200605,https://maps.google.com/?cid=0x0:0xa538a917ff0f1c3e,
building materials,Toko Bahan Bangunan,Toko Aheng,"RFF7+PM7, Nanga Bulik, Kec. Bulik, Kabupaten Lamandau, Kalimantan Tengah 74161","Nanga Bulik, Kec. Bulik, Kabupaten Lamandau",KALIMANTAN TENGAH,74161.0,Indonesia,,,,-2.175716,111.4641678,https://maps.google.com/?cid=0x0:0x5d673a51c5d0a1b6,
building materials,Toko Bahan Bangunan,TB. BERGUNA,"RCFQ+2M7, Nanga Bulik, Kec. Bulik, Kabupaten Lamandau, Kalimantan Tengah","Kabupaten Lamandau, Kalimantan Tengah",KALIMANTAN TENGAH,,Indonesia,,,,-2.1778949,111.4394425,https://maps.google.com/?cid=0x0:0x6bc5cde13180528e,
building materials,Toko Bahan Bangunan,sahabat bangunan,"RF84+R69, Jl. Batu Batanggui, Nanga Bulik, Kec. Bulik, Kabupaten Lamandau, Kalimantan Tengah 74161","Jl. Batu Batanggui, Nanga Bulik, Kec. Bulik, Kabupaten Lamandau",KALIMANTAN TENGAH,74161.0,Indonesia,81255578269.0,,,-2.1829602,111.4556081,https://maps.google.com/?cid=0x0:0xf508897240d8220,
building materials,Kantor Perusahaan,Batu bata merah mandiri maju,"RG59+C4F, Jalan simpang sepaku, kujan, Nanga Bulik, Kec. Bulik, Kabupaten Lamandau, Kalimantan Tengah 74161","Jalan simpang sepaku, kujan, Nanga Bulik, Kec. Bulik, Kabupaten Lamandau",KALIMANTAN TENGAH,74161.0,Indonesia,87817856613.0,,,-2.1914316,111.5177959,https://maps.google.com/?cid=0x0:0xc2fd3be4caba406e,
building materials,Toko Bahan Bangunan,Cahaya Lamandau,"Jl. Trans Kalimantan No.Km.3, Nanga Bulik, Kec. Bulik, Kabupaten Lamandau, Kalimantan Tengah 74161","Nanga Bulik, Kec. Bulik, Kabupaten Lamandau",KALIMANTAN TENGAH,74161.0,Indonesia,85299727922.0,,,-2.1937252,111.4441104,https://maps.google.com/?cid=0x0:0xc42250fb5d793787,
building materials,Toko Bahan Bangunan,TOKO JAY BANGUNAN,"Bukit Jaya, Kec. Bulik Tim., Kabupaten Lamandau, Kalimantan Tengah 74162","Kec. Bulik Tim., Kabupaten Lamandau",KALIMANTAN TENGAH,74162.0,Indonesia,85249274295.0,,,-1.9059377,111.4844697,https://maps.google.com/?cid=0x0:0x80de72b8628100fe,
building materials,Toko,Toko Berkah lamandau,"dekat bundaran burung, Jl. Batu Batanggui No.RT 004C, Nanga Bulik, Kec. Bulik, Kabupaten Lamandau, Kalimantan Tengah 74161","Jl. Batu Batanggui No.RT 004C, Nanga Bulik, Kec. Bulik, Kabupaten Lamandau",KALIMANTAN TENGAH,74161.0,Indonesia,,,,-2.1860009,111.4457628,https://maps.google.com/?cid=0x0:0x4845364abe4eddd1,
building materials,building materials,Sobar Plafon 2,"Jl. Batu Batanggui, Nanga Bulik, Kec. Bulik, Kabupaten Lamandau, Kalimantan Tengah 74161","Nanga Bulik, Kec. Bulik, Kabupaten Lamandau",KALIMANTAN TENGAH,74161.0,Indonesia,82379991999.0,,,-2.1854826,111.4485837,https://maps.google.com/?cid=0x0:0x56058fecfed412a0,
building materials,Toko Bahan Bangunan,Toko Morra Jaya Mandiri,"Jl. Melati Jl. Batu Batanggui No.Pertigaan, Nanga Bulik, Kec. Bulik, Kabupaten Lamandau, Kalimantan Tengah 74611","Nanga Bulik, Kec. Bulik, Kabupaten Lamandau",KALIMANTAN TENGAH,74611.0,Indonesia,85186677913.0,,,-2.1851271,111.4493691,https://maps.google.com/?cid=0x0:0xd1dd13c6f947b63a,
building materials,Pusat Perbelanjaan,TOKO AYNI JAYA,"BTN belakang koramil Jl. Bukit Hibul Barat, Nanga Bulik, Kec. Bulik, Kabupaten Lamandau, Kalimantan Tengah 74162","Nanga Bulik, Kec. Bulik, Kabupaten Lamandau",KALIMANTAN TENGAH,74162.0,Indonesia,82352789985.0,,,-2.1794843,111.4315128,https://maps.google.com/?cid=0x0:0x185ed54df3b1ea93,
building materials,building materials,rumah singgah,"jalan mas pengaruh, Nanga Bulik, Kec. Bulik, Kabupaten Lamandau, Kalimantan Tengah","Kabupaten Lamandau, Kalimantan Tengah",KALIMANTAN TENGAH,,Indonesia,81348443568.0,,,-2.1798376,111.4232813,https://maps.google.com/?cid=0x0:0xb5edda1ffb371199,
building materials,Pasar bahan bangunan,Toko bangunan DARUL AMIEN,"RF95+73V, Jl. Batu Batanggui, Nanga Bulik, Kec. Bulik, Kabupaten Lamandau, Kalimantan Tengah 74161","Jl. Batu Batanggui, Nanga Bulik, Kec. Bulik, Kabupaten Lamandau",KALIMANTAN TENGAH,74161.0,Indonesia,81257422994.0,,,-2.1817517,111.4576845,https://maps.google.com/?cid=0x0:0x96fda81b818c6a7c,
building materials,Toko Alat Listrik,TOKO ALAT LISTRIK DAN BUKU SINAR UTAMA,"RCFW+682, Nanga Bulik, Kec. Bulik, Kabupaten Lamandau, Kalimantan Tengah 74161","Nanga Bulik, Kec. Bulik, Kabupaten Lamandau",KALIMANTAN TENGAH,74161.0,Indonesia,85252800900.0,,,-2.1769984,111.4457805,https://maps.google.com/?cid=0x0:0xb8f049024681bf76,
building materials,Area Wi-Fi,Wood Moulding Tanjung Keminting,"Kina, Kec. Batang Kawa, Kabupaten Lamandau, Kalimantan Tengah 74665","Kec. Batang Kawa, Kabupaten Lamandau",KALIMANTAN TENGAH,74665.0,Indonesia,8115188867.0,,,-1.5035835,111.1477512,https://maps.google.com/?cid=0x0:0xa765ac6109fc5abd,
building materials,Pemasok Bahan Bangunan,Toko Kasih Karunia,"RF79+72R, Jl. Tjilik Riwut, Nanga Bulik, Kec. Bulik, Kabupaten Lamandau, Kalimantan Tengah 74161","Jl. Tjilik Riwut, Nanga Bulik, Kec. Bulik, Kabupaten Lamandau",KALIMANTAN TENGAH,74161.0,Indonesia,,,,-2.1867738,111.4675049,https://maps.google.com/?cid=0x0:0x2136ccd6a323a306,
building materials,Toko Bahan Bangunan,Toko Jadi Jaya,"Jln.Cempaka RT.05 No.48, Nanga Bulik, Kec. Bulik, Kabupaten Lamandau, Kalimantan Tengah 74161","Nanga Bulik, Kec. Bulik, Kabupaten Lamandau",KALIMANTAN TENGAH,74161.0,Indonesia,81256217388.0,,,-2.1770581,111.4646405,https://maps.google.com/?cid=0x0:0xcf3d21450a69a595,
building materials,building materials,Kalimantan Tengah 74663,"Kabupaten Lamandau, Kalimantan Tengah","Kabupaten Lamandau, Kalimantan Tengah",KALIMANTAN TENGAH,,Indonesia,,,,-1.9269166,111.1891151,https://maps.google.com/?cid=0x0:0xddd786c27266b53a,
building materials,Toko Bahan Bangunan,Kios Griya Indah,"Samu Jaya, Kec. Lamandau, Kabupaten Lamandau, Kalimantan Tengah 74663","Kec. Lamandau, Kabupaten Lamandau",KALIMANTAN TENGAH,74663.0,Indonesia,85391223737.0,,,-1.8819979,111.3291202,https://maps.google.com/?cid=0x0:0xa0f32eb9b51a544,
building materials,Toko Bahan Bangunan,Toko Rizal,"489C+2V6, Jalan Poros, Tapin Bini, Kec. Lamandau, Kabupaten Lamandau, Kalimantan Tengah","Kabupaten Lamandau, Kalimantan Tengah",KALIMANTAN TENGAH,,Indonesia,83252131983.0,,,-1.882395,111.3219574,https://maps.google.com/?cid=0x0:0xcfe5546d18eff254,
building materials,Toko Bahan Bangunan,Cahaya Lamandau,"Jl. Trans Kalimantan No.Km.3, Nanga Bulik, Kec. Bulik, Kabupaten Lamandau, Kalimantan Tengah 74161","Nanga Bulik, Kec. Bulik, Kabupaten Lamandau",KALIMANTAN TENGAH,74161.0,Indonesia,85299727922.0,,,-2.1937252,111.4441104,https://maps.google.com/?cid=0x0:0xc42250fb5d793787,
building materials,Pemasok Bahan Bangunan,Toko Kasih Karunia,"RF79+72R, Jl. Tjilik Riwut, Nanga Bulik, Kec. Bulik, Kabupaten Lamandau, Kalimantan Tengah 74161","Jl. Tjilik Riwut, Nanga Bulik, Kec. Bulik, Kabupaten Lamandau",KALIMANTAN TENGAH,74161.0,Indonesia,,,,-2.1867738,111.4675049,https://maps.google.com/?cid=0x0:0x2136ccd6a323a306,
building materials,Toko Bahan Bangunan,TB.KURIOUS,"Translokal, Jl. Ahmad Yani No.184, RT.12, Kec. Bulik, Kabupaten Lamandau, Kalimantan Tengah 74162","Jl. Ahmad Yani No.184, RT.12, Kec. Bulik, Kabupaten Lamandau",KALIMANTAN TENGAH,74162.0,Indonesia,,,,-2.1768456,111.442248,https://maps.google.com/?cid=0x0:0xb12c45b40cb899a2,
building materials,Toko Bahan Bangunan,Tuli Angka Gypsum,"RG7C+C27, Unnamed Road, Nanga Bulik, Kec. Bulik, Kabupaten Lamandau, Kalimantan Tengah 74161","Unnamed Road, Nanga Bulik, Kec. Bulik, Kabupaten Lamandau",KALIMANTAN TENGAH,74161.0,Indonesia,81350329659.0,,,-2.1864736,111.5200605,https://maps.google.com/?cid=0x0:0xa538a917ff0f1c3e,
building materials,Toko Bahan Bangunan,Toko Jadi Jaya,"Jln.Cempaka RT.05 No.48, Nanga Bulik, Kec. Bulik, Kabupaten Lamandau, Kalimantan Tengah 74161","Nanga Bulik, Kec. Bulik, Kabupaten Lamandau",KALIMANTAN TENGAH,74161.0,Indonesia,81256217388.0,,,-2.1770581,111.4646405,https://maps.google.com/?cid=0x0:0xcf3d21450a69a595,
building materials,Kantor Perusahaan,Batu bata merah mandiri maju,"RG59+C4F, Jalan simpang sepaku, kujan, Nanga Bulik, Kec. Bulik, Kabupaten Lamandau, Kalimantan Tengah 74161","Jalan simpang sepaku, kujan, Nanga Bulik, Kec. Bulik, Kabupaten Lamandau",KALIMANTAN TENGAH,74161.0,Indonesia,87817856613.0,,,-2.1914316,111.5177959,https://maps.google.com/?cid=0x0:0xc2fd3be4caba406e,
building materials,Toko Bahan Bangunan,UD Ricky,"Jl. Batu Batanggui No.RT 05c, RW.No 057, Nanga Bulik, Kec. Bulik, Kabupaten Lamandau, Kalimantan Tengah 74162","RW.No 057, Nanga Bulik, Kec. Bulik, Kabupaten Lamandau",KALIMANTAN TENGAH,74162.0,Indonesia,82377677617.0,,,-2.1796736,111.4624643,https://maps.google.com/?cid=0x0:0x2c9564c23429a967,
building materials,Toko Bahan Bangunan,TOKO BTOBIG,"Nanga Bulik, Kec. Bulik, Kabupaten Lamandau, Kalimantan Tengah","Kabupaten Lamandau, Kalimantan Tengah",KALIMANTAN TENGAH,,Indonesia,,,,-2.1897063,111.4664618,https://maps.google.com/?cid=0x0:0x6d2a71e614c73a76,
building materials,Pasar bahan bangunan,TB rizky,"RF94+5XP, Nanga Bulik, Kec. Bulik, Kabupaten Lamandau, Kalimantan Tengah 74161","Nanga Bulik, Kec. Bulik, Kabupaten Lamandau",KALIMANTAN TENGAH,74161.0,Indonesia,81257422994.0,,,-2.1820172,111.4575307,https://maps.google.com/?cid=0x0:0xbbede6b09d698692,
building materials,Toko,Toko Berkah lamandau,"dekat bundaran burung, Jl. Batu Batanggui No.RT 004C, Nanga Bulik, Kec. Bulik, Kabupaten Lamandau, Kalimantan Tengah 74161","Jl. Batu Batanggui No.RT 004C, Nanga Bulik, Kec. Bulik, Kabupaten Lamandau",KALIMANTAN TENGAH,74161.0,Indonesia,,,,-2.1860009,111.4457628,https://maps.google.com/?cid=0x0:0x4845364abe4eddd1,
building materials,Toko Bahan Bangunan,Toko Aheng,"RFF7+PM7, Nanga Bulik, Kec. Bulik, Kabupaten Lamandau, Kalimantan Tengah 74161","Nanga Bulik, Kec. Bulik, Kabupaten Lamandau",KALIMANTAN TENGAH,74161.0,Indonesia,,,,-2.175716,111.4641678,https://maps.google.com/?cid=0x0:0x5d673a51c5d0a1b6,
building materials,Toko Perlengkapan Rumah,Toko bangunan  besi : Sumber Makmur Sejati,"Kujan, Kec. Bulik, Kabupaten Lamandau, Kalimantan Tengah","Kabupaten Lamandau, Kalimantan Tengah",KALIMANTAN TENGAH,,Indonesia,81254172998.0,,,-2.2080215,111.4648655,https://maps.google.com/?cid=0x0:0xa05b9b29aa3d866a,
building materials,Toko Bahan Bangunan,sahabat bangunan,"RF84+R69, Jl. Batu Batanggui, Nanga Bulik, Kec. Bulik, Kabupaten Lamandau, Kalimantan Tengah 74161","Jl. Batu Batanggui, Nanga Bulik, Kec. Bulik, Kabupaten Lamandau",KALIMANTAN TENGAH,74161.0,Indonesia,81255578269.0,,,-2.1829602,111.4556081,https://maps.google.com/?cid=0x0:0xf508897240d8220,
building materials,Toko Perlengkapan Rumah,Toko Bangunan Wijaya,"QG77+XXR, Purworejo, Kec. Sematu Jaya, Kabupaten Lamandau, Kalimantan Tengah 74161","Purworejo, Kec. Sematu Jaya, Kabupaten Lamandau",KALIMANTAN TENGAH,74161.0,Indonesia,,,,-2.2350104,111.514896,https://maps.google.com/?cid=0x0:0x47b3e4fd269fd2b1,
building materials,building materials,Sobar Plafon 2,"Jl. Batu Batanggui, Nanga Bulik, Kec. Bulik, Kabupaten Lamandau, Kalimantan Tengah 74161","Nanga Bulik, Kec. Bulik, Kabupaten Lamandau",KALIMANTAN TENGAH,74161.0,Indonesia,82379991999.0,,,-2.1854826,111.4485837,https://maps.google.com/?cid=0x0:0x56058fecfed412a0,
building materials,Kantor Perusahaan,PT SML,"Tapin Bini, Kec. Lamandau, Kabupaten Lamandau, Kalimantan Tengah 74663","Kec. Lamandau, Kabupaten Lamandau",KALIMANTAN TENGAH,74663.0,Indonesia,,,,-1.9116338,111.2120596,https://maps.google.com/?cid=0x0:0xa004822cfec3950d,
building materials,building materials,Kalimantan Tengah 74162,"Kabupaten Lamandau, Kalimantan Tengah","Kabupaten Lamandau, Kalimantan Tengah",KALIMANTAN TENGAH,,Indonesia,,,,-1.7404903,111.5229817,https://maps.google.com/?cid=0x0:0xcbde8a77875b152b,
building materials,Toko Bahan Bangunan,TB.KURIOUS,"Translokal, Jl. Ahmad Yani No.184, RT.12, Kec. Bulik, Kabupaten Lamandau, Kalimantan Tengah 74162","Jl. Ahmad Yani No.184, RT.12, Kec. Bulik, Kabupaten Lamandau",KALIMANTAN TENGAH,74162.0,Indonesia,,,,-2.1768456,111.442248,https://maps.google.com/?cid=0x0:0xb12c45b40cb899a2,
building materials,Toko Bahan Bangunan,Toko Jadi Jaya,"Jln.Cempaka RT.05 No.48, Nanga Bulik, Kec. Bulik, Kabupaten Lamandau, Kalimantan Tengah 74161","Nanga Bulik, Kec. Bulik, Kabupaten Lamandau",KALIMANTAN TENGAH,74161.0,Indonesia,81256217388.0,,,-2.1770581,111.4646405,https://maps.google.com/?cid=0x0:0xcf3d21450a69a595,
building materials,Pasar bahan bangunan,TB rizky,"RF94+5XP, Nanga Bulik, Kec. Bulik, Kabupaten Lamandau, Kalimantan Tengah 74161","Nanga Bulik, Kec. Bulik, Kabupaten Lamandau",KALIMANTAN TENGAH,74161.0,Indonesia,81257422994.0,,,-2.1820172,111.4575307,https://maps.google.com/?cid=0x0:0xbbede6b09d698692,
building materials,Toko Bahan Bangunan,TOKO BTOBIG,"Nanga Bulik, Kec. Bulik, Kabupaten Lamandau, Kalimantan Tengah","Kabupaten Lamandau, Kalimantan Tengah",KALIMANTAN TENGAH,,Indonesia,,,,-2.1897063,111.4664618,https://maps.google.com/?cid=0x0:0x6d2a71e614c73a76,
building materials,Toko Bahan Bangunan,Tuli Angka Gypsum,"RG7C+C27, Unnamed Road, Nanga Bulik, Kec. Bulik, Kabupaten Lamandau, Kalimantan Tengah 74161","Unnamed Road, Nanga Bulik, Kec. Bulik, Kabupaten Lamandau",KALIMANTAN TENGAH,74161.0,Indonesia,81350329659.0,,,-2.1864736,111.5200605,https://maps.google.com/?cid=0x0:0xa538a917ff0f1c3e,
building materials,Toko Bahan Bangunan,TB. BERGUNA,"RCFQ+2M7, Nanga Bulik, Kec. Bulik, Kabupaten Lamandau, Kalimantan Tengah","Kabupaten Lamandau, Kalimantan Tengah",KALIMANTAN TENGAH,,Indonesia,,,,-2.1778949,111.4394425,https://maps.google.com/?cid=0x0:0x6bc5cde13180528e,
building materials,Kantor Perusahaan,Batu bata merah mandiri maju,"RG59+C4F, Jalan simpang sepaku, kujan, Nanga Bulik, Kec. Bulik, Kabupaten Lamandau, Kalimantan Tengah 74161","Jalan simpang sepaku, kujan, Nanga Bulik, Kec. Bulik, Kabupaten Lamandau",KALIMANTAN TENGAH,74161.0,Indonesia,87817856613.0,,,-2.1914316,111.5177959,https://maps.google.com/?cid=0x0:0xc2fd3be4caba406e,
building materials,Toko Bahan Bangunan,Cahaya Lamandau,"Jl. Trans Kalimantan No.Km.3, Nanga Bulik, Kec. Bulik, Kabupaten Lamandau, Kalimantan Tengah 74161","Nanga Bulik, Kec. Bulik, Kabupaten Lamandau",KALIMANTAN TENGAH,74161.0,Indonesia,85299727922.0,,,-2.1937252,111.4441104,https://maps.google.com/?cid=0x0:0xc42250fb5d793787,
building materials,Pemasok Bahan Bangunan,Toko Kasih Karunia,"RF79+72R, Jl. Tjilik Riwut, Nanga Bulik, Kec. Bulik, Kabupaten Lamandau, Kalimantan Tengah 74161","Jl. Tjilik Riwut, Nanga Bulik, Kec. Bulik, Kabupaten Lamandau",KALIMANTAN TENGAH,74161.0,Indonesia,,,,-2.1867738,111.4675049,https://maps.google.com/?cid=0x0:0x2136ccd6a323a306,
building materials,Toko Bahan Bangunan,Toko Aheng,"RFF7+PM7, Nanga Bulik, Kec. Bulik, Kabupaten Lamandau, Kalimantan Tengah 74161","Nanga Bulik, Kec. Bulik, Kabupaten Lamandau",KALIMANTAN TENGAH,74161.0,Indonesia,,,,-2.175716,111.4641678,https://maps.google.com/?cid=0x0:0x5d673a51c5d0a1b6,
building materials,building materials,rumah singgah,"jalan mas pengaruh, Nanga Bulik, Kec. Bulik, Kabupaten Lamandau, Kalimantan Tengah","Kabupaten Lamandau, Kalimantan Tengah",KALIMANTAN TENGAH,,Indonesia,81348443568.0,,,-2.1798376,111.4232813,https://maps.google.com/?cid=0x0:0xb5edda1ffb371199,
building materials,Toko,Toko Berkah lamandau,"dekat bundaran burung, Jl. Batu Batanggui No.RT 004C, Nanga Bulik, Kec. Bulik, Kabupaten Lamandau, Kalimantan Tengah 74161","Jl. Batu Batanggui No.RT 004C, Nanga Bulik, Kec. Bulik, Kabupaten Lamandau",KALIMANTAN TENGAH,74161.0,Indonesia,,,,-2.1860009,111.4457628,https://maps.google.com/?cid=0x0:0x4845364abe4eddd1,
building materials,Penginapan,SP Melata,"Melata, Kec. Menthobi Raya, Kabupaten Lamandau, Kalimantan Tengah 74162","Kec. Menthobi Raya, Kabupaten Lamandau",KALIMANTAN TENGAH,74162.0,Indonesia,81311669679.0,,,-1.9852984,111.6064513,https://maps.google.com/?cid=0x0:0xb219ccdd9760219c,
building materials,building materials,Sobar Plafon 2,"Jl. Batu Batanggui, Nanga Bulik, Kec. Bulik, Kabupaten Lamandau, Kalimantan Tengah 74161","Nanga Bulik, Kec. Bulik, Kabupaten Lamandau",KALIMANTAN TENGAH,74161.0,Indonesia,82379991999.0,,,-2.1854826,111.4485837,https://maps.google.com/?cid=0x0:0x56058fecfed412a0,
building materials,,Maju Jaya Aluminium,"WJMQ+2X3, Bukit Raya, Kec. Menthobi Raya, Kabupaten Lamandau, Kalimantan Tengah","Kabupaten Lamandau, Kalimantan Tengah",KALIMANTAN TENGAH,,Indonesia,85293558488.0,,,-2.0676107,111.6399641,https://maps.google.com/?cid=0x0:0x3e240dbbc437a340,
building materials,Toko Bahan Bangunan,Toko Morra Jaya Mandiri,"Jl. Melati Jl. Batu Batanggui No.Pertigaan, Nanga Bulik, Kec. Bulik, Kabupaten Lamandau, Kalimantan Tengah 74611","Nanga Bulik, Kec. Bulik, Kabupaten Lamandau",KALIMANTAN TENGAH,74611.0,Indonesia,85186677913.0,,,-2.1851271,111.4493691,https://maps.google.com/?cid=0x0:0xd1dd13c6f947b63a,
building materials,Toko Perlengkapan Rumah,Toko bangunan  besi : Sumber Makmur Sejati,"Kujan, Kec. Bulik, Kabupaten Lamandau, Kalimantan Tengah","Kabupaten Lamandau, Kalimantan Tengah",KALIMANTAN TENGAH,,Indonesia,81254172998.0,,,-2.2080215,111.4648655,https://maps.google.com/?cid=0x0:0xa05b9b29aa3d866a,
building materials,Pasar bahan bangunan,Toko bangunan DARUL AMIEN,"RF95+73V, Jl. Batu Batanggui, Nanga Bulik, Kec. Bulik, Kabupaten Lamandau, Kalimantan Tengah 74161","Jl. Batu Batanggui, Nanga Bulik, Kec. Bulik, Kabupaten Lamandau",KALIMANTAN TENGAH,74161.0,Indonesia,81257422994.0,,,-2.1817517,111.4576845,https://maps.google.com/?cid=0x0:0x96fda81b818c6a7c,
building materials,Toko Bahan Bangunan,TB.KURIOUS,"Translokal, Jl. Ahmad Yani No.184, RT.12, Kec. Bulik, Kabupaten Lamandau, Kalimantan Tengah 74162","Jl. Ahmad Yani No.184, RT.12, Kec. Bulik, Kabupaten Lamandau",KALIMANTAN TENGAH,74162.0,Indonesia,,,,-2.1768456,111.442248,https://maps.google.com/?cid=0x0:0xb12c45b40cb899a2,
building materials,Toko Bahan Bangunan,UD Ricky,"Jl. Batu Batanggui No.RT 05c, RW.No 057, Nanga Bulik, Kec. Bulik, Kabupaten Lamandau, Kalimantan Tengah 74162","RW.No 057, Nanga Bulik, Kec. Bulik, Kabupaten Lamandau",KALIMANTAN TENGAH,74162.0,Indonesia,82377677617.0,,,-2.1796736,111.4624643,https://maps.google.com/?cid=0x0:0x2c9564c23429a967,
building materials,Pemasok Bahan Bangunan,Toko Kasih Karunia,"RF79+72R, Jl. Tjilik Riwut, Nanga Bulik, Kec. Bulik, Kabupaten Lamandau, Kalimantan Tengah 74161","Jl. Tjilik Riwut, Nanga Bulik, Kec. Bulik, Kabupaten Lamandau",KALIMANTAN TENGAH,74161.0,Indonesia,,,,-2.1867738,111.4675049,https://maps.google.com/?cid=0x0:0x2136ccd6a323a306,
building materials,Toko Bahan Bangunan,TOKO BTOBIG,"Nanga Bulik, Kec. Bulik, Kabupaten Lamandau, Kalimantan Tengah","Kabupaten Lamandau, Kalimantan Tengah",KALIMANTAN TENGAH,,Indonesia,,,,-2.1897063,111.4664618,https://maps.google.com/?cid=0x0:0x6d2a71e614c73a76,
building materials,Pasar bahan bangunan,TB rizky,"RF94+5XP, Nanga Bulik, Kec. Bulik, Kabupaten Lamandau, Kalimantan Tengah 74161","Nanga Bulik, Kec. Bulik, Kabupaten Lamandau",KALIMANTAN TENGAH,74161.0,Indonesia,81257422994.0,,,-2.1820172,111.4575307,https://maps.google.com/?cid=0x0:0xbbede6b09d698692,
building materials,Toko Bahan Bangunan,Toko Jadi Jaya,"Jln.Cempaka RT.05 No.48, Nanga Bulik, Kec. Bulik, Kabupaten Lamandau, Kalimantan Tengah 74161","Nanga Bulik, Kec. Bulik, Kabupaten Lamandau",KALIMANTAN TENGAH,74161.0,Indonesia,81256217388.0,,,-2.1770581,111.4646405,https://maps.google.com/?cid=0x0:0xcf3d21450a69a595,
building materials,Toko Bahan Bangunan,Cahaya Lamandau,"Jl. Trans Kalimantan No.Km.3, Nanga Bulik, Kec. Bulik, Kabupaten Lamandau, Kalimantan Tengah 74161","Nanga Bulik, Kec. Bulik, Kabupaten Lamandau",KALIMANTAN TENGAH,74161.0,Indonesia,85299727922.0,,,-2.1937252,111.4441104,https://maps.google.com/?cid=0x0:0xc42250fb5d793787,
building materials,Toko,Toko Berkah lamandau,"dekat bundaran burung, Jl. Batu Batanggui No.RT 004C, Nanga Bulik, Kec. Bulik, Kabupaten Lamandau, Kalimantan Tengah 74161","Jl. Batu Batanggui No.RT 004C, Nanga Bulik, Kec. Bulik, Kabupaten Lamandau",KALIMANTAN TENGAH,74161.0,Indonesia,,,,-2.1860009,111.4457628,https://maps.google.com/?cid=0x0:0x4845364abe4eddd1,
building materials,building materials,Kec. Sematu Jaya,"Kabupaten Lamandau, Kalimantan Tengah","Kabupaten Lamandau, Kalimantan Tengah",KALIMANTAN TENGAH,,Indonesia,,,,-2.2356757,111.5156988,https://maps.google.com/?cid=0x0:0xa84b471e5053bba1,
building materials,Toko Perlengkapan Rumah,Toko Bangunan Wijaya,"QG77+XXR, Purworejo, Kec. Sematu Jaya, Kabupaten Lamandau, Kalimantan Tengah 74161","Purworejo, Kec. Sematu Jaya, Kabupaten Lamandau",KALIMANTAN TENGAH,74161.0,Indonesia,,,,-2.2350104,111.514896,https://maps.google.com/?cid=0x0:0x47b3e4fd269fd2b1,
building materials,building materials,Toko BJA Vendi,"PH94+MGG, Mekar Mulya, Kec. Sematu Jaya, Kabupaten Lamandau, Kalimantan Tengah 74161","Mekar Mulya, Kec. Sematu Jaya, Kabupaten Lamandau",KALIMANTAN TENGAH,74161.0,Indonesia,,,,-2.2805684,111.5562624,https://maps.google.com/?cid=0x0:0x2a4b0a83b888d085,
building materials,Toko Bahan Bangunan,Tuli Angka Gypsum,"RG7C+C27, Unnamed Road, Nanga Bulik, Kec. Bulik, Kabupaten Lamandau, Kalimantan Tengah 74161","Unnamed Road, Nanga Bulik, Kec. Bulik, Kabupaten Lamandau",KALIMANTAN TENGAH,74161.0,Indonesia,81350329659.0,,,-2.1864736,111.5200605,https://maps.google.com/?cid=0x0:0xa538a917ff0f1c3e,
building materials,Toko Perlengkapan Rumah,Toko bangunan  besi : Sumber Makmur Sejati,"Kujan, Kec. Bulik, Kabupaten Lamandau, Kalimantan Tengah","Kabupaten Lamandau, Kalimantan Tengah",KALIMANTAN TENGAH,,Indonesia,81254172998.0,,,-2.2080215,111.4648655,https://maps.google.com/?cid=0x0:0xa05b9b29aa3d866a,
building materials,Toko Bahan Bangunan,Toko Jadi Jaya,"Jln.Cempaka RT.05 No.48, Nanga Bulik, Kec. Bulik, Kabupaten Lamandau, Kalimantan Tengah 74161","Nanga Bulik, Kec. Bulik, Kabupaten Lamandau",KALIMANTAN TENGAH,74161.0,Indonesia,81256217388.0,,,-2.1770581,111.4646405,https://maps.google.com/?cid=0x0:0xcf3d21450a69a595,
building materials,Komplek perumahan,Jaya Baru,"Desa Bukit Harum Depan Lapangan. Ds. Bukit Harum (H6, Kabupaten Lamandau, Kalimantan Tengah 74468",Kabupaten Lamandau,KALIMANTAN TENGAH,74468.0,Indonesia,81250195703.0,,,-2.1293569,111.6449283,https://maps.google.com/?cid=0x0:0x46e4cf885667b4d1,
building materials,Kantor Perusahaan,Batu bata merah mandiri maju,"RG59+C4F, Jalan simpang sepaku, kujan, Nanga Bulik, Kec. Bulik, Kabupaten Lamandau, Kalimantan Tengah 74161","Jalan simpang sepaku, kujan, Nanga Bulik, Kec. Bulik, Kabupaten Lamandau",KALIMANTAN TENGAH,74161.0,Indonesia,87817856613.0,,,-2.1914316,111.5177959,https://maps.google.com/?cid=0x0:0xc2fd3be4caba406e,
building materials,Sekolah menengah,SMA Negeri 1 Sematu Jaya,"Jalan Lintas Kalimantan Desa Purwareja RT. 09, Purworejo, Kec. Sematu Jaya, Kabupaten Lamandau, Kalimantan Tengah 74161","Purworejo, Kec. Sematu Jaya, Kabupaten Lamandau",KALIMANTAN TENGAH,74161.0,Indonesia,85245459996.0,,,-2.2252246,111.5153383,https://maps.google.com/?cid=0x0:0x1246a130ec700ed3,
building materials,Toko Bahan Bangunan,TB.KURIOUS,"Translokal, Jl. Ahmad Yani No.184, RT.12, Kec. Bulik, Kabupaten Lamandau, Kalimantan Tengah 74162","Jl. Ahmad Yani No.184, RT.12, Kec. Bulik, Kabupaten Lamandau",KALIMANTAN TENGAH,74162.0,Indonesia,,,,-2.1768456,111.442248,https://maps.google.com/?cid=0x0:0xb12c45b40cb899a2,
building materials,Toko Bahan Bangunan,TOKO BTOBIG,"Nanga Bulik, Kec. Bulik, Kabupaten Lamandau, Kalimantan Tengah","Kabupaten Lamandau, Kalimantan Tengah",KALIMANTAN TENGAH,,Indonesia,,,,-2.1897063,111.4664618,https://maps.google.com/?cid=0x0:0x6d2a71e614c73a76,
building materials,Pemasok Bahan Bangunan,Toko Kasih Karunia,"RF79+72R, Jl. Tjilik Riwut, Nanga Bulik, Kec. Bulik, Kabupaten Lamandau, Kalimantan Tengah 74161","Jl. Tjilik Riwut, Nanga Bulik, Kec. Bulik, Kabupaten Lamandau",KALIMANTAN TENGAH,74161.0,Indonesia,,,,-2.1867738,111.4675049,https://maps.google.com/?cid=0x0:0x2136ccd6a323a306,
building materials,Toko Alat Listrik,Toko Sinar Terang,"Desa Purwareja, RT.004, Purworejo, Kec. Sematu Jaya, Kabupaten Lamandau, Kalimantan Tengah 74161","RT.004, Purworejo, Kec. Sematu Jaya, Kabupaten Lamandau",KALIMANTAN TENGAH,74161.0,Indonesia,85390578221.0,,,-2.2333624,111.513957,https://maps.google.com/?cid=0x0:0x751ac90f00751a9d,
building materials,Toko Perlengkapan Rumah,Toko Mebel  Bangunan Nabila,"QGVQ+XGP, Bina Bhakti, Kec. Sematu Jaya, Kabupaten Lamandau, Kalimantan Tengah 74161","Bina Bhakti, Kec. Sematu Jaya, Kabupaten Lamandau",KALIMANTAN TENGAH,74161.0,Indonesia,82159067865.0,,,-2.2050273,111.5388328,https://maps.google.com/?cid=0x0:0x74379664805fa7d4,
building materials,building materials,Berkah Jaya Abadi,"Rt 08, Mekar Mulya, Kec. Sematu Jaya, Kabupaten Lamandau, Kalimantan Tengah 74161","Mekar Mulya, Kec. Sematu Jaya, Kabupaten Lamandau",KALIMANTAN TENGAH,74161.0,Indonesia,,,,-2.2880636,111.5592477,https://maps.google.com/?cid=0x0:0x9677a8ac931205a3,
building materials,Toko Alat Listrik,Toko Sinar Terang,"Jalan lintas provinsi, Desa Purwareja, Kec. Sematu Jaya, Kabupaten Lamandau, Kalimantan Tengah 74162","Desa Purwareja, Kec. Sematu Jaya, Kabupaten Lamandau",KALIMANTAN TENGAH,74162.0,Indonesia,85390578221.0,,,-2.2334935,111.5468301,https://maps.google.com/?cid=0x0:0x8ee1a5c5a6c59954,
building materials,Toko Bahan Bangunan,Toko Morra Jaya Mandiri,"Jl. Melati Jl. Batu Batanggui No.Pertigaan, Nanga Bulik, Kec. Bulik, Kabupaten Lamandau, Kalimantan Tengah 74611","Nanga Bulik, Kec. Bulik, Kabupaten Lamandau",KALIMANTAN TENGAH,74611.0,Indonesia,85186677913.0,,,-2.1851271,111.4493691,https://maps.google.com/?cid=0x0:0xd1dd13c6f947b63a,
building materials,Toko Bahan Bangunan,UD Ricky,"Jl. Batu Batanggui No.RT 05c, RW.No 057, Nanga Bulik, Kec. Bulik, Kabupaten Lamandau, Kalimantan Tengah 74162","RW.No 057, Nanga Bulik, Kec. Bulik, Kabupaten Lamandau",KALIMANTAN TENGAH,74162.0,Indonesia,82377677617.0,,,-2.1796736,111.4624643,https://maps.google.com/?cid=0x0:0x2c9564c23429a967,
building materials,Pasar bahan bangunan,TB rizky,"RF94+5XP, Nanga Bulik, Kec. Bulik, Kabupaten Lamandau, Kalimantan Tengah 74161","Nanga Bulik, Kec. Bulik, Kabupaten Lamandau",KALIMANTAN TENGAH,74161.0,Indonesia,81257422994.0,,,-2.1820172,111.4575307,https://maps.google.com/?cid=0x0:0xbbede6b09d698692,
building materials,Toko Bahan Bangunan,Cahaya Lamandau,"Jl. Trans Kalimantan No.Km.3, Nanga Bulik, Kec. Bulik, Kabupaten Lamandau, Kalimantan Tengah 74161","Nanga Bulik, Kec. Bulik, Kabupaten Lamandau",KALIMANTAN TENGAH,74161.0,Indonesia,85299727922.0,,,-2.1937252,111.4441104,https://maps.google.com/?cid=0x0:0xc42250fb5d793787,
