Category,Real Category,Business Name,Address,City,State,Postal Code,Country,Phone,Email,Website,Latitude,Longitude,Map Link,Details Link
mall,mall,Pasar Kudanga,"C22Q+P7H, Kudangan, Kec. Delang, Kabupaten Lamandau, Kalimantan Tengah 74664","Kudangan, Kec. Delang, Kabupaten Lamandau",KALIMANTAN TENGAH,74664.0,Indonesia,,,,-1.5981975,111.0382491,https://maps.google.com/?cid=0x0:0x100b169577619322,
mall,mall,Kalimantan Tengah 74664,"Kabupaten Lamandau, Kalimantan Tengah","Kabupaten Lamandau, Kalimantan Tengah",KALIMANTAN TENGAH,,Indonesia,,,,-1.6722405,111.1414226,https://maps.google.com/?cid=0x0:0x2e393b90c2443400,
mall,mall,Kalimantan Tengah 74663,"Kabupaten Lamandau, Kalimantan Tengah","Kabupaten Lamandau, Kalimantan Tengah",KALIMANTAN TENGAH,,Indonesia,,,,-1.9269166,111.1891151,https://maps.google.com/?cid=0x0:0xddd786c27266b53a,
mall,Kafe,Samu Jaya Komplek Ruko,"48CC+9FR, Samu Jaya, Kec. Lamandau, Kabupaten Lamandau, Kalimantan Tengah 74663","Samu Jaya, Kec. Lamandau, Kabupaten Lamandau",KALIMANTAN TENGAH,74663.0,Indonesia,,,,-1.8790207,111.3211259,https://maps.google.com/?cid=0x0:0x2cf2606e4cfe6c43,
mall,Toko,Toko Sembako Mama Fairuz,"6C97+X5V, Bayat, Kec. Belantikan Raya, Kabupaten Lamandau, Kalimantan Tengah","Kabupaten Lamandau, Kalimantan Tengah",KALIMANTAN TENGAH,,Indonesia,,,,-1.7800243,111.4129199,https://maps.google.com/?cid=0x0:0x9b11c915385a7faa,
mall,Komplek perumahan,Merambang,"4JW5+QXH, Merambang, Kec. Bulik Tim., Kabupaten Lamandau, Kalimantan Tengah 74162","Merambang, Kec. Bulik Tim., Kabupaten Lamandau",KALIMANTAN TENGAH,74162.0,Indonesia,,,,-1.8530637,111.6099734,https://maps.google.com/?cid=0x0:0x5f1c9bc8b5fa6be3,
mall,Toko,Toko Alghifari,"2CMV+VGR, Nanga Belantikan, Kec. Belantikan Raya, Kabupaten Lamandau, Kalimantan Tengah 74162","Nanga Belantikan, Kec. Belantikan Raya, Kabupaten Lamandau",KALIMANTAN TENGAH,74162.0,Indonesia,,,,-1.9652502,111.4437726,https://maps.google.com/?cid=0x0:0x82ebe294f3f7f1c6,
mall,Kantor Perusahaan,Batu Tunggal,"5MC4+653, Batu Tunggal, Kec. Bulik Tim., Kabupaten Lamandau, Kalimantan Tengah 74152","Batu Tunggal, Kec. Bulik Tim., Kabupaten Lamandau",KALIMANTAN TENGAH,74152.0,Indonesia,,,,-1.829498,111.6554066,https://maps.google.com/?cid=0x0:0xa20bba14ec730918,
mall,Kantor Perusahaan,PT. SAWIT LAMANDAU RAYA,"544P+MG2, Tj. Beringin, Kec. Lamandau, Kabupaten Lamandau, Kalimantan Tengah 74663","Tj. Beringin, Kec. Lamandau, Kabupaten Lamandau",KALIMANTAN TENGAH,74663.0,Indonesia,,,,-1.8433663,111.1362573,https://maps.google.com/?cid=0x0:0xb658395b23437be1,
mall,Pusat Perbelanjaan,Terang Bulan,"3FWM+JMW, Unnamed Road, Nuangan, Kec. Bulik Tim., Kabupaten Lamandau, Kalimantan Tengah 74162","Unnamed Road, Nuangan, Kec. Bulik Tim., Kabupaten Lamandau",KALIMANTAN TENGAH,74162.0,Indonesia,81390962290.0,,,-1.9033912,111.4841884,https://maps.google.com/?cid=0x0:0x2f95bfec09054e12,
mall,mall,Swalayan Almuna,"47WM+WRR, Tapin Bini, Kec. Lamandau, Kabupaten Lamandau, Kalimantan Tengah 74663","Tapin Bini, Kec. Lamandau, Kabupaten Lamandau",KALIMANTAN TENGAH,74663.0,Indonesia,,,,-1.8526377,111.2845025,https://maps.google.com/?cid=0x0:0x9bd424c867373a8b,
mall,mall,Toko LENA,"km 18, Bukit Jaya, Kec. Bulik Tim., Kabupaten Lamandau, Kalimantan Tengah 74162","Bukit Jaya, Kec. Bulik Tim., Kabupaten Lamandau",KALIMANTAN TENGAH,74162.0,Indonesia,85248571091.0,,,-1.8959525,111.463361,https://maps.google.com/?cid=0x0:0xca24a4b40001c4d,
mall,mall,Toko Turi Jaya,"4F37+J89, Tim., Bukit Jaya, Kec. Bulik Tim., Kabupaten Lamandau, Kalimantan Tengah 74162","Tim., Bukit Jaya, Kec. Bulik Tim., Kabupaten Lamandau",KALIMANTAN TENGAH,74162.0,Indonesia,,,,-1.8959525,111.463361,https://maps.google.com/?cid=0x0:0xa395bdcdba14ca43,
mall,Toko,Ts,"Jl. Tjilik Riwut No.36, Nanga Bulik, Kec. Bulik, Kabupaten Lamandau, Kalimantan Tengah 74161","Nanga Bulik, Kec. Bulik, Kabupaten Lamandau",KALIMANTAN TENGAH,74161.0,Indonesia,85252202366.0,,,-2.1766538,111.4615801,https://maps.google.com/?cid=0x0:0xbdbc186da042acd2,
mall,Toko bahan makanan,Borneo Supermarket,"RF96+V9C, Jl. Batu Betanggui, Nanga Bulik, Kec. Bulik, Kabupaten Lamandau, Kalimantan Tengah 74161","Jl. Batu Betanggui, Nanga Bulik, Kec. Bulik, Kabupaten Lamandau",KALIMANTAN TENGAH,74161.0,Indonesia,85751797069.0,,,-2.180302,111.4608802,https://maps.google.com/?cid=0x0:0x9626262724f41eef,
mall,Toko Kosmetik,MALL'S KOSMETIK / AGEN PULSA ALL OP,"RFC7+CXW, Jl. JC Rangkap, Nanga Bulik, Kec. Bulik, Kabupaten Lamandau, Kalimantan Tengah 74161","Jl. JC Rangkap, Nanga Bulik, Kec. Bulik, Kabupaten Lamandau",KALIMANTAN TENGAH,74161.0,Indonesia,81253630550.0,,,-2.1788805,111.4649606,https://maps.google.com/?cid=0x0:0xf0e34e7f85c0ff3,
mall,Pusat Perbelanjaan,Kios syahria,"RFF7+2VW, Nanga Bulik, Kec. Bulik, Kabupaten Lamandau, Kalimantan Tengah 74161","Nanga Bulik, Kec. Bulik, Kabupaten Lamandau",KALIMANTAN TENGAH,74161.0,Indonesia,81254758992.0,,,-2.1773915,111.4647089,https://maps.google.com/?cid=0x0:0xd7043f0ef8a09df6,
mall,Toko Pakaian,VDshop TokoRumahan (Vera),"Jl. GTM Yusuf RT 11, Nanga Bulik, Kec. Bulik, Kabupaten Lamandau, Kalimantan Tengah 74161","Nanga Bulik, Kec. Bulik, Kabupaten Lamandau",KALIMANTAN TENGAH,74161.0,Indonesia,82153088892.0,,,-2.1770403,111.4468925,https://maps.google.com/?cid=0x0:0x6d78ebb41bf63304,
mall,Pusat Perbelanjaan,Toko Maulana,"QFQ9+MQ8 Kantor, Jl. Lintas Kalimantan, Kujan, Bulik, Lamandau Regency, Central Kalimantan 74161","Jl. Lintas Kalimantan, Kujan, Bulik, Lamandau Regency",KALIMANTAN TENGAH,74161.0,Indonesia,81528538039.0,,,-2.2108436,111.4694487,https://maps.google.com/?cid=0x0:0x38d902db01d2a738,
mall,Toko,Toko Andalas,"RC9P+GQJ, Jl. W.R. Supratman, Nanga Bulik, Kec. Bulik, Kabupaten Lamandau, Kalimantan Tengah 74162","Jl. W.R. Supratman, Nanga Bulik, Kec. Bulik, Kabupaten Lamandau",KALIMANTAN TENGAH,74162.0,Indonesia,81222053136.0,,,-2.181153,111.4368925,https://maps.google.com/?cid=0x0:0x79d6461f4ef0c027,
mall,Pusat Perbelanjaan,Toko NN familly,"RF82+4HV, Jl. Batu Batanggui, Nanga Bulik, Kec. Bulik, Kabupaten Lamandau, Kalimantan Tengah 74161","Jl. Batu Batanggui, Nanga Bulik, Kec. Bulik, Kabupaten Lamandau",KALIMANTAN TENGAH,74161.0,Indonesia,,,,-2.1846316,111.4514104,https://maps.google.com/?cid=0x0:0x1a00c05c9f55abff,
mall,Pusat Perbelanjaan,Toko Kharisma,"Nanga Bulik, Kec. Bulik, Kabupaten Lamandau, Kalimantan Tengah 74161","Kec. Bulik, Kabupaten Lamandau",KALIMANTAN TENGAH,74161.0,Indonesia,82255502476.0,,,-2.177362,111.4472322,https://maps.google.com/?cid=0x0:0x6f6240cf300ad8bc,
mall,Dealer Toyota,Toyota Auto2000 Lamandau,"RF96+W99, Unnamed Road, Nanga Bulik, Kec. Bulik, Kabupaten Lamandau, Kalimantan Tengah 74161","Unnamed Road, Nanga Bulik, Kec. Bulik, Kabupaten Lamandau",KALIMANTAN TENGAH,74161.0,Indonesia,82254492220.0,,,-2.1802035,111.4609712,https://maps.google.com/?cid=0x0:0x1a0882ae6804accf,
mall,Pusat Perbelanjaan,Hartining Nasa Lamandau,"QFX2+6F6, Nanga Bulik, Kec. Bulik, Kabupaten Lamandau, Kalimantan Tengah 74161","Nanga Bulik, Kec. Bulik, Kabupaten Lamandau",KALIMANTAN TENGAH,74161.0,Indonesia,82253114311.0,,,-2.2019708,111.4511537,https://maps.google.com/?cid=0x0:0x780203f1f9d98b75,
mall,mall,Kalimantan Tengah 74162,"Kabupaten Lamandau, Kalimantan Tengah","Kabupaten Lamandau, Kalimantan Tengah",KALIMANTAN TENGAH,,Indonesia,,,,-1.7404903,111.5229817,https://maps.google.com/?cid=0x0:0xcbde8a77875b152b,
mall,Toko bahan makanan,Borneo Supermarket,"RF96+V9C, Jl. Batu Betanggui, Nanga Bulik, Kec. Bulik, Kabupaten Lamandau, Kalimantan Tengah 74161","Jl. Batu Betanggui, Nanga Bulik, Kec. Bulik, Kabupaten Lamandau",KALIMANTAN TENGAH,74161.0,Indonesia,85751797069.0,,,-2.180302,111.4608802,https://maps.google.com/?cid=0x0:0x9626262724f41eef,
mall,Komplek perumahan,Merambang,"4JW5+QXH, Merambang, Kec. Bulik Tim., Kabupaten Lamandau, Kalimantan Tengah 74162","Merambang, Kec. Bulik Tim., Kabupaten Lamandau",KALIMANTAN TENGAH,74162.0,Indonesia,,,,-1.8530637,111.6099734,https://maps.google.com/?cid=0x0:0x5f1c9bc8b5fa6be3,
mall,Toko Pakaian,VDshop TokoRumahan (Vera),"Jl. GTM Yusuf RT 11, Nanga Bulik, Kec. Bulik, Kabupaten Lamandau, Kalimantan Tengah 74161","Nanga Bulik, Kec. Bulik, Kabupaten Lamandau",KALIMANTAN TENGAH,74161.0,Indonesia,82153088892.0,,,-2.1770403,111.4468925,https://maps.google.com/?cid=0x0:0x6d78ebb41bf63304,
mall,Kantor Perusahaan,Batu Tunggal,"5MC4+653, Batu Tunggal, Kec. Bulik Tim., Kabupaten Lamandau, Kalimantan Tengah 74152","Batu Tunggal, Kec. Bulik Tim., Kabupaten Lamandau",KALIMANTAN TENGAH,74152.0,Indonesia,,,,-1.829498,111.6554066,https://maps.google.com/?cid=0x0:0xa20bba14ec730918,
mall,Toko bahan makanan,eSLCp SOPHIEPARIS LAMANDAU,"RF93+V3G, Jl. Djagui Mamud, Nanga Bulik, Kec. Bulik, Kabupaten Lamandau, Kalimantan Tengah 74161","Jl. Djagui Mamud, Nanga Bulik, Kec. Bulik, Kabupaten Lamandau",KALIMANTAN TENGAH,74161.0,Indonesia,81346263236.0,,,-2.1803151,111.4527166,https://maps.google.com/?cid=0x0:0xbd3d8a722da0fc45,
mall,Pusat Perbelanjaan,Toko Kharisma,"Nanga Bulik, Kec. Bulik, Kabupaten Lamandau, Kalimantan Tengah 74161","Kec. Bulik, Kabupaten Lamandau",KALIMANTAN TENGAH,74161.0,Indonesia,82255502476.0,,,-2.177362,111.4472322,https://maps.google.com/?cid=0x0:0x6f6240cf300ad8bc,
mall,Pasar,Pasar Nanga Bulik,"RFF7+6PW, Nanga Bulik, Kec. Bulik, Kabupaten Lamandau, Kalimantan Tengah 74161","Nanga Bulik, Kec. Bulik, Kabupaten Lamandau",KALIMANTAN TENGAH,74161.0,Indonesia,,,,-2.1768967,111.4643371,https://maps.google.com/?cid=0x0:0x2945e653a5b699de,
mall,Toko,DELTA Cell,"3FWM+GRM, Bukit Jaya, Kec. Bulik Tim., Kabupaten Lamandau, Kalimantan Tengah 74162","Bukit Jaya, Kec. Bulik Tim., Kabupaten Lamandau",KALIMANTAN TENGAH,74162.0,Indonesia,82221116441.0,,,-1.9036627,111.48454,https://maps.google.com/?cid=0x0:0x8f8504c31fa5bacf,
mall,Toko,Ts,"Jl. Tjilik Riwut No.36, Nanga Bulik, Kec. Bulik, Kabupaten Lamandau, Kalimantan Tengah 74161","Nanga Bulik, Kec. Bulik, Kabupaten Lamandau",KALIMANTAN TENGAH,74161.0,Indonesia,85252202366.0,,,-2.1766538,111.4615801,https://maps.google.com/?cid=0x0:0xbdbc186da042acd2,
mall,Toko,Toko ABY,"RC8W+QHQ, Nanga Bulik, Kec. Bulik, Kabupaten Lamandau, Kalimantan Tengah 74161","Nanga Bulik, Kec. Bulik, Kabupaten Lamandau",KALIMANTAN TENGAH,74161.0,Indonesia,,,,-2.1830352,111.4464866,https://maps.google.com/?cid=0x0:0xac8b55b49d391b6f,
mall,Pusat Perbelanjaan,Kios syahria,"RFF7+2VW, Nanga Bulik, Kec. Bulik, Kabupaten Lamandau, Kalimantan Tengah 74161","Nanga Bulik, Kec. Bulik, Kabupaten Lamandau",KALIMANTAN TENGAH,74161.0,Indonesia,81254758992.0,,,-2.1773915,111.4647089,https://maps.google.com/?cid=0x0:0xd7043f0ef8a09df6,
mall,Pusat Perbelanjaan,Toko CakraBARU,"RC8X+6PP, Jl. Melati, Nanga Bulik, Kec. Bulik, Kabupaten Lamandau, Kalimantan Tengah 74161","Jl. Melati, Nanga Bulik, Kec. Bulik, Kabupaten Lamandau",KALIMANTAN TENGAH,74161.0,Indonesia,,,,-2.1844122,111.4493142,https://maps.google.com/?cid=0x0:0x5953805c98d8fbe3,
mall,Toko,Toko Andalas,"RC9P+GQJ, Jl. W.R. Supratman, Nanga Bulik, Kec. Bulik, Kabupaten Lamandau, Kalimantan Tengah 74162","Jl. W.R. Supratman, Nanga Bulik, Kec. Bulik, Kabupaten Lamandau",KALIMANTAN TENGAH,74162.0,Indonesia,81222053136.0,,,-2.181153,111.4368925,https://maps.google.com/?cid=0x0:0x79d6461f4ef0c027,
mall,Toko Elektronik,Toko marscell elektronik,"RFF4+56H, Nanga Bulik, Kec. Bulik, Kabupaten Lamandau, Kalimantan Tengah 74161","Nanga Bulik, Kec. Bulik, Kabupaten Lamandau",KALIMANTAN TENGAH,74161.0,Indonesia,81255112293.0,,,-2.1770569,111.4556063,https://maps.google.com/?cid=0x0:0xc72435a9e26c9d08,
mall,Toko Bahan Bangunan,sahabat bangunan,"RF84+R69, Jl. Batu Batanggui, Nanga Bulik, Kec. Bulik, Kabupaten Lamandau, Kalimantan Tengah 74161","Jl. Batu Batanggui, Nanga Bulik, Kec. Bulik, Kabupaten Lamandau",KALIMANTAN TENGAH,74161.0,Indonesia,81949697844.0,,,-2.1829602,111.4556081,https://maps.google.com/?cid=0x0:0xf508897240d8220,
mall,Toko Pakaian,Toko Ana,"Jl. Tjilik Riwut No.rt 1, Nanga Bulik, Kec. Bulik, Kabupaten Lamandau, Kalimantan Tengah 74660","Nanga Bulik, Kec. Bulik, Kabupaten Lamandau",KALIMANTAN TENGAH,74660.0,Indonesia,81234920663.0,,,-2.1876186,111.4666545,https://maps.google.com/?cid=0x0:0x80f87bff18965d11,
mall,Toko Kesehatan dan Kecantikan,Stokis NASA Lamandau,"RF98+W6G, Jl. JC Rangkap, Nanga Bulik, Kec. Bulik, Kabupaten Lamandau, Kalimantan Tengah 74161","Jl. JC Rangkap, Nanga Bulik, Kec. Bulik, Kabupaten Lamandau",KALIMANTAN TENGAH,74161.0,Indonesia,82158783458.0,,,-2.1801861,111.4655685,https://maps.google.com/?cid=0x0:0xb2d8b8d76fd97361,
mall,Pusat Perbelanjaan,Toko NN familly,"RF82+4HV, Jl. Batu Batanggui, Nanga Bulik, Kec. Bulik, Kabupaten Lamandau, Kalimantan Tengah 74161","Jl. Batu Batanggui, Nanga Bulik, Kec. Bulik, Kabupaten Lamandau",KALIMANTAN TENGAH,74161.0,Indonesia,,,,-2.1846316,111.4514104,https://maps.google.com/?cid=0x0:0x1a00c05c9f55abff,
mall,Dealer Toyota,Toyota Auto2000 Lamandau,"RF96+W99, Unnamed Road, Nanga Bulik, Kec. Bulik, Kabupaten Lamandau, Kalimantan Tengah 74161","Unnamed Road, Nanga Bulik, Kec. Bulik, Kabupaten Lamandau",KALIMANTAN TENGAH,74161.0,Indonesia,82254492220.0,,,-2.1802035,111.4609712,https://maps.google.com/?cid=0x0:0x1a0882ae6804accf,
mall,Toko Kosmetik,MALL'S KOSMETIK / AGEN PULSA ALL OP,"RFC7+CXW, Jl. JC Rangkap, Nanga Bulik, Kec. Bulik, Kabupaten Lamandau, Kalimantan Tengah 74161","Jl. JC Rangkap, Nanga Bulik, Kec. Bulik, Kabupaten Lamandau",KALIMANTAN TENGAH,74161.0,Indonesia,81253630550.0,,,-2.1788805,111.4649606,https://maps.google.com/?cid=0x0:0xf0e34e7f85c0ff3,
mall,Pusat Perbelanjaan,Terang Bulan,"3FWM+JMW, Unnamed Road, Nuangan, Kec. Bulik Tim., Kabupaten Lamandau, Kalimantan Tengah 74162","Unnamed Road, Nuangan, Kec. Bulik Tim., Kabupaten Lamandau",KALIMANTAN TENGAH,74162.0,Indonesia,81390962290.0,,,-1.9033912,111.4841884,https://maps.google.com/?cid=0x0:0x2f95bfec09054e12,
mall,Toko Perlengkapan Rumah,Toko Mukti,"depan gedung serba guna, Jl. Batu Batanggui, Nanga Bulik, Kec. Bulik, Kabupaten Lamandau, Kalimantan Tengah 74161","Jl. Batu Batanggui, Nanga Bulik, Kec. Bulik, Kabupaten Lamandau",KALIMANTAN TENGAH,74161.0,Indonesia,8567944888.0,,,-2.1827981,111.4544073,https://maps.google.com/?cid=0x0:0x2135626f7bf20175,
mall,Pusat Perbelanjaan,Azka cell,"WG7X+HH8, Sungai Mentawa, Kec. Bulik, Kabupaten Lamandau, Kalimantan Tengah 74162","Sungai Mentawa, Kec. Bulik, Kabupaten Lamandau",KALIMANTAN TENGAH,74162.0,Indonesia,85820864244.0,,,-2.0860759,111.5489547,https://maps.google.com/?cid=0x0:0x64ca02343722ccb0,
mall,Pusat Perbelanjaan,Toko mbak inin,"Unnamed Road No.74161, Nanga Bulik, Kec. Bulik, Kabupaten Lamandau, Kalimantan Tengah 74161","Nanga Bulik, Kec. Bulik, Kabupaten Lamandau",KALIMANTAN TENGAH,74161.0,Indonesia,82254897463.0,,,-2.1776727,111.4640425,https://maps.google.com/?cid=0x0:0x31ac440accb1b684,
mall,Toko,Toko Sembako Dan Depo Air Minum Togar,"Jl. Tjilik Riwut, Rt.01 A Rw.1 74162, Nanga Bulik, Kec. Bulik, Kabupaten Lamandau, Kalimantan Tengah 74161","Rt.01 A Rw.1 74162, Nanga Bulik, Kec. Bulik, Kabupaten Lamandau",KALIMANTAN TENGAH,74161.0,Indonesia,81346585228.0,,,-2.1910394,111.4659192,https://maps.google.com/?cid=0x0:0xe9cd61d38c710f8e,
mall,mall,Alun-alun Kota Nanga Bulik,"RCPH+CQJ, Unnamed Road, Bumi Agung, Kec. Bulik, Kabupaten Lamandau, Kalimantan Tengah 74161","Unnamed Road, Bumi Agung, Kec. Bulik, Kabupaten Lamandau",KALIMANTAN TENGAH,74161.0,Indonesia,,,,-2.1639117,111.4293996,https://maps.google.com/?cid=0x0:0x95582ff7480a4bad,
mall,mall,Toko LENA,"km 18, Bukit Jaya, Kec. Bulik Tim., Kabupaten Lamandau, Kalimantan Tengah 74162","Bukit Jaya, Kec. Bulik Tim., Kabupaten Lamandau",KALIMANTAN TENGAH,74162.0,Indonesia,85248571091.0,,,-1.8959525,111.463361,https://maps.google.com/?cid=0x0:0xca24a4b40001c4d,
mall,mall,Bukit Jaya,"3FVM+FV7, Bukit Jaya, Kec. Bulik Tim., Kabupaten Lamandau, Kalimantan Tengah 74162","Bukit Jaya, Kec. Bulik Tim., Kabupaten Lamandau",KALIMANTAN TENGAH,74162.0,Indonesia,,,,-1.9063322,111.4846789,https://maps.google.com/?cid=0x0:0x1f75e6d4d8b3d1fd,
mall,mall,Kalimantan Tengah 74611,"Kec. Bulik, Kabupaten Lamandau, Kalimantan Tengah","Kabupaten Lamandau, Kalimantan Tengah",KALIMANTAN TENGAH,,Indonesia,,,,-2.0058667,111.4395128,https://maps.google.com/?cid=0x0:0xb6c8a0a464bd3c0c,
mall,Pembangunan Perumahan,nanga bulik kabupaten lamandau,"RCFW+3RP, Jalan, Nanga Bulik, Bulik, Lamandau Regency, Central Kalimantan 74161","Jalan, Nanga Bulik, Bulik, Lamandau Regency",KALIMANTAN TENGAH,74161.0,Indonesia,,,,-2.177298,111.4470724,https://maps.google.com/?cid=0x0:0x9755122c5b476b0c,
mall,Pasar,Pasar Nanga Bulik,"RFF7+6PW, Nanga Bulik, Kec. Bulik, Kabupaten Lamandau, Kalimantan Tengah 74161","Nanga Bulik, Kec. Bulik, Kabupaten Lamandau",KALIMANTAN TENGAH,74161.0,Indonesia,,,,-2.1768967,111.4643371,https://maps.google.com/?cid=0x0:0x2945e653a5b699de,
mall,Toko,Toko ABY,"RC8W+QHQ, Nanga Bulik, Kec. Bulik, Kabupaten Lamandau, Kalimantan Tengah 74161","Nanga Bulik, Kec. Bulik, Kabupaten Lamandau",KALIMANTAN TENGAH,74161.0,Indonesia,,,,-2.1830352,111.4464866,https://maps.google.com/?cid=0x0:0xac8b55b49d391b6f,
mall,Toko Pakaian,Toko Ana,"Jl. Tjilik Riwut No.rt 1, Nanga Bulik, Kec. Bulik, Kabupaten Lamandau, Kalimantan Tengah 74660","Nanga Bulik, Kec. Bulik, Kabupaten Lamandau",KALIMANTAN TENGAH,74660.0,Indonesia,81234920663.0,,,-2.1876186,111.4666545,https://maps.google.com/?cid=0x0:0x80f87bff18965d11,
mall,Toserba,Kantin Echo,"2F69+FXG, Tamiang, Kec. Bulik, Kabupaten Lamandau, Kalimantan Tengah","Kabupaten Lamandau, Kalimantan Tengah",KALIMANTAN TENGAH,,Indonesia,,,,-1.988805,111.4699567,https://maps.google.com/?cid=0x0:0x2fc0e48848ca2e2c,
mall,Toko Kosmetik,MALL'S KOSMETIK / AGEN PULSA ALL OP,"RFC7+CXW, Jl. JC Rangkap, Nanga Bulik, Kec. Bulik, Kabupaten Lamandau, Kalimantan Tengah 74161","Jl. JC Rangkap, Nanga Bulik, Kec. Bulik, Kabupaten Lamandau",KALIMANTAN TENGAH,74161.0,Indonesia,81253630550.0,,,-2.1788805,111.4649606,https://maps.google.com/?cid=0x0:0xf0e34e7f85c0ff3,
mall,Kantor Pemerintah,Lamandau Kalimantan Tengah,"RC8J+43V, Jl. Bukit Hibul Timur, Nanga Bulik, Kec. Bulik, Kabupaten Lamandau, Kalimantan Tengah 74161","Jl. Bukit Hibul Timur, Nanga Bulik, Kec. Bulik, Kabupaten Lamandau",KALIMANTAN TENGAH,74161.0,Indonesia,,,,-2.1846299,111.4301741,https://maps.google.com/?cid=0x0:0x5fd09124a23d109c,
mall,Pusat Perbelanjaan,Toko mbak inin,"Unnamed Road No.74161, Nanga Bulik, Kec. Bulik, Kabupaten Lamandau, Kalimantan Tengah 74161","Nanga Bulik, Kec. Bulik, Kabupaten Lamandau",KALIMANTAN TENGAH,74161.0,Indonesia,82254897463.0,,,-2.1776727,111.4640425,https://maps.google.com/?cid=0x0:0x31ac440accb1b684,
mall,Minimarket,Almuna mini market,"RF95+MQC, Nanga Bulik, Kec. Bulik, Kabupaten Lamandau, Kalimantan Tengah 74161","Nanga Bulik, Kec. Bulik, Kabupaten Lamandau",KALIMANTAN TENGAH,74161.0,Indonesia,,,,-2.1808245,111.4594046,https://maps.google.com/?cid=0x0:0x6009c3b18e574bf0,
mall,Toko,Toko Alghifari,"2CMV+VGR, Nanga Belantikan, Kec. Belantikan Raya, Kabupaten Lamandau, Kalimantan Tengah 74162","Nanga Belantikan, Kec. Belantikan Raya, Kabupaten Lamandau",KALIMANTAN TENGAH,74162.0,Indonesia,,,,-1.9652502,111.4437726,https://maps.google.com/?cid=0x0:0x82ebe294f3f7f1c6,
mall,Pusat Perbelanjaan,Toko CakraBARU,"RC8X+6PP, Jl. Melati, Nanga Bulik, Kec. Bulik, Kabupaten Lamandau, Kalimantan Tengah 74161","Jl. Melati, Nanga Bulik, Kec. Bulik, Kabupaten Lamandau",KALIMANTAN TENGAH,74161.0,Indonesia,,,,-2.1844122,111.4493142,https://maps.google.com/?cid=0x0:0x5953805c98d8fbe3,
mall,Toko bahan makanan,Toko Sukses Bersama,"Jl. Batu Batanggui, Nanga Bulik, Kec. Bulik, Kabupaten Lamandau, Kalimantan Tengah 74161","Nanga Bulik, Kec. Bulik, Kabupaten Lamandau",KALIMANTAN TENGAH,74161.0,Indonesia,85348457495.0,,,-2.1796974,111.4628756,https://maps.google.com/?cid=0x0:0x88c149e6ecc7493f,
mall,Kantor Perusahaan,PT. MENTHOBI MAKMUR LESTARI,"Jl. Lintas Kalimantan No.Km. 11, Kujan, Kec. Bulik, Kabupaten Lamandau, Kalimantan Tengah 74161","Kujan, Kec. Bulik, Kabupaten Lamandau",KALIMANTAN TENGAH,74161.0,Indonesia,,,,-2.2480234,111.4312852,https://maps.google.com/?cid=0x0:0xb39c74813576040f,
mall,Pusat Rekreasi,Bundaran E,"RCFP+22R, Nanga Bulik, Kec. Bulik, Kabupaten Lamandau, Kalimantan Tengah 74161","Nanga Bulik, Kec. Bulik, Kabupaten Lamandau",KALIMANTAN TENGAH,74161.0,Indonesia,,,,-2.1774,111.434464,https://maps.google.com/?cid=0x0:0x994caba3ad372018,
mall,Sekolah Menengah Kejuruan,SMK NEGERI 1 BULIK,"QCX7+R5M, Arga Mulya, Kec. Bulik, Kabupaten Lamandau, Kalimantan Tengah 74162","Arga Mulya, Kec. Bulik, Kabupaten Lamandau",KALIMANTAN TENGAH,74162.0,Indonesia,,,,-2.2004203,111.4129359,https://maps.google.com/?cid=0x0:0x96dab5baeed368f0,
mall,Taman Rekreasi Air,BSM Water Park,"R9GG+V3, Nanga Bulik, Kec. Bulik, Kabupaten Lamandau, Kalimantan Tengah","Kabupaten Lamandau, Kalimantan Tengah",KALIMANTAN TENGAH,,Indonesia,81349961963.0,,,-2.172804,111.375145,https://maps.google.com/?cid=0x0:0xb334aa69d4d3f82c,
mall,mall,Kalimantan Tengah 74612,"Kec. Bulik, Kabupaten Lamandau, Kalimantan Tengah","Kabupaten Lamandau, Kalimantan Tengah",KALIMANTAN TENGAH,,Indonesia,,,,-2.0421323,111.463361,https://maps.google.com/?cid=0x0:0xc38ed0bb98a86bd0,
mall,Pembangunan Perumahan,nanga bulik kabupaten lamandau,"RCFW+3RP, Jalan, Nanga Bulik, Bulik, Lamandau Regency, Central Kalimantan 74161","Jalan, Nanga Bulik, Bulik, Lamandau Regency",KALIMANTAN TENGAH,74161.0,Indonesia,,,,-2.177298,111.4470724,https://maps.google.com/?cid=0x0:0x9755122c5b476b0c,
mall,Komplek perumahan,Merambang,"4JW5+QXH, Merambang, Kec. Bulik Tim., Kabupaten Lamandau, Kalimantan Tengah 74162","Merambang, Kec. Bulik Tim., Kabupaten Lamandau",KALIMANTAN TENGAH,74162.0,Indonesia,,,,-1.8530637,111.6099734,https://maps.google.com/?cid=0x0:0x5f1c9bc8b5fa6be3,
mall,Toko,Ts,"Jl. Tjilik Riwut No.36, Nanga Bulik, Kec. Bulik, Kabupaten Lamandau, Kalimantan Tengah 74161","Nanga Bulik, Kec. Bulik, Kabupaten Lamandau",KALIMANTAN TENGAH,74161.0,Indonesia,85252202366.0,,,-2.1766538,111.4615801,https://maps.google.com/?cid=0x0:0xbdbc186da042acd2,
mall,Pusat Perbelanjaan,Toko CakraBARU,"RC8X+6PP, Jl. Melati, Nanga Bulik, Kec. Bulik, Kabupaten Lamandau, Kalimantan Tengah 74161","Jl. Melati, Nanga Bulik, Kec. Bulik, Kabupaten Lamandau",KALIMANTAN TENGAH,74161.0,Indonesia,,,,-2.1844122,111.4493142,https://maps.google.com/?cid=0x0:0x5953805c98d8fbe3,
mall,Toko,Toko ABY,"RC8W+QHQ, Nanga Bulik, Kec. Bulik, Kabupaten Lamandau, Kalimantan Tengah 74161","Nanga Bulik, Kec. Bulik, Kabupaten Lamandau",KALIMANTAN TENGAH,74161.0,Indonesia,,,,-2.1830352,111.4464866,https://maps.google.com/?cid=0x0:0xac8b55b49d391b6f,
mall,Toko Pakaian,Toko Ana,"Jl. Tjilik Riwut No.rt 1, Nanga Bulik, Kec. Bulik, Kabupaten Lamandau, Kalimantan Tengah 74660","Nanga Bulik, Kec. Bulik, Kabupaten Lamandau",KALIMANTAN TENGAH,74660.0,Indonesia,81234920663.0,,,-2.1876186,111.4666545,https://maps.google.com/?cid=0x0:0x80f87bff18965d11,
mall,Toko Kosmetik,MALL'S KOSMETIK / AGEN PULSA ALL OP,"RFC7+CXW, Jl. JC Rangkap, Nanga Bulik, Kec. Bulik, Kabupaten Lamandau, Kalimantan Tengah 74161","Jl. JC Rangkap, Nanga Bulik, Kec. Bulik, Kabupaten Lamandau",KALIMANTAN TENGAH,74161.0,Indonesia,81253630550.0,,,-2.1788805,111.4649606,https://maps.google.com/?cid=0x0:0xf0e34e7f85c0ff3,
mall,Pusat Perbelanjaan,Toko mbak inin,"Unnamed Road No.74161, Nanga Bulik, Kec. Bulik, Kabupaten Lamandau, Kalimantan Tengah 74161","Nanga Bulik, Kec. Bulik, Kabupaten Lamandau",KALIMANTAN TENGAH,74161.0,Indonesia,82254897463.0,,,-2.1776727,111.4640425,https://maps.google.com/?cid=0x0:0x31ac440accb1b684,
mall,mall,Kafa Water shop,"XFGQ+48C, Unnamed Road, Beruta, Kec. Bulik, Kabupaten Lamandau, Kalimantan Tengah 74162","Unnamed Road, Beruta, Kec. Bulik, Kabupaten Lamandau",KALIMANTAN TENGAH,74162.0,Indonesia,,,,-2.0246851,111.4882779,https://maps.google.com/?cid=0x0:0x69101665bcb6169,
mall,Toko bahan makanan,eSLCp SOPHIEPARIS LAMANDAU,"RF93+V3G, Jl. Djagui Mamud, Nanga Bulik, Kec. Bulik, Kabupaten Lamandau, Kalimantan Tengah 74161","Jl. Djagui Mamud, Nanga Bulik, Kec. Bulik, Kabupaten Lamandau",KALIMANTAN TENGAH,74161.0,Indonesia,81346263236.0,,,-2.1803151,111.4527166,https://maps.google.com/?cid=0x0:0xbd3d8a722da0fc45,
mall,Pusat Perbelanjaan,Toko Kharisma,"Nanga Bulik, Kec. Bulik, Kabupaten Lamandau, Kalimantan Tengah 74161","Kec. Bulik, Kabupaten Lamandau",KALIMANTAN TENGAH,74161.0,Indonesia,82255502476.0,,,-2.177362,111.4472322,https://maps.google.com/?cid=0x0:0x6f6240cf300ad8bc,
mall,Pusat Perbelanjaan,Kios syahria,"RFF7+2VW, Nanga Bulik, Kec. Bulik, Kabupaten Lamandau, Kalimantan Tengah 74161","Nanga Bulik, Kec. Bulik, Kabupaten Lamandau",KALIMANTAN TENGAH,74161.0,Indonesia,81254758992.0,,,-2.1773915,111.4647089,https://maps.google.com/?cid=0x0:0xd7043f0ef8a09df6,
mall,Pusat Perbelanjaan,Aulia Kios,"Jl. Trans Kalimantan KM. 1, Desa , Kel. Kab. Kecamatan, RT. 7, Kujan, Nanga Bulik, Bulik, Nanga Bulik, Lamandau, Kabupaten Lamandau, Kalimantan Tengah 74161","Desa , Kel. Kab. Kecamatan, RT. 7, Kujan, Nanga Bulik, Bulik, Nanga Bulik, Lamandau, Kabupaten Lamandau",KALIMANTAN TENGAH,74161.0,Indonesia,82255066677.0,,,-2.2029293,111.4564759,https://maps.google.com/?cid=0x0:0x237dcd67593487ad,
mall,Toko,Toko setia,"Unnamed Road, 74161, Nanga Bulik, Kec. Bulik, Kabupaten Lamandau, Kalimantan Tengah 74161","74161, Nanga Bulik, Kec. Bulik, Kabupaten Lamandau",KALIMANTAN TENGAH,74161.0,Indonesia,85391128771.0,,,-2.1776833,111.4378033,https://maps.google.com/?cid=0x0:0x94ce52193d6fc11,
mall,Toko Swalayan,UNIQLO - Ã†ON Mall Tanjung Barat,"12, Jl. Raya Tj. Barat No.163, RT.12/RW.4, West Tanjung, Jagakarsa, South Jakarta City, Jakarta 12530","Jl. Raya Tj. Barat No.163, RT.12/RW.4, West Tanjung, Jagakarsa, South Jakarta City",KALIMANTAN TENGAH,12530.0,Indonesia,2150102830.0,,,-6.3056988,106.8404027,https://maps.google.com/?cid=0x0:0xc6cbe8972b7d19d,
mall,Toko Sepatu,Buccheri D'Mall,"D'Mall Depok, Jl. Margonda No.9 Lt.G, Kemiri Muka, Kecamatan Beji, Kota Depok, Jawa Barat 16423","Jl. Margonda No.9 Lt.G, Kemiri Muka, Kecamatan Beji, Kota Depok",KALIMANTAN TENGAH,16423.0,Indonesia,217760212.0,,,-6.3870661,106.8268711,https://maps.google.com/?cid=0x0:0xd1ee59ff68115110,
mall,Toko,UNIQLO MARGOCITY Depok,"Jl. Margonda Raya No.358, Kemiri Muka, Kecamatan Beji, Kota Depok, Jawa Barat 16424","Kemiri Muka, Kecamatan Beji, Kota Depok",KALIMANTAN TENGAH,16424.0,Indonesia,2178870992.0,,,-6.372764,106.8351123,https://maps.google.com/?cid=0x0:0xa7049bb33caa285e,
mall,Toko Pakaian,UNIQLO PONDOK INDAH MALL 1 Jakarta Selatan,"Pondok Indah Mall, Jl. Metro Pondok Indah No.1 2F, Pd. Pinang, Kec. Kby. Lama, Jakarta, Daerah Khusus Ibukota Jakarta 12310","Jl. Metro Pondok Indah No.1 2F, Pd. Pinang, Kec. Kby. Lama, Jakarta",KALIMANTAN TENGAH,12310.0,Indonesia,2150110870.0,,,-6.2647936,106.7848438,https://maps.google.com/?cid=0x0:0x1110604ff306174e,
mall,Toko Pakaian,UNIQLO LIPPO MALL KEMANG Jakarta Selatan,"Lippo Mall Kemang, Jl. Pangeran Antasari No.36, RT.12/RW.5, Bangka, Kec. Mampang Prpt., Kota Jakarta Selatan, Daerah Khusus Ibukota Jakarta 12150","Jl. Pangeran Antasari No.36, RT.12/RW.5, Bangka, Kec. Mampang Prpt., Kota Jakarta Selatan",KALIMANTAN TENGAH,12150.0,Indonesia,2150111358.0,,,-6.261974,106.8130239,https://maps.google.com/?cid=0x0:0x475e876d3f6b778e,
mall,Pusat Perbelanjaan,UNIQLO Harapan Indah Avenue (HIVE),"Jl. Harapan Indah Boulevard, Medan Satria, Kecamatan Medan Satria, Kota Bks, Jawa Barat 17132","Medan Satria, Kecamatan Medan Satria, Kota Bks",KALIMANTAN TENGAH,17132.0,Indonesia,,,,-6.1690164,106.9742352,https://maps.google.com/?cid=0x0:0x1d4d159d275995de,
mall,Toko Pakaian,UNIQLO,"Pd. Indah Mall 3, Jl. Sultan Iskandar Muda No.28E, Pd. Pinang, Kec. Kby. Lama, Kota Jakarta Selatan, Daerah Khusus Ibukota Jakarta 12240","Jl. Sultan Iskandar Muda No.28E, Pd. Pinang, Kec. Kby. Lama, Kota Jakarta Selatan",KALIMANTAN TENGAH,12240.0,Indonesia,2150110912.0,,,-6.2641869,106.7816093,https://maps.google.com/?cid=0x0:0xe0a4619b39d8c730,
mall,Toko Pakaian,UNIQLO SUMMARECON MALL Bekasi,"Sentra Summarecon Bekasi, Jl. Boulevard Ahmad Yani, Marga Mulya, Kec. Bekasi Utara, Kota Bks, Jawa Barat 17142","Jl. Boulevard Ahmad Yani, Marga Mulya, Kec. Bekasi Utara, Kota Bks",KALIMANTAN TENGAH,17142.0,Indonesia,2130620244.0,,,-6.2261091,106.9992896,https://maps.google.com/?cid=0x0:0xba92676829c6703c,
mall,Toko Pakaian,UNIQLO LA PIAZZA KELAPA GADING Jakarta Utara,"Jl. Boulevard Raya, RT.13/RW.18, Klp. Gading Tim., Kec. Klp. Gading, Jkt Utara, Daerah Khusus Ibukota Jakarta 14240","RT.13/RW.18, Klp. Gading Tim., Kec. Klp. Gading, Jkt Utara",KALIMANTAN TENGAH,14240.0,Indonesia,2150420230.0,,,-6.160239,106.9060583,https://maps.google.com/?cid=0x0:0xdf154e58f071df68,
mall,mall,Kalimantan Tengah 74162,"Kabupaten Lamandau, Kalimantan Tengah","Kabupaten Lamandau, Kalimantan Tengah",KALIMANTAN TENGAH,,Indonesia,,,,-1.7404903,111.5229817,https://maps.google.com/?cid=0x0:0xcbde8a77875b152b,
mall,Toko,DELTA Cell,"3FWM+GRM, Bukit Jaya, Kec. Bulik Tim., Kabupaten Lamandau, Kalimantan Tengah 74162","Bukit Jaya, Kec. Bulik Tim., Kabupaten Lamandau",KALIMANTAN TENGAH,74162.0,Indonesia,82221116441.0,,,-1.9036627,111.48454,https://maps.google.com/?cid=0x0:0x8f8504c31fa5bacf,
mall,Komplek perumahan,Merambang,"4JW5+QXH, Merambang, Kec. Bulik Tim., Kabupaten Lamandau, Kalimantan Tengah 74162","Merambang, Kec. Bulik Tim., Kabupaten Lamandau",KALIMANTAN TENGAH,74162.0,Indonesia,,,,-1.8530637,111.6099734,https://maps.google.com/?cid=0x0:0x5f1c9bc8b5fa6be3,
mall,Toko,Ts,"Jl. Tjilik Riwut No.36, Nanga Bulik, Kec. Bulik, Kabupaten Lamandau, Kalimantan Tengah 74161","Nanga Bulik, Kec. Bulik, Kabupaten Lamandau",KALIMANTAN TENGAH,74161.0,Indonesia,85252202366.0,,,-2.1766538,111.4615801,https://maps.google.com/?cid=0x0:0xbdbc186da042acd2,
mall,Toko Pakaian,VDshop TokoRumahan (Vera),"Jl. GTM Yusuf RT 11, Nanga Bulik, Kec. Bulik, Kabupaten Lamandau, Kalimantan Tengah 74161","Nanga Bulik, Kec. Bulik, Kabupaten Lamandau",KALIMANTAN TENGAH,74161.0,Indonesia,82153088892.0,,,-2.1770403,111.4468925,https://maps.google.com/?cid=0x0:0x6d78ebb41bf63304,
mall,Pusat Perbelanjaan,Toko Kharisma,"Nanga Bulik, Kec. Bulik, Kabupaten Lamandau, Kalimantan Tengah 74161","Kec. Bulik, Kabupaten Lamandau",KALIMANTAN TENGAH,74161.0,Indonesia,82255502476.0,,,-2.177362,111.4472322,https://maps.google.com/?cid=0x0:0x6f6240cf300ad8bc,
mall,Toko,Toko ABY,"RC8W+QHQ, Nanga Bulik, Kec. Bulik, Kabupaten Lamandau, Kalimantan Tengah 74161","Nanga Bulik, Kec. Bulik, Kabupaten Lamandau",KALIMANTAN TENGAH,74161.0,Indonesia,,,,-2.1830352,111.4464866,https://maps.google.com/?cid=0x0:0xac8b55b49d391b6f,
mall,Toko,Toko Andalas,"RC9P+GQJ, Jl. W.R. Supratman, Nanga Bulik, Kec. Bulik, Kabupaten Lamandau, Kalimantan Tengah 74162","Jl. W.R. Supratman, Nanga Bulik, Kec. Bulik, Kabupaten Lamandau",KALIMANTAN TENGAH,74162.0,Indonesia,81222053136.0,,,-2.181153,111.4368925,https://maps.google.com/?cid=0x0:0x79d6461f4ef0c027,
mall,Kantor Perusahaan,Batu Tunggal,"5MC4+653, Batu Tunggal, Kec. Bulik Tim., Kabupaten Lamandau, Kalimantan Tengah 74152","Batu Tunggal, Kec. Bulik Tim., Kabupaten Lamandau",KALIMANTAN TENGAH,74152.0,Indonesia,,,,-1.829498,111.6554066,https://maps.google.com/?cid=0x0:0xa20bba14ec730918,
mall,Toko Kosmetik,MALL'S KOSMETIK / AGEN PULSA ALL OP,"RFC7+CXW, Jl. JC Rangkap, Nanga Bulik, Kec. Bulik, Kabupaten Lamandau, Kalimantan Tengah 74161","Jl. JC Rangkap, Nanga Bulik, Kec. Bulik, Kabupaten Lamandau",KALIMANTAN TENGAH,74161.0,Indonesia,81253630550.0,,,-2.1788805,111.4649606,https://maps.google.com/?cid=0x0:0xf0e34e7f85c0ff3,
mall,Toko bahan makanan,eSLCp SOPHIEPARIS LAMANDAU,"RF93+V3G, Jl. Djagui Mamud, Nanga Bulik, Kec. Bulik, Kabupaten Lamandau, Kalimantan Tengah 74161","Jl. Djagui Mamud, Nanga Bulik, Kec. Bulik, Kabupaten Lamandau",KALIMANTAN TENGAH,74161.0,Indonesia,81346263236.0,,,-2.1803151,111.4527166,https://maps.google.com/?cid=0x0:0xbd3d8a722da0fc45,
mall,Pusat Perbelanjaan,Toko CakraBARU,"RC8X+6PP, Jl. Melati, Nanga Bulik, Kec. Bulik, Kabupaten Lamandau, Kalimantan Tengah 74161","Jl. Melati, Nanga Bulik, Kec. Bulik, Kabupaten Lamandau",KALIMANTAN TENGAH,74161.0,Indonesia,,,,-2.1844122,111.4493142,https://maps.google.com/?cid=0x0:0x5953805c98d8fbe3,
mall,Pusat Perbelanjaan,Toko NN familly,"RF82+4HV, Jl. Batu Batanggui, Nanga Bulik, Kec. Bulik, Kabupaten Lamandau, Kalimantan Tengah 74161","Jl. Batu Batanggui, Nanga Bulik, Kec. Bulik, Kabupaten Lamandau",KALIMANTAN TENGAH,74161.0,Indonesia,,,,-2.1846316,111.4514104,https://maps.google.com/?cid=0x0:0x1a00c05c9f55abff,
mall,Toko Perlengkapan Rumah,Toko Mukti,"depan gedung serba guna, Jl. Batu Batanggui, Nanga Bulik, Kec. Bulik, Kabupaten Lamandau, Kalimantan Tengah 74161","Jl. Batu Batanggui, Nanga Bulik, Kec. Bulik, Kabupaten Lamandau",KALIMANTAN TENGAH,74161.0,Indonesia,8567944888.0,,,-2.1827981,111.4544073,https://maps.google.com/?cid=0x0:0x2135626f7bf20175,
mall,Pusat Perbelanjaan,Kios syahria,"RFF7+2VW, Nanga Bulik, Kec. Bulik, Kabupaten Lamandau, Kalimantan Tengah 74161","Nanga Bulik, Kec. Bulik, Kabupaten Lamandau",KALIMANTAN TENGAH,74161.0,Indonesia,81254758992.0,,,-2.1773915,111.4647089,https://maps.google.com/?cid=0x0:0xd7043f0ef8a09df6,
mall,Toko bahan makanan,Kantin Fahri 1 Alpha SBE,"Toka, Kec. Bulik Tim., Kabupaten Lamandau, Kalimantan Tengah 74152","Kec. Bulik Tim., Kabupaten Lamandau",KALIMANTAN TENGAH,74152.0,Indonesia,82114431446.0,,,-1.905982,111.6345593,https://maps.google.com/?cid=0x0:0x4ec05d3f57c7e230,
mall,Toko Pakaian,Toko Ana,"Jl. Tjilik Riwut No.rt 1, Nanga Bulik, Kec. Bulik, Kabupaten Lamandau, Kalimantan Tengah 74660","Nanga Bulik, Kec. Bulik, Kabupaten Lamandau",KALIMANTAN TENGAH,74660.0,Indonesia,81234920663.0,,,-2.1876186,111.4666545,https://maps.google.com/?cid=0x0:0x80f87bff18965d11,
mall,Pembangunan Perumahan,nanga bulik kabupaten lamandau,"RCFW+3RP, Jalan, Nanga Bulik, Bulik, Lamandau Regency, Central Kalimantan 74161","Jalan, Nanga Bulik, Bulik, Lamandau Regency",KALIMANTAN TENGAH,74161.0,Indonesia,,,,-2.177298,111.4470724,https://maps.google.com/?cid=0x0:0x9755122c5b476b0c,
mall,Pusat Perbelanjaan,Terang Bulan,"3FWM+JMW, Unnamed Road, Nuangan, Kec. Bulik Tim., Kabupaten Lamandau, Kalimantan Tengah 74162","Unnamed Road, Nuangan, Kec. Bulik Tim., Kabupaten Lamandau",KALIMANTAN TENGAH,74162.0,Indonesia,81390962290.0,,,-1.9033912,111.4841884,https://maps.google.com/?cid=0x0:0x2f95bfec09054e12,
mall,Dealer Toyota,Toyota Auto2000 Lamandau,"RF96+W99, Unnamed Road, Nanga Bulik, Kec. Bulik, Kabupaten Lamandau, Kalimantan Tengah 74161","Unnamed Road, Nanga Bulik, Kec. Bulik, Kabupaten Lamandau",KALIMANTAN TENGAH,74161.0,Indonesia,82254492220.0,,,-2.1802035,111.4609712,https://maps.google.com/?cid=0x0:0x1a0882ae6804accf,
mall,Toko Elektronik,Toko marscell elektronik,"RFF4+56H, Nanga Bulik, Kec. Bulik, Kabupaten Lamandau, Kalimantan Tengah 74161","Nanga Bulik, Kec. Bulik, Kabupaten Lamandau",KALIMANTAN TENGAH,74161.0,Indonesia,81255112293.0,,,-2.1770569,111.4556063,https://maps.google.com/?cid=0x0:0xc72435a9e26c9d08,
mall,mall,Kec. Bulik Tim.,"Kabupaten Lamandau, Kalimantan Tengah","Kabupaten Lamandau, Kalimantan Tengah",KALIMANTAN TENGAH,,Indonesia,,,,-1.7393458,111.6183755,https://maps.google.com/?cid=0x0:0x6b6ae45b64328719,
mall,Toko Bahan Bangunan,sahabat bangunan,"RF84+R69, Jl. Batu Batanggui, Nanga Bulik, Kec. Bulik, Kabupaten Lamandau, Kalimantan Tengah 74161","Jl. Batu Batanggui, Nanga Bulik, Kec. Bulik, Kabupaten Lamandau",KALIMANTAN TENGAH,74161.0,Indonesia,81949697844.0,,,-2.1829602,111.4556081,https://maps.google.com/?cid=0x0:0xf508897240d8220,
mall,mall,Pasar Kudanga,"C22Q+P7H, Kudangan, Kec. Delang, Kabupaten Lamandau, Kalimantan Tengah 74664","Kudangan, Kec. Delang, Kabupaten Lamandau",KALIMANTAN TENGAH,74664.0,Indonesia,,,,-1.5981975,111.0382491,https://maps.google.com/?cid=0x0:0x100b169577619322,
mall,Pusat Perbelanjaan,Puri Indah Mall,"Jl. Puri Agung No.1, Kembangan Sel., Kec. Kembangan, Kota Jakarta Barat, Daerah Khusus Ibukota Jakarta 11610","Kembangan Sel., Kec. Kembangan, Kota Jakarta Barat",KALIMANTAN TENGAH,11610.0,Indonesia,215822582.0,,,-6.1890746,106.7334914,https://maps.google.com/?cid=0x0:0x6653aecc17740a12,
mall,Pusat Perbelanjaan,Puri Indah Mall 2,"Jl. Puri Indah Raya No.RT.1 Blok Q.2, RT.1/RW.2, South Kembangan, Kembangan, West Jakarta City, Jakarta 11610","RT.1/RW.2, South Kembangan, Kembangan, West Jakarta City",KALIMANTAN TENGAH,11610.0,Indonesia,215822582.0,,,-6.1874669,106.7329946,https://maps.google.com/?cid=0x0:0x14a49055c10b3f5b,
mall,Toko Swalayan,Grand Lucky - Puri Indah Mall 2,"Jl. Puri Agung No.1, RT.1/RW.2, Kembangan Sel., Kec. Kembangan, Kota Jakarta Barat, Daerah Khusus Ibukota Jakarta 11610","RT.1/RW.2, Kembangan Sel., Kec. Kembangan, Kota Jakarta Barat",KALIMANTAN TENGAH,11610.0,Indonesia,,,,-6.1871437,106.7327179,https://maps.google.com/?cid=0x0:0x4990ba95e3f100b4,
mall,mall,Kalimantan Tengah 74663,"Kabupaten Lamandau, Kalimantan Tengah","Kabupaten Lamandau, Kalimantan Tengah",KALIMANTAN TENGAH,,Indonesia,,,,-1.9269166,111.1891151,https://maps.google.com/?cid=0x0:0xddd786c27266b53a,
mall,Kafe,Samu Jaya Komplek Ruko,"48CC+9FR, Samu Jaya, Kec. Lamandau, Kabupaten Lamandau, Kalimantan Tengah 74663","Samu Jaya, Kec. Lamandau, Kabupaten Lamandau",KALIMANTAN TENGAH,74663.0,Indonesia,,,,-1.8790207,111.3211259,https://maps.google.com/?cid=0x0:0x2cf2606e4cfe6c43,
mall,Komplek perumahan,Merambang,"4JW5+QXH, Merambang, Kec. Bulik Tim., Kabupaten Lamandau, Kalimantan Tengah 74162","Merambang, Kec. Bulik Tim., Kabupaten Lamandau",KALIMANTAN TENGAH,74162.0,Indonesia,,,,-1.8530637,111.6099734,https://maps.google.com/?cid=0x0:0x5f1c9bc8b5fa6be3,
mall,Pembangunan Perumahan,nanga bulik kabupaten lamandau,"RCFW+3RP, Jalan, Nanga Bulik, Bulik, Lamandau Regency, Central Kalimantan 74161","Jalan, Nanga Bulik, Bulik, Lamandau Regency",KALIMANTAN TENGAH,74161.0,Indonesia,,,,-2.177298,111.4470724,https://maps.google.com/?cid=0x0:0x9755122c5b476b0c,
mall,Toko bahan makanan,Borneo Supermarket,"RF96+V9C, Jl. Batu Betanggui, Nanga Bulik, Kec. Bulik, Kabupaten Lamandau, Kalimantan Tengah 74161","Jl. Batu Betanggui, Nanga Bulik, Kec. Bulik, Kabupaten Lamandau",KALIMANTAN TENGAH,74161.0,Indonesia,85751797069.0,,,-2.180302,111.4608802,https://maps.google.com/?cid=0x0:0x9626262724f41eef,
mall,Toko bahan makanan,eSLCp SOPHIEPARIS LAMANDAU,"RF93+V3G, Jl. Djagui Mamud, Nanga Bulik, Kec. Bulik, Kabupaten Lamandau, Kalimantan Tengah 74161","Jl. Djagui Mamud, Nanga Bulik, Kec. Bulik, Kabupaten Lamandau",KALIMANTAN TENGAH,74161.0,Indonesia,81346263236.0,,,-2.1803151,111.4527166,https://maps.google.com/?cid=0x0:0xbd3d8a722da0fc45,
mall,Toko Pakaian,VDshop TokoRumahan (Vera),"Jl. GTM Yusuf RT 11, Nanga Bulik, Kec. Bulik, Kabupaten Lamandau, Kalimantan Tengah 74161","Nanga Bulik, Kec. Bulik, Kabupaten Lamandau",KALIMANTAN TENGAH,74161.0,Indonesia,82153088892.0,,,-2.1770403,111.4468925,https://maps.google.com/?cid=0x0:0x6d78ebb41bf63304,
mall,Kantor Perusahaan,Batu Tunggal,"5MC4+653, Batu Tunggal, Kec. Bulik Tim., Kabupaten Lamandau, Kalimantan Tengah 74152","Batu Tunggal, Kec. Bulik Tim., Kabupaten Lamandau",KALIMANTAN TENGAH,74152.0,Indonesia,,,,-1.829498,111.6554066,https://maps.google.com/?cid=0x0:0xa20bba14ec730918,
mall,Pusat Perbelanjaan,Toko Maulana,"QFQ9+MQ8 Kantor, Jl. Lintas Kalimantan, Kujan, Bulik, Lamandau Regency, Central Kalimantan 74161","Jl. Lintas Kalimantan, Kujan, Bulik, Lamandau Regency",KALIMANTAN TENGAH,74161.0,Indonesia,81528538039.0,,,-2.2108436,111.4694487,https://maps.google.com/?cid=0x0:0x38d902db01d2a738,
mall,Toko,Ts,"Jl. Tjilik Riwut No.36, Nanga Bulik, Kec. Bulik, Kabupaten Lamandau, Kalimantan Tengah 74161","Nanga Bulik, Kec. Bulik, Kabupaten Lamandau",KALIMANTAN TENGAH,74161.0,Indonesia,85252202366.0,,,-2.1766538,111.4615801,https://maps.google.com/?cid=0x0:0xbdbc186da042acd2,
mall,Pusat Perbelanjaan,Terang Bulan,"3FWM+JMW, Unnamed Road, Nuangan, Kec. Bulik Tim., Kabupaten Lamandau, Kalimantan Tengah 74162","Unnamed Road, Nuangan, Kec. Bulik Tim., Kabupaten Lamandau",KALIMANTAN TENGAH,74162.0,Indonesia,81390962290.0,,,-1.9033912,111.4841884,https://maps.google.com/?cid=0x0:0x2f95bfec09054e12,
mall,Pusat Perbelanjaan,Toko Kharisma,"Nanga Bulik, Kec. Bulik, Kabupaten Lamandau, Kalimantan Tengah 74161","Kec. Bulik, Kabupaten Lamandau",KALIMANTAN TENGAH,74161.0,Indonesia,82255502476.0,,,-2.177362,111.4472322,https://maps.google.com/?cid=0x0:0x6f6240cf300ad8bc,
mall,Toko,Toko Sembako Mama Fairuz,"6C97+X5V, Bayat, Kec. Belantikan Raya, Kabupaten Lamandau, Kalimantan Tengah","Kabupaten Lamandau, Kalimantan Tengah",KALIMANTAN TENGAH,,Indonesia,,,,-1.7800243,111.4129199,https://maps.google.com/?cid=0x0:0x9b11c915385a7faa,
mall,mall,Swalayan Almuna,"47WM+WRR, Tapin Bini, Kec. Lamandau, Kabupaten Lamandau, Kalimantan Tengah 74663","Tapin Bini, Kec. Lamandau, Kabupaten Lamandau",KALIMANTAN TENGAH,74663.0,Indonesia,,,,-1.8526377,111.2845025,https://maps.google.com/?cid=0x0:0x9bd424c867373a8b,
mall,mall,Kalimantan Tengah 74162,"Kabupaten Lamandau, Kalimantan Tengah","Kabupaten Lamandau, Kalimantan Tengah",KALIMANTAN TENGAH,,Indonesia,,,,-1.7404903,111.5229817,https://maps.google.com/?cid=0x0:0xcbde8a77875b152b,
mall,Komplek perumahan,Merambang,"4JW5+QXH, Merambang, Kec. Bulik Tim., Kabupaten Lamandau, Kalimantan Tengah 74162","Merambang, Kec. Bulik Tim., Kabupaten Lamandau",KALIMANTAN TENGAH,74162.0,Indonesia,,,,-1.8530637,111.6099734,https://maps.google.com/?cid=0x0:0x5f1c9bc8b5fa6be3,
mall,Toko,Berkah Abadi Photo,"Unnamed Road No.74117, Bukit Raya, Kec. Menthobi Raya, Kabupaten Lamandau, Kalimantan Tengah 74117","Bukit Raya, Kec. Menthobi Raya, Kabupaten Lamandau",KALIMANTAN TENGAH,74117.0,Indonesia,85799299976.0,,,-2.0695688,111.6360732,https://maps.google.com/?cid=0x0:0x257233c60e777eba,
mall,Toko Pakaian,VDshop TokoRumahan (Vera),"Jl. GTM Yusuf RT 11, Nanga Bulik, Kec. Bulik, Kabupaten Lamandau, Kalimantan Tengah 74161","Nanga Bulik, Kec. Bulik, Kabupaten Lamandau",KALIMANTAN TENGAH,74161.0,Indonesia,82153088892.0,,,-2.1770403,111.4468925,https://maps.google.com/?cid=0x0:0x6d78ebb41bf63304,
mall,Kantor Perusahaan,Batu Tunggal,"5MC4+653, Batu Tunggal, Kec. Bulik Tim., Kabupaten Lamandau, Kalimantan Tengah 74152","Batu Tunggal, Kec. Bulik Tim., Kabupaten Lamandau",KALIMANTAN TENGAH,74152.0,Indonesia,,,,-1.829498,111.6554066,https://maps.google.com/?cid=0x0:0xa20bba14ec730918,
mall,Toko bahan makanan,eSLCp SOPHIEPARIS LAMANDAU,"RF93+V3G, Jl. Djagui Mamud, Nanga Bulik, Kec. Bulik, Kabupaten Lamandau, Kalimantan Tengah 74161","Jl. Djagui Mamud, Nanga Bulik, Kec. Bulik, Kabupaten Lamandau",KALIMANTAN TENGAH,74161.0,Indonesia,81346263236.0,,,-2.1803151,111.4527166,https://maps.google.com/?cid=0x0:0xbd3d8a722da0fc45,
mall,Toko Kosmetik,MALL'S KOSMETIK / AGEN PULSA ALL OP,"RFC7+CXW, Jl. JC Rangkap, Nanga Bulik, Kec. Bulik, Kabupaten Lamandau, Kalimantan Tengah 74161","Jl. JC Rangkap, Nanga Bulik, Kec. Bulik, Kabupaten Lamandau",KALIMANTAN TENGAH,74161.0,Indonesia,81253630550.0,,,-2.1788805,111.4649606,https://maps.google.com/?cid=0x0:0xf0e34e7f85c0ff3,
mall,Toko,DELTA Cell,"3FWM+GRM, Bukit Jaya, Kec. Bulik Tim., Kabupaten Lamandau, Kalimantan Tengah 74162","Bukit Jaya, Kec. Bulik Tim., Kabupaten Lamandau",KALIMANTAN TENGAH,74162.0,Indonesia,82221116441.0,,,-1.9036627,111.48454,https://maps.google.com/?cid=0x0:0x8f8504c31fa5bacf,
mall,Toko Bahan Bangunan,sahabat bangunan,"RF84+R69, Jl. Batu Batanggui, Nanga Bulik, Kec. Bulik, Kabupaten Lamandau, Kalimantan Tengah 74161","Jl. Batu Batanggui, Nanga Bulik, Kec. Bulik, Kabupaten Lamandau",KALIMANTAN TENGAH,74161.0,Indonesia,81949697844.0,,,-2.1829602,111.4556081,https://maps.google.com/?cid=0x0:0xf508897240d8220,
mall,Toko Swalayan,Toko Usman/Sarhimi,"H2, Bukit Raya, Kec. Menthobi Raya, Kabupaten Lamandau, Kalimantan Tengah 74117","Bukit Raya, Kec. Menthobi Raya, Kabupaten Lamandau",KALIMANTAN TENGAH,74117.0,Indonesia,81210740255.0,,,-2.0678469,111.6366988,https://maps.google.com/?cid=0x0:0xbc4848dcbbf1b81f,
mall,Toko,Toko Andalas,"RC9P+GQJ, Jl. W.R. Supratman, Nanga Bulik, Kec. Bulik, Kabupaten Lamandau, Kalimantan Tengah 74162","Jl. W.R. Supratman, Nanga Bulik, Kec. Bulik, Kabupaten Lamandau",KALIMANTAN TENGAH,74162.0,Indonesia,81222053136.0,,,-2.181153,111.4368925,https://maps.google.com/?cid=0x0:0x79d6461f4ef0c027,
mall,Toko bahan makanan,Kantin Fahri 1 Alpha SBE,"Toka, Kec. Bulik Tim., Kabupaten Lamandau, Kalimantan Tengah 74152","Kec. Bulik Tim., Kabupaten Lamandau",KALIMANTAN TENGAH,74152.0,Indonesia,82114431446.0,,,-1.905982,111.6345593,https://maps.google.com/?cid=0x0:0x4ec05d3f57c7e230,
mall,Pabrik Filtrasi,Menthobi raya,"Q9PR+C5, Kujan, Kec. Bulik, Kabupaten Lamandau, Kalimantan Tengah 74161","Kujan, Kec. Bulik, Kabupaten Lamandau",KALIMANTAN TENGAH,74161.0,Indonesia,,,,-2.2139662,111.3904172,https://maps.google.com/?cid=0x0:0xe61adf119e08a3b7,
mall,Toko,Ts,"Jl. Tjilik Riwut No.36, Nanga Bulik, Kec. Bulik, Kabupaten Lamandau, Kalimantan Tengah 74161","Nanga Bulik, Kec. Bulik, Kabupaten Lamandau",KALIMANTAN TENGAH,74161.0,Indonesia,85252202366.0,,,-2.1766538,111.4615801,https://maps.google.com/?cid=0x0:0xbdbc186da042acd2,
mall,Pusat Perbelanjaan,TOKO ANISA,"WH7V+JJ3, Unnamed Road, Bukit Makmur, Kec. Menthobi Raya, Kabupaten Lamandau, Kalimantan Tengah 74117","Unnamed Road, Bukit Makmur, Kec. Menthobi Raya, Kabupaten Lamandau",KALIMANTAN TENGAH,74117.0,Indonesia,81250039701.0,,,-2.0859996,111.594043,https://maps.google.com/?cid=0x0:0x383307cb1e31f9ac,
mall,Pusat Perbelanjaan,Toko NN familly,"RF82+4HV, Jl. Batu Batanggui, Nanga Bulik, Kec. Bulik, Kabupaten Lamandau, Kalimantan Tengah 74161","Jl. Batu Batanggui, Nanga Bulik, Kec. Bulik, Kabupaten Lamandau",KALIMANTAN TENGAH,74161.0,Indonesia,,,,-2.1846316,111.4514104,https://maps.google.com/?cid=0x0:0x1a00c05c9f55abff,
mall,Pusat Perbelanjaan,Kios syahria,"RFF7+2VW, Nanga Bulik, Kec. Bulik, Kabupaten Lamandau, Kalimantan Tengah 74161","Nanga Bulik, Kec. Bulik, Kabupaten Lamandau",KALIMANTAN TENGAH,74161.0,Indonesia,81254758992.0,,,-2.1773915,111.4647089,https://maps.google.com/?cid=0x0:0xd7043f0ef8a09df6,
mall,Toko,Toko ABY,"RC8W+QHQ, Nanga Bulik, Kec. Bulik, Kabupaten Lamandau, Kalimantan Tengah 74161","Nanga Bulik, Kec. Bulik, Kabupaten Lamandau",KALIMANTAN TENGAH,74161.0,Indonesia,,,,-2.1830352,111.4464866,https://maps.google.com/?cid=0x0:0xac8b55b49d391b6f,
mall,Pusat Perbelanjaan,Toko Kharisma,"Nanga Bulik, Kec. Bulik, Kabupaten Lamandau, Kalimantan Tengah 74161","Kec. Bulik, Kabupaten Lamandau",KALIMANTAN TENGAH,74161.0,Indonesia,82255502476.0,,,-2.177362,111.4472322,https://maps.google.com/?cid=0x0:0x6f6240cf300ad8bc,
mall,Kantor Perusahaan,KANTOR MELATA ESTATE,"3JJ4+V9C, Tim.,, Nanga Koring, Kec. Bulik Tim., Kabupaten Lamandau, Kalimantan Tengah 74162","Tim.,, Nanga Koring, Kec. Bulik Tim., Kabupaten Lamandau",KALIMANTAN TENGAH,74162.0,Indonesia,,,,-1.9178058,111.6058961,https://maps.google.com/?cid=0x0:0x9b0ed7e8406dc451,
mall,Toko Elektronik,Toko marscell elektronik,"RFF4+56H, Nanga Bulik, Kec. Bulik, Kabupaten Lamandau, Kalimantan Tengah 74161","Nanga Bulik, Kec. Bulik, Kabupaten Lamandau",KALIMANTAN TENGAH,74161.0,Indonesia,81255112293.0,,,-2.1770569,111.4556063,https://maps.google.com/?cid=0x0:0xc72435a9e26c9d08,
mall,mall,Kec. Menthobi Raya,"Kabupaten Lamandau, Kalimantan Tengah","Kabupaten Lamandau, Kalimantan Tengah",KALIMANTAN TENGAH,,Indonesia,,,,-2.050416,111.6153851,https://maps.google.com/?cid=0x0:0x45123dfed8d40bd7,
mall,Toko Buah dan Sayur,Dua putri mart,"XMGM+QM4, Modang MAS, Kec. Menthobi Raya, Kabupaten Lamandau, Kalimantan Tengah 74152","Modang MAS, Kec. Menthobi Raya, Kabupaten Lamandau",KALIMANTAN TENGAH,74152.0,Indonesia,,,,-2.0231003,111.6842135,https://maps.google.com/?cid=0x0:0x11a916ccad00e126,
mall,Pusat Perbelanjaan,Parman Onderdil,"VPQ2+6PH, Sumber Jaya, Kec. Menthobi Raya, Kabupaten Lamandau, Kalimantan Tengah 74117","Sumber Jaya, Kec. Menthobi Raya, Kabupaten Lamandau",KALIMANTAN TENGAH,74117.0,Indonesia,,,,-2.1119384,111.7018452,https://maps.google.com/?cid=0x0:0x9626eca6231297c2,
mall,mall,Melata,"2J9H+VW9, Melata, Kec. Menthobi Raya, Kabupaten Lamandau, Kalimantan Tengah 74152","Melata, Kec. Menthobi Raya, Kabupaten Lamandau",KALIMANTAN TENGAH,74152.0,Indonesia,,,,-1.9803355,111.6298576,https://maps.google.com/?cid=0x0:0xbf35c7df4fd0b1ff,
mall,mall,Ruko RB,"WJMR+492, Bukit Raya, Kec. Menthobi Raya, Kabupaten Lamandau, Kalimantan Tengah 74117","Bukit Raya, Kec. Menthobi Raya, Kabupaten Lamandau",KALIMANTAN TENGAH,74117.0,Indonesia,,,,-2.0672254,111.6408828,https://maps.google.com/?cid=0x0:0x284c5d706015b930,
mall,mall,Toko busana,"WJMR+3GF, Unnamed Road, Bukit Raya, Kec. Menthobi Raya, Kabupaten Lamandau, Kalimantan Tengah 74117","Unnamed Road, Bukit Raya, Kec. Menthobi Raya, Kabupaten Lamandau",KALIMANTAN TENGAH,74117.0,Indonesia,,,,-2.0673212,111.6412888,https://maps.google.com/?cid=0x0:0x35cdffc4acc3188a,
mall,mall,Kec. Sematu Jaya,"Kabupaten Lamandau, Kalimantan Tengah","Kabupaten Lamandau, Kalimantan Tengah",KALIMANTAN TENGAH,,Indonesia,,,,-2.2356757,111.5156988,https://maps.google.com/?cid=0x0:0xa84b471e5053bba1,
mall,Komplek perumahan,Omah jamur raya,"QG67+9XC, Purworejo, Kec. Sematu Jaya, Kabupaten Lamandau, Kalimantan Tengah 74161","Purworejo, Kec. Sematu Jaya, Kabupaten Lamandau",KALIMANTAN TENGAH,74161.0,Indonesia,82157765677.0,,,-2.239058,111.5148846,https://maps.google.com/?cid=0x0:0x709d0211197ecf5f,
mall,Toko,Toko Prastina (Anja),"RH22+WMX, Bina Bhakti, Kec. Sematu Jaya, Kabupaten Lamandau, Kalimantan Tengah 74161","Bina Bhakti, Kec. Sematu Jaya, Kabupaten Lamandau",KALIMANTAN TENGAH,74161.0,Indonesia,,,,-2.1976291,111.5517415,https://maps.google.com/?cid=0x0:0x80062c706bc1a374,
mall,,Toko Anggun,"QG2G+3XP, Jalan Trans Desa, Jangkar Prima, Sematu Jaya, Lamandau Regency, Central Kalimantan 74161","Jalan Trans Desa, Jangkar Prima, Sematu Jaya, Lamandau Regency",KALIMANTAN TENGAH,74161.0,Indonesia,,,,-2.2497962,111.5274629,https://maps.google.com/?cid=0x0:0xd527c31c8fe9c728,
mall,,PASAR SETAN,"Mekar Mulya, Kec. Sematu Jaya, Kabupaten Lamandau, Kalimantan Tengah","Kabupaten Lamandau, Kalimantan Tengah",KALIMANTAN TENGAH,,Indonesia,,,,-2.2801511,111.5624953,https://maps.google.com/?cid=0x0:0x3b25e939bcf7f21c,
mall,Toko,Fotocopy Al Musthoffa,"Jl. Lintas Kalimantan, Purworejo, Kec. Sematu Jaya, Kabupaten Lamandau, Kalimantan Tengah 74116","Purworejo, Kec. Sematu Jaya, Kabupaten Lamandau",KALIMANTAN TENGAH,74116.0,Indonesia,81349454583.0,,,-2.2357047,111.5155483,https://maps.google.com/?cid=0x0:0x32b9e04b335feee9,
mall,Sekolah menengah,SMA Negeri 1 Sematu Jaya,"Jalan Lintas Kalimantan Desa Purwareja RT. 09, Purworejo, Kec. Sematu Jaya, Kabupaten Lamandau, Kalimantan Tengah 74161","Purworejo, Kec. Sematu Jaya, Kabupaten Lamandau",KALIMANTAN TENGAH,74161.0,Indonesia,85245459996.0,,,-2.2252246,111.5153383,https://maps.google.com/?cid=0x0:0x1246a130ec700ed3,
mall,Pusat Perbelanjaan,Toko Maulana,"QFQ9+MQ8 Kantor, Jl. Lintas Kalimantan, Kujan, Bulik, Lamandau Regency, Central Kalimantan 74161","Jl. Lintas Kalimantan, Kujan, Bulik, Lamandau Regency",KALIMANTAN TENGAH,74161.0,Indonesia,81528538039.0,,,-2.2108436,111.4694487,https://maps.google.com/?cid=0x0:0x38d902db01d2a738,
mall,,TOKO GALIH JUAL MAINAN ANAK ANAK,"PH86+6C4, Unnamed Road, Mekar Mulya, Kec. Sematu Jaya, Kabupaten Lamandau, Kalimantan Tengah 74161","Unnamed Road, Mekar Mulya, Kec. Sematu Jaya, Kabupaten Lamandau",KALIMANTAN TENGAH,74161.0,Indonesia,,,,-2.284495,111.5610692,https://maps.google.com/?cid=0x0:0x9d3e8a1f7e2fe5e1,
mall,Toko bahan makanan,Toko sembako 4 SEKAWAN,"PGVM+593, Jangkar Prima, Kec. Sematu Jaya, Kabupaten Lamandau, Kalimantan Tengah 74161","Jangkar Prima, Kec. Sematu Jaya, Kabupaten Lamandau",KALIMANTAN TENGAH,74161.0,Indonesia,,,,-2.2571248,111.5334114,https://maps.google.com/?cid=0x0:0xba88c7821b852ad1,
mall,mall,Toko Azzam Jaya,"PH62+FF5, Unnamed Road, Mekar Mulya, Kec. Sematu Jaya, Kabupaten Lamandau, Kalimantan Tengah 74161","Unnamed Road, Mekar Mulya, Kec. Sematu Jaya, Kabupaten Lamandau",KALIMANTAN TENGAH,74161.0,Indonesia,,,,-2.2888734,111.5512303,https://maps.google.com/?cid=0x0:0xa0b5c8a67436040f,
supermarket,Toko,Toko R4,"F5W3+RG, Kina, Kec. Batang Kawa, Kabupaten Lamandau, Kalimantan Tengah 74664","Kina, Kec. Batang Kawa, Kabupaten Lamandau",KALIMANTAN TENGAH,74664.0,Indonesia,,,,-1.5031986,111.153746,https://maps.google.com/?cid=0x0:0x5bbf671b6f22a06f,
supermarket,Toko,Toko Pelita,"F5W4+87M, Kina, Kec. Batang Kawa, Kabupaten Lamandau, Kalimantan Tengah 74664","Kina, Kec. Batang Kawa, Kabupaten Lamandau",KALIMANTAN TENGAH,74664.0,Indonesia,,,,-1.5036471,111.1554717,https://maps.google.com/?cid=0x0:0x9bf74f9cd467c0af,
supermarket,supermarket,Kalimantan Tengah 74664,"Kabupaten Lamandau, Kalimantan Tengah","Kabupaten Lamandau, Kalimantan Tengah",KALIMANTAN TENGAH,,Indonesia,,,,-1.6722405,111.1414226,https://maps.google.com/?cid=0x0:0x2e393b90c2443400,
supermarket,Toko bahan makanan,W.R M.A.J.A,"929R+228, Lopus, Kec. Delang, Kabupaten Lamandau, Kalimantan Tengah","Kabupaten Lamandau, Kalimantan Tengah",KALIMANTAN TENGAH,,Indonesia,,,,-1.632472,111.0400795,https://maps.google.com/?cid=0x0:0x45691c44009bf751,
supermarket,Toko,Warung Minak Sri,"7474+C7P, Riam Penahan, Kec. Delang, Kabupaten Lamandau, Kalimantan Tengah 74664","Riam Penahan, Kec. Delang, Kabupaten Lamandau",KALIMANTAN TENGAH,74664.0,Indonesia,,,,-1.7364164,111.1056914,https://maps.google.com/?cid=0x0:0xbaad99a41c640c27,
supermarket,supermarket,Kios Wifiq,"Kudangan, Kec. Delang, Kabupaten Lamandau, Kalimantan Tengah","Kabupaten Lamandau, Kalimantan Tengah",KALIMANTAN TENGAH,,Indonesia,,,,-1.5971104,111.0353601,https://maps.google.com/?cid=0x0:0x87df52c20abd7ffe,
supermarket,Toko,Toko Dua Putri(mama Angel),"Jl. Trans Kalimantan No.Rt. 01, Sungai Tuat, Kec. Lamandau, Kabupaten Lamandau, Kalimantan Tengah","Kabupaten Lamandau, Kalimantan Tengah",KALIMANTAN TENGAH,,Indonesia,,,,-1.7915792,111.0579632,https://maps.google.com/?cid=0x0:0x81b5105773929548,
supermarket,supermarket,Kalimantan Tengah 74663,"Kabupaten Lamandau, Kalimantan Tengah","Kabupaten Lamandau, Kalimantan Tengah",KALIMANTAN TENGAH,,Indonesia,,,,-1.9269166,111.1891151,https://maps.google.com/?cid=0x0:0xddd786c27266b53a,
supermarket,Pusat Perbelanjaan,Toko Bukit Gaharu,"25HJ+2GV, Jl. Lintas Kalimantan, Panopa, Kec. Lamandau, Kabupaten Lamandau, Kalimantan Tengah 74663","Jl. Lintas Kalimantan, Panopa, Kec. Lamandau, Kabupaten Lamandau",KALIMANTAN TENGAH,74663.0,Indonesia,82199131412.0,,,-1.9723936,111.1813116,https://maps.google.com/?cid=0x0:0x3d17ec723a421c0f,
supermarket,Pembangunan Perumahan,Suja Mart,"36VF+RQ4, Tapin Bini, Kec. Lamandau, Kabupaten Lamandau, Kalimantan Tengah 74663","Tapin Bini, Kec. Lamandau, Kabupaten Lamandau",KALIMANTAN TENGAH,74663.0,Indonesia,,,,-1.9054923,111.2244628,https://maps.google.com/?cid=0x0:0x3d3280700c8dd1cf,
supermarket,Toko Swalayan,Ud Parel,"48C8+8H9, Tapin Bini, Kec. Lamandau, Kabupaten Lamandau, Kalimantan Tengah 74663","Tapin Bini, Kec. Lamandau, Kabupaten Lamandau",KALIMANTAN TENGAH,74663.0,Indonesia,,,,-1.879222,111.3164974,https://maps.google.com/?cid=0x0:0x7caca8d95f867a06,
supermarket,Toko bahan makanan,Toko Pujo,"Samu Jaya rt.005, Tapin Bini, Kec. Lamandau, kab.Lamandau, Kalimantan Tengah 74663","Tapin Bini, Kec. Lamandau, kab.Lamandau",KALIMANTAN TENGAH,74663.0,Indonesia,,,,-1.8817945,111.3254925,https://maps.google.com/?cid=0x0:0xbca87c7ac81c5a35,
supermarket,Toko bahan makanan,Toko Cahaya Qolbi,"2FV2+HJP, Sumber Cahaya, Kec. Belantikan Raya, Kabupaten Lamandau, Kalimantan Tengah 74162","Sumber Cahaya, Kec. Belantikan Raya, Kabupaten Lamandau",KALIMANTAN TENGAH,74162.0,Indonesia,,,,-1.95604,111.451565,https://maps.google.com/?cid=0x0:0x597e128bab491915,
supermarket,Toko Swalayan,Palmmart,"Bukit Raya, Kec. Menthobi Raya, Kabupaten Lamandau, Kalimantan Tengah 74117","Kec. Menthobi Raya, Kabupaten Lamandau",KALIMANTAN TENGAH,74117.0,Indonesia,,,,-2.0718505,111.6340907,https://maps.google.com/?cid=0x0:0x1ac8c0288050c18,
supermarket,Nasi,Warung Karet,"25WJ+WG2, Jl. Lintas Kalimantan, Panopa, Kec. Lamandau, Kabupaten Lamandau, Kalimantan Tengah 74663","Jl. Lintas Kalimantan, Panopa, Kec. Lamandau, Kabupaten Lamandau",KALIMANTAN TENGAH,74663.0,Indonesia,82148732963.0,,,-1.9524556,111.1803421,https://maps.google.com/?cid=0x0:0x1e4c4790ed2eb18c,
supermarket,Toko bahan makanan,Toko Sri Rejeki,"RCX7+FX9, Bumi Agung, Kec. Bulik, Kabupaten Lamandau, Kalimantan Tengah 74161","Bumi Agung, Kec. Bulik, Kabupaten Lamandau",KALIMANTAN TENGAH,74161.0,Indonesia,82256231843.0,,,-2.1513267,111.414973,https://maps.google.com/?cid=0x0:0x7db71b7c2f7860da,
supermarket,Toko bahan makanan,TOKO ARRAHMAN,"Bukit Raya, Kec. Menthobi Raya, Kabupaten Lamandau, Kalimantan Tengah 74117","Kec. Menthobi Raya, Kabupaten Lamandau",KALIMANTAN TENGAH,74117.0,Indonesia,85642603555.0,,,-2.0681414,111.6378582,https://maps.google.com/?cid=0x0:0xdf041fe79a23a715,
supermarket,Pusat Perbelanjaan,TOKO AYNI JAYA,"BTN belakang koramil Jl. Bukit Hibul Barat, Nanga Bulik, Kec. Bulik, Kabupaten Lamandau, Kalimantan Tengah 74162","Nanga Bulik, Kec. Bulik, Kabupaten Lamandau",KALIMANTAN TENGAH,74162.0,Indonesia,82352789985.0,,,-2.1794843,111.4315128,https://maps.google.com/?cid=0x0:0x185ed54df3b1ea93,
supermarket,Toko Swalayan,Toko kayla aice crem,"VMX8+C3V, Jl. Dua, Sumber Jaya, Kec. Menthobi Raya, Kabupaten Lamandau, Kalimantan Tengah 74117","Jl. Dua, Sumber Jaya, Kec. Menthobi Raya, Kabupaten Lamandau",KALIMANTAN TENGAH,74117.0,Indonesia,81522893074.0,,,-2.1013811,111.6651849,https://maps.google.com/?cid=0x0:0x50a915c419888250,
supermarket,Toko,CABANG TOKO MARSEL,"3GM8+998, Nuangan, Kec. Bulik Tim., Kabupaten Lamandau, Kalimantan Tengah 74162","Nuangan, Kec. Bulik Tim., Kabupaten Lamandau",KALIMANTAN TENGAH,74162.0,Indonesia,82149669826.0,,,-1.9165861,111.5159434,https://maps.google.com/?cid=0x0:0xdc7b6e4addfa2f8f,
supermarket,,Toko Tani Berkah,"RCX8+6G3, Jl. Trans E, Bumi Agung, Bulik, Lamandau Regency, Central Kalimantan 74161","Jl. Trans E, Bumi Agung, Bulik, Lamandau Regency",KALIMANTAN TENGAH,74161.0,Indonesia,81349226345.0,,,-2.1519823,111.4162947,https://maps.google.com/?cid=0x0:0xb755308cb695f47c,
supermarket,Toko Swalayan,Toko Aice Ibu Reni Julianti,"RFF3+PCX, Nanga Bulik, Kec. Bulik, Kabupaten Lamandau, Kalimantan Tengah 74161","Nanga Bulik, Kec. Bulik, Kabupaten Lamandau",KALIMANTAN TENGAH,74161.0,Indonesia,,,,-2.1756485,111.4535989,https://maps.google.com/?cid=0x0:0x9cd3518356fba084,
supermarket,Toko Swalayan,Toko Mbak Yuni,"PH93+V25, Mekar Mulya, Kec. Sematu Jaya, Kabupaten Lamandau, Kalimantan Tengah 74161","Mekar Mulya, Kec. Sematu Jaya, Kabupaten Lamandau",KALIMANTAN TENGAH,74161.0,Indonesia,85349595837.0,,,-2.2803523,111.5526133,https://maps.google.com/?cid=0x0:0xcf199a3be6f69e63,
supermarket,Toko Swalayan,Toko reni,"RCQF+3HM, Bumi Agung, Kec. Bulik, Kabupaten Lamandau, Kalimantan Tengah","Kabupaten Lamandau, Kalimantan Tengah",KALIMANTAN TENGAH,,Indonesia,,,,-2.1622952,111.4239129,https://maps.google.com/?cid=0x0:0xdd57c9b4ce36db0,
supermarket,Toko bahan makanan,Warung sembako afdeling 4,"X9WP+CHG, Tamiang, Kec. Bulik, Kabupaten Lamandau, Kalimantan Tengah","Kabupaten Lamandau, Kalimantan Tengah",KALIMANTAN TENGAH,,Indonesia,85345909006.0,,,-2.0039381,111.3864544,https://maps.google.com/?cid=0x0:0x37fee21596ce3f15,
supermarket,Toko Swalayan,Toko Aice Ibu Rini Julianti,"PGVM+CC7, Unnamed Road, Jangkar Prima, Kec. Sematu Jaya, Kabupaten Lamandau, Kalimantan Tengah 74161","Unnamed Road, Jangkar Prima, Kec. Sematu Jaya, Kabupaten Lamandau",KALIMANTAN TENGAH,74161.0,Indonesia,,,,-2.256468,111.533552,https://maps.google.com/?cid=0x0:0x8d1eeccfa4968b90,
supermarket,Toko bahan makanan,Toko Sinar Pambelum (Rest Area Melata),"2J4J+6JQ, Sungkup, Kec. Menthobi Raya, Kabupaten Lamandau, Kalimantan Tengah","Kabupaten Lamandau, Kalimantan Tengah",KALIMANTAN TENGAH,,Indonesia,81528534450.0,,,-1.9944156,111.6316077,https://maps.google.com/?cid=0x0:0xe021cdb4cc705b17,
supermarket,Toko Elektronik,TOKO RISYA km18,"3FWM+6M7, Bukit Jaya, Kec. Bulik Tim., Kabupaten Lamandau, Kalimantan Tengah","Kabupaten Lamandau, Kalimantan Tengah",KALIMANTAN TENGAH,,Indonesia,,,,-1.9044585,111.484162,https://maps.google.com/?cid=0x0:0x394760bd2aeed85,
supermarket,Komplek perumahan,Lamandau Market,"W756+P77, JL. GTM Yusuf Translokal, Nanga Bulik, Nanga Bulik, Kec. Lamandau, Kabupaten Lamandau, Kalimantan Tengah 74173","JL. GTM Yusuf Translokal, Nanga Bulik, Nanga Bulik, Kec. Lamandau, Kabupaten Lamandau",KALIMANTAN TENGAH,74173.0,Indonesia,85350536345.0,,,-2.090715,111.260678,https://maps.google.com/?cid=0x0:0x2834c89f1b62fd7d,
supermarket,Toko,Toko Dua Putri(mama Angel),"Jl. Trans Kalimantan No.Rt. 01, Sungai Tuat, Kec. Lamandau, Kabupaten Lamandau, Kalimantan Tengah","Kabupaten Lamandau, Kalimantan Tengah",KALIMANTAN TENGAH,,Indonesia,,,,-1.7915792,111.0579632,https://maps.google.com/?cid=0x0:0x81b5105773929548,
supermarket,supermarket,Kalimantan Tengah 74162,"Kabupaten Lamandau, Kalimantan Tengah","Kabupaten Lamandau, Kalimantan Tengah",KALIMANTAN TENGAH,,Indonesia,,,,-1.7404903,111.5229817,https://maps.google.com/?cid=0x0:0xcbde8a77875b152b,
supermarket,Toko bahan makanan,Borneo Supermarket,"RF96+V9C, Jl. Batu Betanggui, Nanga Bulik, Kec. Bulik, Kabupaten Lamandau, Kalimantan Tengah 74161","Jl. Batu Betanggui, Nanga Bulik, Kec. Bulik, Kabupaten Lamandau",KALIMANTAN TENGAH,74161.0,Indonesia,85751797069.0,,,-2.180302,111.4608802,https://maps.google.com/?cid=0x0:0x9626262724f41eef,
supermarket,Minimarket,Almuna mini market,"RF95+MQC, Nanga Bulik, Kec. Bulik, Kabupaten Lamandau, Kalimantan Tengah 74161","Nanga Bulik, Kec. Bulik, Kabupaten Lamandau",KALIMANTAN TENGAH,74161.0,Indonesia,,,,-2.1808245,111.4594046,https://maps.google.com/?cid=0x0:0x6009c3b18e574bf0,
supermarket,Minimarket,Mega Mart,"RCFW+3X7, Nanga Bulik, Kec. Bulik, Kabupaten Lamandau, Kalimantan Tengah 74161","Nanga Bulik, Kec. Bulik, Kabupaten Lamandau",KALIMANTAN TENGAH,74161.0,Indonesia,,,,-2.1773455,111.4474374,https://maps.google.com/?cid=0x0:0x7bf302f20b67a84b,
supermarket,Toko bahan makanan,Toko Sri Rejeki,"RCX7+FX9, Bumi Agung, Kec. Bulik, Kabupaten Lamandau, Kalimantan Tengah 74161","Bumi Agung, Kec. Bulik, Kabupaten Lamandau",KALIMANTAN TENGAH,74161.0,Indonesia,82256231843.0,,,-2.1513267,111.414973,https://maps.google.com/?cid=0x0:0x7db71b7c2f7860da,
supermarket,Grosir,Happy Mart Lamandau grosir dan eceran,"Jl. Bukit Hibul Timur, Nanga Bulik, Kec. Bulik, Kabupaten Lamandau, Kalimantan Tengah 74161","Nanga Bulik, Kec. Bulik, Kabupaten Lamandau",KALIMANTAN TENGAH,74161.0,Indonesia,81348270649.0,,,-2.1828338,111.4438286,https://maps.google.com/?cid=0x0:0xf8cf9c092ce41ddd,
supermarket,Toko,GBL Mart,"RC9M+F2M, Nanga Bulik, Kec. Bulik, Kabupaten Lamandau, Kalimantan Tengah 74161","Nanga Bulik, Kec. Bulik, Kabupaten Lamandau",KALIMANTAN TENGAH,74161.0,Indonesia,82352798171.0,,,-2.1812985,111.4325469,https://maps.google.com/?cid=0x0:0xa74772c013c1d0cf,
supermarket,Toko Swalayan,Palmmart,"Bukit Raya, Kec. Menthobi Raya, Kabupaten Lamandau, Kalimantan Tengah 74117","Kec. Menthobi Raya, Kabupaten Lamandau",KALIMANTAN TENGAH,74117.0,Indonesia,,,,-2.0718505,111.6340907,https://maps.google.com/?cid=0x0:0x1ac8c0288050c18,
supermarket,Toko bahan makanan,Toko Cahaya Qolbi,"2FV2+HJP, Sumber Cahaya, Kec. Belantikan Raya, Kabupaten Lamandau, Kalimantan Tengah 74162","Sumber Cahaya, Kec. Belantikan Raya, Kabupaten Lamandau",KALIMANTAN TENGAH,74162.0,Indonesia,,,,-1.95604,111.451565,https://maps.google.com/?cid=0x0:0x597e128bab491915,
supermarket,Toko bahan makanan,toko pulau laut,"Nanga Bulik, Kec. Bulik, Kabupaten Lamandau, Kalimantan Tengah 74161","Kec. Bulik, Kabupaten Lamandau",KALIMANTAN TENGAH,74161.0,Indonesia,82252782224.0,,,-2.1763981,111.4635323,https://maps.google.com/?cid=0x0:0x9fabb1cc1b136c9a,
supermarket,Toko bahan makanan,Toko Mandiri Jaya,"Desa, perigi raya, Kec. Bulik, Kabupaten Lamandau, Kalimantan Tengah 74660","perigi raya, Kec. Bulik, Kabupaten Lamandau",KALIMANTAN TENGAH,74660.0,Indonesia,,,,-2.0851063,111.5466997,https://maps.google.com/?cid=0x0:0xcfb82ccd50279b25,
supermarket,Toko bahan makanan,TOKO ARRAHMAN,"Bukit Raya, Kec. Menthobi Raya, Kabupaten Lamandau, Kalimantan Tengah 74117","Kec. Menthobi Raya, Kabupaten Lamandau",KALIMANTAN TENGAH,74117.0,Indonesia,85642603555.0,,,-2.0681414,111.6378582,https://maps.google.com/?cid=0x0:0xdf041fe79a23a715,
supermarket,Kantor Perusahaan,Toko Aice Siti Bulkis,"RCCJ+HM5, Nanga Bulik, Kec. Bulik, Kabupaten Lamandau, Kalimantan Tengah 74161","Nanga Bulik, Kec. Bulik, Kabupaten Lamandau",KALIMANTAN TENGAH,74161.0,Indonesia,,,,-2.1786191,111.4317347,https://maps.google.com/?cid=0x0:0x6d83d1ed1c64f09e,
supermarket,Toko,CABANG TOKO MARSEL,"3GM8+998, Nuangan, Kec. Bulik Tim., Kabupaten Lamandau, Kalimantan Tengah 74162","Nuangan, Kec. Bulik Tim., Kabupaten Lamandau",KALIMANTAN TENGAH,74162.0,Indonesia,82149669826.0,,,-1.9165861,111.5159434,https://maps.google.com/?cid=0x0:0xdc7b6e4addfa2f8f,
supermarket,Toko Swalayan,Toko Aice Ibu Reni Julianti,"RFF3+PCX, Nanga Bulik, Kec. Bulik, Kabupaten Lamandau, Kalimantan Tengah 74161","Nanga Bulik, Kec. Bulik, Kabupaten Lamandau",KALIMANTAN TENGAH,74161.0,Indonesia,,,,-2.1756485,111.4535989,https://maps.google.com/?cid=0x0:0x9cd3518356fba084,
supermarket,Minimarket,Toko Amalia,"RF98+W6G, Jl. JC Rangkap, Nanga Bulik, Kec. Bulik, Kabupaten Lamandau, Kalimantan Tengah 74161","Jl. JC Rangkap, Nanga Bulik, Kec. Bulik, Kabupaten Lamandau",KALIMANTAN TENGAH,74161.0,Indonesia,81250162748.0,,,-2.1801861,111.4655685,https://maps.google.com/?cid=0x0:0x4806e7e5e377b61a,
supermarket,Pasar,Toko Kurnia,"RFF7+5G6, Nanga Bulik, Kec. Bulik, Kabupaten Lamandau, Kalimantan Tengah 74161","Nanga Bulik, Kec. Bulik, Kabupaten Lamandau",KALIMANTAN TENGAH,74161.0,Indonesia,,,,-2.1770995,111.4637775,https://maps.google.com/?cid=0x0:0x5fdf4a91e3e34c8a,
supermarket,Pembangunan Perumahan,nanga bulik kabupaten lamandau,"RCFW+3RP, Jalan, Nanga Bulik, Bulik, Lamandau Regency, Central Kalimantan 74161","Jalan, Nanga Bulik, Bulik, Lamandau Regency",KALIMANTAN TENGAH,74161.0,Indonesia,,,,-2.177298,111.4470724,https://maps.google.com/?cid=0x0:0x9755122c5b476b0c,
supermarket,Toko Swalayan,Toko KBC (CIKA),"WGCQ+H7, Sungai Mentawa, Kec. Bulik, Kabupaten Lamandau, Kalimantan Tengah","Kabupaten Lamandau, Kalimantan Tengah",KALIMANTAN TENGAH,,Indonesia,,,,-2.0785161,111.5382075,https://maps.google.com/?cid=0x0:0xa7601cc2b402529b,
supermarket,Toko Swalayan,Toko Eka,"WG7X+JF2, Sungai Mentawa, Kec. Bulik, Kabupaten Lamandau, Kalimantan Tengah 74162","Sungai Mentawa, Kec. Bulik, Kabupaten Lamandau",KALIMANTAN TENGAH,74162.0,Indonesia,,,,-2.0859771,111.5486265,https://maps.google.com/?cid=0x0:0xaa41c86718064eaf,
supermarket,Toko Swalayan,Toko Agita,"WG7W+RQW, Sungai Mentawa, Kec. Bulik, Kabupaten Lamandau, Kalimantan Tengah 74162","Sungai Mentawa, Kec. Bulik, Kabupaten Lamandau",KALIMANTAN TENGAH,74162.0,Indonesia,,,,-2.0853975,111.5469682,https://maps.google.com/?cid=0x0:0x7a38facb6b6c5787,
supermarket,Toko bahan makanan,Kios palui,"RF95+767, Nanga Bulik, Kec. Bulik, Kabupaten Lamandau, Kalimantan Tengah 74162","Nanga Bulik, Kec. Bulik, Kabupaten Lamandau",KALIMANTAN TENGAH,74162.0,Indonesia,82351510183.0,,,-2.1818641,111.4582449,https://maps.google.com/?cid=0x0:0xffae7df5bf5e8a5,
supermarket,Toko,Kios Mawar Sari,"Jl. Batu Batanggui Rt.04 No.133, Nanga Bulik, Kec. Bulik, Kabupaten Lamandau, Kalimantan Tengah 74161","Nanga Bulik, Kec. Bulik, Kabupaten Lamandau",KALIMANTAN TENGAH,74161.0,Indonesia,85249079999.0,,,-2.1863233,111.4441291,https://maps.google.com/?cid=0x0:0x6b9c584311bd190,
supermarket,,Anya frozen food,"kode pos, Jl. Batu Batanggui, Nanga Bulik, Kec. Bulik, Kabupaten Lamandau, Kalimantan Tengah 74162","Jl. Batu Batanggui, Nanga Bulik, Kec. Bulik, Kabupaten Lamandau",KALIMANTAN TENGAH,74162.0,Indonesia,81250896564.0,,,-2.1813787,111.4589071,https://maps.google.com/?cid=0x0:0x7892bd9892d85cb2,
supermarket,Toko sembako pemerintah,Sembako pak arif,"5FPM+H86, Pedongatan, Kec. Bulik Tim., Kabupaten Lamandau, Kalimantan Tengah 74162","Pedongatan, Kec. Bulik Tim., Kabupaten Lamandau",KALIMANTAN TENGAH,74162.0,Indonesia,,,,-1.8135859,111.4832778,https://maps.google.com/?cid=0x0:0xdb268c4dbb8366d2,
supermarket,Kafe,greenfresh,"RC9W+HJF, Jl. Melati, Nanga Bulik, Kec. Bulik, Kabupaten Lamandau, Kalimantan Tengah 74161","Jl. Melati, Nanga Bulik, Kec. Bulik, Kabupaten Lamandau",KALIMANTAN TENGAH,74161.0,Indonesia,,,,-2.1810319,111.4465397,https://maps.google.com/?cid=0x0:0xb91f25c3f1a38b23,
supermarket,Toko bahan makanan,Toko Azkia,"RF82+47H, Nanga Bulik, Kec. Bulik, Kabupaten Lamandau, Kalimantan Tengah 74161","Nanga Bulik, Kec. Bulik, Kabupaten Lamandau",KALIMANTAN TENGAH,74161.0,Indonesia,85348602956.0,,,-2.1846856,111.4507268,https://maps.google.com/?cid=0x0:0xb29b1bfbae80d2a6,
supermarket,Pertanian,Mahardika sayur,"4F6M+2HC, Bukit Jaya, Kec. Bulik Tim., Kabupaten Lamandau, Kalimantan Tengah 74162","Bukit Jaya, Kec. Bulik Tim., Kabupaten Lamandau",KALIMANTAN TENGAH,74162.0,Indonesia,,,,-1.889018,111.484036,https://maps.google.com/?cid=0x0:0xbada0665a1b3b15,
supermarket,supermarket,Kalimantan Tengah 74611,"Kec. Bulik, Kabupaten Lamandau, Kalimantan Tengah","Kabupaten Lamandau, Kalimantan Tengah",KALIMANTAN TENGAH,,Indonesia,,,,-2.0058667,111.4395128,https://maps.google.com/?cid=0x0:0xb6c8a0a464bd3c0c,
supermarket,Toko bahan makanan,Borneo Supermarket,"RF96+V9C, Jl. Batu Betanggui, Nanga Bulik, Kec. Bulik, Kabupaten Lamandau, Kalimantan Tengah 74161","Jl. Batu Betanggui, Nanga Bulik, Kec. Bulik, Kabupaten Lamandau",KALIMANTAN TENGAH,74161.0,Indonesia,85751797069.0,,,-2.180302,111.4608802,https://maps.google.com/?cid=0x0:0x9626262724f41eef,
supermarket,Toko bahan makanan,Toko Sri Rejeki,"RCX7+FX9, Bumi Agung, Kec. Bulik, Kabupaten Lamandau, Kalimantan Tengah 74161","Bumi Agung, Kec. Bulik, Kabupaten Lamandau",KALIMANTAN TENGAH,74161.0,Indonesia,82256231843.0,,,-2.1513267,111.414973,https://maps.google.com/?cid=0x0:0x7db71b7c2f7860da,
supermarket,Grosir,Happy Mart Lamandau grosir dan eceran,"Jl. Bukit Hibul Timur, Nanga Bulik, Kec. Bulik, Kabupaten Lamandau, Kalimantan Tengah 74161","Nanga Bulik, Kec. Bulik, Kabupaten Lamandau",KALIMANTAN TENGAH,74161.0,Indonesia,81348270649.0,,,-2.1828338,111.4438286,https://maps.google.com/?cid=0x0:0xf8cf9c092ce41ddd,
supermarket,Pembangunan Perumahan,nanga bulik kabupaten lamandau,"RCFW+3RP, Jalan, Nanga Bulik, Bulik, Lamandau Regency, Central Kalimantan 74161","Jalan, Nanga Bulik, Bulik, Lamandau Regency",KALIMANTAN TENGAH,74161.0,Indonesia,,,,-2.177298,111.4470724,https://maps.google.com/?cid=0x0:0x9755122c5b476b0c,
supermarket,Pusat Perbelanjaan,TOKO AYNI JAYA,"BTN belakang koramil Jl. Bukit Hibul Barat, Nanga Bulik, Kec. Bulik, Kabupaten Lamandau, Kalimantan Tengah 74162","Nanga Bulik, Kec. Bulik, Kabupaten Lamandau",KALIMANTAN TENGAH,74162.0,Indonesia,82352789985.0,,,-2.1794843,111.4315128,https://maps.google.com/?cid=0x0:0x185ed54df3b1ea93,
supermarket,Toko,GBL Mart,"RC9M+F2M, Nanga Bulik, Kec. Bulik, Kabupaten Lamandau, Kalimantan Tengah 74161","Nanga Bulik, Kec. Bulik, Kabupaten Lamandau",KALIMANTAN TENGAH,74161.0,Indonesia,82352798171.0,,,-2.1812985,111.4325469,https://maps.google.com/?cid=0x0:0xa74772c013c1d0cf,
supermarket,Toko bahan makanan,toko pulau laut,"Nanga Bulik, Kec. Bulik, Kabupaten Lamandau, Kalimantan Tengah 74161","Kec. Bulik, Kabupaten Lamandau",KALIMANTAN TENGAH,74161.0,Indonesia,82252782224.0,,,-2.1763981,111.4635323,https://maps.google.com/?cid=0x0:0x9fabb1cc1b136c9a,
supermarket,Toko Swalayan,Toko ROBY,"PHC4+2C6, Unnamed Road, Mekar Mulya, Kec. Sematu Jaya, Kabupaten Lamandau, Kalimantan Tengah 74161","Unnamed Road, Mekar Mulya, Kec. Sematu Jaya, Kabupaten Lamandau",KALIMANTAN TENGAH,74161.0,Indonesia,82151231224.0,,,-2.2799701,111.5560307,https://maps.google.com/?cid=0x0:0x1d404d472215234a,
supermarket,Minimarket,Toko Reyes,"RC7W+H2W, Nanga Bulik, Kec. Bulik, Kabupaten Lamandau, Kalimantan Tengah 74161","Nanga Bulik, Kec. Bulik, Kabupaten Lamandau",KALIMANTAN TENGAH,74161.0,Indonesia,81332022911.0,,,-2.1860093,111.445091,https://maps.google.com/?cid=0x0:0x1713765dab0e03c,
supermarket,Toko bahan makanan,Toko Azkia,"RF82+47H, Nanga Bulik, Kec. Bulik, Kabupaten Lamandau, Kalimantan Tengah 74161","Nanga Bulik, Kec. Bulik, Kabupaten Lamandau",KALIMANTAN TENGAH,74161.0,Indonesia,85348602956.0,,,-2.1846856,111.4507268,https://maps.google.com/?cid=0x0:0xb29b1bfbae80d2a6,
supermarket,Pasar,Pasar Nanga Bulik,"RFF7+6PW, Nanga Bulik, Kec. Bulik, Kabupaten Lamandau, Kalimantan Tengah 74161","Nanga Bulik, Kec. Bulik, Kabupaten Lamandau",KALIMANTAN TENGAH,74161.0,Indonesia,,,,-2.1768967,111.4643371,https://maps.google.com/?cid=0x0:0x2945e653a5b699de,
supermarket,Toko bahan makanan,Toko Buah Bu Ririn Nanga Bulik,"RF95+CF8, Nanga Bulik, Kec. Bulik, Kabupaten Lamandau, Kalimantan Tengah 74161","Nanga Bulik, Kec. Bulik, Kabupaten Lamandau",KALIMANTAN TENGAH,74161.0,Indonesia,85385041610.0,,,-2.1814562,111.4587181,https://maps.google.com/?cid=0x0:0xa7dc70e04e0bcc3b,
supermarket,Minimarket,Toko Amalia,"RF98+W6G, Jl. JC Rangkap, Nanga Bulik, Kec. Bulik, Kabupaten Lamandau, Kalimantan Tengah 74161","Jl. JC Rangkap, Nanga Bulik, Kec. Bulik, Kabupaten Lamandau",KALIMANTAN TENGAH,74161.0,Indonesia,81250162748.0,,,-2.1801861,111.4655685,https://maps.google.com/?cid=0x0:0x4806e7e5e377b61a,
supermarket,Toko,Warung dekha,"RF97+RWQ, Nanga Bulik, Kec. Bulik, Kabupaten Lamandau, Kalimantan Tengah 74161","Nanga Bulik, Kec. Bulik, Kabupaten Lamandau",KALIMANTAN TENGAH,74161.0,Indonesia,82213232612.0,,,-2.1804239,111.4648618,https://maps.google.com/?cid=0x0:0xc08928fca535d6a2,
supermarket,Kafe,greenfresh,"RC9W+HJF, Jl. Melati, Nanga Bulik, Kec. Bulik, Kabupaten Lamandau, Kalimantan Tengah 74161","Jl. Melati, Nanga Bulik, Kec. Bulik, Kabupaten Lamandau",KALIMANTAN TENGAH,74161.0,Indonesia,,,,-2.1810319,111.4465397,https://maps.google.com/?cid=0x0:0xb91f25c3f1a38b23,
supermarket,Pasar,Toko Kurnia,"RFF7+5G6, Nanga Bulik, Kec. Bulik, Kabupaten Lamandau, Kalimantan Tengah 74161","Nanga Bulik, Kec. Bulik, Kabupaten Lamandau",KALIMANTAN TENGAH,74161.0,Indonesia,,,,-2.1770995,111.4637775,https://maps.google.com/?cid=0x0:0x5fdf4a91e3e34c8a,
supermarket,Toko Swalayan,Toko Agita,"WG7W+RQW, Sungai Mentawa, Kec. Bulik, Kabupaten Lamandau, Kalimantan Tengah 74162","Sungai Mentawa, Kec. Bulik, Kabupaten Lamandau",KALIMANTAN TENGAH,74162.0,Indonesia,,,,-2.0853975,111.5469682,https://maps.google.com/?cid=0x0:0x7a38facb6b6c5787,
supermarket,Toko Swalayan,Toko Eka,"WG7X+JF2, Sungai Mentawa, Kec. Bulik, Kabupaten Lamandau, Kalimantan Tengah 74162","Sungai Mentawa, Kec. Bulik, Kabupaten Lamandau",KALIMANTAN TENGAH,74162.0,Indonesia,,,,-2.0859771,111.5486265,https://maps.google.com/?cid=0x0:0xaa41c86718064eaf,
supermarket,Minimarket,Wrng sembako maÂ² 4Ld1,"RC38+68, Nanga Bulik, Kec. Bulik, Kabupaten Lamandau, Kalimantan Tengah","Kabupaten Lamandau, Kalimantan Tengah",KALIMANTAN TENGAH,,Indonesia,,,,-2.1969985,111.4157676,https://maps.google.com/?cid=0x0:0xa3e3b3fca302efef,
supermarket,Toko,Toko Sembako Bu Ross,"Jl. Lintas Kalimantan No.34, Nanga Bulik, Kec. Bulik, Kabupaten Lamandau, Kalimantan Tengah 74161","Nanga Bulik, Kec. Bulik, Kabupaten Lamandau",KALIMANTAN TENGAH,74161.0,Indonesia,,,,-2.1911997,111.4261122,https://maps.google.com/?cid=0x0:0xa33bbb8057a6c80c,
supermarket,Toko Swalayan,Warung nando,"QFRH+4XM, Kujan, Kec. Bulik, Kabupaten Lamandau, Kalimantan Tengah 74161","Kujan, Kec. Bulik, Kabupaten Lamandau",KALIMANTAN TENGAH,74161.0,Indonesia,,,,-2.2096687,111.479912,https://maps.google.com/?cid=0x0:0x7dbe51ac8e86ae30,
supermarket,,Rumah Ara Lamandau,"RC4V+P7F, Nanga Bulik, Kec. Bulik, Kabupaten Lamandau, Kalimantan Tengah 74161","Nanga Bulik, Kec. Bulik, Kabupaten Lamandau",KALIMANTAN TENGAH,74161.0,Indonesia,81254356445.0,,,-2.1929179,111.4433156,https://maps.google.com/?cid=0x0:0x63230704251c3494,
supermarket,Toko Swalayan,Toko Mbak Yuni,"PH93+V25, Mekar Mulya, Kec. Sematu Jaya, Kabupaten Lamandau, Kalimantan Tengah 74161","Mekar Mulya, Kec. Sematu Jaya, Kabupaten Lamandau",KALIMANTAN TENGAH,74161.0,Indonesia,85349595837.0,,,-2.2803523,111.5526133,https://maps.google.com/?cid=0x0:0xcf199a3be6f69e63,
supermarket,supermarket,Ruko Holala,"RC4R+79M, Nanga Bulik, Kec. Bulik, Kabupaten Lamandau, Kalimantan Tengah 74161","Nanga Bulik, Kec. Bulik, Kabupaten Lamandau",KALIMANTAN TENGAH,74161.0,Indonesia,82150697158.0,,,-2.1942812,111.440909,https://maps.google.com/?cid=0x0:0x47ca427fc2864b3d,
supermarket,supermarket,Kalimantan Tengah 74612,"Kec. Bulik, Kabupaten Lamandau, Kalimantan Tengah","Kabupaten Lamandau, Kalimantan Tengah",KALIMANTAN TENGAH,,Indonesia,,,,-2.0421323,111.463361,https://maps.google.com/?cid=0x0:0xc38ed0bb98a86bd0,
supermarket,Toko bahan makanan,Borneo Supermarket,"RF96+V9C, Jl. Batu Betanggui, Nanga Bulik, Kec. Bulik, Kabupaten Lamandau, Kalimantan Tengah 74161","Jl. Batu Betanggui, Nanga Bulik, Kec. Bulik, Kabupaten Lamandau",KALIMANTAN TENGAH,74161.0,Indonesia,85751797069.0,,,-2.180302,111.4608802,https://maps.google.com/?cid=0x0:0x9626262724f41eef,
supermarket,Toko bahan makanan,Toko Sri Rejeki,"RCX7+FX9, Bumi Agung, Kec. Bulik, Kabupaten Lamandau, Kalimantan Tengah 74161","Bumi Agung, Kec. Bulik, Kabupaten Lamandau",KALIMANTAN TENGAH,74161.0,Indonesia,82256231843.0,,,-2.1513267,111.414973,https://maps.google.com/?cid=0x0:0x7db71b7c2f7860da,
supermarket,Pembangunan Perumahan,nanga bulik kabupaten lamandau,"RCFW+3RP, Jalan, Nanga Bulik, Bulik, Lamandau Regency, Central Kalimantan 74161","Jalan, Nanga Bulik, Bulik, Lamandau Regency",KALIMANTAN TENGAH,74161.0,Indonesia,,,,-2.177298,111.4470724,https://maps.google.com/?cid=0x0:0x9755122c5b476b0c,
supermarket,Grosir,Happy Mart Lamandau grosir dan eceran,"Jl. Bukit Hibul Timur, Nanga Bulik, Kec. Bulik, Kabupaten Lamandau, Kalimantan Tengah 74161","Nanga Bulik, Kec. Bulik, Kabupaten Lamandau",KALIMANTAN TENGAH,74161.0,Indonesia,81348270649.0,,,-2.1828338,111.4438286,https://maps.google.com/?cid=0x0:0xf8cf9c092ce41ddd,
supermarket,Pusat Perbelanjaan,TOKO AYNI JAYA,"BTN belakang koramil Jl. Bukit Hibul Barat, Nanga Bulik, Kec. Bulik, Kabupaten Lamandau, Kalimantan Tengah 74162","Nanga Bulik, Kec. Bulik, Kabupaten Lamandau",KALIMANTAN TENGAH,74162.0,Indonesia,82352789985.0,,,-2.1794843,111.4315128,https://maps.google.com/?cid=0x0:0x185ed54df3b1ea93,
supermarket,Toko,Mega Mart Kujan,"QFR8+M6F, Jl. Lintas Kalimantan, Kujan, Kec. Bulik, Kabupaten Lamandau, Kalimantan Tengah 74161","Jl. Lintas Kalimantan, Kujan, Kec. Bulik, Kabupaten Lamandau",KALIMANTAN TENGAH,74161.0,Indonesia,5322067385.0,,,-2.2083206,111.4655551,https://maps.google.com/?cid=0x0:0xdf7a1f60a0314f99,
supermarket,Toko,Kios Mawar Sari,"Jl. Batu Batanggui Rt.04 No.133, Nanga Bulik, Kec. Bulik, Kabupaten Lamandau, Kalimantan Tengah 74161","Nanga Bulik, Kec. Bulik, Kabupaten Lamandau",KALIMANTAN TENGAH,74161.0,Indonesia,85249079999.0,,,-2.1863233,111.4441291,https://maps.google.com/?cid=0x0:0x6b9c584311bd190,
supermarket,Toko bahan makanan,toko pulau laut,"Nanga Bulik, Kec. Bulik, Kabupaten Lamandau, Kalimantan Tengah 74161","Kec. Bulik, Kabupaten Lamandau",KALIMANTAN TENGAH,74161.0,Indonesia,82252782224.0,,,-2.1763981,111.4635323,https://maps.google.com/?cid=0x0:0x9fabb1cc1b136c9a,
supermarket,Kantor Perusahaan,Toko Aice Siti Bulkis,"RCCJ+HM5, Nanga Bulik, Kec. Bulik, Kabupaten Lamandau, Kalimantan Tengah 74161","Nanga Bulik, Kec. Bulik, Kabupaten Lamandau",KALIMANTAN TENGAH,74161.0,Indonesia,,,,-2.1786191,111.4317347,https://maps.google.com/?cid=0x0:0x6d83d1ed1c64f09e,
supermarket,Toko bahan makanan,Toko Azkia,"RF82+47H, Nanga Bulik, Kec. Bulik, Kabupaten Lamandau, Kalimantan Tengah 74161","Nanga Bulik, Kec. Bulik, Kabupaten Lamandau",KALIMANTAN TENGAH,74161.0,Indonesia,85348602956.0,,,-2.1846856,111.4507268,https://maps.google.com/?cid=0x0:0xb29b1bfbae80d2a6,
supermarket,Toko Swalayan,Toko ROBY,"PHC4+2C6, Unnamed Road, Mekar Mulya, Kec. Sematu Jaya, Kabupaten Lamandau, Kalimantan Tengah 74161","Unnamed Road, Mekar Mulya, Kec. Sematu Jaya, Kabupaten Lamandau",KALIMANTAN TENGAH,74161.0,Indonesia,82151231224.0,,,-2.2799701,111.5560307,https://maps.google.com/?cid=0x0:0x1d404d472215234a,
supermarket,Toko,GBL Mart,"RC9M+F2M, Nanga Bulik, Kec. Bulik, Kabupaten Lamandau, Kalimantan Tengah 74161","Nanga Bulik, Kec. Bulik, Kabupaten Lamandau",KALIMANTAN TENGAH,74161.0,Indonesia,82352798171.0,,,-2.1812985,111.4325469,https://maps.google.com/?cid=0x0:0xa74772c013c1d0cf,
supermarket,Toko bahan makanan,Toko Buah Bu Ririn Nanga Bulik,"RF95+CF8, Nanga Bulik, Kec. Bulik, Kabupaten Lamandau, Kalimantan Tengah 74161","Nanga Bulik, Kec. Bulik, Kabupaten Lamandau",KALIMANTAN TENGAH,74161.0,Indonesia,85385041610.0,,,-2.1814562,111.4587181,https://maps.google.com/?cid=0x0:0xa7dc70e04e0bcc3b,
supermarket,Pasar,Pasar Pagi Nanga Bulik,"RC4X+RX3, Nanga Bulik, Kec. Bulik, Kabupaten Lamandau, Kalimantan Tengah","Kabupaten Lamandau, Kalimantan Tengah",KALIMANTAN TENGAH,,Indonesia,,,,-2.193,111.449915,https://maps.google.com/?cid=0x0:0x7856dacdaaab9b14,
supermarket,Pasar,Toko Kurnia,"RFF7+5G6, Nanga Bulik, Kec. Bulik, Kabupaten Lamandau, Kalimantan Tengah 74161","Nanga Bulik, Kec. Bulik, Kabupaten Lamandau",KALIMANTAN TENGAH,74161.0,Indonesia,,,,-2.1770995,111.4637775,https://maps.google.com/?cid=0x0:0x5fdf4a91e3e34c8a,
supermarket,Minimarket,Toko Reyes,"RC7W+H2W, Nanga Bulik, Kec. Bulik, Kabupaten Lamandau, Kalimantan Tengah 74161","Nanga Bulik, Kec. Bulik, Kabupaten Lamandau",KALIMANTAN TENGAH,74161.0,Indonesia,81332022911.0,,,-2.1860093,111.445091,https://maps.google.com/?cid=0x0:0x1713765dab0e03c,
supermarket,Kafe,greenfresh,"RC9W+HJF, Jl. Melati, Nanga Bulik, Kec. Bulik, Kabupaten Lamandau, Kalimantan Tengah 74161","Jl. Melati, Nanga Bulik, Kec. Bulik, Kabupaten Lamandau",KALIMANTAN TENGAH,74161.0,Indonesia,,,,-2.1810319,111.4465397,https://maps.google.com/?cid=0x0:0xb91f25c3f1a38b23,
supermarket,Minimarket,Toko Amalia,"RF98+W6G, Jl. JC Rangkap, Nanga Bulik, Kec. Bulik, Kabupaten Lamandau, Kalimantan Tengah 74161","Jl. JC Rangkap, Nanga Bulik, Kec. Bulik, Kabupaten Lamandau",KALIMANTAN TENGAH,74161.0,Indonesia,81250162748.0,,,-2.1801861,111.4655685,https://maps.google.com/?cid=0x0:0x4806e7e5e377b61a,
supermarket,Toko,Warung dekha,"RF97+RWQ, Nanga Bulik, Kec. Bulik, Kabupaten Lamandau, Kalimantan Tengah 74161","Nanga Bulik, Kec. Bulik, Kabupaten Lamandau",KALIMANTAN TENGAH,74161.0,Indonesia,82213232612.0,,,-2.1804239,111.4648618,https://maps.google.com/?cid=0x0:0xc08928fca535d6a2,
supermarket,Toko,CABANG TOKO MARSEL,"3GM8+998, Nuangan, Kec. Bulik Tim., Kabupaten Lamandau, Kalimantan Tengah 74162","Nuangan, Kec. Bulik Tim., Kabupaten Lamandau",KALIMANTAN TENGAH,74162.0,Indonesia,82149669826.0,,,-1.9165861,111.5159434,https://maps.google.com/?cid=0x0:0xdc7b6e4addfa2f8f,
supermarket,Toko Swalayan,Toko Agita,"WG7W+RQW, Sungai Mentawa, Kec. Bulik, Kabupaten Lamandau, Kalimantan Tengah 74162","Sungai Mentawa, Kec. Bulik, Kabupaten Lamandau",KALIMANTAN TENGAH,74162.0,Indonesia,,,,-2.0853975,111.5469682,https://maps.google.com/?cid=0x0:0x7a38facb6b6c5787,
supermarket,Toko Swalayan,Toko Eka,"WG7X+JF2, Sungai Mentawa, Kec. Bulik, Kabupaten Lamandau, Kalimantan Tengah 74162","Sungai Mentawa, Kec. Bulik, Kabupaten Lamandau",KALIMANTAN TENGAH,74162.0,Indonesia,,,,-2.0859771,111.5486265,https://maps.google.com/?cid=0x0:0xaa41c86718064eaf,
supermarket,Toko,Toko Sembako Bu Ross,"Jl. Lintas Kalimantan No.34, Nanga Bulik, Kec. Bulik, Kabupaten Lamandau, Kalimantan Tengah 74161","Nanga Bulik, Kec. Bulik, Kabupaten Lamandau",KALIMANTAN TENGAH,74161.0,Indonesia,,,,-2.1911997,111.4261122,https://maps.google.com/?cid=0x0:0xa33bbb8057a6c80c,
supermarket,Toko Rak,berkah jaya rak,"Kp. Ujung karawang, Pulo Gebang, Kec. Cakung, Kota Jakarta Timur, Daerah Khusus Ibukota Jakarta 13950","Pulo Gebang, Kec. Cakung, Kota Jakarta Timur",KALIMANTAN TENGAH,13950.0,Indonesia,881036804726.0,,,-6.1981205,106.9436833,https://maps.google.com/?cid=0x0:0xdeb0b9498aae59a1,
supermarket,Toko Swalayan,Warung nando,"QFRH+4XM, Kujan, Kec. Bulik, Kabupaten Lamandau, Kalimantan Tengah 74161","Kujan, Kec. Bulik, Kabupaten Lamandau",KALIMANTAN TENGAH,74161.0,Indonesia,,,,-2.2096687,111.479912,https://maps.google.com/?cid=0x0:0x7dbe51ac8e86ae30,
supermarket,supermarket,Ruko Holala,"RC4R+79M, Nanga Bulik, Kec. Bulik, Kabupaten Lamandau, Kalimantan Tengah 74161","Nanga Bulik, Kec. Bulik, Kabupaten Lamandau",KALIMANTAN TENGAH,74161.0,Indonesia,82150697158.0,,,-2.1942812,111.440909,https://maps.google.com/?cid=0x0:0x47ca427fc2864b3d,
supermarket,supermarket,Kalimantan Tengah 74162,"Kabupaten Lamandau, Kalimantan Tengah","Kabupaten Lamandau, Kalimantan Tengah",KALIMANTAN TENGAH,,Indonesia,,,,-1.7404903,111.5229817,https://maps.google.com/?cid=0x0:0xcbde8a77875b152b,
supermarket,Toko bahan makanan,Borneo Supermarket,"RF96+V9C, Jl. Batu Betanggui, Nanga Bulik, Kec. Bulik, Kabupaten Lamandau, Kalimantan Tengah 74161","Jl. Batu Betanggui, Nanga Bulik, Kec. Bulik, Kabupaten Lamandau",KALIMANTAN TENGAH,74161.0,Indonesia,85751797069.0,,,-2.180302,111.4608802,https://maps.google.com/?cid=0x0:0x9626262724f41eef,
supermarket,Pusat Perbelanjaan,TOKO AYNI JAYA,"BTN belakang koramil Jl. Bukit Hibul Barat, Nanga Bulik, Kec. Bulik, Kabupaten Lamandau, Kalimantan Tengah 74162","Nanga Bulik, Kec. Bulik, Kabupaten Lamandau",KALIMANTAN TENGAH,74162.0,Indonesia,82352789985.0,,,-2.1794843,111.4315128,https://maps.google.com/?cid=0x0:0x185ed54df3b1ea93,
supermarket,Minimarket,Almuna mini market,"RF95+MQC, Nanga Bulik, Kec. Bulik, Kabupaten Lamandau, Kalimantan Tengah 74161","Nanga Bulik, Kec. Bulik, Kabupaten Lamandau",KALIMANTAN TENGAH,74161.0,Indonesia,,,,-2.1808245,111.4594046,https://maps.google.com/?cid=0x0:0x6009c3b18e574bf0,
supermarket,Toko,CABANG TOKO MARSEL,"3GM8+998, Nuangan, Kec. Bulik Tim., Kabupaten Lamandau, Kalimantan Tengah 74162","Nuangan, Kec. Bulik Tim., Kabupaten Lamandau",KALIMANTAN TENGAH,74162.0,Indonesia,82149669826.0,,,-1.9165861,111.5159434,https://maps.google.com/?cid=0x0:0xdc7b6e4addfa2f8f,
supermarket,Toko bahan makanan,Toko Sri Rejeki,"RCX7+FX9, Bumi Agung, Kec. Bulik, Kabupaten Lamandau, Kalimantan Tengah 74161","Bumi Agung, Kec. Bulik, Kabupaten Lamandau",KALIMANTAN TENGAH,74161.0,Indonesia,82256231843.0,,,-2.1513267,111.414973,https://maps.google.com/?cid=0x0:0x7db71b7c2f7860da,
supermarket,Toko bahan makanan,TOKO ARRAHMAN,"Bukit Raya, Kec. Menthobi Raya, Kabupaten Lamandau, Kalimantan Tengah 74117","Kec. Menthobi Raya, Kabupaten Lamandau",KALIMANTAN TENGAH,74117.0,Indonesia,85642603555.0,,,-2.0681414,111.6378582,https://maps.google.com/?cid=0x0:0xdf041fe79a23a715,
supermarket,Grosir,Happy Mart Lamandau grosir dan eceran,"Jl. Bukit Hibul Timur, Nanga Bulik, Kec. Bulik, Kabupaten Lamandau, Kalimantan Tengah 74161","Nanga Bulik, Kec. Bulik, Kabupaten Lamandau",KALIMANTAN TENGAH,74161.0,Indonesia,81348270649.0,,,-2.1828338,111.4438286,https://maps.google.com/?cid=0x0:0xf8cf9c092ce41ddd,
supermarket,Toko bahan makanan,Toko Mandiri Jaya,"Desa, perigi raya, Kec. Bulik, Kabupaten Lamandau, Kalimantan Tengah 74660","perigi raya, Kec. Bulik, Kabupaten Lamandau",KALIMANTAN TENGAH,74660.0,Indonesia,,,,-2.0851063,111.5466997,https://maps.google.com/?cid=0x0:0xcfb82ccd50279b25,
supermarket,Toko,Toko Sumber Tani,"Jl. Tjilik Riwut, 74161, Nanga Bulik, Kec. Bulik, Kabupaten Lamandau, Kalimantan Tengah 74161","74161, Nanga Bulik, Kec. Bulik, Kabupaten Lamandau",KALIMANTAN TENGAH,74161.0,Indonesia,81346835595.0,,,-2.1776797,111.464045,https://maps.google.com/?cid=0x0:0xf3598324bfa9b926,
supermarket,Toko bahan makanan,Toko Cahaya Qolbi,"2FV2+HJP, Sumber Cahaya, Kec. Belantikan Raya, Kabupaten Lamandau, Kalimantan Tengah 74162","Sumber Cahaya, Kec. Belantikan Raya, Kabupaten Lamandau",KALIMANTAN TENGAH,74162.0,Indonesia,,,,-1.95604,111.451565,https://maps.google.com/?cid=0x0:0x597e128bab491915,
supermarket,Toko Swalayan,Toko Aice Ibu Reni Julianti,"RFF3+PCX, Nanga Bulik, Kec. Bulik, Kabupaten Lamandau, Kalimantan Tengah 74161","Nanga Bulik, Kec. Bulik, Kabupaten Lamandau",KALIMANTAN TENGAH,74161.0,Indonesia,,,,-2.1756485,111.4535989,https://maps.google.com/?cid=0x0:0x9cd3518356fba084,
supermarket,Kantor Perusahaan,Toko Aice Siti Bulkis,"RCCJ+HM5, Nanga Bulik, Kec. Bulik, Kabupaten Lamandau, Kalimantan Tengah 74161","Nanga Bulik, Kec. Bulik, Kabupaten Lamandau",KALIMANTAN TENGAH,74161.0,Indonesia,,,,-2.1786191,111.4317347,https://maps.google.com/?cid=0x0:0x6d83d1ed1c64f09e,
supermarket,Toko Swalayan,Toko Eka,"WG7X+JF2, Sungai Mentawa, Kec. Bulik, Kabupaten Lamandau, Kalimantan Tengah 74162","Sungai Mentawa, Kec. Bulik, Kabupaten Lamandau",KALIMANTAN TENGAH,74162.0,Indonesia,,,,-2.0859771,111.5486265,https://maps.google.com/?cid=0x0:0xaa41c86718064eaf,
supermarket,Toko Swalayan,Toko KBC (CIKA),"WGCQ+H7, Sungai Mentawa, Kec. Bulik, Kabupaten Lamandau, Kalimantan Tengah","Kabupaten Lamandau, Kalimantan Tengah",KALIMANTAN TENGAH,,Indonesia,,,,-2.0785161,111.5382075,https://maps.google.com/?cid=0x0:0xa7601cc2b402529b,
supermarket,Toko bahan makanan,Kios palui,"RF95+767, Nanga Bulik, Kec. Bulik, Kabupaten Lamandau, Kalimantan Tengah 74162","Nanga Bulik, Kec. Bulik, Kabupaten Lamandau",KALIMANTAN TENGAH,74162.0,Indonesia,82351510183.0,,,-2.1818641,111.4582449,https://maps.google.com/?cid=0x0:0xffae7df5bf5e8a5,
supermarket,Toko bahan makanan,toko pulau laut,"Nanga Bulik, Kec. Bulik, Kabupaten Lamandau, Kalimantan Tengah 74161","Kec. Bulik, Kabupaten Lamandau",KALIMANTAN TENGAH,74161.0,Indonesia,82252782224.0,,,-2.1763981,111.4635323,https://maps.google.com/?cid=0x0:0x9fabb1cc1b136c9a,
supermarket,Toko Swalayan,Toko Agita,"WG7W+RQW, Sungai Mentawa, Kec. Bulik, Kabupaten Lamandau, Kalimantan Tengah 74162","Sungai Mentawa, Kec. Bulik, Kabupaten Lamandau",KALIMANTAN TENGAH,74162.0,Indonesia,,,,-2.0853975,111.5469682,https://maps.google.com/?cid=0x0:0x7a38facb6b6c5787,
supermarket,Toko Elektronik,TOKO RISYA km18,"3FWM+6M7, Bukit Jaya, Kec. Bulik Tim., Kabupaten Lamandau, Kalimantan Tengah","Kabupaten Lamandau, Kalimantan Tengah",KALIMANTAN TENGAH,,Indonesia,,,,-1.9044585,111.484162,https://maps.google.com/?cid=0x0:0x394760bd2aeed85,
supermarket,Toko Swalayan,Bitang Mulia Shop,"WJHQ+P76, Unnamed Road, Bukit Raya, Kec. Menthobi Raya, Kabupaten Lamandau, Kalimantan Tengah 74117","Unnamed Road, Bukit Raya, Kec. Menthobi Raya, Kabupaten Lamandau",KALIMANTAN TENGAH,74117.0,Indonesia,82244868040.0,,,-2.0707093,111.6381402,https://maps.google.com/?cid=0x0:0x3b150cf76c126a1e,
supermarket,Minimarket,Mega Mart,"RCFW+3X7, Nanga Bulik, Kec. Bulik, Kabupaten Lamandau, Kalimantan Tengah 74161","Nanga Bulik, Kec. Bulik, Kabupaten Lamandau",KALIMANTAN TENGAH,74161.0,Indonesia,,,,-2.1773455,111.4474374,https://maps.google.com/?cid=0x0:0x7bf302f20b67a84b,
supermarket,Toko,GBL Mart,"RC9M+F2M, Nanga Bulik, Kec. Bulik, Kabupaten Lamandau, Kalimantan Tengah 74161","Nanga Bulik, Kec. Bulik, Kabupaten Lamandau",KALIMANTAN TENGAH,74161.0,Indonesia,82352798171.0,,,-2.1812985,111.4325469,https://maps.google.com/?cid=0x0:0xa74772c013c1d0cf,
supermarket,Toko bahan makanan,Toko Buah Bu Ririn Nanga Bulik,"RF95+CF8, Nanga Bulik, Kec. Bulik, Kabupaten Lamandau, Kalimantan Tengah 74161","Nanga Bulik, Kec. Bulik, Kabupaten Lamandau",KALIMANTAN TENGAH,74161.0,Indonesia,85385041610.0,,,-2.1814562,111.4587181,https://maps.google.com/?cid=0x0:0xa7dc70e04e0bcc3b,
supermarket,Toko Swalayan,Toko Aice Pak Rahmandi,"RC9V+9H8, Jl. W.R. Supratman, Nanga Bulik, Kec. Bulik, Kabupaten Lamandau, Kalimantan Tengah 74161","Jl. W.R. Supratman, Nanga Bulik, Kec. Bulik, Kabupaten Lamandau",KALIMANTAN TENGAH,74161.0,Indonesia,,,,-2.1815799,111.4439651,https://maps.google.com/?cid=0x0:0x1fb4393c2d02f8d8,
supermarket,Toko bahan makanan,Toko Sinar Pambelum (Rest Area Melata),"2J4J+6JQ, Sungkup, Kec. Menthobi Raya, Kabupaten Lamandau, Kalimantan Tengah","Kabupaten Lamandau, Kalimantan Tengah",KALIMANTAN TENGAH,,Indonesia,81528534450.0,,,-1.9944156,111.6316077,https://maps.google.com/?cid=0x0:0xe021cdb4cc705b17,
supermarket,Minimarket,Toko Amalia,"RF98+W6G, Jl. JC Rangkap, Nanga Bulik, Kec. Bulik, Kabupaten Lamandau, Kalimantan Tengah 74161","Jl. JC Rangkap, Nanga Bulik, Kec. Bulik, Kabupaten Lamandau",KALIMANTAN TENGAH,74161.0,Indonesia,81250162748.0,,,-2.1801861,111.4655685,https://maps.google.com/?cid=0x0:0x4806e7e5e377b61a,
supermarket,supermarket,Kalimantan Tengah 74664,"Kabupaten Lamandau, Kalimantan Tengah","Kabupaten Lamandau, Kalimantan Tengah",KALIMANTAN TENGAH,,Indonesia,,,,-1.6722405,111.1414226,https://maps.google.com/?cid=0x0:0x2e393b90c2443400,
supermarket,Toko bahan makanan,Borneo Supermarket,"RF96+V9C, Jl. Batu Betanggui, Nanga Bulik, Kec. Bulik, Kabupaten Lamandau, Kalimantan Tengah 74161","Jl. Batu Betanggui, Nanga Bulik, Kec. Bulik, Kabupaten Lamandau",KALIMANTAN TENGAH,74161.0,Indonesia,85751797069.0,,,-2.180302,111.4608802,https://maps.google.com/?cid=0x0:0x9626262724f41eef,
supermarket,Minimarket,Almuna mini market,"RF95+MQC, Nanga Bulik, Kec. Bulik, Kabupaten Lamandau, Kalimantan Tengah 74161","Nanga Bulik, Kec. Bulik, Kabupaten Lamandau",KALIMANTAN TENGAH,74161.0,Indonesia,,,,-2.1808245,111.4594046,https://maps.google.com/?cid=0x0:0x6009c3b18e574bf0,
supermarket,Minimarket,Toko Reyes,"RC7W+H2W, Nanga Bulik, Kec. Bulik, Kabupaten Lamandau, Kalimantan Tengah 74161","Nanga Bulik, Kec. Bulik, Kabupaten Lamandau",KALIMANTAN TENGAH,74161.0,Indonesia,81332022911.0,,,-2.1860093,111.445091,https://maps.google.com/?cid=0x0:0x1713765dab0e03c,
supermarket,Toko bahan makanan,Toko Lestari,"XM64+4C8, Mukti Manunggal, Kec. Menthobi Raya, Kabupaten Lamandau, Kalimantan Tengah 74117","Mukti Manunggal, Kec. Menthobi Raya, Kabupaten Lamandau",KALIMANTAN TENGAH,74117.0,Indonesia,85822094301.0,,,-2.0397092,111.6560684,https://maps.google.com/?cid=0x0:0xc4179ac6f73e8794,
supermarket,Toko,CABANG TOKO MARSEL,"3GM8+998, Nuangan, Kec. Bulik Tim., Kabupaten Lamandau, Kalimantan Tengah 74162","Nuangan, Kec. Bulik Tim., Kabupaten Lamandau",KALIMANTAN TENGAH,74162.0,Indonesia,82149669826.0,,,-1.9165861,111.5159434,https://maps.google.com/?cid=0x0:0xdc7b6e4addfa2f8f,
supermarket,Pembangunan Perumahan,Suja Mart,"36VF+RQ4, Tapin Bini, Kec. Lamandau, Kabupaten Lamandau, Kalimantan Tengah 74663","Tapin Bini, Kec. Lamandau, Kabupaten Lamandau",KALIMANTAN TENGAH,74663.0,Indonesia,,,,-1.9054923,111.2244628,https://maps.google.com/?cid=0x0:0x3d3280700c8dd1cf,
supermarket,Toko bahan makanan,W.R M.A.J.A,"929R+228, Lopus, Kec. Delang, Kabupaten Lamandau, Kalimantan Tengah","Kabupaten Lamandau, Kalimantan Tengah",KALIMANTAN TENGAH,,Indonesia,,,,-1.632472,111.0400795,https://maps.google.com/?cid=0x0:0x45691c44009bf751,
supermarket,Toko,Warung Minak Sri,"7474+C7P, Riam Penahan, Kec. Delang, Kabupaten Lamandau, Kalimantan Tengah 74664","Riam Penahan, Kec. Delang, Kabupaten Lamandau",KALIMANTAN TENGAH,74664.0,Indonesia,,,,-1.7364164,111.1056914,https://maps.google.com/?cid=0x0:0xbaad99a41c640c27,
supermarket,Toko,Toko Dua Putri(mama Angel),"Jl. Trans Kalimantan No.Rt. 01, Sungai Tuat, Kec. Lamandau, Kabupaten Lamandau, Kalimantan Tengah","Kabupaten Lamandau, Kalimantan Tengah",KALIMANTAN TENGAH,,Indonesia,,,,-1.7915792,111.0579632,https://maps.google.com/?cid=0x0:0x81b5105773929548,
supermarket,Pusat Perbelanjaan,Daily Supermarket Puri Mansion,"Ruko Puri Mansion Blok C 2, RT.2/RW.1, Kembangan Sel., Kec. Kembangan, Kota Jakarta Barat, Daerah Khusus Ibukota Jakarta 11610","RT.2/RW.1, Kembangan Sel., Kec. Kembangan, Kota Jakarta Barat",KALIMANTAN TENGAH,11610.0,Indonesia,81944117272.0,,,-6.1782717,106.727934,https://maps.google.com/?cid=0x0:0xb5555bd3bf987072,
supermarket,Toko Swalayan,GrandLucky - SCBD,"Kawasan Niaga Terpadu Sudirman (SCBD, Jl. Jenderal Sudirman LOT-12, Senayan, Kec. Kby. Baru, Kota Jakarta Selatan, Daerah Khusus Ibukota Jakarta 12190","Jl. Jenderal Sudirman LOT-12, Senayan, Kec. Kby. Baru, Kota Jakarta Selatan",KALIMANTAN TENGAH,12190.0,Indonesia,215153832.0,,,-6.22691,106.8059153,https://maps.google.com/?cid=0x0:0x4efcd0d8d64cad53,
supermarket,Toko Swalayan,Grand Lucky - Puri Indah Mall 2,"Jl. Puri Agung No.1, RT.1/RW.2, Kembangan Sel., Kec. Kembangan, Kota Jakarta Barat, Daerah Khusus Ibukota Jakarta 11610","RT.1/RW.2, Kembangan Sel., Kec. Kembangan, Kota Jakarta Barat",KALIMANTAN TENGAH,11610.0,Indonesia,,,,-6.1871437,106.7327179,https://maps.google.com/?cid=0x0:0x4990ba95e3f100b4,
supermarket,supermarket,Kalimantan Tengah 74663,"Kabupaten Lamandau, Kalimantan Tengah","Kabupaten Lamandau, Kalimantan Tengah",KALIMANTAN TENGAH,,Indonesia,,,,-1.9269166,111.1891151,https://maps.google.com/?cid=0x0:0xddd786c27266b53a,
supermarket,Toko bahan makanan,Borneo Supermarket,"RF96+V9C, Jl. Batu Betanggui, Nanga Bulik, Kec. Bulik, Kabupaten Lamandau, Kalimantan Tengah 74161","Jl. Batu Betanggui, Nanga Bulik, Kec. Bulik, Kabupaten Lamandau",KALIMANTAN TENGAH,74161.0,Indonesia,85751797069.0,,,-2.180302,111.4608802,https://maps.google.com/?cid=0x0:0x9626262724f41eef,
supermarket,Pusat Perbelanjaan,Toko Bukit Gaharu,"25HJ+2GV, Jl. Lintas Kalimantan, Panopa, Kec. Lamandau, Kabupaten Lamandau, Kalimantan Tengah 74663","Jl. Lintas Kalimantan, Panopa, Kec. Lamandau, Kabupaten Lamandau",KALIMANTAN TENGAH,74663.0,Indonesia,82199131412.0,,,-1.9723936,111.1813116,https://maps.google.com/?cid=0x0:0x3d17ec723a421c0f,
supermarket,Toko Swalayan,Ud Parel,"48C8+8H9, Tapin Bini, Kec. Lamandau, Kabupaten Lamandau, Kalimantan Tengah 74663","Tapin Bini, Kec. Lamandau, Kabupaten Lamandau",KALIMANTAN TENGAH,74663.0,Indonesia,,,,-1.879222,111.3164974,https://maps.google.com/?cid=0x0:0x7caca8d95f867a06,
supermarket,Toko bahan makanan,Toko Sri Rejeki,"RCX7+FX9, Bumi Agung, Kec. Bulik, Kabupaten Lamandau, Kalimantan Tengah 74161","Bumi Agung, Kec. Bulik, Kabupaten Lamandau",KALIMANTAN TENGAH,74161.0,Indonesia,82256231843.0,,,-2.1513267,111.414973,https://maps.google.com/?cid=0x0:0x7db71b7c2f7860da,
supermarket,Toko Swalayan,Palmmart,"Bukit Raya, Kec. Menthobi Raya, Kabupaten Lamandau, Kalimantan Tengah 74117","Kec. Menthobi Raya, Kabupaten Lamandau",KALIMANTAN TENGAH,74117.0,Indonesia,,,,-2.0718505,111.6340907,https://maps.google.com/?cid=0x0:0x1ac8c0288050c18,
supermarket,Toko Swalayan,Toko ROBY,"PHC4+2C6, Unnamed Road, Mekar Mulya, Kec. Sematu Jaya, Kabupaten Lamandau, Kalimantan Tengah 74161","Unnamed Road, Mekar Mulya, Kec. Sematu Jaya, Kabupaten Lamandau",KALIMANTAN TENGAH,74161.0,Indonesia,82151231224.0,,,-2.2799701,111.5560307,https://maps.google.com/?cid=0x0:0x1d404d472215234a,
supermarket,Pusat Perbelanjaan,TOKO AYNI JAYA,"BTN belakang koramil Jl. Bukit Hibul Barat, Nanga Bulik, Kec. Bulik, Kabupaten Lamandau, Kalimantan Tengah 74162","Nanga Bulik, Kec. Bulik, Kabupaten Lamandau",KALIMANTAN TENGAH,74162.0,Indonesia,82352789985.0,,,-2.1794843,111.4315128,https://maps.google.com/?cid=0x0:0x185ed54df3b1ea93,
supermarket,Grosir,Happy Mart Lamandau grosir dan eceran,"Jl. Bukit Hibul Timur, Nanga Bulik, Kec. Bulik, Kabupaten Lamandau, Kalimantan Tengah 74161","Nanga Bulik, Kec. Bulik, Kabupaten Lamandau",KALIMANTAN TENGAH,74161.0,Indonesia,81348270649.0,,,-2.1828338,111.4438286,https://maps.google.com/?cid=0x0:0xf8cf9c092ce41ddd,
supermarket,Minimarket,Almuna mini market,"RF95+MQC, Nanga Bulik, Kec. Bulik, Kabupaten Lamandau, Kalimantan Tengah 74161","Nanga Bulik, Kec. Bulik, Kabupaten Lamandau",KALIMANTAN TENGAH,74161.0,Indonesia,,,,-2.1808245,111.4594046,https://maps.google.com/?cid=0x0:0x6009c3b18e574bf0,
supermarket,Minimarket,Mega Mart,"RCFW+3X7, Nanga Bulik, Kec. Bulik, Kabupaten Lamandau, Kalimantan Tengah 74161","Nanga Bulik, Kec. Bulik, Kabupaten Lamandau",KALIMANTAN TENGAH,74161.0,Indonesia,,,,-2.1773455,111.4474374,https://maps.google.com/?cid=0x0:0x7bf302f20b67a84b,
supermarket,Pusat Perbelanjaan,Harum Sari Toserba,"Unnamed Road, Bukit Harum, Kec. Menthobi Raya, Kabupaten Lamandau, Kalimantan Tengah 74117","Bukit Harum, Kec. Menthobi Raya, Kabupaten Lamandau",KALIMANTAN TENGAH,74117.0,Indonesia,85250006939.0,,,-2.1284027,111.6449509,https://maps.google.com/?cid=0x0:0x96bdf0e60727af5f,
supermarket,Toko bahan makanan,Toko Cahaya Qolbi,"2FV2+HJP, Sumber Cahaya, Kec. Belantikan Raya, Kabupaten Lamandau, Kalimantan Tengah 74162","Sumber Cahaya, Kec. Belantikan Raya, Kabupaten Lamandau",KALIMANTAN TENGAH,74162.0,Indonesia,,,,-1.95604,111.451565,https://maps.google.com/?cid=0x0:0x597e128bab491915,
supermarket,Toko bahan makanan,TOKO ARRAHMAN,"Bukit Raya, Kec. Menthobi Raya, Kabupaten Lamandau, Kalimantan Tengah 74117","Kec. Menthobi Raya, Kabupaten Lamandau",KALIMANTAN TENGAH,74117.0,Indonesia,85642603555.0,,,-2.0681414,111.6378582,https://maps.google.com/?cid=0x0:0xdf041fe79a23a715,
supermarket,Toko,Mega Mart Kujan,"QFR8+M6F, Jl. Lintas Kalimantan, Kujan, Kec. Bulik, Kabupaten Lamandau, Kalimantan Tengah 74161","Jl. Lintas Kalimantan, Kujan, Kec. Bulik, Kabupaten Lamandau",KALIMANTAN TENGAH,74161.0,Indonesia,5322067385.0,,,-2.2083206,111.4655551,https://maps.google.com/?cid=0x0:0xdf7a1f60a0314f99,
supermarket,Toko Swalayan,Toko kayla aice crem,"VMX8+C3V, Jl. Dua, Sumber Jaya, Kec. Menthobi Raya, Kabupaten Lamandau, Kalimantan Tengah 74117","Jl. Dua, Sumber Jaya, Kec. Menthobi Raya, Kabupaten Lamandau",KALIMANTAN TENGAH,74117.0,Indonesia,81522893074.0,,,-2.1013811,111.6651849,https://maps.google.com/?cid=0x0:0x50a915c419888250,
supermarket,Toko,CABANG TOKO MARSEL,"3GM8+998, Nuangan, Kec. Bulik Tim., Kabupaten Lamandau, Kalimantan Tengah 74162","Nuangan, Kec. Bulik Tim., Kabupaten Lamandau",KALIMANTAN TENGAH,74162.0,Indonesia,82149669826.0,,,-1.9165861,111.5159434,https://maps.google.com/?cid=0x0:0xdc7b6e4addfa2f8f,
supermarket,Pembangunan Perumahan,Suja Mart,"36VF+RQ4, Tapin Bini, Kec. Lamandau, Kabupaten Lamandau, Kalimantan Tengah 74663","Tapin Bini, Kec. Lamandau, Kabupaten Lamandau",KALIMANTAN TENGAH,74663.0,Indonesia,,,,-1.9054923,111.2244628,https://maps.google.com/?cid=0x0:0x3d3280700c8dd1cf,
supermarket,Komplek perumahan,Lamandau Market,"W756+P77, JL. GTM Yusuf Translokal, Nanga Bulik, Nanga Bulik, Kec. Lamandau, Kabupaten Lamandau, Kalimantan Tengah 74173","JL. GTM Yusuf Translokal, Nanga Bulik, Nanga Bulik, Kec. Lamandau, Kabupaten Lamandau",KALIMANTAN TENGAH,74173.0,Indonesia,85350536345.0,,,-2.090715,111.260678,https://maps.google.com/?cid=0x0:0x2834c89f1b62fd7d,
supermarket,Nasi,Warung Karet,"25WJ+WG2, Jl. Lintas Kalimantan, Panopa, Kec. Lamandau, Kabupaten Lamandau, Kalimantan Tengah 74663","Jl. Lintas Kalimantan, Panopa, Kec. Lamandau, Kabupaten Lamandau",KALIMANTAN TENGAH,74663.0,Indonesia,82148732963.0,,,-1.9524556,111.1803421,https://maps.google.com/?cid=0x0:0x1e4c4790ed2eb18c,
supermarket,Toko,GBL Mart,"RC9M+F2M, Nanga Bulik, Kec. Bulik, Kabupaten Lamandau, Kalimantan Tengah 74161","Nanga Bulik, Kec. Bulik, Kabupaten Lamandau",KALIMANTAN TENGAH,74161.0,Indonesia,82352798171.0,,,-2.1812985,111.4325469,https://maps.google.com/?cid=0x0:0xa74772c013c1d0cf,
supermarket,Minimarket,Toko Reyes,"RC7W+H2W, Nanga Bulik, Kec. Bulik, Kabupaten Lamandau, Kalimantan Tengah 74161","Nanga Bulik, Kec. Bulik, Kabupaten Lamandau",KALIMANTAN TENGAH,74161.0,Indonesia,81332022911.0,,,-2.1860093,111.445091,https://maps.google.com/?cid=0x0:0x1713765dab0e03c,
supermarket,Toko bahan makanan,Warung sembako afdeling 4,"X9WP+CHG, Tamiang, Kec. Bulik, Kabupaten Lamandau, Kalimantan Tengah","Kabupaten Lamandau, Kalimantan Tengah",KALIMANTAN TENGAH,,Indonesia,85345909006.0,,,-2.0039381,111.3864544,https://maps.google.com/?cid=0x0:0x37fee21596ce3f15,
supermarket,Toko,Toko Yaya (Groceryy Shopping),"RC5J+MM3, Nanga Bulik, Kec. Bulik, Kabupaten Lamandau, Kalimantan Tengah 74161","Nanga Bulik, Kec. Bulik, Kabupaten Lamandau",KALIMANTAN TENGAH,74161.0,Indonesia,,,,-2.1908125,111.4316875,https://maps.google.com/?cid=0x0:0x366ccaf88e2c83e5,
supermarket,supermarket,Kalimantan Tengah 74162,"Kabupaten Lamandau, Kalimantan Tengah","Kabupaten Lamandau, Kalimantan Tengah",KALIMANTAN TENGAH,,Indonesia,,,,-1.7404903,111.5229817,https://maps.google.com/?cid=0x0:0xcbde8a77875b152b,
supermarket,Toko bahan makanan,Borneo Supermarket,"RF96+V9C, Jl. Batu Betanggui, Nanga Bulik, Kec. Bulik, Kabupaten Lamandau, Kalimantan Tengah 74161","Jl. Batu Betanggui, Nanga Bulik, Kec. Bulik, Kabupaten Lamandau",KALIMANTAN TENGAH,74161.0,Indonesia,85751797069.0,,,-2.180302,111.4608802,https://maps.google.com/?cid=0x0:0x9626262724f41eef,
supermarket,Toko Swalayan,Palmmart,"Bukit Raya, Kec. Menthobi Raya, Kabupaten Lamandau, Kalimantan Tengah 74117","Kec. Menthobi Raya, Kabupaten Lamandau",KALIMANTAN TENGAH,74117.0,Indonesia,,,,-2.0718505,111.6340907,https://maps.google.com/?cid=0x0:0x1ac8c0288050c18,
supermarket,Toko bahan makanan,Toko Lestari,"XM64+4C8, Mukti Manunggal, Kec. Menthobi Raya, Kabupaten Lamandau, Kalimantan Tengah 74117","Mukti Manunggal, Kec. Menthobi Raya, Kabupaten Lamandau",KALIMANTAN TENGAH,74117.0,Indonesia,85822094301.0,,,-2.0397092,111.6560684,https://maps.google.com/?cid=0x0:0xc4179ac6f73e8794,
supermarket,Pusat Perbelanjaan,TOKO AYNI JAYA,"BTN belakang koramil Jl. Bukit Hibul Barat, Nanga Bulik, Kec. Bulik, Kabupaten Lamandau, Kalimantan Tengah 74162","Nanga Bulik, Kec. Bulik, Kabupaten Lamandau",KALIMANTAN TENGAH,74162.0,Indonesia,82352789985.0,,,-2.1794843,111.4315128,https://maps.google.com/?cid=0x0:0x185ed54df3b1ea93,
supermarket,Toko Swalayan,Bitang Mulia Shop,"WJHQ+P76, Unnamed Road, Bukit Raya, Kec. Menthobi Raya, Kabupaten Lamandau, Kalimantan Tengah 74117","Unnamed Road, Bukit Raya, Kec. Menthobi Raya, Kabupaten Lamandau",KALIMANTAN TENGAH,74117.0,Indonesia,82244868040.0,,,-2.0707093,111.6381402,https://maps.google.com/?cid=0x0:0x3b150cf76c126a1e,
supermarket,Toko Swalayan,WAMART,"Jalan Bukit Raya Indokayu, RT.06, Bukit Raya, Menthobi Raya, Bukit Raya, Kec. Menthobi Raya, Kabupaten Lamandau, Kalimantan Tengah 74117","RT.06, Bukit Raya, Menthobi Raya, Bukit Raya, Kec. Menthobi Raya, Kabupaten Lamandau",KALIMANTAN TENGAH,74117.0,Indonesia,82253478412.0,,,-2.0716202,111.6344494,https://maps.google.com/?cid=0x0:0xcc1cf2f4986d99da,
supermarket,Toko,UD. Sinar Pambelum,"2J9H+RQQ, Melata, Kec. Menthobi Raya, Kabupaten Lamandau, Kalimantan Tengah","Kabupaten Lamandau, Kalimantan Tengah",KALIMANTAN TENGAH,,Indonesia,85787795996.0,,,-1.9804149,111.6294884,https://maps.google.com/?cid=0x0:0x5f3115471ab91a0,
supermarket,Toko bahan makanan,Toko Cahaya Qolbi,"2FV2+HJP, Sumber Cahaya, Kec. Belantikan Raya, Kabupaten Lamandau, Kalimantan Tengah 74162","Sumber Cahaya, Kec. Belantikan Raya, Kabupaten Lamandau",KALIMANTAN TENGAH,74162.0,Indonesia,,,,-1.95604,111.451565,https://maps.google.com/?cid=0x0:0x597e128bab491915,
supermarket,Toko bahan makanan,Toko Sinar Pambelum (Rest Area Melata),"2J4J+6JQ, Sungkup, Kec. Menthobi Raya, Kabupaten Lamandau, Kalimantan Tengah","Kabupaten Lamandau, Kalimantan Tengah",KALIMANTAN TENGAH,,Indonesia,81528534450.0,,,-1.9944156,111.6316077,https://maps.google.com/?cid=0x0:0xe021cdb4cc705b17,
supermarket,Toko Swalayan,Toko Agita,"WG7W+RQW, Sungai Mentawa, Kec. Bulik, Kabupaten Lamandau, Kalimantan Tengah 74162","Sungai Mentawa, Kec. Bulik, Kabupaten Lamandau",KALIMANTAN TENGAH,74162.0,Indonesia,,,,-2.0853975,111.5469682,https://maps.google.com/?cid=0x0:0x7a38facb6b6c5787,
supermarket,Toko Swalayan,Toko Eka,"WG7X+JF2, Sungai Mentawa, Kec. Bulik, Kabupaten Lamandau, Kalimantan Tengah 74162","Sungai Mentawa, Kec. Bulik, Kabupaten Lamandau",KALIMANTAN TENGAH,74162.0,Indonesia,,,,-2.0859771,111.5486265,https://maps.google.com/?cid=0x0:0xaa41c86718064eaf,
supermarket,Toko bahan makanan,"Gubuk vina, bakso dan buah buahan.","XM65+C5H, Mukti Manunggal, Kec. Menthobi Raya, Kabupaten Lamandau, Kalimantan Tengah 74117","Mukti Manunggal, Kec. Menthobi Raya, Kabupaten Lamandau",KALIMANTAN TENGAH,74117.0,Indonesia,,,,-2.0389375,111.6579885,https://maps.google.com/?cid=0x0:0x341d5739cb3a86a7,
supermarket,Toko,Toko Surya Mandiri,"WJJP+QV3, Bukit Raya, Kec. Menthobi Raya, Kabupaten Lamandau, Kalimantan Tengah 74117","Bukit Raya, Kec. Menthobi Raya, Kabupaten Lamandau",KALIMANTAN TENGAH,74117.0,Indonesia,,,,-2.0681193,111.6371843,https://maps.google.com/?cid=0x0:0x463e82cf26a28d71,
supermarket,Toko bahan makanan,kantin sifa wahyuni,"2JQ3+G7, Melata, Kec. Menthobi Raya, Kabupaten Lamandau, Kalimantan Tengah 74162","Melata, Kec. Menthobi Raya, Kabupaten Lamandau",KALIMANTAN TENGAH,74162.0,Indonesia,,,,-1.9612481,111.6031536,https://maps.google.com/?cid=0x0:0x739900f61cde3733,
supermarket,Toko Swalayan,KIOS DEVI,"Simpang Empat Perigi Rt 01 Rw 01, Desa Perigi Raya, Sungai Mentawa, Kec. Bulik, Kabupaten Lamandau, Kalimantan Tengah 74161","Desa Perigi Raya, Sungai Mentawa, Kec. Bulik, Kabupaten Lamandau",KALIMANTAN TENGAH,74161.0,Indonesia,85828274872.0,,,-2.0862505,111.5495942,https://maps.google.com/?cid=0x0:0x96abae4bda420c7e,
supermarket,Toko bahan makanan,Toko Sri Rejeki,"RCX7+FX9, Bumi Agung, Kec. Bulik, Kabupaten Lamandau, Kalimantan Tengah 74161","Bumi Agung, Kec. Bulik, Kabupaten Lamandau",KALIMANTAN TENGAH,74161.0,Indonesia,82256231843.0,,,-2.1513267,111.414973,https://maps.google.com/?cid=0x0:0x7db71b7c2f7860da,
supermarket,Toko Swalayan,Toko KBC (CIKA),"WGCQ+H7, Sungai Mentawa, Kec. Bulik, Kabupaten Lamandau, Kalimantan Tengah","Kabupaten Lamandau, Kalimantan Tengah",KALIMANTAN TENGAH,,Indonesia,,,,-2.0785161,111.5382075,https://maps.google.com/?cid=0x0:0xa7601cc2b402529b,
supermarket,Toko Swalayan,Toko Aice Ibu Reni Julianti,"RFF3+PCX, Nanga Bulik, Kec. Bulik, Kabupaten Lamandau, Kalimantan Tengah 74161","Nanga Bulik, Kec. Bulik, Kabupaten Lamandau",KALIMANTAN TENGAH,74161.0,Indonesia,,,,-2.1756485,111.4535989,https://maps.google.com/?cid=0x0:0x9cd3518356fba084,
supermarket,Toko Swalayan,Toko kayla aice crem,"VMX8+C3V, Jl. Dua, Sumber Jaya, Kec. Menthobi Raya, Kabupaten Lamandau, Kalimantan Tengah 74117","Jl. Dua, Sumber Jaya, Kec. Menthobi Raya, Kabupaten Lamandau",KALIMANTAN TENGAH,74117.0,Indonesia,81522893074.0,,,-2.1013811,111.6651849,https://maps.google.com/?cid=0x0:0x50a915c419888250,
supermarket,Minimarket,Mega Mart,"RCFW+3X7, Nanga Bulik, Kec. Bulik, Kabupaten Lamandau, Kalimantan Tengah 74161","Nanga Bulik, Kec. Bulik, Kabupaten Lamandau",KALIMANTAN TENGAH,74161.0,Indonesia,,,,-2.1773455,111.4474374,https://maps.google.com/?cid=0x0:0x7bf302f20b67a84b,
supermarket,Toko bahan makanan,Toko Mandiri Jaya,"Desa, perigi raya, Kec. Bulik, Kabupaten Lamandau, Kalimantan Tengah 74660","perigi raya, Kec. Bulik, Kabupaten Lamandau",KALIMANTAN TENGAH,74660.0,Indonesia,,,,-2.0851063,111.5466997,https://maps.google.com/?cid=0x0:0xcfb82ccd50279b25,
supermarket,Minimarket,Almuna mini market,"RF95+MQC, Nanga Bulik, Kec. Bulik, Kabupaten Lamandau, Kalimantan Tengah 74161","Nanga Bulik, Kec. Bulik, Kabupaten Lamandau",KALIMANTAN TENGAH,74161.0,Indonesia,,,,-2.1808245,111.4594046,https://maps.google.com/?cid=0x0:0x6009c3b18e574bf0,
supermarket,Toko,CABANG TOKO MARSEL,"3GM8+998, Nuangan, Kec. Bulik Tim., Kabupaten Lamandau, Kalimantan Tengah 74162","Nuangan, Kec. Bulik Tim., Kabupaten Lamandau",KALIMANTAN TENGAH,74162.0,Indonesia,82149669826.0,,,-1.9165861,111.5159434,https://maps.google.com/?cid=0x0:0xdc7b6e4addfa2f8f,
supermarket,supermarket,Kec. Menthobi Raya,"Kabupaten Lamandau, Kalimantan Tengah","Kabupaten Lamandau, Kalimantan Tengah",KALIMANTAN TENGAH,,Indonesia,,,,-2.050416,111.6153851,https://maps.google.com/?cid=0x0:0x45123dfed8d40bd7,
supermarket,Pusat Perbelanjaan,Harum Sari Toserba,"Unnamed Road, Bukit Harum, Kec. Menthobi Raya, Kabupaten Lamandau, Kalimantan Tengah 74117","Bukit Harum, Kec. Menthobi Raya, Kabupaten Lamandau",KALIMANTAN TENGAH,74117.0,Indonesia,85250006939.0,,,-2.1284027,111.6449509,https://maps.google.com/?cid=0x0:0x96bdf0e60727af5f,
supermarket,Kantor Pemerintahan Daerah,Desa Topalan,"2P23+869, Topalan, Kec. Menthobi Raya, Kabupaten Lamandau, Kalimantan Tengah 74152","Topalan, Kec. Menthobi Raya, Kabupaten Lamandau",KALIMANTAN TENGAH,74152.0,Indonesia,,,,-1.9992028,111.7031066,https://maps.google.com/?cid=0x0:0x9b57d829cdb3d80c,
supermarket,Toko,OkeMart,"VPQ2+6PH, Sumber Jaya, Kec. Menthobi Raya, Kabupaten Lamandau, Kalimantan Tengah 74117","Sumber Jaya, Kec. Menthobi Raya, Kabupaten Lamandau",KALIMANTAN TENGAH,74117.0,Indonesia,,,,-2.1119384,111.7018452,https://maps.google.com/?cid=0x0:0x31b381267c00a733,
supermarket,Pusat Perbelanjaan,Dua Putri,"VMWF+FCR, Sumber Jaya, Kec. Menthobi Raya, Kabupaten Lamandau, Kalimantan Tengah 74117","Sumber Jaya, Kec. Menthobi Raya, Kabupaten Lamandau",KALIMANTAN TENGAH,74117.0,Indonesia,85812311464.0,,,-2.1037747,111.6735001,https://maps.google.com/?cid=0x0:0xe9f55474cb43bc52,
supermarket,supermarket,Kec. Sematu Jaya,"Kabupaten Lamandau, Kalimantan Tengah","Kabupaten Lamandau, Kalimantan Tengah",KALIMANTAN TENGAH,,Indonesia,,,,-2.2356757,111.5156988,https://maps.google.com/?cid=0x0:0xa84b471e5053bba1,
supermarket,Minimarket,Megamaret Sematu Jaya 3,"Purworejo, Kec. Sematu Jaya, Kabupaten Lamandau, Kalimantan Tengah","Kabupaten Lamandau, Kalimantan Tengah",KALIMANTAN TENGAH,,Indonesia,81522871920.0,,,-2.2483781,111.5303814,https://maps.google.com/?cid=0x0:0x6fd8b9b0f8439df,
supermarket,Toko Swalayan,Toko ROBY,"PHC4+2C6, Unnamed Road, Mekar Mulya, Kec. Sematu Jaya, Kabupaten Lamandau, Kalimantan Tengah 74161","Unnamed Road, Mekar Mulya, Kec. Sematu Jaya, Kabupaten Lamandau",KALIMANTAN TENGAH,74161.0,Indonesia,82151231224.0,,,-2.2799701,111.5560307,https://maps.google.com/?cid=0x0:0x1d404d472215234a,
supermarket,Toko Swalayan,Toko DODONG JAYA,"PH62+FF4, Unnamed Road, Mekar Mulya, Kec. Sematu Jaya, Kabupaten Lamandau, Kalimantan Tengah 74161","Unnamed Road, Mekar Mulya, Kec. Sematu Jaya, Kabupaten Lamandau",KALIMANTAN TENGAH,74161.0,Indonesia,81348392739.0,,,-2.2888741,111.551211,https://maps.google.com/?cid=0x0:0x5e6d1a2c275230ed,
supermarket,Toko Swalayan,Toko Lestari,"QH3C+QM9, Wonorejo, Kec. Sematu Jaya, Kabupaten Lamandau, Kalimantan Tengah 74161","Wonorejo, Kec. Sematu Jaya, Kabupaten Lamandau",KALIMANTAN TENGAH,74161.0,Indonesia,,,,-2.2455942,111.5717458,https://maps.google.com/?cid=0x0:0x82b4bfb80a606180,
supermarket,Minimarket,ASYIFA MART,"QG78+F9V, Purworejo, Kec. Sematu Jaya, Kabupaten Lamandau, Kalimantan Tengah 74161","Purworejo, Kec. Sematu Jaya, Kabupaten Lamandau",KALIMANTAN TENGAH,74161.0,Indonesia,81283821171.0,,,-2.2362569,111.5159297,https://maps.google.com/?cid=0x0:0x4b43d4666bef227b,
supermarket,Toko umum,Achmad zahrah,"QH3C+R9M, Unnamed Road, Wonorejo, Kec. Sematu Jaya, Kabupaten Lamandau, Kalimantan Tengah 74161","Unnamed Road, Wonorejo, Kec. Sematu Jaya, Kabupaten Lamandau",KALIMANTAN TENGAH,74161.0,Indonesia,,,,-2.2454152,111.5709271,https://maps.google.com/?cid=0x0:0x82ee1a51e987b936,
supermarket,Toko Swalayan,Toko Aice Pak Agus Deniyanto,"RH34+VJ6, Tri Tunggal, Kec. Sematu Jaya, Kabupaten Lamandau, Kalimantan Tengah 74161","Tri Tunggal, Kec. Sematu Jaya, Kabupaten Lamandau",KALIMANTAN TENGAH,74161.0,Indonesia,,,,-2.195343,111.556502,https://maps.google.com/?cid=0x0:0xabd336c30dd439c6,
supermarket,Minimarket,Jati Indah store,"QG69+69C, Jl. Lintas Kalimantan, Purworejo, Kec. Sematu Jaya, Kabupaten Lamandau, Kalimantan Tengah 74161","Jl. Lintas Kalimantan, Purworejo, Kec. Sematu Jaya, Kabupaten Lamandau",KALIMANTAN TENGAH,74161.0,Indonesia,81333331758.0,,,-2.2394694,111.518401,https://maps.google.com/?cid=0x0:0x11012dd63e54edf,
supermarket,Toko Swalayan,Toko Aice Ibu Rini Julianti,"PGVM+CC7, Unnamed Road, Jangkar Prima, Kec. Sematu Jaya, Kabupaten Lamandau, Kalimantan Tengah 74161","Unnamed Road, Jangkar Prima, Kec. Sematu Jaya, Kabupaten Lamandau",KALIMANTAN TENGAH,74161.0,Indonesia,,,,-2.256468,111.533552,https://maps.google.com/?cid=0x0:0x8d1eeccfa4968b90,
