Category,Real Category,Business Name,Address,City,State,Postal Code,Country,Phone,Email,Website,Latitude,Longitude,Map Link,Details Link
komplek housing,komplek housing,Kalimantan Tengah 74664,"Kabupaten Lamandau, Kalimantan Tengah","Kabupaten Lamandau, Kalimantan Tengah",KALIMANTAN TENGAH,,Indonesia,,,,-1.6722405,111.1414226,https://maps.google.com/?cid=0x0:0x2e393b90c2443400,
komplek housing,Komplek perumahan,Rumah Nando,"C6X2+5V, Karang Mas, Kec. Batang Kawa, Kabupaten Lamandau, Kalimantan Tengah","Kabupaten Lamandau, Kalimantan Tengah",KALIMANTAN TENGAH,,Indonesia,,,,-1.55209,111.202197,https://maps.google.com/?cid=0x0:0xf10f1b2f274f6b5e,
komplek housing,Perpustakaan,Rumah Dinas Kepala SMPN SATAP 3 Batang Kawa,"F5V4+VPM, Kina, Kec. Batang Kawa, Kabupaten Lamandau, Kalimantan Tengah 74664","Kina, Kec. Batang Kawa, Kabupaten Lamandau",KALIMANTAN TENGAH,74664.0,Indonesia,,,,-1.5051412,111.1567199,https://maps.google.com/?cid=0x0:0x981c5a6a321625be,
komplek housing,Komplek perumahan,Pondok Hujan,"C5HP+W8, Karang Mas, Kec. Batang Kawa, Kabupaten Lamandau, Kalimantan Tengah","Kabupaten Lamandau, Kalimantan Tengah",KALIMANTAN TENGAH,,Indonesia,,,,-1.5702368,111.1858188,https://maps.google.com/?cid=0x0:0xed02257ca7b3e62a,
komplek housing,Komplek perumahan,Rumah Pak Bambang,"65H3+489, Batu Tambun, Kec. Batang Kawa, Kabupaten Lamandau, Kalimantan Tengah 74664","Batu Tambun, Kec. Batang Kawa, Kabupaten Lamandau",KALIMANTAN TENGAH,74664.0,Indonesia,,,,-1.7722032,111.1533456,https://maps.google.com/?cid=0x0:0xcbd5af610f6a229f,
komplek housing,Pembangunan Perumahan,"Desa Kudangan, Kec. Delang, Kab. Lamandau","92XP+X4H, Kudangan, Kec. Delang, Kabupaten Lamandau, Kalimantan Tengah 74664","Kudangan, Kec. Delang, Kabupaten Lamandau",KALIMANTAN TENGAH,74664.0,Indonesia,,,,-1.5994526,111.0360423,https://maps.google.com/?cid=0x0:0x3b71d21a135a268e,
komplek housing,Perhimpunan Pengembang Perumahan,Rumah efsy,"834X+MQH, Kudangan - Penopa, Sepoyu, Kec. Delang, Kabupaten Lamandau, Kalimantan Tengah 74664","Kudangan - Penopa, Sepoyu, Kec. Delang, Kabupaten Lamandau",KALIMANTAN TENGAH,74664.0,Indonesia,,,,-1.6933032,111.0994762,https://maps.google.com/?cid=0x0:0x84254b60debc6ab1,
komplek housing,Pembangunan Perumahan,Tapin bini,"558Q+6CR, Tapin Bini, Kec. Lamandau, Kabupaten Lamandau, Kalimantan Tengah","Kabupaten Lamandau, Kalimantan Tengah",KALIMANTAN TENGAH,,Indonesia,,,,-1.8343893,111.1885034,https://maps.google.com/?cid=0x0:0xd60a76e4adee11ed,
komplek housing,Komplek perumahan,Mess Bang Naldi,"54G3+QJX, Jl. Lintas Kalimantan, Tengah, Kec. Lamandau, Kabupaten Lamandau, Kalimantan Tengah","Kabupaten Lamandau, Kalimantan Tengah",KALIMANTAN TENGAH,,Indonesia,,,,-1.8230157,111.1041242,https://maps.google.com/?cid=0x0:0x3b6d8d8c8535b726,
komplek housing,Komplek perumahan,Wadah bujang,"47H6+G7C Gapura, Tapin Bini, Kec. Lamandau, Kabupaten Lamandau, Kalimantan Tengah","Kabupaten Lamandau, Kalimantan Tengah",KALIMANTAN TENGAH,,Indonesia,,,,-1.8711869,111.2606554,https://maps.google.com/?cid=0x0:0x47639704de1539f5,
komplek housing,komplek housing,Kec. Batang Kawa,"Kabupaten Lamandau, Kalimantan Tengah","Kabupaten Lamandau, Kalimantan Tengah",KALIMANTAN TENGAH,,Indonesia,,,,-1.6494816,111.2649174,https://maps.google.com/?cid=0x0:0xe8b431fe7a826c3,
komplek housing,komplek housing,Kalimantan Tengah 74663,"Kabupaten Lamandau, Kalimantan Tengah","Kabupaten Lamandau, Kalimantan Tengah",KALIMANTAN TENGAH,,Indonesia,,,,-1.9269166,111.1891151,https://maps.google.com/?cid=0x0:0xddd786c27266b53a,
komplek housing,Komplek perumahan,rumah mrtn,"4FR9+V5X, Tangga Batu, Kec. Belantikan Raya, Kabupaten Lamandau, Kalimantan Tengah 74162","Tangga Batu, Kec. Belantikan Raya, Kabupaten Lamandau",KALIMANTAN TENGAH,74162.0,Indonesia,,,,-1.8581178,111.4688644,https://maps.google.com/?cid=0x0:0xc69faa2621edc0b2,
komplek housing,Kantor Perusahaan,PT Pilar Wanapersada - Guest House,"28F4+CPR, Unnamed Road, Bakonsu, Lamandau, Lamandau Regency, Central Kalimantan 74663","Unnamed Road, Bakonsu, Lamandau, Lamandau Regency",KALIMANTAN TENGAH,74663.0,Indonesia,,,,-1.9763928,111.3067762,https://maps.google.com/?cid=0x0:0x38302a745b8c5dff,
komplek housing,Komplek perumahan,Perkumpulan rumah bujang,"4FR8+H8, Tangga Batu, Kec. Belantikan Raya, Kabupaten Lamandau, Kalimantan Tengah","Kabupaten Lamandau, Kalimantan Tengah",KALIMANTAN TENGAH,,Indonesia,,,,-1.858623,111.465796,https://maps.google.com/?cid=0x0:0x12940209404ce36c,
komplek housing,Pembangunan Perumahan,Keris .,"CC37+GX2, Kahingai, Kec. Belantikan Raya, Kabupaten Lamandau, Kalimantan Tengah","Kabupaten Lamandau, Kalimantan Tengah",KALIMANTAN TENGAH,,Indonesia,,,,-1.5962258,111.4149056,https://maps.google.com/?cid=0x0:0xd7c7b1c4cd25c70f,
komplek housing,Kantor Perusahaan,Emplasment Afdeling Fanta - PT. TAN,"4543+8V, Karang Taba, Kec. Lamandau, Kabupaten Lamandau, Kalimantan Tengah","Kabupaten Lamandau, Kalimantan Tengah",KALIMANTAN TENGAH,,Indonesia,85238312284.0,,,-1.8941917,111.1547133,https://maps.google.com/?cid=0x0:0x65cf3784d87b03e2,
komplek housing,Komplek perumahan,Perumahan KBB,"28H4+HGQ, Suja, Kec. Lamandau, Kabupaten Lamandau, Kalimantan Tengah","Kabupaten Lamandau, Kalimantan Tengah",KALIMANTAN TENGAH,,Indonesia,,,,-1.9710468,111.3063721,https://maps.google.com/?cid=0x0:0x1dd92317c3dfe4ac,
komplek housing,Komplek perumahan,Dukuh Mayam,"59V2+8H, Dukuh Manyam, Bayat, Kec. Belantikan Raya, Kabupaten Lamandau, Kalimantan Tengah","Kabupaten Lamandau, Kalimantan Tengah",KALIMANTAN TENGAH,,Indonesia,,,,-1.8066875,111.3514375,https://maps.google.com/?cid=0x0:0xbc1f4f4b1d38aee8,
komplek housing,Komplek perumahan,Perum Avdeling charlie PT.NAL,"WFQF+CVQ, Beruta, Kec. Bulik, Kabupaten Lamandau, Kalimantan Tengah 74612","Beruta, Kec. Bulik, Kabupaten Lamandau",KALIMANTAN TENGAH,74612.0,Indonesia,85320593255.0,,,-2.0614124,111.474737,https://maps.google.com/?cid=0x0:0xee9b9d9ccd978dbf,
komplek housing,Pembangunan Perumahan,Payong,"4FV8+9C3, Tangga Batu, Kec. Belantikan Raya, Kabupaten Lamandau, Kalimantan Tengah","Kabupaten Lamandau, Kalimantan Tengah",KALIMANTAN TENGAH,,Indonesia,,,,-1.8566183,111.4660621,https://maps.google.com/?cid=0x0:0xc93fca792f425c66,
komplek housing,Komplek perumahan,Rumah Sudung.n,"4FR8+H8, Tangga Batu, Kec. Belantikan Raya, Kabupaten Lamandau, Kalimantan Tengah","Kabupaten Lamandau, Kalimantan Tengah",KALIMANTAN TENGAH,,Indonesia,,,,-1.858321,111.466113,https://maps.google.com/?cid=0x0:0x7fe0afceda9e95c0,
komplek housing,Pembangunan Perumahan,Wong Tulus,"CC46+9HC, Kahingai, Kec. Belantikan Raya, Kabupaten Lamandau, Kalimantan Tengah","Kabupaten Lamandau, Kalimantan Tengah",KALIMANTAN TENGAH,,Indonesia,,,,-1.5940625,111.4113906,https://maps.google.com/?cid=0x0:0x33da823cf2087a78,
komplek housing,komplek housing,Samujaya,"48CC+XH4, Desa Samu jaya, Kec. Lamandau, Kabupaten Lamandau, Kalimantan Tengah","Kabupaten Lamandau, Kalimantan Tengah",KALIMANTAN TENGAH,,Indonesia,,,,-1.8776217,111.3214436,https://maps.google.com/?cid=0x0:0x652b3031cb5961c7,
komplek housing,Komplek perumahan,Batas RT,"358M+M88, Panopa, Kec. Lamandau, Kabupaten Lamandau, Kalimantan Tengah","Kabupaten Lamandau, Kalimantan Tengah",KALIMANTAN TENGAH,,Indonesia,,,,-1.933333,111.183333,https://maps.google.com/?cid=0x0:0x95b6e98e37673039,
komplek housing,Komplek perumahan,Fauzi X Ganz,"3FRP+M6X, Bukit Jaya, Kec. Bulik Tim., Kabupaten Lamandau, Kalimantan Tengah","Kabupaten Lamandau, Kalimantan Tengah",KALIMANTAN TENGAH,,Indonesia,,,,-1.9082603,111.4856113,https://maps.google.com/?cid=0x0:0x8f6fc09b8da52b3c,
komplek housing,Komplek perumahan,Pondok pak Agus patin,"29W2+95C, Bakonsu, Kec. Lamandau, Kabupaten Lamandau, Kalimantan Tengah","Kabupaten Lamandau, Kalimantan Tengah",KALIMANTAN TENGAH,,Indonesia,,,,-1.9540536,111.3504022,https://maps.google.com/?cid=0x0:0x95469c992164f14d,
komplek housing,Pembangunan Perumahan,Fandrius,"48C8+5R5, Tapin Bini, Kec. Lamandau, Kabupaten Lamandau, Kalimantan Tengah 74663","Tapin Bini, Kec. Lamandau, Kabupaten Lamandau",KALIMANTAN TENGAH,74663.0,Indonesia,,,,-1.8796215,111.3171189,https://maps.google.com/?cid=0x0:0x9005556a98c11574,
komplek housing,Perhimpunan Pengembang Perumahan,Rumah Pendeta Ardianto,"RCCX+H45, Jl. Melati III, Nanga Bulik, Kec. Bulik, Kabupaten Lamandau, Kalimantan Tengah 74161","Jl. Melati III, Nanga Bulik, Kec. Bulik, Kabupaten Lamandau",KALIMANTAN TENGAH,74161.0,Indonesia,,,,-2.1786054,111.4478519,https://maps.google.com/?cid=0x0:0xa95da3f214bc318a,
komplek housing,Perhimpunan Pengembang Perumahan,Camp SB,"468H+V5, Tapin Bini, Kec. Lamandau, Kabupaten Lamandau, Kalimantan Tengah","Kabupaten Lamandau, Kalimantan Tengah",KALIMANTAN TENGAH,,Indonesia,,,,-1.8828232,111.227906,https://maps.google.com/?cid=0x0:0x9b36ba07b1cede72,
komplek housing,Pembangunan Perumahan,PERUMAHAN ALUN ALUN RESIDENCE,"RCJH+R6, Bumi Agung, Kec. Bulik, Kabupaten Lamandau, Kalimantan Tengah","Kabupaten Lamandau, Kalimantan Tengah",KALIMANTAN TENGAH,,Indonesia,,,,-2.1679848,111.4280672,https://maps.google.com/?cid=0x0:0x479c6b1b00a0549b,
komplek housing,komplek housing,Kec. Belantikan Raya,"Kabupaten Lamandau, Kalimantan Tengah","Kabupaten Lamandau, Kalimantan Tengah",KALIMANTAN TENGAH,,Indonesia,,,,-1.4884517,111.3798928,https://maps.google.com/?cid=0x0:0x81a9c360d0ae9922,
komplek housing,Pembangunan Perumahan,Perumahan BTN,"JL BTN Ramin No.2, Nanga Bulik, Kec. Bulik, Kabupaten Lamandau, Kalimantan Tengah","Kabupaten Lamandau, Kalimantan Tengah",KALIMANTAN TENGAH,,Indonesia,,,,-2.0908079,111.2606554,https://maps.google.com/?cid=0x0:0x10606d5790e5309c,
komplek housing,komplek housing,Rumah geinson,"48C8+5R5, Tapin Bini, Kec. Lamandau, Kabupaten Lamandau, Kalimantan Tengah 74663","Tapin Bini, Kec. Lamandau, Kabupaten Lamandau",KALIMANTAN TENGAH,74663.0,Indonesia,,,,-1.8795859,111.3171314,https://maps.google.com/?cid=0x0:0x333abbe5c3966a66,
komplek housing,Penjahit,Penjahit insanbusana,"489J+V2G, Samu Jaya, Kec. Lamandau, Kabupaten Lamandau, Kalimantan Tengah 74663","Samu Jaya, Kec. Lamandau, Kabupaten Lamandau",KALIMANTAN TENGAH,74663.0,Indonesia,,,,-1.8792856,111.3303745,https://maps.google.com/?cid=0x0:0x26077125823614ca,
komplek housing,Perusahaan Pembotolan Minyak Zaitun,Perumahan PT. FLTI Estate,"4FR8+RXG, Unnamed Road, Tangga Batu, Belantikan Raya, Lamandau Regency, Central Kalimantan 74663","Unnamed Road, Tangga Batu, Belantikan Raya, Lamandau Regency",KALIMANTAN TENGAH,74663.0,Indonesia,,,,-1.8579365,111.4674394,https://maps.google.com/?cid=0x0:0x89b13403b5a233b2,
komplek housing,komplek housing,Kalimantan Tengah 74162,"Kabupaten Lamandau, Kalimantan Tengah","Kabupaten Lamandau, Kalimantan Tengah",KALIMANTAN TENGAH,,Indonesia,,,,-1.7404903,111.5229817,https://maps.google.com/?cid=0x0:0xcbde8a77875b152b,
komplek housing,Komplek perumahan,Perumahan KBB,"28H4+HGQ, Suja, Kec. Lamandau, Kabupaten Lamandau, Kalimantan Tengah","Kabupaten Lamandau, Kalimantan Tengah",KALIMANTAN TENGAH,,Indonesia,,,,-1.9710468,111.3063721,https://maps.google.com/?cid=0x0:0x1dd92317c3dfe4ac,
komplek housing,komplek housing,RWS HOUSE,"RF96+RGH, Nanga Bulik, Kec. Bulik, Kabupaten Lamandau, Kalimantan Tengah","Kabupaten Lamandau, Kalimantan Tengah",KALIMANTAN TENGAH,,Indonesia,,,,-2.1804469,111.461371,https://maps.google.com/?cid=0x0:0x8ca5c0f49af92657,
komplek housing,Pembangunan Perumahan,Perumahan BTN Griya Bulik Indah,"RC3P+RVF, Nanga Bulik, Kec. Bulik, Kabupaten Lamandau, Kalimantan Tengah 74161","Nanga Bulik, Kec. Bulik, Kabupaten Lamandau",KALIMANTAN TENGAH,74161.0,Indonesia,,,,-2.1954293,111.4371854,https://maps.google.com/?cid=0x0:0x121150928cb61281,
komplek housing,Pembangunan Perumahan,Perumahan Griya Bukit Hibul Permai,"RCCH+MRW, Nanga Bulik, Kec. Bulik, Kabupaten Lamandau, Kalimantan Tengah 74161","Nanga Bulik, Kec. Bulik, Kabupaten Lamandau",KALIMANTAN TENGAH,74161.0,Indonesia,,,,-2.1782613,111.4295748,https://maps.google.com/?cid=0x0:0xe351b1a3b06c897e,
komplek housing,Pembangunan Perumahan,PERUMAHAN ALUN ALUN RESIDENCE,"RCJH+R6, Bumi Agung, Kec. Bulik, Kabupaten Lamandau, Kalimantan Tengah","Kabupaten Lamandau, Kalimantan Tengah",KALIMANTAN TENGAH,,Indonesia,,,,-2.1679848,111.4280672,https://maps.google.com/?cid=0x0:0x479c6b1b00a0549b,
komplek housing,Komplek perumahan,Rumah pak suki,"3GV5+7XP, Sukamaju, Kec. Bulik Tim., Kabupaten Lamandau, Kalimantan Tengah 74162","Sukamaju, Kec. Bulik Tim., Kabupaten Lamandau",KALIMANTAN TENGAH,74162.0,Indonesia,82251527515.0,,,-1.9067971,111.5099514,https://maps.google.com/?cid=0x0:0x73f9a70f7a4d79be,
komplek housing,Komplek perumahan,Perum Avdeling charlie PT.NAL,"WFQF+CVQ, Beruta, Kec. Bulik, Kabupaten Lamandau, Kalimantan Tengah 74612","Beruta, Kec. Bulik, Kabupaten Lamandau",KALIMANTAN TENGAH,74612.0,Indonesia,85320593255.0,,,-2.0614124,111.474737,https://maps.google.com/?cid=0x0:0xee9b9d9ccd978dbf,
komplek housing,Pembangunan Perumahan,Handoko Home,"3JH3+H8W, Nanga Koring, Kec. Bulik Tim., Kabupaten Lamandau, Kalimantan Tengah","Kabupaten Lamandau, Kalimantan Tengah",KALIMANTAN TENGAH,,Indonesia,,,,-1.9210152,111.6033211,https://maps.google.com/?cid=0x0:0x10efabfbf96c1e0a,
komplek housing,Komplek perumahan,Perumahan Emplasemen A PT. Nirmala Agro Lestari (NAL),"XG32+GGX, Sungai Mentawa, Kec. Bulik, Kabupaten Lamandau, Kalimantan Tengah 74162","Sungai Mentawa, Kec. Bulik, Kabupaten Lamandau",KALIMANTAN TENGAH,74162.0,Indonesia,,,,-2.0461276,111.5013713,https://maps.google.com/?cid=0x0:0xb70b0465b307afee,
komplek housing,Komplek perumahan,Habibi,"RFC3+MHQ, Jl. Nanga Bulik, Nanga Bulik, Kec. Bulik, Kabupaten Lamandau, Kalimantan Tengah 74161","Jl. Nanga Bulik, Nanga Bulik, Kec. Bulik, Kabupaten Lamandau",KALIMANTAN TENGAH,74161.0,Indonesia,,,,-2.1782989,111.453984,https://maps.google.com/?cid=0x0:0x7c7fcead4183bcb1,
komplek housing,Komplek perumahan,Walet merah BUDI pengkolan,"4FGP+X7M, Bukit Jaya, Kec. Bulik Tim., Kabupaten Lamandau, Kalimantan Tengah 74162","Bukit Jaya, Kec. Bulik Tim., Kabupaten Lamandau",KALIMANTAN TENGAH,74162.0,Indonesia,,,,-1.8725331,111.4856848,https://maps.google.com/?cid=0x0:0x54bad315217b67a2,
komplek housing,Perhimpunan Pengembang Perumahan,Rumah Pendeta Ardianto,"RCCX+H45, Jl. Melati III, Nanga Bulik, Kec. Bulik, Kabupaten Lamandau, Kalimantan Tengah 74161","Jl. Melati III, Nanga Bulik, Kec. Bulik, Kabupaten Lamandau",KALIMANTAN TENGAH,74161.0,Indonesia,,,,-2.1786054,111.4478519,https://maps.google.com/?cid=0x0:0xa95da3f214bc318a,
komplek housing,Komplek perumahan,RUMAH RC,"RC9R+466, Nanga Bulik, Kec. Bulik, Kabupaten Lamandau, Kalimantan Tengah","Kabupaten Lamandau, Kalimantan Tengah",KALIMANTAN TENGAH,,Indonesia,,,,-2.1822025,111.4405018,https://maps.google.com/?cid=0x0:0x686ec981be50aa36,
komplek housing,Taman Kanak-kanak,Perumahan tk,"XM42+VQ7, Mukti Manunggal, Kec. Menthobi Raya, Kabupaten Lamandau, Kalimantan Tengah 74117","Mukti Manunggal, Kec. Menthobi Raya, Kabupaten Lamandau",KALIMANTAN TENGAH,74117.0,Indonesia,,,,-2.0424275,111.6532383,https://maps.google.com/?cid=0x0:0xad13adbda51dfb66,
komplek housing,Komplek perumahan,dulu,"RCCV+CPF, Jl. Melati II, Nanga Bulik, Kec. Bulik, Kabupaten Lamandau, Kalimantan Tengah 74161","Jl. Melati II, Nanga Bulik, Kec. Bulik, Kabupaten Lamandau",KALIMANTAN TENGAH,74161.0,Indonesia,,,,-2.1789354,111.4442818,https://maps.google.com/?cid=0x0:0x9aff0dce23eb3c80,
komplek housing,Komplek perumahan,Rumah al_faiz,"3GR4+WWJ, Sukamaju, Kec. Bulik Tim., Kabupaten Lamandau, Kalimantan Tengah 74162","Sukamaju, Kec. Bulik Tim., Kabupaten Lamandau",KALIMANTAN TENGAH,74162.0,Indonesia,,,,-1.907675,111.5072682,https://maps.google.com/?cid=0x0:0xfaca0d5736321595,
komplek housing,Komplek perumahan,My home,"VCM8+H73, Arga Mulya, Kec. Bulik, Kabupaten Lamandau, Kalimantan Tengah","Kabupaten Lamandau, Kalimantan Tengah",KALIMANTAN TENGAH,,Indonesia,,,,-2.1161065,111.4156647,https://maps.google.com/?cid=0x0:0xa46fa60b3fbebe46,
komplek housing,komplek housing,Kos kosan 8 pintu,"Jl.kusi No.Rt.12B, Nanga Bulik, Kec. Bulik, Kabupaten Lamandau, Kalimantan Tengah","Kabupaten Lamandau, Kalimantan Tengah",KALIMANTAN TENGAH,,Indonesia,85191446539.0,,,-2.1763685,111.4377213,https://maps.google.com/?cid=0x0:0x823de02bd6a196e1,
komplek housing,Pembangunan Perumahan,Yuli Cell,"Griya Bukit Hibul Permai Blok A no 8 ( gang 13, Nanga Bulik, Kabupaten Lamandau","Kabupaten Lamandau, Kalimantan Tengah",KALIMANTAN TENGAH,,Indonesia,,,,-2.1787729,111.4297614,https://maps.google.com/?cid=0x0:0x3b10d88fd43924e5,
komplek housing,komplek housing,Kec. Bulik,"Kabupaten Lamandau, Kalimantan Tengah","Kabupaten Lamandau, Kalimantan Tengah",KALIMANTAN TENGAH,,Indonesia,,,,-2.1789188,111.4648379,https://maps.google.com/?cid=0x0:0x71d7393c0b154290,
komplek housing,Masjid,Heri namun rumah jika Masjid Nurul,"WG7X+QXR, Kperigi raya ec, Sungai Mentawa, Kec. Bulik, Kabupaten Lamandau, Kalimantan Tengah 74162","Kperigi raya ec, Sungai Mentawa, Kec. Bulik, Kabupaten Lamandau",KALIMANTAN TENGAH,74162.0,Indonesia,,,,-2.0855125,111.5498906,https://maps.google.com/?cid=0x0:0x1567658dca62f230,
komplek housing,Perhimpunan Pengembang Perumahan,Rayyan,"XFFQ+F3V, Beruta, Kec. Bulik, Kabupaten Lamandau, Kalimantan Tengah 74162","Beruta, Kec. Bulik, Kabupaten Lamandau",KALIMANTAN TENGAH,74162.0,Indonesia,,,,-2.0259189,111.4877839,https://maps.google.com/?cid=0x0:0x8229872ff1094d6a,
komplek housing,Komplek perumahan,Suwandi,"RC5M+C44, Jl. Lintas Kalimantan, Nanga Bulik, Kec. Bulik, Kabupaten Lamandau, Kalimantan Tengah 74162","Jl. Lintas Kalimantan, Nanga Bulik, Kec. Bulik, Kabupaten Lamandau",KALIMANTAN TENGAH,74162.0,Indonesia,,,,-2.1916067,111.4327117,https://maps.google.com/?cid=0x0:0xd9d6dc28f0d581c4,
komplek housing,Komplek perumahan,Rumah Oktavianus r,"WF8Q+4F8, Sungai Mentawa, Kec. Bulik, Kabupaten Lamandau, Kalimantan Tengah 74162","Sungai Mentawa, Kec. Bulik, Kabupaten Lamandau",KALIMANTAN TENGAH,74162.0,Indonesia,,,,-2.0847039,111.4883683,https://maps.google.com/?cid=0x0:0xf70acf74f6fb0364,
komplek housing,Pembangunan Perumahan,Perumahan BTN,"JL BTN Ramin No.2, Nanga Bulik, Kec. Bulik, Kabupaten Lamandau, Kalimantan Tengah","Kabupaten Lamandau, Kalimantan Tengah",KALIMANTAN TENGAH,,Indonesia,,,,-2.0908079,111.2606554,https://maps.google.com/?cid=0x0:0x10606d5790e5309c,
komplek housing,Komplek perumahan,Mess Rian,"WF7P+Q9H, Sungai Mentawa, Kec. Bulik, Kabupaten Lamandau, Kalimantan Tengah 74162","Sungai Mentawa, Kec. Bulik, Kabupaten Lamandau",KALIMANTAN TENGAH,74162.0,Indonesia,,,,-2.0855741,111.4859899,https://maps.google.com/?cid=0x0:0xa0628a4d67fad494,
komplek housing,Komplek perumahan,tessa,"XFFP+57P, Unnamed Road, Beruta, Kec. Bulik, Kabupaten Lamandau, Kalimantan Tengah 74162","Unnamed Road, Beruta, Kec. Bulik, Kabupaten Lamandau",KALIMANTAN TENGAH,74162.0,Indonesia,,,,-2.0270333,111.4857176,https://maps.google.com/?cid=0x0:0x3ae4abc3d9fb6620,
komplek housing,Komplek perumahan,Rumah mama eni,"XFFQ+F3V, Beruta, Kec. Bulik, Kabupaten Lamandau, Kalimantan Tengah 74162","Beruta, Kec. Bulik, Kabupaten Lamandau",KALIMANTAN TENGAH,74162.0,Indonesia,,,,-2.025926,111.48736,https://maps.google.com/?cid=0x0:0x1b81cba87499a04f,
komplek housing,komplek housing,Kalimantan Tengah 74611,"Kec. Bulik, Kabupaten Lamandau, Kalimantan Tengah","Kabupaten Lamandau, Kalimantan Tengah",KALIMANTAN TENGAH,,Indonesia,,,,-2.0058667,111.4395128,https://maps.google.com/?cid=0x0:0xb6c8a0a464bd3c0c,
komplek housing,Pembangunan Perumahan,Perumahan BTN Griya Bulik Indah,"RC3P+RVF, Nanga Bulik, Kec. Bulik, Kabupaten Lamandau, Kalimantan Tengah 74161","Nanga Bulik, Kec. Bulik, Kabupaten Lamandau",KALIMANTAN TENGAH,74161.0,Indonesia,,,,-2.1954293,111.4371854,https://maps.google.com/?cid=0x0:0x121150928cb61281,
komplek housing,Komplek perumahan,Perum Avdeling charlie PT.NAL,"WFQF+CVQ, Beruta, Kec. Bulik, Kabupaten Lamandau, Kalimantan Tengah 74612","Beruta, Kec. Bulik, Kabupaten Lamandau",KALIMANTAN TENGAH,74612.0,Indonesia,85320593255.0,,,-2.0614124,111.474737,https://maps.google.com/?cid=0x0:0xee9b9d9ccd978dbf,
komplek housing,Pembangunan Perumahan,PERUMAHAN ALUN ALUN RESIDENCE,"RCJH+R6, Bumi Agung, Kec. Bulik, Kabupaten Lamandau, Kalimantan Tengah","Kabupaten Lamandau, Kalimantan Tengah",KALIMANTAN TENGAH,,Indonesia,,,,-2.1679848,111.4280672,https://maps.google.com/?cid=0x0:0x479c6b1b00a0549b,
komplek housing,Komplek perumahan,Kl 8 pilar,"2C38+48, Tamiang, Kec. Bulik, Kabupaten Lamandau, Kalimantan Tengah","Kabupaten Lamandau, Kalimantan Tengah",KALIMANTAN TENGAH,,Indonesia,,,,-1.9972904,111.4158289,https://maps.google.com/?cid=0x0:0xafcd9547b7204b37,
komplek housing,Kantor Perusahaan,NANGA BULIK RESIDENCE,"RC3P+V9M, Jalan, Nanga Bulik, Kec. Bulik, Kabupaten Lamandau, Kalimantan Tengah","Kabupaten Lamandau, Kalimantan Tengah",KALIMANTAN TENGAH,,Indonesia,81258998506.0,,,-2.195695,111.4360495,https://maps.google.com/?cid=0x0:0x89b159b326ee11ed,
komplek housing,Pembangunan Perumahan,Perumahan BTN,"JL BTN Ramin No.2, Nanga Bulik, Kec. Bulik, Kabupaten Lamandau, Kalimantan Tengah","Kabupaten Lamandau, Kalimantan Tengah",KALIMANTAN TENGAH,,Indonesia,,,,-2.0908079,111.2606554,https://maps.google.com/?cid=0x0:0x10606d5790e5309c,
komplek housing,Komplek perumahan,Bukit Samaliba Residence,"Jalan Empat Puluh Meter RT 12, Nanga Bulik, Bulik, Lamandau Regency, Central Kalimantan 74161","Nanga Bulik, Bulik, Lamandau Regency",KALIMANTAN TENGAH,74161.0,Indonesia,85821687481.0,,,-2.1745645,111.4297661,https://maps.google.com/?cid=0x0:0x5ca913767e318249,
komplek housing,Perhimpunan Pengembang Perumahan,Rayyan,"XFFQ+F3V, Beruta, Kec. Bulik, Kabupaten Lamandau, Kalimantan Tengah 74162","Beruta, Kec. Bulik, Kabupaten Lamandau",KALIMANTAN TENGAH,74162.0,Indonesia,,,,-2.0259189,111.4877839,https://maps.google.com/?cid=0x0:0x8229872ff1094d6a,
komplek housing,Komplek perumahan,Rumah mama eni,"XFFQ+F3V, Beruta, Kec. Bulik, Kabupaten Lamandau, Kalimantan Tengah 74162","Beruta, Kec. Bulik, Kabupaten Lamandau",KALIMANTAN TENGAH,74162.0,Indonesia,,,,-2.025926,111.48736,https://maps.google.com/?cid=0x0:0x1b81cba87499a04f,
komplek housing,Komplek perumahan,De Gaharu Regency,"QCFQ+JRC, Kujan, Kec. Bulik, Kabupaten Lamandau, Kalimantan Tengah","Kabupaten Lamandau, Kalimantan Tengah",KALIMANTAN TENGAH,,Indonesia,,,,-2.2259447,111.4395128,https://maps.google.com/?cid=0x0:0x183fb172d74f300f,
komplek housing,Pembangunan Perumahan,nanga bulik kabupaten lamandau,"RCFW+3RP, Jalan, Nanga Bulik, Bulik, Lamandau Regency, Central Kalimantan 74161","Jalan, Nanga Bulik, Bulik, Lamandau Regency",KALIMANTAN TENGAH,74161.0,Indonesia,,,,-2.177298,111.4470724,https://maps.google.com/?cid=0x0:0x9755122c5b476b0c,
komplek housing,Komplek perumahan,tessa,"XFFP+57P, Unnamed Road, Beruta, Kec. Bulik, Kabupaten Lamandau, Kalimantan Tengah 74162","Unnamed Road, Beruta, Kec. Bulik, Kabupaten Lamandau",KALIMANTAN TENGAH,74162.0,Indonesia,,,,-2.0270333,111.4857176,https://maps.google.com/?cid=0x0:0x3ae4abc3d9fb6620,
komplek housing,Pembangunan Perumahan,Btn bg yayan,"RC3Q+Q6P Belakang RSUD, Nanga Bulik, Kec. Bulik, Kabupaten Lamandau, Kalimantan Tengah","Kabupaten Lamandau, Kalimantan Tengah",KALIMANTAN TENGAH,,Indonesia,,,,-2.1955454,111.4380636,https://maps.google.com/?cid=0x0:0x58cd3326a11fb4fe,
komplek housing,Komplek perumahan,Rumah mas pikxz,"RC3Q+GGJ, Nanga Bulik, Kec. Bulik, Kabupaten Lamandau, Kalimantan Tengah","Kabupaten Lamandau, Kalimantan Tengah",KALIMANTAN TENGAH,,Indonesia,,,,-2.1961542,111.438758,https://maps.google.com/?cid=0x0:0x646bd27d638c965e,
komplek housing,komplek housing,Kec. Bulik,"Kabupaten Lamandau, Kalimantan Tengah","Kabupaten Lamandau, Kalimantan Tengah",KALIMANTAN TENGAH,,Indonesia,,,,-2.1789188,111.4648379,https://maps.google.com/?cid=0x0:0x71d7393c0b154290,
komplek housing,Komplek perumahan,Pondok Gede Housing 1,"Jl. Cipta Raya No.45-3, RT.001/RW.003, Jatirahayu, Kec. Pd. Melati, Kota Bks, Jawa Barat 17414","RT.001/RW.003, Jatirahayu, Kec. Pd. Melati, Kota Bks",KALIMANTAN TENGAH,17414.0,Indonesia,,,,-6.2852504,106.9163397,https://maps.google.com/?cid=0x0:0x3132afedbf38cd61,
komplek housing,Restoran,Griya Bulik Indah Permai,"Jl. Garuda No.RT 09, Kujan, Kec. Bulik, Kabupaten Lamandau, Kalimantan Tengah 74161","Kujan, Kec. Bulik, Kabupaten Lamandau",KALIMANTAN TENGAH,74161.0,Indonesia,,,,-2.1934876,111.4376239,https://maps.google.com/?cid=0x0:0x155512895bde8295,
komplek housing,Komplek perumahan,Ibu Plorinda (Ida),"RF88+VR7, Jl. Tjilik Riwut, Nanga Bulik, Kec. Bulik, Kabupaten Lamandau, Kalimantan Tengah 74611","Jl. Tjilik Riwut, Nanga Bulik, Kec. Bulik, Kabupaten Lamandau",KALIMANTAN TENGAH,74611.0,Indonesia,,,,-2.1833317,111.4667169,https://maps.google.com/?cid=0x0:0x637cf0847357e1cf,
komplek housing,komplek housing,Rumah Umaku,"Jl. Garuda I No.15, Nanga Bulik, Kec. Bulik, Kabupaten Lamandau, Kalimantan Tengah 74611","Nanga Bulik, Kec. Bulik, Kabupaten Lamandau",KALIMANTAN TENGAH,74611.0,Indonesia,,,,-2.1946508,111.4378593,https://maps.google.com/?cid=0x0:0xf0879cb4e2f0c3ec,
komplek housing,komplek housing,Kalimantan Tengah 74612,"Kec. Bulik, Kabupaten Lamandau, Kalimantan Tengah","Kabupaten Lamandau, Kalimantan Tengah",KALIMANTAN TENGAH,,Indonesia,,,,-2.0421323,111.463361,https://maps.google.com/?cid=0x0:0xc38ed0bb98a86bd0,
komplek housing,Komplek perumahan,Perum Avdeling charlie PT.NAL,"WFQF+CVQ, Beruta, Kec. Bulik, Kabupaten Lamandau, Kalimantan Tengah 74612","Beruta, Kec. Bulik, Kabupaten Lamandau",KALIMANTAN TENGAH,74612.0,Indonesia,85320593255.0,,,-2.0614124,111.474737,https://maps.google.com/?cid=0x0:0xee9b9d9ccd978dbf,
komplek housing,Komplek perumahan,Home kamea industri,"WF8M+46, Sungai Mentawa, Kec. Bulik, Kabupaten Lamandau, Kalimantan Tengah","Kabupaten Lamandau, Kalimantan Tengah",KALIMANTAN TENGAH,,Indonesia,,,,-2.084692,111.483109,https://maps.google.com/?cid=0x0:0x37a7a2c4cdd3b0cd,
komplek housing,Pembangunan Perumahan,Perumahan BTN Griya Bulik Indah,"RC3P+RVF, Nanga Bulik, Kec. Bulik, Kabupaten Lamandau, Kalimantan Tengah 74161","Nanga Bulik, Kec. Bulik, Kabupaten Lamandau",KALIMANTAN TENGAH,74161.0,Indonesia,,,,-2.1954293,111.4371854,https://maps.google.com/?cid=0x0:0x121150928cb61281,
komplek housing,Komplek perumahan,Rumah kamea stabita,"WF8M+46, Sungai Mentawa, Kec. Bulik, Kabupaten Lamandau, Kalimantan Tengah","Kabupaten Lamandau, Kalimantan Tengah",KALIMANTAN TENGAH,,Indonesia,,,,-2.0846544,111.4831001,https://maps.google.com/?cid=0x0:0xac76f0a6e5c4ec34,
komplek housing,Komplek perumahan,Perumahan Emplasemen A PT. Nirmala Agro Lestari (NAL),"XG32+GGX, Sungai Mentawa, Kec. Bulik, Kabupaten Lamandau, Kalimantan Tengah 74162","Sungai Mentawa, Kec. Bulik, Kabupaten Lamandau",KALIMANTAN TENGAH,74162.0,Indonesia,,,,-2.0461276,111.5013713,https://maps.google.com/?cid=0x0:0xb70b0465b307afee,
komplek housing,Komplek perumahan,Rumah Oktavianus r,"WF8Q+4F8, Sungai Mentawa, Kec. Bulik, Kabupaten Lamandau, Kalimantan Tengah 74162","Sungai Mentawa, Kec. Bulik, Kabupaten Lamandau",KALIMANTAN TENGAH,74162.0,Indonesia,,,,-2.0847039,111.4883683,https://maps.google.com/?cid=0x0:0xf70acf74f6fb0364,
komplek housing,Komplek perumahan,Rumah igo,"WF8Q+7CC, Sungai Mentawa, Kec. Bulik, Kabupaten Lamandau, Kalimantan Tengah","Kabupaten Lamandau, Kalimantan Tengah",KALIMANTAN TENGAH,,Indonesia,,,,-2.0843101,111.4885943,https://maps.google.com/?cid=0x0:0x951f20c6d1bf64ff,
komplek housing,Pembangunan Perumahan,PERUMAHAN ALUN ALUN RESIDENCE,"RCJH+R6, Bumi Agung, Kec. Bulik, Kabupaten Lamandau, Kalimantan Tengah","Kabupaten Lamandau, Kalimantan Tengah",KALIMANTAN TENGAH,,Indonesia,,,,-2.1679848,111.4280672,https://maps.google.com/?cid=0x0:0x479c6b1b00a0549b,
komplek housing,Komplek perumahan,tessa,"XFFP+57P, Unnamed Road, Beruta, Kec. Bulik, Kabupaten Lamandau, Kalimantan Tengah 74162","Unnamed Road, Beruta, Kec. Bulik, Kabupaten Lamandau",KALIMANTAN TENGAH,74162.0,Indonesia,,,,-2.0270333,111.4857176,https://maps.google.com/?cid=0x0:0x3ae4abc3d9fb6620,
komplek housing,Komplek perumahan,Mess Rian,"WF7P+Q9H, Sungai Mentawa, Kec. Bulik, Kabupaten Lamandau, Kalimantan Tengah 74162","Sungai Mentawa, Kec. Bulik, Kabupaten Lamandau",KALIMANTAN TENGAH,74162.0,Indonesia,,,,-2.0855741,111.4859899,https://maps.google.com/?cid=0x0:0xa0628a4d67fad494,
komplek housing,Perhimpunan Pengembang Perumahan,Rayyan,"XFFQ+F3V, Beruta, Kec. Bulik, Kabupaten Lamandau, Kalimantan Tengah 74162","Beruta, Kec. Bulik, Kabupaten Lamandau",KALIMANTAN TENGAH,74162.0,Indonesia,,,,-2.0259189,111.4877839,https://maps.google.com/?cid=0x0:0x8229872ff1094d6a,
komplek housing,Pembangunan Perumahan,Perumahan Griya Bukit Hibul Permai,"RCCH+MRW, Nanga Bulik, Kec. Bulik, Kabupaten Lamandau, Kalimantan Tengah 74161","Nanga Bulik, Kec. Bulik, Kabupaten Lamandau",KALIMANTAN TENGAH,74161.0,Indonesia,,,,-2.1782613,111.4295748,https://maps.google.com/?cid=0x0:0xe351b1a3b06c897e,
komplek housing,Komplek perumahan,Rumah mama eni,"XFFQ+F3V, Beruta, Kec. Bulik, Kabupaten Lamandau, Kalimantan Tengah 74162","Beruta, Kec. Bulik, Kabupaten Lamandau",KALIMANTAN TENGAH,74162.0,Indonesia,,,,-2.025926,111.48736,https://maps.google.com/?cid=0x0:0x1b81cba87499a04f,
komplek housing,Kantor Perusahaan,NANGA BULIK RESIDENCE,"RC3P+V9M, Jalan, Nanga Bulik, Kec. Bulik, Kabupaten Lamandau, Kalimantan Tengah","Kabupaten Lamandau, Kalimantan Tengah",KALIMANTAN TENGAH,,Indonesia,81258998506.0,,,-2.195695,111.4360495,https://maps.google.com/?cid=0x0:0x89b159b326ee11ed,
komplek housing,Komplek perumahan,Bukit Samaliba Residence,"Jalan Empat Puluh Meter RT 12, Nanga Bulik, Bulik, Lamandau Regency, Central Kalimantan 74161","Nanga Bulik, Bulik, Lamandau Regency",KALIMANTAN TENGAH,74161.0,Indonesia,85821687481.0,,,-2.1745645,111.4297661,https://maps.google.com/?cid=0x0:0x5ca913767e318249,
komplek housing,Pembangunan Perumahan,Perumahan BTN,"JL BTN Ramin No.2, Nanga Bulik, Kec. Bulik, Kabupaten Lamandau, Kalimantan Tengah","Kabupaten Lamandau, Kalimantan Tengah",KALIMANTAN TENGAH,,Indonesia,,,,-2.0908079,111.2606554,https://maps.google.com/?cid=0x0:0x10606d5790e5309c,
komplek housing,Kantor Perusahaan,PT NAL,"WF8P+5FW PT.Nirmala Argo Lestari, Sungai Mentawa, Kec. Bulik, Kabupaten Lamandau, Kalimantan Tengah","Kabupaten Lamandau, Kalimantan Tengah",KALIMANTAN TENGAH,,Indonesia,,,,-2.0845243,111.4862098,https://maps.google.com/?cid=0x0:0xfb1d1ca893307d65,
komplek housing,Pembangunan Perumahan,nanga bulik kabupaten lamandau,"RCFW+3RP, Jalan, Nanga Bulik, Bulik, Lamandau Regency, Central Kalimantan 74161","Jalan, Nanga Bulik, Bulik, Lamandau Regency",KALIMANTAN TENGAH,74161.0,Indonesia,,,,-2.177298,111.4470724,https://maps.google.com/?cid=0x0:0x9755122c5b476b0c,
komplek housing,Komplek perumahan,De Gaharu Regency,"QCFQ+JRC, Kujan, Kec. Bulik, Kabupaten Lamandau, Kalimantan Tengah","Kabupaten Lamandau, Kalimantan Tengah",KALIMANTAN TENGAH,,Indonesia,,,,-2.2259447,111.4395128,https://maps.google.com/?cid=0x0:0x183fb172d74f300f,
komplek housing,komplek housing,Kec. Bulik,"Kabupaten Lamandau, Kalimantan Tengah","Kabupaten Lamandau, Kalimantan Tengah",KALIMANTAN TENGAH,,Indonesia,,,,-2.1789188,111.4648379,https://maps.google.com/?cid=0x0:0x71d7393c0b154290,
komplek housing,Komplek perumahan,Rumah pribadi,"RFC7+76H, Nanga Bulik, Kec. Bulik, Kabupaten Lamandau, Kalimantan Tengah 74161","Nanga Bulik, Kec. Bulik, Kabupaten Lamandau",KALIMANTAN TENGAH,74161.0,Indonesia,,,,-2.1793006,111.4630979,https://maps.google.com/?cid=0x0:0x4c060252169508bb,
komplek housing,komplek housing,Kalimantan Tengah 74162,"Kabupaten Lamandau, Kalimantan Tengah","Kabupaten Lamandau, Kalimantan Tengah",KALIMANTAN TENGAH,,Indonesia,,,,-1.7404903,111.5229817,https://maps.google.com/?cid=0x0:0xcbde8a77875b152b,
komplek housing,komplek housing,RWS HOUSE,"RF96+RGH, Nanga Bulik, Kec. Bulik, Kabupaten Lamandau, Kalimantan Tengah","Kabupaten Lamandau, Kalimantan Tengah",KALIMANTAN TENGAH,,Indonesia,,,,-2.1804469,111.461371,https://maps.google.com/?cid=0x0:0x8ca5c0f49af92657,
komplek housing,Komplek perumahan,Rumah pak suki,"3GV5+7XP, Sukamaju, Kec. Bulik Tim., Kabupaten Lamandau, Kalimantan Tengah 74162","Sukamaju, Kec. Bulik Tim., Kabupaten Lamandau",KALIMANTAN TENGAH,74162.0,Indonesia,82251527515.0,,,-1.9067971,111.5099514,https://maps.google.com/?cid=0x0:0x73f9a70f7a4d79be,
komplek housing,Pembangunan Perumahan,PERUMAHAN ALUN ALUN RESIDENCE,"RCJH+R6, Bumi Agung, Kec. Bulik, Kabupaten Lamandau, Kalimantan Tengah","Kabupaten Lamandau, Kalimantan Tengah",KALIMANTAN TENGAH,,Indonesia,,,,-2.1679848,111.4280672,https://maps.google.com/?cid=0x0:0x479c6b1b00a0549b,
komplek housing,Komplek perumahan,Walet merah BUDI pengkolan,"4FGP+X7M, Bukit Jaya, Kec. Bulik Tim., Kabupaten Lamandau, Kalimantan Tengah 74162","Bukit Jaya, Kec. Bulik Tim., Kabupaten Lamandau",KALIMANTAN TENGAH,74162.0,Indonesia,,,,-1.8725331,111.4856848,https://maps.google.com/?cid=0x0:0x54bad315217b67a2,
komplek housing,Komplek perumahan,Perum Avdeling charlie PT.NAL,"WFQF+CVQ, Beruta, Kec. Bulik, Kabupaten Lamandau, Kalimantan Tengah 74612","Beruta, Kec. Bulik, Kabupaten Lamandau",KALIMANTAN TENGAH,74612.0,Indonesia,85320593255.0,,,-2.0614124,111.474737,https://maps.google.com/?cid=0x0:0xee9b9d9ccd978dbf,
komplek housing,Pembangunan Perumahan,Handoko Home,"3JH3+H8W, Nanga Koring, Kec. Bulik Tim., Kabupaten Lamandau, Kalimantan Tengah","Kabupaten Lamandau, Kalimantan Tengah",KALIMANTAN TENGAH,,Indonesia,,,,-1.9210152,111.6033211,https://maps.google.com/?cid=0x0:0x10efabfbf96c1e0a,
komplek housing,komplek housing,Rumah plus usaha telur puyuh shobirin,"VCM8+H73, Arga Mulya, Kec. Bulik, Kabupaten Lamandau, Kalimantan Tengah","Kabupaten Lamandau, Kalimantan Tengah",KALIMANTAN TENGAH,,Indonesia,82150903287.0,,,-2.1161065,111.4156647,https://maps.google.com/?cid=0x0:0xe9691fa41b9bd57f,
komplek housing,Komplek perumahan,Rumah al_faiz,"3GR4+WWJ, Sukamaju, Kec. Bulik Tim., Kabupaten Lamandau, Kalimantan Tengah 74162","Sukamaju, Kec. Bulik Tim., Kabupaten Lamandau",KALIMANTAN TENGAH,74162.0,Indonesia,,,,-1.907675,111.5072682,https://maps.google.com/?cid=0x0:0xfaca0d5736321595,
komplek housing,Komplek perumahan,Perumahan Emplasemen A PT. Nirmala Agro Lestari (NAL),"XG32+GGX, Sungai Mentawa, Kec. Bulik, Kabupaten Lamandau, Kalimantan Tengah 74162","Sungai Mentawa, Kec. Bulik, Kabupaten Lamandau",KALIMANTAN TENGAH,74162.0,Indonesia,,,,-2.0461276,111.5013713,https://maps.google.com/?cid=0x0:0xb70b0465b307afee,
komplek housing,Pembangunan Perumahan,Perumahan Griya Bukit Hibul Permai,"RCCH+MRW, Nanga Bulik, Kec. Bulik, Kabupaten Lamandau, Kalimantan Tengah 74161","Nanga Bulik, Kec. Bulik, Kabupaten Lamandau",KALIMANTAN TENGAH,74161.0,Indonesia,,,,-2.1782613,111.4295748,https://maps.google.com/?cid=0x0:0xe351b1a3b06c897e,
komplek housing,Taman Kanak-kanak,Perumahan tk,"XM42+VQ7, Mukti Manunggal, Kec. Menthobi Raya, Kabupaten Lamandau, Kalimantan Tengah 74117","Mukti Manunggal, Kec. Menthobi Raya, Kabupaten Lamandau",KALIMANTAN TENGAH,74117.0,Indonesia,,,,-2.0424275,111.6532383,https://maps.google.com/?cid=0x0:0xad13adbda51dfb66,
komplek housing,Perhimpunan Pengembang Perumahan,Rumah Pendeta Ardianto,"RCCX+H45, Jl. Melati III, Nanga Bulik, Kec. Bulik, Kabupaten Lamandau, Kalimantan Tengah 74161","Jl. Melati III, Nanga Bulik, Kec. Bulik, Kabupaten Lamandau",KALIMANTAN TENGAH,74161.0,Indonesia,,,,-2.1786054,111.4478519,https://maps.google.com/?cid=0x0:0xa95da3f214bc318a,
komplek housing,Masjid,Heri namun rumah jika Masjid Nurul,"WG7X+QXR, Kperigi raya ec, Sungai Mentawa, Kec. Bulik, Kabupaten Lamandau, Kalimantan Tengah 74162","Kperigi raya ec, Sungai Mentawa, Kec. Bulik, Kabupaten Lamandau",KALIMANTAN TENGAH,74162.0,Indonesia,,,,-2.0855125,111.5498906,https://maps.google.com/?cid=0x0:0x1567658dca62f230,
komplek housing,Komplek perumahan,Habibi,"RFC3+MHQ, Jl. Nanga Bulik, Nanga Bulik, Kec. Bulik, Kabupaten Lamandau, Kalimantan Tengah 74161","Jl. Nanga Bulik, Nanga Bulik, Kec. Bulik, Kabupaten Lamandau",KALIMANTAN TENGAH,74161.0,Indonesia,,,,-2.1782989,111.453984,https://maps.google.com/?cid=0x0:0x7c7fcead4183bcb1,
komplek housing,Komplek perumahan,RUMAH RC,"RC9R+466, Nanga Bulik, Kec. Bulik, Kabupaten Lamandau, Kalimantan Tengah","Kabupaten Lamandau, Kalimantan Tengah",KALIMANTAN TENGAH,,Indonesia,,,,-2.1822025,111.4405018,https://maps.google.com/?cid=0x0:0x686ec981be50aa36,
komplek housing,Pembangunan Perumahan,Yuli Cell,"Griya Bukit Hibul Permai Blok A no 8 ( gang 13, Nanga Bulik, Kabupaten Lamandau","Kabupaten Lamandau, Kalimantan Tengah",KALIMANTAN TENGAH,,Indonesia,,,,-2.1787729,111.4297614,https://maps.google.com/?cid=0x0:0x3b10d88fd43924e5,
komplek housing,Pembangunan Perumahan,Naufal,"3GV6+PHX, RT.03/RW.01, Sukamaju, Kec. Bulik Tim., Kabupaten Lamandau, Kalimantan Tengah 74162","RT.03/RW.01, Sukamaju, Kec. Bulik Tim., Kabupaten Lamandau",KALIMANTAN TENGAH,74162.0,Indonesia,,,,-1.9049798,111.5125856,https://maps.google.com/?cid=0x0:0x79b253ffe8bf90dc,
komplek housing,Komplek perumahan,Fauzi X Ganz,"3FRP+M6X, Bukit Jaya, Kec. Bulik Tim., Kabupaten Lamandau, Kalimantan Tengah","Kabupaten Lamandau, Kalimantan Tengah",KALIMANTAN TENGAH,,Indonesia,,,,-1.9082603,111.4856113,https://maps.google.com/?cid=0x0:0x8f6fc09b8da52b3c,
komplek housing,komplek housing,Kos kosan 8 pintu,"Jl.kusi No.Rt.12B, Nanga Bulik, Kec. Bulik, Kabupaten Lamandau, Kalimantan Tengah","Kabupaten Lamandau, Kalimantan Tengah",KALIMANTAN TENGAH,,Indonesia,85191446539.0,,,-2.1763685,111.4377213,https://maps.google.com/?cid=0x0:0x823de02bd6a196e1,
komplek housing,komplek housing,Kec. Bulik Tim.,"Kabupaten Lamandau, Kalimantan Tengah","Kabupaten Lamandau, Kalimantan Tengah",KALIMANTAN TENGAH,,Indonesia,,,,-1.7393458,111.6183755,https://maps.google.com/?cid=0x0:0x6b6ae45b64328719,
komplek housing,Komplek perumahan,rumah mrtn,"4FR9+V5X, Tangga Batu, Kec. Belantikan Raya, Kabupaten Lamandau, Kalimantan Tengah 74162","Tangga Batu, Kec. Belantikan Raya, Kabupaten Lamandau",KALIMANTAN TENGAH,74162.0,Indonesia,,,,-1.8581178,111.4688644,https://maps.google.com/?cid=0x0:0xc69faa2621edc0b2,
komplek housing,Komplek perumahan,Rumah Difa,"3GV6+F27, Sukamaju, Kec. Bulik Tim., Kabupaten Lamandau, Kalimantan Tengah 74162","Sukamaju, Kec. Bulik Tim., Kabupaten Lamandau",KALIMANTAN TENGAH,74162.0,Indonesia,,,,-1.9059966,111.5103182,https://maps.google.com/?cid=0x0:0xc1eea5f2a3f3222e,
komplek housing,Perhimpunan Pengembang Perumahan,Rayyan,"XFFQ+F3V, Beruta, Kec. Bulik, Kabupaten Lamandau, Kalimantan Tengah 74162","Beruta, Kec. Bulik, Kabupaten Lamandau",KALIMANTAN TENGAH,74162.0,Indonesia,,,,-2.0259189,111.4877839,https://maps.google.com/?cid=0x0:0x8229872ff1094d6a,
komplek housing,Komplek perumahan,tessa,"XFFP+57P, Unnamed Road, Beruta, Kec. Bulik, Kabupaten Lamandau, Kalimantan Tengah 74162","Unnamed Road, Beruta, Kec. Bulik, Kabupaten Lamandau",KALIMANTAN TENGAH,74162.0,Indonesia,,,,-2.0270333,111.4857176,https://maps.google.com/?cid=0x0:0x3ae4abc3d9fb6620,
komplek housing,Komplek perumahan,Rumah mama eni,"XFFQ+F3V, Beruta, Kec. Bulik, Kabupaten Lamandau, Kalimantan Tengah 74162","Beruta, Kec. Bulik, Kabupaten Lamandau",KALIMANTAN TENGAH,74162.0,Indonesia,,,,-2.025926,111.48736,https://maps.google.com/?cid=0x0:0x1b81cba87499a04f,
komplek housing,Penginapan,Pastori GKE Jemaat Nanga Palikodan,"2G77+68H, Nanga Palikodan, Kec. Bulik Tim., Kabupaten Lamandau, Kalimantan Tengah 74162","Nanga Palikodan, Kec. Bulik Tim., Kabupaten Lamandau",KALIMANTAN TENGAH,74162.0,Indonesia,,,,-1.9869445,111.5133592,https://maps.google.com/?cid=0x0:0x9693969783c0fee8,
komplek housing,Pusat Perbelanjaan,Desa Merambang,"Jalan Semangat No.RT.02, Merambang, Kec. Bulik Tim., Kabupaten Lamandau, Kalimantan Tengah 74162","Merambang, Kec. Bulik Tim., Kabupaten Lamandau",KALIMANTAN TENGAH,74162.0,Indonesia,,,,-1.8215617,111.5826028,https://maps.google.com/?cid=0x0:0x54a4d2b8e5054594,
komplek housing,komplek housing,Rumah Alam,"399M+FPV, Bakonsu, Kec. Lamandau, Kabupaten Lamandau, Kalimantan Tengah 74162","Bakonsu, Kec. Lamandau, Kabupaten Lamandau",KALIMANTAN TENGAH,74162.0,Indonesia,,,,-1.9316087,111.3842027,https://maps.google.com/?cid=0x0:0x9d9363c87d882723,
komplek housing,komplek housing,Kalimantan Tengah 74664,"Kabupaten Lamandau, Kalimantan Tengah","Kabupaten Lamandau, Kalimantan Tengah",KALIMANTAN TENGAH,,Indonesia,,,,-1.6722405,111.1414226,https://maps.google.com/?cid=0x0:0x2e393b90c2443400,
komplek housing,Pembangunan Perumahan,"Desa Kudangan, Kec. Delang, Kab. Lamandau","92XP+X4H, Kudangan, Kec. Delang, Kabupaten Lamandau, Kalimantan Tengah 74664","Kudangan, Kec. Delang, Kabupaten Lamandau",KALIMANTAN TENGAH,74664.0,Indonesia,,,,-1.5994526,111.0360423,https://maps.google.com/?cid=0x0:0x3b71d21a135a268e,
komplek housing,Perhimpunan Pengembang Perumahan,Rumah efsy,"834X+MQH, Kudangan - Penopa, Sepoyu, Kec. Delang, Kabupaten Lamandau, Kalimantan Tengah 74664","Kudangan - Penopa, Sepoyu, Kec. Delang, Kabupaten Lamandau",KALIMANTAN TENGAH,74664.0,Indonesia,,,,-1.6933032,111.0994762,https://maps.google.com/?cid=0x0:0x84254b60debc6ab1,
komplek housing,Tempat Religius,Rumah Dinas Guru SDN Kina,"F5V4+VPM, Kina, Kec. Batang Kawa, Kabupaten Lamandau, Kalimantan Tengah 74664","Kina, Kec. Batang Kawa, Kabupaten Lamandau",KALIMANTAN TENGAH,74664.0,Indonesia,,,,-1.5052394,111.1564134,https://maps.google.com/?cid=0x0:0x7607606cb1b6f2d,
komplek housing,Komplek perumahan,Rumah Pak Bambang,"65H3+489, Batu Tambun, Kec. Batang Kawa, Kabupaten Lamandau, Kalimantan Tengah 74664","Batu Tambun, Kec. Batang Kawa, Kabupaten Lamandau",KALIMANTAN TENGAH,74664.0,Indonesia,,,,-1.7722032,111.1533456,https://maps.google.com/?cid=0x0:0xcbd5af610f6a229f,
komplek housing,Perpustakaan,Rumah Dinas Kepala SMPN SATAP 3 Batang Kawa,"F5V4+VPM, Kina, Kec. Batang Kawa, Kabupaten Lamandau, Kalimantan Tengah 74664","Kina, Kec. Batang Kawa, Kabupaten Lamandau",KALIMANTAN TENGAH,74664.0,Indonesia,,,,-1.5051412,111.1567199,https://maps.google.com/?cid=0x0:0x981c5a6a321625be,
komplek housing,Komplek perumahan,Pondok Hujan,"C5HP+W8, Karang Mas, Kec. Batang Kawa, Kabupaten Lamandau, Kalimantan Tengah","Kabupaten Lamandau, Kalimantan Tengah",KALIMANTAN TENGAH,,Indonesia,,,,-1.5702368,111.1858188,https://maps.google.com/?cid=0x0:0xed02257ca7b3e62a,
komplek housing,Komplek perumahan,Mess Bang Naldi,"54G3+QJX, Jl. Lintas Kalimantan, Tengah, Kec. Lamandau, Kabupaten Lamandau, Kalimantan Tengah","Kabupaten Lamandau, Kalimantan Tengah",KALIMANTAN TENGAH,,Indonesia,,,,-1.8230157,111.1041242,https://maps.google.com/?cid=0x0:0x3b6d8d8c8535b726,
komplek housing,komplek housing,Kec. Delang,"Kabupaten Lamandau, Kalimantan Tengah","Kabupaten Lamandau, Kalimantan Tengah",KALIMANTAN TENGAH,,Indonesia,,,,-1.5993402,111.0384498,https://maps.google.com/?cid=0x0:0xde0ecce4669c4c12,
komplek housing,komplek housing,Kalimantan Tengah 74663,"Kabupaten Lamandau, Kalimantan Tengah","Kabupaten Lamandau, Kalimantan Tengah",KALIMANTAN TENGAH,,Indonesia,,,,-1.9269166,111.1891151,https://maps.google.com/?cid=0x0:0xddd786c27266b53a,
komplek housing,Komplek perumahan,Perumahan KBB,"28H4+HGQ, Suja, Kec. Lamandau, Kabupaten Lamandau, Kalimantan Tengah","Kabupaten Lamandau, Kalimantan Tengah",KALIMANTAN TENGAH,,Indonesia,,,,-1.9710468,111.3063721,https://maps.google.com/?cid=0x0:0x1dd92317c3dfe4ac,
komplek housing,Kantor Perusahaan,PT Pilar Wanapersada - Guest House,"28F4+CPR, Unnamed Road, Bakonsu, Lamandau, Lamandau Regency, Central Kalimantan 74663","Unnamed Road, Bakonsu, Lamandau, Lamandau Regency",KALIMANTAN TENGAH,74663.0,Indonesia,,,,-1.9763928,111.3067762,https://maps.google.com/?cid=0x0:0x38302a745b8c5dff,
komplek housing,Komplek perumahan,rumah mrtn,"4FR9+V5X, Tangga Batu, Kec. Belantikan Raya, Kabupaten Lamandau, Kalimantan Tengah 74162","Tangga Batu, Kec. Belantikan Raya, Kabupaten Lamandau",KALIMANTAN TENGAH,74162.0,Indonesia,,,,-1.8581178,111.4688644,https://maps.google.com/?cid=0x0:0xc69faa2621edc0b2,
komplek housing,Pembangunan Perumahan,PERUMAHAN ALUN ALUN RESIDENCE,"RCJH+R6, Bumi Agung, Kec. Bulik, Kabupaten Lamandau, Kalimantan Tengah","Kabupaten Lamandau, Kalimantan Tengah",KALIMANTAN TENGAH,,Indonesia,,,,-2.1679848,111.4280672,https://maps.google.com/?cid=0x0:0x479c6b1b00a0549b,
komplek housing,Kantor Perusahaan,Emplasment Afdeling Fanta - PT. TAN,"4543+8V, Karang Taba, Kec. Lamandau, Kabupaten Lamandau, Kalimantan Tengah","Kabupaten Lamandau, Kalimantan Tengah",KALIMANTAN TENGAH,,Indonesia,85238312284.0,,,-1.8941917,111.1547133,https://maps.google.com/?cid=0x0:0x65cf3784d87b03e2,
komplek housing,Kantor Perusahaan,Rumah Lois FLTI Estate,"4FR9+J8W, Unnamed Road, Tangga Batu, Belantikan Raya, Lamandau Regency, Central Kalimantan 74663","Unnamed Road, Tangga Batu, Belantikan Raya, Lamandau Regency",KALIMANTAN TENGAH,74663.0,Indonesia,,,,-1.858391,111.4683197,https://maps.google.com/?cid=0x0:0xcd526bc9980c61c4,
komplek housing,Komplek perumahan,Perum Avdeling charlie PT.NAL,"WFQF+CVQ, Beruta, Kec. Bulik, Kabupaten Lamandau, Kalimantan Tengah 74612","Beruta, Kec. Bulik, Kabupaten Lamandau",KALIMANTAN TENGAH,74612.0,Indonesia,85320593255.0,,,-2.0614124,111.474737,https://maps.google.com/?cid=0x0:0xee9b9d9ccd978dbf,
komplek housing,Pembangunan Perumahan,Fandrius,"48C8+5R5, Tapin Bini, Kec. Lamandau, Kabupaten Lamandau, Kalimantan Tengah 74663","Tapin Bini, Kec. Lamandau, Kabupaten Lamandau",KALIMANTAN TENGAH,74663.0,Indonesia,,,,-1.8796215,111.3171189,https://maps.google.com/?cid=0x0:0x9005556a98c11574,
komplek housing,Pembangunan Perumahan,Kampung suja,"2796+M72, Suja, Kec. Lamandau, Kabupaten Lamandau, Kalimantan Tengah","Kabupaten Lamandau, Kalimantan Tengah",KALIMANTAN TENGAH,,Indonesia,,,,-1.9808521,111.2606554,https://maps.google.com/?cid=0x0:0x296833b25bd6cd70,
komplek housing,Komplek perumahan,Pondok pak Agus patin,"29W2+95C, Bakonsu, Kec. Lamandau, Kabupaten Lamandau, Kalimantan Tengah","Kabupaten Lamandau, Kalimantan Tengah",KALIMANTAN TENGAH,,Indonesia,,,,-1.9540536,111.3504022,https://maps.google.com/?cid=0x0:0x95469c992164f14d,
komplek housing,Pembangunan Perumahan,SHA'S,"398M+G5, Bakonsu, Kec. Lamandau, Kabupaten Lamandau, Kalimantan Tengah","Kabupaten Lamandau, Kalimantan Tengah",KALIMANTAN TENGAH,,Indonesia,,,,-1.933672,111.382961,https://maps.google.com/?cid=0x0:0x4e722a373122f9f0,
komplek housing,komplek housing,Rumah geinson,"48C8+5R5, Tapin Bini, Kec. Lamandau, Kabupaten Lamandau, Kalimantan Tengah 74663","Tapin Bini, Kec. Lamandau, Kabupaten Lamandau",KALIMANTAN TENGAH,74663.0,Indonesia,,,,-1.8795859,111.3171314,https://maps.google.com/?cid=0x0:0x333abbe5c3966a66,
komplek housing,Pembangunan Perumahan,Kompleks Perumahan Dinas Pemda Bukit Hibul,"RC78+268, Nanga Bulik, Kec. Bulik, Kabupaten Lamandau, Kalimantan Tengah 74161","Nanga Bulik, Kec. Bulik, Kabupaten Lamandau",KALIMANTAN TENGAH,74161.0,Indonesia,,,,-2.187454,111.4155937,https://maps.google.com/?cid=0x0:0xb9ac136d3b92379,
komplek housing,Komplek perumahan,Wadah bujang,"47H6+G7C Gapura, Tapin Bini, Kec. Lamandau, Kabupaten Lamandau, Kalimantan Tengah","Kabupaten Lamandau, Kalimantan Tengah",KALIMANTAN TENGAH,,Indonesia,,,,-1.8711869,111.2606554,https://maps.google.com/?cid=0x0:0x47639704de1539f5,
komplek housing,Komplek perumahan,Rumah Adhe,"RC9R+F6Q, Jl. W.R. Supratman, Nanga Bulik, Kec. Bulik, Kabupaten Lamandau, Kalimantan Tengah 74161","Jl. W.R. Supratman, Nanga Bulik, Kec. Bulik, Kabupaten Lamandau",KALIMANTAN TENGAH,74161.0,Indonesia,,,,-2.1819936,111.4410092,https://maps.google.com/?cid=0x0:0x9ca68a692e60a816,
komplek housing,Komplek perumahan,Batas RT,"358M+M88, Panopa, Kec. Lamandau, Kabupaten Lamandau, Kalimantan Tengah","Kabupaten Lamandau, Kalimantan Tengah",KALIMANTAN TENGAH,,Indonesia,,,,-1.933333,111.183333,https://maps.google.com/?cid=0x0:0x95b6e98e37673039,
komplek housing,Komplek perumahan,Rumah jodi,"288Q+G6G, Tamiang, Kec. Bulik, Kabupaten Lamandau, Kalimantan Tengah","Kabupaten Lamandau, Kalimantan Tengah",KALIMANTAN TENGAH,,Indonesia,,,,-1.9836417,111.3380287,https://maps.google.com/?cid=0x0:0x5fdbafdb63847368,
komplek housing,Perhimpunan Pengembang Perumahan,Rumah Pendeta Ardianto,"RCCX+H45, Jl. Melati III, Nanga Bulik, Kec. Bulik, Kabupaten Lamandau, Kalimantan Tengah 74161","Jl. Melati III, Nanga Bulik, Kec. Bulik, Kabupaten Lamandau",KALIMANTAN TENGAH,74161.0,Indonesia,,,,-2.1786054,111.4478519,https://maps.google.com/?cid=0x0:0xa95da3f214bc318a,
komplek housing,Perhimpunan Pengembang Perumahan,Yusup Assololey,"489J+JM2, Sekoban, Kec. Lamandau, Kabupaten Lamandau, Kalimantan Tengah 74663","Sekoban, Kec. Lamandau, Kabupaten Lamandau",KALIMANTAN TENGAH,74663.0,Indonesia,,,,-1.8809771,111.3316398,https://maps.google.com/?cid=0x0:0x78021bfc666959aa,
komplek housing,komplek housing,Kabupaten Lamandau,Kalimantan Tengah,"Kabupaten Lamandau, Kalimantan Tengah",KALIMANTAN TENGAH,,Indonesia,,,,-1.8526377,111.2845025,https://maps.google.com/?cid=0x0:0xe39ea290048227e4,
komplek housing,Komplek perumahan,De Gaharu Regency,"QCFQ+JRC, Kujan, Kec. Bulik, Kabupaten Lamandau, Kalimantan Tengah","Kabupaten Lamandau, Kalimantan Tengah",KALIMANTAN TENGAH,,Indonesia,,,,-2.2259447,111.4395128,https://maps.google.com/?cid=0x0:0x183fb172d74f300f,
komplek housing,Penjahit,Penjahit insanbusana,"489J+V2G, Samu Jaya, Kec. Lamandau, Kabupaten Lamandau, Kalimantan Tengah 74663","Samu Jaya, Kec. Lamandau, Kabupaten Lamandau",KALIMANTAN TENGAH,74663.0,Indonesia,,,,-1.8792856,111.3303745,https://maps.google.com/?cid=0x0:0x26077125823614ca,
komplek housing,Pembangunan Perumahan,Perumahan BTN,"JL BTN Ramin No.2, Nanga Bulik, Kec. Bulik, Kabupaten Lamandau, Kalimantan Tengah","Kabupaten Lamandau, Kalimantan Tengah",KALIMANTAN TENGAH,,Indonesia,,,,-2.0908079,111.2606554,https://maps.google.com/?cid=0x0:0x10606d5790e5309c,
komplek housing,komplek housing,Kalimantan Tengah 74162,"Kabupaten Lamandau, Kalimantan Tengah","Kabupaten Lamandau, Kalimantan Tengah",KALIMANTAN TENGAH,,Indonesia,,,,-1.7404903,111.5229817,https://maps.google.com/?cid=0x0:0xcbde8a77875b152b,
komplek housing,Taman Kanak-kanak,Perumahan tk,"XM42+VQ7, Mukti Manunggal, Kec. Menthobi Raya, Kabupaten Lamandau, Kalimantan Tengah 74117","Mukti Manunggal, Kec. Menthobi Raya, Kabupaten Lamandau",KALIMANTAN TENGAH,74117.0,Indonesia,,,,-2.0424275,111.6532383,https://maps.google.com/?cid=0x0:0xad13adbda51dfb66,
komplek housing,komplek housing,Rumah plus usaha telur puyuh shobirin,"VCM8+H73, Arga Mulya, Kec. Bulik, Kabupaten Lamandau, Kalimantan Tengah","Kabupaten Lamandau, Kalimantan Tengah",KALIMANTAN TENGAH,,Indonesia,82150903287.0,,,-2.1161065,111.4156647,https://maps.google.com/?cid=0x0:0xe9691fa41b9bd57f,
komplek housing,Komplek perumahan,rumah mrtn,"4FR9+V5X, Tangga Batu, Kec. Belantikan Raya, Kabupaten Lamandau, Kalimantan Tengah 74162","Tangga Batu, Kec. Belantikan Raya, Kabupaten Lamandau",KALIMANTAN TENGAH,74162.0,Indonesia,,,,-1.8581178,111.4688644,https://maps.google.com/?cid=0x0:0xc69faa2621edc0b2,
komplek housing,Komplek perumahan,Walet merah BUDI pengkolan,"4FGP+X7M, Bukit Jaya, Kec. Bulik Tim., Kabupaten Lamandau, Kalimantan Tengah 74162","Bukit Jaya, Kec. Bulik Tim., Kabupaten Lamandau",KALIMANTAN TENGAH,74162.0,Indonesia,,,,-1.8725331,111.4856848,https://maps.google.com/?cid=0x0:0x54bad315217b67a2,
komplek housing,Komplek perumahan,Perumahan KBB,"28H4+HGQ, Suja, Kec. Lamandau, Kabupaten Lamandau, Kalimantan Tengah","Kabupaten Lamandau, Kalimantan Tengah",KALIMANTAN TENGAH,,Indonesia,,,,-1.9710468,111.3063721,https://maps.google.com/?cid=0x0:0x1dd92317c3dfe4ac,
komplek housing,Komplek perumahan,H. Trimo,"2J74+VHP, Melata, Kec. Menthobi Raya, Kabupaten Lamandau, Kalimantan Tengah","Kabupaten Lamandau, Kalimantan Tengah",KALIMANTAN TENGAH,,Indonesia,,,,-1.9852984,111.6064513,https://maps.google.com/?cid=0x0:0xab65d0932a51b688,
komplek housing,komplek housing,Utomo,"WJHM+58Q, Bukit Raya, Kec. Menthobi Raya, Kabupaten Lamandau, Kalimantan Tengah 74117","Bukit Raya, Kec. Menthobi Raya, Kabupaten Lamandau",KALIMANTAN TENGAH,74117.0,Indonesia,,,,-2.0714196,111.6335288,https://maps.google.com/?cid=0x0:0x1bada83eda03c47d,
komplek housing,komplek housing,RWS HOUSE,"RF96+RGH, Nanga Bulik, Kec. Bulik, Kabupaten Lamandau, Kalimantan Tengah","Kabupaten Lamandau, Kalimantan Tengah",KALIMANTAN TENGAH,,Indonesia,,,,-2.1804469,111.461371,https://maps.google.com/?cid=0x0:0x8ca5c0f49af92657,
komplek housing,Perhimpunan Pengembang Perumahan,Camp Golfgolf (GG),"WHPV+VP, Bukit Raya, Kec. Menthobi Raya, Kabupaten Lamandau, Kalimantan Tengah 74117","Bukit Raya, Kec. Menthobi Raya, Kabupaten Lamandau",KALIMANTAN TENGAH,74117.0,Indonesia,,,,-2.0632978,111.5948505,https://maps.google.com/?cid=0x0:0x1d8b5a7cbb5b6384,
komplek housing,Perhimpunan Pengembang Perumahan,Rumah Pendeta Ardianto,"RCCX+H45, Jl. Melati III, Nanga Bulik, Kec. Bulik, Kabupaten Lamandau, Kalimantan Tengah 74161","Jl. Melati III, Nanga Bulik, Kec. Bulik, Kabupaten Lamandau",KALIMANTAN TENGAH,74161.0,Indonesia,,,,-2.1786054,111.4478519,https://maps.google.com/?cid=0x0:0xa95da3f214bc318a,
komplek housing,Komplek perumahan,Rumah Ida,"VJJW+P4R, Bukit Harum, Kec. Menthobi Raya, Kabupaten Lamandau, Kalimantan Tengah 74117","Bukit Harum, Kec. Menthobi Raya, Kabupaten Lamandau",KALIMANTAN TENGAH,74117.0,Indonesia,,,,-2.1181289,111.6452527,https://maps.google.com/?cid=0x0:0x28db4adcc9bd6130,
komplek housing,Komplek perumahan,Rumah al_faiz,"3GR4+WWJ, Sukamaju, Kec. Bulik Tim., Kabupaten Lamandau, Kalimantan Tengah 74162","Sukamaju, Kec. Bulik Tim., Kabupaten Lamandau",KALIMANTAN TENGAH,74162.0,Indonesia,,,,-1.907675,111.5072682,https://maps.google.com/?cid=0x0:0xfaca0d5736321595,
komplek housing,Komplek perumahan,Home kamea industri,"WF8M+46, Sungai Mentawa, Kec. Bulik, Kabupaten Lamandau, Kalimantan Tengah","Kabupaten Lamandau, Kalimantan Tengah",KALIMANTAN TENGAH,,Indonesia,,,,-2.084692,111.483109,https://maps.google.com/?cid=0x0:0x37a7a2c4cdd3b0cd,
komplek housing,Pembangunan Perumahan,Handoko Home,"3JH3+H8W, Nanga Koring, Kec. Bulik Tim., Kabupaten Lamandau, Kalimantan Tengah","Kabupaten Lamandau, Kalimantan Tengah",KALIMANTAN TENGAH,,Indonesia,,,,-1.9210152,111.6033211,https://maps.google.com/?cid=0x0:0x10efabfbf96c1e0a,
komplek housing,Komplek perumahan,Rumah Tendi,"WH8R+H8, Bukit Makmur, Kec. Menthobi Raya, Kabupaten Lamandau, Kalimantan Tengah","Kabupaten Lamandau, Kalimantan Tengah",KALIMANTAN TENGAH,,Indonesia,,,,-2.08359,111.5907888,https://maps.google.com/?cid=0x0:0x6d3be4877040d312,
komplek housing,Kantor Perusahaan,PT Pilar Wanapersada - Guest House,"28F4+CPR, Unnamed Road, Bakonsu, Lamandau, Lamandau Regency, Central Kalimantan 74663","Unnamed Road, Bakonsu, Lamandau, Lamandau Regency",KALIMANTAN TENGAH,74663.0,Indonesia,,,,-1.9763928,111.3067762,https://maps.google.com/?cid=0x0:0x38302a745b8c5dff,
komplek housing,Masjid,Heri namun rumah jika Masjid Nurul,"WG7X+QXR, Kperigi raya ec, Sungai Mentawa, Kec. Bulik, Kabupaten Lamandau, Kalimantan Tengah 74162","Kperigi raya ec, Sungai Mentawa, Kec. Bulik, Kabupaten Lamandau",KALIMANTAN TENGAH,74162.0,Indonesia,,,,-2.0855125,111.5498906,https://maps.google.com/?cid=0x0:0x1567658dca62f230,
komplek housing,Komplek perumahan,Toto'G,"WH7R+2VF, Unnamed Road, Bukit Makmur, Kec. Menthobi Raya, Kabupaten Lamandau, Kalimantan Tengah 74117","Unnamed Road, Bukit Makmur, Kec. Menthobi Raya, Kabupaten Lamandau",KALIMANTAN TENGAH,74117.0,Indonesia,81250159167.0,,,-2.0874439,111.5921609,https://maps.google.com/?cid=0x0:0x24481ca3427d4ee4,
komplek housing,Komplek perumahan,Rumah pak suki,"3GV5+7XP, Sukamaju, Kec. Bulik Tim., Kabupaten Lamandau, Kalimantan Tengah 74162","Sukamaju, Kec. Bulik Tim., Kabupaten Lamandau",KALIMANTAN TENGAH,74162.0,Indonesia,82251527515.0,,,-1.9067971,111.5099514,https://maps.google.com/?cid=0x0:0x73f9a70f7a4d79be,
komplek housing,komplek housing,Kec. Menthobi Raya,"Kabupaten Lamandau, Kalimantan Tengah","Kabupaten Lamandau, Kalimantan Tengah",KALIMANTAN TENGAH,,Indonesia,,,,-2.050416,111.6153851,https://maps.google.com/?cid=0x0:0x45123dfed8d40bd7,
komplek housing,Komplek perumahan,tessa,"XFFP+57P, Unnamed Road, Beruta, Kec. Bulik, Kabupaten Lamandau, Kalimantan Tengah 74162","Unnamed Road, Beruta, Kec. Bulik, Kabupaten Lamandau",KALIMANTAN TENGAH,74162.0,Indonesia,,,,-2.0270333,111.4857176,https://maps.google.com/?cid=0x0:0x3ae4abc3d9fb6620,
komplek housing,Komplek perumahan,Rumah mama eni,"XFFQ+F3V, Beruta, Kec. Bulik, Kabupaten Lamandau, Kalimantan Tengah 74162","Beruta, Kec. Bulik, Kabupaten Lamandau",KALIMANTAN TENGAH,74162.0,Indonesia,,,,-2.025926,111.48736,https://maps.google.com/?cid=0x0:0x1b81cba87499a04f,
komplek housing,Komplek perumahan,Rumah Difa,"3GV6+F27, Sukamaju, Kec. Bulik Tim., Kabupaten Lamandau, Kalimantan Tengah 74162","Sukamaju, Kec. Bulik Tim., Kabupaten Lamandau",KALIMANTAN TENGAH,74162.0,Indonesia,,,,-1.9059966,111.5103182,https://maps.google.com/?cid=0x0:0xc1eea5f2a3f3222e,
komplek housing,Komplek perumahan,Rumah Oktavianus r,"WF8Q+4F8, Sungai Mentawa, Kec. Bulik, Kabupaten Lamandau, Kalimantan Tengah 74162","Sungai Mentawa, Kec. Bulik, Kabupaten Lamandau",KALIMANTAN TENGAH,74162.0,Indonesia,,,,-2.0847039,111.4883683,https://maps.google.com/?cid=0x0:0xf70acf74f6fb0364,
komplek housing,Perhimpunan Pengembang Perumahan,Rayyan,"XFFQ+F3V, Beruta, Kec. Bulik, Kabupaten Lamandau, Kalimantan Tengah 74162","Beruta, Kec. Bulik, Kabupaten Lamandau",KALIMANTAN TENGAH,74162.0,Indonesia,,,,-2.0259189,111.4877839,https://maps.google.com/?cid=0x0:0x8229872ff1094d6a,
komplek housing,Penginapan,Pastori GKE Jemaat Nanga Palikodan,"2G77+68H, Nanga Palikodan, Kec. Bulik Tim., Kabupaten Lamandau, Kalimantan Tengah 74162","Nanga Palikodan, Kec. Bulik Tim., Kabupaten Lamandau",KALIMANTAN TENGAH,74162.0,Indonesia,,,,-1.9869445,111.5133592,https://maps.google.com/?cid=0x0:0x9693969783c0fee8,
komplek housing,Komplek perumahan,Mess Rian,"WF7P+Q9H, Sungai Mentawa, Kec. Bulik, Kabupaten Lamandau, Kalimantan Tengah 74162","Sungai Mentawa, Kec. Bulik, Kabupaten Lamandau",KALIMANTAN TENGAH,74162.0,Indonesia,,,,-2.0855741,111.4859899,https://maps.google.com/?cid=0x0:0xa0628a4d67fad494,
komplek housing,Pusat Perbelanjaan,Desa Merambang,"Jalan Semangat No.RT.02, Merambang, Kec. Bulik Tim., Kabupaten Lamandau, Kalimantan Tengah 74162","Merambang, Kec. Bulik Tim., Kabupaten Lamandau",KALIMANTAN TENGAH,74162.0,Indonesia,,,,-1.8215617,111.5826028,https://maps.google.com/?cid=0x0:0x54a4d2b8e5054594,
komplek housing,komplek housing,Kec. Sematu Jaya,"Kabupaten Lamandau, Kalimantan Tengah","Kabupaten Lamandau, Kalimantan Tengah",KALIMANTAN TENGAH,,Indonesia,,,,-2.2356757,111.5156988,https://maps.google.com/?cid=0x0:0xa84b471e5053bba1,
komplek housing,Komplek perumahan,Perumahan Gang Mihing,"QHCP+3P, Wonorejo, Kec. Sematu Jaya, Kabupaten Lamandau, Kalimantan Tengah","Kabupaten Lamandau, Kalimantan Tengah",KALIMANTAN TENGAH,,Indonesia,,,,-2.229867,111.586853,https://maps.google.com/?cid=0x0:0x5c8051fa12a296,
komplek housing,Komplek perumahan,Rumah Kaesi Pramudita Nirmala,"QGQJ+V84, Bina Bhakti, Kec. Sematu Jaya, Kabupaten Lamandau, Kalimantan Tengah 74161","Bina Bhakti, Kec. Sematu Jaya, Kabupaten Lamandau",KALIMANTAN TENGAH,74161.0,Indonesia,,,,-2.2103555,111.5308381,https://maps.google.com/?cid=0x0:0xb7b2cf44b9a05985,
komplek housing,Komplek perumahan,Rumah Kasni Rahayu,"QH4F+P26, Wonorejo, Kec. Sematu Jaya, Kabupaten Lamandau, Kalimantan Tengah 74161","Wonorejo, Kec. Sematu Jaya, Kabupaten Lamandau",KALIMANTAN TENGAH,74161.0,Indonesia,,,,-2.2432125,111.5725156,https://maps.google.com/?cid=0x0:0xd52289dcebb09866,
komplek housing,Komplek perumahan,Rumah mbah Min,"PHX9+587, Wonorejo, Kec. Sematu Jaya, Kabupaten Lamandau, Kalimantan Tengah","Kabupaten Lamandau, Kalimantan Tengah",KALIMANTAN TENGAH,,Indonesia,82256231172.0,,,-2.2520969,111.5682978,https://maps.google.com/?cid=0x0:0x7d995dca51276b06,
komplek housing,Komplek perumahan,RUMAH SUGENG,"PHXC+XX6, Wonorejo, Kec. Sematu Jaya, Kabupaten Lamandau, Kalimantan Tengah","Kabupaten Lamandau, Kalimantan Tengah",KALIMANTAN TENGAH,,Indonesia,,,,-2.251067,111.572363,https://maps.google.com/?cid=0x0:0xbf9e0c2e939ea331,
komplek housing,Pembangunan Perumahan,Erfani@ja,"RH22+Q9, Tri Tunggal, Kec. Sematu Jaya, Kabupaten Lamandau, Kalimantan Tengah","Kabupaten Lamandau, Kalimantan Tengah",KALIMANTAN TENGAH,,Indonesia,,,,-2.1981911,111.5510344,https://maps.google.com/?cid=0x0:0xcc1d6bb7c203abf2,
komplek housing,Komplek perumahan,Rumah kotrek,"Purworejo sp 1, Purworejo, Kec. Sematu Jaya, Kabupaten Lamandau, Kalimantan Tengah 74161","Purworejo, Kec. Sematu Jaya, Kabupaten Lamandau",KALIMANTAN TENGAH,74161.0,Indonesia,,,,-2.2360155,111.5175841,https://maps.google.com/?cid=0x0:0x57adc5aa9a901911,
komplek housing,Pembangunan Perumahan,PRATAMA,"PG4W+QR3, Mekar Mulya, Kec. Sematu Jaya, Kabupaten Lamandau, Kalimantan Tengah","Kabupaten Lamandau, Kalimantan Tengah",KALIMANTAN TENGAH,,Indonesia,,,,-2.292356,111.546555,https://maps.google.com/?cid=0x0:0xda98ec32bb7e5475,
komplek housing,Perhimpunan Pengembang Perumahan,WAKA,"PHX9+PQ6, RT.13/RW.03, Wonorejo, Kec. Sematu Jaya, Kabupaten Lamandau, Kalimantan Tengah 74161","RT.13/RW.03, Wonorejo, Kec. Sematu Jaya, Kabupaten Lamandau",KALIMANTAN TENGAH,74161.0,Indonesia,,,,-2.2507068,111.5693952,https://maps.google.com/?cid=0x0:0xd0b4f980861fd00,
komplek housing,Komplek perumahan,Damar Mulya Abadi,"PH75+R9, Mekar Mulya, Kec. Sematu Jaya, Kabupaten Lamandau, Kalimantan Tengah 74161","Mekar Mulya, Kec. Sematu Jaya, Kabupaten Lamandau",KALIMANTAN TENGAH,74161.0,Indonesia,,,,-2.2854049,111.5584844,https://maps.google.com/?cid=0x0:0xe114cef4f78da8d7,
komplek housing,Komplek perumahan,Rumah Anugerah,"QGWQ+WMC, Belakang masjid Nurul hikmah, Bina Bhakti, Kec. Sematu Jaya, Kabupaten Lamandau, Kalimantan Tengah 74161","Belakang masjid Nurul hikmah, Bina Bhakti, Kec. Sematu Jaya, Kabupaten Lamandau",KALIMANTAN TENGAH,74161.0,Indonesia,,,,-2.2026938,111.5391509,https://maps.google.com/?cid=0x0:0xc841132c709e7947,
komplek housing,Pembangunan Perumahan,Hermawan,"RH22+XW, Tri Tunggal, Kec. Sematu Jaya, Kabupaten Lamandau, Kalimantan Tengah","Kabupaten Lamandau, Kalimantan Tengah",KALIMANTAN TENGAH,,Indonesia,,,,-2.197085,111.553877,https://maps.google.com/?cid=0x0:0x8ef815cfd257ff4b,
komplek housing,komplek housing,Kusuma ning aty,"PHV6+QQ4, Wonorejo, Kec. Sematu Jaya, Kabupaten Lamandau, Kalimantan Tengah","Kabupaten Lamandau, Kalimantan Tengah",KALIMANTAN TENGAH,,Indonesia,,,,-2.2556003,111.5619503,https://maps.google.com/?cid=0x0:0xd532e667baf69e9c,
komplek housing,Komplek perumahan,Tempat nongkrong,"PG4W+M9W, Mekar Mulya, Kec. Sematu Jaya, Kabupaten Lamandau, Kalimantan Tengah","Kabupaten Lamandau, Kalimantan Tengah",KALIMANTAN TENGAH,,Indonesia,,,,-2.2932716,111.5459641,https://maps.google.com/?cid=0x0:0x27afb7a258e087ad,
komplek housing,Komplek perumahan,Rumah hajat smatu,"RH7M+52Q Ds Tritunggal jaya, Tri Tunggal, Kec. Sematu Jaya, Kabupaten Lamandau, Kalimantan Tengah","Kabupaten Lamandau, Kalimantan Tengah",KALIMANTAN TENGAH,,Indonesia,,,,-2.1870331,111.5826028,https://maps.google.com/?cid=0x0:0xf9f8332d5707d6ba,
komplek housing,Komplek perumahan,Alip w,"RH36+HV, Tri Tunggal, Kec. Sematu Jaya, Kabupaten Lamandau, Kalimantan Tengah 74161","Tri Tunggal, Kec. Sematu Jaya, Kabupaten Lamandau",KALIMANTAN TENGAH,74161.0,Indonesia,,,,-2.1955718,111.5611398,https://maps.google.com/?cid=0x0:0x7f5732250495f0d1,
komplek housing,Agen Properti,JNE SEMATU,"PH83+R82, Mekar Mulya, Kec. Sematu Jaya, Kabupaten Lamandau, Kalimantan Tengah","Kabupaten Lamandau, Kalimantan Tengah",KALIMANTAN TENGAH,,Indonesia,81255626496.0,,,-2.2829876,111.553255,https://maps.google.com/?cid=0x0:0xea1d5ff1d7aeb4b9,
komplek housing,komplek housing,Rumah H. Manto,"QGRQ+7XM, Bina Bhakti, Kec. Sematu Jaya, Kabupaten Lamandau, Kalimantan Tengah 74161","Bina Bhakti, Kec. Sematu Jaya, Kabupaten Lamandau",KALIMANTAN TENGAH,74161.0,Indonesia,,,,-2.208337,111.539518,https://maps.google.com/?cid=0x0:0x61048f893c415730,
komplek housing,Komplek perumahan,RUMAH JUNA,"QGG6+JQ7, Jl. Lintas Kalimantan, Purworejo, Kec. Sematu Jaya, Kabupaten Lamandau, Kalimantan Tengah 74161","Jl. Lintas Kalimantan, Purworejo, Kec. Sematu Jaya, Kabupaten Lamandau",KALIMANTAN TENGAH,74161.0,Indonesia,,,,-2.2234934,111.5119193,https://maps.google.com/?cid=0x0:0xee03015150f99bed,
komplek housing,Toko Mebel,"purworejo, sematu jaya","Unnamed Road, Purworejo, Kec. Sematu Jaya, Kabupaten Lamandau, Kalimantan Tengah 74161","Purworejo, Kec. Sematu Jaya, Kabupaten Lamandau",KALIMANTAN TENGAH,74161.0,Indonesia,85822505916.0,,,-2.2478599,111.5090508,https://maps.google.com/?cid=0x0:0xf0854b85a9f265ac,
komplek housing,Komplek perumahan,Suwandi,"RC5M+C44, Jl. Lintas Kalimantan, Nanga Bulik, Kec. Bulik, Kabupaten Lamandau, Kalimantan Tengah 74162","Jl. Lintas Kalimantan, Nanga Bulik, Kec. Bulik, Kabupaten Lamandau",KALIMANTAN TENGAH,74162.0,Indonesia,,,,-2.1916067,111.4327117,https://maps.google.com/?cid=0x0:0xd9d6dc28f0d581c4,
komplek housing,Sekolah menengah,SMA Negeri 1 Sematu Jaya,"Jalan Lintas Kalimantan Desa Purwareja RT. 09, Purworejo, Kec. Sematu Jaya, Kabupaten Lamandau, Kalimantan Tengah 74161","Purworejo, Kec. Sematu Jaya, Kabupaten Lamandau",KALIMANTAN TENGAH,74161.0,Indonesia,85245459996.0,,,-2.2252246,111.5153383,https://maps.google.com/?cid=0x0:0x1246a130ec700ed3,
komplek housing,Komplek perumahan,Rumah Oktavianus r,"WF8Q+4F8, Sungai Mentawa, Kec. Bulik, Kabupaten Lamandau, Kalimantan Tengah 74162","Sungai Mentawa, Kec. Bulik, Kabupaten Lamandau",KALIMANTAN TENGAH,74162.0,Indonesia,,,,-2.0847039,111.4883683,https://maps.google.com/?cid=0x0:0xf70acf74f6fb0364,
komplek housing,Masjid,Heri namun rumah jika Masjid Nurul,"WG7X+QXR, Kperigi raya ec, Sungai Mentawa, Kec. Bulik, Kabupaten Lamandau, Kalimantan Tengah 74162","Kperigi raya ec, Sungai Mentawa, Kec. Bulik, Kabupaten Lamandau",KALIMANTAN TENGAH,74162.0,Indonesia,,,,-2.0855125,111.5498906,https://maps.google.com/?cid=0x0:0x1567658dca62f230,
komplek housing,Komplek perumahan,rumah teguh suwandono,"RC4P+FVV, Jl. Garuda III, Nanga Bulik, Kec. Bulik, Kabupaten Lamandau, Kalimantan Tengah 74161","Jl. Garuda III, Nanga Bulik, Kec. Bulik, Kabupaten Lamandau",KALIMANTAN TENGAH,74161.0,Indonesia,,,,-2.1937644,111.4371702,https://maps.google.com/?cid=0x0:0x555f035ee1ccb58c,
perumahan,perumahan,Kalimantan Tengah 74664,"Kabupaten Lamandau, Kalimantan Tengah","Kabupaten Lamandau, Kalimantan Tengah",KALIMANTAN TENGAH,,Indonesia,,,,-1.6722405,111.1414226,https://maps.google.com/?cid=0x0:0x2e393b90c2443400,
perumahan,Komplek perumahan,Rumah Nando,"C6X2+5V, Karang Mas, Kec. Batang Kawa, Kabupaten Lamandau, Kalimantan Tengah","Kabupaten Lamandau, Kalimantan Tengah",KALIMANTAN TENGAH,,Indonesia,,,,-1.55209,111.202197,https://maps.google.com/?cid=0x0:0xf10f1b2f274f6b5e,
perumahan,Perpustakaan,Rumah Dinas Kepala SMPN SATAP 3 Batang Kawa,"F5V4+VPM, Kina, Kec. Batang Kawa, Kabupaten Lamandau, Kalimantan Tengah 74664","Kina, Kec. Batang Kawa, Kabupaten Lamandau",KALIMANTAN TENGAH,74664.0,Indonesia,,,,-1.5051412,111.1567199,https://maps.google.com/?cid=0x0:0x981c5a6a321625be,
perumahan,Komplek perumahan,Rumah Pak Bambang,"65H3+489, Batu Tambun, Kec. Batang Kawa, Kabupaten Lamandau, Kalimantan Tengah 74664","Batu Tambun, Kec. Batang Kawa, Kabupaten Lamandau",KALIMANTAN TENGAH,74664.0,Indonesia,,,,-1.7722032,111.1533456,https://maps.google.com/?cid=0x0:0xcbd5af610f6a229f,
perumahan,Komplek perumahan,Pondok Hujan,"C5HP+W8, Karang Mas, Kec. Batang Kawa, Kabupaten Lamandau, Kalimantan Tengah","Kabupaten Lamandau, Kalimantan Tengah",KALIMANTAN TENGAH,,Indonesia,,,,-1.5702368,111.1858188,https://maps.google.com/?cid=0x0:0xed02257ca7b3e62a,
perumahan,Komplek perumahan,Mengkalang,"959F+3R, Mengkalang, Kec. Batang Kawa, Kabupaten Lamandau, Kalimantan Tengah","Kabupaten Lamandau, Kalimantan Tengah",KALIMANTAN TENGAH,,Indonesia,,,,-1.6322577,111.1745442,https://maps.google.com/?cid=0x0:0x12916925b7cc4d4a,
perumahan,Komplek perumahan,Perumahan Karyawan Afdeling Alfa Bravo - PT. TAN,"34X8+2M, Kawa, Kec. Lamandau, Kabupaten Lamandau, Kalimantan Tengah","Kabupaten Lamandau, Kalimantan Tengah",KALIMANTAN TENGAH,,Indonesia,,,,-1.9024892,111.1166919,https://maps.google.com/?cid=0x0:0x8587d1f4f7d57fab,
perumahan,Tujuan Wisata,Desa Kubung,"9W8V+PRG, Kubung, Kec. Delang, Kabupaten Lamandau, Kalimantan Tengah","Kabupaten Lamandau, Kalimantan Tengah",KALIMANTAN TENGAH,,Indonesia,,,,-1.6331941,110.9445686,https://maps.google.com/?cid=0x0:0x6e51245708a9caaf,
perumahan,Kantor Pemerintah,Rumah Adat Desa Kina,"F5W4+87M, Kina, Kec. Batang Kawa, Kabupaten Lamandau, Kalimantan Tengah 74664","Kina, Kec. Batang Kawa, Kabupaten Lamandau",KALIMANTAN TENGAH,74664.0,Indonesia,,,,-1.5039182,111.1550998,https://maps.google.com/?cid=0x0:0xb07900d6e5bf5df7,
perumahan,Pembangunan Perumahan,"Desa Kudangan, Kec. Delang, Kab. Lamandau","92XP+X4H, Kudangan, Kec. Delang, Kabupaten Lamandau, Kalimantan Tengah 74664","Kudangan, Kec. Delang, Kabupaten Lamandau",KALIMANTAN TENGAH,74664.0,Indonesia,,,,-1.5994526,111.0360423,https://maps.google.com/?cid=0x0:0x3b71d21a135a268e,
perumahan,Rumah Kayu,Rumah Assyfa Aura Zaskia,"64JF+GWP, Batu Tambun, Kec. Batang Kawa, Kabupaten Lamandau, Kalimantan Tengah 74664","Batu Tambun, Kec. Batang Kawa, Kabupaten Lamandau",KALIMANTAN TENGAH,74664.0,Indonesia,,,,-1.768664,111.1248231,https://maps.google.com/?cid=0x0:0xfc9e83527c1f72a2,
perumahan,Pembangunan Perumahan,Perumahan Griya Bukit Hibul Permai,"RCCH+MRW, Nanga Bulik, Kec. Bulik, Kabupaten Lamandau, Kalimantan Tengah 74161","Nanga Bulik, Kec. Bulik, Kabupaten Lamandau",KALIMANTAN TENGAH,74161.0,Indonesia,,,,-2.1782613,111.4295748,https://maps.google.com/?cid=0x0:0xe351b1a3b06c897e,
perumahan,Perhimpunan Pengembang Perumahan,Rumah efsy,"834X+MQH, Kudangan - Penopa, Sepoyu, Kec. Delang, Kabupaten Lamandau, Kalimantan Tengah 74664","Kudangan - Penopa, Sepoyu, Kec. Delang, Kabupaten Lamandau",KALIMANTAN TENGAH,74664.0,Indonesia,,,,-1.6933032,111.0994762,https://maps.google.com/?cid=0x0:0x84254b60debc6ab1,
perumahan,Kantor Pemerintah,Pos Bersama TNI/POLRI Desa Kina,"F5W3+3G7, Kina, Kec. Batang Kawa, Kabupaten Lamandau, Kalimantan Tengah 74664","Kina, Kec. Batang Kawa, Kabupaten Lamandau",KALIMANTAN TENGAH,74664.0,Indonesia,,,,-1.5046154,111.1539653,https://maps.google.com/?cid=0x0:0x3d85b33a489ba732,
perumahan,perumahan,Kec. Batang Kawa,"Kabupaten Lamandau, Kalimantan Tengah","Kabupaten Lamandau, Kalimantan Tengah",KALIMANTAN TENGAH,,Indonesia,,,,-1.6494816,111.2649174,https://maps.google.com/?cid=0x0:0xe8b431fe7a826c3,
perumahan,Pembangunan Perumahan,Tapin bini,"558Q+6CR, Tapin Bini, Kec. Lamandau, Kabupaten Lamandau, Kalimantan Tengah","Kabupaten Lamandau, Kalimantan Tengah",KALIMANTAN TENGAH,,Indonesia,,,,-1.8343893,111.1885034,https://maps.google.com/?cid=0x0:0xd60a76e4adee11ed,
perumahan,perumahan,Rumah glarisa ameira,"Rt 03, Tapin Bini","Kabupaten Lamandau, Kalimantan Tengah",KALIMANTAN TENGAH,,Indonesia,,,,-1.8711869,111.2606554,https://maps.google.com/?cid=0x0:0x5dd8278b962c31ac,
perumahan,Kantor Pemerintah,Desa sekombulan,"CW6H+G5, Kudangan, Kec. Delang, Kabupaten Lamandau, Kalimantan Tengah","Kabupaten Lamandau, Kalimantan Tengah",KALIMANTAN TENGAH,,Indonesia,,,,-1.5886875,110.9279375,https://maps.google.com/?cid=0x0:0x83762c3554b36d61,
perumahan,Farmstay,Rumah dukuh kawai,"9355+P5, Nyalang, Kec. Delang, Kabupaten Lamandau, Kalimantan Tengah","Kabupaten Lamandau, Kalimantan Tengah",KALIMANTAN TENGAH,,Indonesia,,,,-1.640689,111.0579375,https://maps.google.com/?cid=0x0:0xa398b2973448bcdc,
perumahan,Pembangunan Perumahan,PERUMAHAN ALUN ALUN RESIDENCE,"RCJH+R6, Bumi Agung, Kec. Bulik, Kabupaten Lamandau, Kalimantan Tengah","Kabupaten Lamandau, Kalimantan Tengah",KALIMANTAN TENGAH,,Indonesia,,,,-2.1679848,111.4280672,https://maps.google.com/?cid=0x0:0x479c6b1b00a0549b,
perumahan,perumahan,Kalimantan Tengah 74663,"Kabupaten Lamandau, Kalimantan Tengah","Kabupaten Lamandau, Kalimantan Tengah",KALIMANTAN TENGAH,,Indonesia,,,,-1.9269166,111.1891151,https://maps.google.com/?cid=0x0:0xddd786c27266b53a,
perumahan,Komplek perumahan,rumah mrtn,"4FR9+V5X, Tangga Batu, Kec. Belantikan Raya, Kabupaten Lamandau, Kalimantan Tengah 74162","Tangga Batu, Kec. Belantikan Raya, Kabupaten Lamandau",KALIMANTAN TENGAH,74162.0,Indonesia,,,,-1.8581178,111.4688644,https://maps.google.com/?cid=0x0:0xc69faa2621edc0b2,
perumahan,Kantor Perusahaan,Rumah Lois FLTI Estate,"4FR9+J8W, Unnamed Road, Tangga Batu, Belantikan Raya, Lamandau Regency, Central Kalimantan 74663","Unnamed Road, Tangga Batu, Belantikan Raya, Lamandau Regency",KALIMANTAN TENGAH,74663.0,Indonesia,,,,-1.858391,111.4683197,https://maps.google.com/?cid=0x0:0xcd526bc9980c61c4,
perumahan,Komplek perumahan,Perumahan Karyawan Afdeling Alfa Bravo - PT. TAN,"34X8+2M, Kawa, Kec. Lamandau, Kabupaten Lamandau, Kalimantan Tengah","Kabupaten Lamandau, Kalimantan Tengah",KALIMANTAN TENGAH,,Indonesia,,,,-1.9024892,111.1166919,https://maps.google.com/?cid=0x0:0x8587d1f4f7d57fab,
perumahan,Kantor Perusahaan,PT Pilar Wanapersada - Guest House,"28F4+CPR, Unnamed Road, Bakonsu, Lamandau, Lamandau Regency, Central Kalimantan 74663","Unnamed Road, Bakonsu, Lamandau, Lamandau Regency",KALIMANTAN TENGAH,74663.0,Indonesia,,,,-1.9763928,111.3067762,https://maps.google.com/?cid=0x0:0x38302a745b8c5dff,
perumahan,Komplek perumahan,Perkumpulan rumah bujang,"4FR8+H8, Tangga Batu, Kec. Belantikan Raya, Kabupaten Lamandau, Kalimantan Tengah","Kabupaten Lamandau, Kalimantan Tengah",KALIMANTAN TENGAH,,Indonesia,,,,-1.858623,111.465796,https://maps.google.com/?cid=0x0:0x12940209404ce36c,
perumahan,Komplek perumahan,Perumahan KBB,"28H4+HGQ, Suja, Kec. Lamandau, Kabupaten Lamandau, Kalimantan Tengah","Kabupaten Lamandau, Kalimantan Tengah",KALIMANTAN TENGAH,,Indonesia,,,,-1.9710468,111.3063721,https://maps.google.com/?cid=0x0:0x1dd92317c3dfe4ac,
perumahan,Kantor Pemerintah,Gerbang Desa Sungai Buluh,"3CF6+7WW, Sungai Buluh, Kec. Belantikan Raya, Kabupaten Lamandau, Kalimantan Tengah 74162","Sungai Buluh, Kec. Belantikan Raya, Kabupaten Lamandau",KALIMANTAN TENGAH,74162.0,Indonesia,,,,-1.9267677,111.4123247,https://maps.google.com/?cid=0x0:0x1dbda0b1c6324cd,
perumahan,Komplek perumahan,Perumahan PKS 12,"X9PQ+465, Jalan bakonsu, Tamiang, Kec. Bulik, Kabupaten Lamandau, Kalimantan Tengah 74162","Jalan bakonsu, Tamiang, Kec. Bulik, Kabupaten Lamandau",KALIMANTAN TENGAH,74162.0,Indonesia,,,,-2.0147317,111.388105,https://maps.google.com/?cid=0x0:0x1877b8656ef2644,
perumahan,Komplek perumahan,Dukuh Mayam,"59V2+8H, Dukuh Manyam, Bayat, Kec. Belantikan Raya, Kabupaten Lamandau, Kalimantan Tengah","Kabupaten Lamandau, Kalimantan Tengah",KALIMANTAN TENGAH,,Indonesia,,,,-1.8066875,111.3514375,https://maps.google.com/?cid=0x0:0xbc1f4f4b1d38aee8,
perumahan,Kantor Perusahaan,Emplasment Afdeling Fanta - PT. TAN,"4543+8V, Karang Taba, Kec. Lamandau, Kabupaten Lamandau, Kalimantan Tengah","Kabupaten Lamandau, Kalimantan Tengah",KALIMANTAN TENGAH,,Indonesia,85238312284.0,,,-1.8941917,111.1547133,https://maps.google.com/?cid=0x0:0x65cf3784d87b03e2,
perumahan,Jawa,Simpang tempajak,"X5GW+XHW, Jl. Lintas Kalimantan, Panopa, Kec. Lamandau, Kabupaten Lamandau, Kalimantan Tengah 74173","Jl. Lintas Kalimantan, Panopa, Kec. Lamandau, Kabupaten Lamandau",KALIMANTAN TENGAH,74173.0,Indonesia,,,,-2.0225012,111.1964461,https://maps.google.com/?cid=0x0:0x54857fa536ca0c9b,
perumahan,Pembangunan Perumahan,BATU SELIPI,"69Q4+PCM, Bayat, Kec. Belantikan Raya, Kabupaten Lamandau, Kalimantan Tengah","Kabupaten Lamandau, Kalimantan Tengah",KALIMANTAN TENGAH,,Indonesia,,,,-1.7606703,111.356045,https://maps.google.com/?cid=0x0:0x33953309a49f51fd,
perumahan,Pembangunan Perumahan,Payong,"4FV8+9C3, Tangga Batu, Kec. Belantikan Raya, Kabupaten Lamandau, Kalimantan Tengah","Kabupaten Lamandau, Kalimantan Tengah",KALIMANTAN TENGAH,,Indonesia,,,,-1.8566183,111.4660621,https://maps.google.com/?cid=0x0:0xc93fca792f425c66,
perumahan,Komplek perumahan,BAKONSU,"399M+FPV, Bakonsu, Kec. Lamandau, Kabupaten Lamandau, Kalimantan Tengah 74162","Bakonsu, Kec. Lamandau, Kabupaten Lamandau",KALIMANTAN TENGAH,74162.0,Indonesia,,,,-1.9312679,111.3842887,https://maps.google.com/?cid=0x0:0x54f9a45e7aa2449e,
perumahan,Komplek perumahan,DALEMEKULA,"35FQ+6JQ, Tapin Bini, Kec. Lamandau, Kabupaten Lamandau, Kalimantan Tengah","Kabupaten Lamandau, Kalimantan Tengah",KALIMANTAN TENGAH,,Indonesia,,,,-1.9269166,111.1891151,https://maps.google.com/?cid=0x0:0x780dd4f45a9fbd25,
perumahan,Pembangunan Perumahan,LA AUDIO,"V5JW+VQX, Unnamed Road, Semantun, Kec. Permata Kecubung, Kabupaten Lamandau, Kalimantan Tengah 74173","Unnamed Road, Semantun, Kec. Permata Kecubung, Kabupaten Lamandau",KALIMANTAN TENGAH,74173.0,Indonesia,81949914420.0,,,-2.1177749,111.1969996,https://maps.google.com/?cid=0x0:0x16335b5ef86d0cc,
perumahan,Komplek perumahan,Yanto,"5F2M+6Q, Tangga Batu, Kec. Belantikan Raya, Kabupaten Lamandau, Kalimantan Tengah 74162","Tangga Batu, Kec. Belantikan Raya, Kabupaten Lamandau",KALIMANTAN TENGAH,74162.0,Indonesia,,,,-1.8494933,111.4843746,https://maps.google.com/?cid=0x0:0xa543769ebc51169c,
perumahan,Kantor Perusahaan,Perumahan Staff BHMS,"393R+V53, Bakonsu, Kec. Lamandau, Kabupaten Lamandau, Kalimantan Tengah","Kabupaten Lamandau, Kalimantan Tengah",KALIMANTAN TENGAH,,Indonesia,,,,-1.9453676,111.3904301,https://maps.google.com/?cid=0x0:0x6e66b4125f8f64a4,
perumahan,Komplek perumahan,Alvin,"37H9+Q4, Suja, Kec. Lamandau, Kabupaten Lamandau, Kalimantan Tengah 74663","Suja, Kec. Lamandau, Kabupaten Lamandau",KALIMANTAN TENGAH,74663.0,Indonesia,,,,-1.9205897,111.2677583,https://maps.google.com/?cid=0x0:0x9f97452b5e030f82,
perumahan,perumahan,Rumah geinson,"48C8+5R5, Tapin Bini, Kec. Lamandau, Kabupaten Lamandau, Kalimantan Tengah 74663","Tapin Bini, Kec. Lamandau, Kabupaten Lamandau",KALIMANTAN TENGAH,74663.0,Indonesia,,,,-1.8795859,111.3171314,https://maps.google.com/?cid=0x0:0x333abbe5c3966a66,
perumahan,perumahan,Kalimantan Tengah 74162,"Kabupaten Lamandau, Kalimantan Tengah","Kabupaten Lamandau, Kalimantan Tengah",KALIMANTAN TENGAH,,Indonesia,,,,-1.7404903,111.5229817,https://maps.google.com/?cid=0x0:0xcbde8a77875b152b,
perumahan,Pembangunan Perumahan,Perumahan BTN Griya Bulik Indah,"RC3P+RVF, Nanga Bulik, Kec. Bulik, Kabupaten Lamandau, Kalimantan Tengah 74161","Nanga Bulik, Kec. Bulik, Kabupaten Lamandau",KALIMANTAN TENGAH,74161.0,Indonesia,,,,-2.1954293,111.4371854,https://maps.google.com/?cid=0x0:0x121150928cb61281,
perumahan,Komplek perumahan,Perumahan PKS 12,"X9PQ+465, Jalan bakonsu, Tamiang, Kec. Bulik, Kabupaten Lamandau, Kalimantan Tengah 74162","Jalan bakonsu, Tamiang, Kec. Bulik, Kabupaten Lamandau",KALIMANTAN TENGAH,74162.0,Indonesia,,,,-2.0147317,111.388105,https://maps.google.com/?cid=0x0:0x1877b8656ef2644,
perumahan,Komplek perumahan,Perumahan KBB,"28H4+HGQ, Suja, Kec. Lamandau, Kabupaten Lamandau, Kalimantan Tengah","Kabupaten Lamandau, Kalimantan Tengah",KALIMANTAN TENGAH,,Indonesia,,,,-1.9710468,111.3063721,https://maps.google.com/?cid=0x0:0x1dd92317c3dfe4ac,
perumahan,Pembangunan Perumahan,PERUMAHAN ALUN ALUN RESIDENCE,"RCJH+R6, Bumi Agung, Kec. Bulik, Kabupaten Lamandau, Kalimantan Tengah","Kabupaten Lamandau, Kalimantan Tengah",KALIMANTAN TENGAH,,Indonesia,,,,-2.1679848,111.4280672,https://maps.google.com/?cid=0x0:0x479c6b1b00a0549b,
perumahan,Komplek perumahan,Rumah pak suki,"3GV5+7XP, Sukamaju, Kec. Bulik Tim., Kabupaten Lamandau, Kalimantan Tengah 74162","Sukamaju, Kec. Bulik Tim., Kabupaten Lamandau",KALIMANTAN TENGAH,74162.0,Indonesia,82251527515.0,,,-1.9067971,111.5099514,https://maps.google.com/?cid=0x0:0x73f9a70f7a4d79be,
perumahan,perumahan,Rumah plus usaha telur puyuh shobirin,"VCM8+H73, Arga Mulya, Kec. Bulik, Kabupaten Lamandau, Kalimantan Tengah","Kabupaten Lamandau, Kalimantan Tengah",KALIMANTAN TENGAH,,Indonesia,82150903287.0,,,-2.1161065,111.4156647,https://maps.google.com/?cid=0x0:0xe9691fa41b9bd57f,
perumahan,Komplek perumahan,Habibi,"RFC3+MHQ, Jl. Nanga Bulik, Nanga Bulik, Kec. Bulik, Kabupaten Lamandau, Kalimantan Tengah 74161","Jl. Nanga Bulik, Nanga Bulik, Kec. Bulik, Kabupaten Lamandau",KALIMANTAN TENGAH,74161.0,Indonesia,,,,-2.1782989,111.453984,https://maps.google.com/?cid=0x0:0x7c7fcead4183bcb1,
perumahan,Pembangunan Perumahan,"Afdeling Bravo, SCE","2GMF+GWW, Nanga Palikodan, Kec. Bulik Tim., Kabupaten Lamandau, Kalimantan Tengah 74162","Nanga Palikodan, Kec. Bulik Tim., Kabupaten Lamandau",KALIMANTAN TENGAH,74162.0,Indonesia,,,,-1.96614,111.52483,https://maps.google.com/?cid=0x0:0x9a7c2834a898f1a0,
perumahan,Perhimpunan Pengembang Perumahan,Rumah Pendeta Ardianto,"RCCX+H45, Jl. Melati III, Nanga Bulik, Kec. Bulik, Kabupaten Lamandau, Kalimantan Tengah 74161","Jl. Melati III, Nanga Bulik, Kec. Bulik, Kabupaten Lamandau",KALIMANTAN TENGAH,74161.0,Indonesia,,,,-2.1786054,111.4478519,https://maps.google.com/?cid=0x0:0xa95da3f214bc318a,
perumahan,Komplek perumahan,Rumah al_faiz,"3GR4+WWJ, Sukamaju, Kec. Bulik Tim., Kabupaten Lamandau, Kalimantan Tengah 74162","Sukamaju, Kec. Bulik Tim., Kabupaten Lamandau",KALIMANTAN TENGAH,74162.0,Indonesia,,,,-1.907675,111.5072682,https://maps.google.com/?cid=0x0:0xfaca0d5736321595,
perumahan,Komplek perumahan,Rumah biong,"V98F+WMF, Bukit Indah, Kec. Bulik, Kabupaten Lamandau, Kalimantan Tengah","Kabupaten Lamandau, Kalimantan Tengah",KALIMANTAN TENGAH,,Indonesia,,,,-2.132696,111.3741783,https://maps.google.com/?cid=0x0:0xc5e77a1d2866530d,
perumahan,Komplek perumahan,Perum Avdeling charlie PT.NAL,"WFQF+CVQ, Beruta, Kec. Bulik, Kabupaten Lamandau, Kalimantan Tengah 74612","Beruta, Kec. Bulik, Kabupaten Lamandau",KALIMANTAN TENGAH,74612.0,Indonesia,85320593255.0,,,-2.0614124,111.474737,https://maps.google.com/?cid=0x0:0xee9b9d9ccd978dbf,
perumahan,Kantor Perusahaan,Perumahan Staff BHMS,"393R+V53, Bakonsu, Kec. Lamandau, Kabupaten Lamandau, Kalimantan Tengah","Kabupaten Lamandau, Kalimantan Tengah",KALIMANTAN TENGAH,,Indonesia,,,,-1.9453676,111.3904301,https://maps.google.com/?cid=0x0:0x6e66b4125f8f64a4,
perumahan,Komplek perumahan,Bukit Samaliba Residence,"Jalan Empat Puluh Meter RT 12, Nanga Bulik, Bulik, Lamandau Regency, Central Kalimantan 74161","Nanga Bulik, Bulik, Lamandau Regency",KALIMANTAN TENGAH,74161.0,Indonesia,85821687481.0,,,-2.1745645,111.4297661,https://maps.google.com/?cid=0x0:0x5ca913767e318249,
perumahan,Komplek perumahan,Liku,"V8W3+66, Nanga Bulik, Kec. Bulik, Kabupaten Lamandau, Kalimantan Tengah 74173","Nanga Bulik, Kec. Bulik, Kabupaten Lamandau",KALIMANTAN TENGAH,74173.0,Indonesia,,,,-2.104407,111.3030487,https://maps.google.com/?cid=0x0:0x47fc1a0319ae14d2,
perumahan,Komplek perumahan,Walet merah BUDI pengkolan,"4FGP+X7M, Bukit Jaya, Kec. Bulik Tim., Kabupaten Lamandau, Kalimantan Tengah 74162","Bukit Jaya, Kec. Bulik Tim., Kabupaten Lamandau",KALIMANTAN TENGAH,74162.0,Indonesia,,,,-1.8725331,111.4856848,https://maps.google.com/?cid=0x0:0x54bad315217b67a2,
perumahan,Komplek perumahan,Rumah Adhe,"RC9R+F6Q, Jl. W.R. Supratman, Nanga Bulik, Kec. Bulik, Kabupaten Lamandau, Kalimantan Tengah 74161","Jl. W.R. Supratman, Nanga Bulik, Kec. Bulik, Kabupaten Lamandau",KALIMANTAN TENGAH,74161.0,Indonesia,,,,-2.1819936,111.4410092,https://maps.google.com/?cid=0x0:0x9ca68a692e60a816,
perumahan,Perumahan,Rumah Azriel,"RCGH+4X8, Bumi Agung, Kec. Bulik, Kabupaten Lamandau, Kalimantan Tengah","Kabupaten Lamandau, Kalimantan Tengah",KALIMANTAN TENGAH,,Indonesia,,,,-2.1747129,111.4299676,https://maps.google.com/?cid=0x0:0xdb36aba63e8cf3e8,
perumahan,Komplek perumahan,BAKONSU,"399M+FPV, Bakonsu, Kec. Lamandau, Kabupaten Lamandau, Kalimantan Tengah 74162","Bakonsu, Kec. Lamandau, Kabupaten Lamandau",KALIMANTAN TENGAH,74162.0,Indonesia,,,,-1.9312679,111.3842887,https://maps.google.com/?cid=0x0:0x54f9a45e7aa2449e,
perumahan,Kantor Perusahaan,Perumahan PKS Melata,"3JH3+WC6, Nanga Koring, Kec. Bulik Tim., Kabupaten Lamandau, Kalimantan Tengah 74162","Nanga Koring, Kec. Bulik Tim., Kabupaten Lamandau",KALIMANTAN TENGAH,74162.0,Indonesia,,,,-1.9202147,111.6035216,https://maps.google.com/?cid=0x0:0x281de2e3452dc284,
perumahan,Komplek perumahan,Perumahan Ramin Permai II,"RC4V+Q3J, Nanga Bulik, Kec. Bulik, Kabupaten Lamandau, Kalimantan Tengah 74161","Nanga Bulik, Kec. Bulik, Kabupaten Lamandau",KALIMANTAN TENGAH,74161.0,Indonesia,,,,-2.1930453,111.4426291,https://maps.google.com/?cid=0x0:0xd9350626b93f69df,
perumahan,Komplek perumahan,Fridianto,"VFM5+7X, Arga Mulya, Kec. Bulik, Kabupaten Lamandau, Kalimantan Tengah 74162","Arga Mulya, Kec. Bulik, Kabupaten Lamandau",KALIMANTAN TENGAH,74162.0,Indonesia,,,,-2.116864,111.4599024,https://maps.google.com/?cid=0x0:0x69a40f6e269eb412,
perumahan,Perhimpunan Pengembang Perumahan,"Afdeling Cherli, SPE","4G5W+RFH, Nanga Koring, Kec. Bulik Tim., Kabupaten Lamandau, Kalimantan Tengah 74162","Nanga Koring, Kec. Bulik Tim., Kabupaten Lamandau",KALIMANTAN TENGAH,74162.0,Indonesia,,,,-1.89043,111.546243,https://maps.google.com/?cid=0x0:0xfe57fbe66d25dab7,
perumahan,Komplek perumahan,Perumahan Emplasemen A PT. Nirmala Agro Lestari (NAL),"XG32+GGX, Sungai Mentawa, Kec. Bulik, Kabupaten Lamandau, Kalimantan Tengah 74162","Sungai Mentawa, Kec. Bulik, Kabupaten Lamandau",KALIMANTAN TENGAH,74162.0,Indonesia,,,,-2.0461276,111.5013713,https://maps.google.com/?cid=0x0:0xb70b0465b307afee,
perumahan,Pembangunan Perumahan,Kompleks Perumahan Dinas Pemda Bukit Hibul,"RC78+268, Nanga Bulik, Kec. Bulik, Kabupaten Lamandau, Kalimantan Tengah 74161","Nanga Bulik, Kec. Bulik, Kabupaten Lamandau",KALIMANTAN TENGAH,74161.0,Indonesia,,,,-2.187454,111.4155937,https://maps.google.com/?cid=0x0:0xb9ac136d3b92379,
perumahan,Komplek perumahan,rumah mrtn,"4FR9+V5X, Tangga Batu, Kec. Belantikan Raya, Kabupaten Lamandau, Kalimantan Tengah 74162","Tangga Batu, Kec. Belantikan Raya, Kabupaten Lamandau",KALIMANTAN TENGAH,74162.0,Indonesia,,,,-1.8581178,111.4688644,https://maps.google.com/?cid=0x0:0xc69faa2621edc0b2,
perumahan,Komplek perumahan,Rumah Jalonsen Sinaga,"RCGW+379, Nanga Bulik, Kec. Bulik, Kabupaten Lamandau, Kalimantan Tengah","Kabupaten Lamandau, Kalimantan Tengah",KALIMANTAN TENGAH,,Indonesia,,,,-2.1748312,111.445722,https://maps.google.com/?cid=0x0:0xaccbb937fadaa0a3,
perumahan,Kantor Perusahaan,NANGA BULIK RESIDENCE,"RC3P+V9M, Jalan, Nanga Bulik, Kec. Bulik, Kabupaten Lamandau, Kalimantan Tengah","Kabupaten Lamandau, Kalimantan Tengah",KALIMANTAN TENGAH,,Indonesia,81258998506.0,,,-2.195695,111.4360495,https://maps.google.com/?cid=0x0:0x89b159b326ee11ed,
perumahan,perumahan,Kalimantan Tengah 74611,"Kec. Bulik, Kabupaten Lamandau, Kalimantan Tengah","Kabupaten Lamandau, Kalimantan Tengah",KALIMANTAN TENGAH,,Indonesia,,,,-2.0058667,111.4395128,https://maps.google.com/?cid=0x0:0xb6c8a0a464bd3c0c,
perumahan,Pembangunan Perumahan,Perumahan BTN Griya Bulik Indah,"RC3P+RVF, Nanga Bulik, Kec. Bulik, Kabupaten Lamandau, Kalimantan Tengah 74161","Nanga Bulik, Kec. Bulik, Kabupaten Lamandau",KALIMANTAN TENGAH,74161.0,Indonesia,,,,-2.1954293,111.4371854,https://maps.google.com/?cid=0x0:0x121150928cb61281,
perumahan,Komplek perumahan,Perumahan PKS 12,"X9PQ+465, Jalan bakonsu, Tamiang, Kec. Bulik, Kabupaten Lamandau, Kalimantan Tengah 74162","Jalan bakonsu, Tamiang, Kec. Bulik, Kabupaten Lamandau",KALIMANTAN TENGAH,74162.0,Indonesia,,,,-2.0147317,111.388105,https://maps.google.com/?cid=0x0:0x1877b8656ef2644,
perumahan,Pembangunan Perumahan,PERUMAHAN ALUN ALUN RESIDENCE,"RCJH+R6, Bumi Agung, Kec. Bulik, Kabupaten Lamandau, Kalimantan Tengah","Kabupaten Lamandau, Kalimantan Tengah",KALIMANTAN TENGAH,,Indonesia,,,,-2.1679848,111.4280672,https://maps.google.com/?cid=0x0:0x479c6b1b00a0549b,
perumahan,Komplek perumahan,Wikafia,"XF87+49X, Beruta, Kec. Bulik, Kabupaten Lamandau, Kalimantan Tengah 74612","Beruta, Kec. Bulik, Kabupaten Lamandau",KALIMANTAN TENGAH,74612.0,Indonesia,,,,-2.0338077,111.4624659,https://maps.google.com/?cid=0x0:0xaef5789ff0fbaab7,
perumahan,Komplek perumahan,Perum Avdeling charlie PT.NAL,"WFQF+CVQ, Beruta, Kec. Bulik, Kabupaten Lamandau, Kalimantan Tengah 74612","Beruta, Kec. Bulik, Kabupaten Lamandau",KALIMANTAN TENGAH,74612.0,Indonesia,85320593255.0,,,-2.0614124,111.474737,https://maps.google.com/?cid=0x0:0xee9b9d9ccd978dbf,
perumahan,Kantor Perusahaan,NANGA BULIK RESIDENCE,"RC3P+V9M, Jalan, Nanga Bulik, Kec. Bulik, Kabupaten Lamandau, Kalimantan Tengah","Kabupaten Lamandau, Kalimantan Tengah",KALIMANTAN TENGAH,,Indonesia,81258998506.0,,,-2.195695,111.4360495,https://maps.google.com/?cid=0x0:0x89b159b326ee11ed,
perumahan,Komplek perumahan,Bukit Samaliba Residence,"Jalan Empat Puluh Meter RT 12, Nanga Bulik, Bulik, Lamandau Regency, Central Kalimantan 74161","Nanga Bulik, Bulik, Lamandau Regency",KALIMANTAN TENGAH,74161.0,Indonesia,85821687481.0,,,-2.1745645,111.4297661,https://maps.google.com/?cid=0x0:0x5ca913767e318249,
perumahan,Komplek perumahan,Kl 8 pilar,"2C38+48, Tamiang, Kec. Bulik, Kabupaten Lamandau, Kalimantan Tengah","Kabupaten Lamandau, Kalimantan Tengah",KALIMANTAN TENGAH,,Indonesia,,,,-1.9972904,111.4158289,https://maps.google.com/?cid=0x0:0xafcd9547b7204b37,
perumahan,Komplek perumahan,Rumah mama eni,"XFFQ+F3V, Beruta, Kec. Bulik, Kabupaten Lamandau, Kalimantan Tengah 74162","Beruta, Kec. Bulik, Kabupaten Lamandau",KALIMANTAN TENGAH,74162.0,Indonesia,,,,-2.025926,111.48736,https://maps.google.com/?cid=0x0:0x1b81cba87499a04f,
perumahan,Komplek perumahan,Bukit Samaliba Residence,"Blok Durian No.12, Nanga Bulik, Kec. Bulik, Kabupaten Lamandau, Kalimantan Tengah","Kabupaten Lamandau, Kalimantan Tengah",KALIMANTAN TENGAH,,Indonesia,,,,-2.0908079,111.2606554,https://maps.google.com/?cid=0x0:0x8e742e27b576c763,
perumahan,Perhimpunan Pengembang Perumahan,Rayyan,"XFFQ+F3V, Beruta, Kec. Bulik, Kabupaten Lamandau, Kalimantan Tengah 74162","Beruta, Kec. Bulik, Kabupaten Lamandau",KALIMANTAN TENGAH,74162.0,Indonesia,,,,-2.0259189,111.4877839,https://maps.google.com/?cid=0x0:0x8229872ff1094d6a,
perumahan,Komplek perumahan,Qirani House,"XFCX+J2M, Beruta, Kec. Bulik, Kabupaten Lamandau, Kalimantan Tengah 74162","Beruta, Kec. Bulik, Kabupaten Lamandau",KALIMANTAN TENGAH,74162.0,Indonesia,,,,-2.0284225,111.4975489,https://maps.google.com/?cid=0x0:0xdb05b3fe14eacb07,
perumahan,Pembangunan Perumahan,Perumahan BTN,"JL BTN Ramin No.2, Nanga Bulik, Kec. Bulik, Kabupaten Lamandau, Kalimantan Tengah","Kabupaten Lamandau, Kalimantan Tengah",KALIMANTAN TENGAH,,Indonesia,,,,-2.0908079,111.2606554,https://maps.google.com/?cid=0x0:0x10606d5790e5309c,
perumahan,Pembangunan Perumahan,nanga bulik kabupaten lamandau,"RCFW+3RP, Jalan, Nanga Bulik, Bulik, Lamandau Regency, Central Kalimantan 74161","Jalan, Nanga Bulik, Bulik, Lamandau Regency",KALIMANTAN TENGAH,74161.0,Indonesia,,,,-2.177298,111.4470724,https://maps.google.com/?cid=0x0:0x9755122c5b476b0c,
perumahan,Perumahan,KANTOR PEMASARAN NANGA BULIK RESIDEN,"RC5P+FH5, Jl. Ahmad Yani, Nanga Bulik, Kec. Bulik, Kabupaten Lamandau, Kalimantan Tengah 74161","Jl. Ahmad Yani, Nanga Bulik, Kec. Bulik, Kabupaten Lamandau",KALIMANTAN TENGAH,74161.0,Indonesia,81250365437.0,,,-2.1915466,111.4364709,https://maps.google.com/?cid=0x0:0x986c39c2fe74123e,
perumahan,Komplek perumahan,CV. Suja Mandiri Property,"Trans Lokal, Jl. Melati No.RT. 11, Nanga Bulik, Kec. Bulik, Kabupaten Lamandau, Kalimantan Tengah 74162","Jl. Melati No.RT. 11, Nanga Bulik, Kec. Bulik, Kabupaten Lamandau",KALIMANTAN TENGAH,74162.0,Indonesia,82152000640.0,,,-2.1810791,111.4465588,https://maps.google.com/?cid=0x0:0x2b0914dca83a78b1,
perumahan,Komplek perumahan,tessa,"XFFP+57P, Unnamed Road, Beruta, Kec. Bulik, Kabupaten Lamandau, Kalimantan Tengah 74162","Unnamed Road, Beruta, Kec. Bulik, Kabupaten Lamandau",KALIMANTAN TENGAH,74162.0,Indonesia,,,,-2.0270333,111.4857176,https://maps.google.com/?cid=0x0:0x3ae4abc3d9fb6620,
perumahan,Komplek perumahan,Alas Ardana,"2CPM+JW, Nanga Belantikan, Kec. Belantikan Raya, Kabupaten Lamandau, Kalimantan Tengah","Kabupaten Lamandau, Kalimantan Tengah",KALIMANTAN TENGAH,,Indonesia,,,,-1.9634462,111.4348442,https://maps.google.com/?cid=0x0:0x4eb36de48ca2ba06,
perumahan,Apartemen sewa liburan,Rumah arsya walet 2,"XFFQ+F3V, Beruta, Kec. Bulik, Kabupaten Lamandau, Kalimantan Tengah 74162","Beruta, Kec. Bulik, Kabupaten Lamandau",KALIMANTAN TENGAH,74162.0,Indonesia,81310646914.0,,,-2.0262693,111.4876675,https://maps.google.com/?cid=0x0:0x8f3dcaf4c2355a13,
perumahan,perumahan,Kalimantan Tengah 74612,"Kec. Bulik, Kabupaten Lamandau, Kalimantan Tengah","Kabupaten Lamandau, Kalimantan Tengah",KALIMANTAN TENGAH,,Indonesia,,,,-2.0421323,111.463361,https://maps.google.com/?cid=0x0:0xc38ed0bb98a86bd0,
perumahan,Pembangunan Perumahan,Perumahan BTN Griya Bulik Indah,"RC3P+RVF, Nanga Bulik, Kec. Bulik, Kabupaten Lamandau, Kalimantan Tengah 74161","Nanga Bulik, Kec. Bulik, Kabupaten Lamandau",KALIMANTAN TENGAH,74161.0,Indonesia,,,,-2.1954293,111.4371854,https://maps.google.com/?cid=0x0:0x121150928cb61281,
perumahan,Komplek perumahan,Perum Avdeling charlie PT.NAL,"WFQF+CVQ, Beruta, Kec. Bulik, Kabupaten Lamandau, Kalimantan Tengah 74612","Beruta, Kec. Bulik, Kabupaten Lamandau",KALIMANTAN TENGAH,74612.0,Indonesia,85320593255.0,,,-2.0614124,111.474737,https://maps.google.com/?cid=0x0:0xee9b9d9ccd978dbf,
perumahan,Pembangunan Perumahan,PERUMAHAN ALUN ALUN RESIDENCE,"RCJH+R6, Bumi Agung, Kec. Bulik, Kabupaten Lamandau, Kalimantan Tengah","Kabupaten Lamandau, Kalimantan Tengah",KALIMANTAN TENGAH,,Indonesia,,,,-2.1679848,111.4280672,https://maps.google.com/?cid=0x0:0x479c6b1b00a0549b,
perumahan,Komplek perumahan,Polman Astra,"WF8M+46, Sungai Mentawa, Kec. Bulik, Kabupaten Lamandau, Kalimantan Tengah","Kabupaten Lamandau, Kalimantan Tengah",KALIMANTAN TENGAH,,Indonesia,,,,-2.084902,111.4818634,https://maps.google.com/?cid=0x0:0xe61a01a71e935d82,
perumahan,Komplek perumahan,Wikafia,"XF87+49X, Beruta, Kec. Bulik, Kabupaten Lamandau, Kalimantan Tengah 74612","Beruta, Kec. Bulik, Kabupaten Lamandau",KALIMANTAN TENGAH,74612.0,Indonesia,,,,-2.0338077,111.4624659,https://maps.google.com/?cid=0x0:0xaef5789ff0fbaab7,
perumahan,Komplek perumahan,Rumah kamea stabita,"WF8M+46, Sungai Mentawa, Kec. Bulik, Kabupaten Lamandau, Kalimantan Tengah","Kabupaten Lamandau, Kalimantan Tengah",KALIMANTAN TENGAH,,Indonesia,,,,-2.0846544,111.4831001,https://maps.google.com/?cid=0x0:0xac76f0a6e5c4ec34,
perumahan,Kantor Perusahaan,NANGA BULIK RESIDENCE,"RC3P+V9M, Jalan, Nanga Bulik, Kec. Bulik, Kabupaten Lamandau, Kalimantan Tengah","Kabupaten Lamandau, Kalimantan Tengah",KALIMANTAN TENGAH,,Indonesia,81258998506.0,,,-2.195695,111.4360495,https://maps.google.com/?cid=0x0:0x89b159b326ee11ed,
perumahan,Komplek perumahan,Home kamea industri,"WF8M+46, Sungai Mentawa, Kec. Bulik, Kabupaten Lamandau, Kalimantan Tengah","Kabupaten Lamandau, Kalimantan Tengah",KALIMANTAN TENGAH,,Indonesia,,,,-2.084692,111.483109,https://maps.google.com/?cid=0x0:0x37a7a2c4cdd3b0cd,
perumahan,Komplek perumahan,Rumah Oktavianus r,"WF8Q+4F8, Sungai Mentawa, Kec. Bulik, Kabupaten Lamandau, Kalimantan Tengah 74162","Sungai Mentawa, Kec. Bulik, Kabupaten Lamandau",KALIMANTAN TENGAH,74162.0,Indonesia,,,,-2.0847039,111.4883683,https://maps.google.com/?cid=0x0:0xf70acf74f6fb0364,
perumahan,Komplek perumahan,Rumah igo,"WF8Q+7CC, Sungai Mentawa, Kec. Bulik, Kabupaten Lamandau, Kalimantan Tengah","Kabupaten Lamandau, Kalimantan Tengah",KALIMANTAN TENGAH,,Indonesia,,,,-2.0843101,111.4885943,https://maps.google.com/?cid=0x0:0x951f20c6d1bf64ff,
perumahan,Komplek perumahan,Perumahan Emplasemen A PT. Nirmala Agro Lestari (NAL),"XG32+GGX, Sungai Mentawa, Kec. Bulik, Kabupaten Lamandau, Kalimantan Tengah 74162","Sungai Mentawa, Kec. Bulik, Kabupaten Lamandau",KALIMANTAN TENGAH,74162.0,Indonesia,,,,-2.0461276,111.5013713,https://maps.google.com/?cid=0x0:0xb70b0465b307afee,
perumahan,Komplek perumahan,Qirani House,"XFCX+J2M, Beruta, Kec. Bulik, Kabupaten Lamandau, Kalimantan Tengah 74162","Beruta, Kec. Bulik, Kabupaten Lamandau",KALIMANTAN TENGAH,74162.0,Indonesia,,,,-2.0284225,111.4975489,https://maps.google.com/?cid=0x0:0xdb05b3fe14eacb07,
perumahan,Komplek perumahan,Bukit Samaliba Residence,"Jalan Empat Puluh Meter RT 12, Nanga Bulik, Bulik, Lamandau Regency, Central Kalimantan 74161","Nanga Bulik, Bulik, Lamandau Regency",KALIMANTAN TENGAH,74161.0,Indonesia,85821687481.0,,,-2.1745645,111.4297661,https://maps.google.com/?cid=0x0:0x5ca913767e318249,
perumahan,Komplek perumahan,Rumah mama eni,"XFFQ+F3V, Beruta, Kec. Bulik, Kabupaten Lamandau, Kalimantan Tengah 74162","Beruta, Kec. Bulik, Kabupaten Lamandau",KALIMANTAN TENGAH,74162.0,Indonesia,,,,-2.025926,111.48736,https://maps.google.com/?cid=0x0:0x1b81cba87499a04f,
perumahan,Komplek perumahan,tessa,"XFFP+57P, Unnamed Road, Beruta, Kec. Bulik, Kabupaten Lamandau, Kalimantan Tengah 74162","Unnamed Road, Beruta, Kec. Bulik, Kabupaten Lamandau",KALIMANTAN TENGAH,74162.0,Indonesia,,,,-2.0270333,111.4857176,https://maps.google.com/?cid=0x0:0x3ae4abc3d9fb6620,
perumahan,Perhimpunan Pengembang Perumahan,Rayyan,"XFFQ+F3V, Beruta, Kec. Bulik, Kabupaten Lamandau, Kalimantan Tengah 74162","Beruta, Kec. Bulik, Kabupaten Lamandau",KALIMANTAN TENGAH,74162.0,Indonesia,,,,-2.0259189,111.4877839,https://maps.google.com/?cid=0x0:0x8229872ff1094d6a,
perumahan,Komplek perumahan,Mess Rian,"WF7P+Q9H, Sungai Mentawa, Kec. Bulik, Kabupaten Lamandau, Kalimantan Tengah 74162","Sungai Mentawa, Kec. Bulik, Kabupaten Lamandau",KALIMANTAN TENGAH,74162.0,Indonesia,,,,-2.0855741,111.4859899,https://maps.google.com/?cid=0x0:0xa0628a4d67fad494,
perumahan,Komplek perumahan,Bukit Samaliba Residence,"Blok Durian No.12, Nanga Bulik, Kec. Bulik, Kabupaten Lamandau, Kalimantan Tengah","Kabupaten Lamandau, Kalimantan Tengah",KALIMANTAN TENGAH,,Indonesia,,,,-2.0908079,111.2606554,https://maps.google.com/?cid=0x0:0x8e742e27b576c763,
perumahan,Pembangunan Perumahan,Perumahan BTN,"JL BTN Ramin No.2, Nanga Bulik, Kec. Bulik, Kabupaten Lamandau, Kalimantan Tengah","Kabupaten Lamandau, Kalimantan Tengah",KALIMANTAN TENGAH,,Indonesia,,,,-2.0908079,111.2606554,https://maps.google.com/?cid=0x0:0x10606d5790e5309c,
perumahan,Restoran,Griya Bulik Indah Permai,"Jl. Garuda No.RT 09, Kujan, Kec. Bulik, Kabupaten Lamandau, Kalimantan Tengah 74161","Kujan, Kec. Bulik, Kabupaten Lamandau",KALIMANTAN TENGAH,74161.0,Indonesia,,,,-2.1934876,111.4376239,https://maps.google.com/?cid=0x0:0x155512895bde8295,
perumahan,Pembangunan Perumahan,Perum Bukit Hibuk,"RCCJ+98V, Nanga Bulik, Kec. Bulik, Kabupaten Lamandau, Kalimantan Tengah 74161","Nanga Bulik, Kec. Bulik, Kabupaten Lamandau",KALIMANTAN TENGAH,74161.0,Indonesia,,,,-2.1790034,111.430789,https://maps.google.com/?cid=0x0:0x9853fac92676a0da,
perumahan,Taman,Rumah Hutan Beruta,"XGH2+79H, Beruta, Kec. Bulik, Kabupaten Lamandau, Kalimantan Tengah 74162","Beruta, Kec. Bulik, Kabupaten Lamandau",KALIMANTAN TENGAH,74162.0,Indonesia,85727517356.0,,,-2.0218144,111.5009959,https://maps.google.com/?cid=0x0:0x4323be4a6cf6ee05,
perumahan,Komplek perumahan,Perumahan Ramin Permai II,"RC4V+Q3J, Nanga Bulik, Kec. Bulik, Kabupaten Lamandau, Kalimantan Tengah 74161","Nanga Bulik, Kec. Bulik, Kabupaten Lamandau",KALIMANTAN TENGAH,74161.0,Indonesia,,,,-2.1930453,111.4426291,https://maps.google.com/?cid=0x0:0xd9350626b93f69df,
perumahan,perumahan,Kalimantan Tengah 74162,"Kabupaten Lamandau, Kalimantan Tengah","Kabupaten Lamandau, Kalimantan Tengah",KALIMANTAN TENGAH,,Indonesia,,,,-1.7404903,111.5229817,https://maps.google.com/?cid=0x0:0xcbde8a77875b152b,
perumahan,Komplek perumahan,Perumahan PKS 12,"X9PQ+465, Jalan bakonsu, Tamiang, Kec. Bulik, Kabupaten Lamandau, Kalimantan Tengah 74162","Jalan bakonsu, Tamiang, Kec. Bulik, Kabupaten Lamandau",KALIMANTAN TENGAH,74162.0,Indonesia,,,,-2.0147317,111.388105,https://maps.google.com/?cid=0x0:0x1877b8656ef2644,
perumahan,Kantor Perusahaan,Perumahan PKS Melata,"3JH3+WC6, Nanga Koring, Kec. Bulik Tim., Kabupaten Lamandau, Kalimantan Tengah 74162","Nanga Koring, Kec. Bulik Tim., Kabupaten Lamandau",KALIMANTAN TENGAH,74162.0,Indonesia,,,,-1.9202147,111.6035216,https://maps.google.com/?cid=0x0:0x281de2e3452dc284,
perumahan,Pembangunan Perumahan,Perum Bukit Hibuk,"RCCJ+98V, Nanga Bulik, Kec. Bulik, Kabupaten Lamandau, Kalimantan Tengah 74161","Nanga Bulik, Kec. Bulik, Kabupaten Lamandau",KALIMANTAN TENGAH,74161.0,Indonesia,,,,-2.1790034,111.430789,https://maps.google.com/?cid=0x0:0x9853fac92676a0da,
perumahan,Pembangunan Perumahan,Perumahan Griya Bukit Hibul Permai,"RCCH+MRW, Nanga Bulik, Kec. Bulik, Kabupaten Lamandau, Kalimantan Tengah 74161","Nanga Bulik, Kec. Bulik, Kabupaten Lamandau",KALIMANTAN TENGAH,74161.0,Indonesia,,,,-2.1782613,111.4295748,https://maps.google.com/?cid=0x0:0xe351b1a3b06c897e,
perumahan,Komplek perumahan,Rumah al_faiz,"3GR4+WWJ, Sukamaju, Kec. Bulik Tim., Kabupaten Lamandau, Kalimantan Tengah 74162","Sukamaju, Kec. Bulik Tim., Kabupaten Lamandau",KALIMANTAN TENGAH,74162.0,Indonesia,,,,-1.907675,111.5072682,https://maps.google.com/?cid=0x0:0xfaca0d5736321595,
perumahan,Komplek perumahan,Rumah pak suki,"3GV5+7XP, Sukamaju, Kec. Bulik Tim., Kabupaten Lamandau, Kalimantan Tengah 74162","Sukamaju, Kec. Bulik Tim., Kabupaten Lamandau",KALIMANTAN TENGAH,74162.0,Indonesia,82251527515.0,,,-1.9067971,111.5099514,https://maps.google.com/?cid=0x0:0x73f9a70f7a4d79be,
perumahan,Komplek perumahan,Walet merah BUDI pengkolan,"4FGP+X7M, Bukit Jaya, Kec. Bulik Tim., Kabupaten Lamandau, Kalimantan Tengah 74162","Bukit Jaya, Kec. Bulik Tim., Kabupaten Lamandau",KALIMANTAN TENGAH,74162.0,Indonesia,,,,-1.8725331,111.4856848,https://maps.google.com/?cid=0x0:0x54bad315217b67a2,
perumahan,Pembangunan Perumahan,"Afdeling Bravo, SCE","2GMF+GWW, Nanga Palikodan, Kec. Bulik Tim., Kabupaten Lamandau, Kalimantan Tengah 74162","Nanga Palikodan, Kec. Bulik Tim., Kabupaten Lamandau",KALIMANTAN TENGAH,74162.0,Indonesia,,,,-1.96614,111.52483,https://maps.google.com/?cid=0x0:0x9a7c2834a898f1a0,
perumahan,Pembangunan Perumahan,PERUMAHAN ALUN ALUN RESIDENCE,"RCJH+R6, Bumi Agung, Kec. Bulik, Kabupaten Lamandau, Kalimantan Tengah","Kabupaten Lamandau, Kalimantan Tengah",KALIMANTAN TENGAH,,Indonesia,,,,-2.1679848,111.4280672,https://maps.google.com/?cid=0x0:0x479c6b1b00a0549b,
perumahan,Komplek perumahan,Perumahan KBB,"28H4+HGQ, Suja, Kec. Lamandau, Kabupaten Lamandau, Kalimantan Tengah","Kabupaten Lamandau, Kalimantan Tengah",KALIMANTAN TENGAH,,Indonesia,,,,-1.9710468,111.3063721,https://maps.google.com/?cid=0x0:0x1dd92317c3dfe4ac,
perumahan,perumahan,Rumah plus usaha telur puyuh shobirin,"VCM8+H73, Arga Mulya, Kec. Bulik, Kabupaten Lamandau, Kalimantan Tengah","Kabupaten Lamandau, Kalimantan Tengah",KALIMANTAN TENGAH,,Indonesia,82150903287.0,,,-2.1161065,111.4156647,https://maps.google.com/?cid=0x0:0xe9691fa41b9bd57f,
perumahan,Kantor Perusahaan,Afdeling Delta Batu Tunggal Estate,"4J4C+W46, Toka, Kec. Bulik Tim., Kabupaten Lamandau, Kalimantan Tengah 74152","Toka, Kec. Bulik Tim., Kabupaten Lamandau",KALIMANTAN TENGAH,74152.0,Indonesia,,,,-1.8927155,111.6202569,https://maps.google.com/?cid=0x0:0x74b75bbde7a3d47,
perumahan,Perhimpunan Pengembang Perumahan,Rumah Pendeta Ardianto,"RCCX+H45, Jl. Melati III, Nanga Bulik, Kec. Bulik, Kabupaten Lamandau, Kalimantan Tengah 74161","Jl. Melati III, Nanga Bulik, Kec. Bulik, Kabupaten Lamandau",KALIMANTAN TENGAH,74161.0,Indonesia,,,,-2.1786054,111.4478519,https://maps.google.com/?cid=0x0:0xa95da3f214bc318a,
perumahan,Komplek perumahan,Home,"3FPP+JR8, Bukit Jaya, Kec. Bulik Tim., Kabupaten Lamandau, Kalimantan Tengah 74162","Bukit Jaya, Kec. Bulik Tim., Kabupaten Lamandau",KALIMANTAN TENGAH,74162.0,Indonesia,,,,-1.9134359,111.4871087,https://maps.google.com/?cid=0x0:0xafb6d6fbc13e6eb1,
perumahan,Perhimpunan Pengembang Perumahan,"Afdeling Cherli, SPE","4G5W+RFH, Nanga Koring, Kec. Bulik Tim., Kabupaten Lamandau, Kalimantan Tengah 74162","Nanga Koring, Kec. Bulik Tim., Kabupaten Lamandau",KALIMANTAN TENGAH,74162.0,Indonesia,,,,-1.89043,111.546243,https://maps.google.com/?cid=0x0:0xfe57fbe66d25dab7,
perumahan,Pembangunan Perumahan,Mulyanto,"3FRM+6Q, Bukit Jaya, Kec. Bulik Tim., Kabupaten Lamandau, Kalimantan Tengah","Kabupaten Lamandau, Kalimantan Tengah",KALIMANTAN TENGAH,,Indonesia,,,,-1.9098752,111.4849975,https://maps.google.com/?cid=0x0:0xae7f5be35e616834,
perumahan,Komplek perumahan,Rumah andri,"3GV6+PHX, RT.03/RW.01, Sukamaju, Kec. Bulik Tim., Kabupaten Lamandau, Kalimantan Tengah 74162","RT.03/RW.01, Sukamaju, Kec. Bulik Tim., Kabupaten Lamandau",KALIMANTAN TENGAH,74162.0,Indonesia,,,,-1.9056253,111.5114945,https://maps.google.com/?cid=0x0:0xebbc6b358271ceb4,
perumahan,Komplek perumahan,rumah mrtn,"4FR9+V5X, Tangga Batu, Kec. Belantikan Raya, Kabupaten Lamandau, Kalimantan Tengah 74162","Tangga Batu, Kec. Belantikan Raya, Kabupaten Lamandau",KALIMANTAN TENGAH,74162.0,Indonesia,,,,-1.8581178,111.4688644,https://maps.google.com/?cid=0x0:0xc69faa2621edc0b2,
perumahan,Komplek perumahan,Perum Avdeling charlie PT.NAL,"WFQF+CVQ, Beruta, Kec. Bulik, Kabupaten Lamandau, Kalimantan Tengah 74612","Beruta, Kec. Bulik, Kabupaten Lamandau",KALIMANTAN TENGAH,74612.0,Indonesia,85320593255.0,,,-2.0614124,111.474737,https://maps.google.com/?cid=0x0:0xee9b9d9ccd978dbf,
perumahan,Perumahan,"Afdeling Cerli, MLE","3J66+V97, Unnamed Road, Sungkup, Kec. Bulik Tim., Kabupaten Lamandau, Kalimantan Tengah 74162","Unnamed Road, Sungkup, Kec. Bulik Tim., Kabupaten Lamandau",KALIMANTAN TENGAH,74162.0,Indonesia,,,,-1.9378366,111.6109364,https://maps.google.com/?cid=0x0:0xb4cd4b5bb02d7445,
perumahan,Komplek perumahan,Fridianto,"VFM5+7X, Arga Mulya, Kec. Bulik, Kabupaten Lamandau, Kalimantan Tengah 74162","Arga Mulya, Kec. Bulik, Kabupaten Lamandau",KALIMANTAN TENGAH,74162.0,Indonesia,,,,-2.116864,111.4599024,https://maps.google.com/?cid=0x0:0x69a40f6e269eb412,
perumahan,Komplek perumahan,Perumahan Emplasemen A PT. Nirmala Agro Lestari (NAL),"XG32+GGX, Sungai Mentawa, Kec. Bulik, Kabupaten Lamandau, Kalimantan Tengah 74162","Sungai Mentawa, Kec. Bulik, Kabupaten Lamandau",KALIMANTAN TENGAH,74162.0,Indonesia,,,,-2.0461276,111.5013713,https://maps.google.com/?cid=0x0:0xb70b0465b307afee,
perumahan,Komplek perumahan,BAKONSU,"399M+FPV, Bakonsu, Kec. Lamandau, Kabupaten Lamandau, Kalimantan Tengah 74162","Bakonsu, Kec. Lamandau, Kabupaten Lamandau",KALIMANTAN TENGAH,74162.0,Indonesia,,,,-1.9312679,111.3842887,https://maps.google.com/?cid=0x0:0x54f9a45e7aa2449e,
perumahan,perumahan,Kalimantan Tengah 74664,"Kabupaten Lamandau, Kalimantan Tengah","Kabupaten Lamandau, Kalimantan Tengah",KALIMANTAN TENGAH,,Indonesia,,,,-1.6722405,111.1414226,https://maps.google.com/?cid=0x0:0x2e393b90c2443400,
perumahan,Pembangunan Perumahan,"Desa Kudangan, Kec. Delang, Kab. Lamandau","92XP+X4H, Kudangan, Kec. Delang, Kabupaten Lamandau, Kalimantan Tengah 74664","Kudangan, Kec. Delang, Kabupaten Lamandau",KALIMANTAN TENGAH,74664.0,Indonesia,,,,-1.5994526,111.0360423,https://maps.google.com/?cid=0x0:0x3b71d21a135a268e,
perumahan,Tujuan Wisata,Desa Kubung,"9W8V+PRG, Kubung, Kec. Delang, Kabupaten Lamandau, Kalimantan Tengah","Kabupaten Lamandau, Kalimantan Tengah",KALIMANTAN TENGAH,,Indonesia,,,,-1.6331941,110.9445686,https://maps.google.com/?cid=0x0:0x6e51245708a9caaf,
perumahan,Kantor Pemerintah,Desa sekombulan,"CW6H+G5, Kudangan, Kec. Delang, Kabupaten Lamandau, Kalimantan Tengah","Kabupaten Lamandau, Kalimantan Tengah",KALIMANTAN TENGAH,,Indonesia,,,,-1.5886875,110.9279375,https://maps.google.com/?cid=0x0:0x83762c3554b36d61,
perumahan,Komplek perumahan,Rumah Nando,"C6X2+5V, Karang Mas, Kec. Batang Kawa, Kabupaten Lamandau, Kalimantan Tengah","Kabupaten Lamandau, Kalimantan Tengah",KALIMANTAN TENGAH,,Indonesia,,,,-1.55209,111.202197,https://maps.google.com/?cid=0x0:0xf10f1b2f274f6b5e,
perumahan,Komplek perumahan,Rumah Ian Dolen,"92XP+298, Kudangan, Kec. Delang, Kabupaten Lamandau, Kalimantan Tengah","Kabupaten Lamandau, Kalimantan Tengah",KALIMANTAN TENGAH,,Indonesia,,,,-1.6024622,111.0359447,https://maps.google.com/?cid=0x0:0x7203e4c0470b0db9,
perumahan,Farmstay,Rumah dukuh kawai,"9355+P5, Nyalang, Kec. Delang, Kabupaten Lamandau, Kalimantan Tengah","Kabupaten Lamandau, Kalimantan Tengah",KALIMANTAN TENGAH,,Indonesia,,,,-1.640689,111.0579375,https://maps.google.com/?cid=0x0:0xa398b2973448bcdc,
perumahan,Komplek perumahan,Rumah Pak Bambang,"65H3+489, Batu Tambun, Kec. Batang Kawa, Kabupaten Lamandau, Kalimantan Tengah 74664","Batu Tambun, Kec. Batang Kawa, Kabupaten Lamandau",KALIMANTAN TENGAH,74664.0,Indonesia,,,,-1.7722032,111.1533456,https://maps.google.com/?cid=0x0:0xcbd5af610f6a229f,
perumahan,Tempat Religius,Rumah Dinas Guru SDN Kina,"F5V4+VPM, Kina, Kec. Batang Kawa, Kabupaten Lamandau, Kalimantan Tengah 74664","Kina, Kec. Batang Kawa, Kabupaten Lamandau",KALIMANTAN TENGAH,74664.0,Indonesia,,,,-1.5052394,111.1564134,https://maps.google.com/?cid=0x0:0x7607606cb1b6f2d,
perumahan,Pembangunan Perumahan,PERUMAHAN ALUN ALUN RESIDENCE,"RCJH+R6, Bumi Agung, Kec. Bulik, Kabupaten Lamandau, Kalimantan Tengah","Kabupaten Lamandau, Kalimantan Tengah",KALIMANTAN TENGAH,,Indonesia,,,,-2.1679848,111.4280672,https://maps.google.com/?cid=0x0:0x479c6b1b00a0549b,
perumahan,Komplek perumahan,Mengkalang,"959F+3R, Mengkalang, Kec. Batang Kawa, Kabupaten Lamandau, Kalimantan Tengah","Kabupaten Lamandau, Kalimantan Tengah",KALIMANTAN TENGAH,,Indonesia,,,,-1.6322577,111.1745442,https://maps.google.com/?cid=0x0:0x12916925b7cc4d4a,
perumahan,Kantor Pemerintah,Rumah Adat Desa Kina,"F5W4+87M, Kina, Kec. Batang Kawa, Kabupaten Lamandau, Kalimantan Tengah 74664","Kina, Kec. Batang Kawa, Kabupaten Lamandau",KALIMANTAN TENGAH,74664.0,Indonesia,,,,-1.5039182,111.1550998,https://maps.google.com/?cid=0x0:0xb07900d6e5bf5df7,
perumahan,Komplek perumahan,Perumahan Karyawan Afdeling Alfa Bravo - PT. TAN,"34X8+2M, Kawa, Kec. Lamandau, Kabupaten Lamandau, Kalimantan Tengah","Kabupaten Lamandau, Kalimantan Tengah",KALIMANTAN TENGAH,,Indonesia,,,,-1.9024892,111.1166919,https://maps.google.com/?cid=0x0:0x8587d1f4f7d57fab,
perumahan,Kantor Perusahaan,Emplasment Afdeling Fanta - PT. TAN,"4543+8V, Karang Taba, Kec. Lamandau, Kabupaten Lamandau, Kalimantan Tengah","Kabupaten Lamandau, Kalimantan Tengah",KALIMANTAN TENGAH,,Indonesia,85238312284.0,,,-1.8941917,111.1547133,https://maps.google.com/?cid=0x0:0x65cf3784d87b03e2,
perumahan,Kantor Perusahaan,Afdeling delta Limau 1,"474J+94, Tapin Bini, Kec. Lamandau, Kabupaten Lamandau, Kalimantan Tengah","Kabupaten Lamandau, Kalimantan Tengah",KALIMANTAN TENGAH,,Indonesia,,,,-1.8940254,111.280292,https://maps.google.com/?cid=0x0:0x4219a5dffa184103,
perumahan,Perpustakaan,Rumah Dinas Kepala SMPN SATAP 3 Batang Kawa,"F5V4+VPM, Kina, Kec. Batang Kawa, Kabupaten Lamandau, Kalimantan Tengah 74664","Kina, Kec. Batang Kawa, Kabupaten Lamandau",KALIMANTAN TENGAH,74664.0,Indonesia,,,,-1.5051412,111.1567199,https://maps.google.com/?cid=0x0:0x981c5a6a321625be,
perumahan,Pembangunan Perumahan,Denni Purwanto,"47H6+G7C, Tapin Bini, Kec. Lamandau, Kabupaten Lamandau, Kalimantan Tengah","Kabupaten Lamandau, Kalimantan Tengah",KALIMANTAN TENGAH,,Indonesia,,,,-1.8711869,111.2606554,https://maps.google.com/?cid=0x0:0xde554f65f12eb7ae,
perumahan,Toko bahan makanan,Ds. SUJA,"37H8+Q68, Suja, Kec. Lamandau, Kabupaten Lamandau, Kalimantan Tengah 74663","Suja, Kec. Lamandau, Kabupaten Lamandau",KALIMANTAN TENGAH,74663.0,Indonesia,,,,-1.9205973,111.2655724,https://maps.google.com/?cid=0x0:0x7f36c83c5b1e27cd,
perumahan,Komplek perumahan,Pondok Hujan,"C5HP+W8, Karang Mas, Kec. Batang Kawa, Kabupaten Lamandau, Kalimantan Tengah","Kabupaten Lamandau, Kalimantan Tengah",KALIMANTAN TENGAH,,Indonesia,,,,-1.5702368,111.1858188,https://maps.google.com/?cid=0x0:0xed02257ca7b3e62a,
perumahan,Komplek perumahan,Mess Bang Naldi,"54G3+QJX, Jl. Lintas Kalimantan, Tengah, Kec. Lamandau, Kabupaten Lamandau, Kalimantan Tengah","Kabupaten Lamandau, Kalimantan Tengah",KALIMANTAN TENGAH,,Indonesia,,,,-1.8230157,111.1041242,https://maps.google.com/?cid=0x0:0x3b6d8d8c8535b726,
perumahan,perumahan,Kalimantan Tengah 74663,"Kabupaten Lamandau, Kalimantan Tengah","Kabupaten Lamandau, Kalimantan Tengah",KALIMANTAN TENGAH,,Indonesia,,,,-1.9269166,111.1891151,https://maps.google.com/?cid=0x0:0xddd786c27266b53a,
perumahan,Komplek perumahan,Perumahan KBB,"28H4+HGQ, Suja, Kec. Lamandau, Kabupaten Lamandau, Kalimantan Tengah","Kabupaten Lamandau, Kalimantan Tengah",KALIMANTAN TENGAH,,Indonesia,,,,-1.9710468,111.3063721,https://maps.google.com/?cid=0x0:0x1dd92317c3dfe4ac,
perumahan,Kantor Perusahaan,PT Pilar Wanapersada - Guest House,"28F4+CPR, Unnamed Road, Bakonsu, Lamandau, Lamandau Regency, Central Kalimantan 74663","Unnamed Road, Bakonsu, Lamandau, Lamandau Regency",KALIMANTAN TENGAH,74663.0,Indonesia,,,,-1.9763928,111.3067762,https://maps.google.com/?cid=0x0:0x38302a745b8c5dff,
perumahan,Komplek perumahan,DALEMEKULA,"35FQ+6JQ, Tapin Bini, Kec. Lamandau, Kabupaten Lamandau, Kalimantan Tengah","Kabupaten Lamandau, Kalimantan Tengah",KALIMANTAN TENGAH,,Indonesia,,,,-1.9269166,111.1891151,https://maps.google.com/?cid=0x0:0x780dd4f45a9fbd25,
perumahan,Komplek perumahan,rumah mrtn,"4FR9+V5X, Tangga Batu, Kec. Belantikan Raya, Kabupaten Lamandau, Kalimantan Tengah 74162","Tangga Batu, Kec. Belantikan Raya, Kabupaten Lamandau",KALIMANTAN TENGAH,74162.0,Indonesia,,,,-1.8581178,111.4688644,https://maps.google.com/?cid=0x0:0xc69faa2621edc0b2,
perumahan,Toko bahan makanan,Ds. SUJA,"37H8+Q68, Suja, Kec. Lamandau, Kabupaten Lamandau, Kalimantan Tengah 74663","Suja, Kec. Lamandau, Kabupaten Lamandau",KALIMANTAN TENGAH,74663.0,Indonesia,,,,-1.9205973,111.2655724,https://maps.google.com/?cid=0x0:0x7f36c83c5b1e27cd,
perumahan,Komplek perumahan,Perumahan PKS 12,"X9PQ+465, Jalan bakonsu, Tamiang, Kec. Bulik, Kabupaten Lamandau, Kalimantan Tengah 74162","Jalan bakonsu, Tamiang, Kec. Bulik, Kabupaten Lamandau",KALIMANTAN TENGAH,74162.0,Indonesia,,,,-2.0147317,111.388105,https://maps.google.com/?cid=0x0:0x1877b8656ef2644,
perumahan,Komplek perumahan,BAKONSU,"399M+FPV, Bakonsu, Kec. Lamandau, Kabupaten Lamandau, Kalimantan Tengah 74162","Bakonsu, Kec. Lamandau, Kabupaten Lamandau",KALIMANTAN TENGAH,74162.0,Indonesia,,,,-1.9312679,111.3842887,https://maps.google.com/?cid=0x0:0x54f9a45e7aa2449e,
perumahan,Pembangunan Perumahan,LA AUDIO,"V5JW+VQX, Unnamed Road, Semantun, Kec. Permata Kecubung, Kabupaten Lamandau, Kalimantan Tengah 74173","Unnamed Road, Semantun, Kec. Permata Kecubung, Kabupaten Lamandau",KALIMANTAN TENGAH,74173.0,Indonesia,81949914420.0,,,-2.1177749,111.1969996,https://maps.google.com/?cid=0x0:0x16335b5ef86d0cc,
perumahan,Kantor Perusahaan,Rumah Lois FLTI Estate,"4FR9+J8W, Unnamed Road, Tangga Batu, Belantikan Raya, Lamandau Regency, Central Kalimantan 74663","Unnamed Road, Tangga Batu, Belantikan Raya, Lamandau Regency",KALIMANTAN TENGAH,74663.0,Indonesia,,,,-1.858391,111.4683197,https://maps.google.com/?cid=0x0:0xcd526bc9980c61c4,
perumahan,Kantor Perusahaan,Perumahan Staff BHMS,"393R+V53, Bakonsu, Kec. Lamandau, Kabupaten Lamandau, Kalimantan Tengah","Kabupaten Lamandau, Kalimantan Tengah",KALIMANTAN TENGAH,,Indonesia,,,,-1.9453676,111.3904301,https://maps.google.com/?cid=0x0:0x6e66b4125f8f64a4,
perumahan,Pembangunan Perumahan,PERUMAHAN ALUN ALUN RESIDENCE,"RCJH+R6, Bumi Agung, Kec. Bulik, Kabupaten Lamandau, Kalimantan Tengah","Kabupaten Lamandau, Kalimantan Tengah",KALIMANTAN TENGAH,,Indonesia,,,,-2.1679848,111.4280672,https://maps.google.com/?cid=0x0:0x479c6b1b00a0549b,
perumahan,perumahan,Rumah geinson,"48C8+5R5, Tapin Bini, Kec. Lamandau, Kabupaten Lamandau, Kalimantan Tengah 74663","Tapin Bini, Kec. Lamandau, Kabupaten Lamandau",KALIMANTAN TENGAH,74663.0,Indonesia,,,,-1.8795859,111.3171314,https://maps.google.com/?cid=0x0:0x333abbe5c3966a66,
perumahan,Pembangunan Perumahan,Perumahan BTN Griya Bulik Indah,"RC3P+RVF, Nanga Bulik, Kec. Bulik, Kabupaten Lamandau, Kalimantan Tengah 74161","Nanga Bulik, Kec. Bulik, Kabupaten Lamandau",KALIMANTAN TENGAH,74161.0,Indonesia,,,,-2.1954293,111.4371854,https://maps.google.com/?cid=0x0:0x121150928cb61281,
perumahan,Jawa,Simpang tempajak,"X5GW+XHW, Jl. Lintas Kalimantan, Panopa, Kec. Lamandau, Kabupaten Lamandau, Kalimantan Tengah 74173","Jl. Lintas Kalimantan, Panopa, Kec. Lamandau, Kabupaten Lamandau",KALIMANTAN TENGAH,74173.0,Indonesia,,,,-2.0225012,111.1964461,https://maps.google.com/?cid=0x0:0x54857fa536ca0c9b,
perumahan,perumahan,Samujaya,"48CC+XH4, Desa Samu jaya, Kec. Lamandau, Kabupaten Lamandau, Kalimantan Tengah","Kabupaten Lamandau, Kalimantan Tengah",KALIMANTAN TENGAH,,Indonesia,,,,-1.8776217,111.3214436,https://maps.google.com/?cid=0x0:0x652b3031cb5961c7,
perumahan,Komplek perumahan,GCM bulik,"W756+M7C, Nanga Bulik, Kec. Bulik, Kabupaten Lamandau, Kalimantan Tengah","Kabupaten Lamandau, Kalimantan Tengah",KALIMANTAN TENGAH,,Indonesia,,,,-2.0908079,111.2606554,https://maps.google.com/?cid=0x0:0xfda5c6f85c0eb20a,
perumahan,Komplek perumahan,Alvin,"37H9+Q4, Suja, Kec. Lamandau, Kabupaten Lamandau, Kalimantan Tengah 74663","Suja, Kec. Lamandau, Kabupaten Lamandau",KALIMANTAN TENGAH,74663.0,Indonesia,,,,-1.9205897,111.2677583,https://maps.google.com/?cid=0x0:0x9f97452b5e030f82,
perumahan,Pembangunan Perumahan,Pondok Indah Berkah Abadi Bersama,"W4F8+M6, Panopa, Kec. Lamandau, Kabupaten Lamandau, Kalimantan Tengah","Kabupaten Lamandau, Kalimantan Tengah",KALIMANTAN TENGAH,,Indonesia,,,,-2.0757948,111.1155031,https://maps.google.com/?cid=0x0:0xd46dedd241b050d0,
perumahan,Komplek perumahan,Rumah Nando,"C6X2+5V, Karang Mas, Kec. Batang Kawa, Kabupaten Lamandau, Kalimantan Tengah","Kabupaten Lamandau, Kalimantan Tengah",KALIMANTAN TENGAH,,Indonesia,,,,-1.55209,111.202197,https://maps.google.com/?cid=0x0:0xf10f1b2f274f6b5e,
perumahan,Kantor Perusahaan,Emplasment Afdeling Fanta - PT. TAN,"4543+8V, Karang Taba, Kec. Lamandau, Kabupaten Lamandau, Kalimantan Tengah","Kabupaten Lamandau, Kalimantan Tengah",KALIMANTAN TENGAH,,Indonesia,85238312284.0,,,-1.8941917,111.1547133,https://maps.google.com/?cid=0x0:0x65cf3784d87b03e2,
perumahan,Komplek perumahan,kalimantan,"4F37+J89, Bukit Jaya, Kec. Bulik Tim., Kabupaten Lamandau, Kalimantan Tengah","Kabupaten Lamandau, Kalimantan Tengah",KALIMANTAN TENGAH,,Indonesia,,,,-1.8959525,111.463361,https://maps.google.com/?cid=0x0:0xa726282f34e813c1,
perumahan,Pembangunan Perumahan,Rumah apak seruni,"47WM+WRR, Tapin Bini, Kec. Lamandau, Kabupaten Lamandau, Kalimantan Tengah 74663","Tapin Bini, Kec. Lamandau, Kabupaten Lamandau",KALIMANTAN TENGAH,74663.0,Indonesia,,,,-1.8526377,111.2845025,https://maps.google.com/?cid=0x0:0xbba833c108f9c9d4,
perumahan,Pembangunan Perumahan,Fandrius,"48C8+5R5, Tapin Bini, Kec. Lamandau, Kabupaten Lamandau, Kalimantan Tengah 74663","Tapin Bini, Kec. Lamandau, Kabupaten Lamandau",KALIMANTAN TENGAH,74663.0,Indonesia,,,,-1.8796215,111.3171189,https://maps.google.com/?cid=0x0:0x9005556a98c11574,
perumahan,perumahan,Kalimantan Tengah 74162,"Kabupaten Lamandau, Kalimantan Tengah","Kabupaten Lamandau, Kalimantan Tengah",KALIMANTAN TENGAH,,Indonesia,,,,-1.7404903,111.5229817,https://maps.google.com/?cid=0x0:0xcbde8a77875b152b,
perumahan,Kantor Perusahaan,Perumahan Staff Estate Beringin,"Unnamed Road, Bukit Raya, Kec. Menthobi Raya, Kabupaten Lamandau, Kalimantan Tengah 74117","Bukit Raya, Kec. Menthobi Raya, Kabupaten Lamandau",KALIMANTAN TENGAH,74117.0,Indonesia,,,,-2.0408551,111.5939736,https://maps.google.com/?cid=0x0:0x966e7c5eea80a45a,
perumahan,Komplek perumahan,rumah mrtn,"4FR9+V5X, Tangga Batu, Kec. Belantikan Raya, Kabupaten Lamandau, Kalimantan Tengah 74162","Tangga Batu, Kec. Belantikan Raya, Kabupaten Lamandau",KALIMANTAN TENGAH,74162.0,Indonesia,,,,-1.8581178,111.4688644,https://maps.google.com/?cid=0x0:0xc69faa2621edc0b2,
perumahan,Taman Kanak-kanak,Perumahan tk,"XM42+VQ7, Mukti Manunggal, Kec. Menthobi Raya, Kabupaten Lamandau, Kalimantan Tengah 74117","Mukti Manunggal, Kec. Menthobi Raya, Kabupaten Lamandau",KALIMANTAN TENGAH,74117.0,Indonesia,,,,-2.0424275,111.6532383,https://maps.google.com/?cid=0x0:0xad13adbda51dfb66,
perumahan,Komplek perumahan,Perumahan KBB,"28H4+HGQ, Suja, Kec. Lamandau, Kabupaten Lamandau, Kalimantan Tengah","Kabupaten Lamandau, Kalimantan Tengah",KALIMANTAN TENGAH,,Indonesia,,,,-1.9710468,111.3063721,https://maps.google.com/?cid=0x0:0x1dd92317c3dfe4ac,
perumahan,Komplek perumahan,Perumahan PKS 12,"X9PQ+465, Jalan bakonsu, Tamiang, Kec. Bulik, Kabupaten Lamandau, Kalimantan Tengah 74162","Jalan bakonsu, Tamiang, Kec. Bulik, Kabupaten Lamandau",KALIMANTAN TENGAH,74162.0,Indonesia,,,,-2.0147317,111.388105,https://maps.google.com/?cid=0x0:0x1877b8656ef2644,
perumahan,Perusahaan Pembotolan Minyak Zaitun,Perumahan PT. FLTI Estate,"4FR8+RXG, Unnamed Road, Tangga Batu, Belantikan Raya, Lamandau Regency, Central Kalimantan 74663","Unnamed Road, Tangga Batu, Belantikan Raya, Lamandau Regency",KALIMANTAN TENGAH,74663.0,Indonesia,,,,-1.8579365,111.4674394,https://maps.google.com/?cid=0x0:0x89b13403b5a233b2,
perumahan,Penginapan,SP Melata,"Melata, Kec. Menthobi Raya, Kabupaten Lamandau, Kalimantan Tengah 74162","Kec. Menthobi Raya, Kabupaten Lamandau",KALIMANTAN TENGAH,74162.0,Indonesia,81311669679.0,,,-1.9852984,111.6064513,https://maps.google.com/?cid=0x0:0xb219ccdd9760219c,
perumahan,Komplek perumahan,Perumahan Emplasemen A PT. Nirmala Agro Lestari (NAL),"XG32+GGX, Sungai Mentawa, Kec. Bulik, Kabupaten Lamandau, Kalimantan Tengah 74162","Sungai Mentawa, Kec. Bulik, Kabupaten Lamandau",KALIMANTAN TENGAH,74162.0,Indonesia,,,,-2.0461276,111.5013713,https://maps.google.com/?cid=0x0:0xb70b0465b307afee,
perumahan,Komplek perumahan,BAKONSU,"399M+FPV, Bakonsu, Kec. Lamandau, Kabupaten Lamandau, Kalimantan Tengah 74162","Bakonsu, Kec. Lamandau, Kabupaten Lamandau",KALIMANTAN TENGAH,74162.0,Indonesia,,,,-1.9312679,111.3842887,https://maps.google.com/?cid=0x0:0x54f9a45e7aa2449e,
perumahan,Petugas Perbatasan,TRANS KAHINGAI,"CC57+RX5, Kahingai, Kec. Belantikan Raya, Kabupaten Lamandau, Kalimantan Tengah 74162","Kahingai, Kec. Belantikan Raya, Kabupaten Lamandau",KALIMANTAN TENGAH,74162.0,Indonesia,,,,-1.5904858,111.4149962,https://maps.google.com/?cid=0x0:0x94d45bb8c1e5c905,
perumahan,perumahan,Utomo,"WJHM+58Q, Bukit Raya, Kec. Menthobi Raya, Kabupaten Lamandau, Kalimantan Tengah 74117","Bukit Raya, Kec. Menthobi Raya, Kabupaten Lamandau",KALIMANTAN TENGAH,74117.0,Indonesia,,,,-2.0714196,111.6335288,https://maps.google.com/?cid=0x0:0x1bada83eda03c47d,
perumahan,Perhimpunan Pengembang Perumahan,Camp Golfgolf (GG),"WHPV+VP, Bukit Raya, Kec. Menthobi Raya, Kabupaten Lamandau, Kalimantan Tengah 74117","Bukit Raya, Kec. Menthobi Raya, Kabupaten Lamandau",KALIMANTAN TENGAH,74117.0,Indonesia,,,,-2.0632978,111.5948505,https://maps.google.com/?cid=0x0:0x1d8b5a7cbb5b6384,
perumahan,Komplek perumahan,Rumah al_faiz,"3GR4+WWJ, Sukamaju, Kec. Bulik Tim., Kabupaten Lamandau, Kalimantan Tengah 74162","Sukamaju, Kec. Bulik Tim., Kabupaten Lamandau",KALIMANTAN TENGAH,74162.0,Indonesia,,,,-1.907675,111.5072682,https://maps.google.com/?cid=0x0:0xfaca0d5736321595,
perumahan,Perumahan,Rumah Suroso,"XM65+3R, Mukti Manunggal, Kec. Menthobi Raya, Kabupaten Lamandau, Kalimantan Tengah 74117","Mukti Manunggal, Kec. Menthobi Raya, Kabupaten Lamandau",KALIMANTAN TENGAH,74117.0,Indonesia,,,,-2.0397513,111.659576,https://maps.google.com/?cid=0x0:0x36c2acd7831c8574,
perumahan,Komplek perumahan,Rumah Ida,"VJJW+P4R, Bukit Harum, Kec. Menthobi Raya, Kabupaten Lamandau, Kalimantan Tengah 74117","Bukit Harum, Kec. Menthobi Raya, Kabupaten Lamandau",KALIMANTAN TENGAH,74117.0,Indonesia,,,,-2.1181289,111.6452527,https://maps.google.com/?cid=0x0:0x28db4adcc9bd6130,
perumahan,Komplek perumahan,Fridianto,"VFM5+7X, Arga Mulya, Kec. Bulik, Kabupaten Lamandau, Kalimantan Tengah 74162","Arga Mulya, Kec. Bulik, Kabupaten Lamandau",KALIMANTAN TENGAH,74162.0,Indonesia,,,,-2.116864,111.4599024,https://maps.google.com/?cid=0x0:0x69a40f6e269eb412,
perumahan,Komplek perumahan,Walet merah BUDI pengkolan,"4FGP+X7M, Bukit Jaya, Kec. Bulik Tim., Kabupaten Lamandau, Kalimantan Tengah 74162","Bukit Jaya, Kec. Bulik Tim., Kabupaten Lamandau",KALIMANTAN TENGAH,74162.0,Indonesia,,,,-1.8725331,111.4856848,https://maps.google.com/?cid=0x0:0x54bad315217b67a2,
perumahan,Kantor Perusahaan,Perumahan Staff BHMS,"393R+V53, Bakonsu, Kec. Lamandau, Kabupaten Lamandau, Kalimantan Tengah","Kabupaten Lamandau, Kalimantan Tengah",KALIMANTAN TENGAH,,Indonesia,,,,-1.9453676,111.3904301,https://maps.google.com/?cid=0x0:0x6e66b4125f8f64a4,
perumahan,Kantor Perusahaan,Perumahan Rayon 3 Bhms ustp,"2CV7+5WX, Unnamed Road, Nanga Belantikan, Kec. Belantikan Raya, Kabupaten Lamandau, Kalimantan Tengah 74162","Unnamed Road, Nanga Belantikan, Kec. Belantikan Raya, Kabupaten Lamandau",KALIMANTAN TENGAH,74162.0,Indonesia,,,,-1.9570247,111.4148618,https://maps.google.com/?cid=0x0:0xb4cc9a7fe343f567,
perumahan,Pembangunan Perumahan,"Afdeling Bravo, SCE","2GMF+GWW, Nanga Palikodan, Kec. Bulik Tim., Kabupaten Lamandau, Kalimantan Tengah 74162","Nanga Palikodan, Kec. Bulik Tim., Kabupaten Lamandau",KALIMANTAN TENGAH,74162.0,Indonesia,,,,-1.96614,111.52483,https://maps.google.com/?cid=0x0:0x9a7c2834a898f1a0,
perumahan,Komplek perumahan,My Home,"WHPV+VP, Bukit Raya, Kec. Menthobi Raya, Kabupaten Lamandau, Kalimantan Tengah 74117","Bukit Raya, Kec. Menthobi Raya, Kabupaten Lamandau",KALIMANTAN TENGAH,74117.0,Indonesia,,,,-2.0627759,111.594244,https://maps.google.com/?cid=0x0:0xbbbf720d4f394331,
perumahan,Komplek perumahan,Rumah pak suki,"3GV5+7XP, Sukamaju, Kec. Bulik Tim., Kabupaten Lamandau, Kalimantan Tengah 74162","Sukamaju, Kec. Bulik Tim., Kabupaten Lamandau",KALIMANTAN TENGAH,74162.0,Indonesia,82251527515.0,,,-1.9067971,111.5099514,https://maps.google.com/?cid=0x0:0x73f9a70f7a4d79be,
perumahan,Komplek perumahan,Rumah Tendi,"WH8R+H8, Bukit Makmur, Kec. Menthobi Raya, Kabupaten Lamandau, Kalimantan Tengah","Kabupaten Lamandau, Kalimantan Tengah",KALIMANTAN TENGAH,,Indonesia,,,,-2.08359,111.5907888,https://maps.google.com/?cid=0x0:0x6d3be4877040d312,
perumahan,perumahan,Kec. Sematu Jaya,"Kabupaten Lamandau, Kalimantan Tengah","Kabupaten Lamandau, Kalimantan Tengah",KALIMANTAN TENGAH,,Indonesia,,,,-2.2356757,111.5156988,https://maps.google.com/?cid=0x0:0xa84b471e5053bba1,
perumahan,Komplek perumahan,Perumahan Gang Mihing,"QHCP+3P, Wonorejo, Kec. Sematu Jaya, Kabupaten Lamandau, Kalimantan Tengah","Kabupaten Lamandau, Kalimantan Tengah",KALIMANTAN TENGAH,,Indonesia,,,,-2.229867,111.586853,https://maps.google.com/?cid=0x0:0x5c8051fa12a296,
perumahan,perumahan,P.SODIRAN,"PH62+Q2J sp6 Rt 12, Mekar Mulya, Kec. Sematu Jaya, Kabupaten Lamandau, Kalimantan Tengah","Kabupaten Lamandau, Kalimantan Tengah",KALIMANTAN TENGAH,,Indonesia,,,,-2.288025,111.5500102,https://maps.google.com/?cid=0x0:0xafe59def0dbb72fb,
perumahan,Komplek perumahan,RUMAH KELUARGA KU,"Rt01, RW.01, Purworejo, Sematu Jaya, Lamandau Regency, Central Kalimantan 74161","RW.01, Purworejo, Sematu Jaya, Lamandau Regency",KALIMANTAN TENGAH,74161.0,Indonesia,,,,-2.2383638,111.5289438,https://maps.google.com/?cid=0x0:0xc0ca0f777864eff9,
perumahan,Komplek perumahan,Rumah Kaesi Pramudita Nirmala,"QGQJ+V84, Bina Bhakti, Kec. Sematu Jaya, Kabupaten Lamandau, Kalimantan Tengah 74161","Bina Bhakti, Kec. Sematu Jaya, Kabupaten Lamandau",KALIMANTAN TENGAH,74161.0,Indonesia,,,,-2.2103555,111.5308381,https://maps.google.com/?cid=0x0:0xb7b2cf44b9a05985,
perumahan,Komplek perumahan,Rumah Kasni Rahayu,"QH4F+P26, Wonorejo, Kec. Sematu Jaya, Kabupaten Lamandau, Kalimantan Tengah 74161","Wonorejo, Kec. Sematu Jaya, Kabupaten Lamandau",KALIMANTAN TENGAH,74161.0,Indonesia,,,,-2.2432125,111.5725156,https://maps.google.com/?cid=0x0:0xd52289dcebb09866,
perumahan,Komplek perumahan,Rumah kotrek,"Purworejo sp 1, Purworejo, Kec. Sematu Jaya, Kabupaten Lamandau, Kalimantan Tengah 74161","Purworejo, Kec. Sematu Jaya, Kabupaten Lamandau",KALIMANTAN TENGAH,74161.0,Indonesia,,,,-2.2360155,111.5175841,https://maps.google.com/?cid=0x0:0x57adc5aa9a901911,
perumahan,Pembangunan Perumahan,PRATAMA,"PG4W+QR3, Mekar Mulya, Kec. Sematu Jaya, Kabupaten Lamandau, Kalimantan Tengah","Kabupaten Lamandau, Kalimantan Tengah",KALIMANTAN TENGAH,,Indonesia,,,,-2.292356,111.546555,https://maps.google.com/?cid=0x0:0xda98ec32bb7e5475,
perumahan,Komplek perumahan,Rumah mbah Min,"PHX9+587, Wonorejo, Kec. Sematu Jaya, Kabupaten Lamandau, Kalimantan Tengah","Kabupaten Lamandau, Kalimantan Tengah",KALIMANTAN TENGAH,,Indonesia,82256231172.0,,,-2.2520969,111.5682978,https://maps.google.com/?cid=0x0:0x7d995dca51276b06,
perumahan,Pembangunan Perumahan,Erfani@ja,"RH22+Q9, Tri Tunggal, Kec. Sematu Jaya, Kabupaten Lamandau, Kalimantan Tengah","Kabupaten Lamandau, Kalimantan Tengah",KALIMANTAN TENGAH,,Indonesia,,,,-2.1981911,111.5510344,https://maps.google.com/?cid=0x0:0xcc1d6bb7c203abf2,
perumahan,Pembangunan Perumahan,Suradi,"QG4C+428, Purworejo, Kec. Sematu Jaya, Kabupaten Lamandau, Kalimantan Tengah 74161","Purworejo, Kec. Sematu Jaya, Kabupaten Lamandau",KALIMANTAN TENGAH,74161.0,Indonesia,,,,-2.2447091,111.5200854,https://maps.google.com/?cid=0x0:0x61b434f879257d27,
perumahan,Komplek perumahan,Damar Mulya Abadi,"PH75+R9, Mekar Mulya, Kec. Sematu Jaya, Kabupaten Lamandau, Kalimantan Tengah 74161","Mekar Mulya, Kec. Sematu Jaya, Kabupaten Lamandau",KALIMANTAN TENGAH,74161.0,Indonesia,,,,-2.2854049,111.5584844,https://maps.google.com/?cid=0x0:0xe114cef4f78da8d7,
perumahan,Komplek perumahan,Rumah Susillo,"QGVR+5C3, Bina Bhakti, Kec. Sematu Jaya, Kabupaten Lamandau, Kalimantan Tengah 74161","Bina Bhakti, Kec. Sematu Jaya, Kabupaten Lamandau",KALIMANTAN TENGAH,74161.0,Indonesia,,,,-2.2071005,111.5410427,https://maps.google.com/?cid=0x0:0xc99811633e8f723a,
perumahan,Komplek perumahan,Anis surtiani,"QH3G+Q2, Wonorejo, Kec. Sematu Jaya, Kabupaten Lamandau, Kalimantan Tengah","Kabupaten Lamandau, Kalimantan Tengah",KALIMANTAN TENGAH,,Indonesia,,,,-2.2455031,111.5751046,https://maps.google.com/?cid=0x0:0xf3764188609499c7,
perumahan,Komplek perumahan,Rumah Anugerah,"QGWQ+WMC, Belakang masjid Nurul hikmah, Bina Bhakti, Kec. Sematu Jaya, Kabupaten Lamandau, Kalimantan Tengah 74161","Belakang masjid Nurul hikmah, Bina Bhakti, Kec. Sematu Jaya, Kabupaten Lamandau",KALIMANTAN TENGAH,74161.0,Indonesia,,,,-2.2026938,111.5391509,https://maps.google.com/?cid=0x0:0xc841132c709e7947,
perumahan,Perhimpunan Pengembang Perumahan,WAKA,"PHX9+PQ6, RT.13/RW.03, Wonorejo, Kec. Sematu Jaya, Kabupaten Lamandau, Kalimantan Tengah 74161","RT.13/RW.03, Wonorejo, Kec. Sematu Jaya, Kabupaten Lamandau",KALIMANTAN TENGAH,74161.0,Indonesia,,,,-2.2507068,111.5693952,https://maps.google.com/?cid=0x0:0xd0b4f980861fd00,
perumahan,Pembangunan Perumahan,bilqis,"QGC6+2HM, Desa PURWAREJA, Kec. Sematu Jaya, Kabupaten Lamandau, Kalimantan Tengah 74161","Desa PURWAREJA, Kec. Sematu Jaya, Kabupaten Lamandau",KALIMANTAN TENGAH,74161.0,Indonesia,,,,-2.229048,111.510658,https://maps.google.com/?cid=0x0:0x28c47c86f4f452a2,
perumahan,Komplek perumahan,Putri Residence,"QGQR+Q85, Bina Bhakti, Kec. Sematu Jaya, Kabupaten Lamandau, Kalimantan Tengah 74161","Bina Bhakti, Kec. Sematu Jaya, Kabupaten Lamandau",KALIMANTAN TENGAH,74161.0,Indonesia,,,,-2.2106174,111.540868,https://maps.google.com/?cid=0x0:0xaabe7572360758d,
perumahan,Komplek perumahan,RUMAH JUNA,"QGG6+JQ7, Jl. Lintas Kalimantan, Purworejo, Kec. Sematu Jaya, Kabupaten Lamandau, Kalimantan Tengah 74161","Jl. Lintas Kalimantan, Purworejo, Kec. Sematu Jaya, Kabupaten Lamandau",KALIMANTAN TENGAH,74161.0,Indonesia,,,,-2.2234934,111.5119193,https://maps.google.com/?cid=0x0:0xee03015150f99bed,
perumahan,Komplek perumahan,Rumah hajat smatu,"RH7M+52Q Ds Tritunggal jaya, Tri Tunggal, Kec. Sematu Jaya, Kabupaten Lamandau, Kalimantan Tengah","Kabupaten Lamandau, Kalimantan Tengah",KALIMANTAN TENGAH,,Indonesia,,,,-2.1870331,111.5826028,https://maps.google.com/?cid=0x0:0xf9f8332d5707d6ba,
perumahan,Agen Properti,JNE SEMATU,"PH83+R82, Mekar Mulya, Kec. Sematu Jaya, Kabupaten Lamandau, Kalimantan Tengah","Kabupaten Lamandau, Kalimantan Tengah",KALIMANTAN TENGAH,,Indonesia,81255626496.0,,,-2.2829876,111.553255,https://maps.google.com/?cid=0x0:0xea1d5ff1d7aeb4b9,
perumahan,Komplek perumahan,Alip w,"RH36+HV, Tri Tunggal, Kec. Sematu Jaya, Kabupaten Lamandau, Kalimantan Tengah 74161","Tri Tunggal, Kec. Sematu Jaya, Kabupaten Lamandau",KALIMANTAN TENGAH,74161.0,Indonesia,,,,-2.1955718,111.5611398,https://maps.google.com/?cid=0x0:0x7f5732250495f0d1,
perumahan,Komplek perumahan,Tempat nongkrong,"PG4W+M9W, Mekar Mulya, Kec. Sematu Jaya, Kabupaten Lamandau, Kalimantan Tengah","Kabupaten Lamandau, Kalimantan Tengah",KALIMANTAN TENGAH,,Indonesia,,,,-2.2932716,111.5459641,https://maps.google.com/?cid=0x0:0x27afb7a258e087ad,
perumahan,Rumah Kayu,Pukon audio,"RH65+X3, Tri Tunggal, Kec. Sematu Jaya, Kabupaten Lamandau, Kalimantan Tengah","Kabupaten Lamandau, Kalimantan Tengah",KALIMANTAN TENGAH,,Indonesia,,,,-2.18826,111.5577246,https://maps.google.com/?cid=0x0:0x50d1defd9266d536,
