Category,Real Category,Business Name,Address,City,State,Postal Code,Country,Phone,Email,Website,Latitude,Longitude,Map Link,Details Link
hotel,hotel,Kec. Tigi,"Kabupaten Deiyai, Papua","Kabupaten Deiyai, Papua",PAPUA,,Indonesia,,,,-4.0451767,136.278207,https://maps.google.com/?cid=0x0:0xd43bc44cb2e7a8f6,
hotel,hotel,Hotel Grand Papua Sentani,"Jalan Sosial No.388, Hinekombe, Kec. Sentani, Kabupaten Jayapura, Papua 99352","Hinekombe, Kec. Sentani, Kabupaten Jayapura",PAPUA,99352.0,Indonesia,8114827899.0,,,-2.557344,140.4958181,https://maps.google.com/?cid=0x0:0x9afaf186d23bb377,
hotel,hotel,Hotel Sahid Papua,"Jl. Klp. 2 No.18, Entrop, Distrik Jayapura Selatan, Kota Jayapura, Papua 99221","Entrop, Distrik Jayapura Selatan, Kota Jayapura",PAPUA,99221.0,Indonesia,811481167.0,,,-2.5661461,140.6996539,https://maps.google.com/?cid=0x0:0x9c8a2fd141b3aa33,
hotel,hotel,Hotel Horison Ultima Timika,"Jl. Hasanuddin No.9, Nawaripi, Kec. Mimika Baru, Kabupaten Mimika, Papua 99971","Nawaripi, Kec. Mimika Baru, Kabupaten Mimika",PAPUA,99971.0,Indonesia,9013264888.0,,,-4.5657683,136.8827914,https://maps.google.com/?cid=0x0:0x2acb1e774fc2c064,
hotel,hotel,,,,PAPUA,,Indonesia,,,,,,https://maps.google.com/?cid=0x0:0xbd14f75af0c6e48b%7C/g/120xv389%7Cen-ID,
hotel,hotel,"Swiss-Belhotel Jayapura, Papua","Pusat Bisnis Jayapura, Jl. Pacific Permai, Bayangkara, Kec. Jayapura Utara, Kota Jayapura, Papua 99112","Jl. Pacific Permai, Bayangkara, Kec. Jayapura Utara, Kota Jayapura",PAPUA,99112.0,Indonesia,967551888.0,,,-2.539046,140.711573,https://maps.google.com/?cid=0x0:0xbd14f75af0c6e48b,
hotel,hotel,Asana Biak Papua,"Jl. M Yamin No.04, Mandala, Kec. Biak Kota, Kabupaten Biak Numfor, Papua 98111","Mandala, Kec. Biak Kota, Kabupaten Biak Numfor",PAPUA,98111.0,Indonesia,8114743111.0,,,-1.1918619,136.1049095,https://maps.google.com/?cid=0x0:0x94321ded15c5a4a3,
hotel,hotel,GOLDEN STYLE Hotel Jayapura,"Pusat Bisnis, Jl. Pacific Permai No.10-11 Blok C, Bayangkara, Kec. Jayapura Utara, Kota Jayapura, Papua 99110","Jl. Pacific Permai No.10-11 Blok C, Bayangkara, Kec. Jayapura Utara, Kota Jayapura",PAPUA,99110.0,Indonesia,811480388.0,,,-2.5376736,140.710345,https://maps.google.com/?cid=0x0:0x15efde448a747754,
hotel,hotel,Hotel Serayu,"Jl. Yos Sudarso No.10, Koperapoka, Kec. Mimika Baru, Kabupaten Mimika, Papua 99971","Koperapoka, Kec. Mimika Baru, Kabupaten Mimika",PAPUA,99971.0,Indonesia,82199984085.0,,,-4.5492995,136.8902348,https://maps.google.com/?cid=0x0:0xe357fb3041308a6c,
hotel,hotel,Hotel Grand Talent Abepura,"9MV9+2QG, Jl. Kotaraja Grand, Wai Mhorock, Kec. Abepura, Kota Jayapura, Papua 99225","Jl. Kotaraja Grand, Wai Mhorock, Kec. Abepura, Kota Jayapura",PAPUA,99225.0,Indonesia,,,,-2.6074405,140.6694657,https://maps.google.com/?cid=0x0:0x589d02bf475f9068,
hotel,hotel,Bisnis Hotel,"Kwamki, Kec. Mimika Baru, Kabupaten Mimika, Papua 99971","Kec. Mimika Baru, Kabupaten Mimika",PAPUA,99971.0,Indonesia,9013264510.0,,,-4.5452777,136.8833867,https://maps.google.com/?cid=0x0:0x690d0340d9882c9c,
hotel,hotel,Rimba Papua Hotel,"Jl. Kwamki Narama No. 1, Kwamki, Kec. Mimika Baru, Kabupaten Mimika, Papua 99971","Kwamki, Kec. Mimika Baru, Kabupaten Mimika",PAPUA,99971.0,Indonesia,901494949.0,,,-4.5151124,136.884599,https://maps.google.com/?cid=0x0:0xa65056700db32492,
hotel,hotel,Horison Inn Relat Jayapura,"Jl. Pantai Klp. No.21 - 23, Argapura, Distrik Jayapura Selatan, Kota Jayapura, Papua","Kota Jayapura, Papua",PAPUA,,Indonesia,9675160779.0,,,-2.5537101,140.7148929,https://maps.google.com/?cid=0x0:0xb98fc1bbb5c5c494,
hotel,hotel,Hotel Karya Papua,"JGX6+2PM, Jl. R.E. Martadinata Kalinona, Nabarua, Distrik Nabire, Papua 98816","Jl. R.E. Martadinata Kalinona, Nabarua, Distrik Nabire",PAPUA,98816.0,Indonesia,82164655697.0,,,-3.3524082,135.5118114,https://maps.google.com/?cid=0x0:0x8196bf4b8aafbb3f,
hotel,hotel,Hotel Getz Nabire,"Jl. Merdeka No.16 I, Oyehe, Distrik Nabire, Kabupaten Nabire, Papua 98816","Oyehe, Distrik Nabire, Kabupaten Nabire",PAPUA,98816.0,Indonesia,81247569189.0,,,-3.3601669,135.5007178,https://maps.google.com/?cid=0x0:0xf8bbcc7a50b817c6,
hotel,hotel,Hotel Mahavira I,"Karang Mulia, Distrik Nabire, Kabupaten Nabire, Papua 98811","Distrik Nabire, Kabupaten Nabire",PAPUA,98811.0,Indonesia,,,,-3.3731863,135.5098879,https://maps.google.com/?cid=0x0:0xeffead9206fb0816,
hotel,hotel,BRILIAN HOME STAY,"Awabutu, Paniai Tim., Kabupaten Paniai, Papua 98726","Paniai Tim., Kabupaten Paniai",PAPUA,98726.0,Indonesia,,,,-3.9279032,136.374559,https://maps.google.com/?cid=0x0:0x7ec9835201b20301,
hotel,hotel,Hotel Golden Mimika,"Jl. Klp. Dua No.25, Kwamki, Kec. Mimika Baru, Kabupaten Mimika, Papua 99971","Kwamki, Kec. Mimika Baru, Kabupaten Mimika",PAPUA,99971.0,Indonesia,901323111.0,,,-4.544451,136.8879651,https://maps.google.com/?cid=0x0:0xc7ff62d17b20c3d1,
hotel,hotel,Galaxy Hotel Abepura,"Kp. Waena, Kec. Heram, Kota Jayapura, Papua 99351","Kec. Heram, Kota Jayapura",PAPUA,99351.0,Indonesia,81150500147.0,,,-2.5944039,140.6254198,https://maps.google.com/?cid=0x0:0xf9951793f247fc13,
hotel,hotel,Hotel Timika,"Jl. Hasanuddin No.9, Nawaripi, Kec. Mimika Baru, Kabupaten Mimika, Papua 99971","Nawaripi, Kec. Mimika Baru, Kabupaten Mimika",PAPUA,99971.0,Indonesia,,,,-4.566916,136.8828964,https://maps.google.com/?cid=0x0:0x51b78f3be0c597f8,
hotel,hotel,Hotel Anggrek,"Jl. Pepera No.22, Karang Mulia, Distrik Nabire, Kabupaten Nabire, Papua 98811","Karang Mulia, Distrik Nabire, Kabupaten Nabire",PAPUA,98811.0,Indonesia,81240315254.0,,,-3.3662236,135.5003587,https://maps.google.com/?cid=0x0:0x25fa928b6152fe40,
hotel,hotel,Hotel Anggrek,"Jl. Ambon No.1, Wamena Kota, Distrik Wamena, Kabupaten Jayawijaya, Papua 99511","Wamena Kota, Distrik Wamena, Kabupaten Jayawijaya",PAPUA,99511.0,Indonesia,,,,-4.0951401,138.9486951,https://maps.google.com/?cid=0x0:0x8c14510cd7032458,
hotel,hotel,,,,PAPUA,,Indonesia,,,,,,https://maps.google.com/?cid=0x0:0x4a37ba927853645b%7C/g/11y0l8mjv%7Cen-ID,
hotel,hotel,The Luxio Hotel,"Jl. Basuki Rahmat KM.12 Sorong, Malaingkedi, Kec. Sorong Utara, West Papua, Papua Bar. 98412","Malaingkedi, Kec. Sorong Utara, West Papua",PAPUA,98412.0,Indonesia,81344807777.0,,,-0.9040377,131.3236469,https://maps.google.com/?cid=0x0:0x4a37ba927853645b,
hotel,hotel,Hotel Grand Papua Nabire,"Jln christina martha tiahahu No.gang, Kalibobo, Klp. Dua, Kabupaten Nabire, Papua 98818","Kalibobo, Klp. Dua, Kabupaten Nabire",PAPUA,98818.0,Indonesia,811485907.0,,,-3.3671756,135.4846675,https://maps.google.com/?cid=0x0:0x3f34c171d042cba3,
hotel,hotel,Hotel JDF,"Jl. Semarang No.02, Kel, Karang Mulia, Distrik Nabire, Kabupaten Nabire, Papua 98811","Kel, Karang Mulia, Distrik Nabire, Kabupaten Nabire",PAPUA,98811.0,Indonesia,81248488859.0,,,-3.3696625,135.5079779,https://maps.google.com/?cid=0x0:0x7fa86e7c6f8973c8,
hotel,hotel,HOTEL Timika Indah Papua,"Jl. Jend. Ahmad Yani, Kwamki, Kec. Mimika Baru, Kabupaten Mimika, Papua 99910","Kwamki, Kec. Mimika Baru, Kabupaten Mimika",PAPUA,99910.0,Indonesia,8114900888.0,,,-4.5450918,136.8950181,https://maps.google.com/?cid=0x0:0x678db0783377d5c6,
hotel,hotel,Hotel R6,"Jl.Cendrawasih SP2, Papua 99952","Kabupaten Mimika, Papua",PAPUA,,Indonesia,82245112457.0,,,-4.538464,136.8691429,https://maps.google.com/?cid=0x0:0xb392d58fbaabfb69,
hotel,hotel,Eightin Hotel Sudirman Jakarta,"Jl. Bend. Jatiluhur No.25 5, Bend. Hilir, Kecamatan Tanah Abang, Kota Jakarta Pusat, Daerah Khusus Ibukota Jakarta 10210","Bend. Hilir, Kecamatan Tanah Abang, Kota Jakarta Pusat",PAPUA,10210.0,Indonesia,212520777.0,,,-6.2152225,106.8129765,https://maps.google.com/?cid=0x0:0xee872e79581b1561,
hotel,Hotel,Penginapan Jaya,"WC3Q+2P3, JLN MAKIMUGU, Bagou, Distrik Tigi Timur, Kabupaten Deiyai, Papua 98781","JLN MAKIMUGU, Bagou, Distrik Tigi Timur, Kabupaten Deiyai",PAPUA,98781.0,Indonesia,87767911078.0,,,-4.0974893,136.4393054,https://maps.google.com/?cid=0x0:0x96853a384e20ce7b,
hotel,Hotel,PENGINAPAN ALFAGO JAYA,"X73J+W9H, Wagete I, Kec. Tigi, Kabupaten Deiyai, Papua 98764","Wagete I, Kec. Tigi, Kabupaten Deiyai",PAPUA,98764.0,Indonesia,,,,-4.0451836,136.2809726,https://maps.google.com/?cid=0x0:0xbf7db8d3584431e7,
hotel,Hotel,Penginapan Jaya,"WC3Q+2P3, JLN MAKIMUGU, Bagou, Distrik Tigi Timur, Kabupaten Deiyai, Papua 98781","JLN MAKIMUGU, Bagou, Distrik Tigi Timur, Kabupaten Deiyai",PAPUA,98781.0,Indonesia,87767911078.0,,,-4.0974893,136.4393054,https://maps.google.com/?cid=0x0:0x96853a384e20ce7b,
hotel,Hotel,PENGINAPAN ALFAGO JAYA,"X73J+W9H, Wagete I, Kec. Tigi, Kabupaten Deiyai, Papua 98764","Wagete I, Kec. Tigi, Kabupaten Deiyai",PAPUA,98764.0,Indonesia,,,,-4.0451836,136.2809726,https://maps.google.com/?cid=0x0:0xbf7db8d3584431e7,
hotel,hotel,Kec. Bowobado,"Kabupaten Deiyai, Papua","Kabupaten Deiyai, Papua",PAPUA,,Indonesia,,,,-4.2893486,136.4664967,https://maps.google.com/?cid=0x0:0x52d6c40635f2f5da,
hotel,hotel,Asana Biak Papua,"Jl. M Yamin No.04, Mandala, Kec. Biak Kota, Kabupaten Biak Numfor, Papua 98111","Mandala, Kec. Biak Kota, Kabupaten Biak Numfor",PAPUA,98111.0,Indonesia,8114743111.0,,,-1.1918619,136.1049095,https://maps.google.com/?cid=0x0:0x94321ded15c5a4a3,
hotel,hotel,Rimba Papua Hotel,"Jl. Kwamki Narama No. 1, Kwamki, Kec. Mimika Baru, Kabupaten Mimika, Papua 99971","Kwamki, Kec. Mimika Baru, Kabupaten Mimika",PAPUA,99971.0,Indonesia,901494949.0,,,-4.5151124,136.884599,https://maps.google.com/?cid=0x0:0xa65056700db32492,
hotel,hotel,Papua 98781,Papua,Papua,PAPUA,,Indonesia,,,,-4.069466,136.4777687,https://maps.google.com/?cid=0x0:0x4515157402273e4e,
hotel,Hotel,Penginapan Jaya,"WC3Q+2P3, JLN MAKIMUGU, Bagou, Distrik Tigi Timur, Kabupaten Deiyai, Papua 98781","JLN MAKIMUGU, Bagou, Distrik Tigi Timur, Kabupaten Deiyai",PAPUA,98781.0,Indonesia,87767911078.0,,,-4.0974893,136.4393054,https://maps.google.com/?cid=0x0:0x96853a384e20ce7b,
hotel,hotel,BRILIAN HOME STAY,"Awabutu, Paniai Tim., Kabupaten Paniai, Papua 98726","Paniai Tim., Kabupaten Paniai",PAPUA,98726.0,Indonesia,,,,-3.9279032,136.374559,https://maps.google.com/?cid=0x0:0x7ec9835201b20301,
hotel,Hotel,PENGINAPAN SUBUR,"Jalan Awabutu, Bandara, Enarotali, Papua 98781","Bandara, Enarotali",PAPUA,98781.0,Indonesia,,,,-3.9273097,136.3802283,https://maps.google.com/?cid=0x0:0x8effadf00da647d6,
hotel,Bandara,Bandar Udara Internasional Mozes Kilangin Timika,"Kwamki, Kec. Mimika Baru, Kabupaten Mimika, Papua 99971","Kec. Mimika Baru, Kabupaten Mimika",PAPUA,99971.0,Indonesia,,,,-4.5271391,136.8837289,https://maps.google.com/?cid=0x0:0xace78dfb43cb33f7,
hotel,Rumah wisata,Guest House Paniai,"Tim, Enarotali, Paniai Tim., Kabupaten Paniai, Papua 98726","Enarotali, Paniai Tim., Kabupaten Paniai",PAPUA,98726.0,Indonesia,,,,-3.9284378,136.3780509,https://maps.google.com/?cid=0x0:0xe51fd99bf4dbdb51,
hotel,Hotel,PENGINAPAN ALFAGO JAYA,"X73J+W9H, Wagete I, Kec. Tigi, Kabupaten Deiyai, Papua 98764","Wagete I, Kec. Tigi, Kabupaten Deiyai",PAPUA,98764.0,Indonesia,,,,-4.0451836,136.2809726,https://maps.google.com/?cid=0x0:0xbf7db8d3584431e7,
hotel,hotel,Maxone Hotel Jayapura,"Jl. Percetakan Negara No.8, Gurabesi, Kec. Jayapura Utara, Kota Jayapura, Papua 99111","Gurabesi, Kec. Jayapura Utara, Kota Jayapura",PAPUA,99111.0,Indonesia,9675166111.0,,,-2.5401262,140.705014,https://maps.google.com/?cid=0x0:0xf6723813ba2c0961,
hotel,hotel,Rimba Papua Hotel,"Jl. Kwamki Narama No. 1, Kwamki, Kec. Mimika Baru, Kabupaten Mimika, Papua 99971","Kwamki, Kec. Mimika Baru, Kabupaten Mimika",PAPUA,99971.0,Indonesia,901494949.0,,,-4.5151124,136.884599,https://maps.google.com/?cid=0x0:0xa65056700db32492,
hotel,hotel,Papua 98727,"Distrik Tigi Timur, Kabupaten Deiyai, Papua","Kabupaten Deiyai, Papua",PAPUA,,Indonesia,,,,-4.0953564,136.2953347,https://maps.google.com/?cid=0x0:0x865418cd47f9666,
hotel,Pondok,Penginapan duta Tigi,"X74H+XCM, Waghete II, Kec. Tigi, Kabupaten Deiyai, Papua 98764","Waghete II, Kec. Tigi, Kabupaten Deiyai",PAPUA,98764.0,Indonesia,,,,-4.0425364,136.2785402,https://maps.google.com/?cid=0x0:0xa7b316cb5ce3db9a,
hotel,Hotel,PENGINAPAN ALFAGO JAYA,"X73J+W9H, Wagete I, Kec. Tigi, Kabupaten Deiyai, Papua 98764","Wagete I, Kec. Tigi, Kabupaten Deiyai",PAPUA,98764.0,Indonesia,,,,-4.0451836,136.2809726,https://maps.google.com/?cid=0x0:0xbf7db8d3584431e7,
hotel,hotel,Papua 98764,"Kec. Tigi, Kabupaten Deiyai, Papua","Kabupaten Deiyai, Papua",PAPUA,,Indonesia,,,,-4.0679047,136.2282927,https://maps.google.com/?cid=0x0:0xf921eabf702cc3ac,
hotel,Pondok,Penginapan duta Tigi,"X74H+XCM, Waghete II, Kec. Tigi, Kabupaten Deiyai, Papua 98764","Waghete II, Kec. Tigi, Kabupaten Deiyai",PAPUA,98764.0,Indonesia,,,,-4.0425364,136.2785402,https://maps.google.com/?cid=0x0:0xa7b316cb5ce3db9a,
hotel,Hotel,PENGINAPAN ALFAGO JAYA,"X73J+W9H, Wagete I, Kec. Tigi, Kabupaten Deiyai, Papua 98764","Wagete I, Kec. Tigi, Kabupaten Deiyai",PAPUA,98764.0,Indonesia,,,,-4.0451836,136.2809726,https://maps.google.com/?cid=0x0:0xbf7db8d3584431e7,
hotel,hotel,Papua 98727,"Distrik Tigi Timur, Kabupaten Deiyai, Papua","Kabupaten Deiyai, Papua",PAPUA,,Indonesia,,,,-4.0953564,136.2953347,https://maps.google.com/?cid=0x0:0x865418cd47f9666,
hotel,hotel,Arumbai Hotel,"Jl. Imam Bonjol No.2, Fandoi, Kec. Biak Kota, Kabupaten Biak Numfor, Papua 98111","Fandoi, Kec. Biak Kota, Kabupaten Biak Numfor",PAPUA,98111.0,Indonesia,,,,-1.1831962,136.0817419,https://maps.google.com/?cid=0x0:0x92f1df543a771343,
hotel,hotel,Asana Biak Papua,"Jl. M Yamin No.04, Mandala, Kec. Biak Kota, Kabupaten Biak Numfor, Papua 98111","Mandala, Kec. Biak Kota, Kabupaten Biak Numfor",PAPUA,98111.0,Indonesia,8114743111.0,,,-1.1918619,136.1049095,https://maps.google.com/?cid=0x0:0x94321ded15c5a4a3,
hotel,hotel,Rimba Papua Hotel,"Jl. Kwamki Narama No. 1, Kwamki, Kec. Mimika Baru, Kabupaten Mimika, Papua 99971","Kwamki, Kec. Mimika Baru, Kabupaten Mimika",PAPUA,99971.0,Indonesia,901494949.0,,,-4.5151124,136.884599,https://maps.google.com/?cid=0x0:0xa65056700db32492,
hotel,hotel,Hotel Karya Papua,"JGX6+2PM, Jl. R.E. Martadinata Kalinona, Nabarua, Distrik Nabire, Papua 98816","Jl. R.E. Martadinata Kalinona, Nabarua, Distrik Nabire",PAPUA,98816.0,Indonesia,82164655697.0,,,-3.3524082,135.5118114,https://maps.google.com/?cid=0x0:0x8196bf4b8aafbb3f,
hotel,hotel,BRILIAN HOME STAY,"Awabutu, Paniai Tim., Kabupaten Paniai, Papua 98726","Paniai Tim., Kabupaten Paniai",PAPUA,98726.0,Indonesia,,,,-3.9279032,136.374559,https://maps.google.com/?cid=0x0:0x7ec9835201b20301,
hotel,hotel,Intsia Beach Hotel,"Jl. Walter Monginsidi No.7, Fandoi, Kec. Biak Kota, Kabupaten Biak Numfor, Papua 98111","Fandoi, Kec. Biak Kota, Kabupaten Biak Numfor",PAPUA,98111.0,Indonesia,98121891.0,,,-1.1862086,136.0837686,https://maps.google.com/?cid=0x0:0x564eb7930861f544,
hotel,hotel,Penginapan Paparisa Amungsa,"Koperapoka, Kec. Mimika Baru, Kabupaten Mimika, Papua 99971","Kec. Mimika Baru, Kabupaten Mimika",PAPUA,99971.0,Indonesia,81343206383.0,,,-4.5385795,136.8755667,https://maps.google.com/?cid=0x0:0xfd07a1d4446c8f23,
hotel,hotel,Hotel Mapia,"Jl. Jend. Ahmad Yani No.23, Mandala, Kec. Biak Kota, Kabupaten Biak Numfor, Papua 98111","Mandala, Kec. Biak Kota, Kabupaten Biak Numfor",PAPUA,98111.0,Indonesia,98121383.0,,,-1.1848375,136.0856602,https://maps.google.com/?cid=0x0:0x15f6e40202cd7120,
hotel,hotel,Hotel Manna,"Jl. Imam Bonjol, Fandoi, Biak Papua, Kabupaten Biak Numfor, Papua 98112","Fandoi, Biak Papua, Kabupaten Biak Numfor",PAPUA,98112.0,Indonesia,98122224.0,,,-1.1808075,136.0821667,https://maps.google.com/?cid=0x0:0x58ba27a7cb3a5bd6,
hotel,hotel,Hotel Marasi,"R445+X37, Jl. M Yamin, Ambroben, Kec. Biak Kota, Kabupaten Biak Numfor, Papua 98118","Jl. M Yamin, Ambroben, Kec. Biak Kota, Kabupaten Biak Numfor",PAPUA,98118.0,Indonesia,,,,-1.192595,136.1076812,https://maps.google.com/?cid=0x0:0x166c2b58a3cf153e,
hotel,hotel,Hotel R6,"Jl.Cendrawasih SP2, Papua 99952","Kabupaten Mimika, Papua",PAPUA,,Indonesia,82245112457.0,,,-4.538464,136.8691429,https://maps.google.com/?cid=0x0:0xb392d58fbaabfb69,
hotel,Hotel,RAFA HOTEL,"9MXC+PQ7, Vim, Kec. Abepura, Kota Jayapura, Papua","Kota Jayapura, Papua",PAPUA,,Indonesia,,,,-2.6011488,140.6717368,https://maps.google.com/?cid=0x0:0x18c6cc75351cda98,
hotel,hotel,Kapiraya,"Komauto, Kabupaten Deiyai, Papua","Kabupaten Deiyai, Papua",PAPUA,,Indonesia,,,,-4.1874373,136.1900242,https://maps.google.com/?cid=0x0:0xc42ba021855150df,
hotel,hotel,Hotel Grand Papua Kaimana,"Lingkar tanjung simora, Kroy, Kec. Kaimana, Kabupaten Kaimana, Papua Bar. 98654","Kroy, Kec. Kaimana, Kabupaten Kaimana",PAPUA,98654.0,Indonesia,82248850669.0,,,-3.6691103,133.7028408,https://maps.google.com/?cid=0x0:0x964de24b7e359ec2,
restaurant,restaurant,Kec. Tigi,"Kabupaten Deiyai, Papua","Kabupaten Deiyai, Papua",PAPUA,,Indonesia,,,,-4.0451767,136.278207,https://maps.google.com/?cid=0x0:0xd43bc44cb2e7a8f6,
restaurant,Rumah wisata,Homestay Nona Maria,"X78Q+54C, Jl. Mugou Kebo, Waghete II, Kec. Tigi, Kabupaten Deiyai, Papua 98764","Jl. Mugou Kebo, Waghete II, Kec. Tigi, Kabupaten Deiyai",PAPUA,98764.0,Indonesia,81247178835.0,,,-4.034571,136.2877706,https://maps.google.com/?cid=0x0:0x42ff8ddf3e12a645,
restaurant,Rumah Makan,Rumah Makan Blambangan,"Wagete I, Kec. Tigi, Kabupaten Deiyai, Papua","Kabupaten Deiyai, Papua",PAPUA,,Indonesia,,,,-4.0463694,136.2802612,https://maps.google.com/?cid=0x0:0xa12c2d88599107af,
restaurant,Rumah Makan,RM Solata,"X73G+3XW, Jl. Waghete Raya, Wagete I, Kec. Tigi, Kabupaten Deiyai, Papua 98764","Jl. Waghete Raya, Wagete I, Kec. Tigi, Kabupaten Deiyai",PAPUA,98764.0,Indonesia,,,,-4.0472538,136.277445,https://maps.google.com/?cid=0x0:0x95e66ed7d8a1e777,
restaurant,Komplek perumahan,Fixz,"X72P+F7R, Wagete I, Kec. Tigi, Kabupaten Deiyai, Papua 98764","Wagete I, Kec. Tigi, Kabupaten Deiyai",PAPUA,98764.0,Indonesia,81212367238.0,,,-4.0487631,136.285648,https://maps.google.com/?cid=0x0:0x884c81fe4377176f,
restaurant,restaurant,Refi Sagita Jaya Kafe,"Okomokebo, Kec. Tigi, Kabupaten Deiyai, Papua 98764","Kec. Tigi, Kabupaten Deiyai",PAPUA,98764.0,Indonesia,,,,-4.052251,136.2840365,https://maps.google.com/?cid=0x0:0x814e25fa82720a2f,
restaurant,restaurant,Warung Sekarwangi,"X77V+H3R, Waghete II, Kec. Tigi, Kabupaten Deiyai, Papua 98764","Waghete II, Kec. Tigi, Kabupaten Deiyai",PAPUA,98764.0,Indonesia,81393776981.0,,,-4.0355216,136.2925827,https://maps.google.com/?cid=0x0:0x724ac7c08be7ca08,
restaurant,restaurant,RM Jeng Ello,"X78X+MQ8, Waghete II, Kec. Tigi, Kabupaten Deiyai, Papua 98764","Waghete II, Kec. Tigi, Kabupaten Deiyai",PAPUA,98764.0,Indonesia,,,,-4.0333308,136.2994497,https://maps.google.com/?cid=0x0:0xd4a4b72b7916e45b,
restaurant,restaurant,Ulina Panggabean,"X78V+CMQ, Waghete II, Kec. Tigi, Kabupaten Deiyai, Papua 98764","Waghete II, Kec. Tigi, Kabupaten Deiyai",PAPUA,98764.0,Indonesia,,,,-4.0339219,136.2942215,https://maps.google.com/?cid=0x0:0xe20db3a918d9086e,
restaurant,Masakan Asia,Goodtime Restaurant  Bar,"Jl. Senopati No.74, Selong, Kec. Kby. Lama, Kota Jakarta Selatan, Daerah Khusus Ibukota Jakarta 12110","Selong, Kec. Kby. Lama, Kota Jakarta Selatan",PAPUA,12110.0,Indonesia,85216506506.0,,,-6.232192,106.810501,https://maps.google.com/?cid=0x0:0xec3b59150718138a,
restaurant,Kafe,TATITU Resto  Coffee,"Ruko ICE Business Park, Jl. BSD Grand Boulevard No.F/7, Pagedangan, Kec. Pagedangan, Kabupaten Tangerang, Banten 15339","Jl. BSD Grand Boulevard No.F/7, Pagedangan, Kec. Pagedangan, Kabupaten Tangerang",PAPUA,15339.0,Indonesia,81389405157.0,,,-6.303742,106.6340875,https://maps.google.com/?cid=0x0:0xed4c11ee5b856095,
restaurant,Restoran,83 Kitchen Kedoya,"Jl. Kedoya Pesing No.26, Kedoya Sel., Kec. Kb. Jeruk, Kota Jakarta Barat, Daerah Khusus Ibukota Jakarta 11520","Kedoya Sel., Kec. Kb. Jeruk, Kota Jakarta Barat",PAPUA,11520.0,Indonesia,81222234946.0,,,-6.1792312,106.7578163,https://maps.google.com/?cid=0x0:0x19739563f59a8510,
restaurant,Pusat Perbelanjaan,East Coast PIK Golf Island,"Jl. Pulau Maju Bersama, Jakarta, Daerah Khusus Ibukota Jakarta 14460",Jakarta,PAPUA,14460.0,Indonesia,,,,-6.0925213,106.7487173,https://maps.google.com/?cid=0x0:0x7705f1926ee1fd83,
restaurant,Malaysia,Potteria - Greenville,"Jl. Green Ville No.19, RT.8/RW.14, Duri Kepa, Kec. Kb. Jeruk, Kota Jakarta Barat, Daerah Khusus Ibukota Jakarta 11510","RT.8/RW.14, Duri Kepa, Kec. Kb. Jeruk, Kota Jakarta Barat",PAPUA,11510.0,Indonesia,81230002920.0,,,-6.169113,106.772851,https://maps.google.com/?cid=0x0:0xfca13509f344a41f,
restaurant,Kafe,Satu Meja,"Jl. Tj. Duren Utara 4 No.464 11, RT.11/RW.3, Tj. Duren Utara, Kec. Grogol petamburan, Kota Jakarta Barat, Daerah Khusus Ibukota Jakarta 11470","RT.11/RW.3, Tj. Duren Utara, Kec. Grogol petamburan, Kota Jakarta Barat",PAPUA,11470.0,Indonesia,81234569884.0,,,-6.1702274,106.7829131,https://maps.google.com/?cid=0x0:0xc5e199a8150ee887,
restaurant,Indonesia,Kalandara Restaurant,"Jl. Iskandarsyah Raya No.65, Melawai, Kec. Kby. Baru, Kota Jakarta Selatan, Daerah Khusus Ibukota Jakarta 12160","Melawai, Kec. Kby. Baru, Kota Jakarta Selatan",PAPUA,12160.0,Indonesia,,,,-6.2444585,106.8041119,https://maps.google.com/?cid=0x0:0x3063b9fb72c1df54,
restaurant,China,Potteria - Gading Serpong,"Aniva Junction Paramount, Jl. Pd. Jengkol - Medang B30 - B31, Medang, Kec. Pagedangan, Kabupaten Tangerang, Banten 15334","Jl. Pd. Jengkol - Medang B30 - B31, Medang, Kec. Pagedangan, Kabupaten Tangerang",PAPUA,15334.0,Indonesia,81290001736.0,,,-6.270501,106.6244082,https://maps.google.com/?cid=0x0:0x582d7a48cbcd526e,
restaurant,Steak,Potteria - Bintaro Jaya Xchange Mall,"Bintaro Jaya Xchange Mall Lt. GF Boulevard Bintaro Jaya, Bintaro, Jaya Sektor VII Aren, Tangerang, Pd. Jaya, Kec. Pd. Aren, Kota Tangerang Selatan, Banten 15227","Bintaro, Jaya Sektor VII Aren, Tangerang, Pd. Jaya, Kec. Pd. Aren, Kota Tangerang Selatan",PAPUA,15227.0,Indonesia,81260001581.0,,,-6.28494,106.7282888,https://maps.google.com/?cid=0x0:0xa269dabd084a7649,
restaurant,restaurant,Hong Tang East Coast,"EAST COAST, Jl. Pulau Maju Bersama Jl. Pantai Indah Kapuk, Daerah Khusus Ibukota Jakarta 14460",Jl. Pulau Maju Bersama Jl. Pantai Indah Kapuk,PAPUA,14460.0,Indonesia,,,,-6.0920735,106.7470948,https://maps.google.com/?cid=0x0:0xdfe27e22ed24f6b5,
restaurant,Masakan Asia,REDBEAR,"Jl Springs Boulevard Ruko, South Jl. Goldfinch Raya No.32 Blok E No 29, Kabupaten Tangerang, Banten 15332","South Jl. Goldfinch Raya No.32 Blok E No 29, Kabupaten Tangerang",PAPUA,15332.0,Indonesia,81299981086.0,,,-6.2738338,106.6345627,https://maps.google.com/?cid=0x0:0x220e29072be489a3,
restaurant,restaurant,Papua 98781,Papua,Papua,PAPUA,,Indonesia,,,,-4.069466,136.4777687,https://maps.google.com/?cid=0x0:0x4515157402273e4e,
restaurant,Rumah Makan,Rumah Makan Blambangan,"Wagete I, Kec. Tigi, Kabupaten Deiyai, Papua","Kabupaten Deiyai, Papua",PAPUA,,Indonesia,,,,-4.0463694,136.2802612,https://maps.google.com/?cid=0x0:0xa12c2d88599107af,
restaurant,Rumah wisata,Homestay Nona Maria,"X78Q+54C, Jl. Mugou Kebo, Waghete II, Kec. Tigi, Kabupaten Deiyai, Papua 98764","Jl. Mugou Kebo, Waghete II, Kec. Tigi, Kabupaten Deiyai",PAPUA,98764.0,Indonesia,81247178835.0,,,-4.034571,136.2877706,https://maps.google.com/?cid=0x0:0x42ff8ddf3e12a645,
restaurant,Padang,Resto Yougwa Danau Sentani,"Jl. Batu Ceper No.73 15, RT.15/RW.1, Kb. Klp., Kecamatan Gambir, Kota Jakarta Pusat, Daerah Khusus Ibukota Jakarta 10120","RT.15/RW.1, Kb. Klp., Kecamatan Gambir, Kota Jakarta Pusat",PAPUA,10120.0,Indonesia,8119622272.0,,,-6.162043,106.8243928,https://maps.google.com/?cid=0x0:0xd6689d47fce71c89,
restaurant,Rumah Makan,Rumah Makan Nabila,"Jalan Bandara Baru No.1, Wagete I, Kec. Tigi, Kabupaten Deiyai, Papua 98764","Wagete I, Kec. Tigi, Kabupaten Deiyai",PAPUA,98764.0,Indonesia,82198042640.0,,,-4.0465434,136.2807028,https://maps.google.com/?cid=0x0:0x176c4263deeb37fa,
restaurant,Toko,Kios iche,"Kogekotu, Paniai Tim., Kabupaten Paniai, Papua 98711","Paniai Tim., Kabupaten Paniai",PAPUA,98711.0,Indonesia,,,,-3.9248571,136.3808195,https://maps.google.com/?cid=0x0:0xc16b032b51c1ea7a,
restaurant,Brunch,KEDAI ANUGERAH,"komplek konter hp, Jl frans kaisepo, Enarotali, Paniai Tim., Kabupaten Paniai, Papua 98711","Jl frans kaisepo, Enarotali, Paniai Tim., Kabupaten Paniai",PAPUA,98711.0,Indonesia,82376765103.0,,,-3.9281379,136.3764293,https://maps.google.com/?cid=0x0:0x9bba2e6dd7841f88,
restaurant,Brunch,Warung Lamongan Indah,"39CH+4GP, Enarotali, Paniai Tim., Kabupaten Paniai, Papua 98700","Enarotali, Paniai Tim., Kabupaten Paniai",PAPUA,98700.0,Indonesia,81344008878.0,,,-3.9296724,136.378833,https://maps.google.com/?cid=0x0:0x154bc4eb517fc431,
restaurant,Brunch,Wr zhaskya 99,"Enarotali, Paniai Tim., Kabupaten Paniai, Papua","Kabupaten Paniai, Papua",PAPUA,,Indonesia,81343456417.0,,,-3.9294063,136.3783399,https://maps.google.com/?cid=0x0:0xf81dd6fa6375c5a1,
restaurant,Restoran,Martabak Daeng,"39CG+GM5, Enarotali, Paniai Tim., Kabupaten Paniai, Papua 98726","Enarotali, Paniai Tim., Kabupaten Paniai",PAPUA,98726.0,Indonesia,,,,-3.9287167,136.3765586,https://maps.google.com/?cid=0x0:0x8231c5c398d89ecb,
restaurant,Produsen,SEMERU GROUP (wifi),"Unnamed Road, Awabutu, Paniai Tim., Kabupaten Paniai, Papua 98726","Awabutu, Paniai Tim., Kabupaten Paniai",PAPUA,98726.0,Indonesia,85235399517.0,,,-3.928367,136.3785859,https://maps.google.com/?cid=0x0:0x64a880d0958b0284,
restaurant,Warnet,Warnet Makobar Madi,"2CWH+76R, Jl. Raya Madi, Umbutu / Uyubutu / Uwibutu, Paniai Tim., Kabupaten Paniai, Papua 98781","Jl. Raya Madi, Umbutu / Uyubutu / Uwibutu, Paniai Tim., Kabupaten Paniai",PAPUA,98781.0,Indonesia,82238145255.0,,,-3.9542715,136.4280208,https://maps.google.com/?cid=0x0:0xc511976dcf0183da,
restaurant,Ayam,WR.TENDA BIRU AREMA,"Enarotali, Paniai Tim., Kabupaten Paniai, Papua","Kabupaten Paniai, Papua",PAPUA,,Indonesia,82139627626.0,,,-3.9272697,136.3812397,https://maps.google.com/?cid=0x0:0xec5f109161c92462,
restaurant,Sarapan,Koya Coffe,"39CH+68P, Enarotali, Paniai Tim., Kabupaten Paniai, Papua","Kabupaten Paniai, Papua",PAPUA,,Indonesia,81270421195.0,,,-3.9294125,136.3783403,https://maps.google.com/?cid=0x0:0x88c352bf7637bbd,
restaurant,Kedai Kopi,Zagena Cafe,"3C4H+FQX, Jl. Raya Madi, Umbutu / Uyubutu / Uwibutu, Paniai Tim., Kabupaten Paniai, Papua 98781","Jl. Raya Madi, Umbutu / Uyubutu / Uwibutu, Paniai Tim., Kabupaten Paniai",PAPUA,98781.0,Indonesia,,,,-3.9438886,136.4296684,https://maps.google.com/?cid=0x0:0xfb18ee9bb02c050d,
restaurant,Rumah Makan,RM Solata,"X73G+3XW, Jl. Waghete Raya, Wagete I, Kec. Tigi, Kabupaten Deiyai, Papua 98764","Jl. Waghete Raya, Wagete I, Kec. Tigi, Kabupaten Deiyai",PAPUA,98764.0,Indonesia,,,,-4.0472538,136.277445,https://maps.google.com/?cid=0x0:0x95e66ed7d8a1e777,
restaurant,Dapur Umum,Warung makan pahala,"39CH+77P, puskesmas No.depan, Enarotali, Paniai Tim., Kabupaten Paniai, Papua 98726","puskesmas No.depan, Enarotali, Paniai Tim., Kabupaten Paniai",PAPUA,98726.0,Indonesia,,,,-3.9291696,136.3782021,https://maps.google.com/?cid=0x0:0xc9f33df5e58a830f,
restaurant,Rumah Makan,Warung makan tenda biru,"39CH+764, Enarotali, Paniai Tim., Kabupaten Paniai, Papua","Kabupaten Paniai, Papua",PAPUA,,Indonesia,,,,-3.9293592,136.3780656,https://maps.google.com/?cid=0x0:0x96ddea90929a6ea0,
restaurant,restaurant,Warung Makan Kampoeng Kita,"3C3J+339, Jl. Raya Madi-Enaro, Umbutu, Umbutu / Uyubutu / Uwibutu, Paniai Tim., Kabupaten Paniai, Papua 98781","Jl. Raya Madi-Enaro, Umbutu, Umbutu / Uyubutu / Uwibutu, Paniai Tim., Kabupaten Paniai",PAPUA,98781.0,Indonesia,,,,-3.9473477,136.4302323,https://maps.google.com/?cid=0x0:0x55a1de1a1ebf7823,
restaurant,Kantor Perusahaan,Tower Telkomsel,"3C5G+56X, Madi, Paniai Tim., Kabupaten Paniai, Papua 98781","Madi, Paniai Tim., Kabupaten Paniai",PAPUA,98781.0,Indonesia,,,,-3.9422125,136.4251994,https://maps.google.com/?cid=0x0:0xb42c67e133bc22b9,
restaurant,Warnet,Camar Net Station,"399J+77P, Enarotali, Paniai Tim., Kabupaten Paniai, Papua 98726","Enarotali, Paniai Tim., Kabupaten Paniai",PAPUA,98726.0,Indonesia,,,,-3.9317853,136.3807098,https://maps.google.com/?cid=0x0:0x5af405ce0b9df892,
restaurant,Warnet,VELOCE SERVER,"3C4G+9JV, Jl. Raya Madi, Madi, Paniai Tim., Kabupaten Paniai, Papua 98781","Jl. Raya Madi, Madi, Paniai Tim., Kabupaten Paniai",PAPUA,98781.0,Indonesia,,,,-3.9440076,136.4265409,https://maps.google.com/?cid=0x0:0x77e4caac1b6c68ba,
restaurant,restaurant,Kec. Bowobado,"Kabupaten Deiyai, Papua","Kabupaten Deiyai, Papua",PAPUA,,Indonesia,,,,-4.2893486,136.4664967,https://maps.google.com/?cid=0x0:0x52d6c40635f2f5da,
restaurant,Restoran,Restaurant Yougwa,"CJ63+H23, Jl. Raya Abepura - Sentani, Asei Kecil, Kec. Sentani Tim., Kabupaten Jayapura, Papua 99351","Jl. Raya Abepura - Sentani, Asei Kecil, Kec. Sentani Tim., Kabupaten Jayapura",PAPUA,99351.0,Indonesia,8114801448.0,,,-2.5886245,140.602559,https://maps.google.com/?cid=0x0:0x65e60fc66014e79c,
restaurant,restaurant,Elit Papua,"V7GG+24F, Tenedagi, Distrik Tigi Barat, Kabupaten Deiyai, Papua 97888","Tenedagi, Distrik Tigi Barat, Kabupaten Deiyai",PAPUA,97888.0,Indonesia,,,,-4.124948,136.275299,https://maps.google.com/?cid=0x0:0xab402e919ce7a2dd,
restaurant,Mi,Kedai Bakmi Baba Oco,"BSD City, Ruko Griya Loka Sektor 1.2 Blok RD2/5, Rawa Buntu, Serpong Sub-District, South Tangerang City, Banten 15318","Ruko Griya Loka Sektor 1.2 Blok RD2/5, Rawa Buntu, Serpong Sub-District, South Tangerang City",PAPUA,15318.0,Indonesia,81996181399.0,,,-6.3039825,106.6832988,https://maps.google.com/?cid=0x0:0x245877effbad6800,
restaurant,Masakan Asia,Bowbo Xpress,"Jalan Regensi Melati Mas C - D Blok L5 No. 17, Jelupang, Kec. Serpong Utara, Kota Tangerang Selatan, Banten 15323","Jelupang, Kec. Serpong Utara, Kota Tangerang Selatan",PAPUA,15323.0,Indonesia,82322793931.0,,,-6.26127,106.6636056,https://maps.google.com/?cid=0x0:0xc4fb7c4f54fd4bd0,
restaurant,Thailand,Busaba A Thai Cafe,"Pacific Place Mall, Jl. Jenderal Sudirman No.52-53 Ground Floor, RT.5/RW.3, Senayan, Kec. Kby. Baru, Kota Jakarta Selatan, Daerah Khusus Ibukota Jakarta 12190","Jl. Jenderal Sudirman No.52-53 Ground Floor, RT.5/RW.3, Senayan, Kec. Kby. Baru, Kota Jakarta Selatan",PAPUA,12190.0,Indonesia,81936113485.0,,,-6.224618,106.8099103,https://maps.google.com/?cid=0x0:0x2012a2bd6be6f5b7,
restaurant,Restoran,Takeshita Restaurant,"Ruko North Goldfinch 68, Kabupaten Tangerang, Banten 15117",Kabupaten Tangerang,PAPUA,15117.0,Indonesia,85773331201.0,,,-6.2734298,106.6414175,https://maps.google.com/?cid=0x0:0xe92f380a9451822a,
restaurant,Thailand,"Busaba a Thai CafÃ©, Street Gallery PIM","Pd. Indah Mall Street Gallery, Jl. Metro Pondok Indah Blok III B, RT.1/RW.16, Pd. Pinang, Kec. Kby. Lama, Jakarta, Daerah Khusus Ibukota Jakarta 12310","Jl. Metro Pondok Indah Blok III B, RT.1/RW.16, Pd. Pinang, Kec. Kby. Lama, Jakarta",PAPUA,12310.0,Indonesia,82128905178.0,,,-6.2677154,106.7840097,https://maps.google.com/?cid=0x0:0x2cbe088624a97b5e,
restaurant,Thailand,"Busaba a Thai CafÃ©, PIK Avenue","PIK Avenue Mall, Jl. Pantai Indah Kapuk Boulevard, RT.6/RW.2, Kamal Muara, Kec. Penjaringan, Jkt Utara, Daerah Khusus Ibukota Jakarta 14470","Jl. Pantai Indah Kapuk Boulevard, RT.6/RW.2, Kamal Muara, Kec. Penjaringan, Jkt Utara",PAPUA,14470.0,Indonesia,87865629477.0,,,-6.1085172,106.7403439,https://maps.google.com/?cid=0x0:0x1c1f74b1b3d38c8b,
restaurant,Restoran,Street Gallery Pondok Indah Mall,"Jalan Metro Pondok Indah Blok III B, RT.1/RW.16, Pd. Pinang, Kec. Kby. Lama, Daerah Khusus Ibukota Jakarta 12310","RT.1/RW.16, Pd. Pinang, Kec. Kby. Lama",PAPUA,12310.0,Indonesia,217506750.0,,,-6.267232,106.7840331,https://maps.google.com/?cid=0x0:0x60c6289f86e323ae,
restaurant,Kedai Kopi,27 Maret Noodle  Sate bar,"Jl. Buaran Timur, Jelupang, Kec. Serpong Utara, Kota Tangerang Selatan, Banten 15323","Jelupang, Kec. Serpong Utara, Kota Tangerang Selatan",PAPUA,15323.0,Indonesia,85198971185.0,,,-6.2675948,106.6749989,https://maps.google.com/?cid=0x0:0xee042c1a14b8fd1b,
restaurant,BBQ,"Iga Bakar Rempah, Warung Iga  Kopi, Alam Sutera","Alam Sutera Town Center (ASTC) 10C no 38, Pakulonan, Kec. Serpong Utara, Kota Tangerang Selatan, Banten 15325","Pakulonan, Kec. Serpong Utara, Kota Tangerang Selatan",PAPUA,15325.0,Indonesia,85179938380.0,,,-6.2427685,106.6539237,https://maps.google.com/?cid=0x0:0x99b5cddc151994e2,
restaurant,restaurant,Papua 98781,Papua,Papua,PAPUA,,Indonesia,,,,-4.069466,136.4777687,https://maps.google.com/?cid=0x0:0x4515157402273e4e,
restaurant,Ayam,Warung Makan Embun Hermon,"3C2J+X23, Jl. Raya Madi, Umbutu / Uyubutu / Uwibutu, Paniai Tim., Kabupaten Paniai, Papua 98781","Jl. Raya Madi, Umbutu / Uyubutu / Uwibutu, Paniai Tim., Kabupaten Paniai",PAPUA,98781.0,Indonesia,81341529899.0,,,-3.9476149,136.4300432,https://maps.google.com/?cid=0x0:0x125fb7828c04b5aa,
restaurant,Rumah Makan,Rumah Makan Blambangan,"Wagete I, Kec. Tigi, Kabupaten Deiyai, Papua","Kabupaten Deiyai, Papua",PAPUA,,Indonesia,,,,-4.0463694,136.2802612,https://maps.google.com/?cid=0x0:0xa12c2d88599107af,
restaurant,Warnet,Warnet Makobar Madi,"2CWH+76R, Jl. Raya Madi, Umbutu / Uyubutu / Uwibutu, Paniai Tim., Kabupaten Paniai, Papua 98781","Jl. Raya Madi, Umbutu / Uyubutu / Uwibutu, Paniai Tim., Kabupaten Paniai",PAPUA,98781.0,Indonesia,82238145255.0,,,-3.9542715,136.4280208,https://maps.google.com/?cid=0x0:0xc511976dcf0183da,
restaurant,Toko,Kios iche,"Kogekotu, Paniai Tim., Kabupaten Paniai, Papua 98711","Paniai Tim., Kabupaten Paniai",PAPUA,98711.0,Indonesia,,,,-3.9248571,136.3808195,https://maps.google.com/?cid=0x0:0xc16b032b51c1ea7a,
restaurant,Brunch,Warung Lamongan Indah,"39CH+4GP, Enarotali, Paniai Tim., Kabupaten Paniai, Papua 98700","Enarotali, Paniai Tim., Kabupaten Paniai",PAPUA,98700.0,Indonesia,81344008878.0,,,-3.9296724,136.378833,https://maps.google.com/?cid=0x0:0x154bc4eb517fc431,
restaurant,Kedai Kopi,Zagena Cafe,"3C4H+FQX, Jl. Raya Madi, Umbutu / Uyubutu / Uwibutu, Paniai Tim., Kabupaten Paniai, Papua 98781","Jl. Raya Madi, Umbutu / Uyubutu / Uwibutu, Paniai Tim., Kabupaten Paniai",PAPUA,98781.0,Indonesia,,,,-3.9438886,136.4296684,https://maps.google.com/?cid=0x0:0xfb18ee9bb02c050d,
restaurant,Produsen,SEMERU GROUP (wifi),"Unnamed Road, Awabutu, Paniai Tim., Kabupaten Paniai, Papua 98726","Awabutu, Paniai Tim., Kabupaten Paniai",PAPUA,98726.0,Indonesia,85235399517.0,,,-3.928367,136.3785859,https://maps.google.com/?cid=0x0:0x64a880d0958b0284,
restaurant,Ayam,WR.TENDA BIRU AREMA,"Enarotali, Paniai Tim., Kabupaten Paniai, Papua","Kabupaten Paniai, Papua",PAPUA,,Indonesia,82139627626.0,,,-3.9272697,136.3812397,https://maps.google.com/?cid=0x0:0xec5f109161c92462,
restaurant,Rumah Makan,Rumah Makan Nabila,"Jalan Bandara Baru No.1, Wagete I, Kec. Tigi, Kabupaten Deiyai, Papua 98764","Wagete I, Kec. Tigi, Kabupaten Deiyai",PAPUA,98764.0,Indonesia,82198042640.0,,,-4.0465434,136.2807028,https://maps.google.com/?cid=0x0:0x176c4263deeb37fa,
restaurant,Restoran,Martabak Daeng,"39CG+GM5, Enarotali, Paniai Tim., Kabupaten Paniai, Papua 98726","Enarotali, Paniai Tim., Kabupaten Paniai",PAPUA,98726.0,Indonesia,,,,-3.9287167,136.3765586,https://maps.google.com/?cid=0x0:0x8231c5c398d89ecb,
restaurant,Brunch,KEDAI ANUGERAH,"komplek konter hp, Jl frans kaisepo, Enarotali, Paniai Tim., Kabupaten Paniai, Papua 98711","Jl frans kaisepo, Enarotali, Paniai Tim., Kabupaten Paniai",PAPUA,98711.0,Indonesia,82376765103.0,,,-3.9281379,136.3764293,https://maps.google.com/?cid=0x0:0x9bba2e6dd7841f88,
restaurant,Dapur Umum,Warung makan pahala,"39CH+77P, puskesmas No.depan, Enarotali, Paniai Tim., Kabupaten Paniai, Papua 98726","puskesmas No.depan, Enarotali, Paniai Tim., Kabupaten Paniai",PAPUA,98726.0,Indonesia,,,,-3.9291696,136.3782021,https://maps.google.com/?cid=0x0:0xc9f33df5e58a830f,
restaurant,Rumah wisata,Homestay Nona Maria,"X78Q+54C, Jl. Mugou Kebo, Waghete II, Kec. Tigi, Kabupaten Deiyai, Papua 98764","Jl. Mugou Kebo, Waghete II, Kec. Tigi, Kabupaten Deiyai",PAPUA,98764.0,Indonesia,81247178835.0,,,-4.034571,136.2877706,https://maps.google.com/?cid=0x0:0x42ff8ddf3e12a645,
restaurant,Sarapan,Koya Coffe,"39CH+68P, Enarotali, Paniai Tim., Kabupaten Paniai, Papua","Kabupaten Paniai, Papua",PAPUA,,Indonesia,81270421195.0,,,-3.9294125,136.3783403,https://maps.google.com/?cid=0x0:0x88c352bf7637bbd,
restaurant,Ikan Bakar,D'Jimbaran Papua,"9PX8+3VF, Engros, Kec. Abepura, Kota Jayapura, Papua","Kota Jayapura, Papua",PAPUA,,Indonesia,,,,-2.6020736,140.7168784,https://maps.google.com/?cid=0x0:0xb6125c5e0138c416,
restaurant,Steak,Daddy's Smokehouse Papua,"Jl. Hamadi Pante, Tobati, Distrik Jayapura Selatan, Kota Jayapura, Papua","Kota Jayapura, Papua",PAPUA,,Indonesia,85243038489.0,,,-2.5753776,140.7088077,https://maps.google.com/?cid=0x0:0xd7b55155f0360b06,
restaurant,Rumah Makan,Warung makan tenda biru,"39CH+764, Enarotali, Paniai Tim., Kabupaten Paniai, Papua","Kabupaten Paniai, Papua",PAPUA,,Indonesia,,,,-3.9293592,136.3780656,https://maps.google.com/?cid=0x0:0x96ddea90929a6ea0,
restaurant,restaurant,Warung Makan Kampoeng Kita,"3C3J+339, Jl. Raya Madi-Enaro, Umbutu, Umbutu / Uyubutu / Uwibutu, Paniai Tim., Kabupaten Paniai, Papua 98781","Jl. Raya Madi-Enaro, Umbutu, Umbutu / Uyubutu / Uwibutu, Paniai Tim., Kabupaten Paniai",PAPUA,98781.0,Indonesia,,,,-3.9473477,136.4302323,https://maps.google.com/?cid=0x0:0x55a1de1a1ebf7823,
restaurant,Warnet,VELOCE SERVER,"3C4G+9JV, Jl. Raya Madi, Madi, Paniai Tim., Kabupaten Paniai, Papua 98781","Jl. Raya Madi, Madi, Paniai Tim., Kabupaten Paniai",PAPUA,98781.0,Indonesia,,,,-3.9440076,136.4265409,https://maps.google.com/?cid=0x0:0x77e4caac1b6c68ba,
restaurant,restaurant,Papua 98727,"Distrik Tigi Timur, Kabupaten Deiyai, Papua","Kabupaten Deiyai, Papua",PAPUA,,Indonesia,,,,-4.0953564,136.2953347,https://maps.google.com/?cid=0x0:0x865418cd47f9666,
restaurant,Rumah Makan,Rumah Makan Blambangan,"Wagete I, Kec. Tigi, Kabupaten Deiyai, Papua","Kabupaten Deiyai, Papua",PAPUA,,Indonesia,,,,-4.0463694,136.2802612,https://maps.google.com/?cid=0x0:0xa12c2d88599107af,
restaurant,Rumah wisata,Homestay Nona Maria,"X78Q+54C, Jl. Mugou Kebo, Waghete II, Kec. Tigi, Kabupaten Deiyai, Papua 98764","Jl. Mugou Kebo, Waghete II, Kec. Tigi, Kabupaten Deiyai",PAPUA,98764.0,Indonesia,81247178835.0,,,-4.034571,136.2877706,https://maps.google.com/?cid=0x0:0x42ff8ddf3e12a645,
restaurant,Rumah Makan,RM Solata,"X73G+3XW, Jl. Waghete Raya, Wagete I, Kec. Tigi, Kabupaten Deiyai, Papua 98764","Jl. Waghete Raya, Wagete I, Kec. Tigi, Kabupaten Deiyai",PAPUA,98764.0,Indonesia,,,,-4.0472538,136.277445,https://maps.google.com/?cid=0x0:0x95e66ed7d8a1e777,
restaurant,restaurant,Warung Sekarwangi,"X77V+H3R, Waghete II, Kec. Tigi, Kabupaten Deiyai, Papua 98764","Waghete II, Kec. Tigi, Kabupaten Deiyai",PAPUA,98764.0,Indonesia,81393776981.0,,,-4.0355216,136.2925827,https://maps.google.com/?cid=0x0:0x724ac7c08be7ca08,
restaurant,restaurant,Elit Papua,"V7GG+24F, Tenedagi, Distrik Tigi Barat, Kabupaten Deiyai, Papua 97888","Tenedagi, Distrik Tigi Barat, Kabupaten Deiyai",PAPUA,97888.0,Indonesia,,,,-4.124948,136.275299,https://maps.google.com/?cid=0x0:0xab402e919ce7a2dd,
restaurant,restaurant,Distrik Tigi Barat,"Kabupaten Deiyai, Papua","Kabupaten Deiyai, Papua",PAPUA,,Indonesia,,,,-4.0839036,136.2228747,https://maps.google.com/?cid=0x0:0xd8943213a2bf33e3,
restaurant,restaurant,Papua 98764,"Kec. Tigi, Kabupaten Deiyai, Papua","Kabupaten Deiyai, Papua",PAPUA,,Indonesia,,,,-4.0679047,136.2282927,https://maps.google.com/?cid=0x0:0xf921eabf702cc3ac,
restaurant,Rumah wisata,Homestay Nona Maria,"X78Q+54C, Jl. Mugou Kebo, Waghete II, Kec. Tigi, Kabupaten Deiyai, Papua 98764","Jl. Mugou Kebo, Waghete II, Kec. Tigi, Kabupaten Deiyai",PAPUA,98764.0,Indonesia,81247178835.0,,,-4.034571,136.2877706,https://maps.google.com/?cid=0x0:0x42ff8ddf3e12a645,
restaurant,Rumah Makan,Rumah Makan Blambangan,"Wagete I, Kec. Tigi, Kabupaten Deiyai, Papua","Kabupaten Deiyai, Papua",PAPUA,,Indonesia,,,,-4.0463694,136.2802612,https://maps.google.com/?cid=0x0:0xa12c2d88599107af,
restaurant,Rumah Makan,RM Solata,"X73G+3XW, Jl. Waghete Raya, Wagete I, Kec. Tigi, Kabupaten Deiyai, Papua 98764","Jl. Waghete Raya, Wagete I, Kec. Tigi, Kabupaten Deiyai",PAPUA,98764.0,Indonesia,,,,-4.0472538,136.277445,https://maps.google.com/?cid=0x0:0x95e66ed7d8a1e777,
restaurant,Komplek perumahan,Fixz,"X72P+F7R, Wagete I, Kec. Tigi, Kabupaten Deiyai, Papua 98764","Wagete I, Kec. Tigi, Kabupaten Deiyai",PAPUA,98764.0,Indonesia,81212367238.0,,,-4.0487631,136.285648,https://maps.google.com/?cid=0x0:0x884c81fe4377176f,
restaurant,restaurant,Warung Sekarwangi,"X77V+H3R, Waghete II, Kec. Tigi, Kabupaten Deiyai, Papua 98764","Waghete II, Kec. Tigi, Kabupaten Deiyai",PAPUA,98764.0,Indonesia,81393776981.0,,,-4.0355216,136.2925827,https://maps.google.com/?cid=0x0:0x724ac7c08be7ca08,
restaurant,restaurant,RM Jeng Ello,"X78X+MQ8, Waghete II, Kec. Tigi, Kabupaten Deiyai, Papua 98764","Waghete II, Kec. Tigi, Kabupaten Deiyai",PAPUA,98764.0,Indonesia,,,,-4.0333308,136.2994497,https://maps.google.com/?cid=0x0:0xd4a4b72b7916e45b,
restaurant,restaurant,Papua 98727,"Distrik Tigi Timur, Kabupaten Deiyai, Papua","Kabupaten Deiyai, Papua",PAPUA,,Indonesia,,,,-4.0953564,136.2953347,https://maps.google.com/?cid=0x0:0x865418cd47f9666,
restaurant,Rumah Makan,Rumah Makan Blambangan,"Wagete I, Kec. Tigi, Kabupaten Deiyai, Papua","Kabupaten Deiyai, Papua",PAPUA,,Indonesia,,,,-4.0463694,136.2802612,https://maps.google.com/?cid=0x0:0xa12c2d88599107af,
restaurant,Rumah wisata,Homestay Nona Maria,"X78Q+54C, Jl. Mugou Kebo, Waghete II, Kec. Tigi, Kabupaten Deiyai, Papua 98764","Jl. Mugou Kebo, Waghete II, Kec. Tigi, Kabupaten Deiyai",PAPUA,98764.0,Indonesia,81247178835.0,,,-4.034571,136.2877706,https://maps.google.com/?cid=0x0:0x42ff8ddf3e12a645,
restaurant,Mesin Sangrai Kopi,Alenia Papua Coffee  Kitchen,"Jl. Kemang Raya No.66 B 8, RT.8/RW.2, Bangka, Kec. Mampang Prpt., Kota Jakarta Selatan, Daerah Khusus Ibukota Jakarta 12730","RT.8/RW.2, Bangka, Kec. Mampang Prpt., Kota Jakarta Selatan",PAPUA,12730.0,Indonesia,2171790141.0,,,-6.2638119,106.8158777,https://maps.google.com/?cid=0x0:0xe49807fcfab68b48,
restaurant,Restoran,Restaurant Yougwa,"CJ63+H23, Jl. Raya Abepura - Sentani, Asei Kecil, Kec. Sentani Tim., Kabupaten Jayapura, Papua 99351","Jl. Raya Abepura - Sentani, Asei Kecil, Kec. Sentani Tim., Kabupaten Jayapura",PAPUA,99351.0,Indonesia,8114801448.0,,,-2.5886245,140.602559,https://maps.google.com/?cid=0x0:0x65e60fc66014e79c,
restaurant,Restoran,Restoran Pinang Sirih,"F9WW+QV2, Jl. Sesate, Bambu Pemali, Kec. Merauke, Kabupaten Merauke, Papua 99614","Jl. Sesate, Bambu Pemali, Kec. Merauke, Kabupaten Merauke",PAPUA,99614.0,Indonesia,82132128881.0,,,-8.5030737,140.3966377,https://maps.google.com/?cid=0x0:0x7c98c0bee5496ce9,
restaurant,Rumah Makan,RestoCafe Rumah Laut,"Jl. Koti, Numbai, Distrik Jayapura Selatan, Kota Jayapura, Papua 99222","Numbai, Distrik Jayapura Selatan, Kota Jayapura",PAPUA,99222.0,Indonesia,9675160842.0,,,-2.5443152,140.7078561,https://maps.google.com/?cid=0x0:0xa0b850e17d17f09d,
restaurant,Rumah Makan,Rumah Makan Sendok Garpu Jayapura,"Jl. Raya Abepura-Kotaraja Kota Baru, Wai Mhorock, Kec. Abepura, Kota Jayapura, Papua 99225","Wai Mhorock, Kec. Abepura, Kota Jayapura",PAPUA,99225.0,Indonesia,82310000123.0,,,-2.6057136,140.6694308,https://maps.google.com/?cid=0x0:0x9b347169a4f00047,
restaurant,Restoran,Kedai'piiaaa,"6J5G+J3W, Arsopura, Kec. Skanto, Kabupaten Keerom, Papua","Kabupaten Keerom, Papua",PAPUA,,Indonesia,,,,-2.7908801,140.6252187,https://maps.google.com/?cid=0x0:0xaf303193ddf974e9,
restaurant,Rumah Makan,RM Solata,"X73G+3XW, Jl. Waghete Raya, Wagete I, Kec. Tigi, Kabupaten Deiyai, Papua 98764","Jl. Waghete Raya, Wagete I, Kec. Tigi, Kabupaten Deiyai",PAPUA,98764.0,Indonesia,,,,-4.0472538,136.277445,https://maps.google.com/?cid=0x0:0x95e66ed7d8a1e777,
restaurant,restaurant,Warung Sekarwangi,"X77V+H3R, Waghete II, Kec. Tigi, Kabupaten Deiyai, Papua 98764","Waghete II, Kec. Tigi, Kabupaten Deiyai",PAPUA,98764.0,Indonesia,81393776981.0,,,-4.0355216,136.2925827,https://maps.google.com/?cid=0x0:0x724ac7c08be7ca08,
restaurant,restaurant,Elit Papua,"V7GG+24F, Tenedagi, Distrik Tigi Barat, Kabupaten Deiyai, Papua 97888","Tenedagi, Distrik Tigi Barat, Kabupaten Deiyai",PAPUA,97888.0,Indonesia,,,,-4.124948,136.275299,https://maps.google.com/?cid=0x0:0xab402e919ce7a2dd,
restaurant,Restoran,Papua Cafe,"JV38+MF6, Kuala Kencana, Kec. Kuala Kencana, Kabupaten Mimika, Papua 99910","Kuala Kencana, Kec. Kuala Kencana, Kabupaten Mimika",PAPUA,99910.0,Indonesia,811490804.0,,,-4.395844,136.8661365,https://maps.google.com/?cid=0x0:0x314a0b94209cdb62,
restaurant,Kafe,PUA-PUA CAFE,"Jl. Budi Utomo, Nawaripi, Kec. Mimika Baru, Kabupaten Mimika, Papua 99952","Nawaripi, Kec. Mimika Baru, Kabupaten Mimika",PAPUA,99952.0,Indonesia,82346750560.0,,,-4.5620805,136.8806057,https://maps.google.com/?cid=0x0:0xb7cc07f877baacb2,
restaurant,Ikan Bakar,Resto Jangkar,"Jl. Yos Sudarso, Nawaripi, Kec. Mimika Baru, Kabupaten Mimika, Papua 99971","Nawaripi, Kec. Mimika Baru, Kabupaten Mimika",PAPUA,99971.0,Indonesia,82238302339.0,,,-4.5681968,136.8865993,https://maps.google.com/?cid=0x0:0x73ed65e33721012a,
restaurant,Masakan Asia,RM Kuala Oriental,"Jl. Budi Utomo No.88A, Kwamki, Kec. Mimika Baru, Kabupaten Mimika, Papua 99971","Kwamki, Kec. Mimika Baru, Kabupaten Mimika",PAPUA,99971.0,Indonesia,81224989888.0,,,-4.5432787,136.8840215,https://maps.google.com/?cid=0x0:0xa200bb016a6f04d5,
restaurant,restaurant,Rumah kediaman,"Jl. Katopa wiyai, Pouwouda, Dist. Kamsel, Kabupaten Dogiyai, Papua 99225","Pouwouda, Dist. Kamsel, Kabupaten Dogiyai",PAPUA,99225.0,Indonesia,,,,-4.0339402,136.0920984,https://maps.google.com/?cid=0x0:0xc7b17bd8bdcd7692,
cafe,cafe,Kec. Tigi,"Kabupaten Deiyai, Papua","Kabupaten Deiyai, Papua",PAPUA,,Indonesia,,,,-4.0451767,136.278207,https://maps.google.com/?cid=0x0:0xd43bc44cb2e7a8f6,
cafe,Rumah wisata,Homestay Nona Maria,"X78Q+54C, Jl. Mugou Kebo, Waghete II, Kec. Tigi, Kabupaten Deiyai, Papua 98764","Jl. Mugou Kebo, Waghete II, Kec. Tigi, Kabupaten Deiyai",PAPUA,98764.0,Indonesia,81247178835.0,,,-4.034571,136.2877706,https://maps.google.com/?cid=0x0:0x42ff8ddf3e12a645,
cafe,Komplek perumahan,Fixz,"X72P+F7R, Wagete I, Kec. Tigi, Kabupaten Deiyai, Papua 98764","Wagete I, Kec. Tigi, Kabupaten Deiyai",PAPUA,98764.0,Indonesia,81212367238.0,,,-4.0487631,136.285648,https://maps.google.com/?cid=0x0:0x884c81fe4377176f,
cafe,Rumah Makan,Rumah Makan Nabila,"Jalan Bandara Baru No.1, Wagete I, Kec. Tigi, Kabupaten Deiyai, Papua 98764","Wagete I, Kec. Tigi, Kabupaten Deiyai",PAPUA,98764.0,Indonesia,82198042640.0,,,-4.0465434,136.2807028,https://maps.google.com/?cid=0x0:0x176c4263deeb37fa,
cafe,Kedai Kopi,Ikigai Space,"Jl. Tm. Bendugan Jatiluhur I No.2A, RT.8/RW.2, Bend. Hilir, Kecamatan Tanah Abang, Kota Jakarta Pusat, Daerah Khusus Ibukota Jakarta 10210","RT.8/RW.2, Bend. Hilir, Kecamatan Tanah Abang, Kota Jakarta Pusat",PAPUA,10210.0,Indonesia,,,,-6.2139057,106.811056,https://maps.google.com/?cid=0x0:0x762fd7abc497d00b,
cafe,Rumah Makan,RM Solata,"X73G+3XW, Jl. Waghete Raya, Wagete I, Kec. Tigi, Kabupaten Deiyai, Papua 98764","Jl. Waghete Raya, Wagete I, Kec. Tigi, Kabupaten Deiyai",PAPUA,98764.0,Indonesia,,,,-4.0472538,136.277445,https://maps.google.com/?cid=0x0:0x95e66ed7d8a1e777,
cafe,cafe,Refi Sagita Jaya Kafe,"Okomokebo, Kec. Tigi, Kabupaten Deiyai, Papua 98764","Kec. Tigi, Kabupaten Deiyai",PAPUA,98764.0,Indonesia,,,,-4.052251,136.2840365,https://maps.google.com/?cid=0x0:0x814e25fa82720a2f,
cafe,cafe,Kedai Jasmine,"X73J+97G, Wagete I, Kec. Tigi, Kabupaten Deiyai, Papua","Kabupaten Deiyai, Papua",PAPUA,,Indonesia,,,,-4.0465519,136.2806967,https://maps.google.com/?cid=0x0:0x269757911a7bf88a,
cafe,Kedai Kopi,Tiembi - Meruya,"Blok 36, Jl. Penyelesaian Tomang I No.1, RT.3/RW.1, Meruya Utara, Kec. Kembangan, Kota Jakarta Barat, Daerah Khusus Ibukota Jakarta 11620","Jl. Penyelesaian Tomang I No.1, RT.3/RW.1, Meruya Utara, Kec. Kembangan, Kota Jakarta Barat",PAPUA,11620.0,Indonesia,8119189309.0,,,-6.1971517,106.7294601,https://maps.google.com/?cid=0x0:0x2b8c152c9655715e,
cafe,Kafe,Tigi Tigi Milk  Drink,"9RHH+4VH, RT.03/RW.02, Katulampa, Kec. Bogor Tim., Kota Bogor, Jawa Barat 16144","RT.03/RW.02, Katulampa, Kec. Bogor Tim., Kota Bogor",PAPUA,16144.0,Indonesia,,,,-6.6221938,106.8297257,https://maps.google.com/?cid=0x0:0x655fa08c9828fe70,
cafe,Kafe,at home cafe.,"Jl. Karet Pasar Baru Barat VII No.2, Karet Tengsin, Kecamatan Tanah Abang, Kota Jakarta Pusat, Daerah Khusus Ibukota Jakarta 10220","Karet Tengsin, Kecamatan Tanah Abang, Kota Jakarta Pusat",PAPUA,10220.0,Indonesia,,,,-6.211904,106.8152392,https://maps.google.com/?cid=0x0:0xda25ec4e682e6f9,
cafe,Kedai Kopi,Hario Cafe Tokyo Indonesia,"Near South Lobby CBD One Satrio, RT.5/RW.2, Kuningan, Kuningan Tim., Kecamatan Setiabudi, Kota Jakarta Selatan, Daerah Khusus Ibukota Jakarta 12950","RT.5/RW.2, Kuningan, Kuningan Tim., Kecamatan Setiabudi, Kota Jakarta Selatan",PAPUA,12950.0,Indonesia,85929938889.0,,,-6.2263924,106.8261864,https://maps.google.com/?cid=0x0:0x95b94227cbd5ebb4,
cafe,Kedai Kopi,Wotish Coffee  Eatery,"Komplek Bulog I, Jl. Raya Pos Pengumben No.4, South Sukabumi, Kebonjeruk, West Jakarta City, Jakarta 11560","Jl. Raya Pos Pengumben No.4, South Sukabumi, Kebonjeruk, West Jakarta City",PAPUA,11560.0,Indonesia,85176910007.0,,,-6.2166774,106.7711903,https://maps.google.com/?cid=0x0:0xeb15445cf73fc8d3,
cafe,Kedai Kopi,TAMORCAFE,"Jl. Green Lake City Boulevard Green Lake City Rukan Colosseum No.75, Petir, Kec. Cipondoh, Kota Tangerang, Banten 15147","Petir, Kec. Cipondoh, Kota Tangerang",PAPUA,15147.0,Indonesia,,,,-6.1843696,106.7085129,https://maps.google.com/?cid=0x0:0x1eb2409785c5d51,
cafe,Kafe,Kawisari Cafe  Eatery,"Jl. Kebon Sirih No.77A, RT.1/RW.1, Kb. Sirih, Kec. Menteng, Kota Jakarta Pusat, Daerah Khusus Ibukota Jakarta 10340","RT.1/RW.1, Kb. Sirih, Kec. Menteng, Kota Jakarta Pusat",PAPUA,10340.0,Indonesia,87883195051.0,,,-6.1834199,106.825158,https://maps.google.com/?cid=0x0:0x4beb90a3196d57e5,
cafe,Kedai Kopi,Good Morning Cafe - Taman Palem Lestari,"Jl. Taman Palem Lestari No.B18 no.19, RT.5/RW.13, Cengkareng Bar., Kecamatan Cengkareng, Kota Jakarta Barat, Daerah Khusus Ibukota Jakarta 11730","RT.5/RW.13, Cengkareng Bar., Kecamatan Cengkareng, Kota Jakarta Barat",PAPUA,11730.0,Indonesia,8561540062.0,,,-6.137556,106.7228268,https://maps.google.com/?cid=0x0:0xb6e26ad20f7f23b9,
cafe,Kedai Kopi,Alaric Coffee,"Jl. Menteng Raya, Ruko Dian Plaza 3 Blok FG.1 26A, Bintaro Jaya., Pondok, Aren, Pd. Ranji, Kec. Ciputat Tim., Kota Tangerang Selatan, Banten 15223","Ruko Dian Plaza 3 Blok FG.1 26A, Bintaro Jaya., Pondok, Aren, Pd. Ranji, Kec. Ciputat Tim., Kota Tangerang Selatan",PAPUA,15223.0,Indonesia,87871621420.0,,,-6.2721485,106.7265548,https://maps.google.com/?cid=0x0:0xcaec043b7a5c0479,
cafe,Kedai Kopi,ORBIT BRASSERIE,"Jl. Jombang Raya No.12 A, RT.06/RW.02, Pd. Pucung, Kec. Pd. Aren, Kota Tangerang Selatan, Banten 15229","RT.06/RW.02, Pd. Pucung, Kec. Pd. Aren, Kota Tangerang Selatan",PAPUA,15229.0,Indonesia,2174866441.0,,,-6.2826063,106.7024256,https://maps.google.com/?cid=0x0:0xf877a128f9865bd3,
cafe,Kedai Kopi,Good Morning Cafe - Citra 2 Ext,"Komplek Citra II Extention Blok BE 1B No.12B, RT.2/RW.8, Pegadungan, Kec. Kalideres, Kota Jakarta Barat, Daerah Khusus Ibukota Jakarta 11830","RT.2/RW.8, Pegadungan, Kec. Kalideres, Kota Jakarta Barat",PAPUA,11830.0,Indonesia,81287608212.0,,,-6.13302,106.6944967,https://maps.google.com/?cid=0x0:0xf3cf6f7c4a020b47,
cafe,Kafe,Kopi Dari Hati Jatibening,"JL, Antilope Raya No.Kav 2, RT.001/RW.001, Jatikramat, Jatiasih, Bekasi, West Java 17421","Antilope Raya No.Kav 2, RT.001/RW.001, Jatikramat, Jatiasih, Bekasi",PAPUA,17421.0,Indonesia,81281107500.0,,,-6.2720013,106.9547419,https://maps.google.com/?cid=0x0:0x6935859f626e13df,
cafe,Kedai Kopi,Titik Koma coffe,"RX8M+5Q2, Jl. Boulevard Hijau Raya, RT.006/RW.030, Pejuang, Kecamatan Medan Satria, Kota Bks, Jawa Barat 17131","Jl. Boulevard Hijau Raya, RT.006/RW.030, Pejuang, Kecamatan Medan Satria, Kota Bks",PAPUA,17131.0,Indonesia,,,,-6.1846129,106.9843767,https://maps.google.com/?cid=0x0:0x269ebda7792aebf8,
cafe,Kedai Kopi,Wis Ngopi Harkit,"QJH2+PQ9, Jl. DR. Sukaman, Bencongan, Kec. Klp. Dua, Kabupaten Tangerang, Banten 15810","Jl. DR. Sukaman, Bencongan, Kec. Klp. Dua, Kabupaten Tangerang",PAPUA,15810.0,Indonesia,81257575998.0,,,-6.2207153,106.6019797,https://maps.google.com/?cid=0x0:0xcc981609b6f6258e,
cafe,Kafe,Victory Cafe by Kopi Dari Hati,"Ruko Virginia Arcade, Jl. Sunburst CBD No.35 Blok B2, Lengkong Gudang, Kec. Serpong, Kota Tangerang Selatan, Banten 15310","Jl. Sunburst CBD No.35 Blok B2, Lengkong Gudang, Kec. Serpong, Kota Tangerang Selatan",PAPUA,15310.0,Indonesia,85974987858.0,,,-6.2921924,106.6641103,https://maps.google.com/?cid=0x0:0xeff2fb1740550ff6,
cafe,Kedai Kopi,Weside Coffee and Space,"Stikes Kesosi, Rw. Buaya, Kecamatan Cengkareng, Kota Jakarta Barat, Daerah Khusus Ibukota Jakarta","Kota Jakarta Barat, Daerah Khusus Ibukota Jakarta",PAPUA,,Indonesia,,,,-6.1698887,106.7339614,https://maps.google.com/?cid=0x0:0x73a53033eaaab324,
cafe,Dapur Umum,Tempat bukber,"RQM7+2FH, Kedoya Utara, Kec. Kb. Jeruk, Kota Jakarta Barat, Daerah Khusus Ibukota Jakarta","Kota Jakarta Barat, Daerah Khusus Ibukota Jakarta",PAPUA,,Indonesia,,,,-6.1674309,106.7637239,https://maps.google.com/?cid=0x0:0x176db3d5a16e039f,
cafe,cafe,AboutTNG,,,PAPUA,,Indonesia,82249476955.0,,,-6.1818846,106.559597,https://maps.google.com/?cid=0x0:0x446a47e965319d19,
cafe,cafe,Papua 98781,Papua,Papua,PAPUA,,Indonesia,,,,-4.069466,136.4777687,https://maps.google.com/?cid=0x0:0x4515157402273e4e,
cafe,Warnet,Warnet Makobar Madi,"2CWH+76R, Jl. Raya Madi, Umbutu / Uyubutu / Uwibutu, Paniai Tim., Kabupaten Paniai, Papua 98781","Jl. Raya Madi, Umbutu / Uyubutu / Uwibutu, Paniai Tim., Kabupaten Paniai",PAPUA,98781.0,Indonesia,82238145255.0,,,-3.9542715,136.4280208,https://maps.google.com/?cid=0x0:0xc511976dcf0183da,
cafe,Sarapan,Koya Coffe,"39CH+68P, Enarotali, Paniai Tim., Kabupaten Paniai, Papua","Kabupaten Paniai, Papua",PAPUA,,Indonesia,81270421195.0,,,-3.9294125,136.3783403,https://maps.google.com/?cid=0x0:0x88c352bf7637bbd,
cafe,Produsen,SEMERU GROUP (wifi),"Unnamed Road, Awabutu, Paniai Tim., Kabupaten Paniai, Papua 98726","Awabutu, Paniai Tim., Kabupaten Paniai",PAPUA,98726.0,Indonesia,85235399517.0,,,-3.928367,136.3785859,https://maps.google.com/?cid=0x0:0x64a880d0958b0284,
cafe,Kedai Kopi,Zagena Cafe,"3C4H+FQX, Jl. Raya Madi, Umbutu / Uyubutu / Uwibutu, Paniai Tim., Kabupaten Paniai, Papua 98781","Jl. Raya Madi, Umbutu / Uyubutu / Uwibutu, Paniai Tim., Kabupaten Paniai",PAPUA,98781.0,Indonesia,,,,-3.9438886,136.4296684,https://maps.google.com/?cid=0x0:0xfb18ee9bb02c050d,
cafe,Toko,Kios iche,"Kogekotu, Paniai Tim., Kabupaten Paniai, Papua 98711","Paniai Tim., Kabupaten Paniai",PAPUA,98711.0,Indonesia,,,,-3.9248571,136.3808195,https://maps.google.com/?cid=0x0:0xc16b032b51c1ea7a,
cafe,Ayam,Warung Makan Embun Hermon,"3C2J+X23, Jl. Raya Madi, Umbutu / Uyubutu / Uwibutu, Paniai Tim., Kabupaten Paniai, Papua 98781","Jl. Raya Madi, Umbutu / Uyubutu / Uwibutu, Paniai Tim., Kabupaten Paniai",PAPUA,98781.0,Indonesia,81341529899.0,,,-3.9476149,136.4300432,https://maps.google.com/?cid=0x0:0x125fb7828c04b5aa,
cafe,Komplek perumahan,Fixz,"X72P+F7R, Wagete I, Kec. Tigi, Kabupaten Deiyai, Papua 98764","Wagete I, Kec. Tigi, Kabupaten Deiyai",PAPUA,98764.0,Indonesia,81212367238.0,,,-4.0487631,136.285648,https://maps.google.com/?cid=0x0:0x884c81fe4377176f,
cafe,Warnet,Camar Net Station,"399J+77P, Enarotali, Paniai Tim., Kabupaten Paniai, Papua 98726","Enarotali, Paniai Tim., Kabupaten Paniai",PAPUA,98726.0,Indonesia,,,,-3.9317853,136.3807098,https://maps.google.com/?cid=0x0:0x5af405ce0b9df892,
cafe,Kantor Perusahaan,Tower Telkomsel,"3C5G+56X, Madi, Paniai Tim., Kabupaten Paniai, Papua 98781","Madi, Paniai Tim., Kabupaten Paniai",PAPUA,98781.0,Indonesia,,,,-3.9422125,136.4251994,https://maps.google.com/?cid=0x0:0xb42c67e133bc22b9,
cafe,Brunch,KEDAI ANUGERAH,"komplek konter hp, Jl frans kaisepo, Enarotali, Paniai Tim., Kabupaten Paniai, Papua 98711","Jl frans kaisepo, Enarotali, Paniai Tim., Kabupaten Paniai",PAPUA,98711.0,Indonesia,82376765103.0,,,-3.9281379,136.3764293,https://maps.google.com/?cid=0x0:0x9bba2e6dd7841f88,
cafe,Komplek perumahan,WARNET_ENAGO,"399H+WMV, kompas lama, Jl.poros enaro, Enarotali, Paniai Tim., Kabupaten Paniai, Papua 98726","kompas lama, Jl.poros enaro, Enarotali, Paniai Tim., Kabupaten Paniai",PAPUA,98726.0,Indonesia,85146202624.0,,,-3.9301453,136.3791832,https://maps.google.com/?cid=0x0:0x7b2d7a8853a9c2eb,
cafe,Brunch,Wr zhaskya 99,"Enarotali, Paniai Tim., Kabupaten Paniai, Papua","Kabupaten Paniai, Papua",PAPUA,,Indonesia,81343456417.0,,,-3.9294063,136.3783399,https://maps.google.com/?cid=0x0:0xf81dd6fa6375c5a1,
cafe,Kedai Kopi,Ikigai Space,"Jl. Tm. Bendugan Jatiluhur I No.2A, RT.8/RW.2, Bend. Hilir, Kecamatan Tanah Abang, Kota Jakarta Pusat, Daerah Khusus Ibukota Jakarta 10210","RT.8/RW.2, Bend. Hilir, Kecamatan Tanah Abang, Kota Jakarta Pusat",PAPUA,10210.0,Indonesia,,,,-6.2139057,106.811056,https://maps.google.com/?cid=0x0:0x762fd7abc497d00b,
cafe,Brunch,Warung Lamongan Indah,"39CH+4GP, Enarotali, Paniai Tim., Kabupaten Paniai, Papua 98700","Enarotali, Paniai Tim., Kabupaten Paniai",PAPUA,98700.0,Indonesia,81344008878.0,,,-3.9296724,136.378833,https://maps.google.com/?cid=0x0:0x154bc4eb517fc431,
cafe,Kedai Kopi,Jak Coffee Tea - Supplier Roastery,"Jl. Danau Limboto No.D2 No. 5, RT.13/RW.4, Bend. Hilir, Kecamatan Tanah Abang, Kota Jakarta Pusat, Daerah Khusus Ibukota Jakarta 10210","RT.13/RW.4, Bend. Hilir, Kecamatan Tanah Abang, Kota Jakarta Pusat",PAPUA,10210.0,Indonesia,,,,-6.2084604,106.8077538,https://maps.google.com/?cid=0x0:0x6cd021dd8207d58c,
cafe,Rumah Makan,Rumah Makan Blambangan,"Wagete I, Kec. Tigi, Kabupaten Deiyai, Papua","Kabupaten Deiyai, Papua",PAPUA,,Indonesia,,,,-4.0463694,136.2802612,https://maps.google.com/?cid=0x0:0xa12c2d88599107af,
cafe,Warnet,VELOCE SERVER,"3C4G+9JV, Jl. Raya Madi, Madi, Paniai Tim., Kabupaten Paniai, Papua 98781","Jl. Raya Madi, Madi, Paniai Tim., Kabupaten Paniai",PAPUA,98781.0,Indonesia,,,,-3.9440076,136.4265409,https://maps.google.com/?cid=0x0:0x77e4caac1b6c68ba,
cafe,Restoran,Martabak Daeng,"39CG+GM5, Enarotali, Paniai Tim., Kabupaten Paniai, Papua 98726","Enarotali, Paniai Tim., Kabupaten Paniai",PAPUA,98726.0,Indonesia,,,,-3.9287167,136.3765586,https://maps.google.com/?cid=0x0:0x8231c5c398d89ecb,
cafe,Dapur Umum,Warung makan pahala,"39CH+77P, puskesmas No.depan, Enarotali, Paniai Tim., Kabupaten Paniai, Papua 98726","puskesmas No.depan, Enarotali, Paniai Tim., Kabupaten Paniai",PAPUA,98726.0,Indonesia,,,,-3.9291696,136.3782021,https://maps.google.com/?cid=0x0:0xc9f33df5e58a830f,
cafe,Ayam,WR.TENDA BIRU AREMA,"Enarotali, Paniai Tim., Kabupaten Paniai, Papua","Kabupaten Paniai, Papua",PAPUA,,Indonesia,82139627626.0,,,-3.9272697,136.3812397,https://maps.google.com/?cid=0x0:0xec5f109161c92462,
cafe,cafe,Kec. Bowobado,"Kabupaten Deiyai, Papua","Kabupaten Deiyai, Papua",PAPUA,,Indonesia,,,,-4.2893486,136.4664967,https://maps.google.com/?cid=0x0:0x52d6c40635f2f5da,
cafe,Kafe,Tana Papua Coffee and Roastery,"Jl. Raya Abepura, Vim, Kec. Abepura, Kota Jayapura, Papua 99220","Vim, Kec. Abepura, Kota Jayapura",PAPUA,99220.0,Indonesia,82175416609.0,,,-2.6047712,140.6727079,https://maps.google.com/?cid=0x0:0x747c727d4b94ebf6,
cafe,cafe,Elit Papua,"V7GG+24F, Tenedagi, Distrik Tigi Barat, Kabupaten Deiyai, Papua 97888","Tenedagi, Distrik Tigi Barat, Kabupaten Deiyai",PAPUA,97888.0,Indonesia,,,,-4.124948,136.275299,https://maps.google.com/?cid=0x0:0xab402e919ce7a2dd,
cafe,cafe,Warung kopi Debora,"6C5C+G9F, Banso, Distrik Syujak, Kabupaten Tambrauw, Papua Bar.","Kabupaten Tambrauw, Papua Bar.",PAPUA,,Indonesia,,,,-0.7911779,132.4209273,https://maps.google.com/?cid=0x0:0x50f96247e56fe0,
cafe,cafe,Papua 98781,Papua,Papua,PAPUA,,Indonesia,,,,-4.069466,136.4777687,https://maps.google.com/?cid=0x0:0x4515157402273e4e,
cafe,Warnet,Warnet Makobar Madi,"2CWH+76R, Jl. Raya Madi, Umbutu / Uyubutu / Uwibutu, Paniai Tim., Kabupaten Paniai, Papua 98781","Jl. Raya Madi, Umbutu / Uyubutu / Uwibutu, Paniai Tim., Kabupaten Paniai",PAPUA,98781.0,Indonesia,82238145255.0,,,-3.9542715,136.4280208,https://maps.google.com/?cid=0x0:0xc511976dcf0183da,
cafe,Kedai Kopi,Zagena Cafe,"3C4H+FQX, Jl. Raya Madi, Umbutu / Uyubutu / Uwibutu, Paniai Tim., Kabupaten Paniai, Papua 98781","Jl. Raya Madi, Umbutu / Uyubutu / Uwibutu, Paniai Tim., Kabupaten Paniai",PAPUA,98781.0,Indonesia,,,,-3.9438886,136.4296684,https://maps.google.com/?cid=0x0:0xfb18ee9bb02c050d,
cafe,Produsen,SEMERU GROUP (wifi),"Unnamed Road, Awabutu, Paniai Tim., Kabupaten Paniai, Papua 98726","Awabutu, Paniai Tim., Kabupaten Paniai",PAPUA,98726.0,Indonesia,85235399517.0,,,-3.928367,136.3785859,https://maps.google.com/?cid=0x0:0x64a880d0958b0284,
cafe,Ayam,Warung Makan Embun Hermon,"3C2J+X23, Jl. Raya Madi, Umbutu / Uyubutu / Uwibutu, Paniai Tim., Kabupaten Paniai, Papua 98781","Jl. Raya Madi, Umbutu / Uyubutu / Uwibutu, Paniai Tim., Kabupaten Paniai",PAPUA,98781.0,Indonesia,81341529899.0,,,-3.9476149,136.4300432,https://maps.google.com/?cid=0x0:0x125fb7828c04b5aa,
cafe,Kafe,Tana Papua Coffee and Roastery,"Jl. Raya Abepura, Vim, Kec. Abepura, Kota Jayapura, Papua 99220","Vim, Kec. Abepura, Kota Jayapura",PAPUA,99220.0,Indonesia,82175416609.0,,,-2.6047712,140.6727079,https://maps.google.com/?cid=0x0:0x747c727d4b94ebf6,
cafe,Warnet,VELOCE SERVER,"3C4G+9JV, Jl. Raya Madi, Madi, Paniai Tim., Kabupaten Paniai, Papua 98781","Jl. Raya Madi, Madi, Paniai Tim., Kabupaten Paniai",PAPUA,98781.0,Indonesia,,,,-3.9440076,136.4265409,https://maps.google.com/?cid=0x0:0x77e4caac1b6c68ba,
cafe,Brunch,Wr zhaskya 99,"Enarotali, Paniai Tim., Kabupaten Paniai, Papua","Kabupaten Paniai, Papua",PAPUA,,Indonesia,81343456417.0,,,-3.9294063,136.3783399,https://maps.google.com/?cid=0x0:0xf81dd6fa6375c5a1,
cafe,Toko,Kios iche,"Kogekotu, Paniai Tim., Kabupaten Paniai, Papua 98711","Paniai Tim., Kabupaten Paniai",PAPUA,98711.0,Indonesia,,,,-3.9248571,136.3808195,https://maps.google.com/?cid=0x0:0xc16b032b51c1ea7a,
cafe,Komplek perumahan,WARNET_ENAGO,"399H+WMV, kompas lama, Jl.poros enaro, Enarotali, Paniai Tim., Kabupaten Paniai, Papua 98726","kompas lama, Jl.poros enaro, Enarotali, Paniai Tim., Kabupaten Paniai",PAPUA,98726.0,Indonesia,85146202624.0,,,-3.9301453,136.3791832,https://maps.google.com/?cid=0x0:0x7b2d7a8853a9c2eb,
cafe,Rumah wisata,Homestay Nona Maria,"X78Q+54C, Jl. Mugou Kebo, Waghete II, Kec. Tigi, Kabupaten Deiyai, Papua 98764","Jl. Mugou Kebo, Waghete II, Kec. Tigi, Kabupaten Deiyai",PAPUA,98764.0,Indonesia,81247178835.0,,,-4.034571,136.2877706,https://maps.google.com/?cid=0x0:0x42ff8ddf3e12a645,
cafe,Kedai Kopi,Binsyo Coffee,"Jl Raya Kotaraja No.93, Wai Mhorock, Kec. Abepura, Kota Jayapura, Papua 99351","Wai Mhorock, Kec. Abepura, Kota Jayapura",PAPUA,99351.0,Indonesia,85251667890.0,,,-2.6054242,140.6718344,https://maps.google.com/?cid=0x0:0x4ce0f038ffa9d59e,
cafe,Kafe,Kopu Kopi CafÃ© (Coffee  Eatery),"Jl. Raya Abepura, Wahno, Kec. Abepura, Kota Jayapura, Papua 99224","Wahno, Kec. Abepura, Kota Jayapura",PAPUA,99224.0,Indonesia,81263800182.0,,,-2.5972248,140.6796506,https://maps.google.com/?cid=0x0:0x55eedda55f616417,
cafe,Brunch,Warung Lamongan Indah,"39CH+4GP, Enarotali, Paniai Tim., Kabupaten Paniai, Papua 98700","Enarotali, Paniai Tim., Kabupaten Paniai",PAPUA,98700.0,Indonesia,81344008878.0,,,-3.9296724,136.378833,https://maps.google.com/?cid=0x0:0x154bc4eb517fc431,
cafe,Warnet,Camar Net Station,"399J+77P, Enarotali, Paniai Tim., Kabupaten Paniai, Papua 98726","Enarotali, Paniai Tim., Kabupaten Paniai",PAPUA,98726.0,Indonesia,,,,-3.9317853,136.3807098,https://maps.google.com/?cid=0x0:0x5af405ce0b9df892,
cafe,Ikan Bakar,D'Jimbaran Papua,"9PX8+3VF, Engros, Kec. Abepura, Kota Jayapura, Papua","Kota Jayapura, Papua",PAPUA,,Indonesia,,,,-2.6020736,140.7168784,https://maps.google.com/?cid=0x0:0xb6125c5e0138c416,
cafe,Kafe,Coffee House Blessed,"8RJ2+JC4, Koya Bar., Kec. Muara Tami, Kota Jayapura, Papua 99351","Koya Bar., Kec. Muara Tami, Kota Jayapura",PAPUA,99351.0,Indonesia,,,,-2.6684855,140.8010746,https://maps.google.com/?cid=0x0:0xe3eef4b0f3fe4225,
cafe,Ayam,WR.TENDA BIRU AREMA,"Enarotali, Paniai Tim., Kabupaten Paniai, Papua","Kabupaten Paniai, Papua",PAPUA,,Indonesia,82139627626.0,,,-3.9272697,136.3812397,https://maps.google.com/?cid=0x0:0xec5f109161c92462,
cafe,Brunch,KEDAI ANUGERAH,"komplek konter hp, Jl frans kaisepo, Enarotali, Paniai Tim., Kabupaten Paniai, Papua 98711","Jl frans kaisepo, Enarotali, Paniai Tim., Kabupaten Paniai",PAPUA,98711.0,Indonesia,82376765103.0,,,-3.9281379,136.3764293,https://maps.google.com/?cid=0x0:0x9bba2e6dd7841f88,
cafe,Dapur Umum,Warung makan pahala,"39CH+77P, puskesmas No.depan, Enarotali, Paniai Tim., Kabupaten Paniai, Papua 98726","puskesmas No.depan, Enarotali, Paniai Tim., Kabupaten Paniai",PAPUA,98726.0,Indonesia,,,,-3.9291696,136.3782021,https://maps.google.com/?cid=0x0:0xc9f33df5e58a830f,
cafe,Kafe,cafe bakau holtekam kota jayapura,"9PRF+58, Nafri, Kec. Abepura, Kota Jayapura, Papua","Kota Jayapura, Papua",PAPUA,,Indonesia,8124022007.0,,,-2.6095335,140.7232587,https://maps.google.com/?cid=0x0:0x440c4543fd3a011e,
cafe,Kantor Perusahaan,Tower Telkomsel,"3C5G+56X, Madi, Paniai Tim., Kabupaten Paniai, Papua 98781","Madi, Paniai Tim., Kabupaten Paniai",PAPUA,98781.0,Indonesia,,,,-3.9422125,136.4251994,https://maps.google.com/?cid=0x0:0xb42c67e133bc22b9,
cafe,cafe,Papua 98727,"Distrik Tigi Timur, Kabupaten Deiyai, Papua","Kabupaten Deiyai, Papua",PAPUA,,Indonesia,,,,-4.0953564,136.2953347,https://maps.google.com/?cid=0x0:0x865418cd47f9666,
cafe,Rumah wisata,Homestay Nona Maria,"X78Q+54C, Jl. Mugou Kebo, Waghete II, Kec. Tigi, Kabupaten Deiyai, Papua 98764","Jl. Mugou Kebo, Waghete II, Kec. Tigi, Kabupaten Deiyai",PAPUA,98764.0,Indonesia,81247178835.0,,,-4.034571,136.2877706,https://maps.google.com/?cid=0x0:0x42ff8ddf3e12a645,
cafe,Rumah Makan,Rumah Makan Blambangan,"Wagete I, Kec. Tigi, Kabupaten Deiyai, Papua","Kabupaten Deiyai, Papua",PAPUA,,Indonesia,,,,-4.0463694,136.2802612,https://maps.google.com/?cid=0x0:0xa12c2d88599107af,
cafe,cafe,Yame pekei 01,"X7RH+34, Edagotadi, Distrik Tigi Timur, Kabupaten Deiyai, Papua","Kabupaten Deiyai, Papua",PAPUA,,Indonesia,,,,-4.0097525,136.2777759,https://maps.google.com/?cid=0x0:0xde3f6ee8c69f6f27,
cafe,cafe,Elit Papua,"V7GG+24F, Tenedagi, Distrik Tigi Barat, Kabupaten Deiyai, Papua 97888","Tenedagi, Distrik Tigi Barat, Kabupaten Deiyai",PAPUA,97888.0,Indonesia,,,,-4.124948,136.275299,https://maps.google.com/?cid=0x0:0xab402e919ce7a2dd,
cafe,Kedai Kopi,Ikigai Space,"Jl. Tm. Bendugan Jatiluhur I No.2A, RT.8/RW.2, Bend. Hilir, Kecamatan Tanah Abang, Kota Jakarta Pusat, Daerah Khusus Ibukota Jakarta 10210","RT.8/RW.2, Bend. Hilir, Kecamatan Tanah Abang, Kota Jakarta Pusat",PAPUA,10210.0,Indonesia,,,,-6.2139057,106.811056,https://maps.google.com/?cid=0x0:0x762fd7abc497d00b,
cafe,cafe,Papua 98764,"Kec. Tigi, Kabupaten Deiyai, Papua","Kabupaten Deiyai, Papua",PAPUA,,Indonesia,,,,-4.0679047,136.2282927,https://maps.google.com/?cid=0x0:0xf921eabf702cc3ac,
cafe,Rumah wisata,Homestay Nona Maria,"X78Q+54C, Jl. Mugou Kebo, Waghete II, Kec. Tigi, Kabupaten Deiyai, Papua 98764","Jl. Mugou Kebo, Waghete II, Kec. Tigi, Kabupaten Deiyai",PAPUA,98764.0,Indonesia,81247178835.0,,,-4.034571,136.2877706,https://maps.google.com/?cid=0x0:0x42ff8ddf3e12a645,
cafe,Komplek perumahan,Fixz,"X72P+F7R, Wagete I, Kec. Tigi, Kabupaten Deiyai, Papua 98764","Wagete I, Kec. Tigi, Kabupaten Deiyai",PAPUA,98764.0,Indonesia,81212367238.0,,,-4.0487631,136.285648,https://maps.google.com/?cid=0x0:0x884c81fe4377176f,
cafe,Rumah Makan,Rumah Makan Nabila,"Jalan Bandara Baru No.1, Wagete I, Kec. Tigi, Kabupaten Deiyai, Papua 98764","Wagete I, Kec. Tigi, Kabupaten Deiyai",PAPUA,98764.0,Indonesia,82198042640.0,,,-4.0465434,136.2807028,https://maps.google.com/?cid=0x0:0x176c4263deeb37fa,
cafe,Rumah Makan,RM Solata,"X73G+3XW, Jl. Waghete Raya, Wagete I, Kec. Tigi, Kabupaten Deiyai, Papua 98764","Jl. Waghete Raya, Wagete I, Kec. Tigi, Kabupaten Deiyai",PAPUA,98764.0,Indonesia,,,,-4.0472538,136.277445,https://maps.google.com/?cid=0x0:0x95e66ed7d8a1e777,
cafe,cafe,Refi Sagita Jaya Kafe,"Okomokebo, Kec. Tigi, Kabupaten Deiyai, Papua 98764","Kec. Tigi, Kabupaten Deiyai",PAPUA,98764.0,Indonesia,,,,-4.052251,136.2840365,https://maps.google.com/?cid=0x0:0x814e25fa82720a2f,
cafe,cafe,Kedai Jasmine,"X73J+97G, Wagete I, Kec. Tigi, Kabupaten Deiyai, Papua","Kabupaten Deiyai, Papua",PAPUA,,Indonesia,,,,-4.0465519,136.2806967,https://maps.google.com/?cid=0x0:0x269757911a7bf88a,
cafe,Kedai Kopi,Ikigai Space,"Jl. Tm. Bendugan Jatiluhur I No.2A, RT.8/RW.2, Bend. Hilir, Kecamatan Tanah Abang, Kota Jakarta Pusat, Daerah Khusus Ibukota Jakarta 10210","RT.8/RW.2, Bend. Hilir, Kecamatan Tanah Abang, Kota Jakarta Pusat",PAPUA,10210.0,Indonesia,,,,-6.2139057,106.811056,https://maps.google.com/?cid=0x0:0x762fd7abc497d00b,
cafe,cafe,Papua 98727,"Distrik Tigi Timur, Kabupaten Deiyai, Papua","Kabupaten Deiyai, Papua",PAPUA,,Indonesia,,,,-4.0953564,136.2953347,https://maps.google.com/?cid=0x0:0x865418cd47f9666,
cafe,Rumah wisata,Homestay Nona Maria,"X78Q+54C, Jl. Mugou Kebo, Waghete II, Kec. Tigi, Kabupaten Deiyai, Papua 98764","Jl. Mugou Kebo, Waghete II, Kec. Tigi, Kabupaten Deiyai",PAPUA,98764.0,Indonesia,81247178835.0,,,-4.034571,136.2877706,https://maps.google.com/?cid=0x0:0x42ff8ddf3e12a645,
cafe,Mesin Sangrai Kopi,Alenia Papua Coffee  Kitchen,"Jl. Kemang Raya No.66 B 8, RT.8/RW.2, Bangka, Kec. Mampang Prpt., Kota Jakarta Selatan, Daerah Khusus Ibukota Jakarta 12730","RT.8/RW.2, Bangka, Kec. Mampang Prpt., Kota Jakarta Selatan",PAPUA,12730.0,Indonesia,2171790141.0,,,-6.2638119,106.8158777,https://maps.google.com/?cid=0x0:0xe49807fcfab68b48,
cafe,Restoran,Pit's Corner ( Papua Specialty Coffee ),"Jalan kasuari no.2 Dok V Atas, Mandala, Jayapura Utara, Jayapura City, Papua 99114","Mandala, Jayapura Utara, Jayapura City",PAPUA,99114.0,Indonesia,9675160443.0,,,-2.5310642,140.71875,https://maps.google.com/?cid=0x0:0xf39f3950a3bf5ed2,
cafe,Rumah Makan,Rumah Makan Blambangan,"Wagete I, Kec. Tigi, Kabupaten Deiyai, Papua","Kabupaten Deiyai, Papua",PAPUA,,Indonesia,,,,-4.0463694,136.2802612,https://maps.google.com/?cid=0x0:0xa12c2d88599107af,
cafe,cafe,Yame pekei 01,"X7RH+34, Edagotadi, Distrik Tigi Timur, Kabupaten Deiyai, Papua","Kabupaten Deiyai, Papua",PAPUA,,Indonesia,,,,-4.0097525,136.2777759,https://maps.google.com/?cid=0x0:0xde3f6ee8c69f6f27,
cafe,cafe,Elit Papua,"V7GG+24F, Tenedagi, Distrik Tigi Barat, Kabupaten Deiyai, Papua 97888","Tenedagi, Distrik Tigi Barat, Kabupaten Deiyai",PAPUA,97888.0,Indonesia,,,,-4.124948,136.275299,https://maps.google.com/?cid=0x0:0xab402e919ce7a2dd,
cafe,Kafe,PUA-PUA CAFE,"Jl. Budi Utomo, Nawaripi, Kec. Mimika Baru, Kabupaten Mimika, Papua 99952","Nawaripi, Kec. Mimika Baru, Kabupaten Mimika",PAPUA,99952.0,Indonesia,82346750560.0,,,-4.5620805,136.8806057,https://maps.google.com/?cid=0x0:0xb7cc07f877baacb2,
cafe,Restoran,Papua Cafe,"JV38+MF6, Kuala Kencana, Kec. Kuala Kencana, Kabupaten Mimika, Papua 99910","Kuala Kencana, Kec. Kuala Kencana, Kabupaten Mimika",PAPUA,99910.0,Indonesia,811490804.0,,,-4.395844,136.8661365,https://maps.google.com/?cid=0x0:0x314a0b94209cdb62,
cafe,Komplek perumahan,Fixz,"X72P+F7R, Wagete I, Kec. Tigi, Kabupaten Deiyai, Papua 98764","Wagete I, Kec. Tigi, Kabupaten Deiyai",PAPUA,98764.0,Indonesia,81212367238.0,,,-4.0487631,136.285648,https://maps.google.com/?cid=0x0:0x884c81fe4377176f,
cafe,Kedai Kopi,Kapi,"Q4PP+J28, Sukaasih, Kec. Sukatani, Kabupaten Bekasi, Jawa Barat 17630","Sukaasih, Kec. Sukatani, Kabupaten Bekasi",PAPUA,17630.0,Indonesia,895331894523.0,,,-6.2134559,107.1350805,https://maps.google.com/?cid=0x0:0xa58f1003f6b8368e,
cafe,Kedai Kopi,di.arahpulang,"Jl. Galur Sari Timur No.21, RT.7/RW.5, Utan Kayu Sel., Kec. Matraman, Kota Jakarta Timur, Daerah Khusus Ibukota Jakarta 13120","RT.7/RW.5, Utan Kayu Sel., Kec. Matraman, Kota Jakarta Timur",PAPUA,13120.0,Indonesia,,,,-6.198319,106.8661406,https://maps.google.com/?cid=0x0:0xcb70cd1d55f05f14,
cafe,Kedai Kopi,Ribbon Coffee  Eatery,"Jl. Tebet Bar. No.18, RT.10/RW.5, Tebet Bar., Kec. Tebet, Kota Jakarta Selatan, Daerah Khusus Ibukota Jakarta 12810","RT.10/RW.5, Tebet Bar., Kec. Tebet, Kota Jakarta Selatan",PAPUA,12810.0,Indonesia,811888192.0,,,-6.2332226,106.8505406,https://maps.google.com/?cid=0x0:0x3530361f5058f2aa,
cafe,Kedai Teh,The Sanctuary Matcha and Coffee,"Ruko Maggiore Boulevard, Jl. Springs Boulevard No.59 A, Gading, Kec. Serpong, Kota Tangerang Selatan, Banten 15310","Jl. Springs Boulevard No.59 A, Gading, Kec. Serpong, Kota Tangerang Selatan",PAPUA,15310.0,Indonesia,,,,-6.2733326,106.6374778,https://maps.google.com/?cid=0x0:0x699c9ff3cd8465d1,
