Category,Real Category,Business Name,Address,City,State,Postal Code,Country,Phone,Email,Website,Latitude,Longitude,Map Link,Details Link
mall,mall,Kec. Badau,"Kabupaten Kapuas Hulu, Kalimantan Barat","Kabupaten Kapuas Hulu, Kalimantan Barat",KALIMANTAN BARAT,,Indonesia,,,,1.0439133,111.9008836,https://maps.google.com/?cid=0x0:0xcd4e6ff536cd26d5,
mall,Wahana Taman Hiburan,Pasar Wisata Badau,"2VGJ+WVP, Badau, Kec. Badau, Kabupaten Kapuas Hulu, Kalimantan Barat","Kabupaten Kapuas Hulu, Kalimantan Barat",KALIMANTAN BARAT,,Indonesia,,,,1.027344,111.8821957,https://maps.google.com/?cid=0x0:0x817cde9327fdb74d,
mall,Toko Pakaian,Zulhilmi Badau,"2WV2+J5C, Badau, Kec. Badau, Kabupaten Kapuas Hulu, Kalimantan Barat 78767","Badau, Kec. Badau, Kabupaten Kapuas Hulu",KALIMANTAN BARAT,78767.0,Indonesia,82154254419.0,,,1.0440636,111.9003859,https://maps.google.com/?cid=0x0:0x3f8bfaf2a8935e29,
mall,Toko bahan makanan,TOKOH MS JAYA BADAU,"2WV2+GMX, Unnamed Road, Badau, Kec. Badau, Kabupaten Kapuas Hulu, Kalimantan Barat 78767","Unnamed Road, Badau, Kec. Badau, Kabupaten Kapuas Hulu",KALIMANTAN BARAT,78767.0,Indonesia,82158072334.0,,,1.0438589,111.9017203,https://maps.google.com/?cid=0x0:0x2963c44b9739a63b,
mall,Kantor Perusahaan,Badau,"2WV2+276, Badau, Kec. Badau, Kabupaten Kapuas Hulu, Kalimantan Barat 78767","Badau, Kec. Badau, Kabupaten Kapuas Hulu",KALIMANTAN BARAT,78767.0,Indonesia,,,,1.0425271,111.9006344,https://maps.google.com/?cid=0x0:0xf47f492f29585b36,
mall,Kantor Pemerintah,PLBN Nanga Badau,"Unnamed Road No.78767, Badau, Kec. Badau, Kabupaten Kapuas Hulu, Kalimantan Barat 78767","Badau, Kec. Badau, Kabupaten Kapuas Hulu",KALIMANTAN BARAT,78767.0,Indonesia,,,,1.02895,111.878452,https://maps.google.com/?cid=0x0:0xb6bbc2b30cad20b0,
mall,Toko,Toko Andalas,"2WV2+HFP, Badau, Kec. Badau, Kabupaten Kapuas Hulu, Kalimantan Barat","Kabupaten Kapuas Hulu, Kalimantan Barat",KALIMANTAN BARAT,,Indonesia,,,,1.043946,111.9011885,https://maps.google.com/?cid=0x0:0x8b4b86557dea7472,
mall,Gedung Apartemen,Mall@Bassura,"Jl. Jenderal Basuki Rachmat No.1A, Cipinang Besar Sel., Kecamatan Jatinegara, Kota Jakarta Timur, Daerah Khusus Ibukota Jakarta 13410","Cipinang Besar Sel., Kecamatan Jatinegara, Kota Jakarta Timur",KALIMANTAN BARAT,13410.0,Indonesia,2122807300.0,,,-6.2240597,106.8778851,https://maps.google.com/?cid=0x0:0x610648e929845480,
mall,Toserba,Matahari Department Store Mall Bassura,"QVGH+F6H, RT.8/RW.10, Cipinang Besar Sel., Kecamatan Jatinegara, Kota Jakarta Timur, Daerah Khusus Ibukota Jakarta","Kota Jakarta Timur, Daerah Khusus Ibukota Jakarta",KALIMANTAN BARAT,,Indonesia,,,,-6.2238237,106.8781204,https://maps.google.com/?cid=0x0:0xae296c9c7c664531,
mall,Toko,ZUMA BASSURA MALL,"NEXT XXI, BASURA MALL CITY, 2ND FLOOR, Jl. Jenderal Basuki Rachmat No.1, RT.8/RW.10, Cipinang, Kecamatan Jatinegara, Kota Jakarta Timur, Daerah Khusus Ibukota Jakarta 13410","BASURA MALL CITY, 2ND FLOOR, Jl. Jenderal Basuki Rachmat No.1, RT.8/RW.10, Cipinang, Kecamatan Jatinegara, Kota Jakarta Timur",KALIMANTAN BARAT,13410.0,Indonesia,,,,-6.2243891,106.8777153,https://maps.google.com/?cid=0x0:0x9e8793cfc9308b9d,
mall,Korea,Myoungdong Tokpoki Bassura,"Mall@Bassura, lantai 1, Cipinang Besar Sel., Kecamatan Jatinegara, Kota Jakarta Timur, Daerah Khusus Ibukota Jakarta 13410","lantai 1, Cipinang Besar Sel., Kecamatan Jatinegara, Kota Jakarta Timur",KALIMANTAN BARAT,13410.0,Indonesia,,,,-6.2233766,106.8809473,https://maps.google.com/?cid=0x0:0x6f64e25144c64bd0,
mall,Hotel bintang 3,Jual Sewa Apartemen Bassura City - ICAL,"Apartemen Bassura City Kios Tower Flamboyan No AL10, Daerah Khusus Ibukota Jakarta 13410","Kota Jakarta Timur, Daerah Khusus Ibukota Jakarta",KALIMANTAN BARAT,,Indonesia,81299939192.0,,,-6.2227662,106.8804363,https://maps.google.com/?cid=0x0:0xcdd434cd1cb2a1f4,
mall,Toko Swalayan,Super Indo Bassura City,"Mall@Bassura, Jl. Jenderal Basuki Rachmat No.1 Lantai LG, RT.8/RW.10, Cipinang Besar Sel., Kecamatan Jatinegara, Kota Jakarta Timur, Daerah Khusus Ibukota Jakarta 13410","Jl. Jenderal Basuki Rachmat No.1 Lantai LG, RT.8/RW.10, Cipinang Besar Sel., Kecamatan Jatinegara, Kota Jakarta Timur",KALIMANTAN BARAT,13410.0,Indonesia,2122807290.0,,,-6.2243891,106.8777153,https://maps.google.com/?cid=0x0:0xf713ab5cea940312,
mall,Tempat Cukur Rambut,Kaizen Haircut Bassura,"Mall Basuura City lantai LG, Jalan Basuki Rahmat No. 1A Kel, RT.8/RW.10, Cipinang Besar Sel., Kec.Jatinegara, Kota Jakarta Timur, Daerah Khusus Ibukota Jakarta 13410","Jalan Basuki Rahmat No. 1A Kel, RT.8/RW.10, Cipinang Besar Sel., Kec.Jatinegara, Kota Jakarta Timur",KALIMANTAN BARAT,13410.0,Indonesia,,,,-6.2232703,106.8787614,https://maps.google.com/?cid=0x0:0xb9bb9eaef7072382,
mall,mall,Kalimantan Barat 78767,"Kec. Badau, Kabupaten Kapuas Hulu, Kalimantan Barat","Kabupaten Kapuas Hulu, Kalimantan Barat",KALIMANTAN BARAT,,Indonesia,,,,0.9466758,111.9045541,https://maps.google.com/?cid=0x0:0xaefc603ea36f1a05,
mall,Wahana Taman Hiburan,Pasar Wisata Badau,"2VGJ+WVP, Badau, Kec. Badau, Kabupaten Kapuas Hulu, Kalimantan Barat","Kabupaten Kapuas Hulu, Kalimantan Barat",KALIMANTAN BARAT,,Indonesia,,,,1.027344,111.8821957,https://maps.google.com/?cid=0x0:0x817cde9327fdb74d,
mall,Toko Pakaian,Zulhilmi Badau,"2WV2+J5C, Badau, Kec. Badau, Kabupaten Kapuas Hulu, Kalimantan Barat 78767","Badau, Kec. Badau, Kabupaten Kapuas Hulu",KALIMANTAN BARAT,78767.0,Indonesia,82154254419.0,,,1.0440636,111.9003859,https://maps.google.com/?cid=0x0:0x3f8bfaf2a8935e29,
mall,Toko bahan makanan,TOKOH MS JAYA BADAU,"2WV2+GMX, Unnamed Road, Badau, Kec. Badau, Kabupaten Kapuas Hulu, Kalimantan Barat 78767","Unnamed Road, Badau, Kec. Badau, Kabupaten Kapuas Hulu",KALIMANTAN BARAT,78767.0,Indonesia,82158072334.0,,,1.0438589,111.9017203,https://maps.google.com/?cid=0x0:0x2963c44b9739a63b,
mall,Toko Roti,Tata Cake,"Gang Delima, Badau, Kec. Badau, Kabupaten Kapuas Hulu, Kalimantan Barat 78767","Badau, Kec. Badau, Kabupaten Kapuas Hulu",KALIMANTAN BARAT,78767.0,Indonesia,,,,1.0456217,111.8979726,https://maps.google.com/?cid=0x0:0x66f123519da9db9d,
mall,Kantor Perusahaan,Badau,"2WV2+276, Badau, Kec. Badau, Kabupaten Kapuas Hulu, Kalimantan Barat 78767","Badau, Kec. Badau, Kabupaten Kapuas Hulu",KALIMANTAN BARAT,78767.0,Indonesia,,,,1.0425271,111.9006344,https://maps.google.com/?cid=0x0:0xf47f492f29585b36,
mall,Toko,Toko Andalas,"2WV2+HFP, Badau, Kec. Badau, Kabupaten Kapuas Hulu, Kalimantan Barat","Kabupaten Kapuas Hulu, Kalimantan Barat",KALIMANTAN BARAT,,Indonesia,,,,1.043946,111.9011885,https://maps.google.com/?cid=0x0:0x8b4b86557dea7472,
mall,mall,Mupita badau,"2VGP+JV7, Jl. Lintas Kalimantan Poros Utara, Badau, Kec. Badau, Kabupaten Kapuas Hulu, Kalimantan Barat 78767","Jl. Lintas Kalimantan Poros Utara, Badau, Kec. Badau, Kabupaten Kapuas Hulu",KALIMANTAN BARAT,78767.0,Indonesia,,,,1.0265373,111.8871822,https://maps.google.com/?cid=0x0:0x8cf089edd4c50b4c,
mall,Toko Elektronik,Pasar Badau,"2WV2+J85, Badau, Kec. Badau, Kabupaten Kapuas Hulu, Kalimantan Barat","Kabupaten Kapuas Hulu, Kalimantan Barat",KALIMANTAN BARAT,,Indonesia,82390637878.0,,,1.0440162,111.9008595,https://maps.google.com/?cid=0x0:0x273779f283aa56b,
mall,mall,Kalimantan Barat 78766,"Kec. Batang Lupar, Kabupaten Kapuas Hulu, Kalimantan Barat","Kabupaten Kapuas Hulu, Kalimantan Barat",KALIMANTAN BARAT,,Indonesia,,,,1.0515884,112.1430215,https://maps.google.com/?cid=0x0:0xd9c273103b9b4ce7,
mall,Bioskop,Citimall Kuala Kapuas,"297X+8HH, Jl. Trans - Kalimantan, Selat Dalam, Kec. Selat, Kabupaten Kapuas, Kalimantan Tengah 73516","Jl. Trans - Kalimantan, Selat Dalam, Kec. Selat, Kabupaten Kapuas",KALIMANTAN BARAT,73516.0,Indonesia,5132021111.0,,,-2.9866776,114.3989993,https://maps.google.com/?cid=0x0:0x8ea10a9bcf7b7f6f,
mall,Toko Pakaian,Zulhilmi Badau,"2WV2+J5C, Badau, Kec. Badau, Kabupaten Kapuas Hulu, Kalimantan Barat 78767","Badau, Kec. Badau, Kabupaten Kapuas Hulu",KALIMANTAN BARAT,78767.0,Indonesia,82154254419.0,,,1.0440636,111.9003859,https://maps.google.com/?cid=0x0:0x3f8bfaf2a8935e29,
mall,Wahana Taman Hiburan,Pasar Wisata Badau,"2VGJ+WVP, Badau, Kec. Badau, Kabupaten Kapuas Hulu, Kalimantan Barat","Kabupaten Kapuas Hulu, Kalimantan Barat",KALIMANTAN BARAT,,Indonesia,,,,1.027344,111.8821957,https://maps.google.com/?cid=0x0:0x817cde9327fdb74d,
mall,Toko bahan makanan,TOKOH MS JAYA BADAU,"2WV2+GMX, Unnamed Road, Badau, Kec. Badau, Kabupaten Kapuas Hulu, Kalimantan Barat 78767","Unnamed Road, Badau, Kec. Badau, Kabupaten Kapuas Hulu",KALIMANTAN BARAT,78767.0,Indonesia,82158072334.0,,,1.0438589,111.9017203,https://maps.google.com/?cid=0x0:0x2963c44b9739a63b,
mall,Toko,Toko Andalas,"2WV2+HFP, Badau, Kec. Badau, Kabupaten Kapuas Hulu, Kalimantan Barat","Kabupaten Kapuas Hulu, Kalimantan Barat",KALIMANTAN BARAT,,Indonesia,,,,1.043946,111.9011885,https://maps.google.com/?cid=0x0:0x8b4b86557dea7472,
mall,Pusat Perbelanjaan,Kapuas Cell,"Jl. Patinggi Sari No.25, Pala Pulau, Kec. Putussibau Utara, Kabupaten Kapuas Hulu, Kalimantan Barat 78752","Pala Pulau, Kec. Putussibau Utara, Kabupaten Kapuas Hulu",KALIMANTAN BARAT,78752.0,Indonesia,816577738.0,,,0.8884334,112.9311631,https://maps.google.com/?cid=0x0:0xe463625989f45e66,
mall,Toko,Pasar Selimbau,"J43G+VR9, Gudang Hilir, Kec. Selimbau, Kabupaten Kapuas Hulu, Kalimantan Barat 78765","Gudang Hilir, Kec. Selimbau, Kabupaten Kapuas Hulu",KALIMANTAN BARAT,78765.0,Indonesia,,,,0.6046653,112.1271193,https://maps.google.com/?cid=0x0:0x37e0ad809ed7aad2,
mall,Pusat Perbelanjaan,Hyfresh Supermarket Kuala Kapuas,"Jl. Pemuda No.KM 1, RW.5, Selat Dalam, Kec. Selat, Kabupaten Kapuas, Kalimantan Tengah 73516","RW.5, Selat Dalam, Kec. Selat, Kabupaten Kapuas",KALIMANTAN BARAT,73516.0,Indonesia,85752706042.0,,,-2.9870307,114.3990786,https://maps.google.com/?cid=0x0:0x9e318e41c80f896c,
mall,Pusat Perbelanjaan,Emart Batu Kawa,"Lot 6369, Block 225 KNLD, 4th Mile, Jalan Batu Kawa, Taman Desa Wira, 93250 Kuching, Sarawak, Malaysia",Kuching,KALIMANTAN BARAT,93250.0,Indonesia,6082688168.0,,,1.5062945,110.2989354,https://maps.google.com/?cid=0x0:0x671566ae99153320,
mall,Pusat Perbelanjaan,Emart Tabuan Jaya,"Commercial Centre, No 1, Tabuan Tranquility, Jalan Canna, 93350 Kuching, Sarawak, Malaysia",Kuching,KALIMANTAN BARAT,93350.0,Indonesia,6082530188.0,,,1.5160837,110.3865083,https://maps.google.com/?cid=0x0:0xb4b25d1f76874498,
mall,mall,Kec. Bika,"Kabupaten Kapuas Hulu, Kalimantan Barat","Kabupaten Kapuas Hulu, Kalimantan Barat",KALIMANTAN BARAT,,Indonesia,,,,0.8201836,112.8274926,https://maps.google.com/?cid=0x0:0xb1e7c1b96c7d7470,
mall,Pusat Perbelanjaan,Botani Square,"Jl. Raya Pajajaran No.40, Tugu Kujang, Kecamatan Bogor Tengah, Kota Bogor, Jawa Barat 16127","Tugu Kujang, Kecamatan Bogor Tengah, Kota Bogor",KALIMANTAN BARAT,16127.0,Indonesia,2518386658.0,,,-6.6014221,106.8071254,https://maps.google.com/?cid=0x0:0x9edb391e7c74be19,
mall,Toko Pakaian,SIKEMBAR-BUSANA,"VW8C+G32, Hilir Ktr., Kec. Putussibau Utara, Kabupaten Kapuas Hulu, Kalimantan Barat 78753","Hilir Ktr., Kec. Putussibau Utara, Kabupaten Kapuas Hulu",KALIMANTAN BARAT,78753.0,Indonesia,85787325888.0,,,0.8662726,112.9201516,https://maps.google.com/?cid=0x0:0xb933f6cd82e5c53f,
mall,Pusat Perbelanjaan,Central Park,"Jl. Letjen S. Parman No.Kav. 28, Tj. Duren Sel., Kec. Grogol petamburan, Kota Jakarta Barat, Daerah Khusus Ibukota Jakarta 11470","Tj. Duren Sel., Kec. Grogol petamburan, Kota Jakarta Barat",KALIMANTAN BARAT,11470.0,Indonesia,2156989999.0,,,-6.1771373,106.7909788,https://maps.google.com/?cid=0x0:0xe816d65037c3207a,
mall,Pasar,Pasar Seribu,"VW5H+R9W, Unnamed Road, Tj. Jati, Kec. Putussibau Sel., Kabupaten Kapuas Hulu, Kalimantan Barat 78753","Unnamed Road, Tj. Jati, Kec. Putussibau Sel., Kabupaten Kapuas Hulu",KALIMANTAN BARAT,78753.0,Indonesia,,,,0.859614,112.9284407,https://maps.google.com/?cid=0x0:0xcb64809c5354c880,
mall,Minimarket,MAMA ELA,"VW5H+9C9, Unnamed Road, Putussibau Kota, Kec. Putussibau Utara, Kabupaten Kapuas Hulu, Kalimantan Barat 78753","Unnamed Road, Putussibau Kota, Kec. Putussibau Utara, Kabupaten Kapuas Hulu",KALIMANTAN BARAT,78753.0,Indonesia,,,,0.8584114,112.9285938,https://maps.google.com/?cid=0x0:0xeea45ded0255480e,
mall,Pusat Perbelanjaan,Mal Ciputra Jakarta,"Jl. Letjen S. Parman, RT.11/RW.1, Tj. Duren Utara, Kec. Grogol petamburan, Kota Jakarta Barat, Daerah Khusus Ibukota Jakarta 11470","RT.11/RW.1, Tj. Duren Utara, Kec. Grogol petamburan, Kota Jakarta Barat",KALIMANTAN BARAT,11470.0,Indonesia,,,,-6.1683907,106.7866182,https://maps.google.com/?cid=0x0:0xc1a27eebd0600293,
mall,Toko,Tita Minimarket,"VWFF+QM6, Putussibau Kota, Kec. Putussibau Utara, Kabupaten Kapuas Hulu, Kalimantan Barat 78752","Putussibau Kota, Kec. Putussibau Utara, Kabupaten Kapuas Hulu",KALIMANTAN BARAT,78752.0,Indonesia,,,,0.8744071,112.9241548,https://maps.google.com/?cid=0x0:0xb98b31d1e9a21e6c,
mall,Kafe,Flamboyan,"Jl Flamboyan, Putussibau Kota, Kec. Putussibau Utara, Kabupaten Kapuas Hulu, Kalimantan Barat 78711","Putussibau Kota, Kec. Putussibau Utara, Kabupaten Kapuas Hulu",KALIMANTAN BARAT,78711.0,Indonesia,,,,0.863308,112.9260021,https://maps.google.com/?cid=0x0:0xb3814e0eb2631ddb,
mall,Kedai Kopi,Toko Buana,"VW5G+J47, Putussibau Kota, Kec. Putussibau Utara, Kabupaten Kapuas Hulu, Kalimantan Barat 78753","Putussibau Kota, Kec. Putussibau Utara, Kabupaten Kapuas Hulu",KALIMANTAN BARAT,78753.0,Indonesia,,,,0.8590419,112.9253023,https://maps.google.com/?cid=0x0:0x98e7f7d9ccb0f43,
mall,Pusat Perbelanjaan,Warung inak eneng,"RWVP+9CP, Kedamin Hulu, Kec. Putussibau Sel., Kabupaten Kapuas Hulu, Kalimantan Barat 78753","Kedamin Hulu, Kec. Putussibau Sel., Kabupaten Kapuas Hulu",KALIMANTAN BARAT,78753.0,Indonesia,85752461541.0,,,0.8434582,112.9360893,https://maps.google.com/?cid=0x0:0x9d4d3e8728341040,
mall,Pusat Perbelanjaan,Aisyah indriyani,"VW2J+HW7, Tj. Jati, Kec. Putussibau Sel., Kabupaten Kapuas Hulu, Kalimantan Barat 78753","Tj. Jati, Kec. Putussibau Sel., Kabupaten Kapuas Hulu",KALIMANTAN BARAT,78753.0,Indonesia,864313913918.0,,,0.851408,112.932297,https://maps.google.com/?cid=0x0:0x53b5458a61f9e666,
mall,Salon Kecantikan,Uni.Beautycare,"RWXF+H7R, Jl. Lintas Selatan, Kedamin Hilir, Kec. Putussibau Sel., Kabupaten Kapuas Hulu, Kalimantan Barat 78753","Jl. Lintas Selatan, Kedamin Hilir, Kec. Putussibau Sel., Kabupaten Kapuas Hulu",KALIMANTAN BARAT,78753.0,Indonesia,89516271319.0,,,0.8489991,112.9231403,https://maps.google.com/?cid=0x0:0x9e52e60fa15a812e,
mall,Pusat Perbelanjaan,GIBRAN COLLECTION,"RWWQ+6Q7 rumah 21, Jl. Kihajar Dewantara no, RT.14/RW.03, Kedamin Hulu, Kec. Putussibau Sel., Kabupaten Kapuas Hulu, Kalimantan Barat","Kabupaten Kapuas Hulu, Kalimantan Barat",KALIMANTAN BARAT,,Indonesia,82251921395.0,,,0.8455431,112.9394112,https://maps.google.com/?cid=0x0:0xed621d3604dc56a9,
mall,Pusat Perbelanjaan,Grand Indonesia Shopping Town,"Jl. M.H. Thamrin No.1, Menteng, Kec. Menteng, Kota Jakarta Pusat, Daerah Khusus Ibukota Jakarta 10310","Menteng, Kec. Menteng, Kota Jakarta Pusat",KALIMANTAN BARAT,10310.0,Indonesia,2123580001.0,,,-6.1965848,106.8224882,https://maps.google.com/?cid=0x0:0xccfcc89b95aaf1ae,
mall,Toko,Sentra Madu Hutan Kapuas Hulu,"VW6F+92W, Putussibau Kota, Kec. Putussibau Utara, Kabupaten Kapuas Hulu, Kalimantan Barat 78753","Putussibau Kota, Kec. Putussibau Utara, Kabupaten Kapuas Hulu",KALIMANTAN BARAT,78753.0,Indonesia,85654511252.0,,,0.8609839,112.9225667,https://maps.google.com/?cid=0x0:0xc24a70929f8165cb,
mall,Toko,Android Store,"VW7F+4W4, Putussibau Kota, Kec. Putussibau Utara, Kabupaten Kapuas Hulu, Kalimantan Barat 78753","Putussibau Kota, Kec. Putussibau Utara, Kabupaten Kapuas Hulu",KALIMANTAN BARAT,78753.0,Indonesia,82150222478.0,,,0.8627675,112.9248355,https://maps.google.com/?cid=0x0:0xead30ca233db3dd7,
mall,Toko bahan makanan,Anugrah LGI,"pasar pagi, Tj. Jati, Kec. Putussibau Sel., Kabupaten Kapuas Hulu, Kalimantan Barat 78753","Tj. Jati, Kec. Putussibau Sel., Kabupaten Kapuas Hulu",KALIMANTAN BARAT,78753.0,Indonesia,,,,0.8589801,112.9275421,https://maps.google.com/?cid=0x0:0xc60dec84aad8b440,
mall,Pusat Perbelanjaan,Mall Kota Kasablanka,"Jl. Raya Casablanca No.Kav 88, Menteng Dalam, Kec. Tebet, Kota Jakarta Selatan, Daerah Khusus Ibukota Jakarta 12870","Menteng Dalam, Kec. Tebet, Kota Jakarta Selatan",KALIMANTAN BARAT,12870.0,Indonesia,2129465000.0,,,-6.2240353,106.8425979,https://maps.google.com/?cid=0x0:0xaf54cb631563acce,
mall,Bengkel Sepeda Motor,Sony Motor,"VWFF+H9P, Putussibau Kota, Kec. Putussibau Utara, Kabupaten Kapuas Hulu, Kalimantan Barat 78753","Putussibau Kota, Kec. Putussibau Utara, Kabupaten Kapuas Hulu",KALIMANTAN BARAT,78753.0,Indonesia,81256868289.0,,,0.8739505,112.9234454,https://maps.google.com/?cid=0x0:0x14b1dd08f1a9bcb3,
mall,Toko Ponsel,SimCell Reload,"VWGF+5M7, Putussibau Kota, Kec. Putussibau Utara, Kabupaten Kapuas Hulu, Kalimantan Barat 78753","Putussibau Kota, Kec. Putussibau Utara, Kabupaten Kapuas Hulu",KALIMANTAN BARAT,78753.0,Indonesia,,,,0.8754195,112.9241605,https://maps.google.com/?cid=0x0:0x9dbebbc6493d0cfe,
mall,Pusat Perbelanjaan,@adila@shop@,"RWWQ+HQW, Kedamin Hulu, Kec. Putussibau Sel., Kabupaten Kapuas Hulu, Kalimantan Barat 78753","Kedamin Hulu, Kec. Putussibau Sel., Kabupaten Kapuas Hulu",KALIMANTAN BARAT,78753.0,Indonesia,,,,0.8464968,112.9394592,https://maps.google.com/?cid=0x0:0xf40f9fdc349a3491,
mall,Pusat Perbelanjaan,Kapuas Cell,"Jl. Patinggi Sari No.25, Pala Pulau, Kec. Putussibau Utara, Kabupaten Kapuas Hulu, Kalimantan Barat 78752","Pala Pulau, Kec. Putussibau Utara, Kabupaten Kapuas Hulu",KALIMANTAN BARAT,78752.0,Indonesia,816577738.0,,,0.8884334,112.9311631,https://maps.google.com/?cid=0x0:0xe463625989f45e66,
mall,Kantor Perusahaan,Liman Group,"JVWM+JHV, Tekudak, Kec. Kalis, Kabupaten Kapuas Hulu, Kalimantan Barat 78753","Tekudak, Kec. Kalis, Kabupaten Kapuas Hulu",KALIMANTAN BARAT,78753.0,Indonesia,,,,0.6457017,112.8828666,https://maps.google.com/?cid=0x0:0xbc60c31758dfca80,
mall,Pusat Perbelanjaan,Barton Creek Square,"2901 S Capital of Texas Hwy, Austin, TX 78746, Amerika Serikat","Austin, TX",KALIMANTAN BARAT,78746.0,Indonesia,15123277040.0,,,30.2573391,-97.8071883,https://maps.google.com/?cid=0x0:0x3e916e48f2b9e48f,
mall,Pusat Perbelanjaan,2nd Street District,"211 San Antonio St, Austin, TX 78701, Amerika Serikat","Austin, TX",KALIMANTAN BARAT,78701.0,Indonesia,,,,30.2657116,-97.7485243,https://maps.google.com/?cid=0x0:0x2f327fe0efdb2b78,
mall,Pusat Perbelanjaan,The Arboretum,"10000 Research Blvd, Austin, TX 78759, Amerika Serikat",Research Blvd,KALIMANTAN BARAT,10000.0,Indonesia,15123384755.0,,,30.3920231,-97.7485456,https://maps.google.com/?cid=0x0:0xcc7aa2ff4444293a,
mall,Pusat Perbelanjaan,Central Park Shopping Center,"4001 N Lamar Blvd, Austin, TX 78756, Amerika Serikat","Austin, TX",KALIMANTAN BARAT,78756.0,Indonesia,,,,30.3075156,-97.7403171,https://maps.google.com/?cid=0x0:0x4bfa90f85b0feb6f,
mall,mall,Kalimantan Barat 78758,"Kabupaten Kapuas Hulu, Kalimantan Barat","Kabupaten Kapuas Hulu, Kalimantan Barat",KALIMANTAN BARAT,,Indonesia,,,,0.5380074,112.548349,https://maps.google.com/?cid=0x0:0xbc2481a06dba6442,
mall,Toko Pakaian,Toko Budi bersama,"FFPJ+MC2, Unnamed Road, Boyan Tj., Kec. Boyan Tj., Kabupaten Kapuas Hulu, Kalimantan Barat 78758","Unnamed Road, Boyan Tj., Kec. Boyan Tj., Kabupaten Kapuas Hulu",KALIMANTAN BARAT,78758.0,Indonesia,,,,0.4866387,112.4810311,https://maps.google.com/?cid=0x0:0x3c3a6b9dbdc3db7c,
mall,Toko,Ar Center,"GF8P+MQM, Karya maju, Kec. Boyan Tj., Kabupaten Kapuas Hulu, Kalimantan Barat 78758","Karya maju, Kec. Boyan Tj., Kabupaten Kapuas Hulu",KALIMANTAN BARAT,78758.0,Indonesia,82253661798.0,,,0.5167243,112.4869336,https://maps.google.com/?cid=0x0:0x2d0201259e8c8ffc,
mall,Rumah Makan,Warung Anggun,"FFPP+P7C, Boyan Tj., Kec. Boyan Tj., Kabupaten Kapuas Hulu, Kalimantan Barat 78758","Boyan Tj., Kec. Boyan Tj., Kabupaten Kapuas Hulu",KALIMANTAN BARAT,78758.0,Indonesia,,,,0.4868201,112.4856559,https://maps.google.com/?cid=0x0:0x17aa31fdc50ec426,
mall,mall,Kec. Boyan Tj.,"Kabupaten Kapuas Hulu, Kalimantan Barat","Kabupaten Kapuas Hulu, Kalimantan Barat",KALIMANTAN BARAT,,Indonesia,,,,0.4860021,112.4793868,https://maps.google.com/?cid=0x0:0x3bc75c297ce60861,
mall,Toko Pakaian,IDOLA TRANSAKSI,"FFPM+QX9, Mujan, Kec. Boyan Tj., Kabupaten Kapuas Hulu, Kalimantan Barat","Kabupaten Kapuas Hulu, Kalimantan Barat",KALIMANTAN BARAT,,Indonesia,81257621921.0,,,0.4869096,112.4849947,https://maps.google.com/?cid=0x0:0xbeab58afc9a1c379,
mall,mall,Kalimantan Barat 78761,"Kabupaten Kapuas Hulu, Kalimantan Barat","Kabupaten Kapuas Hulu, Kalimantan Barat",KALIMANTAN BARAT,,Indonesia,,,,0.7486759,112.5006693,https://maps.google.com/?cid=0x0:0x4a99a4da4ec8f293,
mall,Kantor Perusahaan,Bunut tengah,"QGG2+J7M, Bunut Tengah, Kec. Bunut Hilir, Kabupaten Kapuas Hulu, Kalimantan Barat 78761","Bunut Tengah, Kec. Bunut Hilir, Kabupaten Kapuas Hulu",KALIMANTAN BARAT,78761.0,Indonesia,,,,0.7767741,112.5009331,https://maps.google.com/?cid=0x0:0x67a32002bc02a7fc,
mall,Toko,Ar Center,"GF8P+MQM, Karya maju, Kec. Boyan Tj., Kabupaten Kapuas Hulu, Kalimantan Barat 78758","Karya maju, Kec. Boyan Tj., Kabupaten Kapuas Hulu",KALIMANTAN BARAT,78758.0,Indonesia,82253661798.0,,,0.5167243,112.4869336,https://maps.google.com/?cid=0x0:0x2d0201259e8c8ffc,
mall,Komplek perumahan,TPI Jongkong,"Jongkong Ps., Kec. Jongkong, Kabupaten Kapuas Hulu, Kalimantan Barat 78763","Kec. Jongkong, Kabupaten Kapuas Hulu",KALIMANTAN BARAT,78763.0,Indonesia,85692294015.0,,,0.6640567,112.2830433,https://maps.google.com/?cid=0x0:0x2b6d039a2c0b658c,
mall,Toko Swalayan,TOKO BUDY MULYA,"F8QW+VQ2, Unnamed Road, Mawan, Kec. Pengkadan, Kabupaten Kapuas Hulu, Kalimantan Barat 78759","Unnamed Road, Mawan, Kec. Pengkadan, Kabupaten Kapuas Hulu",KALIMANTAN BARAT,78759.0,Indonesia,82153653198.0,,,0.4896262,112.3468957,https://maps.google.com/?cid=0x0:0x63cde96f9ae0c4ec,
mall,Rumah Makan,Warung Anggun,"FFPP+P7C, Boyan Tj., Kec. Boyan Tj., Kabupaten Kapuas Hulu, Kalimantan Barat 78758","Boyan Tj., Kec. Boyan Tj., Kabupaten Kapuas Hulu",KALIMANTAN BARAT,78758.0,Indonesia,,,,0.4868201,112.4856559,https://maps.google.com/?cid=0x0:0x17aa31fdc50ec426,
mall,Mal outlet,Ayani Megamall,"Jl. Jenderal Ahmad Yani No.4, Parit Tokaya, Kec. Pontianak Sel., Kota Pontianak, Kalimantan Barat 78113","Parit Tokaya, Kec. Pontianak Sel., Kota Pontianak",KALIMANTAN BARAT,78113.0,Indonesia,561763888.0,,,-0.051244,109.345662,https://maps.google.com/?cid=0x0:0x5217d4caea80b3d0,
mall,Toko Pakaian,Toko Mas Agus,"FFPM+QC5, Unnamed Road, Boyan Tj., Kec. Boyan Tj., Kabupaten Kapuas Hulu, Kalimantan Barat 78758","Unnamed Road, Boyan Tj., Kec. Boyan Tj., Kabupaten Kapuas Hulu",KALIMANTAN BARAT,78758.0,Indonesia,,,,0.4868892,112.4836003,https://maps.google.com/?cid=0x0:0x16ed99107ce2f98,
mall,Toko Pakaian,IDOLA TRANSAKSI,"FFPM+QX9, Mujan, Kec. Boyan Tj., Kabupaten Kapuas Hulu, Kalimantan Barat","Kabupaten Kapuas Hulu, Kalimantan Barat",KALIMANTAN BARAT,,Indonesia,81257621921.0,,,0.4869096,112.4849947,https://maps.google.com/?cid=0x0:0xbeab58afc9a1c379,
mall,Toko Pakaian,Toko Budi bersama,"FFPJ+MC2, Unnamed Road, Boyan Tj., Kec. Boyan Tj., Kabupaten Kapuas Hulu, Kalimantan Barat 78758","Unnamed Road, Boyan Tj., Kec. Boyan Tj., Kabupaten Kapuas Hulu",KALIMANTAN BARAT,78758.0,Indonesia,,,,0.4866387,112.4810311,https://maps.google.com/?cid=0x0:0x3c3a6b9dbdc3db7c,
mall,Toko,Toko embaloh jaya,"RJJ2+3V, Nanga Embaloh, Kec. Embaloh Hilir, Kabupaten Kapuas Hulu, Kalimantan Barat 78754","Nanga Embaloh, Kec. Embaloh Hilir, Kabupaten Kapuas Hulu",KALIMANTAN BARAT,78754.0,Indonesia,8125656788.0,,,0.8301875,112.6021875,https://maps.google.com/?cid=0x0:0x4cce38f9e41a4be3,
mall,Kantor distrik,PEMERINTAH DESA BUNUT HILIR,"Jalan Pendidikan No.40, Nanga Bunut, Kec. Bunut Hilir, Kabupaten Kapuas Hulu, Kalimantan Barat 78761","Nanga Bunut, Kec. Bunut Hilir, Kabupaten Kapuas Hulu",KALIMANTAN BARAT,78761.0,Indonesia,,,,0.1284737,111.2415865,https://maps.google.com/?cid=0x0:0xe5000e9a3afd57ab,
mall,Toko bahan makanan,Toko Sinar Budi,"GMJ4+JCV, Unnamed Road, Nanga Suruk, Kec. Bunut Hulu, Kabupaten Kapuas Hulu, Kalimantan Barat 78762","Unnamed Road, Nanga Suruk, Kec. Bunut Hulu, Kabupaten Kapuas Hulu",KALIMANTAN BARAT,78762.0,Indonesia,,,,0.5316237,112.6560417,https://maps.google.com/?cid=0x0:0xc71b4854be8529b4,
mall,,Toko aleeqa,"Nanga Suruk, Kec. Bunut Hulu, Kabupaten Kapuas Hulu, Kalimantan Barat 78762","Kec. Bunut Hulu, Kabupaten Kapuas Hulu",KALIMANTAN BARAT,78762.0,Indonesia,857523336354.0,,,0.5325355,112.6586413,https://maps.google.com/?cid=0x0:0x6df3695309fa74b2,
mall,mall,Kalimantan Barat 78762,"Kabupaten Kapuas Hulu, Kalimantan Barat","Kabupaten Kapuas Hulu, Kalimantan Barat",KALIMANTAN BARAT,,Indonesia,,,,0.3457623,112.7152125,https://maps.google.com/?cid=0x0:0xa34114c634a833ee,
mall,Toko bahan makanan,Toko Sinar Budi,"GMJ4+JCV, Unnamed Road, Nanga Suruk, Kec. Bunut Hulu, Kabupaten Kapuas Hulu, Kalimantan Barat 78762","Unnamed Road, Nanga Suruk, Kec. Bunut Hulu, Kabupaten Kapuas Hulu",KALIMANTAN BARAT,78762.0,Indonesia,,,,0.5316237,112.6560417,https://maps.google.com/?cid=0x0:0xc71b4854be8529b4,
mall,Toko Perlengkapan Rumah,Intan ponsel dan toko masdin,"Nanga Semangut, Temuyuk, Kec. Bunut Hulu, Kabupaten Kapuas Hulu, Kalimantan Barat 78762","Temuyuk, Kec. Bunut Hulu, Kabupaten Kapuas Hulu",KALIMANTAN BARAT,78762.0,Indonesia,,,,0.4725608,112.7010045,https://maps.google.com/?cid=0x0:0xe4c5c4e77aa03287,
mall,,Toko aleeqa,"Nanga Suruk, Kec. Bunut Hulu, Kabupaten Kapuas Hulu, Kalimantan Barat 78762","Kec. Bunut Hulu, Kabupaten Kapuas Hulu",KALIMANTAN BARAT,78762.0,Indonesia,857523336354.0,,,0.5325355,112.6586413,https://maps.google.com/?cid=0x0:0x6df3695309fa74b2,
mall,Rumah Makan,Warung Anggun,"FFPP+P7C, Boyan Tj., Kec. Boyan Tj., Kabupaten Kapuas Hulu, Kalimantan Barat 78758","Boyan Tj., Kec. Boyan Tj., Kabupaten Kapuas Hulu",KALIMANTAN BARAT,78758.0,Indonesia,,,,0.4868201,112.4856559,https://maps.google.com/?cid=0x0:0x17aa31fdc50ec426,
mall,Toko,Ar Center,"GF8P+MQM, Karya maju, Kec. Boyan Tj., Kabupaten Kapuas Hulu, Kalimantan Barat 78758","Karya maju, Kec. Boyan Tj., Kabupaten Kapuas Hulu",KALIMANTAN BARAT,78758.0,Indonesia,82253661798.0,,,0.5167243,112.4869336,https://maps.google.com/?cid=0x0:0x2d0201259e8c8ffc,
mall,Toko Ponsel,Toko Azka Jaya/Rafi Ponsel,"FPJ3+P6W Nanga Semangut, Temuyuk, Kec. Bunut Hulu, Kabupaten Kapuas Hulu, Kalimantan Barat 78762","Temuyuk, Kec. Bunut Hulu, Kabupaten Kapuas Hulu",KALIMANTAN BARAT,78762.0,Indonesia,85820047600.0,,,0.4818538,112.703088,https://maps.google.com/?cid=0x0:0x960e50e5b45731da,
mall,Toko Pakaian,IDOLA TRANSAKSI,"FFPM+QX9, Mujan, Kec. Boyan Tj., Kabupaten Kapuas Hulu, Kalimantan Barat","Kabupaten Kapuas Hulu, Kalimantan Barat",KALIMANTAN BARAT,,Indonesia,81257621921.0,,,0.4869096,112.4849947,https://maps.google.com/?cid=0x0:0xbeab58afc9a1c379,
mall,Toko bahan makanan,Kios Umpan Ikan dan Toman Hidup Bang Alfi,"Nanga Semangut, Kec. Bunut Hulu, Kabupaten Kapuas Hulu, Kalimantan Barat 78762","Kec. Bunut Hulu, Kabupaten Kapuas Hulu",KALIMANTAN BARAT,78762.0,Indonesia,81254899243.0,,,0.4744968,112.7023599,https://maps.google.com/?cid=0x0:0xfb5ea80e05349670,
mall,Toko Pakaian,Toko Mas Agus,"FFPM+QC5, Unnamed Road, Boyan Tj., Kec. Boyan Tj., Kabupaten Kapuas Hulu, Kalimantan Barat 78758","Unnamed Road, Boyan Tj., Kec. Boyan Tj., Kabupaten Kapuas Hulu",KALIMANTAN BARAT,78758.0,Indonesia,,,,0.4868892,112.4836003,https://maps.google.com/?cid=0x0:0x16ed99107ce2f98,
mall,Toko Pakaian,Toko Budi bersama,"FFPJ+MC2, Unnamed Road, Boyan Tj., Kec. Boyan Tj., Kabupaten Kapuas Hulu, Kalimantan Barat 78758","Unnamed Road, Boyan Tj., Kec. Boyan Tj., Kabupaten Kapuas Hulu",KALIMANTAN BARAT,78758.0,Indonesia,,,,0.4866387,112.4810311,https://maps.google.com/?cid=0x0:0x3c3a6b9dbdc3db7c,
mall,Toko,Toko embaloh jaya,"RJJ2+3V, Nanga Embaloh, Kec. Embaloh Hilir, Kabupaten Kapuas Hulu, Kalimantan Barat 78754","Nanga Embaloh, Kec. Embaloh Hilir, Kabupaten Kapuas Hulu",KALIMANTAN BARAT,78754.0,Indonesia,8125656788.0,,,0.8301875,112.6021875,https://maps.google.com/?cid=0x0:0x4cce38f9e41a4be3,
mall,Toko,Toko Naupal,"C854+JX9, Bugang, Kec. Hulu Gurung, Kabupaten Kapuas Hulu, Kalimantan Barat 78764","Bugang, Kec. Hulu Gurung, Kabupaten Kapuas Hulu",KALIMANTAN BARAT,78764.0,Indonesia,,,,0.4090322,112.3074696,https://maps.google.com/?cid=0x0:0x1cdf1dfce9aa4c2b,
mall,Toko Pakaian,SIKEMBAR-BUSANA,"VW8C+G32, Hilir Ktr., Kec. Putussibau Utara, Kabupaten Kapuas Hulu, Kalimantan Barat 78753","Hilir Ktr., Kec. Putussibau Utara, Kabupaten Kapuas Hulu",KALIMANTAN BARAT,78753.0,Indonesia,85787325888.0,,,0.8662726,112.9201516,https://maps.google.com/?cid=0x0:0xb933f6cd82e5c53f,
mall,Toko Swalayan,TOKO BUDY MULYA,"F8QW+VQ2, Unnamed Road, Mawan, Kec. Pengkadan, Kabupaten Kapuas Hulu, Kalimantan Barat 78759","Unnamed Road, Mawan, Kec. Pengkadan, Kabupaten Kapuas Hulu",KALIMANTAN BARAT,78759.0,Indonesia,82153653198.0,,,0.4896262,112.3468957,https://maps.google.com/?cid=0x0:0x63cde96f9ae0c4ec,
mall,Kantor Perusahaan,Bunut tengah,"QGG2+J7M, Bunut Tengah, Kec. Bunut Hilir, Kabupaten Kapuas Hulu, Kalimantan Barat 78761","Bunut Tengah, Kec. Bunut Hilir, Kabupaten Kapuas Hulu",KALIMANTAN BARAT,78761.0,Indonesia,,,,0.7767741,112.5009331,https://maps.google.com/?cid=0x0:0x67a32002bc02a7fc,
mall,mall,TOKO ZAIN NANGA SEMANGUT,"FM9X+VC, Temuyuk, Kec. Bunut Hulu, Kabupaten Kapuas Hulu, Kalimantan Barat 78762","Temuyuk, Kec. Bunut Hulu, Kabupaten Kapuas Hulu",KALIMANTAN BARAT,78762.0,Indonesia,,,,0.46971,112.6985436,https://maps.google.com/?cid=0x0:0x61dad3606b94e8e1,
mall,Toko bahan makanan,BUMDES MITRA USAHA,"GQJJ+PQ2, Nanga Mentebah, Kec. Mentebah, Kabupaten Kapuas Hulu, Kalimantan Barat 78757","Nanga Mentebah, Kec. Mentebah, Kabupaten Kapuas Hulu",KALIMANTAN BARAT,78757.0,Indonesia,82153407905.0,,,0.5317553,112.7818769,https://maps.google.com/?cid=0x0:0xdfa3a3482522019f,
mall,mall,Mobile stokis Hwi Kapuas hulu,"FPM3+C98, Temuyuk, Kec. Bunut Hulu, Kabupaten Kapuas Hulu, Kalimantan Barat 78762","Temuyuk, Kec. Bunut Hulu, Kabupaten Kapuas Hulu",KALIMANTAN BARAT,78762.0,Indonesia,81251462489.0,,,0.4835378,112.7034381,https://maps.google.com/?cid=0x0:0x9b84bdb6ce9c8131,
mall,mall,Kalimantan Barat 78762,"Kabupaten Kapuas Hulu, Kalimantan Barat","Kabupaten Kapuas Hulu, Kalimantan Barat",KALIMANTAN BARAT,,Indonesia,,,,0.3457623,112.7152125,https://maps.google.com/?cid=0x0:0xa34114c634a833ee,
mall,Toko bahan makanan,Toko Sinar Budi,"GMJ4+JCV, Unnamed Road, Nanga Suruk, Kec. Bunut Hulu, Kabupaten Kapuas Hulu, Kalimantan Barat 78762","Unnamed Road, Nanga Suruk, Kec. Bunut Hulu, Kabupaten Kapuas Hulu",KALIMANTAN BARAT,78762.0,Indonesia,,,,0.5316237,112.6560417,https://maps.google.com/?cid=0x0:0xc71b4854be8529b4,
mall,Toko Perlengkapan Rumah,Intan ponsel dan toko masdin,"Nanga Semangut, Temuyuk, Kec. Bunut Hulu, Kabupaten Kapuas Hulu, Kalimantan Barat 78762","Temuyuk, Kec. Bunut Hulu, Kabupaten Kapuas Hulu",KALIMANTAN BARAT,78762.0,Indonesia,,,,0.4725608,112.7010045,https://maps.google.com/?cid=0x0:0xe4c5c4e77aa03287,
mall,mall,Kec. Bunut Hulu,"Kabupaten Kapuas Hulu, Kalimantan Barat","Kabupaten Kapuas Hulu, Kalimantan Barat",KALIMANTAN BARAT,,Indonesia,,,,0.3457623,112.7152125,https://maps.google.com/?cid=0x0:0xba53908338bca6f0,
mall,Toko,Ar Center,"GF8P+MQM, Karya maju, Kec. Boyan Tj., Kabupaten Kapuas Hulu, Kalimantan Barat 78758","Karya maju, Kec. Boyan Tj., Kabupaten Kapuas Hulu",KALIMANTAN BARAT,78758.0,Indonesia,82253661798.0,,,0.5167243,112.4869336,https://maps.google.com/?cid=0x0:0x2d0201259e8c8ffc,
mall,,Toko aleeqa,"Nanga Suruk, Kec. Bunut Hulu, Kabupaten Kapuas Hulu, Kalimantan Barat 78762","Kec. Bunut Hulu, Kabupaten Kapuas Hulu",KALIMANTAN BARAT,78762.0,Indonesia,857523336354.0,,,0.5325355,112.6586413,https://maps.google.com/?cid=0x0:0x6df3695309fa74b2,
mall,Rumah Makan,Warung Anggun,"FFPP+P7C, Boyan Tj., Kec. Boyan Tj., Kabupaten Kapuas Hulu, Kalimantan Barat 78758","Boyan Tj., Kec. Boyan Tj., Kabupaten Kapuas Hulu",KALIMANTAN BARAT,78758.0,Indonesia,,,,0.4868201,112.4856559,https://maps.google.com/?cid=0x0:0x17aa31fdc50ec426,
mall,Toko Pakaian,Toko Budi bersama,"FFPJ+MC2, Unnamed Road, Boyan Tj., Kec. Boyan Tj., Kabupaten Kapuas Hulu, Kalimantan Barat 78758","Unnamed Road, Boyan Tj., Kec. Boyan Tj., Kabupaten Kapuas Hulu",KALIMANTAN BARAT,78758.0,Indonesia,,,,0.4866387,112.4810311,https://maps.google.com/?cid=0x0:0x3c3a6b9dbdc3db7c,
mall,Toko Ponsel,Toko Azka Jaya/Rafi Ponsel,"FPJ3+P6W Nanga Semangut, Temuyuk, Kec. Bunut Hulu, Kabupaten Kapuas Hulu, Kalimantan Barat 78762","Temuyuk, Kec. Bunut Hulu, Kabupaten Kapuas Hulu",KALIMANTAN BARAT,78762.0,Indonesia,85820047600.0,,,0.4818538,112.703088,https://maps.google.com/?cid=0x0:0x960e50e5b45731da,
mall,Toko bahan makanan,Kios Umpan Ikan dan Toman Hidup Bang Alfi,"Nanga Semangut, Kec. Bunut Hulu, Kabupaten Kapuas Hulu, Kalimantan Barat 78762","Kec. Bunut Hulu, Kabupaten Kapuas Hulu",KALIMANTAN BARAT,78762.0,Indonesia,81254899243.0,,,0.4744968,112.7023599,https://maps.google.com/?cid=0x0:0xfb5ea80e05349670,
mall,Toko bahan makanan,OWEN MARKET,"Jl. Lintas Kalimantan Poros Utara, Kedamin Hulu, Kec. Putussibau Sel., Kabupaten Kapuas Hulu, Kalimantan Barat 78753","Kedamin Hulu, Kec. Putussibau Sel., Kabupaten Kapuas Hulu",KALIMANTAN BARAT,78753.0,Indonesia,,,,0.8331139,112.9329174,https://maps.google.com/?cid=0x0:0xcbf806973cca3a5c,
mall,Toko Pakaian,Toko Mas Agus,"FFPM+QC5, Unnamed Road, Boyan Tj., Kec. Boyan Tj., Kabupaten Kapuas Hulu, Kalimantan Barat 78758","Unnamed Road, Boyan Tj., Kec. Boyan Tj., Kabupaten Kapuas Hulu",KALIMANTAN BARAT,78758.0,Indonesia,,,,0.4868892,112.4836003,https://maps.google.com/?cid=0x0:0x16ed99107ce2f98,
mall,Toko,Toko Naupal,"C854+JX9, Bugang, Kec. Hulu Gurung, Kabupaten Kapuas Hulu, Kalimantan Barat 78764","Bugang, Kec. Hulu Gurung, Kabupaten Kapuas Hulu",KALIMANTAN BARAT,78764.0,Indonesia,,,,0.4090322,112.3074696,https://maps.google.com/?cid=0x0:0x1cdf1dfce9aa4c2b,
mall,Toko Pakaian,IDOLA TRANSAKSI,"FFPM+QX9, Mujan, Kec. Boyan Tj., Kabupaten Kapuas Hulu, Kalimantan Barat","Kabupaten Kapuas Hulu, Kalimantan Barat",KALIMANTAN BARAT,,Indonesia,81257621921.0,,,0.4869096,112.4849947,https://maps.google.com/?cid=0x0:0xbeab58afc9a1c379,
mall,mall,TOKO ZAIN NANGA SEMANGUT,"FM9X+VC, Temuyuk, Kec. Bunut Hulu, Kabupaten Kapuas Hulu, Kalimantan Barat 78762","Temuyuk, Kec. Bunut Hulu, Kabupaten Kapuas Hulu",KALIMANTAN BARAT,78762.0,Indonesia,,,,0.46971,112.6985436,https://maps.google.com/?cid=0x0:0x61dad3606b94e8e1,
mall,Toko,Toko embaloh jaya,"RJJ2+3V, Nanga Embaloh, Kec. Embaloh Hilir, Kabupaten Kapuas Hulu, Kalimantan Barat 78754","Nanga Embaloh, Kec. Embaloh Hilir, Kabupaten Kapuas Hulu",KALIMANTAN BARAT,78754.0,Indonesia,8125656788.0,,,0.8301875,112.6021875,https://maps.google.com/?cid=0x0:0x4cce38f9e41a4be3,
mall,Toko,Toko embaloh jaya,"RJJ2+3V, Nanga Embaloh, Kec. Embaloh Hilir, Kabupaten Kapuas Hulu, Kalimantan Barat 78754","Nanga Embaloh, Kec. Embaloh Hilir, Kabupaten Kapuas Hulu",KALIMANTAN BARAT,78754.0,Indonesia,8125656788.0,,,0.8301875,112.6021875,https://maps.google.com/?cid=0x0:0x4cce38f9e41a4be3,
mall,Dapur Umum,Toko PARIS,"RJJ2+HQH, Nanga Embaloh, Kec. Embaloh Hilir, Kabupaten Kapuas Hulu, Kalimantan Barat 78754","Nanga Embaloh, Kec. Embaloh Hilir, Kabupaten Kapuas Hulu",KALIMANTAN BARAT,78754.0,Indonesia,,,,0.8314309,112.6019819,https://maps.google.com/?cid=0x0:0xc133198d34d8f76b,
mall,mall,Kalimantan Barat 78755,"Kec. Embaloh Hulu, Kabupaten Kapuas Hulu, Kalimantan Barat","Kabupaten Kapuas Hulu, Kalimantan Barat",KALIMANTAN BARAT,,Indonesia,,,,1.3333965,112.5245093,https://maps.google.com/?cid=0x0:0x6c98a99955b9d91d,
mall,Toko Pakaian,SIKEMBAR-BUSANA,"VW8C+G32, Hilir Ktr., Kec. Putussibau Utara, Kabupaten Kapuas Hulu, Kalimantan Barat 78753","Hilir Ktr., Kec. Putussibau Utara, Kabupaten Kapuas Hulu",KALIMANTAN BARAT,78753.0,Indonesia,85787325888.0,,,0.8662726,112.9201516,https://maps.google.com/?cid=0x0:0xb933f6cd82e5c53f,
mall,Toko Ponsel,SimCell Reload,"VWGF+5M7, Putussibau Kota, Kec. Putussibau Utara, Kabupaten Kapuas Hulu, Kalimantan Barat 78753","Putussibau Kota, Kec. Putussibau Utara, Kabupaten Kapuas Hulu",KALIMANTAN BARAT,78753.0,Indonesia,,,,0.8754195,112.9241605,https://maps.google.com/?cid=0x0:0x9dbebbc6493d0cfe,
mall,Pusat Perbelanjaan,Kapuas Cell,"Jl. Patinggi Sari No.25, Pala Pulau, Kec. Putussibau Utara, Kabupaten Kapuas Hulu, Kalimantan Barat 78752","Pala Pulau, Kec. Putussibau Utara, Kabupaten Kapuas Hulu",KALIMANTAN BARAT,78752.0,Indonesia,816577738.0,,,0.8884334,112.9311631,https://maps.google.com/?cid=0x0:0xe463625989f45e66,
mall,Pusat Perbelanjaan,@adila@shop@,"RWWQ+HQW, Kedamin Hulu, Kec. Putussibau Sel., Kabupaten Kapuas Hulu, Kalimantan Barat 78753","Kedamin Hulu, Kec. Putussibau Sel., Kabupaten Kapuas Hulu",KALIMANTAN BARAT,78753.0,Indonesia,,,,0.8464968,112.9394592,https://maps.google.com/?cid=0x0:0xf40f9fdc349a3491,
mall,Minimarket,MAMA ELA,"VW5H+9C9, Unnamed Road, Putussibau Kota, Kec. Putussibau Utara, Kabupaten Kapuas Hulu, Kalimantan Barat 78753","Unnamed Road, Putussibau Kota, Kec. Putussibau Utara, Kabupaten Kapuas Hulu",KALIMANTAN BARAT,78753.0,Indonesia,,,,0.8584114,112.9285938,https://maps.google.com/?cid=0x0:0xeea45ded0255480e,
mall,Pasar,Pasar Seribu,"VW5H+R9W, Unnamed Road, Tj. Jati, Kec. Putussibau Sel., Kabupaten Kapuas Hulu, Kalimantan Barat 78753","Unnamed Road, Tj. Jati, Kec. Putussibau Sel., Kabupaten Kapuas Hulu",KALIMANTAN BARAT,78753.0,Indonesia,,,,0.859614,112.9284407,https://maps.google.com/?cid=0x0:0xcb64809c5354c880,
mall,Pusat Perbelanjaan,GIBRAN COLLECTION,"RWWQ+6Q7 rumah 21, Jl. Kihajar Dewantara no, RT.14/RW.03, Kedamin Hulu, Kec. Putussibau Sel., Kabupaten Kapuas Hulu, Kalimantan Barat","Kabupaten Kapuas Hulu, Kalimantan Barat",KALIMANTAN BARAT,,Indonesia,82251921395.0,,,0.8455431,112.9394112,https://maps.google.com/?cid=0x0:0xed621d3604dc56a9,
mall,Toko Pakaian,Zulhilmi Badau,"2WV2+J5C, Badau, Kec. Badau, Kabupaten Kapuas Hulu, Kalimantan Barat 78767","Badau, Kec. Badau, Kabupaten Kapuas Hulu",KALIMANTAN BARAT,78767.0,Indonesia,82154254419.0,,,1.0440636,111.9003859,https://maps.google.com/?cid=0x0:0x3f8bfaf2a8935e29,
mall,Kafe,Flamboyan,"Jl Flamboyan, Putussibau Kota, Kec. Putussibau Utara, Kabupaten Kapuas Hulu, Kalimantan Barat 78711","Putussibau Kota, Kec. Putussibau Utara, Kabupaten Kapuas Hulu",KALIMANTAN BARAT,78711.0,Indonesia,,,,0.863308,112.9260021,https://maps.google.com/?cid=0x0:0xb3814e0eb2631ddb,
mall,Toko,Sentra Madu Hutan Kapuas Hulu,"VW6F+92W, Putussibau Kota, Kec. Putussibau Utara, Kabupaten Kapuas Hulu, Kalimantan Barat 78753","Putussibau Kota, Kec. Putussibau Utara, Kabupaten Kapuas Hulu",KALIMANTAN BARAT,78753.0,Indonesia,85654511252.0,,,0.8609839,112.9225667,https://maps.google.com/?cid=0x0:0xc24a70929f8165cb,
mall,Toko bahan makanan,Anugrah LGI,"pasar pagi, Tj. Jati, Kec. Putussibau Sel., Kabupaten Kapuas Hulu, Kalimantan Barat 78753","Tj. Jati, Kec. Putussibau Sel., Kabupaten Kapuas Hulu",KALIMANTAN BARAT,78753.0,Indonesia,,,,0.8589801,112.9275421,https://maps.google.com/?cid=0x0:0xc60dec84aad8b440,
mall,Salon Kecantikan,Uni.Beautycare,"RWXF+H7R, Jl. Lintas Selatan, Kedamin Hilir, Kec. Putussibau Sel., Kabupaten Kapuas Hulu, Kalimantan Barat 78753","Jl. Lintas Selatan, Kedamin Hilir, Kec. Putussibau Sel., Kabupaten Kapuas Hulu",KALIMANTAN BARAT,78753.0,Indonesia,89516271319.0,,,0.8489991,112.9231403,https://maps.google.com/?cid=0x0:0x9e52e60fa15a812e,
mall,Toko,Tita Minimarket,"VWFF+QM6, Putussibau Kota, Kec. Putussibau Utara, Kabupaten Kapuas Hulu, Kalimantan Barat 78752","Putussibau Kota, Kec. Putussibau Utara, Kabupaten Kapuas Hulu",KALIMANTAN BARAT,78752.0,Indonesia,,,,0.8744071,112.9241548,https://maps.google.com/?cid=0x0:0xb98b31d1e9a21e6c,
mall,Kedai Kopi,Toko Buana,"VW5G+J47, Putussibau Kota, Kec. Putussibau Utara, Kabupaten Kapuas Hulu, Kalimantan Barat 78753","Putussibau Kota, Kec. Putussibau Utara, Kabupaten Kapuas Hulu",KALIMANTAN BARAT,78753.0,Indonesia,,,,0.8590419,112.9253023,https://maps.google.com/?cid=0x0:0x98e7f7d9ccb0f43,
mall,Wahana Taman Hiburan,Pasar Wisata Badau,"2VGJ+WVP, Badau, Kec. Badau, Kabupaten Kapuas Hulu, Kalimantan Barat","Kabupaten Kapuas Hulu, Kalimantan Barat",KALIMANTAN BARAT,,Indonesia,,,,1.027344,111.8821957,https://maps.google.com/?cid=0x0:0x817cde9327fdb74d,
mall,Minimarket,Warung fadhil,"Kedamin Hulu, Kec. Putussibau Sel., Kabupaten Kapuas Hulu, Kalimantan Barat 78753","Kec. Putussibau Sel., Kabupaten Kapuas Hulu",KALIMANTAN BARAT,78753.0,Indonesia,,,,0.8458119,112.9391849,https://maps.google.com/?cid=0x0:0xf974dd32bcec6442,
mall,Toko,Android Store,"VW7F+4W4, Putussibau Kota, Kec. Putussibau Utara, Kabupaten Kapuas Hulu, Kalimantan Barat 78753","Putussibau Kota, Kec. Putussibau Utara, Kabupaten Kapuas Hulu",KALIMANTAN BARAT,78753.0,Indonesia,82150222478.0,,,0.8627675,112.9248355,https://maps.google.com/?cid=0x0:0xead30ca233db3dd7,
mall,Toko bahan makanan,TOKOH MS JAYA BADAU,"2WV2+GMX, Unnamed Road, Badau, Kec. Badau, Kabupaten Kapuas Hulu, Kalimantan Barat 78767","Unnamed Road, Badau, Kec. Badau, Kabupaten Kapuas Hulu",KALIMANTAN BARAT,78767.0,Indonesia,82158072334.0,,,1.0438589,111.9017203,https://maps.google.com/?cid=0x0:0x2963c44b9739a63b,
mall,Toko Ponsel,ADI PONSEL,"VWJJ+P53, Jl. Danau Kayan, Putussibau Kota, Kec. Putussibau Utara, Kabupaten Kapuas Hulu, Kalimantan Barat 78752","Jl. Danau Kayan, Putussibau Kota, Kec. Putussibau Utara, Kabupaten Kapuas Hulu",KALIMANTAN BARAT,78752.0,Indonesia,,,,0.8817692,112.9304228,https://maps.google.com/?cid=0x0:0xef69b8f7f469917,
mall,Toko bahan makanan,Toko Akbar,"Depan KUA, Nanga Kantuk, Kec. Empanang, Kabupaten Kapuas Hulu, Kalimantan Barat","Kabupaten Kapuas Hulu, Kalimantan Barat",KALIMANTAN BARAT,,Indonesia,8991567426.0,,,0.8389838,111.7456372,https://maps.google.com/?cid=0x0:0x485221e1ac5b5b57,
mall,,Grosir dan eceran,"RPPW+V2J, Nanga Kantuk, Kec. Empanang, Kabupaten Kapuas Hulu, Kalimantan Barat 78768","Nanga Kantuk, Kec. Empanang, Kabupaten Kapuas Hulu",KALIMANTAN BARAT,78768.0,Indonesia,,,,0.837206,111.7450071,https://maps.google.com/?cid=0x0:0x6ca11bdaef1ae89d,
mall,mall,Kalimantan Barat 78764,"Kabupaten Kapuas Hulu, Kalimantan Barat","Kabupaten Kapuas Hulu, Kalimantan Barat",KALIMANTAN BARAT,,Indonesia,,,,0.3467182,112.3337769,https://maps.google.com/?cid=0x0:0x4ff676ed46f9b944,
mall,Toko,Toko Naupal,"C854+JX9, Bugang, Kec. Hulu Gurung, Kabupaten Kapuas Hulu, Kalimantan Barat 78764","Bugang, Kec. Hulu Gurung, Kabupaten Kapuas Hulu",KALIMANTAN BARAT,78764.0,Indonesia,,,,0.4090322,112.3074696,https://maps.google.com/?cid=0x0:0x1cdf1dfce9aa4c2b,
mall,Pusat Perbelanjaan,Sky Ponsel Tepuai,"98C5+GP4, Nanga Tepuai, Kec. Hulu Gurung, Kabupaten Kapuas Hulu, Kalimantan Barat 78764","Nanga Tepuai, Kec. Hulu Gurung, Kabupaten Kapuas Hulu",KALIMANTAN BARAT,78764.0,Indonesia,,,,0.3712731,112.3093415,https://maps.google.com/?cid=0x0:0x6267bba5a1ef0d4d,
mall,Perhimpunan Pengembang Perumahan,PRAJURIT VAPOR TEPUAI,"98C5+38R, Nanga Tepuai, Kec. Hulu Gurung, Kabupaten Kapuas Hulu, Kalimantan Barat 78764","Nanga Tepuai, Kec. Hulu Gurung, Kabupaten Kapuas Hulu",KALIMANTAN BARAT,78764.0,Indonesia,85392258774.0,,,0.3702301,112.3082603,https://maps.google.com/?cid=0x0:0x2a38b21fec831629,
mall,Toko,Toko variasi tikungan-46,"9893+RX9, Unnamed Road, Nanga Tepuai, Kec. Hulu Gurung, Kabupaten Kapuas Hulu, Kalimantan Barat 78764","Unnamed Road, Nanga Tepuai, Kec. Hulu Gurung, Kabupaten Kapuas Hulu",KALIMANTAN BARAT,78764.0,Indonesia,,,,0.3695428,112.3049866,https://maps.google.com/?cid=0x0:0xd221649094261820,
mall,Toko Pakaian,Toko Sinar Putra,"C9R4+7WC, Marta Dana, Kec. Pengkadan, Kabupaten Kapuas Hulu, Kalimantan Barat 78764","Marta Dana, Kec. Pengkadan, Kabupaten Kapuas Hulu",KALIMANTAN BARAT,78764.0,Indonesia,,,,0.440677,112.3572505,https://maps.google.com/?cid=0x0:0x9bb4b0008ea9a59e,
mall,mall,Kalimantan Barat 78763,"Kabupaten Kapuas Hulu, Kalimantan Barat","Kabupaten Kapuas Hulu, Kalimantan Barat",KALIMANTAN BARAT,,Indonesia,,,,0.6795457,112.262246,https://maps.google.com/?cid=0x0:0xc8cbaf2c5282281a,
mall,Komplek perumahan,TPI Jongkong,"Jongkong Ps., Kec. Jongkong, Kabupaten Kapuas Hulu, Kalimantan Barat 78763","Kec. Jongkong, Kabupaten Kapuas Hulu",KALIMANTAN BARAT,78763.0,Indonesia,85692294015.0,,,0.6640567,112.2830433,https://maps.google.com/?cid=0x0:0x2b6d039a2c0b658c,
mall,mall,Desa Jongkong Pasar,"Unnamed Road, 78763, Jongkong Pasar, Jongkong, Kapuas Hulu Regency, West Kalimantan 78763","78763, Jongkong Pasar, Jongkong, Kapuas Hulu Regency",KALIMANTAN BARAT,78763.0,Indonesia,,,,0.662611,112.28323,https://maps.google.com/?cid=0x0:0x362fd6918414e242,
mall,Taman,Gaia Bumi Raya City,"Jl. Arteri Supadio, Sungai Raya, Kec. Sungai Raya, Kabupaten Kubu Raya, Kalimantan Barat 78121","Sungai Raya, Kec. Sungai Raya, Kabupaten Kubu Raya",KALIMANTAN BARAT,78121.0,Indonesia,,,,-0.0765567,109.3692979,https://maps.google.com/?cid=0x0:0x984911f6fd373a1b,
mall,Pusat Perbelanjaan,Taman Gaia Bumi Raya City Mall,"W9F9+G59, Sungai Raya, Kec. Sungai Raya, Kabupaten Kubu Raya, Kalimantan Barat","Kabupaten Kubu Raya, Kalimantan Barat",KALIMANTAN BARAT,,Indonesia,,,,-0.077111,109.368337,https://maps.google.com/?cid=0x0:0xf2c92c810e376372,
mall,Restoran,Solaria - Gaia Bumi Raya City,"Solaria - Mall Gaia Bumi Raya City, Jl. Arteri Supadio, Raya River, Kubu Raya Regency, West Kalimantan 78391","Jl. Arteri Supadio, Raya River, Kubu Raya Regency",KALIMANTAN BARAT,78391.0,Indonesia,2114099.0,,,-0.0776194,109.3681612,https://maps.google.com/?cid=0x0:0x7a06f86e892c3eba,
mall,mall,Kalimantan Barat,,Kalimantan Barat,KALIMANTAN BARAT,,Indonesia,,,,-0.2787808,111.4752851,https://maps.google.com/?cid=0x0:0xcd5ceced4c2148a0,
mall,Mal outlet,Ayani Megamall,"Jl. Jenderal Ahmad Yani No.4, Parit Tokaya, Kec. Pontianak Sel., Kota Pontianak, Kalimantan Barat 78113","Parit Tokaya, Kec. Pontianak Sel., Kota Pontianak",KALIMANTAN BARAT,78113.0,Indonesia,561763888.0,,,-0.051244,109.345662,https://maps.google.com/?cid=0x0:0x5217d4caea80b3d0,
mall,Pasar Makanan Segar,Vini places,"8QVQ+7RR, Perigi, Kec. Silat Hilir, Kabupaten Kapuas Hulu, Kalimantan Barat 78773","Perigi, Kec. Silat Hilir, Kabupaten Kapuas Hulu",KALIMANTAN BARAT,78773.0,Indonesia,82151165937.0,,,0.3432348,111.78952,https://maps.google.com/?cid=0x0:0xff003301d61854f9,
mall,Toko,Toko usaha baru,"7Q3J+R4Q, Miau Merah, Kec. Silat Hilir, Kabupaten Kapuas Hulu, Kalimantan Barat 78773","Miau Merah, Kec. Silat Hilir, Kabupaten Kapuas Hulu",KALIMANTAN BARAT,78773.0,Indonesia,,,,0.2545853,111.7803562,https://maps.google.com/?cid=0x0:0xdab4396b32458c87,
mall,Pusat Perbelanjaan,Kalibata city square,"Jl. Raya Kalibata No.1, Rawajati, Kec. Pancoran, Kota Jakarta Selatan, Daerah Khusus Ibukota Jakarta 12750","Rawajati, Kec. Pancoran, Kota Jakarta Selatan",KALIMANTAN BARAT,12750.0,Indonesia,,,,-6.2562715,106.8521776,https://maps.google.com/?cid=0x0:0x59db28d93506d0e6,
mall,Pusat Perbelanjaan,Plaza Kalibata,"Jl. Raya Kalibata, Rawajati, Kec. Pancoran, Jakarta, Daerah Khusus Ibukota Jakarta 12750","Rawajati, Kec. Pancoran, Jakarta",KALIMANTAN BARAT,12750.0,Indonesia,81314414475.0,,,-6.2573026,106.8556523,https://maps.google.com/?cid=0x0:0x3333f882e663fd49,
mall,Pusat Perbelanjaan,Lobby utama mall KCS,"PVV2+FWV, RT.9/RW.4, Rawajati, Kec. Pancoran, Kota Jakarta Selatan, Daerah Khusus Ibukota Jakarta 12750","RT.9/RW.4, Rawajati, Kec. Pancoran, Kota Jakarta Selatan",KALIMANTAN BARAT,12750.0,Indonesia,,,,-6.2562611,106.8522868,https://maps.google.com/?cid=0x0:0x2d1b058ee9d5794c,
mall,Pusat Perbelanjaan,Kuningan City,"Jl. Prof. DR. Satrio No.Kav. 18, Kuningan, Karet Kuningan, Kecamatan Setiabudi, Kota Jakarta Selatan, Daerah Khusus Ibukota Jakarta 12940","Kuningan, Karet Kuningan, Kecamatan Setiabudi, Kota Jakarta Selatan",KALIMANTAN BARAT,12940.0,Indonesia,2157905555.0,,,-6.2250136,106.829553,https://maps.google.com/?cid=0x0:0x420d8f1dfd4d9452,
mall,Jepang,Ichiban Sushi - Kalibata City Square,"PLAZA KALIBATA, Jl. Raya Kalibata No.141 Lt.G Unit.40, RT.3/RW.2, Rawajati, Pancoran, South Jakarta City, Jakarta 12750","Jl. Raya Kalibata No.141 Lt.G Unit.40, RT.3/RW.2, Rawajati, Pancoran, South Jakarta City",KALIMANTAN BARAT,12750.0,Indonesia,217993594.0,,,-6.2572996,106.8559941,https://maps.google.com/?cid=0x0:0x9dc327091933a12f,
mall,Kedai Kopi,STARBUCKS,"Jl. Raya Kalibata No.8, RW.3, Rawajati, Kec. Pancoran, Kota Jakarta Selatan, Daerah Khusus Ibukota Jakarta 12750","RW.3, Rawajati, Kec. Pancoran, Kota Jakarta Selatan",KALIMANTAN BARAT,12750.0,Indonesia,,,,-6.25653,106.8522056,https://maps.google.com/?cid=0x0:0xf50285da26967ddf,
mall,Restoran,D'cost Kalibata City,"Jl. Raya Kalibata No.1 Unit D.01 , D.02, RT.9/RW.4, Rawajati, Kec. Pancoran, Kota Jakarta Selatan, Daerah Khusus Ibukota Jakarta 12750","D.02, RT.9/RW.4, Rawajati, Kec. Pancoran, Kota Jakarta Selatan",KALIMANTAN BARAT,12750.0,Indonesia,2179170013.0,,,-6.2564992,106.8530836,https://maps.google.com/?cid=0x0:0xf0d9095c1f3834fd,
mall,Restoran,Solaria - Plaza Kalibata,"PLAZA KALIBATA, Solaria, Jl. Raya Kalibata No.141 Lantai GF, RT.3/RW.2, Rawajati, Kec. Pancoran, Kota Jakarta Selatan, Daerah Khusus Ibukota Jakarta 12750","Solaria, Jl. Raya Kalibata No.141 Lantai GF, RT.3/RW.2, Rawajati, Kec. Pancoran, Kota Jakarta Selatan",KALIMANTAN BARAT,12750.0,Indonesia,2114099.0,,,-6.2572996,106.8559941,https://maps.google.com/?cid=0x0:0x8a9f53398222d9ee,
mall,mall,Kalimantan Barat 78757,"Kec. Mentebah, Kabupaten Kapuas Hulu, Kalimantan Barat","Kabupaten Kapuas Hulu, Kalimantan Barat",KALIMANTAN BARAT,,Indonesia,,,,0.5197143,112.762883,https://maps.google.com/?cid=0x0:0x37a0121c512b52dd,
mall,Bengkel Sepeda Motor,SIMPANG MAKAI MOTOR  SUJA SYALLOM,"Tekalong, Kec. Mentebah, Kabupaten Kapuas Hulu, Kalimantan Barat 78757","Kec. Mentebah, Kabupaten Kapuas Hulu",KALIMANTAN BARAT,78757.0,Indonesia,82157641758.0,,,0.5652483,112.8387489,https://maps.google.com/?cid=0x0:0xb4e76129784e0dfd,
mall,Toko bahan makanan,BUMDES MITRA USAHA,"GQJJ+PQ2, Nanga Mentebah, Kec. Mentebah, Kabupaten Kapuas Hulu, Kalimantan Barat 78757","Nanga Mentebah, Kec. Mentebah, Kabupaten Kapuas Hulu",KALIMANTAN BARAT,78757.0,Indonesia,82153407905.0,,,0.5317553,112.7818769,https://maps.google.com/?cid=0x0:0xdfa3a3482522019f,
mall,,Rizquna Com Cell,"HR3H+WMP, Jl. Lintas Selatan, Desa Menaren, Kec. Mentebah, Kabupaten Kapuas Hulu, Kalimantan Barat 78757","Jl. Lintas Selatan, Desa Menaren, Kec. Mentebah, Kabupaten Kapuas Hulu",KALIMANTAN BARAT,78757.0,Indonesia,,,,0.5548293,112.8292166,https://maps.google.com/?cid=0x0:0xe31bc6657e1186b9,
mall,Toko Perlengkapan Rumah,Intan ponsel dan toko masdin,"Nanga Semangut, Temuyuk, Kec. Bunut Hulu, Kabupaten Kapuas Hulu, Kalimantan Barat 78762","Temuyuk, Kec. Bunut Hulu, Kabupaten Kapuas Hulu",KALIMANTAN BARAT,78762.0,Indonesia,,,,0.4725608,112.7010045,https://maps.google.com/?cid=0x0:0xe4c5c4e77aa03287,
mall,Pusat Perbelanjaan,AGEN/DISTRIBUTOR NASA KAPUAS HULU,"FPM3+FC7, Jl. Lintas Selatan, Temuyuk, Kec. Bunut Hulu, Kabupaten Kapuas Hulu, Kalimantan Barat 78762","Jl. Lintas Selatan, Temuyuk, Kec. Bunut Hulu, Kabupaten Kapuas Hulu",KALIMANTAN BARAT,78762.0,Indonesia,81251462489.0,,,0.4836636,112.7035582,https://maps.google.com/?cid=0x0:0x71bf166cc8c77bef,
mall,Toko Ponsel,Toko Azka Jaya/Rafi Ponsel,"FPJ3+P6W Nanga Semangut, Temuyuk, Kec. Bunut Hulu, Kabupaten Kapuas Hulu, Kalimantan Barat 78762","Temuyuk, Kec. Bunut Hulu, Kabupaten Kapuas Hulu",KALIMANTAN BARAT,78762.0,Indonesia,85820047600.0,,,0.4818538,112.703088,https://maps.google.com/?cid=0x0:0x960e50e5b45731da,
mall,mall,Kec. Mentebah,"Kabupaten Kapuas Hulu, Kalimantan Barat","Kabupaten Kapuas Hulu, Kalimantan Barat",KALIMANTAN BARAT,,Indonesia,,,,0.5429838,112.7960939,https://maps.google.com/?cid=0x0:0xb7b19221d4fd8327,
mall,mall,Home me,"92WG+R22, Tanjung, Kec. Mentebah, Kabupaten Kapuas Hulu, Kalimantan Barat","Kabupaten Kapuas Hulu, Kalimantan Barat",KALIMANTAN BARAT,,Indonesia,,,,0.3970084,113.0250269,https://maps.google.com/?cid=0x0:0x8cd564f34055b5d1,
mall,mall,AuLyALdy Com,"HR3H+WVQ, Nanga Semangut - Putussibau, Tekalong, Kec. Mentebah, Kabupaten Kapuas Hulu, Kalimantan Barat 78757","Nanga Semangut - Putussibau, Tekalong, Kec. Mentebah, Kabupaten Kapuas Hulu",KALIMANTAN BARAT,78757.0,Indonesia,,,,0.5548466,112.8297438,https://maps.google.com/?cid=0x0:0x2f29c2c17faaac79,
mall,mall,Kec. Pengkadan,"Kabupaten Kapuas Hulu, Kalimantan Barat","Kabupaten Kapuas Hulu, Kalimantan Barat",KALIMANTAN BARAT,,Indonesia,,,,0.445697,112.3656401,https://maps.google.com/?cid=0x0:0x4388a47a05496595,
mall,Penyedia Layanan Telekomunikasi,PTS021 BATU DATU,"C9W8+489, Marta Dana, Kec. Pengkadan, Kabupaten Kapuas Hulu, Kalimantan Barat 78759","Marta Dana, Kec. Pengkadan, Kabupaten Kapuas Hulu",KALIMANTAN BARAT,78759.0,Indonesia,,,,0.4452992,112.365844,https://maps.google.com/?cid=0x0:0x1fe1e7c4acc1b73c,
mall,mall,Toko ana,"C9W9+X2R, Unnamed Road, Marta Dana, Kec. Pengkadan, Kabupaten Kapuas Hulu, Kalimantan Barat 78759","Unnamed Road, Marta Dana, Kec. Pengkadan, Kabupaten Kapuas Hulu",KALIMANTAN BARAT,78759.0,Indonesia,,,,0.4474934,112.3675214,https://maps.google.com/?cid=0x0:0xba2d8b5ae1e619d7,
mall,mall,Lapangan Bola,"G87W+278, Mawan, Kec. Pengkadan, Kabupaten Kapuas Hulu, Kalimantan Barat 78759","Mawan, Kec. Pengkadan, Kabupaten Kapuas Hulu",KALIMANTAN BARAT,78759.0,Indonesia,82350662731.0,,,0.5125385,112.3456985,https://maps.google.com/?cid=0x0:0x3d040fee1181891,
mall,mall,Kalimantan Barat 78769,"Kabupaten Kapuas Hulu, Kalimantan Barat","Kabupaten Kapuas Hulu, Kalimantan Barat",KALIMANTAN BARAT,,Indonesia,,,,0.9303164,111.689921,https://maps.google.com/?cid=0x0:0x982b0be4ebd1b31e,
mall,Toko bahan makanan,Toko Akbar,"Depan KUA, Nanga Kantuk, Kec. Empanang, Kabupaten Kapuas Hulu, Kalimantan Barat","Kabupaten Kapuas Hulu, Kalimantan Barat",KALIMANTAN BARAT,,Indonesia,8991567426.0,,,0.8389838,111.7456372,https://maps.google.com/?cid=0x0:0x485221e1ac5b5b57,
mall,Rumah Sakit,Puskesmas Puring Kencana,"XJG6+F6F, Jl. Negara, Sungai Antu, Kec. Puring Kencana, Kabupaten Kapuas Hulu, Kalimantan Barat 78653","Jl. Negara, Sungai Antu, Kec. Puring Kencana, Kabupaten Kapuas Hulu",KALIMANTAN BARAT,78653.0,Indonesia,,,,0.9761771,111.6105429,https://maps.google.com/?cid=0x0:0x8369b0a11bdf27a5,
mall,mall,Kalimantan Barat 78714,"Kec. Putussibau Utara, Kabupaten Kapuas Hulu, Kalimantan Barat","Kabupaten Kapuas Hulu, Kalimantan Barat",KALIMANTAN BARAT,,Indonesia,,,,0.9130451,112.9654557,https://maps.google.com/?cid=0x0:0x5acbfa7d2c9222,
mall,Pusat Perbelanjaan,Kapuas Cell,"Jl. Patinggi Sari No.25, Pala Pulau, Kec. Putussibau Utara, Kabupaten Kapuas Hulu, Kalimantan Barat 78752","Pala Pulau, Kec. Putussibau Utara, Kabupaten Kapuas Hulu",KALIMANTAN BARAT,78752.0,Indonesia,816577738.0,,,0.8884334,112.9311631,https://maps.google.com/?cid=0x0:0xe463625989f45e66,
mall,Pasar,Pasar Seribu,"VW5H+R9W, Unnamed Road, Tj. Jati, Kec. Putussibau Sel., Kabupaten Kapuas Hulu, Kalimantan Barat 78753","Unnamed Road, Tj. Jati, Kec. Putussibau Sel., Kabupaten Kapuas Hulu",KALIMANTAN BARAT,78753.0,Indonesia,,,,0.859614,112.9284407,https://maps.google.com/?cid=0x0:0xcb64809c5354c880,
mall,Toko Pakaian,SIKEMBAR-BUSANA,"VW8C+G32, Hilir Ktr., Kec. Putussibau Utara, Kabupaten Kapuas Hulu, Kalimantan Barat 78753","Hilir Ktr., Kec. Putussibau Utara, Kabupaten Kapuas Hulu",KALIMANTAN BARAT,78753.0,Indonesia,85787325888.0,,,0.8662726,112.9201516,https://maps.google.com/?cid=0x0:0xb933f6cd82e5c53f,
mall,Toko,Tita Minimarket,"VWFF+QM6, Putussibau Kota, Kec. Putussibau Utara, Kabupaten Kapuas Hulu, Kalimantan Barat 78752","Putussibau Kota, Kec. Putussibau Utara, Kabupaten Kapuas Hulu",KALIMANTAN BARAT,78752.0,Indonesia,,,,0.8744071,112.9241548,https://maps.google.com/?cid=0x0:0xb98b31d1e9a21e6c,
mall,Toko Ponsel,ADI PONSEL,"VWJJ+P53, Jl. Danau Kayan, Putussibau Kota, Kec. Putussibau Utara, Kabupaten Kapuas Hulu, Kalimantan Barat 78752","Jl. Danau Kayan, Putussibau Kota, Kec. Putussibau Utara, Kabupaten Kapuas Hulu",KALIMANTAN BARAT,78752.0,Indonesia,,,,0.8817692,112.9304228,https://maps.google.com/?cid=0x0:0xef69b8f7f469917,
mall,Toko Ponsel,SimCell Reload,"VWGF+5M7, Putussibau Kota, Kec. Putussibau Utara, Kabupaten Kapuas Hulu, Kalimantan Barat 78753","Putussibau Kota, Kec. Putussibau Utara, Kabupaten Kapuas Hulu",KALIMANTAN BARAT,78753.0,Indonesia,,,,0.8754195,112.9241605,https://maps.google.com/?cid=0x0:0x9dbebbc6493d0cfe,
mall,Toko,Android Store,"VW7F+4W4, Putussibau Kota, Kec. Putussibau Utara, Kabupaten Kapuas Hulu, Kalimantan Barat 78753","Putussibau Kota, Kec. Putussibau Utara, Kabupaten Kapuas Hulu",KALIMANTAN BARAT,78753.0,Indonesia,82150222478.0,,,0.8627675,112.9248355,https://maps.google.com/?cid=0x0:0xead30ca233db3dd7,
mall,Toko Elektronik,Raflymobile,"VWCF+6GF, Jl. Ngurah Rai, Putussibau Kota, Kec. Putussibau Utara, Kabupaten Kapuas Hulu, Kalimantan Barat 78753","Jl. Ngurah Rai, Putussibau Kota, Kec. Putussibau Utara, Kabupaten Kapuas Hulu",KALIMANTAN BARAT,78753.0,Indonesia,85252635660.0,,,0.8705623,112.9237863,https://maps.google.com/?cid=0x0:0xc5f7547045020f89,
mall,Pusat Perbelanjaan,@adila@shop@,"RWWQ+HQW, Kedamin Hulu, Kec. Putussibau Sel., Kabupaten Kapuas Hulu, Kalimantan Barat 78753","Kedamin Hulu, Kec. Putussibau Sel., Kabupaten Kapuas Hulu",KALIMANTAN BARAT,78753.0,Indonesia,,,,0.8464968,112.9394592,https://maps.google.com/?cid=0x0:0xf40f9fdc349a3491,
mall,Toko Ikan Tropis,Aquascape Putussibau Gallery store,"VWJC+3XG, Jl. S. Parman, Putussibau Kota, Kec. Putussibau Utara, Kabupaten Kapuas Hulu, Kalimantan Barat 78752","Jl. S. Parman, Putussibau Kota, Kec. Putussibau Utara, Kabupaten Kapuas Hulu",KALIMANTAN BARAT,78752.0,Indonesia,82254252820.0,,,0.8801846,112.9224551,https://maps.google.com/?cid=0x0:0x7f3502c123194032,
mall,Toko bahan makanan,Anugrah LGI,"pasar pagi, Tj. Jati, Kec. Putussibau Sel., Kabupaten Kapuas Hulu, Kalimantan Barat 78753","Tj. Jati, Kec. Putussibau Sel., Kabupaten Kapuas Hulu",KALIMANTAN BARAT,78753.0,Indonesia,,,,0.8589801,112.9275421,https://maps.google.com/?cid=0x0:0xc60dec84aad8b440,
mall,Toko,Sentra Madu Hutan Kapuas Hulu,"VW6F+92W, Putussibau Kota, Kec. Putussibau Utara, Kabupaten Kapuas Hulu, Kalimantan Barat 78753","Putussibau Kota, Kec. Putussibau Utara, Kabupaten Kapuas Hulu",KALIMANTAN BARAT,78753.0,Indonesia,85654511252.0,,,0.8609839,112.9225667,https://maps.google.com/?cid=0x0:0xc24a70929f8165cb,
mall,Pusat Perbelanjaan,Aisyah indriyani,"VW2J+HW7, Tj. Jati, Kec. Putussibau Sel., Kabupaten Kapuas Hulu, Kalimantan Barat 78753","Tj. Jati, Kec. Putussibau Sel., Kabupaten Kapuas Hulu",KALIMANTAN BARAT,78753.0,Indonesia,864313913918.0,,,0.851408,112.932297,https://maps.google.com/?cid=0x0:0x53b5458a61f9e666,
mall,Bengkel Sepeda Motor,Sony Motor,"VWFF+H9P, Putussibau Kota, Kec. Putussibau Utara, Kabupaten Kapuas Hulu, Kalimantan Barat 78753","Putussibau Kota, Kec. Putussibau Utara, Kabupaten Kapuas Hulu",KALIMANTAN BARAT,78753.0,Indonesia,81256868289.0,,,0.8739505,112.9234454,https://maps.google.com/?cid=0x0:0x14b1dd08f1a9bcb3,
mall,Kedai Kopi,Toko Buana,"VW5G+J47, Putussibau Kota, Kec. Putussibau Utara, Kabupaten Kapuas Hulu, Kalimantan Barat 78753","Putussibau Kota, Kec. Putussibau Utara, Kabupaten Kapuas Hulu",KALIMANTAN BARAT,78753.0,Indonesia,,,,0.8590419,112.9253023,https://maps.google.com/?cid=0x0:0x98e7f7d9ccb0f43,
mall,Restoran,Warung sayur popy,"RWRJ+6QM, Unnamed Road, Kedamin Hulu, Kec. Putussibau Sel., Kabupaten Kapuas Hulu, Kalimantan Barat 78753","Unnamed Road, Kedamin Hulu, Kec. Putussibau Sel., Kabupaten Kapuas Hulu",KALIMANTAN BARAT,78753.0,Indonesia,,,,0.840579,112.9319087,https://maps.google.com/?cid=0x0:0x16234186af5bf937,
mall,Salon Kecantikan,Uni.Beautycare,"RWXF+H7R, Jl. Lintas Selatan, Kedamin Hilir, Kec. Putussibau Sel., Kabupaten Kapuas Hulu, Kalimantan Barat 78753","Jl. Lintas Selatan, Kedamin Hilir, Kec. Putussibau Sel., Kabupaten Kapuas Hulu",KALIMANTAN BARAT,78753.0,Indonesia,89516271319.0,,,0.8489991,112.9231403,https://maps.google.com/?cid=0x0:0x9e52e60fa15a812e,
mall,Toko Pakaian Remaja,Toko limma putussibau,"VWCF+7G4, Putussibau Kota, Kec. Putussibau Utara, Kabupaten Kapuas Hulu, Kalimantan Barat 78753","Putussibau Kota, Kec. Putussibau Utara, Kabupaten Kapuas Hulu",KALIMANTAN BARAT,78753.0,Indonesia,85820655078.0,,,0.8706471,112.9238373,https://maps.google.com/?cid=0x0:0x88cebdaefb6ef403,
mall,Pusat Perbelanjaan,MM.TITA,"VWFF+QM5, Putussibau Kota, Kec. Putussibau Utara, Kabupaten Kapuas Hulu, Kalimantan Barat 78753","Putussibau Kota, Kec. Putussibau Utara, Kabupaten Kapuas Hulu",KALIMANTAN BARAT,78753.0,Indonesia,81254254796.0,,,0.8743877,112.9242299,https://maps.google.com/?cid=0x0:0xf04ff6c17f453019,
mall,Pusat Perbelanjaan,Andi Mart,"Jl. Ngurah Rai No.2, Putussibau Kota, Kec. Putussibau Utara, Kabupaten Kapuas Hulu, Kalimantan Barat 78753","Putussibau Kota, Kec. Putussibau Utara, Kabupaten Kapuas Hulu",KALIMANTAN BARAT,78753.0,Indonesia,,,,0.8668305,112.924325,https://maps.google.com/?cid=0x0:0x35f98cac41834a80,
mall,Toko,Toko Riris,"RWQF+XW8, Kedamin Hilir, Kec. Putussibau Sel., Kabupaten Kapuas Hulu, Kalimantan Barat 78753","Kedamin Hilir, Kec. Putussibau Sel., Kabupaten Kapuas Hulu",KALIMANTAN BARAT,78753.0,Indonesia,,,,0.839916,112.9248422,https://maps.google.com/?cid=0x0:0x7494064e063805dc,
mall,Pusat Perbelanjaan,GIBRAN COLLECTION,"RWWQ+6Q7 rumah 21, Jl. Kihajar Dewantara no, RT.14/RW.03, Kedamin Hulu, Kec. Putussibau Sel., Kabupaten Kapuas Hulu, Kalimantan Barat","Kabupaten Kapuas Hulu, Kalimantan Barat",KALIMANTAN BARAT,,Indonesia,82251921395.0,,,0.8455431,112.9394112,https://maps.google.com/?cid=0x0:0xed621d3604dc56a9,
mall,Minimarket,MAMA ELA,"VW5H+9C9, Unnamed Road, Putussibau Kota, Kec. Putussibau Utara, Kabupaten Kapuas Hulu, Kalimantan Barat 78753","Unnamed Road, Putussibau Kota, Kec. Putussibau Utara, Kabupaten Kapuas Hulu",KALIMANTAN BARAT,78753.0,Indonesia,,,,0.8584114,112.9285938,https://maps.google.com/?cid=0x0:0xeea45ded0255480e,
mall,mall,Kalimantan Barat 78715,"Nanga Sambus, Kec. Putussibau Utara, Kabupaten Kapuas Hulu, Kalimantan Barat","Kabupaten Kapuas Hulu, Kalimantan Barat",KALIMANTAN BARAT,,Indonesia,,,,0.8821263,112.9833275,https://maps.google.com/?cid=0x0:0x1bf8649a17ded6fd,
mall,Kafe,Flamboyan,"Jl Flamboyan, Putussibau Kota, Kec. Putussibau Utara, Kabupaten Kapuas Hulu, Kalimantan Barat 78711","Putussibau Kota, Kec. Putussibau Utara, Kabupaten Kapuas Hulu",KALIMANTAN BARAT,78711.0,Indonesia,,,,0.863308,112.9260021,https://maps.google.com/?cid=0x0:0xb3814e0eb2631ddb,
mall,Pusat Perbelanjaan,Kapuas Cell,"Jl. Patinggi Sari No.25, Pala Pulau, Kec. Putussibau Utara, Kabupaten Kapuas Hulu, Kalimantan Barat 78752","Pala Pulau, Kec. Putussibau Utara, Kabupaten Kapuas Hulu",KALIMANTAN BARAT,78752.0,Indonesia,816577738.0,,,0.8884334,112.9311631,https://maps.google.com/?cid=0x0:0xe463625989f45e66,
mall,Toko,Android Store,"VW7F+4W4, Putussibau Kota, Kec. Putussibau Utara, Kabupaten Kapuas Hulu, Kalimantan Barat 78753","Putussibau Kota, Kec. Putussibau Utara, Kabupaten Kapuas Hulu",KALIMANTAN BARAT,78753.0,Indonesia,82150222478.0,,,0.8627675,112.9248355,https://maps.google.com/?cid=0x0:0xead30ca233db3dd7,
mall,Toko Pakaian,SIKEMBAR-BUSANA,"VW8C+G32, Hilir Ktr., Kec. Putussibau Utara, Kabupaten Kapuas Hulu, Kalimantan Barat 78753","Hilir Ktr., Kec. Putussibau Utara, Kabupaten Kapuas Hulu",KALIMANTAN BARAT,78753.0,Indonesia,85787325888.0,,,0.8662726,112.9201516,https://maps.google.com/?cid=0x0:0xb933f6cd82e5c53f,
mall,Minimarket,MAMA ELA,"VW5H+9C9, Unnamed Road, Putussibau Kota, Kec. Putussibau Utara, Kabupaten Kapuas Hulu, Kalimantan Barat 78753","Unnamed Road, Putussibau Kota, Kec. Putussibau Utara, Kabupaten Kapuas Hulu",KALIMANTAN BARAT,78753.0,Indonesia,,,,0.8584114,112.9285938,https://maps.google.com/?cid=0x0:0xeea45ded0255480e,
mall,Toko Ponsel,ADI PONSEL,"VWJJ+P53, Jl. Danau Kayan, Putussibau Kota, Kec. Putussibau Utara, Kabupaten Kapuas Hulu, Kalimantan Barat 78752","Jl. Danau Kayan, Putussibau Kota, Kec. Putussibau Utara, Kabupaten Kapuas Hulu",KALIMANTAN BARAT,78752.0,Indonesia,,,,0.8817692,112.9304228,https://maps.google.com/?cid=0x0:0xef69b8f7f469917,
mall,Pusat Perbelanjaan,@adila@shop@,"RWWQ+HQW, Kedamin Hulu, Kec. Putussibau Sel., Kabupaten Kapuas Hulu, Kalimantan Barat 78753","Kedamin Hulu, Kec. Putussibau Sel., Kabupaten Kapuas Hulu",KALIMANTAN BARAT,78753.0,Indonesia,,,,0.8464968,112.9394592,https://maps.google.com/?cid=0x0:0xf40f9fdc349a3491,
mall,Salon Kecantikan,Uni.Beautycare,"RWXF+H7R, Jl. Lintas Selatan, Kedamin Hilir, Kec. Putussibau Sel., Kabupaten Kapuas Hulu, Kalimantan Barat 78753","Jl. Lintas Selatan, Kedamin Hilir, Kec. Putussibau Sel., Kabupaten Kapuas Hulu",KALIMANTAN BARAT,78753.0,Indonesia,89516271319.0,,,0.8489991,112.9231403,https://maps.google.com/?cid=0x0:0x9e52e60fa15a812e,
mall,Toko,Sentra Madu Hutan Kapuas Hulu,"VW6F+92W, Putussibau Kota, Kec. Putussibau Utara, Kabupaten Kapuas Hulu, Kalimantan Barat 78753","Putussibau Kota, Kec. Putussibau Utara, Kabupaten Kapuas Hulu",KALIMANTAN BARAT,78753.0,Indonesia,85654511252.0,,,0.8609839,112.9225667,https://maps.google.com/?cid=0x0:0xc24a70929f8165cb,
mall,Toko bahan makanan,Anugrah LGI,"pasar pagi, Tj. Jati, Kec. Putussibau Sel., Kabupaten Kapuas Hulu, Kalimantan Barat 78753","Tj. Jati, Kec. Putussibau Sel., Kabupaten Kapuas Hulu",KALIMANTAN BARAT,78753.0,Indonesia,,,,0.8589801,112.9275421,https://maps.google.com/?cid=0x0:0xc60dec84aad8b440,
mall,Pusat Perbelanjaan,Aisyah indriyani,"VW2J+HW7, Tj. Jati, Kec. Putussibau Sel., Kabupaten Kapuas Hulu, Kalimantan Barat 78753","Tj. Jati, Kec. Putussibau Sel., Kabupaten Kapuas Hulu",KALIMANTAN BARAT,78753.0,Indonesia,864313913918.0,,,0.851408,112.932297,https://maps.google.com/?cid=0x0:0x53b5458a61f9e666,
mall,Pusat Perbelanjaan,Warung inak eneng,"RWVP+9CP, Kedamin Hulu, Kec. Putussibau Sel., Kabupaten Kapuas Hulu, Kalimantan Barat 78753","Kedamin Hulu, Kec. Putussibau Sel., Kabupaten Kapuas Hulu",KALIMANTAN BARAT,78753.0,Indonesia,85752461541.0,,,0.8434582,112.9360893,https://maps.google.com/?cid=0x0:0x9d4d3e8728341040,
mall,Minimarket,Warung fadhil,"Kedamin Hulu, Kec. Putussibau Sel., Kabupaten Kapuas Hulu, Kalimantan Barat 78753","Kec. Putussibau Sel., Kabupaten Kapuas Hulu",KALIMANTAN BARAT,78753.0,Indonesia,,,,0.8458119,112.9391849,https://maps.google.com/?cid=0x0:0xf974dd32bcec6442,
mall,Toko Sepeda Motor,Sriwijaya motor,"Kedamin Hilir, Kec. Putussibau Sel., Kabupaten Kapuas Hulu, Kalimantan Barat 78753","Kec. Putussibau Sel., Kabupaten Kapuas Hulu",KALIMANTAN BARAT,78753.0,Indonesia,853459219999.0,,,0.8410613,112.9239259,https://maps.google.com/?cid=0x0:0xb1998b011f7c4398,
mall,Pusat Perbelanjaan,toko wisnu,"Warkop Kalamuda, Kedamin Hilir, Kec. Putussibau Sel., Kabupaten Kapuas Hulu, Kalimantan Barat 78753","Kedamin Hilir, Kec. Putussibau Sel., Kabupaten Kapuas Hulu",KALIMANTAN BARAT,78753.0,Indonesia,,,,0.851522,112.9231268,https://maps.google.com/?cid=0x0:0x273ef91bf5740646,
mall,Pusat Perbelanjaan,GIBRAN COLLECTION,"RWWQ+6Q7 rumah 21, Jl. Kihajar Dewantara no, RT.14/RW.03, Kedamin Hulu, Kec. Putussibau Sel., Kabupaten Kapuas Hulu, Kalimantan Barat","Kabupaten Kapuas Hulu, Kalimantan Barat",KALIMANTAN BARAT,,Indonesia,82251921395.0,,,0.8455431,112.9394112,https://maps.google.com/?cid=0x0:0xed621d3604dc56a9,
mall,Kedai Kopi,Toko Buana,"VW5G+J47, Putussibau Kota, Kec. Putussibau Utara, Kabupaten Kapuas Hulu, Kalimantan Barat 78753","Putussibau Kota, Kec. Putussibau Utara, Kabupaten Kapuas Hulu",KALIMANTAN BARAT,78753.0,Indonesia,,,,0.8590419,112.9253023,https://maps.google.com/?cid=0x0:0x98e7f7d9ccb0f43,
mall,Toko Pakaian Wanita,NaZa oLShop,"RWVP+7VR, Kedamin Hulu, Kec. Putussibau Sel., Kabupaten Kapuas Hulu, Kalimantan Barat 78753","Kedamin Hulu, Kec. Putussibau Sel., Kabupaten Kapuas Hulu",KALIMANTAN BARAT,78753.0,Indonesia,,,,0.842768,112.9371213,https://maps.google.com/?cid=0x0:0x623e21ff5ea51dee,
mall,Layanan Distribusi,Berkat Minimarket,"VWCF+P47, Putussibau Kota, Kec. Putussibau Utara, Kabupaten Kapuas Hulu, Kalimantan Barat 78753","Putussibau Kota, Kec. Putussibau Utara, Kabupaten Kapuas Hulu",KALIMANTAN BARAT,78753.0,Indonesia,,,,0.8717894,112.9227847,https://maps.google.com/?cid=0x0:0xcad9e3f2d6dd0305,
mall,Toko,Tita Minimarket,"VWFF+QM6, Putussibau Kota, Kec. Putussibau Utara, Kabupaten Kapuas Hulu, Kalimantan Barat 78752","Putussibau Kota, Kec. Putussibau Utara, Kabupaten Kapuas Hulu",KALIMANTAN BARAT,78752.0,Indonesia,,,,0.8744071,112.9241548,https://maps.google.com/?cid=0x0:0xb98b31d1e9a21e6c,
mall,Toko Pakaian,Fashion Store Putussibau,"RWCQ+P99, Kedamin Darat, Kec. Putussibau Sel., Kabupaten Kapuas Hulu, Kalimantan Barat 78753","Kedamin Darat, Kec. Putussibau Sel., Kabupaten Kapuas Hulu",KALIMANTAN BARAT,78753.0,Indonesia,82158280243.0,,,0.8217805,112.9384698,https://maps.google.com/?cid=0x0:0xf8d069ea081f1e5a,
mall,Pusat Perbelanjaan,Andi Mart,"Jl. Ngurah Rai No.2, Putussibau Kota, Kec. Putussibau Utara, Kabupaten Kapuas Hulu, Kalimantan Barat 78753","Putussibau Kota, Kec. Putussibau Utara, Kabupaten Kapuas Hulu",KALIMANTAN BARAT,78753.0,Indonesia,,,,0.8668305,112.924325,https://maps.google.com/?cid=0x0:0x35f98cac41834a80,
mall,Restoran,Warung sayur popy,"RWRJ+6QM, Unnamed Road, Kedamin Hulu, Kec. Putussibau Sel., Kabupaten Kapuas Hulu, Kalimantan Barat 78753","Unnamed Road, Kedamin Hulu, Kec. Putussibau Sel., Kabupaten Kapuas Hulu",KALIMANTAN BARAT,78753.0,Indonesia,,,,0.840579,112.9319087,https://maps.google.com/?cid=0x0:0x16234186af5bf937,
mall,Toko Kosmetik,miniso,"Jl. Ahmad Yani No.8c, Putussibau Kota, Kec. Putussibau Utara, Kabupaten Kapuas Hulu, Kalimantan Barat 78711","Putussibau Kota, Kec. Putussibau Utara, Kabupaten Kapuas Hulu",KALIMANTAN BARAT,78711.0,Indonesia,,,,0.8594223,112.9246382,https://maps.google.com/?cid=0x0:0xe7b6ffdb986a85b7,
mall,Toko Pakaian Remaja,Toko limma putussibau,"VWCF+7G4, Putussibau Kota, Kec. Putussibau Utara, Kabupaten Kapuas Hulu, Kalimantan Barat 78753","Putussibau Kota, Kec. Putussibau Utara, Kabupaten Kapuas Hulu",KALIMANTAN BARAT,78753.0,Indonesia,85820655078.0,,,0.8706471,112.9238373,https://maps.google.com/?cid=0x0:0x88cebdaefb6ef403,
mall,mall,Kec. Putussibau Sel.,"Kabupaten Kapuas Hulu, Kalimantan Barat","Kabupaten Kapuas Hulu, Kalimantan Barat",KALIMANTAN BARAT,,Indonesia,,,,0.8367654,112.9271147,https://maps.google.com/?cid=0x0:0xdf0e9576b8ebf8bd,
mall,Toko bahan makanan,OWEN MARKET,"Jl. Lintas Kalimantan Poros Utara, Kedamin Hulu, Kec. Putussibau Sel., Kabupaten Kapuas Hulu, Kalimantan Barat 78753","Kedamin Hulu, Kec. Putussibau Sel., Kabupaten Kapuas Hulu",KALIMANTAN BARAT,78753.0,Indonesia,,,,0.8331139,112.9329174,https://maps.google.com/?cid=0x0:0xcbf806973cca3a5c,
mall,Pasar,Pasar Seribu,"VW5H+R9W, Unnamed Road, Tj. Jati, Kec. Putussibau Sel., Kabupaten Kapuas Hulu, Kalimantan Barat 78753","Unnamed Road, Tj. Jati, Kec. Putussibau Sel., Kabupaten Kapuas Hulu",KALIMANTAN BARAT,78753.0,Indonesia,,,,0.859614,112.9284407,https://maps.google.com/?cid=0x0:0xcb64809c5354c880,
mall,Kafe,Flamboyan,"Jl Flamboyan, Putussibau Kota, Kec. Putussibau Utara, Kabupaten Kapuas Hulu, Kalimantan Barat 78711","Putussibau Kota, Kec. Putussibau Utara, Kabupaten Kapuas Hulu",KALIMANTAN BARAT,78711.0,Indonesia,,,,0.863308,112.9260021,https://maps.google.com/?cid=0x0:0xb3814e0eb2631ddb,
mall,Toko Pakaian,SIKEMBAR-BUSANA,"VW8C+G32, Hilir Ktr., Kec. Putussibau Utara, Kabupaten Kapuas Hulu, Kalimantan Barat 78753","Hilir Ktr., Kec. Putussibau Utara, Kabupaten Kapuas Hulu",KALIMANTAN BARAT,78753.0,Indonesia,85787325888.0,,,0.8662726,112.9201516,https://maps.google.com/?cid=0x0:0xb933f6cd82e5c53f,
mall,Toko Ikan Tropis,Aquascape Putussibau Gallery store,"VWJC+3XG, Jl. S. Parman, Putussibau Kota, Kec. Putussibau Utara, Kabupaten Kapuas Hulu, Kalimantan Barat 78752","Jl. S. Parman, Putussibau Kota, Kec. Putussibau Utara, Kabupaten Kapuas Hulu",KALIMANTAN BARAT,78752.0,Indonesia,82254252820.0,,,0.8801846,112.9224551,https://maps.google.com/?cid=0x0:0x7f3502c123194032,
mall,Toko,Tita Minimarket,"VWFF+QM6, Putussibau Kota, Kec. Putussibau Utara, Kabupaten Kapuas Hulu, Kalimantan Barat 78752","Putussibau Kota, Kec. Putussibau Utara, Kabupaten Kapuas Hulu",KALIMANTAN BARAT,78752.0,Indonesia,,,,0.8744071,112.9241548,https://maps.google.com/?cid=0x0:0xb98b31d1e9a21e6c,
mall,Toko Ponsel,ADI PONSEL,"VWJJ+P53, Jl. Danau Kayan, Putussibau Kota, Kec. Putussibau Utara, Kabupaten Kapuas Hulu, Kalimantan Barat 78752","Jl. Danau Kayan, Putussibau Kota, Kec. Putussibau Utara, Kabupaten Kapuas Hulu",KALIMANTAN BARAT,78752.0,Indonesia,,,,0.8817692,112.9304228,https://maps.google.com/?cid=0x0:0xef69b8f7f469917,
mall,Toko,Android Store,"VW7F+4W4, Putussibau Kota, Kec. Putussibau Utara, Kabupaten Kapuas Hulu, Kalimantan Barat 78753","Putussibau Kota, Kec. Putussibau Utara, Kabupaten Kapuas Hulu",KALIMANTAN BARAT,78753.0,Indonesia,82150222478.0,,,0.8627675,112.9248355,https://maps.google.com/?cid=0x0:0xead30ca233db3dd7,
mall,Pusat Perbelanjaan,@adila@shop@,"RWWQ+HQW, Kedamin Hulu, Kec. Putussibau Sel., Kabupaten Kapuas Hulu, Kalimantan Barat 78753","Kedamin Hulu, Kec. Putussibau Sel., Kabupaten Kapuas Hulu",KALIMANTAN BARAT,78753.0,Indonesia,,,,0.8464968,112.9394592,https://maps.google.com/?cid=0x0:0xf40f9fdc349a3491,
mall,Salon Kecantikan,Uni.Beautycare,"RWXF+H7R, Jl. Lintas Selatan, Kedamin Hilir, Kec. Putussibau Sel., Kabupaten Kapuas Hulu, Kalimantan Barat 78753","Jl. Lintas Selatan, Kedamin Hilir, Kec. Putussibau Sel., Kabupaten Kapuas Hulu",KALIMANTAN BARAT,78753.0,Indonesia,89516271319.0,,,0.8489991,112.9231403,https://maps.google.com/?cid=0x0:0x9e52e60fa15a812e,
mall,Toko Ponsel,SimCell Reload,"VWGF+5M7, Putussibau Kota, Kec. Putussibau Utara, Kabupaten Kapuas Hulu, Kalimantan Barat 78753","Putussibau Kota, Kec. Putussibau Utara, Kabupaten Kapuas Hulu",KALIMANTAN BARAT,78753.0,Indonesia,,,,0.8754195,112.9241605,https://maps.google.com/?cid=0x0:0x9dbebbc6493d0cfe,
mall,Pusat Perbelanjaan,Aisyah indriyani,"VW2J+HW7, Tj. Jati, Kec. Putussibau Sel., Kabupaten Kapuas Hulu, Kalimantan Barat 78753","Tj. Jati, Kec. Putussibau Sel., Kabupaten Kapuas Hulu",KALIMANTAN BARAT,78753.0,Indonesia,864313913918.0,,,0.851408,112.932297,https://maps.google.com/?cid=0x0:0x53b5458a61f9e666,
mall,Bengkel Sepeda Motor,Sony Motor,"VWFF+H9P, Putussibau Kota, Kec. Putussibau Utara, Kabupaten Kapuas Hulu, Kalimantan Barat 78753","Putussibau Kota, Kec. Putussibau Utara, Kabupaten Kapuas Hulu",KALIMANTAN BARAT,78753.0,Indonesia,81256868289.0,,,0.8739505,112.9234454,https://maps.google.com/?cid=0x0:0x14b1dd08f1a9bcb3,
mall,Toko Sepeda Motor,Sriwijaya motor,"Kedamin Hilir, Kec. Putussibau Sel., Kabupaten Kapuas Hulu, Kalimantan Barat 78753","Kec. Putussibau Sel., Kabupaten Kapuas Hulu",KALIMANTAN BARAT,78753.0,Indonesia,853459219999.0,,,0.8410613,112.9239259,https://maps.google.com/?cid=0x0:0xb1998b011f7c4398,
mall,Toko bahan makanan,Anugrah LGI,"pasar pagi, Tj. Jati, Kec. Putussibau Sel., Kabupaten Kapuas Hulu, Kalimantan Barat 78753","Tj. Jati, Kec. Putussibau Sel., Kabupaten Kapuas Hulu",KALIMANTAN BARAT,78753.0,Indonesia,,,,0.8589801,112.9275421,https://maps.google.com/?cid=0x0:0xc60dec84aad8b440,
mall,Toko,Sentra Madu Hutan Kapuas Hulu,"VW6F+92W, Putussibau Kota, Kec. Putussibau Utara, Kabupaten Kapuas Hulu, Kalimantan Barat 78753","Putussibau Kota, Kec. Putussibau Utara, Kabupaten Kapuas Hulu",KALIMANTAN BARAT,78753.0,Indonesia,85654511252.0,,,0.8609839,112.9225667,https://maps.google.com/?cid=0x0:0xc24a70929f8165cb,
mall,Kedai Kopi,Toko Buana,"VW5G+J47, Putussibau Kota, Kec. Putussibau Utara, Kabupaten Kapuas Hulu, Kalimantan Barat 78753","Putussibau Kota, Kec. Putussibau Utara, Kabupaten Kapuas Hulu",KALIMANTAN BARAT,78753.0,Indonesia,,,,0.8590419,112.9253023,https://maps.google.com/?cid=0x0:0x98e7f7d9ccb0f43,
mall,Toko Elektronik,Raflymobile,"VWCF+6GF, Jl. Ngurah Rai, Putussibau Kota, Kec. Putussibau Utara, Kabupaten Kapuas Hulu, Kalimantan Barat 78753","Jl. Ngurah Rai, Putussibau Kota, Kec. Putussibau Utara, Kabupaten Kapuas Hulu",KALIMANTAN BARAT,78753.0,Indonesia,85252635660.0,,,0.8705623,112.9237863,https://maps.google.com/?cid=0x0:0xc5f7547045020f89,
mall,Minimarket,Warung fadhil,"Kedamin Hulu, Kec. Putussibau Sel., Kabupaten Kapuas Hulu, Kalimantan Barat 78753","Kec. Putussibau Sel., Kabupaten Kapuas Hulu",KALIMANTAN BARAT,78753.0,Indonesia,,,,0.8458119,112.9391849,https://maps.google.com/?cid=0x0:0xf974dd32bcec6442,
mall,Pusat Perbelanjaan,GIBRAN COLLECTION,"RWWQ+6Q7 rumah 21, Jl. Kihajar Dewantara no, RT.14/RW.03, Kedamin Hulu, Kec. Putussibau Sel., Kabupaten Kapuas Hulu, Kalimantan Barat","Kabupaten Kapuas Hulu, Kalimantan Barat",KALIMANTAN BARAT,,Indonesia,82251921395.0,,,0.8455431,112.9394112,https://maps.google.com/?cid=0x0:0xed621d3604dc56a9,
mall,mall,Kalimantan Barat 78716,"Kec. Putussibau Utara, Kabupaten Kapuas Hulu, Kalimantan Barat","Kabupaten Kapuas Hulu, Kalimantan Barat",KALIMANTAN BARAT,,Indonesia,,,,1.1858068,113.0965064,https://maps.google.com/?cid=0x0:0x6c5e4c9876baba79,
mall,Pusat Perbelanjaan,Kapuas Cell,"Jl. Patinggi Sari No.25, Pala Pulau, Kec. Putussibau Utara, Kabupaten Kapuas Hulu, Kalimantan Barat 78752","Pala Pulau, Kec. Putussibau Utara, Kabupaten Kapuas Hulu",KALIMANTAN BARAT,78752.0,Indonesia,816577738.0,,,0.8884334,112.9311631,https://maps.google.com/?cid=0x0:0xe463625989f45e66,
mall,Toko Pakaian,SIKEMBAR-BUSANA,"VW8C+G32, Hilir Ktr., Kec. Putussibau Utara, Kabupaten Kapuas Hulu, Kalimantan Barat 78753","Hilir Ktr., Kec. Putussibau Utara, Kabupaten Kapuas Hulu",KALIMANTAN BARAT,78753.0,Indonesia,85787325888.0,,,0.8662726,112.9201516,https://maps.google.com/?cid=0x0:0xb933f6cd82e5c53f,
mall,Kafe,Flamboyan,"Jl Flamboyan, Putussibau Kota, Kec. Putussibau Utara, Kabupaten Kapuas Hulu, Kalimantan Barat 78711","Putussibau Kota, Kec. Putussibau Utara, Kabupaten Kapuas Hulu",KALIMANTAN BARAT,78711.0,Indonesia,,,,0.863308,112.9260021,https://maps.google.com/?cid=0x0:0xb3814e0eb2631ddb,
mall,Toko,Android Store,"VW7F+4W4, Putussibau Kota, Kec. Putussibau Utara, Kabupaten Kapuas Hulu, Kalimantan Barat 78753","Putussibau Kota, Kec. Putussibau Utara, Kabupaten Kapuas Hulu",KALIMANTAN BARAT,78753.0,Indonesia,82150222478.0,,,0.8627675,112.9248355,https://maps.google.com/?cid=0x0:0xead30ca233db3dd7,
mall,Toko,Sentra Madu Hutan Kapuas Hulu,"VW6F+92W, Putussibau Kota, Kec. Putussibau Utara, Kabupaten Kapuas Hulu, Kalimantan Barat 78753","Putussibau Kota, Kec. Putussibau Utara, Kabupaten Kapuas Hulu",KALIMANTAN BARAT,78753.0,Indonesia,85654511252.0,,,0.8609839,112.9225667,https://maps.google.com/?cid=0x0:0xc24a70929f8165cb,
mall,Toko Ikan Tropis,Aquascape Putussibau Gallery store,"VWJC+3XG, Jl. S. Parman, Putussibau Kota, Kec. Putussibau Utara, Kabupaten Kapuas Hulu, Kalimantan Barat 78752","Jl. S. Parman, Putussibau Kota, Kec. Putussibau Utara, Kabupaten Kapuas Hulu",KALIMANTAN BARAT,78752.0,Indonesia,82254252820.0,,,0.8801846,112.9224551,https://maps.google.com/?cid=0x0:0x7f3502c123194032,
mall,Pasar,Pasar Seribu,"VW5H+R9W, Unnamed Road, Tj. Jati, Kec. Putussibau Sel., Kabupaten Kapuas Hulu, Kalimantan Barat 78753","Unnamed Road, Tj. Jati, Kec. Putussibau Sel., Kabupaten Kapuas Hulu",KALIMANTAN BARAT,78753.0,Indonesia,,,,0.859614,112.9284407,https://maps.google.com/?cid=0x0:0xcb64809c5354c880,
mall,mall,Kec. Putussibau Utara,"Kabupaten Kapuas Hulu, Kalimantan Barat","Kabupaten Kapuas Hulu, Kalimantan Barat",KALIMANTAN BARAT,,Indonesia,,,,1.1858068,113.0965064,https://maps.google.com/?cid=0x0:0x27424a1fe3f8a93f,
mall,Toko Elektronik,Raflymobile,"VWCF+6GF, Jl. Ngurah Rai, Putussibau Kota, Kec. Putussibau Utara, Kabupaten Kapuas Hulu, Kalimantan Barat 78753","Jl. Ngurah Rai, Putussibau Kota, Kec. Putussibau Utara, Kabupaten Kapuas Hulu",KALIMANTAN BARAT,78753.0,Indonesia,85252635660.0,,,0.8705623,112.9237863,https://maps.google.com/?cid=0x0:0xc5f7547045020f89,
mall,Toko Ponsel,SimCell Reload,"VWGF+5M7, Putussibau Kota, Kec. Putussibau Utara, Kabupaten Kapuas Hulu, Kalimantan Barat 78753","Putussibau Kota, Kec. Putussibau Utara, Kabupaten Kapuas Hulu",KALIMANTAN BARAT,78753.0,Indonesia,,,,0.8754195,112.9241605,https://maps.google.com/?cid=0x0:0x9dbebbc6493d0cfe,
mall,Pusat Perbelanjaan,Andi Mart,"Jl. Ngurah Rai No.2, Putussibau Kota, Kec. Putussibau Utara, Kabupaten Kapuas Hulu, Kalimantan Barat 78753","Putussibau Kota, Kec. Putussibau Utara, Kabupaten Kapuas Hulu",KALIMANTAN BARAT,78753.0,Indonesia,,,,0.8668305,112.924325,https://maps.google.com/?cid=0x0:0x35f98cac41834a80,
mall,Bengkel Sepeda Motor,Sony Motor,"VWFF+H9P, Putussibau Kota, Kec. Putussibau Utara, Kabupaten Kapuas Hulu, Kalimantan Barat 78753","Putussibau Kota, Kec. Putussibau Utara, Kabupaten Kapuas Hulu",KALIMANTAN BARAT,78753.0,Indonesia,81256868289.0,,,0.8739505,112.9234454,https://maps.google.com/?cid=0x0:0x14b1dd08f1a9bcb3,
mall,Kantor Pemerintah,PT PLN (Persero) ULP Putussibau,"VWPG+3H3, Putussibau Kota, Kec. Putussibau Utara, Kabupaten Kapuas Hulu, Kalimantan Barat 78752","Putussibau Kota, Kec. Putussibau Utara, Kabupaten Kapuas Hulu",KALIMANTAN BARAT,78752.0,Indonesia,56721086.0,,,0.8851418,112.9264155,https://maps.google.com/?cid=0x0:0xcd4464894f9395c0,
mall,Pusat Perbelanjaan,MM.TITA,"VWFF+QM5, Putussibau Kota, Kec. Putussibau Utara, Kabupaten Kapuas Hulu, Kalimantan Barat 78753","Putussibau Kota, Kec. Putussibau Utara, Kabupaten Kapuas Hulu",KALIMANTAN BARAT,78753.0,Indonesia,81254254796.0,,,0.8743877,112.9242299,https://maps.google.com/?cid=0x0:0xf04ff6c17f453019,
mall,mall,Gudang Mitra kapuas,"VWGF+J5C, Jl. KS Tubun, Putussibau Kota, Kec. Putussibau Utara, Kabupaten Kapuas Hulu, Kalimantan Barat 78753","Jl. KS Tubun, Putussibau Kota, Kec. Putussibau Utara, Kabupaten Kapuas Hulu",KALIMANTAN BARAT,78753.0,Indonesia,,,,0.8765664,112.9228965,https://maps.google.com/?cid=0x0:0xca259bd1d76db434,
mall,Salon Kecantikan,Uni.Beautycare,"RWXF+H7R, Jl. Lintas Selatan, Kedamin Hilir, Kec. Putussibau Sel., Kabupaten Kapuas Hulu, Kalimantan Barat 78753","Jl. Lintas Selatan, Kedamin Hilir, Kec. Putussibau Sel., Kabupaten Kapuas Hulu",KALIMANTAN BARAT,78753.0,Indonesia,89516271319.0,,,0.8489991,112.9231403,https://maps.google.com/?cid=0x0:0x9e52e60fa15a812e,
mall,Toko Pakaian Remaja,Toko limma putussibau,"VWCF+7G4, Putussibau Kota, Kec. Putussibau Utara, Kabupaten Kapuas Hulu, Kalimantan Barat 78753","Putussibau Kota, Kec. Putussibau Utara, Kabupaten Kapuas Hulu",KALIMANTAN BARAT,78753.0,Indonesia,85820655078.0,,,0.8706471,112.9238373,https://maps.google.com/?cid=0x0:0x88cebdaefb6ef403,
mall,Toko Ponsel,ADI PONSEL,"VWJJ+P53, Jl. Danau Kayan, Putussibau Kota, Kec. Putussibau Utara, Kabupaten Kapuas Hulu, Kalimantan Barat 78752","Jl. Danau Kayan, Putussibau Kota, Kec. Putussibau Utara, Kabupaten Kapuas Hulu",KALIMANTAN BARAT,78752.0,Indonesia,,,,0.8817692,112.9304228,https://maps.google.com/?cid=0x0:0xef69b8f7f469917,
mall,Kedai Kopi,Toko Buana,"VW5G+J47, Putussibau Kota, Kec. Putussibau Utara, Kabupaten Kapuas Hulu, Kalimantan Barat 78753","Putussibau Kota, Kec. Putussibau Utara, Kabupaten Kapuas Hulu",KALIMANTAN BARAT,78753.0,Indonesia,,,,0.8590419,112.9253023,https://maps.google.com/?cid=0x0:0x98e7f7d9ccb0f43,
mall,Pusat Perbelanjaan,Mini Market AIN,"Jl. Lintas Utara Kelurahan No.6, Pala Pulau, Kec. Putussibau Utara, Kabupaten Kapuas Hulu, Kalimantan Barat 78752","Pala Pulau, Kec. Putussibau Utara, Kabupaten Kapuas Hulu",KALIMANTAN BARAT,78752.0,Indonesia,8561617070.0,,,0.888827,112.9308208,https://maps.google.com/?cid=0x0:0x9412ca2c60bc8aef,
mall,Minimarket,MAMA ELA,"VW5H+9C9, Unnamed Road, Putussibau Kota, Kec. Putussibau Utara, Kabupaten Kapuas Hulu, Kalimantan Barat 78753","Unnamed Road, Putussibau Kota, Kec. Putussibau Utara, Kabupaten Kapuas Hulu",KALIMANTAN BARAT,78753.0,Indonesia,,,,0.8584114,112.9285938,https://maps.google.com/?cid=0x0:0xeea45ded0255480e,
mall,Kantor Pemda,Kantor Kecamatan Putussibau Utara,"VWQH+7Q8, Pala Pulau, Kec. Putussibau Utara, Kabupaten Kapuas Hulu, Kalimantan Barat 78752","Pala Pulau, Kec. Putussibau Utara, Kabupaten Kapuas Hulu",KALIMANTAN BARAT,78752.0,Indonesia,,,,0.8881594,112.9294392,https://maps.google.com/?cid=0x0:0x2f7155bb14d26cff,
mall,Tujuan Wisata,Mesjid Mupa,"VWVV+VRX Mupa, Pala Pulau, Kec. Putussibau Utara, Kabupaten Kapuas Hulu, Kalimantan Barat 78714","Pala Pulau, Kec. Putussibau Utara, Kabupaten Kapuas Hulu",KALIMANTAN BARAT,78714.0,Indonesia,,,,0.8947285,112.9446155,https://maps.google.com/?cid=0x0:0x143fddf7f7eba19,
mall,mall,Kalimantan Barat 78772,"Kabupaten Kapuas Hulu, Kalimantan Barat","Kabupaten Kapuas Hulu, Kalimantan Barat",KALIMANTAN BARAT,,Indonesia,,,,0.3824812,111.9999435,https://maps.google.com/?cid=0x0:0x7804fca27c8ca34d,
mall,mall,BTM MART,"CXMX+FH3, Sejiram, Kec. Seberuang, Kabupaten Kapuas Hulu, Kalimantan Barat 78772","Sejiram, Kec. Seberuang, Kabupaten Kapuas Hulu",KALIMANTAN BARAT,78772.0,Indonesia,,,,0.4336286,111.9989211,https://maps.google.com/?cid=0x0:0x4262baeef16d431c,
mall,Kafe,Simpang Sejiram,"9X6M+VRF, Ranyai, Kec. Seberuang, Kabupaten Kapuas Hulu, Kalimantan Barat 78772","Ranyai, Kec. Seberuang, Kabupaten Kapuas Hulu",KALIMANTAN BARAT,78772.0,Indonesia,,,,0.3621773,111.9845401,https://maps.google.com/?cid=0x0:0xcb757ba63c54a5e0,
mall,Toko,Pasar Selimbau,"J43G+VR9, Gudang Hilir, Kec. Selimbau, Kabupaten Kapuas Hulu, Kalimantan Barat 78765","Gudang Hilir, Kec. Selimbau, Kabupaten Kapuas Hulu",KALIMANTAN BARAT,78765.0,Indonesia,,,,0.6046653,112.1271193,https://maps.google.com/?cid=0x0:0x37e0ad809ed7aad2,
mall,Toko,TOKO SINAR JAYA,"Jl. Selimbau, Gudang Hilir, Kec. Selimbau, Kabupaten Kapuas Hulu, Kalimantan Barat 78765","Gudang Hilir, Kec. Selimbau, Kabupaten Kapuas Hulu",KALIMANTAN BARAT,78765.0,Indonesia,,,,0.6110131,112.1292235,https://maps.google.com/?cid=0x0:0xd8a239506d095343,
mall,mall,Kalimantan Barat 78771,"Kec. Semitau, Kabupaten Kapuas Hulu, Kalimantan Barat","Kabupaten Kapuas Hulu, Kalimantan Barat",KALIMANTAN BARAT,,Indonesia,,,,0.5232718,111.8091625,https://maps.google.com/?cid=0x0:0x573e1d10321419df,
mall,Sekolah Menengah Pertama,SMA N 1 Semitau,"Jl pendidikan no 2, Semitau Hulu, Kec. Semitau, Kabupaten Kapuas Hulu, Kalimantan Barat 78771","Semitau Hulu, Kec. Semitau, Kabupaten Kapuas Hulu",KALIMANTAN BARAT,78771.0,Indonesia,,,,0.5507261,111.9677371,https://maps.google.com/?cid=0x0:0x31be589df7e5682c,
mall,Bioskop,Citimall Kuala Kapuas,"297X+8HH, Jl. Trans - Kalimantan, Selat Dalam, Kec. Selat, Kabupaten Kapuas, Kalimantan Tengah 73516","Jl. Trans - Kalimantan, Selat Dalam, Kec. Selat, Kabupaten Kapuas",KALIMANTAN BARAT,73516.0,Indonesia,5132021111.0,,,-2.9866776,114.3989993,https://maps.google.com/?cid=0x0:0x8ea10a9bcf7b7f6f,
mall,Kantor Perusahaan,Arwana Nusantara (Pusat Ikan Arowana),"J2P4+3Q2, Dusun Madang Hulu, Madang Permai, Kec. Suhaid, Kabupaten Kapuas Hulu, Kalimantan Barat 78765","Dusun Madang Hulu, Madang Permai, Kec. Suhaid, Kabupaten Kapuas Hulu",KALIMANTAN BARAT,78765.0,Indonesia,,,,0.635127,112.0068866,https://maps.google.com/?cid=0x0:0x70dc9a6acf483ded,
mall,Toko Swalayan,Toko Grosir H. Ingai Azmi,"J2C4+6JM, Madang Permai, Kec. Suhaid, Kabupaten Kapuas Hulu, Kalimantan Barat 78765","Madang Permai, Kec. Suhaid, Kabupaten Kapuas Hulu",KALIMANTAN BARAT,78765.0,Indonesia,,,,0.6205802,112.0065444,https://maps.google.com/?cid=0x0:0x69b7a736516bbdc0,
mall,mall,Jual Ayam Potong Pak Juari,"8VV2+4FW, Unnamed Road, Setunggul, Kec. Silat Hilir, Kabupaten Kapuas Hulu, Kalimantan Barat 78773","Unnamed Road, Setunggul, Kec. Silat Hilir, Kabupaten Kapuas Hulu",KALIMANTAN BARAT,78773.0,Indonesia,85251168536.0,,,0.3428688,111.8512062,https://maps.google.com/?cid=0x0:0xdc338485355679e5,
mall,mall,Toko baju Agus Collection,"8VV2+6GM, Setunggul, Kec. Silat Hilir, Kabupaten Kapuas Hulu, Kalimantan Barat 78773","Setunggul, Kec. Silat Hilir, Kabupaten Kapuas Hulu",KALIMANTAN BARAT,78773.0,Indonesia,,,,0.343088,111.8513054,https://maps.google.com/?cid=0x0:0xa90026c6b17865b3,
mall,mall,Cha Colection,"J285+JP9, Tanjung Harapan, Kec. Suhaid, Kabupaten Kapuas Hulu, Kalimantan Barat 78765","Tanjung Harapan, Kec. Suhaid, Kabupaten Kapuas Hulu",KALIMANTAN BARAT,78765.0,Indonesia,85828984696.0,,,0.6167862,112.0099195,https://maps.google.com/?cid=0x0:0x3afafbec55f294f5,
mall,Seafood,Pasar Semitau,"HX36+VJ9, Semitau Hulu, Kec. Semitau, Kabupaten Kapuas Hulu, Kalimantan Barat 78775","Semitau Hulu, Kec. Semitau, Kabupaten Kapuas Hulu",KALIMANTAN BARAT,78775.0,Indonesia,,,,0.5546725,111.9616109,https://maps.google.com/?cid=0x0:0x482d8cae069d9849,
mall,Toko Pakaian,Toko Jaya Mandiri Semitau,"Jalan Muhammad Amin No.mor 80, Semitau Hilir, Kec. Semitau, Kabupaten Kapuas Hulu, Kalimantan Barat","Kabupaten Kapuas Hulu, Kalimantan Barat",KALIMANTAN BARAT,,Indonesia,,,,0.5425173,111.9596894,https://maps.google.com/?cid=0x0:0xf784d81f973427e7,
mall,Toko Pakaian,TOKO GALLERY MODE,"HX47+F59, Semitau Hulu, Kec. Semitau, Kabupaten Kapuas Hulu, Kalimantan Barat 78775","Semitau Hulu, Kec. Semitau, Kabupaten Kapuas Hulu",KALIMANTAN BARAT,78775.0,Indonesia,85787923976.0,,,0.55617,111.962997,https://maps.google.com/?cid=0x0:0x9a89f46283070ffd,
mall,mall,Kalimantan Barat 78773,"Kec. Silat Hilir, Kabupaten Kapuas Hulu, Kalimantan Barat","Kabupaten Kapuas Hulu, Kalimantan Barat",KALIMANTAN BARAT,,Indonesia,,,,0.3130556,111.8091625,https://maps.google.com/?cid=0x0:0x58d96d5fd06bb0c8,
mall,Toko,Toko usaha baru,"7Q3J+R4Q, Miau Merah, Kec. Silat Hilir, Kabupaten Kapuas Hulu, Kalimantan Barat 78773","Miau Merah, Kec. Silat Hilir, Kabupaten Kapuas Hulu",KALIMANTAN BARAT,78773.0,Indonesia,,,,0.2545853,111.7803562,https://maps.google.com/?cid=0x0:0xdab4396b32458c87,
mall,Kantor Perusahaan,Simpang silat,"6RVJ+X4C, Miau Merah, Kec. Silat Hilir, Kabupaten Kapuas Hulu, Kalimantan Barat","Kabupaten Kapuas Hulu, Kalimantan Barat",KALIMANTAN BARAT,,Indonesia,,,,0.2449272,111.8302538,https://maps.google.com/?cid=0x0:0x65e74292b17c76e2,
mall,Toko,Galaxy cell,"7Q3J+246, Miau Merah, Kec. Silat Hilir, Kabupaten Kapuas Hulu, Kalimantan Barat 78773","Miau Merah, Kec. Silat Hilir, Kabupaten Kapuas Hulu",KALIMANTAN BARAT,78773.0,Indonesia,85386912888.0,,,0.2525344,111.7802508,https://maps.google.com/?cid=0x0:0xfd49526ef2e6b599,
mall,Pembangunan Perumahan,Simpang Silat,"Simpang Silat, Miau Merah, Kec. Silat Hilir, Kabupaten Kapuas Hulu, Kalimantan Barat 78773","Miau Merah, Kec. Silat Hilir, Kabupaten Kapuas Hulu",KALIMANTAN BARAT,78773.0,Indonesia,82255916226.0,,,0.381462,111.7383465,https://maps.google.com/?cid=0x0:0x4b58454cd97ec705,
mall,Sekolah Menengah Pertama,SMA Negeri 1 Silat Hilir,"8QXJ+HCV, Unnamed Road, Perigi, Kec. Silat Hilir, Kabupaten Kapuas Hulu, Kalimantan Barat 78773","Unnamed Road, Perigi, Kec. Silat Hilir, Kabupaten Kapuas Hulu",KALIMANTAN BARAT,78773.0,Indonesia,,,,0.3489812,111.7810399,https://maps.google.com/?cid=0x0:0x5676b82de77b8997,
mall,mall,Jual Ayam Potong Pak Juari,"8VV2+4FW, Unnamed Road, Setunggul, Kec. Silat Hilir, Kabupaten Kapuas Hulu, Kalimantan Barat 78773","Unnamed Road, Setunggul, Kec. Silat Hilir, Kabupaten Kapuas Hulu",KALIMANTAN BARAT,78773.0,Indonesia,85251168536.0,,,0.3428688,111.8512062,https://maps.google.com/?cid=0x0:0xdc338485355679e5,
mall,Toko Buah dan Sayuran,Mas Brow.. sayur.. ikan dan lauk pauk,"53XM+QFX, Nanga Ngeri, Kec. Silat Hulu, Kabupaten Kapuas Hulu, Kalimantan Barat 78774","Nanga Ngeri, Kec. Silat Hulu, Kabupaten Kapuas Hulu",KALIMANTAN BARAT,78774.0,Indonesia,85246462547.0,,,0.1994906,112.0837413,https://maps.google.com/?cid=0x0:0x921e0da13fd25c06,
mall,Grosir Buah,Warung Sayur Putra Unggas,"6QRP+X95, Unnamed Road, Miau Merah, Silat Hilir, Kapuas Hulu Regency, West Kalimantan 78773","Unnamed Road, Miau Merah, Silat Hilir, Kapuas Hulu Regency",KALIMANTAN BARAT,78773.0,Indonesia,,,,0.2423841,111.7859879,https://maps.google.com/?cid=0x0:0x7fb20fa8b20e0fc4,
mall,mall,Kalimantan Barat 78775,"Kabupaten Kapuas Hulu, Kalimantan Barat","Kabupaten Kapuas Hulu, Kalimantan Barat",KALIMANTAN BARAT,,Indonesia,,,,0.5402115,111.9760964,https://maps.google.com/?cid=0x0:0x6a3584f18c52029f,
mall,Toko Swalayan,Toko Grosir H. Ingai Azmi,"J2C4+6JM, Madang Permai, Kec. Suhaid, Kabupaten Kapuas Hulu, Kalimantan Barat 78765","Madang Permai, Kec. Suhaid, Kabupaten Kapuas Hulu",KALIMANTAN BARAT,78765.0,Indonesia,,,,0.6205802,112.0065444,https://maps.google.com/?cid=0x0:0x69b7a736516bbdc0,
mall,Toko Swalayan,Warung Tari Semitau,"HX36+5GG Juned, jl.abang Umar, Semitau Hulu, Semitau, Kapuas Hulu Regency, West Kalimantan 78775","jl.abang Umar, Semitau Hulu, Semitau, Kapuas Hulu Regency",KALIMANTAN BARAT,78775.0,Indonesia,,,,0.5529298,111.9613139,https://maps.google.com/?cid=0x0:0x2b75d0d33aed75da,
mall,mall,BTM MART,"CXMX+FH3, Sejiram, Kec. Seberuang, Kabupaten Kapuas Hulu, Kalimantan Barat 78772","Sejiram, Kec. Seberuang, Kabupaten Kapuas Hulu",KALIMANTAN BARAT,78772.0,Indonesia,,,,0.4336286,111.9989211,https://maps.google.com/?cid=0x0:0x4262baeef16d431c,
mall,Toko Pakaian,Toko Jaya Mandiri Semitau,"Jalan Muhammad Amin No.mor 80, Semitau Hilir, Kec. Semitau, Kabupaten Kapuas Hulu, Kalimantan Barat","Kabupaten Kapuas Hulu, Kalimantan Barat",KALIMANTAN BARAT,,Indonesia,,,,0.5425173,111.9596894,https://maps.google.com/?cid=0x0:0xf784d81f973427e7,
mall,mall,Cha Colection,"J285+JP9, Tanjung Harapan, Kec. Suhaid, Kabupaten Kapuas Hulu, Kalimantan Barat 78765","Tanjung Harapan, Kec. Suhaid, Kabupaten Kapuas Hulu",KALIMANTAN BARAT,78765.0,Indonesia,85828984696.0,,,0.6167862,112.0099195,https://maps.google.com/?cid=0x0:0x3afafbec55f294f5,
mall,mall,Toko iman dian,"J292+3J7, Nanga Suhaid, Kec. Suhaid, Kabupaten Kapuas Hulu, Kalimantan Barat 78765","Nanga Suhaid, Kec. Suhaid, Kabupaten Kapuas Hulu",KALIMANTAN BARAT,78765.0,Indonesia,,,,0.6176736,112.00155,https://maps.google.com/?cid=0x0:0xd2b1a32497793c2c,
supermarket,supermarket,Kec. Badau,"Kabupaten Kapuas Hulu, Kalimantan Barat","Kabupaten Kapuas Hulu, Kalimantan Barat",KALIMANTAN BARAT,,Indonesia,,,,1.0439133,111.9008836,https://maps.google.com/?cid=0x0:0xcd4e6ff536cd26d5,
supermarket,Toko Elektronik,"Badau Tengah, Tokoh Putra Borneo","Unnamed Road, 78767, Badau, Kec. Badau, Kabupaten Kapuas Hulu, Kalimantan Barat 78767","78767, Badau, Kec. Badau, Kabupaten Kapuas Hulu",KALIMANTAN BARAT,78767.0,Indonesia,82186748640.0,,,1.041259,111.9039336,https://maps.google.com/?cid=0x0:0x56d2aab524f331ad,
supermarket,Toko,Violet,"2WV2+888, Badau, Kec. Badau, Kabupaten Kapuas Hulu, Kalimantan Barat","Kabupaten Kapuas Hulu, Kalimantan Barat",KALIMANTAN BARAT,,Indonesia,82155764064.0,,,1.0432923,111.9008152,https://maps.google.com/?cid=0x0:0x9c060888f879073b,
supermarket,Toko Elektronik,Pasar Badau,"2WV2+J85, Badau, Kec. Badau, Kabupaten Kapuas Hulu, Kalimantan Barat","Kabupaten Kapuas Hulu, Kalimantan Barat",KALIMANTAN BARAT,,Indonesia,82390637878.0,,,1.0440162,111.9008595,https://maps.google.com/?cid=0x0:0x273779f283aa56b,
supermarket,,Toko Setia Jaya,"2VCP+F5M, Badau, Kec. Badau, Kabupaten Kapuas Hulu, Kalimantan Barat 78767","Badau, Kec. Badau, Kabupaten Kapuas Hulu",KALIMANTAN BARAT,78767.0,Indonesia,81586715494.0,,,1.0212066,111.8854118,https://maps.google.com/?cid=0x0:0x6b3a75d6b38985,
supermarket,Padang,Rumah Makan Ponti 168 jln. Lintas utara Badau simpang 3,"2WX3+GMF, Jl. Lintas Kalimantan Poros Utara, Badau, Kec. Badau, Kabupaten Kapuas Hulu, Kalimantan Barat 78767","Jl. Lintas Kalimantan Poros Utara, Badau, Kec. Badau, Kabupaten Kapuas Hulu",KALIMANTAN BARAT,78767.0,Indonesia,,,,1.0488125,111.9041719,https://maps.google.com/?cid=0x0:0xe9ec1cf16f29dc1,
supermarket,Toko Bahan Bangunan,TOKO FLORESIBA BADAU,"2WR3+FHV, Unnamed Road, Badau, Kec. Badau, Kabupaten Kapuas Hulu, Kalimantan Barat 78767","Unnamed Road, Badau, Kec. Badau, Kabupaten Kapuas Hulu",KALIMANTAN BARAT,78767.0,Indonesia,82255189492.0,,,1.0412339,111.9039189,https://maps.google.com/?cid=0x0:0x413f1361b020e9b0,
supermarket,Kantor Pemerintah,PLBN Nanga Badau,"Unnamed Road No.78767, Badau, Kec. Badau, Kabupaten Kapuas Hulu, Kalimantan Barat 78767","Badau, Kec. Badau, Kabupaten Kapuas Hulu",KALIMANTAN BARAT,78767.0,Indonesia,,,,1.02895,111.878452,https://maps.google.com/?cid=0x0:0xb6bbc2b30cad20b0,
supermarket,Toko bahan makanan,Toko Buah Mamang Dahlan,"2WV2+G8M, Badau, Kec. Badau, Kabupaten Kapuas Hulu, Kalimantan Barat","Kabupaten Kapuas Hulu, Kalimantan Barat",KALIMANTAN BARAT,,Indonesia,,,,1.0438295,111.9007818,https://maps.google.com/?cid=0x0:0x14b68d721ea7d956,
supermarket,Minimarket,TOKO KENYAL,"2WV2+64Q, Jl. Lintas Kalimantan Poros Utara, Badau, Kec. Badau, Kabupaten Kapuas Hulu, Kalimantan Barat 78767","Jl. Lintas Kalimantan Poros Utara, Badau, Kec. Badau, Kabupaten Kapuas Hulu",KALIMANTAN BARAT,78767.0,Indonesia,,,,1.0430873,111.9003493,https://maps.google.com/?cid=0x0:0x606ffefad747965a,
supermarket,Toko Perlengkapan Rumah,Toko Mekar Jaya.,"2WV2+G59, Badau, Kec. Badau, Kabupaten Kapuas Hulu, Kalimantan Barat 78767","Badau, Kec. Badau, Kabupaten Kapuas Hulu",KALIMANTAN BARAT,78767.0,Indonesia,,,,1.043786,111.900474,https://maps.google.com/?cid=0x0:0xd70f7ee777c0eaeb,
supermarket,Toko bahan makanan,Andalas Mart,"2WV2+FHP, Badau, Kec. Badau, Kabupaten Kapuas Hulu, Kalimantan Barat","Kabupaten Kapuas Hulu, Kalimantan Barat",KALIMANTAN BARAT,,Indonesia,,,,1.0437001,111.9014402,https://maps.google.com/?cid=0x0:0x448be7f6835abf5a,
supermarket,Kantor Perusahaan,Badau,"2WV2+276, Badau, Kec. Badau, Kabupaten Kapuas Hulu, Kalimantan Barat 78767","Badau, Kec. Badau, Kabupaten Kapuas Hulu",KALIMANTAN BARAT,78767.0,Indonesia,,,,1.0425271,111.9006344,https://maps.google.com/?cid=0x0:0xf47f492f29585b36,
supermarket,supermarket,Kalimantan Barat 78767,"Kec. Badau, Kabupaten Kapuas Hulu, Kalimantan Barat","Kabupaten Kapuas Hulu, Kalimantan Barat",KALIMANTAN BARAT,,Indonesia,,,,0.9466758,111.9045541,https://maps.google.com/?cid=0x0:0xaefc603ea36f1a05,
supermarket,Toko Elektronik,"Badau Tengah, Tokoh Putra Borneo","Unnamed Road, 78767, Badau, Kec. Badau, Kabupaten Kapuas Hulu, Kalimantan Barat 78767","78767, Badau, Kec. Badau, Kabupaten Kapuas Hulu",KALIMANTAN BARAT,78767.0,Indonesia,82186748640.0,,,1.041259,111.9039336,https://maps.google.com/?cid=0x0:0x56d2aab524f331ad,
supermarket,Toko,Violet,"2WV2+888, Badau, Kec. Badau, Kabupaten Kapuas Hulu, Kalimantan Barat","Kabupaten Kapuas Hulu, Kalimantan Barat",KALIMANTAN BARAT,,Indonesia,82155764064.0,,,1.0432923,111.9008152,https://maps.google.com/?cid=0x0:0x9c060888f879073b,
supermarket,,Toko Setia Jaya,"2VCP+F5M, Badau, Kec. Badau, Kabupaten Kapuas Hulu, Kalimantan Barat 78767","Badau, Kec. Badau, Kabupaten Kapuas Hulu",KALIMANTAN BARAT,78767.0,Indonesia,81586715494.0,,,1.0212066,111.8854118,https://maps.google.com/?cid=0x0:0x6b3a75d6b38985,
supermarket,Toko Elektronik,Pasar Badau,"2WV2+J85, Badau, Kec. Badau, Kabupaten Kapuas Hulu, Kalimantan Barat","Kabupaten Kapuas Hulu, Kalimantan Barat",KALIMANTAN BARAT,,Indonesia,82390637878.0,,,1.0440162,111.9008595,https://maps.google.com/?cid=0x0:0x273779f283aa56b,
supermarket,Padang,Rumah Makan Ponti 168 jln. Lintas utara Badau simpang 3,"2WX3+GMF, Jl. Lintas Kalimantan Poros Utara, Badau, Kec. Badau, Kabupaten Kapuas Hulu, Kalimantan Barat 78767","Jl. Lintas Kalimantan Poros Utara, Badau, Kec. Badau, Kabupaten Kapuas Hulu",KALIMANTAN BARAT,78767.0,Indonesia,,,,1.0488125,111.9041719,https://maps.google.com/?cid=0x0:0xe9ec1cf16f29dc1,
supermarket,Toko bahan makanan,Andalas Mart,"2WV2+FHP, Badau, Kec. Badau, Kabupaten Kapuas Hulu, Kalimantan Barat","Kabupaten Kapuas Hulu, Kalimantan Barat",KALIMANTAN BARAT,,Indonesia,,,,1.0437001,111.9014402,https://maps.google.com/?cid=0x0:0x448be7f6835abf5a,
supermarket,Kantor Pemerintah,PLBN Nanga Badau,"Unnamed Road No.78767, Badau, Kec. Badau, Kabupaten Kapuas Hulu, Kalimantan Barat 78767","Badau, Kec. Badau, Kabupaten Kapuas Hulu",KALIMANTAN BARAT,78767.0,Indonesia,,,,1.02895,111.878452,https://maps.google.com/?cid=0x0:0xb6bbc2b30cad20b0,
supermarket,Toko Bahan Bangunan,TOKO FLORESIBA BADAU,"2WR3+FHV, Unnamed Road, Badau, Kec. Badau, Kabupaten Kapuas Hulu, Kalimantan Barat 78767","Unnamed Road, Badau, Kec. Badau, Kabupaten Kapuas Hulu",KALIMANTAN BARAT,78767.0,Indonesia,82255189492.0,,,1.0412339,111.9039189,https://maps.google.com/?cid=0x0:0x413f1361b020e9b0,
supermarket,Toko bahan makanan,Toko Buah Mamang Dahlan,"2WV2+G8M, Badau, Kec. Badau, Kabupaten Kapuas Hulu, Kalimantan Barat","Kabupaten Kapuas Hulu, Kalimantan Barat",KALIMANTAN BARAT,,Indonesia,,,,1.0438295,111.9007818,https://maps.google.com/?cid=0x0:0x14b68d721ea7d956,
supermarket,Toko Perlengkapan Rumah,Toko Mekar Jaya.,"2WV2+G59, Badau, Kec. Badau, Kabupaten Kapuas Hulu, Kalimantan Barat 78767","Badau, Kec. Badau, Kabupaten Kapuas Hulu",KALIMANTAN BARAT,78767.0,Indonesia,,,,1.043786,111.900474,https://maps.google.com/?cid=0x0:0xd70f7ee777c0eaeb,
supermarket,Minimarket,TOKO KENYAL,"2WV2+64Q, Jl. Lintas Kalimantan Poros Utara, Badau, Kec. Badau, Kabupaten Kapuas Hulu, Kalimantan Barat 78767","Jl. Lintas Kalimantan Poros Utara, Badau, Kec. Badau, Kabupaten Kapuas Hulu",KALIMANTAN BARAT,78767.0,Indonesia,,,,1.0430873,111.9003493,https://maps.google.com/?cid=0x0:0x606ffefad747965a,
supermarket,supermarket,Kalimantan Barat 78766,"Kec. Batang Lupar, Kabupaten Kapuas Hulu, Kalimantan Barat","Kabupaten Kapuas Hulu, Kalimantan Barat",KALIMANTAN BARAT,,Indonesia,,,,1.0515884,112.1430215,https://maps.google.com/?cid=0x0:0xd9c273103b9b4ce7,
supermarket,Toko Swalayan,SAMPOERNA QUA KP BARU,"26JH+XF7, Lanjak Deras, Kec. Batang Lupar, Kabupaten Kapuas Hulu, Kalimantan Barat 78766","Lanjak Deras, Kec. Batang Lupar, Kabupaten Kapuas Hulu",KALIMANTAN BARAT,78766.0,Indonesia,,,,1.0324216,112.2286778,https://maps.google.com/?cid=0x0:0x390756a78cd6c71e,
supermarket,Perhimpunan Pengembang Perumahan,Pasar Lanjak,"26MJ+P2W, Lanjak Deras, Kec. Batang Lupar, Kabupaten Kapuas Hulu, Kalimantan Barat 78766","Lanjak Deras, Kec. Batang Lupar, Kabupaten Kapuas Hulu",KALIMANTAN BARAT,78766.0,Indonesia,,,,1.0343511,112.2300729,https://maps.google.com/?cid=0x0:0x952abd97bfb459b8,
supermarket,Toko Swalayan,Toko Sembako Minang Maimbau,"26MH+QVG, komplek Pasar Lanjak, Desa, Sepandan, Kec. Batang Lupar, Kabupaten Kapuas Hulu, Kalimantan Barat 78766","komplek Pasar Lanjak, Desa, Sepandan, Kec. Batang Lupar, Kabupaten Kapuas Hulu",KALIMANTAN BARAT,78766.0,Indonesia,,,,1.034449,112.2297064,https://maps.google.com/?cid=0x0:0xf30fbb1ad38c36aa,
supermarket,Toko Elektronik,"Badau Tengah, Tokoh Putra Borneo","Unnamed Road, 78767, Badau, Kec. Badau, Kabupaten Kapuas Hulu, Kalimantan Barat 78767","78767, Badau, Kec. Badau, Kabupaten Kapuas Hulu",KALIMANTAN BARAT,78767.0,Indonesia,82186748640.0,,,1.041259,111.9039336,https://maps.google.com/?cid=0x0:0x56d2aab524f331ad,
supermarket,Toko,Walet labian,"Jl. Lintas utara, Labian, Kec. Batang Lupar, Kabupaten Kapuas Hulu, Kalimantan Barat 78766","Labian, Kec. Batang Lupar, Kabupaten Kapuas Hulu",KALIMANTAN BARAT,78766.0,Indonesia,81350665793.0,,,1.10825,112.290497,https://maps.google.com/?cid=0x0:0xaf8ccd9d899b2096,
supermarket,supermarket,Pasar Hasil Hutan Batang Ai,"Unnamed Road, 95800 Lubok Antu, Sarawak, Malaysia",Lubok Antu,KALIMANTAN BARAT,95800.0,Indonesia,,,,1.1506697,111.8625912,https://maps.google.com/?cid=0x0:0xd715464f75b979bf,
supermarket,Pusat Perbelanjaan,Emart Batu Kawa,"Lot 6369, Block 225 KNLD, 4th Mile, Jalan Batu Kawa, Taman Desa Wira, 93250 Kuching, Sarawak, Malaysia",Kuching,KALIMANTAN BARAT,93250.0,Indonesia,6082688168.0,,,1.5062945,110.2989354,https://maps.google.com/?cid=0x0:0x671566ae99153320,
supermarket,supermarket,Kec. Bika,"Kabupaten Kapuas Hulu, Kalimantan Barat","Kabupaten Kapuas Hulu, Kalimantan Barat",KALIMANTAN BARAT,,Indonesia,,,,0.8201836,112.8274926,https://maps.google.com/?cid=0x0:0xb1e7c1b96c7d7470,
supermarket,Toko bahan makanan,Toko Elisabeth,"RWMJ+P2G, Jl. Lintas Selatan, Kedamin Hulu, Kec. Putussibau Sel., Kabupaten Kapuas Hulu, Kalimantan Barat 78753","Jl. Lintas Selatan, Kedamin Hulu, Kec. Putussibau Sel., Kabupaten Kapuas Hulu",KALIMANTAN BARAT,78753.0,Indonesia,,,,0.8343073,112.9300853,https://maps.google.com/?cid=0x0:0xca84f3f2e710d515,
supermarket,Layanan Distribusi,Berkat Minimarket,"VWCF+P47, Putussibau Kota, Kec. Putussibau Utara, Kabupaten Kapuas Hulu, Kalimantan Barat 78753","Putussibau Kota, Kec. Putussibau Utara, Kabupaten Kapuas Hulu",KALIMANTAN BARAT,78753.0,Indonesia,,,,0.8717894,112.9227847,https://maps.google.com/?cid=0x0:0xcad9e3f2d6dd0305,
supermarket,Toko Elektronik,Toko Cahaya mandiri,"RWMJ+MG8, Jl. Lintas Kalimantan Poros Utara, Kedamin Hulu, Kec. Putussibau Sel., Kabupaten Kapuas Hulu, Kalimantan Barat 78753","Jl. Lintas Kalimantan Poros Utara, Kedamin Hulu, Kec. Putussibau Sel., Kabupaten Kapuas Hulu",KALIMANTAN BARAT,78753.0,Indonesia,,,,0.8341614,112.9313352,https://maps.google.com/?cid=0x0:0x3a4d8a7566a083df,
supermarket,Pusat Perbelanjaan,MM.TITA,"VWFF+QM5, Putussibau Kota, Kec. Putussibau Utara, Kabupaten Kapuas Hulu, Kalimantan Barat 78753","Putussibau Kota, Kec. Putussibau Utara, Kabupaten Kapuas Hulu",KALIMANTAN BARAT,78753.0,Indonesia,81254254796.0,,,0.8743877,112.9242299,https://maps.google.com/?cid=0x0:0xf04ff6c17f453019,
supermarket,Toko Swalayan,Toko E_Mart,"Kedamin Hulu, Kec. Putussibau Sel., Kabupaten Kapuas Hulu, Kalimantan Barat 78753","Kec. Putussibau Sel., Kabupaten Kapuas Hulu",KALIMANTAN BARAT,78753.0,Indonesia,81345445596.0,,,0.8295995,112.9330922,https://maps.google.com/?cid=0x0:0x53f4e1f3c673790,
supermarket,Toko Kue,TOKO 1.000 DINAR/YANTI CAKE,"Putussibau Kota, Kec. Putussibau Utara, Kabupaten Kapuas Hulu, Kalimantan Barat 78753","Kec. Putussibau Utara, Kabupaten Kapuas Hulu",KALIMANTAN BARAT,78753.0,Indonesia,81213193576.0,,,0.8738117,112.9238487,https://maps.google.com/?cid=0x0:0x4b45a109be76ba94,
supermarket,Toko bahan makanan,Toko Amanah,"VW59+J8H, Hilir Ktr., Kec. Putussibau Utara, Kabupaten Kapuas Hulu, Kalimantan Barat 78753","Hilir Ktr., Kec. Putussibau Utara, Kabupaten Kapuas Hulu",KALIMANTAN BARAT,78753.0,Indonesia,,,,0.8590515,112.9183643,https://maps.google.com/?cid=0x0:0xb1f7eeee3bee2593,
supermarket,Toko Swalayan,Waroeng Swelby,"RWRJ+7MJ, Kedamin Hulu, Kec. Putussibau Sel., Kabupaten Kapuas Hulu, Kalimantan Barat 78753","Kedamin Hulu, Kec. Putussibau Sel., Kabupaten Kapuas Hulu",KALIMANTAN BARAT,78753.0,Indonesia,,,,0.8407052,112.9316452,https://maps.google.com/?cid=0x0:0x2e9114176e2be41b,
supermarket,,Toko Sukses,"MWR5+43V, Nanga Semangut - Putussibau, Nanga Kalis, Kec. Kalis, Kabupaten Kapuas Hulu, Kalimantan Barat 78753","Nanga Semangut - Putussibau, Nanga Kalis, Kec. Kalis, Kabupaten Kapuas Hulu",KALIMANTAN BARAT,78753.0,Indonesia,,,,0.6903735,112.9076833,https://maps.google.com/?cid=0x0:0x68eca14c201766f,
supermarket,Toko Swalayan,SRC SAPARINI,"Jl. Hasanudin No.33, Hilir Ktr., Kec. Putussibau Utara, Kabupaten Kapuas Hulu, Kalimantan Barat 78753","Hilir Ktr., Kec. Putussibau Utara, Kabupaten Kapuas Hulu",KALIMANTAN BARAT,78753.0,Indonesia,,,,0.8589409,112.9185778,https://maps.google.com/?cid=0x0:0x18cfde5dc763bbfe,
supermarket,Toko Swalayan,Harapan Baru,"VW5F+7HF, Putussibau Kota, Kec. Putussibau Utara, Kabupaten Kapuas Hulu, Kalimantan Barat 78753","Putussibau Kota, Kec. Putussibau Utara, Kabupaten Kapuas Hulu",KALIMANTAN BARAT,78753.0,Indonesia,81254998333.0,,,0.8581937,112.9239148,https://maps.google.com/?cid=0x0:0x8db771f5b8b5140d,
supermarket,Minimarket,Toko Family,"VW3F+PCP, Kedamin Hilir, Kec. Putussibau Sel., Kabupaten Kapuas Hulu, Kalimantan Barat 78753","Kedamin Hilir, Kec. Putussibau Sel., Kabupaten Kapuas Hulu",KALIMANTAN BARAT,78753.0,Indonesia,,,,0.8543497,112.9235672,https://maps.google.com/?cid=0x0:0x918f77c05934dd0f,
supermarket,Toko,Tita Minimarket,"VWFF+QM6, Putussibau Kota, Kec. Putussibau Utara, Kabupaten Kapuas Hulu, Kalimantan Barat 78752","Putussibau Kota, Kec. Putussibau Utara, Kabupaten Kapuas Hulu",KALIMANTAN BARAT,78752.0,Indonesia,,,,0.8744071,112.9241548,https://maps.google.com/?cid=0x0:0xb98b31d1e9a21e6c,
supermarket,Toko bahan makanan,Toko Iwan,"VWPH+C28, Putussibau Kota, Kec. Putussibau Utara, Kabupaten Kapuas Hulu, Kalimantan Barat 78752","Putussibau Kota, Kec. Putussibau Utara, Kabupaten Kapuas Hulu",KALIMANTAN BARAT,78752.0,Indonesia,,,,0.8860453,112.9275643,https://maps.google.com/?cid=0x0:0x2147a0010fbbd4d4,
supermarket,Toko,Tottori,"VWGF+2HX, Putussibau Kota, Kec. Putussibau Utara, Kabupaten Kapuas Hulu, Kalimantan Barat 78752","Putussibau Kota, Kec. Putussibau Utara, Kabupaten Kapuas Hulu",KALIMANTAN BARAT,78752.0,Indonesia,85245456889.0,,,0.8751136,112.9239883,https://maps.google.com/?cid=0x0:0x91c14e5e42aab268,
supermarket,Toko umum,Toko Karunia,"RWRJ+CJG, Kedamin Hulu Putussibau Sel. Kabupaten Kapuas Hulu, Kapuas Raya, Kedamin Hulu, Kec. Putussibau Sel., Kabupaten Kapuas Hulu, Kalimantan Barat 78753","Kedamin Hulu Putussibau Sel. Kabupaten Kapuas Hulu, Kapuas Raya, Kedamin Hulu, Kec. Putussibau Sel., Kabupaten Kapuas Hulu",KALIMANTAN BARAT,78753.0,Indonesia,,,,0.8410639,112.9315775,https://maps.google.com/?cid=0x0:0x83882ee3d0e31e99,
supermarket,Minimarket,QUEENA MART,"VW38+MGF, Jl. Banin, Kedamin Hilir, Kec. Putussibau Sel., Kabupaten Kapuas Hulu, Kalimantan Barat 78714","Jl. Banin, Kedamin Hilir, Kec. Putussibau Sel., Kabupaten Kapuas Hulu",KALIMANTAN BARAT,78714.0,Indonesia,,,,0.8541926,112.9163059,https://maps.google.com/?cid=0x0:0xb68b34bfc4270345,
supermarket,Toko,Toko Erni,"VWCF+RH8, Jl. Ngurah Rai, Putussibau Kota, Kec. Putussibau Utara, Kabupaten Kapuas Hulu, Kalimantan Barat 78753","Jl. Ngurah Rai, Putussibau Kota, Kec. Putussibau Utara, Kabupaten Kapuas Hulu",KALIMANTAN BARAT,78753.0,Indonesia,85754187554.0,,,0.8720295,112.9239535,https://maps.google.com/?cid=0x0:0x446b0ffe5430deed,
supermarket,Toko bahan makanan,Toko Cassia,"VWCF+R4M, Putussibau Kota, Kec. Putussibau Utara, Kabupaten Kapuas Hulu, Kalimantan Barat 78753","Putussibau Kota, Kec. Putussibau Utara, Kabupaten Kapuas Hulu",KALIMANTAN BARAT,78753.0,Indonesia,81253660089.0,,,0.8720903,112.9227951,https://maps.google.com/?cid=0x0:0x6f369d775fec4f3b,
supermarket,supermarket,Warung Anyit,"Jl.Raya No.53, Bika, Kec. Bika, Kabupaten Kapuas Hulu, Kalimantan Barat 78753","Bika, Kec. Bika, Kabupaten Kapuas Hulu",KALIMANTAN BARAT,78753.0,Indonesia,85822249571.0,,,0.8135283,112.8392926,https://maps.google.com/?cid=0x0:0x7e6ef9d6947200bc,
supermarket,Toko Swalayan,Tienda Mexicana,"825 E Rundberg Ln D, Austin, TX 78753, Amerika Serikat","Austin, TX",KALIMANTAN BARAT,78753.0,Indonesia,15128357777.0,,,30.3568925,-97.6863437,https://maps.google.com/?cid=0x0:0x84db991d890c7157,
supermarket,supermarket,Cardtronics ATM,"834 E Rundberg Ln # B, Austin, TX 78753, Amerika Serikat","Austin, TX",KALIMANTAN BARAT,78753.0,Indonesia,18007869666.0,,,30.3575411,-97.6860163,https://maps.google.com/?cid=0x0:0x85ddcdd4ee212e27,
supermarket,Toko Kelontong Meksiko,La Mexicana Market,"834 E Rundberg Ln # B, Austin, TX 78753, Amerika Serikat","Austin, TX",KALIMANTAN BARAT,78753.0,Indonesia,15128348797.0,,,30.3576275,-97.6860648,https://maps.google.com/?cid=0x0:0x340852f2287eb392,
supermarket,supermarket,MoneyGram,"834 E Rundberg Ln, Austin, TX 78753, Amerika Serikat","Austin, TX",KALIMANTAN BARAT,78753.0,Indonesia,15123349999.0,,,30.3576377,-97.6858864,https://maps.google.com/?cid=0x0:0xaa4d09bc78c179fd,
supermarket,supermarket,"ATM (ATM Link, Inc.)","834 E Rundberg Ln # B, Austin, TX 78753, Amerika Serikat","Austin, TX",KALIMANTAN BARAT,78753.0,Indonesia,15128348797.0,,,30.3576377,-97.6858864,https://maps.google.com/?cid=0x0:0xe651aeec3de4eb4,
supermarket,supermarket,Kalimantan Barat 78758,"Kabupaten Kapuas Hulu, Kalimantan Barat","Kabupaten Kapuas Hulu, Kalimantan Barat",KALIMANTAN BARAT,,Indonesia,,,,0.5380074,112.548349,https://maps.google.com/?cid=0x0:0xbc2481a06dba6442,
supermarket,Minimarket,Hala Mart,"FFPH+49F, Nanga Tepuai - Nanga Semangut, Boyan Tj., Kec. Boyan Tj., Kabupaten Kapuas Hulu, Kalimantan Barat 78758","Nanga Tepuai - Nanga Semangut, Boyan Tj., Kec. Boyan Tj., Kabupaten Kapuas Hulu",KALIMANTAN BARAT,78758.0,Indonesia,,,,0.4853095,112.4784248,https://maps.google.com/?cid=0x0:0x39eae67e1fa3e46c,
supermarket,Pusat Perbelanjaan,Warung dua putri,"GGW7+Q24, Nanga Danau, Kec. Boyan Tj., Kabupaten Kapuas Hulu, Kalimantan Barat 78758","Nanga Danau, Kec. Boyan Tj., Kabupaten Kapuas Hulu",KALIMANTAN BARAT,78758.0,Indonesia,,,,0.5468922,112.5125893,https://maps.google.com/?cid=0x0:0x37b51553dbf63a2,
supermarket,Toko Pakaian,Toko mas udin 02 (MD88),"FFPM+MCC, Boyan Tj., Kec. Boyan Tj., Kabupaten Kapuas Hulu, Kalimantan Barat 78758","Boyan Tj., Kec. Boyan Tj., Kabupaten Kapuas Hulu",KALIMANTAN BARAT,78758.0,Indonesia,82135254283.0,,,0.4866822,112.4835249,https://maps.google.com/?cid=0x0:0x97305cd693b56c15,
supermarket,supermarket,SRC,"FFPH+4FQ, Boyan Tj., Kec. Boyan Tj., Kabupaten Kapuas Hulu, Kalimantan Barat 78758","Boyan Tj., Kec. Boyan Tj., Kabupaten Kapuas Hulu",KALIMANTAN BARAT,78758.0,Indonesia,,,,0.4853366,112.4787236,https://maps.google.com/?cid=0x0:0x17e17bf899562a8f,
supermarket,supermarket,INDAH MART,"HHFW+4C6, Nanga Boyan, Kec. Boyan Tj., Kabupaten Kapuas Hulu, Kalimantan Barat 78762","Nanga Boyan, Kec. Boyan Tj., Kabupaten Kapuas Hulu",KALIMANTAN BARAT,78762.0,Indonesia,,,,0.5727947,112.5960268,https://maps.google.com/?cid=0x0:0x35dd27def4b06bda,
supermarket,Minimarket,Alfamart Boyan Tanjung,"Jl.lintas selatan No.km 84, RW.4, mujann, Kec. Boyan Tj., Kabupaten Kapuas Hulu, Kalimantan Barat 78758","RW.4, mujann, Kec. Boyan Tj., Kabupaten Kapuas Hulu",KALIMANTAN BARAT,78758.0,Indonesia,,,,0.4868325,112.4848301,https://maps.google.com/?cid=0x0:0x94030637ea78c2b4,
supermarket,supermarket,Kec. Boyan Tj.,"Kabupaten Kapuas Hulu, Kalimantan Barat","Kabupaten Kapuas Hulu, Kalimantan Barat",KALIMANTAN BARAT,,Indonesia,,,,0.4860021,112.4793868,https://maps.google.com/?cid=0x0:0x3bc75c297ce60861,
supermarket,supermarket,Kalimantan Barat 78761,"Kabupaten Kapuas Hulu, Kalimantan Barat","Kabupaten Kapuas Hulu, Kalimantan Barat",KALIMANTAN BARAT,,Indonesia,,,,0.7486759,112.5006693,https://maps.google.com/?cid=0x0:0x4a99a4da4ec8f293,
supermarket,Toko Swalayan,toko Otek,"QFHW+5V9, Bunut Hilir, Kec. Bunut Hilir, Kabupaten Kapuas Hulu, Kalimantan Barat 78761","Bunut Hilir, Kec. Bunut Hilir, Kabupaten Kapuas Hulu",KALIMANTAN BARAT,78761.0,Indonesia,85654530111.0,,,0.7779193,112.4972343,https://maps.google.com/?cid=0x0:0xc09a0ea3275dd7a3,
supermarket,Toko Swalayan,Tk.siak Ati,"QFHW+7G3, Bunut Hilir, Kec. Bunut Hilir, Kabupaten Kapuas Hulu, Kalimantan Barat 78761","Bunut Hilir, Kec. Bunut Hilir, Kabupaten Kapuas Hulu",KALIMANTAN BARAT,78761.0,Indonesia,8235092211.0,,,0.7781292,112.4963046,https://maps.google.com/?cid=0x0:0x7900f8ebea723130,
supermarket,supermarket,Kalimantan Barat 78762,"Kabupaten Kapuas Hulu, Kalimantan Barat","Kabupaten Kapuas Hulu, Kalimantan Barat",KALIMANTAN BARAT,,Indonesia,,,,0.3457623,112.7152125,https://maps.google.com/?cid=0x0:0xa34114c634a833ee,
supermarket,Toko bahan makanan,Toko Sembako Karya Utama,"FM8G+6P9, Temuyuk, Kec. Bunut Hulu, Kabupaten Kapuas Hulu, Kalimantan Barat 78762","Temuyuk, Kec. Bunut Hulu, Kabupaten Kapuas Hulu",KALIMANTAN BARAT,78762.0,Indonesia,,,,0.4655348,112.6768461,https://maps.google.com/?cid=0x0:0xc136f8c8be89a8eb,
supermarket,Toko Swalayan,toko Otek,"QFHW+5V9, Bunut Hilir, Kec. Bunut Hilir, Kabupaten Kapuas Hulu, Kalimantan Barat 78761","Bunut Hilir, Kec. Bunut Hilir, Kabupaten Kapuas Hulu",KALIMANTAN BARAT,78761.0,Indonesia,85654530111.0,,,0.7779193,112.4972343,https://maps.google.com/?cid=0x0:0xc09a0ea3275dd7a3,
supermarket,Toko Swalayan,Toko Sumber Rezeki,"FCMR+3H9, Jalan Lintas Selatan, Buak mau, Kec. Pengkadan, Kabupaten Kapuas Hulu, Kalimantan Barat 78758","Jalan Lintas Selatan, Buak mau, Kec. Pengkadan, Kabupaten Kapuas Hulu",KALIMANTAN BARAT,78758.0,Indonesia,85349073003.0,,,0.4826595,112.4414786,https://maps.google.com/?cid=0x0:0xc1cefd57c0f9d87d,
supermarket,supermarket,Walet ayong,"GMF2+H39, Unnamed Road, Nanga Suruk, Kec. Bunut Hulu, Kabupaten Kapuas Hulu, Kalimantan Barat 78762","Unnamed Road, Nanga Suruk, Kec. Bunut Hulu, Kabupaten Kapuas Hulu",KALIMANTAN BARAT,78762.0,Indonesia,,,,0.5239213,112.6502462,https://maps.google.com/?cid=0x0:0x574f1b89306ddd17,
supermarket,Toko Swalayan,Toko Buah Mas Imam,"Marta Dana, Kec. Pengkadan, Kabupaten Kapuas Hulu, Kalimantan Barat 78759","Kec. Pengkadan, Kabupaten Kapuas Hulu",KALIMANTAN BARAT,78759.0,Indonesia,81332924885.0,,,0.4466164,112.3664387,https://maps.google.com/?cid=0x0:0xa6fc67cd0fb458b0,
supermarket,supermarket,Kalimantan Barat 78762,"Kabupaten Kapuas Hulu, Kalimantan Barat","Kabupaten Kapuas Hulu, Kalimantan Barat",KALIMANTAN BARAT,,Indonesia,,,,0.3457623,112.7152125,https://maps.google.com/?cid=0x0:0xa34114c634a833ee,
supermarket,Toko bahan makanan,Toko Sembako Karya Utama,"FM8G+6P9, Temuyuk, Kec. Bunut Hulu, Kabupaten Kapuas Hulu, Kalimantan Barat 78762","Temuyuk, Kec. Bunut Hulu, Kabupaten Kapuas Hulu",KALIMANTAN BARAT,78762.0,Indonesia,,,,0.4655348,112.6768461,https://maps.google.com/?cid=0x0:0xc136f8c8be89a8eb,
supermarket,,Toko Karya Budi,"FPP4+W89, Jl. Lintas Selatan, Temuyuk, Kec. Bunut Hulu, Kabupaten Kapuas Hulu, Kalimantan Barat 78757","Jl. Lintas Selatan, Temuyuk, Kec. Bunut Hulu, Kabupaten Kapuas Hulu",KALIMANTAN BARAT,78757.0,Indonesia,,,,0.487278,112.7058743,https://maps.google.com/?cid=0x0:0x26d750ae8827def8,
supermarket,Toko bahan makanan,Toko Alfida Gibran,"Jl. Lintas Selatan, Temuyuk, Kec. Bunut Hulu, Kabupaten Kapuas Hulu, Kalimantan Barat 78762","Temuyuk, Kec. Bunut Hulu, Kabupaten Kapuas Hulu",KALIMANTAN BARAT,78762.0,Indonesia,,,,0.469485,112.6983694,https://maps.google.com/?cid=0x0:0x82f343f6a5b325b,
supermarket,Toko Perlengkapan Rumah,Toko Mitra Pandau,"7JVV+GFP, Nanga Semangut, Kec. Bunut Hulu, Kabupaten Kapuas Hulu, Kalimantan Barat","Kabupaten Kapuas Hulu, Kalimantan Barat",KALIMANTAN BARAT,,Indonesia,,,,0.2938379,112.6437026,https://maps.google.com/?cid=0x0:0xadaa6f0837be1ce4,
supermarket,Toko Swalayan,Toko Sumber Rezeki,"FCMR+3H9, Jalan Lintas Selatan, Buak mau, Kec. Pengkadan, Kabupaten Kapuas Hulu, Kalimantan Barat 78758","Jalan Lintas Selatan, Buak mau, Kec. Pengkadan, Kabupaten Kapuas Hulu",KALIMANTAN BARAT,78758.0,Indonesia,85349073003.0,,,0.4826595,112.4414786,https://maps.google.com/?cid=0x0:0xc1cefd57c0f9d87d,
supermarket,Toko Swalayan,Tk.siak Ati,"QFHW+7G3, Bunut Hilir, Kec. Bunut Hilir, Kabupaten Kapuas Hulu, Kalimantan Barat 78761","Bunut Hilir, Kec. Bunut Hilir, Kabupaten Kapuas Hulu",KALIMANTAN BARAT,78761.0,Indonesia,8235092211.0,,,0.7781292,112.4963046,https://maps.google.com/?cid=0x0:0x7900f8ebea723130,
supermarket,,TOKO ANSHORI,"FM9X+VC2, Jl. Lintas Selatan, Temuyuk, Kec. Bunut Hulu, Kabupaten Kapuas Hulu, Kalimantan Barat 78762","Jl. Lintas Selatan, Temuyuk, Kec. Bunut Hulu, Kabupaten Kapuas Hulu",KALIMANTAN BARAT,78762.0,Indonesia,,,,0.4696384,112.6985166,https://maps.google.com/?cid=0x0:0x7fcc1ba98c2787af,
supermarket,Pusat Perbelanjaan,Nanga mentebah,"FPQ5+PH9, Jl. Lintas Selatan, Nanga menyerah, Kec. Bunut Hulu, Kabupaten Kapuas Hulu, Kalimantan Barat","Kabupaten Kapuas Hulu, Kalimantan Barat",KALIMANTAN BARAT,,Indonesia,,,,0.4892805,112.708995,https://maps.google.com/?cid=0x0:0xb35a22c94c2cbc3a,
supermarket,Pusat Perbelanjaan,Andi Mart,"Jl. Ngurah Rai No.2, Putussibau Kota, Kec. Putussibau Utara, Kabupaten Kapuas Hulu, Kalimantan Barat 78753","Putussibau Kota, Kec. Putussibau Utara, Kabupaten Kapuas Hulu",KALIMANTAN BARAT,78753.0,Indonesia,,,,0.8668305,112.924325,https://maps.google.com/?cid=0x0:0x35f98cac41834a80,
supermarket,Minimarket,Al Fazilal Mini Market,"FJ7P+HCJ, Nanga Tepuai - Nanga Semangut, Temuyuk, Kec. Bunut Hulu, Kabupaten Kapuas Hulu, Kalimantan Barat 78762","Nanga Tepuai - Nanga Semangut, Temuyuk, Kec. Bunut Hulu, Kabupaten Kapuas Hulu",KALIMANTAN BARAT,78762.0,Indonesia,,,,0.4639626,112.6360135,https://maps.google.com/?cid=0x0:0x4ef53009fedf9483,
supermarket,Toko bahan makanan,IZUKA MART,"C9W8+23Q, Marta Dana, Kec. Pengkadan, Kabupaten Kapuas Hulu, Kalimantan Barat 78759","Marta Dana, Kec. Pengkadan, Kabupaten Kapuas Hulu",KALIMANTAN BARAT,78759.0,Indonesia,,,,0.4450973,112.3652202,https://maps.google.com/?cid=0x0:0x6395b1a293fea9ea,
supermarket,Toko,Toko Alima,"Jl.lintas selatan dusun reret indah desa semangut utara kec.bunut hulu.kab.kapuas hulu hulu, Kabupaten Kapuas Hulu, Kalimantan Barat","Kabupaten Kapuas Hulu, Kalimantan Barat",KALIMANTAN BARAT,,Indonesia,,,,0.4813984,112.7029238,https://maps.google.com/?cid=0x0:0x282fadca5d0b82f6,
supermarket,Layanan Distribusi,Berkat Minimarket,"VWCF+P47, Putussibau Kota, Kec. Putussibau Utara, Kabupaten Kapuas Hulu, Kalimantan Barat 78753","Putussibau Kota, Kec. Putussibau Utara, Kabupaten Kapuas Hulu",KALIMANTAN BARAT,78753.0,Indonesia,,,,0.8717894,112.9227847,https://maps.google.com/?cid=0x0:0xcad9e3f2d6dd0305,
supermarket,Minimarket,Hala Mart,"FFPH+49F, Nanga Tepuai - Nanga Semangut, Boyan Tj., Kec. Boyan Tj., Kabupaten Kapuas Hulu, Kalimantan Barat 78758","Nanga Tepuai - Nanga Semangut, Boyan Tj., Kec. Boyan Tj., Kabupaten Kapuas Hulu",KALIMANTAN BARAT,78758.0,Indonesia,,,,0.4853095,112.4784248,https://maps.google.com/?cid=0x0:0x39eae67e1fa3e46c,
supermarket,Toko Swalayan,Toko Buah Mas Imam,"Marta Dana, Kec. Pengkadan, Kabupaten Kapuas Hulu, Kalimantan Barat 78759","Kec. Pengkadan, Kabupaten Kapuas Hulu",KALIMANTAN BARAT,78759.0,Indonesia,81332924885.0,,,0.4466164,112.3664387,https://maps.google.com/?cid=0x0:0xa6fc67cd0fb458b0,
supermarket,Toko bahan makanan,Toko Elisabeth,"RWMJ+P2G, Jl. Lintas Selatan, Kedamin Hulu, Kec. Putussibau Sel., Kabupaten Kapuas Hulu, Kalimantan Barat 78753","Jl. Lintas Selatan, Kedamin Hulu, Kec. Putussibau Sel., Kabupaten Kapuas Hulu",KALIMANTAN BARAT,78753.0,Indonesia,,,,0.8343073,112.9300853,https://maps.google.com/?cid=0x0:0xca84f3f2e710d515,
supermarket,Minimarket,Viki mart,"98C5+25H, Unnamed Road, Nanga Tepuai, Kec. Hulu Gurung, Kabupaten Kapuas Hulu, Kalimantan Barat 78764","Unnamed Road, Nanga Tepuai, Kec. Hulu Gurung, Kabupaten Kapuas Hulu",KALIMANTAN BARAT,78764.0,Indonesia,82152757227.0,,,0.370073,112.3079713,https://maps.google.com/?cid=0x0:0xbfcbf03d6144220,
supermarket,Toko Swalayan,Toko budi bersama menendang,"C9V7+H6Q, Marta Dana, Kec. Pengkadan, Kabupaten Kapuas Hulu, Kalimantan Barat 78759","Marta Dana, Kec. Pengkadan, Kabupaten Kapuas Hulu",KALIMANTAN BARAT,78759.0,Indonesia,,,,0.4439542,112.3631227,https://maps.google.com/?cid=0x0:0x511ab7fde62f0472,
supermarket,Kantor Perusahaan,Join Market,"C9W8+56W, Jl. Raya Lintas Selatan, Marta Dana, Kec. Pengkadan, Kabupaten Kapuas Hulu, Kalimantan Barat 78759","Jl. Raya Lintas Selatan, Marta Dana, Kec. Pengkadan, Kabupaten Kapuas Hulu",KALIMANTAN BARAT,78759.0,Indonesia,,,,0.4454981,112.36559,https://maps.google.com/?cid=0x0:0xee0514bc3e709853,
supermarket,Pusat Perbelanjaan,jual gas dan ikan toman abang sukandi,"FMCX+5GG, Nanga Tepuai - Nanga Semangut, Temuyuk, Kec. Bunut Hulu, Kabupaten Kapuas Hulu, Kalimantan Barat 78762","Nanga Tepuai - Nanga Semangut, Temuyuk, Kec. Bunut Hulu, Kabupaten Kapuas Hulu",KALIMANTAN BARAT,78762.0,Indonesia,,,,0.4704418,112.6988423,https://maps.google.com/?cid=0x0:0x1200c09190686bc8,
supermarket,supermarket,Walet ayong,"GMF2+H39, Unnamed Road, Nanga Suruk, Kec. Bunut Hulu, Kabupaten Kapuas Hulu, Kalimantan Barat 78762","Unnamed Road, Nanga Suruk, Kec. Bunut Hulu, Kabupaten Kapuas Hulu",KALIMANTAN BARAT,78762.0,Indonesia,,,,0.5239213,112.6502462,https://maps.google.com/?cid=0x0:0x574f1b89306ddd17,
supermarket,Kafe,Pondok Najwa,"FJ7R+7FH, Temuyuk, Kec. Bunut Hulu, Kabupaten Kapuas Hulu, Kalimantan Barat 78762","Temuyuk, Kec. Bunut Hulu, Kabupaten Kapuas Hulu",KALIMANTAN BARAT,78762.0,Indonesia,,,,0.463197,112.6412193,https://maps.google.com/?cid=0x0:0xf69a05cfcdbc96ef,
supermarket,Toko Pakaian,Toko mas udin 02 (MD88),"FFPM+MCC, Boyan Tj., Kec. Boyan Tj., Kabupaten Kapuas Hulu, Kalimantan Barat 78758","Boyan Tj., Kec. Boyan Tj., Kabupaten Kapuas Hulu",KALIMANTAN BARAT,78758.0,Indonesia,82135254283.0,,,0.4866822,112.4835249,https://maps.google.com/?cid=0x0:0x97305cd693b56c15,
supermarket,supermarket,Kalimantan Barat 78754,"Kabupaten Kapuas Hulu, Kalimantan Barat","Kabupaten Kapuas Hulu, Kalimantan Barat",KALIMANTAN BARAT,,Indonesia,,,,0.942177,112.5721881,https://maps.google.com/?cid=0x0:0xf1f8d179bad0c333,
supermarket,Perhimpunan Pengembang Perumahan,iemil Uded,"RJJ4+CJV, Nanga Embaloh, Kec. Embaloh Hilir, Kabupaten Kapuas Hulu, Kalimantan Barat 78754","Nanga Embaloh, Kec. Embaloh Hilir, Kabupaten Kapuas Hulu",KALIMANTAN BARAT,78754.0,Indonesia,,,,0.831028,112.606634,https://maps.google.com/?cid=0x0:0xa23683883b751b16,
supermarket,Toko Swalayan,toko Otek,"QFHW+5V9, Bunut Hilir, Kec. Bunut Hilir, Kabupaten Kapuas Hulu, Kalimantan Barat 78761","Bunut Hilir, Kec. Bunut Hilir, Kabupaten Kapuas Hulu",KALIMANTAN BARAT,78761.0,Indonesia,85654530111.0,,,0.7779193,112.4972343,https://maps.google.com/?cid=0x0:0xc09a0ea3275dd7a3,
supermarket,Toko bahan makanan,Toko Elisabeth,"RWMJ+P2G, Jl. Lintas Selatan, Kedamin Hulu, Kec. Putussibau Sel., Kabupaten Kapuas Hulu, Kalimantan Barat 78753","Jl. Lintas Selatan, Kedamin Hulu, Kec. Putussibau Sel., Kabupaten Kapuas Hulu",KALIMANTAN BARAT,78753.0,Indonesia,,,,0.8343073,112.9300853,https://maps.google.com/?cid=0x0:0xca84f3f2e710d515,
supermarket,Toko Swalayan,Tk.siak Ati,"QFHW+7G3, Bunut Hilir, Kec. Bunut Hilir, Kabupaten Kapuas Hulu, Kalimantan Barat 78761","Bunut Hilir, Kec. Bunut Hilir, Kabupaten Kapuas Hulu",KALIMANTAN BARAT,78761.0,Indonesia,8235092211.0,,,0.7781292,112.4963046,https://maps.google.com/?cid=0x0:0x7900f8ebea723130,
supermarket,Pusat Perbelanjaan,Andi Mart,"Jl. Ngurah Rai No.2, Putussibau Kota, Kec. Putussibau Utara, Kabupaten Kapuas Hulu, Kalimantan Barat 78753","Putussibau Kota, Kec. Putussibau Utara, Kabupaten Kapuas Hulu",KALIMANTAN BARAT,78753.0,Indonesia,,,,0.8668305,112.924325,https://maps.google.com/?cid=0x0:0x35f98cac41834a80,
supermarket,Toko Elektronik,Toko Cahaya mandiri,"RWMJ+MG8, Jl. Lintas Kalimantan Poros Utara, Kedamin Hulu, Kec. Putussibau Sel., Kabupaten Kapuas Hulu, Kalimantan Barat 78753","Jl. Lintas Kalimantan Poros Utara, Kedamin Hulu, Kec. Putussibau Sel., Kabupaten Kapuas Hulu",KALIMANTAN BARAT,78753.0,Indonesia,,,,0.8341614,112.9313352,https://maps.google.com/?cid=0x0:0x3a4d8a7566a083df,
supermarket,Toko bahan makanan,OWEN MARKET,"Jl. Lintas Kalimantan Poros Utara, Kedamin Hulu, Kec. Putussibau Sel., Kabupaten Kapuas Hulu, Kalimantan Barat 78753","Kedamin Hulu, Kec. Putussibau Sel., Kabupaten Kapuas Hulu",KALIMANTAN BARAT,78753.0,Indonesia,,,,0.8331139,112.9329174,https://maps.google.com/?cid=0x0:0xcbf806973cca3a5c,
supermarket,Toko Swalayan,Waroeng Swelby,"RWRJ+7MJ, Kedamin Hulu, Kec. Putussibau Sel., Kabupaten Kapuas Hulu, Kalimantan Barat 78753","Kedamin Hulu, Kec. Putussibau Sel., Kabupaten Kapuas Hulu",KALIMANTAN BARAT,78753.0,Indonesia,,,,0.8407052,112.9316452,https://maps.google.com/?cid=0x0:0x2e9114176e2be41b,
supermarket,Pusat Perbelanjaan,MM.TITA,"VWFF+QM5, Putussibau Kota, Kec. Putussibau Utara, Kabupaten Kapuas Hulu, Kalimantan Barat 78753","Putussibau Kota, Kec. Putussibau Utara, Kabupaten Kapuas Hulu",KALIMANTAN BARAT,78753.0,Indonesia,81254254796.0,,,0.8743877,112.9242299,https://maps.google.com/?cid=0x0:0xf04ff6c17f453019,
supermarket,Layanan Distribusi,Berkat Minimarket,"VWCF+P47, Putussibau Kota, Kec. Putussibau Utara, Kabupaten Kapuas Hulu, Kalimantan Barat 78753","Putussibau Kota, Kec. Putussibau Utara, Kabupaten Kapuas Hulu",KALIMANTAN BARAT,78753.0,Indonesia,,,,0.8717894,112.9227847,https://maps.google.com/?cid=0x0:0xcad9e3f2d6dd0305,
supermarket,Toko Pakaian,TOKO ALFAN,"494V+372, Jl. Mataso, Banua Ujung, Kec. Embaloh Hulu, Kabupaten Kapuas Hulu, Kalimantan Barat 78755","Jl. Mataso, Banua Ujung, Kec. Embaloh Hulu, Kabupaten Kapuas Hulu",KALIMANTAN BARAT,78755.0,Indonesia,,,,1.1051414,112.3931369,https://maps.google.com/?cid=0x0:0xf3e099af040f81d7,
supermarket,supermarket,Warung Izma,"RHHW+8P2, Nanga Embaloh, Kec. Embaloh Hilir, Kabupaten Kapuas Hulu, Kalimantan Barat 78754","Nanga Embaloh, Kec. Embaloh Hilir, Kabupaten Kapuas Hulu",KALIMANTAN BARAT,78754.0,Indonesia,,,,0.8285953,112.5967124,https://maps.google.com/?cid=0x0:0xe6fdad47a8c6ef,
supermarket,supermarket,Kec. Embaloh Hilir,"Kabupaten Kapuas Hulu, Kalimantan Barat","Kabupaten Kapuas Hulu, Kalimantan Barat",KALIMANTAN BARAT,,Indonesia,,,,0.8301096,112.6011174,https://maps.google.com/?cid=0x0:0xa43ad8372a7e575d,
supermarket,supermarket,Kalimantan Barat 78755,"Kec. Embaloh Hulu, Kabupaten Kapuas Hulu, Kalimantan Barat","Kabupaten Kapuas Hulu, Kalimantan Barat",KALIMANTAN BARAT,,Indonesia,,,,1.3333965,112.5245093,https://maps.google.com/?cid=0x0:0x6c98a99955b9d91d,
supermarket,Toko Pakaian,TOKO ALFAN,"494V+372, Jl. Mataso, Banua Ujung, Kec. Embaloh Hulu, Kabupaten Kapuas Hulu, Kalimantan Barat 78755","Jl. Mataso, Banua Ujung, Kec. Embaloh Hulu, Kabupaten Kapuas Hulu",KALIMANTAN BARAT,78755.0,Indonesia,,,,1.1051414,112.3931369,https://maps.google.com/?cid=0x0:0xf3e099af040f81d7,
supermarket,Restoran,Mataso bus stop,"593F+FMW, Jl. Lintas Kalimantan Poros Utara, Pulau Manak, Kec. Embaloh Hulu, Kabupaten Kapuas Hulu, Kalimantan Barat 78755","Jl. Lintas Kalimantan Poros Utara, Pulau Manak, Kec. Embaloh Hulu, Kabupaten Kapuas Hulu",KALIMANTAN BARAT,78755.0,Indonesia,,,,1.1537389,112.3741987,https://maps.google.com/?cid=0x0:0x79992fd11be837b2,
supermarket,Toko,Walet labian,"Jl. Lintas utara, Labian, Kec. Batang Lupar, Kabupaten Kapuas Hulu, Kalimantan Barat 78766","Labian, Kec. Batang Lupar, Kabupaten Kapuas Hulu",KALIMANTAN BARAT,78766.0,Indonesia,81350665793.0,,,1.10825,112.290497,https://maps.google.com/?cid=0x0:0xaf8ccd9d899b2096,
supermarket,supermarket,Gista makmur,"3CX8+X7C, Jl. Mataso, Saujung Giling Manik, Kec. Embaloh Hulu, Kabupaten Kapuas Hulu, Kalimantan Barat 78755","Jl. Mataso, Saujung Giling Manik, Kec. Embaloh Hulu, Kabupaten Kapuas Hulu",KALIMANTAN BARAT,78755.0,Indonesia,,,,1.0999466,112.4156358,https://maps.google.com/?cid=0x0:0xcdc025b7e8e8b7d2,
supermarket,supermarket,Kalimantan Barat 78768,"Kabupaten Kapuas Hulu, Kalimantan Barat","Kabupaten Kapuas Hulu, Kalimantan Barat",KALIMANTAN BARAT,,Indonesia,,,,0.7346914,111.8091625,https://maps.google.com/?cid=0x0:0x62eff2d34c08b119,
supermarket,,Grosir dan eceran,"RPPW+V2J, Nanga Kantuk, Kec. Empanang, Kabupaten Kapuas Hulu, Kalimantan Barat 78768","Nanga Kantuk, Kec. Empanang, Kabupaten Kapuas Hulu",KALIMANTAN BARAT,78768.0,Indonesia,,,,0.837206,111.7450071,https://maps.google.com/?cid=0x0:0x6ca11bdaef1ae89d,
supermarket,,TOKO ILHAM,"RQR7+P28, Jl. Puring Kencana, Nanga Kantuk, Kec. Empanang, Kabupaten Kapuas Hulu, Kalimantan Barat 78768","Jl. Puring Kencana, Nanga Kantuk, Kec. Empanang, Kabupaten Kapuas Hulu",KALIMANTAN BARAT,78768.0,Indonesia,,,,0.8417812,111.7625676,https://maps.google.com/?cid=0x0:0xf750dd31954279a3,
supermarket,Toko Buah dan Sayuran,DEDYK Sayur,"RQQ7+G24, Jl. Puring Kencana, Nanga Kantuk, Kec. Empanang, Kabupaten Kapuas Hulu, Kalimantan Barat 78768","Jl. Puring Kencana, Nanga Kantuk, Kec. Empanang, Kabupaten Kapuas Hulu",KALIMANTAN BARAT,78768.0,Indonesia,,,,0.8387719,111.7625667,https://maps.google.com/?cid=0x0:0xb59628d0fbe3cf8a,
supermarket,supermarket,Kalimantan Barat 78764,"Kabupaten Kapuas Hulu, Kalimantan Barat","Kabupaten Kapuas Hulu, Kalimantan Barat",KALIMANTAN BARAT,,Indonesia,,,,0.3467182,112.3337769,https://maps.google.com/?cid=0x0:0x4ff676ed46f9b944,
supermarket,Minimarket,Viki mart,"98C5+25H, Unnamed Road, Nanga Tepuai, Kec. Hulu Gurung, Kabupaten Kapuas Hulu, Kalimantan Barat 78764","Unnamed Road, Nanga Tepuai, Kec. Hulu Gurung, Kabupaten Kapuas Hulu",KALIMANTAN BARAT,78764.0,Indonesia,82152757227.0,,,0.370073,112.3079713,https://maps.google.com/?cid=0x0:0xbfcbf03d6144220,
supermarket,Minimarket,SETIA MART,"Jl. Raya Lintas Selatan No.KM.117, Nanga Tepuai, Kec. Hulu Gurung, Kabupaten Kapuas Hulu, Kalimantan Barat 78764","Nanga Tepuai, Kec. Hulu Gurung, Kabupaten Kapuas Hulu",KALIMANTAN BARAT,78764.0,Indonesia,85654044154.0,,,0.3710588,112.3094455,https://maps.google.com/?cid=0x0:0x18678bac1e72b619,
supermarket,Toko bahan makanan,YOGI MART,"Jl. Raya Lintas Selatan, Nanga Tepuai, Kec. Hulu Gurung, Kabupaten Kapuas Hulu, Kalimantan Barat 78764","Nanga Tepuai, Kec. Hulu Gurung, Kabupaten Kapuas Hulu",KALIMANTAN BARAT,78764.0,Indonesia,81352499009.0,,,0.3693845,112.3067663,https://maps.google.com/?cid=0x0:0x41960479122724f1,
supermarket,Toko Swalayan,Toko Buah Mas Imam,"Marta Dana, Kec. Pengkadan, Kabupaten Kapuas Hulu, Kalimantan Barat 78759","Kec. Pengkadan, Kabupaten Kapuas Hulu",KALIMANTAN BARAT,78759.0,Indonesia,81332924885.0,,,0.4466164,112.3664387,https://maps.google.com/?cid=0x0:0xa6fc67cd0fb458b0,
supermarket,Toko,TOKO AURORA,"98G6+F9W desa sejahtera mandiri, Jalan lintas selatan, Nanga Tepuai, Kec. Hulu Gurung, Kabupaten Kapuas Hulu, Kalimantan Barat 78764","Jalan lintas selatan, Nanga Tepuai, Kec. Hulu Gurung, Kabupaten Kapuas Hulu",KALIMANTAN BARAT,78764.0,Indonesia,82154666600.0,,,0.3762484,112.3109673,https://maps.google.com/?cid=0x0:0x99795ec8dfeed98d,
supermarket,Padang,Rumah Makan Padang Andara,"9893+RJW, Nanga Tepuai, Kec. Hulu Gurung, Kabupaten Kapuas Hulu, Kalimantan Barat 78764","Nanga Tepuai, Kec. Hulu Gurung, Kabupaten Kapuas Hulu",KALIMANTAN BARAT,78764.0,Indonesia,81256931565.0,,,0.3696018,112.3040747,https://maps.google.com/?cid=0x0:0xbffd78c95f2ddfb2,
supermarket,Kantor Perusahaan,Join Market,"C9W8+56W, Jl. Raya Lintas Selatan, Marta Dana, Kec. Pengkadan, Kabupaten Kapuas Hulu, Kalimantan Barat 78759","Jl. Raya Lintas Selatan, Marta Dana, Kec. Pengkadan, Kabupaten Kapuas Hulu",KALIMANTAN BARAT,78759.0,Indonesia,,,,0.4454981,112.36559,https://maps.google.com/?cid=0x0:0xee0514bc3e709853,
supermarket,Kafe,Warung malong,"Nanga Tepuai, Kec. Hulu Gurung, Kabupaten Kapuas Hulu, Kalimantan Barat 78764","Kec. Hulu Gurung, Kabupaten Kapuas Hulu",KALIMANTAN BARAT,78764.0,Indonesia,82155982802.0,,,0.369433,112.3053385,https://maps.google.com/?cid=0x0:0x35348daeb806bbe6,
supermarket,Toko Swalayan,Toko budi bersama menendang,"C9V7+H6Q, Marta Dana, Kec. Pengkadan, Kabupaten Kapuas Hulu, Kalimantan Barat 78759","Marta Dana, Kec. Pengkadan, Kabupaten Kapuas Hulu",KALIMANTAN BARAT,78759.0,Indonesia,,,,0.4439542,112.3631227,https://maps.google.com/?cid=0x0:0x511ab7fde62f0472,
supermarket,Toko umum,Warung Icu Sarah,"C7Q9+FR3 dusun na.lidi, Mentawit, Kec. Hulu Gurung, Kabupaten Kapuas Hulu, Kalimantan Barat","Kabupaten Kapuas Hulu, Kalimantan Barat",KALIMANTAN BARAT,,Indonesia,,,,0.4386448,112.2695379,https://maps.google.com/?cid=0x0:0xea2bd27b3302d2e0,
supermarket,Toko bahan makanan,Tokoh Sumber Usaha,"53PF+HJH, Nanga Ngeri, Kec. Silat Hulu, Kabupaten Kapuas Hulu, Kalimantan Barat 78774","Nanga Ngeri, Kec. Silat Hulu, Kabupaten Kapuas Hulu",KALIMANTAN BARAT,78774.0,Indonesia,85252649999.0,,,0.1864266,112.074094,https://maps.google.com/?cid=0x0:0x50cf790215797cc8,
supermarket,Bengkel Sepeda Motor,Bintang Motor,"C9V7+F7M Bika, Putussibau, Marta Dana, Bika, Kapuas Hulu Regency, West Kalimantan 78753","Putussibau, Marta Dana, Bika, Kapuas Hulu Regency",KALIMANTAN BARAT,78753.0,Indonesia,,,,0.4437107,112.3631725,https://maps.google.com/?cid=0x0:0x2681890ccd556b7e,
supermarket,Toko,Toko sembako zia,"C9X9+QX5, Unnamed Road, Sira jaya, Marta Dana, Kec. Pengkadan, Kabupaten Kapuas Hulu, Kalimantan Barat 78759","Unnamed Road, Sira jaya, Marta Dana, Kec. Pengkadan, Kabupaten Kapuas Hulu",KALIMANTAN BARAT,78759.0,Indonesia,81349622196.0,,,0.4493983,112.3699767,https://maps.google.com/?cid=0x0:0xdf2b392f820923d0,
supermarket,Toko Swalayan,Toko Sumber Rezeki,"FCMR+3H9, Jalan Lintas Selatan, Buak mau, Kec. Pengkadan, Kabupaten Kapuas Hulu, Kalimantan Barat 78758","Jalan Lintas Selatan, Buak mau, Kec. Pengkadan, Kabupaten Kapuas Hulu",KALIMANTAN BARAT,78758.0,Indonesia,85349073003.0,,,0.4826595,112.4414786,https://maps.google.com/?cid=0x0:0xc1cefd57c0f9d87d,
supermarket,supermarket,TOKO DEDY,"C8G5+JJ5, Desa, simpang senara, Kec. Hulu Gurung, Kabupaten Kapuas Hulu, Kalimantan Barat","Kabupaten Kapuas Hulu, Kalimantan Barat",KALIMANTAN BARAT,,Indonesia,,,,0.4265087,112.3091077,https://maps.google.com/?cid=0x0:0x92b4b4527009b91b,
supermarket,Toko Daging,Ayam Potong Bang Rendi,"98H6+MCQ, Dusun Sungai Terus Timur,Desa Sejahtera Mandiri, Sungai Terus, Kelakar, Kec. Hulu Gurung, Kabupaten Kapuas Hulu, Kalimantan Barat 78764","Dusun Sungai Terus Timur,Desa Sejahtera Mandiri, Sungai Terus, Kelakar, Kec. Hulu Gurung, Kabupaten Kapuas Hulu",KALIMANTAN BARAT,78764.0,Indonesia,82242451312.0,,,0.3788562,112.3109666,https://maps.google.com/?cid=0x0:0x308cb5bd5e604d7f,
supermarket,supermarket,Toko fitriani,"983H+WPC, Nanga letuh, Kec. Hulu Gurung, Kabupaten Kapuas Hulu, Kalimantan Barat 78764","Nanga letuh, Kec. Hulu Gurung, Kabupaten Kapuas Hulu",KALIMANTAN BARAT,78764.0,Indonesia,,,,0.354806,112.329262,https://maps.google.com/?cid=0x0:0xb355929d320db013,
supermarket,supermarket,Cash Mart,"G7QM+563, Unnamed Road, Temenang, Kec. Jongkong, Kabupaten Kapuas Hulu, Kalimantan Barat 78759","Unnamed Road, Temenang, Kec. Jongkong, Kabupaten Kapuas Hulu",KALIMANTAN BARAT,78759.0,Indonesia,,,,0.5378851,112.2830494,https://maps.google.com/?cid=0x0:0xee44f59b37ad0c0b,
supermarket,Toko makanan beku,Legiette - Kebon Jeruk,"Taman Kebun Jeruk Intercon U1 No. 52, Jakarta, Daerah Khusus Ibukota Jakarta 11530",Jakarta,KALIMANTAN BARAT,11530.0,Indonesia,82168686226.0,,,-6.215198,106.7576933,https://maps.google.com/?cid=0x0:0x7315b4368affb046,
supermarket,Toko Swalayan,Fujian Supermarket,"Jl. Pluit Karang Utara blok A2, Pluit, Penjaringan, North Jakarta City, Jakarta 14450","Pluit, Penjaringan, North Jakarta City",KALIMANTAN BARAT,14450.0,Indonesia,,,,-6.1105322,106.7750589,https://maps.google.com/?cid=0x0:0x3e6101ac8a61fb9b,
supermarket,supermarket,Kalimantan Barat 78756,"Kabupaten Kapuas Hulu, Kalimantan Barat","Kabupaten Kapuas Hulu, Kalimantan Barat",KALIMANTAN BARAT,,Indonesia,,,,0.4829518,113.287085,https://maps.google.com/?cid=0x0:0xdfdc12a43d3a24b2,
supermarket,Toko Swalayan,Kali Mart,"Jl. Raya Sungai Kakap No.37-43, Sungai Belidak, Kec. Sungai Kakap, Kabupaten Kubu Raya, Kalimantan Barat 78381","Sungai Belidak, Kec. Sungai Kakap, Kabupaten Kubu Raya",KALIMANTAN BARAT,78381.0,Indonesia,,,,-0.0666626,109.219681,https://maps.google.com/?cid=0x0:0x5656476c96dcff80,
supermarket,Toko Swalayan,Toko IQRA,"Depan kantor camat, Pertigaan jalan, Nanga Dangkan I, Kec. Silat Hulu, Kabupaten Kapuas Hulu, Kalimantan Barat 78774","Pertigaan jalan, Nanga Dangkan I, Kec. Silat Hulu, Kabupaten Kapuas Hulu",KALIMANTAN BARAT,78774.0,Indonesia,81254625702.0,,,0.2488511,111.9914739,https://maps.google.com/?cid=0x0:0xd7c6af33a7f912fc,
supermarket,Toko,Toko Sembako Alif,"JX9W+9MH, Nanga Suhaid, Kec. Suhaid, Kabupaten Kapuas Hulu, Kalimantan Barat 78765","Nanga Suhaid, Kec. Suhaid, Kabupaten Kapuas Hulu",KALIMANTAN BARAT,78765.0,Indonesia,,,,0.6184303,111.9967271,https://maps.google.com/?cid=0x0:0xda41d813b06eec74,
supermarket,supermarket,Kalimantan Barat,,Kalimantan Barat,KALIMANTAN BARAT,,Indonesia,,,,-0.2787808,111.4752851,https://maps.google.com/?cid=0x0:0xcd5ceced4c2148a0,
supermarket,Toko,Toko Anugrah Ilahi,"8VR6+6XQ, desa, Sungai Sena, Kec. Silat Hilir, Kabupaten Kapuas Hulu, Kalimantan Barat 78773","desa, Sungai Sena, Kec. Silat Hilir, Kabupaten Kapuas Hulu",KALIMANTAN BARAT,78773.0,Indonesia,81253347768.0,,,0.3405815,111.8624902,https://maps.google.com/?cid=0x0:0xc3fd8aad1c1c5ae3,
supermarket,Toko Swalayan,Toko Buah Mas Imam,"Marta Dana, Kec. Pengkadan, Kabupaten Kapuas Hulu, Kalimantan Barat 78759","Kec. Pengkadan, Kabupaten Kapuas Hulu",KALIMANTAN BARAT,78759.0,Indonesia,81332924885.0,,,0.4466164,112.3664387,https://maps.google.com/?cid=0x0:0xa6fc67cd0fb458b0,
supermarket,Kios,Kios Ningsih,"WF53+34J, Anjir Serapat Bar., Kec. Kapuas Tim., Kabupaten Kapuas, Kalimantan Tengah 73583","Anjir Serapat Bar., Kec. Kapuas Tim., Kabupaten Kapuas",KALIMANTAN BARAT,73583.0,Indonesia,,,,-3.0922763,114.4527775,https://maps.google.com/?cid=0x0:0x84b232b9a80765c6,
supermarket,Toko Swalayan,SUPERMART,"XFF2+RR8, Jl. Lintas Kalimantan Poros Tengah, Sungai Ukoi, Kec. Sungai Tebelian, Kabupaten Sintang, Kalimantan Barat 78661","Jl. Lintas Kalimantan Poros Tengah, Sungai Ukoi, Kec. Sungai Tebelian, Kabupaten Sintang",KALIMANTAN BARAT,78661.0,Indonesia,,,,-0.0254582,111.4521555,https://maps.google.com/?cid=0x0:0xe7de214f4d4794ca,
supermarket,Pusat Perbelanjaan,GS The Fresh BOXIES,"Jl. Raya Tajur No.125, RT.01/RW.06, Tajur, Kec. Bogor Tim., Kota Bogor, Jawa Barat 16141","RT.01/RW.06, Tajur, Kec. Bogor Tim., Kota Bogor",KALIMANTAN BARAT,16141.0,Indonesia,,,,-6.6338534,106.8265902,https://maps.google.com/?cid=0x0:0xf2e999dd0f1bdf6,
supermarket,Korea,MR. SHIN BOXIES (Korean  Japanese Food),"9R8G+FGX, Jl. Raya Tajur, RT.01/RW.01, Tajur, Kec. Bogor Tim., Kota Bogor, Jawa Barat 16141","Jl. Raya Tajur, RT.01/RW.01, Tajur, Kec. Bogor Tim., Kota Bogor",KALIMANTAN BARAT,16141.0,Indonesia,81228800982.0,,,-6.6337588,106.8263742,https://maps.google.com/?cid=0x0:0x6635a2764a1e10d5,
supermarket,Taman bermain,Boxies 123 Mall,"Jl. Raya Tajur No.123, RT.01/RW.06, Tajur, Kec. Bogor Tim., Kota Bogor, Jawa Barat 16141","RT.01/RW.06, Tajur, Kec. Bogor Tim., Kota Bogor",KALIMANTAN BARAT,16141.0,Indonesia,2518578123.0,,,-6.6336406,106.8267075,https://maps.google.com/?cid=0x0:0x6edc8f0e91b1eebe,
supermarket,supermarket,Kalimantan Barat 78757,"Kec. Mentebah, Kabupaten Kapuas Hulu, Kalimantan Barat","Kabupaten Kapuas Hulu, Kalimantan Barat",KALIMANTAN BARAT,,Indonesia,,,,0.5197143,112.762883,https://maps.google.com/?cid=0x0:0x37a0121c512b52dd,
supermarket,Toko umum,Toko SURYA SAMUDRA,"HRCV+MH8, Tekalong, Kec. Mentebah, Kabupaten Kapuas Hulu, Kalimantan Barat 78757","Tekalong, Kec. Mentebah, Kabupaten Kapuas Hulu",KALIMANTAN BARAT,78757.0,Indonesia,81344498898.0,,,0.5716628,112.8439581,https://maps.google.com/?cid=0x0:0x79e75a65f2267d5a,
supermarket,Toko bahan makanan,Toko Bintang Terang,"HR8Q+5PW, Nanga Semangut - Putussibau, Tekalong, Kec. Mentebah, Kabupaten Kapuas Hulu, Kalimantan Barat 78757","Nanga Semangut - Putussibau, Tekalong, Kec. Mentebah, Kabupaten Kapuas Hulu",KALIMANTAN BARAT,78757.0,Indonesia,,,,0.565494,112.8393296,https://maps.google.com/?cid=0x0:0x4bb957aba9b082ad,
supermarket,Kafe,Kak tina,"HR8Q+2HC, Nanga Semangut - Putussibau, Tekalong, Kec. Mentebah, Kabupaten Kapuas Hulu, Kalimantan Barat 78757","Nanga Semangut - Putussibau, Tekalong, Kec. Mentebah, Kabupaten Kapuas Hulu",KALIMANTAN BARAT,78757.0,Indonesia,81253126674.0,,,0.5650699,112.838878,https://maps.google.com/?cid=0x0:0x6e6ca3dd3bccad66,
supermarket,Toko bahan makanan,Toko Sembako Karya Utama,"FM8G+6P9, Temuyuk, Kec. Bunut Hulu, Kabupaten Kapuas Hulu, Kalimantan Barat 78762","Temuyuk, Kec. Bunut Hulu, Kabupaten Kapuas Hulu",KALIMANTAN BARAT,78762.0,Indonesia,,,,0.4655348,112.6768461,https://maps.google.com/?cid=0x0:0xc136f8c8be89a8eb,
supermarket,Kedai Kopi,Warung dan Cafe Syifa,"GQJJ+PQ2, Nanga Mentebah, Kec. Mentebah, Kabupaten Kapuas Hulu, Kalimantan Barat 78757","Nanga Mentebah, Kec. Mentebah, Kabupaten Kapuas Hulu",KALIMANTAN BARAT,78757.0,Indonesia,,,,0.5320437,112.7820319,https://maps.google.com/?cid=0x0:0xa2a736cb70307104,
supermarket,Toko bahan makanan,Warkop,"FVHM+3P, Suka Maju, Kec. Mentebah, Kabupaten Kapuas Hulu, Kalimantan Barat 78757","Suka Maju, Kec. Mentebah, Kabupaten Kapuas Hulu",KALIMANTAN BARAT,78757.0,Indonesia,,,,0.4788298,112.8839462,https://maps.google.com/?cid=0x0:0x7740157ae9d68b9b,
supermarket,Makanan Kecil,Warung habib,"GV9Q+R8, Suka Maju, Kec. Mentebah, Kabupaten Kapuas Hulu, Kalimantan Barat","Kabupaten Kapuas Hulu, Kalimantan Barat",KALIMANTAN BARAT,,Indonesia,,,,0.5195059,112.8882816,https://maps.google.com/?cid=0x0:0xbe63983a9e086ca7,
supermarket,Toko bahan makanan,Toko Alfida Gibran,"Jl. Lintas Selatan, Temuyuk, Kec. Bunut Hulu, Kabupaten Kapuas Hulu, Kalimantan Barat 78762","Temuyuk, Kec. Bunut Hulu, Kabupaten Kapuas Hulu",KALIMANTAN BARAT,78762.0,Indonesia,,,,0.469485,112.6983694,https://maps.google.com/?cid=0x0:0x82f343f6a5b325b,
supermarket,,Toko Karya Budi,"FPP4+W89, Jl. Lintas Selatan, Temuyuk, Kec. Bunut Hulu, Kabupaten Kapuas Hulu, Kalimantan Barat 78757","Jl. Lintas Selatan, Temuyuk, Kec. Bunut Hulu, Kabupaten Kapuas Hulu",KALIMANTAN BARAT,78757.0,Indonesia,,,,0.487278,112.7058743,https://maps.google.com/?cid=0x0:0x26d750ae8827def8,
supermarket,supermarket,Ruko 3saudara,"GQWW+25M Rt 04/rw01, Jl Lintas selatan, Nanga Mentebah, Kec. Mentebah, Kabupaten Kapuas Hulu, Kalimantan Barat","Kabupaten Kapuas Hulu, Kalimantan Barat",KALIMANTAN BARAT,,Indonesia,,,,0.5450928,112.7954145,https://maps.google.com/?cid=0x0:0xe3ea268bfc3d733f,
supermarket,Toko,Toko Alima,"Jl.lintas selatan dusun reret indah desa semangut utara kec.bunut hulu.kab.kapuas hulu hulu, Kabupaten Kapuas Hulu, Kalimantan Barat","Kabupaten Kapuas Hulu, Kalimantan Barat",KALIMANTAN BARAT,,Indonesia,,,,0.4813984,112.7029238,https://maps.google.com/?cid=0x0:0x282fadca5d0b82f6,
supermarket,,TOKO ANSHORI,"FM9X+VC2, Jl. Lintas Selatan, Temuyuk, Kec. Bunut Hulu, Kabupaten Kapuas Hulu, Kalimantan Barat 78762","Jl. Lintas Selatan, Temuyuk, Kec. Bunut Hulu, Kabupaten Kapuas Hulu",KALIMANTAN BARAT,78762.0,Indonesia,,,,0.4696384,112.6985166,https://maps.google.com/?cid=0x0:0x7fcc1ba98c2787af,
supermarket,Pusat Perbelanjaan,jual gas dan ikan toman abang sukandi,"FMCX+5GG, Nanga Tepuai - Nanga Semangut, Temuyuk, Kec. Bunut Hulu, Kabupaten Kapuas Hulu, Kalimantan Barat 78762","Nanga Tepuai - Nanga Semangut, Temuyuk, Kec. Bunut Hulu, Kabupaten Kapuas Hulu",KALIMANTAN BARAT,78762.0,Indonesia,,,,0.4704418,112.6988423,https://maps.google.com/?cid=0x0:0x1200c09190686bc8,
supermarket,supermarket,Toko Sembako Riyan Mentebah,"Nanga Mentebah, Kec. Mentebah, Kabupaten Kapuas Hulu, Kalimantan Barat","Kabupaten Kapuas Hulu, Kalimantan Barat",KALIMANTAN BARAT,,Indonesia,,,,0.542494,112.7956889,https://maps.google.com/?cid=0x0:0xace2edff8d6aff25,
supermarket,supermarket,Agus wibowo,"GQPR+643, Nanga Mentebah, Kec. Mentebah, Kabupaten Kapuas Hulu, Kalimantan Barat 78757","Nanga Mentebah, Kec. Mentebah, Kabupaten Kapuas Hulu",KALIMANTAN BARAT,78757.0,Indonesia,,,,0.5355114,112.7902866,https://maps.google.com/?cid=0x0:0x3d9f8b58a8332462,
supermarket,supermarket,Kec. Mentebah,"Kabupaten Kapuas Hulu, Kalimantan Barat","Kabupaten Kapuas Hulu, Kalimantan Barat",KALIMANTAN BARAT,,Indonesia,,,,0.5429838,112.7960939,https://maps.google.com/?cid=0x0:0xb7b19221d4fd8327,
supermarket,Pusat Perbelanjaan,MM.TITA,"VWFF+QM5, Putussibau Kota, Kec. Putussibau Utara, Kabupaten Kapuas Hulu, Kalimantan Barat 78753","Putussibau Kota, Kec. Putussibau Utara, Kabupaten Kapuas Hulu",KALIMANTAN BARAT,78753.0,Indonesia,81254254796.0,,,0.8743877,112.9242299,https://maps.google.com/?cid=0x0:0xf04ff6c17f453019,
supermarket,Layanan Distribusi,Berkat Minimarket,"VWCF+P47, Putussibau Kota, Kec. Putussibau Utara, Kabupaten Kapuas Hulu, Kalimantan Barat 78753","Putussibau Kota, Kec. Putussibau Utara, Kabupaten Kapuas Hulu",KALIMANTAN BARAT,78753.0,Indonesia,,,,0.8717894,112.9227847,https://maps.google.com/?cid=0x0:0xcad9e3f2d6dd0305,
supermarket,Toko bahan makanan,UM SWALAYAN,"6W6C+7GP, Sei Pinang, Mandau Talawang, Kabupaten Kapuas, Kalimantan Tengah","Kabupaten Kapuas, Kalimantan Tengah",KALIMANTAN BARAT,,Indonesia,,,,-0.789275,113.921327,https://maps.google.com/?cid=0x0:0xfc09010eae5bf56a,
supermarket,supermarket,Kalimantan Barat 78759,"Kabupaten Kapuas Hulu, Kalimantan Barat","Kabupaten Kapuas Hulu, Kalimantan Barat",KALIMANTAN BARAT,,Indonesia,,,,0.5211544,112.3814624,https://maps.google.com/?cid=0x0:0xf283e3228d223d29,
supermarket,Penyedia Layanan Telekomunikasi,PTS021 BATU DATU,"C9W8+489, Marta Dana, Kec. Pengkadan, Kabupaten Kapuas Hulu, Kalimantan Barat 78759","Marta Dana, Kec. Pengkadan, Kabupaten Kapuas Hulu",KALIMANTAN BARAT,78759.0,Indonesia,,,,0.4452992,112.365844,https://maps.google.com/?cid=0x0:0x1fe1e7c4acc1b73c,
supermarket,Toko Swalayan,Toko Sumber Rezeki,"FCMR+3H9, Jalan Lintas Selatan, Buak mau, Kec. Pengkadan, Kabupaten Kapuas Hulu, Kalimantan Barat 78758","Jalan Lintas Selatan, Buak mau, Kec. Pengkadan, Kabupaten Kapuas Hulu",KALIMANTAN BARAT,78758.0,Indonesia,85349073003.0,,,0.4826595,112.4414786,https://maps.google.com/?cid=0x0:0xc1cefd57c0f9d87d,
supermarket,supermarket,Kec. Pengkadan,"Kabupaten Kapuas Hulu, Kalimantan Barat","Kabupaten Kapuas Hulu, Kalimantan Barat",KALIMANTAN BARAT,,Indonesia,,,,0.445697,112.3656401,https://maps.google.com/?cid=0x0:0x4388a47a05496595,
supermarket,Toko,Toko sembako zia,"C9X9+QX5, Unnamed Road, Sira jaya, Marta Dana, Kec. Pengkadan, Kabupaten Kapuas Hulu, Kalimantan Barat 78759","Unnamed Road, Sira jaya, Marta Dana, Kec. Pengkadan, Kabupaten Kapuas Hulu",KALIMANTAN BARAT,78759.0,Indonesia,81349622196.0,,,0.4493983,112.3699767,https://maps.google.com/?cid=0x0:0xdf2b392f820923d0,
supermarket,supermarket,Toko  Penginapan Bidan Susi,"XJH4+W9M, Unnamed Road, Antu River, Puring Kencana, Kapuas Hulu Regency, West Kalimantan 78653","Unnamed Road, Antu River, Puring Kencana, Kapuas Hulu Regency",KALIMANTAN BARAT,78653.0,Indonesia,,,,0.9798313,111.6059181,https://maps.google.com/?cid=0x0:0xc508cf931d758506,
supermarket,supermarket,Kalimantan Barat 78714,"Kec. Putussibau Utara, Kabupaten Kapuas Hulu, Kalimantan Barat","Kabupaten Kapuas Hulu, Kalimantan Barat",KALIMANTAN BARAT,,Indonesia,,,,0.9130451,112.9654557,https://maps.google.com/?cid=0x0:0x5acbfa7d2c9222,
supermarket,Layanan Distribusi,Berkat Minimarket,"VWCF+P47, Putussibau Kota, Kec. Putussibau Utara, Kabupaten Kapuas Hulu, Kalimantan Barat 78753","Putussibau Kota, Kec. Putussibau Utara, Kabupaten Kapuas Hulu",KALIMANTAN BARAT,78753.0,Indonesia,,,,0.8717894,112.9227847,https://maps.google.com/?cid=0x0:0xcad9e3f2d6dd0305,
supermarket,Toko bahan makanan,Toko Elisabeth,"RWMJ+P2G, Jl. Lintas Selatan, Kedamin Hulu, Kec. Putussibau Sel., Kabupaten Kapuas Hulu, Kalimantan Barat 78753","Jl. Lintas Selatan, Kedamin Hulu, Kec. Putussibau Sel., Kabupaten Kapuas Hulu",KALIMANTAN BARAT,78753.0,Indonesia,,,,0.8343073,112.9300853,https://maps.google.com/?cid=0x0:0xca84f3f2e710d515,
supermarket,Pusat Perbelanjaan,MM.TITA,"VWFF+QM5, Putussibau Kota, Kec. Putussibau Utara, Kabupaten Kapuas Hulu, Kalimantan Barat 78753","Putussibau Kota, Kec. Putussibau Utara, Kabupaten Kapuas Hulu",KALIMANTAN BARAT,78753.0,Indonesia,81254254796.0,,,0.8743877,112.9242299,https://maps.google.com/?cid=0x0:0xf04ff6c17f453019,
supermarket,Minimarket,Toko Family,"VW3F+PCP, Kedamin Hilir, Kec. Putussibau Sel., Kabupaten Kapuas Hulu, Kalimantan Barat 78753","Kedamin Hilir, Kec. Putussibau Sel., Kabupaten Kapuas Hulu",KALIMANTAN BARAT,78753.0,Indonesia,,,,0.8543497,112.9235672,https://maps.google.com/?cid=0x0:0x918f77c05934dd0f,
supermarket,Toko,Tita Minimarket,"VWFF+QM6, Putussibau Kota, Kec. Putussibau Utara, Kabupaten Kapuas Hulu, Kalimantan Barat 78752","Putussibau Kota, Kec. Putussibau Utara, Kabupaten Kapuas Hulu",KALIMANTAN BARAT,78752.0,Indonesia,,,,0.8744071,112.9241548,https://maps.google.com/?cid=0x0:0xb98b31d1e9a21e6c,
supermarket,Toko Swalayan,SRC SAPARINI,"Jl. Hasanudin No.33, Hilir Ktr., Kec. Putussibau Utara, Kabupaten Kapuas Hulu, Kalimantan Barat 78753","Hilir Ktr., Kec. Putussibau Utara, Kabupaten Kapuas Hulu",KALIMANTAN BARAT,78753.0,Indonesia,,,,0.8589409,112.9185778,https://maps.google.com/?cid=0x0:0x18cfde5dc763bbfe,
supermarket,Toko Kue,TOKO 1.000 DINAR/YANTI CAKE,"Putussibau Kota, Kec. Putussibau Utara, Kabupaten Kapuas Hulu, Kalimantan Barat 78753","Kec. Putussibau Utara, Kabupaten Kapuas Hulu",KALIMANTAN BARAT,78753.0,Indonesia,81213193576.0,,,0.8738117,112.9238487,https://maps.google.com/?cid=0x0:0x4b45a109be76ba94,
supermarket,Toko Elektronik,Toko Cahaya mandiri,"RWMJ+MG8, Jl. Lintas Kalimantan Poros Utara, Kedamin Hulu, Kec. Putussibau Sel., Kabupaten Kapuas Hulu, Kalimantan Barat 78753","Jl. Lintas Kalimantan Poros Utara, Kedamin Hulu, Kec. Putussibau Sel., Kabupaten Kapuas Hulu",KALIMANTAN BARAT,78753.0,Indonesia,,,,0.8341614,112.9313352,https://maps.google.com/?cid=0x0:0x3a4d8a7566a083df,
supermarket,Toko Swalayan,Waroeng Swelby,"RWRJ+7MJ, Kedamin Hulu, Kec. Putussibau Sel., Kabupaten Kapuas Hulu, Kalimantan Barat 78753","Kedamin Hulu, Kec. Putussibau Sel., Kabupaten Kapuas Hulu",KALIMANTAN BARAT,78753.0,Indonesia,,,,0.8407052,112.9316452,https://maps.google.com/?cid=0x0:0x2e9114176e2be41b,
supermarket,Toko bahan makanan,Toko Amanah,"VW59+J8H, Hilir Ktr., Kec. Putussibau Utara, Kabupaten Kapuas Hulu, Kalimantan Barat 78753","Hilir Ktr., Kec. Putussibau Utara, Kabupaten Kapuas Hulu",KALIMANTAN BARAT,78753.0,Indonesia,,,,0.8590515,112.9183643,https://maps.google.com/?cid=0x0:0xb1f7eeee3bee2593,
supermarket,Toko Swalayan,Harapan Baru,"VW5F+7HF, Putussibau Kota, Kec. Putussibau Utara, Kabupaten Kapuas Hulu, Kalimantan Barat 78753","Putussibau Kota, Kec. Putussibau Utara, Kabupaten Kapuas Hulu",KALIMANTAN BARAT,78753.0,Indonesia,81254998333.0,,,0.8581937,112.9239148,https://maps.google.com/?cid=0x0:0x8db771f5b8b5140d,
supermarket,Toko,Toko Riris,"RWQF+XW8, Kedamin Hilir, Kec. Putussibau Sel., Kabupaten Kapuas Hulu, Kalimantan Barat 78753","Kedamin Hilir, Kec. Putussibau Sel., Kabupaten Kapuas Hulu",KALIMANTAN BARAT,78753.0,Indonesia,,,,0.839916,112.9248422,https://maps.google.com/?cid=0x0:0x7494064e063805dc,
supermarket,Toko bahan makanan,Toko HOKI,"Jl. Kom Yos Sudarso No.78, Putussibau Kota, Kec. Putussibau Utara, Kabupaten Kapuas Hulu, Kalimantan Barat 78711","Putussibau Kota, Kec. Putussibau Utara, Kabupaten Kapuas Hulu",KALIMANTAN BARAT,78711.0,Indonesia,,,,0.8675016,112.9229009,https://maps.google.com/?cid=0x0:0x1fa50a578e2a525d,
supermarket,Toko Elektronik,TOKO SINAR JATI,"RWRF+9PP, Putussibau Selatan, Kedamin Hulu Jalan Lintas Selatan, Kedamin Hilir, Kec. Putussibau Sel., Kabupaten Kapuas Hulu, Kalimantan Barat 78753","Putussibau Selatan, Kedamin Hulu Jalan Lintas Selatan, Kedamin Hilir, Kec. Putussibau Sel., Kabupaten Kapuas Hulu",KALIMANTAN BARAT,78753.0,Indonesia,,,,0.8409547,112.9243146,https://maps.google.com/?cid=0x0:0xaf0396c5837f79f1,
supermarket,Minimarket,Toko Vony snack putussibau,"Jl. Melati, Putussibau Kota, Kec. Putussibau Utara, Kabupaten Kapuas Hulu, Kalimantan Barat 78753","Putussibau Kota, Kec. Putussibau Utara, Kabupaten Kapuas Hulu",KALIMANTAN BARAT,78753.0,Indonesia,,,,0.8581112,112.9268953,https://maps.google.com/?cid=0x0:0xba07bcbff31cfeb,
supermarket,Pusat Perbelanjaan,Mini Market AIN,"Jl. Lintas Utara Kelurahan No.6, Pala Pulau, Kec. Putussibau Utara, Kabupaten Kapuas Hulu, Kalimantan Barat 78752","Pala Pulau, Kec. Putussibau Utara, Kabupaten Kapuas Hulu",KALIMANTAN BARAT,78752.0,Indonesia,8561617070.0,,,0.888827,112.9308208,https://maps.google.com/?cid=0x0:0x9412ca2c60bc8aef,
supermarket,supermarket,Kalimantan Barat 78715,"Nanga Sambus, Kec. Putussibau Utara, Kabupaten Kapuas Hulu, Kalimantan Barat","Kabupaten Kapuas Hulu, Kalimantan Barat",KALIMANTAN BARAT,,Indonesia,,,,0.8821263,112.9833275,https://maps.google.com/?cid=0x0:0x1bf8649a17ded6fd,
supermarket,Toko bahan makanan,Toko Elisabeth,"RWMJ+P2G, Jl. Lintas Selatan, Kedamin Hulu, Kec. Putussibau Sel., Kabupaten Kapuas Hulu, Kalimantan Barat 78753","Jl. Lintas Selatan, Kedamin Hulu, Kec. Putussibau Sel., Kabupaten Kapuas Hulu",KALIMANTAN BARAT,78753.0,Indonesia,,,,0.8343073,112.9300853,https://maps.google.com/?cid=0x0:0xca84f3f2e710d515,
supermarket,Layanan Distribusi,Berkat Minimarket,"VWCF+P47, Putussibau Kota, Kec. Putussibau Utara, Kabupaten Kapuas Hulu, Kalimantan Barat 78753","Putussibau Kota, Kec. Putussibau Utara, Kabupaten Kapuas Hulu",KALIMANTAN BARAT,78753.0,Indonesia,,,,0.8717894,112.9227847,https://maps.google.com/?cid=0x0:0xcad9e3f2d6dd0305,
supermarket,Pusat Perbelanjaan,MM.TITA,"VWFF+QM5, Putussibau Kota, Kec. Putussibau Utara, Kabupaten Kapuas Hulu, Kalimantan Barat 78753","Putussibau Kota, Kec. Putussibau Utara, Kabupaten Kapuas Hulu",KALIMANTAN BARAT,78753.0,Indonesia,81254254796.0,,,0.8743877,112.9242299,https://maps.google.com/?cid=0x0:0xf04ff6c17f453019,
supermarket,Toko,Tita Minimarket,"VWFF+QM6, Putussibau Kota, Kec. Putussibau Utara, Kabupaten Kapuas Hulu, Kalimantan Barat 78752","Putussibau Kota, Kec. Putussibau Utara, Kabupaten Kapuas Hulu",KALIMANTAN BARAT,78752.0,Indonesia,,,,0.8744071,112.9241548,https://maps.google.com/?cid=0x0:0xb98b31d1e9a21e6c,
supermarket,Pusat Perbelanjaan,Andi Mart,"Jl. Ngurah Rai No.2, Putussibau Kota, Kec. Putussibau Utara, Kabupaten Kapuas Hulu, Kalimantan Barat 78753","Putussibau Kota, Kec. Putussibau Utara, Kabupaten Kapuas Hulu",KALIMANTAN BARAT,78753.0,Indonesia,,,,0.8668305,112.924325,https://maps.google.com/?cid=0x0:0x35f98cac41834a80,
supermarket,Toko Elektronik,Toko Cahaya mandiri,"RWMJ+MG8, Jl. Lintas Kalimantan Poros Utara, Kedamin Hulu, Kec. Putussibau Sel., Kabupaten Kapuas Hulu, Kalimantan Barat 78753","Jl. Lintas Kalimantan Poros Utara, Kedamin Hulu, Kec. Putussibau Sel., Kabupaten Kapuas Hulu",KALIMANTAN BARAT,78753.0,Indonesia,,,,0.8341614,112.9313352,https://maps.google.com/?cid=0x0:0x3a4d8a7566a083df,
supermarket,Toko Swalayan,SRC SAPARINI,"Jl. Hasanudin No.33, Hilir Ktr., Kec. Putussibau Utara, Kabupaten Kapuas Hulu, Kalimantan Barat 78753","Hilir Ktr., Kec. Putussibau Utara, Kabupaten Kapuas Hulu",KALIMANTAN BARAT,78753.0,Indonesia,,,,0.8589409,112.9185778,https://maps.google.com/?cid=0x0:0x18cfde5dc763bbfe,
supermarket,Toko Swalayan,Waroeng Swelby,"RWRJ+7MJ, Kedamin Hulu, Kec. Putussibau Sel., Kabupaten Kapuas Hulu, Kalimantan Barat 78753","Kedamin Hulu, Kec. Putussibau Sel., Kabupaten Kapuas Hulu",KALIMANTAN BARAT,78753.0,Indonesia,,,,0.8407052,112.9316452,https://maps.google.com/?cid=0x0:0x2e9114176e2be41b,
supermarket,Toko bahan makanan,Toko Amanah,"VW59+J8H, Hilir Ktr., Kec. Putussibau Utara, Kabupaten Kapuas Hulu, Kalimantan Barat 78753","Hilir Ktr., Kec. Putussibau Utara, Kabupaten Kapuas Hulu",KALIMANTAN BARAT,78753.0,Indonesia,,,,0.8590515,112.9183643,https://maps.google.com/?cid=0x0:0xb1f7eeee3bee2593,
supermarket,Toko Swalayan,Harapan Baru,"VW5F+7HF, Putussibau Kota, Kec. Putussibau Utara, Kabupaten Kapuas Hulu, Kalimantan Barat 78753","Putussibau Kota, Kec. Putussibau Utara, Kabupaten Kapuas Hulu",KALIMANTAN BARAT,78753.0,Indonesia,81254998333.0,,,0.8581937,112.9239148,https://maps.google.com/?cid=0x0:0x8db771f5b8b5140d,
supermarket,Minimarket,Toko Vony snack putussibau,"Jl. Melati, Putussibau Kota, Kec. Putussibau Utara, Kabupaten Kapuas Hulu, Kalimantan Barat 78753","Putussibau Kota, Kec. Putussibau Utara, Kabupaten Kapuas Hulu",KALIMANTAN BARAT,78753.0,Indonesia,,,,0.8581112,112.9268953,https://maps.google.com/?cid=0x0:0xba07bcbff31cfeb,
supermarket,Toko bahan makanan,Toko HOKI,"Jl. Kom Yos Sudarso No.78, Putussibau Kota, Kec. Putussibau Utara, Kabupaten Kapuas Hulu, Kalimantan Barat 78711","Putussibau Kota, Kec. Putussibau Utara, Kabupaten Kapuas Hulu",KALIMANTAN BARAT,78711.0,Indonesia,,,,0.8675016,112.9229009,https://maps.google.com/?cid=0x0:0x1fa50a578e2a525d,
supermarket,Toko Swalayan,Toko E_Mart,"Kedamin Hulu, Kec. Putussibau Sel., Kabupaten Kapuas Hulu, Kalimantan Barat 78753","Kec. Putussibau Sel., Kabupaten Kapuas Hulu",KALIMANTAN BARAT,78753.0,Indonesia,81345445596.0,,,0.8295995,112.9330922,https://maps.google.com/?cid=0x0:0x53f4e1f3c673790,
supermarket,Pusat Perbelanjaan,Mini Market AIN,"Jl. Lintas Utara Kelurahan No.6, Pala Pulau, Kec. Putussibau Utara, Kabupaten Kapuas Hulu, Kalimantan Barat 78752","Pala Pulau, Kec. Putussibau Utara, Kabupaten Kapuas Hulu",KALIMANTAN BARAT,78752.0,Indonesia,8561617070.0,,,0.888827,112.9308208,https://maps.google.com/?cid=0x0:0x9412ca2c60bc8aef,
supermarket,Minimarket,Pelangi mart,"RWPG+WCV, Kedamin Hulu, Kec. Putussibau Sel., Kabupaten Kapuas Hulu, Kalimantan Barat","Kabupaten Kapuas Hulu, Kalimantan Barat",KALIMANTAN BARAT,,Indonesia,,,,0.8373514,112.9260328,https://maps.google.com/?cid=0x0:0xc9ae31ba794f0845,
supermarket,Toko Elektronik,TOKO SINAR JATI,"RWRF+9PP, Putussibau Selatan, Kedamin Hulu Jalan Lintas Selatan, Kedamin Hilir, Kec. Putussibau Sel., Kabupaten Kapuas Hulu, Kalimantan Barat 78753","Putussibau Selatan, Kedamin Hulu Jalan Lintas Selatan, Kedamin Hilir, Kec. Putussibau Sel., Kabupaten Kapuas Hulu",KALIMANTAN BARAT,78753.0,Indonesia,,,,0.8409547,112.9243146,https://maps.google.com/?cid=0x0:0xaf0396c5837f79f1,
supermarket,Toko,Toko Riris,"RWQF+XW8, Kedamin Hilir, Kec. Putussibau Sel., Kabupaten Kapuas Hulu, Kalimantan Barat 78753","Kedamin Hilir, Kec. Putussibau Sel., Kabupaten Kapuas Hulu",KALIMANTAN BARAT,78753.0,Indonesia,,,,0.839916,112.9248422,https://maps.google.com/?cid=0x0:0x7494064e063805dc,
supermarket,Toko Swalayan,Family Market,"Jl. Diponegoro, Putussibau Kota, Kec. Putussibau Utara, Kabupaten Kapuas Hulu, Kalimantan Barat 78753","Putussibau Kota, Kec. Putussibau Utara, Kabupaten Kapuas Hulu",KALIMANTAN BARAT,78753.0,Indonesia,,,,0.862121,112.9266798,https://maps.google.com/?cid=0x0:0xb1d6c893ed021756,
supermarket,Toko umum,GUDANG,"RWQJ+72G, Kedamin Hulu, Kec. Putussibau Sel., Kabupaten Kapuas Hulu, Kalimantan Barat 78753","Kedamin Hulu, Kec. Putussibau Sel., Kabupaten Kapuas Hulu",KALIMANTAN BARAT,78753.0,Indonesia,,,,0.838196,112.930085,https://maps.google.com/?cid=0x0:0x7c18e568eb83a84c,
supermarket,supermarket,Kec. Putussibau Sel.,"Kabupaten Kapuas Hulu, Kalimantan Barat","Kabupaten Kapuas Hulu, Kalimantan Barat",KALIMANTAN BARAT,,Indonesia,,,,0.8367654,112.9271147,https://maps.google.com/?cid=0x0:0xdf0e9576b8ebf8bd,
supermarket,Toko bahan makanan,Toko Elisabeth,"RWMJ+P2G, Jl. Lintas Selatan, Kedamin Hulu, Kec. Putussibau Sel., Kabupaten Kapuas Hulu, Kalimantan Barat 78753","Jl. Lintas Selatan, Kedamin Hulu, Kec. Putussibau Sel., Kabupaten Kapuas Hulu",KALIMANTAN BARAT,78753.0,Indonesia,,,,0.8343073,112.9300853,https://maps.google.com/?cid=0x0:0xca84f3f2e710d515,
supermarket,Minimarket,Toko Family,"VW3F+PCP, Kedamin Hilir, Kec. Putussibau Sel., Kabupaten Kapuas Hulu, Kalimantan Barat 78753","Kedamin Hilir, Kec. Putussibau Sel., Kabupaten Kapuas Hulu",KALIMANTAN BARAT,78753.0,Indonesia,,,,0.8543497,112.9235672,https://maps.google.com/?cid=0x0:0x918f77c05934dd0f,
supermarket,Toko,Tita Minimarket,"VWFF+QM6, Putussibau Kota, Kec. Putussibau Utara, Kabupaten Kapuas Hulu, Kalimantan Barat 78752","Putussibau Kota, Kec. Putussibau Utara, Kabupaten Kapuas Hulu",KALIMANTAN BARAT,78752.0,Indonesia,,,,0.8744071,112.9241548,https://maps.google.com/?cid=0x0:0xb98b31d1e9a21e6c,
supermarket,Toko bahan makanan,OWEN MARKET,"Jl. Lintas Kalimantan Poros Utara, Kedamin Hulu, Kec. Putussibau Sel., Kabupaten Kapuas Hulu, Kalimantan Barat 78753","Kedamin Hulu, Kec. Putussibau Sel., Kabupaten Kapuas Hulu",KALIMANTAN BARAT,78753.0,Indonesia,,,,0.8331139,112.9329174,https://maps.google.com/?cid=0x0:0xcbf806973cca3a5c,
supermarket,Toko Elektronik,Toko Cahaya mandiri,"RWMJ+MG8, Jl. Lintas Kalimantan Poros Utara, Kedamin Hulu, Kec. Putussibau Sel., Kabupaten Kapuas Hulu, Kalimantan Barat 78753","Jl. Lintas Kalimantan Poros Utara, Kedamin Hulu, Kec. Putussibau Sel., Kabupaten Kapuas Hulu",KALIMANTAN BARAT,78753.0,Indonesia,,,,0.8341614,112.9313352,https://maps.google.com/?cid=0x0:0x3a4d8a7566a083df,
supermarket,Pusat Perbelanjaan,MM.TITA,"VWFF+QM5, Putussibau Kota, Kec. Putussibau Utara, Kabupaten Kapuas Hulu, Kalimantan Barat 78753","Putussibau Kota, Kec. Putussibau Utara, Kabupaten Kapuas Hulu",KALIMANTAN BARAT,78753.0,Indonesia,81254254796.0,,,0.8743877,112.9242299,https://maps.google.com/?cid=0x0:0xf04ff6c17f453019,
supermarket,Toko Swalayan,Waroeng Swelby,"RWRJ+7MJ, Kedamin Hulu, Kec. Putussibau Sel., Kabupaten Kapuas Hulu, Kalimantan Barat 78753","Kedamin Hulu, Kec. Putussibau Sel., Kabupaten Kapuas Hulu",KALIMANTAN BARAT,78753.0,Indonesia,,,,0.8407052,112.9316452,https://maps.google.com/?cid=0x0:0x2e9114176e2be41b,
supermarket,Pusat Perbelanjaan,Andi Mart,"Jl. Ngurah Rai No.2, Putussibau Kota, Kec. Putussibau Utara, Kabupaten Kapuas Hulu, Kalimantan Barat 78753","Putussibau Kota, Kec. Putussibau Utara, Kabupaten Kapuas Hulu",KALIMANTAN BARAT,78753.0,Indonesia,,,,0.8668305,112.924325,https://maps.google.com/?cid=0x0:0x35f98cac41834a80,
supermarket,Toko Swalayan,SRC SAPARINI,"Jl. Hasanudin No.33, Hilir Ktr., Kec. Putussibau Utara, Kabupaten Kapuas Hulu, Kalimantan Barat 78753","Hilir Ktr., Kec. Putussibau Utara, Kabupaten Kapuas Hulu",KALIMANTAN BARAT,78753.0,Indonesia,,,,0.8589409,112.9185778,https://maps.google.com/?cid=0x0:0x18cfde5dc763bbfe,
supermarket,Toko bahan makanan,Toko Amanah,"VW59+J8H, Hilir Ktr., Kec. Putussibau Utara, Kabupaten Kapuas Hulu, Kalimantan Barat 78753","Hilir Ktr., Kec. Putussibau Utara, Kabupaten Kapuas Hulu",KALIMANTAN BARAT,78753.0,Indonesia,,,,0.8590515,112.9183643,https://maps.google.com/?cid=0x0:0xb1f7eeee3bee2593,
supermarket,Toko Swalayan,Harapan Baru,"VW5F+7HF, Putussibau Kota, Kec. Putussibau Utara, Kabupaten Kapuas Hulu, Kalimantan Barat 78753","Putussibau Kota, Kec. Putussibau Utara, Kabupaten Kapuas Hulu",KALIMANTAN BARAT,78753.0,Indonesia,81254998333.0,,,0.8581937,112.9239148,https://maps.google.com/?cid=0x0:0x8db771f5b8b5140d,
supermarket,Toko Kue,TOKO 1.000 DINAR/YANTI CAKE,"Putussibau Kota, Kec. Putussibau Utara, Kabupaten Kapuas Hulu, Kalimantan Barat 78753","Kec. Putussibau Utara, Kabupaten Kapuas Hulu",KALIMANTAN BARAT,78753.0,Indonesia,81213193576.0,,,0.8738117,112.9238487,https://maps.google.com/?cid=0x0:0x4b45a109be76ba94,
supermarket,Minimarket,Toko Vony snack putussibau,"Jl. Melati, Putussibau Kota, Kec. Putussibau Utara, Kabupaten Kapuas Hulu, Kalimantan Barat 78753","Putussibau Kota, Kec. Putussibau Utara, Kabupaten Kapuas Hulu",KALIMANTAN BARAT,78753.0,Indonesia,,,,0.8581112,112.9268953,https://maps.google.com/?cid=0x0:0xba07bcbff31cfeb,
supermarket,Toko bahan makanan,Toko HOKI,"Jl. Kom Yos Sudarso No.78, Putussibau Kota, Kec. Putussibau Utara, Kabupaten Kapuas Hulu, Kalimantan Barat 78711","Putussibau Kota, Kec. Putussibau Utara, Kabupaten Kapuas Hulu",KALIMANTAN BARAT,78711.0,Indonesia,,,,0.8675016,112.9229009,https://maps.google.com/?cid=0x0:0x1fa50a578e2a525d,
supermarket,Toko bahan makanan,Toko Iwan,"VWPH+C28, Putussibau Kota, Kec. Putussibau Utara, Kabupaten Kapuas Hulu, Kalimantan Barat 78752","Putussibau Kota, Kec. Putussibau Utara, Kabupaten Kapuas Hulu",KALIMANTAN BARAT,78752.0,Indonesia,,,,0.8860453,112.9275643,https://maps.google.com/?cid=0x0:0x2147a0010fbbd4d4,
supermarket,Toko Swalayan,Toko E_Mart,"Kedamin Hulu, Kec. Putussibau Sel., Kabupaten Kapuas Hulu, Kalimantan Barat 78753","Kec. Putussibau Sel., Kabupaten Kapuas Hulu",KALIMANTAN BARAT,78753.0,Indonesia,81345445596.0,,,0.8295995,112.9330922,https://maps.google.com/?cid=0x0:0x53f4e1f3c673790,
supermarket,Toko,audhamart,"Putussibau Kota, Kec. Putussibau Utara, Kabupaten Kapuas Hulu, Kalimantan Barat 78752","Kec. Putussibau Utara, Kabupaten Kapuas Hulu",KALIMANTAN BARAT,78752.0,Indonesia,82158357179.0,,,0.8875031,112.9241263,https://maps.google.com/?cid=0x0:0xf71797761e22cbaf,
supermarket,Toko bahan makanan,Jalan Danau Kayan,"VWJJ+CFC, Putussibau Kota, Kec. Putussibau Utara, Kabupaten Kapuas Hulu, Kalimantan Barat 78752","Putussibau Kota, Kec. Putussibau Utara, Kabupaten Kapuas Hulu",KALIMANTAN BARAT,78752.0,Indonesia,,,,0.881075,112.9311455,https://maps.google.com/?cid=0x0:0x1b847485f492ff5f,
supermarket,Toko,Toko Harmoni,"Jl. Kirin Durian No.1c, Putussibau Kota, Kec. Putussibau Utara, Kabupaten Kapuas Hulu, Kalimantan Barat 78752","Putussibau Kota, Kec. Putussibau Utara, Kabupaten Kapuas Hulu",KALIMANTAN BARAT,78752.0,Indonesia,,,,0.8831334,112.9297253,https://maps.google.com/?cid=0x0:0x9b27fc579376e3b2,
supermarket,Toko Elektronik,TOKO SINAR JATI,"RWRF+9PP, Putussibau Selatan, Kedamin Hulu Jalan Lintas Selatan, Kedamin Hilir, Kec. Putussibau Sel., Kabupaten Kapuas Hulu, Kalimantan Barat 78753","Putussibau Selatan, Kedamin Hulu Jalan Lintas Selatan, Kedamin Hilir, Kec. Putussibau Sel., Kabupaten Kapuas Hulu",KALIMANTAN BARAT,78753.0,Indonesia,,,,0.8409547,112.9243146,https://maps.google.com/?cid=0x0:0xaf0396c5837f79f1,
supermarket,Toko bahan makanan,Minimarket H.YUSUF,"VWJJ+86P, Unnamed Road, Putussibau Kota, Kec. Putussibau Utara, Kabupaten Kapuas Hulu, Kalimantan Barat 78752","Unnamed Road, Putussibau Kota, Kec. Putussibau Utara, Kabupaten Kapuas Hulu",KALIMANTAN BARAT,78752.0,Indonesia,,,,0.8808309,112.9305815,https://maps.google.com/?cid=0x0:0x1582fda4640dcf41,
supermarket,Minimarket,QUEENA MART,"VW38+MGF, Jl. Banin, Kedamin Hilir, Kec. Putussibau Sel., Kabupaten Kapuas Hulu, Kalimantan Barat 78714","Jl. Banin, Kedamin Hilir, Kec. Putussibau Sel., Kabupaten Kapuas Hulu",KALIMANTAN BARAT,78714.0,Indonesia,,,,0.8541926,112.9163059,https://maps.google.com/?cid=0x0:0xb68b34bfc4270345,
supermarket,supermarket,Kalimantan Barat 78716,"Kec. Putussibau Utara, Kabupaten Kapuas Hulu, Kalimantan Barat","Kabupaten Kapuas Hulu, Kalimantan Barat",KALIMANTAN BARAT,,Indonesia,,,,1.1858068,113.0965064,https://maps.google.com/?cid=0x0:0x6c5e4c9876baba79,
supermarket,Layanan Distribusi,Berkat Minimarket,"VWCF+P47, Putussibau Kota, Kec. Putussibau Utara, Kabupaten Kapuas Hulu, Kalimantan Barat 78753","Putussibau Kota, Kec. Putussibau Utara, Kabupaten Kapuas Hulu",KALIMANTAN BARAT,78753.0,Indonesia,,,,0.8717894,112.9227847,https://maps.google.com/?cid=0x0:0xcad9e3f2d6dd0305,
supermarket,Toko,Tita Minimarket,"VWFF+QM6, Putussibau Kota, Kec. Putussibau Utara, Kabupaten Kapuas Hulu, Kalimantan Barat 78752","Putussibau Kota, Kec. Putussibau Utara, Kabupaten Kapuas Hulu",KALIMANTAN BARAT,78752.0,Indonesia,,,,0.8744071,112.9241548,https://maps.google.com/?cid=0x0:0xb98b31d1e9a21e6c,
supermarket,Pusat Perbelanjaan,Andi Mart,"Jl. Ngurah Rai No.2, Putussibau Kota, Kec. Putussibau Utara, Kabupaten Kapuas Hulu, Kalimantan Barat 78753","Putussibau Kota, Kec. Putussibau Utara, Kabupaten Kapuas Hulu",KALIMANTAN BARAT,78753.0,Indonesia,,,,0.8668305,112.924325,https://maps.google.com/?cid=0x0:0x35f98cac41834a80,
supermarket,Toko bahan makanan,Toko Elisabeth,"RWMJ+P2G, Jl. Lintas Selatan, Kedamin Hulu, Kec. Putussibau Sel., Kabupaten Kapuas Hulu, Kalimantan Barat 78753","Jl. Lintas Selatan, Kedamin Hulu, Kec. Putussibau Sel., Kabupaten Kapuas Hulu",KALIMANTAN BARAT,78753.0,Indonesia,,,,0.8343073,112.9300853,https://maps.google.com/?cid=0x0:0xca84f3f2e710d515,
supermarket,Toko Kue,TOKO 1.000 DINAR/YANTI CAKE,"Putussibau Kota, Kec. Putussibau Utara, Kabupaten Kapuas Hulu, Kalimantan Barat 78753","Kec. Putussibau Utara, Kabupaten Kapuas Hulu",KALIMANTAN BARAT,78753.0,Indonesia,81213193576.0,,,0.8738117,112.9238487,https://maps.google.com/?cid=0x0:0x4b45a109be76ba94,
supermarket,Toko Swalayan,SRC SAPARINI,"Jl. Hasanudin No.33, Hilir Ktr., Kec. Putussibau Utara, Kabupaten Kapuas Hulu, Kalimantan Barat 78753","Hilir Ktr., Kec. Putussibau Utara, Kabupaten Kapuas Hulu",KALIMANTAN BARAT,78753.0,Indonesia,,,,0.8589409,112.9185778,https://maps.google.com/?cid=0x0:0x18cfde5dc763bbfe,
supermarket,Minimarket,Toko Family,"VW3F+PCP, Kedamin Hilir, Kec. Putussibau Sel., Kabupaten Kapuas Hulu, Kalimantan Barat 78753","Kedamin Hilir, Kec. Putussibau Sel., Kabupaten Kapuas Hulu",KALIMANTAN BARAT,78753.0,Indonesia,,,,0.8543497,112.9235672,https://maps.google.com/?cid=0x0:0x918f77c05934dd0f,
supermarket,Toko bahan makanan,Toko Amanah,"VW59+J8H, Hilir Ktr., Kec. Putussibau Utara, Kabupaten Kapuas Hulu, Kalimantan Barat 78753","Hilir Ktr., Kec. Putussibau Utara, Kabupaten Kapuas Hulu",KALIMANTAN BARAT,78753.0,Indonesia,,,,0.8590515,112.9183643,https://maps.google.com/?cid=0x0:0xb1f7eeee3bee2593,
supermarket,Toko Swalayan,Harapan Baru,"VW5F+7HF, Putussibau Kota, Kec. Putussibau Utara, Kabupaten Kapuas Hulu, Kalimantan Barat 78753","Putussibau Kota, Kec. Putussibau Utara, Kabupaten Kapuas Hulu",KALIMANTAN BARAT,78753.0,Indonesia,81254998333.0,,,0.8581937,112.9239148,https://maps.google.com/?cid=0x0:0x8db771f5b8b5140d,
supermarket,Toko bahan makanan,Toko HOKI,"Jl. Kom Yos Sudarso No.78, Putussibau Kota, Kec. Putussibau Utara, Kabupaten Kapuas Hulu, Kalimantan Barat 78711","Putussibau Kota, Kec. Putussibau Utara, Kabupaten Kapuas Hulu",KALIMANTAN BARAT,78711.0,Indonesia,,,,0.8675016,112.9229009,https://maps.google.com/?cid=0x0:0x1fa50a578e2a525d,
supermarket,Toko Swalayan,Family Market,"Jl. Diponegoro, Putussibau Kota, Kec. Putussibau Utara, Kabupaten Kapuas Hulu, Kalimantan Barat 78753","Putussibau Kota, Kec. Putussibau Utara, Kabupaten Kapuas Hulu",KALIMANTAN BARAT,78753.0,Indonesia,,,,0.862121,112.9266798,https://maps.google.com/?cid=0x0:0xb1d6c893ed021756,
supermarket,Toko Swalayan,Waroeng Swelby,"RWRJ+7MJ, Kedamin Hulu, Kec. Putussibau Sel., Kabupaten Kapuas Hulu, Kalimantan Barat 78753","Kedamin Hulu, Kec. Putussibau Sel., Kabupaten Kapuas Hulu",KALIMANTAN BARAT,78753.0,Indonesia,,,,0.8407052,112.9316452,https://maps.google.com/?cid=0x0:0x2e9114176e2be41b,
supermarket,Toko Elektronik,Toko Cahaya mandiri,"RWMJ+MG8, Jl. Lintas Kalimantan Poros Utara, Kedamin Hulu, Kec. Putussibau Sel., Kabupaten Kapuas Hulu, Kalimantan Barat 78753","Jl. Lintas Kalimantan Poros Utara, Kedamin Hulu, Kec. Putussibau Sel., Kabupaten Kapuas Hulu",KALIMANTAN BARAT,78753.0,Indonesia,,,,0.8341614,112.9313352,https://maps.google.com/?cid=0x0:0x3a4d8a7566a083df,
supermarket,Minimarket,Toko Vony snack putussibau,"Jl. Melati, Putussibau Kota, Kec. Putussibau Utara, Kabupaten Kapuas Hulu, Kalimantan Barat 78753","Putussibau Kota, Kec. Putussibau Utara, Kabupaten Kapuas Hulu",KALIMANTAN BARAT,78753.0,Indonesia,,,,0.8581112,112.9268953,https://maps.google.com/?cid=0x0:0xba07bcbff31cfeb,
supermarket,supermarket,Toko Sinar Diamond,"Jl. Kom Yos Sudarso No.133, Putussibau Kota, Kec. Putussibau Utara, Kabupaten Kapuas Hulu, Kalimantan Barat 78753","Putussibau Kota, Kec. Putussibau Utara, Kabupaten Kapuas Hulu",KALIMANTAN BARAT,78753.0,Indonesia,,,,0.875437,112.9245236,https://maps.google.com/?cid=0x0:0xf2bb0c4024677869,
supermarket,Pusat Perbelanjaan,Mini Market AIN,"Jl. Lintas Utara Kelurahan No.6, Pala Pulau, Kec. Putussibau Utara, Kabupaten Kapuas Hulu, Kalimantan Barat 78752","Pala Pulau, Kec. Putussibau Utara, Kabupaten Kapuas Hulu",KALIMANTAN BARAT,78752.0,Indonesia,8561617070.0,,,0.888827,112.9308208,https://maps.google.com/?cid=0x0:0x9412ca2c60bc8aef,
supermarket,Toko,pasar pagi,"VW5G+J6F, Jl. M Dahar, Putussibau Kota, Kec. Putussibau Utara, Kabupaten Kapuas Hulu, Kalimantan Barat 78753","Jl. M Dahar, Putussibau Kota, Kec. Putussibau Utara, Kabupaten Kapuas Hulu",KALIMANTAN BARAT,78753.0,Indonesia,,,,0.8590588,112.9255435,https://maps.google.com/?cid=0x0:0x332e80ceb2312226,
supermarket,supermarket,Kalimantan Barat 78772,"Kabupaten Kapuas Hulu, Kalimantan Barat","Kabupaten Kapuas Hulu, Kalimantan Barat",KALIMANTAN BARAT,,Indonesia,,,,0.3824812,111.9999435,https://maps.google.com/?cid=0x0:0x7804fca27c8ca34d,
supermarket,Toko Swalayan,Khendel Jaya SP1,"8VP4+8PV, Unnamed Road, Sungai Sena, Kec. Silat Hilir, Kabupaten Kapuas Hulu, Kalimantan Barat 78773","Unnamed Road, Sungai Sena, Kec. Silat Hilir, Kabupaten Kapuas Hulu",KALIMANTAN BARAT,78773.0,Indonesia,82151156111.0,,,0.335867,111.8568073,https://maps.google.com/?cid=0x0:0xd334f618262a0b43,
supermarket,Toko,Toko Anugrah Ilahi,"8VR6+6XQ, desa, Sungai Sena, Kec. Silat Hilir, Kabupaten Kapuas Hulu, Kalimantan Barat 78773","desa, Sungai Sena, Kec. Silat Hilir, Kabupaten Kapuas Hulu",KALIMANTAN BARAT,78773.0,Indonesia,81253347768.0,,,0.3405815,111.8624902,https://maps.google.com/?cid=0x0:0xc3fd8aad1c1c5ae3,
supermarket,Toko bahan makanan,BS.BERKAT SESAMA,"CX7Q+9C6, Desa Tajau Mada, Ranyai, Kec. Seberuang, Kabupaten Kapuas Hulu, Kalimantan Barat 78772","Desa Tajau Mada, Ranyai, Kec. Seberuang, Kabupaten Kapuas Hulu",KALIMANTAN BARAT,78772.0,Indonesia,,,,0.4134177,111.9885249,https://maps.google.com/?cid=0x0:0x85288f467b7c8193,
supermarket,Toko Swalayan,Toko Sumber Market,"6XWV+W2R, Unnamed Road, Nanga Dangkan I, Kec. Silat Hulu, Kabupaten Kapuas Hulu, Kalimantan Barat 78774","Unnamed Road, Nanga Dangkan I, Kec. Silat Hulu, Kabupaten Kapuas Hulu",KALIMANTAN BARAT,78774.0,Indonesia,85345934444.0,,,0.2473515,111.9925084,https://maps.google.com/?cid=0x0:0xa2fd3e9dedd8627c,
supermarket,Toko bahan makanan,TOKO 888,"CXGW+V72, Jl. Santo Fidelis, Sejiram, Kec. Seberuang, Kabupaten Kapuas Hulu, Kalimantan Barat 78772","Jl. Santo Fidelis, Sejiram, Kec. Seberuang, Kabupaten Kapuas Hulu",KALIMANTAN BARAT,78772.0,Indonesia,,,,0.4271318,111.9956378,https://maps.google.com/?cid=0x0:0x1077e2152c11c107,
supermarket,Toko Swalayan,Toko Karunia Abadi (Cv. Karunia Abadi),"8VR4+9JR, jalur 3, desa, Sena River, Silat Hilir, Kapuas Hulu Regency, West Kalimantan 78773","jalur 3, desa, Sena River, Silat Hilir, Kapuas Hulu Regency",KALIMANTAN BARAT,78773.0,Indonesia,85282068011.0,,,0.3409886,111.8565169,https://maps.google.com/?cid=0x0:0x1c61b8378e0b0da6,
supermarket,Toko bahan makanan,Toko Mr Jk,"6XXR+8M7, Nanga Dangkan II, Kec. Silat Hulu, Kabupaten Kapuas Hulu, Kalimantan Barat 78774","Nanga Dangkan II, Kec. Silat Hulu, Kabupaten Kapuas Hulu",KALIMANTAN BARAT,78774.0,Indonesia,85252681475.0,,,0.2482886,111.9916774,https://maps.google.com/?cid=0x0:0x876accdcd135e8db,
supermarket,Toko Percetakan,Niko Foto  Central Copy,"CX7Q+PQ8, Ranyai, Kec. Seberuang, Kabupaten Kapuas Hulu, Kalimantan Barat 78772","Ranyai, Kec. Seberuang, Kabupaten Kapuas Hulu",KALIMANTAN BARAT,78772.0,Indonesia,81345142146.0,,,0.414275,111.9894667,https://maps.google.com/?cid=0x0:0xb2413f9028ae5a72,
supermarket,Seafood,Pasar Semitau,"HX36+VJ9, Semitau Hulu, Kec. Semitau, Kabupaten Kapuas Hulu, Kalimantan Barat 78775","Semitau Hulu, Kec. Semitau, Kabupaten Kapuas Hulu",KALIMANTAN BARAT,78775.0,Indonesia,,,,0.5546725,111.9616109,https://maps.google.com/?cid=0x0:0x482d8cae069d9849,
supermarket,Toko Swalayan,Toko IQRA,"Depan kantor camat, Pertigaan jalan, Nanga Dangkan I, Kec. Silat Hulu, Kabupaten Kapuas Hulu, Kalimantan Barat 78774","Pertigaan jalan, Nanga Dangkan I, Kec. Silat Hulu, Kabupaten Kapuas Hulu",KALIMANTAN BARAT,78774.0,Indonesia,81254625702.0,,,0.2488511,111.9914739,https://maps.google.com/?cid=0x0:0xd7c6af33a7f912fc,
supermarket,Toko bahan makanan,Toko Budi Bersama Semitau,"Jl. Abang Kamarudin No.Umar, Juned, Kec. Semitau, Kabupaten Kapuas Hulu, Kalimantan Barat 78775","Juned, Kec. Semitau, Kabupaten Kapuas Hulu",KALIMANTAN BARAT,78775.0,Indonesia,,,,0.549593,111.9602805,https://maps.google.com/?cid=0x0:0x53acd69fd2ea5351,
supermarket,Toko bahan makanan,Tokoh Sumber Usaha,"53PF+HJH, Nanga Ngeri, Kec. Silat Hulu, Kabupaten Kapuas Hulu, Kalimantan Barat 78774","Nanga Ngeri, Kec. Silat Hulu, Kabupaten Kapuas Hulu",KALIMANTAN BARAT,78774.0,Indonesia,85252649999.0,,,0.1864266,112.074094,https://maps.google.com/?cid=0x0:0x50cf790215797cc8,
supermarket,Toko bahan makanan,Fresh  frozenmart,"Jalan umar juned semitau hilir Kec. Silat hilir, Kec. Semitau, Kabupaten Kapuas Hulu, Kalimantan Barat 78773","Kec. Semitau, Kabupaten Kapuas Hulu",KALIMANTAN BARAT,78773.0,Indonesia,85652154517.0,,,0.5314791,111.9641728,https://maps.google.com/?cid=0x0:0xd8670763d5498a4f,
supermarket,Toko bahan makanan,TOKO AL ZAFRAN,"Sungai Sena, Kec. Silat Hilir, Kabupaten Kapuas Hulu, Kalimantan Barat 78773","Kec. Silat Hilir, Kabupaten Kapuas Hulu",KALIMANTAN BARAT,78773.0,Indonesia,,,,0.3041959,111.8687825,https://maps.google.com/?cid=0x0:0x3ba65f0c651e181a,
supermarket,Toko umum,Warung Siti Tono,"9VPJ+5R4, Setunggul, Kec. Silat Hilir, Kabupaten Kapuas Hulu, Kalimantan Barat 78772","Setunggul, Kec. Silat Hilir, Kabupaten Kapuas Hulu",KALIMANTAN BARAT,78772.0,Indonesia,,,,0.3859351,111.8819506,https://maps.google.com/?cid=0x0:0x436f595e684960ae,
supermarket,Toko bahan makanan,Btm Mart,"GXR5+VV7, Jl. Semitau Hilir, Semitau Hilir, Kec. Semitau, Kabupaten Kapuas Hulu, Kalimantan Barat 78775","Jl. Semitau Hilir, Semitau Hilir, Kec. Semitau, Kabupaten Kapuas Hulu",KALIMANTAN BARAT,78775.0,Indonesia,,,,0.5421692,111.959658,https://maps.google.com/?cid=0x0:0x39dd690e660f0130,
supermarket,Toko bahan makanan,TOKO AL ZAFRAN,"8VV3+PH, Setunggul, Kec. Silat Hilir, Kabupaten Kapuas Hulu, Kalimantan Barat","Kabupaten Kapuas Hulu, Kalimantan Barat",KALIMANTAN BARAT,,Indonesia,,,,0.3443033,111.8539117,https://maps.google.com/?cid=0x0:0xc2ce0553860f514a,
supermarket,Toko Swalayan,Toko Sumber Rezeki,"FCMR+3H9, Jalan Lintas Selatan, Buak mau, Kec. Pengkadan, Kabupaten Kapuas Hulu, Kalimantan Barat 78758","Jalan Lintas Selatan, Buak mau, Kec. Pengkadan, Kabupaten Kapuas Hulu",KALIMANTAN BARAT,78758.0,Indonesia,85349073003.0,,,0.4826595,112.4414786,https://maps.google.com/?cid=0x0:0xc1cefd57c0f9d87d,
supermarket,Toko bahan makanan,Queen Mart,"GXV5+5QX, Jl. Semitau Hilir, Semitau Hilir, Kec. Semitau, Kabupaten Kapuas Hulu, Kalimantan Barat 78775","Jl. Semitau Hilir, Semitau Hilir, Kec. Semitau, Kabupaten Kapuas Hulu",KALIMANTAN BARAT,78775.0,Indonesia,,,,0.5429967,111.9594789,https://maps.google.com/?cid=0x0:0x1b7462cbfa00eae8,
supermarket,supermarket,Warung Nenek Tuda,"Jl. Sejiram, Sejiram, Kec. Seberuang, Kabupaten Kapuas Hulu, Kalimantan Barat 78772","Sejiram, Kec. Seberuang, Kabupaten Kapuas Hulu",KALIMANTAN BARAT,78772.0,Indonesia,,,,0.4554356,112.0005729,https://maps.google.com/?cid=0x0:0x44a3129d1cfb5620,
supermarket,supermarket,Selimbau,"Gudang Hilir, Kec. Selimbau, Kabupaten Kapuas Hulu, Kalimantan Barat","Kabupaten Kapuas Hulu, Kalimantan Barat",KALIMANTAN BARAT,,Indonesia,,,,0.6063539,112.125099,https://maps.google.com/?cid=0x0:0x31b16f40ec4d1993,
supermarket,Toko bahan makanan,Toko Sahabat,"Jl. Almamater No. 29, Gudang Hilir, Selimbau, Kapuas Hulu Regency, West Kalimantan 78765","Gudang Hilir, Selimbau, Kapuas Hulu Regency",KALIMANTAN BARAT,78765.0,Indonesia,81522636226.0,,,0.6117536,112.1279551,https://maps.google.com/?cid=0x0:0x108c5a4f929ad2df,
supermarket,Toko bahan makanan,Samsudi Toko,"J45F+X8J, Jalan, Gudang Hilir, Selimbau, Kapuas Hulu Regency, West Kalimantan 78765","Jalan, Gudang Hilir, Selimbau, Kapuas Hulu Regency",KALIMANTAN BARAT,78765.0,Indonesia,85752461699.0,,,0.6099512,112.1232807,https://maps.google.com/?cid=0x0:0xde765b26d722696c,
supermarket,supermarket,Kalimantan Barat 78771,"Kec. Semitau, Kabupaten Kapuas Hulu, Kalimantan Barat","Kabupaten Kapuas Hulu, Kalimantan Barat",KALIMANTAN BARAT,,Indonesia,,,,0.5232718,111.8091625,https://maps.google.com/?cid=0x0:0x573e1d10321419df,
supermarket,Seafood,Pasar Semitau,"HX36+VJ9, Semitau Hulu, Kec. Semitau, Kabupaten Kapuas Hulu, Kalimantan Barat 78775","Semitau Hulu, Kec. Semitau, Kabupaten Kapuas Hulu",KALIMANTAN BARAT,78775.0,Indonesia,,,,0.5546725,111.9616109,https://maps.google.com/?cid=0x0:0x482d8cae069d9849,
supermarket,Toko bahan makanan,Toko Budi Bersama Semitau,"Jl. Abang Kamarudin No.Umar, Juned, Kec. Semitau, Kabupaten Kapuas Hulu, Kalimantan Barat 78775","Juned, Kec. Semitau, Kabupaten Kapuas Hulu",KALIMANTAN BARAT,78775.0,Indonesia,,,,0.549593,111.9602805,https://maps.google.com/?cid=0x0:0x53acd69fd2ea5351,
supermarket,supermarket,Kalimantan Barat 78773,"Kec. Silat Hilir, Kabupaten Kapuas Hulu, Kalimantan Barat","Kabupaten Kapuas Hulu, Kalimantan Barat",KALIMANTAN BARAT,,Indonesia,,,,0.3130556,111.8091625,https://maps.google.com/?cid=0x0:0x58d96d5fd06bb0c8,
supermarket,Toko Swalayan,Khendel Jaya SP1,"8VP4+8PV, Unnamed Road, Sungai Sena, Kec. Silat Hilir, Kabupaten Kapuas Hulu, Kalimantan Barat 78773","Unnamed Road, Sungai Sena, Kec. Silat Hilir, Kabupaten Kapuas Hulu",KALIMANTAN BARAT,78773.0,Indonesia,82151156111.0,,,0.335867,111.8568073,https://maps.google.com/?cid=0x0:0xd334f618262a0b43,
supermarket,Toko,Toko Anugrah Ilahi,"8VR6+6XQ, desa, Sungai Sena, Kec. Silat Hilir, Kabupaten Kapuas Hulu, Kalimantan Barat 78773","desa, Sungai Sena, Kec. Silat Hilir, Kabupaten Kapuas Hulu",KALIMANTAN BARAT,78773.0,Indonesia,81253347768.0,,,0.3405815,111.8624902,https://maps.google.com/?cid=0x0:0xc3fd8aad1c1c5ae3,
supermarket,Komplek perumahan,Sahabat kita PB.penai,"Penai, Kec. Silat Hilir, Kabupaten Kapuas Hulu, Kalimantan Barat 78773","Kec. Silat Hilir, Kabupaten Kapuas Hulu",KALIMANTAN BARAT,78773.0,Indonesia,85705655721.0,,,0.332693,111.7077848,https://maps.google.com/?cid=0x0:0x29024bf2f3bc074,
supermarket,Minimarket,Toko Sanjaya 2,"jl. Makarti No.29 Dsn.Sidorejo, Desa Miau merah, Kec. Silat Hilir, H, Putusibau, Kab. Kapuas, Kalimantan Barat 78773","Desa Miau merah, Kec. Silat Hilir, H, Putusibau, Kab. Kapuas",KALIMANTAN BARAT,78773.0,Indonesia,82252910907.0,,,0.2430185,111.7859232,https://maps.google.com/?cid=0x0:0xeccbeb6bfde03c5d,
supermarket,Dapur Umum,Kafe Uju Atut,"8QQP+XRV, Unnamed Road, Pangeran, Kec. Silat Hilir, Kabupaten Kapuas Hulu, Kalimantan Barat 78773","Unnamed Road, Pangeran, Kec. Silat Hilir, Kabupaten Kapuas Hulu",KALIMANTAN BARAT,78773.0,Indonesia,,,,0.3399948,111.787037,https://maps.google.com/?cid=0x0:0x363644177f848fa7,
supermarket,Toko Swalayan,Toko Karunia Abadi (Cv. Karunia Abadi),"8VR4+9JR, jalur 3, desa, Sena River, Silat Hilir, Kapuas Hulu Regency, West Kalimantan 78773","jalur 3, desa, Sena River, Silat Hilir, Kapuas Hulu Regency",KALIMANTAN BARAT,78773.0,Indonesia,85282068011.0,,,0.3409886,111.8565169,https://maps.google.com/?cid=0x0:0x1c61b8378e0b0da6,
supermarket,Toko,Warung sembako Sp3 pak Rasito,"8QGF+QQV, Pangeran, Kec. Silat Hilir, Kabupaten Kapuas Hulu, Kalimantan Barat 78773","Pangeran, Kec. Silat Hilir, Kabupaten Kapuas Hulu",KALIMANTAN BARAT,78773.0,Indonesia,,,,0.3269994,111.7744182,https://maps.google.com/?cid=0x0:0x4d98ae3d9e93122c,
supermarket,Toko Swalayan,Toko Sumber Market,"6XWV+W2R, Unnamed Road, Nanga Dangkan I, Kec. Silat Hulu, Kabupaten Kapuas Hulu, Kalimantan Barat 78774","Unnamed Road, Nanga Dangkan I, Kec. Silat Hulu, Kabupaten Kapuas Hulu",KALIMANTAN BARAT,78774.0,Indonesia,85345934444.0,,,0.2473515,111.9925084,https://maps.google.com/?cid=0x0:0xa2fd3e9dedd8627c,
supermarket,Toko bahan makanan,Toko Mr Jk,"6XXR+8M7, Nanga Dangkan II, Kec. Silat Hulu, Kabupaten Kapuas Hulu, Kalimantan Barat 78774","Nanga Dangkan II, Kec. Silat Hulu, Kabupaten Kapuas Hulu",KALIMANTAN BARAT,78774.0,Indonesia,85252681475.0,,,0.2482886,111.9916774,https://maps.google.com/?cid=0x0:0x876accdcd135e8db,
supermarket,Toko bahan makanan,Warung sayur ibu izhi,"8QHF+WR9, Pangeran, Kec. Silat Hilir, Kabupaten Kapuas Hulu, Kalimantan Barat 78773","Pangeran, Kec. Silat Hilir, Kabupaten Kapuas Hulu",KALIMANTAN BARAT,78773.0,Indonesia,,,,0.3297878,111.7746053,https://maps.google.com/?cid=0x0:0xf49818147dc6b31,
supermarket,Toko Swalayan,Toko IQRA,"Depan kantor camat, Pertigaan jalan, Nanga Dangkan I, Kec. Silat Hulu, Kabupaten Kapuas Hulu, Kalimantan Barat 78774","Pertigaan jalan, Nanga Dangkan I, Kec. Silat Hulu, Kabupaten Kapuas Hulu",KALIMANTAN BARAT,78774.0,Indonesia,81254625702.0,,,0.2488511,111.9914739,https://maps.google.com/?cid=0x0:0xd7c6af33a7f912fc,
supermarket,Toko bahan makanan,WARUNG PAK,"Sentabai, Kec. Silat Hilir, Kabupaten Kapuas Hulu, Kalimantan Barat 73887","Kec. Silat Hilir, Kabupaten Kapuas Hulu",KALIMANTAN BARAT,73887.0,Indonesia,85393317331.0,,,0.4375304,111.7886534,https://maps.google.com/?cid=0x0:0xfa4189d748df3e2c,
supermarket,Seafood,Pasar Semitau,"HX36+VJ9, Semitau Hulu, Kec. Semitau, Kabupaten Kapuas Hulu, Kalimantan Barat 78775","Semitau Hulu, Kec. Semitau, Kabupaten Kapuas Hulu",KALIMANTAN BARAT,78775.0,Indonesia,,,,0.5546725,111.9616109,https://maps.google.com/?cid=0x0:0x482d8cae069d9849,
supermarket,Toko bahan makanan,WR.BAROKAH SP3,"8QVQ+7RP, Baru, Kec. Silat Hilir, Kabupaten Kapuas Hulu, Kalimantan Barat","Kabupaten Kapuas Hulu, Kalimantan Barat",KALIMANTAN BARAT,,Indonesia,,,,0.3432161,111.7895678,https://maps.google.com/?cid=0x0:0x6f06951ca114c467,
supermarket,Toko,WARUNG BAROKAH,"8QCF+P9R, dusun Rejosari 2, Pangeran, Kec. Silat Hilir, Kabupaten Kapuas Hulu, Kalimantan Barat 78773","dusun Rejosari 2, Pangeran, Kec. Silat Hilir, Kabupaten Kapuas Hulu",KALIMANTAN BARAT,78773.0,Indonesia,,,,0.3218708,111.7733902,https://maps.google.com/?cid=0x0:0xc34db69eee2c500c,
supermarket,Toko bahan makanan,TOKO AL ZAFRAN,"Sungai Sena, Kec. Silat Hilir, Kabupaten Kapuas Hulu, Kalimantan Barat 78773","Kec. Silat Hilir, Kabupaten Kapuas Hulu",KALIMANTAN BARAT,78773.0,Indonesia,,,,0.3041959,111.8687825,https://maps.google.com/?cid=0x0:0x3ba65f0c651e181a,
supermarket,Toko bahan makanan,Tokoh Sumber Usaha,"53PF+HJH, Nanga Ngeri, Kec. Silat Hulu, Kabupaten Kapuas Hulu, Kalimantan Barat 78774","Nanga Ngeri, Kec. Silat Hulu, Kabupaten Kapuas Hulu",KALIMANTAN BARAT,78774.0,Indonesia,85252649999.0,,,0.1864266,112.074094,https://maps.google.com/?cid=0x0:0x50cf790215797cc8,
supermarket,Toko bahan makanan,TOKO AL ZAFRAN,"8VV3+PH, Setunggul, Kec. Silat Hilir, Kabupaten Kapuas Hulu, Kalimantan Barat","Kabupaten Kapuas Hulu, Kalimantan Barat",KALIMANTAN BARAT,,Indonesia,,,,0.3443033,111.8539117,https://maps.google.com/?cid=0x0:0xc2ce0553860f514a,
supermarket,Toko umum,Produksi tahu PK padi,"8VQ5+7QG, Sungai Sena, Kec. Silat Hilir, Kabupaten Kapuas Hulu, Kalimantan Barat 78773","Sungai Sena, Kec. Silat Hilir, Kabupaten Kapuas Hulu",KALIMANTAN BARAT,78773.0,Indonesia,,,,0.338187,111.8594684,https://maps.google.com/?cid=0x0:0x40e2df45b31b43a,
supermarket,Pembangunan Perumahan,Simpang Silat,"Simpang Silat, Miau Merah, Kec. Silat Hilir, Kabupaten Kapuas Hulu, Kalimantan Barat 78773","Miau Merah, Kec. Silat Hilir, Kabupaten Kapuas Hulu",KALIMANTAN BARAT,78773.0,Indonesia,82255916226.0,,,0.381462,111.7383465,https://maps.google.com/?cid=0x0:0x4b58454cd97ec705,
supermarket,,Alfamart Nanga Silat,"6QVM+MW3, nanga Tepuai Nanga tepuai, Miau Merah, Kec. Silat Hilir, Kabupaten Kapuas Hulu, Kalimantan Barat 78764","nanga Tepuai Nanga tepuai, Miau Merah, Kec. Silat Hilir, Kabupaten Kapuas Hulu",KALIMANTAN BARAT,78764.0,Indonesia,,,,0.2441406,111.784802,https://maps.google.com/?cid=0x0:0x713f6854b91348a8,
supermarket,Pembangunan Perumahan,Rumah pak Adi ngadimin,"8QMC+692, RW.2, Dusun rejosari, Pangeran, Kec. Silat Hilir, Kabupaten Kapuas Hulu, Kalimantan Barat","Kabupaten Kapuas Hulu, Kalimantan Barat",KALIMANTAN BARAT,,Indonesia,,,,0.3340842,111.7712678,https://maps.google.com/?cid=0x0:0xf1ed00a9ec293276,
supermarket,Toko bahan makanan,KERUPUK BASAH UMMI WIWIN,"7WC7+4JH, Bongkong, Kec. Silat Hilir, Kabupaten Kapuas Hulu, Kalimantan Barat","Kabupaten Kapuas Hulu, Kalimantan Barat",KALIMANTAN BARAT,,Indonesia,82251077545.0,,,0.2703152,111.9141025,https://maps.google.com/?cid=0x0:0x935f14e2e79447e7,
supermarket,supermarket,Kalimantan Barat 78774,"Kec. Silat Hulu, Kabupaten Kapuas Hulu, Kalimantan Barat","Kabupaten Kapuas Hulu, Kalimantan Barat",KALIMANTAN BARAT,,Indonesia,,,,0.1731164,112.1907122,https://maps.google.com/?cid=0x0:0xb9aeae38199c04b5,
supermarket,Toko bahan makanan,Toko Mr Jk,"6XXR+8M7, Nanga Dangkan II, Kec. Silat Hulu, Kabupaten Kapuas Hulu, Kalimantan Barat 78774","Nanga Dangkan II, Kec. Silat Hulu, Kabupaten Kapuas Hulu",KALIMANTAN BARAT,78774.0,Indonesia,85252681475.0,,,0.2482886,111.9916774,https://maps.google.com/?cid=0x0:0x876accdcd135e8db,
supermarket,Toko Swalayan,Toko Sumber Market,"6XWV+W2R, Unnamed Road, Nanga Dangkan I, Kec. Silat Hulu, Kabupaten Kapuas Hulu, Kalimantan Barat 78774","Unnamed Road, Nanga Dangkan I, Kec. Silat Hulu, Kabupaten Kapuas Hulu",KALIMANTAN BARAT,78774.0,Indonesia,85345934444.0,,,0.2473515,111.9925084,https://maps.google.com/?cid=0x0:0xa2fd3e9dedd8627c,
supermarket,Toko Swalayan,Toko IQRA,"Depan kantor camat, Pertigaan jalan, Nanga Dangkan I, Kec. Silat Hulu, Kabupaten Kapuas Hulu, Kalimantan Barat 78774","Pertigaan jalan, Nanga Dangkan I, Kec. Silat Hulu, Kabupaten Kapuas Hulu",KALIMANTAN BARAT,78774.0,Indonesia,81254625702.0,,,0.2488511,111.9914739,https://maps.google.com/?cid=0x0:0xd7c6af33a7f912fc,
supermarket,Toko Swalayan,Warung uda  muk uda,"53PH+557, Nanga Ngeri, Kec. Silat Hulu, Kabupaten Kapuas Hulu, Kalimantan Barat 78774","Nanga Ngeri, Kec. Silat Hulu, Kabupaten Kapuas Hulu",KALIMANTAN BARAT,78774.0,Indonesia,,,,0.1854127,112.0779273,https://maps.google.com/?cid=0x0:0x48602b60a4307cd6,
supermarket,supermarket,Kec. Silat Hulu,"Kabupaten Kapuas Hulu, Kalimantan Barat","Kabupaten Kapuas Hulu, Kalimantan Barat",KALIMANTAN BARAT,,Indonesia,,,,0.2439333,112.2038803,https://maps.google.com/?cid=0x0:0x89027fe3e2284383,
supermarket,supermarket,Kalimantan Barat 78775,"Kabupaten Kapuas Hulu, Kalimantan Barat","Kabupaten Kapuas Hulu, Kalimantan Barat",KALIMANTAN BARAT,,Indonesia,,,,0.5402115,111.9760964,https://maps.google.com/?cid=0x0:0x6a3584f18c52029f,
supermarket,Kafe,Atha All Shop,"J294+P9V, Na, Kec. Suhaid, Kabupaten Kapuas Hulu, Kalimantan Barat 78765","Na, Kec. Suhaid, Kabupaten Kapuas Hulu",KALIMANTAN BARAT,78765.0,Indonesia,,,,0.6193516,112.005927,https://maps.google.com/?cid=0x0:0xd8bdaca48f874aa7,
supermarket,Seafood,Pasar Semitau,"HX36+VJ9, Semitau Hulu, Kec. Semitau, Kabupaten Kapuas Hulu, Kalimantan Barat 78775","Semitau Hulu, Kec. Semitau, Kabupaten Kapuas Hulu",KALIMANTAN BARAT,78775.0,Indonesia,,,,0.5546725,111.9616109,https://maps.google.com/?cid=0x0:0x482d8cae069d9849,
supermarket,Toko,Toko Sembako Alif,"JX9W+9MH, Nanga Suhaid, Kec. Suhaid, Kabupaten Kapuas Hulu, Kalimantan Barat 78765","Nanga Suhaid, Kec. Suhaid, Kabupaten Kapuas Hulu",KALIMANTAN BARAT,78765.0,Indonesia,,,,0.6184303,111.9967271,https://maps.google.com/?cid=0x0:0xda41d813b06eec74,
supermarket,Toko bahan makanan,Bintang Suhaid,"JX9X+FJV, Jl. Pangeran Suma, Nanga Suhaid, Kec. Suhaid, Kabupaten Kapuas Hulu, Kalimantan Barat 78765","Jl. Pangeran Suma, Nanga Suhaid, Kec. Suhaid, Kabupaten Kapuas Hulu",KALIMANTAN BARAT,78765.0,Indonesia,,,,0.6187428,111.9990454,https://maps.google.com/?cid=0x0:0xcd650f3ac5809554,
supermarket,Toko Swalayan,Toko Usaha Jaya - Toni Ria,"HXF6+VPH, Jl.Dogom Siregar,Ds.Marsedan Raya, Nanga Suhaid, Kec. Semitau, Kabupaten Kapuas Hulu, Kalimantan Barat 78775","Jl.Dogom Siregar,Ds.Marsedan Raya, Nanga Suhaid, Kec. Semitau, Kabupaten Kapuas Hulu",KALIMANTAN BARAT,78775.0,Indonesia,,,,0.5746882,111.96185,https://maps.google.com/?cid=0x0:0xf40329af5deefbc,
supermarket,Toko Perlengkapan Rumah,Warung SITI,"Jln Mungguk Mandai, Tanjung, Suhaid, Kapuas Hulu Regency, West Kalimantan 78765","Tanjung, Suhaid, Kapuas Hulu Regency",KALIMANTAN BARAT,78765.0,Indonesia,85281377450.0,,,0.6153941,112.0091669,https://maps.google.com/?cid=0x0:0xf55e9598426be05e,
supermarket,Pasar,Pasar Terminal Suhaid,"JX9X+MJ4, Nanga Suhaid, Kec. Suhaid, Kabupaten Kapuas Hulu, Kalimantan Barat 78765","Nanga Suhaid, Kec. Suhaid, Kabupaten Kapuas Hulu",KALIMANTAN BARAT,78765.0,Indonesia,,,,0.6191347,111.9990877,https://maps.google.com/?cid=0x0:0x5dbf59934c3af331,
supermarket,Toko bahan makanan,TOKO MITRA KITA,"JX9X+Q5J, Jl. Pangeran Suma, Nanga Suhaid, Kec. Suhaid, Kabupaten Kapuas Hulu, Kalimantan Barat 78765","Jl. Pangeran Suma, Nanga Suhaid, Kec. Suhaid, Kabupaten Kapuas Hulu",KALIMANTAN BARAT,78765.0,Indonesia,,,,0.619464,111.9978788,https://maps.google.com/?cid=0x0:0x82441147b388cca8,
supermarket,Toko bahan makanan,Toko Budi Bersama Semitau,"Jl. Abang Kamarudin No.Umar, Juned, Kec. Semitau, Kabupaten Kapuas Hulu, Kalimantan Barat 78775","Juned, Kec. Semitau, Kabupaten Kapuas Hulu",KALIMANTAN BARAT,78775.0,Indonesia,,,,0.549593,111.9602805,https://maps.google.com/?cid=0x0:0x53acd69fd2ea5351,
supermarket,Pasar,Warung Baroqah,"J2C3+92J, Madang Permai, Kec. Suhaid, Kabupaten Kapuas Hulu, Kalimantan Barat 78765","Madang Permai, Kec. Suhaid, Kabupaten Kapuas Hulu",KALIMANTAN BARAT,78765.0,Indonesia,,,,0.6209578,112.0025129,https://maps.google.com/?cid=0x0:0x25ea3a6a53da6d54,
supermarket,Toko bahan makanan,Queen Mart,"GXV5+5QX, Jl. Semitau Hilir, Semitau Hilir, Kec. Semitau, Kabupaten Kapuas Hulu, Kalimantan Barat 78775","Jl. Semitau Hilir, Semitau Hilir, Kec. Semitau, Kabupaten Kapuas Hulu",KALIMANTAN BARAT,78775.0,Indonesia,,,,0.5429967,111.9594789,https://maps.google.com/?cid=0x0:0x1b7462cbfa00eae8,
supermarket,supermarket,WARUNG OKOK,"J284+42C, Nanga Suhaid, Kec. Suhaid, Kabupaten Kapuas Hulu, Kalimantan Barat","Kabupaten Kapuas Hulu, Kalimantan Barat",KALIMANTAN BARAT,,Indonesia,,,,0.6153023,112.0050003,https://maps.google.com/?cid=0x0:0xd10f3b1b5a6358b7,
supermarket,Toko bahan makanan,Btm Mart,"GXR5+VV7, Jl. Semitau Hilir, Semitau Hilir, Kec. Semitau, Kabupaten Kapuas Hulu, Kalimantan Barat 78775","Jl. Semitau Hilir, Semitau Hilir, Kec. Semitau, Kabupaten Kapuas Hulu",KALIMANTAN BARAT,78775.0,Indonesia,,,,0.5421692,111.959658,https://maps.google.com/?cid=0x0:0x39dd690e660f0130,
supermarket,Toko bahan makanan,Toko Sahabat,"Jl. Almamater No. 29, Gudang Hilir, Selimbau, Kapuas Hulu Regency, West Kalimantan 78765","Gudang Hilir, Selimbau, Kapuas Hulu Regency",KALIMANTAN BARAT,78765.0,Indonesia,81522636226.0,,,0.6117536,112.1279551,https://maps.google.com/?cid=0x0:0x108c5a4f929ad2df,
supermarket,Kafe,warung sayur kak iin,"J284+93, Nanga Suhaid, Kec. Suhaid, Kabupaten Kapuas Hulu, Kalimantan Barat 78765","Nanga Suhaid, Kec. Suhaid, Kabupaten Kapuas Hulu",KALIMANTAN BARAT,78765.0,Indonesia,81522510479.0,,,0.6158369,112.0052034,https://maps.google.com/?cid=0x0:0x88fbd5dea2120877,
supermarket,Toko bahan makanan,Fresh  frozenmart,"Jalan umar juned semitau hilir Kec. Silat hilir, Kec. Semitau, Kabupaten Kapuas Hulu, Kalimantan Barat 78773","Kec. Semitau, Kabupaten Kapuas Hulu",KALIMANTAN BARAT,78773.0,Indonesia,85652154517.0,,,0.5314791,111.9641728,https://maps.google.com/?cid=0x0:0xd8670763d5498a4f,
supermarket,Toko bahan makanan,TOKO MITRA SAHABAT,"GXQ6+W4P, Jl. Semitau Hilir, Semitau Hilir, Kec. Semitau, Kabupaten Kapuas Hulu, Kalimantan Barat 78775","Jl. Semitau Hilir, Semitau Hilir, Kec. Semitau, Kabupaten Kapuas Hulu",KALIMANTAN BARAT,78775.0,Indonesia,,,,0.5398326,111.9603136,https://maps.google.com/?cid=0x0:0x5fe5e16c50977314,
supermarket,Toko bahan makanan,TOKO SETIA BUDI,"GXV5+6V2, Jl. Semitau Hilir, Semitau Hilir, Kec. Semitau, Kabupaten Kapuas Hulu, Kalimantan Barat 78775","Jl. Semitau Hilir, Semitau Hilir, Kec. Semitau, Kabupaten Kapuas Hulu",KALIMANTAN BARAT,78775.0,Indonesia,,,,0.5430101,111.9596335,https://maps.google.com/?cid=0x0:0x52b75194cbcdb8f9,
supermarket,Toko bahan makanan,Toko Citra Mulia,"GXV5+7R2, Jl. Semitau Hilir, Semitau Hilir, Kec. Semitau, Kabupaten Kapuas Hulu, Kalimantan Barat 78775","Jl. Semitau Hilir, Semitau Hilir, Kec. Semitau, Kabupaten Kapuas Hulu",KALIMANTAN BARAT,78775.0,Indonesia,,,,0.5431263,111.9595092,https://maps.google.com/?cid=0x0:0x303c457d793e20f6,
