Category,Real Category,Business Name,Address,City,State,Postal Code,Country,Phone,Email,Website,Latitude,Longitude,Map Link,Details Link
hotel,hotel,Wyndham Tamansari Jivva Resort Bali,"Pantai Lepang, Jl. Subak Lepang No.16, Takmung, Kec. Banjarangkan, Kabupaten Klungkung, Bali 80752","Jl. Subak Lepang No.16, Takmung, Kec. Banjarangkan, Kabupaten Klungkung",BALI,80752.0,Indonesia,3665437988.0,,,-8.573.117,1.153.837.247,https://maps.google.com/?cid=0x0:0xbcf303c67e79ef2f,
hotel,hotel,,,,BALI,,Indonesia,,,,,,https://maps.google.com/?cid=0x0:0xbcf303c67e79ef2f%7C/g/11bwp6hbs6%7Cid-ID,
hotel,hotel,Bali 80752,"Kec. Banjarangkan, Kabupaten Klungkung, Bali","Kabupaten Klungkung, Bali",BALI,,Indonesia,,,,-8.512.833,1.153.726.469,https://maps.google.com/?cid=0x0:0x1c00c5eb6016c000,
hotel,hotel,Arsa Wayan Guest House,"Jalan Subak Bungsih No.4, Bakas, Kec. Banjarangkan, Kabupaten Klungkung, Bali 80752","Bakas, Kec. Banjarangkan, Kabupaten Klungkung",BALI,80752.0,Indonesia,8123927595.0,,,-85.220.728,1.153.635.163,https://maps.google.com/?cid=0x0:0xbdf3fc5b8423f740,
hotel,hotel,Kori Maharani Villas Gianyar,"Jl. By Pass Jl. Prof. Dr. Ida Bagus Mantra, Tulikup, Kec. Gianyar, Kabupaten Gianyar, Bali","Kabupaten Gianyar, Bali",BALI,,Indonesia,3614791690.0,,,-8.573.694,11.536.348,https://maps.google.com/?cid=0x0:0x46ddbcb7d8c5ed86,
hotel,hotel,,,,BALI,,Indonesia,,,,,,https://maps.google.com/?cid=0x0:0x46ddbcb7d8c5ed86%7C/g/11bzpkq2b2%7Cid-ID,
hotel,hotel,Lembah Wanna,"Timuhun, Kec. Banjarangkan, Kabupaten Klungkung, Bali 80752","Kec. Banjarangkan, Kabupaten Klungkung",BALI,80752.0,Indonesia,82322843759.0,,,-8.489.413,115.383.356,https://maps.google.com/?cid=0x0:0x8f02bbdd31dd480c,
hotel,hotel,Guest House Mona Bali,"C9PF+R3M, Negari, Kec. Banjarangkan, Kabupaten Klungkung, Bali 80752","Negari, Kec. Banjarangkan, Kabupaten Klungkung",BALI,80752.0,Indonesia,81337911116.0,,,-85.629.139,1.153.726.377,https://maps.google.com/?cid=0x0:0x1f040c4d7a02a014,
hotel,hotel,Hotel Taman Prakerti Bhuana,"Beng, Kec. Gianyar, Kabupaten Gianyar, Bali 80511","Kec. Gianyar, Kabupaten Gianyar",BALI,80511.0,Indonesia,87865436777.0,,,-85.257.997,1.153.286.022,https://maps.google.com/?cid=0x0:0xdd42a2fd5500cc4c,
hotel,hotel,D'Karang Eco Lodge,"Jl. Raya Besakih, Undisan, Kec. Tembuku, Kabupaten Bangli, Bali 80671","Undisan, Kec. Tembuku, Kabupaten Bangli",BALI,80671.0,Indonesia,81337559615.0,,,-84.470.113,1.153.978.932,https://maps.google.com/?cid=0x0:0xda500e1a0484a1d8,
hotel,hotel,Green Pacing Lodge,"Yangapi, Kec. Tembuku, Kabupaten Bangli, Bali","Kabupaten Bangli, Bali",BALI,,Indonesia,85904285889.0,,,-8.447.284,1.153.902.121,https://maps.google.com/?cid=0x0:0x819120e94b42ce62,
hotel,hotel,Telagamas Guest House,"Jalan Bakas Banjar Kangin Desa Bakas, Bakas, Kec. Banjarangkan, Kabupaten Klungkung, Bali 80752","Bakas, Kec. Banjarangkan, Kabupaten Klungkung",BALI,80752.0,Indonesia,81236205952.0,,,-85.204.662,1.153.679.962,https://maps.google.com/?cid=0x0:0x545e444b489ad72b,
hotel,hotel,Hotel Gianyar,"Jl. Manik, Gianyar, Kec. Gianyar, Kabupaten Gianyar, Bali 80511","Gianyar, Kec. Gianyar, Kabupaten Gianyar",BALI,80511.0,Indonesia,361943239.0,,,-85.397.862,1.153.234.301,https://maps.google.com/?cid=0x0:0x4a31eca9a50ae236,
hotel,hotel,Asli Bali Villa,"Taman Bali, Kec. Bangli, Kabupaten Bangli, Bali 80614","Kec. Bangli, Kabupaten Bangli",BALI,80614.0,Indonesia,8123903421.0,,,-84.985.503,1.153.512.801,https://maps.google.com/?cid=0x0:0xa6106742f2f92982,
hotel,hotel,,,,BALI,,Indonesia,,,,,,https://maps.google.com/?cid=0x0:0xa6106742f2f92982%7C/g/11c1xjbskt%7Cid-ID,
hotel,hotel,,,,BALI,,Indonesia,,,,,,https://maps.google.com/?cid=0x0:0x4a31eca9a50ae236%7C/g/1q67g9m84%7Cid-ID,
hotel,hotel,Puri karang Undisan,"H93W+8HM, Undisan, Kec. Tembuku, Kabupaten Bangli, Bali 80671","Undisan, Kec. Tembuku, Kabupaten Bangli",BALI,80671.0,Indonesia,81239690091.0,,,-84.466.509,1.153.964.233,https://maps.google.com/?cid=0x0:0x67546e59236f10f4,
hotel,hotel,Sayana Bali Resto  Bar,"Jl. Gn. Lempuyang No.8, Samplangan, Kec. Gianyar, Kabupaten Gianyar, Bali 80512","Samplangan, Kec. Gianyar, Kabupaten Gianyar",BALI,80512.0,Indonesia,81999757746.0,,,-85.355.168,1.153.346.077,https://maps.google.com/?cid=0x0:0x19e62da0f13aa0bb,
hotel,hotel,Villa Rosita,"Jl. Pantai Tegal Besar, Negari, Kec. Banjarangkan, Kabupaten Klungkung, Bali 80572","Negari, Kec. Banjarangkan, Kabupaten Klungkung",BALI,80572.0,Indonesia,8990899011.0,,,-85.743.851,11.537.346,https://maps.google.com/?cid=0x0:0xb57f01ee76b62e3f,
hotel,hotel,,,,BALI,,Indonesia,,,,,,https://maps.google.com/?cid=0x0:0xb2ab0adf0af6d817%7C/g/1tcynbf_%7Cid-ID,
hotel,hotel,Puri Saron Hotel Madangan,"Ds Madangan Kaja, Desa Petak, Petak Kaja, Kec. Gianyar, Kabupaten Gianyar, Bali 80515","Desa Petak, Petak Kaja, Kec. Gianyar, Kabupaten Gianyar",BALI,80515.0,Indonesia,361954257.0,,,-84.649.117,1.153.258.662,https://maps.google.com/?cid=0x0:0xb2ab0adf0af6d817,
hotel,hotel,Kubu Selat Villa And Glamping,"jl gunung lempuyang no 17 selat, Samplangan, Kec. Gianyar, Kabupaten Gianyar, Bali 80512","Samplangan, Kec. Gianyar, Kabupaten Gianyar",BALI,80512.0,Indonesia,81236062293.0,,,-85.309.462,1.153.362.135,https://maps.google.com/?cid=0x0:0x5330d5e365697fe4,
hotel,hotel,Bali Made Escape,"Jl. Gn. Lempuyang No.80X, Samplangan, Kec. Gianyar, Kabupaten Gianyar, Bali 80515","Samplangan, Kec. Gianyar, Kabupaten Gianyar",BALI,80515.0,Indonesia,85261007008.0,,,-85.285.474,1.153.357.345,https://maps.google.com/?cid=0x0:0x8401c348ac991ee9,
hotel,hotel,Tebluess Gianyar,"F8QC+PMX, Bakbakan, Kec. Gianyar, Kabupaten Gianyar, Bali 80511","Bakbakan, Kec. Gianyar, Kabupaten Gianyar",BALI,80511.0,Indonesia,89680000788.0,,,-85.106.881,1.153.217.006,https://maps.google.com/?cid=0x0:0xa28861fc35bdda93,
hotel,hotel,D’Sari Undisan Houses,"JL.Arjuna,Br.Loka Sari, Kelod Jl. Arjuna, Undisan, Tembuku, Bangli Regency, Bali 80671","Kelod Jl. Arjuna, Undisan, Tembuku, Bangli Regency",BALI,80671.0,Indonesia,82236575855.0,,,-8.445.299,1.153.967.527,https://maps.google.com/?cid=0x0:0xa557699a15c716ea,
hotel,hotel,Telagama Guest House,"F9F7+HGC, Jalan Raya Banjarangkan, Dusun Kangin, Bakas, Banjarangkan, Klungkung Regency, 80864","Jalan Raya Banjarangkan, Dusun Kangin, Bakas, Banjarangkan",BALI,80864.0,Indonesia,,,,-85.260.562,1.153.637.593,https://maps.google.com/?cid=0x0:0x311bcfb828133fb6,
hotel,hotel,Cucukan Beach Guest House,"pantai cucukan, Medahan, Kec. Blahbatuh, Kabupaten Gianyar, Bali","Kabupaten Gianyar, Bali",BALI,,Indonesia,82236633857.0,,,-85.868.394,1.153.489.995,https://maps.google.com/?cid=0x0:0xff71d241069b18ff,
hotel,hotel,Pondok Manca,"G9XV+FVR, Undisan, Kec. Tembuku, Kabupaten Bangli, Bali","Kabupaten Bangli, Bali",BALI,,Indonesia,,,,-84.512.566,1.153.946.309,https://maps.google.com/?cid=0x0:0x95911f72a63c0356,
hotel,hotel,Klungkung Tower Hotel,"Jl. Gn. Rinjani No.18, Semarapura Kelod Kangin, Kec. Klungkung, Kabupaten Klungkung, Bali 80761","Semarapura Kelod Kangin, Kec. Klungkung, Kabupaten Klungkung",BALI,80761.0,Indonesia,36621493.0,,,-85.351.155,1.154.054.222,https://maps.google.com/?cid=0x0:0xe827994197d692e5,
hotel,hotel,Bali 80761,"Kec. Dawan, Kabupaten Klungkung, Bali","Kabupaten Klungkung, Bali",BALI,,Indonesia,,,,-85.234.217,1.154.378.152,https://maps.google.com/?cid=0x0:0x1c00c5eb6016c010,
hotel,hotel,Wyndham Tamansari Jivva Resort Bali,"Pantai Lepang, Jl. Subak Lepang No.16, Takmung, Kec. Banjarangkan, Kabupaten Klungkung, Bali 80752","Jl. Subak Lepang No.16, Takmung, Kec. Banjarangkan, Kabupaten Klungkung",BALI,80752.0,Indonesia,3665437988.0,,,-8.573.117,1.153.837.247,https://maps.google.com/?cid=0x0:0xbcf303c67e79ef2f,
hotel,hotel,,,,BALI,,Indonesia,,,,,,https://maps.google.com/?cid=0x0:0xbcf303c67e79ef2f%7C/g/11bwp6hbs6%7Cid-ID,
hotel,hotel,The Babakan Accomodations,"GCGV+M56, Jl. Raya Tebola, Telaga Tawang, Kec. Sidemen, Kabupaten Karangasem, Bali 80864","Jl. Raya Tebola, Telaga Tawang, Kec. Sidemen, Kabupaten Karangasem",BALI,80864.0,Indonesia,81917203476.0,,,-84.732.697,1.154.432.236,https://maps.google.com/?cid=0x0:0x81ee2f0aee87b71f,
hotel,hotel,Ume Dukuh Home Sidemen,"GC6R+CHJ, Telaga Tawang, Kec. Sidemen, Kabupaten Karangasem, Bali","Kabupaten Karangasem, Bali",BALI,,Indonesia,81915840547.0,,,-8.488.906,1.154.413.939,https://maps.google.com/?cid=0x0:0x3c5b6e5ca50a151e,
hotel,hotel,Klungkung Tower Hotel,"Jl. Gn. Rinjani No.18, Semarapura Kelod Kangin, Kec. Klungkung, Kabupaten Klungkung, Bali 80761","Semarapura Kelod Kangin, Kec. Klungkung, Kabupaten Klungkung",BALI,80761.0,Indonesia,36621493.0,,,-85.351.155,1.154.054.222,https://maps.google.com/?cid=0x0:0xe827994197d692e5,
hotel,hotel,Puri Pondok Dawa Villa,"FC4X+857, Pesinggahan, Kec. Dawan, Kabupaten Klungkung, Bali 80761","Pesinggahan, Kec. Dawan, Kabupaten Klungkung",BALI,80761.0,Indonesia,36621514.0,,,-85.442.174,1.154.479.247,https://maps.google.com/?cid=0x0:0x55c2fed6939cf8c0,
hotel,hotel,,,,BALI,,Indonesia,,,,,,https://maps.google.com/?cid=0x0:0x55c2fed6939cf8c0%7C/g/11b6p94kpv%7Cid-ID,
hotel,hotel,The River Island Bali,"Br klungah, Wismakerta, Kec. Sidemen, Kabupaten Karangasem, Bali 80864","Wismakerta, Kec. Sidemen, Kabupaten Karangasem",BALI,80864.0,Indonesia,82266227546.0,,,-84.818.317,1.154.394.088,https://maps.google.com/?cid=0x0:0x9c0292549fd42af5,
hotel,hotel,Natural View House  Restaurant - Sidemen,"GC6M+MMH, Wismakerta, Kec. Sidemen, Kabupaten Karangasem, Bali 80864","Wismakerta, Kec. Sidemen, Kabupaten Karangasem",BALI,80864.0,Indonesia,81246747107.0,,,-84.883.033,1.154.342.346,https://maps.google.com/?cid=0x0:0xda98f99363887cec,
hotel,hotel,Babakan Unda cottage,"Dekat, Semarapura Kelod Kangin, Kec. Klungkung, Kabupaten Klungkung, Bali 80761","Semarapura Kelod Kangin, Kec. Klungkung, Kabupaten Klungkung",BALI,80761.0,Indonesia,85183091692.0,,,-85.306.979,1.154.088.042,https://maps.google.com/?cid=0x0:0xf8d46b79b1244da6,
hotel,hotel,Bella Kita Mountain Retreat  Spa,"FFM8+59C, Jl. Bukit Abah, Besan, Kec. Dawan, Kabupaten Klungkung, Bali 80761","Jl. Bukit Abah, Besan, Kec. Dawan, Kabupaten Klungkung",BALI,80761.0,Indonesia,81329310000.0,,,-85.170.735,1.154.659.029,https://maps.google.com/?cid=0x0:0x735d0547243706dd,
hotel,Hotel bintang 3,Kubu Sakian Villa And Restaurant,"Jl. Wangsean - Klungah, Wismakerta, Kec. Sidemen, Kabupaten Karangasem, Bali 80864","Wismakerta, Kec. Sidemen, Kabupaten Karangasem",BALI,80864.0,Indonesia,81558888942.0,,,-84.824.878,1.154.382.607,https://maps.google.com/?cid=0x0:0xc8ef1c7211985f39,
hotel,hotel,Taman Asta Gangga,"Jl. Bintang, Tangkup, Kec. Sidemen, Kabupaten Karangasem, Bali 80864","Tangkup, Kec. Sidemen, Kabupaten Karangasem",BALI,80864.0,Indonesia,81936960921.0,,,-84.938.844,1.154.176.996,https://maps.google.com/?cid=0x0:0x9f310b00ba6a0a89,
hotel,hotel,Cegeng Lestari Guesthouse,"Desa Cegeng Kertabuana, Kertha Buana, Sidemen, Karangasem Regency, Bali 80864","Kertha Buana, Sidemen, Karangasem Regency",BALI,80864.0,Indonesia,85936151761.0,,,-8.525.928,1.154.094.357,https://maps.google.com/?cid=0x0:0xdc156f47cffd6d3b,
hotel,hotel,Villa Lumbung Sidemen,"GC9R+P67, Jl. Raya Tebola, Telaga Tawang, Kec. Sidemen, Kabupaten Karangasem, Bali 80864","Jl. Raya Tebola, Telaga Tawang, Kec. Sidemen, Kabupaten Karangasem",BALI,80864.0,Indonesia,82189831915.0,,,-84.807.047,1.154.405.366,https://maps.google.com/?cid=0x0:0x5d906784162ab610,
hotel,hotel,Srinadi waterpark villa,"CCW7+C4H, Gelgel, Kec. Klungkung, Kabupaten Klungkung, Bali 80761","Gelgel, Kec. Klungkung, Kabupaten Klungkung",BALI,80761.0,Indonesia,,,,-85.537.044,1.154.129.631,https://maps.google.com/?cid=0x0:0x6351d76e4280e487,
hotel,hotel,Medukuh point hill,"Jalan bukit sandag - klungah Jl. Wangsean - Klungah No.6, Wismakerta, Kec. Sidemen, Kabupaten Karangasem, Bali 80864","Wismakerta, Kec. Sidemen, Kabupaten Karangasem",BALI,80864.0,Indonesia,81222368529.0,,,-84.836.086,1.154.357.743,https://maps.google.com/?cid=0x0:0xde5e3bd81277e184,
hotel,hotel,Astana Swaha Estate,"Jl. Semarapura-Karangasem, desa telagatawatang, Kec. Sidemen, karanagasem, Bali 80864","desa telagatawatang, Kec. Sidemen, karanagasem",BALI,80864.0,Indonesia,811388489.0,,,-84.832.323,115.444.443,https://maps.google.com/?cid=0x0:0x824b97060c020db4,
hotel,hotel,Gara Gara Sea View,"CCQW+GVR, Gg. Griya, Purna Asrham, Kec. Dawan, Kabupaten Klungkung, Bali 80771","Gg. Griya, Purna Asrham, Kec. Dawan, Kabupaten Klungkung",BALI,80771.0,Indonesia,85781496994.0,,,-85.611.335,1.154.471.384,https://maps.google.com/?cid=0x0:0x167d30d8cc8eca03,
hotel,hotel,Jepun Inn,"Padangbai, Kec. Manggis, Kabupaten Karangasem, Bali 80871","Kec. Manggis, Kabupaten Karangasem",BALI,80871.0,Indonesia,8123721078.0,,,-85.373.648,1.155.046.256,https://maps.google.com/?cid=0x0:0xcd5542b42ed1fa7b,
hotel,hotel,Ayo Hill Villa,"Wismakerta, Kec. Sidemen, Kabupaten Karangasem, Bali 80864","Kec. Sidemen, Kabupaten Karangasem",BALI,80864.0,Indonesia,,,,-84.814.857,1.154.326.284,https://maps.google.com/?cid=0x0:0x97d0fc2516ac0f0f,
hotel,hotel,Sidemen padi villas,"GC7R+PVH, Jl. Semarapura-Karangasem, Telaga Tawang, Kec. Sidemen, Kabupaten Karangasem, Bali 80864","Jl. Semarapura-Karangasem, Telaga Tawang, Kec. Sidemen, Kabupaten Karangasem",BALI,80864.0,Indonesia,,,,-8.485.765,115.442.288,https://maps.google.com/?cid=0x0:0x8a57b6bef4142c3a,
hotel,hotel,Green Vanilla bungalows,"GC49+CC9, Unnamed Road, Tangkup, Kec. Sidemen, Kabupaten Karangasem, Bali 80864","Unnamed Road, Tangkup, Kec. Sidemen, Kabupaten Karangasem",BALI,80864.0,Indonesia,81916460086.0,,,-84.939.726,1.154.185.994,https://maps.google.com/?cid=0x0:0x6409a65f490284a9,
hotel,hotel,Abian view house,"Banjar tabola, Telaga Tawang, Kec. Sidemen, Kabupaten Karangasem, Bali 80864","Telaga Tawang, Kec. Sidemen, Kabupaten Karangasem",BALI,80864.0,Indonesia,81936646484.0,,,-84.704.269,1.154.419.162,https://maps.google.com/?cid=0x0:0xbc6673bebf12886f,
hotel,hotel,Klungkung Tower Hotel,"Jl. Gn. Rinjani No.18, Semarapura Kelod Kangin, Kec. Klungkung, Kabupaten Klungkung, Bali 80761","Semarapura Kelod Kangin, Kec. Klungkung, Kabupaten Klungkung",BALI,80761.0,Indonesia,36621493.0,,,-85.351.155,1.154.054.222,https://maps.google.com/?cid=0x0:0xe827994197d692e5,
hotel,hotel,Bali 80711,"Kec. Klungkung, Kabupaten Klungkung, Bali","Kabupaten Klungkung, Bali",BALI,,Indonesia,,,,-8.527.468,1.153.978.272,https://maps.google.com/?cid=0x0:0x1c00c5eb6016bf90,
hotel,hotel,Wyndham Tamansari Jivva Resort Bali,"Pantai Lepang, Jl. Subak Lepang No.16, Takmung, Kec. Banjarangkan, Kabupaten Klungkung, Bali 80752","Jl. Subak Lepang No.16, Takmung, Kec. Banjarangkan, Kabupaten Klungkung",BALI,80752.0,Indonesia,3665437988.0,,,-8.573.117,1.153.837.247,https://maps.google.com/?cid=0x0:0xbcf303c67e79ef2f,
hotel,hotel,Babakan Unda cottage,"Dekat, Semarapura Kelod Kangin, Kec. Klungkung, Kabupaten Klungkung, Bali 80761","Semarapura Kelod Kangin, Kec. Klungkung, Kabupaten Klungkung",BALI,80761.0,Indonesia,85183091692.0,,,-85.306.979,1.154.088.042,https://maps.google.com/?cid=0x0:0xf8d46b79b1244da6,
hotel,hotel,,,,BALI,,Indonesia,,,,,,https://maps.google.com/?cid=0x0:0xbcf303c67e79ef2f%7C/g/11bwp6hbs6%7Cid-ID,
hotel,hotel,Klungkung Tower Hotel,"Jl. Gn. Rinjani No.18, Semarapura Kelod Kangin, Kec. Klungkung, Bali, 80761","Semarapura Kelod Kangin, Kec. Klungkung",BALI,80761.0,Indonesia,2129707601.0,,,-85.305.829,1.154.070.024,https://maps.google.com/?cid=0x0:0x90b87983aa423eb8,
hotel,hotel,Srinadi waterpark villa,"CCW7+C4H, Gelgel, Kec. Klungkung, Kabupaten Klungkung, Bali 80761","Gelgel, Kec. Klungkung, Kabupaten Klungkung",BALI,80761.0,Indonesia,,,,-85.537.044,1.154.129.631,https://maps.google.com/?cid=0x0:0x6351d76e4280e487,
hotel,hotel,Taman Asta Gangga,"Jl. Bintang, Tangkup, Kec. Sidemen, Kabupaten Karangasem, Bali 80864","Tangkup, Kec. Sidemen, Kabupaten Karangasem",BALI,80864.0,Indonesia,81936960921.0,,,-84.938.844,1.154.176.996,https://maps.google.com/?cid=0x0:0x9f310b00ba6a0a89,
hotel,hotel,KUBU BAKAS,"Unnamed Road, Bakas, Kec. Banjarangkan, Kabupaten Klungkung, Bali 80752","Bakas, Kec. Banjarangkan, Kabupaten Klungkung",BALI,80752.0,Indonesia,81338356744.0,,,-85.225.018,1.153.670.955,https://maps.google.com/?cid=0x0:0xdd6615f34ee7055f,
hotel,hotel,Arsa Wayan Guest House,"Jalan Subak Bungsih No.4, Bakas, Kec. Banjarangkan, Kabupaten Klungkung, Bali 80752","Bakas, Kec. Banjarangkan, Kabupaten Klungkung",BALI,80752.0,Indonesia,8123927595.0,,,-85.220.728,1.153.635.163,https://maps.google.com/?cid=0x0:0xbdf3fc5b8423f740,
hotel,hotel,Telagamas Guest House,"Jalan Bakas Banjar Kangin Desa Bakas, Bakas, Kec. Banjarangkan, Kabupaten Klungkung, Bali 80752","Bakas, Kec. Banjarangkan, Kabupaten Klungkung",BALI,80752.0,Indonesia,81236205952.0,,,-85.204.662,1.153.679.962,https://maps.google.com/?cid=0x0:0x545e444b489ad72b,
hotel,hotel,The River Island Bali,"Br klungah, Wismakerta, Kec. Sidemen, Kabupaten Karangasem, Bali 80864","Wismakerta, Kec. Sidemen, Kabupaten Karangasem",BALI,80864.0,Indonesia,82266227546.0,,,-84.818.317,1.154.394.088,https://maps.google.com/?cid=0x0:0x9c0292549fd42af5,
hotel,hotel,GJ Guest House Tangkup Sidemen,"Tangkup, Kec. Sidemen, Kabupaten Karangasem, Bali 80864","Kec. Sidemen, Kabupaten Karangasem",BALI,80864.0,Indonesia,8123941064.0,,,-84.950.341,1.154.134.439,https://maps.google.com/?cid=0x0:0x5a00edf05de95c0d,
hotel,hotel,Ume Dukuh Home Sidemen,"GC6R+CHJ, Telaga Tawang, Kec. Sidemen, Kabupaten Karangasem, Bali","Kabupaten Karangasem, Bali",BALI,,Indonesia,81915840547.0,,,-8.488.906,1.154.413.939,https://maps.google.com/?cid=0x0:0x3c5b6e5ca50a151e,
hotel,hotel,Villa Rosita,"Jl. Pantai Tegal Besar, Negari, Kec. Banjarangkan, Kabupaten Klungkung, Bali 80572","Negari, Kec. Banjarangkan, Kabupaten Klungkung",BALI,80572.0,Indonesia,8990899011.0,,,-85.743.851,11.537.346,https://maps.google.com/?cid=0x0:0xb57f01ee76b62e3f,
hotel,hotel,Guest House Mona Bali,"C9PF+R3M, Negari, Kec. Banjarangkan, Kabupaten Klungkung, Bali 80752","Negari, Kec. Banjarangkan, Kabupaten Klungkung",BALI,80752.0,Indonesia,81337911116.0,,,-85.629.139,1.153.726.377,https://maps.google.com/?cid=0x0:0x1f040c4d7a02a014,
hotel,hotel,,,,BALI,,Indonesia,,,,,,https://maps.google.com/?cid=0x0:0x46ddbcb7d8c5ed86%7C/g/11bzpkq2b2%7Cid-ID,
hotel,hotel,Kori Maharani Villas Gianyar,"Jl. By Pass Jl. Prof. Dr. Ida Bagus Mantra, Tulikup, Kec. Gianyar, Kabupaten Gianyar, Bali","Kabupaten Gianyar, Bali",BALI,,Indonesia,3614791690.0,,,-8.573.694,11.536.348,https://maps.google.com/?cid=0x0:0x46ddbcb7d8c5ed86,
hotel,hotel,WakAsih,"Jl. Kenyeri No.1, Semarapura Kelod, Kec. Klungkung, Kabupaten Klungkung, Bali 80711","Semarapura Kelod, Kec. Klungkung, Kabupaten Klungkung",BALI,80711.0,Indonesia,8123858715.0,,,-85.420.198,1.153.991.679,https://maps.google.com/?cid=0x0:0x230010f81ccc35b0,
hotel,hotel,Natural View House  Restaurant - Sidemen,"GC6M+MMH, Wismakerta, Kec. Sidemen, Kabupaten Karangasem, Bali 80864","Wismakerta, Kec. Sidemen, Kabupaten Karangasem",BALI,80864.0,Indonesia,81246747107.0,,,-84.883.033,1.154.342.346,https://maps.google.com/?cid=0x0:0xda98f99363887cec,
hotel,hotel,Green Vanilla bungalows,"GC49+CC9, Unnamed Road, Tangkup, Kec. Sidemen, Kabupaten Karangasem, Bali 80864","Unnamed Road, Tangkup, Kec. Sidemen, Kabupaten Karangasem",BALI,80864.0,Indonesia,81916460086.0,,,-84.939.726,1.154.185.994,https://maps.google.com/?cid=0x0:0x6409a65f490284a9,
hotel,hotel,Lembah Wanna,"Timuhun, Kec. Banjarangkan, Kabupaten Klungkung, Bali 80752","Kec. Banjarangkan, Kabupaten Klungkung",BALI,80752.0,Indonesia,82322843759.0,,,-8.489.413,115.383.356,https://maps.google.com/?cid=0x0:0x8f02bbdd31dd480c,
hotel,hotel,Natya River Sidemen,"dinas, Jalan Pura Sari Jl. Banjar Nagi, Wismakerta, Kec. Sidemen, Kabupaten Karangasem, Bali 80864","Jalan Pura Sari Jl. Banjar Nagi, Wismakerta, Kec. Sidemen, Kabupaten Karangasem",BALI,80864.0,Indonesia,3665582086.0,,,-84.981.103,1.154.218.514,https://maps.google.com/?cid=0x0:0xc080e745b7011ece,
hotel,hotel,The Secret Spot Villas,"CCG9+5RQ, Jumpai, Kec. Klungkung, Kabupaten Klungkung, Bali","Kabupaten Klungkung, Bali",BALI,,Indonesia,82144360802.0,,,-85.745.396,1.154.196.087,https://maps.google.com/?cid=0x0:0x69f1a5ff41135d2,
hotel,hotel,,,,BALI,,Indonesia,,,,,,https://maps.google.com/?cid=0x0:0x69f1a5ff41135d2%7C/g/11f6chntnw%7Cid-ID,
hotel,hotel,Klungkung Tower Hotel,"Jl. Gn. Rinjani No.18, Semarapura Kelod Kangin, Kec. Klungkung, Kabupaten Klungkung, Bali 80761","Semarapura Kelod Kangin, Kec. Klungkung, Kabupaten Klungkung",BALI,80761.0,Indonesia,36621493.0,,,-85.351.155,1.154.054.222,https://maps.google.com/?cid=0x0:0xe827994197d692e5,
hotel,hotel,Bali 80712,"Kec. Klungkung, Kabupaten Klungkung, Bali","Kabupaten Klungkung, Bali",BALI,,Indonesia,,,,-85.253.594,1.153.919.027,https://maps.google.com/?cid=0x0:0x1c00c5eb6016bfa0,
hotel,hotel,Klungkung Tower Hotel,"Jl. Gn. Rinjani No.18, Semarapura Kelod Kangin, Kec. Klungkung, Bali, 80761","Semarapura Kelod Kangin, Kec. Klungkung",BALI,80761.0,Indonesia,2129707601.0,,,-85.305.829,1.154.070.024,https://maps.google.com/?cid=0x0:0x90b87983aa423eb8,
hotel,hotel,Cegeng Lestari Guesthouse,"Desa Cegeng Kertabuana, Kertha Buana, Sidemen, Karangasem Regency, Bali 80864","Kertha Buana, Sidemen, Karangasem Regency",BALI,80864.0,Indonesia,85936151761.0,,,-8.525.928,1.154.094.357,https://maps.google.com/?cid=0x0:0xdc156f47cffd6d3b,
hotel,hotel,KUBU BAKAS,"Unnamed Road, Bakas, Kec. Banjarangkan, Kabupaten Klungkung, Bali 80752","Bakas, Kec. Banjarangkan, Kabupaten Klungkung",BALI,80752.0,Indonesia,81338356744.0,,,-85.225.018,1.153.670.955,https://maps.google.com/?cid=0x0:0xdd6615f34ee7055f,
hotel,hotel,Telagamas Guest House,"Jalan Bakas Banjar Kangin Desa Bakas, Bakas, Kec. Banjarangkan, Kabupaten Klungkung, Bali 80752","Bakas, Kec. Banjarangkan, Kabupaten Klungkung",BALI,80752.0,Indonesia,81236205952.0,,,-85.204.662,1.153.679.962,https://maps.google.com/?cid=0x0:0x545e444b489ad72b,
hotel,hotel,Srinadi waterpark villa,"CCW7+C4H, Gelgel, Kec. Klungkung, Kabupaten Klungkung, Bali 80761","Gelgel, Kec. Klungkung, Kabupaten Klungkung",BALI,80761.0,Indonesia,,,,-85.537.044,1.154.129.631,https://maps.google.com/?cid=0x0:0x6351d76e4280e487,
hotel,hotel,Arsa Wayan Guest House,"Jalan Subak Bungsih No.4, Bakas, Kec. Banjarangkan, Kabupaten Klungkung, Bali 80752","Bakas, Kec. Banjarangkan, Kabupaten Klungkung",BALI,80752.0,Indonesia,8123927595.0,,,-85.220.728,1.153.635.163,https://maps.google.com/?cid=0x0:0xbdf3fc5b8423f740,
hotel,hotel,Taman Asta Gangga,"Jl. Bintang, Tangkup, Kec. Sidemen, Kabupaten Karangasem, Bali 80864","Tangkup, Kec. Sidemen, Kabupaten Karangasem",BALI,80864.0,Indonesia,81936960921.0,,,-84.938.844,1.154.176.996,https://maps.google.com/?cid=0x0:0x9f310b00ba6a0a89,
hotel,hotel,,,,BALI,,Indonesia,,,,,,https://maps.google.com/?cid=0x0:0x4a31eca9a50ae236%7C/g/1q67g9m84%7Cid-ID,
hotel,hotel,Hotel Gianyar,"Jl. Manik, Gianyar, Kec. Gianyar, Kabupaten Gianyar, Bali 80511","Gianyar, Kec. Gianyar, Kabupaten Gianyar",BALI,80511.0,Indonesia,361943239.0,,,-85.397.862,1.153.234.301,https://maps.google.com/?cid=0x0:0x4a31eca9a50ae236,
hotel,hotel,The River Island Bali,"Br klungah, Wismakerta, Kec. Sidemen, Kabupaten Karangasem, Bali 80864","Wismakerta, Kec. Sidemen, Kabupaten Karangasem",BALI,80864.0,Indonesia,82266227546.0,,,-84.818.317,1.154.394.088,https://maps.google.com/?cid=0x0:0x9c0292549fd42af5,
hotel,hotel,Green Vanilla bungalows,"GC49+CC9, Unnamed Road, Tangkup, Kec. Sidemen, Kabupaten Karangasem, Bali 80864","Unnamed Road, Tangkup, Kec. Sidemen, Kabupaten Karangasem",BALI,80864.0,Indonesia,81916460086.0,,,-84.939.726,1.154.185.994,https://maps.google.com/?cid=0x0:0x6409a65f490284a9,
hotel,hotel,GJ Guest House Tangkup Sidemen,"Tangkup, Kec. Sidemen, Kabupaten Karangasem, Bali 80864","Kec. Sidemen, Kabupaten Karangasem",BALI,80864.0,Indonesia,8123941064.0,,,-84.950.341,1.154.134.439,https://maps.google.com/?cid=0x0:0x5a00edf05de95c0d,
hotel,hotel,Lembah Wanna,"Timuhun, Kec. Banjarangkan, Kabupaten Klungkung, Bali 80752","Kec. Banjarangkan, Kabupaten Klungkung",BALI,80752.0,Indonesia,82322843759.0,,,-8.489.413,115.383.356,https://maps.google.com/?cid=0x0:0x8f02bbdd31dd480c,
hotel,hotel,Ume Dukuh Home Sidemen,"GC6R+CHJ, Telaga Tawang, Kec. Sidemen, Kabupaten Karangasem, Bali","Kabupaten Karangasem, Bali",BALI,,Indonesia,81915840547.0,,,-8.488.906,1.154.413.939,https://maps.google.com/?cid=0x0:0x3c5b6e5ca50a151e,
hotel,hotel,Guest House Mona Bali,"C9PF+R3M, Negari, Kec. Banjarangkan, Kabupaten Klungkung, Bali 80752","Negari, Kec. Banjarangkan, Kabupaten Klungkung",BALI,80752.0,Indonesia,81337911116.0,,,-85.629.139,1.153.726.377,https://maps.google.com/?cid=0x0:0x1f040c4d7a02a014,
hotel,hotel,Kori Maharani Villas Gianyar,"Jl. By Pass Jl. Prof. Dr. Ida Bagus Mantra, Tulikup, Kec. Gianyar, Kabupaten Gianyar, Bali","Kabupaten Gianyar, Bali",BALI,,Indonesia,3614791690.0,,,-8.573.694,11.536.348,https://maps.google.com/?cid=0x0:0x46ddbcb7d8c5ed86,
hotel,hotel,,,,BALI,,Indonesia,,,,,,https://maps.google.com/?cid=0x0:0x46ddbcb7d8c5ed86%7C/g/11bzpkq2b2%7Cid-ID,
hotel,hotel,Telagama Guest House,"F9F7+HGC, Jalan Raya Banjarangkan, Dusun Kangin, Bakas, Banjarangkan, Klungkung Regency, 80864","Jalan Raya Banjarangkan, Dusun Kangin, Bakas, Banjarangkan",BALI,80864.0,Indonesia,,,,-85.260.562,1.153.637.593,https://maps.google.com/?cid=0x0:0x311bcfb828133fb6,
hotel,hotel,Natya River Sidemen,"dinas, Jalan Pura Sari Jl. Banjar Nagi, Wismakerta, Kec. Sidemen, Kabupaten Karangasem, Bali 80864","Jalan Pura Sari Jl. Banjar Nagi, Wismakerta, Kec. Sidemen, Kabupaten Karangasem",BALI,80864.0,Indonesia,3665582086.0,,,-84.981.103,1.154.218.514,https://maps.google.com/?cid=0x0:0xc080e745b7011ece,
hotel,hotel,Asli Bali Villa,"Taman Bali, Kec. Bangli, Kabupaten Bangli, Bali 80614","Kec. Bangli, Kabupaten Bangli",BALI,80614.0,Indonesia,8123903421.0,,,-84.985.503,1.153.512.801,https://maps.google.com/?cid=0x0:0xa6106742f2f92982,
hotel,hotel,Natural View House  Restaurant - Sidemen,"GC6M+MMH, Wismakerta, Kec. Sidemen, Kabupaten Karangasem, Bali 80864","Wismakerta, Kec. Sidemen, Kabupaten Karangasem",BALI,80864.0,Indonesia,81246747107.0,,,-84.883.033,1.154.342.346,https://maps.google.com/?cid=0x0:0xda98f99363887cec,
hotel,hotel,,,,BALI,,Indonesia,,,,,,https://maps.google.com/?cid=0x0:0xa6106742f2f92982%7C/g/11c1xjbskt%7Cid-ID,
hotel,hotel,Medukuh point hill,"Jalan bukit sandag - klungah Jl. Wangsean - Klungah No.6, Wismakerta, Kec. Sidemen, Kabupaten Karangasem, Bali 80864","Wismakerta, Kec. Sidemen, Kabupaten Karangasem",BALI,80864.0,Indonesia,81222368529.0,,,-84.836.086,1.154.357.743,https://maps.google.com/?cid=0x0:0xde5e3bd81277e184,
hotel,hotel,Bali 80713,"Tihingan, Kec. Banjarangkan, Kabupaten Klungkung, Bali","Kabupaten Klungkung, Bali",BALI,,Indonesia,,,,-8.533.129,1.153.889.403,https://maps.google.com/?cid=0x0:0x1c00c5eb6016bfb0,
hotel,hotel,Klungkung Tower Hotel,"Jl. Gn. Rinjani No.18, Semarapura Kelod Kangin, Kec. Klungkung, Kabupaten Klungkung, Bali 80761","Semarapura Kelod Kangin, Kec. Klungkung, Kabupaten Klungkung",BALI,80761.0,Indonesia,36621493.0,,,-85.351.155,1.154.054.222,https://maps.google.com/?cid=0x0:0xe827994197d692e5,
hotel,hotel,Wyndham Tamansari Jivva Resort Bali,"Pantai Lepang, Jl. Subak Lepang No.16, Takmung, Kec. Banjarangkan, Kabupaten Klungkung, Bali 80752","Jl. Subak Lepang No.16, Takmung, Kec. Banjarangkan, Kabupaten Klungkung",BALI,80752.0,Indonesia,3665437988.0,,,-8.573.117,1.153.837.247,https://maps.google.com/?cid=0x0:0xbcf303c67e79ef2f,
hotel,hotel,Babakan Unda cottage,"Dekat, Semarapura Kelod Kangin, Kec. Klungkung, Kabupaten Klungkung, Bali 80761","Semarapura Kelod Kangin, Kec. Klungkung, Kabupaten Klungkung",BALI,80761.0,Indonesia,85183091692.0,,,-85.306.979,1.154.088.042,https://maps.google.com/?cid=0x0:0xf8d46b79b1244da6,
hotel,hotel,Cegeng Lestari Guesthouse,"Desa Cegeng Kertabuana, Kertha Buana, Sidemen, Karangasem Regency, Bali 80864","Kertha Buana, Sidemen, Karangasem Regency",BALI,80864.0,Indonesia,85936151761.0,,,-8.525.928,1.154.094.357,https://maps.google.com/?cid=0x0:0xdc156f47cffd6d3b,
hotel,hotel,Klungkung Tower Hotel,"Jl. Gn. Rinjani No.18, Semarapura Kelod Kangin, Kec. Klungkung, Bali, 80761","Semarapura Kelod Kangin, Kec. Klungkung",BALI,80761.0,Indonesia,2129707601.0,,,-85.305.829,1.154.070.024,https://maps.google.com/?cid=0x0:0x90b87983aa423eb8,
hotel,hotel,KUBU BAKAS,"Unnamed Road, Bakas, Kec. Banjarangkan, Kabupaten Klungkung, Bali 80752","Bakas, Kec. Banjarangkan, Kabupaten Klungkung",BALI,80752.0,Indonesia,81338356744.0,,,-85.225.018,1.153.670.955,https://maps.google.com/?cid=0x0:0xdd6615f34ee7055f,
hotel,hotel,Telagamas Guest House,"Jalan Bakas Banjar Kangin Desa Bakas, Bakas, Kec. Banjarangkan, Kabupaten Klungkung, Bali 80752","Bakas, Kec. Banjarangkan, Kabupaten Klungkung",BALI,80752.0,Indonesia,81236205952.0,,,-85.204.662,1.153.679.962,https://maps.google.com/?cid=0x0:0x545e444b489ad72b,
hotel,hotel,Srinadi waterpark villa,"CCW7+C4H, Gelgel, Kec. Klungkung, Kabupaten Klungkung, Bali 80761","Gelgel, Kec. Klungkung, Kabupaten Klungkung",BALI,80761.0,Indonesia,,,,-85.537.044,1.154.129.631,https://maps.google.com/?cid=0x0:0x6351d76e4280e487,
hotel,hotel,Arsa Wayan Guest House,"Jalan Subak Bungsih No.4, Bakas, Kec. Banjarangkan, Kabupaten Klungkung, Bali 80752","Bakas, Kec. Banjarangkan, Kabupaten Klungkung",BALI,80752.0,Indonesia,8123927595.0,,,-85.220.728,1.153.635.163,https://maps.google.com/?cid=0x0:0xbdf3fc5b8423f740,
hotel,hotel,Guest House Mona Bali,"C9PF+R3M, Negari, Kec. Banjarangkan, Kabupaten Klungkung, Bali 80752","Negari, Kec. Banjarangkan, Kabupaten Klungkung",BALI,80752.0,Indonesia,81337911116.0,,,-85.629.139,1.153.726.377,https://maps.google.com/?cid=0x0:0x1f040c4d7a02a014,
hotel,hotel,Kori Maharani Villas Gianyar,"Jl. By Pass Jl. Prof. Dr. Ida Bagus Mantra, Tulikup, Kec. Gianyar, Kabupaten Gianyar, Bali","Kabupaten Gianyar, Bali",BALI,,Indonesia,3614791690.0,,,-8.573.694,11.536.348,https://maps.google.com/?cid=0x0:0x46ddbcb7d8c5ed86,
hotel,hotel,,,,BALI,,Indonesia,,,,,,https://maps.google.com/?cid=0x0:0x46ddbcb7d8c5ed86%7C/g/11bzpkq2b2%7Cid-ID,
hotel,hotel,Taman Asta Gangga,"Jl. Bintang, Tangkup, Kec. Sidemen, Kabupaten Karangasem, Bali 80864","Tangkup, Kec. Sidemen, Kabupaten Karangasem",BALI,80864.0,Indonesia,81936960921.0,,,-84.938.844,1.154.176.996,https://maps.google.com/?cid=0x0:0x9f310b00ba6a0a89,
hotel,hotel,Villa Rosita,"Jl. Pantai Tegal Besar, Negari, Kec. Banjarangkan, Kabupaten Klungkung, Bali 80572","Negari, Kec. Banjarangkan, Kabupaten Klungkung",BALI,80572.0,Indonesia,8990899011.0,,,-85.743.851,11.537.346,https://maps.google.com/?cid=0x0:0xb57f01ee76b62e3f,
hotel,hotel,Telagama Guest House,"F9F7+HGC, Jalan Raya Banjarangkan, Dusun Kangin, Bakas, Banjarangkan, Klungkung Regency, 80864","Jalan Raya Banjarangkan, Dusun Kangin, Bakas, Banjarangkan",BALI,80864.0,Indonesia,,,,-85.260.562,1.153.637.593,https://maps.google.com/?cid=0x0:0x311bcfb828133fb6,
hotel,hotel,Lembah Wanna,"Timuhun, Kec. Banjarangkan, Kabupaten Klungkung, Bali 80752","Kec. Banjarangkan, Kabupaten Klungkung",BALI,80752.0,Indonesia,82322843759.0,,,-8.489.413,115.383.356,https://maps.google.com/?cid=0x0:0x8f02bbdd31dd480c,
hotel,hotel,Asli Bali Villa,"Taman Bali, Kec. Bangli, Kabupaten Bangli, Bali 80614","Kec. Bangli, Kabupaten Bangli",BALI,80614.0,Indonesia,8123903421.0,,,-84.985.503,1.153.512.801,https://maps.google.com/?cid=0x0:0xa6106742f2f92982,
hotel,hotel,Green Vanilla bungalows,"GC49+CC9, Unnamed Road, Tangkup, Kec. Sidemen, Kabupaten Karangasem, Bali 80864","Unnamed Road, Tangkup, Kec. Sidemen, Kabupaten Karangasem",BALI,80864.0,Indonesia,81916460086.0,,,-84.939.726,1.154.185.994,https://maps.google.com/?cid=0x0:0x6409a65f490284a9,
hotel,hotel,,,,BALI,,Indonesia,,,,,,https://maps.google.com/?cid=0x0:0xa6106742f2f92982%7C/g/11c1xjbskt%7Cid-ID,
hotel,hotel,New Horizon Rice Fields Beach Villas in Bali,"C9G8+XFX Prof. Dr. Ida Bagus, Jl. Bypass Ngurah Rai, Tulikup, Gianyar, Gianyar Regency, Bali 80852","Jl. Bypass Ngurah Rai, Tulikup, Gianyar, Gianyar Regency",BALI,80852.0,Indonesia,4536950111.0,,,-8.572.503,11.536.624,https://maps.google.com/?cid=0x0:0xa481ff8537d76274,
hotel,hotel,GJ Guest House Tangkup Sidemen,"Tangkup, Kec. Sidemen, Kabupaten Karangasem, Bali 80864","Kec. Sidemen, Kabupaten Karangasem",BALI,80864.0,Indonesia,8123941064.0,,,-84.950.341,1.154.134.439,https://maps.google.com/?cid=0x0:0x5a00edf05de95c0d,
hotel,hotel,WakAsih,"Jl. Kenyeri No.1, Semarapura Kelod, Kec. Klungkung, Kabupaten Klungkung, Bali 80711","Semarapura Kelod, Kec. Klungkung, Kabupaten Klungkung",BALI,80711.0,Indonesia,8123858715.0,,,-85.420.198,1.153.991.679,https://maps.google.com/?cid=0x0:0x230010f81ccc35b0,
hotel,hotel,Vision Villa Resort,"Jl. Pantai Masceti, Medahan, Kec. Blahbatuh, Kabupaten Gianyar, Bali 80581","Medahan, Kec. Blahbatuh, Kabupaten Gianyar",BALI,80581.0,Indonesia,361950720.0,,,-85.762.894,1.153.381.928,https://maps.google.com/?cid=0x0:0x1480c4053170c894,
hotel,hotel,Natya River Sidemen,"dinas, Jalan Pura Sari Jl. Banjar Nagi, Wismakerta, Kec. Sidemen, Kabupaten Karangasem, Bali 80864","Jalan Pura Sari Jl. Banjar Nagi, Wismakerta, Kec. Sidemen, Kabupaten Karangasem",BALI,80864.0,Indonesia,3665582086.0,,,-84.981.103,1.154.218.514,https://maps.google.com/?cid=0x0:0xc080e745b7011ece,
hotel,hotel,Klungkung Tower Hotel,"Jl. Gn. Rinjani No.18, Semarapura Kelod Kangin, Kec. Klungkung, Kabupaten Klungkung, Bali 80761","Semarapura Kelod Kangin, Kec. Klungkung, Kabupaten Klungkung",BALI,80761.0,Indonesia,36621493.0,,,-85.351.155,1.154.054.222,https://maps.google.com/?cid=0x0:0xe827994197d692e5,
hotel,hotel,Semarapura,"Kec. Klungkung, Kabupaten Klungkung, Bali","Kabupaten Klungkung, Bali",BALI,,Indonesia,,,,-85.388.252,115.402.367,https://maps.google.com/?cid=0x0:0x4030bfbca7d2ed0,
hotel,hotel,Babakan Unda cottage,"Dekat, Semarapura Kelod Kangin, Kec. Klungkung, Kabupaten Klungkung, Bali 80761","Semarapura Kelod Kangin, Kec. Klungkung, Kabupaten Klungkung",BALI,80761.0,Indonesia,85183091692.0,,,-85.306.979,1.154.088.042,https://maps.google.com/?cid=0x0:0xf8d46b79b1244da6,
hotel,hotel,Wyndham Tamansari Jivva Resort Bali,"Pantai Lepang, Jl. Subak Lepang No.16, Takmung, Kec. Banjarangkan, Kabupaten Klungkung, Bali 80752","Jl. Subak Lepang No.16, Takmung, Kec. Banjarangkan, Kabupaten Klungkung",BALI,80752.0,Indonesia,3665437988.0,,,-8.573.117,1.153.837.247,https://maps.google.com/?cid=0x0:0xbcf303c67e79ef2f,
hotel,hotel,Cegeng Lestari Guesthouse,"Desa Cegeng Kertabuana, Kertha Buana, Sidemen, Karangasem Regency, Bali 80864","Kertha Buana, Sidemen, Karangasem Regency",BALI,80864.0,Indonesia,85936151761.0,,,-8.525.928,1.154.094.357,https://maps.google.com/?cid=0x0:0xdc156f47cffd6d3b,
hotel,hotel,Srinadi waterpark villa,"CCW7+C4H, Gelgel, Kec. Klungkung, Kabupaten Klungkung, Bali 80761","Gelgel, Kec. Klungkung, Kabupaten Klungkung",BALI,80761.0,Indonesia,,,,-85.537.044,1.154.129.631,https://maps.google.com/?cid=0x0:0x6351d76e4280e487,
hotel,hotel,Villa Rosita,"Jl. Pantai Tegal Besar, Negari, Kec. Banjarangkan, Kabupaten Klungkung, Bali 80572","Negari, Kec. Banjarangkan, Kabupaten Klungkung",BALI,80572.0,Indonesia,8990899011.0,,,-85.743.851,11.537.346,https://maps.google.com/?cid=0x0:0xb57f01ee76b62e3f,
hotel,hotel,Guest House Mona Bali,"C9PF+R3M, Negari, Kec. Banjarangkan, Kabupaten Klungkung, Bali 80752","Negari, Kec. Banjarangkan, Kabupaten Klungkung",BALI,80752.0,Indonesia,81337911116.0,,,-85.629.139,1.153.726.377,https://maps.google.com/?cid=0x0:0x1f040c4d7a02a014,
hotel,hotel,Klungkung Tower Hotel,"Jl. Gn. Rinjani No.18, Semarapura Kelod Kangin, Kec. Klungkung, Bali, 80761","Semarapura Kelod Kangin, Kec. Klungkung",BALI,80761.0,Indonesia,2129707601.0,,,-85.305.829,1.154.070.024,https://maps.google.com/?cid=0x0:0x90b87983aa423eb8,
hotel,hotel,Kori Maharani Villas Gianyar,"Jl. By Pass Jl. Prof. Dr. Ida Bagus Mantra, Tulikup, Kec. Gianyar, Kabupaten Gianyar, Bali","Kabupaten Gianyar, Bali",BALI,,Indonesia,3614791690.0,,,-8.573.694,11.536.348,https://maps.google.com/?cid=0x0:0x46ddbcb7d8c5ed86,
hotel,hotel,,,,BALI,,Indonesia,,,,,,https://maps.google.com/?cid=0x0:0x46ddbcb7d8c5ed86%7C/g/11bzpkq2b2%7Cid-ID,
hotel,hotel,KUBU BAKAS,"Unnamed Road, Bakas, Kec. Banjarangkan, Kabupaten Klungkung, Bali 80752","Bakas, Kec. Banjarangkan, Kabupaten Klungkung",BALI,80752.0,Indonesia,81338356744.0,,,-85.225.018,1.153.670.955,https://maps.google.com/?cid=0x0:0xdd6615f34ee7055f,
hotel,hotel,Taman Asta Gangga,"Jl. Bintang, Tangkup, Kec. Sidemen, Kabupaten Karangasem, Bali 80864","Tangkup, Kec. Sidemen, Kabupaten Karangasem",BALI,80864.0,Indonesia,81936960921.0,,,-84.938.844,1.154.176.996,https://maps.google.com/?cid=0x0:0x9f310b00ba6a0a89,
hotel,hotel,,,,BALI,,Indonesia,,,,,,https://maps.google.com/?cid=0x0:0x69f1a5ff41135d2%7C/g/11f6chntnw%7Cid-ID,
hotel,hotel,The Secret Spot Villas,"CCG9+5RQ, Jumpai, Kec. Klungkung, Kabupaten Klungkung, Bali","Kabupaten Klungkung, Bali",BALI,,Indonesia,82144360802.0,,,-85.745.396,1.154.196.087,https://maps.google.com/?cid=0x0:0x69f1a5ff41135d2,
hotel,hotel,Telagamas Guest House,"Jalan Bakas Banjar Kangin Desa Bakas, Bakas, Kec. Banjarangkan, Kabupaten Klungkung, Bali 80752","Bakas, Kec. Banjarangkan, Kabupaten Klungkung",BALI,80752.0,Indonesia,81236205952.0,,,-85.204.662,1.153.679.962,https://maps.google.com/?cid=0x0:0x545e444b489ad72b,
hotel,hotel,New Horizon Rice Fields Beach Villas in Bali,"C9G8+XFX Prof. Dr. Ida Bagus, Jl. Bypass Ngurah Rai, Tulikup, Gianyar, Gianyar Regency, Bali 80852","Jl. Bypass Ngurah Rai, Tulikup, Gianyar, Gianyar Regency",BALI,80852.0,Indonesia,4536950111.0,,,-8.572.503,11.536.624,https://maps.google.com/?cid=0x0:0xa481ff8537d76274,
hotel,hotel,Arsa Wayan Guest House,"Jalan Subak Bungsih No.4, Bakas, Kec. Banjarangkan, Kabupaten Klungkung, Bali 80752","Bakas, Kec. Banjarangkan, Kabupaten Klungkung",BALI,80752.0,Indonesia,8123927595.0,,,-85.220.728,1.153.635.163,https://maps.google.com/?cid=0x0:0xbdf3fc5b8423f740,
hotel,hotel,Puri Pondok Dawa Villa,"FC4X+857, Pesinggahan, Kec. Dawan, Kabupaten Klungkung, Bali 80761","Pesinggahan, Kec. Dawan, Kabupaten Klungkung",BALI,80761.0,Indonesia,36621514.0,,,-85.442.174,1.154.479.247,https://maps.google.com/?cid=0x0:0x55c2fed6939cf8c0,
hotel,hotel,Ume Dukuh Home Sidemen,"GC6R+CHJ, Telaga Tawang, Kec. Sidemen, Kabupaten Karangasem, Bali","Kabupaten Karangasem, Bali",BALI,,Indonesia,81915840547.0,,,-8.488.906,1.154.413.939,https://maps.google.com/?cid=0x0:0x3c5b6e5ca50a151e,
hotel,hotel,,,,BALI,,Indonesia,,,,,,https://maps.google.com/?cid=0x0:0x55c2fed6939cf8c0%7C/g/11b6p94kpv%7Cid-ID,
hotel,hotel,GJ Guest House Tangkup Sidemen,"Tangkup, Kec. Sidemen, Kabupaten Karangasem, Bali 80864","Kec. Sidemen, Kabupaten Karangasem",BALI,80864.0,Indonesia,8123941064.0,,,-84.950.341,1.154.134.439,https://maps.google.com/?cid=0x0:0x5a00edf05de95c0d,
hotel,hotel,Gara Gara Sea View,"CCQW+GVR, Gg. Griya, Purna Asrham, Kec. Dawan, Kabupaten Klungkung, Bali 80771","Gg. Griya, Purna Asrham, Kec. Dawan, Kabupaten Klungkung",BALI,80771.0,Indonesia,85781496994.0,,,-85.611.335,1.154.471.384,https://maps.google.com/?cid=0x0:0x167d30d8cc8eca03,
hotel,hotel,WakAsih,"Jl. Kenyeri No.1, Semarapura Kelod, Kec. Klungkung, Kabupaten Klungkung, Bali 80711","Semarapura Kelod, Kec. Klungkung, Kabupaten Klungkung",BALI,80711.0,Indonesia,8123858715.0,,,-85.420.198,1.153.991.679,https://maps.google.com/?cid=0x0:0x230010f81ccc35b0,
hotel,hotel,Green Vanilla bungalows,"GC49+CC9, Unnamed Road, Tangkup, Kec. Sidemen, Kabupaten Karangasem, Bali 80864","Unnamed Road, Tangkup, Kec. Sidemen, Kabupaten Karangasem",BALI,80864.0,Indonesia,81916460086.0,,,-84.939.726,1.154.185.994,https://maps.google.com/?cid=0x0:0x6409a65f490284a9,
hotel,hotel,Janur Hidden House,"Semarapura Kelod Kangin, Kec. Klungkung, Kabupaten Klungkung, Bali","Kabupaten Klungkung, Bali",BALI,,Indonesia,85239105008.0,,,-85.338.989,115.408.887,https://maps.google.com/?cid=0x0:0x6c5b589a234b21cb,
hotel,hotel,Natya River Sidemen,"dinas, Jalan Pura Sari Jl. Banjar Nagi, Wismakerta, Kec. Sidemen, Kabupaten Karangasem, Bali 80864","Jalan Pura Sari Jl. Banjar Nagi, Wismakerta, Kec. Sidemen, Kabupaten Karangasem",BALI,80864.0,Indonesia,3665582086.0,,,-84.981.103,1.154.218.514,https://maps.google.com/?cid=0x0:0xc080e745b7011ece,
hotel,hotel,Kelingking Sunset Point Hotel  Spa,"Jl. Pantai Kelingking, Karang Dawa, Bunga Mekar, Kec. Nusa Penida, Kabupaten Klungkung, Bali 80771","Karang Dawa, Bunga Mekar, Kec. Nusa Penida, Kabupaten Klungkung",BALI,80771.0,Indonesia,82236774814.0,,,-87.505.795,1.154.765.976,https://maps.google.com/?cid=0x0:0x2ecc6b2d3dcfbac5,
hotel,hotel,Bali 80771,"Kec. Nusa Penida, Kabupaten Klungkung, Bali","Kabupaten Klungkung, Bali",BALI,,Indonesia,,,,-8.727.807,1.155.444.231,https://maps.google.com/?cid=0x0:0x1c00c5eb6016c020,
hotel,hotel,Pandawa Resort And Spa Seaview,"Jl. Batumulapan, Batununggul, Kec. Nusa Penida, Kabupaten Klungkung, Bali 80771","Batununggul, Kec. Nusa Penida, Kabupaten Klungkung",BALI,80771.0,Indonesia,81246297125.0,,,-86.802.782,1.155.731.708,https://maps.google.com/?cid=0x0:0xd1e2ae3ccc6125ae,
hotel,hotel,Cave Beach Bungalow Nusa Penida,"Pura Giri Putri, Jl. Suana Karang Sari, Suana, Kec. Nusa Penida, Kabupaten Klungkung, Bali 80771","Jl. Suana Karang Sari, Suana, Kec. Nusa Penida, Kabupaten Klungkung",BALI,80771.0,Indonesia,81339163939.0,,,-87.079.916,1.155.861.129,https://maps.google.com/?cid=0x0:0xfb23cef6e9195bbf,
hotel,hotel,Mambo Hill Hotel and Resort Nusa Penida | Boutique Hotel in Nusa Penida,"Banjar Adegan, Ped, Kec. Nusa Penida, Kabupaten Klungkung, Bali 80771","Ped, Kec. Nusa Penida, Kabupaten Klungkung",BALI,80771.0,Indonesia,81337257225.0,,,-86.835.611,1.155.020.458,https://maps.google.com/?cid=0x0:0xb636b0b50c1a57b4,
hotel,hotel,Ring Sameton Resort Hotel,"Jalan Raya Ped-Buyuk, Br. Bodong, Ped,, Nusa Penida Island, Ped, Kec. Nusa Penida, Kabupaten Klungkung, Bali 80771","Br. Bodong, Ped,, Nusa Penida Island, Ped, Kec. Nusa Penida, Kabupaten Klungkung",BALI,80771.0,Indonesia,3665581521.0,,,-86.777.871,1.155.138.026,https://maps.google.com/?cid=0x0:0x3f670ff225dbdf08,
hotel,hotel,,,,BALI,,Indonesia,,,,,,https://maps.google.com/?cid=0x0:0x3f670ff225dbdf08%7C/g/12hkxg3kt%7Cid-ID,
hotel,hotel,Dipenida Bali Villa,"Jl. Nusa Indah, Kutampi, Kec. Nusa Penida, Kabupaten Klungkung, Bali 80771","Kutampi, Kec. Nusa Penida, Kabupaten Klungkung",BALI,80771.0,Indonesia,81933028139.0,,,-86.744.312,115.549.409,https://maps.google.com/?cid=0x0:0xea7de967dc333231,
hotel,hotel,npdc hotel,"Sakti, Kec. Nusa Penida, Kabupaten Klungkung, Bali 80771","Kec. Nusa Penida, Kabupaten Klungkung",BALI,80771.0,Indonesia,85953817776.0,,,-86.941.125,1.154.928.802,https://maps.google.com/?cid=0x0:0xb921e0e831cde10,
hotel,hotel,Road Beach Homestay,"Ped, Kec. Nusa Penida, Kabupaten Klungkung, Bali 80771","Kec. Nusa Penida, Kabupaten Klungkung",BALI,80771.0,Indonesia,85338083648.0,,,-86.726.598,1.155.016.021,https://maps.google.com/?cid=0x0:0x720edff44c3d9b8d,
hotel,hotel,Semabu Hills Hotel Nusa Penida,"Jl. Raya Toya Pakeh - Ped, Dusun Sebunibus, Sakti, Kec. Nusa Penida, Kabupaten Klungkung, Bali 80771","Dusun Sebunibus, Sakti, Kec. Nusa Penida, Kabupaten Klungkung",BALI,80771.0,Indonesia,3616204400.0,,,-86.878.799,1.154.928.259,https://maps.google.com/?cid=0x0:0x7757d3bddc8989a,
hotel,hotel,Mambo Beach Hotel and Resort Nusa Penida | Beachfront Dive Resort in Nusa Penida,"Jalan Ped - Buyuk, Ped, Kec. Nusa Penida, Kabupaten Klungkung, Bali 80771","Ped, Kec. Nusa Penida, Kabupaten Klungkung",BALI,80771.0,Indonesia,81337257225.0,,,-86.726.947,1.155.006.619,https://maps.google.com/?cid=0x0:0x4f24d1032dfd4a2d,
hotel,hotel,,,,BALI,,Indonesia,,,,,,https://maps.google.com/?cid=0x0:0x7757d3bddc8989a%7C/g/11c713k_rx%7Cid-ID,
hotel,hotel,mantacottage seaview plus,"7HXM+V96, song cang street, nusapenida, Batununggul, klungkung, Klungkung Regency, Bali 80771","song cang street, nusapenida, Batununggul, klungkung, Klungkung Regency",BALI,80771.0,Indonesia,81246448258.0,,,-87.003.314,1.155.833.863,https://maps.google.com/?cid=0x0:0x56fa9cb6e6612b66,
hotel,hotel,Sea Terras Suite and Luxury,"Jl. Batumulapan, Batununggul, Kec. Nusa Penida, Kabupaten Klungkung, Bali 80771","Batununggul, Kec. Nusa Penida, Kabupaten Klungkung",BALI,80771.0,Indonesia,82179853674.0,,,-8.685.283,1.155.777.456,https://maps.google.com/?cid=0x0:0x13d52e6732192575,
hotel,hotel,The Penida Project Hostel,"Penida Project, Jl. Panaonan, Pendem, Ped, Kec. Nusa Penida, Kabupaten Klungkung, Bali 80771","Jl. Panaonan, Pendem, Ped, Kec. Nusa Penida, Kabupaten Klungkung",BALI,80771.0,Indonesia,,,,-86.956.422,115.520.822,https://maps.google.com/?cid=0x0:0xb5cc472281993aa4,
hotel,hotel,Kaylas Hill Resort,"Jalan Grya Purna Ashram, Kutampi Kaler, Kec. Nusa Penida, Kabupaten Klungkung, Bali 80771","Kutampi Kaler, Kec. Nusa Penida, Kabupaten Klungkung",BALI,80771.0,Indonesia,81327706518.0,,,-86.782.988,1.155.475.068,https://maps.google.com/?cid=0x0:0xc121f5e0033455f6,
hotel,hotel,Boga segara,"8H6H+VV4, Batununggul, Kec. Nusa Penida, Kabupaten Klungkung, Bali 80771","Batununggul, Kec. Nusa Penida, Kabupaten Klungkung",BALI,80771.0,Indonesia,87866253880.0,,,-86.878.552,1.155.796.889,https://maps.google.com/?cid=0x0:0xbc98b4ebb2437da6,
hotel,hotel,Juan Beach Bungalow,"Suana, Kec. Nusa Penida, Kabupaten Klungkung, Bali 80771","Kec. Nusa Penida, Kabupaten Klungkung",BALI,80771.0,Indonesia,,,,-87.060.686,1.155.847.144,https://maps.google.com/?cid=0x0:0x13001d27e9dbb2dc,
hotel,hotel,Cemara beachfront nusa penida,"Jl. Batumulapan, Batununggul, Kec. Nusa Penida, Kabupaten Klungkung, Bali 80771","Batununggul, Kec. Nusa Penida, Kabupaten Klungkung",BALI,80771.0,Indonesia,81236714726.0,,,-86.782.163,1.155.722.328,https://maps.google.com/?cid=0x0:0x4abf09c1d266396d,
hotel,hotel,Nusa Majesty Bungalow,"Jl. Nusa Indah No.53, Kutampi Kaler, Kec. Nusa Penida, Kabupaten Klungkung, Bali 80771","Kutampi Kaler, Kec. Nusa Penida, Kabupaten Klungkung",BALI,80771.0,Indonesia,81339376719.0,,,-8.674.109,1.155.505.722,https://maps.google.com/?cid=0x0:0x23472c6367d0382f,
hotel,hotel,SENTULAN GARDEN VILLA,"Bunga Mekar, Kec. Nusa Penida, Kabupaten Klungkung, Bali 80771","Kec. Nusa Penida, Kabupaten Klungkung",BALI,80771.0,Indonesia,82147740007.0,,,-87.463.218,1.154.913.213,https://maps.google.com/?cid=0x0:0x85d418ba2a4b6e0c,
hotel,hotel,SemayaOne Hotel  Beach Club,"Jl. Raya Kutampi, Kutampi Kaler, Kec. Nusa Penida, Kabupaten Klungkung, Bali 80771","Kutampi Kaler, Kec. Nusa Penida, Kabupaten Klungkung",BALI,80771.0,Indonesia,81999063034.0,,,-86.747.966,115.548.105,https://maps.google.com/?cid=0x0:0xa7118ea1c9dfdf4b,
hotel,hotel,Annaya House,"Kutampi Kaler, Kec. Nusa Penida, Kabupaten Klungkung, Bali 80771","Kec. Nusa Penida, Kabupaten Klungkung",BALI,80771.0,Indonesia,82146446532.0,,,-87.165.583,1.155.455.184,https://maps.google.com/?cid=0x0:0xe319543ca1f8c650,
hotel,hotel,kalpataru Cottage Nusapenida,"Jl. Batumulapan, Batununggul, Kec. Nusa Penida, Kabupaten Klungkung, Bali 80771","Batununggul, Kec. Nusa Penida, Kabupaten Klungkung",BALI,80771.0,Indonesia,81916430525.0,,,-86.970.362,1.155.824.075,https://maps.google.com/?cid=0x0:0xffe36e281c9141b3,
hotel,hotel,Kesari Glory Hotel,"Kutampi Kaler, Kec. Nusa Penida, Kabupaten Klungkung, Bali 80771","Kec. Nusa Penida, Kabupaten Klungkung",BALI,80771.0,Indonesia,82145009745.0,,,-86.796.203,1.155.532.611,https://maps.google.com/?cid=0x0:0xe50476e476dd6874,
hotel,hotel,Arta Loka Hotel  Villa and Restaurant,"Jalan Raya Banjar Behu, Bunga Mekar, Kec. Nusa Penida, Kabupaten Klungkung, Bali 80771","Bunga Mekar, Kec. Nusa Penida, Kabupaten Klungkung",BALI,80771.0,Indonesia,81212979681.0,,,-87.344.471,1.154.984.432,https://maps.google.com/?cid=0x0:0x454f5346bcefe9e9,
hotel,hotel,Nusapenida Pini Sentana,"6H97+P5C, Sekartaji, Kec. Nusa Penida, Kabupaten Klungkung, Bali 80771","Sekartaji, Kec. Nusa Penida, Kabupaten Klungkung",BALI,80771.0,Indonesia,,,,-87.818.183,1.155.631.317,https://maps.google.com/?cid=0x0:0x2ac9e7b2ec45f541,
hotel,Hotel bintang 3,Melati guest house,"7G8V+GHQ, Jl. Raya Salang, Batukandik, Kec. Nusa Penida, Kabupaten Klungkung, Bali 80771","Jl. Raya Salang, Batukandik, Kec. Nusa Penida, Kabupaten Klungkung",BALI,80771.0,Indonesia,82195251141.0,,,-87.335.274,115.543.981,https://maps.google.com/?cid=0x0:0x2ae2494457dbf666,
restaurant,restaurant,Bali 80752,"Kec. Banjarangkan, Kabupaten Klungkung, Bali","Kabupaten Klungkung, Bali",BALI,,Indonesia,,,,-8.512.833,1.153.726.469,https://maps.google.com/?cid=0x0:0x1c00c5eb6016c000,
restaurant,Rumah Makan,ACK BANJARANGKAN,"C9XF+V6J, Tusan, Kec. Banjarangkan, Kabupaten Klungkung, Bali 80752","Tusan, Kec. Banjarangkan, Kabupaten Klungkung",BALI,80752.0,Indonesia,85941911873.0,,,-85.502.825,1.153.730.244,https://maps.google.com/?cid=0x0:0xc6d115276c3171de,
restaurant,Restoran,Warung D' Carik Nyalian,"Jl. Raya Desa Nyalian, Nyalian, Kec. Banjarangkan, Kabupaten Klungkung, Bali 80752","Nyalian, Kec. Banjarangkan, Kabupaten Klungkung",BALI,80752.0,Indonesia,81239691192.0,,,-85.093.425,1.153.653.271,https://maps.google.com/?cid=0x0:0x1467a05c5c92f7ed,
restaurant,Jawa,Warung Secret Aan,"Aan, Jalan Pura Dalem Setra Kelod, Desa Kecamatan, Aan, Kec. Banjarangkan, Kabupaten Klungkung, Bali 80752","Jalan Pura Dalem Setra Kelod, Desa Kecamatan, Aan, Kec. Banjarangkan, Kabupaten Klungkung",BALI,80752.0,Indonesia,85792821748.0,,,-85.139.987,1.153.842.515,https://maps.google.com/?cid=0x0:0x37655977821d6f9b,
restaurant,restaurant,KUBU BAKAS,"Unnamed Road, Bakas, Kec. Banjarangkan, Kabupaten Klungkung, Bali 80752","Bakas, Kec. Banjarangkan, Kabupaten Klungkung",BALI,80752.0,Indonesia,81338356744.0,,,-85.225.018,1.153.670.955,https://maps.google.com/?cid=0x0:0xdd6615f34ee7055f,
restaurant,Restoran,D’Warung,"Nyalian, Jl. Bakas, Kabupaten Klungkung, Bali 80752","Jl. Bakas, Kabupaten Klungkung",BALI,80752.0,Indonesia,85792869863.0,,,-85.294.211,1.153.657.569,https://maps.google.com/?cid=0x0:0xf6d251c3088ba09f,
restaurant,Indonesia,The Cave - Koripan,"Cagar Budaya Goa Jepang, Jl. Raya Banjarangkan, Kabupaten Klungkung, Bali 80752","Jl. Raya Banjarangkan, Kabupaten Klungkung",BALI,80752.0,Indonesia,817370604.0,,,-85.527.255,1.153.815.793,https://maps.google.com/?cid=0x0:0xc02b770efe58ac03,
restaurant,Rumah Makan,Wr. Pondok Mina Mesari (PMM),"sebelah timur Indomaret, Jl. Raya Banjarangkan, Banjarangkan, Kec. Banjarangkan, Kabupaten Klungkung, Bali 80752","Jl. Raya Banjarangkan, Banjarangkan, Kec. Banjarangkan, Kabupaten Klungkung",BALI,80752.0,Indonesia,85738091909.0,,,-85.496.087,1.153.689.193,https://maps.google.com/?cid=0x0:0x6cce8bf1cd09e49a,
restaurant,Padang,Nasi Randang - Banjarangkan,"Jl. Raya Banjarangkan, Banjarangkan, Kec. Banjarangkan, Kabupaten Klungkung, Bali 80752","Banjarangkan, Kec. Banjarangkan, Kabupaten Klungkung",BALI,80752.0,Indonesia,81270438223.0,,,-85.497.138,1.153.694.897,https://maps.google.com/?cid=0x0:0x902f3225941e3f72,
restaurant,Rumah Makan,WARUNG SARI JAYA KLUNGKUNG,"sebelah perempatan Lepang, Jl. By Pass Jl. Prof. Dr. Ida Bagus Mantra, Takmung, Kec. Banjarangkan, Kabupaten Klungkung, Bali","Kabupaten Klungkung, Bali",BALI,,Indonesia,81337505300.0,,,-85.687.729,1.153.832.617,https://maps.google.com/?cid=0x0:0xace8af910ae4760a,
restaurant,Rumah Makan,Warung Resta,"F9XG+72X, Jl. Raya Aan, Aan, Kec. Banjarangkan, Kabupaten Klungkung, Bali 80752","Jl. Raya Aan, Aan, Kec. Banjarangkan, Kabupaten Klungkung",BALI,80752.0,Indonesia,8311411444.0,,,-85.017.583,1.153.751.242,https://maps.google.com/?cid=0x0:0x2e080828e6b95e7,
restaurant,Rumah Makan,Depot yan botak,"Timuhun, Kec. Banjarangkan, Kabupaten Klungkung, Bali 80752","Kec. Banjarangkan, Kabupaten Klungkung",BALI,80752.0,Indonesia,83114815553.0,,,-847.943,1.153.818.951,https://maps.google.com/?cid=0x0:0x14aeb4f4d26499ea,
restaurant,Rumah Makan,Cita Lestari,"Jl. Raya Banjarangkan No.8, Tusan, Kec. Banjarangkan, Kabupaten Klungkung, Bali 80752","Tusan, Kec. Banjarangkan, Kabupaten Klungkung",BALI,80752.0,Indonesia,,,,-85.505.613,1.153.757.545,https://maps.google.com/?cid=0x0:0xe957faeefc0ff341,
restaurant,Rumah Makan,Warung Be Pasih Mai Laku,"Jl. Raya Banjarangkan No.8, Banjarangkan, Kec. Banjarangkan, Kabupaten Klungkung, Bali 80752","Banjarangkan, Kec. Banjarangkan, Kabupaten Klungkung",BALI,80752.0,Indonesia,8174701418.0,,,-855.043,1.153.766.853,https://maps.google.com/?cid=0x0:0x4b6de3a2f6c2b59,
restaurant,Sesuai untuk keluarga,Warung D'Subak Bakas,"F9F8+X4F, Jl. Bakas, Tusan, Kec. Banjarangkan, Kabupaten Klungkung, Bali 80752","Jl. Bakas, Tusan, Kec. Banjarangkan, Kabupaten Klungkung",BALI,80752.0,Indonesia,87854506433.0,,,-85.250.695,1.153.652.951,https://maps.google.com/?cid=0x0:0x9f9213806c31bf45,
restaurant,Dapur Umum,Warung Buk Jero,"Jl. Raya Banjarangkan No.21, Banjarangkan, Kec. Banjarangkan, Kabupaten Klungkung, Bali 80752","Banjarangkan, Kec. Banjarangkan, Kabupaten Klungkung",BALI,80752.0,Indonesia,81916582820.0,,,-85.496.841,1.153.686.412,https://maps.google.com/?cid=0x0:0xe2169291e242276b,
restaurant,Bali,Warung Lalapan Nang Putri,"C9XH+MFH, Jalan Raya, Tusan, Banjarangkan, Klungkung Regency, Bali 80752","Jalan Raya, Tusan, Banjarangkan, Klungkung Regency",BALI,80752.0,Indonesia,87862195659.0,,,-85.508.137,1.153.787.256,https://maps.google.com/?cid=0x0:0xca81bb0a43aa6770,
restaurant,Restoran,Dians Garden Bali Klungkung,"CCW5+JF8, Gelgel, Kec. Klungkung, Kabupaten Klungkung, Bali 80761","Gelgel, Kec. Klungkung, Kabupaten Klungkung",BALI,80761.0,Indonesia,81999161993.0,,,-85.532.479,1.154.088.996,https://maps.google.com/?cid=0x0:0x9d11c07c53c8e259,
restaurant,Restoran,Bali 325,"F92G+2GG, Tusan, Kec. Banjarangkan, Kabupaten Klungkung, Bali 80752","Tusan, Kec. Banjarangkan, Kabupaten Klungkung",BALI,80752.0,Indonesia,87862195659.0,,,-8.549.925,1.153.763.169,https://maps.google.com/?cid=0x0:0x880f80d574ec6f63,
restaurant,Hotel bintang 5,Jivva Beach Club,"Jalan By Pass Jl. Prof. Dr. Ida Bagus Mantra, Pantai Lepang, Kec. Klungkung, Kabupaten Klungkung, Bali 80752","Pantai Lepang, Kec. Klungkung, Kabupaten Klungkung",BALI,80752.0,Indonesia,3665437988.0,,,-85.738.132,1.153.841.478,https://maps.google.com/?cid=0x0:0x8127f5bdd8e7b69b,
restaurant,Rumah Makan,DEPOT SARI RASTA,"G9GH+VHJ, Jl. Raya Bungbungan, Bungbungan, Kec. Banjarangkan, Kabupaten Klungkung, Bali 80752","Jl. Raya Bungbungan, Bungbungan, Kec. Banjarangkan, Kabupaten Klungkung",BALI,80752.0,Indonesia,81805561429.0,,,-84.727.777,1.153.788.834,https://maps.google.com/?cid=0x0:0x10088be1ecfbd052,
restaurant,Sarapan,Warung Simantri 410,"F9G8+32F, Jl. Bakas, Bakas, Kec. Banjarangkan, Kabupaten Klungkung, Bali 80752","Jl. Bakas, Bakas, Kec. Banjarangkan, Kabupaten Klungkung",BALI,80752.0,Indonesia,,,,-8.524.801,1.153.650.605,https://maps.google.com/?cid=0x0:0xecc1ddc5ca135a4b,
restaurant,Sunda,Warung Makan Biru Jawa,"Jl. Raya Banjarangkan No.8, Tusan, Kec. Banjarangkan, Kabupaten Klungkung, Bali 80752","Tusan, Kec. Banjarangkan, Kabupaten Klungkung",BALI,80752.0,Indonesia,,,,-85.505.275,1.153.775.406,https://maps.google.com/?cid=0x0:0x2b5e6c1d5db1990f,
restaurant,restaurant,Bali 80761,"Kec. Dawan, Kabupaten Klungkung, Bali","Kabupaten Klungkung, Bali",BALI,,Indonesia,,,,-85.234.217,1.154.378.152,https://maps.google.com/?cid=0x0:0x1c00c5eb6016c010,
restaurant,Restoran,Ume Desa,"FC3Q+7Q6, Dawan Klod, Kec. Dawan, Kabupaten Klungkung, Bali 80761","Dawan Klod, Kec. Dawan, Kabupaten Klungkung",BALI,80761.0,Indonesia,85792150073.0,,,-85.468.353,1.154.393.906,https://maps.google.com/?cid=0x0:0x899ad670045b8109,
restaurant,Bali,Warung Lesehan Merta Sari,"CFX7+W4H, Jl. Kresna, Pesinggahan, Kec. Dawan, Kabupaten Klungkung, Bali 80761","Jl. Kresna, Pesinggahan, Kec. Dawan, Kabupaten Klungkung",BALI,80761.0,Indonesia,36630406.0,,,-85.501.853,1.154.628.589,https://maps.google.com/?cid=0x0:0xb166471ecb0d5036,
restaurant,Jawa,Warung Bung Tomo,"CFP3+623, Jl. Kusanegara, Kp. Kusamba, Kec. Dawan, Kabupaten Klungkung, Bali 80761","Jl. Kusanegara, Kp. Kusamba, Kec. Dawan, Kabupaten Klungkung",BALI,80761.0,Indonesia,87861241323.0,,,-85.644.818,1.154.525.395,https://maps.google.com/?cid=0x0:0xd767c55183eed9d3,
restaurant,Restoran,Dians Garden Bali Klungkung,"CCW5+JF8, Gelgel, Kec. Klungkung, Kabupaten Klungkung, Bali 80761","Gelgel, Kec. Klungkung, Kabupaten Klungkung",BALI,80761.0,Indonesia,81999161993.0,,,-85.532.479,1.154.088.996,https://maps.google.com/?cid=0x0:0x9d11c07c53c8e259,
restaurant,Jawa,Warung Umening MG,"Jl. Lobong Indah, Kusamba, Kec. Dawan, Kabupaten Klungkung, Bali 80761","Kusamba, Kec. Dawan, Kabupaten Klungkung",BALI,80761.0,Indonesia,82247649116.0,,,-85.598.105,1.154.479.235,https://maps.google.com/?cid=0x0:0x1e56ea0669a35ffc,
restaurant,Hidangan Laut,Warung Lesehan Tepi Sawah,"FC4R+9QC, Jl. Sawo Kabeh, Dawan Kaler, Kec. Dawan, Kabupaten Klungkung, Bali 80761","Jl. Sawo Kabeh, Dawan Kaler, Kec. Dawan, Kabupaten Klungkung",BALI,80761.0,Indonesia,85858894676.0,,,-85.440.689,1.154.419.061,https://maps.google.com/?cid=0x0:0xd222fe350d8b970b,
restaurant,Restoran,Warung Serombotan Bu Awi,"FC68+RJG, Sampalan Tengah, Kec. Dawan, Kabupaten Klungkung, Bali 80761","Sampalan Tengah, Kec. Dawan, Kabupaten Klungkung",BALI,80761.0,Indonesia,,,,-85.379.403,1.154.165.674,https://maps.google.com/?cid=0x0:0x1ea5af7eb0e3a7e9,
restaurant,Rumah Makan,RM Rajawali,"Jl. Gn. Rinjani No.11, Semarapura Kelod Kangin, Kec. Klungkung, Kabupaten Klungkung, Bali 80761","Semarapura Kelod Kangin, Kec. Klungkung, Kabupaten Klungkung",BALI,80761.0,Indonesia,87861451139.0,,,-85.350.226,1.154.049.772,https://maps.google.com/?cid=0x0:0x8bd944fece7d583e,
restaurant,Restoran,warung nasi,"CCWM+F3Q, Gunaksa, Kec. Dawan, Kabupaten Klungkung, Bali 80761","Gunaksa, Kec. Dawan, Kabupaten Klungkung",BALI,80761.0,Indonesia,81933100579.0,,,-85.537.769,1.154.327.281,https://maps.google.com/?cid=0x0:0xf2f2fd099a1acc,
restaurant,Nasi,Waroeng Sarin Paon,"Jl. Prof. Dr. Ida Bagus Mantra, Pesinggahan, Kec. Dawan, Kabupaten Klungkung, Bali 80761","Pesinggahan, Kec. Dawan, Kabupaten Klungkung",BALI,80761.0,Indonesia,81390426253.0,,,-85.554.088,1.154.564.394,https://maps.google.com/?cid=0x0:0x9a2da308a241358,
restaurant,Produsen makanan,Ulam Subali,"Paksebali, Kec. Dawan, Kabupaten Klungkung, Bali 80761","Kec. Dawan, Kabupaten Klungkung",BALI,80761.0,Indonesia,82340894605.0,,,-85.302.883,1.154.179.565,https://maps.google.com/?cid=0x0:0xdbb6fe6f177372cb,
restaurant,Dapur Umum,Lalapan Sari Laut,"FCCV+3VH, Jl. Raya Babung, Dawan Kaler, Kec. Dawan, Kabupaten Klungkung, Bali 80761","Jl. Raya Babung, Dawan Kaler, Kec. Dawan, Kabupaten Klungkung",BALI,80761.0,Indonesia,85739543943.0,,,-85.298.243,1.154.447.379,https://maps.google.com/?cid=0x0:0x843dcbede9454be6,
restaurant,Kedai Kopi,Likelike Coffee  Eatery,"Jl. Flamboyan No.36A, Semarapura Kauh, Kec. Klungkung, Kabupaten Klungkung, Bali 80716","Semarapura Kauh, Kec. Klungkung, Kabupaten Klungkung",BALI,80716.0,Indonesia,82340867865.0,,,-85.373.372,1.153.953.751,https://maps.google.com/?cid=0x0:0x458359cc089e9621,
restaurant,Indonesia,Warung Ibu Sudarmi,"FC5V+928, Jl. Sawo Kabeh, Dawan Kaler, Kec. Dawan, Kabupaten Klungkung, Bali 80761","Jl. Sawo Kabeh, Dawan Kaler, Kec. Dawan, Kabupaten Klungkung",BALI,80761.0,Indonesia,87860089496.0,,,-85.415.794,1.154.425.892,https://maps.google.com/?cid=0x0:0x22097644dcd7cd3c,
restaurant,Rumah Makan,Warung Mang Eti,"FF76+RCF, Pikat, Kec. Dawan, Kabupaten Klungkung, Bali 80761","Pikat, Kec. Dawan, Kabupaten Klungkung",BALI,80761.0,Indonesia,,,,-85.354.334,1.154.610.354,https://maps.google.com/?cid=0x0:0xd0833160ed135937,
restaurant,Restoran,The Monkey Bar at Bella Vista,"FFM8+96X, Jl. Bukit Abah, Besan, Kec. Dawan, Kabupaten Klungkung, Bali 80761","Jl. Bukit Abah, Besan, Kec. Dawan, Kabupaten Klungkung",BALI,80761.0,Indonesia,81329310000.0,,,-85.165.216,1.154.656.156,https://maps.google.com/?cid=0x0:0x48e0c52e6a77d802,
restaurant,Sate,Nasi Lawar Kambing,"CCVP+Q2P, Jl. Kusanegara, Gunaksa, Kec. Dawan, Kabupaten Klungkung, Bali 80761","Jl. Kusanegara, Gunaksa, Kec. Dawan, Kabupaten Klungkung",BALI,80761.0,Indonesia,81337174447.0,,,-85.555.286,1.154.350.733,https://maps.google.com/?cid=0x0:0x17239e5ce8c026bf,
restaurant,Dapur Umum,Dapur Sri Uma,"Jl. Prof. Dr. Ida Bagus Mantra, Gunaksa, Kec. Dawan, Kabupaten Klungkung, Bali 80761","Gunaksa, Kec. Dawan, Kabupaten Klungkung",BALI,80761.0,Indonesia,81238646744.0,,,-85.522.018,1.154.388.206,https://maps.google.com/?cid=0x0:0x92e370d6edb5a886,
restaurant,Dapur Umum,Warung Rada,"CFXC+575 Goa Lawah Camp, Pesinggahan, Dawan, Klungkung Regency, Bali 80761","Pesinggahan, Dawan, Klungkung Regency",BALI,80761.0,Indonesia,85953872617.0,,,-85.520.185,1.154.709.619,https://maps.google.com/?cid=0x0:0x1432fa685662341c,
restaurant,Rumah Makan,WARUNG PUTRI PAN_GOLA,"CFXC+644, Jl. Raya Goa Lawah, Pesinggahan, Kec. Dawan, Kabupaten Klungkung, Bali 80761","Jl. Raya Goa Lawah, Pesinggahan, Kec. Dawan, Kabupaten Klungkung",BALI,80761.0,Indonesia,87855225940.0,,,-85.519.896,1.154.703.157,https://maps.google.com/?cid=0x0:0x4df581009ea3d752,
restaurant,Restoran,Bali 285,"Jl. Prof. Dr. Ida Bagus Mantra No.711, Gunaksa, Kec. Dawan, Kabupaten Klungkung, Bali 80761","Gunaksa, Kec. Dawan, Kabupaten Klungkung",BALI,80761.0,Indonesia,81999615911.0,,,-85.555.389,1.154.317.879,https://maps.google.com/?cid=0x0:0x8dfa5988664ef39,
restaurant,Nasi,Warung TIINGADI,"CCWM+F3Q, Jl. Raya Gunaksa, Gunaksa, Kec. Dawan, Kabupaten Klungkung, Bali 80761","Jl. Raya Gunaksa, Gunaksa, Kec. Dawan, Kabupaten Klungkung",BALI,80761.0,Indonesia,897633491548.0,,,-85.537.858,1.154.327.475,https://maps.google.com/?cid=0x0:0x5732665a52c95a68,
restaurant,Restoran,Warung Semeton Bali Men Suar,"CFW6+6FF, Jl. Raya Goa Lawah, Pesinggahan, Kec. Dawan, Kabupaten Klungkung, Bali 80761","Jl. Raya Goa Lawah, Pesinggahan, Kec. Dawan, Kabupaten Klungkung",BALI,80761.0,Indonesia,85935276223.0,,,-85.544.349,1.154.611.808,https://maps.google.com/?cid=0x0:0xe3bcfe2d95a561b5,
restaurant,restaurant,d'Urusan Healing,"FF26+Q24, Pesinggahan, Kec. Dawan, Kabupaten Klungkung, Bali 80761","Pesinggahan, Kec. Dawan, Kabupaten Klungkung",BALI,80761.0,Indonesia,85191385308.0,,,-85.480.981,115.460.075,https://maps.google.com/?cid=0x0:0xf8cdb442e3972d12,
restaurant,Restoran,warung GJ,"CCXQ+625, Jl. Prof. Dr. Ida Bagus Mantra, Gunaksa, Kec. Dawan, Kabupaten Klungkung, Bali 80761","Jl. Prof. Dr. Ida Bagus Mantra, Gunaksa, Kec. Dawan, Kabupaten Klungkung",BALI,80761.0,Indonesia,,,,-85.518.813,1.154.375.711,https://maps.google.com/?cid=0x0:0x874dfcfb78fe05b6,
restaurant,Jawa,Warung Makan Jawa Timur,"CFV3+VH2, Jl. Prof. Dr. Ida Bagus Mantra, Pesinggahan, Kec. Dawan, Kabupaten Klungkung, Bali 80761","Jl. Prof. Dr. Ida Bagus Mantra, Pesinggahan, Kec. Dawan, Kabupaten Klungkung",BALI,80761.0,Indonesia,82339655543.0,,,-85.553.719,1.154.538.887,https://maps.google.com/?cid=0x0:0x6e8949b95acb964a,
restaurant,Panggang,Warung Makan PAJANO - Paon Jaman Now,"Jl. Rama No.6a, Gunaksa, Kec. Dawan, Kabupaten Klungkung, Bali 80761","Gunaksa, Kec. Dawan, Kabupaten Klungkung",BALI,80761.0,Indonesia,81338491708.0,,,-85.513.464,115.429.358,https://maps.google.com/?cid=0x0:0x81be9bb7943f427f,
restaurant,Rumah Makan,Wr. Suwendra,"FC4F+6C5, Gunaksa, Kec. Dawan, Kabupaten Klungkung, Bali 80761","Gunaksa, Kec. Dawan, Kabupaten Klungkung",BALI,80761.0,Indonesia,,,,-85.445.029,1.154.237.607,https://maps.google.com/?cid=0x0:0xa76ca3fa38de5e82,
restaurant,restaurant,Bali 80711,"Kec. Klungkung, Kabupaten Klungkung, Bali","Kabupaten Klungkung, Bali",BALI,,Indonesia,,,,-8.527.468,1.153.978.272,https://maps.google.com/?cid=0x0:0x1c00c5eb6016bf90,
restaurant,Kedai Kopi,Likelike Coffee  Eatery,"Jl. Flamboyan No.36A, Semarapura Kauh, Kec. Klungkung, Kabupaten Klungkung, Bali 80716","Semarapura Kauh, Kec. Klungkung, Kabupaten Klungkung",BALI,80716.0,Indonesia,82340867865.0,,,-85.373.372,1.153.953.751,https://maps.google.com/?cid=0x0:0x458359cc089e9621,
restaurant,Jawa,Restoran Sumber Rasa,"Jl. Nakula, Semarapura Kangin, Kec. Klungkung, Kabupaten Klungkung, Bali 80761","Semarapura Kangin, Kec. Klungkung, Kabupaten Klungkung",BALI,80761.0,Indonesia,36625097.0,,,-85.359.363,1.154.053.926,https://maps.google.com/?cid=0x0:0x3b53bfb8b5d2702c,
restaurant,Kafe,GLOWIMARI CAFE,"FC52+C94, Jl. Plawa, Semarapura Kelod, Kec. Klungkung, Kabupaten Klungkung, Bali 80711","Jl. Plawa, Semarapura Kelod, Kec. Klungkung, Kabupaten Klungkung",BALI,80711.0,Indonesia,81339169383.0,,,-85.414.492,115.401.038,https://maps.google.com/?cid=0x0:0x4182491b87cb6a0,
restaurant,Rumah Makan,Warung Makan Oldies Garage,"FCF2+H95, Jl. Ngurah Rai, Semarapura Tengah, Kec. Klungkung, Kabupaten Klungkung, Bali 80711","Jl. Ngurah Rai, Semarapura Tengah, Kec. Klungkung, Kabupaten Klungkung",BALI,80711.0,Indonesia,85238911111.0,,,-85.261.079,11.540.097,https://maps.google.com/?cid=0x0:0x2db3a11bf8a2ef4f,
restaurant,Bali,Warunk Lokal Bersaudara,"Jl. Imam Bonjol, Lingkungan Bucu, Semarapura Tengah, Kec. Klungkung, Kabupaten Klungkung, Bali 80711","Lingkungan Bucu, Semarapura Tengah, Kec. Klungkung, Kabupaten Klungkung",BALI,80711.0,Indonesia,8179784600.0,,,-8.534.068,1.154.014.047,https://maps.google.com/?cid=0x0:0xbb3dd2402b3b0eca,
restaurant,restaurant,Warung Laco,"Jl. Untung Suropati No.38, Semarapura Tengah, Kec. Klungkung, Kabupaten Klungkung, Bali 80711","Semarapura Tengah, Kec. Klungkung, Kabupaten Klungkung",BALI,80711.0,Indonesia,87861711432.0,,,-85.341.505,1.153.990.934,https://maps.google.com/?cid=0x0:0x1359e07009e36541,
restaurant,Restoran,Lalapan Bu Dewa Sambal Leak,"FC52+3VM, Jl. Kecubung, Semarapura Kelod, Kec. Klungkung, Kabupaten Klungkung, Bali 80711","Jl. Kecubung, Semarapura Kelod, Kec. Klungkung, Kabupaten Klungkung",BALI,80711.0,Indonesia,81936167339.0,,,-85.422.838,1.154.021.644,https://maps.google.com/?cid=0x0:0x3884c3c96eede391,
restaurant,Rumah Makan,Kampoeng Seafood Klungkung,"F99W+5W6, Jl. Ngurah Rai, Semarapura Kauh, Kec. Klungkung, Kabupaten Klungkung, Bali","Kabupaten Klungkung, Bali",BALI,,Indonesia,87744046988.0,,,-85.320.982,1.153.973.158,https://maps.google.com/?cid=0x0:0x9a27fc0720a0bcf8,
restaurant,Sesuai untuk keluarga,TOP KITCHEN,"Jl. Diponegoro No.148, Semarapura Kelod Kangin, Kec. Klungkung, Kabupaten Klungkung, Bali 80761","Semarapura Kelod Kangin, Kec. Klungkung, Kabupaten Klungkung",BALI,80761.0,Indonesia,81238577773.0,,,-85.363.892,1.154.088.074,https://maps.google.com/?cid=0x0:0x131a5783b82e37d5,
restaurant,Jawa,Warung Puspa Asih - Sambel NengKleeng,"Jl. Melati No.4, Semarapura Kelod, Kec. Klungkung, Kabupaten Klungkung, Bali 80711","Semarapura Kelod, Kec. Klungkung, Kabupaten Klungkung",BALI,80711.0,Indonesia,87852723822.0,,,-85.392.561,1.153.980.723,https://maps.google.com/?cid=0x0:0x5aff665f912b442f,
restaurant,Hamburger,Godamn,"Jl. Gajah Mada No.64, Semarapura Tengah, Kec. Klungkung, Kabupaten Klungkung, Bali 80761","Semarapura Tengah, Kec. Klungkung, Kabupaten Klungkung",BALI,80761.0,Indonesia,81237588275.0,,,-85.272.541,1.154.040.665,https://maps.google.com/?cid=0x0:0xe60eb9f3e9203716,
restaurant,Rumah Makan,Pog's Warung,"Jl. Kecubung No.99X, Semarapura Kelod, Kec. Klungkung, Kabupaten Klungkung, Bali 80716","Semarapura Kelod, Kec. Klungkung, Kabupaten Klungkung",BALI,80716.0,Indonesia,81999956511.0,,,-85.423.779,1.154.017.764,https://maps.google.com/?cid=0x0:0x6d506f33411c9a14,
restaurant,Restoran,MASAKAN PADANG BARINGIN JAYA DUO,"Jln.i gusti Jl. Ngurah Rai No.5, Semarapura Tengah, Kec. Klungkung, Kabupaten Klungkung, Bali 80711","Semarapura Tengah, Kec. Klungkung, Kabupaten Klungkung",BALI,80711.0,Indonesia,81282693904.0,,,-85.338.217,1.153.975.337,https://maps.google.com/?cid=0x0:0xc998a9a54d3b777,
restaurant,Bali,Babi Guling Sarin Paon Klungkung,"Jl. Plawa, Semarapura Kelod, Kec. Klungkung, Kabupaten Klungkung, Bali 80711","Semarapura Kelod, Kec. Klungkung, Kabupaten Klungkung",BALI,80711.0,Indonesia,81390426253.0,,,-85.418.183,1.154.007.685,https://maps.google.com/?cid=0x0:0xf59eaf992347a024,
restaurant,Bakso,Si Komo (Cak Tholip) Masakan Muslim,"Jl. Kecubung No.16, Semarapura Kelod, Kec. Klungkung, Kabupaten Klungkung, Bali 80711","Semarapura Kelod, Kec. Klungkung, Kabupaten Klungkung",BALI,80711.0,Indonesia,82147174981.0,,,-8.541.675,1.154.005.167,https://maps.google.com/?cid=0x0:0x1b4d9fa4757ec12f,
restaurant,Rumah Makan,Warung Sari Rasa Klungkung,"Jl. Flamboyan No.24, Semarapura Kauh, Kec. Klungkung, Kabupaten Klungkung, Bali 80713","Semarapura Kauh, Kec. Klungkung, Kabupaten Klungkung",BALI,80713.0,Indonesia,81338155765.0,,,-85.367.638,1.153.956.284,https://maps.google.com/?cid=0x0:0xe320a7e40527ed57,
restaurant,Vegetarian,Depot Rumah Makan Manjari Vegetarian,"Jl. Darmawangsa, Semarapura Kangin, Kec. Klungkung, Kabupaten Klungkung, Bali 80761","Semarapura Kangin, Kec. Klungkung, Kabupaten Klungkung",BALI,80761.0,Indonesia,81933101209.0,,,-85.360.823,1.154.060.501,https://maps.google.com/?cid=0x0:0xb2245a42f1babbea,
restaurant,Jawa,Ni Luh Resto,"Jl. Raya Besakih No.351, Akah, Kec. Klungkung, Kabupaten Klungkung, Bali 80711","Akah, Kec. Klungkung, Kabupaten Klungkung",BALI,80711.0,Indonesia,85239932216.0,,,-85.221.468,1.154.017.117,https://maps.google.com/?cid=0x0:0x7af6b30472612b2a,
restaurant,China,"depot MANGGIS""""","FCF2+H79, Jl. Ngurah Rai, Semarapura Tengah, Kec. Klungkung, Kabupaten Klungkung, Bali 80711","Jl. Ngurah Rai, Semarapura Tengah, Kec. Klungkung, Kabupaten Klungkung",BALI,80711.0,Indonesia,81337038574.0,,,-85.260.783,115.400.741,https://maps.google.com/?cid=0x0:0x22b841edea3f1c66,
restaurant,restaurant,Bali 80712,"Kec. Klungkung, Kabupaten Klungkung, Bali","Kabupaten Klungkung, Bali",BALI,,Indonesia,,,,-85.253.594,1.153.919.027,https://maps.google.com/?cid=0x0:0x1c00c5eb6016bfa0,
restaurant,Kedai Kopi,Likelike Coffee  Eatery,"Jl. Flamboyan No.36A, Semarapura Kauh, Kec. Klungkung, Kabupaten Klungkung, Bali 80716","Semarapura Kauh, Kec. Klungkung, Kabupaten Klungkung",BALI,80716.0,Indonesia,82340867865.0,,,-85.373.372,1.153.953.751,https://maps.google.com/?cid=0x0:0x458359cc089e9621,
restaurant,Restoran,Dians Garden Bali Klungkung,"CCW5+JF8, Gelgel, Kec. Klungkung, Kabupaten Klungkung, Bali 80761","Gelgel, Kec. Klungkung, Kabupaten Klungkung",BALI,80761.0,Indonesia,81999161993.0,,,-85.532.479,1.154.088.996,https://maps.google.com/?cid=0x0:0x9d11c07c53c8e259,
restaurant,Rumah Makan,Warung Makan Oldies Garage,"FCF2+H95, Jl. Ngurah Rai, Semarapura Tengah, Kec. Klungkung, Kabupaten Klungkung, Bali 80711","Jl. Ngurah Rai, Semarapura Tengah, Kec. Klungkung, Kabupaten Klungkung",BALI,80711.0,Indonesia,85238911111.0,,,-85.261.079,11.540.097,https://maps.google.com/?cid=0x0:0x2db3a11bf8a2ef4f,
restaurant,Kafe,GLOWIMARI CAFE,"FC52+C94, Jl. Plawa, Semarapura Kelod, Kec. Klungkung, Kabupaten Klungkung, Bali 80711","Jl. Plawa, Semarapura Kelod, Kec. Klungkung, Kabupaten Klungkung",BALI,80711.0,Indonesia,81339169383.0,,,-85.414.492,115.401.038,https://maps.google.com/?cid=0x0:0x4182491b87cb6a0,
restaurant,Vegetarian,Depot Rumah Makan Manjari Vegetarian,"Jl. Darmawangsa, Semarapura Kangin, Kec. Klungkung, Kabupaten Klungkung, Bali 80761","Semarapura Kangin, Kec. Klungkung, Kabupaten Klungkung",BALI,80761.0,Indonesia,81933101209.0,,,-85.360.823,1.154.060.501,https://maps.google.com/?cid=0x0:0xb2245a42f1babbea,
restaurant,Sesuai untuk keluarga,TOP KITCHEN,"Jl. Diponegoro No.148, Semarapura Kelod Kangin, Kec. Klungkung, Kabupaten Klungkung, Bali 80761","Semarapura Kelod Kangin, Kec. Klungkung, Kabupaten Klungkung",BALI,80761.0,Indonesia,81238577773.0,,,-85.363.892,1.154.088.074,https://maps.google.com/?cid=0x0:0x131a5783b82e37d5,
restaurant,Restoran,Warung D' Carik Nyalian,"Jl. Raya Desa Nyalian, Nyalian, Kec. Banjarangkan, Kabupaten Klungkung, Bali 80752","Nyalian, Kec. Banjarangkan, Kabupaten Klungkung",BALI,80752.0,Indonesia,81239691192.0,,,-85.093.425,1.153.653.271,https://maps.google.com/?cid=0x0:0x1467a05c5c92f7ed,
restaurant,Jawa,Ni Luh Resto,"Jl. Raya Besakih No.351, Akah, Kec. Klungkung, Kabupaten Klungkung, Bali 80711","Akah, Kec. Klungkung, Kabupaten Klungkung",BALI,80711.0,Indonesia,85239932216.0,,,-85.221.468,1.154.017.117,https://maps.google.com/?cid=0x0:0x7af6b30472612b2a,
restaurant,Rumah Makan,RM Rajawali,"Jl. Gn. Rinjani No.11, Semarapura Kelod Kangin, Kec. Klungkung, Kabupaten Klungkung, Bali 80761","Semarapura Kelod Kangin, Kec. Klungkung, Kabupaten Klungkung",BALI,80761.0,Indonesia,87861451139.0,,,-85.350.226,1.154.049.772,https://maps.google.com/?cid=0x0:0x8bd944fece7d583e,
restaurant,Rumah Makan,Warung Sari Rasa Klungkung,"Jl. Flamboyan No.24, Semarapura Kauh, Kec. Klungkung, Kabupaten Klungkung, Bali 80713","Semarapura Kauh, Kec. Klungkung, Kabupaten Klungkung",BALI,80713.0,Indonesia,81338155765.0,,,-85.367.638,1.153.956.284,https://maps.google.com/?cid=0x0:0xe320a7e40527ed57,
restaurant,Bali,Warung Lesehan Merta Sari,"CFX7+W4H, Jl. Kresna, Pesinggahan, Kec. Dawan, Kabupaten Klungkung, Bali 80761","Jl. Kresna, Pesinggahan, Kec. Dawan, Kabupaten Klungkung",BALI,80761.0,Indonesia,36630406.0,,,-85.501.853,1.154.628.589,https://maps.google.com/?cid=0x0:0xb166471ecb0d5036,
restaurant,China,"depot MANGGIS""""","FCF2+H79, Jl. Ngurah Rai, Semarapura Tengah, Kec. Klungkung, Kabupaten Klungkung, Bali 80711","Jl. Ngurah Rai, Semarapura Tengah, Kec. Klungkung, Kabupaten Klungkung",BALI,80711.0,Indonesia,81337038574.0,,,-85.260.783,115.400.741,https://maps.google.com/?cid=0x0:0x22b841edea3f1c66,
restaurant,Rumah Makan,Rock'N Roll Food Corner,"Gg. Jaga Satru, Kamasan, Kec. Klungkung, Kabupaten Klungkung, Bali 80714","Kamasan, Kec. Klungkung, Kabupaten Klungkung",BALI,80714.0,Indonesia,87861809819.0,,,-85.493.958,1.154.069.839,https://maps.google.com/?cid=0x0:0xba2c934f84193ceb,
restaurant,Restoran,Miebujuh klungkung,"Jl. Rama, Semarapura Kangin, Kec. Klungkung, Kabupaten Klungkung, Bali 80716","Semarapura Kangin, Kec. Klungkung, Kabupaten Klungkung",BALI,80716.0,Indonesia,85737244721.0,,,-85.391.245,1.154.101.377,https://maps.google.com/?cid=0x0:0x4e97175cf2236a67,
restaurant,Ayam,BALI TULEN KLUNGKUNG,"Jl. Dewi Sartika No.18x, Semarapura Tengah, Kec. Klungkung, Kabupaten Klungkung, Bali 80711","Semarapura Tengah, Kec. Klungkung, Kabupaten Klungkung",BALI,80711.0,Indonesia,,,,-85.282.822,1.154.001.385,https://maps.google.com/?cid=0x0:0xf0285803dedb1c5b,
restaurant,Restoran,SRI SEGANING BAR  RESTO,"Jln kelingking, Bunga Mekar, Kec. Nusa Penida, Kabupaten Klungkung, Bali 80771","Bunga Mekar, Kec. Nusa Penida, Kabupaten Klungkung",BALI,80771.0,Indonesia,81339580970.0,,,-87.459.746,1.154.840.543,https://maps.google.com/?cid=0x0:0x86d51a98d5c47992,
restaurant,Jawa,Warung Makan Dukuh Sari,"F99V+JHR, Semarapura Kauh, Kec. Klungkung, Kabupaten Klungkung, Bali 80711","Semarapura Kauh, Kec. Klungkung, Kabupaten Klungkung",BALI,80711.0,Indonesia,,,,-85.308.863,1.153.939.014,https://maps.google.com/?cid=0x0:0x5b487a31234e9ca5,
restaurant,Restoran,Star BAR  RESTO,"8CCW+53W, Jungutbatu, Kec. Nusa Penida, Kabupaten Klungkung, Bali 80771","Jungutbatu, Kec. Nusa Penida, Kabupaten Klungkung",BALI,80771.0,Indonesia,81337267945.0,,,-86.791.743,1.154.458.032,https://maps.google.com/?cid=0x0:0x1179b99760a4ca37,
restaurant,Rumah Makan,BIKINIBOTTOM streetfood,"Jl. Diponegoro No.89, Semarapura Kelod Kangin, Kec. Klungkung, Kabupaten Klungkung, Bali 80761","Semarapura Kelod Kangin, Kec. Klungkung, Kabupaten Klungkung",BALI,80761.0,Indonesia,87859876222.0,,,-85.357.187,1.154.065.652,https://maps.google.com/?cid=0x0:0x3b73291a1f1eddfc,
restaurant,Bali,Warunk Lokal Bersaudara,"Jl. Imam Bonjol, Lingkungan Bucu, Semarapura Tengah, Kec. Klungkung, Kabupaten Klungkung, Bali 80711","Lingkungan Bucu, Semarapura Tengah, Kec. Klungkung, Kabupaten Klungkung",BALI,80711.0,Indonesia,8179784600.0,,,-8.534.068,1.154.014.047,https://maps.google.com/?cid=0x0:0xbb3dd2402b3b0eca,
restaurant,Restoran,Amazy Famili Resto klungkung,"F98X+M28, Jl. Ngurah Rai, Semarapura Tengah, Kec. Klungkung, Kabupaten Klungkung, Bali 80716","Jl. Ngurah Rai, Semarapura Tengah, Kec. Klungkung, Kabupaten Klungkung",BALI,80716.0,Indonesia,36625002.0,,,-85.333.287,1.153.975.809,https://maps.google.com/?cid=0x0:0xa24811800af0f7e9,
restaurant,Sesuai untuk keluarga,Tempat Makan,"No Jl. Jepun No.18, Semarapura Kelod, Kec. Klungkung, Kabupaten Klungkung, Bali 80716","Semarapura Kelod, Kec. Klungkung, Kabupaten Klungkung",BALI,80716.0,Indonesia,,,,-85.438.102,1.154.008.054,https://maps.google.com/?cid=0x0:0x8be85450fca1dc0d,
restaurant,restaurant,Warung Laco,"Jl. Untung Suropati No.38, Semarapura Tengah, Kec. Klungkung, Kabupaten Klungkung, Bali 80711","Semarapura Tengah, Kec. Klungkung, Kabupaten Klungkung",BALI,80711.0,Indonesia,87861711432.0,,,-85.341.505,1.153.990.934,https://maps.google.com/?cid=0x0:0x1359e07009e36541,
restaurant,Restoran,Dapoer 33 klungkung,"F98X+3RQ, Jl. Untung Suropati, Semarapura Kauh, Kec. Klungkung, Kabupaten Klungkung, Bali 80716","Jl. Untung Suropati, Semarapura Kauh, Kec. Klungkung, Kabupaten Klungkung",BALI,80716.0,Indonesia,81381159437.0,,,-85.347.985,1.153.996.074,https://maps.google.com/?cid=0x0:0x80ee56991e56f5cc,
restaurant,Restoran,Warung The Jap Mesari,"Jl. Untung Suropati, Semarapura Tengah, Kec. Klungkung, Kabupaten Klungkung, Bali 80711","Semarapura Tengah, Kec. Klungkung, Kabupaten Klungkung",BALI,80711.0,Indonesia,87881411166.0,,,-85.344.228,1.153.990.643,https://maps.google.com/?cid=0x0:0xe03e2c32a30f2a32,
restaurant,Rumah Makan,Pog's Warung,"Jl. Kecubung No.99X, Semarapura Kelod, Kec. Klungkung, Kabupaten Klungkung, Bali 80716","Semarapura Kelod, Kec. Klungkung, Kabupaten Klungkung",BALI,80716.0,Indonesia,81999956511.0,,,-85.423.779,1.154.017.764,https://maps.google.com/?cid=0x0:0x6d506f33411c9a14,
restaurant,Kedai Kopi,Likelike Coffee  Eatery,"Jl. Flamboyan No.36A, Semarapura Kauh, Kec. Klungkung, Kabupaten Klungkung, Bali 80716","Semarapura Kauh, Kec. Klungkung, Kabupaten Klungkung",BALI,80716.0,Indonesia,82340867865.0,,,-85.373.372,1.153.953.751,https://maps.google.com/?cid=0x0:0x458359cc089e9621,
restaurant,restaurant,Bali 80713,"Tihingan, Kec. Banjarangkan, Kabupaten Klungkung, Bali","Kabupaten Klungkung, Bali",BALI,,Indonesia,,,,-8.533.129,1.153.889.403,https://maps.google.com/?cid=0x0:0x1c00c5eb6016bfb0,
restaurant,Rumah Makan,Kampoeng Seafood Klungkung,"F99W+5W6, Jl. Ngurah Rai, Semarapura Kauh, Kec. Klungkung, Kabupaten Klungkung, Bali","Kabupaten Klungkung, Bali",BALI,,Indonesia,87744046988.0,,,-85.320.982,1.153.973.158,https://maps.google.com/?cid=0x0:0x9a27fc0720a0bcf8,
restaurant,Jawa,Restoran Sumber Rasa,"Jl. Nakula, Semarapura Kangin, Kec. Klungkung, Kabupaten Klungkung, Bali 80761","Semarapura Kangin, Kec. Klungkung, Kabupaten Klungkung",BALI,80761.0,Indonesia,36625097.0,,,-85.359.363,1.154.053.926,https://maps.google.com/?cid=0x0:0x3b53bfb8b5d2702c,
restaurant,Kafe,GLOWIMARI CAFE,"FC52+C94, Jl. Plawa, Semarapura Kelod, Kec. Klungkung, Kabupaten Klungkung, Bali 80711","Jl. Plawa, Semarapura Kelod, Kec. Klungkung, Kabupaten Klungkung",BALI,80711.0,Indonesia,81339169383.0,,,-85.414.492,115.401.038,https://maps.google.com/?cid=0x0:0x4182491b87cb6a0,
restaurant,Sesuai untuk keluarga,TOP KITCHEN,"Jl. Diponegoro No.148, Semarapura Kelod Kangin, Kec. Klungkung, Kabupaten Klungkung, Bali 80761","Semarapura Kelod Kangin, Kec. Klungkung, Kabupaten Klungkung",BALI,80761.0,Indonesia,81238577773.0,,,-85.363.892,1.154.088.074,https://maps.google.com/?cid=0x0:0x131a5783b82e37d5,
restaurant,Rumah Makan,Warung Sari Rasa Klungkung,"Jl. Flamboyan No.24, Semarapura Kauh, Kec. Klungkung, Kabupaten Klungkung, Bali 80713","Semarapura Kauh, Kec. Klungkung, Kabupaten Klungkung",BALI,80713.0,Indonesia,81338155765.0,,,-85.367.638,1.153.956.284,https://maps.google.com/?cid=0x0:0xe320a7e40527ed57,
restaurant,Jepang,Jiji Sushi Ramen,"F95W+GCR Near, Jl. Kecubung, Semarapura Kelod, Kec. Klungkung, Kabupaten Klungkung, Bali 80716","Jl. Kecubung, Semarapura Kelod, Kec. Klungkung, Kabupaten Klungkung",BALI,80716.0,Indonesia,87861711432.0,,,-85.411.475,115.396.017,https://maps.google.com/?cid=0x0:0x5840e82cd47b68d2,
restaurant,Rumah Makan,Pog's Warung,"Jl. Kecubung No.99X, Semarapura Kelod, Kec. Klungkung, Kabupaten Klungkung, Bali 80716","Semarapura Kelod, Kec. Klungkung, Kabupaten Klungkung",BALI,80716.0,Indonesia,81999956511.0,,,-85.423.779,1.154.017.764,https://maps.google.com/?cid=0x0:0x6d506f33411c9a14,
restaurant,Restoran,Warung D' Carik Nyalian,"Jl. Raya Desa Nyalian, Nyalian, Kec. Banjarangkan, Kabupaten Klungkung, Bali 80752","Nyalian, Kec. Banjarangkan, Kabupaten Klungkung",BALI,80752.0,Indonesia,81239691192.0,,,-85.093.425,1.153.653.271,https://maps.google.com/?cid=0x0:0x1467a05c5c92f7ed,
restaurant,Vegetarian,Depot Rumah Makan Manjari Vegetarian,"Jl. Darmawangsa, Semarapura Kangin, Kec. Klungkung, Kabupaten Klungkung, Bali 80761","Semarapura Kangin, Kec. Klungkung, Kabupaten Klungkung",BALI,80761.0,Indonesia,81933101209.0,,,-85.360.823,1.154.060.501,https://maps.google.com/?cid=0x0:0xb2245a42f1babbea,
restaurant,Pizza,Star Pizza Klungkung,"Jl. Flamboyan No.56, Semarapura Kauh, Kec. Klungkung, Kabupaten Klungkung, Bali 80716","Semarapura Kauh, Kec. Klungkung, Kabupaten Klungkung",BALI,80716.0,Indonesia,87764373838.0,,,-85.389.267,115.395.351,https://maps.google.com/?cid=0x0:0x8162e025a629e5cf,
restaurant,Rumah Makan,RM Rajawali,"Jl. Gn. Rinjani No.11, Semarapura Kelod Kangin, Kec. Klungkung, Kabupaten Klungkung, Bali 80761","Semarapura Kelod Kangin, Kec. Klungkung, Kabupaten Klungkung",BALI,80761.0,Indonesia,87861451139.0,,,-85.350.226,1.154.049.772,https://maps.google.com/?cid=0x0:0x8bd944fece7d583e,
restaurant,Indonesia,Warung Sai Te Puuk,"FC85+QHM, Jl. Gn. Merapi, Semarapura Kelod Kangin, Kec. Klungkung, Kabupaten Klungkung, Bali 80761","Jl. Gn. Merapi, Semarapura Kelod Kangin, Kec. Klungkung, Kabupaten Klungkung",BALI,80761.0,Indonesia,,,,-85.330.414,1.154.089.217,https://maps.google.com/?cid=0x0:0xd00813dfc9978e9d,
restaurant,Hamburger,Godamn,"Jl. Gajah Mada No.64, Semarapura Tengah, Kec. Klungkung, Kabupaten Klungkung, Bali 80761","Semarapura Tengah, Kec. Klungkung, Kabupaten Klungkung",BALI,80761.0,Indonesia,81237588275.0,,,-85.272.541,1.154.040.665,https://maps.google.com/?cid=0x0:0xe60eb9f3e9203716,
restaurant,Jawa,Warung SOR'BE,"Jalan raya waturengong, Tihingan, bali, Kabupaten Klungkung, Bali 80752","Tihingan, bali, Kabupaten Klungkung",BALI,80752.0,Indonesia,8123947131.0,,,-85.325.689,1.153.866.637,https://maps.google.com/?cid=0x0:0xf8c6948745923b8c,
restaurant,Rumah Makan,Rock'N Roll Food Corner,"Gg. Jaga Satru, Kamasan, Kec. Klungkung, Kabupaten Klungkung, Bali 80714","Kamasan, Kec. Klungkung, Kabupaten Klungkung",BALI,80714.0,Indonesia,87861809819.0,,,-85.493.958,1.154.069.839,https://maps.google.com/?cid=0x0:0xba2c934f84193ceb,
restaurant,Bali,Warung Lesehan Merta Sari,"CFX7+W4H, Jl. Kresna, Pesinggahan, Kec. Dawan, Kabupaten Klungkung, Bali 80761","Jl. Kresna, Pesinggahan, Kec. Dawan, Kabupaten Klungkung",BALI,80761.0,Indonesia,36630406.0,,,-85.501.853,1.154.628.589,https://maps.google.com/?cid=0x0:0xb166471ecb0d5036,
restaurant,Restoran,Miebujuh klungkung,"Jl. Rama, Semarapura Kangin, Kec. Klungkung, Kabupaten Klungkung, Bali 80716","Semarapura Kangin, Kec. Klungkung, Kabupaten Klungkung",BALI,80716.0,Indonesia,85737244721.0,,,-85.391.245,1.154.101.377,https://maps.google.com/?cid=0x0:0x4e97175cf2236a67,
restaurant,Bali,Warunk Lokal Bersaudara,"Jl. Imam Bonjol, Lingkungan Bucu, Semarapura Tengah, Kec. Klungkung, Kabupaten Klungkung, Bali 80711","Lingkungan Bucu, Semarapura Tengah, Kec. Klungkung, Kabupaten Klungkung",BALI,80711.0,Indonesia,8179784600.0,,,-8.534.068,1.154.014.047,https://maps.google.com/?cid=0x0:0xbb3dd2402b3b0eca,
restaurant,restaurant,Warung Laco,"Jl. Untung Suropati No.38, Semarapura Tengah, Kec. Klungkung, Kabupaten Klungkung, Bali 80711","Semarapura Tengah, Kec. Klungkung, Kabupaten Klungkung",BALI,80711.0,Indonesia,87861711432.0,,,-85.341.505,1.153.990.934,https://maps.google.com/?cid=0x0:0x1359e07009e36541,
restaurant,Nasi,Warung Bu Komang,"F98R+CHQ, Jl. Watu Renggong, Semarapura Kauh, Kec. Klungkung, Kabupaten Klungkung, Bali 80713","Jl. Watu Renggong, Semarapura Kauh, Kec. Klungkung, Kabupaten Klungkung",BALI,80713.0,Indonesia,85238456421.0,,,-85.339.042,1.153.914.979,https://maps.google.com/?cid=0x0:0x4a5266a064f2d9e3,
restaurant,Restoran,Warung Bu Desak,"Jl. Pudak No.3, Semarapura Kauh, Kec. Klungkung, Kabupaten Klungkung, Bali 80711","Semarapura Kauh, Kec. Klungkung, Kabupaten Klungkung",BALI,80711.0,Indonesia,87862198082.0,,,-85.349.121,1.153.947.522,https://maps.google.com/?cid=0x0:0xf074a4a1ac3f507e,
restaurant,Restoran,Amazy Famili Resto klungkung,"F98X+M28, Jl. Ngurah Rai, Semarapura Tengah, Kec. Klungkung, Kabupaten Klungkung, Bali 80716","Jl. Ngurah Rai, Semarapura Tengah, Kec. Klungkung, Kabupaten Klungkung",BALI,80716.0,Indonesia,36625002.0,,,-85.333.287,1.153.975.809,https://maps.google.com/?cid=0x0:0xa24811800af0f7e9,
restaurant,restaurant,Semarapura,"Kec. Klungkung, Kabupaten Klungkung, Bali","Kabupaten Klungkung, Bali",BALI,,Indonesia,,,,-85.388.252,115.402.367,https://maps.google.com/?cid=0x0:0x4030bfbca7d2ed0,
restaurant,Kedai Kopi,Likelike Coffee  Eatery,"Jl. Flamboyan No.36A, Semarapura Kauh, Kec. Klungkung, Kabupaten Klungkung, Bali 80716","Semarapura Kauh, Kec. Klungkung, Kabupaten Klungkung",BALI,80716.0,Indonesia,82340867865.0,,,-85.373.372,1.153.953.751,https://maps.google.com/?cid=0x0:0x458359cc089e9621,
restaurant,Kafe,Vanbenk Coffee  Eatery,"Jl. Matahari No.1, Semarapura Kelod, Kec. Klungkung, Kabupaten Klungkung, Bali 80716","Semarapura Kelod, Kec. Klungkung, Kabupaten Klungkung",BALI,80716.0,Indonesia,,,,-85.417.965,1.153.965.326,https://maps.google.com/?cid=0x0:0xa056bb9924782e2e,
restaurant,Jawa,Restoran Sumber Rasa,"Jl. Nakula, Semarapura Kangin, Kec. Klungkung, Kabupaten Klungkung, Bali 80761","Semarapura Kangin, Kec. Klungkung, Kabupaten Klungkung",BALI,80761.0,Indonesia,36625097.0,,,-85.359.363,1.154.053.926,https://maps.google.com/?cid=0x0:0x3b53bfb8b5d2702c,
restaurant,Jepang,Jiji Sushi Ramen,"F95W+GCR Near, Jl. Kecubung, Semarapura Kelod, Kec. Klungkung, Kabupaten Klungkung, Bali 80716","Jl. Kecubung, Semarapura Kelod, Kec. Klungkung, Kabupaten Klungkung",BALI,80716.0,Indonesia,87861711432.0,,,-85.411.475,115.396.017,https://maps.google.com/?cid=0x0:0x5840e82cd47b68d2,
restaurant,Rumah Makan,Kampoeng Seafood Klungkung,"F99W+5W6, Jl. Ngurah Rai, Semarapura Kauh, Kec. Klungkung, Kabupaten Klungkung, Bali","Kabupaten Klungkung, Bali",BALI,,Indonesia,87744046988.0,,,-85.320.982,1.153.973.158,https://maps.google.com/?cid=0x0:0x9a27fc0720a0bcf8,
restaurant,Sesuai untuk keluarga,TOP KITCHEN,"Jl. Diponegoro No.148, Semarapura Kelod Kangin, Kec. Klungkung, Kabupaten Klungkung, Bali 80761","Semarapura Kelod Kangin, Kec. Klungkung, Kabupaten Klungkung",BALI,80761.0,Indonesia,81238577773.0,,,-85.363.892,1.154.088.074,https://maps.google.com/?cid=0x0:0x131a5783b82e37d5,
restaurant,Rumah Makan,Pog's Warung,"Jl. Kecubung No.99X, Semarapura Kelod, Kec. Klungkung, Kabupaten Klungkung, Bali 80716","Semarapura Kelod, Kec. Klungkung, Kabupaten Klungkung",BALI,80716.0,Indonesia,81999956511.0,,,-85.423.779,1.154.017.764,https://maps.google.com/?cid=0x0:0x6d506f33411c9a14,
restaurant,Kafe,GLOWIMARI CAFE,"FC52+C94, Jl. Plawa, Semarapura Kelod, Kec. Klungkung, Kabupaten Klungkung, Bali 80711","Jl. Plawa, Semarapura Kelod, Kec. Klungkung, Kabupaten Klungkung",BALI,80711.0,Indonesia,81339169383.0,,,-85.414.492,115.401.038,https://maps.google.com/?cid=0x0:0x4182491b87cb6a0,
restaurant,Rumah Makan,Dapur GEZO,"Jl. Angsoka, Semarapura Kelod, Kec. Klungkung, Kabupaten Klungkung, Bali 80716","Semarapura Kelod, Kec. Klungkung, Kabupaten Klungkung",BALI,80716.0,Indonesia,81237653102.0,,,-85.465.702,115.402.197,https://maps.google.com/?cid=0x0:0xf77a5b4c8f157005,
restaurant,Restoran,Miebujuh klungkung,"Jl. Rama, Semarapura Kangin, Kec. Klungkung, Kabupaten Klungkung, Bali 80716","Semarapura Kangin, Kec. Klungkung, Kabupaten Klungkung",BALI,80716.0,Indonesia,85737244721.0,,,-85.391.245,1.154.101.377,https://maps.google.com/?cid=0x0:0x4e97175cf2236a67,
restaurant,Rumah Makan,Depot Sari boga,"F98W+HWP, Jl. Ngurah Rai, Semarapura Kauh, Kec. Klungkung, Kabupaten Klungkung, Bali 80716","Jl. Ngurah Rai, Semarapura Kauh, Kec. Klungkung, Kabupaten Klungkung",BALI,80716.0,Indonesia,81999756173.0,,,-85.335.396,115.397.337,https://maps.google.com/?cid=0x0:0x88957f40ec25ca2,
restaurant,Restoran,Depot Arjuna,"Jl. Arjuna No.46, Semarapura Kangin, Kec. Klungkung, Kabupaten Klungkung, Bali 80761","Semarapura Kangin, Kec. Klungkung, Kabupaten Klungkung",BALI,80761.0,Indonesia,8174730110.0,,,-85.377.848,1.154.054.566,https://maps.google.com/?cid=0x0:0x61a91905a646aeb8,
restaurant,Vegetarian,Depot Rumah Makan Manjari Vegetarian,"Jl. Darmawangsa, Semarapura Kangin, Kec. Klungkung, Kabupaten Klungkung, Bali 80761","Semarapura Kangin, Kec. Klungkung, Kabupaten Klungkung",BALI,80761.0,Indonesia,81933101209.0,,,-85.360.823,1.154.060.501,https://maps.google.com/?cid=0x0:0xb2245a42f1babbea,
restaurant,Restoran,Kedai Somi,"Jl. Watu Renggong, Kamasan, Kec. Klungkung, Kabupaten Klungkung, Bali 80716","Kamasan, Kec. Klungkung, Kabupaten Klungkung",BALI,80716.0,Indonesia,83119892513.0,,,-85.514.677,1.154.072.201,https://maps.google.com/?cid=0x0:0x1d76cc2d86bbae4a,
restaurant,Restoran,OVERDOSIS Jelantik Klungkung,"Jl. Puputan No.118, Tojan, Kec. Klungkung, Kabupaten Klungkung, Bali 80716","Tojan, Kec. Klungkung, Kabupaten Klungkung",BALI,80716.0,Indonesia,81999030528.0,,,-85.466.652,1.154.027.777,https://maps.google.com/?cid=0x0:0xf790e9be51aeab78,
restaurant,Rumah Makan,Warung Sari Rasa Klungkung,"Jl. Flamboyan No.24, Semarapura Kauh, Kec. Klungkung, Kabupaten Klungkung, Bali 80713","Semarapura Kauh, Kec. Klungkung, Kabupaten Klungkung",BALI,80713.0,Indonesia,81338155765.0,,,-85.367.638,1.153.956.284,https://maps.google.com/?cid=0x0:0xe320a7e40527ed57,
restaurant,Pizza,Star Pizza Klungkung,"Jl. Flamboyan No.56, Semarapura Kauh, Kec. Klungkung, Kabupaten Klungkung, Bali 80716","Semarapura Kauh, Kec. Klungkung, Kabupaten Klungkung",BALI,80716.0,Indonesia,87764373838.0,,,-85.389.267,115.395.351,https://maps.google.com/?cid=0x0:0x8162e025a629e5cf,
restaurant,Pizza,Warung made pizza,"Jl. Raya Takmung, Tojan, Kec. Klungkung, Kabupaten Klungkung, Bali 80716","Tojan, Kec. Klungkung, Kabupaten Klungkung",BALI,80716.0,Indonesia,85936126886.0,,,-8.552.696,1.154.021.565,https://maps.google.com/?cid=0x0:0x61c08bdad9ce2d6f,
restaurant,Indonesia,Warung Sai Te Puuk,"FC85+QHM, Jl. Gn. Merapi, Semarapura Kelod Kangin, Kec. Klungkung, Kabupaten Klungkung, Bali 80761","Jl. Gn. Merapi, Semarapura Kelod Kangin, Kec. Klungkung, Kabupaten Klungkung",BALI,80761.0,Indonesia,,,,-85.330.414,1.154.089.217,https://maps.google.com/?cid=0x0:0xd00813dfc9978e9d,
restaurant,Bali,Warunk Lokal Bersaudara,"Jl. Imam Bonjol, Lingkungan Bucu, Semarapura Tengah, Kec. Klungkung, Kabupaten Klungkung, Bali 80711","Lingkungan Bucu, Semarapura Tengah, Kec. Klungkung, Kabupaten Klungkung",BALI,80711.0,Indonesia,8179784600.0,,,-8.534.068,1.154.014.047,https://maps.google.com/?cid=0x0:0xbb3dd2402b3b0eca,
restaurant,Restoran,ACK GELGEL,"CCW5+72R, Gelgel, Kec. Klungkung, Kabupaten Klungkung, Bali 80716","Gelgel, Kec. Klungkung, Kabupaten Klungkung",BALI,80716.0,Indonesia,,,,-8.554.264,1.154.075.139,https://maps.google.com/?cid=0x0:0x3e464f54df695091,
cafe,cafe,Bali 80752,"Kec. Banjarangkan, Kabupaten Klungkung, Bali","Kabupaten Klungkung, Bali",BALI,,Indonesia,,,,-8.512.833,1.153.726.469,https://maps.google.com/?cid=0x0:0x1c00c5eb6016c000,
cafe,Rumah Makan,ACK BANJARANGKAN,"C9XF+V6J, Tusan, Kec. Banjarangkan, Kabupaten Klungkung, Bali 80752","Tusan, Kec. Banjarangkan, Kabupaten Klungkung",BALI,80752.0,Indonesia,85941911873.0,,,-85.502.825,1.153.730.244,https://maps.google.com/?cid=0x0:0xc6d115276c3171de,
cafe,Kafe,Vanbenk Coffee  Eatery,"Jl. Matahari No.1, Semarapura Kelod, Kec. Klungkung, Kabupaten Klungkung, Bali 80716","Semarapura Kelod, Kec. Klungkung, Kabupaten Klungkung",BALI,80716.0,Indonesia,,,,-85.417.965,1.153.965.326,https://maps.google.com/?cid=0x0:0xa056bb9924782e2e,
cafe,Kedai Kopi,Likelike Coffee  Eatery,"Jl. Flamboyan No.36A, Semarapura Kauh, Kec. Klungkung, Kabupaten Klungkung, Bali 80716","Semarapura Kauh, Kec. Klungkung, Kabupaten Klungkung",BALI,80716.0,Indonesia,82340867865.0,,,-85.373.372,1.153.953.751,https://maps.google.com/?cid=0x0:0x458359cc089e9621,
cafe,Dapur Umum,Kubu Sirkuma,"Jl. Bakas No.Desa, Nyalian, Kec. Banjarangkan, Kabupaten Klungkung, Bali 80752","Nyalian, Kec. Banjarangkan, Kabupaten Klungkung",BALI,80752.0,Indonesia,81391513097.0,,,-85.059.365,1.153.663.377,https://maps.google.com/?cid=0x0:0xfe8a14b6adec282d,
cafe,Kedai Kopi,Cerita Kopi  Croissant Klungkung,"Jl. Gajah Mada No.26, Semarapura Kelod Kangin, Kec. Klungkung, Kabupaten Klungkung, Bali 80761","Semarapura Kelod Kangin, Kec. Klungkung, Kabupaten Klungkung",BALI,80761.0,Indonesia,81237379986.0,,,-85.336.331,1.154.039.904,https://maps.google.com/?cid=0x0:0x433535ddc0641215,
cafe,Restoran,Warung D' Carik Nyalian,"Jl. Raya Desa Nyalian, Nyalian, Kec. Banjarangkan, Kabupaten Klungkung, Bali 80752","Nyalian, Kec. Banjarangkan, Kabupaten Klungkung",BALI,80752.0,Indonesia,81239691192.0,,,-85.093.425,1.153.653.271,https://maps.google.com/?cid=0x0:0x1467a05c5c92f7ed,
cafe,Jawa,Warung Secret Aan,"Aan, Jalan Pura Dalem Setra Kelod, Desa Kecamatan, Aan, Kec. Banjarangkan, Kabupaten Klungkung, Bali 80752","Jalan Pura Dalem Setra Kelod, Desa Kecamatan, Aan, Kec. Banjarangkan, Kabupaten Klungkung",BALI,80752.0,Indonesia,85792821748.0,,,-85.139.987,1.153.842.515,https://maps.google.com/?cid=0x0:0x37655977821d6f9b,
cafe,Restoran,D’Warung,"Nyalian, Jl. Bakas, Kabupaten Klungkung, Bali 80752","Jl. Bakas, Kabupaten Klungkung",BALI,80752.0,Indonesia,85792869863.0,,,-85.294.211,1.153.657.569,https://maps.google.com/?cid=0x0:0xf6d251c3088ba09f,
cafe,cafe,KUBU BAKAS,"Unnamed Road, Bakas, Kec. Banjarangkan, Kabupaten Klungkung, Bali 80752","Bakas, Kec. Banjarangkan, Kabupaten Klungkung",BALI,80752.0,Indonesia,81338356744.0,,,-85.225.018,1.153.670.955,https://maps.google.com/?cid=0x0:0xdd6615f34ee7055f,
cafe,Indonesia,The Cave - Koripan,"Cagar Budaya Goa Jepang, Jl. Raya Banjarangkan, Kabupaten Klungkung, Bali 80752","Jl. Raya Banjarangkan, Kabupaten Klungkung",BALI,80752.0,Indonesia,817370604.0,,,-85.527.255,1.153.815.793,https://maps.google.com/?cid=0x0:0xc02b770efe58ac03,
cafe,Kedai Kopi,Warung Kopi Pengangon Bakas,"F9F7+HGC, Bakas, Kec. Banjarangkan, Kabupaten Klungkung, Bali 80752","Bakas, Kec. Banjarangkan, Kabupaten Klungkung",BALI,80752.0,Indonesia,81246058609.0,,,-85.260.562,1.153.637.593,https://maps.google.com/?cid=0x0:0x4450c9c360eb2132,
cafe,Kedai Kopi,Warung Laklak Pengangon Bakas,"Jl. Bakas, Bakas, Kec. Banjarangkan, Kabupaten Klungkung, Bali 80752","Bakas, Kec. Banjarangkan, Kabupaten Klungkung",BALI,80752.0,Indonesia,81246058609.0,,,-85.289.924,115.365.479,https://maps.google.com/?cid=0x0:0x2008c830ad91e399,
cafe,Dapur Umum,Warung Reggae DekBolot82,"Jln Lettu Ida Bagus puja no. 31, Banjar Nesa, Banjarangkan, Kec. Banjarangkan, Kabupaten Klungkung, Bali 80752","Banjar Nesa, Banjarangkan, Kec. Banjarangkan, Kabupaten Klungkung",BALI,80752.0,Indonesia,,,,-8.549.877,1.153.706.027,https://maps.google.com/?cid=0x0:0x875a440b4162ad70,
cafe,Restoran,Kubu Manzeroo,"F9H9+R3G, Unnamed Road, Bakas, Kec. Banjarangkan, Kabupaten Klungkung, Bali 80752","Unnamed Road, Bakas, Kec. Banjarangkan, Kabupaten Klungkung",BALI,80752.0,Indonesia,85792158199.0,,,-8.520.445,1.153.676.897,https://maps.google.com/?cid=0x0:0x7162f0e5c92f4484,
cafe,Kedai Kopi,Puspa sedana,"F93H+J5P, Jl. Raya Desa Sema Agung, Tusan, Kec. Banjarangkan, Kabupaten Klungkung, Bali 80752","Jl. Raya Desa Sema Agung, Tusan, Kec. Banjarangkan, Kabupaten Klungkung",BALI,80752.0,Indonesia,81805404890.0,,,-85.459.164,1.153.779.603,https://maps.google.com/?cid=0x0:0xa3c6acbce61a03c6,
cafe,Toko Makanan,Warung Pan Dana,"C9WH+QCJ, Jl. Durian II, Banjarangkan, Kec. Banjarangkan, Kabupaten Klungkung, Bali 80752","Jl. Durian II, Banjarangkan, Kec. Banjarangkan, Kabupaten Klungkung",BALI,80752.0,Indonesia,83114873870.0,,,-85.530.353,1.153.785.165,https://maps.google.com/?cid=0x0:0xcbb501fac2a45df1,
cafe,Makanan Kecil,Warung Gusti Biang,"F9JC+XPQ, Getakan, Kec. Banjarangkan, Kabupaten Klungkung, Bali 80752","Getakan, Kec. Banjarangkan, Kabupaten Klungkung",BALI,80752.0,Indonesia,87761339012.0,,,-85.175.301,11.537.185,https://maps.google.com/?cid=0x0:0xde9f375fec447b6,
cafe,Sesuai untuk keluarga,Warung D'Subak Bakas,"F9F8+X4F, Jl. Bakas, Tusan, Kec. Banjarangkan, Kabupaten Klungkung, Bali 80752","Jl. Bakas, Tusan, Kec. Banjarangkan, Kabupaten Klungkung",BALI,80752.0,Indonesia,87854506433.0,,,-85.250.695,1.153.652.951,https://maps.google.com/?cid=0x0:0x9f9213806c31bf45,
cafe,Rumah Makan,Warung Resta,"F9XG+72X, Jl. Raya Aan, Aan, Kec. Banjarangkan, Kabupaten Klungkung, Bali 80752","Jl. Raya Aan, Aan, Kec. Banjarangkan, Kabupaten Klungkung",BALI,80752.0,Indonesia,8311411444.0,,,-85.017.583,1.153.751.242,https://maps.google.com/?cid=0x0:0x2e080828e6b95e7,
cafe,Es Krim,MIXUE_BANJARANGKAN,"Jl. Raya Banjarangkan, Banjarangkan, Kec. Banjarangkan, Kabupaten Klungkung, Bali 80515","Banjarangkan, Kec. Banjarangkan, Kabupaten Klungkung",BALI,80515.0,Indonesia,82236944773.0,,,-85.504.617,1.153.778.305,https://maps.google.com/?cid=0x0:0x87e09d733b513e0c,
cafe,Jawa,Warung Makan Calonarang,"Jl. Raya Banjarangkan, Tusan, Kec. Banjarangkan, Kabupaten Klungkung, Bali 80752","Tusan, Kec. Banjarangkan, Kabupaten Klungkung",BALI,80752.0,Indonesia,87745325380.0,,,-85.504.079,1.153.756.127,https://maps.google.com/?cid=0x0:0x9ed5ea6232bfd0be,
cafe,Rumah Makan,Warung Be Pasih Mai Laku,"Jl. Raya Banjarangkan No.8, Banjarangkan, Kec. Banjarangkan, Kabupaten Klungkung, Bali 80752","Banjarangkan, Kec. Banjarangkan, Kabupaten Klungkung",BALI,80752.0,Indonesia,8174701418.0,,,-855.043,1.153.766.853,https://maps.google.com/?cid=0x0:0x4b6de3a2f6c2b59,
cafe,Rumah Makan,ABK Angkringan,"C9JC+JQ8, Jl. Prof. Dr. Ida Bagus Mantra, Negari, Kec. Banjarangkan, Kabupaten Klungkung, Bali 80752","Jl. Prof. Dr. Ida Bagus Mantra, Negari, Kec. Banjarangkan, Kabupaten Klungkung",BALI,80752.0,Indonesia,83114165415.0,,,-85.684.596,1.153.719.465,https://maps.google.com/?cid=0x0:0x1ea21c8c58a4ca6a,
cafe,Dapur Umum,Warung Buk Jero,"Jl. Raya Banjarangkan No.21, Banjarangkan, Kec. Banjarangkan, Kabupaten Klungkung, Bali 80752","Banjarangkan, Kec. Banjarangkan, Kabupaten Klungkung",BALI,80752.0,Indonesia,81916582820.0,,,-85.496.841,1.153.686.412,https://maps.google.com/?cid=0x0:0xe2169291e242276b,
cafe,Restoran,D'uma Bakas,"F9F8+23X, Bakas, Kec. Banjarangkan, Kabupaten Klungkung, Bali 80752","Bakas, Kec. Banjarangkan, Kabupaten Klungkung",BALI,80752.0,Indonesia,85737477792.0,,,-85.273.846,1.153.652.272,https://maps.google.com/?cid=0x0:0x89e7c1e7678bc8ea,
cafe,Kafetaria,9cjnet (es m'genep)SPO 1626 KLUNGKUNG,"Br, Jl. Raya Aan, Aan, Kec. Banjarangkan, Kabupaten Klungkung, Bali 80752","Jl. Raya Aan, Aan, Kec. Banjarangkan, Kabupaten Klungkung",BALI,80752.0,Indonesia,81803690218.0,,,-85.014.993,1.153.748.767,https://maps.google.com/?cid=0x0:0xe4f5d7c1c9538495,
cafe,Kedai Kopi,Tjangkir Tua Coffee Spot,"Jl. Gn. Agung, Semarapura Kangin, Kec. Klungkung, Kabupaten Klungkung, Bali 80716","Semarapura Kangin, Kec. Klungkung, Kabupaten Klungkung",BALI,80716.0,Indonesia,87751005057.0,,,-85.353.795,1.154.060.216,https://maps.google.com/?cid=0x0:0xd1cabe29b0bae178,
cafe,cafe,Bali 80761,"Kec. Dawan, Kabupaten Klungkung, Bali","Kabupaten Klungkung, Bali",BALI,,Indonesia,,,,-85.234.217,1.154.378.152,https://maps.google.com/?cid=0x0:0x1c00c5eb6016c010,
cafe,Kafe,Vanbenk Coffee  Eatery,"Jl. Matahari No.1, Semarapura Kelod, Kec. Klungkung, Kabupaten Klungkung, Bali 80716","Semarapura Kelod, Kec. Klungkung, Kabupaten Klungkung",BALI,80716.0,Indonesia,,,,-85.417.965,1.153.965.326,https://maps.google.com/?cid=0x0:0xa056bb9924782e2e,
cafe,Kedai Kopi,Likelike Coffee  Eatery,"Jl. Flamboyan No.36A, Semarapura Kauh, Kec. Klungkung, Kabupaten Klungkung, Bali 80716","Semarapura Kauh, Kec. Klungkung, Kabupaten Klungkung",BALI,80716.0,Indonesia,82340867865.0,,,-85.373.372,1.153.953.751,https://maps.google.com/?cid=0x0:0x458359cc089e9621,
cafe,Kedai Kopi,Lanying Coffee  Eatery,"CFXF+MC3, Banjar Belatung, Pesinggahan, Kec. Dawan, Kabupaten Klungkung, Bali","Kabupaten Klungkung, Bali",BALI,,Indonesia,,,,-85.508.675,1.154.735.547,https://maps.google.com/?cid=0x0:0x1ddd1ae898bfb0d8,
cafe,Restoran,WARUNG KALI UNDA,"FC86+JMJ, Paksebali, Kec. Dawan, Kabupaten Klungkung, Bali 80761","Paksebali, Kec. Dawan, Kabupaten Klungkung",BALI,80761.0,Indonesia,,,,-85.334.231,1.154.116.556,https://maps.google.com/?cid=0x0:0x43ee34376c719891,
cafe,Kafe,Show Time Cafe Kusamba,"Habib Ali Bin Abu Bakar Bin Umar, Jl. Makam, Kp. Kusamba, Kec. Dawan, Kabupaten Klungkung, Bali 80761","Jl. Makam, Kp. Kusamba, Kec. Dawan, Kabupaten Klungkung",BALI,80761.0,Indonesia,85969026363.0,,,-85.645.011,1.154.525.817,https://maps.google.com/?cid=0x0:0xbb01b72259fc7eaf,
cafe,Restoran,The Monkey Bar at Bella Vista,"FFM8+96X, Jl. Bukit Abah, Besan, Kec. Dawan, Kabupaten Klungkung, Bali 80761","Jl. Bukit Abah, Besan, Kec. Dawan, Kabupaten Klungkung",BALI,80761.0,Indonesia,81329310000.0,,,-85.165.216,1.154.656.156,https://maps.google.com/?cid=0x0:0x48e0c52e6a77d802,
cafe,Dapur Umum,Warung Tuak Myounk,"CCVX+V94, Jl. Prof. Dr. Ida Bagus Mantra, Gunaksa, Kec. Dawan, Kabupaten Klungkung, Bali 80761","Jl. Prof. Dr. Ida Bagus Mantra, Gunaksa, Kec. Dawan, Kabupaten Klungkung",BALI,80761.0,Indonesia,81999959193.0,,,-85.553.535,1.154.484.669,https://maps.google.com/?cid=0x0:0xead6856ed8b50ad1,
cafe,Toko umum,Warung Dewi sembako dan lalapan,"FCCG+67H, Jl. Raya Babung, Gunaksa, Kec. Dawan, Kabupaten Klungkung, Bali 80761","Jl. Raya Babung, Gunaksa, Kec. Dawan, Kabupaten Klungkung",BALI,80761.0,Indonesia,81916604915.0,,,-85.294.284,1.154.257.472,https://maps.google.com/?cid=0x0:0x628b27fd8023be4a,
cafe,Indonesia,Warung makan Slake,"FCCV+CWQ, Dawan Kaler, Kec. Dawan, Kabupaten Klungkung, Bali 80761","Dawan Kaler, Kec. Dawan, Kabupaten Klungkung",BALI,80761.0,Indonesia,,,,-85.289.228,1.154.448.741,https://maps.google.com/?cid=0x0:0x538e751f9ce0b284,
cafe,cafe,WR. KOPI JUMPUNG,"Jl. Rama No.102, Semarapura Kangin, Kec. Klungkung, Kabupaten Klungkung, Bali 80711","Semarapura Kangin, Kec. Klungkung, Kabupaten Klungkung",BALI,80711.0,Indonesia,81916404551.0,,,-85.384.681,1.154.107.921,https://maps.google.com/?cid=0x0:0x1a0d4e76eed97bd8,
cafe,Kedai Kopi,Warung cebol,"FC9W+QR3 banjar metulis, Dawan Kaler, Kec. Dawan, Kabupaten Klungkung, Bali 80761","Dawan Kaler, Kec. Dawan, Kabupaten Klungkung",BALI,80761.0,Indonesia,,,,-85.306.194,1.154.470.607,https://maps.google.com/?cid=0x0:0xed41fdd7f7bf1ddc,
cafe,Kedai Kopi,Deck stop 1,"FCF8+622, Paksebali, Kec. Dawan, Kabupaten Klungkung, Bali 80761","Paksebali, Kec. Dawan, Kabupaten Klungkung",BALI,80761.0,Indonesia,,,,-8.526.892,115.414.859,https://maps.google.com/?cid=0x0:0xcd5a3a0456517c74,
cafe,Kedai Kopi,Cerita Kopi  Croissant Klungkung,"Jl. Gajah Mada No.26, Semarapura Kelod Kangin, Kec. Klungkung, Kabupaten Klungkung, Bali 80761","Semarapura Kelod Kangin, Kec. Klungkung, Kabupaten Klungkung",BALI,80761.0,Indonesia,81237379986.0,,,-85.336.331,1.154.039.904,https://maps.google.com/?cid=0x0:0x433535ddc0641215,
cafe,Bali,Warung Lesehan Merta Sari,"CFX7+W4H, Jl. Kresna, Pesinggahan, Kec. Dawan, Kabupaten Klungkung, Bali 80761","Jl. Kresna, Pesinggahan, Kec. Dawan, Kabupaten Klungkung",BALI,80761.0,Indonesia,36630406.0,,,-85.501.853,1.154.628.589,https://maps.google.com/?cid=0x0:0xb166471ecb0d5036,
cafe,Kedai Kopi,Drop Out Coffee,"CCX6+QGR, Kamasan, Kec. Klungkung, Kabupaten Klungkung, Bali 80617","Kamasan, Kec. Klungkung, Kabupaten Klungkung",BALI,80617.0,Indonesia,82247600777.0,,,-85.505.143,1.154.112.617,https://maps.google.com/?cid=0x0:0x175cd453175dfc8c,
cafe,Kedai Kopi,TSOELANGI COFFEE,"Jl. Raya Sulang, Sulang, Kec. Dawan, Kabupaten Klungkung, Bali 80761","Sulang, Kec. Dawan, Kabupaten Klungkung",BALI,80761.0,Indonesia,,,,-85.364.553,1.154.213.251,https://maps.google.com/?cid=0x0:0x606e06a9e98a5393,
cafe,Restoran,Bali 289,"Jl. Prof. Dr. Ida Bagus Mantra No.18, Gunaksa, Kec. Dawan, Kabupaten Klungkung, Bali 80761","Gunaksa, Kec. Dawan, Kabupaten Klungkung",BALI,80761.0,Indonesia,,,,-85.521.619,1.154.382.151,https://maps.google.com/?cid=0x0:0x4fc0feb996b7d5d8,
cafe,Toko,WARUNG BU SUDARTI,"CCRQ+3XP, Jl. Kusanegara, Gunaksa, Kec. Dawan, Kabupaten Klungkung, Bali 80761","Jl. Kusanegara, Gunaksa, Kec. Dawan, Kabupaten Klungkung",BALI,80761.0,Indonesia,87865468290.0,,,-85.597.764,1.154.399.378,https://maps.google.com/?cid=0x0:0xedc53e0d15a46cac,
cafe,Restoran,Warung Men Beruk,"FC97+FWQ, Paksebali, Kec. Dawan, Kabupaten Klungkung, Bali 80761","Paksebali, Kec. Dawan, Kabupaten Klungkung",BALI,80761.0,Indonesia,81915666070.0,,,-85.312.952,1.154.148.558,https://maps.google.com/?cid=0x0:0xa8e838bb5882da68,
cafe,Restoran,Ume Desa,"FC3Q+7Q6, Dawan Klod, Kec. Dawan, Kabupaten Klungkung, Bali 80761","Dawan Klod, Kec. Dawan, Kabupaten Klungkung",BALI,80761.0,Indonesia,85792150073.0,,,-85.468.353,1.154.393.906,https://maps.google.com/?cid=0x0:0x899ad670045b8109,
cafe,Kafe,Warung Cu Young,"Jl. Giri Wisma No.33, Besan, Kec. Dawan, Kabupaten Klungkung, Bali 80761","Besan, Kec. Dawan, Kabupaten Klungkung",BALI,80761.0,Indonesia,,,,-85.190.856,1.154.498.201,https://maps.google.com/?cid=0x0:0xea07e53fc03a61ce,
cafe,Kafe,warung rujak bu ida,"FC57+Q6F, Sampalan Tengah, Kec. Dawan, Kabupaten Klungkung, Bali 80761","Sampalan Tengah, Kec. Dawan, Kabupaten Klungkung",BALI,80761.0,Indonesia,81338984389.0,,,-85.405.628,1.154.130.406,https://maps.google.com/?cid=0x0:0x3e0572a8da7f4584,
cafe,Minimarket,Warung Tut Cantik,"Jl. Sawo Kabeh, Dawan Kaler, Kec. Dawan, Kabupaten Klungkung, Bali 80761","Dawan Kaler, Kec. Dawan, Kabupaten Klungkung",BALI,80761.0,Indonesia,82147314860.0,,,-8.530.161,1.154.445.723,https://maps.google.com/?cid=0x0:0xc363655069ff1f02,
cafe,Kedai Kopi,Green kitchen kafe,"GC49+CFH, Tangkup, Kec. Sidemen, Kabupaten Karangasem, Bali 80864","Tangkup, Kec. Sidemen, Kabupaten Karangasem",BALI,80864.0,Indonesia,82146060236.0,,,-84.939.653,1.154.187.074,https://maps.google.com/?cid=0x0:0x5477d3bf500dd52e,
cafe,Kedai Kopi,Warung beten nyambu,"FFR9+G6, Besan, Kec. Dawan, Kabupaten Klungkung, Bali","Kabupaten Klungkung, Bali",BALI,,Indonesia,,,,-85.086.863,1.154.680.308,https://maps.google.com/?cid=0x0:0x67e78bb53b7be116,
cafe,Kedai Kopi,Rumah KOPI SUBALI,"FC87+MJF, Jalan Pura Panti Timbrah, Paksebali, Kec. Dawan, Kabupaten Klungkung, Bali 80761","Jalan Pura Panti Timbrah, Paksebali, Kec. Dawan, Kabupaten Klungkung",BALI,80761.0,Indonesia,,,,-85.333.107,1.154.140.489,https://maps.google.com/?cid=0x0:0xf197197b75748a1c,
cafe,Kafe,Dely  Sweet Corner,"FC3F+4QQ, Jl. Rama, Gunaksa, Kec. Dawan, Kabupaten Klungkung, Bali 80761","Jl. Rama, Gunaksa, Kec. Dawan, Kabupaten Klungkung",BALI,80761.0,Indonesia,82144051853.0,,,-85.471.566,1.154.244.826,https://maps.google.com/?cid=0x0:0x57cc249786f33ff1,
cafe,cafe,Bali 80711,"Kec. Klungkung, Kabupaten Klungkung, Bali","Kabupaten Klungkung, Bali",BALI,,Indonesia,,,,-8.527.468,1.153.978.272,https://maps.google.com/?cid=0x0:0x1c00c5eb6016bf90,
cafe,Kafe,Vanbenk Coffee  Eatery,"Jl. Matahari No.1, Semarapura Kelod, Kec. Klungkung, Kabupaten Klungkung, Bali 80716","Semarapura Kelod, Kec. Klungkung, Kabupaten Klungkung",BALI,80716.0,Indonesia,,,,-85.417.965,1.153.965.326,https://maps.google.com/?cid=0x0:0xa056bb9924782e2e,
cafe,Kedai Kopi,Likelike Coffee  Eatery,"Jl. Flamboyan No.36A, Semarapura Kauh, Kec. Klungkung, Kabupaten Klungkung, Bali 80716","Semarapura Kauh, Kec. Klungkung, Kabupaten Klungkung",BALI,80716.0,Indonesia,82340867865.0,,,-85.373.372,1.153.953.751,https://maps.google.com/?cid=0x0:0x458359cc089e9621,
cafe,Kafe,GLOWIMARI CAFE,"FC52+C94, Jl. Plawa, Semarapura Kelod, Kec. Klungkung, Kabupaten Klungkung, Bali 80711","Jl. Plawa, Semarapura Kelod, Kec. Klungkung, Kabupaten Klungkung",BALI,80711.0,Indonesia,81339169383.0,,,-85.414.492,115.401.038,https://maps.google.com/?cid=0x0:0x4182491b87cb6a0,
cafe,Kedai Kopi,Tjangkir Tua Coffee Spot,"Jl. Gn. Agung, Semarapura Kangin, Kec. Klungkung, Kabupaten Klungkung, Bali 80716","Semarapura Kangin, Kec. Klungkung, Kabupaten Klungkung",BALI,80716.0,Indonesia,87751005057.0,,,-85.353.795,1.154.060.216,https://maps.google.com/?cid=0x0:0xd1cabe29b0bae178,
cafe,Kedai Kopi,Sindikat Coffee,"Jl. Kecubung No.45, Semarapura Kelod, Kec. Klungkung, Kabupaten Klungkung, Bali 80761","Semarapura Kelod, Kec. Klungkung, Kabupaten Klungkung",BALI,80761.0,Indonesia,,,,-85.415.032,1.153.975.675,https://maps.google.com/?cid=0x0:0x7a6f115539f81521,
cafe,Kedai Kopi,Kedai Kopi Teh KOTE,"Semarapura Tengah, Kec. Klungkung, Kabupaten Klungkung, Bali 80761","Kec. Klungkung, Kabupaten Klungkung",BALI,80761.0,Indonesia,85935049741.0,,,-85.346.186,1.153.990.329,https://maps.google.com/?cid=0x0:0x2587ada1971f7aa9,
cafe,Kedai Kopi,Drop Out Coffee,"CCX6+QGR, Kamasan, Kec. Klungkung, Kabupaten Klungkung, Bali 80617","Kamasan, Kec. Klungkung, Kabupaten Klungkung",BALI,80617.0,Indonesia,82247600777.0,,,-85.505.143,1.154.112.617,https://maps.google.com/?cid=0x0:0x175cd453175dfc8c,
cafe,Rumah Makan,Warung Makan Oldies Garage,"FCF2+H95, Jl. Ngurah Rai, Semarapura Tengah, Kec. Klungkung, Kabupaten Klungkung, Bali 80711","Jl. Ngurah Rai, Semarapura Tengah, Kec. Klungkung, Kabupaten Klungkung",BALI,80711.0,Indonesia,85238911111.0,,,-85.261.079,11.540.097,https://maps.google.com/?cid=0x0:0x2db3a11bf8a2ef4f,
cafe,Kafe,Pams,"Jl. Dewi Sartika No.9X, Semarapura Tengah, Kec. Klungkung, Kabupaten Klungkung, Bali 80711","Semarapura Tengah, Kec. Klungkung, Kabupaten Klungkung",BALI,80711.0,Indonesia,,,,-85.308.493,1.154.006.205,https://maps.google.com/?cid=0x0:0x8932ebba9146d2ef,
cafe,Rumah Makan,Pog's Warung,"Jl. Kecubung No.99X, Semarapura Kelod, Kec. Klungkung, Kabupaten Klungkung, Bali 80716","Semarapura Kelod, Kec. Klungkung, Kabupaten Klungkung",BALI,80716.0,Indonesia,81999956511.0,,,-85.423.779,1.154.017.764,https://maps.google.com/?cid=0x0:0x6d506f33411c9a14,
cafe,Kafe,TITIK KUMPUL COFFEE (Klungkung),"Jl. Gajah Mada No.45, Semarapura Kelod Kangin, Kec. Klungkung, Kabupaten Klungkung, Bali 80761","Semarapura Kelod Kangin, Kec. Klungkung, Kabupaten Klungkung",BALI,80761.0,Indonesia,8980776609.0,,,-85.287.803,115.404.377,https://maps.google.com/?cid=0x0:0x3149417c37219f7,
cafe,Restoran,Dians Garden Bali Klungkung,"CCW5+JF8, Gelgel, Kec. Klungkung, Kabupaten Klungkung, Bali 80761","Gelgel, Kec. Klungkung, Kabupaten Klungkung",BALI,80761.0,Indonesia,81999161993.0,,,-85.532.479,1.154.088.996,https://maps.google.com/?cid=0x0:0x9d11c07c53c8e259,
cafe,cafe,Warung Laco,"Jl. Untung Suropati No.38, Semarapura Tengah, Kec. Klungkung, Kabupaten Klungkung, Bali 80711","Semarapura Tengah, Kec. Klungkung, Kabupaten Klungkung",BALI,80711.0,Indonesia,87861711432.0,,,-85.341.505,1.153.990.934,https://maps.google.com/?cid=0x0:0x1359e07009e36541,
cafe,Bali,Warunk Lokal Bersaudara,"Jl. Imam Bonjol, Lingkungan Bucu, Semarapura Tengah, Kec. Klungkung, Kabupaten Klungkung, Bali 80711","Lingkungan Bucu, Semarapura Tengah, Kec. Klungkung, Kabupaten Klungkung",BALI,80711.0,Indonesia,8179784600.0,,,-8.534.068,1.154.014.047,https://maps.google.com/?cid=0x0:0xbb3dd2402b3b0eca,
cafe,Kafe,So what bubble cheese klungkung,"Jl. Dewi Sartika No.2, Semarapura Kaja, Kec. Klungkung, Kabupaten Klungkung, Bali 80711","Semarapura Kaja, Kec. Klungkung, Kabupaten Klungkung",BALI,80711.0,Indonesia,,,,-85.267.174,1.153.996.858,https://maps.google.com/?cid=0x0:0x9132ff5958693d17,
cafe,Kafe,PITCH,"Jl. Flamboyan No.24, Semarapura Kauh, Kec. Klungkung, Kabupaten Klungkung, Bali 80716","Semarapura Kauh, Kec. Klungkung, Kabupaten Klungkung",BALI,80716.0,Indonesia,36621430.0,,,-85.367.638,1.153.956.284,https://maps.google.com/?cid=0x0:0x94702f9f7501794b,
cafe,Kedai Kopi,Selera Coffee,"FC73+WWV, Jl. Stanplat Bus Jalan, Semarapura Kelod Kangin, Kec. Klungkung, Kabupaten Klungkung, Bali 80761","Jl. Stanplat Bus Jalan, Semarapura Kelod Kangin, Kec. Klungkung, Kabupaten Klungkung",BALI,80761.0,Indonesia,81528835382.0,,,-8.535.147,1.154.048.082,https://maps.google.com/?cid=0x0:0xad19f953130f397,
cafe,Kedai Kopi,Coffe Time,"F9CX+J99, Jl. Ngurah Rai, Semarapura Kaja, Kec. Klungkung, Kabupaten Klungkung, Bali 80716","Jl. Ngurah Rai, Semarapura Kaja, Kec. Klungkung, Kabupaten Klungkung",BALI,80716.0,Indonesia,81233947304.0,,,-85.284.557,1.153.984.958,https://maps.google.com/?cid=0x0:0x766eb0b4debc48b5,
cafe,Restoran,Ayu Cafe,"Jl. Plamboyan No.524, Semarapura Kauh, Semarapura, Kabupaten Klungkung, Bali 80716","Semarapura Kauh, Semarapura, Kabupaten Klungkung",BALI,80716.0,Indonesia,36124191.0,,,-85.393.818,1.153.951.417,https://maps.google.com/?cid=0x0:0x752d04b11ef674ed,
cafe,Kedai Kopi,Kabar Baik Coffee,"Jl. WR. Supratman No.7, Semarapura Tengah, Kec. Klungkung, Kabupaten Klungkung, Bali 80761","Semarapura Tengah, Kec. Klungkung, Kabupaten Klungkung",BALI,80761.0,Indonesia,85792361657.0,,,-8.530.697,1.154.025.306,https://maps.google.com/?cid=0x0:0x2b0999764fa48430,
cafe,Kedai Kopi,Backstage Kedai kopi,"Kemoning, Jl. Flamboyan, Semarapura Kelod, Kec. Klungkung, Kabupaten Klungkung, Bali 80716","Jl. Flamboyan, Semarapura Kelod, Kec. Klungkung, Kabupaten Klungkung",BALI,80716.0,Indonesia,81236041534.0,,,-85.386.538,1.153.952.832,https://maps.google.com/?cid=0x0:0x6f019171204e8687,
cafe,cafe,Bali 80712,"Kec. Klungkung, Kabupaten Klungkung, Bali","Kabupaten Klungkung, Bali",BALI,,Indonesia,,,,-85.253.594,1.153.919.027,https://maps.google.com/?cid=0x0:0x1c00c5eb6016bfa0,
cafe,Kedai Kopi,Likelike Coffee  Eatery,"Jl. Flamboyan No.36A, Semarapura Kauh, Kec. Klungkung, Kabupaten Klungkung, Bali 80716","Semarapura Kauh, Kec. Klungkung, Kabupaten Klungkung",BALI,80716.0,Indonesia,82340867865.0,,,-85.373.372,1.153.953.751,https://maps.google.com/?cid=0x0:0x458359cc089e9621,
cafe,Kafe,Vanbenk Coffee  Eatery,"Jl. Matahari No.1, Semarapura Kelod, Kec. Klungkung, Kabupaten Klungkung, Bali 80716","Semarapura Kelod, Kec. Klungkung, Kabupaten Klungkung",BALI,80716.0,Indonesia,,,,-85.417.965,1.153.965.326,https://maps.google.com/?cid=0x0:0xa056bb9924782e2e,
cafe,Restoran,Dians Garden Bali Klungkung,"CCW5+JF8, Gelgel, Kec. Klungkung, Kabupaten Klungkung, Bali 80761","Gelgel, Kec. Klungkung, Kabupaten Klungkung",BALI,80761.0,Indonesia,81999161993.0,,,-85.532.479,1.154.088.996,https://maps.google.com/?cid=0x0:0x9d11c07c53c8e259,
cafe,Kedai Kopi,Drop Out Coffee,"CCX6+QGR, Kamasan, Kec. Klungkung, Kabupaten Klungkung, Bali 80617","Kamasan, Kec. Klungkung, Kabupaten Klungkung",BALI,80617.0,Indonesia,82247600777.0,,,-85.505.143,1.154.112.617,https://maps.google.com/?cid=0x0:0x175cd453175dfc8c,
cafe,Kedai Kopi,Sindikat Coffee,"Jl. Kecubung No.45, Semarapura Kelod, Kec. Klungkung, Kabupaten Klungkung, Bali 80761","Semarapura Kelod, Kec. Klungkung, Kabupaten Klungkung",BALI,80761.0,Indonesia,,,,-85.415.032,1.153.975.675,https://maps.google.com/?cid=0x0:0x7a6f115539f81521,
cafe,Kafe,GLOWIMARI CAFE,"FC52+C94, Jl. Plawa, Semarapura Kelod, Kec. Klungkung, Kabupaten Klungkung, Bali 80711","Jl. Plawa, Semarapura Kelod, Kec. Klungkung, Kabupaten Klungkung",BALI,80711.0,Indonesia,81339169383.0,,,-85.414.492,115.401.038,https://maps.google.com/?cid=0x0:0x4182491b87cb6a0,
cafe,Kedai Kopi,Tjangkir Tua Coffee Spot,"Jl. Gn. Agung, Semarapura Kangin, Kec. Klungkung, Kabupaten Klungkung, Bali 80716","Semarapura Kangin, Kec. Klungkung, Kabupaten Klungkung",BALI,80716.0,Indonesia,87751005057.0,,,-85.353.795,1.154.060.216,https://maps.google.com/?cid=0x0:0xd1cabe29b0bae178,
cafe,Rumah Makan,Warung Makan Oldies Garage,"FCF2+H95, Jl. Ngurah Rai, Semarapura Tengah, Kec. Klungkung, Kabupaten Klungkung, Bali 80711","Jl. Ngurah Rai, Semarapura Tengah, Kec. Klungkung, Kabupaten Klungkung",BALI,80711.0,Indonesia,85238911111.0,,,-85.261.079,11.540.097,https://maps.google.com/?cid=0x0:0x2db3a11bf8a2ef4f,
cafe,Kafe,TITIK KUMPUL COFFEE (Klungkung),"Jl. Gajah Mada No.45, Semarapura Kelod Kangin, Kec. Klungkung, Kabupaten Klungkung, Bali 80761","Semarapura Kelod Kangin, Kec. Klungkung, Kabupaten Klungkung",BALI,80761.0,Indonesia,8980776609.0,,,-85.287.803,115.404.377,https://maps.google.com/?cid=0x0:0x3149417c37219f7,
cafe,Kafe,Pams,"Jl. Dewi Sartika No.9X, Semarapura Tengah, Kec. Klungkung, Kabupaten Klungkung, Bali 80711","Semarapura Tengah, Kec. Klungkung, Kabupaten Klungkung",BALI,80711.0,Indonesia,,,,-85.308.493,1.154.006.205,https://maps.google.com/?cid=0x0:0x8932ebba9146d2ef,
cafe,Toko kopi,Kedai Kopi nAu Klungkung,"Jl. Untung Suropati, Semarapura Tengah, Kec. Klungkung, Kabupaten Klungkung, Bali 80716","Semarapura Tengah, Kec. Klungkung, Kabupaten Klungkung",BALI,80716.0,Indonesia,8155048160.0,,,-85.341.848,1.153.976.671,https://maps.google.com/?cid=0x0:0xbd6d109dde3eb976,
cafe,Kedai Kopi,SAMASTRA KEDAI,"Jl. Srikandi II, Semarapura Kangin, Kec. Klungkung, Kabupaten Klungkung, Bali 80716","Semarapura Kangin, Kec. Klungkung, Kabupaten Klungkung",BALI,80716.0,Indonesia,85694494742.0,,,-85.437.655,1.154.039.645,https://maps.google.com/?cid=0x0:0xa5f5c7b1b21cbf8e,
cafe,Kedai Kopi,Coffe Time,"F9CX+J99, Jl. Ngurah Rai, Semarapura Kaja, Kec. Klungkung, Kabupaten Klungkung, Bali 80716","Jl. Ngurah Rai, Semarapura Kaja, Kec. Klungkung, Kabupaten Klungkung",BALI,80716.0,Indonesia,81233947304.0,,,-85.284.557,1.153.984.958,https://maps.google.com/?cid=0x0:0x766eb0b4debc48b5,
cafe,Restoran,Melt Kitchen Coffee and Bar,"Jalan Pantai Kelingking, Banjar Sebuluh, Bunga Mekar, Kec. Nusa Penida, Kabupaten Klungkung, Bali 80771","Banjar Sebuluh, Bunga Mekar, Kec. Nusa Penida, Kabupaten Klungkung",BALI,80771.0,Indonesia,85213257237.0,,,-87.457.832,1.154.866.937,https://maps.google.com/?cid=0x0:0xb4b5f720b57b93da,
cafe,Rumah Makan,"depot MANGGIS""""","FCF2+H79, Jl. Ngurah Rai, Semarapura Tengah, Kec. Klungkung, Kabupaten Klungkung, Bali 80711","Jl. Ngurah Rai, Semarapura Tengah, Kec. Klungkung, Kabupaten Klungkung",BALI,80711.0,Indonesia,81337038574.0,,,-85.260.783,115.400.741,https://maps.google.com/?cid=0x0:0x22b841edea3f1c66,
cafe,Sesuai untuk keluarga,Tempat Makan,"No Jl. Jepun No.18, Semarapura Kelod, Kec. Klungkung, Kabupaten Klungkung, Bali 80716","Semarapura Kelod, Kec. Klungkung, Kabupaten Klungkung",BALI,80716.0,Indonesia,,,,-85.438.102,1.154.008.054,https://maps.google.com/?cid=0x0:0x8be85450fca1dc0d,
cafe,Kafe,So what bubble cheese klungkung,"Jl. Dewi Sartika No.2, Semarapura Kaja, Kec. Klungkung, Kabupaten Klungkung, Bali 80711","Semarapura Kaja, Kec. Klungkung, Kabupaten Klungkung",BALI,80711.0,Indonesia,,,,-85.267.174,1.153.996.858,https://maps.google.com/?cid=0x0:0x9132ff5958693d17,
cafe,Restoran,Bali 315,"FCF2+PR6, Semarapura Tengah, Kec. Klungkung, Kabupaten Klungkung, Bali 80711","Semarapura Tengah, Kec. Klungkung, Kabupaten Klungkung",BALI,80711.0,Indonesia,81994249987.0,,,-85.257.225,1.154.020.259,https://maps.google.com/?cid=0x0:0xc9ddf8d60109dea7,
cafe,Restoran,Kafe Blaars,"Jl. Gajah Mada No.12, Semarapura Kelod Kangin, Kec. Klungkung, Kabupaten Klungkung, Bali 80716","Semarapura Kelod Kangin, Kec. Klungkung, Kabupaten Klungkung",BALI,80716.0,Indonesia,83115038958.0,,,-85.319.325,1.154.043.534,https://maps.google.com/?cid=0x0:0x3e92f72d4c6b443,
cafe,Kedai Kopi,Kedai Kopi Teh KOTE,"Semarapura Tengah, Kec. Klungkung, Kabupaten Klungkung, Bali 80761","Kec. Klungkung, Kabupaten Klungkung",BALI,80761.0,Indonesia,85935049741.0,,,-85.346.186,1.153.990.329,https://maps.google.com/?cid=0x0:0x2587ada1971f7aa9,
cafe,Kedai Kopi,Selera Coffee,"FC73+WWV, Jl. Stanplat Bus Jalan, Semarapura Kelod Kangin, Kec. Klungkung, Kabupaten Klungkung, Bali 80761","Jl. Stanplat Bus Jalan, Semarapura Kelod Kangin, Kec. Klungkung, Kabupaten Klungkung",BALI,80761.0,Indonesia,81528835382.0,,,-8.535.147,1.154.048.082,https://maps.google.com/?cid=0x0:0xad19f953130f397,
cafe,Restoran,Warung Restu,"FC9X+RJX, Jalan bukit lingga, Dawan Kaler, Kec. Dawan, Kabupaten Klungkung, Bali 80761","Jalan bukit lingga, Dawan Kaler, Kec. Dawan, Kabupaten Klungkung",BALI,80761.0,Indonesia,87861897607.0,,,-85.303.873,1.154.491.163,https://maps.google.com/?cid=0x0:0x255d05e1da9f0797,
cafe,Kedai Kopi,Backstage Kedai kopi,"Kemoning, Jl. Flamboyan, Semarapura Kelod, Kec. Klungkung, Kabupaten Klungkung, Bali 80716","Jl. Flamboyan, Semarapura Kelod, Kec. Klungkung, Kabupaten Klungkung",BALI,80716.0,Indonesia,81236041534.0,,,-85.386.538,1.153.952.832,https://maps.google.com/?cid=0x0:0x6f019171204e8687,
cafe,Restoran,Ayu Cafe,"Jl. Plamboyan No.524, Semarapura Kauh, Semarapura, Kabupaten Klungkung, Bali 80716","Semarapura Kauh, Semarapura, Kabupaten Klungkung",BALI,80716.0,Indonesia,36124191.0,,,-85.393.818,1.153.951.417,https://maps.google.com/?cid=0x0:0x752d04b11ef674ed,
cafe,cafe,Bali 80713,"Tihingan, Kec. Banjarangkan, Kabupaten Klungkung, Bali","Kabupaten Klungkung, Bali",BALI,,Indonesia,,,,-8.533.129,1.153.889.403,https://maps.google.com/?cid=0x0:0x1c00c5eb6016bfb0,
cafe,Kafe,Vanbenk Coffee  Eatery,"Jl. Matahari No.1, Semarapura Kelod, Kec. Klungkung, Kabupaten Klungkung, Bali 80716","Semarapura Kelod, Kec. Klungkung, Kabupaten Klungkung",BALI,80716.0,Indonesia,,,,-85.417.965,1.153.965.326,https://maps.google.com/?cid=0x0:0xa056bb9924782e2e,
cafe,Kedai Kopi,Likelike Coffee  Eatery,"Jl. Flamboyan No.36A, Semarapura Kauh, Kec. Klungkung, Kabupaten Klungkung, Bali 80716","Semarapura Kauh, Kec. Klungkung, Kabupaten Klungkung",BALI,80716.0,Indonesia,82340867865.0,,,-85.373.372,1.153.953.751,https://maps.google.com/?cid=0x0:0x458359cc089e9621,
cafe,Kedai Kopi,Tjangkir Tua Coffee Spot,"Jl. Gn. Agung, Semarapura Kangin, Kec. Klungkung, Kabupaten Klungkung, Bali 80716","Semarapura Kangin, Kec. Klungkung, Kabupaten Klungkung",BALI,80716.0,Indonesia,87751005057.0,,,-85.353.795,1.154.060.216,https://maps.google.com/?cid=0x0:0xd1cabe29b0bae178,
cafe,Kedai Kopi,Sindikat Coffee,"Jl. Kecubung No.45, Semarapura Kelod, Kec. Klungkung, Kabupaten Klungkung, Bali 80761","Semarapura Kelod, Kec. Klungkung, Kabupaten Klungkung",BALI,80761.0,Indonesia,,,,-85.415.032,1.153.975.675,https://maps.google.com/?cid=0x0:0x7a6f115539f81521,
cafe,Kafe,GLOWIMARI CAFE,"FC52+C94, Jl. Plawa, Semarapura Kelod, Kec. Klungkung, Kabupaten Klungkung, Bali 80711","Jl. Plawa, Semarapura Kelod, Kec. Klungkung, Kabupaten Klungkung",BALI,80711.0,Indonesia,81339169383.0,,,-85.414.492,115.401.038,https://maps.google.com/?cid=0x0:0x4182491b87cb6a0,
cafe,Kedai Kopi,Drop Out Coffee,"CCX6+QGR, Kamasan, Kec. Klungkung, Kabupaten Klungkung, Bali 80617","Kamasan, Kec. Klungkung, Kabupaten Klungkung",BALI,80617.0,Indonesia,82247600777.0,,,-85.505.143,1.154.112.617,https://maps.google.com/?cid=0x0:0x175cd453175dfc8c,
cafe,Kafe,TITIK KUMPUL COFFEE (Klungkung),"Jl. Gajah Mada No.45, Semarapura Kelod Kangin, Kec. Klungkung, Kabupaten Klungkung, Bali 80761","Semarapura Kelod Kangin, Kec. Klungkung, Kabupaten Klungkung",BALI,80761.0,Indonesia,8980776609.0,,,-85.287.803,115.404.377,https://maps.google.com/?cid=0x0:0x3149417c37219f7,
cafe,Restoran,Dians Garden Bali Klungkung,"CCW5+JF8, Gelgel, Kec. Klungkung, Kabupaten Klungkung, Bali 80761","Gelgel, Kec. Klungkung, Kabupaten Klungkung",BALI,80761.0,Indonesia,81999161993.0,,,-85.532.479,1.154.088.996,https://maps.google.com/?cid=0x0:0x9d11c07c53c8e259,
cafe,Kafe,PITCH,"Jl. Flamboyan No.24, Semarapura Kauh, Kec. Klungkung, Kabupaten Klungkung, Bali 80716","Semarapura Kauh, Kec. Klungkung, Kabupaten Klungkung",BALI,80716.0,Indonesia,36621430.0,,,-85.367.638,1.153.956.284,https://maps.google.com/?cid=0x0:0x94702f9f7501794b,
cafe,Rumah Makan,Pog's Warung,"Jl. Kecubung No.99X, Semarapura Kelod, Kec. Klungkung, Kabupaten Klungkung, Bali 80716","Semarapura Kelod, Kec. Klungkung, Kabupaten Klungkung",BALI,80716.0,Indonesia,81999956511.0,,,-85.423.779,1.154.017.764,https://maps.google.com/?cid=0x0:0x6d506f33411c9a14,
cafe,Restoran,Ayu Cafe,"Jl. Plamboyan No.524, Semarapura Kauh, Semarapura, Kabupaten Klungkung, Bali 80716","Semarapura Kauh, Semarapura, Kabupaten Klungkung",BALI,80716.0,Indonesia,36124191.0,,,-85.393.818,1.153.951.417,https://maps.google.com/?cid=0x0:0x752d04b11ef674ed,
cafe,Toko kopi,Kedai Kopi nAu Klungkung,"Jl. Untung Suropati, Semarapura Tengah, Kec. Klungkung, Kabupaten Klungkung, Bali 80716","Semarapura Tengah, Kec. Klungkung, Kabupaten Klungkung",BALI,80716.0,Indonesia,8155048160.0,,,-85.341.848,1.153.976.671,https://maps.google.com/?cid=0x0:0xbd6d109dde3eb976,
cafe,Kedai Kopi,Backstage Kedai kopi,"Kemoning, Jl. Flamboyan, Semarapura Kelod, Kec. Klungkung, Kabupaten Klungkung, Bali 80716","Jl. Flamboyan, Semarapura Kelod, Kec. Klungkung, Kabupaten Klungkung",BALI,80716.0,Indonesia,81236041534.0,,,-85.386.538,1.153.952.832,https://maps.google.com/?cid=0x0:0x6f019171204e8687,
cafe,Restoran,Melt Kitchen Coffee and Bar,"Jalan Pantai Kelingking, Banjar Sebuluh, Bunga Mekar, Kec. Nusa Penida, Kabupaten Klungkung, Bali 80771","Banjar Sebuluh, Bunga Mekar, Kec. Nusa Penida, Kabupaten Klungkung",BALI,80771.0,Indonesia,85213257237.0,,,-87.457.832,1.154.866.937,https://maps.google.com/?cid=0x0:0xb4b5f720b57b93da,
cafe,Kedai Kopi,SAMASTRA KEDAI,"Jl. Srikandi II, Semarapura Kangin, Kec. Klungkung, Kabupaten Klungkung, Bali 80716","Semarapura Kangin, Kec. Klungkung, Kabupaten Klungkung",BALI,80716.0,Indonesia,85694494742.0,,,-85.437.655,1.154.039.645,https://maps.google.com/?cid=0x0:0xa5f5c7b1b21cbf8e,
cafe,Kedai Kopi,DECOUNTRY,"FC23+2X7, Jl. Pande MAS, Kamasan, Kec. Klungkung, Kabupaten Klungkung, Bali 80716","Jl. Pande MAS, Kamasan, Kec. Klungkung, Kabupaten Klungkung",BALI,80716.0,Indonesia,82236371838.0,,,-85.499.641,1.154.049.283,https://maps.google.com/?cid=0x0:0x93a8e7e03d4dde00,
cafe,Toko Roti,Nandiya Bakery,"Jl. Flamboyan No.38, Semarapura Kelod, Kec. Klungkung, Kabupaten Klungkung, Bali 80716","Semarapura Kelod, Kec. Klungkung, Kabupaten Klungkung",BALI,80716.0,Indonesia,87760460775.0,,,-85.385.238,1.153.952.643,https://maps.google.com/?cid=0x0:0xd35d7aefca605cc3,
cafe,Rumah Makan,Warung Sari Rasa Klungkung,"Jl. Flamboyan No.24, Semarapura Kauh, Kec. Klungkung, Kabupaten Klungkung, Bali 80713","Semarapura Kauh, Kec. Klungkung, Kabupaten Klungkung",BALI,80713.0,Indonesia,81338155765.0,,,-85.367.638,1.153.956.284,https://maps.google.com/?cid=0x0:0xe320a7e40527ed57,
cafe,Toko Roti,Pelangi Bakery n Gift Klungkung,"Jl. Flamboyan No.36, Semarapura Kauh, Kec. Klungkung, Kabupaten Klungkung, Bali 80716","Semarapura Kauh, Kec. Klungkung, Kabupaten Klungkung",BALI,80716.0,Indonesia,81333444245.0,,,-85.378.456,1.153.952.581,https://maps.google.com/?cid=0x0:0x199a275cc063266e,
cafe,Kedai Kopi,Selera Coffee,"FC73+WWV, Jl. Stanplat Bus Jalan, Semarapura Kelod Kangin, Kec. Klungkung, Kabupaten Klungkung, Bali 80761","Jl. Stanplat Bus Jalan, Semarapura Kelod Kangin, Kec. Klungkung, Kabupaten Klungkung",BALI,80761.0,Indonesia,81528835382.0,,,-8.535.147,1.154.048.082,https://maps.google.com/?cid=0x0:0xad19f953130f397,
cafe,Kedai Kopi,Lompang Cafe,"CCQ7+R8F, Jl. Gelgel-Jumpai, Gelgel, Kec. Klungkung, Kabupaten Klungkung, Bali","Kabupaten Klungkung, Bali",BALI,,Indonesia,,,,-85.604.443,1.154.132.861,https://maps.google.com/?cid=0x0:0x18edf4f4e0870d12,
cafe,Restoran,Mini cafe,"FC74+MQ7, Jl. Diponegoro, Semarapura Kelod Kangin, Kec. Klungkung, Kabupaten Klungkung, Bali 80761","Jl. Diponegoro, Semarapura Kelod Kangin, Kec. Klungkung, Kabupaten Klungkung",BALI,80761.0,Indonesia,,,,-85.358.277,115.406.908,https://maps.google.com/?cid=0x0:0xaff509eccf9f2c5b,
cafe,cafe,Semarapura,"Kec. Klungkung, Kabupaten Klungkung, Bali","Kabupaten Klungkung, Bali",BALI,,Indonesia,,,,-85.388.252,115.402.367,https://maps.google.com/?cid=0x0:0x4030bfbca7d2ed0,
cafe,Kafe,Vanbenk Coffee  Eatery,"Jl. Matahari No.1, Semarapura Kelod, Kec. Klungkung, Kabupaten Klungkung, Bali 80716","Semarapura Kelod, Kec. Klungkung, Kabupaten Klungkung",BALI,80716.0,Indonesia,,,,-85.417.965,1.153.965.326,https://maps.google.com/?cid=0x0:0xa056bb9924782e2e,
cafe,Kedai Kopi,Likelike Coffee  Eatery,"Jl. Flamboyan No.36A, Semarapura Kauh, Kec. Klungkung, Kabupaten Klungkung, Bali 80716","Semarapura Kauh, Kec. Klungkung, Kabupaten Klungkung",BALI,80716.0,Indonesia,82340867865.0,,,-85.373.372,1.153.953.751,https://maps.google.com/?cid=0x0:0x458359cc089e9621,
cafe,Kedai Kopi,Tjangkir Tua Coffee Spot,"Jl. Gn. Agung, Semarapura Kangin, Kec. Klungkung, Kabupaten Klungkung, Bali 80716","Semarapura Kangin, Kec. Klungkung, Kabupaten Klungkung",BALI,80716.0,Indonesia,87751005057.0,,,-85.353.795,1.154.060.216,https://maps.google.com/?cid=0x0:0xd1cabe29b0bae178,
cafe,Penginapan,BOJA BILLIARD  COFFEE,"Jl. Kresna, Semarapura Kangin, Kec. Klungkung, Kabupaten Klungkung, Bali 80716","Semarapura Kangin, Kec. Klungkung, Kabupaten Klungkung",BALI,80716.0,Indonesia,85180680399.0,,,-85.446.572,1.154.053.058,https://maps.google.com/?cid=0x0:0x67cd7f01108dc347,
cafe,Rumah Makan,Pog's Warung,"Jl. Kecubung No.99X, Semarapura Kelod, Kec. Klungkung, Kabupaten Klungkung, Bali 80716","Semarapura Kelod, Kec. Klungkung, Kabupaten Klungkung",BALI,80716.0,Indonesia,81999956511.0,,,-85.423.779,1.154.017.764,https://maps.google.com/?cid=0x0:0x6d506f33411c9a14,
cafe,Restoran,Dians Garden Bali Klungkung,"CCW5+JF8, Gelgel, Kec. Klungkung, Kabupaten Klungkung, Bali 80761","Gelgel, Kec. Klungkung, Kabupaten Klungkung",BALI,80761.0,Indonesia,81999161993.0,,,-85.532.479,1.154.088.996,https://maps.google.com/?cid=0x0:0x9d11c07c53c8e259,
cafe,Kedai Kopi,Drop Out Coffee,"CCX6+QGR, Kamasan, Kec. Klungkung, Kabupaten Klungkung, Bali 80617","Kamasan, Kec. Klungkung, Kabupaten Klungkung",BALI,80617.0,Indonesia,82247600777.0,,,-85.505.143,1.154.112.617,https://maps.google.com/?cid=0x0:0x175cd453175dfc8c,
cafe,Kedai Kopi,Sindikat Coffee,"Jl. Kecubung No.45, Semarapura Kelod, Kec. Klungkung, Kabupaten Klungkung, Bali 80761","Semarapura Kelod, Kec. Klungkung, Kabupaten Klungkung",BALI,80761.0,Indonesia,,,,-85.415.032,1.153.975.675,https://maps.google.com/?cid=0x0:0x7a6f115539f81521,
cafe,Kafe,GLOWIMARI CAFE,"FC52+C94, Jl. Plawa, Semarapura Kelod, Kec. Klungkung, Kabupaten Klungkung, Bali 80711","Jl. Plawa, Semarapura Kelod, Kec. Klungkung, Kabupaten Klungkung",BALI,80711.0,Indonesia,81339169383.0,,,-85.414.492,115.401.038,https://maps.google.com/?cid=0x0:0x4182491b87cb6a0,
cafe,Kedai Kopi,Kedai Kopi Teh KOTE,"Semarapura Tengah, Kec. Klungkung, Kabupaten Klungkung, Bali 80761","Kec. Klungkung, Kabupaten Klungkung",BALI,80761.0,Indonesia,85935049741.0,,,-85.346.186,1.153.990.329,https://maps.google.com/?cid=0x0:0x2587ada1971f7aa9,
cafe,Kafe,TITIK KUMPUL COFFEE (Klungkung),"Jl. Gajah Mada No.45, Semarapura Kelod Kangin, Kec. Klungkung, Kabupaten Klungkung, Bali 80761","Semarapura Kelod Kangin, Kec. Klungkung, Kabupaten Klungkung",BALI,80761.0,Indonesia,8980776609.0,,,-85.287.803,115.404.377,https://maps.google.com/?cid=0x0:0x3149417c37219f7,
cafe,Kafe,PITCH,"Jl. Flamboyan No.24, Semarapura Kauh, Kec. Klungkung, Kabupaten Klungkung, Bali 80716","Semarapura Kauh, Kec. Klungkung, Kabupaten Klungkung",BALI,80716.0,Indonesia,36621430.0,,,-85.367.638,1.153.956.284,https://maps.google.com/?cid=0x0:0x94702f9f7501794b,
cafe,Restoran,Ayu Cafe,"Jl. Plamboyan No.524, Semarapura Kauh, Semarapura, Kabupaten Klungkung, Bali 80716","Semarapura Kauh, Semarapura, Kabupaten Klungkung",BALI,80716.0,Indonesia,36124191.0,,,-85.393.818,1.153.951.417,https://maps.google.com/?cid=0x0:0x752d04b11ef674ed,
cafe,Toko kopi,Kedai Kopi nAu Klungkung,"Jl. Untung Suropati, Semarapura Tengah, Kec. Klungkung, Kabupaten Klungkung, Bali 80716","Semarapura Tengah, Kec. Klungkung, Kabupaten Klungkung",BALI,80716.0,Indonesia,8155048160.0,,,-85.341.848,1.153.976.671,https://maps.google.com/?cid=0x0:0xbd6d109dde3eb976,
cafe,Kedai Kopi,Selera Coffee,"FC73+WWV, Jl. Stanplat Bus Jalan, Semarapura Kelod Kangin, Kec. Klungkung, Kabupaten Klungkung, Bali 80761","Jl. Stanplat Bus Jalan, Semarapura Kelod Kangin, Kec. Klungkung, Kabupaten Klungkung",BALI,80761.0,Indonesia,81528835382.0,,,-8.535.147,1.154.048.082,https://maps.google.com/?cid=0x0:0xad19f953130f397,
cafe,Kedai Kopi,Coffe Time,"F9CX+J99, Jl. Ngurah Rai, Semarapura Kaja, Kec. Klungkung, Kabupaten Klungkung, Bali 80716","Jl. Ngurah Rai, Semarapura Kaja, Kec. Klungkung, Kabupaten Klungkung",BALI,80716.0,Indonesia,81233947304.0,,,-85.284.557,1.153.984.958,https://maps.google.com/?cid=0x0:0x766eb0b4debc48b5,
cafe,Kedai Kopi,DECOUNTRY,"FC23+2X7, Jl. Pande MAS, Kamasan, Kec. Klungkung, Kabupaten Klungkung, Bali 80716","Jl. Pande MAS, Kamasan, Kec. Klungkung, Kabupaten Klungkung",BALI,80716.0,Indonesia,82236371838.0,,,-85.499.641,1.154.049.283,https://maps.google.com/?cid=0x0:0x93a8e7e03d4dde00,
cafe,Kafe,Pams,"Jl. Dewi Sartika No.9X, Semarapura Tengah, Kec. Klungkung, Kabupaten Klungkung, Bali 80711","Semarapura Tengah, Kec. Klungkung, Kabupaten Klungkung",BALI,80711.0,Indonesia,,,,-85.308.493,1.154.006.205,https://maps.google.com/?cid=0x0:0x8932ebba9146d2ef,
cafe,Kedai Kopi,SAMASTRA KEDAI,"Jl. Srikandi II, Semarapura Kangin, Kec. Klungkung, Kabupaten Klungkung, Bali 80716","Semarapura Kangin, Kec. Klungkung, Kabupaten Klungkung",BALI,80716.0,Indonesia,85694494742.0,,,-85.437.655,1.154.039.645,https://maps.google.com/?cid=0x0:0xa5f5c7b1b21cbf8e,
cafe,Kedai Kopi,Lompang Cafe,"CCQ7+R8F, Jl. Gelgel-Jumpai, Gelgel, Kec. Klungkung, Kabupaten Klungkung, Bali","Kabupaten Klungkung, Bali",BALI,,Indonesia,,,,-85.604.443,1.154.132.861,https://maps.google.com/?cid=0x0:0x18edf4f4e0870d12,
cafe,Kedai Kopi,Backstage Kedai kopi,"Kemoning, Jl. Flamboyan, Semarapura Kelod, Kec. Klungkung, Kabupaten Klungkung, Bali 80716","Jl. Flamboyan, Semarapura Kelod, Kec. Klungkung, Kabupaten Klungkung",BALI,80716.0,Indonesia,81236041534.0,,,-85.386.538,1.153.952.832,https://maps.google.com/?cid=0x0:0x6f019171204e8687,
cafe,cafe,Bali 80771,"Kec. Nusa Penida, Kabupaten Klungkung, Bali","Kabupaten Klungkung, Bali",BALI,,Indonesia,,,,-8.727.807,1.155.444.231,https://maps.google.com/?cid=0x0:0x1c00c5eb6016c020,
cafe,cafe,"Alily, coffee  eatery","Ped, Kec. Nusa Penida, Kabupaten Klungkung, Bali","Kabupaten Klungkung, Bali",BALI,,Indonesia,82146518412.0,,,-86.793.093,1.154.895.603,https://maps.google.com/?cid=0x0:0x2654d2883188c37d,
cafe,Restoran,Secret Penida Restaurant  Bar,"8GCG+X98, Ped, Kec. Nusa Penida, Kabupaten Klungkung, Bali","Kabupaten Klungkung, Bali",BALI,,Indonesia,,,,-86.775.625,1.155.259.375,https://maps.google.com/?cid=0x0:0x788a5facdc1e530e,
cafe,Restoran,Sunny cafe penida,"Jl. Raya Toya Pakeh - Ped, Ped, Kec. Nusa Penida, Kabupaten Klungkung, Bali 80771","Ped, Kec. Nusa Penida, Kabupaten Klungkung",BALI,80771.0,Indonesia,81338511857.0,,,-86.790.725,1.154.896.031,https://maps.google.com/?cid=0x0:0x75cc38f0e783a437,
cafe,Restoran,Next Level Penida,"Bodong Nusa penida, Ped, Kec. Nusa Penida, Kabupaten Klungkung, Bali 80771","Ped, Kec. Nusa Penida, Kabupaten Klungkung",BALI,80771.0,Indonesia,85337808027.0,,,-86.754.063,115.510.882,https://maps.google.com/?cid=0x0:0xe5efbdcafa2b21b2,
cafe,Hotel,Coral Cafe l Nusa Penida,"Jalan Ped Toyapakeh, Ped, Kec. Nusa Penida, Kabupaten Klungkung, Bali 80771","Ped, Kec. Nusa Penida, Kabupaten Klungkung",BALI,80771.0,Indonesia,85183088057.0,,,-86.759.602,1.155.125.263,https://maps.google.com/?cid=0x0:0x9dc2489adaf5dbb0,
cafe,Restoran,Lunak Café by The Sea,"Jl. Ped-Buyuk, Ped, Kec. Nusa Penida, Kabupaten Klungkung, Bali 80771","Ped, Kec. Nusa Penida, Kabupaten Klungkung",BALI,80771.0,Indonesia,81933028139.0,,,-86.772.841,1.155.301.902,https://maps.google.com/?cid=0x0:0x6f258cf5c2da5df6,
cafe,Restoran,Penida Colada Beach Bar,"Jl. Ped-Buyuk, Ped, Nusa Penida, Klungkung Regency, Bali 80771","Ped, Nusa Penida, Klungkung Regency",BALI,80771.0,Indonesia,,,,-86.756.741,1.155.117.485,https://maps.google.com/?cid=0x0:0x28c8f3335f55e894,
cafe,Toko Kue,Penida Bakery Coffeeshop,"Banjar Jl. Batumulapan, Batununggul, Kec. Nusa Penida, Kabupaten Klungkung, Bali 80771","Batununggul, Kec. Nusa Penida, Kabupaten Klungkung",BALI,80771.0,Indonesia,82146055327.0,,,-86.780.521,1.155.718.857,https://maps.google.com/?cid=0x0:0x58fe5d27f418ef26,
cafe,Masakan Barat,The Chill,"Jl. Batumulapan, Batununggul, Kec. Nusa Penida, Kabupaten Klungkung, Bali 80771","Batununggul, Kec. Nusa Penida, Kabupaten Klungkung",BALI,80771.0,Indonesia,81337598161.0,,,-8.682.506,115.576.129,https://maps.google.com/?cid=0x0:0xf96bc24604be8b1b,
cafe,cafe,Simpang Inn Coffee  Resto Nusa Penida,"Jalan Raya Toya Pakeh,Sakti, Buyuk, Klumpu, Kec. Nusa Penida, Kabupaten Klungkung, Bali 80771","Buyuk, Klumpu, Kec. Nusa Penida, Kabupaten Klungkung",BALI,80771.0,Indonesia,85333523078.0,,,-87.077.146,1.154.886.253,https://maps.google.com/?cid=0x0:0x9b4c683af4c93b3b,
cafe,Restoran,Mambo Beach Restaurant | Beach Bar  Cafe Nusa Penida,"Jalan Ped - Buyuk, Ped, Kec. Nusa Penida, Kabupaten Klungkung, Bali 80771","Ped, Kec. Nusa Penida, Kabupaten Klungkung",BALI,80771.0,Indonesia,,,,-86.728.064,1.155.006.785,https://maps.google.com/?cid=0x0:0x8fe6734191cadc26,
cafe,Masakan Barat,Coco Penida Restaurant  Bar,"Jalan Ped - Buyuk, Ped, Kec. Nusa Penida, Kabupaten Klungkung, Bali 80771","Ped, Kec. Nusa Penida, Kabupaten Klungkung",BALI,80771.0,Indonesia,87861478222.0,,,-86.761.235,1.155.132.366,https://maps.google.com/?cid=0x0:0x6d5b0acfb0b91f1b,
cafe,Restoran,BLACKWHITE cafe  bakery,"Jl raya, Batununggul, Kec. Nusa Penida, Kabupaten Klungkung, Bali 80771","Batununggul, Kec. Nusa Penida, Kabupaten Klungkung",BALI,80771.0,Indonesia,81237040363.0,,,-8.674.591,1.155.644.808,https://maps.google.com/?cid=0x0:0x72abee37ad24778,
cafe,Restoran,Bukit Cafe Nusapenida,"Jalan Pantai Atuh, dusun Pelilit, Pejukutan, Kec. Nusa Penida, Kabupaten Klungkung, Bali 80771","dusun Pelilit, Pejukutan, Kec. Nusa Penida, Kabupaten Klungkung",BALI,80771.0,Indonesia,87810135788.0,,,-87.761.275,1.156.070.277,https://maps.google.com/?cid=0x0:0x31d060f166f0a056,
cafe,Restoran,Kelapa Penida Bar And Restaurant,"Jl. Raya Toya Pakeh - Ped, Ped, Kec. Nusa Penida, Kabupaten Klungkung, Bali 80771","Ped, Kec. Nusa Penida, Kabupaten Klungkung",BALI,80771.0,Indonesia,81353308888.0,,,-86.778.544,1.154.908.514,https://maps.google.com/?cid=0x0:0x112e0fd1b2d2484e,
cafe,Restoran,Warnakali Restaurant Nusa Penida,"Sakti, Regency, Kabupaten Klungkung, Bali 80771","Regency, Kabupaten Klungkung",BALI,80771.0,Indonesia,3616207000.0,,,-86.842.483,1.154.830.873,https://maps.google.com/?cid=0x0:0x11b89a1cbad64d58,
cafe,Restoran,Penida Espresso,"Jalan Ped - Buyuk, Ped, Kec. Nusa Penida, Kabupaten Klungkung, Bali 80771","Ped, Kec. Nusa Penida, Kabupaten Klungkung",BALI,80771.0,Indonesia,81997674050.0,,,-86.774.209,1.155.142.167,https://maps.google.com/?cid=0x0:0x84b0779b7fe033b1,
cafe,Restoran,Tropical Brew,"Jl. Nusa Indah, Kutampi Kaler, Kec. Nusa Penida, Kabupaten Klungkung, Bali 80771","Kutampi Kaler, Kec. Nusa Penida, Kabupaten Klungkung",BALI,80771.0,Indonesia,,,,-86.747.531,1.155.484.082,https://maps.google.com/?cid=0x0:0x91fb52848313e771,
cafe,Restoran,Jona’Bar Kitchen,"Jl.Raya Pangket, Dusun Cemulik, Sakti, Kec. Nusa Penida, Kabupaten Klungkung, Bali 80771","Dusun Cemulik, Sakti, Kec. Nusa Penida, Kabupaten Klungkung",BALI,80771.0,Indonesia,82340641763.0,,,-87.124.123,1.155.006.962,https://maps.google.com/?cid=0x0:0x95b50db32c2285a3,
cafe,Restoran,The Breeze Restaurant  Bar Nusa Penida,"Br Pendem kangin Jl pendem kangin, Pejukutan, Kec. Nusa Penida, Kabupaten Klungkung, Bali 80771","Pejukutan, Kec. Nusa Penida, Kabupaten Klungkung",BALI,80771.0,Indonesia,85964366178.0,,,-87.598.984,1.155.914.973,https://maps.google.com/?cid=0x0:0xced4253b21eec770,
cafe,Kafe,Coffee Beans Nusa Penida,"Pelabuhan buyuk, Kutampi Kaler, Kec. Nusa Penida, Kabupaten Klungkung, Bali 80771","Kutampi Kaler, Kec. Nusa Penida, Kabupaten Klungkung",BALI,80771.0,Indonesia,81329315149.0,,,-86.751.703,1.155.467.844,https://maps.google.com/?cid=0x0:0xacb8e05a427701c1,
cafe,Restoran,ORENDA PENIDA,"Jl. Buyuk, Ped, Kec. Nusa Penida, Kabupaten Klungkung, Bali 80771","Ped, Kec. Nusa Penida, Kabupaten Klungkung",BALI,80771.0,Indonesia,81805578999.0,,,-86.766.661,1.155.365.681,https://maps.google.com/?cid=0x0:0x12b0f8f83144cbe2,
cafe,Bar,Bayside coffee  Eatery Nusa Penida,"Jalan pelabuhan, banjar nyuh, Kec. Nusa Penida, Kabupaten Klungkung, Bali 80771","banjar nyuh, Kec. Nusa Penida, Kabupaten Klungkung",BALI,80771.0,Indonesia,81237110104.0,,,-86.771.061,1.154.889.098,https://maps.google.com/?cid=0x0:0x475f2ccc95ae2c6,
cafe,Kedai Kopi,Ahmad cafe,"Jl. Pelabuhan Toyapakeh, Kp. Toyapakeh, Kec. Nusa Penida, Kabupaten Klungkung, Bali 80771","Kp. Toyapakeh, Kec. Nusa Penida, Kabupaten Klungkung",BALI,80771.0,Indonesia,82144834008.0,,,-86.815.413,1.154.875.602,https://maps.google.com/?cid=0x0:0x5d7e7adcf6943f0d,
cafe,Masakan Asia,Moringa cafe  restaurant,"Banjar senangka, Sakti, Kec. Nusa Penida, Kabupaten Klungkung, Bali 80771","Sakti, Kec. Nusa Penida, Kabupaten Klungkung",BALI,80771.0,Indonesia,81246951177.0,,,-87.087.086,1.154.933.658,https://maps.google.com/?cid=0x0:0x22312c5d83946a03,
