Category,Real Category,Business Name,Address,City,State,Postal Code,Country,Phone,Email,Website,Latitude,Longitude,Map Link,Details Link
building materials,building materials,Bali 80752,"Kec. Banjarangkan, Kabupaten Klungkung, Bali","Kabupaten Klungkung, Bali",BALI,,Indonesia,,,,-8.512.833,1.153.726.469,https://maps.google.com/?cid=0x0:0x1c00c5eb6016c000,
building materials,Toko Bahan Bangunan,Budi Bangunan Banjarangkan,"C9MF+59P, Jl. Tegal Besar, Negari, Kec. Banjarangkan, Kabupaten Klungkung, Bali 80752","Jl. Tegal Besar, Negari, Kec. Banjarangkan, Kabupaten Klungkung",BALI,80752.0,Indonesia,82146583909.0,,,-85.670.401,1.153.734.596,https://maps.google.com/?cid=0x0:0xee6b1a2925e99553,
building materials,Toko Bahan Bangunan,UD ASRI,"Tihingan, Kec. Banjarangkan, Kabupaten Klungkung, Bali 80752","Kec. Banjarangkan, Kabupaten Klungkung",BALI,80752.0,Indonesia,81936037621.0,,,-85.381.701,1.153.831.296,https://maps.google.com/?cid=0x0:0xd64239b648e68340,
building materials,Toko Bahan Bangunan,UD. Sidi Karya,"Jl. Raya Banjarangkan No.23, Banjarangkan, Kec. Banjarangkan, Kabupaten Klungkung, Bali 80752","Banjarangkan, Kec. Banjarangkan, Kabupaten Klungkung",BALI,80752.0,Indonesia,36629285.0,,,-85.503.453,1.153.723.398,https://maps.google.com/?cid=0x0:0x8f975c6965fb92e2,
building materials,Toko,UD. KETUT ASTITI,"G9PM+92R, Jl. Uluwatu, Tohpati, Kec. Banjarangkan, Kabupaten Klungkung, Bali 80752","Jl. Uluwatu, Tohpati, Kec. Banjarangkan, Kabupaten Klungkung",BALI,80752.0,Indonesia,82146431071.0,,,-84.640.155,1.153.825.037,https://maps.google.com/?cid=0x0:0x693a0706efe37c46,
building materials,Toko Bahan Bangunan,Ud Jaya Pratama - Lepang,"jln. Bypass, Jl. Prof. Dr. Ida Bagus Mantra No.Lepang, Takmung, Kec. Banjarangkan, Kabupaten Klungkung, Bali 80716","Jl. Prof. Dr. Ida Bagus Mantra No.Lepang, Takmung, Kec. Banjarangkan, Kabupaten Klungkung",BALI,80716.0,Indonesia,36622982.0,,,-85.682.952,1.153.839.946,https://maps.google.com/?cid=0x0:0xe4353caca82d85a9,
building materials,Toko Bahan Bangunan,UD Aryadana,"Jl. Raya Banjarangkan No.8, Banjarangkan, Kec. Banjarangkan, Kabupaten Klungkung, Bali 80752","Banjarangkan, Kec. Banjarangkan, Kabupaten Klungkung",BALI,80752.0,Indonesia,85769908768.0,,,-85.508.243,1.153.788.033,https://maps.google.com/?cid=0x0:0x862c2502802dbafc,
building materials,Toko Bahan Bangunan,Penek Merta,"Jl. Raya Tusan, Banjarangkan, Kec. Banjarangkan, Kabupaten Klungkung, Bali 80752","Banjarangkan, Kec. Banjarangkan, Kabupaten Klungkung",BALI,80752.0,Indonesia,81999066805.0,,,-8.548.101,1.153.673.657,https://maps.google.com/?cid=0x0:0x7a578e5b161918f8,
building materials,Toko Perlengkapan Rumah,Toko Seni Ukir,"G968+CV9, Jalan Raya, Bungbungan, Banjarangkan, Klungkung Regency, Bali 80752","Jalan Raya, Bungbungan, Banjarangkan, Klungkung Regency",BALI,80752.0,Indonesia,8123997619.0,,,-84.889.523,1.153.672.297,https://maps.google.com/?cid=0x0:0xec85f8d670b31ff7,
building materials,Toko Bahan Bangunan,Taro Anugrah,"C9XH+J8W, Jalan Raya, Banjarangkan, Klungkung Regency, Bali 80752","Jalan Raya, Banjarangkan, Klungkung Regency",BALI,80752.0,Indonesia,81338728983.0,,,-85.508.967,1.153.783.375,https://maps.google.com/?cid=0x0:0xbc1501874aba4355,
building materials,Toko Bahan Bangunan,Bagus Jaya Bangunan,"Jln Raya, Br Beneng, Getakan, Kec. Banjarangkan, Kabupaten Klungkung, Bali","Kabupaten Klungkung, Bali",BALI,,Indonesia,,,,-85.274.228,1.153.774.388,https://maps.google.com/?cid=0x0:0xfddfa221b1f79e88,
building materials,Toko Bahan Bangunan,Taro Abadi,"C9XG+P58, Jalan Raya, Tusan, Banjarangkan, Klungkung Regency, Bali 80752","Jalan Raya, Tusan, Banjarangkan, Klungkung Regency",BALI,80752.0,Indonesia,81337576029.0,,,-85.507.177,1.153.754.614,https://maps.google.com/?cid=0x0:0x3cc80eee93c9ea80,
building materials,Toko Bahan Bangunan,Sarin Bali Pelinggih Batu Tabas Klungkung,"C9JG+J5X, Jl. Prof. Dr. Ida Bagus Mantra, Negari, Kec. Banjarangkan, Kabupaten Klungkung, Bali","Kabupaten Klungkung, Bali",BALI,,Indonesia,85237969565.0,,,-85.683.887,1.153.754.816,https://maps.google.com/?cid=0x0:0x9171f31cb3b32186,
building materials,Toko Bahan Bangunan,Alang Alang Bakas,"F9H8+7W7, banjar kangin/, Bakas, Kec. Banjarangkan, Kabupaten Klungkung, Bali 80752","banjar kangin/, Bakas, Kec. Banjarangkan, Kabupaten Klungkung",BALI,80752.0,Indonesia,87861116587.0,,,-85.218.348,1.153.672.868,https://maps.google.com/?cid=0x0:0x61613d31c319b857,
building materials,Toko Bahan Bangunan,TB Sekar Sari,"C9WQ+WVF, Jl. Raya Takmung, Takmung, Kec. Banjarangkan, Kabupaten Klungkung, Bali 80716","Jl. Raya Takmung, Takmung, Kec. Banjarangkan, Kabupaten Klungkung",BALI,80716.0,Indonesia,36623962.0,,,-85.526.825,1.153.896.579,https://maps.google.com/?cid=0x0:0x835b189248ccecd7,
building materials,Toko,Batu Sikat,"F97M+C43, Jl. Raya Banda, Tihingan, Kec. Banjarangkan, Kabupaten Klungkung, Bali 80752","Jl. Raya Banda, Tihingan, Kec. Banjarangkan, Kabupaten Klungkung",BALI,80752.0,Indonesia,81558769560.0,,,-85.364.776,1.153.827.819,https://maps.google.com/?cid=0x0:0x91153bd9afefbc32,
building materials,Pemasok Bahan Bangunan,UD. SINAR BUANA,"Jl. Sidayu Tojan, Takmung, Kec. Banjarangkan, Kabupaten Klungkung, Bali 80752","Takmung, Kec. Banjarangkan, Kabupaten Klungkung",BALI,80752.0,Indonesia,87762955574.0,,,-85.710.556,1.153.899.998,https://maps.google.com/?cid=0x0:0x666f68310a02b30,
building materials,Toko Bahan Bangunan,TB. Cahaya Batu,"F94V+X64, Jl. Raya Batu Tabih, Takmung, Kec. Banjarangkan, Kabupaten Klungkung, Bali 80716","Jl. Raya Batu Tabih, Takmung, Kec. Banjarangkan, Kabupaten Klungkung",BALI,80716.0,Indonesia,85333074570.0,,,-85.426.146,1.153.930.782,https://maps.google.com/?cid=0x0:0x412c2fe1fc507d49,
building materials,Toko Bahan Bangunan,ADmaterial Bali,"Lepang, Takmung, Kec. Banjarangkan, Kabupaten Klungkung, Bali 80716","Takmung, Kec. Banjarangkan, Kabupaten Klungkung",BALI,80716.0,Indonesia,81314976410.0,,,-85.678.266,1.153.871.522,https://maps.google.com/?cid=0x0:0x9ebf5a2687e345eb,
building materials,Toko Perlengkapan Rumah,Toko Cahaya Mulia,"F928+7VJ, Jl. Raya Tusan, Tusan, Kec. Banjarangkan, Kabupaten Klungkung, Bali 80752","Jl. Raya Tusan, Tusan, Kec. Banjarangkan, Kabupaten Klungkung",BALI,80752.0,Indonesia,36624165.0,,,-85.492.876,1.153.671.326,https://maps.google.com/?cid=0x0:0xc73d9892cb10ac59,
building materials,Toko Kayu,UD SUMBER REJEKI,"C9XH+P98, Jalan Raya, Banjarangkan, Klungkung Regency, Bali 80752","Jalan Raya, Banjarangkan, Klungkung Regency",BALI,80752.0,Indonesia,82131266678.0,,,-8.550.702,115.378.458,https://maps.google.com/?cid=0x0:0x36144f83064f589b,
building materials,Toko Bahan Bangunan,TB.Sinar Batu,"Jl. Sm Agung No.Raya, Tusan, Kec. Banjarangkan, Kabupaten Klungkung, Bali 80752","Tusan, Kec. Banjarangkan, Kabupaten Klungkung",BALI,80752.0,Indonesia,36625388.0,,,-85.443.063,1.153.684.992,https://maps.google.com/?cid=0x0:0x5a6559c5dbdc2b6e,
building materials,building materials,Kec. Banjarangkan,"Kabupaten Klungkung, Bali","Kabupaten Klungkung, Bali",BALI,,Indonesia,,,,-85.493.826,1.153.672.466,https://maps.google.com/?cid=0x0:0x4030bfbca7d2ec0,
building materials,Toko Bahan Bangunan,Happy Sari,"F94C+8X9, Jalan Raya, Tusan, Banjarangkan, Klungkung Regency, Bali 80752","Jalan Raya, Tusan, Banjarangkan, Klungkung Regency",BALI,80752.0,Indonesia,85237595829.0,,,-85.442.032,115.372.495,https://maps.google.com/?cid=0x0:0xfc7387c6a6eaf302,
building materials,Toko,Batako UD Citra kusuma ᬘᬶᬢ᭄ᬭᬓᬸᬲᬸᬫ᭟,"F927+GW7, Banjarangkan, Kec. Banjarangkan, Kabupaten Klungkung, Bali 80515","Banjarangkan, Kec. Banjarangkan, Kabupaten Klungkung",BALI,80515.0,Indonesia,83119396328.0,,,-85.487.172,1.153.648.078,https://maps.google.com/?cid=0x0:0x7ceec0daae49a6b9,
building materials,Toko Bahan Bangunan,Angga bella material,"Aan, Kec. Banjarangkan, Kabupaten Klungkung, Bali","Kabupaten Klungkung, Bali",BALI,,Indonesia,81999572178.0,,,-8.500.737,1.153.742.929,https://maps.google.com/?cid=0x0:0xf0810e2f099edae1,
building materials,building materials,Bali 80761,"Kec. Dawan, Kabupaten Klungkung, Bali","Kabupaten Klungkung, Bali",BALI,,Indonesia,,,,-85.234.217,1.154.378.152,https://maps.google.com/?cid=0x0:0x1c00c5eb6016c010,
building materials,Toko Bahan Bangunan,"Toko Bangunan KERTA JAYA, Dawan Klungkung","Jl. Subak Sedahan Ayung, Gunaksa, Dawan, Klungkung Regency, Bali 80761","Gunaksa, Dawan, Klungkung Regency",BALI,80761.0,Indonesia,85738960650.0,,,-85.521.736,11.544.849,https://maps.google.com/?cid=0x0:0x60ef2d8105f8abee,
building materials,Toko Bahan Bangunan,TB. Darma,"FC6V+R7Q, Jl. Sawo Kabeh, Dawan Kaler, Kec. Dawan, Kabupaten Klungkung, Bali 80761","Jl. Sawo Kabeh, Dawan Kaler, Kec. Dawan, Kabupaten Klungkung",BALI,80761.0,Indonesia,87860486598.0,,,-85.379.088,1.154.432.332,https://maps.google.com/?cid=0x0:0xa4ec9e82f1e4a029,
building materials,Toko Bahan Bangunan,UD. Balananda,"CCXH+5VM, Jl. Rama, Gunaksa, Kec. Dawan, Kabupaten Klungkung, Bali 80761","Jl. Rama, Gunaksa, Kec. Dawan, Kabupaten Klungkung",BALI,80761.0,Indonesia,87860837243.0,,,-85.520.495,1.154.296.742,https://maps.google.com/?cid=0x0:0xd98438b60bc948b,
building materials,Toko Bahan Bangunan,UD. Nata Karya,"FC4W+J4C, Dawan Klod, Kec. Dawan, Kabupaten Klungkung, Bali 80761","Dawan Klod, Kec. Dawan, Kabupaten Klungkung",BALI,80761.0,Indonesia,81803695460.0,,,-85.434.431,1.154.452.643,https://maps.google.com/?cid=0x0:0x8846510cd97bc3f4,
building materials,Toko Bahan Bangunan,UD. Beton Indah,"Jl. Rama No.8, Kamasan, Kec. Klungkung, Kabupaten Klungkung, Bali 80761","Kamasan, Kec. Klungkung, Kabupaten Klungkung",BALI,80761.0,Indonesia,36624075.0,,,-8.542.711,1.154.086.191,https://maps.google.com/?cid=0x0:0xda12a7ca4b79b10b,
building materials,Toko Bahan Bangunan,UD. Karya Nadi,"FC2Q+R2G, Jl. Sawo Kabeh, Dawan Klod, Kec. Dawan, Kabupaten Klungkung, Bali 80761","Jl. Sawo Kabeh, Dawan Klod, Kec. Dawan, Kabupaten Klungkung",BALI,80761.0,Indonesia,81236054225.0,,,-85.479.334,1.154.375.912,https://maps.google.com/?cid=0x0:0x68d68b1c7b679ff6,
building materials,Toko Bahan Bangunan,UD. Karma Karya - Toko Bangunan Karma Karya,"Jl. Prof. Dr. Ida Bagus Mantra, Gunaksa, Kec. Dawan, Kabupaten Klungkung, Bali 80761","Gunaksa, Kec. Dawan, Kabupaten Klungkung",BALI,80761.0,Indonesia,81999274555.0,,,-85.558.336,1.154.477.051,https://maps.google.com/?cid=0x0:0x891372a1308f421,
building materials,Toko Bahan Bangunan,Ratna Mandiri,"Paku Aya No.1, Dawan Klod, Kec. Dawan, Kabupaten Klungkung, Bali 80761","Dawan Klod, Kec. Dawan, Kabupaten Klungkung",BALI,80761.0,Indonesia,,,,-8.549.372,115.448.561,https://maps.google.com/?cid=0x0:0xce3d2e9cebcb5bea,
building materials,Toko Bahan Bangunan,Ud. Segara Manik,"CFXF+MQP, Jl. Raya Goa Lawah, Pesinggahan, Kec. Dawan, Kabupaten Klungkung, Bali 80761","Jl. Raya Goa Lawah, Pesinggahan, Kec. Dawan, Kabupaten Klungkung",BALI,80761.0,Indonesia,81246315505.0,,,-8.550.796,1.154.744.579,https://maps.google.com/?cid=0x0:0x72dddd9239b15218,
building materials,Toko Bahan Bangunan,PT SEMEN INDONESIA DISTRIBUTOR KLUNGKUNG,"Jl. Rama No.38, Semarapura Kangin, Kec. Klungkung, Kabupaten Klungkung, Bali 80761","Semarapura Kangin, Kec. Klungkung, Kabupaten Klungkung",BALI,80761.0,Indonesia,,,,-85.428.571,1.154.056.888,https://maps.google.com/?cid=0x0:0x2c5c143529b7ed1a,
building materials,Toko Bahan Bangunan,UD Sari Amertha,"FF36+P52, Jl. Desa, Pikat, Kec. Dawan, Kabupaten Klungkung, Bali 80761","Jl. Desa, Pikat, Kec. Dawan, Kabupaten Klungkung",BALI,80761.0,Indonesia,813119386181.0,,,-85.457.287,1.154.603.945,https://maps.google.com/?cid=0x0:0x5efbb77b8ed644b5,
building materials,Pemasok Bahan Bangunan,TB. Baskara Karya,"CFR4+F47, Jl. Kusanegara, Kp. Kusamba, Kec. Dawan, Kabupaten Klungkung, Bali 80761","Jl. Kusanegara, Kp. Kusamba, Kec. Dawan, Kabupaten Klungkung",BALI,80761.0,Indonesia,81916161130.0,,,-85.588.273,1.154.552.925,https://maps.google.com/?cid=0x0:0xfce7e44eb1e7e451,
building materials,Toko Bahan Bangunan,Arsa Nadi,"Jl. Raya Gunaksa No.26-28, Gunaksa, Kec. Dawan, Kabupaten Klungkung, Bali 80761","Gunaksa, Kec. Dawan, Kabupaten Klungkung",BALI,80761.0,Indonesia,87861924714.0,,,-85.406.654,1.154.252.769,https://maps.google.com/?cid=0x0:0x1d2a6ed7d2042201,
building materials,Toko Bahan Bangunan,Istana Bangunan,"Jl. Diponegoro No.72, Semarapura Kelod Kangin, Kec. Klungkung, Kabupaten Klungkung, Bali 80761","Semarapura Kelod Kangin, Kec. Klungkung, Kabupaten Klungkung",BALI,80761.0,Indonesia,85156998880.0,,,-85.358.253,1.154.060.363,https://maps.google.com/?cid=0x0:0xdf7d15e58f1ee58e,
building materials,Toko Bahan Bangunan,UD Pikat Mas,"FF36+M56, Pesinggahan, Jl. Desa, Pikat, Kec. Dawan, Kabupaten Klungkung, Bali 80761","Pesinggahan, Jl. Desa, Pikat, Kec. Dawan, Kabupaten Klungkung",BALI,80761.0,Indonesia,85739966558.0,,,-85.458.344,1.154.604.001,https://maps.google.com/?cid=0x0:0xbdc195389d13f2cd,
building materials,Toko Bahan Bangunan,UD Sinar Babakan,"FCXJ+VWX, Jl Raya Semarapura , Sidemen , Karangasem, Talibeng, Kec. Sidemen, Kabupaten Karangasem, Bali 80864","Jl Raya Semarapura , Sidemen , Karangasem, Talibeng, Kec. Sidemen, Kabupaten Karangasem",BALI,80864.0,Indonesia,85337140306.0,,,-85.002.598,1.154.323.597,https://maps.google.com/?cid=0x0:0x74a9f0bd1bfadab,
building materials,Toko Bahan Bangunan,UD. Amertha Dana,"FC8X+G77, Dawan Klod, Kec. Dawan, Kabupaten Klungkung, Bali 80761","Dawan Klod, Kec. Dawan, Kabupaten Klungkung",BALI,80761.0,Indonesia,8123636293.0,,,-85.337.068,115.448.187,https://maps.google.com/?cid=0x0:0x592eb206548748dc,
building materials,Toko,Cika Aluminium,"FC8V+FG9, Jl. Giri Wisma, Dawan Kaler, Kec. Dawan, Kabupaten Klungkung, Bali 80761","Jl. Giri Wisma, Dawan Kaler, Kec. Dawan, Kabupaten Klungkung",BALI,80761.0,Indonesia,87862480845.0,,,-85.338.323,1.154.438.671,https://maps.google.com/?cid=0x0:0x49bb86ffa7f0ed4c,
building materials,Toko Bahan Bangunan,UD Guna Permana,"CCVP+8FV, Jl. Kusanegara, Gunaksa, Kec. Dawan, Kabupaten Klungkung, Bali 80761","Jl. Kusanegara, Gunaksa, Kec. Dawan, Kabupaten Klungkung",BALI,80761.0,Indonesia,81338671573.0,,,-85.566.467,1.154.361.784,https://maps.google.com/?cid=0x0:0xdc91b3c03c535b7,
building materials,Toko Bahan Bangunan,arsAStone,"Jl. Prof. Dr. Ida Bagus Mantra, Gunaksa, Kec. Dawan, Kabupaten Klungkung, Bali 80761","Gunaksa, Kec. Dawan, Kabupaten Klungkung",BALI,80761.0,Indonesia,81291455967.0,,,-85.552.421,1.154.476.317,https://maps.google.com/?cid=0x0:0xb0b0f644d018165,
building materials,building materials,Kec. Dawan,"Kabupaten Klungkung, Bali","Kabupaten Klungkung, Bali",BALI,,Indonesia,,,,-85.515.821,1.154.613.047,https://maps.google.com/?cid=0x0:0x4030bfbca7d2ee0,
building materials,Toko Bahan Bangunan,Toko lumbang,"FF25+3GG, Unnamed Road, Pesinggahan, Kec. Dawan, Kabupaten Klungkung, Bali 80761","Unnamed Road, Pesinggahan, Kec. Dawan, Kabupaten Klungkung",BALI,80761.0,Indonesia,,,,-85.498.179,1.154.588.408,https://maps.google.com/?cid=0x0:0xe5ab0dee5b350cce,
building materials,Toko Bahan Bangunan,UD Sura Nadi,"CFW7+JRW, Pesinggahan, Kec. Dawan, Kabupaten Klungkung, Bali 80761","Pesinggahan, Kec. Dawan, Kabupaten Klungkung",BALI,80761.0,Indonesia,36630775.0,,,-85.533.958,1.154.645.829,https://maps.google.com/?cid=0x0:0xc1a05a9d16d1453c,
building materials,Toko Bahan Bangunan,Toko Karya Sari Asih,"Jl. Kusanegara No.79, Kusamba, Kec. Dawan, Kabupaten Klungkung, Bali 80761","Kusamba, Kec. Dawan, Kabupaten Klungkung",BALI,80761.0,Indonesia,,,,-85.614.264,1.154.508.933,https://maps.google.com/?cid=0x0:0x1cd02888d2036f1b,
building materials,building materials,Bali 80711,"Kec. Klungkung, Kabupaten Klungkung, Bali","Kabupaten Klungkung, Bali",BALI,,Indonesia,,,,-8.527.468,1.153.978.272,https://maps.google.com/?cid=0x0:0x1c00c5eb6016bf90,
building materials,Toko Bahan Bangunan,UD Karya Bangunan,"Jl. Ngurah Rai No.88 A, Semarapura Tengah, Kec. Klungkung, Kabupaten Klungkung, Bali 80711","Semarapura Tengah, Kec. Klungkung, Kabupaten Klungkung",BALI,80711.0,Indonesia,81338141935.0,,,-85.294.348,1.153.984.585,https://maps.google.com/?cid=0x0:0x8915cfcafeed36b9,
building materials,Toko Bahan Bangunan,TB. Eka Karya,"Jl. Raya Besakih No.351, Akah, Kec. Klungkung, Kabupaten Klungkung, Bali 80711","Akah, Kec. Klungkung, Kabupaten Klungkung",BALI,80711.0,Indonesia,859106649010.0,,,-85.228.093,1.154.020.412,https://maps.google.com/?cid=0x0:0xd8bcb360522e84fb,
building materials,Toko Bahan Bangunan,UD. Lemek Sari,"F93W+XWG, Jl. Matahari I, Kemoning, Kec. Klungkung, Kabupaten Klungkung, Bali 80761","Jl. Matahari I, Kemoning, Kec. Klungkung, Kabupaten Klungkung",BALI,80761.0,Indonesia,81339327865.0,,,-85.450.692,1.153.973.312,https://maps.google.com/?cid=0x0:0x36171c48344a5e6a,
building materials,Toko Bahan Bangunan,Toko Bangunan Surya,"Jl. Puputan No.69, Semarapura Kangin, Kec. Klungkung, Kabupaten Klungkung, Bali 80761","Semarapura Kangin, Kec. Klungkung, Kabupaten Klungkung",BALI,80761.0,Indonesia,36621322.0,,,-85.422.503,1.154.025.558,https://maps.google.com/?cid=0x0:0xafbfaa25f3136420,
building materials,Toko Bahan Bangunan,PT SEMEN INDONESIA DISTRIBUTOR KLUNGKUNG,"Jl. Rama No.38, Semarapura Kangin, Kec. Klungkung, Kabupaten Klungkung, Bali 80761","Semarapura Kangin, Kec. Klungkung, Kabupaten Klungkung",BALI,80761.0,Indonesia,,,,-85.428.571,1.154.056.888,https://maps.google.com/?cid=0x0:0x2c5c143529b7ed1a,
building materials,Pemasok Peralatan Konstruksi,TOKO BALI KLUNGKUNG ( Toko Besi di Klungkung ),"Jl. Puputan, Semarapura Kangin, Kec. Klungkung, Kabupaten Klungkung, Bali 80761","Semarapura Kangin, Kec. Klungkung, Kabupaten Klungkung",BALI,80761.0,Indonesia,81236563756.0,,,-85.450.333,1.154.027.932,https://maps.google.com/?cid=0x0:0x231c151326861cc2,
building materials,Toko Bahan Bangunan,UD. Beton Indah,"Jl. Rama No.8, Kamasan, Kec. Klungkung, Kabupaten Klungkung, Bali 80761","Kamasan, Kec. Klungkung, Kabupaten Klungkung",BALI,80761.0,Indonesia,36624075.0,,,-8.542.711,1.154.086.191,https://maps.google.com/?cid=0x0:0xda12a7ca4b79b10b,
building materials,Toko Bahan Bangunan,TB. Cahaya Batu,"F94V+X64, Jl. Raya Batu Tabih, Takmung, Kec. Banjarangkan, Kabupaten Klungkung, Bali 80716","Jl. Raya Batu Tabih, Takmung, Kec. Banjarangkan, Kabupaten Klungkung",BALI,80716.0,Indonesia,85333074570.0,,,-85.426.146,1.153.930.782,https://maps.google.com/?cid=0x0:0x412c2fe1fc507d49,
building materials,Toko Bahan Bangunan,Toko Nusa Klungkung,"Jl. Diponegoro No.48, Semarapura Kangin, Kec. Klungkung, Kabupaten Klungkung, Bali 80716","Semarapura Kangin, Kec. Klungkung, Kabupaten Klungkung",BALI,80716.0,Indonesia,8123943670.0,,,-85.355.923,1.154.051.396,https://maps.google.com/?cid=0x0:0x7a915dba9c06058a,
building materials,Toko Bahan Bangunan,Toko Cat Nusa Mandiri,"Jl. Arjuna No.1, Semarapura Kangin, Kec. Klungkung, Kabupaten Klungkung, Bali 80716","Semarapura Kangin, Kec. Klungkung, Kabupaten Klungkung",BALI,80716.0,Indonesia,36621465.0,,,-85.425.615,1.154.007.411,https://maps.google.com/?cid=0x0:0x6cffd3fdc73f01f7,
building materials,Toko Bahan Bangunan,Agus Bayu Gypsum 1,"FC33+84V, Jl. Puputan, Semarapura Kangin, Kec. Klungkung, Kabupaten Klungkung, Bali 80716","Jl. Puputan, Semarapura Kangin, Kec. Klungkung, Kabupaten Klungkung",BALI,80716.0,Indonesia,81999477108.0,,,-85.466.408,115.402.786,https://maps.google.com/?cid=0x0:0x56ccbbe4b155d924,
building materials,Toko Swalayan,Swalayan Bangunan,"CCX2+J4H, Jl. Kenyeri, Semarapura Kelod, Kec. Klungkung, Kabupaten Klungkung, Bali 80716","Jl. Kenyeri, Semarapura Kelod, Kec. Klungkung, Kabupaten Klungkung",BALI,80716.0,Indonesia,361622660.0,,,-85.509.388,1.154.003.482,https://maps.google.com/?cid=0x0:0x829f8d68b861e8a2,
building materials,Toko Perlengkapan Rumah,Putra Cahaya Gypsum,"FC44+X89, Jl. Rama, Semarapura Kangin, Kec. Klungkung, Kabupaten Klungkung, Bali 80761","Jl. Rama, Semarapura Kangin, Kec. Klungkung, Kabupaten Klungkung",BALI,80761.0,Indonesia,81338313189.0,,,-8.542.596,1.154.058.628,https://maps.google.com/?cid=0x0:0xdcb353e80f6d1df,
building materials,Toko Bahan Bangunan,Benoa Mas Bangunan,"Jl. Puputan No.60, Semarapura Kelod, Kec. Klungkung, Kabupaten Klungkung, Bali 80761","Semarapura Kelod, Kec. Klungkung, Kabupaten Klungkung",BALI,80761.0,Indonesia,89574858596.0,,,-85.425.114,1.154.027.637,https://maps.google.com/?cid=0x0:0xb10fa0aa6355c25,
building materials,Toko Bahan Bangunan,TB. Sinar Dewata,"FC25+X2P, Jl. Mahodara, Kamasan, Kec. Klungkung, Kabupaten Klungkung, Bali 80761","Jl. Mahodara, Kamasan, Kec. Klungkung, Kabupaten Klungkung",BALI,80761.0,Indonesia,87851162036.0,,,-85.475.465,1.154.075.937,https://maps.google.com/?cid=0x0:0x3dc6ffb8e9280771,
building materials,Toko Bahan Bangunan,SINAR GYPSUM,"FC53+2RG, Jl. Rama, Semarapura Kangin, Kec. Klungkung, Kabupaten Klungkung, Bali 80761","Jl. Rama, Semarapura Kangin, Kec. Klungkung, Kabupaten Klungkung",BALI,80761.0,Indonesia,81236706122.0,,,-85.424.332,1.154.045.923,https://maps.google.com/?cid=0x0:0x2699b220a2d4be42,
building materials,Toko Bahan Bangunan,Toko Deta Jaya,"Jl. Puputan No.105-115, Semarapura Kangin, Kec. Klungkung, Kabupaten Klungkung, Bali 80716","Semarapura Kangin, Kec. Klungkung, Kabupaten Klungkung",BALI,80716.0,Indonesia,36623240.0,,,-85.457.376,1.154.029.468,https://maps.google.com/?cid=0x0:0x5af2e154f6d7cd08,
building materials,Toko Bahan Bangunan,UD. Bangunan Dua,"Jl. Darmawangsa No.35, Semarapura Kangin, Kec. Klungkung, Kabupaten Klungkung, Bali 80716","Semarapura Kangin, Kec. Klungkung, Kabupaten Klungkung",BALI,80716.0,Indonesia,36621025.0,,,-85.370.242,1.154.058.972,https://maps.google.com/?cid=0x0:0x8264931f5cbd1b64,
building materials,Toko,Batu Sikat,"F97M+C43, Jl. Raya Banda, Tihingan, Kec. Banjarangkan, Kabupaten Klungkung, Bali 80752","Jl. Raya Banda, Tihingan, Kec. Banjarangkan, Kabupaten Klungkung",BALI,80752.0,Indonesia,81558769560.0,,,-85.364.776,1.153.827.819,https://maps.google.com/?cid=0x0:0x91153bd9afefbc32,
building materials,Toko Bahan Bangunan,UD Restu Karya Material Klungkung,"By pas, Gelgel, Kec. Klungkung, Kabupaten Klungkung, Bali 80711","Gelgel, Kec. Klungkung, Kabupaten Klungkung",BALI,80711.0,Indonesia,87862471218.0,,,-85.682.384,1.154.095.433,https://maps.google.com/?cid=0x0:0x216a6f304335cd96,
building materials,Toko Perlengkapan Rumah,Dharmawangsa gypsum / akim gypsum,"jalan subali tapean, Semarapura Kangin, Kec. Klungkung, Kabupaten Klungkung, Bali 80761","Semarapura Kangin, Kec. Klungkung, Kabupaten Klungkung",BALI,80761.0,Indonesia,85333550853.0,,,-8.538.204,1.154.082.743,https://maps.google.com/?cid=0x0:0x38feaab3fe61ab76,
building materials,Pemasok peralatan penanganan material,UD MAHATMA Material,"Satra, Kec. Klungkung, Kabupaten Klungkung, Bali 80716","Kec. Klungkung, Kabupaten Klungkung",BALI,80716.0,Indonesia,82266141466.0,,,-85.682.129,1.153.980.923,https://maps.google.com/?cid=0x0:0xb36ee586a015d36e,
building materials,Toko Bahan Bangunan,TB. Adi Utama,"FC4R+RW2, Jl. Sawo Kabeh, Dawan Kaler, Kec. Dawan, Kabupaten Klungkung, Bali 80761","Jl. Sawo Kabeh, Dawan Kaler, Kec. Dawan, Kabupaten Klungkung",BALI,80761.0,Indonesia,81916252389.0,,,-8.542.976,1.154.422.653,https://maps.google.com/?cid=0x0:0x2d9fa44315905060,
building materials,Toko Bahan Bangunan,Toko Bangunan UD. Eka Lawiya,"Jl. Watu Renggong, Kamasan, Kec. Klungkung, Kabupaten Klungkung, Bali 80716","Kamasan, Kec. Klungkung, Kabupaten Klungkung",BALI,80716.0,Indonesia,87790750893.0,,,-85.509.266,1.154.073.356,https://maps.google.com/?cid=0x0:0xcb3bb68768dee789,
building materials,Toko Bahan Bangunan,Sms toko bangunan,"8C6R+WQC, Jungutbatu, Kec. Nusa Penida, Kabupaten Klungkung, Bali 80771","Jungutbatu, Kec. Nusa Penida, Kabupaten Klungkung",BALI,80771.0,Indonesia,2150867746.0,,,-86.876.781,115.441.892,https://maps.google.com/?cid=0x0:0xa734bcb1ffab0b7f,
building materials,Toko Bahan Bangunan,UD.PUTRA KEMBAR,"Jl. Raya Sulang, Gunaksa, Kec. Dawan, Kabupaten Klungkung, Bali 80761","Gunaksa, Kec. Dawan, Kabupaten Klungkung",BALI,80761.0,Indonesia,,,,-85.410.825,1.154.219.009,https://maps.google.com/?cid=0x0:0x425e76d0a897637e,
building materials,Toko Bahan Bangunan,Toko Gunaksa,"Jl. Diponegoro No.89, Semarapura Kelod Kangin, Kec. Klungkung, Kabupaten Klungkung, Bali 80715","Semarapura Kelod Kangin, Kec. Klungkung, Kabupaten Klungkung",BALI,80715.0,Indonesia,36621063.0,,,-85.355.996,1.154.058.149,https://maps.google.com/?cid=0x0:0xe937c0108af523c0,
building materials,Toko Bahan Bangunan,ADmaterial Bali,"Lepang, Takmung, Kec. Banjarangkan, Kabupaten Klungkung, Bali 80716","Takmung, Kec. Banjarangkan, Kabupaten Klungkung",BALI,80716.0,Indonesia,81314976410.0,,,-85.678.266,1.153.871.522,https://maps.google.com/?cid=0x0:0x9ebf5a2687e345eb,
building materials,building materials,Bali 80712,"Kec. Klungkung, Kabupaten Klungkung, Bali","Kabupaten Klungkung, Bali",BALI,,Indonesia,,,,-85.253.594,1.153.919.027,https://maps.google.com/?cid=0x0:0x1c00c5eb6016bfa0,
building materials,Toko Bahan Bangunan,UD Karya Bangunan,"Jl. Ngurah Rai No.88 A, Semarapura Tengah, Kec. Klungkung, Kabupaten Klungkung, Bali 80711","Semarapura Tengah, Kec. Klungkung, Kabupaten Klungkung",BALI,80711.0,Indonesia,81338141935.0,,,-85.294.348,1.153.984.585,https://maps.google.com/?cid=0x0:0x8915cfcafeed36b9,
building materials,Toko Bahan Bangunan,Istana Bangunan,"Jl. Diponegoro No.72, Semarapura Kelod Kangin, Kec. Klungkung, Kabupaten Klungkung, Bali 80761","Semarapura Kelod Kangin, Kec. Klungkung, Kabupaten Klungkung",BALI,80761.0,Indonesia,85156998880.0,,,-85.358.253,1.154.060.363,https://maps.google.com/?cid=0x0:0xdf7d15e58f1ee58e,
building materials,Toko Bahan Bangunan,PT SEMEN INDONESIA DISTRIBUTOR KLUNGKUNG,"Jl. Rama No.38, Semarapura Kangin, Kec. Klungkung, Kabupaten Klungkung, Bali 80761","Semarapura Kangin, Kec. Klungkung, Kabupaten Klungkung",BALI,80761.0,Indonesia,,,,-85.428.571,1.154.056.888,https://maps.google.com/?cid=0x0:0x2c5c143529b7ed1a,
building materials,Toko Bahan Bangunan,UD. Lemek Sari,"F93W+XWG, Jl. Matahari I, Kemoning, Kec. Klungkung, Kabupaten Klungkung, Bali 80761","Jl. Matahari I, Kemoning, Kec. Klungkung, Kabupaten Klungkung",BALI,80761.0,Indonesia,81339327865.0,,,-85.450.692,1.153.973.312,https://maps.google.com/?cid=0x0:0x36171c48344a5e6a,
building materials,Pemasok Peralatan Konstruksi,TOKO BALI KLUNGKUNG ( Toko Besi di Klungkung ),"Jl. Puputan, Semarapura Kangin, Kec. Klungkung, Kabupaten Klungkung, Bali 80761","Semarapura Kangin, Kec. Klungkung, Kabupaten Klungkung",BALI,80761.0,Indonesia,81236563756.0,,,-85.450.333,1.154.027.932,https://maps.google.com/?cid=0x0:0x231c151326861cc2,
building materials,Toko Bahan Bangunan,Ud Jaya Pratama - Lepang,"jln. Bypass, Jl. Prof. Dr. Ida Bagus Mantra No.Lepang, Takmung, Kec. Banjarangkan, Kabupaten Klungkung, Bali 80716","Jl. Prof. Dr. Ida Bagus Mantra No.Lepang, Takmung, Kec. Banjarangkan, Kabupaten Klungkung",BALI,80716.0,Indonesia,36622982.0,,,-85.682.952,1.153.839.946,https://maps.google.com/?cid=0x0:0xe4353caca82d85a9,
building materials,Toko Bahan Bangunan,UD. Beton Indah,"Jl. Rama No.8, Kamasan, Kec. Klungkung, Kabupaten Klungkung, Bali 80761","Kamasan, Kec. Klungkung, Kabupaten Klungkung",BALI,80761.0,Indonesia,36624075.0,,,-8.542.711,1.154.086.191,https://maps.google.com/?cid=0x0:0xda12a7ca4b79b10b,
building materials,Toko Bahan Bangunan,Toko Nusa Klungkung,"Jl. Diponegoro No.48, Semarapura Kangin, Kec. Klungkung, Kabupaten Klungkung, Bali 80716","Semarapura Kangin, Kec. Klungkung, Kabupaten Klungkung",BALI,80716.0,Indonesia,8123943670.0,,,-85.355.923,1.154.051.396,https://maps.google.com/?cid=0x0:0x7a915dba9c06058a,
building materials,Toko Bahan Bangunan,Toko Bangunan Surya,"Jl. Puputan No.69, Semarapura Kangin, Kec. Klungkung, Kabupaten Klungkung, Bali 80761","Semarapura Kangin, Kec. Klungkung, Kabupaten Klungkung",BALI,80761.0,Indonesia,36621322.0,,,-85.422.503,1.154.025.558,https://maps.google.com/?cid=0x0:0xafbfaa25f3136420,
building materials,Toko Bahan Bangunan,UD. Karma Karya - Toko Bangunan Karma Karya,"Jl. Prof. Dr. Ida Bagus Mantra, Gunaksa, Kec. Dawan, Kabupaten Klungkung, Bali 80761","Gunaksa, Kec. Dawan, Kabupaten Klungkung",BALI,80761.0,Indonesia,81999274555.0,,,-85.558.336,1.154.477.051,https://maps.google.com/?cid=0x0:0x891372a1308f421,
building materials,Toko Swalayan,Swalayan Bangunan,"CCX2+J4H, Jl. Kenyeri, Semarapura Kelod, Kec. Klungkung, Kabupaten Klungkung, Bali 80716","Jl. Kenyeri, Semarapura Kelod, Kec. Klungkung, Kabupaten Klungkung",BALI,80716.0,Indonesia,361622660.0,,,-85.509.388,1.154.003.482,https://maps.google.com/?cid=0x0:0x829f8d68b861e8a2,
building materials,Toko Bahan Bangunan,TB. Cahaya Batu,"F94V+X64, Jl. Raya Batu Tabih, Takmung, Kec. Banjarangkan, Kabupaten Klungkung, Bali 80716","Jl. Raya Batu Tabih, Takmung, Kec. Banjarangkan, Kabupaten Klungkung",BALI,80716.0,Indonesia,85333074570.0,,,-85.426.146,1.153.930.782,https://maps.google.com/?cid=0x0:0x412c2fe1fc507d49,
building materials,Toko Perlengkapan Rumah,UD. Batu Alam,"F9GW+GC9, JL Setiabudi, Semarapura Kaja, Selat, Karangasem, Bali 80119","JL Setiabudi, Semarapura Kaja, Selat, Karangasem",BALI,80119.0,Indonesia,36124193.0,,,-85.237.086,1.153.961.113,https://maps.google.com/?cid=0x0:0x8cde1d67e1749c4a,
building materials,Toko Bahan Bangunan,UD. Bangunan Dua,"Jl. Darmawangsa No.35, Semarapura Kangin, Kec. Klungkung, Kabupaten Klungkung, Bali 80716","Semarapura Kangin, Kec. Klungkung, Kabupaten Klungkung",BALI,80716.0,Indonesia,36621025.0,,,-85.370.242,1.154.058.972,https://maps.google.com/?cid=0x0:0x8264931f5cbd1b64,
building materials,Toko Bahan Bangunan,Toko Cat Nusa Mandiri,"Jl. Arjuna No.1, Semarapura Kangin, Kec. Klungkung, Kabupaten Klungkung, Bali 80716","Semarapura Kangin, Kec. Klungkung, Kabupaten Klungkung",BALI,80716.0,Indonesia,36621465.0,,,-85.425.615,1.154.007.411,https://maps.google.com/?cid=0x0:0x6cffd3fdc73f01f7,
building materials,Toko Bahan Bangunan,Agus Bayu Gypsum 1,"FC33+84V, Jl. Puputan, Semarapura Kangin, Kec. Klungkung, Kabupaten Klungkung, Bali 80716","Jl. Puputan, Semarapura Kangin, Kec. Klungkung, Kabupaten Klungkung",BALI,80716.0,Indonesia,81999477108.0,,,-85.466.408,115.402.786,https://maps.google.com/?cid=0x0:0x56ccbbe4b155d924,
building materials,Toko Bahan Bangunan,TB. Adi Utama,"FC4R+RW2, Jl. Sawo Kabeh, Dawan Kaler, Kec. Dawan, Kabupaten Klungkung, Bali 80761","Jl. Sawo Kabeh, Dawan Kaler, Kec. Dawan, Kabupaten Klungkung",BALI,80761.0,Indonesia,81916252389.0,,,-8.542.976,1.154.422.653,https://maps.google.com/?cid=0x0:0x2d9fa44315905060,
building materials,Distributor Baja,TOKO BALI KLUNGKUNG,"Jl. Nakula, Semarapura Kangin, Kec. Klungkung, Kabupaten Klungkung, Bali 80716","Semarapura Kangin, Kec. Klungkung, Kabupaten Klungkung",BALI,80716.0,Indonesia,81236563756.0,,,-85.366.122,1.154.055.096,https://maps.google.com/?cid=0x0:0x73f0375dab3d9652,
building materials,Pemasok peralatan penanganan material,UD MAHATMA Material,"Satra, Kec. Klungkung, Kabupaten Klungkung, Bali 80716","Kec. Klungkung, Kabupaten Klungkung",BALI,80716.0,Indonesia,82266141466.0,,,-85.682.129,1.153.980.923,https://maps.google.com/?cid=0x0:0xb36ee586a015d36e,
building materials,Toko Perlengkapan Rumah,Dharmawangsa gypsum / akim gypsum,"jalan subali tapean, Semarapura Kangin, Kec. Klungkung, Kabupaten Klungkung, Bali 80761","Semarapura Kangin, Kec. Klungkung, Kabupaten Klungkung",BALI,80761.0,Indonesia,85333550853.0,,,-8.538.204,1.154.082.743,https://maps.google.com/?cid=0x0:0x38feaab3fe61ab76,
building materials,Toko Bahan Bangunan,TB. Sinar Dewata,"FC25+X2P, Jl. Mahodara, Kamasan, Kec. Klungkung, Kabupaten Klungkung, Bali 80761","Jl. Mahodara, Kamasan, Kec. Klungkung, Kabupaten Klungkung",BALI,80761.0,Indonesia,87851162036.0,,,-85.475.465,1.154.075.937,https://maps.google.com/?cid=0x0:0x3dc6ffb8e9280771,
building materials,Toko Perlengkapan Rumah,Putra Cahaya Gypsum,"FC44+X89, Jl. Rama, Semarapura Kangin, Kec. Klungkung, Kabupaten Klungkung, Bali 80761","Jl. Rama, Semarapura Kangin, Kec. Klungkung, Kabupaten Klungkung",BALI,80761.0,Indonesia,81338313189.0,,,-8.542.596,1.154.058.628,https://maps.google.com/?cid=0x0:0xdcb353e80f6d1df,
building materials,Toko Bahan Bangunan,UD Restu Karya Material Klungkung,"By pas, Gelgel, Kec. Klungkung, Kabupaten Klungkung, Bali 80711","Gelgel, Kec. Klungkung, Kabupaten Klungkung",BALI,80711.0,Indonesia,87862471218.0,,,-85.682.384,1.154.095.433,https://maps.google.com/?cid=0x0:0x216a6f304335cd96,
building materials,building materials,Kabupaten Klungkung,Bali,"Kabupaten Klungkung, Bali",BALI,,Indonesia,,,,-8.727.807,1.155.444.231,https://maps.google.com/?cid=0x0:0x3030bfbca7cbf60,
building materials,Toko Bahan Bangunan,ADmaterial Bali,"Lepang, Takmung, Kec. Banjarangkan, Kabupaten Klungkung, Bali 80716","Takmung, Kec. Banjarangkan, Kabupaten Klungkung",BALI,80716.0,Indonesia,81314976410.0,,,-85.678.266,1.153.871.522,https://maps.google.com/?cid=0x0:0x9ebf5a2687e345eb,
building materials,building materials,Bali 80713,"Tihingan, Kec. Banjarangkan, Kabupaten Klungkung, Bali","Kabupaten Klungkung, Bali",BALI,,Indonesia,,,,-8.533.129,1.153.889.403,https://maps.google.com/?cid=0x0:0x1c00c5eb6016bfb0,
building materials,Toko Bahan Bangunan,UD Karya Bangunan,"Jl. Ngurah Rai No.88 A, Semarapura Tengah, Kec. Klungkung, Kabupaten Klungkung, Bali 80711","Semarapura Tengah, Kec. Klungkung, Kabupaten Klungkung",BALI,80711.0,Indonesia,81338141935.0,,,-85.294.348,1.153.984.585,https://maps.google.com/?cid=0x0:0x8915cfcafeed36b9,
building materials,Toko Bahan Bangunan,Istana Bangunan,"Jl. Diponegoro No.72, Semarapura Kelod Kangin, Kec. Klungkung, Kabupaten Klungkung, Bali 80761","Semarapura Kelod Kangin, Kec. Klungkung, Kabupaten Klungkung",BALI,80761.0,Indonesia,85156998880.0,,,-85.358.253,1.154.060.363,https://maps.google.com/?cid=0x0:0xdf7d15e58f1ee58e,
building materials,Toko Bahan Bangunan,UD. Lemek Sari,"F93W+XWG, Jl. Matahari I, Kemoning, Kec. Klungkung, Kabupaten Klungkung, Bali 80761","Jl. Matahari I, Kemoning, Kec. Klungkung, Kabupaten Klungkung",BALI,80761.0,Indonesia,81339327865.0,,,-85.450.692,1.153.973.312,https://maps.google.com/?cid=0x0:0x36171c48344a5e6a,
building materials,Toko Bahan Bangunan,PT SEMEN INDONESIA DISTRIBUTOR KLUNGKUNG,"Jl. Rama No.38, Semarapura Kangin, Kec. Klungkung, Kabupaten Klungkung, Bali 80761","Semarapura Kangin, Kec. Klungkung, Kabupaten Klungkung",BALI,80761.0,Indonesia,,,,-85.428.571,1.154.056.888,https://maps.google.com/?cid=0x0:0x2c5c143529b7ed1a,
building materials,Toko Bahan Bangunan,UD ASRI,"Tihingan, Kec. Banjarangkan, Kabupaten Klungkung, Bali 80752","Kec. Banjarangkan, Kabupaten Klungkung",BALI,80752.0,Indonesia,81936037621.0,,,-85.381.701,1.153.831.296,https://maps.google.com/?cid=0x0:0xd64239b648e68340,
building materials,Pemasok Peralatan Konstruksi,TOKO BALI KLUNGKUNG ( Toko Besi di Klungkung ),"Jl. Puputan, Semarapura Kangin, Kec. Klungkung, Kabupaten Klungkung, Bali 80761","Semarapura Kangin, Kec. Klungkung, Kabupaten Klungkung",BALI,80761.0,Indonesia,81236563756.0,,,-85.450.333,1.154.027.932,https://maps.google.com/?cid=0x0:0x231c151326861cc2,
building materials,Toko Bahan Bangunan,TB. Cahaya Batu,"F94V+X64, Jl. Raya Batu Tabih, Takmung, Kec. Banjarangkan, Kabupaten Klungkung, Bali 80716","Jl. Raya Batu Tabih, Takmung, Kec. Banjarangkan, Kabupaten Klungkung",BALI,80716.0,Indonesia,85333074570.0,,,-85.426.146,1.153.930.782,https://maps.google.com/?cid=0x0:0x412c2fe1fc507d49,
building materials,Toko Bahan Bangunan,Toko Nusa Klungkung,"Jl. Diponegoro No.48, Semarapura Kangin, Kec. Klungkung, Kabupaten Klungkung, Bali 80716","Semarapura Kangin, Kec. Klungkung, Kabupaten Klungkung",BALI,80716.0,Indonesia,8123943670.0,,,-85.355.923,1.154.051.396,https://maps.google.com/?cid=0x0:0x7a915dba9c06058a,
building materials,Toko Bahan Bangunan,UD. Beton Indah,"Jl. Rama No.8, Kamasan, Kec. Klungkung, Kabupaten Klungkung, Bali 80761","Kamasan, Kec. Klungkung, Kabupaten Klungkung",BALI,80761.0,Indonesia,36624075.0,,,-8.542.711,1.154.086.191,https://maps.google.com/?cid=0x0:0xda12a7ca4b79b10b,
building materials,Toko Bahan Bangunan,Toko Bangunan Surya,"Jl. Puputan No.69, Semarapura Kangin, Kec. Klungkung, Kabupaten Klungkung, Bali 80761","Semarapura Kangin, Kec. Klungkung, Kabupaten Klungkung",BALI,80761.0,Indonesia,36621322.0,,,-85.422.503,1.154.025.558,https://maps.google.com/?cid=0x0:0xafbfaa25f3136420,
building materials,Toko Bahan Bangunan,TB. Eka Karya,"Jl. Raya Besakih No.351, Akah, Kec. Klungkung, Kabupaten Klungkung, Bali 80711","Akah, Kec. Klungkung, Kabupaten Klungkung",BALI,80711.0,Indonesia,859106649010.0,,,-85.228.093,1.154.020.412,https://maps.google.com/?cid=0x0:0xd8bcb360522e84fb,
building materials,Toko Swalayan,Swalayan Bangunan,"CCX2+J4H, Jl. Kenyeri, Semarapura Kelod, Kec. Klungkung, Kabupaten Klungkung, Bali 80716","Jl. Kenyeri, Semarapura Kelod, Kec. Klungkung, Kabupaten Klungkung",BALI,80716.0,Indonesia,361622660.0,,,-85.509.388,1.154.003.482,https://maps.google.com/?cid=0x0:0x829f8d68b861e8a2,
building materials,Toko Bahan Bangunan,Toko Cat Nusa Mandiri,"Jl. Arjuna No.1, Semarapura Kangin, Kec. Klungkung, Kabupaten Klungkung, Bali 80716","Semarapura Kangin, Kec. Klungkung, Kabupaten Klungkung",BALI,80716.0,Indonesia,36621465.0,,,-85.425.615,1.154.007.411,https://maps.google.com/?cid=0x0:0x6cffd3fdc73f01f7,
building materials,Toko Bahan Bangunan,Agus Bayu Gypsum 1,"FC33+84V, Jl. Puputan, Semarapura Kangin, Kec. Klungkung, Kabupaten Klungkung, Bali 80716","Jl. Puputan, Semarapura Kangin, Kec. Klungkung, Kabupaten Klungkung",BALI,80716.0,Indonesia,81999477108.0,,,-85.466.408,115.402.786,https://maps.google.com/?cid=0x0:0x56ccbbe4b155d924,
building materials,Toko Bahan Bangunan,UD. Bangunan Dua,"Jl. Darmawangsa No.35, Semarapura Kangin, Kec. Klungkung, Kabupaten Klungkung, Bali 80716","Semarapura Kangin, Kec. Klungkung, Kabupaten Klungkung",BALI,80716.0,Indonesia,36621025.0,,,-85.370.242,1.154.058.972,https://maps.google.com/?cid=0x0:0x8264931f5cbd1b64,
building materials,Toko Bahan Bangunan,Benoa Mas Bangunan,"Jl. Puputan No.60, Semarapura Kelod, Kec. Klungkung, Kabupaten Klungkung, Bali 80761","Semarapura Kelod, Kec. Klungkung, Kabupaten Klungkung",BALI,80761.0,Indonesia,89574858596.0,,,-85.425.114,1.154.027.637,https://maps.google.com/?cid=0x0:0xb10fa0aa6355c25,
building materials,Pemasok peralatan penanganan material,UD MAHATMA Material,"Satra, Kec. Klungkung, Kabupaten Klungkung, Bali 80716","Kec. Klungkung, Kabupaten Klungkung",BALI,80716.0,Indonesia,82266141466.0,,,-85.682.129,1.153.980.923,https://maps.google.com/?cid=0x0:0xb36ee586a015d36e,
building materials,Distributor Baja,TOKO BALI KLUNGKUNG,"Jl. Nakula, Semarapura Kangin, Kec. Klungkung, Kabupaten Klungkung, Bali 80716","Semarapura Kangin, Kec. Klungkung, Kabupaten Klungkung",BALI,80716.0,Indonesia,81236563756.0,,,-85.366.122,1.154.055.096,https://maps.google.com/?cid=0x0:0x73f0375dab3d9652,
building materials,Toko Bahan Bangunan,Toko Asia,"Jl. Diponegoro No.8, Semarapura Kangin, Kec. Klungkung, Kabupaten Klungkung, Bali 80715","Semarapura Kangin, Kec. Klungkung, Kabupaten Klungkung",BALI,80715.0,Indonesia,85769908768.0,,,-85.354.628,1.154.040.274,https://maps.google.com/?cid=0x0:0x41edc4eba7ed5344,
building materials,Toko Bahan Bangunan,Ud Jaya Pratama - Lepang,"jln. Bypass, Jl. Prof. Dr. Ida Bagus Mantra No.Lepang, Takmung, Kec. Banjarangkan, Kabupaten Klungkung, Bali 80716","Jl. Prof. Dr. Ida Bagus Mantra No.Lepang, Takmung, Kec. Banjarangkan, Kabupaten Klungkung",BALI,80716.0,Indonesia,36622982.0,,,-85.682.952,1.153.839.946,https://maps.google.com/?cid=0x0:0xe4353caca82d85a9,
building materials,Toko Bahan Bangunan,UD. Karma Karya - Toko Bangunan Karma Karya,"Jl. Prof. Dr. Ida Bagus Mantra, Gunaksa, Kec. Dawan, Kabupaten Klungkung, Bali 80761","Gunaksa, Kec. Dawan, Kabupaten Klungkung",BALI,80761.0,Indonesia,81999274555.0,,,-85.558.336,1.154.477.051,https://maps.google.com/?cid=0x0:0x891372a1308f421,
building materials,Toko Perlengkapan Rumah,Dharmawangsa gypsum / akim gypsum,"jalan subali tapean, Semarapura Kangin, Kec. Klungkung, Kabupaten Klungkung, Bali 80761","Semarapura Kangin, Kec. Klungkung, Kabupaten Klungkung",BALI,80761.0,Indonesia,85333550853.0,,,-8.538.204,1.154.082.743,https://maps.google.com/?cid=0x0:0x38feaab3fe61ab76,
building materials,Toko Bahan Bangunan,TB Sekar Sari,"C9WQ+WVF, Jl. Raya Takmung, Takmung, Kec. Banjarangkan, Kabupaten Klungkung, Bali 80716","Jl. Raya Takmung, Takmung, Kec. Banjarangkan, Kabupaten Klungkung",BALI,80716.0,Indonesia,36623962.0,,,-85.526.825,1.153.896.579,https://maps.google.com/?cid=0x0:0x835b189248ccecd7,
building materials,Toko Bahan Bangunan,UD Restu Karya Material Klungkung,"By pas, Gelgel, Kec. Klungkung, Kabupaten Klungkung, Bali 80711","Gelgel, Kec. Klungkung, Kabupaten Klungkung",BALI,80711.0,Indonesia,87862471218.0,,,-85.682.384,1.154.095.433,https://maps.google.com/?cid=0x0:0x216a6f304335cd96,
building materials,Toko Bahan Bangunan,TB. Adi Utama,"FC4R+RW2, Jl. Sawo Kabeh, Dawan Kaler, Kec. Dawan, Kabupaten Klungkung, Bali 80761","Jl. Sawo Kabeh, Dawan Kaler, Kec. Dawan, Kabupaten Klungkung",BALI,80761.0,Indonesia,81916252389.0,,,-8.542.976,1.154.422.653,https://maps.google.com/?cid=0x0:0x2d9fa44315905060,
building materials,Toko Bahan Bangunan,Toko Bangunan UD. Eka Lawiya,"Jl. Watu Renggong, Kamasan, Kec. Klungkung, Kabupaten Klungkung, Bali 80716","Kamasan, Kec. Klungkung, Kabupaten Klungkung",BALI,80716.0,Indonesia,87790750893.0,,,-85.509.266,1.154.073.356,https://maps.google.com/?cid=0x0:0xcb3bb68768dee789,
building materials,Toko Bahan Bangunan,ADmaterial Bali,"Lepang, Takmung, Kec. Banjarangkan, Kabupaten Klungkung, Bali 80716","Takmung, Kec. Banjarangkan, Kabupaten Klungkung",BALI,80716.0,Indonesia,81314976410.0,,,-85.678.266,1.153.871.522,https://maps.google.com/?cid=0x0:0x9ebf5a2687e345eb,
building materials,Toko Bahan Bangunan,Sms toko bangunan,"8C6R+WQC, Jungutbatu, Kec. Nusa Penida, Kabupaten Klungkung, Bali 80771","Jungutbatu, Kec. Nusa Penida, Kabupaten Klungkung",BALI,80771.0,Indonesia,2150867746.0,,,-86.876.781,115.441.892,https://maps.google.com/?cid=0x0:0xa734bcb1ffab0b7f,
building materials,building materials,Semarapura,"Kec. Klungkung, Kabupaten Klungkung, Bali","Kabupaten Klungkung, Bali",BALI,,Indonesia,,,,-85.388.252,115.402.367,https://maps.google.com/?cid=0x0:0x4030bfbca7d2ed0,
building materials,Toko Bahan Bangunan,Istana Bangunan,"Jl. Diponegoro No.72, Semarapura Kelod Kangin, Kec. Klungkung, Kabupaten Klungkung, Bali 80761","Semarapura Kelod Kangin, Kec. Klungkung, Kabupaten Klungkung",BALI,80761.0,Indonesia,85156998880.0,,,-85.358.253,1.154.060.363,https://maps.google.com/?cid=0x0:0xdf7d15e58f1ee58e,
building materials,Toko Bahan Bangunan,UD. Lemek Sari,"F93W+XWG, Jl. Matahari I, Kemoning, Kec. Klungkung, Kabupaten Klungkung, Bali 80761","Jl. Matahari I, Kemoning, Kec. Klungkung, Kabupaten Klungkung",BALI,80761.0,Indonesia,81339327865.0,,,-85.450.692,1.153.973.312,https://maps.google.com/?cid=0x0:0x36171c48344a5e6a,
building materials,Toko Bahan Bangunan,UD. Beton Indah,"Jl. Rama No.8, Kamasan, Kec. Klungkung, Kabupaten Klungkung, Bali 80761","Kamasan, Kec. Klungkung, Kabupaten Klungkung",BALI,80761.0,Indonesia,36624075.0,,,-8.542.711,1.154.086.191,https://maps.google.com/?cid=0x0:0xda12a7ca4b79b10b,
building materials,Toko Bahan Bangunan,PT SEMEN INDONESIA DISTRIBUTOR KLUNGKUNG,"Jl. Rama No.38, Semarapura Kangin, Kec. Klungkung, Kabupaten Klungkung, Bali 80761","Semarapura Kangin, Kec. Klungkung, Kabupaten Klungkung",BALI,80761.0,Indonesia,,,,-85.428.571,1.154.056.888,https://maps.google.com/?cid=0x0:0x2c5c143529b7ed1a,
building materials,Toko Bahan Bangunan,Toko Nusa Klungkung,"Jl. Diponegoro No.48, Semarapura Kangin, Kec. Klungkung, Kabupaten Klungkung, Bali 80716","Semarapura Kangin, Kec. Klungkung, Kabupaten Klungkung",BALI,80716.0,Indonesia,8123943670.0,,,-85.355.923,1.154.051.396,https://maps.google.com/?cid=0x0:0x7a915dba9c06058a,
building materials,Toko Swalayan,Swalayan Bangunan,"CCX2+J4H, Jl. Kenyeri, Semarapura Kelod, Kec. Klungkung, Kabupaten Klungkung, Bali 80716","Jl. Kenyeri, Semarapura Kelod, Kec. Klungkung, Kabupaten Klungkung",BALI,80716.0,Indonesia,361622660.0,,,-85.509.388,1.154.003.482,https://maps.google.com/?cid=0x0:0x829f8d68b861e8a2,
building materials,Toko Bahan Bangunan,TB. Eka Karya,"Jl. Raya Besakih No.351, Akah, Kec. Klungkung, Kabupaten Klungkung, Bali 80711","Akah, Kec. Klungkung, Kabupaten Klungkung",BALI,80711.0,Indonesia,859106649010.0,,,-85.228.093,1.154.020.412,https://maps.google.com/?cid=0x0:0xd8bcb360522e84fb,
building materials,Toko Bahan Bangunan,TB. Cahaya Batu,"F94V+X64, Jl. Raya Batu Tabih, Takmung, Kec. Banjarangkan, Kabupaten Klungkung, Bali 80716","Jl. Raya Batu Tabih, Takmung, Kec. Banjarangkan, Kabupaten Klungkung",BALI,80716.0,Indonesia,85333074570.0,,,-85.426.146,1.153.930.782,https://maps.google.com/?cid=0x0:0x412c2fe1fc507d49,
building materials,Toko Bahan Bangunan,Toko Bangunan Surya,"Jl. Puputan No.69, Semarapura Kangin, Kec. Klungkung, Kabupaten Klungkung, Bali 80761","Semarapura Kangin, Kec. Klungkung, Kabupaten Klungkung",BALI,80761.0,Indonesia,36621322.0,,,-85.422.503,1.154.025.558,https://maps.google.com/?cid=0x0:0xafbfaa25f3136420,
building materials,Pemasok Peralatan Konstruksi,TOKO BALI KLUNGKUNG ( Toko Besi di Klungkung ),"Jl. Puputan, Semarapura Kangin, Kec. Klungkung, Kabupaten Klungkung, Bali 80761","Semarapura Kangin, Kec. Klungkung, Kabupaten Klungkung",BALI,80761.0,Indonesia,81236563756.0,,,-85.450.333,1.154.027.932,https://maps.google.com/?cid=0x0:0x231c151326861cc2,
building materials,Toko Bahan Bangunan,Ud Jaya Pratama - Lepang,"jln. Bypass, Jl. Prof. Dr. Ida Bagus Mantra No.Lepang, Takmung, Kec. Banjarangkan, Kabupaten Klungkung, Bali 80716","Jl. Prof. Dr. Ida Bagus Mantra No.Lepang, Takmung, Kec. Banjarangkan, Kabupaten Klungkung",BALI,80716.0,Indonesia,36622982.0,,,-85.682.952,1.153.839.946,https://maps.google.com/?cid=0x0:0xe4353caca82d85a9,
building materials,Toko Bahan Bangunan,Toko Cat Nusa Mandiri,"Jl. Arjuna No.1, Semarapura Kangin, Kec. Klungkung, Kabupaten Klungkung, Bali 80716","Semarapura Kangin, Kec. Klungkung, Kabupaten Klungkung",BALI,80716.0,Indonesia,36621465.0,,,-85.425.615,1.154.007.411,https://maps.google.com/?cid=0x0:0x6cffd3fdc73f01f7,
building materials,Toko Bahan Bangunan,Toko MD Bangunan,"CCX6+PJW, Jl. Taman, Tangkas, Kec. Klungkung, Kabupaten Klungkung, Bali 80761","Jl. Taman, Tangkas, Kec. Klungkung, Kabupaten Klungkung",BALI,80761.0,Indonesia,81916465540.0,,,-85.506.329,1.154.115.936,https://maps.google.com/?cid=0x0:0xd488db4b9679ced8,
building materials,Toko Bahan Bangunan,UD. Bangunan Dua,"Jl. Darmawangsa No.35, Semarapura Kangin, Kec. Klungkung, Kabupaten Klungkung, Bali 80716","Semarapura Kangin, Kec. Klungkung, Kabupaten Klungkung",BALI,80716.0,Indonesia,36621025.0,,,-85.370.242,1.154.058.972,https://maps.google.com/?cid=0x0:0x8264931f5cbd1b64,
building materials,Toko Bahan Bangunan,Agus Bayu Gypsum 1,"FC33+84V, Jl. Puputan, Semarapura Kangin, Kec. Klungkung, Kabupaten Klungkung, Bali 80716","Jl. Puputan, Semarapura Kangin, Kec. Klungkung, Kabupaten Klungkung",BALI,80716.0,Indonesia,81999477108.0,,,-85.466.408,115.402.786,https://maps.google.com/?cid=0x0:0x56ccbbe4b155d924,
building materials,Toko Perlengkapan Rumah,Dharmawangsa gypsum / akim gypsum,"jalan subali tapean, Semarapura Kangin, Kec. Klungkung, Kabupaten Klungkung, Bali 80761","Semarapura Kangin, Kec. Klungkung, Kabupaten Klungkung",BALI,80761.0,Indonesia,85333550853.0,,,-8.538.204,1.154.082.743,https://maps.google.com/?cid=0x0:0x38feaab3fe61ab76,
building materials,Distributor Baja,TOKO BALI KLUNGKUNG,"Jl. Nakula, Semarapura Kangin, Kec. Klungkung, Kabupaten Klungkung, Bali 80716","Semarapura Kangin, Kec. Klungkung, Kabupaten Klungkung",BALI,80716.0,Indonesia,81236563756.0,,,-85.366.122,1.154.055.096,https://maps.google.com/?cid=0x0:0x73f0375dab3d9652,
building materials,Toko Bahan Bangunan,TB. Sinar Dewata,"FC25+X2P, Jl. Mahodara, Kamasan, Kec. Klungkung, Kabupaten Klungkung, Bali 80761","Jl. Mahodara, Kamasan, Kec. Klungkung, Kabupaten Klungkung",BALI,80761.0,Indonesia,87851162036.0,,,-85.475.465,1.154.075.937,https://maps.google.com/?cid=0x0:0x3dc6ffb8e9280771,
building materials,Toko Bahan Bangunan,Toko Bangunan UD. Eka Lawiya,"Jl. Watu Renggong, Kamasan, Kec. Klungkung, Kabupaten Klungkung, Bali 80716","Kamasan, Kec. Klungkung, Kabupaten Klungkung",BALI,80716.0,Indonesia,87790750893.0,,,-85.509.266,1.154.073.356,https://maps.google.com/?cid=0x0:0xcb3bb68768dee789,
building materials,Toko Bahan Bangunan,TB Sekar Sari,"C9WQ+WVF, Jl. Raya Takmung, Takmung, Kec. Banjarangkan, Kabupaten Klungkung, Bali 80716","Jl. Raya Takmung, Takmung, Kec. Banjarangkan, Kabupaten Klungkung",BALI,80716.0,Indonesia,36623962.0,,,-85.526.825,1.153.896.579,https://maps.google.com/?cid=0x0:0x835b189248ccecd7,
building materials,Toko Perlengkapan Rumah,Putra Cahaya Gypsum,"FC44+X89, Jl. Rama, Semarapura Kangin, Kec. Klungkung, Kabupaten Klungkung, Bali 80761","Jl. Rama, Semarapura Kangin, Kec. Klungkung, Kabupaten Klungkung",BALI,80761.0,Indonesia,81338313189.0,,,-8.542.596,1.154.058.628,https://maps.google.com/?cid=0x0:0xdcb353e80f6d1df,
building materials,Toko Bahan Bangunan,Toko Deta Jaya,"Jl. Puputan No.105-115, Semarapura Kangin, Kec. Klungkung, Kabupaten Klungkung, Bali 80716","Semarapura Kangin, Kec. Klungkung, Kabupaten Klungkung",BALI,80716.0,Indonesia,36623240.0,,,-85.457.376,1.154.029.468,https://maps.google.com/?cid=0x0:0x5af2e154f6d7cd08,
building materials,building materials,Bali 80771,"Kec. Nusa Penida, Kabupaten Klungkung, Bali","Kabupaten Klungkung, Bali",BALI,,Indonesia,,,,-8.727.807,1.155.444.231,https://maps.google.com/?cid=0x0:0x1c00c5eb6016c020,
building materials,Toko Bahan Bangunan,Toko Bangunan,"Jl. Nusa Indah No.53, Kutampi Kaler, Kec. Nusa Penida, Kabupaten Klungkung, Bali 80771","Kutampi Kaler, Kec. Nusa Penida, Kabupaten Klungkung",BALI,80771.0,Indonesia,81521914204.0,,,-86.741.429,1.155.502.138,https://maps.google.com/?cid=0x0:0xb118058723b9fd54,
building materials,Toko Bahan Bangunan,Toko bangunan,"8HG4+GJC, Batununggul, Kec. Nusa Penida, Kabupaten Klungkung, Bali 80771","Batununggul, Kec. Nusa Penida, Kabupaten Klungkung",BALI,80771.0,Indonesia,85769908768.0,,,-86.736.902,1.155.565.093,https://maps.google.com/?cid=0x0:0x839551b289f1eb19,
building materials,Toko Bahan Bangunan,Toko Bangunan UD. Darussalam,"Jl. Pelabuhan Toyapakeh, Kp. Toyapakeh, Kec. Nusa Penida, Kabupaten Klungkung, Bali 80771","Kp. Toyapakeh, Kec. Nusa Penida, Kabupaten Klungkung",BALI,80771.0,Indonesia,87855289681.0,,,-868.164,1.154.877.874,https://maps.google.com/?cid=0x0:0x87fb3beec68b43c1,
building materials,Toko Bahan Bangunan,UD. LANCAR JAYA BANGUNAN,"8G8R+GRW, Kutampi Kaler, Kec. Nusa Penida, Kabupaten Klungkung, Bali 80771","Kutampi Kaler, Kec. Nusa Penida, Kabupaten Klungkung",BALI,80771.0,Indonesia,8179769711.0,,,-86.836.461,1.155.420.648,https://maps.google.com/?cid=0x0:0xb14284980835471f,
building materials,Toko Bahan Bangunan,Toko Fajar Baru,"8GFV+HFV, Jl. Ped-Buyuk, Kutampi Kaler, Kec. Nusa Penida, Kabupaten Klungkung, Bali 80771","Jl. Ped-Buyuk, Kutampi Kaler, Kec. Nusa Penida, Kabupaten Klungkung",BALI,80771.0,Indonesia,82144127778.0,,,-86.760.146,1.155.436.715,https://maps.google.com/?cid=0x0:0xb5bebd476a965034,
building materials,Toko Bahan Bangunan,UD. Adhi Karya (Toko Bahan Bangunan),"Unnamed Road, Batununggul, Kec. Nusa Penida, Kabupaten Klungkung, Bali 80771","Batununggul, Kec. Nusa Penida, Kabupaten Klungkung",BALI,80771.0,Indonesia,85238083885.0,,,-8.674.978,1.155.658.225,https://maps.google.com/?cid=0x0:0x6839379a7afd9e78,
building materials,Toko Bahan Bangunan,UD sri jembawan,"Br. kutapang kauh, Jl. Ped - Buyuk, Batununggul, Kec. Nusa Penida, Kabupaten Klungkung, Bali 80771","Jl. Ped - Buyuk, Batununggul, Kec. Nusa Penida, Kabupaten Klungkung",BALI,80771.0,Indonesia,85857286081.0,,,-86.748.083,115.566.076,https://maps.google.com/?cid=0x0:0x379bd29a38b1ae62,
building materials,Toko Bahan Bangunan,DOA RISKY,"8HCC+X74, Unnamed Road, Batununggul, Kec. Nusa Penida, Kabupaten Klungkung, Bali 80771","Unnamed Road, Batununggul, Kec. Nusa Penida, Kabupaten Klungkung",BALI,80771.0,Indonesia,85337449328.0,,,-8.677.614,1.155.706.928,https://maps.google.com/?cid=0x0:0xb76f585a11ee77ee,
building materials,building materials,toko bangunan UD.MIRAH,"7G25+H53, Batumadeg, Kec. Nusa Penida, Kabupaten Klungkung, Bali 80771","Batumadeg, Kec. Nusa Penida, Kabupaten Klungkung",BALI,80771.0,Indonesia,85238063399.0,,,-87.486.127,1.155.079.141,https://maps.google.com/?cid=0x0:0x9e4a91fcc9d01eec,
building materials,Toko Bahan Bangunan,Sms toko bangunan,"8C6R+WQC, Jungutbatu, Kec. Nusa Penida, Kabupaten Klungkung, Bali 80771","Jungutbatu, Kec. Nusa Penida, Kabupaten Klungkung",BALI,80771.0,Indonesia,2150867746.0,,,-86.876.781,115.441.892,https://maps.google.com/?cid=0x0:0xa734bcb1ffab0b7f,
building materials,Toko Bahan Bangunan,Toko Bangunan SMS,"8F52+VR4, Jalan Raya, Lembongan, Nusa Penida, Klungkung Regency, Bali 80771","Jalan Raya, Lembongan, Nusa Penida, Klungkung Regency",BALI,80771.0,Indonesia,81228652962.0,,,-86.903.669,1.154.520.707,https://maps.google.com/?cid=0x0:0xfe2bbabd134cfc6a,
building materials,Toko Bahan Bangunan,Batako Press Nusapenida,"Banjar pangkung gede, Batumadeg, Kec. Nusa Penida, Kabupaten Klungkung, Bali 80771","Batumadeg, Kec. Nusa Penida, Kabupaten Klungkung",BALI,80771.0,Indonesia,85238349331.0,,,-87.619.817,1.155.180.808,https://maps.google.com/?cid=0x0:0x3d5b6191e7e85982,
building materials,Toko Bahan Bangunan,"Toko Material  WAHYU 2 """"","8HCC+XMC, Batununggul, Kec. Nusa Penida, Kabupaten Klungkung, Bali 80771","Batununggul, Kec. Nusa Penida, Kabupaten Klungkung",BALI,80771.0,Indonesia,81999277424.0,,,-8.677.555,115.571.655,https://maps.google.com/?cid=0x0:0x81889968cfd8ab48,
building materials,Toko Bahan Bangunan,ud. sri merta sari,"Jl. Raya Nusa Lembongan, Lembongan, Kec. Nusa Penida, Kabupaten Klungkung, Bali 80771","Lembongan, Kec. Nusa Penida, Kabupaten Klungkung",BALI,80771.0,Indonesia,85101864964.0,,,-86.874.639,1.154.419.082,https://maps.google.com/?cid=0x0:0x27914208b38017d4,
building materials,Toko Bahan Bangunan,Toko Bangunan dan Warung Sembako Nyana,"7FRV+MF4, Sakti, Kec. Nusa Penida, Kabupaten Klungkung, Bali 80771","Sakti, Kec. Nusa Penida, Kabupaten Klungkung",BALI,80771.0,Indonesia,85333867303.0,,,-87.081.005,1.154.931.257,https://maps.google.com/?cid=0x0:0x64ddb56df93de07e,
building materials,Toko Bahan Bangunan,UD Bersama,"Nusa Penida, Banjar Bucang, Sakti, Kec. Nusa Penida, Kabupaten Klungkung, Bali 80771","Banjar Bucang, Sakti, Kec. Nusa Penida, Kabupaten Klungkung",BALI,80771.0,Indonesia,82354884505.0,,,-87.218.145,1.155.064.409,https://maps.google.com/?cid=0x0:0x2aa1185f71f12f47,
building materials,Toko Bahan Bangunan,Batako Sagosa,"7GJ9+W7X, Desa, Banjar, Klumpu, Kec. Nusa Penida, Kabupaten Klungkung, Bali 80771","Desa, Banjar, Klumpu, Kec. Nusa Penida, Kabupaten Klungkung",BALI,80771.0,Indonesia,85239105106.0,,,-87.176.297,1.155.182.214,https://maps.google.com/?cid=0x0:0xeabde32aebf999bb,
building materials,Toko Bahan Bangunan,UD EKA JAYA MAKMUR,"8C6Q+M7M Nusa Lembongan, Jungutbatu, Kec. Nusa Penida, Kabupaten Klungkung, Bali 80771","Jungutbatu, Kec. Nusa Penida, Kabupaten Klungkung",BALI,80771.0,Indonesia,82144737906.0,,,-86.882.951,1.154.381.739,https://maps.google.com/?cid=0x0:0x8d8ca103c99c39c,
building materials,Toko Bahan Bangunan,UD. TAMAN SARI,"8C7R+3MQ, Unnamed Road, Jungutbatu, Kec. Nusa Penida, Kabupaten Klungkung, Bali 80771","Unnamed Road, Jungutbatu, Kec. Nusa Penida, Kabupaten Klungkung",BALI,80771.0,Indonesia,,,,-86.872.787,1.154.417.352,https://maps.google.com/?cid=0x0:0xcc87726a972bce28,
building materials,building materials,Nusa Penida,"Kec. Nusa Penida, Kabupaten Klungkung, Bali","Kabupaten Klungkung, Bali",BALI,,Indonesia,,,,-8.727.807,1.155.444.231,https://maps.google.com/?cid=0x0:0x5c3a3706b2197b7b,
building materials,Toko Perlengkapan Rumah,UD. Putra Kembar,"6HQ7+3R4, Tanglad, Kec. Nusa Penida, Kabupaten Klungkung, Bali 80771","Tanglad, Kec. Nusa Penida, Kabupaten Klungkung",BALI,80771.0,Indonesia,82144045401.0,,,-87.623.187,115.564.564,https://maps.google.com/?cid=0x0:0x9987653d6275cd40,
building improvement,building improvement,Bali 80752,"Kec. Banjarangkan, Kabupaten Klungkung, Bali","Kabupaten Klungkung, Bali",BALI,,Indonesia,,,,-8.512.833,1.153.726.469,https://maps.google.com/?cid=0x0:0x1c00c5eb6016c000,
building improvement,Toko Bahan Bangunan,Budi Bangunan Banjarangkan,"C9MF+59P, Jl. Tegal Besar, Negari, Kec. Banjarangkan, Kabupaten Klungkung, Bali 80752","Jl. Tegal Besar, Negari, Kec. Banjarangkan, Kabupaten Klungkung",BALI,80752.0,Indonesia,82146583909.0,,,-85.670.401,1.153.734.596,https://maps.google.com/?cid=0x0:0xee6b1a2925e99553,
building improvement,Perhimpunan Pengembang Perumahan,PINLAND REVIEW BALI,"F9G8+735, Jl. Bakas, Bakas, Kec. Banjarangkan, Kabupaten Klungkung, Bali 80752","Jl. Bakas, Bakas, Kec. Banjarangkan, Kabupaten Klungkung",BALI,80752.0,Indonesia,,,,-85.242.749,1.153.652.296,https://maps.google.com/?cid=0x0:0x37c0ed9dfed78bca,
building improvement,building improvement,Bali 80761,"Kec. Dawan, Kabupaten Klungkung, Bali","Kabupaten Klungkung, Bali",BALI,,Indonesia,,,,-85.234.217,1.154.378.152,https://maps.google.com/?cid=0x0:0x1c00c5eb6016c010,
building improvement,Toko Bahan Bangunan,TB. Adi Utama,"FC4R+RW2, Jl. Sawo Kabeh, Dawan Kaler, Kec. Dawan, Kabupaten Klungkung, Bali 80761","Jl. Sawo Kabeh, Dawan Kaler, Kec. Dawan, Kabupaten Klungkung",BALI,80761.0,Indonesia,81916252389.0,,,-8.542.976,1.154.422.653,https://maps.google.com/?cid=0x0:0x2d9fa44315905060,
building improvement,Jasa Konstruksi dan Bangunan,Baliwood craftsman,"Jln raya, Sampalan Klod, Kec. Dawan, Kabupaten Klungkung, Bali 80761","Sampalan Klod, Kec. Dawan, Kabupaten Klungkung",BALI,80761.0,Indonesia,81917326145.0,,,-85.434.058,1.154.140.705,https://maps.google.com/?cid=0x0:0x9e3eb7e039ed761c,
building improvement,Kontraktor,cv. Karya Kita,"Jl. Sawo Kabeh No.1, Dawan Klod, Kec. Dawan, Kabupaten Klungkung, Bali 80761","Dawan Klod, Kec. Dawan, Kabupaten Klungkung",BALI,80761.0,Indonesia,,,,-85.461.175,1.154.400.032,https://maps.google.com/?cid=0x0:0x7cdde1f38b600b44,
building improvement,Jasa Konstruksi dan Bangunan,UD SARI DHARMA,"Pikat, Kec. Dawan, Kabupaten Klungkung, Bali 80761","Kec. Dawan, Kabupaten Klungkung",BALI,80761.0,Indonesia,,,,-85.338.827,1.154.579.357,https://maps.google.com/?cid=0x0:0x166057b81761c1cb,
building improvement,Pemasok Peralatan Konstruksi,TOKO BALI KLUNGKUNG ( Toko Besi di Klungkung ),"Jl. Puputan, Semarapura Kangin, Kec. Klungkung, Kabupaten Klungkung, Bali 80761","Semarapura Kangin, Kec. Klungkung, Kabupaten Klungkung",BALI,80761.0,Indonesia,81236563756.0,,,-85.450.333,1.154.027.932,https://maps.google.com/?cid=0x0:0x231c151326861cc2,
building improvement,Kontraktor Beton,PT Baledhana Beton ( GMT ),"jln. by pas dr ida bagus mantra , kusamba, Gunaksa, Kec. Dawan, Kabupaten Klungkung, Bali 80761","kusamba, Gunaksa, Kec. Dawan, Kabupaten Klungkung",BALI,80761.0,Indonesia,81338924674.0,,,-85.535.777,1.154.402.446,https://maps.google.com/?cid=0x0:0x3db489c7920b6b92,
building improvement,building improvement,Jasa Pembuatan IMB Bali,,,BALI,,Indonesia,83115155057.0,,,-84.554.714,115.071.577,https://maps.google.com/?cid=0x0:0x96c1c728f052e162,
building improvement,Toko Bahan Bangunan,Jagra Winangun,"Jl. Raya Takmung, Satra, Kec. Klungkung, Kabupaten Klungkung, Bali 80716","Satra, Kec. Klungkung, Kabupaten Klungkung",BALI,80716.0,Indonesia,8124647663.0,,,-85.534.306,1.153.964.293,https://maps.google.com/?cid=0x0:0x294dd527d61e862f,
building improvement,Jasa Konstruksi dan Bangunan,ABM Beton,"Jl. Prof. Dr. Ida Bagus Mantra, Gunaksa, Kec. Klungkung, Kabupaten Klungkung, Bali 80761","Gunaksa, Kec. Klungkung, Kabupaten Klungkung",BALI,80761.0,Indonesia,82236255700.0,,,-8.556.926,1.154.286.693,https://maps.google.com/?cid=0x0:0x85b8b369e01870ec,
building improvement,Toko Bahan Bangunan,UD. Lemek Sari,"F93W+XWG, Jl. Matahari I, Kemoning, Kec. Klungkung, Kabupaten Klungkung, Bali 80761","Jl. Matahari I, Kemoning, Kec. Klungkung, Kabupaten Klungkung",BALI,80761.0,Indonesia,81339327865.0,,,-85.450.692,1.153.973.312,https://maps.google.com/?cid=0x0:0x36171c48344a5e6a,
building improvement,Toko Perlengkapan Rumah,MR.DIY,"Jl. Anyelir No.5, Semarapura Kelod, Kec. Klungkung, Kabupaten Klungkung, Bali 80716","Semarapura Kelod, Kec. Klungkung, Kabupaten Klungkung",BALI,80716.0,Indonesia,,,,-8.544.171,1.154.024.988,https://maps.google.com/?cid=0x0:0x963d21fe9b02c527,
building improvement,Komplek perumahan,TANNA HOME,"Pesinggahan, Kec. Dawan, Kabupaten Klungkung, Bali 80761","Kec. Dawan, Kabupaten Klungkung",BALI,80761.0,Indonesia,81999533888.0,,,-85.426.605,1.154.663.322,https://maps.google.com/?cid=0x0:0x6168c7925ed8de4d,
building improvement,building improvement,Rumah Wayan darta,"CCQ9+H3Q, Jl. Raya Gandamayu, Gelgel, Kec. Klungkung, Kabupaten Klungkung, Bali 80761","Jl. Raya Gandamayu, Gelgel, Kec. Klungkung, Kabupaten Klungkung",BALI,80761.0,Indonesia,,,,-85.611.317,1.154.183.183,https://maps.google.com/?cid=0x0:0x40d62c72f5a170c2,
building improvement,Pemasok peralatan penanganan material,UD MAHATMA Material,"Satra, Kec. Klungkung, Kabupaten Klungkung, Bali 80716","Kec. Klungkung, Kabupaten Klungkung",BALI,80716.0,Indonesia,82266141466.0,,,-85.682.129,1.153.980.923,https://maps.google.com/?cid=0x0:0xb36ee586a015d36e,
building improvement,Jasa Konstruksi dan Bangunan,TARU DEWATA,"br. Dinaslebu gede, Lokasari, Kec. Sidemen, Kabupaten Karangasem, Bali 80864","Lokasari, Kec. Sidemen, Kabupaten Karangasem",BALI,80864.0,Indonesia,85238842895.0,,,-8.515.484,1.154.324.339,https://maps.google.com/?cid=0x0:0x4d0bccf5bdb9e99c,
building improvement,building improvement,Bhalance Hotel Retreat,"Antiga Kelod, Kec. Manggis, Kabupaten Karangasem, Bali 80871","Kec. Manggis, Kabupaten Karangasem",BALI,80871.0,Indonesia,82144095034.0,,,-85.450.967,115.485.759,https://maps.google.com/?cid=0x0:0x8d9765c4ad877455,
building improvement,building improvement,Bali 80711,"Kec. Klungkung, Kabupaten Klungkung, Bali","Kabupaten Klungkung, Bali",BALI,,Indonesia,,,,-8.527.468,1.153.978.272,https://maps.google.com/?cid=0x0:0x1c00c5eb6016bf90,
building improvement,Pemasok Peralatan Konstruksi,TOKO BALI KLUNGKUNG ( Toko Besi di Klungkung ),"Jl. Puputan, Semarapura Kangin, Kec. Klungkung, Kabupaten Klungkung, Bali 80761","Semarapura Kangin, Kec. Klungkung, Kabupaten Klungkung",BALI,80761.0,Indonesia,81236563756.0,,,-85.450.333,1.154.027.932,https://maps.google.com/?cid=0x0:0x231c151326861cc2,
building improvement,Perhimpunan Pengembang Perumahan,PINLAND REVIEW BALI,"F9G8+735, Jl. Bakas, Bakas, Kec. Banjarangkan, Kabupaten Klungkung, Bali 80752","Jl. Bakas, Bakas, Kec. Banjarangkan, Kabupaten Klungkung",BALI,80752.0,Indonesia,,,,-85.242.749,1.153.652.296,https://maps.google.com/?cid=0x0:0x37c0ed9dfed78bca,
building improvement,Toko Bahan Bangunan,UD. Lemek Sari,"F93W+XWG, Jl. Matahari I, Kemoning, Kec. Klungkung, Kabupaten Klungkung, Bali 80761","Jl. Matahari I, Kemoning, Kec. Klungkung, Kabupaten Klungkung",BALI,80761.0,Indonesia,81339327865.0,,,-85.450.692,1.153.973.312,https://maps.google.com/?cid=0x0:0x36171c48344a5e6a,
building improvement,Toko Perlengkapan Rumah,MR.DIY,"Jl. Anyelir No.5, Semarapura Kelod, Kec. Klungkung, Kabupaten Klungkung, Bali 80716","Semarapura Kelod, Kec. Klungkung, Kabupaten Klungkung",BALI,80716.0,Indonesia,,,,-8.544.171,1.154.024.988,https://maps.google.com/?cid=0x0:0x963d21fe9b02c527,
building improvement,Kantor Perusahaan,PT Sinarbali Binakarya - Pool 2,"CCJ8+PMJ, Jl. Prof. Dr. Ida Bagus Mantra, Jumpai, Kec. Klungkung, Kabupaten Klungkung, Bali","Kabupaten Klungkung, Bali",BALI,,Indonesia,,,,-85.681.526,1.154.166.416,https://maps.google.com/?cid=0x0:0x20347999cc8afd06,
building improvement,Pusat kebudayaan,Pusat Kebudayaan Bali (Bali Art Center) Klungkung,"Kawasan Pusat Kebudayaan Bali, Jl. Prof. Dr. Ida Bagus Mantra, Gelgel, Klungkung, Klungkung Regency, Bali 80716","Jl. Prof. Dr. Ida Bagus Mantra, Gelgel, Klungkung, Klungkung Regency",BALI,80716.0,Indonesia,8113855361.0,,,-85.657.503,1.154.159.473,https://maps.google.com/?cid=0x0:0x69ecd6272a9bc4b7,
building improvement,Bangunan Bersejarah,Puri Agung Klungkung,"Jl. Untung Suropati, Semarapura Tengah, Kec. Klungkung, Kabupaten Klungkung, Bali 80761","Semarapura Tengah, Kec. Klungkung, Kabupaten Klungkung",BALI,80761.0,Indonesia,,,,-85.351.365,1.154.022.646,https://maps.google.com/?cid=0x0:0x9f46613f01399f35,
building improvement,Komplek perumahan,Rumah Pintu,"8H6C+578, Batununggul, Kec. Nusa Penida, Kabupaten Klungkung, Bali 80771","Batununggul, Kec. Nusa Penida, Kabupaten Klungkung",BALI,80771.0,Indonesia,,,,-86.895.867,1.155.707.078,https://maps.google.com/?cid=0x0:0xbdec9487552f2baa,
building improvement,Toko Elektronik,Raditya Klungkung,"F98X+F28, Jl. Ngurah Rai, Semarapura Tengah, Kec. Klungkung, Kabupaten Klungkung, Bali 80716","Jl. Ngurah Rai, Semarapura Tengah, Kec. Klungkung, Kabupaten Klungkung",BALI,80716.0,Indonesia,81246663225.0,,,-85.339.081,1.153.975.892,https://maps.google.com/?cid=0x0:0xbcae88764d725b15,
building improvement,Tempat acara,PUSAT KEBUDAYAAN BALI (PKB),"Tangkas, Kec. Klungkung, Kabupaten Klungkung, Bali 80761","Kec. Klungkung, Kabupaten Klungkung",BALI,80761.0,Indonesia,,,,-85.650.978,115.427.548,https://maps.google.com/?cid=0x0:0x78e04e03cf4a2907,
building improvement,building improvement,Bali 80712,"Kec. Klungkung, Kabupaten Klungkung, Bali","Kabupaten Klungkung, Bali",BALI,,Indonesia,,,,-85.253.594,1.153.919.027,https://maps.google.com/?cid=0x0:0x1c00c5eb6016bfa0,
building improvement,Perhimpunan Pengembang Perumahan,PINLAND REVIEW BALI,"F9G8+735, Jl. Bakas, Bakas, Kec. Banjarangkan, Kabupaten Klungkung, Bali 80752","Jl. Bakas, Bakas, Kec. Banjarangkan, Kabupaten Klungkung",BALI,80752.0,Indonesia,,,,-85.242.749,1.153.652.296,https://maps.google.com/?cid=0x0:0x37c0ed9dfed78bca,
building improvement,Distributor Baja,TOKO BALI KLUNGKUNG,"Jl. Nakula, Semarapura Kangin, Kec. Klungkung, Kabupaten Klungkung, Bali 80716","Semarapura Kangin, Kec. Klungkung, Kabupaten Klungkung",BALI,80716.0,Indonesia,81236563756.0,,,-85.366.122,1.154.055.096,https://maps.google.com/?cid=0x0:0x73f0375dab3d9652,
building improvement,Pemasok Peralatan Konstruksi,TOKO BALI KLUNGKUNG ( Toko Besi di Klungkung ),"Jl. Puputan, Semarapura Kangin, Kec. Klungkung, Kabupaten Klungkung, Bali 80761","Semarapura Kangin, Kec. Klungkung, Kabupaten Klungkung",BALI,80761.0,Indonesia,81236563756.0,,,-85.450.333,1.154.027.932,https://maps.google.com/?cid=0x0:0x231c151326861cc2,
building improvement,Toko Bahan Bangunan,UD. Tunas Amerta,"F9RJ+7G9, Peken, Aan, Banjarangkan, Aan, Kec. Klungkung, Kabupaten Klungkung, Bali 80752","Peken, Aan, Banjarangkan, Aan, Kec. Klungkung, Kabupaten Klungkung",BALI,80752.0,Indonesia,81338040757.0,,,-85.093.491,1.153.813.667,https://maps.google.com/?cid=0x0:0xf3cdbb0cf8bfd76b,
building improvement,Kantor Perusahaan,PT Sinarbali Binakarya - Pool 2,"CCJ8+PMJ, Jl. Prof. Dr. Ida Bagus Mantra, Jumpai, Kec. Klungkung, Kabupaten Klungkung, Bali","Kabupaten Klungkung, Bali",BALI,,Indonesia,,,,-85.681.526,1.154.166.416,https://maps.google.com/?cid=0x0:0x20347999cc8afd06,
building improvement,Toko Bahan Bangunan,TB. Eka Karya,"Jl. Raya Besakih No.351, Akah, Kec. Klungkung, Kabupaten Klungkung, Bali 80711","Akah, Kec. Klungkung, Kabupaten Klungkung",BALI,80711.0,Indonesia,859106649010.0,,,-85.228.093,1.154.020.412,https://maps.google.com/?cid=0x0:0xd8bcb360522e84fb,
building improvement,Perusahaan Konstruksi,UD. Nadhi Jaya Klungkung,"Pikat, Kec. Dawan, Kabupaten Klungkung, Bali 80761","Kec. Dawan, Kabupaten Klungkung",BALI,80761.0,Indonesia,81338540360.0,,,-85.408.806,1.154.594.794,https://maps.google.com/?cid=0x0:0xbaa4a76b6670f0a3,
building improvement,Komplek perumahan,Klungkung,"CCXC+7M2, Gunaksa, Kec. Dawan, Kabupaten Klungkung, Bali 80761","Gunaksa, Kec. Dawan, Kabupaten Klungkung",BALI,80761.0,Indonesia,,,,-85.518.625,1.154.216.406,https://maps.google.com/?cid=0x0:0xf6ac6b1380a175e5,
building improvement,Jasa Konstruksi dan Bangunan,Kelungkung,"CFV2+QM5, Jl. Prof. Dr. Ida Bagus Mantra, Kusamba, Kec. Dawan, Kabupaten Klungkung, Bali","Kabupaten Klungkung, Bali",BALI,,Indonesia,,,,-85.556.233,1.154.517.216,https://maps.google.com/?cid=0x0:0x7b436ae1ee0bcdb,
building improvement,Komplek perumahan,Mesya,"FF7C+CMX, Pesinggahan, Kec. Dawan, Kabupaten Klungkung, Bali 80761","Pesinggahan, Kec. Dawan, Kabupaten Klungkung",BALI,80761.0,Indonesia,,,,-85.346.827,1.154.728.451,https://maps.google.com/?cid=0x0:0x78e6ecd9d2a688d7,
building improvement,Kantor Perusahaan,Dinas Pekerjaan Umum Pemerintah Kabupaten Klungkung,"Jl. Gajah Mada No.47, Semarapura Tengah, Kec. Klungkung, Kabupaten Klungkung, Bali 80761","Semarapura Tengah, Kec. Klungkung, Kabupaten Klungkung",BALI,80761.0,Indonesia,36621383.0,,,-85.282.566,1.154.040.584,https://maps.google.com/?cid=0x0:0x153c69ab90cb4e85,
building improvement,building improvement,Bali 80713,"Tihingan, Kec. Banjarangkan, Kabupaten Klungkung, Bali","Kabupaten Klungkung, Bali",BALI,,Indonesia,,,,-8.533.129,1.153.889.403,https://maps.google.com/?cid=0x0:0x1c00c5eb6016bfb0,
building improvement,building improvement,Wyndham Tamansari Jivva Resort Bali,"Pantai Lepang, Jl. Subak Lepang No.16, Takmung, Kec. Banjarangkan, Kabupaten Klungkung, Bali 80752","Jl. Subak Lepang No.16, Takmung, Kec. Banjarangkan, Kabupaten Klungkung",BALI,80752.0,Indonesia,3665437988.0,,,-8.573.117,1.153.837.247,https://maps.google.com/?cid=0x0:0xbcf303c67e79ef2f,
building improvement,Toko Bahan Bangunan,TB. Eka Karya,"Jl. Raya Besakih No.351, Akah, Kec. Klungkung, Kabupaten Klungkung, Bali 80711","Akah, Kec. Klungkung, Kabupaten Klungkung",BALI,80711.0,Indonesia,859106649010.0,,,-85.228.093,1.154.020.412,https://maps.google.com/?cid=0x0:0xd8bcb360522e84fb,
building improvement,Tempat acara,PUSAT KEBUDAYAAN BALI (PKB),"Tangkas, Kec. Klungkung, Kabupaten Klungkung, Bali 80761","Kec. Klungkung, Kabupaten Klungkung",BALI,80761.0,Indonesia,,,,-85.650.978,115.427.548,https://maps.google.com/?cid=0x0:0x78e04e03cf4a2907,
building improvement,Jembatan,Jembatan Merah Proyek Pusat Kebudayaan Bali,"CCPG+5P9, Tangkas, Kec. Klungkung, Kabupaten Klungkung, Bali","Kabupaten Klungkung, Bali",BALI,,Indonesia,,,,-856.554,11.542.662,https://maps.google.com/?cid=0x0:0xe2af670877ddc005,
building improvement,Kantor Perusahaan,Office,"8FFR+52V, Kp. Toyapakeh, Kec. Nusa Penida, Kabupaten Klungkung, Bali 80771","Kp. Toyapakeh, Kec. Nusa Penida, Kabupaten Klungkung",BALI,80771.0,Indonesia,,,,-86.770.118,1.154.900.565,https://maps.google.com/?cid=0x0:0xb334499ad25f5752,
building improvement,building improvement,Semarapura,"Kec. Klungkung, Kabupaten Klungkung, Bali","Kabupaten Klungkung, Bali",BALI,,Indonesia,,,,-85.388.252,115.402.367,https://maps.google.com/?cid=0x0:0x4030bfbca7d2ed0,
building improvement,Pemasok Peralatan Konstruksi,TOKO BALI KLUNGKUNG ( Toko Besi di Klungkung ),"Jl. Puputan, Semarapura Kangin, Kec. Klungkung, Kabupaten Klungkung, Bali 80761","Semarapura Kangin, Kec. Klungkung, Kabupaten Klungkung",BALI,80761.0,Indonesia,81236563756.0,,,-85.450.333,1.154.027.932,https://maps.google.com/?cid=0x0:0x231c151326861cc2,
building improvement,Toko Bahan Bangunan,UD. Beton Indah,"Jl. Rama No.8, Kamasan, Kec. Klungkung, Kabupaten Klungkung, Bali 80761","Kamasan, Kec. Klungkung, Kabupaten Klungkung",BALI,80761.0,Indonesia,36624075.0,,,-8.542.711,1.154.086.191,https://maps.google.com/?cid=0x0:0xda12a7ca4b79b10b,
building improvement,Perhimpunan Pengembang Perumahan,PINLAND REVIEW BALI,"F9G8+735, Jl. Bakas, Bakas, Kec. Banjarangkan, Kabupaten Klungkung, Bali 80752","Jl. Bakas, Bakas, Kec. Banjarangkan, Kabupaten Klungkung",BALI,80752.0,Indonesia,,,,-85.242.749,1.153.652.296,https://maps.google.com/?cid=0x0:0x37c0ed9dfed78bca,
building improvement,Toko Perlengkapan Rumah,MR.DIY,"Jl. Anyelir No.5, Semarapura Kelod, Kec. Klungkung, Kabupaten Klungkung, Bali 80716","Semarapura Kelod, Kec. Klungkung, Kabupaten Klungkung",BALI,80716.0,Indonesia,,,,-8.544.171,1.154.024.988,https://maps.google.com/?cid=0x0:0x963d21fe9b02c527,
building improvement,Toko Bahan Bangunan,UD. Lemek Sari,"F93W+XWG, Jl. Matahari I, Kemoning, Kec. Klungkung, Kabupaten Klungkung, Bali 80761","Jl. Matahari I, Kemoning, Kec. Klungkung, Kabupaten Klungkung",BALI,80761.0,Indonesia,81339327865.0,,,-85.450.692,1.153.973.312,https://maps.google.com/?cid=0x0:0x36171c48344a5e6a,
building improvement,Pusat kebudayaan,Pusat Kebudayaan Bali (Bali Art Center) Klungkung,"Kawasan Pusat Kebudayaan Bali, Jl. Prof. Dr. Ida Bagus Mantra, Gelgel, Klungkung, Klungkung Regency, Bali 80716","Jl. Prof. Dr. Ida Bagus Mantra, Gelgel, Klungkung, Klungkung Regency",BALI,80716.0,Indonesia,8113855361.0,,,-85.657.503,1.154.159.473,https://maps.google.com/?cid=0x0:0x69ecd6272a9bc4b7,
building improvement,Toko Bahan Bangunan,Jagra Winangun,"Jl. Raya Takmung, Satra, Kec. Klungkung, Kabupaten Klungkung, Bali 80716","Satra, Kec. Klungkung, Kabupaten Klungkung",BALI,80716.0,Indonesia,8124647663.0,,,-85.534.306,1.153.964.293,https://maps.google.com/?cid=0x0:0x294dd527d61e862f,
building improvement,building improvement,Jasa Pembuatan IMB Bali,,,BALI,,Indonesia,83115155057.0,,,-84.554.714,115.071.577,https://maps.google.com/?cid=0x0:0x96c1c728f052e162,
building improvement,Toko Elektronik,Raditya Klungkung,"F98X+F28, Jl. Ngurah Rai, Semarapura Tengah, Kec. Klungkung, Kabupaten Klungkung, Bali 80716","Jl. Ngurah Rai, Semarapura Tengah, Kec. Klungkung, Kabupaten Klungkung",BALI,80716.0,Indonesia,81246663225.0,,,-85.339.081,1.153.975.892,https://maps.google.com/?cid=0x0:0xbcae88764d725b15,
building improvement,Bangunan Bersejarah,Puri Agung Klungkung,"Jl. Untung Suropati, Semarapura Tengah, Kec. Klungkung, Kabupaten Klungkung, Bali 80761","Semarapura Tengah, Kec. Klungkung, Kabupaten Klungkung",BALI,80761.0,Indonesia,,,,-85.351.365,1.154.022.646,https://maps.google.com/?cid=0x0:0x9f46613f01399f35,
building improvement,Jembatan,Jembatan Merah Proyek Pusat Kebudayaan Bali,"CCPG+5P9, Tangkas, Kec. Klungkung, Kabupaten Klungkung, Bali","Kabupaten Klungkung, Bali",BALI,,Indonesia,,,,-856.554,11.542.662,https://maps.google.com/?cid=0x0:0xe2af670877ddc005,
building improvement,Tempat acara,PUSAT KEBUDAYAAN BALI (PKB),"Tangkas, Kec. Klungkung, Kabupaten Klungkung, Bali 80761","Kec. Klungkung, Kabupaten Klungkung",BALI,80761.0,Indonesia,,,,-85.650.978,115.427.548,https://maps.google.com/?cid=0x0:0x78e04e03cf4a2907,
building improvement,Taman,Wisata Konstruksi Galian C,"CCGM+RHR, Unnamed Road, Gunaksa, Dawan, Klungkung Regency, Bali 80761","Unnamed Road, Gunaksa, Dawan, Klungkung Regency",BALI,80761.0,Indonesia,,,,-85.728.875,1.154.338.906,https://maps.google.com/?cid=0x0:0xaa050865e38eca52,
building improvement,Jasa Konstruksi dan Bangunan,Bengkel Las Merta Sari,"FC66+83R, Jalan Rama, Br. Lebah, Semarapura Kangin, Kec. Klungkung, Kabupaten Klungkung, Bali 80761","Jalan Rama, Br. Lebah, Semarapura Kangin, Kec. Klungkung, Kabupaten Klungkung",BALI,80761.0,Indonesia,87860886662.0,,,-85.391.394,1.154.101.471,https://maps.google.com/?cid=0x0:0x5540910244cd5608,
building improvement,Toko Bahan Bangunan,Benoa Mas Bangunan,"Jl. Puputan No.60, Semarapura Kelod, Kec. Klungkung, Kabupaten Klungkung, Bali 80761","Semarapura Kelod, Kec. Klungkung, Kabupaten Klungkung",BALI,80761.0,Indonesia,89574858596.0,,,-85.425.114,1.154.027.637,https://maps.google.com/?cid=0x0:0xb10fa0aa6355c25,
building improvement,building improvement,Bali 80771,"Kec. Nusa Penida, Kabupaten Klungkung, Bali","Kabupaten Klungkung, Bali",BALI,,Indonesia,,,,-8.727.807,1.155.444.231,https://maps.google.com/?cid=0x0:0x1c00c5eb6016c020,
building improvement,Perusahaan Listrik,PLTS Nusa Penida,"7HPM+MPG, Suana, Kec. Nusa Penida, Kabupaten Klungkung, Bali 80771","Suana, Kec. Nusa Penida, Kabupaten Klungkung",BALI,80771.0,Indonesia,,,,-8.713.304,1.155.843.216,https://maps.google.com/?cid=0x0:0x39feb64c29dd5e2,
building improvement,building improvement,The Penida Project Hostel,"Penida Project, Jl. Panaonan, Pendem, Ped, Kec. Nusa Penida, Kabupaten Klungkung, Bali 80771","Jl. Panaonan, Pendem, Ped, Kec. Nusa Penida, Kabupaten Klungkung",BALI,80771.0,Indonesia,82235372388.0,,,-86.956.422,115.520.822,https://maps.google.com/?cid=0x0:0xb5cc472281993aa4,
building improvement,Bandara Regional,Bandar Udara Internasional Lombok,"Jl. Bypass BIL - Mandalika, Tanak Awu, Kec. Pujut, Kabupaten Lombok Tengah, Nusa Tenggara Bar. 83573","Tanak Awu, Kec. Pujut, Kabupaten Lombok Tengah",BALI,83573.0,Indonesia,82185041272.0,,,-87.607.069,1.162.754.775,https://maps.google.com/?cid=0x0:0xc3c7d00a4024ad3c,
building improvement,Agen Tur Keliling Kota,View Nusa Penida,"7HX9+JF4, Banjar Minggir,desa batununggul,kec. Nusa Penida, balipaten, Kabupaten Klungkung, Bali 80771","Banjar Minggir,desa batununggul,kec. Nusa Penida, balipaten, Kabupaten Klungkung",BALI,80771.0,Indonesia,81353995662.0,,,-87.009.996,1.155.687.043,https://maps.google.com/?cid=0x0:0xd7b97161d760046e,
building improvement,Komplek perumahan,shape.haus,"Jungutbatu, nusa lembongan, Kabupaten Klungkung, Bali 80361","nusa lembongan, Kabupaten Klungkung",BALI,80361.0,Indonesia,81337427395.0,,,-86.817.122,1.154.522.392,https://maps.google.com/?cid=0x0:0x150146a8c8bebac6,
building improvement,building improvement,,,,BALI,,Indonesia,,,,,,https://maps.google.com/?cid=0x0:0xeb0776c7a9e9bbdf%7C/g/11bwf7nl50%7Cid-ID,
building improvement,building improvement,Rumah Pohon Nusa Penida,"Jalan Petinggian, Nusapenida, Kutampi Kaler, Kec. Nusa Penida, Kabupaten Klungkung, Bali 80771","Nusapenida, Kutampi Kaler, Kec. Nusa Penida, Kabupaten Klungkung",BALI,80771.0,Indonesia,85737648050.0,,,-8.693.937,1.155.467.052,https://maps.google.com/?cid=0x0:0xeb0776c7a9e9bbdf,
building improvement,building improvement,Beach House Penida,"Jl. Raya Toya Pakeh - Ped, Ped, Kec. Nusa Penida, Kabupaten Klungkung, Bali 80771","Ped, Kec. Nusa Penida, Kabupaten Klungkung",BALI,80771.0,Indonesia,81338878712.0,,,-86.726.396,1.154.996.965,https://maps.google.com/?cid=0x0:0xf50b9ec3a47e464,
building improvement,building improvement,Nuansa Penida Hostel,"Jl. Banjar Anyar - Sebunibus Nusa Penida, Sakti, Kec. Nusa Penida, Kabupaten Klungkung, Bali 80771","Sakti, Kec. Nusa Penida, Kabupaten Klungkung",BALI,80771.0,Indonesia,85737629014.0,,,-8.691.978,1.154.859.263,https://maps.google.com/?cid=0x0:0x292914a94d164bcb,
building improvement,building improvement,Abian house nusa penida,"8H9F+VHM, Jl. Ped - Buyuk, Batununggul, Kec. Nusa Penida, Kabupaten Klungkung, Bali 80771","Jl. Ped - Buyuk, Batununggul, Kec. Nusa Penida, Kabupaten Klungkung",BALI,80771.0,Indonesia,81338507291.0,,,-86.802.867,1.155.739.342,https://maps.google.com/?cid=0x0:0xf96878ee888ff7f,
building improvement,Terminal Feri,"Sampalan, Nusa Penida","Batununggul, Kec. Nusa Penida, Kabupaten Klungkung, Bali","Kabupaten Klungkung, Bali",BALI,,Indonesia,,,,-86.720.093,1.155.584.823,https://maps.google.com/?cid=0x0:0x56557add2026c7db,
building improvement,ATM,BPD Bali cabang Nusa Penida,"No., Jl. Nusa Indah No.53, Kutampi Kaler, Kec. Nusa Penida, Kabupaten Klungkung, Bali 80771","Jl. Nusa Indah No.53, Kutampi Kaler, Kec. Nusa Penida, Kabupaten Klungkung",BALI,80771.0,Indonesia,,,,-86.740.338,1.155.537.781,https://maps.google.com/?cid=0x0:0xc6893fe50eecdfb6,
building improvement,building improvement,Nusa Penida,"Kec. Nusa Penida, Kabupaten Klungkung, Bali","Kabupaten Klungkung, Bali",BALI,,Indonesia,,,,-8.727.807,1.155.444.231,https://maps.google.com/?cid=0x0:0x5c3a3706b2197b7b,
building improvement,Kantor Perusahaan,BENGKEL SAMPALAN LAS,"Banjar Mentigi, Batununggul, Kec. Nusa Penida, Kabupaten Klungkung, Bali 80771","Batununggul, Kec. Nusa Penida, Kabupaten Klungkung",BALI,80771.0,Indonesia,87761733873.0,,,-86.755.703,1.155.561.042,https://maps.google.com/?cid=0x0:0x1e37196b8274afea,
building improvement,building improvement,AN Project,"Jl. Raya Lembongan, Telatak, Lembongan, Kec. Nusa Penida, Kabupaten Klungkung, Bali 80771","Telatak, Lembongan, Kec. Nusa Penida, Kabupaten Klungkung",BALI,80771.0,Indonesia,81336081833.0,,,-86.930.177,1.154.488.714,https://maps.google.com/?cid=0x0:0x97fbc28c38479c1e,
building improvement,Rumah wisata,Penida Mejeha Design,"6H76+J67, Sekartaji, Kec. Nusa Penida, Kabupaten Klungkung, Bali 80771","Sekartaji, Kec. Nusa Penida, Kabupaten Klungkung",BALI,80771.0,Indonesia,82142915538.0,,,-8.786.026,1.155.604.944,https://maps.google.com/?cid=0x0:0x7dd0125c5ee23759,
building improvement,building improvement,Penida sunset ocean view bungalows,"crystalbay, Jalan. Raya, Sakti, Nusa Penida, Klungkung Regency, Bali 80771","Jalan. Raya, Sakti, Nusa Penida, Klungkung Regency",BALI,80771.0,Indonesia,81246071486.0,,,-87.120.237,1.154.685.834,https://maps.google.com/?cid=0x0:0x6b051566f1c6bf4d,
building improvement,building improvement,,,,BALI,,Indonesia,,,,,,https://maps.google.com/?cid=0x0:0x6b051566f1c6bf4d%7C/g/11j7jpscq1%7Cid-ID,
building improvement,building improvement,Lahi Villa and Spa,"Batununggul, Kec. Nusa Penida, Kabupaten Klungkung, Bali 80771","Kec. Nusa Penida, Kabupaten Klungkung",BALI,80771.0,Indonesia,81236356884.0,,,-8.688.683,1.155.789.805,https://maps.google.com/?cid=0x0:0x31600464db561486,
building improvement,Hotel,Reflection Heavens,"7H5X+QPP, Suana, Kec. Nusa Penida, Kabupaten Klungkung, Bali 80771","Suana, Kec. Nusa Penida, Kabupaten Klungkung",BALI,80771.0,Indonesia,,,,-87.401.154,1.155.999.232,https://maps.google.com/?cid=0x0:0xf087db23ebd42105,
building improvement,Layanan Feri,Pelabuhan Segi Tiga Emas Nusapenida,"8HH5+49P, Batununggul, Kec. Nusa Penida, Kabupaten Klungkung, Bali 80771","Batununggul, Kec. Nusa Penida, Kabupaten Klungkung",BALI,80771.0,Indonesia,,,,-86.721.628,1.155.584.455,https://maps.google.com/?cid=0x0:0xa8a5609a7d72c638,
building improvement,Restoran,PAPILAS Coffee  Kitchen - Nusa Penida,"Jl. Nusa Indah No.53, Kutampi Kaler, Kec. Nusa Penida, Kabupaten Klungkung, Bali 80771","Kutampi Kaler, Kec. Nusa Penida, Kabupaten Klungkung",BALI,80771.0,Indonesia,3665581418.0,,,-86.739.806,1.155.504.927,https://maps.google.com/?cid=0x0:0x3a523aad1d046cf5,
building improvement,Vegan,The Gallery Nusa Penida,"Jln. Raya Bodong, Klungkun, 80771, Ped, Nusa Penida, Klungkung Regency, Bali 80771","Klungkun,",BALI,80771.0,Indonesia,,,,-86.781.079,1.155.158.114,https://maps.google.com/?cid=0x0:0x4adb8cb0f154a5b8,
hardware store,hardware store,Bali 80752,"Kec. Banjarangkan, Kabupaten Klungkung, Bali","Kabupaten Klungkung, Bali",BALI,,Indonesia,,,,-8.512.833,1.153.726.469,https://maps.google.com/?cid=0x0:0x1c00c5eb6016c000,
hardware store,Toko Bahan Bangunan,UD Aryadana,"Jl. Raya Banjarangkan No.8, Banjarangkan, Kec. Banjarangkan, Kabupaten Klungkung, Bali 80752","Banjarangkan, Kec. Banjarangkan, Kabupaten Klungkung",BALI,80752.0,Indonesia,85769908768.0,,,-85.508.243,1.153.788.033,https://maps.google.com/?cid=0x0:0x862c2502802dbafc,
hardware store,Toko Bahan Bangunan,Budi Bangunan Banjarangkan,"C9MF+59P, Jl. Tegal Besar, Negari, Kec. Banjarangkan, Kabupaten Klungkung, Bali 80752","Jl. Tegal Besar, Negari, Kec. Banjarangkan, Kabupaten Klungkung",BALI,80752.0,Indonesia,82146583909.0,,,-85.670.401,1.153.734.596,https://maps.google.com/?cid=0x0:0xee6b1a2925e99553,
hardware store,Toko Bahan Bangunan,ADmaterial Bali,"Lepang, Takmung, Kec. Banjarangkan, Kabupaten Klungkung, Bali 80716","Takmung, Kec. Banjarangkan, Kabupaten Klungkung",BALI,80716.0,Indonesia,81314976410.0,,,-85.678.266,1.153.871.522,https://maps.google.com/?cid=0x0:0x9ebf5a2687e345eb,
hardware store,Toko Bahan Bangunan,UD Karya Bangunan,"Jl. Ngurah Rai No.88 A, Semarapura Tengah, Kec. Klungkung, Kabupaten Klungkung, Bali 80711","Semarapura Tengah, Kec. Klungkung, Kabupaten Klungkung",BALI,80711.0,Indonesia,81338141935.0,,,-85.294.348,1.153.984.585,https://maps.google.com/?cid=0x0:0x8915cfcafeed36b9,
hardware store,Toko Bahan Bangunan,TB Sekar Sari,"C9WQ+WVF, Jl. Raya Takmung, Takmung, Kec. Banjarangkan, Kabupaten Klungkung, Bali 80716","Jl. Raya Takmung, Takmung, Kec. Banjarangkan, Kabupaten Klungkung",BALI,80716.0,Indonesia,36623962.0,,,-85.526.825,1.153.896.579,https://maps.google.com/?cid=0x0:0x835b189248ccecd7,
hardware store,Toko Perlengkapan Rumah,Toko Cahaya Mulia,"F928+7VJ, Jl. Raya Tusan, Tusan, Kec. Banjarangkan, Kabupaten Klungkung, Bali 80752","Jl. Raya Tusan, Tusan, Kec. Banjarangkan, Kabupaten Klungkung",BALI,80752.0,Indonesia,36624165.0,,,-85.492.876,1.153.671.326,https://maps.google.com/?cid=0x0:0xc73d9892cb10ac59,
hardware store,Pemasok Bahan Bangunan,UD. SINAR BUANA,"Jl. Sidayu Tojan, Takmung, Kec. Banjarangkan, Kabupaten Klungkung, Bali 80752","Takmung, Kec. Banjarangkan, Kabupaten Klungkung",BALI,80752.0,Indonesia,87762955574.0,,,-85.710.556,1.153.899.998,https://maps.google.com/?cid=0x0:0x666f68310a02b30,
hardware store,Toko Bahan Bangunan,Angga bella material,"Aan, Kec. Banjarangkan, Kabupaten Klungkung, Bali","Kabupaten Klungkung, Bali",BALI,,Indonesia,81999572178.0,,,-8.500.737,1.153.742.929,https://maps.google.com/?cid=0x0:0xf0810e2f099edae1,
hardware store,Toko Alat Tulis,Warung Giwitri,"Jl. Raya Desa Nyalian, Nyalian, Kec. Banjarangkan, Kabupaten Klungkung, Bali 80752","Nyalian, Kec. Banjarangkan, Kabupaten Klungkung",BALI,80752.0,Indonesia,85109030306.0,,,-85.006.297,1.153.671.232,https://maps.google.com/?cid=0x0:0xa2e1e80a273c004c,
hardware store,Toko Bahan Bangunan,Toko puspa sari,"G99M+Q9M, Jl. Raya Timuhun, Timuhun, Kec. Banjarangkan, Kabupaten Klungkung, Bali 80752","Jl. Raya Timuhun, Timuhun, Kec. Banjarangkan, Kabupaten Klungkung",BALI,80752.0,Indonesia,,,,-84.805.355,1.153.834.113,https://maps.google.com/?cid=0x0:0x1cd47225b050467c,
hardware store,Toko Bahan Bangunan,UD Sari Karya,"Jl. Raya Besakih No.184, Akah, Kec. Klungkung, Kabupaten Klungkung, Bali 80716","Akah, Kec. Klungkung, Kabupaten Klungkung",BALI,80716.0,Indonesia,36624704.0,,,-8.514.183,1.154.016.617,https://maps.google.com/?cid=0x0:0xa3e0b01c86e03f34,
hardware store,Toko Bahan Bangunan,TB.Sinar Batu,"Jl. Sm Agung No.Raya, Tusan, Kec. Banjarangkan, Kabupaten Klungkung, Bali 80752","Tusan, Kec. Banjarangkan, Kabupaten Klungkung",BALI,80752.0,Indonesia,36625388.0,,,-85.443.063,1.153.684.992,https://maps.google.com/?cid=0x0:0x5a6559c5dbdc2b6e,
hardware store,Toko Bahan Bangunan,TB. Sinar Dewata,"FC25+X2P, Jl. Mahodara, Kamasan, Kec. Klungkung, Kabupaten Klungkung, Bali 80761","Jl. Mahodara, Kamasan, Kec. Klungkung, Kabupaten Klungkung",BALI,80761.0,Indonesia,87851162036.0,,,-85.475.465,1.154.075.937,https://maps.google.com/?cid=0x0:0x3dc6ffb8e9280771,
hardware store,Toko Elektronik,CK. Candra Karya,"C9J9+GXQ, Jalan By Pass Prof Dok Ida Bagus Mantra, Tulikup, Kec. Gianyar, Kabupaten Gianyar, Bali 80515","Jalan By Pass Prof Dok Ida Bagus Mantra, Tulikup, Kec. Gianyar, Kabupaten Gianyar",BALI,80515.0,Indonesia,87860729401.0,,,-85.686.632,1.153.699.689,https://maps.google.com/?cid=0x0:0x6cbdaa6f4a07f76d,
hardware store,Toko Bahan Bangunan,Happy Sari,"F94C+8X9, Jalan Raya, Tusan, Banjarangkan, Klungkung Regency, Bali 80752","Jalan Raya, Tusan, Banjarangkan, Klungkung Regency",BALI,80752.0,Indonesia,85237595829.0,,,-85.442.032,115.372.495,https://maps.google.com/?cid=0x0:0xfc7387c6a6eaf302,
hardware store,Toko Bahan Bangunan,TB Gunung Wayan,"F9G8+X3J, Jl. Bakas, Bakas, Kec. Banjarangkan, Kabupaten Klungkung, Bali 80752","Jl. Bakas, Bakas, Kec. Banjarangkan, Kabupaten Klungkung",BALI,80752.0,Indonesia,81927114928.0,,,-85.225.346,1.153.651.346,https://maps.google.com/?cid=0x0:0x5ab5a3dbafc5441b,
hardware store,Distributor Baja,TOKO BALI KLUNGKUNG,"Jl. Nakula, Semarapura Kangin, Kec. Klungkung, Kabupaten Klungkung, Bali 80716","Semarapura Kangin, Kec. Klungkung, Kabupaten Klungkung",BALI,80716.0,Indonesia,81236563756.0,,,-85.366.122,1.154.055.096,https://maps.google.com/?cid=0x0:0x73f0375dab3d9652,
hardware store,Pemasok peralatan,Ud subur jaya,"G9HJ+WMF, Tohpati, Kec. Banjarangkan, Kabupaten Klungkung, Bali 80752","Tohpati, Kec. Banjarangkan, Kabupaten Klungkung",BALI,80752.0,Indonesia,87862246592.0,,,-84.696.708,115.381.248,https://maps.google.com/?cid=0x0:0xa217fa3748569f47,
hardware store,Toko Bahan Bangunan,Arsa Nadi,"Jl. Raya Gunaksa No.26-28, Gunaksa, Kec. Dawan, Kabupaten Klungkung, Bali 80761","Gunaksa, Kec. Dawan, Kabupaten Klungkung",BALI,80761.0,Indonesia,87861924714.0,,,-85.406.654,1.154.252.769,https://maps.google.com/?cid=0x0:0x1d2a6ed7d2042201,
hardware store,hardware store,Bali 80761,"Kec. Dawan, Kabupaten Klungkung, Bali","Kabupaten Klungkung, Bali",BALI,,Indonesia,,,,-85.234.217,1.154.378.152,https://maps.google.com/?cid=0x0:0x1c00c5eb6016c010,
hardware store,Toko Bahan Bangunan,TB. Sinar Dewata,"FC25+X2P, Jl. Mahodara, Kamasan, Kec. Klungkung, Kabupaten Klungkung, Bali 80761","Jl. Mahodara, Kamasan, Kec. Klungkung, Kabupaten Klungkung",BALI,80761.0,Indonesia,87851162036.0,,,-85.475.465,1.154.075.937,https://maps.google.com/?cid=0x0:0x3dc6ffb8e9280771,
hardware store,Toko Bahan Bangunan,UD Sura Nadi,"CFW7+JRW, Pesinggahan, Kec. Dawan, Kabupaten Klungkung, Bali 80761","Pesinggahan, Kec. Dawan, Kabupaten Klungkung",BALI,80761.0,Indonesia,36630775.0,,,-85.533.958,1.154.645.829,https://maps.google.com/?cid=0x0:0xc1a05a9d16d1453c,
hardware store,Toko Bahan Bangunan,TB. Darma,"FC6V+R7Q, Jl. Sawo Kabeh, Dawan Kaler, Kec. Dawan, Kabupaten Klungkung, Bali 80761","Jl. Sawo Kabeh, Dawan Kaler, Kec. Dawan, Kabupaten Klungkung",BALI,80761.0,Indonesia,87860486598.0,,,-85.379.088,1.154.432.332,https://maps.google.com/?cid=0x0:0xa4ec9e82f1e4a029,
hardware store,Toko Bahan Bangunan,Bintang Jaya Gypsum  Furniture,"Jl. Raya Gunaksa, Gunaksa, Kec. Dawan, Kabupaten Klungkung, Bali 80761","Gunaksa, Kec. Dawan, Kabupaten Klungkung",BALI,80761.0,Indonesia,85230070981.0,,,-85.538.985,1.154.326.535,https://maps.google.com/?cid=0x0:0xbaff68e741bfecc,
hardware store,Toko Bahan Bangunan,Arsa Nadi,"Jl. Raya Gunaksa No.26-28, Gunaksa, Kec. Dawan, Kabupaten Klungkung, Bali 80761","Gunaksa, Kec. Dawan, Kabupaten Klungkung",BALI,80761.0,Indonesia,87861924714.0,,,-85.406.654,1.154.252.769,https://maps.google.com/?cid=0x0:0x1d2a6ed7d2042201,
hardware store,Toko Bahan Bangunan,TB. Adi Utama,"FC4R+RW2, Jl. Sawo Kabeh, Dawan Kaler, Kec. Dawan, Kabupaten Klungkung, Bali 80761","Jl. Sawo Kabeh, Dawan Kaler, Kec. Dawan, Kabupaten Klungkung",BALI,80761.0,Indonesia,81916252389.0,,,-8.542.976,1.154.422.653,https://maps.google.com/?cid=0x0:0x2d9fa44315905060,
hardware store,Toko Bahan Bangunan,UD Karya Bangunan,"Jl. Ngurah Rai No.88 A, Semarapura Tengah, Kec. Klungkung, Kabupaten Klungkung, Bali 80711","Semarapura Tengah, Kec. Klungkung, Kabupaten Klungkung",BALI,80711.0,Indonesia,81338141935.0,,,-85.294.348,1.153.984.585,https://maps.google.com/?cid=0x0:0x8915cfcafeed36b9,
hardware store,Toko Bahan Bangunan,UD Restu Karya Material Klungkung,"By pas, Gelgel, Kec. Klungkung, Kabupaten Klungkung, Bali 80711","Gelgel, Kec. Klungkung, Kabupaten Klungkung",BALI,80711.0,Indonesia,87862471218.0,,,-85.682.384,1.154.095.433,https://maps.google.com/?cid=0x0:0x216a6f304335cd96,
hardware store,Toko Bahan Bangunan,UD. Bangunan Dua,"Jl. Darmawangsa No.35, Semarapura Kangin, Kec. Klungkung, Kabupaten Klungkung, Bali 80716","Semarapura Kangin, Kec. Klungkung, Kabupaten Klungkung",BALI,80716.0,Indonesia,36621025.0,,,-85.370.242,1.154.058.972,https://maps.google.com/?cid=0x0:0x8264931f5cbd1b64,
hardware store,Distributor Baja,TOKO BALI KLUNGKUNG,"Jl. Nakula, Semarapura Kangin, Kec. Klungkung, Kabupaten Klungkung, Bali 80716","Semarapura Kangin, Kec. Klungkung, Kabupaten Klungkung",BALI,80716.0,Indonesia,81236563756.0,,,-85.366.122,1.154.055.096,https://maps.google.com/?cid=0x0:0x73f0375dab3d9652,
hardware store,Toko Bahan Bangunan,Ratna Mandiri,"Paku Aya No.1, Dawan Klod, Kec. Dawan, Kabupaten Klungkung, Bali 80761","Dawan Klod, Kec. Dawan, Kabupaten Klungkung",BALI,80761.0,Indonesia,,,,-8.549.372,115.448.561,https://maps.google.com/?cid=0x0:0xce3d2e9cebcb5bea,
hardware store,Toko Bahan Bangunan,UD Aryadana,"Jl. Raya Banjarangkan No.8, Banjarangkan, Kec. Banjarangkan, Kabupaten Klungkung, Bali 80752","Banjarangkan, Kec. Banjarangkan, Kabupaten Klungkung",BALI,80752.0,Indonesia,85769908768.0,,,-85.508.243,1.153.788.033,https://maps.google.com/?cid=0x0:0x862c2502802dbafc,
hardware store,Toko Bahan Bangunan,UD Sari Karya,"Jl. Raya Besakih No.184, Akah, Kec. Klungkung, Kabupaten Klungkung, Bali 80716","Akah, Kec. Klungkung, Kabupaten Klungkung",BALI,80716.0,Indonesia,36624704.0,,,-8.514.183,1.154.016.617,https://maps.google.com/?cid=0x0:0xa3e0b01c86e03f34,
hardware store,Toko Bahan Bangunan,"TB Putra Rahayu, Dawan, Klungkung","FFG8+6CG, Pikat, Kec. Dawan, Kabupaten Klungkung, Bali 80761","Pikat, Kec. Dawan, Kabupaten Klungkung",BALI,80761.0,Indonesia,81246654863.0,,,-85.246.162,11.546.636,https://maps.google.com/?cid=0x0:0x30a4ec6ff18416c4,
hardware store,Toko Bahan Bangunan,ADmaterial Bali,"Lepang, Takmung, Kec. Banjarangkan, Kabupaten Klungkung, Bali 80716","Takmung, Kec. Banjarangkan, Kabupaten Klungkung",BALI,80716.0,Indonesia,81314976410.0,,,-85.678.266,1.153.871.522,https://maps.google.com/?cid=0x0:0x9ebf5a2687e345eb,
hardware store,Toko Perlengkapan Rumah,MR.DIY,"Jl. Anyelir No.5, Semarapura Kelod, Kec. Klungkung, Kabupaten Klungkung, Bali 80716","Semarapura Kelod, Kec. Klungkung, Kabupaten Klungkung",BALI,80716.0,Indonesia,,,,-8.544.171,1.154.024.988,https://maps.google.com/?cid=0x0:0x963d21fe9b02c527,
hardware store,Toko Bahan Bangunan,Toko Bangunan Surya,"Jl. Puputan No.69, Semarapura Kangin, Kec. Klungkung, Kabupaten Klungkung, Bali 80761","Semarapura Kangin, Kec. Klungkung, Kabupaten Klungkung",BALI,80761.0,Indonesia,36621322.0,,,-85.422.503,1.154.025.558,https://maps.google.com/?cid=0x0:0xafbfaa25f3136420,
hardware store,Pemasok Bahan Bangunan,TB. Baskara Karya,"CFR4+F47, Jl. Kusanegara, Kp. Kusamba, Kec. Dawan, Kabupaten Klungkung, Bali 80761","Jl. Kusanegara, Kp. Kusamba, Kec. Dawan, Kabupaten Klungkung",BALI,80761.0,Indonesia,81916161130.0,,,-85.588.273,1.154.552.925,https://maps.google.com/?cid=0x0:0xfce7e44eb1e7e451,
hardware store,Toko Kosmetik,Dewa Ayu Shop Klungkung,"Jl. Untung Suropati No.45, Semarapura Tengah, Kec. Klungkung, Kabupaten Klungkung, Bali 80761","Semarapura Tengah, Kec. Klungkung, Kabupaten Klungkung",BALI,80761.0,Indonesia,85935049741.0,,,-85.346.406,1.153.990.262,https://maps.google.com/?cid=0x0:0x5da955d7be084be1,
hardware store,Toko Kerajinan Tangan,Sari Agung Ukir,"Jl. Puputan No.69, Semarapura Kangin, Kec. Klungkung, Kabupaten Klungkung, Bali 80761","Semarapura Kangin, Kec. Klungkung, Kabupaten Klungkung",BALI,80761.0,Indonesia,87860747229.0,,,-85.423.368,1.154.027.252,https://maps.google.com/?cid=0x0:0xf8950a86386bb37b,
hardware store,Toko Bahan Bangunan,UD YASA UTAMA,"FFWJ+V2C, Jl. Pura Pucak Kaler, Gegelang, Kec. Manggis, Kabupaten Karangasem, Bali 80871","Jl. Pura Pucak Kaler, Gegelang, Kec. Manggis, Kabupaten Karangasem",BALI,80871.0,Indonesia,8123656193.0,,,-85.028.029,1.154.800.169,https://maps.google.com/?cid=0x0:0xfe8040033fd91a34,
hardware store,Toko,Toko Bangunan Sri Murti 4,"Jl. Raya Padang Bai, Antiga Kelod, Pengalon, Kabupaten Karangasem, Bali 80811","Antiga Kelod, Pengalon, Kabupaten Karangasem",BALI,80811.0,Indonesia,82342199235.0,,,-85.396.468,1.154.912.375,https://maps.google.com/?cid=0x0:0x6cbf420c89b19e86,
hardware store,hardware store,Bali 80711,"Kec. Klungkung, Kabupaten Klungkung, Bali","Kabupaten Klungkung, Bali",BALI,,Indonesia,,,,-8.527.468,1.153.978.272,https://maps.google.com/?cid=0x0:0x1c00c5eb6016bf90,
hardware store,Toko Bahan Bangunan,UD Karya Bangunan,"Jl. Ngurah Rai No.88 A, Semarapura Tengah, Kec. Klungkung, Kabupaten Klungkung, Bali 80711","Semarapura Tengah, Kec. Klungkung, Kabupaten Klungkung",BALI,80711.0,Indonesia,81338141935.0,,,-85.294.348,1.153.984.585,https://maps.google.com/?cid=0x0:0x8915cfcafeed36b9,
hardware store,Toko Bahan Bangunan,TB. Sinar Dewata,"FC25+X2P, Jl. Mahodara, Kamasan, Kec. Klungkung, Kabupaten Klungkung, Bali 80761","Jl. Mahodara, Kamasan, Kec. Klungkung, Kabupaten Klungkung",BALI,80761.0,Indonesia,87851162036.0,,,-85.475.465,1.154.075.937,https://maps.google.com/?cid=0x0:0x3dc6ffb8e9280771,
hardware store,Toko Bahan Bangunan,Toko Bangunan Surya,"Jl. Puputan No.69, Semarapura Kangin, Kec. Klungkung, Kabupaten Klungkung, Bali 80761","Semarapura Kangin, Kec. Klungkung, Kabupaten Klungkung",BALI,80761.0,Indonesia,36621322.0,,,-85.422.503,1.154.025.558,https://maps.google.com/?cid=0x0:0xafbfaa25f3136420,
hardware store,Toko Bahan Bangunan,UD Sari Karya,"Jl. Raya Besakih No.184, Akah, Kec. Klungkung, Kabupaten Klungkung, Bali 80716","Akah, Kec. Klungkung, Kabupaten Klungkung",BALI,80716.0,Indonesia,36624704.0,,,-8.514.183,1.154.016.617,https://maps.google.com/?cid=0x0:0xa3e0b01c86e03f34,
hardware store,Toko Bahan Bangunan,TB. Eka Karya,"Jl. Raya Besakih No.351, Akah, Kec. Klungkung, Kabupaten Klungkung, Bali 80711","Akah, Kec. Klungkung, Kabupaten Klungkung",BALI,80711.0,Indonesia,859106649010.0,,,-85.228.093,1.154.020.412,https://maps.google.com/?cid=0x0:0xd8bcb360522e84fb,
hardware store,Toko Perlengkapan Rumah,MR.DIY,"Jl. Anyelir No.5, Semarapura Kelod, Kec. Klungkung, Kabupaten Klungkung, Bali 80716","Semarapura Kelod, Kec. Klungkung, Kabupaten Klungkung",BALI,80716.0,Indonesia,,,,-8.544.171,1.154.024.988,https://maps.google.com/?cid=0x0:0x963d21fe9b02c527,
hardware store,Toko Bahan Bangunan,UD. Bangunan Dua,"Jl. Darmawangsa No.35, Semarapura Kangin, Kec. Klungkung, Kabupaten Klungkung, Bali 80716","Semarapura Kangin, Kec. Klungkung, Kabupaten Klungkung",BALI,80716.0,Indonesia,36621025.0,,,-85.370.242,1.154.058.972,https://maps.google.com/?cid=0x0:0x8264931f5cbd1b64,
hardware store,Toko Bahan Bangunan,Toko Gunaksa,"Jl. Diponegoro No.89, Semarapura Kelod Kangin, Kec. Klungkung, Kabupaten Klungkung, Bali 80715","Semarapura Kelod Kangin, Kec. Klungkung, Kabupaten Klungkung",BALI,80715.0,Indonesia,36621063.0,,,-85.355.996,1.154.058.149,https://maps.google.com/?cid=0x0:0xe937c0108af523c0,
hardware store,Toko Kerajinan Tangan,Sari Agung Ukir,"Jl. Puputan No.69, Semarapura Kangin, Kec. Klungkung, Kabupaten Klungkung, Bali 80761","Semarapura Kangin, Kec. Klungkung, Kabupaten Klungkung",BALI,80761.0,Indonesia,87860747229.0,,,-85.423.368,1.154.027.252,https://maps.google.com/?cid=0x0:0xf8950a86386bb37b,
hardware store,Toko Pakaian,ARJ88 store klungkung,"F98X+H2F, Jl. Ngurah Rai, Semarapura Kauh, Kec. Klungkung, Kabupaten Klungkung, Bali 80716","Jl. Ngurah Rai, Semarapura Kauh, Kec. Klungkung, Kabupaten Klungkung",BALI,80716.0,Indonesia,,,,-8.533.557,115.397.545,https://maps.google.com/?cid=0x0:0x5a7ee9d55119682e,
hardware store,Toko Kosmetik,Dewa Ayu Shop Klungkung,"Jl. Untung Suropati No.45, Semarapura Tengah, Kec. Klungkung, Kabupaten Klungkung, Bali 80761","Semarapura Tengah, Kec. Klungkung, Kabupaten Klungkung",BALI,80761.0,Indonesia,85935049741.0,,,-85.346.406,1.153.990.262,https://maps.google.com/?cid=0x0:0x5da955d7be084be1,
hardware store,Toko Bahan Bangunan,Swalayan Rama Koppas Srinadi,"FC43+VVV, Jl. Rama, Semarapura Kangin, Kec. Klungkung, Kabupaten Klungkung, Bali 80761","Jl. Rama, Semarapura Kangin, Kec. Klungkung, Kabupaten Klungkung",BALI,80761.0,Indonesia,36622660.0,,,-85.427.566,1.154.046.757,https://maps.google.com/?cid=0x0:0x5cd9787f73d323c1,
hardware store,Dealer Sepeda Motor,Yamaha Waja Motor Klungkung,"Jl. Rama, Semarapura Kelod Kangin, Kec. Dawan, Kabupaten Klungkung, Bali 80761","Semarapura Kelod Kangin, Kec. Dawan, Kabupaten Klungkung",BALI,80761.0,Indonesia,36625999.0,,,-85.426.908,1.154.036.837,https://maps.google.com/?cid=0x0:0x726781139a727849,
hardware store,Grosir,Toko Cakrawala,"Jl. Arjuna- Pasar Klungkung Blok D No. 8, Semarapura Kangin, Kec. Klungkung, Kabupaten Klungkung, Bali 80711","Semarapura Kangin, Kec. Klungkung, Kabupaten Klungkung",BALI,80711.0,Indonesia,87760353695.0,,,-85.375.516,1.154.048.288,https://maps.google.com/?cid=0x0:0xe129ae34de978a82,
hardware store,Kedai Pernak-pernik,KADEK VARIASI,"Jl. Jempiring No.15, Semarapura Kelod, Kec. Klungkung, Kabupaten Klungkung, Bali 80711","Semarapura Kelod, Kec. Klungkung, Kabupaten Klungkung",BALI,80711.0,Indonesia,82297950064.0,,,-85.390.415,1.153.997.923,https://maps.google.com/?cid=0x0:0x8abdd761e2551caa,
hardware store,Toko,Toko Arta Jaya,"FC64+869, Jl. Kresna, Semarapura Kangin, Kec. Klungkung, Kabupaten Klungkung, Bali 80761","Jl. Kresna, Semarapura Kangin, Kec. Klungkung, Kabupaten Klungkung",BALI,80761.0,Indonesia,81353128086.0,,,-85.392.025,1.154.055.973,https://maps.google.com/?cid=0x0:0xd429762f3b920728,
hardware store,Toko Buku,Toko SARASWATI MART “ATK”,"Jl. Kecubung, Semarapura Kelod, Kec. Klungkung, Kabupaten Klungkung, Bali 80716","Semarapura Kelod, Kec. Klungkung, Kabupaten Klungkung",BALI,80716.0,Indonesia,81337489043.0,,,-85.413.685,1.153.958.719,https://maps.google.com/?cid=0x0:0xeac8249d1d01b1f,
hardware store,Toko Percetakan,Trisila Darma,"FC82+QXC, Jl. Pattimura, Semarapura Tengah, Kec. Klungkung, Kabupaten Klungkung, Bali 80716","Jl. Pattimura, Semarapura Tengah, Kec. Klungkung, Kabupaten Klungkung",BALI,80716.0,Indonesia,82144024800.0,,,-85.330.631,1.154.023.884,https://maps.google.com/?cid=0x0:0xd8afed95fce148ef,
hardware store,Dealer Honda,Dealer Honda - Karisma Motor,"Jl. Untung Suropati No.15A, Semarapura Tengah, Kec. Klungkung, Kabupaten Klungkung, Bali 80711","Semarapura Tengah, Kec. Klungkung, Kabupaten Klungkung",BALI,80711.0,Indonesia,36625111.0,,,-85.349.943,1.154.005.379,https://maps.google.com/?cid=0x0:0xe9814f501a8ea80a,
hardware store,Toko Fotokopi,JAYA PRINTING ( JP ),"CCX3+P2W, Tojan, Kec. Klungkung, Kabupaten Klungkung, Bali 80716","Tojan, Kec. Klungkung, Kabupaten Klungkung",BALI,80716.0,Indonesia,,,,-85.506.262,1.154.025.894,https://maps.google.com/?cid=0x0:0x89ac653a43beecea,
hardware store,hardware store,Bali 80712,"Kec. Klungkung, Kabupaten Klungkung, Bali","Kabupaten Klungkung, Bali",BALI,,Indonesia,,,,-85.253.594,1.153.919.027,https://maps.google.com/?cid=0x0:0x1c00c5eb6016bfa0,
hardware store,Toko Bahan Bangunan,UD Karya Bangunan,"Jl. Ngurah Rai No.88 A, Semarapura Tengah, Kec. Klungkung, Kabupaten Klungkung, Bali 80711","Semarapura Tengah, Kec. Klungkung, Kabupaten Klungkung",BALI,80711.0,Indonesia,81338141935.0,,,-85.294.348,1.153.984.585,https://maps.google.com/?cid=0x0:0x8915cfcafeed36b9,
hardware store,Distributor Baja,TOKO BALI KLUNGKUNG,"Jl. Nakula, Semarapura Kangin, Kec. Klungkung, Kabupaten Klungkung, Bali 80716","Semarapura Kangin, Kec. Klungkung, Kabupaten Klungkung",BALI,80716.0,Indonesia,81236563756.0,,,-85.366.122,1.154.055.096,https://maps.google.com/?cid=0x0:0x73f0375dab3d9652,
hardware store,Toko Perlengkapan Rumah,MR.DIY,"Jl. Anyelir No.5, Semarapura Kelod, Kec. Klungkung, Kabupaten Klungkung, Bali 80716","Semarapura Kelod, Kec. Klungkung, Kabupaten Klungkung",BALI,80716.0,Indonesia,,,,-8.544.171,1.154.024.988,https://maps.google.com/?cid=0x0:0x963d21fe9b02c527,
hardware store,Toko Pakaian,ARJ88 store klungkung,"F98X+H2F, Jl. Ngurah Rai, Semarapura Kauh, Kec. Klungkung, Kabupaten Klungkung, Bali 80716","Jl. Ngurah Rai, Semarapura Kauh, Kec. Klungkung, Kabupaten Klungkung",BALI,80716.0,Indonesia,,,,-8.533.557,115.397.545,https://maps.google.com/?cid=0x0:0x5a7ee9d55119682e,
hardware store,Toko Bahan Bangunan,Toko Gunaksa,"Jl. Diponegoro No.89, Semarapura Kelod Kangin, Kec. Klungkung, Kabupaten Klungkung, Bali 80715","Semarapura Kelod Kangin, Kec. Klungkung, Kabupaten Klungkung",BALI,80715.0,Indonesia,36621063.0,,,-85.355.996,1.154.058.149,https://maps.google.com/?cid=0x0:0xe937c0108af523c0,
hardware store,Toko Kosmetik,Dewa Ayu Shop Klungkung,"Jl. Untung Suropati No.45, Semarapura Tengah, Kec. Klungkung, Kabupaten Klungkung, Bali 80761","Semarapura Tengah, Kec. Klungkung, Kabupaten Klungkung",BALI,80761.0,Indonesia,85935049741.0,,,-85.346.406,1.153.990.262,https://maps.google.com/?cid=0x0:0x5da955d7be084be1,
hardware store,Grosir,Toko Cakrawala,"Jl. Arjuna- Pasar Klungkung Blok D No. 8, Semarapura Kangin, Kec. Klungkung, Kabupaten Klungkung, Bali 80711","Semarapura Kangin, Kec. Klungkung, Kabupaten Klungkung",BALI,80711.0,Indonesia,87760353695.0,,,-85.375.516,1.154.048.288,https://maps.google.com/?cid=0x0:0xe129ae34de978a82,
hardware store,Toko,Toko Arta Jaya,"FC64+869, Jl. Kresna, Semarapura Kangin, Kec. Klungkung, Kabupaten Klungkung, Bali 80761","Jl. Kresna, Semarapura Kangin, Kec. Klungkung, Kabupaten Klungkung",BALI,80761.0,Indonesia,81353128086.0,,,-85.392.025,1.154.055.973,https://maps.google.com/?cid=0x0:0xd429762f3b920728,
hardware store,Toko Fotokopi,UD. BIJA (Besang Indah Jaya),"Jl. Dewi Sartika No.2, Semarapura Kaja, Kec. Klungkung, Kabupaten Klungkung, Bali 80711","Semarapura Kaja, Kec. Klungkung, Kabupaten Klungkung",BALI,80711.0,Indonesia,81917612071.0,,,-85.268.388,1.153.997.262,https://maps.google.com/?cid=0x0:0xd60b03127fb7ad84,
hardware store,hardware store,Bali 80713,"Tihingan, Kec. Banjarangkan, Kabupaten Klungkung, Bali","Kabupaten Klungkung, Bali",BALI,,Indonesia,,,,-8.533.129,1.153.889.403,https://maps.google.com/?cid=0x0:0x1c00c5eb6016bfb0,
hardware store,Toko Bahan Bangunan,UD Karya Bangunan,"Jl. Ngurah Rai No.88 A, Semarapura Tengah, Kec. Klungkung, Kabupaten Klungkung, Bali 80711","Semarapura Tengah, Kec. Klungkung, Kabupaten Klungkung",BALI,80711.0,Indonesia,81338141935.0,,,-85.294.348,1.153.984.585,https://maps.google.com/?cid=0x0:0x8915cfcafeed36b9,
hardware store,Distributor Baja,TOKO BALI KLUNGKUNG,"Jl. Nakula, Semarapura Kangin, Kec. Klungkung, Kabupaten Klungkung, Bali 80716","Semarapura Kangin, Kec. Klungkung, Kabupaten Klungkung",BALI,80716.0,Indonesia,81236563756.0,,,-85.366.122,1.154.055.096,https://maps.google.com/?cid=0x0:0x73f0375dab3d9652,
hardware store,Toko Bahan Bangunan,Toko Gunaksa,"Jl. Diponegoro No.89, Semarapura Kelod Kangin, Kec. Klungkung, Kabupaten Klungkung, Bali 80715","Semarapura Kelod Kangin, Kec. Klungkung, Kabupaten Klungkung",BALI,80715.0,Indonesia,36621063.0,,,-85.355.996,1.154.058.149,https://maps.google.com/?cid=0x0:0xe937c0108af523c0,
hardware store,Toko Bahan Bangunan,TB. Eka Karya,"Jl. Raya Besakih No.351, Akah, Kec. Klungkung, Kabupaten Klungkung, Bali 80711","Akah, Kec. Klungkung, Kabupaten Klungkung",BALI,80711.0,Indonesia,859106649010.0,,,-85.228.093,1.154.020.412,https://maps.google.com/?cid=0x0:0xd8bcb360522e84fb,
hardware store,Toko Perlengkapan Rumah,MR.DIY,"Jl. Anyelir No.5, Semarapura Kelod, Kec. Klungkung, Kabupaten Klungkung, Bali 80716","Semarapura Kelod, Kec. Klungkung, Kabupaten Klungkung",BALI,80716.0,Indonesia,,,,-8.544.171,1.154.024.988,https://maps.google.com/?cid=0x0:0x963d21fe9b02c527,
hardware store,hardware store,Semarapura,"Kec. Klungkung, Kabupaten Klungkung, Bali","Kabupaten Klungkung, Bali",BALI,,Indonesia,,,,-85.388.252,115.402.367,https://maps.google.com/?cid=0x0:0x4030bfbca7d2ed0,
hardware store,Toko Bahan Bangunan,UD Karya Bangunan,"Jl. Ngurah Rai No.88 A, Semarapura Tengah, Kec. Klungkung, Kabupaten Klungkung, Bali 80711","Semarapura Tengah, Kec. Klungkung, Kabupaten Klungkung",BALI,80711.0,Indonesia,81338141935.0,,,-85.294.348,1.153.984.585,https://maps.google.com/?cid=0x0:0x8915cfcafeed36b9,
hardware store,Distributor Baja,TOKO BALI KLUNGKUNG,"Jl. Nakula, Semarapura Kangin, Kec. Klungkung, Kabupaten Klungkung, Bali 80716","Semarapura Kangin, Kec. Klungkung, Kabupaten Klungkung",BALI,80716.0,Indonesia,81236563756.0,,,-85.366.122,1.154.055.096,https://maps.google.com/?cid=0x0:0x73f0375dab3d9652,
hardware store,Toko Bahan Bangunan,UD. Bangunan Dua,"Jl. Darmawangsa No.35, Semarapura Kangin, Kec. Klungkung, Kabupaten Klungkung, Bali 80716","Semarapura Kangin, Kec. Klungkung, Kabupaten Klungkung",BALI,80716.0,Indonesia,36621025.0,,,-85.370.242,1.154.058.972,https://maps.google.com/?cid=0x0:0x8264931f5cbd1b64,
hardware store,Toko Bahan Bangunan,Toko Bangunan Surya,"Jl. Puputan No.69, Semarapura Kangin, Kec. Klungkung, Kabupaten Klungkung, Bali 80761","Semarapura Kangin, Kec. Klungkung, Kabupaten Klungkung",BALI,80761.0,Indonesia,36621322.0,,,-85.422.503,1.154.025.558,https://maps.google.com/?cid=0x0:0xafbfaa25f3136420,
hardware store,Toko Perlengkapan Rumah,MR.DIY,"Jl. Anyelir No.5, Semarapura Kelod, Kec. Klungkung, Kabupaten Klungkung, Bali 80716","Semarapura Kelod, Kec. Klungkung, Kabupaten Klungkung",BALI,80716.0,Indonesia,,,,-8.544.171,1.154.024.988,https://maps.google.com/?cid=0x0:0x963d21fe9b02c527,
hardware store,Pemasok Peralatan Konstruksi,TOKO BALI KLUNGKUNG ( Toko Besi di Klungkung ),"Jl. Puputan, Semarapura Kangin, Kec. Klungkung, Kabupaten Klungkung, Bali 80761","Semarapura Kangin, Kec. Klungkung, Kabupaten Klungkung",BALI,80761.0,Indonesia,81236563756.0,,,-85.450.333,1.154.027.932,https://maps.google.com/?cid=0x0:0x231c151326861cc2,
hardware store,Toko Bahan Bangunan,TB. Eka Karya,"Jl. Raya Besakih No.351, Akah, Kec. Klungkung, Kabupaten Klungkung, Bali 80711","Akah, Kec. Klungkung, Kabupaten Klungkung",BALI,80711.0,Indonesia,859106649010.0,,,-85.228.093,1.154.020.412,https://maps.google.com/?cid=0x0:0xd8bcb360522e84fb,
hardware store,Toko Bahan Bangunan,Toko Gunaksa,"Jl. Diponegoro No.89, Semarapura Kelod Kangin, Kec. Klungkung, Kabupaten Klungkung, Bali 80715","Semarapura Kelod Kangin, Kec. Klungkung, Kabupaten Klungkung",BALI,80715.0,Indonesia,36621063.0,,,-85.355.996,1.154.058.149,https://maps.google.com/?cid=0x0:0xe937c0108af523c0,
hardware store,Toko Kerajinan Tangan,Sari Agung Ukir,"Jl. Puputan No.69, Semarapura Kangin, Kec. Klungkung, Kabupaten Klungkung, Bali 80761","Semarapura Kangin, Kec. Klungkung, Kabupaten Klungkung",BALI,80761.0,Indonesia,87860747229.0,,,-85.423.368,1.154.027.252,https://maps.google.com/?cid=0x0:0xf8950a86386bb37b,
hardware store,Toko Bahan Bangunan,Arsa Nadi,"Jl. Raya Gunaksa No.26-28, Gunaksa, Kec. Dawan, Kabupaten Klungkung, Bali 80761","Gunaksa, Kec. Dawan, Kabupaten Klungkung",BALI,80761.0,Indonesia,87861924714.0,,,-85.406.654,1.154.252.769,https://maps.google.com/?cid=0x0:0x1d2a6ed7d2042201,
hardware store,Toko Bahan Bangunan,Sari permata,"Banjar dukuh, Gelgel, Kec. Klungkung, Kabupaten Klungkung, Bali 80751","Gelgel, Kec. Klungkung, Kabupaten Klungkung",BALI,80751.0,Indonesia,81999346016.0,,,-85.620.246,1.154.213.483,https://maps.google.com/?cid=0x0:0xe94b2b4ee05877f3,
hardware store,Toko Bahan Bangunan,Jagra Winangun,"Jl. Raya Takmung, Satra, Kec. Klungkung, Kabupaten Klungkung, Bali 80716","Satra, Kec. Klungkung, Kabupaten Klungkung",BALI,80716.0,Indonesia,8124647663.0,,,-85.534.306,1.153.964.293,https://maps.google.com/?cid=0x0:0x294dd527d61e862f,
hardware store,Toko Kosmetik,Dewa Ayu Shop Klungkung,"Jl. Untung Suropati No.45, Semarapura Tengah, Kec. Klungkung, Kabupaten Klungkung, Bali 80761","Semarapura Tengah, Kec. Klungkung, Kabupaten Klungkung",BALI,80761.0,Indonesia,85935049741.0,,,-85.346.406,1.153.990.262,https://maps.google.com/?cid=0x0:0x5da955d7be084be1,
hardware store,Toko Bahan Bangunan,Swalayan Rama Koppas Srinadi,"FC43+VVV, Jl. Rama, Semarapura Kangin, Kec. Klungkung, Kabupaten Klungkung, Bali 80761","Jl. Rama, Semarapura Kangin, Kec. Klungkung, Kabupaten Klungkung",BALI,80761.0,Indonesia,36622660.0,,,-85.427.566,1.154.046.757,https://maps.google.com/?cid=0x0:0x5cd9787f73d323c1,
hardware store,Toko Bahan Bangunan,UD. Beton Indah,"Jl. Rama No.8, Kamasan, Kec. Klungkung, Kabupaten Klungkung, Bali 80761","Kamasan, Kec. Klungkung, Kabupaten Klungkung",BALI,80761.0,Indonesia,36624075.0,,,-8.542.711,1.154.086.191,https://maps.google.com/?cid=0x0:0xda12a7ca4b79b10b,
hardware store,Dealer Sepeda Motor,Yamaha Waja Motor Klungkung,"Jl. Rama, Semarapura Kelod Kangin, Kec. Dawan, Kabupaten Klungkung, Bali 80761","Semarapura Kelod Kangin, Kec. Dawan, Kabupaten Klungkung",BALI,80761.0,Indonesia,36625999.0,,,-85.426.908,1.154.036.837,https://maps.google.com/?cid=0x0:0x726781139a727849,
hardware store,Grosir,Toko Cakrawala,"Jl. Arjuna- Pasar Klungkung Blok D No. 8, Semarapura Kangin, Kec. Klungkung, Kabupaten Klungkung, Bali 80711","Semarapura Kangin, Kec. Klungkung, Kabupaten Klungkung",BALI,80711.0,Indonesia,87760353695.0,,,-85.375.516,1.154.048.288,https://maps.google.com/?cid=0x0:0xe129ae34de978a82,
hardware store,Toko Buku,Toko SARASWATI MART “ATK”,"Jl. Kecubung, Semarapura Kelod, Kec. Klungkung, Kabupaten Klungkung, Bali 80716","Semarapura Kelod, Kec. Klungkung, Kabupaten Klungkung",BALI,80716.0,Indonesia,81337489043.0,,,-85.413.685,1.153.958.719,https://maps.google.com/?cid=0x0:0xeac8249d1d01b1f,
hardware store,Toko Percetakan,Trisila Darma,"FC82+QXC, Jl. Pattimura, Semarapura Tengah, Kec. Klungkung, Kabupaten Klungkung, Bali 80716","Jl. Pattimura, Semarapura Tengah, Kec. Klungkung, Kabupaten Klungkung",BALI,80716.0,Indonesia,82144024800.0,,,-85.330.631,1.154.023.884,https://maps.google.com/?cid=0x0:0xd8afed95fce148ef,
hardware store,Toko Sepatu,HOME STORE SEVENDEWATA FOOTWEAR,"FC92+F9P, Semarapura Tengah, Kec. Klungkung, Kabupaten Klungkung, Bali 80711","Semarapura Tengah, Kec. Klungkung, Kabupaten Klungkung",BALI,80711.0,Indonesia,85311676719.0,,,-85.312.845,1.154.009.576,https://maps.google.com/?cid=0x0:0xda927fc51bb502ee,
hardware store,Toko,Toko Arta Jaya,"FC64+869, Jl. Kresna, Semarapura Kangin, Kec. Klungkung, Kabupaten Klungkung, Bali 80761","Jl. Kresna, Semarapura Kangin, Kec. Klungkung, Kabupaten Klungkung",BALI,80761.0,Indonesia,81353128086.0,,,-85.392.025,1.154.055.973,https://maps.google.com/?cid=0x0:0xd429762f3b920728,
hardware store,Toko Pakaian,ARJ88 store klungkung,"F98X+H2F, Jl. Ngurah Rai, Semarapura Kauh, Kec. Klungkung, Kabupaten Klungkung, Bali 80716","Jl. Ngurah Rai, Semarapura Kauh, Kec. Klungkung, Kabupaten Klungkung",BALI,80716.0,Indonesia,,,,-8.533.557,115.397.545,https://maps.google.com/?cid=0x0:0x5a7ee9d55119682e,
hardware store,Pusat Perbelanjaan,De koi shop klungkung,"FC52+VCX, Jl. Plawa, Semarapura Kelod, Kec. Klungkung, Kabupaten Klungkung, Bali 80711","Jl. Plawa, Semarapura Kelod, Kec. Klungkung, Kabupaten Klungkung",BALI,80711.0,Indonesia,82247835166.0,,,-85.402.666,1.154.011.108,https://maps.google.com/?cid=0x0:0x2a950cf1ae6b65d,
hardware store,hardware store,Bali 80771,"Kec. Nusa Penida, Kabupaten Klungkung, Bali","Kabupaten Klungkung, Bali",BALI,,Indonesia,,,,-8.727.807,1.155.444.231,https://maps.google.com/?cid=0x0:0x1c00c5eb6016c020,
hardware store,Toko Bahan Bangunan,Toko Fajar Baru,"8GFV+HFV, Jl. Ped-Buyuk, Kutampi Kaler, Kec. Nusa Penida, Kabupaten Klungkung, Bali 80771","Jl. Ped-Buyuk, Kutampi Kaler, Kec. Nusa Penida, Kabupaten Klungkung",BALI,80771.0,Indonesia,82144127778.0,,,-86.760.146,1.155.436.715,https://maps.google.com/?cid=0x0:0xb5bebd476a965034,
hardware store,Toko Bahan Bangunan,UD. LANCAR JAYA BANGUNAN,"8G8R+GRW, Kutampi Kaler, Kec. Nusa Penida, Kabupaten Klungkung, Bali 80771","Kutampi Kaler, Kec. Nusa Penida, Kabupaten Klungkung",BALI,80771.0,Indonesia,8179769711.0,,,-86.836.461,1.155.420.648,https://maps.google.com/?cid=0x0:0xb14284980835471f,
hardware store,Toko Bahan Bangunan,"Toko Material  WAHYU 2 """"","8HCC+XMC, Batununggul, Kec. Nusa Penida, Kabupaten Klungkung, Bali 80771","Batununggul, Kec. Nusa Penida, Kabupaten Klungkung",BALI,80771.0,Indonesia,81999277424.0,,,-8.677.555,115.571.655,https://maps.google.com/?cid=0x0:0x81889968cfd8ab48,
hardware store,Toko Bahan Bangunan,Sms toko bangunan,"8C6R+WQC, Jungutbatu, Kec. Nusa Penida, Kabupaten Klungkung, Bali 80771","Jungutbatu, Kec. Nusa Penida, Kabupaten Klungkung",BALI,80771.0,Indonesia,2150867746.0,,,-86.876.781,115.441.892,https://maps.google.com/?cid=0x0:0xa734bcb1ffab0b7f,
hardware store,Toko Bahan Bangunan,Toko Bangunan SMS,"8F52+VR4, Jalan Raya, Lembongan, Nusa Penida, Klungkung Regency, Bali 80771","Jalan Raya, Lembongan, Nusa Penida, Klungkung Regency",BALI,80771.0,Indonesia,81228652962.0,,,-86.903.669,1.154.520.707,https://maps.google.com/?cid=0x0:0xfe2bbabd134cfc6a,
hardware store,Minimarket,KARTIKA PUJA,"8HG4+M73, Batununggul, Kec. Nusa Penida, Kabupaten Klungkung, Bali 80771","Batununggul, Kec. Nusa Penida, Kabupaten Klungkung",BALI,80771.0,Indonesia,,,,-86.733.593,1.155.556.775,https://maps.google.com/?cid=0x0:0x9ffa9b8c928af196,
hardware store,Dealer Sepeda Motor,WAJA MOTOR NUSA PENIDA,"Jl. Nusa Indah No.53, Kutampi Kaler, Kec. Nusa Penida, Kabupaten Klungkung, Bali 80771","Kutampi Kaler, Kec. Nusa Penida, Kabupaten Klungkung",BALI,80771.0,Indonesia,87760335471.0,,,-86.743.569,1.155.609.517,https://maps.google.com/?cid=0x0:0x4aff2fa2fde919c8,
hardware store,Grosir buku,Sekar Jepun Toko ATK and Toys,"Br. Geria tengah kec, Batununggul, Kec. Nusa Penida, Kabupaten Klungkung, Bali 80771","Batununggul, Kec. Nusa Penida, Kabupaten Klungkung",BALI,80771.0,Indonesia,81338513038.0,,,-86.743.107,1.155.614.935,https://maps.google.com/?cid=0x0:0x80cae41b9da55f0e,
hardware store,Bengkel Sepeda Motor,Bike Shop (ANGEL MOTOR),"7F7V+Q4G, Bunga Mekar, Kec. Nusa Penida, Kabupaten Klungkung, Bali 80771","Bunga Mekar, Kec. Nusa Penida, Kabupaten Klungkung",BALI,80771.0,Indonesia,82339393761.0,,,-87.355.601,115.492.839,https://maps.google.com/?cid=0x0:0x8e841dc3e9caa7d2,
hardware store,Toko bahan makanan,Toko Kayun,"8FCQ+9XX, Ped, Kec. Nusa Penida, Kabupaten Klungkung, Bali 80771","Ped, Kec. Nusa Penida, Kabupaten Klungkung",BALI,80771.0,Indonesia,87764288192.0,,,-86.789.838,1.154.900.407,https://maps.google.com/?cid=0x0:0x2ac6e77764f995a2,
hardware store,Toko bahan makanan,Sanghyangbay mart,"8C8M+V9H Nusa Lembongan, Jungutbatu, Kec. Nusa Penida, Kabupaten Klungkung, Bali 80771","Jungutbatu, Kec. Nusa Penida, Kabupaten Klungkung",BALI,80771.0,Indonesia,,,,-86.828.003,1.154.334.921,https://maps.google.com/?cid=0x0:0x1debc0b70b8f7fce,
hardware store,Pasar,Toyapakeh traditional market,"8F9Q+489, Kp. Toyapakeh, Kec. Nusa Penida, Kabupaten Klungkung, Bali 80771","Kp. Toyapakeh, Kec. Nusa Penida, Kabupaten Klungkung",BALI,80771.0,Indonesia,,,,-86.822.157,1.154.883.624,https://maps.google.com/?cid=0x0:0x4e2e1847b9d2597a,
hardware store,hardware store,Nusa Penida,"Kec. Nusa Penida, Kabupaten Klungkung, Bali","Kabupaten Klungkung, Bali",BALI,,Indonesia,,,,-8.727.807,1.155.444.231,https://maps.google.com/?cid=0x0:0x5c3a3706b2197b7b,
toko bangunan,toko bangunan,Bali 80752,"Kec. Banjarangkan, Kabupaten Klungkung, Bali","Kabupaten Klungkung, Bali",BALI,,Indonesia,,,,-8.512.833,1.153.726.469,https://maps.google.com/?cid=0x0:0x1c00c5eb6016c000,
toko bangunan,Toko Bahan Bangunan,Budi Bangunan Banjarangkan,"C9MF+59P, Jl. Tegal Besar, Negari, Kec. Banjarangkan, Kabupaten Klungkung, Bali 80752","Jl. Tegal Besar, Negari, Kec. Banjarangkan, Kabupaten Klungkung",BALI,80752.0,Indonesia,82146583909.0,,,-85.670.401,1.153.734.596,https://maps.google.com/?cid=0x0:0xee6b1a2925e99553,
toko bangunan,Toko Bahan Bangunan,Tb. Sinar Dewata,"C9XG+MQR, Jalan Raya Kauripan, Banjarangkan, Kec. Banjarangkan, Kabupaten Klungkung, Bali 80752","Jalan Raya Kauripan, Banjarangkan, Kec. Banjarangkan, Kabupaten Klungkung",BALI,80752.0,Indonesia,36622560.0,,,-855.077,1.153.768.812,https://maps.google.com/?cid=0x0:0x43c48051c99da052,
toko bangunan,Toko Bahan Bangunan,UD Aryadana,"Jl. Raya Banjarangkan No.8, Banjarangkan, Kec. Banjarangkan, Kabupaten Klungkung, Bali 80752","Banjarangkan, Kec. Banjarangkan, Kabupaten Klungkung",BALI,80752.0,Indonesia,85769908768.0,,,-85.508.243,1.153.788.033,https://maps.google.com/?cid=0x0:0x862c2502802dbafc,
toko bangunan,Toko Bahan Bangunan,UD ASRI,"Tihingan, Kec. Banjarangkan, Kabupaten Klungkung, Bali 80752","Kec. Banjarangkan, Kabupaten Klungkung",BALI,80752.0,Indonesia,81936037621.0,,,-85.381.701,1.153.831.296,https://maps.google.com/?cid=0x0:0xd64239b648e68340,
toko bangunan,Toko Bahan Bangunan,Ud Jaya Pratama - Lepang,"jln. Bypass, Jl. Prof. Dr. Ida Bagus Mantra No.Lepang, Takmung, Kec. Banjarangkan, Kabupaten Klungkung, Bali 80716","Jl. Prof. Dr. Ida Bagus Mantra No.Lepang, Takmung, Kec. Banjarangkan, Kabupaten Klungkung",BALI,80716.0,Indonesia,36622982.0,,,-85.682.952,1.153.839.946,https://maps.google.com/?cid=0x0:0xe4353caca82d85a9,
toko bangunan,Toko Bahan Bangunan,Bagus Jaya Bangunan,"Jln Raya, Br Beneng, Getakan, Kec. Banjarangkan, Kabupaten Klungkung, Bali","Kabupaten Klungkung, Bali",BALI,,Indonesia,,,,-85.274.228,1.153.774.388,https://maps.google.com/?cid=0x0:0xfddfa221b1f79e88,
toko bangunan,Toko Perlengkapan Rumah,Toko Seni Ukir,"G968+CV9, Jalan Raya, Bungbungan, Banjarangkan, Klungkung Regency, Bali 80752","Jalan Raya, Bungbungan, Banjarangkan, Klungkung Regency",BALI,80752.0,Indonesia,8123997619.0,,,-84.889.523,1.153.672.297,https://maps.google.com/?cid=0x0:0xec85f8d670b31ff7,
toko bangunan,Toko Perlengkapan Rumah,Toko Cahaya Mulia,"F928+7VJ, Jl. Raya Tusan, Tusan, Kec. Banjarangkan, Kabupaten Klungkung, Bali 80752","Jl. Raya Tusan, Tusan, Kec. Banjarangkan, Kabupaten Klungkung",BALI,80752.0,Indonesia,36624165.0,,,-85.492.876,1.153.671.326,https://maps.google.com/?cid=0x0:0xc73d9892cb10ac59,
toko bangunan,Toko Bahan Bangunan,TB. Cahaya Batu,"F94V+X64, Jl. Raya Batu Tabih, Takmung, Kec. Banjarangkan, Kabupaten Klungkung, Bali 80716","Jl. Raya Batu Tabih, Takmung, Kec. Banjarangkan, Kabupaten Klungkung",BALI,80716.0,Indonesia,85333074570.0,,,-85.426.146,1.153.930.782,https://maps.google.com/?cid=0x0:0x412c2fe1fc507d49,
toko bangunan,Toko,UD. KETUT ASTITI,"G9PM+92R, Jl. Uluwatu, Tohpati, Kec. Banjarangkan, Kabupaten Klungkung, Bali 80752","Jl. Uluwatu, Tohpati, Kec. Banjarangkan, Kabupaten Klungkung",BALI,80752.0,Indonesia,82146431071.0,,,-84.640.155,1.153.825.037,https://maps.google.com/?cid=0x0:0x693a0706efe37c46,
toko bangunan,Toko Bahan Bangunan,Sarin Bali Pelinggih Batu Tabas Klungkung,"C9JG+J5X, Jl. Prof. Dr. Ida Bagus Mantra, Negari, Kec. Banjarangkan, Kabupaten Klungkung, Bali","Kabupaten Klungkung, Bali",BALI,,Indonesia,85237969565.0,,,-85.683.887,1.153.754.816,https://maps.google.com/?cid=0x0:0x9171f31cb3b32186,
toko bangunan,Toko Bahan Bangunan,TB Sekar Sari,"C9WQ+WVF, Jl. Raya Takmung, Takmung, Kec. Banjarangkan, Kabupaten Klungkung, Bali 80716","Jl. Raya Takmung, Takmung, Kec. Banjarangkan, Kabupaten Klungkung",BALI,80716.0,Indonesia,36623962.0,,,-85.526.825,1.153.896.579,https://maps.google.com/?cid=0x0:0x835b189248ccecd7,
toko bangunan,Toko Bahan Bangunan,Taro Anugrah,"C9XH+J8W, Jalan Raya, Banjarangkan, Klungkung Regency, Bali 80752","Jalan Raya, Banjarangkan, Klungkung Regency",BALI,80752.0,Indonesia,81338728983.0,,,-85.508.967,1.153.783.375,https://maps.google.com/?cid=0x0:0xbc1501874aba4355,
toko bangunan,Toko Bahan Bangunan,Toko puspa sari,"G99M+Q9M, Jl. Raya Timuhun, Timuhun, Kec. Banjarangkan, Kabupaten Klungkung, Bali 80752","Jl. Raya Timuhun, Timuhun, Kec. Banjarangkan, Kabupaten Klungkung",BALI,80752.0,Indonesia,,,,-84.805.355,1.153.834.113,https://maps.google.com/?cid=0x0:0x1cd47225b050467c,
toko bangunan,Toko,Batu Sikat,"F97M+C43, Jl. Raya Banda, Tihingan, Kec. Banjarangkan, Kabupaten Klungkung, Bali 80752","Jl. Raya Banda, Tihingan, Kec. Banjarangkan, Kabupaten Klungkung",BALI,80752.0,Indonesia,81558769560.0,,,-85.364.776,1.153.827.819,https://maps.google.com/?cid=0x0:0x91153bd9afefbc32,
toko bangunan,Toko,TOKO KADEK,"F9XG+57J, Jl. Raya Aan, Banjarangkan, Kec. Banjarangkan, Kabupaten Klungkung, Bali 80572","Jl. Raya Aan, Banjarangkan, Kec. Banjarangkan, Kabupaten Klungkung",BALI,80572.0,Indonesia,81999358458.0,,,-85.020.328,1.153.756.407,https://maps.google.com/?cid=0x0:0xa261f14cc9802494,
toko bangunan,Toko Bahan Bangunan,Penek Merta,"Jl. Raya Tusan, Banjarangkan, Kec. Banjarangkan, Kabupaten Klungkung, Bali 80752","Banjarangkan, Kec. Banjarangkan, Kabupaten Klungkung",BALI,80752.0,Indonesia,81999066805.0,,,-8.548.101,1.153.673.657,https://maps.google.com/?cid=0x0:0x7a578e5b161918f8,
toko bangunan,Toko Bahan Bangunan,TB.Sinar Batu,"Jl. Sm Agung No.Raya, Tusan, Kec. Banjarangkan, Kabupaten Klungkung, Bali 80752","Tusan, Kec. Banjarangkan, Kabupaten Klungkung",BALI,80752.0,Indonesia,36625388.0,,,-85.443.063,1.153.684.992,https://maps.google.com/?cid=0x0:0x5a6559c5dbdc2b6e,
toko bangunan,Toko Bahan Bangunan,Taro Abadi,"C9XG+P58, Jalan Raya, Tusan, Banjarangkan, Klungkung Regency, Bali 80752","Jalan Raya, Tusan, Banjarangkan, Klungkung Regency",BALI,80752.0,Indonesia,81337576029.0,,,-85.507.177,1.153.754.614,https://maps.google.com/?cid=0x0:0x3cc80eee93c9ea80,
toko bangunan,Pemasok Bahan Bangunan,UD. SINAR BUANA,"Jl. Sidayu Tojan, Takmung, Kec. Banjarangkan, Kabupaten Klungkung, Bali 80752","Takmung, Kec. Banjarangkan, Kabupaten Klungkung",BALI,80752.0,Indonesia,87762955574.0,,,-85.710.556,1.153.899.998,https://maps.google.com/?cid=0x0:0x666f68310a02b30,
toko bangunan,Toko Kayu,UD SUMBER REJEKI,"C9XH+P98, Jalan Raya, Banjarangkan, Klungkung Regency, Bali 80752","Jalan Raya, Banjarangkan, Klungkung Regency",BALI,80752.0,Indonesia,82131266678.0,,,-8.550.702,115.378.458,https://maps.google.com/?cid=0x0:0x36144f83064f589b,
toko bangunan,toko bangunan,Bali 80761,"Kec. Dawan, Kabupaten Klungkung, Bali","Kabupaten Klungkung, Bali",BALI,,Indonesia,,,,-85.234.217,1.154.378.152,https://maps.google.com/?cid=0x0:0x1c00c5eb6016c010,
toko bangunan,Toko Bahan Bangunan,"Toko Bangunan KERTA JAYA, Dawan Klungkung","Jl. Subak Sedahan Ayung, Gunaksa, Dawan, Klungkung Regency, Bali 80761","Gunaksa, Dawan, Klungkung Regency",BALI,80761.0,Indonesia,85738960650.0,,,-85.521.736,11.544.849,https://maps.google.com/?cid=0x0:0x60ef2d8105f8abee,
toko bangunan,Toko Bahan Bangunan,TB. Adi Utama,"FC4R+RW2, Jl. Sawo Kabeh, Dawan Kaler, Kec. Dawan, Kabupaten Klungkung, Bali 80761","Jl. Sawo Kabeh, Dawan Kaler, Kec. Dawan, Kabupaten Klungkung",BALI,80761.0,Indonesia,81916252389.0,,,-8.542.976,1.154.422.653,https://maps.google.com/?cid=0x0:0x2d9fa44315905060,
toko bangunan,Toko Bahan Bangunan,TB. Darma,"FC6V+R7Q, Jl. Sawo Kabeh, Dawan Kaler, Kec. Dawan, Kabupaten Klungkung, Bali 80761","Jl. Sawo Kabeh, Dawan Kaler, Kec. Dawan, Kabupaten Klungkung",BALI,80761.0,Indonesia,87860486598.0,,,-85.379.088,1.154.432.332,https://maps.google.com/?cid=0x0:0xa4ec9e82f1e4a029,
toko bangunan,Toko Bahan Bangunan,Toko Bangunan Surya,"Jl. Puputan No.69, Semarapura Kangin, Kec. Klungkung, Kabupaten Klungkung, Bali 80761","Semarapura Kangin, Kec. Klungkung, Kabupaten Klungkung",BALI,80761.0,Indonesia,36621322.0,,,-85.422.503,1.154.025.558,https://maps.google.com/?cid=0x0:0xafbfaa25f3136420,
toko bangunan,Toko Bahan Bangunan,Istana Bangunan,"Jl. Diponegoro No.72, Semarapura Kelod Kangin, Kec. Klungkung, Kabupaten Klungkung, Bali 80761","Semarapura Kelod Kangin, Kec. Klungkung, Kabupaten Klungkung",BALI,80761.0,Indonesia,85156998880.0,,,-85.358.253,1.154.060.363,https://maps.google.com/?cid=0x0:0xdf7d15e58f1ee58e,
toko bangunan,Toko Bahan Bangunan,Toko MD Bangunan,"CCX6+PJW, Jl. Taman, Tangkas, Kec. Klungkung, Kabupaten Klungkung, Bali 80761","Jl. Taman, Tangkas, Kec. Klungkung, Kabupaten Klungkung",BALI,80761.0,Indonesia,81916465540.0,,,-85.506.329,1.154.115.936,https://maps.google.com/?cid=0x0:0xd488db4b9679ced8,
toko bangunan,Toko Bahan Bangunan,UD. Balananda,"CCXH+5VM, Jl. Rama, Gunaksa, Kec. Dawan, Kabupaten Klungkung, Bali 80761","Jl. Rama, Gunaksa, Kec. Dawan, Kabupaten Klungkung",BALI,80761.0,Indonesia,87860837243.0,,,-85.520.495,1.154.296.742,https://maps.google.com/?cid=0x0:0xd98438b60bc948b,
toko bangunan,Toko Bahan Bangunan,UD. Bangunan Dua,"Jl. Darmawangsa No.35, Semarapura Kangin, Kec. Klungkung, Kabupaten Klungkung, Bali 80716","Semarapura Kangin, Kec. Klungkung, Kabupaten Klungkung",BALI,80716.0,Indonesia,36621025.0,,,-85.370.242,1.154.058.972,https://maps.google.com/?cid=0x0:0x8264931f5cbd1b64,
toko bangunan,Toko Bahan Bangunan,UD. Nata Karya,"FC4W+J4C, Dawan Klod, Kec. Dawan, Kabupaten Klungkung, Bali 80761","Dawan Klod, Kec. Dawan, Kabupaten Klungkung",BALI,80761.0,Indonesia,81803695460.0,,,-85.434.431,1.154.452.643,https://maps.google.com/?cid=0x0:0x8846510cd97bc3f4,
toko bangunan,Toko Bahan Bangunan,Toko Bangunan UD. Eka Lawiya,"Jl. Watu Renggong, Kamasan, Kec. Klungkung, Kabupaten Klungkung, Bali 80716","Kamasan, Kec. Klungkung, Kabupaten Klungkung",BALI,80716.0,Indonesia,87790750893.0,,,-85.509.266,1.154.073.356,https://maps.google.com/?cid=0x0:0xcb3bb68768dee789,
toko bangunan,Toko Bahan Bangunan,TOKO BANGUNAN BUANA SEJAHTERA,"FC49+4J5, Jl. Raya Sampalan, Sampalan Klod, Kec. Dawan, Kabupaten Klungkung, Bali 80761","Jl. Raya Sampalan, Sampalan Klod, Kec. Dawan, Kabupaten Klungkung",BALI,80761.0,Indonesia,81236107050.0,,,-85.447.335,1.154.190.971,https://maps.google.com/?cid=0x0:0x401c21a72728e690,
toko bangunan,Toko Bahan Bangunan,UD. Karya Nadi,"FC2Q+R2G, Jl. Sawo Kabeh, Dawan Klod, Kec. Dawan, Kabupaten Klungkung, Bali 80761","Jl. Sawo Kabeh, Dawan Klod, Kec. Dawan, Kabupaten Klungkung",BALI,80761.0,Indonesia,81236054225.0,,,-85.479.334,1.154.375.912,https://maps.google.com/?cid=0x0:0x68d68b1c7b679ff6,
toko bangunan,Toko Bahan Bangunan,UD Sinar Babakan,"FCXJ+VWX, Jl Raya Semarapura , Sidemen , Karangasem, Talibeng, Kec. Sidemen, Kabupaten Karangasem, Bali 80864","Jl Raya Semarapura , Sidemen , Karangasem, Talibeng, Kec. Sidemen, Kabupaten Karangasem",BALI,80864.0,Indonesia,85337140306.0,,,-85.002.598,1.154.323.597,https://maps.google.com/?cid=0x0:0x74a9f0bd1bfadab,
toko bangunan,Toko Bahan Bangunan,TB. Sinar Dewata,"FC25+X2P, Jl. Mahodara, Kamasan, Kec. Klungkung, Kabupaten Klungkung, Bali 80761","Jl. Mahodara, Kamasan, Kec. Klungkung, Kabupaten Klungkung",BALI,80761.0,Indonesia,87851162036.0,,,-85.475.465,1.154.075.937,https://maps.google.com/?cid=0x0:0x3dc6ffb8e9280771,
toko bangunan,Toko Bahan Bangunan,UD Karya Bangunan,"Jl. Ngurah Rai No.88 A, Semarapura Tengah, Kec. Klungkung, Kabupaten Klungkung, Bali 80711","Semarapura Tengah, Kec. Klungkung, Kabupaten Klungkung",BALI,80711.0,Indonesia,81338141935.0,,,-85.294.348,1.153.984.585,https://maps.google.com/?cid=0x0:0x8915cfcafeed36b9,
toko bangunan,Toko Swalayan,Swalayan Bangunan,"CCX2+J4H, Jl. Kenyeri, Semarapura Kelod, Kec. Klungkung, Kabupaten Klungkung, Bali 80716","Jl. Kenyeri, Semarapura Kelod, Kec. Klungkung, Kabupaten Klungkung",BALI,80716.0,Indonesia,361622660.0,,,-85.509.388,1.154.003.482,https://maps.google.com/?cid=0x0:0x829f8d68b861e8a2,
toko bangunan,Toko Bahan Bangunan,UD. Lemek Sari,"F93W+XWG, Jl. Matahari I, Kemoning, Kec. Klungkung, Kabupaten Klungkung, Bali 80761","Jl. Matahari I, Kemoning, Kec. Klungkung, Kabupaten Klungkung",BALI,80761.0,Indonesia,81339327865.0,,,-85.450.692,1.153.973.312,https://maps.google.com/?cid=0x0:0x36171c48344a5e6a,
toko bangunan,Toko Bahan Bangunan,Ud. Segara Manik,"CFXF+MQP, Jl. Raya Goa Lawah, Pesinggahan, Kec. Dawan, Kabupaten Klungkung, Bali 80761","Jl. Raya Goa Lawah, Pesinggahan, Kec. Dawan, Kabupaten Klungkung",BALI,80761.0,Indonesia,81246315505.0,,,-8.550.796,1.154.744.579,https://maps.google.com/?cid=0x0:0x72dddd9239b15218,
toko bangunan,Toko Bahan Bangunan,Toko Karya Sari Asih,"Jl. Kusanegara No.79, Kusamba, Kec. Dawan, Kabupaten Klungkung, Bali 80761","Kusamba, Kec. Dawan, Kabupaten Klungkung",BALI,80761.0,Indonesia,,,,-85.614.264,1.154.508.933,https://maps.google.com/?cid=0x0:0x1cd02888d2036f1b,
toko bangunan,Pemasok Bahan Bangunan,TB. Baskara Karya,"CFR4+F47, Jl. Kusanegara, Kp. Kusamba, Kec. Dawan, Kabupaten Klungkung, Bali 80761","Jl. Kusanegara, Kp. Kusamba, Kec. Dawan, Kabupaten Klungkung",BALI,80761.0,Indonesia,81916161130.0,,,-85.588.273,1.154.552.925,https://maps.google.com/?cid=0x0:0xfce7e44eb1e7e451,
toko bangunan,Toko Perlengkapan Pagar,Toko Besi MAKMUR DEWATA,"CFV2+PPG Jalan Professor Doktor Ida Bagus Mantra, BY PASS Bypass, Kusamba, Kec. Dawan, Kabupaten Klungkung, Bali 80761","BY PASS Bypass, Kusamba, Kec. Dawan, Kabupaten Klungkung",BALI,80761.0,Indonesia,8113801689.0,,,-85.553.497,1.154.508.683,https://maps.google.com/?cid=0x0:0x98a223c9c000bc3b,
toko bangunan,Toko Bahan Bangunan,UD Sari Amertha,"FF36+P52, Jl. Desa, Pikat, Kec. Dawan, Kabupaten Klungkung, Bali 80761","Jl. Desa, Pikat, Kec. Dawan, Kabupaten Klungkung",BALI,80761.0,Indonesia,813119386181.0,,,-85.457.287,1.154.603.945,https://maps.google.com/?cid=0x0:0x5efbb77b8ed644b5,
toko bangunan,Toko Bahan Bangunan,Toko Bangunan Surya,"Jl. Puputan No.69, Semarapura Kangin, Kec. Klungkung, Kabupaten Klungkung, Bali 80761","Semarapura Kangin, Kec. Klungkung, Kabupaten Klungkung",BALI,80761.0,Indonesia,36621322.0,,,-85.422.503,1.154.025.558,https://maps.google.com/?cid=0x0:0xafbfaa25f3136420,
toko bangunan,Toko Bahan Bangunan,UD Karya Bangunan,"Jl. Ngurah Rai No.88 A, Semarapura Tengah, Kec. Klungkung, Kabupaten Klungkung, Bali 80711","Semarapura Tengah, Kec. Klungkung, Kabupaten Klungkung",BALI,80711.0,Indonesia,81338141935.0,,,-85.294.348,1.153.984.585,https://maps.google.com/?cid=0x0:0x8915cfcafeed36b9,
toko bangunan,Toko Bahan Bangunan,Istana Bangunan,"Jl. Diponegoro No.72, Semarapura Kelod Kangin, Kec. Klungkung, Kabupaten Klungkung, Bali 80761","Semarapura Kelod Kangin, Kec. Klungkung, Kabupaten Klungkung",BALI,80761.0,Indonesia,85156998880.0,,,-85.358.253,1.154.060.363,https://maps.google.com/?cid=0x0:0xdf7d15e58f1ee58e,
toko bangunan,toko bangunan,Bali 80711,"Kec. Klungkung, Kabupaten Klungkung, Bali","Kabupaten Klungkung, Bali",BALI,,Indonesia,,,,-8.527.468,1.153.978.272,https://maps.google.com/?cid=0x0:0x1c00c5eb6016bf90,
toko bangunan,Toko Bahan Bangunan,TB. Cahaya Batu,"F94V+X64, Jl. Raya Batu Tabih, Takmung, Kec. Banjarangkan, Kabupaten Klungkung, Bali 80716","Jl. Raya Batu Tabih, Takmung, Kec. Banjarangkan, Kabupaten Klungkung",BALI,80716.0,Indonesia,85333074570.0,,,-85.426.146,1.153.930.782,https://maps.google.com/?cid=0x0:0x412c2fe1fc507d49,
toko bangunan,Toko Bahan Bangunan,UD. Lemek Sari,"F93W+XWG, Jl. Matahari I, Kemoning, Kec. Klungkung, Kabupaten Klungkung, Bali 80761","Jl. Matahari I, Kemoning, Kec. Klungkung, Kabupaten Klungkung",BALI,80761.0,Indonesia,81339327865.0,,,-85.450.692,1.153.973.312,https://maps.google.com/?cid=0x0:0x36171c48344a5e6a,
toko bangunan,Toko Bahan Bangunan,Toko Nusa Klungkung,"Jl. Diponegoro No.48, Semarapura Kangin, Kec. Klungkung, Kabupaten Klungkung, Bali 80716","Semarapura Kangin, Kec. Klungkung, Kabupaten Klungkung",BALI,80716.0,Indonesia,8123943670.0,,,-85.355.923,1.154.051.396,https://maps.google.com/?cid=0x0:0x7a915dba9c06058a,
toko bangunan,Toko Swalayan,Swalayan Bangunan,"CCX2+J4H, Jl. Kenyeri, Semarapura Kelod, Kec. Klungkung, Kabupaten Klungkung, Bali 80716","Jl. Kenyeri, Semarapura Kelod, Kec. Klungkung, Kabupaten Klungkung",BALI,80716.0,Indonesia,361622660.0,,,-85.509.388,1.154.003.482,https://maps.google.com/?cid=0x0:0x829f8d68b861e8a2,
toko bangunan,Toko Bahan Bangunan,Toko Cat Nusa Mandiri,"Jl. Arjuna No.1, Semarapura Kangin, Kec. Klungkung, Kabupaten Klungkung, Bali 80716","Semarapura Kangin, Kec. Klungkung, Kabupaten Klungkung",BALI,80716.0,Indonesia,36621465.0,,,-85.425.615,1.154.007.411,https://maps.google.com/?cid=0x0:0x6cffd3fdc73f01f7,
toko bangunan,Toko Bahan Bangunan,UD. Bangunan Dua,"Jl. Darmawangsa No.35, Semarapura Kangin, Kec. Klungkung, Kabupaten Klungkung, Bali 80716","Semarapura Kangin, Kec. Klungkung, Kabupaten Klungkung",BALI,80716.0,Indonesia,36621025.0,,,-85.370.242,1.154.058.972,https://maps.google.com/?cid=0x0:0x8264931f5cbd1b64,
toko bangunan,Toko Bahan Bangunan,Toko MD Bangunan,"CCX6+PJW, Jl. Taman, Tangkas, Kec. Klungkung, Kabupaten Klungkung, Bali 80761","Jl. Taman, Tangkas, Kec. Klungkung, Kabupaten Klungkung",BALI,80761.0,Indonesia,81916465540.0,,,-85.506.329,1.154.115.936,https://maps.google.com/?cid=0x0:0xd488db4b9679ced8,
toko bangunan,Toko Bahan Bangunan,Toko Bangunan UD. Eka Lawiya,"Jl. Watu Renggong, Kamasan, Kec. Klungkung, Kabupaten Klungkung, Bali 80716","Kamasan, Kec. Klungkung, Kabupaten Klungkung",BALI,80716.0,Indonesia,87790750893.0,,,-85.509.266,1.154.073.356,https://maps.google.com/?cid=0x0:0xcb3bb68768dee789,
toko bangunan,Toko Bahan Bangunan,Toko Deta Jaya,"Jl. Puputan No.105-115, Semarapura Kangin, Kec. Klungkung, Kabupaten Klungkung, Bali 80716","Semarapura Kangin, Kec. Klungkung, Kabupaten Klungkung",BALI,80716.0,Indonesia,36623240.0,,,-85.457.376,1.154.029.468,https://maps.google.com/?cid=0x0:0x5af2e154f6d7cd08,
toko bangunan,Toko Bahan Bangunan,UD. Karma Karya - Toko Bangunan Karma Karya,"Jl. Prof. Dr. Ida Bagus Mantra, Gunaksa, Kec. Dawan, Kabupaten Klungkung, Bali 80761","Gunaksa, Kec. Dawan, Kabupaten Klungkung",BALI,80761.0,Indonesia,81999274555.0,,,-85.558.336,1.154.477.051,https://maps.google.com/?cid=0x0:0x891372a1308f421,
toko bangunan,Pemasok Peralatan Konstruksi,TOKO BALI KLUNGKUNG ( Toko Besi di Klungkung ),"Jl. Puputan, Semarapura Kangin, Kec. Klungkung, Kabupaten Klungkung, Bali 80761","Semarapura Kangin, Kec. Klungkung, Kabupaten Klungkung",BALI,80761.0,Indonesia,81236563756.0,,,-85.450.333,1.154.027.932,https://maps.google.com/?cid=0x0:0x231c151326861cc2,
toko bangunan,Toko Bahan Bangunan,Benoa Mas Bangunan,"Jl. Puputan No.60, Semarapura Kelod, Kec. Klungkung, Kabupaten Klungkung, Bali 80761","Semarapura Kelod, Kec. Klungkung, Kabupaten Klungkung",BALI,80761.0,Indonesia,89574858596.0,,,-85.425.114,1.154.027.637,https://maps.google.com/?cid=0x0:0xb10fa0aa6355c25,
toko bangunan,Toko Bahan Bangunan,Toko Gunaksa,"Jl. Diponegoro No.89, Semarapura Kelod Kangin, Kec. Klungkung, Kabupaten Klungkung, Bali 80715","Semarapura Kelod Kangin, Kec. Klungkung, Kabupaten Klungkung",BALI,80715.0,Indonesia,36621063.0,,,-85.355.996,1.154.058.149,https://maps.google.com/?cid=0x0:0xe937c0108af523c0,
toko bangunan,Toko Bahan Bangunan,TB. Sinar Dewata,"FC25+X2P, Jl. Mahodara, Kamasan, Kec. Klungkung, Kabupaten Klungkung, Bali 80761","Jl. Mahodara, Kamasan, Kec. Klungkung, Kabupaten Klungkung",BALI,80761.0,Indonesia,87851162036.0,,,-85.475.465,1.154.075.937,https://maps.google.com/?cid=0x0:0x3dc6ffb8e9280771,
toko bangunan,Toko Bahan Bangunan,UD. Beton Indah,"Jl. Rama No.8, Kamasan, Kec. Klungkung, Kabupaten Klungkung, Bali 80761","Kamasan, Kec. Klungkung, Kabupaten Klungkung",BALI,80761.0,Indonesia,36624075.0,,,-8.542.711,1.154.086.191,https://maps.google.com/?cid=0x0:0xda12a7ca4b79b10b,
toko bangunan,Toko Bahan Bangunan,UD Sari Karya,"Jl. Raya Besakih No.184, Akah, Kec. Klungkung, Kabupaten Klungkung, Bali 80716","Akah, Kec. Klungkung, Kabupaten Klungkung",BALI,80716.0,Indonesia,36624704.0,,,-8.514.183,1.154.016.617,https://maps.google.com/?cid=0x0:0xa3e0b01c86e03f34,
toko bangunan,Toko Perlengkapan Rumah,Putra Cahaya Gypsum,"FC44+X89, Jl. Rama, Semarapura Kangin, Kec. Klungkung, Kabupaten Klungkung, Bali 80761","Jl. Rama, Semarapura Kangin, Kec. Klungkung, Kabupaten Klungkung",BALI,80761.0,Indonesia,81338313189.0,,,-8.542.596,1.154.058.628,https://maps.google.com/?cid=0x0:0xdcb353e80f6d1df,
toko bangunan,Toko Bahan Bangunan,UD Karya Bangunan,"Jl. Ngurah Rai No.88 A, Semarapura Tengah, Kec. Klungkung, Kabupaten Klungkung, Bali 80711","Semarapura Tengah, Kec. Klungkung, Kabupaten Klungkung",BALI,80711.0,Indonesia,81338141935.0,,,-85.294.348,1.153.984.585,https://maps.google.com/?cid=0x0:0x8915cfcafeed36b9,
toko bangunan,Toko Bahan Bangunan,Toko Bangunan Surya,"Jl. Puputan No.69, Semarapura Kangin, Kec. Klungkung, Kabupaten Klungkung, Bali 80761","Semarapura Kangin, Kec. Klungkung, Kabupaten Klungkung",BALI,80761.0,Indonesia,36621322.0,,,-85.422.503,1.154.025.558,https://maps.google.com/?cid=0x0:0xafbfaa25f3136420,
toko bangunan,toko bangunan,Bali 80712,"Kec. Klungkung, Kabupaten Klungkung, Bali","Kabupaten Klungkung, Bali",BALI,,Indonesia,,,,-85.253.594,1.153.919.027,https://maps.google.com/?cid=0x0:0x1c00c5eb6016bfa0,
toko bangunan,Toko Bahan Bangunan,Istana Bangunan,"Jl. Diponegoro No.72, Semarapura Kelod Kangin, Kec. Klungkung, Kabupaten Klungkung, Bali 80761","Semarapura Kelod Kangin, Kec. Klungkung, Kabupaten Klungkung",BALI,80761.0,Indonesia,85156998880.0,,,-85.358.253,1.154.060.363,https://maps.google.com/?cid=0x0:0xdf7d15e58f1ee58e,
toko bangunan,Toko Bahan Bangunan,Toko MD Bangunan,"CCX6+PJW, Jl. Taman, Tangkas, Kec. Klungkung, Kabupaten Klungkung, Bali 80761","Jl. Taman, Tangkas, Kec. Klungkung, Kabupaten Klungkung",BALI,80761.0,Indonesia,81916465540.0,,,-85.506.329,1.154.115.936,https://maps.google.com/?cid=0x0:0xd488db4b9679ced8,
toko bangunan,Toko Bahan Bangunan,UD. Karma Karya - Toko Bangunan Karma Karya,"Jl. Prof. Dr. Ida Bagus Mantra, Gunaksa, Kec. Dawan, Kabupaten Klungkung, Bali 80761","Gunaksa, Kec. Dawan, Kabupaten Klungkung",BALI,80761.0,Indonesia,81999274555.0,,,-85.558.336,1.154.477.051,https://maps.google.com/?cid=0x0:0x891372a1308f421,
toko bangunan,Toko Swalayan,Swalayan Bangunan,"CCX2+J4H, Jl. Kenyeri, Semarapura Kelod, Kec. Klungkung, Kabupaten Klungkung, Bali 80716","Jl. Kenyeri, Semarapura Kelod, Kec. Klungkung, Kabupaten Klungkung",BALI,80716.0,Indonesia,361622660.0,,,-85.509.388,1.154.003.482,https://maps.google.com/?cid=0x0:0x829f8d68b861e8a2,
toko bangunan,Toko Bahan Bangunan,UD. Bangunan Dua,"Jl. Darmawangsa No.35, Semarapura Kangin, Kec. Klungkung, Kabupaten Klungkung, Bali 80716","Semarapura Kangin, Kec. Klungkung, Kabupaten Klungkung",BALI,80716.0,Indonesia,36621025.0,,,-85.370.242,1.154.058.972,https://maps.google.com/?cid=0x0:0x8264931f5cbd1b64,
toko bangunan,Toko Bahan Bangunan,TB. Cahaya Batu,"F94V+X64, Jl. Raya Batu Tabih, Takmung, Kec. Banjarangkan, Kabupaten Klungkung, Bali 80716","Jl. Raya Batu Tabih, Takmung, Kec. Banjarangkan, Kabupaten Klungkung",BALI,80716.0,Indonesia,85333074570.0,,,-85.426.146,1.153.930.782,https://maps.google.com/?cid=0x0:0x412c2fe1fc507d49,
toko bangunan,Toko Bahan Bangunan,"Toko Bangunan KERTA JAYA, Dawan Klungkung","Jl. Subak Sedahan Ayung, Gunaksa, Dawan, Klungkung Regency, Bali 80761","Gunaksa, Dawan, Klungkung Regency",BALI,80761.0,Indonesia,85738960650.0,,,-85.521.736,11.544.849,https://maps.google.com/?cid=0x0:0x60ef2d8105f8abee,
toko bangunan,Toko Bahan Bangunan,Toko Nusa Klungkung,"Jl. Diponegoro No.48, Semarapura Kangin, Kec. Klungkung, Kabupaten Klungkung, Bali 80716","Semarapura Kangin, Kec. Klungkung, Kabupaten Klungkung",BALI,80716.0,Indonesia,8123943670.0,,,-85.355.923,1.154.051.396,https://maps.google.com/?cid=0x0:0x7a915dba9c06058a,
toko bangunan,Toko Bahan Bangunan,Ud Jaya Pratama - Lepang,"jln. Bypass, Jl. Prof. Dr. Ida Bagus Mantra No.Lepang, Takmung, Kec. Banjarangkan, Kabupaten Klungkung, Bali 80716","Jl. Prof. Dr. Ida Bagus Mantra No.Lepang, Takmung, Kec. Banjarangkan, Kabupaten Klungkung",BALI,80716.0,Indonesia,36622982.0,,,-85.682.952,1.153.839.946,https://maps.google.com/?cid=0x0:0xe4353caca82d85a9,
toko bangunan,Toko Bahan Bangunan,Toko Bangunan UD. Eka Lawiya,"Jl. Watu Renggong, Kamasan, Kec. Klungkung, Kabupaten Klungkung, Bali 80716","Kamasan, Kec. Klungkung, Kabupaten Klungkung",BALI,80716.0,Indonesia,87790750893.0,,,-85.509.266,1.154.073.356,https://maps.google.com/?cid=0x0:0xcb3bb68768dee789,
toko bangunan,Toko Bahan Bangunan,Bagus Jaya Bangunan,"Jln Raya, Br Beneng, Getakan, Kec. Banjarangkan, Kabupaten Klungkung, Bali","Kabupaten Klungkung, Bali",BALI,,Indonesia,,,,-85.274.228,1.153.774.388,https://maps.google.com/?cid=0x0:0xfddfa221b1f79e88,
toko bangunan,Toko Bahan Bangunan,Toko Deta Jaya,"Jl. Puputan No.105-115, Semarapura Kangin, Kec. Klungkung, Kabupaten Klungkung, Bali 80716","Semarapura Kangin, Kec. Klungkung, Kabupaten Klungkung",BALI,80716.0,Indonesia,36623240.0,,,-85.457.376,1.154.029.468,https://maps.google.com/?cid=0x0:0x5af2e154f6d7cd08,
toko bangunan,Toko Bahan Bangunan,Toko Cat Nusa Mandiri,"Jl. Arjuna No.1, Semarapura Kangin, Kec. Klungkung, Kabupaten Klungkung, Bali 80716","Semarapura Kangin, Kec. Klungkung, Kabupaten Klungkung",BALI,80716.0,Indonesia,36621465.0,,,-85.425.615,1.154.007.411,https://maps.google.com/?cid=0x0:0x6cffd3fdc73f01f7,
toko bangunan,Pemasok Peralatan Konstruksi,TOKO BALI KLUNGKUNG ( Toko Besi di Klungkung ),"Jl. Puputan, Semarapura Kangin, Kec. Klungkung, Kabupaten Klungkung, Bali 80761","Semarapura Kangin, Kec. Klungkung, Kabupaten Klungkung",BALI,80761.0,Indonesia,81236563756.0,,,-85.450.333,1.154.027.932,https://maps.google.com/?cid=0x0:0x231c151326861cc2,
toko bangunan,Toko Bahan Bangunan,TOKO BANGUNAN BUANA SEJAHTERA,"FC49+4J5, Jl. Raya Sampalan, Sampalan Klod, Kec. Dawan, Kabupaten Klungkung, Bali 80761","Jl. Raya Sampalan, Sampalan Klod, Kec. Dawan, Kabupaten Klungkung",BALI,80761.0,Indonesia,81236107050.0,,,-85.447.335,1.154.190.971,https://maps.google.com/?cid=0x0:0x401c21a72728e690,
toko bangunan,Toko Perlengkapan Rumah,UD. Batu Alam,"F9GW+GC9, JL Setiabudi, Semarapura Kaja, Selat, Karangasem, Bali 80119","JL Setiabudi, Semarapura Kaja, Selat, Karangasem",BALI,80119.0,Indonesia,36124193.0,,,-85.237.086,1.153.961.113,https://maps.google.com/?cid=0x0:0x8cde1d67e1749c4a,
toko bangunan,Toko Bahan Bangunan,TB. Sinar Dewata,"FC25+X2P, Jl. Mahodara, Kamasan, Kec. Klungkung, Kabupaten Klungkung, Bali 80761","Jl. Mahodara, Kamasan, Kec. Klungkung, Kabupaten Klungkung",BALI,80761.0,Indonesia,87851162036.0,,,-85.475.465,1.154.075.937,https://maps.google.com/?cid=0x0:0x3dc6ffb8e9280771,
toko bangunan,Toko Bahan Bangunan,Toko Gunaksa,"Jl. Diponegoro No.89, Semarapura Kelod Kangin, Kec. Klungkung, Kabupaten Klungkung, Bali 80715","Semarapura Kelod Kangin, Kec. Klungkung, Kabupaten Klungkung",BALI,80715.0,Indonesia,36621063.0,,,-85.355.996,1.154.058.149,https://maps.google.com/?cid=0x0:0xe937c0108af523c0,
toko bangunan,toko bangunan,Bali 80713,"Tihingan, Kec. Banjarangkan, Kabupaten Klungkung, Bali","Kabupaten Klungkung, Bali",BALI,,Indonesia,,,,-8.533.129,1.153.889.403,https://maps.google.com/?cid=0x0:0x1c00c5eb6016bfb0,
toko bangunan,Toko Bahan Bangunan,UD Karya Bangunan,"Jl. Ngurah Rai No.88 A, Semarapura Tengah, Kec. Klungkung, Kabupaten Klungkung, Bali 80711","Semarapura Tengah, Kec. Klungkung, Kabupaten Klungkung",BALI,80711.0,Indonesia,81338141935.0,,,-85.294.348,1.153.984.585,https://maps.google.com/?cid=0x0:0x8915cfcafeed36b9,
toko bangunan,Toko Bahan Bangunan,Toko Bangunan Surya,"Jl. Puputan No.69, Semarapura Kangin, Kec. Klungkung, Kabupaten Klungkung, Bali 80761","Semarapura Kangin, Kec. Klungkung, Kabupaten Klungkung",BALI,80761.0,Indonesia,36621322.0,,,-85.422.503,1.154.025.558,https://maps.google.com/?cid=0x0:0xafbfaa25f3136420,
toko bangunan,Toko Bahan Bangunan,TB. Cahaya Batu,"F94V+X64, Jl. Raya Batu Tabih, Takmung, Kec. Banjarangkan, Kabupaten Klungkung, Bali 80716","Jl. Raya Batu Tabih, Takmung, Kec. Banjarangkan, Kabupaten Klungkung",BALI,80716.0,Indonesia,85333074570.0,,,-85.426.146,1.153.930.782,https://maps.google.com/?cid=0x0:0x412c2fe1fc507d49,
toko bangunan,Toko Bahan Bangunan,UD. Karma Karya - Toko Bangunan Karma Karya,"Jl. Prof. Dr. Ida Bagus Mantra, Gunaksa, Kec. Dawan, Kabupaten Klungkung, Bali 80761","Gunaksa, Kec. Dawan, Kabupaten Klungkung",BALI,80761.0,Indonesia,81999274555.0,,,-85.558.336,1.154.477.051,https://maps.google.com/?cid=0x0:0x891372a1308f421,
toko bangunan,Toko Bahan Bangunan,TB. Eka Karya,"Jl. Raya Besakih No.351, Akah, Kec. Klungkung, Kabupaten Klungkung, Bali 80711","Akah, Kec. Klungkung, Kabupaten Klungkung",BALI,80711.0,Indonesia,859106649010.0,,,-85.228.093,1.154.020.412,https://maps.google.com/?cid=0x0:0xd8bcb360522e84fb,
toko bangunan,Toko Swalayan,Swalayan Bangunan,"CCX2+J4H, Jl. Kenyeri, Semarapura Kelod, Kec. Klungkung, Kabupaten Klungkung, Bali 80716","Jl. Kenyeri, Semarapura Kelod, Kec. Klungkung, Kabupaten Klungkung",BALI,80716.0,Indonesia,361622660.0,,,-85.509.388,1.154.003.482,https://maps.google.com/?cid=0x0:0x829f8d68b861e8a2,
toko bangunan,Toko Bahan Bangunan,Toko Nusa Klungkung,"Jl. Diponegoro No.48, Semarapura Kangin, Kec. Klungkung, Kabupaten Klungkung, Bali 80716","Semarapura Kangin, Kec. Klungkung, Kabupaten Klungkung",BALI,80716.0,Indonesia,8123943670.0,,,-85.355.923,1.154.051.396,https://maps.google.com/?cid=0x0:0x7a915dba9c06058a,
toko bangunan,Toko Bahan Bangunan,Bagus Jaya Bangunan,"Jln Raya, Br Beneng, Getakan, Kec. Banjarangkan, Kabupaten Klungkung, Bali","Kabupaten Klungkung, Bali",BALI,,Indonesia,,,,-85.274.228,1.153.774.388,https://maps.google.com/?cid=0x0:0xfddfa221b1f79e88,
toko bangunan,Toko Bahan Bangunan,Toko MD Bangunan,"CCX6+PJW, Jl. Taman, Tangkas, Kec. Klungkung, Kabupaten Klungkung, Bali 80761","Jl. Taman, Tangkas, Kec. Klungkung, Kabupaten Klungkung",BALI,80761.0,Indonesia,81916465540.0,,,-85.506.329,1.154.115.936,https://maps.google.com/?cid=0x0:0xd488db4b9679ced8,
toko bangunan,Toko,Batu Sikat,"F97M+C43, Jl. Raya Banda, Tihingan, Kec. Banjarangkan, Kabupaten Klungkung, Bali 80752","Jl. Raya Banda, Tihingan, Kec. Banjarangkan, Kabupaten Klungkung",BALI,80752.0,Indonesia,81558769560.0,,,-85.364.776,1.153.827.819,https://maps.google.com/?cid=0x0:0x91153bd9afefbc32,
toko bangunan,Toko Bahan Bangunan,UD ASRI,"Tihingan, Kec. Banjarangkan, Kabupaten Klungkung, Bali 80752","Kec. Banjarangkan, Kabupaten Klungkung",BALI,80752.0,Indonesia,81936037621.0,,,-85.381.701,1.153.831.296,https://maps.google.com/?cid=0x0:0xd64239b648e68340,
toko bangunan,Toko Bahan Bangunan,Toko Cat Nusa Mandiri,"Jl. Arjuna No.1, Semarapura Kangin, Kec. Klungkung, Kabupaten Klungkung, Bali 80716","Semarapura Kangin, Kec. Klungkung, Kabupaten Klungkung",BALI,80716.0,Indonesia,36621465.0,,,-85.425.615,1.154.007.411,https://maps.google.com/?cid=0x0:0x6cffd3fdc73f01f7,
toko bangunan,Toko Bahan Bangunan,UD. Bangunan Dua,"Jl. Darmawangsa No.35, Semarapura Kangin, Kec. Klungkung, Kabupaten Klungkung, Bali 80716","Semarapura Kangin, Kec. Klungkung, Kabupaten Klungkung",BALI,80716.0,Indonesia,36621025.0,,,-85.370.242,1.154.058.972,https://maps.google.com/?cid=0x0:0x8264931f5cbd1b64,
toko bangunan,Toko Bahan Bangunan,Toko Bangunan UD. Eka Lawiya,"Jl. Watu Renggong, Kamasan, Kec. Klungkung, Kabupaten Klungkung, Bali 80716","Kamasan, Kec. Klungkung, Kabupaten Klungkung",BALI,80716.0,Indonesia,87790750893.0,,,-85.509.266,1.154.073.356,https://maps.google.com/?cid=0x0:0xcb3bb68768dee789,
toko bangunan,Pemasok Peralatan Konstruksi,TOKO BALI KLUNGKUNG ( Toko Besi di Klungkung ),"Jl. Puputan, Semarapura Kangin, Kec. Klungkung, Kabupaten Klungkung, Bali 80761","Semarapura Kangin, Kec. Klungkung, Kabupaten Klungkung",BALI,80761.0,Indonesia,81236563756.0,,,-85.450.333,1.154.027.932,https://maps.google.com/?cid=0x0:0x231c151326861cc2,
toko bangunan,Toko Bahan Bangunan,Toko Deta Jaya,"Jl. Puputan No.105-115, Semarapura Kangin, Kec. Klungkung, Kabupaten Klungkung, Bali 80716","Semarapura Kangin, Kec. Klungkung, Kabupaten Klungkung",BALI,80716.0,Indonesia,36623240.0,,,-85.457.376,1.154.029.468,https://maps.google.com/?cid=0x0:0x5af2e154f6d7cd08,
toko bangunan,Toko Bahan Bangunan,Toko Gunaksa,"Jl. Diponegoro No.89, Semarapura Kelod Kangin, Kec. Klungkung, Kabupaten Klungkung, Bali 80715","Semarapura Kelod Kangin, Kec. Klungkung, Kabupaten Klungkung",BALI,80715.0,Indonesia,36621063.0,,,-85.355.996,1.154.058.149,https://maps.google.com/?cid=0x0:0xe937c0108af523c0,
toko bangunan,Distributor Baja,TOKO BALI KLUNGKUNG,"Jl. Nakula, Semarapura Kangin, Kec. Klungkung, Kabupaten Klungkung, Bali 80716","Semarapura Kangin, Kec. Klungkung, Kabupaten Klungkung",BALI,80716.0,Indonesia,81236563756.0,,,-85.366.122,1.154.055.096,https://maps.google.com/?cid=0x0:0x73f0375dab3d9652,
toko bangunan,Toko Bahan Bangunan,Benoa Mas Bangunan,"Jl. Puputan No.60, Semarapura Kelod, Kec. Klungkung, Kabupaten Klungkung, Bali 80761","Semarapura Kelod, Kec. Klungkung, Kabupaten Klungkung",BALI,80761.0,Indonesia,89574858596.0,,,-85.425.114,1.154.027.637,https://maps.google.com/?cid=0x0:0xb10fa0aa6355c25,
toko bangunan,Toko Bahan Bangunan,UD. Lemek Sari,"F93W+XWG, Jl. Matahari I, Kemoning, Kec. Klungkung, Kabupaten Klungkung, Bali 80761","Jl. Matahari I, Kemoning, Kec. Klungkung, Kabupaten Klungkung",BALI,80761.0,Indonesia,81339327865.0,,,-85.450.692,1.153.973.312,https://maps.google.com/?cid=0x0:0x36171c48344a5e6a,
toko bangunan,Toko Bahan Bangunan,Ud Jaya Pratama - Lepang,"jln. Bypass, Jl. Prof. Dr. Ida Bagus Mantra No.Lepang, Takmung, Kec. Banjarangkan, Kabupaten Klungkung, Bali 80716","Jl. Prof. Dr. Ida Bagus Mantra No.Lepang, Takmung, Kec. Banjarangkan, Kabupaten Klungkung",BALI,80716.0,Indonesia,36622982.0,,,-85.682.952,1.153.839.946,https://maps.google.com/?cid=0x0:0xe4353caca82d85a9,
toko bangunan,Toko Bahan Bangunan,"Toko Bangunan KERTA JAYA, Dawan Klungkung","Jl. Subak Sedahan Ayung, Gunaksa, Dawan, Klungkung Regency, Bali 80761","Gunaksa, Dawan, Klungkung Regency",BALI,80761.0,Indonesia,85738960650.0,,,-85.521.736,11.544.849,https://maps.google.com/?cid=0x0:0x60ef2d8105f8abee,
toko bangunan,toko bangunan,Semarapura,"Kec. Klungkung, Kabupaten Klungkung, Bali","Kabupaten Klungkung, Bali",BALI,,Indonesia,,,,-85.388.252,115.402.367,https://maps.google.com/?cid=0x0:0x4030bfbca7d2ed0,
toko bangunan,Toko Bahan Bangunan,Toko Bangunan Surya,"Jl. Puputan No.69, Semarapura Kangin, Kec. Klungkung, Kabupaten Klungkung, Bali 80761","Semarapura Kangin, Kec. Klungkung, Kabupaten Klungkung",BALI,80761.0,Indonesia,36621322.0,,,-85.422.503,1.154.025.558,https://maps.google.com/?cid=0x0:0xafbfaa25f3136420,
toko bangunan,Toko Bahan Bangunan,Istana Bangunan,"Jl. Diponegoro No.72, Semarapura Kelod Kangin, Kec. Klungkung, Kabupaten Klungkung, Bali 80761","Semarapura Kelod Kangin, Kec. Klungkung, Kabupaten Klungkung",BALI,80761.0,Indonesia,85156998880.0,,,-85.358.253,1.154.060.363,https://maps.google.com/?cid=0x0:0xdf7d15e58f1ee58e,
toko bangunan,Toko Swalayan,Swalayan Bangunan,"CCX2+J4H, Jl. Kenyeri, Semarapura Kelod, Kec. Klungkung, Kabupaten Klungkung, Bali 80716","Jl. Kenyeri, Semarapura Kelod, Kec. Klungkung, Kabupaten Klungkung",BALI,80716.0,Indonesia,361622660.0,,,-85.509.388,1.154.003.482,https://maps.google.com/?cid=0x0:0x829f8d68b861e8a2,
toko bangunan,Toko Bahan Bangunan,Toko Bangunan UD. Eka Lawiya,"Jl. Watu Renggong, Kamasan, Kec. Klungkung, Kabupaten Klungkung, Bali 80716","Kamasan, Kec. Klungkung, Kabupaten Klungkung",BALI,80716.0,Indonesia,87790750893.0,,,-85.509.266,1.154.073.356,https://maps.google.com/?cid=0x0:0xcb3bb68768dee789,
toko bangunan,Toko Bahan Bangunan,Toko Nusa Klungkung,"Jl. Diponegoro No.48, Semarapura Kangin, Kec. Klungkung, Kabupaten Klungkung, Bali 80716","Semarapura Kangin, Kec. Klungkung, Kabupaten Klungkung",BALI,80716.0,Indonesia,8123943670.0,,,-85.355.923,1.154.051.396,https://maps.google.com/?cid=0x0:0x7a915dba9c06058a,
toko bangunan,Toko Bahan Bangunan,TB. Cahaya Batu,"F94V+X64, Jl. Raya Batu Tabih, Takmung, Kec. Banjarangkan, Kabupaten Klungkung, Bali 80716","Jl. Raya Batu Tabih, Takmung, Kec. Banjarangkan, Kabupaten Klungkung",BALI,80716.0,Indonesia,85333074570.0,,,-85.426.146,1.153.930.782,https://maps.google.com/?cid=0x0:0x412c2fe1fc507d49,
toko bangunan,Toko Bahan Bangunan,TB. Eka Karya,"Jl. Raya Besakih No.351, Akah, Kec. Klungkung, Kabupaten Klungkung, Bali 80711","Akah, Kec. Klungkung, Kabupaten Klungkung",BALI,80711.0,Indonesia,859106649010.0,,,-85.228.093,1.154.020.412,https://maps.google.com/?cid=0x0:0xd8bcb360522e84fb,
toko bangunan,Toko Bahan Bangunan,UD. Bangunan Dua,"Jl. Darmawangsa No.35, Semarapura Kangin, Kec. Klungkung, Kabupaten Klungkung, Bali 80716","Semarapura Kangin, Kec. Klungkung, Kabupaten Klungkung",BALI,80716.0,Indonesia,36621025.0,,,-85.370.242,1.154.058.972,https://maps.google.com/?cid=0x0:0x8264931f5cbd1b64,
toko bangunan,Toko Bahan Bangunan,Toko MD Bangunan,"CCX6+PJW, Jl. Taman, Tangkas, Kec. Klungkung, Kabupaten Klungkung, Bali 80761","Jl. Taman, Tangkas, Kec. Klungkung, Kabupaten Klungkung",BALI,80761.0,Indonesia,81916465540.0,,,-85.506.329,1.154.115.936,https://maps.google.com/?cid=0x0:0xd488db4b9679ced8,
toko bangunan,Toko Bahan Bangunan,Toko Cat Nusa Mandiri,"Jl. Arjuna No.1, Semarapura Kangin, Kec. Klungkung, Kabupaten Klungkung, Bali 80716","Semarapura Kangin, Kec. Klungkung, Kabupaten Klungkung",BALI,80716.0,Indonesia,36621465.0,,,-85.425.615,1.154.007.411,https://maps.google.com/?cid=0x0:0x6cffd3fdc73f01f7,
toko bangunan,Toko Bahan Bangunan,UD. Lemek Sari,"F93W+XWG, Jl. Matahari I, Kemoning, Kec. Klungkung, Kabupaten Klungkung, Bali 80761","Jl. Matahari I, Kemoning, Kec. Klungkung, Kabupaten Klungkung",BALI,80761.0,Indonesia,81339327865.0,,,-85.450.692,1.153.973.312,https://maps.google.com/?cid=0x0:0x36171c48344a5e6a,
toko bangunan,Toko Bahan Bangunan,Toko Deta Jaya,"Jl. Puputan No.105-115, Semarapura Kangin, Kec. Klungkung, Kabupaten Klungkung, Bali 80716","Semarapura Kangin, Kec. Klungkung, Kabupaten Klungkung",BALI,80716.0,Indonesia,36623240.0,,,-85.457.376,1.154.029.468,https://maps.google.com/?cid=0x0:0x5af2e154f6d7cd08,
toko bangunan,Toko Bahan Bangunan,Ud Jaya Pratama - Lepang,"jln. Bypass, Jl. Prof. Dr. Ida Bagus Mantra No.Lepang, Takmung, Kec. Banjarangkan, Kabupaten Klungkung, Bali 80716","Jl. Prof. Dr. Ida Bagus Mantra No.Lepang, Takmung, Kec. Banjarangkan, Kabupaten Klungkung",BALI,80716.0,Indonesia,36622982.0,,,-85.682.952,1.153.839.946,https://maps.google.com/?cid=0x0:0xe4353caca82d85a9,
toko bangunan,Toko Bahan Bangunan,UD. Karma Karya - Toko Bangunan Karma Karya,"Jl. Prof. Dr. Ida Bagus Mantra, Gunaksa, Kec. Dawan, Kabupaten Klungkung, Bali 80761","Gunaksa, Kec. Dawan, Kabupaten Klungkung",BALI,80761.0,Indonesia,81999274555.0,,,-85.558.336,1.154.477.051,https://maps.google.com/?cid=0x0:0x891372a1308f421,
toko bangunan,Pemasok Peralatan Konstruksi,TOKO BALI KLUNGKUNG ( Toko Besi di Klungkung ),"Jl. Puputan, Semarapura Kangin, Kec. Klungkung, Kabupaten Klungkung, Bali 80761","Semarapura Kangin, Kec. Klungkung, Kabupaten Klungkung",BALI,80761.0,Indonesia,81236563756.0,,,-85.450.333,1.154.027.932,https://maps.google.com/?cid=0x0:0x231c151326861cc2,
toko bangunan,Toko Bahan Bangunan,TB. Sinar Dewata,"FC25+X2P, Jl. Mahodara, Kamasan, Kec. Klungkung, Kabupaten Klungkung, Bali 80761","Jl. Mahodara, Kamasan, Kec. Klungkung, Kabupaten Klungkung",BALI,80761.0,Indonesia,87851162036.0,,,-85.475.465,1.154.075.937,https://maps.google.com/?cid=0x0:0x3dc6ffb8e9280771,
toko bangunan,Toko Bahan Bangunan,TB Sekar Sari,"C9WQ+WVF, Jl. Raya Takmung, Takmung, Kec. Banjarangkan, Kabupaten Klungkung, Bali 80716","Jl. Raya Takmung, Takmung, Kec. Banjarangkan, Kabupaten Klungkung",BALI,80716.0,Indonesia,36623962.0,,,-85.526.825,1.153.896.579,https://maps.google.com/?cid=0x0:0x835b189248ccecd7,
toko bangunan,Distributor Baja,TOKO BALI KLUNGKUNG,"Jl. Nakula, Semarapura Kangin, Kec. Klungkung, Kabupaten Klungkung, Bali 80716","Semarapura Kangin, Kec. Klungkung, Kabupaten Klungkung",BALI,80716.0,Indonesia,81236563756.0,,,-85.366.122,1.154.055.096,https://maps.google.com/?cid=0x0:0x73f0375dab3d9652,
toko bangunan,Toko Bahan Bangunan,Toko Gunaksa,"Jl. Diponegoro No.89, Semarapura Kelod Kangin, Kec. Klungkung, Kabupaten Klungkung, Bali 80715","Semarapura Kelod Kangin, Kec. Klungkung, Kabupaten Klungkung",BALI,80715.0,Indonesia,36621063.0,,,-85.355.996,1.154.058.149,https://maps.google.com/?cid=0x0:0xe937c0108af523c0,
toko bangunan,Toko Bahan Bangunan,UD. Beton Indah,"Jl. Rama No.8, Kamasan, Kec. Klungkung, Kabupaten Klungkung, Bali 80761","Kamasan, Kec. Klungkung, Kabupaten Klungkung",BALI,80761.0,Indonesia,36624075.0,,,-8.542.711,1.154.086.191,https://maps.google.com/?cid=0x0:0xda12a7ca4b79b10b,
toko bangunan,Bengkel Kaca,Marta kaca bangunan,"C9WW+2MQ, Satra, Kec. Klungkung, Kabupaten Klungkung, Bali 80716","Satra, Kec. Klungkung, Kabupaten Klungkung",BALI,80716.0,Indonesia,87754589418.0,,,-85.549.125,1.153.967.275,https://maps.google.com/?cid=0x0:0x1cb1c10cd51e2890,
toko bangunan,toko bangunan,Bali 80771,"Kec. Nusa Penida, Kabupaten Klungkung, Bali","Kabupaten Klungkung, Bali",BALI,,Indonesia,,,,-8.727.807,1.155.444.231,https://maps.google.com/?cid=0x0:0x1c00c5eb6016c020,
toko bangunan,Toko Bahan Bangunan,Toko Bangunan,"Jl. Nusa Indah No.53, Kutampi Kaler, Kec. Nusa Penida, Kabupaten Klungkung, Bali 80771","Kutampi Kaler, Kec. Nusa Penida, Kabupaten Klungkung",BALI,80771.0,Indonesia,81521914204.0,,,-86.741.429,1.155.502.138,https://maps.google.com/?cid=0x0:0xb118058723b9fd54,
toko bangunan,Toko Bahan Bangunan,Toko bangunan,"8HG4+GJC, Batununggul, Kec. Nusa Penida, Kabupaten Klungkung, Bali 80771","Batununggul, Kec. Nusa Penida, Kabupaten Klungkung",BALI,80771.0,Indonesia,85769908768.0,,,-86.736.902,1.155.565.093,https://maps.google.com/?cid=0x0:0x839551b289f1eb19,
toko bangunan,Toko Bahan Bangunan,Toko Fajar Baru,"8GFV+HFV, Jl. Ped-Buyuk, Kutampi Kaler, Kec. Nusa Penida, Kabupaten Klungkung, Bali 80771","Jl. Ped-Buyuk, Kutampi Kaler, Kec. Nusa Penida, Kabupaten Klungkung",BALI,80771.0,Indonesia,82144127778.0,,,-86.760.146,1.155.436.715,https://maps.google.com/?cid=0x0:0xb5bebd476a965034,
toko bangunan,Toko Bahan Bangunan,UD. LANCAR JAYA BANGUNAN,"8G8R+GRW, Kutampi Kaler, Kec. Nusa Penida, Kabupaten Klungkung, Bali 80771","Kutampi Kaler, Kec. Nusa Penida, Kabupaten Klungkung",BALI,80771.0,Indonesia,8179769711.0,,,-86.836.461,1.155.420.648,https://maps.google.com/?cid=0x0:0xb14284980835471f,
toko bangunan,Toko Bahan Bangunan,UD. Adhi Karya (Toko Bahan Bangunan),"Unnamed Road, Batununggul, Kec. Nusa Penida, Kabupaten Klungkung, Bali 80771","Batununggul, Kec. Nusa Penida, Kabupaten Klungkung",BALI,80771.0,Indonesia,85238083885.0,,,-8.674.978,1.155.658.225,https://maps.google.com/?cid=0x0:0x6839379a7afd9e78,
toko bangunan,Toko Bahan Bangunan,Toko Bangunan SMS,"8F52+VR4, Jalan Raya, Lembongan, Nusa Penida, Klungkung Regency, Bali 80771","Jalan Raya, Lembongan, Nusa Penida, Klungkung Regency",BALI,80771.0,Indonesia,81228652962.0,,,-86.903.669,1.154.520.707,https://maps.google.com/?cid=0x0:0xfe2bbabd134cfc6a,
toko bangunan,Toko Bahan Bangunan,Sms toko bangunan,"8C6R+WQC, Jungutbatu, Kec. Nusa Penida, Kabupaten Klungkung, Bali 80771","Jungutbatu, Kec. Nusa Penida, Kabupaten Klungkung",BALI,80771.0,Indonesia,2150867746.0,,,-86.876.781,115.441.892,https://maps.google.com/?cid=0x0:0xa734bcb1ffab0b7f,
toko bangunan,Toko Bahan Bangunan,Toko Bangunan dan Warung Sembako Nyana,"7FRV+MF4, Sakti, Kec. Nusa Penida, Kabupaten Klungkung, Bali 80771","Sakti, Kec. Nusa Penida, Kabupaten Klungkung",BALI,80771.0,Indonesia,85333867303.0,,,-87.081.005,1.154.931.257,https://maps.google.com/?cid=0x0:0x64ddb56df93de07e,
toko bangunan,Toko Bahan Bangunan,Nusa Pradana,"7G4C+M95, Br. Pengalusan, Klumpu, Kec. Nusa Penida, Kabupaten Klungkung, Bali 80771","Br. Pengalusan, Klumpu, Kec. Nusa Penida, Kabupaten Klungkung",BALI,80771.0,Indonesia,82282403347.0,,,-87.433.696,1.155.209.944,https://maps.google.com/?cid=0x0:0x37df07d902486e5f,
toko bangunan,toko bangunan,toko bangunan UD.MIRAH,"7G25+H53, Batumadeg, Kec. Nusa Penida, Kabupaten Klungkung, Bali 80771","Batumadeg, Kec. Nusa Penida, Kabupaten Klungkung",BALI,80771.0,Indonesia,85238063399.0,,,-87.486.127,1.155.079.141,https://maps.google.com/?cid=0x0:0x9e4a91fcc9d01eec,
toko bangunan,Toko Bahan Bangunan,Toko bangunan limo,"7GVV+84M, Jl. Buyuk Limo, Kutampi Kaler, Kec. Nusa Penida, Kabupaten Klungkung, Bali 80771","Jl. Buyuk Limo, Kutampi Kaler, Kec. Nusa Penida, Kabupaten Klungkung",BALI,80771.0,Indonesia,,,,-87.067.127,115.542.827,https://maps.google.com/?cid=0x0:0xbe418e27af387415,
toko bangunan,Toko Bahan Bangunan,UD sri jembawan,"Br. kutapang kauh, Jl. Ped - Buyuk, Batununggul, Kec. Nusa Penida, Kabupaten Klungkung, Bali 80771","Jl. Ped - Buyuk, Batununggul, Kec. Nusa Penida, Kabupaten Klungkung",BALI,80771.0,Indonesia,85857286081.0,,,-86.748.083,115.566.076,https://maps.google.com/?cid=0x0:0x379bd29a38b1ae62,
toko bangunan,Toko Bahan Bangunan,UD.Bangunan Pikat Mandiri,"7F8J+C2H, Bunga Mekar, Kec. Nusa Penida, Kabupaten Klungkung, Bali 80771","Bunga Mekar, Kec. Nusa Penida, Kabupaten Klungkung",BALI,80771.0,Indonesia,85338161697.0,,,-87.339.468,1.154.801.212,https://maps.google.com/?cid=0x0:0x44635659f74d2491,
toko bangunan,Toko Bahan Bangunan,UD. TAMAN SARI,"8C7R+3MQ, Unnamed Road, Jungutbatu, Kec. Nusa Penida, Kabupaten Klungkung, Bali 80771","Unnamed Road, Jungutbatu, Kec. Nusa Penida, Kabupaten Klungkung",BALI,80771.0,Indonesia,,,,-86.872.787,1.154.417.352,https://maps.google.com/?cid=0x0:0xcc87726a972bce28,
toko bangunan,Toko Bahan Bangunan,"Toko Material  WAHYU 2 """"","8HCC+XMC, Batununggul, Kec. Nusa Penida, Kabupaten Klungkung, Bali 80771","Batununggul, Kec. Nusa Penida, Kabupaten Klungkung",BALI,80771.0,Indonesia,81999277424.0,,,-8.677.555,115.571.655,https://maps.google.com/?cid=0x0:0x81889968cfd8ab48,
toko bangunan,Toko Bahan Bangunan,UD Bersama,"Nusa Penida, Banjar Bucang, Sakti, Kec. Nusa Penida, Kabupaten Klungkung, Bali 80771","Banjar Bucang, Sakti, Kec. Nusa Penida, Kabupaten Klungkung",BALI,80771.0,Indonesia,82354884505.0,,,-87.218.145,1.155.064.409,https://maps.google.com/?cid=0x0:0x2aa1185f71f12f47,
toko bangunan,Toko Bahan Bangunan,Batako Press Nusapenida,"Banjar pangkung gede, Batumadeg, Kec. Nusa Penida, Kabupaten Klungkung, Bali 80771","Batumadeg, Kec. Nusa Penida, Kabupaten Klungkung",BALI,80771.0,Indonesia,85238349331.0,,,-87.619.817,1.155.180.808,https://maps.google.com/?cid=0x0:0x3d5b6191e7e85982,
toko bangunan,Toko Bahan Bangunan,Batako Sagosa,"7GJ9+W7X, Desa, Banjar, Klumpu, Kec. Nusa Penida, Kabupaten Klungkung, Bali 80771","Desa, Banjar, Klumpu, Kec. Nusa Penida, Kabupaten Klungkung",BALI,80771.0,Indonesia,85239105106.0,,,-87.176.297,1.155.182.214,https://maps.google.com/?cid=0x0:0xeabde32aebf999bb,
toko bangunan,Toko Bahan Bangunan,UD EKA JAYA MAKMUR,"8C6Q+M7M Nusa Lembongan, Jungutbatu, Kec. Nusa Penida, Kabupaten Klungkung, Bali 80771","Jungutbatu, Kec. Nusa Penida, Kabupaten Klungkung",BALI,80771.0,Indonesia,82144737906.0,,,-86.882.951,1.154.381.739,https://maps.google.com/?cid=0x0:0x8d8ca103c99c39c,
