Category,Real Category,Business Name,Address,City,State,Postal Code,Country,Phone,Email,Website,Latitude,Longitude,Map Link,Details Link
perumahan,perumahan,Bali 80752,"Kec. Banjarangkan, Kabupaten Klungkung, Bali","Kabupaten Klungkung, Bali",BALI,,Indonesia,,,,-8.512.833,1.153.726.469,https://maps.google.com/?cid=0x0:0x1c00c5eb6016c000,
perumahan,Komplek perumahan,Griya Anyar Banjarangkan,"C9V9+8W5, Banjarangkan, Kec. Banjarangkan, Kabupaten Klungkung, Bali 80752","Banjarangkan, Kec. Banjarangkan, Kabupaten Klungkung",BALI,80752.0,Indonesia,,,,-85.555.222,115.369.659,https://maps.google.com/?cid=0x0:0xcf2b7b05a2ca6e67,
perumahan,Komplek perumahan,Rumah Bu Wayan Resi klungkung,"Jl. Nangka II No.18, Banjarangkan, Kec. Banjarangkan, Kabupaten Klungkung, Bali 80752","Banjarangkan, Kec. Banjarangkan, Kabupaten Klungkung",BALI,80752.0,Indonesia,,,,-85.525.831,1.153.694.011,https://maps.google.com/?cid=0x0:0x1694a79909c1b836,
perumahan,Komplek perumahan,DESA NYALIAN,"G928+8WG, Jl. Raya Desa Nyalian, Nyalian, Kec. Banjarangkan, Kabupaten Klungkung, Bali 80752","Jl. Raya Desa Nyalian, Nyalian, Kec. Banjarangkan, Kabupaten Klungkung",BALI,80752.0,Indonesia,,,,-84.991.751,1.153.673.305,https://maps.google.com/?cid=0x0:0x1ddce2b2e461500c,
perumahan,Peternak,BWW,"G957+2FG, Nyalian, Kec. Banjarangkan, Kabupaten Klungkung, Bali 80752","Nyalian, Kec. Banjarangkan, Kabupaten Klungkung",BALI,80752.0,Indonesia,,,,-84.924.432,1.153.637.011,https://maps.google.com/?cid=0x0:0x1002b15c9ae58989,
perumahan,Komplek perumahan,Hunian Dewa Tirta,"F9VF+P84, Getakan, Kec. Banjarangkan, Kabupaten Klungkung, Bali 80752","Getakan, Kec. Banjarangkan, Kabupaten Klungkung",BALI,80752.0,Indonesia,,,,-85.061.063,1.153.735.479,https://maps.google.com/?cid=0x0:0x23b8f07449842c8,
perumahan,Komplek perumahan,Rumah Isyana,"F9H6+GCH, Bakas, Kec. Banjarangkan, Kabupaten Klungkung, Bali 80752","Bakas, Kec. Banjarangkan, Kabupaten Klungkung",BALI,80752.0,Indonesia,,,,-85.220.298,1.153.614.429,https://maps.google.com/?cid=0x0:0x8da92b93005d30fe,
perumahan,Komplek perumahan,Jro Dauh Nangke Umanyar,"G926+M72, Selamat Di Br.Umanyar, Nyalian, Kec. Banjarangkan, Kabupaten Klungkung, Bali 80752","Selamat Di Br.Umanyar, Nyalian, Kec. Banjarangkan, Kabupaten Klungkung",BALI,80752.0,Indonesia,85161210140.0,,,-84.983.677,115.360.648,https://maps.google.com/?cid=0x0:0x4725f5982e183212,
perumahan,Komplek perumahan,Rumah mangku celempung,"F958+2G4, Gg. Cinta, Tusan, Kec. Banjarangkan, Kabupaten Klungkung, Bali 80752","Gg. Cinta, Tusan, Kec. Banjarangkan, Kabupaten Klungkung",BALI,80752.0,Indonesia,,,,-85.424.894,1.153.663.274,https://maps.google.com/?cid=0x0:0x2bf0461c4c3a907d,
perumahan,Komplek perumahan,Rumah dek jon,"G98G+73M, Timuhun, Kec. Banjarangkan, Kabupaten Klungkung, Bali 80752","Timuhun, Kec. Banjarangkan, Kabupaten Klungkung",BALI,80752.0,Indonesia,,,,-84.842.871,1.153.751.581,https://maps.google.com/?cid=0x0:0xe490caf633d2870e,
perumahan,Komplek perumahan,Rumah I Wayan Lasta Wirawan,"Banjarangkan, Kec. Banjarangkan, Kabupaten Klungkung, Bali 80752","Kec. Banjarangkan, Kabupaten Klungkung",BALI,80752.0,Indonesia,,,,-85.510.185,1.153.763.979,https://maps.google.com/?cid=0x0:0xe6b8dc78500d31d0,
perumahan,Komplek perumahan,Belong Village,"F9MG+4MX, Gang Melati, Getakan, Kec. Banjarangkan, Kabupaten Klungkung, Bali 80752","Gang Melati, Getakan, Kec. Banjarangkan, Kabupaten Klungkung",BALI,80752.0,Indonesia,,,,-85.171.337,1.153.767.474,https://maps.google.com/?cid=0x0:0x2dbf8b82620a4ad8,
perumahan,Pembangunan Perumahan,Gusde,"F9P5+R3R, Nyalian, Kec. Banjarangkan, Kabupaten Klungkung, Bali 80752","Nyalian, Kec. Banjarangkan, Kabupaten Klungkung",BALI,80752.0,Indonesia,,,,-85.128.891,1.153.576.278,https://maps.google.com/?cid=0x0:0xefbbe1ee7479f54f,
perumahan,Komplek perumahan,Sang Nyoman Putrayasa,"Jl. Nakula No.3, Nyalian, Kec. Banjarangkan, Kabupaten Klungkung, Bali 80752","Nyalian, Kec. Banjarangkan, Kabupaten Klungkung",BALI,80752.0,Indonesia,,,,-85.009.159,1.153.677.757,https://maps.google.com/?cid=0x0:0xe622a95c19970f97,
perumahan,Komplek perumahan,VILLA MANGKU SANTIYASA.,"G93F+9VQ, Aan, Kec. Banjarangkan, Kabupaten Klungkung, Bali 80752","Aan, Kec. Banjarangkan, Kabupaten Klungkung",BALI,80752.0,Indonesia,,,,-84.965.282,1.153.747.366,https://maps.google.com/?cid=0x0:0xfd9d3f9c105745a,
perumahan,Pembangunan Perumahan,PURI BATAN TANJUNG BANJARANGKAN,"Jl. Durian II No.1, Dusun koripan, tengah, Kec. Banjarangkan, Kabupaten Klungkung, Bali 80752","Dusun koripan, tengah, Kec. Banjarangkan, Kabupaten Klungkung",BALI,80752.0,Indonesia,85971864789.0,,,-85.522.608,1.153.783.855,https://maps.google.com/?cid=0x0:0x4e5570190e736cc7,
perumahan,Perhimpunan Pengembang Perumahan,Pondok Dauh klabah,"Getakan, Kec. Banjarangkan, Kabupaten Klungkung, Bali 80752","Kec. Banjarangkan, Kabupaten Klungkung",BALI,80752.0,Indonesia,,,,-85.018.737,1.153.725.054,https://maps.google.com/?cid=0x0:0x10d8428a3778246f,
perumahan,Komplek perumahan,Griya Kemenuh Banjarangkan,"F92C+GHG, Tusan, Kec. Banjarangkan, Kabupaten Klungkung, Bali 80752","Tusan, Kec. Banjarangkan, Kabupaten Klungkung",BALI,80752.0,Indonesia,,,,-85.485.836,1.153.722.169,https://maps.google.com/?cid=0x0:0xc98b8b7c9b1c978f,
perumahan,Kantor Pemerintah,Kayuan Desa Bakas,"F9H7+VVW, Bakas, Kec. Banjarangkan, Kabupaten Klungkung, Bali 80752","Bakas, Kec. Banjarangkan, Kabupaten Klungkung",BALI,80752.0,Indonesia,,,,-85.202.648,1.153.647.186,https://maps.google.com/?cid=0x0:0xb60a97c44e803885,
perumahan,Komplek perumahan,Rumah Jero Gede Tusan,"F958+GQ, Tusan, Kec. Banjarangkan, Kabupaten Klungkung, Bali 80752","Tusan, Kec. Banjarangkan, Kabupaten Klungkung",BALI,80752.0,Indonesia,,,,-85.411.644,1.153.669.782,https://maps.google.com/?cid=0x0:0x3c99fb7c72ad357,
perumahan,Pembangunan Perumahan,Perumahan Pesona Lepang Residence,"Takmung, Kec. Banjarangkan, Kabupaten Klungkung, Bali 80752","Kec. Banjarangkan, Kabupaten Klungkung",BALI,80752.0,Indonesia,,,,-85.646.968,1.153.823.806,https://maps.google.com/?cid=0x0:0x12eff9022126337e,
perumahan,Komplek perumahan,RUMAH IluhBaren,"F937+4PG, Jalan Raya, Banjarangkan, Kec. Banjarangkan, Kabupaten Klungkung, Bali 80515","Jalan Raya, Banjarangkan, Kec. Banjarangkan, Kabupaten Klungkung",BALI,80515.0,Indonesia,,,,-8.547.579,115.364.276,https://maps.google.com/?cid=0x0:0xa069fcc211aa70cc,
perumahan,Komplek perumahan,WAYAN EKA SANJAYA / LUH SUSI,"F92C+5PM, Banjarangkan, Kec. Banjarangkan, Kabupaten Klungkung, Bali 80752","Banjarangkan, Kec. Banjarangkan, Kabupaten Klungkung",BALI,80752.0,Indonesia,,,,-85.495.272,1.153.717.835,https://maps.google.com/?cid=0x0:0xaf84b8e489ffe9,
perumahan,Komplek perumahan,Wiryagobel,"F93G+FX5, Tusan, Kec. Banjarangkan, Kabupaten Klungkung, Bali 80752","Tusan, Kec. Banjarangkan, Kabupaten Klungkung",BALI,80752.0,Indonesia,,,,-8.546.359,1.153.774.772,https://maps.google.com/?cid=0x0:0x855be3bbba95b97a,
perumahan,Komplek perumahan,DODEL HOUSE,"F92C+5PM, Banjarangkan, Kec. Banjarangkan, Kabupaten Klungkung, Bali 80752","Banjarangkan, Kec. Banjarangkan, Kabupaten Klungkung",BALI,80752.0,Indonesia,,,,-85.495.663,1.153.720.189,https://maps.google.com/?cid=0x0:0xcfcc1587eaf42065,
perumahan,Perumahan,Pondok Bendesa Aban,"F9WF+4F9, Jl. Gn. Rata, Getakan, Kec. Banjarangkan, Kabupaten Klungkung, Bali 80752","Jl. Gn. Rata, Getakan, Kec. Banjarangkan, Kabupaten Klungkung",BALI,80752.0,Indonesia,,,,-8.504.562,115.372.444,https://maps.google.com/?cid=0x0:0xe609ad9fdef5314c,
perumahan,Pembangunan Perumahan,Sujendra House,"Takmung, Kec. Banjarangkan, Kabupaten Klungkung, Bali 80752","Kec. Banjarangkan, Kabupaten Klungkung",BALI,80752.0,Indonesia,,,,-85.555.603,1.153.862.325,https://maps.google.com/?cid=0x0:0x2b79f145f56ff5cc,
perumahan,Komplek perumahan,DEWA RAI Home,"F9JH+H96, Getakan, Kec. Banjarangkan, Kabupaten Klungkung, Bali 80752","Getakan, Kec. Banjarangkan, Kabupaten Klungkung",BALI,80752.0,Indonesia,85738817174.0,,,-85.185.877,1.153.783.791,https://maps.google.com/?cid=0x0:0x3ff19370306efa09,
perumahan,perumahan,Bali 80761,"Kec. Dawan, Kabupaten Klungkung, Bali","Kabupaten Klungkung, Bali",BALI,,Indonesia,,,,-85.234.217,1.154.378.152,https://maps.google.com/?cid=0x0:0x1c00c5eb6016c010,
perumahan,Komplek perumahan,Perumahan,"FCCG+773, Unnamed Road, Sulang, Dawan, Klungkung Regency, Bali 80761","Unnamed Road, Sulang, Dawan, Klungkung Regency",BALI,80761.0,Indonesia,,,,-85.293.605,1.154.256.823,https://maps.google.com/?cid=0x0:0xae91cfccd47e6cba,
perumahan,Pembangunan Perumahan,Griya tegal sari (Dawan),"Jl. Sawo Kabeh No.3, Dawan Klod, Kec. Dawan, Kabupaten Klungkung, Bali 80761","Dawan Klod, Kec. Dawan, Kabupaten Klungkung",BALI,80761.0,Indonesia,85792152420.0,,,-85.374.032,1.154.453.341,https://maps.google.com/?cid=0x0:0x371363066df030ac,
perumahan,Inspektur Tempat Tinggal,Griya Jumpung Kawan,"FC6V+MGP, Komplek Griya, Dawan Klod, Kec. Dawan, Kabupaten Klungkung, Bali 80761","Komplek Griya, Dawan Klod, Kec. Dawan, Kabupaten Klungkung",BALI,80761.0,Indonesia,,,,-85.382.872,115.443.834,https://maps.google.com/?cid=0x0:0x890d12f01a0592b0,
perumahan,Komplek perumahan,Griya Andakasa,"Jl. Giri Wisma No.14, Dawan Kaler, Kec. Dawan, Kabupaten Klungkung, Bali 80761","Dawan Kaler, Kec. Dawan, Kabupaten Klungkung",BALI,80761.0,Indonesia,81805400517.0,,,-85.288.966,1.154.445.235,https://maps.google.com/?cid=0x0:0x92987596ba87537b,
perumahan,Pembangunan Perumahan,Jero Pande Dawan Klod,"Jl. Giri Wisma No.59, Dawan Klod, Kec. Dawan, Kabupaten Klungkung, Bali 80761","Dawan Klod, Kec. Dawan, Kabupaten Klungkung",BALI,80761.0,Indonesia,81558939247.0,,,-85.344.795,1.154.441.616,https://maps.google.com/?cid=0x0:0x1f28e3bcc5f384cc,
perumahan,Pembangunan Perumahan,Subawa Home,"FCFP+3W9, Gunaksa, Kec. Dawan, Kabupaten Klungkung, Bali 80761","Gunaksa, Kec. Dawan, Kabupaten Klungkung",BALI,80761.0,Indonesia,,,,-85.273.356,1.154.373.644,https://maps.google.com/?cid=0x0:0xf428e2d2e1049fdc,
perumahan,Pembangunan Perumahan,Dadong Surti home,"FCFW+83G, Dawan Kaler, Kec. Dawan, Kabupaten Klungkung, Bali 80761","Dawan Kaler, Kec. Dawan, Kabupaten Klungkung",BALI,80761.0,Indonesia,,,,-85.266.785,1.154.451.983,https://maps.google.com/?cid=0x0:0x9855ddf1a87374df,
perumahan,Komplek perumahan,Rumah Guru Wayan Teken,"FC9V+XH8, Dawan Kaler, Kec. Dawan, Kabupaten Klungkung, Bali 80761","Dawan Kaler, Kec. Dawan, Kabupaten Klungkung",BALI,80761.0,Indonesia,,,,-85.300.938,1.154.439.507,https://maps.google.com/?cid=0x0:0xcd4fd3a4e888ada3,
perumahan,Komplek perumahan,Rumah Pak Nengah Wirna,"Jl. Giri Wisma, Dawan Kaler, Kec. Dawan, Kabupaten Klungkung, Bali 80761","Dawan Kaler, Kec. Dawan, Kabupaten Klungkung",BALI,80761.0,Indonesia,81246433998.0,,,-85.264.672,1.154.456.994,https://maps.google.com/?cid=0x0:0x1b7f4ac56c285f56,
perumahan,Komplek perumahan,Tut,"FC7M+PJH, Unnamed Road, Gunaksa, Kec. Dawan, Kabupaten Klungkung, Bali 80761","Unnamed Road, Gunaksa, Kec. Dawan, Kabupaten Klungkung",BALI,80761.0,Indonesia,,,,-85.356.815,1.154.341.056,https://maps.google.com/?cid=0x0:0x3380d8d69fd8fd58,
perumahan,Perumahan,Rumah I Nengah Mundra,"FCFP+3W9, Jl. Raya Babung, Gunaksa, Kec. Dawan, Kabupaten Klungkung, Bali 80761","Jl. Raya Babung, Gunaksa, Kec. Dawan, Kabupaten Klungkung",BALI,80761.0,Indonesia,,,,-85.273.296,1.154.373.655,https://maps.google.com/?cid=0x0:0x72d0401cb7f62e96,
perumahan,Komplek perumahan,Sincan House,"FC9F+H6R, Paksebali, Kec. Dawan, Kabupaten Klungkung, Bali 80761","Paksebali, Kec. Dawan, Kabupaten Klungkung",BALI,80761.0,Indonesia,,,,-85.307.292,1.154.232.343,https://maps.google.com/?cid=0x0:0xe7ba763a0e5aa61e,
perumahan,Pembangunan Perumahan,Rumah Mangku Rana,"FFP3+329, Besan, Kec. Dawan, Kabupaten Klungkung, Bali 80761","Besan, Kec. Dawan, Kabupaten Klungkung",BALI,80761.0,Indonesia,,,,-851.483,1.154.526.241,https://maps.google.com/?cid=0x0:0xedc5b4fee92b0050,
perumahan,Komplek perumahan,Narie family home,"FC5G+Q5C, Jl. Raya Gunaksa, Gunaksa, Kec. Dawan, Kabupaten Klungkung, Bali 80761","Jl. Raya Gunaksa, Gunaksa, Kec. Dawan, Kabupaten Klungkung",BALI,80761.0,Indonesia,,,,-8.540.569,115.425.405,https://maps.google.com/?cid=0x0:0xe47088a7053f4174,
perumahan,Pembangunan Perumahan,Perumahan MBR Pikat Mega Asri,"FFF9+X86, Br, Gelogor, Pikat, Kec. Dawan, Kabupaten Klungkung, Bali 80761","Br, Gelogor, Pikat, Kec. Dawan, Kabupaten Klungkung",BALI,80761.0,Indonesia,3665551384.0,,,-85.250.938,1.154.682.757,https://maps.google.com/?cid=0x0:0x78d638c851cb7a32,
perumahan,Komplek perumahan,Ian rawan house,"FFP3+329, Gang nangka banjar. Klodan, Besan, Kec. Dawan, Kabupaten Klungkung, Bali 80761","Gang nangka banjar. Klodan, Besan, Kec. Dawan, Kabupaten Klungkung",BALI,80761.0,Indonesia,,,,-851.483,1.154.526.241,https://maps.google.com/?cid=0x0:0xb10e695ae71085d,
perumahan,Komplek perumahan,Arjuna home,"FC8W+X2W, Depan Banjar sengguan, Dawan Kaler, Kec. Dawan, Kabupaten Klungkung, Bali 80761","Depan Banjar sengguan, Dawan Kaler, Kec. Dawan, Kabupaten Klungkung",BALI,80761.0,Indonesia,85857399848.0,,,-85.325.093,1.154.450.772,https://maps.google.com/?cid=0x0:0xc39b32f667ff799c,
perumahan,Komplek perumahan,Agus adnyana kubu,"FCGW+Q5J, Jl. Dawan Kaler, Dawan Kaler, Kec. Dawan, Kabupaten Klungkung, Bali 80761","Jl. Dawan Kaler, Dawan Kaler, Kec. Dawan, Kabupaten Klungkung",BALI,80761.0,Indonesia,,,,-85.230.483,115.445.376,https://maps.google.com/?cid=0x0:0x1dbd6ab4edeb0c32,
perumahan,Perumahan rakyat,Karang Kompyang Pulasari,"FC9V+PW3, Jl. Sawo Kabeh, Banjar Metulis, Dawan Kaler, Kec. Dawan, Kabupaten Klungkung, Bali 80761","Jl. Sawo Kabeh, Banjar Metulis, Dawan Kaler, Kec. Dawan, Kabupaten Klungkung",BALI,80761.0,Indonesia,,,,-85.307.328,115.444.811,https://maps.google.com/?cid=0x0:0xc8de844153e0e158,
perumahan,Komplek perumahan,Semanggi Grand City,"Unnamed Road, Paksebali, Kec. Dawan, Kabupaten Klungkung, Bali 80761","Paksebali, Kec. Dawan, Kabupaten Klungkung",BALI,80761.0,Indonesia,,,,-85.291.618,1.154.240.122,https://maps.google.com/?cid=0x0:0x393b67a23a681963,
perumahan,Komplek perumahan,sudiarsana home,"FC4P+XC2, Jl. Abian Kaja, Gunaksa, Kec. Dawan, Kabupaten Klungkung, Bali 80761","Jl. Abian Kaja, Gunaksa, Kec. Dawan, Kabupaten Klungkung",BALI,80761.0,Indonesia,,,,-85.426.236,115.436.007,https://maps.google.com/?cid=0x0:0x88d3af5e2c8883aa,
perumahan,Pura,Home Batan Jabon,"FC9M+JQ4, Jl. Raya Babung, Gunaksa, Kec. Dawan, Kabupaten Klungkung, Bali 80761","Jl. Raya Babung, Gunaksa, Kec. Dawan, Kabupaten Klungkung",BALI,80761.0,Indonesia,,,,-85.307.139,11.543.423,https://maps.google.com/?cid=0x0:0xcc3a3f080bbd1da,
perumahan,Komplek perumahan,Pratisentana guru sweca,"FC9V+WWV, Jl. Sawo Kabeh, Dawan Kaler, Kec. Dawan, Kabupaten Klungkung, Bali 80761","Jl. Sawo Kabeh, Dawan Kaler, Kec. Dawan, Kabupaten Klungkung",BALI,80761.0,Indonesia,,,,-85.301.254,1.154.447.825,https://maps.google.com/?cid=0x0:0x7e905dd730538004,
perumahan,perumahan,Bali 80711,"Kec. Klungkung, Kabupaten Klungkung, Bali","Kabupaten Klungkung, Bali",BALI,,Indonesia,,,,-8.527.468,1.153.978.272,https://maps.google.com/?cid=0x0:0x1c00c5eb6016bf90,
perumahan,Komplek perumahan,Rumah gung Wedya panca dewi,"Jl. Kartini Gg. 1 No.14, Semarapura Tengah, Kec. Klungkung, Kabupaten Klungkung, Bali 80711","Semarapura Tengah, Kec. Klungkung, Kabupaten Klungkung",BALI,80711.0,Indonesia,,,,-85.335.916,1.153.992.678,https://maps.google.com/?cid=0x0:0xb08bd42f4c8fbe5a,
perumahan,Komplek perumahan,Perumahan Kresna Klungkung,"FC54+F79, Jl. Kresna, Semarapura Kangin, Kec. Klungkung, Kabupaten Klungkung, Bali 80761","Jl. Kresna, Semarapura Kangin, Kec. Klungkung, Kabupaten Klungkung",BALI,80761.0,Indonesia,,,,-85.413.392,1.154.057.276,https://maps.google.com/?cid=0x0:0xe8d620f41d313f77,
perumahan,Pembangunan Perumahan,Perumahan Dewi Sartika No.18,"FC92+HGF, perumahan di dekat Jl. Dewi Sartika, Semarapura Tengah, Kec. Klungkung, Kabupaten Klungkung, Bali 80711","perumahan di dekat Jl. Dewi Sartika, Semarapura Tengah, Kec. Klungkung, Kabupaten Klungkung",BALI,80711.0,Indonesia,83115815267.0,,,-85.310.727,1.154.013.047,https://maps.google.com/?cid=0x0:0x401722d30dddc3bb,
perumahan,Komplek perumahan,Rumdis Pemkab Klungkung,"Jl. Untung Suropati No.3a, Semarapura Tengah, Kec. Klungkung, Kabupaten Klungkung, Bali 80711","Semarapura Tengah, Kec. Klungkung, Kabupaten Klungkung",BALI,80711.0,Indonesia,,,,-85.353.896,1.153.998.213,https://maps.google.com/?cid=0x0:0x6687b67ad9e6c7e4,
perumahan,Komplek perumahan,Rumah Anak Agung Gde Ngurah Wedya,"F98X+GPR, Jl. Kartini, Semarapura Tengah, Kec. Klungkung, Kabupaten Klungkung, Bali 80711","Jl. Kartini, Semarapura Tengah, Kec. Klungkung, Kabupaten Klungkung",BALI,80711.0,Indonesia,,,,-85.335.727,115.399.194,https://maps.google.com/?cid=0x0:0x9af3fffe3487feff,
perumahan,Komplek perumahan,Rumah Kak Klungkung alm. Md. Djiwa,"Jl. Plawa No.6, Semarapura Kelod, Kec. Klungkung, Kabupaten Klungkung, Bali 80711","Semarapura Kelod, Kec. Klungkung, Kabupaten Klungkung",BALI,80711.0,Indonesia,,,,-85.405.471,115.401.828,https://maps.google.com/?cid=0x0:0x45d2116b26cd12,
perumahan,Pembangunan Perumahan,Kedatuan Tangsi,"Gg. Nakula No.13, Semarapura Kaja, Kec. Klungkung, Kabupaten Klungkung, Bali 80711","Semarapura Kaja, Kec. Klungkung, Kabupaten Klungkung",BALI,80711.0,Indonesia,85792286428.0,,,-85.259.164,1.153.987.793,https://maps.google.com/?cid=0x0:0x8b089a92bb753503,
perumahan,Komplek perumahan,Risky Hendra Dirty Bubble,"Jl. Hasanudin No.10, Semarapura Kaja, Kec. Klungkung, Kabupaten Klungkung, Bali 80711","Semarapura Kaja, Kec. Klungkung, Kabupaten Klungkung",BALI,80711.0,Indonesia,,,,-8.524.863,1.153.977.034,https://maps.google.com/?cid=0x0:0xa26798cc3f60f590,
perumahan,Perhimpunan Pengembang Perumahan,Tempat kumpul Go Racing,"FCF2+526, Semarapura Tengah, Kec. Klungkung, Kabupaten Klungkung, Bali 80711","Semarapura Tengah, Kec. Klungkung, Kabupaten Klungkung",BALI,80711.0,Indonesia,,,,-85.270.766,1.154.000.499,https://maps.google.com/?cid=0x0:0x9ac14eeb3dd9e581,
perumahan,perumahan,Home,"Jl. Ahmad Yani gang bima No.15, besang kangin, Kec. Klungkung, Kabupaten Klungkung, Bali","Kabupaten Klungkung, Bali",BALI,,Indonesia,,,,-85.237.384,1.154.004.775,https://maps.google.com/?cid=0x0:0xe4a3d7f08df7c9a6,
perumahan,Komplek perumahan,Rumah Prabhu,"Jl. Sakura No.7A, Semarapura Kelod, Kec. Klungkung, Kabupaten Klungkung, Bali 80716","Semarapura Kelod, Kec. Klungkung, Kabupaten Klungkung",BALI,80716.0,Indonesia,,,,-85.425.994,1.153.980.432,https://maps.google.com/?cid=0x0:0x6d62ac25c9346c35,
perumahan,Guest house,Puri Den Pasar Klungkung,"FC73+CJ6, Jl. Puputan, Semarapura Kangin, Kec. Klungkung, Kabupaten Klungkung, Bali 80111","Jl. Puputan, Semarapura Kangin, Kec. Klungkung, Kabupaten Klungkung",BALI,80111.0,Indonesia,,,,-85.364.586,1.154.040.823,https://maps.google.com/?cid=0x0:0x7bc0933ab0ddbb9c,
perumahan,Komplek perumahan,Tangkas Home,"Jl. Kebo Iwa Gg. I No.33, Semarapura Tengah, Kec. Klungkung, Kabupaten Klungkung, Bali 80711","Semarapura Tengah, Kec. Klungkung, Kabupaten Klungkung",BALI,80711.0,Indonesia,,,,-85.325.201,1.153.985.324,https://maps.google.com/?cid=0x0:0x9e0b01695cd36f0c,
perumahan,Komplek perumahan,"Puri Akah, Klungkung","FCP2+7MF, Jl. Raya Besakih, Akah, Kec. Klungkung, Kabupaten Klungkung, Bali 80716","Jl. Raya Besakih, Akah, Kec. Klungkung, Kabupaten Klungkung",BALI,80716.0,Indonesia,,,,-85.143.123,1.154.016.764,https://maps.google.com/?cid=0x0:0x874f2eae236ef6de,
perumahan,Gedung Apartemen,Rumah Pak Mangku Sumerta,"F94X+H3R, Jl. Hawai I, Semarapura Kelod, Kec. Klungkung, Kabupaten Klungkung, Bali 80716","Jl. Hawai I, Semarapura Kelod, Kec. Klungkung, Kabupaten Klungkung",BALI,80716.0,Indonesia,,,,-85.435.006,11.539.763,https://maps.google.com/?cid=0x0:0x99009d53bf329f70,
perumahan,Komplek perumahan,Rumah Agus,"F95V+8JJ, Jl. Flamboyan, Semarapura Kelod, Kec. Klungkung, Kabupaten Klungkung, Bali 80716","Jl. Flamboyan, Semarapura Kelod, Kec. Klungkung, Kabupaten Klungkung",BALI,80716.0,Indonesia,,,,-85.417.596,1.153.940.928,https://maps.google.com/?cid=0x0:0x1141b2a7dcf4e47b,
perumahan,Komplek perumahan,Rumah WG,"F97X+58C, Gg. III, Semarapura Kelod, Kec. Klungkung, Kabupaten Klungkung, Bali 80711","Gg. III, Semarapura Kelod, Kec. Klungkung, Kabupaten Klungkung",BALI,80711.0,Indonesia,,,,-8.537.069,11.539.827,https://maps.google.com/?cid=0x0:0xd0a52b4615f14c36,
perumahan,Kantor Perusahaan,Mess Kabupaten Klungkung,"F97X+VW8, Semarapura Kelod, Kec. Klungkung, Kabupaten Klungkung, Bali","Kabupaten Klungkung, Bali",BALI,,Indonesia,,,,-85.353.956,1.153.994.515,https://maps.google.com/?cid=0x0:0xd280f7c9405a3095,
perumahan,Rumah Kayu,rumah tata,"Jl. Yos Sudarso gang 2 no 11Semarapura, Tengah, Kec. Klungkung, Kabupaten Klungkung, Bali 80761","Tengah, Kec. Klungkung, Kabupaten Klungkung",BALI,80761.0,Indonesia,,,,-85.333.499,1.154.024.254,https://maps.google.com/?cid=0x0:0xd6d7900ed3738393,
perumahan,Komplek perumahan,Semanggi Grand City,"Unnamed Road, Paksebali, Kec. Dawan, Kabupaten Klungkung, Bali 80761","Paksebali, Kec. Dawan, Kabupaten Klungkung",BALI,80761.0,Indonesia,,,,-85.291.618,1.154.240.122,https://maps.google.com/?cid=0x0:0x393b67a23a681963,
perumahan,Komplek perumahan,KLINTEN HOUSE,"Jl. Ngurah Rai No.99, Semarapura Kauh, Kec. Klungkung, Kabupaten Klungkung, Bali 80716","Semarapura Kauh, Kec. Klungkung, Kabupaten Klungkung",BALI,80716.0,Indonesia,,,,-85.297.076,11.539.781,https://maps.google.com/?cid=0x0:0x3467d2326a273545,
perumahan,Komplek perumahan,Rumah Nyoman Suma Arsana,"Jl. Arjuna Gg. III No.2, Semarapura Kelod Kangin, Kec. Klungkung, Kabupaten Klungkung, Bali 80761","Semarapura Kelod Kangin, Kec. Klungkung, Kabupaten Klungkung",BALI,80761.0,Indonesia,,,,-8.537.322,1.154.049.822,https://maps.google.com/?cid=0x0:0x41bda224241c5cd0,
perumahan,Pembangunan Perumahan,pak dewa suteja,"FC82+CXJ, Jl. Yos Sudarso, Semarapura Tengah, Kec. Klungkung, Kabupaten Klungkung, Bali 80761","Jl. Yos Sudarso, Semarapura Tengah, Kec. Klungkung, Kabupaten Klungkung",BALI,80761.0,Indonesia,,,,-8.533.913,1.154.023.848,https://maps.google.com/?cid=0x0:0xeba435dd626a03d2,
perumahan,Komplek perumahan,Rumah Dinas Kab. Klungkung,"F97X+VW8, Semarapura Kelod, Kec. Klungkung, Kabupaten Klungkung, Bali","Kabupaten Klungkung, Bali",BALI,,Indonesia,,,,-85.353.857,1.153.998.686,https://maps.google.com/?cid=0x0:0x5dcac92b43a541fd,
perumahan,Otoritas Perumahan,Ketut sindia,"F96W+WM5, Jl. Jempiring, Semarapura Kelod, Kec. Klungkung, Kabupaten Klungkung, Bali","Kabupaten Klungkung, Bali",BALI,,Indonesia,,,,-85.377.265,11.539.672,https://maps.google.com/?cid=0x0:0x4de7e3316c2ce6e9,
perumahan,perumahan,Bali 80712,"Kec. Klungkung, Kabupaten Klungkung, Bali","Kabupaten Klungkung, Bali",BALI,,Indonesia,,,,-85.253.594,1.153.919.027,https://maps.google.com/?cid=0x0:0x1c00c5eb6016bfa0,
perumahan,perumahan,Home,"Jl. Ahmad Yani gang bima No.15, besang kangin, Kec. Klungkung, Kabupaten Klungkung, Bali","Kabupaten Klungkung, Bali",BALI,,Indonesia,,,,-85.237.384,1.154.004.775,https://maps.google.com/?cid=0x0:0xe4a3d7f08df7c9a6,
perumahan,Pembangunan Perumahan,Kedatuan Tangsi,"Gg. Nakula No.13, Semarapura Kaja, Kec. Klungkung, Kabupaten Klungkung, Bali 80711","Semarapura Kaja, Kec. Klungkung, Kabupaten Klungkung",BALI,80711.0,Indonesia,85792286428.0,,,-85.259.164,1.153.987.793,https://maps.google.com/?cid=0x0:0x8b089a92bb753503,
perumahan,Komplek perumahan,KLINTEN HOUSE,"Jl. Ngurah Rai No.99, Semarapura Kauh, Kec. Klungkung, Kabupaten Klungkung, Bali 80716","Semarapura Kauh, Kec. Klungkung, Kabupaten Klungkung",BALI,80716.0,Indonesia,,,,-85.297.076,11.539.781,https://maps.google.com/?cid=0x0:0x3467d2326a273545,
perumahan,Komplek perumahan,Dcl home,"F9FW+M3W, Jl. Setia Budi, besang, kawan, Kec. Klungkung, Kabupaten Klungkung, Bali","Kabupaten Klungkung, Bali",BALI,,Indonesia,,,,-85.257.709,1.153.951.985,https://maps.google.com/?cid=0x0:0x39b166ac27002cac,
perumahan,Komplek perumahan,Risky Hendra Dirty Bubble,"Jl. Hasanudin No.10, Semarapura Kaja, Kec. Klungkung, Kabupaten Klungkung, Bali 80711","Semarapura Kaja, Kec. Klungkung, Kabupaten Klungkung",BALI,80711.0,Indonesia,,,,-8.524.863,1.153.977.034,https://maps.google.com/?cid=0x0:0xa26798cc3f60f590,
perumahan,Komplek perumahan,Home briz,"F9GW+CFJ, Jl. Setia Budi I, Semarapura Kaja, Kec. Klungkung, Kabupaten Klungkung, Bali 80712","Jl. Setia Budi I, Semarapura Kaja, Kec. Klungkung, Kabupaten Klungkung",BALI,80712.0,Indonesia,,,,-85.239.079,1.153.961.367,https://maps.google.com/?cid=0x0:0x9ab0403a400c5173,
perumahan,Perhimpunan Pengembang Perumahan,Tempat kumpul Go Racing,"FCF2+526, Semarapura Tengah, Kec. Klungkung, Kabupaten Klungkung, Bali 80711","Semarapura Tengah, Kec. Klungkung, Kabupaten Klungkung",BALI,80711.0,Indonesia,,,,-85.270.766,1.154.000.499,https://maps.google.com/?cid=0x0:0x9ac14eeb3dd9e581,
perumahan,Perhimpunan Pengembang Perumahan,INDRA MESYA HOUSE,"Jl. Ngurah Rai No.99, Semarapura Kauh, Kec. Klungkung, Kabupaten Klungkung, Bali 80716","Semarapura Kauh, Kec. Klungkung, Kabupaten Klungkung",BALI,80716.0,Indonesia,,,,-85.296.773,1.153.977.817,https://maps.google.com/?cid=0x0:0xbdc022a38864b14b,
perumahan,Pembangunan Perumahan,Ayuda House,"F9JW+36Q, Kavling susut, Jl. DI Panjaitan, desa besangkawan, kecamatan semarapura, Kabupaten Klungkung, Bali","Kabupaten Klungkung, Bali",BALI,,Indonesia,,,,-85.197.777,1.153.956.079,https://maps.google.com/?cid=0x0:0xc921ed49ccc2a3bd,
perumahan,Pembangunan Perumahan,Kalya House,"F9HX+22F, Jl. MH Thamrin, Semarapura Kaja, Kec. Klungkung, Kabupaten Klungkung, Bali 80712","Jl. MH Thamrin, Semarapura Kaja, Kec. Klungkung, Kabupaten Klungkung",BALI,80712.0,Indonesia,,,,-85.224.364,1.153.975.601,https://maps.google.com/?cid=0x0:0xfb923f74c459c621,
perumahan,Komplek perumahan,Anggangi,"F9HR+PMR, Manduang, Kec. Klungkung, Kabupaten Klungkung, Bali","Kabupaten Klungkung, Bali",BALI,,Indonesia,,,,-85.202.429,1.153.916.242,https://maps.google.com/?cid=0x0:0x3a682100cd6ae9eb,
perumahan,Komplek perumahan,Rumah AbyTaSena,"Manduang, Kec. Klungkung, Kabupaten Klungkung, Bali","Kabupaten Klungkung, Bali",BALI,,Indonesia,,,,-85.201.547,1.153.914.723,https://maps.google.com/?cid=0x0:0xb5ce87eb829ab3ce,
perumahan,Komplek perumahan,Adit Home,"Jl. Ahmad Yani No.4, Semarapura Kaja, Kec. Klungkung, Kabupaten Klungkung, Bali 80711","Semarapura Kaja, Kec. Klungkung, Kabupaten Klungkung",BALI,80711.0,Indonesia,,,,-85.256.857,1.154.022.228,https://maps.google.com/?cid=0x0:0x45daebf984575101,
perumahan,Komplek perumahan,Rumah Yogi,"F9CV+9R4, Jl. Setia Budi, Semarapura Kauh, Kec. Klungkung, Kabupaten Klungkung, Bali","Kabupaten Klungkung, Bali",BALI,,Indonesia,,,,-85.294.991,115.394.563,https://maps.google.com/?cid=0x0:0x63aa7c2be9b6e8c5,
perumahan,Komplek perumahan,depawuzzhere,"Gg. Dewi Draupadi No.19, Semarapura Kaja, Kec. Klungkung, Kabupaten Klungkung, Bali 80711","Semarapura Kaja, Kec. Klungkung, Kabupaten Klungkung",BALI,80711.0,Indonesia,,,,-85.246.014,1.153.980.537,https://maps.google.com/?cid=0x0:0x26d88967230b964b,
perumahan,Komplek perumahan,Wardana House,"F9FW+R24, Jl. Setia Budi, Semarapura Kaja, Kec. Klungkung, Kabupaten Klungkung, Bali","Kabupaten Klungkung, Bali",BALI,,Indonesia,,,,-8.525.396,1.153.952.456,https://maps.google.com/?cid=0x0:0xcb09b426239dde9,
perumahan,Komplek perumahan,rumah pak tut,"F9GW+GPF, Jl. MH Thamrin, Semarapura Kaja, Kec. Klungkung, Kabupaten Klungkung, Bali","Kabupaten Klungkung, Bali",BALI,,Indonesia,,,,-85.236.913,1.153.968.016,https://maps.google.com/?cid=0x0:0xf89bc7a5e92a1365,
perumahan,Pembangunan Perumahan,radit's house,"F9GW+V59, Besan, Klungkung, Klungkung Regency, Bali","Kabupaten Klungkung, Bali",BALI,,Indonesia,,,,-8.522.848,1.153.954.906,https://maps.google.com/?cid=0x0:0x35fa694a3aa56266,
perumahan,Pembangunan Perumahan,I Made Kantor,"Jl. Dewi Sartika III No.12, Semarapura Kelod, Kec. Klungkung, Kabupaten Klungkung, Bali 80761","Semarapura Kelod, Kec. Klungkung, Kabupaten Klungkung",BALI,80761.0,Indonesia,,,,-85.303.227,1.154.013.971,https://maps.google.com/?cid=0x0:0x76b32e2f78bd1f72,
perumahan,Komplek perumahan,Narmada Family,"F9CV+WWH, Jl. Setia Budi, Semarapura Kauh, Kec. Klungkung, Kabupaten Klungkung, Bali","Kabupaten Klungkung, Bali",BALI,,Indonesia,,,,-85.276.877,1.153.948.452,https://maps.google.com/?cid=0x0:0x8d8ca302b015fb56,
perumahan,Komplek perumahan,Semanggi Grand City,"Unnamed Road, Paksebali, Kec. Dawan, Kabupaten Klungkung, Bali 80761","Paksebali, Kec. Dawan, Kabupaten Klungkung",BALI,80761.0,Indonesia,,,,-85.291.618,1.154.240.122,https://maps.google.com/?cid=0x0:0x393b67a23a681963,
perumahan,perumahan,Bali 80713,"Tihingan, Kec. Banjarangkan, Kabupaten Klungkung, Bali","Kabupaten Klungkung, Bali",BALI,,Indonesia,,,,-8.533.129,1.153.889.403,https://maps.google.com/?cid=0x0:0x1c00c5eb6016bfb0,
perumahan,Komplek perumahan,Mardana House,"F98P+848, Tihingan, Kec. Banjarangkan, Kabupaten Klungkung, Bali 80713","Tihingan, Kec. Banjarangkan, Kabupaten Klungkung",BALI,80713.0,Indonesia,,,,-85.342.044,1.153.853.373,https://maps.google.com/?cid=0x0:0x10b31c317b206c60,
perumahan,Komplek perumahan,Perumahan Kresna Klungkung,"FC54+F79, Jl. Kresna, Semarapura Kangin, Kec. Klungkung, Kabupaten Klungkung, Bali 80761","Jl. Kresna, Semarapura Kangin, Kec. Klungkung, Kabupaten Klungkung",BALI,80761.0,Indonesia,,,,-85.413.392,1.154.057.276,https://maps.google.com/?cid=0x0:0xe8d620f41d313f77,
perumahan,Komplek perumahan,Deyyoooo,"Jl. Pudak Gg. 2 No.6, Semarapura Kauh, Kec. Klungkung, Kabupaten Klungkung, Bali 80713","Semarapura Kauh, Kec. Klungkung, Kabupaten Klungkung",BALI,80713.0,Indonesia,,,,-85.350.866,1.153.945.991,https://maps.google.com/?cid=0x0:0x23d2ab8fa22360f9,
perumahan,Pembangunan Perumahan,Rumah bape Linggih.,"F9FH+7FM, Dusun beneng, Getakan, Kec. Banjarangkan, Kabupaten Klungkung, Bali","Kabupaten Klungkung, Bali",BALI,,Indonesia,,,,-85.267.821,1.153.786.789,https://maps.google.com/?cid=0x0:0xf43fe8d9bae509e2,
perumahan,Komplek perumahan,Rumah Rai Mayoga,"BTN Penasan, Jl. Watu Renggong No.26, Semarapura Kauh, Klungkung, Klungkung Regency, Bali","Kabupaten Klungkung, Bali",BALI,,Indonesia,,,,-85.328.635,1.153.859.157,https://maps.google.com/?cid=0x0:0xcf6bf77b2da72067,
perumahan,Pembangunan Perumahan,F14,"Jl. Flamboyan No.14, Semarapura Kauh, Kec. Klungkung, Kabupaten Klungkung, Bali 80713","Semarapura Kauh, Kec. Klungkung, Kabupaten Klungkung",BALI,80713.0,Indonesia,,,,-85.354.845,1.153.962.267,https://maps.google.com/?cid=0x0:0x10bb253c5d7b9276,
perumahan,Komplek perumahan,Wike,"F98V+7M4, Semarapura Kauh, Kec. Klungkung, Kabupaten Klungkung, Bali 80711","Semarapura Kauh, Kec. Klungkung, Kabupaten Klungkung",BALI,80711.0,Indonesia,,,,-85.343.596,1.153.942.045,https://maps.google.com/?cid=0x0:0xb26263b74ec19550,
perumahan,Perhimpunan Pengembang Perumahan,Jero yoga,"F98P+2Q6, Unnamed Road, Tihingan, Kec. Banjarangkan, Kabupaten Klungkung, Bali 80713","Unnamed Road, Tihingan, Kec. Banjarangkan, Kabupaten Klungkung",BALI,80713.0,Indonesia,,,,-85.349.619,115.386.877,https://maps.google.com/?cid=0x0:0xa2bcdbd3a819f523,
perumahan,Komplek perumahan,Rumah Dana,"F99J+RX8, Jl. Raya Tihingan, Tihingan, Kec. Banjarangkan, Kabupaten Klungkung, Bali 80716","Jl. Raya Tihingan, Tihingan, Kec. Banjarangkan, Kabupaten Klungkung",BALI,80716.0,Indonesia,,,,-8.530.455,1.153.824.681,https://maps.google.com/?cid=0x0:0x37d242086e114b89,
perumahan,Komplek perumahan,Rumah Anggie Dan Maggie,"F99P+4WC, Tihingan, Kec. Banjarangkan, Kabupaten Klungkung, Bali 80713","Tihingan, Kec. Banjarangkan, Kabupaten Klungkung",BALI,80713.0,Indonesia,,,,-85.321.906,1.153.872.589,https://maps.google.com/?cid=0x0:0xa6abbf8abea0d35,
perumahan,Perumahan,Kawiswara home,"F97M+85Q, Jl. Raya Tihingan, Tihingan, Kec. Banjarangkan, Kabupaten Klungkung, Bali","Kabupaten Klungkung, Bali",BALI,,Indonesia,,,,-85.366.749,1.153.829.987,https://maps.google.com/?cid=0x0:0xc3d48604bf06b4e2,
perumahan,Komplek perumahan,Nyoman suastika,"F98R+JWF, Jl. Watu Renggong, Semarapura Kauh, Kec. Klungkung, Kabupaten Klungkung, Bali","Kabupaten Klungkung, Bali",BALI,,Indonesia,,,,-85.334.355,1.153.922.894,https://maps.google.com/?cid=0x0:0xf53752ac98562a3f,
perumahan,Pembangunan Perumahan,Puri Surya Klungkung,"Jl. Watu Renggong No.26, Semarapura Kauh, Kec. Klungkung, Kabupaten Klungkung, Bali 80711","Semarapura Kauh, Kec. Klungkung, Kabupaten Klungkung",BALI,80711.0,Indonesia,81237593648.0,,,-85.339.179,115.393.907,https://maps.google.com/?cid=0x0:0x6616b971a289340f,
perumahan,Pembangunan Perumahan,Kubu Damai,"F99J+8QC, Tihingan, Kec. Banjarangkan, Kabupaten Klungkung, Bali 80716","Tihingan, Kec. Banjarangkan, Kabupaten Klungkung",BALI,80716.0,Indonesia,,,,-85.316.934,1.153.819.032,https://maps.google.com/?cid=0x0:0xb270b25c6a8c7f7a,
perumahan,Komplek perumahan,Rumah Candra,"F97W+Q47, Jl. Flamboyan, Semarapura Kauh, Kec. Klungkung, Kabupaten Klungkung, Bali","Kabupaten Klungkung, Bali",BALI,,Indonesia,,,,-85.355.902,1.153.952.837,https://maps.google.com/?cid=0x0:0xcea3273a0621ddd9,
perumahan,Komplek perumahan,PNP here,"Jl. Pudak No.6, Semarapura Kauh, Kec. Klungkung, Kabupaten Klungkung, Bali 80711","Semarapura Kauh, Kec. Klungkung, Kabupaten Klungkung",BALI,80711.0,Indonesia,,,,-85.348.639,1.153.945.322,https://maps.google.com/?cid=0x0:0xc8396ea062f35274,
perumahan,Komplek perumahan,Rumah I Wayan Budiawan,"F99P+6X3, Tihingan, Kec. Banjarangkan, Kabupaten Klungkung, Bali","Kabupaten Klungkung, Bali",BALI,,Indonesia,,,,-85.319.917,115.387.436,https://maps.google.com/?cid=0x0:0xc6284555ba0b43e7,
perumahan,Komplek perumahan,Rumah Yogi,"F9CV+9R4, Jl. Setia Budi, Semarapura Kauh, Kec. Klungkung, Kabupaten Klungkung, Bali","Kabupaten Klungkung, Bali",BALI,,Indonesia,,,,-85.294.991,115.394.563,https://maps.google.com/?cid=0x0:0x63aa7c2be9b6e8c5,
perumahan,Komplek perumahan,rumah aris,"F98Q+QCM, Tihingan, Kec. Banjarangkan, Kabupaten Klungkung, Bali 80713","Tihingan, Kec. Banjarangkan, Kabupaten Klungkung",BALI,80713.0,Indonesia,,,,-85.328.688,1.153.880.541,https://maps.google.com/?cid=0x0:0x2c2b8d6186f70068,
perumahan,Kantor Arsitek Interior,perumahan uma lombok,"CCW6+X8Q, Gelgel, Kec. Klungkung, Kabupaten Klungkung, Bali 80761","Gelgel, Kec. Klungkung, Kabupaten Klungkung",BALI,80761.0,Indonesia,,,,-85.526.337,1.154.115.014,https://maps.google.com/?cid=0x0:0xa66838ac07b3d357,
perumahan,Komplek perumahan,Narmada Family,"F9CV+WWH, Jl. Setia Budi, Semarapura Kauh, Kec. Klungkung, Kabupaten Klungkung, Bali","Kabupaten Klungkung, Bali",BALI,,Indonesia,,,,-85.276.877,1.153.948.452,https://maps.google.com/?cid=0x0:0x8d8ca302b015fb56,
perumahan,perumahan,Jl. Perumahan,"Kec. Klungkung, Kabupaten Klungkung, Bali 80716",Kabupaten Klungkung,BALI,80716.0,Indonesia,,,,-85.513.653,115.403.852,https://maps.google.com/?cid=0x0:0xdff0288f4469afb3,
perumahan,perumahan,Bali 80716,"Kec. Klungkung, Kabupaten Klungkung, Bali","Kabupaten Klungkung, Bali",BALI,,Indonesia,,,,-84.910.269,1.153.963.461,https://maps.google.com/?cid=0x0:0x1c00c5eb6016bfe0,
perumahan,Komplek perumahan,Perumahan Kresna Klungkung,"FC54+F79, Jl. Kresna, Semarapura Kangin, Kec. Klungkung, Kabupaten Klungkung, Bali 80761","Jl. Kresna, Semarapura Kangin, Kec. Klungkung, Kabupaten Klungkung",BALI,80761.0,Indonesia,,,,-85.413.392,1.154.057.276,https://maps.google.com/?cid=0x0:0xe8d620f41d313f77,
perumahan,Komplek perumahan,Drupadi residence,"GC35+X2F, Tegak, Kec. Klungkung, Kabupaten Klungkung, Bali 80716","Tegak, Kec. Klungkung, Kabupaten Klungkung",BALI,80716.0,Indonesia,,,,-849.577,11.540.763,https://maps.google.com/?cid=0x0:0xac699d99240905a0,
perumahan,Komplek perumahan,Rumah Prabhu,"Jl. Sakura No.7A, Semarapura Kelod, Kec. Klungkung, Kabupaten Klungkung, Bali 80716","Semarapura Kelod, Kec. Klungkung, Kabupaten Klungkung",BALI,80716.0,Indonesia,,,,-85.425.994,1.153.980.432,https://maps.google.com/?cid=0x0:0x6d62ac25c9346c35,
perumahan,Komplek perumahan,DEPO HOUSE,"G92X+92P, Selat, Kec. Klungkung, Kabupaten Klungkung, Bali 80716","Selat, Kec. Klungkung, Kabupaten Klungkung",BALI,80716.0,Indonesia,,,,-849.827,115.396.535,https://maps.google.com/?cid=0x0:0x236361ac4516ebfb,
perumahan,Komplek perumahan,Rumah kadek widia,"G95P+6WC, Selisihan, Kec. Klungkung, Kabupaten Klungkung, Bali 80716","Selisihan, Kec. Klungkung, Kabupaten Klungkung",BALI,80716.0,Indonesia,,,,-84.919.325,1.153.872.632,https://maps.google.com/?cid=0x0:0x1502444847d6460d,
perumahan,Gedung Apartemen,Rumah Pak Mangku Sumerta,"F94X+H3R, Jl. Hawai I, Semarapura Kelod, Kec. Klungkung, Kabupaten Klungkung, Bali 80716","Jl. Hawai I, Semarapura Kelod, Kec. Klungkung, Kabupaten Klungkung",BALI,80716.0,Indonesia,,,,-85.435.006,11.539.763,https://maps.google.com/?cid=0x0:0x99009d53bf329f70,
perumahan,Komplek perumahan,Rumah Dinas Kab. Klungkung,"F97X+VW8, Semarapura Kelod, Kec. Klungkung, Kabupaten Klungkung, Bali","Kabupaten Klungkung, Bali",BALI,,Indonesia,,,,-85.353.857,1.153.998.686,https://maps.google.com/?cid=0x0:0x5dcac92b43a541fd,
perumahan,Komplek perumahan,Perumahan,"G92X+RPC, Selat, Kec. Klungkung, Kabupaten Klungkung, Bali 80716","Selat, Kec. Klungkung, Kabupaten Klungkung",BALI,80716.0,Indonesia,,,,-8.498.177,115.399.331,https://maps.google.com/?cid=0x0:0x73a6d0780b2c6d2,
perumahan,Komplek perumahan,Rumah Kak Klungkung alm. Md. Djiwa,"Jl. Plawa No.6, Semarapura Kelod, Kec. Klungkung, Kabupaten Klungkung, Bali 80711","Semarapura Kelod, Kec. Klungkung, Kabupaten Klungkung",BALI,80711.0,Indonesia,,,,-85.405.471,115.401.828,https://maps.google.com/?cid=0x0:0x45d2116b26cd12,
perumahan,Komplek perumahan,Wayan Budiasa,"F93W+3RX, Jl. Gemitir, Semarapura Kelod, Kec. Klungkung, Kabupaten Klungkung, Bali 80716","Jl. Gemitir, Semarapura Kelod, Kec. Klungkung, Kabupaten Klungkung",BALI,80716.0,Indonesia,,,,-85.472.626,1.153.971.219,https://maps.google.com/?cid=0x0:0xd200c13455b37574,
perumahan,Komplek perumahan,KLINTEN HOUSE,"Jl. Ngurah Rai No.99, Semarapura Kauh, Kec. Klungkung, Kabupaten Klungkung, Bali 80716","Semarapura Kauh, Kec. Klungkung, Kabupaten Klungkung",BALI,80716.0,Indonesia,,,,-85.297.076,11.539.781,https://maps.google.com/?cid=0x0:0x3467d2326a273545,
perumahan,Komplek perumahan,Rumah Agus,"F95V+8JJ, Jl. Flamboyan, Semarapura Kelod, Kec. Klungkung, Kabupaten Klungkung, Bali 80716","Jl. Flamboyan, Semarapura Kelod, Kec. Klungkung, Kabupaten Klungkung",BALI,80716.0,Indonesia,,,,-85.417.596,1.153.940.928,https://maps.google.com/?cid=0x0:0x1141b2a7dcf4e47b,
perumahan,Komplek perumahan,Rumah Pak Ketut Tentra,"Kemoning klod, Jl. Sedap Malam, Satra, Kec. Klungkung, Kabupaten Klungkung, Bali 80716","Jl. Sedap Malam, Satra, Kec. Klungkung, Kabupaten Klungkung",BALI,80716.0,Indonesia,,,,-8.552.549,1.153.989.946,https://maps.google.com/?cid=0x0:0xeff19475ef28ade3,
perumahan,Kantor Perusahaan,Mess Kabupaten Klungkung,"F97X+VW8, Semarapura Kelod, Kec. Klungkung, Kabupaten Klungkung, Bali","Kabupaten Klungkung, Bali",BALI,,Indonesia,,,,-85.353.956,1.153.994.515,https://maps.google.com/?cid=0x0:0xd280f7c9405a3095,
perumahan,Komplek perumahan,Rumah Tu Lengkong,"CCV4+PP8, Jl. Pejenengan, Gelgel, Kec. Klungkung, Kabupaten Klungkung, Bali 80716","Jl. Pejenengan, Gelgel, Kec. Klungkung, Kabupaten Klungkung",BALI,80716.0,Indonesia,,,,-85.557.079,1.154.068.155,https://maps.google.com/?cid=0x0:0xac60de6dd7010ebf,
perumahan,Komplek perumahan,Yan Cenk,"CCX3+FRC, Jl. Perumahan, Tojan, Kec. Klungkung, Kabupaten Klungkung, Bali 80716","Jl. Perumahan, Tojan, Kec. Klungkung, Kabupaten Klungkung",BALI,80716.0,Indonesia,,,,-85.514.227,1.154.045.289,https://maps.google.com/?cid=0x0:0xb32440916288cf9f,
perumahan,Komplek perumahan,Rumdis Pemkab Klungkung,"Jl. Untung Suropati No.3a, Semarapura Tengah, Kec. Klungkung, Kabupaten Klungkung, Bali 80711","Semarapura Tengah, Kec. Klungkung, Kabupaten Klungkung",BALI,80711.0,Indonesia,,,,-85.353.896,1.153.998.213,https://maps.google.com/?cid=0x0:0x6687b67ad9e6c7e4,
perumahan,Pembangunan Perumahan,Rumah Klungkung,"GC33+H88, Selat, Kec. Klungkung, Kabupaten Klungkung, Bali 80716","Selat, Kec. Klungkung, Kabupaten Klungkung",BALI,80716.0,Indonesia,,,,-84.960.974,1.154.033.276,https://maps.google.com/?cid=0x0:0x771214a172da29ec,
perumahan,,BTN batuasri c 42 akah Klungkung,"FCM3+G7F, Unnamed Road, Akah, Kec. Klungkung, Kabupaten Klungkung, Bali 80716","Unnamed Road, Akah, Kec. Klungkung, Kabupaten Klungkung",BALI,80716.0,Indonesia,,,,-85.161.917,115.403.165,https://maps.google.com/?cid=0x0:0xd5c59252d44a55d2,
perumahan,perumahan,Bali 80771,"Kec. Nusa Penida, Kabupaten Klungkung, Bali","Kabupaten Klungkung, Bali",BALI,,Indonesia,,,,-8.727.807,1.155.444.231,https://maps.google.com/?cid=0x0:0x1c00c5eb6016c020,
perumahan,Kantor Pemerintah,"Perumahan Koramil, Nusa Penida","8HF9+X4M, Batununggul, Kec. Nusa Penida, Kabupaten Klungkung, Bali 80771","Batununggul, Kec. Nusa Penida, Kabupaten Klungkung",BALI,80771.0,Indonesia,,,,-86.750.377,1.155.678.087,https://maps.google.com/?cid=0x0:0x3df02f99d327020a,
perumahan,Komplek perumahan,RUMAH MILLER,"7G34+6P3, Batumadeg, Kec. Nusa Penida, Kabupaten Klungkung, Bali 80771","Batumadeg, Kec. Nusa Penida, Kabupaten Klungkung",BALI,80771.0,Indonesia,85333226033.0,,,-87.469.256,1.155.071.519,https://maps.google.com/?cid=0x0:0xe3be3957f6b62515,
perumahan,Pembangunan Perumahan,Perumahan PAK PUTU TISYA,"7F7V+CWH, Bunga Mekar, Kec. Nusa Penida, Kabupaten Klungkung, Bali 80771","Bunga Mekar, Kec. Nusa Penida, Kabupaten Klungkung",BALI,80771.0,Indonesia,85238887598.0,,,-87.368.794,1.154.952.205,https://maps.google.com/?cid=0x0:0xc415693ff8773ebf,
perumahan,Komplek perumahan,Rumah wagix,"6GMQ+JPG, Batukandik, Kec. Nusa Penida, Kabupaten Klungkung, Bali 80771","Batukandik, Kec. Nusa Penida, Kabupaten Klungkung",BALI,80771.0,Indonesia,,,,-8.765.942,1.155.392.733,https://maps.google.com/?cid=0x0:0x7fe0905e833b7ead,
perumahan,Perumahan,Rumah Made dianta,"7GRV+65R, Kutampi Kaler, Kec. Nusa Penida, Kabupaten Klungkung, Bali 80771","Kutampi Kaler, Kec. Nusa Penida, Kabupaten Klungkung",BALI,80771.0,Indonesia,,,,-87.094.693,115.542.916,https://maps.google.com/?cid=0x0:0x8877a5a3eca80ea1,
perumahan,Perhimpunan Pengembang Perumahan,Abhyrama Home,"7GMF+3CM, Unnamed Road, Klumpu, Kec. Nusa Penida, Kabupaten Klungkung, Bali 80771","Unnamed Road, Klumpu, Kec. Nusa Penida, Kabupaten Klungkung",BALI,80771.0,Indonesia,81334449477.0,,,-87.172.917,115.523.554,https://maps.google.com/?cid=0x0:0x74f4c6aa14cb9ecf,
perumahan,Komplek perumahan,Rumah ketut repeng,"7G75+22P, Batumadeg, Kec. Nusa Penida, Kabupaten Klungkung, Bali 80771","Batumadeg, Kec. Nusa Penida, Kabupaten Klungkung",BALI,80771.0,Indonesia,,,,-87.374.211,1.155.076.572,https://maps.google.com/?cid=0x0:0x69221137f5ab594a,
perumahan,Komplek perumahan,Rumah tubay,"8H82+54C, Kutampi Kaler, Kec. Nusa Penida, Kabupaten Klungkung, Bali 80771","Kutampi Kaler, Kec. Nusa Penida, Kabupaten Klungkung",BALI,80771.0,Indonesia,,,,-86.845.851,1.155.495.353,https://maps.google.com/?cid=0x0:0x30403226ddba621a,
perumahan,Perhimpunan Pengembang Perumahan,SudiHome Br. Belimbing Sari,"6HX7+GMR, Tanglad, Kec. Nusa Penida, Kabupaten Klungkung, Bali 80771","Tanglad, Kec. Nusa Penida, Kabupaten Klungkung",BALI,80771.0,Indonesia,,,,-87.511.454,115.564.144,https://maps.google.com/?cid=0x0:0xb0850c90f1c455a,
perumahan,Komplek perumahan,Rumah Piana,"7GPR+W2X, Unnamed Road, Klumpu, Kec. Nusa Penida, Kabupaten Klungkung, Bali 80771","Unnamed Road, Klumpu, Kec. Nusa Penida, Kabupaten Klungkung",BALI,80771.0,Indonesia,,,,-87.126.304,1.155.401.032,https://maps.google.com/?cid=0x0:0x175d95aaa0018de8,
perumahan,Komplek perumahan,rumah qu,"6GGQ+P56, Batukandik, Kec. Nusa Penida, Kabupaten Klungkung, Bali 80771","Batukandik, Kec. Nusa Penida, Kabupaten Klungkung",BALI,80771.0,Indonesia,,,,-87.732.002,1.155.379.014,https://maps.google.com/?cid=0x0:0xf7dc8728e4841ff2,
perumahan,Pembangunan Perumahan,Rumah De Ludiasa,"6HX7+94V, Tanglad, Kec. Nusa Penida, Kabupaten Klungkung, Bali 80771","Tanglad, Kec. Nusa Penida, Kabupaten Klungkung",BALI,80771.0,Indonesia,,,,-87.515.181,1.155.627.947,https://maps.google.com/?cid=0x0:0x16ffac9dc5dcf719,
perumahan,Komplek perumahan,GungD Home,"8FFV+379, Ped, Kec. Nusa Penida, Kabupaten Klungkung, Bali 80771","Ped, Kec. Nusa Penida, Kabupaten Klungkung",BALI,80771.0,Indonesia,,,,-87.189.036,1.155.614.064,https://maps.google.com/?cid=0x0:0x2dd7a4b55e5d5c78,
perumahan,Jasa Konstruksi dan Bangunan,Rumah astawa,"8G5F+VF3, Jln, Ped, Kec. Nusa Penida, Kabupaten Klungkung, Bali 80771","Jln, Ped, Kec. Nusa Penida, Kabupaten Klungkung",BALI,80771.0,Indonesia,,,,-86.903.599,1.155.236.844,https://maps.google.com/?cid=0x0:0xf9af299cfa5e10ee,
perumahan,Balai masyarakat,Banjar Buah,"7HR9+F4Q, Kutampi, Kec. Nusa Penida, Kabupaten Klungkung, Bali 80771","Kutampi, Kec. Nusa Penida, Kabupaten Klungkung",BALI,80771.0,Indonesia,,,,-87.087.944,1.155.678.664,https://maps.google.com/?cid=0x0:0x8476d1899956b59d,
perumahan,Komplek perumahan,Megong hills,"8G37+F87, Ped, Kec. Nusa Penida, Kabupaten Klungkung, Bali 80771","Ped, Kec. Nusa Penida, Kabupaten Klungkung",BALI,80771.0,Indonesia,,,,-86.963.282,1.155.132.947,https://maps.google.com/?cid=0x0:0x38ada0b1d0b3eb74,
perumahan,Komplek perumahan,FAAMSoffice,"7HX3+JJJ, Dusun jurangpahit, Kutampi, Kec. Nusa Penida, Kabupaten Klungkung, Bali 80771","Dusun jurangpahit, Kutampi, Kec. Nusa Penida, Kabupaten Klungkung",BALI,80771.0,Indonesia,,,,-87.003.347,1.155.545.623,https://maps.google.com/?cid=0x0:0xb4e96a62b1c5279b,
perumahan,Komplek perumahan,Rumah Komang Widi,"7G8H+MXM, Klumpu, Kec. Nusa Penida, Kabupaten Klungkung, Bali 80771","Klumpu, Kec. Nusa Penida, Kabupaten Klungkung",BALI,80771.0,Indonesia,,,,-8.733.486,115.529.033,https://maps.google.com/?cid=0x0:0xeb2e48fb53b43afb,
perumahan,Komplek perumahan,Suantara ponjok home,"7HJ7+F32, Kutampi, Kec. Nusa Penida, Kabupaten Klungkung, Bali 80771","Kutampi, Kec. Nusa Penida, Kabupaten Klungkung",BALI,80771.0,Indonesia,81236409876.0,,,-87.189.193,115.562.598,https://maps.google.com/?cid=0x0:0xeae1673ef52e3cc7,
perumahan,Komplek perumahan,Kubu +62,"8H7G+JGR, Jl. Batumulapan, Batununggul, Kec. Nusa Penida, Kabupaten Klungkung, Bali 80771","Jl. Batumulapan, Batununggul, Kec. Nusa Penida, Kabupaten Klungkung",BALI,80771.0,Indonesia,,,,-86.858.937,115.576.255,https://maps.google.com/?cid=0x0:0x6667ace9af43b9c1,
perumahan,Perhimpunan Pengembang Perumahan,OEMAHLE DEKSUMANTRA,"7G75+22P, Batumadeg, Kec. Nusa Penida, Kabupaten Klungkung, Bali 80771","Batumadeg, Kec. Nusa Penida, Kabupaten Klungkung",BALI,80771.0,Indonesia,,,,-87.374.174,1.155.075.912,https://maps.google.com/?cid=0x0:0x56406c4756e5e5d5,
perumahan,Komplek perumahan,Sukarmini home,"6HH9+XRC, Tanglad, Kec. Nusa Penida, Kabupaten Klungkung, Bali 80771","Tanglad, Kec. Nusa Penida, Kabupaten Klungkung",BALI,80771.0,Indonesia,,,,-87.700.715,1.155.695.032,https://maps.google.com/?cid=0x0:0x6cd073f87de56d42,
perumahan,Pembangunan Perumahan,ray house,"6GJP+JG5, Batukandik, Kec. Nusa Penida, Kabupaten Klungkung, Bali 80771","Batukandik, Kec. Nusa Penida, Kabupaten Klungkung",BALI,80771.0,Indonesia,,,,-87.684.273,1.155.364.306,https://maps.google.com/?cid=0x0:0x547910d5083c6758,
perumahan,Komplek perumahan,JAWER HOUSE,"7HJ6+CWR, atas, Banjar ponjok, Kutampi, Kec. Nusa Penida, Kabupaten Klungkung, Bali 80771","atas, Banjar ponjok, Kutampi, Kec. Nusa Penida, Kabupaten Klungkung",BALI,80771.0,Indonesia,,,,-87.188.781,1.155.622.643,https://maps.google.com/?cid=0x0:0x8c5d0f7eb11c2d4,
perumahan,Pondok,"Rumah Pohon Tree House""""","6JC8+HPW, Pejukutan, Kec. Nusa Penida, Kabupaten Klungkung, Bali 80771","Pejukutan, Kec. Nusa Penida, Kabupaten Klungkung",BALI,80771.0,Indonesia,,,,-87.785.108,1.156.168.404,https://maps.google.com/?cid=0x0:0x36c910620349fda8,
