Category;Real Category;Business Name;Address;City;State;Postal Code;Country;Phone;Latitude;Longitude;Map Link
"perumahan";"perumahan";"Papua Bar. 98359";"Papua Bar.";"Papua Bar.";"PAPUA BARAT";"";"Indonesia";"";"-1.5213839";"133.7525619";"https://maps.google.com/?cid=0x0:0xc8a895044b18d7c8"
"perumahan";"Kantor Pemerintah";"Dataran Isim";"9V88+36, Menci, Distrik Dataran Beimes, Kabupaten Teluk Bintuni, Papua Bar.";"Kabupaten Teluk Bintuni, Papua Bar.";"PAPUA BARAT";"";"Indonesia";"";"-1.634777";"133.865501";"https://maps.google.com/?cid=0x0:0x92d045cbf9cbba8b"
"perumahan";"perumahan";"Dataran Isim";"Kab. Manokwari Selatan, Papua Bar.";"Kab. Manokwari Selatan, Papua Bar.";"PAPUA BARAT";"";"Indonesia";"";"-1.5213839";"133.7525619";"https://maps.google.com/?cid=0x0:0x5152c50d52f61896"
"perumahan";"perumahan";"Distrik Momi Waren";"Kab. Manokwari Selatan, Papua Bar.";"Kab. Manokwari Selatan, Papua Bar.";"PAPUA BARAT";"";"Indonesia";"";"-1.589112";"134.1139979";"https://maps.google.com/?cid=0x0:0xf7889c42ea8b544b"
"perumahan";"perumahan";"Waren, manokwari selatan";"94V6+2G3, Waren, Distrik Momi Waren, Kab. Manokwari Selatan, Papua Bar. 98355";"Waren, Distrik Momi Waren, Kab. Manokwari Selatan";"PAPUA BARAT";"98355";"Indonesia";"";"-1.6087033";"134.1109436";"https://maps.google.com/?cid=0x0:0x55e35dcd19c6118f"
"perumahan";"Komplek perumahan";"Perumahan Guru SD INPRES GAYA BARU";"94H4+HQF, Waren, Distrik Momi Waren, Kab. Manokwari Selatan, Papua Bar. 98355";"Waren, Distrik Momi Waren, Kab. Manokwari Selatan";"PAPUA BARAT";"98355";"Indonesia";"";"-1.621064";"134.1069099";"https://maps.google.com/?cid=0x0:0x8dfb3624947a5eb"
"perumahan";"Komplek perumahan";"Kampung Waren";"94V5+2M2, Waren, Distrik Momi Waren, Kab. Manokwari Selatan, Papua Bar. 98355";"Waren, Distrik Momi Waren, Kab. Manokwari Selatan";"PAPUA BARAT";"98355";"Indonesia";"";"-1.6074867";"134.1091317";"https://maps.google.com/?cid=0x0:0xa8dbd6d862057239"
"perumahan";"Komplek perumahan";"Perumahan Guru Syalom Terpadu";"C49M+FMJ, Jl. Manokwari - Bintuni, Dembek, Distrik Momi Waren, Kab. Manokwari Selatan, Papua Bar.";"Kab. Manokwari Selatan, Papua Bar.";"PAPUA BARAT";"";"Indonesia";"";"-1.5812763";"134.1341453";"https://maps.google.com/?cid=0x0:0x22d33f3814c1edfc"
"perumahan";"Perhimpunan Pengembang Perumahan";"Manokwari";"seruni Jl. Manokwari - Bintuni, Gaya Baru, Distrik Momi Waren, Kab. Manokwari Selatan, Papua Bar.";"Kab. Manokwari Selatan, Papua Bar.";"PAPUA BARAT";"";"Indonesia";"";"-1.653402";"134.0631637";"https://maps.google.com/?cid=0x0:0xeb22c539c89f8594"
"perumahan";"Pusat Kesehatan Masyarakat";"PUSKESMAS MOMI WAREN";"C47V+9C2, Jl. Manokwari - Bintuni, Dembek, Distrik Momi Waren, Kab. Manokwari Selatan, Papua Bar. 98355";"Jl. Manokwari - Bintuni, Dembek, Distrik Momi Waren, Kab. Manokwari Selatan";"PAPUA BARAT";"98355";"Indonesia";" 081917213326";"-1.5866086";"134.1435089";"https://maps.google.com/?cid=0x0:0xa31f3a2df676165b"
"perumahan";"Pembangunan Perumahan";"PEMEKARAN KAMPUNG KEYUN";"92RR+W7P, Nenei Pantai / Nij, Distrik Momi Waren, Kab. Manokwari Selatan, Papua Bar. 98355";"Nenei Pantai / Nij, Distrik Momi Waren, Kab. Manokwari Selatan";"PAPUA BARAT";"98355";"Indonesia";"";"-1.6076515";"134.04071";"https://maps.google.com/?cid=0x0:0x42f9a6eaf6bf84b6"
"perumahan";"Pembangunan Perumahan";"Aryawenmoho Nenei Manokwari Selatan Papua Barat Indonesia";"G2F5+8FH, Aryawenmoho, Distrik Neney, Kab. Manokwari Selatan, Papua Bar. 98355";"Aryawenmoho, Distrik Neney, Kab. Manokwari Selatan";"PAPUA BARAT";"98355";"Indonesia";" 082239363710";"-1.4766952";"134.00872";"https://maps.google.com/?cid=0x0:0x6ac8888d0791e628"
"perumahan";"Gereja";"Rumah Gembala GPKAI SMIRNA Momi Waren";"C49P+254, Demini, Distrik Momi Waren, Kab. Manokwari Selatan, Papua Bar. 98355";"Demini, Distrik Momi Waren, Kab. Manokwari Selatan";"PAPUA BARAT";"98355";"Indonesia";"";"-1.5824875";"134.1354486";"https://maps.google.com/?cid=0x0:0xdcc208e52bb8f706"
"perumahan";"Komplek perumahan";"Rumah guru SMA";"94V6+VGX, Waren, Distrik Momi Waren, Kabupaten Manokwari, Papua Bar.";"Kabupaten Manokwari, Papua Bar.";"PAPUA BARAT";"";"Indonesia";"";"-1.6052536";"134.1113704";"https://maps.google.com/?cid=0x0:0xdca96a8564fa3caf"
"perumahan";"Komplek perumahan";"Kel. Winowoda-Adilang";"C46W+H83, Dembek, Distrik Momi Waren, Kabupaten Manokwari, Papua Bar. 98355";"Dembek, Distrik Momi Waren, Kabupaten Manokwari";"PAPUA BARAT";"98355";"Indonesia";"";"-1.5886043";"134.1457828";"https://maps.google.com/?cid=0x0:0x6a63c9012e0f416e"
"perumahan";"Gereja Protestan";"Rumah Majelis GKI Ibu Irma";"C469+W9, Demini, Distrik Momi Waren, Kab. Manokwari Selatan, Papua Bar.";"Kab. Manokwari Selatan, Papua Bar.";"PAPUA BARAT";"";"Indonesia";"";"-1.5876561";"134.1184427";"https://maps.google.com/?cid=0x0:0xfb2a36d9d81c9afe"
"perumahan";"Pembangunan Perumahan";"Kampung Waren Distrik Oransbari Kabupaten Manokwari Selatan";"F535+487, Dembek, Distrik Momi Waren, Kab. Manokwari Selatan, Papua Bar.";"Kab. Manokwari Selatan, Papua Bar.";"PAPUA BARAT";"";"Indonesia";"";"-1.547207";"134.158295";"https://maps.google.com/?cid=0x0:0xf5466c055d6fe617"
"perumahan";"perumahan";"Nenei";"Distrik Neney, Kab. Manokwari Selatan, Papua Bar.";"Kab. Manokwari Selatan, Papua Bar.";"PAPUA BARAT";"";"Indonesia";"";"-1.5521393";"133.9341408";"https://maps.google.com/?cid=0x0:0x56180a919aad2564"
"perumahan";"perumahan";"Distrik Neney";"Kab. Manokwari Selatan, Papua Bar.";"Kab. Manokwari Selatan, Papua Bar.";"PAPUA BARAT";"";"Indonesia";"";"-1.4926563";"133.9961457";"https://maps.google.com/?cid=0x0:0x8d599f8b59144cf3"
"perumahan";"perumahan";"Rumah Aila";"M6PC+28G, Sidomulyo, Kec. Oransbari, Kab. Manokwari Selatan, Papua Bar. 98353";"Sidomulyo, Kec. Oransbari, Kab. Manokwari Selatan";"PAPUA BARAT";"98353";"Indonesia";"";"-1.315208";"134.220505";"https://maps.google.com/?cid=0x0:0x4a7d7ee98c7578ee"
"perumahan";"perumahan";"Papua Bar. 98353";"Kabupaten Manokwari, Papua Bar.";"Kabupaten Manokwari, Papua Bar.";"PAPUA BARAT";"";"Indonesia";"";"-1.2869478";"134.1340439";"https://maps.google.com/?cid=0x0:0x8a0ea672dc22a2db"
"perumahan";"Komplek perumahan";"Rumah Mas Fi";"M6J9+GVG, Sidomulyo, Kec. Oransbari, Kabupaten Manokwari, Papua Bar. 98353";"Sidomulyo, Kec. Oransbari, Kabupaten Manokwari";"PAPUA BARAT";"98353";"Indonesia";"";"-1.3198379";"134.2192861";"https://maps.google.com/?cid=0x0:0x541d2e07baad2b6d"
"perumahan";"perumahan";"3.Asis tata";"M66H+MWP, Muari, Kec. Oransbari, Kab. Manokwari Selatan, Papua Bar.";"Kab. Manokwari Selatan, Papua Bar.";"PAPUA BARAT";"";"Indonesia";"";"-1.338505";"134.229732";"https://maps.google.com/?cid=0x0:0x593370041473a262"
"perumahan";"Komplek perumahan";"Green house";"M6F7+6G4, margorukon, Kec. Oransbari, Kab. Manokwari Selatan, Papua Bar. 98353";"margorukon, Kec. Oransbari, Kab. Manokwari Selatan";"PAPUA BARAT";"98353";"Indonesia";"";"-1.3269875";"134.2138281";"https://maps.google.com/?cid=0x0:0x1c0367d6a19ee653"
"perumahan";"Pembangunan Perumahan";"Wahyudi";"M6H9+HHQ, Sidomulyo, Kec. Oransbari, Kab. Manokwari Selatan, Papua Bar. 98353";"Sidomulyo, Kec. Oransbari, Kab. Manokwari Selatan";"PAPUA BARAT";"98353";"Indonesia";"";"-1.3208725";"134.2181702";"https://maps.google.com/?cid=0x0:0xfa2d97c1797fd973"
"perumahan";"Komplek perumahan";"Rumah Nur Laila Ulfah";"M6PC+28G, Sidomulyo, Kec. Oransbari, Kab. Manokwari Selatan, Papua Bar. 98353";"Sidomulyo, Kec. Oransbari, Kab. Manokwari Selatan";"PAPUA BARAT";"98353";"Indonesia";"";"-1.3149321";"134.2208183";"https://maps.google.com/?cid=0x0:0x437cd0b00b69a673"
"perumahan";"Pembangunan Perumahan";"Kampung ternate oransbari";"J6Q5+CJ7, Muari, Kec. Oransbari, Kab. Manokwari Selatan, Papua Bar. 98353";"Muari, Kec. Oransbari, Kab. Manokwari Selatan";"PAPUA BARAT";"98353";"Indonesia";"";"-1.3614597";"134.2090404";"https://maps.google.com/?cid=0x0:0x82112f957d124d98"
"perumahan";"Polisi Negara Bagian";"Mess Polsek Oransbari";"M6PV+625, Waroser, Kec. Oransbari, Kab. Manokwari Selatan, Papua Bar. 98353";"Waroser, Kec. Oransbari, Kab. Manokwari Selatan";"PAPUA BARAT";"98353";"Indonesia";"";"-1.3144954";"134.2426213";"https://maps.google.com/?cid=0x0:0xf3ee64df0f02564a"
"perumahan";"Balai masyarakat";"PERUMAHAN KAMPUNG MBISOY PUKBEY";"P63M+HXM, Warbiadi, Kec. Oransbari, Kabupaten Manokwari, Papua Bar. 98353";"Warbiadi, Kec. Oransbari, Kabupaten Manokwari";"PAPUA BARAT";"98353";"Indonesia";"";"-1.2960344";"134.234916";"https://maps.google.com/?cid=0x0:0x8daee7893ed907b5"
"perumahan";"Pembangunan Perumahan";"Lembur Kuring";"M6H9+34H, Jl. Manokwari - Bintuni, Akeju, Kec. Oransbari, Kab. Manokwari Selatan, Papua Bar. 98353";"Jl. Manokwari - Bintuni, Akeju, Kec. Oransbari, Kab. Manokwari Selatan";"PAPUA BARAT";"98353";"Indonesia";"";"-1.3222986";"134.2178912";"https://maps.google.com/?cid=0x0:0x1c30b7b21f3a33c"
"perumahan";"Perhimpunan Pengembang Perumahan";"RUMAH PAK KARMAN";"M6MF+W93, Sindang Jaya, Kec. Oransbari, Kab. Manokwari Selatan, Papua Bar. 98353";"Sindang Jaya, Kec. Oransbari, Kab. Manokwari Selatan";"PAPUA BARAT";"98353";"Indonesia";"";"-1.3152264";"134.2234126";"https://maps.google.com/?cid=0x0:0xf242f5e2c764ff13"
"perumahan";"Pembangunan Perumahan";"Rumah Mualim";"M6J9+Q66, Sidomulyo, Kec. Oransbari, Kab. Manokwari Selatan, Papua Bar.";"Kab. Manokwari Selatan, Papua Bar.";"PAPUA BARAT";"";"Indonesia";"";"-1.3180949";"134.2180207";"https://maps.google.com/?cid=0x0:0x7c51d04ca92c4e2d"
"perumahan";"Komplek perumahan";"Manu.mirino";"J6Q5+QJC, Muari, Kec. Oransbari, Kab. Manokwari Selatan, Papua Bar. 98353";"Muari, Kec. Oransbari, Kab. Manokwari Selatan";"PAPUA BARAT";"98353";"Indonesia";"";"-1.3605518";"134.2090139";"https://maps.google.com/?cid=0x0:0xc1457a627fce6667"
"perumahan";"perumahan";"Ransiki";"Ransiki Kota, Distrik Ransiki, Kab. Manokwari Selatan, Papua Bar.";"Kab. Manokwari Selatan, Papua Bar.";"PAPUA BARAT";"";"Indonesia";"";"-1.516433";"134.180298";"https://maps.google.com/?cid=0x0:0xc2f9404ccd6ec72a"
"perumahan";"perumahan";"Texas(Kobrey)";"F5MJ+C4F, Ransiki Kota, Distrik Ransiki, Kab. Manokwari Selatan, Papua Bar. 98355";"Ransiki Kota, Distrik Ransiki, Kab. Manokwari Selatan";"PAPUA BARAT";"98355";"Indonesia";"";"-1.516433";"134.180298";"https://maps.google.com/?cid=0x0:0x49df69e361f6300"
"perumahan";"Pemakaman";"Kuburan umum ransiki";"F5MJ+C4F, Ransiki Kota, Distrik Ransiki, Kabupaten Manokwari, Papua Bar. 98355";"Ransiki Kota, Distrik Ransiki, Kabupaten Manokwari";"PAPUA BARAT";"98355";"Indonesia";"";"-1.516433";"134.180298";"https://maps.google.com/?cid=0x0:0x8f56f8e45b35ee2f"
"perumahan";"Perhimpunan Pengembang Perumahan";"Ayembori";"F5MJ+C4F, Ransiki Kota, Distrik Ransiki, Kab. Manokwari Selatan, Papua Bar. 98355";"Ransiki Kota, Distrik Ransiki, Kab. Manokwari Selatan";"PAPUA BARAT";"98355";"Indonesia";"";"-1.516433";"134.180298";"https://maps.google.com/?cid=0x0:0x733c2c13695e283e"
"perumahan";"perumahan";"Perumahan Guru SMAN RANSIKI";"F5QG+XVW, Ransiki Kota, Distrik Ransiki, Kabupaten Manokwari, Papua Bar. 98355";"Ransiki Kota, Distrik Ransiki, Kabupaten Manokwari";"PAPUA BARAT";"98355";"Indonesia";"";"-1.5100037";"134.1772113";"https://maps.google.com/?cid=0x0:0x844fc236a23f8451"
"perumahan";"Brunch";"Warung makan";"Jl.ransiki kompleks kamasan depan kampus unipa, Papua Bar.";"Kab. Manokwari Selatan, Papua Bar.";"PAPUA BARAT";"";"Indonesia";" 082131398433";"-1.516433";"134.180298";"https://maps.google.com/?cid=0x0:0xf0bb6008f73f5fd6"
"perumahan";"perumahan";"Distrik Tahota";"Kab. Manokwari Selatan, Papua Bar.";"Kab. Manokwari Selatan, Papua Bar.";"PAPUA BARAT";"";"Indonesia";"";"-1.7908829";"133.9862408";"https://maps.google.com/?cid=0x0:0x169fe16a30d46c7b"
"perumahan";"perumahan";"Papua Bar. 98355";"Kab. Manokwari Selatan, Papua Bar.";"Kab. Manokwari Selatan, Papua Bar.";"PAPUA BARAT";"";"Indonesia";"";"-1.8268019";"134.0199152";"https://maps.google.com/?cid=0x0:0x3c36f74a68c69218"
"perumahan";"perumahan";"Kos PolKet";"Jl. Abreso No.15, Bamaha, Distrik Ransiki, Kab. Manokwari Selatan, Papua Bar. 98355";"Bamaha, Distrik Ransiki, Kab. Manokwari Selatan";"PAPUA BARAT";"98355";"Indonesia";"";"-1.5099773";"134.2011416";"https://maps.google.com/?cid=0x0:0xea7452581373897f"
"perumahan";"Komplek perumahan";"Perumahan Guru Syalom Terpadu";"C49M+FMJ, Jl. Manokwari - Bintuni, Dembek, Distrik Momi Waren, Kab. Manokwari Selatan, Papua Bar.";"Kab. Manokwari Selatan, Papua Bar.";"PAPUA BARAT";"";"Indonesia";"";"-1.5812763";"134.1341453";"https://maps.google.com/?cid=0x0:0x22d33f3814c1edfc"
"perumahan";"Pembangunan Perumahan";"Aryawenmoho Nenei Manokwari Selatan Papua Barat Indonesia";"G2F5+8FH, Aryawenmoho, Distrik Neney, Kab. Manokwari Selatan, Papua Bar. 98355";"Aryawenmoho, Distrik Neney, Kab. Manokwari Selatan";"PAPUA BARAT";"98355";"Indonesia";" 082239363710";"-1.4766952";"134.00872";"https://maps.google.com/?cid=0x0:0x6ac8888d0791e628"
"perumahan";"perumahan";"Texas(Kobrey)";"F5MJ+C4F, Ransiki Kota, Distrik Ransiki, Kab. Manokwari Selatan, Papua Bar. 98355";"Ransiki Kota, Distrik Ransiki, Kab. Manokwari Selatan";"PAPUA BARAT";"98355";"Indonesia";"";"-1.516433";"134.180298";"https://maps.google.com/?cid=0x0:0x49df69e361f6300"
"perumahan";"Komplek perumahan";"Leonardo Serang";"Jl. Manokwari - Bintuni No.6, Ransiki Kota, Distrik Ransiki, Kab. Manokwari Selatan, Papua Bar. 98355";"Ransiki Kota, Distrik Ransiki, Kab. Manokwari Selatan";"PAPUA BARAT";"98355";"Indonesia";"";"-1.5044398";"134.1628276";"https://maps.google.com/?cid=0x0:0x86497c539181bb7e"
"perumahan";"perumahan";"Rumah Aila";"M6PC+28G, Sidomulyo, Kec. Oransbari, Kab. Manokwari Selatan, Papua Bar. 98353";"Sidomulyo, Kec. Oransbari, Kab. Manokwari Selatan";"PAPUA BARAT";"98353";"Indonesia";"";"-1.315208";"134.220505";"https://maps.google.com/?cid=0x0:0x4a7d7ee98c7578ee"
"perumahan";"Komplek perumahan";"Kel. R. Kaitjily";"F5QQ+HR2, Jl. Manokwari - Bintuni, Ransiki Kota, Distrik Ransiki, Kab. Manokwari Selatan, Papua Bar. 98355";"Jl. Manokwari - Bintuni, Ransiki Kota, Distrik Ransiki, Kab. Manokwari Selatan";"PAPUA BARAT";"98355";"Indonesia";"";"-1.5104927";"134.1898502";"https://maps.google.com/?cid=0x0:0x445cd1847e14a01"
"perumahan";"Komplek perumahan";"Perumahan Guru SD INPRES GAYA BARU";"94H4+HQF, Waren, Distrik Momi Waren, Kab. Manokwari Selatan, Papua Bar. 98355";"Waren, Distrik Momi Waren, Kab. Manokwari Selatan";"PAPUA BARAT";"98355";"Indonesia";"";"-1.621064";"134.1069099";"https://maps.google.com/?cid=0x0:0x8dfb3624947a5eb"
"perumahan";"Komplek perumahan";"Paijo";"F6Q3+87M, Jl. Abreso, Ransiki Kota, Distrik Ransiki, Kab. Manokwari Selatan, Papua Bar. 98355";"Jl. Abreso, Ransiki Kota, Distrik Ransiki, Kab. Manokwari Selatan";"PAPUA BARAT";"98355";"Indonesia";" 085229094863";"-1.5116729";"134.2031767";"https://maps.google.com/?cid=0x0:0x1879ed0d6f38d4f0"
"perumahan";"Komplek perumahan";"Rumah Nano";"F5RF+MG8, Ransiki Kota, Distrik Ransiki, Kabupaten Manokwari, Papua Bar.";"Kabupaten Manokwari, Papua Bar.";"PAPUA BARAT";"";"Indonesia";"";"-1.5083477";"134.1738277";"https://maps.google.com/?cid=0x0:0x82720a357902ff94"
"perumahan";"Komplek perumahan";"PERUM SABRI RESIDENCE";"G552+PP9, Sabri, Distrik Ransiki, Kabupaten Manokwari, Papua Bar. 98355";"Sabri, Distrik Ransiki, Kabupaten Manokwari";"PAPUA BARAT";"98355";"Indonesia";"";"-1.4907237";"134.1518704";"https://maps.google.com/?cid=0x0:0x198870490aaae225"
"perumahan";"perumahan";"3.Asis tata";"M66H+MWP, Muari, Kec. Oransbari, Kab. Manokwari Selatan, Papua Bar.";"Kab. Manokwari Selatan, Papua Bar.";"PAPUA BARAT";"";"Indonesia";"";"-1.338505";"134.229732";"https://maps.google.com/?cid=0x0:0x593370041473a262"
"housing complex";"housing complex";"Papua Bar. 98359";"Papua Bar.";"Papua Bar.";"PAPUA BARAT";"";"Indonesia";"";"-1.5213839";"133.7525619";"https://maps.google.com/?cid=0x0:0xc8a895044b18d7c8"
"housing complex";"Kantor Pemerintah";"Dataran Isim";"9V88+36, Menci, Distrik Dataran Beimes, Kabupaten Teluk Bintuni, Papua Bar.";"Kabupaten Teluk Bintuni, Papua Bar.";"PAPUA BARAT";"";"Indonesia";"";"-1.634777";"133.865501";"https://maps.google.com/?cid=0x0:0x92d045cbf9cbba8b"
"housing complex";"housing complex";"Dataran Isim";"Kab. Manokwari Selatan, Papua Bar.";"Kab. Manokwari Selatan, Papua Bar.";"PAPUA BARAT";"";"Indonesia";"";"-1.5213839";"133.7525619";"https://maps.google.com/?cid=0x0:0x5152c50d52f61896"
"housing complex";"housing complex";"Distrik Momi Waren";"Kab. Manokwari Selatan, Papua Bar.";"Kab. Manokwari Selatan, Papua Bar.";"PAPUA BARAT";"";"Indonesia";"";"-1.589112";"134.1139979";"https://maps.google.com/?cid=0x0:0xf7889c42ea8b544b"
"housing complex";"Komplek perumahan";"Perumahan Guru SD INPRES GAYA BARU";"94H4+HQF, Waren, Distrik Momi Waren, Kab. Manokwari Selatan, Papua Bar. 98355";"Waren, Distrik Momi Waren, Kab. Manokwari Selatan";"PAPUA BARAT";"98355";"Indonesia";"";"-1.621064";"134.1069099";"https://maps.google.com/?cid=0x0:0x8dfb3624947a5eb"
"housing complex";"housing complex";"Waren, manokwari selatan";"94V6+2G3, Waren, Distrik Momi Waren, Kab. Manokwari Selatan, Papua Bar. 98355";"Waren, Distrik Momi Waren, Kab. Manokwari Selatan";"PAPUA BARAT";"98355";"Indonesia";"";"-1.6087033";"134.1109436";"https://maps.google.com/?cid=0x0:0x55e35dcd19c6118f"
"housing complex";"Komplek perumahan";"Perumahan Guru Syalom Terpadu";"C49M+FMJ, Jl. Manokwari - Bintuni, Dembek, Distrik Momi Waren, Kab. Manokwari Selatan, Papua Bar.";"Kab. Manokwari Selatan, Papua Bar.";"PAPUA BARAT";"";"Indonesia";"";"-1.5812763";"134.1341453";"https://maps.google.com/?cid=0x0:0x22d33f3814c1edfc"
"housing complex";"Komplek perumahan";"Rumah guru SMA";"94V6+VGX, Waren, Distrik Momi Waren, Kabupaten Manokwari, Papua Bar.";"Kabupaten Manokwari, Papua Bar.";"PAPUA BARAT";"";"Indonesia";"";"-1.6052536";"134.1113704";"https://maps.google.com/?cid=0x0:0xdca96a8564fa3caf"
"housing complex";"Komplek perumahan";"Perumahan RINDAM";"C5Q7+V2M, Dembek, Distrik Momi Waren, Kab. Manokwari Selatan, Papua Bar. 98355";"Dembek, Distrik Momi Waren, Kab. Manokwari Selatan";"PAPUA BARAT";"98355";"Indonesia";"";"-1.5602761";"134.1625338";"https://maps.google.com/?cid=0x0:0x96e0c26f6f72b1b8"
"housing complex";"Pembangunan Perumahan";"Kampung Waren Distrik Oransbari Kabupaten Manokwari Selatan";"F535+487, Dembek, Distrik Momi Waren, Kab. Manokwari Selatan, Papua Bar.";"Kab. Manokwari Selatan, Papua Bar.";"PAPUA BARAT";"";"Indonesia";"";"-1.547207";"134.158295";"https://maps.google.com/?cid=0x0:0xf5466c055d6fe617"
"housing complex";"Komplek perumahan";"Kel. Winowoda-Adilang";"C46W+H83, Dembek, Distrik Momi Waren, Kabupaten Manokwari, Papua Bar. 98355";"Dembek, Distrik Momi Waren, Kabupaten Manokwari";"PAPUA BARAT";"98355";"Indonesia";"";"-1.5886043";"134.1457828";"https://maps.google.com/?cid=0x0:0x6a63c9012e0f416e"
"housing complex";"Pembangunan Perumahan";"PEMEKARAN KAMPUNG KEYUN";"92RR+W7P, Nenei Pantai / Nij, Distrik Momi Waren, Kab. Manokwari Selatan, Papua Bar. 98355";"Nenei Pantai / Nij, Distrik Momi Waren, Kab. Manokwari Selatan";"PAPUA BARAT";"98355";"Indonesia";"";"-1.6076515";"134.04071";"https://maps.google.com/?cid=0x0:0x42f9a6eaf6bf84b6"
"housing complex";"housing complex";"Leo serang's home";"C4CX+82J, Dembek, Distrik Momi Waren, Kab. Manokwari Selatan, Papua Bar. 98355";"Dembek, Distrik Momi Waren, Kab. Manokwari Selatan";"PAPUA BARAT";"98355";"Indonesia";"";"-1.5791461";"134.1475205";"https://maps.google.com/?cid=0x0:0xd1bce986e7576311"
"housing complex";"housing complex";"Wami Family";"Jl. Abreso, Bamaha, Distrik Ransiki, Kab. Manokwari Selatan, Papua Bar. 98355";"Bamaha, Distrik Ransiki, Kab. Manokwari Selatan";"PAPUA BARAT";"98355";"Indonesia";"";"-1.5100703";"134.2002177";"https://maps.google.com/?cid=0x0:0x2c1adda9e0c6f7fc"
"housing complex";"housing complex";"house of soindemi fams";"F5V9+PGQ, Ransiki Kota, Distrik Ransiki, Kab. Manokwari Selatan, Papua Bar.";"Kab. Manokwari Selatan, Papua Bar.";"PAPUA BARAT";"";"Indonesia";"";"-1.5056565";"134.1688648";"https://maps.google.com/?cid=0x0:0xd5e547e4c371ad26"
"housing complex";"Perhimpunan Pengembang Perumahan";"Manokwari";"seruni Jl. Manokwari - Bintuni, Gaya Baru, Distrik Momi Waren, Kab. Manokwari Selatan, Papua Bar.";"Kab. Manokwari Selatan, Papua Bar.";"PAPUA BARAT";"";"Indonesia";"";"-1.653402";"134.0631637";"https://maps.google.com/?cid=0x0:0xeb22c539c89f8594"
"housing complex";"Pembangunan Perumahan";"Jhe Huan";"F5Q5+28, Tobouw, Distrik Ransiki, Kab. Manokwari Selatan, Papua Bar.";"Kab. Manokwari Selatan, Papua Bar.";"PAPUA BARAT";"";"Indonesia";"";"-1.5123875";"134.1583047";"https://maps.google.com/?cid=0x0:0x34561b04f3fa61a8"
"housing complex";"Komplek perumahan";"Rumah nya nenek";"3VVM+389, Desay, Distrik Prafi, Kabupaten Manokwari, Papua Bar. 98356";"Desay, Distrik Prafi, Kabupaten Manokwari";"PAPUA BARAT";"98356";"Indonesia";"";"-0.9073292";"133.883365";"https://maps.google.com/?cid=0x0:0x6302a166fa2f24ea"
"housing complex";"Komplek perumahan";"Rumah nenek";"42QX+3WF, Wosi, Kec. Manokwari Bar., Kabupaten Manokwari, Papua Bar. 98312";"Wosi, Kec. Manokwari Bar., Kabupaten Manokwari";"PAPUA BARAT";"98312";"Indonesia";"";"-0.8622441";"134.0498041";"https://maps.google.com/?cid=0x0:0xb548d90a74244313"
"housing complex";"Pemakaman";"TPU SP-2";"3VQP+M88, Prafi Mulia, Distrik Prafi, Kabupaten Manokwari, Papua Bar. 98356";"Prafi Mulia, Distrik Prafi, Kabupaten Manokwari";"PAPUA BARAT";"98356";"Indonesia";"";"-0.9108261";"133.8858328";"https://maps.google.com/?cid=0x0:0x3b5bfaec4a2306c5"
"housing complex";"Komplek perumahan";"Green house";"M6F7+6G4, margorukon, Kec. Oransbari, Kab. Manokwari Selatan, Papua Bar. 98353";"margorukon, Kec. Oransbari, Kab. Manokwari Selatan";"PAPUA BARAT";"98353";"Indonesia";"";"-1.3269875";"134.2138281";"https://maps.google.com/?cid=0x0:0x1c0367d6a19ee653"
"housing complex";"housing complex";"Papua Bar. 98353";"Kabupaten Manokwari, Papua Bar.";"Kabupaten Manokwari, Papua Bar.";"PAPUA BARAT";"";"Indonesia";"";"-1.2869478";"134.1340439";"https://maps.google.com/?cid=0x0:0x8a0ea672dc22a2db"
"housing complex";"housing complex";"Rumah Aila";"M6PC+28G, Sidomulyo, Kec. Oransbari, Kab. Manokwari Selatan, Papua Bar. 98353";"Sidomulyo, Kec. Oransbari, Kab. Manokwari Selatan";"PAPUA BARAT";"98353";"Indonesia";"";"-1.315208";"134.220505";"https://maps.google.com/?cid=0x0:0x4a7d7ee98c7578ee"
"housing complex";"Komplek perumahan";"Rumah Mas Fi";"M6J9+GVG, Sidomulyo, Kec. Oransbari, Kabupaten Manokwari, Papua Bar. 98353";"Sidomulyo, Kec. Oransbari, Kabupaten Manokwari";"PAPUA BARAT";"98353";"Indonesia";"";"-1.3198379";"134.2192861";"https://maps.google.com/?cid=0x0:0x541d2e07baad2b6d"
"housing complex";"housing complex";"3.Asis tata";"M66H+MWP, Muari, Kec. Oransbari, Kab. Manokwari Selatan, Papua Bar.";"Kab. Manokwari Selatan, Papua Bar.";"PAPUA BARAT";"";"Indonesia";"";"-1.338505";"134.229732";"https://maps.google.com/?cid=0x0:0x593370041473a262"
"housing complex";"Pembangunan Perumahan";"Rumah Mualim";"M6J9+Q66, Sidomulyo, Kec. Oransbari, Kab. Manokwari Selatan, Papua Bar.";"Kab. Manokwari Selatan, Papua Bar.";"PAPUA BARAT";"";"Indonesia";"";"-1.3180949";"134.2180207";"https://maps.google.com/?cid=0x0:0x7c51d04ca92c4e2d"
"housing complex";"Pembangunan Perumahan";"Lembur Kuring";"M6H9+34H, Jl. Manokwari - Bintuni, Akeju, Kec. Oransbari, Kab. Manokwari Selatan, Papua Bar. 98353";"Jl. Manokwari - Bintuni, Akeju, Kec. Oransbari, Kab. Manokwari Selatan";"PAPUA BARAT";"98353";"Indonesia";"";"-1.3222986";"134.2178912";"https://maps.google.com/?cid=0x0:0x1c30b7b21f3a33c"
"housing complex";"Pembangunan Perumahan";"Lokasi elthom";"M6G9+6H3, Akeju, Kec. Oransbari, Kab. Manokwari Selatan, Papua Bar. 98353";"Akeju, Kec. Oransbari, Kab. Manokwari Selatan";"PAPUA BARAT";"98353";"Indonesia";"";"-1.3244833";"134.218929";"https://maps.google.com/?cid=0x0:0xb09a1f9381be4097"
"housing complex";"Komplek perumahan";"Rumah Nur Laila Ulfah";"M6PC+28G, Sidomulyo, Kec. Oransbari, Kab. Manokwari Selatan, Papua Bar. 98353";"Sidomulyo, Kec. Oransbari, Kab. Manokwari Selatan";"PAPUA BARAT";"98353";"Indonesia";"";"-1.3149321";"134.2208183";"https://maps.google.com/?cid=0x0:0x437cd0b00b69a673"
"housing complex";"Komplek perumahan";"Home archan";"M568+GW6, Margorukun, Kec. Oransbari, Kab. Manokwari Selatan, Papua Bar. 98353";"Margorukun, Kec. Oransbari, Kab. Manokwari Selatan";"PAPUA BARAT";"98353";"Indonesia";"";"-1.3387139";"134.1672804";"https://maps.google.com/?cid=0x0:0x362772bf88b18fde"
"housing complex";"Komplek perumahan";"Bapk niman";"M6H9+HHQ, Sidomulyo, Kec. Oransbari, Kab. Manokwari Selatan, Papua Bar. 98353";"Sidomulyo, Kec. Oransbari, Kab. Manokwari Selatan";"PAPUA BARAT";"98353";"Indonesia";"";"-1.321039";"134.2189922";"https://maps.google.com/?cid=0x0:0x9c8305cdcf790a1e"
"housing complex";"Komplek perumahan";"Archan";"M6C8+V2, Akeju, Kec. Oransbari, Kab. Manokwari Selatan, Papua Bar.";"Kab. Manokwari Selatan, Papua Bar.";"PAPUA BARAT";"";"Indonesia";"";"-1.3277624";"134.2151233";"https://maps.google.com/?cid=0x0:0xce41f945eff45c91"
"housing complex";"Polisi Negara Bagian";"Mess Polsek Oransbari";"M6PV+625, Waroser, Kec. Oransbari, Kab. Manokwari Selatan, Papua Bar. 98353";"Waroser, Kec. Oransbari, Kab. Manokwari Selatan";"PAPUA BARAT";"98353";"Indonesia";"";"-1.3144954";"134.2426213";"https://maps.google.com/?cid=0x0:0xf3ee64df0f02564a"
"housing complex";"Pembangunan Perumahan";"Inggesi home";"P63P+6CF, Warbiadi, Kec. Oransbari, Kab. Manokwari Selatan, Papua Bar. 98353";"Warbiadi, Kec. Oransbari, Kab. Manokwari Selatan";"PAPUA BARAT";"98353";"Indonesia";"";"-1.2969489";"134.236054";"https://maps.google.com/?cid=0x0:0x341301cbed7438d6"
"housing complex";"housing complex";"Texas(Kobrey)";"F5MJ+C4F, Ransiki Kota, Distrik Ransiki, Kab. Manokwari Selatan, Papua Bar. 98355";"Ransiki Kota, Distrik Ransiki, Kab. Manokwari Selatan";"PAPUA BARAT";"98355";"Indonesia";"";"-1.516433";"134.180298";"https://maps.google.com/?cid=0x0:0x49df69e361f6300"
"housing complex";"housing complex";"Ransiki";"Ransiki Kota, Distrik Ransiki, Kab. Manokwari Selatan, Papua Bar.";"Kab. Manokwari Selatan, Papua Bar.";"PAPUA BARAT";"";"Indonesia";"";"-1.516433";"134.180298";"https://maps.google.com/?cid=0x0:0xc2f9404ccd6ec72a"
"housing complex";"Perhimpunan Pengembang Perumahan";"Kampung Hamawi";"F5H9+VR, Hamawi, Distrik Ransiki, Kab. Manokwari Selatan, Papua Bar.";"Kab. Manokwari Selatan, Papua Bar.";"PAPUA BARAT";"";"Indonesia";" 081344746030";"-1.52033";"134.1695911";"https://maps.google.com/?cid=0x0:0x1a4812f216879c53"
"housing complex";"Polisi Lalu Lintas";"kabupaten manokwari selatan";"F5WC+XMM, Ransiki Kota, Distrik Ransiki, Kab. Manokwari Selatan, Papua Bar.";"Kab. Manokwari Selatan, Papua Bar.";"PAPUA BARAT";"";"Indonesia";"";"-1.5027801";"134.1716735";"https://maps.google.com/?cid=0x0:0x6902bf2fb40e9425"
"housing complex";"housing complex";"Papua Bar. 98355";"Kab. Manokwari Selatan, Papua Bar.";"Kab. Manokwari Selatan, Papua Bar.";"PAPUA BARAT";"";"Indonesia";"";"-1.8268019";"134.0199152";"https://maps.google.com/?cid=0x0:0x3c36f74a68c69218"
"housing complex";"housing complex";"Kos PolKet";"Jl. Abreso No.15, Bamaha, Distrik Ransiki, Kab. Manokwari Selatan, Papua Bar. 98355";"Bamaha, Distrik Ransiki, Kab. Manokwari Selatan";"PAPUA BARAT";"98355";"Indonesia";"";"-1.5099773";"134.2011416";"https://maps.google.com/?cid=0x0:0xea7452581373897f"
"housing complex";"housing complex";"Distrik Tahota";"Kab. Manokwari Selatan, Papua Bar.";"Kab. Manokwari Selatan, Papua Bar.";"PAPUA BARAT";"";"Indonesia";"";"-1.7908829";"133.9862408";"https://maps.google.com/?cid=0x0:0x169fe16a30d46c7b"
"housing complex";"Komplek perumahan";"Paijo";"F6Q3+87M, Jl. Abreso, Ransiki Kota, Distrik Ransiki, Kab. Manokwari Selatan, Papua Bar. 98355";"Jl. Abreso, Ransiki Kota, Distrik Ransiki, Kab. Manokwari Selatan";"PAPUA BARAT";"98355";"Indonesia";" 085229094863";"-1.5116729";"134.2031767";"https://maps.google.com/?cid=0x0:0x1879ed0d6f38d4f0"
"housing complex";"Komplek perumahan";"Leonardo Serang";"Jl. Manokwari - Bintuni No.6, Ransiki Kota, Distrik Ransiki, Kab. Manokwari Selatan, Papua Bar. 98355";"Ransiki Kota, Distrik Ransiki, Kab. Manokwari Selatan";"PAPUA BARAT";"98355";"Indonesia";"";"-1.5044398";"134.1628276";"https://maps.google.com/?cid=0x0:0x86497c539181bb7e"
"housing complex";"housing complex";"Wami Family";"Jl. Abreso, Bamaha, Distrik Ransiki, Kab. Manokwari Selatan, Papua Bar. 98355";"Bamaha, Distrik Ransiki, Kab. Manokwari Selatan";"PAPUA BARAT";"98355";"Indonesia";"";"-1.5100703";"134.2002177";"https://maps.google.com/?cid=0x0:0x2c1adda9e0c6f7fc"
"housing complex";"Hotel jangka panjang";"𝙁𝘼𝘽𝙄𝙊 𝙈𝘼𝙇𝘼 𝙃𝙊𝙐𝙎𝙀";"F5RF+Q2H, Jl. Jati, RT.003/RW.002, kota, Distrik Ransiki, Kab. Manokwari Selatan, Papua Bar. 98355";"Jl. Jati, RT.003/RW.002, kota, Distrik Ransiki, Kab. Manokwari Selatan";"PAPUA BARAT";"98355";"Indonesia";"";"-1.5080705";"134.1725955";"https://maps.google.com/?cid=0x0:0xc48ebd16678e740f"
"housing complex";"Komplek perumahan";"Kampung Seimeba";"72G5+GC, Seimeba, Distrik Tahota, Kab. Manokwari Selatan, Papua Bar.";"Kab. Manokwari Selatan, Papua Bar.";"PAPUA BARAT";"";"Indonesia";"";"-1.7236353";"134.0085328";"https://maps.google.com/?cid=0x0:0x815bf2063a7e42f1"
"housing complex";"Komplek perumahan";"Perumahan Guru Syalom Terpadu";"C49M+FMJ, Jl. Manokwari - Bintuni, Dembek, Distrik Momi Waren, Kab. Manokwari Selatan, Papua Bar.";"Kab. Manokwari Selatan, Papua Bar.";"PAPUA BARAT";"";"Indonesia";"";"-1.5812763";"134.1341453";"https://maps.google.com/?cid=0x0:0x22d33f3814c1edfc"
"housing complex";"housing complex";"Leo serang's home";"C4CX+82J, Dembek, Distrik Momi Waren, Kab. Manokwari Selatan, Papua Bar. 98355";"Dembek, Distrik Momi Waren, Kab. Manokwari Selatan";"PAPUA BARAT";"98355";"Indonesia";"";"-1.5791461";"134.1475205";"https://maps.google.com/?cid=0x0:0xd1bce986e7576311"
"housing complex";"Gedung Apartemen";"Michael mandacan";"F5W6+RJ, Ransiki Kota, Kab. Manokwari Selatan, Papua Bar. 98355";"Ransiki Kota, Kab. Manokwari Selatan";"PAPUA BARAT";"98355";"Indonesia";"";"-1.502938";"134.1615107";"https://maps.google.com/?cid=0x0:0x8965f9729035cc1a"
"housing complex";"Kantor Perusahaan";"Komplex Lemon";"F5QX+4WH, Jalan Sujarwo Condronegoro, SH, kp Jl. Abreso, Distrik Ransiki, Papua Bar.";"Kab. Manokwari Selatan, Papua Bar.";"PAPUA BARAT";"";"Indonesia";"";"-1.5121895";"134.1998658";"https://maps.google.com/?cid=0x0:0xbf8ef112d50777a8"
"housing complex";"Agen Persewaan Rumah Peristirahatan";"Abreso Kontrakan hermon";"F5QX+X59, Jl. Abreso No.15, Ransiki Kota, Distrik Ransiki, Kab. Manokwari Selatan, Papua Bar. 98355";"Jl. Abreso No.15, Ransiki Kota, Distrik Ransiki, Kab. Manokwari Selatan";"PAPUA BARAT";"98355";"Indonesia";"";"-1.5100922";"134.1979857";"https://maps.google.com/?cid=0x0:0x4fb79ca250a0ee3d"
"toko bangunan";"toko bangunan";"Papua Bar. 98359";"Papua Bar.";"Papua Bar.";"PAPUA BARAT";"";"Indonesia";"";"-1.5213839";"133.7525619";"https://maps.google.com/?cid=0x0:0xc8a895044b18d7c8"
"toko bangunan";"Pemasok Bahan Bangunan";"Toko bangunan Sumber Makmur";"32CM+75G, Jl. Manokwari - Maruni, Anday, Distrik Manokwari, Kabupaten Manokwari, Papua Bar. 98315";"Jl. Manokwari - Maruni, Anday, Distrik Manokwari, Kabupaten Manokwari";"PAPUA BARAT";"98315";"Indonesia";" 08114846060";"-0.9293075";"134.0329487";"https://maps.google.com/?cid=0x0:0xa0a85c7270dde255"
"toko bangunan";"Toko Bahan Bangunan";"ANEKA BANGUNAN";"Wosi, Kec. Manokwari Bar., Kabupaten Manokwari, Papua Bar. 98312";"Kec. Manokwari Bar., Kabupaten Manokwari";"PAPUA BARAT";"98312";"Indonesia";" 081344843001";"-0.8631883";"134.0498559";"https://maps.google.com/?cid=0x0:0x3598159af16f30ea"
"toko bangunan";"Toko Bahan Bangunan";"Toko Bangunan Saudara";"Jl. Pasir, pantai, Wosi, Kec. Manokwari Bar., Kabupaten Manokwari, Papua Bar. 98312";"pantai, Wosi, Kec. Manokwari Bar., Kabupaten Manokwari";"PAPUA BARAT";"98312";"Indonesia";" 081219608601";"-0.8691435";"134.0499159";"https://maps.google.com/?cid=0x0:0xd3c286debc960345"
"toko bangunan";"Pemasok Bahan Bangunan";"Depo Makmur Manokwari";"43P2+QWR, Jl. Trikora Wosi, Wosi, Kec. Manokwari Bar., Kabupaten Manokwari, Papua Bar. 98312";"Jl. Trikora Wosi, Wosi, Kec. Manokwari Bar., Kabupaten Manokwari";"PAPUA BARAT";"98312";"Indonesia";" 081248426402";"-0.8630402";"134.0521741";"https://maps.google.com/?cid=0x0:0x387befda163fc63b"
"toko bangunan";"Toko Bahan Bangunan";"Toko Central Bangunan";"42JW+2CG, Wosi, Kec. Manokwari Bar., Kabupaten Manokwari, Papua Bar. 98312";"Wosi, Kec. Manokwari Bar., Kabupaten Manokwari";"PAPUA BARAT";"98312";"Indonesia";"";"-0.8696454";"134.0463667";"https://maps.google.com/?cid=0x0:0x7ec708d770758168"
"toko bangunan";"Toko Bahan Bangunan";"PAPUA BANGUNAN";"42GX+945, Wosi, Kec. Manokwari Bar., Kabupaten Manokwari, Papua Bar. 98312";"Wosi, Kec. Manokwari Bar., Kabupaten Manokwari";"PAPUA BARAT";"98312";"Indonesia";" 082198055550";"-0.874101";"134.0478473";"https://maps.google.com/?cid=0x0:0x2c3683b193d9430f"
"toko bangunan";"Toko Bahan Bangunan";"Toko Bangunan Alva Center";"3299+WR4, Anday, Distrik Manokwari, Kabupaten Manokwari, Papua Bar. 98315";"Anday, Distrik Manokwari, Kabupaten Manokwari";"PAPUA BARAT";"98315";"Indonesia";" 082248894866";"-0.9302448";"134.0195768";"https://maps.google.com/?cid=0x0:0xb10f5dd5b0339319"
"toko bangunan";"Toko Bahan Bangunan";"Toko Bangunan ATIGA";"5355+F7H, Jl. Angkasa Mulyono, Amban, Kec. Manokwari Bar., Kabupaten Manokwari, Papua Bar. 98312";"Jl. Angkasa Mulyono, Amban, Kec. Manokwari Bar., Kabupaten Manokwari";"PAPUA BARAT";"98312";"Indonesia";"";"-0.8413134";"134.0582405";"https://maps.google.com/?cid=0x0:0x6a0ea28d5492ed54"
"toko bangunan";"Toko Bahan Bangunan";"toko bangunan";"329G+VJ9, jln trikora arfai logpond, Anday, Kabupaten Manokwari";"Kabupaten Manokwari, Papua Bar.";"PAPUA BARAT";"";"Indonesia";"";"-0.9303319";"134.0266147";"https://maps.google.com/?cid=0x0:0x7ae5f49d1c059992"
"toko bangunan";"Pusat Perbelanjaan";"Toko Bangunan Pole Wali";"G523+VJ4, Jl. Manokwari - Bintuni, Sabri, Distrik Ransiki, Kab. Manokwari Selatan, Papua Bar. 98355";"Jl. Manokwari - Bintuni, Sabri, Distrik Ransiki, Kab. Manokwari Selatan";"PAPUA BARAT";"98355";"Indonesia";" 082199061888";"-1.4978515";"134.1540692";"https://maps.google.com/?cid=0x0:0xd1498f23bc1ae81e"
"toko bangunan";"toko bangunan";"Distrik Momi Waren";"Kab. Manokwari Selatan, Papua Bar.";"Kab. Manokwari Selatan, Papua Bar.";"PAPUA BARAT";"";"Indonesia";"";"-1.589112";"134.1139979";"https://maps.google.com/?cid=0x0:0xf7889c42ea8b544b"
"toko bangunan";"Toko bahan makanan";"Toko Irian";"Jl. Manokwari - Bintuni, Ransiki Kota, Distrik Ransiki, Kab. Manokwari Selatan, Papua Bar. 98355";"Ransiki Kota, Distrik Ransiki, Kab. Manokwari Selatan";"PAPUA BARAT";"98355";"Indonesia";"";"-1.5078497";"134.1712887";"https://maps.google.com/?cid=0x0:0xf38ba09157a6ee94"
"toko bangunan";"Toko Bahan Bangunan";"Toko Rumba Raya";"G524+8HJ, Sabri, Distrik Ransiki, Kabupaten Manokwari, Papua Bar. 98355";"Sabri, Distrik Ransiki, Kabupaten Manokwari";"PAPUA BARAT";"98355";"Indonesia";"";"-1.4991633";"134.1563785";"https://maps.google.com/?cid=0x0:0xa9c01ef767a67dcb"
"toko bangunan";"Toko Perlengkapan Rumah";"TOKO SINAR GALESONG";"F5W6+8GW, Jl. Manokwari - Bintuni, Sabri, Distrik Ransiki, Kab. Manokwari Selatan, Papua Bar. 98355";"Jl. Manokwari - Bintuni, Sabri, Distrik Ransiki, Kab. Manokwari Selatan";"PAPUA BARAT";"98355";"Indonesia";"";"-1.5040347";"134.1614536";"https://maps.google.com/?cid=0x0:0x86990547a4bc40da"
"toko bangunan";"Toko Bahan Bangunan";"PAPUA BANGUNAN";"42GX+945, Wosi, Kec. Manokwari Bar., Kabupaten Manokwari, Papua Bar. 98312";"Wosi, Kec. Manokwari Bar., Kabupaten Manokwari";"PAPUA BARAT";"98312";"Indonesia";" 082198055550";"-0.874101";"134.0478473";"https://maps.google.com/?cid=0x0:0x2c3683b193d9430f"
"toko bangunan";"Toko Bahan Bangunan";"ANEKA BANGUNAN";"Wosi, Kec. Manokwari Bar., Kabupaten Manokwari, Papua Bar. 98312";"Kec. Manokwari Bar., Kabupaten Manokwari";"PAPUA BARAT";"98312";"Indonesia";" 081344843001";"-0.8631883";"134.0498559";"https://maps.google.com/?cid=0x0:0x3598159af16f30ea"
"toko bangunan";"Toko";"Cahaya sabri";"F5X4+VXM, Jln mkw , Bintuni waspiri, Sabri mansel, Sabri, Distrik Ransiki, Kab. Manokwari Selatan, Papua Bar. 98355";"Jln mkw , Bintuni waspiri, Sabri mansel, Sabri, Distrik Ransiki, Kab. Manokwari Selatan";"PAPUA BARAT";"98355";"Indonesia";" 082198117979";"-1.5002988";"134.1574359";"https://maps.google.com/?cid=0x0:0xcbeb89abc0a2f440"
"toko bangunan";"Toko Perlengkapan Rumah";"Toko Bangunan Chaerul Perkasa";"G47W+272, Sabri, Distrik Ransiki, Kabupaten Manokwari, Papua Bar. 98355";"Sabri, Distrik Ransiki, Kabupaten Manokwari";"PAPUA BARAT";"98355";"Indonesia";"";"-1.4874778";"134.1456266";"https://maps.google.com/?cid=0x0:0x5d9f770235f478e"
"toko bangunan";"Toko Bahan Bangunan";"Toko Central Bangunan";"42JW+2CG, Wosi, Kec. Manokwari Bar., Kabupaten Manokwari, Papua Bar. 98312";"Wosi, Kec. Manokwari Bar., Kabupaten Manokwari";"PAPUA BARAT";"98312";"Indonesia";"";"-0.8696454";"134.0463667";"https://maps.google.com/?cid=0x0:0x7ec708d770758168"
"toko bangunan";"Toko Bahan Bangunan";"Toko Bangunan";"Jl. Trikora Taman Ria No.4, Sowi, Distrik Manokwari, Kabupaten Manokwari, Papua Bar. 98315";"Sowi, Distrik Manokwari, Kabupaten Manokwari";"PAPUA BARAT";"98315";"Indonesia";"";"-0.906996";"134.035784";"https://maps.google.com/?cid=0x0:0xe97020a60705142f"
"toko bangunan";"Pemasok Bahan Bangunan";"Depo Makmur Manokwari";"43P2+QWR, Jl. Trikora Wosi, Wosi, Kec. Manokwari Bar., Kabupaten Manokwari, Papua Bar. 98312";"Jl. Trikora Wosi, Wosi, Kec. Manokwari Bar., Kabupaten Manokwari";"PAPUA BARAT";"98312";"Indonesia";" 081248426402";"-0.8630402";"134.0521741";"https://maps.google.com/?cid=0x0:0x387befda163fc63b"
"toko bangunan";"Toko Bahan Bangunan";"Toko Bangunan FIRMAN";"Jl. Trikora Wosi No.168, Wosi, Kec. Manokwari Bar., Kabupaten Manokwari, Papua Bar. 98312";"Wosi, Kec. Manokwari Bar., Kabupaten Manokwari";"PAPUA BARAT";"98312";"Indonesia";" 08114118555";"-0.8672239";"134.0562233";"https://maps.google.com/?cid=0x0:0xad10e51218925944"
"toko bangunan";"Toko Bahan Bangunan";"Alfa Tree";"G524+2M4, Jl. Manokwari - Bintuni, Sabri, Distrik Ransiki, Kab. Manokwari Selatan, Papua Bar. 98355";"Jl. Manokwari - Bintuni, Sabri, Distrik Ransiki, Kab. Manokwari Selatan";"PAPUA BARAT";"98355";"Indonesia";"";"-1.4999985";"134.1567128";"https://maps.google.com/?cid=0x0:0xbcdca504294bf3fd"
"toko bangunan";"Toko Bahan Bangunan";"Toko Subur Jaya";"Jl. Danau Sunter Utara No.10-11 Blok G3, Sunter Agung, Tanjung Priok, North Jakarta City, Jakarta 14350";"Sunter Agung, Tanjung Priok, North Jakarta City";"PAPUA BARAT";"14350";"Indonesia";" 081808090335";"-6.1382031";"106.8689354";"https://maps.google.com/?cid=0x0:0x4631f8f9504b7608"
"toko bangunan";"Toko Bahan Bangunan";"Toko New Jaya Bahan Bangunan";"1, Jl. Sunter Kemayoran No.3A, RT.1/RW.9, Sunter Jaya, Kec. Tj. Priok, Jkt Utara, Daerah Khusus Ibukota Jakarta 14360";"Jl. Sunter Kemayoran No.3A, RT.1/RW.9, Sunter Jaya, Kec. Tj. Priok, Jkt Utara";"PAPUA BARAT";"14360";"Indonesia";" 087782162397";"-6.1622064";"106.8755923";"https://maps.google.com/?cid=0x0:0x95ad56007bbdd77c"
"toko bangunan";"Toko Bahan Bangunan";"Toko mentari";"4R74+WP, Waseki Indah, Distrik Prafi, Kabupaten Manokwari, Papua Bar.";"Kabupaten Manokwari, Papua Bar.";"PAPUA BARAT";"";"Indonesia";"";"-0.8853016";"133.8068212";"https://maps.google.com/?cid=0x0:0xdc35c757e123f91e"
"toko bangunan";"toko bangunan";"Nenei";"Distrik Neney, Kab. Manokwari Selatan, Papua Bar.";"Kab. Manokwari Selatan, Papua Bar.";"PAPUA BARAT";"";"Indonesia";"";"-1.5521393";"133.9341408";"https://maps.google.com/?cid=0x0:0x56180a919aad2564"
"toko bangunan";"toko bangunan";"Papua Bar. 98353";"Kabupaten Manokwari, Papua Bar.";"Kabupaten Manokwari, Papua Bar.";"PAPUA BARAT";"";"Indonesia";"";"-1.2869478";"134.1340439";"https://maps.google.com/?cid=0x0:0x8a0ea672dc22a2db"
"toko bangunan";"Toko Perlengkapan Rumah";"Toko bangunan imam Maliki";"M67F+XF2, Jl. Manokwari - Bintuni, Margomulyo, Kec. Oransbari, Kab. Manokwari Selatan, Papua Bar. 98353";"Jl. Manokwari - Bintuni, Margomulyo, Kec. Oransbari, Kab. Manokwari Selatan";"PAPUA BARAT";"98353";"Indonesia";"";"-1.335116";"134.2236557";"https://maps.google.com/?cid=0x0:0x8146ca56ddd49935"
"toko bangunan";"toko bangunan";"Oransbari";"J7XJ+PQH, Oransbari";"";"PAPUA BARAT";"";"Indonesia";"";"-1.350698";"134.2819979";"https://maps.google.com/?cid=0x0:0xd41b2d7acaf58d5b"
"toko bangunan";"toko bangunan";"Ransiki";"Ransiki Kota, Distrik Ransiki, Kab. Manokwari Selatan, Papua Bar.";"Kab. Manokwari Selatan, Papua Bar.";"PAPUA BARAT";"";"Indonesia";"";"-1.516433";"134.180298";"https://maps.google.com/?cid=0x0:0xc2f9404ccd6ec72a"
"toko bangunan";"Toko bahan makanan";"Toko Irian";"Jl. Manokwari - Bintuni, Ransiki Kota, Distrik Ransiki, Kab. Manokwari Selatan, Papua Bar. 98355";"Ransiki Kota, Distrik Ransiki, Kab. Manokwari Selatan";"PAPUA BARAT";"98355";"Indonesia";"";"-1.5078497";"134.1712887";"https://maps.google.com/?cid=0x0:0xf38ba09157a6ee94"
"toko bangunan";"toko bangunan";"Toko MarveL";"F5RG+H5W, Ransiki Kota, Distrik Ransiki, Kab. Manokwari Selatan, Papua Bar. 98355";"Ransiki Kota, Distrik Ransiki, Kab. Manokwari Selatan";"PAPUA BARAT";"98355";"Indonesia";"";"-1.5085066";"134.1754377";"https://maps.google.com/?cid=0x0:0x8b3ea15a75eba293"
"toko bangunan";"Toko Bahan Bangunan";"Toko Rumba Raya";"G524+8HJ, Sabri, Distrik Ransiki, Kabupaten Manokwari, Papua Bar. 98355";"Sabri, Distrik Ransiki, Kabupaten Manokwari";"PAPUA BARAT";"98355";"Indonesia";"";"-1.4991633";"134.1563785";"https://maps.google.com/?cid=0x0:0xa9c01ef767a67dcb"
"toko bangunan";"Toko Perlengkapan Rumah";"Toko Bangunan Chaerul Perkasa";"G47W+272, Sabri, Distrik Ransiki, Kabupaten Manokwari, Papua Bar. 98355";"Sabri, Distrik Ransiki, Kabupaten Manokwari";"PAPUA BARAT";"98355";"Indonesia";"";"-1.4874778";"134.1456266";"https://maps.google.com/?cid=0x0:0x5d9f770235f478e"
"toko bangunan";"Pusat Perbelanjaan";"Toko Bangunan Pole Wali";"G523+VJ4, Jl. Manokwari - Bintuni, Sabri, Distrik Ransiki, Kab. Manokwari Selatan, Papua Bar. 98355";"Jl. Manokwari - Bintuni, Sabri, Distrik Ransiki, Kab. Manokwari Selatan";"PAPUA BARAT";"98355";"Indonesia";" 082199061888";"-1.4978515";"134.1540692";"https://maps.google.com/?cid=0x0:0xd1498f23bc1ae81e"
"toko bangunan";"Toko bahan makanan";"Toko Irian";"Jl. Manokwari - Bintuni, Ransiki Kota, Distrik Ransiki, Kab. Manokwari Selatan, Papua Bar. 98355";"Ransiki Kota, Distrik Ransiki, Kab. Manokwari Selatan";"PAPUA BARAT";"98355";"Indonesia";"";"-1.5078497";"134.1712887";"https://maps.google.com/?cid=0x0:0xf38ba09157a6ee94"
"toko bangunan";"toko bangunan";"Papua Bar. 98355";"Kab. Manokwari Selatan, Papua Bar.";"Kab. Manokwari Selatan, Papua Bar.";"PAPUA BARAT";"";"Indonesia";"";"-1.8268019";"134.0199152";"https://maps.google.com/?cid=0x0:0x3c36f74a68c69218"
"toko bangunan";"Toko Perlengkapan Rumah";"TOKO SINAR GALESONG";"F5W6+8GW, Jl. Manokwari - Bintuni, Sabri, Distrik Ransiki, Kab. Manokwari Selatan, Papua Bar. 98355";"Jl. Manokwari - Bintuni, Sabri, Distrik Ransiki, Kab. Manokwari Selatan";"PAPUA BARAT";"98355";"Indonesia";"";"-1.5040347";"134.1614536";"https://maps.google.com/?cid=0x0:0x86990547a4bc40da"
"toko bangunan";"Toko Bahan Bangunan";"Alfa Tree";"G524+2M4, Jl. Manokwari - Bintuni, Sabri, Distrik Ransiki, Kab. Manokwari Selatan, Papua Bar. 98355";"Jl. Manokwari - Bintuni, Sabri, Distrik Ransiki, Kab. Manokwari Selatan";"PAPUA BARAT";"98355";"Indonesia";"";"-1.4999985";"134.1567128";"https://maps.google.com/?cid=0x0:0xbcdca504294bf3fd"
"toko bangunan";"Pusat Perbelanjaan";"Toko Bangunan Pole Wali";"G523+VJ4, Jl. Manokwari - Bintuni, Sabri, Distrik Ransiki, Kab. Manokwari Selatan, Papua Bar. 98355";"Jl. Manokwari - Bintuni, Sabri, Distrik Ransiki, Kab. Manokwari Selatan";"PAPUA BARAT";"98355";"Indonesia";" 082199061888";"-1.4978515";"134.1540692";"https://maps.google.com/?cid=0x0:0xd1498f23bc1ae81e"
"toko bangunan";"Kios";"ALYA JAYA ABADI";"Jalan Henka Dusun Tsunami I, Desa Jl. Abreso, Distrik Ransiki, Papua Bar. 98355";"Desa Jl. Abreso, Distrik Ransiki";"PAPUA BARAT";"98355";"Indonesia";" 081234777846";"-1.5099887";"134.2031959";"https://maps.google.com/?cid=0x0:0x88993672f1bce372"
"toko bangunan";"Toko";"Cahaya sabri";"F5X4+VXM, Jln mkw , Bintuni waspiri, Sabri mansel, Sabri, Distrik Ransiki, Kab. Manokwari Selatan, Papua Bar. 98355";"Jln mkw , Bintuni waspiri, Sabri mansel, Sabri, Distrik Ransiki, Kab. Manokwari Selatan";"PAPUA BARAT";"98355";"Indonesia";" 082198117979";"-1.5002988";"134.1574359";"https://maps.google.com/?cid=0x0:0xcbeb89abc0a2f440"
"toko bangunan";"Toko Perlengkapan Rumah";"Toko Bangunan Chaerul Perkasa";"G47W+272, Sabri, Distrik Ransiki, Kabupaten Manokwari, Papua Bar. 98355";"Sabri, Distrik Ransiki, Kabupaten Manokwari";"PAPUA BARAT";"98355";"Indonesia";"";"-1.4874778";"134.1456266";"https://maps.google.com/?cid=0x0:0x5d9f770235f478e"
"toko bangunan";"Toko Bahan Bangunan";"Ida Farida";"G47W+272, Sabri, Distrik Ransiki, Kab. Manokwari Selatan, Papua Bar. 98355";"Sabri, Distrik Ransiki, Kab. Manokwari Selatan";"PAPUA BARAT";"98355";"Indonesia";"";"-1.4874785";"134.1456254";"https://maps.google.com/?cid=0x0:0x95c3e377a1e4d692"
"building materials";"building materials";"Papua Bar. 98359";"Papua Bar.";"Papua Bar.";"PAPUA BARAT";"";"Indonesia";"";"-1.5213839";"133.7525619";"https://maps.google.com/?cid=0x0:0xc8a895044b18d7c8"
"building materials";"Toko Bahan Bangunan";"ANEKA BANGUNAN";"Wosi, Kec. Manokwari Bar., Kabupaten Manokwari, Papua Bar. 98312";"Kec. Manokwari Bar., Kabupaten Manokwari";"PAPUA BARAT";"98312";"Indonesia";" 081344843001";"-0.8631883";"134.0498559";"https://maps.google.com/?cid=0x0:0x3598159af16f30ea"
"building materials";"Pemasok Bahan Bangunan";"Depo Makmur Manokwari";"43P2+QWR, Jl. Trikora Wosi, Wosi, Kec. Manokwari Bar., Kabupaten Manokwari, Papua Bar. 98312";"Jl. Trikora Wosi, Wosi, Kec. Manokwari Bar., Kabupaten Manokwari";"PAPUA BARAT";"98312";"Indonesia";" 081248426402";"-0.8630402";"134.0521741";"https://maps.google.com/?cid=0x0:0x387befda163fc63b"
"building materials";"Toko Bahan Bangunan";"PAPUA BANGUNAN";"42GX+945, Wosi, Kec. Manokwari Bar., Kabupaten Manokwari, Papua Bar. 98312";"Wosi, Kec. Manokwari Bar., Kabupaten Manokwari";"PAPUA BARAT";"98312";"Indonesia";" 082198055550";"-0.874101";"134.0478473";"https://maps.google.com/?cid=0x0:0x2c3683b193d9430f"
"building materials";"Toko Bahan Bangunan";"DepoTeguh";"43QF+MP2, Padarni, Kec. Manokwari Bar., Kabupaten Manokwari, Papua Bar. 98312";"Padarni, Kec. Manokwari Bar., Kabupaten Manokwari";"PAPUA BARAT";"98312";"Indonesia";"";"-0.8608702";"134.0742546";"https://maps.google.com/?cid=0x0:0xa7aa87e22e73b4ed"
"building materials";"building materials";"Dataran Isim";"Kab. Manokwari Selatan, Papua Bar.";"Kab. Manokwari Selatan, Papua Bar.";"PAPUA BARAT";"";"Indonesia";"";"-1.5213839";"133.7525619";"https://maps.google.com/?cid=0x0:0x5152c50d52f61896"
"building materials";"building materials";"Distrik Momi Waren";"Kab. Manokwari Selatan, Papua Bar.";"Kab. Manokwari Selatan, Papua Bar.";"PAPUA BARAT";"";"Indonesia";"";"-1.589112";"134.1139979";"https://maps.google.com/?cid=0x0:0xf7889c42ea8b544b"
"building materials";"Toko bahan makanan";"Toko Irian";"Jl. Manokwari - Bintuni, Ransiki Kota, Distrik Ransiki, Kab. Manokwari Selatan, Papua Bar. 98355";"Ransiki Kota, Distrik Ransiki, Kab. Manokwari Selatan";"PAPUA BARAT";"98355";"Indonesia";"";"-1.5078497";"134.1712887";"https://maps.google.com/?cid=0x0:0xf38ba09157a6ee94"
"building materials";"Toko Perlengkapan Rumah";"TOKO SINAR GALESONG";"F5W6+8GW, Jl. Manokwari - Bintuni, Sabri, Distrik Ransiki, Kab. Manokwari Selatan, Papua Bar. 98355";"Jl. Manokwari - Bintuni, Sabri, Distrik Ransiki, Kab. Manokwari Selatan";"PAPUA BARAT";"98355";"Indonesia";"";"-1.5040347";"134.1614536";"https://maps.google.com/?cid=0x0:0x86990547a4bc40da"
"building materials";"Toko";"Cahaya sabri";"F5X4+VXM, Jln mkw , Bintuni waspiri, Sabri mansel, Sabri, Distrik Ransiki, Kab. Manokwari Selatan, Papua Bar. 98355";"Jln mkw , Bintuni waspiri, Sabri mansel, Sabri, Distrik Ransiki, Kab. Manokwari Selatan";"PAPUA BARAT";"98355";"Indonesia";" 082198117979";"-1.5002988";"134.1574359";"https://maps.google.com/?cid=0x0:0xcbeb89abc0a2f440"
"building materials";"Kantor Perusahaan";"Stan Kayu Marsello";"C46W+R4C, Dembek, Distrik Momi Waren, Kabupaten Manokwari, Papua Bar. 98355";"Dembek, Distrik Momi Waren, Kabupaten Manokwari";"PAPUA BARAT";"98355";"Indonesia";" 081358733573";"-1.5879288";"134.1452688";"https://maps.google.com/?cid=0x0:0x43f6f6f76e402a67"
"building materials";"Toko Bahan Bangunan";"Alfa Tree";"G524+2M4, Jl. Manokwari - Bintuni, Sabri, Distrik Ransiki, Kab. Manokwari Selatan, Papua Bar. 98355";"Jl. Manokwari - Bintuni, Sabri, Distrik Ransiki, Kab. Manokwari Selatan";"PAPUA BARAT";"98355";"Indonesia";"";"-1.4999985";"134.1567128";"https://maps.google.com/?cid=0x0:0xbcdca504294bf3fd"
"building materials";"Pemasok Bahan Bangunan";"Depo Makmur Manokwari";"43P2+QWR, Jl. Trikora Wosi, Wosi, Kec. Manokwari Bar., Kabupaten Manokwari, Papua Bar. 98312";"Jl. Trikora Wosi, Wosi, Kec. Manokwari Bar., Kabupaten Manokwari";"PAPUA BARAT";"98312";"Indonesia";" 081248426402";"-0.8630402";"134.0521741";"https://maps.google.com/?cid=0x0:0x387befda163fc63b"
"building materials";"Toko Bahan Bangunan";"Depo Bangunan Mbanyu Mili";"3VQM+2GP depan balai kampung sp 2, Prafi Mulia, Distrik Prafi, Kabupaten Manokwari, Papua Bar. 98356";"Prafi Mulia, Distrik Prafi, Kabupaten Manokwari";"PAPUA BARAT";"98356";"Indonesia";" 085254126242";"-0.9124191";"133.8838245";"https://maps.google.com/?cid=0x0:0x72bb281db456c91a"
"building materials";"Toko Bahan Bangunan";"Ida Farida";"G47W+272, Sabri, Distrik Ransiki, Kab. Manokwari Selatan, Papua Bar. 98355";"Sabri, Distrik Ransiki, Kab. Manokwari Selatan";"PAPUA BARAT";"98355";"Indonesia";"";"-1.4874785";"134.1456254";"https://maps.google.com/?cid=0x0:0x95c3e377a1e4d692"
"building materials";"building materials";"Toko MarveL";"F5RG+H5W, Ransiki Kota, Distrik Ransiki, Kab. Manokwari Selatan, Papua Bar. 98355";"Ransiki Kota, Distrik Ransiki, Kab. Manokwari Selatan";"PAPUA BARAT";"98355";"Indonesia";"";"-1.5085066";"134.1754377";"https://maps.google.com/?cid=0x0:0x8b3ea15a75eba293"
"building materials";"Toko Bahan Bangunan";"ANEKA BANGUNAN";"Wosi, Kec. Manokwari Bar., Kabupaten Manokwari, Papua Bar. 98312";"Kec. Manokwari Bar., Kabupaten Manokwari";"PAPUA BARAT";"98312";"Indonesia";" 081344843001";"-0.8631883";"134.0498559";"https://maps.google.com/?cid=0x0:0x3598159af16f30ea"
"building materials";"Toko Bahan Bangunan";"NASYA BANGUNAN";"X8M9+469, Jl. Nusa Indah, Mariyai, Distrik Mariat, Kabupaten Sorong, Papua Bar. 98415";"Jl. Nusa Indah, Mariyai, Distrik Mariat, Kabupaten Sorong";"PAPUA BARAT";"98415";"Indonesia";"";"-1.0172176";"131.3181156";"https://maps.google.com/?cid=0x0:0x19e47aadec85996d"
"building materials";"Toko Bahan Bangunan";"Depo Bangunan Mbanyu Mili";"3VQM+2GP depan balai kampung sp 2, Prafi Mulia, Distrik Prafi, Kabupaten Manokwari, Papua Bar. 98356";"Prafi Mulia, Distrik Prafi, Kabupaten Manokwari";"PAPUA BARAT";"98356";"Indonesia";" 085254126242";"-0.9124191";"133.8838245";"https://maps.google.com/?cid=0x0:0x72bb281db456c91a"
"building materials";"Toko Bahan Bangunan";"Bata Merah Jansae";"WM8P+GMW SP 1, Jalur 4, Waraitama, Distrik Manimeri, Kabupaten Teluk Bintuni, Papua Bar. 98364";"Jalur 4, Waraitama, Distrik Manimeri, Kabupaten Teluk Bintuni";"PAPUA BARAT";"98364";"Indonesia";" 081239398876";"-2.0836485";"133.6867113";"https://maps.google.com/?cid=0x0:0x6f1da27cf1685bd3"
"building materials";"Toko Bahan Bangunan";"TOKO BANGUN NUSANTARA JAYA 2";"JL Yos Sudarso, Sempan, Timika (200 meter setelah SMAN 1, Papua 99971";"Sempan, Timika (200 meter setelah SMAN 1";"PAPUA BARAT";"99971";"Indonesia";" 081334703021";"-4.5705016";"136.8853477";"https://maps.google.com/?cid=0x0:0x439ec6c0e9985b9b"
"building materials";"Toko Bahan Bangunan";"kios enny nur cemenes";"Jl. Dermaga Baru, Bis Agats, Distrik Agats, Kabupaten Asmat, Papua 99777";"Bis Agats, Distrik Agats, Kabupaten Asmat";"PAPUA BARAT";"99777";"Indonesia";" 081343209941";"-5.5305575";"138.1406968";"https://maps.google.com/?cid=0x0:0xf058fc25a2aab75"
"building materials";"building materials";"Oransbari";"J7XJ+PQH, Oransbari";"";"PAPUA BARAT";"";"Indonesia";"";"-1.350698";"134.2819979";"https://maps.google.com/?cid=0x0:0xd41b2d7acaf58d5b"
"building materials";"Toko";"Cahaya sabri";"F5X4+VXM, Jln mkw , Bintuni waspiri, Sabri mansel, Sabri, Distrik Ransiki, Kab. Manokwari Selatan, Papua Bar. 98355";"Jln mkw , Bintuni waspiri, Sabri mansel, Sabri, Distrik Ransiki, Kab. Manokwari Selatan";"PAPUA BARAT";"98355";"Indonesia";" 082198117979";"-1.5002988";"134.1574359";"https://maps.google.com/?cid=0x0:0xcbeb89abc0a2f440"
"building materials";"building materials";"Papua Bar. 98353";"Kabupaten Manokwari, Papua Bar.";"Kabupaten Manokwari, Papua Bar.";"PAPUA BARAT";"";"Indonesia";"";"-1.2869478";"134.1340439";"https://maps.google.com/?cid=0x0:0x8a0ea672dc22a2db"
"building materials";"Toko Bahan Bangunan";"Alfa Tree";"G524+2M4, Jl. Manokwari - Bintuni, Sabri, Distrik Ransiki, Kab. Manokwari Selatan, Papua Bar. 98355";"Jl. Manokwari - Bintuni, Sabri, Distrik Ransiki, Kab. Manokwari Selatan";"PAPUA BARAT";"98355";"Indonesia";"";"-1.4999985";"134.1567128";"https://maps.google.com/?cid=0x0:0xbcdca504294bf3fd"
"building materials";"Toko bahan makanan";"Toko Irian";"Jl. Manokwari - Bintuni, Ransiki Kota, Distrik Ransiki, Kab. Manokwari Selatan, Papua Bar. 98355";"Ransiki Kota, Distrik Ransiki, Kab. Manokwari Selatan";"PAPUA BARAT";"98355";"Indonesia";"";"-1.5078497";"134.1712887";"https://maps.google.com/?cid=0x0:0xf38ba09157a6ee94"
"building materials";"Toko Perlengkapan Rumah";"TOKO SINAR GALESONG";"F5W6+8GW, Jl. Manokwari - Bintuni, Sabri, Distrik Ransiki, Kab. Manokwari Selatan, Papua Bar. 98355";"Jl. Manokwari - Bintuni, Sabri, Distrik Ransiki, Kab. Manokwari Selatan";"PAPUA BARAT";"98355";"Indonesia";"";"-1.5040347";"134.1614536";"https://maps.google.com/?cid=0x0:0x86990547a4bc40da"
"building materials";"Toko Bahan Bangunan";"ANEKA BANGUNAN";"Wosi, Kec. Manokwari Bar., Kabupaten Manokwari, Papua Bar. 98312";"Kec. Manokwari Bar., Kabupaten Manokwari";"PAPUA BARAT";"98312";"Indonesia";" 081344843001";"-0.8631883";"134.0498559";"https://maps.google.com/?cid=0x0:0x3598159af16f30ea"
"building materials";"Pemasok Bahan Bangunan";"Toko bangunan Sumber Makmur";"32CM+75G, Jl. Manokwari - Maruni, Anday, Distrik Manokwari, Kabupaten Manokwari, Papua Bar. 98315";"Jl. Manokwari - Maruni, Anday, Distrik Manokwari, Kabupaten Manokwari";"PAPUA BARAT";"98315";"Indonesia";" 08114846060";"-0.9293075";"134.0329487";"https://maps.google.com/?cid=0x0:0xa0a85c7270dde255"
"building materials";"Kios";"ALYA JAYA ABADI";"Jalan Henka Dusun Tsunami I, Desa Jl. Abreso, Distrik Ransiki, Papua Bar. 98355";"Desa Jl. Abreso, Distrik Ransiki";"PAPUA BARAT";"98355";"Indonesia";" 081234777846";"-1.5099887";"134.2031959";"https://maps.google.com/?cid=0x0:0x88993672f1bce372"
"building materials";"Toko Bahan Bangunan";"Ida Farida";"G47W+272, Sabri, Distrik Ransiki, Kab. Manokwari Selatan, Papua Bar. 98355";"Sabri, Distrik Ransiki, Kab. Manokwari Selatan";"PAPUA BARAT";"98355";"Indonesia";"";"-1.4874785";"134.1456254";"https://maps.google.com/?cid=0x0:0x95c3e377a1e4d692"
"building materials";"building materials";"Citra bangunan";"M67F+RGR, Margomulyo, Kec. Oransbari, Kabupaten Manokwari, Papua Bar. 98353";"Margomulyo, Kec. Oransbari, Kabupaten Manokwari";"PAPUA BARAT";"98353";"Indonesia";"";"-1.3353802";"134.2237758";"https://maps.google.com/?cid=0x0:0x19c7721be4b31fe1"
"building materials";"Toko Bahan Bangunan";"Toko Rumba Raya";"G524+8HJ, Sabri, Distrik Ransiki, Kabupaten Manokwari, Papua Bar. 98355";"Sabri, Distrik Ransiki, Kabupaten Manokwari";"PAPUA BARAT";"98355";"Indonesia";"";"-1.4991633";"134.1563785";"https://maps.google.com/?cid=0x0:0xa9c01ef767a67dcb"
"building materials";"Toko bahan makanan";"Toko Irian";"Jl. Manokwari - Bintuni, Ransiki Kota, Distrik Ransiki, Kab. Manokwari Selatan, Papua Bar. 98355";"Ransiki Kota, Distrik Ransiki, Kab. Manokwari Selatan";"PAPUA BARAT";"98355";"Indonesia";"";"-1.5078497";"134.1712887";"https://maps.google.com/?cid=0x0:0xf38ba09157a6ee94"
"building materials";"building materials";"Toko MarveL";"F5RG+H5W, Ransiki Kota, Distrik Ransiki, Kab. Manokwari Selatan, Papua Bar. 98355";"Ransiki Kota, Distrik Ransiki, Kab. Manokwari Selatan";"PAPUA BARAT";"98355";"Indonesia";"";"-1.5085066";"134.1754377";"https://maps.google.com/?cid=0x0:0x8b3ea15a75eba293"
"building materials";"Toko Bahan Bangunan";"Toko Rumba Raya";"G524+8HJ, Sabri, Distrik Ransiki, Kabupaten Manokwari, Papua Bar. 98355";"Sabri, Distrik Ransiki, Kabupaten Manokwari";"PAPUA BARAT";"98355";"Indonesia";"";"-1.4991633";"134.1563785";"https://maps.google.com/?cid=0x0:0xa9c01ef767a67dcb"
"building materials";"building materials";"Papua Bar. 98355";"Kab. Manokwari Selatan, Papua Bar.";"Kab. Manokwari Selatan, Papua Bar.";"PAPUA BARAT";"";"Indonesia";"";"-1.8268019";"134.0199152";"https://maps.google.com/?cid=0x0:0x3c36f74a68c69218"
"building materials";"Toko";"Cahaya sabri";"F5X4+VXM, Jln mkw , Bintuni waspiri, Sabri mansel, Sabri, Distrik Ransiki, Kab. Manokwari Selatan, Papua Bar. 98355";"Jln mkw , Bintuni waspiri, Sabri mansel, Sabri, Distrik Ransiki, Kab. Manokwari Selatan";"PAPUA BARAT";"98355";"Indonesia";" 082198117979";"-1.5002988";"134.1574359";"https://maps.google.com/?cid=0x0:0xcbeb89abc0a2f440"
"building materials";"Toko Bahan Bangunan";"Alfa Tree";"G524+2M4, Jl. Manokwari - Bintuni, Sabri, Distrik Ransiki, Kab. Manokwari Selatan, Papua Bar. 98355";"Jl. Manokwari - Bintuni, Sabri, Distrik Ransiki, Kab. Manokwari Selatan";"PAPUA BARAT";"98355";"Indonesia";"";"-1.4999985";"134.1567128";"https://maps.google.com/?cid=0x0:0xbcdca504294bf3fd"
"building materials";"building materials";"Distrik Tahota";"Kab. Manokwari Selatan, Papua Bar.";"Kab. Manokwari Selatan, Papua Bar.";"PAPUA BARAT";"";"Indonesia";"";"-1.7908829";"133.9862408";"https://maps.google.com/?cid=0x0:0x169fe16a30d46c7b"
"building materials";"Kios";"ALYA JAYA ABADI";"Jalan Henka Dusun Tsunami I, Desa Jl. Abreso, Distrik Ransiki, Papua Bar. 98355";"Desa Jl. Abreso, Distrik Ransiki";"PAPUA BARAT";"98355";"Indonesia";" 081234777846";"-1.5099887";"134.2031959";"https://maps.google.com/?cid=0x0:0x88993672f1bce372"
"building materials";"Toko bahan makanan";"Toko Irian";"Jl. Manokwari - Bintuni, Ransiki Kota, Distrik Ransiki, Kab. Manokwari Selatan, Papua Bar. 98355";"Ransiki Kota, Distrik Ransiki, Kab. Manokwari Selatan";"PAPUA BARAT";"98355";"Indonesia";"";"-1.5078497";"134.1712887";"https://maps.google.com/?cid=0x0:0xf38ba09157a6ee94"
"building materials";"Toko Bahan Bangunan";"Ida Farida";"G47W+272, Sabri, Distrik Ransiki, Kab. Manokwari Selatan, Papua Bar. 98355";"Sabri, Distrik Ransiki, Kab. Manokwari Selatan";"PAPUA BARAT";"98355";"Indonesia";"";"-1.4874785";"134.1456254";"https://maps.google.com/?cid=0x0:0x95c3e377a1e4d692"
"hardware store";"Toko";"MR.DIY";"Jl. S. Condronegoro, Manokwari Tim., Kec. Manokwari Bar., Kabupaten Manokwari, Papua Bar. 98312";"Manokwari Tim., Kec. Manokwari Bar., Kabupaten Manokwari";"PAPUA BARAT";"98312";"Indonesia";"";"-0.8598762";"134.065071";"https://maps.google.com/?cid=0x0:0xea9b14a17b8a2616"
"hardware store";"Toko Perlengkapan Rumah";"Mr. DIY Wosi";"42GX+74Q, Wosi, Kec. Manokwari Bar., Kabupaten Manokwari, Papua Bar. 98312";"Wosi, Kec. Manokwari Bar., Kabupaten Manokwari";"PAPUA BARAT";"98312";"Indonesia";"";"-0.8742799";"134.0478833";"https://maps.google.com/?cid=0x0:0x901fc121889010dd"
"hardware store";"hardware store";"Papua Bar. 98359";"Papua Bar.";"Papua Bar.";"PAPUA BARAT";"";"Indonesia";"";"-1.5213839";"133.7525619";"https://maps.google.com/?cid=0x0:0xc8a895044b18d7c8"
"hardware store";"hardware store";"Distrik Momi Waren";"Kab. Manokwari Selatan, Papua Bar.";"Kab. Manokwari Selatan, Papua Bar.";"PAPUA BARAT";"";"Indonesia";"";"-1.589112";"134.1139979";"https://maps.google.com/?cid=0x0:0xf7889c42ea8b544b"
"hardware store";"Toko bahan makanan";"Toko Irian";"Jl. Manokwari - Bintuni, Ransiki Kota, Distrik Ransiki, Kab. Manokwari Selatan, Papua Bar. 98355";"Ransiki Kota, Distrik Ransiki, Kab. Manokwari Selatan";"PAPUA BARAT";"98355";"Indonesia";"";"-1.5078497";"134.1712887";"https://maps.google.com/?cid=0x0:0xf38ba09157a6ee94"
"hardware store";"Toko Perlengkapan Rumah";"TOKO SINAR GALESONG";"F5W6+8GW, Jl. Manokwari - Bintuni, Sabri, Distrik Ransiki, Kab. Manokwari Selatan, Papua Bar. 98355";"Jl. Manokwari - Bintuni, Sabri, Distrik Ransiki, Kab. Manokwari Selatan";"PAPUA BARAT";"98355";"Indonesia";"";"-1.5040347";"134.1614536";"https://maps.google.com/?cid=0x0:0x86990547a4bc40da"
"hardware store";"Toko";"Cahaya sabri";"F5X4+VXM, Jln mkw , Bintuni waspiri, Sabri mansel, Sabri, Distrik Ransiki, Kab. Manokwari Selatan, Papua Bar. 98355";"Jln mkw , Bintuni waspiri, Sabri mansel, Sabri, Distrik Ransiki, Kab. Manokwari Selatan";"PAPUA BARAT";"98355";"Indonesia";" 082198117979";"-1.5002988";"134.1574359";"https://maps.google.com/?cid=0x0:0xcbeb89abc0a2f440"
"hardware store";"Kios";"ALYA JAYA ABADI";"Jalan Henka Dusun Tsunami I, Desa Jl. Abreso, Distrik Ransiki, Papua Bar. 98355";"Desa Jl. Abreso, Distrik Ransiki";"PAPUA BARAT";"98355";"Indonesia";" 081234777846";"-1.5099887";"134.2031959";"https://maps.google.com/?cid=0x0:0x88993672f1bce372"
"hardware store";"Grosir kosmetik";"F3 GLOWING AGEN RATIH";"Jl. Berlian II No.4, Kuta Jaya, Kec. Ps. Kemis, Kabupaten Tangerang, Banten 15560";"Kuta Jaya, Kec. Ps. Kemis, Kabupaten Tangerang";"PAPUA BARAT";"15560";"Indonesia";" 081383355429";"-6.1668493";"106.5723234";"https://maps.google.com/?cid=0x0:0x92cfa8f144b93825"
"hardware store";"Toko Kosmetik";"negoin aja";"Jl. Parkit II No.6, RT.05/RW.10, Kuta Baru, Kec. Ps. Kemis, Kabupaten Tangerang, Banten 15561";"RT.05/RW.10, Kuta Baru, Kec. Ps. Kemis, Kabupaten Tangerang";"PAPUA BARAT";"15561";"Indonesia";" 08521200366";"-6.1569916";"106.5725443";"https://maps.google.com/?cid=0x0:0xd86bd23d9f52b693"
"hardware store";"hardware store";"Nenei";"Distrik Neney, Kab. Manokwari Selatan, Papua Bar.";"Kab. Manokwari Selatan, Papua Bar.";"PAPUA BARAT";"";"Indonesia";"";"-1.5521393";"133.9341408";"https://maps.google.com/?cid=0x0:0x56180a919aad2564"
"hardware store";"hardware store";"Papua Bar. 98353";"Kabupaten Manokwari, Papua Bar.";"Kabupaten Manokwari, Papua Bar.";"PAPUA BARAT";"";"Indonesia";"";"-1.2869478";"134.1340439";"https://maps.google.com/?cid=0x0:0x8a0ea672dc22a2db"
"hardware store";"Toko umum";"Oransbari";"M66H+MWP, Muari, Kec. Oransbari, Kab. Manokwari Selatan, Papua Bar.";"Kab. Manokwari Selatan, Papua Bar.";"PAPUA BARAT";"";"Indonesia";"";"-1.3382929";"134.2298399";"https://maps.google.com/?cid=0x0:0x78998a3efdcc223c"
"hardware store";"Kios";"ALYA JAYA ABADI";"Jalan Henka Dusun Tsunami I, Desa Jl. Abreso, Distrik Ransiki, Papua Bar. 98355";"Desa Jl. Abreso, Distrik Ransiki";"PAPUA BARAT";"98355";"Indonesia";" 081234777846";"-1.5099887";"134.2031959";"https://maps.google.com/?cid=0x0:0x88993672f1bce372"
"hardware store";"Toko";"Cahaya sabri";"F5X4+VXM, Jln mkw , Bintuni waspiri, Sabri mansel, Sabri, Distrik Ransiki, Kab. Manokwari Selatan, Papua Bar. 98355";"Jln mkw , Bintuni waspiri, Sabri mansel, Sabri, Distrik Ransiki, Kab. Manokwari Selatan";"PAPUA BARAT";"98355";"Indonesia";" 082198117979";"-1.5002988";"134.1574359";"https://maps.google.com/?cid=0x0:0xcbeb89abc0a2f440"
"hardware store";"hardware store";"Kec. Oransbari";"Kab. Manokwari Selatan, Papua Bar.";"Kab. Manokwari Selatan, Papua Bar.";"PAPUA BARAT";"";"Indonesia";"";"-1.317997";"134.2177814";"https://maps.google.com/?cid=0x0:0x6dc2ddd22e3d8580"
"hardware store";"Toko";"Jalur 2 Mansel";"F5RV+R62, Ransiki Kota, Distrik Ransiki, Kabupaten Manokwari, Papua Bar. 98355";"Ransiki Kota, Distrik Ransiki, Kabupaten Manokwari";"PAPUA BARAT";"98355";"Indonesia";"";"-1.5079763";"134.1930034";"https://maps.google.com/?cid=0x0:0x4683ee0676ecb5ea"
"hardware store";"Layanan Transportasi";"Mansel";"KP.Abreso,Jalan Baru 2 Arah, Ransiki Kota, Distrik Ransiki, Kab. Manokwari Selatan, Papua Bar.";"Kab. Manokwari Selatan, Papua Bar.";"PAPUA BARAT";"";"Indonesia";" 0813141405";"-1.5079537";"134.1942016";"https://maps.google.com/?cid=0x0:0xc7f58f7a5cfa605"
"hardware store";"hardware store";"Mansel abon ikan tuna";"Jl. Abreso, Ransiki Kota, Distrik Ransiki, Kab. Manokwari Selatan, Papua Bar. 98355";"Ransiki Kota, Distrik Ransiki, Kab. Manokwari Selatan";"PAPUA BARAT";"98355";"Indonesia";" 082116196860";"-1.510741";"134.1957948";"https://maps.google.com/?cid=0x0:0x2c4fb7a366de90b0"
"hardware store";"Kios";"ALYA JAYA ABADI";"Jalan Henka Dusun Tsunami I, Desa Jl. Abreso, Distrik Ransiki, Papua Bar. 98355";"Desa Jl. Abreso, Distrik Ransiki";"PAPUA BARAT";"98355";"Indonesia";" 081234777846";"-1.5099887";"134.2031959";"https://maps.google.com/?cid=0x0:0x88993672f1bce372"
"hardware store";"Toko bahan makanan";"Atifa99";"F6Q2+W36, Jl. Abreso, Bamaha, Distrik Ransiki, Kab. Manokwari Selatan, Papua Bar. 98355";"Jl. Abreso, Bamaha, Distrik Ransiki, Kab. Manokwari Selatan";"PAPUA BARAT";"98355";"Indonesia";"";"-1.510035";"134.200431";"https://maps.google.com/?cid=0x0:0x65b2deaf7271b8b6"
"supermarket bangunan";"supermarket bangunan";"Papua Bar. 98359";"Papua Bar.";"Papua Bar.";"PAPUA BARAT";"";"Indonesia";"";"-1.5213839";"133.7525619";"https://maps.google.com/?cid=0x0:0xc8a895044b18d7c8"
"supermarket bangunan";"Pemasok Bahan Bangunan";"Toko bangunan Sumber Makmur";"32CM+75G, Jl. Manokwari - Maruni, Anday, Distrik Manokwari, Kabupaten Manokwari, Papua Bar. 98315";"Jl. Manokwari - Maruni, Anday, Distrik Manokwari, Kabupaten Manokwari";"PAPUA BARAT";"98315";"Indonesia";" 08114846060";"-0.9293075";"134.0329487";"https://maps.google.com/?cid=0x0:0xa0a85c7270dde255"
"supermarket bangunan";"Toko Bahan Bangunan";"ANEKA BANGUNAN";"Wosi, Kec. Manokwari Bar., Kabupaten Manokwari, Papua Bar. 98312";"Kec. Manokwari Bar., Kabupaten Manokwari";"PAPUA BARAT";"98312";"Indonesia";" 081344843001";"-0.8631883";"134.0498559";"https://maps.google.com/?cid=0x0:0x3598159af16f30ea"
"supermarket bangunan";"Toko Bahan Bangunan";"Toko Bangunan Saudara";"Jl. Pasir, pantai, Wosi, Kec. Manokwari Bar., Kabupaten Manokwari, Papua Bar. 98312";"pantai, Wosi, Kec. Manokwari Bar., Kabupaten Manokwari";"PAPUA BARAT";"98312";"Indonesia";" 081219608601";"-0.8691435";"134.0499159";"https://maps.google.com/?cid=0x0:0xd3c286debc960345"
"supermarket bangunan";"Pemasok Bahan Bangunan";"Depo Makmur Manokwari";"43P2+QWR, Jl. Trikora Wosi, Wosi, Kec. Manokwari Bar., Kabupaten Manokwari, Papua Bar. 98312";"Jl. Trikora Wosi, Wosi, Kec. Manokwari Bar., Kabupaten Manokwari";"PAPUA BARAT";"98312";"Indonesia";" 081248426402";"-0.8630402";"134.0521741";"https://maps.google.com/?cid=0x0:0x387befda163fc63b"
"supermarket bangunan";"Toko Bahan Bangunan";"PAPUA BANGUNAN";"42GX+945, Wosi, Kec. Manokwari Bar., Kabupaten Manokwari, Papua Bar. 98312";"Wosi, Kec. Manokwari Bar., Kabupaten Manokwari";"PAPUA BARAT";"98312";"Indonesia";" 082198055550";"-0.874101";"134.0478473";"https://maps.google.com/?cid=0x0:0x2c3683b193d9430f"
"supermarket bangunan";"Toko Bahan Bangunan";"Toko Bangunan";"Jl. Trikora Taman Ria No.4, Sowi, Distrik Manokwari, Kabupaten Manokwari, Papua Bar. 98315";"Sowi, Distrik Manokwari, Kabupaten Manokwari";"PAPUA BARAT";"98315";"Indonesia";"";"-0.906996";"134.035784";"https://maps.google.com/?cid=0x0:0xe97020a60705142f"
"supermarket bangunan";"Toko Bahan Bangunan";"Toko Central Bangunan";"42JW+2CG, Wosi, Kec. Manokwari Bar., Kabupaten Manokwari, Papua Bar. 98312";"Wosi, Kec. Manokwari Bar., Kabupaten Manokwari";"PAPUA BARAT";"98312";"Indonesia";"";"-0.8696454";"134.0463667";"https://maps.google.com/?cid=0x0:0x7ec708d770758168"
"supermarket bangunan";"Toko Bahan Bangunan";"Toko Bangunan ATIGA";"5355+F7H, Jl. Angkasa Mulyono, Amban, Kec. Manokwari Bar., Kabupaten Manokwari, Papua Bar. 98312";"Jl. Angkasa Mulyono, Amban, Kec. Manokwari Bar., Kabupaten Manokwari";"PAPUA BARAT";"98312";"Indonesia";"";"-0.8413134";"134.0582405";"https://maps.google.com/?cid=0x0:0x6a0ea28d5492ed54"
"supermarket bangunan";"Toko Bahan Bangunan";"Toko Bangunan";"Jl. Gn. Salju No.70, Amban, Kec. Manokwari Bar., Kabupaten Manokwari, Papua Bar. 98314";"Amban, Kec. Manokwari Bar., Kabupaten Manokwari";"PAPUA BARAT";"98314";"Indonesia";"";"-0.8378489";"134.0648609";"https://maps.google.com/?cid=0x0:0x39e90745f521cce"
"supermarket bangunan";"Toko Bahan Bangunan";"Toko Bangunan Alva Center";"3299+WR4, Anday, Distrik Manokwari, Kabupaten Manokwari, Papua Bar. 98315";"Anday, Distrik Manokwari, Kabupaten Manokwari";"PAPUA BARAT";"98315";"Indonesia";" 082248894866";"-0.9302448";"134.0195768";"https://maps.google.com/?cid=0x0:0xb10f5dd5b0339319"
"supermarket bangunan";"supermarket bangunan";"Distrik Momi Waren";"Kab. Manokwari Selatan, Papua Bar.";"Kab. Manokwari Selatan, Papua Bar.";"PAPUA BARAT";"";"Indonesia";"";"-1.589112";"134.1139979";"https://maps.google.com/?cid=0x0:0xf7889c42ea8b544b"
"supermarket bangunan";"Toko bahan makanan";"Toko Irian";"Jl. Manokwari - Bintuni, Ransiki Kota, Distrik Ransiki, Kab. Manokwari Selatan, Papua Bar. 98355";"Ransiki Kota, Distrik Ransiki, Kab. Manokwari Selatan";"PAPUA BARAT";"98355";"Indonesia";"";"-1.5078497";"134.1712887";"https://maps.google.com/?cid=0x0:0xf38ba09157a6ee94"
"supermarket bangunan";"Pusat Perbelanjaan";"Toko Bangunan Pole Wali";"G523+VJ4, Jl. Manokwari - Bintuni, Sabri, Distrik Ransiki, Kab. Manokwari Selatan, Papua Bar. 98355";"Jl. Manokwari - Bintuni, Sabri, Distrik Ransiki, Kab. Manokwari Selatan";"PAPUA BARAT";"98355";"Indonesia";" 082199061888";"-1.4978515";"134.1540692";"https://maps.google.com/?cid=0x0:0xd1498f23bc1ae81e"
"supermarket bangunan";"Toko Bahan Bangunan";"Toko Rumba Raya";"G524+8HJ, Sabri, Distrik Ransiki, Kabupaten Manokwari, Papua Bar. 98355";"Sabri, Distrik Ransiki, Kabupaten Manokwari";"PAPUA BARAT";"98355";"Indonesia";"";"-1.4991633";"134.1563785";"https://maps.google.com/?cid=0x0:0xa9c01ef767a67dcb"
"supermarket bangunan";"Toko Perlengkapan Rumah";"TOKO SINAR GALESONG";"F5W6+8GW, Jl. Manokwari - Bintuni, Sabri, Distrik Ransiki, Kab. Manokwari Selatan, Papua Bar. 98355";"Jl. Manokwari - Bintuni, Sabri, Distrik Ransiki, Kab. Manokwari Selatan";"PAPUA BARAT";"98355";"Indonesia";"";"-1.5040347";"134.1614536";"https://maps.google.com/?cid=0x0:0x86990547a4bc40da"
"supermarket bangunan";"Toko Bahan Bangunan";"Supermarket Multi Bangunan";"Jl Baru No.98, Wai Mhorock, Abepura, Jayapura City, Papua 99225";"Wai Mhorock, Abepura, Jayapura City";"PAPUA BARAT";"99225";"Indonesia";" 0967588677";"-2.6077336";"140.6742812";"https://maps.google.com/?cid=0x0:0x3b19f301c68f1d6f"
"supermarket bangunan";"Toko Bahan Bangunan";"PAPUA BANGUNAN";"42GX+945, Wosi, Kec. Manokwari Bar., Kabupaten Manokwari, Papua Bar. 98312";"Wosi, Kec. Manokwari Bar., Kabupaten Manokwari";"PAPUA BARAT";"98312";"Indonesia";" 082198055550";"-0.874101";"134.0478473";"https://maps.google.com/?cid=0x0:0x2c3683b193d9430f"
"supermarket bangunan";"Toko";"Cahaya sabri";"F5X4+VXM, Jln mkw , Bintuni waspiri, Sabri mansel, Sabri, Distrik Ransiki, Kab. Manokwari Selatan, Papua Bar. 98355";"Jln mkw , Bintuni waspiri, Sabri mansel, Sabri, Distrik Ransiki, Kab. Manokwari Selatan";"PAPUA BARAT";"98355";"Indonesia";" 082198117979";"-1.5002988";"134.1574359";"https://maps.google.com/?cid=0x0:0xcbeb89abc0a2f440"
"supermarket bangunan";"Pemasok Bahan Bangunan";"Depo Makmur Manokwari";"43P2+QWR, Jl. Trikora Wosi, Wosi, Kec. Manokwari Bar., Kabupaten Manokwari, Papua Bar. 98312";"Jl. Trikora Wosi, Wosi, Kec. Manokwari Bar., Kabupaten Manokwari";"PAPUA BARAT";"98312";"Indonesia";" 081248426402";"-0.8630402";"134.0521741";"https://maps.google.com/?cid=0x0:0x387befda163fc63b"
"supermarket bangunan";"Kantor Perusahaan";"Stan Kayu Marsello";"C46W+R4C, Dembek, Distrik Momi Waren, Kabupaten Manokwari, Papua Bar. 98355";"Dembek, Distrik Momi Waren, Kabupaten Manokwari";"PAPUA BARAT";"98355";"Indonesia";" 081358733573";"-1.5879288";"134.1452688";"https://maps.google.com/?cid=0x0:0x43f6f6f76e402a67"
"supermarket bangunan";"Toko Bahan Bangunan";"Toko Bangunan";"Jl. Trikora Taman Ria No.4, Sowi, Distrik Manokwari, Kabupaten Manokwari, Papua Bar. 98315";"Sowi, Distrik Manokwari, Kabupaten Manokwari";"PAPUA BARAT";"98315";"Indonesia";"";"-0.906996";"134.035784";"https://maps.google.com/?cid=0x0:0xe97020a60705142f"
"supermarket bangunan";"Komplek perumahan";"Kampung Waren";"94V5+2M2, Waren, Distrik Momi Waren, Kab. Manokwari Selatan, Papua Bar. 98355";"Waren, Distrik Momi Waren, Kab. Manokwari Selatan";"PAPUA BARAT";"98355";"Indonesia";"";"-1.6074867";"134.1091317";"https://maps.google.com/?cid=0x0:0xa8dbd6d862057239"
"supermarket bangunan";"Toko Bahan Bangunan";"Toko Bangunan Saudara";"Jl. Pasir, pantai, Wosi, Kec. Manokwari Bar., Kabupaten Manokwari, Papua Bar. 98312";"pantai, Wosi, Kec. Manokwari Bar., Kabupaten Manokwari";"PAPUA BARAT";"98312";"Indonesia";" 081219608601";"-0.8691435";"134.0499159";"https://maps.google.com/?cid=0x0:0xd3c286debc960345"
"supermarket bangunan";"Toko Bahan Bangunan";"Alfa Tree";"G524+2M4, Jl. Manokwari - Bintuni, Sabri, Distrik Ransiki, Kab. Manokwari Selatan, Papua Bar. 98355";"Jl. Manokwari - Bintuni, Sabri, Distrik Ransiki, Kab. Manokwari Selatan";"PAPUA BARAT";"98355";"Indonesia";"";"-1.4999985";"134.1567128";"https://maps.google.com/?cid=0x0:0xbcdca504294bf3fd"
"supermarket bangunan";"Toko Bahan Bangunan";"ANEKA BANGUNAN";"Wosi, Kec. Manokwari Bar., Kabupaten Manokwari, Papua Bar. 98312";"Kec. Manokwari Bar., Kabupaten Manokwari";"PAPUA BARAT";"98312";"Indonesia";" 081344843001";"-0.8631883";"134.0498559";"https://maps.google.com/?cid=0x0:0x3598159af16f30ea"
"supermarket bangunan";"Toko Bahan Bangunan";"Toko Bangunan FIRMAN";"Jl. Trikora Wosi No.168, Wosi, Kec. Manokwari Bar., Kabupaten Manokwari, Papua Bar. 98312";"Wosi, Kec. Manokwari Bar., Kabupaten Manokwari";"PAPUA BARAT";"98312";"Indonesia";" 08114118555";"-0.8672239";"134.0562233";"https://maps.google.com/?cid=0x0:0xad10e51218925944"
"supermarket bangunan";"Toko Bahan Bangunan";"Toko Multi Bangunan";"Q97H+9V2, Sarafambai, Kec. Waropen Bawah, Kabupaten Waropen, Papua 98261";"Sarafambai, Kec. Waropen Bawah, Kabupaten Waropen";"PAPUA BARAT";"98261";"Indonesia";"";"-2.2366153";"136.3796343";"https://maps.google.com/?cid=0x0:0x8fe10ca526096f47"
"supermarket bangunan";"Toko Bahan Bangunan";"PAPUA BANGUNAN";"42GX+945, Wosi, Kec. Manokwari Bar., Kabupaten Manokwari, Papua Bar. 98312";"Wosi, Kec. Manokwari Bar., Kabupaten Manokwari";"PAPUA BARAT";"98312";"Indonesia";" 082198055550";"-0.874101";"134.0478473";"https://maps.google.com/?cid=0x0:0x2c3683b193d9430f"
"supermarket bangunan";"Toko Bahan Bangunan";"Supermarket Multi Bangunan";"Jl Baru No.98, Wai Mhorock, Abepura, Jayapura City, Papua 99225";"Wai Mhorock, Abepura, Jayapura City";"PAPUA BARAT";"99225";"Indonesia";" 0967588677";"-2.6077336";"140.6742812";"https://maps.google.com/?cid=0x0:0x3b19f301c68f1d6f"
"supermarket bangunan";"Toko Bahan Bangunan";"Toko Bangunan naira";"Wanagon, Jl. Poros SP V - SP II, Kec. Mimika Baru, Kabupaten Mimika, Papua 99952";"Jl. Poros SP V - SP II, Kec. Mimika Baru, Kabupaten Mimika";"PAPUA BARAT";"99952";"Indonesia";" 085145118770";"-4.5180236";"136.8426916";"https://maps.google.com/?cid=0x0:0x41539a335a8db899"
"supermarket bangunan";"Toko Bahan Bangunan";"Toko Bangunan";"Jl. Gn. Salju No.70, Amban, Kec. Manokwari Bar., Kabupaten Manokwari, Papua Bar. 98314";"Amban, Kec. Manokwari Bar., Kabupaten Manokwari";"PAPUA BARAT";"98314";"Indonesia";"";"-0.8378489";"134.0648609";"https://maps.google.com/?cid=0x0:0x39e90745f521cce"
"supermarket bangunan";"supermarket bangunan";"Nenei";"Distrik Neney, Kab. Manokwari Selatan, Papua Bar.";"Kab. Manokwari Selatan, Papua Bar.";"PAPUA BARAT";"";"Indonesia";"";"-1.5521393";"133.9341408";"https://maps.google.com/?cid=0x0:0x56180a919aad2564"
"supermarket bangunan";"Toko Bahan Bangunan";"Fajar Bangunan";"Sowi, Distrik Manokwari, Kabupaten Manokwari, Papua Bar. 98315";"Distrik Manokwari, Kabupaten Manokwari";"PAPUA BARAT";"98315";"Indonesia";"";"-0.9062643";"134.0359839";"https://maps.google.com/?cid=0x0:0x9d0563299ba4e3f6"
"supermarket bangunan";"Toko Bahan Bangunan";"Toko Central Bangunan";"42JW+2CG, Wosi, Kec. Manokwari Bar., Kabupaten Manokwari, Papua Bar. 98312";"Wosi, Kec. Manokwari Bar., Kabupaten Manokwari";"PAPUA BARAT";"98312";"Indonesia";"";"-0.8696454";"134.0463667";"https://maps.google.com/?cid=0x0:0x7ec708d770758168"
"supermarket bangunan";"Toko Bahan Bangunan";"TOKO SUMBER NIAGA BANGUNAN";"Timika Jaya, Kec. Mimika Baru, Kabupaten Mimika, Papua 99971";"Kec. Mimika Baru, Kabupaten Mimika";"PAPUA BARAT";"99971";"Indonesia";" 0856095797670";"-4.569129";"136.878701";"https://maps.google.com/?cid=0x0:0xcd18f7af7f50af74"
"supermarket bangunan";"Toko Bahan Bangunan";"Toko Bangunan Ria-Utama";"Unnamed Road, Malaingkedi, Papua Bar. 98412, Malaingkedi, Kecamatan Sorong Manoi, Kota Sorong, Papua Bar. 98412";"Malaingkedi, Papua Bar.";"PAPUA BARAT";"98412";"Indonesia";" 082199656081";"-0.8774608";"131.2993409";"https://maps.google.com/?cid=0x0:0x6fa2bf791344f50d"
"supermarket bangunan";"Toko Bahan Bangunan";"Toko Rahayu Babo";"FF52+F2R, Unnamed Road, Nusei, Babo, Kabupaten Teluk Bintuni, Papua Bar. 98363";"Unnamed Road, Nusei, Babo, Kabupaten Teluk Bintuni";"PAPUA BARAT";"98363";"Indonesia";" 085244200777";"-2.5412733";"133.45003";"https://maps.google.com/?cid=0x0:0x2d6ca9cad594f391"
"supermarket bangunan";"Toko Bahan Bangunan";"Toko Karya Abadi";"WJ4X+24P, Tuasai, Distrik Bintuni, Kabupaten Teluk Bintuni, Papua Bar. 98364";"Tuasai, Distrik Bintuni, Kabupaten Teluk Bintuni";"PAPUA BARAT";"98364";"Indonesia";" 082244443838";"-2.094909";"133.6478193";"https://maps.google.com/?cid=0x0:0x860a78b44fea4433"
"supermarket bangunan";"supermarket bangunan";"Papua Bar. 98353";"Kabupaten Manokwari, Papua Bar.";"Kabupaten Manokwari, Papua Bar.";"PAPUA BARAT";"";"Indonesia";"";"-1.2869478";"134.1340439";"https://maps.google.com/?cid=0x0:0x8a0ea672dc22a2db"
"supermarket bangunan";"Toko Perlengkapan Rumah";"Toko bangunan imam Maliki";"M67F+XF2, Jl. Manokwari - Bintuni, Margomulyo, Kec. Oransbari, Kab. Manokwari Selatan, Papua Bar. 98353";"Jl. Manokwari - Bintuni, Margomulyo, Kec. Oransbari, Kab. Manokwari Selatan";"PAPUA BARAT";"98353";"Indonesia";"";"-1.335116";"134.2236557";"https://maps.google.com/?cid=0x0:0x8146ca56ddd49935"
"supermarket bangunan";"Toko Bahan Bangunan";"ANEKA BANGUNAN";"Wosi, Kec. Manokwari Bar., Kabupaten Manokwari, Papua Bar. 98312";"Kec. Manokwari Bar., Kabupaten Manokwari";"PAPUA BARAT";"98312";"Indonesia";" 081344843001";"-0.8631883";"134.0498559";"https://maps.google.com/?cid=0x0:0x3598159af16f30ea"
"supermarket bangunan";"supermarket bangunan";"Oransbari";"J7XJ+PQH, Oransbari";"";"PAPUA BARAT";"";"Indonesia";"";"-1.350698";"134.2819979";"https://maps.google.com/?cid=0x0:0xd41b2d7acaf58d5b"
"supermarket bangunan";"Pusat Perbelanjaan";"Toko Bangunan Pole Wali";"G523+VJ4, Jl. Manokwari - Bintuni, Sabri, Distrik Ransiki, Kab. Manokwari Selatan, Papua Bar. 98355";"Jl. Manokwari - Bintuni, Sabri, Distrik Ransiki, Kab. Manokwari Selatan";"PAPUA BARAT";"98355";"Indonesia";" 082199061888";"-1.4978515";"134.1540692";"https://maps.google.com/?cid=0x0:0xd1498f23bc1ae81e"
"supermarket bangunan";"Pemasok Bahan Bangunan";"Depo Makmur Manokwari";"43P2+QWR, Jl. Trikora Wosi, Wosi, Kec. Manokwari Bar., Kabupaten Manokwari, Papua Bar. 98312";"Jl. Trikora Wosi, Wosi, Kec. Manokwari Bar., Kabupaten Manokwari";"PAPUA BARAT";"98312";"Indonesia";" 081248426402";"-0.8630402";"134.0521741";"https://maps.google.com/?cid=0x0:0x387befda163fc63b"
"supermarket bangunan";"Toko Bahan Bangunan";"Toko Bangunan FIRMAN";"Jl. Trikora Wosi No.168, Wosi, Kec. Manokwari Bar., Kabupaten Manokwari, Papua Bar. 98312";"Wosi, Kec. Manokwari Bar., Kabupaten Manokwari";"PAPUA BARAT";"98312";"Indonesia";" 08114118555";"-0.8672239";"134.0562233";"https://maps.google.com/?cid=0x0:0xad10e51218925944"
"supermarket bangunan";"Toko Bahan Bangunan";"Toko Bangunan Saudara";"Jl. Pasir, pantai, Wosi, Kec. Manokwari Bar., Kabupaten Manokwari, Papua Bar. 98312";"pantai, Wosi, Kec. Manokwari Bar., Kabupaten Manokwari";"PAPUA BARAT";"98312";"Indonesia";" 081219608601";"-0.8691435";"134.0499159";"https://maps.google.com/?cid=0x0:0xd3c286debc960345"
"supermarket bangunan";"Toko Bahan Bangunan";"Toko Rumba Raya";"G524+8HJ, Sabri, Distrik Ransiki, Kabupaten Manokwari, Papua Bar. 98355";"Sabri, Distrik Ransiki, Kabupaten Manokwari";"PAPUA BARAT";"98355";"Indonesia";"";"-1.4991633";"134.1563785";"https://maps.google.com/?cid=0x0:0xa9c01ef767a67dcb"
"supermarket bangunan";"Toko Bahan Bangunan";"Toko Bangunan";"Jl. Trikora Taman Ria No.4, Sowi, Distrik Manokwari, Kabupaten Manokwari, Papua Bar. 98315";"Sowi, Distrik Manokwari, Kabupaten Manokwari";"PAPUA BARAT";"98315";"Indonesia";"";"-0.906996";"134.035784";"https://maps.google.com/?cid=0x0:0xe97020a60705142f"
"supermarket bangunan";"Toko Bahan Bangunan";"Supermarket Multi Bangunan";"Jl Baru No.98, Wai Mhorock, Abepura, Jayapura City, Papua 99225";"Wai Mhorock, Abepura, Jayapura City";"PAPUA BARAT";"99225";"Indonesia";" 0967588677";"-2.6077336";"140.6742812";"https://maps.google.com/?cid=0x0:0x3b19f301c68f1d6f"
"supermarket bangunan";"Toko Perlengkapan Rumah";"Toko Bangunan Chaerul Perkasa";"G47W+272, Sabri, Distrik Ransiki, Kabupaten Manokwari, Papua Bar. 98355";"Sabri, Distrik Ransiki, Kabupaten Manokwari";"PAPUA BARAT";"98355";"Indonesia";"";"-1.4874778";"134.1456266";"https://maps.google.com/?cid=0x0:0x5d9f770235f478e"
"supermarket bangunan";"Toko Bahan Bangunan";"Toko Central Bangunan";"42JW+2CG, Wosi, Kec. Manokwari Bar., Kabupaten Manokwari, Papua Bar. 98312";"Wosi, Kec. Manokwari Bar., Kabupaten Manokwari";"PAPUA BARAT";"98312";"Indonesia";"";"-0.8696454";"134.0463667";"https://maps.google.com/?cid=0x0:0x7ec708d770758168"
"supermarket bangunan";"Toko Bahan Bangunan";"PAPUA BANGUNAN";"42GX+945, Wosi, Kec. Manokwari Bar., Kabupaten Manokwari, Papua Bar. 98312";"Wosi, Kec. Manokwari Bar., Kabupaten Manokwari";"PAPUA BARAT";"98312";"Indonesia";" 082198055550";"-0.874101";"134.0478473";"https://maps.google.com/?cid=0x0:0x2c3683b193d9430f"
"supermarket bangunan";"supermarket bangunan";"Ransiki";"Ransiki Kota, Distrik Ransiki, Kab. Manokwari Selatan, Papua Bar.";"Kab. Manokwari Selatan, Papua Bar.";"PAPUA BARAT";"";"Indonesia";"";"-1.516433";"134.180298";"https://maps.google.com/?cid=0x0:0xc2f9404ccd6ec72a"
"supermarket bangunan";"Toko bahan makanan";"Toko Irian";"Jl. Manokwari - Bintuni, Ransiki Kota, Distrik Ransiki, Kab. Manokwari Selatan, Papua Bar. 98355";"Ransiki Kota, Distrik Ransiki, Kab. Manokwari Selatan";"PAPUA BARAT";"98355";"Indonesia";"";"-1.5078497";"134.1712887";"https://maps.google.com/?cid=0x0:0xf38ba09157a6ee94"
"supermarket bangunan";"supermarket bangunan";"Toko MarveL";"F5RG+H5W, Ransiki Kota, Distrik Ransiki, Kab. Manokwari Selatan, Papua Bar. 98355";"Ransiki Kota, Distrik Ransiki, Kab. Manokwari Selatan";"PAPUA BARAT";"98355";"Indonesia";"";"-1.5085066";"134.1754377";"https://maps.google.com/?cid=0x0:0x8b3ea15a75eba293"
"supermarket bangunan";"Toko Bahan Bangunan";"ANEKA BANGUNAN";"Wosi, Kec. Manokwari Bar., Kabupaten Manokwari, Papua Bar. 98312";"Kec. Manokwari Bar., Kabupaten Manokwari";"PAPUA BARAT";"98312";"Indonesia";" 081344843001";"-0.8631883";"134.0498559";"https://maps.google.com/?cid=0x0:0x3598159af16f30ea"
"supermarket bangunan";"Toko Bahan Bangunan";"Toko Bangunan";"Jl. Trikora Taman Ria No.4, Sowi, Distrik Manokwari, Kabupaten Manokwari, Papua Bar. 98315";"Sowi, Distrik Manokwari, Kabupaten Manokwari";"PAPUA BARAT";"98315";"Indonesia";"";"-0.906996";"134.035784";"https://maps.google.com/?cid=0x0:0xe97020a60705142f"
"supermarket bangunan";"Toko Bahan Bangunan";"Toko Bangunan ATIGA";"5355+F7H, Jl. Angkasa Mulyono, Amban, Kec. Manokwari Bar., Kabupaten Manokwari, Papua Bar. 98312";"Jl. Angkasa Mulyono, Amban, Kec. Manokwari Bar., Kabupaten Manokwari";"PAPUA BARAT";"98312";"Indonesia";"";"-0.8413134";"134.0582405";"https://maps.google.com/?cid=0x0:0x6a0ea28d5492ed54"
"supermarket bangunan";"Toko Bahan Bangunan";"Toko Bangunan";"Jl. Gn. Salju No.70, Amban, Kec. Manokwari Bar., Kabupaten Manokwari, Papua Bar. 98314";"Amban, Kec. Manokwari Bar., Kabupaten Manokwari";"PAPUA BARAT";"98314";"Indonesia";"";"-0.8378489";"134.0648609";"https://maps.google.com/?cid=0x0:0x39e90745f521cce"
"supermarket bangunan";"Toko Bahan Bangunan";"PAPUA BANGUNAN";"42GX+945, Wosi, Kec. Manokwari Bar., Kabupaten Manokwari, Papua Bar. 98312";"Wosi, Kec. Manokwari Bar., Kabupaten Manokwari";"PAPUA BARAT";"98312";"Indonesia";" 082198055550";"-0.874101";"134.0478473";"https://maps.google.com/?cid=0x0:0x2c3683b193d9430f"
"supermarket bangunan";"supermarket bangunan";"Papua Bar. 98355";"Kab. Manokwari Selatan, Papua Bar.";"Kab. Manokwari Selatan, Papua Bar.";"PAPUA BARAT";"";"Indonesia";"";"-1.8268019";"134.0199152";"https://maps.google.com/?cid=0x0:0x3c36f74a68c69218"
"supermarket bangunan";"Pusat Perbelanjaan";"Toko Bangunan Pole Wali";"G523+VJ4, Jl. Manokwari - Bintuni, Sabri, Distrik Ransiki, Kab. Manokwari Selatan, Papua Bar. 98355";"Jl. Manokwari - Bintuni, Sabri, Distrik Ransiki, Kab. Manokwari Selatan";"PAPUA BARAT";"98355";"Indonesia";" 082199061888";"-1.4978515";"134.1540692";"https://maps.google.com/?cid=0x0:0xd1498f23bc1ae81e"
"supermarket bangunan";"Toko Bahan Bangunan";"Toko Rumba Raya";"G524+8HJ, Sabri, Distrik Ransiki, Kabupaten Manokwari, Papua Bar. 98355";"Sabri, Distrik Ransiki, Kabupaten Manokwari";"PAPUA BARAT";"98355";"Indonesia";"";"-1.4991633";"134.1563785";"https://maps.google.com/?cid=0x0:0xa9c01ef767a67dcb"
"supermarket bangunan";"Toko bahan makanan";"Toko Irian";"Jl. Manokwari - Bintuni, Ransiki Kota, Distrik Ransiki, Kab. Manokwari Selatan, Papua Bar. 98355";"Ransiki Kota, Distrik Ransiki, Kab. Manokwari Selatan";"PAPUA BARAT";"98355";"Indonesia";"";"-1.5078497";"134.1712887";"https://maps.google.com/?cid=0x0:0xf38ba09157a6ee94"
"supermarket bangunan";"Toko Perlengkapan Rumah";"Toko Bangunan Chaerul Perkasa";"G47W+272, Sabri, Distrik Ransiki, Kabupaten Manokwari, Papua Bar. 98355";"Sabri, Distrik Ransiki, Kabupaten Manokwari";"PAPUA BARAT";"98355";"Indonesia";"";"-1.4874778";"134.1456266";"https://maps.google.com/?cid=0x0:0x5d9f770235f478e"
"supermarket bangunan";"Toko Bahan Bangunan";"Alfa Tree";"G524+2M4, Jl. Manokwari - Bintuni, Sabri, Distrik Ransiki, Kab. Manokwari Selatan, Papua Bar. 98355";"Jl. Manokwari - Bintuni, Sabri, Distrik Ransiki, Kab. Manokwari Selatan";"PAPUA BARAT";"98355";"Indonesia";"";"-1.4999985";"134.1567128";"https://maps.google.com/?cid=0x0:0xbcdca504294bf3fd"
"supermarket bangunan";"Toko";"Cahaya sabri";"F5X4+VXM, Jln mkw , Bintuni waspiri, Sabri mansel, Sabri, Distrik Ransiki, Kab. Manokwari Selatan, Papua Bar. 98355";"Jln mkw , Bintuni waspiri, Sabri mansel, Sabri, Distrik Ransiki, Kab. Manokwari Selatan";"PAPUA BARAT";"98355";"Indonesia";" 082198117979";"-1.5002988";"134.1574359";"https://maps.google.com/?cid=0x0:0xcbeb89abc0a2f440"
"supermarket bangunan";"Kios";"ALYA JAYA ABADI";"Jalan Henka Dusun Tsunami I, Desa Jl. Abreso, Distrik Ransiki, Papua Bar. 98355";"Desa Jl. Abreso, Distrik Ransiki";"PAPUA BARAT";"98355";"Indonesia";" 081234777846";"-1.5099887";"134.2031959";"https://maps.google.com/?cid=0x0:0x88993672f1bce372"
"supermarket bangunan";"Toko Bahan Bangunan";"Supermarket Multi Bangunan";"Jl Baru No.98, Wai Mhorock, Abepura, Jayapura City, Papua 99225";"Wai Mhorock, Abepura, Jayapura City";"PAPUA BARAT";"99225";"Indonesia";" 0967588677";"-2.6077336";"140.6742812";"https://maps.google.com/?cid=0x0:0x3b19f301c68f1d6f"
"supermarket bangunan";"Toko Bahan Bangunan";"Ida Farida";"G47W+272, Sabri, Distrik Ransiki, Kab. Manokwari Selatan, Papua Bar. 98355";"Sabri, Distrik Ransiki, Kab. Manokwari Selatan";"PAPUA BARAT";"98355";"Indonesia";"";"-1.4874785";"134.1456254";"https://maps.google.com/?cid=0x0:0x95c3e377a1e4d692"
"supermarket bangunan";"Pemasok Bahan Bangunan";"Toko bangunan Sumber Makmur";"32CM+75G, Jl. Manokwari - Maruni, Anday, Distrik Manokwari, Kabupaten Manokwari, Papua Bar. 98315";"Jl. Manokwari - Maruni, Anday, Distrik Manokwari, Kabupaten Manokwari";"PAPUA BARAT";"98315";"Indonesia";" 08114846060";"-0.9293075";"134.0329487";"https://maps.google.com/?cid=0x0:0xa0a85c7270dde255"
"supermarket bangunan";"Toko Bahan Bangunan";"Toko Bangunan ATIGA";"5355+F7H, Jl. Angkasa Mulyono, Amban, Kec. Manokwari Bar., Kabupaten Manokwari, Papua Bar. 98312";"Jl. Angkasa Mulyono, Amban, Kec. Manokwari Bar., Kabupaten Manokwari";"PAPUA BARAT";"98312";"Indonesia";"";"-0.8413134";"134.0582405";"https://maps.google.com/?cid=0x0:0x6a0ea28d5492ed54"
"supermarket bangunan";"Toko Bahan Bangunan";"ANEKA BANGUNAN";"Wosi, Kec. Manokwari Bar., Kabupaten Manokwari, Papua Bar. 98312";"Kec. Manokwari Bar., Kabupaten Manokwari";"PAPUA BARAT";"98312";"Indonesia";" 081344843001";"-0.8631883";"134.0498559";"https://maps.google.com/?cid=0x0:0x3598159af16f30ea"
"supermarket bangunan";"Pemasok Bahan Bangunan";"Depo Makmur Manokwari";"43P2+QWR, Jl. Trikora Wosi, Wosi, Kec. Manokwari Bar., Kabupaten Manokwari, Papua Bar. 98312";"Jl. Trikora Wosi, Wosi, Kec. Manokwari Bar., Kabupaten Manokwari";"PAPUA BARAT";"98312";"Indonesia";" 081248426402";"-0.8630402";"134.0521741";"https://maps.google.com/?cid=0x0:0x387befda163fc63b"
"mall";"mall";"Dataran Isim";"Kab. Manokwari Selatan, Papua Bar.";"Kab. Manokwari Selatan, Papua Bar.";"PAPUA BARAT";"";"Indonesia";"";"-1.5213839";"133.7525619";"https://maps.google.com/?cid=0x0:0x5152c50d52f61896"
"mall";"mall";"Distrik Momi Waren";"Kab. Manokwari Selatan, Papua Bar.";"Kab. Manokwari Selatan, Papua Bar.";"PAPUA BARAT";"";"Indonesia";"";"-1.589112";"134.1139979";"https://maps.google.com/?cid=0x0:0xf7889c42ea8b544b"
"mall";"Pusat Perbelanjaan";"Manokwari City Mall (MCM)";"Jl. Yos Sudarso Manokwari, Manokwari Bar., Kec. Manokwari Bar., Kabupaten Manokwari, Papua Bar. 98312";"Manokwari Bar., Kec. Manokwari Bar., Kabupaten Manokwari";"PAPUA BARAT";"98312";"Indonesia";" 08114918899";"-0.85693";"134.0678051";"https://maps.google.com/?cid=0x0:0x7e7b90df1d787501"
"mall";"Komplek perumahan";"Kampung Waren";"94V5+2M2, Waren, Distrik Momi Waren, Kab. Manokwari Selatan, Papua Bar. 98355";"Waren, Distrik Momi Waren, Kab. Manokwari Selatan";"PAPUA BARAT";"98355";"Indonesia";"";"-1.6074867";"134.1091317";"https://maps.google.com/?cid=0x0:0xa8dbd6d862057239"
"mall";"Rumah wisata";"Kampung gaya baru";"94J5+3G, Waren, Distrik Momi Waren, Kab. Manokwari Selatan, Papua Bar.";"Kab. Manokwari Selatan, Papua Bar.";"PAPUA BARAT";"";"Indonesia";"";"-1.619851";"134.108852";"https://maps.google.com/?cid=0x0:0x705c89fb231c092d"
"mall";"Toko";"Toko Nurul Indah";"G43X+QJ9, Sabri, Distrik Ransiki, Kabupaten Manokwari, Papua Bar. 98355";"Sabri, Distrik Ransiki, Kabupaten Manokwari";"PAPUA BARAT";"98355";"Indonesia";" 082333107777";"-1.4955956";"134.1491215";"https://maps.google.com/?cid=0x0:0x59ad830c2400f4ab"
"mall";"Toko Perlengkapan Rumah";"Toko Bangunan Chaerul Perkasa";"G47W+272, Sabri, Distrik Ransiki, Kabupaten Manokwari, Papua Bar. 98355";"Sabri, Distrik Ransiki, Kabupaten Manokwari";"PAPUA BARAT";"98355";"Indonesia";"";"-1.4874778";"134.1456266";"https://maps.google.com/?cid=0x0:0x5d9f770235f478e"
"mall";"mall";"Momi waren";"C467+8G5, Jl. Manokwari - Bintuni, Demini, Distrik Momi Waren, Kab. Manokwari Selatan, Papua Bar. 98355";"Jl. Manokwari - Bintuni, Demini, Distrik Momi Waren, Kab. Manokwari Selatan";"PAPUA BARAT";"98355";"Indonesia";"";"-1.5892417";"134.1138548";"https://maps.google.com/?cid=0x0:0x6c0cff3522fc8902"
"mall";"Pusat Perbelanjaan";"Mall Senayan City";"Jl. Asia Afrika No.Lot 19, Gelora, Kecamatan Tanah Abang, Kota Jakarta Pusat, Daerah Khusus Ibukota Jakarta 10270";"Gelora, Kecamatan Tanah Abang, Kota Jakarta Pusat";"PAPUA BARAT";"10270";"Indonesia";" 02172781000";"-6.2271953";"106.7970117";"https://maps.google.com/?cid=0x0:0x300c043104acc004"
"mall";"Pusat Perbelanjaan";"Mall Plaza Senayan";"Jl. Asia Afrika No.8, RT.1/RW.3, Gelora, Kecamatan Tanah Abang, Kota Jakarta Pusat, Daerah Khusus Ibukota Jakarta 10270";"RT.1/RW.3, Gelora, Kecamatan Tanah Abang, Kota Jakarta Pusat";"PAPUA BARAT";"10270";"Indonesia";" 0215725555";"-6.2254775";"106.7992649";"https://maps.google.com/?cid=0x0:0x788e3a1eef75ac94"
"mall";"mall";"Distrik Neney";"Kab. Manokwari Selatan, Papua Bar.";"Kab. Manokwari Selatan, Papua Bar.";"PAPUA BARAT";"";"Indonesia";"";"-1.4926563";"133.9961457";"https://maps.google.com/?cid=0x0:0x8d599f8b59144cf3"
"mall";"mall";"Papua Bar. 98353";"Kabupaten Manokwari, Papua Bar.";"Kabupaten Manokwari, Papua Bar.";"PAPUA BARAT";"";"Indonesia";"";"-1.2869478";"134.1340439";"https://maps.google.com/?cid=0x0:0x8a0ea672dc22a2db"
"mall";"Kios";"KIOS HIKMAH ORANSBARI";"Sindang Jaya, Kec. Oransbari, Kabupaten Manokwari, Papua Bar. 98353";"Kec. Oransbari, Kabupaten Manokwari";"PAPUA BARAT";"98353";"Indonesia";" 081247515187";"-1.3129571";"134.236515";"https://maps.google.com/?cid=0x0:0xa890ecafc94e9a97"
"mall";"Toko umum";"Oransbari";"M66H+MWP, Muari, Kec. Oransbari, Kab. Manokwari Selatan, Papua Bar.";"Kab. Manokwari Selatan, Papua Bar.";"PAPUA BARAT";"";"Indonesia";"";"-1.3382929";"134.2298399";"https://maps.google.com/?cid=0x0:0x78998a3efdcc223c"
"mall";"Toko bahan makanan";"Agen Aimee Oransbari";"Belakang SPBU Oransbari, Jalan, Oransbari, Ransiki, Kab. Manokwari Selatan, Papua Bar. 98321";"Jalan, Oransbari, Ransiki, Kab. Manokwari Selatan";"PAPUA BARAT";"98321";"Indonesia";" 082133076377";"-1.344547";"134.2216061";"https://maps.google.com/?cid=0x0:0x767943545a8674c7"
"mall";"Sekolah Dasar";"SD INPRES 09 ORANSBARI";"M6C9+3VJ, Jl. Manokwari - Bintuni, Margomulyo, Kec. Oransbari, Kab. Manokwari Selatan, Papua Bar. 98353";"Jl. Manokwari - Bintuni, Margomulyo, Kec. Oransbari, Kab. Manokwari Selatan";"PAPUA BARAT";"98353";"Indonesia";"";"-1.3297889";"134.2196327";"https://maps.google.com/?cid=0x0:0x5fa4ea28bb1c165f"
"mall";"mall";"Ransiki";"Ransiki Kota, Distrik Ransiki, Kab. Manokwari Selatan, Papua Bar.";"Kab. Manokwari Selatan, Papua Bar.";"PAPUA BARAT";"";"Indonesia";"";"-1.516433";"134.180298";"https://maps.google.com/?cid=0x0:0xc2f9404ccd6ec72a"
"mall";"mall";"Seputaran Ransiki";"F5V8+3VC, Ransiki Kota, Distrik Ransiki, Kab. Manokwari Selatan, Papua Bar. 98355";"Ransiki Kota, Distrik Ransiki, Kab. Manokwari Selatan";"PAPUA BARAT";"98355";"Indonesia";"";"-1.507307";"134.1671322";"https://maps.google.com/?cid=0x0:0xcfc023c9c037fd83"
"mall";"Pusat Perbelanjaan";"Manokwari City Mall (MCM)";"Jl. Yos Sudarso Manokwari, Manokwari Bar., Kec. Manokwari Bar., Kabupaten Manokwari, Papua Bar. 98312";"Manokwari Bar., Kec. Manokwari Bar., Kabupaten Manokwari";"PAPUA BARAT";"98312";"Indonesia";" 08114918899";"-0.85693";"134.0678051";"https://maps.google.com/?cid=0x0:0x7e7b90df1d787501"
"mall";"mall";"Toko Putra Jaya";"F5R8+XW6, Ransiki Kota, Distrik Ransiki, Kab. Manokwari Selatan, Papua Bar. 98355";"Ransiki Kota, Distrik Ransiki, Kab. Manokwari Selatan";"PAPUA BARAT";"98355";"Indonesia";"";"-1.5075778";"134.1672758";"https://maps.google.com/?cid=0x0:0xdac25b3a3c763c3c"
"mall";"mall";"Papua Bar. 98355";"Kab. Manokwari Selatan, Papua Bar.";"Kab. Manokwari Selatan, Papua Bar.";"PAPUA BARAT";"";"Indonesia";"";"-1.8268019";"134.0199152";"https://maps.google.com/?cid=0x0:0x3c36f74a68c69218"
"mall";"mall";"Distrik Tahota";"Kab. Manokwari Selatan, Papua Bar.";"Kab. Manokwari Selatan, Papua Bar.";"PAPUA BARAT";"";"Indonesia";"";"-1.7908829";"133.9862408";"https://maps.google.com/?cid=0x0:0x169fe16a30d46c7b"
"mall";"Toko Perlengkapan Rumah";"Toko Bangunan Chaerul Perkasa";"G47W+272, Sabri, Distrik Ransiki, Kabupaten Manokwari, Papua Bar. 98355";"Sabri, Distrik Ransiki, Kabupaten Manokwari";"PAPUA BARAT";"98355";"Indonesia";"";"-1.4874778";"134.1456266";"https://maps.google.com/?cid=0x0:0x5d9f770235f478e"
"mall";"Toko";"Toko Nurul Indah";"G43X+QJ9, Sabri, Distrik Ransiki, Kabupaten Manokwari, Papua Bar. 98355";"Sabri, Distrik Ransiki, Kabupaten Manokwari";"PAPUA BARAT";"98355";"Indonesia";" 082333107777";"-1.4955956";"134.1491215";"https://maps.google.com/?cid=0x0:0x59ad830c2400f4ab"
"mall";"Dealer Toyota";"DEALER TOYOTA DEPOK - Kartikah";"Jl. Boulevard Grand Depok City, Tirtajaya, Kec. Sukmajaya, Kota Depok, Jawa Barat 16412";"Tirtajaya, Kec. Sukmajaya, Kota Depok";"PAPUA BARAT";"16412";"Indonesia";" 087876755500";"-6.41583";"106.8212405";"https://maps.google.com/?cid=0x0:0xbd51b0a6c7afe47e"
"mall";"Kantor Perusahaan";"Toyota Auto2000 Kalimalang";"Jl. Raya Kalimalang No.45, RT.8/RW.7, Duren Sawit, Kec. Duren Sawit, Kota Jakarta Timur, Daerah Khusus Ibukota Jakarta 13440";"RT.8/RW.7, Duren Sawit, Kec. Duren Sawit, Kota Jakarta Timur";"PAPUA BARAT";"13440";"Indonesia";" 0218652000";"-6.2472462";"106.9202948";"https://maps.google.com/?cid=0x0:0x23455681dab8f6c6"
"mall";"Dealer Toyota";"Auto2000 Tebet Saharjo Jakarta Selatan";"Jl. Dr. Saharjo No.246A 5, RT.5/RW.4, Menteng Dalam, Kec. Tebet, Kota Jakarta Selatan, Daerah Khusus Ibukota Jakarta 12870";"RT.5/RW.4, Menteng Dalam, Kec. Tebet, Kota Jakarta Selatan";"PAPUA BARAT";"12870";"Indonesia";" 02183792000";"-6.228573";"106.8466334";"https://maps.google.com/?cid=0x0:0xf363a09accd2413a"
"mall";"Dealer Toyota";"Bengkel Toyota";"No Jl. Dr. Saharjo No.246A 5, RT.5/RW.4, Menteng Dalam, Kec. Tebet, Kota Jakarta Selatan, Daerah Khusus Ibukota Jakarta 12960";"RT.5/RW.4, Menteng Dalam, Kec. Tebet, Kota Jakarta Selatan";"PAPUA BARAT";"12960";"Indonesia";"";"-6.2285896";"106.84674";"https://maps.google.com/?cid=0x0:0x6ae5b54e75af6f27"
"mall";"Dealer Toyota";"Toyota";"VQFW+RPX, Jl. Pluit Selatan Raya, RT.1/RW.8, Penjaringan, Kec. Penjaringan, Jkt Utara, Daerah Khusus Ibukota Jakarta 14440";"Jl. Pluit Selatan Raya, RT.1/RW.8, Penjaringan, Kec. Penjaringan, Jkt Utara";"PAPUA BARAT";"14440";"Indonesia";" 0216622000";"-6.1253904";"106.7968587";"https://maps.google.com/?cid=0x0:0xa7e6eee2178121e4"
"mall";"Dealer mobil";"Anzon Toyota Tambun (Marketing)";"Jl. Sultan Hasanudin No.1, Tambun, Kec. Tambun Sel., Kabupaten Bekasi, Jawa Barat 17510";"Tambun, Kec. Tambun Sel., Kabupaten Bekasi";"PAPUA BARAT";"17510";"Indonesia";" 02188392000";"-6.264948";"107.0720319";"https://maps.google.com/?cid=0x0:0x16ae69010cd4b6a2"
"mall";"Bengkel Mobil";"Tajudin Toyota Daan Mogot";"Jl. Daan Mogot No.146 4, RT.4/RW.5, Duri Kepa, Kec. Kb. Jeruk, Kota Jakarta Barat, Daerah Khusus Ibukota Jakarta 11510";"RT.4/RW.5, Duri Kepa, Kec. Kb. Jeruk, Kota Jakarta Barat";"PAPUA BARAT";"11510";"Indonesia";" 087789162000";"-6.1638051";"106.7750101";"https://maps.google.com/?cid=0x0:0x6d9efea92a7c2e8f"
"mall";"Toko Suku Cadang Mobil";"PT. Toyota Astra Motor - Created By (ARGA)";"M3PM+6H6, Jl. Selayar, Mekarwangi, Kec. Cikarang Bar., Kabupaten Bekasi, Jawa Barat 17530";"Jl. Selayar, Mekarwangi, Kec. Cikarang Bar., Kabupaten Bekasi";"PAPUA BARAT";"17530";"Indonesia";" 1500315";"-6.3144634";"107.0839014";"https://maps.google.com/?cid=0x0:0x7f73a13060547243"
"mall";"Dealer Toyota";"Toyota Trust Bintaro | Showroom Mobil Bekas Rasa Baru by Auto2000 | Penjualan mobil bekas sertifikasi Toyota Astra Motor";"Pusat Kawasan Niaga Bintaro Jaya Sektor VII, satu halaman dengan Auto2000 Bintaro, Jl. Moh. Husni Thamrin No.2, Pondok Jaya, Pondok Aren, South Tangerang City, Banten 15220";"satu halaman dengan Auto2000 Bintaro, Jl. Moh. Husni Thamrin No.2, Pondok Jaya, Pondok Aren, South Tangerang City";"PAPUA BARAT";"15220";"Indonesia";" 087770443264";"-6.2771306";"106.7237543";"https://maps.google.com/?cid=0x0:0xa41de23c7529df99"
"mall";"Dealer mobil";"Auto2000 Daan Mogot Jakarta";"Jl. Daan Mogot No.146-147, RT.4/RW.5, Duri Kepa, Kec. Kb. Jeruk, Kota Jakarta Barat, Daerah Khusus Ibukota Jakarta 11510";"RT.4/RW.5, Duri Kepa, Kec. Kb. Jeruk, Kota Jakarta Barat";"PAPUA BARAT";"11510";"Indonesia";" 0215642000";"-6.163895";"106.7749671";"https://maps.google.com/?cid=0x0:0xb3d00ef92cd4c1f7"
"supermarket";"supermarket";"Papua Bar. 98359";"Papua Bar.";"Papua Bar.";"PAPUA BARAT";"";"Indonesia";"";"-1.5213839";"133.7525619";"https://maps.google.com/?cid=0x0:0xc8a895044b18d7c8"
"supermarket";"Minimarket";"Hadi Supermarket Manokwari";"43V9+632, Jl. Yos Sudarso Manokwari, Manokwari Bar., Barat, Kabupaten Manokwari, Papua Bar. 98312";"Jl. Yos Sudarso Manokwari, Manokwari Bar., Barat, Kabupaten Manokwari";"PAPUA BARAT";"98312";"Indonesia";" 081344231138";"-0.8569848";"134.0676451";"https://maps.google.com/?cid=0x0:0x9eff32c2ea26d6a2"
"supermarket";"Pusat Perbelanjaan";"Hadi supermarket";"32XQ+W6X, Sowi, Distrik Manokwari, Kabupaten Manokwari, Papua Bar.";"Kabupaten Manokwari, Papua Bar.";"PAPUA BARAT";"";"Indonesia";"";"-0.9001308";"134.0381223";"https://maps.google.com/?cid=0x0:0xe361d5fae3f38b24"
"supermarket";"Pusat Perbelanjaan";"Toko anggi jaya";"MWF7+6VJ Snomeba/Snoembebaba Airport, Imbai, Distrik Anggi, Kabupaten Manokwari, Papua Bar. 98354";"Imbai, Distrik Anggi, Kabupaten Manokwari";"PAPUA BARAT";"98354";"Indonesia";" 082399480074";"-1.3269171";"133.9146373";"https://maps.google.com/?cid=0x0:0xfbef5cdf383f76ce"
"supermarket";"Toko";"Toko Anggi jaya";"43Q8+JHW, Jl. Yos Sudarso Manokwari, Manokwari Bar., Kec. Manokwari Bar., Kabupaten Manokwari, Papua Bar. 98312";"Jl. Yos Sudarso Manokwari, Manokwari Bar., Kec. Manokwari Bar., Kabupaten Manokwari";"PAPUA BARAT";"98312";"Indonesia";"";"-0.8608856";"134.0664437";"https://maps.google.com/?cid=0x0:0xfdb3f180ecb67984"
"supermarket";"supermarket";"Distrik Momi Waren";"Kab. Manokwari Selatan, Papua Bar.";"Kab. Manokwari Selatan, Papua Bar.";"PAPUA BARAT";"";"Indonesia";"";"-1.589112";"134.1139979";"https://maps.google.com/?cid=0x0:0xf7889c42ea8b544b"
"supermarket";"Toko umum";"Kios makanan";"C593+WRP, Dembek, Distrik Momi Waren, Kab. Manokwari Selatan, Papua Bar. 98355";"Dembek, Distrik Momi Waren, Kab. Manokwari Selatan";"PAPUA BARAT";"98355";"Indonesia";"";"-1.5801582";"134.1545852";"https://maps.google.com/?cid=0x0:0x9ef983d753dd785c"
"supermarket";"Pusat Perbelanjaan";"Toko Sinar Pagi";"Ransiki Kota, Distrik Ransiki, Kab. Manokwari Selatan, Papua Bar. 98355";"Distrik Ransiki, Kab. Manokwari Selatan";"PAPUA BARAT";"98355";"Indonesia";" 0818605226";"-1.5076274";"134.1705611";"https://maps.google.com/?cid=0x0:0x40ae3953dafd0b80"
"supermarket";"supermarket";"Kios Dani Riski";"C5Q8+MHH, Jl. Manokwari - Bintuni, Dembek, Distrik Momi Waren, Kab. Manokwari Selatan, Papua Bar. 98355";"Jl. Manokwari - Bintuni, Dembek, Distrik Momi Waren, Kab. Manokwari Selatan";"PAPUA BARAT";"98355";"Indonesia";"";"-1.5604165";"134.1664563";"https://maps.google.com/?cid=0x0:0x917ed97068572ff9"
"supermarket";"Toko bahan makanan";"MiniMarket (Sembako) Sumber Rahmat";"G524+H23, Jl. Manokwari - Bintuni, Sabri, Distrik Ransiki, Kab. Manokwari Selatan, Papua Bar. 98355";"Jl. Manokwari - Bintuni, Sabri, Distrik Ransiki, Kab. Manokwari Selatan";"PAPUA BARAT";"98355";"Indonesia";" 081241267272";"-1.4986111";"134.155051";"https://maps.google.com/?cid=0x0:0xeb9c12554f6ded41"
"supermarket";"Komplek perumahan";"Kampung Waren";"94V5+2M2, Waren, Distrik Momi Waren, Kab. Manokwari Selatan, Papua Bar. 98355";"Waren, Distrik Momi Waren, Kab. Manokwari Selatan";"PAPUA BARAT";"98355";"Indonesia";"";"-1.6074867";"134.1091317";"https://maps.google.com/?cid=0x0:0xa8dbd6d862057239"
"supermarket";"Toko Swalayan";"Orchid Swalayan";"43RF+C74, Jl. Merdeka, Padarni, Kec. Manokwari Bar., Kabupaten Manokwari, Papua Bar. 98312";"Jl. Merdeka, Padarni, Kec. Manokwari Bar., Kabupaten Manokwari";"PAPUA BARAT";"98312";"Indonesia";" 0986211094";"-0.8589972";"134.0731963";"https://maps.google.com/?cid=0x0:0xa0da1efaf3ec9af4"
"supermarket";"Kios";"KIOS IBU MINA LETTE";"F5VC+428, Ransiki Kota, Distrik Ransiki, Kabupaten Manokwari, Papua Bar. 98355";"Ransiki Kota, Distrik Ransiki, Kabupaten Manokwari";"PAPUA BARAT";"98355";"Indonesia";" 085261524084";"-1.5072228";"134.1700926";"https://maps.google.com/?cid=0x0:0xf9cbeb077bb9e79a"
"supermarket";"Motel";"Ningrat Solution";"F5V9+FRP, Ransiki Kota, Distrik Ransiki, Kab. Manokwari Selatan, Papua Bar. 98355";"Ransiki Kota, Distrik Ransiki, Kab. Manokwari Selatan";"PAPUA BARAT";"98355";"Indonesia";"";"-1.5062814";"134.1695874";"https://maps.google.com/?cid=0x0:0xfc6e6dba57373a01"
"supermarket";"Minimarket";"Win Mart";"Jl. Drs Esau Sesa, Wosi, Kec. Manokwari Bar., Kabupaten Manokwari, Papua Bar. 98312";"Wosi, Kec. Manokwari Bar., Kabupaten Manokwari";"PAPUA BARAT";"98312";"Indonesia";"";"-0.8713031";"134.0464301";"https://maps.google.com/?cid=0x0:0xf38b5c7878a43c12"
"supermarket";"Kios";"Kios Rendy";"F5P6+6GP, Jln. Trans Manokwari Bintuni, Kampung Tobou, Distrik Ransiki, Kab. Manokwari Selatan, Papua Bar.";"Kab. Manokwari Selatan, Papua Bar.";"PAPUA BARAT";"";"Indonesia";"";"-1.5144024";"134.1613369";"https://maps.google.com/?cid=0x0:0x1c48e8999b983177"
"supermarket";"Toko bahan makanan";"Kios Karunia";"G524+5GQ, Sabri, Distrik Ransiki, Kab. Manokwari Selatan, Papua Bar. 98355";"Sabri, Distrik Ransiki, Kab. Manokwari Selatan";"PAPUA BARAT";"98355";"Indonesia";" 082198117979";"-1.4995271";"134.1563495";"https://maps.google.com/?cid=0x0:0x650fc346fa8978f1"
"supermarket";"Toko bahan makanan";"ORCHID SWALAYAN WOSI";"Jl. Trikora Wosi, Wosi, Kec. Manokwari Bar., Kabupaten Manokwari, Papua Bar. 98312";"Wosi, Kec. Manokwari Bar., Kabupaten Manokwari";"PAPUA BARAT";"98312";"Indonesia";" 08114863377";"-0.8625968";"134.0521198";"https://maps.google.com/?cid=0x0:0xefc90cd267cb5423"
"supermarket";"Toko bahan makanan";"Kios sukma";"F5G9+HH2, Hamawi, Distrik Ransiki, Kabupaten Manokwari, Papua Bar.";"Kabupaten Manokwari, Papua Bar.";"PAPUA BARAT";"";"Indonesia";"";"-1.5229589";"134.1691377";"https://maps.google.com/?cid=0x0:0x5861ca35c937e6d9"
"supermarket";"Toko Swalayan";"Surya Mart";"C8V2+G83, Jl. Irian Kepi, Kepi, Kec. Obaa, Kabupaten Mappi, Papua 99881";"Jl. Irian Kepi, Kepi, Kec. Obaa, Kabupaten Mappi";"PAPUA BARAT";"99881";"Indonesia";" 085254867242";"-6.5562444";"139.3007867";"https://maps.google.com/?cid=0x0:0x160bad2921fdf723"
"supermarket";"Minimarket";"Win Mart";"Jl. Drs Esau Sesa, Wosi, Kec. Manokwari Bar., Kabupaten Manokwari, Papua Bar. 98312";"Wosi, Kec. Manokwari Bar., Kabupaten Manokwari";"PAPUA BARAT";"98312";"Indonesia";"";"-0.8713031";"134.0464301";"https://maps.google.com/?cid=0x0:0xf38b5c7878a43c12"
"supermarket";"supermarket";"Smart Minimarket";"JP66+WCF, Banamepe, Edera, Kabupaten Mappi, Papua";"Kabupaten Mappi, Papua";"PAPUA BARAT";"";"Indonesia";"";"-7.3876836";"139.7110495";"https://maps.google.com/?cid=0x0:0x7b9d0e61f96daf74"
"supermarket";"Toko bahan makanan";"Kios yunhie";"Unnamed Road, Sowi, Distrik Manokwari, Kabupaten Manokwari, Papua Bar. 98315";"Sowi, Distrik Manokwari, Kabupaten Manokwari";"PAPUA BARAT";"98315";"Indonesia";" 082238560682";"-0.8877825";"134.0324049";"https://maps.google.com/?cid=0x0:0x4b02b8d32949f3d4"
"supermarket";"Toko bahan makanan";"Kios Nenek Siti Isa";"Kompleks Pasar Kenangan No.29, Ransiki Kota, Distrik Ransiki, Kab. Manokwari Selatan, Papua Bar. 98355";"Ransiki Kota, Distrik Ransiki, Kab. Manokwari Selatan";"PAPUA BARAT";"98355";"Indonesia";"";"-1.507531";"134.166529";"https://maps.google.com/?cid=0x0:0xed847807f8fbb081"
"supermarket";"supermarket";"Papua Bar. 98355";"Kab. Manokwari Selatan, Papua Bar.";"Kab. Manokwari Selatan, Papua Bar.";"PAPUA BARAT";"";"Indonesia";"";"-1.8268019";"134.0199152";"https://maps.google.com/?cid=0x0:0x3c36f74a68c69218"
"supermarket";"Toko bahan makanan";"Warung Nene Ezra";"JP7X+4V8, Bojongsari Lama, Kec. Bojongsari, Kota Depok, Jawa Barat 16516";"Bojongsari Lama, Kec. Bojongsari, Kota Depok";"PAPUA BARAT";"16516";"Indonesia";"";"-6.3872223";"106.7497159";"https://maps.google.com/?cid=0x0:0xc28d74810b62a3ff"
"supermarket";"supermarket";"Nene Store";"G3J5+VV2, Maya, City Of Manila, Metro Manila, Filipina";"City Of Manila, Metro Manila, Filipina";"PAPUA BARAT";"";"Indonesia";"";"14.5321363";"121.0596438";"https://maps.google.com/?cid=0x0:0x9a035b147ab4d761"
"supermarket";"supermarket";"Papua Bar. 98353";"Kabupaten Manokwari, Papua Bar.";"Kabupaten Manokwari, Papua Bar.";"PAPUA BARAT";"";"Indonesia";"";"-1.2869478";"134.1340439";"https://maps.google.com/?cid=0x0:0x8a0ea672dc22a2db"
"supermarket";"Toko umum";"Oransbari";"M66H+MWP, Muari, Kec. Oransbari, Kab. Manokwari Selatan, Papua Bar.";"Kab. Manokwari Selatan, Papua Bar.";"PAPUA BARAT";"";"Indonesia";"";"-1.3382929";"134.2298399";"https://maps.google.com/?cid=0x0:0x78998a3efdcc223c"
"supermarket";"Toko";"Abadimart";"M6MH+M34, Jl. Manokwari - Bintuni, Sindang Jaya, Kec. Oransbari, Kab. Manokwari Selatan, Papua Bar. 98353";"Jl. Manokwari - Bintuni, Sindang Jaya, Kec. Oransbari, Kab. Manokwari Selatan";"PAPUA BARAT";"98353";"Indonesia";" 081217219693";"-1.3158629";"134.2277172";"https://maps.google.com/?cid=0x0:0xc337dcce5b722689"
"supermarket";"supermarket";"Ransiki";"Ransiki Kota, Distrik Ransiki, Kab. Manokwari Selatan, Papua Bar.";"Kab. Manokwari Selatan, Papua Bar.";"PAPUA BARAT";"";"Indonesia";"";"-1.516433";"134.180298";"https://maps.google.com/?cid=0x0:0xc2f9404ccd6ec72a"
"supermarket";"Pusat Perbelanjaan";"Toko Sinar Pagi";"Ransiki Kota, Distrik Ransiki, Kab. Manokwari Selatan, Papua Bar. 98355";"Distrik Ransiki, Kab. Manokwari Selatan";"PAPUA BARAT";"98355";"Indonesia";" 0818605226";"-1.5076274";"134.1705611";"https://maps.google.com/?cid=0x0:0x40ae3953dafd0b80"
"supermarket";"Toko sembako pemerintah";"Kios Sembako Arshiya";"Jln, Ransiki Kota, Distrik Ransiki, bintuni, Papua Bar. 98355";"Ransiki Kota, Distrik Ransiki, bintuni";"PAPUA BARAT";"98355";"Indonesia";" 082198938898";"-1.516433";"134.180298";"https://maps.google.com/?cid=0x0:0x4edf7fd106320a98"
"supermarket";"supermarket";"Papua Bar. 98355";"Kab. Manokwari Selatan, Papua Bar.";"Kab. Manokwari Selatan, Papua Bar.";"PAPUA BARAT";"";"Indonesia";"";"-1.8268019";"134.0199152";"https://maps.google.com/?cid=0x0:0x3c36f74a68c69218"
"supermarket";"Toko bahan makanan";"MiniMarket (Sembako) Sumber Rahmat";"G524+H23, Jl. Manokwari - Bintuni, Sabri, Distrik Ransiki, Kab. Manokwari Selatan, Papua Bar. 98355";"Jl. Manokwari - Bintuni, Sabri, Distrik Ransiki, Kab. Manokwari Selatan";"PAPUA BARAT";"98355";"Indonesia";" 081241267272";"-1.4986111";"134.155051";"https://maps.google.com/?cid=0x0:0xeb9c12554f6ded41"
"supermarket";"Pusat Perbelanjaan";"Toko Sinar Pagi";"Ransiki Kota, Distrik Ransiki, Kab. Manokwari Selatan, Papua Bar. 98355";"Distrik Ransiki, Kab. Manokwari Selatan";"PAPUA BARAT";"98355";"Indonesia";" 0818605226";"-1.5076274";"134.1705611";"https://maps.google.com/?cid=0x0:0x40ae3953dafd0b80"
"supermarket";"Toko umum";"Kios makanan";"C593+WRP, Dembek, Distrik Momi Waren, Kab. Manokwari Selatan, Papua Bar. 98355";"Dembek, Distrik Momi Waren, Kab. Manokwari Selatan";"PAPUA BARAT";"98355";"Indonesia";"";"-1.5801582";"134.1545852";"https://maps.google.com/?cid=0x0:0x9ef983d753dd785c"
"supermarket";"Kios";"KIOS IBU MINA LETTE";"F5VC+428, Ransiki Kota, Distrik Ransiki, Kabupaten Manokwari, Papua Bar. 98355";"Ransiki Kota, Distrik Ransiki, Kabupaten Manokwari";"PAPUA BARAT";"98355";"Indonesia";" 085261524084";"-1.5072228";"134.1700926";"https://maps.google.com/?cid=0x0:0xf9cbeb077bb9e79a"
"supermarket";"Minimarket";"Kios ibu suaji";"F5QW+748, Unnamed Road, Ransiki Kota, Distrik Ransiki, Kab. Manokwari Selatan, Papua Bar. 98355";"Unnamed Road, Ransiki Kota, Distrik Ransiki, Kab. Manokwari Selatan";"PAPUA BARAT";"98355";"Indonesia";"";"-1.5118295";"134.1952843";"https://maps.google.com/?cid=0x0:0x6bfb2d7fbda6e5e1"
"supermarket";"Toko bahan makanan";"Kios Karunia";"G524+5GQ, Sabri, Distrik Ransiki, Kab. Manokwari Selatan, Papua Bar. 98355";"Sabri, Distrik Ransiki, Kab. Manokwari Selatan";"PAPUA BARAT";"98355";"Indonesia";" 082198117979";"-1.4995271";"134.1563495";"https://maps.google.com/?cid=0x0:0x650fc346fa8978f1"
"supermarket";"Toko bahan makanan";"Kios Akhtar Buton";"F6Q2+W36, Jl. Abreso, Bamaha, Distrik Ransiki, Kab. Manokwari Selatan, Papua Bar. 98355";"Jl. Abreso, Bamaha, Distrik Ransiki, Kab. Manokwari Selatan";"PAPUA BARAT";"98355";"Indonesia";"";"-1.5100322";"134.200573";"https://maps.google.com/?cid=0x0:0x91b2325cbf039230"
"supermarket";"Toko bahan makanan";"Kios Akhtar Sunami";"F6Q2+W36, Jl. Abreso, Bamaha, Distrik Ransiki, Kab. Manokwari Selatan, Papua Bar. 98355";"Jl. Abreso, Bamaha, Distrik Ransiki, Kab. Manokwari Selatan";"PAPUA BARAT";"98355";"Indonesia";"";"-1.5100322";"134.200573";"https://maps.google.com/?cid=0x0:0x6eba29d89d590e7f"
"supermarket";"supermarket";"Kios Dani Riski";"C5Q8+MHH, Jl. Manokwari - Bintuni, Dembek, Distrik Momi Waren, Kab. Manokwari Selatan, Papua Bar. 98355";"Jl. Manokwari - Bintuni, Dembek, Distrik Momi Waren, Kab. Manokwari Selatan";"PAPUA BARAT";"98355";"Indonesia";"";"-1.5604165";"134.1664563";"https://maps.google.com/?cid=0x0:0x917ed97068572ff9"
"supermarket";"Minimarket";"toko thiara";"3VWP+Q86, Desay, Distrik Prafi, Kabupaten Manokwari, Papua Bar. 98356";"Desay, Distrik Prafi, Kabupaten Manokwari";"PAPUA BARAT";"98356";"Indonesia";" 082198142255";"-0.9030835";"133.8857549";"https://maps.google.com/?cid=0x0:0xa1c181c3cb79e0e3"
"supermarket";"Toko sembako pemerintah";"Kios Sembako Arshiya";"Jln, Ransiki Kota, Distrik Ransiki, bintuni, Papua Bar. 98355";"Ransiki Kota, Distrik Ransiki, bintuni";"PAPUA BARAT";"98355";"Indonesia";" 082198938898";"-1.516433";"134.180298";"https://maps.google.com/?cid=0x0:0x4edf7fd106320a98"
"supermarket";"Toko";"Abadimart";"M6MH+M34, Jl. Manokwari - Bintuni, Sindang Jaya, Kec. Oransbari, Kab. Manokwari Selatan, Papua Bar. 98353";"Jl. Manokwari - Bintuni, Sindang Jaya, Kec. Oransbari, Kab. Manokwari Selatan";"PAPUA BARAT";"98353";"Indonesia";" 081217219693";"-1.3158629";"134.2277172";"https://maps.google.com/?cid=0x0:0xc337dcce5b722689"
"supermarket";"Toko";"Kios Dipta";"3264+W7C, Anday, Distrik Manokwari, Kabupaten Manokwari, Papua Bar. 98315";"Anday, Distrik Manokwari, Kabupaten Manokwari";"PAPUA BARAT";"98315";"Indonesia";" 082146646842";"-0.9370399";"134.0047922";"https://maps.google.com/?cid=0x0:0x71d0b4cbf110ecf2"
"cafe";"cafe";"Dataran Isim";"Kab. Manokwari Selatan, Papua Bar.";"Kab. Manokwari Selatan, Papua Bar.";"PAPUA BARAT";"";"Indonesia";"";"-1.5213839";"133.7525619";"https://maps.google.com/?cid=0x0:0x5152c50d52f61896"
"cafe";"cafe";"Distrik Momi Waren";"Kab. Manokwari Selatan, Papua Bar.";"Kab. Manokwari Selatan, Papua Bar.";"PAPUA BARAT";"";"Indonesia";"";"-1.589112";"134.1139979";"https://maps.google.com/?cid=0x0:0xf7889c42ea8b544b"
"cafe";"Kedai Kopi";"FD Billiard  Coffeeshop";"Jln. Trans Manokwari, Ransiki Kota, Ransiki, Teluk Bintuni Regency, West Papua 98355";"Ransiki Kota, Ransiki, Teluk Bintuni Regency";"PAPUA BARAT";"98355";"Indonesia";" 081240269469";"-1.5010586";"134.1714819";"https://maps.google.com/?cid=0x0:0xa3d36becfd448018"
"cafe";"Tujuan Wisata";"Tanah Cinta";"83CF+5VC, Yermatum, Distrik Tahota, Kab. Manokwari Selatan, Papua Bar. 98355";"Yermatum, Distrik Tahota, Kab. Manokwari Selatan";"PAPUA BARAT";"98355";"Indonesia";"";"-1.679558";"134.074642";"https://maps.google.com/?cid=0x0:0x14111f69526e7d65"
"cafe";"Toko bahan makanan";"Warung Barokah mas Bedjo";"Jl. Manokwari - Bintuni, Dembek, Distrik Momi Waren, Kab. Manokwari Selatan, Papua Bar. 98355";"Dembek, Distrik Momi Waren, Kab. Manokwari Selatan";"PAPUA BARAT";"98355";"Indonesia";" 085399390442";"-1.5858411";"134.1432356";"https://maps.google.com/?cid=0x0:0x240902f27b7226c3"
"cafe";"Sarapan";"Rumah Makan Valdez";"F5QF+WXV, Jl. Manokwari - Bintuni, Ransiki Kota, Distrik Ransiki, Kab. Manokwari Selatan, Papua Bar. 98355";"Jl. Manokwari - Bintuni, Ransiki Kota, Distrik Ransiki, Kab. Manokwari Selatan";"PAPUA BARAT";"98355";"Indonesia";" 081240349500";"-1.5101487";"134.1749211";"https://maps.google.com/?cid=0x0:0xc69943f9cf8dc3e0"
"cafe";"Kafe";"Klinik Kopi Ransiki";"depan plasa telkom, jalan poros Jl. Manokwari - Bintuni, kampung, Distrik Ransiki, kabupaten, Papua Bar. 98355";"jalan poros Jl. Manokwari - Bintuni, kampung, Distrik Ransiki, kabupaten";"PAPUA BARAT";"98355";"Indonesia";"";"-1.5101132";"134.1746207";"https://maps.google.com/?cid=0x0:0x5dc9e986f86c6997"
"cafe";"Penginapan";"Penginapan Raipawi";"F5QW+748, Unnamed Road, Ransiki Kota, Distrik Ransiki, Kab. Manokwari Selatan, Papua Bar. 98355";"Unnamed Road, Ransiki Kota, Distrik Ransiki, Kab. Manokwari Selatan";"PAPUA BARAT";"98355";"Indonesia";" 082397172759";"-1.5118361";"134.1953347";"https://maps.google.com/?cid=0x0:0xd21b439da7e00685"
"cafe";"Kafe";"Coffee Toraja";"F5VC+43R, Jl. Manokwari - Bintuni, Ransiki Kota, Distrik Ransiki, Kab. Manokwari Selatan, Papua Bar. 98355";"Jl. Manokwari - Bintuni, Ransiki Kota, Distrik Ransiki, Kab. Manokwari Selatan";"PAPUA BARAT";"98355";"Indonesia";" 081355533258";"-1.5071434";"134.1701373";"https://maps.google.com/?cid=0x0:0x9a69b688a2ce1500"
"cafe";"Bar Kopi Espresso";"Pionir billiard Titik kumpul coffee shop";"Sabri, Distrik Ransiki, Kab. Manokwari Selatan, Papua Bar. 98355";"Distrik Ransiki, Kab. Manokwari Selatan";"PAPUA BARAT";"98355";"Indonesia";"";"-1.4966425";"134.1502484";"https://maps.google.com/?cid=0x0:0x75f2e250a78b8af5"
"cafe";"Rumah Kaca";"Nongki Papua";"F5V9+FQG, Ransiki Kota, Distrik Ransiki, Kab. Manokwari Selatan, Papua Bar. 98355";"Ransiki Kota, Distrik Ransiki, Kab. Manokwari Selatan";"PAPUA BARAT";"98355";"Indonesia";" 085244484810";"-1.5063242";"134.1694519";"https://maps.google.com/?cid=0x0:0x8b70c06583ba048c"
"cafe";"Kedai Kopi";"Cafe Kopi Boss Daeng Ransiki";"Sabri, Distrik Ransiki, Kabupaten Manokwari, Papua Bar.";"Kabupaten Manokwari, Papua Bar.";"PAPUA BARAT";"";"Indonesia";"";"-1.5014538";"134.1590573";"https://maps.google.com/?cid=0x0:0x5559d81594dbb944"
"cafe";"Kedai Kopi";"Titik Kumpul Cafe";"Jalan Sujarwo Condronegoro SH, Ransiki Kota, Distrik Ransiki, Kab. Manokwari Selatan, Papua Bar. 98324";"Ransiki Kota, Distrik Ransiki, Kab. Manokwari Selatan";"PAPUA BARAT";"98324";"Indonesia";" 082197517011";"-1.516433";"134.180298";"https://maps.google.com/?cid=0x0:0x2417976b0770f56f"
"cafe";"Kedai Kopi";"Warung Kopi 513";"G523+R9C, Jl. Manokwari - Bintuni, Sabri, Distrik Manokwari, Kab. Manokwari Selatan, Papua Bar. 98355";"Jl. Manokwari - Bintuni, Sabri, Distrik Manokwari, Kab. Manokwari Selatan";"PAPUA BARAT";"98355";"Indonesia";"";"-1.4979384";"134.1533848";"https://maps.google.com/?cid=0x0:0x61468e15fb16bcf1"
"cafe";"Rumah Makan";"Kedai Family MTR";"F5VC+V34, Ransiki Kota, Distrik Ransiki, Kab. Manokwari Selatan, Papua Bar. 98355";"Ransiki Kota, Distrik Ransiki, Kab. Manokwari Selatan";"PAPUA BARAT";"98355";"Indonesia";" 082199251825";"-1.5054509";"134.1702643";"https://maps.google.com/?cid=0x0:0xc6cbc7a494154db7"
"cafe";"cafe";"Distrik Neney";"Kab. Manokwari Selatan, Papua Bar.";"Kab. Manokwari Selatan, Papua Bar.";"PAPUA BARAT";"";"Indonesia";"";"-1.4926563";"133.9961457";"https://maps.google.com/?cid=0x0:0x8d599f8b59144cf3"
"cafe";"Mesin Sangrai Kopi";"Alenia Papua Coffee  Kitchen";"Jl. Kemang Raya No.66 B 8, RT.8/RW.2, Bangka, Kec. Mampang Prpt., Kota Jakarta Selatan, Daerah Khusus Ibukota Jakarta 12730";"RT.8/RW.2, Bangka, Kec. Mampang Prpt., Kota Jakarta Selatan";"PAPUA BARAT";"12730";"Indonesia";" 02171790141";"-6.2638119";"106.8158777";"https://maps.google.com/?cid=0x0:0xe49807fcfab68b48"
"cafe";"Kedai Kopi";"N Nine Coffee";"Jl. Danau Limboto No.14, Bend. Hilir, Kecamatan Tanah Abang, Jakarta, Daerah Khusus Ibukota Jakarta 10210";"Bend. Hilir, Kecamatan Tanah Abang, Jakarta";"PAPUA BARAT";"10210";"Indonesia";" 085786633505";"-6.2083197";"106.8060062";"https://maps.google.com/?cid=0x0:0x441ec9f9a6bd3686"
"cafe";"Kafe";"Jay  Ray Cafe Net";"V8X9+632, Persatuan, Kec. Mandobo, Kabupaten Boven Digoel, Papua 99663";"Persatuan, Kec. Mandobo, Kabupaten Boven Digoel";"PAPUA BARAT";"99663";"Indonesia";"";"-6.1019794";"140.317631";"https://maps.google.com/?cid=0x0:0x88f80a90654a8769"
"cafe";"Kedai Kopi";"TERU";"Jl. Barito I No.19, RT.4/RW.1, Kramat Pela, Kec. Kby. Baru, Kota Jakarta Selatan, Daerah Khusus Ibukota Jakarta 12130";"RT.4/RW.1, Kramat Pela, Kec. Kby. Baru, Kota Jakarta Selatan";"PAPUA BARAT";"12130";"Indonesia";" 081291004266";"-6.2437594";"106.7933397";"https://maps.google.com/?cid=0x0:0xafcdf022dcc55410"
"cafe";"Kafe";"Keday MJM";"VGGR+XGG, Unnamed Road, Bintuni Tim., Distrik Bintuni, Kabupaten Teluk Bintuni, Papua Bar. 98364";"Unnamed Road, Bintuni Tim., Distrik Bintuni, Kabupaten Teluk Bintuni";"PAPUA BARAT";"98364";"Indonesia";" 082398401221";"-2.1225684";"133.5413437";"https://maps.google.com/?cid=0x0:0x66762cea44710e2b"
"cafe";"Kafe";"NoSTRO CAFE  EATERY";"Brawijaya Hospital - Saharjo, Jl. Dr. Saharjo No.199, Tebet Bar., Kec. Tebet, Kota Jakarta Selatan, Daerah Khusus Ibukota Jakarta 12870";"Jl. Dr. Saharjo No.199, Tebet Bar., Kec. Tebet, Kota Jakarta Selatan";"PAPUA BARAT";"12870";"Indonesia";" 085156473016";"-6.2246146";"106.8477887";"https://maps.google.com/?cid=0x0:0x77698ab879838e7c"
"cafe";"Kedai Kopi";"Familiy nyonge";"5PRM+M8Q, Dasa Wisma Anggrek Ungu, Bowi Subur, Distrik Masni, Kabupaten Manokwari, Papua Bar. 98357";"Dasa Wisma Anggrek Ungu, Bowi Subur, Distrik Masni, Kabupaten Manokwari";"PAPUA BARAT";"98357";"Indonesia";"";"-0.808186";"133.733422";"https://maps.google.com/?cid=0x0:0x3875b6d7e0ab2de8"
"cafe";"Kafe";"Alfredoe Mini Caffe";"425W+J68, Jalan, Gunung, Sowi, Manokwari Selatan, Manokwari Regency, West Papua 98315";"Jalan, Gunung, Sowi, Manokwari Selatan, Manokwari Regency";"PAPUA BARAT";"98315";"Indonesia";"";"-0.8909552";"134.0455814";"https://maps.google.com/?cid=0x0:0xcd0c223d0c01240f"
"cafe";"Kedai Kopi";"Warung Kopi Nenek IBU";"468R+7XQ, Serui Kota, Kec. Yapen Sel., Kabupaten Kepulauan Yapen, Papua 98215";"Serui Kota, Kec. Yapen Sel., Kabupaten Kepulauan Yapen";"PAPUA BARAT";"98215";"Indonesia";" 081340926864";"-1.884299";"136.242477";"https://maps.google.com/?cid=0x0:0x57c02be4ee9fd4c"
"cafe";"Thailand";"Busaba A Thai Cafe";"Pacific Place Mall, Jl. Jenderal Sudirman No.52-53 Ground Floor, RT.5/RW.3, Senayan, Kec. Kby. Baru, Kota Jakarta Selatan, Daerah Khusus Ibukota Jakarta 12190";"Jl. Jenderal Sudirman No.52-53 Ground Floor, RT.5/RW.3, Senayan, Kec. Kby. Baru, Kota Jakarta Selatan";"PAPUA BARAT";"12190";"Indonesia";" 081936113485";"-6.224618";"106.8099103";"https://maps.google.com/?cid=0x0:0x2012a2bd6be6f5b7"
"cafe";"Kafe";"Warung Nene";"Jl. Kusuma No.24 6, RT.5/RW.8, Ragunan, Ps. Minggu, Kota Jakarta Selatan, Daerah Khusus Ibukota Jakarta 12550";"RT.5/RW.8, Ragunan, Ps. Minggu, Kota Jakarta Selatan";"PAPUA BARAT";"12550";"Indonesia";" 081317416979";"-6.3043191";"106.8160169";"https://maps.google.com/?cid=0x0:0x4c768c3ca08365e2"
"cafe";"Kafe";"Warung Econ";"1, Jl. Warung Jati Barat No.16, RT.1/RW.11, Ragunan, Ps. Minggu, Kota Jakarta Selatan, Daerah Khusus Ibukota Jakarta 12510";"Jl. Warung Jati Barat No.16, RT.1/RW.11, Ragunan, Ps. Minggu, Kota Jakarta Selatan";"PAPUA BARAT";"12510";"Indonesia";"";"-6.281369";"106.8277419";"https://maps.google.com/?cid=0x0:0x6a030ead6798522"
"cafe";"cafe";"Papua Bar. 98353";"Kabupaten Manokwari, Papua Bar.";"Kabupaten Manokwari, Papua Bar.";"PAPUA BARAT";"";"Indonesia";"";"-1.2869478";"134.1340439";"https://maps.google.com/?cid=0x0:0x8a0ea672dc22a2db"
"cafe";"Kafe";"ALZENA CAFE";"M6F9+4J9, Akeju, Kec. Oransbari, Kab. Manokwari Selatan, Papua Bar. 98353";"Akeju, Kec. Oransbari, Kab. Manokwari Selatan";"PAPUA BARAT";"98353";"Indonesia";"";"-1.3272125";"134.2191094";"https://maps.google.com/?cid=0x0:0xff49004cc70400e2"
"cafe";"Indonesia";"RUMAH MAKAN PAOTERE ORANSBARI MANOKWARI SELATAN";"M6J9+J4Q, Sidomulyo, Kec. Oransbari, Kab. Manokwari Selatan, Papua Bar. 98353";"Sidomulyo, Kec. Oransbari, Kab. Manokwari Selatan";"PAPUA BARAT";"98353";"Indonesia";" 082198935488";"-1.3184086";"134.2178642";"https://maps.google.com/?cid=0x0:0x479ba19d179f77b5"
"cafe";"Brunch";"RM Wonogiri, Oransbari, Manokwari Selatan";"Jl. Merdeka No.RT 04, Margomulyo, Kec. Oransbari, Kab. Manokwari Selatan, Papua Bar. 98353";"Margomulyo, Kec. Oransbari, Kab. Manokwari Selatan";"PAPUA BARAT";"98353";"Indonesia";" 085314215658";"-1.3371098";"134.2281232";"https://maps.google.com/?cid=0x0:0xa9e2effb13aabba5"
"cafe";"Kafe";"Shalon dan Cafe Janah";"M6F7+29X, Akeju, Kec. Oransbari, Kabupaten Manokwari, Papua Bar. 98353";"Akeju, Kec. Oransbari, Kabupaten Manokwari";"PAPUA BARAT";"98353";"Indonesia";" 082238397420";"-1.3273886";"134.2134985";"https://maps.google.com/?cid=0x0:0xc16faef60b354aca"
"cafe";"Padang";"Warung Makan Putri Tunggal";"M67F+XGC, Margomulyo, Kec. Oransbari, Kabupaten Manokwari, Papua Bar. 98353";"Margomulyo, Kec. Oransbari, Kabupaten Manokwari";"PAPUA BARAT";"98353";"Indonesia";"";"-1.3350724";"134.2237771";"https://maps.google.com/?cid=0x0:0xb455b352ffee6102"
"cafe";"Indonesia";"Waroeng sawah";"M67P+J24, Unnamed Road, Muari, Kec. Oransbari, Kab. Manokwari Selatan, Papua Bar. 98353";"Unnamed Road, Muari, Kec. Oransbari, Kab. Manokwari Selatan";"PAPUA BARAT";"98353";"Indonesia";"";"-1.3359848";"134.2350903";"https://maps.google.com/?cid=0x0:0xff152faff9a9e1e5"
"cafe";"Brunch";"R.M. Otawar Oransbari";"M638+FXP, Muari, Kec. Oransbari, Kabupaten Manokwari, Papua Bar. 98353";"Muari, Kec. Oransbari, Kabupaten Manokwari";"PAPUA BARAT";"98353";"Indonesia";"";"-1.3462858";"134.2174427";"https://maps.google.com/?cid=0x0:0x811a68840257a9d5"
"cafe";"Kafe";"Kedai Waktu Luang";"Akeju, Sidomulyo, Kabupaten Manokwari, Papua Bar. 98321";"Sidomulyo, Kabupaten Manokwari";"PAPUA BARAT";"98321";"Indonesia";" 081248589891";"-1.3245673";"134.2175163";"https://maps.google.com/?cid=0x0:0x966a5ebb0932749d"
"cafe";"Brunch";"Warung makan LUMAYAN BANGKONO";"M5VJ+6JR, Sidomulyo, Kec. Oransbari, Kab. Manokwari Selatan, Papua Bar. 98353";"Sidomulyo, Kec. Oransbari, Kab. Manokwari Selatan";"PAPUA BARAT";"98353";"Indonesia";"";"-1.3068935";"134.1815176";"https://maps.google.com/?cid=0x0:0xa004ea927db7ce02"
"cafe";"Brunch";"RM. PAPUA TURATEA";"M68C+XH9, Margomulyo, Kec. Oransbari, Kabupaten Manokwari, Papua Bar. 98353";"Margomulyo, Kec. Oransbari, Kabupaten Manokwari";"PAPUA BARAT";"98353";"Indonesia";" 082196466955";"-1.3325994";"134.2214754";"https://maps.google.com/?cid=0x0:0xd7922be73a387289"
"cafe";"Nasi";"Rumah Makan Sederhana";"M69C+CC2, Margomulyo, Kec. Oransbari, Kabupaten Manokwari, Papua Bar. 98353";"Margomulyo, Kec. Oransbari, Kabupaten Manokwari";"PAPUA BARAT";"98353";"Indonesia";" 081229006341";"-1.3315287";"134.2210189";"https://maps.google.com/?cid=0x0:0x548aede3c41a2904"
"cafe";"Restoran";"Warung safira";"M69C+CC2, Margomulyo, Kec. Oransbari, Kabupaten Manokwari, Papua Bar. 98353";"Margomulyo, Kec. Oransbari, Kabupaten Manokwari";"PAPUA BARAT";"98353";"Indonesia";"";"-1.3314472";"134.221111";"https://maps.google.com/?cid=0x0:0x1e42efc87b9c352f"
"cafe";"Restoran";"R.M. MANGGA DUA";"M6MH+JCF, Jl. Manokwari - Bintuni, Sindang Jaya, Kec. Oransbari, Kab. Manokwari Selatan, Papua Bar. 98353";"Jl. Manokwari - Bintuni, Sindang Jaya, Kec. Oransbari, Kab. Manokwari Selatan";"PAPUA BARAT";"98353";"Indonesia";"";"-1.3159443";"134.228541";"https://maps.google.com/?cid=0x0:0x4cccf41410bd39c7"
"cafe";"cafe";"Ransiki";"Ransiki Kota, Distrik Ransiki, Kab. Manokwari Selatan, Papua Bar.";"Kab. Manokwari Selatan, Papua Bar.";"PAPUA BARAT";"";"Indonesia";"";"-1.516433";"134.180298";"https://maps.google.com/?cid=0x0:0xc2f9404ccd6ec72a"
"cafe";"Kafe";"Klinik Kopi Ransiki";"depan plasa telkom, jalan poros Jl. Manokwari - Bintuni, kampung, Distrik Ransiki, kabupaten, Papua Bar. 98355";"jalan poros Jl. Manokwari - Bintuni, kampung, Distrik Ransiki, kabupaten";"PAPUA BARAT";"98355";"Indonesia";"";"-1.5101132";"134.1746207";"https://maps.google.com/?cid=0x0:0x5dc9e986f86c6997"
"cafe";"Kedai Kopi";"Cafe Kopi Boss Daeng Ransiki";"Sabri, Distrik Ransiki, Kabupaten Manokwari, Papua Bar.";"Kabupaten Manokwari, Papua Bar.";"PAPUA BARAT";"";"Indonesia";"";"-1.5014538";"134.1590573";"https://maps.google.com/?cid=0x0:0x5559d81594dbb944"
"cafe";"Rumah Kaca";"Nongki Papua";"F5V9+FQG, Ransiki Kota, Distrik Ransiki, Kab. Manokwari Selatan, Papua Bar. 98355";"Ransiki Kota, Distrik Ransiki, Kab. Manokwari Selatan";"PAPUA BARAT";"98355";"Indonesia";" 085244484810";"-1.5063242";"134.1694519";"https://maps.google.com/?cid=0x0:0x8b70c06583ba048c"
"cafe";"Gudang";"Coffee Coklat";"KP.Abreso,Jalan Baru 2 Arah, Kab. Manokwari Selatan, Papua Bar.";"Kab. Manokwari Selatan, Papua Bar.";"PAPUA BARAT";"";"Indonesia";" 082238003267";"-1.5081678";"134.1950589";"https://maps.google.com/?cid=0x0:0x71cba4ae223db3b"
"cafe";"Kedai Kopi";"Titik Kumpul Cafe";"Jalan Sujarwo Condronegoro SH, Ransiki Kota, Distrik Ransiki, Kab. Manokwari Selatan, Papua Bar. 98324";"Ransiki Kota, Distrik Ransiki, Kab. Manokwari Selatan";"PAPUA BARAT";"98324";"Indonesia";" 082197517011";"-1.516433";"134.180298";"https://maps.google.com/?cid=0x0:0x2417976b0770f56f"
"cafe";"Sate";"Warung Makan Dila Ransiki";"F5WC+488, Jl. Abreso, Ransiki Kota, Distrik Ransiki, Kabupaten Manokwari, Papua Bar. 98355";"Jl. Abreso, Ransiki Kota, Distrik Ransiki, Kabupaten Manokwari";"PAPUA BARAT";"98355";"Indonesia";" 085254507304";"-1.5047011";"134.1708279";"https://maps.google.com/?cid=0x0:0xac4ac7b675c9caba"
"cafe";"Bar Kopi Espresso";"Pionir billiard Titik kumpul coffee shop";"Sabri, Distrik Ransiki, Kab. Manokwari Selatan, Papua Bar. 98355";"Distrik Ransiki, Kab. Manokwari Selatan";"PAPUA BARAT";"98355";"Indonesia";"";"-1.4966425";"134.1502484";"https://maps.google.com/?cid=0x0:0x75f2e250a78b8af5"
"cafe";"Kedai Kopi";"WARKOP 21";"F5X5+J7F, Sabri, Distrik Ransiki, Kabupaten Manokwari, Papua Bar. 98355";"Sabri, Distrik Ransiki, Kabupaten Manokwari";"PAPUA BARAT";"98355";"Indonesia";" 081346483425";"-1.5009308";"134.1581596";"https://maps.google.com/?cid=0x0:0x7e0becb6e1bfda81"
"cafe";"Brunch";"Warung makan";"Jl.ransiki kompleks kamasan depan kampus unipa, Papua Bar.";"Kab. Manokwari Selatan, Papua Bar.";"PAPUA BARAT";"";"Indonesia";" 082131398433";"-1.516433";"134.180298";"https://maps.google.com/?cid=0x0:0xf0bb6008f73f5fd6"
"cafe";"Kedai Kopi";"Warung Sop Konro";"F5QV+F37, Ransiki Kota, Distrik Ransiki, Kab. Manokwari Selatan, Papua Bar. 98355";"Ransiki Kota, Distrik Ransiki, Kab. Manokwari Selatan";"PAPUA BARAT";"98355";"Indonesia";"";"-1.5113387";"134.1926655";"https://maps.google.com/?cid=0x0:0xc83cd2a49efaefec"
"cafe";"Padang";"Warung Makan Tampa Singgah";"F5WJ+JJJ, Ransiki Kota, Distrik Ransiki, Kab. Manokwari Selatan, Papua Bar. 98355";"Ransiki Kota, Distrik Ransiki, Kab. Manokwari Selatan";"PAPUA BARAT";"98355";"Indonesia";" 081247754774";"-1.5034007";"134.1815176";"https://maps.google.com/?cid=0x0:0x874aec1ac772febc"
"cafe";"Kedai Kopi";"KOPIkir Sendiri Cafe";"425R+QWW Kantor bupati, Sowi, Distrik Manokwari, Kabupaten Manokwari, Papua Bar.";"Kabupaten Manokwari, Papua Bar.";"PAPUA BARAT";"";"Indonesia";" 081354179269";"-0.8905188";"134.0423211";"https://maps.google.com/?cid=0x0:0xe18448fb10dff5fd"
"cafe";"Kedai Kopi";"HERMAN";"F6Q3+X32, Bamaha, Distrik Ransiki, Kab. Manokwari Selatan, Papua Bar. 98355";"Bamaha, Distrik Ransiki, Kab. Manokwari Selatan";"PAPUA BARAT";"98355";"Indonesia";"";"-1.5101205";"134.2026367";"https://maps.google.com/?cid=0x0:0xf4cb02fc78dc5d4"
"cafe";"cafe";"Papua Bar. 98355";"Kab. Manokwari Selatan, Papua Bar.";"Kab. Manokwari Selatan, Papua Bar.";"PAPUA BARAT";"";"Indonesia";"";"-1.8268019";"134.0199152";"https://maps.google.com/?cid=0x0:0x3c36f74a68c69218"
"cafe";"Tujuan Wisata";"Tanah Cinta";"83CF+5VC, Yermatum, Distrik Tahota, Kab. Manokwari Selatan, Papua Bar. 98355";"Yermatum, Distrik Tahota, Kab. Manokwari Selatan";"PAPUA BARAT";"98355";"Indonesia";"";"-1.679558";"134.074642";"https://maps.google.com/?cid=0x0:0x14111f69526e7d65"
"cafe";"Kedai Kopi";"FD Billiard  Coffeeshop";"Jln. Trans Manokwari, Ransiki Kota, Ransiki, Teluk Bintuni Regency, West Papua 98355";"Ransiki Kota, Ransiki, Teluk Bintuni Regency";"PAPUA BARAT";"98355";"Indonesia";" 081240269469";"-1.5010586";"134.1714819";"https://maps.google.com/?cid=0x0:0xa3d36becfd448018"
"cafe";"Kafe";"Coffee Toraja";"F5VC+43R, Jl. Manokwari - Bintuni, Ransiki Kota, Distrik Ransiki, Kab. Manokwari Selatan, Papua Bar. 98355";"Jl. Manokwari - Bintuni, Ransiki Kota, Distrik Ransiki, Kab. Manokwari Selatan";"PAPUA BARAT";"98355";"Indonesia";" 081355533258";"-1.5071434";"134.1701373";"https://maps.google.com/?cid=0x0:0x9a69b688a2ce1500"
"cafe";"Nasi";"Kedai Aqillah 17";"G43X+GVQ, Jl. Manokwari - Bintuni, Sabri, Distrik Ransiki, Kab. Manokwari Selatan, Papua Bar. 98355";"Jl. Manokwari - Bintuni, Sabri, Distrik Ransiki, Kab. Manokwari Selatan";"PAPUA BARAT";"98355";"Indonesia";"";"-1.4961665";"134.1497345";"https://maps.google.com/?cid=0x0:0x276e510edee12a4b"
"cafe";"Gudang";"Coffee Coklat";"KP.Abreso,Jalan Baru 2 Arah, Kab. Manokwari Selatan, Papua Bar.";"Kab. Manokwari Selatan, Papua Bar.";"PAPUA BARAT";"";"Indonesia";" 082238003267";"-1.5081678";"134.1950589";"https://maps.google.com/?cid=0x0:0x71cba4ae223db3b"
"cafe";"Kedai Kopi";"Cafe Kopi Boss Daeng Ransiki";"Sabri, Distrik Ransiki, Kabupaten Manokwari, Papua Bar.";"Kabupaten Manokwari, Papua Bar.";"PAPUA BARAT";"";"Indonesia";"";"-1.5014538";"134.1590573";"https://maps.google.com/?cid=0x0:0x5559d81594dbb944"
"cafe";"Penginapan";"Penginapan Raipawi";"F5QW+748, Unnamed Road, Ransiki Kota, Distrik Ransiki, Kab. Manokwari Selatan, Papua Bar. 98355";"Unnamed Road, Ransiki Kota, Distrik Ransiki, Kab. Manokwari Selatan";"PAPUA BARAT";"98355";"Indonesia";" 082397172759";"-1.5118361";"134.1953347";"https://maps.google.com/?cid=0x0:0xd21b439da7e00685"
"cafe";"Dapur Umum";"Catering TALITAKUM01";"G524+6FH, Sabri, Distrik Ransiki, Kab. Manokwari Selatan, Papua Bar. 98355";"Sabri, Distrik Ransiki, Kab. Manokwari Selatan";"PAPUA BARAT";"98355";"Indonesia";" 081340255101";"-1.4994376";"134.15624";"https://maps.google.com/?cid=0x0:0x23e7397b39d52c9a"
"cafe";"Sarapan";"Rumah Makan Valdez";"F5QF+WXV, Jl. Manokwari - Bintuni, Ransiki Kota, Distrik Ransiki, Kab. Manokwari Selatan, Papua Bar. 98355";"Jl. Manokwari - Bintuni, Ransiki Kota, Distrik Ransiki, Kab. Manokwari Selatan";"PAPUA BARAT";"98355";"Indonesia";" 081240349500";"-1.5101487";"134.1749211";"https://maps.google.com/?cid=0x0:0xc69943f9cf8dc3e0"
"cafe";"Kafe";"Klinik Kopi Ransiki";"depan plasa telkom, jalan poros Jl. Manokwari - Bintuni, kampung, Distrik Ransiki, kabupaten, Papua Bar. 98355";"jalan poros Jl. Manokwari - Bintuni, kampung, Distrik Ransiki, kabupaten";"PAPUA BARAT";"98355";"Indonesia";"";"-1.5101132";"134.1746207";"https://maps.google.com/?cid=0x0:0x5dc9e986f86c6997"
"cafe";"Rumah Makan";"Kedai Family MTR";"F5VC+V34, Ransiki Kota, Distrik Ransiki, Kab. Manokwari Selatan, Papua Bar. 98355";"Ransiki Kota, Distrik Ransiki, Kab. Manokwari Selatan";"PAPUA BARAT";"98355";"Indonesia";" 082199251825";"-1.5054509";"134.1702643";"https://maps.google.com/?cid=0x0:0xc6cbc7a494154db7"
"cafe";"Ikan Bakar";"Dapoer Rosse";"F578+4JV, Jl. Manokwari - Bintuni, Hamawi, Kab. Manokwari Selatan, Papua Bar. 98355";"Jl. Manokwari - Bintuni, Hamawi, Kab. Manokwari Selatan";"PAPUA BARAT";"98355";"Indonesia";" 085254114300";"-1.5371415";"134.1665574";"https://maps.google.com/?cid=0x0:0xcb50cf7155ac8e53"
"cafe";"Kedai Kopi";"Warung Kopi 513";"G523+R9C, Jl. Manokwari - Bintuni, Sabri, Distrik Manokwari, Kab. Manokwari Selatan, Papua Bar. 98355";"Jl. Manokwari - Bintuni, Sabri, Distrik Manokwari, Kab. Manokwari Selatan";"PAPUA BARAT";"98355";"Indonesia";"";"-1.4979384";"134.1533848";"https://maps.google.com/?cid=0x0:0x61468e15fb16bcf1"
"hotel";"hotel";"Papua Bar. 98359";"Papua Bar.";"Papua Bar.";"PAPUA BARAT";"";"Indonesia";"";"-1.5213839";"133.7525619";"https://maps.google.com/?cid=0x0:0xc8a895044b18d7c8"
"hotel";"hotel";"Mahanaim Hotel dan Homestay Manokwari";"jln trikora kalidingin no 109, Wosi, Kec. Manokwari Bar., Kabupaten Manokwari, Papua Bar. 98312";"Wosi, Kec. Manokwari Bar., Kabupaten Manokwari";"PAPUA BARAT";"98312";"Indonesia";" 08124830147";"-0.8699305";"134.0471193";"https://maps.google.com/?cid=0x0:0xeec6727952b4f3e6"
"hotel";"hotel";"Hotel Mapia";"Jl. Jend. Ahmad Yani No.23, Mandala, Kec. Biak Kota, Kabupaten Biak Numfor, Papua 98111";"Mandala, Kec. Biak Kota, Kabupaten Biak Numfor";"PAPUA BARAT";"98111";"Indonesia";" 098121383";"-1.1848375";"136.0856602";"https://maps.google.com/?cid=0x0:0x15f6e40202cd7120"
"hotel";"hotel";"Frances Homestay";"CJF8+H7, Kurkapa, Kabupaten Raja Ampat, Papua Bar.";"Kabupaten Raja Ampat, Papua Bar.";"PAPUA BARAT";"";"Indonesia";"";"-0.5737089";"130.6207701";"https://maps.google.com/?cid=0x0:0x2da7e8e00eb3b56a"
"hotel";"hotel";"Hotel Marasi";"R445+X37, Jl. M Yamin, Ambroben, Kec. Biak Kota, Kabupaten Biak Numfor, Papua 98118";"Jl. M Yamin, Ambroben, Kec. Biak Kota, Kabupaten Biak Numfor";"PAPUA BARAT";"98118";"Indonesia";"";"-1.192595";"136.1076812";"https://maps.google.com/?cid=0x0:0x166c2b58a3cf153e"
"hotel";"hotel";"O";"Jl. Jend. A. Yani No.27, Malabutor, Kecamatan Sorong Manoi, Kota Sorong, Papua Bar. 98412";"Malabutor, Kecamatan Sorong Manoi, Kota Sorong";"PAPUA BARAT";"98412";"Indonesia";"";"-0.8827427";"131.2828186";"https://maps.google.com/?cid=0x0:0x9aebba5ddda67893"
"hotel";"hotel";"Distrik Momi Waren";"Kab. Manokwari Selatan, Papua Bar.";"Kab. Manokwari Selatan, Papua Bar.";"PAPUA BARAT";"";"Indonesia";"";"-1.589112";"134.1139979";"https://maps.google.com/?cid=0x0:0xf7889c42ea8b544b"
"hotel";"Hotel";"Srikandi Hotel";"Ransiki Kota, Distrik Ransiki, Kabupaten Manokwari, Papua Bar. 98355";"Distrik Ransiki, Kabupaten Manokwari";"PAPUA BARAT";"98355";"Indonesia";" 082395960356";"-1.5051115";"134.1702236";"https://maps.google.com/?cid=0x0:0x136fe7052b246d49"
"hotel";"Pondok";"numax manufandu";"F5QW+9H9, Jl. Manokwari - Bintuni, Ransiki Kota, Distrik Ransiki, Kab. Manokwari Selatan, Papua Bar. 98355";"Jl. Manokwari - Bintuni, Ransiki Kota, Distrik Ransiki, Kab. Manokwari Selatan";"PAPUA BARAT";"98355";"Indonesia";"";"-1.5115819";"134.1964992";"https://maps.google.com/?cid=0x0:0xc5dbae926146f76d"
"hotel";"Hotel";"Srikandi hotel";"Jln. Sujarwo Condronegoro, Papua Bar. 98324";"Kab. Manokwari Selatan, Papua Bar.";"PAPUA BARAT";"";"Indonesia";" 081244960284";"-1.5104235";"134.1820505";"https://maps.google.com/?cid=0x0:0x697582e8780db5ed"
"hotel";"Hotel";"Ransiki";"F5V9+JGP, Ransiki Kota, Distrik Ransiki, Kabupaten Manokwari, Papua Bar. 98355";"Ransiki Kota, Distrik Ransiki, Kabupaten Manokwari";"PAPUA BARAT";"98355";"Indonesia";"";"-1.5059231";"134.1688136";"https://maps.google.com/?cid=0x0:0xd1dbc857027caa73"
"hotel";"hotel";"N/A";"";"";"PAPUA BARAT";"";"Indonesia";"";"";"";"https://maps.google.com/?cid=0x0:0x92c98d5e96ee2a8f%7C/g/1yl475f47%7Cid-ID"
"hotel";"hotel";"Swiss Belhotel Manokwari";"Jl. Yos Sudarso Manokwari No.8, Manokwari Bar., Kec. Manokwari Bar., Kabupaten Manokwari, Papua Bar. 98312";"Manokwari Bar., Kec. Manokwari Bar., Kabupaten Manokwari";"PAPUA BARAT";"98312";"Indonesia";" 08114854000";"-0.8572937";"134.0672125";"https://maps.google.com/?cid=0x0:0x92c98d5e96ee2a8f"
"hotel";"hotel";"Aston Niu Manokwari";"Sogun Hill, Jl. Drs Esau Sesa No.3 Blok B, Sowi, Distrik Manokwari, Kabupaten Manokwari, Papua Bar. 98315";"Jl. Drs Esau Sesa No.3 Blok B, Sowi, Distrik Manokwari, Kabupaten Manokwari";"PAPUA BARAT";"98315";"Indonesia";" 081369878787";"-0.8978109";"134.0416499";"https://maps.google.com/?cid=0x0:0xe96b706fef94b3a2"
"hotel";"hotel";"Mahanaim Hotel dan Homestay Manokwari";"jln trikora kalidingin no 109, Wosi, Kec. Manokwari Bar., Kabupaten Manokwari, Papua Bar. 98312";"Wosi, Kec. Manokwari Bar., Kabupaten Manokwari";"PAPUA BARAT";"98312";"Indonesia";" 08124830147";"-0.8699305";"134.0471193";"https://maps.google.com/?cid=0x0:0xeec6727952b4f3e6"
"hotel";"hotel";"Amban Beach House";"Amban, Pantai, Kabupaten Manokwari, Papua Bar. 98312";"Pantai, Kabupaten Manokwari";"PAPUA BARAT";"98312";"Indonesia";" 085251590060";"-0.8151637";"134.0780254";"https://maps.google.com/?cid=0x0:0x6bfad7f54baf0beb"
"hotel";"hotel";"Pulau Mansinam";"Mansinam, Kec. Manokwari Tim., Kabupaten Manokwari, Papua Bar.";"Kabupaten Manokwari, Papua Bar.";"PAPUA BARAT";"";"Indonesia";"";"-0.9141667";"134.1083333";"https://maps.google.com/?cid=0x0:0x94a3a276c08ef3eb"
"hotel";"hotel";"The Alexander Hotel";"43V9+HX4, Jl. Jend. Sudirman, Padarni, Kec. Manokwari Bar., Kabupaten Manokwari, Papua Bar. 98312";"Jl. Jend. Sudirman, Padarni, Kec. Manokwari Bar., Kabupaten Manokwari";"PAPUA BARAT";"98312";"Indonesia";" 09862214551";"-0.8561036";"134.06994";"https://maps.google.com/?cid=0x0:0xdc6bdc355d4e63ab"
"hotel";"Taman bermain";"Pantai Tembok Berlin";"46HW+373, Kp. Baru, Distrik Sorong, Kota Sorong, Papua Bar. 98411";"Kp. Baru, Distrik Sorong, Kota Sorong";"PAPUA BARAT";"98411";"Indonesia";"";"-0.8723739";"131.2456856";"https://maps.google.com/?cid=0x0:0x5ea7c8af20034304"
"hotel";"hotel";"New Waigo Hotel";"Jl. Yos. Sudarso, RT./RW/RW.007/08, Kp. Baru, Distrik Sorong, Kota Sorong, Papua Bar. 98411";"RT./RW/RW.007/08, Kp. Baru, Distrik Sorong, Kota Sorong";"PAPUA BARAT";"98411";"Indonesia";" 081148800550";"-0.8687506";"131.2466917";"https://maps.google.com/?cid=0x0:0x3ea64c8c78b822af"
"hotel";"hotel";"Mansinam Beach Hotel";"43CR+H6X, Jl. Pasir Putih No.7, Pasir Putih, Kec. Manokwari Tim., Kabupaten Manokwari, Papua Bar. 98313";"Jl. Pasir Putih No.7, Pasir Putih, Kec. Manokwari Tim., Kabupaten Manokwari";"PAPUA BARAT";"98313";"Indonesia";" 0986213585";"-0.878422";"134.0901197";"https://maps.google.com/?cid=0x0:0x7d51b487bac82f8f"
"hotel";"hotel";"RAMA TRANSITO HOTEL";"42RV+276, Unnamed Road, Wosi, Kec. Manokwari Bar., Kabupaten Manokwari, Papua Bar. 98312";"Unnamed Road, Wosi, Kec. Manokwari Bar., Kabupaten Manokwari";"PAPUA BARAT";"98312";"Indonesia";" 082198250318";"-0.8599684";"134.0431297";"https://maps.google.com/?cid=0x0:0x61e002737b3747f1"
"hotel";"hotel";"RedDoorz near Reremi Pemancar Manokwari";"JL. Ekonomi Reremi Manokwari, SMKN 3, Kabupaten Manokwari, Papua Bar. 98312";"SMKN 3, Kabupaten Manokwari";"PAPUA BARAT";"98312";"Indonesia";" 0895417300072";"-0.8564389";"134.0627895";"https://maps.google.com/?cid=0x0:0xe2ead707b1bdd259"
"hotel";"hotel";"Mahanaim Hotel dan Homestay Manokwari";"jln trikora kalidingin no 109, Wosi, Kec. Manokwari Bar., Kabupaten Manokwari, Papua Bar. 98312";"Wosi, Kec. Manokwari Bar., Kabupaten Manokwari";"PAPUA BARAT";"98312";"Indonesia";" 08124830147";"-0.8699305";"134.0471193";"https://maps.google.com/?cid=0x0:0xeec6727952b4f3e6"
"hotel";"hotel";"Quattrick Dee Homestay";"Jl. KPR Reremi Permai, Manokwari Bar., Kec. Manokwari Bar., Kabupaten Manokwari, Papua Bar. 98312";"Manokwari Bar., Kec. Manokwari Bar., Kabupaten Manokwari";"PAPUA BARAT";"98312";"Indonesia";" 0895417300072";"-0.8533263";"134.0555329";"https://maps.google.com/?cid=0x0:0xf2c8eb1ca8dee63b"
"hotel";"hotel";"The Alexander Hotel";"43V9+HX4, Jl. Jend. Sudirman, Padarni, Kec. Manokwari Bar., Kabupaten Manokwari, Papua Bar. 98312";"Jl. Jend. Sudirman, Padarni, Kec. Manokwari Bar., Kabupaten Manokwari";"PAPUA BARAT";"98312";"Indonesia";" 09862214551";"-0.8561036";"134.06994";"https://maps.google.com/?cid=0x0:0xdc6bdc355d4e63ab"
"hotel";"hotel";"Pulau Mansinam";"Mansinam, Kec. Manokwari Tim., Kabupaten Manokwari, Papua Bar.";"Kabupaten Manokwari, Papua Bar.";"PAPUA BARAT";"";"Indonesia";"";"-0.9141667";"134.1083333";"https://maps.google.com/?cid=0x0:0x94a3a276c08ef3eb"
"hotel";"hotel";"Papua Bar. 98353";"Kabupaten Manokwari, Papua Bar.";"Kabupaten Manokwari, Papua Bar.";"PAPUA BARAT";"";"Indonesia";"";"-1.2869478";"134.1340439";"https://maps.google.com/?cid=0x0:0x8a0ea672dc22a2db"
"hotel";"hotel";"Hotel Rama";"42JW+GWX, Jl. Trikora Rendani, Wosi, Kec. Manokwari Bar., Kabupaten Manokwari, Papua Bar. 98312";"Jl. Trikora Rendani, Wosi, Kec. Manokwari Bar., Kabupaten Manokwari";"PAPUA BARAT";"98312";"Indonesia";"";"-0.8686391";"134.0473473";"https://maps.google.com/?cid=0x0:0xbc8387651670c591"
"hotel";"hotel";"Swiss Belhotel Manokwari";"Jl. Yos Sudarso Manokwari No.8, Manokwari Bar., Kec. Manokwari Bar., Kabupaten Manokwari, Papua Bar. 98312";"Manokwari Bar., Kec. Manokwari Bar., Kabupaten Manokwari";"PAPUA BARAT";"98312";"Indonesia";" 08114854000";"-0.8572937";"134.0672125";"https://maps.google.com/?cid=0x0:0x92c98d5e96ee2a8f"
"hotel";"hotel";"Hotel Triton";"Jl. Gn. Salju No.6, Manokwari Bar., Kec. Manokwari Bar., Kabupaten Manokwari, Papua Bar. 98311";"Manokwari Bar., Kec. Manokwari Bar., Kabupaten Manokwari";"PAPUA BARAT";"98311";"Indonesia";" 0986212666";"-0.8532727";"134.068781";"https://maps.google.com/?cid=0x0:0x6021b02b4fb20af"
"hotel";"hotel";"N/A";"";"";"PAPUA BARAT";"";"Indonesia";"";"";"";"https://maps.google.com/?cid=0x0:0xe96b706fef94b3a2%7C/g/120jr49w%7Cid-ID"
"hotel";"hotel";"Aston Niu Manokwari";"Sogun Hill, Jl. Drs Esau Sesa No.3 Blok B, Sowi, Distrik Manokwari, Kabupaten Manokwari, Papua Bar. 98315";"Jl. Drs Esau Sesa No.3 Blok B, Sowi, Distrik Manokwari, Kabupaten Manokwari";"PAPUA BARAT";"98315";"Indonesia";" 081369878787";"-0.8978109";"134.0416499";"https://maps.google.com/?cid=0x0:0xe96b706fef94b3a2"
"hotel";"hotel";"RAMA TRANSITO HOTEL";"42RV+276, Unnamed Road, Wosi, Kec. Manokwari Bar., Kabupaten Manokwari, Papua Bar. 98312";"Unnamed Road, Wosi, Kec. Manokwari Bar., Kabupaten Manokwari";"PAPUA BARAT";"98312";"Indonesia";" 082198250318";"-0.8599684";"134.0431297";"https://maps.google.com/?cid=0x0:0x61e002737b3747f1"
"hotel";"hotel";"Mahanaim Hotel dan Homestay Manokwari";"jln trikora kalidingin no 109, Wosi, Kec. Manokwari Bar., Kabupaten Manokwari, Papua Bar. 98312";"Wosi, Kec. Manokwari Bar., Kabupaten Manokwari";"PAPUA BARAT";"98312";"Indonesia";" 08124830147";"-0.8699305";"134.0471193";"https://maps.google.com/?cid=0x0:0xeec6727952b4f3e6"
"hotel";"hotel";"Mansinam Beach Hotel";"43CR+H6X, Jl. Pasir Putih No.7, Pasir Putih, Kec. Manokwari Tim., Kabupaten Manokwari, Papua Bar. 98313";"Jl. Pasir Putih No.7, Pasir Putih, Kec. Manokwari Tim., Kabupaten Manokwari";"PAPUA BARAT";"98313";"Indonesia";" 0986213585";"-0.878422";"134.0901197";"https://maps.google.com/?cid=0x0:0x7d51b487bac82f8f"
"hotel";"hotel";"Oriestom Bay Hotel";"43F2+G29, Jl. Trikora Rendani, Wosi, Kec. Manokwari Bar., Kabupaten Manokwari, Papua Bar. 98312";"Jl. Trikora Rendani, Wosi, Kec. Manokwari Bar., Kabupaten Manokwari";"PAPUA BARAT";"98312";"Indonesia";" 081240197780";"-0.8762108";"134.0501061";"https://maps.google.com/?cid=0x0:0x8bd50034329ebf97"
"hotel";"hotel";"RedDoorz near Reremi Pemancar Manokwari";"JL. Ekonomi Reremi Manokwari, SMKN 3, Kabupaten Manokwari, Papua Bar. 98312";"SMKN 3, Kabupaten Manokwari";"PAPUA BARAT";"98312";"Indonesia";" 0895417300072";"-0.8564389";"134.0627895";"https://maps.google.com/?cid=0x0:0xe2ead707b1bdd259"
"hotel";"hotel";"Hotel Fujita Papua";"Jl. Drs Esau Sesa, Wosi, Kec. Manokwari Bar., Kabupaten Manokwari, Papua Bar. 98312";"Wosi, Kec. Manokwari Bar., Kabupaten Manokwari";"PAPUA BARAT";"98312";"Indonesia";" 09862210707";"-0.8727087";"134.0465433";"https://maps.google.com/?cid=0x0:0x12ad8f54a87fdc03"
"hotel";"hotel";"Lin Hotel";"Jl. Merdeka, Padarni, Kec. Manokwari Bar., Kabupaten Manokwari, Papua Bar. 98312";"Padarni, Kec. Manokwari Bar., Kabupaten Manokwari";"PAPUA BARAT";"98312";"Indonesia";" 09862210524";"-0.8548281";"134.0697853";"https://maps.google.com/?cid=0x0:0xed579408172519e3"
"hotel";"hotel";"Valdos Hotel Manokwari";"43J5+F44, Jl. Trikora Wosi, Wosi, Kec. Manokwari Bar., Kabupaten Manokwari, Papua Bar. 98312";"Jl. Trikora Wosi, Wosi, Kec. Manokwari Bar., Kabupaten Manokwari";"PAPUA BARAT";"98312";"Indonesia";" 0986213044";"-0.8688721";"134.0578193";"https://maps.google.com/?cid=0x0:0x60b28ba9ef2d716e"
"hotel";"hotel";"Ransiki";"Ransiki Kota, Distrik Ransiki, Kab. Manokwari Selatan, Papua Bar.";"Kab. Manokwari Selatan, Papua Bar.";"PAPUA BARAT";"";"Indonesia";"";"-1.516433";"134.180298";"https://maps.google.com/?cid=0x0:0xc2f9404ccd6ec72a"
"hotel";"hotel";"Hotel Rama";"42JW+GWX, Jl. Trikora Rendani, Wosi, Kec. Manokwari Bar., Kabupaten Manokwari, Papua Bar. 98312";"Jl. Trikora Rendani, Wosi, Kec. Manokwari Bar., Kabupaten Manokwari";"PAPUA BARAT";"98312";"Indonesia";"";"-0.8686391";"134.0473473";"https://maps.google.com/?cid=0x0:0xbc8387651670c591"
"hotel";"hotel";"Mahanaim Hotel dan Homestay Manokwari";"jln trikora kalidingin no 109, Wosi, Kec. Manokwari Bar., Kabupaten Manokwari, Papua Bar. 98312";"Wosi, Kec. Manokwari Bar., Kabupaten Manokwari";"PAPUA BARAT";"98312";"Indonesia";" 08124830147";"-0.8699305";"134.0471193";"https://maps.google.com/?cid=0x0:0xeec6727952b4f3e6"
"hotel";"hotel";"N/A";"";"";"PAPUA BARAT";"";"Indonesia";"";"";"";"https://maps.google.com/?cid=0x0:0x92c98d5e96ee2a8f%7C/g/1yl475f47%7Cid-ID"
"hotel";"hotel";"RAMA TRANSITO HOTEL";"42RV+276, Unnamed Road, Wosi, Kec. Manokwari Bar., Kabupaten Manokwari, Papua Bar. 98312";"Unnamed Road, Wosi, Kec. Manokwari Bar., Kabupaten Manokwari";"PAPUA BARAT";"98312";"Indonesia";" 082198250318";"-0.8599684";"134.0431297";"https://maps.google.com/?cid=0x0:0x61e002737b3747f1"
"hotel";"hotel";"Lin Hotel";"Jl. Merdeka, Padarni, Kec. Manokwari Bar., Kabupaten Manokwari, Papua Bar. 98312";"Padarni, Kec. Manokwari Bar., Kabupaten Manokwari";"PAPUA BARAT";"98312";"Indonesia";" 09862210524";"-0.8548281";"134.0697853";"https://maps.google.com/?cid=0x0:0xed579408172519e3"
"hotel";"hotel";"Fajar Roon Hotel";"Jl. Trikora Wosi, Wosi, Kec. Manokwari Bar., Kabupaten Manokwari, Papua Bar. 98312";"Wosi, Kec. Manokwari Bar., Kabupaten Manokwari";"PAPUA BARAT";"98312";"Indonesia";" 085333112338";"-0.8680273";"134.0564644";"https://maps.google.com/?cid=0x0:0xec6cf3d20bba5444"
"hotel";"hotel";"Soribo Hotel";"42HX+88F, Jl. Trikora Taman Ria, Wosi, Kec. Manokwari Bar., Kabupaten Manokwari, Papua Bar. 98312";"Jl. Trikora Taman Ria, Wosi, Kec. Manokwari Bar., Kabupaten Manokwari";"PAPUA BARAT";"98312";"Indonesia";" 082399358933";"-0.8716912";"134.0482957";"https://maps.google.com/?cid=0x0:0x2fa30b65d0c34345"
"hotel";"Hotel";"Srikandi Hotel";"Ransiki Kota, Distrik Ransiki, Kabupaten Manokwari, Papua Bar. 98355";"Distrik Ransiki, Kabupaten Manokwari";"PAPUA BARAT";"98355";"Indonesia";" 082395960356";"-1.5051115";"134.1702236";"https://maps.google.com/?cid=0x0:0x136fe7052b246d49"
"hotel";"hotel";"Mangga Hotel";"Jl. Bhayangkara No.1, Manokwari Tim., Kec. Manokwari Bar., Kabupaten Manokwari, Papua Bar. 98312";"Manokwari Tim., Kec. Manokwari Bar., Kabupaten Manokwari";"PAPUA BARAT";"98312";"Indonesia";" 062986211693";"-0.870176";"134.0778405";"https://maps.google.com/?cid=0x0:0x3d2ada72a869c631"
"hotel";"Hotel";"Ransiki";"F5V9+JGP, Ransiki Kota, Distrik Ransiki, Kabupaten Manokwari, Papua Bar. 98355";"Ransiki Kota, Distrik Ransiki, Kabupaten Manokwari";"PAPUA BARAT";"98355";"Indonesia";"";"-1.5059231";"134.1688136";"https://maps.google.com/?cid=0x0:0xd1dbc857027caa73"
"hotel";"Hotel";"Srikandi hotel";"Jln. Sujarwo Condronegoro, Papua Bar. 98324";"Kab. Manokwari Selatan, Papua Bar.";"PAPUA BARAT";"";"Indonesia";" 081244960284";"-1.5104235";"134.1820505";"https://maps.google.com/?cid=0x0:0x697582e8780db5ed"
"hotel";"hotel";"Papua Bar. 98355";"Kab. Manokwari Selatan, Papua Bar.";"Kab. Manokwari Selatan, Papua Bar.";"PAPUA BARAT";"";"Indonesia";"";"-1.8268019";"134.0199152";"https://maps.google.com/?cid=0x0:0x3c36f74a68c69218"
"hotel";"Hotel";"Srikandi Hotel";"Ransiki Kota, Distrik Ransiki, Kabupaten Manokwari, Papua Bar. 98355";"Distrik Ransiki, Kabupaten Manokwari";"PAPUA BARAT";"98355";"Indonesia";" 082395960356";"-1.5051115";"134.1702236";"https://maps.google.com/?cid=0x0:0x136fe7052b246d49"
"hotel";"Hotel";"Srikandi hotel";"Jln. Sujarwo Condronegoro, Papua Bar. 98324";"Kab. Manokwari Selatan, Papua Bar.";"PAPUA BARAT";"";"Indonesia";" 081244960284";"-1.5104235";"134.1820505";"https://maps.google.com/?cid=0x0:0x697582e8780db5ed"
"hotel";"hotel";"Distrik Tahota";"Kab. Manokwari Selatan, Papua Bar.";"Kab. Manokwari Selatan, Papua Bar.";"PAPUA BARAT";"";"Indonesia";"";"-1.7908829";"133.9862408";"https://maps.google.com/?cid=0x0:0x169fe16a30d46c7b"
"hotel";"Komplek perumahan";"Kompleks H. Marala (indekos)";"G524+G2F, Jl. Manokwari - Bintuni, Sabri, Distrik Ransiki, Kab. Manokwari Selatan, Papua Bar. 98355";"Jl. Manokwari - Bintuni, Sabri, Distrik Ransiki, Kab. Manokwari Selatan";"PAPUA BARAT";"98355";"Indonesia";" 081344800578";"-1.4986803";"134.155049";"https://maps.google.com/?cid=0x0:0x4e3e5c7adf364e88"
"hotel";"Hotel";"Ransiki";"F5V9+JGP, Ransiki Kota, Distrik Ransiki, Kabupaten Manokwari, Papua Bar. 98355";"Ransiki Kota, Distrik Ransiki, Kabupaten Manokwari";"PAPUA BARAT";"98355";"Indonesia";"";"-1.5059231";"134.1688136";"https://maps.google.com/?cid=0x0:0xd1dbc857027caa73"
"hotel";"Dealer Toyota";"DEALER TOYOTA DEPOK - Kartikah";"Jl. Boulevard Grand Depok City, Tirtajaya, Kec. Sukmajaya, Kota Depok, Jawa Barat 16412";"Tirtajaya, Kec. Sukmajaya, Kota Depok";"PAPUA BARAT";"16412";"Indonesia";" 087876755500";"-6.41583";"106.8212405";"https://maps.google.com/?cid=0x0:0xbd51b0a6c7afe47e"
"hotel";"Dealer mobil";"Toyota Auto2000 DEPOK";"Grand Depok City Jalan Boulevard Parung Serab, RT.09/RW.03, Tirtajaya, Kec. Sukmajaya, Kota Depok, Jawa Barat 16412";"RT.09/RW.03, Tirtajaya, Kec. Sukmajaya, Kota Depok";"PAPUA BARAT";"16412";"Indonesia";" 02129502000";"-6.4158587";"106.8212174";"https://maps.google.com/?cid=0x0:0x480d1c3cac768e73"
"restaurant";"restaurant";"Dataran Isim";"Kab. Manokwari Selatan, Papua Bar.";"Kab. Manokwari Selatan, Papua Bar.";"PAPUA BARAT";"";"Indonesia";"";"-1.5213839";"133.7525619";"https://maps.google.com/?cid=0x0:0x5152c50d52f61896"
"restaurant";"Rumah Makan";"RM. Mujir Indah";"Jl. Manokwari - Bintuni, Ransiki Kota, Distrik Ransiki, Kab. Manokwari Selatan, Papua Bar. 98355";"Ransiki Kota, Distrik Ransiki, Kab. Manokwari Selatan";"PAPUA BARAT";"98355";"Indonesia";" 081248925803";"-1.5081845";"134.1716275";"https://maps.google.com/?cid=0x0:0x722d1094cce82d32"
"restaurant";"Toko bahan makanan";"Warung Barokah mas Bedjo";"Jl. Manokwari - Bintuni, Dembek, Distrik Momi Waren, Kab. Manokwari Selatan, Papua Bar. 98355";"Dembek, Distrik Momi Waren, Kab. Manokwari Selatan";"PAPUA BARAT";"98355";"Indonesia";" 085399390442";"-1.5858411";"134.1432356";"https://maps.google.com/?cid=0x0:0x240902f27b7226c3"
"restaurant";"restaurant";"Distrik Momi Waren";"Kab. Manokwari Selatan, Papua Bar.";"Kab. Manokwari Selatan, Papua Bar.";"PAPUA BARAT";"";"Indonesia";"";"-1.589112";"134.1139979";"https://maps.google.com/?cid=0x0:0xf7889c42ea8b544b"
"restaurant";"Rumah Makan";"Kedai Family MTR";"F5VC+V34, Ransiki Kota, Distrik Ransiki, Kab. Manokwari Selatan, Papua Bar. 98355";"Ransiki Kota, Distrik Ransiki, Kab. Manokwari Selatan";"PAPUA BARAT";"98355";"Indonesia";" 082199251825";"-1.5054509";"134.1702643";"https://maps.google.com/?cid=0x0:0xc6cbc7a494154db7"
"restaurant";"Nasi";"RM SEGERI";"F5QV+CJF, Unnamed Road, Ransiki Kota, Distrik Ransiki, Kab. Manokwari Selatan, Papua Bar. 98355";"Unnamed Road, Ransiki Kota, Distrik Ransiki, Kab. Manokwari Selatan";"PAPUA BARAT";"98355";"Indonesia";"";"-1.5114305";"134.1940504";"https://maps.google.com/?cid=0x0:0xf51fbd110e6326c1"
"restaurant";"Ikan Bakar";"Dapoer Rosse";"F578+4JV, Jl. Manokwari - Bintuni, Hamawi, Kab. Manokwari Selatan, Papua Bar. 98355";"Jl. Manokwari - Bintuni, Hamawi, Kab. Manokwari Selatan";"PAPUA BARAT";"98355";"Indonesia";" 085254114300";"-1.5371415";"134.1665574";"https://maps.google.com/?cid=0x0:0xcb50cf7155ac8e53"
"restaurant";"Penginapan";"Penginapan Raipawi";"F5QW+748, Unnamed Road, Ransiki Kota, Distrik Ransiki, Kab. Manokwari Selatan, Papua Bar. 98355";"Unnamed Road, Ransiki Kota, Distrik Ransiki, Kab. Manokwari Selatan";"PAPUA BARAT";"98355";"Indonesia";" 082397172759";"-1.5118361";"134.1953347";"https://maps.google.com/?cid=0x0:0xd21b439da7e00685"
"restaurant";"Padang";"Rumah Makan Pangkep";"F5QX+4GC, Bamaha, Distrik Ransiki, Kab. Manokwari Selatan, Papua Bar. 98355";"Bamaha, Distrik Ransiki, Kab. Manokwari Selatan";"PAPUA BARAT";"98355";"Indonesia";"";"-1.5121781";"134.1987739";"https://maps.google.com/?cid=0x0:0xbc6e7ed76f70d52c"
"restaurant";"Padang";"Rumah Makan Simpang Tiga";"F5QF+H3C, Ransiki Kota, Distrik Ransiki, Kabupaten Manokwari, Papua Bar. 98355";"Ransiki Kota, Distrik Ransiki, Kabupaten Manokwari";"PAPUA BARAT";"98355";"Indonesia";"";"-1.5110713";"134.1726506";"https://maps.google.com/?cid=0x0:0x3b171644d9208e1e"
"restaurant";"Sate";"Warung Makan Dila Ransiki";"F5WC+488, Jl. Abreso, Ransiki Kota, Distrik Ransiki, Kabupaten Manokwari, Papua Bar. 98355";"Jl. Abreso, Ransiki Kota, Distrik Ransiki, Kabupaten Manokwari";"PAPUA BARAT";"98355";"Indonesia";" 085254507304";"-1.5047011";"134.1708279";"https://maps.google.com/?cid=0x0:0xac4ac7b675c9caba"
"restaurant";"Dapur Umum";"Catering TALITAKUM01";"G524+6FH, Sabri, Distrik Ransiki, Kab. Manokwari Selatan, Papua Bar. 98355";"Sabri, Distrik Ransiki, Kab. Manokwari Selatan";"PAPUA BARAT";"98355";"Indonesia";" 081340255101";"-1.4994376";"134.15624";"https://maps.google.com/?cid=0x0:0x23e7397b39d52c9a"
"restaurant";"Tujuan Wisata";"Tanah Cinta";"83CF+5VC, Yermatum, Distrik Tahota, Kab. Manokwari Selatan, Papua Bar. 98355";"Yermatum, Distrik Tahota, Kab. Manokwari Selatan";"PAPUA BARAT";"98355";"Indonesia";"";"-1.679558";"134.074642";"https://maps.google.com/?cid=0x0:0x14111f69526e7d65"
"restaurant";"Brunch";"Warung makan seafood";"masjid,an'nur, Jl.abreso,ransiki depan";"Kab. Manokwari Selatan, Papua Bar.";"PAPUA BARAT";"";"Indonesia";"";"-1.5062466";"134.1702452";"https://maps.google.com/?cid=0x0:0xb1973e4e87755a59"
"restaurant";"Restoran";"WR. LALAPAN SEDERHANA";"F5V9+PW2, Jl. Manokwari - Bintuni, Ransiki Kota, Distrik Ransiki, Kab. Manokwari Selatan, Papua Bar. 98355";"Jl. Manokwari - Bintuni, Ransiki Kota, Distrik Ransiki, Kab. Manokwari Selatan";"PAPUA BARAT";"98355";"Indonesia";"";"-1.5057462";"134.1697628";"https://maps.google.com/?cid=0x0:0x69ca03f56038f45b"
"restaurant";"restaurant";"Distrik Neney";"Kab. Manokwari Selatan, Papua Bar.";"Kab. Manokwari Selatan, Papua Bar.";"PAPUA BARAT";"";"Indonesia";"";"-1.4926563";"133.9961457";"https://maps.google.com/?cid=0x0:0x8d599f8b59144cf3"
"restaurant";"Korea";"NunWaYo - Jelambar";"Jl. Empang Bahagia Gg. VIII No. 26, RT 013 RW 05, Jelambar, Petamburan, Kec. Grogol petamburan, Kota Jakarta Barat, Daerah Khusus Ibukota Jakarta 11460";"RT 013 RW 05, Jelambar, Petamburan, Kec. Grogol petamburan, Kota Jakarta Barat";"PAPUA BARAT";"11460";"Indonesia";" 081233007785";"-6.1596008";"106.7886327";"https://maps.google.com/?cid=0x0:0x81aab68a05c6a94b"
"restaurant";"Kafe";"Noeansa Cafe  Resto";"Ruko Maggiore Grande F-03, Cihuni, Kec. Pagedangan, Kabupaten Tangerang, Banten 15332";"Cihuni, Kec. Pagedangan, Kabupaten Tangerang";"PAPUA BARAT";"15332";"Indonesia";" 087707077999";"-6.2724379";"106.6361382";"https://maps.google.com/?cid=0x0:0xc39c55fc468e2a5"
"restaurant";"Rumah Makan";"Warung Makan Manise";"F5QM+QFF, Jl. Manokwari - Bintuni, Ransiki Kota, Distrik Ransiki, Kab. Manokwari Selatan, Papua Bar. 98355";"Jl. Manokwari - Bintuni, Ransiki Kota, Distrik Ransiki, Kab. Manokwari Selatan";"PAPUA BARAT";"98355";"Indonesia";"";"-1.5105707";"134.1836584";"https://maps.google.com/?cid=0x0:0x2247c262cb0f6c77"
"restaurant";"Dapur Umum";"Kedai Masakan Nenek";"Jl. Wortel, Malawele, Kec. Aimas, Kabupaten Sorong, Papua Bar. 98444";"Malawele, Kec. Aimas, Kabupaten Sorong";"PAPUA BARAT";"98444";"Indonesia";" 08114820125";"-0.9588884";"131.3048442";"https://maps.google.com/?cid=0x0:0x843c75c4f60e6e85"
"restaurant";"Kafe";"Warung Nene";"Pondok Jati Murni Blok.K No.16, RT.005/RW.007, Jatimurni, Pondok Melati, Bekasi, West Java 17431";"RT.005/RW.007, Jatimurni, Pondok Melati, Bekasi";"PAPUA BARAT";"17431";"Indonesia";" 081212111713";"-6.3282971";"106.9281866";"https://maps.google.com/?cid=0x0:0xb5edd6cab73beeb3"
"restaurant";"Sesuai untuk keluarga";"Nicole's Garden Bistro";"Jl. Meruya Selatan No.21, RT.8/RW.1, Joglo, Kec. Kembangan, Kota Jakarta Barat, Daerah Khusus Ibukota Jakarta 11640";"RT.8/RW.1, Joglo, Kec. Kembangan, Kota Jakarta Barat";"PAPUA BARAT";"11640";"Indonesia";" 087888785777";"-6.2164483";"106.7373979";"https://maps.google.com/?cid=0x0:0x6247d46f7c8fe52b"
"restaurant";"Restoran";"Warung Nene Ikah";"Jl. Lap. Golf Hankam No.33, RT.001/RW.006, Jatimurni, Kec. Pd. Melati, Kota Bks, Jawa Barat 17431";"RT.001/RW.006, Jatimurni, Kec. Pd. Melati, Kota Bks";"PAPUA BARAT";"17431";"Indonesia";"";"-6.327785";"106.922037";"https://maps.google.com/?cid=0x0:0x240e9dedc0eae652"
"restaurant";"restaurant";"N/A";"";"";"PAPUA BARAT";"";"Indonesia";"";"";"";"https://maps.google.com/?cid=0x0:0xb5edd6cab73beeb3u0026onu003dTumpeng+Nasi+Kuningu0026midu003d/g/11kh72xqfk"
"restaurant";"restaurant";"N/A";"";"";"PAPUA BARAT";"";"Indonesia";"";"";"";"https://maps.google.com/?cid=0x0:0xb5edd6cab73beeb3u0026onu003dKue+Cara+Ayamu0026midu003d/g/11kh72xqfk"
"restaurant";"restaurant";"N/A";"";"";"PAPUA BARAT";"";"Indonesia";"";"";"";"https://maps.google.com/?cid=0x0:0xb5edd6cab73beeb3u0026onu003dKuker+Sagu+Kejuu0026midu003d/g/11kh72xqfk"
"restaurant";"restaurant";"N/A";"";"";"PAPUA BARAT";"";"Indonesia";"";"";"";"https://maps.google.com/?cid=0x0:0xb5edd6cab73beeb3u0026onu003dBolkus+Merekahu0026midu003d/g/11kh72xqfk"
"restaurant";"restaurant";"N/A";"";"";"PAPUA BARAT";"";"Indonesia";"";"";"";"https://maps.google.com/?cid=0x0:0xb5edd6cab73beeb3u0026onu003dPempeu0026midu003d/g/11kh72xqfk"
"restaurant";"restaurant";"N/A";"";"";"PAPUA BARAT";"";"Indonesia";"";"";"";"https://maps.google.com/?cid=0x0:0xb5edd6cab73beeb3u0026onu003dKue+Keringu0026midu003d/g/11kh72xqfk"
"restaurant";"Dapur Umum";"Rumah makan aulia. Oransbari";"M6J9+P7C, Jl. Manokwari - Bintuni, Sidomulyo, Kec. Oransbari, Kab. Manokwari Selatan, Papua Bar. 98353";"Jl. Manokwari - Bintuni, Sidomulyo, Kec. Oransbari, Kab. Manokwari Selatan";"PAPUA BARAT";"98353";"Indonesia";"";"-1.3181876";"134.2181507";"https://maps.google.com/?cid=0x0:0xfa78230c4e484df4"
"restaurant";"restaurant";"Papua Bar. 98353";"Kabupaten Manokwari, Papua Bar.";"Kabupaten Manokwari, Papua Bar.";"PAPUA BARAT";"";"Indonesia";"";"-1.2869478";"134.1340439";"https://maps.google.com/?cid=0x0:0x8a0ea672dc22a2db"
"restaurant";"Indonesia";"RUMAH MAKAN PAOTERE ORANSBARI MANOKWARI SELATAN";"M6J9+J4Q, Sidomulyo, Kec. Oransbari, Kab. Manokwari Selatan, Papua Bar. 98353";"Sidomulyo, Kec. Oransbari, Kab. Manokwari Selatan";"PAPUA BARAT";"98353";"Indonesia";" 082198935488";"-1.3184086";"134.2178642";"https://maps.google.com/?cid=0x0:0x479ba19d179f77b5"
"restaurant";"Padang";"Warung Makan Putri Tunggal";"M67F+XGC, Margomulyo, Kec. Oransbari, Kabupaten Manokwari, Papua Bar. 98353";"Margomulyo, Kec. Oransbari, Kabupaten Manokwari";"PAPUA BARAT";"98353";"Indonesia";"";"-1.3350724";"134.2237771";"https://maps.google.com/?cid=0x0:0xb455b352ffee6102"
"restaurant";"Indonesia";"Waroeng sawah";"M67P+J24, Unnamed Road, Muari, Kec. Oransbari, Kab. Manokwari Selatan, Papua Bar. 98353";"Unnamed Road, Muari, Kec. Oransbari, Kab. Manokwari Selatan";"PAPUA BARAT";"98353";"Indonesia";"";"-1.3359848";"134.2350903";"https://maps.google.com/?cid=0x0:0xff152faff9a9e1e5"
"restaurant";"Kafe";"ALZENA CAFE";"M6F9+4J9, Akeju, Kec. Oransbari, Kab. Manokwari Selatan, Papua Bar. 98353";"Akeju, Kec. Oransbari, Kab. Manokwari Selatan";"PAPUA BARAT";"98353";"Indonesia";"";"-1.3272125";"134.2191094";"https://maps.google.com/?cid=0x0:0xff49004cc70400e2"
"restaurant";"Brunch";"RM Wonogiri, Oransbari, Manokwari Selatan";"Jl. Merdeka No.RT 04, Margomulyo, Kec. Oransbari, Kab. Manokwari Selatan, Papua Bar. 98353";"Margomulyo, Kec. Oransbari, Kab. Manokwari Selatan";"PAPUA BARAT";"98353";"Indonesia";" 085314215658";"-1.3371098";"134.2281232";"https://maps.google.com/?cid=0x0:0xa9e2effb13aabba5"
"restaurant";"Nasi";"Rumah Makan Sederhana";"M69C+CC2, Margomulyo, Kec. Oransbari, Kabupaten Manokwari, Papua Bar. 98353";"Margomulyo, Kec. Oransbari, Kabupaten Manokwari";"PAPUA BARAT";"98353";"Indonesia";" 081229006341";"-1.3315287";"134.2210189";"https://maps.google.com/?cid=0x0:0x548aede3c41a2904"
"restaurant";"Brunch";"RM. PAPUA TURATEA";"M68C+XH9, Margomulyo, Kec. Oransbari, Kabupaten Manokwari, Papua Bar. 98353";"Margomulyo, Kec. Oransbari, Kabupaten Manokwari";"PAPUA BARAT";"98353";"Indonesia";" 082196466955";"-1.3325994";"134.2214754";"https://maps.google.com/?cid=0x0:0xd7922be73a387289"
"restaurant";"Nasi";"Warung Gabilza";"M67H+837, Jl. Merdeka, Sindang Jaya, Kec. Oransbari, Kab. Manokwari Selatan, Papua Bar.";"Kab. Manokwari Selatan, Papua Bar.";"PAPUA BARAT";"";"Indonesia";" 081213505564";"-1.3367061";"134.2276826";"https://maps.google.com/?cid=0x0:0xcfc3ca1657f3be4c"
"restaurant";"Restoran";"R.M. MANGGA DUA";"M6MH+JCF, Jl. Manokwari - Bintuni, Sindang Jaya, Kec. Oransbari, Kab. Manokwari Selatan, Papua Bar. 98353";"Jl. Manokwari - Bintuni, Sindang Jaya, Kec. Oransbari, Kab. Manokwari Selatan";"PAPUA BARAT";"98353";"Indonesia";"";"-1.3159443";"134.228541";"https://maps.google.com/?cid=0x0:0x4cccf41410bd39c7"
"restaurant";"Dapur Umum";"rumah makan Liana Muari oransbari";"M639+G6H, Muari, Kec. Oransbari, Kabupaten Manokwari, Papua Bar.";"Kabupaten Manokwari, Papua Bar.";"PAPUA BARAT";"";"Indonesia";" 082397253079";"-1.3461825";"134.2181103";"https://maps.google.com/?cid=0x0:0x3b55d212c4a38af8"
"restaurant";"Makanan Kecil";"Bakso Avika";"M6H9+34H, Jl. Manokwari - Bintuni, Akeju, Kec. Oransbari, Kab. Manokwari Selatan, Papua Bar. 98353";"Jl. Manokwari - Bintuni, Akeju, Kec. Oransbari, Kab. Manokwari Selatan";"PAPUA BARAT";"98353";"Indonesia";" 081354058779";"-1.3223004";"134.2178512";"https://maps.google.com/?cid=0x0:0xc14b4f208f7b1374"
"restaurant";"Restoran";"Warung safira";"M69C+CC2, Margomulyo, Kec. Oransbari, Kabupaten Manokwari, Papua Bar. 98353";"Margomulyo, Kec. Oransbari, Kabupaten Manokwari";"PAPUA BARAT";"98353";"Indonesia";"";"-1.3314472";"134.221111";"https://maps.google.com/?cid=0x0:0x1e42efc87b9c352f"
"restaurant";"Sate";"Warung Makan Dila Ransiki";"F5WC+488, Jl. Abreso, Ransiki Kota, Distrik Ransiki, Kabupaten Manokwari, Papua Bar. 98355";"Jl. Abreso, Ransiki Kota, Distrik Ransiki, Kabupaten Manokwari";"PAPUA BARAT";"98355";"Indonesia";" 085254507304";"-1.5047011";"134.1708279";"https://maps.google.com/?cid=0x0:0xac4ac7b675c9caba"
"restaurant";"Padang";"Rumah Makan Simpang Tiga";"F5QF+H3C, Ransiki Kota, Distrik Ransiki, Kabupaten Manokwari, Papua Bar. 98355";"Ransiki Kota, Distrik Ransiki, Kabupaten Manokwari";"PAPUA BARAT";"98355";"Indonesia";"";"-1.5110713";"134.1726506";"https://maps.google.com/?cid=0x0:0x3b171644d9208e1e"
"restaurant";"Rumah Makan";"Warung Makan Cinta Rasa Ransiki";"F5QR+FHQ, Ransiki Kota, Distrik Ransiki, Kab. Manokwari Selatan, Papua Bar. 98355";"Ransiki Kota, Distrik Ransiki, Kab. Manokwari Selatan";"PAPUA BARAT";"98355";"Indonesia";" 081247784175";"-1.5112996";"134.1914701";"https://maps.google.com/?cid=0x0:0xd33666fdeedd5f02"
"restaurant";"restaurant";"Ransiki";"Ransiki Kota, Distrik Ransiki, Kab. Manokwari Selatan, Papua Bar.";"Kab. Manokwari Selatan, Papua Bar.";"PAPUA BARAT";"";"Indonesia";"";"-1.516433";"134.180298";"https://maps.google.com/?cid=0x0:0xc2f9404ccd6ec72a"
"restaurant";"restaurant";"Ransiki";"F5MM+W8X, Ransiki Kota, Distrik Ransiki, Kabupaten Manokwari, Papua Bar. 98355";"Ransiki Kota, Distrik Ransiki, Kabupaten Manokwari";"PAPUA BARAT";"98355";"Indonesia";"";"-1.5151457";"134.1833676";"https://maps.google.com/?cid=0x0:0xfcbef4be02caccfd"
"restaurant";"Padang";"Warung Makan Tampa Singgah";"F5WJ+JJJ, Ransiki Kota, Distrik Ransiki, Kab. Manokwari Selatan, Papua Bar. 98355";"Ransiki Kota, Distrik Ransiki, Kab. Manokwari Selatan";"PAPUA BARAT";"98355";"Indonesia";" 081247754774";"-1.5034007";"134.1815176";"https://maps.google.com/?cid=0x0:0x874aec1ac772febc"
"restaurant";"Brunch";"Warung makan";"Jl.ransiki kompleks kamasan depan kampus unipa, Papua Bar.";"Kab. Manokwari Selatan, Papua Bar.";"PAPUA BARAT";"";"Indonesia";" 082131398433";"-1.516433";"134.180298";"https://maps.google.com/?cid=0x0:0xf0bb6008f73f5fd6"
"restaurant";"Restoran";"Inggandi Beach Restaurant";"43GV+7Q3, Jl. Pasir Putih No.33, Pasir Putih, Kec. Manokwari Tim., Kabupaten Manokwari, Papua Bar. 98313";"Jl. Pasir Putih No.33, Pasir Putih, Kec. Manokwari Tim., Kabupaten Manokwari";"PAPUA BARAT";"98313";"Indonesia";" 081240372255";"-0.8780927";"134.0933631";"https://maps.google.com/?cid=0x0:0xba66c7a3124731e6"
"restaurant";"Kedai Kopi";"Titik Kumpul Cafe";"Jalan Sujarwo Condronegoro SH, Ransiki Kota, Distrik Ransiki, Kab. Manokwari Selatan, Papua Bar. 98324";"Ransiki Kota, Distrik Ransiki, Kab. Manokwari Selatan";"PAPUA BARAT";"98324";"Indonesia";" 082197517011";"-1.516433";"134.180298";"https://maps.google.com/?cid=0x0:0x2417976b0770f56f"
"restaurant";"Rumah Makan";"Kedai Family MTR";"F5VC+V34, Ransiki Kota, Distrik Ransiki, Kab. Manokwari Selatan, Papua Bar. 98355";"Ransiki Kota, Distrik Ransiki, Kab. Manokwari Selatan";"PAPUA BARAT";"98355";"Indonesia";" 082199251825";"-1.5054509";"134.1702643";"https://maps.google.com/?cid=0x0:0xc6cbc7a494154db7"
"restaurant";"Nasi";"RM SEGERI";"F5QV+CJF, Unnamed Road, Ransiki Kota, Distrik Ransiki, Kab. Manokwari Selatan, Papua Bar. 98355";"Unnamed Road, Ransiki Kota, Distrik Ransiki, Kab. Manokwari Selatan";"PAPUA BARAT";"98355";"Indonesia";"";"-1.5114305";"134.1940504";"https://maps.google.com/?cid=0x0:0xf51fbd110e6326c1"
"restaurant";"Toko Pakaian";"Aneka Jus Dan Gorengan Tahu Crispy Ransiki";"F5VC+M76, Ransiki Kota, Distrik Ransiki, Kab. Manokwari Selatan, Papua Bar. 98355";"Ransiki Kota, Distrik Ransiki, Kab. Manokwari Selatan";"PAPUA BARAT";"98355";"Indonesia";"";"-1.5058412";"134.1706338";"https://maps.google.com/?cid=0x0:0x73ab545ba9721a7b"
"restaurant";"Brunch";"Warung makan seafood";"masjid,an'nur, Jl.abreso,ransiki depan";"Kab. Manokwari Selatan, Papua Bar.";"PAPUA BARAT";"";"Indonesia";"";"-1.5062466";"134.1702452";"https://maps.google.com/?cid=0x0:0xb1973e4e87755a59"
"restaurant";"Nasi";"Warung Cipta Rasa";"G43X+FX6, Sabri, Distrik Ransiki, Kab. Manokwari Selatan, Papua Bar. 98355";"Sabri, Distrik Ransiki, Kab. Manokwari Selatan";"PAPUA BARAT";"98355";"Indonesia";"";"-1.4963486";"134.149903";"https://maps.google.com/?cid=0x0:0xd3da2cf989b017d1"
"restaurant";"restaurant";"Papua Bar. 98355";"Kab. Manokwari Selatan, Papua Bar.";"Kab. Manokwari Selatan, Papua Bar.";"PAPUA BARAT";"";"Indonesia";"";"-1.8268019";"134.0199152";"https://maps.google.com/?cid=0x0:0x3c36f74a68c69218"
"restaurant";"Tujuan Wisata";"Tanah Cinta";"83CF+5VC, Yermatum, Distrik Tahota, Kab. Manokwari Selatan, Papua Bar. 98355";"Yermatum, Distrik Tahota, Kab. Manokwari Selatan";"PAPUA BARAT";"98355";"Indonesia";"";"-1.679558";"134.074642";"https://maps.google.com/?cid=0x0:0x14111f69526e7d65"
"restaurant";"Dapur Umum";"Catering TALITAKUM01";"G524+6FH, Sabri, Distrik Ransiki, Kab. Manokwari Selatan, Papua Bar. 98355";"Sabri, Distrik Ransiki, Kab. Manokwari Selatan";"PAPUA BARAT";"98355";"Indonesia";" 081340255101";"-1.4994376";"134.15624";"https://maps.google.com/?cid=0x0:0x23e7397b39d52c9a"
"restaurant";"Sarapan";"Rumah Makan Valdez";"F5QF+WXV, Jl. Manokwari - Bintuni, Ransiki Kota, Distrik Ransiki, Kab. Manokwari Selatan, Papua Bar. 98355";"Jl. Manokwari - Bintuni, Ransiki Kota, Distrik Ransiki, Kab. Manokwari Selatan";"PAPUA BARAT";"98355";"Indonesia";" 081240349500";"-1.5101487";"134.1749211";"https://maps.google.com/?cid=0x0:0xc69943f9cf8dc3e0"
"restaurant";"Padang";"Rumah Makan Pangkep";"F5QX+4GC, Bamaha, Distrik Ransiki, Kab. Manokwari Selatan, Papua Bar. 98355";"Bamaha, Distrik Ransiki, Kab. Manokwari Selatan";"PAPUA BARAT";"98355";"Indonesia";"";"-1.5121781";"134.1987739";"https://maps.google.com/?cid=0x0:0xbc6e7ed76f70d52c"
"restaurant";"Ikan Bakar";"Dapoer Rosse";"F578+4JV, Jl. Manokwari - Bintuni, Hamawi, Kab. Manokwari Selatan, Papua Bar. 98355";"Jl. Manokwari - Bintuni, Hamawi, Kab. Manokwari Selatan";"PAPUA BARAT";"98355";"Indonesia";" 085254114300";"-1.5371415";"134.1665574";"https://maps.google.com/?cid=0x0:0xcb50cf7155ac8e53"
"restaurant";"Rumah Makan";"Kedai Family MTR";"F5VC+V34, Ransiki Kota, Distrik Ransiki, Kab. Manokwari Selatan, Papua Bar. 98355";"Ransiki Kota, Distrik Ransiki, Kab. Manokwari Selatan";"PAPUA BARAT";"98355";"Indonesia";" 082199251825";"-1.5054509";"134.1702643";"https://maps.google.com/?cid=0x0:0xc6cbc7a494154db7"
"restaurant";"Nasi";"Kedai Aqillah 17";"G43X+GVQ, Jl. Manokwari - Bintuni, Sabri, Distrik Ransiki, Kab. Manokwari Selatan, Papua Bar. 98355";"Jl. Manokwari - Bintuni, Sabri, Distrik Ransiki, Kab. Manokwari Selatan";"PAPUA BARAT";"98355";"Indonesia";"";"-1.4961665";"134.1497345";"https://maps.google.com/?cid=0x0:0x276e510edee12a4b"
"restaurant";"Kafe";"RM. Tampa Singga";"F5V8+HV7, Jl. Waspori, Ransiki Kota, Distrik Ransiki, Kabupaten Manokwari, Papua Bar. 98355";"Jl. Waspori, Ransiki Kota, Distrik Ransiki, Kabupaten Manokwari";"PAPUA BARAT";"98355";"Indonesia";" 081247754774";"-1.5060838";"134.1671762";"https://maps.google.com/?cid=0x0:0xa636904ee6b5cb44"
"restaurant";"Rumah Makan";"RM. Mujir Indah";"Jl. Manokwari - Bintuni, Ransiki Kota, Distrik Ransiki, Kab. Manokwari Selatan, Papua Bar. 98355";"Ransiki Kota, Distrik Ransiki, Kab. Manokwari Selatan";"PAPUA BARAT";"98355";"Indonesia";" 081248925803";"-1.5081845";"134.1716275";"https://maps.google.com/?cid=0x0:0x722d1094cce82d32"
"restaurant";"Nasi";"RM SEGERI";"F5QV+CJF, Unnamed Road, Ransiki Kota, Distrik Ransiki, Kab. Manokwari Selatan, Papua Bar. 98355";"Unnamed Road, Ransiki Kota, Distrik Ransiki, Kab. Manokwari Selatan";"PAPUA BARAT";"98355";"Indonesia";"";"-1.5114305";"134.1940504";"https://maps.google.com/?cid=0x0:0xf51fbd110e6326c1"
"restaurant";"Penginapan";"Penginapan Raipawi";"F5QW+748, Unnamed Road, Ransiki Kota, Distrik Ransiki, Kab. Manokwari Selatan, Papua Bar. 98355";"Unnamed Road, Ransiki Kota, Distrik Ransiki, Kab. Manokwari Selatan";"PAPUA BARAT";"98355";"Indonesia";" 082397172759";"-1.5118361";"134.1953347";"https://maps.google.com/?cid=0x0:0xd21b439da7e00685"
"restaurant";"Nasi";"Warung Makan Saldi";"G532+4J2 Jl. Trans, Jl. Manokwari - Bintuni, Sabri, Distrik Ransiki, Kabupaten Manokwari, Papua Bar. 98355";"Jl. Manokwari - Bintuni, Sabri, Distrik Ransiki, Kabupaten Manokwari";"PAPUA BARAT";"98355";"Indonesia";" 082240816647";"-1.4972361";"134.1515137";"https://maps.google.com/?cid=0x0:0x6c9bdd1c1ba93320"
"restaurant";"Padang";"Rumah Makan Simpang Tiga";"F5QF+H3C, Ransiki Kota, Distrik Ransiki, Kabupaten Manokwari, Papua Bar. 98355";"Ransiki Kota, Distrik Ransiki, Kabupaten Manokwari";"PAPUA BARAT";"98355";"Indonesia";"";"-1.5110713";"134.1726506";"https://maps.google.com/?cid=0x0:0x3b171644d9208e1e"
