Category,Real Category,Business Name,Address,City,State,Postal Code,Country,Phone,Email,Website,Latitude,Longitude,Map Link,Details Link
mall,mall,Kalimantan Tengah 74111,"Kec. Arut Sel., Kabupaten Kotawaringin Barat, Kalimantan Tengah","Kabupaten Kotawaringin Barat, Kalimantan Tengah",KALIMANTAN TENGAH,,Indonesia,,,,-2.6520279,111.6362619,https://maps.google.com/?cid=0x0:0x2253408f4577629c,
mall,Pasar,Pasar Indra Kencana,"Jl. PRA. Kesumayudha, Mendawai, Kec. Arut Sel., Kabupaten Kotawaringin Barat, Kalimantan Tengah 74112","Mendawai, Kec. Arut Sel., Kabupaten Kotawaringin Barat",KALIMANTAN TENGAH,74112.0,Indonesia,,,,-2.677186,111.6276753,https://maps.google.com/?cid=0x0:0x7bc1fdee56bd1b39,
mall,Pusat Perbelanjaan,Lifestyle center,"8JCG+M89, Jl. Pangeran Antasari, Mendawai, Kec. Arut Sel., Kabupaten Kotawaringin Barat, Kalimantan Tengah 74112","Jl. Pangeran Antasari, Mendawai, Kec. Arut Sel., Kabupaten Kotawaringin Barat",KALIMANTAN TENGAH,74112.0,Indonesia,85249181891.0,,,-2.6783469,111.6258498,https://maps.google.com/?cid=0x0:0x9ca47ddf2ed6b264,
mall,Pusat Perbelanjaan,Kampung Mall,"8MH7+G3J, Baru, Kec. Arut Sel., Kabupaten Kotawaringin Barat, Kalimantan Tengah 74112","Baru, Kec. Arut Sel., Kabupaten Kotawaringin Barat",KALIMANTAN TENGAH,74112.0,Indonesia,,,,-2.6711548,111.6626372,https://maps.google.com/?cid=0x0:0x84d17c66f4ed07ab,
mall,Pusat Perbelanjaan,"Pusat Oleh-oleh PANGKALAN BUN,AA SNACK","8JCM+JFP, Jl. Pakunegara, Raja, Kec. Arut Sel., Kabupaten Kotawaringin Barat, Kalimantan Tengah 74112","Jl. Pakunegara, Raja, Kec. Arut Sel., Kabupaten Kotawaringin Barat",KALIMANTAN TENGAH,74112.0,Indonesia,85206287777.0,,,-2.6784148,111.633694,https://maps.google.com/?cid=0x0:0x69157e08e73c4c02,
mall,Pusat Perbelanjaan,Happy Zone Pangkalan Bun,"8JGM+9F7, Raja, Kec. Arut Sel., Kabupaten Kotawaringin Barat, Kalimantan Tengah 74112","Raja, Kec. Arut Sel., Kabupaten Kotawaringin Barat",KALIMANTAN TENGAH,74112.0,Indonesia,,,,-2.6740929,111.633669,https://maps.google.com/?cid=0x0:0xdd32f0df1c30bbca,
mall,Pusat Perbelanjaan,AVAIL PANGKALAN BUN (AMP),"Gg. Adungan 1, Baru, Kec. Arut Sel., Kabupaten Kotawaringin Barat, Kalimantan Tengah 74112","Baru, Kec. Arut Sel., Kabupaten Kotawaringin Barat",KALIMANTAN TENGAH,74112.0,Indonesia,85393420320.0,,,-2.6712073,111.6420338,https://maps.google.com/?cid=0x0:0x5be9a1245b06d437,
mall,Toko,Toko Ria,"9M23+333, Baru, Kec. Arut Sel., Kabupaten Kotawaringin Barat, Kalimantan Tengah 74111","Baru, Kec. Arut Sel., Kabupaten Kotawaringin Barat",KALIMANTAN TENGAH,74111.0,Indonesia,,,,-2.6498552,111.6526864,https://maps.google.com/?cid=0x0:0x18b6b54d73c68c36,
mall,Pusat Perbelanjaan,Ciptaland,"Jl. Iskandar No.99, Madurejo, Kec. Arut Sel., Kabupaten Kotawaringin Barat, Kalimantan Tengah 74112","Madurejo, Kec. Arut Sel., Kabupaten Kotawaringin Barat",KALIMANTAN TENGAH,74112.0,Indonesia,,,,-2.7006702,111.6418021,https://maps.google.com/?cid=0x0:0x91e5c300eee1cf1d,
mall,Toko Pakaian,Toko Baju Serba Harga Murah Pangkalan Bun,"8JGQ+29R, Baru, Kec. Arut Sel., Kabupaten Kotawaringin Barat, Kalimantan Tengah 74112","Baru, Kec. Arut Sel., Kabupaten Kotawaringin Barat",KALIMANTAN TENGAH,74112.0,Indonesia,82157276868.0,,,-2.6748899,111.6383779,https://maps.google.com/?cid=0x0:0x43acfb9f21e06410,
mall,Toko Pakaian,Toko ADN,"8JHQ+V49, Jl. Berunai, Baru, Kec. Arut Sel., Kabupaten Kotawaringin Barat, Kalimantan Tengah 74112","Jl. Berunai, Baru, Kec. Arut Sel., Kabupaten Kotawaringin Barat",KALIMANTAN TENGAH,74112.0,Indonesia,,,,-2.670325,111.6378557,https://maps.google.com/?cid=0x0:0x8762f9993431a4c0,
mall,Hipermarket,Borneo Citimall Pangkalan Bun,"7MR2+273, Madurejo, Kec. Arut Sel., Kabupaten Kotawaringin Barat, Kalimantan Tengah 74181","Madurejo, Kec. Arut Sel., Kabupaten Kotawaringin Barat",KALIMANTAN TENGAH,74181.0,Indonesia,,,,-2.7099909,111.6506785,https://maps.google.com/?cid=0x0:0xe2824a738af7506,
mall,Penata Rambut,Agen Pomade Pangkalan Bun,"Jl. GM. Arsad No.RT 11, Baru, Kec. Arut Sel., Kabupaten Kotawaringin Barat, Kalimantan Tengah 74112","Baru, Kec. Arut Sel., Kabupaten Kotawaringin Barat",KALIMANTAN TENGAH,74112.0,Indonesia,85393420320.0,,,-2.6690314,111.6425347,https://maps.google.com/?cid=0x0:0x347e06dc0825a110,
mall,Toko Hewan Peliharaan,PETSHOP ALESHA PANGKALAN BUN,"Jl. GM. Arsad, Baru, Kec. Arut Sel., Kabupaten Kotawaringin Barat, Kalimantan Tengah 74112","Baru, Kec. Arut Sel., Kabupaten Kotawaringin Barat",KALIMANTAN TENGAH,74112.0,Indonesia,85821301601.0,,,-2.6606613,111.6511134,https://maps.google.com/?cid=0x0:0x55504f2377d4ac16,
mall,Pusat Perbelanjaan,Toko Aneka Hasil Bumi,"Jl. Sukma Aryaningrat No.29, RT.06/RW.02, Baru, Kec. Arut Sel., Kabupaten Kotawaringin Barat, Kalimantan Tengah 74112","RT.06/RW.02, Baru, Kec. Arut Sel., Kabupaten Kotawaringin Barat",KALIMANTAN TENGAH,74112.0,Indonesia,81250615237.0,,,-2.6693703,111.6398441,https://maps.google.com/?cid=0x0:0x5261d9b021d6976b,
mall,Pusat Perbelanjaan,B,"Jl. Ahmad Wongso No.51, Sidorejo, Kec. Arut Sel., Kabupaten Kotawaringin Barat, Kalimantan Tengah 74181","Sidorejo, Kec. Arut Sel., Kabupaten Kotawaringin Barat",KALIMANTAN TENGAH,74181.0,Indonesia,8115216386.0,,,-2.695242,111.6288055,https://maps.google.com/?cid=0x0:0x1b16d686485bc513,
mall,Toko,Anmystore,"8JHR+89R, Gg. Adungan 4, Baru, Kec. Arut Sel., Kabupaten Kotawaringin Barat, Kalimantan Tengah 74112","Gg. Adungan 4, Baru, Kec. Arut Sel., Kabupaten Kotawaringin Barat",KALIMANTAN TENGAH,74112.0,Indonesia,,,,-2.6716366,111.640887,https://maps.google.com/?cid=0x0:0xdf891cf3b943740d,
mall,Toko Elektronik,Raja Murah Kalimantan acc,"Jl. Sutan Syahrir No.38, Mendawai, Kec. Arut Sel., Kabupaten Kotawaringin Barat, Kalimantan Tengah 74112","Mendawai, Kec. Arut Sel., Kabupaten Kotawaringin Barat",KALIMANTAN TENGAH,74112.0,Indonesia,82256688938.0,,,-2.6864705,111.6291216,https://maps.google.com/?cid=0x0:0xe19da7a9379e1f54,
mall,Toko Pakaian,Toko samura 35,"8JJW+7CF, Baru, Kec. Arut Sel., Kabupaten Kotawaringin Barat, Kalimantan Tengah 74112","Baru, Kec. Arut Sel., Kabupaten Kotawaringin Barat",KALIMANTAN TENGAH,74112.0,Indonesia,85654971150.0,,,-2.6692634,111.6463276,https://maps.google.com/?cid=0x0:0xbc2f1c0535102650,
mall,Kantor Perusahaan,Rumah Mahar Pangkalanbun,"7JXC+CM2, Jl. Cilik Riwut II, Sidorejo, Kec. Arut Sel., Kabupaten Kotawaringin Barat, Kalimantan Tengah 74112","Jl. Cilik Riwut II, Sidorejo, Kec. Arut Sel., Kabupaten Kotawaringin Barat",KALIMANTAN TENGAH,74112.0,Indonesia,81390098826.0,,,-2.7014953,111.6216353,https://maps.google.com/?cid=0x0:0x41df5ca6596813a4,
mall,Pusat Perbelanjaan,Toko Mbak Is (iistore),"8JFG+5X9, Jl. Patih Suradilaga, Raja, Kec. Arut Sel., Kabupaten Kotawaringin Barat, Kalimantan Tengah 74112","Jl. Patih Suradilaga, Raja, Kec. Arut Sel., Kabupaten Kotawaringin Barat",KALIMANTAN TENGAH,74112.0,Indonesia,,,,-2.6770856,111.6274973,https://maps.google.com/?cid=0x0:0xb36b419e8498f54c,
mall,Pusat Perbelanjaan,Hypermart - Citimall Pangkalan Bun,"Jl. Utama Pasir Panjang No.22, Madurejo, Kec. Arut Sel., Kabupaten Kotawaringin Barat, Kalimantan Tengah 74117","Madurejo, Kec. Arut Sel., Kabupaten Kotawaringin Barat",KALIMANTAN TENGAH,74117.0,Indonesia,82157351068.0,,,-2.7104383,111.6503057,https://maps.google.com/?cid=0x0:0x7c46c8beb3b947f4,
mall,Toko umum,Genius Shopping Center,"Jl. Iskandar, Madurejo, Kec. Arut Sel., Kabupaten Kotawaringin Barat, Kalimantan Tengah 74112","Madurejo, Kec. Arut Sel., Kabupaten Kotawaringin Barat",KALIMANTAN TENGAH,74112.0,Indonesia,89699685870.0,,,-2.702331,111.6430498,https://maps.google.com/?cid=0x0:0xfbbe468104bced73,
mall,Pusat Perbelanjaan,PUSAT OLEH OLEH AA SNACK,"8JCM+JFR, Raja, Kec. Arut Sel., Kabupaten Kotawaringin Barat, Kalimantan Tengah 74112","Raja, Kec. Arut Sel., Kabupaten Kotawaringin Barat",KALIMANTAN TENGAH,74112.0,Indonesia,85705116121.0,,,-2.6783976,111.6336394,https://maps.google.com/?cid=0x0:0x2254788430a63192,
mall,Toko bahan makanan,Toko Aneka Mitra,"Jl. Pakunegara No.32, Raja, Kec. Arut Sel., Kabupaten Kotawaringin Barat, Kalimantan Tengah 74112","Raja, Kec. Arut Sel., Kabupaten Kotawaringin Barat",KALIMANTAN TENGAH,74112.0,Indonesia,,,,-2.6780542,111.6335306,https://maps.google.com/?cid=0x0:0xc4f6ab9b8e51d876,
mall,Toserba,BERKAH ABC,"Jl. PKGB 2, Baru, Kec. Arut Sel., Kabupaten Kotawaringin Barat, Kalimantan Tengah 74112","Baru, Kec. Arut Sel., Kabupaten Kotawaringin Barat",KALIMANTAN TENGAH,74112.0,Indonesia,,,,-2.6757957,111.6401757,https://maps.google.com/?cid=0x0:0x33b84460c90b27b9,
mall,mall,Kalimantan Tengah 74112,"Kec. Arut Sel., Kabupaten Kotawaringin Barat, Kalimantan Tengah","Kabupaten Kotawaringin Barat, Kalimantan Tengah",KALIMANTAN TENGAH,,Indonesia,,,,-2.6703594,111.6481861,https://maps.google.com/?cid=0x0:0xb2a8a9e52752a154,
mall,Pusat Perbelanjaan,Kampung Mall,"8MH7+G3J, Baru, Kec. Arut Sel., Kabupaten Kotawaringin Barat, Kalimantan Tengah 74112","Baru, Kec. Arut Sel., Kabupaten Kotawaringin Barat",KALIMANTAN TENGAH,74112.0,Indonesia,,,,-2.6711548,111.6626372,https://maps.google.com/?cid=0x0:0x84d17c66f4ed07ab,
mall,Pusat Perbelanjaan,Ciptaland,"Jl. Iskandar No.99, Madurejo, Kec. Arut Sel., Kabupaten Kotawaringin Barat, Kalimantan Tengah 74112","Madurejo, Kec. Arut Sel., Kabupaten Kotawaringin Barat",KALIMANTAN TENGAH,74112.0,Indonesia,,,,-2.7006702,111.6418021,https://maps.google.com/?cid=0x0:0x91e5c300eee1cf1d,
mall,Pusat Perbelanjaan,Happy Zone Pangkalan Bun,"8JGM+9F7, Raja, Kec. Arut Sel., Kabupaten Kotawaringin Barat, Kalimantan Tengah 74112","Raja, Kec. Arut Sel., Kabupaten Kotawaringin Barat",KALIMANTAN TENGAH,74112.0,Indonesia,,,,-2.6740929,111.633669,https://maps.google.com/?cid=0x0:0xdd32f0df1c30bbca,
mall,Pusat Perbelanjaan,Lifestyle center,"8JCG+M89, Jl. Pangeran Antasari, Mendawai, Kec. Arut Sel., Kabupaten Kotawaringin Barat, Kalimantan Tengah 74112","Jl. Pangeran Antasari, Mendawai, Kec. Arut Sel., Kabupaten Kotawaringin Barat",KALIMANTAN TENGAH,74112.0,Indonesia,85249181891.0,,,-2.6783469,111.6258498,https://maps.google.com/?cid=0x0:0x9ca47ddf2ed6b264,
mall,Toko bahan makanan,Swalayan Borneo,"Jalan Cilik Riwut No.1, Sidorejo, South Arut, West Kotawaringin Regency, Central Kalimantan 74112","Sidorejo, South Arut, West Kotawaringin Regency",KALIMANTAN TENGAH,74112.0,Indonesia,,,,-2.688962,111.622398,https://maps.google.com/?cid=0x0:0xdcc3537f30150036,
mall,Pusat Perbelanjaan,AVAIL PANGKALAN BUN (AMP),"Gg. Adungan 1, Baru, Kec. Arut Sel., Kabupaten Kotawaringin Barat, Kalimantan Tengah 74112","Baru, Kec. Arut Sel., Kabupaten Kotawaringin Barat",KALIMANTAN TENGAH,74112.0,Indonesia,85393420320.0,,,-2.6712073,111.6420338,https://maps.google.com/?cid=0x0:0x5be9a1245b06d437,
mall,Hipermarket,Borneo Citimall Pangkalan Bun,"7MR2+273, Madurejo, Kec. Arut Sel., Kabupaten Kotawaringin Barat, Kalimantan Tengah 74181","Madurejo, Kec. Arut Sel., Kabupaten Kotawaringin Barat",KALIMANTAN TENGAH,74181.0,Indonesia,,,,-2.7099909,111.6506785,https://maps.google.com/?cid=0x0:0xe2824a738af7506,
mall,Toko umum,Genius Shopping Center,"Jl. Iskandar, Madurejo, Kec. Arut Sel., Kabupaten Kotawaringin Barat, Kalimantan Tengah 74112","Madurejo, Kec. Arut Sel., Kabupaten Kotawaringin Barat",KALIMANTAN TENGAH,74112.0,Indonesia,89699685870.0,,,-2.702331,111.6430498,https://maps.google.com/?cid=0x0:0xfbbe468104bced73,
mall,Toko Suvenir,Toko Karima Pusat Oleh2,"8J5P+R43, Jl. Pangeran Diponegoro, Madurejo, Kec. Arut Sel., Kabupaten Kotawaringin Barat, Kalimantan Tengah 74112","Jl. Pangeran Diponegoro, Madurejo, Kec. Arut Sel., Kabupaten Kotawaringin Barat",KALIMANTAN TENGAH,74112.0,Indonesia,81349077680.0,,,-2.6904987,111.6353046,https://maps.google.com/?cid=0x0:0xcea8d4ea2d44defe,
mall,Pusat Perbelanjaan,"Pusat Oleh-oleh PANGKALAN BUN,AA SNACK","8JCM+JFP, Jl. Pakunegara, Raja, Kec. Arut Sel., Kabupaten Kotawaringin Barat, Kalimantan Tengah 74112","Jl. Pakunegara, Raja, Kec. Arut Sel., Kabupaten Kotawaringin Barat",KALIMANTAN TENGAH,74112.0,Indonesia,85206287777.0,,,-2.6784148,111.633694,https://maps.google.com/?cid=0x0:0x69157e08e73c4c02,
mall,Toko Pakaian,Toko Baju Serba Harga Murah Pangkalan Bun,"8JGQ+29R, Baru, Kec. Arut Sel., Kabupaten Kotawaringin Barat, Kalimantan Tengah 74112","Baru, Kec. Arut Sel., Kabupaten Kotawaringin Barat",KALIMANTAN TENGAH,74112.0,Indonesia,82157276868.0,,,-2.6748899,111.6383779,https://maps.google.com/?cid=0x0:0x43acfb9f21e06410,
mall,Pusat Perbelanjaan,Toko Aneka Hasil Bumi,"Jl. Sukma Aryaningrat No.29, RT.06/RW.02, Baru, Kec. Arut Sel., Kabupaten Kotawaringin Barat, Kalimantan Tengah 74112","RT.06/RW.02, Baru, Kec. Arut Sel., Kabupaten Kotawaringin Barat",KALIMANTAN TENGAH,74112.0,Indonesia,81250615237.0,,,-2.6693703,111.6398441,https://maps.google.com/?cid=0x0:0x5261d9b021d6976b,
mall,Pusat Perbelanjaan,Toko Mbak Is (iistore),"8JFG+5X9, Jl. Patih Suradilaga, Raja, Kec. Arut Sel., Kabupaten Kotawaringin Barat, Kalimantan Tengah 74112","Jl. Patih Suradilaga, Raja, Kec. Arut Sel., Kabupaten Kotawaringin Barat",KALIMANTAN TENGAH,74112.0,Indonesia,,,,-2.6770856,111.6274973,https://maps.google.com/?cid=0x0:0xb36b419e8498f54c,
mall,Toko,Anmystore,"8JHR+89R, Gg. Adungan 4, Baru, Kec. Arut Sel., Kabupaten Kotawaringin Barat, Kalimantan Tengah 74112","Gg. Adungan 4, Baru, Kec. Arut Sel., Kabupaten Kotawaringin Barat",KALIMANTAN TENGAH,74112.0,Indonesia,,,,-2.6716366,111.640887,https://maps.google.com/?cid=0x0:0xdf891cf3b943740d,
mall,Kantor Perusahaan,Rumah Mahar Pangkalanbun,"7JXC+CM2, Jl. Cilik Riwut II, Sidorejo, Kec. Arut Sel., Kabupaten Kotawaringin Barat, Kalimantan Tengah 74112","Jl. Cilik Riwut II, Sidorejo, Kec. Arut Sel., Kabupaten Kotawaringin Barat",KALIMANTAN TENGAH,74112.0,Indonesia,81390098826.0,,,-2.7014953,111.6216353,https://maps.google.com/?cid=0x0:0x41df5ca6596813a4,
mall,Toko Swalayan,Toko IPUL,"8J9Q+P6Q, Sidorejo, Kec. Arut Sel., Kabupaten Kotawaringin Barat, Kalimantan Tengah 74112","Sidorejo, Kec. Arut Sel., Kabupaten Kotawaringin Barat",KALIMANTAN TENGAH,74112.0,Indonesia,,,,-2.6806507,111.6381135,https://maps.google.com/?cid=0x0:0xa44b291bb11e5d93,
mall,Toko Pakaian,Toko ADN,"8JHQ+V49, Jl. Berunai, Baru, Kec. Arut Sel., Kabupaten Kotawaringin Barat, Kalimantan Tengah 74112","Jl. Berunai, Baru, Kec. Arut Sel., Kabupaten Kotawaringin Barat",KALIMANTAN TENGAH,74112.0,Indonesia,,,,-2.670325,111.6378557,https://maps.google.com/?cid=0x0:0x8762f9993431a4c0,
mall,Toko bahan makanan,Toko Aneka Mitra,"Jl. Pakunegara No.32, Raja, Kec. Arut Sel., Kabupaten Kotawaringin Barat, Kalimantan Tengah 74112","Raja, Kec. Arut Sel., Kabupaten Kotawaringin Barat",KALIMANTAN TENGAH,74112.0,Indonesia,,,,-2.6780542,111.6335306,https://maps.google.com/?cid=0x0:0xc4f6ab9b8e51d876,
mall,Penata Rambut,Agen Pomade Pangkalan Bun,"Jl. GM. Arsad No.RT 11, Baru, Kec. Arut Sel., Kabupaten Kotawaringin Barat, Kalimantan Tengah 74112","Baru, Kec. Arut Sel., Kabupaten Kotawaringin Barat",KALIMANTAN TENGAH,74112.0,Indonesia,85393420320.0,,,-2.6690314,111.6425347,https://maps.google.com/?cid=0x0:0x347e06dc0825a110,
mall,Toko Pakaian,Toko samura 35,"8JJW+7CF, Baru, Kec. Arut Sel., Kabupaten Kotawaringin Barat, Kalimantan Tengah 74112","Baru, Kec. Arut Sel., Kabupaten Kotawaringin Barat",KALIMANTAN TENGAH,74112.0,Indonesia,85654971150.0,,,-2.6692634,111.6463276,https://maps.google.com/?cid=0x0:0xbc2f1c0535102650,
mall,Pusat Perbelanjaan,Jakarta Collection,"Jl. Pangeran Diponegoro No.32 RT 01, Sidorejo, Kec. Arut Sel., Kabupaten Kotawaringin Barat, Kalimantan Tengah 74112","Sidorejo, Kec. Arut Sel., Kabupaten Kotawaringin Barat",KALIMANTAN TENGAH,74112.0,Indonesia,81216504603.0,,,-2.6903423,111.6352598,https://maps.google.com/?cid=0x0:0x7a77f46069268c30,
mall,mall,Kalimantan Tengah 74113,"Kabupaten Kotawaringin Barat, Kalimantan Tengah","Kabupaten Kotawaringin Barat, Kalimantan Tengah",KALIMANTAN TENGAH,,Indonesia,,,,-2.4702354,111.7137694,https://maps.google.com/?cid=0x0:0x6a2f96cf641bd2e0,
mall,Pusat Perbelanjaan,Kampung Mall,"8MH7+G3J, Baru, Kec. Arut Sel., Kabupaten Kotawaringin Barat, Kalimantan Tengah 74112","Baru, Kec. Arut Sel., Kabupaten Kotawaringin Barat",KALIMANTAN TENGAH,74112.0,Indonesia,,,,-2.6711548,111.6626372,https://maps.google.com/?cid=0x0:0x84d17c66f4ed07ab,
mall,Hipermarket,Borneo Citimall Pangkalan Bun,"7MR2+273, Madurejo, Kec. Arut Sel., Kabupaten Kotawaringin Barat, Kalimantan Tengah 74181","Madurejo, Kec. Arut Sel., Kabupaten Kotawaringin Barat",KALIMANTAN TENGAH,74181.0,Indonesia,,,,-2.7099909,111.6506785,https://maps.google.com/?cid=0x0:0xe2824a738af7506,
mall,Pusat Perbelanjaan,Ciptaland,"Jl. Iskandar No.99, Madurejo, Kec. Arut Sel., Kabupaten Kotawaringin Barat, Kalimantan Tengah 74112","Madurejo, Kec. Arut Sel., Kabupaten Kotawaringin Barat",KALIMANTAN TENGAH,74112.0,Indonesia,,,,-2.7006702,111.6418021,https://maps.google.com/?cid=0x0:0x91e5c300eee1cf1d,
mall,Pusat Perbelanjaan,Lifestyle center,"8JCG+M89, Jl. Pangeran Antasari, Mendawai, Kec. Arut Sel., Kabupaten Kotawaringin Barat, Kalimantan Tengah 74112","Jl. Pangeran Antasari, Mendawai, Kec. Arut Sel., Kabupaten Kotawaringin Barat",KALIMANTAN TENGAH,74112.0,Indonesia,85249181891.0,,,-2.6783469,111.6258498,https://maps.google.com/?cid=0x0:0x9ca47ddf2ed6b264,
mall,Pusat Perbelanjaan,Happy Zone Pangkalan Bun,"8JGM+9F7, Raja, Kec. Arut Sel., Kabupaten Kotawaringin Barat, Kalimantan Tengah 74112","Raja, Kec. Arut Sel., Kabupaten Kotawaringin Barat",KALIMANTAN TENGAH,74112.0,Indonesia,,,,-2.6740929,111.633669,https://maps.google.com/?cid=0x0:0xdd32f0df1c30bbca,
mall,Pusat Perbelanjaan,AVAIL PANGKALAN BUN (AMP),"Gg. Adungan 1, Baru, Kec. Arut Sel., Kabupaten Kotawaringin Barat, Kalimantan Tengah 74112","Baru, Kec. Arut Sel., Kabupaten Kotawaringin Barat",KALIMANTAN TENGAH,74112.0,Indonesia,85393420320.0,,,-2.6712073,111.6420338,https://maps.google.com/?cid=0x0:0x5be9a1245b06d437,
mall,Pasar,Pasar Indra Kencana,"Jl. PRA. Kesumayudha, Mendawai, Kec. Arut Sel., Kabupaten Kotawaringin Barat, Kalimantan Tengah 74112","Mendawai, Kec. Arut Sel., Kabupaten Kotawaringin Barat",KALIMANTAN TENGAH,74112.0,Indonesia,,,,-2.677186,111.6276753,https://maps.google.com/?cid=0x0:0x7bc1fdee56bd1b39,
mall,Toko,Toko Ria,"9M23+333, Baru, Kec. Arut Sel., Kabupaten Kotawaringin Barat, Kalimantan Tengah 74111","Baru, Kec. Arut Sel., Kabupaten Kotawaringin Barat",KALIMANTAN TENGAH,74111.0,Indonesia,,,,-2.6498552,111.6526864,https://maps.google.com/?cid=0x0:0x18b6b54d73c68c36,
mall,Toko bahan makanan,Swalayan Borneo,"Jalan Cilik Riwut No.1, Sidorejo, South Arut, West Kotawaringin Regency, Central Kalimantan 74112","Sidorejo, South Arut, West Kotawaringin Regency",KALIMANTAN TENGAH,74112.0,Indonesia,,,,-2.688962,111.622398,https://maps.google.com/?cid=0x0:0xdcc3537f30150036,
mall,Toko Hewan Peliharaan,PETSHOP ALESHA PANGKALAN BUN,"Jl. GM. Arsad, Baru, Kec. Arut Sel., Kabupaten Kotawaringin Barat, Kalimantan Tengah 74112","Baru, Kec. Arut Sel., Kabupaten Kotawaringin Barat",KALIMANTAN TENGAH,74112.0,Indonesia,85821301601.0,,,-2.6606613,111.6511134,https://maps.google.com/?cid=0x0:0x55504f2377d4ac16,
mall,Pusat Perbelanjaan,MEGAMART,"CPFQ+R5J, Jl. Jenderal Ahmad Yani, Sumber Agung, Kec. Pangkalan Lada, Kabupaten Kotawaringin Barat, Kalimantan Tengah 74113","Jl. Jenderal Ahmad Yani, Sumber Agung, Kec. Pangkalan Lada, Kabupaten Kotawaringin Barat",KALIMANTAN TENGAH,74113.0,Indonesia,81351567745.0,,,-2.5754209,111.7378926,https://maps.google.com/?cid=0x0:0x7a348dffbf5d3d84,
mall,Bengkel tambal ban,Vullkanisir perkasa ban,"CPHR+FFV, Sumber Agung, Kec. Pangkalan Lada, Kabupaten Kotawaringin Barat, Kalimantan Tengah 74113","Sumber Agung, Kec. Pangkalan Lada, Kabupaten Kotawaringin Barat",KALIMANTAN TENGAH,74113.0,Indonesia,82214121246.0,,,-2.5712529,111.7411783,https://maps.google.com/?cid=0x0:0x9e544f548bec463d,
mall,Pusat Perbelanjaan,Hypermart - Citimall Pangkalan Bun,"Jl. Utama Pasir Panjang No.22, Madurejo, Kec. Arut Sel., Kabupaten Kotawaringin Barat, Kalimantan Tengah 74117","Madurejo, Kec. Arut Sel., Kabupaten Kotawaringin Barat",KALIMANTAN TENGAH,74117.0,Indonesia,82157351068.0,,,-2.7104383,111.6503057,https://maps.google.com/?cid=0x0:0x7c46c8beb3b947f4,
mall,Toko bahan makanan,Fe Mart Swalayan,"CP3Q+W9W, Pangkalan Durin, Kec. Pangkalan Lada, Kabupaten Kotawaringin Barat, Kalimantan Tengah 74117","Pangkalan Durin, Kec. Pangkalan Lada, Kabupaten Kotawaringin Barat",KALIMANTAN TENGAH,74117.0,Indonesia,,,,-2.5951395,111.7384448,https://maps.google.com/?cid=0x0:0x454f38bebc445ca1,
mall,Toko,Anmystore,"8JHR+89R, Gg. Adungan 4, Baru, Kec. Arut Sel., Kabupaten Kotawaringin Barat, Kalimantan Tengah 74112","Gg. Adungan 4, Baru, Kec. Arut Sel., Kabupaten Kotawaringin Barat",KALIMANTAN TENGAH,74112.0,Indonesia,,,,-2.6716366,111.640887,https://maps.google.com/?cid=0x0:0xdf891cf3b943740d,
mall,Toko Pakaian,Toko serba 35,"Jl. Jenderal Sudirman No.3, Pandu Senjaya, Kec. Pangkalan Lada, Kabupaten Kotawaringin Barat, Kalimantan Tengah 74113","Pandu Senjaya, Kec. Pangkalan Lada, Kabupaten Kotawaringin Barat",KALIMANTAN TENGAH,74113.0,Indonesia,85697245144.0,,,-2.4743775,111.769856,https://maps.google.com/?cid=0x0:0x9ca5b5a2a205e2c1,
mall,Pusat Perbelanjaan,"Pusat Oleh-oleh PANGKALAN BUN,AA SNACK","8JCM+JFP, Jl. Pakunegara, Raja, Kec. Arut Sel., Kabupaten Kotawaringin Barat, Kalimantan Tengah 74112","Jl. Pakunegara, Raja, Kec. Arut Sel., Kabupaten Kotawaringin Barat",KALIMANTAN TENGAH,74112.0,Indonesia,85206287777.0,,,-2.6784148,111.633694,https://maps.google.com/?cid=0x0:0x69157e08e73c4c02,
mall,Toko umum,Bettystore,"Sumber Agung, Kec. Pangkalan Lada, Kabupaten Kotawaringin Barat, Kalimantan Tengah 74113","Kec. Pangkalan Lada, Kabupaten Kotawaringin Barat",KALIMANTAN TENGAH,74113.0,Indonesia,,,,-2.5862427,111.7346032,https://maps.google.com/?cid=0x0:0xc9caed70fde9dd18,
mall,Toko Pakaian,Toko Baju Serba Harga Murah Pangkalan Bun,"8JGQ+29R, Baru, Kec. Arut Sel., Kabupaten Kotawaringin Barat, Kalimantan Tengah 74112","Baru, Kec. Arut Sel., Kabupaten Kotawaringin Barat",KALIMANTAN TENGAH,74112.0,Indonesia,82157276868.0,,,-2.6748899,111.6383779,https://maps.google.com/?cid=0x0:0x43acfb9f21e06410,
mall,Penata Rambut,Agen Pomade Pangkalan Bun,"Jl. GM. Arsad No.RT 11, Baru, Kec. Arut Sel., Kabupaten Kotawaringin Barat, Kalimantan Tengah 74112","Baru, Kec. Arut Sel., Kabupaten Kotawaringin Barat",KALIMANTAN TENGAH,74112.0,Indonesia,85393420320.0,,,-2.6690314,111.6425347,https://maps.google.com/?cid=0x0:0x347e06dc0825a110,
mall,Pusat Perbelanjaan,Juragan Duren,"FPCQ+V55, Sungai Melawen, Kec. Pangkalan Lada, Kabupaten Kotawaringin Barat, Kalimantan Tengah 74113","Sungai Melawen, Kec. Pangkalan Lada, Kabupaten Kotawaringin Barat",KALIMANTAN TENGAH,74113.0,Indonesia,81351495884.0,,,-2.5278662,111.7379817,https://maps.google.com/?cid=0x0:0x49c69269241ba3e7,
mall,Toko,Toko JAWA TIMUR,"GQ93+3CC, Jl. Jenderal Sudirman, Pandu Senjaya, Kec. Pangkalan Lada, Kabupaten Kotawaringin Barat, Kalimantan Tengah 74113","Jl. Jenderal Sudirman, Pandu Senjaya, Kec. Pangkalan Lada, Kabupaten Kotawaringin Barat",KALIMANTAN TENGAH,74113.0,Indonesia,85248375073.0,,,-2.4823093,111.7535138,https://maps.google.com/?cid=0x0:0xecab067d9ceb9e5e,
mall,Toko umum,kios trate,"9PJ5+2G6, Jl. Ahmad Yani, Purbasari, Kec. Arut Sel., Kabupaten Kotawaringin Barat, Kalimantan Tengah 74112","Jl. Ahmad Yani, Purbasari, Kec. Arut Sel., Kabupaten Kotawaringin Barat",KALIMANTAN TENGAH,74112.0,Indonesia,,,,-2.6199553,111.7087526,https://maps.google.com/?cid=0x0:0x9a2c984aa5d7ddd2,
mall,Pusat Perbelanjaan,Kampung Mall,"8MH7+G3J, Baru, Kec. Arut Sel., Kabupaten Kotawaringin Barat, Kalimantan Tengah 74112","Baru, Kec. Arut Sel., Kabupaten Kotawaringin Barat",KALIMANTAN TENGAH,74112.0,Indonesia,,,,-2.6711548,111.6626372,https://maps.google.com/?cid=0x0:0x84d17c66f4ed07ab,
mall,Hipermarket,Borneo Citimall Pangkalan Bun,"7MR2+273, Madurejo, Kec. Arut Sel., Kabupaten Kotawaringin Barat, Kalimantan Tengah 74181","Madurejo, Kec. Arut Sel., Kabupaten Kotawaringin Barat",KALIMANTAN TENGAH,74181.0,Indonesia,,,,-2.7099909,111.6506785,https://maps.google.com/?cid=0x0:0xe2824a738af7506,
mall,Pusat Perbelanjaan,Lifestyle center,"8JCG+M89, Jl. Pangeran Antasari, Mendawai, Kec. Arut Sel., Kabupaten Kotawaringin Barat, Kalimantan Tengah 74112","Jl. Pangeran Antasari, Mendawai, Kec. Arut Sel., Kabupaten Kotawaringin Barat",KALIMANTAN TENGAH,74112.0,Indonesia,85249181891.0,,,-2.6783469,111.6258498,https://maps.google.com/?cid=0x0:0x9ca47ddf2ed6b264,
mall,Pusat Perbelanjaan,Happy Zone Pangkalan Bun,"8JGM+9F7, Raja, Kec. Arut Sel., Kabupaten Kotawaringin Barat, Kalimantan Tengah 74112","Raja, Kec. Arut Sel., Kabupaten Kotawaringin Barat",KALIMANTAN TENGAH,74112.0,Indonesia,,,,-2.6740929,111.633669,https://maps.google.com/?cid=0x0:0xdd32f0df1c30bbca,
mall,Pusat Perbelanjaan,AVAIL PANGKALAN BUN (AMP),"Gg. Adungan 1, Baru, Kec. Arut Sel., Kabupaten Kotawaringin Barat, Kalimantan Tengah 74112","Baru, Kec. Arut Sel., Kabupaten Kotawaringin Barat",KALIMANTAN TENGAH,74112.0,Indonesia,85393420320.0,,,-2.6712073,111.6420338,https://maps.google.com/?cid=0x0:0x5be9a1245b06d437,
mall,Pusat Perbelanjaan,B,"Jl. Ahmad Wongso No.51, Sidorejo, Kec. Arut Sel., Kabupaten Kotawaringin Barat, Kalimantan Tengah 74181","Sidorejo, Kec. Arut Sel., Kabupaten Kotawaringin Barat",KALIMANTAN TENGAH,74181.0,Indonesia,8115216386.0,,,-2.695242,111.6288055,https://maps.google.com/?cid=0x0:0x1b16d686485bc513,
mall,Toko,Anmystore,"8JHR+89R, Gg. Adungan 4, Baru, Kec. Arut Sel., Kabupaten Kotawaringin Barat, Kalimantan Tengah 74112","Gg. Adungan 4, Baru, Kec. Arut Sel., Kabupaten Kotawaringin Barat",KALIMANTAN TENGAH,74112.0,Indonesia,,,,-2.6716366,111.640887,https://maps.google.com/?cid=0x0:0xdf891cf3b943740d,
mall,Toko Pakaian,Toko Baju Serba Harga Murah Pangkalan Bun,"8JGQ+29R, Baru, Kec. Arut Sel., Kabupaten Kotawaringin Barat, Kalimantan Tengah 74112","Baru, Kec. Arut Sel., Kabupaten Kotawaringin Barat",KALIMANTAN TENGAH,74112.0,Indonesia,82157276868.0,,,-2.6748899,111.6383779,https://maps.google.com/?cid=0x0:0x43acfb9f21e06410,
mall,Pusat Perbelanjaan,Miniso,"7MQ2+X5G, Madurejo, Kec. Arut Sel., Kabupaten Kotawaringin Barat, Kalimantan Tengah 74181","Madurejo, Kec. Arut Sel., Kabupaten Kotawaringin Barat",KALIMANTAN TENGAH,74181.0,Indonesia,,,,-2.7100689,111.650467,https://maps.google.com/?cid=0x0:0xe929704938c15c00,
mall,Toko,Toko Ria,"9M23+333, Baru, Kec. Arut Sel., Kabupaten Kotawaringin Barat, Kalimantan Tengah 74111","Baru, Kec. Arut Sel., Kabupaten Kotawaringin Barat",KALIMANTAN TENGAH,74111.0,Indonesia,,,,-2.6498552,111.6526864,https://maps.google.com/?cid=0x0:0x18b6b54d73c68c36,
mall,Toko Suvenir,Toko permata kecubung arrahman,"8JGM+79X, Raja, Kec. Arut Sel., Kabupaten Kotawaringin Barat, Kalimantan Tengah 74112","Raja, Kec. Arut Sel., Kabupaten Kotawaringin Barat",KALIMANTAN TENGAH,74112.0,Indonesia,,,,-2.674251,111.6334708,https://maps.google.com/?cid=0x0:0x34c2491c6ee66206,
mall,Pusat Perbelanjaan,Toko Aneka Hasil Bumi,"Jl. Sukma Aryaningrat No.29, RT.06/RW.02, Baru, Kec. Arut Sel., Kabupaten Kotawaringin Barat, Kalimantan Tengah 74112","RT.06/RW.02, Baru, Kec. Arut Sel., Kabupaten Kotawaringin Barat",KALIMANTAN TENGAH,74112.0,Indonesia,81250615237.0,,,-2.6693703,111.6398441,https://maps.google.com/?cid=0x0:0x5261d9b021d6976b,
mall,Pusat Perbelanjaan,Warung Uma Affis,"8JHR+8RJ, Baru, Kec. Arut Sel., Kabupaten Kotawaringin Barat, Kalimantan Tengah 74112","Baru, Kec. Arut Sel., Kabupaten Kotawaringin Barat",KALIMANTAN TENGAH,74112.0,Indonesia,81349667191.0,,,-2.6716614,111.642003,https://maps.google.com/?cid=0x0:0xf64be5cdc8aec3dc,
mall,Pusat Perbelanjaan,"Pusat Oleh-oleh PANGKALAN BUN,AA SNACK","8JCM+JFP, Jl. Pakunegara, Raja, Kec. Arut Sel., Kabupaten Kotawaringin Barat, Kalimantan Tengah 74112","Jl. Pakunegara, Raja, Kec. Arut Sel., Kabupaten Kotawaringin Barat",KALIMANTAN TENGAH,74112.0,Indonesia,85206287777.0,,,-2.6784148,111.633694,https://maps.google.com/?cid=0x0:0x69157e08e73c4c02,
mall,Pusat Perbelanjaan,Mama Affis,"8JHR+7RG, Baru, Kec. Arut Sel., Kabupaten Kotawaringin Barat, Kalimantan Tengah 74112","Baru, Kec. Arut Sel., Kabupaten Kotawaringin Barat",KALIMANTAN TENGAH,74112.0,Indonesia,81336845370.0,,,-2.6718037,111.6420655,https://maps.google.com/?cid=0x0:0x55313357c8418a91,
mall,Toko Pakaian,Toko ADN,"8JHQ+V49, Jl. Berunai, Baru, Kec. Arut Sel., Kabupaten Kotawaringin Barat, Kalimantan Tengah 74112","Jl. Berunai, Baru, Kec. Arut Sel., Kabupaten Kotawaringin Barat",KALIMANTAN TENGAH,74112.0,Indonesia,,,,-2.670325,111.6378557,https://maps.google.com/?cid=0x0:0x8762f9993431a4c0,
mall,Pusat Perbelanjaan,Focus Cell Pangkalan Bun,"8JGR+HQQ, Jl. Ahmad Yani, Baru, Kec. Arut Sel., Kabupaten Kotawaringin Barat, Kalimantan Tengah 74112","Jl. Ahmad Yani, Baru, Kec. Arut Sel., Kabupaten Kotawaringin Barat",KALIMANTAN TENGAH,74112.0,Indonesia,82351296767.0,,,-2.6735344,111.6419956,https://maps.google.com/?cid=0x0:0x1f41b86955610d58,
mall,Toko sembako pemerintah,Toko B. Anjar,"Jl. H. Udan Said No.2, Baru, Kec. Arut Sel., Kabupaten Kotawaringin Barat, Kalimantan Tengah 74112","Baru, Kec. Arut Sel., Kabupaten Kotawaringin Barat",KALIMANTAN TENGAH,74112.0,Indonesia,,,,-2.6715086,111.6379319,https://maps.google.com/?cid=0x0:0xcb5ea6c3411c839,
mall,Toko,Bajakah Fransiska,"8JHR+FQ7, Gg. Adungan 2, Baru, Kec. Arut Sel., Kabupaten Kotawaringin Barat, Kalimantan Tengah 74112","Gg. Adungan 2, Baru, Kec. Arut Sel., Kabupaten Kotawaringin Barat",KALIMANTAN TENGAH,74112.0,Indonesia,85247129359.0,,,-2.6713365,111.6419155,https://maps.google.com/?cid=0x0:0xa1600415552339ca,
mall,Toko bahan makanan,Swalayan Borneo,"Jalan Cilik Riwut No.1, Sidorejo, South Arut, West Kotawaringin Regency, Central Kalimantan 74112","Sidorejo, South Arut, West Kotawaringin Regency",KALIMANTAN TENGAH,74112.0,Indonesia,,,,-2.688962,111.622398,https://maps.google.com/?cid=0x0:0xdcc3537f30150036,
mall,Toko,Global Top,"Jl. Pangeran Antasari Pertokoan Kodim No.2, Raja, Kec. Arut Sel., Kabupaten Kotawaringin Barat, Kalimantan Tengah 74112","Raja, Kec. Arut Sel., Kabupaten Kotawaringin Barat",KALIMANTAN TENGAH,74112.0,Indonesia,81350228788.0,,,-2.6741136,111.6330709,https://maps.google.com/?cid=0x0:0x33fdd6bfc3308455,
mall,mall,Kalimantan Tengah 74114,"Raja Seberang, Kec. Arut Sel., Kabupaten Kotawaringin Barat, Kalimantan Tengah","Kabupaten Kotawaringin Barat, Kalimantan Tengah",KALIMANTAN TENGAH,,Indonesia,,,,-2.6293906,111.6064513,https://maps.google.com/?cid=0x0:0x6a6c8f148d148d7b,
mall,Dealer Sepeda Motor,Rizky Motor PangÄ·alan Bun,"8JFQ+X7G, Baru, Kec. Arut Sel., Kabupaten Kotawaringin Barat, Kalimantan Tengah 74112","Baru, Kec. Arut Sel., Kabupaten Kotawaringin Barat",KALIMANTAN TENGAH,74112.0,Indonesia,,,,-2.6750537,111.6382034,https://maps.google.com/?cid=0x0:0x2ff45926cb270483,
mall,Pusat Perbelanjaan,Toko wikashmetiq,"8JJR+JMQ, Jl. Sukma Aryaningrat, Baru, Kec. Arut Sel., Kabupaten Kotawaringin Barat, Kalimantan Tengah 74112","Jl. Sukma Aryaningrat, Baru, Kec. Arut Sel., Kabupaten Kotawaringin Barat",KALIMANTAN TENGAH,74112.0,Indonesia,81295769577.0,,,-2.6684145,111.6417304,https://maps.google.com/?cid=0x0:0x48351bb0e25d67b8,
mall,mall,Kec. Arut Sel.,"Kabupaten Kotawaringin Barat, Kalimantan Tengah","Kabupaten Kotawaringin Barat, Kalimantan Tengah",KALIMANTAN TENGAH,,Indonesia,,,,-2.5458231,111.6183755,https://maps.google.com/?cid=0x0:0xb0a66a60f6071e18,
mall,Pusat Perbelanjaan,Kampung Mall,"8MH7+G3J, Baru, Kec. Arut Sel., Kabupaten Kotawaringin Barat, Kalimantan Tengah 74112","Baru, Kec. Arut Sel., Kabupaten Kotawaringin Barat",KALIMANTAN TENGAH,74112.0,Indonesia,,,,-2.6711548,111.6626372,https://maps.google.com/?cid=0x0:0x84d17c66f4ed07ab,
mall,Hipermarket,Borneo Citimall Pangkalan Bun,"7MR2+273, Madurejo, Kec. Arut Sel., Kabupaten Kotawaringin Barat, Kalimantan Tengah 74181","Madurejo, Kec. Arut Sel., Kabupaten Kotawaringin Barat",KALIMANTAN TENGAH,74181.0,Indonesia,,,,-2.7099909,111.6506785,https://maps.google.com/?cid=0x0:0xe2824a738af7506,
mall,Pusat Perbelanjaan,Happy Zone Pangkalan Bun,"8JGM+9F7, Raja, Kec. Arut Sel., Kabupaten Kotawaringin Barat, Kalimantan Tengah 74112","Raja, Kec. Arut Sel., Kabupaten Kotawaringin Barat",KALIMANTAN TENGAH,74112.0,Indonesia,,,,-2.6740929,111.633669,https://maps.google.com/?cid=0x0:0xdd32f0df1c30bbca,
mall,Pusat Perbelanjaan,Hypermart - Citimall Pangkalan Bun,"Jl. Utama Pasir Panjang No.22, Madurejo, Kec. Arut Sel., Kabupaten Kotawaringin Barat, Kalimantan Tengah 74117","Madurejo, Kec. Arut Sel., Kabupaten Kotawaringin Barat",KALIMANTAN TENGAH,74117.0,Indonesia,82157351068.0,,,-2.7104383,111.6503057,https://maps.google.com/?cid=0x0:0x7c46c8beb3b947f4,
mall,Pasar,Pasar Indra Kencana,"Jl. PRA. Kesumayudha, Mendawai, Kec. Arut Sel., Kabupaten Kotawaringin Barat, Kalimantan Tengah 74112","Mendawai, Kec. Arut Sel., Kabupaten Kotawaringin Barat",KALIMANTAN TENGAH,74112.0,Indonesia,,,,-2.677186,111.6276753,https://maps.google.com/?cid=0x0:0x7bc1fdee56bd1b39,
mall,Toko bahan makanan,Swalayan Borneo,"Jalan Cilik Riwut No.1, Sidorejo, South Arut, West Kotawaringin Regency, Central Kalimantan 74112","Sidorejo, South Arut, West Kotawaringin Regency",KALIMANTAN TENGAH,74112.0,Indonesia,,,,-2.688962,111.622398,https://maps.google.com/?cid=0x0:0xdcc3537f30150036,
mall,Pusat Perbelanjaan,AVAIL PANGKALAN BUN (AMP),"Gg. Adungan 1, Baru, Kec. Arut Sel., Kabupaten Kotawaringin Barat, Kalimantan Tengah 74112","Baru, Kec. Arut Sel., Kabupaten Kotawaringin Barat",KALIMANTAN TENGAH,74112.0,Indonesia,85393420320.0,,,-2.6712073,111.6420338,https://maps.google.com/?cid=0x0:0x5be9a1245b06d437,
mall,Pusat Perbelanjaan,Lifestyle center,"8JCG+M89, Jl. Pangeran Antasari, Mendawai, Kec. Arut Sel., Kabupaten Kotawaringin Barat, Kalimantan Tengah 74112","Jl. Pangeran Antasari, Mendawai, Kec. Arut Sel., Kabupaten Kotawaringin Barat",KALIMANTAN TENGAH,74112.0,Indonesia,85249181891.0,,,-2.6783469,111.6258498,https://maps.google.com/?cid=0x0:0x9ca47ddf2ed6b264,
mall,Pusat Perbelanjaan,Toko Mbak Is (iistore),"8JFG+5X9, Jl. Patih Suradilaga, Raja, Kec. Arut Sel., Kabupaten Kotawaringin Barat, Kalimantan Tengah 74112","Jl. Patih Suradilaga, Raja, Kec. Arut Sel., Kabupaten Kotawaringin Barat",KALIMANTAN TENGAH,74112.0,Indonesia,,,,-2.6770856,111.6274973,https://maps.google.com/?cid=0x0:0xb36b419e8498f54c,
mall,Toko,Anmystore,"8JHR+89R, Gg. Adungan 4, Baru, Kec. Arut Sel., Kabupaten Kotawaringin Barat, Kalimantan Tengah 74112","Gg. Adungan 4, Baru, Kec. Arut Sel., Kabupaten Kotawaringin Barat",KALIMANTAN TENGAH,74112.0,Indonesia,,,,-2.6716366,111.640887,https://maps.google.com/?cid=0x0:0xdf891cf3b943740d,
mall,Pusat Perbelanjaan,Miniso,"7MQ2+X5G, Madurejo, Kec. Arut Sel., Kabupaten Kotawaringin Barat, Kalimantan Tengah 74181","Madurejo, Kec. Arut Sel., Kabupaten Kotawaringin Barat",KALIMANTAN TENGAH,74181.0,Indonesia,,,,-2.7100689,111.650467,https://maps.google.com/?cid=0x0:0xe929704938c15c00,
mall,Pusat Perbelanjaan,"Pusat Oleh-oleh PANGKALAN BUN,AA SNACK","8JCM+JFP, Jl. Pakunegara, Raja, Kec. Arut Sel., Kabupaten Kotawaringin Barat, Kalimantan Tengah 74112","Jl. Pakunegara, Raja, Kec. Arut Sel., Kabupaten Kotawaringin Barat",KALIMANTAN TENGAH,74112.0,Indonesia,85206287777.0,,,-2.6784148,111.633694,https://maps.google.com/?cid=0x0:0x69157e08e73c4c02,
mall,Toko Suvenir,Toko Karima Pusat Oleh2,"8J5P+R43, Jl. Pangeran Diponegoro, Madurejo, Kec. Arut Sel., Kabupaten Kotawaringin Barat, Kalimantan Tengah 74112","Jl. Pangeran Diponegoro, Madurejo, Kec. Arut Sel., Kabupaten Kotawaringin Barat",KALIMANTAN TENGAH,74112.0,Indonesia,81349077680.0,,,-2.6904987,111.6353046,https://maps.google.com/?cid=0x0:0xcea8d4ea2d44defe,
mall,Toko Pakaian,Toko Baju Serba Harga Murah Pangkalan Bun,"8JGQ+29R, Baru, Kec. Arut Sel., Kabupaten Kotawaringin Barat, Kalimantan Tengah 74112","Baru, Kec. Arut Sel., Kabupaten Kotawaringin Barat",KALIMANTAN TENGAH,74112.0,Indonesia,82157276868.0,,,-2.6748899,111.6383779,https://maps.google.com/?cid=0x0:0x43acfb9f21e06410,
mall,Pusat Perbelanjaan,Toko Aneka Hasil Bumi,"Jl. Sukma Aryaningrat No.29, RT.06/RW.02, Baru, Kec. Arut Sel., Kabupaten Kotawaringin Barat, Kalimantan Tengah 74112","RT.06/RW.02, Baru, Kec. Arut Sel., Kabupaten Kotawaringin Barat",KALIMANTAN TENGAH,74112.0,Indonesia,81250615237.0,,,-2.6693703,111.6398441,https://maps.google.com/?cid=0x0:0x5261d9b021d6976b,
mall,Pusat Perbelanjaan,Jakarta Collection,"Jl. Pangeran Diponegoro No.32 RT 01, Sidorejo, Kec. Arut Sel., Kabupaten Kotawaringin Barat, Kalimantan Tengah 74112","Sidorejo, Kec. Arut Sel., Kabupaten Kotawaringin Barat",KALIMANTAN TENGAH,74112.0,Indonesia,81216504603.0,,,-2.6903423,111.6352598,https://maps.google.com/?cid=0x0:0x7a77f46069268c30,
mall,Toko Swalayan,Toko IPUL,"8J9Q+P6Q, Sidorejo, Kec. Arut Sel., Kabupaten Kotawaringin Barat, Kalimantan Tengah 74112","Sidorejo, Kec. Arut Sel., Kabupaten Kotawaringin Barat",KALIMANTAN TENGAH,74112.0,Indonesia,,,,-2.6806507,111.6381135,https://maps.google.com/?cid=0x0:0xa44b291bb11e5d93,
mall,Toko Hewan Peliharaan,PETSHOP ALESHA PANGKALAN BUN,"Jl. GM. Arsad, Baru, Kec. Arut Sel., Kabupaten Kotawaringin Barat, Kalimantan Tengah 74112","Baru, Kec. Arut Sel., Kabupaten Kotawaringin Barat",KALIMANTAN TENGAH,74112.0,Indonesia,85821301601.0,,,-2.6606613,111.6511134,https://maps.google.com/?cid=0x0:0x55504f2377d4ac16,
mall,Toko bahan makanan,Borneo Supermarket HM. Rafi'i,"7JHR+QFR, Jl. HM. Rafi'i, Madurejo, Kec. Arut Sel., Kabupaten Kotawaringin Barat, Kalimantan Tengah 74181","Jl. HM. Rafi'i, Madurejo, Kec. Arut Sel., Kabupaten Kotawaringin Barat",KALIMANTAN TENGAH,74181.0,Indonesia,5322030782.0,,,-2.7205221,111.6411503,https://maps.google.com/?cid=0x0:0xe312b99a542aea69,
mall,Toko umum,Genius Shopping Center,"Jl. Iskandar, Madurejo, Kec. Arut Sel., Kabupaten Kotawaringin Barat, Kalimantan Tengah 74112","Madurejo, Kec. Arut Sel., Kabupaten Kotawaringin Barat",KALIMANTAN TENGAH,74112.0,Indonesia,89699685870.0,,,-2.702331,111.6430498,https://maps.google.com/?cid=0x0:0xfbbe468104bced73,
mall,Penata Rambut,Agen Pomade Pangkalan Bun,"Jl. GM. Arsad No.RT 11, Baru, Kec. Arut Sel., Kabupaten Kotawaringin Barat, Kalimantan Tengah 74112","Baru, Kec. Arut Sel., Kabupaten Kotawaringin Barat",KALIMANTAN TENGAH,74112.0,Indonesia,85393420320.0,,,-2.6690314,111.6425347,https://maps.google.com/?cid=0x0:0x347e06dc0825a110,
mall,Toko Pakaian,Toko ADN,"8JHQ+V49, Jl. Berunai, Baru, Kec. Arut Sel., Kabupaten Kotawaringin Barat, Kalimantan Tengah 74112","Jl. Berunai, Baru, Kec. Arut Sel., Kabupaten Kotawaringin Barat",KALIMANTAN TENGAH,74112.0,Indonesia,,,,-2.670325,111.6378557,https://maps.google.com/?cid=0x0:0x8762f9993431a4c0,
mall,mall,Kalimantan Tengah 74116,"Kec. Arut Sel., Kabupaten Kotawaringin Barat, Kalimantan Tengah","Kabupaten Kotawaringin Barat, Kalimantan Tengah",KALIMANTAN TENGAH,,Indonesia,,,,-2.4168826,111.5945271,https://maps.google.com/?cid=0x0:0x9678e52ec657f14e,
mall,Pusat Perbelanjaan,Kampung Mall,"8MH7+G3J, Baru, Kec. Arut Sel., Kabupaten Kotawaringin Barat, Kalimantan Tengah 74112","Baru, Kec. Arut Sel., Kabupaten Kotawaringin Barat",KALIMANTAN TENGAH,74112.0,Indonesia,,,,-2.6711548,111.6626372,https://maps.google.com/?cid=0x0:0x84d17c66f4ed07ab,
mall,Hipermarket,Borneo Citimall Pangkalan Bun,"7MR2+273, Madurejo, Kec. Arut Sel., Kabupaten Kotawaringin Barat, Kalimantan Tengah 74181","Madurejo, Kec. Arut Sel., Kabupaten Kotawaringin Barat",KALIMANTAN TENGAH,74181.0,Indonesia,,,,-2.7099909,111.6506785,https://maps.google.com/?cid=0x0:0xe2824a738af7506,
mall,Pusat Perbelanjaan,Lifestyle center,"8JCG+M89, Jl. Pangeran Antasari, Mendawai, Kec. Arut Sel., Kabupaten Kotawaringin Barat, Kalimantan Tengah 74112","Jl. Pangeran Antasari, Mendawai, Kec. Arut Sel., Kabupaten Kotawaringin Barat",KALIMANTAN TENGAH,74112.0,Indonesia,85249181891.0,,,-2.6783469,111.6258498,https://maps.google.com/?cid=0x0:0x9ca47ddf2ed6b264,
mall,Restoran,Warung Pingky,"JJQR+8HV, Kenambui, Kec. Arut Sel., Kabupaten Kotawaringin Barat, Kalimantan Tengah 74116","Kenambui, Kec. Arut Sel., Kabupaten Kotawaringin Barat",KALIMANTAN TENGAH,74116.0,Indonesia,822789149288.0,,,-2.3616346,111.6414145,https://maps.google.com/?cid=0x0:0x68752f2294962346,
mall,Pusat Perbelanjaan,Hypermart - Citimall Pangkalan Bun,"Jl. Utama Pasir Panjang No.22, Madurejo, Kec. Arut Sel., Kabupaten Kotawaringin Barat, Kalimantan Tengah 74117","Madurejo, Kec. Arut Sel., Kabupaten Kotawaringin Barat",KALIMANTAN TENGAH,74117.0,Indonesia,82157351068.0,,,-2.7104383,111.6503057,https://maps.google.com/?cid=0x0:0x7c46c8beb3b947f4,
mall,Pusat Perbelanjaan,Outlet Nirma  Cania,"Kenambui, Kec. Arut Sel., Kabupaten Kotawaringin Barat, Kalimantan Tengah 74112","Kec. Arut Sel., Kabupaten Kotawaringin Barat",KALIMANTAN TENGAH,74112.0,Indonesia,81545093199.0,,,-2.3617572,111.6410835,https://maps.google.com/?cid=0x0:0x68f52bbb79b06590,
mall,Toko Barang Bekas,TOKO BAROKAH,"RT 08, Unnamed Road, Medangsari, Kec. Arut Sel., Kabupaten Kotawaringin Barat, Kalimantan Tengah 74113","Unnamed Road, Medangsari, Kec. Arut Sel., Kabupaten Kotawaringin Barat",KALIMANTAN TENGAH,74113.0,Indonesia,,,,-2.5027056,111.6790836,https://maps.google.com/?cid=0x0:0xe2af8412bb632f68,
mall,Pusat Perbelanjaan,Miniso,"7MQ2+X5G, Madurejo, Kec. Arut Sel., Kabupaten Kotawaringin Barat, Kalimantan Tengah 74181","Madurejo, Kec. Arut Sel., Kabupaten Kotawaringin Barat",KALIMANTAN TENGAH,74181.0,Indonesia,,,,-2.7100689,111.650467,https://maps.google.com/?cid=0x0:0xe929704938c15c00,
mall,Pusat Perbelanjaan,"Pusat Oleh-oleh PANGKALAN BUN,AA SNACK","8JCM+JFP, Jl. Pakunegara, Raja, Kec. Arut Sel., Kabupaten Kotawaringin Barat, Kalimantan Tengah 74112","Jl. Pakunegara, Raja, Kec. Arut Sel., Kabupaten Kotawaringin Barat",KALIMANTAN TENGAH,74112.0,Indonesia,85206287777.0,,,-2.6784148,111.633694,https://maps.google.com/?cid=0x0:0x69157e08e73c4c02,
mall,mall,Kec. Arut Sel.,"Kabupaten Kotawaringin Barat, Kalimantan Tengah","Kabupaten Kotawaringin Barat, Kalimantan Tengah",KALIMANTAN TENGAH,,Indonesia,,,,-2.5458231,111.6183755,https://maps.google.com/?cid=0x0:0xb0a66a60f6071e18,
mall,Pusat Perbelanjaan,B,"Jl. Ahmad Wongso No.51, Sidorejo, Kec. Arut Sel., Kabupaten Kotawaringin Barat, Kalimantan Tengah 74181","Sidorejo, Kec. Arut Sel., Kabupaten Kotawaringin Barat",KALIMANTAN TENGAH,74181.0,Indonesia,8115216386.0,,,-2.695242,111.6288055,https://maps.google.com/?cid=0x0:0x1b16d686485bc513,
mall,Toko,Anmystore,"8JHR+89R, Gg. Adungan 4, Baru, Kec. Arut Sel., Kabupaten Kotawaringin Barat, Kalimantan Tengah 74112","Gg. Adungan 4, Baru, Kec. Arut Sel., Kabupaten Kotawaringin Barat",KALIMANTAN TENGAH,74112.0,Indonesia,,,,-2.6716366,111.640887,https://maps.google.com/?cid=0x0:0xdf891cf3b943740d,
mall,Toko,Toko Ria,"9M23+333, Baru, Kec. Arut Sel., Kabupaten Kotawaringin Barat, Kalimantan Tengah 74111","Baru, Kec. Arut Sel., Kabupaten Kotawaringin Barat",KALIMANTAN TENGAH,74111.0,Indonesia,,,,-2.6498552,111.6526864,https://maps.google.com/?cid=0x0:0x18b6b54d73c68c36,
mall,Pusat Perbelanjaan,Jakarta Collection,"Jl. Pangeran Diponegoro No.32 RT 01, Sidorejo, Kec. Arut Sel., Kabupaten Kotawaringin Barat, Kalimantan Tengah 74112","Sidorejo, Kec. Arut Sel., Kabupaten Kotawaringin Barat",KALIMANTAN TENGAH,74112.0,Indonesia,81216504603.0,,,-2.6903423,111.6352598,https://maps.google.com/?cid=0x0:0x7a77f46069268c30,
mall,mall,Baru,"Kec. Arut Sel., Kabupaten Kotawaringin Barat, Kalimantan Tengah","Kabupaten Kotawaringin Barat, Kalimantan Tengah",KALIMANTAN TENGAH,,Indonesia,,,,-2.6099923,111.6541483,https://maps.google.com/?cid=0x0:0xc71aadeef7aa20d3,
mall,Pusat Perbelanjaan,MEGAMART,"CPFQ+R5J, Jl. Jenderal Ahmad Yani, Sumber Agung, Kec. Pangkalan Lada, Kabupaten Kotawaringin Barat, Kalimantan Tengah 74113","Jl. Jenderal Ahmad Yani, Sumber Agung, Kec. Pangkalan Lada, Kabupaten Kotawaringin Barat",KALIMANTAN TENGAH,74113.0,Indonesia,81351567745.0,,,-2.5754209,111.7378926,https://maps.google.com/?cid=0x0:0x7a348dffbf5d3d84,
mall,Toko bahan makanan,Fe Mart Swalayan,"CP3Q+W9W, Pangkalan Durin, Kec. Pangkalan Lada, Kabupaten Kotawaringin Barat, Kalimantan Tengah 74117","Pangkalan Durin, Kec. Pangkalan Lada, Kabupaten Kotawaringin Barat",KALIMANTAN TENGAH,74117.0,Indonesia,,,,-2.5951395,111.7384448,https://maps.google.com/?cid=0x0:0x454f38bebc445ca1,
mall,Toko umum,kios trate,"9PJ5+2G6, Jl. Ahmad Yani, Purbasari, Kec. Arut Sel., Kabupaten Kotawaringin Barat, Kalimantan Tengah 74112","Jl. Ahmad Yani, Purbasari, Kec. Arut Sel., Kabupaten Kotawaringin Barat",KALIMANTAN TENGAH,74112.0,Indonesia,,,,-2.6199553,111.7087526,https://maps.google.com/?cid=0x0:0x9a2c984aa5d7ddd2,
mall,Bengkel tambal ban,Vullkanisir perkasa ban,"CPHR+FFV, Sumber Agung, Kec. Pangkalan Lada, Kabupaten Kotawaringin Barat, Kalimantan Tengah 74113","Sumber Agung, Kec. Pangkalan Lada, Kabupaten Kotawaringin Barat",KALIMANTAN TENGAH,74113.0,Indonesia,82214121246.0,,,-2.5712529,111.7411783,https://maps.google.com/?cid=0x0:0x9e544f548bec463d,
mall,Toko,Toko kurniawan,"8PM7+GHV, Natai Raya, Kec. Arut Sel., Kabupaten Kotawaringin Barat, Kalimantan Tengah 74181","Natai Raya, Kec. Arut Sel., Kabupaten Kotawaringin Barat",KALIMANTAN TENGAH,74181.0,Indonesia,,,,-2.6663344,111.7137704,https://maps.google.com/?cid=0x0:0xbe7e81107b90e393,
mall,Pasar,Pangkalanbun kalimantantengah,"8J6C+CX6, Mendawai, Kec. Arut Sel., Kabupaten Kotawaringin Barat, Kalimantan Tengah","Kabupaten Kotawaringin Barat, Kalimantan Tengah",KALIMANTAN TENGAH,,Indonesia,,,,-2.688962,111.622398,https://maps.google.com/?cid=0x0:0xd40e30190ad444a4,
mall,Pusat Perbelanjaan,AA SNACK Pusat Oleh-Oleh Pangkalan Bun,"Jl. Iskandar, Madurejo, Kec. Arut Sel., Kabupaten Kotawaringin Barat, Kalimantan Tengah","Kabupaten Kotawaringin Barat, Kalimantan Tengah",KALIMANTAN TENGAH,,Indonesia,85206287777.0,,,-2.704038,111.6434714,https://maps.google.com/?cid=0x0:0x8caf9955d4258301,
mall,Toko Pakaian,Toko serba 35,"Jl. Jenderal Sudirman No.3, Pandu Senjaya, Kec. Pangkalan Lada, Kabupaten Kotawaringin Barat, Kalimantan Tengah 74113","Pandu Senjaya, Kec. Pangkalan Lada, Kabupaten Kotawaringin Barat",KALIMANTAN TENGAH,74113.0,Indonesia,85697245144.0,,,-2.4743775,111.769856,https://maps.google.com/?cid=0x0:0x9ca5b5a2a205e2c1,
mall,Toko umum,Bettystore,"Sumber Agung, Kec. Pangkalan Lada, Kabupaten Kotawaringin Barat, Kalimantan Tengah 74113","Kec. Pangkalan Lada, Kabupaten Kotawaringin Barat",KALIMANTAN TENGAH,74113.0,Indonesia,,,,-2.5862427,111.7346032,https://maps.google.com/?cid=0x0:0xc9caed70fde9dd18,
mall,Toko,CashMart,"GQHG+HFH, Pandu Senjaya, Kec. Pangkalan Lada, Kabupaten Kotawaringin Barat, Kalimantan Tengah 74184","Pandu Senjaya, Kec. Pangkalan Lada, Kabupaten Kotawaringin Barat",KALIMANTAN TENGAH,74184.0,Indonesia,82226053189.0,,,-2.4710729,111.7762411,https://maps.google.com/?cid=0x0:0x3aa84fe1ae1d09b4,
mall,Pusat Perbelanjaan,Warung eri,"8MV4+RCQ, Jl. H.Delima, Baru, Kec. Arut Sel., Kabupaten Kotawaringin Barat, Kalimantan Tengah 74112","Jl. H.Delima, Baru, Kec. Arut Sel., Kabupaten Kotawaringin Barat",KALIMANTAN TENGAH,74112.0,Indonesia,,,,-2.6554227,111.6561001,https://maps.google.com/?cid=0x0:0x99fec1015ada6317,
mall,Pusat Perbelanjaan,Juragan Duren,"FPCQ+V55, Sungai Melawen, Kec. Pangkalan Lada, Kabupaten Kotawaringin Barat, Kalimantan Tengah 74113","Sungai Melawen, Kec. Pangkalan Lada, Kabupaten Kotawaringin Barat",KALIMANTAN TENGAH,74113.0,Indonesia,81351495884.0,,,-2.5278662,111.7379817,https://maps.google.com/?cid=0x0:0x49c69269241ba3e7,
mall,mall,Kalimantan Tengah 74117,"Kabupaten Kotawaringin Barat, Kalimantan Tengah","Kabupaten Kotawaringin Barat, Kalimantan Tengah",KALIMANTAN TENGAH,,Indonesia,,,,-2.1758811,111.7137694,https://maps.google.com/?cid=0x0:0x393f051e7c492659,
mall,Pusat Perbelanjaan,Kampung Mall,"8MH7+G3J, Baru, Kec. Arut Sel., Kabupaten Kotawaringin Barat, Kalimantan Tengah 74112","Baru, Kec. Arut Sel., Kabupaten Kotawaringin Barat",KALIMANTAN TENGAH,74112.0,Indonesia,,,,-2.6711548,111.6626372,https://maps.google.com/?cid=0x0:0x84d17c66f4ed07ab,
mall,Hipermarket,Borneo Citimall Pangkalan Bun,"7MR2+273, Madurejo, Kec. Arut Sel., Kabupaten Kotawaringin Barat, Kalimantan Tengah 74181","Madurejo, Kec. Arut Sel., Kabupaten Kotawaringin Barat",KALIMANTAN TENGAH,74181.0,Indonesia,,,,-2.7099909,111.6506785,https://maps.google.com/?cid=0x0:0xe2824a738af7506,
mall,Pusat Perbelanjaan,Ciptaland,"Jl. Iskandar No.99, Madurejo, Kec. Arut Sel., Kabupaten Kotawaringin Barat, Kalimantan Tengah 74112","Madurejo, Kec. Arut Sel., Kabupaten Kotawaringin Barat",KALIMANTAN TENGAH,74112.0,Indonesia,,,,-2.7006702,111.6418021,https://maps.google.com/?cid=0x0:0x91e5c300eee1cf1d,
mall,Pusat Perbelanjaan,Lifestyle center,"8JCG+M89, Jl. Pangeran Antasari, Mendawai, Kec. Arut Sel., Kabupaten Kotawaringin Barat, Kalimantan Tengah 74112","Jl. Pangeran Antasari, Mendawai, Kec. Arut Sel., Kabupaten Kotawaringin Barat",KALIMANTAN TENGAH,74112.0,Indonesia,85249181891.0,,,-2.6783469,111.6258498,https://maps.google.com/?cid=0x0:0x9ca47ddf2ed6b264,
mall,Pusat Perbelanjaan,Happy Zone Pangkalan Bun,"8JGM+9F7, Raja, Kec. Arut Sel., Kabupaten Kotawaringin Barat, Kalimantan Tengah 74112","Raja, Kec. Arut Sel., Kabupaten Kotawaringin Barat",KALIMANTAN TENGAH,74112.0,Indonesia,,,,-2.6740929,111.633669,https://maps.google.com/?cid=0x0:0xdd32f0df1c30bbca,
mall,Pasar,Pasar Indra Kencana,"Jl. PRA. Kesumayudha, Mendawai, Kec. Arut Sel., Kabupaten Kotawaringin Barat, Kalimantan Tengah 74112","Mendawai, Kec. Arut Sel., Kabupaten Kotawaringin Barat",KALIMANTAN TENGAH,74112.0,Indonesia,,,,-2.677186,111.6276753,https://maps.google.com/?cid=0x0:0x7bc1fdee56bd1b39,
mall,Toko,Anmystore,"8JHR+89R, Gg. Adungan 4, Baru, Kec. Arut Sel., Kabupaten Kotawaringin Barat, Kalimantan Tengah 74112","Gg. Adungan 4, Baru, Kec. Arut Sel., Kabupaten Kotawaringin Barat",KALIMANTAN TENGAH,74112.0,Indonesia,,,,-2.6716366,111.640887,https://maps.google.com/?cid=0x0:0xdf891cf3b943740d,
mall,Pusat Perbelanjaan,"Pusat Oleh-oleh PANGKALAN BUN,AA SNACK","8JCM+JFP, Jl. Pakunegara, Raja, Kec. Arut Sel., Kabupaten Kotawaringin Barat, Kalimantan Tengah 74112","Jl. Pakunegara, Raja, Kec. Arut Sel., Kabupaten Kotawaringin Barat",KALIMANTAN TENGAH,74112.0,Indonesia,85206287777.0,,,-2.6784148,111.633694,https://maps.google.com/?cid=0x0:0x69157e08e73c4c02,
mall,Pusat Perbelanjaan,Jakarta Collection,"Jl. Pangeran Diponegoro No.32 RT 01, Sidorejo, Kec. Arut Sel., Kabupaten Kotawaringin Barat, Kalimantan Tengah 74112","Sidorejo, Kec. Arut Sel., Kabupaten Kotawaringin Barat",KALIMANTAN TENGAH,74112.0,Indonesia,81216504603.0,,,-2.6903423,111.6352598,https://maps.google.com/?cid=0x0:0x7a77f46069268c30,
mall,Pusat Perbelanjaan,B,"Jl. Ahmad Wongso No.51, Sidorejo, Kec. Arut Sel., Kabupaten Kotawaringin Barat, Kalimantan Tengah 74181","Sidorejo, Kec. Arut Sel., Kabupaten Kotawaringin Barat",KALIMANTAN TENGAH,74181.0,Indonesia,8115216386.0,,,-2.695242,111.6288055,https://maps.google.com/?cid=0x0:0x1b16d686485bc513,
mall,Pusat Perbelanjaan,Miniso,"7MQ2+X5G, Madurejo, Kec. Arut Sel., Kabupaten Kotawaringin Barat, Kalimantan Tengah 74181","Madurejo, Kec. Arut Sel., Kabupaten Kotawaringin Barat",KALIMANTAN TENGAH,74181.0,Indonesia,,,,-2.7100689,111.650467,https://maps.google.com/?cid=0x0:0xe929704938c15c00,
mall,Toko Perhiasan,Toko RYANI,"7H32+6HW, Jl. Jenderal Sudirman, Kumpai Batu Bawah, Kec. Arut Sel., Kabupaten Kotawaringin Barat, Kalimantan Tengah 74117","Jl. Jenderal Sudirman, Kumpai Batu Bawah, Kec. Arut Sel., Kabupaten Kotawaringin Barat",KALIMANTAN TENGAH,74117.0,Indonesia,85752316489.0,,,-2.7468924,111.5514676,https://maps.google.com/?cid=0x0:0x8f22791d52921e84,
mall,Toko,Toko Ria,"9M23+333, Baru, Kec. Arut Sel., Kabupaten Kotawaringin Barat, Kalimantan Tengah 74111","Baru, Kec. Arut Sel., Kabupaten Kotawaringin Barat",KALIMANTAN TENGAH,74111.0,Indonesia,,,,-2.6498552,111.6526864,https://maps.google.com/?cid=0x0:0x18b6b54d73c68c36,
mall,Toko,Toko kurniawan,"8PM7+GHV, Natai Raya, Kec. Arut Sel., Kabupaten Kotawaringin Barat, Kalimantan Tengah 74181","Natai Raya, Kec. Arut Sel., Kabupaten Kotawaringin Barat",KALIMANTAN TENGAH,74181.0,Indonesia,,,,-2.6663344,111.7137704,https://maps.google.com/?cid=0x0:0xbe7e81107b90e393,
mall,Toko bahan makanan,SUMBER REJEKI,"Jl. Iskandar No.23, Madurejo, Kec. Arut Sel., Kabupaten Kotawaringin Barat, Kalimantan Tengah 74117","Madurejo, Kec. Arut Sel., Kabupaten Kotawaringin Barat",KALIMANTAN TENGAH,74117.0,Indonesia,83155664041.0,,,-2.6976779,111.6394279,https://maps.google.com/?cid=0x0:0x96edd9b3ec914a35,
mall,Toko Hewan Peliharaan,PETSHOP ALESHA PANGKALAN BUN,"Jl. GM. Arsad, Baru, Kec. Arut Sel., Kabupaten Kotawaringin Barat, Kalimantan Tengah 74112","Baru, Kec. Arut Sel., Kabupaten Kotawaringin Barat",KALIMANTAN TENGAH,74112.0,Indonesia,85821301601.0,,,-2.6606613,111.6511134,https://maps.google.com/?cid=0x0:0x55504f2377d4ac16,
mall,Bengkel tambal ban,Vullkanisir perkasa ban,"CPHR+FFV, Sumber Agung, Kec. Pangkalan Lada, Kabupaten Kotawaringin Barat, Kalimantan Tengah 74113","Sumber Agung, Kec. Pangkalan Lada, Kabupaten Kotawaringin Barat",KALIMANTAN TENGAH,74113.0,Indonesia,82214121246.0,,,-2.5712529,111.7411783,https://maps.google.com/?cid=0x0:0x9e544f548bec463d,
mall,Pusat Perbelanjaan,AA SNACK Pusat Oleh-Oleh Pangkalan Bun,"Jl. Iskandar, Madurejo, Kec. Arut Sel., Kabupaten Kotawaringin Barat, Kalimantan Tengah","Kabupaten Kotawaringin Barat, Kalimantan Tengah",KALIMANTAN TENGAH,,Indonesia,85206287777.0,,,-2.704038,111.6434714,https://maps.google.com/?cid=0x0:0x8caf9955d4258301,
mall,Kantor Perusahaan,Instalasi Budidaya Ikan Natai Raya,"8PP6+4RC, Natai Raya, Kec. Arut Sel., Kabupaten Kotawaringin Barat, Kalimantan Tengah 74117","Natai Raya, Kec. Arut Sel., Kabupaten Kotawaringin Barat",KALIMANTAN TENGAH,74117.0,Indonesia,,,,-2.6646826,111.7120153,https://maps.google.com/?cid=0x0:0xd1d2a74514f54cfc,
mall,Toko bahan makanan,Swalayan Borneo,"Jalan Cilik Riwut No.1, Sidorejo, South Arut, West Kotawaringin Regency, Central Kalimantan 74112","Sidorejo, South Arut, West Kotawaringin Regency",KALIMANTAN TENGAH,74112.0,Indonesia,,,,-2.688962,111.622398,https://maps.google.com/?cid=0x0:0xdcc3537f30150036,
mall,Kantor Perusahaan,Megamaret Tembalu,"7JVP+JR3, Jl. Ahmad Wongso, Madurejo, Kec. Arut Sel., Kabupaten Kotawaringin Barat, Kalimantan Tengah 74117","Jl. Ahmad Wongso, Madurejo, Kec. Arut Sel., Kabupaten Kotawaringin Barat",KALIMANTAN TENGAH,74117.0,Indonesia,85389692584.0,,,-2.7059791,111.6370475,https://maps.google.com/?cid=0x0:0xedcf0f7f6acf9ec9,
mall,Toko Pakaian,Toko Baju Serba Harga Murah Pangkalan Bun,"8JGQ+29R, Baru, Kec. Arut Sel., Kabupaten Kotawaringin Barat, Kalimantan Tengah 74112","Baru, Kec. Arut Sel., Kabupaten Kotawaringin Barat",KALIMANTAN TENGAH,74112.0,Indonesia,82157276868.0,,,-2.6748899,111.6383779,https://maps.google.com/?cid=0x0:0x43acfb9f21e06410,
mall,Pusat Perbelanjaan,Toko Rapi Barokah,"7JXJ+XM6, Madurejo, Kec. Arut Sel., Kabupaten Kotawaringin Barat, Kalimantan Tengah 74117","Madurejo, Kec. Arut Sel., Kabupaten Kotawaringin Barat",KALIMANTAN TENGAH,74117.0,Indonesia,81349028284.0,,,-2.7000773,111.6316478,https://maps.google.com/?cid=0x0:0x6d7a79977193395d,
mall,Toko bahan makanan,Borneo Supermarket HM. Rafi'i,"7JHR+QFR, Jl. HM. Rafi'i, Madurejo, Kec. Arut Sel., Kabupaten Kotawaringin Barat, Kalimantan Tengah 74181","Jl. HM. Rafi'i, Madurejo, Kec. Arut Sel., Kabupaten Kotawaringin Barat",KALIMANTAN TENGAH,74181.0,Indonesia,5322030782.0,,,-2.7205221,111.6411503,https://maps.google.com/?cid=0x0:0xe312b99a542aea69,
mall,Indonesia,Rumah Kerupuk Mandiri 3 Saudara,"Natai Raya 1Q, RT08, Kalimantan Tengah 74117",RT08,KALIMANTAN TENGAH,74117.0,Indonesia,85229678763.0,,,-2.6720118,111.7115947,https://maps.google.com/?cid=0x0:0xba9676100396cf00,
mall,Layanan Percetakan Undangan,Mister Desain ( Pusat Undangan Nikah),"Jl. Iskandar No.23, Madurejo, Kec. Arut Sel., Kabupaten Kotawaringin Barat, Kalimantan Tengah 74117","Madurejo, Kec. Arut Sel., Kabupaten Kotawaringin Barat",KALIMANTAN TENGAH,74117.0,Indonesia,82150720024.0,,,-2.6970827,111.6396308,https://maps.google.com/?cid=0x0:0x6dff8389e61fc15b,
mall,Produsen makanan,"Ibukku Storekalteng, pusat barang murah online","Jl. Bhayangkara Perum Ayugraha No.15, Pasir Panjang, Kec. Arut Sel., Kabupaten Kotawaringin Barat, Kalimantan Tengah 74117","Pasir Panjang, Kec. Arut Sel., Kabupaten Kotawaringin Barat",KALIMANTAN TENGAH,74117.0,Indonesia,81255455038.0,,,-2.7285937,111.6372709,https://maps.google.com/?cid=0x0:0xf3035a3c12bbe8e,
mall,mall,Kalimantan Tengah 74152,Kalimantan Tengah,Kalimantan Tengah,KALIMANTAN TENGAH,,Indonesia,,,,-1.7739041,111.7614661,https://maps.google.com/?cid=0x0:0x71f2abc1610584e7,
mall,Toko,Toko agung,"QXX3+6RQ, Pangkut, Kec. Arut Utara, Kabupaten Kotawaringin Barat, Kalimantan Tengah 74183","Pangkut, Kec. Arut Utara, Kabupaten Kotawaringin Barat",KALIMANTAN TENGAH,74183.0,Indonesia,85252764715.0,,,-2.2019014,111.9545964,https://maps.google.com/?cid=0x0:0x8d459dc8f9af6e95,
mall,Kantor Perusahaan,Batu Tunggal,"5MC4+653, Batu Tunggal, Kec. Bulik Tim., Kabupaten Lamandau, Kalimantan Tengah 74152","Batu Tunggal, Kec. Bulik Tim., Kabupaten Lamandau",KALIMANTAN TENGAH,74152.0,Indonesia,,,,-1.829498,111.6554066,https://maps.google.com/?cid=0x0:0xa20bba14ec730918,
mall,Hipermarket,Borneo Citimall Pangkalan Bun,"7MR2+273, Madurejo, Kec. Arut Sel., Kabupaten Kotawaringin Barat, Kalimantan Tengah 74181","Madurejo, Kec. Arut Sel., Kabupaten Kotawaringin Barat",KALIMANTAN TENGAH,74181.0,Indonesia,,,,-2.7099909,111.6506785,https://maps.google.com/?cid=0x0:0xe2824a738af7506,
mall,Komplek perumahan,Merambang,"4JW5+QXH, Merambang, Kec. Bulik Tim., Kabupaten Lamandau, Kalimantan Tengah 74162","Merambang, Kec. Bulik Tim., Kabupaten Lamandau",KALIMANTAN TENGAH,74162.0,Indonesia,,,,-1.8530637,111.6099734,https://maps.google.com/?cid=0x0:0x5f1c9bc8b5fa6be3,
mall,mall,Kios Auliahanafi,"JJRR+4V9, Tumbang Langkai, Kec. Suling Tambun, Kabupaten Seruyan, Kalimantan Tengah 74291","Tumbang Langkai, Kec. Suling Tambun, Kabupaten Seruyan",KALIMANTAN TENGAH,74291.0,Indonesia,81930000110.0,,,-1.3597239,111.642224,https://maps.google.com/?cid=0x0:0x539093f7cdeda1cc,
mall,Toko bahan makanan,Kantin Fahri 1 Alpha SBE,"Toka, Kec. Bulik Tim., Kabupaten Lamandau, Kalimantan Tengah 74152","Kec. Bulik Tim., Kabupaten Lamandau",KALIMANTAN TENGAH,74152.0,Indonesia,82114431446.0,,,-1.905982,111.6345593,https://maps.google.com/?cid=0x0:0x4ec05d3f57c7e230,
mall,mall,Warung Topik,"VW5V+2F2, Gandis, Kec. Arut Utara, Kabupaten Kotawaringin Barat, Kalimantan Tengah 74183","Gandis, Kec. Arut Utara, Kabupaten Kotawaringin Barat",KALIMANTAN TENGAH,74183.0,Indonesia,,,,-2.1425,111.9436352,https://maps.google.com/?cid=0x0:0xd4e803261443b945,
mall,mall,Melata,"2J9H+VW9, Melata, Kec. Menthobi Raya, Kabupaten Lamandau, Kalimantan Tengah 74152","Melata, Kec. Menthobi Raya, Kabupaten Lamandau",KALIMANTAN TENGAH,74152.0,Indonesia,,,,-1.9803355,111.6298576,https://maps.google.com/?cid=0x0:0xbf35c7df4fd0b1ff,
mall,mall,Warung UMAKU,"VW4V+VJ5, Gandis, Kec. Arut Utara, Kabupaten Kotawaringin Barat, Kalimantan Tengah","Kabupaten Kotawaringin Barat, Kalimantan Tengah",KALIMANTAN TENGAH,,Indonesia,,,,-2.1428629,111.9441166,https://maps.google.com/?cid=0x0:0xbac5898de2d70f5c,
mall,mall,Kalimantan Tengah 74161,Kalimantan Tengah,Kalimantan Tengah,KALIMANTAN TENGAH,,Indonesia,,,,-2.3273895,111.4275888,https://maps.google.com/?cid=0x0:0x5f63d7c099af306c,
mall,Toko bahan makanan,PASAR RAKYAT DESPOT,"H84P+WHQ, Jl. Cakra Negara, Riam Durian, Kec. Kotawaringin Lama, Kabupaten Kotawaringin Barat, Kalimantan Tengah 74161","Jl. Cakra Negara, Riam Durian, Kec. Kotawaringin Lama, Kabupaten Kotawaringin Barat",KALIMANTAN TENGAH,74161.0,Indonesia,,,,-2.4426653,111.3364856,https://maps.google.com/?cid=0x0:0x6b3fc058a5fbf8d7,
mall,Kantor Pos,PERUMAHAN,"G8VV+323, Unnamed Road, Kinjil, Kec. Kotawaringin Lama, Kabupaten Kotawaringin Barat, Kalimantan Tengah 74172","Unnamed Road, Kinjil, Kec. Kotawaringin Lama, Kabupaten Kotawaringin Barat",KALIMANTAN TENGAH,74172.0,Indonesia,,,,-2.4573641,111.3425343,https://maps.google.com/?cid=0x0:0xf4e880519e37c977,
mall,Toko,Toko Ongah Yana,"GC8V+GQG, Kotawaringin Hulu, Kec. Kotawaringin Lama, Kabupaten Kotawaringin Barat, Kalimantan Tengah 74161","Kotawaringin Hulu, Kec. Kotawaringin Lama, Kabupaten Kotawaringin Barat",KALIMANTAN TENGAH,74161.0,Indonesia,,,,-2.483689,111.4444611,https://maps.google.com/?cid=0x0:0x4e1221910497e26e,
mall,Hipermarket,Borneo Citimall Pangkalan Bun,"7MR2+273, Madurejo, Kec. Arut Sel., Kabupaten Kotawaringin Barat, Kalimantan Tengah 74181","Madurejo, Kec. Arut Sel., Kabupaten Kotawaringin Barat",KALIMANTAN TENGAH,74181.0,Indonesia,,,,-2.7099909,111.6506785,https://maps.google.com/?cid=0x0:0xe2824a738af7506,
mall,Pusat Perbelanjaan,TOKO SALAM SEJAHTERA PUSAT,"Kota Waringin Hilir, Kec. Kotawaringin Lama, Kabupaten Kotawaringin Barat, Kalimantan Tengah 74161","Kec. Kotawaringin Lama, Kabupaten Kotawaringin Barat",KALIMANTAN TENGAH,74161.0,Indonesia,82358829100.0,,,-2.4443057,111.3848434,https://maps.google.com/?cid=0x0:0x39284bd2ae6c5a42,
mall,Toko,RUKO RGP,"G8XQ+C8F, Riam Durian, Kec. Kotawaringin Lama, Kabupaten Kotawaringin Barat, Kalimantan Tengah","Kabupaten Kotawaringin Barat, Kalimantan Tengah",KALIMANTAN TENGAH,,Indonesia,82154127725.0,,,-2.4514275,111.3382907,https://maps.google.com/?cid=0x0:0x35ade0b749f96ce6,
mall,Toko bahan makanan,ISTANA BUAH DESPOT,"H84P+VQF, Riam Durian, Kec. Kotawaringin Lama, Kabupaten Kotawaringin Barat, Kalimantan Tengah 74172","Riam Durian, Kec. Kotawaringin Lama, Kabupaten Kotawaringin Barat",KALIMANTAN TENGAH,74172.0,Indonesia,85249004523.0,,,-2.4428217,111.3369332,https://maps.google.com/?cid=0x0:0x1bb3e0b0f050a196,
mall,Toko,nurlailik.shop,"GC9P+2C2, Kota Waringin Hilir, Kec. Kotawaringin Lama, Kabupaten Kotawaringin Barat, Kalimantan Tengah 74161","Kota Waringin Hilir, Kec. Kotawaringin Lama, Kabupaten Kotawaringin Barat",KALIMANTAN TENGAH,74161.0,Indonesia,81348143864.0,,,-2.4824824,111.4360274,https://maps.google.com/?cid=0x0:0xe668e343f548de0,
mall,Toko sembako pemerintah,TOKO RH.OFFICIAL1623,"M9GC+7W, Ipuh Bangun Jaya, Kec. Kotawaringin Lama, Kabupaten Kotawaringin Barat, Kalimantan Tengah","Kabupaten Kotawaringin Barat, Kalimantan Tengah",KALIMANTAN TENGAH,,Indonesia,82253088596.0,,,-2.3242722,111.3722796,https://maps.google.com/?cid=0x0:0x4defc411b2951e57,
mall,Toko bahan makanan,Amanda C-geulis 2,"M9FC+PFQ, Ipuh Bangun Jaya, Kec. Kotawaringin Lama, Kabupaten Kotawaringin Barat, Kalimantan Tengah 74161","Ipuh Bangun Jaya, Kec. Kotawaringin Lama, Kabupaten Kotawaringin Barat",KALIMANTAN TENGAH,74161.0,Indonesia,,,,-2.3256678,111.3712379,https://maps.google.com/?cid=0x0:0x7902f9bfdc5f6635,
mall,Pusat Perbelanjaan,ImasGusti Olshop,"GC8P+R7G, Jl. Pesantren, Kota Waringin Hilir, Kec. Kotawaringin Lama, Kabupaten Kotawaringin Barat, Kalimantan Tengah 74161","Jl. Pesantren, Kota Waringin Hilir, Kec. Kotawaringin Lama, Kabupaten Kotawaringin Barat",KALIMANTAN TENGAH,74161.0,Indonesia,82256161223.0,,,-2.4829415,111.435698,https://maps.google.com/?cid=0x0:0x8e54016945e0db73,
mall,Pusat Perbelanjaan,Toko Buk Dah,"Riam Durian, Kec. Kotawaringin Lama, Kabupaten Kotawaringin Barat, Kalimantan Tengah 74172","Kec. Kotawaringin Lama, Kabupaten Kotawaringin Barat",KALIMANTAN TENGAH,74172.0,Indonesia,85895158848.0,,,-2.3822027,111.311213,https://maps.google.com/?cid=0x0:0x6b8dfb966e4a8f0a,
mall,Toko bahan makanan,Minimarket Pak Iwan,"M9GG+9WH, Ipuh Bangun Jaya, Kec. Kotawaringin Lama, Kabupaten Kotawaringin Barat, Kalimantan Tengah 74161","Ipuh Bangun Jaya, Kec. Kotawaringin Lama, Kabupaten Kotawaringin Barat",KALIMANTAN TENGAH,74161.0,Indonesia,81256693856.0,,,-2.3240551,111.3773608,https://maps.google.com/?cid=0x0:0x3002ef049ce35b02,
mall,Toko,TOKO HABBRI,"GC8P+8CH, Jl. Kotawaringin Lama, Kota Waringin Hilir, Kec. Kotawaringin Lama, Kabupaten Kotawaringin Barat, Kalimantan Tengah 74161","Jl. Kotawaringin Lama, Kota Waringin Hilir, Kec. Kotawaringin Lama, Kabupaten Kotawaringin Barat",KALIMANTAN TENGAH,74161.0,Indonesia,,,,-2.4841822,111.4361181,https://maps.google.com/?cid=0x0:0xa348bf6bb3d0e5a8,
mall,Toko,TOKO DIO,"Jl. Cakra Negara Despot, Riam Durian, Kec. Kotawaringin Lama, Kabupaten Kotawaringin Barat, Kalimantan Tengah 74161","Riam Durian, Kec. Kotawaringin Lama, Kabupaten Kotawaringin Barat",KALIMANTAN TENGAH,74161.0,Indonesia,81244525686.0,,,-2.4545948,111.3401307,https://maps.google.com/?cid=0x0:0x73b6c8842d65f1d0,
mall,Toko Perlengkapan Rumah,Istana Plastik Despot,"H84P+JM3, Jl. Cakra Negara, Riam Durian, Kec. Kotawaringin Lama, Kabupaten Kotawaringin Barat, Kalimantan Tengah 74172","Jl. Cakra Negara, Riam Durian, Kec. Kotawaringin Lama, Kabupaten Kotawaringin Barat",KALIMANTAN TENGAH,74172.0,Indonesia,,,,-2.443296,111.336813,https://maps.google.com/?cid=0x0:0xb9dd287cfdf27332,
mall,Pusat Perbelanjaan,Santoso,"F8CR+C35, Babual Baboti, Kec. Kotawaringin Lama, Kabupaten Kotawaringin Barat, Kalimantan Tengah 74172","Babual Baboti, Kec. Kotawaringin Lama, Kabupaten Kotawaringin Barat",KALIMANTAN TENGAH,74172.0,Indonesia,,,,-2.528501,111.33903,https://maps.google.com/?cid=0x0:0xbe3cb81ea4e52548,
mall,Pusat Perbelanjaan,Outlet Nirma  Cania,"Kenambui, Kec. Arut Sel., Kabupaten Kotawaringin Barat, Kalimantan Tengah 74112","Kec. Arut Sel., Kabupaten Kotawaringin Barat",KALIMANTAN TENGAH,74112.0,Indonesia,81545093199.0,,,-2.3617572,111.6410835,https://maps.google.com/?cid=0x0:0x68f52bbb79b06590,
mall,Pusat Perbelanjaan,Hypermart - Citimall Pangkalan Bun,"Jl. Utama Pasir Panjang No.22, Madurejo, Kec. Arut Sel., Kabupaten Kotawaringin Barat, Kalimantan Tengah 74117","Madurejo, Kec. Arut Sel., Kabupaten Kotawaringin Barat",KALIMANTAN TENGAH,74117.0,Indonesia,82157351068.0,,,-2.7104383,111.6503057,https://maps.google.com/?cid=0x0:0x7c46c8beb3b947f4,
mall,Pusat Perbelanjaan,Ciptaland,"Jl. Iskandar No.99, Madurejo, Kec. Arut Sel., Kabupaten Kotawaringin Barat, Kalimantan Tengah 74112","Madurejo, Kec. Arut Sel., Kabupaten Kotawaringin Barat",KALIMANTAN TENGAH,74112.0,Indonesia,,,,-2.7006702,111.6418021,https://maps.google.com/?cid=0x0:0x91e5c300eee1cf1d,
mall,Pusat Perbelanjaan,Warung POJOK,"J8M2+27J, Sukamulya, Kec. Kotawaringin Lama, Kabupaten Kotawaringin Barat, Kalimantan Tengah 74172","Sukamulya, Kec. Kotawaringin Lama, Kabupaten Kotawaringin Barat",KALIMANTAN TENGAH,74172.0,Indonesia,816880327.0,,,-2.367411,111.3006528,https://maps.google.com/?cid=0x0:0x924d015022521e05,
mall,mall,Kumai,"Sungai Kapitan, Kec. Kumai, Kabupaten Kotawaringin Barat, Kalimantan Tengah","Kabupaten Kotawaringin Barat, Kalimantan Tengah",KALIMANTAN TENGAH,,Indonesia,,,,-2.745797,111.715698,https://maps.google.com/?cid=0x0:0xcc725e3a1e270063,
mall,Pasar tradisional,Pasar Kumai,"7P5G+R95, Jl. H. Abdul Aziz, Kumai Hulu, Kec. Kumai, Kabupaten Kotawaringin Barat, Kalimantan Tengah 74181","Jl. H. Abdul Aziz, Kumai Hulu, Kec. Kumai, Kabupaten Kotawaringin Barat",KALIMANTAN TENGAH,74181.0,Indonesia,,,,-2.7404146,111.7260161,https://maps.google.com/?cid=0x0:0x86673663f6edcaae,
mall,Hipermarket,Borneo Citimall Pangkalan Bun,"7MR2+273, Madurejo, Kec. Arut Sel., Kabupaten Kotawaringin Barat, Kalimantan Tengah 74181","Madurejo, Kec. Arut Sel., Kabupaten Kotawaringin Barat",KALIMANTAN TENGAH,74181.0,Indonesia,,,,-2.7099909,111.6506785,https://maps.google.com/?cid=0x0:0xe2824a738af7506,
mall,Pelabuhan,Pelabuhan Kumai Seberang,"6PQQ+J2R, Kumai Hilir, Kec. Kumai, Kabupaten Kotawaringin Barat, Kalimantan Tengah 74181","Kumai Hilir, Kec. Kumai, Kabupaten Kotawaringin Barat",KALIMANTAN TENGAH,74181.0,Indonesia,,,,-2.7608981,111.7375053,https://maps.google.com/?cid=0x0:0xb5ab2957187655be,
mall,Pusat Perbelanjaan,Miniso,"7MQ2+X5G, Madurejo, Kec. Arut Sel., Kabupaten Kotawaringin Barat, Kalimantan Tengah 74181","Madurejo, Kec. Arut Sel., Kabupaten Kotawaringin Barat",KALIMANTAN TENGAH,74181.0,Indonesia,,,,-2.7100689,111.650467,https://maps.google.com/?cid=0x0:0xe929704938c15c00,
mall,Sekolah Dasar,MIN-3 Kotawaringin Barat,"7P59+4WV, Kumai Hilir, Kec. Kumai, Kabupaten Kotawaringin Barat, Kalimantan Tengah 74181","Kumai Hilir, Kec. Kumai, Kabupaten Kotawaringin Barat",KALIMANTAN TENGAH,74181.0,Indonesia,53662066.0,,,-2.7421351,111.7198087,https://maps.google.com/?cid=0x0:0x6b8219dd81281657,
mall,mall,Warung bayu,"6PGP+2G2, Kumai Hilir, Kec. Kumai, Kabupaten Kotawaringin Barat, Kalimantan Tengah 74181","Kumai Hilir, Kec. Kumai, Kabupaten Kotawaringin Barat",KALIMANTAN TENGAH,74181.0,Indonesia,,,,-2.7749974,111.7362628,https://maps.google.com/?cid=0x0:0x1c30e11cde705f83,
mall,Pusat Perbelanjaan,toko rayyan,"Kumai Hilir, Kec. Kumai, Kabupaten Kotawaringin Barat, Kalimantan Tengah 74181","Kec. Kumai, Kabupaten Kotawaringin Barat",KALIMANTAN TENGAH,74181.0,Indonesia,82158000046.0,,,-2.7478045,111.722005,https://maps.google.com/?cid=0x0:0x868c1f45a2c80bd3,
mall,Toko Pakaian,Allea shop,"7RHR+XW7, Sungai Bedaun, Kec. Kumai, Kabupaten Kotawaringin Barat, Kalimantan Tengah 74181","Sungai Bedaun, Kec. Kumai, Kabupaten Kotawaringin Barat",KALIMANTAN TENGAH,74181.0,Indonesia,82281610285.0,,,-2.7200826,111.8423043,https://maps.google.com/?cid=0x0:0x5de8d87316dd3706,
mall,Toko,Conter MIX iYas'5 CeLL  M_AL_GAUSI Sport Kumai,"Jl. Bendahara No.29, Kumai Hilir, Kec. Kumai, Kabupaten Kotawaringin Barat, Kalimantan Tengah 74181","Kumai Hilir, Kec. Kumai, Kabupaten Kotawaringin Barat",KALIMANTAN TENGAH,74181.0,Indonesia,81251413321.0,,,-2.7428064,111.7255936,https://maps.google.com/?cid=0x0:0x51958c79e62b3e75,
mall,Terminal kapal pesiar,PT Pelabuhan Indonesia III (Persero) Cabang Kumai,"Jl. Bendahara, No. 248, Kec. Kumai, Kabupaten Kotawaringin Barat, Kalimantan Tengah 74181","No. 248, Kec. Kumai, Kabupaten Kotawaringin Barat",KALIMANTAN TENGAH,74181.0,Indonesia,53261468.0,,,-2.7393657,111.7283161,https://maps.google.com/?cid=0x0:0x30855c97b956fc20,
mall,Pusat Perbelanjaan,TOKO ROMY kumai,"Jl. H.M. Taher, Kumai Hilir, Kec. Kumai, Kabupaten Kotawaringin Barat, Kalimantan Tengah 74181","Kumai Hilir, Kec. Kumai, Kabupaten Kotawaringin Barat",KALIMANTAN TENGAH,74181.0,Indonesia,,,,-2.7475482,111.7209943,https://maps.google.com/?cid=0x0:0x6b8267bda5ba6c93,
mall,Pusat Perbelanjaan,TOKO ERNA JAYA KUMAI,"Jl. Bendahara No.29, Kumai Hilir, Kec. Kumai, Kabupaten Kotawaringin Barat, Kalimantan Tengah 74181","Kumai Hilir, Kec. Kumai, Kabupaten Kotawaringin Barat",KALIMANTAN TENGAH,74181.0,Indonesia,,,,-2.7437445,111.7250088,https://maps.google.com/?cid=0x0:0x2c4d7b3bec9ac956,
mall,mall,Kalimantan Tengah 74183,"Kabupaten Kotawaringin Barat, Kalimantan Tengah","Kabupaten Kotawaringin Barat, Kalimantan Tengah",KALIMANTAN TENGAH,,Indonesia,,,,-2.3916649,111.9999435,https://maps.google.com/?cid=0x0:0x4b6803533d167a52,
mall,Toko Swalayan,Megamaret P. Banteng,"Jl. Ahmad Yani No.KM 68, Karangmulya, Kec. Pangkalan Banteng, Kabupaten Kotawaringin Barat, Kalimantan Tengah 74183","Karangmulya, Kec. Pangkalan Banteng, Kabupaten Kotawaringin Barat",KALIMANTAN TENGAH,74183.0,Indonesia,,,,-2.455005,111.9339816,https://maps.google.com/?cid=0x0:0xdc22c743963742e6,
mall,Toko Swalayan,Putra Karya Mandiri,"GWG4+78W, Jl. Ahmad Yani, Karangmulya, Kec. Pangkalan Banteng, Kabupaten Kotawaringin Barat, Kalimantan Tengah 74183","Jl. Ahmad Yani, Karangmulya, Kec. Pangkalan Banteng, Kabupaten Kotawaringin Barat",KALIMANTAN TENGAH,74183.0,Indonesia,85350476731.0,,,-2.4742661,111.9058331,https://maps.google.com/?cid=0x0:0xf681898830306a01,
mall,Toko,Terminal STICKER,"Jl. Jenderal Sudirman, Amin Jaya, Kec. Pangkalan Banteng, Kabupaten Kotawaringin Barat, Kalimantan Tengah 74183","Amin Jaya, Kec. Pangkalan Banteng, Kabupaten Kotawaringin Barat",KALIMANTAN TENGAH,74183.0,Indonesia,,,,-2.4455449,111.9705084,https://maps.google.com/?cid=0x0:0xfd217fd80b9f41d5,
mall,Kantor Pemerintah,Pasar Desa Sidomulyo,"HVX8+2X2, Sido Mulyo, Kec. Pangkalan Banteng, Kabupaten Kotawaringin Barat, Kalimantan Tengah 74184","Sido Mulyo, Kec. Pangkalan Banteng, Kabupaten Kotawaringin Barat",KALIMANTAN TENGAH,74184.0,Indonesia,85705121444.0,,,-2.4024775,111.867406,https://maps.google.com/?cid=0x0:0x8992f6d022597c7f,
mall,Toko Kosmetik,Distributor Nasa Kalimantan Tengah,"Desa mulya jadi kec.pangkalan banteng kab.kobar.kalteng 6.dasa mulya jadi kec.p.banteng pangkalan bun, Mulya Jadi, Kec. Pangkalan Banteng, Kabupaten Kotawaringin Barat, Kalimantan Tengah 74181","Mulya Jadi, Kec. Pangkalan Banteng, Kabupaten Kotawaringin Barat",KALIMANTAN TENGAH,74181.0,Indonesia,85248695591.0,,,-2.5682248,111.8647347,https://maps.google.com/?cid=0x0:0x3af780ac773896c2,
mall,Tujuan Wisata,Water melon,"HXHC+V46, Amin Jaya, Kec. Pangkalan Banteng, Kabupaten Kotawaringin Barat, Kalimantan Tengah 74183","Amin Jaya, Kec. Pangkalan Banteng, Kabupaten Kotawaringin Barat",KALIMANTAN TENGAH,74183.0,Indonesia,82122884781.0,,,-2.4203453,111.9702684,https://maps.google.com/?cid=0x0:0x2ca18f27f345bf4d,
mall,Pusat Perbelanjaan,TOKO SUSI,"Jl. Ahmad Yani, Karangmulya, Kec. Pangkalan Banteng, Kabupaten Kotawaringin Barat, Kalimantan Tengah 74183","Karangmulya, Kec. Pangkalan Banteng, Kabupaten Kotawaringin Barat",KALIMANTAN TENGAH,74183.0,Indonesia,81251439261.0,,,-2.4648792,111.9206159,https://maps.google.com/?cid=0x0:0x9ec77c935b9f9f1,
mall,Pusat Perbelanjaan,Depot Rizky,"G2WH+4VV, Jl. Jenderal Sudirman, Amin Jaya, Kec. Pangkalan Banteng, Kabupaten Kotawaringin Barat, Kalimantan Tengah 74183","Jl. Jenderal Sudirman, Amin Jaya, Kec. Pangkalan Banteng, Kabupaten Kotawaringin Barat",KALIMANTAN TENGAH,74183.0,Indonesia,82334893953.0,,,-2.4546303,112.0296602,https://maps.google.com/?cid=0x0:0x982a74d77782d852,
mall,Studio Foto,Afrizal Photo,"HX53+VJM, Jl. Jenderal Sudirman, Amin Jaya, Kec. Pangkalan Banteng, Kabupaten Kotawaringin Barat, Kalimantan Tengah 74183","Jl. Jenderal Sudirman, Amin Jaya, Kec. Pangkalan Banteng, Kabupaten Kotawaringin Barat",KALIMANTAN TENGAH,74183.0,Indonesia,82159149500.0,,,-2.4402837,111.9540406,https://maps.google.com/?cid=0x0:0xd4dca0b53101398f,
mall,Toko,Indra Variasi,"GWM9+PQV, Karangmulya, Kec. Pangkalan Banteng, Kabupaten Kotawaringin Barat, Kalimantan Tengah 74183","Karangmulya, Kec. Pangkalan Banteng, Kabupaten Kotawaringin Barat",KALIMANTAN TENGAH,74183.0,Indonesia,81348360349.0,,,-2.4656395,111.9194128,https://maps.google.com/?cid=0x0:0xb4b9c88d15df2df5,
mall,Pusat Perbelanjaan,DEPO ARSY,"Sungai Hijau, Kec. Pangkalan Banteng, Kabupaten Kotawaringin Barat, Kalimantan Tengah 74183","Kec. Pangkalan Banteng, Kabupaten Kotawaringin Barat",KALIMANTAN TENGAH,74183.0,Indonesia,,,,-2.4485477,111.9109884,https://maps.google.com/?cid=0x0:0x71a370f98154f1f7,
mall,Pemasok Air Minum Dalam Kemasan,Depo Tirta Laksono,"Amin Jaya, Kec. Pangkalan Banteng, Kabupaten Kotawaringin Barat, Kalimantan Tengah 74183","Kec. Pangkalan Banteng, Kabupaten Kotawaringin Barat",KALIMANTAN TENGAH,74183.0,Indonesia,,,,-2.4460596,111.9735685,https://maps.google.com/?cid=0x0:0xca7cf445228107af,
mall,Pusat Perbelanjaan,Toko Dinos,"GWPF+VCP, Jl. Ahmad Yani, Karangmulya, Kec. Pangkalan Banteng, Kabupaten Kotawaringin Barat, Kalimantan Tengah 74183","Jl. Ahmad Yani, Karangmulya, Kec. Pangkalan Banteng, Kabupaten Kotawaringin Barat",KALIMANTAN TENGAH,74183.0,Indonesia,,,,-2.4627845,111.9235669,https://maps.google.com/?cid=0x0:0xcf526aab189b4673,
mall,Pusat Perbelanjaan,Mia Olshop,"GWQC+3JF, Karangmulya, Kec. Pangkalan Banteng, Kabupaten Kotawaringin Barat, Kalimantan Tengah 74183","Karangmulya, Kec. Pangkalan Banteng, Kabupaten Kotawaringin Barat",KALIMANTAN TENGAH,74183.0,Indonesia,85753074101.0,,,-2.4623243,111.9215424,https://maps.google.com/?cid=0x0:0x77d6a636e42f94f3,
mall,Komplek perumahan,YUAN SHOWROOM NATAI TABUK,"G2WH+3WF, Amin Jaya, Kec. Pangkalan Banteng, Kabupaten Kotawaringin Barat, Kalimantan Tengah 74183","Amin Jaya, Kec. Pangkalan Banteng, Kabupaten Kotawaringin Barat",KALIMANTAN TENGAH,74183.0,Indonesia,82325379096.0,,,-2.4548067,112.0297961,https://maps.google.com/?cid=0x0:0xcee10260b971c3a,
mall,Toko,Toko mainan JAVA TOYS,"GWPC+34X, Jl. Ahmad Yani, Karangmulya, Kec. Pangkalan Banteng, Kabupaten Kotawaringin Barat, Kalimantan Tengah 74183","Jl. Ahmad Yani, Karangmulya, Kec. Pangkalan Banteng, Kabupaten Kotawaringin Barat",KALIMANTAN TENGAH,74183.0,Indonesia,81345001525.0,,,-2.4647701,111.920373,https://maps.google.com/?cid=0x0:0x68a0375629d3d4e,
mall,Pusat Perbelanjaan,PABRIK TAHU BOS AGUNG,"GWRF+6JH, Karangmulya, Kec. Pangkalan Banteng, Kabupaten Kotawaringin Barat, Kalimantan Tengah 74183","Karangmulya, Kec. Pangkalan Banteng, Kabupaten Kotawaringin Barat",KALIMANTAN TENGAH,74183.0,Indonesia,81934251387.0,,,-2.458509,111.9240244,https://maps.google.com/?cid=0x0:0xb7d44e719ec74c97,
mall,Kantor Pemerintah,Bumdes Sejahtera Mulya,"HVW8+VJC, Unnamed Road, Sido Mulyo, Kec. Pangkalan Banteng, Kabupaten Kotawaringin Barat, Kalimantan Tengah 74184","Unnamed Road, Sido Mulyo, Kec. Pangkalan Banteng, Kabupaten Kotawaringin Barat",KALIMANTAN TENGAH,74184.0,Indonesia,82158621414.0,,,-2.4028071,111.866501,https://maps.google.com/?cid=0x0:0x8bc365a849a6cded,
mall,mall,Kalimantan Tengah 74184,"Kec. Pangkalan Lada, Kabupaten Kotawaringin Barat, Kalimantan Tengah","Kabupaten Kotawaringin Barat, Kalimantan Tengah",KALIMANTAN TENGAH,,Indonesia,,,,-2.4128845,111.8330106,https://maps.google.com/?cid=0x0:0x7b81cc477671085b,
mall,Toko bahan makanan,Fe Mart Swalayan,"CP3Q+W9W, Pangkalan Durin, Kec. Pangkalan Lada, Kabupaten Kotawaringin Barat, Kalimantan Tengah 74117","Pangkalan Durin, Kec. Pangkalan Lada, Kabupaten Kotawaringin Barat",KALIMANTAN TENGAH,74117.0,Indonesia,,,,-2.5951395,111.7384448,https://maps.google.com/?cid=0x0:0x454f38bebc445ca1,
mall,Toko,CashMart,"GQHG+HFH, Pandu Senjaya, Kec. Pangkalan Lada, Kabupaten Kotawaringin Barat, Kalimantan Tengah 74184","Pandu Senjaya, Kec. Pangkalan Lada, Kabupaten Kotawaringin Barat",KALIMANTAN TENGAH,74184.0,Indonesia,82226053189.0,,,-2.4710729,111.7762411,https://maps.google.com/?cid=0x0:0x3aa84fe1ae1d09b4,
mall,Toko Pakaian,Toko serba 35,"Jl. Jenderal Sudirman No.3, Pandu Senjaya, Kec. Pangkalan Lada, Kabupaten Kotawaringin Barat, Kalimantan Tengah 74113","Pandu Senjaya, Kec. Pangkalan Lada, Kabupaten Kotawaringin Barat",KALIMANTAN TENGAH,74113.0,Indonesia,85697245144.0,,,-2.4743775,111.769856,https://maps.google.com/?cid=0x0:0x9ca5b5a2a205e2c1,
mall,Komplek perumahan,Toko Griya Raffa,"GRWP+QJ8, Pangkalan Tiga, Kec. Pangkalan Lada, Kabupaten Kotawaringin Barat, Kalimantan Tengah 74184","Pangkalan Tiga, Kec. Pangkalan Lada, Kabupaten Kotawaringin Barat",KALIMANTAN TENGAH,74184.0,Indonesia,85345577884.0,,,-2.453096,111.8365714,https://maps.google.com/?cid=0x0:0xf2461d0041f19e20,
mall,Pusat Perbelanjaan,MEGAMART,"CPFQ+R5J, Jl. Jenderal Ahmad Yani, Sumber Agung, Kec. Pangkalan Lada, Kabupaten Kotawaringin Barat, Kalimantan Tengah 74113","Jl. Jenderal Ahmad Yani, Sumber Agung, Kec. Pangkalan Lada, Kabupaten Kotawaringin Barat",KALIMANTAN TENGAH,74113.0,Indonesia,81351567745.0,,,-2.5754209,111.7378926,https://maps.google.com/?cid=0x0:0x7a348dffbf5d3d84,
mall,Kantor Pemerintah,Pasar Desa Sidomulyo,"HVX8+2X2, Sido Mulyo, Kec. Pangkalan Banteng, Kabupaten Kotawaringin Barat, Kalimantan Tengah 74184","Sido Mulyo, Kec. Pangkalan Banteng, Kabupaten Kotawaringin Barat",KALIMANTAN TENGAH,74184.0,Indonesia,85705121444.0,,,-2.4024775,111.867406,https://maps.google.com/?cid=0x0:0x8992f6d022597c7f,
mall,Bengkel tambal ban,Vullkanisir perkasa ban,"CPHR+FFV, Sumber Agung, Kec. Pangkalan Lada, Kabupaten Kotawaringin Barat, Kalimantan Tengah 74113","Sumber Agung, Kec. Pangkalan Lada, Kabupaten Kotawaringin Barat",KALIMANTAN TENGAH,74113.0,Indonesia,82214121246.0,,,-2.5712529,111.7411783,https://maps.google.com/?cid=0x0:0x9e544f548bec463d,
mall,Toko,Toko JAWA TIMUR,"GQ93+3CC, Jl. Jenderal Sudirman, Pandu Senjaya, Kec. Pangkalan Lada, Kabupaten Kotawaringin Barat, Kalimantan Tengah 74113","Jl. Jenderal Sudirman, Pandu Senjaya, Kec. Pangkalan Lada, Kabupaten Kotawaringin Barat",KALIMANTAN TENGAH,74113.0,Indonesia,85248375073.0,,,-2.4823093,111.7535138,https://maps.google.com/?cid=0x0:0xecab067d9ceb9e5e,
mall,Toko umum,Bettystore,"Sumber Agung, Kec. Pangkalan Lada, Kabupaten Kotawaringin Barat, Kalimantan Tengah 74113","Kec. Pangkalan Lada, Kabupaten Kotawaringin Barat",KALIMANTAN TENGAH,74113.0,Indonesia,,,,-2.5862427,111.7346032,https://maps.google.com/?cid=0x0:0xc9caed70fde9dd18,
mall,Pusat Perbelanjaan,Toko sederhana,"Unnamed Road, Lada Mandala Jaya, Kec. Pangkalan Lada, Kabupaten Kotawaringin Barat, Kalimantan Tengah 74184","Lada Mandala Jaya, Kec. Pangkalan Lada, Kabupaten Kotawaringin Barat",KALIMANTAN TENGAH,74184.0,Indonesia,82878149224.0,,,-2.511005,111.7764483,https://maps.google.com/?cid=0x0:0x48497cb92266803,
mall,Pusat Perbelanjaan,Sifa Nett,"CPGP+788, Gg. Banteng, Sumber Agung, Kec. Pangkalan Lada, Kabupaten Kotawaringin Barat, Kalimantan Tengah 74113","Gg. Banteng, Sumber Agung, Kec. Pangkalan Lada, Kabupaten Kotawaringin Barat",KALIMANTAN TENGAH,74113.0,Indonesia,81349249414.0,,,-2.5743471,111.7358236,https://maps.google.com/?cid=0x0:0x4e5286535bcc3533,
mall,,Isfianita Kholisatun,"GQFJ+P96, Pandu Senjaya, Kec. Pangkalan Lada, Kabupaten Kotawaringin Barat, Kalimantan Tengah 74184","Pandu Senjaya, Kec. Pangkalan Lada, Kabupaten Kotawaringin Barat",KALIMANTAN TENGAH,74184.0,Indonesia,83131403681.0,,,-2.4757076,111.7809011,https://maps.google.com/?cid=0x0:0x8cef2951163d1342,
mall,Toko Swalayan,Putra Karya Mandiri,"GWG4+78W, Jl. Ahmad Yani, Karangmulya, Kec. Pangkalan Banteng, Kabupaten Kotawaringin Barat, Kalimantan Tengah 74183","Jl. Ahmad Yani, Karangmulya, Kec. Pangkalan Banteng, Kabupaten Kotawaringin Barat",KALIMANTAN TENGAH,74183.0,Indonesia,85350476731.0,,,-2.4742661,111.9058331,https://maps.google.com/?cid=0x0:0xf681898830306a01,
mall,Toko Ponsel,Purnama Cell,"Kadipi Atas, Kec. Pangkalan Lada, Kabupaten Kotawaringin Barat, Kalimantan Tengah 74184","Kec. Pangkalan Lada, Kabupaten Kotawaringin Barat",KALIMANTAN TENGAH,74184.0,Indonesia,,,,-2.515362,111.7107209,https://maps.google.com/?cid=0x0:0x231c99097c91df7d,
mall,mall,Toko Arifa,"GR6F+RC7, Jl. Jenderal Sudirman, Pangkalan Dewa, Kec. Pangkalan Lada, Kabupaten Kotawaringin Barat, Kalimantan Tengah 74184","Jl. Jenderal Sudirman, Pangkalan Dewa, Kec. Pangkalan Lada, Kabupaten Kotawaringin Barat",KALIMANTAN TENGAH,74184.0,Indonesia,,,,-2.4879657,111.8235478,https://maps.google.com/?cid=0x0:0xf2d35860ad4699d2,
mall,Toko Pakaian,Toko serba 35,"Pangkalan lada 4, Kalimantan Tengah","Kabupaten Kotawaringin Barat, Kalimantan Tengah",KALIMANTAN TENGAH,,Indonesia,85697245144.0,,,-2.5728011,111.7402583,https://maps.google.com/?cid=0x0:0x36c529b922a69b8c,
mall,Toko Kosmetik,Distributor Nasa Kalimantan Tengah,"Desa mulya jadi kec.pangkalan banteng kab.kobar.kalteng 6.dasa mulya jadi kec.p.banteng pangkalan bun, Mulya Jadi, Kec. Pangkalan Banteng, Kabupaten Kotawaringin Barat, Kalimantan Tengah 74181","Mulya Jadi, Kec. Pangkalan Banteng, Kabupaten Kotawaringin Barat",KALIMANTAN TENGAH,74181.0,Indonesia,85248695591.0,,,-2.5682248,111.8647347,https://maps.google.com/?cid=0x0:0x3af780ac773896c2,
mall,Salon Rambut,Pangkas Rambut Pria,"GQHM+M63, Unnamed Road, Pandu Senjaya, Kec. Pangkalan Lada, Kabupaten Kotawaringin Barat, Kalimantan Tengah 74184","Unnamed Road, Pandu Senjaya, Kec. Pangkalan Lada, Kabupaten Kotawaringin Barat",KALIMANTAN TENGAH,74184.0,Indonesia,82251914740.0,,,-2.4708629,111.7830482,https://maps.google.com/?cid=0x0:0xfaa246cfaf600b6e,
mall,Minimarket,Indomaret A Yani km 50 Pangkalan bun,"Jl. Ahmad Yani No.50, Pangkalan Tiga, Kec. Pangkalan Lada, Kabupaten Kotawaringin Barat, Kalimantan Tengah 74184","Pangkalan Tiga, Kec. Pangkalan Lada, Kabupaten Kotawaringin Barat",KALIMANTAN TENGAH,74184.0,Indonesia,,,,-2.4560162,111.8358123,https://maps.google.com/?cid=0x0:0xa1b51b295cdabeae,
mall,Restoran,Warung Mbah Mukidi,"GRXP+F39, Pangkalan Tiga, Kec. Pangkalan Lada, Kabupaten Kotawaringin Barat, Kalimantan Tengah 74184","Pangkalan Tiga, Kec. Pangkalan Lada, Kabupaten Kotawaringin Barat",KALIMANTAN TENGAH,74184.0,Indonesia,,,,-2.451331,111.8352306,https://maps.google.com/?cid=0x0:0xa4cbf2dc318df805,
mall,Kantor Pemerintah,Bumdes Sejahtera Mulya,"HVW8+VJC, Unnamed Road, Sido Mulyo, Kec. Pangkalan Banteng, Kabupaten Kotawaringin Barat, Kalimantan Tengah 74184","Unnamed Road, Sido Mulyo, Kec. Pangkalan Banteng, Kabupaten Kotawaringin Barat",KALIMANTAN TENGAH,74184.0,Indonesia,82158621414.0,,,-2.4028071,111.866501,https://maps.google.com/?cid=0x0:0x8bc365a849a6cded,
supermarket,supermarket,Kalimantan Tengah 74111,"Kec. Arut Sel., Kabupaten Kotawaringin Barat, Kalimantan Tengah","Kabupaten Kotawaringin Barat, Kalimantan Tengah",KALIMANTAN TENGAH,,Indonesia,,,,-2.6520279,111.6362619,https://maps.google.com/?cid=0x0:0x2253408f4577629c,
supermarket,,Pelangi Supermarket,"JL. Prakusumayudha, No. 29, Arut Selatan, 74151, Mendawai, Kec. Arut Sel., Kabupaten Kotawaringin Barat, Kalimantan Tengah 74112","Arut Selatan,",KALIMANTAN TENGAH,74151.0,Indonesia,53222272.0,,,-2.6773027,111.6298096,https://maps.google.com/?cid=0x0:0x9003aba07f501dee,
supermarket,Toko bahan makanan,Borneo Swalayan,"8J8W+8QX, Jl. Kawitan I, Sidorejo, Kec. Arut Sel., Kabupaten Kotawaringin Barat, Kalimantan Tengah 74112","Jl. Kawitan I, Sidorejo, Kec. Arut Sel., Kabupaten Kotawaringin Barat",KALIMANTAN TENGAH,74112.0,Indonesia,53224521.0,,,-2.6841275,111.6469727,https://maps.google.com/?cid=0x0:0xda5cad380efdc4c0,
supermarket,Toko Peralatan dan Bahan Kue,Sinar Jaya Swalayan,"Sidorejo, Kec. Arut Sel., Kabupaten Kotawaringin Barat, Kalimantan Tengah 74112","Kec. Arut Sel., Kabupaten Kotawaringin Barat",KALIMANTAN TENGAH,74112.0,Indonesia,82297956693.0,,,-2.6847201,111.6312065,https://maps.google.com/?cid=0x0:0xd32fbf222b5b8431,
supermarket,Toko bahan makanan,Swalayan Borneo,"Jalan Cilik Riwut No.1, Sidorejo, South Arut, West Kotawaringin Regency, Central Kalimantan 74112","Sidorejo, South Arut, West Kotawaringin Regency",KALIMANTAN TENGAH,74112.0,Indonesia,,,,-2.688962,111.622398,https://maps.google.com/?cid=0x0:0xdcc3537f30150036,
supermarket,Toko bahan makanan,Borneo Supermarket,"8MP4+578, Gg. Rarait 9, Baru, Kec. Arut Sel., Kabupaten Kotawaringin Barat, Kalimantan Tengah 74112","Gg. Rarait 9, Baru, Kec. Arut Sel., Kabupaten Kotawaringin Barat",KALIMANTAN TENGAH,74112.0,Indonesia,,,,-2.6645842,111.6557153,https://maps.google.com/?cid=0x0:0x797289385200434f,
supermarket,Grosir,Surya Kencana Swalayan,"8JFH+665, Jl. Pangeran Antasari, Raja, Kec. Arut Sel., Kabupaten Kotawaringin Barat, Kalimantan Tengah 74112","Jl. Pangeran Antasari, Raja, Kec. Arut Sel., Kabupaten Kotawaringin Barat",KALIMANTAN TENGAH,74112.0,Indonesia,,,,-2.676979,111.6281051,https://maps.google.com/?cid=0x0:0xe9c46a115e91d12f,
supermarket,Toserba,HB SWALAYAN,"8JHQ+Q5X, Jl. Sukma Aryaningrat, Baru, Kec. Arut Sel., Kabupaten Kotawaringin Barat, Kalimantan Tengah 74112","Jl. Sukma Aryaningrat, Baru, Kec. Arut Sel., Kabupaten Kotawaringin Barat",KALIMANTAN TENGAH,74112.0,Indonesia,,,,-2.6705201,111.6379873,https://maps.google.com/?cid=0x0:0x3960c1ffefc1048,
supermarket,Toko bahan makanan,Borneo Supermarket HM. Rafi'i,"7JHR+QFR, Jl. HM. Rafi'i, Madurejo, Kec. Arut Sel., Kabupaten Kotawaringin Barat, Kalimantan Tengah 74181","Jl. HM. Rafi'i, Madurejo, Kec. Arut Sel., Kabupaten Kotawaringin Barat",KALIMANTAN TENGAH,74181.0,Indonesia,5322030782.0,,,-2.7205221,111.6411503,https://maps.google.com/?cid=0x0:0xe312b99a542aea69,
supermarket,Toko bahan makanan,Minimarket TULIP,"8JHP+26Q, Baru, Kec. Arut Sel., Kabupaten Kotawaringin Barat, Kalimantan Tengah 74112","Baru, Kec. Arut Sel., Kabupaten Kotawaringin Barat",KALIMANTAN TENGAH,74112.0,Indonesia,,,,-2.6724045,111.6355964,https://maps.google.com/?cid=0x0:0x76563ccfc18a8cf0,
supermarket,Toko bahan makanan,Si Mbok Mart,"8JHQ+Q8M, Jl. Sukma Aryaningrat, Baru, Kec. Arut Sel., Kabupaten Kotawaringin Barat, Kalimantan Tengah 74112","Jl. Sukma Aryaningrat, Baru, Kec. Arut Sel., Kabupaten Kotawaringin Barat",KALIMANTAN TENGAH,74112.0,Indonesia,,,,-2.6705402,111.6382981,https://maps.google.com/?cid=0x0:0xc6be3fa21de8e47f,
supermarket,Toko bahan makanan,Toko Sri Rejeki,"8JJW+458, Jl. Ahmad Yani, Baru, Kec. Arut Sel., Kabupaten Kotawaringin Barat, Kalimantan Tengah 74112","Jl. Ahmad Yani, Baru, Kec. Arut Sel., Kabupaten Kotawaringin Barat",KALIMANTAN TENGAH,74112.0,Indonesia,,,,-2.6697151,111.6454605,https://maps.google.com/?cid=0x0:0xef064cd78849e9,
supermarket,Pusat Perbelanjaan,Hypermart - Citimall Pangkalan Bun,"Jl. Utama Pasir Panjang No.22, Madurejo, Kec. Arut Sel., Kabupaten Kotawaringin Barat, Kalimantan Tengah 74117","Madurejo, Kec. Arut Sel., Kabupaten Kotawaringin Barat",KALIMANTAN TENGAH,74117.0,Indonesia,82157351068.0,,,-2.7104383,111.6503057,https://maps.google.com/?cid=0x0:0x7c46c8beb3b947f4,
supermarket,Minimarket,BB MART Mini Market,"8JJW+HQF, Jl. Ahmad Yani, Baru, Kec. Arut Sel., Kabupaten Kotawaringin Barat, Kalimantan Tengah 74112","Jl. Ahmad Yani, Baru, Kec. Arut Sel., Kabupaten Kotawaringin Barat",KALIMANTAN TENGAH,74112.0,Indonesia,5326615756.0,,,-2.6685654,111.6469349,https://maps.google.com/?cid=0x0:0xf2f6815ec5fc3a91,
supermarket,Minimarket,SA berkat BUDI MULYA,"8JJP+6P2, Baru, Kec. Arut Sel., Kabupaten Kotawaringin Barat, Kalimantan Tengah 74112","Baru, Kec. Arut Sel., Kabupaten Kotawaringin Barat",KALIMANTAN TENGAH,74112.0,Indonesia,,,,-2.6694946,111.6367597,https://maps.google.com/?cid=0x0:0xeb24c26d8fbb9e9b,
supermarket,Toko Swalayan,Toko Silva.,"8JCR+FXC, Jl. PKGB 2, Sidorejo, Kec. Arut Sel., Kabupaten Kotawaringin Barat, Kalimantan Tengah 74112","Jl. PKGB 2, Sidorejo, Kec. Arut Sel., Kabupaten Kotawaringin Barat",KALIMANTAN TENGAH,74112.0,Indonesia,818618599.0,,,-2.6788239,111.6423788,https://maps.google.com/?cid=0x0:0x3ae7fdd1ff9a721b,
supermarket,Toko bahan makanan,Dewi Rose Market,"8JPW+5X3, Jl. GM. Arsad, Baru, Kec. Arut Sel., Kabupaten Kotawaringin Barat, Kalimantan Tengah 74112","Jl. GM. Arsad, Baru, Kec. Arut Sel., Kabupaten Kotawaringin Barat",KALIMANTAN TENGAH,74112.0,Indonesia,82154709729.0,,,-2.6646087,111.6474248,https://maps.google.com/?cid=0x0:0xa9f7b19da79c9c3,
supermarket,Toko Swalayan,GRIYA TAMAN BAHAGIA,"8J6C+CX6, JALAN GRIYA, Mendawai, Kec. Arut Sel., Kabupaten Kotawaringin Barat, Kalimantan Tengah 74112","JALAN GRIYA, Mendawai, Kec. Arut Sel., Kabupaten Kotawaringin Barat",KALIMANTAN TENGAH,74112.0,Indonesia,,,,-2.688962,111.622398,https://maps.google.com/?cid=0x0:0x250ae5ef834aa7cd,
supermarket,Toko bahan makanan,Toko mulya jaya,"8J5G+RFG, Jl. Jenderal Sudirman, Sidorejo, Kec. Arut Sel., Kabupaten Kotawaringin Barat, Kalimantan Tengah 74112","Jl. Jenderal Sudirman, Sidorejo, Kec. Arut Sel., Kabupaten Kotawaringin Barat",KALIMANTAN TENGAH,74112.0,Indonesia,,,,-2.6904481,111.6262093,https://maps.google.com/?cid=0x0:0x1bd2cbff56342d94,
supermarket,Minimarket,Toko ibu lilik,"8J3F+G8G, jl.Rajawali kalimantan tengah Bamban, Sidorejo, Kec. Arut Sel., Kabupaten Kotawaringin Barat, Kalimantan Tengah 74112","jl.Rajawali kalimantan tengah Bamban, Sidorejo, Kec. Arut Sel., Kabupaten Kotawaringin Barat",KALIMANTAN TENGAH,74112.0,Indonesia,81251883265.0,,,-2.696229,111.623497,https://maps.google.com/?cid=0x0:0x45191f6af1201be1,
supermarket,Toko bahan makanan,Toko ALENA,"Jl. H.Delima, Baru, Kec. Arut Sel., Kabupaten Kotawaringin Barat, Kalimantan Tengah 74112","Baru, Kec. Arut Sel., Kabupaten Kotawaringin Barat",KALIMANTAN TENGAH,74112.0,Indonesia,81253033392.0,,,-2.6540006,111.6576897,https://maps.google.com/?cid=0x0:0x7c204bd9033ea093,
supermarket,supermarket,Kalimantan Tengah 74112,"Kec. Arut Sel., Kabupaten Kotawaringin Barat, Kalimantan Tengah","Kabupaten Kotawaringin Barat, Kalimantan Tengah",KALIMANTAN TENGAH,,Indonesia,,,,-2.6703594,111.6481861,https://maps.google.com/?cid=0x0:0xb2a8a9e52752a154,
supermarket,Toko bahan makanan,Borneo Swalayan,"8J8W+8QX, Jl. Kawitan I, Sidorejo, Kec. Arut Sel., Kabupaten Kotawaringin Barat, Kalimantan Tengah 74112","Jl. Kawitan I, Sidorejo, Kec. Arut Sel., Kabupaten Kotawaringin Barat",KALIMANTAN TENGAH,74112.0,Indonesia,53224521.0,,,-2.6841275,111.6469727,https://maps.google.com/?cid=0x0:0xda5cad380efdc4c0,
supermarket,,Pelangi Supermarket,"JL. Prakusumayudha, No. 29, Arut Selatan, 74151, Mendawai, Kec. Arut Sel., Kabupaten Kotawaringin Barat, Kalimantan Tengah 74112","Arut Selatan,",KALIMANTAN TENGAH,74151.0,Indonesia,53222272.0,,,-2.6773027,111.6298096,https://maps.google.com/?cid=0x0:0x9003aba07f501dee,
supermarket,Toko bahan makanan,BALI INDAH Mart,"8JFG+4XR, Raja, Kec. Arut Sel., Kabupaten Kotawaringin Barat, Kalimantan Tengah 74112","Raja, Kec. Arut Sel., Kabupaten Kotawaringin Barat",KALIMANTAN TENGAH,74112.0,Indonesia,81258221688.0,,,-2.6771313,111.6273969,https://maps.google.com/?cid=0x0:0xaafa852028be4b29,
supermarket,Toko bahan makanan,Swalayan Borneo,"Jalan Cilik Riwut No.1, Sidorejo, South Arut, West Kotawaringin Regency, Central Kalimantan 74112","Sidorejo, South Arut, West Kotawaringin Regency",KALIMANTAN TENGAH,74112.0,Indonesia,,,,-2.688962,111.622398,https://maps.google.com/?cid=0x0:0xdcc3537f30150036,
supermarket,Toko bahan makanan,Borneo Supermarket,"8MP4+578, Gg. Rarait 9, Baru, Kec. Arut Sel., Kabupaten Kotawaringin Barat, Kalimantan Tengah 74112","Gg. Rarait 9, Baru, Kec. Arut Sel., Kabupaten Kotawaringin Barat",KALIMANTAN TENGAH,74112.0,Indonesia,,,,-2.6645842,111.6557153,https://maps.google.com/?cid=0x0:0x797289385200434f,
supermarket,Grosir,Surya Kencana Swalayan,"8JFH+665, Jl. Pangeran Antasari, Raja, Kec. Arut Sel., Kabupaten Kotawaringin Barat, Kalimantan Tengah 74112","Jl. Pangeran Antasari, Raja, Kec. Arut Sel., Kabupaten Kotawaringin Barat",KALIMANTAN TENGAH,74112.0,Indonesia,,,,-2.676979,111.6281051,https://maps.google.com/?cid=0x0:0xe9c46a115e91d12f,
supermarket,Toko bahan makanan,Minimarket TULIP,"8JHP+26Q, Baru, Kec. Arut Sel., Kabupaten Kotawaringin Barat, Kalimantan Tengah 74112","Baru, Kec. Arut Sel., Kabupaten Kotawaringin Barat",KALIMANTAN TENGAH,74112.0,Indonesia,,,,-2.6724045,111.6355964,https://maps.google.com/?cid=0x0:0x76563ccfc18a8cf0,
supermarket,Toserba,HB SWALAYAN,"8JHQ+Q5X, Jl. Sukma Aryaningrat, Baru, Kec. Arut Sel., Kabupaten Kotawaringin Barat, Kalimantan Tengah 74112","Jl. Sukma Aryaningrat, Baru, Kec. Arut Sel., Kabupaten Kotawaringin Barat",KALIMANTAN TENGAH,74112.0,Indonesia,,,,-2.6705201,111.6379873,https://maps.google.com/?cid=0x0:0x3960c1ffefc1048,
supermarket,Toko bahan makanan,Borneo Supermarket HM. Rafi'i,"7JHR+QFR, Jl. HM. Rafi'i, Madurejo, Kec. Arut Sel., Kabupaten Kotawaringin Barat, Kalimantan Tengah 74181","Jl. HM. Rafi'i, Madurejo, Kec. Arut Sel., Kabupaten Kotawaringin Barat",KALIMANTAN TENGAH,74181.0,Indonesia,5322030782.0,,,-2.7205221,111.6411503,https://maps.google.com/?cid=0x0:0xe312b99a542aea69,
supermarket,Toko bahan makanan,Si Mbok Mart,"8JHQ+Q8M, Jl. Sukma Aryaningrat, Baru, Kec. Arut Sel., Kabupaten Kotawaringin Barat, Kalimantan Tengah 74112","Jl. Sukma Aryaningrat, Baru, Kec. Arut Sel., Kabupaten Kotawaringin Barat",KALIMANTAN TENGAH,74112.0,Indonesia,,,,-2.6705402,111.6382981,https://maps.google.com/?cid=0x0:0xc6be3fa21de8e47f,
supermarket,Toko bahan makanan,Toko Sri Rejeki,"8JJW+458, Jl. Ahmad Yani, Baru, Kec. Arut Sel., Kabupaten Kotawaringin Barat, Kalimantan Tengah 74112","Jl. Ahmad Yani, Baru, Kec. Arut Sel., Kabupaten Kotawaringin Barat",KALIMANTAN TENGAH,74112.0,Indonesia,,,,-2.6697151,111.6454605,https://maps.google.com/?cid=0x0:0xef064cd78849e9,
supermarket,Minimarket,BB MART Mini Market,"8JJW+HQF, Jl. Ahmad Yani, Baru, Kec. Arut Sel., Kabupaten Kotawaringin Barat, Kalimantan Tengah 74112","Jl. Ahmad Yani, Baru, Kec. Arut Sel., Kabupaten Kotawaringin Barat",KALIMANTAN TENGAH,74112.0,Indonesia,5326615756.0,,,-2.6685654,111.6469349,https://maps.google.com/?cid=0x0:0xf2f6815ec5fc3a91,
supermarket,Toko bahan makanan,Toko mulya jaya,"8J5G+RFG, Jl. Jenderal Sudirman, Sidorejo, Kec. Arut Sel., Kabupaten Kotawaringin Barat, Kalimantan Tengah 74112","Jl. Jenderal Sudirman, Sidorejo, Kec. Arut Sel., Kabupaten Kotawaringin Barat",KALIMANTAN TENGAH,74112.0,Indonesia,,,,-2.6904481,111.6262093,https://maps.google.com/?cid=0x0:0x1bd2cbff56342d94,
supermarket,Pusat Perbelanjaan,Hypermart - Citimall Pangkalan Bun,"Jl. Utama Pasir Panjang No.22, Madurejo, Kec. Arut Sel., Kabupaten Kotawaringin Barat, Kalimantan Tengah 74117","Madurejo, Kec. Arut Sel., Kabupaten Kotawaringin Barat",KALIMANTAN TENGAH,74117.0,Indonesia,82157351068.0,,,-2.7104383,111.6503057,https://maps.google.com/?cid=0x0:0x7c46c8beb3b947f4,
supermarket,Pusat Perbelanjaan,Toko Ridho Pemuda,"Jl. Pemuda No.RT. 018, Madurejo, Kec. Arut Sel., Kabupaten Kotawaringin Barat, Kalimantan Tengah 74112","Madurejo, Kec. Arut Sel., Kabupaten Kotawaringin Barat",KALIMANTAN TENGAH,74112.0,Indonesia,85392224623.0,,,-2.7052487,111.6405974,https://maps.google.com/?cid=0x0:0xcac027762929a505,
supermarket,Minimarket,Toko ibu lilik,"8J3F+G8G, jl.Rajawali kalimantan tengah Bamban, Sidorejo, Kec. Arut Sel., Kabupaten Kotawaringin Barat, Kalimantan Tengah 74112","jl.Rajawali kalimantan tengah Bamban, Sidorejo, Kec. Arut Sel., Kabupaten Kotawaringin Barat",KALIMANTAN TENGAH,74112.0,Indonesia,81251883265.0,,,-2.696229,111.623497,https://maps.google.com/?cid=0x0:0x45191f6af1201be1,
supermarket,Toko Swalayan,GRIYA TAMAN BAHAGIA,"8J6C+CX6, JALAN GRIYA, Mendawai, Kec. Arut Sel., Kabupaten Kotawaringin Barat, Kalimantan Tengah 74112","JALAN GRIYA, Mendawai, Kec. Arut Sel., Kabupaten Kotawaringin Barat",KALIMANTAN TENGAH,74112.0,Indonesia,,,,-2.688962,111.622398,https://maps.google.com/?cid=0x0:0x250ae5ef834aa7cd,
supermarket,Toko Swalayan,Toko Silva.,"8JCR+FXC, Jl. PKGB 2, Sidorejo, Kec. Arut Sel., Kabupaten Kotawaringin Barat, Kalimantan Tengah 74112","Jl. PKGB 2, Sidorejo, Kec. Arut Sel., Kabupaten Kotawaringin Barat",KALIMANTAN TENGAH,74112.0,Indonesia,818618599.0,,,-2.6788239,111.6423788,https://maps.google.com/?cid=0x0:0x3ae7fdd1ff9a721b,
supermarket,Toko makanan beku,Greensshop,"Jl. Pangeran Diponegoro No.40, Sidorejo, Kec. Arut Sel., Kabupaten Kotawaringin Barat, Kalimantan Tengah 74112","Sidorejo, Kec. Arut Sel., Kabupaten Kotawaringin Barat",KALIMANTAN TENGAH,74112.0,Indonesia,85387169999.0,,,-2.6846223,111.6311596,https://maps.google.com/?cid=0x0:0x604a8e5fe764079e,
supermarket,Toko Alat Tulis Kantor,Toko Prima Stationery,"Jl. Kawitan I, Sidorejo, Kec. Arut Sel., Kabupaten Kotawaringin Barat, Kalimantan Tengah 74112","Sidorejo, Kec. Arut Sel., Kabupaten Kotawaringin Barat",KALIMANTAN TENGAH,74112.0,Indonesia,82351083103.0,,,-2.6824991,111.641008,https://maps.google.com/?cid=0x0:0x14d3f4c1cf68220b,
supermarket,Minimarket,Alfamart Jalan Diponegoro Pangkalan Bun,"8J5P+V3X, Jl. Pangeran Diponegoro, Madurejo, Kec. Arut Sel., Kabupaten Kotawaringin Barat, Kalimantan Tengah 74112","Jl. Pangeran Diponegoro, Madurejo, Kec. Arut Sel., Kabupaten Kotawaringin Barat",KALIMANTAN TENGAH,74112.0,Indonesia,,,,-2.6902731,111.6352213,https://maps.google.com/?cid=0x0:0xdefb2fc742385d0f,
supermarket,Toko bahan makanan,Dewi Rose Market,"8JPW+5X3, Jl. GM. Arsad, Baru, Kec. Arut Sel., Kabupaten Kotawaringin Barat, Kalimantan Tengah 74112","Jl. GM. Arsad, Baru, Kec. Arut Sel., Kabupaten Kotawaringin Barat",KALIMANTAN TENGAH,74112.0,Indonesia,82154709729.0,,,-2.6646087,111.6474248,https://maps.google.com/?cid=0x0:0xa9f7b19da79c9c3,
supermarket,supermarket,Kalimantan Tengah 74113,"Kabupaten Kotawaringin Barat, Kalimantan Tengah","Kabupaten Kotawaringin Barat, Kalimantan Tengah",KALIMANTAN TENGAH,,Indonesia,,,,-2.4702354,111.7137694,https://maps.google.com/?cid=0x0:0x6a2f96cf641bd2e0,
supermarket,Toko bahan makanan,Borneo Swalayan,"8J8W+8QX, Jl. Kawitan I, Sidorejo, Kec. Arut Sel., Kabupaten Kotawaringin Barat, Kalimantan Tengah 74112","Jl. Kawitan I, Sidorejo, Kec. Arut Sel., Kabupaten Kotawaringin Barat",KALIMANTAN TENGAH,74112.0,Indonesia,53224521.0,,,-2.6841275,111.6469727,https://maps.google.com/?cid=0x0:0xda5cad380efdc4c0,
supermarket,,Pelangi Supermarket,"JL. Prakusumayudha, No. 29, Arut Selatan, 74151, Mendawai, Kec. Arut Sel., Kabupaten Kotawaringin Barat, Kalimantan Tengah 74112","Arut Selatan,",KALIMANTAN TENGAH,74151.0,Indonesia,53222272.0,,,-2.6773027,111.6298096,https://maps.google.com/?cid=0x0:0x9003aba07f501dee,
supermarket,Toko Swalayan,Srigaluh,"GQHH+RGF, Jl. Jenderal Sudirman, Pandu Senjaya, Kec. Pangkalan Lada, Kabupaten Kotawaringin Barat, Kalimantan Tengah 74184","Jl. Jenderal Sudirman, Pandu Senjaya, Kec. Pangkalan Lada, Kabupaten Kotawaringin Barat",KALIMANTAN TENGAH,74184.0,Indonesia,,,,-2.4704376,111.7788082,https://maps.google.com/?cid=0x0:0xea8ce6025cc7db1a,
supermarket,Toko bahan makanan,Swalayan Borneo,"Jalan Cilik Riwut No.1, Sidorejo, South Arut, West Kotawaringin Regency, Central Kalimantan 74112","Sidorejo, South Arut, West Kotawaringin Regency",KALIMANTAN TENGAH,74112.0,Indonesia,,,,-2.688962,111.622398,https://maps.google.com/?cid=0x0:0xdcc3537f30150036,
supermarket,Toko bahan makanan,BALI INDAH Mart,"8JFG+4XR, Raja, Kec. Arut Sel., Kabupaten Kotawaringin Barat, Kalimantan Tengah 74112","Raja, Kec. Arut Sel., Kabupaten Kotawaringin Barat",KALIMANTAN TENGAH,74112.0,Indonesia,81258221688.0,,,-2.6771313,111.6273969,https://maps.google.com/?cid=0x0:0xaafa852028be4b29,
supermarket,Toko bahan makanan,Borneo Supermarket,"8MP4+578, Gg. Rarait 9, Baru, Kec. Arut Sel., Kabupaten Kotawaringin Barat, Kalimantan Tengah 74112","Gg. Rarait 9, Baru, Kec. Arut Sel., Kabupaten Kotawaringin Barat",KALIMANTAN TENGAH,74112.0,Indonesia,,,,-2.6645842,111.6557153,https://maps.google.com/?cid=0x0:0x797289385200434f,
supermarket,Toko,Toko Biru (Toko Kelontong Pak Sadi),"Jalan Raya Runtu Batu KM 12 (sebelum pos satpam Sinar Mas kalau dari arah Pangkalan Bun, Runtu, Kec. Arut Sel., Kabupaten Kotawaringin Barat, Kalimantan Tengah 74113","Runtu, Kec. Arut Sel., Kabupaten Kotawaringin Barat",KALIMANTAN TENGAH,74113.0,Indonesia,82282351618.0,,,-2.4087463,111.7349646,https://maps.google.com/?cid=0x0:0xbf62488bcfeaaffe,
supermarket,Grosir,Surya Kencana Swalayan,"8JFH+665, Jl. Pangeran Antasari, Raja, Kec. Arut Sel., Kabupaten Kotawaringin Barat, Kalimantan Tengah 74112","Jl. Pangeran Antasari, Raja, Kec. Arut Sel., Kabupaten Kotawaringin Barat",KALIMANTAN TENGAH,74112.0,Indonesia,,,,-2.676979,111.6281051,https://maps.google.com/?cid=0x0:0xe9c46a115e91d12f,
supermarket,Toko bahan makanan,Borneo Supermarket HM. Rafi'i,"7JHR+QFR, Jl. HM. Rafi'i, Madurejo, Kec. Arut Sel., Kabupaten Kotawaringin Barat, Kalimantan Tengah 74181","Jl. HM. Rafi'i, Madurejo, Kec. Arut Sel., Kabupaten Kotawaringin Barat",KALIMANTAN TENGAH,74181.0,Indonesia,5322030782.0,,,-2.7205221,111.6411503,https://maps.google.com/?cid=0x0:0xe312b99a542aea69,
supermarket,Minimarket,Toko Soeprapto,"CP7P+J7V, Sumber Agung, Kec. Pangkalan Lada, Kabupaten Kotawaringin Barat, Kalimantan Tengah 74113","Sumber Agung, Kec. Pangkalan Lada, Kabupaten Kotawaringin Barat",KALIMANTAN TENGAH,74113.0,Indonesia,,,,-2.585887,111.73567,https://maps.google.com/?cid=0x0:0x2e37d9020928190e,
supermarket,Toserba,HB SWALAYAN,"8JHQ+Q5X, Jl. Sukma Aryaningrat, Baru, Kec. Arut Sel., Kabupaten Kotawaringin Barat, Kalimantan Tengah 74112","Jl. Sukma Aryaningrat, Baru, Kec. Arut Sel., Kabupaten Kotawaringin Barat",KALIMANTAN TENGAH,74112.0,Indonesia,,,,-2.6705201,111.6379873,https://maps.google.com/?cid=0x0:0x3960c1ffefc1048,
supermarket,Pusat Perbelanjaan,Hypermart - Citimall Pangkalan Bun,"Jl. Utama Pasir Panjang No.22, Madurejo, Kec. Arut Sel., Kabupaten Kotawaringin Barat, Kalimantan Tengah 74117","Madurejo, Kec. Arut Sel., Kabupaten Kotawaringin Barat",KALIMANTAN TENGAH,74117.0,Indonesia,82157351068.0,,,-2.7104383,111.6503057,https://maps.google.com/?cid=0x0:0x7c46c8beb3b947f4,
supermarket,Toko Swalayan,Toko galaxy,"FPCR+4W2, Sungai Melawen, Kec. Pangkalan Lada, Kabupaten Kotawaringin Barat, Kalimantan Tengah 74113","Sungai Melawen, Kec. Pangkalan Lada, Kabupaten Kotawaringin Barat",KALIMANTAN TENGAH,74113.0,Indonesia,85732207033.0,,,-2.5297302,111.7422652,https://maps.google.com/?cid=0x0:0xc3f2a430cb528a48,
supermarket,Toko bahan makanan,Toko Sri Rejeki,"8JJW+458, Jl. Ahmad Yani, Baru, Kec. Arut Sel., Kabupaten Kotawaringin Barat, Kalimantan Tengah 74112","Jl. Ahmad Yani, Baru, Kec. Arut Sel., Kabupaten Kotawaringin Barat",KALIMANTAN TENGAH,74112.0,Indonesia,,,,-2.6697151,111.6454605,https://maps.google.com/?cid=0x0:0xef064cd78849e9,
supermarket,Toko Swalayan,Toko Swalayan Gaung,"Pandu Senjaya, Kec. Pangkalan Lada, Kabupaten Kotawaringin Barat, Kalimantan Tengah 74184","Kec. Pangkalan Lada, Kabupaten Kotawaringin Barat",KALIMANTAN TENGAH,74184.0,Indonesia,,,,-2.4694269,111.7802379,https://maps.google.com/?cid=0x0:0x66c1b3f809e9992e,
supermarket,Toko bahan makanan,Minimarket TULIP,"8JHP+26Q, Baru, Kec. Arut Sel., Kabupaten Kotawaringin Barat, Kalimantan Tengah 74112","Baru, Kec. Arut Sel., Kabupaten Kotawaringin Barat",KALIMANTAN TENGAH,74112.0,Indonesia,,,,-2.6724045,111.6355964,https://maps.google.com/?cid=0x0:0x76563ccfc18a8cf0,
supermarket,Toko bahan makanan,Si Mbok Mart,"8JHQ+Q8M, Jl. Sukma Aryaningrat, Baru, Kec. Arut Sel., Kabupaten Kotawaringin Barat, Kalimantan Tengah 74112","Jl. Sukma Aryaningrat, Baru, Kec. Arut Sel., Kabupaten Kotawaringin Barat",KALIMANTAN TENGAH,74112.0,Indonesia,,,,-2.6705402,111.6382981,https://maps.google.com/?cid=0x0:0xc6be3fa21de8e47f,
supermarket,Toko bahan makanan,Toko ALENA,"Jl. H.Delima, Baru, Kec. Arut Sel., Kabupaten Kotawaringin Barat, Kalimantan Tengah 74112","Baru, Kec. Arut Sel., Kabupaten Kotawaringin Barat",KALIMANTAN TENGAH,74112.0,Indonesia,81253033392.0,,,-2.6540006,111.6576897,https://maps.google.com/?cid=0x0:0x7c204bd9033ea093,
supermarket,Minimarket,BB MART Mini Market,"8JJW+HQF, Jl. Ahmad Yani, Baru, Kec. Arut Sel., Kabupaten Kotawaringin Barat, Kalimantan Tengah 74112","Jl. Ahmad Yani, Baru, Kec. Arut Sel., Kabupaten Kotawaringin Barat",KALIMANTAN TENGAH,74112.0,Indonesia,5326615756.0,,,-2.6685654,111.6469349,https://maps.google.com/?cid=0x0:0xf2f6815ec5fc3a91,
supermarket,Toko bahan makanan,Toko mulya jaya,"8J5G+RFG, Jl. Jenderal Sudirman, Sidorejo, Kec. Arut Sel., Kabupaten Kotawaringin Barat, Kalimantan Tengah 74112","Jl. Jenderal Sudirman, Sidorejo, Kec. Arut Sel., Kabupaten Kotawaringin Barat",KALIMANTAN TENGAH,74112.0,Indonesia,,,,-2.6904481,111.6262093,https://maps.google.com/?cid=0x0:0x1bd2cbff56342d94,
supermarket,Toko bahan makanan,Borneo Swalayan,"8J8W+8QX, Jl. Kawitan I, Sidorejo, Kec. Arut Sel., Kabupaten Kotawaringin Barat, Kalimantan Tengah 74112","Jl. Kawitan I, Sidorejo, Kec. Arut Sel., Kabupaten Kotawaringin Barat",KALIMANTAN TENGAH,74112.0,Indonesia,53224521.0,,,-2.6841275,111.6469727,https://maps.google.com/?cid=0x0:0xda5cad380efdc4c0,
supermarket,Toko bahan makanan,Borneo Supermarket HM. Rafi'i,"7JHR+QFR, Jl. HM. Rafi'i, Madurejo, Kec. Arut Sel., Kabupaten Kotawaringin Barat, Kalimantan Tengah 74181","Jl. HM. Rafi'i, Madurejo, Kec. Arut Sel., Kabupaten Kotawaringin Barat",KALIMANTAN TENGAH,74181.0,Indonesia,5322030782.0,,,-2.7205221,111.6411503,https://maps.google.com/?cid=0x0:0xe312b99a542aea69,
supermarket,,Pelangi Supermarket,"JL. Prakusumayudha, No. 29, Arut Selatan, 74151, Mendawai, Kec. Arut Sel., Kabupaten Kotawaringin Barat, Kalimantan Tengah 74112","Arut Selatan,",KALIMANTAN TENGAH,74151.0,Indonesia,53222272.0,,,-2.6773027,111.6298096,https://maps.google.com/?cid=0x0:0x9003aba07f501dee,
supermarket,Pusat Perbelanjaan,Hypermart - Citimall Pangkalan Bun,"Jl. Utama Pasir Panjang No.22, Madurejo, Kec. Arut Sel., Kabupaten Kotawaringin Barat, Kalimantan Tengah 74117","Madurejo, Kec. Arut Sel., Kabupaten Kotawaringin Barat",KALIMANTAN TENGAH,74117.0,Indonesia,82157351068.0,,,-2.7104383,111.6503057,https://maps.google.com/?cid=0x0:0x7c46c8beb3b947f4,
supermarket,Toko Peralatan dan Bahan Kue,Sinar Jaya Swalayan,"Sidorejo, Kec. Arut Sel., Kabupaten Kotawaringin Barat, Kalimantan Tengah 74112","Kec. Arut Sel., Kabupaten Kotawaringin Barat",KALIMANTAN TENGAH,74112.0,Indonesia,82297956693.0,,,-2.6847201,111.6312065,https://maps.google.com/?cid=0x0:0xd32fbf222b5b8431,
supermarket,Toko bahan makanan,Si Mbok Mart,"8JHQ+Q8M, Jl. Sukma Aryaningrat, Baru, Kec. Arut Sel., Kabupaten Kotawaringin Barat, Kalimantan Tengah 74112","Jl. Sukma Aryaningrat, Baru, Kec. Arut Sel., Kabupaten Kotawaringin Barat",KALIMANTAN TENGAH,74112.0,Indonesia,,,,-2.6705402,111.6382981,https://maps.google.com/?cid=0x0:0xc6be3fa21de8e47f,
supermarket,Toko bahan makanan,Minimarket TULIP,"8JHP+26Q, Baru, Kec. Arut Sel., Kabupaten Kotawaringin Barat, Kalimantan Tengah 74112","Baru, Kec. Arut Sel., Kabupaten Kotawaringin Barat",KALIMANTAN TENGAH,74112.0,Indonesia,,,,-2.6724045,111.6355964,https://maps.google.com/?cid=0x0:0x76563ccfc18a8cf0,
supermarket,Toko Swalayan,Toko Silva.,"8JCR+FXC, Jl. PKGB 2, Sidorejo, Kec. Arut Sel., Kabupaten Kotawaringin Barat, Kalimantan Tengah 74112","Jl. PKGB 2, Sidorejo, Kec. Arut Sel., Kabupaten Kotawaringin Barat",KALIMANTAN TENGAH,74112.0,Indonesia,818618599.0,,,-2.6788239,111.6423788,https://maps.google.com/?cid=0x0:0x3ae7fdd1ff9a721b,
supermarket,Toserba,HB SWALAYAN,"8JHQ+Q5X, Jl. Sukma Aryaningrat, Baru, Kec. Arut Sel., Kabupaten Kotawaringin Barat, Kalimantan Tengah 74112","Jl. Sukma Aryaningrat, Baru, Kec. Arut Sel., Kabupaten Kotawaringin Barat",KALIMANTAN TENGAH,74112.0,Indonesia,,,,-2.6705201,111.6379873,https://maps.google.com/?cid=0x0:0x3960c1ffefc1048,
supermarket,Toko Ponsel,Nagita pulsa,"Jl. Pangeran Antasari No.60, RT.018, Mendawai, Kec. Arut Sel., Kabupaten Kotawaringin Barat, Kalimantan Tengah 74112","RT.018, Mendawai, Kec. Arut Sel., Kabupaten Kotawaringin Barat",KALIMANTAN TENGAH,74112.0,Indonesia,,,,-2.6739315,111.6337744,https://maps.google.com/?cid=0x0:0x58f7431eaccc45d2,
supermarket,Minimarket,SA berkat BUDI MULYA,"8JJP+6P2, Baru, Kec. Arut Sel., Kabupaten Kotawaringin Barat, Kalimantan Tengah 74112","Baru, Kec. Arut Sel., Kabupaten Kotawaringin Barat",KALIMANTAN TENGAH,74112.0,Indonesia,,,,-2.6694946,111.6367597,https://maps.google.com/?cid=0x0:0xeb24c26d8fbb9e9b,
supermarket,Toko bahan makanan,Toko ALENA,"Jl. H.Delima, Baru, Kec. Arut Sel., Kabupaten Kotawaringin Barat, Kalimantan Tengah 74112","Baru, Kec. Arut Sel., Kabupaten Kotawaringin Barat",KALIMANTAN TENGAH,74112.0,Indonesia,81253033392.0,,,-2.6540006,111.6576897,https://maps.google.com/?cid=0x0:0x7c204bd9033ea093,
supermarket,Toko Perlengkapan Rumah,Toko Dua Putra,"7J2C+F2R, RT.04, Pasir Panjang, Kec. Arut Sel., Kabupaten Kotawaringin Barat, Kalimantan Tengah 74181","RT.04, Pasir Panjang, Kec. Arut Sel., Kabupaten Kotawaringin Barat",KALIMANTAN TENGAH,74181.0,Indonesia,,,,-2.7487662,111.6200122,https://maps.google.com/?cid=0x0:0xf544c56ea2b96b92,
supermarket,Toko bahan makanan,Toko AB,"8MG3+54R, Jl. Natai Arahan, Baru, Kec. Arut Sel., Kabupaten Kotawaringin Barat, Kalimantan Tengah 74112","Jl. Natai Arahan, Baru, Kec. Arut Sel., Kabupaten Kotawaringin Barat",KALIMANTAN TENGAH,74112.0,Indonesia,,,,-2.6745066,111.6527524,https://maps.google.com/?cid=0x0:0x7f60d6b762fcade5,
supermarket,Minimarket,SASMART Pbun,"Jl. Kawitan I, Sidorejo, Kec. Arut Sel., Kabupaten Kotawaringin Barat, Kalimantan Tengah 74112","Sidorejo, Kec. Arut Sel., Kabupaten Kotawaringin Barat",KALIMANTAN TENGAH,74112.0,Indonesia,85288888005.0,,,-2.6828016,111.6447413,https://maps.google.com/?cid=0x0:0xaa9a7b3284908dd8,
supermarket,Kedai Kopi,kios pahari,"8JR4+WM4, Unnamed Road, Raja Seberang, Kec. Arut Sel., Kabupaten Kotawaringin Barat, Kalimantan Tengah 74111","Unnamed Road, Raja Seberang, Kec. Arut Sel., Kabupaten Kotawaringin Barat",KALIMANTAN TENGAH,74111.0,Indonesia,,,,-2.6577488,111.606692,https://maps.google.com/?cid=0x0:0x8fdaa3b7d93d6bbe,
supermarket,Toko Sepatu,Toko Sepatu BATA,"Baru, Kec. Arut Sel., Kabupaten Kotawaringin Barat, Kalimantan Tengah 74112","Kec. Arut Sel., Kabupaten Kotawaringin Barat",KALIMANTAN TENGAH,74112.0,Indonesia,81250805454.0,,,-2.6711491,111.6380007,https://maps.google.com/?cid=0x0:0x228de9ffb1fbb36b,
supermarket,supermarket,.,"Jl. Pangeran Antasari No.1, Baru, Kec. Arut Sel., Kabupaten Kotawaringin Barat, Kalimantan Tengah 74112","Baru, Kec. Arut Sel., Kabupaten Kotawaringin Barat",KALIMANTAN TENGAH,74112.0,Indonesia,,,,-2.6710509,111.6373211,https://maps.google.com/?cid=0x0:0xf58691d360396407,
supermarket,Grosir,Surya Kencana Swalayan,"8JFH+665, Jl. Pangeran Antasari, Raja, Kec. Arut Sel., Kabupaten Kotawaringin Barat, Kalimantan Tengah 74112","Jl. Pangeran Antasari, Raja, Kec. Arut Sel., Kabupaten Kotawaringin Barat",KALIMANTAN TENGAH,74112.0,Indonesia,,,,-2.676979,111.6281051,https://maps.google.com/?cid=0x0:0xe9c46a115e91d12f,
supermarket,Toko bahan makanan,Toko GMC Mini Market,"8J9F+9RH, Jl. PRA. Kesumayudha, Mendawai, Kec. Arut Sel., Kabupaten Kotawaringin Barat, Kalimantan Tengah 74112","Jl. PRA. Kesumayudha, Mendawai, Kec. Arut Sel., Kabupaten Kotawaringin Barat",KALIMANTAN TENGAH,74112.0,Indonesia,85219911967.0,,,-2.6815673,111.6246039,https://maps.google.com/?cid=0x0:0xfab161a77fe028c0,
supermarket,Toko,Toko Perwira,"8J89+C94, Jl. Perwira, Mendawai, Kec. Arut Sel., Kabupaten Kotawaringin Barat, Kalimantan Tengah 74112","Jl. Perwira, Mendawai, Kec. Arut Sel., Kabupaten Kotawaringin Barat",KALIMANTAN TENGAH,74112.0,Indonesia,82227774028.0,,,-2.6839852,111.6184632,https://maps.google.com/?cid=0x0:0xc4d0a261c718b934,
supermarket,Minimarket,toko Fazza,"8MQ2+QCC, Jl. GM. Arsad, Baru, Kec. Arut Sel., Kabupaten Kotawaringin Barat, Kalimantan Tengah 74112","Jl. GM. Arsad, Baru, Kec. Arut Sel., Kabupaten Kotawaringin Barat",KALIMANTAN TENGAH,74112.0,Indonesia,8125099895.0,,,-2.6605692,111.6510186,https://maps.google.com/?cid=0x0:0x3e78685e9d71f0eb,
supermarket,supermarket,Kec. Arut Sel.,"Kabupaten Kotawaringin Barat, Kalimantan Tengah","Kabupaten Kotawaringin Barat, Kalimantan Tengah",KALIMANTAN TENGAH,,Indonesia,,,,-2.5458231,111.6183755,https://maps.google.com/?cid=0x0:0xb0a66a60f6071e18,
supermarket,Toko bahan makanan,BALI INDAH Mart,"8JFG+4XR, Raja, Kec. Arut Sel., Kabupaten Kotawaringin Barat, Kalimantan Tengah 74112","Raja, Kec. Arut Sel., Kabupaten Kotawaringin Barat",KALIMANTAN TENGAH,74112.0,Indonesia,81258221688.0,,,-2.6771313,111.6273969,https://maps.google.com/?cid=0x0:0xaafa852028be4b29,
supermarket,Minimarket,BB MART Mini Market,"8JJW+HQF, Jl. Ahmad Yani, Baru, Kec. Arut Sel., Kabupaten Kotawaringin Barat, Kalimantan Tengah 74112","Jl. Ahmad Yani, Baru, Kec. Arut Sel., Kabupaten Kotawaringin Barat",KALIMANTAN TENGAH,74112.0,Indonesia,5326615756.0,,,-2.6685654,111.6469349,https://maps.google.com/?cid=0x0:0xf2f6815ec5fc3a91,
supermarket,Toko,Toko BAGUS,"Pasir Panjang, Kec. Arut Sel., Kabupaten Kotawaringin Barat, Kalimantan Tengah 74181","Kec. Arut Sel., Kabupaten Kotawaringin Barat",KALIMANTAN TENGAH,74181.0,Indonesia,,,,-2.7335271,111.6386585,https://maps.google.com/?cid=0x0:0xb37c7d9f1d3a787e,
supermarket,Toko bahan makanan,Toko Sri Rejeki,"8JJW+458, Jl. Ahmad Yani, Baru, Kec. Arut Sel., Kabupaten Kotawaringin Barat, Kalimantan Tengah 74112","Jl. Ahmad Yani, Baru, Kec. Arut Sel., Kabupaten Kotawaringin Barat",KALIMANTAN TENGAH,74112.0,Indonesia,,,,-2.6697151,111.6454605,https://maps.google.com/?cid=0x0:0xef064cd78849e9,
supermarket,Toko Swalayan,GRIYA TAMAN BAHAGIA,"8J6C+CX6, JALAN GRIYA, Mendawai, Kec. Arut Sel., Kabupaten Kotawaringin Barat, Kalimantan Tengah 74112","JALAN GRIYA, Mendawai, Kec. Arut Sel., Kabupaten Kotawaringin Barat",KALIMANTAN TENGAH,74112.0,Indonesia,,,,-2.688962,111.622398,https://maps.google.com/?cid=0x0:0x250ae5ef834aa7cd,
supermarket,Toko makanan beku,Greensshop,"Jl. Pangeran Diponegoro No.40, Sidorejo, Kec. Arut Sel., Kabupaten Kotawaringin Barat, Kalimantan Tengah 74112","Sidorejo, Kec. Arut Sel., Kabupaten Kotawaringin Barat",KALIMANTAN TENGAH,74112.0,Indonesia,85387169999.0,,,-2.6846223,111.6311596,https://maps.google.com/?cid=0x0:0x604a8e5fe764079e,
supermarket,supermarket,Kec. Arut Sel.,"Kabupaten Kotawaringin Barat, Kalimantan Tengah","Kabupaten Kotawaringin Barat, Kalimantan Tengah",KALIMANTAN TENGAH,,Indonesia,,,,-2.5458231,111.6183755,https://maps.google.com/?cid=0x0:0xb0a66a60f6071e18,
supermarket,Toko Peralatan dan Bahan Kue,Sinar Jaya Swalayan,"Sidorejo, Kec. Arut Sel., Kabupaten Kotawaringin Barat, Kalimantan Tengah 74112","Kec. Arut Sel., Kabupaten Kotawaringin Barat",KALIMANTAN TENGAH,74112.0,Indonesia,82297956693.0,,,-2.6847201,111.6312065,https://maps.google.com/?cid=0x0:0xd32fbf222b5b8431,
supermarket,Toko bahan makanan,Borneo Swalayan,"8J8W+8QX, Jl. Kawitan I, Sidorejo, Kec. Arut Sel., Kabupaten Kotawaringin Barat, Kalimantan Tengah 74112","Jl. Kawitan I, Sidorejo, Kec. Arut Sel., Kabupaten Kotawaringin Barat",KALIMANTAN TENGAH,74112.0,Indonesia,53224521.0,,,-2.6841275,111.6469727,https://maps.google.com/?cid=0x0:0xda5cad380efdc4c0,
supermarket,Toko bahan makanan,BALI INDAH Mart,"8JFG+4XR, Raja, Kec. Arut Sel., Kabupaten Kotawaringin Barat, Kalimantan Tengah 74112","Raja, Kec. Arut Sel., Kabupaten Kotawaringin Barat",KALIMANTAN TENGAH,74112.0,Indonesia,81258221688.0,,,-2.6771313,111.6273969,https://maps.google.com/?cid=0x0:0xaafa852028be4b29,
supermarket,Toko bahan makanan,Borneo Supermarket HM. Rafi'i,"7JHR+QFR, Jl. HM. Rafi'i, Madurejo, Kec. Arut Sel., Kabupaten Kotawaringin Barat, Kalimantan Tengah 74181","Jl. HM. Rafi'i, Madurejo, Kec. Arut Sel., Kabupaten Kotawaringin Barat",KALIMANTAN TENGAH,74181.0,Indonesia,5322030782.0,,,-2.7205221,111.6411503,https://maps.google.com/?cid=0x0:0xe312b99a542aea69,
supermarket,Pusat Perbelanjaan,Hypermart - Citimall Pangkalan Bun,"Jl. Utama Pasir Panjang No.22, Madurejo, Kec. Arut Sel., Kabupaten Kotawaringin Barat, Kalimantan Tengah 74117","Madurejo, Kec. Arut Sel., Kabupaten Kotawaringin Barat",KALIMANTAN TENGAH,74117.0,Indonesia,82157351068.0,,,-2.7104383,111.6503057,https://maps.google.com/?cid=0x0:0x7c46c8beb3b947f4,
supermarket,Grosir,Surya Kencana Swalayan,"8JFH+665, Jl. Pangeran Antasari, Raja, Kec. Arut Sel., Kabupaten Kotawaringin Barat, Kalimantan Tengah 74112","Jl. Pangeran Antasari, Raja, Kec. Arut Sel., Kabupaten Kotawaringin Barat",KALIMANTAN TENGAH,74112.0,Indonesia,,,,-2.676979,111.6281051,https://maps.google.com/?cid=0x0:0xe9c46a115e91d12f,
supermarket,Toko bahan makanan,Borneo Supermarket,"8MP4+578, Gg. Rarait 9, Baru, Kec. Arut Sel., Kabupaten Kotawaringin Barat, Kalimantan Tengah 74112","Gg. Rarait 9, Baru, Kec. Arut Sel., Kabupaten Kotawaringin Barat",KALIMANTAN TENGAH,74112.0,Indonesia,,,,-2.6645842,111.6557153,https://maps.google.com/?cid=0x0:0x797289385200434f,
supermarket,Toko bahan makanan,Minimarket TULIP,"8JHP+26Q, Baru, Kec. Arut Sel., Kabupaten Kotawaringin Barat, Kalimantan Tengah 74112","Baru, Kec. Arut Sel., Kabupaten Kotawaringin Barat",KALIMANTAN TENGAH,74112.0,Indonesia,,,,-2.6724045,111.6355964,https://maps.google.com/?cid=0x0:0x76563ccfc18a8cf0,
supermarket,Toserba,HB SWALAYAN,"8JHQ+Q5X, Jl. Sukma Aryaningrat, Baru, Kec. Arut Sel., Kabupaten Kotawaringin Barat, Kalimantan Tengah 74112","Jl. Sukma Aryaningrat, Baru, Kec. Arut Sel., Kabupaten Kotawaringin Barat",KALIMANTAN TENGAH,74112.0,Indonesia,,,,-2.6705201,111.6379873,https://maps.google.com/?cid=0x0:0x3960c1ffefc1048,
supermarket,Toko bahan makanan,Toko Sri Rejeki,"8JJW+458, Jl. Ahmad Yani, Baru, Kec. Arut Sel., Kabupaten Kotawaringin Barat, Kalimantan Tengah 74112","Jl. Ahmad Yani, Baru, Kec. Arut Sel., Kabupaten Kotawaringin Barat",KALIMANTAN TENGAH,74112.0,Indonesia,,,,-2.6697151,111.6454605,https://maps.google.com/?cid=0x0:0xef064cd78849e9,
supermarket,Toko,Toko BAGUS,"Pasir Panjang, Kec. Arut Sel., Kabupaten Kotawaringin Barat, Kalimantan Tengah 74181","Kec. Arut Sel., Kabupaten Kotawaringin Barat",KALIMANTAN TENGAH,74181.0,Indonesia,,,,-2.7335271,111.6386585,https://maps.google.com/?cid=0x0:0xb37c7d9f1d3a787e,
supermarket,Toko bahan makanan,Si Mbok Mart,"8JHQ+Q8M, Jl. Sukma Aryaningrat, Baru, Kec. Arut Sel., Kabupaten Kotawaringin Barat, Kalimantan Tengah 74112","Jl. Sukma Aryaningrat, Baru, Kec. Arut Sel., Kabupaten Kotawaringin Barat",KALIMANTAN TENGAH,74112.0,Indonesia,,,,-2.6705402,111.6382981,https://maps.google.com/?cid=0x0:0xc6be3fa21de8e47f,
supermarket,Minimarket,BB MART Mini Market,"8JJW+HQF, Jl. Ahmad Yani, Baru, Kec. Arut Sel., Kabupaten Kotawaringin Barat, Kalimantan Tengah 74112","Jl. Ahmad Yani, Baru, Kec. Arut Sel., Kabupaten Kotawaringin Barat",KALIMANTAN TENGAH,74112.0,Indonesia,5326615756.0,,,-2.6685654,111.6469349,https://maps.google.com/?cid=0x0:0xf2f6815ec5fc3a91,
supermarket,Toko bahan makanan,Toko mulya jaya,"8J5G+RFG, Jl. Jenderal Sudirman, Sidorejo, Kec. Arut Sel., Kabupaten Kotawaringin Barat, Kalimantan Tengah 74112","Jl. Jenderal Sudirman, Sidorejo, Kec. Arut Sel., Kabupaten Kotawaringin Barat",KALIMANTAN TENGAH,74112.0,Indonesia,,,,-2.6904481,111.6262093,https://maps.google.com/?cid=0x0:0x1bd2cbff56342d94,
supermarket,Toko Swalayan,GRIYA TAMAN BAHAGIA,"8J6C+CX6, JALAN GRIYA, Mendawai, Kec. Arut Sel., Kabupaten Kotawaringin Barat, Kalimantan Tengah 74112","JALAN GRIYA, Mendawai, Kec. Arut Sel., Kabupaten Kotawaringin Barat",KALIMANTAN TENGAH,74112.0,Indonesia,,,,-2.688962,111.622398,https://maps.google.com/?cid=0x0:0x250ae5ef834aa7cd,
supermarket,Minimarket,Toko Soeprapto,"CP7P+J7V, Sumber Agung, Kec. Pangkalan Lada, Kabupaten Kotawaringin Barat, Kalimantan Tengah 74113","Sumber Agung, Kec. Pangkalan Lada, Kabupaten Kotawaringin Barat",KALIMANTAN TENGAH,74113.0,Indonesia,,,,-2.585887,111.73567,https://maps.google.com/?cid=0x0:0x2e37d9020928190e,
supermarket,Minimarket,SA berkat BUDI MULYA,"8JJP+6P2, Baru, Kec. Arut Sel., Kabupaten Kotawaringin Barat, Kalimantan Tengah 74112","Baru, Kec. Arut Sel., Kabupaten Kotawaringin Barat",KALIMANTAN TENGAH,74112.0,Indonesia,,,,-2.6694946,111.6367597,https://maps.google.com/?cid=0x0:0xeb24c26d8fbb9e9b,
supermarket,Minimarket,SASMART Pbun,"Jl. Kawitan I, Sidorejo, Kec. Arut Sel., Kabupaten Kotawaringin Barat, Kalimantan Tengah 74112","Sidorejo, Kec. Arut Sel., Kabupaten Kotawaringin Barat",KALIMANTAN TENGAH,74112.0,Indonesia,85288888005.0,,,-2.6828016,111.6447413,https://maps.google.com/?cid=0x0:0xaa9a7b3284908dd8,
supermarket,Toko makanan beku,Greensshop,"Jl. Pangeran Diponegoro No.40, Sidorejo, Kec. Arut Sel., Kabupaten Kotawaringin Barat, Kalimantan Tengah 74112","Sidorejo, Kec. Arut Sel., Kabupaten Kotawaringin Barat",KALIMANTAN TENGAH,74112.0,Indonesia,85387169999.0,,,-2.6846223,111.6311596,https://maps.google.com/?cid=0x0:0x604a8e5fe764079e,
supermarket,Toko Alat Tulis Kantor,Toko Prima Stationery,"Jl. Kawitan I, Sidorejo, Kec. Arut Sel., Kabupaten Kotawaringin Barat, Kalimantan Tengah 74112","Sidorejo, Kec. Arut Sel., Kabupaten Kotawaringin Barat",KALIMANTAN TENGAH,74112.0,Indonesia,82351083103.0,,,-2.6824991,111.641008,https://maps.google.com/?cid=0x0:0x14d3f4c1cf68220b,
supermarket,Toko bahan makanan,Toko ALENA,"Jl. H.Delima, Baru, Kec. Arut Sel., Kabupaten Kotawaringin Barat, Kalimantan Tengah 74112","Baru, Kec. Arut Sel., Kabupaten Kotawaringin Barat",KALIMANTAN TENGAH,74112.0,Indonesia,81253033392.0,,,-2.6540006,111.6576897,https://maps.google.com/?cid=0x0:0x7c204bd9033ea093,
supermarket,Toko Perlengkapan Rumah,Toko Dua Putra,"7J2C+F2R, RT.04, Pasir Panjang, Kec. Arut Sel., Kabupaten Kotawaringin Barat, Kalimantan Tengah 74181","RT.04, Pasir Panjang, Kec. Arut Sel., Kabupaten Kotawaringin Barat",KALIMANTAN TENGAH,74181.0,Indonesia,,,,-2.7487662,111.6200122,https://maps.google.com/?cid=0x0:0xf544c56ea2b96b92,
supermarket,supermarket,Kalimantan Tengah 74116,"Kec. Arut Sel., Kabupaten Kotawaringin Barat, Kalimantan Tengah","Kabupaten Kotawaringin Barat, Kalimantan Tengah",KALIMANTAN TENGAH,,Indonesia,,,,-2.4168826,111.5945271,https://maps.google.com/?cid=0x0:0x9678e52ec657f14e,
supermarket,Toko bahan makanan,Borneo Swalayan,"8J8W+8QX, Jl. Kawitan I, Sidorejo, Kec. Arut Sel., Kabupaten Kotawaringin Barat, Kalimantan Tengah 74112","Jl. Kawitan I, Sidorejo, Kec. Arut Sel., Kabupaten Kotawaringin Barat",KALIMANTAN TENGAH,74112.0,Indonesia,53224521.0,,,-2.6841275,111.6469727,https://maps.google.com/?cid=0x0:0xda5cad380efdc4c0,
supermarket,,Pelangi Supermarket,"JL. Prakusumayudha, No. 29, Arut Selatan, 74151, Mendawai, Kec. Arut Sel., Kabupaten Kotawaringin Barat, Kalimantan Tengah 74112","Arut Selatan,",KALIMANTAN TENGAH,74151.0,Indonesia,53222272.0,,,-2.6773027,111.6298096,https://maps.google.com/?cid=0x0:0x9003aba07f501dee,
supermarket,Toko bahan makanan,Borneo Supermarket HM. Rafi'i,"7JHR+QFR, Jl. HM. Rafi'i, Madurejo, Kec. Arut Sel., Kabupaten Kotawaringin Barat, Kalimantan Tengah 74181","Jl. HM. Rafi'i, Madurejo, Kec. Arut Sel., Kabupaten Kotawaringin Barat",KALIMANTAN TENGAH,74181.0,Indonesia,5322030782.0,,,-2.7205221,111.6411503,https://maps.google.com/?cid=0x0:0xe312b99a542aea69,
supermarket,Toko bahan makanan,Borneo Supermarket,"8MP4+578, Gg. Rarait 9, Baru, Kec. Arut Sel., Kabupaten Kotawaringin Barat, Kalimantan Tengah 74112","Gg. Rarait 9, Baru, Kec. Arut Sel., Kabupaten Kotawaringin Barat",KALIMANTAN TENGAH,74112.0,Indonesia,,,,-2.6645842,111.6557153,https://maps.google.com/?cid=0x0:0x797289385200434f,
supermarket,Pusat Perbelanjaan,Hypermart - Citimall Pangkalan Bun,"Jl. Utama Pasir Panjang No.22, Madurejo, Kec. Arut Sel., Kabupaten Kotawaringin Barat, Kalimantan Tengah 74117","Madurejo, Kec. Arut Sel., Kabupaten Kotawaringin Barat",KALIMANTAN TENGAH,74117.0,Indonesia,82157351068.0,,,-2.7104383,111.6503057,https://maps.google.com/?cid=0x0:0x7c46c8beb3b947f4,
supermarket,Toko,Toko Biru (Toko Kelontong Pak Sadi),"Jalan Raya Runtu Batu KM 12 (sebelum pos satpam Sinar Mas kalau dari arah Pangkalan Bun, Runtu, Kec. Arut Sel., Kabupaten Kotawaringin Barat, Kalimantan Tengah 74113","Runtu, Kec. Arut Sel., Kabupaten Kotawaringin Barat",KALIMANTAN TENGAH,74113.0,Indonesia,82282351618.0,,,-2.4087463,111.7349646,https://maps.google.com/?cid=0x0:0xbf62488bcfeaaffe,
supermarket,Toko Swalayan,Srigaluh,"GQHH+RGF, Jl. Jenderal Sudirman, Pandu Senjaya, Kec. Pangkalan Lada, Kabupaten Kotawaringin Barat, Kalimantan Tengah 74184","Jl. Jenderal Sudirman, Pandu Senjaya, Kec. Pangkalan Lada, Kabupaten Kotawaringin Barat",KALIMANTAN TENGAH,74184.0,Indonesia,,,,-2.4704376,111.7788082,https://maps.google.com/?cid=0x0:0xea8ce6025cc7db1a,
supermarket,Toko Swalayan,Toko Lestari,"QH3C+QM9, Wonorejo, Kec. Sematu Jaya, Kabupaten Lamandau, Kalimantan Tengah 74161","Wonorejo, Kec. Sematu Jaya, Kabupaten Lamandau",KALIMANTAN TENGAH,74161.0,Indonesia,,,,-2.2455942,111.5717458,https://maps.google.com/?cid=0x0:0x82b4bfb80a606180,
supermarket,Toko Swalayan,Toko Silva.,"8JCR+FXC, Jl. PKGB 2, Sidorejo, Kec. Arut Sel., Kabupaten Kotawaringin Barat, Kalimantan Tengah 74112","Jl. PKGB 2, Sidorejo, Kec. Arut Sel., Kabupaten Kotawaringin Barat",KALIMANTAN TENGAH,74112.0,Indonesia,818618599.0,,,-2.6788239,111.6423788,https://maps.google.com/?cid=0x0:0x3ae7fdd1ff9a721b,
supermarket,Toko umum,Achmad zahrah,"QH3C+R9M, Unnamed Road, Wonorejo, Kec. Sematu Jaya, Kabupaten Lamandau, Kalimantan Tengah 74161","Unnamed Road, Wonorejo, Kec. Sematu Jaya, Kabupaten Lamandau",KALIMANTAN TENGAH,74161.0,Indonesia,,,,-2.2454152,111.5709271,https://maps.google.com/?cid=0x0:0x82ee1a51e987b936,
supermarket,Pasar,Toko NURANI,"GRXP+FVM, Jl. Jenderal Sudirman, Pangkalan Tiga, Kec. Pangkalan Lada, Kabupaten Kotawaringin Barat, Kalimantan Tengah 74184","Jl. Jenderal Sudirman, Pangkalan Tiga, Kec. Pangkalan Lada, Kabupaten Kotawaringin Barat",KALIMANTAN TENGAH,74184.0,Indonesia,,,,-2.4512831,111.837186,https://maps.google.com/?cid=0x0:0xe63e8a9c39c8794a,
supermarket,Toko bahan makanan,Toko ALENA,"Jl. H.Delima, Baru, Kec. Arut Sel., Kabupaten Kotawaringin Barat, Kalimantan Tengah 74112","Baru, Kec. Arut Sel., Kabupaten Kotawaringin Barat",KALIMANTAN TENGAH,74112.0,Indonesia,81253033392.0,,,-2.6540006,111.6576897,https://maps.google.com/?cid=0x0:0x7c204bd9033ea093,
supermarket,Toko Swalayan,Toko galaxy,"FPCR+4W2, Sungai Melawen, Kec. Pangkalan Lada, Kabupaten Kotawaringin Barat, Kalimantan Tengah 74113","Sungai Melawen, Kec. Pangkalan Lada, Kabupaten Kotawaringin Barat",KALIMANTAN TENGAH,74113.0,Indonesia,85732207033.0,,,-2.5297302,111.7422652,https://maps.google.com/?cid=0x0:0xc3f2a430cb528a48,
supermarket,Minimarket,Toko Soeprapto,"CP7P+J7V, Sumber Agung, Kec. Pangkalan Lada, Kabupaten Kotawaringin Barat, Kalimantan Tengah 74113","Sumber Agung, Kec. Pangkalan Lada, Kabupaten Kotawaringin Barat",KALIMANTAN TENGAH,74113.0,Indonesia,,,,-2.585887,111.73567,https://maps.google.com/?cid=0x0:0x2e37d9020928190e,
supermarket,Toko Swalayan,Toko Swalayan Gaung,"Pandu Senjaya, Kec. Pangkalan Lada, Kabupaten Kotawaringin Barat, Kalimantan Tengah 74184","Kec. Pangkalan Lada, Kabupaten Kotawaringin Barat",KALIMANTAN TENGAH,74184.0,Indonesia,,,,-2.4694269,111.7802379,https://maps.google.com/?cid=0x0:0x66c1b3f809e9992e,
supermarket,Toko Mebel,Serba ada pangkalan Bun,"Jl. Ahmad Yani, RT.4/RW.2, Runtu, Kec. Arut Sel., Kabupaten Kotawaringin Barat, Kalimantan Tengah 74117","RT.4/RW.2, Runtu, Kec. Arut Sel., Kabupaten Kotawaringin Barat",KALIMANTAN TENGAH,74117.0,Indonesia,81522611895.0,,,-2.4010231,111.7287868,https://maps.google.com/?cid=0x0:0x5fdc7063ef39ffd0,
supermarket,Minimarket,SASMART Pbun,"Jl. Kawitan I, Sidorejo, Kec. Arut Sel., Kabupaten Kotawaringin Barat, Kalimantan Tengah 74112","Sidorejo, Kec. Arut Sel., Kabupaten Kotawaringin Barat",KALIMANTAN TENGAH,74112.0,Indonesia,85288888005.0,,,-2.6828016,111.6447413,https://maps.google.com/?cid=0x0:0xaa9a7b3284908dd8,
supermarket,Toko,Toko Perwira,"8J89+C94, Jl. Perwira, Mendawai, Kec. Arut Sel., Kabupaten Kotawaringin Barat, Kalimantan Tengah 74112","Jl. Perwira, Mendawai, Kec. Arut Sel., Kabupaten Kotawaringin Barat",KALIMANTAN TENGAH,74112.0,Indonesia,82227774028.0,,,-2.6839852,111.6184632,https://maps.google.com/?cid=0x0:0xc4d0a261c718b934,
supermarket,Toko bahan makanan,Al BaiK Daffa Swalaya,"7JRR+HWQ, Jl. Pemuda, Madurejo, Kec. Arut Sel., Kabupaten Kotawaringin Barat, Kalimantan Tengah 74181","Jl. Pemuda, Madurejo, Kec. Arut Sel., Kabupaten Kotawaringin Barat",KALIMANTAN TENGAH,74181.0,Indonesia,82157280202.0,,,-2.7085096,111.6423305,https://maps.google.com/?cid=0x0:0xd8efbd1178a790d6,
supermarket,Grosir,Surya Kencana Swalayan,"8JFH+665, Jl. Pangeran Antasari, Raja, Kec. Arut Sel., Kabupaten Kotawaringin Barat, Kalimantan Tengah 74112","Jl. Pangeran Antasari, Raja, Kec. Arut Sel., Kabupaten Kotawaringin Barat",KALIMANTAN TENGAH,74112.0,Indonesia,,,,-2.676979,111.6281051,https://maps.google.com/?cid=0x0:0xe9c46a115e91d12f,
supermarket,Toserba,HB SWALAYAN,"8JHQ+Q5X, Jl. Sukma Aryaningrat, Baru, Kec. Arut Sel., Kabupaten Kotawaringin Barat, Kalimantan Tengah 74112","Jl. Sukma Aryaningrat, Baru, Kec. Arut Sel., Kabupaten Kotawaringin Barat",KALIMANTAN TENGAH,74112.0,Indonesia,,,,-2.6705201,111.6379873,https://maps.google.com/?cid=0x0:0x3960c1ffefc1048,
supermarket,Toko bahan makanan,Minimarket TULIP,"8JHP+26Q, Baru, Kec. Arut Sel., Kabupaten Kotawaringin Barat, Kalimantan Tengah 74112","Baru, Kec. Arut Sel., Kabupaten Kotawaringin Barat",KALIMANTAN TENGAH,74112.0,Indonesia,,,,-2.6724045,111.6355964,https://maps.google.com/?cid=0x0:0x76563ccfc18a8cf0,
supermarket,supermarket,Warung dua putra,"MJ2P+Q9J, Sulung, Kec. Arut Sel., Kabupaten Kotawaringin Barat, Kalimantan Tengah 74116","Sulung, Kec. Arut Sel., Kabupaten Kotawaringin Barat",KALIMANTAN TENGAH,74116.0,Indonesia,,,,-2.3480259,111.6358918,https://maps.google.com/?cid=0x0:0xe0283388e3be88ea,
supermarket,supermarket,warung mbak,"JJXJ+3VM, Sulung, Kec. Arut Sel., Kabupaten Kotawaringin Barat, Kalimantan Tengah 74116","Sulung, Kec. Arut Sel., Kabupaten Kotawaringin Barat",KALIMANTAN TENGAH,74116.0,Indonesia,81251400685.0,,,-2.3522946,111.6321862,https://maps.google.com/?cid=0x0:0xf226561ed9f1f705,
supermarket,supermarket,Kalimantan Tengah 74117,"Kabupaten Kotawaringin Barat, Kalimantan Tengah","Kabupaten Kotawaringin Barat, Kalimantan Tengah",KALIMANTAN TENGAH,,Indonesia,,,,-2.1758811,111.7137694,https://maps.google.com/?cid=0x0:0x393f051e7c492659,
supermarket,Toko bahan makanan,Borneo Swalayan,"8J8W+8QX, Jl. Kawitan I, Sidorejo, Kec. Arut Sel., Kabupaten Kotawaringin Barat, Kalimantan Tengah 74112","Jl. Kawitan I, Sidorejo, Kec. Arut Sel., Kabupaten Kotawaringin Barat",KALIMANTAN TENGAH,74112.0,Indonesia,53224521.0,,,-2.6841275,111.6469727,https://maps.google.com/?cid=0x0:0xda5cad380efdc4c0,
supermarket,Toko Peralatan dan Bahan Kue,Sinar Jaya Swalayan,"Sidorejo, Kec. Arut Sel., Kabupaten Kotawaringin Barat, Kalimantan Tengah 74112","Kec. Arut Sel., Kabupaten Kotawaringin Barat",KALIMANTAN TENGAH,74112.0,Indonesia,82297956693.0,,,-2.6847201,111.6312065,https://maps.google.com/?cid=0x0:0xd32fbf222b5b8431,
supermarket,,Pelangi Supermarket,"JL. Prakusumayudha, No. 29, Arut Selatan, 74151, Mendawai, Kec. Arut Sel., Kabupaten Kotawaringin Barat, Kalimantan Tengah 74112","Arut Selatan,",KALIMANTAN TENGAH,74151.0,Indonesia,53222272.0,,,-2.6773027,111.6298096,https://maps.google.com/?cid=0x0:0x9003aba07f501dee,
supermarket,Toko bahan makanan,Borneo Supermarket HM. Rafi'i,"7JHR+QFR, Jl. HM. Rafi'i, Madurejo, Kec. Arut Sel., Kabupaten Kotawaringin Barat, Kalimantan Tengah 74181","Jl. HM. Rafi'i, Madurejo, Kec. Arut Sel., Kabupaten Kotawaringin Barat",KALIMANTAN TENGAH,74181.0,Indonesia,5322030782.0,,,-2.7205221,111.6411503,https://maps.google.com/?cid=0x0:0xe312b99a542aea69,
supermarket,Toko bahan makanan,BALI INDAH Mart,"8JFG+4XR, Raja, Kec. Arut Sel., Kabupaten Kotawaringin Barat, Kalimantan Tengah 74112","Raja, Kec. Arut Sel., Kabupaten Kotawaringin Barat",KALIMANTAN TENGAH,74112.0,Indonesia,81258221688.0,,,-2.6771313,111.6273969,https://maps.google.com/?cid=0x0:0xaafa852028be4b29,
supermarket,Toko bahan makanan,Borneo Supermarket,"8MP4+578, Gg. Rarait 9, Baru, Kec. Arut Sel., Kabupaten Kotawaringin Barat, Kalimantan Tengah 74112","Gg. Rarait 9, Baru, Kec. Arut Sel., Kabupaten Kotawaringin Barat",KALIMANTAN TENGAH,74112.0,Indonesia,,,,-2.6645842,111.6557153,https://maps.google.com/?cid=0x0:0x797289385200434f,
supermarket,Grosir,Surya Kencana Swalayan,"8JFH+665, Jl. Pangeran Antasari, Raja, Kec. Arut Sel., Kabupaten Kotawaringin Barat, Kalimantan Tengah 74112","Jl. Pangeran Antasari, Raja, Kec. Arut Sel., Kabupaten Kotawaringin Barat",KALIMANTAN TENGAH,74112.0,Indonesia,,,,-2.676979,111.6281051,https://maps.google.com/?cid=0x0:0xe9c46a115e91d12f,
supermarket,Toserba,HB SWALAYAN,"8JHQ+Q5X, Jl. Sukma Aryaningrat, Baru, Kec. Arut Sel., Kabupaten Kotawaringin Barat, Kalimantan Tengah 74112","Jl. Sukma Aryaningrat, Baru, Kec. Arut Sel., Kabupaten Kotawaringin Barat",KALIMANTAN TENGAH,74112.0,Indonesia,,,,-2.6705201,111.6379873,https://maps.google.com/?cid=0x0:0x3960c1ffefc1048,
supermarket,Toko bahan makanan,Si Mbok Mart,"8JHQ+Q8M, Jl. Sukma Aryaningrat, Baru, Kec. Arut Sel., Kabupaten Kotawaringin Barat, Kalimantan Tengah 74112","Jl. Sukma Aryaningrat, Baru, Kec. Arut Sel., Kabupaten Kotawaringin Barat",KALIMANTAN TENGAH,74112.0,Indonesia,,,,-2.6705402,111.6382981,https://maps.google.com/?cid=0x0:0xc6be3fa21de8e47f,
supermarket,Toko bahan makanan,Minimarket TULIP,"8JHP+26Q, Baru, Kec. Arut Sel., Kabupaten Kotawaringin Barat, Kalimantan Tengah 74112","Baru, Kec. Arut Sel., Kabupaten Kotawaringin Barat",KALIMANTAN TENGAH,74112.0,Indonesia,,,,-2.6724045,111.6355964,https://maps.google.com/?cid=0x0:0x76563ccfc18a8cf0,
supermarket,Toko,Toko BAGUS,"Pasir Panjang, Kec. Arut Sel., Kabupaten Kotawaringin Barat, Kalimantan Tengah 74181","Kec. Arut Sel., Kabupaten Kotawaringin Barat",KALIMANTAN TENGAH,74181.0,Indonesia,,,,-2.7335271,111.6386585,https://maps.google.com/?cid=0x0:0xb37c7d9f1d3a787e,
supermarket,Toko Swalayan,Winda Market,"Jl. Trans kalimantan, Runtu, Kec. Arut Sel., Kabupaten Kotawaringin Barat, Kalimantan Tengah 74117","Runtu, Kec. Arut Sel., Kabupaten Kotawaringin Barat",KALIMANTAN TENGAH,74117.0,Indonesia,81347867573.0,,,-2.2789747,111.6805208,https://maps.google.com/?cid=0x0:0xccb398e0a7670df5,
supermarket,Toko Swalayan,GRIYA TAMAN BAHAGIA,"8J6C+CX6, JALAN GRIYA, Mendawai, Kec. Arut Sel., Kabupaten Kotawaringin Barat, Kalimantan Tengah 74112","JALAN GRIYA, Mendawai, Kec. Arut Sel., Kabupaten Kotawaringin Barat",KALIMANTAN TENGAH,74112.0,Indonesia,,,,-2.688962,111.622398,https://maps.google.com/?cid=0x0:0x250ae5ef834aa7cd,
supermarket,Toko Swalayan,Toko Silva.,"8JCR+FXC, Jl. PKGB 2, Sidorejo, Kec. Arut Sel., Kabupaten Kotawaringin Barat, Kalimantan Tengah 74112","Jl. PKGB 2, Sidorejo, Kec. Arut Sel., Kabupaten Kotawaringin Barat",KALIMANTAN TENGAH,74112.0,Indonesia,818618599.0,,,-2.6788239,111.6423788,https://maps.google.com/?cid=0x0:0x3ae7fdd1ff9a721b,
supermarket,Minimarket,SA berkat BUDI MULYA,"8JJP+6P2, Baru, Kec. Arut Sel., Kabupaten Kotawaringin Barat, Kalimantan Tengah 74112","Baru, Kec. Arut Sel., Kabupaten Kotawaringin Barat",KALIMANTAN TENGAH,74112.0,Indonesia,,,,-2.6694946,111.6367597,https://maps.google.com/?cid=0x0:0xeb24c26d8fbb9e9b,
supermarket,Toko bahan makanan,Dewi Rose Market,"8JPW+5X3, Jl. GM. Arsad, Baru, Kec. Arut Sel., Kabupaten Kotawaringin Barat, Kalimantan Tengah 74112","Jl. GM. Arsad, Baru, Kec. Arut Sel., Kabupaten Kotawaringin Barat",KALIMANTAN TENGAH,74112.0,Indonesia,82154709729.0,,,-2.6646087,111.6474248,https://maps.google.com/?cid=0x0:0xa9f7b19da79c9c3,
supermarket,Toko bahan makanan,Al BaiK Daffa Swalaya,"7JRR+HWQ, Jl. Pemuda, Madurejo, Kec. Arut Sel., Kabupaten Kotawaringin Barat, Kalimantan Tengah 74181","Jl. Pemuda, Madurejo, Kec. Arut Sel., Kabupaten Kotawaringin Barat",KALIMANTAN TENGAH,74181.0,Indonesia,82157280202.0,,,-2.7085096,111.6423305,https://maps.google.com/?cid=0x0:0xd8efbd1178a790d6,
supermarket,Minimarket,SASMART Pbun,"Jl. Kawitan I, Sidorejo, Kec. Arut Sel., Kabupaten Kotawaringin Barat, Kalimantan Tengah 74112","Sidorejo, Kec. Arut Sel., Kabupaten Kotawaringin Barat",KALIMANTAN TENGAH,74112.0,Indonesia,85288888005.0,,,-2.6828016,111.6447413,https://maps.google.com/?cid=0x0:0xaa9a7b3284908dd8,
supermarket,Toko bahan makanan,Toko ALENA,"Jl. H.Delima, Baru, Kec. Arut Sel., Kabupaten Kotawaringin Barat, Kalimantan Tengah 74112","Baru, Kec. Arut Sel., Kabupaten Kotawaringin Barat",KALIMANTAN TENGAH,74112.0,Indonesia,81253033392.0,,,-2.6540006,111.6576897,https://maps.google.com/?cid=0x0:0x7c204bd9033ea093,
supermarket,Minimarket,TOKO KRISNA JAYA,"7JXJ+X9W, Madurejo, Kec. Arut Sel., Kabupaten Kotawaringin Barat, Kalimantan Tengah 74117","Madurejo, Kec. Arut Sel., Kabupaten Kotawaringin Barat",KALIMANTAN TENGAH,74117.0,Indonesia,82255522788.0,,,-2.7000051,111.6309554,https://maps.google.com/?cid=0x0:0x351f680e0cd1689d,
supermarket,Toko Alat Tulis Kantor,Toko Prima Stationery,"Jl. Kawitan I, Sidorejo, Kec. Arut Sel., Kabupaten Kotawaringin Barat, Kalimantan Tengah 74112","Sidorejo, Kec. Arut Sel., Kabupaten Kotawaringin Barat",KALIMANTAN TENGAH,74112.0,Indonesia,82351083103.0,,,-2.6824991,111.641008,https://maps.google.com/?cid=0x0:0x14d3f4c1cf68220b,
supermarket,Toko bahan makanan,Toko Ayun,"7JJQ+VRR, Jl. Ahmad Wongso, Madurejo, Kec. Arut Sel., Kabupaten Kotawaringin Barat, Kalimantan Tengah 74181","Jl. Ahmad Wongso, Madurejo, Kec. Arut Sel., Kabupaten Kotawaringin Barat",KALIMANTAN TENGAH,74181.0,Indonesia,,,,-2.7177664,111.6395233,https://maps.google.com/?cid=0x0:0x367edebc3dd5d34f,
supermarket,Toko bahan makanan,Kios bensin faiz,"QR7R+G66, Nanga Mua, Kec. Arut Utara, Kabupaten Kotawaringin Barat, Kalimantan Tengah 74117","Nanga Mua, Kec. Arut Utara, Kabupaten Kotawaringin Barat",KALIMANTAN TENGAH,74117.0,Indonesia,,,,-2.2362224,111.8405088,https://maps.google.com/?cid=0x0:0xe6727c01de2bbda8,
supermarket,Toko bahan makanan,Hansen,"8JQX+27R, Gg. Seluang Maram, Baru, Kec. Arut Sel., Kabupaten Kotawaringin Barat, Kalimantan Tengah 74112","Gg. Seluang Maram, Baru, Kec. Arut Sel., Kabupaten Kotawaringin Barat",KALIMANTAN TENGAH,74112.0,Indonesia,,,,-2.6623917,111.6481369,https://maps.google.com/?cid=0x0:0xddc3f79929d9e190,
supermarket,supermarket,Kalimantan Tengah 74152,Kalimantan Tengah,Kalimantan Tengah,KALIMANTAN TENGAH,,Indonesia,,,,-1.7739041,111.7614661,https://maps.google.com/?cid=0x0:0x71f2abc1610584e7,
supermarket,Pasar,Pasar baru arut utara,"QXX4+F53, Pangkut, Kec. Arut Utara, Kabupaten Kotawaringin Barat, Kalimantan Tengah 74183","Pangkut, Kec. Arut Utara, Kabupaten Kotawaringin Barat",KALIMANTAN TENGAH,74183.0,Indonesia,,,,-2.2013517,111.955429,https://maps.google.com/?cid=0x0:0x8f9e664dbd16c63f,
supermarket,Toko bahan makanan,Toko Sinar Pambelum (Rest Area Melata),"2J4J+6JQ, Sungkup, Kec. Menthobi Raya, Kabupaten Lamandau, Kalimantan Tengah","Kabupaten Lamandau, Kalimantan Tengah",KALIMANTAN TENGAH,,Indonesia,81528534450.0,,,-1.9944156,111.6316077,https://maps.google.com/?cid=0x0:0xe021cdb4cc705b17,
supermarket,Toko bahan makanan,Borneo Supermarket,"8MP4+578, Gg. Rarait 9, Baru, Kec. Arut Sel., Kabupaten Kotawaringin Barat, Kalimantan Tengah 74112","Gg. Rarait 9, Baru, Kec. Arut Sel., Kabupaten Kotawaringin Barat",KALIMANTAN TENGAH,74112.0,Indonesia,,,,-2.6645842,111.6557153,https://maps.google.com/?cid=0x0:0x797289385200434f,
supermarket,,Pelangi Supermarket,"JL. Prakusumayudha, No. 29, Arut Selatan, 74151, Mendawai, Kec. Arut Sel., Kabupaten Kotawaringin Barat, Kalimantan Tengah 74112","Arut Selatan,",KALIMANTAN TENGAH,74151.0,Indonesia,53222272.0,,,-2.6773027,111.6298096,https://maps.google.com/?cid=0x0:0x9003aba07f501dee,
supermarket,Toko Swalayan,Palmmart,"Bukit Raya, Kec. Menthobi Raya, Kabupaten Lamandau, Kalimantan Tengah 74117","Kec. Menthobi Raya, Kabupaten Lamandau",KALIMANTAN TENGAH,74117.0,Indonesia,,,,-2.0718505,111.6340907,https://maps.google.com/?cid=0x0:0x1ac8c0288050c18,
supermarket,Toko Swalayan,Toko kayla aice crem,"VMX8+C3V, Jl. Dua, Sumber Jaya, Kec. Menthobi Raya, Kabupaten Lamandau, Kalimantan Tengah 74117","Jl. Dua, Sumber Jaya, Kec. Menthobi Raya, Kabupaten Lamandau",KALIMANTAN TENGAH,74117.0,Indonesia,81522893074.0,,,-2.1013811,111.6651849,https://maps.google.com/?cid=0x0:0x50a915c419888250,
supermarket,Toko bahan makanan,TOKO ARRAHMAN,"Bukit Raya, Kec. Menthobi Raya, Kabupaten Lamandau, Kalimantan Tengah 74117","Kec. Menthobi Raya, Kabupaten Lamandau",KALIMANTAN TENGAH,74117.0,Indonesia,85642603555.0,,,-2.0681414,111.6378582,https://maps.google.com/?cid=0x0:0xdf041fe79a23a715,
supermarket,supermarket,Cahaya Seluler,"MPRV+J32, Rangkang Munduk, Kec. Suling Tambun, Kabupaten Seruyan, Kalimantan Tengah 74291","Rangkang Munduk, Kec. Suling Tambun, Kabupaten Seruyan",KALIMANTAN TENGAH,74291.0,Indonesia,877847422533.0,,,-1.3084814,111.7426277,https://maps.google.com/?cid=0x0:0x9c9198d52c45fc08,
supermarket,Toko Swalayan,Toko Agita,"WG7W+RQW, Sungai Mentawa, Kec. Bulik, Kabupaten Lamandau, Kalimantan Tengah 74162","Sungai Mentawa, Kec. Bulik, Kabupaten Lamandau",KALIMANTAN TENGAH,74162.0,Indonesia,,,,-2.0853975,111.5469682,https://maps.google.com/?cid=0x0:0x7a38facb6b6c5787,
supermarket,Toko bahan makanan,"Gubuk vina, bakso dan buah buahan.","XM65+C5H, Mukti Manunggal, Kec. Menthobi Raya, Kabupaten Lamandau, Kalimantan Tengah 74117","Mukti Manunggal, Kec. Menthobi Raya, Kabupaten Lamandau",KALIMANTAN TENGAH,74117.0,Indonesia,,,,-2.0389375,111.6579885,https://maps.google.com/?cid=0x0:0x341d5739cb3a86a7,
supermarket,Toko bahan makanan,Toko Lestari,"XM64+4C8, Mukti Manunggal, Kec. Menthobi Raya, Kabupaten Lamandau, Kalimantan Tengah 74117","Mukti Manunggal, Kec. Menthobi Raya, Kabupaten Lamandau",KALIMANTAN TENGAH,74117.0,Indonesia,85822094301.0,,,-2.0397092,111.6560684,https://maps.google.com/?cid=0x0:0xc4179ac6f73e8794,
supermarket,Toko bahan makanan,Borneo Supermarket HM. Rafi'i,"7JHR+QFR, Jl. HM. Rafi'i, Madurejo, Kec. Arut Sel., Kabupaten Kotawaringin Barat, Kalimantan Tengah 74181","Jl. HM. Rafi'i, Madurejo, Kec. Arut Sel., Kabupaten Kotawaringin Barat",KALIMANTAN TENGAH,74181.0,Indonesia,5322030782.0,,,-2.7205221,111.6411503,https://maps.google.com/?cid=0x0:0xe312b99a542aea69,
supermarket,Toko Perlengkapan Rumah,Toko Dua Putra,"7J2C+F2R, RT.04, Pasir Panjang, Kec. Arut Sel., Kabupaten Kotawaringin Barat, Kalimantan Tengah 74181","RT.04, Pasir Panjang, Kec. Arut Sel., Kabupaten Kotawaringin Barat",KALIMANTAN TENGAH,74181.0,Indonesia,,,,-2.7487662,111.6200122,https://maps.google.com/?cid=0x0:0xf544c56ea2b96b92,
supermarket,Toko Swalayan,Toko Silva.,"8JCR+FXC, Jl. PKGB 2, Sidorejo, Kec. Arut Sel., Kabupaten Kotawaringin Barat, Kalimantan Tengah 74112","Jl. PKGB 2, Sidorejo, Kec. Arut Sel., Kabupaten Kotawaringin Barat",KALIMANTAN TENGAH,74112.0,Indonesia,818618599.0,,,-2.6788239,111.6423788,https://maps.google.com/?cid=0x0:0x3ae7fdd1ff9a721b,
supermarket,Minimarket,SASMART Pbun,"Jl. Kawitan I, Sidorejo, Kec. Arut Sel., Kabupaten Kotawaringin Barat, Kalimantan Tengah 74112","Sidorejo, Kec. Arut Sel., Kabupaten Kotawaringin Barat",KALIMANTAN TENGAH,74112.0,Indonesia,85288888005.0,,,-2.6828016,111.6447413,https://maps.google.com/?cid=0x0:0xaa9a7b3284908dd8,
supermarket,Minimarket,Toko Makmur Jaya,"Penahan, Kec. Arut Utara, Kabupaten Kotawaringin Barat, Kalimantan Tengah","Kabupaten Kotawaringin Barat, Kalimantan Tengah",KALIMANTAN TENGAH,,Indonesia,,,,-1.8868571,111.8926949,https://maps.google.com/?cid=0x0:0xb72605a0ef5f5b72,
supermarket,Toko Elektronik,Toko Arut Arta Graha,"Pangkut, Kec. Arut Utara, Kabupaten Kotawaringin Barat, Kalimantan Tengah 65431","Kec. Arut Utara, Kabupaten Kotawaringin Barat",KALIMANTAN TENGAH,65431.0,Indonesia,81254137895.0,,,-2.1909241,111.9121659,https://maps.google.com/?cid=0x0:0xe1fe406e7455278f,
supermarket,Kantor Pemerintahan Daerah,Desa Topalan,"2P23+869, Topalan, Kec. Menthobi Raya, Kabupaten Lamandau, Kalimantan Tengah 74152","Topalan, Kec. Menthobi Raya, Kabupaten Lamandau",KALIMANTAN TENGAH,74152.0,Indonesia,,,,-1.9992028,111.7031066,https://maps.google.com/?cid=0x0:0x9b57d829cdb3d80c,
supermarket,Toko,UD. Sinar Pambelum,"2J9H+RQQ, Melata, Kec. Menthobi Raya, Kabupaten Lamandau, Kalimantan Tengah","Kabupaten Lamandau, Kalimantan Tengah",KALIMANTAN TENGAH,,Indonesia,85787795996.0,,,-1.9804149,111.6294884,https://maps.google.com/?cid=0x0:0x5f3115471ab91a0,
supermarket,Toko sembako pemerintah,Depo adira,"RW5F+Q55, Pangkut, Kec. Arut Utara, Kabupaten Kotawaringin Barat, Kalimantan Tengah","Kabupaten Kotawaringin Barat, Kalimantan Tengah",KALIMANTAN TENGAH,,Indonesia,,,,-2.1906049,111.9229734,https://maps.google.com/?cid=0x0:0x3ea43482822049f,
supermarket,supermarket,Kalimantan Tengah 74161,Kalimantan Tengah,Kalimantan Tengah,KALIMANTAN TENGAH,,Indonesia,,,,-2.3273895,111.4275888,https://maps.google.com/?cid=0x0:0x5f63d7c099af306c,
supermarket,Toko bahan makanan,TOKO AVE,"H8FP+JC8, Jl. Kotawaringin Lama, Riam Durian, Kec. Kotawaringin Lama, Kabupaten Kotawaringin Barat, Kalimantan Tengah 74161","Jl. Kotawaringin Lama, Riam Durian, Kec. Kotawaringin Lama, Kabupaten Kotawaringin Barat",KALIMANTAN TENGAH,74161.0,Indonesia,82350070792.0,,,-2.4259555,111.3360634,https://maps.google.com/?cid=0x0:0xece554174e97c765,
supermarket,,Mega Mart Kotawaringin Lama,"Kota Waringin Hilir, Kec. Kotawaringin Lama, Kabupaten Kotawaringin Barat, Kalimantan Tengah 74161","Kec. Kotawaringin Lama, Kabupaten Kotawaringin Barat",KALIMANTAN TENGAH,74161.0,Indonesia,82154948399.0,,,-2.4866574,111.4436169,https://maps.google.com/?cid=0x0:0x5a2bb6f873ee560a,
supermarket,Toko bahan makanan,central gula aren,"Kotawaringin Hulu, Kec. Kotawaringin Lama, Kabupaten Kotawaringin Barat, Kalimantan Tengah 74161","Kec. Kotawaringin Lama, Kabupaten Kotawaringin Barat",KALIMANTAN TENGAH,74161.0,Indonesia,85849269671.0,,,-2.4847866,111.444311,https://maps.google.com/?cid=0x0:0x31a1d84db44b75da,
supermarket,Toko bahan makanan,Borneo Swalayan,"8J8W+8QX, Jl. Kawitan I, Sidorejo, Kec. Arut Sel., Kabupaten Kotawaringin Barat, Kalimantan Tengah 74112","Jl. Kawitan I, Sidorejo, Kec. Arut Sel., Kabupaten Kotawaringin Barat",KALIMANTAN TENGAH,74112.0,Indonesia,53224521.0,,,-2.6841275,111.6469727,https://maps.google.com/?cid=0x0:0xda5cad380efdc4c0,
supermarket,Toko Swalayan,Warung sayur  sembako alhafiz,"H86P+Q5R, Jl. Cakra Negara, Riam Durian, Kec. Kotawaringin Lama, Kabupaten Kotawaringin Barat, Kalimantan Tengah 74172","Jl. Cakra Negara, Riam Durian, Kec. Kotawaringin Lama, Kabupaten Kotawaringin Barat",KALIMANTAN TENGAH,74172.0,Indonesia,85753655372.0,,,-2.4380115,111.3353912,https://maps.google.com/?cid=0x0:0xd212a425bd859cf4,
supermarket,Toko bahan makanan,Borneo Supermarket HM. Rafi'i,"7JHR+QFR, Jl. HM. Rafi'i, Madurejo, Kec. Arut Sel., Kabupaten Kotawaringin Barat, Kalimantan Tengah 74181","Jl. HM. Rafi'i, Madurejo, Kec. Arut Sel., Kabupaten Kotawaringin Barat",KALIMANTAN TENGAH,74181.0,Indonesia,5322030782.0,,,-2.7205221,111.6411503,https://maps.google.com/?cid=0x0:0xe312b99a542aea69,
supermarket,Toko bahan makanan,Borneo Supermarket,"RF96+V9C, Jl. Batu Betanggui, Nanga Bulik, Kec. Bulik, Kabupaten Lamandau, Kalimantan Tengah 74161","Jl. Batu Betanggui, Nanga Bulik, Kec. Bulik, Kabupaten Lamandau",KALIMANTAN TENGAH,74161.0,Indonesia,85751797069.0,,,-2.180302,111.4608802,https://maps.google.com/?cid=0x0:0x9626262724f41eef,
supermarket,Toko Peralatan dan Bahan Kue,Sinar Jaya Swalayan,"Sidorejo, Kec. Arut Sel., Kabupaten Kotawaringin Barat, Kalimantan Tengah 74112","Kec. Arut Sel., Kabupaten Kotawaringin Barat",KALIMANTAN TENGAH,74112.0,Indonesia,82297956693.0,,,-2.6847201,111.6312065,https://maps.google.com/?cid=0x0:0xd32fbf222b5b8431,
supermarket,Toko Swalayan,Toko sembako dan sayur siput,"H84P+QRC, Jl. Cakra Negara, Riam Durian, Kec. Kotawaringin Lama, Kabupaten Kotawaringin Barat, Kalimantan Tengah 74172","Jl. Cakra Negara, Riam Durian, Kec. Kotawaringin Lama, Kabupaten Kotawaringin Barat",KALIMANTAN TENGAH,74172.0,Indonesia,81256685072.0,,,-2.4430582,111.3370207,https://maps.google.com/?cid=0x0:0x61f967409874fcb7,
supermarket,,Pelangi Supermarket,"JL. Prakusumayudha, No. 29, Arut Selatan, 74151, Mendawai, Kec. Arut Sel., Kabupaten Kotawaringin Barat, Kalimantan Tengah 74112","Arut Selatan,",KALIMANTAN TENGAH,74151.0,Indonesia,53222272.0,,,-2.6773027,111.6298096,https://maps.google.com/?cid=0x0:0x9003aba07f501dee,
supermarket,Pusat Perbelanjaan,Hypermart - Citimall Pangkalan Bun,"Jl. Utama Pasir Panjang No.22, Madurejo, Kec. Arut Sel., Kabupaten Kotawaringin Barat, Kalimantan Tengah 74117","Madurejo, Kec. Arut Sel., Kabupaten Kotawaringin Barat",KALIMANTAN TENGAH,74117.0,Indonesia,82157351068.0,,,-2.7104383,111.6503057,https://maps.google.com/?cid=0x0:0x7c46c8beb3b947f4,
supermarket,Toko,Toko Azkha (Fredi),"H842+3X6, Sukajaya, Kec. Kotawaringin Lama, Kabupaten Kotawaringin Barat, Kalimantan Tengah 74172","Sukajaya, Kec. Kotawaringin Lama, Kabupaten Kotawaringin Barat",KALIMANTAN TENGAH,74172.0,Indonesia,,,,-2.4448406,111.302388,https://maps.google.com/?cid=0x0:0x6b26a1293bdcc3f6,
supermarket,Toserba,HB SWALAYAN,"8JHQ+Q5X, Jl. Sukma Aryaningrat, Baru, Kec. Arut Sel., Kabupaten Kotawaringin Barat, Kalimantan Tengah 74112","Jl. Sukma Aryaningrat, Baru, Kec. Arut Sel., Kabupaten Kotawaringin Barat",KALIMANTAN TENGAH,74112.0,Indonesia,,,,-2.6705201,111.6379873,https://maps.google.com/?cid=0x0:0x3960c1ffefc1048,
supermarket,Grosir,Surya Kencana Swalayan,"8JFH+665, Jl. Pangeran Antasari, Raja, Kec. Arut Sel., Kabupaten Kotawaringin Barat, Kalimantan Tengah 74112","Jl. Pangeran Antasari, Raja, Kec. Arut Sel., Kabupaten Kotawaringin Barat",KALIMANTAN TENGAH,74112.0,Indonesia,,,,-2.676979,111.6281051,https://maps.google.com/?cid=0x0:0xe9c46a115e91d12f,
supermarket,Toko bahan makanan,BALI INDAH Mart,"8JFG+4XR, Raja, Kec. Arut Sel., Kabupaten Kotawaringin Barat, Kalimantan Tengah 74112","Raja, Kec. Arut Sel., Kabupaten Kotawaringin Barat",KALIMANTAN TENGAH,74112.0,Indonesia,81258221688.0,,,-2.6771313,111.6273969,https://maps.google.com/?cid=0x0:0xaafa852028be4b29,
supermarket,Toko Swalayan,Toko Lestari,"QH3C+QM9, Wonorejo, Kec. Sematu Jaya, Kabupaten Lamandau, Kalimantan Tengah 74161","Wonorejo, Kec. Sematu Jaya, Kabupaten Lamandau",KALIMANTAN TENGAH,74161.0,Indonesia,,,,-2.2455942,111.5717458,https://maps.google.com/?cid=0x0:0x82b4bfb80a606180,
supermarket,Toko Swalayan,Toko Agita,"WG7W+RQW, Sungai Mentawa, Kec. Bulik, Kabupaten Lamandau, Kalimantan Tengah 74162","Sungai Mentawa, Kec. Bulik, Kabupaten Lamandau",KALIMANTAN TENGAH,74162.0,Indonesia,,,,-2.0853975,111.5469682,https://maps.google.com/?cid=0x0:0x7a38facb6b6c5787,
supermarket,Toko Swalayan,Toko Mbak Yuni,"PH93+V25, Mekar Mulya, Kec. Sematu Jaya, Kabupaten Lamandau, Kalimantan Tengah 74161","Mekar Mulya, Kec. Sematu Jaya, Kabupaten Lamandau",KALIMANTAN TENGAH,74161.0,Indonesia,85349595837.0,,,-2.2803523,111.5526133,https://maps.google.com/?cid=0x0:0xcf199a3be6f69e63,
supermarket,Pusat Perbelanjaan,TOKO AYNI JAYA,"BTN belakang koramil Jl. Bukit Hibul Barat, Nanga Bulik, Kec. Bulik, Kabupaten Lamandau, Kalimantan Tengah 74162","Nanga Bulik, Kec. Bulik, Kabupaten Lamandau",KALIMANTAN TENGAH,74162.0,Indonesia,82352789985.0,,,-2.1794843,111.4315128,https://maps.google.com/?cid=0x0:0x185ed54df3b1ea93,
supermarket,Toko,Toko Dua Dara,"P94C+X68, Unnamed Road, Palih Baru, Kec. Kotawaringin Lama, Kabupaten Kotawaringin Barat, Kalimantan Tengah 74161","Unnamed Road, Palih Baru, Kec. Kotawaringin Lama, Kabupaten Kotawaringin Barat",KALIMANTAN TENGAH,74161.0,Indonesia,,,,-2.2925916,111.3705783,https://maps.google.com/?cid=0x0:0xcffe6e070de58592,
supermarket,Toko Kosmetik,Toko Mitra Amanda,"H8FP+P87, Jalan, Riam Durian, Kotawaringin Lama, West Kotawaringin Regency, Central Kalimantan 74172","Jalan, Riam Durian, Kotawaringin Lama, West Kotawaringin Regency",KALIMANTAN TENGAH,74172.0,Indonesia,,,,-2.4257243,111.3357956,https://maps.google.com/?cid=0x0:0x1c36b7a77dd3eca,
supermarket,Pusat Perbelanjaan,MM.DESPOT,"H85P+9MW, Jl. Cakra Negara, Riam Durian, Kec. Kotawaringin Lama, Kabupaten Kotawaringin Barat, Kalimantan Tengah 74172","Jl. Cakra Negara, Riam Durian, Kec. Kotawaringin Lama, Kabupaten Kotawaringin Barat",KALIMANTAN TENGAH,74172.0,Indonesia,,,,-2.4415174,111.3367129,https://maps.google.com/?cid=0x0:0x8815ee776a55861c,
supermarket,Pasar Grosir Sayur,Jhoncell sayur,"H84P+GP9 Pasar despot, Riam Durian, Kec. Kotawaringin Lama, Kabupaten Kotawaringin Barat, Kalimantan Tengah 74172","Riam Durian, Kec. Kotawaringin Lama, Kabupaten Kotawaringin Barat",KALIMANTAN TENGAH,74172.0,Indonesia,8152127914.0,,,-2.4435189,111.3365978,https://maps.google.com/?cid=0x0:0x128509fb788efd07,
supermarket,Toko Pakaian,Sagita Fash Mart,"H8FP+M9X, Jl. Kotawaringin Lama, Riam Durian, Kec. Kotawaringin Lama, Kabupaten Kotawaringin Barat, Kalimantan Tengah 74172","Jl. Kotawaringin Lama, Riam Durian, Kec. Kotawaringin Lama, Kabupaten Kotawaringin Barat",KALIMANTAN TENGAH,74172.0,Indonesia,,,,-2.425773,111.3359803,https://maps.google.com/?cid=0x0:0x4ee9ad56f80a90ad,
supermarket,Minimarket,Toko Arifin,"J8QX+PQQ, Jalan kempas, Suka Makmur, Kec. Kotawaringin Lama, Kabupaten Kotawaringin Barat, Kalimantan Tengah 74161","Jalan kempas, Suka Makmur, Kec. Kotawaringin Lama, Kabupaten Kotawaringin Barat",KALIMANTAN TENGAH,74161.0,Indonesia,,,,-2.360656,111.349491,https://maps.google.com/?cid=0x0:0x5c35cb026715843b,
supermarket,Minimarket,Meri mart,"MF43+P94, Kondang, Kec. Kotawaringin Lama, Kabupaten Kotawaringin Barat, Kalimantan Tengah 74161","Kondang, Kec. Kotawaringin Lama, Kabupaten Kotawaringin Barat",KALIMANTAN TENGAH,74161.0,Indonesia,,,,-2.3432452,111.4534523,https://maps.google.com/?cid=0x0:0x60ad2df6e943c029,
supermarket,Toko,Toko H2,"Jl. Tjilik Riwut No.52, Kota Waringin Hilir, Kec. Kotawaringin Lama, Kabupaten Kotawaringin Barat, Kalimantan Tengah 74161","Kota Waringin Hilir, Kec. Kotawaringin Lama, Kabupaten Kotawaringin Barat",KALIMANTAN TENGAH,74161.0,Indonesia,,,,-2.4851574,111.4413996,https://maps.google.com/?cid=0x0:0x257dca151c559703,
supermarket,supermarket,Kumai,"Sungai Kapitan, Kec. Kumai, Kabupaten Kotawaringin Barat, Kalimantan Tengah","Kabupaten Kotawaringin Barat, Kalimantan Tengah",KALIMANTAN TENGAH,,Indonesia,,,,-2.745797,111.715698,https://maps.google.com/?cid=0x0:0xcc725e3a1e270063,
supermarket,Minimarket,Alfamart Kumai,"7P5C+W8F, Jl. Pemuda, Kumai Hilir, Kec. Kumai, Kabupaten Kotawaringin Barat, Kalimantan Tengah 74181","Jl. Pemuda, Kumai Hilir, Kec. Kumai, Kabupaten Kotawaringin Barat",KALIMANTAN TENGAH,74181.0,Indonesia,,,,-2.7401862,111.7208034,https://maps.google.com/?cid=0x0:0x3b1581401fd5001b,
supermarket,Toko,Toko Lestari Kumai,"7P5G+WGP, Kumai Hulu, Kec. Kumai, Kabupaten Kotawaringin Barat, Kalimantan Tengah 74181","Kumai Hulu, Kec. Kumai, Kabupaten Kotawaringin Barat",KALIMANTAN TENGAH,74181.0,Indonesia,,,,-2.7401747,111.7263343,https://maps.google.com/?cid=0x0:0xfd029dd7a43fb07f,
supermarket,Toko bahan makanan,Toko Fajar,"7P5G+WHR, Jl. H. Abdul Aziz, Kumai Hulu, Kec. Kumai, Kabupaten Kotawaringin Barat, Kalimantan Tengah 74181","Jl. H. Abdul Aziz, Kumai Hulu, Kec. Kumai, Kabupaten Kotawaringin Barat",KALIMANTAN TENGAH,74181.0,Indonesia,,,,-2.7401363,111.7263792,https://maps.google.com/?cid=0x0:0x665cc937286fc01c,
supermarket,Minimarket,SASMART KUMAI,"Jl. Masjid, Kumai Hilir, Kec. Kumai, Kabupaten Kotawaringin Barat, Kalimantan Tengah 74181","Kumai Hilir, Kec. Kumai, Kabupaten Kotawaringin Barat",KALIMANTAN TENGAH,74181.0,Indonesia,85288888005.0,,,-2.7407439,111.7206854,https://maps.google.com/?cid=0x0:0x6ad345d1290ee6e8,
supermarket,Toko bahan makanan,Toko Bu Siti,"Kumai Hilir, Kec. Kumai, Kabupaten Kotawaringin Barat, Kalimantan Tengah 74181","Kec. Kumai, Kabupaten Kotawaringin Barat",KALIMANTAN TENGAH,74181.0,Indonesia,81255444457.0,,,-2.7709946,111.7428074,https://maps.google.com/?cid=0x0:0x5a8f255d8805beb7,
supermarket,Toko,PUTRI MART,"Jl. Panglima Utar No.RT.008, Sungai Kapitan, Kec. Kumai, Kabupaten Kotawaringin Barat, Kalimantan Tengah 74181","Sungai Kapitan, Kec. Kumai, Kabupaten Kotawaringin Barat",KALIMANTAN TENGAH,74181.0,Indonesia,81255287144.0,,,-2.7522597,111.6991852,https://maps.google.com/?cid=0x0:0xb5b95304c9bbc04c,
supermarket,Toko Swalayan,Toko Amanah,"7P4F+2MM, Jl. Bendahara, Kumai Hilir, Kec. Kumai, Kabupaten Kotawaringin Barat, Kalimantan Tengah 74181","Jl. Bendahara, Kumai Hilir, Kec. Kumai, Kabupaten Kotawaringin Barat",KALIMANTAN TENGAH,74181.0,Indonesia,,,,-2.7449098,111.7241845,https://maps.google.com/?cid=0x0:0xb97fdb470a796648,
supermarket,Toko bahan makanan,Borneo Swalayan,"8J8W+8QX, Jl. Kawitan I, Sidorejo, Kec. Arut Sel., Kabupaten Kotawaringin Barat, Kalimantan Tengah 74112","Jl. Kawitan I, Sidorejo, Kec. Arut Sel., Kabupaten Kotawaringin Barat",KALIMANTAN TENGAH,74112.0,Indonesia,53224521.0,,,-2.6841275,111.6469727,https://maps.google.com/?cid=0x0:0xda5cad380efdc4c0,
supermarket,Minimarket,Indomaret Panglima Utar,"7P28+CXQ, Sungai Kapitan, Kec. Kumai, Kabupaten Kotawaringin Barat, Kalimantan Tengah 74181","Sungai Kapitan, Kec. Kumai, Kabupaten Kotawaringin Barat",KALIMANTAN TENGAH,74181.0,Indonesia,,,,-2.7489017,111.7174773,https://maps.google.com/?cid=0x0:0x532cafe85e9ac6dd,
supermarket,Toko bahan makanan,Borneo Supermarket HM. Rafi'i,"7JHR+QFR, Jl. HM. Rafi'i, Madurejo, Kec. Arut Sel., Kabupaten Kotawaringin Barat, Kalimantan Tengah 74181","Jl. HM. Rafi'i, Madurejo, Kec. Arut Sel., Kabupaten Kotawaringin Barat",KALIMANTAN TENGAH,74181.0,Indonesia,5322030782.0,,,-2.7205221,111.6411503,https://maps.google.com/?cid=0x0:0xe312b99a542aea69,
supermarket,Toko bahan makanan,Toko Bu Atik,"7P5G+299, Jl. Bendahara, Kumai Hulu, Kec. Kumai, Kabupaten Kotawaringin Barat, Kalimantan Tengah 74181","Jl. Bendahara, Kumai Hulu, Kec. Kumai, Kabupaten Kotawaringin Barat",KALIMANTAN TENGAH,74181.0,Indonesia,53261635.0,,,-2.74247,111.7259703,https://maps.google.com/?cid=0x0:0x15ba9be46ab14009,
supermarket,Toko Swalayan,TOKO FAISAL,"7P8C+89F, Jl. Gerilya, Candi, Kec. Kumai, Kabupaten Kotawaringin Barat, Kalimantan Tengah 74181","Jl. Gerilya, Candi, Kec. Kumai, Kabupaten Kotawaringin Barat",KALIMANTAN TENGAH,74181.0,Indonesia,,,,-2.734192,111.7209223,https://maps.google.com/?cid=0x0:0x425af8ddca361b2f,
supermarket,supermarket,Kalimantan Tengah 74183,"Kabupaten Kotawaringin Barat, Kalimantan Tengah","Kabupaten Kotawaringin Barat, Kalimantan Tengah",KALIMANTAN TENGAH,,Indonesia,,,,-2.3916649,111.9999435,https://maps.google.com/?cid=0x0:0x4b6803533d167a52,
supermarket,Pusat Perbelanjaan,Mega Mart,"HX3C+HP8, Amin Jaya, Kec. Pangkalan Banteng, Kabupaten Kotawaringin Barat, Kalimantan Tengah 74183","Amin Jaya, Kec. Pangkalan Banteng, Kabupaten Kotawaringin Barat",KALIMANTAN TENGAH,74183.0,Indonesia,82368095020.0,,,-2.4460821,111.9718151,https://maps.google.com/?cid=0x0:0x6b3d51ac09dbd3f9,
supermarket,Toko Swalayan,INDO FAMILY,"GWPC+34X, Jl. Ahmad Yani, Karangmulya, Kec. Pangkalan Banteng, Kabupaten Kotawaringin Barat, Kalimantan Tengah 74183","Jl. Ahmad Yani, Karangmulya, Kec. Pangkalan Banteng, Kabupaten Kotawaringin Barat",KALIMANTAN TENGAH,74183.0,Indonesia,,,,-2.4647701,111.920373,https://maps.google.com/?cid=0x0:0xdc32eb0842a205c3,
supermarket,Toko Swalayan,Sp 1 Amin Jaya,"HX49+6FF, Jl. Lombok, Amin Jaya, Kec. Pangkalan Banteng, Kabupaten Kotawaringin Barat, Kalimantan Tengah 74183","Jl. Lombok, Amin Jaya, Kec. Pangkalan Banteng, Kabupaten Kotawaringin Barat",KALIMANTAN TENGAH,74183.0,Indonesia,81347902979.0,,,-2.4444451,111.9686721,https://maps.google.com/?cid=0x0:0x7deff0cfdd0017b7,
supermarket,Toko Swalayan,TOKO RADHEL,"GWH6+74F, Jl. Jenderal Sudirman, Karangmulya, Kec. Pangkalan Banteng, Kabupaten Kotawaringin Barat, Kalimantan Tengah 74183","Jl. Jenderal Sudirman, Karangmulya, Kec. Pangkalan Banteng, Kabupaten Kotawaringin Barat",KALIMANTAN TENGAH,74183.0,Indonesia,,,,-2.4718213,111.9102982,https://maps.google.com/?cid=0x0:0x9953d5ef1cf3e7a0,
supermarket,Pusat Perbelanjaan,Toko Putra Karya Mandiri,"GWF3+Q9V Dinamika, Jl. Jenderal Sudirman, Marga Mulya, Kec. Pangkalan Banteng, Kabupaten Kotawaringin Barat, Kalimantan Tengah 74183","Jl. Jenderal Sudirman, Marga Mulya, Kec. Pangkalan Banteng, Kabupaten Kotawaringin Barat",KALIMANTAN TENGAH,74183.0,Indonesia,81312549991.0,,,-2.4755196,111.9034154,https://maps.google.com/?cid=0x0:0xbf78c45629a443df,
supermarket,Toko Swalayan,TOKO ARGA JAYA,"HVW8+MMX, Sido Mulyo, Kec. Pangkalan Banteng, Kabupaten Kotawaringin Barat, Kalimantan Tengah 74184","Sido Mulyo, Kec. Pangkalan Banteng, Kabupaten Kotawaringin Barat",KALIMANTAN TENGAH,74184.0,Indonesia,85705641881.0,,,-2.4032722,111.8667233,https://maps.google.com/?cid=0x0:0x65bdba0810552055,
supermarket,Minimarket,toko novi lada3,"HV53+R28, Jl. Jenderal Sudirman, Pangkalan Banteng, Kec. Pangkalan Banteng, Kabupaten Kotawaringin Barat, Kalimantan Tengah 74184","Jl. Jenderal Sudirman, Pangkalan Banteng, Kec. Pangkalan Banteng, Kabupaten Kotawaringin Barat",KALIMANTAN TENGAH,74184.0,Indonesia,,,,-2.4404571,111.8525656,https://maps.google.com/?cid=0x0:0x5644c6106ac0a103,
supermarket,Toko bahan makanan,Toko REAL JAYA,"HW2X+362, Unnamed Road, Amin Jaya, Kec. Pangkalan Banteng, Kabupaten Kotawaringin Barat, Kalimantan Tengah 74183","Unnamed Road, Amin Jaya, Kec. Pangkalan Banteng, Kabupaten Kotawaringin Barat",KALIMANTAN TENGAH,74183.0,Indonesia,,,,-2.4498709,111.9480269,https://maps.google.com/?cid=0x0:0x2d20f05f1ad81e2d,
supermarket,Toko bahan makanan,Pak To,"Jl. Jenderal Sudirman, Amin Jaya, Kec. Pangkalan Banteng, Kabupaten Kotawaringin Barat, Kalimantan Tengah 74183","Amin Jaya, Kec. Pangkalan Banteng, Kabupaten Kotawaringin Barat",KALIMANTAN TENGAH,74183.0,Indonesia,83808507857.0,,,-2.4384669,111.956084,https://maps.google.com/?cid=0x0:0xafed71ff097fed9a,
supermarket,Pusat Perbelanjaan,TOKO SUSI,"Jl. Ahmad Yani, Karangmulya, Kec. Pangkalan Banteng, Kabupaten Kotawaringin Barat, Kalimantan Tengah 74183","Karangmulya, Kec. Pangkalan Banteng, Kabupaten Kotawaringin Barat",KALIMANTAN TENGAH,74183.0,Indonesia,81251439261.0,,,-2.4648792,111.9206159,https://maps.google.com/?cid=0x0:0x9ec77c935b9f9f1,
supermarket,Biro Perjalanan dan Wisata,Naya Travel,"GWC2+H27, Simpang Berambai, Kec. Pangkalan Banteng, Kabupaten Kotawaringin Barat, Kalimantan Tengah 74183","Simpang Berambai, Kec. Pangkalan Banteng, Kabupaten Kotawaringin Barat",KALIMANTAN TENGAH,74183.0,Indonesia,85249263039.0,,,-2.4785862,111.9000411,https://maps.google.com/?cid=0x0:0x167a51910735ba5c,
supermarket,Minimarket,Indomaret Pangkalan Banteng,"Jl. Ahmad Yani, Karangmulya, Kec. Pangkalan Banteng, Kabupaten Kotawaringin Barat, Kalimantan Tengah 74183","Karangmulya, Kec. Pangkalan Banteng, Kabupaten Kotawaringin Barat",KALIMANTAN TENGAH,74183.0,Indonesia,,,,-2.4619012,111.9251054,https://maps.google.com/?cid=0x0:0xb68b14805de4b745,
supermarket,Toko,KIOS MARTHA(ANDHIKA),"GW92+FGC, Simpang Berambai, Kec. Pangkalan Banteng, Kabupaten Kotawaringin Barat, Kalimantan Tengah 74183","Simpang Berambai, Kec. Pangkalan Banteng, Kabupaten Kotawaringin Barat",KALIMANTAN TENGAH,74183.0,Indonesia,82154721530.0,,,-2.4806535,111.9010771,https://maps.google.com/?cid=0x0:0x954bb84e872a4a7e,
supermarket,Komplek perumahan,Rumah iwan,"JV29+8JX, Sido Mulyo, Kec. Pangkalan Banteng, Kabupaten Kotawaringin Barat, Kalimantan Tengah 74184","Sido Mulyo, Kec. Pangkalan Banteng, Kabupaten Kotawaringin Barat",KALIMANTAN TENGAH,74184.0,Indonesia,85752440967.0,,,-2.3991394,111.8691206,https://maps.google.com/?cid=0x0:0xbbdf52953f190902,
supermarket,Pusat Perbelanjaan,Dinos Fotocopy,"GWPC+34X, Jl. Ahmad Yani, Karangmulya, Kec. Pangkalan Banteng, Kabupaten Kotawaringin Barat, Kalimantan Tengah 74183","Jl. Ahmad Yani, Karangmulya, Kec. Pangkalan Banteng, Kabupaten Kotawaringin Barat",KALIMANTAN TENGAH,74183.0,Indonesia,82158222310.0,,,-2.4647701,111.920373,https://maps.google.com/?cid=0x0:0x3f5dcddc537e9544,
supermarket,Toko bahan makanan,TOKO IHSAN,"HX49+3F7, PASAR, Amin Jaya, Kec. Pangkalan Banteng, Kabupaten Kotawaringin Barat, Kalimantan Tengah 74183","PASAR, Amin Jaya, Kec. Pangkalan Banteng, Kabupaten Kotawaringin Barat",KALIMANTAN TENGAH,74183.0,Indonesia,,,,-2.4448317,111.9686695,https://maps.google.com/?cid=0x0:0xfd8c88524e9526fb,
supermarket,Toko Swalayan,Toko Balqis,"GWPF+63J, Karangmulya, Kec. Pangkalan Banteng, Kabupaten Kotawaringin Barat, Kalimantan Tengah 74183","Karangmulya, Kec. Pangkalan Banteng, Kabupaten Kotawaringin Barat",KALIMANTAN TENGAH,74183.0,Indonesia,,,,-2.4644045,111.922628,https://maps.google.com/?cid=0x0:0xb1b2deedc4e1a2e8,
supermarket,Toko Buku,LOKET ARAPAY 2,"GWPC+68R, Jl. Jenderal Sudirman, Karangmulya, Kec. Pangkalan Banteng, Kabupaten Kotawaringin Barat, Kalimantan Tengah 74183","Jl. Jenderal Sudirman, Karangmulya, Kec. Pangkalan Banteng, Kabupaten Kotawaringin Barat",KALIMANTAN TENGAH,74183.0,Indonesia,8115206900.0,,,-2.4643793,111.9207508,https://maps.google.com/?cid=0x0:0x1d34a47d862ac56e,
supermarket,Toko,Toko kembar jaya,"JVFJ+C6V, Sungai Kuning, Kec. Pangkalan Banteng, Kabupaten Kotawaringin Barat, Kalimantan Tengah 74184","Sungai Kuning, Kec. Pangkalan Banteng, Kabupaten Kotawaringin Barat",KALIMANTAN TENGAH,74184.0,Indonesia,85387697255.0,,,-2.3763895,111.8805409,https://maps.google.com/?cid=0x0:0x15a1024e39a02cc7,
supermarket,Toko Elektronik,Toko Sari Mulya  Windagallery.art,"Arga Mulya, Kec. Pangkalan Banteng, Kabupaten Kotawaringin Barat, Kalimantan Tengah 74183","Kec. Pangkalan Banteng, Kabupaten Kotawaringin Barat",KALIMANTAN TENGAH,74183.0,Indonesia,87782378141.0,,,-2.3943746,111.922163,https://maps.google.com/?cid=0x0:0x7193cb27366aee29,
supermarket,Toko Swalayan,Kedai Isabela,"Jl. Akhmad Yani KM. 67, Karang Mulya, Amin Jaya, Kec. Pangkalan Banteng, Kabupaten Kotawaringin Barat, Kalimantan Tengah 74183","Karang Mulya, Amin Jaya, Kec. Pangkalan Banteng, Kabupaten Kotawaringin Barat",KALIMANTAN TENGAH,74183.0,Indonesia,85700272763.0,,,-2.4610576,111.9260038,https://maps.google.com/?cid=0x0:0x68bad1442eb38b4d,
supermarket,Grosir air mineral,Depo Isi Ulang Air Mineral ANUGRAH,"Karangmulya, Kec. Pangkalan Banteng, Kabupaten Kotawaringin Barat, Kalimantan Tengah 74183","Kec. Pangkalan Banteng, Kabupaten Kotawaringin Barat",KALIMANTAN TENGAH,74183.0,Indonesia,82254329792.0,,,-2.4619066,111.9246578,https://maps.google.com/?cid=0x0:0x1de8571e2291b14,
supermarket,supermarket,Kalimantan Tengah 74184,"Kec. Pangkalan Lada, Kabupaten Kotawaringin Barat, Kalimantan Tengah","Kabupaten Kotawaringin Barat, Kalimantan Tengah",KALIMANTAN TENGAH,,Indonesia,,,,-2.4128845,111.8330106,https://maps.google.com/?cid=0x0:0x7b81cc477671085b,
supermarket,Toko Swalayan,Toko Swalayan Gaung,"Pandu Senjaya, Kec. Pangkalan Lada, Kabupaten Kotawaringin Barat, Kalimantan Tengah 74184","Kec. Pangkalan Lada, Kabupaten Kotawaringin Barat",KALIMANTAN TENGAH,74184.0,Indonesia,,,,-2.4694269,111.7802379,https://maps.google.com/?cid=0x0:0x66c1b3f809e9992e,
supermarket,Pasar,Toko NURANI,"GRXP+FVM, Jl. Jenderal Sudirman, Pangkalan Tiga, Kec. Pangkalan Lada, Kabupaten Kotawaringin Barat, Kalimantan Tengah 74184","Jl. Jenderal Sudirman, Pangkalan Tiga, Kec. Pangkalan Lada, Kabupaten Kotawaringin Barat",KALIMANTAN TENGAH,74184.0,Indonesia,,,,-2.4512831,111.837186,https://maps.google.com/?cid=0x0:0xe63e8a9c39c8794a,
supermarket,Toko bahan makanan,Toko Modern,"FQGP+64W, Lada Mandala Jaya, Kec. Pangkalan Lada, Kabupaten Kotawaringin Barat, Kalimantan Tengah 74184","Lada Mandala Jaya, Kec. Pangkalan Lada, Kabupaten Kotawaringin Barat",KALIMANTAN TENGAH,74184.0,Indonesia,,,,-2.5243972,111.7853143,https://maps.google.com/?cid=0x0:0x57177fe9404ebda1,
supermarket,Minimarket,Toko Soeprapto,"CP7P+J7V, Sumber Agung, Kec. Pangkalan Lada, Kabupaten Kotawaringin Barat, Kalimantan Tengah 74113","Sumber Agung, Kec. Pangkalan Lada, Kabupaten Kotawaringin Barat",KALIMANTAN TENGAH,74113.0,Indonesia,,,,-2.585887,111.73567,https://maps.google.com/?cid=0x0:0x2e37d9020928190e,
supermarket,Toko Swalayan,Toko Tiara,"GR8F+7MH, Pangkalan Dewa, Kec. Pangkalan Lada, Kabupaten Kotawaringin Barat, Kalimantan Tengah 74184","Pangkalan Dewa, Kec. Pangkalan Lada, Kabupaten Kotawaringin Barat",KALIMANTAN TENGAH,74184.0,Indonesia,82254680004.0,,,-2.4843049,111.8242359,https://maps.google.com/?cid=0x0:0x4d02cc60aa60b5d5,
supermarket,Toko Swalayan,Toko Zaki,"GR7F+387, Pangkalan Dewa, Kec. Pangkalan Lada, Kabupaten Kotawaringin Barat, Kalimantan Tengah 74184","Pangkalan Dewa, Kec. Pangkalan Lada, Kabupaten Kotawaringin Barat",KALIMANTAN TENGAH,74184.0,Indonesia,85390351854.0,,,-2.4873353,111.8232981,https://maps.google.com/?cid=0x0:0x3300d9372a546337,
supermarket,Minimarket,toko novi lada3,"HV53+R28, Jl. Jenderal Sudirman, Pangkalan Banteng, Kec. Pangkalan Banteng, Kabupaten Kotawaringin Barat, Kalimantan Tengah 74184","Jl. Jenderal Sudirman, Pangkalan Banteng, Kec. Pangkalan Banteng, Kabupaten Kotawaringin Barat",KALIMANTAN TENGAH,74184.0,Indonesia,,,,-2.4404571,111.8525656,https://maps.google.com/?cid=0x0:0x5644c6106ac0a103,
supermarket,Toko bahan makanan,Toko Winarsih,"CQ84+M6H, Pangkalan Durin, Kec. Pangkalan Lada, Kabupaten Kotawaringin Barat, Kalimantan Tengah 74117","Pangkalan Durin, Kec. Pangkalan Lada, Kabupaten Kotawaringin Barat",KALIMANTAN TENGAH,74117.0,Indonesia,,,,-2.5833143,111.7555965,https://maps.google.com/?cid=0x0:0xa923063603283553,
supermarket,Toko Swalayan,Toko galaxy,"FPCR+4W2, Sungai Melawen, Kec. Pangkalan Lada, Kabupaten Kotawaringin Barat, Kalimantan Tengah 74113","Sungai Melawen, Kec. Pangkalan Lada, Kabupaten Kotawaringin Barat",KALIMANTAN TENGAH,74113.0,Indonesia,85732207033.0,,,-2.5297302,111.7422652,https://maps.google.com/?cid=0x0:0xc3f2a430cb528a48,
supermarket,Toko Swalayan,Wr Pak Udin,"GRWP+78W, Pangkalan Tiga, Kec. Pangkalan Lada, Kabupaten Kotawaringin Barat, Kalimantan Tengah","Kabupaten Kotawaringin Barat, Kalimantan Tengah",KALIMANTAN TENGAH,,Indonesia,,,,-2.4542636,111.8358371,https://maps.google.com/?cid=0x0:0x8273b8733f9a7c42,
supermarket,Pusat Perbelanjaan,Mega Mart,"HX3C+HP8, Amin Jaya, Kec. Pangkalan Banteng, Kabupaten Kotawaringin Barat, Kalimantan Tengah 74183","Amin Jaya, Kec. Pangkalan Banteng, Kabupaten Kotawaringin Barat",KALIMANTAN TENGAH,74183.0,Indonesia,82368095020.0,,,-2.4460821,111.9718151,https://maps.google.com/?cid=0x0:0x6b3d51ac09dbd3f9,
supermarket,Pusat Perbelanjaan,Toko Putra Karya Mandiri,"GWF3+Q9V Dinamika, Jl. Jenderal Sudirman, Marga Mulya, Kec. Pangkalan Banteng, Kabupaten Kotawaringin Barat, Kalimantan Tengah 74183","Jl. Jenderal Sudirman, Marga Mulya, Kec. Pangkalan Banteng, Kabupaten Kotawaringin Barat",KALIMANTAN TENGAH,74183.0,Indonesia,81312549991.0,,,-2.4755196,111.9034154,https://maps.google.com/?cid=0x0:0xbf78c45629a443df,
supermarket,Komplek perumahan,Rumah iwan,"JV29+8JX, Sido Mulyo, Kec. Pangkalan Banteng, Kabupaten Kotawaringin Barat, Kalimantan Tengah 74184","Sido Mulyo, Kec. Pangkalan Banteng, Kabupaten Kotawaringin Barat",KALIMANTAN TENGAH,74184.0,Indonesia,85752440967.0,,,-2.3991394,111.8691206,https://maps.google.com/?cid=0x0:0xbbdf52953f190902,
supermarket,Toko bahan makanan,Toko Bu Eny,"GQ83+R78, Jl. Jenderal Sudirman, Pandu Senjaya, Kec. Pangkalan Lada, Kabupaten Kotawaringin Barat, Kalimantan Tengah 74113","Jl. Jenderal Sudirman, Pandu Senjaya, Kec. Pangkalan Lada, Kabupaten Kotawaringin Barat",KALIMANTAN TENGAH,74113.0,Indonesia,,,,-2.482961,111.7532098,https://maps.google.com/?cid=0x0:0x7e138c941b20822f,
supermarket,Pusat Perbelanjaan,MEGAMART,"CPFQ+R5J, Jl. Jenderal Ahmad Yani, Sumber Agung, Kec. Pangkalan Lada, Kabupaten Kotawaringin Barat, Kalimantan Tengah 74113","Jl. Jenderal Ahmad Yani, Sumber Agung, Kec. Pangkalan Lada, Kabupaten Kotawaringin Barat",KALIMANTAN TENGAH,74113.0,Indonesia,81351567745.0,,,-2.5754209,111.7378926,https://maps.google.com/?cid=0x0:0x7a348dffbf5d3d84,
supermarket,Toko Swalayan,TOKO ARGA JAYA,"HVW8+MMX, Sido Mulyo, Kec. Pangkalan Banteng, Kabupaten Kotawaringin Barat, Kalimantan Tengah 74184","Sido Mulyo, Kec. Pangkalan Banteng, Kabupaten Kotawaringin Barat",KALIMANTAN TENGAH,74184.0,Indonesia,85705641881.0,,,-2.4032722,111.8667233,https://maps.google.com/?cid=0x0:0x65bdba0810552055,
supermarket,Toko,Toko kembar jaya,"JVFJ+C6V, Sungai Kuning, Kec. Pangkalan Banteng, Kabupaten Kotawaringin Barat, Kalimantan Tengah 74184","Sungai Kuning, Kec. Pangkalan Banteng, Kabupaten Kotawaringin Barat",KALIMANTAN TENGAH,74184.0,Indonesia,85387697255.0,,,-2.3763895,111.8805409,https://maps.google.com/?cid=0x0:0x15a1024e39a02cc7,
supermarket,Restoran,Warung Bu Nur,"GR5H+5FP, Pangkalan Dewa, Kec. Pangkalan Lada, Kabupaten Kotawaringin Barat, Kalimantan Tengah 74184","Pangkalan Dewa, Kec. Pangkalan Lada, Kabupaten Kotawaringin Barat",KALIMANTAN TENGAH,74184.0,Indonesia,,,,-2.4920388,111.8287024,https://maps.google.com/?cid=0x0:0x43b132cc4b536ead,
supermarket,Toko bahan makanan,Toko Sembako Bu Sarmi (Faried Cell),"Jl. RA. Kartini, Purbasari, Kec. Pangkalan Lada, Kabupaten Kotawaringin Barat, Kalimantan Tengah 74117","Purbasari, Kec. Pangkalan Lada, Kabupaten Kotawaringin Barat",KALIMANTAN TENGAH,74117.0,Indonesia,81250162748.0,,,-2.6160743,111.7235726,https://maps.google.com/?cid=0x0:0xbec41ca7d2ab1bee,
supermarket,Biro Perjalanan dan Wisata,Naya Travel,"GWC2+H27, Simpang Berambai, Kec. Pangkalan Banteng, Kabupaten Kotawaringin Barat, Kalimantan Tengah 74183","Simpang Berambai, Kec. Pangkalan Banteng, Kabupaten Kotawaringin Barat",KALIMANTAN TENGAH,74183.0,Indonesia,85249263039.0,,,-2.4785862,111.9000411,https://maps.google.com/?cid=0x0:0x167a51910735ba5c,
supermarket,Toko Swalayan,Modern mart,"Jl. Ahmad Yani No.Km. 38, Pandu Senjaya, Kec. Pangkalan Lada, Kabupaten Kotawaringin Barat, Kalimantan Tengah 74184","Pandu Senjaya, Kec. Pangkalan Lada, Kabupaten Kotawaringin Barat",KALIMANTAN TENGAH,74184.0,Indonesia,81349585576.0,,,-2.4809128,111.7568487,https://maps.google.com/?cid=0x0:0x860f471ded290212,
supermarket,Pasar,Pasar Sari Mulya,"GRXP+5QM, Pangkalan Tiga, Kec. Pangkalan Lada, Kabupaten Kotawaringin Barat, Kalimantan Tengah 74184","Pangkalan Tiga, Kec. Pangkalan Lada, Kabupaten Kotawaringin Barat",KALIMANTAN TENGAH,74184.0,Indonesia,81285250636.0,,,-2.4520378,111.8369311,https://maps.google.com/?cid=0x0:0x8ccfa380ce3dc40d,
supermarket,Toko Swalayan,Toko uliel,"GQGC+73J, Jl. Jenderal Sudirman, Pandu Senjaya, Kec. Pangkalan Lada, Kabupaten Kotawaringin Barat, Kalimantan Tengah 74113","Jl. Jenderal Sudirman, Pandu Senjaya, Kec. Pangkalan Lada, Kabupaten Kotawaringin Barat",KALIMANTAN TENGAH,74113.0,Indonesia,,,,-2.4742879,111.7701377,https://maps.google.com/?cid=0x0:0x6cc364d0eb57d6f5,
supermarket,Minimarket,Pl Mart,"FQMG+H75, Jl. Lada Mandala Jaya, Lada Mandala Jaya, Kec. Pangkalan Lada, Kabupaten Kotawaringin Barat, Kalimantan Tengah 74184","Jl. Lada Mandala Jaya, Lada Mandala Jaya, Kec. Pangkalan Lada, Kabupaten Kotawaringin Barat",KALIMANTAN TENGAH,74184.0,Indonesia,,,,-2.5161203,111.7757265,https://maps.google.com/?cid=0x0:0x26129bf31a85f385,
supermarket,Minimarket,Megamart Lada 2,"GQ82+9C7, Pandu Senjaya, Kec. Pangkalan Lada, Kabupaten Kotawaringin Barat, Kalimantan Tengah 74113","Pandu Senjaya, Kec. Pangkalan Lada, Kabupaten Kotawaringin Barat",KALIMANTAN TENGAH,74113.0,Indonesia,,,,-2.48408,111.7510441,https://maps.google.com/?cid=0x0:0x2e3f4c02267d9202,
supermarket,Toko Swalayan,TOKO NINA,"GQ94+X5G, Pandu Senjaya, Kec. Pangkalan Lada, Kabupaten Kotawaringin Barat, Kalimantan Tengah 74113","Pandu Senjaya, Kec. Pangkalan Lada, Kabupaten Kotawaringin Barat",KALIMANTAN TENGAH,74113.0,Indonesia,85828794891.0,,,-2.4800633,111.7554376,https://maps.google.com/?cid=0x0:0xb56ed6fbe783add7,
supermarket,,Warung Sembako mulyono,"HQJP+CHV, Unnamed Road, Pandu Senjaya, Kec. Pangkalan Lada, Kabupaten Kotawaringin Barat, Kalimantan Tengah 74184","Unnamed Road, Pandu Senjaya, Kec. Pangkalan Lada, Kabupaten Kotawaringin Barat",KALIMANTAN TENGAH,74184.0,Indonesia,,,,-2.4188995,111.7864311,https://maps.google.com/?cid=0x0:0xb9c76538313b311f,
