Category,Real Category,Business Name,Address,City,State,Postal Code,Country,Phone,Email,Website,Latitude,Longitude,Map Link,Details Link
komplek housing,Komplek perumahan,Griya Niqo Permai,"8JHW+6RW, Baru, Kec. Arut Sel., Kabupaten Kotawaringin Barat, Kalimantan Tengah 74112","Baru, Kec. Arut Sel., Kabupaten Kotawaringin Barat",KALIMANTAN TENGAH,74112.0,Indonesia,,,,-2.6718865,111.647074,https://maps.google.com/?cid=0x0:0x2f548a34e1794bd9,
komplek housing,Komplek perumahan,DEWI HOME,"8MP3+44R, Gg. Rarait 4, Baru, Kec. Arut Sel., Kabupaten Kotawaringin Barat, Kalimantan Tengah 74112","Gg. Rarait 4, Baru, Kec. Arut Sel., Kabupaten Kotawaringin Barat",KALIMANTAN TENGAH,74112.0,Indonesia,82254296702.0,,,-2.6646363,111.6527624,https://maps.google.com/?cid=0x0:0x76ffbae2d9160633,
komplek housing,komplek housing,Kalimantan Tengah 74111,"Kec. Arut Sel., Kabupaten Kotawaringin Barat, Kalimantan Tengah","Kabupaten Kotawaringin Barat, Kalimantan Tengah",KALIMANTAN TENGAH,,Indonesia,,,,-2.6520279,111.6362619,https://maps.google.com/?cid=0x0:0x2253408f4577629c,
komplek housing,Pembangunan Perumahan,Perumahan Sabil,"8MH3+M96, Baru, Kec. Arut Sel., Kabupaten Kotawaringin Barat, Kalimantan Tengah 74112","Baru, Kec. Arut Sel., Kabupaten Kotawaringin Barat",KALIMANTAN TENGAH,74112.0,Indonesia,,,,-2.67084,111.6533934,https://maps.google.com/?cid=0x0:0xbebe6a6211d4e33a,
komplek housing,Komplek perumahan,Perumahan Tatas 1,"8MW5+HGP, Jl. Gusti Achmad Yusuf, Baru, Kec. Arut Sel., Kabupaten Kotawaringin Barat, Kalimantan Tengah 74112","Jl. Gusti Achmad Yusuf, Baru, Kec. Arut Sel., Kabupaten Kotawaringin Barat",KALIMANTAN TENGAH,74112.0,Indonesia,,,,-2.6532955,111.658564,https://maps.google.com/?cid=0x0:0xb193b6e21046f4b4,
komplek housing,Komplek perumahan,Perumahan Hawla,"8MP4+W88, Jl. P. R. Tumenggung Cikra Negara II, Baru, Kec. Arut Sel., Kabupaten Kotawaringin Barat, Kalimantan Tengah 74112","Jl. P. R. Tumenggung Cikra Negara II, Baru, Kec. Arut Sel., Kabupaten Kotawaringin Barat",KALIMANTAN TENGAH,74112.0,Indonesia,82148415605.0,,,-2.66271,111.6558178,https://maps.google.com/?cid=0x0:0xe861802b41df0c7c,
komplek housing,Komplek perumahan,Rumah Putri,"Gg. Manggis No.50, Raja, Kec. Arut Sel., Kabupaten Kotawaringin Barat, Kalimantan Tengah 74112","Raja, Kec. Arut Sel., Kabupaten Kotawaringin Barat",KALIMANTAN TENGAH,74112.0,Indonesia,,,,-2.6779397,111.6330983,https://maps.google.com/?cid=0x0:0xb3b082b5087b8b15,
komplek housing,Komplek perumahan,Rumah pesisir kalteng,"8MJ3+57R, Gg. Paus, Baru, Kec. Arut Sel., Kabupaten Kotawaringin Barat, Kalimantan Tengah 74112","Gg. Paus, Baru, Kec. Arut Sel., Kabupaten Kotawaringin Barat",KALIMANTAN TENGAH,74112.0,Indonesia,,,,-2.669505,111.6531515,https://maps.google.com/?cid=0x0:0x7218964ba58a689e,
komplek housing,Komplek perumahan,RUMAH HERLY,"Jl. GM. Arsad Gg.Baung No.II, Baru, Kec. Arut Sel., Kabupaten Kotawaringin Barat, Kalimantan Tengah 74112","Baru, Kec. Arut Sel., Kabupaten Kotawaringin Barat",KALIMANTAN TENGAH,74112.0,Indonesia,,,,-2.6709582,111.6398307,https://maps.google.com/?cid=0x0:0x85b2dc0307d6cb19,
komplek housing,Komplek perumahan,jalan gue,"8JCG+WXW, Jl. Pangeran Antasari, Raja, Kec. Arut Sel., Kabupaten Kotawaringin Barat, Kalimantan Tengah 74112","Jl. Pangeran Antasari, Raja, Kec. Arut Sel., Kabupaten Kotawaringin Barat",KALIMANTAN TENGAH,74112.0,Indonesia,,,,-2.6776542,111.627409,https://maps.google.com/?cid=0x0:0xd7a65cf238273eb7,
komplek housing,Komplek perumahan,YogieIrawan's House,"Baru, Kec. Arut Sel., Kabupaten Kotawaringin Barat, Kalimantan Tengah 74112","Kec. Arut Sel., Kabupaten Kotawaringin Barat",KALIMANTAN TENGAH,74112.0,Indonesia,,,,-2.6720361,111.6448946,https://maps.google.com/?cid=0x0:0x4abdacc4733a2dcf,
komplek housing,Komplek perumahan,Rumahhh,"9MGF+PC3, Natai Baru, Kec. Arut Sel., Kabupaten Kotawaringin Barat, Kalimantan Tengah 74111","Natai Baru, Kec. Arut Sel., Kabupaten Kotawaringin Barat",KALIMANTAN TENGAH,74111.0,Indonesia,,,,-2.6239976,111.6740198,https://maps.google.com/?cid=0x0:0xa88be37a3db537c4,
komplek housing,Pembangunan Perumahan,Perumahan alfath,"Gg. Seroja 2 No.10, Mendawai, Kec. Arut Sel., Kabupaten Kotawaringin Barat, Kalimantan Tengah 74112","Mendawai, Kec. Arut Sel., Kabupaten Kotawaringin Barat",KALIMANTAN TENGAH,74112.0,Indonesia,,,,-2.6865385,111.6231852,https://maps.google.com/?cid=0x0:0x8a0db8fe48501b0a,
komplek housing,Komplek perumahan,Perumahan Griya Alka,"8MQG+3CG, Baru, Kec. Arut Sel., Kabupaten Kotawaringin Barat, Kalimantan Tengah","Kabupaten Kotawaringin Barat, Kalimantan Tengah",KALIMANTAN TENGAH,,Indonesia,,,,-2.6622012,111.6761112,https://maps.google.com/?cid=0x0:0x5066be45b7833af,
komplek housing,Komplek perumahan,Kalimantan Tengah,"Gg. Bayam I No.1, Madurejo, Kec. Arut Sel., Kabupaten Kotawaringin Barat, Kalimantan Tengah 74181","Madurejo, Kec. Arut Sel., Kabupaten Kotawaringin Barat",KALIMANTAN TENGAH,74181.0,Indonesia,,,,-2.6979503,111.6470648,https://maps.google.com/?cid=0x0:0x5f7ebf0c58092257,
komplek housing,Komplek perumahan,Rumah,"8MJ4+5G9, Baru, Kec. Arut Sel., Kabupaten Kotawaringin Barat, Kalimantan Tengah","Kabupaten Kotawaringin Barat, Kalimantan Tengah",KALIMANTAN TENGAH,,Indonesia,,,,-2.6695968,111.6563499,https://maps.google.com/?cid=0x0:0x9b5dafcca76ce934,
komplek housing,Komplek perumahan,ÿ®Ÿäÿ™ ÿÆÿØŸäÿ¨Ÿá,"Jl. Natai Arahan No.84, Baru, Kec. Arut Sel., Kabupaten Kotawaringin Barat, Kalimantan Tengah 74112","Baru, Kec. Arut Sel., Kabupaten Kotawaringin Barat",KALIMANTAN TENGAH,74112.0,Indonesia,,,,-2.67626,111.653217,https://maps.google.com/?cid=0x0:0xab1db94b684853fd,
komplek housing,komplek housing,Kagumi Home,"8MV4+WVJ, Jl. H.Delima, Baru, Kec. Arut Sel., Kabupaten Kotawaringin Barat, Kalimantan Tengah 74112","Jl. H.Delima, Baru, Kec. Arut Sel., Kabupaten Kotawaringin Barat",KALIMANTAN TENGAH,74112.0,Indonesia,,,,-2.6553324,111.6571239,https://maps.google.com/?cid=0x0:0x9418b8fbccd1327,
komplek housing,Hotel,Kos,"8JFQ+4VW, Raja, Kec. Arut Sel., Kabupaten Kotawaringin Barat, Kalimantan Tengah 74112","Raja, Kec. Arut Sel., Kabupaten Kotawaringin Barat",KALIMANTAN TENGAH,74112.0,Indonesia,,,,-2.6771416,111.6396835,https://maps.google.com/?cid=0x0:0xa45e9bec9d1f6a11,
komplek housing,Komplek perumahan,Rumah Syahruni Fams,"8JCF+8R5, Mendawai, Kec. Arut Sel., Kabupaten Kotawaringin Barat, Kalimantan Tengah 74112","Mendawai, Kec. Arut Sel., Kabupaten Kotawaringin Barat",KALIMANTAN TENGAH,74112.0,Indonesia,,,,-2.679272,111.6244063,https://maps.google.com/?cid=0x0:0xc9c59d12baed26da,
komplek housing,Komplek perumahan,Gg.prabu,"8MV5+98, Baru, Kec. Arut Sel., Kabupaten Kotawaringin Barat, Kalimantan Tengah 74112","Baru, Kec. Arut Sel., Kabupaten Kotawaringin Barat",KALIMANTAN TENGAH,74112.0,Indonesia,,,,-2.6565468,111.6585354,https://maps.google.com/?cid=0x0:0xc18de5b2a485416,
komplek housing,Asosiasi/organisasi,Sekretariat iea kobar,"Jl. Ahmad Yani No.18a KM.2, Baru, Kec. Arut Sel., Kabupaten Kotawaringin Barat, Kalimantan Tengah 74112","Baru, Kec. Arut Sel., Kabupaten Kotawaringin Barat",KALIMANTAN TENGAH,74112.0,Indonesia,,,,-2.6641856,111.6495238,https://maps.google.com/?cid=0x0:0x1a5ccd93ee1f1385,
komplek housing,Komplek perumahan,Rumah pribadi septi mulyani,"9M36+6X2, Baru, Kec. Arut Sel., Kabupaten Kotawaringin Barat, Kalimantan Tengah 74111","Baru, Kec. Arut Sel., Kabupaten Kotawaringin Barat",KALIMANTAN TENGAH,74111.0,Indonesia,,,,-2.6469816,111.6623854,https://maps.google.com/?cid=0x0:0x46665c356d89933d,
komplek housing,komplek housing,Kec. Arut Sel.,"Kabupaten Kotawaringin Barat, Kalimantan Tengah","Kabupaten Kotawaringin Barat, Kalimantan Tengah",KALIMANTAN TENGAH,,Indonesia,,,,-2.5458231,111.6183755,https://maps.google.com/?cid=0x0:0xb0a66a60f6071e18,
komplek housing,Komplek perumahan,Zaki azzaziya,"8MV4+JW, Baru, Kec. Arut Sel., Kabupaten Kotawaringin Barat, Kalimantan Tengah 74112","Baru, Kec. Arut Sel., Kabupaten Kotawaringin Barat",KALIMANTAN TENGAH,74112.0,Indonesia,,,,-2.6554768,111.6575916,https://maps.google.com/?cid=0x0:0x59758db2702d431b,
komplek housing,komplek housing,rumah,"Jl. Ahmad Wongso Gg. Itik II No.60, RT.19, Sidorejo, Kec. Arut Sel., Kabupaten Kotawaringin Barat, Kalimantan Tengah 74111","RT.19, Sidorejo, Kec. Arut Sel., Kabupaten Kotawaringin Barat",KALIMANTAN TENGAH,74111.0,Indonesia,,,,-2.6962252,111.6289952,https://maps.google.com/?cid=0x0:0x67c35e2df374b54b,
komplek housing,Pembangunan Perumahan,Lahan,"Jl. Jenderal Sudirman No.15, RT.15, Sidorejo, Kec. Arut Sel., Kabupaten Kotawaringin Barat, Kalimantan Tengah 74111","RT.15, Sidorejo, Kec. Arut Sel., Kabupaten Kotawaringin Barat",KALIMANTAN TENGAH,74111.0,Indonesia,,,,-2.7016468,111.6129603,https://maps.google.com/?cid=0x0:0xfe0bd4a4c20bdb,
komplek housing,Gedung Apartemen,Home Sweet Home,"7JXC+8H5, Jl. Cilik Riwut II, Sidorejo, Kec. Arut Sel., Kabupaten Kotawaringin Barat, Kalimantan Tengah 74112","Jl. Cilik Riwut II, Sidorejo, Kec. Arut Sel., Kabupaten Kotawaringin Barat",KALIMANTAN TENGAH,74112.0,Indonesia,,,,-2.7016399,111.6204844,https://maps.google.com/?cid=0x0:0x8de6fa19ff562d3,
komplek housing,Komplek perumahan,Rumah,"Gg. Perkutut No.14, RT.13, Sidorejo, Kec. Arut Sel., Kabupaten Kotawaringin Barat, Kalimantan Tengah 74111","RT.13, Sidorejo, Kec. Arut Sel., Kabupaten Kotawaringin Barat",KALIMANTAN TENGAH,74111.0,Indonesia,,,,-2.699949,111.62075,https://maps.google.com/?cid=0x0:0xe00c2beecff997a8,
komplek housing,komplek housing,Kalimantan Tengah 74112,"Kec. Arut Sel., Kabupaten Kotawaringin Barat, Kalimantan Tengah","Kabupaten Kotawaringin Barat, Kalimantan Tengah",KALIMANTAN TENGAH,,Indonesia,,,,-2.6703594,111.6481861,https://maps.google.com/?cid=0x0:0xb2a8a9e52752a154,
komplek housing,Pembangunan Perumahan,Perumahan Sabil,"8MH3+M96, Baru, Kec. Arut Sel., Kabupaten Kotawaringin Barat, Kalimantan Tengah 74112","Baru, Kec. Arut Sel., Kabupaten Kotawaringin Barat",KALIMANTAN TENGAH,74112.0,Indonesia,,,,-2.67084,111.6533934,https://maps.google.com/?cid=0x0:0xbebe6a6211d4e33a,
komplek housing,Komplek perumahan,Griya Niqo Permai,"8JHW+6RW, Baru, Kec. Arut Sel., Kabupaten Kotawaringin Barat, Kalimantan Tengah 74112","Baru, Kec. Arut Sel., Kabupaten Kotawaringin Barat",KALIMANTAN TENGAH,74112.0,Indonesia,,,,-2.6718865,111.647074,https://maps.google.com/?cid=0x0:0x2f548a34e1794bd9,
komplek housing,Komplek perumahan,ÿ®Ÿäÿ™ ÿÆÿØŸäÿ¨Ÿá,"Jl. Natai Arahan No.84, Baru, Kec. Arut Sel., Kabupaten Kotawaringin Barat, Kalimantan Tengah 74112","Baru, Kec. Arut Sel., Kabupaten Kotawaringin Barat",KALIMANTAN TENGAH,74112.0,Indonesia,,,,-2.67626,111.653217,https://maps.google.com/?cid=0x0:0xab1db94b684853fd,
komplek housing,Kompleks Townhouse,Perumahan Angsana Permai,"Gang Asam Bubuk No.1, Sidorejo, South Arut, West Kotawaringin Regency, Central Kalimantan 74112","Sidorejo, South Arut, West Kotawaringin Regency",KALIMANTAN TENGAH,74112.0,Indonesia,,,,-2.6799045,111.64075,https://maps.google.com/?cid=0x0:0xfc4c933ec16dd2b,
komplek housing,Komplek perumahan,Perumahan Hawla,"8MP4+W88, Jl. P. R. Tumenggung Cikra Negara II, Baru, Kec. Arut Sel., Kabupaten Kotawaringin Barat, Kalimantan Tengah 74112","Jl. P. R. Tumenggung Cikra Negara II, Baru, Kec. Arut Sel., Kabupaten Kotawaringin Barat",KALIMANTAN TENGAH,74112.0,Indonesia,82148415605.0,,,-2.66271,111.6558178,https://maps.google.com/?cid=0x0:0xe861802b41df0c7c,
komplek housing,Pembangunan Perumahan,Graha Azha Residence,"Jl. Kopong No.31, Baru, Kec. Arut Sel., Kabupaten Kotawaringin Barat, Kalimantan Tengah 74112","Baru, Kec. Arut Sel., Kabupaten Kotawaringin Barat",KALIMANTAN TENGAH,74112.0,Indonesia,,,,-2.6626426,111.6748781,https://maps.google.com/?cid=0x0:0x77eff3e6c55f842a,
komplek housing,Komplek perumahan,Rumah Putri,"Gg. Manggis No.50, Raja, Kec. Arut Sel., Kabupaten Kotawaringin Barat, Kalimantan Tengah 74112","Raja, Kec. Arut Sel., Kabupaten Kotawaringin Barat",KALIMANTAN TENGAH,74112.0,Indonesia,,,,-2.6779397,111.6330983,https://maps.google.com/?cid=0x0:0xb3b082b5087b8b15,
komplek housing,Komplek perumahan,jalan gue,"8JCG+WXW, Jl. Pangeran Antasari, Raja, Kec. Arut Sel., Kabupaten Kotawaringin Barat, Kalimantan Tengah 74112","Jl. Pangeran Antasari, Raja, Kec. Arut Sel., Kabupaten Kotawaringin Barat",KALIMANTAN TENGAH,74112.0,Indonesia,,,,-2.6776542,111.627409,https://maps.google.com/?cid=0x0:0xd7a65cf238273eb7,
komplek housing,Komplek perumahan,Rumah Syahruni Fams,"8JCF+8R5, Mendawai, Kec. Arut Sel., Kabupaten Kotawaringin Barat, Kalimantan Tengah 74112","Mendawai, Kec. Arut Sel., Kabupaten Kotawaringin Barat",KALIMANTAN TENGAH,74112.0,Indonesia,,,,-2.679272,111.6244063,https://maps.google.com/?cid=0x0:0xc9c59d12baed26da,
komplek housing,Pembangunan Perumahan,Perumahan alfath,"Gg. Seroja 2 No.10, Mendawai, Kec. Arut Sel., Kabupaten Kotawaringin Barat, Kalimantan Tengah 74112","Mendawai, Kec. Arut Sel., Kabupaten Kotawaringin Barat",KALIMANTAN TENGAH,74112.0,Indonesia,,,,-2.6865385,111.6231852,https://maps.google.com/?cid=0x0:0x8a0db8fe48501b0a,
komplek housing,Perumahan,Trio Ge Home-Kutilang II (Dua),"8J2F+R2W, Jl. Kutilang 2A, Sidorejo, Kec. Arut Sel., Kabupaten Kotawaringin Barat, Kalimantan Tengah 74112","Jl. Kutilang 2A, Sidorejo, Kec. Arut Sel., Kabupaten Kotawaringin Barat",KALIMANTAN TENGAH,74112.0,Indonesia,,,,-2.6978764,111.6225911,https://maps.google.com/?cid=0x0:0xed7c1b01bd09e28f,
komplek housing,Komplek perumahan,Rumah Mbah lulus,"8J9P+XG6, Jl. Musang, Sidorejo, Kec. Arut Sel., Kabupaten Kotawaringin Barat, Kalimantan Tengah 74112","Jl. Musang, Sidorejo, Kec. Arut Sel., Kabupaten Kotawaringin Barat",KALIMANTAN TENGAH,74112.0,Indonesia,,,,-2.6800766,111.63626,https://maps.google.com/?cid=0x0:0xbaee53f9a37d476,
komplek housing,Perhimpunan Pengembang Perumahan,Gang pipit,"8J7F+2VM, Sidorejo, Kec. Arut Sel., Kabupaten Kotawaringin Barat, Kalimantan Tengah 74112","Sidorejo, Kec. Arut Sel., Kabupaten Kotawaringin Barat",KALIMANTAN TENGAH,74112.0,Indonesia,,,,-2.6874067,111.6246773,https://maps.google.com/?cid=0x0:0xa261646712106256,
komplek housing,Komplek perumahan,Rumah ZhaZey,"8J4C+CH6, Sidorejo, Kec. Arut Sel., Kabupaten Kotawaringin Barat, Kalimantan Tengah 74112","Sidorejo, Kec. Arut Sel., Kabupaten Kotawaringin Barat",KALIMANTAN TENGAH,74112.0,Indonesia,,,,-2.6940404,111.6210998,https://maps.google.com/?cid=0x0:0xc6b16b4084555e07,
komplek housing,Komplek perumahan,Rumah pesisir kalteng,"8MJ3+57R, Gg. Paus, Baru, Kec. Arut Sel., Kabupaten Kotawaringin Barat, Kalimantan Tengah 74112","Gg. Paus, Baru, Kec. Arut Sel., Kabupaten Kotawaringin Barat",KALIMANTAN TENGAH,74112.0,Indonesia,,,,-2.669505,111.6531515,https://maps.google.com/?cid=0x0:0x7218964ba58a689e,
komplek housing,Perumahan,Perumahan Green Hills,"8J49+Q95, Jl. Fatahillah 1, Sidorejo, Kec. Arut Sel., Kabupaten Kotawaringin Barat, Kalimantan Tengah 74112","Jl. Fatahillah 1, Sidorejo, Kec. Arut Sel., Kabupaten Kotawaringin Barat",KALIMANTAN TENGAH,74112.0,Indonesia,,,,-2.6931231,111.6184833,https://maps.google.com/?cid=0x0:0x26fa233b856113ae,
komplek housing,Komplek perumahan,RUMAH HERLY,"Jl. GM. Arsad Gg.Baung No.II, Baru, Kec. Arut Sel., Kabupaten Kotawaringin Barat, Kalimantan Tengah 74112","Baru, Kec. Arut Sel., Kabupaten Kotawaringin Barat",KALIMANTAN TENGAH,74112.0,Indonesia,,,,-2.6709582,111.6398307,https://maps.google.com/?cid=0x0:0x85b2dc0307d6cb19,
komplek housing,Komplek perumahan,Rumah Wiwa Tota Nata,"Jl. Pasanah Gg. Rusa No.2, Sidorejo, Kec. Arut Sel., Kabupaten Kotawaringin Barat, Kalimantan Tengah 74112","Sidorejo, Kec. Arut Sel., Kabupaten Kotawaringin Barat",KALIMANTAN TENGAH,74112.0,Indonesia,,,,-2.6819934,111.6520422,https://maps.google.com/?cid=0x0:0x7cee8e5582add4a7,
komplek housing,Komplek perumahan,Rumah Amu,"8MPC+625, Baru, Kec. Arut Sel., Kabupaten Kotawaringin Barat, Kalimantan Tengah 74112","Baru, Kec. Arut Sel., Kabupaten Kotawaringin Barat",KALIMANTAN TENGAH,74112.0,Indonesia,,,,-2.6644834,111.6700984,https://maps.google.com/?cid=0x0:0x8f5169db3727b79a,
komplek housing,Pembangunan Perumahan,Perumahan Sido Mukti,"8J4H+6H7, Sidorejo, Kec. Arut Sel., Kabupaten Kotawaringin Barat, Kalimantan Tengah 74112","Sidorejo, Kec. Arut Sel., Kabupaten Kotawaringin Barat",KALIMANTAN TENGAH,74112.0,Indonesia,,,,-2.6944274,111.6289257,https://maps.google.com/?cid=0x0:0xe75ce446ba6f11be,
komplek housing,komplek housing,Kec. Arut Sel.,"Kabupaten Kotawaringin Barat, Kalimantan Tengah","Kabupaten Kotawaringin Barat, Kalimantan Tengah",KALIMANTAN TENGAH,,Indonesia,,,,-2.5458231,111.6183755,https://maps.google.com/?cid=0x0:0xb0a66a60f6071e18,
komplek housing,Komplek perumahan,DEWI HOME,"8MP3+44R, Gg. Rarait 4, Baru, Kec. Arut Sel., Kabupaten Kotawaringin Barat, Kalimantan Tengah 74112","Gg. Rarait 4, Baru, Kec. Arut Sel., Kabupaten Kotawaringin Barat",KALIMANTAN TENGAH,74112.0,Indonesia,82254296702.0,,,-2.6646363,111.6527624,https://maps.google.com/?cid=0x0:0x76ffbae2d9160633,
komplek housing,Komplek perumahan,Abidzar House,"8J6R+CMR, Jl. Maid Badir, Madurejo, Kec. Arut Sel., Kabupaten Kotawaringin Barat, Kalimantan Tengah 74112","Jl. Maid Badir, Madurejo, Kec. Arut Sel., Kabupaten Kotawaringin Barat",KALIMANTAN TENGAH,74112.0,Indonesia,,,,-2.6888999,111.6416354,https://maps.google.com/?cid=0x0:0x16a664a658982375,
komplek housing,Perhimpunan Pengembang Perumahan,BUDI SURAKHMAT,"Jl. Cilik Riwut 1, Sidorejo, Kec. Arut Sel., Kabupaten Kotawaringin Barat, Kalimantan Tengah 74112","Sidorejo, Kec. Arut Sel., Kabupaten Kotawaringin Barat",KALIMANTAN TENGAH,74112.0,Indonesia,,,,-2.6918304,111.6221767,https://maps.google.com/?cid=0x0:0x4dafb7e05fe0d3bd,
komplek housing,Perumahan,Rumah Fatih paling ganteng,"Jl. Jenderal Sudirman Gg. Talihit, Sidorejo, Kec. Arut Sel., Kabupaten Kotawaringin Barat, Kalimantan Tengah 74112","Sidorejo, Kec. Arut Sel., Kabupaten Kotawaringin Barat",KALIMANTAN TENGAH,74112.0,Indonesia,,,,-2.6951455,111.6222239,https://maps.google.com/?cid=0x0:0x60dcfed2b7b5d12,
komplek housing,Pembangunan Perumahan,Perumahan Gaharu Residence No.H11,"8J27+C77, Sidorejo, Kec. Arut Sel., Kabupaten Kotawaringin Barat, Kalimantan Tengah 74112","Sidorejo, Kec. Arut Sel., Kabupaten Kotawaringin Barat",KALIMANTAN TENGAH,74112.0,Indonesia,,,,-2.6989625,111.6131719,https://maps.google.com/?cid=0x0:0x1e5383dce278f799,
komplek housing,Komplek perumahan,Rumah keluarga NORHAYATI,"8J9C+VJF, Mendawai, Kec. Arut Sel., Kabupaten Kotawaringin Barat, Kalimantan Tengah 74112","Mendawai, Kec. Arut Sel., Kabupaten Kotawaringin Barat",KALIMANTAN TENGAH,74112.0,Indonesia,,,,-2.6806723,111.6219085,https://maps.google.com/?cid=0x0:0x5c4c86140a968524,
komplek housing,komplek housing,Kalimantan Tengah 74113,"Kabupaten Kotawaringin Barat, Kalimantan Tengah","Kabupaten Kotawaringin Barat, Kalimantan Tengah",KALIMANTAN TENGAH,,Indonesia,,,,-2.4702354,111.7137694,https://maps.google.com/?cid=0x0:0x6a2f96cf641bd2e0,
komplek housing,Komplek perumahan,Perumahan G2 PKS Natai Baru Estate,"9MRG+G86, Natai Baru, Kec. Arut Sel., Kabupaten Kotawaringin Barat, Kalimantan Tengah 74113","Natai Baru, Kec. Arut Sel., Kabupaten Kotawaringin Barat",KALIMANTAN TENGAH,74113.0,Indonesia,,,,-2.607849,111.675463,https://maps.google.com/?cid=0x0:0x8dda839f9e0f6908,
komplek housing,Komplek perumahan,Bedeng,"9MWW+592, Natai Baru, Kec. Arut Sel., Kabupaten Kotawaringin Barat, Kalimantan Tengah","Kabupaten Kotawaringin Barat, Kalimantan Tengah",KALIMANTAN TENGAH,,Indonesia,,,,-2.6046075,111.6958831,https://maps.google.com/?cid=0x0:0xbfdc2722e2ea9985,
komplek housing,Kantor Perusahaan,Perumahan PKS NATAI BARU PT KSA,"9MWW+592, Natai Baru, Kec. Arut Sel., Kabupaten Kotawaringin Barat, Kalimantan Tengah","Kabupaten Kotawaringin Barat, Kalimantan Tengah",KALIMANTAN TENGAH,,Indonesia,,,,-2.6046075,111.6958831,https://maps.google.com/?cid=0x0:0xae54d8f65b6ea997,
komplek housing,Komplek perumahan,Perumahan Tatas 1,"8MW5+HGP, Jl. Gusti Achmad Yusuf, Baru, Kec. Arut Sel., Kabupaten Kotawaringin Barat, Kalimantan Tengah 74112","Jl. Gusti Achmad Yusuf, Baru, Kec. Arut Sel., Kabupaten Kotawaringin Barat",KALIMANTAN TENGAH,74112.0,Indonesia,,,,-2.6532955,111.658564,https://maps.google.com/?cid=0x0:0xb193b6e21046f4b4,
komplek housing,Komplek perumahan,Rumah UtiAkung,"9MVR+7PP, Natai Baru, Kec. Arut Sel., Kabupaten Kotawaringin Barat, Kalimantan Tengah","Kabupaten Kotawaringin Barat, Kalimantan Tengah",KALIMANTAN TENGAH,,Indonesia,,,,-2.6067956,111.6918339,https://maps.google.com/?cid=0x0:0xb384a5a8da0ce09d,
komplek housing,Komplek perumahan,Cah sobo,"HPV2+MJ, Runtu, Kec. Arut Sel., Kabupaten Kotawaringin Barat, Kalimantan Tengah","Kabupaten Kotawaringin Barat, Kalimantan Tengah",KALIMANTAN TENGAH,,Indonesia,,,,-2.405815,111.701537,https://maps.google.com/?cid=0x0:0xc1aab9724bf43d47,
komplek housing,komplek housing,Rumah tinggal,"8MW5+JH9, Baru, Kec. Arut Sel., Kabupaten Kotawaringin Barat, Kalimantan Tengah","Kabupaten Kotawaringin Barat, Kalimantan Tengah",KALIMANTAN TENGAH,,Indonesia,,,,-2.6535848,111.6590839,https://maps.google.com/?cid=0x0:0xacba44a809ad9be6,
komplek housing,Komplek perumahan,Afdeling alfa,"CM23+PV, Baru, Kec. Arut Sel., Kabupaten Kotawaringin Barat, Kalimantan Tengah","Kabupaten Kotawaringin Barat, Kalimantan Tengah",KALIMANTAN TENGAH,,Indonesia,,,,-2.5981831,111.6546261,https://maps.google.com/?cid=0x0:0x20d3072ec7c5bdc8,
komplek housing,Komplek perumahan,Perumahan Blok A (Pabrik),"CQGC+PV2, Sungai Rangit Jaya, Kec. Pangkalan Lada, Kabupaten Kotawaringin Barat, Kalimantan Tengah 74184","Sungai Rangit Jaya, Kec. Pangkalan Lada, Kabupaten Kotawaringin Barat",KALIMANTAN TENGAH,74184.0,Indonesia,,,,-2.5732317,111.7721303,https://maps.google.com/?cid=0x0:0xf1e8d773ab2c8448,
komplek housing,Otoritas Perumahan,Perumahan Sunrise Garden C.14 Gang Sunrise 9,"Jalan Cilik Riwut No.1, Sidorejo, South Arut, West Kotawaringin Regency, Central Kalimantan 74112","Sidorejo, South Arut, West Kotawaringin Regency",KALIMANTAN TENGAH,74112.0,Indonesia,,,,-2.6932931,111.6204535,https://maps.google.com/?cid=0x0:0x7d2ece18bfd1af99,
komplek housing,Komplek perumahan,Rumahhh,"9MGF+PC3, Natai Baru, Kec. Arut Sel., Kabupaten Kotawaringin Barat, Kalimantan Tengah 74111","Natai Baru, Kec. Arut Sel., Kabupaten Kotawaringin Barat",KALIMANTAN TENGAH,74111.0,Indonesia,,,,-2.6239976,111.6740198,https://maps.google.com/?cid=0x0:0xa88be37a3db537c4,
komplek housing,komplek housing,Pak nan,"9MWQ+C2M, Natai Baru, Kec. Arut Sel., Kabupaten Kotawaringin Barat, Kalimantan Tengah","Kabupaten Kotawaringin Barat, Kalimantan Tengah",KALIMANTAN TENGAH,,Indonesia,,,,-2.6039221,111.6875482,https://maps.google.com/?cid=0x0:0x2a7a6f199d1163cb,
komplek housing,Pembangunan Perumahan,Rumah depan kud,"FMXM+RHG, Medangsari, Kec. Arut Sel., Kabupaten Kotawaringin Barat, Kalimantan Tengah","Kabupaten Kotawaringin Barat, Kalimantan Tengah",KALIMANTAN TENGAH,,Indonesia,,,,-2.5004322,111.683962,https://maps.google.com/?cid=0x0:0xa4b8a8eed4334f33,
komplek housing,Komplek perumahan,Perumahan G6 RnD,"PJ27+7CX, Kenambui, Kec. Arut Sel., Kabupaten Kotawaringin Barat, Kalimantan Tengah","Kabupaten Kotawaringin Barat, Kalimantan Tengah",KALIMANTAN TENGAH,,Indonesia,,,,-2.299257,111.6136162,https://maps.google.com/?cid=0x0:0xd5d0d6cff43b6665,
komplek housing,Komplek perumahan,Rumah Wisnu,"8MP7+66J, Jl. Ahmad Yani Gg. Mihau, Baru, Kec. Arut Sel., Kabupaten Kotawaringin Barat, Kalimantan Tengah 74113","Jl. Ahmad Yani Gg. Mihau, Baru, Kec. Arut Sel., Kabupaten Kotawaringin Barat",KALIMANTAN TENGAH,74113.0,Indonesia,85248323732.0,,,-2.663926,111.6629171,https://maps.google.com/?cid=0x0:0x457f38d074709a74,
komplek housing,Komplek perumahan,Sujargo Malikhatun,"GQHH+CMW, Pandu Senjaya, Kec. Pangkalan Lada, Kabupaten Kotawaringin Barat, Kalimantan Tengah 74184","Pandu Senjaya, Kec. Pangkalan Lada, Kabupaten Kotawaringin Barat",KALIMANTAN TENGAH,74184.0,Indonesia,,,,-2.4713898,111.7791895,https://maps.google.com/?cid=0x0:0x6540ff13e04e9489,
komplek housing,komplek housing,Kagumi Home,"8MV4+WVJ, Jl. H.Delima, Baru, Kec. Arut Sel., Kabupaten Kotawaringin Barat, Kalimantan Tengah 74112","Jl. H.Delima, Baru, Kec. Arut Sel., Kabupaten Kotawaringin Barat",KALIMANTAN TENGAH,74112.0,Indonesia,,,,-2.6553324,111.6571239,https://maps.google.com/?cid=0x0:0x9418b8fbccd1327,
komplek housing,Pembangunan Perumahan,MBAH HARJO SUWITO JOSS,"GQF7+MMX, RT.19 rw1, Pandu Senjaya, Kec. Pangkalan Lada, Kabupaten Kotawaringin Barat, Kalimantan Tengah 74113","RT.19 rw1, Pandu Senjaya, Kec. Pangkalan Lada, Kabupaten Kotawaringin Barat",KALIMANTAN TENGAH,74113.0,Indonesia,,,,-2.4757695,111.7642258,https://maps.google.com/?cid=0x0:0x12500c71a4b1bd3d,
komplek housing,Komplek perumahan,Geo,"CPFQ+Q9C, Sumber Agung, Kec. Pangkalan Lada, Kabupaten Kotawaringin Barat, Kalimantan Tengah","Kabupaten Kotawaringin Barat, Kalimantan Tengah",KALIMANTAN TENGAH,,Indonesia,,,,-2.5755713,111.7383854,https://maps.google.com/?cid=0x0:0x604ad29f1a52ff3d,
komplek housing,komplek housing,Kec. Arut Sel.,"Kabupaten Kotawaringin Barat, Kalimantan Tengah","Kabupaten Kotawaringin Barat, Kalimantan Tengah",KALIMANTAN TENGAH,,Indonesia,,,,-2.5458231,111.6183755,https://maps.google.com/?cid=0x0:0xb0a66a60f6071e18,
komplek housing,Komplek perumahan,Perumahan Sunrise Garden no.71B Gg.Sunrise XI,"Jl. Jendral Sudirman Gg. Tiung Perumahan Sunrise Garden 11, Kelurahan No.45, Sidorejo, Kalimantan Tengah 74113","Kelurahan No.45, Sidorejo",KALIMANTAN TENGAH,74113.0,Indonesia,,,,-2.6943132,111.6207082,https://maps.google.com/?cid=0x0:0x9e3a1f987dd39d99,
komplek housing,Komplek perumahan,Rumah Hernandang,"9PWC+RMX, Jl. Ahmad Yani, Purbasari, Kec. Pangkalan Lada, Kabupaten Kotawaringin Barat, Kalimantan Tengah 74113","Jl. Ahmad Yani, Purbasari, Kec. Pangkalan Lada, Kabupaten Kotawaringin Barat",KALIMANTAN TENGAH,74113.0,Indonesia,,,,-2.6028958,111.7217493,https://maps.google.com/?cid=0x0:0x16090e794bb3583a,
komplek housing,Komplek perumahan,Perumahan Bumi Asih Permai SCC,"RT.17, Pasir Panjang, Kec. Arut Sel., Kabupaten Kotawaringin Barat, Kalimantan Tengah 74181","Pasir Panjang, Kec. Arut Sel., Kabupaten Kotawaringin Barat",KALIMANTAN TENGAH,74181.0,Indonesia,,,,-2.7414612,111.6287355,https://maps.google.com/?cid=0x0:0xd1942167007d1a61,
komplek housing,Pembangunan Perumahan,mbk ul soleh,"9MWR+68X, Natai Baru, Kec. Arut Sel., Kabupaten Kotawaringin Barat, Kalimantan Tengah 74113","Natai Baru, Kec. Arut Sel., Kabupaten Kotawaringin Barat",KALIMANTAN TENGAH,74113.0,Indonesia,,,,-2.6043943,111.6908705,https://maps.google.com/?cid=0x0:0x6f3347ad3bbe0317,
komplek housing,Pembangunan Perumahan,wahyu hidayat,"GQG6+GP, Pandu Senjaya, Kec. Pangkalan Lada, Kabupaten Kotawaringin Barat, Kalimantan Tengah 74113","Pandu Senjaya, Kec. Pangkalan Lada, Kabupaten Kotawaringin Barat",KALIMANTAN TENGAH,74113.0,Indonesia,,,,-2.4736295,111.7617628,https://maps.google.com/?cid=0x0:0xedbffd3694c2a57a,
komplek housing,Perhimpunan Pengembang Perumahan,Diyah,"9PRG+967, Purbasari, Kec. Pangkalan Lada, Kabupaten Kotawaringin Barat, Kalimantan Tengah 74113","Purbasari, Kec. Pangkalan Lada, Kabupaten Kotawaringin Barat",KALIMANTAN TENGAH,74113.0,Indonesia,,,,-2.6086456,111.7255551,https://maps.google.com/?cid=0x0:0x6fc6201a15d61021,
komplek housing,Komplek perumahan,Rumah Hendro purnomo,"9PXF+4WG, Jl. Ahmad Yani, Purbasari, Kec. Pangkalan Lada, Kabupaten Kotawaringin Barat, Kalimantan Tengah 74113","Jl. Ahmad Yani, Purbasari, Kec. Pangkalan Lada, Kabupaten Kotawaringin Barat",KALIMANTAN TENGAH,74113.0,Indonesia,,,,-2.6021997,111.724816,https://maps.google.com/?cid=0x0:0xf92e1e6bb467e3ee,
komplek housing,Komplek perumahan,House Aklis,"FPM6+G9H, Unnamed Road, Kadipi Atas, Kec. Pangkalan Lada, Kabupaten Kotawaringin Barat, Kalimantan Tengah 74113","Unnamed Road, Kadipi Atas, Kec. Pangkalan Lada, Kabupaten Kotawaringin Barat",KALIMANTAN TENGAH,74113.0,Indonesia,,,,-2.5161871,111.7109753,https://maps.google.com/?cid=0x0:0x9775c1b8672dd263,
komplek housing,Komplek perumahan,RUMAH HERLY,"Jl. GM. Arsad Gg.Baung No.II, Baru, Kec. Arut Sel., Kabupaten Kotawaringin Barat, Kalimantan Tengah 74112","Baru, Kec. Arut Sel., Kabupaten Kotawaringin Barat",KALIMANTAN TENGAH,74112.0,Indonesia,,,,-2.6709582,111.6398307,https://maps.google.com/?cid=0x0:0x85b2dc0307d6cb19,
komplek housing,Komplek perumahan,Rumah nenenk aya,"8JFM+R87, Raja, Kec. Arut Sel., Kabupaten Kotawaringin Barat, Kalimantan Tengah 74112","Raja, Kec. Arut Sel., Kabupaten Kotawaringin Barat",KALIMANTAN TENGAH,74112.0,Indonesia,,,,-2.6750896,111.6335114,https://maps.google.com/?cid=0x0:0x988b223c7411b3d0,
komplek housing,Komplek perumahan,Tanah kosong,"8JGQ+V59, Gg. Bakut, Baru, Kec. Arut Sel., Kabupaten Kotawaringin Barat, Kalimantan Tengah 74112","Gg. Bakut, Baru, Kec. Arut Sel., Kabupaten Kotawaringin Barat",KALIMANTAN TENGAH,74112.0,Indonesia,,,,-2.672705,111.637995,https://maps.google.com/?cid=0x0:0xb52b987333483d82,
komplek housing,Komplek perumahan,Natalan nea,"8JHP+M3X, Baru, Kec. Arut Sel., Kabupaten Kotawaringin Barat, Kalimantan Tengah 74112","Baru, Kec. Arut Sel., Kabupaten Kotawaringin Barat",KALIMANTAN TENGAH,74112.0,Indonesia,,,,-2.6707622,111.6352358,https://maps.google.com/?cid=0x0:0xc66a040aa4465227,
komplek housing,Komplek perumahan,Rumah fitri,"8JJQ+QX, Baru, Kec. Arut Sel., Kabupaten Kotawaringin Barat, Kalimantan Tengah 74112","Baru, Kec. Arut Sel., Kabupaten Kotawaringin Barat",KALIMANTAN TENGAH,74112.0,Indonesia,82157344210.0,,,-2.6682095,111.6399731,https://maps.google.com/?cid=0x0:0x2941da17281731dc,
komplek housing,Komplek perumahan,Kampung Ambtron,"JL. Pangeran Antasari, Raja Arut Selatan, 74114, Raja, Kabupaten Kotawaringin Barat, Kalimantan Tengah 74112","Raja Arut Selatan,",KALIMANTAN TENGAH,74114.0,Indonesia,,,,-2.6733947,111.6348594,https://maps.google.com/?cid=0x0:0xb177104b9276afb3,
komplek housing,Komplek perumahan,Rumah mamak,"8JGP+HMH, Gg. Tempala 1, Baru, South Arut, West Kotawaringin Regency, Central Kalimantan 74112","Gg. Tempala 1, Baru, South Arut, West Kotawaringin Regency",KALIMANTAN TENGAH,74112.0,Indonesia,,,,-2.6734469,111.6362258,https://maps.google.com/?cid=0x0:0x8c74481a614a59c3,
komplek housing,Komplek perumahan,Barakan,"8JJQ+9MX, Jl. Berunai, Baru, Kec. Arut Sel., Kabupaten Kotawaringin Barat, Kalimantan Tengah 74112","Jl. Berunai, Baru, Kec. Arut Sel., Kabupaten Kotawaringin Barat",KALIMANTAN TENGAH,74112.0,Indonesia,,,,-2.6690098,111.6392429,https://maps.google.com/?cid=0x0:0x2e86dd35b7c97940,
komplek housing,Perhimpunan Pengembang Perumahan,GG.haruan,"8JGP+JR8, Gg. Tempala 1, Baru, South Arut, West Kotawaringin Regency, Central Kalimantan 74112","Gg. Tempala 1, Baru, South Arut, West Kotawaringin Regency",KALIMANTAN TENGAH,74112.0,Indonesia,,,,-2.6734585,111.6370722,https://maps.google.com/?cid=0x0:0x98e9ee3ac6219d9e,
komplek housing,Komplek perumahan,ùòèùò¶ùò≥ùò™.ùò¥ùò™ùò¥ùò∏ùò¢ùòØùòµùò∞,"ùòëùò≠ùòØ ùòÆùò¢ùò¨, Jl. Ma Jambek No.05, Raja Seberang, Kec. Arut Sel., Kabupaten Kotawaringin Barat, Kalimantan Tengah 74112","Jl. Ma Jambek No.05, Raja Seberang, Kec. Arut Sel., Kabupaten Kotawaringin Barat",KALIMANTAN TENGAH,74112.0,Indonesia,,,,-2.6744027,111.6286155,https://maps.google.com/?cid=0x0:0x5e2894277cb76648,
komplek housing,komplek housing,Kalimantan Tengah 74114,"Raja Seberang, Kec. Arut Sel., Kabupaten Kotawaringin Barat, Kalimantan Tengah","Kabupaten Kotawaringin Barat, Kalimantan Tengah",KALIMANTAN TENGAH,,Indonesia,,,,-2.6293906,111.6064513,https://maps.google.com/?cid=0x0:0x6a6c8f148d148d7b,
komplek housing,komplek housing,Rumah anjang,"8JFM+WG4, Raja, Kec. Arut Sel., Kabupaten Kotawaringin Barat, Kalimantan Tengah 74112","Raja, Kec. Arut Sel., Kabupaten Kotawaringin Barat",KALIMANTAN TENGAH,74112.0,Indonesia,,,,-2.675238,111.6338232,https://maps.google.com/?cid=0x0:0xfd4544cd0ccd0251,
komplek housing,komplek housing,Mercure Hotel Pangkalan Bun,"Jl. H. Udan Said, Baru, Kec. Arut Sel., Kabupaten Kotawaringin Barat, Kalimantan Tengah 74113","Baru, Kec. Arut Sel., Kabupaten Kotawaringin Barat",KALIMANTAN TENGAH,74113.0,Indonesia,5326622222.0,,,-2.6731068,111.6393894,https://maps.google.com/?cid=0x0:0x471a12f6ad8cd6fb,
komplek housing,Asosiasi/organisasi,raja ambatron,"8JGM+RV8, Jl. Pangeran Antasari, Raja, Kec. Arut Sel., Kabupaten Kotawaringin Barat, Kalimantan Tengah 74112","Jl. Pangeran Antasari, Raja, Kec. Arut Sel., Kabupaten Kotawaringin Barat",KALIMANTAN TENGAH,74112.0,Indonesia,,,,-2.6726921,111.6343316,https://maps.google.com/?cid=0x0:0xdc32bcbea79678a5,
komplek housing,Pembangunan Perumahan,Perumahan Citra Royal Village,"7M98+WJ8, Jl. Pabrik Jagung, Pasir Panjang, Kec. Arut Sel., Kabupaten Kotawaringin Barat, Kalimantan Tengah 74115","Jl. Pabrik Jagung, Pasir Panjang, Kec. Arut Sel., Kabupaten Kotawaringin Barat",KALIMANTAN TENGAH,74115.0,Indonesia,82255521444.0,,,-2.7302127,111.6665683,https://maps.google.com/?cid=0x0:0x813ab202771b6351,
komplek housing,Pembangunan Perumahan,Perumahan Citra Graha,"7J8V+87P, Jl. Topar, Pasir Panjang, Kec. Arut Sel., Kabupaten Kotawaringin Barat, Kalimantan Tengah 74181","Jl. Topar, Pasir Panjang, Kec. Arut Sel., Kabupaten Kotawaringin Barat",KALIMANTAN TENGAH,74181.0,Indonesia,,,,-2.7341622,111.6432139,https://maps.google.com/?cid=0x0:0xa9c2471429d6e1f8,
komplek housing,Komplek perumahan,Fasilitas Umum - Lapangan Olahraga - Arena Bermain - Tanah Kosong Perumahan CRV,"7M98+XMM, Pasir Panjang, Kec. Arut Sel., Kabupaten Kotawaringin Barat, Kalimantan Tengah 74181","Pasir Panjang, Kec. Arut Sel., Kabupaten Kotawaringin Barat",KALIMANTAN TENGAH,74181.0,Indonesia,,,,-2.7300295,111.6666611,https://maps.google.com/?cid=0x0:0xb5e8c89c7ef5493,
komplek housing,Otoritas Perumahan,Perumahan Sunrise Garden C.14 Gang Sunrise 9,"Jalan Cilik Riwut No.1, Sidorejo, South Arut, West Kotawaringin Regency, Central Kalimantan 74112","Sidorejo, South Arut, West Kotawaringin Regency",KALIMANTAN TENGAH,74112.0,Indonesia,,,,-2.6932931,111.6204535,https://maps.google.com/?cid=0x0:0x7d2ece18bfd1af99,
komplek housing,komplek housing,Kalimantan Tengah 74116,"Kec. Arut Sel., Kabupaten Kotawaringin Barat, Kalimantan Tengah","Kabupaten Kotawaringin Barat, Kalimantan Tengah",KALIMANTAN TENGAH,,Indonesia,,,,-2.4168826,111.5945271,https://maps.google.com/?cid=0x0:0x9678e52ec657f14e,
komplek housing,Komplek perumahan,Perumahan G6 RnD,"PJ27+7CX, Kenambui, Kec. Arut Sel., Kabupaten Kotawaringin Barat, Kalimantan Tengah","Kabupaten Kotawaringin Barat, Kalimantan Tengah",KALIMANTAN TENGAH,,Indonesia,,,,-2.299257,111.6136162,https://maps.google.com/?cid=0x0:0xd5d0d6cff43b6665,
komplek housing,Komplek perumahan,Perum G6-E Sulung Research Station,"PJ27+7CX, Kenambui, Kec. Arut Sel., Kabupaten Kotawaringin Barat, Kalimantan Tengah","Kabupaten Kotawaringin Barat, Kalimantan Tengah",KALIMANTAN TENGAH,,Indonesia,,,,-2.2993272,111.6129831,https://maps.google.com/?cid=0x0:0x85a1032c6b517797,
komplek housing,Komplek perumahan,TNYASR,"9H79+4JR, Mendawai Seberang, Kec. Arut Sel., Kabupaten Kotawaringin Barat, Kalimantan Tengah","Kabupaten Kotawaringin Barat, Kalimantan Tengah",KALIMANTAN TENGAH,,Indonesia,,,,-2.6371442,111.5690054,https://maps.google.com/?cid=0x0:0x1f23f5f7c3826b75,
komplek housing,Komplek perumahan,Cah sobo,"HPV2+MJ, Runtu, Kec. Arut Sel., Kabupaten Kotawaringin Barat, Kalimantan Tengah","Kabupaten Kotawaringin Barat, Kalimantan Tengah",KALIMANTAN TENGAH,,Indonesia,,,,-2.405815,111.701537,https://maps.google.com/?cid=0x0:0xc1aab9724bf43d47,
komplek housing,Komplek perumahan,Afdeling C Pulau Estate,"JJP3+8G, Sulung, Kec. Arut Sel., Kabupaten Kotawaringin Barat, Kalimantan Tengah","Kabupaten Kotawaringin Barat, Kalimantan Tengah",KALIMANTAN TENGAH,,Indonesia,,,,-2.3642321,111.6038327,https://maps.google.com/?cid=0x0:0xfb73a5daf7d044cd,
komplek housing,Perumahan,ALFA SLE,"PJV6+VV2, Sulung, Kec. Arut Sel., Kabupaten Kotawaringin Barat, Kalimantan Tengah","Kabupaten Kotawaringin Barat, Kalimantan Tengah",KALIMANTAN TENGAH,,Indonesia,,,,-2.2553713,111.6121516,https://maps.google.com/?cid=0x0:0x7c6ccd1f37f246f8,
komplek housing,Pembangunan Perumahan,Rumah Ibu Sia Emina AT,"FJ39+M9C, Raja Seberang, Kec. Arut Sel., Kabupaten Kotawaringin Barat, Kalimantan Tengah","Kabupaten Kotawaringin Barat, Kalimantan Tengah",KALIMANTAN TENGAH,,Indonesia,,,,-2.5458231,111.6183755,https://maps.google.com/?cid=0x0:0x8f7acb131dbbcc3d,
komplek housing,Perumahan,AFDELING CHARLY RANGDA ESTATE,"MHCP+RP, Sulung, Kec. Arut Sel., Kabupaten Kotawaringin Barat, Kalimantan Tengah","Kabupaten Kotawaringin Barat, Kalimantan Tengah",KALIMANTAN TENGAH,,Indonesia,,,,-2.3277458,111.5864738,https://maps.google.com/?cid=0x0:0xc5cc898b264e2ddc,
komplek housing,Kantor Perusahaan,Mess Karyawan BPR Lingga,"MJX7+XJW, Kenambui, Kec. Arut Sel., Kabupaten Kotawaringin Barat, Kalimantan Tengah 74116","Kenambui, Kec. Arut Sel., Kabupaten Kotawaringin Barat",KALIMANTAN TENGAH,74116.0,Indonesia,,,,-2.2996877,111.6141733,https://maps.google.com/?cid=0x0:0xc6963702ecd1be13,
komplek housing,Komplek perumahan,Rumah UtiAkung,"9MVR+7PP, Natai Baru, Kec. Arut Sel., Kabupaten Kotawaringin Barat, Kalimantan Tengah","Kabupaten Kotawaringin Barat, Kalimantan Tengah",KALIMANTAN TENGAH,,Indonesia,,,,-2.6067956,111.6918339,https://maps.google.com/?cid=0x0:0xb384a5a8da0ce09d,
komplek housing,Komplek perumahan,Rumahhh,"9MGF+PC3, Natai Baru, Kec. Arut Sel., Kabupaten Kotawaringin Barat, Kalimantan Tengah 74111","Natai Baru, Kec. Arut Sel., Kabupaten Kotawaringin Barat",KALIMANTAN TENGAH,74111.0,Indonesia,,,,-2.6239976,111.6740198,https://maps.google.com/?cid=0x0:0xa88be37a3db537c4,
komplek housing,Kantor Perusahaan,Perumahan PKS NATAI BARU PT KSA,"9MWW+592, Natai Baru, Kec. Arut Sel., Kabupaten Kotawaringin Barat, Kalimantan Tengah","Kabupaten Kotawaringin Barat, Kalimantan Tengah",KALIMANTAN TENGAH,,Indonesia,,,,-2.6046075,111.6958831,https://maps.google.com/?cid=0x0:0xae54d8f65b6ea997,
komplek housing,Kantor Perusahaan,"Runtu Estate Residence, PT. Surya Sawit Sejati","JPF9+VFH, Unnamed Road, Runtu, Kec. Arut Sel., Kabupaten Kotawaringin Barat, Kalimantan Tengah 74113","Unnamed Road, Runtu, Kec. Arut Sel., Kabupaten Kotawaringin Barat",KALIMANTAN TENGAH,74113.0,Indonesia,,,,-2.3753132,111.7187463,https://maps.google.com/?cid=0x0:0x76e4e27005e30024,
komplek housing,Kantor Perusahaan,Afdeling Carli sulung,"PJFP+392, Runtu, Kec. Arut Sel., Kabupaten Kotawaringin Barat, Kalimantan Tengah 74116","Runtu, Kec. Arut Sel., Kabupaten Kotawaringin Barat",KALIMANTAN TENGAH,74116.0,Indonesia,,,,-2.2774083,111.6358879,https://maps.google.com/?cid=0x0:0xeb523497d80960ee,
komplek housing,Komplek perumahan,Tempat apelan bravo amr,"MQ5G+XG2, Umpang, Kec. Arut Sel., Kabupaten Kotawaringin Barat, Kalimantan Tengah 74116","Umpang, Kec. Arut Sel., Kabupaten Kotawaringin Barat",KALIMANTAN TENGAH,74116.0,Indonesia,,,,-2.3395286,111.776771,https://maps.google.com/?cid=0x0:0xce2dd6974f6b4169,
komplek housing,Komplek perumahan,Perumahan Gang Mihing,"QHCP+3P, Wonorejo, Kec. Sematu Jaya, Kabupaten Lamandau, Kalimantan Tengah","Kabupaten Lamandau, Kalimantan Tengah",KALIMANTAN TENGAH,,Indonesia,,,,-2.229867,111.586853,https://maps.google.com/?cid=0x0:0x5c8051fa12a296,
komplek housing,Asosiasi/organisasi,Asrama lelaki,"JPCQ+W2X, Runtu, Kec. Arut Sel., Kabupaten Kotawaringin Barat, Kalimantan Tengah","Kabupaten Kotawaringin Barat, Kalimantan Tengah",KALIMANTAN TENGAH,,Indonesia,,,,-2.3776368,111.7376178,https://maps.google.com/?cid=0x0:0xe626858c8b768af4,
komplek housing,Komplek perumahan,Perumahan Tatas 1,"8MW5+HGP, Jl. Gusti Achmad Yusuf, Baru, Kec. Arut Sel., Kabupaten Kotawaringin Barat, Kalimantan Tengah 74112","Jl. Gusti Achmad Yusuf, Baru, Kec. Arut Sel., Kabupaten Kotawaringin Barat",KALIMANTAN TENGAH,74112.0,Indonesia,,,,-2.6532955,111.658564,https://maps.google.com/?cid=0x0:0xb193b6e21046f4b4,
komplek housing,Pembangunan Perumahan,Rumah depan kud,"FMXM+RHG, Medangsari, Kec. Arut Sel., Kabupaten Kotawaringin Barat, Kalimantan Tengah","Kabupaten Kotawaringin Barat, Kalimantan Tengah",KALIMANTAN TENGAH,,Indonesia,,,,-2.5004322,111.683962,https://maps.google.com/?cid=0x0:0xa4b8a8eed4334f33,
komplek housing,komplek housing,Kec. Arut Sel.,"Kabupaten Kotawaringin Barat, Kalimantan Tengah","Kabupaten Kotawaringin Barat, Kalimantan Tengah",KALIMANTAN TENGAH,,Indonesia,,,,-2.5458231,111.6183755,https://maps.google.com/?cid=0x0:0xb0a66a60f6071e18,
komplek housing,Pembangunan Perumahan,Perumahan Tectona Hill,"Jalan Petongahan Pinang Merah No.RT 026, Pasir Panjang, Kec. Arut Sel., Kabupaten Kotawaringin Barat, Kalimantan Tengah 74117","Pasir Panjang, Kec. Arut Sel., Kabupaten Kotawaringin Barat",KALIMANTAN TENGAH,74117.0,Indonesia,,,,-2.7350235,111.6277178,https://maps.google.com/?cid=0x0:0xd0890a6728cb1c00,
komplek housing,komplek housing,Kalimantan Tengah 74117,"Kabupaten Kotawaringin Barat, Kalimantan Tengah","Kabupaten Kotawaringin Barat, Kalimantan Tengah",KALIMANTAN TENGAH,,Indonesia,,,,-2.1758811,111.7137694,https://maps.google.com/?cid=0x0:0x393f051e7c492659,
komplek housing,Pembangunan Perumahan,Perumahan griya bumi permai,"8MJQ+4Q3, Baru, Kec. Arut Sel., Kabupaten Kotawaringin Barat, Kalimantan Tengah 74117","Baru, Kec. Arut Sel., Kabupaten Kotawaringin Barat",KALIMANTAN TENGAH,74117.0,Indonesia,,,,-2.6697475,111.689419,https://maps.google.com/?cid=0x0:0x797cb31c0e821db4,
komplek housing,Komplek perumahan,Perumahan G6 RnD,"PJ27+7CX, Kenambui, Kec. Arut Sel., Kabupaten Kotawaringin Barat, Kalimantan Tengah","Kabupaten Kotawaringin Barat, Kalimantan Tengah",KALIMANTAN TENGAH,,Indonesia,,,,-2.299257,111.6136162,https://maps.google.com/?cid=0x0:0xd5d0d6cff43b6665,
komplek housing,Komplek perumahan,Perumahan Gang Mihing,"QHCP+3P, Wonorejo, Kec. Sematu Jaya, Kabupaten Lamandau, Kalimantan Tengah","Kabupaten Lamandau, Kalimantan Tengah",KALIMANTAN TENGAH,,Indonesia,,,,-2.229867,111.586853,https://maps.google.com/?cid=0x0:0x5c8051fa12a296,
komplek housing,Komplek perumahan,Lintang Faza M /(pak Sartowi),"JL Blangiran No.221, RT.009/RW.003, Bukit Harum, Kec. Menthobi Raya, Kabupaten Lamandau, Kalimantan Tengah 74117","RT.009/RW.003, Bukit Harum, Kec. Menthobi Raya, Kabupaten Lamandau",KALIMANTAN TENGAH,74117.0,Indonesia,82157271057.0,,,-2.1314084,111.6472553,https://maps.google.com/?cid=0x0:0x902652589102f321,
komplek housing,Komplek perumahan,AFD FANTA SUAYAP,"PPCC+8MC, Runtu, Kec. Arut Sel., Kabupaten Kotawaringin Barat, Kalimantan Tengah","Kabupaten Kotawaringin Barat, Kalimantan Tengah",KALIMANTAN TENGAH,,Indonesia,,,,-2.2791912,111.721626,https://maps.google.com/?cid=0x0:0x1bc830f9ace47906,
komplek housing,Pembangunan Perumahan,Perumahan CBI,"8J2P+WRH, Jl. Delima, Madurejo, Kec. Arut Sel., Kabupaten Kotawaringin Barat, Kalimantan Tengah 74117","Jl. Delima, Madurejo, Kec. Arut Sel., Kabupaten Kotawaringin Barat",KALIMANTAN TENGAH,74117.0,Indonesia,,,,-2.6972369,111.6373333,https://maps.google.com/?cid=0x0:0x17a83861aac3a536,
komplek housing,Kantor Perusahaan,Leo Astra,"PV42+2MR, Nanga Mua, Kec. Arut Utara, Kabupaten Kotawaringin Barat, Kalimantan Tengah","Kabupaten Kotawaringin Barat, Kalimantan Tengah",KALIMANTAN TENGAH,,Indonesia,,,,-2.2948764,111.8516348,https://maps.google.com/?cid=0x0:0x17ec74838cc84ae2,
komplek housing,Pembangunan Perumahan,ArayanOlshop,"QR7Q+2W4, Unnamed Road, Nanga Mua, Kec. Arut Utara, Kabupaten Kotawaringin Barat, Kalimantan Tengah 74117","Unnamed Road, Nanga Mua, Kec. Arut Utara, Kabupaten Kotawaringin Barat",KALIMANTAN TENGAH,74117.0,Indonesia,,,,-2.2374875,111.8398196,https://maps.google.com/?cid=0x0:0x30875d195558ed89,
komplek housing,Perumahan,ALFA SLE,"PJV6+VV2, Sulung, Kec. Arut Sel., Kabupaten Kotawaringin Barat, Kalimantan Tengah","Kabupaten Kotawaringin Barat, Kalimantan Tengah",KALIMANTAN TENGAH,,Indonesia,,,,-2.2553713,111.6121516,https://maps.google.com/?cid=0x0:0x7c6ccd1f37f246f8,
komplek housing,Komplek perumahan,Rumah mbah Min,"PHX9+587, Wonorejo, Kec. Sematu Jaya, Kabupaten Lamandau, Kalimantan Tengah","Kabupaten Lamandau, Kalimantan Tengah",KALIMANTAN TENGAH,,Indonesia,82256231172.0,,,-2.2520969,111.5682978,https://maps.google.com/?cid=0x0:0x7d995dca51276b06,
komplek housing,Komplek perumahan,Jojo House,"8J4R+4HM, Jl. LKMD 1, RT.13/RW.No 1A, Madurejo, Kec. Arut Sel., Kabupaten Kotawaringin Barat, Kalimantan Tengah 74117","Jl. LKMD 1, RT.13/RW.No 1A, Madurejo, Kec. Arut Sel., Kabupaten Kotawaringin Barat",KALIMANTAN TENGAH,74117.0,Indonesia,,,,-2.6946613,111.6414276,https://maps.google.com/?cid=0x0:0xdb0a0fdbf2145924,
komplek housing,Komplek perumahan,mess keluarga A5.2,"QR7R+F2R, Nanga Mua, Kec. Arut Utara, Kabupaten Kotawaringin Barat, Kalimantan Tengah 74117","Nanga Mua, Kec. Arut Utara, Kabupaten Kotawaringin Barat",KALIMANTAN TENGAH,74117.0,Indonesia,,,,-2.236209,111.840198,https://maps.google.com/?cid=0x0:0x7d011538ed7efee2,
komplek housing,Kantor Perusahaan,"Pt. Mitra Mendawai Sejati-Afdeling Bravo, Suayap Estate","PPRC+276, Umpang, Kec. Arut Sel., Kabupaten Kotawaringin Barat, Kalimantan Tengah 74117","Umpang, Kec. Arut Sel., Kabupaten Kotawaringin Barat",KALIMANTAN TENGAH,74117.0,Indonesia,85828260525.0,,,-2.2599625,111.7206406,https://maps.google.com/?cid=0x0:0x8bbc980deac9c496,
komplek housing,Komplek perumahan,Rumah Riris,"8PP6+4RC, Natai Raya, Kec. Arut Sel., Kabupaten Kotawaringin Barat, Kalimantan Tengah 74117","Natai Raya, Kec. Arut Sel., Kabupaten Kotawaringin Barat",KALIMANTAN TENGAH,74117.0,Indonesia,,,,-2.665182,111.712164,https://maps.google.com/?cid=0x0:0xddaa017593a7e1ed,
komplek housing,Komplek perumahan,Afd. Ecko lama suaya estate,"PMQW+GX6, Runtu, Kec. Arut Sel., Kabupaten Kotawaringin Barat, Kalimantan Tengah","Kabupaten Kotawaringin Barat, Kalimantan Tengah",KALIMANTAN TENGAH,,Indonesia,,,,-2.261209,111.6974002,https://maps.google.com/?cid=0x0:0xc6e1c1baba2345a3,
komplek housing,Otoritas Perumahan,Afd:Carly,"QP9Q+Q2Q, Umpang, Kec. Arut Sel., Kabupaten Kotawaringin Barat, Kalimantan Tengah 74117","Umpang, Kec. Arut Sel., Kabupaten Kotawaringin Barat",KALIMANTAN TENGAH,74117.0,Indonesia,,,,-2.2305474,111.7376178,https://maps.google.com/?cid=0x0:0x51864c4538acaa79,
komplek housing,Pembangunan Perumahan,Maryam (sna),"VJGX+V58, Bukit Harum, Kec. Menthobi Raya, Kabupaten Lamandau, Kalimantan Tengah 74117","Bukit Harum, Kec. Menthobi Raya, Kabupaten Lamandau",KALIMANTAN TENGAH,74117.0,Indonesia,,,,-2.1228474,111.6479614,https://maps.google.com/?cid=0x0:0xb18b6870b265987e,
komplek housing,komplek housing,Kec. Arut Sel.,"Kabupaten Kotawaringin Barat, Kalimantan Tengah","Kabupaten Kotawaringin Barat, Kalimantan Tengah",KALIMANTAN TENGAH,,Indonesia,,,,-2.5458231,111.6183755,https://maps.google.com/?cid=0x0:0xb0a66a60f6071e18,
komplek housing,Komplek perumahan,Rian d'florestha,"MQ5G+W8M, Umpang, Kec. Arut Sel., Kabupaten Kotawaringin Barat, Kalimantan Tengah 74116","Umpang, Kec. Arut Sel., Kabupaten Kotawaringin Barat",KALIMANTAN TENGAH,74116.0,Indonesia,,,,-2.340127,111.77562,https://maps.google.com/?cid=0x0:0x365374f77dc51530,
komplek housing,Komplek perumahan,Haikal,"7H9J+V29, Gg. Jambu, Mendawai, Kec. Arut Sel., Kabupaten Kotawaringin Barat, Kalimantan Tengah 74117","Gg. Jambu, Mendawai, Kec. Arut Sel., Kabupaten Kotawaringin Barat",KALIMANTAN TENGAH,74117.0,Indonesia,,,,-2.730343,111.5800958,https://maps.google.com/?cid=0x0:0x7e550605d527cae8,
komplek housing,Komplek perumahan,Rumah Gandes,"8MHQ+GCH, Baru, Kec. Arut Sel., Kabupaten Kotawaringin Barat, Kalimantan Tengah 74117","Baru, Kec. Arut Sel., Kabupaten Kotawaringin Barat",KALIMANTAN TENGAH,74117.0,Indonesia,,,,-2.6711869,111.6885966,https://maps.google.com/?cid=0x0:0xd4706e6db5018288,
komplek housing,Komplek perumahan,Griya Nusa Raya,"8MMR+99P, Jl. Ahmad Yani, Baru, Kec. Arut Sel., Kabupaten Kotawaringin Barat, Kalimantan Tengah 74117","Jl. Ahmad Yani, Baru, Kec. Arut Sel., Kabupaten Kotawaringin Barat",KALIMANTAN TENGAH,74117.0,Indonesia,,,,-2.666545,111.6909485,https://maps.google.com/?cid=0x0:0xbe719be981fd8277,
komplek housing,Komplek perumahan,RUMAH FAJAR,"Jalan Malijo gg, Jl. LKMD 1 Gg. Turi No.4, Madurejo, Kec. Arut Sel., Kabupaten Kotawaringin Barat, Kalimantan Tengah 74117","Jl. LKMD 1 Gg. Turi No.4, Madurejo, Kec. Arut Sel., Kabupaten Kotawaringin Barat",KALIMANTAN TENGAH,74117.0,Indonesia,,,,-2.6953785,111.6408042,https://maps.google.com/?cid=0x0:0x626534f15659592b,
komplek housing,Komplek perumahan,Perumahan Graha Valo,"8MJV+MR2, Baru, Kec. Arut Sel., Kabupaten Kotawaringin Barat, Kalimantan Tengah 74117","Baru, Kec. Arut Sel., Kabupaten Kotawaringin Barat",KALIMANTAN TENGAH,74117.0,Indonesia,85350617579.0,,,-2.6683617,111.6945104,https://maps.google.com/?cid=0x0:0x9fbb7c53b2405077,
komplek housing,Komplek perumahan,Grand syifa Residence,"8MJJ+HQW, Jl. Ahmad Yani, Baru, Kec. Arut Sel., Kabupaten Kotawaringin Barat, Kalimantan Tengah 74117","Jl. Ahmad Yani, Baru, Kec. Arut Sel., Kabupaten Kotawaringin Barat",KALIMANTAN TENGAH,74117.0,Indonesia,,,,-2.6676469,111.6820469,https://maps.google.com/?cid=0x0:0xe1d523556c8ec05d,
komplek housing,Komplek perumahan,Rumah Singgah,"Jl. Terong VI No.Rt.19, Madurejo, Kec. Arut Sel., Kabupaten Kotawaringin Barat, Kalimantan Tengah 74117","Madurejo, Kec. Arut Sel., Kabupaten Kotawaringin Barat",KALIMANTAN TENGAH,74117.0,Indonesia,,,,-2.7010573,111.6324951,https://maps.google.com/?cid=0x0:0x7e242be5e52a73a0,
komplek housing,Komplek perumahan,Rumah Dinas Malijo,"8J3V+FQV, Madurejo, Kec. Arut Sel., Kabupaten Kotawaringin Barat, Kalimantan Tengah 74117","Madurejo, Kec. Arut Sel., Kabupaten Kotawaringin Barat",KALIMANTAN TENGAH,74117.0,Indonesia,,,,-2.6962679,111.6444159,https://maps.google.com/?cid=0x0:0x1b976bee47055e34,
komplek housing,komplek housing,Kalimantan Tengah 74152,Kalimantan Tengah,Kalimantan Tengah,KALIMANTAN TENGAH,,Indonesia,,,,-1.7739041,111.7614661,https://maps.google.com/?cid=0x0:0x71f2abc1610584e7,
komplek housing,Kantor Pemerintah,Desa Panahan,"6V7M+RPQ, Penahan, Kec. Arut Utara, Kabupaten Kotawaringin Barat, Kalimantan Tengah 74152","Penahan, Kec. Arut Utara, Kabupaten Kotawaringin Barat",KALIMANTAN TENGAH,74152.0,Indonesia,,,,-1.7854064,111.884367,https://maps.google.com/?cid=0x0:0x8194f268fc2ab14b,
komplek housing,Komplek perumahan,simpang salib,"X2F9+8HP, Sambi, Kec. Arut Utara, Kabupaten Kotawaringin Barat, Kalimantan Tengah 74281","Sambi, Kec. Arut Utara, Kabupaten Kotawaringin Barat",KALIMANTAN TENGAH,74281.0,Indonesia,,,,-2.0266557,112.0189591,https://maps.google.com/?cid=0x0:0xbf3ea3dcb84f15a0,
komplek housing,Komplek perumahan,Dedy,"2247+6WC, Sambi, Kec. Arut Utara, Kabupaten Kotawaringin Barat, Kalimantan Tengah 74281","Sambi, Kec. Arut Utara, Kabupaten Kotawaringin Barat",KALIMANTAN TENGAH,74281.0,Indonesia,,,,-1.993538,112.013283,https://maps.google.com/?cid=0x0:0x2f7ae1b675021c79,
komplek housing,Perumahan rakyat,Kampung jawa,"XV79+CGM, Penyombaan, Kec. Arut Utara, Kabupaten Kotawaringin Barat, Kalimantan Tengah","Kabupaten Kotawaringin Barat, Kalimantan Tengah",KALIMANTAN TENGAH,,Indonesia,,,,-2.0364047,111.8687825,https://maps.google.com/?cid=0x0:0x92d30f48fd6dac6a,
komplek housing,komplek housing,KAJAWIFI DESA SAMBI,"2272+5HP, Sambi, Kec. Arut Utara, Kabupaten Kotawaringin Barat, Kalimantan Tengah","Kabupaten Kotawaringin Barat, Kalimantan Tengah",KALIMANTAN TENGAH,,Indonesia,,,,-1.987039,112.0014387,https://maps.google.com/?cid=0x0:0xff16a6ddecb083e1,
komplek housing,Komplek perumahan,Rumah Ennie Purnila,"2247+6WC, Sambi, Kec. Arut Utara, Kabupaten Kotawaringin Barat, Kalimantan Tengah 74281","Sambi, Kec. Arut Utara, Kabupaten Kotawaringin Barat",KALIMANTAN TENGAH,74281.0,Indonesia,,,,-1.9943674,112.0130929,https://maps.google.com/?cid=0x0:0x7399661215031cfd,
komplek housing,Komplek perumahan,Rumah bulat,"2272+FW, Sambi, Kec. Arut Utara, Kabupaten Kotawaringin Barat, Kalimantan Tengah","Kabupaten Kotawaringin Barat, Kalimantan Tengah",KALIMANTAN TENGAH,,Indonesia,,,,-1.9863652,112.0023738,https://maps.google.com/?cid=0x0:0x7930fa908b0c7647,
komplek housing,Kantor Pemerintah,desa sambi kotawaringin barat,"2246+4FV, Sambi, Kec. Arut Utara, Kabupaten Kotawaringin Barat, Kalimantan Tengah 74281","Sambi, Kec. Arut Utara, Kabupaten Kotawaringin Barat",KALIMANTAN TENGAH,74281.0,Indonesia,,,,-1.9946447,112.0111794,https://maps.google.com/?cid=0x0:0x871db2f1548cdc2a,
komplek housing,Komplek perumahan,Lek doladi,"X2MJ+HH5, Unnamed Road, Sambi, Kec. Arut Utara, Kabupaten Kotawaringin Barat, Kalimantan Tengah 74281","Unnamed Road, Sambi, Kec. Arut Utara, Kabupaten Kotawaringin Barat",KALIMANTAN TENGAH,74281.0,Indonesia,,,,-2.016119,112.0314783,https://maps.google.com/?cid=0x0:0x9cbec0ff17a5bc3d,
komplek housing,Kantor Perusahaan,CAMP PT. URA (SITE KTH),"QVGW+V4, Pangkut, Kec. Arut Utara, Kabupaten Kotawaringin Barat, Kalimantan Tengah","Kabupaten Kotawaringin Barat, Kalimantan Tengah",KALIMANTAN TENGAH,,Indonesia,,,,-2.2228478,111.8952961,https://maps.google.com/?cid=0x0:0xd42fdf49fe0685a3,
komplek housing,Komplek perumahan,Rumah zea,"RW69+4FH, Pangkut, Kec. Arut Utara, Kabupaten Kotawaringin Barat, Kalimantan Tengah 74183","Pangkut, Kec. Arut Utara, Kabupaten Kotawaringin Barat",KALIMANTAN TENGAH,74183.0,Indonesia,,,,-2.1889617,111.9176467,https://maps.google.com/?cid=0x0:0x460732e5fde73731,
komplek housing,Komplek perumahan,Rumah Emi,"RW5H+WW, Pangkut, Kec. Arut Utara, Kabupaten Kotawaringin Barat, Kalimantan Tengah","Kabupaten Kotawaringin Barat, Kalimantan Tengah",KALIMANTAN TENGAH,,Indonesia,,,,-2.1902573,111.9297968,https://maps.google.com/?cid=0x0:0x3f3e43953db5668,
komplek housing,Perumahan,Rumah syahrial/sri pujiati,"RW7G+66, jl. Manjung Hingkat No.Rt.5, Pangkut, Kec. Arut Utara, Kabupaten Kotawaringin Barat, Kalimantan Tengah","Kabupaten Kotawaringin Barat, Kalimantan Tengah",KALIMANTAN TENGAH,,Indonesia,,,,-2.1869375,111.9255625,https://maps.google.com/?cid=0x0:0x946cc6bebb7a717d,
komplek housing,Pembangunan Perumahan,Handoko Home,"3JH3+H8W, Nanga Koring, Kec. Bulik Tim., Kabupaten Lamandau, Kalimantan Tengah","Kabupaten Lamandau, Kalimantan Tengah",KALIMANTAN TENGAH,,Indonesia,,,,-1.9210152,111.6033211,https://maps.google.com/?cid=0x0:0x10efabfbf96c1e0a,
komplek housing,komplek housing,Kios Yola Sukarami,"Jl.Senopati Mamang No.RT.02, Sukarami, Kec. Arut Utara, Kabupaten Kotawaringin Barat, Kalimantan Tengah","Kabupaten Kotawaringin Barat, Kalimantan Tengah",KALIMANTAN TENGAH,,Indonesia,,,,-2.1592537,111.9714982,https://maps.google.com/?cid=0x0:0x94df368edd3ac57,
komplek housing,Komplek perumahan,Rumah Irum,"RW6C+F3W, Pangkut, Kec. Arut Utara, Kabupaten Kotawaringin Barat, Kalimantan Tengah 74183","Pangkut, Kec. Arut Utara, Kabupaten Kotawaringin Barat",KALIMANTAN TENGAH,74183.0,Indonesia,,,,-2.1883364,111.9194422,https://maps.google.com/?cid=0x0:0x127e1e033b848505,
komplek housing,Komplek perumahan,OB SINP,"Sukarami, Kec. Arut Utara, Kabupaten Kotawaringin Barat, Kalimantan Tengah 74183","Kec. Arut Utara, Kabupaten Kotawaringin Barat",KALIMANTAN TENGAH,74183.0,Indonesia,,,,-2.1757834,111.9799096,https://maps.google.com/?cid=0x0:0xc7bc8c7f9391a334,
komplek housing,Pembangunan Perumahan,Darto Ayu,"2J9Q+3W5, Jln. Tri Setya no, RT.000/RW.03, Melata, Kec. Menthobi Raya, Kabupaten Lamandau, Kalimantan Tengah 74152","Jln. Tri Setya no, RT.000/RW.03, Melata, Kec. Menthobi Raya, Kabupaten Lamandau",KALIMANTAN TENGAH,74152.0,Indonesia,8565181836.0,,,-1.9823593,111.6398488,https://maps.google.com/?cid=0x0:0x95d8dc9e37f31ce0,
komplek housing,Komplek perumahan,Rumah wahyu sejahtera,"RW59+2F, Pangkut, Kec. Arut Utara, Kabupaten Kotawaringin Barat, Kalimantan Tengah","Kabupaten Kotawaringin Barat, Kalimantan Tengah",KALIMANTAN TENGAH,,Indonesia,,,,-2.1923985,111.9187575,https://maps.google.com/?cid=0x0:0xbea6dcd0d70000d4,
komplek housing,Komplek perumahan,KANTOR DESA PANAHAN,"4V8R+9GQ, Penahan, Kec. Arut Utara, Kabupaten Kotawaringin Barat, Kalimantan Tengah","Kabupaten Kotawaringin Barat, Kalimantan Tengah",KALIMANTAN TENGAH,,Indonesia,,,,-1.8840413,111.8913716,https://maps.google.com/?cid=0x0:0x7c9a6fdf010d6a98,
komplek housing,komplek housing,Kalimantan Tengah 74161,Kalimantan Tengah,Kalimantan Tengah,KALIMANTAN TENGAH,,Indonesia,,,,-2.3273895,111.4275888,https://maps.google.com/?cid=0x0:0x5f63d7c099af306c,
komplek housing,komplek housing,Komplek guru,"J9Q3+C2M Lapangan, Suka Makmur, Kec. Kotawaringin Lama, Kabupaten Kotawaringin Barat, Kalimantan Tengah 74161","Suka Makmur, Kec. Kotawaringin Lama, Kabupaten Kotawaringin Barat",KALIMANTAN TENGAH,74161.0,Indonesia,,,,-2.3605198,111.3531887,https://maps.google.com/?cid=0x0:0x325f6f8970d06592,
komplek housing,Komplek perumahan,Rumah Ulfa Auliya,"GC9P+425, Jl. Pangkalan Muntai, Kotawaringin Hulu, Kec. Kotawaringin Lama, Kabupaten Kotawaringin Barat, Kalimantan Tengah 74161","Jl. Pangkalan Muntai, Kotawaringin Hulu, Kec. Kotawaringin Lama, Kabupaten Kotawaringin Barat",KALIMANTAN TENGAH,74161.0,Indonesia,,,,-2.4822315,111.4351121,https://maps.google.com/?cid=0x0:0xccd16ea51d6f7810,
komplek housing,Komplek perumahan,Zakaria,"JFG7+R8Q, Rungun, Kec. Kotawaringin Lama, Kabupaten Kotawaringin Barat, Kalimantan Tengah 74161","Rungun, Kec. Kotawaringin Lama, Kabupaten Kotawaringin Barat",KALIMANTAN TENGAH,74161.0,Indonesia,,,,-2.3729166,111.463361,https://maps.google.com/?cid=0x0:0x942161d8911a96e9,
komplek housing,komplek housing,RUMAH MANTO,"Q84M+JFH, Kenawan, Kec. Permata Kecubung, Kabupaten Sukamara, Kalimantan Tengah 74161","Kenawan, Kec. Permata Kecubung, Kabupaten Sukamara",KALIMANTAN TENGAH,74161.0,Indonesia,,,,-2.2429677,111.3338037,https://maps.google.com/?cid=0x0:0x670f708a9e17698e,
komplek housing,komplek housing,Komplek guru SMP 4 Kotawaringin lama,"J9VR+QP4, Suka Makmur, Kec. Kotawaringin Lama, Kabupaten Kotawaringin Barat, Kalimantan Tengah","Kabupaten Kotawaringin Barat, Kalimantan Tengah",KALIMANTAN TENGAH,,Indonesia,,,,-2.3556245,111.3918168,https://maps.google.com/?cid=0x0:0xbacef4f44b1e38e6,
komplek housing,Pembangunan Perumahan,Rumah Kita,"M76J+QGP, Sukamulya, Kec. Kotawaringin Lama, Kabupaten Kotawaringin Barat, Kalimantan Tengah 74172","Sukamulya, Kec. Kotawaringin Lama, Kabupaten Kotawaringin Barat",KALIMANTAN TENGAH,74172.0,Indonesia,,,,-2.3380468,111.281343,https://maps.google.com/?cid=0x0:0x7f6c82467b0beb5,
komplek housing,Perhimpunan Pengembang Perumahan,ISTANA DALAM ASAM,"GC7R+3VC, Jl. Ampi, kelurahan Kotawaringin hilir, Kec. Kotawaringin Lama, Kabupaten Kotawaringin Barat, Kalimantan Tengah 74161","Jl. Ampi, kelurahan Kotawaringin hilir, Kec. Kotawaringin Lama, Kabupaten Kotawaringin Barat",KALIMANTAN TENGAH,74161.0,Indonesia,,,,-2.4873186,111.4421354,https://maps.google.com/?cid=0x0:0x4cd701f92dd162e5,
komplek housing,Komplek perumahan,Perumahan Kotawaringin Mill,"J95H+95M, Riam Durian, Kotawaringin Lama, West Kotawaringin Regency, Central Kalimantan","Kabupaten Kotawaringin Barat, Kalimantan Tengah",KALIMANTAN TENGAH,,Indonesia,,,,-2.3915467,111.3779364,https://maps.google.com/?cid=0x0:0x3e707511fb740ecb,
komplek housing,Komplek perumahan,Kotawaringin Estate,"HCM7+552, Kotawaringin Hulu, Kec. Kotawaringin Lama, Kabupaten Kotawaringin Barat, Kalimantan Tengah 74161","Kotawaringin Hulu, Kec. Kotawaringin Lama, Kabupaten Kotawaringin Barat",KALIMANTAN TENGAH,74161.0,Indonesia,,,,-2.4171228,111.4128913,https://maps.google.com/?cid=0x0:0x20bfb5f6d041cd3a,
komplek housing,Komplek perumahan,Rumah bu supiah,"H835+5XR, Unnamed Road, Sukajaya, Kec. Kotawaringin Lama, Kabupaten Kotawaringin Barat, Kalimantan Tengah 74172","Unnamed Road, Sukajaya, Kec. Kotawaringin Lama, Kabupaten Kotawaringin Barat",KALIMANTAN TENGAH,74172.0,Indonesia,,,,-2.447019,111.3098983,https://maps.google.com/?cid=0x0:0x2c8974de18a36d8f,
komplek housing,Komplek perumahan,Rumah H.HAMKA I DAUD,"GC9P+429, Jl. Pangkalan Muntai, Kota Waringin Hilir, Kec. Kotawaringin Lama, Kabupaten Kotawaringin Barat, Kalimantan Tengah 74161","Jl. Pangkalan Muntai, Kota Waringin Hilir, Kec. Kotawaringin Lama, Kabupaten Kotawaringin Barat",KALIMANTAN TENGAH,74161.0,Indonesia,,,,-2.4822054,111.4351245,https://maps.google.com/?cid=0x0:0xe0e8946798faa5d8,
komplek housing,Komplek perumahan,Rumah Aba Udan,"GC8R+X83, Jl. Baburrahman, Kotawaringin Hulu, Kec. Kotawaringin Lama, Kabupaten Kotawaringin Barat, Kalimantan Tengah 74161","Jl. Baburrahman, Kotawaringin Hulu, Kec. Kotawaringin Lama, Kabupaten Kotawaringin Barat",KALIMANTAN TENGAH,74161.0,Indonesia,,,,-2.4826096,111.4407846,https://maps.google.com/?cid=0x0:0x20c5fc7a0fde6f57,
komplek housing,Pusat Perbelanjaan,Rumah makan.,"GC9Q+MQ3, Kotawaringin Hulu, Kec. Kotawaringin Lama, Kabupaten Kotawaringin Barat, Kalimantan Tengah 74161","Kotawaringin Hulu, Kec. Kotawaringin Lama, Kabupaten Kotawaringin Barat",KALIMANTAN TENGAH,74161.0,Indonesia,,,,-2.481252,111.438851,https://maps.google.com/?cid=0x0:0x7b0b9e5c049ce8a9,
komplek housing,Pembangunan Perumahan,@nahyaawvw_ house,"GC8W+X24, Jl. Pangeran Surya, Kotawaringin Hulu, Kec. Kotawaringin Lama, Kabupaten Kotawaringin Barat, Kalimantan Tengah 74161","Jl. Pangeran Surya, Kotawaringin Hulu, Kec. Kotawaringin Lama, Kabupaten Kotawaringin Barat",KALIMANTAN TENGAH,74161.0,Indonesia,,,,-2.4826014,111.4450751,https://maps.google.com/?cid=0x0:0xd769e19366e85e7f,
komplek housing,Komplek perumahan,Rumah maji dan yatmi,"GCV9+468, Kotawaringin Hulu, Kec. Kotawaringin Lama, Kabupaten Kotawaringin Barat, Kalimantan Tengah","Kabupaten Kotawaringin Barat, Kalimantan Tengah",KALIMANTAN TENGAH,,Indonesia,,,,-2.4572154,111.4181035,https://maps.google.com/?cid=0x0:0x3892d0f0ee01917b,
komplek housing,Perumahan,Iwiit home store,"Jl. Merdeka No.RT02, Kota Waringin Hilir, Kec. Kotawaringin Lama, Kabupaten Kotawaringin Barat, Kalimantan Tengah 74161","Kota Waringin Hilir, Kec. Kotawaringin Lama, Kabupaten Kotawaringin Barat",KALIMANTAN TENGAH,74161.0,Indonesia,,,,-2.4853414,111.4444238,https://maps.google.com/?cid=0x0:0x3f7acb7f5222023,
komplek housing,Kantor Perusahaan,Perumahan karyawan TRYM MILL (BGA GROUP),"H8G3+5R8, Unnamed Road, Dawak, Kec. Kotawaringin Lama, Kabupaten Sukamara, Kalimantan Tengah 74172","Unnamed Road, Dawak, Kec. Kotawaringin Lama, Kabupaten Sukamara",KALIMANTAN TENGAH,74172.0,Indonesia,82352362513.0,,,-2.4245777,111.304582,https://maps.google.com/?cid=0x0:0x31915ad792861973,
komplek housing,Pembangunan Perumahan,Hendi saputra,"M9XC+9C7, Unnamed Road, Palih Baru, Kec. Kotawaringin Lama, Kabupaten Kotawaringin Barat, Kalimantan Tengah 74161","Unnamed Road, Palih Baru, Kec. Kotawaringin Lama, Kabupaten Kotawaringin Barat",KALIMANTAN TENGAH,74161.0,Indonesia,,,,-2.3015881,111.3710324,https://maps.google.com/?cid=0x0:0x659397e5445109cb,
komplek housing,Kantor Perusahaan,Barakan,"J99Q+H9, Kotawaringin Hulu, Kec. Kotawaringin Lama, Kabupaten Kotawaringin Barat, Kalimantan Tengah","Kabupaten Kotawaringin Barat, Kalimantan Tengah",KALIMANTAN TENGAH,,Indonesia,,,,-2.3806061,111.3887336,https://maps.google.com/?cid=0x0:0x3ee9f74c2ab73fe3,
komplek housing,komplek housing,Kec. Kotawaringin Lama,"Kabupaten Kotawaringin Barat, Kalimantan Tengah","Kabupaten Kotawaringin Barat, Kalimantan Tengah",KALIMANTAN TENGAH,,Indonesia,,,,-2.475112,111.4275888,https://maps.google.com/?cid=0x0:0xd2b45c8992048bb2,
komplek housing,Komplek perumahan,Sri Fathonah Ayuningrum/Muhammad Irfan,"Jl. Beji No.RT.05, Kota Waringin Hilir, Kec. Kotawaringin Lama, Kabupaten Kotawaringin Barat, Kalimantan Tengah 74161","Kota Waringin Hilir, Kec. Kotawaringin Lama, Kabupaten Kotawaringin Barat",KALIMANTAN TENGAH,74161.0,Indonesia,,,,-2.4867405,111.4402897,https://maps.google.com/?cid=0x0:0x202deed166151a9a,
komplek housing,Komplek perumahan,Tomi,"Desa Melata, Jl. Tjilik Riwut RT, 002, Waringin Hilir City, Kotawaringin Lama, West Kotawaringin Regency, Central Kalimantan 74161","Jl. Tjilik Riwut RT, 002, Waringin Hilir City, Kotawaringin Lama, West Kotawaringin Regency",KALIMANTAN TENGAH,74161.0,Indonesia,,,,-2.4868228,111.4420119,https://maps.google.com/?cid=0x0:0x4b025821f59cee66,
komplek housing,Pembangunan Perumahan,KIYASNO home,"MCFH+22W, Kondang, Kec. Kotawaringin Lama, Kabupaten Kotawaringin Barat, Kalimantan Tengah 74161","Kondang, Kec. Kotawaringin Lama, Kabupaten Kotawaringin Barat",KALIMANTAN TENGAH,74161.0,Indonesia,,,,-2.3273895,111.4275888,https://maps.google.com/?cid=0x0:0xf15b11097112e9cd,
komplek housing,Komplek perumahan,Waringin,"Jl. Padat Karya, Kotawaringin Hulu, Kec. Kotawaringin Lama, Kabupaten Kotawaringin Barat, Kalimantan Tengah 74161","Kotawaringin Hulu, Kec. Kotawaringin Lama, Kabupaten Kotawaringin Barat",KALIMANTAN TENGAH,74161.0,Indonesia,,,,-2.4792358,111.4344376,https://maps.google.com/?cid=0x0:0x15db00f86bb6559d,
komplek housing,Komplek perumahan,Syaiful anwar,"GCP9+4QV, Jalan, Waringin Hilir City, Kotawaringin Lama, West Kotawaringin Regency, Central Kalimantan 74161","Jalan, Waringin Hilir City, Kotawaringin Lama, West Kotawaringin Regency",KALIMANTAN TENGAH,74161.0,Indonesia,,,,-2.4646254,111.419428,https://maps.google.com/?cid=0x0:0x35cc075dd3d2632f,
komplek housing,Balai Pertemuan Desa,Desa rungun,"JFG7+R8Q, Rungun, Kec. Kotawaringin Lama, Kabupaten Kotawaringin Barat, Kalimantan Tengah 74161","Rungun, Kec. Kotawaringin Lama, Kabupaten Kotawaringin Barat",KALIMANTAN TENGAH,74161.0,Indonesia,,,,-2.3729166,111.463361,https://maps.google.com/?cid=0x0:0xc81eb97748f1ab28,
komplek housing,Komplek perumahan,Rumah sabrina,"H9R8+MQ4, Kotawaringin Hulu, Kec. Kotawaringin Lama, Kabupaten Kotawaringin Barat, Kalimantan Tengah 74161","Kotawaringin Hulu, Kec. Kotawaringin Lama, Kabupaten Kotawaringin Barat",KALIMANTAN TENGAH,74161.0,Indonesia,,,,-2.4083695,111.3669508,https://maps.google.com/?cid=0x0:0x434d4f01d4ab1fa6,
komplek housing,Perumahan,Dewi Lestari,"J9Q2+73W, Suka Makmur, Kec. Kotawaringin Lama, Kabupaten Kotawaringin Barat, Kalimantan Tengah 74161","Suka Makmur, Kec. Kotawaringin Lama, Kabupaten Kotawaringin Barat",KALIMANTAN TENGAH,74161.0,Indonesia,,,,-2.3617662,111.3502179,https://maps.google.com/?cid=0x0:0x64247c6c4bb8b811,
komplek housing,Pembangunan Perumahan,Shafwah Pangkalan Bun,"Jl. Bendaha Kumai, Sungai Tendang, Kec. Kumai, Kabupaten Kotawaringin Barat, Kalimantan Tengah 74181","Sungai Tendang, Kec. Kumai, Kabupaten Kotawaringin Barat",KALIMANTAN TENGAH,74181.0,Indonesia,82123239991.0,,,-2.7188393,111.70267,https://maps.google.com/?cid=0x0:0xf29360840c1d38a0,
komplek housing,Perhimpunan Pengembang Perumahan,Pangkalan Bun,"8J9H+M3F, Mendawai, Kec. Arut Sel., Kabupaten Kotawaringin Barat, Kalimantan Tengah","Kabupaten Kotawaringin Barat, Kalimantan Tengah",KALIMANTAN TENGAH,,Indonesia,,,,-2.680853,111.6275924,https://maps.google.com/?cid=0x0:0x58f697465091d0a0,
komplek housing,komplek housing,Kumai,"Sungai Kapitan, Kec. Kumai, Kabupaten Kotawaringin Barat, Kalimantan Tengah","Kabupaten Kotawaringin Barat, Kalimantan Tengah",KALIMANTAN TENGAH,,Indonesia,,,,-2.745797,111.715698,https://maps.google.com/?cid=0x0:0xcc725e3a1e270063,
komplek housing,komplek housing,Kalimantan Tengah 74183,"Kabupaten Kotawaringin Barat, Kalimantan Tengah","Kabupaten Kotawaringin Barat, Kalimantan Tengah",KALIMANTAN TENGAH,,Indonesia,,,,-2.3916649,111.9999435,https://maps.google.com/?cid=0x0:0x4b6803533d167a52,
komplek housing,Komplek perumahan,Perumahan Banteng Residence,"GWRM+379, Jl. Ahmad Yani, Karangmulya, Kec. Pangkalan Banteng, Kabupaten Kotawaringin Barat, Kalimantan Tengah 74183","Jl. Ahmad Yani, Karangmulya, Kec. Pangkalan Banteng, Kabupaten Kotawaringin Barat",KALIMANTAN TENGAH,74183.0,Indonesia,,,,-2.4595032,111.9326695,https://maps.google.com/?cid=0x0:0x201d3ba62ba4694d,
komplek housing,Pembangunan Perumahan,Omahku,"FW42+JPC, Jl. Melon, Natai Kerbau, Kec. Pangkalan Banteng, Kabupaten Kotawaringin Barat, Kalimantan Tengah 74183","Jl. Melon, Natai Kerbau, Kec. Pangkalan Banteng, Kabupaten Kotawaringin Barat",KALIMANTAN TENGAH,74183.0,Indonesia,,,,-2.5434484,111.9017697,https://maps.google.com/?cid=0x0:0x634ed7387ae1a329,
komplek housing,Pembangunan Perumahan,Oka Home,"GWWW+QM3, Amin Jaya, Kec. Pangkalan Banteng, Kabupaten Kotawaringin Barat, Kalimantan Tengah 74183","Amin Jaya, Kec. Pangkalan Banteng, Kabupaten Kotawaringin Barat",KALIMANTAN TENGAH,74183.0,Indonesia,,,,-2.453103,111.946674,https://maps.google.com/?cid=0x0:0xd748f162be4afeda,
komplek housing,Komplek perumahan,Rukadal Home,"GWWW+HH5, Amin Jaya, Kec. Pangkalan Banteng, Kabupaten Kotawaringin Barat, Kalimantan Tengah 74183","Amin Jaya, Kec. Pangkalan Banteng, Kabupaten Kotawaringin Barat",KALIMANTAN TENGAH,74183.0,Indonesia,,,,-2.4536121,111.9464877,https://maps.google.com/?cid=0x0:0x447631613f6f7070,
komplek housing,Komplek perumahan,SORAYA HOME,"Karangmulya, Kec. Pangkalan Banteng, Kabupaten Kotawaringin Barat, Kalimantan Tengah 74183","Kec. Pangkalan Banteng, Kabupaten Kotawaringin Barat",KALIMANTAN TENGAH,74183.0,Indonesia,,,,-2.4706513,111.9173053,https://maps.google.com/?cid=0x0:0xe2704c0becd1c320,
komplek housing,Komplek perumahan,HOME DAYY,"GV38+4HW, Jl. Pemuda, RT.03/RW.02, Pangkalan Banteng, Kec. Pangkalan Banteng, Kabupaten Kotawaringin Barat, Kalimantan Tengah","Kabupaten Kotawaringin Barat, Kalimantan Tengah",KALIMANTAN TENGAH,,Indonesia,,,,-2.4966443,111.8667103,https://maps.google.com/?cid=0x0:0x999c25257ae43b43,
komplek housing,Komplek perumahan,Azzahra teknik,"GWP8+8G8, Karangmulya, Kec. Pangkalan Banteng, Kabupaten Kotawaringin Barat, Kalimantan Tengah 74183","Karangmulya, Kec. Pangkalan Banteng, Kabupaten Kotawaringin Barat",KALIMANTAN TENGAH,74183.0,Indonesia,,,,-2.4642153,111.9163218,https://maps.google.com/?cid=0x0:0xd3538bfeac89a40f,
komplek housing,Komplek perumahan,Naibaho Family,"GWWW+8HV, Amin Jaya, Kec. Pangkalan Banteng, Kabupaten Kotawaringin Barat, Kalimantan Tengah 74183","Amin Jaya, Kec. Pangkalan Banteng, Kabupaten Kotawaringin Barat",KALIMANTAN TENGAH,74183.0,Indonesia,,,,-2.4541345,111.9464277,https://maps.google.com/?cid=0x0:0x9b3399f1981a39b0,
komplek housing,Komplek perumahan,Rumah Pak Waji,"HX29+PRF, Jl. Lombok, Amin Jaya, Kec. Pangkalan Banteng, Kabupaten Kotawaringin Barat, Kalimantan Tengah 74183","Jl. Lombok, Amin Jaya, Kec. Pangkalan Banteng, Kabupaten Kotawaringin Barat",KALIMANTAN TENGAH,74183.0,Indonesia,,,,-2.4481829,111.9695412,https://maps.google.com/?cid=0x0:0xa37fee06041ea48a,
komplek housing,Komplek perumahan,Pukis home,"GWQC+JJ, Karangmulya, Kec. Pangkalan Banteng, Kabupaten Kotawaringin Barat, Kalimantan Tengah","Kabupaten Kotawaringin Barat, Kalimantan Tengah",KALIMANTAN TENGAH,,Indonesia,,,,-2.460869,111.9215737,https://maps.google.com/?cid=0x0:0xb80ecdd26028aaf3,
komplek housing,Komplek perumahan,Rmh Amin jaya,"HX6F+34, Amin Jaya, Kec. Pangkalan Banteng, Kabupaten Kotawaringin Barat, Kalimantan Tengah 74183","Amin Jaya, Kec. Pangkalan Banteng, Kabupaten Kotawaringin Barat",KALIMANTAN TENGAH,74183.0,Indonesia,,,,-2.4398063,111.9728329,https://maps.google.com/?cid=0x0:0x49d3ed899d1d8432,
komplek housing,Komplek perumahan,Mei Home,"HX3G+PFX, Jl. Jenderal Sudirman, Amin Jaya, Kec. Pangkalan Banteng, Kabupaten Kotawaringin Barat, Kalimantan Tengah 74183","Jl. Jenderal Sudirman, Amin Jaya, Kec. Pangkalan Banteng, Kabupaten Kotawaringin Barat",KALIMANTAN TENGAH,74183.0,Indonesia,,,,-2.4452667,111.975599,https://maps.google.com/?cid=0x0:0x375f098750d43c02,
komplek housing,Perumahan,PERUM BANTENG RESIDENCE 3,"GWJ8+2P8, Karangmulya, Kec. Pangkalan Banteng, Kabupaten Kotawaringin Barat, Kalimantan Tengah","Kabupaten Kotawaringin Barat, Kalimantan Tengah",KALIMANTAN TENGAH,,Indonesia,,,,-2.4699775,111.916822,https://maps.google.com/?cid=0x0:0xa82e1289bb157ad3,
komplek housing,Perhimpunan Pengembang Perumahan,Pak timan,"GWQG+3M9, Karangmulya, Kec. Pangkalan Banteng, Kabupaten Kotawaringin Barat, Kalimantan Tengah 74183","Karangmulya, Kec. Pangkalan Banteng, Kabupaten Kotawaringin Barat",KALIMANTAN TENGAH,74183.0,Indonesia,,,,-2.4622737,111.9267328,https://maps.google.com/?cid=0x0:0xd4702924e37630e,
komplek housing,Perumahan,PETANI MUDA,"Sido Mulyo, Kec. Pangkalan Banteng, Kabupaten Kotawaringin Barat, Kalimantan Tengah","Kabupaten Kotawaringin Barat, Kalimantan Tengah",KALIMANTAN TENGAH,,Indonesia,,,,-2.403861,111.8661196,https://maps.google.com/?cid=0x0:0xf7e1520eadb09e37,
komplek housing,Komplek perumahan,rumah dika,"HVX5+34F, Sungai Bengkuang, Kec. Pangkalan Banteng, Kabupaten Kotawaringin Barat, Kalimantan Tengah 74184","Sungai Bengkuang, Kec. Pangkalan Banteng, Kabupaten Kotawaringin Barat",KALIMANTAN TENGAH,74184.0,Indonesia,,,,-2.401596,111.857098,https://maps.google.com/?cid=0x0:0x61aead12ff2e3ef0,
komplek housing,Komplek perumahan,Rumah Pak Jhon siregar,"HX49+R2M, Jl. Ahmad Yani, Amin Jaya, Kec. Pangkalan Banteng, Kabupaten Kotawaringin Barat, Kalimantan Tengah 74183","Jl. Ahmad Yani, Amin Jaya, Kec. Pangkalan Banteng, Kabupaten Kotawaringin Barat",KALIMANTAN TENGAH,74183.0,Indonesia,,,,-2.4429129,111.9675611,https://maps.google.com/?cid=0x0:0x9423277c47f73944,
komplek housing,Komplek perumahan,om budi,"JW38+FV, Arga Mulya, Kec. Pangkalan Banteng, Kabupaten Kotawaringin Barat, Kalimantan Tengah 74183","Arga Mulya, Kec. Pangkalan Banteng, Kabupaten Kotawaringin Barat",KALIMANTAN TENGAH,74183.0,Indonesia,,,,-2.396219,111.9176612,https://maps.google.com/?cid=0x0:0x6702616b6ba5432d,
komplek housing,Komplek perumahan,BU NUR,"GWQ8+GV, Karangmulya, Kec. Pangkalan Banteng, Kabupaten Kotawaringin Barat, Kalimantan Tengah","Kabupaten Kotawaringin Barat, Kalimantan Tengah",KALIMANTAN TENGAH,,Indonesia,81528703534.0,,,-2.4602461,111.9166261,https://maps.google.com/?cid=0x0:0x3dc31f828154dd60,
komplek housing,Komplek perumahan,Mbah Tris,"GWXX+XXC, Amin Jaya, Kec. Pangkalan Banteng, Kabupaten Kotawaringin Barat, Kalimantan Tengah 74183","Amin Jaya, Kec. Pangkalan Banteng, Kabupaten Kotawaringin Barat",KALIMANTAN TENGAH,74183.0,Indonesia,,,,-2.450053,111.9499057,https://maps.google.com/?cid=0x0:0xb9a96dd935699c88,
komplek housing,Komplek perumahan,Rumah Sendiri,"GWMC+P3Q, Karangmulya, Kec. Pangkalan Banteng, Kabupaten Kotawaringin Barat, Kalimantan Tengah 74183","Karangmulya, Kec. Pangkalan Banteng, Kabupaten Kotawaringin Barat",KALIMANTAN TENGAH,74183.0,Indonesia,,,,-2.4663093,111.921587,https://maps.google.com/?cid=0x0:0x655a10ff6eadb000,
komplek housing,Komplek perumahan,Totok Home,"GWXW+GHR, Amin Jaya, Kec. Pangkalan Banteng, Kabupaten Kotawaringin Barat, Kalimantan Tengah 74183","Amin Jaya, Kec. Pangkalan Banteng, Kabupaten Kotawaringin Barat",KALIMANTAN TENGAH,74183.0,Indonesia,,,,-2.4511457,111.9463954,https://maps.google.com/?cid=0x0:0xe52c515f71426af0,
komplek housing,Komplek perumahan,My HOUSE,"HX64+776, Jl. Ahmad Yani, Amin Jaya, Kec. Pangkalan Banteng, Kabupaten Kotawaringin Barat, Kalimantan Tengah 74183","Jl. Ahmad Yani, Amin Jaya, Kec. Pangkalan Banteng, Kabupaten Kotawaringin Barat",KALIMANTAN TENGAH,74183.0,Indonesia,,,,-2.4393499,111.9556388,https://maps.google.com/?cid=0x0:0xab28ae46d183351f,
komplek housing,Komplek perumahan,Misbah Home,"GWWW+JH5, Amin Jaya, Kec. Pangkalan Banteng, Kabupaten Kotawaringin Barat, Kalimantan Tengah 74183","Amin Jaya, Kec. Pangkalan Banteng, Kabupaten Kotawaringin Barat",KALIMANTAN TENGAH,74183.0,Indonesia,,,,-2.4534882,111.9464988,https://maps.google.com/?cid=0x0:0x66621acf44410378,
komplek housing,Komplek perumahan,Rumah Ku,"GWWM+7XR, Jl. Jenderal Sudirman, Sungai Hijau, Kec. Pangkalan Banteng, Kabupaten Kotawaringin Barat, Kalimantan Tengah 74183","Jl. Jenderal Sudirman, Sungai Hijau, Kec. Pangkalan Banteng, Kabupaten Kotawaringin Barat",KALIMANTAN TENGAH,74183.0,Indonesia,,,,-2.4437267,111.9039284,https://maps.google.com/?cid=0x0:0x1872fdbde2e0e32b,
komplek housing,Komplek perumahan,Rumah Azzam  Alisha GreenHouse,"HX54+PMC, Jl. Ahmad Yani, Amin Jaya, Kec. Pangkalan Banteng, Kabupaten Kotawaringin Barat, Kalimantan Tengah 74183","Jl. Ahmad Yani, Amin Jaya, Kec. Pangkalan Banteng, Kabupaten Kotawaringin Barat",KALIMANTAN TENGAH,74183.0,Indonesia,,,,-2.4406945,111.9566265,https://maps.google.com/?cid=0x0:0xdc5243ad4529bfe2,
komplek housing,Komplek perumahan,Assegaf,"GWXX+W94, Jl. Ahmad Yani, Amin Jaya, Kec. Pangkalan Banteng, Kabupaten Kotawaringin Barat, Kalimantan Tengah 74183","Jl. Ahmad Yani, Amin Jaya, Kec. Pangkalan Banteng, Kabupaten Kotawaringin Barat",KALIMANTAN TENGAH,74183.0,Indonesia,,,,-2.45093,111.9487816,https://maps.google.com/?cid=0x0:0x23f1dc97a2103c77,
komplek housing,komplek housing,BTN B3 panji,"GWWW+MJ4, BTN purnama indah, Amin Jaya, Kec. Pangkalan Banteng, Kabupaten Kotawaringin Barat, Kalimantan Tengah 74183","BTN purnama indah, Amin Jaya, Kec. Pangkalan Banteng, Kabupaten Kotawaringin Barat",KALIMANTAN TENGAH,74183.0,Indonesia,,,,-2.453375,111.9465879,https://maps.google.com/?cid=0x0:0x7a83d2a586b2f3b9,
komplek housing,Komplek perumahan,Perumahan Blok A (Pabrik),"CQGC+PV2, Sungai Rangit Jaya, Kec. Pangkalan Lada, Kabupaten Kotawaringin Barat, Kalimantan Tengah 74184","Sungai Rangit Jaya, Kec. Pangkalan Lada, Kabupaten Kotawaringin Barat",KALIMANTAN TENGAH,74184.0,Indonesia,,,,-2.5732317,111.7721303,https://maps.google.com/?cid=0x0:0xf1e8d773ab2c8448,
komplek housing,Komplek perumahan,Sujargo Malikhatun,"GQHH+CMW, Pandu Senjaya, Kec. Pangkalan Lada, Kabupaten Kotawaringin Barat, Kalimantan Tengah 74184","Pandu Senjaya, Kec. Pangkalan Lada, Kabupaten Kotawaringin Barat",KALIMANTAN TENGAH,74184.0,Indonesia,,,,-2.4713898,111.7791895,https://maps.google.com/?cid=0x0:0x6540ff13e04e9489,
komplek housing,komplek housing,Kalimantan Tengah 74184,"Kec. Pangkalan Lada, Kabupaten Kotawaringin Barat, Kalimantan Tengah","Kabupaten Kotawaringin Barat, Kalimantan Tengah",KALIMANTAN TENGAH,,Indonesia,,,,-2.4128845,111.8330106,https://maps.google.com/?cid=0x0:0x7b81cc477671085b,
komplek housing,Pembangunan Perumahan,wahyu hidayat,"GQG6+GP, Pandu Senjaya, Kec. Pangkalan Lada, Kabupaten Kotawaringin Barat, Kalimantan Tengah 74113","Pandu Senjaya, Kec. Pangkalan Lada, Kabupaten Kotawaringin Barat",KALIMANTAN TENGAH,74113.0,Indonesia,,,,-2.4736295,111.7617628,https://maps.google.com/?cid=0x0:0xedbffd3694c2a57a,
komplek housing,Komplek perumahan,Rumah Mak Mi,"GR6M+2C9, RT.RW 01/RW.RT 09, Pangkalan Dewa, Kec. Pangkalan Lada, Kabupaten Kotawaringin Barat, Kalimantan Tengah 74184","RT.RW 01/RW.RT 09, Pangkalan Dewa, Kec. Pangkalan Lada, Kabupaten Kotawaringin Barat",KALIMANTAN TENGAH,74184.0,Indonesia,,,,-2.4899585,111.8335948,https://maps.google.com/?cid=0x0:0x33b395a125fe0ddb,
komplek housing,Komplek perumahan,Fitri Wahyu,"HR3R+554, Jl. Ahmad Yani, Pangkalan Tiga, Kec. Pangkalan Lada, Kabupaten Kotawaringin Barat, Kalimantan Tengah 74184","Jl. Ahmad Yani, Pangkalan Tiga, Kec. Pangkalan Lada, Kabupaten Kotawaringin Barat",KALIMANTAN TENGAH,74184.0,Indonesia,82199607459.0,,,-2.4471123,111.8404543,https://maps.google.com/?cid=0x0:0x3505b89d057b4385,
komplek housing,Pembangunan Perumahan,Servis lampu bolam ur,"FQRF+P8H, Lada Mandala Jaya, Kec. Pangkalan Lada, Kabupaten Kotawaringin Barat, Kalimantan Tengah 74184","Lada Mandala Jaya, Kec. Pangkalan Lada, Kabupaten Kotawaringin Barat",KALIMANTAN TENGAH,74184.0,Indonesia,,,,-2.5081952,111.773347,https://maps.google.com/?cid=0x0:0xde649f7b6cf26d1b,
komplek housing,Komplek perumahan,Rumah tante da,"GRVW+4CW, Pangkalan Tiga, Kec. Pangkalan Lada, Kabupaten Kotawaringin Barat, Kalimantan Tengah","Kabupaten Kotawaringin Barat, Kalimantan Tengah",KALIMANTAN TENGAH,,Indonesia,,,,-2.4560654,111.8464258,https://maps.google.com/?cid=0x0:0xefeab8f8080ec8ee,
komplek housing,Komplek perumahan,Sri Santoso,"GRVW+4CW, Pangkalan Tiga, Kec. Pangkalan Lada, Kabupaten Kotawaringin Barat, Kalimantan Tengah","Kabupaten Kotawaringin Barat, Kalimantan Tengah",KALIMANTAN TENGAH,,Indonesia,,,,-2.4569186,111.8464758,https://maps.google.com/?cid=0x0:0xc909793fc4e73377,
komplek housing,Pembangunan Perumahan,Suyamto,"GRVM+75, Pangkalan Tiga, Kec. Pangkalan Lada, Kabupaten Kotawaringin Barat, Kalimantan Tengah","Kabupaten Kotawaringin Barat, Kalimantan Tengah",KALIMANTAN TENGAH,,Indonesia,,,,-2.456732,111.833858,https://maps.google.com/?cid=0x0:0x86719748125366dc,
komplek housing,Pembangunan Perumahan,Gubuk cahyo,"FQMJ+WRP, Lada Mandala Jaya, Kec. Pangkalan Lada, Kabupaten Kotawaringin Barat, Kalimantan Tengah 74184","Lada Mandala Jaya, Kec. Pangkalan Lada, Kabupaten Kotawaringin Barat",KALIMANTAN TENGAH,74184.0,Indonesia,,,,-2.5151538,111.7820756,https://maps.google.com/?cid=0x0:0x6906f361ac485522,
komplek housing,Komplek perumahan,Pangkalan Lada,"CPFP+379, Sumber Agung, Kec. Pangkalan Lada, Kabupaten Kotawaringin Barat, Kalimantan Tengah","Kabupaten Kotawaringin Barat, Kalimantan Tengah",KALIMANTAN TENGAH,,Indonesia,,,,-2.5773457,111.7357245,https://maps.google.com/?cid=0x0:0x9c05bf2e87867c6c,
komplek housing,Komplek perumahan,Mukidi,"Sungai Kuning, Kec. Pangkalan Banteng, Kabupaten Kotawaringin Barat, Kalimantan Tengah 74184","Kec. Pangkalan Banteng, Kabupaten Kotawaringin Barat",KALIMANTAN TENGAH,74184.0,Indonesia,,,,-2.3728578,111.8796419,https://maps.google.com/?cid=0x0:0x77d0eb56b9c41d69,
komplek housing,Komplek perumahan,Rumah anisaaa,"HVX4+VF6, Sungai Bengkuang, Kec. Pangkalan Banteng, Kabupaten Kotawaringin Barat, Kalimantan Tengah 74184","Sungai Bengkuang, Kec. Pangkalan Banteng, Kabupaten Kotawaringin Barat",KALIMANTAN TENGAH,74184.0,Indonesia,,,,-2.4006405,111.8547956,https://maps.google.com/?cid=0x0:0xe86fc721d78ad6ca,
komplek housing,Pembangunan Perumahan,Perumahan Sungai biru PT. SSS,"FRGG+2J4, Lada Mandala Jaya, Kec. Pangkalan Lada, Kabupaten Kotawaringin Barat, Kalimantan Tengah","Kabupaten Kotawaringin Barat, Kalimantan Tengah",KALIMANTAN TENGAH,,Indonesia,,,,-2.524993,111.8265666,https://maps.google.com/?cid=0x0:0xe9781ef9fc5a204f,
komplek housing,Komplek perumahan,Sidauruk Home,"FQPG+XCG, Unnamed Road, Lada Mandala Jaya, Kec. Pangkalan Lada, Kabupaten Kotawaringin Barat, Kalimantan Tengah 74184","Unnamed Road, Lada Mandala Jaya, Kec. Pangkalan Lada, Kabupaten Kotawaringin Barat",KALIMANTAN TENGAH,74184.0,Indonesia,,,,-2.512553,111.776093,https://maps.google.com/?cid=0x0:0x7c2f120b36347c89,
komplek housing,Komplek perumahan,MUHAMMAD IMAM,"GQ9Q+RQ, Pandu Senjaya, Kec. Pangkalan Lada, Kabupaten Kotawaringin Barat, Kalimantan Tengah 74184","Pandu Senjaya, Kec. Pangkalan Lada, Kabupaten Kotawaringin Barat",KALIMANTAN TENGAH,74184.0,Indonesia,,,,-2.4804375,111.7894375,https://maps.google.com/?cid=0x0:0x193a0cf6c9661224,
komplek housing,Komplek perumahan,RUMAH MUTIA,"GRVV+CQ3, Pangkalan Tiga, Kec. Pangkalan Lada, Kabupaten Kotawaringin Barat, Kalimantan Tengah 74184","Pangkalan Tiga, Kec. Pangkalan Lada, Kabupaten Kotawaringin Barat",KALIMANTAN TENGAH,74184.0,Indonesia,,,,-2.4564155,111.844557,https://maps.google.com/?cid=0x0:0x500fe0d1ac99cf43,
komplek housing,Komplek perumahan,Peron Arsakha,"GR5H+5FP, Pangkalan Dewa, Kec. Pangkalan Lada, Kabupaten Kotawaringin Barat, Kalimantan Tengah 74184","Pangkalan Dewa, Kec. Pangkalan Lada, Kabupaten Kotawaringin Barat",KALIMANTAN TENGAH,74184.0,Indonesia,,,,-2.49314,111.828773,https://maps.google.com/?cid=0x0:0x78e76068a1a9941b,
komplek housing,Komplek perumahan,rumah dika,"HVX5+34F, Sungai Bengkuang, Kec. Pangkalan Banteng, Kabupaten Kotawaringin Barat, Kalimantan Tengah 74184","Sungai Bengkuang, Kec. Pangkalan Banteng, Kabupaten Kotawaringin Barat",KALIMANTAN TENGAH,74184.0,Indonesia,,,,-2.401596,111.857098,https://maps.google.com/?cid=0x0:0x61aead12ff2e3ef0,
komplek housing,komplek housing,Kec. Pangkalan Lada,"Kabupaten Kotawaringin Barat, Kalimantan Tengah","Kabupaten Kotawaringin Barat, Kalimantan Tengah",KALIMANTAN TENGAH,,Indonesia,,,,-2.5773457,111.7357245,https://maps.google.com/?cid=0x0:0x7345c91ed5f078a0,
komplek housing,Perhimpunan Pengembang Perumahan,Tumahku,"GQHM+2Q, Pandu Senjaya, Kec. Pangkalan Lada, Kabupaten Kotawaringin Barat, Kalimantan Tengah 74184","Pandu Senjaya, Kec. Pangkalan Lada, Kabupaten Kotawaringin Barat",KALIMANTAN TENGAH,74184.0,Indonesia,,,,-2.4725625,111.7843125,https://maps.google.com/?cid=0x0:0xa6d1f720989aafc0,
komplek housing,komplek housing,Rumah aingah,"FQMH+RH5, Lada Mandala Jaya, Kec. Pangkalan Lada, Kabupaten Kotawaringin Barat, Kalimantan Tengah 74184","Lada Mandala Jaya, Kec. Pangkalan Lada, Kabupaten Kotawaringin Barat",KALIMANTAN TENGAH,74184.0,Indonesia,,,,-2.5154962,111.7789944,https://maps.google.com/?cid=0x0:0x849cc7f1d5bbcc5b,
komplek housing,Pembangunan Perumahan,Dadang Sugiana,"Jl. Gajah Mada,RT.15 RW.04 Ds.Pangkalan Tiga,Kec. P.lada, Kab, Pangkalan Tiga, Kec. Pangkalan Lada, Kabupaten Kotawaringin Barat, Kalimantan Tengah 74184","Kab, Pangkalan Tiga, Kec. Pangkalan Lada, Kabupaten Kotawaringin Barat",KALIMANTAN TENGAH,74184.0,Indonesia,,,,-2.4575267,111.8356267,https://maps.google.com/?cid=0x0:0xbb5f09f62381d2da,
komplek housing,Gedung Apartemen,Rumah Pak Mulyono Guru,"GR5H+5FP, Pangkalan Dewa, Kec. Pangkalan Lada, Kabupaten Kotawaringin Barat, Kalimantan Tengah 74184","Pangkalan Dewa, Kec. Pangkalan Lada, Kabupaten Kotawaringin Barat",KALIMANTAN TENGAH,74184.0,Indonesia,,,,-2.492127,111.82924,https://maps.google.com/?cid=0x0:0xaad72bd5aa982f49,
komplek housing,Pembangunan Perumahan,Rumah kembar,"FRH4+G8F, Lada Mandala Jaya, Kec. Pangkalan Lada, Kabupaten Kotawaringin Barat, Kalimantan Tengah 74184","Lada Mandala Jaya, Kec. Pangkalan Lada, Kabupaten Kotawaringin Barat",KALIMANTAN TENGAH,74184.0,Indonesia,,,,-2.5211975,111.8057864,https://maps.google.com/?cid=0x0:0x3833329ddf899b87,
komplek housing,Pembangunan Perumahan,Winoto,"GRRM+8MP, Pangkalan Tiga, Kec. Pangkalan Lada, Kabupaten Kotawaringin Barat, Kalimantan Tengah 74184","Pangkalan Tiga, Kec. Pangkalan Lada, Kabupaten Kotawaringin Barat",KALIMANTAN TENGAH,74184.0,Indonesia,,,,-2.4595917,111.8340467,https://maps.google.com/?cid=0x0:0x628799314a05dc1,
komplek housing,Komplek perumahan,Anis,"FQQF+XW9, Lada Mandala Jaya, Kec. Pangkalan Lada, Kabupaten Kotawaringin Barat, Kalimantan Tengah 74184","Lada Mandala Jaya, Kec. Pangkalan Lada, Kabupaten Kotawaringin Barat",KALIMANTAN TENGAH,74184.0,Indonesia,,,,-2.5101596,111.7754171,https://maps.google.com/?cid=0x0:0x11a8174ea4613274,
komplek housing,Gedung Apartemen,Rumah devi,"GR5M+V8G, Jl. Punta Dewa, RT.09 RW01, Pangkalan Dewa, Kec. Pangkalan Lada, Kabupaten Kotawaringin Barat, Kalimantan Tengah 74184","Jl. Punta Dewa, RT.09 RW01, Pangkalan Dewa, Kec. Pangkalan Lada, Kabupaten Kotawaringin Barat",KALIMANTAN TENGAH,74184.0,Indonesia,,,,-2.4903073,111.8333151,https://maps.google.com/?cid=0x0:0xa7c782a389ac7a95,
perumahan,perumahan,Kalimantan Tengah 74111,"Kec. Arut Sel., Kabupaten Kotawaringin Barat, Kalimantan Tengah","Kabupaten Kotawaringin Barat, Kalimantan Tengah",KALIMANTAN TENGAH,,Indonesia,,,,-2.6520279,111.6362619,https://maps.google.com/?cid=0x0:0x2253408f4577629c,
perumahan,Komplek perumahan,Rumah pesisir kalteng,"8MJ3+57R, Gg. Paus, Baru, Kec. Arut Sel., Kabupaten Kotawaringin Barat, Kalimantan Tengah 74112","Gg. Paus, Baru, Kec. Arut Sel., Kabupaten Kotawaringin Barat",KALIMANTAN TENGAH,74112.0,Indonesia,,,,-2.669505,111.6531515,https://maps.google.com/?cid=0x0:0x7218964ba58a689e,
perumahan,Pembangunan Perumahan,PERUMAHAN MUTIARA 1,"8MV4+FC7, Jl. H.Delima, Baru, Kec. Arut Sel., Kabupaten Kotawaringin Barat, Kalimantan Tengah 74112","Jl. H.Delima, Baru, Kec. Arut Sel., Kabupaten Kotawaringin Barat",KALIMANTAN TENGAH,74112.0,Indonesia,,,,-2.6563401,111.6560468,https://maps.google.com/?cid=0x0:0xc9149f81a07b48c6,
perumahan,Komplek perumahan,Griya Niqo Permai,"8JHW+6RW, Baru, Kec. Arut Sel., Kabupaten Kotawaringin Barat, Kalimantan Tengah 74112","Baru, Kec. Arut Sel., Kabupaten Kotawaringin Barat",KALIMANTAN TENGAH,74112.0,Indonesia,,,,-2.6718865,111.647074,https://maps.google.com/?cid=0x0:0x2f548a34e1794bd9,
perumahan,Komplek perumahan,Rumah ZhaZey,"8J4C+CH6, Sidorejo, Kec. Arut Sel., Kabupaten Kotawaringin Barat, Kalimantan Tengah 74112","Sidorejo, Kec. Arut Sel., Kabupaten Kotawaringin Barat",KALIMANTAN TENGAH,74112.0,Indonesia,,,,-2.6940404,111.6210998,https://maps.google.com/?cid=0x0:0xc6b16b4084555e07,
perumahan,Komplek perumahan,Rumah Putri,"Gg. Manggis No.50, Raja, Kec. Arut Sel., Kabupaten Kotawaringin Barat, Kalimantan Tengah 74112","Raja, Kec. Arut Sel., Kabupaten Kotawaringin Barat",KALIMANTAN TENGAH,74112.0,Indonesia,,,,-2.6779397,111.6330983,https://maps.google.com/?cid=0x0:0xb3b082b5087b8b15,
perumahan,Komplek perumahan,Rumah,"8MJ4+5G9, Baru, Kec. Arut Sel., Kabupaten Kotawaringin Barat, Kalimantan Tengah","Kabupaten Kotawaringin Barat, Kalimantan Tengah",KALIMANTAN TENGAH,,Indonesia,,,,-2.6695968,111.6563499,https://maps.google.com/?cid=0x0:0x9b5dafcca76ce934,
perumahan,Komplek perumahan,Perumahan,"7JX8+X54, Jl. Jenderal Sudirman, Sidorejo, Kec. Arut Sel., Kabupaten Kotawaringin Barat, Kalimantan Tengah 74111","Jl. Jenderal Sudirman, Sidorejo, Kec. Arut Sel., Kabupaten Kotawaringin Barat",KALIMANTAN TENGAH,74111.0,Indonesia,,,,-2.699828,111.615174,https://maps.google.com/?cid=0x0:0x448ee117331f7434,
perumahan,Komplek perumahan,DEWI HOME,"8MP3+44R, Gg. Rarait 4, Baru, Kec. Arut Sel., Kabupaten Kotawaringin Barat, Kalimantan Tengah 74112","Gg. Rarait 4, Baru, Kec. Arut Sel., Kabupaten Kotawaringin Barat",KALIMANTAN TENGAH,74112.0,Indonesia,82254296702.0,,,-2.6646363,111.6527624,https://maps.google.com/?cid=0x0:0x76ffbae2d9160633,
perumahan,Komplek perumahan,Rumah pribadi septi mulyani,"9M36+6X2, Baru, Kec. Arut Sel., Kabupaten Kotawaringin Barat, Kalimantan Tengah 74111","Baru, Kec. Arut Sel., Kabupaten Kotawaringin Barat",KALIMANTAN TENGAH,74111.0,Indonesia,,,,-2.6469816,111.6623854,https://maps.google.com/?cid=0x0:0x46665c356d89933d,
perumahan,Perumahan,Rumah Fatih paling ganteng,"Jl. Jenderal Sudirman Gg. Talihit, Sidorejo, Kec. Arut Sel., Kabupaten Kotawaringin Barat, Kalimantan Tengah 74112","Sidorejo, Kec. Arut Sel., Kabupaten Kotawaringin Barat",KALIMANTAN TENGAH,74112.0,Indonesia,,,,-2.6951455,111.6222239,https://maps.google.com/?cid=0x0:0x60dcfed2b7b5d12,
perumahan,Pembangunan Perumahan,Perumahan Sabil,"8MH3+M96, Baru, Kec. Arut Sel., Kabupaten Kotawaringin Barat, Kalimantan Tengah 74112","Baru, Kec. Arut Sel., Kabupaten Kotawaringin Barat",KALIMANTAN TENGAH,74112.0,Indonesia,,,,-2.67084,111.6533934,https://maps.google.com/?cid=0x0:0xbebe6a6211d4e33a,
perumahan,Perumahan,Griya Bungur Residence,"8MW2+6QV, Baru, Kec. Arut Sel., Kabupaten Kotawaringin Barat, Kalimantan Tengah 74111","Baru, Kec. Arut Sel., Kabupaten Kotawaringin Barat",KALIMANTAN TENGAH,74111.0,Indonesia,85330643875.0,,,-2.6543876,111.6519364,https://maps.google.com/?cid=0x0:0x1c423914b6fa3495,
perumahan,perumahan,rumah,"Jl. Ahmad Wongso Gg. Itik II No.60, RT.19, Sidorejo, Kec. Arut Sel., Kabupaten Kotawaringin Barat, Kalimantan Tengah 74111","RT.19, Sidorejo, Kec. Arut Sel., Kabupaten Kotawaringin Barat",KALIMANTAN TENGAH,74111.0,Indonesia,,,,-2.6962252,111.6289952,https://maps.google.com/?cid=0x0:0x67c35e2df374b54b,
perumahan,Komplek perumahan,RUMAH HERLY,"Jl. GM. Arsad Gg.Baung No.II, Baru, Kec. Arut Sel., Kabupaten Kotawaringin Barat, Kalimantan Tengah 74112","Baru, Kec. Arut Sel., Kabupaten Kotawaringin Barat",KALIMANTAN TENGAH,74112.0,Indonesia,,,,-2.6709582,111.6398307,https://maps.google.com/?cid=0x0:0x85b2dc0307d6cb19,
perumahan,Rumah Kaca,Perumahan Green Garden,"8MQ4+2F2, Jl. P. R. Tumenggung Cikra Negara II, Baru, Kec. Arut Sel., Kabupaten Kotawaringin Barat, Kalimantan Tengah 74112","Jl. P. R. Tumenggung Cikra Negara II, Baru, Kec. Arut Sel., Kabupaten Kotawaringin Barat",KALIMANTAN TENGAH,74112.0,Indonesia,,,,-2.6624906,111.6561398,https://maps.google.com/?cid=0x0:0x5d7d9c3252924449,
perumahan,Komplek perumahan,Rumahhh,"9MGF+PC3, Natai Baru, Kec. Arut Sel., Kabupaten Kotawaringin Barat, Kalimantan Tengah 74111","Natai Baru, Kec. Arut Sel., Kabupaten Kotawaringin Barat",KALIMANTAN TENGAH,74111.0,Indonesia,,,,-2.6239976,111.6740198,https://maps.google.com/?cid=0x0:0xa88be37a3db537c4,
perumahan,Inspektur Tempat Tinggal,Rumah Bang Wandi,"8MV4+FRJ, Jalan mutiara 2, Baru, Kec. Arut Sel., Kabupaten Kotawaringin Barat, Kalimantan Tengah 74112","Jalan mutiara 2, Baru, Kec. Arut Sel., Kabupaten Kotawaringin Barat",KALIMANTAN TENGAH,74112.0,Indonesia,,,,-2.6562977,111.6570196,https://maps.google.com/?cid=0x0:0x9e305a1ca1bb304a,
perumahan,Komplek perumahan,Gg.prabu,"8MV5+98, Baru, Kec. Arut Sel., Kabupaten Kotawaringin Barat, Kalimantan Tengah 74112","Baru, Kec. Arut Sel., Kabupaten Kotawaringin Barat",KALIMANTAN TENGAH,74112.0,Indonesia,,,,-2.6565468,111.6585354,https://maps.google.com/?cid=0x0:0xc18de5b2a485416,
perumahan,Pembangunan Perumahan,Rumah rima selpia,"8MW6+6H, Baru, Kec. Arut Sel., Kabupaten Kotawaringin Barat, Kalimantan Tengah","Kabupaten Kotawaringin Barat, Kalimantan Tengah",KALIMANTAN TENGAH,,Indonesia,,,,-2.6544658,111.6614605,https://maps.google.com/?cid=0x0:0xf46954600ebc156a,
perumahan,Komplek perumahan,Perumahan Bukit Marundau Residence,"Jl. Jenderal Sudirman, RT./RW/RW.28/VI, Sidorejo, Kec. Arut Sel., Kabupaten Kotawaringin Barat, Kalimantan Tengah 74112","RT./RW/RW.28/VI, Sidorejo, Kec. Arut Sel., Kabupaten Kotawaringin Barat",KALIMANTAN TENGAH,74112.0,Indonesia,53224425.0,,,-2.695718,111.6161273,https://maps.google.com/?cid=0x0:0x37e04e9859431bd,
perumahan,Perumahan,Perumahan,"8MX3+HQG, Baru, Kec. Arut Sel., Kabupaten Kotawaringin Barat, Kalimantan Tengah 74111","Baru, Kec. Arut Sel., Kabupaten Kotawaringin Barat",KALIMANTAN TENGAH,74111.0,Indonesia,,,,-2.6503267,111.6538517,https://maps.google.com/?cid=0x0:0x924b3d4ec77d407e,
perumahan,Perhimpunan Pengembang Perumahan,DEDY,"9MF5+8M, Baru, Kec. Arut Sel., Kabupaten Kotawaringin Barat, Kalimantan Tengah 74111","Baru, Kec. Arut Sel., Kabupaten Kotawaringin Barat",KALIMANTAN TENGAH,74111.0,Indonesia,,,,-2.626667,111.659167,https://maps.google.com/?cid=0x0:0xd0b887e1b093b21c,
perumahan,Komplek perumahan,HENDRY AGUS,"Jl. Cilik Riwut 1 No.20, Sidorejo, Kec. Arut Sel., Kabupaten Kotawaringin Barat, Kalimantan Tengah 74111","Sidorejo, Kec. Arut Sel., Kabupaten Kotawaringin Barat",KALIMANTAN TENGAH,74111.0,Indonesia,,,,-2.696092,111.6189495,https://maps.google.com/?cid=0x0:0x7ff271782a33e467,
perumahan,Pembangunan Perumahan,Bungur,"9MG5+WC5, Unnamed Road, Baru, Kec. Arut Sel., Kabupaten Kotawaringin Barat, Kalimantan Tengah 74111","Unnamed Road, Baru, Kec. Arut Sel., Kabupaten Kotawaringin Barat",KALIMANTAN TENGAH,74111.0,Indonesia,,,,-2.6227483,111.6586031,https://maps.google.com/?cid=0x0:0xdb59a0e76d232b8,
perumahan,Komplek perumahan,Rumah acil Ood,"8MV5+H46, Baru, Kec. Arut Sel., Kabupaten Kotawaringin Barat, Kalimantan Tengah","Kabupaten Kotawaringin Barat, Kalimantan Tengah",KALIMANTAN TENGAH,,Indonesia,,,,-2.6560851,111.6577653,https://maps.google.com/?cid=0x0:0x3d4d17b4da531977,
perumahan,Komplek perumahan,Tempat tinggal/Rumah,"8MP3+8QM, Gg. Rarait 7, Baru, Kec. Arut Sel., Kabupaten Kotawaringin Barat, Kalimantan Tengah 74112","Gg. Rarait 7, Baru, Kec. Arut Sel., Kabupaten Kotawaringin Barat",KALIMANTAN TENGAH,74112.0,Indonesia,,,,-2.6641656,111.6544357,https://maps.google.com/?cid=0x0:0x1dabce83959c8f3a,
perumahan,Perhimpunan Pengembang Perumahan,Pangkalan Bun,"8J9H+M3F, Mendawai, Kec. Arut Sel., Kabupaten Kotawaringin Barat, Kalimantan Tengah","Kabupaten Kotawaringin Barat, Kalimantan Tengah",KALIMANTAN TENGAH,,Indonesia,,,,-2.680853,111.6275924,https://maps.google.com/?cid=0x0:0x58f697465091d0a0,
perumahan,Komplek perumahan,RUMAH AIRA,"8MX6+96J, Jl. H.Delima, Baru, Kec. Arut Sel., Kabupaten Kotawaringin Barat, Kalimantan Tengah 74112","Jl. H.Delima, Baru, Kec. Arut Sel., Kabupaten Kotawaringin Barat",KALIMANTAN TENGAH,74112.0,Indonesia,,,,-2.6515359,111.660514,https://maps.google.com/?cid=0x0:0xb3a3a1ee5ec02cde,
perumahan,perumahan,Kalimantan Tengah 74112,"Kec. Arut Sel., Kabupaten Kotawaringin Barat, Kalimantan Tengah","Kabupaten Kotawaringin Barat, Kalimantan Tengah",KALIMANTAN TENGAH,,Indonesia,,,,-2.6703594,111.6481861,https://maps.google.com/?cid=0x0:0xb2a8a9e52752a154,
perumahan,Komplek perumahan,Perumahan Bukit Marundau Residence,"Jl. Jenderal Sudirman, RT./RW/RW.28/VI, Sidorejo, Kec. Arut Sel., Kabupaten Kotawaringin Barat, Kalimantan Tengah 74112","RT./RW/RW.28/VI, Sidorejo, Kec. Arut Sel., Kabupaten Kotawaringin Barat",KALIMANTAN TENGAH,74112.0,Indonesia,53224425.0,,,-2.695718,111.6161273,https://maps.google.com/?cid=0x0:0x37e04e9859431bd,
perumahan,Pembangunan Perumahan,Perumahan Sabil,"8MH3+M96, Baru, Kec. Arut Sel., Kabupaten Kotawaringin Barat, Kalimantan Tengah 74112","Baru, Kec. Arut Sel., Kabupaten Kotawaringin Barat",KALIMANTAN TENGAH,74112.0,Indonesia,,,,-2.67084,111.6533934,https://maps.google.com/?cid=0x0:0xbebe6a6211d4e33a,
perumahan,Otoritas Perumahan,Perumahan Sunrise Garden C.14 Gang Sunrise 9,"Jalan Cilik Riwut No.1, Sidorejo, South Arut, West Kotawaringin Regency, Central Kalimantan 74112","Sidorejo, South Arut, West Kotawaringin Regency",KALIMANTAN TENGAH,74112.0,Indonesia,,,,-2.6932931,111.6204535,https://maps.google.com/?cid=0x0:0x7d2ece18bfd1af99,
perumahan,Kompleks Townhouse,Perumahan Angsana Permai,"Gang Asam Bubuk No.1, Sidorejo, South Arut, West Kotawaringin Regency, Central Kalimantan 74112","Sidorejo, South Arut, West Kotawaringin Regency",KALIMANTAN TENGAH,74112.0,Indonesia,,,,-2.6799045,111.64075,https://maps.google.com/?cid=0x0:0xfc4c933ec16dd2b,
perumahan,Pembangunan Perumahan,Perumahan Sido Mukti,"8J4H+6H7, Sidorejo, Kec. Arut Sel., Kabupaten Kotawaringin Barat, Kalimantan Tengah 74112","Sidorejo, Kec. Arut Sel., Kabupaten Kotawaringin Barat",KALIMANTAN TENGAH,74112.0,Indonesia,,,,-2.6944274,111.6289257,https://maps.google.com/?cid=0x0:0xe75ce446ba6f11be,
perumahan,Komplek perumahan,Rumah pesisir kalteng,"8MJ3+57R, Gg. Paus, Baru, Kec. Arut Sel., Kabupaten Kotawaringin Barat, Kalimantan Tengah 74112","Gg. Paus, Baru, Kec. Arut Sel., Kabupaten Kotawaringin Barat",KALIMANTAN TENGAH,74112.0,Indonesia,,,,-2.669505,111.6531515,https://maps.google.com/?cid=0x0:0x7218964ba58a689e,
perumahan,Pembangunan Perumahan,Perumahan Mutiara 2,"8MV4+PM7, Baru, Kec. Arut Sel., Kabupaten Kotawaringin Barat, Kalimantan Tengah 74112","Baru, Kec. Arut Sel., Kabupaten Kotawaringin Barat",KALIMANTAN TENGAH,74112.0,Indonesia,,,,-2.6557079,111.6566742,https://maps.google.com/?cid=0x0:0xe7157a13acf1d042,
perumahan,Komplek perumahan,Tempat tinggal/Rumah,"8MP3+8QM, Gg. Rarait 7, Baru, Kec. Arut Sel., Kabupaten Kotawaringin Barat, Kalimantan Tengah 74112","Gg. Rarait 7, Baru, Kec. Arut Sel., Kabupaten Kotawaringin Barat",KALIMANTAN TENGAH,74112.0,Indonesia,,,,-2.6641656,111.6544357,https://maps.google.com/?cid=0x0:0x1dabce83959c8f3a,
perumahan,Komplek perumahan,Perumahan Istiqomah,"Jl. Tani Makmur Gg. Istiqomah No.6, RT.27/RW.03, Madurejo, Kec. Arut Sel., Kabupaten Kotawaringin Barat, Kalimantan Tengah 74112","RT.27/RW.03, Madurejo, Kec. Arut Sel., Kabupaten Kotawaringin Barat",KALIMANTAN TENGAH,74112.0,Indonesia,,,,-2.7068821,111.6216421,https://maps.google.com/?cid=0x0:0x628bf046ad75ca62,
perumahan,Rumah Kaca,Perumahan Green Garden,"8MQ4+2F2, Jl. P. R. Tumenggung Cikra Negara II, Baru, Kec. Arut Sel., Kabupaten Kotawaringin Barat, Kalimantan Tengah 74112","Jl. P. R. Tumenggung Cikra Negara II, Baru, Kec. Arut Sel., Kabupaten Kotawaringin Barat",KALIMANTAN TENGAH,74112.0,Indonesia,,,,-2.6624906,111.6561398,https://maps.google.com/?cid=0x0:0x5d7d9c3252924449,
perumahan,Komplek perumahan,Rumah Putri,"Gg. Manggis No.50, Raja, Kec. Arut Sel., Kabupaten Kotawaringin Barat, Kalimantan Tengah 74112","Raja, Kec. Arut Sel., Kabupaten Kotawaringin Barat",KALIMANTAN TENGAH,74112.0,Indonesia,,,,-2.6779397,111.6330983,https://maps.google.com/?cid=0x0:0xb3b082b5087b8b15,
perumahan,Komplek perumahan,Rumah Wiwa Tota Nata,"Jl. Pasanah Gg. Rusa No.2, Sidorejo, Kec. Arut Sel., Kabupaten Kotawaringin Barat, Kalimantan Tengah 74112","Sidorejo, Kec. Arut Sel., Kabupaten Kotawaringin Barat",KALIMANTAN TENGAH,74112.0,Indonesia,,,,-2.6819934,111.6520422,https://maps.google.com/?cid=0x0:0x7cee8e5582add4a7,
perumahan,Pembangunan Perumahan,PERUMAHAN MUTIARA 1,"8MV4+FC7, Jl. H.Delima, Baru, Kec. Arut Sel., Kabupaten Kotawaringin Barat, Kalimantan Tengah 74112","Jl. H.Delima, Baru, Kec. Arut Sel., Kabupaten Kotawaringin Barat",KALIMANTAN TENGAH,74112.0,Indonesia,,,,-2.6563401,111.6560468,https://maps.google.com/?cid=0x0:0xc9149f81a07b48c6,
perumahan,Komplek perumahan,RUMAH,"8M82+J25, Gg. Rusa 2, Sidorejo, Kec. Arut Sel., Kabupaten Kotawaringin Barat, Kalimantan Tengah 74112","Gg. Rusa 2, Sidorejo, Kec. Arut Sel., Kabupaten Kotawaringin Barat",KALIMANTAN TENGAH,74112.0,Indonesia,,,,-2.6834972,111.6500967,https://maps.google.com/?cid=0x0:0x9fe1b2228c318ca7,
perumahan,Komplek perumahan,Rumah keluarga NORHAYATI,"8J9C+VJF, Mendawai, Kec. Arut Sel., Kabupaten Kotawaringin Barat, Kalimantan Tengah 74112","Mendawai, Kec. Arut Sel., Kabupaten Kotawaringin Barat",KALIMANTAN TENGAH,74112.0,Indonesia,,,,-2.6806723,111.6219085,https://maps.google.com/?cid=0x0:0x5c4c86140a968524,
perumahan,Perhimpunan Pengembang Perumahan,Gang pipit,"8J7F+2VM, Sidorejo, Kec. Arut Sel., Kabupaten Kotawaringin Barat, Kalimantan Tengah 74112","Sidorejo, Kec. Arut Sel., Kabupaten Kotawaringin Barat",KALIMANTAN TENGAH,74112.0,Indonesia,,,,-2.6874067,111.6246773,https://maps.google.com/?cid=0x0:0xa261646712106256,
perumahan,Komplek perumahan,Rumah Mbah lulus,"8J9P+XG6, Jl. Musang, Sidorejo, Kec. Arut Sel., Kabupaten Kotawaringin Barat, Kalimantan Tengah 74112","Jl. Musang, Sidorejo, Kec. Arut Sel., Kabupaten Kotawaringin Barat",KALIMANTAN TENGAH,74112.0,Indonesia,,,,-2.6800766,111.63626,https://maps.google.com/?cid=0x0:0xbaee53f9a37d476,
perumahan,Komplek perumahan,Rumah Amu,"8MPC+625, Baru, Kec. Arut Sel., Kabupaten Kotawaringin Barat, Kalimantan Tengah 74112","Baru, Kec. Arut Sel., Kabupaten Kotawaringin Barat",KALIMANTAN TENGAH,74112.0,Indonesia,,,,-2.6644834,111.6700984,https://maps.google.com/?cid=0x0:0x8f5169db3727b79a,
perumahan,Komplek perumahan,Rumah Syahruni Fams,"8JCF+8R5, Mendawai, Kec. Arut Sel., Kabupaten Kotawaringin Barat, Kalimantan Tengah 74112","Mendawai, Kec. Arut Sel., Kabupaten Kotawaringin Barat",KALIMANTAN TENGAH,74112.0,Indonesia,,,,-2.679272,111.6244063,https://maps.google.com/?cid=0x0:0xc9c59d12baed26da,
perumahan,Komplek perumahan,Perumahan Pinang Merah,"Dekat Pos Kamling, Perumahan Pinang Merah RT07, Pasir Panjang, Kec. Arut Sel., Kabupaten Kotawaringin Barat, Kalimantan Tengah 74112","Perumahan Pinang Merah RT07, Pasir Panjang, Kec. Arut Sel., Kabupaten Kotawaringin Barat",KALIMANTAN TENGAH,74112.0,Indonesia,,,,-2.732348,111.635462,https://maps.google.com/?cid=0x0:0x5a6cfa49206ac05c,
perumahan,Pembangunan Perumahan,Perumahan nhavokinzo Green city I,"8J9P+HWV, Jl. Musang, Sidorejo, Kec. Arut Sel., Kabupaten Kotawaringin Barat, Kalimantan Tengah 74112","Jl. Musang, Sidorejo, Kec. Arut Sel., Kabupaten Kotawaringin Barat",KALIMANTAN TENGAH,74112.0,Indonesia,,,,-2.681011,111.637285,https://maps.google.com/?cid=0x0:0xf54f6d0dfaac4809,
perumahan,Komplek perumahan,Rumah Bayan Prapto,"8J5F+5MF, Gg. H. Hasim, Sidorejo, Kec. Arut Sel., Kabupaten Kotawaringin Barat, Kalimantan Tengah 74112","Gg. H. Hasim, Sidorejo, Kec. Arut Sel., Kabupaten Kotawaringin Barat",KALIMANTAN TENGAH,74112.0,Indonesia,,,,-2.6920617,111.6241757,https://maps.google.com/?cid=0x0:0xbc82a3b73a61558e,
perumahan,Komplek perumahan,Perumahan Bambu Kuning,"btn, Jl. Bambu Kuning No.III, Madurejo, Kec. Arut Sel., Kabupaten Kotawaringin Barat, Kalimantan Tengah 74112","Jl. Bambu Kuning No.III, Madurejo, Kec. Arut Sel., Kabupaten Kotawaringin Barat",KALIMANTAN TENGAH,74112.0,Indonesia,,,,-2.7187957,111.6411581,https://maps.google.com/?cid=0x0:0x2dd7fcdc72465c4b,
perumahan,Pembangunan Perumahan,BTN SUMMER RESIDENCE,"Jl. H. Moestalim No.RT 16,74112, Madurejo, Kec. Arut Sel., Kabupaten Kotawaringin Barat, Kalimantan Tengah 74117","Madurejo, Kec. Arut Sel., Kabupaten Kotawaringin Barat",KALIMANTAN TENGAH,74117.0,Indonesia,85651220080.0,,,-2.6926541,111.651372,https://maps.google.com/?cid=0x0:0x58d3326a705202e2,
perumahan,Komplek perumahan,EL GROUP,"Jl. Pasanah Gg. Rusa No.2, Sidorejo, Kec. Arut Sel., Kabupaten Kotawaringin Barat, Kalimantan Tengah 74112","Sidorejo, Kec. Arut Sel., Kabupaten Kotawaringin Barat",KALIMANTAN TENGAH,74112.0,Indonesia,85350128888.0,,,-2.6817584,111.6512721,https://maps.google.com/?cid=0x0:0xe1ad89cbe23d5713,
perumahan,Pembangunan Perumahan,PURWITO.P (kawitan I no.48),"Jl. Kawitan I No.48, Sidorejo, Kec. Arut Sel., Kabupaten Kotawaringin Barat, Kalimantan Tengah 74112","Sidorejo, Kec. Arut Sel., Kabupaten Kotawaringin Barat",KALIMANTAN TENGAH,74112.0,Indonesia,,,,-2.6858251,111.6348116,https://maps.google.com/?cid=0x0:0xecb827e2cfe331d8,
perumahan,Komplek perumahan,Kos yu,"Jl. Matnor Gg. Sejahtera No.rt.10, Baru, Kec. Arut Sel., Kabupaten Kotawaringin Barat, Kalimantan Tengah 74112","Baru, Kec. Arut Sel., Kabupaten Kotawaringin Barat",KALIMANTAN TENGAH,74112.0,Indonesia,,,,-2.6731699,111.6471316,https://maps.google.com/?cid=0x0:0xc17be2211ff00f7,
perumahan,Perumahan,7 bersaudara,"8JHW+3PR, Baru, Kec. Arut Sel., Kabupaten Kotawaringin Barat, Kalimantan Tengah 74112","Baru, Kec. Arut Sel., Kabupaten Kotawaringin Barat",KALIMANTAN TENGAH,74112.0,Indonesia,,,,-2.672254,111.6467581,https://maps.google.com/?cid=0x0:0x4c2b5e2805ab0283,
perumahan,perumahan,Kalimantan Tengah 74113,"Kabupaten Kotawaringin Barat, Kalimantan Tengah","Kabupaten Kotawaringin Barat, Kalimantan Tengah",KALIMANTAN TENGAH,,Indonesia,,,,-2.4702354,111.7137694,https://maps.google.com/?cid=0x0:0x6a2f96cf641bd2e0,
perumahan,Komplek perumahan,Kompos,"GM2Q+QF8, Medangsari, Kec. Arut Sel., Kabupaten Kotawaringin Barat, Kalimantan Tengah 74113","Medangsari, Kec. Arut Sel., Kabupaten Kotawaringin Barat",KALIMANTAN TENGAH,74113.0,Indonesia,,,,-2.4980859,111.6887018,https://maps.google.com/?cid=0x0:0xa82b337fcf9cf2ab,
perumahan,Komplek perumahan,Rumah UtiAkung,"9MVR+7PP, Natai Baru, Kec. Arut Sel., Kabupaten Kotawaringin Barat, Kalimantan Tengah","Kabupaten Kotawaringin Barat, Kalimantan Tengah",KALIMANTAN TENGAH,,Indonesia,,,,-2.6067956,111.6918339,https://maps.google.com/?cid=0x0:0xb384a5a8da0ce09d,
perumahan,Komplek perumahan,Perumahan Bumi Asih Permai SCC,"RT.17, Pasir Panjang, Kec. Arut Sel., Kabupaten Kotawaringin Barat, Kalimantan Tengah 74181","Pasir Panjang, Kec. Arut Sel., Kabupaten Kotawaringin Barat",KALIMANTAN TENGAH,74181.0,Indonesia,,,,-2.7414612,111.6287355,https://maps.google.com/?cid=0x0:0xd1942167007d1a61,
perumahan,Pembangunan Perumahan,Rumah depan kud,"FMXM+RHG, Medangsari, Kec. Arut Sel., Kabupaten Kotawaringin Barat, Kalimantan Tengah","Kabupaten Kotawaringin Barat, Kalimantan Tengah",KALIMANTAN TENGAH,,Indonesia,,,,-2.5004322,111.683962,https://maps.google.com/?cid=0x0:0xa4b8a8eed4334f33,
perumahan,Komplek perumahan,Rumah Wisnu,"8MP7+66J, Jl. Ahmad Yani Gg. Mihau, Baru, Kec. Arut Sel., Kabupaten Kotawaringin Barat, Kalimantan Tengah 74113","Jl. Ahmad Yani Gg. Mihau, Baru, Kec. Arut Sel., Kabupaten Kotawaringin Barat",KALIMANTAN TENGAH,74113.0,Indonesia,85248323732.0,,,-2.663926,111.6629171,https://maps.google.com/?cid=0x0:0x457f38d074709a74,
perumahan,Pembangunan Perumahan,yanto bayan,"Jl. Lada lima No.23, RT.6/RW.2, Sungai Melawen, Kec. Pangkalan Lada, Kabupaten Kotawaringin Barat, Kalimantan Tengah 74113","RT.6/RW.2, Sungai Melawen, Kec. Pangkalan Lada, Kabupaten Kotawaringin Barat",KALIMANTAN TENGAH,74113.0,Indonesia,,,,-2.5281419,111.7428067,https://maps.google.com/?cid=0x0:0xac3d3a289f77081a,
perumahan,Kantor Perusahaan,Perumahan PKS NATAI BARU PT KSA,"9MWW+592, Natai Baru, Kec. Arut Sel., Kabupaten Kotawaringin Barat, Kalimantan Tengah","Kabupaten Kotawaringin Barat, Kalimantan Tengah",KALIMANTAN TENGAH,,Indonesia,,,,-2.6046075,111.6958831,https://maps.google.com/?cid=0x0:0xae54d8f65b6ea997,
perumahan,perumahan,Pak nan,"9MWQ+C2M, Natai Baru, Kec. Arut Sel., Kabupaten Kotawaringin Barat, Kalimantan Tengah","Kabupaten Kotawaringin Barat, Kalimantan Tengah",KALIMANTAN TENGAH,,Indonesia,,,,-2.6039221,111.6875482,https://maps.google.com/?cid=0x0:0x2a7a6f199d1163cb,
perumahan,Otoritas Perumahan,Perumahan PT. Satya Kisma Usaha,"HPW2+86J, Runtu, Kec. Arut Sel., Kabupaten Kotawaringin Barat, Kalimantan Tengah 74113","Runtu, Kec. Arut Sel., Kabupaten Kotawaringin Barat",KALIMANTAN TENGAH,74113.0,Indonesia,,,,-2.4041698,111.7005193,https://maps.google.com/?cid=0x0:0xb84a45d29f7822aa,
perumahan,Komplek perumahan,slamet ariyanto ( kuncung),"Jalan cicak rowo No.RT.10, Kadipi Atas, Kec. Pangkalan Lada, Kabupaten Kotawaringin Barat, Kalimantan Tengah RW04","Kabupaten Kotawaringin Barat, Kalimantan Tengah",KALIMANTAN TENGAH,,Indonesia,,,,-2.5118962,111.7078073,https://maps.google.com/?cid=0x0:0xf7ca5b32611836f5,
perumahan,Komplek perumahan,Cah sobo,"HPV2+MJ, Runtu, Kec. Arut Sel., Kabupaten Kotawaringin Barat, Kalimantan Tengah","Kabupaten Kotawaringin Barat, Kalimantan Tengah",KALIMANTAN TENGAH,,Indonesia,,,,-2.405815,111.701537,https://maps.google.com/?cid=0x0:0xc1aab9724bf43d47,
perumahan,Komplek perumahan,Rumah Hernandang,"9PWC+RMX, Jl. Ahmad Yani, Purbasari, Kec. Pangkalan Lada, Kabupaten Kotawaringin Barat, Kalimantan Tengah 74113","Jl. Ahmad Yani, Purbasari, Kec. Pangkalan Lada, Kabupaten Kotawaringin Barat",KALIMANTAN TENGAH,74113.0,Indonesia,,,,-2.6028958,111.7217493,https://maps.google.com/?cid=0x0:0x16090e794bb3583a,
perumahan,Komplek perumahan,Rumah Pak Pangkat,"9MWQ+HCX, RT.06/RW.02, Natai Baru, Kec. Arut Sel., Kabupaten Kotawaringin Barat, Kalimantan Tengah","Kabupaten Kotawaringin Barat, Kalimantan Tengah",KALIMANTAN TENGAH,,Indonesia,,,,-2.6035121,111.688619,https://maps.google.com/?cid=0x0:0x9a45cadbd94cae94,
perumahan,perumahan,Rumah riko,"9MRG+F8Q, Natai Baru, Kec. Arut Sel., Kabupaten Kotawaringin Barat, Kalimantan Tengah 74113","Natai Baru, Kec. Arut Sel., Kabupaten Kotawaringin Barat",KALIMANTAN TENGAH,74113.0,Indonesia,,,,-2.6084393,111.6765638,https://maps.google.com/?cid=0x0:0xc1276a3f93d95d13,
perumahan,Perhimpunan Pengembang Perumahan,Rumah alby,"9PX9+6MC, Purbasari, Kec. Pangkalan Lada, Kabupaten Kotawaringin Barat, Kalimantan Tengah 74113","Purbasari, Kec. Pangkalan Lada, Kabupaten Kotawaringin Barat",KALIMANTAN TENGAH,74113.0,Indonesia,,,,-2.6019359,111.7191268,https://maps.google.com/?cid=0x0:0xa942b123e584ed44,
perumahan,Komplek perumahan,Sujargo Malikhatun,"GQHH+CMW, Pandu Senjaya, Kec. Pangkalan Lada, Kabupaten Kotawaringin Barat, Kalimantan Tengah 74184","Pandu Senjaya, Kec. Pangkalan Lada, Kabupaten Kotawaringin Barat",KALIMANTAN TENGAH,74184.0,Indonesia,,,,-2.4713898,111.7791895,https://maps.google.com/?cid=0x0:0x6540ff13e04e9489,
perumahan,Komplek perumahan,Perumahan Pinang Merah,"Dekat Pos Kamling, Perumahan Pinang Merah RT07, Pasir Panjang, Kec. Arut Sel., Kabupaten Kotawaringin Barat, Kalimantan Tengah 74112","Perumahan Pinang Merah RT07, Pasir Panjang, Kec. Arut Sel., Kabupaten Kotawaringin Barat",KALIMANTAN TENGAH,74112.0,Indonesia,,,,-2.732348,111.635462,https://maps.google.com/?cid=0x0:0x5a6cfa49206ac05c,
perumahan,Komplek perumahan,Rumah KAPINA,"FP8V+VPX, Sungai Melawen, Kec. Pangkalan Lada, Kabupaten Kotawaringin Barat, Kalimantan Tengah 74113","Sungai Melawen, Kec. Pangkalan Lada, Kabupaten Kotawaringin Barat",KALIMANTAN TENGAH,74113.0,Indonesia,,,,-2.5327644,111.7443647,https://maps.google.com/?cid=0x0:0xc10bc8edacf1ad79,
perumahan,Komplek perumahan,Perumahan Tatas 1,"8MW5+HGP, Jl. Gusti Achmad Yusuf, Baru, Kec. Arut Sel., Kabupaten Kotawaringin Barat, Kalimantan Tengah 74112","Jl. Gusti Achmad Yusuf, Baru, Kec. Arut Sel., Kabupaten Kotawaringin Barat",KALIMANTAN TENGAH,74112.0,Indonesia,,,,-2.6532955,111.658564,https://maps.google.com/?cid=0x0:0xb193b6e21046f4b4,
perumahan,Komplek perumahan,Rumah pesisir kalteng,"8MJ3+57R, Gg. Paus, Baru, Kec. Arut Sel., Kabupaten Kotawaringin Barat, Kalimantan Tengah 74112","Gg. Paus, Baru, Kec. Arut Sel., Kabupaten Kotawaringin Barat",KALIMANTAN TENGAH,74112.0,Indonesia,,,,-2.669505,111.6531515,https://maps.google.com/?cid=0x0:0x7218964ba58a689e,
perumahan,Pembangunan Perumahan,Rumah rima selpia,"8MW6+6H, Baru, Kec. Arut Sel., Kabupaten Kotawaringin Barat, Kalimantan Tengah","Kabupaten Kotawaringin Barat, Kalimantan Tengah",KALIMANTAN TENGAH,,Indonesia,,,,-2.6544658,111.6614605,https://maps.google.com/?cid=0x0:0xf46954600ebc156a,
perumahan,Komplek perumahan,Perumahan Bukit Marundau Residence,"Jl. Jenderal Sudirman, RT./RW/RW.28/VI, Sidorejo, Kec. Arut Sel., Kabupaten Kotawaringin Barat, Kalimantan Tengah 74112","RT./RW/RW.28/VI, Sidorejo, Kec. Arut Sel., Kabupaten Kotawaringin Barat",KALIMANTAN TENGAH,74112.0,Indonesia,53224425.0,,,-2.695718,111.6161273,https://maps.google.com/?cid=0x0:0x37e04e9859431bd,
perumahan,Pembangunan Perumahan,Perumahan Graha Mas,"Jl. Bhayangkara No.Desa, RT.25, Pasir Panjang, Kec. Arut Sel., Kabupaten Kotawaringin Barat, Kalimantan Tengah 74181","RT.25, Pasir Panjang, Kec. Arut Sel., Kabupaten Kotawaringin Barat",KALIMANTAN TENGAH,74181.0,Indonesia,85652233596.0,,,-2.7347793,111.6324542,https://maps.google.com/?cid=0x0:0x958b3869db6e4353,
perumahan,Kompleks Bangunan Perusahaan,Perum Guru SD SMP PT.GSIP-AMR,"JQ7X+27F, Umpang, Kec. Arut Sel., Kabupaten Kotawaringin Barat, Kalimantan Tengah 74184","Umpang, Kec. Arut Sel., Kabupaten Kotawaringin Barat",KALIMANTAN TENGAH,74184.0,Indonesia,,,,-2.3874324,111.7981563,https://maps.google.com/?cid=0x0:0xba3fa82257a594cf,
perumahan,Pembangunan Perumahan,Ali mukhson,"FPCV+3CW, RT.01/RW.01, Sungai Melawen, Kec. Pangkalan Lada, Kabupaten Kotawaringin Barat, Kalimantan Tengah 74113","RT.01/RW.01, Sungai Melawen, Kec. Pangkalan Lada, Kabupaten Kotawaringin Barat",KALIMANTAN TENGAH,74113.0,Indonesia,,,,-2.5297509,111.7435799,https://maps.google.com/?cid=0x0:0xa89f6889051a118c,
perumahan,Pembangunan Perumahan,mbk ul soleh,"9MWR+68X, Natai Baru, Kec. Arut Sel., Kabupaten Kotawaringin Barat, Kalimantan Tengah 74113","Natai Baru, Kec. Arut Sel., Kabupaten Kotawaringin Barat",KALIMANTAN TENGAH,74113.0,Indonesia,,,,-2.6043943,111.6908705,https://maps.google.com/?cid=0x0:0x6f3347ad3bbe0317,
perumahan,Perhimpunan Pengembang Perumahan,Sopiana peter,"9MWV+XC, Natai Baru, Kec. Arut Sel., Kabupaten Kotawaringin Barat, Kalimantan Tengah 74113","Natai Baru, Kec. Arut Sel., Kabupaten Kotawaringin Barat",KALIMANTAN TENGAH,74113.0,Indonesia,,,,-2.6025239,111.6935777,https://maps.google.com/?cid=0x0:0x896662f782e84ec4,
perumahan,Pembangunan Perumahan,Rumah petruk,"FPRF+MHG, Jl. Jenderal Ahmad Yani, Sungai Melawen, Kec. Pangkalan Lada, Kabupaten Kotawaringin Barat, Kalimantan Tengah 74113","Jl. Jenderal Ahmad Yani, Sungai Melawen, Kec. Pangkalan Lada, Kabupaten Kotawaringin Barat",KALIMANTAN TENGAH,74113.0,Indonesia,,,,-2.5083174,111.7239431,https://maps.google.com/?cid=0x0:0xa3632e1bdec8adc,
perumahan,perumahan,Kalimantan Tengah 74114,"Raja Seberang, Kec. Arut Sel., Kabupaten Kotawaringin Barat, Kalimantan Tengah","Kabupaten Kotawaringin Barat, Kalimantan Tengah",KALIMANTAN TENGAH,,Indonesia,,,,-2.6293906,111.6064513,https://maps.google.com/?cid=0x0:0x6a6c8f148d148d7b,
perumahan,Komplek perumahan,Perumahan Pinang Merah,"Dekat Pos Kamling, Perumahan Pinang Merah RT07, Pasir Panjang, Kec. Arut Sel., Kabupaten Kotawaringin Barat, Kalimantan Tengah 74112","Perumahan Pinang Merah RT07, Pasir Panjang, Kec. Arut Sel., Kabupaten Kotawaringin Barat",KALIMANTAN TENGAH,74112.0,Indonesia,,,,-2.732348,111.635462,https://maps.google.com/?cid=0x0:0x5a6cfa49206ac05c,
perumahan,Komplek perumahan,RUMAH HERLY,"Jl. GM. Arsad Gg.Baung No.II, Baru, Kec. Arut Sel., Kabupaten Kotawaringin Barat, Kalimantan Tengah 74112","Baru, Kec. Arut Sel., Kabupaten Kotawaringin Barat",KALIMANTAN TENGAH,74112.0,Indonesia,,,,-2.6709582,111.6398307,https://maps.google.com/?cid=0x0:0x85b2dc0307d6cb19,
perumahan,Pembangunan Perumahan,Fata,"8JW8+CH, Raja Seberang, Kec. Arut Sel., Kabupaten Kotawaringin Barat, Kalimantan Tengah","Kabupaten Kotawaringin Barat, Kalimantan Tengah",KALIMANTAN TENGAH,,Indonesia,,,,-2.653938,111.616408,https://maps.google.com/?cid=0x0:0x86c0c534b490e1c2,
perumahan,Komplek perumahan,Natalan nea,"8JHP+M3X, Baru, Kec. Arut Sel., Kabupaten Kotawaringin Barat, Kalimantan Tengah 74112","Baru, Kec. Arut Sel., Kabupaten Kotawaringin Barat",KALIMANTAN TENGAH,74112.0,Indonesia,,,,-2.6707622,111.6352358,https://maps.google.com/?cid=0x0:0xc66a040aa4465227,
perumahan,Komplek perumahan,Rumah fitri,"8JJQ+QX, Baru, Kec. Arut Sel., Kabupaten Kotawaringin Barat, Kalimantan Tengah 74112","Baru, Kec. Arut Sel., Kabupaten Kotawaringin Barat",KALIMANTAN TENGAH,74112.0,Indonesia,82157344210.0,,,-2.6682095,111.6399731,https://maps.google.com/?cid=0x0:0x2941da17281731dc,
perumahan,Komplek perumahan,Rumah nenenk aya,"8JFM+R87, Raja, Kec. Arut Sel., Kabupaten Kotawaringin Barat, Kalimantan Tengah 74112","Raja, Kec. Arut Sel., Kabupaten Kotawaringin Barat",KALIMANTAN TENGAH,74112.0,Indonesia,,,,-2.6750896,111.6335114,https://maps.google.com/?cid=0x0:0x988b223c7411b3d0,
perumahan,Pembangunan Perumahan,TERI SUSANTO BIN ZULKIFLI,"8JQ5+WGM, Raja Seberang, Kec. Arut Sel., Kabupaten Kotawaringin Barat, Kalimantan Tengah","Kabupaten Kotawaringin Barat, Kalimantan Tengah",KALIMANTAN TENGAH,,Indonesia,,,,-2.6601502,111.6087962,https://maps.google.com/?cid=0x0:0x1a550c8b603e295d,
perumahan,Perhimpunan Pengembang Perumahan,Home,"8JGP+MV8, Gg. Haruan, Baru, Kec. Arut Sel., Kabupaten Kotawaringin Barat, Kalimantan Tengah 74112","Gg. Haruan, Baru, Kec. Arut Sel., Kabupaten Kotawaringin Barat",KALIMANTAN TENGAH,74112.0,Indonesia,,,,-2.6733274,111.6371881,https://maps.google.com/?cid=0x0:0xe602346c0f8dd724,
perumahan,Komplek perumahan,Tanah kosong,"8JGQ+V59, Gg. Bakut, Baru, Kec. Arut Sel., Kabupaten Kotawaringin Barat, Kalimantan Tengah 74112","Gg. Bakut, Baru, Kec. Arut Sel., Kabupaten Kotawaringin Barat",KALIMANTAN TENGAH,74112.0,Indonesia,,,,-2.672705,111.637995,https://maps.google.com/?cid=0x0:0xb52b987333483d82,
perumahan,Komplek perumahan,Rumah mamak,"8JGP+HMH, Gg. Tempala 1, Baru, South Arut, West Kotawaringin Regency, Central Kalimantan 74112","Gg. Tempala 1, Baru, South Arut, West Kotawaringin Regency",KALIMANTAN TENGAH,74112.0,Indonesia,,,,-2.6734469,111.6362258,https://maps.google.com/?cid=0x0:0x8c74481a614a59c3,
perumahan,Komplek perumahan,Rumah Dahlianya Lukman,"Jl. Berunai No.62 RT/RW 06/02, Kab, Kec. Arut Sel., Kabupaten Kotawaringin Barat, Kalimantan Tengah 74113","Kab, Kec. Arut Sel., Kabupaten Kotawaringin Barat",KALIMANTAN TENGAH,74113.0,Indonesia,,,,-2.6694123,111.6399861,https://maps.google.com/?cid=0x0:0x2eee13e608929aae,
perumahan,Komplek perumahan,Barakan,"8JJQ+9MX, Jl. Berunai, Baru, Kec. Arut Sel., Kabupaten Kotawaringin Barat, Kalimantan Tengah 74112","Jl. Berunai, Baru, Kec. Arut Sel., Kabupaten Kotawaringin Barat",KALIMANTAN TENGAH,74112.0,Indonesia,,,,-2.6690098,111.6392429,https://maps.google.com/?cid=0x0:0x2e86dd35b7c97940,
perumahan,Komplek perumahan,Rumah tini apriani,"8JHR+GCJ, Jl. Padat Karya, Baru, Kec. Arut Sel., Kabupaten Kotawaringin Barat, Kalimantan Tengah 74112","Jl. Padat Karya, Baru, Kec. Arut Sel., Kabupaten Kotawaringin Barat",KALIMANTAN TENGAH,74112.0,Indonesia,,,,-2.6711687,111.6410021,https://maps.google.com/?cid=0x0:0x4c04d9ba688b0b9,
perumahan,Komplek perumahan,Vita,"8JPM+4J9, Raja Seberang, Kec. Arut Sel., Kabupaten Kotawaringin Barat, Kalimantan Tengah 74111","Raja Seberang, Kec. Arut Sel., Kabupaten Kotawaringin Barat",KALIMANTAN TENGAH,74111.0,Indonesia,,,,-2.6647171,111.6341208,https://maps.google.com/?cid=0x0:0xb58d0f372edae44f,
perumahan,Komplek perumahan,Rumah Aung osten,"8JGH+8HP, Raja Seberang, Kec. Arut Sel., Kabupaten Kotawaringin Barat, Kalimantan Tengah 74112","Raja Seberang, Kec. Arut Sel., Kabupaten Kotawaringin Barat",KALIMANTAN TENGAH,74112.0,Indonesia,,,,-2.6741682,111.6289401,https://maps.google.com/?cid=0x0:0xa9dab404715b6dcd,
perumahan,Perhimpunan Pengembang Perumahan,GG.haruan,"8JGP+JR8, Gg. Tempala 1, Baru, South Arut, West Kotawaringin Regency, Central Kalimantan 74112","Gg. Tempala 1, Baru, South Arut, West Kotawaringin Regency",KALIMANTAN TENGAH,74112.0,Indonesia,,,,-2.6734585,111.6370722,https://maps.google.com/?cid=0x0:0x98e9ee3ac6219d9e,
perumahan,Komplek perumahan,tempala 3,"8JGP+4P7, Baru, Kec. Arut Sel., Kabupaten Kotawaringin Barat, Kalimantan Tengah 74112","Baru, Kec. Arut Sel., Kabupaten Kotawaringin Barat",KALIMANTAN TENGAH,74112.0,Indonesia,,,,-2.6747049,111.6367877,https://maps.google.com/?cid=0x0:0xa7e25cae46ccb63c,
perumahan,Komplek perumahan,Suni jahari,"8JJP+2FC, Baru, Kec. Arut Sel., Kabupaten Kotawaringin Barat, Kalimantan Tengah","Kabupaten Kotawaringin Barat, Kalimantan Tengah",KALIMANTAN TENGAH,,Indonesia,,,,-2.6699337,111.6361372,https://maps.google.com/?cid=0x0:0x3214d8a9d8af627,
perumahan,Komplek perumahan,Les Piano Maykel,"Jl. Padat Karya, Baru, Kec. Arut Sel., Kabupaten Kotawaringin Barat, Kalimantan Tengah 74112","Baru, Kec. Arut Sel., Kabupaten Kotawaringin Barat",KALIMANTAN TENGAH,74112.0,Indonesia,,,,-2.671488,111.6411795,https://maps.google.com/?cid=0x0:0x25d4e1141f24281c,
perumahan,Pembangunan Perumahan,Perumahan Graha Mas,"Jl. Bhayangkara No.Desa, RT.25, Pasir Panjang, Kec. Arut Sel., Kabupaten Kotawaringin Barat, Kalimantan Tengah 74181","RT.25, Pasir Panjang, Kec. Arut Sel., Kabupaten Kotawaringin Barat",KALIMANTAN TENGAH,74181.0,Indonesia,85652233596.0,,,-2.7347793,111.6324542,https://maps.google.com/?cid=0x0:0x958b3869db6e4353,
perumahan,Kantor Pemerintah,Dinas Perumahan Rakyat dan Kawasan Pemukiman Kotawaringin Barat,"Jl. Hasanudin No.10, Sidorejo, Kec. Arut Sel., Kabupaten Kotawaringin Barat, Kalimantan Tengah 74112","Sidorejo, Kec. Arut Sel., Kabupaten Kotawaringin Barat",KALIMANTAN TENGAH,74112.0,Indonesia,53222418.0,,,-2.6838678,111.6297028,https://maps.google.com/?cid=0x0:0xcfc7aad8a43ec33b,
perumahan,Komplek perumahan,Perumahan Kemuning Harum,"7JPR+PXC, Jl. HM. Rafi'i, Madurejo, Kec. Arut Sel., Kabupaten Kotawaringin Barat, Kalimantan Tengah 74181","Jl. HM. Rafi'i, Madurejo, Kec. Arut Sel., Kabupaten Kotawaringin Barat",KALIMANTAN TENGAH,74181.0,Indonesia,,,,-2.713194,111.6423932,https://maps.google.com/?cid=0x0:0x44902834b623c97,
perumahan,Perumahan,Perumahan Griya Sampuraga Indah,"7JGP+HPG, Madurejo, Kec. Arut Sel., Kabupaten Kotawaringin Barat, Kalimantan Tengah 74181","Madurejo, Kec. Arut Sel., Kabupaten Kotawaringin Barat",KALIMANTAN TENGAH,74181.0,Indonesia,81352846271.0,,,-2.7235608,111.636817,https://maps.google.com/?cid=0x0:0xddae6712b732f591,
perumahan,perumahan,Kec. Arut Sel.,"Kabupaten Kotawaringin Barat, Kalimantan Tengah","Kabupaten Kotawaringin Barat, Kalimantan Tengah",KALIMANTAN TENGAH,,Indonesia,,,,-2.5458231,111.6183755,https://maps.google.com/?cid=0x0:0xb0a66a60f6071e18,
perumahan,Pembangunan Perumahan,Perumahan Citra Royal Village,"7M98+WJ8, Jl. Pabrik Jagung, Pasir Panjang, Kec. Arut Sel., Kabupaten Kotawaringin Barat, Kalimantan Tengah 74115","Jl. Pabrik Jagung, Pasir Panjang, Kec. Arut Sel., Kabupaten Kotawaringin Barat",KALIMANTAN TENGAH,74115.0,Indonesia,82255521444.0,,,-2.7302127,111.6665683,https://maps.google.com/?cid=0x0:0x813ab202771b6351,
perumahan,Pembangunan Perumahan,Perumahan Sabil,"8MH3+M96, Baru, Kec. Arut Sel., Kabupaten Kotawaringin Barat, Kalimantan Tengah 74112","Baru, Kec. Arut Sel., Kabupaten Kotawaringin Barat",KALIMANTAN TENGAH,74112.0,Indonesia,,,,-2.67084,111.6533934,https://maps.google.com/?cid=0x0:0xbebe6a6211d4e33a,
perumahan,Komplek perumahan,Rumah pesisir kalteng,"8MJ3+57R, Gg. Paus, Baru, Kec. Arut Sel., Kabupaten Kotawaringin Barat, Kalimantan Tengah 74112","Gg. Paus, Baru, Kec. Arut Sel., Kabupaten Kotawaringin Barat",KALIMANTAN TENGAH,74112.0,Indonesia,,,,-2.669505,111.6531515,https://maps.google.com/?cid=0x0:0x7218964ba58a689e,
perumahan,Komplek perumahan,Rumah Putri,"Gg. Manggis No.50, Raja, Kec. Arut Sel., Kabupaten Kotawaringin Barat, Kalimantan Tengah 74112","Raja, Kec. Arut Sel., Kabupaten Kotawaringin Barat",KALIMANTAN TENGAH,74112.0,Indonesia,,,,-2.6779397,111.6330983,https://maps.google.com/?cid=0x0:0xb3b082b5087b8b15,
perumahan,Komplek perumahan,Rumah ZhaZey,"8J4C+CH6, Sidorejo, Kec. Arut Sel., Kabupaten Kotawaringin Barat, Kalimantan Tengah 74112","Sidorejo, Kec. Arut Sel., Kabupaten Kotawaringin Barat",KALIMANTAN TENGAH,74112.0,Indonesia,,,,-2.6940404,111.6210998,https://maps.google.com/?cid=0x0:0xc6b16b4084555e07,
perumahan,Komplek perumahan,Perumahan Pinang Merah,"Dekat Pos Kamling, Perumahan Pinang Merah RT07, Pasir Panjang, Kec. Arut Sel., Kabupaten Kotawaringin Barat, Kalimantan Tengah 74112","Perumahan Pinang Merah RT07, Pasir Panjang, Kec. Arut Sel., Kabupaten Kotawaringin Barat",KALIMANTAN TENGAH,74112.0,Indonesia,,,,-2.732348,111.635462,https://maps.google.com/?cid=0x0:0x5a6cfa49206ac05c,
perumahan,Pembangunan Perumahan,Perumahan Pemuda Regency,"7JWQ+7PM, Jl. Pemuda, Madurejo, Kec. Arut Sel., Kabupaten Kotawaringin Barat, Kalimantan Tengah 74181","Jl. Pemuda, Madurejo, Kec. Arut Sel., Kabupaten Kotawaringin Barat",KALIMANTAN TENGAH,74181.0,Indonesia,,,,-2.704294,111.6393024,https://maps.google.com/?cid=0x0:0x421780f18283d634,
perumahan,Pembangunan Perumahan,Perumahan Sido Mukti,"8J4H+6H7, Sidorejo, Kec. Arut Sel., Kabupaten Kotawaringin Barat, Kalimantan Tengah 74112","Sidorejo, Kec. Arut Sel., Kabupaten Kotawaringin Barat",KALIMANTAN TENGAH,74112.0,Indonesia,,,,-2.6944274,111.6289257,https://maps.google.com/?cid=0x0:0xe75ce446ba6f11be,
perumahan,Komplek perumahan,rumah alsa,"8MQG+37W, Baru, Kec. Arut Sel., Kabupaten Kotawaringin Barat, Kalimantan Tengah","Kabupaten Kotawaringin Barat, Kalimantan Tengah",KALIMANTAN TENGAH,,Indonesia,,,,-2.6622635,111.6757117,https://maps.google.com/?cid=0x0:0x61bc21b54d9a2f5,
perumahan,Kompleks Townhouse,Perumahan Angsana Permai,"Gang Asam Bubuk No.1, Sidorejo, South Arut, West Kotawaringin Regency, Central Kalimantan 74112","Sidorejo, South Arut, West Kotawaringin Regency",KALIMANTAN TENGAH,74112.0,Indonesia,,,,-2.6799045,111.64075,https://maps.google.com/?cid=0x0:0xfc4c933ec16dd2b,
perumahan,Komplek perumahan,Rumah,"8MJ4+5G9, Baru, Kec. Arut Sel., Kabupaten Kotawaringin Barat, Kalimantan Tengah","Kabupaten Kotawaringin Barat, Kalimantan Tengah",KALIMANTAN TENGAH,,Indonesia,,,,-2.6695968,111.6563499,https://maps.google.com/?cid=0x0:0x9b5dafcca76ce934,
perumahan,Komplek perumahan,Rumah Syahruni Fams,"8JCF+8R5, Mendawai, Kec. Arut Sel., Kabupaten Kotawaringin Barat, Kalimantan Tengah 74112","Mendawai, Kec. Arut Sel., Kabupaten Kotawaringin Barat",KALIMANTAN TENGAH,74112.0,Indonesia,,,,-2.679272,111.6244063,https://maps.google.com/?cid=0x0:0xc9c59d12baed26da,
perumahan,Komplek perumahan,TNYASR,"9H79+4JR, Mendawai Seberang, Kec. Arut Sel., Kabupaten Kotawaringin Barat, Kalimantan Tengah","Kabupaten Kotawaringin Barat, Kalimantan Tengah",KALIMANTAN TENGAH,,Indonesia,,,,-2.6371442,111.5690054,https://maps.google.com/?cid=0x0:0x1f23f5f7c3826b75,
perumahan,Komplek perumahan,Perumahan Bumi Palapa Indah,"Pasir Panjang, Kec. Arut Sel., Kabupaten Kotawaringin Barat, Kalimantan Tengah 74181","Kec. Arut Sel., Kabupaten Kotawaringin Barat",KALIMANTAN TENGAH,74181.0,Indonesia,,,,-2.7110324,111.6508328,https://maps.google.com/?cid=0x0:0xf0b6ab66fe39165e,
perumahan,Komplek perumahan,RUMAH HERLY,"Jl. GM. Arsad Gg.Baung No.II, Baru, Kec. Arut Sel., Kabupaten Kotawaringin Barat, Kalimantan Tengah 74112","Baru, Kec. Arut Sel., Kabupaten Kotawaringin Barat",KALIMANTAN TENGAH,74112.0,Indonesia,,,,-2.6709582,111.6398307,https://maps.google.com/?cid=0x0:0x85b2dc0307d6cb19,
perumahan,Komplek perumahan,Rumah Gandes,"8MHQ+GCH, Baru, Kec. Arut Sel., Kabupaten Kotawaringin Barat, Kalimantan Tengah 74117","Baru, Kec. Arut Sel., Kabupaten Kotawaringin Barat",KALIMANTAN TENGAH,74117.0,Indonesia,,,,-2.6711869,111.6885966,https://maps.google.com/?cid=0x0:0xd4706e6db5018288,
perumahan,Komplek perumahan,Rumah Wiwa Tota Nata,"Jl. Pasanah Gg. Rusa No.2, Sidorejo, Kec. Arut Sel., Kabupaten Kotawaringin Barat, Kalimantan Tengah 74112","Sidorejo, Kec. Arut Sel., Kabupaten Kotawaringin Barat",KALIMANTAN TENGAH,74112.0,Indonesia,,,,-2.6819934,111.6520422,https://maps.google.com/?cid=0x0:0x7cee8e5582add4a7,
perumahan,Komplek perumahan,Rumah Amu,"8MPC+625, Baru, Kec. Arut Sel., Kabupaten Kotawaringin Barat, Kalimantan Tengah 74112","Baru, Kec. Arut Sel., Kabupaten Kotawaringin Barat",KALIMANTAN TENGAH,74112.0,Indonesia,,,,-2.6644834,111.6700984,https://maps.google.com/?cid=0x0:0x8f5169db3727b79a,
perumahan,Pembangunan Perumahan,Rumah rima selpia,"8MW6+6H, Baru, Kec. Arut Sel., Kabupaten Kotawaringin Barat, Kalimantan Tengah","Kabupaten Kotawaringin Barat, Kalimantan Tengah",KALIMANTAN TENGAH,,Indonesia,,,,-2.6544658,111.6614605,https://maps.google.com/?cid=0x0:0xf46954600ebc156a,
perumahan,Komplek perumahan,Perumahan Akasia Permai,"7JGV+F7W, Jl. Pramuka, Pasir Panjang, Kec. Arut Sel., Kabupaten Kotawaringin Barat, Kalimantan Tengah 74181","Jl. Pramuka, Pasir Panjang, Kec. Arut Sel., Kabupaten Kotawaringin Barat",KALIMANTAN TENGAH,74181.0,Indonesia,,,,-2.7237615,111.6431983,https://maps.google.com/?cid=0x0:0x7c34895c171c8f1b,
perumahan,Komplek perumahan,Perumahan Istiqomah,"Jl. Tani Makmur Gg. Istiqomah No.6, RT.27/RW.03, Madurejo, Kec. Arut Sel., Kabupaten Kotawaringin Barat, Kalimantan Tengah 74112","RT.27/RW.03, Madurejo, Kec. Arut Sel., Kabupaten Kotawaringin Barat",KALIMANTAN TENGAH,74112.0,Indonesia,,,,-2.7068821,111.6216421,https://maps.google.com/?cid=0x0:0x628bf046ad75ca62,
perumahan,Pembangunan Perumahan,Perumahan Graha Mas,"Jl. Bhayangkara No.Desa, RT.25, Pasir Panjang, Kec. Arut Sel., Kabupaten Kotawaringin Barat, Kalimantan Tengah 74181","RT.25, Pasir Panjang, Kec. Arut Sel., Kabupaten Kotawaringin Barat",KALIMANTAN TENGAH,74181.0,Indonesia,85652233596.0,,,-2.7347793,111.6324542,https://maps.google.com/?cid=0x0:0x958b3869db6e4353,
perumahan,Komplek perumahan,Perumahan Bintang Sembilan,"7J6G+RGP, Pasir Panjang, Kec. Arut Sel., Kabupaten Kotawaringin Barat, Kalimantan Tengah 74181","Pasir Panjang, Kec. Arut Sel., Kabupaten Kotawaringin Barat",KALIMANTAN TENGAH,74181.0,Indonesia,82251094884.0,,,-2.737922,111.6263187,https://maps.google.com/?cid=0x0:0x88fcc0a2fa991263,
perumahan,Pembangunan Perumahan,Perumahan Al-Fath Regency,"8J2X+232, Jl. Pancasila, Madurejo, Kec. Arut Sel., Kabupaten Kotawaringin Barat, Kalimantan Tengah 74181","Jl. Pancasila, Madurejo, Kec. Arut Sel., Kabupaten Kotawaringin Barat",KALIMANTAN TENGAH,74181.0,Indonesia,,,,-2.6999814,111.6476508,https://maps.google.com/?cid=0x0:0x5cf474c2403cd973,
perumahan,Pembangunan Perumahan,Sungai tatas,"9M66+JQF, Jl. Pangkalan Bungur, Baru, Kec. Arut Sel., Kabupaten Kotawaringin Barat, Kalimantan Tengah 74112","Jl. Pangkalan Bungur, Baru, Kec. Arut Sel., Kabupaten Kotawaringin Barat",KALIMANTAN TENGAH,74112.0,Indonesia,,,,-2.638443,111.6619243,https://maps.google.com/?cid=0x0:0x521358f1e7847eb2,
perumahan,Pembangunan Perumahan,Perumahan Mutiara 2,"8MV4+PM7, Baru, Kec. Arut Sel., Kabupaten Kotawaringin Barat, Kalimantan Tengah 74112","Baru, Kec. Arut Sel., Kabupaten Kotawaringin Barat",KALIMANTAN TENGAH,74112.0,Indonesia,,,,-2.6557079,111.6566742,https://maps.google.com/?cid=0x0:0xe7157a13acf1d042,
perumahan,Komplek perumahan,Griya Tatas 8,"8MR3+C6G, Jl. Ahmad Yani No.KM 3, RW.5, Baru, Kec. Arut Sel., Kabupaten Kotawaringin Barat, Kalimantan Tengah 74112","Jl. Ahmad Yani No.KM 3, RW.5, Baru, Kec. Arut Sel., Kabupaten Kotawaringin Barat",KALIMANTAN TENGAH,74112.0,Indonesia,,,,-2.6598233,111.6550666,https://maps.google.com/?cid=0x0:0xf2b2a7f2fa6f5de6,
perumahan,Komplek perumahan,Perumahan Sei Bengaris Residence,"Baru, Kec. Arut Sel., Kabupaten Kotawaringin Barat, Kalimantan Tengah 74117","Kec. Arut Sel., Kabupaten Kotawaringin Barat",KALIMANTAN TENGAH,74117.0,Indonesia,81258998506.0,,,-2.6664449,111.6944609,https://maps.google.com/?cid=0x0:0x41d00ec3045a5fbb,
perumahan,perumahan,Kalimantan Tengah 74116,"Kec. Arut Sel., Kabupaten Kotawaringin Barat, Kalimantan Tengah","Kabupaten Kotawaringin Barat, Kalimantan Tengah",KALIMANTAN TENGAH,,Indonesia,,,,-2.4168826,111.5945271,https://maps.google.com/?cid=0x0:0x9678e52ec657f14e,
perumahan,Kantor Perusahaan,perumahan pks SULUNG,"MJX7+XJW, Kenambui, Kec. Arut Sel., Kabupaten Kotawaringin Barat, Kalimantan Tengah 74116","Kenambui, Kec. Arut Sel., Kabupaten Kotawaringin Barat",KALIMANTAN TENGAH,74116.0,Indonesia,,,,-2.3000009,111.614067,https://maps.google.com/?cid=0x0:0xc5aded0b857135cd,
perumahan,Komplek perumahan,Perumahan G6 RnD,"PJ27+7CX, Kenambui, Kec. Arut Sel., Kabupaten Kotawaringin Barat, Kalimantan Tengah","Kabupaten Kotawaringin Barat, Kalimantan Tengah",KALIMANTAN TENGAH,,Indonesia,,,,-2.299257,111.6136162,https://maps.google.com/?cid=0x0:0xd5d0d6cff43b6665,
perumahan,Komplek perumahan,TNYASR,"9H79+4JR, Mendawai Seberang, Kec. Arut Sel., Kabupaten Kotawaringin Barat, Kalimantan Tengah","Kabupaten Kotawaringin Barat, Kalimantan Tengah",KALIMANTAN TENGAH,,Indonesia,,,,-2.6371442,111.5690054,https://maps.google.com/?cid=0x0:0x1f23f5f7c3826b75,
perumahan,Komplek perumahan,Rumah UtiAkung,"9MVR+7PP, Natai Baru, Kec. Arut Sel., Kabupaten Kotawaringin Barat, Kalimantan Tengah","Kabupaten Kotawaringin Barat, Kalimantan Tengah",KALIMANTAN TENGAH,,Indonesia,,,,-2.6067956,111.6918339,https://maps.google.com/?cid=0x0:0xb384a5a8da0ce09d,
perumahan,Komplek perumahan,Perumahan Pinang Merah,"Dekat Pos Kamling, Perumahan Pinang Merah RT07, Pasir Panjang, Kec. Arut Sel., Kabupaten Kotawaringin Barat, Kalimantan Tengah 74112","Perumahan Pinang Merah RT07, Pasir Panjang, Kec. Arut Sel., Kabupaten Kotawaringin Barat",KALIMANTAN TENGAH,74112.0,Indonesia,,,,-2.732348,111.635462,https://maps.google.com/?cid=0x0:0x5a6cfa49206ac05c,
perumahan,Komplek perumahan,Rumah Kaynarra,"FJ39+M9C, Raja Seberang, Kec. Arut Sel., Kabupaten Kotawaringin Barat, Kalimantan Tengah 74116","Raja Seberang, Kec. Arut Sel., Kabupaten Kotawaringin Barat",KALIMANTAN TENGAH,74116.0,Indonesia,,,,-2.5458231,111.6183755,https://maps.google.com/?cid=0x0:0x327edeee6b3bf8c4,
perumahan,Otoritas Perumahan,Perumahan PT. Satya Kisma Usaha,"HPW2+86J, Runtu, Kec. Arut Sel., Kabupaten Kotawaringin Barat, Kalimantan Tengah 74113","Runtu, Kec. Arut Sel., Kabupaten Kotawaringin Barat",KALIMANTAN TENGAH,74113.0,Indonesia,,,,-2.4041698,111.7005193,https://maps.google.com/?cid=0x0:0xb84a45d29f7822aa,
perumahan,Perhimpunan Pengembang Perumahan,Kampung sarap,"GMH3+67C, Medangsari, Kec. Arut Sel., Kabupaten Kotawaringin Barat, Kalimantan Tengah 74116","Medangsari, Kec. Arut Sel., Kabupaten Kotawaringin Barat",KALIMANTAN TENGAH,74116.0,Indonesia,,,,-2.4719343,111.6531316,https://maps.google.com/?cid=0x0:0x4af8fb5a8b99b25e,
perumahan,Komplek perumahan,Afdeling C Pulau Estate,"JJP3+8G, Sulung, Kec. Arut Sel., Kabupaten Kotawaringin Barat, Kalimantan Tengah","Kabupaten Kotawaringin Barat, Kalimantan Tengah",KALIMANTAN TENGAH,,Indonesia,,,,-2.3642321,111.6038327,https://maps.google.com/?cid=0x0:0xfb73a5daf7d044cd,
perumahan,Komplek perumahan,Rian d'florestha,"MQ5G+W8M, Umpang, Kec. Arut Sel., Kabupaten Kotawaringin Barat, Kalimantan Tengah 74116","Umpang, Kec. Arut Sel., Kabupaten Kotawaringin Barat",KALIMANTAN TENGAH,74116.0,Indonesia,,,,-2.340127,111.77562,https://maps.google.com/?cid=0x0:0x365374f77dc51530,
perumahan,Komplek perumahan,Perum G6-E Sulung Research Station,"PJ27+7CX, Kenambui, Kec. Arut Sel., Kabupaten Kotawaringin Barat, Kalimantan Tengah","Kabupaten Kotawaringin Barat, Kalimantan Tengah",KALIMANTAN TENGAH,,Indonesia,,,,-2.2993272,111.6129831,https://maps.google.com/?cid=0x0:0x85a1032c6b517797,
perumahan,Komplek perumahan,Tempat apelan bravo amr,"MQ5G+XG2, Umpang, Kec. Arut Sel., Kabupaten Kotawaringin Barat, Kalimantan Tengah 74116","Umpang, Kec. Arut Sel., Kabupaten Kotawaringin Barat",KALIMANTAN TENGAH,74116.0,Indonesia,,,,-2.3395286,111.776771,https://maps.google.com/?cid=0x0:0xce2dd6974f6b4169,
perumahan,Perumahan,ALFA SLE,"PJV6+VV2, Sulung, Kec. Arut Sel., Kabupaten Kotawaringin Barat, Kalimantan Tengah","Kabupaten Kotawaringin Barat, Kalimantan Tengah",KALIMANTAN TENGAH,,Indonesia,,,,-2.2553713,111.6121516,https://maps.google.com/?cid=0x0:0x7c6ccd1f37f246f8,
perumahan,Otoritas Perumahan,"Afdeling Hotel,Kondang Estate,PT.SSS(CBI)","JGMX+WPG, Unnamed Road, Rangda, Kec. Arut Sel., Kabupaten Kotawaringin Barat, Kalimantan Tengah 74161","Unnamed Road, Rangda, Kec. Arut Sel., Kabupaten Kotawaringin Barat",KALIMANTAN TENGAH,74161.0,Indonesia,,,,-2.3651762,111.5493236,https://maps.google.com/?cid=0x0:0x36ac35bb0557cbb1,
perumahan,Kantor Perusahaan,Perumahan PKS NATAI BARU PT KSA,"9MWW+592, Natai Baru, Kec. Arut Sel., Kabupaten Kotawaringin Barat, Kalimantan Tengah","Kabupaten Kotawaringin Barat, Kalimantan Tengah",KALIMANTAN TENGAH,,Indonesia,,,,-2.6046075,111.6958831,https://maps.google.com/?cid=0x0:0xae54d8f65b6ea997,
perumahan,Komplek perumahan,Peron mandiri sejati,"PM7M+MJ4, Runtu, Kec. Arut Sel., Kabupaten Kotawaringin Barat, Kalimantan Tengah 74116","Runtu, Kec. Arut Sel., Kabupaten Kotawaringin Barat",KALIMANTAN TENGAH,74116.0,Indonesia,,,,-2.2858512,111.6840767,https://maps.google.com/?cid=0x0:0x4655ee7dee00482f,
perumahan,Komplek perumahan,Cah sobo,"HPV2+MJ, Runtu, Kec. Arut Sel., Kabupaten Kotawaringin Barat, Kalimantan Tengah","Kabupaten Kotawaringin Barat, Kalimantan Tengah",KALIMANTAN TENGAH,,Indonesia,,,,-2.405815,111.701537,https://maps.google.com/?cid=0x0:0xc1aab9724bf43d47,
perumahan,Pembangunan Perumahan,Rumah Ibu Sia Emina AT,"FJ39+M9C, Raja Seberang, Kec. Arut Sel., Kabupaten Kotawaringin Barat, Kalimantan Tengah","Kabupaten Kotawaringin Barat, Kalimantan Tengah",KALIMANTAN TENGAH,,Indonesia,,,,-2.5458231,111.6183755,https://maps.google.com/?cid=0x0:0x8f7acb131dbbcc3d,
perumahan,Kantor Perusahaan,Afdeling Carli sulung,"PJFP+392, Runtu, Kec. Arut Sel., Kabupaten Kotawaringin Barat, Kalimantan Tengah 74116","Runtu, Kec. Arut Sel., Kabupaten Kotawaringin Barat",KALIMANTAN TENGAH,74116.0,Indonesia,,,,-2.2774083,111.6358879,https://maps.google.com/?cid=0x0:0xeb523497d80960ee,
perumahan,Komplek perumahan,Perumahan Bukit Marundau Residence,"Jl. Jenderal Sudirman, RT./RW/RW.28/VI, Sidorejo, Kec. Arut Sel., Kabupaten Kotawaringin Barat, Kalimantan Tengah 74112","RT./RW/RW.28/VI, Sidorejo, Kec. Arut Sel., Kabupaten Kotawaringin Barat",KALIMANTAN TENGAH,74112.0,Indonesia,53224425.0,,,-2.695718,111.6161273,https://maps.google.com/?cid=0x0:0x37e04e9859431bd,
perumahan,Kantor Perusahaan,Mess Karyawan BPR Lingga,"MJX7+XJW, Kenambui, Kec. Arut Sel., Kabupaten Kotawaringin Barat, Kalimantan Tengah 74116","Kenambui, Kec. Arut Sel., Kabupaten Kotawaringin Barat",KALIMANTAN TENGAH,74116.0,Indonesia,,,,-2.2996877,111.6141733,https://maps.google.com/?cid=0x0:0xc6963702ecd1be13,
perumahan,Komplek perumahan,Perumahan Bumi Asih Permai SCC,"RT.17, Pasir Panjang, Kec. Arut Sel., Kabupaten Kotawaringin Barat, Kalimantan Tengah 74181","Pasir Panjang, Kec. Arut Sel., Kabupaten Kotawaringin Barat",KALIMANTAN TENGAH,74181.0,Indonesia,,,,-2.7414612,111.6287355,https://maps.google.com/?cid=0x0:0xd1942167007d1a61,
perumahan,Otoritas Perumahan,Perumahan Citra Nirwana,"Jl. Patongahan No.RT 26, Pasir Panjang, Kec. Arut Sel., Kabupaten Kotawaringin Barat, Kalimantan Tengah 74181","Pasir Panjang, Kec. Arut Sel., Kabupaten Kotawaringin Barat",KALIMANTAN TENGAH,74181.0,Indonesia,,,,-2.7407833,111.6064513,https://maps.google.com/?cid=0x0:0xf299a6fa35c70ccf,
perumahan,Pembangunan Perumahan,My home adhi,"jln trans sisipan No.RT.01, Runtu, Kec. Arut Sel., Kabupaten Kotawaringin Barat, Kalimantan Tengah","Kabupaten Kotawaringin Barat, Kalimantan Tengah",KALIMANTAN TENGAH,,Indonesia,,,,-2.3776368,111.7376178,https://maps.google.com/?cid=0x0:0xdabccf471c0fc500,
perumahan,perumahan,Kalimantan Tengah 74117,"Kabupaten Kotawaringin Barat, Kalimantan Tengah","Kabupaten Kotawaringin Barat, Kalimantan Tengah",KALIMANTAN TENGAH,,Indonesia,,,,-2.1758811,111.7137694,https://maps.google.com/?cid=0x0:0x393f051e7c492659,
perumahan,Pembangunan Perumahan,Perumahan griya bumi permai,"8MJQ+4Q3, Baru, Kec. Arut Sel., Kabupaten Kotawaringin Barat, Kalimantan Tengah 74117","Baru, Kec. Arut Sel., Kabupaten Kotawaringin Barat",KALIMANTAN TENGAH,74117.0,Indonesia,,,,-2.6697475,111.689419,https://maps.google.com/?cid=0x0:0x797cb31c0e821db4,
perumahan,Kantor Perusahaan,perumahan pks SULUNG,"MJX7+XJW, Kenambui, Kec. Arut Sel., Kabupaten Kotawaringin Barat, Kalimantan Tengah 74116","Kenambui, Kec. Arut Sel., Kabupaten Kotawaringin Barat",KALIMANTAN TENGAH,74116.0,Indonesia,,,,-2.3000009,111.614067,https://maps.google.com/?cid=0x0:0xc5aded0b857135cd,
perumahan,Pembangunan Perumahan,Perumahan Tectona Hill,"Jalan Petongahan Pinang Merah No.RT 026, Pasir Panjang, Kec. Arut Sel., Kabupaten Kotawaringin Barat, Kalimantan Tengah 74117","Pasir Panjang, Kec. Arut Sel., Kabupaten Kotawaringin Barat",KALIMANTAN TENGAH,74117.0,Indonesia,,,,-2.7350235,111.6277178,https://maps.google.com/?cid=0x0:0xd0890a6728cb1c00,
perumahan,Komplek perumahan,Rumah Gandes,"8MHQ+GCH, Baru, Kec. Arut Sel., Kabupaten Kotawaringin Barat, Kalimantan Tengah 74117","Baru, Kec. Arut Sel., Kabupaten Kotawaringin Barat",KALIMANTAN TENGAH,74117.0,Indonesia,,,,-2.6711869,111.6885966,https://maps.google.com/?cid=0x0:0xd4706e6db5018288,
perumahan,Komplek perumahan,RUMAH FAJAR,"Jalan Malijo gg, Jl. LKMD 1 Gg. Turi No.4, Madurejo, Kec. Arut Sel., Kabupaten Kotawaringin Barat, Kalimantan Tengah 74117","Jl. LKMD 1 Gg. Turi No.4, Madurejo, Kec. Arut Sel., Kabupaten Kotawaringin Barat",KALIMANTAN TENGAH,74117.0,Indonesia,,,,-2.6953785,111.6408042,https://maps.google.com/?cid=0x0:0x626534f15659592b,
perumahan,Komplek perumahan,Perumahan G6 RnD,"PJ27+7CX, Kenambui, Kec. Arut Sel., Kabupaten Kotawaringin Barat, Kalimantan Tengah","Kabupaten Kotawaringin Barat, Kalimantan Tengah",KALIMANTAN TENGAH,,Indonesia,,,,-2.299257,111.6136162,https://maps.google.com/?cid=0x0:0xd5d0d6cff43b6665,
perumahan,Pembangunan Perumahan,Perumahan CBI,"8J2P+WRH, Jl. Delima, Madurejo, Kec. Arut Sel., Kabupaten Kotawaringin Barat, Kalimantan Tengah 74117","Jl. Delima, Madurejo, Kec. Arut Sel., Kabupaten Kotawaringin Barat",KALIMANTAN TENGAH,74117.0,Indonesia,,,,-2.6972369,111.6373333,https://maps.google.com/?cid=0x0:0x17a83861aac3a536,
perumahan,Komplek perumahan,Rumah Riris,"8PP6+4RC, Natai Raya, Kec. Arut Sel., Kabupaten Kotawaringin Barat, Kalimantan Tengah 74117","Natai Raya, Kec. Arut Sel., Kabupaten Kotawaringin Barat",KALIMANTAN TENGAH,74117.0,Indonesia,,,,-2.665182,111.712164,https://maps.google.com/?cid=0x0:0xddaa017593a7e1ed,
perumahan,Pembangunan Perumahan,ArayanOlshop,"QR7Q+2W4, Unnamed Road, Nanga Mua, Kec. Arut Utara, Kabupaten Kotawaringin Barat, Kalimantan Tengah 74117","Unnamed Road, Nanga Mua, Kec. Arut Utara, Kabupaten Kotawaringin Barat",KALIMANTAN TENGAH,74117.0,Indonesia,,,,-2.2374875,111.8398196,https://maps.google.com/?cid=0x0:0x30875d195558ed89,
perumahan,Komplek perumahan,Lintang Faza M /(pak Sartowi),"JL Blangiran No.221, RT.009/RW.003, Bukit Harum, Kec. Menthobi Raya, Kabupaten Lamandau, Kalimantan Tengah 74117","RT.009/RW.003, Bukit Harum, Kec. Menthobi Raya, Kabupaten Lamandau",KALIMANTAN TENGAH,74117.0,Indonesia,82157271057.0,,,-2.1314084,111.6472553,https://maps.google.com/?cid=0x0:0x902652589102f321,
perumahan,Komplek perumahan,Rumah Arvi,"8MHQ+8QR, Baru, Kec. Arut Sel., Kabupaten Kotawaringin Barat, Kalimantan Tengah 74117","Baru, Kec. Arut Sel., Kabupaten Kotawaringin Barat",KALIMANTAN TENGAH,74117.0,Indonesia,,,,-2.6715987,111.6894202,https://maps.google.com/?cid=0x0:0x7483e06f9adf8049,
perumahan,Komplek perumahan,AFD FANTA SUAYAP,"PPCC+8MC, Runtu, Kec. Arut Sel., Kabupaten Kotawaringin Barat, Kalimantan Tengah","Kabupaten Kotawaringin Barat, Kalimantan Tengah",KALIMANTAN TENGAH,,Indonesia,,,,-2.2791912,111.721626,https://maps.google.com/?cid=0x0:0x1bc830f9ace47906,
perumahan,Komplek perumahan,Rumah Rafa,"8MHQ+F3H, Baru, Kec. Arut Sel., Kabupaten Kotawaringin Barat, Kalimantan Tengah 74117","Baru, Kec. Arut Sel., Kabupaten Kotawaringin Barat",KALIMANTAN TENGAH,74117.0,Indonesia,,,,-2.6713072,111.6877218,https://maps.google.com/?cid=0x0:0x3bead0d9884c2edf,
perumahan,Kantor Perusahaan,"Pt. Mitra Mendawai Sejati-Afdeling Bravo, Suayap Estate","PPRC+276, Umpang, Kec. Arut Sel., Kabupaten Kotawaringin Barat, Kalimantan Tengah 74117","Umpang, Kec. Arut Sel., Kabupaten Kotawaringin Barat",KALIMANTAN TENGAH,74117.0,Indonesia,85828260525.0,,,-2.2599625,111.7206406,https://maps.google.com/?cid=0x0:0x8bbc980deac9c496,
perumahan,Perumahan,ALFA SLE,"PJV6+VV2, Sulung, Kec. Arut Sel., Kabupaten Kotawaringin Barat, Kalimantan Tengah","Kabupaten Kotawaringin Barat, Kalimantan Tengah",KALIMANTAN TENGAH,,Indonesia,,,,-2.2553713,111.6121516,https://maps.google.com/?cid=0x0:0x7c6ccd1f37f246f8,
perumahan,Komplek perumahan,Rumah mama akli,"8PV2+84P, Jl. Ahmad Yani, Baru, Kec. Arut Sel., Kabupaten Kotawaringin Barat, Kalimantan Tengah 74117","Jl. Ahmad Yani, Baru, Kec. Arut Sel., Kabupaten Kotawaringin Barat",KALIMANTAN TENGAH,74117.0,Indonesia,,,,-2.6567692,111.7003058,https://maps.google.com/?cid=0x0:0x6c81fa4a40eb9b3e,
perumahan,Pembangunan Perumahan,Emp.Afd.OADI,"PR47+RV7, Umpang, Kec. Arut Sel., Kabupaten Kotawaringin Barat, Kalimantan Tengah 74184","Umpang, Kec. Arut Sel., Kabupaten Kotawaringin Barat",KALIMANTAN TENGAH,74184.0,Indonesia,,,,-2.2929726,111.8146718,https://maps.google.com/?cid=0x0:0x81f215252cd0150c,
perumahan,Komplek perumahan,Rumah Dinas Balai TNTP,"8J3V+FQV, Madurejo, Kec. Arut Sel., Kabupaten Kotawaringin Barat, Kalimantan Tengah 74117","Madurejo, Kec. Arut Sel., Kabupaten Kotawaringin Barat",KALIMANTAN TENGAH,74117.0,Indonesia,,,,-2.6962346,111.6443548,https://maps.google.com/?cid=0x0:0xf2560fbf019e174c,
perumahan,Komplek perumahan,Perumahan Sei Bengaris Residence,"Baru, Kec. Arut Sel., Kabupaten Kotawaringin Barat, Kalimantan Tengah 74117","Kec. Arut Sel., Kabupaten Kotawaringin Barat",KALIMANTAN TENGAH,74117.0,Indonesia,81258998506.0,,,-2.6664449,111.6944609,https://maps.google.com/?cid=0x0:0x41d00ec3045a5fbb,
perumahan,Komplek perumahan,Perumahan Permata Berlian 1,"Jl. Ahmad Yani, Baru, Kec. Arut Sel., Kabupaten Kotawaringin Barat, Kalimantan Tengah 74117","Baru, Kec. Arut Sel., Kabupaten Kotawaringin Barat",KALIMANTAN TENGAH,74117.0,Indonesia,81294432146.0,,,-2.6685163,111.681951,https://maps.google.com/?cid=0x0:0xb4f0825d9a69ade2,
perumahan,Pembangunan Perumahan,Wadah mentuha,"QR5J+6MC, Nanga Mua, Kec. Arut Utara, Kabupaten Kotawaringin Barat, Kalimantan Tengah 74117","Nanga Mua, Kec. Arut Utara, Kabupaten Kotawaringin Barat",KALIMANTAN TENGAH,74117.0,Indonesia,,,,-2.2419408,111.8316401,https://maps.google.com/?cid=0x0:0x9083c5c6d9723a7a,
perumahan,Komplek perumahan,Perumahan Bukit Marundau Residence,"Jl. Jenderal Sudirman, RT./RW/RW.28/VI, Sidorejo, Kec. Arut Sel., Kabupaten Kotawaringin Barat, Kalimantan Tengah 74112","RT./RW/RW.28/VI, Sidorejo, Kec. Arut Sel., Kabupaten Kotawaringin Barat",KALIMANTAN TENGAH,74112.0,Indonesia,53224425.0,,,-2.695718,111.6161273,https://maps.google.com/?cid=0x0:0x37e04e9859431bd,
perumahan,Toko Kosmetik,Distributor Drwskincare Kalteng,"perumahan griya marunting lamantuha, Jl. Topar No.rt 20, Pasir Panjang, Kec. Arut Sel., Kabupaten Kotawaringin Barat, Kalimantan Tengah 74117","Jl. Topar No.rt 20, Pasir Panjang, Kec. Arut Sel., Kabupaten Kotawaringin Barat",KALIMANTAN TENGAH,74117.0,Indonesia,81258199936.0,,,-2.734042,111.6398004,https://maps.google.com/?cid=0x0:0x5418403397b6d132,
perumahan,Komplek perumahan,Perumahan Bumi Asih Permai SCC,"RT.17, Pasir Panjang, Kec. Arut Sel., Kabupaten Kotawaringin Barat, Kalimantan Tengah 74181","Pasir Panjang, Kec. Arut Sel., Kabupaten Kotawaringin Barat",KALIMANTAN TENGAH,74181.0,Indonesia,,,,-2.7414612,111.6287355,https://maps.google.com/?cid=0x0:0xd1942167007d1a61,
perumahan,Pembangunan Perumahan,Perumahan Graha Mas,"Jl. Bhayangkara No.Desa, RT.25, Pasir Panjang, Kec. Arut Sel., Kabupaten Kotawaringin Barat, Kalimantan Tengah 74181","RT.25, Pasir Panjang, Kec. Arut Sel., Kabupaten Kotawaringin Barat",KALIMANTAN TENGAH,74181.0,Indonesia,85652233596.0,,,-2.7347793,111.6324542,https://maps.google.com/?cid=0x0:0x958b3869db6e4353,
perumahan,Pembangunan Perumahan,Perumahan garden,"8J8H+WG6, Jl. Delima, Madurejo, Kec. Arut Sel., Kabupaten Kotawaringin Barat, Kalimantan Tengah 74117","Jl. Delima, Madurejo, Kec. Arut Sel., Kabupaten Kotawaringin Barat",KALIMANTAN TENGAH,74117.0,Indonesia,,,,-2.6827066,111.6287653,https://maps.google.com/?cid=0x0:0xc3840995e2465356,
perumahan,perumahan,Rumah firanda dara marlyanto,"8J4R+7Q3, Gg. Pepaya, Madurejo, Kec. Arut Sel., Kabupaten Kotawaringin Barat, Kalimantan Tengah 74117","Gg. Pepaya, Madurejo, Kec. Arut Sel., Kabupaten Kotawaringin Barat",KALIMANTAN TENGAH,74117.0,Indonesia,,,,-2.6943628,111.641927,https://maps.google.com/?cid=0x0:0x6335b79efa55559b,
perumahan,Komplek perumahan,Rumah Dinas Malijo,"8J3V+FQV, Madurejo, Kec. Arut Sel., Kabupaten Kotawaringin Barat, Kalimantan Tengah 74117","Madurejo, Kec. Arut Sel., Kabupaten Kotawaringin Barat",KALIMANTAN TENGAH,74117.0,Indonesia,,,,-2.6962679,111.6444159,https://maps.google.com/?cid=0x0:0x1b976bee47055e34,
perumahan,perumahan,Kalimantan Tengah 74152,Kalimantan Tengah,Kalimantan Tengah,KALIMANTAN TENGAH,,Indonesia,,,,-1.7739041,111.7614661,https://maps.google.com/?cid=0x0:0x71f2abc1610584e7,
perumahan,Kantor Pemerintah,Desa Panahan,"6V7M+RPQ, Penahan, Kec. Arut Utara, Kabupaten Kotawaringin Barat, Kalimantan Tengah 74152","Penahan, Kec. Arut Utara, Kabupaten Kotawaringin Barat",KALIMANTAN TENGAH,74152.0,Indonesia,,,,-1.7854064,111.884367,https://maps.google.com/?cid=0x0:0x8194f268fc2ab14b,
perumahan,Komplek perumahan,simpang salib,"X2F9+8HP, Sambi, Kec. Arut Utara, Kabupaten Kotawaringin Barat, Kalimantan Tengah 74281","Sambi, Kec. Arut Utara, Kabupaten Kotawaringin Barat",KALIMANTAN TENGAH,74281.0,Indonesia,,,,-2.0266557,112.0189591,https://maps.google.com/?cid=0x0:0xbf3ea3dcb84f15a0,
perumahan,Perumahan rakyat,Balai riam,"XW7H+H7, Penyombaan, Kec. Arut Utara, Kabupaten Kotawaringin Barat, Kalimantan Tengah","Kabupaten Kotawaringin Barat, Kalimantan Tengah",KALIMANTAN TENGAH,,Indonesia,,,,-2.0360625,111.9281875,https://maps.google.com/?cid=0x0:0xfc589eb4b3728ca8,
perumahan,Komplek perumahan,Rumah ALghieARrayyan,"RW6G+C94, Pangkut, Kec. Arut Utara, Kabupaten Kotawaringin Barat, Kalimantan Tengah 74183","Pangkut, Kec. Arut Utara, Kabupaten Kotawaringin Barat",KALIMANTAN TENGAH,74183.0,Indonesia,,,,-2.1894754,111.9251703,https://maps.google.com/?cid=0x0:0x2a78a2ab2116d08a,
perumahan,perumahan,Desa panahan,"4V5V+CH, Penahan, Kec. Arut Utara, Kabupaten Kotawaringin Barat, Kalimantan Tengah","Kabupaten Kotawaringin Barat, Kalimantan Tengah",KALIMANTAN TENGAH,,Indonesia,,,,-1.8914375,111.8939375,https://maps.google.com/?cid=0x0:0xba220eadfc602993,
perumahan,Komplek perumahan,Dedy,"2247+6WC, Sambi, Kec. Arut Utara, Kabupaten Kotawaringin Barat, Kalimantan Tengah 74281","Sambi, Kec. Arut Utara, Kabupaten Kotawaringin Barat",KALIMANTAN TENGAH,74281.0,Indonesia,,,,-1.993538,112.013283,https://maps.google.com/?cid=0x0:0x2f7ae1b675021c79,
perumahan,Komplek perumahan,Rumah Ennie Purnila,"2247+6WC, Sambi, Kec. Arut Utara, Kabupaten Kotawaringin Barat, Kalimantan Tengah 74281","Sambi, Kec. Arut Utara, Kabupaten Kotawaringin Barat",KALIMANTAN TENGAH,74281.0,Indonesia,,,,-1.9943674,112.0130929,https://maps.google.com/?cid=0x0:0x7399661215031cfd,
perumahan,Komplek perumahan,Rumah bulat,"2272+FW, Sambi, Kec. Arut Utara, Kabupaten Kotawaringin Barat, Kalimantan Tengah","Kabupaten Kotawaringin Barat, Kalimantan Tengah",KALIMANTAN TENGAH,,Indonesia,,,,-1.9863652,112.0023738,https://maps.google.com/?cid=0x0:0x7930fa908b0c7647,
perumahan,Perumahan rakyat,Kampung jawa,"XV79+CGM, Penyombaan, Kec. Arut Utara, Kabupaten Kotawaringin Barat, Kalimantan Tengah","Kabupaten Kotawaringin Barat, Kalimantan Tengah",KALIMANTAN TENGAH,,Indonesia,,,,-2.0364047,111.8687825,https://maps.google.com/?cid=0x0:0x92d30f48fd6dac6a,
perumahan,Kantor Pemerintah,desa sambi kotawaringin barat,"2246+4FV, Sambi, Kec. Arut Utara, Kabupaten Kotawaringin Barat, Kalimantan Tengah 74281","Sambi, Kec. Arut Utara, Kabupaten Kotawaringin Barat",KALIMANTAN TENGAH,74281.0,Indonesia,,,,-1.9946447,112.0111794,https://maps.google.com/?cid=0x0:0x871db2f1548cdc2a,
perumahan,Kantor Perusahaan,"Mrambang Estate, PT SMU","Batu Tunggal, Kec. Bulik Tim., Kabupaten Lamandau, Kalimantan Tengah 74152","Kec. Bulik Tim., Kabupaten Lamandau",KALIMANTAN TENGAH,74152.0,Indonesia,,,,-1.8266366,111.6245692,https://maps.google.com/?cid=0x0:0xdb16c05e92745101,
perumahan,Kantor Perusahaan,Nanuah Estate,"2MWQ+R6X, Melata, Kec. Menthobi Raya, Kabupaten Lamandau, Kalimantan Tengah 74152","Melata, Kec. Menthobi Raya, Kabupaten Lamandau",KALIMANTAN TENGAH,74152.0,Indonesia,,,,-1.952885,111.688106,https://maps.google.com/?cid=0x0:0xd5ee1ed4b4a7363f,
perumahan,Komplek perumahan,Rumah zea,"RW69+4FH, Pangkut, Kec. Arut Utara, Kabupaten Kotawaringin Barat, Kalimantan Tengah 74183","Pangkut, Kec. Arut Utara, Kabupaten Kotawaringin Barat",KALIMANTAN TENGAH,74183.0,Indonesia,,,,-2.1889617,111.9176467,https://maps.google.com/?cid=0x0:0x460732e5fde73731,
perumahan,Komplek perumahan,Rumah Emi,"RW5H+WW, Pangkut, Kec. Arut Utara, Kabupaten Kotawaringin Barat, Kalimantan Tengah","Kabupaten Kotawaringin Barat, Kalimantan Tengah",KALIMANTAN TENGAH,,Indonesia,,,,-2.1902573,111.9297968,https://maps.google.com/?cid=0x0:0x3f3e43953db5668,
perumahan,Komplek perumahan,RUMAH ADAT,"3VFW+FH, Riam, Kec. Arut Utara, Kabupaten Kotawaringin Barat, Kalimantan Tengah","Kabupaten Kotawaringin Barat, Kalimantan Tengah",KALIMANTAN TENGAH,,Indonesia,,,,-1.9263361,111.8963972,https://maps.google.com/?cid=0x0:0x176be8e7769b5e6b,
perumahan,Komplek perumahan,Rumah Irum,"RW6C+F3W, Pangkut, Kec. Arut Utara, Kabupaten Kotawaringin Barat, Kalimantan Tengah 74183","Pangkut, Kec. Arut Utara, Kabupaten Kotawaringin Barat",KALIMANTAN TENGAH,74183.0,Indonesia,,,,-2.1883364,111.9194422,https://maps.google.com/?cid=0x0:0x127e1e033b848505,
perumahan,Kantor Perusahaan,Afdeling Delta Batu Tunggal Estate,"4J4C+W46, Toka, Kec. Bulik Tim., Kabupaten Lamandau, Kalimantan Tengah 74152","Toka, Kec. Bulik Tim., Kabupaten Lamandau",KALIMANTAN TENGAH,74152.0,Indonesia,,,,-1.8927155,111.6202569,https://maps.google.com/?cid=0x0:0x74b75bbde7a3d47,
perumahan,Perumahan,Rumah syahrial/sri pujiati,"RW7G+66, jl. Manjung Hingkat No.Rt.5, Pangkut, Kec. Arut Utara, Kabupaten Kotawaringin Barat, Kalimantan Tengah","Kabupaten Kotawaringin Barat, Kalimantan Tengah",KALIMANTAN TENGAH,,Indonesia,,,,-2.1869375,111.9255625,https://maps.google.com/?cid=0x0:0x946cc6bebb7a717d,
perumahan,Komplek perumahan,Lek doladi,"X2MJ+HH5, Unnamed Road, Sambi, Kec. Arut Utara, Kabupaten Kotawaringin Barat, Kalimantan Tengah 74281","Unnamed Road, Sambi, Kec. Arut Utara, Kabupaten Kotawaringin Barat",KALIMANTAN TENGAH,74281.0,Indonesia,,,,-2.016119,112.0314783,https://maps.google.com/?cid=0x0:0x9cbec0ff17a5bc3d,
perumahan,Komplek perumahan,Rumah Hendra Afdeling OF PT.SINP,"PXR7+QFV, Pangkut, Kec. Arut Utara, Kabupaten Kotawaringin Barat, Kalimantan Tengah","Kabupaten Kotawaringin Barat, Kalimantan Tengah",KALIMANTAN TENGAH,,Indonesia,,,,-2.258022,111.9636715,https://maps.google.com/?cid=0x0:0xc2782d365a26c83e,
perumahan,perumahan,KAJAWIFI DESA SAMBI,"2272+5HP, Sambi, Kec. Arut Utara, Kabupaten Kotawaringin Barat, Kalimantan Tengah","Kabupaten Kotawaringin Barat, Kalimantan Tengah",KALIMANTAN TENGAH,,Indonesia,,,,-1.987039,112.0014387,https://maps.google.com/?cid=0x0:0xff16a6ddecb083e1,
perumahan,Komplek perumahan,OB SINP,"Sukarami, Kec. Arut Utara, Kabupaten Kotawaringin Barat, Kalimantan Tengah 74183","Kec. Arut Utara, Kabupaten Kotawaringin Barat",KALIMANTAN TENGAH,74183.0,Indonesia,,,,-2.1757834,111.9799096,https://maps.google.com/?cid=0x0:0xc7bc8c7f9391a334,
perumahan,perumahan,Kalimantan Tengah 74161,Kalimantan Tengah,Kalimantan Tengah,KALIMANTAN TENGAH,,Indonesia,,,,-2.3273895,111.4275888,https://maps.google.com/?cid=0x0:0x5f63d7c099af306c,
perumahan,perumahan,RUMAH MANTO,"Q84M+JFH, Kenawan, Kec. Permata Kecubung, Kabupaten Sukamara, Kalimantan Tengah 74161","Kenawan, Kec. Permata Kecubung, Kabupaten Sukamara",KALIMANTAN TENGAH,74161.0,Indonesia,,,,-2.2429677,111.3338037,https://maps.google.com/?cid=0x0:0x670f708a9e17698e,
perumahan,Komplek perumahan,Zakaria,"JFG7+R8Q, Rungun, Kec. Kotawaringin Lama, Kabupaten Kotawaringin Barat, Kalimantan Tengah 74161","Rungun, Kec. Kotawaringin Lama, Kabupaten Kotawaringin Barat",KALIMANTAN TENGAH,74161.0,Indonesia,,,,-2.3729166,111.463361,https://maps.google.com/?cid=0x0:0x942161d8911a96e9,
perumahan,Pembangunan Perumahan,Wildan mx king,"JFF2+GM, Rungun, Kec. Kotawaringin Lama, Kabupaten Kotawaringin Barat, Kalimantan Tengah 74161","Rungun, Kec. Kotawaringin Lama, Kabupaten Kotawaringin Barat",KALIMANTAN TENGAH,74161.0,Indonesia,,,,-2.376189,111.451643,https://maps.google.com/?cid=0x0:0xa263da8c51a6cdb6,
perumahan,Pembangunan Perumahan,Rumah Kita,"M76J+QGP, Sukamulya, Kec. Kotawaringin Lama, Kabupaten Kotawaringin Barat, Kalimantan Tengah 74172","Sukamulya, Kec. Kotawaringin Lama, Kabupaten Kotawaringin Barat",KALIMANTAN TENGAH,74172.0,Indonesia,,,,-2.3380468,111.281343,https://maps.google.com/?cid=0x0:0x7f6c82467b0beb5,
perumahan,Komplek perumahan,Rumah Aba Udan,"GC8R+X83, Jl. Baburrahman, Kotawaringin Hulu, Kec. Kotawaringin Lama, Kabupaten Kotawaringin Barat, Kalimantan Tengah 74161","Jl. Baburrahman, Kotawaringin Hulu, Kec. Kotawaringin Lama, Kabupaten Kotawaringin Barat",KALIMANTAN TENGAH,74161.0,Indonesia,,,,-2.4826096,111.4407846,https://maps.google.com/?cid=0x0:0x20c5fc7a0fde6f57,
perumahan,Perhimpunan Pengembang Perumahan,ISTANA DALAM ASAM,"GC7R+3VC, Jl. Ampi, kelurahan Kotawaringin hilir, Kec. Kotawaringin Lama, Kabupaten Kotawaringin Barat, Kalimantan Tengah 74161","Jl. Ampi, kelurahan Kotawaringin hilir, Kec. Kotawaringin Lama, Kabupaten Kotawaringin Barat",KALIMANTAN TENGAH,74161.0,Indonesia,,,,-2.4873186,111.4421354,https://maps.google.com/?cid=0x0:0x4cd701f92dd162e5,
perumahan,Pusat Perbelanjaan,Rumah makan.,"GC9Q+MQ3, Kotawaringin Hulu, Kec. Kotawaringin Lama, Kabupaten Kotawaringin Barat, Kalimantan Tengah 74161","Kotawaringin Hulu, Kec. Kotawaringin Lama, Kabupaten Kotawaringin Barat",KALIMANTAN TENGAH,74161.0,Indonesia,,,,-2.481252,111.438851,https://maps.google.com/?cid=0x0:0x7b0b9e5c049ce8a9,
perumahan,Komplek perumahan,Kotawaringin Estate,"HCM7+552, Kotawaringin Hulu, Kec. Kotawaringin Lama, Kabupaten Kotawaringin Barat, Kalimantan Tengah 74161","Kotawaringin Hulu, Kec. Kotawaringin Lama, Kabupaten Kotawaringin Barat",KALIMANTAN TENGAH,74161.0,Indonesia,,,,-2.4171228,111.4128913,https://maps.google.com/?cid=0x0:0x20bfb5f6d041cd3a,
perumahan,Kantor Perusahaan,Perum. Metro Manggou,"H9V8+CG5, Unnamed Road, Kotawaringin Hulu, Kec. Kotawaringin Lama, Kabupaten Kotawaringin Barat, Kalimantan Tengah 74161","Unnamed Road, Kotawaringin Hulu, Kec. Kotawaringin Lama, Kabupaten Kotawaringin Barat",KALIMANTAN TENGAH,74161.0,Indonesia,,,,-2.406479,111.366347,https://maps.google.com/?cid=0x0:0x28e4baa7afa2fb1a,
perumahan,Komplek perumahan,Perumahan Kotaraingin,"J95H+872, Riam Durian, Kotawaringin Lama, West Kotawaringin Regency, Central Kalimantan","Kabupaten Kotawaringin Barat, Kalimantan Tengah",KALIMANTAN TENGAH,,Indonesia,,,,-2.3917477,111.3781426,https://maps.google.com/?cid=0x0:0x598a9f8946df6c15,
perumahan,Komplek perumahan,Gt mustawa,"GC7R+5QV, Jl. Tjilik Riwut, Kota Waringin Hilir, Kec. Kotawaringin Lama, Kabupaten Kotawaringin Barat, Kalimantan Tengah 74161","Jl. Tjilik Riwut, Kota Waringin Hilir, Kec. Kotawaringin Lama, Kabupaten Kotawaringin Barat",KALIMANTAN TENGAH,74161.0,Indonesia,82230257752.0,,,-2.4870092,111.4419137,https://maps.google.com/?cid=0x0:0x623d64d994aad3fd,
perumahan,Komplek perumahan,Rumah bu supiah,"H835+5XR, Unnamed Road, Sukajaya, Kec. Kotawaringin Lama, Kabupaten Kotawaringin Barat, Kalimantan Tengah 74172","Unnamed Road, Sukajaya, Kec. Kotawaringin Lama, Kabupaten Kotawaringin Barat",KALIMANTAN TENGAH,74172.0,Indonesia,,,,-2.447019,111.3098983,https://maps.google.com/?cid=0x0:0x2c8974de18a36d8f,
perumahan,perumahan,Komplek guru,"J9Q3+C2M Lapangan, Suka Makmur, Kec. Kotawaringin Lama, Kabupaten Kotawaringin Barat, Kalimantan Tengah 74161","Suka Makmur, Kec. Kotawaringin Lama, Kabupaten Kotawaringin Barat",KALIMANTAN TENGAH,74161.0,Indonesia,,,,-2.3605198,111.3531887,https://maps.google.com/?cid=0x0:0x325f6f8970d06592,
perumahan,Komplek perumahan,Kalimantan tengah,"J8J2+9W, Sukamulya, Kec. Kotawaringin Lama, Kabupaten Kotawaringin Barat, Kalimantan Tengah 74172","Sukamulya, Kec. Kotawaringin Lama, Kabupaten Kotawaringin Barat",KALIMANTAN TENGAH,74172.0,Indonesia,,,,-2.369067,111.301685,https://maps.google.com/?cid=0x0:0x180e4387b47c236f,
perumahan,Komplek perumahan,Jhoni pranata,"Unnamed Road, Kinjil, Kec. Kotawaringin Lama, Kabupaten Kotawaringin Barat, Kalimantan Tengah 74172","Kinjil, Kec. Kotawaringin Lama, Kabupaten Kotawaringin Barat",KALIMANTAN TENGAH,74172.0,Indonesia,,,,-2.4632089,111.3483466,https://maps.google.com/?cid=0x0:0xbd61d431e7c9d1ba,
perumahan,Komplek perumahan,Rumah H.HAMKA I DAUD,"GC9P+429, Jl. Pangkalan Muntai, Kota Waringin Hilir, Kec. Kotawaringin Lama, Kabupaten Kotawaringin Barat, Kalimantan Tengah 74161","Jl. Pangkalan Muntai, Kota Waringin Hilir, Kec. Kotawaringin Lama, Kabupaten Kotawaringin Barat",KALIMANTAN TENGAH,74161.0,Indonesia,,,,-2.4822054,111.4351245,https://maps.google.com/?cid=0x0:0xe0e8946798faa5d8,
perumahan,Pembangunan Perumahan,Hendi saputra,"M9XC+9C7, Unnamed Road, Palih Baru, Kec. Kotawaringin Lama, Kabupaten Kotawaringin Barat, Kalimantan Tengah 74161","Unnamed Road, Palih Baru, Kec. Kotawaringin Lama, Kabupaten Kotawaringin Barat",KALIMANTAN TENGAH,74161.0,Indonesia,,,,-2.3015881,111.3710324,https://maps.google.com/?cid=0x0:0x659397e5445109cb,
perumahan,Komplek perumahan,Perumahan Kotawaringin Mill,"J95H+95M, Riam Durian, Kotawaringin Lama, West Kotawaringin Regency, Central Kalimantan","Kabupaten Kotawaringin Barat, Kalimantan Tengah",KALIMANTAN TENGAH,,Indonesia,,,,-2.3915467,111.3779364,https://maps.google.com/?cid=0x0:0x3e707511fb740ecb,
perumahan,Kantor Perusahaan,Barakan,"J99Q+H9, Kotawaringin Hulu, Kec. Kotawaringin Lama, Kabupaten Kotawaringin Barat, Kalimantan Tengah","Kabupaten Kotawaringin Barat, Kalimantan Tengah",KALIMANTAN TENGAH,,Indonesia,,,,-2.3806061,111.3887336,https://maps.google.com/?cid=0x0:0x3ee9f74c2ab73fe3,
perumahan,Pembangunan Perumahan,Sagu sukamulya,"J8M2+3C, Sukamulya, Kec. Kotawaringin Lama, Kabupaten Kotawaringin Barat, Kalimantan Tengah 74172","Sukamulya, Kec. Kotawaringin Lama, Kabupaten Kotawaringin Barat",KALIMANTAN TENGAH,74172.0,Indonesia,,,,-2.3670296,111.3005403,https://maps.google.com/?cid=0x0:0xac1a8425f89bfb9f,
perumahan,Komplek perumahan,Dawak,"H8VG+XQ, Riam Durian, Kec. Kotawaringin Lama, Kabupaten Kotawaringin Barat, Kalimantan Tengah","Kabupaten Kotawaringin Barat, Kalimantan Tengah",KALIMANTAN TENGAH,,Indonesia,,,,-2.405121,111.326999,https://maps.google.com/?cid=0x0:0xd593e7a76f465b8d,
perumahan,Pembangunan Perumahan,Shafwah Pangkalan Bun,"Jl. Bendaha Kumai, Sungai Tendang, Kec. Kumai, Kabupaten Kotawaringin Barat, Kalimantan Tengah 74181","Sungai Tendang, Kec. Kumai, Kabupaten Kotawaringin Barat",KALIMANTAN TENGAH,74181.0,Indonesia,82123239991.0,,,-2.7188393,111.70267,https://maps.google.com/?cid=0x0:0xf29360840c1d38a0,
perumahan,Komplek perumahan,KHARISMALAND GARDEN,"7M6P+92C, Jl. Utama Pasir Panjang, Batu Belaman, Kec. Kumai, Kabupaten Kotawaringin Barat, Kalimantan Tengah 74181","Jl. Utama Pasir Panjang, Batu Belaman, Kec. Kumai, Kabupaten Kotawaringin Barat",KALIMANTAN TENGAH,74181.0,Indonesia,8125167376.0,,,-2.739071,111.685021,https://maps.google.com/?cid=0x0:0x55a95a09e0e4bc61,
perumahan,Komplek perumahan,Perumahan BTN,"6MR3+JM6, Batu Belaman, Kec. Kumai, Kabupaten Kotawaringin Barat, Kalimantan Tengah 74181","Batu Belaman, Kec. Kumai, Kabupaten Kotawaringin Barat",KALIMANTAN TENGAH,74181.0,Indonesia,85845513488.0,,,-2.758467,111.6541483,https://maps.google.com/?cid=0x0:0xf09e4979339fd90c,
perumahan,perumahan,Kumai,"Sungai Kapitan, Kec. Kumai, Kabupaten Kotawaringin Barat, Kalimantan Tengah","Kabupaten Kotawaringin Barat, Kalimantan Tengah",KALIMANTAN TENGAH,,Indonesia,,,,-2.745797,111.715698,https://maps.google.com/?cid=0x0:0xcc725e3a1e270063,
perumahan,Perumahan,KHARISMA LAND PARK,"Jl. Utama Pasir Panjang, Sungai Kapitan, Kec. Kumai, Kabupaten Kotawaringin Barat, Kalimantan Tengah 74181","Sungai Kapitan, Kec. Kumai, Kabupaten Kotawaringin Barat",KALIMANTAN TENGAH,74181.0,Indonesia,,,,-2.748414,111.6905495,https://maps.google.com/?cid=0x0:0xa1def30ee2c02bfa,
perumahan,Komplek perumahan,Sungai gatah,"JL. P. Utar, 74181, Sungai Kapitan, Kec. Kumai, Kabupaten Kotawaringin Barat, Kalimantan Tengah 74181","74181, Sungai Kapitan, Kec. Kumai, Kabupaten Kotawaringin Barat",KALIMANTAN TENGAH,74181.0,Indonesia,,,,-2.7460444,111.7163957,https://maps.google.com/?cid=0x0:0xfb4908ca2d739cfe,
perumahan,Komplek perumahan,Ppa,"7P38+M7P, Kumai - Semarang, Sungai Kapitan, Kec. Kumai, Kabupaten Kotawaringin Barat, Kalimantan Tengah","Kabupaten Kotawaringin Barat, Kalimantan Tengah",KALIMANTAN TENGAH,,Indonesia,,,,-2.745797,111.715698,https://maps.google.com/?cid=0x0:0x5bd9a68bca0c17c7,
perumahan,Perhimpunan Pengembang Perumahan,MUDAA SEJATI,"JALAN G4 RW O2 No.RT07, Sungai Kapitan, Kec. Kumai, Kabupaten Kotawaringin Barat, Kalimantan Tengah","Kabupaten Kotawaringin Barat, Kalimantan Tengah",KALIMANTAN TENGAH,,Indonesia,,,,-2.745797,111.715698,https://maps.google.com/?cid=0x0:0xf949681baf572148,
perumahan,Komplek perumahan,Perumahan Kemuning Harum,"7JPR+PXC, Jl. HM. Rafi'i, Madurejo, Kec. Arut Sel., Kabupaten Kotawaringin Barat, Kalimantan Tengah 74181","Jl. HM. Rafi'i, Madurejo, Kec. Arut Sel., Kabupaten Kotawaringin Barat",KALIMANTAN TENGAH,74181.0,Indonesia,,,,-2.713194,111.6423932,https://maps.google.com/?cid=0x0:0x44902834b623c97,
perumahan,Pembangunan Perumahan,pos 02 security (duke baru) pt.cks,"7P38+M7P, pt.ciptatani kumai sejahtera, des, suka maju, kec.batu ampar, Kabupaten Seruyan, Kalimantan Tengah 74181","pt.ciptatani kumai sejahtera, des, suka maju, kec.batu ampar, Kabupaten Seruyan",KALIMANTAN TENGAH,74181.0,Indonesia,,,,-2.745797,111.715698,https://maps.google.com/?cid=0x0:0x672e202abe0409b8,
perumahan,Komplek perumahan,Perumahan Orange Residence,"7JJW+2H8, Pasir Panjang, Kec. Arut Sel., Kabupaten Kotawaringin Barat, Kalimantan Tengah 74181","Pasir Panjang, Kec. Arut Sel., Kabupaten Kotawaringin Barat",KALIMANTAN TENGAH,74181.0,Indonesia,85654010311.0,,,-2.71997,111.6464441,https://maps.google.com/?cid=0x0:0x95369f727cf7767e,
perumahan,perumahan,Kalimantan Tengah 74183,"Kabupaten Kotawaringin Barat, Kalimantan Tengah","Kabupaten Kotawaringin Barat, Kalimantan Tengah",KALIMANTAN TENGAH,,Indonesia,,,,-2.3916649,111.9999435,https://maps.google.com/?cid=0x0:0x4b6803533d167a52,
perumahan,Perumahan,PERUM BANTENG RESIDENCE 3,"GWJ8+2P8, Karangmulya, Kec. Pangkalan Banteng, Kabupaten Kotawaringin Barat, Kalimantan Tengah","Kabupaten Kotawaringin Barat, Kalimantan Tengah",KALIMANTAN TENGAH,,Indonesia,,,,-2.4699775,111.916822,https://maps.google.com/?cid=0x0:0xa82e1289bb157ad3,
perumahan,Komplek perumahan,Perumahan Banteng Residence,"GWRM+379, Jl. Ahmad Yani, Karangmulya, Kec. Pangkalan Banteng, Kabupaten Kotawaringin Barat, Kalimantan Tengah 74183","Jl. Ahmad Yani, Karangmulya, Kec. Pangkalan Banteng, Kabupaten Kotawaringin Barat",KALIMANTAN TENGAH,74183.0,Indonesia,,,,-2.4595032,111.9326695,https://maps.google.com/?cid=0x0:0x201d3ba62ba4694d,
perumahan,Komplek perumahan,Perum Purnama Indah,"GWXW+899, Jl. Jenderal Sudirman, Amin Jaya, Kec. Pangkalan Banteng, Kabupaten Kotawaringin Barat, Kalimantan Tengah 74183","Jl. Jenderal Sudirman, Amin Jaya, Kec. Pangkalan Banteng, Kabupaten Kotawaringin Barat",KALIMANTAN TENGAH,74183.0,Indonesia,,,,-2.453375,111.9465879,https://maps.google.com/?cid=0x0:0xefe55f3e55bf3093,
perumahan,Pembangunan Perumahan,Galila putri,"GWMC+P3Q, Karangmulya, Kec. Pangkalan Banteng, Kabupaten Kotawaringin Barat, Kalimantan Tengah 74183","Karangmulya, Kec. Pangkalan Banteng, Kabupaten Kotawaringin Barat",KALIMANTAN TENGAH,74183.0,Indonesia,,,,-2.4667019,111.9211743,https://maps.google.com/?cid=0x0:0x32c98484ef627008,
perumahan,Komplek perumahan,rumah dika,"HVX5+34F, Sungai Bengkuang, Kec. Pangkalan Banteng, Kabupaten Kotawaringin Barat, Kalimantan Tengah 74184","Sungai Bengkuang, Kec. Pangkalan Banteng, Kabupaten Kotawaringin Barat",KALIMANTAN TENGAH,74184.0,Indonesia,,,,-2.401596,111.857098,https://maps.google.com/?cid=0x0:0x61aead12ff2e3ef0,
perumahan,Pembangunan Perumahan,Afriera olshopp tri widianingsih,"GWR9+QV, Karangmulya, Kec. Pangkalan Banteng, Kabupaten Kotawaringin Barat, Kalimantan Tengah","Kabupaten Kotawaringin Barat, Kalimantan Tengah",KALIMANTAN TENGAH,,Indonesia,,,,-2.4567042,111.9198802,https://maps.google.com/?cid=0x0:0x443413924466d391,
perumahan,Komplek perumahan,BU NUR,"GWQ8+GV, Karangmulya, Kec. Pangkalan Banteng, Kabupaten Kotawaringin Barat, Kalimantan Tengah","Kabupaten Kotawaringin Barat, Kalimantan Tengah",KALIMANTAN TENGAH,,Indonesia,81528703534.0,,,-2.4602461,111.9166261,https://maps.google.com/?cid=0x0:0x3dc31f828154dd60,
perumahan,Komplek perumahan,Rumah Pak Jhon siregar,"HX49+R2M, Jl. Ahmad Yani, Amin Jaya, Kec. Pangkalan Banteng, Kabupaten Kotawaringin Barat, Kalimantan Tengah 74183","Jl. Ahmad Yani, Amin Jaya, Kec. Pangkalan Banteng, Kabupaten Kotawaringin Barat",KALIMANTAN TENGAH,74183.0,Indonesia,,,,-2.4429129,111.9675611,https://maps.google.com/?cid=0x0:0x9423277c47f73944,
perumahan,Komplek perumahan,Rumah Sendiri,"GWMC+P3Q, Karangmulya, Kec. Pangkalan Banteng, Kabupaten Kotawaringin Barat, Kalimantan Tengah 74183","Karangmulya, Kec. Pangkalan Banteng, Kabupaten Kotawaringin Barat",KALIMANTAN TENGAH,74183.0,Indonesia,,,,-2.4663093,111.921587,https://maps.google.com/?cid=0x0:0x655a10ff6eadb000,
perumahan,Komplek perumahan,Mei Home,"HX3G+PFX, Jl. Jenderal Sudirman, Amin Jaya, Kec. Pangkalan Banteng, Kabupaten Kotawaringin Barat, Kalimantan Tengah 74183","Jl. Jenderal Sudirman, Amin Jaya, Kec. Pangkalan Banteng, Kabupaten Kotawaringin Barat",KALIMANTAN TENGAH,74183.0,Indonesia,,,,-2.4452667,111.975599,https://maps.google.com/?cid=0x0:0x375f098750d43c02,
perumahan,Perumahan,PETANI MUDA,"Sido Mulyo, Kec. Pangkalan Banteng, Kabupaten Kotawaringin Barat, Kalimantan Tengah","Kabupaten Kotawaringin Barat, Kalimantan Tengah",KALIMANTAN TENGAH,,Indonesia,,,,-2.403861,111.8661196,https://maps.google.com/?cid=0x0:0xf7e1520eadb09e37,
perumahan,Komplek perumahan,Rumah Pak Waji,"HX29+PRF, Jl. Lombok, Amin Jaya, Kec. Pangkalan Banteng, Kabupaten Kotawaringin Barat, Kalimantan Tengah 74183","Jl. Lombok, Amin Jaya, Kec. Pangkalan Banteng, Kabupaten Kotawaringin Barat",KALIMANTAN TENGAH,74183.0,Indonesia,,,,-2.4481829,111.9695412,https://maps.google.com/?cid=0x0:0xa37fee06041ea48a,
perumahan,Komplek perumahan,Rumah anisaaa,"HVX4+VF6, Sungai Bengkuang, Kec. Pangkalan Banteng, Kabupaten Kotawaringin Barat, Kalimantan Tengah 74184","Sungai Bengkuang, Kec. Pangkalan Banteng, Kabupaten Kotawaringin Barat",KALIMANTAN TENGAH,74184.0,Indonesia,,,,-2.4006405,111.8547956,https://maps.google.com/?cid=0x0:0xe86fc721d78ad6ca,
perumahan,Komplek perumahan,Rumah ganteng,"GV38+9WW, Jl Kayu Mas No.RT.3, rw1, Pangkalan Banteng, Kec. Pangkalan Banteng, Kabupaten Kotawaringin Barat, Kalimantan Tengah","Kabupaten Kotawaringin Barat, Kalimantan Tengah",KALIMANTAN TENGAH,,Indonesia,,,,-2.4967977,111.8673424,https://maps.google.com/?cid=0x0:0xe1badbe29f61c3cb,
perumahan,Komplek perumahan,Azzahra teknik,"GWP8+8G8, Karangmulya, Kec. Pangkalan Banteng, Kabupaten Kotawaringin Barat, Kalimantan Tengah 74183","Karangmulya, Kec. Pangkalan Banteng, Kabupaten Kotawaringin Barat",KALIMANTAN TENGAH,74183.0,Indonesia,,,,-2.4642153,111.9163218,https://maps.google.com/?cid=0x0:0xd3538bfeac89a40f,
perumahan,Komplek perumahan,Rumah meli,"HX38+WRG, Amin Jaya, Kec. Pangkalan Banteng, Kabupaten Kotawaringin Barat, Kalimantan Tengah","Kabupaten Kotawaringin Barat, Kalimantan Tengah",KALIMANTAN TENGAH,,Indonesia,,,,-2.4451759,111.9670695,https://maps.google.com/?cid=0x0:0x6596729755628de0,
perumahan,perumahan,BTN B3 panji,"GWWW+MJ4, BTN purnama indah, Amin Jaya, Kec. Pangkalan Banteng, Kabupaten Kotawaringin Barat, Kalimantan Tengah 74183","BTN purnama indah, Amin Jaya, Kec. Pangkalan Banteng, Kabupaten Kotawaringin Barat",KALIMANTAN TENGAH,74183.0,Indonesia,,,,-2.453375,111.9465879,https://maps.google.com/?cid=0x0:0x7a83d2a586b2f3b9,
perumahan,Komplek perumahan,Rmh Amin jaya,"HX6F+34, Amin Jaya, Kec. Pangkalan Banteng, Kabupaten Kotawaringin Barat, Kalimantan Tengah 74183","Amin Jaya, Kec. Pangkalan Banteng, Kabupaten Kotawaringin Barat",KALIMANTAN TENGAH,74183.0,Indonesia,,,,-2.4398063,111.9728329,https://maps.google.com/?cid=0x0:0x49d3ed899d1d8432,
perumahan,Pembangunan Perumahan,Oka Home,"GWWW+QM3, Amin Jaya, Kec. Pangkalan Banteng, Kabupaten Kotawaringin Barat, Kalimantan Tengah 74183","Amin Jaya, Kec. Pangkalan Banteng, Kabupaten Kotawaringin Barat",KALIMANTAN TENGAH,74183.0,Indonesia,,,,-2.453103,111.946674,https://maps.google.com/?cid=0x0:0xd748f162be4afeda,
perumahan,Komplek perumahan,SORAYA HOME,"Karangmulya, Kec. Pangkalan Banteng, Kabupaten Kotawaringin Barat, Kalimantan Tengah 74183","Kec. Pangkalan Banteng, Kabupaten Kotawaringin Barat",KALIMANTAN TENGAH,74183.0,Indonesia,,,,-2.4706513,111.9173053,https://maps.google.com/?cid=0x0:0xe2704c0becd1c320,
perumahan,Komplek perumahan,4 SAUDARA,"HX63+97, Amin Jaya, Kec. Pangkalan Banteng, Kabupaten Kotawaringin Barat, Kalimantan Tengah 74183","Amin Jaya, Kec. Pangkalan Banteng, Kabupaten Kotawaringin Barat",KALIMANTAN TENGAH,74183.0,Indonesia,,,,-2.4389855,111.9531878,https://maps.google.com/?cid=0x0:0xbc385d56d5de7666,
perumahan,Komplek perumahan,Naibaho Family,"GWWW+8HV, Amin Jaya, Kec. Pangkalan Banteng, Kabupaten Kotawaringin Barat, Kalimantan Tengah 74183","Amin Jaya, Kec. Pangkalan Banteng, Kabupaten Kotawaringin Barat",KALIMANTAN TENGAH,74183.0,Indonesia,,,,-2.4541345,111.9464277,https://maps.google.com/?cid=0x0:0x9b3399f1981a39b0,
perumahan,Perhimpunan Pengembang Perumahan,RUMAH HASBI AGUSTIAN,"GWRF+2JP, Karangmulya, Kec. Pangkalan Banteng, Kabupaten Kotawaringin Barat, Kalimantan Tengah 74183","Karangmulya, Kec. Pangkalan Banteng, Kabupaten Kotawaringin Barat",KALIMANTAN TENGAH,74183.0,Indonesia,,,,-2.4599219,111.9240785,https://maps.google.com/?cid=0x0:0x8f23df1dedd52e6c,
perumahan,Perhimpunan Pengembang Perumahan,Maulana hasby,"HX4F+82J, Amin Jaya, Kec. Pangkalan Banteng, Kabupaten Kotawaringin Barat, Kalimantan Tengah 74183","Amin Jaya, Kec. Pangkalan Banteng, Kabupaten Kotawaringin Barat",KALIMANTAN TENGAH,74183.0,Indonesia,,,,-2.4436221,111.973353,https://maps.google.com/?cid=0x0:0x919ff1fceaa082e8,
perumahan,Perhimpunan Pengembang Perumahan,Pak timan,"GWQG+3M9, Karangmulya, Kec. Pangkalan Banteng, Kabupaten Kotawaringin Barat, Kalimantan Tengah 74183","Karangmulya, Kec. Pangkalan Banteng, Kabupaten Kotawaringin Barat",KALIMANTAN TENGAH,74183.0,Indonesia,,,,-2.4622737,111.9267328,https://maps.google.com/?cid=0x0:0xd4702924e37630e,
perumahan,Pusat Kesehatan Masyarakat,Rumah Sakit Rakyat Semanggang,"HW63+29J, Jl. A. Yani KM.60, Pangkalan Banteng, Kec. Pangkalan Banteng, Kabupaten Kotawaringin Barat, Kalimantan Tengah 74183","Jl. A. Yani KM.60, Pangkalan Banteng, Kec. Pangkalan Banteng, Kabupaten Kotawaringin Barat",KALIMANTAN TENGAH,74183.0,Indonesia,8115230150.0,,,-2.4354979,111.902555,https://maps.google.com/?cid=0x0:0x14f7ccb9dbf73c0c,
perumahan,Kantor Perusahaan,Perumahan Staf PT Indotruba Tengah Minamas Plantation,"Jl. Ahmad Yani KM 80 Ds. Amin Jaya Kec. Pangkalan Banteng Kab. Kotawaringin Barat 74183, Amin Jaya, Kec. Pangkalan Banteng, Kabupaten Kotawaringin Barat, Kalimantan Tengah 74183","Amin Jaya, Kec. Pangkalan Banteng, Kabupaten Kotawaringin Barat",KALIMANTAN TENGAH,74183.0,Indonesia,,,,-2.4466557,112.0088195,https://maps.google.com/?cid=0x0:0xe5190584ae3ec9ba,
perumahan,Komplek perumahan,Rukadal Home,"GWWW+HH5, Amin Jaya, Kec. Pangkalan Banteng, Kabupaten Kotawaringin Barat, Kalimantan Tengah 74183","Amin Jaya, Kec. Pangkalan Banteng, Kabupaten Kotawaringin Barat",KALIMANTAN TENGAH,74183.0,Indonesia,,,,-2.4536121,111.9464877,https://maps.google.com/?cid=0x0:0x447631613f6f7070,
perumahan,perumahan,Kalimantan Tengah 74184,"Kec. Pangkalan Lada, Kabupaten Kotawaringin Barat, Kalimantan Tengah","Kabupaten Kotawaringin Barat, Kalimantan Tengah",KALIMANTAN TENGAH,,Indonesia,,,,-2.4128845,111.8330106,https://maps.google.com/?cid=0x0:0x7b81cc477671085b,
perumahan,Komplek perumahan,zakariya,"FQRG+QCH, Lada Mandala Jaya, Kec. Pangkalan Lada, Kabupaten Kotawaringin Barat, Kalimantan Tengah 74184","Lada Mandala Jaya, Kec. Pangkalan Lada, Kabupaten Kotawaringin Barat",KALIMANTAN TENGAH,74184.0,Indonesia,,,,-2.50802,111.7762404,https://maps.google.com/?cid=0x0:0x537e1a106aa6b8cb,
perumahan,Pembangunan Perumahan,PT.FMA,"GV64+44H, Pangkalan Tiga, Kec. Pangkalan Lada, Kabupaten Kotawaringin Barat, Kalimantan Tengah 74184","Pangkalan Tiga, Kec. Pangkalan Lada, Kabupaten Kotawaringin Barat",KALIMANTAN TENGAH,74184.0,Indonesia,,,,-2.4896753,111.8553715,https://maps.google.com/?cid=0x0:0x10b0868c7303f025,
perumahan,Komplek perumahan,Rumah Mak Mi,"GR6M+2C9, RT.RW 01/RW.RT 09, Pangkalan Dewa, Kec. Pangkalan Lada, Kabupaten Kotawaringin Barat, Kalimantan Tengah 74184","RT.RW 01/RW.RT 09, Pangkalan Dewa, Kec. Pangkalan Lada, Kabupaten Kotawaringin Barat",KALIMANTAN TENGAH,74184.0,Indonesia,,,,-2.4899585,111.8335948,https://maps.google.com/?cid=0x0:0x33b395a125fe0ddb,
perumahan,Komplek perumahan,Sujargo Malikhatun,"GQHH+CMW, Pandu Senjaya, Kec. Pangkalan Lada, Kabupaten Kotawaringin Barat, Kalimantan Tengah 74184","Pandu Senjaya, Kec. Pangkalan Lada, Kabupaten Kotawaringin Barat",KALIMANTAN TENGAH,74184.0,Indonesia,,,,-2.4713898,111.7791895,https://maps.google.com/?cid=0x0:0x6540ff13e04e9489,
perumahan,Komplek perumahan,Fitri Wahyu,"HR3R+554, Jl. Ahmad Yani, Pangkalan Tiga, Kec. Pangkalan Lada, Kabupaten Kotawaringin Barat, Kalimantan Tengah 74184","Jl. Ahmad Yani, Pangkalan Tiga, Kec. Pangkalan Lada, Kabupaten Kotawaringin Barat",KALIMANTAN TENGAH,74184.0,Indonesia,82199607459.0,,,-2.4471123,111.8404543,https://maps.google.com/?cid=0x0:0x3505b89d057b4385,
perumahan,Komplek perumahan,Perumahan Blok A (Pabrik),"CQGC+PV2, Sungai Rangit Jaya, Kec. Pangkalan Lada, Kabupaten Kotawaringin Barat, Kalimantan Tengah 74184","Sungai Rangit Jaya, Kec. Pangkalan Lada, Kabupaten Kotawaringin Barat",KALIMANTAN TENGAH,74184.0,Indonesia,,,,-2.5732317,111.7721303,https://maps.google.com/?cid=0x0:0xf1e8d773ab2c8448,
perumahan,Komplek perumahan,Cak Ripin,"FQJH+J2V, Lada Mandala Jaya, Kec. Pangkalan Lada, Kabupaten Kotawaringin Barat, Kalimantan Tengah 74184","Lada Mandala Jaya, Kec. Pangkalan Lada, Kabupaten Kotawaringin Barat",KALIMANTAN TENGAH,74184.0,Indonesia,,,,-2.5183815,111.7775392,https://maps.google.com/?cid=0x0:0xafc8b5b04e7e91ab,
perumahan,Komplek perumahan,doladi.....kuc,"GQCQ+HCW, Gg. Rambutan, Pandu Senjaya, Kec. Pangkalan Lada, Kabupaten Kotawaringin Barat, Kalimantan Tengah 74184","Gg. Rambutan, Pandu Senjaya, Kec. Pangkalan Lada, Kabupaten Kotawaringin Barat",KALIMANTAN TENGAH,74184.0,Indonesia,,,,-2.4785027,111.7885875,https://maps.google.com/?cid=0x0:0x79768b5b07eb7b67,
perumahan,Pembangunan Perumahan,wahyu hidayat,"GQG6+GP, Pandu Senjaya, Kec. Pangkalan Lada, Kabupaten Kotawaringin Barat, Kalimantan Tengah 74113","Pandu Senjaya, Kec. Pangkalan Lada, Kabupaten Kotawaringin Barat",KALIMANTAN TENGAH,74113.0,Indonesia,,,,-2.4736295,111.7617628,https://maps.google.com/?cid=0x0:0xedbffd3694c2a57a,
perumahan,Komplek perumahan,RUMAH MUTIA,"GRVV+CQ3, Pangkalan Tiga, Kec. Pangkalan Lada, Kabupaten Kotawaringin Barat, Kalimantan Tengah 74184","Pangkalan Tiga, Kec. Pangkalan Lada, Kabupaten Kotawaringin Barat",KALIMANTAN TENGAH,74184.0,Indonesia,,,,-2.4564155,111.844557,https://maps.google.com/?cid=0x0:0x500fe0d1ac99cf43,
perumahan,Komplek perumahan,Pak Uju,"HR2Q+8J6, Pangkalan Tiga, Kec. Pangkalan Lada, Kabupaten Kotawaringin Barat, Kalimantan Tengah 74184","Pangkalan Tiga, Kec. Pangkalan Lada, Kabupaten Kotawaringin Barat",KALIMANTAN TENGAH,74184.0,Indonesia,,,,-2.4488546,111.838874,https://maps.google.com/?cid=0x0:0x408004a5dc2ab73a,
perumahan,Pembangunan Perumahan,Servis lampu bolam ur,"FQRF+P8H, Lada Mandala Jaya, Kec. Pangkalan Lada, Kabupaten Kotawaringin Barat, Kalimantan Tengah 74184","Lada Mandala Jaya, Kec. Pangkalan Lada, Kabupaten Kotawaringin Barat",KALIMANTAN TENGAH,74184.0,Indonesia,,,,-2.5081952,111.773347,https://maps.google.com/?cid=0x0:0xde649f7b6cf26d1b,
perumahan,Pembangunan Perumahan,Suyamto,"GRVM+75, Pangkalan Tiga, Kec. Pangkalan Lada, Kabupaten Kotawaringin Barat, Kalimantan Tengah","Kabupaten Kotawaringin Barat, Kalimantan Tengah",KALIMANTAN TENGAH,,Indonesia,,,,-2.456732,111.833858,https://maps.google.com/?cid=0x0:0x86719748125366dc,
perumahan,Pembangunan Perumahan,Rumah kembar,"FRH4+G8F, Lada Mandala Jaya, Kec. Pangkalan Lada, Kabupaten Kotawaringin Barat, Kalimantan Tengah 74184","Lada Mandala Jaya, Kec. Pangkalan Lada, Kabupaten Kotawaringin Barat",KALIMANTAN TENGAH,74184.0,Indonesia,,,,-2.5211975,111.8057864,https://maps.google.com/?cid=0x0:0x3833329ddf899b87,
perumahan,Komplek perumahan,Rumah Tama,"GQFF+VH7, Gg. Mangga, Pandu Senjaya, Kec. Pangkalan Lada, Kabupaten Kotawaringin Barat, Kalimantan Tengah","Kabupaten Kotawaringin Barat, Kalimantan Tengah",KALIMANTAN TENGAH,,Indonesia,,,,-2.4753471,111.7739277,https://maps.google.com/?cid=0x0:0x1b44c2f4c8cc4a48,
perumahan,Komplek perumahan,Ginanjar SS,"GQGF+22W, Gg. Nangka, Pandu Senjaya, Kec. Pangkalan Lada, Kabupaten Kotawaringin Barat, Kalimantan Tengah 74113","Gg. Nangka, Pandu Senjaya, Kec. Pangkalan Lada, Kabupaten Kotawaringin Barat",KALIMANTAN TENGAH,74113.0,Indonesia,,,,-2.4748848,111.7725717,https://maps.google.com/?cid=0x0:0x5d42202c99587b80,
perumahan,Pembangunan Perumahan,Ny home,"GRXQ+RXH, Pangkalan Tiga, Kec. Pangkalan Lada, Kabupaten Kotawaringin Barat, Kalimantan Tengah 74184","Pangkalan Tiga, Kec. Pangkalan Lada, Kabupaten Kotawaringin Barat",KALIMANTAN TENGAH,74184.0,Indonesia,,,,-2.4504329,111.8399969,https://maps.google.com/?cid=0x0:0xc474b1a201c97914,
perumahan,Komplek perumahan,Sri Santoso,"GRVW+4CW, Pangkalan Tiga, Kec. Pangkalan Lada, Kabupaten Kotawaringin Barat, Kalimantan Tengah","Kabupaten Kotawaringin Barat, Kalimantan Tengah",KALIMANTAN TENGAH,,Indonesia,,,,-2.4569186,111.8464758,https://maps.google.com/?cid=0x0:0xc909793fc4e73377,
perumahan,Komplek perumahan,Utomo,"HR2Q+FP8, Pangkalan Tiga, Kec. Pangkalan Lada, Kabupaten Kotawaringin Barat, Kalimantan Tengah 74184","Pangkalan Tiga, Kec. Pangkalan Lada, Kabupaten Kotawaringin Barat",KALIMANTAN TENGAH,74184.0,Indonesia,,,,-2.4488418,111.8393384,https://maps.google.com/?cid=0x0:0xe79895d3538ef85b,
perumahan,Komplek perumahan,Peron Arsakha,"GR5H+5FP, Pangkalan Dewa, Kec. Pangkalan Lada, Kabupaten Kotawaringin Barat, Kalimantan Tengah 74184","Pangkalan Dewa, Kec. Pangkalan Lada, Kabupaten Kotawaringin Barat",KALIMANTAN TENGAH,74184.0,Indonesia,,,,-2.49314,111.828773,https://maps.google.com/?cid=0x0:0x78e76068a1a9941b,
perumahan,Komplek perumahan,ANUGRAH KARYA PROFIL,"Jl. Pasogit, Pangkalan Dewa, Kec. Pangkalan Lada, Kabupaten Kotawaringin Barat, Kalimantan Tengah 74184","Pangkalan Dewa, Kec. Pangkalan Lada, Kabupaten Kotawaringin Barat",KALIMANTAN TENGAH,74184.0,Indonesia,82123201903.0,,,-2.4969961,111.8264161,https://maps.google.com/?cid=0x0:0x61f4731065a44343,
