Category,Real Category,Business Name,Address,City,State,Postal Code,Country,Phone,Email,Website,Latitude,Longitude,Map Link,Details Link
hotel,hotel,Kec. Borong,"Kabupaten Manggarai Timur, Nusa Tenggara Tim.","Kabupaten Manggarai Timur, Nusa Tenggara Tim.",NUSA TENGGARA TIMUR,,Indonesia,,,,-88.148.406,1.206.082.067,https://maps.google.com/?cid=0x0:0x2a97d54812a8d6a5,
hotel,hotel,Pauls Homestay,"Sita, Kec. Borong, Kabupaten Manggarai Timur, Nusa Tenggara Tim.","Kabupaten Manggarai Timur, Nusa Tenggara Tim.",NUSA TENGGARA TIMUR,,Indonesia,8124662379,,,-87.759.011,1.205.788.654,https://maps.google.com/?cid=0x0:0x86d715bde590e331,
hotel,hotel,RedDoorz @ Hotel Gloria Borong,"Toka, RT.004/RW.002, Nanga Labang, Kec. Borong, Kabupaten Manggarai Timur, Nusa Tenggara Tim. 86571","RT.004/RW.002, Nanga Labang, Kec. Borong, Kabupaten Manggarai Timur",NUSA TENGGARA TIMUR,86571.0,Indonesia,81339206709,,,-88.120.123,1.205.780.925,https://maps.google.com/?cid=0x0:0xadced0bc705bb512,
hotel,hotel,Hotel Kasih Sayang Borong Manggarai Timur,"5JR4+5MP, Rana Loba, Kec. Borong, Kabupaten Manggarai Timur, Nusa Tenggara Tim.","Kabupaten Manggarai Timur, Nusa Tenggara Tim.",NUSA TENGGARA TIMUR,,Indonesia,81238337643,,,-88.095.463,1.206.067.096,https://maps.google.com/?cid=0x0:0x89fd05e16497938e,
hotel,hotel,Sun Rice Homestay,"CFG2+VHC, Unnamed Road, Bangka Kenda, Kec. Wae Rii, Kabupaten Manggarai, Nusa Tenggara Tim.","Kabupaten Manggarai, Nusa Tenggara Tim.",NUSA TENGGARA TIMUR,,Indonesia,82339736102,,,-85.728.218,1.204.513.925,https://maps.google.com/?cid=0x0:0xd0093d47e38d7ffc,
hotel,hotel,Hotel Sindha,"Jl. Yos Sudarso No.24-26, Mbaumuku, Kec. Langke Rembong, Kabupaten Manggarai, Nusa Tenggara Tim. 86511","Mbaumuku, Kec. Langke Rembong, Kabupaten Manggarai",NUSA TENGGARA TIMUR,86511.0,Indonesia,38521197,,,-86.079.311,1.204.668.603,https://maps.google.com/?cid=0x0:0xfdb2d3b5614172c1,
hotel,hotel,J~Rima Homestay,"8JFV+755, Gang Kapela Peot Kelurahan Satar Peot, Poco Rii, Kec. Borong, Kabupaten Manggarai Timur, Nusa Tenggara Tim.","Kabupaten Manggarai Timur, Nusa Tenggara Tim.",NUSA TENGGARA TIMUR,,Indonesia,82235131819,,,-86.768.575,1.206.429.991,https://maps.google.com/?cid=0x0:0xe87d54bff89e1c1a,
hotel,hotel,REVAYAH Hotel Ruteng,"Carep, Langke Rembong, Carep, Kec. Langke Rembong, Kabupaten Manggarai, Nusa Tenggara Tim.","Kabupaten Manggarai, Nusa Tenggara Tim.",NUSA TENGGARA TIMUR,,Indonesia,85134407014,,,-86.125.667,1.204.817.408,https://maps.google.com/?cid=0x0:0xf389f7a1aa16a0a5,
hotel,hotel,Skipper House,"Jl. Ulumbu, Watu, Kec. Langke Rembong, Kabupaten Manggarai, Nusa Tenggara Tim. 86511","Watu, Kec. Langke Rembong, Kabupaten Manggarai",NUSA TENGGARA TIMUR,86511.0,Indonesia,81322014981,,,-86.211.079,1.204.650.825,https://maps.google.com/?cid=0x0:0x9d33595864fd9cf3,
hotel,hotel,"RUTENG GLAMPING AND CAMPSITE (View Point, Sunrise/Moonrise view)","BAHONG, JALAN TRANS FLORES, Poco Likang, Kec. Ruteng, Kabupaten Manggarai, Nusa Tenggara Tim. 86511","JALAN TRANS FLORES, Poco Likang, Kec. Ruteng, Kabupaten Manggarai",NUSA TENGGARA TIMUR,86511.0,Indonesia,81286458296,,,-8.605.151,1.204.276.585,https://maps.google.com/?cid=0x0:0xc07575ac07ab53fb,
hotel,hotel,MJR Ticketing Guest House,"Jl. NIAGA NO. 23 Shopping center district, Downtown, Nusa Tenggara Tim. 86511",Downtown,NUSA TENGGARA TIMUR,86511.0,Indonesia,85239237227,,,-8.608.858,1.204.648.062,https://maps.google.com/?cid=0x0:0x9af2b3a19de97021,
hotel,hotel,Chacha Homestay  Dormitory,"Jl. Diponegoro No.12, Watu, Flores, Kabupaten Manggarai, Nusa Tenggara Tim. 86511","Watu, Flores, Kabupaten Manggarai",NUSA TENGGARA TIMUR,86511.0,Indonesia,81236989009,,,-86.153.409,1.204.653.172,https://maps.google.com/?cid=0x0:0x1f5ccf0f92f9bdb9,
hotel,hotel,D-Rima Homestay,"Mbaumuku, Kec. Langke Rembong, Kabupaten Manggarai, Nusa Tenggara Tim.","Kabupaten Manggarai, Nusa Tenggara Tim.",NUSA TENGGARA TIMUR,,Indonesia,81379581188,,,-86.053.096,1.204.680.183,https://maps.google.com/?cid=0x0:0xb2e300d5998124c2,
hotel,hotel,Tange Guest House,"Jl. Satar Tacik, Tenda, Kec. Langke Rembong, Kabupaten Manggarai, Nusa Tenggara Tim. 86518","Tenda, Kec. Langke Rembong, Kabupaten Manggarai",NUSA TENGGARA TIMUR,86518.0,Indonesia,82236765950,,,-86.040.129,1.204.766.114,https://maps.google.com/?cid=0x0:0xb64495ec7860e6d8,
hotel,hotel,Victory Hotel Ruteng,"Jl. Kartini No.06, Lawir, Kec. Langke Rembong, Kabupaten Manggarai, Nusa Tenggara Tim. 86516","Lawir, Kec. Langke Rembong, Kabupaten Manggarai",NUSA TENGGARA TIMUR,86516.0,Indonesia,81236168888,,,-86.125.186,1.204.627.428,https://maps.google.com/?cid=0x0:0x680628423ac64f05,
hotel,hotel,Hotel Silverin Bajawa,"Jl. Trans Flores Bajawa-Ende Km. 04, Bajawa, Kabupaten Ngada, Nusa Tenggara Tim. 86411","Bajawa, Kabupaten Ngada",NUSA TENGGARA TIMUR,86411.0,Indonesia,3842225506,,,-88.068.765,1.209.768.528,https://maps.google.com/?cid=0x0:0xa57ca8b51e4d7ac3,
hotel,hotel,WISMA PO'ONG,"9FQQ+HG, Carep, Kec. Langke Rembong, Kabupaten Manggarai, Nusa Tenggara Tim.","Kabupaten Manggarai, Nusa Tenggara Tim.",NUSA TENGGARA TIMUR,,Indonesia,82138349105,,,-86.111.199,1.204.888.736,https://maps.google.com/?cid=0x0:0xba5ae6f798bb1968,
hotel,hotel,Hobbit Hill Homestay,"CF64+77F, Wali, Kec. Langke Rembong, Kabupaten Manggarai, Nusa Tenggara Tim.","Kabupaten Manggarai, Nusa Tenggara Tim.",NUSA TENGGARA TIMUR,,Indonesia,81246487553,,,-85.894.152,1.204.564.399,https://maps.google.com/?cid=0x0:0x5195107ebad1a36a,
hotel,hotel,Wisma Guesthouse Leko Lembo,"5Q4P+8QV, Watu Nggene, Kec. Kota Komba, Kabupaten Manggarai Timur, Nusa Tenggara Tim.","Kabupaten Manggarai Timur, Nusa Tenggara Tim.",NUSA TENGGARA TIMUR,,Indonesia,82236639712,,,-88.441.349,1.207.869.134,https://maps.google.com/?cid=0x0:0xe9735f852146601c,
hotel,hotel,Hotel FX 72 Ruteng,"Wali, Kec. Langke Rembong, Kabupaten Manggarai, Nusa Tenggara Tim.","Kabupaten Manggarai, Nusa Tenggara Tim.",NUSA TENGGARA TIMUR,,Indonesia,81225173148,,,-85.910.064,1.204.614.834,https://maps.google.com/?cid=0x0:0x27aa5e70ae5495a7,
hotel,hotel,LovKend Homestay,"Jl. Glodial, Pau, Kec. Langke Rembong, Kabupaten Manggarai, Nusa Tenggara Tim. 86500","Pau, Kec. Langke Rembong, Kabupaten Manggarai",NUSA TENGGARA TIMUR,86500.0,Indonesia,82340627973,,,-86.194.484,1.204.517.104,https://maps.google.com/?cid=0x0:0x2475ca1d304f1f4f,
hotel,hotel,Mayo Homestay,"Langgo Kopi No.Kelurahan, Carep, Kec. Langke Rembong, Kabupaten Manggarai, Nusa Tenggara Tim. 86519","Carep, Kec. Langke Rembong, Kabupaten Manggarai",NUSA TENGGARA TIMUR,86519.0,Indonesia,81236458028,,,-86.102.356,1.204.838.422,https://maps.google.com/?cid=0x0:0x3d46c35564b57104,
hotel,Tujuan Wisata,Ligota Beach,"5HM5+JH7, Nanga Labang, Kec. Borong, Kabupaten Manggarai Timur, Nusa Tenggara Tim.","Kabupaten Manggarai Timur, Nusa Tenggara Tim.",NUSA TENGGARA TIMUR,,Indonesia,82117201086,,,-88.159.585,1.205.589.186,https://maps.google.com/?cid=0x0:0x28f3de4413591b81,
hotel,Hotel,Hotel Sama Jaya Borong,"5JP2+RRQ, Nanga Labang, Kec. Borong, Kabupaten Manggarai Timur, Nusa Tenggara Tim.","Kabupaten Manggarai Timur, Nusa Tenggara Tim.",NUSA TENGGARA TIMUR,,Indonesia,,,,-8.812.923,120.602.095,https://maps.google.com/?cid=0x0:0x99171d21d5e6b181,
hotel,hotel,Cepi Watu Beach,"Nanga Labang, Kec. Borong, Kabupaten Manggarai Timur, Nusa Tenggara Tim.","Kabupaten Manggarai Timur, Nusa Tenggara Tim.",NUSA TENGGARA TIMUR,,Indonesia,,,,-88.155.262,1.205.844.428,https://maps.google.com/?cid=0x0:0xcfc99092e1b7e350,
hotel,Hotel,Hotel Embun Pagi,"5HPV+VH9, Nanga Labang, Kec. Borong, Kabupaten Manggarai Timur, Nusa Tenggara Tim.","Kabupaten Manggarai Timur, Nusa Tenggara Tim.",NUSA TENGGARA TIMUR,,Indonesia,81239700068,,,-88.128.479,1.205.939.793,https://maps.google.com/?cid=0x0:0x7287350d7d146aa5,
hotel,Hotel,Hotel Mariyos,"6J28+H85, Rana Loba, Kec. Borong, Kabupaten Manggarai Timur, Nusa Tenggara Tim.","Kabupaten Manggarai Timur, Nusa Tenggara Tim.",NUSA TENGGARA TIMUR,,Indonesia,,,,-87.986.058,1.206.158.594,https://maps.google.com/?cid=0x0:0x3c7983afc31900a,
hotel,Hotel,Charisma Hotel,"5JM5+R8Q, Rana Loba, Kec. Borong, Kabupaten Manggarai Timur, Nusa Tenggara Tim.","Kabupaten Manggarai Timur, Nusa Tenggara Tim.",NUSA TENGGARA TIMUR,,Indonesia,81237940520,,,-88.154.039,1.206.083.628,https://maps.google.com/?cid=0x0:0xa8e0da492b3ea308,
hotel,Hotel,Hotel AA,"5JG7+XJ5, Kota Ndora, Kec. Borong, Kabupaten Manggarai Timur, Nusa Tenggara Tim.","Kabupaten Manggarai Timur, Nusa Tenggara Tim.",NUSA TENGGARA TIMUR,,Indonesia,81362549952,,,-88.226.006,1.206.141.151,https://maps.google.com/?cid=0x0:0x14919ff8b9a1e4,
hotel,hotel,Kec. Poco Ranaka,"Kabupaten Manggarai Timur, Nusa Tenggara Tim.","Kabupaten Manggarai Timur, Nusa Tenggara Tim.",NUSA TENGGARA TIMUR,,Indonesia,,,,-86.082.296,1.205.494.563,https://maps.google.com/?cid=0x0:0x82314d6de8f2130,
hotel,hotel,REVAYAH Hotel Ruteng,"Carep, Langke Rembong, Carep, Kec. Langke Rembong, Kabupaten Manggarai, Nusa Tenggara Tim.","Kabupaten Manggarai, Nusa Tenggara Tim.",NUSA TENGGARA TIMUR,,Indonesia,85134407014,,,-86.125.667,1.204.817.408,https://maps.google.com/?cid=0x0:0xf389f7a1aa16a0a5,
hotel,hotel,Hotel Sindha,"Jl. Yos Sudarso No.24-26, Mbaumuku, Kec. Langke Rembong, Kabupaten Manggarai, Nusa Tenggara Tim. 86511","Mbaumuku, Kec. Langke Rembong, Kabupaten Manggarai",NUSA TENGGARA TIMUR,86511.0,Indonesia,38521197,,,-86.079.311,1.204.668.603,https://maps.google.com/?cid=0x0:0xfdb2d3b5614172c1,
hotel,hotel,Skipper House,"Jl. Ulumbu, Watu, Kec. Langke Rembong, Kabupaten Manggarai, Nusa Tenggara Tim. 86511","Watu, Kec. Langke Rembong, Kabupaten Manggarai",NUSA TENGGARA TIMUR,86511.0,Indonesia,81322014981,,,-86.211.079,1.204.650.825,https://maps.google.com/?cid=0x0:0x9d33595864fd9cf3,
hotel,hotel,Victory Hotel Ruteng,"Jl. Kartini No.06, Lawir, Kec. Langke Rembong, Kabupaten Manggarai, Nusa Tenggara Tim. 86516","Lawir, Kec. Langke Rembong, Kabupaten Manggarai",NUSA TENGGARA TIMUR,86516.0,Indonesia,81236168888,,,-86.125.186,1.204.627.428,https://maps.google.com/?cid=0x0:0x680628423ac64f05,
hotel,hotel,MJR Ticketing Guest House,"Jl. NIAGA NO. 23 Shopping center district, Downtown, Nusa Tenggara Tim. 86511",Downtown,NUSA TENGGARA TIMUR,86511.0,Indonesia,85239237227,,,-8.608.858,1.204.648.062,https://maps.google.com/?cid=0x0:0x9af2b3a19de97021,
hotel,hotel,D-Rima Homestay,"Mbaumuku, Kec. Langke Rembong, Kabupaten Manggarai, Nusa Tenggara Tim.","Kabupaten Manggarai, Nusa Tenggara Tim.",NUSA TENGGARA TIMUR,,Indonesia,81379581188,,,-86.053.096,1.204.680.183,https://maps.google.com/?cid=0x0:0xb2e300d5998124c2,
hotel,hotel,WISMA PO'ONG,"9FQQ+HG, Carep, Kec. Langke Rembong, Kabupaten Manggarai, Nusa Tenggara Tim.","Kabupaten Manggarai, Nusa Tenggara Tim.",NUSA TENGGARA TIMUR,,Indonesia,82138349105,,,-86.111.199,1.204.888.736,https://maps.google.com/?cid=0x0:0xba5ae6f798bb1968,
hotel,hotel,Chacha Homestay  Dormitory,"Jl. Diponegoro No.12, Watu, Flores, Kabupaten Manggarai, Nusa Tenggara Tim. 86511","Watu, Flores, Kabupaten Manggarai",NUSA TENGGARA TIMUR,86511.0,Indonesia,81236989009,,,-86.153.409,1.204.653.172,https://maps.google.com/?cid=0x0:0x1f5ccf0f92f9bdb9,
hotel,hotel,Tange Guest House,"Jl. Satar Tacik, Tenda, Kec. Langke Rembong, Kabupaten Manggarai, Nusa Tenggara Tim. 86518","Tenda, Kec. Langke Rembong, Kabupaten Manggarai",NUSA TENGGARA TIMUR,86518.0,Indonesia,82236765950,,,-86.040.129,1.204.766.114,https://maps.google.com/?cid=0x0:0xb64495ec7860e6d8,
hotel,hotel,Hotel FX 72 Ruteng,"Wali, Kec. Langke Rembong, Kabupaten Manggarai, Nusa Tenggara Tim.","Kabupaten Manggarai, Nusa Tenggara Tim.",NUSA TENGGARA TIMUR,,Indonesia,81225173148,,,-85.910.064,1.204.614.834,https://maps.google.com/?cid=0x0:0x27aa5e70ae5495a7,
hotel,hotel,Karleta homestay,"Pau, Kec. Langke Rembong, Kabupaten Manggarai, Nusa Tenggara Tim.","Kabupaten Manggarai, Nusa Tenggara Tim.",NUSA TENGGARA TIMUR,,Indonesia,81338434271,,,-86.247.392,1.204.480.249,https://maps.google.com/?cid=0x0:0xc0cae5850d7fc6c8,
hotel,hotel,"RUTENG GLAMPING AND CAMPSITE (View Point, Sunrise/Moonrise view)","BAHONG, JALAN TRANS FLORES, Poco Likang, Kec. Ruteng, Kabupaten Manggarai, Nusa Tenggara Tim. 86511","JALAN TRANS FLORES, Poco Likang, Kec. Ruteng, Kabupaten Manggarai",NUSA TENGGARA TIMUR,86511.0,Indonesia,81286458296,,,-8.605.151,1.204.276.585,https://maps.google.com/?cid=0x0:0xc07575ac07ab53fb,
hotel,hotel,Sun Rice Homestay,"CFG2+VHC, Unnamed Road, Bangka Kenda, Kec. Wae Rii, Kabupaten Manggarai, Nusa Tenggara Tim.","Kabupaten Manggarai, Nusa Tenggara Tim.",NUSA TENGGARA TIMUR,,Indonesia,82339736102,,,-85.728.218,1.204.513.925,https://maps.google.com/?cid=0x0:0xd0093d47e38d7ffc,
hotel,hotel,Ruteng Hostel,"9FP3+5MM, Jl. Anggrek Utara, Pau, Kec. Langke Rembong, Kabupaten Manggarai, Nusa Tenggara Tim.","Kabupaten Manggarai, Nusa Tenggara Tim.",NUSA TENGGARA TIMUR,,Indonesia,82181696949,,,-86.147.117,1.204.540.858,https://maps.google.com/?cid=0x0:0x5a799d202e1a1a7f,
hotel,hotel,Mayo Homestay,"Langgo Kopi No.Kelurahan, Carep, Kec. Langke Rembong, Kabupaten Manggarai, Nusa Tenggara Tim. 86519","Carep, Kec. Langke Rembong, Kabupaten Manggarai",NUSA TENGGARA TIMUR,86519.0,Indonesia,81236458028,,,-86.102.356,1.204.838.422,https://maps.google.com/?cid=0x0:0x3d46c35564b57104,
hotel,hotel,LovKend Homestay,"Jl. Glodial, Pau, Kec. Langke Rembong, Kabupaten Manggarai, Nusa Tenggara Tim. 86500","Pau, Kec. Langke Rembong, Kabupaten Manggarai",NUSA TENGGARA TIMUR,86500.0,Indonesia,82340627973,,,-86.194.484,1.204.517.104,https://maps.google.com/?cid=0x0:0x2475ca1d304f1f4f,
hotel,hotel,Spring Hill Hotel,"Jl. Kesturi No.1, Kelurahan Tadong, Kec. Langke Rembong, Kabupaten Manggarai, Nusa Tenggara Tim. 86511","Kelurahan Tadong, Kec. Langke Rembong, Kabupaten Manggarai",NUSA TENGGARA TIMUR,86511.0,Indonesia,81339372345,,,-86.043.455,1.204.689.034,https://maps.google.com/?cid=0x0:0xedd725d7847a830e,
hotel,hotel,Sky Flores Hotel,"Jl. Yos Sudarso No.34, Mbaumuku, Kec. Langke Rembong, Kabupaten Manggarai, Nusa Tenggara Tim.","Kabupaten Manggarai, Nusa Tenggara Tim.",NUSA TENGGARA TIMUR,,Indonesia,85215000808,,,-86.065.375,1.204.669.404,https://maps.google.com/?cid=0x0:0x458b10bffcd31fbb,
hotel,hotel,Ranaka Hotel,"Jl. Yos Sudarso, Mbaumuku, Kec. Langke Rembong, Kabupaten Manggarai, Nusa Tenggara Tim. 86511","Mbaumuku, Kec. Langke Rembong, Kabupaten Manggarai",NUSA TENGGARA TIMUR,86511.0,Indonesia,2180629666,,,-86.108.463,1.204.666.408,https://maps.google.com/?cid=0x0:0x5bc2c428f142c8e3,
hotel,hotel,Hobbit Hill Homestay,"CF64+77F, Wali, Kec. Langke Rembong, Kabupaten Manggarai, Nusa Tenggara Tim.","Kabupaten Manggarai, Nusa Tenggara Tim.",NUSA TENGGARA TIMUR,,Indonesia,81246487553,,,-85.894.152,1.204.564.399,https://maps.google.com/?cid=0x0:0x5195107ebad1a36a,
hotel,hotel,Mama's Homestay Ruteng - We are open for bookings!,"Nekang, Nusa Tenggara Tim. 86511","Kabupaten Manggarai, Nusa Tenggara Tim.",NUSA TENGGARA TIMUR,,Indonesia,82341070971,,,-86.186.809,1.204.689.891,https://maps.google.com/?cid=0x0:0x3e8b0043213bd2d2,
hotel,hotel,MBC Santa Maria Berdukacita Hotel Susteran,"9FQF+C9H, Tenda, Kec. Langke Rembong, Kabupaten Manggarai, Nusa Tenggara Tim.","Kabupaten Manggarai, Nusa Tenggara Tim.",NUSA TENGGARA TIMUR,,Indonesia,38522834,,,-8.611.446,1.204.734.744,https://maps.google.com/?cid=0x0:0xd2035df9b5ef2eac,
hotel,hotel,Kec. Lamba Leda,"Kabupaten Manggarai Timur, Nusa Tenggara Tim.","Kabupaten Manggarai Timur, Nusa Tenggara Tim.",NUSA TENGGARA TIMUR,,Indonesia,,,,-8.303.018,1.205.841.504,https://maps.google.com/?cid=0x0:0x250909596892d132,
hotel,hotel,Hotel Sindha,"Jl. Yos Sudarso No.24-26, Mbaumuku, Kec. Langke Rembong, Kabupaten Manggarai, Nusa Tenggara Tim. 86511","Mbaumuku, Kec. Langke Rembong, Kabupaten Manggarai",NUSA TENGGARA TIMUR,86511.0,Indonesia,38521197,,,-86.079.311,1.204.668.603,https://maps.google.com/?cid=0x0:0xfdb2d3b5614172c1,
hotel,hotel,Hotel FX 72 Ruteng,"Wali, Kec. Langke Rembong, Kabupaten Manggarai, Nusa Tenggara Tim.","Kabupaten Manggarai, Nusa Tenggara Tim.",NUSA TENGGARA TIMUR,,Indonesia,81225173148,,,-85.910.064,1.204.614.834,https://maps.google.com/?cid=0x0:0x27aa5e70ae5495a7,
hotel,hotel,Hotel Paradiso-Reo-Manggarai NTT,"Unnamed Road, Mata Air, Kec. Reok, Kabupaten Manggarai, Nusa Tenggara Tim.","Kabupaten Manggarai, Nusa Tenggara Tim.",NUSA TENGGARA TIMUR,,Indonesia,,,,-83.118.239,120.483.121,https://maps.google.com/?cid=0x0:0x439ef200adb3de93,
hotel,hotel,Tange Guest House,"Jl. Satar Tacik, Tenda, Kec. Langke Rembong, Kabupaten Manggarai, Nusa Tenggara Tim. 86518","Tenda, Kec. Langke Rembong, Kabupaten Manggarai",NUSA TENGGARA TIMUR,86518.0,Indonesia,82236765950,,,-86.040.129,1.204.766.114,https://maps.google.com/?cid=0x0:0xb64495ec7860e6d8,
hotel,hotel,Victory Hotel Ruteng,"Jl. Kartini No.06, Lawir, Kec. Langke Rembong, Kabupaten Manggarai, Nusa Tenggara Tim. 86516","Lawir, Kec. Langke Rembong, Kabupaten Manggarai",NUSA TENGGARA TIMUR,86516.0,Indonesia,81236168888,,,-86.125.186,1.204.627.428,https://maps.google.com/?cid=0x0:0x680628423ac64f05,
hotel,hotel,Sun Rice Homestay,"CFG2+VHC, Unnamed Road, Bangka Kenda, Kec. Wae Rii, Kabupaten Manggarai, Nusa Tenggara Tim.","Kabupaten Manggarai, Nusa Tenggara Tim.",NUSA TENGGARA TIMUR,,Indonesia,82339736102,,,-85.728.218,1.204.513.925,https://maps.google.com/?cid=0x0:0xd0093d47e38d7ffc,
hotel,hotel,Ara Garden Inn,"Jalan Gewak 1, Nteer, Kelurahan Poco Mal, Tenda, Langke Rembong, Manggarai Regency, East Nusa Tenggara 86518","Nteer, Kelurahan Poco Mal, Tenda, Langke Rembong, Manggarai Regency",NUSA TENGGARA TIMUR,86518.0,Indonesia,85712971420,,,-86.166.244,1.204.786.394,https://maps.google.com/?cid=0x0:0x21c2f53b1dc02aa3,
hotel,hotel,D-Rima Homestay,"Mbaumuku, Kec. Langke Rembong, Kabupaten Manggarai, Nusa Tenggara Tim.","Kabupaten Manggarai, Nusa Tenggara Tim.",NUSA TENGGARA TIMUR,,Indonesia,81379581188,,,-86.053.096,1.204.680.183,https://maps.google.com/?cid=0x0:0xb2e300d5998124c2,
hotel,hotel,Larensia,"Labuan Bajo, Kec. Komodo, Kabupaten Manggarai Barat, Nusa Tenggara Tim.","Kabupaten Manggarai Barat, Nusa Tenggara Tim.",NUSA TENGGARA TIMUR,,Indonesia,85768133373,,,-84.900.431,1.198.823.585,https://maps.google.com/?cid=0x0:0xd70885e69c1b651e,
hotel,hotel,MJR Ticketing Guest House,"Jl. NIAGA NO. 23 Shopping center district, Downtown, Nusa Tenggara Tim. 86511",Downtown,NUSA TENGGARA TIMUR,86511.0,Indonesia,85239237227,,,-8.608.858,1.204.648.062,https://maps.google.com/?cid=0x0:0x9af2b3a19de97021,
hotel,hotel,LovKend Homestay,"Jl. Glodial, Pau, Kec. Langke Rembong, Kabupaten Manggarai, Nusa Tenggara Tim. 86500","Pau, Kec. Langke Rembong, Kabupaten Manggarai",NUSA TENGGARA TIMUR,86500.0,Indonesia,82340627973,,,-86.194.484,1.204.517.104,https://maps.google.com/?cid=0x0:0x2475ca1d304f1f4f,
hotel,hotel,Chacha Homestay  Dormitory,"Jl. Diponegoro No.12, Watu, Flores, Kabupaten Manggarai, Nusa Tenggara Tim. 86511","Watu, Flores, Kabupaten Manggarai",NUSA TENGGARA TIMUR,86511.0,Indonesia,81236989009,,,-86.153.409,1.204.653.172,https://maps.google.com/?cid=0x0:0x1f5ccf0f92f9bdb9,
hotel,hotel,Tempode Resort,"Jln raya, Reo, kedindi, Kabupaten Manggarai, Nusa Tenggara Tim. 08592","Reo, kedindi, Kabupaten Manggarai",NUSA TENGGARA TIMUR,8592.0,Indonesia,82342222939,,,-82.971.653,1.204.665.642,https://maps.google.com/?cid=0x0:0x90b5654626f1603e,
hotel,hotel,Ruteng Hostel,"9FP3+5MM, Jl. Anggrek Utara, Pau, Kec. Langke Rembong, Kabupaten Manggarai, Nusa Tenggara Tim.","Kabupaten Manggarai, Nusa Tenggara Tim.",NUSA TENGGARA TIMUR,,Indonesia,82181696949,,,-86.147.117,1.204.540.858,https://maps.google.com/?cid=0x0:0x5a799d202e1a1a7f,
hotel,hotel,Skipper House,"Jl. Ulumbu, Watu, Kec. Langke Rembong, Kabupaten Manggarai, Nusa Tenggara Tim. 86511","Watu, Kec. Langke Rembong, Kabupaten Manggarai",NUSA TENGGARA TIMUR,86511.0,Indonesia,81322014981,,,-86.211.079,1.204.650.825,https://maps.google.com/?cid=0x0:0x9d33595864fd9cf3,
hotel,hotel,Villa Alam Flores Mbohang Ruteng RedPartner,"Bangka Lelak, Kec. Lelak, Kabupaten Manggarai, Nusa Tenggara Tim.","Kabupaten Manggarai, Nusa Tenggara Tim.",NUSA TENGGARA TIMUR,,Indonesia,"8,95417E+11",,,-86.039.953,1.203.402.141,https://maps.google.com/?cid=0x0:0x8eb570b7a23a440,
hotel,hotel,Karleta homestay,"Pau, Kec. Langke Rembong, Kabupaten Manggarai, Nusa Tenggara Tim.","Kabupaten Manggarai, Nusa Tenggara Tim.",NUSA TENGGARA TIMUR,,Indonesia,81338434271,,,-86.247.392,1.204.480.249,https://maps.google.com/?cid=0x0:0xc0cae5850d7fc6c8,
hotel,hotel,Hobbit Hill Homestay,"CF64+77F, Wali, Kec. Langke Rembong, Kabupaten Manggarai, Nusa Tenggara Tim.","Kabupaten Manggarai, Nusa Tenggara Tim.",NUSA TENGGARA TIMUR,,Indonesia,81246487553,,,-85.894.152,1.204.564.399,https://maps.google.com/?cid=0x0:0x5195107ebad1a36a,
hotel,hotel,"RUTENG GLAMPING AND CAMPSITE (View Point, Sunrise/Moonrise view)","BAHONG, JALAN TRANS FLORES, Poco Likang, Kec. Ruteng, Kabupaten Manggarai, Nusa Tenggara Tim. 86511","JALAN TRANS FLORES, Poco Likang, Kec. Ruteng, Kabupaten Manggarai",NUSA TENGGARA TIMUR,86511.0,Indonesia,81286458296,,,-8.605.151,1.204.276.585,https://maps.google.com/?cid=0x0:0xc07575ac07ab53fb,
hotel,hotel,Mayo Homestay,"Langgo Kopi No.Kelurahan, Carep, Kec. Langke Rembong, Kabupaten Manggarai, Nusa Tenggara Tim. 86519","Carep, Kec. Langke Rembong, Kabupaten Manggarai",NUSA TENGGARA TIMUR,86519.0,Indonesia,81236458028,,,-86.102.356,1.204.838.422,https://maps.google.com/?cid=0x0:0x3d46c35564b57104,
hotel,hotel,RD Hotel Resto and Familly Karoke,"GV6W+5RF, Batu Cermin, Kec. Komodo, Kabupaten Manggarai Barat, Nusa Tenggara Tim.","Kabupaten Manggarai Barat, Nusa Tenggara Tim.",NUSA TENGGARA TIMUR,,Indonesia,82237920898,,,-84.895.586,1.198.970.086,https://maps.google.com/?cid=0x0:0x9f834953caf3a4fc,
hotel,hotel,Mama's Homestay Ruteng - We are open for bookings!,"Nekang, Nusa Tenggara Tim. 86511","Kabupaten Manggarai, Nusa Tenggara Tim.",NUSA TENGGARA TIMUR,,Indonesia,82341070971,,,-86.186.809,1.204.689.891,https://maps.google.com/?cid=0x0:0x3e8b0043213bd2d2,
hotel,hotel,WISMA PO'ONG,"9FQQ+HG, Carep, Kec. Langke Rembong, Kabupaten Manggarai, Nusa Tenggara Tim.","Kabupaten Manggarai, Nusa Tenggara Tim.",NUSA TENGGARA TIMUR,,Indonesia,82138349105,,,-86.111.199,1.204.888.736,https://maps.google.com/?cid=0x0:0xba5ae6f798bb1968,
hotel,hotel,Kec. Sambi Rampas,"Kabupaten Manggarai Timur, Nusa Tenggara Tim.","Kabupaten Manggarai Timur, Nusa Tenggara Tim.",NUSA TENGGARA TIMUR,,Indonesia,,,,-8.347.378,1.207.548.886,https://maps.google.com/?cid=0x0:0xf9c936bcfd9766a6,
hotel,hotel,"4 Pohon Ecolodge — Les 4 Arbres"" Flores Indonesia""","Golo Lijun, Kec. Elar, Kabupaten Manggarai Timur, Nusa Tenggara Tim. 86584","Kec. Elar, Kabupaten Manggarai Timur",NUSA TENGGARA TIMUR,86584.0,Indonesia,8123623803,,,-8.378.094,1.209.025.395,https://maps.google.com/?cid=0x0:0xd39b0442739f7de6,
hotel,hotel,"Loca Lobo Lodges , Riung","Jalan Raya Riung Labuan, Klambu, Kec. Riung, Kabupaten Ngada, Nusa Tenggara Tim. 86419","Klambu, Kec. Riung, Kabupaten Ngada",NUSA TENGGARA TIMUR,86419.0,Indonesia,81338587124,,,-83.675.779,1.209.548.051,https://maps.google.com/?cid=0x0:0x71a6e776c677a178,
hotel,hotel,Hotel Bintang Wisata Riung,"Pasar Riung, Nangamese, Ngada, Kabupaten Ngada, Nusa Tenggara Tim. 86413","Nangamese, Ngada, Kabupaten Ngada",NUSA TENGGARA TIMUR,86413.0,Indonesia,81246130831,,,-84.216.979,1.210.276,https://maps.google.com/?cid=0x0:0xb52401ae12d0c70e,
hotel,hotel,Nirvana Bungalows RIUNG / Nirvana RIUNG,"Nirvana Road, Nangamese, Kec. Riung, Kabupaten Ngada, Nusa Tenggara Tim.","Kabupaten Ngada, Nusa Tenggara Tim.",NUSA TENGGARA TIMUR,,Indonesia,81338528529,,,-84.184.645,1.210.292.928,https://maps.google.com/?cid=0x0:0xcecab3c11952c396,
hotel,hotel,Mentos bungalows Riung,"Benteng Tengah, Kec. Riung, Kabupaten Ngada, Nusa Tenggara Tim.","Kabupaten Ngada, Nusa Tenggara Tim.",NUSA TENGGARA TIMUR,,Indonesia,81236210351,,,-84.183.789,1.210.278.509,https://maps.google.com/?cid=0x0:0x458de4876724d2c5,
hotel,hotel,Pondok SVD Riung,"H2HG+CWC Pondok SVD, Nangamese, Kec. Riung, Kabupaten Ngada, Nusa Tenggara Tim.","Kabupaten Ngada, Nusa Tenggara Tim.",NUSA TENGGARA TIMUR,,Indonesia,81339341572,,,-84.214.305,1.210.272.598,https://maps.google.com/?cid=0x0:0xb912826d60152fe1,
hotel,hotel,Lalong Terong Guest House,"H2FF+95M, Benteng Tengah, Kec. Riung, Kabupaten Ngada, Nusa Tenggara Tim.","Kabupaten Ngada, Nusa Tenggara Tim.",NUSA TENGGARA TIMUR,,Indonesia,81392260506,,,-84.265.291,1.210.229.223,https://maps.google.com/?cid=0x0:0x57ec504013cc24e9,
hotel,hotel,Penginapan Tiga Empat Tujuh,"H2JG+3PC, Nangamese, Kec. Riung, Kabupaten Ngada, Nusa Tenggara Tim.","Kabupaten Ngada, Nusa Tenggara Tim.",NUSA TENGGARA TIMUR,,Indonesia,,,,-84.198.196,121.026.772,https://maps.google.com/?cid=0x0:0x6c10cfa017ed05ce,
hotel,hotel,Sibento Komodo Homestay,"Cowang Dereng, Jl. Frans Nala, RT.06/RW.03, Labuan Bajo, Kabupaten Manggarai Barat, Nusa Tenggara Tim. 86554","Jl. Frans Nala, RT.06/RW.03, Labuan Bajo, Kabupaten Manggarai Barat",NUSA TENGGARA TIMUR,86554.0,Indonesia,81339034847,,,-84.891.736,1.198.940.624,https://maps.google.com/?cid=0x0:0x42b79be115725d55,
hotel,hotel,Mayo Homestay,"Langgo Kopi No.Kelurahan, Carep, Kec. Langke Rembong, Kabupaten Manggarai, Nusa Tenggara Tim. 86519","Carep, Kec. Langke Rembong, Kabupaten Manggarai",NUSA TENGGARA TIMUR,86519.0,Indonesia,81236458028,,,-86.102.356,1.204.838.422,https://maps.google.com/?cid=0x0:0x3d46c35564b57104,
hotel,hotel,WISMA PO'ONG,"9FQQ+HG, Carep, Kec. Langke Rembong, Kabupaten Manggarai, Nusa Tenggara Tim.","Kabupaten Manggarai, Nusa Tenggara Tim.",NUSA TENGGARA TIMUR,,Indonesia,82138349105,,,-86.111.199,1.204.888.736,https://maps.google.com/?cid=0x0:0xba5ae6f798bb1968,
hotel,hotel,Tempode Resort,"Jln raya, Reo, kedindi, Kabupaten Manggarai, Nusa Tenggara Tim. 08592","Reo, kedindi, Kabupaten Manggarai",NUSA TENGGARA TIMUR,8592.0,Indonesia,82342222939,,,-82.971.653,1.204.665.642,https://maps.google.com/?cid=0x0:0x90b5654626f1603e,
hotel,hotel,Hotel Paradiso-Reo-Manggarai NTT,"Unnamed Road, Mata Air, Kec. Reok, Kabupaten Manggarai, Nusa Tenggara Tim.","Kabupaten Manggarai, Nusa Tenggara Tim.",NUSA TENGGARA TIMUR,,Indonesia,,,,-83.118.239,120.483.121,https://maps.google.com/?cid=0x0:0x439ef200adb3de93,
hotel,hotel,Riung Guest House,"Bajawa, Jl. Trans Flores, Benteng Tengah, Kec. Riung, Kabupaten Ngada, Nusa Tenggara Tim.","Kabupaten Ngada, Nusa Tenggara Tim.",NUSA TENGGARA TIMUR,,Indonesia,81239564009,,,-84.261.562,1.210.252.731,https://maps.google.com/?cid=0x0:0x112a338a20e97b01,
hotel,hotel,Cafe Del Mar,"H2JG+RQF, Nangamese, Kec. Riung, Kabupaten Ngada, Nusa Tenggara Tim.","Kabupaten Ngada, Nusa Tenggara Tim.",NUSA TENGGARA TIMUR,,Indonesia,,,,-84.179.465,1.210.269.191,https://maps.google.com/?cid=0x0:0xe1f74127261eb048,
hotel,hotel,J~Rima Homestay,"8JFV+755, Gang Kapela Peot Kelurahan Satar Peot, Poco Rii, Kec. Borong, Kabupaten Manggarai Timur, Nusa Tenggara Tim.","Kabupaten Manggarai Timur, Nusa Tenggara Tim.",NUSA TENGGARA TIMUR,,Indonesia,82235131819,,,-86.768.575,1.206.429.991,https://maps.google.com/?cid=0x0:0xe87d54bff89e1c1a,
hotel,hotel,Puri Komodo Resort,"JL. El Tari, No. 5, Lohayong Larantuka, Nggorang, Kec. Komodo, Kabupaten Manggarai Barat, Nusa Tenggara Tim. 86215","No. 5, Lohayong Larantuka, Nggorang, Kec. Komodo, Kabupaten Manggarai Barat",NUSA TENGGARA TIMUR,86215.0,Indonesia,38541319,,,-8.541.809,119.945.798,https://maps.google.com/?cid=0x0:0xdbc126ef4118e823,
hotel,hotel,HQA INN 101 RedPartner,"9F6M+3VQ, Jl, Tenda, Kec. Langke Rembong, Kabupaten Manggarai, Nusa Tenggara Tim. 86518","Jl, Tenda, Kec. Langke Rembong, Kabupaten Manggarai",NUSA TENGGARA TIMUR,86518.0,Indonesia,2180629666,,,-8.639.796,120.484.724,https://maps.google.com/?cid=0x0:0xc81fc785c958d44f,
hotel,hotel,Hotel Kasih Sayang Borong Manggarai Timur,"5JR4+5MP, Rana Loba, Kec. Borong, Kabupaten Manggarai Timur, Nusa Tenggara Tim.","Kabupaten Manggarai Timur, Nusa Tenggara Tim.",NUSA TENGGARA TIMUR,,Indonesia,81238337643,,,-88.095.463,1.206.067.096,https://maps.google.com/?cid=0x0:0x89fd05e16497938e,
hotel,hotel,Kec. Elar,"Kabupaten Manggarai Timur, Nusa Tenggara Tim.","Kabupaten Manggarai Timur, Nusa Tenggara Tim.",NUSA TENGGARA TIMUR,,Indonesia,,,,-84.244.952,1.208.728.615,https://maps.google.com/?cid=0x0:0xa3e720c639fa11c4,
hotel,hotel,"4 Pohon Ecolodge — Les 4 Arbres"" Flores Indonesia""","Golo Lijun, Kec. Elar, Kabupaten Manggarai Timur, Nusa Tenggara Tim. 86584","Kec. Elar, Kabupaten Manggarai Timur",NUSA TENGGARA TIMUR,86584.0,Indonesia,8123623803,,,-8.378.094,1.209.025.395,https://maps.google.com/?cid=0x0:0xd39b0442739f7de6,
hotel,hotel,"Loca Lobo Lodges , Riung","Jalan Raya Riung Labuan, Klambu, Kec. Riung, Kabupaten Ngada, Nusa Tenggara Tim. 86419","Klambu, Kec. Riung, Kabupaten Ngada",NUSA TENGGARA TIMUR,86419.0,Indonesia,81338587124,,,-83.675.779,1.209.548.051,https://maps.google.com/?cid=0x0:0x71a6e776c677a178,
hotel,hotel,Nirvana Bungalows RIUNG / Nirvana RIUNG,"Nirvana Road, Nangamese, Kec. Riung, Kabupaten Ngada, Nusa Tenggara Tim.","Kabupaten Ngada, Nusa Tenggara Tim.",NUSA TENGGARA TIMUR,,Indonesia,81338528529,,,-84.184.645,1.210.292.928,https://maps.google.com/?cid=0x0:0xcecab3c11952c396,
hotel,hotel,Mentos bungalows Riung,"Benteng Tengah, Kec. Riung, Kabupaten Ngada, Nusa Tenggara Tim.","Kabupaten Ngada, Nusa Tenggara Tim.",NUSA TENGGARA TIMUR,,Indonesia,81236210351,,,-84.183.789,1.210.278.509,https://maps.google.com/?cid=0x0:0x458de4876724d2c5,
hotel,hotel,Hotel Bintang Wisata Riung,"Pasar Riung, Nangamese, Ngada, Kabupaten Ngada, Nusa Tenggara Tim. 86413","Nangamese, Ngada, Kabupaten Ngada",NUSA TENGGARA TIMUR,86413.0,Indonesia,81246130831,,,-84.216.979,1.210.276,https://maps.google.com/?cid=0x0:0xb52401ae12d0c70e,
hotel,hotel,Penginapan Tiga Empat Tujuh,"H2JG+3PC, Nangamese, Kec. Riung, Kabupaten Ngada, Nusa Tenggara Tim.","Kabupaten Ngada, Nusa Tenggara Tim.",NUSA TENGGARA TIMUR,,Indonesia,,,,-84.198.196,121.026.772,https://maps.google.com/?cid=0x0:0x6c10cfa017ed05ce,
hotel,hotel,Lalong Terong Guest House,"H2FF+95M, Benteng Tengah, Kec. Riung, Kabupaten Ngada, Nusa Tenggara Tim.","Kabupaten Ngada, Nusa Tenggara Tim.",NUSA TENGGARA TIMUR,,Indonesia,81392260506,,,-84.265.291,1.210.229.223,https://maps.google.com/?cid=0x0:0x57ec504013cc24e9,
hotel,hotel,Pondok SVD Riung,"H2HG+CWC Pondok SVD, Nangamese, Kec. Riung, Kabupaten Ngada, Nusa Tenggara Tim.","Kabupaten Ngada, Nusa Tenggara Tim.",NUSA TENGGARA TIMUR,,Indonesia,81339341572,,,-84.214.305,1.210.272.598,https://maps.google.com/?cid=0x0:0xb912826d60152fe1,
hotel,hotel,Hotel Silverin Bajawa,"Jl. Trans Flores Bajawa-Ende Km. 04, Bajawa, Kabupaten Ngada, Nusa Tenggara Tim. 86411","Bajawa, Kabupaten Ngada",NUSA TENGGARA TIMUR,86411.0,Indonesia,3842225506,,,-88.068.765,1.209.768.528,https://maps.google.com/?cid=0x0:0xa57ca8b51e4d7ac3,
hotel,hotel,RD Hotel Resto and Familly Karoke,"GV6W+5RF, Batu Cermin, Kec. Komodo, Kabupaten Manggarai Barat, Nusa Tenggara Tim.","Kabupaten Manggarai Barat, Nusa Tenggara Tim.",NUSA TENGGARA TIMUR,,Indonesia,82237920898,,,-84.895.586,1.198.970.086,https://maps.google.com/?cid=0x0:0x9f834953caf3a4fc,
hotel,hotel,Pauls Homestay,"Sita, Kec. Borong, Kabupaten Manggarai Timur, Nusa Tenggara Tim.","Kabupaten Manggarai Timur, Nusa Tenggara Tim.",NUSA TENGGARA TIMUR,,Indonesia,8124662379,,,-87.759.011,1.205.788.654,https://maps.google.com/?cid=0x0:0x86d715bde590e331,
hotel,hotel,El Ora Hotel  Eatery Labuan Bajo,"Jl. Yohanis Sahadun No.8, Labuan Bajo, Kec. Komodo, Kabupaten Manggarai Barat, Nusa Tenggara Tim.","Kabupaten Manggarai Barat, Nusa Tenggara Tim.",NUSA TENGGARA TIMUR,,Indonesia,85106077731,,,-84.956.322,1.198.857.116,https://maps.google.com/?cid=0x0:0xe53b28681242ee9c,
hotel,hotel,Bajawa Roo Hotel,"Jln. Martadinatha, RT Ngali, Trikora, Bajawa, Flores, East Nusa Tenggara 86411","RT Ngali, Trikora, Bajawa, Flores",NUSA TENGGARA TIMUR,86411.0,Indonesia,81338639607,,,-87.846.152,1.209.692.896,https://maps.google.com/?cid=0x0:0x7602b2bd0e921492,
hotel,hotel,BERLIAN HOTEL,"Jl. Kelimutu No.7, Kel. Onekore, Kec. Ende Tengah, Kabupaten Ende, Nusa Tenggara Tim.","Kabupaten Ende, Nusa Tenggara Tim.",NUSA TENGGARA TIMUR,,Indonesia,81353390308,,,-88.424.389,121.650.632,https://maps.google.com/?cid=0x0:0xcb36d70d4e492c3,
hotel,hotel,Riung Guest House,"Bajawa, Jl. Trans Flores, Benteng Tengah, Kec. Riung, Kabupaten Ngada, Nusa Tenggara Tim.","Kabupaten Ngada, Nusa Tenggara Tim.",NUSA TENGGARA TIMUR,,Indonesia,81239564009,,,-84.261.562,1.210.252.731,https://maps.google.com/?cid=0x0:0x112a338a20e97b01,
hotel,hotel,Mehara Hotel,"Jl. Mutiara Gg Tuna, RT.04/RW.02, Labuan Bajo, Kec. Komodo, Kabupaten Manggarai Barat, Nusa Tenggara Tim.","Kabupaten Manggarai Barat, Nusa Tenggara Tim.",NUSA TENGGARA TIMUR,,Indonesia,82147725594,,,-84.898.415,1.198.776.784,https://maps.google.com/?cid=0x0:0x35b1989fa2092ceb,
hotel,hotel,Cafe Del Mar,"H2JG+RQF, Nangamese, Kec. Riung, Kabupaten Ngada, Nusa Tenggara Tim.","Kabupaten Ngada, Nusa Tenggara Tim.",NUSA TENGGARA TIMUR,,Indonesia,,,,-84.179.465,1.210.269.191,https://maps.google.com/?cid=0x0:0xe1f74127261eb048,
hotel,hotel,Tanawatu Hill Cottage  Camp Site,"9336+RJG, RT.02, Nginamanu, Kec. Wolomeze, Kabupaten Ngada, Nusa Tenggara Tim.","Kabupaten Ngada, Nusa Tenggara Tim.",NUSA TENGGARA TIMUR,,Indonesia,81292896192,,,-86.454.396,1.210.615.907,https://maps.google.com/?cid=0x0:0xba3d9065ef552c9e,
hotel,hotel,Hotel Pantai Timor,"Jl. Sumatera No.44, Todekisar, Kec. Kota Lama, Kota Kupang, Nusa Tenggara Tim. 85112","Todekisar, Kec. Kota Lama, Kota Kupang",NUSA TENGGARA TIMUR,85112.0,Indonesia,81246007575,,,-10.156.643,1.235.861.881,https://maps.google.com/?cid=0x0:0x9d8021fff494156,
hotel,hotel,Omah Erma Lenkosamby Barat Riung,"Jl.Pantai, Lengkosambi Bar., Kec. Riung, Flores-NTT, Nusa Tenggara Tim.","Flores-NTT, Nusa Tenggara Tim.",NUSA TENGGARA TIMUR,,Indonesia,81246224886,,,-84.363.908,1.211.247.173,https://maps.google.com/?cid=0x0:0x2d5ed646680b16a4,
hotel,hotel,Theodor Hotel Labuan Bajo,"Labuan Bajo, Jl Verhouven, Bukit Kelumpang, Batu Cermin, Kec. Komodo, Bajoo, Nusa Tenggara Tim.","Bajoo, Nusa Tenggara Tim.",NUSA TENGGARA TIMUR,,Indonesia,82144722426,,,-84.668.739,11.989.813,https://maps.google.com/?cid=0x0:0x711f959a4d9a0b50,
hotel,hotel,Sun Rice Homestay,"CFG2+VHC, Unnamed Road, Bangka Kenda, Kec. Wae Rii, Kabupaten Manggarai, Nusa Tenggara Tim.","Kabupaten Manggarai, Nusa Tenggara Tim.",NUSA TENGGARA TIMUR,,Indonesia,82339736102,,,-85.728.218,1.204.513.925,https://maps.google.com/?cid=0x0:0xd0093d47e38d7ffc,
hotel,hotel,J~Rima Homestay,"8JFV+755, Gang Kapela Peot Kelurahan Satar Peot, Poco Rii, Kec. Borong, Kabupaten Manggarai Timur, Nusa Tenggara Tim.","Kabupaten Manggarai Timur, Nusa Tenggara Tim.",NUSA TENGGARA TIMUR,,Indonesia,82235131819,,,-86.768.575,1.206.429.991,https://maps.google.com/?cid=0x0:0xe87d54bff89e1c1a,
hotel,hotel,"Hotel Satar Mese,Aula dan Kolam Renang","5M56+GG4, Jalan Eltari, Ende Tengah, Kel. Mautapaga, Kec. Ende, Kabupaten Ende, Nusa Tenggara Tim.","Kabupaten Ende, Nusa Tenggara Tim.",NUSA TENGGARA TIMUR,,Indonesia,85232220007,,,-88.412.383,1.216.613.313,https://maps.google.com/?cid=0x0:0xbab8f1c085161a8f,
hotel,hotel,Le Labe Homestay,"Jl. Komodo, Pitak, Kec. Langke Rembong, Kabupaten Manggarai, Nusa Tenggara Tim.","Kabupaten Manggarai, Nusa Tenggara Tim.",NUSA TENGGARA TIMUR,,Indonesia,,,,-86.045.987,1.204.603.042,https://maps.google.com/?cid=0x0:0x2e9df3b820e24fea,
hotel,hotel,Kec. Kota Komba,"Kabupaten Manggarai Timur, Nusa Tenggara Tim.","Kabupaten Manggarai Timur, Nusa Tenggara Tim.",NUSA TENGGARA TIMUR,,Indonesia,,,,-88.273.426,1.208.051.136,https://maps.google.com/?cid=0x0:0xb5521e292aca4357,
hotel,hotel,Gemo Cottage Beach Aimere,"Jl. Raya Lintas Flores, Aimere, Kec. Aimere, Kabupaten Ngada, Nusa Tenggara Tim. 86452","Aimere, Kec. Aimere, Kabupaten Ngada",NUSA TENGGARA TIMUR,86452.0,Indonesia,82299919939,,,-88.298.245,1.208.330.943,https://maps.google.com/?cid=0x0:0x965aa0b1baa5ea18,
hotel,hotel,Wisma Guesthouse Leko Lembo,"5Q4P+8QV, Watu Nggene, Kec. Kota Komba, Kabupaten Manggarai Timur, Nusa Tenggara Tim.","Kabupaten Manggarai Timur, Nusa Tenggara Tim.",NUSA TENGGARA TIMUR,,Indonesia,82236639712,,,-88.441.349,1.207.869.134,https://maps.google.com/?cid=0x0:0xe9735f852146601c,
hotel,hotel,,,,NUSA TENGGARA TIMUR,,Indonesia,,,,,,https://maps.google.com/?cid=0x0:0x3dd8b2ed1bc3e37a%7C/g/11f79l1_6b%7Cid-ID,
hotel,hotel,Mbalata Beach Cottage,"5R63+642, Watu Nggene, Kec. Kota Komba, Kabupaten Manggarai Timur, Nusa Tenggara Tim.","Kabupaten Manggarai Timur, Nusa Tenggara Tim.",NUSA TENGGARA TIMUR,,Indonesia,85338517002,,,-88.394.805,1.208.027.686,https://maps.google.com/?cid=0x0:0xdf5006da359151fa,
hotel,hotel,MAMA KOMODO,"Jl. Jati Putih. Batu Cermin, Labuan Bajo, Kec. Komodo, Kabupaten Manggarai Barat, Nusa Tenggara Tim.","Kabupaten Manggarai Barat, Nusa Tenggara Tim.",NUSA TENGGARA TIMUR,,Indonesia,82312191132,,,-84.766.392,1.199.033.277,https://maps.google.com/?cid=0x0:0x3c1537b20e2effb3,
hotel,hotel,RedDoorz @ Hotel Gloria Borong,"Toka, RT.004/RW.002, Nanga Labang, Kec. Borong, Kabupaten Manggarai Timur, Nusa Tenggara Tim. 86571","RT.004/RW.002, Nanga Labang, Kec. Borong, Kabupaten Manggarai Timur",NUSA TENGGARA TIMUR,86571.0,Indonesia,81339206709,,,-88.120.123,1.205.780.925,https://maps.google.com/?cid=0x0:0xadced0bc705bb512,
hotel,hotel,Hotel Silverin Bajawa,"Jl. Trans Flores Bajawa-Ende Km. 04, Bajawa, Kabupaten Ngada, Nusa Tenggara Tim. 86411","Bajawa, Kabupaten Ngada",NUSA TENGGARA TIMUR,86411.0,Indonesia,3842225506,,,-88.068.765,1.209.768.528,https://maps.google.com/?cid=0x0:0xa57ca8b51e4d7ac3,
hotel,hotel,Penginapan Manulalu,"Jalan. Mangulewa Jerebu'u, Tiworiwu, Kec. Jerebuu, Kabupaten Ngada, Nusa Tenggara Tim.","Kabupaten Ngada, Nusa Tenggara Tim.",NUSA TENGGARA TIMUR,,Indonesia,82144774417,,,-88.632.173,1.209.944.403,https://maps.google.com/?cid=0x0:0x349a06c91182b160,
hotel,hotel,new bintang hotel,"6X3G+HJ6, bokua,bajawa,kabupaten ngada, Bajawa, bajawa, Nusa Tenggara Tim. 86431","bokua,bajawa,kabupaten ngada, Bajawa, bajawa",NUSA TENGGARA TIMUR,86431.0,Indonesia,81237504359,,,-87.960.915,120.976.501,https://maps.google.com/?cid=0x0:0x7659dc5a443aab1b,
hotel,hotel,Sun Rice Homestay,"CFG2+VHC, Unnamed Road, Bangka Kenda, Kec. Wae Rii, Kabupaten Manggarai, Nusa Tenggara Tim.","Kabupaten Manggarai, Nusa Tenggara Tim.",NUSA TENGGARA TIMUR,,Indonesia,82339736102,,,-85.728.218,1.204.513.925,https://maps.google.com/?cid=0x0:0xd0093d47e38d7ffc,
hotel,hotel,Komodo Boutique Hotel,"Labuan Bajo, Jalan Raya Sernaru, Wae Kelambu, Kec. Komodo, Flores, Nusa Tenggara Tim. 86554","Jalan Raya Sernaru, Wae Kelambu, Kec. Komodo, Flores",NUSA TENGGARA TIMUR,86554.0,Indonesia,81213162968,,,-85.059.914,1.199.025.001,https://maps.google.com/?cid=0x0:0x5bd707fad246785e,
hotel,hotel,Bajawa Roo Hotel,"Jln. Martadinatha, RT Ngali, Trikora, Bajawa, Flores, East Nusa Tenggara 86411","RT Ngali, Trikora, Bajawa, Flores",NUSA TENGGARA TIMUR,86411.0,Indonesia,81338639607,,,-87.846.152,1.209.692.896,https://maps.google.com/?cid=0x0:0x7602b2bd0e921492,
hotel,hotel,,,,NUSA TENGGARA TIMUR,,Indonesia,,,,,,https://maps.google.com/?cid=0x0:0xb19ea661e99159f9%7C/g/11clyz1wmh%7Cid-ID,
hotel,hotel,Komodo Lodge,"GV6G+4WJ, Jalan Mutiara, Kampung Ujung, Jl. Mutiara, Labuan Bajo, Kec. Komodo, Kabupaten Manggarai Barat, Nusa Tenggara Tim.","Kabupaten Manggarai Barat, Nusa Tenggara Tim.",NUSA TENGGARA TIMUR,,Indonesia,38541377,,,-84.896.438,1.198.772.604,https://maps.google.com/?cid=0x0:0xb19ea661e99159f9,
hotel,hotel,Cinnamon Guesthouse,"Jl. Ahmad Yani No.71, Tanalodu, Bajawa, Kabupaten Ngada, Nusa Tenggara Tim.","Kabupaten Ngada, Nusa Tenggara Tim.",NUSA TENGGARA TIMUR,,Indonesia,85237934918,,,-87.921.322,120.974.131,https://maps.google.com/?cid=0x0:0xe97dae13df254b03,
hotel,hotel,Lucas Authentic Lodge,"Jl. Hayam Wuruk, Tanalodu, Bajawa, Kabupaten Ngada, Nusa Tenggara Tim.","Kabupaten Ngada, Nusa Tenggara Tim.",NUSA TENGGARA TIMUR,,Indonesia,81238799773,,,-87.917.677,1.209.741.875,https://maps.google.com/?cid=0x0:0xb791056f3f272072,
hotel,hotel,"MAWAR"" Bed and Breakfast""","6X5F+J7W, Tanalodu, Bajawa, Kabupaten Ngada, Nusa Tenggara Tim.","Kabupaten Ngada, Nusa Tenggara Tim.",NUSA TENGGARA TIMUR,,Indonesia,81238722969,,,-87.908.776,1.209.732.008,https://maps.google.com/?cid=0x0:0x36aba126f727d71,
hotel,hotel,Kristian Homestay,"6X4G+H4P, Unnamed Road, Bajawa, Kabupaten Ngada, Nusa Tenggara Tim.","Kabupaten Ngada, Nusa Tenggara Tim.",NUSA TENGGARA TIMUR,,Indonesia,81339480142,,,-87.935.334,1.209.753.132,https://maps.google.com/?cid=0x0:0x1fe97ebc303d5d72,
hotel,hotel,Aryanth home stay,"Unnamed Road, Aimere, Kec. Aimere, Kabupaten Ngada, Nusa Tenggara Tim.","Kabupaten Ngada, Nusa Tenggara Tim.",NUSA TENGGARA TIMUR,,Indonesia,81235199006,,,-88.310.203,1.208.305.892,https://maps.google.com/?cid=0x0:0xf23b2616749f37f4,
hotel,hotel,Arnolds Family Homestay,"Jl. El Tari, Trikora, Bajawa, Kabupaten Ngada, Nusa Tenggara Tim. 86514","Trikora, Bajawa, Kabupaten Ngada",NUSA TENGGARA TIMUR,86514.0,Indonesia,,,,-87.861.305,1.209.702.128,https://maps.google.com/?cid=0x0:0x338ad602d6eda750,
hotel,hotel,CF Komodo Hotel,"GV5J+4M6, Labuan Bajo, Kec. Komodo, Kabupaten Manggarai Barat, Nusa Tenggara Tim.","Kabupaten Manggarai Barat, Nusa Tenggara Tim.",NUSA TENGGARA TIMUR,,Indonesia,81337876334,,,-8.492.213,1.198.816.404,https://maps.google.com/?cid=0x0:0xe452e337a7c8d91c,
hotel,hotel,Pauls Homestay,"Sita, Kec. Borong, Kabupaten Manggarai Timur, Nusa Tenggara Tim.","Kabupaten Manggarai Timur, Nusa Tenggara Tim.",NUSA TENGGARA TIMUR,,Indonesia,8124662379,,,-87.759.011,1.205.788.654,https://maps.google.com/?cid=0x0:0x86d715bde590e331,
hotel,hotel,Sibento Komodo Homestay,"Cowang Dereng, Jl. Frans Nala, RT.06/RW.03, Labuan Bajo, Kabupaten Manggarai Barat, Nusa Tenggara Tim. 86554","Jl. Frans Nala, RT.06/RW.03, Labuan Bajo, Kabupaten Manggarai Barat",NUSA TENGGARA TIMUR,86554.0,Indonesia,81339034847,,,-84.891.736,1.198.940.624,https://maps.google.com/?cid=0x0:0x42b79be115725d55,
hotel,hotel,Vernado Homestay,"6X5G+95G, Jl. Ahmad Yani, Tanalodu, Bajawa, Kabupaten Ngada, Nusa Tenggara Tim.","Kabupaten Ngada, Nusa Tenggara Tim.",NUSA TENGGARA TIMUR,,Indonesia,82237204519,,,-87.915.623,1.209.754.424,https://maps.google.com/?cid=0x0:0xcf7a001d89850eaf,
hotel,hotel,Kec. Rana Mese,"Kabupaten Manggarai Timur, Nusa Tenggara Tim.","Kabupaten Manggarai Timur, Nusa Tenggara Tim.",NUSA TENGGARA TIMUR,,Indonesia,,,,-8.368.917,1.203.459.156,https://maps.google.com/?cid=0x0:0x866acef55b6f1bf6,
hotel,hotel,Hotel Sindha,"Jl. Yos Sudarso No.24-26, Mbaumuku, Kec. Langke Rembong, Kabupaten Manggarai, Nusa Tenggara Tim. 86511","Mbaumuku, Kec. Langke Rembong, Kabupaten Manggarai",NUSA TENGGARA TIMUR,86511.0,Indonesia,38521197,,,-86.079.311,1.204.668.603,https://maps.google.com/?cid=0x0:0xfdb2d3b5614172c1,
hotel,hotel,REVAYAH Hotel Ruteng,"Carep, Langke Rembong, Carep, Kec. Langke Rembong, Kabupaten Manggarai, Nusa Tenggara Tim.","Kabupaten Manggarai, Nusa Tenggara Tim.",NUSA TENGGARA TIMUR,,Indonesia,85134407014,,,-86.125.667,1.204.817.408,https://maps.google.com/?cid=0x0:0xf389f7a1aa16a0a5,
hotel,hotel,Pauls Homestay,"Sita, Kec. Borong, Kabupaten Manggarai Timur, Nusa Tenggara Tim.","Kabupaten Manggarai Timur, Nusa Tenggara Tim.",NUSA TENGGARA TIMUR,,Indonesia,8124662379,,,-87.759.011,1.205.788.654,https://maps.google.com/?cid=0x0:0x86d715bde590e331,
hotel,hotel,Sun Rice Homestay,"CFG2+VHC, Unnamed Road, Bangka Kenda, Kec. Wae Rii, Kabupaten Manggarai, Nusa Tenggara Tim.","Kabupaten Manggarai, Nusa Tenggara Tim.",NUSA TENGGARA TIMUR,,Indonesia,82339736102,,,-85.728.218,1.204.513.925,https://maps.google.com/?cid=0x0:0xd0093d47e38d7ffc,
hotel,hotel,Skipper House,"Jl. Ulumbu, Watu, Kec. Langke Rembong, Kabupaten Manggarai, Nusa Tenggara Tim. 86511","Watu, Kec. Langke Rembong, Kabupaten Manggarai",NUSA TENGGARA TIMUR,86511.0,Indonesia,81322014981,,,-86.211.079,1.204.650.825,https://maps.google.com/?cid=0x0:0x9d33595864fd9cf3,
hotel,hotel,MJR Ticketing Guest House,"Jl. NIAGA NO. 23 Shopping center district, Downtown, Nusa Tenggara Tim. 86511",Downtown,NUSA TENGGARA TIMUR,86511.0,Indonesia,85239237227,,,-8.608.858,1.204.648.062,https://maps.google.com/?cid=0x0:0x9af2b3a19de97021,
hotel,hotel,D-Rima Homestay,"Mbaumuku, Kec. Langke Rembong, Kabupaten Manggarai, Nusa Tenggara Tim.","Kabupaten Manggarai, Nusa Tenggara Tim.",NUSA TENGGARA TIMUR,,Indonesia,81379581188,,,-86.053.096,1.204.680.183,https://maps.google.com/?cid=0x0:0xb2e300d5998124c2,
hotel,hotel,Chacha Homestay  Dormitory,"Jl. Diponegoro No.12, Watu, Flores, Kabupaten Manggarai, Nusa Tenggara Tim. 86511","Watu, Flores, Kabupaten Manggarai",NUSA TENGGARA TIMUR,86511.0,Indonesia,81236989009,,,-86.153.409,1.204.653.172,https://maps.google.com/?cid=0x0:0x1f5ccf0f92f9bdb9,
hotel,hotel,Victory Hotel Ruteng,"Jl. Kartini No.06, Lawir, Kec. Langke Rembong, Kabupaten Manggarai, Nusa Tenggara Tim. 86516","Lawir, Kec. Langke Rembong, Kabupaten Manggarai",NUSA TENGGARA TIMUR,86516.0,Indonesia,81236168888,,,-86.125.186,1.204.627.428,https://maps.google.com/?cid=0x0:0x680628423ac64f05,
hotel,hotel,Ruteng Hostel,"9FP3+5MM, Jl. Anggrek Utara, Pau, Kec. Langke Rembong, Kabupaten Manggarai, Nusa Tenggara Tim.","Kabupaten Manggarai, Nusa Tenggara Tim.",NUSA TENGGARA TIMUR,,Indonesia,82181696949,,,-86.147.117,1.204.540.858,https://maps.google.com/?cid=0x0:0x5a799d202e1a1a7f,
hotel,hotel,Tange Guest House,"Jl. Satar Tacik, Tenda, Kec. Langke Rembong, Kabupaten Manggarai, Nusa Tenggara Tim. 86518","Tenda, Kec. Langke Rembong, Kabupaten Manggarai",NUSA TENGGARA TIMUR,86518.0,Indonesia,82236765950,,,-86.040.129,1.204.766.114,https://maps.google.com/?cid=0x0:0xb64495ec7860e6d8,
hotel,hotel,Karleta homestay,"Pau, Kec. Langke Rembong, Kabupaten Manggarai, Nusa Tenggara Tim.","Kabupaten Manggarai, Nusa Tenggara Tim.",NUSA TENGGARA TIMUR,,Indonesia,81338434271,,,-86.247.392,1.204.480.249,https://maps.google.com/?cid=0x0:0xc0cae5850d7fc6c8,
hotel,hotel,Hotel FX 72 Ruteng,"Wali, Kec. Langke Rembong, Kabupaten Manggarai, Nusa Tenggara Tim.","Kabupaten Manggarai, Nusa Tenggara Tim.",NUSA TENGGARA TIMUR,,Indonesia,81225173148,,,-85.910.064,1.204.614.834,https://maps.google.com/?cid=0x0:0x27aa5e70ae5495a7,
hotel,hotel,LovKend Homestay,"Jl. Glodial, Pau, Kec. Langke Rembong, Kabupaten Manggarai, Nusa Tenggara Tim. 86500","Pau, Kec. Langke Rembong, Kabupaten Manggarai",NUSA TENGGARA TIMUR,86500.0,Indonesia,82340627973,,,-86.194.484,1.204.517.104,https://maps.google.com/?cid=0x0:0x2475ca1d304f1f4f,
hotel,hotel,Ara Garden Inn,"Jalan Gewak 1, Nteer, Kelurahan Poco Mal, Tenda, Langke Rembong, Manggarai Regency, East Nusa Tenggara 86518","Nteer, Kelurahan Poco Mal, Tenda, Langke Rembong, Manggarai Regency",NUSA TENGGARA TIMUR,86518.0,Indonesia,85712971420,,,-86.166.244,1.204.786.394,https://maps.google.com/?cid=0x0:0x21c2f53b1dc02aa3,
hotel,hotel,WISMA PO'ONG,"9FQQ+HG, Carep, Kec. Langke Rembong, Kabupaten Manggarai, Nusa Tenggara Tim.","Kabupaten Manggarai, Nusa Tenggara Tim.",NUSA TENGGARA TIMUR,,Indonesia,82138349105,,,-86.111.199,1.204.888.736,https://maps.google.com/?cid=0x0:0xba5ae6f798bb1968,
hotel,hotel,Hobbit Hill Homestay,"CF64+77F, Wali, Kec. Langke Rembong, Kabupaten Manggarai, Nusa Tenggara Tim.","Kabupaten Manggarai, Nusa Tenggara Tim.",NUSA TENGGARA TIMUR,,Indonesia,81246487553,,,-85.894.152,1.204.564.399,https://maps.google.com/?cid=0x0:0x5195107ebad1a36a,
hotel,hotel,Mayo Homestay,"Langgo Kopi No.Kelurahan, Carep, Kec. Langke Rembong, Kabupaten Manggarai, Nusa Tenggara Tim. 86519","Carep, Kec. Langke Rembong, Kabupaten Manggarai",NUSA TENGGARA TIMUR,86519.0,Indonesia,81236458028,,,-86.102.356,1.204.838.422,https://maps.google.com/?cid=0x0:0x3d46c35564b57104,
hotel,hotel,Mama's Homestay Ruteng - We are open for bookings!,"Nekang, Nusa Tenggara Tim. 86511","Kabupaten Manggarai, Nusa Tenggara Tim.",NUSA TENGGARA TIMUR,,Indonesia,82341070971,,,-86.186.809,1.204.689.891,https://maps.google.com/?cid=0x0:0x3e8b0043213bd2d2,
hotel,hotel,"RUTENG GLAMPING AND CAMPSITE (View Point, Sunrise/Moonrise view)","BAHONG, JALAN TRANS FLORES, Poco Likang, Kec. Ruteng, Kabupaten Manggarai, Nusa Tenggara Tim. 86511","JALAN TRANS FLORES, Poco Likang, Kec. Ruteng, Kabupaten Manggarai",NUSA TENGGARA TIMUR,86511.0,Indonesia,81286458296,,,-8.605.151,1.204.276.585,https://maps.google.com/?cid=0x0:0xc07575ac07ab53fb,
hotel,hotel,Kec. Poco Ranaka Timur,"Kabupaten Manggarai Timur, Nusa Tenggara Tim.","Kabupaten Manggarai Timur, Nusa Tenggara Tim.",NUSA TENGGARA TIMUR,,Indonesia,,,,-85.543.382,120.618.277,https://maps.google.com/?cid=0x0:0x1564295fdcda3229,
hotel,hotel,Sun Rice Homestay,"CFG2+VHC, Unnamed Road, Bangka Kenda, Kec. Wae Rii, Kabupaten Manggarai, Nusa Tenggara Tim.","Kabupaten Manggarai, Nusa Tenggara Tim.",NUSA TENGGARA TIMUR,,Indonesia,82339736102,,,-85.728.218,1.204.513.925,https://maps.google.com/?cid=0x0:0xd0093d47e38d7ffc,
hotel,hotel,Ara Garden Inn,"Jalan Gewak 1, Nteer, Kelurahan Poco Mal, Tenda, Langke Rembong, Manggarai Regency, East Nusa Tenggara 86518","Nteer, Kelurahan Poco Mal, Tenda, Langke Rembong, Manggarai Regency",NUSA TENGGARA TIMUR,86518.0,Indonesia,85712971420,,,-86.166.244,1.204.786.394,https://maps.google.com/?cid=0x0:0x21c2f53b1dc02aa3,
hotel,hotel,Hotel Sindha,"Jl. Yos Sudarso No.24-26, Mbaumuku, Kec. Langke Rembong, Kabupaten Manggarai, Nusa Tenggara Tim. 86511","Mbaumuku, Kec. Langke Rembong, Kabupaten Manggarai",NUSA TENGGARA TIMUR,86511.0,Indonesia,38521197,,,-86.079.311,1.204.668.603,https://maps.google.com/?cid=0x0:0xfdb2d3b5614172c1,
hotel,hotel,"RUTENG GLAMPING AND CAMPSITE (View Point, Sunrise/Moonrise view)","BAHONG, JALAN TRANS FLORES, Poco Likang, Kec. Ruteng, Kabupaten Manggarai, Nusa Tenggara Tim. 86511","JALAN TRANS FLORES, Poco Likang, Kec. Ruteng, Kabupaten Manggarai",NUSA TENGGARA TIMUR,86511.0,Indonesia,81286458296,,,-8.605.151,1.204.276.585,https://maps.google.com/?cid=0x0:0xc07575ac07ab53fb,
hotel,hotel,Tange Guest House,"Jl. Satar Tacik, Tenda, Kec. Langke Rembong, Kabupaten Manggarai, Nusa Tenggara Tim. 86518","Tenda, Kec. Langke Rembong, Kabupaten Manggarai",NUSA TENGGARA TIMUR,86518.0,Indonesia,82236765950,,,-86.040.129,1.204.766.114,https://maps.google.com/?cid=0x0:0xb64495ec7860e6d8,
hotel,hotel,D-Rima Homestay,"Mbaumuku, Kec. Langke Rembong, Kabupaten Manggarai, Nusa Tenggara Tim.","Kabupaten Manggarai, Nusa Tenggara Tim.",NUSA TENGGARA TIMUR,,Indonesia,81379581188,,,-86.053.096,1.204.680.183,https://maps.google.com/?cid=0x0:0xb2e300d5998124c2,
hotel,hotel,REVAYAH Hotel Ruteng,"Carep, Langke Rembong, Carep, Kec. Langke Rembong, Kabupaten Manggarai, Nusa Tenggara Tim.","Kabupaten Manggarai, Nusa Tenggara Tim.",NUSA TENGGARA TIMUR,,Indonesia,85134407014,,,-86.125.667,1.204.817.408,https://maps.google.com/?cid=0x0:0xf389f7a1aa16a0a5,
hotel,hotel,Hobbit Hill Homestay,"CF64+77F, Wali, Kec. Langke Rembong, Kabupaten Manggarai, Nusa Tenggara Tim.","Kabupaten Manggarai, Nusa Tenggara Tim.",NUSA TENGGARA TIMUR,,Indonesia,81246487553,,,-85.894.152,1.204.564.399,https://maps.google.com/?cid=0x0:0x5195107ebad1a36a,
hotel,hotel,MJR Ticketing Guest House,"Jl. NIAGA NO. 23 Shopping center district, Downtown, Nusa Tenggara Tim. 86511",Downtown,NUSA TENGGARA TIMUR,86511.0,Indonesia,85239237227,,,-8.608.858,1.204.648.062,https://maps.google.com/?cid=0x0:0x9af2b3a19de97021,
hotel,hotel,Villa Alam Flores Mbohang Ruteng RedPartner,"Bangka Lelak, Kec. Lelak, Kabupaten Manggarai, Nusa Tenggara Tim.","Kabupaten Manggarai, Nusa Tenggara Tim.",NUSA TENGGARA TIMUR,,Indonesia,"8,95417E+11",,,-86.039.953,1.203.402.141,https://maps.google.com/?cid=0x0:0x8eb570b7a23a440,
hotel,hotel,Skipper House,"Jl. Ulumbu, Watu, Kec. Langke Rembong, Kabupaten Manggarai, Nusa Tenggara Tim. 86511","Watu, Kec. Langke Rembong, Kabupaten Manggarai",NUSA TENGGARA TIMUR,86511.0,Indonesia,81322014981,,,-86.211.079,1.204.650.825,https://maps.google.com/?cid=0x0:0x9d33595864fd9cf3,
hotel,hotel,Pauls Homestay,"Sita, Kec. Borong, Kabupaten Manggarai Timur, Nusa Tenggara Tim.","Kabupaten Manggarai Timur, Nusa Tenggara Tim.",NUSA TENGGARA TIMUR,,Indonesia,8124662379,,,-87.759.011,1.205.788.654,https://maps.google.com/?cid=0x0:0x86d715bde590e331,
hotel,hotel,Chacha Homestay  Dormitory,"Jl. Diponegoro No.12, Watu, Flores, Kabupaten Manggarai, Nusa Tenggara Tim. 86511","Watu, Flores, Kabupaten Manggarai",NUSA TENGGARA TIMUR,86511.0,Indonesia,81236989009,,,-86.153.409,1.204.653.172,https://maps.google.com/?cid=0x0:0x1f5ccf0f92f9bdb9,
hotel,hotel,Victory Hotel Ruteng,"Jl. Kartini No.06, Lawir, Kec. Langke Rembong, Kabupaten Manggarai, Nusa Tenggara Tim. 86516","Lawir, Kec. Langke Rembong, Kabupaten Manggarai",NUSA TENGGARA TIMUR,86516.0,Indonesia,81236168888,,,-86.125.186,1.204.627.428,https://maps.google.com/?cid=0x0:0x680628423ac64f05,
hotel,hotel,Karleta homestay,"Pau, Kec. Langke Rembong, Kabupaten Manggarai, Nusa Tenggara Tim.","Kabupaten Manggarai, Nusa Tenggara Tim.",NUSA TENGGARA TIMUR,,Indonesia,81338434271,,,-86.247.392,1.204.480.249,https://maps.google.com/?cid=0x0:0xc0cae5850d7fc6c8,
hotel,hotel,LovKend Homestay,"Jl. Glodial, Pau, Kec. Langke Rembong, Kabupaten Manggarai, Nusa Tenggara Tim. 86500","Pau, Kec. Langke Rembong, Kabupaten Manggarai",NUSA TENGGARA TIMUR,86500.0,Indonesia,82340627973,,,-86.194.484,1.204.517.104,https://maps.google.com/?cid=0x0:0x2475ca1d304f1f4f,
hotel,hotel,Mama's Homestay Ruteng - We are open for bookings!,"Nekang, Nusa Tenggara Tim. 86511","Kabupaten Manggarai, Nusa Tenggara Tim.",NUSA TENGGARA TIMUR,,Indonesia,82341070971,,,-86.186.809,1.204.689.891,https://maps.google.com/?cid=0x0:0x3e8b0043213bd2d2,
hotel,hotel,Ruteng Hostel,"9FP3+5MM, Jl. Anggrek Utara, Pau, Kec. Langke Rembong, Kabupaten Manggarai, Nusa Tenggara Tim.","Kabupaten Manggarai, Nusa Tenggara Tim.",NUSA TENGGARA TIMUR,,Indonesia,82181696949,,,-86.147.117,1.204.540.858,https://maps.google.com/?cid=0x0:0x5a799d202e1a1a7f,
hotel,hotel,WISMA PO'ONG,"9FQQ+HG, Carep, Kec. Langke Rembong, Kabupaten Manggarai, Nusa Tenggara Tim.","Kabupaten Manggarai, Nusa Tenggara Tim.",NUSA TENGGARA TIMUR,,Indonesia,82138349105,,,-86.111.199,1.204.888.736,https://maps.google.com/?cid=0x0:0xba5ae6f798bb1968,
hotel,hotel,Mayo Homestay,"Langgo Kopi No.Kelurahan, Carep, Kec. Langke Rembong, Kabupaten Manggarai, Nusa Tenggara Tim. 86519","Carep, Kec. Langke Rembong, Kabupaten Manggarai",NUSA TENGGARA TIMUR,86519.0,Indonesia,81236458028,,,-86.102.356,1.204.838.422,https://maps.google.com/?cid=0x0:0x3d46c35564b57104,
hotel,hotel,Kec. Elar Selatan,"Kabupaten Manggarai Timur, Nusa Tenggara Tim.","Kabupaten Manggarai Timur, Nusa Tenggara Tim.",NUSA TENGGARA TIMUR,,Indonesia,,,,-86.439.057,1.207.613.321,https://maps.google.com/?cid=0x0:0x29c346791b550200,
hotel,hotel,Gemo Cottage Beach Aimere,"Jl. Raya Lintas Flores, Aimere, Kec. Aimere, Kabupaten Ngada, Nusa Tenggara Tim. 86452","Aimere, Kec. Aimere, Kabupaten Ngada",NUSA TENGGARA TIMUR,86452.0,Indonesia,82299919939,,,-88.298.245,1.208.330.943,https://maps.google.com/?cid=0x0:0x965aa0b1baa5ea18,
hotel,hotel,"4 Pohon Ecolodge — Les 4 Arbres"" Flores Indonesia""","Golo Lijun, Kec. Elar, Kabupaten Manggarai Timur, Nusa Tenggara Tim. 86584","Kec. Elar, Kabupaten Manggarai Timur",NUSA TENGGARA TIMUR,86584.0,Indonesia,8123623803,,,-8.378.094,1.209.025.395,https://maps.google.com/?cid=0x0:0xd39b0442739f7de6,
hotel,hotel,Nuna Bungalows,"Jalan Masjid Punsu, Nangamese, Kec. Riung, Kabupaten Ngada, Nusa Tenggara Tim.","Kabupaten Ngada, Nusa Tenggara Tim.",NUSA TENGGARA TIMUR,,Indonesia,81337043769,,,-84.166.161,121.026.405,https://maps.google.com/?cid=0x0:0x38452698f8c170ce,
hotel,hotel,Hotel Silverin Bajawa,"Jl. Trans Flores Bajawa-Ende Km. 04, Bajawa, Kabupaten Ngada, Nusa Tenggara Tim. 86411","Bajawa, Kabupaten Ngada",NUSA TENGGARA TIMUR,86411.0,Indonesia,3842225506,,,-88.068.765,1.209.768.528,https://maps.google.com/?cid=0x0:0xa57ca8b51e4d7ac3,
hotel,hotel,Penginapan Manulalu,"Jalan. Mangulewa Jerebu'u, Tiworiwu, Kec. Jerebuu, Kabupaten Ngada, Nusa Tenggara Tim.","Kabupaten Ngada, Nusa Tenggara Tim.",NUSA TENGGARA TIMUR,,Indonesia,82144774417,,,-88.632.173,1.209.944.403,https://maps.google.com/?cid=0x0:0x349a06c91182b160,
hotel,hotel,Mentos bungalows Riung,"Benteng Tengah, Kec. Riung, Kabupaten Ngada, Nusa Tenggara Tim.","Kabupaten Ngada, Nusa Tenggara Tim.",NUSA TENGGARA TIMUR,,Indonesia,81236210351,,,-84.183.789,1.210.278.509,https://maps.google.com/?cid=0x0:0x458de4876724d2c5,
hotel,hotel,Cinnamon Guesthouse,"Jl. Ahmad Yani No.71, Tanalodu, Bajawa, Kabupaten Ngada, Nusa Tenggara Tim.","Kabupaten Ngada, Nusa Tenggara Tim.",NUSA TENGGARA TIMUR,,Indonesia,85237934918,,,-87.921.322,120.974.131,https://maps.google.com/?cid=0x0:0xe97dae13df254b03,
hotel,hotel,Nirvana Bungalows RIUNG / Nirvana RIUNG,"Nirvana Road, Nangamese, Kec. Riung, Kabupaten Ngada, Nusa Tenggara Tim.","Kabupaten Ngada, Nusa Tenggara Tim.",NUSA TENGGARA TIMUR,,Indonesia,81338528529,,,-84.184.645,1.210.292.928,https://maps.google.com/?cid=0x0:0xcecab3c11952c396,
hotel,hotel,Lucas Authentic Lodge,"Jl. Hayam Wuruk, Tanalodu, Bajawa, Kabupaten Ngada, Nusa Tenggara Tim.","Kabupaten Ngada, Nusa Tenggara Tim.",NUSA TENGGARA TIMUR,,Indonesia,81238799773,,,-87.917.677,1.209.741.875,https://maps.google.com/?cid=0x0:0xb791056f3f272072,
hotel,hotel,Pauls Homestay,"Sita, Kec. Borong, Kabupaten Manggarai Timur, Nusa Tenggara Tim.","Kabupaten Manggarai Timur, Nusa Tenggara Tim.",NUSA TENGGARA TIMUR,,Indonesia,8124662379,,,-87.759.011,1.205.788.654,https://maps.google.com/?cid=0x0:0x86d715bde590e331,
hotel,hotel,new bintang hotel,"6X3G+HJ6, bokua,bajawa,kabupaten ngada, Bajawa, bajawa, Nusa Tenggara Tim. 86431","bokua,bajawa,kabupaten ngada, Bajawa, bajawa",NUSA TENGGARA TIMUR,86431.0,Indonesia,81237504359,,,-87.960.915,120.976.501,https://maps.google.com/?cid=0x0:0x7659dc5a443aab1b,
hotel,hotel,"MAWAR"" Bed and Breakfast""","6X5F+J7W, Tanalodu, Bajawa, Kabupaten Ngada, Nusa Tenggara Tim.","Kabupaten Ngada, Nusa Tenggara Tim.",NUSA TENGGARA TIMUR,,Indonesia,81238722969,,,-87.908.776,1.209.732.008,https://maps.google.com/?cid=0x0:0x36aba126f727d71,
hotel,hotel,Bajawa Roo Hotel,"Jln. Martadinatha, RT Ngali, Trikora, Bajawa, Flores, East Nusa Tenggara 86411","RT Ngali, Trikora, Bajawa, Flores",NUSA TENGGARA TIMUR,86411.0,Indonesia,81338639607,,,-87.846.152,1.209.692.896,https://maps.google.com/?cid=0x0:0x7602b2bd0e921492,
hotel,hotel,Kristian Homestay,"6X4G+H4P, Unnamed Road, Bajawa, Kabupaten Ngada, Nusa Tenggara Tim.","Kabupaten Ngada, Nusa Tenggara Tim.",NUSA TENGGARA TIMUR,,Indonesia,81339480142,,,-87.935.334,1.209.753.132,https://maps.google.com/?cid=0x0:0x1fe97ebc303d5d72,
hotel,hotel,Lalong Terong Guest House,"H2FF+95M, Benteng Tengah, Kec. Riung, Kabupaten Ngada, Nusa Tenggara Tim.","Kabupaten Ngada, Nusa Tenggara Tim.",NUSA TENGGARA TIMUR,,Indonesia,81392260506,,,-84.265.291,1.210.229.223,https://maps.google.com/?cid=0x0:0x57ec504013cc24e9,
hotel,hotel,Penginapan Tiga Empat Tujuh,"H2JG+3PC, Nangamese, Kec. Riung, Kabupaten Ngada, Nusa Tenggara Tim.","Kabupaten Ngada, Nusa Tenggara Tim.",NUSA TENGGARA TIMUR,,Indonesia,,,,-84.198.196,121.026.772,https://maps.google.com/?cid=0x0:0x6c10cfa017ed05ce,
hotel,hotel,Hotel Bintang Wisata Riung,"Pasar Riung, Nangamese, Ngada, Kabupaten Ngada, Nusa Tenggara Tim. 86413","Nangamese, Ngada, Kabupaten Ngada",NUSA TENGGARA TIMUR,86413.0,Indonesia,81246130831,,,-84.216.979,1.210.276,https://maps.google.com/?cid=0x0:0xb52401ae12d0c70e,
hotel,hotel,El Ora Hotel  Eatery Labuan Bajo,"Jl. Yohanis Sahadun No.8, Labuan Bajo, Kec. Komodo, Kabupaten Manggarai Barat, Nusa Tenggara Tim.","Kabupaten Manggarai Barat, Nusa Tenggara Tim.",NUSA TENGGARA TIMUR,,Indonesia,85106077731,,,-84.956.322,1.198.857.116,https://maps.google.com/?cid=0x0:0xe53b28681242ee9c,
hotel,hotel,Pondok SVD Riung,"H2HG+CWC Pondok SVD, Nangamese, Kec. Riung, Kabupaten Ngada, Nusa Tenggara Tim.","Kabupaten Ngada, Nusa Tenggara Tim.",NUSA TENGGARA TIMUR,,Indonesia,81339341572,,,-84.214.305,1.210.272.598,https://maps.google.com/?cid=0x0:0xb912826d60152fe1,
hotel,hotel,Arnolds Family Homestay,"Jl. El Tari, Trikora, Bajawa, Kabupaten Ngada, Nusa Tenggara Tim. 86514","Trikora, Bajawa, Kabupaten Ngada",NUSA TENGGARA TIMUR,86514.0,Indonesia,,,,-87.861.305,1.209.702.128,https://maps.google.com/?cid=0x0:0x338ad602d6eda750,
hotel,hotel,Mehara Hotel,"Jl. Mutiara Gg Tuna, RT.04/RW.02, Labuan Bajo, Kec. Komodo, Kabupaten Manggarai Barat, Nusa Tenggara Tim.","Kabupaten Manggarai Barat, Nusa Tenggara Tim.",NUSA TENGGARA TIMUR,,Indonesia,82147725594,,,-84.898.415,1.198.776.784,https://maps.google.com/?cid=0x0:0x35b1989fa2092ceb,
hotel,hotel,RD Hotel Resto and Familly Karoke,"GV6W+5RF, Batu Cermin, Kec. Komodo, Kabupaten Manggarai Barat, Nusa Tenggara Tim.","Kabupaten Manggarai Barat, Nusa Tenggara Tim.",NUSA TENGGARA TIMUR,,Indonesia,82237920898,,,-84.895.586,1.198.970.086,https://maps.google.com/?cid=0x0:0x9f834953caf3a4fc,
restaurant,restaurant,Kec. Borong,"Kabupaten Manggarai Timur, Nusa Tenggara Tim.","Kabupaten Manggarai Timur, Nusa Tenggara Tim.",NUSA TENGGARA TIMUR,,Indonesia,,,,-88.148.406,1.206.082.067,https://maps.google.com/?cid=0x0:0x2a97d54812a8d6a5,
restaurant,Restoran,Warung Bu Tin,"5JR4+7GG, Jl. Lintas Flores, Wae Reca, Kec. Borong, Kabupaten Manggarai Timur, Nusa Tenggara Tim.","Kabupaten Manggarai Timur, Nusa Tenggara Tim.",NUSA TENGGARA TIMUR,,Indonesia,81231249119,,,-88.093.011,120.606.313,https://maps.google.com/?cid=0x0:0xf4d254c3a69e9ab9,
restaurant,Restoran,Chembos Restaurant,"Jl. Kartini No.05, Rana Loba, Kec. Borong, Kabupaten Manggarai Timur, Nusa Tenggara Tim.","Kabupaten Manggarai Timur, Nusa Tenggara Tim.",NUSA TENGGARA TIMUR,,Indonesia,82340804922,,,-8.815.578,1.206.086.531,https://maps.google.com/?cid=0x0:0xb31e5b47de2b66ed,
restaurant,Restoran,DAPUR PERMATA BORONG,"5HPW+P2, Nanga Labang, Kec. Borong, Kabupaten Manggarai Timur, Nusa Tenggara Tim.","Kabupaten Manggarai Timur, Nusa Tenggara Tim.",NUSA TENGGARA TIMUR,,Indonesia,81575653110,,,-88.131,1.205.950.296,https://maps.google.com/?cid=0x0:0x3a9f1b2a77e778de,
restaurant,Nasi,Rumah Makan BOUGENVILE  BAKERY,"Kota Ndora, Kec. Borong, Kabupaten Manggarai Timur, Nusa Tenggara Tim.","Kabupaten Manggarai Timur, Nusa Tenggara Tim.",NUSA TENGGARA TIMUR,,Indonesia,81339408110,,,-88.175.138,1.206.151.474,https://maps.google.com/?cid=0x0:0x4bc94b2007de53af,
restaurant,Padang,Rm Sabamananti,"5JM5+VGX, Rana Loba, Kec. Borong, Kabupaten Manggarai Timur, Nusa Tenggara Tim.","Kabupaten Manggarai Timur, Nusa Tenggara Tim.",NUSA TENGGARA TIMUR,,Indonesia,8123693860,,,-88.152.643,1.206.088.454,https://maps.google.com/?cid=0x0:0x99f9f85832f83fe6,
restaurant,Bakso,Kembang Idola,"5JM4+QV2, Rana Loba, Kec. Borong, Kabupaten Manggarai Timur, Nusa Tenggara Tim.","Kabupaten Manggarai Timur, Nusa Tenggara Tim.",NUSA TENGGARA TIMUR,,Indonesia,,,,-88.156.018,1.206.071.292,https://maps.google.com/?cid=0x0:0xb0a8c637730fbab3,
restaurant,Restoran,Warung Makan Lintang Rasa,"5JM7+R2J, Rana Loba, Kec. Borong, Kabupaten Manggarai Timur, Nusa Tenggara Tim.","Kabupaten Manggarai Timur, Nusa Tenggara Tim.",NUSA TENGGARA TIMUR,,Indonesia,,,,-88.160.427,1.206.129.882,https://maps.google.com/?cid=0x0:0x2358204cfc79251c,
restaurant,Rumah Makan,Rumah Makan Pancaran,"6JX6+QH5, Rana Loba, Kec. Borong, Kabupaten Manggarai Timur, Nusa Tenggara Tim.","Kabupaten Manggarai Timur, Nusa Tenggara Tim.",NUSA TENGGARA TIMUR,,Indonesia,81337789766,,,-87.506.177,1.206.114.999,https://maps.google.com/?cid=0x0:0x6f2354cddd76f378,
restaurant,Padang,RM SAIYO Masakan Padang,"5JM6+W9F, Rana Loba, Kec. Borong, Kabupaten Manggarai Timur, Nusa Tenggara Tim.","Kabupaten Manggarai Timur, Nusa Tenggara Tim.",NUSA TENGGARA TIMUR,,Indonesia,,,,-88.151.921,1.206.109.338,https://maps.google.com/?cid=0x0:0xc311e04cc9c77afe,
restaurant,Restoran,Chembos Resto,"No 4 Bugis Pasar Borong, Kota, Poco Rii, Kec. Borong, Kabupaten Manggarai Timur, Nusa Tenggara Tim.","Kabupaten Manggarai Timur, Nusa Tenggara Tim.",NUSA TENGGARA TIMUR,,Indonesia,8213779992,,,-86.768.575,1.206.429.991,https://maps.google.com/?cid=0x0:0xc5edf44846490980,
restaurant,Restoran,Nasi Goreng Jogja 99 Borong,"5JJ7+CR8, Kota Ndora, Kec. Borong, Kabupaten Manggarai Timur, Nusa Tenggara Tim.","Kabupaten Manggarai Timur, Nusa Tenggara Tim.",NUSA TENGGARA TIMUR,,Indonesia,,,,-88.190.017,120.614.497,https://maps.google.com/?cid=0x0:0x8740d22422f4e5e0,
restaurant,Nasi Goreng,Nasi Goreng Special 77 Lalapan,"5JM8+3Q8, Kota Ndora, Kec. Borong, Kabupaten Manggarai Timur, Nusa Tenggara Tim.","Kabupaten Manggarai Timur, Nusa Tenggara Tim.",NUSA TENGGARA TIMUR,,Indonesia,81339708060,,,-8.817.341,1.206.169.394,https://maps.google.com/?cid=0x0:0x3efb11077c9a4bd6,
restaurant,Padang,Rm. Arema,"5JM8+3XJ, Kota Ndora, Kec. Borong, Kabupaten Manggarai Timur, Nusa Tenggara Tim.","Kabupaten Manggarai Timur, Nusa Tenggara Tim.",NUSA TENGGARA TIMUR,,Indonesia,,,,-88.172.788,1.206.173.936,https://maps.google.com/?cid=0x0:0x39f0afb168470461,
restaurant,Restoran,Warung Gado Gado,"5JM8+4GG, Kota Ndora, Kec. Borong, Kabupaten Manggarai Timur, Nusa Tenggara Tim.","Kabupaten Manggarai Timur, Nusa Tenggara Tim.",NUSA TENGGARA TIMUR,,Indonesia,82313778895,,,-88.171.802,1.206.163.239,https://maps.google.com/?cid=0x0:0x7b5baf08dfc857e9,
restaurant,Restoran,Warung Pink Arthomoro,"5JP4+FHR, Rana Loba, Kec. Borong, Kabupaten Manggarai Timur, Nusa Tenggara Tim.","Kabupaten Manggarai Timur, Nusa Tenggara Tim.",NUSA TENGGARA TIMUR,,Indonesia,81234118221,,,-88.136.076,1.206.062.298,https://maps.google.com/?cid=0x0:0x7267ce5536a2251b,
restaurant,Padang,Kedai Uma Sate Ayam,"5JM7+3P8, Kota Ndora, Kec. Borong, Kabupaten Manggarai Timur, Nusa Tenggara Tim.","Kabupaten Manggarai Timur, Nusa Tenggara Tim.",NUSA TENGGARA TIMUR,,Indonesia,81212329560,,,-88.173.279,1.206.143.136,https://maps.google.com/?cid=0x0:0x35c28fcc805805ba,
restaurant,Rumah Makan,Soto Bakso Pelangi,"Unnamed Road, Rana Loba, Kec. Borong, Kabupaten Manggarai Timur, Nusa Tenggara Tim.","Kabupaten Manggarai Timur, Nusa Tenggara Tim.",NUSA TENGGARA TIMUR,,Indonesia,,,,-88.151.748,1.206.119.821,https://maps.google.com/?cid=0x0:0x9b75f81d520221f4,
restaurant,Layanan Pengiriman Barang Kelontong,Rana Loba Coffee House,"5JV8+RMC, Unnamed Road, Rana Loba, Borong, East Manggarai Regency, East Nusa Tenggara","Kabupaten Manggarai Timur, Nusa Tenggara Tim.",NUSA TENGGARA TIMUR,,Indonesia,81315499399,,,-88.054.363,1.206.166.285,https://maps.google.com/?cid=0x0:0x9b9488d650ba937,
restaurant,Kafe,Anera Cafe,"5HMJ+46C, Nanga Labang, Kec. Borong, Kabupaten Manggarai Timur, Nusa Tenggara Tim.","Kabupaten Manggarai Timur, Nusa Tenggara Tim.",NUSA TENGGARA TIMUR,,Indonesia,82237110200,,,-88.171.789,1.205.805.118,https://maps.google.com/?cid=0x0:0x8d71911d783a7ae8,
restaurant,Kafe,Lejong coffee Borong,"Jalan raya ruteng ende, Rana Loba, Kec. Borong, Kabupaten Manggarai Timur, Nusa Tenggara Tim.","Kabupaten Manggarai Timur, Nusa Tenggara Tim.",NUSA TENGGARA TIMUR,,Indonesia,89507601207,,,-88.108.309,120.605.534,https://maps.google.com/?cid=0x0:0x5ac03f1c1eeecae4,
restaurant,Kafe,"YERACMILE RESTAURANT,CAFE  BAKERY","Kota Ndora, Kec. Borong, Kabupaten Manggarai Timur, Nusa Tenggara Tim.","Kabupaten Manggarai Timur, Nusa Tenggara Tim.",NUSA TENGGARA TIMUR,,Indonesia,81238268245,,,-88.175.138,1.206.150.399,https://maps.google.com/?cid=0x0:0x7db973b6db3c8845,
restaurant,Rumah Makan,Warung ayu,"7J9F+725, Gurung Liwut, Kec. Borong, Kabupaten Manggarai Timur, Nusa Tenggara Tim.","Kabupaten Manggarai Timur, Nusa Tenggara Tim.",NUSA TENGGARA TIMUR,,Indonesia,,,,-87.318.634,1.206.225.985,https://maps.google.com/?cid=0x0:0x71425263fd51a8c4,
restaurant,Indonesia,RM. PRIMA RASA - BORONG,"5JM5+Q66, Unnamed Road, Rana Loba, Kec. Borong, Kabupaten Manggarai Timur, Nusa Tenggara Tim.","Kabupaten Manggarai Timur, Nusa Tenggara Tim.",NUSA TENGGARA TIMUR,,Indonesia,82247158565,,,-88.155.968,1.206.080.243,https://maps.google.com/?cid=0x0:0x5c6bf83c185e2b6c,
restaurant,Bakso,bakso bang udin,"5JM7+R2J, Rana Loba, Kec. Borong, Kabupaten Manggarai Timur, Nusa Tenggara Tim.","Kabupaten Manggarai Timur, Nusa Tenggara Tim.",NUSA TENGGARA TIMUR,,Indonesia,,,,-88.154.135,1.206.125.172,https://maps.google.com/?cid=0x0:0x6ec6bcfb4d896b2c,
restaurant,Brunch,Warung Makan,"5JP7+P23, Rana Loba, Kec. Borong, Kabupaten Manggarai Timur, Nusa Tenggara Tim.","Kabupaten Manggarai Timur, Nusa Tenggara Tim.",NUSA TENGGARA TIMUR,,Indonesia,,,,-88.136.983,1.206.121.866,https://maps.google.com/?cid=0x0:0xf22487855100196a,
restaurant,Restoran,Rumah Makan Ayu,"Jl. Sukun, Rana Loba, Kec. Borong, Kabupaten Manggarai Timur, Nusa Tenggara Tim.","Kabupaten Manggarai Timur, Nusa Tenggara Tim.",NUSA TENGGARA TIMUR,,Indonesia,,,,-88.149.523,1.206.085.763,https://maps.google.com/?cid=0x0:0x38cb08a4544d44b5,
restaurant,Kafe,KopiBee,"Jl. Ki Hajar Dewantara, Rana Loba, Kec. Borong, Kabupaten Manggarai Timur, Nusa Tenggara Tim.","Kabupaten Manggarai Timur, Nusa Tenggara Tim.",NUSA TENGGARA TIMUR,,Indonesia,81337360432,,,-87.731.359,1.206.212.867,https://maps.google.com/?cid=0x0:0xb6141a9fab08c1bf,
restaurant,Restoran,Rumah makan lare Blambangan,"5JV4+9HC, Rana Loba, Kec. Borong, Kabupaten Manggarai Timur, Nusa Tenggara Tim.","Kabupaten Manggarai Timur, Nusa Tenggara Tim.",NUSA TENGGARA TIMUR,,Indonesia,,,,-88.067.177,1.206.062.093,https://maps.google.com/?cid=0x0:0x365cd6569afe0bec,
restaurant,restaurant,Nusa Tenggara Tim.,,Nusa Tenggara Tim.,NUSA TENGGARA TIMUR,,Indonesia,,,,-86.573.819,1.210.793.705,https://maps.google.com/?cid=0x0:0x1030bfbcaf71ae0,
restaurant,Restoran,Chembos Restaurant,"Jl. Kartini No.05, Rana Loba, Kec. Borong, Kabupaten Manggarai Timur, Nusa Tenggara Tim.","Kabupaten Manggarai Timur, Nusa Tenggara Tim.",NUSA TENGGARA TIMUR,,Indonesia,82340804922,,,-8.815.578,1.206.086.531,https://maps.google.com/?cid=0x0:0xb31e5b47de2b66ed,
restaurant,restaurant,Kec. Poco Ranaka,"Kabupaten Manggarai Timur, Nusa Tenggara Tim.","Kabupaten Manggarai Timur, Nusa Tenggara Tim.",NUSA TENGGARA TIMUR,,Indonesia,,,,-86.082.296,1.205.494.563,https://maps.google.com/?cid=0x0:0x82314d6de8f2130,
restaurant,Restoran,Chembos Resto,"No 4 Bugis Pasar Borong, Kota, Poco Rii, Kec. Borong, Kabupaten Manggarai Timur, Nusa Tenggara Tim.","Kabupaten Manggarai Timur, Nusa Tenggara Tim.",NUSA TENGGARA TIMUR,,Indonesia,8213779992,,,-86.768.575,1.206.429.991,https://maps.google.com/?cid=0x0:0xc5edf44846490980,
restaurant,Bakso,warung baso aa,"FH9G+QPR, Jl. Ruteng - Benteng Jawa, Pocong, Kec. Poco Ranaka, Kabupaten Manggarai Timur, Nusa Tenggara Tim.","Kabupaten Manggarai Timur, Nusa Tenggara Tim.",NUSA TENGGARA TIMUR,,Indonesia,81337393987,,,-85.305.165,1.205.767.671,https://maps.google.com/?cid=0x0:0x7407db57ec58b548,
restaurant,Restoran,Rumah Makan Jawa Timur,"9GRX+VJV, Bangka Pau, Kec. Poco Ranaka, Kabupaten Manggarai Timur, Nusa Tenggara Tim.","Kabupaten Manggarai Timur, Nusa Tenggara Tim.",NUSA TENGGARA TIMUR,,Indonesia,,,,-86.077.671,1.205.490.428,https://maps.google.com/?cid=0x0:0x857d7ebaa1d2a70d,
restaurant,Restoran,Rumah Makan Podomoro,"9FQF+RVP, Tenda, Kec. Langke Rembong, Kabupaten Manggarai, Nusa Tenggara Tim.","Kabupaten Manggarai, Nusa Tenggara Tim.",NUSA TENGGARA TIMUR,,Indonesia,85333654577,,,-86.104.246,1.204.746.911,https://maps.google.com/?cid=0x0:0x5acebb0cbbcb5585,
restaurant,Kafe,Caffe Poco Kepe,"9GVX+67H, Mando Sawu, Kec. Poco Ranaka, Kabupaten Manggarai Timur, Nusa Tenggara Tim.","Kabupaten Manggarai Timur, Nusa Tenggara Tim.",NUSA TENGGARA TIMUR,,Indonesia,81353062307,,,-86.069.252,120.548.227,https://maps.google.com/?cid=0x0:0x3d2bd5311ec7c6df,
restaurant,Kedai Kopi,Kedai Evodia,"9GQX+M48, Bangka Pau, Kec. Poco Ranaka, Kabupaten Manggarai Timur, Nusa Tenggara Tim.","Kabupaten Manggarai Timur, Nusa Tenggara Tim.",NUSA TENGGARA TIMUR,,Indonesia,82146373434,,,-86.108.466,1.205.478.298,https://maps.google.com/?cid=0x0:0x33f54a888891b053,
restaurant,Indonesia,RUMAH MAKAN BANGKALAN 5 ABAH TURI BANDARA FRANS SALES LEGA RUTENG,"Jl. Satar Tacik, Tenda, Kec. Langke Rembong, Kabupaten Manggarai, Nusa Tenggara Tim.","Kabupaten Manggarai, Nusa Tenggara Tim.",NUSA TENGGARA TIMUR,,Indonesia,81236474747,,,-86.045.691,1.204.770.117,https://maps.google.com/?cid=0x0:0x55db4fbda3fb4d8e,
restaurant,Bakso,Rumah Bakso Aa,"Tenda, Kec. Langke Rembong, Kabupaten Manggarai, Nusa Tenggara Tim.","Kabupaten Manggarai, Nusa Tenggara Tim.",NUSA TENGGARA TIMUR,,Indonesia,81236935233,,,-86.104.256,1.204.755.082,https://maps.google.com/?cid=0x0:0xc1c14b8a95b41dcc,
restaurant,restaurant,Sky Terrace Hotel  restorant,"Jl. Hayam Wuruk, Pitak, Kec. Langke Rembong, Kabupaten Manggarai, Nusa Tenggara Tim.","Kabupaten Manggarai, Nusa Tenggara Tim.",NUSA TENGGARA TIMUR,,Indonesia,,,,-86.018.539,1.204.621.906,https://maps.google.com/?cid=0x0:0xd0c7564197c32df8,
restaurant,restaurant,Sonaf homestay,"Jalan hayam wuruk kelurahan tadong rt/rw : 021/002, Pitak, Kec. Langke Rembong, Kabupaten Manggarai, Nusa Tenggara Tim. 86511","Pitak, Kec. Langke Rembong, Kabupaten Manggarai",NUSA TENGGARA TIMUR,86511.0,Indonesia,82264535121,,,-85.994.357,1.204.639.264,https://maps.google.com/?cid=0x0:0xc8d309cd4bf1dc64,
restaurant,restaurant,Kopa HillTop - Family Guest Home,"Pa'ang Woang, Kopa Land, Jl. Giriparka, Pitak, Nusa Tenggara Tim. 86513","Kopa Land, Jl. Giriparka, Pitak",NUSA TENGGARA TIMUR,86513.0,Indonesia,81387650412,,,-86.042.863,1.204.609.017,https://maps.google.com/?cid=0x0:0x5847c916176a4ac,
restaurant,restaurant,Le Labe Homestay,"Jl. Komodo, Pitak, Kec. Langke Rembong, Kabupaten Manggarai, Nusa Tenggara Tim.","Kabupaten Manggarai, Nusa Tenggara Tim.",NUSA TENGGARA TIMUR,,Indonesia,,,,-86.045.987,1.204.603.042,https://maps.google.com/?cid=0x0:0x2e9df3b820e24fea,
restaurant,restaurant,Dahlia Hotel,"Jl. Bhayangkari No.19, Pitak, Kec. Langke Rembong, Kabupaten Manggarai, Nusa Tenggara Tim. 86511","Pitak, Kec. Langke Rembong, Kabupaten Manggarai",NUSA TENGGARA TIMUR,86511.0,Indonesia,38521377,,,-86.072.129,1.204.633.711,https://maps.google.com/?cid=0x0:0x153ff28b6628691c,
restaurant,restaurant,Sky Flores Hotel,"Jl. Yos Sudarso No.34, Mbaumuku, Kec. Langke Rembong, Kabupaten Manggarai, Nusa Tenggara Tim.","Kabupaten Manggarai, Nusa Tenggara Tim.",NUSA TENGGARA TIMUR,,Indonesia,85215000808,,,-86.065.375,1.204.669.404,https://maps.google.com/?cid=0x0:0x458b10bffcd31fbb,
restaurant,restaurant,Banana Home Stay,"Jl. Yos Sudarso, Mbaumuku, Kec. Langke Rembong, Kabupaten Manggarai, Nusa Tenggara Tim. 86571","Mbaumuku, Kec. Langke Rembong, Kabupaten Manggarai",NUSA TENGGARA TIMUR,86571.0,Indonesia,85215000808,,,-86.066.808,1.204.668.025,https://maps.google.com/?cid=0x0:0x4eb8d5393eb1963,
restaurant,restaurant,Raja guest house And Coffee Shop,"ruko pemda labtai dua, Jl. Montang Rua, Mbaumuku, Kec. Langke Rembong, Kabupaten Manggarai, Nusa Tenggara Tim.","Kabupaten Manggarai, Nusa Tenggara Tim.",NUSA TENGGARA TIMUR,,Indonesia,85260528456,,,-860.834,1.204.649.296,https://maps.google.com/?cid=0x0:0x5fd73fcb1806e693,
restaurant,restaurant,Spring Hill Hotel,"Jl. Kesturi No.1, Kelurahan Tadong, Kec. Langke Rembong, Kabupaten Manggarai, Nusa Tenggara Tim. 86511","Kelurahan Tadong, Kec. Langke Rembong, Kabupaten Manggarai",NUSA TENGGARA TIMUR,86511.0,Indonesia,81339372345,,,-86.043.455,1.204.689.034,https://maps.google.com/?cid=0x0:0xedd725d7847a830e,
restaurant,Taman,Kampung Ruteng Pu'u,"9CPW+FP, Golo Dukal, Kec. Langke Rembong, Kabupaten Manggarai, Nusa Tenggara Tim.","Kabupaten Manggarai, Nusa Tenggara Tim.",NUSA TENGGARA TIMUR,,Indonesia,82235132065,,,-86.118.462,1.204.459.329,https://maps.google.com/?cid=0x0:0x77e6ee736159c680,
restaurant,Restoran,Rm. Merlin,"Watu, Kec. Langke Rembong, Kabupaten Manggarai, Nusa Tenggara Tim.","Kabupaten Manggarai, Nusa Tenggara Tim.",NUSA TENGGARA TIMUR,,Indonesia,,,,-86.233.451,1.204.701.278,https://maps.google.com/?cid=0x0:0x55b2cbdcd4591544,
restaurant,Restoran,Spring Hill Restaurant,"Jl. Kesturi No.1, Kelurahan Tadong, Kec. Langke Rembong, Kabupaten Manggarai, Nusa Tenggara Tim. 86511","Kelurahan Tadong, Kec. Langke Rembong, Kabupaten Manggarai",NUSA TENGGARA TIMUR,86511.0,Indonesia,81284298455,,,-8.604.645,1.204.686.019,https://maps.google.com/?cid=0x0:0xd50347e24b889e52,
restaurant,Brunch,Warung Bakso,"9JH9+PXQ, Rende Nao, Kec. Poco Ranaka, Kabupaten Manggarai Timur, Nusa Tenggara Tim.","Kabupaten Manggarai Timur, Nusa Tenggara Tim.",NUSA TENGGARA TIMUR,,Indonesia,82138845174,,,-86.206.712,1.206.199.895,https://maps.google.com/?cid=0x0:0x18ece40b93d1cb21,
restaurant,Bakso,Bakso Mas Ribut,"9HR2+8VG, Jl. Ruteng - Benteng Jawa, Bangka Pau, Kec. Poco Ranaka, Kabupaten Manggarai Timur, Nusa Tenggara Tim.","Kabupaten Manggarai Timur, Nusa Tenggara Tim.",NUSA TENGGARA TIMUR,,Indonesia,81238706537,,,-86.091.797,1.205.522.103,https://maps.google.com/?cid=0x0:0x2b2e67348bf11c67,
restaurant,Kios,Kios Mobert,"CJV9+CMJ, Unnamed Road, Golo Lero, Kec. Poco Ranaka Timur, Kabupaten Manggarai Timur, Nusa Tenggara Tim.","Kabupaten Manggarai Timur, Nusa Tenggara Tim.",NUSA TENGGARA TIMUR,,Indonesia,"8,13808E+11",,,-85.564.064,1.206.191.343,https://maps.google.com/?cid=0x0:0xb5a6ed97aa2f745,
restaurant,Restoran,Victory Resto,"Jl. Dewi Sartika No.9, Watu, Kec. Langke Rembong, Kabupaten Manggarai, Nusa Tenggara Tim.","Kabupaten Manggarai, Nusa Tenggara Tim.",NUSA TENGGARA TIMUR,,Indonesia,85205297086,,,-86.142.706,1.204.645.282,https://maps.google.com/?cid=0x0:0x1050da0b263435e6,
restaurant,Restoran,Warung Makelar,"9FQG+MXQ, Jl. Ranaka, Tenda, Kec. Langke Rembong, Kabupaten Manggarai, Nusa Tenggara Tim.","Kabupaten Manggarai, Nusa Tenggara Tim.",NUSA TENGGARA TIMUR,,Indonesia,,,,-86.107.814,1.204.774.826,https://maps.google.com/?cid=0x0:0x4416bc39f2dc998c,
restaurant,Restoran,WARUNG SEDERHANA,"9GWR+36F, Jl. Ruteng - Benteng Jawa, Mando Sawu, Kec. Poco Ranaka, Kabupaten Manggarai Timur, Nusa Tenggara Tim.","Kabupaten Manggarai Timur, Nusa Tenggara Tim.",NUSA TENGGARA TIMUR,,Indonesia,,,,-86.048.196,1.205.405.411,https://maps.google.com/?cid=0x0:0x4a7748c84311ceb0,
restaurant,restaurant,Kec. Lamba Leda,"Kabupaten Manggarai Timur, Nusa Tenggara Tim.","Kabupaten Manggarai Timur, Nusa Tenggara Tim.",NUSA TENGGARA TIMUR,,Indonesia,,,,-8.303.018,1.205.841.504,https://maps.google.com/?cid=0x0:0x250909596892d132,
restaurant,Dapur Umum,MENU FITRI,"Nanga Lirang, Desa Satar Padut, Kec Lamba Leda Utara, Pota, Jalan Lintas, Reo, Kabupaten Manggarai Timur, Nusa Tenggara Tim. 86582","Desa Satar Padut, Kec Lamba Leda Utara, Pota, Jalan Lintas, Reo, Kabupaten Manggarai Timur",NUSA TENGGARA TIMUR,86582.0,Indonesia,85253376540,,,-82.861.593,1.206.039.687,https://maps.google.com/?cid=0x0:0xb29bc570b4f6ac87,
restaurant,Dapur Umum,Warung Makan,"PJ73+GHG, Satar Padut, Kec. Lamba Leda, Kabupaten Manggarai Timur, Nusa Tenggara Tim.","Kabupaten Manggarai Timur, Nusa Tenggara Tim.",NUSA TENGGARA TIMUR,,Indonesia,,,,-82.861.828,1.206.039.593,https://maps.google.com/?cid=0x0:0xdb16eea67429f660,
restaurant,Grosir Kain,Compang Wae Lawas,"JH2Q+QW8, Unnamed Road, Golo Mangung, Kec. Lamba Leda, Kabupaten Manggarai Timur, Nusa Tenggara Tim.","Kabupaten Manggarai Timur, Nusa Tenggara Tim.",NUSA TENGGARA TIMUR,,Indonesia,,,,-83.980.971,1.205.898.341,https://maps.google.com/?cid=0x0:0x27debf52d23342da,
restaurant,Minimarket,Warungbkopi,"HJX3+76, Golo Mangung, Kec. Lamba Leda, Kabupaten Manggarai Timur, Nusa Tenggara Tim.","Kabupaten Manggarai Timur, Nusa Tenggara Tim.",NUSA TENGGARA TIMUR,,Indonesia,,,,-8.402.237,120.603.224,https://maps.google.com/?cid=0x0:0x8a3e8ae916808f3b,
restaurant,Rumah Makan,La Nusa Resto,"983X+9P3, Bulan, Kec. Ruteng, Kabupaten Manggarai, Nusa Tenggara Tim.","Kabupaten Manggarai, Nusa Tenggara Tim.",NUSA TENGGARA TIMUR,,Indonesia,81298892030,,,-86.474.772,1.203.499.421,https://maps.google.com/?cid=0x0:0xde3c431261b230f8,
restaurant,Kedai Kopi,Ajang,"HH7Q+WW, Golo Rentung, Kec. Lamba Leda, Kabupaten Manggarai Timur, Nusa Tenggara Tim.","Kabupaten Manggarai Timur, Nusa Tenggara Tim.",NUSA TENGGARA TIMUR,,Indonesia,81237170483,,,-84.368.121,1.205.896.067,https://maps.google.com/?cid=0x0:0x686e8c22c0078406,
restaurant,Rumah wisata,Nino Homestay,"HJC3+MC5, Golo Rentung, Kec. Lamba Leda, Kabupaten Manggarai Timur, Nusa Tenggara Tim.","Kabupaten Manggarai Timur, Nusa Tenggara Tim.",NUSA TENGGARA TIMUR,,Indonesia,81292829274,,,-84.283.678,1.206.035.968,https://maps.google.com/?cid=0x0:0x1375a92a4406094,
restaurant,Komplek perumahan,Rmh Mhoykadriano,"GJXC+C7, Golo Lembur, Kec. Lamba Leda, Kabupaten Manggarai Timur, Nusa Tenggara Tim.","Kabupaten Manggarai Timur, Nusa Tenggara Tim.",NUSA TENGGARA TIMUR,,Indonesia,,,,-84.514.122,1.206.208.237,https://maps.google.com/?cid=0x0:0x54bc04bbe9522adc,
restaurant,Kedai Kopi,Mallomo Cafe,"Jalan Poros, Reo, kedindi, Kabupaten Manggarai, Nusa Tenggara Tim. 86592","Reo, kedindi, Kabupaten Manggarai",NUSA TENGGARA TIMUR,86592.0,Indonesia,81280692617,,,-83.111.727,1.204.888.374,https://maps.google.com/?cid=0x0:0xa4f3de4ea5d17ad7,
restaurant,Bakso,warung baso aa,"FH9G+QPR, Jl. Ruteng - Benteng Jawa, Pocong, Kec. Poco Ranaka, Kabupaten Manggarai Timur, Nusa Tenggara Tim.","Kabupaten Manggarai Timur, Nusa Tenggara Tim.",NUSA TENGGARA TIMUR,,Indonesia,81337393987,,,-85.305.165,1.205.767.671,https://maps.google.com/?cid=0x0:0x7407db57ec58b548,
restaurant,Bakso,Bakso Goyang Lidah,"Ronting, Satar Kampas, Kec. Lamba Leda, Kabupaten Manggarai Timur, Nusa Tenggara Tim. 86582","Satar Kampas, Kec. Lamba Leda, Kabupaten Manggarai Timur",NUSA TENGGARA TIMUR,86582.0,Indonesia,82236043449,,,-83.015.978,1.205.630.131,https://maps.google.com/?cid=0x0:0x422cc3f0b69064c0,
restaurant,restaurant,Benteng Jawa lamba,"GHQ9+W8M, Jalan, Goreng Meni, Kec. Lamba Leda, Kabupaten Manggarai Timur, Nusa Tenggara Tim.","Kabupaten Manggarai Timur, Nusa Tenggara Tim.",NUSA TENGGARA TIMUR,,Indonesia,,,,-84.601.596,1.205.682.981,https://maps.google.com/?cid=0x0:0x5bdb36cd1732b680,
restaurant,Restoran,Bakso Pandawa,"MFPJ+XXF, Mata Air, Kec. Reok, Kabupaten Manggarai, Nusa Tenggara Tim.","Kabupaten Manggarai, Nusa Tenggara Tim.",NUSA TENGGARA TIMUR,,Indonesia,,,,-83.125.704,1.204.824.207,https://maps.google.com/?cid=0x0:0x6713b64319fe95e0,
restaurant,Brunch,Golo waso Bakso Bu Parmi,"GHVP+C2, Tengku Leda, Kec. Lamba Leda, Kabupaten Manggarai Timur, Nusa Tenggara Tim.","Kabupaten Manggarai Timur, Nusa Tenggara Tim.",NUSA TENGGARA TIMUR,,Indonesia,,,,-84.562.642,1.205.837.664,https://maps.google.com/?cid=0x0:0x57a2267bf73a534d,
restaurant,Restoran,SIQUARRA RESTAURANT,"5QHW+M6G, Jln raya trans flores-depan SMP neger i Waelengga, Watu Nggene, Kec. Kota Komba, Kabupaten Manggarai Timur, Nusa Tenggara Tim.","Kabupaten Manggarai Timur, Nusa Tenggara Tim.",NUSA TENGGARA TIMUR,,Indonesia,81246173264,,,-88.208.245,1.207.955.883,https://maps.google.com/?cid=0x0:0x7a50eea49164a856,
restaurant,Padang,Rumah Makan Semarang,"GHHF+M2W, Jl. Ruteng - Benteng Jawa, Tengku Leda, Kec. Lamba Leda, Kabupaten Manggarai Timur, Nusa Tenggara Tim.","Kabupaten Manggarai Timur, Nusa Tenggara Tim.",NUSA TENGGARA TIMUR,,Indonesia,81239204671,,,-84.707.668,1.205.725.776,https://maps.google.com/?cid=0x0:0xaca56bfacbc4cbb4,
restaurant,Restoran,Pak Kliwon Soup,"MFQR+JR5, Reo, Kec. Reok, Kabupaten Manggarai, Nusa Tenggara Tim.","Kabupaten Manggarai, Nusa Tenggara Tim.",NUSA TENGGARA TIMUR,,Indonesia,,,,-8.310.987,1.204.921.137,https://maps.google.com/?cid=0x0:0xb6a050dc9d523746,
restaurant,Kedai Kopi,Noel,"JJ9Q+6CV, Haju Wangi, Kec. Lamba Leda, Kabupaten Manggarai Timur, Nusa Tenggara Tim.","Kabupaten Manggarai Timur, Nusa Tenggara Tim.",NUSA TENGGARA TIMUR,,Indonesia,,,,-83.824.577,1.206.384.954,https://maps.google.com/?cid=0x0:0x9c21dcc525c2a713,
restaurant,Kedai Kopi,Rmh Bapak ALBER MUJU,"HJ5Q+GCG, Golo Nimbung, Kec. Lamba Leda, Kabupaten Manggarai Timur, Nusa Tenggara Tim.","Kabupaten Manggarai Timur, Nusa Tenggara Tim.",NUSA TENGGARA TIMUR,,Indonesia,,,,-84.416.016,1.206.387.462,https://maps.google.com/?cid=0x0:0xf47a38f47aeee43a,
restaurant,Kedai Kopi,Ebit Erson,"HJPW+FRG, Lencur, Kec. Lamba Leda, Kabupaten Manggarai Timur, Nusa Tenggara Tim.","Kabupaten Manggarai Timur, Nusa Tenggara Tim.",NUSA TENGGARA TIMUR,,Indonesia,,,,-84.138.022,1.206.470.664,https://maps.google.com/?cid=0x0:0x8b9d292880f5fee0,
restaurant,Kedai Kopi,Moris Coffee Shop,"GHWF+8JP, Jl. Ruteng - Benteng Jawa, Tengku Leda, Kec. Lamba Leda, Kabupaten Manggarai Timur, Nusa Tenggara Tim.","Kabupaten Manggarai Timur, Nusa Tenggara Tim.",NUSA TENGGARA TIMUR,,Indonesia,81293839803,,,-84.541.637,1.205.740.912,https://maps.google.com/?cid=0x0:0x2681ad2cf367d65d,
restaurant,Bar,Bawe lamba leda utara,"JMX4+3HQ, Lencur, Kec. Lamba Leda, Kabupaten Manggarai Timur, Nusa Tenggara Tim.","Kabupaten Manggarai Timur, Nusa Tenggara Tim.",NUSA TENGGARA TIMUR,,Indonesia,81236854541,,,-83.522.929,1.206.564.927,https://maps.google.com/?cid=0x0:0xa908baab9d932b9c,
restaurant,Kafe,Yhooize Cafe,"HJC3+XM4, Paleng, Golo, Kec. Lamba Leda, Kabupaten Manggarai Timur, Nusa Tenggara Tim.","Kabupaten Manggarai Timur, Nusa Tenggara Tim.",NUSA TENGGARA TIMUR,,Indonesia,81338813498,,,-84.276.157,120.604.201,https://maps.google.com/?cid=0x0:0x519a7b2164c5217c,
restaurant,Bakso,Rmh Daniel Asis,"GJXC+C7, Golo Lembur, Kec. Lamba Leda, Kabupaten Manggarai Timur, Nusa Tenggara Tim.","Kabupaten Manggarai Timur, Nusa Tenggara Tim.",NUSA TENGGARA TIMUR,,Indonesia,85235420599,,,-84.511.555,1.206.208.059,https://maps.google.com/?cid=0x0:0x6f9ed230c3de86fe,
restaurant,restaurant,Kec. Sambi Rampas,"Kabupaten Manggarai Timur, Nusa Tenggara Tim.","Kabupaten Manggarai Timur, Nusa Tenggara Tim.",NUSA TENGGARA TIMUR,,Indonesia,,,,-8.347.378,1.207.548.886,https://maps.google.com/?cid=0x0:0xf9c936bcfd9766a6,
restaurant,Kios,Kedai Kuliner Asyifa,"MQ34+C7H, Pota, Kec. Sambi Rampas, Kabupaten Manggarai Timur, Nusa Tenggara Tim.","Kabupaten Manggarai Timur, Nusa Tenggara Tim.",NUSA TENGGARA TIMUR,,Indonesia,81339280845,,,-83.464.493,1.207.557.217,https://maps.google.com/?cid=0x0:0x3ce219d1985c99de,
restaurant,Indonesia,Warung Sania,"Jalan Trans Flores, Pota, Kec. Sambi Rampas, Kabupaten Manggarai Timur, Nusa Tenggara Tim.","Kabupaten Manggarai Timur, Nusa Tenggara Tim.",NUSA TENGGARA TIMUR,,Indonesia,81226598401,,,-83.525.072,1.207.527.645,https://maps.google.com/?cid=0x0:0x87b123764e5833b9,
restaurant,Komplek perumahan,Rmh Mhoykadriano,"GJXC+C7, Golo Lembur, Kec. Lamba Leda, Kabupaten Manggarai Timur, Nusa Tenggara Tim.","Kabupaten Manggarai Timur, Nusa Tenggara Tim.",NUSA TENGGARA TIMUR,,Indonesia,,,,-84.514.122,1.206.208.237,https://maps.google.com/?cid=0x0:0x54bc04bbe9522adc,
restaurant,Bar,Local BarGrill,"Nanga Mbaur, Kec. Sambi Rampas, Kabupaten Manggarai Timur, Nusa Tenggara Tim.","Kabupaten Manggarai Timur, Nusa Tenggara Tim.",NUSA TENGGARA TIMUR,,Indonesia,,,,-83.562.178,1.208.616.317,https://maps.google.com/?cid=0x0:0x1431731c7a0ac1cf,
restaurant,restaurant,Kedai Pakde Samsul,"Jln Elar Watunggong, Kabupaten Manggarai Timur, Nusa Tenggara Tim. 86584",Kabupaten Manggarai Timur,NUSA TENGGARA TIMUR,86584.0,Indonesia,89540570823,,,-85.363.424,1.206.691.129,https://maps.google.com/?cid=0x0:0x7a624e3d700683e1,
restaurant,Bakso,Warung AIDHA Hadiausma,"MQ23+6GH, Unnamed Road, Pota, Kec. Sambi Rampas, Kabupaten Manggarai Timur, Nusa Tenggara Tim.","Kabupaten Manggarai Timur, Nusa Tenggara Tim.",NUSA TENGGARA TIMUR,,Indonesia,"8,13389E+11",,,-83.494.334,1.207.538.469,https://maps.google.com/?cid=0x0:0x3fdc77b6d27a3e,
restaurant,Brunch,Angga tana ling,"JPWX+RFW, Pota, Kec. Sambi Rampas, Kabupaten Manggarai Timur, Nusa Tenggara Tim.","Kabupaten Manggarai Timur, Nusa Tenggara Tim.",NUSA TENGGARA TIMUR,,Indonesia,,,,-83.528.967,1.207.486.981,https://maps.google.com/?cid=0x0:0xd4ff5214c28b9e13,
restaurant,Kafe,Sambi rampas,"MQ33+3X8, Pota, Kec. Sambi Rampas, Kabupaten Manggarai Timur, Nusa Tenggara Tim.","Kabupaten Manggarai Timur, Nusa Tenggara Tim.",NUSA TENGGARA TIMUR,,Indonesia,,,,-83.473.331,1.207.549.585,https://maps.google.com/?cid=0x0:0x8ceb8b7da4cdbfa7,
restaurant,restaurant,Tana Watu Weri,"MQ5W+6VR, Londang, Nanga Mbaur, Kec. Sambi Rampas, Kabupaten Manggarai Timur, Nusa Tenggara Tim.","Kabupaten Manggarai Timur, Nusa Tenggara Tim.",NUSA TENGGARA TIMUR,,Indonesia,,,,-83.418.934,1.207.971.558,https://maps.google.com/?cid=0x0:0xa2d0b528d5612d94,
restaurant,Kedai Kopi,Coffee time,"MQ34+32F, Unnamed Road, Pota, Kec. Sambi Rampas, Kabupaten Manggarai Timur, Nusa Tenggara Tim.","Kabupaten Manggarai Timur, Nusa Tenggara Tim.",NUSA TENGGARA TIMUR,,Indonesia,82237024577,,,-83.473.064,1.207.550.549,https://maps.google.com/?cid=0x0:0x8d725162df91b0f7,
restaurant,Brunch,Rumah makan cabang 4 watungong,"FM79+JM7, Watungong, Kec. Borong, Kabupaten Manggarai Timur, Nusa Tenggara Tim.","Kabupaten Manggarai Timur, Nusa Tenggara Tim.",NUSA TENGGARA TIMUR,,Indonesia,,,,-85.359.674,1.206.691.729,https://maps.google.com/?cid=0x0:0x7999f30405a1ea74,
restaurant,Kedai Kopi,Rumah bang Fit,"JQM8+3V4, Nanga Mbaling, Kec. Sambi Rampas, Kabupaten Manggarai Timur, Nusa Tenggara Tim.","Kabupaten Manggarai Timur, Nusa Tenggara Tim.",NUSA TENGGARA TIMUR,,Indonesia,,,,-83.674.485,1.207.671.442,https://maps.google.com/?cid=0x0:0x553a156e7d111e,
restaurant,Rumah Makan,Rumah makan Molas poso,"FPFH+CWF, Lengko Namut, Kec. Elar, Kabupaten Manggarai Timur, Nusa Tenggara Tim.","Kabupaten Manggarai Timur, Nusa Tenggara Tim.",NUSA TENGGARA TIMUR,,Indonesia,,,,-85.264.754,1.207.298.591,https://maps.google.com/?cid=0x0:0xd5dab38c5ebfd66c,
restaurant,restaurant,Simon Kembo,"Golo Lijun, Kec. Elar, Kabupaten Manggarai Timur, Nusa Tenggara Tim.","Kabupaten Manggarai Timur, Nusa Tenggara Tim.",NUSA TENGGARA TIMUR,,Indonesia,,,,-83.982.263,1.208.809.477,https://maps.google.com/?cid=0x0:0x511242b22091c753,
restaurant,Kedai Kopi,Ebit Erson,"HJPW+FRG, Lencur, Kec. Lamba Leda, Kabupaten Manggarai Timur, Nusa Tenggara Tim.","Kabupaten Manggarai Timur, Nusa Tenggara Tim.",NUSA TENGGARA TIMUR,,Indonesia,,,,-84.138.022,1.206.470.664,https://maps.google.com/?cid=0x0:0x8b9d292880f5fee0,
restaurant,Kios,Kios Mobert,"CJV9+CMJ, Unnamed Road, Golo Lero, Kec. Poco Ranaka Timur, Kabupaten Manggarai Timur, Nusa Tenggara Tim.","Kabupaten Manggarai Timur, Nusa Tenggara Tim.",NUSA TENGGARA TIMUR,,Indonesia,"8,13808E+11",,,-85.564.064,1.206.191.343,https://maps.google.com/?cid=0x0:0xb5a6ed97aa2f745,
restaurant,Kedai Kopi,Rumahnya Julian,"FM23+VM, Ngkiong Dora, Kec. Poco Ranaka Timur, Kabupaten Manggarai Timur, Nusa Tenggara Tim.","Kabupaten Manggarai Timur, Nusa Tenggara Tim.",NUSA TENGGARA TIMUR,,Indonesia,,,,-85.478.467,1.206.541.873,https://maps.google.com/?cid=0x0:0x91396e23361f2c41,
restaurant,Bakso,Rmh Daniel Asis,"GJXC+C7, Golo Lembur, Kec. Lamba Leda, Kabupaten Manggarai Timur, Nusa Tenggara Tim.","Kabupaten Manggarai Timur, Nusa Tenggara Tim.",NUSA TENGGARA TIMUR,,Indonesia,85235420599,,,-84.511.555,1.206.208.059,https://maps.google.com/?cid=0x0:0x6f9ed230c3de86fe,
restaurant,Kedai Kopi,Rmh Bapak ALBER MUJU,"HJ5Q+GCG, Golo Nimbung, Kec. Lamba Leda, Kabupaten Manggarai Timur, Nusa Tenggara Tim.","Kabupaten Manggarai Timur, Nusa Tenggara Tim.",NUSA TENGGARA TIMUR,,Indonesia,,,,-84.416.016,1.206.387.462,https://maps.google.com/?cid=0x0:0xf47a38f47aeee43a,
restaurant,Grosir Kain,Compang Wae Lawas,"JH2Q+QW8, Unnamed Road, Golo Mangung, Kec. Lamba Leda, Kabupaten Manggarai Timur, Nusa Tenggara Tim.","Kabupaten Manggarai Timur, Nusa Tenggara Tim.",NUSA TENGGARA TIMUR,,Indonesia,,,,-83.980.971,1.205.898.341,https://maps.google.com/?cid=0x0:0x27debf52d23342da,
restaurant,restaurant,Kec. Elar,"Kabupaten Manggarai Timur, Nusa Tenggara Tim.","Kabupaten Manggarai Timur, Nusa Tenggara Tim.",NUSA TENGGARA TIMUR,,Indonesia,,,,-84.244.952,1.208.728.615,https://maps.google.com/?cid=0x0:0xa3e720c639fa11c4,
restaurant,Rumah Makan,Warung Mulyaman,"FQFC+XJM, Tiwu Kondo, Kec. Elar, Kabupaten Manggarai Timur, Nusa Tenggara Tim.","Kabupaten Manggarai Timur, Nusa Tenggara Tim.",NUSA TENGGARA TIMUR,,Indonesia,,,,-85.250.252,1.207.715.367,https://maps.google.com/?cid=0x0:0xd6c4d1a60eb7b1f7,
restaurant,Dapur Umum,Dia putri warung,"FPFH+CWF, Lengko Namut, Kec. Elar, Kabupaten Manggarai Timur, Nusa Tenggara Tim.","Kabupaten Manggarai Timur, Nusa Tenggara Tim.",NUSA TENGGARA TIMUR,,Indonesia,,,,-85.264.754,1.207.298.591,https://maps.google.com/?cid=0x0:0xbe0ad7554358e428,
restaurant,Rumah Makan,Rumah makan Molas poso,"FPFH+CWF, Lengko Namut, Kec. Elar, Kabupaten Manggarai Timur, Nusa Tenggara Tim.","Kabupaten Manggarai Timur, Nusa Tenggara Tim.",NUSA TENGGARA TIMUR,,Indonesia,,,,-85.264.754,1.207.298.591,https://maps.google.com/?cid=0x0:0xd5dab38c5ebfd66c,
restaurant,Pusat Informasi Pariwisata,TAMAN WISATA ALAM LAUT 17 PULAU RIUNG,"H2WM+CFM, Kec. Riung, Kabupaten Ngada, Nusa Tenggara Tim.","Kabupaten Ngada, Nusa Tenggara Tim.",NUSA TENGGARA TIMUR,,Indonesia,,,,-84.039.191,1.210.336.602,https://maps.google.com/?cid=0x0:0xd14b952d02a202b4,
restaurant,restaurant,Simon Kembo,"Golo Lijun, Kec. Elar, Kabupaten Manggarai Timur, Nusa Tenggara Tim.","Kabupaten Manggarai Timur, Nusa Tenggara Tim.",NUSA TENGGARA TIMUR,,Indonesia,,,,-83.982.263,1.208.809.477,https://maps.google.com/?cid=0x0:0x511242b22091c753,
restaurant,Bar,Local BarGrill,"Nanga Mbaur, Kec. Sambi Rampas, Kabupaten Manggarai Timur, Nusa Tenggara Tim.","Kabupaten Manggarai Timur, Nusa Tenggara Tim.",NUSA TENGGARA TIMUR,,Indonesia,,,,-83.562.178,1.208.616.317,https://maps.google.com/?cid=0x0:0x1431731c7a0ac1cf,
restaurant,Restoran,Roemah Oe-Oen,"Jl. Sangkuriang Bawah No.21, Dago, Kecamatan Coblong, Kota Bandung, Jawa Barat 40135","Dago, Kecamatan Coblong, Kota Bandung",NUSA TENGGARA TIMUR,40135.0,Indonesia,82130627990,,,-68.832.302,1.076.075.904,https://maps.google.com/?cid=0x0:0x62b95c44aa4f3b32,
restaurant,restaurant,Kedai Pakde Samsul,"Jln Elar Watunggong, Kabupaten Manggarai Timur, Nusa Tenggara Tim. 86584",Kabupaten Manggarai Timur,NUSA TENGGARA TIMUR,86584.0,Indonesia,89540570823,,,-85.363.424,1.206.691.129,https://maps.google.com/?cid=0x0:0x7a624e3d700683e1,
restaurant,Toko umum,Kios epril,"Ulu Wae, Kec. Poco Ranaka, Kabupaten Manggarai Timur, Nusa Tenggara Tim.","Kabupaten Manggarai Timur, Nusa Tenggara Tim.",NUSA TENGGARA TIMUR,,Indonesia,,,,-85.960.122,1.206.435.487,https://maps.google.com/?cid=0x0:0xa467d55fdf6bcf29,
restaurant,Kios,Kedai Kuliner Asyifa,"MQ34+C7H, Pota, Kec. Sambi Rampas, Kabupaten Manggarai Timur, Nusa Tenggara Tim.","Kabupaten Manggarai Timur, Nusa Tenggara Tim.",NUSA TENGGARA TIMUR,,Indonesia,81339280845,,,-83.464.493,1.207.557.217,https://maps.google.com/?cid=0x0:0x3ce219d1985c99de,
restaurant,Masakan Barat,FORK,"Jl. Lembong No.8, Braga, Kec. Sumur Bandung, Kota Bandung, Jawa Barat 40111","Braga, Kec. Sumur Bandung, Kota Bandung",NUSA TENGGARA TIMUR,40111.0,Indonesia,81382715274,,,-69.164.231,1.076.094.403,https://maps.google.com/?cid=0x0:0x4518b33576402f4d,
restaurant,Rumah Makan,Mbako Kasar,"Wae Dangas complex, Runus, Nusa Tenggara Tim. 72774",Runus,NUSA TENGGARA TIMUR,72774.0,Indonesia,,,,-86.244.855,1.208.233.505,https://maps.google.com/?cid=0x0:0x420e8bf935189f45,
restaurant,restaurant,Kec. Kota Komba,"Kabupaten Manggarai Timur, Nusa Tenggara Tim.","Kabupaten Manggarai Timur, Nusa Tenggara Tim.",NUSA TENGGARA TIMUR,,Indonesia,,,,-88.273.426,1.208.051.136,https://maps.google.com/?cid=0x0:0xb5521e292aca4357,
restaurant,Restoran,SIQUARRA RESTAURANT,"5QHW+M6G, Jln raya trans flores-depan SMP neger i Waelengga, Watu Nggene, Kec. Kota Komba, Kabupaten Manggarai Timur, Nusa Tenggara Tim.","Kabupaten Manggarai Timur, Nusa Tenggara Tim.",NUSA TENGGARA TIMUR,,Indonesia,81246173264,,,-88.208.245,1.207.955.883,https://maps.google.com/?cid=0x0:0x7a50eea49164a856,
restaurant,Padang,RM Samudra Masakan Padang,"5RF5+2MG, Unnamed Road, Watu Nggene, Kec. Kota Komba, Kabupaten Manggarai Timur, Nusa Tenggara Tim.","Kabupaten Manggarai Timur, Nusa Tenggara Tim.",NUSA TENGGARA TIMUR,,Indonesia,,,,-88.274.254,120.809.205,https://maps.google.com/?cid=0x0:0xa663cdc21c44034f,
restaurant,Restoran,gettan cafe,"8PV3+5W4, Rana Mbeling, Kec. Kota Komba, Kabupaten Manggarai Timur, Nusa Tenggara Tim.","Kabupaten Manggarai Timur, Nusa Tenggara Tim.",NUSA TENGGARA TIMUR,,Indonesia,,,,-86.571.087,12.070.482,https://maps.google.com/?cid=0x0:0x46a61b408722c7f,
restaurant,Padang,Rm Sabamananti,"5JM5+VGX, Rana Loba, Kec. Borong, Kabupaten Manggarai Timur, Nusa Tenggara Tim.","Kabupaten Manggarai Timur, Nusa Tenggara Tim.",NUSA TENGGARA TIMUR,,Indonesia,8123693860,,,-88.152.643,1.206.088.454,https://maps.google.com/?cid=0x0:0x99f9f85832f83fe6,
restaurant,Restoran,Warung Solo Mas Panut Aimere,"5V44+JM9, Jalan Lintas Bajawa - Ruteng, RT.06/RW.Lingkungan 1, Aimere, Kec. Aimere, Kabupaten Ngada, Nusa Tenggara Tim.","Kabupaten Ngada, Nusa Tenggara Tim.",NUSA TENGGARA TIMUR,,Indonesia,81339119337,,,-88.434.511,1.208.567.333,https://maps.google.com/?cid=0x0:0xc420a51e72588cb3,
restaurant,Restoran,Warung Bu Tin,"5JR4+7GG, Jl. Lintas Flores, Wae Reca, Kec. Borong, Kabupaten Manggarai Timur, Nusa Tenggara Tim.","Kabupaten Manggarai Timur, Nusa Tenggara Tim.",NUSA TENGGARA TIMUR,,Indonesia,81231249119,,,-88.093.011,120.606.313,https://maps.google.com/?cid=0x0:0xf4d254c3a69e9ab9,
restaurant,Bakso,Kembang Idola,"5JM4+QV2, Rana Loba, Kec. Borong, Kabupaten Manggarai Timur, Nusa Tenggara Tim.","Kabupaten Manggarai Timur, Nusa Tenggara Tim.",NUSA TENGGARA TIMUR,,Indonesia,,,,-88.156.018,1.206.071.292,https://maps.google.com/?cid=0x0:0xb0a8c637730fbab3,
restaurant,Padang,Rumah Makan Lestari Gemo,"5RCM+3G9, GEMO.LEGELAPU FLORES., Aimere, Kec. Aimere, Kabupaten Ngada, Nusa Tenggara Tim.","Kabupaten Ngada, Nusa Tenggara Tim.",NUSA TENGGARA TIMUR,,Indonesia,81216318340,,,-8.829.848,1.208.338.678,https://maps.google.com/?cid=0x0:0x8d206e84c819f6f0,
restaurant,Padang,RM SAIYO Masakan Padang,"5JM6+W9F, Rana Loba, Kec. Borong, Kabupaten Manggarai Timur, Nusa Tenggara Tim.","Kabupaten Manggarai Timur, Nusa Tenggara Tim.",NUSA TENGGARA TIMUR,,Indonesia,,,,-88.151.921,1.206.109.338,https://maps.google.com/?cid=0x0:0xc311e04cc9c77afe,
restaurant,Restoran,DAPUR PERMATA BORONG,"5HPW+P2, Nanga Labang, Kec. Borong, Kabupaten Manggarai Timur, Nusa Tenggara Tim.","Kabupaten Manggarai Timur, Nusa Tenggara Tim.",NUSA TENGGARA TIMUR,,Indonesia,81575653110,,,-88.131,1.205.950.296,https://maps.google.com/?cid=0x0:0x3a9f1b2a77e778de,
restaurant,Padang,RM. Surya Minang masakan padang,"Wae reca, Jl. Lintas Flores, Rana Loba, Kec. Borong, Kabupaten Manggarai Timur, Nusa Tenggara Tim.","Kabupaten Manggarai Timur, Nusa Tenggara Tim.",NUSA TENGGARA TIMUR,,Indonesia,,,,-88.068.144,1.206.062.662,https://maps.google.com/?cid=0x0:0x3f58c696053a2a5e,
restaurant,Restoran,Warung Makan Lintang Rasa,"5JM7+R2J, Rana Loba, Kec. Borong, Kabupaten Manggarai Timur, Nusa Tenggara Tim.","Kabupaten Manggarai Timur, Nusa Tenggara Tim.",NUSA TENGGARA TIMUR,,Indonesia,,,,-88.160.427,1.206.129.882,https://maps.google.com/?cid=0x0:0x2358204cfc79251c,
restaurant,Padang,Rm. Arema,"5JM8+3XJ, Kota Ndora, Kec. Borong, Kabupaten Manggarai Timur, Nusa Tenggara Tim.","Kabupaten Manggarai Timur, Nusa Tenggara Tim.",NUSA TENGGARA TIMUR,,Indonesia,,,,-88.172.788,1.206.173.936,https://maps.google.com/?cid=0x0:0x39f0afb168470461,
restaurant,Rumah Makan,Rumah Makan Pancaran,"6JX6+QH5, Rana Loba, Kec. Borong, Kabupaten Manggarai Timur, Nusa Tenggara Tim.","Kabupaten Manggarai Timur, Nusa Tenggara Tim.",NUSA TENGGARA TIMUR,,Indonesia,81337789766,,,-87.506.177,1.206.114.999,https://maps.google.com/?cid=0x0:0x6f2354cddd76f378,
restaurant,Nasi Goreng,Nasi Goreng Special 77 Lalapan,"5JM8+3Q8, Kota Ndora, Kec. Borong, Kabupaten Manggarai Timur, Nusa Tenggara Tim.","Kabupaten Manggarai Timur, Nusa Tenggara Tim.",NUSA TENGGARA TIMUR,,Indonesia,81339708060,,,-8.817.341,1.206.169.394,https://maps.google.com/?cid=0x0:0x3efb11077c9a4bd6,
restaurant,Padang,Rumah Makan Lestari Aimere,"5RCM+2G9, Langagedha, Bajawa, Kabupaten Ngada, Nusa Tenggara Tim.","Kabupaten Ngada, Nusa Tenggara Tim.",NUSA TENGGARA TIMUR,,Indonesia,81246459489,,,-88.299.596,120.833.861,https://maps.google.com/?cid=0x0:0xdba037f27d5fe0ed,
restaurant,Restoran,Warung Gado Gado,"5JM8+4GG, Kota Ndora, Kec. Borong, Kabupaten Manggarai Timur, Nusa Tenggara Tim.","Kabupaten Manggarai Timur, Nusa Tenggara Tim.",NUSA TENGGARA TIMUR,,Indonesia,82313778895,,,-88.171.802,1.206.163.239,https://maps.google.com/?cid=0x0:0x7b5baf08dfc857e9,
restaurant,Restoran,Rumah Makan Jawa Timur,"9GRX+VJV, Bangka Pau, Kec. Poco Ranaka, Kabupaten Manggarai Timur, Nusa Tenggara Tim.","Kabupaten Manggarai Timur, Nusa Tenggara Tim.",NUSA TENGGARA TIMUR,,Indonesia,,,,-86.077.671,1.205.490.428,https://maps.google.com/?cid=0x0:0x857d7ebaa1d2a70d,
restaurant,Restoran,RM RANTAU,"5V54+R7W, Jl. Raya Lintas Flores, Aimere, Kec. Aimere, Kabupaten Ngada, Nusa Tenggara Tim.","Kabupaten Ngada, Nusa Tenggara Tim.",NUSA TENGGARA TIMUR,,Indonesia,82144207686,,,-88.403.826,1.208.556.963,https://maps.google.com/?cid=0x0:0x660998436fe59507,
restaurant,Indonesia,Rumah Makan Betawi,"5QMR+7X4, Watu Nggene, Kec. Kota Komba, Kabupaten Manggarai Timur, Nusa Tenggara Tim.","Kabupaten Manggarai Timur, Nusa Tenggara Tim.",NUSA TENGGARA TIMUR,,Indonesia,,,,-88.168.667,1.207.924.681,https://maps.google.com/?cid=0x0:0xd49c756182dad839,
restaurant,Nasi,Rumah Makan BOUGENVILE  BAKERY,"Kota Ndora, Kec. Borong, Kabupaten Manggarai Timur, Nusa Tenggara Tim.","Kabupaten Manggarai Timur, Nusa Tenggara Tim.",NUSA TENGGARA TIMUR,,Indonesia,81339408110,,,-88.175.138,1.206.151.474,https://maps.google.com/?cid=0x0:0x4bc94b2007de53af,
restaurant,Restoran,Chembos Restaurant,"Jl. Kartini No.05, Rana Loba, Kec. Borong, Kabupaten Manggarai Timur, Nusa Tenggara Tim.","Kabupaten Manggarai Timur, Nusa Tenggara Tim.",NUSA TENGGARA TIMUR,,Indonesia,82340804922,,,-8.815.578,1.206.086.531,https://maps.google.com/?cid=0x0:0xb31e5b47de2b66ed,
restaurant,Restoran atau Kafe,WARUNG DNQ'S,"5MR5+379, Jl. Lintas Flores, Tanah Rata, Kec. Kota Komba, Kabupaten Manggarai Timur, Nusa Tenggara Tim.","Kabupaten Manggarai Timur, Nusa Tenggara Tim.",NUSA TENGGARA TIMUR,,Indonesia,81353004009,,,-88.098.409,1.206.582.191,https://maps.google.com/?cid=0x0:0x3f3262809c87e74,
restaurant,Kedai Kopi,Nofen kafe,"6P5P+2M, Komba, Kec. Kota Komba, Kabupaten Manggarai Timur, Nusa Tenggara Tim.","Kabupaten Manggarai Timur, Nusa Tenggara Tim.",NUSA TENGGARA TIMUR,,Indonesia,,,,-8.792.395,1.207.367.275,https://maps.google.com/?cid=0x0:0xecb81fad23b54d00,
restaurant,Kafe,"YERACMILE RESTAURANT,CAFE  BAKERY","Kota Ndora, Kec. Borong, Kabupaten Manggarai Timur, Nusa Tenggara Tim.","Kabupaten Manggarai Timur, Nusa Tenggara Tim.",NUSA TENGGARA TIMUR,,Indonesia,81238268245,,,-88.175.138,1.206.150.399,https://maps.google.com/?cid=0x0:0x7db973b6db3c8845,
restaurant,Komplek perumahan,Rumah jandi,"5MRG+9H2, Tanah Rata, Kec. Kota Komba, Kabupaten Manggarai Timur, Nusa Tenggara Tim.","Kabupaten Manggarai Timur, Nusa Tenggara Tim.",NUSA TENGGARA TIMUR,,Indonesia,,,,-8.808.647,1.206.763.197,https://maps.google.com/?cid=0x0:0x123eb48ef5df3b18,
restaurant,Restoran,Chembos Resto,"No 4 Bugis Pasar Borong, Kota, Poco Rii, Kec. Borong, Kabupaten Manggarai Timur, Nusa Tenggara Tim.","Kabupaten Manggarai Timur, Nusa Tenggara Tim.",NUSA TENGGARA TIMUR,,Indonesia,8213779992,,,-86.768.575,1.206.429.991,https://maps.google.com/?cid=0x0:0xc5edf44846490980,
restaurant,restaurant,Waerana Coffee Shop,"6P97+7R7, Jalan Lintar Flores-Depan Kantor, Rongga Koe","Kabupaten Manggarai Timur, Nusa Tenggara Tim.",NUSA TENGGARA TIMUR,,Indonesia,,,,-87.818.474,1.207.145.452,https://maps.google.com/?cid=0x0:0x471be8cc0db918e6,
restaurant,restaurant,Nusa Tenggara Tim.,,Nusa Tenggara Tim.,NUSA TENGGARA TIMUR,,Indonesia,,,,-86.573.819,1.210.793.705,https://maps.google.com/?cid=0x0:0x1030bfbcaf71ae0,
restaurant,restaurant,Kec. Rana Mese,"Kabupaten Manggarai Timur, Nusa Tenggara Tim.","Kabupaten Manggarai Timur, Nusa Tenggara Tim.",NUSA TENGGARA TIMUR,,Indonesia,,,,-8.368.917,1.203.459.156,https://maps.google.com/?cid=0x0:0x866acef55b6f1bf6,
restaurant,restaurant,Rana Mese,"Kec. Sambi Rampas, Kabupaten Manggarai Timur, Nusa Tenggara Tim.","Kabupaten Manggarai Timur, Nusa Tenggara Tim.",NUSA TENGGARA TIMUR,,Indonesia,,,,-8.549.132,1.207.177.509,https://maps.google.com/?cid=0x0:0x3d93415f73d93570,
restaurant,Kedai Kopi,KEDAI OMANE,"KEDAI OMANE, Rana Loba, Kec. Borong, Kabupaten Manggarai Timur, Nusa Tenggara Tim. 86571","Rana Loba, Kec. Borong, Kabupaten Manggarai Timur",NUSA TENGGARA TIMUR,86571.0,Indonesia,81338295324,,,-88.093.713,1.206.129.865,https://maps.google.com/?cid=0x0:0xa28b6b11fcc46a5f,
restaurant,Padang,Rumah Makan Family,"Karang Siri, Kec. Kota Soe, Kabupaten Timor Tengah Selatan, Nusa Tenggara Tim.","Kabupaten Timor Tengah Selatan, Nusa Tenggara Tim.",NUSA TENGGARA TIMUR,,Indonesia,81239140888,,,-9.859.638,1.242.634.438,https://maps.google.com/?cid=0x0:0x8d41f519e358c477,
restaurant,Kafe,Wapres RJ,"Jalan Ki Hajar Dewantara, Rana Loba, Kec. Borong, Kabupaten Manggarai Timur, Nusa Tenggara Tim. 86571","Rana Loba, Kec. Borong, Kabupaten Manggarai Timur",NUSA TENGGARA TIMUR,86571.0,Indonesia,,,,-87.661.041,120.621.589,https://maps.google.com/?cid=0x0:0x8a8f1509c02504a2,
restaurant,Indonesia,Warung Bli Putu,"Jl. Ki Hajar Dewantara, Rana Loba, Kec. Borong, Kabupaten Manggarai Timur, Nusa Tenggara Tim. 86571","Rana Loba, Kec. Borong, Kabupaten Manggarai Timur",NUSA TENGGARA TIMUR,86571.0,Indonesia,,,,-88.124.771,1.206.097.672,https://maps.google.com/?cid=0x0:0xa8f29e67a8c11ba5,
restaurant,restaurant,Pizza Umma Gaza,"Tambak Cepi Watu. Belakang Warung Dapur Permata, Nanga Labang, Kec. Borong, Kabupaten Manggarai Timur, Nusa Tenggara Tim. 86571","Nanga Labang, Kec. Borong, Kabupaten Manggarai Timur",NUSA TENGGARA TIMUR,86571.0,Indonesia,81373487780,,,-88.131.036,1.205.949.727,https://maps.google.com/?cid=0x0:0x6efd6309b3a9073,
restaurant,restaurant,DJ CAFERESTO,"Jl. Lintas Flores, Rana Loba, Kec. Borong, Kabupaten Manggarai Timur, Nusa Tenggara Tim. 86571","Rana Loba, Kec. Borong, Kabupaten Manggarai Timur",NUSA TENGGARA TIMUR,86571.0,Indonesia,3852420373,,,-8.814.822,1.206.107.796,https://maps.google.com/?cid=0x0:0x6294478b21cd4250,
restaurant,Rumah Makan,La Nusa Resto,"983X+9P3, Bulan, Kec. Ruteng, Kabupaten Manggarai, Nusa Tenggara Tim.","Kabupaten Manggarai, Nusa Tenggara Tim.",NUSA TENGGARA TIMUR,,Indonesia,81298892030,,,-86.474.772,1.203.499.421,https://maps.google.com/?cid=0x0:0xde3c431261b230f8,
restaurant,Restoran,Rumah Makan Sari Laut Lesehan Mas Ari BALIRASA,"9FV8+3FJ, Mbaumuku, Kec. Langke Rembong, Kabupaten Manggarai, Nusa Tenggara Tim.","Kabupaten Manggarai, Nusa Tenggara Tim.",NUSA TENGGARA TIMUR,,Indonesia,82236128056,,,-86.072.975,1.204.661.319,https://maps.google.com/?cid=0x0:0xbf45869368ba2f31,
restaurant,Restoran,Bakso Pandawa,"MFPJ+XXF, Mata Air, Kec. Reok, Kabupaten Manggarai, Nusa Tenggara Tim.","Kabupaten Manggarai, Nusa Tenggara Tim.",NUSA TENGGARA TIMUR,,Indonesia,,,,-83.125.704,1.204.824.207,https://maps.google.com/?cid=0x0:0x6713b64319fe95e0,
restaurant,Restoran,Pak Kliwon Soup,"MFQR+JR5, Reo, Kec. Reok, Kabupaten Manggarai, Nusa Tenggara Tim.","Kabupaten Manggarai, Nusa Tenggara Tim.",NUSA TENGGARA TIMUR,,Indonesia,,,,-8.310.987,1.204.921.137,https://maps.google.com/?cid=0x0:0xb6a050dc9d523746,
restaurant,restaurant,Sky Terrace Hotel  restorant,"Jl. Hayam Wuruk, Pitak, Kec. Langke Rembong, Kabupaten Manggarai, Nusa Tenggara Tim.","Kabupaten Manggarai, Nusa Tenggara Tim.",NUSA TENGGARA TIMUR,,Indonesia,,,,-86.018.539,1.204.621.906,https://maps.google.com/?cid=0x0:0xd0c7564197c32df8,
restaurant,restaurant,Kopa HillTop - Family Guest Home,"Pa'ang Woang, Kopa Land, Jl. Giriparka, Pitak, Nusa Tenggara Tim. 86513","Kopa Land, Jl. Giriparka, Pitak",NUSA TENGGARA TIMUR,86513.0,Indonesia,81387650412,,,-86.042.863,1.204.609.017,https://maps.google.com/?cid=0x0:0x5847c916176a4ac,
restaurant,restaurant,Sonaf homestay,"Jalan hayam wuruk kelurahan tadong rt/rw : 021/002, Pitak, Kec. Langke Rembong, Kabupaten Manggarai, Nusa Tenggara Tim. 86511","Pitak, Kec. Langke Rembong, Kabupaten Manggarai",NUSA TENGGARA TIMUR,86511.0,Indonesia,82264535121,,,-85.994.357,1.204.639.264,https://maps.google.com/?cid=0x0:0xc8d309cd4bf1dc64,
restaurant,restaurant,Le Labe Homestay,"Jl. Komodo, Pitak, Kec. Langke Rembong, Kabupaten Manggarai, Nusa Tenggara Tim.","Kabupaten Manggarai, Nusa Tenggara Tim.",NUSA TENGGARA TIMUR,,Indonesia,,,,-86.045.987,1.204.603.042,https://maps.google.com/?cid=0x0:0x2e9df3b820e24fea,
restaurant,restaurant,Dahlia Hotel,"Jl. Bhayangkari No.19, Pitak, Kec. Langke Rembong, Kabupaten Manggarai, Nusa Tenggara Tim. 86511","Pitak, Kec. Langke Rembong, Kabupaten Manggarai",NUSA TENGGARA TIMUR,86511.0,Indonesia,38521377,,,-86.072.129,1.204.633.711,https://maps.google.com/?cid=0x0:0x153ff28b6628691c,
restaurant,restaurant,Sky Flores Hotel,"Jl. Yos Sudarso No.34, Mbaumuku, Kec. Langke Rembong, Kabupaten Manggarai, Nusa Tenggara Tim.","Kabupaten Manggarai, Nusa Tenggara Tim.",NUSA TENGGARA TIMUR,,Indonesia,85215000808,,,-86.065.375,1.204.669.404,https://maps.google.com/?cid=0x0:0x458b10bffcd31fbb,
restaurant,restaurant,Banana Home Stay,"Jl. Yos Sudarso, Mbaumuku, Kec. Langke Rembong, Kabupaten Manggarai, Nusa Tenggara Tim. 86571","Mbaumuku, Kec. Langke Rembong, Kabupaten Manggarai",NUSA TENGGARA TIMUR,86571.0,Indonesia,85215000808,,,-86.066.808,1.204.668.025,https://maps.google.com/?cid=0x0:0x4eb8d5393eb1963,
restaurant,restaurant,Raja guest house And Coffee Shop,"ruko pemda labtai dua, Jl. Montang Rua, Mbaumuku, Kec. Langke Rembong, Kabupaten Manggarai, Nusa Tenggara Tim.","Kabupaten Manggarai, Nusa Tenggara Tim.",NUSA TENGGARA TIMUR,,Indonesia,85260528456,,,-860.834,1.204.649.296,https://maps.google.com/?cid=0x0:0x5fd73fcb1806e693,
restaurant,restaurant,Spring Hill Hotel,"Jl. Kesturi No.1, Kelurahan Tadong, Kec. Langke Rembong, Kabupaten Manggarai, Nusa Tenggara Tim. 86511","Kelurahan Tadong, Kec. Langke Rembong, Kabupaten Manggarai",NUSA TENGGARA TIMUR,86511.0,Indonesia,81339372345,,,-86.043.455,1.204.689.034,https://maps.google.com/?cid=0x0:0xedd725d7847a830e,
restaurant,Taman,Kampung Ruteng Pu'u,"9CPW+FP, Golo Dukal, Kec. Langke Rembong, Kabupaten Manggarai, Nusa Tenggara Tim.","Kabupaten Manggarai, Nusa Tenggara Tim.",NUSA TENGGARA TIMUR,,Indonesia,82235132065,,,-86.118.462,1.204.459.329,https://maps.google.com/?cid=0x0:0x77e6ee736159c680,
restaurant,Bakso,Amazy Resto Ruteng,"Jl. Yos Sudarso, Mbaumuku, Kec. Langke Rembong, Kabupaten Manggarai, Nusa Tenggara Tim.","Kabupaten Manggarai, Nusa Tenggara Tim.",NUSA TENGGARA TIMUR,,Indonesia,82311116616,,,-86.077.516,1.204.668.726,https://maps.google.com/?cid=0x0:0x7d26e5b934c7b8d4,
restaurant,Restoran,Spring Hill Restaurant,"Jl. Kesturi No.1, Kelurahan Tadong, Kec. Langke Rembong, Kabupaten Manggarai, Nusa Tenggara Tim. 86511","Kelurahan Tadong, Kec. Langke Rembong, Kabupaten Manggarai",NUSA TENGGARA TIMUR,86511.0,Indonesia,81284298455,,,-8.604.645,1.204.686.019,https://maps.google.com/?cid=0x0:0xd50347e24b889e52,
restaurant,Kafe,KEDAI RAISA RUTENG,"9FP3+284, Pau, Kec. Langke Rembong, Kabupaten Manggarai, Nusa Tenggara Tim.","Kabupaten Manggarai, Nusa Tenggara Tim.",NUSA TENGGARA TIMUR,,Indonesia,,,,-86.149.852,1.204.533.333,https://maps.google.com/?cid=0x0:0x2b448dee254eaaeb,
restaurant,Restoran,Victory Resto,"Jl. Dewi Sartika No.9, Watu, Kec. Langke Rembong, Kabupaten Manggarai, Nusa Tenggara Tim.","Kabupaten Manggarai, Nusa Tenggara Tim.",NUSA TENGGARA TIMUR,,Indonesia,85205297086,,,-86.142.706,1.204.645.282,https://maps.google.com/?cid=0x0:0x1050da0b263435e6,
restaurant,Kafe,Sky Garden Resto,"9FM8+XH6, Watu, Kec. Langke Rembong, Kabupaten Manggarai, Nusa Tenggara Tim.","Kabupaten Manggarai, Nusa Tenggara Tim.",NUSA TENGGARA TIMUR,,Indonesia,81314163038,,,-86.150.992,1.204.663.857,https://maps.google.com/?cid=0x0:0xd6d10d85aad03677,
restaurant,Restoran,Parikoro Ruteng,"Wali, Kec. Langke Rembong, Kabupaten Manggarai, Nusa Tenggara Tim.","Kabupaten Manggarai, Nusa Tenggara Tim.",NUSA TENGGARA TIMUR,,Indonesia,82235523405,,,-86.020.256,1.204.544.365,https://maps.google.com/?cid=0x0:0x9ae9dbf50a2761bf,
restaurant,restaurant,Kec. Poco Ranaka Timur,"Kabupaten Manggarai Timur, Nusa Tenggara Tim.","Kabupaten Manggarai Timur, Nusa Tenggara Tim.",NUSA TENGGARA TIMUR,,Indonesia,,,,-85.543.382,120.618.277,https://maps.google.com/?cid=0x0:0x1564295fdcda3229,
restaurant,Bakso,warung baso aa,"FH9G+QPR, Jl. Ruteng - Benteng Jawa, Pocong, Kec. Poco Ranaka, Kabupaten Manggarai Timur, Nusa Tenggara Tim.","Kabupaten Manggarai Timur, Nusa Tenggara Tim.",NUSA TENGGARA TIMUR,,Indonesia,81337393987,,,-85.305.165,1.205.767.671,https://maps.google.com/?cid=0x0:0x7407db57ec58b548,
restaurant,Restoran,Rumah Makan Jawa Timur,"9GRX+VJV, Bangka Pau, Kec. Poco Ranaka, Kabupaten Manggarai Timur, Nusa Tenggara Tim.","Kabupaten Manggarai Timur, Nusa Tenggara Tim.",NUSA TENGGARA TIMUR,,Indonesia,,,,-86.077.671,1.205.490.428,https://maps.google.com/?cid=0x0:0x857d7ebaa1d2a70d,
restaurant,Brunch,Warung Bakso,"9JH9+PXQ, Rende Nao, Kec. Poco Ranaka, Kabupaten Manggarai Timur, Nusa Tenggara Tim.","Kabupaten Manggarai Timur, Nusa Tenggara Tim.",NUSA TENGGARA TIMUR,,Indonesia,82138845174,,,-86.206.712,1.206.199.895,https://maps.google.com/?cid=0x0:0x18ece40b93d1cb21,
restaurant,Restoran,Rumah Makan Podomoro,"9FQF+RVP, Tenda, Kec. Langke Rembong, Kabupaten Manggarai, Nusa Tenggara Tim.","Kabupaten Manggarai, Nusa Tenggara Tim.",NUSA TENGGARA TIMUR,,Indonesia,85333654577,,,-86.104.246,1.204.746.911,https://maps.google.com/?cid=0x0:0x5acebb0cbbcb5585,
restaurant,Restoran,Parikoro Ruteng,"Wali, Kec. Langke Rembong, Kabupaten Manggarai, Nusa Tenggara Tim.","Kabupaten Manggarai, Nusa Tenggara Tim.",NUSA TENGGARA TIMUR,,Indonesia,82235523405,,,-86.020.256,1.204.544.365,https://maps.google.com/?cid=0x0:0x9ae9dbf50a2761bf,
restaurant,restaurant,Sky Terrace Hotel  restorant,"Jl. Hayam Wuruk, Pitak, Kec. Langke Rembong, Kabupaten Manggarai, Nusa Tenggara Tim.","Kabupaten Manggarai, Nusa Tenggara Tim.",NUSA TENGGARA TIMUR,,Indonesia,,,,-86.018.539,1.204.621.906,https://maps.google.com/?cid=0x0:0xd0c7564197c32df8,
restaurant,restaurant,Kopa HillTop - Family Guest Home,"Pa'ang Woang, Kopa Land, Jl. Giriparka, Pitak, Nusa Tenggara Tim. 86513","Kopa Land, Jl. Giriparka, Pitak",NUSA TENGGARA TIMUR,86513.0,Indonesia,81387650412,,,-86.042.863,1.204.609.017,https://maps.google.com/?cid=0x0:0x5847c916176a4ac,
restaurant,restaurant,Sonaf homestay,"Jalan hayam wuruk kelurahan tadong rt/rw : 021/002, Pitak, Kec. Langke Rembong, Kabupaten Manggarai, Nusa Tenggara Tim. 86511","Pitak, Kec. Langke Rembong, Kabupaten Manggarai",NUSA TENGGARA TIMUR,86511.0,Indonesia,82264535121,,,-85.994.357,1.204.639.264,https://maps.google.com/?cid=0x0:0xc8d309cd4bf1dc64,
restaurant,restaurant,Le Labe Homestay,"Jl. Komodo, Pitak, Kec. Langke Rembong, Kabupaten Manggarai, Nusa Tenggara Tim.","Kabupaten Manggarai, Nusa Tenggara Tim.",NUSA TENGGARA TIMUR,,Indonesia,,,,-86.045.987,1.204.603.042,https://maps.google.com/?cid=0x0:0x2e9df3b820e24fea,
restaurant,restaurant,Dahlia Hotel,"Jl. Bhayangkari No.19, Pitak, Kec. Langke Rembong, Kabupaten Manggarai, Nusa Tenggara Tim. 86511","Pitak, Kec. Langke Rembong, Kabupaten Manggarai",NUSA TENGGARA TIMUR,86511.0,Indonesia,38521377,,,-86.072.129,1.204.633.711,https://maps.google.com/?cid=0x0:0x153ff28b6628691c,
restaurant,restaurant,Sky Flores Hotel,"Jl. Yos Sudarso No.34, Mbaumuku, Kec. Langke Rembong, Kabupaten Manggarai, Nusa Tenggara Tim.","Kabupaten Manggarai, Nusa Tenggara Tim.",NUSA TENGGARA TIMUR,,Indonesia,85215000808,,,-86.065.375,1.204.669.404,https://maps.google.com/?cid=0x0:0x458b10bffcd31fbb,
restaurant,restaurant,Banana Home Stay,"Jl. Yos Sudarso, Mbaumuku, Kec. Langke Rembong, Kabupaten Manggarai, Nusa Tenggara Tim. 86571","Mbaumuku, Kec. Langke Rembong, Kabupaten Manggarai",NUSA TENGGARA TIMUR,86571.0,Indonesia,85215000808,,,-86.066.808,1.204.668.025,https://maps.google.com/?cid=0x0:0x4eb8d5393eb1963,
restaurant,restaurant,Spring Hill Hotel,"Jl. Kesturi No.1, Kelurahan Tadong, Kec. Langke Rembong, Kabupaten Manggarai, Nusa Tenggara Tim. 86511","Kelurahan Tadong, Kec. Langke Rembong, Kabupaten Manggarai",NUSA TENGGARA TIMUR,86511.0,Indonesia,81339372345,,,-86.043.455,1.204.689.034,https://maps.google.com/?cid=0x0:0xedd725d7847a830e,
restaurant,restaurant,Raja guest house And Coffee Shop,"ruko pemda labtai dua, Jl. Montang Rua, Mbaumuku, Kec. Langke Rembong, Kabupaten Manggarai, Nusa Tenggara Tim.","Kabupaten Manggarai, Nusa Tenggara Tim.",NUSA TENGGARA TIMUR,,Indonesia,85260528456,,,-860.834,1.204.649.296,https://maps.google.com/?cid=0x0:0x5fd73fcb1806e693,
restaurant,Taman,Kampung Ruteng Pu'u,"9CPW+FP, Golo Dukal, Kec. Langke Rembong, Kabupaten Manggarai, Nusa Tenggara Tim.","Kabupaten Manggarai, Nusa Tenggara Tim.",NUSA TENGGARA TIMUR,,Indonesia,82235132065,,,-86.118.462,1.204.459.329,https://maps.google.com/?cid=0x0:0x77e6ee736159c680,
restaurant,Rumah Makan,La Nusa Resto,"983X+9P3, Bulan, Kec. Ruteng, Kabupaten Manggarai, Nusa Tenggara Tim.","Kabupaten Manggarai, Nusa Tenggara Tim.",NUSA TENGGARA TIMUR,,Indonesia,81298892030,,,-86.474.772,1.203.499.421,https://maps.google.com/?cid=0x0:0xde3c431261b230f8,
restaurant,Restoran,Spring Hill Restaurant,"Jl. Kesturi No.1, Kelurahan Tadong, Kec. Langke Rembong, Kabupaten Manggarai, Nusa Tenggara Tim. 86511","Kelurahan Tadong, Kec. Langke Rembong, Kabupaten Manggarai",NUSA TENGGARA TIMUR,86511.0,Indonesia,81284298455,,,-8.604.645,1.204.686.019,https://maps.google.com/?cid=0x0:0xd50347e24b889e52,
restaurant,Padang,RM Ranah Minang Dua,"9FR8+P58, Mbaumuku, Kec. Langke Rembong, Kabupaten Manggarai, Nusa Tenggara Tim.","Kabupaten Manggarai, Nusa Tenggara Tim.",NUSA TENGGARA TIMUR,,Indonesia,,,,-86.082.248,1.204.654.464,https://maps.google.com/?cid=0x0:0xcebd4aac041e9cc6,
restaurant,Kedai Kopi,Cabang 3 Maroeara family,"CJWC+F44, Golo Lero, Kec. Poco Ranaka Timur, Kabupaten Manggarai Timur, Nusa Tenggara Tim.","Kabupaten Manggarai Timur, Nusa Tenggara Tim.",NUSA TENGGARA TIMUR,,Indonesia,,,,-85.538.574,1.206.203.375,https://maps.google.com/?cid=0x0:0x30d39c9fd8c4c401,
restaurant,Toko umum,Kios epril,"Ulu Wae, Kec. Poco Ranaka, Kabupaten Manggarai Timur, Nusa Tenggara Tim.","Kabupaten Manggarai Timur, Nusa Tenggara Tim.",NUSA TENGGARA TIMUR,,Indonesia,,,,-85.960.122,1.206.435.487,https://maps.google.com/?cid=0x0:0xa467d55fdf6bcf29,
restaurant,Kafe,Angkringan Manoraya,"ManoKec, Jl. Ruteng - Benteng Jawa, Kec. Poco Ranaka Timur, Kabupaten Manggarai Timur, Nusa Tenggara Tim. 86583","Jl. Ruteng - Benteng Jawa, Kec. Poco Ranaka Timur, Kabupaten Manggarai Timur",NUSA TENGGARA TIMUR,86583.0,Indonesia,81329389229,,,-86.050.373,1.205.418.758,https://maps.google.com/?cid=0x0:0x8b18e15a5c44667,
restaurant,Kios,Kios Mobert,"CJV9+CMJ, Unnamed Road, Golo Lero, Kec. Poco Ranaka Timur, Kabupaten Manggarai Timur, Nusa Tenggara Tim.","Kabupaten Manggarai Timur, Nusa Tenggara Tim.",NUSA TENGGARA TIMUR,,Indonesia,"8,13808E+11",,,-85.564.064,1.206.191.343,https://maps.google.com/?cid=0x0:0xb5a6ed97aa2f745,
restaurant,Asosiasi/organisasi,Filosofi Kopi Colol Djabu,"Ulu Wae, Kec. Poco Ranaka Timur, Kabupaten Manggarai Timur, Nusa Tenggara Tim.","Kabupaten Manggarai Timur, Nusa Tenggara Tim.",NUSA TENGGARA TIMUR,,Indonesia,81239209921,,,-85.987.558,1.206.343.307,https://maps.google.com/?cid=0x0:0x31e449fab70eddd3,
restaurant,Brunch,"Golo Kerong, Benteng Jawa,Manggarai Timur","9JH9+PXQ, Rende Nao, Kec. Poco Ranaka Timur, Kabupaten Manggarai Timur, Nusa Tenggara Tim.","Kabupaten Manggarai Timur, Nusa Tenggara Tim.",NUSA TENGGARA TIMUR,,Indonesia,,,,-86.206.712,1.206.199.895,https://maps.google.com/?cid=0x0:0xaff3b2877b1d97a5,
restaurant,Kedai Kopi,Rumahnya Julian,"FM23+VM, Ngkiong Dora, Kec. Poco Ranaka Timur, Kabupaten Manggarai Timur, Nusa Tenggara Tim.","Kabupaten Manggarai Timur, Nusa Tenggara Tim.",NUSA TENGGARA TIMUR,,Indonesia,,,,-85.478.467,1.206.541.873,https://maps.google.com/?cid=0x0:0x91396e23361f2c41,
restaurant,Restoran,Rm. Merlin,"Watu, Kec. Langke Rembong, Kabupaten Manggarai, Nusa Tenggara Tim.","Kabupaten Manggarai, Nusa Tenggara Tim.",NUSA TENGGARA TIMUR,,Indonesia,,,,-86.233.451,1.204.701.278,https://maps.google.com/?cid=0x0:0x55b2cbdcd4591544,
restaurant,Restoran,Victory Resto,"Jl. Dewi Sartika No.9, Watu, Kec. Langke Rembong, Kabupaten Manggarai, Nusa Tenggara Tim.","Kabupaten Manggarai, Nusa Tenggara Tim.",NUSA TENGGARA TIMUR,,Indonesia,85205297086,,,-86.142.706,1.204.645.282,https://maps.google.com/?cid=0x0:0x1050da0b263435e6,
restaurant,Restoran,Chembos Resto,"No 4 Bugis Pasar Borong, Kota, Poco Rii, Kec. Borong, Kabupaten Manggarai Timur, Nusa Tenggara Tim.","Kabupaten Manggarai Timur, Nusa Tenggara Tim.",NUSA TENGGARA TIMUR,,Indonesia,8213779992,,,-86.768.575,1.206.429.991,https://maps.google.com/?cid=0x0:0xc5edf44846490980,
restaurant,restaurant,Kec. Elar Selatan,"Kabupaten Manggarai Timur, Nusa Tenggara Tim.","Kabupaten Manggarai Timur, Nusa Tenggara Tim.",NUSA TENGGARA TIMUR,,Indonesia,,,,-86.439.057,1.207.613.321,https://maps.google.com/?cid=0x0:0x29c346791b550200,
restaurant,Kafe,OSENLEN RESTAURANT,"Jl Trans Flores, Siru, Kecamatan Lembor, Kabupaten Manggarai Barat, Nusa Tenggara Tim.","Kabupaten Manggarai Barat, Nusa Tenggara Tim.",NUSA TENGGARA TIMUR,,Indonesia,"8,95405E+11",,,-86.773.074,1.201.517.374,https://maps.google.com/?cid=0x0:0x368144ddd98b9e7c,
restaurant,Restoran,gettan cafe,"8PV3+5W4, Rana Mbeling, Kec. Kota Komba, Kabupaten Manggarai Timur, Nusa Tenggara Tim.","Kabupaten Manggarai Timur, Nusa Tenggara Tim.",NUSA TENGGARA TIMUR,,Indonesia,,,,-86.571.087,12.070.482,https://maps.google.com/?cid=0x0:0x46a61b408722c7f,
restaurant,Rumah Makan,Warung Mulyaman,"FQFC+XJM, Tiwu Kondo, Kec. Elar, Kabupaten Manggarai Timur, Nusa Tenggara Tim.","Kabupaten Manggarai Timur, Nusa Tenggara Tim.",NUSA TENGGARA TIMUR,,Indonesia,,,,-85.250.252,1.207.715.367,https://maps.google.com/?cid=0x0:0xd6c4d1a60eb7b1f7,
restaurant,Kedai Kopi,Omfitto,"9RQQ+VQQ, Desa mosingaran, Langgasai, Kabupaten Manggarai Timur, Nusa Tenggara Tim.","Kabupaten Manggarai Timur, Nusa Tenggara Tim.",NUSA TENGGARA TIMUR,,Indonesia,,,,-8.610.295,1.208.394.977,https://maps.google.com/?cid=0x0:0xd85e5e6de6ac91f7,
restaurant,restaurant,Rumah,"CR7V+CMC, Sangan Kalo, Kec. Elar Selatan, Kabupaten Manggarai Timur, Nusa Tenggara Tim.","Kabupaten Manggarai Timur, Nusa Tenggara Tim.",NUSA TENGGARA TIMUR,,Indonesia,,,,-85.864.286,120.844.152,https://maps.google.com/?cid=0x0:0x4196ddd77e4f0124,
restaurant,Bar,Deny Coffie,"9RQQ+8WV, Mosingaran, Kec. Elar, Kabupaten Manggarai Timur, Nusa Tenggara Tim.","Kabupaten Manggarai Timur, Nusa Tenggara Tim.",NUSA TENGGARA TIMUR,,Indonesia,81237961406,,,-86.116.487,1.208.398.066,https://maps.google.com/?cid=0x0:0x269116a84281a281,
restaurant,Rumah Makan,Mbako Kasar,"Wae Dangas complex, Runus, Nusa Tenggara Tim. 72774",Runus,NUSA TENGGARA TIMUR,72774.0,Indonesia,,,,-86.244.855,1.208.233.505,https://maps.google.com/?cid=0x0:0x420e8bf935189f45,
restaurant,Dapur Umum,Dia putri warung,"FPFH+CWF, Lengko Namut, Kec. Elar, Kabupaten Manggarai Timur, Nusa Tenggara Tim.","Kabupaten Manggarai Timur, Nusa Tenggara Tim.",NUSA TENGGARA TIMUR,,Indonesia,,,,-85.264.754,1.207.298.591,https://maps.google.com/?cid=0x0:0xbe0ad7554358e428,
restaurant,restaurant,Kedai Pakde Samsul,"Jln Elar Watunggong, Kabupaten Manggarai Timur, Nusa Tenggara Tim. 86584",Kabupaten Manggarai Timur,NUSA TENGGARA TIMUR,86584.0,Indonesia,89540570823,,,-85.363.424,1.206.691.129,https://maps.google.com/?cid=0x0:0x7a624e3d700683e1,
restaurant,Rumah Makan,Rumah makan Molas poso,"FPFH+CWF, Lengko Namut, Kec. Elar, Kabupaten Manggarai Timur, Nusa Tenggara Tim.","Kabupaten Manggarai Timur, Nusa Tenggara Tim.",NUSA TENGGARA TIMUR,,Indonesia,,,,-85.264.754,1.207.298.591,https://maps.google.com/?cid=0x0:0xd5dab38c5ebfd66c,
restaurant,Kedai Kopi,Sonya home,"9Q46+C3M, Sipi, Kec. Elar Selatan, Kabupaten Manggarai Timur, Nusa Tenggara Tim.","Kabupaten Manggarai Timur, Nusa Tenggara Tim.",NUSA TENGGARA TIMUR,,Indonesia,,,,-86.439.165,1.207.601.725,https://maps.google.com/?cid=0x0:0x6123451757e71d9a,
restaurant,Komplek perumahan,Gerlan Home,"CRCM+3W, Sangan Kalo, Kec. Elar Selatan, Kabupaten Manggarai Timur, Nusa Tenggara Tim.","Kabupaten Manggarai Timur, Nusa Tenggara Tim.",NUSA TENGGARA TIMUR,,Indonesia,,,,-85.797.525,1.208.348.482,https://maps.google.com/?cid=0x0:0x972ed01056eaabae,
restaurant,Kedai Kopi,@frama,"9RRQ+63V, Mosi, Ngaran, Kec. Elar, Kabupaten Manggarai Timur, Nusa Tenggara Tim.","Kabupaten Manggarai Timur, Nusa Tenggara Tim.",NUSA TENGGARA TIMUR,,Indonesia,,,,-86.093.796,1.208.376.678,https://maps.google.com/?cid=0x0:0x48894730153155e2,
restaurant,Restoran,Chembos Resto,"No 4 Bugis Pasar Borong, Kota, Poco Rii, Kec. Borong, Kabupaten Manggarai Timur, Nusa Tenggara Tim.","Kabupaten Manggarai Timur, Nusa Tenggara Tim.",NUSA TENGGARA TIMUR,,Indonesia,8213779992,,,-86.768.575,1.206.429.991,https://maps.google.com/?cid=0x0:0xc5edf44846490980,
restaurant,Toko umum,Kios epril,"Ulu Wae, Kec. Poco Ranaka, Kabupaten Manggarai Timur, Nusa Tenggara Tim.","Kabupaten Manggarai Timur, Nusa Tenggara Tim.",NUSA TENGGARA TIMUR,,Indonesia,,,,-85.960.122,1.206.435.487,https://maps.google.com/?cid=0x0:0xa467d55fdf6bcf29,
restaurant,Rumah Makan,Rumah I m ithak,"8M8H+3H8, Benteng Raja, Kec. Borong, Kabupaten Manggarai Timur, Nusa Tenggara Tim.","Kabupaten Manggarai Timur, Nusa Tenggara Tim.",NUSA TENGGARA TIMUR,,Indonesia,,,,-86.848.375,1.206.789.531,https://maps.google.com/?cid=0x0:0x4f598990946099cf,
restaurant,Kedai Kopi,Rumah bp Gerry,"9P4F+JXH, Golo Nderu, Kec. Kota Komba, Kabupaten Manggarai Timur, Nusa Tenggara Tim.","Kabupaten Manggarai Timur, Nusa Tenggara Tim.",NUSA TENGGARA TIMUR,,Indonesia,,,,-86.427.753,1.207.253.953,https://maps.google.com/?cid=0x0:0xcbdc00099d9576db,
restaurant,Brunch,Rumah makan cabang 4 watungong,"FM79+JM7, Watungong, Kec. Borong, Kabupaten Manggarai Timur, Nusa Tenggara Tim.","Kabupaten Manggarai Timur, Nusa Tenggara Tim.",NUSA TENGGARA TIMUR,,Indonesia,,,,-85.359.674,1.206.691.729,https://maps.google.com/?cid=0x0:0x7999f30405a1ea74,
restaurant,restaurant,Wawant,"9RPF+8H, mosingaran, Kec. Elar Selatan, Kabupaten Manggarai Timur, Nusa Tenggara Tim.","Kabupaten Manggarai Timur, Nusa Tenggara Tim.",NUSA TENGGARA TIMUR,,Indonesia,,,,-86.142.134,1.208.239.292,https://maps.google.com/?cid=0x0:0x36340dc6e6e7a3f,
restaurant,restaurant,Satu seong,"9RPF+FQV, Langgasai, Kec. Elar, Kabupaten Manggarai Timur, Nusa Tenggara Tim.","Kabupaten Manggarai Timur, Nusa Tenggara Tim.",NUSA TENGGARA TIMUR,,Indonesia,,,,-86.137.682,1.208.244.299,https://maps.google.com/?cid=0x0:0x6c046a224df0a522,
restaurant,Kafe,PERON SKYCAFE,"Yello Hotel, Jl. Minangkabau Timur No.9 Lantai 9, RT.6/RW.8, Ps. Manggis, Kecamatan Setiabudi, Kota Jakarta Selatan, Daerah Khusus Ibukota Jakarta 12970","Jl. Minangkabau Timur No.9 Lantai 9, RT.6/RW.8, Ps. Manggis, Kecamatan Setiabudi, Kota Jakarta Selatan",NUSA TENGGARA TIMUR,12970.0,Indonesia,2130428888,,,-62.106.143,10.684.537,https://maps.google.com/?cid=0x0:0xf7de00c29371f576,
restaurant,Indonesia,Wok n Tok,"Hotel Yello Manggarai, Jl. Minangkabau Timur No.9, RT.6/RW.8, Pasar Manggis, Setiabudi, South Jakarta City, Jakarta 12970","Jl. Minangkabau Timur No.9, RT.6/RW.8, Pasar Manggis, Setiabudi, South Jakarta City",NUSA TENGGARA TIMUR,12970.0,Indonesia,,,,-62.105.169,1.068.453.562,https://maps.google.com/?cid=0x0:0x61bf56c023270a8,
restaurant,Kedai Kopi,Wontong cafe  lounge,"8JHC+57H desa Golo leda, Jl . borong, waling, Kec. Borong, Kabupaten Manggarai Timur, Nusa Tenggara Tim.","Kabupaten Manggarai Timur, Nusa Tenggara Tim.",NUSA TENGGARA TIMUR,,Indonesia,,,,-86.720.679,1.206.207.306,https://maps.google.com/?cid=0x0:0x466ab5c64bcd3736,
cafe,cafe,Kec. Borong,"Kabupaten Manggarai Timur, Nusa Tenggara Tim.","Kabupaten Manggarai Timur, Nusa Tenggara Tim.",NUSA TENGGARA TIMUR,,Indonesia,,,,-88.148.406,1.206.082.067,https://maps.google.com/?cid=0x0:0x2a97d54812a8d6a5,
cafe,Kafe,Lejong coffee Borong,"Jalan raya ruteng ende, Rana Loba, Kec. Borong, Kabupaten Manggarai Timur, Nusa Tenggara Tim.","Kabupaten Manggarai Timur, Nusa Tenggara Tim.",NUSA TENGGARA TIMUR,,Indonesia,89507601207,,,-88.108.309,120.605.534,https://maps.google.com/?cid=0x0:0x5ac03f1c1eeecae4,
cafe,Kedai Kopi,Wontong cafe  lounge,"8JHC+57H desa Golo leda, Jl . borong, waling, Kec. Borong, Kabupaten Manggarai Timur, Nusa Tenggara Tim.","Kabupaten Manggarai Timur, Nusa Tenggara Tim.",NUSA TENGGARA TIMUR,,Indonesia,,,,-86.720.679,1.206.207.306,https://maps.google.com/?cid=0x0:0x466ab5c64bcd3736,
cafe,Kafe,"YERACMILE RESTAURANT,CAFE  BAKERY","Kota Ndora, Kec. Borong, Kabupaten Manggarai Timur, Nusa Tenggara Tim.","Kabupaten Manggarai Timur, Nusa Tenggara Tim.",NUSA TENGGARA TIMUR,,Indonesia,81238268245,,,-88.175.138,1.206.150.399,https://maps.google.com/?cid=0x0:0x7db973b6db3c8845,
cafe,Layanan Pengiriman Barang Kelontong,Rana Loba Coffee House,"5JV8+RMC, Unnamed Road, Rana Loba, Borong, East Manggarai Regency, East Nusa Tenggara","Kabupaten Manggarai Timur, Nusa Tenggara Tim.",NUSA TENGGARA TIMUR,,Indonesia,81315499399,,,-88.054.363,1.206.166.285,https://maps.google.com/?cid=0x0:0x9b9488d650ba937,
cafe,Kafe,Kopito Edelweiss,"Jl. Trans Flores, Sita, Kec. Borong, Kabupaten Manggarai Timur, Nusa Tenggara Tim.","Kabupaten Manggarai Timur, Nusa Tenggara Tim.",NUSA TENGGARA TIMUR,,Indonesia,82144139321,,,-87.279.148,1.205.676.789,https://maps.google.com/?cid=0x0:0xb9e0726cfe0fcbd5,
cafe,Layanan Pengiriman Barang Kelontong,Pusol 88 Rumah Wunut Borong,"Nanga Labang, Kec. Borong, Kabupaten Manggarai Timur, Nusa Tenggara Tim.","Kabupaten Manggarai Timur, Nusa Tenggara Tim.",NUSA TENGGARA TIMUR,,Indonesia,81236529777,,,-88.057.954,120.597.497,https://maps.google.com/?cid=0x0:0x7400f03cf44cb4d6,
cafe,Kafe,D'Loby Cafe,"5HPP+33W, Nanga Labang, Kec. Borong, Kabupaten Manggarai Timur, Nusa Tenggara Tim.","Kabupaten Manggarai Timur, Nusa Tenggara Tim.",NUSA TENGGARA TIMUR,,Indonesia,,,,-88.147.596,1.205.851.954,https://maps.google.com/?cid=0x0:0x7efbb5dfdf4656cc,
cafe,Kafe,Stefany Cafe  Mini Bar,"5HPP+4JX, Nanga Labang, Kec. Borong, Kabupaten Manggarai Timur, Nusa Tenggara Tim.","Kabupaten Manggarai Timur, Nusa Tenggara Tim.",NUSA TENGGARA TIMUR,,Indonesia,,,,-88.146.481,120.586.596,https://maps.google.com/?cid=0x0:0xd28120f6ba83231f,
cafe,Kafe,Anera Cafe,"5HMJ+46C, Nanga Labang, Kec. Borong, Kabupaten Manggarai Timur, Nusa Tenggara Tim.","Kabupaten Manggarai Timur, Nusa Tenggara Tim.",NUSA TENGGARA TIMUR,,Indonesia,82237110200,,,-88.171.789,1.205.805.118,https://maps.google.com/?cid=0x0:0x8d71911d783a7ae8,
cafe,Kafe,Se'i Babi cafe,"5HVW+R68, Nanga Labang, Kec. Borong, Kabupaten Manggarai Timur, Nusa Tenggara Tim.","Kabupaten Manggarai Timur, Nusa Tenggara Tim.",NUSA TENGGARA TIMUR,,Indonesia,,,,-88.054.729,120.595.566,https://maps.google.com/?cid=0x0:0xc5fce106d8605440,
cafe,Nasi,Rumah Makan BOUGENVILE  BAKERY,"Kota Ndora, Kec. Borong, Kabupaten Manggarai Timur, Nusa Tenggara Tim.","Kabupaten Manggarai Timur, Nusa Tenggara Tim.",NUSA TENGGARA TIMUR,,Indonesia,81339408110,,,-88.175.138,1.206.151.474,https://maps.google.com/?cid=0x0:0x4bc94b2007de53af,
cafe,Kafe,zona cafe,"5HPM+4XH, Nanga Labang, Kec. Borong, Kabupaten Manggarai Timur, Nusa Tenggara Tim.","Kabupaten Manggarai Timur, Nusa Tenggara Tim.",NUSA TENGGARA TIMUR,,Indonesia,82144561580,,,-88.146.792,1.205.849.952,https://maps.google.com/?cid=0x0:0xde9767b036dd3180,
cafe,Restoran,Chembos Restaurant,"Jl. Kartini No.05, Rana Loba, Kec. Borong, Kabupaten Manggarai Timur, Nusa Tenggara Tim.","Kabupaten Manggarai Timur, Nusa Tenggara Tim.",NUSA TENGGARA TIMUR,,Indonesia,82340804922,,,-8.815.578,1.206.086.531,https://maps.google.com/?cid=0x0:0xb31e5b47de2b66ed,
cafe,Kedai Kopi,Golo Loni Coffee,"Golo Loni, Kec. Borong, Kabupaten Manggarai Timur, Nusa Tenggara Tim.","Kabupaten Manggarai Timur, Nusa Tenggara Tim.",NUSA TENGGARA TIMUR,,Indonesia,82145315266,,,-86.558.349,1.205.610.422,https://maps.google.com/?cid=0x0:0x989bb2621ba63cbd,
cafe,Kafe,Wapres RJ,"Jalan Ki Hajar Dewantara, Rana Loba, Kec. Borong, Kabupaten Manggarai Timur, Nusa Tenggara Tim. 86571","Rana Loba, Kec. Borong, Kabupaten Manggarai Timur",NUSA TENGGARA TIMUR,86571.0,Indonesia,,,,-87.661.041,120.621.589,https://maps.google.com/?cid=0x0:0x8a8f1509c02504a2,
cafe,Kafe,ES KUWUT BALI,"5JR7+C5P, Jl. Ki Hajar Dewantara, Rana Loba, Kec. Borong, Kabupaten Manggarai Timur, Nusa Tenggara Tim.","Kabupaten Manggarai Timur, Nusa Tenggara Tim.",NUSA TENGGARA TIMUR,,Indonesia,82146267725,,,-88.089.048,1.206.129.505,https://maps.google.com/?cid=0x0:0x5a7a19b2e6f9f046,
cafe,Restoran,DAPUR PERMATA BORONG,"5HPW+P2, Nanga Labang, Kec. Borong, Kabupaten Manggarai Timur, Nusa Tenggara Tim.","Kabupaten Manggarai Timur, Nusa Tenggara Tim.",NUSA TENGGARA TIMUR,,Indonesia,81575653110,,,-88.131,1.205.950.296,https://maps.google.com/?cid=0x0:0x3a9f1b2a77e778de,
cafe,Kedai Kopi,KEDAI OMANE,"KEDAI OMANE, Rana Loba, Kec. Borong, Kabupaten Manggarai Timur, Nusa Tenggara Tim. 86571","Rana Loba, Kec. Borong, Kabupaten Manggarai Timur",NUSA TENGGARA TIMUR,86571.0,Indonesia,81338295324,,,-88.093.713,1.206.129.865,https://maps.google.com/?cid=0x0:0xa28b6b11fcc46a5f,
cafe,Kafe,Toko Bintang Harapan,"Jl. Moh. Hatta, Rana Loba, Kec. Borong, Kabupaten Manggarai Timur, Nusa Tenggara Tim.","Kabupaten Manggarai Timur, Nusa Tenggara Tim.",NUSA TENGGARA TIMUR,,Indonesia,81237158800,,,-88.152.089,1.206.112.306,https://maps.google.com/?cid=0x0:0xec8704d4eff660e6,
cafe,Restoran,Wisata Kuliner Pantai,"5JG5+QP6, Kota Ndora, Kec. Borong, Kabupaten Manggarai Timur, Nusa Tenggara Tim.","Kabupaten Manggarai Timur, Nusa Tenggara Tim.",NUSA TENGGARA TIMUR,,Indonesia,,,,-88.230.913,1.206.092.616,https://maps.google.com/?cid=0x0:0xf46e1ee1ad7ec414,
cafe,Kafe,Uncle Jo X Bar MANUNGGAL,"Jl. Manunggal II No.3, RT.01/RW.15, Menteng, Kec. Bogor Bar., Kota Bogor, Jawa Barat 16111","RT.01/RW.15, Menteng, Kec. Bogor Bar., Kota Bogor",NUSA TENGGARA TIMUR,16111.0,Indonesia,811956985,,,-65.827.398,1.067.861.451,https://maps.google.com/?cid=0x0:0xb6cb0e4685632711,
cafe,Kedai Kopi,UNCLEJOKOPI.ID,"Jalan Gedong Sawah 1 No. 30A, RT.02/RW.01, Pabaton, Kecamatan Bogor Tengah, Kota Bogor, Jawa Barat 16121","RT.02/RW.01, Pabaton, Kecamatan Bogor Tengah, Kota Bogor",NUSA TENGGARA TIMUR,16121.0,Indonesia,811956985,,,-65.940.392,1.067.924.582,https://maps.google.com/?cid=0x0:0xb95bfdfda7eb8dc,
cafe,Kedai Kopi,Anthology Coffee And Tea,"Komplek Danau Teratai Jl. MH. Thamrin, RT.03/RW.08, Cijayanti, Kec. Babakan Madang, Kabupaten Bogor, Jawa Barat 16810","RT.03/RW.08, Cijayanti, Kec. Babakan Madang, Kabupaten Bogor",NUSA TENGGARA TIMUR,16810.0,Indonesia,2122930210,,,-65.753.676,1.068.644.623,https://maps.google.com/?cid=0x0:0x9b69e5b554e6cc0d,
cafe,cafe,Caffe Queen,"5JP7+Q63, Rana Loba, Kec. Borong, Kabupaten Manggarai Timur, Nusa Tenggara Tim. 86571","Rana Loba, Kec. Borong, Kabupaten Manggarai Timur",NUSA TENGGARA TIMUR,86571.0,Indonesia,,,,-88.136.405,1.206.131.014,https://maps.google.com/?cid=0x0:0x6b70db312844fb14,
cafe,cafe,Nusa Tenggara Tim.,,Nusa Tenggara Tim.,NUSA TENGGARA TIMUR,,Indonesia,,,,-86.573.819,1.210.793.705,https://maps.google.com/?cid=0x0:0x1030bfbcaf71ae0,
cafe,Kafe,Caffe Poco Kepe,"9GVX+67H, Mando Sawu, Kec. Poco Ranaka, Kabupaten Manggarai Timur, Nusa Tenggara Tim.","Kabupaten Manggarai Timur, Nusa Tenggara Tim.",NUSA TENGGARA TIMUR,,Indonesia,81353062307,,,-86.069.252,120.548.227,https://maps.google.com/?cid=0x0:0x3d2bd5311ec7c6df,
cafe,Kedai Kopi,Cantika Coffee,"9GWQ+8FV, Jl. Ruteng - Benteng Jawa, Mando Sawu, Kec. Poco Ranaka, Kabupaten Manggarai Timur, Nusa Tenggara Tim.","Kabupaten Manggarai Timur, Nusa Tenggara Tim.",NUSA TENGGARA TIMUR,,Indonesia,82136807730,,,-86.041.399,1.205.386.639,https://maps.google.com/?cid=0x0:0x28270c14ca471b2c,
cafe,Kafe,Bangga rangga,"9JV6+VC, Rende Nao, Kec. Poco Ranaka Timur, Kabupaten Manggarai Timur, Nusa Tenggara Tim.","Kabupaten Manggarai Timur, Nusa Tenggara Tim.",NUSA TENGGARA TIMUR,,Indonesia,,,,-86.052.233,1.206.109.099,https://maps.google.com/?cid=0x0:0xa7f4989b29a3e81a,
cafe,Kafe,Calin Cafe  Baking Supply store,"Jl. Niaga No.8, Mbaumuku, Kec. Langke Rembong, Kabupaten Manggarai, Nusa Tenggara Tim.","Kabupaten Manggarai, Nusa Tenggara Tim.",NUSA TENGGARA TIMUR,,Indonesia,82145832828,,,-86.096.463,1.204.647.368,https://maps.google.com/?cid=0x0:0x7d4b0ab246c1bd96,
cafe,Kedai Kopi,Kedai Evodia,"9GQX+M48, Bangka Pau, Kec. Poco Ranaka, Kabupaten Manggarai Timur, Nusa Tenggara Tim.","Kabupaten Manggarai Timur, Nusa Tenggara Tim.",NUSA TENGGARA TIMUR,,Indonesia,82146373434,,,-86.108.466,1.205.478.298,https://maps.google.com/?cid=0x0:0x33f54a888891b053,
cafe,cafe,Pondok Kopi MBATE,"Ulu Wae, Kec. Poco Ranaka Timur, Kabupaten Manggarai Timur, Nusa Tenggara Tim.","Kabupaten Manggarai Timur, Nusa Tenggara Tim.",NUSA TENGGARA TIMUR,,Indonesia,81237021521,,,-86.010.105,1.206.255.085,https://maps.google.com/?cid=0x0:0xcebf18f9dd11fbc,
cafe,Kedai Kopi,Irfo,"9HX9+J78, Nggalak Leleng, Kec. Poco Ranaka, Kabupaten Manggarai Timur, Nusa Tenggara Tim.","Kabupaten Manggarai Timur, Nusa Tenggara Tim.",NUSA TENGGARA TIMUR,,Indonesia,,,,-8.600.955,1.205.682.028,https://maps.google.com/?cid=0x0:0x54bee77a21285fd1,
cafe,Kedai Kopi,Chantika Gorengan,"9GRX+7GV, Bangka Pau, Kec. Poco Ranaka, Kabupaten Manggarai Timur, Nusa Tenggara Tim.","Kabupaten Manggarai Timur, Nusa Tenggara Tim.",NUSA TENGGARA TIMUR,,Indonesia,,,,-860.925,1.205.487.904,https://maps.google.com/?cid=0x0:0x7b4400762f2700ca,
cafe,Kafe,Saztro Kafe,"CHJ2+H9V, pandang, desa, poco lia, Bangka Kuleng, Kec. Poco Ranaka, Kabupaten Manggarai Timur, Nusa Tenggara Tim.","Kabupaten Manggarai Timur, Nusa Tenggara Tim.",NUSA TENGGARA TIMUR,,Indonesia,81338555873,,,-85.685.147,1.205.509.358,https://maps.google.com/?cid=0x0:0x6269dbe6fbcd4c3a,
cafe,Kedai Kopi,Rumahnya Julian,"FM23+VM, Ngkiong Dora, Kec. Poco Ranaka Timur, Kabupaten Manggarai Timur, Nusa Tenggara Tim.","Kabupaten Manggarai Timur, Nusa Tenggara Tim.",NUSA TENGGARA TIMUR,,Indonesia,,,,-85.478.467,1.206.541.873,https://maps.google.com/?cid=0x0:0x91396e23361f2c41,
cafe,Pusat Perbelanjaan,Faldus Cen Cell,"Pocolia, Kec. Poco Ranaka, Kabupaten Manggarai Timur, Nusa Tenggara Tim. 86583","Kec. Poco Ranaka, Kabupaten Manggarai Timur",NUSA TENGGARA TIMUR,86583.0,Indonesia,81259745128,,,-85.816.984,1.205.790.253,https://maps.google.com/?cid=0x0:0xa8a736dd9daa1144,
cafe,Kedai Kopi,D'Roeng Coffee Colol,"Lembah Colol, Ulu Wae, Kec. Poco Ranaka Timur, Kabupaten Manggarai Timur, Nusa Tenggara Tim. 86583","Ulu Wae, Kec. Poco Ranaka Timur, Kabupaten Manggarai Timur",NUSA TENGGARA TIMUR,86583.0,Indonesia,81238477658,,,-85.944.129,1.206.316.375,https://maps.google.com/?cid=0x0:0xa4f1afb251551032,
cafe,Toko umum,Kios Mama Aurel,"GH7Q+5J3, Watu Lanur, Kec. Poco Ranaka, Kabupaten Manggarai Timur, Nusa Tenggara Tim.","Kabupaten Manggarai Timur, Nusa Tenggara Tim.",NUSA TENGGARA TIMUR,,Indonesia,81238815211,,,-84.864.366,1.205.895.625,https://maps.google.com/?cid=0x0:0xed54b145c9697214,
cafe,Kedai Kopi,Warkop Mama Resa,"Paka, Sita, Kec. Rana Mese, Kabupaten Manggarai Timur, Nusa Tenggara Tim. 86570","Sita, Kec. Rana Mese, Kabupaten Manggarai Timur",NUSA TENGGARA TIMUR,86570.0,Indonesia,82236192534,,,-87.206.487,1.205.651.443,https://maps.google.com/?cid=0x0:0x9a8f56b89f06d4a,
cafe,Kedai Kopi,Cabang 3 Maroeara family,"CJWC+F44, Golo Lero, Kec. Poco Ranaka Timur, Kabupaten Manggarai Timur, Nusa Tenggara Tim.","Kabupaten Manggarai Timur, Nusa Tenggara Tim.",NUSA TENGGARA TIMUR,,Indonesia,,,,-85.538.574,1.206.203.375,https://maps.google.com/?cid=0x0:0x30d39c9fd8c4c401,
cafe,Kedai Kopi,Bajawa Flores NTT Tebet,"Kopi Bajawa Flores NTT, Jl. Tebet Timur Dalam Raya No.37, East Tebet, Tebet, South Jakarta City, Jakarta 12820","Jl. Tebet Timur Dalam Raya No.37, East Tebet, Tebet, South Jakarta City",NUSA TENGGARA TIMUR,12820.0,Indonesia,82258420016,,,-62.322.927,1.068.563.465,https://maps.google.com/?cid=0x0:0xa49d7eb17c59b5dd,
cafe,Kafe,Angkringan Manoraya,"ManoKec, Jl. Ruteng - Benteng Jawa, Kec. Poco Ranaka Timur, Kabupaten Manggarai Timur, Nusa Tenggara Tim. 86583","Jl. Ruteng - Benteng Jawa, Kec. Poco Ranaka Timur, Kabupaten Manggarai Timur",NUSA TENGGARA TIMUR,86583.0,Indonesia,81329389229,,,-86.050.373,1.205.418.758,https://maps.google.com/?cid=0x0:0x8b18e15a5c44667,
cafe,cafe,Kec. Poco Ranaka,"Kabupaten Manggarai Timur, Nusa Tenggara Tim.","Kabupaten Manggarai Timur, Nusa Tenggara Tim.",NUSA TENGGARA TIMUR,,Indonesia,,,,-86.082.296,1.205.494.563,https://maps.google.com/?cid=0x0:0x82314d6de8f2130,
cafe,Grosir Kopi,ROAS KOPI,"CJ7C+M4J, Rende Nao, Kec. Poco Ranaka, Kabupaten Manggarai Timur, Nusa Tenggara Tim.","Kabupaten Manggarai Timur, Nusa Tenggara Tim.",NUSA TENGGARA TIMUR,,Indonesia,85846326811,,,-8.585.535,120.620.342,https://maps.google.com/?cid=0x0:0x83070f21cfdfe2d9,
cafe,Kedai Kopi,Pasketa Coffee,"Jl. Eltari, Mbaumuku, Kec. Langke Rembong, Kabupaten Manggarai, Nusa Tenggara Tim.","Kabupaten Manggarai, Nusa Tenggara Tim.",NUSA TENGGARA TIMUR,,Indonesia,81337109258,,,-86.097.947,1.204.643.416,https://maps.google.com/?cid=0x0:0xa0ed73ab22e54132,
cafe,Kedai Kopi,Free coffee place,"9FXM+V34, Unnamed Road, Tenda, Kec. Langke Rembong, Kabupaten Manggarai, Nusa Tenggara Tim.","Kabupaten Manggarai, Nusa Tenggara Tim.",NUSA TENGGARA TIMUR,,Indonesia,,,,-86.003.701,1.204.827.063,https://maps.google.com/?cid=0x0:0xc254122f1b9ec53,
cafe,Toko kopi,"Markas Adregal, Deno City","FHCG+GRW, Jl. Ruteng - Benteng Jawa, Pocong, Kec. Poco Ranaka, Kabupaten Manggarai Timur, Nusa Tenggara Tim.","Kabupaten Manggarai Timur, Nusa Tenggara Tim.",NUSA TENGGARA TIMUR,,Indonesia,,,,-8.528.646,1.205.770.794,https://maps.google.com/?cid=0x0:0xbaad1c8963d904b4,
cafe,Kafe,Loka Antara Cafe,"9FQF+XVR, Jl. Ruteng - Benteng Jawa, Tenda, Kec. Langke Rembong, Kabupaten Manggarai, Nusa Tenggara Tim.","Kabupaten Manggarai, Nusa Tenggara Tim.",NUSA TENGGARA TIMUR,,Indonesia,81311120756,,,-86.100.098,1.204.746.457,https://maps.google.com/?cid=0x0:0xfb813d05fc1b7189,
cafe,Kafe,Bandara Cafe,"CF2C+RFF, Tenda, Kec. Langke Rembong, Kabupaten Manggarai, Nusa Tenggara Tim.","Kabupaten Manggarai, Nusa Tenggara Tim.",NUSA TENGGARA TIMUR,,Indonesia,81337328821,,,-85.979.251,1.204.711.678,https://maps.google.com/?cid=0x0:0x3c2b9a51095e6069,
cafe,Kedai Kopi,Wulang Pari Coffee,"Carep, Kec. Langke Rembong, Kabupaten Manggarai, Nusa Tenggara Tim.","Kabupaten Manggarai, Nusa Tenggara Tim.",NUSA TENGGARA TIMUR,,Indonesia,85338605940,,,-86.124.547,1.204.839.432,https://maps.google.com/?cid=0x0:0xe548e9812170fa56,
cafe,Restoran,REMBONG GARDEN CAFE,"Jl. Satar Tacik No.1, Tenda, Kec. Langke Rembong, Kabupaten Manggarai, Nusa Tenggara Tim. 86511","Tenda, Kec. Langke Rembong, Kabupaten Manggarai",NUSA TENGGARA TIMUR,86511.0,Indonesia,82145359768,,,-8.609.818,1.204.756.782,https://maps.google.com/?cid=0x0:0xb10d80da799748e6,
cafe,Kafe,Konco COFFEE  REST AREA Ruteng,"Jl. Hatta No.22, Lawir, Kec. Langke Rembong, Kabupaten Manggarai, Nusa Tenggara Tim. 86511","Lawir, Kec. Langke Rembong, Kabupaten Manggarai",NUSA TENGGARA TIMUR,86511.0,Indonesia,82136031249,,,-86.065.938,120.456.526,https://maps.google.com/?cid=0x0:0x196d78c75fb7de3c,
cafe,Kedai Kopi,My Ngopi cafe,"8HV6+P9P, Golo Loni, Kec. Rana Mese, Kabupaten Manggarai Timur, Nusa Tenggara Tim.","Kabupaten Manggarai Timur, Nusa Tenggara Tim.",NUSA TENGGARA TIMUR,,Indonesia,,,,-86.556.616,1.205.609.621,https://maps.google.com/?cid=0x0:0x109c2964bfcaee9c,
cafe,cafe,Kec. Lamba Leda,"Kabupaten Manggarai Timur, Nusa Tenggara Tim.","Kabupaten Manggarai Timur, Nusa Tenggara Tim.",NUSA TENGGARA TIMUR,,Indonesia,,,,-8.303.018,1.205.841.504,https://maps.google.com/?cid=0x0:0x250909596892d132,
cafe,Kedai Kopi,Mallomo Cafe,"Jalan Poros, Reo, kedindi, Kabupaten Manggarai, Nusa Tenggara Tim. 86592","Reo, kedindi, Kabupaten Manggarai",NUSA TENGGARA TIMUR,86592.0,Indonesia,81280692617,,,-83.111.727,1.204.888.374,https://maps.google.com/?cid=0x0:0xa4f3de4ea5d17ad7,
cafe,Minimarket,Warungbkopi,"HJX3+76, Golo Mangung, Kec. Lamba Leda, Kabupaten Manggarai Timur, Nusa Tenggara Tim.","Kabupaten Manggarai Timur, Nusa Tenggara Tim.",NUSA TENGGARA TIMUR,,Indonesia,,,,-8.402.237,120.603.224,https://maps.google.com/?cid=0x0:0x8a3e8ae916808f3b,
cafe,Dapur Umum,MENU FITRI,"Nanga Lirang, Desa Satar Padut, Kec Lamba Leda Utara, Pota, Jalan Lintas, Reo, Kabupaten Manggarai Timur, Nusa Tenggara Tim. 86582","Desa Satar Padut, Kec Lamba Leda Utara, Pota, Jalan Lintas, Reo, Kabupaten Manggarai Timur",NUSA TENGGARA TIMUR,86582.0,Indonesia,85253376540,,,-82.861.593,1.206.039.687,https://maps.google.com/?cid=0x0:0xb29bc570b4f6ac87,
cafe,Kedai Kopi,Rainbow cafe,"MGP2+8HJ, Satar Punda, Kec. Lamba Leda, Kabupaten Manggarai Timur, Nusa Tenggara Tim.","Kabupaten Manggarai Timur, Nusa Tenggara Tim.",NUSA TENGGARA TIMUR,,Indonesia,,,,-83.141.612,1.205.013.859,https://maps.google.com/?cid=0x0:0x3062d36a14c44cd5,
cafe,Kedai Kopi,Moris Coffee Shop,"GHWF+8JP, Jl. Ruteng - Benteng Jawa, Tengku Leda, Kec. Lamba Leda, Kabupaten Manggarai Timur, Nusa Tenggara Tim.","Kabupaten Manggarai Timur, Nusa Tenggara Tim.",NUSA TENGGARA TIMUR,,Indonesia,81293839803,,,-84.541.637,1.205.740.912,https://maps.google.com/?cid=0x0:0x2681ad2cf367d65d,
cafe,Kedai Kopi,Noel,"JJ9Q+6CV, Haju Wangi, Kec. Lamba Leda, Kabupaten Manggarai Timur, Nusa Tenggara Tim.","Kabupaten Manggarai Timur, Nusa Tenggara Tim.",NUSA TENGGARA TIMUR,,Indonesia,,,,-83.824.577,1.206.384.954,https://maps.google.com/?cid=0x0:0x9c21dcc525c2a713,
cafe,Kafe,Yhooize Cafe,"HJC3+XM4, Paleng, Golo, Kec. Lamba Leda, Kabupaten Manggarai Timur, Nusa Tenggara Tim.","Kabupaten Manggarai Timur, Nusa Tenggara Tim.",NUSA TENGGARA TIMUR,,Indonesia,81338813498,,,-84.276.157,120.604.201,https://maps.google.com/?cid=0x0:0x519a7b2164c5217c,
cafe,Rumah wisata,Nino Homestay,"HJC3+MC5, Golo Rentung, Kec. Lamba Leda, Kabupaten Manggarai Timur, Nusa Tenggara Tim.","Kabupaten Manggarai Timur, Nusa Tenggara Tim.",NUSA TENGGARA TIMUR,,Indonesia,81292829274,,,-84.283.678,1.206.035.968,https://maps.google.com/?cid=0x0:0x1375a92a4406094,
cafe,cafe,Benteng Jawa lamba,"GHQ9+W8M, Jalan, Goreng Meni, Kec. Lamba Leda, Kabupaten Manggarai Timur, Nusa Tenggara Tim.","Kabupaten Manggarai Timur, Nusa Tenggara Tim.",NUSA TENGGARA TIMUR,,Indonesia,,,,-84.601.596,1.205.682.981,https://maps.google.com/?cid=0x0:0x5bdb36cd1732b680,
cafe,Kedai Kopi,Ebit Erson,"HJPW+FRG, Lencur, Kec. Lamba Leda, Kabupaten Manggarai Timur, Nusa Tenggara Tim.","Kabupaten Manggarai Timur, Nusa Tenggara Tim.",NUSA TENGGARA TIMUR,,Indonesia,,,,-84.138.022,1.206.470.664,https://maps.google.com/?cid=0x0:0x8b9d292880f5fee0,
cafe,Kedai Kopi,Primero,"MHPR+FWJ, Satar Padut, Kec. Lamba Leda, Kabupaten Manggarai Timur, Nusa Tenggara Tim.","Kabupaten Manggarai Timur, Nusa Tenggara Tim.",NUSA TENGGARA TIMUR,,Indonesia,,,,-83.137.753,1.205.922.665,https://maps.google.com/?cid=0x0:0x26abcfc267cff769,
cafe,Kedai Kopi,Namas Home's,"HHC5+WC7, Compang Deru, Kec. Lamba Leda, Kabupaten Manggarai Timur, Nusa Tenggara Tim.","Kabupaten Manggarai Timur, Nusa Tenggara Tim.",NUSA TENGGARA TIMUR,,Indonesia,,,,-8.428.852,120.559.167,https://maps.google.com/?cid=0x0:0x7189b09ace8610fb,
cafe,Tempat Ziarah,Benteng Jawa,"GHXF+VMF, Tengku Leda, Kec. Lamba Leda, Kabupaten Manggarai Timur, Nusa Tenggara Tim.","Kabupaten Manggarai Timur, Nusa Tenggara Tim.",NUSA TENGGARA TIMUR,,Indonesia,,,,-84.503.181,1.205.741.774,https://maps.google.com/?cid=0x0:0x7ef72700cf1252ef,
cafe,Kedai Kopi,Kedai fario,"GHVP+C2, Tengku Leda, Kec. Lamba Leda, Kabupaten Manggarai Timur, Nusa Tenggara Tim.","Kabupaten Manggarai Timur, Nusa Tenggara Tim.",NUSA TENGGARA TIMUR,,Indonesia,,,,-84.561.509,1.205.841.076,https://maps.google.com/?cid=0x0:0x44ea65dc0d9a2fff,
cafe,Kedai Kopi,Mini Cafe Ade,"MFXH+GH8, Mata Air, Kec. Reok, Kabupaten Manggarai, Nusa Tenggara Tim.","Kabupaten Manggarai, Nusa Tenggara Tim.",NUSA TENGGARA TIMUR,,Indonesia,82144112155,,,-83.012.057,120.478.965,https://maps.google.com/?cid=0x0:0x737aa3cc9ddfab8a,
cafe,Layanan Pengiriman Barang Kelontong,Rana Loba Coffee House,"5JV8+RMC, Unnamed Road, Rana Loba, Borong, East Manggarai Regency, East Nusa Tenggara","Kabupaten Manggarai Timur, Nusa Tenggara Tim.",NUSA TENGGARA TIMUR,,Indonesia,81315499399,,,-88.054.363,1.206.166.285,https://maps.google.com/?cid=0x0:0x9b9488d650ba937,
cafe,Kedai Kopi,Rmh Bapak ALBER MUJU,"HJ5Q+GCG, Golo Nimbung, Kec. Lamba Leda, Kabupaten Manggarai Timur, Nusa Tenggara Tim.","Kabupaten Manggarai Timur, Nusa Tenggara Tim.",NUSA TENGGARA TIMUR,,Indonesia,,,,-84.416.016,1.206.387.462,https://maps.google.com/?cid=0x0:0xf47a38f47aeee43a,
cafe,Bakso,Rmh Daniel Asis,"GJXC+C7, Golo Lembur, Kec. Lamba Leda, Kabupaten Manggarai Timur, Nusa Tenggara Tim.","Kabupaten Manggarai Timur, Nusa Tenggara Tim.",NUSA TENGGARA TIMUR,,Indonesia,85235420599,,,-84.511.555,1.206.208.059,https://maps.google.com/?cid=0x0:0x6f9ed230c3de86fe,
cafe,Musik Live,"the yulen musik,salon n cake","GHR9+MQX, Unnamed Road, Tengku Leda, Kec. Lamba Leda, Kabupaten Manggarai Timur, Nusa Tenggara Tim.","Kabupaten Manggarai Timur, Nusa Tenggara Tim.",NUSA TENGGARA TIMUR,,Indonesia,81339182560,,,-84.582.684,1.205.694.943,https://maps.google.com/?cid=0x0:0x3f3bf015faec6290,
cafe,Grosir Kain,Compang Wae Lawas,"JH2Q+QW8, Unnamed Road, Golo Mangung, Kec. Lamba Leda, Kabupaten Manggarai Timur, Nusa Tenggara Tim.","Kabupaten Manggarai Timur, Nusa Tenggara Tim.",NUSA TENGGARA TIMUR,,Indonesia,,,,-83.980.971,1.205.898.341,https://maps.google.com/?cid=0x0:0x27debf52d23342da,
cafe,Bar,Bawe lamba leda utara,"JMX4+3HQ, Lencur, Kec. Lamba Leda, Kabupaten Manggarai Timur, Nusa Tenggara Tim.","Kabupaten Manggarai Timur, Nusa Tenggara Tim.",NUSA TENGGARA TIMUR,,Indonesia,81236854541,,,-83.522.929,1.206.564.927,https://maps.google.com/?cid=0x0:0xa908baab9d932b9c,
cafe,cafe,Kec. Sambi Rampas,"Kabupaten Manggarai Timur, Nusa Tenggara Tim.","Kabupaten Manggarai Timur, Nusa Tenggara Tim.",NUSA TENGGARA TIMUR,,Indonesia,,,,-8.347.378,1.207.548.886,https://maps.google.com/?cid=0x0:0xf9c936bcfd9766a6,
cafe,Kedai Kopi,Coffee time,"MQ34+32F, Unnamed Road, Pota, Kec. Sambi Rampas, Kabupaten Manggarai Timur, Nusa Tenggara Tim.","Kabupaten Manggarai Timur, Nusa Tenggara Tim.",NUSA TENGGARA TIMUR,,Indonesia,82237024577,,,-83.473.064,1.207.550.549,https://maps.google.com/?cid=0x0:0x8d725162df91b0f7,
cafe,Kafe,Sambi rampas,"MQ33+3X8, Pota, Kec. Sambi Rampas, Kabupaten Manggarai Timur, Nusa Tenggara Tim.","Kabupaten Manggarai Timur, Nusa Tenggara Tim.",NUSA TENGGARA TIMUR,,Indonesia,,,,-83.473.331,1.207.549.585,https://maps.google.com/?cid=0x0:0x8ceb8b7da4cdbfa7,
cafe,Indonesia,Warung Sania,"Jalan Trans Flores, Pota, Kec. Sambi Rampas, Kabupaten Manggarai Timur, Nusa Tenggara Tim.","Kabupaten Manggarai Timur, Nusa Tenggara Tim.",NUSA TENGGARA TIMUR,,Indonesia,81226598401,,,-83.525.072,1.207.527.645,https://maps.google.com/?cid=0x0:0x87b123764e5833b9,
cafe,cafe,Tana Watu Weri,"MQ5W+6VR, Londang, Nanga Mbaur, Kec. Sambi Rampas, Kabupaten Manggarai Timur, Nusa Tenggara Tim.","Kabupaten Manggarai Timur, Nusa Tenggara Tim.",NUSA TENGGARA TIMUR,,Indonesia,,,,-83.418.934,1.207.971.558,https://maps.google.com/?cid=0x0:0xa2d0b528d5612d94,
cafe,Kedai Kopi,Rumah bang Fit,"JQM8+3V4, Nanga Mbaling, Kec. Sambi Rampas, Kabupaten Manggarai Timur, Nusa Tenggara Tim.","Kabupaten Manggarai Timur, Nusa Tenggara Tim.",NUSA TENGGARA TIMUR,,Indonesia,,,,-83.674.485,1.207.671.442,https://maps.google.com/?cid=0x0:0x553a156e7d111e,
cafe,Kios,Kios Mama Andi,"Jln. Lintas Utara Reo Golo Nila, Nanga Baras, Kec. Sambi Rampas, Kabupaten Manggarai Timur, Nusa Tenggara Tim. 86584","Nanga Baras, Kec. Sambi Rampas, Kabupaten Manggarai Timur",NUSA TENGGARA TIMUR,86584.0,Indonesia,,,,-84.272.222,1.206.725,https://maps.google.com/?cid=0x0:0x11d775cdacb8c023,
cafe,Bar,Local BarGrill,"Nanga Mbaur, Kec. Sambi Rampas, Kabupaten Manggarai Timur, Nusa Tenggara Tim.","Kabupaten Manggarai Timur, Nusa Tenggara Tim.",NUSA TENGGARA TIMUR,,Indonesia,,,,-83.562.178,1.208.616.317,https://maps.google.com/?cid=0x0:0x1431731c7a0ac1cf,
cafe,Toko Roti,Rumah alif,"MQ65+FW3, Pota, Kec. Sambi Rampas, Kabupaten Manggarai Timur, Nusa Tenggara Tim.","Kabupaten Manggarai Timur, Nusa Tenggara Tim.",NUSA TENGGARA TIMUR,,Indonesia,,,,-8.339.288,120.760.032,https://maps.google.com/?cid=0x0:0xcfcc1f88b552e295,
cafe,Bakso,Warung AIDHA Hadiausma,"MQ23+6GH, Unnamed Road, Pota, Kec. Sambi Rampas, Kabupaten Manggarai Timur, Nusa Tenggara Tim.","Kabupaten Manggarai Timur, Nusa Tenggara Tim.",NUSA TENGGARA TIMUR,,Indonesia,"8,13389E+11",,,-83.494.334,1.207.538.469,https://maps.google.com/?cid=0x0:0x3fdc77b6d27a3e,
cafe,Kedai Kopi,Ebit Erson,"HJPW+FRG, Lencur, Kec. Lamba Leda, Kabupaten Manggarai Timur, Nusa Tenggara Tim.","Kabupaten Manggarai Timur, Nusa Tenggara Tim.",NUSA TENGGARA TIMUR,,Indonesia,,,,-84.138.022,1.206.470.664,https://maps.google.com/?cid=0x0:0x8b9d292880f5fee0,
cafe,Toko bahan makanan,Kalyka,"FMXG+54P, Golo Wangkung, Kec. Sambi Rampas, Kabupaten Manggarai Timur, Nusa Tenggara Tim.","Kabupaten Manggarai Timur, Nusa Tenggara Tim.",NUSA TENGGARA TIMUR,,Indonesia,,,,-85.020.379,1.206.753.201,https://maps.google.com/?cid=0x0:0xe5fc0071bd53f1b4,
cafe,cafe,SEGAR898,"FMG4+2FF Benteng Rampas, Kabupaten Manggarai Timur, NUSA TENGGARA TIMUR, Nusa Tenggara Tim.","NUSA TENGGARA TIMUR, Nusa Tenggara Tim.",NUSA TENGGARA TIMUR,,Indonesia,,,,-85.249.375,1.206.561.875,https://maps.google.com/?cid=0x0:0xe1df9d2d48270640,
cafe,Kedai Kopi,Rumahnya Julian,"FM23+VM, Ngkiong Dora, Kec. Poco Ranaka Timur, Kabupaten Manggarai Timur, Nusa Tenggara Tim.","Kabupaten Manggarai Timur, Nusa Tenggara Tim.",NUSA TENGGARA TIMUR,,Indonesia,,,,-85.478.467,1.206.541.873,https://maps.google.com/?cid=0x0:0x91396e23361f2c41,
cafe,cafe,Kedai Pakde Samsul,"Jln Elar Watunggong, Kabupaten Manggarai Timur, Nusa Tenggara Tim. 86584",Kabupaten Manggarai Timur,NUSA TENGGARA TIMUR,86584.0,Indonesia,89540570823,,,-85.363.424,1.206.691.129,https://maps.google.com/?cid=0x0:0x7a624e3d700683e1,
cafe,Warnet,Nunk Ata Londang,"JR98+G57, Nanga Mbaur, Kec. Sambi Rampas, Kabupaten Manggarai Timur, Nusa Tenggara Tim.","Kabupaten Manggarai Timur, Nusa Tenggara Tim.",NUSA TENGGARA TIMUR,,Indonesia,,,,-83.812.121,1.208.154.358,https://maps.google.com/?cid=0x0:0xc2e7efa9548ab4f4,
cafe,Grosir Kopi,Firstian radi,"FJRP+XW, Compang Wunis, Kec. Poco Ranaka Timur, Kabupaten Manggarai Timur, Nusa Tenggara Tim.","Kabupaten Manggarai Timur, Nusa Tenggara Tim.",NUSA TENGGARA TIMUR,,Indonesia,,,,-8.507.602,120.637.345,https://maps.google.com/?cid=0x0:0x2ce9dacf0d2a45ea,
cafe,Minimarket,ONE MART 24 JAM,"MQ23+C5H, Unnamed Road, Pota, Kec. Sambi Rampas, Kabupaten Manggarai Timur, Nusa Tenggara Tim.","Kabupaten Manggarai Timur, Nusa Tenggara Tim.",NUSA TENGGARA TIMUR,,Indonesia,82144222524,,,-83.489.494,1.207.529.769,https://maps.google.com/?cid=0x0:0x32fa47382501e70a,
cafe,Kedai Kopi,Noel,"JJ9Q+6CV, Haju Wangi, Kec. Lamba Leda, Kabupaten Manggarai Timur, Nusa Tenggara Tim.","Kabupaten Manggarai Timur, Nusa Tenggara Tim.",NUSA TENGGARA TIMUR,,Indonesia,,,,-83.824.577,1.206.384.954,https://maps.google.com/?cid=0x0:0x9c21dcc525c2a713,
cafe,Brunch,Angga tana ling,"JPWX+RFW, Pota, Kec. Sambi Rampas, Kabupaten Manggarai Timur, Nusa Tenggara Tim.","Kabupaten Manggarai Timur, Nusa Tenggara Tim.",NUSA TENGGARA TIMUR,,Indonesia,,,,-83.528.967,1.207.486.981,https://maps.google.com/?cid=0x0:0xd4ff5214c28b9e13,
cafe,Toko Roti,Rumah azril,"MP59+XVH Rumah suaib, Nanga Baras, Kec. Sambi Rampas, Kabupaten Manggarai Timur, Nusa Tenggara Tim.","Kabupaten Manggarai Timur, Nusa Tenggara Tim.",NUSA TENGGARA TIMUR,,Indonesia,,,,-83.394.671,1.207.194.277,https://maps.google.com/?cid=0x0:0xdef54b51f071033f,
cafe,cafe,Kec. Elar,"Kabupaten Manggarai Timur, Nusa Tenggara Tim.","Kabupaten Manggarai Timur, Nusa Tenggara Tim.",NUSA TENGGARA TIMUR,,Indonesia,,,,-84.244.952,1.208.728.615,https://maps.google.com/?cid=0x0:0xa3e720c639fa11c4,
cafe,Kedai Kopi,Omfitto,"9RQQ+VQQ, Desa mosingaran, Langgasai, Kabupaten Manggarai Timur, Nusa Tenggara Tim.","Kabupaten Manggarai Timur, Nusa Tenggara Tim.",NUSA TENGGARA TIMUR,,Indonesia,,,,-8.610.295,1.208.394.977,https://maps.google.com/?cid=0x0:0xd85e5e6de6ac91f7,
cafe,Kedai Kopi,Ebit Erson,"HJPW+FRG, Lencur, Kec. Lamba Leda, Kabupaten Manggarai Timur, Nusa Tenggara Tim.","Kabupaten Manggarai Timur, Nusa Tenggara Tim.",NUSA TENGGARA TIMUR,,Indonesia,,,,-84.138.022,1.206.470.664,https://maps.google.com/?cid=0x0:0x8b9d292880f5fee0,
cafe,Rumah Makan,Warung Mulyaman,"FQFC+XJM, Tiwu Kondo, Kec. Elar, Kabupaten Manggarai Timur, Nusa Tenggara Tim.","Kabupaten Manggarai Timur, Nusa Tenggara Tim.",NUSA TENGGARA TIMUR,,Indonesia,,,,-85.250.252,1.207.715.367,https://maps.google.com/?cid=0x0:0xd6c4d1a60eb7b1f7,
cafe,Kedai Kopi,Noel,"JJ9Q+6CV, Haju Wangi, Kec. Lamba Leda, Kabupaten Manggarai Timur, Nusa Tenggara Tim.","Kabupaten Manggarai Timur, Nusa Tenggara Tim.",NUSA TENGGARA TIMUR,,Indonesia,,,,-83.824.577,1.206.384.954,https://maps.google.com/?cid=0x0:0x9c21dcc525c2a713,
cafe,Bar,Deny Coffie,"9RQQ+8WV, Mosingaran, Kec. Elar, Kabupaten Manggarai Timur, Nusa Tenggara Tim.","Kabupaten Manggarai Timur, Nusa Tenggara Tim.",NUSA TENGGARA TIMUR,,Indonesia,81237961406,,,-86.116.487,1.208.398.066,https://maps.google.com/?cid=0x0:0x269116a84281a281,
cafe,Pembangunan Perumahan,Kampung sapok,"CR93+85C, Gising, Kec. Elar Selatan, Kabupaten Manggarai Timur, Nusa Tenggara Tim.","Kabupaten Manggarai Timur, Nusa Tenggara Tim.",NUSA TENGGARA TIMUR,,Indonesia,,,,-85.816.917,120.802.897,https://maps.google.com/?cid=0x0:0x3faf776d71d21945,
cafe,cafe,Rumah,"CR7V+CMC, Sangan Kalo, Kec. Elar Selatan, Kabupaten Manggarai Timur, Nusa Tenggara Tim.","Kabupaten Manggarai Timur, Nusa Tenggara Tim.",NUSA TENGGARA TIMUR,,Indonesia,,,,-85.864.286,120.844.152,https://maps.google.com/?cid=0x0:0x4196ddd77e4f0124,
cafe,Kafe,Anera Cafe,"5HMJ+46C, Nanga Labang, Kec. Borong, Kabupaten Manggarai Timur, Nusa Tenggara Tim.","Kabupaten Manggarai Timur, Nusa Tenggara Tim.",NUSA TENGGARA TIMUR,,Indonesia,82237110200,,,-88.171.789,1.205.805.118,https://maps.google.com/?cid=0x0:0x8d71911d783a7ae8,
cafe,Kedai Kopi,@frama,"9RRQ+63V, Mosi, Ngaran, Kec. Elar, Kabupaten Manggarai Timur, Nusa Tenggara Tim.","Kabupaten Manggarai Timur, Nusa Tenggara Tim.",NUSA TENGGARA TIMUR,,Indonesia,,,,-86.093.796,1.208.376.678,https://maps.google.com/?cid=0x0:0x48894730153155e2,
cafe,Minimarket,Inyo Minimart,"FQG9+RMV, Tiwu Kondo, Kec. Elar, Kabupaten Manggarai Timur, Nusa Tenggara Tim.","Kabupaten Manggarai Timur, Nusa Tenggara Tim.",NUSA TENGGARA TIMUR,,Indonesia,,,,-85.228.858,1.207.691.761,https://maps.google.com/?cid=0x0:0x955dbeedf2947240,
cafe,Rumah Makan,Rumah makan Molas poso,"FPFH+CWF, Lengko Namut, Kec. Elar, Kabupaten Manggarai Timur, Nusa Tenggara Tim.","Kabupaten Manggarai Timur, Nusa Tenggara Tim.",NUSA TENGGARA TIMUR,,Indonesia,,,,-85.264.754,1.207.298.591,https://maps.google.com/?cid=0x0:0xd5dab38c5ebfd66c,
cafe,Toko bahan makanan,Fritz Mart,"FPFH+CWF, Lengko Namut, Kec. Elar, Kabupaten Manggarai Timur, Nusa Tenggara Tim.","Kabupaten Manggarai Timur, Nusa Tenggara Tim.",NUSA TENGGARA TIMUR,,Indonesia,,,,-85.264.271,120.729.785,https://maps.google.com/?cid=0x0:0x672dcac150b51ec1,
cafe,Bar,Local BarGrill,"Nanga Mbaur, Kec. Sambi Rampas, Kabupaten Manggarai Timur, Nusa Tenggara Tim.","Kabupaten Manggarai Timur, Nusa Tenggara Tim.",NUSA TENGGARA TIMUR,,Indonesia,,,,-83.562.178,1.208.616.317,https://maps.google.com/?cid=0x0:0x1431731c7a0ac1cf,
cafe,Toko Perlengkapan Rumah,Kios JAFLO,"Munte kelurahan, Lempang Paji, Kec. Elar Selatan, Kabupaten Manggarai Timur, Nusa Tenggara Tim. 86580","Lempang Paji, Kec. Elar Selatan, Kabupaten Manggarai Timur",NUSA TENGGARA TIMUR,86580.0,Indonesia,81317256720,,,-85.220.102,1.208.221.902,https://maps.google.com/?cid=0x0:0x9a0d38f6c3164634,
cafe,Kafe,Calin Cafe  Baking Supply store,"Jl. Niaga No.8, Mbaumuku, Kec. Langke Rembong, Kabupaten Manggarai, Nusa Tenggara Tim.","Kabupaten Manggarai, Nusa Tenggara Tim.",NUSA TENGGARA TIMUR,,Indonesia,82145832828,,,-86.096.463,1.204.647.368,https://maps.google.com/?cid=0x0:0x7d4b0ab246c1bd96,
cafe,Kios,KIOS Sinar kasih,"CQX2+6Q7, Wae Lokom, Kec. Elar, Kabupaten Manggarai Timur, Nusa Tenggara Tim.","Kabupaten Manggarai Timur, Nusa Tenggara Tim.",NUSA TENGGARA TIMUR,,Indonesia,,,,-8.551.793,1.207.493.827,https://maps.google.com/?cid=0x0:0xb196a667de2901be,
cafe,Kedai Kopi,Sonya home,"9Q46+C3M, Sipi, Kec. Elar Selatan, Kabupaten Manggarai Timur, Nusa Tenggara Tim.","Kabupaten Manggarai Timur, Nusa Tenggara Tim.",NUSA TENGGARA TIMUR,,Indonesia,,,,-86.439.165,1.207.601.725,https://maps.google.com/?cid=0x0:0x6123451757e71d9a,
cafe,cafe,Simon Kembo,"Golo Lijun, Kec. Elar, Kabupaten Manggarai Timur, Nusa Tenggara Tim.","Kabupaten Manggarai Timur, Nusa Tenggara Tim.",NUSA TENGGARA TIMUR,,Indonesia,,,,-83.982.263,1.208.809.477,https://maps.google.com/?cid=0x0:0x511242b22091c753,
cafe,Warnet,Nunk Ata Londang,"JR98+G57, Nanga Mbaur, Kec. Sambi Rampas, Kabupaten Manggarai Timur, Nusa Tenggara Tim.","Kabupaten Manggarai Timur, Nusa Tenggara Tim.",NUSA TENGGARA TIMUR,,Indonesia,,,,-83.812.121,1.208.154.358,https://maps.google.com/?cid=0x0:0xc2e7efa9548ab4f4,
cafe,Kios,D'JHINO FOTO COPY  ATK,"Wukir, Sangan Kalo, Kec. Elar Selatan, Kabupaten Manggarai Timur, Nusa Tenggara Tim. 86581","Sangan Kalo, Kec. Elar Selatan, Kabupaten Manggarai Timur",NUSA TENGGARA TIMUR,86581.0,Indonesia,83147636007,,,-85.813.808,1.208.376.147,https://maps.google.com/?cid=0x0:0x9bd78d80434d0d7,
cafe,cafe,"DARCA CAFE""","Jl. Swadaya II No.#36 14, RT.9/RW.8, Manggarai, Kec. Tebet, Kota Jakarta Selatan, Daerah Khusus Ibukota Jakarta 12850","RT.9/RW.8, Manggarai, Kec. Tebet, Kota Jakarta Selatan",NUSA TENGGARA TIMUR,12850.0,Indonesia,81315555869,,,-62.141.013,1.068.444.291,https://maps.google.com/?cid=0x0:0xfcf542a7764d7f8e,
cafe,Kedai Kopi,CAFE A' MANGGARAI,"Jl. Muria Ujung No.1 7, RT.7/RW.6, Ps. Manggis, Kecamatan Setiabudi, Kota Jakarta Selatan, Daerah Khusus Ibukota Jakarta 12970","RT.7/RW.6, Ps. Manggis, Kecamatan Setiabudi, Kota Jakarta Selatan",NUSA TENGGARA TIMUR,12970.0,Indonesia,81283783090,,,-62.108.468,1.068.395.106,https://maps.google.com/?cid=0x0:0x7c63a3cf61a9c9be,
cafe,Kafe,RrCafe,"L'avenue, Pancoran, Kec. Pancoran, Kota Jakarta Selatan, Daerah Khusus Ibukota Jakarta 12760","Pancoran, Kec. Pancoran, Kota Jakarta Selatan",NUSA TENGGARA TIMUR,12760.0,Indonesia,,,,-624.872,1.068.435.386,https://maps.google.com/?cid=0x0:0xb81b2cf90bb3b524,
cafe,Kedai Kopi,e+e coffee  kitchen semanggi,"Jl. Garnisun No.Kav.47 Semi-Ground Floor, RT.5/RW.4, Karet Semanggi, Kecamatan Setiabudi, Kota Jakarta Selatan, Daerah Khusus Ibukota Jakarta 10250","RT.5/RW.4, Karet Semanggi, Kecamatan Setiabudi, Kota Jakarta Selatan",NUSA TENGGARA TIMUR,10250.0,Indonesia,82114323447,,,-62.176.384,1.068.166.096,https://maps.google.com/?cid=0x0:0x32fe5222cbeb8fa4,
cafe,Kedai Kopi,e+e coffee  kitchen Margonda,"Jl. Margonda Raya No.505. Kel, Pondok Cina, Kecamatan Beji, Kota Depok, Jawa Barat 16431","Pondok Cina, Kecamatan Beji, Kota Depok",NUSA TENGGARA TIMUR,16431.0,Indonesia,81218134719,,,-63.621.378,1.068.332.865,https://maps.google.com/?cid=0x0:0x809f1709e6b03fd4,
cafe,Kafe,Warkop EL,"Jl. Madrasah I No.48a, RT.10/RW.1, Gandaria Sel., Kec. Cilandak, Kota Jakarta Selatan, Daerah Khusus Ibukota Jakarta 12420","RT.10/RW.1, Gandaria Sel., Kec. Cilandak, Kota Jakarta Selatan",NUSA TENGGARA TIMUR,12420.0,Indonesia,8121710250,,,-62.680.685,1.067.937.064,https://maps.google.com/?cid=0x0:0xcedc6a3b23efb1ce,
cafe,Kafe,Erel Coffee,"Jl. Taman Hibrida No.2 6, RT.2/RW.9, Pd. Klp., Kec. Duren Sawit, Kota Jakarta Timur, Daerah Khusus Ibukota Jakarta 13450","RT.2/RW.9, Pd. Klp., Kec. Duren Sawit, Kota Jakarta Timur",NUSA TENGGARA TIMUR,13450.0,Indonesia,,,,-62.326.402,1.069.332.024,https://maps.google.com/?cid=0x0:0x590842d1c61e06d,
cafe,Kedai Kopi,Panghegar cafe,"Jl. Dr. Saharjo No.69g RT.3/RW.8, Kuningan, RT.12/RW.5, Manggarai, Kec. Tebet, Kota Jakarta Selatan, Daerah Khusus Ibukota Jakarta 12850","Kuningan, RT.12/RW.5, Manggarai, Kec. Tebet, Kota Jakarta Selatan",NUSA TENGGARA TIMUR,12850.0,Indonesia,,,,-62.128.364,1.068.455.081,https://maps.google.com/?cid=0x0:0x362e03c28d0869dd,
cafe,cafe,Kec. Kota Komba,"Kabupaten Manggarai Timur, Nusa Tenggara Tim.","Kabupaten Manggarai Timur, Nusa Tenggara Tim.",NUSA TENGGARA TIMUR,,Indonesia,,,,-88.273.426,1.208.051.136,https://maps.google.com/?cid=0x0:0xb5521e292aca4357,
cafe,Kedai Kopi,Nofen kafe,"6P5P+2M, Komba, Kec. Kota Komba, Kabupaten Manggarai Timur, Nusa Tenggara Tim.","Kabupaten Manggarai Timur, Nusa Tenggara Tim.",NUSA TENGGARA TIMUR,,Indonesia,,,,-8.792.395,1.207.367.275,https://maps.google.com/?cid=0x0:0xecb81fad23b54d00,
cafe,Kedai Kopi,Warkop mbeku mbelek,"6P4R+PX, Komba, Kec. Kota Komba, Kabupaten Manggarai Timur, Nusa Tenggara Tim.","Kabupaten Manggarai Timur, Nusa Tenggara Tim.",NUSA TENGGARA TIMUR,,Indonesia,,,,-87.931.349,1.207.424.574,https://maps.google.com/?cid=0x0:0xf5c0f5acbcac2aa6,
cafe,cafe,Waerana Coffee Shop,"6P97+7R7, Jalan Lintar Flores-Depan Kantor, Rongga Koe","Kabupaten Manggarai Timur, Nusa Tenggara Tim.",NUSA TENGGARA TIMUR,,Indonesia,,,,-87.818.474,1.207.145.452,https://maps.google.com/?cid=0x0:0x471be8cc0db918e6,
cafe,Kafe,coffe shop,"8PM7+QP, Rana Mbeling, Kec. Kota Komba, Kabupaten Manggarai Timur, Nusa Tenggara Tim.","Kabupaten Manggarai Timur, Nusa Tenggara Tim.",NUSA TENGGARA TIMUR,,Indonesia,,,,-8.665.505,1.207.142.934,https://maps.google.com/?cid=0x0:0x702237a8b1df02a6,
cafe,Kafe,KopiBee,"Jl. Ki Hajar Dewantara, Rana Loba, Kec. Borong, Kabupaten Manggarai Timur, Nusa Tenggara Tim.","Kabupaten Manggarai Timur, Nusa Tenggara Tim.",NUSA TENGGARA TIMUR,,Indonesia,81337360432,,,-87.731.359,1.206.212.867,https://maps.google.com/?cid=0x0:0xb6141a9fab08c1bf,
cafe,Kafe,"YERACMILE RESTAURANT,CAFE  BAKERY","Kota Ndora, Kec. Borong, Kabupaten Manggarai Timur, Nusa Tenggara Tim.","Kabupaten Manggarai Timur, Nusa Tenggara Tim.",NUSA TENGGARA TIMUR,,Indonesia,81238268245,,,-88.175.138,1.206.150.399,https://maps.google.com/?cid=0x0:0x7db973b6db3c8845,
cafe,Restoran atau Kafe,WARUNG DNQ'S,"5MR5+379, Jl. Lintas Flores, Tanah Rata, Kec. Kota Komba, Kabupaten Manggarai Timur, Nusa Tenggara Tim.","Kabupaten Manggarai Timur, Nusa Tenggara Tim.",NUSA TENGGARA TIMUR,,Indonesia,81353004009,,,-88.098.409,1.206.582.191,https://maps.google.com/?cid=0x0:0x3f3262809c87e74,
cafe,Kedai Kopi,Kedai kopi maimena reo,"5RC3+P2V, Unnamed Road, Watu Nggene, Kec. Kota Komba, Kabupaten Manggarai Timur, Nusa Tenggara Tim.","Kabupaten Manggarai Timur, Nusa Tenggara Tim.",NUSA TENGGARA TIMUR,,Indonesia,,,,-88.281.324,1.208.025.328,https://maps.google.com/?cid=0x0:0x6167acbd3d5e09ee,
cafe,Kedai Kopi,Nana Mastho WARKOP,"8MVQ+MHH, Golomeni, Kec. Kota Komba, Kabupaten Manggarai Timur, Nusa Tenggara Tim.","Kabupaten Manggarai Timur, Nusa Tenggara Tim.",NUSA TENGGARA TIMUR,,Indonesia,82147257147,,,-865.582,1.206.889.748,https://maps.google.com/?cid=0x0:0xaa4ac390c23de808,
cafe,Kedai Kopi,Rumah bp Gerry,"9P4F+JXH, Golo Nderu, Kec. Kota Komba, Kabupaten Manggarai Timur, Nusa Tenggara Tim.","Kabupaten Manggarai Timur, Nusa Tenggara Tim.",NUSA TENGGARA TIMUR,,Indonesia,,,,-86.427.753,1.207.253.953,https://maps.google.com/?cid=0x0:0xcbdc00099d9576db,
cafe,Layanan Pengiriman Barang Kelontong,Rana Loba Coffee House,"5JV8+RMC, Unnamed Road, Rana Loba, Borong, East Manggarai Regency, East Nusa Tenggara","Kabupaten Manggarai Timur, Nusa Tenggara Tim.",NUSA TENGGARA TIMUR,,Indonesia,81315499399,,,-88.054.363,1.206.166.285,https://maps.google.com/?cid=0x0:0x9b9488d650ba937,
cafe,Kafe,Lejong coffee Borong,"Jalan raya ruteng ende, Rana Loba, Kec. Borong, Kabupaten Manggarai Timur, Nusa Tenggara Tim.","Kabupaten Manggarai Timur, Nusa Tenggara Tim.",NUSA TENGGARA TIMUR,,Indonesia,89507601207,,,-88.108.309,120.605.534,https://maps.google.com/?cid=0x0:0x5ac03f1c1eeecae4,
cafe,Restoran,SIQUARRA RESTAURANT,"5QHW+M6G, Jln raya trans flores-depan SMP neger i Waelengga, Watu Nggene, Kec. Kota Komba, Kabupaten Manggarai Timur, Nusa Tenggara Tim.","Kabupaten Manggarai Timur, Nusa Tenggara Tim.",NUSA TENGGARA TIMUR,,Indonesia,81246173264,,,-88.208.245,1.207.955.883,https://maps.google.com/?cid=0x0:0x7a50eea49164a856,
cafe,Kedai Kopi,Wontong cafe  lounge,"8JHC+57H desa Golo leda, Jl . borong, waling, Kec. Borong, Kabupaten Manggarai Timur, Nusa Tenggara Tim.","Kabupaten Manggarai Timur, Nusa Tenggara Tim.",NUSA TENGGARA TIMUR,,Indonesia,,,,-86.720.679,1.206.207.306,https://maps.google.com/?cid=0x0:0x466ab5c64bcd3736,
cafe,Nasi,Rumah Makan BOUGENVILE  BAKERY,"Kota Ndora, Kec. Borong, Kabupaten Manggarai Timur, Nusa Tenggara Tim.","Kabupaten Manggarai Timur, Nusa Tenggara Tim.",NUSA TENGGARA TIMUR,,Indonesia,81339408110,,,-88.175.138,1.206.151.474,https://maps.google.com/?cid=0x0:0x4bc94b2007de53af,
cafe,Kedai Kopi,Stok Tetap Ada,"5R9H+WJQ, Aimere, Kec. Aimere, Kabupaten Ngada, Nusa Tenggara Tim.","Kabupaten Ngada, Nusa Tenggara Tim.",NUSA TENGGARA TIMUR,,Indonesia,,,,-88.301.715,1.208.290.988,https://maps.google.com/?cid=0x0:0xe5dac6e2b12883d0,
cafe,Kafe,D'Loby Cafe,"5HPP+33W, Nanga Labang, Kec. Borong, Kabupaten Manggarai Timur, Nusa Tenggara Tim.","Kabupaten Manggarai Timur, Nusa Tenggara Tim.",NUSA TENGGARA TIMUR,,Indonesia,,,,-88.147.596,1.205.851.954,https://maps.google.com/?cid=0x0:0x7efbb5dfdf4656cc,
cafe,Kafe,Se'i Babi cafe,"5HVW+R68, Nanga Labang, Kec. Borong, Kabupaten Manggarai Timur, Nusa Tenggara Tim.","Kabupaten Manggarai Timur, Nusa Tenggara Tim.",NUSA TENGGARA TIMUR,,Indonesia,,,,-88.054.729,120.595.566,https://maps.google.com/?cid=0x0:0xc5fce106d8605440,
cafe,Indonesia,Rumah Makan Betawi,"5QMR+7X4, Watu Nggene, Kec. Kota Komba, Kabupaten Manggarai Timur, Nusa Tenggara Tim.","Kabupaten Manggarai Timur, Nusa Tenggara Tim.",NUSA TENGGARA TIMUR,,Indonesia,,,,-88.168.667,1.207.924.681,https://maps.google.com/?cid=0x0:0xd49c756182dad839,
cafe,cafe,Nusa Tenggara Tim.,,Nusa Tenggara Tim.,NUSA TENGGARA TIMUR,,Indonesia,,,,-86.573.819,1.210.793.705,https://maps.google.com/?cid=0x0:0x1030bfbcaf71ae0,
cafe,Kedai Kopi,Komi kafe,"Dekat Atm Bni, Jl. Amabi No.77, Maulafa, Kec. Maulafa, Kota Kupang, Nusa Tenggara Tim. 85117","Jl. Amabi No.77, Maulafa, Kec. Maulafa, Kota Kupang",NUSA TENGGARA TIMUR,85117.0,Indonesia,85142015519,,,-10.178.221,1.236.191.943,https://maps.google.com/?cid=0x0:0x1214ed86baabd0b4,
cafe,,Umera Kofie,"Jl. W.J. Lalamentik, Oebufu, Kec. Oebobo, Kota Kupang, Nusa Tenggara Tim. 85111","Oebufu, Kec. Oebobo, Kota Kupang",NUSA TENGGARA TIMUR,85111.0,Indonesia,81119022223,,,-101.708.479,1.236.094.871,https://maps.google.com/?cid=0x0:0x84b1468dd6cc7501,
cafe,Kafe,KALOKA KAFE,"Dermaga Bongkar s.j, depan rumah H. M. Najib Pulau Sumbawa, Jl. Lintas Tpi, Bugis, Kec. Sape, Nusa Tenggara Bar. 84182","depan rumah H. M. Najib Pulau Sumbawa, Jl. Lintas Tpi, Bugis, Kec. Sape",NUSA TENGGARA TIMUR,84182.0,Indonesia,,,,-85.703.927,1.190.144.805,https://maps.google.com/?cid=0x0:0x8b245a3c74b8dec,
cafe,Kedai Kopi,Kaloka Cafe,"GQM8+HCW, Penanae, Kec. Raba, Kab. Bima, Nusa Tenggara Bar.","Kab. Bima, Nusa Tenggara Bar.",NUSA TENGGARA TIMUR,,Indonesia,,,,-84.660.075,1.187.660.808,https://maps.google.com/?cid=0x0:0xabe4c4b1df992abb,
cafe,Bakso,Bakso Pohon Jati,"Oebufu, Kec. Oebobo, Kota Kupang, Nusa Tenggara Tim.","Kota Kupang, Nusa Tenggara Tim.",NUSA TENGGARA TIMUR,,Indonesia,81338899200,,,-101.698.734,1.236.129.716,https://maps.google.com/?cid=0x0:0xeb7cf3643360afae,
cafe,Mi,Bubur Ayam Farmasi,"RMP4+R69, Jl. Farmasi, Liliba, Kec. Oebobo, Kota Kupang, Nusa Tenggara Tim.","Kota Kupang, Nusa Tenggara Tim.",NUSA TENGGARA TIMUR,,Indonesia,81239592963,,,-101.629.668,1.236.556.138,https://maps.google.com/?cid=0x0:0x3c49b30b477a25f7,
cafe,Kafe,Kopito Edelweiss,"Jl. Trans Flores, Sita, Kec. Borong, Kabupaten Manggarai Timur, Nusa Tenggara Tim.","Kabupaten Manggarai Timur, Nusa Tenggara Tim.",NUSA TENGGARA TIMUR,,Indonesia,82144139321,,,-87.279.148,1.205.676.789,https://maps.google.com/?cid=0x0:0xb9e0726cfe0fcbd5,
cafe,Kedai Kopi,Omfitto,"9RQQ+VQQ, Desa mosingaran, Langgasai, Kabupaten Manggarai Timur, Nusa Tenggara Tim.","Kabupaten Manggarai Timur, Nusa Tenggara Tim.",NUSA TENGGARA TIMUR,,Indonesia,,,,-8.610.295,1.208.394.977,https://maps.google.com/?cid=0x0:0xd85e5e6de6ac91f7,
cafe,cafe,Nusa Tenggara Tim.,,Nusa Tenggara Tim.,NUSA TENGGARA TIMUR,,Indonesia,,,,-86.573.819,1.210.793.705,https://maps.google.com/?cid=0x0:0x1030bfbcaf71ae0,
cafe,Layanan Pengiriman Barang Kelontong,Rana Loba Coffee House,"5JV8+RMC, Unnamed Road, Rana Loba, Borong, East Manggarai Regency, East Nusa Tenggara","Kabupaten Manggarai Timur, Nusa Tenggara Tim.",NUSA TENGGARA TIMUR,,Indonesia,81315499399,,,-88.054.363,1.206.166.285,https://maps.google.com/?cid=0x0:0x9b9488d650ba937,
cafe,Kafe,Anera Cafe,"5HMJ+46C, Nanga Labang, Kec. Borong, Kabupaten Manggarai Timur, Nusa Tenggara Tim.","Kabupaten Manggarai Timur, Nusa Tenggara Tim.",NUSA TENGGARA TIMUR,,Indonesia,82237110200,,,-88.171.789,1.205.805.118,https://maps.google.com/?cid=0x0:0x8d71911d783a7ae8,
cafe,cafe,Rana Mese,"Golo Loni, Kec. Rana Mese, Kabupaten Manggarai Timur, Nusa Tenggara Tim.","Kabupaten Manggarai Timur, Nusa Tenggara Tim.",NUSA TENGGARA TIMUR,,Indonesia,,,,-86.391.667,1.205.611.111,https://maps.google.com/?cid=0x0:0x17d84708e4115485,
cafe,cafe,Kec. Rana Mese,"Kabupaten Manggarai Timur, Nusa Tenggara Tim.","Kabupaten Manggarai Timur, Nusa Tenggara Tim.",NUSA TENGGARA TIMUR,,Indonesia,,,,-8.368.917,1.203.459.156,https://maps.google.com/?cid=0x0:0x866acef55b6f1bf6,
cafe,cafe,Rana Mese,"Kec. Sambi Rampas, Kabupaten Manggarai Timur, Nusa Tenggara Tim.","Kabupaten Manggarai Timur, Nusa Tenggara Tim.",NUSA TENGGARA TIMUR,,Indonesia,,,,-8.549.132,1.207.177.509,https://maps.google.com/?cid=0x0:0x3d93415f73d93570,
cafe,Kedai Kopi,KEDAI OMANE,"KEDAI OMANE, Rana Loba, Kec. Borong, Kabupaten Manggarai Timur, Nusa Tenggara Tim. 86571","Rana Loba, Kec. Borong, Kabupaten Manggarai Timur",NUSA TENGGARA TIMUR,86571.0,Indonesia,81338295324,,,-88.093.713,1.206.129.865,https://maps.google.com/?cid=0x0:0xa28b6b11fcc46a5f,
cafe,Kafe,Wapres RJ,"Jalan Ki Hajar Dewantara, Rana Loba, Kec. Borong, Kabupaten Manggarai Timur, Nusa Tenggara Tim. 86571","Rana Loba, Kec. Borong, Kabupaten Manggarai Timur",NUSA TENGGARA TIMUR,86571.0,Indonesia,,,,-87.661.041,120.621.589,https://maps.google.com/?cid=0x0:0x8a8f1509c02504a2,
cafe,Kedai Kopi,Warkop Mama Resa,"Paka, Sita, Kec. Rana Mese, Kabupaten Manggarai Timur, Nusa Tenggara Tim. 86570","Sita, Kec. Rana Mese, Kabupaten Manggarai Timur",NUSA TENGGARA TIMUR,86570.0,Indonesia,82236192534,,,-87.206.487,1.205.651.443,https://maps.google.com/?cid=0x0:0x9a8f56b89f06d4a,
cafe,Kafe,"HM Cafe, Resto, Fitness  Aerobics","9665+G8R, Nangalimang, Kec. Alok, Kabupaten Sikka, Nusa Tenggara Tim.","Kabupaten Sikka, Nusa Tenggara Tim.",NUSA TENGGARA TIMUR,,Indonesia,85333768440,,,-86.389.528,1.222.079.598,https://maps.google.com/?cid=0x0:0x918bc74da2cccabd,
cafe,Mesin Jual Otomatis Kopi,Penjualan pisang marmi,"5JP7+P6J, Jln. Flamboyan Kampung Bugis Borong, Kecamatan, Rana Loba, Kec. Borong, Kabupaten Manggarai Timur, Nusa Tenggara Tim. 86571","Jln. Flamboyan Kampung Bugis Borong, Kecamatan, Rana Loba, Kec. Borong, Kabupaten Manggarai Timur",NUSA TENGGARA TIMUR,86571.0,Indonesia,82145880325,,,-88.131.535,1.206.130.183,https://maps.google.com/?cid=0x0:0xd6daf8ed7a30683f,
cafe,cafe,SEGAR898,"FMG4+2FF Benteng Rampas, Kabupaten Manggarai Timur, NUSA TENGGARA TIMUR, Nusa Tenggara Tim.","NUSA TENGGARA TIMUR, Nusa Tenggara Tim.",NUSA TENGGARA TIMUR,,Indonesia,,,,-85.249.375,1.206.561.875,https://maps.google.com/?cid=0x0:0xe1df9d2d48270640,
cafe,Indonesia,Chicken Noodles and Meat Ball Coffee For Rest,"Golo Kantar, Kec. Borong, Kabupaten Manggarai Timur, Nusa Tenggara Tim.","Kabupaten Manggarai Timur, Nusa Tenggara Tim.",NUSA TENGGARA TIMUR,,Indonesia,,,,-8.800.249,1.205.840.891,https://maps.google.com/?cid=0x0:0xd225491dde78d2ca,
cafe,Minimarket,Widy Mart,"Rana Loba, Kec. Borong, Kabupaten Manggarai Timur, Nusa Tenggara Tim. 86571","Kec. Borong, Kabupaten Manggarai Timur",NUSA TENGGARA TIMUR,86571.0,Indonesia,85225249405,,,-88.152.673,1.206.106.612,https://maps.google.com/?cid=0x0:0x1b8ca03aa9621dfb,
cafe,Komplek perumahan,Sentra Agrobisnis Elegori,"Sewul, Desa Rana Mbeling, Kecamatan Kota Komba Utara, Kabupaten Manggarai Timur, Nusa Tenggara Tim. 86571","Desa Rana Mbeling, Kecamatan Kota Komba Utara, Kabupaten Manggarai Timur",NUSA TENGGARA TIMUR,86571.0,Indonesia,81398309627,,,-86.559.923,1.206.989.693,https://maps.google.com/?cid=0x0:0xc9c61b68eeb25b42,
cafe,Biro Perjalanan dan Wisata,Tour and travel,"Jendong, Kec. Borong, Kabupaten Manggarai Timur, Nusa Tenggara Tim. 86571","Kec. Borong, Kabupaten Manggarai Timur",NUSA TENGGARA TIMUR,86571.0,Indonesia,81239428852,,,-86.585.997,1.205.608.281,https://maps.google.com/?cid=0x0:0x6f4d998de6e9588d,
cafe,cafe,Warkop Mama Resa,"6HVH+VVG, Sita, Kec. Rana Mese, Kabupaten Manggarai Timur, Nusa Tenggara Tim.","Kabupaten Manggarai Timur, Nusa Tenggara Tim.",NUSA TENGGARA TIMUR,,Indonesia,,,,-8.755.317,1.205.797.128,https://maps.google.com/?cid=0x0:0xb733ffa731637641,
cafe,cafe,Warkop Mama Resa,"J8JW+C9M, Wae Kajong, Kec. Rana Mese, Kabupaten Manggarai Timur, Nusa Tenggara Tim.","Kabupaten Manggarai Timur, Nusa Tenggara Tim.",NUSA TENGGARA TIMUR,,Indonesia,,,,-8.368.917,1.203.459.156,https://maps.google.com/?cid=0x0:0xc792f034d8c1ada3,
cafe,Kedai Kopi,My Ngopi cafe,"8HV6+P9P, Golo Loni, Kec. Rana Mese, Kabupaten Manggarai Timur, Nusa Tenggara Tim.","Kabupaten Manggarai Timur, Nusa Tenggara Tim.",NUSA TENGGARA TIMUR,,Indonesia,,,,-86.556.616,1.205.609.621,https://maps.google.com/?cid=0x0:0x109c2964bfcaee9c,
cafe,Kedai Kopi,Mallomo Cafe,"Jalan Poros, Reo, kedindi, Kabupaten Manggarai, Nusa Tenggara Tim. 86592","Reo, kedindi, Kabupaten Manggarai",NUSA TENGGARA TIMUR,86592.0,Indonesia,81280692617,,,-83.111.727,1.204.888.374,https://maps.google.com/?cid=0x0:0xa4f3de4ea5d17ad7,
cafe,Brunch,Kafe Mini Waelaru Rego,"H7G5+QJ4, Rego, Kec. Macang Pacar, Kabupaten Manggarai Barat, Nusa Tenggara Tim.","Kabupaten Manggarai Barat, Nusa Tenggara Tim.",NUSA TENGGARA TIMUR,,Indonesia,81260798953,,,-84.231.119,120.259.083,https://maps.google.com/?cid=0x0:0xa6706141e01bcc55,
cafe,Restoran,REMBONG GARDEN CAFE,"Jl. Satar Tacik No.1, Tenda, Kec. Langke Rembong, Kabupaten Manggarai, Nusa Tenggara Tim. 86511","Tenda, Kec. Langke Rembong, Kabupaten Manggarai",NUSA TENGGARA TIMUR,86511.0,Indonesia,82145359768,,,-8.609.818,1.204.756.782,https://maps.google.com/?cid=0x0:0xb10d80da799748e6,
cafe,Kedai Kopi,Kopi Mane Inspiration - Ruteng,"Jl. Yos Sudarso, Mbaumuku, Kec. Langke Rembong, Kabupaten Manggarai, Nusa Tenggara Tim.","Kabupaten Manggarai, Nusa Tenggara Tim.",NUSA TENGGARA TIMUR,,Indonesia,82157540804,,,-86.098.616,1.204.667.029,https://maps.google.com/?cid=0x0:0x9dcec5827cacc78c,
cafe,Kedai Kopi,Mini Cafe Ade,"MFXH+GH8, Mata Air, Kec. Reok, Kabupaten Manggarai, Nusa Tenggara Tim.","Kabupaten Manggarai, Nusa Tenggara Tim.",NUSA TENGGARA TIMUR,,Indonesia,82144112155,,,-83.012.057,120.478.965,https://maps.google.com/?cid=0x0:0x737aa3cc9ddfab8a,
cafe,Kafe,Calin Cafe  Baking Supply store,"Jl. Niaga No.8, Mbaumuku, Kec. Langke Rembong, Kabupaten Manggarai, Nusa Tenggara Tim.","Kabupaten Manggarai, Nusa Tenggara Tim.",NUSA TENGGARA TIMUR,,Indonesia,82145832828,,,-86.096.463,1.204.647.368,https://maps.google.com/?cid=0x0:0x7d4b0ab246c1bd96,
cafe,Kafe,Cafe Pareng,"9FG3+WCR, Waso, Kec. Langke Rembong, Kabupaten Manggarai, Nusa Tenggara Tim.","Kabupaten Manggarai, Nusa Tenggara Tim.",NUSA TENGGARA TIMUR,,Indonesia,82339336088,,,-86.226.403,1.204.535.163,https://maps.google.com/?cid=0x0:0xe0750a4f26e3a851,
cafe,Kedai Kopi,Bengkes Cafe,"982M+QX, Cireng, Kec. Satar Mese Bar., Kabupaten Manggarai, Nusa Tenggara Tim.","Kabupaten Manggarai, Nusa Tenggara Tim.",NUSA TENGGARA TIMUR,,Indonesia,,,,-86.481.561,1.203.348.863,https://maps.google.com/?cid=0x0:0x8f668d587f96bd6,
cafe,Kafe,Loka Antara Cafe,"9FQF+XVR, Jl. Ruteng - Benteng Jawa, Tenda, Kec. Langke Rembong, Kabupaten Manggarai, Nusa Tenggara Tim.","Kabupaten Manggarai, Nusa Tenggara Tim.",NUSA TENGGARA TIMUR,,Indonesia,81311120756,,,-86.100.098,1.204.746.457,https://maps.google.com/?cid=0x0:0xfb813d05fc1b7189,
cafe,Kafe,D'Boston Cafe,"Tenda, Kec. Langke Rembong, Kabupaten Manggarai, Nusa Tenggara Tim.","Kabupaten Manggarai, Nusa Tenggara Tim.",NUSA TENGGARA TIMUR,,Indonesia,82341222323,,,-8.610.814,1.204.730.433,https://maps.google.com/?cid=0x0:0x75170bfcc551e0c6,
cafe,Kafe,Caffe Poco Kepe,"9GVX+67H, Mando Sawu, Kec. Poco Ranaka, Kabupaten Manggarai Timur, Nusa Tenggara Tim.","Kabupaten Manggarai Timur, Nusa Tenggara Tim.",NUSA TENGGARA TIMUR,,Indonesia,81353062307,,,-86.069.252,120.548.227,https://maps.google.com/?cid=0x0:0x3d2bd5311ec7c6df,
cafe,cafe,Kec. Poco Ranaka Timur,"Kabupaten Manggarai Timur, Nusa Tenggara Tim.","Kabupaten Manggarai Timur, Nusa Tenggara Tim.",NUSA TENGGARA TIMUR,,Indonesia,,,,-85.543.382,120.618.277,https://maps.google.com/?cid=0x0:0x1564295fdcda3229,
cafe,Kedai Kopi,Cantika Coffee,"9GWQ+8FV, Jl. Ruteng - Benteng Jawa, Mando Sawu, Kec. Poco Ranaka, Kabupaten Manggarai Timur, Nusa Tenggara Tim.","Kabupaten Manggarai Timur, Nusa Tenggara Tim.",NUSA TENGGARA TIMUR,,Indonesia,82136807730,,,-86.041.399,1.205.386.639,https://maps.google.com/?cid=0x0:0x28270c14ca471b2c,
cafe,cafe,Pondok Kopi MBATE,"Ulu Wae, Kec. Poco Ranaka Timur, Kabupaten Manggarai Timur, Nusa Tenggara Tim.","Kabupaten Manggarai Timur, Nusa Tenggara Tim.",NUSA TENGGARA TIMUR,,Indonesia,81237021521,,,-86.010.105,1.206.255.085,https://maps.google.com/?cid=0x0:0xcebf18f9dd11fbc,
cafe,Grosir Kopi,ROAS KOPI,"CJ7C+M4J, Rende Nao, Kec. Poco Ranaka, Kabupaten Manggarai Timur, Nusa Tenggara Tim.","Kabupaten Manggarai Timur, Nusa Tenggara Tim.",NUSA TENGGARA TIMUR,,Indonesia,85846326811,,,-8.585.535,120.620.342,https://maps.google.com/?cid=0x0:0x83070f21cfdfe2d9,
cafe,Kedai Kopi,Kedai Evodia,"9GQX+M48, Bangka Pau, Kec. Poco Ranaka, Kabupaten Manggarai Timur, Nusa Tenggara Tim.","Kabupaten Manggarai Timur, Nusa Tenggara Tim.",NUSA TENGGARA TIMUR,,Indonesia,82146373434,,,-86.108.466,1.205.478.298,https://maps.google.com/?cid=0x0:0x33f54a888891b053,
cafe,Kedai Kopi,Pasketa Coffee,"Jl. Eltari, Mbaumuku, Kec. Langke Rembong, Kabupaten Manggarai, Nusa Tenggara Tim.","Kabupaten Manggarai, Nusa Tenggara Tim.",NUSA TENGGARA TIMUR,,Indonesia,81337109258,,,-86.097.947,1.204.643.416,https://maps.google.com/?cid=0x0:0xa0ed73ab22e54132,
cafe,Kedai Kopi,Irfo,"9HX9+J78, Nggalak Leleng, Kec. Poco Ranaka, Kabupaten Manggarai Timur, Nusa Tenggara Tim.","Kabupaten Manggarai Timur, Nusa Tenggara Tim.",NUSA TENGGARA TIMUR,,Indonesia,,,,-8.600.955,1.205.682.028,https://maps.google.com/?cid=0x0:0x54bee77a21285fd1,
cafe,Toko kopi,"Markas Adregal, Deno City","FHCG+GRW, Jl. Ruteng - Benteng Jawa, Pocong, Kec. Poco Ranaka, Kabupaten Manggarai Timur, Nusa Tenggara Tim.","Kabupaten Manggarai Timur, Nusa Tenggara Tim.",NUSA TENGGARA TIMUR,,Indonesia,,,,-8.528.646,1.205.770.794,https://maps.google.com/?cid=0x0:0xbaad1c8963d904b4,
cafe,Kedai Kopi,Rumahnya Julian,"FM23+VM, Ngkiong Dora, Kec. Poco Ranaka Timur, Kabupaten Manggarai Timur, Nusa Tenggara Tim.","Kabupaten Manggarai Timur, Nusa Tenggara Tim.",NUSA TENGGARA TIMUR,,Indonesia,,,,-85.478.467,1.206.541.873,https://maps.google.com/?cid=0x0:0x91396e23361f2c41,
cafe,Asosiasi/organisasi,KOPI GERAS COLOL,"CJ3V+HCV, Ulu Wae, Kec. Poco Ranaka Timur, Kabupaten Manggarai Timur, Nusa Tenggara Tim.","Kabupaten Manggarai Timur, Nusa Tenggara Tim.",NUSA TENGGARA TIMUR,,Indonesia,82144451767,,,-85.959.123,1.206.437.497,https://maps.google.com/?cid=0x0:0x96fffdf9694972c1,
cafe,Asosiasi/organisasi,Filosofi Kopi Colol Djabu,"Ulu Wae, Kec. Poco Ranaka Timur, Kabupaten Manggarai Timur, Nusa Tenggara Tim.","Kabupaten Manggarai Timur, Nusa Tenggara Tim.",NUSA TENGGARA TIMUR,,Indonesia,81239209921,,,-85.987.558,1.206.343.307,https://maps.google.com/?cid=0x0:0x31e449fab70eddd3,
cafe,Kafe,Konco COFFEE  REST AREA Ruteng,"Jl. Hatta No.22, Lawir, Kec. Langke Rembong, Kabupaten Manggarai, Nusa Tenggara Tim. 86511","Lawir, Kec. Langke Rembong, Kabupaten Manggarai",NUSA TENGGARA TIMUR,86511.0,Indonesia,82136031249,,,-86.065.938,120.456.526,https://maps.google.com/?cid=0x0:0x196d78c75fb7de3c,
cafe,Kafe,Loka Antara Cafe,"9FQF+XVR, Jl. Ruteng - Benteng Jawa, Tenda, Kec. Langke Rembong, Kabupaten Manggarai, Nusa Tenggara Tim.","Kabupaten Manggarai, Nusa Tenggara Tim.",NUSA TENGGARA TIMUR,,Indonesia,81311120756,,,-86.100.098,1.204.746.457,https://maps.google.com/?cid=0x0:0xfb813d05fc1b7189,
cafe,Komplek perumahan,"Uwu, Desa Wejang Mawe, Manggarai Timur","Rende Nao, Kec. Poco Ranaka Timur, Kabupaten Manggarai Timur, Nusa Tenggara Tim.","Kabupaten Manggarai Timur, Nusa Tenggara Tim.",NUSA TENGGARA TIMUR,,Indonesia,81238418913,,,-86.206.712,1.206.199.895,https://maps.google.com/?cid=0x0:0x7ee5edeca84562d,
cafe,Kedai Kopi,D'Roeng Coffee Colol,"Lembah Colol, Ulu Wae, Kec. Poco Ranaka Timur, Kabupaten Manggarai Timur, Nusa Tenggara Tim. 86583","Ulu Wae, Kec. Poco Ranaka Timur, Kabupaten Manggarai Timur",NUSA TENGGARA TIMUR,86583.0,Indonesia,81238477658,,,-85.944.129,1.206.316.375,https://maps.google.com/?cid=0x0:0xa4f1afb251551032,
cafe,Bakso,warung baso aa,"FH9G+QPR, Jl. Ruteng - Benteng Jawa, Pocong, Kec. Poco Ranaka, Kabupaten Manggarai Timur, Nusa Tenggara Tim.","Kabupaten Manggarai Timur, Nusa Tenggara Tim.",NUSA TENGGARA TIMUR,,Indonesia,81337393987,,,-85.305.165,1.205.767.671,https://maps.google.com/?cid=0x0:0x7407db57ec58b548,
cafe,Toko umum,Kios epril,"Ulu Wae, Kec. Poco Ranaka, Kabupaten Manggarai Timur, Nusa Tenggara Tim.","Kabupaten Manggarai Timur, Nusa Tenggara Tim.",NUSA TENGGARA TIMUR,,Indonesia,,,,-85.960.122,1.206.435.487,https://maps.google.com/?cid=0x0:0xa467d55fdf6bcf29,
cafe,Kedai Kopi,Chantika Gorengan,"9GRX+7GV, Bangka Pau, Kec. Poco Ranaka, Kabupaten Manggarai Timur, Nusa Tenggara Tim.","Kabupaten Manggarai Timur, Nusa Tenggara Tim.",NUSA TENGGARA TIMUR,,Indonesia,,,,-860.925,1.205.487.904,https://maps.google.com/?cid=0x0:0x7b4400762f2700ca,
cafe,Kedai Kopi,My Ngopi cafe,"8HV6+P9P, Golo Loni, Kec. Rana Mese, Kabupaten Manggarai Timur, Nusa Tenggara Tim.","Kabupaten Manggarai Timur, Nusa Tenggara Tim.",NUSA TENGGARA TIMUR,,Indonesia,,,,-86.556.616,1.205.609.621,https://maps.google.com/?cid=0x0:0x109c2964bfcaee9c,
cafe,Kios,Kios Mobert,"CJV9+CMJ, Unnamed Road, Golo Lero, Kec. Poco Ranaka Timur, Kabupaten Manggarai Timur, Nusa Tenggara Tim.","Kabupaten Manggarai Timur, Nusa Tenggara Tim.",NUSA TENGGARA TIMUR,,Indonesia,"8,13808E+11",,,-85.564.064,1.206.191.343,https://maps.google.com/?cid=0x0:0xb5a6ed97aa2f745,
cafe,Kedai Kopi,Cabang 3 Maroeara family,"CJWC+F44, Golo Lero, Kec. Poco Ranaka Timur, Kabupaten Manggarai Timur, Nusa Tenggara Tim.","Kabupaten Manggarai Timur, Nusa Tenggara Tim.",NUSA TENGGARA TIMUR,,Indonesia,,,,-85.538.574,1.206.203.375,https://maps.google.com/?cid=0x0:0x30d39c9fd8c4c401,
cafe,Kedai Kopi,Wontong cafe  lounge,"8JHC+57H desa Golo leda, Jl . borong, waling, Kec. Borong, Kabupaten Manggarai Timur, Nusa Tenggara Tim.","Kabupaten Manggarai Timur, Nusa Tenggara Tim.",NUSA TENGGARA TIMUR,,Indonesia,,,,-86.720.679,1.206.207.306,https://maps.google.com/?cid=0x0:0x466ab5c64bcd3736,
cafe,Kedai Kopi,Yatno D'nggelong,"CJGG+7JM, Rende Nao, Kec. Poco Ranaka Timur, Kabupaten Manggarai Timur, Nusa Tenggara Tim.","Kabupaten Manggarai Timur, Nusa Tenggara Tim.",NUSA TENGGARA TIMUR,,Indonesia,,,,-8.574.464,120.626.687,https://maps.google.com/?cid=0x0:0xc16975d5fc697c33,
cafe,cafe,Kec. Elar Selatan,"Kabupaten Manggarai Timur, Nusa Tenggara Tim.","Kabupaten Manggarai Timur, Nusa Tenggara Tim.",NUSA TENGGARA TIMUR,,Indonesia,,,,-86.439.057,1.207.613.321,https://maps.google.com/?cid=0x0:0x29c346791b550200,
cafe,Kedai Kopi,Omfitto,"9RQQ+VQQ, Desa mosingaran, Langgasai, Kabupaten Manggarai Timur, Nusa Tenggara Tim.","Kabupaten Manggarai Timur, Nusa Tenggara Tim.",NUSA TENGGARA TIMUR,,Indonesia,,,,-8.610.295,1.208.394.977,https://maps.google.com/?cid=0x0:0xd85e5e6de6ac91f7,
cafe,cafe,Rumah,"CR7V+CMC, Sangan Kalo, Kec. Elar Selatan, Kabupaten Manggarai Timur, Nusa Tenggara Tim.","Kabupaten Manggarai Timur, Nusa Tenggara Tim.",NUSA TENGGARA TIMUR,,Indonesia,,,,-85.864.286,120.844.152,https://maps.google.com/?cid=0x0:0x4196ddd77e4f0124,
cafe,Bar,Deny Coffie,"9RQQ+8WV, Mosingaran, Kec. Elar, Kabupaten Manggarai Timur, Nusa Tenggara Tim.","Kabupaten Manggarai Timur, Nusa Tenggara Tim.",NUSA TENGGARA TIMUR,,Indonesia,81237961406,,,-86.116.487,1.208.398.066,https://maps.google.com/?cid=0x0:0x269116a84281a281,
cafe,Kedai Kopi,Sonya home,"9Q46+C3M, Sipi, Kec. Elar Selatan, Kabupaten Manggarai Timur, Nusa Tenggara Tim.","Kabupaten Manggarai Timur, Nusa Tenggara Tim.",NUSA TENGGARA TIMUR,,Indonesia,,,,-86.439.165,1.207.601.725,https://maps.google.com/?cid=0x0:0x6123451757e71d9a,
cafe,Kedai Kopi,@frama,"9RRQ+63V, Mosi, Ngaran, Kec. Elar, Kabupaten Manggarai Timur, Nusa Tenggara Tim.","Kabupaten Manggarai Timur, Nusa Tenggara Tim.",NUSA TENGGARA TIMUR,,Indonesia,,,,-86.093.796,1.208.376.678,https://maps.google.com/?cid=0x0:0x48894730153155e2,
cafe,Pembangunan Perumahan,Kampung sapok,"CR93+85C, Gising, Kec. Elar Selatan, Kabupaten Manggarai Timur, Nusa Tenggara Tim.","Kabupaten Manggarai Timur, Nusa Tenggara Tim.",NUSA TENGGARA TIMUR,,Indonesia,,,,-85.816.917,120.802.897,https://maps.google.com/?cid=0x0:0x3faf776d71d21945,
cafe,Komplek perumahan,Gerlan Home,"CRCM+3W, Sangan Kalo, Kec. Elar Selatan, Kabupaten Manggarai Timur, Nusa Tenggara Tim.","Kabupaten Manggarai Timur, Nusa Tenggara Tim.",NUSA TENGGARA TIMUR,,Indonesia,,,,-85.797.525,1.208.348.482,https://maps.google.com/?cid=0x0:0x972ed01056eaabae,
cafe,Kedai Kopi,Wontong cafe  lounge,"8JHC+57H desa Golo leda, Jl . borong, waling, Kec. Borong, Kabupaten Manggarai Timur, Nusa Tenggara Tim.","Kabupaten Manggarai Timur, Nusa Tenggara Tim.",NUSA TENGGARA TIMUR,,Indonesia,,,,-86.720.679,1.206.207.306,https://maps.google.com/?cid=0x0:0x466ab5c64bcd3736,
cafe,Komplek perumahan,Gising elar selatan,"9RP8+CF, Gising, Kec. Elar Selatan, Kabupaten Manggarai Timur, Nusa Tenggara Tim.","Kabupaten Manggarai Timur, Nusa Tenggara Tim.",NUSA TENGGARA TIMUR,,Indonesia,,,,-86.139.375,1.208.161.875,https://maps.google.com/?cid=0x0:0xadb67db628514377,
cafe,Warnet,Mory goa,"9RMM+V5F, Langgasai, Kec. Elar Selatan, Kabupaten Manggarai Timur, Nusa Tenggara Tim.","Kabupaten Manggarai Timur, Nusa Tenggara Tim.",NUSA TENGGARA TIMUR,,Indonesia,,,,-86.153.147,1.208.329.133,https://maps.google.com/?cid=0x0:0xf8d706743f57493,
cafe,Kedai Kopi,Rumah bp Gerry,"9P4F+JXH, Golo Nderu, Kec. Kota Komba, Kabupaten Manggarai Timur, Nusa Tenggara Tim.","Kabupaten Manggarai Timur, Nusa Tenggara Tim.",NUSA TENGGARA TIMUR,,Indonesia,,,,-86.427.753,1.207.253.953,https://maps.google.com/?cid=0x0:0xcbdc00099d9576db,
cafe,cafe,Wawant,"9RPF+8H, mosingaran, Kec. Elar Selatan, Kabupaten Manggarai Timur, Nusa Tenggara Tim.","Kabupaten Manggarai Timur, Nusa Tenggara Tim.",NUSA TENGGARA TIMUR,,Indonesia,,,,-86.142.134,1.208.239.292,https://maps.google.com/?cid=0x0:0x36340dc6e6e7a3f,
cafe,cafe,Satu seong,"9RPF+FQV, Langgasai, Kec. Elar, Kabupaten Manggarai Timur, Nusa Tenggara Tim.","Kabupaten Manggarai Timur, Nusa Tenggara Tim.",NUSA TENGGARA TIMUR,,Indonesia,,,,-86.137.682,1.208.244.299,https://maps.google.com/?cid=0x0:0x6c046a224df0a522,
cafe,Kedai Kopi,CAFE A' MANGGARAI,"Jl. Muria Ujung No.1 7, RT.7/RW.6, Ps. Manggis, Kecamatan Setiabudi, Kota Jakarta Selatan, Daerah Khusus Ibukota Jakarta 12970","RT.7/RW.6, Ps. Manggis, Kecamatan Setiabudi, Kota Jakarta Selatan",NUSA TENGGARA TIMUR,12970.0,Indonesia,81283783090,,,-62.108.468,1.068.395.106,https://maps.google.com/?cid=0x0:0x7c63a3cf61a9c9be,
cafe,Kios,D'JHINO FOTO COPY  ATK,"Wukir, Sangan Kalo, Kec. Elar Selatan, Kabupaten Manggarai Timur, Nusa Tenggara Tim. 86581","Sangan Kalo, Kec. Elar Selatan, Kabupaten Manggarai Timur",NUSA TENGGARA TIMUR,86581.0,Indonesia,83147636007,,,-85.813.808,1.208.376.147,https://maps.google.com/?cid=0x0:0x9bd78d80434d0d7,
cafe,Toko Perlengkapan Rumah,Kios JAFLO,"Munte kelurahan, Lempang Paji, Kec. Elar Selatan, Kabupaten Manggarai Timur, Nusa Tenggara Tim. 86580","Lempang Paji, Kec. Elar Selatan, Kabupaten Manggarai Timur",NUSA TENGGARA TIMUR,86580.0,Indonesia,81317256720,,,-85.220.102,1.208.221.902,https://maps.google.com/?cid=0x0:0x9a0d38f6c3164634,
