Category,Real Category,Business Name,Address,City,State,Postal Code,Country,Phone,Email,Website,Latitude,Longitude,Map Link,Details Link
hardware store,Toko Bahan Bangunan,Toko Sahabat Bangunan Borong,"Jalan satar peot, Rana Loba, Kec. Borong, Kabupaten Manggarai Timur, Nusa Tenggara Tim. 86571","Rana Loba, Kec. Borong, Kabupaten Manggarai Timur",NUSA TENGGARA TIMUR,86571.0,Indonesia,81282720033,,,-87.653.753,1.206.219.319,https://maps.google.com/?cid=0x0:0xebefc5906b586f01,
hardware store,Toko Bahan Bangunan,Toko Pancaran Bangunan,"5JR4+8JW, Rana Loba, Kec. Borong, Kabupaten Manggarai Timur, Nusa Tenggara Tim.","Kabupaten Manggarai Timur, Nusa Tenggara Tim.",NUSA TENGGARA TIMUR,,Indonesia,81238625622,,,-88.091.403,1.206.065.789,https://maps.google.com/?cid=0x0:0x248dd937a6dc415f,
hardware store,hardware store,Kec. Borong,"Kabupaten Manggarai Timur, Nusa Tenggara Tim.","Kabupaten Manggarai Timur, Nusa Tenggara Tim.",NUSA TENGGARA TIMUR,,Indonesia,,,,-88.148.406,1.206.082.067,https://maps.google.com/?cid=0x0:0x2a97d54812a8d6a5,
hardware store,Kantor Perusahaan,Toko Besi Mitra Utama,"5JP4+2HP, jl.waereca, Rana Loba, Kec. Borong, Kabupaten Manggarai Timur, Nusa Tenggara Tim.","Kabupaten Manggarai Timur, Nusa Tenggara Tim.",NUSA TENGGARA TIMUR,,Indonesia,8121552164,,,-88.149.209,1.206.064.621,https://maps.google.com/?cid=0x0:0xf34b50696ef2c9e0,
hardware store,Toko Perlengkapan Rumah,MR.DIY,"Jl. Lintas Flores, Rana Loba, Kec. Borong, Kabupaten Manggarai, Nusa Tenggara Tim. 86571","Rana Loba, Kec. Borong, Kabupaten Manggarai",NUSA TENGGARA TIMUR,86571.0,Indonesia,,,,-8.815.584,120.609.233,https://maps.google.com/?cid=0x0:0x4f3a7c9ee1f2e7f7,
hardware store,Toko Bahan Bangunan,Bahan Bangunan,"Lekeng, Kec. Kota Komba, Kabupaten Manggarai Timur, Nusa Tenggara Tim.","Kabupaten Manggarai Timur, Nusa Tenggara Tim.",NUSA TENGGARA TIMUR,,Indonesia,81237416770,,,-88.063.557,1.206.785.556,https://maps.google.com/?cid=0x0:0xb70d92af16880084,
hardware store,Butik,Barang Baru,"Cipondoh, Perumahan Taman Royal 1, Komplek Ruko Pinus Niaga Center No. 18, RT.004/RW.016, Tanah Tinggi, Kec. Tangerang, Kota Tangerang, Banten 15141","Perumahan Taman Royal 1, Komplek Ruko Pinus Niaga Center No. 18, RT.004/RW.016, Tanah Tinggi, Kec. Tangerang, Kota Tangerang",NUSA TENGGARA TIMUR,15141.0,Indonesia,2155701881,,,-61.809.157,1.066.607.922,https://maps.google.com/?cid=0x0:0x408383690d889dab,
hardware store,Butik,Barangbaru Butik Online,"JL. Daan Mogot, Km. 19, 5 C1/17, Simprug, Cipondoh, RT.003/RW.002, Kb. Besar, Kec. Tangerang, Kota Tangerang, Banten 15122","Km. 19, 5 C1/17, Simprug, Cipondoh, RT.003/RW.002, Kb. Besar, Kec. Tangerang, Kota Tangerang",NUSA TENGGARA TIMUR,15122.0,Indonesia,2170011801,,,-61.611.522,1.066.817.284,https://maps.google.com/?cid=0x0:0x259a94f256898042,
hardware store,hardware store,Nusa Tenggara Tim.,,Nusa Tenggara Tim.,NUSA TENGGARA TIMUR,,Indonesia,,,,-86.573.819,1.210.793.705,https://maps.google.com/?cid=0x0:0x1030bfbcaf71ae0,
hardware store,Sekolah,SDK Poka,"9GR3+78X, Longko, Kec. Wae Rii, Kabupaten Manggarai, Nusa Tenggara Tim.","Kabupaten Manggarai, Nusa Tenggara Tim.",NUSA TENGGARA TIMUR,,Indonesia,,,,-86.092.613,1.205.033.469,https://maps.google.com/?cid=0x0:0x534ae58205680bac,
hardware store,hardware store,TOKO KITA,"9JH9+PXQ, Jln. Jati - Lehong, Rende Nao, Kec. Poco Ranaka Timur, Kabupaten Manggarai Timur, Nusa Tenggara Tim.","Kabupaten Manggarai Timur, Nusa Tenggara Tim.",NUSA TENGGARA TIMUR,,Indonesia,82119069980,,,-86.206.712,1.206.199.895,https://maps.google.com/?cid=0x0:0xed07071d9195c292,
hardware store,hardware store,CV. MAKMUR INTIPERKASA,"Langgo, Waengkeling, Jalur Trans Ruteng - Borong, Nusa Tenggara Tim. 86519","Waengkeling, Jalur Trans Ruteng - Borong",NUSA TENGGARA TIMUR,86519.0,Indonesia,,,,-86.122.026,1.204.797.443,https://maps.google.com/?cid=0x0:0xb90f811344e6ef92,
hardware store,Grosir keramik,Toko Bangunan Sumber Berlian,"9FR7+R98, Pitak, Kec. Langke Rembong, Kabupaten Manggarai, Nusa Tenggara Tim.","Kabupaten Manggarai, Nusa Tenggara Tim.",NUSA TENGGARA TIMUR,,Indonesia,38521109,,,-86.079.539,1.204.634.541,https://maps.google.com/?cid=0x0:0x6998fb86419a6f08,
hardware store,Toko Perlengkapan Rumah,MR.DIY,"Jl. Kartini, RT.012/RW.005, Lawir, Kec. Langke Rembong, Kabupaten Manggarai, Nusa Tenggara Tim. 86516","RT.012/RW.005, Lawir, Kec. Langke Rembong, Kabupaten Manggarai",NUSA TENGGARA TIMUR,86516.0,Indonesia,,,,-86.128.761,1.204.626.839,https://maps.google.com/?cid=0x0:0x83d52c1c7290993f,
hardware store,Toko Roti,Toko 5 Jaya,"9FR7+8JM, Pitak, Kec. Langke Rembong, Kabupaten Manggarai, Nusa Tenggara Tim.","Kabupaten Manggarai, Nusa Tenggara Tim.",NUSA TENGGARA TIMUR,,Indonesia,,,,-86.091.704,120.464.039,https://maps.google.com/?cid=0x0:0x9535d5d244ad76f5,
hardware store,,MK Baja Langgo Langkas,"9FRM+P7P, Langgo, Kec. Langke Rembong, Kabupaten Manggarai, Nusa Tenggara Tim.","Kabupaten Manggarai, Nusa Tenggara Tim.",NUSA TENGGARA TIMUR,,Indonesia,,,,-86.081.597,1.204.831.965,https://maps.google.com/?cid=0x0:0x9913af2b57394b19,
hardware store,Pembangunan Perumahan,Pasar Mano,"9GWQ+5R6, Mando Sawu, Kec. Poco Ranaka, Kabupaten Manggarai Timur, Nusa Tenggara Tim.","Kabupaten Manggarai Timur, Nusa Tenggara Tim.",NUSA TENGGARA TIMUR,,Indonesia,,,,-86.045.847,120.539.516,https://maps.google.com/?cid=0x0:0x9cff203155470509,
hardware store,Toko Bahan Bangunan,KIKI MART,"CC6Q+59F, Wali, Kec. Langke Rembong, Kabupaten Manggarai, Nusa Tenggara Tim.","Kabupaten Manggarai, Nusa Tenggara Tim.",NUSA TENGGARA TIMUR,,Indonesia,,,,-85.895.572,1.204.384.358,https://maps.google.com/?cid=0x0:0x7384fcfe34643927,
hardware store,Toko Bahan Bangunan,Surya Agung Toko,"JL. Bagung, No. 10, Mbaumuku, Langke Rembong, 86511, Pitak, Kec. Ruteng, Kabupaten Manggarai, Nusa Tenggara Tim.","Mbaumuku, Langke Rembong,",NUSA TENGGARA TIMUR,86511.0,Indonesia,38521141,,,-86.133.685,1.204.631.191,https://maps.google.com/?cid=0x0:0xfb054b1dbb8098a9,
hardware store,Perhimpunan Pengembang Perumahan,Wejang Raci,"Mando Sawu, Kec. Poco Ranaka, Kabupaten Manggarai Timur, Nusa Tenggara Tim.","Kabupaten Manggarai Timur, Nusa Tenggara Tim.",NUSA TENGGARA TIMUR,,Indonesia,,,,-86.048.842,1.205.429.417,https://maps.google.com/?cid=0x0:0x408c3c3178441e5e,
hardware store,Tujuan Wisata,Poka desa longko,"9GQ6+W9, Ranaka, Kec. Wae Rii, Kabupaten Manggarai, Nusa Tenggara Tim.","Kabupaten Manggarai, Nusa Tenggara Tim.",NUSA TENGGARA TIMUR,,Indonesia,87750547537,,,-86.101.875,1.205.109.375,https://maps.google.com/?cid=0x0:0x581fe6159acf5d6d,
hardware store,Sekolah Menengah Pertama,SMP Negeri 6 Poco Ranaka,"CG4R+J3P, Mando Sawu, Kec. Poco Ranaka, Kabupaten Manggarai Timur, Nusa Tenggara Tim.","Kabupaten Manggarai Timur, Nusa Tenggara Tim.",NUSA TENGGARA TIMUR,,Indonesia,,,,-8.593.409,1.205.402.035,https://maps.google.com/?cid=0x0:0x6638e3b323268307,
hardware store,Toko umum,Toko Sentosa Jaya,"9FW8+5J7, Jl. Wae Ces, Karot, Kec. Langke Rembong, Kabupaten Manggarai, Nusa Tenggara Tim. 86512","Jl. Wae Ces, Karot, Kec. Langke Rembong, Kabupaten Manggarai",NUSA TENGGARA TIMUR,86512.0,Indonesia,,,,-86.045.975,1.204.665.576,https://maps.google.com/?cid=0x0:0xb6d1e9476eda3e5,
hardware store,Toko Bahan Bangunan,Kelimutu Toko,"9FR7+7M8, Jl. Kathedral, Mbaumuku, Kec. Langke Rembong, Kabupaten Manggarai, Nusa Tenggara Tim. 86312","Jl. Kathedral, Mbaumuku, Kec. Langke Rembong, Kabupaten Manggarai",NUSA TENGGARA TIMUR,86312.0,Indonesia,38521051,,,-86.093.282,1.204.641.971,https://maps.google.com/?cid=0x0:0xeb806c482e8ce083,
hardware store,Toko Perlengkapan Rumah,Toko Bangunan Varli,"9FX3+5WJ, Jl. Hatta, Lawir, Kec. Langke Rembong, Kabupaten Manggarai, Nusa Tenggara Tim.","Kabupaten Manggarai, Nusa Tenggara Tim.",NUSA TENGGARA TIMUR,,Indonesia,85379011870,,,-86.020.285,1.204.547.513,https://maps.google.com/?cid=0x0:0x93eab3c967e6bea0,
hardware store,Toko umum,Pasar Inpres Terpadu Mukun,"8MVQ+G9G, Golomeni, Kec. Kota Komba, Kabupaten Manggarai Timur, Nusa Tenggara Tim.","Kabupaten Manggarai Timur, Nusa Tenggara Tim.",NUSA TENGGARA TIMUR,,Indonesia,,,,-86.561.929,1.206.884.539,https://maps.google.com/?cid=0x0:0x8e5cf152296a83,
hardware store,Toko Bahan Bangunan,Toko Bahan Bangunan 555 Ruteng Manggarai,"9FV8+G6G NO WA OI54O54249, Jl. Montang Rua, Mbaumuku, Kec. Langke Rembong, Kabupaten Manggarai, Nusa Tenggara Tim.","Kabupaten Manggarai, Nusa Tenggara Tim.",NUSA TENGGARA TIMUR,,Indonesia,81246320180,,,-86.061.849,1.204.655.793,https://maps.google.com/?cid=0x0:0x5c54fb7afbefc99c,
hardware store,Toko,Baba Howi,"9FR9+8MQ, Mbaumuku, Kec. Langke Rembong, Kabupaten Manggarai, Nusa Tenggara Tim.","Kabupaten Manggarai, Nusa Tenggara Tim.",NUSA TENGGARA TIMUR,,Indonesia,,,,-86.091.565,1.204.692.282,https://maps.google.com/?cid=0x0:0xe1b2dca8f860c76d,
hardware store,Toko Fotokopi,Kontas Stasionery,"9FM9+PRQ, Jl. Diponegoro, Tenda, Kec. Langke Rembong, Kabupaten Manggarai, Nusa Tenggara Tim.","Kabupaten Manggarai, Nusa Tenggara Tim.",NUSA TENGGARA TIMUR,,Indonesia,,,,-86.156.591,1.204.696.063,https://maps.google.com/?cid=0x0:0xf102ca441a446077,
hardware store,Toko Perbaikan Ponsel,BINTANG CELLULAR,"9FQF+VGR, Jl. Ruteng - Benteng Jawa, Tenda, Kec. Langke Rembong, Kabupaten Manggarai, Nusa Tenggara Tim.","Kabupaten Manggarai, Nusa Tenggara Tim.",NUSA TENGGARA TIMUR,,Indonesia,,,,-86.102.629,1.204.737.618,https://maps.google.com/?cid=0x0:0x82f06d4fd48f47a1,
hardware store,Toko bahan makanan,FOTOCOPYKU,"Jl. Satar Tacik No.108, Tenda, Kec. Langke Rembong, Kabupaten Manggarai, Nusa Tenggara Tim.","Kabupaten Manggarai, Nusa Tenggara Tim.",NUSA TENGGARA TIMUR,,Indonesia,8382830500,,,-86.061.667,1.204.763.934,https://maps.google.com/?cid=0x0:0xa3f8ec0a7398b8eb,
hardware store,Toko Perlengkapan Rumah,Toko kasih sayang Mukun 01,"8MRQ+9XQ, Golomeni, Mukun, Kabupaten Manggarai Timur, Nusa Tenggara Tim.","Kabupaten Manggarai Timur, Nusa Tenggara Tim.",NUSA TENGGARA TIMUR,,Indonesia,81246114289,,,-86.590.483,1.206.899.848,https://maps.google.com/?cid=0x0:0x35190db7a895efca,
hardware store,Toko Bahan Bangunan,PT Niaga Sejahtera Bangunan (Distributor Semen Tonasa),"Mbaumuku, Kec. Langke Rembong, Kabupaten Manggarai, Nusa Tenggara Tim. 86511","Kec. Langke Rembong, Kabupaten Manggarai",NUSA TENGGARA TIMUR,86511.0,Indonesia,81234245778,,,-86.072.327,1.204.673.333,https://maps.google.com/?cid=0x0:0x4c32ec2dc6817b64,
hardware store,hardware store,TOKO MAKMUR MULIA,"Jalan Ruteng - Benteng Jawa (Arah menuju kota Borong, Carep, Kec. Langke Rembong, Kabupaten Manggarai, Nusa Tenggara Tim. 86519","Carep, Kec. Langke Rembong, Kabupaten Manggarai",NUSA TENGGARA TIMUR,86519.0,Indonesia,,,,-86.170.679,1.204.887.852,https://maps.google.com/?cid=0x0:0xb87619cff8b0af08,
hardware store,hardware store,Kec. Lamba Leda,"Kabupaten Manggarai Timur, Nusa Tenggara Tim.","Kabupaten Manggarai Timur, Nusa Tenggara Tim.",NUSA TENGGARA TIMUR,,Indonesia,,,,-8.303.018,1.205.841.504,https://maps.google.com/?cid=0x0:0x250909596892d132,
hardware store,Tujuan Wisata,Dampek,"MHWM+QMR, Satar Padut, Kec. Lamba Leda, Kabupaten Manggarai Timur, Nusa Tenggara Tim.","Kabupaten Manggarai Timur, Nusa Tenggara Tim.",NUSA TENGGARA TIMUR,,Indonesia,,,,-8.303.018,1.205.841.504,https://maps.google.com/?cid=0x0:0xa6762c0b8690e271,
hardware store,Toko Perlengkapan Rumah,Toko Mas Rochis besi korden dan prabotan reo,"Pasar impres, Reo, Kec. Reok, Kabupaten Manggarai, Nusa Tenggara Tim.","Kabupaten Manggarai, Nusa Tenggara Tim.",NUSA TENGGARA TIMUR,,Indonesia,81238172744,,,-83.102.234,1.204.921.712,https://maps.google.com/?cid=0x0:0x43f31a627ea9a76b,
hardware store,hardware store,Toko Baba Leda,"MFQR+VFV, Reo, Kec. Reok, Kabupaten Manggarai, Nusa Tenggara Tim.","Kabupaten Manggarai, Nusa Tenggara Tim.",NUSA TENGGARA TIMUR,,Indonesia,,,,-83.102.627,1.204.911.807,https://maps.google.com/?cid=0x0:0xa6c7a8a02e694402,
hardware store,hardware store,Kec. Sambi Rampas,"Kabupaten Manggarai Timur, Nusa Tenggara Tim.","Kabupaten Manggarai Timur, Nusa Tenggara Tim.",NUSA TENGGARA TIMUR,,Indonesia,,,,-8.347.378,1.207.548.886,https://maps.google.com/?cid=0x0:0xf9c936bcfd9766a6,
hardware store,Toko,Telage,"JPWH+3M9, Pota, Kec. Sambi Rampas, Kabupaten Manggarai Timur, Nusa Tenggara Tim.","Kabupaten Manggarai Timur, Nusa Tenggara Tim.",NUSA TENGGARA TIMUR,,Indonesia,82218126638,,,-83.548.304,1.207.292.472,https://maps.google.com/?cid=0x0:0x4bb18d8da15fb4d8,
hardware store,Sekolah menengah,SMKN 1 Sambi Rampas,"Golo Wangkung, Kec. Sambi Rampas, Kabupaten Manggarai Timur, Nusa Tenggara Tim.","Kabupaten Manggarai Timur, Nusa Tenggara Tim.",NUSA TENGGARA TIMUR,,Indonesia,81246462852,,,-8.498.389,1.206.651.762,https://maps.google.com/?cid=0x0:0xca341558e89cdbed,
hardware store,Sekolah Menengah Pertama,MAN MANGGARAI TIMUR,"Pota, Kec. Sambi Rampas, Kabupaten Manggarai Timur, Nusa Tenggara Tim.","Kabupaten Manggarai Timur, Nusa Tenggara Tim.",NUSA TENGGARA TIMUR,,Indonesia,85237334889,,,-83.476.887,1.207.523.753,https://maps.google.com/?cid=0x0:0x688f80fcdb91bb8b,
hardware store,Toko Bahan Bangunan,JP HARDWARE AND Construction Supply,"1022 V. Buot St, Danao, Cebu, Filipina","Danao, Cebu, Filipina",NUSA TENGGARA TIMUR,,Indonesia,"6,3976E+11",,,105.257.943,1.240.271.856,https://maps.google.com/?cid=0x0:0x5e653ef6098352b6,
hardware store,Toko Bahan Bangunan,jl-WEB Hardware  Construction Supplies,"P.G. Almendras St, Danao, 6004 Cebu, Filipina","Danao, Cebu, Filipina",NUSA TENGGARA TIMUR,,Indonesia,63322524168,,,105.194.992,1.240.228.453,https://maps.google.com/?cid=0x0:0xef8546389a70af01,
hardware store,hardware store,Kec. Elar,"Kabupaten Manggarai Timur, Nusa Tenggara Tim.","Kabupaten Manggarai Timur, Nusa Tenggara Tim.",NUSA TENGGARA TIMUR,,Indonesia,,,,-84.244.952,1.208.728.615,https://maps.google.com/?cid=0x0:0xa3e720c639fa11c4,
hardware store,Toko Komputer,Egha Store (Gudang  Toko Online Aksesoris Komputer),"Jl. Benda Raya Jl. Benda Timur VII C No.36 Blok E 64, Benda Baru, Pamulang, South Tangerang City, Banten 15433","Benda Baru, Pamulang, South Tangerang City",NUSA TENGGARA TIMUR,15433.0,Indonesia,89508888905,,,-63.321.436,1.067.103.311,https://maps.google.com/?cid=0x0:0x6dcc5cbf988b1cf7,
hardware store,Toko Komputer,Komputer gaplek,"Jl. Dr. Setiabudi No.3, Pamulang Tim., Kec. Pamulang, Kota Tangerang Selatan, Banten 15417","Pamulang Tim., Kec. Pamulang, Kota Tangerang Selatan",NUSA TENGGARA TIMUR,15417.0,Indonesia,8129976273,,,-63.473.944,1.067.487.173,https://maps.google.com/?cid=0x0:0x4e8cf8e228e5dbc7,
hardware store,hardware store,Kec. Kota Komba,"Kabupaten Manggarai Timur, Nusa Tenggara Tim.","Kabupaten Manggarai Timur, Nusa Tenggara Tim.",NUSA TENGGARA TIMUR,,Indonesia,,,,-88.273.426,1.208.051.136,https://maps.google.com/?cid=0x0:0xb5521e292aca4357,
hardware store,Toko Bahan Bangunan,Bahan Bangunan,"Lekeng, Kec. Kota Komba, Kabupaten Manggarai Timur, Nusa Tenggara Tim.","Kabupaten Manggarai Timur, Nusa Tenggara Tim.",NUSA TENGGARA TIMUR,,Indonesia,81237416770,,,-88.063.557,1.206.785.556,https://maps.google.com/?cid=0x0:0xb70d92af16880084,
hardware store,Toko Bahan Bangunan,Toko Sahabat Bangunan Borong,"Jalan satar peot, Rana Loba, Kec. Borong, Kabupaten Manggarai Timur, Nusa Tenggara Tim. 86571","Rana Loba, Kec. Borong, Kabupaten Manggarai Timur",NUSA TENGGARA TIMUR,86571.0,Indonesia,81282720033,,,-87.653.753,1.206.219.319,https://maps.google.com/?cid=0x0:0xebefc5906b586f01,
hardware store,Toko Bahan Bangunan,Toko Kasih Sayang Borong Manggarai,"Rana Loba, Kec. Borong, Kabupaten Manggarai Timur, Nusa Tenggara Tim.","Kabupaten Manggarai Timur, Nusa Tenggara Tim.",NUSA TENGGARA TIMUR,,Indonesia,81246783263,,,-88.142.221,1.206.072.007,https://maps.google.com/?cid=0x0:0x57e15b4e087e0832,
hardware store,Toko Bahan Bangunan,Toko Pancaran Bangunan,"5JR4+8JW, Rana Loba, Kec. Borong, Kabupaten Manggarai Timur, Nusa Tenggara Tim.","Kabupaten Manggarai Timur, Nusa Tenggara Tim.",NUSA TENGGARA TIMUR,,Indonesia,81238625622,,,-88.091.403,1.206.065.789,https://maps.google.com/?cid=0x0:0x248dd937a6dc415f,
hardware store,Toko Perlengkapan Rumah,Toko kasih sayang Mukun 01,"8MRQ+9XQ, Golomeni, Mukun, Kabupaten Manggarai Timur, Nusa Tenggara Tim.","Kabupaten Manggarai Timur, Nusa Tenggara Tim.",NUSA TENGGARA TIMUR,,Indonesia,81246114289,,,-86.590.483,1.206.899.848,https://maps.google.com/?cid=0x0:0x35190db7a895efca,
hardware store,hardware store,Kec. Poco Ranaka Timur,"Kabupaten Manggarai Timur, Nusa Tenggara Tim.","Kabupaten Manggarai Timur, Nusa Tenggara Tim.",NUSA TENGGARA TIMUR,,Indonesia,,,,-85.543.382,120.618.277,https://maps.google.com/?cid=0x0:0x1564295fdcda3229,
hardware store,Grosir keramik,Toko Bangunan Sumber Berlian,"9FR7+R98, Pitak, Kec. Langke Rembong, Kabupaten Manggarai, Nusa Tenggara Tim.","Kabupaten Manggarai, Nusa Tenggara Tim.",NUSA TENGGARA TIMUR,,Indonesia,38521109,,,-86.079.539,1.204.634.541,https://maps.google.com/?cid=0x0:0x6998fb86419a6f08,
hardware store,Toko Roti,Toko 5 Jaya,"9FR7+8JM, Pitak, Kec. Langke Rembong, Kabupaten Manggarai, Nusa Tenggara Tim.","Kabupaten Manggarai, Nusa Tenggara Tim.",NUSA TENGGARA TIMUR,,Indonesia,,,,-86.091.704,120.464.039,https://maps.google.com/?cid=0x0:0x9535d5d244ad76f5,
hardware store,Toko Perlengkapan Rumah,MR.DIY,"Jl. Kartini, RT.012/RW.005, Lawir, Kec. Langke Rembong, Kabupaten Manggarai, Nusa Tenggara Tim. 86516","RT.012/RW.005, Lawir, Kec. Langke Rembong, Kabupaten Manggarai",NUSA TENGGARA TIMUR,86516.0,Indonesia,,,,-86.128.761,1.204.626.839,https://maps.google.com/?cid=0x0:0x83d52c1c7290993f,
hardware store,hardware store,CV. MAKMUR INTIPERKASA,"Langgo, Waengkeling, Jalur Trans Ruteng - Borong, Nusa Tenggara Tim. 86519","Waengkeling, Jalur Trans Ruteng - Borong",NUSA TENGGARA TIMUR,86519.0,Indonesia,,,,-86.122.026,1.204.797.443,https://maps.google.com/?cid=0x0:0xb90f811344e6ef92,
hardware store,Balai masyarakat,KANTOR DESA ULU WAE,"CJ3M+HH8, Unnamed Road, Ulu Wae, East Poco Ranaka, East Manggarai Regency, East Nusa Tenggara","Kabupaten Manggarai Timur, Nusa Tenggara Tim.",NUSA TENGGARA TIMUR,,Indonesia,82145822551,,,-85.960.977,1.206.339.481,https://maps.google.com/?cid=0x0:0xf1edc0a5fdbe8e14,
hardware store,Toko Bahan Bangunan,Surya Agung Toko,"JL. Bagung, No. 10, Mbaumuku, Langke Rembong, 86511, Pitak, Kec. Ruteng, Kabupaten Manggarai, Nusa Tenggara Tim.","Mbaumuku, Langke Rembong,",NUSA TENGGARA TIMUR,86511.0,Indonesia,38521141,,,-86.133.685,1.204.631.191,https://maps.google.com/?cid=0x0:0xfb054b1dbb8098a9,
hardware store,Toko umum,Pasar Inpres Terpadu Mukun,"8MVQ+G9G, Golomeni, Kec. Kota Komba, Kabupaten Manggarai Timur, Nusa Tenggara Tim.","Kabupaten Manggarai Timur, Nusa Tenggara Tim.",NUSA TENGGARA TIMUR,,Indonesia,,,,-86.561.929,1.206.884.539,https://maps.google.com/?cid=0x0:0x8e5cf152296a83,
hardware store,Sekolah Dasar,SD Inpres Mawe,"CHJW+G6W, Jl. Mawe Poco Ranaka, Arus, Kec. Poco Ranaka, Kabupaten Manggarai Timur, Nusa Tenggara Tim.","Kabupaten Manggarai Timur, Nusa Tenggara Tim.",NUSA TENGGARA TIMUR,,Indonesia,,,,-85.686.284,1.205.955.636,https://maps.google.com/?cid=0x0:0x115dcd864a173c3f,
hardware store,Toko Perlengkapan Rumah,Toko Bangunan Varli,"9FX3+5WJ, Jl. Hatta, Lawir, Kec. Langke Rembong, Kabupaten Manggarai, Nusa Tenggara Tim.","Kabupaten Manggarai, Nusa Tenggara Tim.",NUSA TENGGARA TIMUR,,Indonesia,85379011870,,,-86.020.285,1.204.547.513,https://maps.google.com/?cid=0x0:0x93eab3c967e6bea0,
hardware store,Toko Bahan Bangunan,Kelimutu Toko,"9FR7+7M8, Jl. Kathedral, Mbaumuku, Kec. Langke Rembong, Kabupaten Manggarai, Nusa Tenggara Tim. 86312","Jl. Kathedral, Mbaumuku, Kec. Langke Rembong, Kabupaten Manggarai",NUSA TENGGARA TIMUR,86312.0,Indonesia,38521051,,,-86.093.282,1.204.641.971,https://maps.google.com/?cid=0x0:0xeb806c482e8ce083,
hardware store,,MK Baja Langgo Langkas,"9FRM+P7P, Langgo, Kec. Langke Rembong, Kabupaten Manggarai, Nusa Tenggara Tim.","Kabupaten Manggarai, Nusa Tenggara Tim.",NUSA TENGGARA TIMUR,,Indonesia,,,,-86.081.597,1.204.831.965,https://maps.google.com/?cid=0x0:0x9913af2b57394b19,
hardware store,Toko Bahan Bangunan,Toko Bahan Bangunan 555 Ruteng Manggarai,"9FV8+G6G NO WA OI54O54249, Jl. Montang Rua, Mbaumuku, Kec. Langke Rembong, Kabupaten Manggarai, Nusa Tenggara Tim.","Kabupaten Manggarai, Nusa Tenggara Tim.",NUSA TENGGARA TIMUR,,Indonesia,81246320180,,,-86.061.849,1.204.655.793,https://maps.google.com/?cid=0x0:0x5c54fb7afbefc99c,
hardware store,Toko umum,Toko Sentosa Jaya,"9FW8+5J7, Jl. Wae Ces, Karot, Kec. Langke Rembong, Kabupaten Manggarai, Nusa Tenggara Tim. 86512","Jl. Wae Ces, Karot, Kec. Langke Rembong, Kabupaten Manggarai",NUSA TENGGARA TIMUR,86512.0,Indonesia,,,,-86.045.975,1.204.665.576,https://maps.google.com/?cid=0x0:0xb6d1e9476eda3e5,
hardware store,Toko Perlengkapan Rumah,Toko kasih sayang Mukun 01,"8MRQ+9XQ, Golomeni, Mukun, Kabupaten Manggarai Timur, Nusa Tenggara Tim.","Kabupaten Manggarai Timur, Nusa Tenggara Tim.",NUSA TENGGARA TIMUR,,Indonesia,81246114289,,,-86.590.483,1.206.899.848,https://maps.google.com/?cid=0x0:0x35190db7a895efca,
hardware store,Perhimpunan Pengembang Perumahan,Wejang Raci,"Mando Sawu, Kec. Poco Ranaka, Kabupaten Manggarai Timur, Nusa Tenggara Tim.","Kabupaten Manggarai Timur, Nusa Tenggara Tim.",NUSA TENGGARA TIMUR,,Indonesia,,,,-86.048.842,1.205.429.417,https://maps.google.com/?cid=0x0:0x408c3c3178441e5e,
hardware store,Sekolah Dasar,SD INPRES WAE BUKA,"FG5M+CW5, Unnamed Road, Desa Golo Rengket, Bea Waek, Kec. Poco Ranaka, Kabupaten Manggarai Timur, Nusa Tenggara Tim.","Kabupaten Manggarai Timur, Nusa Tenggara Tim.",NUSA TENGGARA TIMUR,,Indonesia,,,,-85.414.903,1.205.348.535,https://maps.google.com/?cid=0x0:0x238b7f46af62a440,
hardware store,Rumah Kayu,SDK COLOL 1,"CJ3J+XW6, Unnamed Road, Ulu Wae, Poco Ranaka, East Manggarai Regency, East Nusa Tenggara","Kabupaten Manggarai Timur, Nusa Tenggara Tim.",NUSA TENGGARA TIMUR,,Indonesia,82144009160,,,-85.950.978,1.206.322.804,https://maps.google.com/?cid=0x0:0x63f4db4e9896ccad,
hardware store,Toserba,Tk Maya Gita,"FFRV+562, Pagal, Kec. Cibal, Kabupaten Manggarai, Nusa Tenggara Tim.","Kabupaten Manggarai, Nusa Tenggara Tim.",NUSA TENGGARA TIMUR,,Indonesia,,,,-85.096.133,1.204.930.026,https://maps.google.com/?cid=0x0:0x189a8eb93521ea8d,
hardware store,Rumah Kayu,Pelataran Agrowisata Lembah Colol,"CJ7F+49R, Rende Nao, Kec. Poco Ranaka, Kabupaten Manggarai Timur, Nusa Tenggara Tim.","Kabupaten Manggarai Timur, Nusa Tenggara Tim.",NUSA TENGGARA TIMUR,,Indonesia,,,,-85.871.306,1.206.233.952,https://maps.google.com/?cid=0x0:0x1ba7e1d2b1aefd19,
hardware store,Pembangunan Perumahan,Wuas,"CJHM+3H, Rende Nao, Kec. Poco Ranaka Timur, Kabupaten Manggarai Timur, Nusa Tenggara Tim.","Kabupaten Manggarai Timur, Nusa Tenggara Tim.",NUSA TENGGARA TIMUR,,Indonesia,,,,-85.723.056,1.206.339.177,https://maps.google.com/?cid=0x0:0xd7af80a243a0560b,
hardware store,Sekolah,SDK Colol 2,"CJGH+Q7, Rende Nao, Kec. Poco Ranaka Timur, Kabupaten Manggarai Timur, Nusa Tenggara Tim.","Kabupaten Manggarai Timur, Nusa Tenggara Tim.",NUSA TENGGARA TIMUR,,Indonesia,,,,-85.729.815,1.206.289.244,https://maps.google.com/?cid=0x0:0x5063baca17781660,
hardware store,Pembangunan Perumahan,Pasar Mano,"9GWQ+5R6, Mando Sawu, Kec. Poco Ranaka, Kabupaten Manggarai Timur, Nusa Tenggara Tim.","Kabupaten Manggarai Timur, Nusa Tenggara Tim.",NUSA TENGGARA TIMUR,,Indonesia,,,,-86.045.847,120.539.516,https://maps.google.com/?cid=0x0:0x9cff203155470509,
hardware store,Sekolah pendidikan umum,SDI Nggari,"Lamba, Golo Nderu, Kec. Poco Ranaka, Kabupaten Manggarai Timur, Nusa Tenggara Tim.","Kabupaten Manggarai Timur, Nusa Tenggara Tim.",NUSA TENGGARA TIMUR,,Indonesia,,,,-85.877.812,1.205.775.784,https://maps.google.com/?cid=0x0:0xfce9f55fc29b547a,
hardware store,Toko Perlengkapan Rumah,KEMBANG INDAH office  stationery,"9FP6+2MX, Jl. Monginsidi, Pau, Langke Rembong, Manggarai Regency, East Nusa Tenggara","Kabupaten Manggarai, Nusa Tenggara Tim.",NUSA TENGGARA TIMUR,,Indonesia,,,,-86.148.945,1.204.617.391,https://maps.google.com/?cid=0x0:0xaac692c8bcdbf499,
hardware store,Toko Bahan Bangunan,Ud. Mulia Terang,"Lawir, Kec. Langke Rembong, Kabupaten Manggarai, Nusa Tenggara Tim.","Kabupaten Manggarai, Nusa Tenggara Tim.",NUSA TENGGARA TIMUR,,Indonesia,,,,-8.611.212,1.204.628.095,https://maps.google.com/?cid=0x0:0xaa58c4e920cd46f6,
hardware store,Toko Bahan Bangunan,Toko Bangunan Puspa Sari,"Jl. Motang Rua Blk. B Ruko Pemda No.1, Mbaumuku, Kec. Langke Rembong, Kabupaten Manggarai, Nusa Tenggara Tim.","Kabupaten Manggarai, Nusa Tenggara Tim.",NUSA TENGGARA TIMUR,,Indonesia,,,,-86.088.556,1.204.644.438,https://maps.google.com/?cid=0x0:0x731883d81fbe852e,
hardware store,Toko Fotokopi,Kontas Stasionery,"9FM9+PRQ, Jl. Diponegoro, Tenda, Kec. Langke Rembong, Kabupaten Manggarai, Nusa Tenggara Tim.","Kabupaten Manggarai, Nusa Tenggara Tim.",NUSA TENGGARA TIMUR,,Indonesia,,,,-86.156.591,1.204.696.063,https://maps.google.com/?cid=0x0:0xf102ca441a446077,
hardware store,Toko Bahan Bangunan,PT Niaga Sejahtera Bangunan (Distributor Semen Tonasa),"Mbaumuku, Kec. Langke Rembong, Kabupaten Manggarai, Nusa Tenggara Tim. 86511","Kec. Langke Rembong, Kabupaten Manggarai",NUSA TENGGARA TIMUR,86511.0,Indonesia,81234245778,,,-86.072.327,1.204.673.333,https://maps.google.com/?cid=0x0:0x4c32ec2dc6817b64,
hardware store,hardware store,Kec. Elar Selatan,"Kabupaten Manggarai Timur, Nusa Tenggara Tim.","Kabupaten Manggarai Timur, Nusa Tenggara Tim.",NUSA TENGGARA TIMUR,,Indonesia,,,,-86.439.057,1.207.613.321,https://maps.google.com/?cid=0x0:0x29c346791b550200,
hardware store,Toko umum,Pasar Inpres Terpadu Mukun,"8MVQ+G9G, Golomeni, Kec. Kota Komba, Kabupaten Manggarai Timur, Nusa Tenggara Tim.","Kabupaten Manggarai Timur, Nusa Tenggara Tim.",NUSA TENGGARA TIMUR,,Indonesia,,,,-86.561.929,1.206.884.539,https://maps.google.com/?cid=0x0:0x8e5cf152296a83,
hardware store,Toko Swalayan,Kios chayra pasar impress terpadu mukun,"8MVQ+MHP Pasar impress terpadu mukun, Golomeni, Kec. Kota Komba, Kabupaten Manggarai Timur, Nusa Tenggara Tim.","Kabupaten Manggarai Timur, Nusa Tenggara Tim.",NUSA TENGGARA TIMUR,,Indonesia,,,,-86.557.865,1.206.889.634,https://maps.google.com/?cid=0x0:0x587fd7b6b6e6d2e1,
toko bangunan,toko bangunan,Kec. Borong,"Kabupaten Manggarai Timur, Nusa Tenggara Tim.","Kabupaten Manggarai Timur, Nusa Tenggara Tim.",NUSA TENGGARA TIMUR,,Indonesia,,,,-88.148.406,1.206.082.067,https://maps.google.com/?cid=0x0:0x2a97d54812a8d6a5,
toko bangunan,Toko Bahan Bangunan,Toko Pancaran Bangunan,"5JR4+8JW, Rana Loba, Kec. Borong, Kabupaten Manggarai Timur, Nusa Tenggara Tim.","Kabupaten Manggarai Timur, Nusa Tenggara Tim.",NUSA TENGGARA TIMUR,,Indonesia,81238625622,,,-88.091.403,1.206.065.789,https://maps.google.com/?cid=0x0:0x248dd937a6dc415f,
toko bangunan,Toko Bahan Bangunan,Toko Sahabat Bangunan Borong,"Jalan satar peot, Rana Loba, Kec. Borong, Kabupaten Manggarai Timur, Nusa Tenggara Tim. 86571","Rana Loba, Kec. Borong, Kabupaten Manggarai Timur",NUSA TENGGARA TIMUR,86571.0,Indonesia,81282720033,,,-87.653.753,1.206.219.319,https://maps.google.com/?cid=0x0:0xebefc5906b586f01,
toko bangunan,Toko Bahan Bangunan,Toko Kasih Sayang Borong Manggarai,"Rana Loba, Kec. Borong, Kabupaten Manggarai Timur, Nusa Tenggara Tim.","Kabupaten Manggarai Timur, Nusa Tenggara Tim.",NUSA TENGGARA TIMUR,,Indonesia,81246783263,,,-88.142.221,1.206.072.007,https://maps.google.com/?cid=0x0:0x57e15b4e087e0832,
toko bangunan,Grosir keramik,Toko Bangunan Sumber Berlian,"9FR7+R98, Pitak, Kec. Langke Rembong, Kabupaten Manggarai, Nusa Tenggara Tim.","Kabupaten Manggarai, Nusa Tenggara Tim.",NUSA TENGGARA TIMUR,,Indonesia,38521109,,,-86.079.539,1.204.634.541,https://maps.google.com/?cid=0x0:0x6998fb86419a6f08,
toko bangunan,Toko Bahan Bangunan,Toko 88,"5JV5+JCX, Unnamed Road, Rana Loba, Kec. Borong, Kabupaten Manggarai Timur, Nusa Tenggara Tim.","Kabupaten Manggarai Timur, Nusa Tenggara Tim.",NUSA TENGGARA TIMUR,,Indonesia,81353298000,,,-8.805.878,120.608.597,https://maps.google.com/?cid=0x0:0x2866e33e440ad6cc,
toko bangunan,Toko Perlengkapan Rumah,Toko kasih sayang Mukun 01,"8MRQ+9XQ, Golomeni, Mukun, Kabupaten Manggarai Timur, Nusa Tenggara Tim.","Kabupaten Manggarai Timur, Nusa Tenggara Tim.",NUSA TENGGARA TIMUR,,Indonesia,81246114289,,,-86.590.483,1.206.899.848,https://maps.google.com/?cid=0x0:0x35190db7a895efca,
toko bangunan,Jasa Konstruksi dan Bangunan,"BATAKO PRESS,PAVING BLOCK DAN ROSTER,Borong Matim","Rana Loba, Tanah Bakok, Kabupaten Manggarai Timur, Nusa Tenggara Tim.","Kabupaten Manggarai Timur, Nusa Tenggara Tim.",NUSA TENGGARA TIMUR,,Indonesia,,,,-8.799.194,1.206.169.484,https://maps.google.com/?cid=0x0:0xa35d7141bd7f7dfa,
toko bangunan,Toko Bahan Bangunan,Toko INDOMAL 2 (Jual Bahan Bangunan),"FM6C+F5W, Satar Nawang, Kec. Sambi Rampas, Kabupaten Manggarai Timur, Nusa Tenggara Tim.","Kabupaten Manggarai Timur, Nusa Tenggara Tim.",NUSA TENGGARA TIMUR,,Indonesia,,,,-85.387.527,1.206.704.604,https://maps.google.com/?cid=0x0:0xcc280ceb90d1ef6,
toko bangunan,Pemasok kayu,kompleks kebun Jati jeradu family,"6HGW+R9P, Golo Kantar, Kec. Borong, Kabupaten Manggarai Timur, Nusa Tenggara Tim.","Kabupaten Manggarai Timur, Nusa Tenggara Tim.",NUSA TENGGARA TIMUR,,Indonesia,,,,-87.729.461,120.595.943,https://maps.google.com/?cid=0x0:0x7b90b5a13a00e191,
toko bangunan,Toko Bahan Bangunan,Bahan Bangunan,"Lekeng, Kec. Kota Komba, Kabupaten Manggarai Timur, Nusa Tenggara Tim.","Kabupaten Manggarai Timur, Nusa Tenggara Tim.",NUSA TENGGARA TIMUR,,Indonesia,81237416770,,,-88.063.557,1.206.785.556,https://maps.google.com/?cid=0x0:0xb70d92af16880084,
toko bangunan,Toko Bahan Bangunan,Toko Bangunan Putra Mahkota,"1, Jl. Pd. Ranggon Selatan No.81, RT.8/RW.1, Pd. Ranggon, Kec. Cipayung, Kota Jakarta Timur, Daerah Khusus Ibukota Jakarta 13860","Jl. Pd. Ranggon Selatan No.81, RT.8/RW.1, Pd. Ranggon, Kec. Cipayung, Kota Jakarta Timur",NUSA TENGGARA TIMUR,13860.0,Indonesia,82188889282,,,-63.488.217,1.069.131.318,https://maps.google.com/?cid=0x0:0xd638eda47ecc824b,
toko bangunan,Toko Bahan Bangunan,Toko Bangunan Murah Jaya,"Jl. Pd. Klp. Sel., RT.2/RW.5, Pd. Klp., Kec. Duren Sawit, Kota Jakarta Timur, Daerah Khusus Ibukota Jakarta 13450","RT.2/RW.5, Pd. Klp., Kec. Duren Sawit, Kota Jakarta Timur",NUSA TENGGARA TIMUR,13450.0,Indonesia,,,,-62.499.379,1.069.356.436,https://maps.google.com/?cid=0x0:0xe607a7de874d787e,
toko bangunan,Toko Bahan Bangunan,Toko Material Maju Makmur,"Jl. Raya Ciracas No.4, RT.11/RW.7, Ciracas, Kec. Ciracas, Kota Jakarta Timur, Daerah Khusus Ibukota Jakarta 13740","RT.11/RW.7, Ciracas, Kec. Ciracas, Kota Jakarta Timur",NUSA TENGGARA TIMUR,13740.0,Indonesia,85691487952,,,-63.298.773,1.068.722.199,https://maps.google.com/?cid=0x0:0x58e95f56f4aeb45a,
toko bangunan,Toko Bahan Bangunan,Toko Subuh,"Jl. Cipinang Baru No.27, RT.9/RW.3, Cipinang, Kec. Pulo Gadung, Kota Jakarta Timur, Daerah Khusus Ibukota Jakarta 13240","RT.9/RW.3, Cipinang, Kec. Pulo Gadung, Kota Jakarta Timur",NUSA TENGGARA TIMUR,13240.0,Indonesia,214896871,,,-6.203.284,1.068.930.856,https://maps.google.com/?cid=0x0:0xb4aff6f0c2a07a32,
toko bangunan,Toko Bahan Bangunan,Toko Bahan Bangunan Fortuna,"Jalan Kelapa Nias Raya KR 1, Jl. Pegangsaan Dua No.2, RT.13/RW.3, Pegangsaan Dua, Kec. Klp. Gading, Jkt Utara, Daerah Khusus Ibukota Jakarta 14240","Jl. Pegangsaan Dua No.2, RT.13/RW.3, Pegangsaan Dua, Kec. Klp. Gading, Jkt Utara",NUSA TENGGARA TIMUR,14240.0,Indonesia,2145865761,,,-61.544.987,1.069.146.684,https://maps.google.com/?cid=0x0:0x3867c8960d42a835,
toko bangunan,toko bangunan,Nusa Tenggara Tim.,,Nusa Tenggara Tim.,NUSA TENGGARA TIMUR,,Indonesia,,,,-86.573.819,1.210.793.705,https://maps.google.com/?cid=0x0:0x1030bfbcaf71ae0,
toko bangunan,Toko Bahan Bangunan,Toko Pancaran Bangunan,"5JR4+8JW, Rana Loba, Kec. Borong, Kabupaten Manggarai Timur, Nusa Tenggara Tim.","Kabupaten Manggarai Timur, Nusa Tenggara Tim.",NUSA TENGGARA TIMUR,,Indonesia,81238625622,,,-88.091.403,1.206.065.789,https://maps.google.com/?cid=0x0:0x248dd937a6dc415f,
toko bangunan,Grosir keramik,Toko Bangunan Sumber Berlian,"9FR7+R98, Pitak, Kec. Langke Rembong, Kabupaten Manggarai, Nusa Tenggara Tim.","Kabupaten Manggarai, Nusa Tenggara Tim.",NUSA TENGGARA TIMUR,,Indonesia,38521109,,,-86.079.539,1.204.634.541,https://maps.google.com/?cid=0x0:0x6998fb86419a6f08,
toko bangunan,Toko Bahan Bangunan,toko pelangi bangunan,"FVQP+VXF, Goron Talo, Kec. Komodo, Kabupaten Manggarai Barat, Nusa Tenggara Tim.","Kabupaten Manggarai Barat, Nusa Tenggara Tim.",NUSA TENGGARA TIMUR,,Indonesia,82145627171,,,-85.103.078,1.198.874.183,https://maps.google.com/?cid=0x0:0x6f62dc0810d90ac8,
toko bangunan,Toko Bahan Bangunan,Toko Bangunan Indo Jaya,"FVWQ+2FW, Unnamed Road, Goron Talo, Kec. Komodo, Kabupaten Manggarai Barat, Nusa Tenggara Tim.","Kabupaten Manggarai Barat, Nusa Tenggara Tim.",NUSA TENGGARA TIMUR,,Indonesia,,,,-85.048.875,1.198.887.031,https://maps.google.com/?cid=0x0:0x6bdc23425b068ec8,
toko bangunan,Toko Bahan Bangunan,Toko Bangunan NERA JAYA,"KA Sama, Jl. Hatta, RT.011/RW.004, Wali, Kec. Langke Rembong, Kabupaten Manggarai, Nusa Tenggara Tim.","Kabupaten Manggarai, Nusa Tenggara Tim.",NUSA TENGGARA TIMUR,,Indonesia,82359585296,,,-8.606.702,1.204.567.086,https://maps.google.com/?cid=0x0:0x1b578a2dbdbb6a09,
toko bangunan,Toko Bahan Bangunan,Toko bangunan 99 cancar,"Unnamed Road, Wae Belang, Kec. Ruteng, Kabupaten Manggarai, Nusa Tenggara Tim.","Kabupaten Manggarai, Nusa Tenggara Tim.",NUSA TENGGARA TIMUR,,Indonesia,85205455522,,,-85.961.231,1.203.724.544,https://maps.google.com/?cid=0x0:0xd584734019b4566d,
toko bangunan,Perhimpunan Pengembang Perumahan,Golo ara,"CG6F+6C, Golo Lobos, Kec. Poco Ranaka, Kabupaten Manggarai Timur, Nusa Tenggara Tim.","Kabupaten Manggarai Timur, Nusa Tenggara Tim.",NUSA TENGGARA TIMUR,,Indonesia,,,,-8.589.474,1.205.235.108,https://maps.google.com/?cid=0x0:0xe092971a59eb982c,
toko bangunan,Toko Bahan Bangunan,Surya Agung Toko,"JL. Bagung, No. 10, Mbaumuku, Langke Rembong, 86511, Pitak, Kec. Ruteng, Kabupaten Manggarai, Nusa Tenggara Tim.","Mbaumuku, Langke Rembong,",NUSA TENGGARA TIMUR,86511.0,Indonesia,38521141,,,-86.133.685,1.204.631.191,https://maps.google.com/?cid=0x0:0xfb054b1dbb8098a9,
toko bangunan,Toko Bahan Bangunan,TOKO BANGUNAN,"962F+FR3, Lkr. Luar Maumere, Kota Baru, Kec. Alok Tim., Kabupaten Sikka, Nusa Tenggara Tim.","Kabupaten Sikka, Nusa Tenggara Tim.",NUSA TENGGARA TIMUR,,Indonesia,81228455504,,,-8.648.865,1.222.245.369,https://maps.google.com/?cid=0x0:0xfcda8409dfe7e722,
toko bangunan,Toko Bahan Bangunan,Toko Bahan Bangunan 555 Ruteng Manggarai,"9FV8+G6G NO WA OI54O54249, Jl. Montang Rua, Mbaumuku, Kec. Langke Rembong, Kabupaten Manggarai, Nusa Tenggara Tim.","Kabupaten Manggarai, Nusa Tenggara Tim.",NUSA TENGGARA TIMUR,,Indonesia,81246320180,,,-86.061.849,1.204.655.793,https://maps.google.com/?cid=0x0:0x5c54fb7afbefc99c,
toko bangunan,Toko Bahan Bangunan,Toko Graha Bangunan,"Gedung Graha Ariadi, Oesapa Bar., Kec. Klp. Lima, Kota Kupang, Nusa Tenggara Tim. 85228","Oesapa Bar., Kec. Klp. Lima, Kota Kupang",NUSA TENGGARA TIMUR,85228.0,Indonesia,81312893723,,,-101.468.703,123.631.267,https://maps.google.com/?cid=0x0:0x4167d73ee95fc845,
toko bangunan,Toko Bahan Bangunan,Toko Cipta Bangunan,"Wolomarang, Kec. Alok Bar., Kabupaten Sikka, Nusa Tenggara Tim.","Kabupaten Sikka, Nusa Tenggara Tim.",NUSA TENGGARA TIMUR,,Indonesia,81231842348,,,-86.105.049,1.221.996.912,https://maps.google.com/?cid=0x0:0x1d786c0067a3953f,
toko bangunan,Toko Bahan Bangunan,Toko Raja Bangunan,"Jl. Soekarno Hatta No.88, Labuan Bajo, Kec. Komodo, Kabupaten Manggarai Barat, Nusa Tenggara Tim. 86754","Labuan Bajo, Kec. Komodo, Kabupaten Manggarai Barat",NUSA TENGGARA TIMUR,86754.0,Indonesia,,,,-8.498.078,1.198.804.582,https://maps.google.com/?cid=0x0:0x3bc97fa1d5c89c75,
toko bangunan,toko bangunan,Kec. Poco Ranaka,"Kabupaten Manggarai Timur, Nusa Tenggara Tim.","Kabupaten Manggarai Timur, Nusa Tenggara Tim.",NUSA TENGGARA TIMUR,,Indonesia,,,,-86.082.296,1.205.494.563,https://maps.google.com/?cid=0x0:0x82314d6de8f2130,
toko bangunan,Toko Bahan Bangunan,TOKO BANGUNAN SINAR KASIH,"Jl. Wae Ces, Mbaumuku, Kec. Langke Rembong, Kabupaten Manggarai, Nusa Tenggara Tim.","Kabupaten Manggarai, Nusa Tenggara Tim.",NUSA TENGGARA TIMUR,,Indonesia,89508785992,,,-86.047.776,1.204.661.215,https://maps.google.com/?cid=0x0:0xdfaa29c8d1f1420f,
toko bangunan,Toko Bahan Bangunan,CV. MIRACLE,"Wae Rii, Kec. Wae Rii, Kabupaten Manggarai, Nusa Tenggara Tim.","Kabupaten Manggarai, Nusa Tenggara Tim.",NUSA TENGGARA TIMUR,,Indonesia,,,,-86.166.828,1.205.022.013,https://maps.google.com/?cid=0x0:0x92b3a85d14897c4f,
toko bangunan,,MK Baja Langgo Langkas,"9FRM+P7P, Langgo, Kec. Langke Rembong, Kabupaten Manggarai, Nusa Tenggara Tim.","Kabupaten Manggarai, Nusa Tenggara Tim.",NUSA TENGGARA TIMUR,,Indonesia,,,,-86.081.597,1.204.831.965,https://maps.google.com/?cid=0x0:0x9913af2b57394b19,
toko bangunan,Toko Bahan Bangunan,UD Toda Jaya,"9GM2+Q54, Jl. Ruteng - Benteng Jawa, Benteng Jawa, Kec. Wae Rii, Kabupaten Manggarai, Nusa Tenggara Tim.","Kabupaten Manggarai, Nusa Tenggara Tim.",NUSA TENGGARA TIMUR,,Indonesia,81292808174,,,-86.156.051,1.205.004.479,https://maps.google.com/?cid=0x0:0xefb3239f48d4fd0c,
toko bangunan,Toko Bahan Bangunan,Toko Bangunan Saudara,"Mbaumuku, Kec. Langke Rembong, Kabupaten Manggarai, Nusa Tenggara Tim.","Kabupaten Manggarai, Nusa Tenggara Tim.",NUSA TENGGARA TIMUR,,Indonesia,85239009102,,,-86.086.449,1.204.648.361,https://maps.google.com/?cid=0x0:0x5faafa24f0a0065f,
toko bangunan,Toko Bahan Bangunan,Karunia Jaya,"Jl. Banteng Kodim No.1216, Mbaumuku, Kec. Langke Rembong, Kabupaten Manggarai, Nusa Tenggara Tim.","Kabupaten Manggarai, Nusa Tenggara Tim.",NUSA TENGGARA TIMUR,,Indonesia,82122228701,,,-86.087.322,1.204.711.694,https://maps.google.com/?cid=0x0:0x3c1742712b506e2a,
toko bangunan,Toko Bahan Bangunan,Toko INDOMAL 2 (Jual Bahan Bangunan),"FM6C+F5W, Satar Nawang, Kec. Sambi Rampas, Kabupaten Manggarai Timur, Nusa Tenggara Tim.","Kabupaten Manggarai Timur, Nusa Tenggara Tim.",NUSA TENGGARA TIMUR,,Indonesia,,,,-85.387.527,1.206.704.604,https://maps.google.com/?cid=0x0:0xcc280ceb90d1ef6,
toko bangunan,Toko umum,Kios Marccelo Putra,"9GP9+FV8, Ranaka, Kec. Wae Rii, Kabupaten Manggarai, Nusa Tenggara Tim.","Kabupaten Manggarai, Nusa Tenggara Tim.",NUSA TENGGARA TIMUR,,Indonesia,,,,-86.138.369,1.205.197.118,https://maps.google.com/?cid=0x0:0x2d08b90c72bb24c3,
toko bangunan,Toko Perlengkapan Rumah,Toko Bangunan Varli,"9FX3+5WJ, Jl. Hatta, Lawir, Kec. Langke Rembong, Kabupaten Manggarai, Nusa Tenggara Tim.","Kabupaten Manggarai, Nusa Tenggara Tim.",NUSA TENGGARA TIMUR,,Indonesia,85379011870,,,-86.020.285,1.204.547.513,https://maps.google.com/?cid=0x0:0x93eab3c967e6bea0,
toko bangunan,Toko Perlengkapan Rumah,Kios Bangunan,"9FP8+XG6, Watu, Kec. Langke Rembong, Kabupaten Manggarai, Nusa Tenggara Tim.","Kabupaten Manggarai, Nusa Tenggara Tim.",NUSA TENGGARA TIMUR,,Indonesia,85142990426,,,-86.125.858,1.204.662.779,https://maps.google.com/?cid=0x0:0x78a4b196f069d7cc,
toko bangunan,toko bangunan,CV. MAKMUR INTIPERKASA,"Langgo, Waengkeling, Jalur Trans Ruteng - Borong, Nusa Tenggara Tim. 86519","Waengkeling, Jalur Trans Ruteng - Borong",NUSA TENGGARA TIMUR,86519.0,Indonesia,,,,-86.122.026,1.204.797.443,https://maps.google.com/?cid=0x0:0xb90f811344e6ef92,
toko bangunan,Toko Bahan Bangunan,Toko Jaya Raya,"Jl. Yos Sudarso No.3, Mbaumuku, Kec. Langke Rembong, Kabupaten Manggarai, Nusa Tenggara Tim.","Kabupaten Manggarai, Nusa Tenggara Tim.",NUSA TENGGARA TIMUR,,Indonesia,82122228701,,,-86.101.255,1.204.665.299,https://maps.google.com/?cid=0x0:0x7458e826352aec30,
toko bangunan,toko bangunan,Oriental,"Jl. Motang Rua No.38, Mbaumuku, Kec. Langke Rembong, Kabupaten Manggarai, Nusa Tenggara Tim. 86511","Mbaumuku, Kec. Langke Rembong, Kabupaten Manggarai",NUSA TENGGARA TIMUR,86511.0,Indonesia,81332227475,,,-86.065.429,1.204.656.257,https://maps.google.com/?cid=0x0:0xb967dd237af9163,
toko bangunan,Rumah Kayu,UD. FELMON Bea Muring,"Jl. Ruteng - Benteng Jawa, Leong, Kec. Poco Ranaka, Kabupaten Manggarai Timur, Nusa Tenggara Tim.","Kabupaten Manggarai Timur, Nusa Tenggara Tim.",NUSA TENGGARA TIMUR,,Indonesia,,,,-85.174.337,1.205.772.671,https://maps.google.com/?cid=0x0:0xb16551a2d8542bb8,
toko bangunan,toko bangunan,Kec. Lamba Leda,"Kabupaten Manggarai Timur, Nusa Tenggara Tim.","Kabupaten Manggarai Timur, Nusa Tenggara Tim.",NUSA TENGGARA TIMUR,,Indonesia,,,,-8.303.018,1.205.841.504,https://maps.google.com/?cid=0x0:0x250909596892d132,
toko bangunan,Sekolah Dasar,Bangunan A,"PH2J+4V6, Satar Padut, Kec. Lamba Leda, Kabupaten Manggarai Timur, Nusa Tenggara Tim.","Kabupaten Manggarai Timur, Nusa Tenggara Tim.",NUSA TENGGARA TIMUR,,Indonesia,,,,-82.997.148,1.205.821.319,https://maps.google.com/?cid=0x0:0x7d7e8a5a3e23a3fb,
toko bangunan,Sekolah Dasar,Bangunan C,"PH2J+FQH, Satar Padut, Kec. Lamba Leda, Kabupaten Manggarai Timur, Nusa Tenggara Tim.","Kabupaten Manggarai Timur, Nusa Tenggara Tim.",NUSA TENGGARA TIMUR,,Indonesia,,,,-82.988.221,120.581.998,https://maps.google.com/?cid=0x0:0xcb3acefcd982ecc0,
toko bangunan,Grosir keramik,Toko Bangunan Sumber Berlian,"9FR7+R98, Pitak, Kec. Langke Rembong, Kabupaten Manggarai, Nusa Tenggara Tim.","Kabupaten Manggarai, Nusa Tenggara Tim.",NUSA TENGGARA TIMUR,,Indonesia,38521109,,,-86.079.539,1.204.634.541,https://maps.google.com/?cid=0x0:0x6998fb86419a6f08,
toko bangunan,Komplek perumahan,Lamba,"GHR9+4P3, Lamba Keli, Kec. Lamba Leda, Kabupaten Manggarai Timur, Nusa Tenggara Tim.","Kabupaten Manggarai Timur, Nusa Tenggara Tim.",NUSA TENGGARA TIMUR,,Indonesia,,,,-84.599.144,1.205.690.911,https://maps.google.com/?cid=0x0:0x5fcf9d513abb0654,
toko bangunan,Toko Bahan Bangunan,Toko INDOMAL 2 (Jual Bahan Bangunan),"FM6C+F5W, Satar Nawang, Kec. Sambi Rampas, Kabupaten Manggarai Timur, Nusa Tenggara Tim.","Kabupaten Manggarai Timur, Nusa Tenggara Tim.",NUSA TENGGARA TIMUR,,Indonesia,,,,-85.387.527,1.206.704.604,https://maps.google.com/?cid=0x0:0xcc280ceb90d1ef6,
toko bangunan,Toko Bahan Bangunan,Toko Bangunan Indo Jaya,"FVWQ+2FW, Unnamed Road, Goron Talo, Kec. Komodo, Kabupaten Manggarai Barat, Nusa Tenggara Tim.","Kabupaten Manggarai Barat, Nusa Tenggara Tim.",NUSA TENGGARA TIMUR,,Indonesia,,,,-85.048.875,1.198.887.031,https://maps.google.com/?cid=0x0:0x6bdc23425b068ec8,
toko bangunan,Rumah Kayu,UD. FELMON Bea Muring,"Jl. Ruteng - Benteng Jawa, Leong, Kec. Poco Ranaka, Kabupaten Manggarai Timur, Nusa Tenggara Tim.","Kabupaten Manggarai Timur, Nusa Tenggara Tim.",NUSA TENGGARA TIMUR,,Indonesia,,,,-85.174.337,1.205.772.671,https://maps.google.com/?cid=0x0:0xb16551a2d8542bb8,
toko bangunan,Toko Bahan Bangunan,Toko Pancaran Bangunan,"5JR4+8JW, Rana Loba, Kec. Borong, Kabupaten Manggarai Timur, Nusa Tenggara Tim.","Kabupaten Manggarai Timur, Nusa Tenggara Tim.",NUSA TENGGARA TIMUR,,Indonesia,81238625622,,,-88.091.403,1.206.065.789,https://maps.google.com/?cid=0x0:0x248dd937a6dc415f,
toko bangunan,Toko Bahan Bangunan,toko pelangi bangunan,"FVQP+VXF, Goron Talo, Kec. Komodo, Kabupaten Manggarai Barat, Nusa Tenggara Tim.","Kabupaten Manggarai Barat, Nusa Tenggara Tim.",NUSA TENGGARA TIMUR,,Indonesia,82145627171,,,-85.103.078,1.198.874.183,https://maps.google.com/?cid=0x0:0x6f62dc0810d90ac8,
toko bangunan,Toko bahan makanan,Swalayan Pagi,"MFQR+V24, Reo, Kec. Reok, Kabupaten Manggarai, Nusa Tenggara Tim.","Kabupaten Manggarai, Nusa Tenggara Tim.",NUSA TENGGARA TIMUR,,Indonesia,,,,-83.103.661,1.204.900.678,https://maps.google.com/?cid=0x0:0x611f116a93b6306d,
toko bangunan,Pom bensin/SPBU,Terminal Reo,"MFQJ+4P8, Mata Air, Kec. Reok, Kabupaten Manggarai, Nusa Tenggara Tim.","Kabupaten Manggarai, Nusa Tenggara Tim.",NUSA TENGGARA TIMUR,,Indonesia,81246642428,,,-83.122.183,1.204.818.136,https://maps.google.com/?cid=0x0:0x54db498d829941e9,
toko bangunan,Toko Bahan Bangunan,PT NIAGA SEJAHTERA BANGUNAN,"PF73+9XF, Wangkung, Kec. Reok, Kabupaten Manggarai, Nusa Tenggara Tim.","Kabupaten Manggarai, Nusa Tenggara Tim.",NUSA TENGGARA TIMUR,,Indonesia,,,,-82.865.582,12.045.491,https://maps.google.com/?cid=0x0:0x64f8733d152d87e7,
toko bangunan,Grosir,Toko Mahaputra Abadi,"Jl. Soekarno Hatta No.249, Labuan Bajo, Kec. Komodo, Kabupaten Manggarai Barat, Nusa Tenggara Tim.","Kabupaten Manggarai Barat, Nusa Tenggara Tim.",NUSA TENGGARA TIMUR,,Indonesia,38541022,,,-8.496.253,1.198.791.656,https://maps.google.com/?cid=0x0:0xc370eeb762facea2,
toko bangunan,Toko Perlengkapan Rumah,Bagus Bangunan  minimart,"747V+WJJ Bagus mart, jln ruteng, labuan bajo, Kecamatan Lembor, Kabupaten Manggarai Barat, Nusa Tenggara Tim.","Kabupaten Manggarai Barat, Nusa Tenggara Tim.",NUSA TENGGARA TIMUR,,Indonesia,,,,-87.351.516,1.201.440.286,https://maps.google.com/?cid=0x0:0x92a365e35efbb901,
toko bangunan,Toko,Toko Anugrah Lima jaya pota,"JQX2+92W, Pota, Kec. Sambi Rampas, Kabupaten Manggarai Timur, Nusa Tenggara Tim.","Kabupaten Manggarai Timur, Nusa Tenggara Tim.",NUSA TENGGARA TIMUR,,Indonesia,811300185,,,-83.517.775,1.207.494.212,https://maps.google.com/?cid=0x0:0x13a286241d885112,
toko bangunan,toko bangunan,Kec. Sambi Rampas,"Kabupaten Manggarai Timur, Nusa Tenggara Tim.","Kabupaten Manggarai Timur, Nusa Tenggara Tim.",NUSA TENGGARA TIMUR,,Indonesia,,,,-8.347.378,1.207.548.886,https://maps.google.com/?cid=0x0:0xf9c936bcfd9766a6,
toko bangunan,Komplek perumahan,Toko material bangunan Wahyu Hidayat TJ,"MQ66+P3F, Pota, Kec. Sambi Rampas, Kabupaten Manggarai Timur, Nusa Tenggara Tim.","Kabupaten Manggarai Timur, Nusa Tenggara Tim.",NUSA TENGGARA TIMUR,,Indonesia,,,,-83.381.753,120.760.158,https://maps.google.com/?cid=0x0:0xa4b94d3d89b37216,
toko bangunan,Toko Bahan Bangunan,Toko INDOMAL 2 (Jual Bahan Bangunan),"FM6C+F5W, Satar Nawang, Kec. Sambi Rampas, Kabupaten Manggarai Timur, Nusa Tenggara Tim.","Kabupaten Manggarai Timur, Nusa Tenggara Tim.",NUSA TENGGARA TIMUR,,Indonesia,,,,-85.387.527,1.206.704.604,https://maps.google.com/?cid=0x0:0xcc280ceb90d1ef6,
toko bangunan,Grosir keramik,Toko Bangunan Sumber Berlian,"9FR7+R98, Pitak, Kec. Langke Rembong, Kabupaten Manggarai, Nusa Tenggara Tim.","Kabupaten Manggarai, Nusa Tenggara Tim.",NUSA TENGGARA TIMUR,,Indonesia,38521109,,,-86.079.539,1.204.634.541,https://maps.google.com/?cid=0x0:0x6998fb86419a6f08,
toko bangunan,Toko Bahan Bangunan,TOKO BANGUNAN SINAR KASIH,"Jl. Wae Ces, Mbaumuku, Kec. Langke Rembong, Kabupaten Manggarai, Nusa Tenggara Tim.","Kabupaten Manggarai, Nusa Tenggara Tim.",NUSA TENGGARA TIMUR,,Indonesia,89508785992,,,-86.047.776,1.204.661.215,https://maps.google.com/?cid=0x0:0xdfaa29c8d1f1420f,
toko bangunan,Toko,Telage,"JPWH+3M9, Pota, Kec. Sambi Rampas, Kabupaten Manggarai Timur, Nusa Tenggara Tim.","Kabupaten Manggarai Timur, Nusa Tenggara Tim.",NUSA TENGGARA TIMUR,,Indonesia,82218126638,,,-83.548.304,1.207.292.472,https://maps.google.com/?cid=0x0:0x4bb18d8da15fb4d8,
toko bangunan,Toko Bahan Bangunan,Toko Pancaran Bangunan,"5JR4+8JW, Rana Loba, Kec. Borong, Kabupaten Manggarai Timur, Nusa Tenggara Tim.","Kabupaten Manggarai Timur, Nusa Tenggara Tim.",NUSA TENGGARA TIMUR,,Indonesia,81238625622,,,-88.091.403,1.206.065.789,https://maps.google.com/?cid=0x0:0x248dd937a6dc415f,
toko bangunan,Toko Bahan Bangunan,Toko Bangunan Saudara,"Mbaumuku, Kec. Langke Rembong, Kabupaten Manggarai, Nusa Tenggara Tim.","Kabupaten Manggarai, Nusa Tenggara Tim.",NUSA TENGGARA TIMUR,,Indonesia,85239009102,,,-86.086.449,1.204.648.361,https://maps.google.com/?cid=0x0:0x5faafa24f0a0065f,
toko bangunan,Sekolah menengah,SMKN 1 Sambi Rampas,"Golo Wangkung, Kec. Sambi Rampas, Kabupaten Manggarai Timur, Nusa Tenggara Tim.","Kabupaten Manggarai Timur, Nusa Tenggara Tim.",NUSA TENGGARA TIMUR,,Indonesia,81246462852,,,-8.498.389,1.206.651.762,https://maps.google.com/?cid=0x0:0xca341558e89cdbed,
toko bangunan,Gereja,Gereja Paroki watunggong,"FM89+RRV, Satar Nawang, Kec. Sambi Rampas, Kabupaten Manggarai Timur, Nusa Tenggara Tim.","Kabupaten Manggarai Timur, Nusa Tenggara Tim.",NUSA TENGGARA TIMUR,,Indonesia,,,,-85.328.939,1.206.695.494,https://maps.google.com/?cid=0x0:0xe2b97d6ec4f5555f,
toko bangunan,Sekolah menengah,SMAN 4 SAMBI RAMPAS,"CPMC+H8Q, Compang Congkar, Kec. Sambi Rampas, Kabupaten Manggarai Timur, Nusa Tenggara Tim.","Kabupaten Manggarai Timur, Nusa Tenggara Tim.",NUSA TENGGARA TIMUR,,Indonesia,,,,-85.660.341,1.207.208.479,https://maps.google.com/?cid=0x0:0xa74bd7f1c611a6c5,
toko bangunan,Toko,Kios Rian putra,"GHXX+3RF, Compang Mekar, Kec. Lamba Leda, Kabupaten Manggarai Timur, Nusa Tenggara Tim.","Kabupaten Manggarai Timur, Nusa Tenggara Tim.",NUSA TENGGARA TIMUR,,Indonesia,,,,-84.523.043,1.205.995.474,https://maps.google.com/?cid=0x0:0x80166716719805cf,
toko bangunan,toko bangunan,Kec. Elar,"Kabupaten Manggarai Timur, Nusa Tenggara Tim.","Kabupaten Manggarai Timur, Nusa Tenggara Tim.",NUSA TENGGARA TIMUR,,Indonesia,,,,-84.244.952,1.208.728.615,https://maps.google.com/?cid=0x0:0xa3e720c639fa11c4,
toko bangunan,Toko Bahan Bangunan,Toko Bangunan ELliem Group,"F732+4WW Hawe-Wae Pitak, Jln, Kolang, Kec. Kuwus, Kabupaten Manggarai Barat, Nusa Tenggara Tim.","Kabupaten Manggarai Barat, Nusa Tenggara Tim.",NUSA TENGGARA TIMUR,,Indonesia,85237913505,,,-85.471.482,1.202.523.278,https://maps.google.com/?cid=0x0:0xe58d5f31c4ffc6fc,
toko bangunan,Toko Bahan Bangunan,Toko Pancaran Bangunan,"5JR4+8JW, Rana Loba, Kec. Borong, Kabupaten Manggarai Timur, Nusa Tenggara Tim.","Kabupaten Manggarai Timur, Nusa Tenggara Tim.",NUSA TENGGARA TIMUR,,Indonesia,81238625622,,,-88.091.403,1.206.065.789,https://maps.google.com/?cid=0x0:0x248dd937a6dc415f,
toko bangunan,Toko Perlengkapan Rumah,Toko Bangunan Varli,"9FX3+5WJ, Jl. Hatta, Lawir, Kec. Langke Rembong, Kabupaten Manggarai, Nusa Tenggara Tim.","Kabupaten Manggarai, Nusa Tenggara Tim.",NUSA TENGGARA TIMUR,,Indonesia,85379011870,,,-86.020.285,1.204.547.513,https://maps.google.com/?cid=0x0:0x93eab3c967e6bea0,
toko bangunan,Komplek perumahan,Toko material bangunan Wahyu Hidayat TJ,"MQ66+P3F, Pota, Kec. Sambi Rampas, Kabupaten Manggarai Timur, Nusa Tenggara Tim.","Kabupaten Manggarai Timur, Nusa Tenggara Tim.",NUSA TENGGARA TIMUR,,Indonesia,,,,-83.381.753,120.760.158,https://maps.google.com/?cid=0x0:0xa4b94d3d89b37216,
toko bangunan,Toko Bahan Bangunan,Kelimutu Toko,"9FR7+7M8, Jl. Kathedral, Mbaumuku, Kec. Langke Rembong, Kabupaten Manggarai, Nusa Tenggara Tim. 86312","Jl. Kathedral, Mbaumuku, Kec. Langke Rembong, Kabupaten Manggarai",NUSA TENGGARA TIMUR,86312.0,Indonesia,38521051,,,-86.093.282,1.204.641.971,https://maps.google.com/?cid=0x0:0xeb806c482e8ce083,
toko bangunan,Toko Bahan Bangunan,Toko bangunan 99 cancar,"Unnamed Road, Wae Belang, Kec. Ruteng, Kabupaten Manggarai, Nusa Tenggara Tim.","Kabupaten Manggarai, Nusa Tenggara Tim.",NUSA TENGGARA TIMUR,,Indonesia,85205455522,,,-85.961.231,1.203.724.544,https://maps.google.com/?cid=0x0:0xd584734019b4566d,
toko bangunan,Toko Bahan Bangunan,Bahan Bangunan,"Lekeng, Kec. Kota Komba, Kabupaten Manggarai Timur, Nusa Tenggara Tim.","Kabupaten Manggarai Timur, Nusa Tenggara Tim.",NUSA TENGGARA TIMUR,,Indonesia,81237416770,,,-88.063.557,1.206.785.556,https://maps.google.com/?cid=0x0:0xb70d92af16880084,
toko bangunan,Toko Bahan Bangunan,UD Toda Jaya,"9GM2+Q54, Jl. Ruteng - Benteng Jawa, Benteng Jawa, Kec. Wae Rii, Kabupaten Manggarai, Nusa Tenggara Tim.","Kabupaten Manggarai, Nusa Tenggara Tim.",NUSA TENGGARA TIMUR,,Indonesia,81292808174,,,-86.156.051,1.205.004.479,https://maps.google.com/?cid=0x0:0xefb3239f48d4fd0c,
toko bangunan,Toko Bahan Bangunan,CV. MIRACLE,"Wae Rii, Kec. Wae Rii, Kabupaten Manggarai, Nusa Tenggara Tim.","Kabupaten Manggarai, Nusa Tenggara Tim.",NUSA TENGGARA TIMUR,,Indonesia,,,,-86.166.828,1.205.022.013,https://maps.google.com/?cid=0x0:0x92b3a85d14897c4f,
toko bangunan,Toko Bahan Bangunan,TOKO BANGUNAN,"962F+FR3, Lkr. Luar Maumere, Kota Baru, Kec. Alok Tim., Kabupaten Sikka, Nusa Tenggara Tim.","Kabupaten Sikka, Nusa Tenggara Tim.",NUSA TENGGARA TIMUR,,Indonesia,81228455504,,,-8.648.865,1.222.245.369,https://maps.google.com/?cid=0x0:0xfcda8409dfe7e722,
toko bangunan,Toko,Toko Anugrah Lima jaya pota,"JQX2+92W, Pota, Kec. Sambi Rampas, Kabupaten Manggarai Timur, Nusa Tenggara Tim.","Kabupaten Manggarai Timur, Nusa Tenggara Tim.",NUSA TENGGARA TIMUR,,Indonesia,811300185,,,-83.517.775,1.207.494.212,https://maps.google.com/?cid=0x0:0x13a286241d885112,
toko bangunan,Toko Bahan Bangunan,Toko INDOMAL 2 (Jual Bahan Bangunan),"FM6C+F5W, Satar Nawang, Kec. Sambi Rampas, Kabupaten Manggarai Timur, Nusa Tenggara Tim.","Kabupaten Manggarai Timur, Nusa Tenggara Tim.",NUSA TENGGARA TIMUR,,Indonesia,,,,-85.387.527,1.206.704.604,https://maps.google.com/?cid=0x0:0xcc280ceb90d1ef6,
toko bangunan,Toko Perlengkapan Rumah,Kios Bangunan,"9FP8+XG6, Watu, Kec. Langke Rembong, Kabupaten Manggarai, Nusa Tenggara Tim.","Kabupaten Manggarai, Nusa Tenggara Tim.",NUSA TENGGARA TIMUR,,Indonesia,85142990426,,,-86.125.858,1.204.662.779,https://maps.google.com/?cid=0x0:0x78a4b196f069d7cc,
toko bangunan,Toko Bahan Bangunan,Toko 88,"5JV5+JCX, Unnamed Road, Rana Loba, Kec. Borong, Kabupaten Manggarai Timur, Nusa Tenggara Tim.","Kabupaten Manggarai Timur, Nusa Tenggara Tim.",NUSA TENGGARA TIMUR,,Indonesia,81353298000,,,-8.805.878,120.608.597,https://maps.google.com/?cid=0x0:0x2866e33e440ad6cc,
toko bangunan,Toko Bahan Bangunan,TB. Jaya Lestari 4,"1, Jl. Balimatraman No.2, RT.1/RW.5, Manggarai Sel., Kec. Tebet, Jakarta, Daerah Khusus Ibukota Jakarta 12870","Jl. Balimatraman No.2, RT.1/RW.5, Manggarai Sel., Kec. Tebet, Jakarta",NUSA TENGGARA TIMUR,12870.0,Indonesia,,,,-62.186.415,1.068.507.874,https://maps.google.com/?cid=0x0:0xc70b93ee9b637852,
toko bangunan,Toko,Toko Rere Bangunan,"Semplak, Kec. Bogor Bar., Kota Bogor, Jawa Barat","Kota Bogor, Jawa Barat",NUSA TENGGARA TIMUR,,Indonesia,,,,-65.596.308,1.067.594.408,https://maps.google.com/?cid=0x0:0x6911fa58b904d604,
toko bangunan,Toko Bahan Bangunan,Toko Bangunan RR Jaya,"Jl. Cemp. Raya No.15a, Rengas, Kec. Ciputat Tim., Kota Tangerang Selatan, Banten 15412","Rengas, Kec. Ciputat Tim., Kota Tangerang Selatan",NUSA TENGGARA TIMUR,15412.0,Indonesia,217497695,,,-62.860.045,1.067.521.133,https://maps.google.com/?cid=0x0:0x32948596614166b3,
toko bangunan,Toko Bahan Bangunan,Barkah Jaya,"Jl. Albarkah No.27, RT.13/RW.4, Manggarai Sel., Kec. Tebet, Kota Jakarta Selatan, Daerah Khusus Ibukota Jakarta 12860","RT.13/RW.4, Manggarai Sel., Kec. Tebet, Kota Jakarta Selatan",NUSA TENGGARA TIMUR,12860.0,Indonesia,218299334,,,-62.203.477,1.068.477.624,https://maps.google.com/?cid=0x0:0xb32d114b14718851,
toko bangunan,Toko Bahan Bangunan,TB Terus Jaya,"Jl. Mohamad Kafi No.2, RT.2/RW.6, Jagakarsa, Kec. Jagakarsa, Kota Jakarta Selatan, Daerah Khusus Ibukota Jakarta 13530","RT.2/RW.6, Jagakarsa, Kec. Jagakarsa, Kota Jakarta Selatan",NUSA TENGGARA TIMUR,13530.0,Indonesia,217803083,,,-6.310.895,1.068.131.127,https://maps.google.com/?cid=0x0:0x7b0ad6a06e1df7e5,
toko bangunan,Toko Bahan Bangunan,Toko Bangunan Restu Jaya,"No Jl. Buncit Raya No.3 4, RT.4/RW.2, Duren Tiga, Kec. Pancoran, Kota Jakarta Selatan, Daerah Khusus Ibukota Jakarta 12760","RT.4/RW.2, Duren Tiga, Kec. Pancoran, Kota Jakarta Selatan",NUSA TENGGARA TIMUR,12760.0,Indonesia,217992870,,,-62.597.956,1.068.289.476,https://maps.google.com/?cid=0x0:0xd0f8b24051be8465,
toko bangunan,Toko Bahan Bangunan,TB. Fransia Jaya,"Jl. Raya Jakarta-Bogor No.21 Km. 34,5, RT.01/RW.01, Sukamaju Baru, Kec. Tapos, Kota Depok, Jawa Barat 16455","RT.01/RW.01, Sukamaju Baru, Kec. Tapos, Kota Depok",NUSA TENGGARA TIMUR,16455.0,Indonesia,818248282,,,-64.011.224,106.862.078,https://maps.google.com/?cid=0x0:0x50e8842589fed4ee,
toko bangunan,Toko Bahan Bangunan,Toko Bangunan Persada,"Jl. Mampang Prapatan II, Tegal Parang, Kec. Mampang Prpt., Jakarta, Daerah Khusus Ibukota Jakarta 12790","Tegal Parang, Kec. Mampang Prpt., Jakarta",NUSA TENGGARA TIMUR,12790.0,Indonesia,,,,-62.454.049,1.068.299.294,https://maps.google.com/?cid=0x0:0xd6ba6fd1f85f4fb2,
toko bangunan,toko bangunan,Kec. Kota Komba,"Kabupaten Manggarai Timur, Nusa Tenggara Tim.","Kabupaten Manggarai Timur, Nusa Tenggara Tim.",NUSA TENGGARA TIMUR,,Indonesia,,,,-88.273.426,1.208.051.136,https://maps.google.com/?cid=0x0:0xb5521e292aca4357,
toko bangunan,Toko Bahan Bangunan,Bahan Bangunan,"Lekeng, Kec. Kota Komba, Kabupaten Manggarai Timur, Nusa Tenggara Tim.","Kabupaten Manggarai Timur, Nusa Tenggara Tim.",NUSA TENGGARA TIMUR,,Indonesia,81237416770,,,-88.063.557,1.206.785.556,https://maps.google.com/?cid=0x0:0xb70d92af16880084,
toko bangunan,Toko Bahan Bangunan,Toko Sahabat Bangunan Borong,"Jalan satar peot, Rana Loba, Kec. Borong, Kabupaten Manggarai Timur, Nusa Tenggara Tim. 86571","Rana Loba, Kec. Borong, Kabupaten Manggarai Timur",NUSA TENGGARA TIMUR,86571.0,Indonesia,81282720033,,,-87.653.753,1.206.219.319,https://maps.google.com/?cid=0x0:0xebefc5906b586f01,
toko bangunan,Minimarket,KR Mart,"Jl. Lintas Flores, Waelengga, Watu Nggene, Kec. Kota Komba, Kabupaten Manggarai Timur, Nusa Tenggara Tim.","Kabupaten Manggarai Timur, Nusa Tenggara Tim.",NUSA TENGGARA TIMUR,,Indonesia,85218438149,,,-88.279.097,1.208.027.121,https://maps.google.com/?cid=0x0:0xf8e5aa5e5ff2561e,
toko bangunan,Toko Bahan Bangunan,Toko Pancaran Bangunan,"5JR4+8JW, Rana Loba, Kec. Borong, Kabupaten Manggarai Timur, Nusa Tenggara Tim.","Kabupaten Manggarai Timur, Nusa Tenggara Tim.",NUSA TENGGARA TIMUR,,Indonesia,81238625622,,,-88.091.403,1.206.065.789,https://maps.google.com/?cid=0x0:0x248dd937a6dc415f,
toko bangunan,Toko Perlengkapan Rumah,Toko kasih sayang Mukun 01,"8MRQ+9XQ, Golomeni, Mukun, Kabupaten Manggarai Timur, Nusa Tenggara Tim.","Kabupaten Manggarai Timur, Nusa Tenggara Tim.",NUSA TENGGARA TIMUR,,Indonesia,81246114289,,,-86.590.483,1.206.899.848,https://maps.google.com/?cid=0x0:0x35190db7a895efca,
toko bangunan,Toko Bahan Bangunan,Toko 88,"5JV5+JCX, Unnamed Road, Rana Loba, Kec. Borong, Kabupaten Manggarai Timur, Nusa Tenggara Tim.","Kabupaten Manggarai Timur, Nusa Tenggara Tim.",NUSA TENGGARA TIMUR,,Indonesia,81353298000,,,-8.805.878,120.608.597,https://maps.google.com/?cid=0x0:0x2866e33e440ad6cc,
toko bangunan,Toko Bahan Bangunan,PT. NIAGA SEJAHTERA BANGUNAN,"Wae Wole, Watu Nggene, Kec. Kota Komba, Kabupaten Manggarai Timur, Nusa Tenggara Tim.","Kabupaten Manggarai Timur, Nusa Tenggara Tim.",NUSA TENGGARA TIMUR,,Indonesia,81239846844,,,-8.830.601,1.207.904.425,https://maps.google.com/?cid=0x0:0xd9c6d4f01de82014,
toko bangunan,Grosir keramik,Toko Bangunan Sumber Berlian,"9FR7+R98, Pitak, Kec. Langke Rembong, Kabupaten Manggarai, Nusa Tenggara Tim.","Kabupaten Manggarai, Nusa Tenggara Tim.",NUSA TENGGARA TIMUR,,Indonesia,38521109,,,-86.079.539,1.204.634.541,https://maps.google.com/?cid=0x0:0x6998fb86419a6f08,
toko bangunan,Kantor Perusahaan,Toko Besi Mitra Utama,"5JP4+2HP, jl.waereca, Rana Loba, Kec. Borong, Kabupaten Manggarai Timur, Nusa Tenggara Tim.","Kabupaten Manggarai Timur, Nusa Tenggara Tim.",NUSA TENGGARA TIMUR,,Indonesia,8121552164,,,-88.149.209,1.206.064.621,https://maps.google.com/?cid=0x0:0xf34b50696ef2c9e0,
toko bangunan,toko bangunan,Nusa Tenggara Tim.,,Nusa Tenggara Tim.,NUSA TENGGARA TIMUR,,Indonesia,,,,-86.573.819,1.210.793.705,https://maps.google.com/?cid=0x0:0x1030bfbcaf71ae0,
toko bangunan,Toko Bahan Bangunan,Toko Pancaran Bangunan,"5JR4+8JW, Rana Loba, Kec. Borong, Kabupaten Manggarai Timur, Nusa Tenggara Tim.","Kabupaten Manggarai Timur, Nusa Tenggara Tim.",NUSA TENGGARA TIMUR,,Indonesia,81238625622,,,-88.091.403,1.206.065.789,https://maps.google.com/?cid=0x0:0x248dd937a6dc415f,
toko bangunan,Toko Bahan Bangunan,Toko Sahabat Bangunan Borong,"Jalan satar peot, Rana Loba, Kec. Borong, Kabupaten Manggarai Timur, Nusa Tenggara Tim. 86571","Rana Loba, Kec. Borong, Kabupaten Manggarai Timur",NUSA TENGGARA TIMUR,86571.0,Indonesia,81282720033,,,-87.653.753,1.206.219.319,https://maps.google.com/?cid=0x0:0xebefc5906b586f01,
toko bangunan,Toko Bahan Bangunan,CV. Tujuh Jaya,"723W+C6P, Unnamed Rd, Mokdale, Kec. Lobalain, Kabupaten Rote Ndao, Nusa Tenggara Tim.","Kabupaten Rote Ndao, Nusa Tenggara Tim.",NUSA TENGGARA TIMUR,,Indonesia,,,,-107.464.098,12.304.558,https://maps.google.com/?cid=0x0:0x575a85c650ddf9e4,
toko bangunan,Toko Bahan Bangunan,UD TUJUH JAYA BANGUNAN I,"72GX+8M5, Metina, Kec. Lobalain, Kabupaten Rote Ndao, Nusa Tenggara Tim.","Kabupaten Rote Ndao, Nusa Tenggara Tim.",NUSA TENGGARA TIMUR,,Indonesia,,,,-107.242.448,1.230.492.313,https://maps.google.com/?cid=0x0:0xca85d779b23c1d9d,
toko bangunan,Pembangunan Perumahan,Pesi,"7HF9+H84, Sita, Kec. Rana Mese, Kabupaten Manggarai Timur, Nusa Tenggara Tim.","Kabupaten Manggarai Timur, Nusa Tenggara Tim.",NUSA TENGGARA TIMUR,,Indonesia,,,,-87.261.215,1.205.683.362,https://maps.google.com/?cid=0x0:0x3988162b96c9843c,
toko bangunan,Toko,Pesi,"6HVH+VVG, Pesi, Sita, Kec. Rana Mese, Kabupaten Manggarai Timur, Nusa Tenggara Tim.","Kabupaten Manggarai Timur, Nusa Tenggara Tim.",NUSA TENGGARA TIMUR,,Indonesia,,,,-8.755.317,1.205.797.128,https://maps.google.com/?cid=0x0:0x2a41f32f4565347e,
toko bangunan,toko bangunan,Kec. Rana Mese,"Kabupaten Manggarai Timur, Nusa Tenggara Tim.","Kabupaten Manggarai Timur, Nusa Tenggara Tim.",NUSA TENGGARA TIMUR,,Indonesia,,,,-8.368.917,1.203.459.156,https://maps.google.com/?cid=0x0:0x866acef55b6f1bf6,
toko bangunan,Grosir keramik,Toko Bangunan Sumber Berlian,"9FR7+R98, Pitak, Kec. Langke Rembong, Kabupaten Manggarai, Nusa Tenggara Tim.","Kabupaten Manggarai, Nusa Tenggara Tim.",NUSA TENGGARA TIMUR,,Indonesia,38521109,,,-86.079.539,1.204.634.541,https://maps.google.com/?cid=0x0:0x6998fb86419a6f08,
toko bangunan,Toko Bahan Bangunan,TOKO BANGUNAN SINAR KASIH,"Jl. Wae Ces, Mbaumuku, Kec. Langke Rembong, Kabupaten Manggarai, Nusa Tenggara Tim.","Kabupaten Manggarai, Nusa Tenggara Tim.",NUSA TENGGARA TIMUR,,Indonesia,89508785992,,,-86.047.776,1.204.661.215,https://maps.google.com/?cid=0x0:0xdfaa29c8d1f1420f,
toko bangunan,Kantor Perusahaan,Toko Besi Mitra Utama,"5JP4+2HP, jl.waereca, Rana Loba, Kec. Borong, Kabupaten Manggarai Timur, Nusa Tenggara Tim.","Kabupaten Manggarai Timur, Nusa Tenggara Tim.",NUSA TENGGARA TIMUR,,Indonesia,8121552164,,,-88.149.209,1.206.064.621,https://maps.google.com/?cid=0x0:0xf34b50696ef2c9e0,
toko bangunan,Toko Bahan Bangunan,Toko 88,"5JV5+JCX, Unnamed Road, Rana Loba, Kec. Borong, Kabupaten Manggarai Timur, Nusa Tenggara Tim.","Kabupaten Manggarai Timur, Nusa Tenggara Tim.",NUSA TENGGARA TIMUR,,Indonesia,81353298000,,,-8.805.878,120.608.597,https://maps.google.com/?cid=0x0:0x2866e33e440ad6cc,
toko bangunan,Toko Bahan Bangunan,Toko Bangunan Saudara,"Mbaumuku, Kec. Langke Rembong, Kabupaten Manggarai, Nusa Tenggara Tim.","Kabupaten Manggarai, Nusa Tenggara Tim.",NUSA TENGGARA TIMUR,,Indonesia,85239009102,,,-86.086.449,1.204.648.361,https://maps.google.com/?cid=0x0:0x5faafa24f0a0065f,
toko bangunan,Toko Bahan Bangunan,Toko Bangunan NERA JAYA,"KA Sama, Jl. Hatta, RT.011/RW.004, Wali, Kec. Langke Rembong, Kabupaten Manggarai, Nusa Tenggara Tim.","Kabupaten Manggarai, Nusa Tenggara Tim.",NUSA TENGGARA TIMUR,,Indonesia,82359585296,,,-8.606.702,1.204.567.086,https://maps.google.com/?cid=0x0:0x1b578a2dbdbb6a09,
toko bangunan,Toko Bahan Bangunan,"UD.Pyllita,Sambi","J8FX+XH, Sambi, Kec. Rana Mese, Kabupaten Manggarai Timur, Nusa Tenggara Tim.","Kabupaten Manggarai Timur, Nusa Tenggara Tim.",NUSA TENGGARA TIMUR,,Indonesia,,,,-8.375.086,120.348.885,https://maps.google.com/?cid=0x0:0x8a9211f74ca28878,
toko bangunan,Toko Perlengkapan Rumah,Toko Bangunan Varli,"9FX3+5WJ, Jl. Hatta, Lawir, Kec. Langke Rembong, Kabupaten Manggarai, Nusa Tenggara Tim.","Kabupaten Manggarai, Nusa Tenggara Tim.",NUSA TENGGARA TIMUR,,Indonesia,85379011870,,,-86.020.285,1.204.547.513,https://maps.google.com/?cid=0x0:0x93eab3c967e6bea0,
toko bangunan,Toko Perlengkapan Rumah,Kios Bangunan,"9FP8+XG6, Watu, Kec. Langke Rembong, Kabupaten Manggarai, Nusa Tenggara Tim.","Kabupaten Manggarai, Nusa Tenggara Tim.",NUSA TENGGARA TIMUR,,Indonesia,85142990426,,,-86.125.858,1.204.662.779,https://maps.google.com/?cid=0x0:0x78a4b196f069d7cc,
toko bangunan,Toko Bahan Bangunan,Surya Agung Toko,"JL. Bagung, No. 10, Mbaumuku, Langke Rembong, 86511, Pitak, Kec. Ruteng, Kabupaten Manggarai, Nusa Tenggara Tim.","Mbaumuku, Langke Rembong,",NUSA TENGGARA TIMUR,86511.0,Indonesia,38521141,,,-86.133.685,1.204.631.191,https://maps.google.com/?cid=0x0:0xfb054b1dbb8098a9,
toko bangunan,Toko Bahan Bangunan,CV. MIRACLE,"Wae Rii, Kec. Wae Rii, Kabupaten Manggarai, Nusa Tenggara Tim.","Kabupaten Manggarai, Nusa Tenggara Tim.",NUSA TENGGARA TIMUR,,Indonesia,,,,-86.166.828,1.205.022.013,https://maps.google.com/?cid=0x0:0x92b3a85d14897c4f,
toko bangunan,Toko Bahan Bangunan,Toko Bangunan ELliem Group,"F732+4WW Hawe-Wae Pitak, Jln, Kolang, Kec. Kuwus, Kabupaten Manggarai Barat, Nusa Tenggara Tim.","Kabupaten Manggarai Barat, Nusa Tenggara Tim.",NUSA TENGGARA TIMUR,,Indonesia,85237913505,,,-85.471.482,1.202.523.278,https://maps.google.com/?cid=0x0:0xe58d5f31c4ffc6fc,
toko bangunan,Toko Bahan Bangunan,Karunia Jaya,"Jl. Banteng Kodim No.1216, Mbaumuku, Kec. Langke Rembong, Kabupaten Manggarai, Nusa Tenggara Tim.","Kabupaten Manggarai, Nusa Tenggara Tim.",NUSA TENGGARA TIMUR,,Indonesia,82122228701,,,-86.087.322,1.204.711.694,https://maps.google.com/?cid=0x0:0x3c1742712b506e2a,
toko bangunan,Toko Bahan Bangunan,Toko Kasih Sayang Borong Manggarai,"Rana Loba, Kec. Borong, Kabupaten Manggarai Timur, Nusa Tenggara Tim.","Kabupaten Manggarai Timur, Nusa Tenggara Tim.",NUSA TENGGARA TIMUR,,Indonesia,81246783263,,,-88.142.221,1.206.072.007,https://maps.google.com/?cid=0x0:0x57e15b4e087e0832,
toko bangunan,Toko Bahan Bangunan,Toko Jaya Raya,"Jl. Yos Sudarso No.3, Mbaumuku, Kec. Langke Rembong, Kabupaten Manggarai, Nusa Tenggara Tim.","Kabupaten Manggarai, Nusa Tenggara Tim.",NUSA TENGGARA TIMUR,,Indonesia,82122228701,,,-86.101.255,1.204.665.299,https://maps.google.com/?cid=0x0:0x7458e826352aec30,
toko bangunan,Toko Bahan Bangunan,Toko Bangunan Puspa Sari,"Jl. Motang Rua Blk. B Ruko Pemda No.1, Mbaumuku, Kec. Langke Rembong, Kabupaten Manggarai, Nusa Tenggara Tim.","Kabupaten Manggarai, Nusa Tenggara Tim.",NUSA TENGGARA TIMUR,,Indonesia,,,,-86.088.556,1.204.644.438,https://maps.google.com/?cid=0x0:0x731883d81fbe852e,
toko bangunan,Toko Bahan Bangunan,Toko Bahan Bangunan 555 Ruteng Manggarai,"9FV8+G6G NO WA OI54O54249, Jl. Montang Rua, Mbaumuku, Kec. Langke Rembong, Kabupaten Manggarai, Nusa Tenggara Tim.","Kabupaten Manggarai, Nusa Tenggara Tim.",NUSA TENGGARA TIMUR,,Indonesia,81246320180,,,-86.061.849,1.204.655.793,https://maps.google.com/?cid=0x0:0x5c54fb7afbefc99c,
toko bangunan,Toko Bahan Bangunan,TOKO SAHABAT INTI BANGUNAN,"JL. Ruteng - Labuan Bajo, Cancar, Wae Belang, Kec. Ruteng, Kabupaten Manggarai, Nusa Tenggara Tim.","Kabupaten Manggarai, Nusa Tenggara Tim.",NUSA TENGGARA TIMUR,,Indonesia,81359982021,,,-85.896.405,1.203.779.527,https://maps.google.com/?cid=0x0:0x99120b0035e2b615,
toko bangunan,Toko Bahan Bangunan,Kelimutu Toko,"9FR7+7M8, Jl. Kathedral, Mbaumuku, Kec. Langke Rembong, Kabupaten Manggarai, Nusa Tenggara Tim. 86312","Jl. Kathedral, Mbaumuku, Kec. Langke Rembong, Kabupaten Manggarai",NUSA TENGGARA TIMUR,86312.0,Indonesia,38521051,,,-86.093.282,1.204.641.971,https://maps.google.com/?cid=0x0:0xeb806c482e8ce083,
toko bangunan,Toko Bahan Bangunan,Barkah Jaya,"Jl. Albarkah No.27, RT.13/RW.4, Manggarai Sel., Kec. Tebet, Kota Jakarta Selatan, Daerah Khusus Ibukota Jakarta 12860","RT.13/RW.4, Manggarai Sel., Kec. Tebet, Kota Jakarta Selatan",NUSA TENGGARA TIMUR,12860.0,Indonesia,218299334,,,-62.203.477,1.068.477.624,https://maps.google.com/?cid=0x0:0xb32d114b14718851,
toko bangunan,Toko Bahan Bangunan,TB BERUANG,"Jl. Gembira No.5, RT.1/RW.6, Guntur, Kecamatan Setiabudi, Kota Jakarta Selatan, Daerah Khusus Ibukota Jakarta 12980","RT.1/RW.6, Guntur, Kecamatan Setiabudi, Kota Jakarta Selatan",NUSA TENGGARA TIMUR,12980.0,Indonesia,218303154,,,-62.082.151,1.068.322.198,https://maps.google.com/?cid=0x0:0xa3308d33696c1ed6,
toko bangunan,toko bangunan,Kec. Poco Ranaka Timur,"Kabupaten Manggarai Timur, Nusa Tenggara Tim.","Kabupaten Manggarai Timur, Nusa Tenggara Tim.",NUSA TENGGARA TIMUR,,Indonesia,,,,-85.543.382,120.618.277,https://maps.google.com/?cid=0x0:0x1564295fdcda3229,
toko bangunan,Toko Bahan Bangunan,Toko Pancaran Bangunan,"5JR4+8JW, Rana Loba, Kec. Borong, Kabupaten Manggarai Timur, Nusa Tenggara Tim.","Kabupaten Manggarai Timur, Nusa Tenggara Tim.",NUSA TENGGARA TIMUR,,Indonesia,81238625622,,,-88.091.403,1.206.065.789,https://maps.google.com/?cid=0x0:0x248dd937a6dc415f,
toko bangunan,Toko Bahan Bangunan,Toko Sahabat Bangunan Borong,"Jalan satar peot, Rana Loba, Kec. Borong, Kabupaten Manggarai Timur, Nusa Tenggara Tim. 86571","Rana Loba, Kec. Borong, Kabupaten Manggarai Timur",NUSA TENGGARA TIMUR,86571.0,Indonesia,81282720033,,,-87.653.753,1.206.219.319,https://maps.google.com/?cid=0x0:0xebefc5906b586f01,
toko bangunan,Perhimpunan Pengembang Perumahan,Golo ara,"CG6F+6C, Golo Lobos, Kec. Poco Ranaka, Kabupaten Manggarai Timur, Nusa Tenggara Tim.","Kabupaten Manggarai Timur, Nusa Tenggara Tim.",NUSA TENGGARA TIMUR,,Indonesia,,,,-8.589.474,1.205.235.108,https://maps.google.com/?cid=0x0:0xe092971a59eb982c,
toko bangunan,Toko Bahan Bangunan,toko pelangi bangunan,"FVQP+VXF, Goron Talo, Kec. Komodo, Kabupaten Manggarai Barat, Nusa Tenggara Tim.","Kabupaten Manggarai Barat, Nusa Tenggara Tim.",NUSA TENGGARA TIMUR,,Indonesia,82145627171,,,-85.103.078,1.198.874.183,https://maps.google.com/?cid=0x0:0x6f62dc0810d90ac8,
toko bangunan,Toko Bahan Bangunan,Toko bangunan 99 cancar,"Unnamed Road, Wae Belang, Kec. Ruteng, Kabupaten Manggarai, Nusa Tenggara Tim.","Kabupaten Manggarai, Nusa Tenggara Tim.",NUSA TENGGARA TIMUR,,Indonesia,85205455522,,,-85.961.231,1.203.724.544,https://maps.google.com/?cid=0x0:0xd584734019b4566d,
toko bangunan,Toko Bahan Bangunan,Toko Bangunan Indo Jaya,"FVWQ+2FW, Unnamed Road, Goron Talo, Kec. Komodo, Kabupaten Manggarai Barat, Nusa Tenggara Tim.","Kabupaten Manggarai Barat, Nusa Tenggara Tim.",NUSA TENGGARA TIMUR,,Indonesia,,,,-85.048.875,1.198.887.031,https://maps.google.com/?cid=0x0:0x6bdc23425b068ec8,
toko bangunan,Toko umum,Kios mika,"9JH9+PXQ, Rende Nao, Kec. Poco Ranaka Timur, Kabupaten Manggarai Timur, Nusa Tenggara Tim.","Kabupaten Manggarai Timur, Nusa Tenggara Tim.",NUSA TENGGARA TIMUR,,Indonesia,,,,-86.206.712,1.206.199.895,https://maps.google.com/?cid=0x0:0x33f9d3ed4f5740be,
toko bangunan,Toko Bahan Bangunan,Toko INDOMAL 2 (Jual Bahan Bangunan),"FM6C+F5W, Satar Nawang, Kec. Sambi Rampas, Kabupaten Manggarai Timur, Nusa Tenggara Tim.","Kabupaten Manggarai Timur, Nusa Tenggara Tim.",NUSA TENGGARA TIMUR,,Indonesia,,,,-85.387.527,1.206.704.604,https://maps.google.com/?cid=0x0:0xcc280ceb90d1ef6,
toko bangunan,Grosir keramik,Toko Bangunan Sumber Berlian,"9FR7+R98, Pitak, Kec. Langke Rembong, Kabupaten Manggarai, Nusa Tenggara Tim.","Kabupaten Manggarai, Nusa Tenggara Tim.",NUSA TENGGARA TIMUR,,Indonesia,38521109,,,-86.079.539,1.204.634.541,https://maps.google.com/?cid=0x0:0x6998fb86419a6f08,
toko bangunan,Toko Bahan Bangunan,TOKO BANGUNAN SINAR KASIH,"Jl. Wae Ces, Mbaumuku, Kec. Langke Rembong, Kabupaten Manggarai, Nusa Tenggara Tim.","Kabupaten Manggarai, Nusa Tenggara Tim.",NUSA TENGGARA TIMUR,,Indonesia,89508785992,,,-86.047.776,1.204.661.215,https://maps.google.com/?cid=0x0:0xdfaa29c8d1f1420f,
toko bangunan,Toko Bahan Bangunan,Toko Bangunan Saudara,"Mbaumuku, Kec. Langke Rembong, Kabupaten Manggarai, Nusa Tenggara Tim.","Kabupaten Manggarai, Nusa Tenggara Tim.",NUSA TENGGARA TIMUR,,Indonesia,85239009102,,,-86.086.449,1.204.648.361,https://maps.google.com/?cid=0x0:0x5faafa24f0a0065f,
toko bangunan,Toko Bahan Bangunan,Toko 88,"5JV5+JCX, Unnamed Road, Rana Loba, Kec. Borong, Kabupaten Manggarai Timur, Nusa Tenggara Tim.","Kabupaten Manggarai Timur, Nusa Tenggara Tim.",NUSA TENGGARA TIMUR,,Indonesia,81353298000,,,-8.805.878,120.608.597,https://maps.google.com/?cid=0x0:0x2866e33e440ad6cc,
toko bangunan,Rumah Kayu,UD. FELMON Bea Muring,"Jl. Ruteng - Benteng Jawa, Leong, Kec. Poco Ranaka, Kabupaten Manggarai Timur, Nusa Tenggara Tim.","Kabupaten Manggarai Timur, Nusa Tenggara Tim.",NUSA TENGGARA TIMUR,,Indonesia,,,,-85.174.337,1.205.772.671,https://maps.google.com/?cid=0x0:0xb16551a2d8542bb8,
toko bangunan,Komplek perumahan,KIOS KAMPUNG PAGAL,"FFQR+HG8, Pagal, Kec. Cibal, Kabupaten Manggarai, Nusa Tenggara Tim.","Kabupaten Manggarai, Nusa Tenggara Tim.",NUSA TENGGARA TIMUR,,Indonesia,81337708312,,,-85.110.827,1.204.913.255,https://maps.google.com/?cid=0x0:0x222c98bdc9ad123f,
toko bangunan,toko bangunan,WILAYA DESA BANGKA ARUS,"FH9W+37M, Watu Arus, Kec. Poco Ranaka, Kabupaten Manggarai Timur, Nusa Tenggara Tim.","Kabupaten Manggarai Timur, Nusa Tenggara Tim.",NUSA TENGGARA TIMUR,,Indonesia,,,,-8.532.294,1.205.956.622,https://maps.google.com/?cid=0x0:0xc8a700507569dedf,
toko bangunan,Toko Perlengkapan Rumah,Toko Bangunan Varli,"9FX3+5WJ, Jl. Hatta, Lawir, Kec. Langke Rembong, Kabupaten Manggarai, Nusa Tenggara Tim.","Kabupaten Manggarai, Nusa Tenggara Tim.",NUSA TENGGARA TIMUR,,Indonesia,85379011870,,,-86.020.285,1.204.547.513,https://maps.google.com/?cid=0x0:0x93eab3c967e6bea0,
toko bangunan,Toko Bahan Bangunan,KIKI MART,"CC6Q+59F, Wali, Kec. Langke Rembong, Kabupaten Manggarai, Nusa Tenggara Tim.","Kabupaten Manggarai, Nusa Tenggara Tim.",NUSA TENGGARA TIMUR,,Indonesia,,,,-85.895.572,1.204.384.358,https://maps.google.com/?cid=0x0:0x7384fcfe34643927,
toko bangunan,Toko Bahan Bangunan,Karunia Jaya,"Jl. Banteng Kodim No.1216, Mbaumuku, Kec. Langke Rembong, Kabupaten Manggarai, Nusa Tenggara Tim.","Kabupaten Manggarai, Nusa Tenggara Tim.",NUSA TENGGARA TIMUR,,Indonesia,82122228701,,,-86.087.322,1.204.711.694,https://maps.google.com/?cid=0x0:0x3c1742712b506e2a,
toko bangunan,Toko Bahan Bangunan,MENA BETON SENTOSA,"Jl. Raya Ruteng Desa No.Kel, RT.01/RW.01, Compang Tuke, Kec. Langke Rembong, Kabupaten Manggarai, Nusa Tenggara Tim.","Kabupaten Manggarai, Nusa Tenggara Tim.",NUSA TENGGARA TIMUR,,Indonesia,85215154004,,,-85.971.103,1.204.476.629,https://maps.google.com/?cid=0x0:0x151a8a7d184211b5,
toko bangunan,Toko,Kios Rian putra,"GHXX+3RF, Compang Mekar, Kec. Lamba Leda, Kabupaten Manggarai Timur, Nusa Tenggara Tim.","Kabupaten Manggarai Timur, Nusa Tenggara Tim.",NUSA TENGGARA TIMUR,,Indonesia,,,,-84.523.043,1.205.995.474,https://maps.google.com/?cid=0x0:0x80166716719805cf,
toko bangunan,toko bangunan,Oriental,"Jl. Motang Rua No.38, Mbaumuku, Kec. Langke Rembong, Kabupaten Manggarai, Nusa Tenggara Tim. 86511","Mbaumuku, Kec. Langke Rembong, Kabupaten Manggarai",NUSA TENGGARA TIMUR,86511.0,Indonesia,81332227475,,,-86.065.429,1.204.656.257,https://maps.google.com/?cid=0x0:0xb967dd237af9163,
toko bangunan,Toko Bahan Bangunan,TOKO SAHABAT INTI BANGUNAN,"JL. Ruteng - Labuan Bajo, Cancar, Wae Belang, Kec. Ruteng, Kabupaten Manggarai, Nusa Tenggara Tim.","Kabupaten Manggarai, Nusa Tenggara Tim.",NUSA TENGGARA TIMUR,,Indonesia,81359982021,,,-85.896.405,1.203.779.527,https://maps.google.com/?cid=0x0:0x99120b0035e2b615,
toko bangunan,toko bangunan,Kec. Elar Selatan,"Kabupaten Manggarai Timur, Nusa Tenggara Tim.","Kabupaten Manggarai Timur, Nusa Tenggara Tim.",NUSA TENGGARA TIMUR,,Indonesia,,,,-86.439.057,1.207.613.321,https://maps.google.com/?cid=0x0:0x29c346791b550200,
toko bangunan,Toko Bahan Bangunan,Toko Bangunan ELliem Group,"F732+4WW Hawe-Wae Pitak, Jln, Kolang, Kec. Kuwus, Kabupaten Manggarai Barat, Nusa Tenggara Tim.","Kabupaten Manggarai Barat, Nusa Tenggara Tim.",NUSA TENGGARA TIMUR,,Indonesia,85237913505,,,-85.471.482,1.202.523.278,https://maps.google.com/?cid=0x0:0xe58d5f31c4ffc6fc,
toko bangunan,Toko Bahan Bangunan,TOKO BANGUNAN SINAR KASIH,"Jl. Wae Ces, Mbaumuku, Kec. Langke Rembong, Kabupaten Manggarai, Nusa Tenggara Tim.","Kabupaten Manggarai, Nusa Tenggara Tim.",NUSA TENGGARA TIMUR,,Indonesia,89508785992,,,-86.047.776,1.204.661.215,https://maps.google.com/?cid=0x0:0xdfaa29c8d1f1420f,
toko bangunan,Toko Bahan Bangunan,Toko Bangunan Saudara,"Mbaumuku, Kec. Langke Rembong, Kabupaten Manggarai, Nusa Tenggara Tim.","Kabupaten Manggarai, Nusa Tenggara Tim.",NUSA TENGGARA TIMUR,,Indonesia,85239009102,,,-86.086.449,1.204.648.361,https://maps.google.com/?cid=0x0:0x5faafa24f0a0065f,
toko bangunan,Toko Perlengkapan Rumah,Toko Bangunan Varli,"9FX3+5WJ, Jl. Hatta, Lawir, Kec. Langke Rembong, Kabupaten Manggarai, Nusa Tenggara Tim.","Kabupaten Manggarai, Nusa Tenggara Tim.",NUSA TENGGARA TIMUR,,Indonesia,85379011870,,,-86.020.285,1.204.547.513,https://maps.google.com/?cid=0x0:0x93eab3c967e6bea0,
toko bangunan,Toko Bahan Bangunan,Toko Bangunan NERA JAYA,"KA Sama, Jl. Hatta, RT.011/RW.004, Wali, Kec. Langke Rembong, Kabupaten Manggarai, Nusa Tenggara Tim.","Kabupaten Manggarai, Nusa Tenggara Tim.",NUSA TENGGARA TIMUR,,Indonesia,82359585296,,,-8.606.702,1.204.567.086,https://maps.google.com/?cid=0x0:0x1b578a2dbdbb6a09,
toko bangunan,Toko Bahan Bangunan,Toko INDOMAL 2 (Jual Bahan Bangunan),"FM6C+F5W, Satar Nawang, Kec. Sambi Rampas, Kabupaten Manggarai Timur, Nusa Tenggara Tim.","Kabupaten Manggarai Timur, Nusa Tenggara Tim.",NUSA TENGGARA TIMUR,,Indonesia,,,,-85.387.527,1.206.704.604,https://maps.google.com/?cid=0x0:0xcc280ceb90d1ef6,
toko bangunan,Toko Bahan Bangunan,UD Toda Jaya,"9GM2+Q54, Jl. Ruteng - Benteng Jawa, Benteng Jawa, Kec. Wae Rii, Kabupaten Manggarai, Nusa Tenggara Tim.","Kabupaten Manggarai, Nusa Tenggara Tim.",NUSA TENGGARA TIMUR,,Indonesia,81292808174,,,-86.156.051,1.205.004.479,https://maps.google.com/?cid=0x0:0xefb3239f48d4fd0c,
toko bangunan,Toko Bahan Bangunan,Toko Bangunan Indo Jaya,"FVWQ+2FW, Unnamed Road, Goron Talo, Kec. Komodo, Kabupaten Manggarai Barat, Nusa Tenggara Tim.","Kabupaten Manggarai Barat, Nusa Tenggara Tim.",NUSA TENGGARA TIMUR,,Indonesia,,,,-85.048.875,1.198.887.031,https://maps.google.com/?cid=0x0:0x6bdc23425b068ec8,
toko bangunan,Toko Perlengkapan Rumah,Toko kasih sayang Mukun 01,"8MRQ+9XQ, Golomeni, Mukun, Kabupaten Manggarai Timur, Nusa Tenggara Tim.","Kabupaten Manggarai Timur, Nusa Tenggara Tim.",NUSA TENGGARA TIMUR,,Indonesia,81246114289,,,-86.590.483,1.206.899.848,https://maps.google.com/?cid=0x0:0x35190db7a895efca,
toko bangunan,Grosir keramik,Toko Bangunan Sumber Berlian,"9FR7+R98, Pitak, Kec. Langke Rembong, Kabupaten Manggarai, Nusa Tenggara Tim.","Kabupaten Manggarai, Nusa Tenggara Tim.",NUSA TENGGARA TIMUR,,Indonesia,38521109,,,-86.079.539,1.204.634.541,https://maps.google.com/?cid=0x0:0x6998fb86419a6f08,
toko bangunan,Toko Perlengkapan Rumah,Kios Bangunan,"9FP8+XG6, Watu, Kec. Langke Rembong, Kabupaten Manggarai, Nusa Tenggara Tim.","Kabupaten Manggarai, Nusa Tenggara Tim.",NUSA TENGGARA TIMUR,,Indonesia,85142990426,,,-86.125.858,1.204.662.779,https://maps.google.com/?cid=0x0:0x78a4b196f069d7cc,
toko bangunan,Toko Bahan Bangunan,Bahan Bangunan,"Lekeng, Kec. Kota Komba, Kabupaten Manggarai Timur, Nusa Tenggara Tim.","Kabupaten Manggarai Timur, Nusa Tenggara Tim.",NUSA TENGGARA TIMUR,,Indonesia,81237416770,,,-88.063.557,1.206.785.556,https://maps.google.com/?cid=0x0:0xb70d92af16880084,
toko bangunan,Toko,Toko Anugrah Lima jaya pota,"JQX2+92W, Pota, Kec. Sambi Rampas, Kabupaten Manggarai Timur, Nusa Tenggara Tim.","Kabupaten Manggarai Timur, Nusa Tenggara Tim.",NUSA TENGGARA TIMUR,,Indonesia,811300185,,,-83.517.775,1.207.494.212,https://maps.google.com/?cid=0x0:0x13a286241d885112,
