Category,Real Category,Business Name,Address,City,State,Postal Code,Country,Phone,Email,Website,Latitude,Longitude,Map Link,Details Link
mall,mall,Kec. Borong,"Kabupaten Manggarai Timur, Nusa Tenggara Tim.","Kabupaten Manggarai Timur, Nusa Tenggara Tim.",NUSA TENGGARA TIMUR,,Indonesia,,,,-88.148.406,1.206.082.067,https://maps.google.com/?cid=0x0:0x2a97d54812a8d6a5,
mall,Pasar,Pasar Borong,"5JM4+JH7, Rana Loba, Kec. Borong, Kabupaten Manggarai Timur, Nusa Tenggara Tim.","Kabupaten Manggarai Timur, Nusa Tenggara Tim.",NUSA TENGGARA TIMUR,,Indonesia,82132089904,,,-88.159.516,1.206.064.329,https://maps.google.com/?cid=0x0:0xe320d4a91b49ee0a,
mall,Pusat Perbelanjaan,KIOS DAMIAN,"5JM4+WHC, Rana Loba, Kec. Borong, Kabupaten Manggarai Timur, Nusa Tenggara Tim.","Kabupaten Manggarai Timur, Nusa Tenggara Tim.",NUSA TENGGARA TIMUR,,Indonesia,,,,-88.151.774,120.606.406,https://maps.google.com/?cid=0x0:0xc520a68a4ff40017,
mall,Pusat Perbelanjaan,Pio-pio Cell,"5JX7+4H3, Rana Loba, Kec. Borong, Kabupaten Manggarai Timur, Nusa Tenggara Tim.","Kabupaten Manggarai Timur, Nusa Tenggara Tim.",NUSA TENGGARA TIMUR,,Indonesia,,,,-88.022.467,1.206.139.153,https://maps.google.com/?cid=0x0:0x5bac931f7105cde6,
mall,Kantor Pemerintah,MPP (Mall Pelayanan Publik) Manggarai Timur,"5JV6+JCF, Rana Loba, Kec. Borong, Kabupaten Manggarai Timur, Nusa Tenggara Tim.","Kabupaten Manggarai Timur, Nusa Tenggara Tim.",NUSA TENGGARA TIMUR,,Indonesia,,,,-88.058.766,1.206.110.959,https://maps.google.com/?cid=0x0:0x9b47d3e78c8c2a3e,
mall,Pusat Perbelanjaan,Surya Jaya,"6J69+HXW, Jl. Ki Hajar Dewantara Peot Borong Flores, Rana Loba, Kec. Borong, Kabupaten Manggarai Timur, Nusa Tenggara Tim.","Kabupaten Manggarai Timur, Nusa Tenggara Tim.",NUSA TENGGARA TIMUR,,Indonesia,,,,-87.885.104,1.206.199.546,https://maps.google.com/?cid=0x0:0xd2471913c9183db9,
mall,Pembangunan Perumahan,Pasar Impres Terpadu Jong,"8M6J+5V7, Benteng Raja, Kec. Borong, Kabupaten Manggarai Timur, Nusa Tenggara Tim.","Kabupaten Manggarai Timur, Nusa Tenggara Tim.",NUSA TENGGARA TIMUR,,Indonesia,,,,-86.895.953,1.206.821.869,https://maps.google.com/?cid=0x0:0x93fea35e9662faa0,
mall,Komplek perumahan,"Pasar Perang Wunis, Desa Ngampang Mas","7JMP+P3C, Desa Perang Wunis, Kec. Borong, Kabupaten Manggarai Timur, Nusa Tenggara Tim.","Kabupaten Manggarai Timur, Nusa Tenggara Tim.",NUSA TENGGARA TIMUR,,Indonesia,,,,-87.156.814,1.206.351.517,https://maps.google.com/?cid=0x0:0x126a87021017b4fe,
mall,Kios,Baim Rental,"6HXV+23P Jengok Bangka Kantar, Golo Kantar, Kec. Borong, Kabupaten Manggarai Timur, Nusa Tenggara Tim.","Kabupaten Manggarai Timur, Nusa Tenggara Tim.",NUSA TENGGARA TIMUR,,Indonesia,,,,-87.524.039,1.205.927.027,https://maps.google.com/?cid=0x0:0xf6c2e2aea050c0f9,
mall,Toko Fotokopi,CENTRAL FOTO COPY,"Rana Loba, Kec. Borong, Kabupaten Manggarai Timur, Nusa Tenggara Tim.","Kabupaten Manggarai Timur, Nusa Tenggara Tim.",NUSA TENGGARA TIMUR,,Indonesia,81237995995,,,-88.147.777,1.206.078.019,https://maps.google.com/?cid=0x0:0x22d4c3dfc067f2e,
mall,Toko,Toko Anita,"6HWF+86G, Jalan Wae Musur. Golo Mongkok desa Watu Mori, Kec, Sita, Kec. Rana Mese, Kabupaten Manggarai Timur, Nusa Tenggara Tim.","Kabupaten Manggarai Timur, Nusa Tenggara Tim.",NUSA TENGGARA TIMUR,,Indonesia,,,,-87.541.762,1.205.730.832,https://maps.google.com/?cid=0x0:0x67819997469f9eae,
mall,Pusat Perbelanjaan,KIOS LEGORY PEOT,"6JCC+M8V, Kelurahan Peot, Kec. Borong, Kabupaten Manggarai Timur, Nusa Tenggara Tim.","Kabupaten Manggarai Timur, Nusa Tenggara Tim.",NUSA TENGGARA TIMUR,,Indonesia,81236284006,,,-87.782.553,1.206.207.958,https://maps.google.com/?cid=0x0:0xfbf34f433a582cdb,
mall,Pusat Perbelanjaan,UNOK CELL,"5JM5+RR8, Unnamed Road, Rana Loba, Kec. Borong, Kabupaten Manggarai Timur, Nusa Tenggara Tim.","Kabupaten Manggarai Timur, Nusa Tenggara Tim.",NUSA TENGGARA TIMUR,,Indonesia,81236526580,,,-88.154.682,1.206.095.856,https://maps.google.com/?cid=0x0:0x8bdf4d60d809395a,
mall,Pusat Perbelanjaan,central cell,"5JP5+34V, Rana Loba, Kec. Borong, Kabupaten Manggarai Timur, Nusa Tenggara Tim.","Kabupaten Manggarai Timur, Nusa Tenggara Tim.",NUSA TENGGARA TIMUR,,Indonesia,81339592638,,,-88.147.645,1.206.077.858,https://maps.google.com/?cid=0x0:0xea943cce0104d957,
mall,Pusat Perbelanjaan,Kios 4 putra.,"5GQQ+XG8, Bea Ngencung, Kec. Borong, Kabupaten Manggarai Timur, Nusa Tenggara Tim.","Kabupaten Manggarai Timur, Nusa Tenggara Tim.",NUSA TENGGARA TIMUR,,Indonesia,,,,-88.108.022,1.205.380.713,https://maps.google.com/?cid=0x0:0x6868bb4082de45ec,
mall,Kios,Kios Berkat Kasih,"5HPH+H7X, Nanga Labang, Kec. Borong, Kabupaten Manggarai Timur, Nusa Tenggara Tim.","Kabupaten Manggarai Timur, Nusa Tenggara Tim.",NUSA TENGGARA TIMUR,,Indonesia,,,,-88.135.243,1.205.782.196,https://maps.google.com/?cid=0x0:0xec60739e3e0ec13c,
mall,Pusat Perbelanjaan,Bakso Pak Jum Semarang Cabang Kampung Tokol,"8H48+M4H, Golo Loni, Kec. Borong, Kabupaten Manggarai Timur, Nusa Tenggara Tim.","Kabupaten Manggarai Timur, Nusa Tenggara Tim.",NUSA TENGGARA TIMUR,,Indonesia,81246880674,,,-86.933.159,1.205.653.485,https://maps.google.com/?cid=0x0:0xbe22e3f5b974f0ff,
mall,Layanan reparasi,Ririn CELL,"8H24+9R6, Unnamed Road, Nusa Tenggara Tim., Sita, Kec. Borong, Kabupaten Manggarai Timur, Nusa Tenggara Tim.","Kabupaten Manggarai Timur, Nusa Tenggara Tim.",NUSA TENGGARA TIMUR,,Indonesia,8123906778,,,-8.699.082,1.205.570.252,https://maps.google.com/?cid=0x0:0xa7ae1f397f9cba67,
mall,Toko,Yessi Kios,"8MVR+94W, Golomeni, Kec. Kota Komba, Kabupaten Manggarai Timur, Nusa Tenggara Tim.","Kabupaten Manggarai Timur, Nusa Tenggara Tim.",NUSA TENGGARA TIMUR,,Indonesia,,,,-86.565.231,1.206.903.142,https://maps.google.com/?cid=0x0:0x9aaedd1af8425cd8,
mall,Pusat Perbelanjaan,Kios Acsesories Dhiva-Dhea,"5JM6+QV3, Unnamed Road, Rana Loba, Kec. Borong, Kabupaten Manggarai Timur, Nusa Tenggara Tim.","Kabupaten Manggarai Timur, Nusa Tenggara Tim.",NUSA TENGGARA TIMUR,,Indonesia,81237317399,,,-88.156.022,1.206.121.828,https://maps.google.com/?cid=0x0:0xc0890c3aef222ac5,
mall,Rumah Kaca,cabang paka,"7HM8+922, Sita, Kec. Rana Mese, Kabupaten Manggarai Timur, Nusa Tenggara Tim.","Kabupaten Manggarai Timur, Nusa Tenggara Tim.",NUSA TENGGARA TIMUR,,Indonesia,,,,-87.166.082,1.205.650.177,https://maps.google.com/?cid=0x0:0xe48587ff64ee1697,
mall,mall,Nusa Tenggara Tim.,,Nusa Tenggara Tim.,NUSA TENGGARA TIMUR,,Indonesia,,,,-86.573.819,1.210.793.705,https://maps.google.com/?cid=0x0:0x1030bfbcaf71ae0,
mall,Pusat Perbelanjaan,Poco Rejeng,"FF4P+3V5, Poco, Kec. Wae Rii, Kabupaten Manggarai, Nusa Tenggara Tim.","Kabupaten Manggarai, Nusa Tenggara Tim.",NUSA TENGGARA TIMUR,,Indonesia,82236308320,,,-8.544.852,1.204.872.188,https://maps.google.com/?cid=0x0:0xdc09254e12df11af,
mall,Pusat Perbelanjaan,Kios Rana Mese,"9HR2+P42, RW.bealaing, Bangka Pau, Kec. Poco Ranaka, Kabupaten Manggarai Timur, Nusa Tenggara Tim.","Kabupaten Manggarai Timur, Nusa Tenggara Tim.",NUSA TENGGARA TIMUR,,Indonesia,,,,-86.082.336,1.205.502.515,https://maps.google.com/?cid=0x0:0x3ec38e446094afce,
mall,Hipermarket,Lippo Plaza Kupang,"Jl. Veteran, Fatululi, Kec. Oebobo, Kota Kupang, Nusa Tenggara Tim.","Kota Kupang, Nusa Tenggara Tim.",NUSA TENGGARA TIMUR,,Indonesia,,,,-10.158.877,1.236.112.188,https://maps.google.com/?cid=0x0:0x2d473260f9494ae7,
mall,Pembangunan Perumahan,Pasar Mano,"9GWQ+5R6, Mando Sawu, Kec. Poco Ranaka, Kabupaten Manggarai Timur, Nusa Tenggara Tim.","Kabupaten Manggarai Timur, Nusa Tenggara Tim.",NUSA TENGGARA TIMUR,,Indonesia,,,,-86.045.847,120.539.516,https://maps.google.com/?cid=0x0:0x9cff203155470509,
mall,Toserba,Ramayana Kupang,"Jl. W.J. Lalamentik, Oebufu, Kec. Oebobo, Kota Kupang, Nusa Tenggara Tim. 85111","Oebufu, Kec. Oebobo, Kota Kupang",NUSA TENGGARA TIMUR,85111.0,Indonesia,380840280,,,-101.739.457,1.236.130.089,https://maps.google.com/?cid=0x0:0x292ab50cd3020d1a,
mall,mall,BOK,"CJJ7+VJC, Tango Molas, Kec. Poco Ranaka, Kabupaten Manggarai Timur, Nusa Tenggara Tim.","Kabupaten Manggarai Timur, Nusa Tenggara Tim.",NUSA TENGGARA TIMUR,,Indonesia,,,,-85.678.043,1.206.140.048,https://maps.google.com/?cid=0x0:0xd42f6e5a1ba31069,
mall,mall,Kec. Poco Ranaka,"Kabupaten Manggarai Timur, Nusa Tenggara Tim.","Kabupaten Manggarai Timur, Nusa Tenggara Tim.",NUSA TENGGARA TIMUR,,Indonesia,,,,-86.082.296,1.205.494.563,https://maps.google.com/?cid=0x0:0x82314d6de8f2130,
mall,Komplek perumahan,Kios prilo Ngkiong dora,"CMJ4+MXJ, Ngkiong Dora, Kec. Poco Ranaka, Kabupaten Manggarai Timur, Nusa Tenggara Tim.","Kabupaten Manggarai Timur, Nusa Tenggara Tim.",NUSA TENGGARA TIMUR,,Indonesia,,,,-85.682.845,1.206.574.024,https://maps.google.com/?cid=0x0:0x5ec28c713d579557,
mall,Toko bahan makanan,Alio cell,"CH4G+2G5, Jl. Ruteng - Benteng Jawa, Golo Nderu, Kec. Poco Ranaka, Kabupaten Manggarai Timur, Nusa Tenggara Tim.","Kabupaten Manggarai Timur, Nusa Tenggara Tim.",NUSA TENGGARA TIMUR,,Indonesia,,,,-8.594.989,1.205.763.493,https://maps.google.com/?cid=0x0:0xa715b770e12f5ace,
mall,Pusat Perbelanjaan,Pot bunga wae reno,"9GVG+2CG, Golo Lobos, Kec. Poco Ranaka, Kabupaten Manggarai Timur, Nusa Tenggara Tim.","Kabupaten Manggarai Timur, Nusa Tenggara Tim.",NUSA TENGGARA TIMUR,,Indonesia,81239642455,,,-86.074.347,1.205.260.739,https://maps.google.com/?cid=0x0:0x72fff3eabf1f9564,
mall,Komplek perumahan,home agen,"FHFF+26, Pocong, Kec. Poco Ranaka, Kabupaten Manggarai Timur, Nusa Tenggara Tim.","Kabupaten Manggarai Timur, Nusa Tenggara Tim.",NUSA TENGGARA TIMUR,,Indonesia,,,,-85.274.578,1.205.730.555,https://maps.google.com/?cid=0x0:0xd5bf0a97d9ff1db5,
mall,Sekolah Dasar,SDK Mano 1,"9GRX+PQ6, Bangka Pau, Kec. Poco Ranaka, Kabupaten Manggarai Timur, Nusa Tenggara Tim.","Kabupaten Manggarai Timur, Nusa Tenggara Tim.",NUSA TENGGARA TIMUR,,Indonesia,,,,-86.082.226,1.205.494.032,https://maps.google.com/?cid=0x0:0x9f9316ef8f565144,
mall,Pusat Perbelanjaan,"Bakso Robo,Jalan Ranaka Kota Ruteng","GHHC+GPW, Jl. Ruteng - Benteng Jawa, Ranaka, Kec. Lamba Leda, Kabupaten Manggarai Timur, Nusa Tenggara Tim.","Kabupaten Manggarai Timur, Nusa Tenggara Tim.",NUSA TENGGARA TIMUR,,Indonesia,8116112138,,,-84.711.485,1.205.718.434,https://maps.google.com/?cid=0x0:0x74de1d167c52ae16,
mall,Toko,Kios cian LENTO,"CHMG+26C, Desa lento, Kec. Poco Ranaka, Kabupaten Manggarai Timur, Nusa Tenggara Tim.","Kabupaten Manggarai Timur, Nusa Tenggara Tim.",NUSA TENGGARA TIMUR,,Indonesia,,,,-85.674.252,1.205.755.138,https://maps.google.com/?cid=0x0:0xbc89cc0cd247c7d7,
mall,Pusat Perbelanjaan,Kios Introbazi,"9GVV+R9W, Mando Sawu, Kec. Poco Ranaka, Kabupaten Manggarai Timur, Nusa Tenggara Tim.","Kabupaten Manggarai Timur, Nusa Tenggara Tim.",NUSA TENGGARA TIMUR,,Indonesia,81237967812,,,-86.053.841,1.205.434.584,https://maps.google.com/?cid=0x0:0xd70f8699cacb5af5,
mall,Tempat penjualan tiket,Jual Tiket pesawat,"9GRC+5X6, Ranaka, Kec. Wae Rii, Kabupaten Manggarai, Nusa Tenggara Tim.","Kabupaten Manggarai, Nusa Tenggara Tim.",NUSA TENGGARA TIMUR,,Indonesia,,,,-86.095.963,1.205.223.863,https://maps.google.com/?cid=0x0:0xb2d51d7767437903,
mall,Pusat Perbelanjaan,Bakso Robo,"9GRC+5X2, Ranaka, Kec. Wae Rii, Kabupaten Manggarai, Nusa Tenggara Tim.","Kabupaten Manggarai, Nusa Tenggara Tim.",NUSA TENGGARA TIMUR,,Indonesia,,,,-86.096.153,1.205.223.913,https://maps.google.com/?cid=0x0:0x125a599f68e0064b,
mall,Toko umum,kios fat,"GH9R+6CG, kedel, Watu Lanur, Kec. Poco Ranaka, Kabupaten Manggarai Timur, Nusa Tenggara Tim.","Kabupaten Manggarai Timur, Nusa Tenggara Tim.",NUSA TENGGARA TIMUR,,Indonesia,82110039449,,,-84.819.457,1.205.910.705,https://maps.google.com/?cid=0x0:0x88fc0a738ed74621,
mall,Minimarket,Alfamart Ruteng Jl. Raya Komodo,"Pitak, Kec. Langke Rembong, Kabupaten Manggarai, Nusa Tenggara Tim.","Kabupaten Manggarai, Nusa Tenggara Tim.",NUSA TENGGARA TIMUR,,Indonesia,,,,-86.068.142,1.204.627.785,https://maps.google.com/?cid=0x0:0x491f1f0b20c6dee2,
mall,Pom bensin/SPBU,Terminal Bus Carep,"9FJW+XVQ, Wae Rii, Kec. Wae Rii, Kabupaten Manggarai, Nusa Tenggara Tim.","Kabupaten Manggarai, Nusa Tenggara Tim.",NUSA TENGGARA TIMUR,,Indonesia,,,,-86.175.261,1.204.972.422,https://maps.google.com/?cid=0x0:0x8a36f1e084449c47,
mall,Kantor Pemerintah,Kantor Kecamatan Poco Ranaka,"9GVR+RX5, Mando Sawu, Kec. Poco Ranaka, Kabupaten Manggarai Timur, Nusa Tenggara Tim.","Kabupaten Manggarai Timur, Nusa Tenggara Tim.",NUSA TENGGARA TIMUR,,Indonesia,,,,-86.054.881,1.205.424.703,https://maps.google.com/?cid=0x0:0x596218b81c69b418,
mall,Pasar,Pasar Puni,"Pau, Kec. Langke Rembong, Kabupaten Manggarai, Nusa Tenggara Tim.","Kabupaten Manggarai, Nusa Tenggara Tim.",NUSA TENGGARA TIMUR,,Indonesia,,,,-86.157.012,120.460.678,https://maps.google.com/?cid=0x0:0xeab6faafd9e23495,
mall,Pusat Perbelanjaan,kios rini,"9FVF+78Q, Tenda, Kec. Langke Rembong, Kabupaten Manggarai, Nusa Tenggara Tim.","Kabupaten Manggarai, Nusa Tenggara Tim.",NUSA TENGGARA TIMUR,,Indonesia,38522901,,,-86.067.901,1.204.733.744,https://maps.google.com/?cid=0x0:0x45c2c2fde8cbc650,
mall,Kios,Kios Weik,"FF3V+VJW, Compang Ndehes, Kec. Wae Rii, Kabupaten Manggarai, Nusa Tenggara Tim.","Kabupaten Manggarai, Nusa Tenggara Tim.",NUSA TENGGARA TIMUR,,Indonesia,,,,-85.452.531,1.204.940.678,https://maps.google.com/?cid=0x0:0x904c211a29976d72,
mall,Pusat Perbelanjaan,Kios Sela,"9FMH+P78, Jl. Gewak I, Tenda, Kec. Langke Rembong, Kabupaten Manggarai, Nusa Tenggara Tim.","Kabupaten Manggarai, Nusa Tenggara Tim.",NUSA TENGGARA TIMUR,,Indonesia,85239342078,,,-86.157.085,1.204.781.981,https://maps.google.com/?cid=0x0:0x29d82e09c2976b1e,
mall,mall,Kec. Lamba Leda,"Kabupaten Manggarai Timur, Nusa Tenggara Tim.","Kabupaten Manggarai Timur, Nusa Tenggara Tim.",NUSA TENGGARA TIMUR,,Indonesia,,,,-8.303.018,1.205.841.504,https://maps.google.com/?cid=0x0:0x250909596892d132,
mall,Kios,Toko Mentari,"Tengku Leda, Kec. Lamba Leda, Kabupaten Manggarai Timur, Nusa Tenggara Tim.","Kabupaten Manggarai Timur, Nusa Tenggara Tim.",NUSA TENGGARA TIMUR,,Indonesia,,,,-84.593.135,1.205.717.502,https://maps.google.com/?cid=0x0:0xafe599bc580dc6a3,
mall,mall,Starlite,"GHVF+QQQ, Tengku Leda, Kec. Lamba Leda, Kabupaten Manggarai Timur, Nusa Tenggara Tim.","Kabupaten Manggarai Timur, Nusa Tenggara Tim.",NUSA TENGGARA TIMUR,,Indonesia,,,,-84.555.429,1.205.744.843,https://maps.google.com/?cid=0x0:0x8cbcef6083e64548,
mall,Pusat Perbelanjaan,Faris koseng,"GGRX+RQF, Goreng Meni, Kec. Lamba Leda, Kabupaten Manggarai Timur, Nusa Tenggara Tim.","Kabupaten Manggarai Timur, Nusa Tenggara Tim.",NUSA TENGGARA TIMUR,,Indonesia,,,,-84.579.188,1.205.493,https://maps.google.com/?cid=0x0:0xac717b35d3253930,
mall,Toko Pakaian,Distro MBC,"GHR9+3MQ, Tengkulawar, Kec. Lamba Leda, Kabupaten Manggarai Timur, Nusa Tenggara Tim.","Kabupaten Manggarai Timur, Nusa Tenggara Tim.",NUSA TENGGARA TIMUR,,Indonesia,81340590939,,,-84.597.778,1.205.692.343,https://maps.google.com/?cid=0x0:0x30d488227ceccc8a,
mall,Pusat Perbelanjaan,"Bakso Robo,Jalan Ranaka Kota Ruteng","GHHC+GPW, Jl. Ruteng - Benteng Jawa, Ranaka, Kec. Lamba Leda, Kabupaten Manggarai Timur, Nusa Tenggara Tim.","Kabupaten Manggarai Timur, Nusa Tenggara Tim.",NUSA TENGGARA TIMUR,,Indonesia,8116112138,,,-84.711.485,1.205.718.434,https://maps.google.com/?cid=0x0:0x74de1d167c52ae16,
mall,Toko,Kios Bapak Gaspar Sam Jonta,"JGPH+95C, Nampar Tabang, Kec. Lamba Leda, Kabupaten Manggarai Timur, Nusa Tenggara Tim.","Kabupaten Manggarai Timur, Nusa Tenggara Tim.",NUSA TENGGARA TIMUR,,Indonesia,,,,-83.640.738,1.205.278.871,https://maps.google.com/?cid=0x0:0x58b4f9fadab1a6f7,
mall,Pom bensin/SPBU,Terminal Reo,"MFQJ+4P8, Mata Air, Kec. Reok, Kabupaten Manggarai, Nusa Tenggara Tim.","Kabupaten Manggarai, Nusa Tenggara Tim.",NUSA TENGGARA TIMUR,,Indonesia,81246642428,,,-83.122.183,1.204.818.136,https://maps.google.com/?cid=0x0:0x54db498d829941e9,
mall,Toko Swalayan,Rc benteng jawa,"JHWF+HHG, Satar Padut, Kec. Lamba Leda, Kabupaten Manggarai Timur, Nusa Tenggara Tim.","Kabupaten Manggarai Timur, Nusa Tenggara Tim.",NUSA TENGGARA TIMUR,,Indonesia,81280690230,,,-8.353.574,1.205.739.579,https://maps.google.com/?cid=0x0:0xaef09894f721f1bb,
mall,Toko umum,Ayyas galery,"MFQP+58J, Mata Air, Kec. Reok, Kabupaten Manggarai, Nusa Tenggara Tim.","Kabupaten Manggarai, Nusa Tenggara Tim.",NUSA TENGGARA TIMUR,,Indonesia,82340788993,,,-83.120.393,1.204.857.691,https://maps.google.com/?cid=0x0:0x26cf7bcb8a7c6d86,
mall,Toko,Zahran Toko,"MFRQ+3FX, Reo, Reok, Terusan, Pelabuhan Kedindi, Kabupaten Manggarai, Nusa Tenggara Tim.","Kabupaten Manggarai, Nusa Tenggara Tim.",NUSA TENGGARA TIMUR,,Indonesia,,,,-83.097.608,1.204.887.313,https://maps.google.com/?cid=0x0:0xc71015bc13723444,
mall,Komplek perumahan,home agen,"FHFF+26, Pocong, Kec. Poco Ranaka, Kabupaten Manggarai Timur, Nusa Tenggara Tim.","Kabupaten Manggarai Timur, Nusa Tenggara Tim.",NUSA TENGGARA TIMUR,,Indonesia,,,,-85.274.578,1.205.730.555,https://maps.google.com/?cid=0x0:0xd5bf0a97d9ff1db5,
mall,Komplek perumahan,leda kolang,"F72G+3G7, Pangga, Kec. Kuwus, Kabupaten Manggarai Barat, Nusa Tenggara Tim.","Kabupaten Manggarai Barat, Nusa Tenggara Tim.",NUSA TENGGARA TIMUR,,Indonesia,82187538858,,,-85.498.475,1.202.763.093,https://maps.google.com/?cid=0x0:0x45d33b1b5bec1b7e,
mall,Toko umum,kios fat,"GH9R+6CG, kedel, Watu Lanur, Kec. Poco Ranaka, Kabupaten Manggarai Timur, Nusa Tenggara Tim.","Kabupaten Manggarai Timur, Nusa Tenggara Tim.",NUSA TENGGARA TIMUR,,Indonesia,82110039449,,,-84.819.457,1.205.910.705,https://maps.google.com/?cid=0x0:0x88fc0a738ed74621,
mall,Pembangunan Perumahan,Lamba keli,"GHXC+2X2, Benteng Jawa, lamba keli, Kabupaten Manggarai Timur, Nusa Tenggara Tim.","Kabupaten Manggarai Timur, Nusa Tenggara Tim.",NUSA TENGGARA TIMUR,,Indonesia,,,,-84.524.894,1.205.723.942,https://maps.google.com/?cid=0x0:0xa38ee61b5e35132c,
mall,Tujuan Wisata,Dampek,"MHWM+QMR, Satar Padut, Kec. Lamba Leda, Kabupaten Manggarai Timur, Nusa Tenggara Tim.","Kabupaten Manggarai Timur, Nusa Tenggara Tim.",NUSA TENGGARA TIMUR,,Indonesia,,,,-8.303.018,1.205.841.504,https://maps.google.com/?cid=0x0:0xa6762c0b8690e271,
mall,Tempat Ziarah,Benteng Jawa,"GHXF+VMF, Tengku Leda, Kec. Lamba Leda, Kabupaten Manggarai Timur, Nusa Tenggara Tim.","Kabupaten Manggarai Timur, Nusa Tenggara Tim.",NUSA TENGGARA TIMUR,,Indonesia,,,,-84.503.181,1.205.741.774,https://maps.google.com/?cid=0x0:0x7ef72700cf1252ef,
mall,Toko,DANI Kios,"FMQH+F2M, Golo Wangkung, Kec. Sambi Rampas, Kabupaten Manggarai Timur, Nusa Tenggara Tim.","Kabupaten Manggarai Timur, Nusa Tenggara Tim.",NUSA TENGGARA TIMUR,,Indonesia,,,,-85.112.878,1.206.775.602,https://maps.google.com/?cid=0x0:0xf06091cef1c4dc31,
mall,Perhimpunan Pengembang Perumahan,Wae Malang,"JJ7P+F44, Haju Wangi, Kec. Lamba Leda, Kabupaten Manggarai Timur, Nusa Tenggara Tim.","Kabupaten Manggarai Timur, Nusa Tenggara Tim.",NUSA TENGGARA TIMUR,,Indonesia,,,,-83.863.728,1.206.353.188,https://maps.google.com/?cid=0x0:0xc400a509bd9060ae,
mall,Minimarket,Alfamart Reo Mata Air,"MFQP+G3J, Unnamed Road, Mata Air, Kec. Reok, Kabupaten Manggarai, Nusa Tenggara Tim.","Kabupaten Manggarai, Nusa Tenggara Tim.",NUSA TENGGARA TIMUR,,Indonesia,,,,-83.111.585,1.204.851.394,https://maps.google.com/?cid=0x0:0x2e0defca8354f1bf,
mall,Toko Bahan Bangunan,Toko INDOMAL 2 (Jual Bahan Bangunan),"FM6C+F5W, Satar Nawang, Kec. Sambi Rampas, Kabupaten Manggarai Timur, Nusa Tenggara Tim.","Kabupaten Manggarai Timur, Nusa Tenggara Tim.",NUSA TENGGARA TIMUR,,Indonesia,,,,-85.387.527,1.206.704.604,https://maps.google.com/?cid=0x0:0xcc280ceb90d1ef6,
mall,mall,Ronting,"MHX7+966, Satar Kampas, Kec. Lamba Leda, Kabupaten Manggarai Timur, Nusa Tenggara Tim.","Kabupaten Manggarai Timur, Nusa Tenggara Tim.",NUSA TENGGARA TIMUR,,Indonesia,,,,-83.015.978,1.205.630.131,https://maps.google.com/?cid=0x0:0x6ac452bd8fad7a52,
mall,mall,Kec. Sambi Rampas,"Kabupaten Manggarai Timur, Nusa Tenggara Tim.","Kabupaten Manggarai Timur, Nusa Tenggara Tim.",NUSA TENGGARA TIMUR,,Indonesia,,,,-8.347.378,1.207.548.886,https://maps.google.com/?cid=0x0:0xf9c936bcfd9766a6,
mall,Toko,Maya Kios Logo,"JPWV+X8M, Unnamed Road, Pota, Kec. Sambi Rampas, Kabupaten Manggarai Timur, Nusa Tenggara Tim.","Kabupaten Manggarai Timur, Nusa Tenggara Tim.",NUSA TENGGARA TIMUR,,Indonesia,,,,-83.525.256,1.207.432.972,https://maps.google.com/?cid=0x0:0xe0e2557cfcb9c95e,
mall,Toko,DANI Kios,"FMQH+F2M, Golo Wangkung, Kec. Sambi Rampas, Kabupaten Manggarai Timur, Nusa Tenggara Tim.","Kabupaten Manggarai Timur, Nusa Tenggara Tim.",NUSA TENGGARA TIMUR,,Indonesia,,,,-85.112.878,1.206.775.602,https://maps.google.com/?cid=0x0:0xf06091cef1c4dc31,
mall,Pasar,Kios sembako Dua putry Rana Teno,"GM8P+VJ8, Unnamed Road, Lada Mese, Kec. Sambi Rampas, Kabupaten Manggarai Timur, Nusa Tenggara Tim.","Kabupaten Manggarai Timur, Nusa Tenggara Tim.",NUSA TENGGARA TIMUR,,Indonesia,,,,-84.828.294,1.206.865.923,https://maps.google.com/?cid=0x0:0x586aedbaf0f930c3,
mall,Pusat Perbelanjaan,Pasar Kembo,"JV3J+97F, Golo Lijun, Kec. Elar, Kabupaten Manggarai Timur, Nusa Tenggara Tim.","Kabupaten Manggarai Timur, Nusa Tenggara Tim.",NUSA TENGGARA TIMUR,,Indonesia,,,,-83.965.517,1.208.806.798,https://maps.google.com/?cid=0x0:0x29d5eb4042ca0d86,
mall,Toko,Telage,"JPWH+3M9, Pota, Kec. Sambi Rampas, Kabupaten Manggarai Timur, Nusa Tenggara Tim.","Kabupaten Manggarai Timur, Nusa Tenggara Tim.",NUSA TENGGARA TIMUR,,Indonesia,82218126638,,,-83.548.304,1.207.292.472,https://maps.google.com/?cid=0x0:0x4bb18d8da15fb4d8,
mall,Kios,Pusat Madu asli ABYZAN,"GP8R+V93, Unnamed Road, Sisir, Kec. Elar, Kabupaten Manggarai Timur, Nusa Tenggara Tim.","Kabupaten Manggarai Timur, Nusa Tenggara Tim.",NUSA TENGGARA TIMUR,,Indonesia,82342962852,,,-84.828.614,1.207.409.278,https://maps.google.com/?cid=0x0:0x819abb0de9a929cc,
mall,Komplek perumahan,Kios prilo Ngkiong dora,"CMJ4+MXJ, Ngkiong Dora, Kec. Poco Ranaka, Kabupaten Manggarai Timur, Nusa Tenggara Tim.","Kabupaten Manggarai Timur, Nusa Tenggara Tim.",NUSA TENGGARA TIMUR,,Indonesia,,,,-85.682.845,1.206.574.024,https://maps.google.com/?cid=0x0:0x5ec28c713d579557,
mall,Sekolah menengah,SMKN 1 Sambi Rampas,"Golo Wangkung, Kec. Sambi Rampas, Kabupaten Manggarai Timur, Nusa Tenggara Tim.","Kabupaten Manggarai Timur, Nusa Tenggara Tim.",NUSA TENGGARA TIMUR,,Indonesia,81246462852,,,-8.498.389,1.206.651.762,https://maps.google.com/?cid=0x0:0xca341558e89cdbed,
mall,Tujuan Wisata,Nanga Logo,"MP2W+87M, Pota, Kec. Sambi Rampas, Kabupaten Manggarai Timur, Nusa Tenggara Tim.","Kabupaten Manggarai Timur, Nusa Tenggara Tim.",NUSA TENGGARA TIMUR,,Indonesia,,,,-83.491.698,1.207.456.567,https://maps.google.com/?cid=0x0:0x5305d10fe41a7526,
mall,Tujuan Wisata,Pantai Telage,"MQ32+593, Pota, Kec. Sambi Rampas, Kabupaten Manggarai Timur, Nusa Tenggara Tim.","Kabupaten Manggarai Timur, Nusa Tenggara Tim.",NUSA TENGGARA TIMUR,,Indonesia,,,,-834.712,1.207.509.162,https://maps.google.com/?cid=0x0:0x1d6d1530b226403,
mall,Tujuan Wisata,Watu Pajung Beach,"MR3C+3HG, Nanga Mbaur, Kec. Sambi Rampas, Kabupaten Manggarai Timur, Nusa Tenggara Tim.","Kabupaten Manggarai Timur, Nusa Tenggara Tim.",NUSA TENGGARA TIMUR,,Indonesia,81246287536,,,-83.473.221,1.208.214.458,https://maps.google.com/?cid=0x0:0xd44c11cef73bd3e2,
mall,Toko umum,Kios om Vino,"JGCW+2VV, Nampar Tabang, Kec. Lamba Leda, Kabupaten Manggarai Timur, Nusa Tenggara Tim.","Kabupaten Manggarai Timur, Nusa Tenggara Tim.",NUSA TENGGARA TIMUR,,Indonesia,,,,-83.798.837,1.205.471.809,https://maps.google.com/?cid=0x0:0xe708f9c298cdbd0e,
mall,Kios,Kios Gun,"FRHG+V55, Lempang Paji, Kec. Elar Selatan, Kabupaten Manggarai Timur, Nusa Tenggara Tim.","Kabupaten Manggarai Timur, Nusa Tenggara Tim.",NUSA TENGGARA TIMUR,,Indonesia,,,,-85.203.726,1.208.254.825,https://maps.google.com/?cid=0x0:0x540716981990557,
mall,Toserba,Toko Karya Harapan,"9QWW+M78, Unnamed Road, Teno Mese, Kec. Elar, Kabupaten Manggarai Timur, Nusa Tenggara Tim.","Kabupaten Manggarai Timur, Nusa Tenggara Tim.",NUSA TENGGARA TIMUR,,Indonesia,81333509877,,,-8.603.334,120.795.716,https://maps.google.com/?cid=0x0:0xa586fcaebc3284a8,
mall,Area Mendaki,Golo Lantar,"FMHV+5W6, Golo Ngawan, Kec. Sambi Rampas, Kabupaten Manggarai Timur, Nusa Tenggara Tim.","Kabupaten Manggarai Timur, Nusa Tenggara Tim.",NUSA TENGGARA TIMUR,,Indonesia,82237750502,,,-85.220.989,1.206.947.551,https://maps.google.com/?cid=0x0:0x2b8d2e6ad5c5c02f,
mall,Toko bahan makanan,Alio cell,"CH4G+2G5, Jl. Ruteng - Benteng Jawa, Golo Nderu, Kec. Poco Ranaka, Kabupaten Manggarai Timur, Nusa Tenggara Tim.","Kabupaten Manggarai Timur, Nusa Tenggara Tim.",NUSA TENGGARA TIMUR,,Indonesia,,,,-8.594.989,1.205.763.493,https://maps.google.com/?cid=0x0:0xa715b770e12f5ace,
mall,Kios,Toko Mentari,"Tengku Leda, Kec. Lamba Leda, Kabupaten Manggarai Timur, Nusa Tenggara Tim.","Kabupaten Manggarai Timur, Nusa Tenggara Tim.",NUSA TENGGARA TIMUR,,Indonesia,,,,-84.593.135,1.205.717.502,https://maps.google.com/?cid=0x0:0xafe599bc580dc6a3,
mall,Pusat Perbelanjaan,Pepok Mart,"Mbata, Jalan Ruteng, Rana Mbeling, Elar, Kabupaten Manggarai Timur, Nusa Tenggara Tim.","Kabupaten Manggarai Timur, Nusa Tenggara Tim.",NUSA TENGGARA TIMUR,,Indonesia,,,,-86.799.851,120.725.686,https://maps.google.com/?cid=0x0:0xb33d11f9e57ebb93,
mall,Toko umum,kios fat,"GH9R+6CG, kedel, Watu Lanur, Kec. Poco Ranaka, Kabupaten Manggarai Timur, Nusa Tenggara Tim.","Kabupaten Manggarai Timur, Nusa Tenggara Tim.",NUSA TENGGARA TIMUR,,Indonesia,82110039449,,,-84.819.457,1.205.910.705,https://maps.google.com/?cid=0x0:0x88fc0a738ed74621,
mall,mall,Kec. Elar,"Kabupaten Manggarai Timur, Nusa Tenggara Tim.","Kabupaten Manggarai Timur, Nusa Tenggara Tim.",NUSA TENGGARA TIMUR,,Indonesia,,,,-84.244.952,1.208.728.615,https://maps.google.com/?cid=0x0:0xa3e720c639fa11c4,
mall,Toko bahan makanan,Alio cell,"CH4G+2G5, Jl. Ruteng - Benteng Jawa, Golo Nderu, Kec. Poco Ranaka, Kabupaten Manggarai Timur, Nusa Tenggara Tim.","Kabupaten Manggarai Timur, Nusa Tenggara Tim.",NUSA TENGGARA TIMUR,,Indonesia,,,,-8.594.989,1.205.763.493,https://maps.google.com/?cid=0x0:0xa715b770e12f5ace,
mall,mall,Wr della,"8H46+PWW, Golo Loni, Kec. Borong, Kabupaten Manggarai Timur, Nusa Tenggara Tim.","Kabupaten Manggarai Timur, Nusa Tenggara Tim.",NUSA TENGGARA TIMUR,,Indonesia,,,,-86.931.399,1.205.623.303,https://maps.google.com/?cid=0x0:0x822684d927942e2,
mall,Toserba,Toko Karya Harapan,"9QWW+M78, Unnamed Road, Teno Mese, Kec. Elar, Kabupaten Manggarai Timur, Nusa Tenggara Tim.","Kabupaten Manggarai Timur, Nusa Tenggara Tim.",NUSA TENGGARA TIMUR,,Indonesia,81333509877,,,-8.603.334,120.795.716,https://maps.google.com/?cid=0x0:0xa586fcaebc3284a8,
mall,Kios,Kios Gun,"FRHG+V55, Lempang Paji, Kec. Elar Selatan, Kabupaten Manggarai Timur, Nusa Tenggara Tim.","Kabupaten Manggarai Timur, Nusa Tenggara Tim.",NUSA TENGGARA TIMUR,,Indonesia,,,,-85.203.726,1.208.254.825,https://maps.google.com/?cid=0x0:0x540716981990557,
mall,Kios,Pusat Madu asli ABYZAN,"GP8R+V93, Unnamed Road, Sisir, Kec. Elar, Kabupaten Manggarai Timur, Nusa Tenggara Tim.","Kabupaten Manggarai Timur, Nusa Tenggara Tim.",NUSA TENGGARA TIMUR,,Indonesia,82342962852,,,-84.828.614,1.207.409.278,https://maps.google.com/?cid=0x0:0x819abb0de9a929cc,
mall,Pasar,Kios sembako Dua putry Rana Teno,"GM8P+VJ8, Unnamed Road, Lada Mese, Kec. Sambi Rampas, Kabupaten Manggarai Timur, Nusa Tenggara Tim.","Kabupaten Manggarai Timur, Nusa Tenggara Tim.",NUSA TENGGARA TIMUR,,Indonesia,,,,-84.828.294,1.206.865.923,https://maps.google.com/?cid=0x0:0x586aedbaf0f930c3,
mall,Pusat Perbelanjaan,Pepok Mart,"Mbata, Jalan Ruteng, Rana Mbeling, Elar, Kabupaten Manggarai Timur, Nusa Tenggara Tim.","Kabupaten Manggarai Timur, Nusa Tenggara Tim.",NUSA TENGGARA TIMUR,,Indonesia,,,,-86.799.851,120.725.686,https://maps.google.com/?cid=0x0:0xb33d11f9e57ebb93,
mall,Toko,DANI Kios,"FMQH+F2M, Golo Wangkung, Kec. Sambi Rampas, Kabupaten Manggarai Timur, Nusa Tenggara Tim.","Kabupaten Manggarai Timur, Nusa Tenggara Tim.",NUSA TENGGARA TIMUR,,Indonesia,,,,-85.112.878,1.206.775.602,https://maps.google.com/?cid=0x0:0xf06091cef1c4dc31,
mall,mall,Kios om seli,"FRHF+GH2, Lempang Paji, Kec. Elar, Kabupaten Manggarai Timur, Nusa Tenggara Tim.","Kabupaten Manggarai Timur, Nusa Tenggara Tim.",NUSA TENGGARA TIMUR,,Indonesia,,,,-85.212.415,1.208.238.769,https://maps.google.com/?cid=0x0:0x7b97ce5326640063,
mall,Pusat Perbelanjaan,Mal Ciputra Tangerang,"Jl. Citra Raya Boulevard, Ciakar, Kec. Panongan, Kabupaten Tangerang, Banten 15710","Ciakar, Kec. Panongan, Kabupaten Tangerang",NUSA TENGGARA TIMUR,15710.0,Indonesia,2139715888,,,-62.609.367,1.065.248.651,https://maps.google.com/?cid=0x0:0x426b60f7dfe14e13,
mall,Pusat Perbelanjaan,CITRA RAYA SQUARE 2,"QG9C+9W3, Jl. Citra Raya Boulevard, Cikupa, Kec. Cikupa, Kabupaten Tangerang, Banten 15710","Jl. Citra Raya Boulevard, Cikupa, Kec. Cikupa, Kabupaten Tangerang",NUSA TENGGARA TIMUR,15710.0,Indonesia,,,,-62.316.055,1.065.222.838,https://maps.google.com/?cid=0x0:0x867e75f1d92d025f,
mall,Stasiun Pengisian Kendaraan Listrik,SPKLU St. Pengisian,"PGQG+P3P, Ciakar, Kec. Panongan, Kabupaten Tangerang, Banten 15710","Ciakar, Kec. Panongan, Kabupaten Tangerang",NUSA TENGGARA TIMUR,15710.0,Indonesia,,,,-62.606.697,1.065.252.145,https://maps.google.com/?cid=0x0:0x18a981b185a4002a,
mall,Dapur Umum,Yangâ€™s Braised Chicken Rice Mall Ciputra Tangerang,"Mall Ciputra Tanggerang, Ciakar, Kec. Panongan, Kabupaten Tangerang, Banten 15710","Ciakar, Kec. Panongan, Kabupaten Tangerang",NUSA TENGGARA TIMUR,15710.0,Indonesia,,,,-62.610.117,1.065.248.165,https://maps.google.com/?cid=0x0:0x221464e3027c59d6,
mall,Toko Mebel,Selma Furniture Citra Raya Tangerang,"Mal Ciputra, Jl. Citra Raya Boulevard Lt.2 No.B1, Ciakar, Kec. Panongan, Kabupaten Tangerang, Banten 15710","Jl. Citra Raya Boulevard Lt.2 No.B1, Ciakar, Kec. Panongan, Kabupaten Tangerang",NUSA TENGGARA TIMUR,15710.0,Indonesia,,,,-62.609.405,1.065.247.787,https://maps.google.com/?cid=0x0:0x34d4ebd1030c1760,
mall,mall,Kec. Kota Komba,"Kabupaten Manggarai Timur, Nusa Tenggara Tim.","Kabupaten Manggarai Timur, Nusa Tenggara Tim.",NUSA TENGGARA TIMUR,,Indonesia,,,,-88.273.426,1.208.051.136,https://maps.google.com/?cid=0x0:0xb5521e292aca4357,
mall,Toko,Toko Kasih Setia,"8Q97+CM3, Rana Mbeling, Kec. Kota Komba, Kabupaten Manggarai Timur, Nusa Tenggara Tim.","Kabupaten Manggarai Timur, Nusa Tenggara Tim.",NUSA TENGGARA TIMUR,,Indonesia,,,,-86.814.804,1.207.641.838,https://maps.google.com/?cid=0x0:0xb3bd11cbe3670e00,
mall,Pusat Perbelanjaan,Armi family,"5RF4+32V, Watu Nggene, Kec. Kota Komba, Kabupaten Manggarai Timur, Nusa Tenggara Tim.","Kabupaten Manggarai Timur, Nusa Tenggara Tim.",NUSA TENGGARA TIMUR,,Indonesia,81337633111,,,-8.827.255,1.208.050.437,https://maps.google.com/?cid=0x0:0x135f4a7bac651e53,
mall,Toko,Yessi Kios,"8MVR+94W, Golomeni, Kec. Kota Komba, Kabupaten Manggarai Timur, Nusa Tenggara Tim.","Kabupaten Manggarai Timur, Nusa Tenggara Tim.",NUSA TENGGARA TIMUR,,Indonesia,,,,-86.565.231,1.206.903.142,https://maps.google.com/?cid=0x0:0x9aaedd1af8425cd8,
mall,Toko bahan makanan,Rumah atan  gelo,"7M7V+VW2, Golo Tolang, Kec. Kota Komba, Kabupaten Manggarai Timur, Nusa Tenggara Tim.","Kabupaten Manggarai Timur, Nusa Tenggara Tim.",NUSA TENGGARA TIMUR,,Indonesia,,,,-87.353.622,1.206.947.551,https://maps.google.com/?cid=0x0:0x486215effd8555d7,
mall,Toko bahan makanan,"KISOL,KIOS 3 Putri","5MX6+X9R, Tanah Rata, Kec. Kota Komba, Kabupaten Manggarai Timur, Nusa Tenggara Tim.","Kabupaten Manggarai Timur, Nusa Tenggara Tim.",NUSA TENGGARA TIMUR,,Indonesia,,,,-88.000.226,1.206.608.902,https://maps.google.com/?cid=0x0:0xd4e29c16c2a261f7,
mall,Toko,Kios Kristal,"5RF3+3R5, Unnamed Road, Watu Nggene, Kec. Kota Komba, Kabupaten Manggarai Timur, Nusa Tenggara Tim.","Kabupaten Manggarai Timur, Nusa Tenggara Tim.",NUSA TENGGARA TIMUR,,Indonesia,85337244030,,,-88.273.648,1.208.046.235,https://maps.google.com/?cid=0x0:0x35a04fe5fb43c604,
mall,Pembangunan Perumahan,Pasar Impres Terpadu Jong,"8M6J+5V7, Benteng Raja, Kec. Borong, Kabupaten Manggarai Timur, Nusa Tenggara Tim.","Kabupaten Manggarai Timur, Nusa Tenggara Tim.",NUSA TENGGARA TIMUR,,Indonesia,,,,-86.895.953,1.206.821.869,https://maps.google.com/?cid=0x0:0x93fea35e9662faa0,
mall,Toko umum,kios kafielo,"8MVR+745, Golomeni, Kec. Kota Komba, Kabupaten Manggarai Timur, Nusa Tenggara Tim.","Kabupaten Manggarai Timur, Nusa Tenggara Tim.",NUSA TENGGARA TIMUR,,Indonesia,81338562428,,,-86.568.609,1.206.903.668,https://maps.google.com/?cid=0x0:0xe087d00d698fffc5,
mall,Pusat Perbelanjaan,Pepok Mart,"Mbata, Jalan Ruteng, Rana Mbeling, Elar, Kabupaten Manggarai Timur, Nusa Tenggara Tim.","Kabupaten Manggarai Timur, Nusa Tenggara Tim.",NUSA TENGGARA TIMUR,,Indonesia,,,,-86.799.851,120.725.686,https://maps.google.com/?cid=0x0:0xb33d11f9e57ebb93,
mall,Pusat Perbelanjaan,KIOS LEGORY PEOT,"6JCC+M8V, Kelurahan Peot, Kec. Borong, Kabupaten Manggarai Timur, Nusa Tenggara Tim.","Kabupaten Manggarai Timur, Nusa Tenggara Tim.",NUSA TENGGARA TIMUR,,Indonesia,81236284006,,,-87.782.553,1.206.207.958,https://maps.google.com/?cid=0x0:0xfbf34f433a582cdb,
mall,Pusat Perbelanjaan,Surya Jaya,"6J69+HXW, Jl. Ki Hajar Dewantara Peot Borong Flores, Rana Loba, Kec. Borong, Kabupaten Manggarai Timur, Nusa Tenggara Tim.","Kabupaten Manggarai Timur, Nusa Tenggara Tim.",NUSA TENGGARA TIMUR,,Indonesia,,,,-87.885.104,1.206.199.546,https://maps.google.com/?cid=0x0:0xd2471913c9183db9,
mall,mall,Warung Sembako,"6MFG+MCQ, rende kapu, Lembur, Kec. Kota Komba, Kabupaten Manggarai Timur, Nusa Tenggara Tim.","Kabupaten Manggarai Timur, Nusa Tenggara Tim.",NUSA TENGGARA TIMUR,,Indonesia,,,,-87.757.922,1.206.761.022,https://maps.google.com/?cid=0x0:0x7020739ed32fa8a2,
mall,mall,Nusa Tenggara Tim.,,Nusa Tenggara Tim.,NUSA TENGGARA TIMUR,,Indonesia,,,,-86.573.819,1.210.793.705,https://maps.google.com/?cid=0x0:0x1030bfbcaf71ae0,
mall,Kantor Pemerintah,Kantor Desa Rana Mbata,"Kode Pos 86572, Rana Mbata, kec.kota Komba Utara, Kabupaten Manggarai Timur, Nusa Tenggara Tim.","Kabupaten Manggarai Timur, Nusa Tenggara Tim.",NUSA TENGGARA TIMUR,,Indonesia,,,,-86.817.411,1.207.268.303,https://maps.google.com/?cid=0x0:0x63416bcd2260ff07,
mall,Taman,golotolang,"6MJG+XJG, Pong Ruan, Kec. Kota Komba, Kabupaten Manggarai Timur, Nusa Tenggara Tim.","Kabupaten Manggarai Timur, Nusa Tenggara Tim.",NUSA TENGGARA TIMUR,,Indonesia,,,,-87.675.522,1.206.765.898,https://maps.google.com/?cid=0x0:0x78e84c6da2b3eba3,
mall,Toko Swalayan,AEON Mall Deltamas - Cikarang Bekasi,"Jl. Ganesha Boulevard, Kota Deltamas, Kec. Cikarang Pusat, Kabupaten Bekasi, Jawa Barat 17530","Kota Deltamas, Kec. Cikarang Pusat, Kabupaten Bekasi",NUSA TENGGARA TIMUR,17530.0,Indonesia,2138733333,,,-63.519.407,1.071.954.494,https://maps.google.com/?cid=0x0:0xa692ce22e7339115,
mall,Sekolah pendidikan umum,SD Negeri Wae Tuan,"6MMF+8G8 Kakang, Pong Ruan, Kec. Kota Komba, Kabupaten Manggarai Timur, Nusa Tenggara Tim.","Kabupaten Manggarai Timur, Nusa Tenggara Tim.",NUSA TENGGARA TIMUR,,Indonesia,,,,-87.667.045,120.673.814,https://maps.google.com/?cid=0x0:0x3b90f6be299073f,
mall,Pusat Perbelanjaan,KIOS DAMIAN,"5JM4+WHC, Rana Loba, Kec. Borong, Kabupaten Manggarai Timur, Nusa Tenggara Tim.","Kabupaten Manggarai Timur, Nusa Tenggara Tim.",NUSA TENGGARA TIMUR,,Indonesia,,,,-88.151.774,120.606.406,https://maps.google.com/?cid=0x0:0xc520a68a4ff40017,
mall,Pusat Perbelanjaan,Pio-pio Cell,"5JX7+4H3, Rana Loba, Kec. Borong, Kabupaten Manggarai Timur, Nusa Tenggara Tim.","Kabupaten Manggarai Timur, Nusa Tenggara Tim.",NUSA TENGGARA TIMUR,,Indonesia,,,,-88.022.467,1.206.139.153,https://maps.google.com/?cid=0x0:0x5bac931f7105cde6,
mall,Kios,Baim Rental,"6HXV+23P Jengok Bangka Kantar, Golo Kantar, Kec. Borong, Kabupaten Manggarai Timur, Nusa Tenggara Tim.","Kabupaten Manggarai Timur, Nusa Tenggara Tim.",NUSA TENGGARA TIMUR,,Indonesia,,,,-87.524.039,1.205.927.027,https://maps.google.com/?cid=0x0:0xf6c2e2aea050c0f9,
mall,Rumah Kaca,cabang paka,"7HM8+922, Sita, Kec. Rana Mese, Kabupaten Manggarai Timur, Nusa Tenggara Tim.","Kabupaten Manggarai Timur, Nusa Tenggara Tim.",NUSA TENGGARA TIMUR,,Indonesia,,,,-87.166.082,1.205.650.177,https://maps.google.com/?cid=0x0:0xe48587ff64ee1697,
mall,Komplek perumahan,Kios prilo Ngkiong dora,"CMJ4+MXJ, Ngkiong Dora, Kec. Poco Ranaka, Kabupaten Manggarai Timur, Nusa Tenggara Tim.","Kabupaten Manggarai Timur, Nusa Tenggara Tim.",NUSA TENGGARA TIMUR,,Indonesia,,,,-85.682.845,1.206.574.024,https://maps.google.com/?cid=0x0:0x5ec28c713d579557,
mall,Toserba,Toko Karya Harapan,"9QWW+M78, Unnamed Road, Teno Mese, Kec. Elar, Kabupaten Manggarai Timur, Nusa Tenggara Tim.","Kabupaten Manggarai Timur, Nusa Tenggara Tim.",NUSA TENGGARA TIMUR,,Indonesia,81333509877,,,-8.603.334,120.795.716,https://maps.google.com/?cid=0x0:0xa586fcaebc3284a8,
mall,Pusat Perbelanjaan,UNOK CELL,"5JM5+RR8, Unnamed Road, Rana Loba, Kec. Borong, Kabupaten Manggarai Timur, Nusa Tenggara Tim.","Kabupaten Manggarai Timur, Nusa Tenggara Tim.",NUSA TENGGARA TIMUR,,Indonesia,81236526580,,,-88.154.682,1.206.095.856,https://maps.google.com/?cid=0x0:0x8bdf4d60d809395a,
mall,mall,Nusa Tenggara Tim.,,Nusa Tenggara Tim.,NUSA TENGGARA TIMUR,,Indonesia,,,,-86.573.819,1.210.793.705,https://maps.google.com/?cid=0x0:0x1030bfbcaf71ae0,
mall,Pusat Perbelanjaan,Kios Rana Mese,"9HR2+P42, RW.bealaing, Bangka Pau, Kec. Poco Ranaka, Kabupaten Manggarai Timur, Nusa Tenggara Tim.","Kabupaten Manggarai Timur, Nusa Tenggara Tim.",NUSA TENGGARA TIMUR,,Indonesia,,,,-86.082.336,1.205.502.515,https://maps.google.com/?cid=0x0:0x3ec38e446094afce,
mall,mall,Kec. Rana Mese,"Kabupaten Manggarai Timur, Nusa Tenggara Tim.","Kabupaten Manggarai Timur, Nusa Tenggara Tim.",NUSA TENGGARA TIMUR,,Indonesia,,,,-8.368.917,1.203.459.156,https://maps.google.com/?cid=0x0:0x866acef55b6f1bf6,
mall,Tujuan Wisata,Danau Ranamese,"9H66+8CQ, Golo Loni, Kec. Rana Mese, Kabupaten Manggarai Timur, Nusa Tenggara Tim.","Kabupaten Manggarai Timur, Nusa Tenggara Tim.",NUSA TENGGARA TIMUR,,Indonesia,,,,-86.391.667,1.205.611.111,https://maps.google.com/?cid=0x0:0xd3efbd76606693ab,
mall,mall,Rana Mese,"Golo Loni, Kec. Rana Mese, Kabupaten Manggarai Timur, Nusa Tenggara Tim.","Kabupaten Manggarai Timur, Nusa Tenggara Tim.",NUSA TENGGARA TIMUR,,Indonesia,,,,-86.391.667,1.205.611.111,https://maps.google.com/?cid=0x0:0x17d84708e4115485,
mall,Pembangunan Perumahan,Pesi,"7HF9+H84, Sita, Kec. Rana Mese, Kabupaten Manggarai Timur, Nusa Tenggara Tim.","Kabupaten Manggarai Timur, Nusa Tenggara Tim.",NUSA TENGGARA TIMUR,,Indonesia,,,,-87.261.215,1.205.683.362,https://maps.google.com/?cid=0x0:0x3988162b96c9843c,
mall,Toko,Toko Anita,"6HWF+86G, Jalan Wae Musur. Golo Mongkok desa Watu Mori, Kec, Sita, Kec. Rana Mese, Kabupaten Manggarai Timur, Nusa Tenggara Tim.","Kabupaten Manggarai Timur, Nusa Tenggara Tim.",NUSA TENGGARA TIMUR,,Indonesia,,,,-87.541.762,1.205.730.832,https://maps.google.com/?cid=0x0:0x67819997469f9eae,
mall,Rumah Kaca,cabang paka,"7HM8+922, Sita, Kec. Rana Mese, Kabupaten Manggarai Timur, Nusa Tenggara Tim.","Kabupaten Manggarai Timur, Nusa Tenggara Tim.",NUSA TENGGARA TIMUR,,Indonesia,,,,-87.166.082,1.205.650.177,https://maps.google.com/?cid=0x0:0xe48587ff64ee1697,
mall,Kios,Kios Marsy,"8HM6+RJ, Golo Loni, Kec. Rana Mese, Kabupaten Manggarai Timur, Nusa Tenggara Tim.","Kabupaten Manggarai Timur, Nusa Tenggara Tim.",NUSA TENGGARA TIMUR,,Indonesia,82144516812,,,-86.659.263,1.205.636.058,https://maps.google.com/?cid=0x0:0xfdda3aa020642508,
mall,Kios,Baim Rental,"6HXV+23P Jengok Bangka Kantar, Golo Kantar, Kec. Borong, Kabupaten Manggarai Timur, Nusa Tenggara Tim.","Kabupaten Manggarai Timur, Nusa Tenggara Tim.",NUSA TENGGARA TIMUR,,Indonesia,,,,-87.524.039,1.205.927.027,https://maps.google.com/?cid=0x0:0xf6c2e2aea050c0f9,
mall,Pusat Perbelanjaan,KIOS DAMIAN,"5JM4+WHC, Rana Loba, Kec. Borong, Kabupaten Manggarai Timur, Nusa Tenggara Tim.","Kabupaten Manggarai Timur, Nusa Tenggara Tim.",NUSA TENGGARA TIMUR,,Indonesia,,,,-88.151.774,120.606.406,https://maps.google.com/?cid=0x0:0xc520a68a4ff40017,
mall,Pusat Perbelanjaan,Bakso Pak Jum Semarang Cabang Kampung Tokol,"8H48+M4H, Golo Loni, Kec. Borong, Kabupaten Manggarai Timur, Nusa Tenggara Tim.","Kabupaten Manggarai Timur, Nusa Tenggara Tim.",NUSA TENGGARA TIMUR,,Indonesia,81246880674,,,-86.933.159,1.205.653.485,https://maps.google.com/?cid=0x0:0xbe22e3f5b974f0ff,
mall,Toko,Kajong 2,"J8HV+VPH, Unnamed Road, Wae Kajong, Kec. Reok, Kabupaten Manggarai Timur, Nusa Tenggara Tim.","Kabupaten Manggarai Timur, Nusa Tenggara Tim.",NUSA TENGGARA TIMUR,,Indonesia,,,,-8.370.315,1.203.443.463,https://maps.google.com/?cid=0x0:0x57ef023aa3402578,
mall,Brunch,Kompleks Lembaga Lama,"Jl. Montang Rua, Mbaumuku, Kec. Langke Rembong, Kabupaten Manggarai, Nusa Tenggara Tim.","Kabupaten Manggarai, Nusa Tenggara Tim.",NUSA TENGGARA TIMUR,,Indonesia,3852420170,,,-8.609.123,1.204.653.041,https://maps.google.com/?cid=0x0:0xb5d520fec8a8199a,
mall,Pom bensin/SPBU,Terminal Reo,"MFQJ+4P8, Mata Air, Kec. Reok, Kabupaten Manggarai, Nusa Tenggara Tim.","Kabupaten Manggarai, Nusa Tenggara Tim.",NUSA TENGGARA TIMUR,,Indonesia,81246642428,,,-83.122.183,1.204.818.136,https://maps.google.com/?cid=0x0:0x54db498d829941e9,
mall,Komplek perumahan,Riky,"H8WJ+FFV, Lante, Kec. Reok, Kabupaten Manggarai Timur, Nusa Tenggara Tim.","Kabupaten Manggarai Timur, Nusa Tenggara Tim.",NUSA TENGGARA TIMUR,,Indonesia,,,,-84.037.557,1.203.311.737,https://maps.google.com/?cid=0x0:0xe41343aa1c225df6,
mall,Pasar,Pasar Todo Satar Mese,"79CC+J4M, Todo, Kec. Satar Mese Bar., Kabupaten Manggarai, Nusa Tenggara Tim.","Kabupaten Manggarai, Nusa Tenggara Tim.",NUSA TENGGARA TIMUR,,Indonesia,81390081501,,,-87.284.058,120.370.303,https://maps.google.com/?cid=0x0:0x4b61cdc8f5c4aa88,
mall,mall,Kios Kevin,"7CR7+VJ, Umung, Kec. Satar Mese, Kabupaten Manggarai, Nusa Tenggara Tim.","Kabupaten Manggarai, Nusa Tenggara Tim.",NUSA TENGGARA TIMUR,,Indonesia,,,,-87.077.926,1.204.140.629,https://maps.google.com/?cid=0x0:0x9fa8aeb03ea3daf1,
mall,Pusat Perbelanjaan,Kios Introbazi,"9GVV+R9W, Mando Sawu, Kec. Poco Ranaka, Kabupaten Manggarai Timur, Nusa Tenggara Tim.","Kabupaten Manggarai Timur, Nusa Tenggara Tim.",NUSA TENGGARA TIMUR,,Indonesia,81237967812,,,-86.053.841,1.205.434.584,https://maps.google.com/?cid=0x0:0xd70f8699cacb5af5,
mall,mall,Kec. Poco Ranaka Timur,"Kabupaten Manggarai Timur, Nusa Tenggara Tim.","Kabupaten Manggarai Timur, Nusa Tenggara Tim.",NUSA TENGGARA TIMUR,,Indonesia,,,,-85.543.382,120.618.277,https://maps.google.com/?cid=0x0:0x1564295fdcda3229,
mall,Paket Makanan Pokok,Kios Poco Kepe,"CH7H+J5C, Jl. Ruteng - Benteng Jawa, Golo Nderu, Kec. Poco Ranaka, Kabupaten Manggarai Timur, Nusa Tenggara Tim.","Kabupaten Manggarai Timur, Nusa Tenggara Tim.",NUSA TENGGARA TIMUR,,Indonesia,,,,-858.662,12.057.802,https://maps.google.com/?cid=0x0:0x364bca67af3e0c,
mall,Pusat Perbelanjaan,Poco Rejeng,"FF4P+3V5, Poco, Kec. Wae Rii, Kabupaten Manggarai, Nusa Tenggara Tim.","Kabupaten Manggarai, Nusa Tenggara Tim.",NUSA TENGGARA TIMUR,,Indonesia,82236308320,,,-8.544.852,1.204.872.188,https://maps.google.com/?cid=0x0:0xdc09254e12df11af,
mall,Sekolah Dasar,SDK Mano 1,"9GRX+PQ6, Bangka Pau, Kec. Poco Ranaka, Kabupaten Manggarai Timur, Nusa Tenggara Tim.","Kabupaten Manggarai Timur, Nusa Tenggara Tim.",NUSA TENGGARA TIMUR,,Indonesia,,,,-86.082.226,1.205.494.032,https://maps.google.com/?cid=0x0:0x9f9316ef8f565144,
mall,Komplek perumahan,home agen,"FHFF+26, Pocong, Kec. Poco Ranaka, Kabupaten Manggarai Timur, Nusa Tenggara Tim.","Kabupaten Manggarai Timur, Nusa Tenggara Tim.",NUSA TENGGARA TIMUR,,Indonesia,,,,-85.274.578,1.205.730.555,https://maps.google.com/?cid=0x0:0xd5bf0a97d9ff1db5,
mall,Toko bahan makanan,Alio cell,"CH4G+2G5, Jl. Ruteng - Benteng Jawa, Golo Nderu, Kec. Poco Ranaka, Kabupaten Manggarai Timur, Nusa Tenggara Tim.","Kabupaten Manggarai Timur, Nusa Tenggara Tim.",NUSA TENGGARA TIMUR,,Indonesia,,,,-8.594.989,1.205.763.493,https://maps.google.com/?cid=0x0:0xa715b770e12f5ace,
mall,Komplek perumahan,Kios prilo Ngkiong dora,"CMJ4+MXJ, Ngkiong Dora, Kec. Poco Ranaka, Kabupaten Manggarai Timur, Nusa Tenggara Tim.","Kabupaten Manggarai Timur, Nusa Tenggara Tim.",NUSA TENGGARA TIMUR,,Indonesia,,,,-85.682.845,1.206.574.024,https://maps.google.com/?cid=0x0:0x5ec28c713d579557,
mall,Toko,Kios cian LENTO,"CHMG+26C, Desa lento, Kec. Poco Ranaka, Kabupaten Manggarai Timur, Nusa Tenggara Tim.","Kabupaten Manggarai Timur, Nusa Tenggara Tim.",NUSA TENGGARA TIMUR,,Indonesia,,,,-85.674.252,1.205.755.138,https://maps.google.com/?cid=0x0:0xbc89cc0cd247c7d7,
mall,Pusat Perbelanjaan,Pot bunga wae reno,"9GVG+2CG, Golo Lobos, Kec. Poco Ranaka, Kabupaten Manggarai Timur, Nusa Tenggara Tim.","Kabupaten Manggarai Timur, Nusa Tenggara Tim.",NUSA TENGGARA TIMUR,,Indonesia,81239642455,,,-86.074.347,1.205.260.739,https://maps.google.com/?cid=0x0:0x72fff3eabf1f9564,
mall,Toko Bahan Bangunan,Toko INDOMAL 2 (Jual Bahan Bangunan),"FM6C+F5W, Satar Nawang, Kec. Sambi Rampas, Kabupaten Manggarai Timur, Nusa Tenggara Tim.","Kabupaten Manggarai Timur, Nusa Tenggara Tim.",NUSA TENGGARA TIMUR,,Indonesia,,,,-85.387.527,1.206.704.604,https://maps.google.com/?cid=0x0:0xcc280ceb90d1ef6,
mall,Pusat Perbelanjaan,Kios Introbazi,"9GVV+R9W, Mando Sawu, Kec. Poco Ranaka, Kabupaten Manggarai Timur, Nusa Tenggara Tim.","Kabupaten Manggarai Timur, Nusa Tenggara Tim.",NUSA TENGGARA TIMUR,,Indonesia,81237967812,,,-86.053.841,1.205.434.584,https://maps.google.com/?cid=0x0:0xd70f8699cacb5af5,
mall,Pusat Perbelanjaan,"Bakso Robo,Jalan Ranaka Kota Ruteng","GHHC+GPW, Jl. Ruteng - Benteng Jawa, Ranaka, Kec. Lamba Leda, Kabupaten Manggarai Timur, Nusa Tenggara Tim.","Kabupaten Manggarai Timur, Nusa Tenggara Tim.",NUSA TENGGARA TIMUR,,Indonesia,8116112138,,,-84.711.485,1.205.718.434,https://maps.google.com/?cid=0x0:0x74de1d167c52ae16,
mall,Pasar,Kios sembako Dua putry Rana Teno,"GM8P+VJ8, Unnamed Road, Lada Mese, Kec. Sambi Rampas, Kabupaten Manggarai Timur, Nusa Tenggara Tim.","Kabupaten Manggarai Timur, Nusa Tenggara Tim.",NUSA TENGGARA TIMUR,,Indonesia,,,,-84.828.294,1.206.865.923,https://maps.google.com/?cid=0x0:0x586aedbaf0f930c3,
mall,Toko umum,kios fat,"GH9R+6CG, kedel, Watu Lanur, Kec. Poco Ranaka, Kabupaten Manggarai Timur, Nusa Tenggara Tim.","Kabupaten Manggarai Timur, Nusa Tenggara Tim.",NUSA TENGGARA TIMUR,,Indonesia,82110039449,,,-84.819.457,1.205.910.705,https://maps.google.com/?cid=0x0:0x88fc0a738ed74621,
mall,Toko,DANI Kios,"FMQH+F2M, Golo Wangkung, Kec. Sambi Rampas, Kabupaten Manggarai Timur, Nusa Tenggara Tim.","Kabupaten Manggarai Timur, Nusa Tenggara Tim.",NUSA TENGGARA TIMUR,,Indonesia,,,,-85.112.878,1.206.775.602,https://maps.google.com/?cid=0x0:0xf06091cef1c4dc31,
mall,Kios,Kios Weik,"FF3V+VJW, Compang Ndehes, Kec. Wae Rii, Kabupaten Manggarai, Nusa Tenggara Tim.","Kabupaten Manggarai, Nusa Tenggara Tim.",NUSA TENGGARA TIMUR,,Indonesia,,,,-85.452.531,1.204.940.678,https://maps.google.com/?cid=0x0:0x904c211a29976d72,
mall,mall,BOK,"CJJ7+VJC, Tango Molas, Kec. Poco Ranaka, Kabupaten Manggarai Timur, Nusa Tenggara Tim.","Kabupaten Manggarai Timur, Nusa Tenggara Tim.",NUSA TENGGARA TIMUR,,Indonesia,,,,-85.678.043,1.206.140.048,https://maps.google.com/?cid=0x0:0xd42f6e5a1ba31069,
mall,mall,Kec. Elar Selatan,"Kabupaten Manggarai Timur, Nusa Tenggara Tim.","Kabupaten Manggarai Timur, Nusa Tenggara Tim.",NUSA TENGGARA TIMUR,,Indonesia,,,,-86.439.057,1.207.613.321,https://maps.google.com/?cid=0x0:0x29c346791b550200,
mall,Toserba,Toko Karya Harapan,"9QWW+M78, Unnamed Road, Teno Mese, Kec. Elar, Kabupaten Manggarai Timur, Nusa Tenggara Tim.","Kabupaten Manggarai Timur, Nusa Tenggara Tim.",NUSA TENGGARA TIMUR,,Indonesia,81333509877,,,-8.603.334,120.795.716,https://maps.google.com/?cid=0x0:0xa586fcaebc3284a8,
mall,Kios,Kios Gun,"FRHG+V55, Lempang Paji, Kec. Elar Selatan, Kabupaten Manggarai Timur, Nusa Tenggara Tim.","Kabupaten Manggarai Timur, Nusa Tenggara Tim.",NUSA TENGGARA TIMUR,,Indonesia,,,,-85.203.726,1.208.254.825,https://maps.google.com/?cid=0x0:0x540716981990557,
mall,Pusat Perbelanjaan,Pepok Mart,"Mbata, Jalan Ruteng, Rana Mbeling, Elar, Kabupaten Manggarai Timur, Nusa Tenggara Tim.","Kabupaten Manggarai Timur, Nusa Tenggara Tim.",NUSA TENGGARA TIMUR,,Indonesia,,,,-86.799.851,120.725.686,https://maps.google.com/?cid=0x0:0xb33d11f9e57ebb93,
mall,Pembangunan Perumahan,Pasar Impres Terpadu Jong,"8M6J+5V7, Benteng Raja, Kec. Borong, Kabupaten Manggarai Timur, Nusa Tenggara Tim.","Kabupaten Manggarai Timur, Nusa Tenggara Tim.",NUSA TENGGARA TIMUR,,Indonesia,,,,-86.895.953,1.206.821.869,https://maps.google.com/?cid=0x0:0x93fea35e9662faa0,
mall,Kios,Pusat Madu asli ABYZAN,"GP8R+V93, Unnamed Road, Sisir, Kec. Elar, Kabupaten Manggarai Timur, Nusa Tenggara Tim.","Kabupaten Manggarai Timur, Nusa Tenggara Tim.",NUSA TENGGARA TIMUR,,Indonesia,82342962852,,,-84.828.614,1.207.409.278,https://maps.google.com/?cid=0x0:0x819abb0de9a929cc,
mall,Toko,Yessi Kios,"8MVR+94W, Golomeni, Kec. Kota Komba, Kabupaten Manggarai Timur, Nusa Tenggara Tim.","Kabupaten Manggarai Timur, Nusa Tenggara Tim.",NUSA TENGGARA TIMUR,,Indonesia,,,,-86.565.231,1.206.903.142,https://maps.google.com/?cid=0x0:0x9aaedd1af8425cd8,
mall,Toko umum,kios kafielo,"8MVR+745, Golomeni, Kec. Kota Komba, Kabupaten Manggarai Timur, Nusa Tenggara Tim.","Kabupaten Manggarai Timur, Nusa Tenggara Tim.",NUSA TENGGARA TIMUR,,Indonesia,81338562428,,,-86.568.609,1.206.903.668,https://maps.google.com/?cid=0x0:0xe087d00d698fffc5,
mall,mall,Kios om seli,"FRHF+GH2, Lempang Paji, Kec. Elar, Kabupaten Manggarai Timur, Nusa Tenggara Tim.","Kabupaten Manggarai Timur, Nusa Tenggara Tim.",NUSA TENGGARA TIMUR,,Indonesia,,,,-85.212.415,1.208.238.769,https://maps.google.com/?cid=0x0:0x7b97ce5326640063,
mall,Komplek perumahan,Gising elar selatan,"9RP8+CF, Gising, Kec. Elar Selatan, Kabupaten Manggarai Timur, Nusa Tenggara Tim.","Kabupaten Manggarai Timur, Nusa Tenggara Tim.",NUSA TENGGARA TIMUR,,Indonesia,,,,-86.139.375,1.208.161.875,https://maps.google.com/?cid=0x0:0xadb67db628514377,
mall,Toko bahan makanan,Rumah atan  gelo,"7M7V+VW2, Golo Tolang, Kec. Kota Komba, Kabupaten Manggarai Timur, Nusa Tenggara Tim.","Kabupaten Manggarai Timur, Nusa Tenggara Tim.",NUSA TENGGARA TIMUR,,Indonesia,,,,-87.353.622,1.206.947.551,https://maps.google.com/?cid=0x0:0x486215effd8555d7,
mall,Toko bahan makanan,Alio cell,"CH4G+2G5, Jl. Ruteng - Benteng Jawa, Golo Nderu, Kec. Poco Ranaka, Kabupaten Manggarai Timur, Nusa Tenggara Tim.","Kabupaten Manggarai Timur, Nusa Tenggara Tim.",NUSA TENGGARA TIMUR,,Indonesia,,,,-8.594.989,1.205.763.493,https://maps.google.com/?cid=0x0:0xa715b770e12f5ace,
supermarket,supermarket,Kec. Borong,"Kabupaten Manggarai Timur, Nusa Tenggara Tim.","Kabupaten Manggarai Timur, Nusa Tenggara Tim.",NUSA TENGGARA TIMUR,,Indonesia,,,,-88.148.406,1.206.082.067,https://maps.google.com/?cid=0x0:0x2a97d54812a8d6a5,
supermarket,Pasar,Pasar Borong,"5JM4+JH7, Rana Loba, Kec. Borong, Kabupaten Manggarai Timur, Nusa Tenggara Tim.","Kabupaten Manggarai Timur, Nusa Tenggara Tim.",NUSA TENGGARA TIMUR,,Indonesia,82132089904,,,-88.159.516,1.206.064.329,https://maps.google.com/?cid=0x0:0xe320d4a91b49ee0a,
supermarket,Minimarket,Widy Mart,"Rana Loba, Kec. Borong, Kabupaten Manggarai Timur, Nusa Tenggara Tim. 86571","Kec. Borong, Kabupaten Manggarai Timur",NUSA TENGGARA TIMUR,86571.0,Indonesia,85225249405,,,-88.152.673,1.206.106.612,https://maps.google.com/?cid=0x0:0x1b8ca03aa9621dfb,
supermarket,Minimarket,Avenomart,"5JP5+25X, Rana Loba, Kec. Borong, Kabupaten Manggarai Timur, Nusa Tenggara Tim.","Kabupaten Manggarai Timur, Nusa Tenggara Tim.",NUSA TENGGARA TIMUR,,Indonesia,,,,-88.148.893,1.206.079.999,https://maps.google.com/?cid=0x0:0x1cb5d1620c817049,
supermarket,supermarket,Utamamart,"Jl. Moh. Hatta Jl. Lintas Flores, Borong, Kec. Borong, Kabupaten Manggarai Timur, Nusa Tenggara Tim. 86571","Borong, Kec. Borong, Kabupaten Manggarai Timur",NUSA TENGGARA TIMUR,86571.0,Indonesia,85921179130,,,-88.153.185,1.206.121.405,https://maps.google.com/?cid=0x0:0xdfb920e4dc2ae1f7,
supermarket,Toko bahan makanan,De' Anna Mart,"Jln Soeharto Toka, Nanga Labang, Kec. Borong, Kabupaten Manggarai Timur, Nusa Tenggara Tim.","Kabupaten Manggarai Timur, Nusa Tenggara Tim.",NUSA TENGGARA TIMUR,,Indonesia,82144368210,,,-88.120.228,1.205.760.485,https://maps.google.com/?cid=0x0:0x5b7c95933d52a948,
supermarket,Minimarket,Kenalan Mart,"5JP5+2C8, Unnamed Rd, Rana Loba, Kec. Borong, Kabupaten Manggarai Timur, Nusa Tenggara Tim.","Kabupaten Manggarai Timur, Nusa Tenggara Tim.",NUSA TENGGARA TIMUR,,Indonesia,81357038491,,,-88.149.515,1.206.085.934,https://maps.google.com/?cid=0x0:0x858528e510e44381,
supermarket,Minimarket,Joy's Minimart,"5HMJ+MWF, Nanga Labang, Kec. Borong, Kabupaten Manggarai Timur, Nusa Tenggara Tim.","Kabupaten Manggarai Timur, Nusa Tenggara Tim.",NUSA TENGGARA TIMUR,,Indonesia,81238356004,,,-88.158.142,1.205.822.924,https://maps.google.com/?cid=0x0:0x1ef76387f5eb4fcb,
supermarket,Minimarket,Kios Bintang Timur,"5JQ7+693, Rana Loba, Kec. Borong, Kabupaten Manggarai Timur, Nusa Tenggara Tim.","Kabupaten Manggarai Timur, Nusa Tenggara Tim.",NUSA TENGGARA TIMUR,,Indonesia,,,,-88.119.802,1.206.134.165,https://maps.google.com/?cid=0x0:0x9dc26298565b93be,
supermarket,Toko Bahan Bangunan,Toko Pancaran Bangunan,"5JR4+8JW, Rana Loba, Kec. Borong, Kabupaten Manggarai Timur, Nusa Tenggara Tim.","Kabupaten Manggarai Timur, Nusa Tenggara Tim.",NUSA TENGGARA TIMUR,,Indonesia,81238625622,,,-88.091.403,1.206.065.789,https://maps.google.com/?cid=0x0:0x248dd937a6dc415f,
supermarket,Toko,Pelita Mas Borong,"5JM6+VJR, Rana Loba, Kec. Borong, Kabupaten Manggarai Timur, Nusa Tenggara Tim.","Kabupaten Manggarai Timur, Nusa Tenggara Tim.",NUSA TENGGARA TIMUR,,Indonesia,81237985555,,,-88.152.684,1.206.115.281,https://maps.google.com/?cid=0x0:0x29077bb8dbb452a4,
supermarket,Toko bahan makanan,KIOS SEMBAKO GABRIELA DAN RENTAL MOBIL BORONG,"5HPW+J4C, Jalan jendral Soeharto, Nanga Labang, Kec. Borong, Kabupaten Manggarai Timur, Nusa Tenggara Tim.","Kabupaten Manggarai Timur, Nusa Tenggara Tim.",NUSA TENGGARA TIMUR,,Indonesia,81246568859,,,-88.134.266,1.205.952.592,https://maps.google.com/?cid=0x0:0x127fdd48926b3c6f,
supermarket,Toko Bahan Bangunan,Toko Sahabat Bangunan Borong,"Jalan satar peot, Rana Loba, Kec. Borong, Kabupaten Manggarai Timur, Nusa Tenggara Tim. 86571","Rana Loba, Kec. Borong, Kabupaten Manggarai Timur",NUSA TENGGARA TIMUR,86571.0,Indonesia,81282720033,,,-87.653.753,1.206.219.319,https://maps.google.com/?cid=0x0:0xebefc5906b586f01,
supermarket,Minimarket,Kios ViMedia,"toko di dekat Cepi Watu Beach, Nanga Labang, Kec. Borong, Kabupaten Manggarai Timur, Nusa Tenggara Tim.","Kabupaten Manggarai Timur, Nusa Tenggara Tim.",NUSA TENGGARA TIMUR,,Indonesia,8523900221,,,-88.124.269,1.205.768.156,https://maps.google.com/?cid=0x0:0xe4cd1e06e08ace8,
supermarket,Minimarket,Kios Wae Sati,"Jl. Ki Hajar Dewantara, Rana Loba, Kec. Borong, Kabupaten Manggarai Timur, Nusa Tenggara Tim.","Kabupaten Manggarai Timur, Nusa Tenggara Tim.",NUSA TENGGARA TIMUR,,Indonesia,81334378695,,,-88.093.378,1.206.129.427,https://maps.google.com/?cid=0x0:0x9f93f992e8c6fae4,
supermarket,Toko Swalayan,Swalayan 33,"Mbaumuku, Kec. Langke Rembong, Kabupaten Manggarai, Nusa Tenggara Tim.","Kabupaten Manggarai, Nusa Tenggara Tim.",NUSA TENGGARA TIMUR,,Indonesia,,,,-86.072.007,1.204.654.154,https://maps.google.com/?cid=0x0:0x70c01f1ebe81c9db,
supermarket,Toko bahan makanan,Toko wijaya,"5JP5+26R, Rana Loba, Kec. Borong, Kabupaten Manggarai Timur, Nusa Tenggara Tim.","Kabupaten Manggarai Timur, Nusa Tenggara Tim.",NUSA TENGGARA TIMUR,,Indonesia,81337275000,,,-88.148.809,1.206.080.125,https://maps.google.com/?cid=0x0:0xf6cf83c2870dfdd0,
supermarket,Toko Elektronik,Toko Pagi Electronik,"Unnamed Road, Rana Loba, Kec. Borong, Kabupaten Manggarai Timur, Nusa Tenggara Tim.","Kabupaten Manggarai Timur, Nusa Tenggara Tim.",NUSA TENGGARA TIMUR,,Indonesia,81353149933,,,-88.154.031,1.206.099.127,https://maps.google.com/?cid=0x0:0xb22330cba9cfe740,
supermarket,Toko Bahan Bangunan,Toko Kasih Sayang Borong Manggarai,"Rana Loba, Kec. Borong, Kabupaten Manggarai Timur, Nusa Tenggara Tim.","Kabupaten Manggarai Timur, Nusa Tenggara Tim.",NUSA TENGGARA TIMUR,,Indonesia,81246783263,,,-88.142.221,1.206.072.007,https://maps.google.com/?cid=0x0:0x57e15b4e087e0832,
supermarket,Minimarket,Widy Mart Kembur,"Kembur, Kec. Borong, Kabupaten Manggarai Timur, Nusa Tenggara Tim. 86571","Kec. Borong, Kabupaten Manggarai Timur",NUSA TENGGARA TIMUR,86571.0,Indonesia,81229124100,,,-87.639.061,1.206.227.794,https://maps.google.com/?cid=0x0:0x8501a0f6dac13538,
supermarket,Toko,Kios brili,"6H2P+G64, Golo Kantar, Kec. Borong, Kabupaten Manggarai Timur, Nusa Tenggara Tim.","Kabupaten Manggarai Timur, Nusa Tenggara Tim.",NUSA TENGGARA TIMUR,,Indonesia,,,,-8.798.735,1.205.855.887,https://maps.google.com/?cid=0x0:0xe1f69eae20b6da68,
supermarket,Toko Perlengkapan Rumah,Toko AA Borong,"5JM8+3J8, Jl. Moh. Hatta, Kota Ndora, Kec. Borong, Kabupaten Manggarai Timur, Nusa Tenggara Tim.","Kabupaten Manggarai Timur, Nusa Tenggara Tim.",NUSA TENGGARA TIMUR,,Indonesia,,,,-88.173.262,1.206.165.298,https://maps.google.com/?cid=0x0:0x94e616076244312d,
supermarket,Pasar,Pasar Rakyat Rana Loba,"Komplek pasar borong, Rana Loba, Kec. Borong, Kabupaten Manggarai Timur, Nusa Tenggara Tim.","Kabupaten Manggarai Timur, Nusa Tenggara Tim.",NUSA TENGGARA TIMUR,,Indonesia,82247581930,,,-88.167.524,1.206.066.616,https://maps.google.com/?cid=0x0:0xb3ebe2fde9d2a2f1,
supermarket,Apotek,Apotek Widya Farma,"Rana Loba, Kec. Borong. Kab. Manggarai Timur, Timur, Nusa Tenggara Tim.","Timur, Nusa Tenggara Tim.",NUSA TENGGARA TIMUR,,Indonesia,81246395015,,,-88.150.772,1.206.062.998,https://maps.google.com/?cid=0x0:0x72678f6605fdd638,
supermarket,supermarket,Nusa Tenggara Tim.,,Nusa Tenggara Tim.,NUSA TENGGARA TIMUR,,Indonesia,,,,-86.573.819,1.210.793.705,https://maps.google.com/?cid=0x0:0x1030bfbcaf71ae0,
supermarket,Toko bahan makanan,Ranaka Mart,"Jl. Yos Sudarso No.2, Mbaumuku, Kec. Langke Rembong, Kabupaten Manggarai, Nusa Tenggara Tim.","Kabupaten Manggarai, Nusa Tenggara Tim.",NUSA TENGGARA TIMUR,,Indonesia,38521353,,,-86.110.091,1.204.666.505,https://maps.google.com/?cid=0x0:0xf81c6c6e135ab154,
supermarket,Toko,Colol Mart,"CJ3V+X4V, Ulu Wae, Kec. Poco Ranaka, Kabupaten Manggarai Timur, Nusa Tenggara Tim.","Kabupaten Manggarai Timur, Nusa Tenggara Tim.",NUSA TENGGARA TIMUR,,Indonesia,,,,-85.950.023,1.206.427.964,https://maps.google.com/?cid=0x0:0x966088c1969504c4,
supermarket,Toserba,Supermarket Matahari,"pasar inpres naikoten No.1, Naikoten I, Kec. Kota Raja, Kota Kupang, Nusa Tenggara Tim. 85142","Naikoten I, Kec. Kota Raja, Kota Kupang",NUSA TENGGARA TIMUR,85142.0,Indonesia,,,,-101.813.187,1.236.009.175,https://maps.google.com/?cid=0x0:0x47fc92b423019c18,
supermarket,Toko,Cahaya Emori,"Colol, Kec. Poco Ranaka Timur, Kabupaten Manggarai Timur, Nusa Tenggara Tim. 86583","Kec. Poco Ranaka Timur, Kabupaten Manggarai Timur",NUSA TENGGARA TIMUR,86583.0,Indonesia,,,,-85.940.116,1.206.419.325,https://maps.google.com/?cid=0x0:0x28107e97ee0796ff,
supermarket,Toko bahan makanan,Iron Embok,"Nancang, Mando Sawu, Kec. Poco Ranaka, Mano, Nusa Tenggara Tim. 86583","Mando Sawu, Kec. Poco Ranaka, Mano",NUSA TENGGARA TIMUR,86583.0,Indonesia,82237375720,,,-85.922.755,1.205.409.951,https://maps.google.com/?cid=0x0:0xcb201e08b067f69c,
supermarket,Kedai Kopi,D'Roeng Coffee Colol,"Lembah Colol, Ulu Wae, Kec. Poco Ranaka Timur, Kabupaten Manggarai Timur, Nusa Tenggara Tim. 86583","Ulu Wae, Kec. Poco Ranaka Timur, Kabupaten Manggarai Timur",NUSA TENGGARA TIMUR,86583.0,Indonesia,81238477658,,,-85.944.129,1.206.316.375,https://maps.google.com/?cid=0x0:0xa4f1afb251551032,
supermarket,supermarket,TOKO KITA,"9JH9+PXQ, Jln. Jati - Lehong, Rende Nao, Kec. Poco Ranaka Timur, Kabupaten Manggarai Timur, Nusa Tenggara Tim.","Kabupaten Manggarai Timur, Nusa Tenggara Tim.",NUSA TENGGARA TIMUR,,Indonesia,82119069980,,,-86.206.712,1.206.199.895,https://maps.google.com/?cid=0x0:0xed07071d9195c292,
supermarket,supermarket,Kec. Poco Ranaka,"Kabupaten Manggarai Timur, Nusa Tenggara Tim.","Kabupaten Manggarai Timur, Nusa Tenggara Tim.",NUSA TENGGARA TIMUR,,Indonesia,,,,-86.082.296,1.205.494.563,https://maps.google.com/?cid=0x0:0x82314d6de8f2130,
supermarket,Toko bahan makanan,Simpang Rana Tonjong,"CJ56+8FJ, Unnamed Road, Rende Nao, Kec. Poco Ranaka Timur, Kabupaten Manggarai Timur, Nusa Tenggara Tim.","Kabupaten Manggarai Timur, Nusa Tenggara Tim.",NUSA TENGGARA TIMUR,,Indonesia,,,,-8.591.664,1.206.111.401,https://maps.google.com/?cid=0x0:0xa7efcf4115363680,
supermarket,Toko Swalayan,Nirwana Mart,"9FXJ+769, Kumba, Tenda, Kec. Langke Rembong, Kabupaten Manggarai, Nusa Tenggara Tim.","Kabupaten Manggarai, Nusa Tenggara Tim.",NUSA TENGGARA TIMUR,,Indonesia,,,,-860.184,1.204.806.125,https://maps.google.com/?cid=0x0:0xf2193e1ca1810af0,
supermarket,,Compang Raci,"9JH9+PXQ, Rende Nao, Kec. Poco Ranaka Timur, Kabupaten Manggarai Timur, Nusa Tenggara Tim.","Kabupaten Manggarai Timur, Nusa Tenggara Tim.",NUSA TENGGARA TIMUR,,Indonesia,,,,-86.206.712,1.206.199.895,https://maps.google.com/?cid=0x0:0xf8b0dfa5ce60a843,
supermarket,Toko,Kios prianka,"CHM7+727, Gurung Turi, Kec. Poco Ranaka, Kabupaten Manggarai Timur, Nusa Tenggara Tim.","Kabupaten Manggarai Timur, Nusa Tenggara Tim.",NUSA TENGGARA TIMUR,,Indonesia,,,,-85.671.272,1.205.623.817,https://maps.google.com/?cid=0x0:0x60704af131b0e24b,
supermarket,Toko Swalayan,Griya Cendekia Falah,"9FRJ+9FQ, Carep, Kec. Langke Rembong, Kabupaten Manggarai, Nusa Tenggara Tim.","Kabupaten Manggarai, Nusa Tenggara Tim.",NUSA TENGGARA TIMUR,,Indonesia,85291920000,,,-86.090.375,1.204.812.499,https://maps.google.com/?cid=0x0:0x9ba5d78d0dedd173,
supermarket,Toko,Kios Sembeng Tedeng,"CJXG+WC9, Rengkam, Kec. Poco Ranaka Timur, Kabupaten Manggarai Timur, Nusa Tenggara Tim.","Kabupaten Manggarai Timur, Nusa Tenggara Tim.",NUSA TENGGARA TIMUR,,Indonesia,,,,-85.506.908,1.206.253.674,https://maps.google.com/?cid=0x0:0xd68433aaa5b5590e,
supermarket,Toko Swalayan,Nirwana Pasaraya,"Mbaumuku, Kec. Langke Rembong, Kabupaten Manggarai, Nusa Tenggara Tim.","Kabupaten Manggarai, Nusa Tenggara Tim.",NUSA TENGGARA TIMUR,,Indonesia,38521265,,,-86.090.783,1.204.685.412,https://maps.google.com/?cid=0x0:0x43d25be070da0bcb,
supermarket,Pusat Perbelanjaan,"Toko Karunia (fotocopy, print)","9GWR+4MP, Jl. Ruteng - Benteng Jawa, Mando Sawu, Kec. Poco Ranaka, Kabupaten Manggarai Timur, Nusa Tenggara Tim.","Kabupaten Manggarai Timur, Nusa Tenggara Tim.",NUSA TENGGARA TIMUR,,Indonesia,,,,-86.046.579,1.205.417.055,https://maps.google.com/?cid=0x0:0x835c97c5ce8d5791,
supermarket,Toko bahan makanan,Rumah Febri  Toko klontong,"FG6Q+24, Bea Waek, Kec. Poco Ranaka, Kabupaten Manggarai Timur, Nusa Tenggara Tim.","Kabupaten Manggarai Timur, Nusa Tenggara Tim.",NUSA TENGGARA TIMUR,,Indonesia,,,,-85.392.878,1.205.383.102,https://maps.google.com/?cid=0x0:0xd4cbc60cab79a323,
supermarket,Kios,Kios VONO,"CG5R+F95, Mando Sawu, Kec. Poco Ranaka, Kabupaten Manggarai Timur, Nusa Tenggara Tim.","Kabupaten Manggarai Timur, Nusa Tenggara Tim.",NUSA TENGGARA TIMUR,,Indonesia,,,,-85.913.711,1.205.409.986,https://maps.google.com/?cid=0x0:0x8c092bae03f2e674,
supermarket,Toko bahan makanan,mitra baru,"Tenda, Kec. Langke Rembong, Kabupaten Manggarai, Nusa Tenggara Tim.","Kabupaten Manggarai, Nusa Tenggara Tim.",NUSA TENGGARA TIMUR,,Indonesia,81334327787,,,-86.142.204,1.204.710.616,https://maps.google.com/?cid=0x0:0xe850b1ced6d35c8e,
supermarket,Toko Swalayan,NIRWANA MART TENDA,"9FPG+Q26, Tenda, Kec. Langke Rembong, Kabupaten Manggarai, Nusa Tenggara Tim.","Kabupaten Manggarai, Nusa Tenggara Tim.",NUSA TENGGARA TIMUR,,Indonesia,82147933253,,,-86.132.099,1.204.747.377,https://maps.google.com/?cid=0x0:0xfce60a6a7c055437,
supermarket,Toko umum,Kios mika,"9JH9+PXQ, Rende Nao, Kec. Poco Ranaka Timur, Kabupaten Manggarai Timur, Nusa Tenggara Tim.","Kabupaten Manggarai Timur, Nusa Tenggara Tim.",NUSA TENGGARA TIMUR,,Indonesia,,,,-86.206.712,1.206.199.895,https://maps.google.com/?cid=0x0:0x33f9d3ed4f5740be,
supermarket,Kios,Kios OLVENCIA,"9HW6+PR8, Nggalak Leleng, Kec. Poco Ranaka, Kabupaten Manggarai Timur, Nusa Tenggara Tim.","Kabupaten Manggarai Timur, Nusa Tenggara Tim.",NUSA TENGGARA TIMUR,,Indonesia,,,,-86.032.094,1.205.620.843,https://maps.google.com/?cid=0x0:0x357ba28f0f26936f,
supermarket,Toko Swalayan,Swalayan 33,"Mbaumuku, Kec. Langke Rembong, Kabupaten Manggarai, Nusa Tenggara Tim.","Kabupaten Manggarai, Nusa Tenggara Tim.",NUSA TENGGARA TIMUR,,Indonesia,,,,-86.072.007,1.204.654.154,https://maps.google.com/?cid=0x0:0x70c01f1ebe81c9db,
supermarket,Pusat Perbelanjaan,Leonnel Cell,"CH6H+578, Golo Nderu, Kec. Poco Ranaka, Kabupaten Manggarai Timur, Nusa Tenggara Tim.","Kabupaten Manggarai Timur, Nusa Tenggara Tim.",NUSA TENGGARA TIMUR,,Indonesia,,,,-85.895.777,1.205.781.913,https://maps.google.com/?cid=0x0:0x2ebbb8b717ef9679,
supermarket,Toko bahan makanan,Glorya Kios,"CGRV+8R5, Bangka Kuleng, Kec. Poco Ranaka, Kabupaten Manggarai Timur, Nusa Tenggara Tim.","Kabupaten Manggarai Timur, Nusa Tenggara Tim.",NUSA TENGGARA TIMUR,,Indonesia,,,,-85.592.369,1.205.446.026,https://maps.google.com/?cid=0x0:0xff5898a86e7b761b,
supermarket,Produsen,Kios LELENG CA,"CHCJ+R92, Pocolia, Kec. Poco Ranaka, Kabupaten Manggarai Timur, Nusa Tenggara Tim.","Kabupaten Manggarai Timur, Nusa Tenggara Tim.",NUSA TENGGARA TIMUR,,Indonesia,81238739523,,,-85.779.952,1.205.808.844,https://maps.google.com/?cid=0x0:0x4d983442d58b40d4,
supermarket,supermarket,Kios Murah Rejeki,"9FRG+598, Jl. Satar Tacik, Kumba, Kec. Langke Rembong, Kabupaten Manggarai, Nusa Tenggara Tim.","Kabupaten Manggarai, Nusa Tenggara Tim.",NUSA TENGGARA TIMUR,,Indonesia,82339707935,,,-86.095.838,1.204.759.532,https://maps.google.com/?cid=0x0:0x6bd63bdf7b149fd8,
supermarket,Toko bahan makanan,Kios Pinkan,"9FM8+RW8, Watu, Kec. Langke Rembong, Kabupaten Manggarai, Nusa Tenggara Tim.","Kabupaten Manggarai, Nusa Tenggara Tim.",NUSA TENGGARA TIMUR,,Indonesia,81339899199,,,-86.154.573,1.204.673.128,https://maps.google.com/?cid=0x0:0x7636a608ea3406bf,
supermarket,supermarket,Kec. Lamba Leda,"Kabupaten Manggarai Timur, Nusa Tenggara Tim.","Kabupaten Manggarai Timur, Nusa Tenggara Tim.",NUSA TENGGARA TIMUR,,Indonesia,,,,-8.303.018,1.205.841.504,https://maps.google.com/?cid=0x0:0x250909596892d132,
supermarket,Toko bahan makanan,Kios Dua Putra,"GHQ9+MJC, Tengkulawar, Kec. Lamba Leda, Kabupaten Manggarai Timur, Nusa Tenggara Tim.","Kabupaten Manggarai Timur, Nusa Tenggara Tim.",NUSA TENGGARA TIMUR,,Indonesia,81246223540,,,-84.608.129,1.205.690.215,https://maps.google.com/?cid=0x0:0xdd221d63b7b3bcf6,
supermarket,Minimarket,Alfamart Reo Mata Air,"MFQP+G3J, Unnamed Road, Mata Air, Kec. Reok, Kabupaten Manggarai, Nusa Tenggara Tim.","Kabupaten Manggarai, Nusa Tenggara Tim.",NUSA TENGGARA TIMUR,,Indonesia,,,,-83.111.585,1.204.851.394,https://maps.google.com/?cid=0x0:0x2e0defca8354f1bf,
supermarket,Toko bahan makanan,Kanaya Store,"GHVF+6PM, Tengku Leda, Kec. Lamba Leda, Kabupaten Manggarai Timur, Nusa Tenggara Tim.","Kabupaten Manggarai Timur, Nusa Tenggara Tim.",NUSA TENGGARA TIMUR,,Indonesia,81394524174,,,-84.569.067,1.205.743.118,https://maps.google.com/?cid=0x0:0xd44e55099e175a0,
supermarket,Toko Swalayan,Kios Mas Said,"GHQ9+JQV, Tengkulawar, Kec. Lamba Leda, Kabupaten Manggarai Timur, Nusa Tenggara Tim.","Kabupaten Manggarai Timur, Nusa Tenggara Tim.",NUSA TENGGARA TIMUR,,Indonesia,85291920000,,,-84.608.855,1.205.694.367,https://maps.google.com/?cid=0x0:0x83a6174b886d63c9,
supermarket,Toko bahan makanan,Mini Market Bandung Utama Group,"MFQQ+WM6, Reo, Kec. Reok, Kabupaten Manggarai, Nusa Tenggara Tim.","Kabupaten Manggarai, Nusa Tenggara Tim.",NUSA TENGGARA TIMUR,,Indonesia,,,,-83.102.064,1.204.891.383,https://maps.google.com/?cid=0x0:0x4065c20e2aa3e7d4,
supermarket,Pusat Perbelanjaan,Benteng Jawa,"GHQC+RM2, Unnamed Road, Tengkulawar, Lamba Leda, East Manggarai Regency, East Nusa Tenggara","Kabupaten Manggarai Timur, Nusa Tenggara Tim.",NUSA TENGGARA TIMUR,,Indonesia,,,,-84.604.793,1.205.716.537,https://maps.google.com/?cid=0x0:0x5f8ad1456e242d00,
supermarket,Toko Kesehatan dan Kecantikan,Varash Lensi,"MFJP+XQJ, Raba, Satar Punda, Kec. Lamba Leda, Kabupaten Manggarai Timur, Nusa Tenggara Tim.","Kabupaten Manggarai Timur, Nusa Tenggara Tim.",NUSA TENGGARA TIMUR,,Indonesia,,,,-83.175.408,1.204.868.874,https://maps.google.com/?cid=0x0:0x956f45555bece7f7,
supermarket,Komplek perumahan,ARFA,"HH73+7F, Goreng Meni, Kec. Lamba Leda, Kabupaten Manggarai Timur, Nusa Tenggara Tim.","Kabupaten Manggarai Timur, Nusa Tenggara Tim.",NUSA TENGGARA TIMUR,,Indonesia,,,,-84.367.746,1.205.535.675,https://maps.google.com/?cid=0x0:0xd66fa386570a2106,
supermarket,Minimarket,Kios ALDI,"MHXM+79H, Satar Kampas, Kec. Lamba Leda, Kabupaten Manggarai Timur, Nusa Tenggara Tim.","Kabupaten Manggarai Timur, Nusa Tenggara Tim.",NUSA TENGGARA TIMUR,,Indonesia,,,,-8.301.807,1.205.834.848,https://maps.google.com/?cid=0x0:0x2b6646627028a694,
supermarket,Klinik Medis,TOKO OBAT LIA KASIH,"GJX3+33C, Compang Mekar, Kec. Lamba Leda, Kabupaten Manggarai Timur, Nusa Tenggara Tim.","Kabupaten Manggarai Timur, Nusa Tenggara Tim.",NUSA TENGGARA TIMUR,,Indonesia,,,,-8.451.647,120.603.637,https://maps.google.com/?cid=0x0:0x61df131c55856197,
supermarket,Toko bahan makanan,Swalayan Pagi,"MFQR+V24, Reo, Kec. Reok, Kabupaten Manggarai, Nusa Tenggara Tim.","Kabupaten Manggarai, Nusa Tenggara Tim.",NUSA TENGGARA TIMUR,,Indonesia,,,,-83.103.661,1.204.900.678,https://maps.google.com/?cid=0x0:0x611f116a93b6306d,
supermarket,Toko bahan makanan,Minimarket Semangat Pagi,"MFQP+94H, Mata Air, Kec. Reok, Kabupaten Manggarai, Nusa Tenggara Tim.","Kabupaten Manggarai, Nusa Tenggara Tim.",NUSA TENGGARA TIMUR,,Indonesia,38561156,,,-83.115.746,1.204.853.725,https://maps.google.com/?cid=0x0:0xd3ee4f2e9301ce04,
supermarket,supermarket,Rumah Bpk salahudin Abdullah,"MHV7+GRJ, Satar Padut, Kec. Lamba Leda, Kabupaten Manggarai Timur, Nusa Tenggara Tim.","Kabupaten Manggarai Timur, Nusa Tenggara Tim.",NUSA TENGGARA TIMUR,,Indonesia,,,,-83.061.675,1.205.645.281,https://maps.google.com/?cid=0x0:0x64df9bb07f86c33c,
supermarket,Toko umum,Kios Mama Reski,"MFMP+GC4, Satar Punda, Kec. Lamba Leda, Kabupaten Manggarai Timur, Nusa Tenggara Tim.","Kabupaten Manggarai Timur, Nusa Tenggara Tim.",NUSA TENGGARA TIMUR,,Indonesia,81316594559,,,-83.164.801,1.204.853.543,https://maps.google.com/?cid=0x0:0xc2626959783e320d,
supermarket,Minimarket,kios Titipan Ayah,"GJWC+R3G, Golo Lembur, Kec. Lamba Leda, Kabupaten Manggarai Timur, Nusa Tenggara Tim.","Kabupaten Manggarai Timur, Nusa Tenggara Tim.",NUSA TENGGARA TIMUR,,Indonesia,85283395695,,,-84.520.814,1.206.201.377,https://maps.google.com/?cid=0x0:0x3b928d74f46c670f,
supermarket,Toko umum,kios Della,"JJ7P+G3, Haju Wangi, Kec. Lamba Leda, Kabupaten Manggarai Timur, Nusa Tenggara Tim.","Kabupaten Manggarai Timur, Nusa Tenggara Tim.",NUSA TENGGARA TIMUR,,Indonesia,,,,-83.861.428,120.635.087,https://maps.google.com/?cid=0x0:0x886b6861d8c98ecc,
supermarket,Minimarket,Aquabella Mart,"PH2W+J2W, Dampek, Jalan Reo-Pota, Satar Padut, Kec. Lamba Leda, Kabupaten Manggarai Timur, Nusa Tenggara Tim.","Kabupaten Manggarai Timur, Nusa Tenggara Tim.",NUSA TENGGARA TIMUR,,Indonesia,,,,-82.983.983,1.205.950.654,https://maps.google.com/?cid=0x0:0x6b723a4b048e6e50,
supermarket,Kios,Roy Home,"HJC3+MF2, Golo Rentung, Kec. Lamba Leda, Kabupaten Manggarai Timur, Nusa Tenggara Tim.","Kabupaten Manggarai Timur, Nusa Tenggara Tim.",NUSA TENGGARA TIMUR,,Indonesia,,,,-8.428.188,1.206.035.227,https://maps.google.com/?cid=0x0:0x50af3bf04716ffcd,
supermarket,Minimarket,KIOS NAI,"HH59+MMW, Compang Deru, Kec. Lamba Leda, Kabupaten Manggarai Timur, Nusa Tenggara Tim.","Kabupaten Manggarai Timur, Nusa Tenggara Tim.",NUSA TENGGARA TIMUR,,Indonesia,,,,-84.407.626,1.205.691.998,https://maps.google.com/?cid=0x0:0x6820e558e05f1b46,
supermarket,Seafood,Pasar Reo,"MFQR+R9G, Reo, Kec. Reok, Kabupaten Manggarai, Nusa Tenggara Tim.","Kabupaten Manggarai, Nusa Tenggara Tim.",NUSA TENGGARA TIMUR,,Indonesia,,,,-83.104.323,1.204.909.679,https://maps.google.com/?cid=0x0:0x1105cc97600d9cda,
supermarket,Kios,ANTONIUS WARUS,"PH2V+4RC, Satar Padut, Kec. Lamba Leda, Kabupaten Manggarai Timur, Nusa Tenggara Tim.","Kabupaten Manggarai Timur, Nusa Tenggara Tim.",NUSA TENGGARA TIMUR,,Indonesia,,,,-82.996.926,1.205.945.281,https://maps.google.com/?cid=0x0:0xc00d4084847ca41d,
supermarket,Toko umum,Kios bang joni,"Compang Necak, Kec. Lamba Leda, Kabupaten Manggarai Timur, Nusa Tenggara Tim.","Kabupaten Manggarai Timur, Nusa Tenggara Tim.",NUSA TENGGARA TIMUR,,Indonesia,,,,-8.489.666,1.206.059.743,https://maps.google.com/?cid=0x0:0x7dacd8e6350d9759,
supermarket,Toko Swalayan,Kios Dua Putri,"GHQC+7JW, Jl. Ruteng - Benteng Jawa, Tengkulawar, Kec. Lamba Leda, Kabupaten Manggarai Timur, Nusa Tenggara Tim.","Kabupaten Manggarai Timur, Nusa Tenggara Tim.",NUSA TENGGARA TIMUR,,Indonesia,,,,-84.617.707,1.205.715.786,https://maps.google.com/?cid=0x0:0xc124523da95f7b37,
supermarket,Minimarket,mini kios LA-MURNY,"MFMP+GC4, Satar Punda, Kec. Lamba Leda, Kabupaten Manggarai Timur, Nusa Tenggara Tim.","Kabupaten Manggarai Timur, Nusa Tenggara Tim.",NUSA TENGGARA TIMUR,,Indonesia,,,,-83.164.712,1.204.862.344,https://maps.google.com/?cid=0x0:0x89cd17ed718a758,
supermarket,supermarket,Kec. Sambi Rampas,"Kabupaten Manggarai Timur, Nusa Tenggara Tim.","Kabupaten Manggarai Timur, Nusa Tenggara Tim.",NUSA TENGGARA TIMUR,,Indonesia,,,,-8.347.378,1.207.548.886,https://maps.google.com/?cid=0x0:0xf9c936bcfd9766a6,
supermarket,Toko bahan makanan,HAIDAR MART,"MQ55+QMW, Lingkungan Sarae, RT.001/RW.001, Pota, Kec. Sambi Rampas, Kabupaten Manggarai Timur, Nusa Tenggara Tim.","Kabupaten Manggarai Timur, Nusa Tenggara Tim.",NUSA TENGGARA TIMUR,,Indonesia,,,,-83.405.087,1.207.592.144,https://maps.google.com/?cid=0x0:0x1f79f74b219d85e6,
supermarket,Minimarket,ONE MART 24 JAM,"MQ23+C5H, Unnamed Road, Pota, Kec. Sambi Rampas, Kabupaten Manggarai Timur, Nusa Tenggara Tim.","Kabupaten Manggarai Timur, Nusa Tenggara Tim.",NUSA TENGGARA TIMUR,,Indonesia,82144222524,,,-83.489.494,1.207.529.769,https://maps.google.com/?cid=0x0:0x32fa47382501e70a,
supermarket,Komplek perumahan,Rumah Bp.Paulus,"FM3X+569, Satar Nawang, Kec. Sambi Rampas, Kabupaten Manggarai Timur, Nusa Tenggara Tim.","Kabupaten Manggarai Timur, Nusa Tenggara Tim.",NUSA TENGGARA TIMUR,,Indonesia,,,,-85.470.862,1.206.981.088,https://maps.google.com/?cid=0x0:0x6c539163d53e4d6a,
supermarket,Kios,Kios Mama Andi,"Jln. Lintas Utara Reo Golo Nila, Nanga Baras, Kec. Sambi Rampas, Kabupaten Manggarai Timur, Nusa Tenggara Tim. 86584","Nanga Baras, Kec. Sambi Rampas, Kabupaten Manggarai Timur",NUSA TENGGARA TIMUR,86584.0,Indonesia,,,,-84.272.222,1.206.725,https://maps.google.com/?cid=0x0:0x11d775cdacb8c023,
supermarket,Toko bahan makanan,Home Abdullah Daeng Manda,"MQ37+R3Q, Pota, Kec. Sambi Rampas, Kabupaten Manggarai Timur, Nusa Tenggara Tim.","Kabupaten Manggarai Timur, Nusa Tenggara Tim.",NUSA TENGGARA TIMUR,,Indonesia,,,,-83.454.008,1.207.627.406,https://maps.google.com/?cid=0x0:0xc6f04f905c39bbe9,
supermarket,Pembangunan Perumahan,Wahyu Store,"MQ56+F73, Pota, Kec. Sambi Rampas, Kabupaten Manggarai Timur, Nusa Tenggara Tim.","Kabupaten Manggarai Timur, Nusa Tenggara Tim.",NUSA TENGGARA TIMUR,,Indonesia,,,,-83.413.836,1.207.606.438,https://maps.google.com/?cid=0x0:0x96042402fbc0f131,
supermarket,Toko,AL SYIFA SHOP,"MQ66+86H, Pota, Kec. Sambi Rampas, Kabupaten Manggarai Timur, Nusa Tenggara Tim.","Kabupaten Manggarai Timur, Nusa Tenggara Tim.",NUSA TENGGARA TIMUR,,Indonesia,,,,-83.391.782,1.207.606.187,https://maps.google.com/?cid=0x0:0x32ab73e780daa637,
supermarket,Toko,Telage,"JPWH+3M9, Pota, Kec. Sambi Rampas, Kabupaten Manggarai Timur, Nusa Tenggara Tim.","Kabupaten Manggarai Timur, Nusa Tenggara Tim.",NUSA TENGGARA TIMUR,,Indonesia,82218126638,,,-83.548.304,1.207.292.472,https://maps.google.com/?cid=0x0:0x4bb18d8da15fb4d8,
supermarket,Kios,Kios Tari,"FM5F+F4W, Satar Nawang, Kec. Sambi Rampas, Kabupaten Manggarai Timur, Nusa Tenggara Tim.","Kabupaten Manggarai Timur, Nusa Tenggara Tim.",NUSA TENGGARA TIMUR,,Indonesia,,,,-85.408.591,120.672.085,https://maps.google.com/?cid=0x0:0xeb708ee07208fb14,
supermarket,Toko,Aneka Jaya,"Pota, Kec. Sambi Rampas, Kabupaten Manggarai Timur, Nusa Tenggara Tim.","Kabupaten Manggarai Timur, Nusa Tenggara Tim.",NUSA TENGGARA TIMUR,,Indonesia,81236094759,,,-83.460.502,1.207.597.587,https://maps.google.com/?cid=0x0:0x9a7d22e529b9e711,
supermarket,Minimarket,Tk. Sinar Jaya,"FM4F+Q86, Unnamed Road, Satar Nawang, Sambi Rampas, East Manggarai Regency, East Nusa Tenggara","Kabupaten Manggarai Timur, Nusa Tenggara Tim.",NUSA TENGGARA TIMUR,,Indonesia,,,,-854.308,120.673.252,https://maps.google.com/?cid=0x0:0xd176cf0083c59a81,
supermarket,Toko,TOKO HAFARA,"JQX3+34Q, Unnamed Road, Pota, Kec. Sambi Rampas, Kabupaten Manggarai Timur, Nusa Tenggara Tim.","Kabupaten Manggarai Timur, Nusa Tenggara Tim.",NUSA TENGGARA TIMUR,,Indonesia,,,,-8.352.289,120.752.854,https://maps.google.com/?cid=0x0:0x8bd491c968c9962b,
supermarket,Toko,Kios Maumere Manise Pota Manggarai Timur,"MQ26+2HW, Pota, Kec. Sambi Rampas, Kabupaten Manggarai Timur, Nusa Tenggara Tim.","Kabupaten Manggarai Timur, Nusa Tenggara Tim.",NUSA TENGGARA TIMUR,,Indonesia,,,,-83.498.835,1.207.614.453,https://maps.google.com/?cid=0x0:0xed5e22fa5981e8c6,
supermarket,Toko,Kios Ale,"Pota, Kec. Sambi Rampas, Kabupaten Manggarai Timur, Nusa Tenggara Tim.","Kabupaten Manggarai Timur, Nusa Tenggara Tim.",NUSA TENGGARA TIMUR,,Indonesia,82147209038,,,-83.471.144,1.207.548.104,https://maps.google.com/?cid=0x0:0xde956ee10d835690,
supermarket,Toko bahan makanan,Rumah teri,"FM7F+R7, Satar Nawang, Kec. Sambi Rampas, Kabupaten Manggarai Timur, Nusa Tenggara Tim.","Kabupaten Manggarai Timur, Nusa Tenggara Tim.",NUSA TENGGARA TIMUR,,Indonesia,,,,-85.349.639,1.206.745.113,https://maps.google.com/?cid=0x0:0xdbb9eb8ceb612bca,
supermarket,Toko,Toko Safil,"MQ23+2GF, Pota, Kec. Sambi Rampas, Kabupaten Manggarai Timur, Nusa Tenggara Tim.","Kabupaten Manggarai Timur, Nusa Tenggara Tim.",NUSA TENGGARA TIMUR,,Indonesia,,,,-83.505.237,1.207.531.927,https://maps.google.com/?cid=0x0:0x61cd68f2ee5d6af8,
supermarket,Minimarket,Oki kembo,"HMG6+2HX, Nanga Baras, Kec. Sambi Rampas, Kabupaten Manggarai Timur, Nusa Tenggara Tim.","Kabupaten Manggarai Timur, Nusa Tenggara Tim.",NUSA TENGGARA TIMUR,,Indonesia,,,,-84.248.814,1.206.614.903,https://maps.google.com/?cid=0x0:0xa613194f49f6624b,
supermarket,Toko Roti,Rumah alif,"MQ65+FW3, Pota, Kec. Sambi Rampas, Kabupaten Manggarai Timur, Nusa Tenggara Tim.","Kabupaten Manggarai Timur, Nusa Tenggara Tim.",NUSA TENGGARA TIMUR,,Indonesia,,,,-8.339.288,120.760.032,https://maps.google.com/?cid=0x0:0xcfcc1f88b552e295,
supermarket,Toko umum,ARON KIOS,"Lawi Desa Compang Lawi, Satar Nawang, Kec. Sambi Rampas, Kabupaten Manggarai Timur, Nusa Tenggara Tim. 86584","Satar Nawang, Kec. Sambi Rampas, Kabupaten Manggarai Timur",NUSA TENGGARA TIMUR,86584.0,Indonesia,81231974291,,,-85.480.364,1.206.948.756,https://maps.google.com/?cid=0x0:0xb68cd7e998f9bca4,
supermarket,Toko Obat,Toko Obat INAYAH,"JQX3+286, Pota, Kec. Sambi Rampas, Kabupaten Manggarai Timur, Nusa Tenggara Tim.","Kabupaten Manggarai Timur, Nusa Tenggara Tim.",NUSA TENGGARA TIMUR,,Indonesia,,,,-83.524.698,120.753.264,https://maps.google.com/?cid=0x0:0x3b586b082119fdb1,
supermarket,Komplek perumahan,Toko material bangunan Wahyu Hidayat TJ,"MQ66+P3F, Pota, Kec. Sambi Rampas, Kabupaten Manggarai Timur, Nusa Tenggara Tim.","Kabupaten Manggarai Timur, Nusa Tenggara Tim.",NUSA TENGGARA TIMUR,,Indonesia,,,,-83.381.753,120.760.158,https://maps.google.com/?cid=0x0:0xa4b94d3d89b37216,
supermarket,Toko,MissAyz shop,"MQ56+FFC, Pota, Kec. Sambi Rampas, Kabupaten Manggarai Timur, Nusa Tenggara Tim.","Kabupaten Manggarai Timur, Nusa Tenggara Tim.",NUSA TENGGARA TIMUR,,Indonesia,,,,-83.413.085,1.207.611.493,https://maps.google.com/?cid=0x0:0x62111a8ad8b114ff,
supermarket,Kios,KIOS ALFAH,"MQ66+PR4, Pota, Kec. Sambi Rampas, Kabupaten Manggarai Timur, Nusa Tenggara Tim.","Kabupaten Manggarai Timur, Nusa Tenggara Tim.",NUSA TENGGARA TIMUR,,Indonesia,81237337118,,,-83.375.809,1.207.611.642,https://maps.google.com/?cid=0x0:0x14d24c7c459593cc,
supermarket,supermarket,Kec. Elar,"Kabupaten Manggarai Timur, Nusa Tenggara Tim.","Kabupaten Manggarai Timur, Nusa Tenggara Tim.",NUSA TENGGARA TIMUR,,Indonesia,,,,-84.244.952,1.208.728.615,https://maps.google.com/?cid=0x0:0xa3e720c639fa11c4,
supermarket,Minimarket,Kios Mikhayla,"FQPR+8HJ, Golomongkok, Indonesia, Tiwu Kondo, Kec. Elar, Kabupaten Manggarai Timur, Nusa Tenggara Tim.","Kabupaten Manggarai Timur, Nusa Tenggara Tim.",NUSA TENGGARA TIMUR,,Indonesia,81280671148,,,-85.141.667,1.207.913.889,https://maps.google.com/?cid=0x0:0x3c4d0fba7fb9b114,
supermarket,supermarket,pasar elar,"FQGC+2F4, Unnamed Road, Tiwu Kondo, Kec. Elar, Kabupaten Manggarai Timur, Nusa Tenggara Tim.","Kabupaten Manggarai Timur, Nusa Tenggara Tim.",NUSA TENGGARA TIMUR,,Indonesia,,,,-85.249.884,12.077.119,https://maps.google.com/?cid=0x0:0xd5bf41eb46d88c84,
supermarket,Toko bahan makanan,Fritz Mart,"FPFH+CWF, Lengko Namut, Kec. Elar, Kabupaten Manggarai Timur, Nusa Tenggara Tim.","Kabupaten Manggarai Timur, Nusa Tenggara Tim.",NUSA TENGGARA TIMUR,,Indonesia,,,,-85.264.271,120.729.785,https://maps.google.com/?cid=0x0:0x672dcac150b51ec1,
supermarket,Kios,KIOS Sinar kasih,"CQX2+6Q7, Wae Lokom, Kec. Elar, Kabupaten Manggarai Timur, Nusa Tenggara Tim.","Kabupaten Manggarai Timur, Nusa Tenggara Tim.",NUSA TENGGARA TIMUR,,Indonesia,,,,-8.551.793,1.207.493.827,https://maps.google.com/?cid=0x0:0xb196a667de2901be,
supermarket,Toko Perlengkapan Rumah,Kios JAFLO,"Munte kelurahan, Lempang Paji, Kec. Elar Selatan, Kabupaten Manggarai Timur, Nusa Tenggara Tim. 86580","Lempang Paji, Kec. Elar Selatan, Kabupaten Manggarai Timur",NUSA TENGGARA TIMUR,86580.0,Indonesia,81317256720,,,-85.220.102,1.208.221.902,https://maps.google.com/?cid=0x0:0x9a0d38f6c3164634,
supermarket,Komplek perumahan,Gising elar selatan,"9RP8+CF, Gising, Kec. Elar Selatan, Kabupaten Manggarai Timur, Nusa Tenggara Tim.","Kabupaten Manggarai Timur, Nusa Tenggara Tim.",NUSA TENGGARA TIMUR,,Indonesia,,,,-86.139.375,1.208.161.875,https://maps.google.com/?cid=0x0:0xadb67db628514377,
supermarket,Toko,TOKO GUSTO,"FPHJ+QM3, Lengko Namut, Kec. Elar, Kabupaten Manggarai Timur, Nusa Tenggara Tim.","Kabupaten Manggarai Timur, Nusa Tenggara Tim.",NUSA TENGGARA TIMUR,,Indonesia,,,,-852.062,1.207.316.863,https://maps.google.com/?cid=0x0:0x9a77a83e7af8f91e,
supermarket,Toko,Kios Fidel,"GPH6+94, Rana Kulan, Kec. Elar, Kabupaten Manggarai Timur, Nusa Tenggara Tim.","Kabupaten Manggarai Timur, Nusa Tenggara Tim.",NUSA TENGGARA TIMUR,,Indonesia,,,,-84.714.642,1.207.102.758,https://maps.google.com/?cid=0x0:0x68f7fb94a8dc9809,
supermarket,Toko bahan makanan,Kalyka,"FMXG+54P, Golo Wangkung, Kec. Sambi Rampas, Kabupaten Manggarai Timur, Nusa Tenggara Tim.","Kabupaten Manggarai Timur, Nusa Tenggara Tim.",NUSA TENGGARA TIMUR,,Indonesia,,,,-85.020.379,1.206.753.201,https://maps.google.com/?cid=0x0:0xe5fc0071bd53f1b4,
supermarket,Kios,Kios yuta,"GPH6+C46 Kios yuta, Rana Kulan, Kec. Elar, Kabupaten Manggarai Timur, Nusa Tenggara Tim.","Kabupaten Manggarai Timur, Nusa Tenggara Tim.",NUSA TENGGARA TIMUR,,Indonesia,,,,-84.714.642,1.207.102.758,https://maps.google.com/?cid=0x0:0x26b6bc8b0f418c06,
supermarket,Toko bahan makanan,HAIDAR MART,"MQ55+QMW, Lingkungan Sarae, RT.001/RW.001, Pota, Kec. Sambi Rampas, Kabupaten Manggarai Timur, Nusa Tenggara Tim.","Kabupaten Manggarai Timur, Nusa Tenggara Tim.",NUSA TENGGARA TIMUR,,Indonesia,,,,-83.405.087,1.207.592.144,https://maps.google.com/?cid=0x0:0x1f79f74b219d85e6,
supermarket,Kios,D'JHINO FOTO COPY  ATK,"Wukir, Sangan Kalo, Kec. Elar Selatan, Kabupaten Manggarai Timur, Nusa Tenggara Tim. 86581","Sangan Kalo, Kec. Elar Selatan, Kabupaten Manggarai Timur",NUSA TENGGARA TIMUR,86581.0,Indonesia,83147636007,,,-85.813.808,1.208.376.147,https://maps.google.com/?cid=0x0:0x9bd78d80434d0d7,
supermarket,Kios,KIOS PUTRY GEMRI,"Renden (Simpang 4, Paan Waru, Kec. Elar Selatan, Kabupaten Manggarai Timur, Nusa Tenggara Tim.","Kabupaten Manggarai Timur, Nusa Tenggara Tim.",NUSA TENGGARA TIMUR,,Indonesia,81236174926,,,-86.399.093,1.207.867.129,https://maps.google.com/?cid=0x0:0x4a1ca5bf1b731ddf,
supermarket,Kios,MM Loti,"FVHM+R67, Lanamai, Kec. Riung Bar., Kabupaten Ngada, Nusa Tenggara Tim.","Kabupaten Ngada, Nusa Tenggara Tim.",NUSA TENGGARA TIMUR,,Indonesia,,,,-85.204.672,120.883.032,https://maps.google.com/?cid=0x0:0xa2f54bbe5ba93e19,
supermarket,Komplek perumahan,Rumah Bp.Paulus,"FM3X+569, Satar Nawang, Kec. Sambi Rampas, Kabupaten Manggarai Timur, Nusa Tenggara Tim.","Kabupaten Manggarai Timur, Nusa Tenggara Tim.",NUSA TENGGARA TIMUR,,Indonesia,,,,-85.470.862,1.206.981.088,https://maps.google.com/?cid=0x0:0x6c539163d53e4d6a,
supermarket,Gereja,Gereja Katolik St. Yohanes Pemandi Lengko Elar,"FQFC+923, Unnamed Rd, Tiwu Kondo, Kec. Elar, Kabupaten Manggarai Timur, Nusa Tenggara Tim.","Kabupaten Manggarai Timur, Nusa Tenggara Tim.",NUSA TENGGARA TIMUR,,Indonesia,,,,-85.266.074,120.770.041,https://maps.google.com/?cid=0x0:0x5fc578f5c982a01c,
supermarket,Minimarket,ONE MART 24 JAM,"MQ23+C5H, Unnamed Road, Pota, Kec. Sambi Rampas, Kabupaten Manggarai Timur, Nusa Tenggara Tim.","Kabupaten Manggarai Timur, Nusa Tenggara Tim.",NUSA TENGGARA TIMUR,,Indonesia,82144222524,,,-83.489.494,1.207.529.769,https://maps.google.com/?cid=0x0:0x32fa47382501e70a,
supermarket,Toko Elektronik,bp. mario,"CV34+WRM, Sangan Kalo, Kec. Elar, Kabupaten Manggarai Timur, Nusa Tenggara Tim.","Kabupaten Manggarai Timur, Nusa Tenggara Tim.",NUSA TENGGARA TIMUR,,Indonesia,81337243311,,,-85.951.717,1.208.570.361,https://maps.google.com/?cid=0x0:0x24141ed326801bc4,
supermarket,Minimarket,Tk. Sinar Jaya,"FM4F+Q86, Unnamed Road, Satar Nawang, Sambi Rampas, East Manggarai Regency, East Nusa Tenggara","Kabupaten Manggarai Timur, Nusa Tenggara Tim.",NUSA TENGGARA TIMUR,,Indonesia,,,,-854.308,120.673.252,https://maps.google.com/?cid=0x0:0xd176cf0083c59a81,
supermarket,supermarket,Kios Mitra Karya,"CR5W+JVC, Unnamed Road, Sangan Kalo, Kec. Elar, Kabupaten Manggarai Timur, Nusa Tenggara Tim.","Kabupaten Manggarai Timur, Nusa Tenggara Tim.",NUSA TENGGARA TIMUR,,Indonesia,82233321756,,,-85.909.414,1.208.471.486,https://maps.google.com/?cid=0x0:0xbf841c1176505267,
supermarket,Supermarket Diskon,EL Mart,"Apartemen Kalibata City Tower Jasmine BM06 Jl. Kalibata Raya, RT.11/RW.RT 04, Rawajati, Kec. Pancoran, Kota Jakarta Selatan, Daerah Khusus Ibukota Jakarta 12750","RT.11/RW.RT 04, Rawajati, Kec. Pancoran, Kota Jakarta Selatan",NUSA TENGGARA TIMUR,12750.0,Indonesia,88211982371,,,-6.256.955,106.852.004,https://maps.google.com/?cid=0x0:0xf9568c90b357b4b8,
supermarket,Toko Swalayan,Angel Mart Apartemen Kalibata City,"Apartemen Kalibata City Tower Flmaboyan.19AL, Daerah Khusus Ibukota Jakarta 12750","Kota Jakarta Selatan, Daerah Khusus Ibukota Jakarta",NUSA TENGGARA TIMUR,,Indonesia,82124248167,,,-62.572.696,1.068.520.949,https://maps.google.com/?cid=0x0:0xd5f7e5c33400af99,
supermarket,supermarket,Kec. Kota Komba,"Kabupaten Manggarai Timur, Nusa Tenggara Tim.","Kabupaten Manggarai Timur, Nusa Tenggara Tim.",NUSA TENGGARA TIMUR,,Indonesia,,,,-88.273.426,1.208.051.136,https://maps.google.com/?cid=0x0:0xb5521e292aca4357,
supermarket,Pusat Perbelanjaan,Kios Mikhayla Putri.,"Golo mongkok,Indonesia, Watumori, Kec. Rana Mese, Kabupaten Manggarai Timur, Nusa Tenggara Tim. 86571","Watumori, Kec. Rana Mese, Kabupaten Manggarai Timur",NUSA TENGGARA TIMUR,86571.0,Indonesia,81280671148,,,-87.570.283,1.205.748.783,https://maps.google.com/?cid=0x0:0x1580a1c4428ab901,
supermarket,Sekolah Dasar,SDK PAUNDOA,"5PRR+C7H, Komba, Kec. Kota Komba, Kabupaten Manggarai Timur, Nusa Tenggara Tim.","Kabupaten Manggarai Timur, Nusa Tenggara Tim.",NUSA TENGGARA TIMUR,,Indonesia,,,,-88.089.457,1.207.407.425,https://maps.google.com/?cid=0x0:0xfe941823ea4e3d05,
supermarket,Taman,golotolang,"6MJG+XJG, Pong Ruan, Kec. Kota Komba, Kabupaten Manggarai Timur, Nusa Tenggara Tim.","Kabupaten Manggarai Timur, Nusa Tenggara Tim.",NUSA TENGGARA TIMUR,,Indonesia,,,,-87.675.522,1.206.765.898,https://maps.google.com/?cid=0x0:0x78e84c6da2b3eba3,
supermarket,Minimarket,KR Mart,"Jl. Lintas Flores, Waelengga, Watu Nggene, Kec. Kota Komba, Kabupaten Manggarai Timur, Nusa Tenggara Tim.","Kabupaten Manggarai Timur, Nusa Tenggara Tim.",NUSA TENGGARA TIMUR,,Indonesia,85218438149,,,-88.279.097,1.208.027.121,https://maps.google.com/?cid=0x0:0xf8e5aa5e5ff2561e,
supermarket,Toko umum,Pasar Inpres Terpadu Mukun,"8MVQ+G9G, Golomeni, Kec. Kota Komba, Kabupaten Manggarai Timur, Nusa Tenggara Tim.","Kabupaten Manggarai Timur, Nusa Tenggara Tim.",NUSA TENGGARA TIMUR,,Indonesia,,,,-86.561.929,1.206.884.539,https://maps.google.com/?cid=0x0:0x8e5cf152296a83,
supermarket,Toko Perlengkapan Rumah,Kios Kasih Indah,"5QFX+M48, Unnamed Road, Kota Komba, Kabupaten Manggarai Timur, Nusa Tenggara Tim., Watu Nggene, Kec. Kota Komba, Kabupaten Manggarai Timur, Nusa Tenggara Tim.","Kabupaten Manggarai Timur, Nusa Tenggara Tim.",NUSA TENGGARA TIMUR,,Indonesia,,,,-88.258.428,1.207.978.423,https://maps.google.com/?cid=0x0:0xfd6a61cdc72d1a03,
supermarket,Toko,Kios Rendi,"5RC3+Q5R, Watu Nggene, Kec. Kota Komba, Kabupaten Manggarai Timur, Nusa Tenggara Tim.","Kabupaten Manggarai Timur, Nusa Tenggara Tim.",NUSA TENGGARA TIMUR,,Indonesia,,,,-88.280.223,1.208.028.886,https://maps.google.com/?cid=0x0:0xcde0dffb8791447b,
supermarket,Pusat Perbelanjaan,Kios St. Theresia,"5MW6+GGP, Kisol, Tanah Rata, Kec. Kota Komba, Kabupaten Manggarai Timur, Nusa Tenggara Tim.","Kabupaten Manggarai Timur, Nusa Tenggara Tim.",NUSA TENGGARA TIMUR,,Indonesia,,,,-880.365,120.661.324,https://maps.google.com/?cid=0x0:0xfc8126378e104d17,
supermarket,Kios,Kios JP,"6PR7+87C, Mbengan, Kec. Kota Komba, Kabupaten Manggarai Timur, Nusa Tenggara Tim.","Kabupaten Manggarai Timur, Nusa Tenggara Tim.",NUSA TENGGARA TIMUR,,Indonesia,82325485260,,,-8.759.176,1.207.131.409,https://maps.google.com/?cid=0x0:0xa595ab3dffb7b12d,
supermarket,Toko,Karlos Mart,"6J6M+6JM, Ruan, Kec. Kota Komba, Kabupaten Manggarai Timur, Nusa Tenggara Tim.","Kabupaten Manggarai Timur, Nusa Tenggara Tim.",NUSA TENGGARA TIMUR,,Indonesia,,,,-87.895.395,1.206.348.935,https://maps.google.com/?cid=0x0:0x8312884a2972e888,
supermarket,Kios,Kios Clewin Lalong,"Rana Kolong, Kec. Kota Komba, Kabupaten Manggarai Timur, Nusa Tenggara Tim.","Kabupaten Manggarai Timur, Nusa Tenggara Tim.",NUSA TENGGARA TIMUR,,Indonesia,82341088799,,,-87.600.422,1.207.508.779,https://maps.google.com/?cid=0x0:0xd9f818c54420b607,
supermarket,Toko,Kios BPD LINK VONI MARSELINO,"8P76+QPX, Mokel, Kec. Kota Komba, Kabupaten Manggarai Timur, Nusa Tenggara Tim.","Kabupaten Manggarai Timur, Nusa Tenggara Tim.",NUSA TENGGARA TIMUR,,Indonesia,,,,-86.855.117,1.207.118.459,https://maps.google.com/?cid=0x0:0x7e2ddcd49ae2ef7f,
supermarket,Toko,Pasar Waelengga,"5RC2+764, Jln. Lintas Flores Waelengga, Watu Nggene, Kec. Kota Komba, Kabupaten Manggarai Timur, Nusa Tenggara Tim.","Kabupaten Manggarai Timur, Nusa Tenggara Tim.",NUSA TENGGARA TIMUR,,Indonesia,,,,-8.829.353,1.208.005.645,https://maps.google.com/?cid=0x0:0xc277b48487f47549,
supermarket,Toko bahan makanan,KIOS 3 N,"7MGR+2C5, Metuk desa golo ndele kecamatan kota komba utara, Paan Leleng, Kabupaten Manggarai Timur","Kabupaten Manggarai Timur, Nusa Tenggara Tim.",NUSA TENGGARA TIMUR,,Indonesia,,,,-8.725,1.206.911.111,https://maps.google.com/?cid=0x0:0x2b71db6818c85ead,
supermarket,Minimarket,Toko Sumber Damai Waerana,"6P98+648, Rongga Koe, Kec. Kota Komba, Kabupaten Manggarai Timur, Nusa Tenggara Tim.","Kabupaten Manggarai Timur, Nusa Tenggara Tim.",NUSA TENGGARA TIMUR,,Indonesia,,,,-87.819.615,1.207.153.397,https://maps.google.com/?cid=0x0:0x8dab330568ea5592,
supermarket,Toko bahan makanan,Mini market D'purnama,"8P6X+22C, Rana mbata, Kec. Kota Komba, Kabupaten Manggarai Timur, Nusa Tenggara Tim.","Kabupaten Manggarai Timur, Nusa Tenggara Tim.",NUSA TENGGARA TIMUR,,Indonesia,,,,-86.899.355,1.207.475.037,https://maps.google.com/?cid=0x0:0x5a6efb9d7566ce25,
supermarket,Toko sembako pemerintah,Kios Ardo,"Jl. Kelurahan No.3 RT01, RW.01, Tanah Rata, Kec. Kota Komba, Kabupaten Manggarai Timur, Nusa Tenggara Tim. 86572","RW.01, Tanah Rata, Kec. Kota Komba, Kabupaten Manggarai Timur",NUSA TENGGARA TIMUR,86572.0,Indonesia,81237331265,,,-88.155.764,1.206.676.571,https://maps.google.com/?cid=0x0:0x897cf966f53933e1,
supermarket,Minimarket,Gian Jaya,"6MW8+Q2, Pong Ruan, Kec. Kota Komba, Kabupaten Manggarai Timur, Nusa Tenggara Tim.","Kabupaten Manggarai Timur, Nusa Tenggara Tim.",NUSA TENGGARA TIMUR,,Indonesia,,,,-87.526.014,1.206.657.859,https://maps.google.com/?cid=0x0:0x4544f18394b3ed58,
supermarket,Komplek perumahan,Manus_Mukun,"7QG5+355, Gn. Mute, Kec. Kota Komba, Kabupaten Manggarai Timur, Nusa Tenggara Tim.","Kabupaten Manggarai Timur, Nusa Tenggara Tim.",NUSA TENGGARA TIMUR,,Indonesia,85205812084,,,-87.248.712,1.207.579.834,https://maps.google.com/?cid=0x0:0xb4dbdc37a43191cd,
supermarket,Kios,Kios Jaya Mandiri,"6MVC+7P6, Pong Ruan, Kec. Kota Komba, Kabupaten Manggarai Timur, Nusa Tenggara Tim.","Kabupaten Manggarai Timur, Nusa Tenggara Tim.",NUSA TENGGARA TIMUR,,Indonesia,,,,-87.568.369,120.671.755,https://maps.google.com/?cid=0x0:0xee617eee3396070c,
supermarket,supermarket,Kios MENTARI,"6PR7+4JV, Mbengan, Kec. Kota Komba, Kabupaten Manggarai Timur, Nusa Tenggara Tim.","Kabupaten Manggarai Timur, Nusa Tenggara Tim.",NUSA TENGGARA TIMUR,,Indonesia,,,,-87.600.757,1.207.136.837,https://maps.google.com/?cid=0x0:0xba56b7fd03b3ecb7,
supermarket,Toko,Vania Kios,"7M9V+7HW, Golo Tolang, Kec. Kota Komba, Kabupaten Manggarai Timur, Nusa Tenggara Tim.","Kabupaten Manggarai Timur, Nusa Tenggara Tim.",NUSA TENGGARA TIMUR,,Indonesia,,,,-87.317.597,120.693.964,https://maps.google.com/?cid=0x0:0xcf365392a8108dcb,
supermarket,supermarket,RATU SALJU,"6M99+MM7, Sambi, Lembur, Kec. Kota Komba, Kabupaten Manggarai Timur, Nusa Tenggara Tim.","Kabupaten Manggarai Timur, Nusa Tenggara Tim.",NUSA TENGGARA TIMUR,,Indonesia,,,,-87.808.297,1.206.691.718,https://maps.google.com/?cid=0x0:0xccea1160f38c6d23,
supermarket,Toko bahan makanan,Kios Keyla Nathan Ando,"6M2Q+QV6, Bamo, Kec. Kota Komba, Kabupaten Manggarai Timur, Nusa Tenggara Tim.","Kabupaten Manggarai Timur, Nusa Tenggara Tim.",NUSA TENGGARA TIMUR,,Indonesia,,,,-8.797.676,120.688.532,https://maps.google.com/?cid=0x0:0x6148e9280128d3b0,
supermarket,Toko umum,Kios KALISTA,"8PCF+2WV, Rana Mbeling, Kec. Kota Komba, Kabupaten Manggarai Timur, Nusa Tenggara Tim.","Kabupaten Manggarai Timur, Nusa Tenggara Tim.",NUSA TENGGARA TIMUR,,Indonesia,81237983071,,,-86.799.057,1.207.248.683,https://maps.google.com/?cid=0x0:0xe206a88c15dd4f90,
supermarket,Minimarket,Kios prianka,"7Q9R+CX4, Gn. Mute, Kec. Kota Komba, Kabupaten Manggarai Timur, Nusa Tenggara Tim.","Kabupaten Manggarai Timur, Nusa Tenggara Tim.",NUSA TENGGARA TIMUR,,Indonesia,,,,-87.314.934,120.792.458,https://maps.google.com/?cid=0x0:0xb5f258b604c1f749,
supermarket,Toko,Kios OM PEA,"5RF6+Q8M, Watu Nggene, Kec. Kota Komba, Kabupaten Manggarai Timur, Nusa Tenggara Tim.","Kabupaten Manggarai Timur, Nusa Tenggara Tim.",NUSA TENGGARA TIMUR,,Indonesia,81236153815,,,-8.825.539,1.208.108.011,https://maps.google.com/?cid=0x0:0x98d1f71e32e9c9c8,
supermarket,Toko,Kios Tiga Putra,"6P97+97H, Rongga Koe, Kec. Kota Komba, Kabupaten Manggarai Timur, Nusa Tenggara Tim.","Kabupaten Manggarai Timur, Nusa Tenggara Tim.",NUSA TENGGARA TIMUR,,Indonesia,,,,-87.815.731,1.207.132.449,https://maps.google.com/?cid=0x0:0x27755e86959550e0,
supermarket,supermarket,Nusa Tenggara Tim.,,Nusa Tenggara Tim.,NUSA TENGGARA TIMUR,,Indonesia,,,,-86.573.819,1.210.793.705,https://maps.google.com/?cid=0x0:0x1030bfbcaf71ae0,
supermarket,Minimarket,Widy Mart,"Rana Loba, Kec. Borong, Kabupaten Manggarai Timur, Nusa Tenggara Tim. 86571","Kec. Borong, Kabupaten Manggarai Timur",NUSA TENGGARA TIMUR,86571.0,Indonesia,85225249405,,,-88.152.673,1.206.106.612,https://maps.google.com/?cid=0x0:0x1b8ca03aa9621dfb,
supermarket,supermarket,Kec. Rana Mese,"Kabupaten Manggarai Timur, Nusa Tenggara Tim.","Kabupaten Manggarai Timur, Nusa Tenggara Tim.",NUSA TENGGARA TIMUR,,Indonesia,,,,-8.368.917,1.203.459.156,https://maps.google.com/?cid=0x0:0x866acef55b6f1bf6,
supermarket,supermarket,Rana Mese,"Kec. Sambi Rampas, Kabupaten Manggarai Timur, Nusa Tenggara Tim.","Kabupaten Manggarai Timur, Nusa Tenggara Tim.",NUSA TENGGARA TIMUR,,Indonesia,,,,-8.549.132,1.207.177.509,https://maps.google.com/?cid=0x0:0x3d93415f73d93570,
supermarket,supermarket,Rana Mese,"Golo Loni, Kec. Rana Mese, Kabupaten Manggarai Timur, Nusa Tenggara Tim.","Kabupaten Manggarai Timur, Nusa Tenggara Tim.",NUSA TENGGARA TIMUR,,Indonesia,,,,-86.391.667,1.205.611.111,https://maps.google.com/?cid=0x0:0x17d84708e4115485,
supermarket,supermarket,Utamamart,"Jl. Moh. Hatta Jl. Lintas Flores, Borong, Kec. Borong, Kabupaten Manggarai Timur, Nusa Tenggara Tim. 86571","Borong, Kec. Borong, Kabupaten Manggarai Timur",NUSA TENGGARA TIMUR,86571.0,Indonesia,85921179130,,,-88.153.185,1.206.121.405,https://maps.google.com/?cid=0x0:0xdfb920e4dc2ae1f7,
supermarket,Toko Bahan Bangunan,Toko Sahabat Bangunan Borong,"Jalan satar peot, Rana Loba, Kec. Borong, Kabupaten Manggarai Timur, Nusa Tenggara Tim. 86571","Rana Loba, Kec. Borong, Kabupaten Manggarai Timur",NUSA TENGGARA TIMUR,86571.0,Indonesia,81282720033,,,-87.653.753,1.206.219.319,https://maps.google.com/?cid=0x0:0xebefc5906b586f01,
supermarket,Minimarket,Widy Mart Kembur,"Kembur, Kec. Borong, Kabupaten Manggarai Timur, Nusa Tenggara Tim. 86571","Kec. Borong, Kabupaten Manggarai Timur",NUSA TENGGARA TIMUR,86571.0,Indonesia,81229124100,,,-87.639.061,1.206.227.794,https://maps.google.com/?cid=0x0:0x8501a0f6dac13538,
supermarket,Toko Roti,Kue mama,"Bondo Kec Kompleks Gendang Watumori, Sita, Kec. Rana Mese, Kabupaten Manggarai Timur, Nusa Tenggara Tim. 86571","Sita, Kec. Rana Mese, Kabupaten Manggarai Timur",NUSA TENGGARA TIMUR,86571.0,Indonesia,81246010642,,,-87.830.339,120.577.464,https://maps.google.com/?cid=0x0:0xa0ee175c87754859,
supermarket,Komplek perumahan,Sentra Agrobisnis Elegori,"Sewul, Desa Rana Mbeling, Kecamatan Kota Komba Utara, Kabupaten Manggarai Timur, Nusa Tenggara Tim. 86571","Desa Rana Mbeling, Kecamatan Kota Komba Utara, Kabupaten Manggarai Timur",NUSA TENGGARA TIMUR,86571.0,Indonesia,81398309627,,,-86.559.923,1.206.989.693,https://maps.google.com/?cid=0x0:0xc9c61b68eeb25b42,
supermarket,supermarket,D'FOUR,"Jl. Lintas Flores, Rana Loba, Kec. Borong, Kabupaten Manggarai Timur, Nusa Tenggara Tim. 86571","Rana Loba, Kec. Borong, Kabupaten Manggarai Timur",NUSA TENGGARA TIMUR,86571.0,Indonesia,,,,-88.154.944,1.206.095.865,https://maps.google.com/?cid=0x0:0x904c42d47f7958f2,
supermarket,Kios,Kios,"Satar Peot, Borong, Waling, Kelurahan, Rana Loba, Borong, East Manggarai Regency, East Nusa Tenggara 86571","Borong, Waling, Kelurahan, Rana Loba, Borong, East Manggarai Regency",NUSA TENGGARA TIMUR,86571.0,Indonesia,,,,-87.399.293,1.206.257.618,https://maps.google.com/?cid=0x0:0xd48ca0c7599e4627,
supermarket,Servis Komputer,Rony Service Parabola,"Rentung, Desa Compang Kempo, Jl. Trans Flores, Kec, Kec. Rana Mese, Kabupaten Manggarai Timur, Nusa Tenggara Tim. 86571","Desa Compang Kempo, Jl. Trans Flores, Kec, Kec. Rana Mese, Kabupaten Manggarai Timur",NUSA TENGGARA TIMUR,86571.0,Indonesia,82237614177,,,-86.789.706,1.205.646.959,https://maps.google.com/?cid=0x0:0xf6c90866f801dc2,
supermarket,Kios,KIOS MERRY,"Komplex pasar borong ruko nomor 18, mborong, Nusa Tenggara Tim. 86571",mborong,NUSA TENGGARA TIMUR,86571.0,Indonesia,,,,-88.158.463,1.206.066.253,https://maps.google.com/?cid=0x0:0x2d7078591f8bdb4c,
supermarket,supermarket,Yandri Ronsokan,"Watu IPU, RT./Rw/RW.003/001, Rana Loba, Kec. Borong, Kabupaten Manggarai Timur, Nusa Tenggara Tim. 86571","RT./Rw/RW.003/001, Rana Loba, Kec. Borong, Kabupaten Manggarai Timur",NUSA TENGGARA TIMUR,86571.0,Indonesia,81325281395,,,-88.149.171,1.206.082.446,https://maps.google.com/?cid=0x0:0x915489cc298c0264,
supermarket,Kios,Kios de Martin,"Perempatan kampung Bugis Atas, Kampung Bugis, Kec. Borong, Kabupaten Manggarai Timur, Nusa Tenggara Tim. 86571","Kampung Bugis, Kec. Borong, Kabupaten Manggarai Timur",NUSA TENGGARA TIMUR,86571.0,Indonesia,,,,-88.090.131,1.206.091.357,https://maps.google.com/?cid=0x0:0xd41b8684ceac54da,
supermarket,Kios,Kios Nini Rumat,"Jati, RT.001/RW.01, Nanga Labang, Kec. Borong, Kabupaten Manggarai Timur, Nusa Tenggara Tim. 86571","RT.001/RW.01, Nanga Labang, Kec. Borong, Kabupaten Manggarai Timur",NUSA TENGGARA TIMUR,86571.0,Indonesia,82146207698,,,-88.033.138,1.205.783.301,https://maps.google.com/?cid=0x0:0x2e165c8842768cfb,
supermarket,Toko Perlengkapan Rumah,MR.DIY,"Jl. Lintas Flores, Rana Loba, Kec. Borong, Kabupaten Manggarai, Nusa Tenggara Tim. 86571","Rana Loba, Kec. Borong, Kabupaten Manggarai",NUSA TENGGARA TIMUR,86571.0,Indonesia,,,,-8.815.584,120.609.233,https://maps.google.com/?cid=0x0:0x4f3a7c9ee1f2e7f7,
supermarket,Toko Pertanian,Subur Makmur Borong,"Jalan pasar borong, Rana Loba, Kec. Borong, Kabupaten Manggarai Timur, Nusa Tenggara Tim. 86571","Rana Loba, Kec. Borong, Kabupaten Manggarai Timur",NUSA TENGGARA TIMUR,86571.0,Indonesia,82145013254,,,-88.151.032,1.206.061.916,https://maps.google.com/?cid=0x0:0x40b4b3bb5b69373,
supermarket,Kios,Kios Berto Kopat,"Toka, RT.004/RW.002, Nanga Labang, Kec. Borong, Kabupaten Manggarai Timur, Nusa Tenggara Tim. 86571","RT.004/RW.002, Nanga Labang, Kec. Borong, Kabupaten Manggarai Timur",NUSA TENGGARA TIMUR,86571.0,Indonesia,82144516216,,,-88.137.932,1.205.765.893,https://maps.google.com/?cid=0x0:0x7212f0c5389ad608,
supermarket,Toko umum,Ataraja,"J8FP+XMM, Wae Kajong, Kec. Rana Mese, Kabupaten Manggarai Timur, Nusa Tenggara Tim.","Kabupaten Manggarai Timur, Nusa Tenggara Tim.",NUSA TENGGARA TIMUR,,Indonesia,,,,-83.750.363,1.203.366.654,https://maps.google.com/?cid=0x0:0x1b7dc974288f4342,
supermarket,Toko Swalayan,Swalayan 33,"Mbaumuku, Kec. Langke Rembong, Kabupaten Manggarai, Nusa Tenggara Tim.","Kabupaten Manggarai, Nusa Tenggara Tim.",NUSA TENGGARA TIMUR,,Indonesia,,,,-86.072.007,1.204.654.154,https://maps.google.com/?cid=0x0:0x70c01f1ebe81c9db,
supermarket,Toko bahan makanan,Mini Market Bandung Utama Group,"MFQQ+WM6, Reo, Kec. Reok, Kabupaten Manggarai, Nusa Tenggara Tim.","Kabupaten Manggarai, Nusa Tenggara Tim.",NUSA TENGGARA TIMUR,,Indonesia,,,,-83.102.064,1.204.891.383,https://maps.google.com/?cid=0x0:0x4065c20e2aa3e7d4,
supermarket,Toko bahan makanan,Swalayan Pagi,"MFQR+V24, Reo, Kec. Reok, Kabupaten Manggarai, Nusa Tenggara Tim.","Kabupaten Manggarai, Nusa Tenggara Tim.",NUSA TENGGARA TIMUR,,Indonesia,,,,-83.103.661,1.204.900.678,https://maps.google.com/?cid=0x0:0x611f116a93b6306d,
supermarket,Toko Swalayan,Nirwana Mart,"9FXJ+769, Kumba, Tenda, Kec. Langke Rembong, Kabupaten Manggarai, Nusa Tenggara Tim.","Kabupaten Manggarai, Nusa Tenggara Tim.",NUSA TENGGARA TIMUR,,Indonesia,,,,-860.184,1.204.806.125,https://maps.google.com/?cid=0x0:0xf2193e1ca1810af0,
supermarket,Toko Kesehatan dan Kecantikan,Varash Lensi,"MFJP+XQJ, Raba, Satar Punda, Kec. Lamba Leda, Kabupaten Manggarai Timur, Nusa Tenggara Tim.","Kabupaten Manggarai Timur, Nusa Tenggara Tim.",NUSA TENGGARA TIMUR,,Indonesia,,,,-83.175.408,1.204.868.874,https://maps.google.com/?cid=0x0:0x956f45555bece7f7,
supermarket,Seafood,Pasar Reo,"MFQR+R9G, Reo, Kec. Reok, Kabupaten Manggarai, Nusa Tenggara Tim.","Kabupaten Manggarai, Nusa Tenggara Tim.",NUSA TENGGARA TIMUR,,Indonesia,,,,-83.104.323,1.204.909.679,https://maps.google.com/?cid=0x0:0x1105cc97600d9cda,
supermarket,Toko Swalayan,NIRWANA MART TENDA,"9FPG+Q26, Tenda, Kec. Langke Rembong, Kabupaten Manggarai, Nusa Tenggara Tim.","Kabupaten Manggarai, Nusa Tenggara Tim.",NUSA TENGGARA TIMUR,,Indonesia,82147933253,,,-86.132.099,1.204.747.377,https://maps.google.com/?cid=0x0:0xfce60a6a7c055437,
supermarket,Toko Percetakan,Davill Sablon,"J8HV+XPJ Wase Ajo, Wae Kajong, Kec. Rana Mese, Kabupaten Manggarai Timur, Nusa Tenggara Tim.","Kabupaten Manggarai Timur, Nusa Tenggara Tim.",NUSA TENGGARA TIMUR,,Indonesia,82144363490,,,-83.700.459,1.203.442.577,https://maps.google.com/?cid=0x0:0x93d81c1c3ac2fa7f,
supermarket,supermarket,Kec. Poco Ranaka Timur,"Kabupaten Manggarai Timur, Nusa Tenggara Tim.","Kabupaten Manggarai Timur, Nusa Tenggara Tim.",NUSA TENGGARA TIMUR,,Indonesia,,,,-85.543.382,120.618.277,https://maps.google.com/?cid=0x0:0x1564295fdcda3229,
supermarket,,Compang Raci,"9JH9+PXQ, Rende Nao, Kec. Poco Ranaka Timur, Kabupaten Manggarai Timur, Nusa Tenggara Tim.","Kabupaten Manggarai Timur, Nusa Tenggara Tim.",NUSA TENGGARA TIMUR,,Indonesia,,,,-86.206.712,1.206.199.895,https://maps.google.com/?cid=0x0:0xf8b0dfa5ce60a843,
supermarket,Toko bahan makanan,Simpang Rana Tonjong,"CJ56+8FJ, Unnamed Road, Rende Nao, Kec. Poco Ranaka Timur, Kabupaten Manggarai Timur, Nusa Tenggara Tim.","Kabupaten Manggarai Timur, Nusa Tenggara Tim.",NUSA TENGGARA TIMUR,,Indonesia,,,,-8.591.664,1.206.111.401,https://maps.google.com/?cid=0x0:0xa7efcf4115363680,
supermarket,Toko,Kios prianka,"CHM7+727, Gurung Turi, Kec. Poco Ranaka, Kabupaten Manggarai Timur, Nusa Tenggara Tim.","Kabupaten Manggarai Timur, Nusa Tenggara Tim.",NUSA TENGGARA TIMUR,,Indonesia,,,,-85.671.272,1.205.623.817,https://maps.google.com/?cid=0x0:0x60704af131b0e24b,
supermarket,Toko,Kios Sembeng Tedeng,"CJXG+WC9, Rengkam, Kec. Poco Ranaka Timur, Kabupaten Manggarai Timur, Nusa Tenggara Tim.","Kabupaten Manggarai Timur, Nusa Tenggara Tim.",NUSA TENGGARA TIMUR,,Indonesia,,,,-85.506.908,1.206.253.674,https://maps.google.com/?cid=0x0:0xd68433aaa5b5590e,
supermarket,Toko umum,KIOS OM DIVO,"FJQ6+722, Jln Tadak, Copang weluk, Leong, Kec. Poco Ranaka, Kabupaten Manggarai Timur, Nusa Tenggara Tim.","Kabupaten Manggarai Timur, Nusa Tenggara Tim.",NUSA TENGGARA TIMUR,,Indonesia,,,,-85.118.626,1.206.100.018,https://maps.google.com/?cid=0x0:0xe4c9b7c2fdbe9029,
supermarket,Toko umum,Kios mika,"9JH9+PXQ, Rende Nao, Kec. Poco Ranaka Timur, Kabupaten Manggarai Timur, Nusa Tenggara Tim.","Kabupaten Manggarai Timur, Nusa Tenggara Tim.",NUSA TENGGARA TIMUR,,Indonesia,,,,-86.206.712,1.206.199.895,https://maps.google.com/?cid=0x0:0x33f9d3ed4f5740be,
supermarket,Toko bahan makanan,Kios Ibran,"CJ3V+X47, colol, Kec. Poco Ranaka, timur, Nusa Tenggara Tim.","timur, Nusa Tenggara Tim.",NUSA TENGGARA TIMUR,,Indonesia,82145915150,,,-85.950.954,120.642.802,https://maps.google.com/?cid=0x0:0x1a8cd139edae5f35,
supermarket,Toko,kios Pitu Pagat Wuas,"CJGG+7JM, Rende Nao, Kec. Poco Ranaka, Kabupaten Manggarai Timur, Nusa Tenggara Tim.","Kabupaten Manggarai Timur, Nusa Tenggara Tim.",NUSA TENGGARA TIMUR,,Indonesia,,,,-85.742.939,1.206.265.605,https://maps.google.com/?cid=0x0:0x42bda0846f35d7c2,
supermarket,Produsen,Kios LELENG CA,"CHCJ+R92, Pocolia, Kec. Poco Ranaka, Kabupaten Manggarai Timur, Nusa Tenggara Tim.","Kabupaten Manggarai Timur, Nusa Tenggara Tim.",NUSA TENGGARA TIMUR,,Indonesia,81238739523,,,-85.779.952,1.205.808.844,https://maps.google.com/?cid=0x0:0x4d983442d58b40d4,
supermarket,Toko umum,Kios Ronal,"FJ2G+97X, Rengkam, Kec. Poco Ranaka Timur, Kabupaten Manggarai Timur, Nusa Tenggara Tim.","Kabupaten Manggarai Timur, Nusa Tenggara Tim.",NUSA TENGGARA TIMUR,,Indonesia,,,,-85.490.158,1.206.257.382,https://maps.google.com/?cid=0x0:0x31a1168f1de84f55,
supermarket,Toko,Kios RJ,"CJ8G+R7V, Tangkul, Rende Nao, Kec. Poco Ranaka Timur, Kabupaten Manggarai Timur, Nusa Tenggara Tim.","Kabupaten Manggarai Timur, Nusa Tenggara Tim.",NUSA TENGGARA TIMUR,,Indonesia,,,,-85.828.923,120.625.685,https://maps.google.com/?cid=0x0:0x1cde0daef3fa5d64,
supermarket,Toko,Kios putra rentung,"FJ2G+3QC, Rengkam, Kec. Poco Ranaka, Kabupaten Manggarai Timur, Nusa Tenggara Tim.","Kabupaten Manggarai Timur, Nusa Tenggara Tim.",NUSA TENGGARA TIMUR,,Indonesia,85239021604,,,-85.498.173,1.206.268.914,https://maps.google.com/?cid=0x0:0xec9084ab6fab82d,
supermarket,Pusat Perbelanjaan,Ngkiong Village,"CMM4+CXR aloysius nodur, Ngkiong Dora, Kec. Poco Ranaka, Kabupaten Manggarai Timur, Nusa Tenggara Tim.","Kabupaten Manggarai Timur, Nusa Tenggara Tim.",NUSA TENGGARA TIMUR,,Indonesia,,,,-85.663.873,1.206.573.796,https://maps.google.com/?cid=0x0:0x61bbb0053087ae7e,
supermarket,Pusat Perbelanjaan,Leonnel Cell,"CH6H+578, Golo Nderu, Kec. Poco Ranaka, Kabupaten Manggarai Timur, Nusa Tenggara Tim.","Kabupaten Manggarai Timur, Nusa Tenggara Tim.",NUSA TENGGARA TIMUR,,Indonesia,,,,-85.895.777,1.205.781.913,https://maps.google.com/?cid=0x0:0x2ebbb8b717ef9679,
supermarket,Toko bahan makanan,Ranaka Mart,"Jl. Yos Sudarso No.2, Mbaumuku, Kec. Langke Rembong, Kabupaten Manggarai, Nusa Tenggara Tim.","Kabupaten Manggarai, Nusa Tenggara Tim.",NUSA TENGGARA TIMUR,,Indonesia,38521353,,,-86.110.091,1.204.666.505,https://maps.google.com/?cid=0x0:0xf81c6c6e135ab154,
supermarket,Toko umum,Kios bp andra,"9JXJ+24, Ulu Wae, Kec. Poco Ranaka Timur, Kabupaten Manggarai Timur, Nusa Tenggara Tim.","Kabupaten Manggarai Timur, Nusa Tenggara Tim.",NUSA TENGGARA TIMUR,,Indonesia,,,,-8.602.441,1.206.302.787,https://maps.google.com/?cid=0x0:0x6e263c58e1845fe,
supermarket,Toko umum,Kios Anjeska Reda,"CMG3+R46, Ngkiong Dora, Kec. Poco Ranaka, Kabupaten Manggarai Timur, Nusa Tenggara Tim.","Kabupaten Manggarai Timur, Nusa Tenggara Tim.",NUSA TENGGARA TIMUR,,Indonesia,,,,-85.729.577,1.206.527.553,https://maps.google.com/?cid=0x0:0x55d08f00709cac6d,
supermarket,Agen Tiket,Toko cahaya timur,"9JH9+PXQ, Rende Nao, Kec. Poco Ranaka Timur, Kabupaten Manggarai Timur, Nusa Tenggara Tim.","Kabupaten Manggarai Timur, Nusa Tenggara Tim.",NUSA TENGGARA TIMUR,,Indonesia,,,,-86.206.712,1.206.199.895,https://maps.google.com/?cid=0x0:0xafaa528e66b4aae1,
supermarket,Toko bahan makanan,Kios Ade,"CJ4R+JR3, Ulu Wae, Kec. Poco Ranaka Timur, Kabupaten Manggarai Timur, Nusa Tenggara Tim.","Kabupaten Manggarai Timur, Nusa Tenggara Tim.",NUSA TENGGARA TIMUR,,Indonesia,,,,-85.931.574,1.206.417.254,https://maps.google.com/?cid=0x0:0x5cc1f7fb1780fa97,
supermarket,Minimarket,Francek Olni,"CJ6R+Q9G, Ulu Wae, Kec. Poco Ranaka Timur, Kabupaten Manggarai Timur, Nusa Tenggara Tim.","Kabupaten Manggarai Timur, Nusa Tenggara Tim.",NUSA TENGGARA TIMUR,,Indonesia,,,,-85.882.629,1.206.406.717,https://maps.google.com/?cid=0x0:0x8cd53b5968f8dd99,
supermarket,Minimarket,Tk. Sinar Jaya,"FM4F+Q86, Unnamed Road, Satar Nawang, Sambi Rampas, East Manggarai Regency, East Nusa Tenggara","Kabupaten Manggarai Timur, Nusa Tenggara Tim.",NUSA TENGGARA TIMUR,,Indonesia,,,,-854.308,120.673.252,https://maps.google.com/?cid=0x0:0xd176cf0083c59a81,
supermarket,Toko umum,Ud. Maleo,"CJ4R+JR3, Ulu Wae, Kec. Poco Ranaka Timur, Kabupaten Manggarai Timur, Nusa Tenggara Tim.","Kabupaten Manggarai Timur, Nusa Tenggara Tim.",NUSA TENGGARA TIMUR,,Indonesia,81296558201,,,-85.934.997,1.206.420.341,https://maps.google.com/?cid=0x0:0x1a958f9e0d1b9a68,
supermarket,Kios,Kios Tari,"FM5F+F4W, Satar Nawang, Kec. Sambi Rampas, Kabupaten Manggarai Timur, Nusa Tenggara Tim.","Kabupaten Manggarai Timur, Nusa Tenggara Tim.",NUSA TENGGARA TIMUR,,Indonesia,,,,-85.408.591,120.672.085,https://maps.google.com/?cid=0x0:0xeb708ee07208fb14,
supermarket,supermarket,TOKO KITA,"9JH9+PXQ, Jln. Jati - Lehong, Rende Nao, Kec. Poco Ranaka Timur, Kabupaten Manggarai Timur, Nusa Tenggara Tim.","Kabupaten Manggarai Timur, Nusa Tenggara Tim.",NUSA TENGGARA TIMUR,,Indonesia,82119069980,,,-86.206.712,1.206.199.895,https://maps.google.com/?cid=0x0:0xed07071d9195c292,
supermarket,supermarket,Kec. Elar Selatan,"Kabupaten Manggarai Timur, Nusa Tenggara Tim.","Kabupaten Manggarai Timur, Nusa Tenggara Tim.",NUSA TENGGARA TIMUR,,Indonesia,,,,-86.439.057,1.207.613.321,https://maps.google.com/?cid=0x0:0x29c346791b550200,
supermarket,Komplek perumahan,Gising elar selatan,"9RP8+CF, Gising, Kec. Elar Selatan, Kabupaten Manggarai Timur, Nusa Tenggara Tim.","Kabupaten Manggarai Timur, Nusa Tenggara Tim.",NUSA TENGGARA TIMUR,,Indonesia,,,,-86.139.375,1.208.161.875,https://maps.google.com/?cid=0x0:0xadb67db628514377,
supermarket,Kios,KIOS PUTRY GEMRI,"Renden (Simpang 4, Paan Waru, Kec. Elar Selatan, Kabupaten Manggarai Timur, Nusa Tenggara Tim.","Kabupaten Manggarai Timur, Nusa Tenggara Tim.",NUSA TENGGARA TIMUR,,Indonesia,81236174926,,,-86.399.093,1.207.867.129,https://maps.google.com/?cid=0x0:0x4a1ca5bf1b731ddf,
supermarket,Minimarket,Inyo Minimart,"FQG9+RMV, Tiwu Kondo, Kec. Elar, Kabupaten Manggarai Timur, Nusa Tenggara Tim.","Kabupaten Manggarai Timur, Nusa Tenggara Tim.",NUSA TENGGARA TIMUR,,Indonesia,,,,-85.228.858,1.207.691.761,https://maps.google.com/?cid=0x0:0x955dbeedf2947240,
supermarket,Minimarket,Kios Mikhayla,"FQPR+8HJ, Golomongkok, Indonesia, Tiwu Kondo, Kec. Elar, Kabupaten Manggarai Timur, Nusa Tenggara Tim.","Kabupaten Manggarai Timur, Nusa Tenggara Tim.",NUSA TENGGARA TIMUR,,Indonesia,81280671148,,,-85.141.667,1.207.913.889,https://maps.google.com/?cid=0x0:0x3c4d0fba7fb9b114,
supermarket,Kios,D'JHINO FOTO COPY  ATK,"Wukir, Sangan Kalo, Kec. Elar Selatan, Kabupaten Manggarai Timur, Nusa Tenggara Tim. 86581","Sangan Kalo, Kec. Elar Selatan, Kabupaten Manggarai Timur",NUSA TENGGARA TIMUR,86581.0,Indonesia,83147636007,,,-85.813.808,1.208.376.147,https://maps.google.com/?cid=0x0:0x9bd78d80434d0d7,
supermarket,Toko Elektronik,bp. mario,"CV34+WRM, Sangan Kalo, Kec. Elar, Kabupaten Manggarai Timur, Nusa Tenggara Tim.","Kabupaten Manggarai Timur, Nusa Tenggara Tim.",NUSA TENGGARA TIMUR,,Indonesia,81337243311,,,-85.951.717,1.208.570.361,https://maps.google.com/?cid=0x0:0x24141ed326801bc4,
supermarket,Pom bensin/SPBU,pom mini,"9Q36+PGW, Paan Putan, Sipi, Kec. Elar, Kabupaten Manggarai Timur, Nusa Tenggara Tim.","Kabupaten Manggarai Timur, Nusa Tenggara Tim.",NUSA TENGGARA TIMUR,,Indonesia,,,,-86.456.293,1.207.612.873,https://maps.google.com/?cid=0x0:0xbfacfc3f26ab7237,
supermarket,Toko umum,Pasar Inpres Terpadu Mukun,"8MVQ+G9G, Golomeni, Kec. Kota Komba, Kabupaten Manggarai Timur, Nusa Tenggara Tim.","Kabupaten Manggarai Timur, Nusa Tenggara Tim.",NUSA TENGGARA TIMUR,,Indonesia,,,,-86.561.929,1.206.884.539,https://maps.google.com/?cid=0x0:0x8e5cf152296a83,
supermarket,Toko bahan makanan,Fritz Mart,"FPFH+CWF, Lengko Namut, Kec. Elar, Kabupaten Manggarai Timur, Nusa Tenggara Tim.","Kabupaten Manggarai Timur, Nusa Tenggara Tim.",NUSA TENGGARA TIMUR,,Indonesia,,,,-85.264.271,120.729.785,https://maps.google.com/?cid=0x0:0x672dcac150b51ec1,
supermarket,Kios,"Kios Sembako Til""""","8VX4+V36, Nanga Meje, Kec. Elar, Kabupaten Manggarai Timur, Nusa Tenggara Tim.","Kabupaten Manggarai Timur, Nusa Tenggara Tim.",NUSA TENGGARA TIMUR,,Indonesia,,,,-8.650.329,120.855.127,https://maps.google.com/?cid=0x0:0x8e18acff43f35eff,
supermarket,ATM,Kios  Agen BRILink Bp Ecik Galong Desa Watu Pari,"8QMC+Q2, Golo Nderu, Kec. Kota Komba, Kabupaten Manggarai Timur, Nusa Tenggara Tim.","Kabupaten Manggarai Timur, Nusa Tenggara Tim.",NUSA TENGGARA TIMUR,,Indonesia,,,,-86.655.643,120.770.056,https://maps.google.com/?cid=0x0:0xa5928bf55166c63e,
supermarket,Kedai Kopi,Omfitto,"9RQQ+VQQ, Desa mosingaran, Langgasai, Kabupaten Manggarai Timur, Nusa Tenggara Tim.","Kabupaten Manggarai Timur, Nusa Tenggara Tim.",NUSA TENGGARA TIMUR,,Indonesia,,,,-8.610.295,1.208.394.977,https://maps.google.com/?cid=0x0:0xd85e5e6de6ac91f7,
supermarket,Toko umum,RR kios,"8QP7+MF, Golo Nderu, Kec. Kota Komba, Kabupaten Manggarai Timur, Nusa Tenggara Tim.","Kabupaten Manggarai Timur, Nusa Tenggara Tim.",NUSA TENGGARA TIMUR,,Indonesia,,,,-86.633.221,1.207.632.087,https://maps.google.com/?cid=0x0:0x783e0df8d421d51e,
supermarket,Kios,Emon CS kios,"9R8J+C8, Nanga Meje, Kec. Elar Selatan, Kabupaten Manggarai Timur, Nusa Tenggara Tim.","Kabupaten Manggarai Timur, Nusa Tenggara Tim.",NUSA TENGGARA TIMUR,,Indonesia,81246444890,,,-86.344.358,1.208.309.697,https://maps.google.com/?cid=0x0:0x9df33901d0c96860,
supermarket,Kios,KIOS Sinar kasih,"CQX2+6Q7, Wae Lokom, Kec. Elar, Kabupaten Manggarai Timur, Nusa Tenggara Tim.","Kabupaten Manggarai Timur, Nusa Tenggara Tim.",NUSA TENGGARA TIMUR,,Indonesia,,,,-8.551.793,1.207.493.827,https://maps.google.com/?cid=0x0:0xb196a667de2901be,
supermarket,supermarket,Kios Mitra Karya,"CR5W+JVC, Unnamed Road, Sangan Kalo, Kec. Elar, Kabupaten Manggarai Timur, Nusa Tenggara Tim.","Kabupaten Manggarai Timur, Nusa Tenggara Tim.",NUSA TENGGARA TIMUR,,Indonesia,82233321756,,,-85.909.414,1.208.471.486,https://maps.google.com/?cid=0x0:0xbf841c1176505267,
supermarket,Minimarket,Tk. Sinar Jaya,"FM4F+Q86, Unnamed Road, Satar Nawang, Sambi Rampas, East Manggarai Regency, East Nusa Tenggara","Kabupaten Manggarai Timur, Nusa Tenggara Tim.",NUSA TENGGARA TIMUR,,Indonesia,,,,-854.308,120.673.252,https://maps.google.com/?cid=0x0:0xd176cf0083c59a81,
supermarket,Toko,Colol Mart,"CJ3V+X4V, Ulu Wae, Kec. Poco Ranaka, Kabupaten Manggarai Timur, Nusa Tenggara Tim.","Kabupaten Manggarai Timur, Nusa Tenggara Tim.",NUSA TENGGARA TIMUR,,Indonesia,,,,-85.950.023,1.206.427.964,https://maps.google.com/?cid=0x0:0x966088c1969504c4,
supermarket,Toko umum,Kios,"9V52+98M, Nanga Pu'un, Nanga Meje, Kec. Elar Selatan, Kabupaten Manggarai Timur, Nusa Tenggara Tim.","Kabupaten Manggarai Timur, Nusa Tenggara Tim.",NUSA TENGGARA TIMUR,,Indonesia,,,,-86.414.305,1.208.515.007,https://maps.google.com/?cid=0x0:0xbfa259209156fc4b,
