Category,Real Category,Business Name,Address,City,State,Postal Code,Country,Phone,Email,Website,Latitude,Longitude,Map Link,Details Link
perumahan,perumahan,Kec. Borong,"Kabupaten Manggarai Timur, Nusa Tenggara Tim.","Kabupaten Manggarai Timur, Nusa Tenggara Tim.",NUSA TENGGARA TIMUR,,Indonesia,,,,-88.148.406,1.206.082.067,https://maps.google.com/?cid=0x0:0x2a97d54812a8d6a5,
perumahan,Komplek perumahan,Perumahan Satar Lehong Residence,"Lehong, Kec. Borong, Kabupaten Manggarai Timur, Nusa Tenggara Tim.","Kabupaten Manggarai Timur, Nusa Tenggara Tim.",NUSA TENGGARA TIMUR,,Indonesia,81380097768,,,-87.539.345,1.206.035.351,https://maps.google.com/?cid=0x0:0xc50beb00a37a58a0,
perumahan,Komplek perumahan,Toka,"5HQG+226, Nanga Labang, Kec. Borong, Kabupaten Manggarai Timur, Nusa Tenggara Tim.","Kabupaten Manggarai Timur, Nusa Tenggara Tim.",NUSA TENGGARA TIMUR,,Indonesia,,,,-88.124.722,1.205.750.169,https://maps.google.com/?cid=0x0:0xfbb67dc9a989acbe,
perumahan,Komplek perumahan,Perumahan Golo Peot Residence,"6J99+665, Peot, Kec. Borong, Kabupaten Manggarai Timur, Nusa Tenggara Tim.","Kabupaten Manggarai Timur, Nusa Tenggara Tim.",NUSA TENGGARA TIMUR,,Indonesia,,,,-87.819.885,1.206.181.102,https://maps.google.com/?cid=0x0:0x87e790a6cbccb239,
perumahan,Taman,Pertigaan Lehong,"6JRF+2F9, Unnamed Rd, Nusa Tenggara Tim., Rana Loba, Kec. Borong, Kabupaten Manggarai Timur, Nusa Tenggara Tim.","Kabupaten Manggarai Timur, Nusa Tenggara Tim.",NUSA TENGGARA TIMUR,,Indonesia,85238875276,,,-87.599.634,1.206.237.426,https://maps.google.com/?cid=0x0:0x4d4fdae6babbdfa8,
perumahan,Tujuan Wisata,Ligota Beach,"5HM5+JH7, Nanga Labang, Kec. Borong, Kabupaten Manggarai Timur, Nusa Tenggara Tim.","Kabupaten Manggarai Timur, Nusa Tenggara Tim.",NUSA TENGGARA TIMUR,,Indonesia,82117201086,,,-88.159.585,1.205.589.186,https://maps.google.com/?cid=0x0:0x28f3de4413591b81,
perumahan,perumahan,Pauls Homestay,"Sita, Kec. Borong, Kabupaten Manggarai Timur, Nusa Tenggara Tim.","Kabupaten Manggarai Timur, Nusa Tenggara Tim.",NUSA TENGGARA TIMUR,,Indonesia,8124662379,,,-87.759.011,1.205.788.654,https://maps.google.com/?cid=0x0:0x86d715bde590e331,
perumahan,perumahan,Kabupaten Manggarai Timur,Nusa Tenggara Tim.,"Kabupaten Manggarai Timur, Nusa Tenggara Tim.",NUSA TENGGARA TIMUR,,Indonesia,,,,-86.206.712,1.206.199.895,https://maps.google.com/?cid=0x0:0x4589eae58046c8fa,
perumahan,Perhimpunan Pengembang Perumahan,Kampung Golo Borong,"6JWP+6FM, Rana Masak, Kec. Borong, Kabupaten Manggarai Timur, Nusa Tenggara Tim.","Kabupaten Manggarai Timur, Nusa Tenggara Tim.",NUSA TENGGARA TIMUR,,Indonesia,,,,-87.544.038,120.636.163,https://maps.google.com/?cid=0x0:0x3ee5010aeb558a12,
perumahan,Rumah Makan,Rumah Makan Pancaran,"6JX6+QH5, Rana Loba, Kec. Borong, Kabupaten Manggarai Timur, Nusa Tenggara Tim.","Kabupaten Manggarai Timur, Nusa Tenggara Tim.",NUSA TENGGARA TIMUR,,Indonesia,81337789766,,,-87.506.177,1.206.114.999,https://maps.google.com/?cid=0x0:0x6f2354cddd76f378,
perumahan,Taman,Warat Borong manggarai timur,"7J4G+G8M, Rana Loba, Kec. Borong, Kabupaten Manggarai Timur, Nusa Tenggara Tim.","Kabupaten Manggarai Timur, Nusa Tenggara Tim.",NUSA TENGGARA TIMUR,,Indonesia,,,,-87.436.541,120.625.782,https://maps.google.com/?cid=0x0:0xf86225c1486d357f,
perumahan,perumahan,Borong,"5JP5+27Q, Rana Loba, Kec. Borong, Kabupaten Manggarai Timur, Nusa Tenggara Tim.","Kabupaten Manggarai Timur, Nusa Tenggara Tim.",NUSA TENGGARA TIMUR,,Indonesia,,,,-88.149.171,1.206.082.446,https://maps.google.com/?cid=0x0:0xcd38b873bac3fa2,
perumahan,Komplek perumahan,Rumah cemi sebo,"5JPF+P45, Kota Ndora, Kec. Borong, Kabupaten Manggarai Timur, Nusa Tenggara Tim.","Kabupaten Manggarai Timur, Nusa Tenggara Tim.",NUSA TENGGARA TIMUR,,Indonesia,,,,-88.132.375,1.206.228.594,https://maps.google.com/?cid=0x0:0x6aaa3737778fbc1f,
perumahan,Perhimpunan Pengembang Perumahan,LOKASI PERSAWAHAN LINGKO MUNDE,"6H3R+4X, Golo Kantar, Kec. Borong, Kabupaten Manggarai Timur, Nusa Tenggara Tim.","Kabupaten Manggarai Timur, Nusa Tenggara Tim.",NUSA TENGGARA TIMUR,,Indonesia,,,,-87.971.251,1.205.924.683,https://maps.google.com/?cid=0x0:0x91e80abb5f931e22,
perumahan,Taman,"Mondo,kecamatan borong,kabupaten Manggarai timur","6J96+38H, Golo Kantar, Kec. Borong, Kabupaten Manggarai Timur, Nusa Tenggara Tim.","Kabupaten Manggarai Timur, Nusa Tenggara Tim.",NUSA TENGGARA TIMUR,,Indonesia,,,,-87.823.076,1.206.108.475,https://maps.google.com/?cid=0x0:0x714438841d9f4955,
perumahan,Komplek perumahan,Rumah Bp: MARTINUS AMAT,"6JRF+R85, Rana Loba, Kec. Borong, Kabupaten Manggarai Timur, Nusa Tenggara Tim.","Kabupaten Manggarai Timur, Nusa Tenggara Tim.",NUSA TENGGARA TIMUR,,Indonesia,,,,-87.572.131,1.206.232.156,https://maps.google.com/?cid=0x0:0x30ec58ba8d054c83,
perumahan,Komplek perumahan,Rumah pa Inno,"RT 20,RW 005 Golokarot, Rana Loba, Kec. Borong, Kabupaten Manggarai Timur","Kabupaten Manggarai Timur, Nusa Tenggara Tim.",NUSA TENGGARA TIMUR,,Indonesia,,,,-88.084.995,120.611.745,https://maps.google.com/?cid=0x0:0xe2707685721e0143,
perumahan,Komplek perumahan,Rumah Lando Ndahur,"5JQ7+693, Rana Loba, Kec. Borong, Kabupaten Manggarai Timur, Nusa Tenggara Tim.","Kabupaten Manggarai Timur, Nusa Tenggara Tim.",NUSA TENGGARA TIMUR,,Indonesia,,,,-88.120.477,1.206.135.545,https://maps.google.com/?cid=0x0:0x3010874452fbe684,
perumahan,Pembangunan Perumahan,Rumah Pak Robert Nardin dan Ibu Melni,"6HWV+63P, Golo Kantar, Kec. Borong, Kabupaten Manggarai Timur, Nusa Tenggara Tim.","Kabupaten Manggarai Timur, Nusa Tenggara Tim.",NUSA TENGGARA TIMUR,,Indonesia,,,,-87.543.431,1.205.926.227,https://maps.google.com/?cid=0x0:0x81af83e0a98b9e8d,
perumahan,Pembangunan Perumahan,Yeremias,"6J99+857, Rana Loba, Kec. Borong, Kabupaten Manggarai Timur, Nusa Tenggara Tim.","Kabupaten Manggarai Timur, Nusa Tenggara Tim.",NUSA TENGGARA TIMUR,,Indonesia,,,,-87.817.245,1.206.179.091,https://maps.google.com/?cid=0x0:0x90a0be62eb1e66c4,
perumahan,Hotel jangka panjang,Kosan Hijau,"5JX7+GWG, Rana Loba, Kec. Borong, Kabupaten Manggarai Timur, Nusa Tenggara Tim.","Kabupaten Manggarai Timur, Nusa Tenggara Tim.",NUSA TENGGARA TIMUR,,Indonesia,,,,-88.011.852,1.206.148.353,https://maps.google.com/?cid=0x0:0x3af6db71b0df4601,
perumahan,Komplek perumahan,RUMAH YORIS JERADU,"6HGW+R9P, Golo Kantar, Kec. Borong, Kabupaten Manggarai Timur, Nusa Tenggara Tim.","Kabupaten Manggarai Timur, Nusa Tenggara Tim.",NUSA TENGGARA TIMUR,,Indonesia,82236581206,,,-87.729.236,1.205.959.465,https://maps.google.com/?cid=0x0:0x68ea3a762146581e,
perumahan,Pembangunan Perumahan,Sanana kos,"6J37+72X, Peot borong, kab, Rana Loba, Kec. Borong, Kabupaten Manggarai Timur, Nusa Tenggara Tim.","Kabupaten Manggarai Timur, Nusa Tenggara Tim.",NUSA TENGGARA TIMUR,,Indonesia,,,,-87.967.732,1.206.125.987,https://maps.google.com/?cid=0x0:0x68eee64173404ffd,
perumahan,Komplek perumahan,Rumah Doni J,"5JP5+27Q, Lodos desa, bangka kantar, Kec. Borong, Kabupaten Manggarai Timur, Nusa Tenggara Tim.","Kabupaten Manggarai Timur, Nusa Tenggara Tim.",NUSA TENGGARA TIMUR,,Indonesia,,,,-88.149.171,1.206.082.446,https://maps.google.com/?cid=0x0:0x775f2f14b6d01ee4,
perumahan,Pembangunan Perumahan,Tiwu Gurung,"Kota Ndora, Kec. Borong, Kabupaten Manggarai Timur, Nusa Tenggara Tim.","Kabupaten Manggarai Timur, Nusa Tenggara Tim.",NUSA TENGGARA TIMUR,,Indonesia,,,,-8.812.155,1.206.204.445,https://maps.google.com/?cid=0x0:0xed79c9b27ccc68e1,
perumahan,Perhimpunan Pengembang Perumahan,Rumah Luko Modo,"5JH9+HFH, Kota Ndora, Kec. Borong, Kabupaten Manggarai Timur, Nusa Tenggara Tim.","Kabupaten Manggarai Timur, Nusa Tenggara Tim.",NUSA TENGGARA TIMUR,,Indonesia,,,,-88.210.563,1.206.187.322,https://maps.google.com/?cid=0x0:0xd8ee010aedd5865e,
perumahan,Komplek perumahan,Griya Anjuk Ladang 1,"CW35+HV6, Jl. Barito III, Mangundikaran, Mangun Dikaran, Kec. Nganjuk, Kabupaten Nganjuk, Jawa Timur 64419","Jl. Barito III, Mangundikaran, Mangun Dikaran, Kec. Nganjuk, Kabupaten Nganjuk",NUSA TENGGARA TIMUR,64419.0,Indonesia,8992179469,,,-75.962.186,1.119.096.928,https://maps.google.com/?cid=0x0:0xebc5dc7e7d5dad7c,
perumahan,Komplek perumahan,Perumahan Griya Anjuk Ladang,"Griya Anjuk Ladang No.L-20, Mangundikaran, Mangun Dikaran, Kec. Nganjuk, Kabupaten Nganjuk, Jawa Timur","Kabupaten Nganjuk, Jawa Timur",NUSA TENGGARA TIMUR,,Indonesia,,,,-75.958.427,111.910.932,https://maps.google.com/?cid=0x0:0xf90bca6b12aba7d,
perumahan,Komplek perumahan,Jesika shop,"Griya anjuk ladang 1 jl. Barito III blok V3, Mangundikaran, Mangun Dikaran, Kec. Nganjuk, Kabupaten Nganjuk, Jawa Timur 64419","Mangundikaran, Mangun Dikaran, Kec. Nganjuk, Kabupaten Nganjuk",NUSA TENGGARA TIMUR,64419.0,Indonesia,,,,-7.596.197,1.119.119.391,https://maps.google.com/?cid=0x0:0x739d3fa752d31b68,
perumahan,perumahan,Nusa Tenggara Tim.,,Nusa Tenggara Tim.,NUSA TENGGARA TIMUR,,Indonesia,,,,-86.573.819,1.210.793.705,https://maps.google.com/?cid=0x0:0x1030bfbcaf71ae0,
perumahan,Rumah Kayu,OiAfer,"LENTO, Kec. Poco Ranaka, Kabupaten Manggarai Timur, Nusa Tenggara Tim. 86583","Kec. Poco Ranaka, Kabupaten Manggarai Timur",NUSA TENGGARA TIMUR,86583.0,Indonesia,81239217292,,,-85.659.506,120.575.208,https://maps.google.com/?cid=0x0:0x78557d83b0d15d23,
perumahan,Komplek perumahan,Kampung ncuang,"Jl. utama Kampung Ncuang No.1, Gurung Turi, Poco Ranaka, East Manggarai Regency, East Nusa Tenggara 86583","Gurung Turi, Poco Ranaka, East Manggarai Regency",NUSA TENGGARA TIMUR,86583.0,Indonesia,,,,-85.693.034,1.205.637.741,https://maps.google.com/?cid=0x0:0x69fc576e8ab020e5,
perumahan,Pembangunan Perumahan,Wuas,"CJHM+3H, Rende Nao, Kec. Poco Ranaka Timur, Kabupaten Manggarai Timur, Nusa Tenggara Tim.","Kabupaten Manggarai Timur, Nusa Tenggara Tim.",NUSA TENGGARA TIMUR,,Indonesia,,,,-85.723.056,1.206.339.177,https://maps.google.com/?cid=0x0:0xd7af80a243a0560b,
perumahan,Komplek perumahan,Perumahan Satar Lehong Residence,"Lehong, Kec. Borong, Kabupaten Manggarai Timur, Nusa Tenggara Tim.","Kabupaten Manggarai Timur, Nusa Tenggara Tim.",NUSA TENGGARA TIMUR,,Indonesia,81380097768,,,-87.539.345,1.206.035.351,https://maps.google.com/?cid=0x0:0xc50beb00a37a58a0,
perumahan,Komplek perumahan,Carang,"Carang, Bea Waek, Kec. Poco Ranaka, Kabupaten Manggarai Timur, Nusa Tenggara Tim.","Kabupaten Manggarai Timur, Nusa Tenggara Tim.",NUSA TENGGARA TIMUR,,Indonesia,,,,-85.502.271,1.205.347.706,https://maps.google.com/?cid=0x0:0x3e012ad143d99414,
perumahan,perumahan,Kec. Poco Ranaka,"Kabupaten Manggarai Timur, Nusa Tenggara Tim.","Kabupaten Manggarai Timur, Nusa Tenggara Tim.",NUSA TENGGARA TIMUR,,Indonesia,,,,-86.082.296,1.205.494.563,https://maps.google.com/?cid=0x0:0x82314d6de8f2130,
perumahan,Komplek perumahan,Perumahan Golo Peot Residence,"6J99+665, Peot, Kec. Borong, Kabupaten Manggarai Timur, Nusa Tenggara Tim.","Kabupaten Manggarai Timur, Nusa Tenggara Tim.",NUSA TENGGARA TIMUR,,Indonesia,,,,-87.819.885,1.206.181.102,https://maps.google.com/?cid=0x0:0x87e790a6cbccb239,
perumahan,Komplek perumahan,Rumah iki dan iam,"CHCJ+R92, Pocolia, Kec. Poco Ranaka, Kabupaten Manggarai Timur, Nusa Tenggara Tim.","Kabupaten Manggarai Timur, Nusa Tenggara Tim.",NUSA TENGGARA TIMUR,,Indonesia,,,,-85.775.528,1.205.812.027,https://maps.google.com/?cid=0x0:0xd5300fca2048b823,
perumahan,Taman,Mbelar Kecamatan Poco Ranaka,"CH53+JPM, Nggalak Leleng, Kec. Poco Ranaka, Kabupaten Manggarai Timur, Nusa Tenggara Tim.","Kabupaten Manggarai Timur, Nusa Tenggara Tim.",NUSA TENGGARA TIMUR,,Indonesia,,,,-85.909.237,1.205.542.982,https://maps.google.com/?cid=0x0:0x4ee0173c0f2b046a,
perumahan,Pembangunan Perumahan,Perumahan Bpk. Y.Mat,"CG5P+7F7, Mando Sawu, Kec. Poco Ranaka, Kabupaten Manggarai Timur, Nusa Tenggara Tim.","Kabupaten Manggarai Timur, Nusa Tenggara Tim.",NUSA TENGGARA TIMUR,,Indonesia,,,,-8.591.833,1.205.361.782,https://maps.google.com/?cid=0x0:0x4ac3a2c24d76d608,
perumahan,Komplek perumahan,Juno,"9GWP+5QX, Mando Sawu, Kec. Poco Ranaka, Kabupaten Manggarai Timur, Nusa Tenggara Tim.","Kabupaten Manggarai Timur, Nusa Tenggara Tim.",NUSA TENGGARA TIMUR,,Indonesia,,,,-86.046.143,1.205.369.566,https://maps.google.com/?cid=0x0:0xe018b93917ce232b,
perumahan,Rumah Kayu,Rumah Akri.Sonakri,"CH9H+769, Jl. Ruteng - Benteng Jawa, Pocolia, Kec. Poco Ranaka, Kabupaten Manggarai Timur, Nusa Tenggara Tim.","Kabupaten Manggarai Timur, Nusa Tenggara Tim.",NUSA TENGGARA TIMUR,,Indonesia,,,,-8.581.373,120.578.368,https://maps.google.com/?cid=0x0:0xdd61d60bcb78ae33,
perumahan,Perumahan,Hendra Nganta,"CH9H+769, Jl. Ruteng - Benteng Jawa, Pocolia, Kec. Poco Ranaka, Kabupaten Manggarai Timur, Nusa Tenggara Tim.","Kabupaten Manggarai Timur, Nusa Tenggara Tim.",NUSA TENGGARA TIMUR,,Indonesia,,,,-85.812.106,1.205.778.105,https://maps.google.com/?cid=0x0:0x2afaabcea01f976b,
perumahan,Komplek perumahan,Rumah Karolus jian,"CG4R+W23, Mando Sawu, Kec. Poco Ranaka, Kabupaten Manggarai Timur, Nusa Tenggara Tim.","Kabupaten Manggarai Timur, Nusa Tenggara Tim.",NUSA TENGGARA TIMUR,,Indonesia,,,,-85.919.762,1.205.393.958,https://maps.google.com/?cid=0x0:0xb9cefcd84f730de8,
perumahan,Perumahan,Pemukiman tompok,"CG2P+PPW, Mando Sawu, Kec. Poco Ranaka, Kabupaten Manggarai Timur, Nusa Tenggara Tim.","Kabupaten Manggarai Timur, Nusa Tenggara Tim.",NUSA TENGGARA TIMUR,,Indonesia,,,,-85.981.489,1.205.368.273,https://maps.google.com/?cid=0x0:0x408454577e11adfe,
perumahan,Perhimpunan Pengembang Perumahan,kp krmplang,"kos-kosan flores, gang flores, Bangka Pau, Kec. Poco Ranaka, Kabupaten Manggarai Timur, Nusa Tenggara Tim.","Kabupaten Manggarai Timur, Nusa Tenggara Tim.",NUSA TENGGARA TIMUR,,Indonesia,,,,-86.126.457,1.205.483.558,https://maps.google.com/?cid=0x0:0x37d92523f7e99bd4,
perumahan,Komplek perumahan,Kampung Pocong,"CHP6+4FW, Gurung Turi, Kec. Poco Ranaka, Kabupaten Manggarai Timur, Nusa Tenggara Tim.","Kabupaten Manggarai Timur, Nusa Tenggara Tim.",NUSA TENGGARA TIMUR,,Indonesia,,,,-85.646.483,1.205.611.921,https://maps.google.com/?cid=0x0:0xe4792dbfe216f59a,
perumahan,Pembangunan Perumahan,Rumah Yotam,"9HR2+C7F, Bangka Pau, Kec. Poco Ranaka, Kabupaten Manggarai Timur, Nusa Tenggara Tim.","Kabupaten Manggarai Timur, Nusa Tenggara Tim.",NUSA TENGGARA TIMUR,,Indonesia,,,,-86.089.426,1.205.506.771,https://maps.google.com/?cid=0x0:0x5a7b957da19c78f0,
perumahan,Perhimpunan Pengembang Perumahan,Bea Raci,"CH6H+37W, Golo Nderu, Kec. Poco Ranaka, Kabupaten Manggarai Timur, Nusa Tenggara Tim.","Kabupaten Manggarai Timur, Nusa Tenggara Tim.",NUSA TENGGARA TIMUR,,Indonesia,,,,-85.897.644,1.205.781.879,https://maps.google.com/?cid=0x0:0x3ee1ac3f3d2eeb78,
perumahan,Komplek perumahan,Pocoranaka timur,"9GRX+PQ6, Bangka Pau, Kec. Poco Ranaka, Kabupaten Manggarai Timur, Nusa Tenggara Tim.","Kabupaten Manggarai Timur, Nusa Tenggara Tim.",NUSA TENGGARA TIMUR,,Indonesia,,,,-86.082.226,1.205.494.032,https://maps.google.com/?cid=0x0:0xcc0e50f0f0d6866d,
perumahan,Komplek perumahan,Natas kampung pandang,"CH9H+74F, Pocolia, Kec. Poco Ranaka, Kabupaten Manggarai Timur, Nusa Tenggara Tim.","Kabupaten Manggarai Timur, Nusa Tenggara Tim.",NUSA TENGGARA TIMUR,,Indonesia,,,,-85.818.216,120.577.802,https://maps.google.com/?cid=0x0:0x82e6b0aafdd99f2a,
perumahan,Komplek perumahan,Natas Poeng,"CHV6+3G2, Pocong, Kec. Poco Ranaka, Kabupaten Manggarai Timur, Nusa Tenggara Tim.","Kabupaten Manggarai Timur, Nusa Tenggara Tim.",NUSA TENGGARA TIMUR,,Indonesia,,,,-85.573.531,1.205.612.652,https://maps.google.com/?cid=0x0:0x57228aeaf819b220,
perumahan,Pembangunan Perumahan,Kampoeng Lamba,"CH8G+3RG, Golo Nderu, Kec. Poco Ranaka, Kabupaten Manggarai Timur, Nusa Tenggara Tim.","Kabupaten Manggarai Timur, Nusa Tenggara Tim.",NUSA TENGGARA TIMUR,,Indonesia,,,,-8.584.823,1.205.770.629,https://maps.google.com/?cid=0x0:0xb1c330dc13ef8315,
perumahan,Komplek perumahan,Bp Arnol Asang,"CHMG+52R, Pocolia, Kec. Poco Ranaka, Kabupaten Manggarai Timur, Nusa Tenggara Tim.","Kabupaten Manggarai Timur, Nusa Tenggara Tim.",NUSA TENGGARA TIMUR,,Indonesia,81995928596,,,-85.670.038,1.205.750.065,https://maps.google.com/?cid=0x0:0x4036a065e9ec2d0b,
perumahan,Perhimpunan Pengembang Perumahan,Mano,"9GXP+FX, Mando Sawu, Kec. Poco Ranaka, Kabupaten Manggarai Timur, Nusa Tenggara Tim.","Kabupaten Manggarai Timur, Nusa Tenggara Tim.",NUSA TENGGARA TIMUR,,Indonesia,,,,-86.013.301,120.537.466,https://maps.google.com/?cid=0x0:0xfc01e2c239799e0c,
perumahan,Komplek perumahan,Rumah beri,"CHGP+F8R, Pocolia, Kec. Poco Ranaka, Kabupaten Manggarai Timur, Nusa Tenggara Tim.","Kabupaten Manggarai Timur, Nusa Tenggara Tim.",NUSA TENGGARA TIMUR,,Indonesia,,,,-85.733.056,1.205.858.161,https://maps.google.com/?cid=0x0:0x922419ee0e016fa7,
perumahan,Komplek perumahan,Kost Putri Flores,"9GPX+W8, Bangka Pau, Kec. Poco Ranaka, Kabupaten Manggarai Timur, Nusa Tenggara Tim.","Kabupaten Manggarai Timur, Nusa Tenggara Tim.",NUSA TENGGARA TIMUR,,Indonesia,,,,-86.126.457,1.205.483.558,https://maps.google.com/?cid=0x0:0x2ebc6b637dd494a5,
perumahan,perumahan,Dy,"CHCR+5FH, Pocolia, Kec. Poco Ranaka, Kabupaten Manggarai Timur, Nusa Tenggara Tim.","Kabupaten Manggarai Timur, Nusa Tenggara Tim.",NUSA TENGGARA TIMUR,,Indonesia,,,,-85.795.506,1.205.912.217,https://maps.google.com/?cid=0x0:0xfa175721d58e82ec,
perumahan,Komplek perumahan,Bea Doko Lamba Leda Timur,"CJVH+J4, Rengkam, Kec. Poco Ranaka Timur, Kabupaten Manggarai Timur, Nusa Tenggara Tim.","Kabupaten Manggarai Timur, Nusa Tenggara Tim.",NUSA TENGGARA TIMUR,,Indonesia,,,,-8.555.999,120.627.846,https://maps.google.com/?cid=0x0:0x5952798636f78373,
perumahan,perumahan,Kec. Lamba Leda,"Kabupaten Manggarai Timur, Nusa Tenggara Tim.","Kabupaten Manggarai Timur, Nusa Tenggara Tim.",NUSA TENGGARA TIMUR,,Indonesia,,,,-8.303.018,1.205.841.504,https://maps.google.com/?cid=0x0:0x250909596892d132,
perumahan,Area Mendaki,"Laci, bangka kuleng, Lamba Leda Selatan","CGRV+9MM Beo Laci, Bangka Kuleng, Kec. Poco Ranaka, Kabupaten Manggarai Timur, Nusa Tenggara Tim.","Kabupaten Manggarai Timur, Nusa Tenggara Tim.",NUSA TENGGARA TIMUR,,Indonesia,,,,-85.593.533,1.205.440.961,https://maps.google.com/?cid=0x0:0x5ac174d311596dde,
perumahan,Komplek perumahan,Rumah Gendang Lamba,"CH8G+2M5, Golo Nderu, Kec. Poco Ranaka, Kabupaten Manggarai Timur, Nusa Tenggara Tim.","Kabupaten Manggarai Timur, Nusa Tenggara Tim.",NUSA TENGGARA TIMUR,,Indonesia,,,,-85.849.826,1.205.767.428,https://maps.google.com/?cid=0x0:0x7d516ba00c8cacb,
perumahan,Kantor Pemerintah,Desa golo rengket,"FG6Q+M3Q, Bea Waek, Kec. Poco Ranaka, Kabupaten Manggarai Timur, Nusa Tenggara Tim.","Kabupaten Manggarai Timur, Nusa Tenggara Tim.",NUSA TENGGARA TIMUR,,Indonesia,,,,-85.386.111,120.535,https://maps.google.com/?cid=0x0:0xa0ae8dad4a5138f,
perumahan,Komplek perumahan,Perumahan Satar Lehong Residence,"Lehong, Kec. Borong, Kabupaten Manggarai Timur, Nusa Tenggara Tim.","Kabupaten Manggarai Timur, Nusa Tenggara Tim.",NUSA TENGGARA TIMUR,,Indonesia,81380097768,,,-87.539.345,1.206.035.351,https://maps.google.com/?cid=0x0:0xc50beb00a37a58a0,
perumahan,Pembangunan Perumahan,Kampung Majung,"FG6P+H22 Desa golo rengket, Bea Waek, Kec. Poco Ranaka, Kabupaten Manggarai Timur, Nusa Tenggara Tim.","Kabupaten Manggarai Timur, Nusa Tenggara Tim.",NUSA TENGGARA TIMUR,,Indonesia,,,,-85.386.111,120.535,https://maps.google.com/?cid=0x0:0x7383a972bb1de7ce,
perumahan,Komplek perumahan,Kajong kecamatan Reok Barat,"MFPQ+2XJ, Reo, Kec. Reok, Kabupaten Manggarai, Nusa Tenggara Tim.","Kabupaten Manggarai, Nusa Tenggara Tim.",NUSA TENGGARA TIMUR,,Indonesia,81239331395,,,-8.314.914,120.489.899,https://maps.google.com/?cid=0x0:0xd00189c8c3f8271d,
perumahan,Dapur Umum,MENU FITRI,"Nanga Lirang, Desa Satar Padut, Kec Lamba Leda Utara, Pota, Jalan Lintas, Reo, Kabupaten Manggarai Timur, Nusa Tenggara Tim. 86582","Desa Satar Padut, Kec Lamba Leda Utara, Pota, Jalan Lintas, Reo, Kabupaten Manggarai Timur",NUSA TENGGARA TIMUR,86582.0,Indonesia,85253376540,,,-82.861.593,1.206.039.687,https://maps.google.com/?cid=0x0:0xb29bc570b4f6ac87,
perumahan,Taman,Pertigaan Lehong,"6JRF+2F9, Unnamed Rd, Nusa Tenggara Tim., Rana Loba, Kec. Borong, Kabupaten Manggarai Timur, Nusa Tenggara Tim.","Kabupaten Manggarai Timur, Nusa Tenggara Tim.",NUSA TENGGARA TIMUR,,Indonesia,85238875276,,,-87.599.634,1.206.237.426,https://maps.google.com/?cid=0x0:0x4d4fdae6babbdfa8,
perumahan,Tujuan Wisata,Dampek,"MHWM+QMR, Satar Padut, Kec. Lamba Leda, Kabupaten Manggarai Timur, Nusa Tenggara Tim.","Kabupaten Manggarai Timur, Nusa Tenggara Tim.",NUSA TENGGARA TIMUR,,Indonesia,,,,-8.303.018,1.205.841.504,https://maps.google.com/?cid=0x0:0xa6762c0b8690e271,
perumahan,perumahan,Kec. Poco Ranaka,"Kabupaten Manggarai Timur, Nusa Tenggara Tim.","Kabupaten Manggarai Timur, Nusa Tenggara Tim.",NUSA TENGGARA TIMUR,,Indonesia,,,,-86.082.296,1.205.494.563,https://maps.google.com/?cid=0x0:0x82314d6de8f2130,
perumahan,perumahan,Tempode Resort,"Jln raya, Reo, kedindi, Kabupaten Manggarai, Nusa Tenggara Tim. 08592","Reo, kedindi, Kabupaten Manggarai",NUSA TENGGARA TIMUR,8592.0,Indonesia,82342222939,,,-82.971.653,1.204.665.642,https://maps.google.com/?cid=0x0:0x90b5654626f1603e,
perumahan,Tujuan Wisata,Pantai Ketebe,"MFPQ+2XJ, Reo, Kec. Reok, Kabupaten Manggarai, Nusa Tenggara Tim.","Kabupaten Manggarai, Nusa Tenggara Tim.",NUSA TENGGARA TIMUR,,Indonesia,81217851671,,,-8.314.914,120.489.899,https://maps.google.com/?cid=0x0:0xdabc958adcb24294,
perumahan,perumahan,Melo,"Kec. Poco Ranaka, Kabupaten Manggarai Timur, Nusa Tenggara Tim.","Kabupaten Manggarai Timur, Nusa Tenggara Tim.",NUSA TENGGARA TIMUR,,Indonesia,,,,-85.163.813,1.205.653.251,https://maps.google.com/?cid=0x0:0x77b9e094a9136902,
perumahan,perumahan,Kabupaten Manggarai Timur,Nusa Tenggara Tim.,"Kabupaten Manggarai Timur, Nusa Tenggara Tim.",NUSA TENGGARA TIMUR,,Indonesia,,,,-86.206.712,1.206.199.895,https://maps.google.com/?cid=0x0:0x4589eae58046c8fa,
perumahan,Padang,Rumah Makan Semarang,"GHHF+M2W, Jl. Ruteng - Benteng Jawa, Tengku Leda, Kec. Lamba Leda, Kabupaten Manggarai Timur, Nusa Tenggara Tim.","Kabupaten Manggarai Timur, Nusa Tenggara Tim.",NUSA TENGGARA TIMUR,,Indonesia,81239204671,,,-84.707.668,1.205.725.776,https://maps.google.com/?cid=0x0:0xaca56bfacbc4cbb4,
perumahan,Komplek perumahan,Maki Lamba Leda Utara,"PH2M+64F, Satar Padut, Kec. Lamba Leda, Kabupaten Manggarai Timur, Nusa Tenggara Tim.","Kabupaten Manggarai Timur, Nusa Tenggara Tim.",NUSA TENGGARA TIMUR,,Indonesia,,,,-82.994.471,1.205.827.925,https://maps.google.com/?cid=0x0:0xe6612f545cfbc419,
perumahan,Balai masyarakat,Laci,"JGCW+2VV, Nampar Tabang, Kec. Lamba Leda, Kabupaten Manggarai Timur, Nusa Tenggara Tim.","Kabupaten Manggarai Timur, Nusa Tenggara Tim.",NUSA TENGGARA TIMUR,,Indonesia,82146516437,,,-83.799,1.205.471.794,https://maps.google.com/?cid=0x0:0xdfb5e1b80b198fac,
perumahan,Komplek perumahan,Mbijar,"Satar kampas, Kec. Lamba Leda utara, Kabupaten Manggarai Timur, Nusa Tenggara Tim.","Kabupaten Manggarai Timur, Nusa Tenggara Tim.",NUSA TENGGARA TIMUR,,Indonesia,,,,-83.106.532,1.205.821.019,https://maps.google.com/?cid=0x0:0xa0d59e47e4621e3c,
perumahan,Komplek perumahan,Damer,"MHHQ+P5H, Satar Padut, Kec. Lamba Leda, Kabupaten Manggarai Timur, Nusa Tenggara Tim.","Kabupaten Manggarai Timur, Nusa Tenggara Tim.",NUSA TENGGARA TIMUR,,Indonesia,,,,-83.206.887,1.205.879.772,https://maps.google.com/?cid=0x0:0x2e2cdc41bb2f9942,
perumahan,Komplek perumahan,Rumah Warna Janda,"PH39+35X, Satar Padut, Kec. Lamba Leda, Kabupaten Manggarai Timur, Nusa Tenggara Tim.","Kabupaten Manggarai Timur, Nusa Tenggara Tim.",NUSA TENGGARA TIMUR,,Indonesia,,,,-82.982.842,1.205.680.331,https://maps.google.com/?cid=0x0:0xa56c5e5fd5f39f39,
perumahan,Komplek perumahan,Purang Kamba,"Satar Padut, Kec. Lamba Leda Utara, Kabupaten Manggarai Timur, Nusa Tenggara Tim.","Kabupaten Manggarai Timur, Nusa Tenggara Tim.",NUSA TENGGARA TIMUR,,Indonesia,,,,-83.176.101,1.205.853.712,https://maps.google.com/?cid=0x0:0xe47318cfdb0cf3b4,
perumahan,Komplek perumahan,RT Larok,"MHJJ+WJ7, Larok, Satar Kampas, Kec. Lamba Leda Utara, Satar Padut, Kabupaten Manggarai Timur, Nusa Tenggara Tim.","Kabupaten Manggarai Timur, Nusa Tenggara Tim.",NUSA TENGGARA TIMUR,,Indonesia,,,,-83.177.165,1.205.815.605,https://maps.google.com/?cid=0x0:0x781cfc5a9fcda89e,
perumahan,Perumahan,Larok,"Satar Kampas, Kec. Lamba Leda Utara, Kabupaten Manggarai Timur, Nusa Tenggara Tim.","Kabupaten Manggarai Timur, Nusa Tenggara Tim.",NUSA TENGGARA TIMUR,,Indonesia,,,,-83.166.108,1.205.807.146,https://maps.google.com/?cid=0x0:0xe378abce3089f134,
perumahan,Perhimpunan Pengembang Perumahan,Golo Cendana,"JJ9Q+8GW, Haju Wangi, Kec. Lamba Leda, Kabupaten Manggarai Timur, Nusa Tenggara Tim.","Kabupaten Manggarai Timur, Nusa Tenggara Tim.",NUSA TENGGARA TIMUR,,Indonesia,,,,-83.816.255,1.206.388.193,https://maps.google.com/?cid=0x0:0x88f9fe7f101c5c7d,
perumahan,perumahan,RUMAH SIFA,"HGXP+QH, Golo Munga, Kec. Lamba Leda, Kabupaten Manggarai Timur, Nusa Tenggara Tim.","Kabupaten Manggarai Timur, Nusa Tenggara Tim.",NUSA TENGGARA TIMUR,,Indonesia,,,,-84.005.758,1.205.364.072,https://maps.google.com/?cid=0x0:0x3f5c1503123ba66b,
perumahan,Komplek perumahan,Pertigaan Weleng,"JGMJ+327, Weleng, Nampar Tabang, Kec. Lamba Leda, Kabupaten Manggarai Timur, Nusa Tenggara Tim.","Kabupaten Manggarai Timur, Nusa Tenggara Tim.",NUSA TENGGARA TIMUR,,Indonesia,,,,-83.673.388,1.205.300.322,https://maps.google.com/?cid=0x0:0xd7a33d4e84d62b42,
perumahan,Komplek perumahan,Marcel Alsadin,"JG9W+XG9, Nampar Tabang, Kec. Lamba Leda, Kabupaten Manggarai Timur, Nusa Tenggara Tim.","Kabupaten Manggarai Timur, Nusa Tenggara Tim.",NUSA TENGGARA TIMUR,,Indonesia,,,,-83.795.335,1.205.461.778,https://maps.google.com/?cid=0x0:0xaa281e1e2b5897fa,
perumahan,perumahan,Kec. Sambi Rampas,"Kabupaten Manggarai Timur, Nusa Tenggara Tim.","Kabupaten Manggarai Timur, Nusa Tenggara Tim.",NUSA TENGGARA TIMUR,,Indonesia,,,,-8.347.378,1.207.548.886,https://maps.google.com/?cid=0x0:0xf9c936bcfd9766a6,
perumahan,Pembangunan Perumahan,Rumah Bp Sonia,"JQW3+RCG, Pota, Kec. Sambi Rampas, Kabupaten Manggarai Timur, Nusa Tenggara Tim.","Kabupaten Manggarai Timur, Nusa Tenggara Tim.",NUSA TENGGARA TIMUR,,Indonesia,,,,-83.529.846,1.207.536.295,https://maps.google.com/?cid=0x0:0x2ca4275ec109b4f6,
perumahan,Komplek perumahan,Zidan Home,"JQX2+92W, Pota, Kec. Sambi Rampas, Kabupaten Manggarai Timur, Nusa Tenggara Tim.","Kabupaten Manggarai Timur, Nusa Tenggara Tim.",NUSA TENGGARA TIMUR,,Indonesia,,,,-83.520.458,1.207.500.338,https://maps.google.com/?cid=0x0:0x9b7dbf409c7b067a,
perumahan,Komplek perumahan,Rumah Farel  Fakhirah,"JQW2+M5G, Pota, Kec. Sambi Rampas, Kabupaten Manggarai Timur, Nusa Tenggara Tim.","Kabupaten Manggarai Timur, Nusa Tenggara Tim.",NUSA TENGGARA TIMUR,,Indonesia,,,,-83.533.057,1.207.504.507,https://maps.google.com/?cid=0x0:0xe0b0dfd320634ee4,
perumahan,Komplek perumahan,Rumah ayang,"MQ56+FFC, Pota, Kec. Sambi Rampas, Kabupaten Manggarai Timur, Nusa Tenggara Tim.","Kabupaten Manggarai Timur, Nusa Tenggara Tim.",NUSA TENGGARA TIMUR,,Indonesia,,,,-83.413.155,1.207.611.511,https://maps.google.com/?cid=0x0:0x1b596a4c779f6e8f,
perumahan,Komplek perumahan,Rumah budy,"MQ5X+53, Nanga Mbaur, Kec. Sambi Rampas, Kabupaten Manggarai Timur, Nusa Tenggara Tim.","Kabupaten Manggarai Timur, Nusa Tenggara Tim.",NUSA TENGGARA TIMUR,,Indonesia,,,,-83.420.755,1.207.976.704,https://maps.google.com/?cid=0x0:0xda2b103271da28a0,
perumahan,perumahan,Rumah om Ben,"MQ23+343, Pota, Kec. Sambi Rampas, Kabupaten Manggarai Timur, Nusa Tenggara Tim.","Kabupaten Manggarai Timur, Nusa Tenggara Tim.",NUSA TENGGARA TIMUR,,Indonesia,,,,-83.498.611,1.207.527.999,https://maps.google.com/?cid=0x0:0xf4047eedabf16284,
perumahan,Pembangunan Perumahan,Rumah Bulin,"MQ4W+M9M, Pota, Kec. Sambi Rampas, Kabupaten Manggarai Timur, Nusa Tenggara Tim.","Kabupaten Manggarai Timur, Nusa Tenggara Tim.",NUSA TENGGARA TIMUR,,Indonesia,,,,-83.432.797,1.207.959.286,https://maps.google.com/?cid=0x0:0x259f9b83db2370f9,
perumahan,Komplek perumahan,Raden home,"JQX4+R5X, Pota, Kec. Sambi Rampas, Kabupaten Manggarai Timur, Nusa Tenggara Tim.","Kabupaten Manggarai Timur, Nusa Tenggara Tim.",NUSA TENGGARA TIMUR,,Indonesia,,,,-8.350.386,1.207.554.823,https://maps.google.com/?cid=0x0:0xa529750a87b1f9ed,
perumahan,Ruang berkarya,Rumah Dony,"GMH6+P7, Lada Mese, Kec. Sambi Rampas, Kabupaten Manggarai Timur, Nusa Tenggara Tim.","Kabupaten Manggarai Timur, Nusa Tenggara Tim.",NUSA TENGGARA TIMUR,,Indonesia,,,,-84.702.854,1.206.605.006,https://maps.google.com/?cid=0x0:0xdcd365b5ad532b88,
perumahan,Komplek perumahan,Alif Alamsyah,"JPXJ+MQC, Pota, Kec. Sambi Rampas, Kabupaten Manggarai Timur, Nusa Tenggara Tim.","Kabupaten Manggarai Timur, Nusa Tenggara Tim.",NUSA TENGGARA TIMUR,,Indonesia,,,,-835.081,1.207.318.874,https://maps.google.com/?cid=0x0:0xdd20576f59020c3,
perumahan,Komplek perumahan,Arnold Rumah,"GMC9+24Q, Lada Mese, Kec. Sambi Rampas, Kabupaten Manggarai Timur, Nusa Tenggara Tim.","Kabupaten Manggarai Timur, Nusa Tenggara Tim.",NUSA TENGGARA TIMUR,,Indonesia,,,,-84.799.105,1.206.678.495,https://maps.google.com/?cid=0x0:0xb24fec7a901999b0,
perumahan,Komplek perumahan,Rumah yoan,"GM3R+J4, Golo Wangkung, Kec. Sambi Rampas, Kabupaten Manggarai Timur, Nusa Tenggara Tim.","Kabupaten Manggarai Timur, Nusa Tenggara Tim.",NUSA TENGGARA TIMUR,,Indonesia,,,,-84.959.273,1.206.903.148,https://maps.google.com/?cid=0x0:0xe5422e36bf733402,
perumahan,Komplek perumahan,Rumah viron,"MQ35+JM5, Pota, Kec. Sambi Rampas, Kabupaten Manggarai Timur, Nusa Tenggara Tim.","Kabupaten Manggarai Timur, Nusa Tenggara Tim.",NUSA TENGGARA TIMUR,,Indonesia,,,,-8.344.999,120.759.664,https://maps.google.com/?cid=0x0:0xe6406d8ce96e70f3,
perumahan,Komplek perumahan,Daeng Makalu,"MQ67+RG2, Sarae Timur, Pota, Kec. Sambi Rampas, Kabupaten Manggarai Timur, Nusa Tenggara Tim.","Kabupaten Manggarai Timur, Nusa Tenggara Tim.",NUSA TENGGARA TIMUR,,Indonesia,,,,-83.379.949,1.207.637.525,https://maps.google.com/?cid=0x0:0x7aee4bf5fef64916,
perumahan,Komplek perumahan,Rumah Muhamad Sunarto,"MQ26+W8V, Pota, Kec. Sambi Rampas, Kabupaten Manggarai Timur, Nusa Tenggara Tim.","Kabupaten Manggarai Timur, Nusa Tenggara Tim.",NUSA TENGGARA TIMUR,,Indonesia,,,,-83.478.751,1.207.608.578,https://maps.google.com/?cid=0x0:0xe2ddab2903132cb5,
perumahan,Komplek perumahan,Rumah Deran Doank,"MQ4V+8R, Nanga Mbaur, Kec. Sambi Rampas, Kabupaten Manggarai Timur, Nusa Tenggara Tim.","Kabupaten Manggarai Timur, Nusa Tenggara Tim.",NUSA TENGGARA TIMUR,,Indonesia,,,,-83.447.203,1.207.943.559,https://maps.google.com/?cid=0x0:0x1bc438509611a96f,
perumahan,Perhimpunan Pengembang Perumahan,Rumah Andi,"MP4C+62C, Jalan Lintas Utara Reo - Pota, Golo Nila, Nanga Baras","Kabupaten Manggarai Timur, Nusa Tenggara Tim.",NUSA TENGGARA TIMUR,,Indonesia,,,,-8.344.447,1.207.200.292,https://maps.google.com/?cid=0x0:0xc4650b65d54bd1ea,
perumahan,Komplek perumahan,Rumah Pak Lutfi,"MQ3W+VG, Nanga Mbaur, Kec. Sambi Rampas, Kabupaten Manggarai Timur, Nusa Tenggara Tim.","Kabupaten Manggarai Timur, Nusa Tenggara Tim.",NUSA TENGGARA TIMUR,,Indonesia,,,,-8.345.363,120.796.424,https://maps.google.com/?cid=0x0:0x27927a4b632bef5d,
perumahan,Komplek perumahan,RUMAH JAMIL NTT,"MQ22+6W9, Pota, Kec. Sambi Rampas, Kabupaten Manggarai Timur, Nusa Tenggara Tim.","Kabupaten Manggarai Timur, Nusa Tenggara Tim.",NUSA TENGGARA TIMUR,,Indonesia,,,,-83.487.541,1.207.515.378,https://maps.google.com/?cid=0x0:0xaccbaf71e53b7b57,
perumahan,Komplek perumahan,Rumah Pak Budi,"MQ65+FW3, Pota, Kec. Sambi Rampas, Kabupaten Manggarai Timur, Nusa Tenggara Tim.","Kabupaten Manggarai Timur, Nusa Tenggara Tim.",NUSA TENGGARA TIMUR,,Indonesia,,,,-83.391.237,12.075.975,https://maps.google.com/?cid=0x0:0xe57f9ceb71a95e36,
perumahan,Komplek perumahan,Rumah SUHARDIN,"MQ66+66H, Pota, Kec. Sambi Rampas, Kabupaten Manggarai Timur, Nusa Tenggara Tim.","Kabupaten Manggarai Timur, Nusa Tenggara Tim.",NUSA TENGGARA TIMUR,,Indonesia,,,,-83.394.306,1.207.605.986,https://maps.google.com/?cid=0x0:0xd7d63ec0d399459e,
perumahan,Komplek perumahan,rumah ipang,"FMWC+4P2, Golo Wangkung, Kec. Sambi Rampas, Kabupaten Manggarai Timur, Nusa Tenggara Tim.","Kabupaten Manggarai Timur, Nusa Tenggara Tim.",NUSA TENGGARA TIMUR,,Indonesia,,,,-85.047.414,120.671.755,https://maps.google.com/?cid=0x0:0xd0c7afe1f7258060,
perumahan,Pembangunan Perumahan,rumah siswono,"MQ3P+FF4, Nanga Mbaur, Kec. Sambi Rampas, Kabupaten Manggarai Timur, Nusa Tenggara Tim.","Kabupaten Manggarai Timur, Nusa Tenggara Tim.",NUSA TENGGARA TIMUR,,Indonesia,,,,-83.467.982,1.207.858.126,https://maps.google.com/?cid=0x0:0x44b2ee64e1595d08,
perumahan,Kantor Administrasi Kota,Rumah Jabatan Camat Sami Rampas,"MQ45+755, Pota, Kec. Sambi Rampas, Kabupaten Manggarai Timur, Nusa Tenggara Tim.","Kabupaten Manggarai Timur, Nusa Tenggara Tim.",NUSA TENGGARA TIMUR,,Indonesia,,,,-83.443.661,1.207.579.855,https://maps.google.com/?cid=0x0:0x6ac02372ae4b28d9,
perumahan,Perhimpunan Pengembang Perumahan,Kampung pada,"FMXQ+FWQ, Golo Wangkung, Kec. Sambi Rampas, Kabupaten Manggarai Timur, Nusa Tenggara Tim.","Kabupaten Manggarai Timur, Nusa Tenggara Tim.",NUSA TENGGARA TIMUR,,Indonesia,,,,-8.501.276,1.206.898.661,https://maps.google.com/?cid=0x0:0xc719fa2f1fc845cb,
perumahan,Komplek perumahan,Rumah Jubaeda,"MQ34+WWP, Pota, Kec. Sambi Rampas, Kabupaten Manggarai Timur, Nusa Tenggara Tim.","Kabupaten Manggarai Timur, Nusa Tenggara Tim.",NUSA TENGGARA TIMUR,,Indonesia,,,,-83.451.534,1.207.573.149,https://maps.google.com/?cid=0x0:0xfc3ea4d3d75b75f,
perumahan,perumahan,Kec. Elar,"Kabupaten Manggarai Timur, Nusa Tenggara Tim.","Kabupaten Manggarai Timur, Nusa Tenggara Tim.",NUSA TENGGARA TIMUR,,Indonesia,,,,-84.244.952,1.208.728.615,https://maps.google.com/?cid=0x0:0xa3e720c639fa11c4,
perumahan,Komplek perumahan,KOPEL_Junia,"FQGC+QMJ, Tiwu Kondo, Kec. Elar, Kabupaten Manggarai Timur, Nusa Tenggara Tim.","Kabupaten Manggarai Timur, Nusa Tenggara Tim.",NUSA TENGGARA TIMUR,,Indonesia,,,,-85.230.447,120.771.654,https://maps.google.com/?cid=0x0:0x92dac33e1babb0e4,
perumahan,Komplek perumahan,Kecamatan Elar,"HVGF+645, Legur Lai, Kec. Elar, Kabupaten Manggarai Timur, Nusa Tenggara Tim.","Kabupaten Manggarai Timur, Nusa Tenggara Tim.",NUSA TENGGARA TIMUR,,Indonesia,,,,-84.244.952,1.208.728.615,https://maps.google.com/?cid=0x0:0xa1012c82c2868668,
perumahan,Komplek perumahan,Mbaru Mere Riwulodong,"CQGX+P6, Gising, Kec. Elar Selatan, Kabupaten Manggarai Timur, Nusa Tenggara Tim.","Kabupaten Manggarai Timur, Nusa Tenggara Tim.",NUSA TENGGARA TIMUR,,Indonesia,,,,-8.573.169,1.207.980.362,https://maps.google.com/?cid=0x0:0x90d0021c797f2748,
perumahan,Komplek perumahan,Rumah Stella Ganteng,"FQGG+33X, Tiwu Kondo, Kec. Elar, Kabupaten Manggarai Timur, Nusa Tenggara Tim.","Kabupaten Manggarai Timur, Nusa Tenggara Tim.",NUSA TENGGARA TIMUR,,Indonesia,,,,-85.247.611,1.207.752.219,https://maps.google.com/?cid=0x0:0xaa11e18ff0f0b996,
perumahan,Perhimpunan Pengembang Perumahan,Om Jordy,"GRGG+R3, Golo Lebo, Kec. Elar, Kabupaten Manggarai Timur, Nusa Tenggara Tim.","Kabupaten Manggarai Timur, Nusa Tenggara Tim.",NUSA TENGGARA TIMUR,,Indonesia,,,,-84.729.821,1.208.251.822,https://maps.google.com/?cid=0x0:0x2ea44df01238d933,
perumahan,Komplek perumahan,Golo moro,"FQHG+47, Tiwu Kondo, Kec. Elar, Kabupaten Manggarai Timur, Nusa Tenggara Tim.","Kabupaten Manggarai Timur, Nusa Tenggara Tim.",NUSA TENGGARA TIMUR,,Indonesia,,,,-85.221.615,1.207.756.018,https://maps.google.com/?cid=0x0:0xdf3709c4c6a109a4,
perumahan,Perhimpunan Pengembang Perumahan,WUNA,"GRHG+25, Golo Lebo, Kec. Elar, Kabupaten Manggarai Timur, Nusa Tenggara Tim.","Kabupaten Manggarai Timur, Nusa Tenggara Tim.",NUSA TENGGARA TIMUR,,Indonesia,,,,-8.472.943,1.208.251.134,https://maps.google.com/?cid=0x0:0xf8163607af4e93d4,
perumahan,Komplek perumahan,Rm Ira modak,"FRHF+5V5, Lempang Paji, Kec. Elar Selatan, Kabupaten Manggarai Timur, Nusa Tenggara Tim.","Kabupaten Manggarai Timur, Nusa Tenggara Tim.",NUSA TENGGARA TIMUR,,Indonesia,,,,-85.221.206,1.208.247.413,https://maps.google.com/?cid=0x0:0xa86a357d20e70e9,
perumahan,Komplek perumahan,Lewur,"GRR8+J5F, Kanun, Golo Lebo, Kec. Elar, Kabupaten Manggarai Timur, Nusa Tenggara Tim.","Kabupaten Manggarai Timur, Nusa Tenggara Tim.",NUSA TENGGARA TIMUR,,Indonesia,,,,-84.584.362,1.208.154.358,https://maps.google.com/?cid=0x0:0xe8e0666cf4ffd3b2,
perumahan,Pembangunan Perumahan,Kampung Wainterong,"JWVC+6R, Golo Lijun, Kec. Elar, Kabupaten Manggarai Timur, Nusa Tenggara Tim.","Kabupaten Manggarai Timur, Nusa Tenggara Tim.",NUSA TENGGARA TIMUR,,Indonesia,,,,-83.570.128,1.209.220.684,https://maps.google.com/?cid=0x0:0x235e7b4a683273a4,
perumahan,Komplek perumahan,Riton Selek,"GR88+53W, Kaju Wangi, Kec. Elar, Kabupaten Manggarai Timur, Nusa Tenggara Tim.","Kabupaten Manggarai Timur, Nusa Tenggara Tim.",NUSA TENGGARA TIMUR,,Indonesia,81246620632,,,-84.845.229,1.208.152.184,https://maps.google.com/?cid=0x0:0x45eaa288657dd2f1,
perumahan,Kantor Pemerintah,Rumah Kompleks Kntor Camat,"FQGF+43H, Tiwu Kondo, Kec. Elar, Kabupaten Manggarai Timur, Nusa Tenggara Tim.","Kabupaten Manggarai Timur, Nusa Tenggara Tim.",NUSA TENGGARA TIMUR,,Indonesia,,,,-8.525.109,12.077.271,https://maps.google.com/?cid=0x0:0x935fd68567d1dbe0,
perumahan,Perumahan,Rumah Maloko,"CQ5X+9Q, Gising, Kec. Elar Selatan, Kabupaten Manggarai Timur, Nusa Tenggara Tim.","Kabupaten Manggarai Timur, Nusa Tenggara Tim.",NUSA TENGGARA TIMUR,,Indonesia,,,,-85.913.788,1.207.982.317,https://maps.google.com/?cid=0x0:0x231f57ec93f79a4b,
perumahan,Komplek perumahan,Rumah farhan,"FPMX+PJ, Lengko Namut, Kec. Elar, Kabupaten Manggarai Timur, Nusa Tenggara Tim.","Kabupaten Manggarai Timur, Nusa Tenggara Tim.",NUSA TENGGARA TIMUR,,Indonesia,,,,-8.516.816,120.749.246,https://maps.google.com/?cid=0x0:0x33261e1d8bcea15a,
perumahan,Komplek perumahan,Kampung selek,"HVGF+645, Desa Kaju Wangi, Kec. Elar, Kabupaten Manggarai Timur, Nusa Tenggara Tim.","Kabupaten Manggarai Timur, Nusa Tenggara Tim.",NUSA TENGGARA TIMUR,,Indonesia,,,,-84.244.952,1.208.728.615,https://maps.google.com/?cid=0x0:0x18e246918a3dd0d7,
perumahan,perumahan,Rumah Bapa Felix Keke,"FQC9+937 Smpn 1, Tiwu Kondo, Kec. Elar, Kabupaten Manggarai Timur, Nusa Tenggara Tim.","Kabupaten Manggarai Timur, Nusa Tenggara Tim.",NUSA TENGGARA TIMUR,,Indonesia,,,,-85.290.939,1.207.676.788,https://maps.google.com/?cid=0x0:0xa5833d6e2a542d35,
perumahan,Komplek perumahan,RT Sador,"Biting Timur, Tiwu Kondo, Kec. Elar, Kabupaten Manggarai Timur, Nusa Tenggara Tim.","Kabupaten Manggarai Timur, Nusa Tenggara Tim.",NUSA TENGGARA TIMUR,,Indonesia,,,,-8.513.738,120.785.372,https://maps.google.com/?cid=0x0:0x879507d40125c27,
perumahan,Komplek perumahan,Rumah Ozil,"FQQ8+MH4, Tiwu Kondo, Kec. Elar, Kabupaten Manggarai Timur, Nusa Tenggara Tim.","Kabupaten Manggarai Timur, Nusa Tenggara Tim.",NUSA TENGGARA TIMUR,,Indonesia,,,,-85.110.668,1.207.670.747,https://maps.google.com/?cid=0x0:0xc5c6ac2c30f109d2,
perumahan,Perumahan,Rumah Barok,"GQ3G+M3X Nunang, RT.004/RW.002, Biting, Kec. Elar, Kabupaten Manggarai Timur, Nusa Tenggara Tim.","Kabupaten Manggarai Timur, Nusa Tenggara Tim.",NUSA TENGGARA TIMUR,,Indonesia,,,,-84.957.519,1.207.752.219,https://maps.google.com/?cid=0x0:0x364820d079ba4eb2,
perumahan,Pembangunan Perumahan,Kampung kanun,"GRR8+J5F, Kanun, Golo Lebo, Kec. Elar, Kabupaten Manggarai Timur, Nusa Tenggara Tim.","Kabupaten Manggarai Timur, Nusa Tenggara Tim.",NUSA TENGGARA TIMUR,,Indonesia,,,,-84.584.362,1.208.154.358,https://maps.google.com/?cid=0x0:0xeb1807c31c550c86,
perumahan,Perhimpunan Pengembang Perumahan,Kampung Bawe,"JWQ8+X5H, Golo Lijun, Kec. Elar, Kabupaten Manggarai Timur, Nusa Tenggara Tim.","Kabupaten Manggarai Timur, Nusa Tenggara Tim.",NUSA TENGGARA TIMUR,,Indonesia,,,,-83.600.706,1.209.154.753,https://maps.google.com/?cid=0x0:0x29919f4700f394aa,
perumahan,Komplek perumahan,Bebong Desa Golo Linus Kec Elar Selatan,"CQHX+73F, RW.Bebong Desa, Golo Linus, Kec. Elar Selatan, Kabupaten Manggarai Timur, Nusa Tenggara Tim.","Kabupaten Manggarai Timur, Nusa Tenggara Tim.",NUSA TENGGARA TIMUR,,Indonesia,,,,-85.718.041,1.207.976.854,https://maps.google.com/?cid=0x0:0x44daed7b93ad0378,
perumahan,Pembangunan Perumahan,kowak,"FQMJ+77, Biting, Kec. Elar, Kabupaten Manggarai Timur, Nusa Tenggara Tim.","Kabupaten Manggarai Timur, Nusa Tenggara Tim.",NUSA TENGGARA TIMUR,,Indonesia,,,,-85.168.125,1.207.806.875,https://maps.google.com/?cid=0x0:0xa099f90ef5835f4,
perumahan,Komplek perumahan,Rumah Dado,"FQ77+WQ, Tiwu Kondo, Kec. Elar, Kabupaten Manggarai Timur, Nusa Tenggara Tim.","Kabupaten Manggarai Timur, Nusa Tenggara Tim.",NUSA TENGGARA TIMUR,,Indonesia,,,,-85.351.814,1.207.644.734,https://maps.google.com/?cid=0x0:0x49d73eff66d14f44,
perumahan,Komplek perumahan,Lewur Mes,"FRHF+4VX, Lempang Paji, Kec. Elar Selatan, Kabupaten Manggarai Timur, Nusa Tenggara Tim.","Kabupaten Manggarai Timur, Nusa Tenggara Tim.",NUSA TENGGARA TIMUR,,Indonesia,,,,-85.221.269,1.208.247.423,https://maps.google.com/?cid=0x0:0xf74287bd8fbd65c4,
perumahan,Pembangunan Perumahan,Permata Puri Harmoni 2 - Situsari (Cileungsi),"Jl. Permata Puri Harmoni, Setu Sari, Kec. Cileungsi, Kabupaten Bogor, Jawa Barat 16820","Setu Sari, Kec. Cileungsi, Kabupaten Bogor",NUSA TENGGARA TIMUR,16820.0,Indonesia,,,,-64.281.118,1.070.243.501,https://maps.google.com/?cid=0x0:0xf91e05750c56a149,
perumahan,Komplek perumahan,Perumahan Mutiara Latansa 2,"311, Perumahan Jl. Mutiara Latansa No.2 blok B5","Kabupaten Bekasi, Jawa Barat",NUSA TENGGARA TIMUR,,Indonesia,2182679913,,,-61.838.692,1.070.693.686,https://maps.google.com/?cid=0x0:0x9c5d18841056d1db,
perumahan,perumahan,Kec. Kota Komba,"Kabupaten Manggarai Timur, Nusa Tenggara Tim.","Kabupaten Manggarai Timur, Nusa Tenggara Tim.",NUSA TENGGARA TIMUR,,Indonesia,,,,-88.273.426,1.208.051.136,https://maps.google.com/?cid=0x0:0xb5521e292aca4357,
perumahan,Komplek perumahan,Rumah Kristo,"6P7C+Q27, RW.Keros, Rongga Koe, Kec. Kota Komba, Kabupaten Manggarai Timur, Nusa Tenggara Tim.","Kabupaten Manggarai Timur, Nusa Tenggara Tim.",NUSA TENGGARA TIMUR,,Indonesia,,,,-87.852.622,1.207.195.196,https://maps.google.com/?cid=0x0:0x44300d2c9ce750cc,
perumahan,Komplek perumahan,Rumah Gusmao,"6M88+7PX, Lembur, Kec. Kota Komba, Kabupaten Manggarai Timur, Nusa Tenggara Tim.","Kabupaten Manggarai Timur, Nusa Tenggara Tim.",NUSA TENGGARA TIMUR,,Indonesia,,,,-87.842.616,1.206.668.685,https://maps.google.com/?cid=0x0:0x1ed74d68f981a11c,
perumahan,perumahan,MIKI HOME,"6PR5+H6, Mbengan, Kec. Kota Komba, Kabupaten Manggarai Timur, Nusa Tenggara Tim.","Kabupaten Manggarai Timur, Nusa Tenggara Tim.",NUSA TENGGARA TIMUR,,Indonesia,,,,-87.589.617,1.207.078.395,https://maps.google.com/?cid=0x0:0x5efee5fedfcfc102,
perumahan,Komplek perumahan,Mbaru NGGAI,"6P5J+F4P, Komba, Kec. Kota Komba, Kabupaten Manggarai Timur, Nusa Tenggara Tim.","Kabupaten Manggarai Timur, Nusa Tenggara Tim.",NUSA TENGGARA TIMUR,,Indonesia,,,,-87.918.029,1.207.308.298,https://maps.google.com/?cid=0x0:0xfca7de8060af4e20,
perumahan,Komplek perumahan,Candra Kobok,"6PG5+5GH, Rongga Koe, Kec. Kota Komba, Kabupaten Manggarai Timur, Nusa Tenggara Tim.","Kabupaten Manggarai Timur, Nusa Tenggara Tim.",NUSA TENGGARA TIMUR,,Indonesia,,,,-87.743.006,1.207.085.845,https://maps.google.com/?cid=0x0:0xd5680c0935067a58,
perumahan,Pembangunan Perumahan,Watu nggene,"5Q99+PQX, Watu Nggene, Kec. Kota Komba, Kabupaten Manggarai Timur, Nusa Tenggara Tim.","Kabupaten Manggarai Timur, Nusa Tenggara Tim.",NUSA TENGGARA TIMUR,,Indonesia,,,,-88.306.464,120.769.476,https://maps.google.com/?cid=0x0:0x8e9adb4c5a8f4ba8,
perumahan,Komplek perumahan,Rumah maxen Soleman,"6MXJ+9FR, Pong Ruan, Kec. Kota Komba, Kabupaten Manggarai Timur, Nusa Tenggara Tim.","Kabupaten Manggarai Timur, Nusa Tenggara Tim.",NUSA TENGGARA TIMUR,,Indonesia,,,,-87.515.005,1.206.811.374,https://maps.google.com/?cid=0x0:0x7a594a194cf17b59,
perumahan,Pembangunan Perumahan,Andryano,"Jalan Kobok No.15, Rongga Koe, Kec. Kota Komba, Kabupaten Manggarai Timur, Nusa Tenggara Tim.","Kabupaten Manggarai Timur, Nusa Tenggara Tim.",NUSA TENGGARA TIMUR,,Indonesia,,,,-8.776.239,120.710.297,https://maps.google.com/?cid=0x0:0x89d9612735816561,
perumahan,Komplek perumahan,Rumah Bpk. Vianey Daud,"5MP8+8QW, Tanah Rata, Kec. Kota Komba, Kabupaten Manggarai Timur, Nusa Tenggara Tim.","Kabupaten Manggarai Timur, Nusa Tenggara Tim.",NUSA TENGGARA TIMUR,,Indonesia,,,,-88.135.412,1.206.679.185,https://maps.google.com/?cid=0x0:0x5ee16b2236b22768,
perumahan,Komplek perumahan,Rumah Rista,"6PXV+553, Rana Kolong, Kec. Kota Komba, Kabupaten Manggarai Timur, Nusa Tenggara Tim.","Kabupaten Manggarai Timur, Nusa Tenggara Tim.",NUSA TENGGARA TIMUR,,Indonesia,,,,-87.521.028,1.207.429.147,https://maps.google.com/?cid=0x0:0xcbcc2f0bd7585bdf,
perumahan,perumahan,Rumah Opa Yosep,"6PR5+H6, Mbengan, Kec. Kota Komba, Kabupaten Manggarai Timur, Nusa Tenggara Tim.","Kabupaten Manggarai Timur, Nusa Tenggara Tim.",NUSA TENGGARA TIMUR,,Indonesia,,,,-8.759.128,1.207.085.369,https://maps.google.com/?cid=0x0:0xfd446e6521be6d6,
perumahan,Komplek perumahan,Kampung Waesepang,"6Q44+87Q, Komba, Kec. Kota Komba, Kabupaten Manggarai Timur, Nusa Tenggara Tim.","Kabupaten Manggarai Timur, Nusa Tenggara Tim.",NUSA TENGGARA TIMUR,,Indonesia,,,,-87.941.537,1.207.557.297,https://maps.google.com/?cid=0x0:0xfff81e3aee033085,
perumahan,Komplek perumahan,Rumah Anhar,"6P86+R3W, Rongga Koe, Kec. Kota Komba, Kabupaten Manggarai Timur, Nusa Tenggara Tim. 86572","Rongga Koe, Kec. Kota Komba, Kabupaten Manggarai Timur",NUSA TENGGARA TIMUR,86572.0,Indonesia,,,,-87.828.889,1.207.102.187,https://maps.google.com/?cid=0x0:0xf577e92106eff131,
perumahan,Taman,"Waelengga,kompleks kalapandu","5RF3+6XM, Jl. Lintas Flores, Waelengga, Kec. Kota Komba, Kabupaten Manggarai Timur, Nusa Tenggara Tim.","Kabupaten Manggarai Timur, Nusa Tenggara Tim.",NUSA TENGGARA TIMUR,,Indonesia,,,,-8.826.877,1.208.048.899,https://maps.google.com/?cid=0x0:0xbb344348d4fe1093,
perumahan,Komplek perumahan,SARMANDO,"6P7P+2WR Munde, Komba, Kec. Kota Komba, Kabupaten Manggarai Timur, Nusa Tenggara Tim.","Kabupaten Manggarai Timur, Nusa Tenggara Tim.",NUSA TENGGARA TIMUR,,Indonesia,,,,-87.873.764,1.207.372.617,https://maps.google.com/?cid=0x0:0x6b3dfe3823387a87,
perumahan,Komplek perumahan,Mbaru Gunung Tiwamoro,"6QP4+2X, Rana Kolong, Kec. Kota Komba, Kabupaten Manggarai Timur, Nusa Tenggara Tim.","Kabupaten Manggarai Timur, Nusa Tenggara Tim.",NUSA TENGGARA TIMUR,,Indonesia,,,,-87.649.216,1.207.574.587,https://maps.google.com/?cid=0x0:0x5e61dd700cbaa03,
perumahan,Pembangunan Perumahan,Ngembu,"5PRR+C7H, Komba, Kec. Kota Komba, Kabupaten Manggarai Timur, Nusa Tenggara Tim.","Kabupaten Manggarai Timur, Nusa Tenggara Tim.",NUSA TENGGARA TIMUR,,Indonesia,,,,-88.089.457,1.207.407.425,https://maps.google.com/?cid=0x0:0x2b5111a59458dcb7,
perumahan,Pembangunan Perumahan,Bpk. Lukas Sungga,"6PQ6+3HC, Mbengan, Kec. Kota Komba, Kabupaten Manggarai Timur, Nusa Tenggara Tim.","Kabupaten Manggarai Timur, Nusa Tenggara Tim.",NUSA TENGGARA TIMUR,,Indonesia,,,,-87.627.237,1.207.101.787,https://maps.google.com/?cid=0x0:0x784dedb0c158f1f2,
perumahan,Komplek perumahan,Rumah Adat Suku Aghos,"6MFF+H5V, Lembur, Kec. Kota Komba, Kabupaten Manggarai Timur, Nusa Tenggara Tim.","Kabupaten Manggarai Timur, Nusa Tenggara Tim.",NUSA TENGGARA TIMUR,,Indonesia,,,,-8.776.019,1.206.729.276,https://maps.google.com/?cid=0x0:0x9fabc9ae38796a96,
perumahan,Pembangunan Perumahan,Ritapada,"7QPV+WP3, Gn. Mute, Kec. Kota Komba, Kabupaten Manggarai Timur, Nusa Tenggara Tim.","Kabupaten Manggarai Timur, Nusa Tenggara Tim.",NUSA TENGGARA TIMUR,,Indonesia,,,,-8.712.739,120.794.302,https://maps.google.com/?cid=0x0:0xe9216aba9a17dfd,
perumahan,Komplek perumahan,Rumah kk marten-paster-,"6R4F+356, Gn. Mute, Kec. Kota Komba, Kabupaten Manggarai Timur, Nusa Tenggara Tim.","Kabupaten Manggarai Timur, Nusa Tenggara Tim.",NUSA TENGGARA TIMUR,,Indonesia,,,,-87.948.396,1.208.229.023,https://maps.google.com/?cid=0x0:0x701b6382cd491239,
perumahan,perumahan,Paternus,"6PP7+R99, Nunur 4, Mbengan, Kec. Kota Komba, Kabupaten Manggarai Timur, Nusa Tenggara Tim.","Kabupaten Manggarai Timur, Nusa Tenggara Tim.",NUSA TENGGARA TIMUR,,Indonesia,,,,-87.629.579,1.207.134.977,https://maps.google.com/?cid=0x0:0xaa09b458bed672e7,
perumahan,Pembangunan Perumahan,"Kampung Bebot, Desa Mokel Morid, Kec. Kota Komba Utara","8P74+MGC, Mokel, Kec. Kota Komba, Kabupaten Manggarai Timur, Nusa Tenggara Tim.","Kabupaten Manggarai Timur, Nusa Tenggara Tim.",NUSA TENGGARA TIMUR,,Indonesia,,,,-86.863.287,1.207.061.071,https://maps.google.com/?cid=0x0:0xb8261039b71dae68,
perumahan,Perhimpunan Pengembang Perumahan,Kampung mbele,"6PR6+27X, Mbengan, Kec. Kota Komba, Kabupaten Manggarai Timur, Nusa Tenggara Tim.","Kabupaten Manggarai Timur, Nusa Tenggara Tim.",NUSA TENGGARA TIMUR,,Indonesia,,,,-87.598.858,1.207.107.435,https://maps.google.com/?cid=0x0:0xf29a0a715d82253e,
perumahan,Sekolah,"waerana flores,kabupaten manggarai timur,kecamatan kota komba","5RF4+32X, Watu Nggene, Kec. Kota Komba, Kabupaten Manggarai Timur, Nusa Tenggara Tim.","Kabupaten Manggarai Timur, Nusa Tenggara Tim.",NUSA TENGGARA TIMUR,,Indonesia,,,,-88.272.689,1.208.051.192,https://maps.google.com/?cid=0x0:0x9bc635db7a714c3d,
perumahan,perumahan,"Rateberi, DS. Bamo, Kec. Kota Komba, Kab. Manggarai Timur, Flores, Nusa Tenggara Timur.","5MXM+PPJ, Rateberi, Bamo, Kota Komba, Flores, Kabupaten Manggarai Timur, Nusa Tenggara Tim.","Kabupaten Manggarai Timur, Nusa Tenggara Tim.",NUSA TENGGARA TIMUR,,Indonesia,,,,-88.006.605,1.206.842.639,https://maps.google.com/?cid=0x0:0x16adec63b29475c2,
perumahan,Pembangunan Perumahan,Mukun paleng,"5RF4+32X, Watu Nggene, Kec. Kota Komba, Kabupaten Manggarai Timur, Nusa Tenggara Tim.","Kabupaten Manggarai Timur, Nusa Tenggara Tim.",NUSA TENGGARA TIMUR,,Indonesia,,,,-88.272.689,1.208.051.193,https://maps.google.com/?cid=0x0:0x6d5de1001559ccb9,
perumahan,perumahan,Nusa Tenggara Tim.,,Nusa Tenggara Tim.,NUSA TENGGARA TIMUR,,Indonesia,,,,-86.573.819,1.210.793.705,https://maps.google.com/?cid=0x0:0x1030bfbcaf71ae0,
perumahan,perumahan,Kec. Rana Mese,"Kabupaten Manggarai Timur, Nusa Tenggara Tim.","Kabupaten Manggarai Timur, Nusa Tenggara Tim.",NUSA TENGGARA TIMUR,,Indonesia,,,,-8.368.917,1.203.459.156,https://maps.google.com/?cid=0x0:0x866acef55b6f1bf6,
perumahan,perumahan,Rana Mese,"Kec. Sambi Rampas, Kabupaten Manggarai Timur, Nusa Tenggara Tim.","Kabupaten Manggarai Timur, Nusa Tenggara Tim.",NUSA TENGGARA TIMUR,,Indonesia,,,,-8.549.132,1.207.177.509,https://maps.google.com/?cid=0x0:0x3d93415f73d93570,
perumahan,Komplek perumahan,Perumahan Gratia Land,"6J89+45, Jalan K.H.Dewantara, Kelurahan Satar Peot, Rana Loba, Kabupaten Manggarai Timur, Nusa Tenggara Tim. 86571","Jalan K.H.Dewantara, Kelurahan Satar Peot, Rana Loba, Kabupaten Manggarai Timur",NUSA TENGGARA TIMUR,86571.0,Indonesia,81380097768,,,-87.847.502,1.206.179.344,https://maps.google.com/?cid=0x0:0xd8e6ac54b5053ca6,
perumahan,Tempat acara,Kompleks Benteng,"8H87+9PC, Jl.Desa Rentung-Wakas Dan.Wakas Desa Compang Kempo Kec Borong, Golo Loni, Kec. Rana Mese, Kabupaten Manggarai Timur, Nusa Tenggara Tim. 86571","Jl.Desa Rentung-Wakas Dan.Wakas Desa Compang Kempo Kec Borong, Golo Loni, Kec. Rana Mese, Kabupaten Manggarai Timur",NUSA TENGGARA TIMUR,86571.0,Indonesia,85337028487,,,-86.840.629,1.205.642.621,https://maps.google.com/?cid=0x0:0x377bcd7006665869,
perumahan,Rumah berlibur,Rony Homestay,"Jalan Desa Rentung-Wakas, Rana Mese, Kec. Rana Mese, Kabupaten Manggarai Timur, Nusa Tenggara Tim. 86571","Rana Mese, Kec. Rana Mese, Kabupaten Manggarai Timur",NUSA TENGGARA TIMUR,86571.0,Indonesia,82237614177,,,-86.819.673,1.205.642.835,https://maps.google.com/?cid=0x0:0xca3c3bab4fb16781,
perumahan,Rumah berlibur,Rumah Vinsen Wea,"Kel. Satar Peot, Kembur, RT.08/RW.03, Kec. Borong, Nusa Tenggara Tim. 86571","Kembur, RT.08/RW.03, Kec. Borong",NUSA TENGGARA TIMUR,86571.0,Indonesia,,,,-8.763.908,1.206.217.521,https://maps.google.com/?cid=0x0:0x97e3a499c6fc3ac9,
perumahan,perumahan,Jesen,"GHVF+CW6, Jl. Ruteng - Benteng Jawa, Compang Necak, Kec. Lamba Leda, Kabupaten Manggarai Timur, Nusa Tenggara Tim. 86571","Jl. Ruteng - Benteng Jawa, Compang Necak, Kec. Lamba Leda, Kabupaten Manggarai Timur",NUSA TENGGARA TIMUR,86571.0,Indonesia,,,,-84.561.257,1.205.748.875,https://maps.google.com/?cid=0x0:0xfa8de6dbca5022ae,
perumahan,Pembangunan Perumahan,Rumah Bpk. Erick,"7JRJ+V5, Ngampang Mas, Kec. Borong, Kabupaten Manggarai Timur, Nusa Tenggara Tim. 86571","Ngampang Mas, Kec. Borong, Kabupaten Manggarai Timur",NUSA TENGGARA TIMUR,86571.0,Indonesia,,,,-8.707.778,1.206.304.987,https://maps.google.com/?cid=0x0:0x1957227182899873,
perumahan,Komplek perumahan,Abim Home,"GV4M+RXR, Labuan Bajo, Kec. Komodo, Kabupaten Manggarai Barat, Nusa Tenggara Tim. 86571","Labuan Bajo, Kec. Komodo, Kabupaten Manggarai Barat",NUSA TENGGARA TIMUR,86571.0,Indonesia,,,,-84.918.846,1.198.850.043,https://maps.google.com/?cid=0x0:0x90c75ac6cc183dd9,
perumahan,Perumahan,Perumahan Palma Hill Alak,"RG6X+V3C, Alak, Kec. Alak, Kota Kupang, Nusa Tenggara Tim.","Kota Kupang, Nusa Tenggara Tim.",NUSA TENGGARA TIMUR,,Indonesia,,,,-101.878.174,1.235.476.122,https://maps.google.com/?cid=0x0:0xc45243a0e13dcd3d,
perumahan,Rumah wisata,Charlie's Homestay,"Maras Desa Golo Loni Kecamatan Rana Mese Kabupaten Manggarai Timur Flores, Kec. Borong, Nusa Tenggara Tim. 86571",Kec. Borong,NUSA TENGGARA TIMUR,86571.0,Indonesia,81238759241,,,-86.675.428,1.205.635.052,https://maps.google.com/?cid=0x0:0x10cf21bcc87d87df,
perumahan,perumahan,Banana Home Stay,"Jl. Yos Sudarso, Mbaumuku, Kec. Langke Rembong, Kabupaten Manggarai, Nusa Tenggara Tim. 86571","Mbaumuku, Kec. Langke Rembong, Kabupaten Manggarai",NUSA TENGGARA TIMUR,86571.0,Indonesia,85215000808,,,-86.066.808,1.204.668.025,https://maps.google.com/?cid=0x0:0x4eb8d5393eb1963,
perumahan,perumahan,D-Rima Homestay,"Mbaumuku, Kec. Langke Rembong, Kabupaten Manggarai, Nusa Tenggara Tim.","Kabupaten Manggarai, Nusa Tenggara Tim.",NUSA TENGGARA TIMUR,,Indonesia,81379581188,,,-86.053.096,1.204.680.183,https://maps.google.com/?cid=0x0:0xb2e300d5998124c2,
perumahan,perumahan,Chacha Homestay  Dormitory,"Jl. Diponegoro No.12, Watu, Flores, Kabupaten Manggarai, Nusa Tenggara Tim. 86511","Watu, Flores, Kabupaten Manggarai",NUSA TENGGARA TIMUR,86511.0,Indonesia,81236989009,,,-86.153.409,1.204.653.172,https://maps.google.com/?cid=0x0:0x1f5ccf0f92f9bdb9,
perumahan,perumahan,Tange Guest House,"Jl. Satar Tacik, Tenda, Kec. Langke Rembong, Kabupaten Manggarai, Nusa Tenggara Tim. 86518","Tenda, Kec. Langke Rembong, Kabupaten Manggarai",NUSA TENGGARA TIMUR,86518.0,Indonesia,82236765950,,,-86.040.129,1.204.766.114,https://maps.google.com/?cid=0x0:0xb64495ec7860e6d8,
perumahan,perumahan,Mama's Homestay Ruteng - We are open for bookings!,"Nekang, Nusa Tenggara Tim. 86511","Kabupaten Manggarai, Nusa Tenggara Tim.",NUSA TENGGARA TIMUR,,Indonesia,82341070971,,,-86.186.809,1.204.689.891,https://maps.google.com/?cid=0x0:0x3e8b0043213bd2d2,
perumahan,perumahan,Ruteng Hostel,"9FP3+5MM, Jl. Anggrek Utara, Pau, Kec. Langke Rembong, Kabupaten Manggarai, Nusa Tenggara Tim.","Kabupaten Manggarai, Nusa Tenggara Tim.",NUSA TENGGARA TIMUR,,Indonesia,82181696949,,,-86.147.117,1.204.540.858,https://maps.google.com/?cid=0x0:0x5a799d202e1a1a7f,
perumahan,perumahan,Hotel FX 72 Ruteng,"Wali, Kec. Langke Rembong, Kabupaten Manggarai, Nusa Tenggara Tim.","Kabupaten Manggarai, Nusa Tenggara Tim.",NUSA TENGGARA TIMUR,,Indonesia,81225173148,,,-85.910.064,1.204.614.834,https://maps.google.com/?cid=0x0:0x27aa5e70ae5495a7,
perumahan,perumahan,DJ Family Guest Home,"Jl. Bhayangkara No.24, Pitak, Kec. Langke Rembong, Kabupaten Manggarai, Nusa Tenggara Tim.","Kabupaten Manggarai, Nusa Tenggara Tim.",NUSA TENGGARA TIMUR,,Indonesia,,,,-86.090.834,1.204.632.889,https://maps.google.com/?cid=0x0:0x18f5bf8a62558566,
perumahan,perumahan,Homestay HQA INN 101,"Jl. Satar Tacik, Tenda, Kec. Langke Rembong, Kabupaten Manggarai, Nusa Tenggara Tim. 86518","Tenda, Kec. Langke Rembong, Kabupaten Manggarai",NUSA TENGGARA TIMUR,86518.0,Indonesia,85338384548,,,-86.064.832,120.476.453,https://maps.google.com/?cid=0x0:0x36f1520e7df23806,
perumahan,perumahan,Cenggo Homestay,"Watu, Kec. Langke Rembong, Kabupaten Manggarai, Nusa Tenggara Tim.","Kabupaten Manggarai, Nusa Tenggara Tim.",NUSA TENGGARA TIMUR,,Indonesia,81236026473,,,-86.206.679,120.467.188,https://maps.google.com/?cid=0x0:0xf13c07915465d229,
perumahan,Taman,Kampung Ruteng Pu'u,"9CPW+FP, Golo Dukal, Kec. Langke Rembong, Kabupaten Manggarai, Nusa Tenggara Tim.","Kabupaten Manggarai, Nusa Tenggara Tim.",NUSA TENGGARA TIMUR,,Indonesia,82235132065,,,-86.118.462,1.204.459.329,https://maps.google.com/?cid=0x0:0x77e6ee736159c680,
perumahan,perumahan,Rana Loba,"Kec. Borong, Kabupaten Manggarai Timur, Nusa Tenggara Tim.","Kabupaten Manggarai Timur, Nusa Tenggara Tim.",NUSA TENGGARA TIMUR,,Indonesia,,,,-87.522.463,1.206.142.365,https://maps.google.com/?cid=0x0:0xc87fb9428dd80837,
perumahan,Komplek perumahan,Perumahan,"BTN Kolhua Blok G No 88, RT., 036/RW.,02, Kupang City, East Nusa Tenggara","Kota Kupang, Nusa Tenggara Tim.",NUSA TENGGARA TIMUR,,Indonesia,,,,-102.044.465,1.236.298.256,https://maps.google.com/?cid=0x0:0xf06c6cb1ef7b4796,
perumahan,Komplek perumahan,Homey,"Jl. Ki Hajar Dewantoro Jl. Ki Hajar Dewantara, Rana Loba, Kec. Borong, Kabupaten Manggarai Timur, Nusa Tenggara Tim. 86571","Rana Loba, Kec. Borong, Kabupaten Manggarai Timur",NUSA TENGGARA TIMUR,86571.0,Indonesia,82265082521,,,-88.136.433,1.206.089.624,https://maps.google.com/?cid=0x0:0x71926674e5a08b96,
perumahan,Pembangunan Perumahan,Rumah BPK willy daroe,"Lamba, Jalan Tilir Borong No.110, Poco Rii, Kec. Borong, Kabupaten Manggarai Timur, Nusa Tenggara Tim. 86571","Jalan Tilir Borong No.110, Poco Rii, Kec. Borong, Kabupaten Manggarai Timur",NUSA TENGGARA TIMUR,86571.0,Indonesia,,,,-86.530.204,1.206.483.239,https://maps.google.com/?cid=0x0:0xbc0adb6524391652,
perumahan,Pembangunan Perumahan,Vinsen Wea,"RT.08/RW.03, Lembur, Kec. Borong, Kabupaten Manggarai Timur, Nusa Tenggara Tim. 86571","Lembur, Kec. Borong, Kabupaten Manggarai Timur",NUSA TENGGARA TIMUR,86571.0,Indonesia,82145567937,,,-87.762.684,120.671.755,https://maps.google.com/?cid=0x0:0x3a445e2287e9e8c3,
perumahan,perumahan,AlvianoTech,"Kipi, RT.007/RW.003, Golo Loni, Kec. Rana Mese, Kabupaten Manggarai Timur, Nusa Tenggara Tim. 86571","RT.007/RW.003, Golo Loni, Kec. Rana Mese, Kabupaten Manggarai Timur",NUSA TENGGARA TIMUR,86571.0,Indonesia,81339873348,,,-86.975.401,1.205.575.442,https://maps.google.com/?cid=0x0:0xcd36df3f60d2bfe7,
perumahan,Komplek perumahan,Rumah iki dan iam,"CHCJ+R92, Pocolia, Kec. Poco Ranaka, Kabupaten Manggarai Timur, Nusa Tenggara Tim.","Kabupaten Manggarai Timur, Nusa Tenggara Tim.",NUSA TENGGARA TIMUR,,Indonesia,,,,-85.775.528,1.205.812.027,https://maps.google.com/?cid=0x0:0xd5300fca2048b823,
perumahan,perumahan,Rumah Kori Nahar,"FJ93+MJ6, Watu Arus, Kec. Poco Ranaka Timur, Kabupaten Manggarai Timur, Nusa Tenggara Tim.","Kabupaten Manggarai Timur, Nusa Tenggara Tim.",NUSA TENGGARA TIMUR,,Indonesia,,,,-85.306.373,1.206.047.703,https://maps.google.com/?cid=0x0:0x336eff2bcdc3d6d6,
perumahan,perumahan,Kec. Poco Ranaka Timur,"Kabupaten Manggarai Timur, Nusa Tenggara Tim.","Kabupaten Manggarai Timur, Nusa Tenggara Tim.",NUSA TENGGARA TIMUR,,Indonesia,,,,-85.543.382,120.618.277,https://maps.google.com/?cid=0x0:0x1564295fdcda3229,
perumahan,Komplek perumahan,Rumah Royn,"FJ2F+MX5, Rengkam, Kec. Poco Ranaka Timur, Kabupaten Manggarai Timur, Nusa Tenggara Tim.","Kabupaten Manggarai Timur, Nusa Tenggara Tim.",NUSA TENGGARA TIMUR,,Indonesia,,,,-85.489.612,1.206.263.945,https://maps.google.com/?cid=0x0:0x9e239c876adc7d1c,
perumahan,Komplek perumahan,Bea Doko Lamba Leda Timur,"CJVH+J4, Rengkam, Kec. Poco Ranaka Timur, Kabupaten Manggarai Timur, Nusa Tenggara Tim.","Kabupaten Manggarai Timur, Nusa Tenggara Tim.",NUSA TENGGARA TIMUR,,Indonesia,,,,-8.555.999,120.627.846,https://maps.google.com/?cid=0x0:0x5952798636f78373,
perumahan,perumahan,Rumah Khiran,"CJX8+PRX, Golo Lero, Kec. Poco Ranaka Timur, Kabupaten Manggarai Timur, Nusa Tenggara Tim.","Kabupaten Manggarai Timur, Nusa Tenggara Tim.",NUSA TENGGARA TIMUR,,Indonesia,,,,-85.506.422,120.617.113,https://maps.google.com/?cid=0x0:0x36ffe6b1fc93de5b,
perumahan,Pembangunan Perumahan,Kampung Ndilek,"CHMX+H2, Arus, Kec. Poco Ranaka Timur, Kabupaten Manggarai Timur, Nusa Tenggara Tim.","Kabupaten Manggarai Timur, Nusa Tenggara Tim.",NUSA TENGGARA TIMUR,,Indonesia,,,,-85.660.653,1.205.974.435,https://maps.google.com/?cid=0x0:0xf4dddeb0c205f0c4,
perumahan,Rumah Kayu,Rumah Akri.Sonakri,"CH9H+769, Jl. Ruteng - Benteng Jawa, Pocolia, Kec. Poco Ranaka, Kabupaten Manggarai Timur, Nusa Tenggara Tim.","Kabupaten Manggarai Timur, Nusa Tenggara Tim.",NUSA TENGGARA TIMUR,,Indonesia,,,,-8.581.373,120.578.368,https://maps.google.com/?cid=0x0:0xdd61d60bcb78ae33,
perumahan,Komplek perumahan,Rumah Ipangk,"CJCV+C92, Ulu Wae, Kec. Poco Ranaka, Kabupaten Manggarai Timur, Nusa Tenggara Tim.","Kabupaten Manggarai Timur, Nusa Tenggara Tim.",NUSA TENGGARA TIMUR,,Indonesia,,,,-85.789.787,1.206.433.954,https://maps.google.com/?cid=0x0:0x5d4f36ab723817ce,
perumahan,Rumah wisata,Rumah pa Joi,"FHGH+CWW, Jl. Ruteng - Benteng Jawa, Pocong, Kec. Poco Ranaka, Kabupaten Manggarai Timur, Nusa Tenggara Tim.","Kabupaten Manggarai Timur, Nusa Tenggara Tim.",NUSA TENGGARA TIMUR,,Indonesia,,,,-85.242.795,1.205.790.607,https://maps.google.com/?cid=0x0:0x712522214885b9e4,
perumahan,Perumahan,Hendra Nganta,"CH9H+769, Jl. Ruteng - Benteng Jawa, Pocolia, Kec. Poco Ranaka, Kabupaten Manggarai Timur, Nusa Tenggara Tim.","Kabupaten Manggarai Timur, Nusa Tenggara Tim.",NUSA TENGGARA TIMUR,,Indonesia,,,,-85.812.106,1.205.778.105,https://maps.google.com/?cid=0x0:0x2afaabcea01f976b,
perumahan,Pembangunan Perumahan,Tangkul desa rende nao Manggarai timur,"CJ7F+959, Rende Nao, Kec. Poco Ranaka Timur, Kabupaten Manggarai Timur, Nusa Tenggara Tim.","Kabupaten Manggarai Timur, Nusa Tenggara Tim.",NUSA TENGGARA TIMUR,,Indonesia,,,,-85.865.837,1.206.229.695,https://maps.google.com/?cid=0x0:0x6307aa11160fad91,
perumahan,perumahan,Dy,"CHCR+5FH, Pocolia, Kec. Poco Ranaka, Kabupaten Manggarai Timur, Nusa Tenggara Tim.","Kabupaten Manggarai Timur, Nusa Tenggara Tim.",NUSA TENGGARA TIMUR,,Indonesia,,,,-85.795.506,1.205.912.217,https://maps.google.com/?cid=0x0:0xfa175721d58e82ec,
perumahan,Pembangunan Perumahan,Roni Ndau,"CJ3H+R8H, Rende Nao, Kec. Poco Ranaka, Kabupaten Manggarai Timur, Nusa Tenggara Tim.","Kabupaten Manggarai Timur, Nusa Tenggara Tim.",NUSA TENGGARA TIMUR,,Indonesia,,,,-85.956.825,1.206.282.359,https://maps.google.com/?cid=0x0:0x2f84f20ceb5666ab,
perumahan,Perhimpunan Pengembang Perumahan,Kampung wuas,"CJGG+7JM, Rende Nao, Kec. Poco Ranaka, Kabupaten Manggarai Timur, Nusa Tenggara Tim.","Kabupaten Manggarai Timur, Nusa Tenggara Tim.",NUSA TENGGARA TIMUR,,Indonesia,,,,-85.736.059,120.626.646,https://maps.google.com/?cid=0x0:0x5d49f2ce925fda6c,
perumahan,Komplek perumahan,beo pos,"CJRR+25M, Wangkar Weli, Kec. Poco Ranaka, Kabupaten Manggarai Timur, Nusa Tenggara Tim.","Kabupaten Manggarai Timur, Nusa Tenggara Tim.",NUSA TENGGARA TIMUR,,Indonesia,,,,-85.599.054,1.206.404.303,https://maps.google.com/?cid=0x0:0x376eca2bab777df4,
perumahan,Komplek perumahan,Rumah. Pak Osccar Hamat.,"FJG3+8G3, Cepung Arus, Bangka, Arus, Kec. Poco Ranaka Timur, Kabupaten Manggarai Timur, Nusa Tenggara Tim.","Kabupaten Manggarai Timur, Nusa Tenggara Tim.",NUSA TENGGARA TIMUR,,Indonesia,,,,-85.472.986,1.205.998.528,https://maps.google.com/?cid=0x0:0x9a7d4401d6f94c49,
perumahan,perumahan,Rumah Bidan Ocik,"CHX9+278, Pocong, Kec. Poco Ranaka, Kabupaten Manggarai Timur, Nusa Tenggara Tim.","Kabupaten Manggarai Timur, Nusa Tenggara Tim.",NUSA TENGGARA TIMUR,,Indonesia,,,,-85.524.716,1.205.682.028,https://maps.google.com/?cid=0x0:0xa22ea543bce4f422,
perumahan,Komplek perumahan,Rumah Bapa Ecak,"CJP6+55H, Tango Molas, Kec. Poco Ranaka Timur, Kabupaten Manggarai Timur, Nusa Tenggara Tim.","Kabupaten Manggarai Timur, Nusa Tenggara Tim.",NUSA TENGGARA TIMUR,,Indonesia,,,,-85.645.647,120.610.473,https://maps.google.com/?cid=0x0:0x628392acb94b3015,
perumahan,Pembangunan Perumahan,Nadur House,"CJXJ+X2H, Rengkam, Kec. Poco Ranaka Timur, Kabupaten Manggarai Timur, Nusa Tenggara Tim.","Kabupaten Manggarai Timur, Nusa Tenggara Tim.",NUSA TENGGARA TIMUR,,Indonesia,,,,-8.550.069,1.206.301.188,https://maps.google.com/?cid=0x0:0x589691e7b0369e57,
perumahan,Perhimpunan Pengembang Perumahan,Rumah Misel,"CMG3+R8P, RW.Rendong, Ngkiong Dora, Kec. Poco Ranaka Timur, Kabupaten Manggarai Timur, Nusa Tenggara Tim.","Kabupaten Manggarai Timur, Nusa Tenggara Tim.",NUSA TENGGARA TIMUR,,Indonesia,,,,-857.216,1.206.544.713,https://maps.google.com/?cid=0x0:0x6ba081a33200b051,
perumahan,Komplek perumahan,Kampung Ndeng,"FJ93+MJ6, Watu Arus, Kec. Poco Ranaka Timur, Kabupaten Manggarai Timur, Nusa Tenggara Tim.","Kabupaten Manggarai Timur, Nusa Tenggara Tim.",NUSA TENGGARA TIMUR,,Indonesia,,,,-85.308.269,1.206.040.041,https://maps.google.com/?cid=0x0:0x614358a637a7eb12,
perumahan,Perhimpunan Pengembang Perumahan,Rumah Gendang Pinggang,"FH2X+CH6, Arus, Kec. Poco Ranaka Timur, Kabupaten Manggarai Timur, Nusa Tenggara Tim.","Kabupaten Manggarai Timur, Nusa Tenggara Tim.",NUSA TENGGARA TIMUR,,Indonesia,,,,-85.489.624,1.205.988.805,https://maps.google.com/?cid=0x0:0x59ef4d9af592ff99,
perumahan,Komplek perumahan,Rumah Pak Wily Marto,"CJP5+3VG, Tango Molas, Kec. Poco Ranaka, Kabupaten Manggarai Timur, Nusa Tenggara Tim.","Kabupaten Manggarai Timur, Nusa Tenggara Tim.",NUSA TENGGARA TIMUR,,Indonesia,,,,-85.648.013,1.206.096.932,https://maps.google.com/?cid=0x0:0x9f97258e7ccc0cef,
perumahan,Komplek perumahan,Pandang Arus,"FJ44+36Q, Pandang, Arus, Kec. Poco Ranaka Timur, Kabupaten Manggarai Timur, Nusa Tenggara Tim.","Kabupaten Manggarai Timur, Nusa Tenggara Tim.",NUSA TENGGARA TIMUR,,Indonesia,,,,-85.463.203,1.206.023.652,https://maps.google.com/?cid=0x0:0x36d4fe803a854f2d,
perumahan,perumahan,Kec. Elar Selatan,"Kabupaten Manggarai Timur, Nusa Tenggara Tim.","Kabupaten Manggarai Timur, Nusa Tenggara Tim.",NUSA TENGGARA TIMUR,,Indonesia,,,,-86.439.057,1.207.613.321,https://maps.google.com/?cid=0x0:0x29c346791b550200,
perumahan,Pembangunan Perumahan,Mulu desa gising kecamatan elar selatan,"9RR6+58, Gising, Kec. Elar Selatan, Kabupaten Manggarai Timur, Nusa Tenggara Tim.","Kabupaten Manggarai Timur, Nusa Tenggara Tim.",NUSA TENGGARA TIMUR,,Indonesia,,,,-8.609.556,1.208.107.928,https://maps.google.com/?cid=0x0:0xc3c34e8f75978ab1,
perumahan,Minimarket,Kios Mikhayla,"FQPR+8HJ, Golomongkok, Indonesia, Tiwu Kondo, Kec. Elar, Kabupaten Manggarai Timur, Nusa Tenggara Tim.","Kabupaten Manggarai Timur, Nusa Tenggara Tim.",NUSA TENGGARA TIMUR,,Indonesia,81280671148,,,-85.141.667,1.207.913.889,https://maps.google.com/?cid=0x0:0x3c4d0fba7fb9b114,
perumahan,Komplek perumahan,Rumah BapakYolan,"9Q34+RCF, Sipi, Kec. Elar Selatan, Kabupaten Manggarai Timur, Nusa Tenggara Tim.","Kabupaten Manggarai Timur, Nusa Tenggara Tim.",NUSA TENGGARA TIMUR,,Indonesia,,,,-86.454.317,1.207.560.539,https://maps.google.com/?cid=0x0:0xd1e339a772b41b30,
perumahan,Komplek perumahan,Mbaru Mere Riwulodong,"CQGX+P6, Gising, Kec. Elar Selatan, Kabupaten Manggarai Timur, Nusa Tenggara Tim.","Kabupaten Manggarai Timur, Nusa Tenggara Tim.",NUSA TENGGARA TIMUR,,Indonesia,,,,-8.573.169,1.207.980.362,https://maps.google.com/?cid=0x0:0x90d0021c797f2748,
perumahan,Komplek perumahan,Mamba,"9Q46+CG7, Sipi, Kec. Elar Selatan, Kabupaten Manggarai Timur, Nusa Tenggara Tim.","Kabupaten Manggarai Timur, Nusa Tenggara Tim.",NUSA TENGGARA TIMUR,,Indonesia,,,,-86.439.525,1.207.612.845,https://maps.google.com/?cid=0x0:0xddd22af931c00a40,
perumahan,Komplek perumahan,Rumah Kristus raja sewe,"CR42+VX, Gising, Kec. Elar Selatan, Kabupaten Manggarai Timur, Nusa Tenggara Tim.","Kabupaten Manggarai Timur, Nusa Tenggara Tim.",NUSA TENGGARA TIMUR,,Indonesia,,,,-85.928.477,120.802.454,https://maps.google.com/?cid=0x0:0xae39a20f7e6d3985,
perumahan,Perhimpunan Pengembang Perumahan,"Ndangi, Elar Selatan, Manggarai Timur","8VX4+Q2V, Nanga Meje, Kec. Elar Selatan, Kabupaten Manggarai Timur, Nusa Tenggara Tim.","Kabupaten Manggarai Timur, Nusa Tenggara Tim.",NUSA TENGGARA TIMUR,,Indonesia,,,,-86.505.118,1.208.549.914,https://maps.google.com/?cid=0x0:0xfa28101b3973c33,
perumahan,Komplek perumahan,Joreng,"9QH3+4G, Golo Wuas, Kec. Elar Selatan, Kabupaten Manggarai Timur, Nusa Tenggara Tim.","Kabupaten Manggarai Timur, Nusa Tenggara Tim.",NUSA TENGGARA TIMUR,,Indonesia,,,,-86.221.036,1.207.537.003,https://maps.google.com/?cid=0x0:0xf016167685a55e22,
perumahan,Pembangunan Perumahan,Pandang,"9R8J+C8, Nanga Meje, Kec. Elar Selatan, Kabupaten Manggarai Timur, Nusa Tenggara Tim.","Kabupaten Manggarai Timur, Nusa Tenggara Tim.",NUSA TENGGARA TIMUR,,Indonesia,,,,-86.338.752,1.208.308.004,https://maps.google.com/?cid=0x0:0x4f8283a645be281d,
perumahan,Komplek perumahan,Teong,"9RR3+VJQ, Gising, Kec. Elar Selatan, Kabupaten Manggarai Timur, Nusa Tenggara Tim.","Kabupaten Manggarai Timur, Nusa Tenggara Tim.",NUSA TENGGARA TIMUR,,Indonesia,,,,-86.077.994,120.804.121,https://maps.google.com/?cid=0x0:0x47e32020258f8da2,
perumahan,Pembangunan Perumahan,Mbaru sia Lelu',"9RR7+P9R, Gising, Kec. Elar Selatan, Kabupaten Manggarai Timur, Nusa Tenggara Tim.","Kabupaten Manggarai Timur, Nusa Tenggara Tim.",NUSA TENGGARA TIMUR,,Indonesia,,,,-86.081.332,1.208.133.825,https://maps.google.com/?cid=0x0:0xd75e2265c87d2434,
perumahan,Komplek perumahan,Bebong Desa Golo Linus Kec Elar Selatan,"CQHX+73F, RW.Bebong Desa, Golo Linus, Kec. Elar Selatan, Kabupaten Manggarai Timur, Nusa Tenggara Tim.","Kabupaten Manggarai Timur, Nusa Tenggara Tim.",NUSA TENGGARA TIMUR,,Indonesia,,,,-85.718.041,1.207.976.854,https://maps.google.com/?cid=0x0:0x44daed7b93ad0378,
perumahan,Perumahan,Rumah Maloko,"CQ5X+9Q, Gising, Kec. Elar Selatan, Kabupaten Manggarai Timur, Nusa Tenggara Tim.","Kabupaten Manggarai Timur, Nusa Tenggara Tim.",NUSA TENGGARA TIMUR,,Indonesia,,,,-85.913.788,1.207.982.317,https://maps.google.com/?cid=0x0:0x231f57ec93f79a4b,
perumahan,Komplek perumahan,Arlis Homestay,"9PPR+27Q, Golo Wuas, Kec. Elar Selatan, Kabupaten Manggarai Timur, Nusa Tenggara Tim.","Kabupaten Manggarai Timur, Nusa Tenggara Tim.",NUSA TENGGARA TIMUR,,Indonesia,,,,-86.149.041,1.207.407.425,https://maps.google.com/?cid=0x0:0x32ba3b1ea73b56ed,
perumahan,Komplek perumahan,Golo Ngambu,"9QXJ+RMR, Teno Mese, Kec. Elar, Kabupaten Manggarai Timur, Nusa Tenggara Tim.","Kabupaten Manggarai Timur, Nusa Tenggara Tim.",NUSA TENGGARA TIMUR,,Indonesia,,,,-86.017.254,1.207.814.677,https://maps.google.com/?cid=0x0:0xd287bcdcb17fbc1,
perumahan,Perumahan,Sesur,"9RC7+CQ5, Langgasai, Kec. Elar Selatan, Kabupaten Manggarai Timur, Nusa Tenggara Tim.","Kabupaten Manggarai Timur, Nusa Tenggara Tim.",NUSA TENGGARA TIMUR,,Indonesia,,,,-86.289.969,1.208.144.909,https://maps.google.com/?cid=0x0:0xd3c83e76fb2b6c04,
perumahan,Komplek perumahan,Ranamama,"Dusun Paan Putan RT 12, Sipi, Kec. Elar, Kabupaten Manggarai Timur, Nusa Tenggara Tim.","Kabupaten Manggarai Timur, Nusa Tenggara Tim.",NUSA TENGGARA TIMUR,,Indonesia,,,,-86.388.046,1.207.612.217,https://maps.google.com/?cid=0x0:0xfd3e979caf95df46,
perumahan,Komplek perumahan,Rumah Arsi,"CQ5X+9Q, Gising, Kec. Elar Selatan, Kabupaten Manggarai Timur, Nusa Tenggara Tim.","Kabupaten Manggarai Timur, Nusa Tenggara Tim.",NUSA TENGGARA TIMUR,,Indonesia,,,,-85.915.625,1.207.994.375,https://maps.google.com/?cid=0x0:0xc1037714dc2a12fa,
perumahan,Komplek perumahan,Pales,"Dusun Pales, RT 10, Sipi, Kec. Elar, Kabupaten Manggarai Timur, Nusa Tenggara Tim.","Kabupaten Manggarai Timur, Nusa Tenggara Tim.",NUSA TENGGARA TIMUR,,Indonesia,,,,-86.453.512,1.207.616.199,https://maps.google.com/?cid=0x0:0xf9c7d9cd7ed0afa4,
perumahan,Perhimpunan Pengembang Perumahan,Kampung Watu Seong,"9RPF+8H, Langgasai, Kec. Elar Selatan, Kabupaten Manggarai Timur, Nusa Tenggara Tim.","Kabupaten Manggarai Timur, Nusa Tenggara Tim.",NUSA TENGGARA TIMUR,,Indonesia,81228610667,,,-86.142.174,1.208.239.417,https://maps.google.com/?cid=0x0:0x2b9fa74816580b3c,
perumahan,Komplek perumahan,Rumah Bpk Fidelis Ling,"Rumah Bpk Fidelis Ling, Gising, Kec. Elar Selatan, Kabupaten Manggarai Timur, Nusa Tenggara Tim.","Kabupaten Manggarai Timur, Nusa Tenggara Tim.",NUSA TENGGARA TIMUR,,Indonesia,,,,-85.893.125,1.208.066.875,https://maps.google.com/?cid=0x0:0x7fc81cca5acbd67,
perumahan,Perhimpunan Pengembang Perumahan,Homestay Ferdy Cheng,"9Q37+MM2, Sipi, Kec. Elar, Kabupaten Manggarai Timur, Nusa Tenggara Tim.","Kabupaten Manggarai Timur, Nusa Tenggara Tim.",NUSA TENGGARA TIMUR,,Indonesia,,,,-86.458.619,120.764.154,https://maps.google.com/?cid=0x0:0x6c62e810f59158e0,
