Category,Real Category,Business Name,Address,City,State,Postal Code,Country,Phone,Email,Website,Latitude,Longitude,Map Link,Details Link
hotel,hotel,Bintauna,"Biontong, Kec. Bolang Itang Tim., Kabupaten Bolaang Mongondow Utara, Sulawesi Utara","Kabupaten Bolaang Mongondow Utara, Sulawesi Utara",SULAWESI UTARA,,Indonesia,,,,0.865688,123.490196,https://maps.google.com/?cid=0x0:0xf16e31ff814e66e4,
hotel,hotel,Lun Hotel Manado,"Jl. Sugiono No.15, Pinaesaan, Kec. Wenang, Kota Manado, Sulawesi Utara 95122","Pinaesaan, Kec. Wenang, Kota Manado",SULAWESI UTARA,95122.0,Indonesia,4318805807.0,,,1.4924525,124.8455141,https://maps.google.com/?cid=0x0:0x2c221bc57867d689,
hotel,hotel,,,,SULAWESI UTARA,,Indonesia,,,,,,https://maps.google.com/?cid=0x0:0x2c221bc57867d689%7C/g/11rf9y66kk%7Cen-ID,
hotel,hotel,New Kendy's Hotel,"Jl. Trans-Sulawesi, Lalow, Kec. Lolak, Kabupaten Bolaang Mongondow, Sulawesi Utara","Kabupaten Bolaang Mongondow, Sulawesi Utara",SULAWESI UTARA,,Indonesia,4342623531.0,,,0.882084,124.0318867,https://maps.google.com/?cid=0x0:0xc533c7e47c683f5,
hotel,hotel,Hotel Mulia Lolak,"Jl. Trans-Sulawesi, Lalow, Kec. Lolak, Kabupaten Bolaang Mongondow, Sulawesi Utara","Kabupaten Bolaang Mongondow, Sulawesi Utara",SULAWESI UTARA,,Indonesia,85298113269.0,,,0.882613,124.0267222,https://maps.google.com/?cid=0x0:0x7cf22d3b0f737f84,
hotel,hotel,Kec. Bintauna,"Kabupaten Bolaang Mongondow Utara, Sulawesi Utara","Kabupaten Bolaang Mongondow Utara, Sulawesi Utara",SULAWESI UTARA,,Indonesia,,,,0.8804511,123.5506194,https://maps.google.com/?cid=0x0:0x8b4cfeaf6f8ff4de,
hotel,hotel,Gorontalo Inn Hotel,"Jl. Tribrata No.107, Ipilo, Kec. Kota Tim., Kota Gorontalo, Gorontalo 96112","Ipilo, Kec. Kota Tim., Kota Gorontalo",SULAWESI UTARA,96112.0,Indonesia,8114338875.0,,,0.5352918,123.063721,https://maps.google.com/?cid=0x0:0x9704b47000fef929,
hotel,Motel,Penginapan Arfika Bolangitang,"Jl. Trans-Sulawesi, Bolangitang, Kec. Bolang Itang Bar., Kabupaten Bolaang Mongondow Utara, Sulawesi Utara 95764","Bolangitang, Kec. Bolang Itang Bar., Kabupaten Bolaang Mongondow Utara",SULAWESI UTARA,95764.0,Indonesia,82293419691.0,,,0.9036524,123.3074594,https://maps.google.com/?cid=0x0:0x468c3285a1ad4eb2,
hotel,Motel,Penginapan Rafika,"W747+C88, Jl. Trans-Sulawesi, Boroko, Kec. Kaidipang, Kabupaten Bolaang Mongondow Utara, Sulawesi Utara","Kabupaten Bolaang Mongondow Utara, Sulawesi Utara",SULAWESI UTARA,,Indonesia,,,,0.9060429,123.2633286,https://maps.google.com/?cid=0x0:0x7e4696a3a269db3b,
hotel,hotel,Kec. Bolang Itang Bar.,"Kabupaten Bolaang Mongondow Utara, Sulawesi Utara","Kabupaten Bolaang Mongondow Utara, Sulawesi Utara",SULAWESI UTARA,,Indonesia,,,,0.9075668,123.3055527,https://maps.google.com/?cid=0x0:0x17cd151ba51a2f1e,
hotel,Hostel,NAULAS RESORT,"V84C+W4, Ollot, Kec. Bolang Itang Bar., Kabupaten Bolaang Mongondow Utara, Sulawesi Utara","Kabupaten Bolaang Mongondow Utara, Sulawesi Utara",SULAWESI UTARA,,Indonesia,,,,0.8586955,123.3215818,https://maps.google.com/?cid=0x0:0xb81bac14d8914c6f,
hotel,Hotel,Hotel De Keakar,"W746+8WH, Kuala, Kec. Kaidipang, Kabupaten Bolaang Mongondow Utara, Sulawesi Utara","Kabupaten Bolaang Mongondow Utara, Sulawesi Utara",SULAWESI UTARA,,Indonesia,,,,0.9058056,123.2623456,https://maps.google.com/?cid=0x0:0x28c86f014bae6c46,
hotel,Hotel,Hotel try putra,"Kuala, Kec. Kaidipang, Kabupaten Bolaang Mongondow Utara, Sulawesi Utara","Kabupaten Bolaang Mongondow Utara, Sulawesi Utara",SULAWESI UTARA,,Indonesia,81244487370.0,,,0.9067287,123.2736166,https://maps.google.com/?cid=0x0:0x3cbed42592f8b751,
hotel,Rumah wisata,Lenda Talibo,"V8F4+VG5, Sonuo, Kec. Bolang Itang Bar., Kabupaten Bolaang Mongondow Utara, Sulawesi Utara","Kabupaten Bolaang Mongondow Utara, Sulawesi Utara",SULAWESI UTARA,,Indonesia,,,,0.8746354,123.306367,https://maps.google.com/?cid=0x0:0x8ce4619f037adf69,
hotel,Rumah wisata,The Hut On A Hill. Stay For An Impact!,"V9XH+HQG, Jl. Trans-Sulawesi, Mokoditek, Kec. Bolang Itang Tim., Kabupaten Bolaang Mongondow Utara, Sulawesi Utara 95764","Jl. Trans-Sulawesi, Mokoditek, Kec. Bolang Itang Tim., Kabupaten Bolaang Mongondow Utara",SULAWESI UTARA,95764.0,Indonesia,4536950111.0,,,0.8989377,123.3794461,https://maps.google.com/?cid=0x0:0xec779dc6eef9aea6,
hotel,Hotel,Penginapan Inspirasi Bohabak,"VFJ6+HC2, Jl. Trans-Sulawesi, Bohabak III, Kec. Bolang Itang Tim., Kabupaten Bolaang Mongondow Utara, Sulawesi Utara","Kabupaten Bolaang Mongondow Utara, Sulawesi Utara",SULAWESI UTARA,,Indonesia,,,,0.8813961,123.4610196,https://maps.google.com/?cid=0x0:0x1c5ebca5f679e36e,
hotel,Kantor Pemerintahan Daerah,Kuala,"W74M+RJ4, Kuala, Kec. Kaidipang, Kabupaten Bolaang Mongondow Utara, Sulawesi Utara","Kabupaten Bolaang Mongondow Utara, Sulawesi Utara",SULAWESI UTARA,,Indonesia,,,,0.9070152,123.2840638,https://maps.google.com/?cid=0x0:0xefe721d9ef4cc661,
hotel,Hotel,Kost Ainun 4,"W75C+F66, Boroko Tim., Kec. Kaidipang, Kabupaten Bolaang Mongondow Utara, Sulawesi Utara","Kabupaten Bolaang Mongondow Utara, Sulawesi Utara",SULAWESI UTARA,,Indonesia,,,,0.9086678,123.2705259,https://maps.google.com/?cid=0x0:0xea44043c18f30671,
hotel,Rumah wisata,Kost IkaL,"W72W+V93, Jln jalur dua rumah sakit, Talaga Tomoagu, Kec. Bolang Itang Bar., Kabupaten Bolaang Mongondow Utara, Sulawesi Utara","Kabupaten Bolaang Mongondow Utara, Sulawesi Utara",SULAWESI UTARA,,Indonesia,,,,0.9021009,123.2960975,https://maps.google.com/?cid=0x0:0xda40ae501ab118fa,
hotel,Hotel,Hotel Boroko,"W744+8MW, Kuala, Kec. Kaidipang, Kabupaten Bolaang Mongondow Utara, Sulawesi Utara","Kabupaten Bolaang Mongondow Utara, Sulawesi Utara",SULAWESI UTARA,,Indonesia,,,,0.905875,123.2567089,https://maps.google.com/?cid=0x0:0x1a80429172c468bf,
hotel,Rumah wisata,Pantai Nunuka,"W93M+XXP, Nunuka, Kec. Bolang Itang Tim., Kabupaten Bolaang Mongondow Utara, Sulawesi Utara","Kabupaten Bolaang Mongondow Utara, Sulawesi Utara",SULAWESI UTARA,,Indonesia,,,,0.9049682,123.3849577,https://maps.google.com/?cid=0x0:0x3262c7f913f2a6ab,
hotel,Hotel,Ainun Kost 3.boroko Timur. Sulawesi Utara,"W75C+PJF, Boroko Tim., Kec. Kaidipang, Kabupaten Bolaang Mongondow Utara, Sulawesi Utara","Kabupaten Bolaang Mongondow Utara, Sulawesi Utara",SULAWESI UTARA,,Indonesia,,,,0.909309,123.2715576,https://maps.google.com/?cid=0x0:0x4080b6581d87401d,
hotel,Hotel,Home Reva,"V9MH+F43, Mokoditek I, Kec. Bolang Itang Tim., Kabupaten Bolaang Mongondow Utara, Sulawesi Utara","Kabupaten Bolaang Mongondow Utara, Sulawesi Utara",SULAWESI UTARA,,Indonesia,,,,0.8841333,123.3775082,https://maps.google.com/?cid=0x0:0xfaa2bb9d7f00e61a,
hotel,hotel,Kec. Bolang Itang Tim.,"Kabupaten Bolaang Mongondow Utara, Sulawesi Utara","Kabupaten Bolaang Mongondow Utara, Sulawesi Utara",SULAWESI UTARA,,Indonesia,,,,0.8798076,123.4530257,https://maps.google.com/?cid=0x0:0x73767b2b7d690727,
hotel,Hotel,Penginapan Inspirasi Bohabak,"VFJ6+HC2, Jl. Trans-Sulawesi, Bohabak III, Kec. Bolang Itang Tim., Kabupaten Bolaang Mongondow Utara, Sulawesi Utara","Kabupaten Bolaang Mongondow Utara, Sulawesi Utara",SULAWESI UTARA,,Indonesia,,,,0.8813961,123.4610196,https://maps.google.com/?cid=0x0:0x1c5ebca5f679e36e,
hotel,Motel,Penginapan Arfika Bolangitang,"Jl. Trans-Sulawesi, Bolangitang, Kec. Bolang Itang Bar., Kabupaten Bolaang Mongondow Utara, Sulawesi Utara 95764","Bolangitang, Kec. Bolang Itang Bar., Kabupaten Bolaang Mongondow Utara",SULAWESI UTARA,95764.0,Indonesia,82293419691.0,,,0.9036524,123.3074594,https://maps.google.com/?cid=0x0:0x468c3285a1ad4eb2,
hotel,hotel,Hotel Mulia Lolak,"Jl. Trans-Sulawesi, Lalow, Kec. Lolak, Kabupaten Bolaang Mongondow, Sulawesi Utara","Kabupaten Bolaang Mongondow, Sulawesi Utara",SULAWESI UTARA,,Indonesia,85298113269.0,,,0.882613,124.0267222,https://maps.google.com/?cid=0x0:0x7cf22d3b0f737f84,
hotel,hotel,New Kendy's Hotel,"Jl. Trans-Sulawesi, Lalow, Kec. Lolak, Kabupaten Bolaang Mongondow, Sulawesi Utara","Kabupaten Bolaang Mongondow, Sulawesi Utara",SULAWESI UTARA,,Indonesia,4342623531.0,,,0.882084,124.0318867,https://maps.google.com/?cid=0x0:0xc533c7e47c683f5,
hotel,Rumah wisata,Pantai Nunuka,"W93M+XXP, Nunuka, Kec. Bolang Itang Tim., Kabupaten Bolaang Mongondow Utara, Sulawesi Utara","Kabupaten Bolaang Mongondow Utara, Sulawesi Utara",SULAWESI UTARA,,Indonesia,,,,0.9049682,123.3849577,https://maps.google.com/?cid=0x0:0x3262c7f913f2a6ab,
hotel,Tujuan Wisata,Pantai Tanjung Labuo,"VFW5+C3M, Unnamed Road, Bohabak II, Kec. Bolang Itang Tim., Kabupaten Bolaang Mongondow Utara, Sulawesi Utara","Kabupaten Bolaang Mongondow Utara, Sulawesi Utara",SULAWESI UTARA,,Indonesia,,,,0.8960892,123.4576644,https://maps.google.com/?cid=0x0:0x6f19a7391ca3bc2d,
hotel,Pondok,KOS PUTRA,"VFQ4+FJM, Bohabak II, Kec. Bolang Itang Tim., Kabupaten Bolaang Mongondow Utara, Sulawesi Utara","Kabupaten Bolaang Mongondow Utara, Sulawesi Utara",SULAWESI UTARA,,Indonesia,,,,0.8887217,123.4565358,https://maps.google.com/?cid=0x0:0x53af92591fae30ff,
hotel,Hotel,Home Reva,"V9MH+F43, Mokoditek I, Kec. Bolang Itang Tim., Kabupaten Bolaang Mongondow Utara, Sulawesi Utara","Kabupaten Bolaang Mongondow Utara, Sulawesi Utara",SULAWESI UTARA,,Indonesia,,,,0.8841333,123.3775082,https://maps.google.com/?cid=0x0:0xfaa2bb9d7f00e61a,
hotel,Rumah wisata,Andre house,"VFH2+HXW, Jl. Asoka, Bohabak IV, Kec. Bolang Itang Tim., Kabupaten Bolaang Mongondow Utara, Sulawesi Utara","Kabupaten Bolaang Mongondow Utara, Sulawesi Utara",SULAWESI UTARA,,Indonesia,,,,0.8789888,123.4524465,https://maps.google.com/?cid=0x0:0xbbbf1313ca324ebc,
hotel,hotel,Kec. Kaidipang,"Kabupaten Bolaang Mongondow Utara, Sulawesi Utara","Kabupaten Bolaang Mongondow Utara, Sulawesi Utara",SULAWESI UTARA,,Indonesia,,,,0.9061974,123.2652382,https://maps.google.com/?cid=0x0:0x2e226efafb429867,
hotel,hotel,Kinaari Resort,"PXXQ+QWF, Tarabitan, Kec. Likupang Bar., Kabupaten Minahasa Utara, Sulawesi Utara","Kabupaten Minahasa Utara, Sulawesi Utara",SULAWESI UTARA,,Indonesia,85340238807.0,,,1.7494444,124.9898,https://maps.google.com/?cid=0x0:0x78df03636e727e38,
hotel,hotel,Hotel Totabuan Citawaya Kotamobagu,"Jl. Lintas Sinindian Sinindian Kotamobagu Timur, Mogolaing, Kec. Kotamobagu Bar., Kota Kotamobagu, Sulawesi Utara 95716","Mogolaing, Kec. Kotamobagu Bar., Kota Kotamobagu",SULAWESI UTARA,95716.0,Indonesia,43424100.0,,,0.7287365,124.3065549,https://maps.google.com/?cid=0x0:0xcb6aedbd82abd616,
hotel,hotel,Penginapan Malinda,"Jl. Garuda, Mahakeret Bar., Kec. Wenang, Kota Manado, Sulawesi Utara","Kota Manado, Sulawesi Utara",SULAWESI UTARA,,Indonesia,81245478670.0,,,1.4853328,124.8397437,https://maps.google.com/?cid=0x0:0x2f95d656f0266fbc,
hotel,Hotel,Hotel De Keakar,"W746+8WH, Kuala, Kec. Kaidipang, Kabupaten Bolaang Mongondow Utara, Sulawesi Utara","Kabupaten Bolaang Mongondow Utara, Sulawesi Utara",SULAWESI UTARA,,Indonesia,,,,0.9058056,123.2623456,https://maps.google.com/?cid=0x0:0x28c86f014bae6c46,
hotel,Kantor Pemerintahan Daerah,Kuala,"W74M+RJ4, Kuala, Kec. Kaidipang, Kabupaten Bolaang Mongondow Utara, Sulawesi Utara","Kabupaten Bolaang Mongondow Utara, Sulawesi Utara",SULAWESI UTARA,,Indonesia,,,,0.9070152,123.2840638,https://maps.google.com/?cid=0x0:0xefe721d9ef4cc661,
hotel,Hotel,Hotel Boroko,"W744+8MW, Kuala, Kec. Kaidipang, Kabupaten Bolaang Mongondow Utara, Sulawesi Utara","Kabupaten Bolaang Mongondow Utara, Sulawesi Utara",SULAWESI UTARA,,Indonesia,,,,0.905875,123.2567089,https://maps.google.com/?cid=0x0:0x1a80429172c468bf,
hotel,hotel,Kec. Pinogaluman,"Kabupaten Bolaang Mongondow Utara, Sulawesi Utara","Kabupaten Bolaang Mongondow Utara, Sulawesi Utara",SULAWESI UTARA,,Indonesia,,,,0.9178578,123.1401469,https://maps.google.com/?cid=0x0:0x4bec49665b3f40dd,
hotel,hotel,Lun Hotel Manado,"Jl. Sugiono No.15, Pinaesaan, Kec. Wenang, Kota Manado, Sulawesi Utara 95122","Pinaesaan, Kec. Wenang, Kota Manado",SULAWESI UTARA,95122.0,Indonesia,4318805807.0,,,1.4924525,124.8455141,https://maps.google.com/?cid=0x0:0x2c221bc57867d689,
hotel,hotel,,,,SULAWESI UTARA,,Indonesia,,,,,,https://maps.google.com/?cid=0x0:0x2c221bc57867d689%7C/g/11rf9y66kk%7Cen-ID,
hotel,hotel,Hotel Mulia Lolak,"Jl. Trans-Sulawesi, Lalow, Kec. Lolak, Kabupaten Bolaang Mongondow, Sulawesi Utara","Kabupaten Bolaang Mongondow, Sulawesi Utara",SULAWESI UTARA,,Indonesia,85298113269.0,,,0.882613,124.0267222,https://maps.google.com/?cid=0x0:0x7cf22d3b0f737f84,
hotel,Penginapan,Penginapan Cahaya Pagi,"W44C+2QX, Tontulow, Kec. Pinogaluman, Kabupaten Bolaang Mongondow Utara, Sulawesi Utara","Kabupaten Bolaang Mongondow Utara, Sulawesi Utara",SULAWESI UTARA,,Indonesia,,,,0.9051147,123.1219916,https://maps.google.com/?cid=0x0:0x24de99209811ea91,
hotel,Hostel,NAULAS RESORT,"V84C+W4, Ollot, Kec. Bolang Itang Bar., Kabupaten Bolaang Mongondow Utara, Sulawesi Utara","Kabupaten Bolaang Mongondow Utara, Sulawesi Utara",SULAWESI UTARA,,Indonesia,,,,0.8586955,123.3215818,https://maps.google.com/?cid=0x0:0xb81bac14d8914c6f,
hotel,Hotel,Hotel De Keakar,"W746+8WH, Kuala, Kec. Kaidipang, Kabupaten Bolaang Mongondow Utara, Sulawesi Utara","Kabupaten Bolaang Mongondow Utara, Sulawesi Utara",SULAWESI UTARA,,Indonesia,,,,0.9058056,123.2623456,https://maps.google.com/?cid=0x0:0x28c86f014bae6c46,
hotel,hotel,Kec. Sangkub,"Kabupaten Bolaang Mongondow Utara, Sulawesi Utara","Kabupaten Bolaang Mongondow Utara, Sulawesi Utara",SULAWESI UTARA,,Indonesia,,,,0.8799509,123.6478886,https://maps.google.com/?cid=0x0:0xded44acee8c90687,
hotel,hotel,The Sentra Manado,"Jl. Ir. Soekarno, Maumbi, Kec. Kalawat, Kabupaten Minahasa Utara, Sulawesi Utara","Kabupaten Minahasa Utara, Sulawesi Utara",SULAWESI UTARA,,Indonesia,4317290488.0,,,1.4880891,124.9156242,https://maps.google.com/?cid=0x0:0xab699cffbafa14b0,
hotel,hotel,Top Hotel Manado,"Jl. Diponegoro 7A No.1, Mahakeret Tim., Kec. Wenang, Kota Manado, Sulawesi Utara 95123","Mahakeret Tim., Kec. Wenang, Kota Manado",SULAWESI UTARA,95123.0,Indonesia,431849888.0,,,1.4886062,124.8404219,https://maps.google.com/?cid=0x0:0xfd886f6d5f09a26a,
hotel,hotel,SPOT ON 91799 Sosonopan Homestay Near LANTAMAL VIII MANADO,"95127 Ternate Baru, Sulawesi Utara, 95127, Pantai, Kec. Malalayang, Kota Manado, Sulawesi Utara 95128",Ternate Baru,SULAWESI UTARA,95127.0,Indonesia,2129707601.0,,,1.4953644,124.8765913,https://maps.google.com/?cid=0x0:0x4a12259c9d7bcae9,
hotel,hotel,Penginapan Bahari,"Jalan Boulevard Kompleks Pelabuhan Tatahadeng, Tarorane, Kec. Siau Tim., Kabupaten Siau Tagulandang Biaro, Sulawesi Utara 95861","Tarorane, Kec. Siau Tim., Kabupaten Siau Tagulandang Biaro",SULAWESI UTARA,95861.0,Indonesia,81244159391.0,,,2.7321809,125.4147268,https://maps.google.com/?cid=0x0:0x47443b653c69e36d,
hotel,hotel,Tountemboan Hotel,"Jl. Sam Ratulangi No.110, Tj. Batu, Kec. Sario, Kota Manado, Sulawesi Utara 95116","Tj. Batu, Kec. Sario, Kota Manado",SULAWESI UTARA,95116.0,Indonesia,431851117.0,,,1.4674018,124.8395495,https://maps.google.com/?cid=0x0:0x259768f7a36a667b,
hotel,hotel,Hotel Jakarta,"PCM7+8FX, Tarorane, Kec. Siau Tim., Kabupaten Siau Tagulandang Biaro, Sulawesi Utara 95861","Tarorane, Kec. Siau Tim., Kabupaten Siau Tagulandang Biaro",SULAWESI UTARA,95861.0,Indonesia,432310310.0,,,2.7333694,125.4137216,https://maps.google.com/?cid=0x0:0xf458c72c3082aabf,
hotel,hotel,Hotel Shangrila,"42, Jl. Hasanuddin No.42, Singkil Satu. Singkil, Sindulang Satu, Kec. Tuminting, Kota Manado, Sulawesi Utara 96239","Jl. Hasanuddin No.42, Singkil Satu. Singkil, Sindulang Satu, Kec. Tuminting, Kota Manado",SULAWESI UTARA,96239.0,Indonesia,2129707601.0,,,1.498246,124.8456539,https://maps.google.com/?cid=0x0:0xb3f51aeca5b7cc40,
hotel,hotel,RedDoorz @ Jalan Sam Ratulangi Manado,"Jl. Sam Ratulangi, Tj. Batu, Kec. Wanea, Kota Manado, Sulawesi Utara","Kota Manado, Sulawesi Utara",SULAWESI UTARA,,Indonesia,895417300072.0,,,1.4732379,124.8368912,https://maps.google.com/?cid=0x0:0x222f5e22c014c53b,
hotel,hotel,MY PLACE Kost  Guest House - Manado,"Jl. Parigi 7 No.15, Malalayang Satu, Kec. Malalayang, Kota Manado, Sulawesi Utara 95162","Malalayang Satu, Kec. Malalayang, Kota Manado",SULAWESI UTARA,95162.0,Indonesia,82278595775.0,,,1.454658,124.819839,https://maps.google.com/?cid=0x0:0xb9dcb4b7f66d76fb,
hotel,hotel,New Kendy's Hotel,"Jl. Trans-Sulawesi, Lalow, Kec. Lolak, Kabupaten Bolaang Mongondow, Sulawesi Utara","Kabupaten Bolaang Mongondow, Sulawesi Utara",SULAWESI UTARA,,Indonesia,4342623531.0,,,0.882084,124.0318867,https://maps.google.com/?cid=0x0:0xc533c7e47c683f5,
hotel,hotel,SPOT ON 2530 Tiga Mas Inn,"Jalan A.A. Maramis, Paniki Bawah, Kec Mapanget, Utara, Manado City, North Sulawesi 95256","Paniki Bawah, Kec Mapanget, Utara, Manado City",SULAWESI UTARA,95256.0,Indonesia,2129707601.0,,,1.5118836,124.9137773,https://maps.google.com/?cid=0x0:0xac0c7a9d84f44211,
hotel,Komplek perumahan,PENGINAPAN CHANTYKA -Sangkub,"VJMQ+C82, Sangkub III, Kec. Sangkub, Kabupaten Bolaang Mongondow Utara, Sulawesi Utara","Kabupaten Bolaang Mongondow Utara, Sulawesi Utara",SULAWESI UTARA,,Indonesia,,,,0.8835027,123.6382722,https://maps.google.com/?cid=0x0:0x8218aa5a4b18cd51,
hotel,Hotel,Basecamp TSB di Sangkub,"VMH2+FG4, Sangkub II, Kec. Sangkub, Kabupaten Bolaang Mongondow Utara, Sulawesi Utara","Kabupaten Bolaang Mongondow Utara, Sulawesi Utara",SULAWESI UTARA,,Indonesia,,,,0.8786397,123.651338,https://maps.google.com/?cid=0x0:0x2706a656afceeea7,
restaurant,Restoran,Rm.cita rasa bunong,"Bunong, Kec. Bintauna, Kabupaten Bolaang Mongondow Utara, Sulawesi Utara","Kabupaten Bolaang Mongondow Utara, Sulawesi Utara",SULAWESI UTARA,,Indonesia,81244686686.0,,,0.8795708,123.5245246,https://maps.google.com/?cid=0x0:0x80898b1a8e7ca7ba,
restaurant,Komplek perumahan,Bintauna,"WH4G+472, Unnamed Road, Minanga, Kec. Bintauna, Kabupaten Bolaang Mongondow Utara, Sulawesi Utara","Kabupaten Bolaang Mongondow Utara, Sulawesi Utara",SULAWESI UTARA,,Indonesia,,,,0.905263,123.575646,https://maps.google.com/?cid=0x0:0x84ea50490d8808bd,
restaurant,Restoran,RM. Totabuan,"Jl. Trans-Sulawesi, Pimpi, Kec. Bintauna, Kabupaten Bolaang Mongondow Utara, Sulawesi Utara","Kabupaten Bolaang Mongondow Utara, Sulawesi Utara",SULAWESI UTARA,,Indonesia,85398296900.0,,,0.8795385,123.5507131,https://maps.google.com/?cid=0x0:0x1d78e5b1a5c0f23e,
restaurant,Restoran,Karunia,"WH2R+P58, Jl. Trans-Sulawesi, Busisingo Utara, Kec. Bintauna, Kabupaten Bolaang Mongondow Utara, Sulawesi Utara","Kabupaten Bolaang Mongondow Utara, Sulawesi Utara",SULAWESI UTARA,,Indonesia,,,,0.9017909,123.5904499,https://maps.google.com/?cid=0x0:0xc7fd8a4ec09c5168,
restaurant,Kafe,Cafe  Resto Coconut Beach,"Boroko Utara, Jl. Trans-Sulawesi, Kaidipang, North Bolaang Mongondow Regency, North Sulawesi 95765","Jl. Trans-Sulawesi, Kaidipang, North Bolaang Mongondow Regency",SULAWESI UTARA,95765.0,Indonesia,82351381099.0,,,0.9156591,123.2713937,https://maps.google.com/?cid=0x0:0xe986a501ebdd25a8,
restaurant,Restoran,Kedai Amosa,"VHH4+H3Q, Jl. Trans-Sulawesi, Bunia, Kec. Bintauna, Kabupaten Bolaang Mongondow Utara, Sulawesi Utara","Kabupaten Bolaang Mongondow Utara, Sulawesi Utara",SULAWESI UTARA,,Indonesia,82344113779.0,,,0.8789724,123.555237,https://maps.google.com/?cid=0x0:0xdb95c601be796542,
restaurant,Indonesia,Warung makan vaneza,"VFJ4+6Q8, Bohabak III, Kec. Bolang Itang Tim., Kabupaten Bolaang Mongondow Utara, Sulawesi Utara","Kabupaten Bolaang Mongondow Utara, Sulawesi Utara",SULAWESI UTARA,,Indonesia,,,,0.8805369,123.4569378,https://maps.google.com/?cid=0x0:0x7dbbc9f86771b70,
restaurant,Restoran,Cafe Sarjana,"VHH2+V7C, Jl. Trans-Sulawesi, Pimpi, Kec. Bintauna, Kabupaten Bolaang Mongondow Utara, Sulawesi Utara","Kabupaten Bolaang Mongondow Utara, Sulawesi Utara",SULAWESI UTARA,,Indonesia,85343520111.0,,,0.8796971,123.5506327,https://maps.google.com/?cid=0x0:0x7306a45e7f604177,
restaurant,Ikan Bakar,RM. DABU-DABU LEMON,"VGHF+R4J, Jl. Trans-Sulawesi, Bunong, Kec. Bintauna, Kabupaten Bolaang Mongondow Utara, Sulawesi Utara","Kabupaten Bolaang Mongondow Utara, Sulawesi Utara",SULAWESI UTARA,,Indonesia,85340344136.0,,,0.8795785,123.5227731,https://maps.google.com/?cid=0x0:0xf2158e60c74c24a4,
restaurant,Restoran,NASI KUNING BUNGKUS WOKA,"VGJW+333, Padang, Kec. Bintauna, Kabupaten Bolaang Mongondow Utara, Sulawesi Utara","Kabupaten Bolaang Mongondow Utara, Sulawesi Utara",SULAWESI UTARA,,Indonesia,,,,0.8801461,123.5451839,https://maps.google.com/?cid=0x0:0xa5ab7547764077ec,
restaurant,Rumah Makan,Warung Ungu,"VFJ4+6Q8, Bohabak III, Kec. Bolang Itang Tim., Kabupaten Bolaang Mongondow Utara, Sulawesi Utara","Kabupaten Bolaang Mongondow Utara, Sulawesi Utara",SULAWESI UTARA,,Indonesia,,,,0.8807069,123.457308,https://maps.google.com/?cid=0x0:0xace24177dfa24e22,
restaurant,Rumah Makan,Warung Makan Tiara,"VGHF+MWH, Bunong, Kec. Bintauna, Kabupaten Bolaang Mongondow Utara, Sulawesi Utara","Kabupaten Bolaang Mongondow Utara, Sulawesi Utara",SULAWESI UTARA,,Indonesia,81354822904.0,,,0.8795945,123.5237576,https://maps.google.com/?cid=0x0:0xb6b7d7ee8089d07d,
restaurant,Restoran,Kedai Si Gendut,"VHH2+944 Toko Karya Baru, Pimpi, Kec. Bintauna, Kabupaten Bolaang Mongondow Utara, Sulawesi Utara","Kabupaten Bolaang Mongondow Utara, Sulawesi Utara",SULAWESI UTARA,,Indonesia,82187824669.0,,,0.8783984,123.5503365,https://maps.google.com/?cid=0x0:0x83c07d95f8aa6db3,
restaurant,Restoran,Mie Ayam Mujarab,"VGHC+QVQ, Jl. Trans-Sulawesi, Bunong, Kec. Bintauna, Kabupaten Bolaang Mongondow Utara, Sulawesi Utara","Kabupaten Bolaang Mongondow Utara, Sulawesi Utara",SULAWESI UTARA,,Indonesia,85256202947.0,,,0.8794604,123.5222296,https://maps.google.com/?cid=0x0:0x2eae9c026ea5d519,
restaurant,Makanan Kecil,Ayam geprek,"Kopi, Kec. Bintauna, Kabupaten Bolaang Mongondow Utara, Sulawesi Utara 95763","Kec. Bintauna, Kabupaten Bolaang Mongondow Utara",SULAWESI UTARA,95763.0,Indonesia,82262295453.0,,,0.8808111,123.5858646,https://maps.google.com/?cid=0x0:0x62401e7cad9dad1b,
restaurant,Kedai Kopi,Dapur AK,"Talaga, Kec. Bintauna, Kabupaten Bolaang Mongondow Utara, Sulawesi Utara","Kabupaten Bolaang Mongondow Utara, Sulawesi Utara",SULAWESI UTARA,,Indonesia,82291211341.0,,,0.882406,123.5468528,https://maps.google.com/?cid=0x0:0x367dbf1718f2549e,
restaurant,Rumah Makan,Rm.Khina,"VGHC+QVQ, Jl. Trans-Sulawesi, Bunong, Kec. Bintauna, Kabupaten Bolaang Mongondow Utara, Sulawesi Utara","Kabupaten Bolaang Mongondow Utara, Sulawesi Utara",SULAWESI UTARA,,Indonesia,,,,0.8794672,123.5222391,https://maps.google.com/?cid=0x0:0x540214b847dcc110,
restaurant,Hotel,Shanios Hotel,"VHH2+FQ2, Jl. Trans-Sulawesi, Bunia, Kec. Bintauna, Kabupaten Bolaang Mongondow Utara, Sulawesi Utara","Kabupaten Bolaang Mongondow Utara, Sulawesi Utara",SULAWESI UTARA,,Indonesia,82187327447.0,,,0.8786451,123.5519043,https://maps.google.com/?cid=0x0:0xfbdc996bc2962501,
restaurant,Kedai Kopi,Nongki cafe,"Binjeita I, Kec. Bolang Itang Tim., Kabupaten Bolaang Mongondow Utara, Sulawesi Utara","Kabupaten Bolaang Mongondow Utara, Sulawesi Utara",SULAWESI UTARA,,Indonesia,82177988885.0,,,0.8794331,123.4699035,https://maps.google.com/?cid=0x0:0x4bc2c8cf3fc8bb48,
restaurant,Komplek perumahan,Bintauna,"VHM5+MGF, Batulintik, Kec. Bintauna, Kabupaten Bolaang Mongondow Utara, Sulawesi Utara","Kabupaten Bolaang Mongondow Utara, Sulawesi Utara",SULAWESI UTARA,,Indonesia,,,,0.8841888,123.5588064,https://maps.google.com/?cid=0x0:0xfe80b09becb1433f,
restaurant,restaurant,Kec. Bintauna,"Kabupaten Bolaang Mongondow Utara, Sulawesi Utara","Kabupaten Bolaang Mongondow Utara, Sulawesi Utara",SULAWESI UTARA,,Indonesia,,,,0.8804511,123.5506194,https://maps.google.com/?cid=0x0:0x8b4cfeaf6f8ff4de,
restaurant,Kedai Kopi,SABUA KOPI,"Kopi, Kec. Bintauna, Kabupaten Bolaang Mongondow Utara, Sulawesi Utara 95763","Kec. Bintauna, Kabupaten Bolaang Mongondow Utara",SULAWESI UTARA,95763.0,Indonesia,82349790805.0,,,0.8871437,123.5883039,https://maps.google.com/?cid=0x0:0x32fe514102e4d9f9,
restaurant,Ikan Bakar,Kantin LIBRAAAA,"Talaga, Kec. Bintauna, Kabupaten Bolaang Mongondow Utara, Sulawesi Utara","Kabupaten Bolaang Mongondow Utara, Sulawesi Utara",SULAWESI UTARA,,Indonesia,,,,0.8826079,123.5463844,https://maps.google.com/?cid=0x0:0x5e87b9de47c05afd,
restaurant,Restoran,Rumah makan muslim mbak indri,"VHH6+P55, Jl. Trans-Sulawesi, Bunia, Kec. Bintauna, Kabupaten Bolaang Mongondow Utara, Sulawesi Utara","Kabupaten Bolaang Mongondow Utara, Sulawesi Utara",SULAWESI UTARA,,Indonesia,81245852352.0,,,0.8792736,123.5604716,https://maps.google.com/?cid=0x0:0xe59b2db9c64b59e3,
restaurant,Dapur Umum,Fast Food Restaurant,"VJH9+MFG, Jl. Trans-Sulawesi, Tombolango, Kec. Sangkub, Kabupaten Bolaang Mongondow Utara, Sulawesi Utara 95762","Jl. Trans-Sulawesi, Tombolango, Kec. Sangkub, Kabupaten Bolaang Mongondow Utara",SULAWESI UTARA,95762.0,Indonesia,,,,0.8791994,123.6186983,https://maps.google.com/?cid=0x0:0xe405eadc0ae00135,
restaurant,Restoran,Adzkiya Muslim Food,"VHJ4+87V, Lorong Aspol, Bunia, Kec. Bintauna, Kabupaten Bolaang Mongondow Utara, Sulawesi Utara","Kabupaten Bolaang Mongondow Utara, Sulawesi Utara",SULAWESI UTARA,,Indonesia,82187551964.0,,,0.8808601,123.5556567,https://maps.google.com/?cid=0x0:0xa8e364743c65460,
restaurant,restaurant,Kec. Bolang Itang Bar.,"Kabupaten Bolaang Mongondow Utara, Sulawesi Utara","Kabupaten Bolaang Mongondow Utara, Sulawesi Utara",SULAWESI UTARA,,Indonesia,,,,0.9075668,123.3055527,https://maps.google.com/?cid=0x0:0x17cd151ba51a2f1e,
restaurant,Kafe,Cafe  Resto Coconut Beach,"Boroko Utara, Jl. Trans-Sulawesi, Kaidipang, North Bolaang Mongondow Regency, North Sulawesi 95765","Jl. Trans-Sulawesi, Kaidipang, North Bolaang Mongondow Regency",SULAWESI UTARA,95765.0,Indonesia,82351381099.0,,,0.9156591,123.2713937,https://maps.google.com/?cid=0x0:0xe986a501ebdd25a8,
restaurant,Rumah Makan,RM. Wargo,"W852+6J6, Bolangitang, Kec. Bolang Itang Bar., Kabupaten Bolaang Mongondow Utara, Sulawesi Utara","Kabupaten Bolaang Mongondow Utara, Sulawesi Utara",SULAWESI UTARA,,Indonesia,,,,0.9080495,123.3015216,https://maps.google.com/?cid=0x0:0xc4a9bdb09cfdfd2c,
restaurant,Tempat Istirahat,RM. Pondok Alam Tepi Laut,"Jl. Trans-Sulawesi No.52, Kuala, Kec. Kaidipang, Kabupaten Bolaang Mongondow Utara, Sulawesi Utara","Kabupaten Bolaang Mongondow Utara, Sulawesi Utara",SULAWESI UTARA,,Indonesia,85240728819.0,,,0.9110594,123.2890213,https://maps.google.com/?cid=0x0:0x7d4f5eb331a0aeac,
restaurant,Restoran,Kediri House Cafe  Resto,"W83P+2PR, Jl. Trans-Sulawesi, Tote, Kec. Bolang Itang Bar., Kabupaten Bolaang Mongondow Utara, Sulawesi Utara","Kabupaten Bolaang Mongondow Utara, Sulawesi Utara",SULAWESI UTARA,,Indonesia,82347944522.0,,,0.9026179,123.3367758,https://maps.google.com/?cid=0x0:0x501ce30921330119,
restaurant,Dapur Umum,RM. Berkah,"Jl. Trans-Sulawesi No.2, Kuala, Kec. Kaidipang, Kabupaten Bolaang Mongondow Utara, Sulawesi Utara","Kabupaten Bolaang Mongondow Utara, Sulawesi Utara",SULAWESI UTARA,,Indonesia,85256328770.0,,,0.9037925,123.2720279,https://maps.google.com/?cid=0x0:0xa8c2c54c7398988e,
restaurant,Toko bahan makanan,Warung Makan Kirana,"V8X4+28R, Jambu Sarang, Kec. Bolang Itang Bar., Kabupaten Bolaang Mongondow Utara, Sulawesi Utara","Kabupaten Bolaang Mongondow Utara, Sulawesi Utara",SULAWESI UTARA,,Indonesia,82292330483.0,,,0.8976182,123.3057776,https://maps.google.com/?cid=0x0:0xcebf78bc86756871,
restaurant,Dapur Umum,Rumah Makan Rezky,"W75V+97V, Bolangitang, Bloangitang Barat, North Bolaang Mongondow Regency, North Sulawesi","Kabupaten Bolaang Mongondow Utara, Sulawesi Utara",SULAWESI UTARA,,Indonesia,82189016599.0,,,0.9084916,123.2931758,https://maps.google.com/?cid=0x0:0xc4b8853b55b965b6,
restaurant,Rumah Makan,RM. Sandra,"W75X+88H, Jl. Trans-Sulawesi, Bolangitang I, Kec. Bolang Itang Bar., Kabupaten Bolaang Mongondow Utara, Sulawesi Utara","Kabupaten Bolaang Mongondow Utara, Sulawesi Utara",SULAWESI UTARA,,Indonesia,85240749192.0,,,0.9083195,123.2983686,https://maps.google.com/?cid=0x0:0x23945c0949ca419e,
restaurant,Rumah Makan,Bazar mkann masak Mayang Djunaidi,"Sonuo, Kec. Bolang Itang Bar., Kabupaten Bolaang Mongondow Utara, Sulawesi Utara 95764","Kec. Bolang Itang Bar., Kabupaten Bolaang Mongondow Utara",SULAWESI UTARA,95764.0,Indonesia,81245599527.0,,,0.8852791,123.3179645,https://maps.google.com/?cid=0x0:0x276f22512f801472,
restaurant,Dapur Umum,Dapur E2 Kuliner Bolmut,"Unnamed Road, Ollot I, Kec. Bolang Itang Bar., Kabupaten Bolaang Mongondow Utara, Sulawesi Utara","Kabupaten Bolaang Mongondow Utara, Sulawesi Utara",SULAWESI UTARA,,Indonesia,82259137885.0,,,0.8807986,123.3223367,https://maps.google.com/?cid=0x0:0xd837337e5d769a0a,
restaurant,Kedai Kopi,Balotta Caffe Shop,"V8W8+V9R, Jl. Trans-Sulawesi, Langi, Kec. Bolang Itang Bar., Kabupaten Bolaang Mongondow Utara, Sulawesi Utara","Kabupaten Bolaang Mongondow Utara, Sulawesi Utara",SULAWESI UTARA,,Indonesia,85346076546.0,,,0.8972466,123.3158764,https://maps.google.com/?cid=0x0:0xb2875324761c88df,
restaurant,Rumah Makan,Cafe  Resto Roeang Seduh Ayam Geprek,"W825+583, Jl. Trans-Sulawesi, Jambu Sarang, Kec. Bolang Itang Bar., Kabupaten Bolaang Mongondow Utara, Sulawesi Utara","Kabupaten Bolaang Mongondow Utara, Sulawesi Utara",SULAWESI UTARA,,Indonesia,,,,0.900394,123.308298,https://maps.google.com/?cid=0x0:0x6bd389f3bdd33bc2,
restaurant,Dapur Umum,Dapur Bule'ngitang,"Bigo trans, Boroko, Kec. Kaidipang, Kabupaten Bolaang Mongondow Utara, Sulawesi Utara 95765","Boroko, Kec. Kaidipang, Kabupaten Bolaang Mongondow Utara",SULAWESI UTARA,95765.0,Indonesia,82292383575.0,,,0.9048881,123.2679945,https://maps.google.com/?cid=0x0:0xf28d9ed97cdd3998,
restaurant,Rumah Makan,Warung Ungu,"VFJ4+6Q8, Bohabak III, Kec. Bolang Itang Tim., Kabupaten Bolaang Mongondow Utara, Sulawesi Utara","Kabupaten Bolaang Mongondow Utara, Sulawesi Utara",SULAWESI UTARA,,Indonesia,,,,0.8807069,123.457308,https://maps.google.com/?cid=0x0:0xace24177dfa24e22,
restaurant,Vila,Rumah,"V8R8+434, Sonuo, Kec. Bolang Itang Bar., Kabupaten Bolaang Mongondow Utara, Sulawesi Utara","Kabupaten Bolaang Mongondow Utara, Sulawesi Utara",SULAWESI UTARA,,Indonesia,,,,0.8903293,123.3151755,https://maps.google.com/?cid=0x0:0xee22a6d1a1317e76,
restaurant,Rumah Makan,yantopontoh,"W83H+2H9, Iyok, Kec. Bolang Itang Bar., Kabupaten Bolaang Mongondow Utara, Sulawesi Utara","Kabupaten Bolaang Mongondow Utara, Sulawesi Utara",SULAWESI UTARA,,Indonesia,,,,0.9025445,123.3289733,https://maps.google.com/?cid=0x0:0xf9158264731fd22e,
restaurant,Komplek perumahan,Desa Tote,"W83R+2MW, Jl. Trans-Sulawesi, Tote, Kec. Bolang Itang Bar., Kabupaten Bolaang Mongondow Utara, Sulawesi Utara","Kabupaten Bolaang Mongondow Utara, Sulawesi Utara",SULAWESI UTARA,,Indonesia,,,,0.9026042,123.3417056,https://maps.google.com/?cid=0x0:0xea13f819ac8e4f02,
restaurant,Restoran,Kantin MUTIARA,"W739+X9H, Jl. Trans-Sulawesi, Bigo, Kec. Kaidipang, Kabupaten Bolaang Mongondow Utara, Sulawesi Utara","Kabupaten Bolaang Mongondow Utara, Sulawesi Utara",SULAWESI UTARA,,Indonesia,82293459212.0,,,0.9049323,123.2684832,https://maps.google.com/?cid=0x0:0xca7e0b2517d6ae8a,
restaurant,Kedai Kopi,Saung Bakso,"V8P8+QH6, Unnamed Road, Sonuo, Kec. Bolang Itang Bar., Kabupaten Bolaang Mongondow Utara, Sulawesi Utara","Kabupaten Bolaang Mongondow Utara, Sulawesi Utara",SULAWESI UTARA,,Indonesia,82353299836.0,,,0.886918,123.316405,https://maps.google.com/?cid=0x0:0x295cdb2a6e48a741,
restaurant,Kantor Perusahaan,Rumah Bakso Dilo,"W823+XHJ, Talaga Tomoagu, Kec. Bolang Itang Bar., Kabupaten Bolaang Mongondow Utara, Sulawesi Utara","Kabupaten Bolaang Mongondow Utara, Sulawesi Utara",SULAWESI UTARA,,Indonesia,82290698290.0,,,0.902469,123.3038916,https://maps.google.com/?cid=0x0:0xc8736be1c78dea3d,
restaurant,Kedai Kopi,Kedai RM.Abil,"W82M+WFF, Tanjung Buaya, Kec. Bolang Itang Bar., Kabupaten Bolaang Mongondow Utara, Sulawesi Utara","Kabupaten Bolaang Mongondow Utara, Sulawesi Utara",SULAWESI UTARA,,Indonesia,,,,0.9021509,123.332775,https://maps.google.com/?cid=0x0:0x895c6dcbad81b79d,
restaurant,restaurant,Kec. Bolang Itang Tim.,"Kabupaten Bolaang Mongondow Utara, Sulawesi Utara","Kabupaten Bolaang Mongondow Utara, Sulawesi Utara",SULAWESI UTARA,,Indonesia,,,,0.8798076,123.4530257,https://maps.google.com/?cid=0x0:0x73767b2b7d690727,
restaurant,Rumah Makan,Warung Ungu,"VFJ4+6Q8, Bohabak III, Kec. Bolang Itang Tim., Kabupaten Bolaang Mongondow Utara, Sulawesi Utara","Kabupaten Bolaang Mongondow Utara, Sulawesi Utara",SULAWESI UTARA,,Indonesia,,,,0.8807069,123.457308,https://maps.google.com/?cid=0x0:0xace24177dfa24e22,
restaurant,Indonesia,Warung makan vaneza,"VFJ4+6Q8, Bohabak III, Kec. Bolang Itang Tim., Kabupaten Bolaang Mongondow Utara, Sulawesi Utara","Kabupaten Bolaang Mongondow Utara, Sulawesi Utara",SULAWESI UTARA,,Indonesia,,,,0.8805369,123.4569378,https://maps.google.com/?cid=0x0:0x7dbbc9f86771b70,
restaurant,Restoran,Rm.cita rasa bunong,"Bunong, Kec. Bintauna, Kabupaten Bolaang Mongondow Utara, Sulawesi Utara","Kabupaten Bolaang Mongondow Utara, Sulawesi Utara",SULAWESI UTARA,,Indonesia,81244686686.0,,,0.8795708,123.5245246,https://maps.google.com/?cid=0x0:0x80898b1a8e7ca7ba,
restaurant,Kafe,Cafe  Resto Coconut Beach,"Boroko Utara, Jl. Trans-Sulawesi, Kaidipang, North Bolaang Mongondow Regency, North Sulawesi 95765","Jl. Trans-Sulawesi, Kaidipang, North Bolaang Mongondow Regency",SULAWESI UTARA,95765.0,Indonesia,82351381099.0,,,0.9156591,123.2713937,https://maps.google.com/?cid=0x0:0xe986a501ebdd25a8,
restaurant,Tempat Istirahat,RM. Pondok Alam Tepi Laut,"Jl. Trans-Sulawesi No.52, Kuala, Kec. Kaidipang, Kabupaten Bolaang Mongondow Utara, Sulawesi Utara","Kabupaten Bolaang Mongondow Utara, Sulawesi Utara",SULAWESI UTARA,,Indonesia,85240728819.0,,,0.9110594,123.2890213,https://maps.google.com/?cid=0x0:0x7d4f5eb331a0aeac,
restaurant,Kedai Kopi,Nongki cafe,"Binjeita I, Kec. Bolang Itang Tim., Kabupaten Bolaang Mongondow Utara, Sulawesi Utara","Kabupaten Bolaang Mongondow Utara, Sulawesi Utara",SULAWESI UTARA,,Indonesia,82177988885.0,,,0.8794331,123.4699035,https://maps.google.com/?cid=0x0:0x4bc2c8cf3fc8bb48,
restaurant,Dapur Umum,RM Mospolor Indah,"VCMC+WX2, Binuanga, Kec. Bolang Itang Tim., Kabupaten Bolaang Mongondow Utara, Sulawesi Utara","Kabupaten Bolaang Mongondow Utara, Sulawesi Utara",SULAWESI UTARA,,Indonesia,,,,0.8846867,123.4223826,https://maps.google.com/?cid=0x0:0x2ab08bfca20f0c16,
restaurant,Kafe,Wakatta Cafe n Resto,"V9VV+P37, Jl. Trans-Sulawesi, Nunuka, Kec. Bolang Itang Tim., Kabupaten Bolaang Mongondow Utara, Sulawesi Utara","Kabupaten Bolaang Mongondow Utara, Sulawesi Utara",SULAWESI UTARA,,Indonesia,8114313666.0,,,0.8942903,123.3926695,https://maps.google.com/?cid=0x0:0x44a14d89eff414ab,
restaurant,Rumah Makan,RM. Wargo,"W852+6J6, Bolangitang, Kec. Bolang Itang Bar., Kabupaten Bolaang Mongondow Utara, Sulawesi Utara","Kabupaten Bolaang Mongondow Utara, Sulawesi Utara",SULAWESI UTARA,,Indonesia,,,,0.9080495,123.3015216,https://maps.google.com/?cid=0x0:0xc4a9bdb09cfdfd2c,
restaurant,Brunch,Kantin Al Hafiz,"VCR2+R3R, Saleo Satu, Kec. Bolang Itang Tim., Kabupaten Bolaang Mongondow Utara, Sulawesi Utara","Kabupaten Bolaang Mongondow Utara, Sulawesi Utara",SULAWESI UTARA,,Indonesia,85397873547.0,,,0.8921015,123.400133,https://maps.google.com/?cid=0x0:0x3a2e62161b351066,
restaurant,Ikan Bakar,RM. DABU-DABU LEMON,"VGHF+R4J, Jl. Trans-Sulawesi, Bunong, Kec. Bintauna, Kabupaten Bolaang Mongondow Utara, Sulawesi Utara","Kabupaten Bolaang Mongondow Utara, Sulawesi Utara",SULAWESI UTARA,,Indonesia,85340344136.0,,,0.8795785,123.5227731,https://maps.google.com/?cid=0x0:0xf2158e60c74c24a4,
restaurant,Rumah Makan,Bazar mkann masak Mayang Djunaidi,"Sonuo, Kec. Bolang Itang Bar., Kabupaten Bolaang Mongondow Utara, Sulawesi Utara 95764","Kec. Bolang Itang Bar., Kabupaten Bolaang Mongondow Utara",SULAWESI UTARA,95764.0,Indonesia,81245599527.0,,,0.8852791,123.3179645,https://maps.google.com/?cid=0x0:0x276f22512f801472,
restaurant,Restoran,RM. Laviesta,"Jl. Trans-Sulawesi No.52, Kuala, Kec. Kaidipang, Kabupaten Bolaang Mongondow Utara, Sulawesi Utara","Kabupaten Bolaang Mongondow Utara, Sulawesi Utara",SULAWESI UTARA,,Indonesia,85396365028.0,,,0.9117815,123.2834505,https://maps.google.com/?cid=0x0:0xccccf83b4200a244,
restaurant,restaurant,Martabak dan Sate Qwencana,"VFH3+V34, Bohabak IV, Kec. Bolang Itang Tim., Kabupaten Bolaang Mongondow Utara, Sulawesi Utara 95767","Bohabak IV, Kec. Bolang Itang Tim., Kabupaten Bolaang Mongondow Utara",SULAWESI UTARA,95767.0,Indonesia,,,,0.8796415,123.4526952,https://maps.google.com/?cid=0x0:0x393e1680187d37e1,
restaurant,Rumah Makan,RM. Sandra,"W75X+88H, Jl. Trans-Sulawesi, Bolangitang I, Kec. Bolang Itang Bar., Kabupaten Bolaang Mongondow Utara, Sulawesi Utara","Kabupaten Bolaang Mongondow Utara, Sulawesi Utara",SULAWESI UTARA,,Indonesia,85240749192.0,,,0.9083195,123.2983686,https://maps.google.com/?cid=0x0:0x23945c0949ca419e,
restaurant,Dapur Umum,RM. AISWAH,"VFJW+R6, Biontong, Kec. Bolang Itang Tim., Kabupaten Bolaang Mongondow Utara, Sulawesi Utara","Kabupaten Bolaang Mongondow Utara, Sulawesi Utara",SULAWESI UTARA,,Indonesia,81355873889.0,,,0.8804813,123.4956215,https://maps.google.com/?cid=0x0:0xaea04fac2062651f,
restaurant,Restoran,RM. Totabuan,"Jl. Trans-Sulawesi, Pimpi, Kec. Bintauna, Kabupaten Bolaang Mongondow Utara, Sulawesi Utara","Kabupaten Bolaang Mongondow Utara, Sulawesi Utara",SULAWESI UTARA,,Indonesia,85398296900.0,,,0.8795385,123.5507131,https://maps.google.com/?cid=0x0:0x1d78e5b1a5c0f23e,
restaurant,Brunch,Kantin Sitty,"V9RX+RQM, Saleo, Kec. Bolang Itang Tim., Kabupaten Bolaang Mongondow Utara, Sulawesi Utara","Kabupaten Bolaang Mongondow Utara, Sulawesi Utara",SULAWESI UTARA,,Indonesia,,,,0.8920818,123.399423,https://maps.google.com/?cid=0x0:0xb3c91adcb697f82a,
restaurant,Restoran,RM. AISWAH,"VFJW+65, Biontong, Kec. Bolang Itang Tim., Kabupaten Bolaang Mongondow Utara, Sulawesi Utara","Kabupaten Bolaang Mongondow Utara, Sulawesi Utara",SULAWESI UTARA,,Indonesia,85242633636.0,,,0.8805421,123.4954847,https://maps.google.com/?cid=0x0:0x58ddd453817b5497,
restaurant,Brunch,Kantin SALSABILA,"2, Saleo, Kec. Bolang Itang Tim., Kabupaten Bolaang Mongondow Utara, Sulawesi Utara 95764","Saleo, Kec. Bolang Itang Tim., Kabupaten Bolaang Mongondow Utara",SULAWESI UTARA,95764.0,Indonesia,85255702263.0,,,0.8890344,123.4102052,https://maps.google.com/?cid=0x0:0x75709c0aeb1fe04d,
restaurant,Brunch,RM. James Bernarth Puncak Bohank,"VCPC+9QF, Jl. Trans-Sulawesi, Binuanga, Kec. Bolang Itang Tim., Kabupaten Bolaang Mongondow Utara, Sulawesi Utara","Kabupaten Bolaang Mongondow Utara, Sulawesi Utara",SULAWESI UTARA,,Indonesia,81244848401.0,,,0.8859379,123.4219223,https://maps.google.com/?cid=0x0:0xb911089189f9ceca,
restaurant,Rumah Makan,Warung Makan R.3 Saleo,"VCQ3+WVR, Saleo Satu, Kec. Bolang Itang Tim., Kabupaten Bolaang Mongondow Utara, Sulawesi Utara","Kabupaten Bolaang Mongondow Utara, Sulawesi Utara",SULAWESI UTARA,,Indonesia,85242802019.0,,,0.8898568,123.4046277,https://maps.google.com/?cid=0x0:0xb888f73956f6c86f,
restaurant,Rumah Makan,Warung Makan Tiara,"VGHF+MWH, Bunong, Kec. Bintauna, Kabupaten Bolaang Mongondow Utara, Sulawesi Utara","Kabupaten Bolaang Mongondow Utara, Sulawesi Utara",SULAWESI UTARA,,Indonesia,81354822904.0,,,0.8795945,123.5237576,https://maps.google.com/?cid=0x0:0xb6b7d7ee8089d07d,
restaurant,restaurant,Kec. Kaidipang,"Kabupaten Bolaang Mongondow Utara, Sulawesi Utara","Kabupaten Bolaang Mongondow Utara, Sulawesi Utara",SULAWESI UTARA,,Indonesia,,,,0.9061974,123.2652382,https://maps.google.com/?cid=0x0:0x2e226efafb429867,
restaurant,Kafe,Cafe  Resto Coconut Beach,"Boroko Utara, Jl. Trans-Sulawesi, Kaidipang, North Bolaang Mongondow Regency, North Sulawesi 95765","Jl. Trans-Sulawesi, Kaidipang, North Bolaang Mongondow Regency",SULAWESI UTARA,95765.0,Indonesia,82351381099.0,,,0.9156591,123.2713937,https://maps.google.com/?cid=0x0:0xe986a501ebdd25a8,
restaurant,Tempat Istirahat,RM. Pondok Alam Tepi Laut,"Jl. Trans-Sulawesi No.52, Kuala, Kec. Kaidipang, Kabupaten Bolaang Mongondow Utara, Sulawesi Utara","Kabupaten Bolaang Mongondow Utara, Sulawesi Utara",SULAWESI UTARA,,Indonesia,85240728819.0,,,0.9110594,123.2890213,https://maps.google.com/?cid=0x0:0x7d4f5eb331a0aeac,
restaurant,Restoran,RM. Laviesta,"Jl. Trans-Sulawesi No.52, Kuala, Kec. Kaidipang, Kabupaten Bolaang Mongondow Utara, Sulawesi Utara","Kabupaten Bolaang Mongondow Utara, Sulawesi Utara",SULAWESI UTARA,,Indonesia,85396365028.0,,,0.9117815,123.2834505,https://maps.google.com/?cid=0x0:0xccccf83b4200a244,
restaurant,Kafe,Cafe,"Boroko, Kec. Kaidipang, Kabupaten Bolaang Mongondow Utara, Sulawesi Utara 95765","Kec. Kaidipang, Kabupaten Bolaang Mongondow Utara",SULAWESI UTARA,95765.0,Indonesia,82198319883.0,,,0.9182362,123.2694678,https://maps.google.com/?cid=0x0:0x776e6053190b42b7,
restaurant,Restoran,Pogogusato Coffee  Food,"Jl. Pomolanggo No.321, Boroko, Kec. Kaidipang, Kabupaten Bolaang Mongondow Utara, Sulawesi Utara 95765","Boroko, Kec. Kaidipang, Kabupaten Bolaang Mongondow Utara",SULAWESI UTARA,95765.0,Indonesia,82293228181.0,,,0.9108744,123.2641745,https://maps.google.com/?cid=0x0:0xa020eed330328384,
restaurant,Restoran,Mutiara cafe,"Boroko Tim., Kec. Kaidipang, Kabupaten Bolaang Mongondow Utara, Sulawesi Utara 95765","Kec. Kaidipang, Kabupaten Bolaang Mongondow Utara",SULAWESI UTARA,95765.0,Indonesia,82293933348.0,,,0.9210048,123.2676741,https://maps.google.com/?cid=0x0:0xd0e1e37260a71165,
restaurant,Sulawesi Selatan,Coto Makassar Delicious,"Boroko Tim., Kec. Kaidipang, Kabupaten Bolaang Mongondow Utara, Sulawesi Utara","Kabupaten Bolaang Mongondow Utara, Sulawesi Utara",SULAWESI UTARA,,Indonesia,81355068077.0,,,0.9062367,123.2714313,https://maps.google.com/?cid=0x0:0xa988da4ccdb54dec,
restaurant,Makanan Kecil,Vivi,"RM.Kawanua Boroko, Boroko, Kec. Kaidipang, Kabupaten Bolaang Mongondow Utara, Sulawesi Utara","Kabupaten Bolaang Mongondow Utara, Sulawesi Utara",SULAWESI UTARA,,Indonesia,85240200054.0,,,0.9092468,123.2508315,https://maps.google.com/?cid=0x0:0xaf3670f934d528ca,
restaurant,Dapur Umum,Dapur Nana,"Jl. pelabuhan No.12, Boroko, Kec. Kaidipang, Kabupaten Bolaang Mongondow Utara, Sulawesi Utara 95765","Boroko, Kec. Kaidipang, Kabupaten Bolaang Mongondow Utara",SULAWESI UTARA,95765.0,Indonesia,81325925920.0,,,0.9080194,123.2631375,https://maps.google.com/?cid=0x0:0xc6c2089dc2f7f9,
restaurant,Rumah Makan,Rumah Makan Jawa Timur,"W749+354, Jl. Trans-Sulawesi, Boroko Tim., Kec. Kaidipang, Kabupaten Bolaang Mongondow Utara, Sulawesi Utara","Kabupaten Bolaang Mongondow Utara, Sulawesi Utara",SULAWESI UTARA,,Indonesia,,,,0.9051306,123.2679609,https://maps.google.com/?cid=0x0:0x92e0edcccb700036,
restaurant,Restoran,RM. Prisa Muslim,"W76M+JXG, Kuala, Kec. Kaidipang, Kabupaten Bolaang Mongondow Utara, Sulawesi Utara","Kabupaten Bolaang Mongondow Utara, Sulawesi Utara",SULAWESI UTARA,,Indonesia,,,,0.9115726,123.2849613,https://maps.google.com/?cid=0x0:0xef39c48cfa664502,
restaurant,Lapangan Football,Waroeng Bakso Lezaat,"Jl. L.G. KOROMPOT No.19, Boroko Tim., Kec. Kaidipang, Kabupaten Bolaang Mongondow Utara, Sulawesi Utara 95765","Boroko Tim., Kec. Kaidipang, Kabupaten Bolaang Mongondow Utara",SULAWESI UTARA,95765.0,Indonesia,85340466666.0,,,0.9067661,123.2676706,https://maps.google.com/?cid=0x0:0x223716945e37a21,
restaurant,Restoran,HOLISTIC,"Kawasan batu pinagut, Boroko, Kec. Kaidipang, Kabupaten Bolaang Mongondow Utara, Sulawesi Utara 95765","Boroko, Kec. Kaidipang, Kabupaten Bolaang Mongondow Utara",SULAWESI UTARA,95765.0,Indonesia,82187788640.0,,,0.9153958,123.2723314,https://maps.google.com/?cid=0x0:0x83078e8014b465c6,
restaurant,Dapur Umum,Dapur Bule'ngitang,"Bigo trans, Boroko, Kec. Kaidipang, Kabupaten Bolaang Mongondow Utara, Sulawesi Utara 95765","Boroko, Kec. Kaidipang, Kabupaten Bolaang Mongondow Utara",SULAWESI UTARA,95765.0,Indonesia,82292383575.0,,,0.9048881,123.2679945,https://maps.google.com/?cid=0x0:0xf28d9ed97cdd3998,
restaurant,Restoran,IngkCoffee,"W76M+MGF, Kuala, Kec. Kaidipang, Kabupaten Bolaang Mongondow Utara, Sulawesi Utara","Kabupaten Bolaang Mongondow Utara, Sulawesi Utara",SULAWESI UTARA,,Indonesia,,,,0.9116962,123.2837974,https://maps.google.com/?cid=0x0:0xa5a22557550ddbf9,
restaurant,Restoran,koro.FOOD,"Jalan pelabuhan, Boroko, Kec. Kaidipang, Kabupaten Bolaang Mongondow Utara, Sulawesi Utara 95765","Boroko, Kec. Kaidipang, Kabupaten Bolaang Mongondow Utara",SULAWESI UTARA,95765.0,Indonesia,82194130821.0,,,0.9121405,123.2616893,https://maps.google.com/?cid=0x0:0x6d20b86486689cb2,
restaurant,Rumah Makan,Teras Pisang Ijo Nakana,"Jalan Mohing No.339, Boroko, Kec. Kaidipang, Kabupaten Bolaang Mongondow Utara, Sulawesi Utara","Kabupaten Bolaang Mongondow Utara, Sulawesi Utara",SULAWESI UTARA,,Indonesia,4342622543.0,,,0.9135838,123.2631229,https://maps.google.com/?cid=0x0:0x102d8f0446592d7d,
restaurant,Restoran,Kantin MUTIARA,"W739+X9H, Jl. Trans-Sulawesi, Bigo, Kec. Kaidipang, Kabupaten Bolaang Mongondow Utara, Sulawesi Utara","Kabupaten Bolaang Mongondow Utara, Sulawesi Utara",SULAWESI UTARA,,Indonesia,82293459212.0,,,0.9049323,123.2684832,https://maps.google.com/?cid=0x0:0xca7e0b2517d6ae8a,
restaurant,Restoran,Rm.Panorama Baroko,"W747+FRQ, Jl. Trans-Sulawesi, Boroko, Kec. Kaidipang, Kabupaten Bolaang Mongondow Utara, Sulawesi Utara","Kabupaten Bolaang Mongondow Utara, Sulawesi Utara",SULAWESI UTARA,,Indonesia,85256484988.0,,,0.9062051,123.2646221,https://maps.google.com/?cid=0x0:0x173001d34f52f05a,
restaurant,Dapur Umum,RM. Aroma Padang,"Jl. Trans-Sulawesi No.52, Kuala, Kec. Kaidipang, Kabupaten Bolaang Mongondow Utara, Sulawesi Utara 95765","Kuala, Kec. Kaidipang, Kabupaten Bolaang Mongondow Utara",SULAWESI UTARA,95765.0,Indonesia,82293346849.0,,,0.9051837,123.2725811,https://maps.google.com/?cid=0x0:0xb19dc8220891fdda,
restaurant,Kafe,KEDAIKU,"W77G+6V7Jl. Trans SulawesiKuala, Kec. Kaidipang, Kabupaten Bolaang Mongondow Utara, Sulawesi Utara 95765","Kec. Kaidipang, Kabupaten Bolaang Mongondow Utara",SULAWESI UTARA,95765.0,Indonesia,81223757320.0,,,0.9130253,123.2775419,https://maps.google.com/?cid=0x0:0x29c383948b40cfaa,
restaurant,Indonesia,Bikini Bottem Cafe,"Pantai Batu Pinagut, East Boroko, Kaidipang, North Bolaang Mongondow Regency, North Sulawesi","Kabupaten Bolaang Mongondow Utara, Sulawesi Utara",SULAWESI UTARA,,Indonesia,,,,0.9152521,123.2725736,https://maps.google.com/?cid=0x0:0xac4fc73f5f807d00,
restaurant,restaurant,Kec. Pinogaluman,"Kabupaten Bolaang Mongondow Utara, Sulawesi Utara","Kabupaten Bolaang Mongondow Utara, Sulawesi Utara",SULAWESI UTARA,,Indonesia,,,,0.9178578,123.1401469,https://maps.google.com/?cid=0x0:0x4bec49665b3f40dd,
restaurant,Kafe,Cafe  Resto Coconut Beach,"Boroko Utara, Jl. Trans-Sulawesi, Kaidipang, North Bolaang Mongondow Regency, North Sulawesi 95765","Jl. Trans-Sulawesi, Kaidipang, North Bolaang Mongondow Regency",SULAWESI UTARA,95765.0,Indonesia,82351381099.0,,,0.9156591,123.2713937,https://maps.google.com/?cid=0x0:0xe986a501ebdd25a8,
restaurant,Dapur Umum,Dapur Bule'ngitang,"Bigo trans, Boroko, Kec. Kaidipang, Kabupaten Bolaang Mongondow Utara, Sulawesi Utara 95765","Boroko, Kec. Kaidipang, Kabupaten Bolaang Mongondow Utara",SULAWESI UTARA,95765.0,Indonesia,82292383575.0,,,0.9048881,123.2679945,https://maps.google.com/?cid=0x0:0xf28d9ed97cdd3998,
restaurant,Restoran,RM. Laviesta,"Jl. Trans-Sulawesi No.52, Kuala, Kec. Kaidipang, Kabupaten Bolaang Mongondow Utara, Sulawesi Utara","Kabupaten Bolaang Mongondow Utara, Sulawesi Utara",SULAWESI UTARA,,Indonesia,85396365028.0,,,0.9117815,123.2834505,https://maps.google.com/?cid=0x0:0xccccf83b4200a244,
restaurant,Toko umum,Warung Li mama,"W45X+6GR, Dalapuli, Kec. Pinogaluman, Kabupaten Bolaang Mongondow Utara, Sulawesi Utara","Kabupaten Bolaang Mongondow Utara, Sulawesi Utara",SULAWESI UTARA,,Indonesia,,,,0.9081204,123.148756,https://maps.google.com/?cid=0x0:0x508d90ad1115874d,
restaurant,Dapur Umum,Rumah Makan Rezky,"W75V+97V, Bolangitang, Bloangitang Barat, North Bolaang Mongondow Regency, North Sulawesi","Kabupaten Bolaang Mongondow Utara, Sulawesi Utara",SULAWESI UTARA,,Indonesia,82189016599.0,,,0.9084916,123.2931758,https://maps.google.com/?cid=0x0:0xc4b8853b55b965b6,
restaurant,Restoran,Mutiara cafe,"Boroko Tim., Kec. Kaidipang, Kabupaten Bolaang Mongondow Utara, Sulawesi Utara 95765","Kec. Kaidipang, Kabupaten Bolaang Mongondow Utara",SULAWESI UTARA,95765.0,Indonesia,82293933348.0,,,0.9210048,123.2676741,https://maps.google.com/?cid=0x0:0xd0e1e37260a71165,
restaurant,Rumah Makan,Rm Dupoer Djakarla,"W42C+XM9, Jl. Trans-Sulawesi, Tontulow, Kec. Pinogaluman, Kabupaten Bolaang Mongondow Utara, Sulawesi Utara 96253","Jl. Trans-Sulawesi, Tontulow, Kec. Pinogaluman, Kabupaten Bolaang Mongondow Utara",SULAWESI UTARA,96253.0,Indonesia,,,,0.9024181,123.1217309,https://maps.google.com/?cid=0x0:0x92a74e8b5995e32f,
restaurant,Restoran,HOLISTIC,"Kawasan batu pinagut, Boroko, Kec. Kaidipang, Kabupaten Bolaang Mongondow Utara, Sulawesi Utara 95765","Boroko, Kec. Kaidipang, Kabupaten Bolaang Mongondow Utara",SULAWESI UTARA,95765.0,Indonesia,82187788640.0,,,0.9153958,123.2723314,https://maps.google.com/?cid=0x0:0x83078e8014b465c6,
restaurant,Makanan Kecil,Warung tinutuan mama fandy,"W55R+PFJ, Jl. Trans-Sulawesi, Tuntung Tim., Kec. Pinogaluman, Kabupaten Bolaang Mongondow Utara, Sulawesi Utara","Kabupaten Bolaang Mongondow Utara, Sulawesi Utara",SULAWESI UTARA,,Indonesia,85341913336.0,,,0.909341,123.1911483,https://maps.google.com/?cid=0x0:0xa3a70381a8adad30,
restaurant,Dapur Umum,RM. Berkah,"Jl. Trans-Sulawesi No.2, Kuala, Kec. Kaidipang, Kabupaten Bolaang Mongondow Utara, Sulawesi Utara","Kabupaten Bolaang Mongondow Utara, Sulawesi Utara",SULAWESI UTARA,,Indonesia,85256328770.0,,,0.9037925,123.2720279,https://maps.google.com/?cid=0x0:0xa8c2c54c7398988e,
restaurant,Minimarket,Hobbies Lesehan,"W739+RMR, Bigo, Trans, Kabupaten Bolaang Mongondow Utara, Sulawesi Utara","Kabupaten Bolaang Mongondow Utara, Sulawesi Utara",SULAWESI UTARA,,Indonesia,82190260730.0,,,0.9046045,123.2691527,https://maps.google.com/?cid=0x0:0x308de337b8f12bd1,
restaurant,Dapur Umum,Dapur Nana,"Jl. pelabuhan No.12, Boroko, Kec. Kaidipang, Kabupaten Bolaang Mongondow Utara, Sulawesi Utara 95765","Boroko, Kec. Kaidipang, Kabupaten Bolaang Mongondow Utara",SULAWESI UTARA,95765.0,Indonesia,81325925920.0,,,0.9080194,123.2631375,https://maps.google.com/?cid=0x0:0xc6c2089dc2f7f9,
restaurant,Rumah Makan,Rumah makan FARQHA,"Tombulang, Kec. Pinogaluman, Kabupaten Bolaang Mongondow Utara, Sulawesi Utara 12345","Kec. Pinogaluman, Kabupaten Bolaang Mongondow Utara",SULAWESI UTARA,12345.0,Indonesia,82394668120.0,,,0.9178902,123.1305084,https://maps.google.com/?cid=0x0:0x6b131716471e9214,
restaurant,Lapangan Football,Waroeng Bakso Lezaat,"Jl. L.G. KOROMPOT No.19, Boroko Tim., Kec. Kaidipang, Kabupaten Bolaang Mongondow Utara, Sulawesi Utara 95765","Boroko Tim., Kec. Kaidipang, Kabupaten Bolaang Mongondow Utara",SULAWESI UTARA,95765.0,Indonesia,85340466666.0,,,0.9067661,123.2676706,https://maps.google.com/?cid=0x0:0x223716945e37a21,
restaurant,Kedai Kopi,O'minanga Resto  Cafe,"W4G4+J3C, Pantai Minanga Utara, Kota Jin, Kec. Atinggola, Kabupaten Gorontalo Utara, Gorontalo 96253","Pantai Minanga Utara, Kota Jin, Kec. Atinggola, Kabupaten Gorontalo Utara",SULAWESI UTARA,96253.0,Indonesia,,,,0.9265663,123.1051468,https://maps.google.com/?cid=0x0:0xb23912ff04f32bfc,
restaurant,Rumah Makan,Teras Pisang Ijo Nakana,"Jalan Mohing No.339, Boroko, Kec. Kaidipang, Kabupaten Bolaang Mongondow Utara, Sulawesi Utara","Kabupaten Bolaang Mongondow Utara, Sulawesi Utara",SULAWESI UTARA,,Indonesia,4342622543.0,,,0.9135838,123.2631229,https://maps.google.com/?cid=0x0:0x102d8f0446592d7d,
restaurant,Rumah Makan,Dapur Mama Irma Pasoo,"W777+93W, Boroko, Kec. Kaidipang, Kabupaten Bolaang Mongondow Utara, Sulawesi Utara","Kabupaten Bolaang Mongondow Utara, Sulawesi Utara",SULAWESI UTARA,,Indonesia,81341860650.0,,,0.9134935,123.26271,https://maps.google.com/?cid=0x0:0x74c28d9f1d819d85,
restaurant,Kafe,Sharini Karaoke n cafe,"W53J+FVP, Duini, Kec. Pinogaluman, Kabupaten Bolaang Mongondow Utara, Sulawesi Utara","Kabupaten Bolaang Mongondow Utara, Sulawesi Utara",SULAWESI UTARA,,Indonesia,,,,0.9037208,123.1821945,https://maps.google.com/?cid=0x0:0x5050d2cc63f876e6,
restaurant,Makanan Kecil,Vivi,"RM.Kawanua Boroko, Boroko, Kec. Kaidipang, Kabupaten Bolaang Mongondow Utara, Sulawesi Utara","Kabupaten Bolaang Mongondow Utara, Sulawesi Utara",SULAWESI UTARA,,Indonesia,85240200054.0,,,0.9092468,123.2508315,https://maps.google.com/?cid=0x0:0xaf3670f934d528ca,
restaurant,Makanan Kecil,Rm.mie ayam bakso,"W47R+V8R, Dalapuli Bar., Kec. Pinogaluman, Kabupaten Bolaang Mongondow Utara, Sulawesi Utara","Kabupaten Bolaang Mongondow Utara, Sulawesi Utara",SULAWESI UTARA,,Indonesia,,,,0.9147443,123.1407809,https://maps.google.com/?cid=0x0:0xbc88f0e04d359eb2,
restaurant,Toko umum,WARUNG DEV,"W4CR+W8X, Unnamed Road, Buko, Kec. Pinogaluman, Kabupaten Bolaang Mongondow Utara, Sulawesi Utara 96253","Unnamed Road, Buko, Kec. Pinogaluman, Kabupaten Bolaang Mongondow Utara",SULAWESI UTARA,96253.0,Indonesia,,,,0.9223594,123.1408489,https://maps.google.com/?cid=0x0:0xb6f32c4e39398a46,
restaurant,Kafe,Warung Pojok Dua Pirang,"W4FR+3VQ, Buko, Kec. Pinogaluman, Kabupaten Bolaang Mongondow Utara, Sulawesi Utara","Kabupaten Bolaang Mongondow Utara, Sulawesi Utara",SULAWESI UTARA,,Indonesia,,,,0.9227141,123.1422403,https://maps.google.com/?cid=0x0:0xdfd02fb994844bf6,
restaurant,Tempat Penjualan Teh,Matodu Wolo,"W56V+JP6, Jl. Trans-Sulawesi, Tuntung Tim., Kec. Pinogaluman, Kabupaten Bolaang Mongondow Utara, Sulawesi Utara","Kabupaten Bolaang Mongondow Utara, Sulawesi Utara",SULAWESI UTARA,,Indonesia,,,,0.9115422,123.1942563,https://maps.google.com/?cid=0x0:0x780e0bc6b641e00a,
restaurant,Restoran,Warung makan QOIF,"R7X3+P77, Tuntung Tim., Kec. Pinogaluman, Kabupaten Bolaang Mongondow Utara, Sulawesi Utara","Kabupaten Bolaang Mongondow Utara, Sulawesi Utara",SULAWESI UTARA,,Indonesia,,,,0.8492767,123.2531764,https://maps.google.com/?cid=0x0:0xd4393862936ceb22,
restaurant,Restoran,Rm Ochit,"W4G3+PH8, Jl. Trans-Sulawesi, Komus Dua Tim., Kec. Atinggola, Kabupaten Bolaang Mongondow Utara, Sulawesi Utara 96253","Jl. Trans-Sulawesi, Komus Dua Tim., Kec. Atinggola, Kabupaten Bolaang Mongondow Utara",SULAWESI UTARA,96253.0,Indonesia,81244557744.0,,,0.926781,123.103938,https://maps.google.com/?cid=0x0:0x64909c23d8f64de0,
restaurant,Kedai Kopi,Kedai STAR Coffee,"W53M+VF8, Duini, Kec. Pinogaluman, Kabupaten Bolaang Mongondow Utara, Sulawesi Utara","Kabupaten Bolaang Mongondow Utara, Sulawesi Utara",SULAWESI UTARA,,Indonesia,85395776095.0,,,0.9046698,123.1837102,https://maps.google.com/?cid=0x0:0x67ceeb2a5e62237e,
restaurant,Toko bahan makanan,Outlet Martabak Manis,"W48R+W3X, Buko, Kec. Pinogaluman, Kabupaten Bolaang Mongondow Utara, Sulawesi Utara","Kabupaten Bolaang Mongondow Utara, Sulawesi Utara",SULAWESI UTARA,,Indonesia,82320122298.0,,,0.9173668,123.1402245,https://maps.google.com/?cid=0x0:0x7cf60cf2bd6d1e28,
restaurant,Nasi Goreng,Rm.Mas Roqib Semarang,"W55R+MC9, Jl. Trans-Sulawesi, Tuntung Tim., Kec. Pinogaluman, Kabupaten Bolaang Mongondow Utara, Sulawesi Utara","Kabupaten Bolaang Mongondow Utara, Sulawesi Utara",SULAWESI UTARA,,Indonesia,,,,0.9091537,123.1911135,https://maps.google.com/?cid=0x0:0x9992f23076c18196,
restaurant,restaurant,Kec. Sangkub,"Kabupaten Bolaang Mongondow Utara, Sulawesi Utara","Kabupaten Bolaang Mongondow Utara, Sulawesi Utara",SULAWESI UTARA,,Indonesia,,,,0.8799509,123.6478886,https://maps.google.com/?cid=0x0:0xded44acee8c90687,
restaurant,Dapur Umum,R.M Dicky,"Jl. Trans-Sulawesi, Tombolango, Kec. Sangkub, Kabupaten Bolaang Mongondow Utara, Sulawesi Utara 95762","Tombolango, Kec. Sangkub, Kabupaten Bolaang Mongondow Utara",SULAWESI UTARA,95762.0,Indonesia,82188322627.0,,,0.8790296,123.6187381,https://maps.google.com/?cid=0x0:0x3f43a7656c2e41e0,
restaurant,Toko bahan makanan,Ci Nang's Kitchen,"VJHX+W9C, Sangkub II, Kec. Sangkub, Kabupaten Bolaang Mongondow Utara, Sulawesi Utara","Kabupaten Bolaang Mongondow Utara, Sulawesi Utara",SULAWESI UTARA,,Indonesia,,,,0.8798228,123.6484016,https://maps.google.com/?cid=0x0:0x970b1ae49071f573,
restaurant,Dapur Umum,Fast Food Restaurant,"VJH9+MFG, Jl. Trans-Sulawesi, Tombolango, Kec. Sangkub, Kabupaten Bolaang Mongondow Utara, Sulawesi Utara 95762","Jl. Trans-Sulawesi, Tombolango, Kec. Sangkub, Kabupaten Bolaang Mongondow Utara",SULAWESI UTARA,95762.0,Indonesia,,,,0.8791994,123.6186983,https://maps.google.com/?cid=0x0:0xe405eadc0ae00135,
restaurant,Dapur Umum,RM GORONTALO SANGKUB,"VJHX+X5J, Sangkub II, Kec. Sangkub, Kabupaten Bolaang Mongondow Utara, Sulawesi Utara","Kabupaten Bolaang Mongondow Utara, Sulawesi Utara",SULAWESI UTARA,,Indonesia,,,,0.8799509,123.6478886,https://maps.google.com/?cid=0x0:0x9b8579858186796e,
restaurant,Restoran,Rumah Makan Hijrah,"WH2R+P2R, Jl. Trans-Sulawesi, Busisingo Utara, Kec. Sangkub, Kabupaten Bolaang Mongondow Utara, Sulawesi Utara","Kabupaten Bolaang Mongondow Utara, Sulawesi Utara",SULAWESI UTARA,,Indonesia,,,,0.9018617,123.5900233,https://maps.google.com/?cid=0x0:0x1f283c678ba76dc7,
restaurant,Restoran,Rm Felisia,"WH2R+GJH, Busisingo Utara, Kec. Sangkub, Kabupaten Bolaang Mongondow Utara, Sulawesi Utara","Kabupaten Bolaang Mongondow Utara, Sulawesi Utara",SULAWESI UTARA,,Indonesia,8229093123.0,,,0.9013212,123.5916186,https://maps.google.com/?cid=0x0:0xfadd7db89dd4c161,
restaurant,Kafe,Kawasan wisata Imokima Beach and Caffe Sangkub,"VMM2+3V, Sangkub II, Kec. Sangkub, Kabupaten Bolaang Mongondow Utara, Sulawesi Utara","Kabupaten Bolaang Mongondow Utara, Sulawesi Utara",SULAWESI UTARA,,Indonesia,,,,0.8827269,123.652117,https://maps.google.com/?cid=0x0:0x170e10f6d82312a8,
restaurant,restaurant,RM Lintaz Sulawesi,"Busisingo Utara, Kec. Sangkub, Kabupaten Bolaang Mongondow Utara, Sulawesi Utara 95762","Kec. Sangkub, Kabupaten Bolaang Mongondow Utara",SULAWESI UTARA,95762.0,Indonesia,81356500855.0,,,0.9020542,123.5936685,https://maps.google.com/?cid=0x0:0x9feb0a86d9b7a05,
restaurant,Dapur Umum,RM. Mogutat Om Bue,"VJH9+MFG, Jl. Trans-Sulawesi, Tombolango, Kec. Sangkub, Kabupaten Bolaang Mongondow Utara, Sulawesi Utara","Kabupaten Bolaang Mongondow Utara, Sulawesi Utara",SULAWESI UTARA,,Indonesia,81343689782.0,,,0.8791994,123.6186983,https://maps.google.com/?cid=0x0:0x353593fe71b87132,
restaurant,restaurant,Rumah Pak SArendi,"RJPJ+CWX, Pangkusa, Kec. Sangkub, Kabupaten Bolaang Mongondow Utara, Sulawesi Utara","Kabupaten Bolaang Mongondow Utara, Sulawesi Utara",SULAWESI UTARA,,Indonesia,,,,0.8356622,123.6337816,https://maps.google.com/?cid=0x0:0x11defc846522fa96,
restaurant,Restoran,Cafe Sarjana,"VHH2+V7C, Jl. Trans-Sulawesi, Pimpi, Kec. Bintauna, Kabupaten Bolaang Mongondow Utara, Sulawesi Utara","Kabupaten Bolaang Mongondow Utara, Sulawesi Utara",SULAWESI UTARA,,Indonesia,85343520111.0,,,0.8796971,123.5506327,https://maps.google.com/?cid=0x0:0x7306a45e7f604177,
restaurant,Restoran,Karunia,"WH2R+P58, Jl. Trans-Sulawesi, Busisingo Utara, Kec. Bintauna, Kabupaten Bolaang Mongondow Utara, Sulawesi Utara","Kabupaten Bolaang Mongondow Utara, Sulawesi Utara",SULAWESI UTARA,,Indonesia,,,,0.9017909,123.5904499,https://maps.google.com/?cid=0x0:0xc7fd8a4ec09c5168,
restaurant,Rumah Makan,Rm Hikmah,"VM42+WFJ, Sidodadi, Kec. Sangkub, Kabupaten Bolaang Mongondow Utara, Sulawesi Utara","Kabupaten Bolaang Mongondow Utara, Sulawesi Utara",SULAWESI UTARA,,Indonesia,82227888299.0,,,0.8573381,123.6511438,https://maps.google.com/?cid=0x0:0xf4f0d78fd0aab066,
restaurant,Restoran,Kedai Azka Fried Chiken,"Jl. Trans-Sulawesi, Sangkub I, Kec. Sangkub, Kabupaten Bolaang Mongondow Utara, Sulawesi Utara 95762","Sangkub I, Kec. Sangkub, Kabupaten Bolaang Mongondow Utara",SULAWESI UTARA,95762.0,Indonesia,82192620236.0,,,0.8788842,123.6499605,https://maps.google.com/?cid=0x0:0xe95cf5cc9fa2c849,
restaurant,Restoran,RM. Muslim Sederhana,"WH2Q+HWJ, Jl. Trans-Sulawesi, Busisingo Utara, Kec. Sangkub, Kabupaten Bolaang Mongondow Utara, Sulawesi Utara","Kabupaten Bolaang Mongondow Utara, Sulawesi Utara",SULAWESI UTARA,,Indonesia,,,,0.9014659,123.5897753,https://maps.google.com/?cid=0x0:0x2ec08f60cbdf59ed,
restaurant,Rumah Makan,RM Muslim Madinah,"WH2R+MGR, Jl. Trans-Sulawesi, Busisingo Utara, Kec. Sangkub, Kabupaten Bolaang Mongondow Utara, Sulawesi Utara","Kabupaten Bolaang Mongondow Utara, Sulawesi Utara",SULAWESI UTARA,,Indonesia,85242266356.0,,,0.9017354,123.5912611,https://maps.google.com/?cid=0x0:0x648e27fd21fb56bb,
restaurant,Nasi,GEPREK IMBAK LOF,"VMH2+9JM, Jl. Trans-Sulawesi, Sangkub II, Kec. Sangkub, Kabupaten Bolaang Mongondow Utara, Sulawesi Utara","Kabupaten Bolaang Mongondow Utara, Sulawesi Utara",SULAWESI UTARA,,Indonesia,,,,0.8784563,123.651552,https://maps.google.com/?cid=0x0:0x391fbb2a7221065a,
restaurant,Restoran,Rumah Makan Cindy,"RRRG+5V9, Jl. Trans-Sulawesi, Maelang, Kec. Sangtombolang, Kabupaten Bolaang Mongondow, Sulawesi Utara","Kabupaten Bolaang Mongondow, Sulawesi Utara",SULAWESI UTARA,,Indonesia,,,,0.8404178,123.8272357,https://maps.google.com/?cid=0x0:0xb95442f6f3ab4064,
restaurant,Kafe,Cafe Payung Sangkub 1,"VJHX+JR4, Sangkub II, Kec. Sangkub, Kabupaten Bolaang Mongondow Utara, Sulawesi Utara","Kabupaten Bolaang Mongondow Utara, Sulawesi Utara",SULAWESI UTARA,,Indonesia,85757511925.0,,,0.879022,123.6495825,https://maps.google.com/?cid=0x0:0x87642aed8b1441c1,
restaurant,Perhimpunan Pengembang Perumahan,Tebing BJX Sampiro,"VMGF+X6M, Sampiro, Kec. Sangkub, Kabupaten Bolaang Mongondow Utara, Sulawesi Utara","Kabupaten Bolaang Mongondow Utara, Sulawesi Utara",SULAWESI UTARA,,Indonesia,82191249939.0,,,0.8774517,123.6730441,https://maps.google.com/?cid=0x0:0xb6f404b92c9255d2,
restaurant,Kedai Kopi,SABUA KOPI,"Kopi, Kec. Bintauna, Kabupaten Bolaang Mongondow Utara, Sulawesi Utara 95763","Kec. Bintauna, Kabupaten Bolaang Mongondow Utara",SULAWESI UTARA,95763.0,Indonesia,82349790805.0,,,0.8871437,123.5883039,https://maps.google.com/?cid=0x0:0x32fe514102e4d9f9,
restaurant,Kedai Kopi,Home Coffee,"WH2W+JX7, Busisingo Utara, Kec. Sangkub, Kabupaten Bolaang Mongondow Utara, Sulawesi Utara","Kabupaten Bolaang Mongondow Utara, Sulawesi Utara",SULAWESI UTARA,,Indonesia,,,,0.9015325,123.5974069,https://maps.google.com/?cid=0x0:0xf66d306240bfec13,
cafe,Restoran,Cafe Sarjana,"VHH2+V7C, Jl. Trans-Sulawesi, Pimpi, Kec. Bintauna, Kabupaten Bolaang Mongondow Utara, Sulawesi Utara","Kabupaten Bolaang Mongondow Utara, Sulawesi Utara",SULAWESI UTARA,,Indonesia,85343520111.0,,,0.8796971,123.5506327,https://maps.google.com/?cid=0x0:0x7306a45e7f604177,
cafe,Komplek perumahan,Bintauna,"WH4G+472, Unnamed Road, Minanga, Kec. Bintauna, Kabupaten Bolaang Mongondow Utara, Sulawesi Utara","Kabupaten Bolaang Mongondow Utara, Sulawesi Utara",SULAWESI UTARA,,Indonesia,,,,0.905263,123.575646,https://maps.google.com/?cid=0x0:0x84ea50490d8808bd,
cafe,Kedai Kopi,Nongki cafe,"Binjeita I, Kec. Bolang Itang Tim., Kabupaten Bolaang Mongondow Utara, Sulawesi Utara","Kabupaten Bolaang Mongondow Utara, Sulawesi Utara",SULAWESI UTARA,,Indonesia,82177988885.0,,,0.8794331,123.4699035,https://maps.google.com/?cid=0x0:0x4bc2c8cf3fc8bb48,
cafe,Kedai Kopi,SABUA KOPI,"Kopi, Kec. Bintauna, Kabupaten Bolaang Mongondow Utara, Sulawesi Utara 95763","Kec. Bintauna, Kabupaten Bolaang Mongondow Utara",SULAWESI UTARA,95763.0,Indonesia,82349790805.0,,,0.8871437,123.5883039,https://maps.google.com/?cid=0x0:0x32fe514102e4d9f9,
cafe,Kedai Kopi,Kopi Nako Grogol,"Barat Jl. Kyai Tapa No.216 A, Tomang, Kec. Grogol petamburan, Kota Jakarta Barat, Daerah Khusus Ibukota Jakarta 11440","Tomang, Kec. Grogol petamburan, Kota Jakarta Barat",SULAWESI UTARA,11440.0,Indonesia,,,,-6.1669063,106.7943227,https://maps.google.com/?cid=0x0:0xd5300245c51aab5c,
cafe,Restoran,AK Coffee,"VGJW+588, Padang, Kec. Bintauna, Kabupaten Bolaang Mongondow Utara, Sulawesi Utara","Kabupaten Bolaang Mongondow Utara, Sulawesi Utara",SULAWESI UTARA,,Indonesia,,,,0.8804042,123.5458374,https://maps.google.com/?cid=0x0:0x47840f6e7c16e89b,
cafe,Restoran,Kedai Amosa,"VHH4+H3Q, Jl. Trans-Sulawesi, Bunia, Kec. Bintauna, Kabupaten Bolaang Mongondow Utara, Sulawesi Utara","Kabupaten Bolaang Mongondow Utara, Sulawesi Utara",SULAWESI UTARA,,Indonesia,82344113779.0,,,0.8789724,123.555237,https://maps.google.com/?cid=0x0:0xdb95c601be796542,
cafe,Restoran,Cafe GUSNAR,"3, Tombolango, Kec. Sangkub, Kabupaten Bolaang Mongondow Utara, Sulawesi Utara","Kabupaten Bolaang Mongondow Utara, Sulawesi Utara",SULAWESI UTARA,,Indonesia,811431668.0,,,0.8794541,123.6201029,https://maps.google.com/?cid=0x0:0x37c18b5138fe5547,
cafe,Restoran,Kedai Si Gendut,"VHH2+944 Toko Karya Baru, Pimpi, Kec. Bintauna, Kabupaten Bolaang Mongondow Utara, Sulawesi Utara","Kabupaten Bolaang Mongondow Utara, Sulawesi Utara",SULAWESI UTARA,,Indonesia,82187824669.0,,,0.8783984,123.5503365,https://maps.google.com/?cid=0x0:0x83c07d95f8aa6db3,
cafe,Indonesia,Warung makan vaneza,"VFJ4+6Q8, Bohabak III, Kec. Bolang Itang Tim., Kabupaten Bolaang Mongondow Utara, Sulawesi Utara","Kabupaten Bolaang Mongondow Utara, Sulawesi Utara",SULAWESI UTARA,,Indonesia,,,,0.8805369,123.4569378,https://maps.google.com/?cid=0x0:0x7dbbc9f86771b70,
cafe,Brunch,Warung Kopi azzam,"VFJ5+7CM, Bohabak III, Kec. Bolang Itang Tim., Kabupaten Bolaang Mongondow Utara, Sulawesi Utara","Kabupaten Bolaang Mongondow Utara, Sulawesi Utara",SULAWESI UTARA,,Indonesia,85299910616.0,,,0.88071,123.458543,https://maps.google.com/?cid=0x0:0x1c133870a9cd27e1,
cafe,Restoran,Karunia,"WH2R+P58, Jl. Trans-Sulawesi, Busisingo Utara, Kec. Bintauna, Kabupaten Bolaang Mongondow Utara, Sulawesi Utara","Kabupaten Bolaang Mongondow Utara, Sulawesi Utara",SULAWESI UTARA,,Indonesia,,,,0.9017909,123.5904499,https://maps.google.com/?cid=0x0:0xc7fd8a4ec09c5168,
cafe,cafe,Tongkrongan Baru Tergacor - Tobrut888,"Bohabak III, Kec. Bolang Itang Tim., Kabupaten Bolaang Mongondow Utara, Sulawesi Barat 95764","Kec. Bolang Itang Tim., Kabupaten Bolaang Mongondow Utara",SULAWESI UTARA,95764.0,Indonesia,87824603800.0,,,0.8761878,123.4621756,https://maps.google.com/?cid=0x0:0xc58b402dd50eee2e,
cafe,Restoran,Rm.MaAnjas,"VGHC+MXV, Jl. Trans-Sulawesi, Bunong, Kec. Bintauna, Kabupaten Bolaang Mongondow Utara, Sulawesi Utara","Kabupaten Bolaang Mongondow Utara, Sulawesi Utara",SULAWESI UTARA,,Indonesia,,,,0.8792478,123.5224302,https://maps.google.com/?cid=0x0:0x27d77e1b65943ae5,
cafe,Taman Komunitas,Tempat NONGKRONG,"W52H+JFJ, Dengi, Kec. Pinogaluman, Kabupaten Bolaang Mongondow Utara, Sulawesi Utara","Kabupaten Bolaang Mongondow Utara, Sulawesi Utara",SULAWESI UTARA,,Indonesia,,,,0.9015894,123.1786479,https://maps.google.com/?cid=0x0:0x49aa707bca3ffa63,
cafe,cafe,Kopi,"Kec. Bintauna, Kabupaten Bolaang Mongondow Utara, Sulawesi Utara","Kabupaten Bolaang Mongondow Utara, Sulawesi Utara",SULAWESI UTARA,,Indonesia,,,,0.7457806,123.6735151,https://maps.google.com/?cid=0x0:0xab09a4be2cdb8ada,
cafe,Toko Perlengkapan Rumah,Bian Market,"VFJV+XH7, Biontong, Kec. Bolang Itang Tim., Kabupaten Bolaang Mongondow Utara, Sulawesi Utara","Kabupaten Bolaang Mongondow Utara, Sulawesi Utara",SULAWESI UTARA,,Indonesia,,,,0.8824062,123.4939097,https://maps.google.com/?cid=0x0:0xc25297a60ec48ad3,
cafe,Restoran,Bakso Bakar Voa'a,"Voa'a, Kec. Bintauna, Kabupaten Bolaang Mongondow Utara, Sulawesi Utara","Kabupaten Bolaang Mongondow Utara, Sulawesi Utara",SULAWESI UTARA,,Indonesia,85824039099.0,,,0.881784,123.5413473,https://maps.google.com/?cid=0x0:0x9c46118cfe76a8ad,
cafe,Restoran,MORPHIC COFFE HOUSE,"Tutuyan, Kec. Tutuyan, Kabupaten Bolaang Mongondow Timur, Sulawesi Utara","Kabupaten Bolaang Mongondow Timur, Sulawesi Utara",SULAWESI UTARA,,Indonesia,,,,0.7615435,124.6137736,https://maps.google.com/?cid=0x0:0x90ae3205501e9094,
cafe,Kafe,D'Bolang Resto  Coffee Shop,"Jl. Manggis, Tenjoayu, Kec. Cicurug, Kabupaten Sukabumi, Jawa Barat 43359","Tenjoayu, Kec. Cicurug, Kabupaten Sukabumi",SULAWESI UTARA,43359.0,Indonesia,816999730.0,,,-6.7714162,106.8169778,https://maps.google.com/?cid=0x0:0x59df738eef1b2ac4,
cafe,Kedai Kopi,Warung Kopi Aming,"PVW3+CFF, Jl. DPR Raya, RT.12/RW.5, Rawajati, Kec. Pancoran, Kota Jakarta Selatan, Daerah Khusus Ibukota Jakarta 12750","Jl. DPR Raya, RT.12/RW.5, Rawajati, Kec. Pancoran, Kota Jakarta Selatan",SULAWESI UTARA,12750.0,Indonesia,,,,-6.2539252,106.8536819,https://maps.google.com/?cid=0x0:0x658ee94dd2247dc5,
cafe,Kafe,My home,"VGJJ+58V, Kuhanga, Kec. Bintauna, Kabupaten Bolaang Mongondow Utara, Sulawesi Utara","Kabupaten Bolaang Mongondow Utara, Sulawesi Utara",SULAWESI UTARA,,Indonesia,,,,0.8804831,123.5308076,https://maps.google.com/?cid=0x0:0xf1ec22a4898e6067,
cafe,Es Krim,Kafee basantai,"HGXR+7C9, Nuangan, Kec. Nuangan, Kabupaten Bolaang Mongondow Timur, Sulawesi Utara","Kabupaten Bolaang Mongondow Timur, Sulawesi Utara",SULAWESI UTARA,,Indonesia,,,,0.598157,124.5411,https://maps.google.com/?cid=0x0:0x1e61831206b39297,
cafe,Kafe,Cafe  Resto Bintang,"M7VF+HHV, Kopandakan II, Kec. Lolayan, Kabupaten Bolaang Mongondow, Sulawesi Utara","Kabupaten Bolaang Mongondow, Sulawesi Utara",SULAWESI UTARA,,Indonesia,,,,0.6939992,124.2739084,https://maps.google.com/?cid=0x0:0x60a16c1cfad83afd,
cafe,Grosir Kopi,Mobalang Coffee Plantation,"J8XW+V3V, Bongkudai, Kec. Modayag Bar., Kabupaten Bolaang Mongondow Timur, Sulawesi Utara","Kabupaten Bolaang Mongondow Timur, Sulawesi Utara",SULAWESI UTARA,,Indonesia,,,,0.6497257,124.3451684,https://maps.google.com/?cid=0x0:0x3d14795fee101bb0,
cafe,Kedai Kopi,MOTANOB COFFEE,"J39M+Q42, Dumoga, Kec. Dumoga Tim., Kabupaten Bolaang Mongondow, Sulawesi Utara","Kabupaten Bolaang Mongondow, Sulawesi Utara",SULAWESI UTARA,,Indonesia,,,,0.6193875,124.0827656,https://maps.google.com/?cid=0x0:0x55cc5d685ebb4928,
cafe,Sulawesi Selatan,Warung Coto Asyafhia,"VHWQ+V5H, Jl. Trans-Sulawesi, Bintauna Pantai, Kec. Bintauna, Kabupaten Bolaang Mongondow Utara, Sulawesi Utara","Kabupaten Bolaang Mongondow Utara, Sulawesi Utara",SULAWESI UTARA,,Indonesia,82259177339.0,,,0.8975612,123.5878749,https://maps.google.com/?cid=0x0:0xd6eabc7e207e2cf7,
cafe,Kedai Kopi,Kedai Binuni,"V2C3+V8F Depan Mesjid Ar-Rayan, Jl. Trans-Sulawesi, Mongkoinit, Kec. Lolak, Kabupaten Bolaang Mongondow, Sulawesi Utara","Kabupaten Bolaang Mongondow, Sulawesi Utara",SULAWESI UTARA,,Indonesia,,,,0.8721922,124.0032979,https://maps.google.com/?cid=0x0:0x4671372bfdcd9756,
cafe,Kolam Memancing,Pemancingan ikan Nila AL,"VXJ3+XFM, RT.1/RW.4, Marunda, Kec. Cilincing, Jkt Utara, Daerah Khusus Ibukota Jakarta 14150","RT.1/RW.4, Marunda, Kec. Cilincing, Jkt Utara",SULAWESI UTARA,14150.0,Indonesia,,,,-6.117543,106.9536719,https://maps.google.com/?cid=0x0:0x68fb54805516f6a6,
cafe,cafe,Kec. Bolang Itang Bar.,"Kabupaten Bolaang Mongondow Utara, Sulawesi Utara","Kabupaten Bolaang Mongondow Utara, Sulawesi Utara",SULAWESI UTARA,,Indonesia,,,,0.9075668,123.3055527,https://maps.google.com/?cid=0x0:0x17cd151ba51a2f1e,
cafe,Kedai Kopi,Balotta Caffe Shop,"V8W8+V9R, Jl. Trans-Sulawesi, Langi, Kec. Bolang Itang Bar., Kabupaten Bolaang Mongondow Utara, Sulawesi Utara","Kabupaten Bolaang Mongondow Utara, Sulawesi Utara",SULAWESI UTARA,,Indonesia,85346076546.0,,,0.8972466,123.3158764,https://maps.google.com/?cid=0x0:0xb2875324761c88df,
cafe,Rumah Makan,Citra Cafe,"W77F+RJJ Citra Cafe, Boroko Tim., Kec. Kaidipang, Kabupaten Bolaang Mongondow Utara, Sulawesi Utara","Kabupaten Bolaang Mongondow Utara, Sulawesi Utara",SULAWESI UTARA,,Indonesia,,,,0.9145996,123.2740167,https://maps.google.com/?cid=0x0:0xff340fee21cc14fb,
cafe,Indonesia,Bikini Bottem Cafe,"Pantai Batu Pinagut, East Boroko, Kaidipang, North Bolaang Mongondow Regency, North Sulawesi","Kabupaten Bolaang Mongondow Utara, Sulawesi Utara",SULAWESI UTARA,,Indonesia,,,,0.9152521,123.2725736,https://maps.google.com/?cid=0x0:0xac4fc73f5f807d00,
cafe,Kafe,Cafe  Resto Coconut Beach,"Boroko Utara, Jl. Trans-Sulawesi, Kaidipang, North Bolaang Mongondow Regency, North Sulawesi 95765","Jl. Trans-Sulawesi, Kaidipang, North Bolaang Mongondow Regency",SULAWESI UTARA,95765.0,Indonesia,82351381099.0,,,0.9156591,123.2713937,https://maps.google.com/?cid=0x0:0xe986a501ebdd25a8,
cafe,Komplek perumahan,Desa Tote,"W83R+2MW, Jl. Trans-Sulawesi, Tote, Kec. Bolang Itang Bar., Kabupaten Bolaang Mongondow Utara, Sulawesi Utara","Kabupaten Bolaang Mongondow Utara, Sulawesi Utara",SULAWESI UTARA,,Indonesia,,,,0.9026042,123.3417056,https://maps.google.com/?cid=0x0:0xea13f819ac8e4f02,
cafe,Restoran,Pogogusato Coffee  Food,"Jl. Pomolanggo No.321, Boroko, Kec. Kaidipang, Kabupaten Bolaang Mongondow Utara, Sulawesi Utara 95765","Boroko, Kec. Kaidipang, Kabupaten Bolaang Mongondow Utara",SULAWESI UTARA,95765.0,Indonesia,82293228181.0,,,0.9108744,123.2641745,https://maps.google.com/?cid=0x0:0xa020eed330328384,
cafe,Restoran,Kediri House Cafe  Resto,"W83P+2PR, Jl. Trans-Sulawesi, Tote, Kec. Bolang Itang Bar., Kabupaten Bolaang Mongondow Utara, Sulawesi Utara","Kabupaten Bolaang Mongondow Utara, Sulawesi Utara",SULAWESI UTARA,,Indonesia,82347944522.0,,,0.9026179,123.3367758,https://maps.google.com/?cid=0x0:0x501ce30921330119,
cafe,Kedai Kopi,Nongki cafe,"Binjeita I, Kec. Bolang Itang Tim., Kabupaten Bolaang Mongondow Utara, Sulawesi Utara","Kabupaten Bolaang Mongondow Utara, Sulawesi Utara",SULAWESI UTARA,,Indonesia,82177988885.0,,,0.8794331,123.4699035,https://maps.google.com/?cid=0x0:0x4bc2c8cf3fc8bb48,
cafe,Kafe,Cafe,"Boroko, Kec. Kaidipang, Kabupaten Bolaang Mongondow Utara, Sulawesi Utara 95765","Kec. Kaidipang, Kabupaten Bolaang Mongondow Utara",SULAWESI UTARA,95765.0,Indonesia,82198319883.0,,,0.9182362,123.2694678,https://maps.google.com/?cid=0x0:0x776e6053190b42b7,
cafe,Kedai Kopi,lorong menara,"W76C+3J2, Boroko Tim., Kec. Kaidipang, Kabupaten Bolaang Mongondow Utara, Sulawesi Utara","Kabupaten Bolaang Mongondow Utara, Sulawesi Utara",SULAWESI UTARA,,Indonesia,82347130138.0,,,0.9101408,123.2715187,https://maps.google.com/?cid=0x0:0x18446661e99cc302,
cafe,Kedai Kopi,Kedai RM.Abil,"W82M+WFF, Tanjung Buaya, Kec. Bolang Itang Bar., Kabupaten Bolaang Mongondow Utara, Sulawesi Utara","Kabupaten Bolaang Mongondow Utara, Sulawesi Utara",SULAWESI UTARA,,Indonesia,,,,0.9021509,123.332775,https://maps.google.com/?cid=0x0:0x895c6dcbad81b79d,
cafe,Tujuan Wisata,D'teras pinagut,"W799+5RH, Boroko, Kec. Kaidipang, Kabupaten Bolaang Mongondow Utara, Sulawesi Utara","Kabupaten Bolaang Mongondow Utara, Sulawesi Utara",SULAWESI UTARA,,Indonesia,82198319883.0,,,0.9179375,123.2696094,https://maps.google.com/?cid=0x0:0x217e6de5a2189a5b,
cafe,cafe,Kantin Ma Fira,"W855+HWG, Bolangitang I, Kec. Bolang Itang Bar., Kabupaten Bolaang Mongondow Utara, Sulawesi Utara","Kabupaten Bolaang Mongondow Utara, Sulawesi Utara",SULAWESI UTARA,,Indonesia,,,,0.9089786,123.3097556,https://maps.google.com/?cid=0x0:0x1664b5cf70cef42d,
cafe,cafe,Tongkrongan Baru Tergacor - Tobrut888,"Bohabak III, Kec. Bolang Itang Tim., Kabupaten Bolaang Mongondow Utara, Sulawesi Barat 95764","Kec. Bolang Itang Tim., Kabupaten Bolaang Mongondow Utara",SULAWESI UTARA,95764.0,Indonesia,87824603800.0,,,0.8761878,123.4621756,https://maps.google.com/?cid=0x0:0xc58b402dd50eee2e,
cafe,Indonesia,DCOAST REMAKE,"W77G+F3, Boroko Tim., Kec. Kaidipang, Kabupaten Bolaang Mongondow Utara, Sulawesi Utara","Kabupaten Bolaang Mongondow Utara, Sulawesi Utara",SULAWESI UTARA,,Indonesia,,,,0.9136145,123.2759477,https://maps.google.com/?cid=0x0:0xd7f2b67888a20166,
cafe,Rumah Makan,RM. Wargo,"W852+6J6, Bolangitang, Kec. Bolang Itang Bar., Kabupaten Bolaang Mongondow Utara, Sulawesi Utara","Kabupaten Bolaang Mongondow Utara, Sulawesi Utara",SULAWESI UTARA,,Indonesia,,,,0.9080495,123.3015216,https://maps.google.com/?cid=0x0:0xc4a9bdb09cfdfd2c,
cafe,Restoran,D'philocoffee,"W74F+JCC, Kuala, Kec. Kaidipang, Kabupaten Bolaang Mongondow Utara, Sulawesi Utara","Kabupaten Bolaang Mongondow Utara, Sulawesi Utara",SULAWESI UTARA,,Indonesia,,,,0.9065577,123.2735035,https://maps.google.com/?cid=0x0:0x70991c658bddced6,
cafe,Rumah Makan,Cafe  Resto Roeang Seduh Ayam Geprek,"W825+583, Jl. Trans-Sulawesi, Jambu Sarang, Kec. Bolang Itang Bar., Kabupaten Bolaang Mongondow Utara, Sulawesi Utara","Kabupaten Bolaang Mongondow Utara, Sulawesi Utara",SULAWESI UTARA,,Indonesia,,,,0.900394,123.308298,https://maps.google.com/?cid=0x0:0x6bd389f3bdd33bc2,
cafe,Brunch,Kantin Al Hafiz,"VCR2+R3R, Saleo Satu, Kec. Bolang Itang Tim., Kabupaten Bolaang Mongondow Utara, Sulawesi Utara","Kabupaten Bolaang Mongondow Utara, Sulawesi Utara",SULAWESI UTARA,,Indonesia,85397873547.0,,,0.8921015,123.400133,https://maps.google.com/?cid=0x0:0x3a2e62161b351066,
cafe,Kedai Kopi,Bakso Baraya,"V8P8+QH6, Sonuo, Kec. Bolang Itang Bar., Kabupaten Bolaang Mongondow Utara, Sulawesi Utara","Kabupaten Bolaang Mongondow Utara, Sulawesi Utara",SULAWESI UTARA,,Indonesia,82122141981.0,,,0.886913,123.3164036,https://maps.google.com/?cid=0x0:0xe6e926c0af44e4b9,
cafe,Kedai Kopi,Saung Bakso,"V8P8+QH6, Unnamed Road, Sonuo, Kec. Bolang Itang Bar., Kabupaten Bolaang Mongondow Utara, Sulawesi Utara","Kabupaten Bolaang Mongondow Utara, Sulawesi Utara",SULAWESI UTARA,,Indonesia,82353299836.0,,,0.886918,123.316405,https://maps.google.com/?cid=0x0:0x295cdb2a6e48a741,
cafe,Kedai Kopi,Warung Mas Doger,"V7XX+X4M, Talaga Tomoagu, Kec. Bolang Itang Bar., Kabupaten Bolaang Mongondow Utara, Sulawesi Utara","Kabupaten Bolaang Mongondow Utara, Sulawesi Utara",SULAWESI UTARA,,Indonesia,,,,0.9000588,123.2977342,https://maps.google.com/?cid=0x0:0x6de020ca96a297dc,
cafe,Kafe,Arch coffee,"Boroko Tim., Kec. Kaidipang, Kabupaten Bolaang Mongondow Utara, Sulawesi Utara","Kabupaten Bolaang Mongondow Utara, Sulawesi Utara",SULAWESI UTARA,,Indonesia,,,,0.9102099,123.2713659,https://maps.google.com/?cid=0x0:0x696a74f48e1b3006,
cafe,Minimarket,Hobbies Lesehan,"W739+RMR, Bigo, Trans, Kabupaten Bolaang Mongondow Utara, Sulawesi Utara","Kabupaten Bolaang Mongondow Utara, Sulawesi Utara",SULAWESI UTARA,,Indonesia,82190260730.0,,,0.9046045,123.2691527,https://maps.google.com/?cid=0x0:0x308de337b8f12bd1,
cafe,cafe,Kec. Bolang Itang Tim.,"Kabupaten Bolaang Mongondow Utara, Sulawesi Utara","Kabupaten Bolaang Mongondow Utara, Sulawesi Utara",SULAWESI UTARA,,Indonesia,,,,0.8798076,123.4530257,https://maps.google.com/?cid=0x0:0x73767b2b7d690727,
cafe,Kafe,Wakatta Cafe n Resto,"V9VV+P37, Jl. Trans-Sulawesi, Nunuka, Kec. Bolang Itang Tim., Kabupaten Bolaang Mongondow Utara, Sulawesi Utara","Kabupaten Bolaang Mongondow Utara, Sulawesi Utara",SULAWESI UTARA,,Indonesia,8114313666.0,,,0.8942903,123.3926695,https://maps.google.com/?cid=0x0:0x44a14d89eff414ab,
cafe,Kedai Kopi,Nongki cafe,"Binjeita I, Kec. Bolang Itang Tim., Kabupaten Bolaang Mongondow Utara, Sulawesi Utara","Kabupaten Bolaang Mongondow Utara, Sulawesi Utara",SULAWESI UTARA,,Indonesia,82177988885.0,,,0.8794331,123.4699035,https://maps.google.com/?cid=0x0:0x4bc2c8cf3fc8bb48,
cafe,Kedai Kopi,Balotta Caffe Shop,"V8W8+V9R, Jl. Trans-Sulawesi, Langi, Kec. Bolang Itang Bar., Kabupaten Bolaang Mongondow Utara, Sulawesi Utara","Kabupaten Bolaang Mongondow Utara, Sulawesi Utara",SULAWESI UTARA,,Indonesia,85346076546.0,,,0.8972466,123.3158764,https://maps.google.com/?cid=0x0:0xb2875324761c88df,
cafe,Brunch,Kantin Al Hafiz,"VCR2+R3R, Saleo Satu, Kec. Bolang Itang Tim., Kabupaten Bolaang Mongondow Utara, Sulawesi Utara","Kabupaten Bolaang Mongondow Utara, Sulawesi Utara",SULAWESI UTARA,,Indonesia,85397873547.0,,,0.8921015,123.400133,https://maps.google.com/?cid=0x0:0x3a2e62161b351066,
cafe,Restoran,CAFE BEACH,"W77F+X6W, Boroko Tim., Kec. Kaidipang, Kabupaten Bolaang Mongondow Utara, Sulawesi Utara","Kabupaten Bolaang Mongondow Utara, Sulawesi Utara",SULAWESI UTARA,,Indonesia,85342447447.0,,,0.9149823,123.2730912,https://maps.google.com/?cid=0x0:0x209529e2280c7c06,
cafe,cafe,Tongkrongan Baru Tergacor - Tobrut888,"Bohabak III, Kec. Bolang Itang Tim., Kabupaten Bolaang Mongondow Utara, Sulawesi Barat 95764","Kec. Bolang Itang Tim., Kabupaten Bolaang Mongondow Utara",SULAWESI UTARA,95764.0,Indonesia,87824603800.0,,,0.8761878,123.4621756,https://maps.google.com/?cid=0x0:0xc58b402dd50eee2e,
cafe,Kafe,Cafe  Resto Coconut Beach,"Boroko Utara, Jl. Trans-Sulawesi, Kaidipang, North Bolaang Mongondow Regency, North Sulawesi 95765","Jl. Trans-Sulawesi, Kaidipang, North Bolaang Mongondow Regency",SULAWESI UTARA,95765.0,Indonesia,82351381099.0,,,0.9156591,123.2713937,https://maps.google.com/?cid=0x0:0xe986a501ebdd25a8,
cafe,Rumah Makan,Citra Cafe,"W77F+RJJ Citra Cafe, Boroko Tim., Kec. Kaidipang, Kabupaten Bolaang Mongondow Utara, Sulawesi Utara","Kabupaten Bolaang Mongondow Utara, Sulawesi Utara",SULAWESI UTARA,,Indonesia,,,,0.9145996,123.2740167,https://maps.google.com/?cid=0x0:0xff340fee21cc14fb,
cafe,Komplek perumahan,Desa Tote,"W83R+2MW, Jl. Trans-Sulawesi, Tote, Kec. Bolang Itang Bar., Kabupaten Bolaang Mongondow Utara, Sulawesi Utara","Kabupaten Bolaang Mongondow Utara, Sulawesi Utara",SULAWESI UTARA,,Indonesia,,,,0.9026042,123.3417056,https://maps.google.com/?cid=0x0:0xea13f819ac8e4f02,
cafe,Rumah Makan,Warung Ungu,"VFJ4+6Q8, Bohabak III, Kec. Bolang Itang Tim., Kabupaten Bolaang Mongondow Utara, Sulawesi Utara","Kabupaten Bolaang Mongondow Utara, Sulawesi Utara",SULAWESI UTARA,,Indonesia,,,,0.8807069,123.457308,https://maps.google.com/?cid=0x0:0xace24177dfa24e22,
cafe,Toko Perlengkapan Rumah,Bian Market,"VFJV+XH7, Biontong, Kec. Bolang Itang Tim., Kabupaten Bolaang Mongondow Utara, Sulawesi Utara","Kabupaten Bolaang Mongondow Utara, Sulawesi Utara",SULAWESI UTARA,,Indonesia,,,,0.8824062,123.4939097,https://maps.google.com/?cid=0x0:0xc25297a60ec48ad3,
cafe,Restoran,Cafe Sarjana,"VHH2+V7C, Jl. Trans-Sulawesi, Pimpi, Kec. Bintauna, Kabupaten Bolaang Mongondow Utara, Sulawesi Utara","Kabupaten Bolaang Mongondow Utara, Sulawesi Utara",SULAWESI UTARA,,Indonesia,85343520111.0,,,0.8796971,123.5506327,https://maps.google.com/?cid=0x0:0x7306a45e7f604177,
cafe,Indonesia,Warung makan vaneza,"VFJ4+6Q8, Bohabak III, Kec. Bolang Itang Tim., Kabupaten Bolaang Mongondow Utara, Sulawesi Utara","Kabupaten Bolaang Mongondow Utara, Sulawesi Utara",SULAWESI UTARA,,Indonesia,,,,0.8805369,123.4569378,https://maps.google.com/?cid=0x0:0x7dbbc9f86771b70,
cafe,Indonesia,Bikini Bottem Cafe,"Pantai Batu Pinagut, East Boroko, Kaidipang, North Bolaang Mongondow Regency, North Sulawesi","Kabupaten Bolaang Mongondow Utara, Sulawesi Utara",SULAWESI UTARA,,Indonesia,,,,0.9152521,123.2725736,https://maps.google.com/?cid=0x0:0xac4fc73f5f807d00,
cafe,Brunch,Warung Kopi azzam,"VFJ5+7CM, Bohabak III, Kec. Bolang Itang Tim., Kabupaten Bolaang Mongondow Utara, Sulawesi Utara","Kabupaten Bolaang Mongondow Utara, Sulawesi Utara",SULAWESI UTARA,,Indonesia,85299910616.0,,,0.88071,123.458543,https://maps.google.com/?cid=0x0:0x1c133870a9cd27e1,
cafe,Rumah Makan,Cafe  Resto Roeang Seduh Ayam Geprek,"W825+583, Jl. Trans-Sulawesi, Jambu Sarang, Kec. Bolang Itang Bar., Kabupaten Bolaang Mongondow Utara, Sulawesi Utara","Kabupaten Bolaang Mongondow Utara, Sulawesi Utara",SULAWESI UTARA,,Indonesia,,,,0.900394,123.308298,https://maps.google.com/?cid=0x0:0x6bd389f3bdd33bc2,
cafe,Restoran,AK Coffee,"VGJW+588, Padang, Kec. Bintauna, Kabupaten Bolaang Mongondow Utara, Sulawesi Utara","Kabupaten Bolaang Mongondow Utara, Sulawesi Utara",SULAWESI UTARA,,Indonesia,,,,0.8804042,123.5458374,https://maps.google.com/?cid=0x0:0x47840f6e7c16e89b,
cafe,Indonesia,DCOAST REMAKE,"W77G+F3, Boroko Tim., Kec. Kaidipang, Kabupaten Bolaang Mongondow Utara, Sulawesi Utara","Kabupaten Bolaang Mongondow Utara, Sulawesi Utara",SULAWESI UTARA,,Indonesia,,,,0.9136145,123.2759477,https://maps.google.com/?cid=0x0:0xd7f2b67888a20166,
cafe,Brunch,Kantin Sitty,"V9RX+RQM, Saleo, Kec. Bolang Itang Tim., Kabupaten Bolaang Mongondow Utara, Sulawesi Utara","Kabupaten Bolaang Mongondow Utara, Sulawesi Utara",SULAWESI UTARA,,Indonesia,,,,0.8920818,123.399423,https://maps.google.com/?cid=0x0:0xb3c91adcb697f82a,
cafe,Restoran,Pogogusato Coffee  Food,"Jl. Pomolanggo No.321, Boroko, Kec. Kaidipang, Kabupaten Bolaang Mongondow Utara, Sulawesi Utara 95765","Boroko, Kec. Kaidipang, Kabupaten Bolaang Mongondow Utara",SULAWESI UTARA,95765.0,Indonesia,82293228181.0,,,0.9108744,123.2641745,https://maps.google.com/?cid=0x0:0xa020eed330328384,
cafe,Dapur Umum,RM Mospolor Indah,"VCMC+WX2, Binuanga, Kec. Bolang Itang Tim., Kabupaten Bolaang Mongondow Utara, Sulawesi Utara","Kabupaten Bolaang Mongondow Utara, Sulawesi Utara",SULAWESI UTARA,,Indonesia,,,,0.8846867,123.4223826,https://maps.google.com/?cid=0x0:0x2ab08bfca20f0c16,
cafe,Restoran,Rm.cita rasa bunong,"Bunong, Kec. Bintauna, Kabupaten Bolaang Mongondow Utara, Sulawesi Utara","Kabupaten Bolaang Mongondow Utara, Sulawesi Utara",SULAWESI UTARA,,Indonesia,81244686686.0,,,0.8795708,123.5245246,https://maps.google.com/?cid=0x0:0x80898b1a8e7ca7ba,
cafe,Kafe,KIOS HAFIDZ,"QF5Q+PGF, Biontong, Kec. Bolang Itang Tim., Kabupaten Bolaang Mongondow Utara, Sulawesi Utara","Kabupaten Bolaang Mongondow Utara, Sulawesi Utara",SULAWESI UTARA,,Indonesia,,,,0.7593152,123.4887939,https://maps.google.com/?cid=0x0:0x2d602d5ec5e804e0,
cafe,Kedai Kopi,Kedai RM.Abil,"W82M+WFF, Tanjung Buaya, Kec. Bolang Itang Bar., Kabupaten Bolaang Mongondow Utara, Sulawesi Utara","Kabupaten Bolaang Mongondow Utara, Sulawesi Utara",SULAWESI UTARA,,Indonesia,,,,0.9021509,123.332775,https://maps.google.com/?cid=0x0:0x895c6dcbad81b79d,
cafe,Brunch,Kantin SALSABILA,"2, Saleo, Kec. Bolang Itang Tim., Kabupaten Bolaang Mongondow Utara, Sulawesi Utara 95764","Saleo, Kec. Bolang Itang Tim., Kabupaten Bolaang Mongondow Utara",SULAWESI UTARA,95764.0,Indonesia,85255702263.0,,,0.8890344,123.4102052,https://maps.google.com/?cid=0x0:0x75709c0aeb1fe04d,
cafe,cafe,Kec. Kaidipang,"Kabupaten Bolaang Mongondow Utara, Sulawesi Utara","Kabupaten Bolaang Mongondow Utara, Sulawesi Utara",SULAWESI UTARA,,Indonesia,,,,0.9061974,123.2652382,https://maps.google.com/?cid=0x0:0x2e226efafb429867,
cafe,Restoran,CAFE BEACH,"W77F+X6W, Boroko Tim., Kec. Kaidipang, Kabupaten Bolaang Mongondow Utara, Sulawesi Utara","Kabupaten Bolaang Mongondow Utara, Sulawesi Utara",SULAWESI UTARA,,Indonesia,85342447447.0,,,0.9149823,123.2730912,https://maps.google.com/?cid=0x0:0x209529e2280c7c06,
cafe,Rumah Makan,Citra Cafe,"W77F+RJJ Citra Cafe, Boroko Tim., Kec. Kaidipang, Kabupaten Bolaang Mongondow Utara, Sulawesi Utara","Kabupaten Bolaang Mongondow Utara, Sulawesi Utara",SULAWESI UTARA,,Indonesia,,,,0.9145996,123.2740167,https://maps.google.com/?cid=0x0:0xff340fee21cc14fb,
cafe,Restoran,Pogogusato Coffee  Food,"Jl. Pomolanggo No.321, Boroko, Kec. Kaidipang, Kabupaten Bolaang Mongondow Utara, Sulawesi Utara 95765","Boroko, Kec. Kaidipang, Kabupaten Bolaang Mongondow Utara",SULAWESI UTARA,95765.0,Indonesia,82293228181.0,,,0.9108744,123.2641745,https://maps.google.com/?cid=0x0:0xa020eed330328384,
cafe,Indonesia,Bikini Bottem Cafe,"Pantai Batu Pinagut, East Boroko, Kaidipang, North Bolaang Mongondow Regency, North Sulawesi","Kabupaten Bolaang Mongondow Utara, Sulawesi Utara",SULAWESI UTARA,,Indonesia,,,,0.9152521,123.2725736,https://maps.google.com/?cid=0x0:0xac4fc73f5f807d00,
cafe,Kafe,Cafe,"Boroko, Kec. Kaidipang, Kabupaten Bolaang Mongondow Utara, Sulawesi Utara 95765","Kec. Kaidipang, Kabupaten Bolaang Mongondow Utara",SULAWESI UTARA,95765.0,Indonesia,82198319883.0,,,0.9182362,123.2694678,https://maps.google.com/?cid=0x0:0x776e6053190b42b7,
cafe,Restoran,D'philocoffee,"W74F+JCC, Kuala, Kec. Kaidipang, Kabupaten Bolaang Mongondow Utara, Sulawesi Utara","Kabupaten Bolaang Mongondow Utara, Sulawesi Utara",SULAWESI UTARA,,Indonesia,,,,0.9065577,123.2735035,https://maps.google.com/?cid=0x0:0x70991c658bddced6,
cafe,Kafe,KEDAIKU,"W77G+6V7Jl. Trans SulawesiKuala, Kec. Kaidipang, Kabupaten Bolaang Mongondow Utara, Sulawesi Utara 95765","Kec. Kaidipang, Kabupaten Bolaang Mongondow Utara",SULAWESI UTARA,95765.0,Indonesia,81223757320.0,,,0.9130253,123.2775419,https://maps.google.com/?cid=0x0:0x29c383948b40cfaa,
cafe,Restoran,IngkCoffee,"W76M+MGF, Kuala, Kec. Kaidipang, Kabupaten Bolaang Mongondow Utara, Sulawesi Utara","Kabupaten Bolaang Mongondow Utara, Sulawesi Utara",SULAWESI UTARA,,Indonesia,,,,0.9116962,123.2837974,https://maps.google.com/?cid=0x0:0xa5a22557550ddbf9,
cafe,Restoran,HOLISTIC,"Kawasan batu pinagut, Boroko, Kec. Kaidipang, Kabupaten Bolaang Mongondow Utara, Sulawesi Utara 95765","Boroko, Kec. Kaidipang, Kabupaten Bolaang Mongondow Utara",SULAWESI UTARA,95765.0,Indonesia,82187788640.0,,,0.9153958,123.2723314,https://maps.google.com/?cid=0x0:0x83078e8014b465c6,
cafe,Kafe,Arch coffee,"Boroko Tim., Kec. Kaidipang, Kabupaten Bolaang Mongondow Utara, Sulawesi Utara","Kabupaten Bolaang Mongondow Utara, Sulawesi Utara",SULAWESI UTARA,,Indonesia,,,,0.9102099,123.2713659,https://maps.google.com/?cid=0x0:0x696a74f48e1b3006,
cafe,Restoran,Mutiara cafe,"Boroko Tim., Kec. Kaidipang, Kabupaten Bolaang Mongondow Utara, Sulawesi Utara 95765","Kec. Kaidipang, Kabupaten Bolaang Mongondow Utara",SULAWESI UTARA,95765.0,Indonesia,82293933348.0,,,0.9210048,123.2676741,https://maps.google.com/?cid=0x0:0xd0e1e37260a71165,
cafe,Kedai Kopi,Kedai Kopi Localhost,"W739+QQV, Bigo, Kec. Kaidipang, Kabupaten Bolaang Mongondow Utara, Sulawesi Utara","Kabupaten Bolaang Mongondow Utara, Sulawesi Utara",SULAWESI UTARA,,Indonesia,85150535669.0,,,0.9044751,123.2693217,https://maps.google.com/?cid=0x0:0x116afdbef84192e0,
cafe,Dapur Umum,spot AKURAT,"Desa Boroko Timur, Kuala, Kec. Kaidipang, Kabupaten Bolaang Mongondow Utara, Sulawesi Utara 95765","Kuala, Kec. Kaidipang, Kabupaten Bolaang Mongondow Utara",SULAWESI UTARA,95765.0,Indonesia,85240000396.0,,,0.9108087,123.2727287,https://maps.google.com/?cid=0x0:0x9b370fc7840a7122,
cafe,Kedai Kopi,KEDAI KITE,"W749+F4C, Boroko Tim., Kec. Kaidipang, Kabupaten Bolaang Mongondow Utara, Sulawesi Utara","Kabupaten Bolaang Mongondow Utara, Sulawesi Utara",SULAWESI UTARA,,Indonesia,81223842881.0,,,0.9061848,123.2677539,https://maps.google.com/?cid=0x0:0x5c2bbfb9516ef469,
cafe,Kafe,Warkop Basudara,"W747+G9R, Kuala, Kec. Kaidipang, Kabupaten Bolaang Mongondow Utara, Sulawesi Utara","Kabupaten Bolaang Mongondow Utara, Sulawesi Utara",SULAWESI UTARA,,Indonesia,82193272176.0,,,0.9063745,123.2634017,https://maps.google.com/?cid=0x0:0xb25908c0a7282b26,
cafe,Indonesia,DCOAST REMAKE,"W77G+F3, Boroko Tim., Kec. Kaidipang, Kabupaten Bolaang Mongondow Utara, Sulawesi Utara","Kabupaten Bolaang Mongondow Utara, Sulawesi Utara",SULAWESI UTARA,,Indonesia,,,,0.9136145,123.2759477,https://maps.google.com/?cid=0x0:0xd7f2b67888a20166,
cafe,Dapur Umum,RM. Berkah,"Jl. Trans-Sulawesi No.2, Kuala, Kec. Kaidipang, Kabupaten Bolaang Mongondow Utara, Sulawesi Utara","Kabupaten Bolaang Mongondow Utara, Sulawesi Utara",SULAWESI UTARA,,Indonesia,85256328770.0,,,0.9037925,123.2720279,https://maps.google.com/?cid=0x0:0xa8c2c54c7398988e,
cafe,Rumah Makan,TAUFIK SAMUEL,"W74C+V57, Jl. Cendrawasih, Boroko Tim., Kec. Kaidipang, Kabupaten Bolaang Mongondow Utara, Sulawesi Utara","Kabupaten Bolaang Mongondow Utara, Sulawesi Utara",SULAWESI UTARA,,Indonesia,82290444240.0,,,0.9071583,123.2704317,https://maps.google.com/?cid=0x0:0x1664fbc01bd3bb7c,
cafe,Dapur Umum,Rumah Talker,"Masjid Ar Ridho, Jalan, Boroko, Kaidipang, North Bolaang Mongondow Regency, North Sulawesi","Kabupaten Bolaang Mongondow Utara, Sulawesi Utara",SULAWESI UTARA,,Indonesia,,,,0.9122437,123.2678016,https://maps.google.com/?cid=0x0:0xe55ffa9a72d423c9,
cafe,cafe,Kec. Pinogaluman,"Kabupaten Bolaang Mongondow Utara, Sulawesi Utara","Kabupaten Bolaang Mongondow Utara, Sulawesi Utara",SULAWESI UTARA,,Indonesia,,,,0.9178578,123.1401469,https://maps.google.com/?cid=0x0:0x4bec49665b3f40dd,
cafe,Taman Komunitas,Tempat NONGKRONG,"W52H+JFJ, Dengi, Kec. Pinogaluman, Kabupaten Bolaang Mongondow Utara, Sulawesi Utara","Kabupaten Bolaang Mongondow Utara, Sulawesi Utara",SULAWESI UTARA,,Indonesia,,,,0.9015894,123.1786479,https://maps.google.com/?cid=0x0:0x49aa707bca3ffa63,
cafe,Kafe,Cafe  Resto Coconut Beach,"Boroko Utara, Jl. Trans-Sulawesi, Kaidipang, North Bolaang Mongondow Regency, North Sulawesi 95765","Jl. Trans-Sulawesi, Kaidipang, North Bolaang Mongondow Regency",SULAWESI UTARA,95765.0,Indonesia,82351381099.0,,,0.9156591,123.2713937,https://maps.google.com/?cid=0x0:0xe986a501ebdd25a8,
cafe,Kafe,Warung Pojok Dua Pirang,"W4FR+3VQ, Buko, Kec. Pinogaluman, Kabupaten Bolaang Mongondow Utara, Sulawesi Utara","Kabupaten Bolaang Mongondow Utara, Sulawesi Utara",SULAWESI UTARA,,Indonesia,,,,0.9227141,123.1422403,https://maps.google.com/?cid=0x0:0xdfd02fb994844bf6,
cafe,Restoran,CAFE BEACH,"W77F+X6W, Boroko Tim., Kec. Kaidipang, Kabupaten Bolaang Mongondow Utara, Sulawesi Utara","Kabupaten Bolaang Mongondow Utara, Sulawesi Utara",SULAWESI UTARA,,Indonesia,85342447447.0,,,0.9149823,123.2730912,https://maps.google.com/?cid=0x0:0x209529e2280c7c06,
cafe,Toko umum,WARUNG DEV,"W4CR+W8X, Unnamed Road, Buko, Kec. Pinogaluman, Kabupaten Bolaang Mongondow Utara, Sulawesi Utara 96253","Unnamed Road, Buko, Kec. Pinogaluman, Kabupaten Bolaang Mongondow Utara",SULAWESI UTARA,96253.0,Indonesia,,,,0.9223594,123.1408489,https://maps.google.com/?cid=0x0:0xb6f32c4e39398a46,
cafe,Rumah Makan,Citra Cafe,"W77F+RJJ Citra Cafe, Boroko Tim., Kec. Kaidipang, Kabupaten Bolaang Mongondow Utara, Sulawesi Utara","Kabupaten Bolaang Mongondow Utara, Sulawesi Utara",SULAWESI UTARA,,Indonesia,,,,0.9145996,123.2740167,https://maps.google.com/?cid=0x0:0xff340fee21cc14fb,
cafe,Restoran,D'philocoffee,"W74F+JCC, Kuala, Kec. Kaidipang, Kabupaten Bolaang Mongondow Utara, Sulawesi Utara","Kabupaten Bolaang Mongondow Utara, Sulawesi Utara",SULAWESI UTARA,,Indonesia,,,,0.9065577,123.2735035,https://maps.google.com/?cid=0x0:0x70991c658bddced6,
cafe,Indonesia,Bikini Bottem Cafe,"Pantai Batu Pinagut, East Boroko, Kaidipang, North Bolaang Mongondow Regency, North Sulawesi","Kabupaten Bolaang Mongondow Utara, Sulawesi Utara",SULAWESI UTARA,,Indonesia,,,,0.9152521,123.2725736,https://maps.google.com/?cid=0x0:0xac4fc73f5f807d00,
cafe,Kedai Kopi,Kedai STAR Coffee,"W53M+VF8, Duini, Kec. Pinogaluman, Kabupaten Bolaang Mongondow Utara, Sulawesi Utara","Kabupaten Bolaang Mongondow Utara, Sulawesi Utara",SULAWESI UTARA,,Indonesia,85395776095.0,,,0.9046698,123.1837102,https://maps.google.com/?cid=0x0:0x67ceeb2a5e62237e,
cafe,Toko umum,Warung Li mama,"W45X+6GR, Dalapuli, Kec. Pinogaluman, Kabupaten Bolaang Mongondow Utara, Sulawesi Utara","Kabupaten Bolaang Mongondow Utara, Sulawesi Utara",SULAWESI UTARA,,Indonesia,,,,0.9081204,123.148756,https://maps.google.com/?cid=0x0:0x508d90ad1115874d,
cafe,Kafe,Sharini Karaoke n cafe,"W53J+FVP, Duini, Kec. Pinogaluman, Kabupaten Bolaang Mongondow Utara, Sulawesi Utara","Kabupaten Bolaang Mongondow Utara, Sulawesi Utara",SULAWESI UTARA,,Indonesia,,,,0.9037208,123.1821945,https://maps.google.com/?cid=0x0:0x5050d2cc63f876e6,
cafe,Restoran,HOLISTIC,"Kawasan batu pinagut, Boroko, Kec. Kaidipang, Kabupaten Bolaang Mongondow Utara, Sulawesi Utara 95765","Boroko, Kec. Kaidipang, Kabupaten Bolaang Mongondow Utara",SULAWESI UTARA,95765.0,Indonesia,82187788640.0,,,0.9153958,123.2723314,https://maps.google.com/?cid=0x0:0x83078e8014b465c6,
cafe,Rumah Makan,Rumah makan FARQHA,"Tombulang, Kec. Pinogaluman, Kabupaten Bolaang Mongondow Utara, Sulawesi Utara 12345","Kec. Pinogaluman, Kabupaten Bolaang Mongondow Utara",SULAWESI UTARA,12345.0,Indonesia,82394668120.0,,,0.9178902,123.1305084,https://maps.google.com/?cid=0x0:0x6b131716471e9214,
cafe,Kafe,Cafe,"Boroko, Kec. Kaidipang, Kabupaten Bolaang Mongondow Utara, Sulawesi Utara 95765","Kec. Kaidipang, Kabupaten Bolaang Mongondow Utara",SULAWESI UTARA,95765.0,Indonesia,82198319883.0,,,0.9182362,123.2694678,https://maps.google.com/?cid=0x0:0x776e6053190b42b7,
cafe,Komplek perumahan,Cafe Bar Gogaluman,"X7Q6+C9C, Gogaluman, Kec. Poigar, Kabupaten Bolaang Mongondow, Sulawesi Utara","Kabupaten Bolaang Mongondow, Sulawesi Utara",SULAWESI UTARA,,Indonesia,,,,0.9885528,124.2608865,https://maps.google.com/?cid=0x0:0x221800fadb248994,
cafe,Kedai Kopi,Kedai Kopi Localhost,"W739+QQV, Bigo, Kec. Kaidipang, Kabupaten Bolaang Mongondow Utara, Sulawesi Utara","Kabupaten Bolaang Mongondow Utara, Sulawesi Utara",SULAWESI UTARA,,Indonesia,85150535669.0,,,0.9044751,123.2693217,https://maps.google.com/?cid=0x0:0x116afdbef84192e0,
cafe,Rumah Makan,Rm Dupoer Djakarla,"W42C+XM9, Jl. Trans-Sulawesi, Tontulow, Kec. Pinogaluman, Kabupaten Bolaang Mongondow Utara, Sulawesi Utara 96253","Jl. Trans-Sulawesi, Tontulow, Kec. Pinogaluman, Kabupaten Bolaang Mongondow Utara",SULAWESI UTARA,96253.0,Indonesia,,,,0.9024181,123.1217309,https://maps.google.com/?cid=0x0:0x92a74e8b5995e32f,
cafe,Restoran,Mutiara cafe,"Boroko Tim., Kec. Kaidipang, Kabupaten Bolaang Mongondow Utara, Sulawesi Utara 95765","Kec. Kaidipang, Kabupaten Bolaang Mongondow Utara",SULAWESI UTARA,95765.0,Indonesia,82293933348.0,,,0.9210048,123.2676741,https://maps.google.com/?cid=0x0:0xd0e1e37260a71165,
cafe,Makanan Kecil,Warung tinutuan mama fandy,"W55R+PFJ, Jl. Trans-Sulawesi, Tuntung Tim., Kec. Pinogaluman, Kabupaten Bolaang Mongondow Utara, Sulawesi Utara","Kabupaten Bolaang Mongondow Utara, Sulawesi Utara",SULAWESI UTARA,,Indonesia,85341913336.0,,,0.909341,123.1911483,https://maps.google.com/?cid=0x0:0xa3a70381a8adad30,
cafe,Restoran,IngkCoffee,"W76M+MGF, Kuala, Kec. Kaidipang, Kabupaten Bolaang Mongondow Utara, Sulawesi Utara","Kabupaten Bolaang Mongondow Utara, Sulawesi Utara",SULAWESI UTARA,,Indonesia,,,,0.9116962,123.2837974,https://maps.google.com/?cid=0x0:0xa5a22557550ddbf9,
cafe,Tempat Penjualan Teh,Matodu Wolo,"W56V+JP6, Jl. Trans-Sulawesi, Tuntung Tim., Kec. Pinogaluman, Kabupaten Bolaang Mongondow Utara, Sulawesi Utara","Kabupaten Bolaang Mongondow Utara, Sulawesi Utara",SULAWESI UTARA,,Indonesia,,,,0.9115422,123.1942563,https://maps.google.com/?cid=0x0:0x780e0bc6b641e00a,
cafe,Kedai Kopi,Kedai Daeng,"W46C+5VG, Jl. Trans-Sulawesi, Tontulow Utara, Kec. Pinogaluman, Kabupaten Bolaang Mongondow Utara, Sulawesi Utara 96253","Jl. Trans-Sulawesi, Tontulow Utara, Kec. Pinogaluman, Kabupaten Bolaang Mongondow Utara",SULAWESI UTARA,96253.0,Indonesia,,,,0.9104442,123.1221934,https://maps.google.com/?cid=0x0:0x93dcad180efeac3e,
cafe,Kedai Kopi,O'minanga Resto  Cafe,"W4G4+J3C, Pantai Minanga Utara, Kota Jin, Kec. Atinggola, Kabupaten Gorontalo Utara, Gorontalo 96253","Pantai Minanga Utara, Kota Jin, Kec. Atinggola, Kabupaten Gorontalo Utara",SULAWESI UTARA,96253.0,Indonesia,,,,0.9265663,123.1051468,https://maps.google.com/?cid=0x0:0xb23912ff04f32bfc,
cafe,Kedai Kopi,Balotta Caffe Shop,"V8W8+V9R, Jl. Trans-Sulawesi, Langi, Kec. Bolang Itang Bar., Kabupaten Bolaang Mongondow Utara, Sulawesi Utara","Kabupaten Bolaang Mongondow Utara, Sulawesi Utara",SULAWESI UTARA,,Indonesia,85346076546.0,,,0.8972466,123.3158764,https://maps.google.com/?cid=0x0:0xb2875324761c88df,
cafe,Makanan Kecil,Rm.mie ayam bakso,"W47R+V8R, Dalapuli Bar., Kec. Pinogaluman, Kabupaten Bolaang Mongondow Utara, Sulawesi Utara","Kabupaten Bolaang Mongondow Utara, Sulawesi Utara",SULAWESI UTARA,,Indonesia,,,,0.9147443,123.1407809,https://maps.google.com/?cid=0x0:0xbc88f0e04d359eb2,
cafe,Indonesia,DCOAST REMAKE,"W77G+F3, Boroko Tim., Kec. Kaidipang, Kabupaten Bolaang Mongondow Utara, Sulawesi Utara","Kabupaten Bolaang Mongondow Utara, Sulawesi Utara",SULAWESI UTARA,,Indonesia,,,,0.9136145,123.2759477,https://maps.google.com/?cid=0x0:0xd7f2b67888a20166,
cafe,cafe,Kec. Sangkub,"Kabupaten Bolaang Mongondow Utara, Sulawesi Utara","Kabupaten Bolaang Mongondow Utara, Sulawesi Utara",SULAWESI UTARA,,Indonesia,,,,0.8799509,123.6478886,https://maps.google.com/?cid=0x0:0xded44acee8c90687,
cafe,Restoran,Cafe GUSNAR,"3, Tombolango, Kec. Sangkub, Kabupaten Bolaang Mongondow Utara, Sulawesi Utara","Kabupaten Bolaang Mongondow Utara, Sulawesi Utara",SULAWESI UTARA,,Indonesia,811431668.0,,,0.8794541,123.6201029,https://maps.google.com/?cid=0x0:0x37c18b5138fe5547,
cafe,Kafe,Kawasan wisata Imokima Beach and Caffe Sangkub,"VMM2+3V, Sangkub II, Kec. Sangkub, Kabupaten Bolaang Mongondow Utara, Sulawesi Utara","Kabupaten Bolaang Mongondow Utara, Sulawesi Utara",SULAWESI UTARA,,Indonesia,,,,0.8827269,123.652117,https://maps.google.com/?cid=0x0:0x170e10f6d82312a8,
cafe,Toko bahan makanan,Ci Nang's Kitchen,"VJHX+W9C, Sangkub II, Kec. Sangkub, Kabupaten Bolaang Mongondow Utara, Sulawesi Utara","Kabupaten Bolaang Mongondow Utara, Sulawesi Utara",SULAWESI UTARA,,Indonesia,,,,0.8798228,123.6484016,https://maps.google.com/?cid=0x0:0x970b1ae49071f573,
cafe,Dapur Umum,R.M Dicky,"Jl. Trans-Sulawesi, Tombolango, Kec. Sangkub, Kabupaten Bolaang Mongondow Utara, Sulawesi Utara 95762","Tombolango, Kec. Sangkub, Kabupaten Bolaang Mongondow Utara",SULAWESI UTARA,95762.0,Indonesia,82188322627.0,,,0.8790296,123.6187381,https://maps.google.com/?cid=0x0:0x3f43a7656c2e41e0,
cafe,Kedai Kopi,Home Coffee,"WH2W+JX7, Busisingo Utara, Kec. Sangkub, Kabupaten Bolaang Mongondow Utara, Sulawesi Utara","Kabupaten Bolaang Mongondow Utara, Sulawesi Utara",SULAWESI UTARA,,Indonesia,,,,0.9015325,123.5974069,https://maps.google.com/?cid=0x0:0xf66d306240bfec13,
cafe,Kedai Kopi,SABUA KOPI,"Kopi, Kec. Bintauna, Kabupaten Bolaang Mongondow Utara, Sulawesi Utara 95763","Kec. Bintauna, Kabupaten Bolaang Mongondow Utara",SULAWESI UTARA,95763.0,Indonesia,82349790805.0,,,0.8871437,123.5883039,https://maps.google.com/?cid=0x0:0x32fe514102e4d9f9,
cafe,Dapur Umum,Fast Food Restaurant,"VJH9+MFG, Jl. Trans-Sulawesi, Tombolango, Kec. Sangkub, Kabupaten Bolaang Mongondow Utara, Sulawesi Utara 95762","Jl. Trans-Sulawesi, Tombolango, Kec. Sangkub, Kabupaten Bolaang Mongondow Utara",SULAWESI UTARA,95762.0,Indonesia,,,,0.8791994,123.6186983,https://maps.google.com/?cid=0x0:0xe405eadc0ae00135,
cafe,Kafe,Cafe Payung Sangkub 1,"VJHX+JR4, Sangkub II, Kec. Sangkub, Kabupaten Bolaang Mongondow Utara, Sulawesi Utara","Kabupaten Bolaang Mongondow Utara, Sulawesi Utara",SULAWESI UTARA,,Indonesia,85757511925.0,,,0.879022,123.6495825,https://maps.google.com/?cid=0x0:0x87642aed8b1441c1,
cafe,Restoran,Rumah Makan Hijrah,"WH2R+P2R, Jl. Trans-Sulawesi, Busisingo Utara, Kec. Sangkub, Kabupaten Bolaang Mongondow Utara, Sulawesi Utara","Kabupaten Bolaang Mongondow Utara, Sulawesi Utara",SULAWESI UTARA,,Indonesia,,,,0.9018617,123.5900233,https://maps.google.com/?cid=0x0:0x1f283c678ba76dc7,
cafe,Dapur Umum,RM GORONTALO SANGKUB,"VJHX+X5J, Sangkub II, Kec. Sangkub, Kabupaten Bolaang Mongondow Utara, Sulawesi Utara","Kabupaten Bolaang Mongondow Utara, Sulawesi Utara",SULAWESI UTARA,,Indonesia,,,,0.8799509,123.6478886,https://maps.google.com/?cid=0x0:0x9b8579858186796e,
cafe,cafe,PONDOK 888,"VMH7+CV, Sampiro, Kec. Sangkub, Kabupaten Bolaang Mongondow Utara, Sulawesi Utara","Kabupaten Bolaang Mongondow Utara, Sulawesi Utara",SULAWESI UTARA,,Indonesia,82293427470.0,,,0.87861,123.6646296,https://maps.google.com/?cid=0x0:0x56d9e394a99ebe59,
cafe,Restoran,Rm Felisia,"WH2R+GJH, Busisingo Utara, Kec. Sangkub, Kabupaten Bolaang Mongondow Utara, Sulawesi Utara","Kabupaten Bolaang Mongondow Utara, Sulawesi Utara",SULAWESI UTARA,,Indonesia,8229093123.0,,,0.9013212,123.5916186,https://maps.google.com/?cid=0x0:0xfadd7db89dd4c161,
cafe,Restoran,AK Coffee,"VGJW+588, Padang, Kec. Bintauna, Kabupaten Bolaang Mongondow Utara, Sulawesi Utara","Kabupaten Bolaang Mongondow Utara, Sulawesi Utara",SULAWESI UTARA,,Indonesia,,,,0.8804042,123.5458374,https://maps.google.com/?cid=0x0:0x47840f6e7c16e89b,
cafe,cafe,RM Lintaz Sulawesi,"Busisingo Utara, Kec. Sangkub, Kabupaten Bolaang Mongondow Utara, Sulawesi Utara 95762","Kec. Sangkub, Kabupaten Bolaang Mongondow Utara",SULAWESI UTARA,95762.0,Indonesia,81356500855.0,,,0.9020542,123.5936685,https://maps.google.com/?cid=0x0:0x9feb0a86d9b7a05,
cafe,cafe,Rumah Pak SArendi,"RJPJ+CWX, Pangkusa, Kec. Sangkub, Kabupaten Bolaang Mongondow Utara, Sulawesi Utara","Kabupaten Bolaang Mongondow Utara, Sulawesi Utara",SULAWESI UTARA,,Indonesia,,,,0.8356622,123.6337816,https://maps.google.com/?cid=0x0:0x11defc846522fa96,
cafe,Restoran,Karunia,"WH2R+P58, Jl. Trans-Sulawesi, Busisingo Utara, Kec. Bintauna, Kabupaten Bolaang Mongondow Utara, Sulawesi Utara","Kabupaten Bolaang Mongondow Utara, Sulawesi Utara",SULAWESI UTARA,,Indonesia,,,,0.9017909,123.5904499,https://maps.google.com/?cid=0x0:0xc7fd8a4ec09c5168,
cafe,Restoran,Kedai Azka Fried Chiken,"Jl. Trans-Sulawesi, Sangkub I, Kec. Sangkub, Kabupaten Bolaang Mongondow Utara, Sulawesi Utara 95762","Sangkub I, Kec. Sangkub, Kabupaten Bolaang Mongondow Utara",SULAWESI UTARA,95762.0,Indonesia,82192620236.0,,,0.8788842,123.6499605,https://maps.google.com/?cid=0x0:0xe95cf5cc9fa2c849,
cafe,Kafe,Kedai GR2 Gorong Gorong,"VHG7+P8M, Jl. Trans-Sulawesi, Kopi, Kec. Bintauna, Kabupaten Bolaang Mongondow Utara, Sulawesi Utara","Kabupaten Bolaang Mongondow Utara, Sulawesi Utara",SULAWESI UTARA,,Indonesia,81244455414.0,,,0.8768302,123.5632934,https://maps.google.com/?cid=0x0:0x65ba1cb51fc85606,
cafe,Restoran,RM. Muslim Sederhana,"WH2Q+HWJ, Jl. Trans-Sulawesi, Busisingo Utara, Kec. Sangkub, Kabupaten Bolaang Mongondow Utara, Sulawesi Utara","Kabupaten Bolaang Mongondow Utara, Sulawesi Utara",SULAWESI UTARA,,Indonesia,,,,0.9014659,123.5897753,https://maps.google.com/?cid=0x0:0x2ec08f60cbdf59ed,
