Category,Real Category,Business Name,Address,City,State,Postal Code,Country,Phone,Email,Website,Latitude,Longitude,Map Link,Details Link
building materials,Toko Bahan Bangunan,"Toko Rania,Bahan Bangunan","VHM2+75J, Talaga, Kec. Bintauna, Kabupaten Bolaang Mongondow Utara, Sulawesi Utara","Kabupaten Bolaang Mongondow Utara, Sulawesi Utara",SULAWESI UTARA,,Indonesia,,,,0.8832198,123.5503793,https://maps.google.com/?cid=0x0:0x82bd09d5a612927b,
building materials,,TOKO BINTANG ASIA,"VGH8+W3P, Jl. Trans-Sulawesi, Biontong I, Kec. Bolang Itang Tim., Kabupaten Bolaang Mongondow Utara, Sulawesi Utara","Kabupaten Bolaang Mongondow Utara, Sulawesi Utara",SULAWESI UTARA,,Indonesia,,,,0.8798335,123.5152053,https://maps.google.com/?cid=0x0:0x81b385d3e6261671,
building materials,Toko,Toko Brenda,"VHH5+P95, Bunia, Kec. Bintauna, Kabupaten Bolaang Mongondow Utara, Sulawesi Utara","Kabupaten Bolaang Mongondow Utara, Sulawesi Utara",SULAWESI UTARA,,Indonesia,,,,0.879255,123.5584722,https://maps.google.com/?cid=0x0:0x71df781bcf0ff8ba,
building materials,building materials,Bintauna,"Biontong, Kec. Bolang Itang Tim., Kabupaten Bolaang Mongondow Utara, Sulawesi Utara","Kabupaten Bolaang Mongondow Utara, Sulawesi Utara",SULAWESI UTARA,,Indonesia,,,,0.865688,123.490196,https://maps.google.com/?cid=0x0:0xf16e31ff814e66e4,
building materials,Toko Pakaian,Bin House,"Jalan Purworejo No.10, Menteng, RT.1/RW.6, Dukuh Atas, Menteng, Kec. Menteng, Kota Jakarta Pusat, Daerah Khusus Ibukota Jakarta 10310","Menteng, RT.1/RW.6, Dukuh Atas, Menteng, Kec. Menteng, Kota Jakarta Pusat",SULAWESI UTARA,10310.0,Indonesia,2131934948.0,,,-6.2015929,106.8263221,https://maps.google.com/?cid=0x0:0xaf76306f2f115ea9,
building materials,building materials,Bolangitang,"Kec. Bolang Itang Bar., Kabupaten Bolaang Mongondow Utara, Sulawesi Utara","Kabupaten Bolaang Mongondow Utara, Sulawesi Utara",SULAWESI UTARA,,Indonesia,,,,0.9037345,123.3107313,https://maps.google.com/?cid=0x0:0xac4d872202262b07,
building materials,Toko Bahan Bangunan,Toko Salsabila Ainun,"W855+CMW, I, Bolangitang, Kec. Bolang Itang Bar., Kabupaten Bolaang Mongondow Utara, Sulawesi Utara","Kabupaten Bolaang Mongondow Utara, Sulawesi Utara",SULAWESI UTARA,,Indonesia,,,,0.908624,123.3091891,https://maps.google.com/?cid=0x0:0xa811d25977c05b86,
building materials,Toko Bahan Bangunan,Toko Naulas,"W836+F7X, Bolangitang, Kec. Bolang Itang Bar., Kabupaten Bolaang Mongondow Utara, Sulawesi Utara","Kabupaten Bolaang Mongondow Utara, Sulawesi Utara",SULAWESI UTARA,,Indonesia,,,,0.9037345,123.3107313,https://maps.google.com/?cid=0x0:0x77429f25fd08e7ea,
building materials,Toko Bahan Bangunan,Toko Roffy Jaya,"W73C+H5M, Bigo, Kec. Kaidipang, Kabupaten Bolaang Mongondow Utara, Sulawesi Utara","Kabupaten Bolaang Mongondow Utara, Sulawesi Utara",SULAWESI UTARA,,Indonesia,81225533972.0,,,0.9039635,123.27042,https://maps.google.com/?cid=0x0:0xe200e5b4216a47d2,
building materials,Toko Bahan Bangunan,TOKO BAGUNAN BERKAT MANDIRI,"Bohabak I, Kec. Bolang Itang Tim., Kabupaten Bolaang Mongondow Utara, Sulawesi Utara 95764","Kec. Bolang Itang Tim., Kabupaten Bolaang Mongondow Utara",SULAWESI UTARA,95764.0,Indonesia,82192780897.0,,,0.8800935,123.4553345,https://maps.google.com/?cid=0x0:0x590e31c4c91a9eb2,
building materials,Toko Bahan Bangunan,Toko Fajar Timur,"Jl. Trans-Sulawesi, Kuala, Kec. Kaidipang, Kabupaten Bolaang Mongondow Utara, Sulawesi Utara 95765","Kuala, Kec. Kaidipang, Kabupaten Bolaang Mongondow Utara",SULAWESI UTARA,95765.0,Indonesia,,,,0.9054566,123.272652,https://maps.google.com/?cid=0x0:0xc82c00431f7b07a1,
building materials,Toko Bahan Bangunan,UD.Cahaya Jaya,"W74C+MC7, Jl. Pelabuhan, Boroko Tim., Kec. Kaidipang, Kabupaten Bolaang Mongondow Utara, Sulawesi Utara","Kabupaten Bolaang Mongondow Utara, Sulawesi Utara",SULAWESI UTARA,,Indonesia,,,,0.906664,123.2710384,https://maps.google.com/?cid=0x0:0x7f313351a5353c1a,
building materials,Toko Bahan Bangunan,Toko Babul Rizky,"W74C+FHH, Kuala, Kec. Kaidipang, Kabupaten Bolaang Mongondow Utara, Sulawesi Utara","Kabupaten Bolaang Mongondow Utara, Sulawesi Utara",SULAWESI UTARA,,Indonesia,,,,0.9061913,123.2714797,https://maps.google.com/?cid=0x0:0x6b70789c19fe4d8e,
building materials,Toko Bahan Bangunan,Ud.Putra Karya Jaya,"W747+FXP, Jl. Trans-Sulawesi, Boroko, Kec. Kaidipang, Kabupaten Bolaang Mongondow Utara, Sulawesi Utara","Kabupaten Bolaang Mongondow Utara, Sulawesi Utara",SULAWESI UTARA,,Indonesia,,,,0.9062104,123.2649523,https://maps.google.com/?cid=0x0:0x7066a12242fc63cf,
building materials,Toko Bahan Bangunan,Ud Amanah Jaya,"W74F+33R, Jl. Trans-Sulawesi, Kuala, Kec. Kaidipang, Kabupaten Bolaang Mongondow Utara, Sulawesi Utara 95765","Jl. Trans-Sulawesi, Kuala, Kec. Kaidipang, Kabupaten Bolaang Mongondow Utara",SULAWESI UTARA,95765.0,Indonesia,,,,0.9052389,123.2726349,https://maps.google.com/?cid=0x0:0x84468f5105ed84b4,
building materials,Toko Bahan Bangunan,UD.SINAR NAJWA,"Jalan Trans Sulawesi Manado Gorontalo.36, Keakar, Dusun 1, Boroko, Kec. Kaidipang, Kabupaten Bolaang Mongondow Utara, Sulawesi Utara","Kabupaten Bolaang Mongondow Utara, Sulawesi Utara",SULAWESI UTARA,,Indonesia,82191655859.0,,,0.9052344,123.2556191,https://maps.google.com/?cid=0x0:0x1b430d379f12d434,
building materials,Gedung Apartemen,Gemilang bata merah,"VF5G+RPR Gemilang bata merah, Binjeita, Kec. Bolang Itang Tim., Kabupaten Bolaang Mongondow Utara, Sulawesi Utara","Kabupaten Bolaang Mongondow Utara, Sulawesi Utara",SULAWESI UTARA,,Indonesia,,,,0.8596248,123.4767802,https://maps.google.com/?cid=0x0:0xc9b8aac18ddb8a98,
building materials,,TOKO BINTANG ASIA,"VGH8+W3P, Jl. Trans-Sulawesi, Biontong I, Kec. Bolang Itang Tim., Kabupaten Bolaang Mongondow Utara, Sulawesi Utara","Kabupaten Bolaang Mongondow Utara, Sulawesi Utara",SULAWESI UTARA,,Indonesia,,,,0.8798335,123.5152053,https://maps.google.com/?cid=0x0:0x81b385d3e6261671,
building materials,,Lapak profil gypsum,"Jl. Trans-Sulawesi, Binjeita I, Kec. Bolang Itang Tim., Kabupaten Bolaang Mongondow Utara, Sulawesi Utara 95767","Binjeita I, Kec. Bolang Itang Tim., Kabupaten Bolaang Mongondow Utara",SULAWESI UTARA,95767.0,Indonesia,,,,0.8831289,123.4819923,https://maps.google.com/?cid=0x0:0x26e3f1454d86f5d4,
building materials,Toko Bahan Bangunan,Toko ARNED,"Depan masjid Al-Ikhwan, Bigo, Kec. Kaidipang, Kabupaten Bolaang Mongondow Utara, Sulawesi Utara 95765","Bigo, Kec. Kaidipang, Kabupaten Bolaang Mongondow Utara",SULAWESI UTARA,95765.0,Indonesia,81245024301.0,,,0.9024573,123.2662362,https://maps.google.com/?cid=0x0:0xe47eb7492bdb2b2b,
building materials,Pusat Perbelanjaan,MR.DIY,"Jl. L.G Korompot, East Boroko, Kaidipang, North Bolaang Mongondow Regency, North Sulawesi 95765","East Boroko, Kaidipang, North Bolaang Mongondow Regency",SULAWESI UTARA,95765.0,Indonesia,,,,0.9106199,123.2691347,https://maps.google.com/?cid=0x0:0x890dde17fbec1a2e,
building materials,Toko Bahan Bangunan,Toko Bangunan Dipta,"W55R+77X, Jl. Trans-Sulawesi, Tuntung Tim., Kec. Pinogaluman, Kabupaten Bolaang Mongondow Utara, Sulawesi Utara","Kabupaten Bolaang Mongondow Utara, Sulawesi Utara",SULAWESI UTARA,,Indonesia,,,,0.9082313,123.1907257,https://maps.google.com/?cid=0x0:0x8804fc0c16f5667c,
building materials,building materials,Kec. Bolang Itang Tim.,"Kabupaten Bolaang Mongondow Utara, Sulawesi Utara","Kabupaten Bolaang Mongondow Utara, Sulawesi Utara",SULAWESI UTARA,,Indonesia,,,,0.8798076,123.4530257,https://maps.google.com/?cid=0x0:0x73767b2b7d690727,
building materials,Toko Bahan Bangunan,TOKO BAGUNAN BERKAT MANDIRI,"Bohabak I, Kec. Bolang Itang Tim., Kabupaten Bolaang Mongondow Utara, Sulawesi Utara 95764","Kec. Bolang Itang Tim., Kabupaten Bolaang Mongondow Utara",SULAWESI UTARA,95764.0,Indonesia,82192780897.0,,,0.8800935,123.4553345,https://maps.google.com/?cid=0x0:0x590e31c4c91a9eb2,
building materials,,TOKO BINTANG ASIA,"VGH8+W3P, Jl. Trans-Sulawesi, Biontong I, Kec. Bolang Itang Tim., Kabupaten Bolaang Mongondow Utara, Sulawesi Utara","Kabupaten Bolaang Mongondow Utara, Sulawesi Utara",SULAWESI UTARA,,Indonesia,,,,0.8798335,123.5152053,https://maps.google.com/?cid=0x0:0x81b385d3e6261671,
building materials,,Lapak profil gypsum,"Jl. Trans-Sulawesi, Binjeita I, Kec. Bolang Itang Tim., Kabupaten Bolaang Mongondow Utara, Sulawesi Utara 95767","Binjeita I, Kec. Bolang Itang Tim., Kabupaten Bolaang Mongondow Utara",SULAWESI UTARA,95767.0,Indonesia,,,,0.8831289,123.4819923,https://maps.google.com/?cid=0x0:0x26e3f1454d86f5d4,
building materials,Toko Bahan Bangunan,Toko Salsabila Ainun,"W855+CMW, I, Bolangitang, Kec. Bolang Itang Bar., Kabupaten Bolaang Mongondow Utara, Sulawesi Utara","Kabupaten Bolaang Mongondow Utara, Sulawesi Utara",SULAWESI UTARA,,Indonesia,,,,0.908624,123.3091891,https://maps.google.com/?cid=0x0:0xa811d25977c05b86,
building materials,Toko,Toko Harmonis,"Binjeita, Kec. Bolang Itang Tim., Kabupaten Bolaang Mongondow Utara, Sulawesi Utara","Kabupaten Bolaang Mongondow Utara, Sulawesi Utara",SULAWESI UTARA,,Indonesia,,,,0.8808051,123.4778666,https://maps.google.com/?cid=0x0:0x695b2b2a5aed8398,
building materials,Toko Bahan Bangunan,Toko Naulas,"W836+F7X, Bolangitang, Kec. Bolang Itang Bar., Kabupaten Bolaang Mongondow Utara, Sulawesi Utara","Kabupaten Bolaang Mongondow Utara, Sulawesi Utara",SULAWESI UTARA,,Indonesia,,,,0.9037345,123.3107313,https://maps.google.com/?cid=0x0:0x77429f25fd08e7ea,
building materials,Toko Bahan Bangunan,Toko Roffy Jaya,"W73C+H5M, Bigo, Kec. Kaidipang, Kabupaten Bolaang Mongondow Utara, Sulawesi Utara","Kabupaten Bolaang Mongondow Utara, Sulawesi Utara",SULAWESI UTARA,,Indonesia,81225533972.0,,,0.9039635,123.27042,https://maps.google.com/?cid=0x0:0xe200e5b4216a47d2,
building materials,Kantor Perusahaan,PLTU 2x50 MW Bolaang Mongondow,"VFQ9+5VC, Binjeita II, Kec. Bolang Itang Tim., Kabupaten Bolaang Mongondow Utara, Sulawesi Utara","Kabupaten Bolaang Mongondow Utara, Sulawesi Utara",SULAWESI UTARA,,Indonesia,,,,0.8879488,123.4696461,https://maps.google.com/?cid=0x0:0xd9fc60f0e1e5602,
building materials,Toko Bahan Bangunan,Toko Fajar Timur,"Jl. Trans-Sulawesi, Kuala, Kec. Kaidipang, Kabupaten Bolaang Mongondow Utara, Sulawesi Utara 95765","Kuala, Kec. Kaidipang, Kabupaten Bolaang Mongondow Utara",SULAWESI UTARA,95765.0,Indonesia,,,,0.9054566,123.272652,https://maps.google.com/?cid=0x0:0xc82c00431f7b07a1,
building materials,Toko Bahan Bangunan,"Toko Rania,Bahan Bangunan","VHM2+75J, Talaga, Kec. Bintauna, Kabupaten Bolaang Mongondow Utara, Sulawesi Utara","Kabupaten Bolaang Mongondow Utara, Sulawesi Utara",SULAWESI UTARA,,Indonesia,,,,0.8832198,123.5503793,https://maps.google.com/?cid=0x0:0x82bd09d5a612927b,
building materials,building materials,Kec. Kaidipang,"Kabupaten Bolaang Mongondow Utara, Sulawesi Utara","Kabupaten Bolaang Mongondow Utara, Sulawesi Utara",SULAWESI UTARA,,Indonesia,,,,0.9061974,123.2652382,https://maps.google.com/?cid=0x0:0x2e226efafb429867,
building materials,Toko Bahan Bangunan,Toko Roffy Jaya,"W73C+H5M, Bigo, Kec. Kaidipang, Kabupaten Bolaang Mongondow Utara, Sulawesi Utara","Kabupaten Bolaang Mongondow Utara, Sulawesi Utara",SULAWESI UTARA,,Indonesia,81225533972.0,,,0.9039635,123.27042,https://maps.google.com/?cid=0x0:0xe200e5b4216a47d2,
building materials,Toko Bahan Bangunan,Toko Fajar Timur,"Jl. Trans-Sulawesi, Kuala, Kec. Kaidipang, Kabupaten Bolaang Mongondow Utara, Sulawesi Utara 95765","Kuala, Kec. Kaidipang, Kabupaten Bolaang Mongondow Utara",SULAWESI UTARA,95765.0,Indonesia,,,,0.9054566,123.272652,https://maps.google.com/?cid=0x0:0xc82c00431f7b07a1,
building materials,Toko Bahan Bangunan,Ud.Putra Karya Jaya,"W747+FXP, Jl. Trans-Sulawesi, Boroko, Kec. Kaidipang, Kabupaten Bolaang Mongondow Utara, Sulawesi Utara","Kabupaten Bolaang Mongondow Utara, Sulawesi Utara",SULAWESI UTARA,,Indonesia,,,,0.9062104,123.2649523,https://maps.google.com/?cid=0x0:0x7066a12242fc63cf,
building materials,Toko Bahan Bangunan,UD.SINAR NAJWA,"Jalan Trans Sulawesi Manado Gorontalo.36, Keakar, Dusun 1, Boroko, Kec. Kaidipang, Kabupaten Bolaang Mongondow Utara, Sulawesi Utara","Kabupaten Bolaang Mongondow Utara, Sulawesi Utara",SULAWESI UTARA,,Indonesia,82191655859.0,,,0.9052344,123.2556191,https://maps.google.com/?cid=0x0:0x1b430d379f12d434,
building materials,Toko Bahan Bangunan,Ud Amanah Jaya,"W74F+33R, Jl. Trans-Sulawesi, Kuala, Kec. Kaidipang, Kabupaten Bolaang Mongondow Utara, Sulawesi Utara 95765","Jl. Trans-Sulawesi, Kuala, Kec. Kaidipang, Kabupaten Bolaang Mongondow Utara",SULAWESI UTARA,95765.0,Indonesia,,,,0.9052389,123.2726349,https://maps.google.com/?cid=0x0:0x84468f5105ed84b4,
building materials,Toko Bahan Bangunan,Toko Babul Rizky,"W74C+FHH, Kuala, Kec. Kaidipang, Kabupaten Bolaang Mongondow Utara, Sulawesi Utara","Kabupaten Bolaang Mongondow Utara, Sulawesi Utara",SULAWESI UTARA,,Indonesia,,,,0.9061913,123.2714797,https://maps.google.com/?cid=0x0:0x6b70789c19fe4d8e,
building materials,Toko Bahan Bangunan,Toko Bangunan Dipta,"W55R+77X, Jl. Trans-Sulawesi, Tuntung Tim., Kec. Pinogaluman, Kabupaten Bolaang Mongondow Utara, Sulawesi Utara","Kabupaten Bolaang Mongondow Utara, Sulawesi Utara",SULAWESI UTARA,,Indonesia,,,,0.9082313,123.1907257,https://maps.google.com/?cid=0x0:0x8804fc0c16f5667c,
building materials,Toko Bahan Bangunan,Toko Salsabila Ainun,"W855+CMW, I, Bolangitang, Kec. Bolang Itang Bar., Kabupaten Bolaang Mongondow Utara, Sulawesi Utara","Kabupaten Bolaang Mongondow Utara, Sulawesi Utara",SULAWESI UTARA,,Indonesia,,,,0.908624,123.3091891,https://maps.google.com/?cid=0x0:0xa811d25977c05b86,
building materials,Toko Bahan Bangunan,Toko ARNED,"Depan masjid Al-Ikhwan, Bigo, Kec. Kaidipang, Kabupaten Bolaang Mongondow Utara, Sulawesi Utara 95765","Bigo, Kec. Kaidipang, Kabupaten Bolaang Mongondow Utara",SULAWESI UTARA,95765.0,Indonesia,81245024301.0,,,0.9024573,123.2662362,https://maps.google.com/?cid=0x0:0xe47eb7492bdb2b2b,
building materials,Pusat Perbelanjaan,MR.DIY,"Jl. L.G Korompot, East Boroko, Kaidipang, North Bolaang Mongondow Regency, North Sulawesi 95765","East Boroko, Kaidipang, North Bolaang Mongondow Regency",SULAWESI UTARA,95765.0,Indonesia,,,,0.9106199,123.2691347,https://maps.google.com/?cid=0x0:0x890dde17fbec1a2e,
building materials,Bengkel Sepeda Motor,Cantika Motor,"BigoW739+R98, Bigo, Kec. Kaidipang, Kabupaten Bolaang Mongondow Utara, Sulawesi Utara","Kabupaten Bolaang Mongondow Utara, Sulawesi Utara",SULAWESI UTARA,,Indonesia,85213195851.0,,,0.904642,123.2684889,https://maps.google.com/?cid=0x0:0x668a371abc1c11ab,
building materials,Toko Bahan Bangunan,Toko Naulas,"W836+F7X, Bolangitang, Kec. Bolang Itang Bar., Kabupaten Bolaang Mongondow Utara, Sulawesi Utara","Kabupaten Bolaang Mongondow Utara, Sulawesi Utara",SULAWESI UTARA,,Indonesia,,,,0.9037345,123.3107313,https://maps.google.com/?cid=0x0:0x77429f25fd08e7ea,
building materials,building materials,Kec. Pinogaluman,"Kabupaten Bolaang Mongondow Utara, Sulawesi Utara","Kabupaten Bolaang Mongondow Utara, Sulawesi Utara",SULAWESI UTARA,,Indonesia,,,,0.9178578,123.1401469,https://maps.google.com/?cid=0x0:0x4bec49665b3f40dd,
building materials,Toko Bahan Bangunan,Toko Bangunan Dipta,"W55R+77X, Jl. Trans-Sulawesi, Tuntung Tim., Kec. Pinogaluman, Kabupaten Bolaang Mongondow Utara, Sulawesi Utara","Kabupaten Bolaang Mongondow Utara, Sulawesi Utara",SULAWESI UTARA,,Indonesia,,,,0.9082313,123.1907257,https://maps.google.com/?cid=0x0:0x8804fc0c16f5667c,
building materials,Toko Bahan Bangunan,Toko Roffy Jaya,"W73C+H5M, Bigo, Kec. Kaidipang, Kabupaten Bolaang Mongondow Utara, Sulawesi Utara","Kabupaten Bolaang Mongondow Utara, Sulawesi Utara",SULAWESI UTARA,,Indonesia,81225533972.0,,,0.9039635,123.27042,https://maps.google.com/?cid=0x0:0xe200e5b4216a47d2,
building materials,Toko Bahan Bangunan,Toko Fajar Timur,"Jl. Trans-Sulawesi, Kuala, Kec. Kaidipang, Kabupaten Bolaang Mongondow Utara, Sulawesi Utara 95765","Kuala, Kec. Kaidipang, Kabupaten Bolaang Mongondow Utara",SULAWESI UTARA,95765.0,Indonesia,,,,0.9054566,123.272652,https://maps.google.com/?cid=0x0:0xc82c00431f7b07a1,
building materials,Toko Bahan Bangunan,UD.SINAR NAJWA,"Jalan Trans Sulawesi Manado Gorontalo.36, Keakar, Dusun 1, Boroko, Kec. Kaidipang, Kabupaten Bolaang Mongondow Utara, Sulawesi Utara","Kabupaten Bolaang Mongondow Utara, Sulawesi Utara",SULAWESI UTARA,,Indonesia,82191655859.0,,,0.9052344,123.2556191,https://maps.google.com/?cid=0x0:0x1b430d379f12d434,
building materials,Toko Bahan Bangunan,Toko Babul Rizky,"W74C+FHH, Kuala, Kec. Kaidipang, Kabupaten Bolaang Mongondow Utara, Sulawesi Utara","Kabupaten Bolaang Mongondow Utara, Sulawesi Utara",SULAWESI UTARA,,Indonesia,,,,0.9061913,123.2714797,https://maps.google.com/?cid=0x0:0x6b70789c19fe4d8e,
building materials,Toko Bahan Bangunan,Ud Amanah Jaya,"W74F+33R, Jl. Trans-Sulawesi, Kuala, Kec. Kaidipang, Kabupaten Bolaang Mongondow Utara, Sulawesi Utara 95765","Jl. Trans-Sulawesi, Kuala, Kec. Kaidipang, Kabupaten Bolaang Mongondow Utara",SULAWESI UTARA,95765.0,Indonesia,,,,0.9052389,123.2726349,https://maps.google.com/?cid=0x0:0x84468f5105ed84b4,
building materials,Toko Bahan Bangunan,UD.Cahaya Jaya,"W74C+MC7, Jl. Pelabuhan, Boroko Tim., Kec. Kaidipang, Kabupaten Bolaang Mongondow Utara, Sulawesi Utara","Kabupaten Bolaang Mongondow Utara, Sulawesi Utara",SULAWESI UTARA,,Indonesia,,,,0.906664,123.2710384,https://maps.google.com/?cid=0x0:0x7f313351a5353c1a,
building materials,Toko Bahan Bangunan,Ud.Putra Karya Jaya,"W747+FXP, Jl. Trans-Sulawesi, Boroko, Kec. Kaidipang, Kabupaten Bolaang Mongondow Utara, Sulawesi Utara","Kabupaten Bolaang Mongondow Utara, Sulawesi Utara",SULAWESI UTARA,,Indonesia,,,,0.9062104,123.2649523,https://maps.google.com/?cid=0x0:0x7066a12242fc63cf,
building materials,Toko Bahan Bangunan,Toko Naulas,"W836+F7X, Bolangitang, Kec. Bolang Itang Bar., Kabupaten Bolaang Mongondow Utara, Sulawesi Utara","Kabupaten Bolaang Mongondow Utara, Sulawesi Utara",SULAWESI UTARA,,Indonesia,,,,0.9037345,123.3107313,https://maps.google.com/?cid=0x0:0x77429f25fd08e7ea,
building materials,building materials,Kec. Sangkub,"Kabupaten Bolaang Mongondow Utara, Sulawesi Utara","Kabupaten Bolaang Mongondow Utara, Sulawesi Utara",SULAWESI UTARA,,Indonesia,,,,0.8799509,123.6478886,https://maps.google.com/?cid=0x0:0xded44acee8c90687,
building materials,Toko Bahan Bangunan,Toko Anugrah 01,"VHGH+R4P, Jl. Trans-Sulawesi, Kopi, Kec. Bintauna, Kabupaten Bolaang Mongondow Utara, Sulawesi Utara","Kabupaten Bolaang Mongondow Utara, Sulawesi Utara",SULAWESI UTARA,,Indonesia,,,,0.8773917,123.5777978,https://maps.google.com/?cid=0x0:0xaec5a1fd66644e0a,
building materials,Toko Bahan Bangunan,"Toko Rania,Bahan Bangunan","VHM2+75J, Talaga, Kec. Bintauna, Kabupaten Bolaang Mongondow Utara, Sulawesi Utara","Kabupaten Bolaang Mongondow Utara, Sulawesi Utara",SULAWESI UTARA,,Indonesia,,,,0.8832198,123.5503793,https://maps.google.com/?cid=0x0:0x82bd09d5a612927b,
building materials,Toko Bahan Bangunan,Toko Bangunan Mangimbali,"P9C7+94X, Jl. Ratahan - Kotamobagu, Bangunan Wuwuk, Kec. Modayag Bar., Kabupaten Bolaang Mongondow Timur, Sulawesi Utara","Kabupaten Bolaang Mongondow Timur, Sulawesi Utara",SULAWESI UTARA,,Indonesia,,,,0.720995,124.3628459,https://maps.google.com/?cid=0x0:0x5ebff676b0e909a2,
building materials,Toko,Toko Brenda,"VHH5+P95, Bunia, Kec. Bintauna, Kabupaten Bolaang Mongondow Utara, Sulawesi Utara","Kabupaten Bolaang Mongondow Utara, Sulawesi Utara",SULAWESI UTARA,,Indonesia,,,,0.879255,123.5584722,https://maps.google.com/?cid=0x0:0x71df781bcf0ff8ba,
building materials,Toko bahan makanan,Titasamuel Jln siswa sangkub IV kabupaten Bolaang Mongondow utara,"VJHX+X5J, Jln Siswa, sangkub IV, Kec. Sangkub, Kabupaten Bolaang Mongondow Utara, Sulawesi Utara","Kabupaten Bolaang Mongondow Utara, Sulawesi Utara",SULAWESI UTARA,,Indonesia,,,,0.8799509,123.6478886,https://maps.google.com/?cid=0x0:0x2b11c94c9d7c6c4e,
toko bangunan,Toko Bahan Bangunan,Toko bangunan Simpang Tiga,"VFJG+5WF, Jl. Trans-Sulawesi, Binjeita, Kec. Bolang Itang Tim., Kabupaten Bolaang Mongondow Utara, Sulawesi Utara","Kabupaten Bolaang Mongondow Utara, Sulawesi Utara",SULAWESI UTARA,,Indonesia,,,,0.8804323,123.4772955,https://maps.google.com/?cid=0x0:0xf773d44dfb0a92ba,
toko bangunan,Toko Bahan Bangunan,"Toko Rania,Bahan Bangunan","VHM2+75J, Talaga, Kec. Bintauna, Kabupaten Bolaang Mongondow Utara, Sulawesi Utara","Kabupaten Bolaang Mongondow Utara, Sulawesi Utara",SULAWESI UTARA,,Indonesia,,,,0.8832198,123.5503793,https://maps.google.com/?cid=0x0:0x82bd09d5a612927b,
toko bangunan,Toko Bahan Bangunan,Toko Bangunan Mangimbali,"P9C7+94X, Jl. Ratahan - Kotamobagu, Bangunan Wuwuk, Kec. Modayag Bar., Kabupaten Bolaang Mongondow Timur, Sulawesi Utara","Kabupaten Bolaang Mongondow Timur, Sulawesi Utara",SULAWESI UTARA,,Indonesia,,,,0.720995,124.3628459,https://maps.google.com/?cid=0x0:0x5ebff676b0e909a2,
toko bangunan,Toko,Toko Brenda,"VHH5+P95, Bunia, Kec. Bintauna, Kabupaten Bolaang Mongondow Utara, Sulawesi Utara","Kabupaten Bolaang Mongondow Utara, Sulawesi Utara",SULAWESI UTARA,,Indonesia,,,,0.879255,123.5584722,https://maps.google.com/?cid=0x0:0x71df781bcf0ff8ba,
toko bangunan,,TOKO BINTANG ASIA,"VGH8+W3P, Jl. Trans-Sulawesi, Biontong I, Kec. Bolang Itang Tim., Kabupaten Bolaang Mongondow Utara, Sulawesi Utara","Kabupaten Bolaang Mongondow Utara, Sulawesi Utara",SULAWESI UTARA,,Indonesia,,,,0.8798335,123.5152053,https://maps.google.com/?cid=0x0:0x81b385d3e6261671,
toko bangunan,Toko Bahan Bangunan,UD.SINAR NAJWA,"Jalan Trans Sulawesi Manado Gorontalo.36, Keakar, Dusun 1, Boroko, Kec. Kaidipang, Kabupaten Bolaang Mongondow Utara, Sulawesi Utara","Kabupaten Bolaang Mongondow Utara, Sulawesi Utara",SULAWESI UTARA,,Indonesia,82191655859.0,,,0.9052344,123.2556191,https://maps.google.com/?cid=0x0:0x1b430d379f12d434,
toko bangunan,Toko Bahan Bangunan,Tb. Sinar Raya,"H23F+HHV, Jl. Trans Sulawesi, Ibolian, Kec. Dumoga Bar., Kabupaten Bolaang Mongondow, Sulawesi Utara","Kabupaten Bolaang Mongondow, Sulawesi Utara",SULAWESI UTARA,,Indonesia,,,,0.5539959,124.023921,https://maps.google.com/?cid=0x0:0xbf9012d5d617d163,
toko bangunan,Toko Bahan Bangunan,Toko Bintang Bangunan Pobundayan,"P874+R63, Jl. DC. Manoppo, Pobundayan, Kec. Kotamobagu Sel., Kota Kotamobagu, Sulawesi Utara","Kota Kotamobagu, Sulawesi Utara",SULAWESI UTARA,,Indonesia,8124299389.0,,,0.7144986,124.3053012,https://maps.google.com/?cid=0x0:0x2939644c33cc6b03,
toko bangunan,Toko,Toko Awan Bangunan,"Tanoyan Sel., Kec. Lolayan, Kabupaten Bolaang Mongondow, Sulawesi Utara","Kabupaten Bolaang Mongondow, Sulawesi Utara",SULAWESI UTARA,,Indonesia,85823966338.0,,,0.6048681,124.2745268,https://maps.google.com/?cid=0x0:0x7f4c65ea9b27dee4,
toko bangunan,Toko Bahan Bangunan,Toko Anugrah 01,"VHGH+R4P, Jl. Trans-Sulawesi, Kopi, Kec. Bintauna, Kabupaten Bolaang Mongondow Utara, Sulawesi Utara","Kabupaten Bolaang Mongondow Utara, Sulawesi Utara",SULAWESI UTARA,,Indonesia,,,,0.8773917,123.5777978,https://maps.google.com/?cid=0x0:0xaec5a1fd66644e0a,
toko bangunan,Gedung Apartemen,Gemilang bata merah,"VF5G+RPR Gemilang bata merah, Binjeita, Kec. Bolang Itang Tim., Kabupaten Bolaang Mongondow Utara, Sulawesi Utara","Kabupaten Bolaang Mongondow Utara, Sulawesi Utara",SULAWESI UTARA,,Indonesia,,,,0.8596248,123.4767802,https://maps.google.com/?cid=0x0:0xc9b8aac18ddb8a98,
toko bangunan,toko bangunan,Toko Bangunan asriana,"Molibagu, Kec. Bolaang Uki, Kabupaten Bolaang Mongondow Selatan, Sulawesi Utara","Kabupaten Bolaang Mongondow Selatan, Sulawesi Utara",SULAWESI UTARA,,Indonesia,,,,0.3855625,123.9808125,https://maps.google.com/?cid=0x0:0xf520fb1f2a393624,
toko bangunan,Toko Perlengkapan Rumah,Toko Dua Saudara,"VGH9+MCV, Bunong, Kec. Bintauna, Kabupaten Bolaang Mongondow Utara, Sulawesi Utara","Kabupaten Bolaang Mongondow Utara, Sulawesi Utara",SULAWESI UTARA,,Indonesia,,,,0.8792332,123.5185421,https://maps.google.com/?cid=0x0:0x7ae837c9431723d2,
toko bangunan,Toko Bahan Bangunan,Amri Bangunan,"W39W+GGW, Jl. Trans-Sulawesi, Inobonto Satu, Kec. Bolaang, Kabupaten Bolaang Mongondow, Sulawesi Utara","Kabupaten Bolaang Mongondow, Sulawesi Utara",SULAWESI UTARA,,Indonesia,,,,0.918851,124.0963413,https://maps.google.com/?cid=0x0:0xf4d67fc7cef3b68a,
toko bangunan,Toko Bahan Bangunan,Toko Dunia Bangunan,"Jl. K.S. Tubun, Matali, Kec. Kotamobagu Tim., Kota Kotamobagu, Sulawesi Utara 95711","Matali, Kec. Kotamobagu Tim., Kota Kotamobagu",SULAWESI UTARA,95711.0,Indonesia,81244358889.0,,,0.7264884,124.3114762,https://maps.google.com/?cid=0x0:0xe64be2fc5441a103,
toko bangunan,Toko Bahan Bangunan,Toko.Multi Bangunan,"Kopandakan I, Kec. Kotamobagu Sel., Kota Kotamobagu, Sulawesi Utara","Kota Kotamobagu, Sulawesi Utara",SULAWESI UTARA,,Indonesia,,,,0.7060639,124.2842349,https://maps.google.com/?cid=0x0:0x906b99c88c2df6f6,
toko bangunan,Toko,Toko Bangunan BERKAT USAHA,"HXCM+XF5, Jl. Siswa, Mopuya Utara, Kec. Dumoga Utara, Kabupaten Bolaang Mongondow, Sulawesi Utara 95773","Jl. Siswa, Mopuya Utara, Kec. Dumoga Utara, Kabupaten Bolaang Mongondow",SULAWESI UTARA,95773.0,Indonesia,81242571251.0,,,0.5729163,123.9839941,https://maps.google.com/?cid=0x0:0xa2d5c51a7aabf88a,
toko bangunan,Toko Bahan Bangunan,Toko Usaha Bangunan,"Jalan Raya, Liberia, Kec. Modayag, Kabupaten Bolaang Mongondow Timur, Sulawesi Utara 95781","Liberia, Kec. Modayag, Kabupaten Bolaang Mongondow Timur",SULAWESI UTARA,95781.0,Indonesia,,,,0.7139293,124.3841074,https://maps.google.com/?cid=0x0:0x92166ed9588551f,
toko bangunan,Toko Bahan Bangunan,Toko Naulas,"W836+F7X, Bolangitang, Kec. Bolang Itang Bar., Kabupaten Bolaang Mongondow Utara, Sulawesi Utara","Kabupaten Bolaang Mongondow Utara, Sulawesi Utara",SULAWESI UTARA,,Indonesia,,,,0.9037345,123.3107313,https://maps.google.com/?cid=0x0:0x77429f25fd08e7ea,
toko bangunan,Minimarket,Toko bangunan,"FC3P+2C6, Modisi, Kec. Pinolosian Tim., Kabupaten Bolaang Mongondow Selatan, Sulawesi Utara","Kabupaten Bolaang Mongondow Selatan, Sulawesi Utara",SULAWESI UTARA,,Indonesia,85658741232.0,,,0.4534033,124.4372044,https://maps.google.com/?cid=0x0:0x2f8d72c1be60ff49,
toko bangunan,Toko Perlengkapan Rumah,Toko Bangunan UD.Fadhil,"RM44+R47, Jl. Ratahan - Kotamobagu, Kotabunan, Kabupaten Bolaang Mongondow Timur, Sulawesi Utara","Kabupaten Bolaang Mongondow Timur, Sulawesi Utara",SULAWESI UTARA,,Indonesia,,,,0.8070264,124.6553068,https://maps.google.com/?cid=0x0:0x93a4f968aa67105,
toko bangunan,Toko Bahan Bangunan,Toko Bangunan Sejahtera,"8VR9+JJM, Duminanga, Kec. Bolaang Uki, Kabupaten Bolaang Mongondow Selatan, Sulawesi Utara","Kabupaten Bolaang Mongondow Selatan, Sulawesi Utara",SULAWESI UTARA,,Indonesia,85823541634.0,,,0.3422371,123.8689399,https://maps.google.com/?cid=0x0:0xf3d6ae4885cd314b,
toko bangunan,toko bangunan,Kec. Bintauna,"Kabupaten Bolaang Mongondow Utara, Sulawesi Utara","Kabupaten Bolaang Mongondow Utara, Sulawesi Utara",SULAWESI UTARA,,Indonesia,,,,0.8804511,123.5506194,https://maps.google.com/?cid=0x0:0x8b4cfeaf6f8ff4de,
toko bangunan,toko bangunan,Bolangitang,"Kec. Bolang Itang Bar., Kabupaten Bolaang Mongondow Utara, Sulawesi Utara","Kabupaten Bolaang Mongondow Utara, Sulawesi Utara",SULAWESI UTARA,,Indonesia,,,,0.9037345,123.3107313,https://maps.google.com/?cid=0x0:0xac4d872202262b07,
toko bangunan,Toko Bahan Bangunan,Toko Salsabila Ainun,"W855+CMW, I, Bolangitang, Kec. Bolang Itang Bar., Kabupaten Bolaang Mongondow Utara, Sulawesi Utara","Kabupaten Bolaang Mongondow Utara, Sulawesi Utara",SULAWESI UTARA,,Indonesia,,,,0.908624,123.3091891,https://maps.google.com/?cid=0x0:0xa811d25977c05b86,
toko bangunan,Toko Bahan Bangunan,Toko Naulas,"W836+F7X, Bolangitang, Kec. Bolang Itang Bar., Kabupaten Bolaang Mongondow Utara, Sulawesi Utara","Kabupaten Bolaang Mongondow Utara, Sulawesi Utara",SULAWESI UTARA,,Indonesia,,,,0.9037345,123.3107313,https://maps.google.com/?cid=0x0:0x77429f25fd08e7ea,
toko bangunan,toko bangunan,Kec. Bolang Itang Bar.,"Kabupaten Bolaang Mongondow Utara, Sulawesi Utara","Kabupaten Bolaang Mongondow Utara, Sulawesi Utara",SULAWESI UTARA,,Indonesia,,,,0.9075668,123.3055527,https://maps.google.com/?cid=0x0:0x17cd151ba51a2f1e,
toko bangunan,Toko Bahan Bangunan,Toko Roffy Jaya,"W73C+H5M, Bigo, Kec. Kaidipang, Kabupaten Bolaang Mongondow Utara, Sulawesi Utara","Kabupaten Bolaang Mongondow Utara, Sulawesi Utara",SULAWESI UTARA,,Indonesia,81225533972.0,,,0.9039635,123.27042,https://maps.google.com/?cid=0x0:0xe200e5b4216a47d2,
toko bangunan,Toko Bahan Bangunan,Toko bangunan Simpang Tiga,"VFJG+5WF, Jl. Trans-Sulawesi, Binjeita, Kec. Bolang Itang Tim., Kabupaten Bolaang Mongondow Utara, Sulawesi Utara","Kabupaten Bolaang Mongondow Utara, Sulawesi Utara",SULAWESI UTARA,,Indonesia,,,,0.8804323,123.4772955,https://maps.google.com/?cid=0x0:0xf773d44dfb0a92ba,
toko bangunan,Toko Bahan Bangunan,Toko Fajar Timur,"Jl. Trans-Sulawesi, Kuala, Kec. Kaidipang, Kabupaten Bolaang Mongondow Utara, Sulawesi Utara 95765","Kuala, Kec. Kaidipang, Kabupaten Bolaang Mongondow Utara",SULAWESI UTARA,95765.0,Indonesia,,,,0.9054566,123.272652,https://maps.google.com/?cid=0x0:0xc82c00431f7b07a1,
toko bangunan,Toko Bahan Bangunan,UD.Cahaya Jaya,"W74C+MC7, Jl. Pelabuhan, Boroko Tim., Kec. Kaidipang, Kabupaten Bolaang Mongondow Utara, Sulawesi Utara","Kabupaten Bolaang Mongondow Utara, Sulawesi Utara",SULAWESI UTARA,,Indonesia,,,,0.906664,123.2710384,https://maps.google.com/?cid=0x0:0x7f313351a5353c1a,
toko bangunan,Toko Bahan Bangunan,Toko Babul Rizky,"W74C+FHH, Kuala, Kec. Kaidipang, Kabupaten Bolaang Mongondow Utara, Sulawesi Utara","Kabupaten Bolaang Mongondow Utara, Sulawesi Utara",SULAWESI UTARA,,Indonesia,,,,0.9061913,123.2714797,https://maps.google.com/?cid=0x0:0x6b70789c19fe4d8e,
toko bangunan,Toko Bahan Bangunan,Ud.Putra Karya Jaya,"W747+FXP, Jl. Trans-Sulawesi, Boroko, Kec. Kaidipang, Kabupaten Bolaang Mongondow Utara, Sulawesi Utara","Kabupaten Bolaang Mongondow Utara, Sulawesi Utara",SULAWESI UTARA,,Indonesia,,,,0.9062104,123.2649523,https://maps.google.com/?cid=0x0:0x7066a12242fc63cf,
toko bangunan,Toko Bahan Bangunan,UD.SINAR NAJWA,"Jalan Trans Sulawesi Manado Gorontalo.36, Keakar, Dusun 1, Boroko, Kec. Kaidipang, Kabupaten Bolaang Mongondow Utara, Sulawesi Utara","Kabupaten Bolaang Mongondow Utara, Sulawesi Utara",SULAWESI UTARA,,Indonesia,82191655859.0,,,0.9052344,123.2556191,https://maps.google.com/?cid=0x0:0x1b430d379f12d434,
toko bangunan,Toko Bahan Bangunan,Ud Amanah Jaya,"W74F+33R, Jl. Trans-Sulawesi, Kuala, Kec. Kaidipang, Kabupaten Bolaang Mongondow Utara, Sulawesi Utara 95765","Jl. Trans-Sulawesi, Kuala, Kec. Kaidipang, Kabupaten Bolaang Mongondow Utara",SULAWESI UTARA,95765.0,Indonesia,,,,0.9052389,123.2726349,https://maps.google.com/?cid=0x0:0x84468f5105ed84b4,
toko bangunan,Toko Bahan Bangunan,Toko ARNED,"Depan masjid Al-Ikhwan, Bigo, Kec. Kaidipang, Kabupaten Bolaang Mongondow Utara, Sulawesi Utara 95765","Bigo, Kec. Kaidipang, Kabupaten Bolaang Mongondow Utara",SULAWESI UTARA,95765.0,Indonesia,81245024301.0,,,0.9024573,123.2662362,https://maps.google.com/?cid=0x0:0xe47eb7492bdb2b2b,
toko bangunan,Toko bahan makanan,Toko Rahmat Bangunan,"Kuala, Kec. Kaidipang, Kabupaten Bolaang Mongondow Utara, Sulawesi Utara","Kabupaten Bolaang Mongondow Utara, Sulawesi Utara",SULAWESI UTARA,,Indonesia,85696410848.0,,,0.911878,123.275166,https://maps.google.com/?cid=0x0:0x58ac941aa3b166ec,
toko bangunan,,TOKO BINTANG ASIA,"VGH8+W3P, Jl. Trans-Sulawesi, Biontong I, Kec. Bolang Itang Tim., Kabupaten Bolaang Mongondow Utara, Sulawesi Utara","Kabupaten Bolaang Mongondow Utara, Sulawesi Utara",SULAWESI UTARA,,Indonesia,,,,0.8798335,123.5152053,https://maps.google.com/?cid=0x0:0x81b385d3e6261671,
toko bangunan,Toko Bahan Bangunan,Toko Bangunan Mangimbali,"P9C7+94X, Jl. Ratahan - Kotamobagu, Bangunan Wuwuk, Kec. Modayag Bar., Kabupaten Bolaang Mongondow Timur, Sulawesi Utara","Kabupaten Bolaang Mongondow Timur, Sulawesi Utara",SULAWESI UTARA,,Indonesia,,,,0.720995,124.3628459,https://maps.google.com/?cid=0x0:0x5ebff676b0e909a2,
toko bangunan,Toko Bahan Bangunan,Toko Bangunan Dipta,"W55R+77X, Jl. Trans-Sulawesi, Tuntung Tim., Kec. Pinogaluman, Kabupaten Bolaang Mongondow Utara, Sulawesi Utara","Kabupaten Bolaang Mongondow Utara, Sulawesi Utara",SULAWESI UTARA,,Indonesia,,,,0.9082313,123.1907257,https://maps.google.com/?cid=0x0:0x8804fc0c16f5667c,
toko bangunan,Toko,Toko Awan Bangunan,"Tanoyan Sel., Kec. Lolayan, Kabupaten Bolaang Mongondow, Sulawesi Utara","Kabupaten Bolaang Mongondow, Sulawesi Utara",SULAWESI UTARA,,Indonesia,85823966338.0,,,0.6048681,124.2745268,https://maps.google.com/?cid=0x0:0x7f4c65ea9b27dee4,
toko bangunan,Gudang,Toko Bahan Bangunan BOROBUDUR,"Q853+V3G, Passi II, Kec. Passi Bar., Kabupaten Bolaang Mongondow, Sulawesi Utara","Kabupaten Bolaang Mongondow, Sulawesi Utara",SULAWESI UTARA,,Indonesia,,,,0.7596792,124.3027097,https://maps.google.com/?cid=0x0:0x5d850252030234be,
toko bangunan,Gedung Apartemen,Gemilang bata merah,"VF5G+RPR Gemilang bata merah, Binjeita, Kec. Bolang Itang Tim., Kabupaten Bolaang Mongondow Utara, Sulawesi Utara","Kabupaten Bolaang Mongondow Utara, Sulawesi Utara",SULAWESI UTARA,,Indonesia,,,,0.8596248,123.4767802,https://maps.google.com/?cid=0x0:0xc9b8aac18ddb8a98,
toko bangunan,toko bangunan,Kec. Bolang Itang Tim.,"Kabupaten Bolaang Mongondow Utara, Sulawesi Utara","Kabupaten Bolaang Mongondow Utara, Sulawesi Utara",SULAWESI UTARA,,Indonesia,,,,0.8798076,123.4530257,https://maps.google.com/?cid=0x0:0x73767b2b7d690727,
toko bangunan,Toko Bahan Bangunan,Toko bangunan Simpang Tiga,"VFJG+5WF, Jl. Trans-Sulawesi, Binjeita, Kec. Bolang Itang Tim., Kabupaten Bolaang Mongondow Utara, Sulawesi Utara","Kabupaten Bolaang Mongondow Utara, Sulawesi Utara",SULAWESI UTARA,,Indonesia,,,,0.8804323,123.4772955,https://maps.google.com/?cid=0x0:0xf773d44dfb0a92ba,
toko bangunan,Toko Bahan Bangunan,TOKO BAGUNAN BERKAT MANDIRI,"Bohabak I, Kec. Bolang Itang Tim., Kabupaten Bolaang Mongondow Utara, Sulawesi Utara 95764","Kec. Bolang Itang Tim., Kabupaten Bolaang Mongondow Utara",SULAWESI UTARA,95764.0,Indonesia,82192780897.0,,,0.8800935,123.4553345,https://maps.google.com/?cid=0x0:0x590e31c4c91a9eb2,
toko bangunan,Gedung Apartemen,Gemilang bata merah,"VF5G+RPR Gemilang bata merah, Binjeita, Kec. Bolang Itang Tim., Kabupaten Bolaang Mongondow Utara, Sulawesi Utara","Kabupaten Bolaang Mongondow Utara, Sulawesi Utara",SULAWESI UTARA,,Indonesia,,,,0.8596248,123.4767802,https://maps.google.com/?cid=0x0:0xc9b8aac18ddb8a98,
toko bangunan,Toko Bahan Bangunan,Toko Salsabila Ainun,"W855+CMW, I, Bolangitang, Kec. Bolang Itang Bar., Kabupaten Bolaang Mongondow Utara, Sulawesi Utara","Kabupaten Bolaang Mongondow Utara, Sulawesi Utara",SULAWESI UTARA,,Indonesia,,,,0.908624,123.3091891,https://maps.google.com/?cid=0x0:0xa811d25977c05b86,
toko bangunan,Toko Bahan Bangunan,Toko Usaha Bangunan,"Jalan Raya, Liberia, Kec. Modayag, Kabupaten Bolaang Mongondow Timur, Sulawesi Utara 95781","Liberia, Kec. Modayag, Kabupaten Bolaang Mongondow Timur",SULAWESI UTARA,95781.0,Indonesia,,,,0.7139293,124.3841074,https://maps.google.com/?cid=0x0:0x92166ed9588551f,
toko bangunan,,Lapak profil gypsum,"Jl. Trans-Sulawesi, Binjeita I, Kec. Bolang Itang Tim., Kabupaten Bolaang Mongondow Utara, Sulawesi Utara 95767","Binjeita I, Kec. Bolang Itang Tim., Kabupaten Bolaang Mongondow Utara",SULAWESI UTARA,95767.0,Indonesia,,,,0.8831289,123.4819923,https://maps.google.com/?cid=0x0:0x26e3f1454d86f5d4,
toko bangunan,Toko,Toko Harmonis,"Binjeita, Kec. Bolang Itang Tim., Kabupaten Bolaang Mongondow Utara, Sulawesi Utara","Kabupaten Bolaang Mongondow Utara, Sulawesi Utara",SULAWESI UTARA,,Indonesia,,,,0.8808051,123.4778666,https://maps.google.com/?cid=0x0:0x695b2b2a5aed8398,
toko bangunan,Toko Bahan Bangunan,Toko Bangunan Mangimbali,"P9C7+94X, Jl. Ratahan - Kotamobagu, Bangunan Wuwuk, Kec. Modayag Bar., Kabupaten Bolaang Mongondow Timur, Sulawesi Utara","Kabupaten Bolaang Mongondow Timur, Sulawesi Utara",SULAWESI UTARA,,Indonesia,,,,0.720995,124.3628459,https://maps.google.com/?cid=0x0:0x5ebff676b0e909a2,
toko bangunan,Toko Perlengkapan Rumah,Toko Dua Saudara,"VGH9+MCV, Bunong, Kec. Bintauna, Kabupaten Bolaang Mongondow Utara, Sulawesi Utara","Kabupaten Bolaang Mongondow Utara, Sulawesi Utara",SULAWESI UTARA,,Indonesia,,,,0.8792332,123.5185421,https://maps.google.com/?cid=0x0:0x7ae837c9431723d2,
toko bangunan,Toko Bahan Bangunan,"Toko Rania,Bahan Bangunan","VHM2+75J, Talaga, Kec. Bintauna, Kabupaten Bolaang Mongondow Utara, Sulawesi Utara","Kabupaten Bolaang Mongondow Utara, Sulawesi Utara",SULAWESI UTARA,,Indonesia,,,,0.8832198,123.5503793,https://maps.google.com/?cid=0x0:0x82bd09d5a612927b,
toko bangunan,Toko Bahan Bangunan,Toko Naulas,"W836+F7X, Bolangitang, Kec. Bolang Itang Bar., Kabupaten Bolaang Mongondow Utara, Sulawesi Utara","Kabupaten Bolaang Mongondow Utara, Sulawesi Utara",SULAWESI UTARA,,Indonesia,,,,0.9037345,123.3107313,https://maps.google.com/?cid=0x0:0x77429f25fd08e7ea,
toko bangunan,toko bangunan,Kec. Kaidipang,"Kabupaten Bolaang Mongondow Utara, Sulawesi Utara","Kabupaten Bolaang Mongondow Utara, Sulawesi Utara",SULAWESI UTARA,,Indonesia,,,,0.9061974,123.2652382,https://maps.google.com/?cid=0x0:0x2e226efafb429867,
toko bangunan,Toko Bahan Bangunan,Toko Fajar Timur,"Jl. Trans-Sulawesi, Kuala, Kec. Kaidipang, Kabupaten Bolaang Mongondow Utara, Sulawesi Utara 95765","Kuala, Kec. Kaidipang, Kabupaten Bolaang Mongondow Utara",SULAWESI UTARA,95765.0,Indonesia,,,,0.9054566,123.272652,https://maps.google.com/?cid=0x0:0xc82c00431f7b07a1,
toko bangunan,Toko Bahan Bangunan,Toko Roffy Jaya,"W73C+H5M, Bigo, Kec. Kaidipang, Kabupaten Bolaang Mongondow Utara, Sulawesi Utara","Kabupaten Bolaang Mongondow Utara, Sulawesi Utara",SULAWESI UTARA,,Indonesia,81225533972.0,,,0.9039635,123.27042,https://maps.google.com/?cid=0x0:0xe200e5b4216a47d2,
toko bangunan,Toko Bahan Bangunan,Toko Babul Rizky,"W74C+FHH, Kuala, Kec. Kaidipang, Kabupaten Bolaang Mongondow Utara, Sulawesi Utara","Kabupaten Bolaang Mongondow Utara, Sulawesi Utara",SULAWESI UTARA,,Indonesia,,,,0.9061913,123.2714797,https://maps.google.com/?cid=0x0:0x6b70789c19fe4d8e,
toko bangunan,Toko Bahan Bangunan,Toko Bangunan Dipta,"W55R+77X, Jl. Trans-Sulawesi, Tuntung Tim., Kec. Pinogaluman, Kabupaten Bolaang Mongondow Utara, Sulawesi Utara","Kabupaten Bolaang Mongondow Utara, Sulawesi Utara",SULAWESI UTARA,,Indonesia,,,,0.9082313,123.1907257,https://maps.google.com/?cid=0x0:0x8804fc0c16f5667c,
toko bangunan,Toko Bahan Bangunan,Ud.Putra Karya Jaya,"W747+FXP, Jl. Trans-Sulawesi, Boroko, Kec. Kaidipang, Kabupaten Bolaang Mongondow Utara, Sulawesi Utara","Kabupaten Bolaang Mongondow Utara, Sulawesi Utara",SULAWESI UTARA,,Indonesia,,,,0.9062104,123.2649523,https://maps.google.com/?cid=0x0:0x7066a12242fc63cf,
toko bangunan,Toko Bahan Bangunan,UD.SINAR NAJWA,"Jalan Trans Sulawesi Manado Gorontalo.36, Keakar, Dusun 1, Boroko, Kec. Kaidipang, Kabupaten Bolaang Mongondow Utara, Sulawesi Utara","Kabupaten Bolaang Mongondow Utara, Sulawesi Utara",SULAWESI UTARA,,Indonesia,82191655859.0,,,0.9052344,123.2556191,https://maps.google.com/?cid=0x0:0x1b430d379f12d434,
toko bangunan,Toko Bahan Bangunan,Ud Amanah Jaya,"W74F+33R, Jl. Trans-Sulawesi, Kuala, Kec. Kaidipang, Kabupaten Bolaang Mongondow Utara, Sulawesi Utara 95765","Jl. Trans-Sulawesi, Kuala, Kec. Kaidipang, Kabupaten Bolaang Mongondow Utara",SULAWESI UTARA,95765.0,Indonesia,,,,0.9052389,123.2726349,https://maps.google.com/?cid=0x0:0x84468f5105ed84b4,
toko bangunan,Toko bahan makanan,Toko Rahmat Bangunan,"Kuala, Kec. Kaidipang, Kabupaten Bolaang Mongondow Utara, Sulawesi Utara","Kabupaten Bolaang Mongondow Utara, Sulawesi Utara",SULAWESI UTARA,,Indonesia,85696410848.0,,,0.911878,123.275166,https://maps.google.com/?cid=0x0:0x58ac941aa3b166ec,
toko bangunan,Toko Bahan Bangunan,Toko Salsabila Ainun,"W855+CMW, I, Bolangitang, Kec. Bolang Itang Bar., Kabupaten Bolaang Mongondow Utara, Sulawesi Utara","Kabupaten Bolaang Mongondow Utara, Sulawesi Utara",SULAWESI UTARA,,Indonesia,,,,0.908624,123.3091891,https://maps.google.com/?cid=0x0:0xa811d25977c05b86,
toko bangunan,Toko Bahan Bangunan,Toko ARNED,"Depan masjid Al-Ikhwan, Bigo, Kec. Kaidipang, Kabupaten Bolaang Mongondow Utara, Sulawesi Utara 95765","Bigo, Kec. Kaidipang, Kabupaten Bolaang Mongondow Utara",SULAWESI UTARA,95765.0,Indonesia,81245024301.0,,,0.9024573,123.2662362,https://maps.google.com/?cid=0x0:0xe47eb7492bdb2b2b,
toko bangunan,Toko Bahan Bangunan,Toko Naulas,"W836+F7X, Bolangitang, Kec. Bolang Itang Bar., Kabupaten Bolaang Mongondow Utara, Sulawesi Utara","Kabupaten Bolaang Mongondow Utara, Sulawesi Utara",SULAWESI UTARA,,Indonesia,,,,0.9037345,123.3107313,https://maps.google.com/?cid=0x0:0x77429f25fd08e7ea,
toko bangunan,toko bangunan,Kec. Pinogaluman,"Kabupaten Bolaang Mongondow Utara, Sulawesi Utara","Kabupaten Bolaang Mongondow Utara, Sulawesi Utara",SULAWESI UTARA,,Indonesia,,,,0.9178578,123.1401469,https://maps.google.com/?cid=0x0:0x4bec49665b3f40dd,
toko bangunan,Toko Bahan Bangunan,Toko Bangunan Dipta,"W55R+77X, Jl. Trans-Sulawesi, Tuntung Tim., Kec. Pinogaluman, Kabupaten Bolaang Mongondow Utara, Sulawesi Utara","Kabupaten Bolaang Mongondow Utara, Sulawesi Utara",SULAWESI UTARA,,Indonesia,,,,0.9082313,123.1907257,https://maps.google.com/?cid=0x0:0x8804fc0c16f5667c,
toko bangunan,Toko Bahan Bangunan,Toko Roffy Jaya,"W73C+H5M, Bigo, Kec. Kaidipang, Kabupaten Bolaang Mongondow Utara, Sulawesi Utara","Kabupaten Bolaang Mongondow Utara, Sulawesi Utara",SULAWESI UTARA,,Indonesia,81225533972.0,,,0.9039635,123.27042,https://maps.google.com/?cid=0x0:0xe200e5b4216a47d2,
toko bangunan,Toko Bahan Bangunan,Toko Salsabila Ainun,"W855+CMW, I, Bolangitang, Kec. Bolang Itang Bar., Kabupaten Bolaang Mongondow Utara, Sulawesi Utara","Kabupaten Bolaang Mongondow Utara, Sulawesi Utara",SULAWESI UTARA,,Indonesia,,,,0.908624,123.3091891,https://maps.google.com/?cid=0x0:0xa811d25977c05b86,
toko bangunan,Toko Bahan Bangunan,Toko Babul Rizky,"W74C+FHH, Kuala, Kec. Kaidipang, Kabupaten Bolaang Mongondow Utara, Sulawesi Utara","Kabupaten Bolaang Mongondow Utara, Sulawesi Utara",SULAWESI UTARA,,Indonesia,,,,0.9061913,123.2714797,https://maps.google.com/?cid=0x0:0x6b70789c19fe4d8e,
toko bangunan,Toko Bahan Bangunan,Toko Bangunan Mangimbali,"P9C7+94X, Jl. Ratahan - Kotamobagu, Bangunan Wuwuk, Kec. Modayag Bar., Kabupaten Bolaang Mongondow Timur, Sulawesi Utara","Kabupaten Bolaang Mongondow Timur, Sulawesi Utara",SULAWESI UTARA,,Indonesia,,,,0.720995,124.3628459,https://maps.google.com/?cid=0x0:0x5ebff676b0e909a2,
toko bangunan,Gudang,Toko Bahan Bangunan BOROBUDUR,"Q853+V3G, Passi II, Kec. Passi Bar., Kabupaten Bolaang Mongondow, Sulawesi Utara","Kabupaten Bolaang Mongondow, Sulawesi Utara",SULAWESI UTARA,,Indonesia,,,,0.7596792,124.3027097,https://maps.google.com/?cid=0x0:0x5d850252030234be,
toko bangunan,Toko Bahan Bangunan,"Toko Rania,Bahan Bangunan","VHM2+75J, Talaga, Kec. Bintauna, Kabupaten Bolaang Mongondow Utara, Sulawesi Utara","Kabupaten Bolaang Mongondow Utara, Sulawesi Utara",SULAWESI UTARA,,Indonesia,,,,0.8832198,123.5503793,https://maps.google.com/?cid=0x0:0x82bd09d5a612927b,
toko bangunan,Toko Bahan Bangunan,UD.Cahaya Jaya,"W74C+MC7, Jl. Pelabuhan, Boroko Tim., Kec. Kaidipang, Kabupaten Bolaang Mongondow Utara, Sulawesi Utara","Kabupaten Bolaang Mongondow Utara, Sulawesi Utara",SULAWESI UTARA,,Indonesia,,,,0.906664,123.2710384,https://maps.google.com/?cid=0x0:0x7f313351a5353c1a,
toko bangunan,Toko Bahan Bangunan,Ud Amanah Jaya,"W74F+33R, Jl. Trans-Sulawesi, Kuala, Kec. Kaidipang, Kabupaten Bolaang Mongondow Utara, Sulawesi Utara 95765","Jl. Trans-Sulawesi, Kuala, Kec. Kaidipang, Kabupaten Bolaang Mongondow Utara",SULAWESI UTARA,95765.0,Indonesia,,,,0.9052389,123.2726349,https://maps.google.com/?cid=0x0:0x84468f5105ed84b4,
toko bangunan,Toko Bahan Bangunan,UD.SINAR NAJWA,"Jalan Trans Sulawesi Manado Gorontalo.36, Keakar, Dusun 1, Boroko, Kec. Kaidipang, Kabupaten Bolaang Mongondow Utara, Sulawesi Utara","Kabupaten Bolaang Mongondow Utara, Sulawesi Utara",SULAWESI UTARA,,Indonesia,82191655859.0,,,0.9052344,123.2556191,https://maps.google.com/?cid=0x0:0x1b430d379f12d434,
toko bangunan,Toko Bahan Bangunan,Toko Naulas,"W836+F7X, Bolangitang, Kec. Bolang Itang Bar., Kabupaten Bolaang Mongondow Utara, Sulawesi Utara","Kabupaten Bolaang Mongondow Utara, Sulawesi Utara",SULAWESI UTARA,,Indonesia,,,,0.9037345,123.3107313,https://maps.google.com/?cid=0x0:0x77429f25fd08e7ea,
toko bangunan,Minimarket,Toko bangunan,"FC3P+2C6, Modisi, Kec. Pinolosian Tim., Kabupaten Bolaang Mongondow Selatan, Sulawesi Utara","Kabupaten Bolaang Mongondow Selatan, Sulawesi Utara",SULAWESI UTARA,,Indonesia,85658741232.0,,,0.4534033,124.4372044,https://maps.google.com/?cid=0x0:0x2f8d72c1be60ff49,
toko bangunan,Pasar bahan bangunan,Toko Bangunan Wapon Jaya,"Jl. Sea induk, Sea I, Kec. Pineleng, Kabupaten Minahasa, Sulawesi Utara","Kabupaten Minahasa, Sulawesi Utara",SULAWESI UTARA,,Indonesia,85340309099.0,,,1.4291092,124.7997913,https://maps.google.com/?cid=0x0:0x2216e5af37ff6b7a,
toko bangunan,Toko Perlengkapan Rumah,Toko Bangunan UD.Fadhil,"RM44+R47, Jl. Ratahan - Kotamobagu, Kotabunan, Kabupaten Bolaang Mongondow Timur, Sulawesi Utara","Kabupaten Bolaang Mongondow Timur, Sulawesi Utara",SULAWESI UTARA,,Indonesia,,,,0.8070264,124.6553068,https://maps.google.com/?cid=0x0:0x93a4f968aa67105,
toko bangunan,Pasar bahan bangunan,toko bangunan usaha immanuel,"P96P+4F7, Modayag, Kec. Modayag, Kabupaten Bolaang Mongondow Timur, Sulawesi Utara","Kabupaten Bolaang Mongondow Timur, Sulawesi Utara",SULAWESI UTARA,,Indonesia,85756658246.0,,,0.7103444,124.3862345,https://maps.google.com/?cid=0x0:0xb9e2ffd8f4205bc1,
toko bangunan,Toko Bahan Bangunan,Toko Sumber Bangunan Pineleng,"CRGQ+VCG, Jl. Raya Manado Tomohon, Pineleng I, Kec. Pineleng, Kabupaten Minahasa, Sulawesi Utara","Kabupaten Minahasa, Sulawesi Utara",SULAWESI UTARA,,Indonesia,,,,1.4271958,124.8385828,https://maps.google.com/?cid=0x0:0x5bfd3a32058d5029,
toko bangunan,Toko Bahan Bangunan,Toko Bangunan Sejahtera,"8VR9+JJM, Duminanga, Kec. Bolaang Uki, Kabupaten Bolaang Mongondow Selatan, Sulawesi Utara","Kabupaten Bolaang Mongondow Selatan, Sulawesi Utara",SULAWESI UTARA,,Indonesia,85823541634.0,,,0.3422371,123.8689399,https://maps.google.com/?cid=0x0:0xf3d6ae4885cd314b,
toko bangunan,Toko Bahan Bangunan,Toko bahan bangunan,"MHG7+VJQ, Jl. Ratahan - Kotamobagu, Motongkad, Kec. Nuangan, Kabupaten Bolaang Mongondow Timur, Sulawesi Utara","Kabupaten Bolaang Mongondow Timur, Sulawesi Utara",SULAWESI UTARA,,Indonesia,,,,0.6772249,124.5640951,https://maps.google.com/?cid=0x0:0x3e712dc6efe5c308,
toko bangunan,Toko,Toko Awan Bangunan,"Tanoyan Sel., Kec. Lolayan, Kabupaten Bolaang Mongondow, Sulawesi Utara","Kabupaten Bolaang Mongondow, Sulawesi Utara",SULAWESI UTARA,,Indonesia,85823966338.0,,,0.6048681,124.2745268,https://maps.google.com/?cid=0x0:0x7f4c65ea9b27dee4,
toko bangunan,Toko Bahan Bangunan,Toko ARNED,"Depan masjid Al-Ikhwan, Bigo, Kec. Kaidipang, Kabupaten Bolaang Mongondow Utara, Sulawesi Utara 95765","Bigo, Kec. Kaidipang, Kabupaten Bolaang Mongondow Utara",SULAWESI UTARA,95765.0,Indonesia,81245024301.0,,,0.9024573,123.2662362,https://maps.google.com/?cid=0x0:0xe47eb7492bdb2b2b,
toko bangunan,Toko Bahan Bangunan,Ud.Putra Karya Jaya,"W747+FXP, Jl. Trans-Sulawesi, Boroko, Kec. Kaidipang, Kabupaten Bolaang Mongondow Utara, Sulawesi Utara","Kabupaten Bolaang Mongondow Utara, Sulawesi Utara",SULAWESI UTARA,,Indonesia,,,,0.9062104,123.2649523,https://maps.google.com/?cid=0x0:0x7066a12242fc63cf,
toko bangunan,Toko bahan makanan,Toko Rahmat Bangunan,"Kuala, Kec. Kaidipang, Kabupaten Bolaang Mongondow Utara, Sulawesi Utara","Kabupaten Bolaang Mongondow Utara, Sulawesi Utara",SULAWESI UTARA,,Indonesia,85696410848.0,,,0.911878,123.275166,https://maps.google.com/?cid=0x0:0x58ac941aa3b166ec,
toko bangunan,toko bangunan,Kec. Sangkub,"Kabupaten Bolaang Mongondow Utara, Sulawesi Utara","Kabupaten Bolaang Mongondow Utara, Sulawesi Utara",SULAWESI UTARA,,Indonesia,,,,0.8799509,123.6478886,https://maps.google.com/?cid=0x0:0xded44acee8c90687,
toko bangunan,Toko Bahan Bangunan,TOKO SANDIK JAYA BANGUNAN,"HXFP+H54, Unnamed Road, Mopuya Utara, Kec. Dumoga Utara, Kabupaten Bolaang Mongondow, Sulawesi Utara","Kabupaten Bolaang Mongondow, Sulawesi Utara",SULAWESI UTARA,,Indonesia,81340377799.0,,,0.5738776,123.9854565,https://maps.google.com/?cid=0x0:0xab61f06dc1f54b10,
toko bangunan,Toko Bahan Bangunan,Toko Bangunan Sejahtera,"8VR9+JJM, Duminanga, Kec. Bolaang Uki, Kabupaten Bolaang Mongondow Selatan, Sulawesi Utara","Kabupaten Bolaang Mongondow Selatan, Sulawesi Utara",SULAWESI UTARA,,Indonesia,85823541634.0,,,0.3422371,123.8689399,https://maps.google.com/?cid=0x0:0xf3d6ae4885cd314b,
toko bangunan,Pasar bahan bangunan,toko bangunan usaha immanuel,"P96P+4F7, Modayag, Kec. Modayag, Kabupaten Bolaang Mongondow Timur, Sulawesi Utara","Kabupaten Bolaang Mongondow Timur, Sulawesi Utara",SULAWESI UTARA,,Indonesia,85756658246.0,,,0.7103444,124.3862345,https://maps.google.com/?cid=0x0:0xb9e2ffd8f4205bc1,
toko bangunan,Toko,Toko Bangunan BERKAT USAHA,"HXCM+XF5, Jl. Siswa, Mopuya Utara, Kec. Dumoga Utara, Kabupaten Bolaang Mongondow, Sulawesi Utara 95773","Jl. Siswa, Mopuya Utara, Kec. Dumoga Utara, Kabupaten Bolaang Mongondow",SULAWESI UTARA,95773.0,Indonesia,81242571251.0,,,0.5729163,123.9839941,https://maps.google.com/?cid=0x0:0xa2d5c51a7aabf88a,
toko bangunan,Gudang,Toko Bahan Bangunan BOROBUDUR,"Q853+V3G, Passi II, Kec. Passi Bar., Kabupaten Bolaang Mongondow, Sulawesi Utara","Kabupaten Bolaang Mongondow, Sulawesi Utara",SULAWESI UTARA,,Indonesia,,,,0.7596792,124.3027097,https://maps.google.com/?cid=0x0:0x5d850252030234be,
toko bangunan,Toko Bahan Bangunan,Toko Anugrah 01,"VHGH+R4P, Jl. Trans-Sulawesi, Kopi, Kec. Bintauna, Kabupaten Bolaang Mongondow Utara, Sulawesi Utara","Kabupaten Bolaang Mongondow Utara, Sulawesi Utara",SULAWESI UTARA,,Indonesia,,,,0.8773917,123.5777978,https://maps.google.com/?cid=0x0:0xaec5a1fd66644e0a,
toko bangunan,Toko Bahan Bangunan,Toko Bangunan Mangimbali,"P9C7+94X, Jl. Ratahan - Kotamobagu, Bangunan Wuwuk, Kec. Modayag Bar., Kabupaten Bolaang Mongondow Timur, Sulawesi Utara","Kabupaten Bolaang Mongondow Timur, Sulawesi Utara",SULAWESI UTARA,,Indonesia,,,,0.720995,124.3628459,https://maps.google.com/?cid=0x0:0x5ebff676b0e909a2,
toko bangunan,Toko Bahan Bangunan,Toko bangunan sumber makmur lolak,"V2J9+6JR, Jl. Trans-Sulawesi, Lolak Tambolango, Kec. Lolak, Kabupaten Bolaang Mongondow, Sulawesi Utara","Kabupaten Bolaang Mongondow, Sulawesi Utara",SULAWESI UTARA,,Indonesia,85240080070.0,,,0.8806174,124.0190039,https://maps.google.com/?cid=0x0:0x9bde54b69ddee5d0,
toko bangunan,Toko Bahan Bangunan,TOKO BAGUNAN BERKAT MANDIRI,"Bohabak I, Kec. Bolang Itang Tim., Kabupaten Bolaang Mongondow Utara, Sulawesi Utara 95764","Kec. Bolang Itang Tim., Kabupaten Bolaang Mongondow Utara",SULAWESI UTARA,95764.0,Indonesia,82192780897.0,,,0.8800935,123.4553345,https://maps.google.com/?cid=0x0:0x590e31c4c91a9eb2,
toko bangunan,Toko Perlengkapan Rumah,Toko Bangunan Tesalonika,"QJVH+MM6, Paret, Kotabunan, Kabupaten Bolaang Mongondow Timur, Sulawesi Utara","Kabupaten Bolaang Mongondow Timur, Sulawesi Utara",SULAWESI UTARA,,Indonesia,81218883767.0,,,0.7941531,124.629155,https://maps.google.com/?cid=0x0:0x9def8c78a1ebe897,
toko bangunan,Toko Bahan Bangunan,Toko Bangunan Chiko Matungkas,"FXF9+7QQ, Jl. Sukur - Likupang, Matungkas, Kec. Dimembe, Kabupaten Minahasa Utara, Sulawesi Utara","Kabupaten Minahasa Utara, Sulawesi Utara",SULAWESI UTARA,,Indonesia,85340940004.0,,,1.4732046,124.9694978,https://maps.google.com/?cid=0x0:0xb10a524c66bf6d30,
toko bangunan,Toko,Toko Aneka Bangunan,"Mogolaing, Kec. Kotamobagu Bar., Kota Kotamobagu, Sulawesi Utara","Kota Kotamobagu, Sulawesi Utara",SULAWESI UTARA,,Indonesia,,,,0.7373772,124.3077789,https://maps.google.com/?cid=0x0:0x684ed995013a6c52,
toko bangunan,Toko Bahan Bangunan,UD.SINAR NAJWA,"Jalan Trans Sulawesi Manado Gorontalo.36, Keakar, Dusun 1, Boroko, Kec. Kaidipang, Kabupaten Bolaang Mongondow Utara, Sulawesi Utara","Kabupaten Bolaang Mongondow Utara, Sulawesi Utara",SULAWESI UTARA,,Indonesia,82191655859.0,,,0.9052344,123.2556191,https://maps.google.com/?cid=0x0:0x1b430d379f12d434,
toko bangunan,Toko Bahan Bangunan,Toko Dunia Bangunan,"Jl. K.S. Tubun, Matali, Kec. Kotamobagu Tim., Kota Kotamobagu, Sulawesi Utara 95711","Matali, Kec. Kotamobagu Tim., Kota Kotamobagu",SULAWESI UTARA,95711.0,Indonesia,81244358889.0,,,0.7264884,124.3114762,https://maps.google.com/?cid=0x0:0xe64be2fc5441a103,
toko bangunan,Toko Bahan Bangunan,Toko.Multi Bangunan,"Kopandakan I, Kec. Kotamobagu Sel., Kota Kotamobagu, Sulawesi Utara","Kota Kotamobagu, Sulawesi Utara",SULAWESI UTARA,,Indonesia,,,,0.7060639,124.2842349,https://maps.google.com/?cid=0x0:0x906b99c88c2df6f6,
toko bangunan,Toko Bahan Bangunan,TOKO BANGUNAN RIZKY BADAS,"Kawangkoan, Kec. Kalawat, Kabupaten Minahasa Utara, Sulawesi Utara","Kabupaten Minahasa Utara, Sulawesi Utara",SULAWESI UTARA,,Indonesia,81330119059.0,,,1.4590841,124.9327088,https://maps.google.com/?cid=0x0:0x99b35880d1e58868,
toko bangunan,Toko Bahan Bangunan,Toko bahan bangunan,"MHG7+VJQ, Jl. Ratahan - Kotamobagu, Motongkad, Kec. Nuangan, Kabupaten Bolaang Mongondow Timur, Sulawesi Utara","Kabupaten Bolaang Mongondow Timur, Sulawesi Utara",SULAWESI UTARA,,Indonesia,,,,0.6772249,124.5640951,https://maps.google.com/?cid=0x0:0x3e712dc6efe5c308,
toko bangunan,Toko Bahan Bangunan,Toko Bangunan Malak Matungkas,"FXC9+636, Matungkas Jaga X, Kec. Dimembe, Kabupaten Minahasa Utara, Sulawesi Utara","Kabupaten Minahasa Utara, Sulawesi Utara",SULAWESI UTARA,,Indonesia,81356833133.0,,,1.4705375,124.9676406,https://maps.google.com/?cid=0x0:0x1c9d1d8d885ff988,
toko bangunan,toko bangunan,Toko Bangunan asriana,"Molibagu, Kec. Bolaang Uki, Kabupaten Bolaang Mongondow Selatan, Sulawesi Utara","Kabupaten Bolaang Mongondow Selatan, Sulawesi Utara",SULAWESI UTARA,,Indonesia,,,,0.3855625,123.9808125,https://maps.google.com/?cid=0x0:0xf520fb1f2a393624,
toko bangunan,Toko Bahan Bangunan,"Toko Rania,Bahan Bangunan","VHM2+75J, Talaga, Kec. Bintauna, Kabupaten Bolaang Mongondow Utara, Sulawesi Utara","Kabupaten Bolaang Mongondow Utara, Sulawesi Utara",SULAWESI UTARA,,Indonesia,,,,0.8832198,123.5503793,https://maps.google.com/?cid=0x0:0x82bd09d5a612927b,
toko bangunan,Toko Bahan Bangunan,Toko Bangunan Dipta,"W55R+77X, Jl. Trans-Sulawesi, Tuntung Tim., Kec. Pinogaluman, Kabupaten Bolaang Mongondow Utara, Sulawesi Utara","Kabupaten Bolaang Mongondow Utara, Sulawesi Utara",SULAWESI UTARA,,Indonesia,,,,0.9082313,123.1907257,https://maps.google.com/?cid=0x0:0x8804fc0c16f5667c,
toko bangunan,Toko Bahan Bangunan,Toko Babul Rizky,"W74C+FHH, Kuala, Kec. Kaidipang, Kabupaten Bolaang Mongondow Utara, Sulawesi Utara","Kabupaten Bolaang Mongondow Utara, Sulawesi Utara",SULAWESI UTARA,,Indonesia,,,,0.9061913,123.2714797,https://maps.google.com/?cid=0x0:0x6b70789c19fe4d8e,
toko bangunan,Toko Bahan Bangunan,Amri Bangunan,"W39W+GGW, Jl. Trans-Sulawesi, Inobonto Satu, Kec. Bolaang, Kabupaten Bolaang Mongondow, Sulawesi Utara","Kabupaten Bolaang Mongondow, Sulawesi Utara",SULAWESI UTARA,,Indonesia,,,,0.918851,124.0963413,https://maps.google.com/?cid=0x0:0xf4d67fc7cef3b68a,
toko bangunan,Toko Bahan Bangunan,Toko Naulas,"W836+F7X, Bolangitang, Kec. Bolang Itang Bar., Kabupaten Bolaang Mongondow Utara, Sulawesi Utara","Kabupaten Bolaang Mongondow Utara, Sulawesi Utara",SULAWESI UTARA,,Indonesia,,,,0.9037345,123.3107313,https://maps.google.com/?cid=0x0:0x77429f25fd08e7ea,
toko bangunan,Toko Bahan Bangunan,Toko Bintang Bangunan Pobundayan,"P874+R63, Jl. DC. Manoppo, Pobundayan, Kec. Kotamobagu Sel., Kota Kotamobagu, Sulawesi Utara","Kota Kotamobagu, Sulawesi Utara",SULAWESI UTARA,,Indonesia,8124299389.0,,,0.7144986,124.3053012,https://maps.google.com/?cid=0x0:0x2939644c33cc6b03,
toko bangunan,Toko bahan makanan,Toko Rahmat Bangunan,"Kuala, Kec. Kaidipang, Kabupaten Bolaang Mongondow Utara, Sulawesi Utara","Kabupaten Bolaang Mongondow Utara, Sulawesi Utara",SULAWESI UTARA,,Indonesia,85696410848.0,,,0.911878,123.275166,https://maps.google.com/?cid=0x0:0x58ac941aa3b166ec,
toko bangunan,Toko Bahan Bangunan,Kios candra,"G2XC+673, Kinomalingan, Kec. Dumoga Bar., Kabupaten Bolaang Mongondow, Sulawesi Utara","Kabupaten Bolaang Mongondow, Sulawesi Utara",SULAWESI UTARA,,Indonesia,,,,0.5480085,124.0206745,https://maps.google.com/?cid=0x0:0xe50c57f59ee7df25,
hardware store,Toko Bahan Bangunan,Toko Anugrah 01,"VHGH+R4P, Jl. Trans-Sulawesi, Kopi, Kec. Bintauna, Kabupaten Bolaang Mongondow Utara, Sulawesi Utara","Kabupaten Bolaang Mongondow Utara, Sulawesi Utara",SULAWESI UTARA,,Indonesia,,,,0.8773917,123.5777978,https://maps.google.com/?cid=0x0:0xaec5a1fd66644e0a,
hardware store,Toko Bahan Bangunan,"Toko Rania,Bahan Bangunan","VHM2+75J, Talaga, Kec. Bintauna, Kabupaten Bolaang Mongondow Utara, Sulawesi Utara","Kabupaten Bolaang Mongondow Utara, Sulawesi Utara",SULAWESI UTARA,,Indonesia,,,,0.8832198,123.5503793,https://maps.google.com/?cid=0x0:0x82bd09d5a612927b,
hardware store,Toko umum,Bintauna Fishing Store,"VHH2+PM4, Pimpi, Kec. Bintauna, Kabupaten Bolaang Mongondow Utara, Sulawesi Utara","Kabupaten Bolaang Mongondow Utara, Sulawesi Utara",SULAWESI UTARA,,Indonesia,,,,0.8792643,123.5517004,https://maps.google.com/?cid=0x0:0x5048b84134687116,
hardware store,Toko,UD. SULTHAN JAYA,"Biontong, Kec. Bolang Itang Tim., Kabupaten Bolaang Mongondow Utara, Sulawesi Utara 95763","Kec. Bolang Itang Tim., Kabupaten Bolaang Mongondow Utara",SULAWESI UTARA,95763.0,Indonesia,85256425012.0,,,0.8820877,123.4928241,https://maps.google.com/?cid=0x0:0x80e36d506bfae88d,
hardware store,,Toko Citra Hardware,"W825+J76, Jambu Sarang, Kec. Bolang Itang Bar., Kabupaten Bolaang Mongondow Utara, Sulawesi Utara","Kabupaten Bolaang Mongondow Utara, Sulawesi Utara",SULAWESI UTARA,,Indonesia,85335309263.0,,,0.9015433,123.308154,https://maps.google.com/?cid=0x0:0x20f1f87b6271fbbf,
hardware store,hardware store,Kec. Bolang Itang Bar.,"Kabupaten Bolaang Mongondow Utara, Sulawesi Utara","Kabupaten Bolaang Mongondow Utara, Sulawesi Utara",SULAWESI UTARA,,Indonesia,,,,0.9075668,123.3055527,https://maps.google.com/?cid=0x0:0x17cd151ba51a2f1e,
hardware store,,Toko Citra Hardware,"W825+J76, Jambu Sarang, Kec. Bolang Itang Bar., Kabupaten Bolaang Mongondow Utara, Sulawesi Utara","Kabupaten Bolaang Mongondow Utara, Sulawesi Utara",SULAWESI UTARA,,Indonesia,85335309263.0,,,0.9015433,123.308154,https://maps.google.com/?cid=0x0:0x20f1f87b6271fbbf,
hardware store,Toko Bahan Bangunan,Toko Naulas,"W836+F7X, Bolangitang, Kec. Bolang Itang Bar., Kabupaten Bolaang Mongondow Utara, Sulawesi Utara","Kabupaten Bolaang Mongondow Utara, Sulawesi Utara",SULAWESI UTARA,,Indonesia,,,,0.9037345,123.3107313,https://maps.google.com/?cid=0x0:0x77429f25fd08e7ea,
hardware store,Pusat Perbelanjaan,MR.DIY,"Jl. L.G Korompot, East Boroko, Kaidipang, North Bolaang Mongondow Regency, North Sulawesi 95765","East Boroko, Kaidipang, North Bolaang Mongondow Regency",SULAWESI UTARA,95765.0,Indonesia,,,,0.9106199,123.2691347,https://maps.google.com/?cid=0x0:0x890dde17fbec1a2e,
hardware store,Toko Bahan Bangunan,Toko ARNED,"Depan masjid Al-Ikhwan, Bigo, Kec. Kaidipang, Kabupaten Bolaang Mongondow Utara, Sulawesi Utara 95765","Bigo, Kec. Kaidipang, Kabupaten Bolaang Mongondow Utara",SULAWESI UTARA,95765.0,Indonesia,81245024301.0,,,0.9024573,123.2662362,https://maps.google.com/?cid=0x0:0xe47eb7492bdb2b2b,
hardware store,hardware store,Kec. Bolang Itang Tim.,"Kabupaten Bolaang Mongondow Utara, Sulawesi Utara","Kabupaten Bolaang Mongondow Utara, Sulawesi Utara",SULAWESI UTARA,,Indonesia,,,,0.8798076,123.4530257,https://maps.google.com/?cid=0x0:0x73767b2b7d690727,
hardware store,,Toko Citra Hardware,"W825+J76, Jambu Sarang, Kec. Bolang Itang Bar., Kabupaten Bolaang Mongondow Utara, Sulawesi Utara","Kabupaten Bolaang Mongondow Utara, Sulawesi Utara",SULAWESI UTARA,,Indonesia,85335309263.0,,,0.9015433,123.308154,https://maps.google.com/?cid=0x0:0x20f1f87b6271fbbf,
hardware store,Toko,UD. SULTHAN JAYA,"Biontong, Kec. Bolang Itang Tim., Kabupaten Bolaang Mongondow Utara, Sulawesi Utara 95763","Kec. Bolang Itang Tim., Kabupaten Bolaang Mongondow Utara",SULAWESI UTARA,95763.0,Indonesia,85256425012.0,,,0.8820877,123.4928241,https://maps.google.com/?cid=0x0:0x80e36d506bfae88d,
hardware store,Pusat Perbelanjaan,MR.DIY,"Jl. L.G Korompot, East Boroko, Kaidipang, North Bolaang Mongondow Regency, North Sulawesi 95765","East Boroko, Kaidipang, North Bolaang Mongondow Regency",SULAWESI UTARA,95765.0,Indonesia,,,,0.9106199,123.2691347,https://maps.google.com/?cid=0x0:0x890dde17fbec1a2e,
hardware store,Toko Bahan Bangunan,Toko Roffy Jaya,"W73C+H5M, Bigo, Kec. Kaidipang, Kabupaten Bolaang Mongondow Utara, Sulawesi Utara","Kabupaten Bolaang Mongondow Utara, Sulawesi Utara",SULAWESI UTARA,,Indonesia,81225533972.0,,,0.9039635,123.27042,https://maps.google.com/?cid=0x0:0xe200e5b4216a47d2,
hardware store,Toko,Toko GRAND HARDWARE,"CXJH+22P, Sarongsong I, Kec. Airmadidi, Kabupaten Minahasa Utara, Sulawesi Utara","Kabupaten Minahasa Utara, Sulawesi Utara",SULAWESI UTARA,,Indonesia,,,,1.4300932,124.9775741,https://maps.google.com/?cid=0x0:0xd5bea6e4e94329b1,
hardware store,Toko,Prasetyo,"Bohabak III, Kec. Bolang Itang Tim., Kabupaten Bolaang Mongondow Utara, Sulawesi Utara","Kabupaten Bolaang Mongondow Utara, Sulawesi Utara",SULAWESI UTARA,,Indonesia,,,,0.8811255,123.4614895,https://maps.google.com/?cid=0x0:0x2e14520b3c8a91f9,
hardware store,Toko,Toko Harmonis,"Binjeita, Kec. Bolang Itang Tim., Kabupaten Bolaang Mongondow Utara, Sulawesi Utara","Kabupaten Bolaang Mongondow Utara, Sulawesi Utara",SULAWESI UTARA,,Indonesia,,,,0.8808051,123.4778666,https://maps.google.com/?cid=0x0:0x695b2b2a5aed8398,
hardware store,Toko Bahan Bangunan,Toko ARNED,"Depan masjid Al-Ikhwan, Bigo, Kec. Kaidipang, Kabupaten Bolaang Mongondow Utara, Sulawesi Utara 95765","Bigo, Kec. Kaidipang, Kabupaten Bolaang Mongondow Utara",SULAWESI UTARA,95765.0,Indonesia,81245024301.0,,,0.9024573,123.2662362,https://maps.google.com/?cid=0x0:0xe47eb7492bdb2b2b,
hardware store,Toko Perlengkapan Rumah,Grand Hardware,"FR58+3RF, Malalayang Satu, Kec. Malalayang, Kota Manado, Sulawesi Utara","Kota Manado, Sulawesi Utara",SULAWESI UTARA,,Indonesia,,,,1.4576853,124.8170507,https://maps.google.com/?cid=0x0:0xfd46d3ac7a01670e,
hardware store,Toko Fotokopi,Foto Copy Maura,"Binjeita, Kec. Bolang Itang Tim., Kabupaten Bolaang Mongondow Utara, Sulawesi Utara","Kabupaten Bolaang Mongondow Utara, Sulawesi Utara",SULAWESI UTARA,,Indonesia,85210258546.0,,,0.8791065,123.4745216,https://maps.google.com/?cid=0x0:0x55502a8e77ee5b40,
hardware store,Toko Bahan Bangunan,Toko Naulas,"W836+F7X, Bolangitang, Kec. Bolang Itang Bar., Kabupaten Bolaang Mongondow Utara, Sulawesi Utara","Kabupaten Bolaang Mongondow Utara, Sulawesi Utara",SULAWESI UTARA,,Indonesia,,,,0.9037345,123.3107313,https://maps.google.com/?cid=0x0:0x77429f25fd08e7ea,
hardware store,Toko Perlengkapan Rumah,Grand Hardware,"Komplek Marina Plaza Blok B No. 7-10, Jl. Piere Tendean Boulevard,manado, Manado, Sulawesi Utara, 95111","Jl. Piere Tendean Boulevard,manado, Manado",SULAWESI UTARA,95111.0,Indonesia,85255443510.0,,,1.4924543,124.838346,https://maps.google.com/?cid=0x0:0x513c63d19209ca5,
hardware store,hardware store,Kec. Kaidipang,"Kabupaten Bolaang Mongondow Utara, Sulawesi Utara","Kabupaten Bolaang Mongondow Utara, Sulawesi Utara",SULAWESI UTARA,,Indonesia,,,,0.9061974,123.2652382,https://maps.google.com/?cid=0x0:0x2e226efafb429867,
hardware store,Pusat Perbelanjaan,MR.DIY,"Jl. L.G Korompot, East Boroko, Kaidipang, North Bolaang Mongondow Regency, North Sulawesi 95765","East Boroko, Kaidipang, North Bolaang Mongondow Regency",SULAWESI UTARA,95765.0,Indonesia,,,,0.9106199,123.2691347,https://maps.google.com/?cid=0x0:0x890dde17fbec1a2e,
hardware store,Toko Bahan Bangunan,Toko Fajar Timur,"Jl. Trans-Sulawesi, Kuala, Kec. Kaidipang, Kabupaten Bolaang Mongondow Utara, Sulawesi Utara 95765","Kuala, Kec. Kaidipang, Kabupaten Bolaang Mongondow Utara",SULAWESI UTARA,95765.0,Indonesia,,,,0.9054566,123.272652,https://maps.google.com/?cid=0x0:0xc82c00431f7b07a1,
hardware store,Toko Bahan Bangunan,Toko ARNED,"Depan masjid Al-Ikhwan, Bigo, Kec. Kaidipang, Kabupaten Bolaang Mongondow Utara, Sulawesi Utara 95765","Bigo, Kec. Kaidipang, Kabupaten Bolaang Mongondow Utara",SULAWESI UTARA,95765.0,Indonesia,81245024301.0,,,0.9024573,123.2662362,https://maps.google.com/?cid=0x0:0xe47eb7492bdb2b2b,
hardware store,,Toko Citra Hardware,"W825+J76, Jambu Sarang, Kec. Bolang Itang Bar., Kabupaten Bolaang Mongondow Utara, Sulawesi Utara","Kabupaten Bolaang Mongondow Utara, Sulawesi Utara",SULAWESI UTARA,,Indonesia,85335309263.0,,,0.9015433,123.308154,https://maps.google.com/?cid=0x0:0x20f1f87b6271fbbf,
hardware store,Toko Alat Tulis Kantor,Anugerah Shop,"Jl. Manggis No.187, Dusun 1, South Bigo, Kaidipang, North Bolaang Mongondow Regency, North Sulawesi 95765","Dusun 1, South Bigo, Kaidipang, North Bolaang Mongondow Regency",SULAWESI UTARA,95765.0,Indonesia,85240407040.0,,,0.8992166,123.2652955,https://maps.google.com/?cid=0x0:0x3c948b7b8fd362a4,
hardware store,hardware store,Kec. Pinogaluman,"Kabupaten Bolaang Mongondow Utara, Sulawesi Utara","Kabupaten Bolaang Mongondow Utara, Sulawesi Utara",SULAWESI UTARA,,Indonesia,,,,0.9178578,123.1401469,https://maps.google.com/?cid=0x0:0x4bec49665b3f40dd,
hardware store,Toko Bahan Bangunan,Toko Roffy Jaya,"W73C+H5M, Bigo, Kec. Kaidipang, Kabupaten Bolaang Mongondow Utara, Sulawesi Utara","Kabupaten Bolaang Mongondow Utara, Sulawesi Utara",SULAWESI UTARA,,Indonesia,81225533972.0,,,0.9039635,123.27042,https://maps.google.com/?cid=0x0:0xe200e5b4216a47d2,
hardware store,Pusat Perbelanjaan,MR.DIY,"Jl. L.G Korompot, East Boroko, Kaidipang, North Bolaang Mongondow Regency, North Sulawesi 95765","East Boroko, Kaidipang, North Bolaang Mongondow Regency",SULAWESI UTARA,95765.0,Indonesia,,,,0.9106199,123.2691347,https://maps.google.com/?cid=0x0:0x890dde17fbec1a2e,
hardware store,Toko Bahan Bangunan,Toko ARNED,"Depan masjid Al-Ikhwan, Bigo, Kec. Kaidipang, Kabupaten Bolaang Mongondow Utara, Sulawesi Utara 95765","Bigo, Kec. Kaidipang, Kabupaten Bolaang Mongondow Utara",SULAWESI UTARA,95765.0,Indonesia,81245024301.0,,,0.9024573,123.2662362,https://maps.google.com/?cid=0x0:0xe47eb7492bdb2b2b,
hardware store,Toko,Toko GRAND HARDWARE,"CXJH+22P, Sarongsong I, Kec. Airmadidi, Kabupaten Minahasa Utara, Sulawesi Utara","Kabupaten Minahasa Utara, Sulawesi Utara",SULAWESI UTARA,,Indonesia,,,,1.4300932,124.9775741,https://maps.google.com/?cid=0x0:0xd5bea6e4e94329b1,
hardware store,Toko Alat Tulis Kantor,Anugerah Shop,"Jl. Manggis No.187, Dusun 1, South Bigo, Kaidipang, North Bolaang Mongondow Regency, North Sulawesi 95765","Dusun 1, South Bigo, Kaidipang, North Bolaang Mongondow Regency",SULAWESI UTARA,95765.0,Indonesia,85240407040.0,,,0.8992166,123.2652955,https://maps.google.com/?cid=0x0:0x3c948b7b8fd362a4,
hardware store,Kantor Perusahaan,Kuma Hardware Store,"Jl. Trans-Sulawesi, Tandu, Kec. Lolak, Kabupaten Bolaang Mongondow, Sulawesi Utara 95761","Tandu, Kec. Lolak, Kabupaten Bolaang Mongondow",SULAWESI UTARA,95761.0,Indonesia,82244559590.0,,,0.8763154,124.0749894,https://maps.google.com/?cid=0x0:0xc937b5a48781fcf8,
hardware store,Percetakan Komersial,I-Home Bolmong digital printing  offset,"V2JM+QQV, Jl. Trans-Sulawesi, Lolak Tambolango, Kec. Lolak, Kabupaten Bolaang Mongondow, Sulawesi Utara","Kabupaten Bolaang Mongondow, Sulawesi Utara",SULAWESI UTARA,,Indonesia,85299959990.0,,,0.8819863,124.0344101,https://maps.google.com/?cid=0x0:0xa02b031e2dce8dce,
hardware store,Toko Ponsel,King Hardware Bunta,"Bunta, Dusun Matabolo, Kabupaten Morowali Utara, Sulawesi Tengah 94971","Dusun Matabolo, Kabupaten Morowali Utara",SULAWESI UTARA,94971.0,Indonesia,82133338688.0,,,-2.0521088,121.3660482,https://maps.google.com/?cid=0x0:0x495dab56c8039a2a,
home improvement,home improvement,Kec. Bintauna,"Kabupaten Bolaang Mongondow Utara, Sulawesi Utara","Kabupaten Bolaang Mongondow Utara, Sulawesi Utara",SULAWESI UTARA,,Indonesia,,,,0.8804511,123.5506194,https://maps.google.com/?cid=0x0:0x8b4cfeaf6f8ff4de,
home improvement,home improvement,Bintauna,"Biontong, Kec. Bolang Itang Tim., Kabupaten Bolaang Mongondow Utara, Sulawesi Utara","Kabupaten Bolaang Mongondow Utara, Sulawesi Utara",SULAWESI UTARA,,Indonesia,,,,0.865688,123.490196,https://maps.google.com/?cid=0x0:0xf16e31ff814e66e4,
home improvement,Komplek perumahan,Home Obeen,"VGJH+374, Kuhanga, Kec. Bintauna, Kabupaten Bolaang Mongondow Utara, Sulawesi Utara","Kabupaten Bolaang Mongondow Utara, Sulawesi Utara",SULAWESI UTARA,,Indonesia,,,,0.8801262,123.5282038,https://maps.google.com/?cid=0x0:0x63f514712ae20262,
home improvement,home improvement,Bolangitang,"Kec. Bolang Itang Bar., Kabupaten Bolaang Mongondow Utara, Sulawesi Utara","Kabupaten Bolaang Mongondow Utara, Sulawesi Utara",SULAWESI UTARA,,Indonesia,,,,0.9037345,123.3107313,https://maps.google.com/?cid=0x0:0xac4d872202262b07,
home improvement,home improvement,Kec. Bolang Itang Bar.,"Kabupaten Bolaang Mongondow Utara, Sulawesi Utara","Kabupaten Bolaang Mongondow Utara, Sulawesi Utara",SULAWESI UTARA,,Indonesia,,,,0.9075668,123.3055527,https://maps.google.com/?cid=0x0:0x17cd151ba51a2f1e,
home improvement,Studio Rekaman,A.M HOME,"V8X3+P2P, Talaga Tomoagu, Kec. Bolang Itang Bar., Kabupaten Bolaang Mongondow Utara, Sulawesi Utara","Kabupaten Bolaang Mongondow Utara, Sulawesi Utara",SULAWESI UTARA,,Indonesia,82346787994.0,,,0.8983651,123.3035731,https://maps.google.com/?cid=0x0:0xcdae9912f78bba27,
home improvement,Rumah Kaca,Nando Home Ollot,"V8FG+5P2, Ollot, Kec. Bolang Itang Bar., Kabupaten Bolaang Mongondow Utara, Sulawesi Utara","Kabupaten Bolaang Mongondow Utara, Sulawesi Utara",SULAWESI UTARA,,Indonesia,,,,0.8728811,123.3267605,https://maps.google.com/?cid=0x0:0x6507e5a8dafcf8d5,
home improvement,Toko Lampu,Buahtangankia,"Jambu Sarang, Kec. Bolang Itang Bar., Kabupaten Bolaang Mongondow Utara, Sulawesi Utara 95764","Kec. Bolang Itang Bar., Kabupaten Bolaang Mongondow Utara",SULAWESI UTARA,95764.0,Indonesia,85397080785.0,,,0.8969233,123.3062583,https://maps.google.com/?cid=0x0:0x62da0371bd0af519,
home improvement,home improvement,Kec. Bolang Itang Tim.,"Kabupaten Bolaang Mongondow Utara, Sulawesi Utara","Kabupaten Bolaang Mongondow Utara, Sulawesi Utara",SULAWESI UTARA,,Indonesia,,,,0.8798076,123.4530257,https://maps.google.com/?cid=0x0:0x73767b2b7d690727,
home improvement,Rumah Kayu,Home Imaa,"VCQ5+PCP, Jl suplir, dusun 4, Saleo Satu, Kec. Bolang Itang Tim., Kabupaten Bolaang Mongondow Utara, Sulawesi Utara","Kabupaten Bolaang Mongondow Utara, Sulawesi Utara",SULAWESI UTARA,,Indonesia,,,,0.88933,123.4085788,https://maps.google.com/?cid=0x0:0x8153c51dd86923f9,
home improvement,Toko Suvenir,Buah tangan inal,"Talaga, Kec. Bolang Itang Bar., Kabupaten Bolaang Mongondow Utara, Sulawesi Utara 95764","Kec. Bolang Itang Bar., Kabupaten Bolaang Mongondow Utara",SULAWESI UTARA,95764.0,Indonesia,82188097683.0,,,0.906335,123.2976521,https://maps.google.com/?cid=0x0:0x1dc1f01c1495c56e,
home improvement,Studio Rekaman,A.M HOME,"V8X3+P2P, Talaga Tomoagu, Kec. Bolang Itang Bar., Kabupaten Bolaang Mongondow Utara, Sulawesi Utara","Kabupaten Bolaang Mongondow Utara, Sulawesi Utara",SULAWESI UTARA,,Indonesia,82346787994.0,,,0.8983651,123.3035731,https://maps.google.com/?cid=0x0:0xcdae9912f78bba27,
home improvement,Komplek perumahan,HOME IPONG,"V9MH+PX2, Jl. Aras, Mokoditek I, Kec. Bolang Itang Tim., Kabupaten Bolaang Mongondow Utara, Sulawesi Utara","Kabupaten Bolaang Mongondow Utara, Sulawesi Utara",SULAWESI UTARA,,Indonesia,,,,0.8842517,123.3798816,https://maps.google.com/?cid=0x0:0x98b0d4708a9be2a8,
home improvement,home improvement,Kec. Kaidipang,"Kabupaten Bolaang Mongondow Utara, Sulawesi Utara","Kabupaten Bolaang Mongondow Utara, Sulawesi Utara",SULAWESI UTARA,,Indonesia,,,,0.9061974,123.2652382,https://maps.google.com/?cid=0x0:0x2e226efafb429867,
home improvement,Pusat Perbelanjaan,MR.DIY,"Jl. L.G Korompot, East Boroko, Kaidipang, North Bolaang Mongondow Regency, North Sulawesi 95765","East Boroko, Kaidipang, North Bolaang Mongondow Regency",SULAWESI UTARA,95765.0,Indonesia,,,,0.9106199,123.2691347,https://maps.google.com/?cid=0x0:0x890dde17fbec1a2e,
home improvement,Taman,Home Jalan Rambutan,"W777+222, Boroko, Kec. Kaidipang, Kabupaten Bolaang Mongondow Utara, Sulawesi Utara","Kabupaten Bolaang Mongondow Utara, Sulawesi Utara",SULAWESI UTARA,,Indonesia,,,,0.9125136,123.2625068,https://maps.google.com/?cid=0x0:0x19c6f5f652ab04cf,
home improvement,Toko Perlengkapan Rumah,Bonsai Boroko,"Jl. pelabuhan No.334, Boroko, Kec. Kaidipang, Kabupaten Bolaang Mongondow Utara, Sulawesi Utara","Kabupaten Bolaang Mongondow Utara, Sulawesi Utara",SULAWESI UTARA,,Indonesia,82295027214.0,,,0.9087379,123.266259,https://maps.google.com/?cid=0x0:0x75a5fbcbea07566b,
home improvement,home improvement,Kec. Pinogaluman,"Kabupaten Bolaang Mongondow Utara, Sulawesi Utara","Kabupaten Bolaang Mongondow Utara, Sulawesi Utara",SULAWESI UTARA,,Indonesia,,,,0.9178578,123.1401469,https://maps.google.com/?cid=0x0:0x4bec49665b3f40dd,
home improvement,Komplek perumahan,Apin Home,"W45C+2R9, Jl. Trans-Sulawesi, Tontulow Utara, Kec. Pinogaluman, Kabupaten Bolaang Mongondow Utara, Sulawesi Utara 96253","Jl. Trans-Sulawesi, Tontulow Utara, Kec. Pinogaluman, Kabupaten Bolaang Mongondow Utara",SULAWESI UTARA,96253.0,Indonesia,,,,0.9079105,123.1221334,https://maps.google.com/?cid=0x0:0x205e768a5f61e30,
home improvement,Perumahan rakyat,Imon Home,"W46C+43, Tontulow Utara, Kec. Pinogaluman, Kabupaten Bolaang Mongondow Utara, Sulawesi Utara 96253","Tontulow Utara, Kec. Pinogaluman, Kabupaten Bolaang Mongondow Utara",SULAWESI UTARA,96253.0,Indonesia,,,,0.9102817,123.120165,https://maps.google.com/?cid=0x0:0xc6d02fcd926c070d,
home improvement,Pusat Perbelanjaan,MR.DIY,"Jl. L.G Korompot, East Boroko, Kaidipang, North Bolaang Mongondow Regency, North Sulawesi 95765","East Boroko, Kaidipang, North Bolaang Mongondow Regency",SULAWESI UTARA,95765.0,Indonesia,,,,0.9106199,123.2691347,https://maps.google.com/?cid=0x0:0x890dde17fbec1a2e,
home improvement,Rumah wisata,Nina home,"W48Q+338, lapangan, Buko, Kec. Pinogaluman, Kabupaten Bolaang Mongondow Utara, Sulawesi Utara","Kabupaten Bolaang Mongondow Utara, Sulawesi Utara",SULAWESI UTARA,,Indonesia,,,,0.9151723,123.1377154,https://maps.google.com/?cid=0x0:0x99fcaafdb7f11627,
home improvement,Tujuan Wisata,HOME,"W767+969, Boroko, Kec. Kaidipang, Kabupaten Bolaang Mongondow Utara, Sulawesi Utara","Kabupaten Bolaang Mongondow Utara, Sulawesi Utara",SULAWESI UTARA,,Indonesia,,,,0.9109464,123.2628136,https://maps.google.com/?cid=0x0:0x494b84750eb76ae3,
home improvement,Dapur Umum,produk alat dapur,"Kuala, Kec. Kaidipang, Kabupaten Bolaang Mongondow Utara, Sulawesi Utara 95765","Kec. Kaidipang, Kabupaten Bolaang Mongondow Utara",SULAWESI UTARA,95765.0,Indonesia,83159937280.0,,,0.903648,123.283401,https://maps.google.com/?cid=0x0:0xc54bb4f1aec7722d,
home improvement,Studio Rekaman,A.M HOME,"V8X3+P2P, Talaga Tomoagu, Kec. Bolang Itang Bar., Kabupaten Bolaang Mongondow Utara, Sulawesi Utara","Kabupaten Bolaang Mongondow Utara, Sulawesi Utara",SULAWESI UTARA,,Indonesia,82346787994.0,,,0.8983651,123.3035731,https://maps.google.com/?cid=0x0:0xcdae9912f78bba27,
home improvement,Komplek perumahan,BLACK_WHITE HOME,"V8Q7+MQC, Sonuo, Kec. Bolang Itang Bar., Kabupaten Bolaang Mongondow Utara, Sulawesi Utara","Kabupaten Bolaang Mongondow Utara, Sulawesi Utara",SULAWESI UTARA,,Indonesia,,,,0.8888876,123.3146825,https://maps.google.com/?cid=0x0:0x5ceca85076c8784f,
home improvement,home improvement,Gigin shop,"Jl. Trans-Sulawesi, Boroko, Kec. Kaidipang, Kabupaten Bolaang Mongondow Utara, Sulawesi Utara 96583","Boroko, Kec. Kaidipang, Kabupaten Bolaang Mongondow Utara",SULAWESI UTARA,96583.0,Indonesia,82293410104.0,,,0.9052458,123.2531884,https://maps.google.com/?cid=0x0:0x903f63ccb2256efd,
home improvement,Rumah Kaca,Nando Home Ollot,"V8FG+5P2, Ollot, Kec. Bolang Itang Bar., Kabupaten Bolaang Mongondow Utara, Sulawesi Utara","Kabupaten Bolaang Mongondow Utara, Sulawesi Utara",SULAWESI UTARA,,Indonesia,,,,0.8728811,123.3267605,https://maps.google.com/?cid=0x0:0x6507e5a8dafcf8d5,
home improvement,home improvement,Kec. Sangkub,"Kabupaten Bolaang Mongondow Utara, Sulawesi Utara","Kabupaten Bolaang Mongondow Utara, Sulawesi Utara",SULAWESI UTARA,,Indonesia,,,,0.8799509,123.6478886,https://maps.google.com/?cid=0x0:0xded44acee8c90687,
home improvement,Jasa Konstruksi dan Bangunan,NANG JESSICA HOME,"G2RG+97Q, Kinomalingan, Kec. Dumoga Bar., Kabupaten Bolaang Mongondow, Sulawesi Utara","Kabupaten Bolaang Mongondow, Sulawesi Utara",SULAWESI UTARA,,Indonesia,,,,0.5409328,124.0259346,https://maps.google.com/?cid=0x0:0x58dca661e17124ea,
home improvement,Komplek perumahan,ecy home,"VJJQ+QQP, Sangkub III, Kec. Sangkub, Kabupaten Bolaang Mongondow Utara, Sulawesi Utara","Kabupaten Bolaang Mongondow Utara, Sulawesi Utara",SULAWESI UTARA,,Indonesia,85757067396.0,,,0.8834942,123.6393832,https://maps.google.com/?cid=0x0:0xc1243199bbc21256,
