Category,Real Category,Business Name,Address,City,State,Postal Code,Country,Phone,Email,Website,Latitude,Longitude,Map Link,Details Link
mall,Toserba,PASAR MODEREN BINTAUNA,"VHJ2+VM7, Bintauna, Kec. Bintauna, Kabupaten Bolaang Mongondow Utara, Sulawesi Utara","Kabupaten Bolaang Mongondow Utara, Sulawesi Utara",SULAWESI UTARA,,Indonesia,85240292394.0,,,0.8821705,123.5516852,https://maps.google.com/?cid=0x0:0xeb56e5874f562b4a,
mall,Toserba,Alfamart,"VGJV+2FP, Jl. Trans-Sulawesi, Padang Bar., Kec. Bintauna, Kabupaten Bolaang Mongondow Utara, Sulawesi Utara","Kabupaten Bolaang Mongondow Utara, Sulawesi Utara",SULAWESI UTARA,,Indonesia,,,,0.8800983,123.5437063,https://maps.google.com/?cid=0x0:0x95394c6c7b4ae3d,
mall,Toko bahan makanan,Indomaret Bohabak,"VFH3+R47, Jl. Trans-Sulawesi, Bohabak IV, Kec. Bolang Itang Tim., Kabupaten Bolaang Mongondow Utara, Sulawesi Utara","Kabupaten Bolaang Mongondow Utara, Sulawesi Utara",SULAWESI UTARA,,Indonesia,,,,0.8795416,123.4528093,https://maps.google.com/?cid=0x0:0x5a4eda131f572586,
mall,Toko Perlengkapan Rumah,Kios_A2,"Jln. DesaPoporo, Batulintik, Kec. Bintauna, Kabupaten Bolaang Mongondow Utara, Sulawesi Utara 95763","Batulintik, Kec. Bintauna, Kabupaten Bolaang Mongondow Utara",SULAWESI UTARA,95763.0,Indonesia,85825320632.0,,,0.8821849,123.5589608,https://maps.google.com/?cid=0x0:0xaee58ef708829304,
mall,Toko umum,Bintauna Fishing Store,"VHH2+PM4, Pimpi, Kec. Bintauna, Kabupaten Bolaang Mongondow Utara, Sulawesi Utara","Kabupaten Bolaang Mongondow Utara, Sulawesi Utara",SULAWESI UTARA,,Indonesia,,,,0.8792643,123.5517004,https://maps.google.com/?cid=0x0:0x5048b84134687116,
mall,Toko,Warong Tani Binjeita,"VFHG+M82, Binjeita I, Kec. Bolang Itang Tim., Kabupaten Bolaang Mongondow Utara, Sulawesi Utara","Kabupaten Bolaang Mongondow Utara, Sulawesi Utara",SULAWESI UTARA,,Indonesia,,,,0.8791313,123.4757771,https://maps.google.com/?cid=0x0:0x62ad3fecf589ca14,
mall,Minimarket,PRINCESS MART,"VW4P+MJJ, Jl, Labuhan Uki, Lolak, Bolaang Mongondow Regency, North Sulawesi","Kabupaten Bolaang Mongondow, Sulawesi Utara",SULAWESI UTARA,,Indonesia,85256658886.0,,,0.8567012,123.936502,https://maps.google.com/?cid=0x0:0x6dc97b0bdeeda365,
mall,Kios,KIOS AFRAH,"VHH4+JC8, Jl. Trans-Sulawesi, Bunia, Kec. Bintauna, Kabupaten Bolaang Mongondow Utara, Sulawesi Utara","Kabupaten Bolaang Mongondow Utara, Sulawesi Utara",SULAWESI UTARA,,Indonesia,82196827728.0,,,0.8790403,123.5560825,https://maps.google.com/?cid=0x0:0x78ccc7033eb18264,
mall,Pusat Perbelanjaan,DC KAZANA,"VJG5+HQR, Tombolango, Kec. Sangkub, Kabupaten Bolaang Mongondow Utara, Sulawesi Utara","Kabupaten Bolaang Mongondow Utara, Sulawesi Utara",SULAWESI UTARA,,Indonesia,85256677878.0,,,0.8764971,123.6094045,https://maps.google.com/?cid=0x0:0x1e96b52f760e76e7,
mall,Toko umum,Toko Anto imel,"Mopuya Sel., Kec. Dumoga Utara, Kabupaten Bolaang Mongondow, Sulawesi Utara","Kabupaten Bolaang Mongondow, Sulawesi Utara",SULAWESI UTARA,,Indonesia,85398554388.0,,,0.5631835,123.9740887,https://maps.google.com/?cid=0x0:0x68b3f0a07f70f6cf,
mall,Pusat Perbelanjaan,Pink Cell,"Jl. Trans-Sulawesi, Kuhanga, Kec. Bintauna, Kabupaten Bolaang Mongondow Utara, Sulawesi Utara","Kabupaten Bolaang Mongondow Utara, Sulawesi Utara",SULAWESI UTARA,,Indonesia,82293701163.0,,,0.8792819,123.5260422,https://maps.google.com/?cid=0x0:0xabc114588d45050d,
mall,Pembangunan Perumahan,Bahu Mall,"FR6G+W4J, Bahu Mall, R.W., Jl. Wolter Monginsidi, Bahu, Malalayang, Manado City, North Sulawesi","Kota Manado, Sulawesi Utara",SULAWESI UTARA,,Indonesia,1500125.0,,,1.4623338,124.8252763,https://maps.google.com/?cid=0x0:0x75b15af9becce842,
mall,mall,KAWASAN OUR CELL CENTER,"VHH2+P9W, Jl. Trans Sulawesi, Pimpi, Kec. Bintauna, Kabupaten Bolaang Mongondow Utara, Sulawesi Utara","Kabupaten Bolaang Mongondow Utara, Sulawesi Utara",SULAWESI UTARA,,Indonesia,,,,0.8793591,123.5509663,https://maps.google.com/?cid=0x0:0x2baebbd17d6afb32,
mall,mall,Kec. Bolang Itang Bar.,"Kabupaten Bolaang Mongondow Utara, Sulawesi Utara","Kabupaten Bolaang Mongondow Utara, Sulawesi Utara",SULAWESI UTARA,,Indonesia,,,,0.9075668,123.3055527,https://maps.google.com/?cid=0x0:0x17cd151ba51a2f1e,
mall,Toserba,Nenacell,"V8V6+8H8, Jl. Trans-Sulawesi, Sonuo, Kec. Bolang Itang Bar., Kabupaten Bolaang Mongondow Utara, Sulawesi Utara","Kabupaten Bolaang Mongondow Utara, Sulawesi Utara",SULAWESI UTARA,,Indonesia,81242050905.0,,,0.8932817,123.3114597,https://maps.google.com/?cid=0x0:0x6f9cbd15bb8bcb3a,
mall,Kantor Pemerintah,MALL PELAYANAN PUBLIK,"W758+2FR, Boroko, Kec. Kaidipang, Kabupaten Bolaang Mongondow Utara, Sulawesi Utara","Kabupaten Bolaang Mongondow Utara, Sulawesi Utara",SULAWESI UTARA,,Indonesia,,,,0.9076231,123.2661295,https://maps.google.com/?cid=0x0:0xb07c6ab3e2840326,
mall,Kios,Ayu yakobus,"V9WF+4RG, Mokoditek, Kec. Bolang Itang Tim., Kabupaten Bolaang Mongondow Utara, Sulawesi Utara","Kabupaten Bolaang Mongondow Utara, Sulawesi Utara",SULAWESI UTARA,,Indonesia,85341698770.0,,,0.8953245,123.3745735,https://maps.google.com/?cid=0x0:0x60a794fe75aeaa8a,
mall,Toko bahan makanan,Indomaret Bohabak,"VFH3+R47, Jl. Trans-Sulawesi, Bohabak IV, Kec. Bolang Itang Tim., Kabupaten Bolaang Mongondow Utara, Sulawesi Utara","Kabupaten Bolaang Mongondow Utara, Sulawesi Utara",SULAWESI UTARA,,Indonesia,,,,0.8795416,123.4528093,https://maps.google.com/?cid=0x0:0x5a4eda131f572586,
mall,Toko bahan makanan,LAPAK BARITO PUTRA TUNGGAL,"Boroko Tim., Kec. Kaidipang, Kabupaten Bolaang Mongondow Utara, Sulawesi Utara 95765","Kec. Kaidipang, Kabupaten Bolaang Mongondow Utara",SULAWESI UTARA,95765.0,Indonesia,82393416325.0,,,0.9112872,123.2714443,https://maps.google.com/?cid=0x0:0x6fe2fa9d9d54cab6,
mall,Pusat Perbelanjaan,kios NAZWA,"V9QG+GW7, Mokoditek, Kec. Bolang Itang Tim., Kabupaten Bolaang Mongondow Utara, Sulawesi Utara","Kabupaten Bolaang Mongondow Utara, Sulawesi Utara",SULAWESI UTARA,,Indonesia,82348001781.0,,,0.888788,123.3773018,https://maps.google.com/?cid=0x0:0x6766b80c48e00adc,
mall,Toko Ponsel,DFHIANA CELL,"W748+R79, Boroko, Kec. Kaidipang, Kabupaten Bolaang Mongondow Utara, Sulawesi Utara","Kabupaten Bolaang Mongondow Utara, Sulawesi Utara",SULAWESI UTARA,,Indonesia,85256781008.0,,,0.9070359,123.2657311,https://maps.google.com/?cid=0x0:0xb498b50237f0e543,
mall,Toko bahan makanan,UD. Berkah Fizah Utama,"Boroko, Kec. Kaidipang, Kabupaten Bolaang Mongondow Utara, Sulawesi Utara","Kabupaten Bolaang Mongondow Utara, Sulawesi Utara",SULAWESI UTARA,,Indonesia,85255224660.0,,,0.9085593,123.2659025,https://maps.google.com/?cid=0x0:0xb11a10bc507d65b,
mall,mall,Tambak Udang Pasifik Deylano Farm,"W85G+3Q, Iyok, Kec. Bolang Itang Bar., Kabupaten Bolaang Mongondow Utara, Sulawesi Utara","Kabupaten Bolaang Mongondow Utara, Sulawesi Utara",SULAWESI UTARA,,Indonesia,,,,0.907705,123.32688,https://maps.google.com/?cid=0x0:0x9282abb54b33dbce,
mall,Toko Pertanian,Tk Rahim/Sriwinda M1,"W768+XGR, Boroko, Kec. Kaidipang, Kabupaten Bolaang Mongondow Utara, Sulawesi Utara","Kabupaten Bolaang Mongondow Utara, Sulawesi Utara",SULAWESI UTARA,,Indonesia,,,,0.9124864,123.2662725,https://maps.google.com/?cid=0x0:0xac1ba44d07f2c3d0,
mall,Toko Ponsel,Shafa Tasya Kamila,"W769+QJ7, Boroko Tim., Kec. Kaidipang, Kabupaten Bolaang Mongondow Utara, Sulawesi Utara 95765","Boroko Tim., Kec. Kaidipang, Kabupaten Bolaang Mongondow Utara",SULAWESI UTARA,95765.0,Indonesia,82190932376.0,,,0.9119085,123.2690479,https://maps.google.com/?cid=0x0:0xe67026baded1142,
mall,Toko Perlengkapan Rumah,Bonsai Boroko,"Jl. pelabuhan No.334, Boroko, Kec. Kaidipang, Kabupaten Bolaang Mongondow Utara, Sulawesi Utara","Kabupaten Bolaang Mongondow Utara, Sulawesi Utara",SULAWESI UTARA,,Indonesia,82295027214.0,,,0.9087379,123.266259,https://maps.google.com/?cid=0x0:0x75a5fbcbea07566b,
mall,Toko,Warong Tani Binjeita,"VFHG+M82, Binjeita I, Kec. Bolang Itang Tim., Kabupaten Bolaang Mongondow Utara, Sulawesi Utara","Kabupaten Bolaang Mongondow Utara, Sulawesi Utara",SULAWESI UTARA,,Indonesia,,,,0.8791313,123.4757771,https://maps.google.com/?cid=0x0:0x62ad3fecf589ca14,
mall,mall,Husnia Lihawa,"M53C+7PF, Pilolaheya, Kec. Bulango Ulu, Kabupaten Bone Bolango, Gorontalo","Kabupaten Bone Bolango, Gorontalo",SULAWESI UTARA,,Indonesia,,,,0.6531926,123.1717848,https://maps.google.com/?cid=0x0:0xce55c4249fd839f1,
mall,Pusat Perbelanjaan,Megamall Manado,"Kawasan Megamas, Kantor Pengelola Megamall, Jl. Piere Tendean, Wenang Sel., Kec. Wenang, Kota Manado, Sulawesi Utara 95234","Kantor Pengelola Megamall, Jl. Piere Tendean, Wenang Sel., Kec. Wenang, Kota Manado",SULAWESI UTARA,95234.0,Indonesia,431879889.0,,,1.4839687,124.8348372,https://maps.google.com/?cid=0x0:0xfcc9b9fa2283700,
mall,Seafood,PT LIMA SAUDARA MUSTIKA,"W769+4R2, Boroko Tim., Kec. Kaidipang, Kabupaten Bolaang Mongondow Utara, Sulawesi Utara","Kabupaten Bolaang Mongondow Utara, Sulawesi Utara",SULAWESI UTARA,,Indonesia,,,,0.9102625,123.2695156,https://maps.google.com/?cid=0x0:0xaa7ee484e8e2492d,
mall,Minimarket,Indomaret Bolaang Itang Barat,"W834+FQ5, Bolangitang, Kec. Bolang Itang Bar., Kabupaten Bolaang Mongondow Utara, Sulawesi Utara","Kabupaten Bolaang Mongondow Utara, Sulawesi Utara",SULAWESI UTARA,,Indonesia,,,,0.9036457,123.3069879,https://maps.google.com/?cid=0x0:0xe7591e319890caba,
mall,Minimarket,CItra Mart,"Jl. Trans-Sulawesi, Boroko Tim., Kec. Kaidipang, Kabupaten Bolaang Mongondow Utara, Sulawesi Utara","Kabupaten Bolaang Mongondow Utara, Sulawesi Utara",SULAWESI UTARA,,Indonesia,8114391188.0,,,0.9033396,123.2709695,https://maps.google.com/?cid=0x0:0x5889f3e250aa966,
mall,Toko Makanan Alami,Tridaya Sinergi Indonesia Sulawesi Utara Rokok Herbal SIN,"Jl. Samratulangi No.83, Boroko, Kec. Kaidipang, Kabupaten Bolaang Mongondow Utara, Sulawesi Utara 95765","Boroko, Kec. Kaidipang, Kabupaten Bolaang Mongondow Utara",SULAWESI UTARA,95765.0,Indonesia,81247064874.0,,,0.9072022,123.2642754,https://maps.google.com/?cid=0x0:0xbe811d56c444e8f4,
mall,mall,Kec. Bolang Itang Tim.,"Kabupaten Bolaang Mongondow Utara, Sulawesi Utara","Kabupaten Bolaang Mongondow Utara, Sulawesi Utara",SULAWESI UTARA,,Indonesia,,,,0.8798076,123.4530257,https://maps.google.com/?cid=0x0:0x73767b2b7d690727,
mall,Toko bahan makanan,Indomaret Bohabak,"VFH3+R47, Jl. Trans-Sulawesi, Bohabak IV, Kec. Bolang Itang Tim., Kabupaten Bolaang Mongondow Utara, Sulawesi Utara","Kabupaten Bolaang Mongondow Utara, Sulawesi Utara",SULAWESI UTARA,,Indonesia,,,,0.8795416,123.4528093,https://maps.google.com/?cid=0x0:0x5a4eda131f572586,
mall,Toko,HAMA Shop,"V9QJ+232, Jl. Trans-Sulawesi, Mokoditek I, Kec. Bolang Itang Tim., Kabupaten Bolaang Mongondow Utara, Sulawesi Utara","Kabupaten Bolaang Mongondow Utara, Sulawesi Utara",SULAWESI UTARA,,Indonesia,,,,0.8875222,123.3801254,https://maps.google.com/?cid=0x0:0x83ff53d3e6647015,
mall,Toko,Warong Tani Binjeita,"VFHG+M82, Binjeita I, Kec. Bolang Itang Tim., Kabupaten Bolaang Mongondow Utara, Sulawesi Utara","Kabupaten Bolaang Mongondow Utara, Sulawesi Utara",SULAWESI UTARA,,Indonesia,,,,0.8791313,123.4757771,https://maps.google.com/?cid=0x0:0x62ad3fecf589ca14,
mall,Pusat Perbelanjaan,Kios NIZAM,"VFQ4+M6W, Jl. Pelabuhan, Bohabak II, Kec. Bolang Itang Tim., Kabupaten Bolaang Mongondow Utara, Sulawesi Utara","Kabupaten Bolaang Mongondow Utara, Sulawesi Utara",SULAWESI UTARA,,Indonesia,,,,0.8892254,123.4555696,https://maps.google.com/?cid=0x0:0xb5628d3e5d140dbc,
mall,Toserba,Nenacell,"V8V6+8H8, Jl. Trans-Sulawesi, Sonuo, Kec. Bolang Itang Bar., Kabupaten Bolaang Mongondow Utara, Sulawesi Utara","Kabupaten Bolaang Mongondow Utara, Sulawesi Utara",SULAWESI UTARA,,Indonesia,81242050905.0,,,0.8932817,123.3114597,https://maps.google.com/?cid=0x0:0x6f9cbd15bb8bcb3a,
mall,Pusat Perbelanjaan,kios NAZWA,"V9QG+GW7, Mokoditek, Kec. Bolang Itang Tim., Kabupaten Bolaang Mongondow Utara, Sulawesi Utara","Kabupaten Bolaang Mongondow Utara, Sulawesi Utara",SULAWESI UTARA,,Indonesia,82348001781.0,,,0.888788,123.3773018,https://maps.google.com/?cid=0x0:0x6766b80c48e00adc,
mall,Toserba,PASAR MODEREN BINTAUNA,"VHJ2+VM7, Bintauna, Kec. Bintauna, Kabupaten Bolaang Mongondow Utara, Sulawesi Utara","Kabupaten Bolaang Mongondow Utara, Sulawesi Utara",SULAWESI UTARA,,Indonesia,85240292394.0,,,0.8821705,123.5516852,https://maps.google.com/?cid=0x0:0xeb56e5874f562b4a,
mall,Toko Perbaikan Ponsel,Jual pulsa Raban limoto,"Bohabak I, Kec. Bolang Itang Tim., Kabupaten Bolaang Mongondow Utara, Sulawesi Utara","Kabupaten Bolaang Mongondow Utara, Sulawesi Utara",SULAWESI UTARA,,Indonesia,,,,0.8791185,123.453577,https://maps.google.com/?cid=0x0:0x755733a3ec63158f,
mall,Kantor Pemerintah,MALL PELAYANAN PUBLIK,"W758+2FR, Boroko, Kec. Kaidipang, Kabupaten Bolaang Mongondow Utara, Sulawesi Utara","Kabupaten Bolaang Mongondow Utara, Sulawesi Utara",SULAWESI UTARA,,Indonesia,,,,0.9076231,123.2661295,https://maps.google.com/?cid=0x0:0xb07c6ab3e2840326,
mall,Pusat Perbelanjaan,Pink Cell,"Jl. Trans-Sulawesi, Kuhanga, Kec. Bintauna, Kabupaten Bolaang Mongondow Utara, Sulawesi Utara","Kabupaten Bolaang Mongondow Utara, Sulawesi Utara",SULAWESI UTARA,,Indonesia,82293701163.0,,,0.8792819,123.5260422,https://maps.google.com/?cid=0x0:0xabc114588d45050d,
mall,Toko Perlengkapan Rumah,Kios_A2,"Jln. DesaPoporo, Batulintik, Kec. Bintauna, Kabupaten Bolaang Mongondow Utara, Sulawesi Utara 95763","Batulintik, Kec. Bintauna, Kabupaten Bolaang Mongondow Utara",SULAWESI UTARA,95763.0,Indonesia,85825320632.0,,,0.8821849,123.5589608,https://maps.google.com/?cid=0x0:0xaee58ef708829304,
mall,mall,Kec. Kaidipang,"Kabupaten Bolaang Mongondow Utara, Sulawesi Utara","Kabupaten Bolaang Mongondow Utara, Sulawesi Utara",SULAWESI UTARA,,Indonesia,,,,0.9061974,123.2652382,https://maps.google.com/?cid=0x0:0x2e226efafb429867,
mall,Kantor Pemerintah,MALL PELAYANAN PUBLIK,"W758+2FR, Boroko, Kec. Kaidipang, Kabupaten Bolaang Mongondow Utara, Sulawesi Utara","Kabupaten Bolaang Mongondow Utara, Sulawesi Utara",SULAWESI UTARA,,Indonesia,,,,0.9076231,123.2661295,https://maps.google.com/?cid=0x0:0xb07c6ab3e2840326,
mall,Toko Ponsel,DFHIANA CELL,"W748+R79, Boroko, Kec. Kaidipang, Kabupaten Bolaang Mongondow Utara, Sulawesi Utara","Kabupaten Bolaang Mongondow Utara, Sulawesi Utara",SULAWESI UTARA,,Indonesia,85256781008.0,,,0.9070359,123.2657311,https://maps.google.com/?cid=0x0:0xb498b50237f0e543,
mall,Toko bahan makanan,UD. Berkah Fizah Utama,"Boroko, Kec. Kaidipang, Kabupaten Bolaang Mongondow Utara, Sulawesi Utara","Kabupaten Bolaang Mongondow Utara, Sulawesi Utara",SULAWESI UTARA,,Indonesia,85255224660.0,,,0.9085593,123.2659025,https://maps.google.com/?cid=0x0:0xb11a10bc507d65b,
mall,Toko Pertanian,Tk Rahim/Sriwinda M1,"W768+XGR, Boroko, Kec. Kaidipang, Kabupaten Bolaang Mongondow Utara, Sulawesi Utara","Kabupaten Bolaang Mongondow Utara, Sulawesi Utara",SULAWESI UTARA,,Indonesia,,,,0.9124864,123.2662725,https://maps.google.com/?cid=0x0:0xac1ba44d07f2c3d0,
mall,Minimarket,CItra Mart,"Jl. Trans-Sulawesi, Boroko Tim., Kec. Kaidipang, Kabupaten Bolaang Mongondow Utara, Sulawesi Utara","Kabupaten Bolaang Mongondow Utara, Sulawesi Utara",SULAWESI UTARA,,Indonesia,8114391188.0,,,0.9033396,123.2709695,https://maps.google.com/?cid=0x0:0x5889f3e250aa966,
mall,Toko Perlengkapan Rumah,Bonsai Boroko,"Jl. pelabuhan No.334, Boroko, Kec. Kaidipang, Kabupaten Bolaang Mongondow Utara, Sulawesi Utara","Kabupaten Bolaang Mongondow Utara, Sulawesi Utara",SULAWESI UTARA,,Indonesia,82295027214.0,,,0.9087379,123.266259,https://maps.google.com/?cid=0x0:0x75a5fbcbea07566b,
mall,Toko Ponsel,Shafa Tasya Kamila,"W769+QJ7, Boroko Tim., Kec. Kaidipang, Kabupaten Bolaang Mongondow Utara, Sulawesi Utara 95765","Boroko Tim., Kec. Kaidipang, Kabupaten Bolaang Mongondow Utara",SULAWESI UTARA,95765.0,Indonesia,82190932376.0,,,0.9119085,123.2690479,https://maps.google.com/?cid=0x0:0xe67026baded1142,
mall,Toserba,Nenacell,"V8V6+8H8, Jl. Trans-Sulawesi, Sonuo, Kec. Bolang Itang Bar., Kabupaten Bolaang Mongondow Utara, Sulawesi Utara","Kabupaten Bolaang Mongondow Utara, Sulawesi Utara",SULAWESI UTARA,,Indonesia,81242050905.0,,,0.8932817,123.3114597,https://maps.google.com/?cid=0x0:0x6f9cbd15bb8bcb3a,
mall,Toko Makanan Alami,Tridaya Sinergi Indonesia Sulawesi Utara Rokok Herbal SIN,"Jl. Samratulangi No.83, Boroko, Kec. Kaidipang, Kabupaten Bolaang Mongondow Utara, Sulawesi Utara 95765","Boroko, Kec. Kaidipang, Kabupaten Bolaang Mongondow Utara",SULAWESI UTARA,95765.0,Indonesia,81247064874.0,,,0.9072022,123.2642754,https://maps.google.com/?cid=0x0:0xbe811d56c444e8f4,
mall,Seafood,PT LIMA SAUDARA MUSTIKA,"W769+4R2, Boroko Tim., Kec. Kaidipang, Kabupaten Bolaang Mongondow Utara, Sulawesi Utara","Kabupaten Bolaang Mongondow Utara, Sulawesi Utara",SULAWESI UTARA,,Indonesia,,,,0.9102625,123.2695156,https://maps.google.com/?cid=0x0:0xaa7ee484e8e2492d,
mall,Kantor Pemerintahan Daerah,"Badan Perencanaan, Penelitian dan Pengembangan","Jl. Trans-Sulawesi No.01, Boroko, Kec. Kaidipang, Kabupaten Bolaang Mongondow Utara, Sulawesi Utara","Kabupaten Bolaang Mongondow Utara, Sulawesi Utara",SULAWESI UTARA,,Indonesia,,,,0.9051754,123.2725624,https://maps.google.com/?cid=0x0:0xc28433fbf8e3ba9e,
mall,mall,Kec. Pinogaluman,"Kabupaten Bolaang Mongondow Utara, Sulawesi Utara","Kabupaten Bolaang Mongondow Utara, Sulawesi Utara",SULAWESI UTARA,,Indonesia,,,,0.9178578,123.1401469,https://maps.google.com/?cid=0x0:0x4bec49665b3f40dd,
mall,Pasar,Pasar Buko,"W4CQ+4QH, Buko, Kec. Pinogaluman, Kabupaten Bolaang Mongondow Utara, Sulawesi Utara","Kabupaten Bolaang Mongondow Utara, Sulawesi Utara",SULAWESI UTARA,,Indonesia,,,,0.9203042,123.1394802,https://maps.google.com/?cid=0x0:0x9234c44b665c9f4b,
mall,Kantor Pemerintah,MALL PELAYANAN PUBLIK,"W758+2FR, Boroko, Kec. Kaidipang, Kabupaten Bolaang Mongondow Utara, Sulawesi Utara","Kabupaten Bolaang Mongondow Utara, Sulawesi Utara",SULAWESI UTARA,,Indonesia,,,,0.9076231,123.2661295,https://maps.google.com/?cid=0x0:0xb07c6ab3e2840326,
mall,Kantor Perusahaan,Foto Copy Nur Afifah,"W49M+5R8, Buko, Kec. Pinogaluman, Kabupaten Bolaang Mongondow Utara, Sulawesi Utara","Kabupaten Bolaang Mongondow Utara, Sulawesi Utara",SULAWESI UTARA,,Indonesia,85399929028.0,,,0.9179085,123.1345878,https://maps.google.com/?cid=0x0:0x902c83264852ce55,
mall,Minimarket,Indomaret Pinogaluman,"W49R+33X, Jl. Trans-Sulawesi, Buko, Kec. Pinogaluman, Kabupaten Bolaang Mongondow Utara, Sulawesi Utara 96253","Jl. Trans-Sulawesi, Buko, Kec. Pinogaluman, Kabupaten Bolaang Mongondow Utara",SULAWESI UTARA,96253.0,Indonesia,,,,0.9177258,123.1402467,https://maps.google.com/?cid=0x0:0x959fb11ecf677375,
mall,Toserba,Nenacell,"V8V6+8H8, Jl. Trans-Sulawesi, Sonuo, Kec. Bolang Itang Bar., Kabupaten Bolaang Mongondow Utara, Sulawesi Utara","Kabupaten Bolaang Mongondow Utara, Sulawesi Utara",SULAWESI UTARA,,Indonesia,81242050905.0,,,0.8932817,123.3114597,https://maps.google.com/?cid=0x0:0x6f9cbd15bb8bcb3a,
mall,mall,BUM Desa KINORASAWA,"W35M+4CX, Jl. Trans-Sulawesi, Imana, Kec. Atinggola, Kabupaten Gorontalo Utara, Gorontalo","Kabupaten Gorontalo Utara, Gorontalo",SULAWESI UTARA,,Indonesia,,,,0.9078666,123.0835965,https://maps.google.com/?cid=0x0:0xe6d8a7059d5f69d,
mall,Toko bahan makanan,Fastpay,"W46V+JV9, Dalapuli Bar., Kec. Pinogaluman, Kabupaten Bolaang Mongondow Utara, Sulawesi Utara","Kabupaten Bolaang Mongondow Utara, Sulawesi Utara",SULAWESI UTARA,,Indonesia,85340110065.0,,,0.9115253,123.1447497,https://maps.google.com/?cid=0x0:0x7f811b7aac9d71f8,
mall,Toko Ponsel,DFHIANA CELL,"W748+R79, Boroko, Kec. Kaidipang, Kabupaten Bolaang Mongondow Utara, Sulawesi Utara","Kabupaten Bolaang Mongondow Utara, Sulawesi Utara",SULAWESI UTARA,,Indonesia,85256781008.0,,,0.9070359,123.2657311,https://maps.google.com/?cid=0x0:0xb498b50237f0e543,
mall,Toko bahan makanan,LAPAK BARITO PUTRA TUNGGAL,"Boroko Tim., Kec. Kaidipang, Kabupaten Bolaang Mongondow Utara, Sulawesi Utara 95765","Kec. Kaidipang, Kabupaten Bolaang Mongondow Utara",SULAWESI UTARA,95765.0,Indonesia,82393416325.0,,,0.9112872,123.2714443,https://maps.google.com/?cid=0x0:0x6fe2fa9d9d54cab6,
mall,Minimarket,CItra Mart,"Jl. Trans-Sulawesi, Boroko Tim., Kec. Kaidipang, Kabupaten Bolaang Mongondow Utara, Sulawesi Utara","Kabupaten Bolaang Mongondow Utara, Sulawesi Utara",SULAWESI UTARA,,Indonesia,8114391188.0,,,0.9033396,123.2709695,https://maps.google.com/?cid=0x0:0x5889f3e250aa966,
mall,Toko Perlengkapan Rumah,Bonsai Boroko,"Jl. pelabuhan No.334, Boroko, Kec. Kaidipang, Kabupaten Bolaang Mongondow Utara, Sulawesi Utara","Kabupaten Bolaang Mongondow Utara, Sulawesi Utara",SULAWESI UTARA,,Indonesia,82295027214.0,,,0.9087379,123.266259,https://maps.google.com/?cid=0x0:0x75a5fbcbea07566b,
mall,Pusat Perbelanjaan,Megamall Manado,"Kawasan Megamas, Kantor Pengelola Megamall, Jl. Piere Tendean, Wenang Sel., Kec. Wenang, Kota Manado, Sulawesi Utara 95234","Kantor Pengelola Megamall, Jl. Piere Tendean, Wenang Sel., Kec. Wenang, Kota Manado",SULAWESI UTARA,95234.0,Indonesia,431879889.0,,,1.4839687,124.8348372,https://maps.google.com/?cid=0x0:0xfcc9b9fa2283700,
mall,Toko Pertanian,Tk Rahim/Sriwinda M1,"W768+XGR, Boroko, Kec. Kaidipang, Kabupaten Bolaang Mongondow Utara, Sulawesi Utara","Kabupaten Bolaang Mongondow Utara, Sulawesi Utara",SULAWESI UTARA,,Indonesia,,,,0.9124864,123.2662725,https://maps.google.com/?cid=0x0:0xac1ba44d07f2c3d0,
mall,Toko bahan makanan,UD. Berkah Fizah Utama,"Boroko, Kec. Kaidipang, Kabupaten Bolaang Mongondow Utara, Sulawesi Utara","Kabupaten Bolaang Mongondow Utara, Sulawesi Utara",SULAWESI UTARA,,Indonesia,85255224660.0,,,0.9085593,123.2659025,https://maps.google.com/?cid=0x0:0xb11a10bc507d65b,
mall,Toko,Warung zilen,"V4P8+P9W, Bintana, Kec. Atinggola, Kabupaten Gorontalo Utara, Gorontalo 96253","Bintana, Kec. Atinggola, Kabupaten Gorontalo Utara",SULAWESI UTARA,96253.0,Indonesia,,,,0.8868669,123.1159471,https://maps.google.com/?cid=0x0:0x30baa04431a75653,
mall,Pembangunan Perumahan,Bahu Mall,"FR6G+W4J, Bahu Mall, R.W., Jl. Wolter Monginsidi, Bahu, Malalayang, Manado City, North Sulawesi","Kota Manado, Sulawesi Utara",SULAWESI UTARA,,Indonesia,1500125.0,,,1.4623338,124.8252763,https://maps.google.com/?cid=0x0:0x75b15af9becce842,
mall,Toko Makanan Alami,Tridaya Sinergi Indonesia Sulawesi Utara Rokok Herbal SIN,"Jl. Samratulangi No.83, Boroko, Kec. Kaidipang, Kabupaten Bolaang Mongondow Utara, Sulawesi Utara 95765","Boroko, Kec. Kaidipang, Kabupaten Bolaang Mongondow Utara",SULAWESI UTARA,95765.0,Indonesia,81247064874.0,,,0.9072022,123.2642754,https://maps.google.com/?cid=0x0:0xbe811d56c444e8f4,
mall,Toko Ponsel,Shafa Tasya Kamila,"W769+QJ7, Boroko Tim., Kec. Kaidipang, Kabupaten Bolaang Mongondow Utara, Sulawesi Utara 95765","Boroko Tim., Kec. Kaidipang, Kabupaten Bolaang Mongondow Utara",SULAWESI UTARA,95765.0,Indonesia,82190932376.0,,,0.9119085,123.2690479,https://maps.google.com/?cid=0x0:0xe67026baded1142,
mall,mall,Kec. Sangkub,"Kabupaten Bolaang Mongondow Utara, Sulawesi Utara","Kabupaten Bolaang Mongondow Utara, Sulawesi Utara",SULAWESI UTARA,,Indonesia,,,,0.8799509,123.6478886,https://maps.google.com/?cid=0x0:0xded44acee8c90687,
mall,Pusat Perbelanjaan,Chiko Shop,"Jl. Trans-Sulawesi, Busisingo Utara, Kec. Sangkub, Kabupaten Bolaang Mongondow Utara, Sulawesi Utara","Kabupaten Bolaang Mongondow Utara, Sulawesi Utara",SULAWESI UTARA,,Indonesia,,,,0.897966,123.5990119,https://maps.google.com/?cid=0x0:0x2d461d3a577170b8,
mall,Pusat Perbelanjaan,DC KAZANA,"VJG5+HQR, Tombolango, Kec. Sangkub, Kabupaten Bolaang Mongondow Utara, Sulawesi Utara","Kabupaten Bolaang Mongondow Utara, Sulawesi Utara",SULAWESI UTARA,,Indonesia,85256677878.0,,,0.8764971,123.6094045,https://maps.google.com/?cid=0x0:0x1e96b52f760e76e7,
mall,Kios,Kios Mikha Busisingo Utara,"WH2Q+JQ4, Jl. Trans-Sulawesi, Busisingo Utara, Kec. Sangkub, Kabupaten Bolaang Mongondow Utara, Sulawesi Utara","Kabupaten Bolaang Mongondow Utara, Sulawesi Utara",SULAWESI UTARA,,Indonesia,82290137588.0,,,0.9015164,123.5894655,https://maps.google.com/?cid=0x0:0x8dc33a5b4630646c,
mall,Pusat Perbelanjaan,Godwin shop,"VMG8+RQ5, Sampiro, Kec. Sangkub, Kabupaten Bolaang Mongondow Utara, Sulawesi Utara","Kabupaten Bolaang Mongondow Utara, Sulawesi Utara",SULAWESI UTARA,,Indonesia,,,,0.8770002,123.6669783,https://maps.google.com/?cid=0x0:0xd279801a577b9e28,
mall,Pusat Perbelanjaan,BELLA CELL,"VJG5+HP9, Jl. Trans-Sulawesi, Tombolango, Kec. Sangkub, Kabupaten Bolaang Mongondow Utara, Sulawesi Utara","Kabupaten Bolaang Mongondow Utara, Sulawesi Utara",SULAWESI UTARA,,Indonesia,,,,0.8764206,123.6093455,https://maps.google.com/?cid=0x0:0xd8b2ab0815a3ab3,
mall,Toserba,PASAR MODEREN BINTAUNA,"VHJ2+VM7, Bintauna, Kec. Bintauna, Kabupaten Bolaang Mongondow Utara, Sulawesi Utara","Kabupaten Bolaang Mongondow Utara, Sulawesi Utara",SULAWESI UTARA,,Indonesia,85240292394.0,,,0.8821705,123.5516852,https://maps.google.com/?cid=0x0:0xeb56e5874f562b4a,
mall,Toko Herbal,Fradila Distributor HWI,"WH2V+QMM, Busisingo Utara, Kec. Sangkub, Kabupaten Bolaang Mongondow Utara, Sulawesi Utara","Kabupaten Bolaang Mongondow Utara, Sulawesi Utara",SULAWESI UTARA,,Indonesia,82348750733.0,,,0.9019659,123.5941859,https://maps.google.com/?cid=0x0:0x283497c932db6849,
mall,Toko Perlengkapan Rumah,Kios_A2,"Jln. DesaPoporo, Batulintik, Kec. Bintauna, Kabupaten Bolaang Mongondow Utara, Sulawesi Utara 95763","Batulintik, Kec. Bintauna, Kabupaten Bolaang Mongondow Utara",SULAWESI UTARA,95763.0,Indonesia,85825320632.0,,,0.8821849,123.5589608,https://maps.google.com/?cid=0x0:0xaee58ef708829304,
mall,Kios,KIOS AFRAH,"VHH4+JC8, Jl. Trans-Sulawesi, Bunia, Kec. Bintauna, Kabupaten Bolaang Mongondow Utara, Sulawesi Utara","Kabupaten Bolaang Mongondow Utara, Sulawesi Utara",SULAWESI UTARA,,Indonesia,82196827728.0,,,0.8790403,123.5560825,https://maps.google.com/?cid=0x0:0x78ccc7033eb18264,
supermarket,Toko bahan makanan,"Indomaret, Bintauna Padang. Bolaang Mongondow Utara","VGJR+48H, Jl. Trans-Sulawesi, Padang Bar., Kec. Bintauna, Kabupaten Bolaang Mongondow Utara, Sulawesi Utara","Kabupaten Bolaang Mongondow Utara, Sulawesi Utara",SULAWESI UTARA,,Indonesia,,,,0.8803109,123.5408452,https://maps.google.com/?cid=0x0:0xf8ba4742d5115a64,
supermarket,,Alfamart Bintauna,"VHH2+F8H, Pimpi, Kec. Bintauna, Kabupaten Bolaang Mongondow Utara, Sulawesi Utara","Kabupaten Bolaang Mongondow Utara, Sulawesi Utara",SULAWESI UTARA,,Indonesia,,,,0.8783816,123.5508882,https://maps.google.com/?cid=0x0:0x2fcc5be1896cdee4,
supermarket,Toko bahan makanan,Indomaret,"VHH2+QC6, Bintauna, Kec. Bintauna, Kabupaten Bolaang Mongondow Utara, Sulawesi Utara","Kabupaten Bolaang Mongondow Utara, Sulawesi Utara",SULAWESI UTARA,,Indonesia,,,,0.8794145,123.5510213,https://maps.google.com/?cid=0x0:0x1b85d41af6cf59b0,
supermarket,Toserba,PASAR MODEREN BINTAUNA,"VHJ2+VM7, Bintauna, Kec. Bintauna, Kabupaten Bolaang Mongondow Utara, Sulawesi Utara","Kabupaten Bolaang Mongondow Utara, Sulawesi Utara",SULAWESI UTARA,,Indonesia,85240292394.0,,,0.8821705,123.5516852,https://maps.google.com/?cid=0x0:0xeb56e5874f562b4a,
supermarket,supermarket,toko murni,"VHJ2+7CQ, Jl. Trans-Sulawesi, Bintauna, Kec. Bintauna, Kabupaten Bolaang Mongondow Utara, Sulawesi Utara","Kabupaten Bolaang Mongondow Utara, Sulawesi Utara",SULAWESI UTARA,,Indonesia,,,,0.8807032,123.5511068,https://maps.google.com/?cid=0x0:0xb9fd88de2b5f8857,
supermarket,Minimarket,Alfamart Inobonto,"Jl. Trans-Sulawesi, Inobonto, Kec. Bolaang, Kabupaten Bolaang Mongondow, Sulawesi Utara 95752","Inobonto, Kec. Bolaang, Kabupaten Bolaang Mongondow",SULAWESI UTARA,95752.0,Indonesia,1500959.0,,,0.9196548,124.0950538,https://maps.google.com/?cid=0x0:0xf705ea73f1f15606,
supermarket,Minimarket,Alfamart,"Jl. Desa, Ayong, Kec. Sangtombolang, Kabupaten Bolaang Mongondow, Sulawesi Utara 95762","Ayong, Kec. Sangtombolang, Kabupaten Bolaang Mongondow",SULAWESI UTARA,95762.0,Indonesia,211500959.0,,,0.8394404,123.8891134,https://maps.google.com/?cid=0x0:0x6f194f9389434ea,
supermarket,Pusat Perbelanjaan,Kios Arbain,"GWV3+XM3, Toraut Utara, Kec. Dumoga Bar., Kabupaten Bolaang Mongondow, Sulawesi Utara","Kabupaten Bolaang Mongondow, Sulawesi Utara",SULAWESI UTARA,,Indonesia,,,,0.5448985,123.9041819,https://maps.google.com/?cid=0x0:0xff42775c4b3cbed3,
supermarket,Toko Swalayan,Toko AL-Razaak,"GWFW+4M7, Doloduo, Kec. Dumoga Bar., Kabupaten Bolaang Mongondow, Sulawesi Utara","Kabupaten Bolaang Mongondow, Sulawesi Utara",SULAWESI UTARA,,Indonesia,,,,0.5227969,123.9466743,https://maps.google.com/?cid=0x0:0x65f031b8f8d91a6c,
supermarket,Minimarket,Indomaret Doloduo,"GXC5+MQ7, Jl. Trans Sulawesi, Ikhwan, Kec. Dumoga Bar., Kabupaten Bolaang Mongondow, Sulawesi Utara","Kabupaten Bolaang Mongondow, Sulawesi Utara",SULAWESI UTARA,,Indonesia,,,,0.5216684,123.9594279,https://maps.google.com/?cid=0x0:0x1e40532f963bb357,
supermarket,Toko,Kios Arini 2,"RRJM+FW, Bolangat, Kec. Sangtombolang, Kabupaten Bolaang Mongondow, Sulawesi Utara","Kabupaten Bolaang Mongondow, Sulawesi Utara",SULAWESI UTARA,,Indonesia,,,,0.8312062,123.8347605,https://maps.google.com/?cid=0x0:0x3211677d957d4f2a,
supermarket,Minimarket,Indomaret Trans Sulawesi Inobonto,"W493+455, Jl. Trans-Sulawesi, Inobonto, Kec. Bolaang, Kabupaten Bolaang Mongondow, Sulawesi Utara","Kabupaten Bolaang Mongondow, Sulawesi Utara",SULAWESI UTARA,,Indonesia,,,,0.9177637,124.1029821,https://maps.google.com/?cid=0x0:0x357f6f839829d9b2,
supermarket,,Alfamart Ikhwan Bolmong,"Jl. Trans Sulawesi, Ikhwan, Kec. Dumoga Bar., Kabupaten Bolaang Mongondow, Sulawesi Utara 95773","Ikhwan, Kec. Dumoga Bar., Kabupaten Bolaang Mongondow",SULAWESI UTARA,95773.0,Indonesia,1500959.0,,,0.5151331,123.9605678,https://maps.google.com/?cid=0x0:0x6b4b56f29e2dc65,
supermarket,Toko Swalayan,Kios Alona,"GXC4+VCC, Ikhwan, Kec. Dumoga Bar., Kabupaten Bolaang Mongondow, Sulawesi Utara","Kabupaten Bolaang Mongondow, Sulawesi Utara",SULAWESI UTARA,,Indonesia,,,,0.5217265,123.956351,https://maps.google.com/?cid=0x0:0x639f503fec6f648a,
supermarket,Toko,Alfamart Doloduo,"Jl. Akd, Doloduo, Kec. Dumoga Bar., Kabupaten Bolaang Mongondow, Sulawesi Utara 95771","Doloduo, Kec. Dumoga Bar., Kabupaten Bolaang Mongondow",SULAWESI UTARA,95771.0,Indonesia,1500959.0,,,0.5213381,123.9594746,https://maps.google.com/?cid=0x0:0xde6168acb01447d1,
supermarket,Pusat Perbelanjaan,Kios Tani Jaya dan Brilink,"GXG9+8RH, Wangga Baru, Kec. Dumoga Bar., Kabupaten Bolaang Mongondow, Sulawesi Utara","Kabupaten Bolaang Mongondow, Sulawesi Utara",SULAWESI UTARA,,Indonesia,82190586891.0,,,0.5258124,123.9696187,https://maps.google.com/?cid=0x0:0x268449cd17b1fd37,
supermarket,Toko bahan makanan,Kios Rifana,"RRGW+CH9, Bolangat, Kec. Sangtombolang, Kabupaten Bolaang Mongondow, Sulawesi Utara","Kabupaten Bolaang Mongondow, Sulawesi Utara",SULAWESI UTARA,,Indonesia,,,,0.8260489,123.8464056,https://maps.google.com/?cid=0x0:0x7b1a772840dae771,
supermarket,Pusat Perbelanjaan,R.STAR,"P97H+3FP, Jl. Ratahan - Kotamobagu, Bongkudai, Kec. Modayag Bar., Kabupaten Bolaang Mongondow Timur, Sulawesi Utara","Kabupaten Bolaang Mongondow Timur, Sulawesi Utara",SULAWESI UTARA,,Indonesia,8124561484.0,,,0.7127036,124.3787043,https://maps.google.com/?cid=0x0:0xc9637c0b5ddd4269,
supermarket,supermarket,Kec. Bintauna,"Kabupaten Bolaang Mongondow Utara, Sulawesi Utara","Kabupaten Bolaang Mongondow Utara, Sulawesi Utara",SULAWESI UTARA,,Indonesia,,,,0.8804511,123.5506194,https://maps.google.com/?cid=0x0:0x8b4cfeaf6f8ff4de,
supermarket,Toko,Trans Jaya Retail,"VHH3+GQF, Bunia, Kec. Bintauna, Kabupaten Bolaang Mongondow Utara, Sulawesi Utara","Kabupaten Bolaang Mongondow Utara, Sulawesi Utara",SULAWESI UTARA,,Indonesia,,,,0.8788095,123.5544187,https://maps.google.com/?cid=0x0:0xa3c084ebf66d5e5,
supermarket,Toko bahan makanan,Toko Sinar Bintang,"VHRQ+W4X, Bintauna Pantai, Kec. Bintauna, Kabupaten Bolaang Mongondow Utara, Sulawesi Utara","Kabupaten Bolaang Mongondow Utara, Sulawesi Utara",SULAWESI UTARA,,Indonesia,,,,0.8923624,123.5878558,https://maps.google.com/?cid=0x0:0xf395a93edd2a2bb7,
supermarket,Toko,Warung Edo,"VHWQ+JJC, Bintauna Pantai, Kec. Bintauna, Kabupaten Bolaang Mongondow Utara, Sulawesi Utara","Kabupaten Bolaang Mongondow Utara, Sulawesi Utara",SULAWESI UTARA,,Indonesia,81346357983.0,,,0.8965633,123.5890135,https://maps.google.com/?cid=0x0:0xf3d34999d316a831,
supermarket,supermarket,Toko Akbar,"VHVQ+93F, Bintauna Pantai, Kec. Bintauna, Kabupaten Bolaang Mongondow Utara, Sulawesi Utara","Kabupaten Bolaang Mongondow Utara, Sulawesi Utara",SULAWESI UTARA,,Indonesia,81243582987.0,,,0.8934428,123.5876838,https://maps.google.com/?cid=0x0:0xc26879dc6c4c8a47,
supermarket,Toko umum,Warung Pogogopita,"VFHC+W8J, Jl. Trans-Sulawesi, Binjeita, Kec. Bolang Itang Tim., Kabupaten Bolaang Mongondow Utara, Sulawesi Utara","Kabupaten Bolaang Mongondow Utara, Sulawesi Utara",SULAWESI UTARA,,Indonesia,81354822905.0,,,0.8798326,123.4707549,https://maps.google.com/?cid=0x0:0x1655ca4abbbbeca7,
supermarket,Minimarket,Kios Rio,"VGH9+QWJ, Jl. Trans-Sulawesi, Bunong, Kec. Bintauna, Kabupaten Bolaang Mongondow Utara, Sulawesi Utara","Kabupaten Bolaang Mongondow Utara, Sulawesi Utara",SULAWESI UTARA,,Indonesia,,,,0.879454,123.519758,https://maps.google.com/?cid=0x0:0x5078f04b17c03669,
supermarket,Toko bahan makanan,Barito sinarbintang,"VHJ2+57G, Pantai, Kec. Bintauna, Kabupaten Bolaang Mongondow Utara, Sulawesi Utara","Kabupaten Bolaang Mongondow Utara, Sulawesi Utara",SULAWESI UTARA,,Indonesia,,,,0.8804303,123.550714,https://maps.google.com/?cid=0x0:0xa81dd531e8df14d6,
supermarket,Toko,Jhio Store,"Unnamed Road, Biontong I, Kec. Bolang Itang Tim., Kabupaten Bolaang Mongondow Utara, Sulawesi Utara","Kabupaten Bolaang Mongondow Utara, Sulawesi Utara",SULAWESI UTARA,,Indonesia,85397213755.0,,,0.8792513,123.5050893,https://maps.google.com/?cid=0x0:0x52477d3555b1c784,
supermarket,Toko bahan makanan,INDOMARET BUNIA,"VHH4+JC8, Jl. Trans-Sulawesi, Bunia, Kec. Bintauna, Kabupaten Bolaang Mongondow Utara, Sulawesi Utara","Kabupaten Bolaang Mongondow Utara, Sulawesi Utara",SULAWESI UTARA,,Indonesia,,,,0.8790397,123.5560917,https://maps.google.com/?cid=0x0:0xbb5aa8b8940fcac8,
supermarket,supermarket,Kec. Bolang Itang Bar.,"Kabupaten Bolaang Mongondow Utara, Sulawesi Utara","Kabupaten Bolaang Mongondow Utara, Sulawesi Utara",SULAWESI UTARA,,Indonesia,,,,0.9075668,123.3055527,https://maps.google.com/?cid=0x0:0x17cd151ba51a2f1e,
supermarket,Minimarket,Alfamart Bolangitang Satu Bolmut,"Satu, Kec, Jl. Trans-Sulawesi, Bolangitang, Kec. Bolang Itang Bar., Kabupaten Bolaang Mongondow Utara, Sulawesi Utara 95764","Kec, Jl. Trans-Sulawesi, Bolangitang, Kec. Bolang Itang Bar., Kabupaten Bolaang Mongondow Utara",SULAWESI UTARA,95764.0,Indonesia,1500959.0,,,0.9074321,123.3046569,https://maps.google.com/?cid=0x0:0xe3c85b54520143f9,
supermarket,Toko,Prima Store Sonuo,"Jl. Trans-Sulawesi, Sonuo, Kec. Bolang Itang Bar., Kabupaten Bolaang Mongondow Utara, Sulawesi Utara","Kabupaten Bolaang Mongondow Utara, Sulawesi Utara",SULAWESI UTARA,,Indonesia,81243664949.0,,,0.893012,123.3140126,https://maps.google.com/?cid=0x0:0x5fc6df3905d406e0,
supermarket,Minimarket,Alfamart Jambusarang,"Jl. Trans-Sulawesi No.Desa, Jambu Sarang, Kec. Bolang Itang Bar., Kabupaten Bolaang Mongondow Utara, Sulawesi Utara 95764","Jambu Sarang, Kec. Bolang Itang Bar., Kabupaten Bolaang Mongondow Utara",SULAWESI UTARA,95764.0,Indonesia,,,,0.9012576,123.3081763,https://maps.google.com/?cid=0x0:0x784100416f45df51,
supermarket,Minimarket,GpMart,"V9PG+RPJ, Jl. Trans-Sulawesi, Mokoditek I, Kec. Bolang Itang Tim., Kabupaten Bolaang Mongondow Utara, Sulawesi Utara","Kabupaten Bolaang Mongondow Utara, Sulawesi Utara",SULAWESI UTARA,,Indonesia,85241479124.0,,,0.8870899,123.3767769,https://maps.google.com/?cid=0x0:0x111808674b2e4dc3,
supermarket,Toko umum,Toko Arfan,"W852+29H, Bolangitang II, Kec. Bolang Itang Bar., Kabupaten Bolaang Mongondow Utara, Sulawesi Utara","Kabupaten Bolaang Mongondow Utara, Sulawesi Utara",SULAWESI UTARA,,Indonesia,,,,0.9075629,123.3009855,https://maps.google.com/?cid=0x0:0x9362a240ff56bf92,
supermarket,Minimarket,Indomaret Bolaang Itang Barat,"W834+FQ5, Bolangitang, Kec. Bolang Itang Bar., Kabupaten Bolaang Mongondow Utara, Sulawesi Utara","Kabupaten Bolaang Mongondow Utara, Sulawesi Utara",SULAWESI UTARA,,Indonesia,,,,0.9036457,123.3069879,https://maps.google.com/?cid=0x0:0xe7591e319890caba,
supermarket,Pasar,Pasar Rabu Bolangitang,"W845+CJ3, Bolangitang, Kec. Bolang Itang Bar., Kabupaten Bolaang Mongondow Utara, Sulawesi Utara","Kabupaten Bolaang Mongondow Utara, Sulawesi Utara",SULAWESI UTARA,,Indonesia,,,,0.9060014,123.3090461,https://maps.google.com/?cid=0x0:0x590400f79c663e53,
supermarket,Toko,Kios Sahabat Tani/Afika,"V8R7+HG7, Jl. Trans-Sulawesi, Sonuo, Kec. Bolang Itang Bar., Kabupaten Bolaang Mongondow Utara, Sulawesi Utara","Kabupaten Bolaang Mongondow Utara, Sulawesi Utara",SULAWESI UTARA,,Indonesia,,,,0.891422,123.3137937,https://maps.google.com/?cid=0x0:0x601a41a587ff1652,
supermarket,Minimarket,Alfamart Trans Sulawesi Bigo Bolmut,"Jl. Trans-Sulawesi No.Des, Kuala Utara, Kec. Kaidipang, Kabupaten Bolaang Mongondow Utara, Sulawesi Utara 95765","Kuala Utara, Kec. Kaidipang, Kabupaten Bolaang Mongondow Utara",SULAWESI UTARA,95765.0,Indonesia,211500959.0,,,0.9050094,123.2676205,https://maps.google.com/?cid=0x0:0xfc71dd645e787844,
supermarket,supermarket,Ula farel,"W75X+5R2, Bolangitang, Kec. Bolang Itang Bar., Kabupaten Bolaang Mongondow Utara, Sulawesi Utara","Kabupaten Bolaang Mongondow Utara, Sulawesi Utara",SULAWESI UTARA,,Indonesia,,,,0.9078995,123.2995093,https://maps.google.com/?cid=0x0:0x14cd5727bf7f028a,
supermarket,Masjid,Lapak Multazam,"W844+J85, Jl. Trans-Sulawesi, Bolangitang, Kec. Bolang Itang Bar., Kabupaten Bolaang Mongondow Utara, Sulawesi Utara","Kabupaten Bolaang Mongondow Utara, Sulawesi Utara",SULAWESI UTARA,,Indonesia,82290409640.0,,,0.9067151,123.3061196,https://maps.google.com/?cid=0x0:0x825035879b81afc8,
supermarket,Toko bahan makanan,Toko Rivaldi,"V8R7+RCC, Jl. Trans-Sulawesi, Sonuo, Kec. Bolang Itang Bar., Kabupaten Bolaang Mongondow Utara, Sulawesi Utara","Kabupaten Bolaang Mongondow Utara, Sulawesi Utara",SULAWESI UTARA,,Indonesia,,,,0.8920744,123.3135155,https://maps.google.com/?cid=0x0:0xa2a644b195f54714,
supermarket,Rumah Makan,Waroeng Whinari,"V8W5+86C, Jl. Trans-Sulawesi, Jambu Sarang, Kec. Bolang Itang Bar., Kabupaten Bolaang Mongondow Utara, Sulawesi Utara","Kabupaten Bolaang Mongondow Utara, Sulawesi Utara",SULAWESI UTARA,,Indonesia,,,,0.8958024,123.308018,https://maps.google.com/?cid=0x0:0x33eb5790ea59727a,
supermarket,Toko,Toko Nadila,"W748+3WJ, Bigo, Kec. Kaidipang, Kabupaten Bolaang Mongondow Utara, Sulawesi Utara","Kabupaten Bolaang Mongondow Utara, Sulawesi Utara",SULAWESI UTARA,,Indonesia,,,,0.9052059,123.2672715,https://maps.google.com/?cid=0x0:0x161b6a4a9730358,
supermarket,Pertanian,Ollot,"V8FG+PCX, Ollot, Kec. Bolang Itang Bar., Kabupaten Bolaang Mongondow Utara, Sulawesi Utara","Kabupaten Bolaang Mongondow Utara, Sulawesi Utara",SULAWESI UTARA,,Indonesia,,,,0.874919,123.326098,https://maps.google.com/?cid=0x0:0xf1b9b51d39aa311b,
supermarket,Kios,KIOS SYAHRUK,"W845+VCM, Bolangitang II, Kec. Bolang Itang Bar., Kabupaten Bolaang Mongondow Utara, Sulawesi Utara","Kabupaten Bolaang Mongondow Utara, Sulawesi Utara",SULAWESI UTARA,,Indonesia,85256115201.0,,,0.9074245,123.3080987,https://maps.google.com/?cid=0x0:0x1ca9e365dbdda42b,
supermarket,Peternakan Ayam,Ayam Pedaging,"Jl. Trans-Sulawesi, Iyok, Kec. Bolang Itang Bar., Kabupaten Bolaang Mongondow Utara, Sulawesi Utara 95764","Iyok, Kec. Bolang Itang Bar., Kabupaten Bolaang Mongondow Utara",SULAWESI UTARA,95764.0,Indonesia,82188779400.0,,,0.9022778,123.3318902,https://maps.google.com/?cid=0x0:0xcf6c76ef1a60ba25,
supermarket,Pasar,LApak Togihuta,"V7X7+PW2, Jl. Manggis, South Bigo, Kaidipang, North Bolaang Mongondow Regency, North Sulawesi","Kabupaten Bolaang Mongondow Utara, Sulawesi Utara",SULAWESI UTARA,,Indonesia,85398013873.0,,,0.9000355,123.2653919,https://maps.google.com/?cid=0x0:0xf1419c59073d5f3e,
supermarket,Toko umum,St. Selvia Shop,"V7X7+GVH, Bigo Sel., Kec. Kaidipang, Kabupaten Bolaang Mongondow Utara, Sulawesi Utara","Kabupaten Bolaang Mongondow Utara, Sulawesi Utara",SULAWESI UTARA,,Indonesia,82293765373.0,,,0.8988167,123.264727,https://maps.google.com/?cid=0x0:0x3b446ab0055814b1,
supermarket,supermarket,Warung daging umi lut,"W855+CMW, Bolangitang, Kec. Bolang Itang Bar., Kabupaten Bolaang Mongondow Utara, Sulawesi Utara","Kabupaten Bolaang Mongondow Utara, Sulawesi Utara",SULAWESI UTARA,,Indonesia,,,,0.9080963,123.309008,https://maps.google.com/?cid=0x0:0x99ca22143eed4c20,
supermarket,supermarket,Kec. Bolang Itang Tim.,"Kabupaten Bolaang Mongondow Utara, Sulawesi Utara","Kabupaten Bolaang Mongondow Utara, Sulawesi Utara",SULAWESI UTARA,,Indonesia,,,,0.8798076,123.4530257,https://maps.google.com/?cid=0x0:0x73767b2b7d690727,
supermarket,Minimarket,GpMart,"V9PG+RPJ, Jl. Trans-Sulawesi, Mokoditek I, Kec. Bolang Itang Tim., Kabupaten Bolaang Mongondow Utara, Sulawesi Utara","Kabupaten Bolaang Mongondow Utara, Sulawesi Utara",SULAWESI UTARA,,Indonesia,85241479124.0,,,0.8870899,123.3767769,https://maps.google.com/?cid=0x0:0x111808674b2e4dc3,
supermarket,Minimarket,Alfamart Bolangitang Satu Bolmut,"Satu, Kec, Jl. Trans-Sulawesi, Bolangitang, Kec. Bolang Itang Bar., Kabupaten Bolaang Mongondow Utara, Sulawesi Utara 95764","Kec, Jl. Trans-Sulawesi, Bolangitang, Kec. Bolang Itang Bar., Kabupaten Bolaang Mongondow Utara",SULAWESI UTARA,95764.0,Indonesia,1500959.0,,,0.9074321,123.3046569,https://maps.google.com/?cid=0x0:0xe3c85b54520143f9,
supermarket,Minimarket,CItra Mart,"Jl. Trans-Sulawesi, Boroko Tim., Kec. Kaidipang, Kabupaten Bolaang Mongondow Utara, Sulawesi Utara","Kabupaten Bolaang Mongondow Utara, Sulawesi Utara",SULAWESI UTARA,,Indonesia,8114391188.0,,,0.9033396,123.2709695,https://maps.google.com/?cid=0x0:0x5889f3e250aa966,
supermarket,Minimarket,Alfamart Jambusarang,"Jl. Trans-Sulawesi No.Desa, Jambu Sarang, Kec. Bolang Itang Bar., Kabupaten Bolaang Mongondow Utara, Sulawesi Utara 95764","Jambu Sarang, Kec. Bolang Itang Bar., Kabupaten Bolaang Mongondow Utara",SULAWESI UTARA,95764.0,Indonesia,,,,0.9012576,123.3081763,https://maps.google.com/?cid=0x0:0x784100416f45df51,
supermarket,Toko umum,Toko Arfan,"W852+29H, Bolangitang II, Kec. Bolang Itang Bar., Kabupaten Bolaang Mongondow Utara, Sulawesi Utara","Kabupaten Bolaang Mongondow Utara, Sulawesi Utara",SULAWESI UTARA,,Indonesia,,,,0.9075629,123.3009855,https://maps.google.com/?cid=0x0:0x9362a240ff56bf92,
supermarket,Toko,Kios Sahabat Tani/Afika,"V8R7+HG7, Jl. Trans-Sulawesi, Sonuo, Kec. Bolang Itang Bar., Kabupaten Bolaang Mongondow Utara, Sulawesi Utara","Kabupaten Bolaang Mongondow Utara, Sulawesi Utara",SULAWESI UTARA,,Indonesia,,,,0.891422,123.3137937,https://maps.google.com/?cid=0x0:0x601a41a587ff1652,
supermarket,Toko umum,Warung Pogogopita,"VFHC+W8J, Jl. Trans-Sulawesi, Binjeita, Kec. Bolang Itang Tim., Kabupaten Bolaang Mongondow Utara, Sulawesi Utara","Kabupaten Bolaang Mongondow Utara, Sulawesi Utara",SULAWESI UTARA,,Indonesia,81354822905.0,,,0.8798326,123.4707549,https://maps.google.com/?cid=0x0:0x1655ca4abbbbeca7,
supermarket,Toko,Jhio Store,"Unnamed Road, Biontong I, Kec. Bolang Itang Tim., Kabupaten Bolaang Mongondow Utara, Sulawesi Utara","Kabupaten Bolaang Mongondow Utara, Sulawesi Utara",SULAWESI UTARA,,Indonesia,85397213755.0,,,0.8792513,123.5050893,https://maps.google.com/?cid=0x0:0x52477d3555b1c784,
supermarket,Toko,DRC saleo,"Jl. Trans-Sulawesi No.1, Saleo, Kec. Bolang Itang Tim., Kabupaten Bolaang Mongondow Utara, Sulawesi Utara","Kabupaten Bolaang Mongondow Utara, Sulawesi Utara",SULAWESI UTARA,,Indonesia,,,,0.8899805,123.4082962,https://maps.google.com/?cid=0x0:0x45ca0671ba2164dc,
supermarket,Toko,Toko Harmonis,"Binjeita, Kec. Bolang Itang Tim., Kabupaten Bolaang Mongondow Utara, Sulawesi Utara","Kabupaten Bolaang Mongondow Utara, Sulawesi Utara",SULAWESI UTARA,,Indonesia,,,,0.8808051,123.4778666,https://maps.google.com/?cid=0x0:0x695b2b2a5aed8398,
supermarket,Minimarket,Kios KEYSA,"VFG3+R4F, Bohabak I, Kec. Bolang Itang Tim., Kabupaten Bolaang Mongondow Utara, Sulawesi Utara","Kabupaten Bolaang Mongondow Utara, Sulawesi Utara",SULAWESI UTARA,,Indonesia,85757388545.0,,,0.8770545,123.4528079,https://maps.google.com/?cid=0x0:0xb29b70ca18fa79d7,
supermarket,Toko bahan makanan,"Indomaret, Bintauna Padang. Bolaang Mongondow Utara","VGJR+48H, Jl. Trans-Sulawesi, Padang Bar., Kec. Bintauna, Kabupaten Bolaang Mongondow Utara, Sulawesi Utara","Kabupaten Bolaang Mongondow Utara, Sulawesi Utara",SULAWESI UTARA,,Indonesia,,,,0.8803109,123.5408452,https://maps.google.com/?cid=0x0:0xf8ba4742d5115a64,
supermarket,Pasar,Pasar Rabu Bolangitang,"W845+CJ3, Bolangitang, Kec. Bolang Itang Bar., Kabupaten Bolaang Mongondow Utara, Sulawesi Utara","Kabupaten Bolaang Mongondow Utara, Sulawesi Utara",SULAWESI UTARA,,Indonesia,,,,0.9060014,123.3090461,https://maps.google.com/?cid=0x0:0x590400f79c663e53,
supermarket,Minimarket,Kios Rio,"VGH9+QWJ, Jl. Trans-Sulawesi, Bunong, Kec. Bintauna, Kabupaten Bolaang Mongondow Utara, Sulawesi Utara","Kabupaten Bolaang Mongondow Utara, Sulawesi Utara",SULAWESI UTARA,,Indonesia,,,,0.879454,123.519758,https://maps.google.com/?cid=0x0:0x5078f04b17c03669,
supermarket,Minimarket,Indomaret Bolaang Itang Barat,"W834+FQ5, Bolangitang, Kec. Bolang Itang Bar., Kabupaten Bolaang Mongondow Utara, Sulawesi Utara","Kabupaten Bolaang Mongondow Utara, Sulawesi Utara",SULAWESI UTARA,,Indonesia,,,,0.9036457,123.3069879,https://maps.google.com/?cid=0x0:0xe7591e319890caba,
supermarket,Toko,Trans Jaya Retail,"VHH3+GQF, Bunia, Kec. Bintauna, Kabupaten Bolaang Mongondow Utara, Sulawesi Utara","Kabupaten Bolaang Mongondow Utara, Sulawesi Utara",SULAWESI UTARA,,Indonesia,,,,0.8788095,123.5544187,https://maps.google.com/?cid=0x0:0xa3c084ebf66d5e5,
supermarket,Toko bahan makanan,Indomaret,"VHH2+QC6, Bintauna, Kec. Bintauna, Kabupaten Bolaang Mongondow Utara, Sulawesi Utara","Kabupaten Bolaang Mongondow Utara, Sulawesi Utara",SULAWESI UTARA,,Indonesia,,,,0.8794145,123.5510213,https://maps.google.com/?cid=0x0:0x1b85d41af6cf59b0,
supermarket,supermarket,toko murni,"VHJ2+7CQ, Jl. Trans-Sulawesi, Bintauna, Kec. Bintauna, Kabupaten Bolaang Mongondow Utara, Sulawesi Utara","Kabupaten Bolaang Mongondow Utara, Sulawesi Utara",SULAWESI UTARA,,Indonesia,,,,0.8807032,123.5511068,https://maps.google.com/?cid=0x0:0xb9fd88de2b5f8857,
supermarket,Pertanian,Ollot,"V8FG+PCX, Ollot, Kec. Bolang Itang Bar., Kabupaten Bolaang Mongondow Utara, Sulawesi Utara","Kabupaten Bolaang Mongondow Utara, Sulawesi Utara",SULAWESI UTARA,,Indonesia,,,,0.874919,123.326098,https://maps.google.com/?cid=0x0:0xf1b9b51d39aa311b,
supermarket,supermarket,Kec. Kaidipang,"Kabupaten Bolaang Mongondow Utara, Sulawesi Utara","Kabupaten Bolaang Mongondow Utara, Sulawesi Utara",SULAWESI UTARA,,Indonesia,,,,0.9061974,123.2652382,https://maps.google.com/?cid=0x0:0x2e226efafb429867,
supermarket,Minimarket,CItra Mart,"Jl. Trans-Sulawesi, Boroko Tim., Kec. Kaidipang, Kabupaten Bolaang Mongondow Utara, Sulawesi Utara","Kabupaten Bolaang Mongondow Utara, Sulawesi Utara",SULAWESI UTARA,,Indonesia,8114391188.0,,,0.9033396,123.2709695,https://maps.google.com/?cid=0x0:0x5889f3e250aa966,
supermarket,Minimarket,Alfamart Trans Sulawesi Bigo Bolmut,"Jl. Trans-Sulawesi No.Des, Kuala Utara, Kec. Kaidipang, Kabupaten Bolaang Mongondow Utara, Sulawesi Utara 95765","Kuala Utara, Kec. Kaidipang, Kabupaten Bolaang Mongondow Utara",SULAWESI UTARA,95765.0,Indonesia,211500959.0,,,0.9050094,123.2676205,https://maps.google.com/?cid=0x0:0xfc71dd645e787844,
supermarket,Minimarket,Alfamart Bolangitang Satu Bolmut,"Satu, Kec, Jl. Trans-Sulawesi, Bolangitang, Kec. Bolang Itang Bar., Kabupaten Bolaang Mongondow Utara, Sulawesi Utara 95764","Kec, Jl. Trans-Sulawesi, Bolangitang, Kec. Bolang Itang Bar., Kabupaten Bolaang Mongondow Utara",SULAWESI UTARA,95764.0,Indonesia,1500959.0,,,0.9074321,123.3046569,https://maps.google.com/?cid=0x0:0xe3c85b54520143f9,
supermarket,Toko,Prima Store Sonuo,"Jl. Trans-Sulawesi, Sonuo, Kec. Bolang Itang Bar., Kabupaten Bolaang Mongondow Utara, Sulawesi Utara","Kabupaten Bolaang Mongondow Utara, Sulawesi Utara",SULAWESI UTARA,,Indonesia,81243664949.0,,,0.893012,123.3140126,https://maps.google.com/?cid=0x0:0x5fc6df3905d406e0,
supermarket,Toko umum,Toko Kelontong,"Inomunga Utara, Kec. Kaidipang, Kabupaten Bolaang Mongondow Utara, Sulawesi Utara 95765","Kec. Kaidipang, Kabupaten Bolaang Mongondow Utara",SULAWESI UTARA,95765.0,Indonesia,895328998913.0,,,0.9173866,123.2454941,https://maps.google.com/?cid=0x0:0x45d6b56619f7a4bf,
supermarket,Minimarket,Alfamart Jambusarang,"Jl. Trans-Sulawesi No.Desa, Jambu Sarang, Kec. Bolang Itang Bar., Kabupaten Bolaang Mongondow Utara, Sulawesi Utara 95764","Jambu Sarang, Kec. Bolang Itang Bar., Kabupaten Bolaang Mongondow Utara",SULAWESI UTARA,95764.0,Indonesia,,,,0.9012576,123.3081763,https://maps.google.com/?cid=0x0:0x784100416f45df51,
supermarket,Toko umum,Toko Arfan,"W852+29H, Bolangitang II, Kec. Bolang Itang Bar., Kabupaten Bolaang Mongondow Utara, Sulawesi Utara","Kabupaten Bolaang Mongondow Utara, Sulawesi Utara",SULAWESI UTARA,,Indonesia,,,,0.9075629,123.3009855,https://maps.google.com/?cid=0x0:0x9362a240ff56bf92,
supermarket,supermarket,Gigin shop,"Jl. Trans-Sulawesi, Boroko, Kec. Kaidipang, Kabupaten Bolaang Mongondow Utara, Sulawesi Utara 96583","Boroko, Kec. Kaidipang, Kabupaten Bolaang Mongondow Utara",SULAWESI UTARA,96583.0,Indonesia,82293410104.0,,,0.9052458,123.2531884,https://maps.google.com/?cid=0x0:0x903f63ccb2256efd,
supermarket,Toko,Kios Sahabat Tani/Afika,"V8R7+HG7, Jl. Trans-Sulawesi, Sonuo, Kec. Bolang Itang Bar., Kabupaten Bolaang Mongondow Utara, Sulawesi Utara","Kabupaten Bolaang Mongondow Utara, Sulawesi Utara",SULAWESI UTARA,,Indonesia,,,,0.891422,123.3137937,https://maps.google.com/?cid=0x0:0x601a41a587ff1652,
supermarket,Toko bahan makanan,INSOMNIA,"V6VM+XC7, Jl. Trans-Sulawesi, Komus Dua Tim., Kec. Kaidipang, Kabupaten Bolaang Mongondow Utara, Sulawesi Utara","Kabupaten Bolaang Mongondow Utara, Sulawesi Utara",SULAWESI UTARA,,Indonesia,85399032305.0,,,0.8949015,123.2335406,https://maps.google.com/?cid=0x0:0xadcc1072054a6b18,
supermarket,Toko,Toko Nadila,"W748+3WJ, Bigo, Kec. Kaidipang, Kabupaten Bolaang Mongondow Utara, Sulawesi Utara","Kabupaten Bolaang Mongondow Utara, Sulawesi Utara",SULAWESI UTARA,,Indonesia,,,,0.9052059,123.2672715,https://maps.google.com/?cid=0x0:0x161b6a4a9730358,
supermarket,Pasar,LApak Togihuta,"V7X7+PW2, Jl. Manggis, South Bigo, Kaidipang, North Bolaang Mongondow Regency, North Sulawesi","Kabupaten Bolaang Mongondow Utara, Sulawesi Utara",SULAWESI UTARA,,Indonesia,85398013873.0,,,0.9000355,123.2653919,https://maps.google.com/?cid=0x0:0xf1419c59073d5f3e,
supermarket,Toko umum,St. Selvia Shop,"V7X7+GVH, Bigo Sel., Kec. Kaidipang, Kabupaten Bolaang Mongondow Utara, Sulawesi Utara","Kabupaten Bolaang Mongondow Utara, Sulawesi Utara",SULAWESI UTARA,,Indonesia,82293765373.0,,,0.8988167,123.264727,https://maps.google.com/?cid=0x0:0x3b446ab0055814b1,
supermarket,Toko Swalayan,IVAMART,"W749+WRW, Jln.Cenderawasih, komp.Alkhairat, Boroko, Kec. Kaidipang, Kabupaten Bolaang Mongondow Utara, Sulawesi Utara","Kabupaten Bolaang Mongondow Utara, Sulawesi Utara",SULAWESI UTARA,,Indonesia,82396108685.0,,,0.9073631,123.2695651,https://maps.google.com/?cid=0x0:0x20cc62809b31437a,
supermarket,Toko,Warung Fiza,"W757+X7P, Jl. Pelabuhan, Boroko, Kec. Kaidipang, Kabupaten Bolaang Mongondow Utara, Sulawesi Utara","Kabupaten Bolaang Mongondow Utara, Sulawesi Utara",SULAWESI UTARA,,Indonesia,85299917104.0,,,0.9099659,123.2632108,https://maps.google.com/?cid=0x0:0xe06fb370d4c8ab42,
supermarket,Toko bahan makanan,Kios biden,"W6P7+VH9, Jl. Raya Solo, Solo, Kec. Kaidipang, Kabupaten Bolaang Mongondow Utara, Sulawesi Utara","Kabupaten Bolaang Mongondow Utara, Sulawesi Utara",SULAWESI UTARA,,Indonesia,,,,0.9371606,123.213989,https://maps.google.com/?cid=0x0:0x1aa1135645dd967b,
supermarket,Toko bahan makanan,Kios Marcha,"V7W7+WPG, Bigo Sel., Kec. Kaidipang, Kabupaten Bolaang Mongondow Utara, Sulawesi Utara","Kabupaten Bolaang Mongondow Utara, Sulawesi Utara",SULAWESI UTARA,,Indonesia,82248404982.0,,,0.8973026,123.2643405,https://maps.google.com/?cid=0x0:0xb5e38b0ed3a7121f,
supermarket,Toko Perlengkapan Rumah,kios Rahmat,"W74M+2XH, Kuala, Kec. Kaidipang, Kabupaten Bolaang Mongondow Utara, Sulawesi Utara","Kabupaten Bolaang Mongondow Utara, Sulawesi Utara",SULAWESI UTARA,,Indonesia,85256788263.0,,,0.9050667,123.2849871,https://maps.google.com/?cid=0x0:0x7a40cf38441ab095,
supermarket,Toko bahan makanan,LAPAK BOBA ICE BIBO,"Jl. pelabuhan, Boroko, Kec. Kaidipang, Kabupaten Bolaang Mongondow Utara, Sulawesi Utara","Kabupaten Bolaang Mongondow Utara, Sulawesi Utara",SULAWESI UTARA,,Indonesia,82347858521.0,,,0.9099636,123.2633887,https://maps.google.com/?cid=0x0:0xbecefe570332ea9e,
supermarket,Toko bahan makanan,SAGISTIK,"Jl. W.R Supratman No.70, Boroko Tim., Kec. Kaidipang, Kabupaten Bolaang Mongondow Utara, Sulawesi Utara 95765","Boroko Tim., Kec. Kaidipang, Kabupaten Bolaang Mongondow Utara",SULAWESI UTARA,95765.0,Indonesia,81243206886.0,,,0.9064722,123.2700229,https://maps.google.com/?cid=0x0:0x12c9da79da427ea,
supermarket,Toko umum,Kios Aliya,"V6VM+PHV, Jl. Trans-Sulawesi, Komus Dua Tim., Kec. Kaidipang, Kabupaten Bolaang Mongondow Utara, Sulawesi Utara","Kabupaten Bolaang Mongondow Utara, Sulawesi Utara",SULAWESI UTARA,,Indonesia,,,,0.8943586,123.2339223,https://maps.google.com/?cid=0x0:0xb13997a8ad954c62,
supermarket,supermarket,Kec. Pinogaluman,"Kabupaten Bolaang Mongondow Utara, Sulawesi Utara","Kabupaten Bolaang Mongondow Utara, Sulawesi Utara",SULAWESI UTARA,,Indonesia,,,,0.9178578,123.1401469,https://maps.google.com/?cid=0x0:0x4bec49665b3f40dd,
supermarket,Minimarket,Indomaret Pinogaluman,"W49R+33X, Jl. Trans-Sulawesi, Buko, Kec. Pinogaluman, Kabupaten Bolaang Mongondow Utara, Sulawesi Utara 96253","Jl. Trans-Sulawesi, Buko, Kec. Pinogaluman, Kabupaten Bolaang Mongondow Utara",SULAWESI UTARA,96253.0,Indonesia,,,,0.9177258,123.1402467,https://maps.google.com/?cid=0x0:0x959fb11ecf677375,
supermarket,Minimarket,Alfamart Tontulow Bolmut,"Jl. Trans-Sulawesi, Tontulow, Kec. Pinogaluman, Kabupaten Bolaang Mongondow Utara, Sulawesi Utara 96253","Tontulow, Kec. Pinogaluman, Kabupaten Bolaang Mongondow Utara",SULAWESI UTARA,96253.0,Indonesia,,,,0.9036682,123.1216057,https://maps.google.com/?cid=0x0:0xe82c93afda671def,
supermarket,Minimarket,Ridhoyan Farfum,"Buko, Kec. Pinogaluman, Kabupaten Bolaang Mongondow Utara, Sulawesi Utara","Kabupaten Bolaang Mongondow Utara, Sulawesi Utara",SULAWESI UTARA,,Indonesia,85240701870.0,,,0.919909,123.140434,https://maps.google.com/?cid=0x0:0x27a17ca626fed0e2,
supermarket,Minimarket,Alfamart Trans Sulawesi Bigo Bolmut,"Jl. Trans-Sulawesi No.Des, Kuala Utara, Kec. Kaidipang, Kabupaten Bolaang Mongondow Utara, Sulawesi Utara 95765","Kuala Utara, Kec. Kaidipang, Kabupaten Bolaang Mongondow Utara",SULAWESI UTARA,95765.0,Indonesia,211500959.0,,,0.9050094,123.2676205,https://maps.google.com/?cid=0x0:0xfc71dd645e787844,
supermarket,Toko,Prima Store Sonuo,"Jl. Trans-Sulawesi, Sonuo, Kec. Bolang Itang Bar., Kabupaten Bolaang Mongondow Utara, Sulawesi Utara","Kabupaten Bolaang Mongondow Utara, Sulawesi Utara",SULAWESI UTARA,,Indonesia,81243664949.0,,,0.893012,123.3140126,https://maps.google.com/?cid=0x0:0x5fc6df3905d406e0,
supermarket,Minimarket,Alfamart Bolangitang Satu Bolmut,"Satu, Kec, Jl. Trans-Sulawesi, Bolangitang, Kec. Bolang Itang Bar., Kabupaten Bolaang Mongondow Utara, Sulawesi Utara 95764","Kec, Jl. Trans-Sulawesi, Bolangitang, Kec. Bolang Itang Bar., Kabupaten Bolaang Mongondow Utara",SULAWESI UTARA,95764.0,Indonesia,1500959.0,,,0.9074321,123.3046569,https://maps.google.com/?cid=0x0:0xe3c85b54520143f9,
supermarket,Minimarket,Alfamart Jambusarang,"Jl. Trans-Sulawesi No.Desa, Jambu Sarang, Kec. Bolang Itang Bar., Kabupaten Bolaang Mongondow Utara, Sulawesi Utara 95764","Jambu Sarang, Kec. Bolang Itang Bar., Kabupaten Bolaang Mongondow Utara",SULAWESI UTARA,95764.0,Indonesia,,,,0.9012576,123.3081763,https://maps.google.com/?cid=0x0:0x784100416f45df51,
supermarket,Pusat Perbelanjaan,Bumdes Oluhuta,"W463+8G9, Kota Jin, Kec. Atinggola, Kabupaten Gorontalo Utara, Gorontalo 96253","Kota Jin, Kec. Atinggola, Kabupaten Gorontalo Utara",SULAWESI UTARA,96253.0,Indonesia,82240066121.0,,,0.9107956,123.1038664,https://maps.google.com/?cid=0x0:0xc34859e82b34e17c,
supermarket,Minimarket,Alfamart Ponompiaan,"Jl. Akd Jl. Trans Sulawesi, Ponompiaan, Kec. Dumoga Tim., Kabupaten Bolaang Mongondow, Sulawesi Utara 95763","Ponompiaan, Kec. Dumoga Tim., Kabupaten Bolaang Mongondow",SULAWESI UTARA,95763.0,Indonesia,1500959.0,,,0.6660326,124.1371505,https://maps.google.com/?cid=0x0:0x47870039137ed5d9,
supermarket,Toko umum,Toko Arfan,"W852+29H, Bolangitang II, Kec. Bolang Itang Bar., Kabupaten Bolaang Mongondow Utara, Sulawesi Utara","Kabupaten Bolaang Mongondow Utara, Sulawesi Utara",SULAWESI UTARA,,Indonesia,,,,0.9075629,123.3009855,https://maps.google.com/?cid=0x0:0x9362a240ff56bf92,
supermarket,supermarket,Gigin shop,"Jl. Trans-Sulawesi, Boroko, Kec. Kaidipang, Kabupaten Bolaang Mongondow Utara, Sulawesi Utara 96583","Boroko, Kec. Kaidipang, Kabupaten Bolaang Mongondow Utara",SULAWESI UTARA,96583.0,Indonesia,82293410104.0,,,0.9052458,123.2531884,https://maps.google.com/?cid=0x0:0x903f63ccb2256efd,
supermarket,Toko Swalayan,FreshMart Lifestyle Paniki,"Jl. A.A. Maramis, Paniki Bawah, Kec. Mapanget, Kota Manado, Sulawesi Utara","Kota Manado, Sulawesi Utara",SULAWESI UTARA,,Indonesia,,,,1.5091109,124.9085798,https://maps.google.com/?cid=0x0:0x7e48944d3583f30,
supermarket,Toko bahan makanan,Ninemart,"Perum Griya Paniki Indah Jalan Boulevard F No, RW.1, Paniki Bawah, Kec. Mapanget, Kota Manado, Sulawesi Utara","Kota Manado, Sulawesi Utara",SULAWESI UTARA,,Indonesia,82193681152.0,,,1.5357582,124.9059254,https://maps.google.com/?cid=0x0:0x1c211794d3814b80,
supermarket,Toko,Kios Sahabat Tani/Afika,"V8R7+HG7, Jl. Trans-Sulawesi, Sonuo, Kec. Bolang Itang Bar., Kabupaten Bolaang Mongondow Utara, Sulawesi Utara","Kabupaten Bolaang Mongondow Utara, Sulawesi Utara",SULAWESI UTARA,,Indonesia,,,,0.891422,123.3137937,https://maps.google.com/?cid=0x0:0x601a41a587ff1652,
supermarket,Toko Swalayan,Golden Pasar Swalayan,"Ruko Boulevard, Jl. Piere Tendean No.5, Wenang Utara, Kec. Wenang, Kota Manado, Sulawesi Utara","Kota Manado, Sulawesi Utara",SULAWESI UTARA,,Indonesia,,,,1.4884317,124.8379329,https://maps.google.com/?cid=0x0:0x2d4fb94562e6ef96,
supermarket,Toko bahan makanan,INSOMNIA,"V6VM+XC7, Jl. Trans-Sulawesi, Komus Dua Tim., Kec. Kaidipang, Kabupaten Bolaang Mongondow Utara, Sulawesi Utara","Kabupaten Bolaang Mongondow Utara, Sulawesi Utara",SULAWESI UTARA,,Indonesia,85399032305.0,,,0.8949015,123.2335406,https://maps.google.com/?cid=0x0:0xadcc1072054a6b18,
supermarket,Kios,BRILink / WARUNG RITEN,"W47V+V6F, Dalapuli Bar., Kec. Pinogaluman, Kabupaten Bolaang Mongondow Utara, Sulawesi Utara","Kabupaten Bolaang Mongondow Utara, Sulawesi Utara",SULAWESI UTARA,,Indonesia,,,,0.9146859,123.1430321,https://maps.google.com/?cid=0x0:0xe58a7d3523e894e,
supermarket,Toko,DEPOT AIR MINUM N2 putri,"Jl. Trans-Sulawesi, Dusun 2, Tontulow, Kec. Pinogaluman, Kabupaten Bolaang Mongondow Utara, Sulawesi Utara","Kabupaten Bolaang Mongondow Utara, Sulawesi Utara",SULAWESI UTARA,,Indonesia,82237025390.0,,,0.9045484,123.1218863,https://maps.google.com/?cid=0x0:0x2e74a84af44e3723,
supermarket,supermarket,Queen Frozen,"V5W7+3VM, Batutajam, Kec. Pinogaluman, Kabupaten Bolaang Mongondow Utara, Sulawesi Utara","Kabupaten Bolaang Mongondow Utara, Sulawesi Utara",SULAWESI UTARA,,Indonesia,,,,0.8952187,123.1646719,https://maps.google.com/?cid=0x0:0x6d4cf754543f5bc5,
supermarket,Toko,KIOS ALWI,"W48R+5RR, Dalapuli Bar., Kec. Pinogaluman, Kabupaten Bolaang Mongondow Utara, Sulawesi Utara","Kabupaten Bolaang Mongondow Utara, Sulawesi Utara",SULAWESI UTARA,,Indonesia,82193493649.0,,,0.9154784,123.1420002,https://maps.google.com/?cid=0x0:0x82acff751c3b55a8,
supermarket,Toko bahan makanan,Warung k Yhaty,"V5VQ+FJ, Duini, Kec. Pinogaluman, Kabupaten Bolaang Mongondow Utara, Sulawesi Utara","Kabupaten Bolaang Mongondow Utara, Sulawesi Utara",SULAWESI UTARA,,Indonesia,,,,0.893659,123.189024,https://maps.google.com/?cid=0x0:0x65f496ba38bb58fe,
supermarket,Minimarket,Lapak Oma Nifa,"W4CQ+JCM, Buko Utara, Kec. Pinogaluman, Kabupaten Bolaang Mongondow Utara, Sulawesi Utara 96253","Buko Utara, Kec. Pinogaluman, Kabupaten Bolaang Mongondow Utara",SULAWESI UTARA,96253.0,Indonesia,,,,0.9215963,123.1385494,https://maps.google.com/?cid=0x0:0xa057ad026721f4da,
supermarket,Toko bahan makanan,Kios biden,"W6P7+VH9, Jl. Raya Solo, Solo, Kec. Kaidipang, Kabupaten Bolaang Mongondow Utara, Sulawesi Utara","Kabupaten Bolaang Mongondow Utara, Sulawesi Utara",SULAWESI UTARA,,Indonesia,,,,0.9371606,123.213989,https://maps.google.com/?cid=0x0:0x1aa1135645dd967b,
supermarket,Toko,Toko Nadila,"W748+3WJ, Bigo, Kec. Kaidipang, Kabupaten Bolaang Mongondow Utara, Sulawesi Utara","Kabupaten Bolaang Mongondow Utara, Sulawesi Utara",SULAWESI UTARA,,Indonesia,,,,0.9052059,123.2672715,https://maps.google.com/?cid=0x0:0x161b6a4a9730358,
supermarket,Toko umum,warung Novi gionte,"V5F4+7H9, Busato, Kec. Pinogaluman, Kabupaten Bolaang Mongondow Utara, Sulawesi Utara","Kabupaten Bolaang Mongondow Utara, Sulawesi Utara",SULAWESI UTARA,,Indonesia,,,,0.8731955,123.1565283,https://maps.google.com/?cid=0x0:0xe1a42886e61009b0,
supermarket,Toko umum,Kios Aliya,"V6VM+PHV, Jl. Trans-Sulawesi, Komus Dua Tim., Kec. Kaidipang, Kabupaten Bolaang Mongondow Utara, Sulawesi Utara","Kabupaten Bolaang Mongondow Utara, Sulawesi Utara",SULAWESI UTARA,,Indonesia,,,,0.8943586,123.2339223,https://maps.google.com/?cid=0x0:0xb13997a8ad954c62,
supermarket,supermarket,Kec. Sangkub,"Kabupaten Bolaang Mongondow Utara, Sulawesi Utara","Kabupaten Bolaang Mongondow Utara, Sulawesi Utara",SULAWESI UTARA,,Indonesia,,,,0.8799509,123.6478886,https://maps.google.com/?cid=0x0:0xded44acee8c90687,
supermarket,Minimarket,Indomaret Sangkub,"VJHX+PHV, Sangkub II, Kec. Sangkub, Kabupaten Bolaang Mongondow Utara, Sulawesi Utara","Kabupaten Bolaang Mongondow Utara, Sulawesi Utara",SULAWESI UTARA,,Indonesia,,,,0.879368,123.648915,https://maps.google.com/?cid=0x0:0x17caac0f2c25eb83,
supermarket,Toko umum,Rumah Hamsin Paputungan,"RJPR+MV, Pangkusa, Kec. Sangkub, Kabupaten Bolaang Mongondow Utara, Sulawesi Utara","Kabupaten Bolaang Mongondow Utara, Sulawesi Utara",SULAWESI UTARA,,Indonesia,,,,0.8366304,123.6422302,https://maps.google.com/?cid=0x0:0x6c487f944c977543,
supermarket,Toko Buah dan Sayuran,Kios Murah Barokah,"VJJV+M9X, Sangkub II, Kec. Sangkub, Kabupaten Bolaang Mongondow Utara, Sulawesi Utara","Kabupaten Bolaang Mongondow Utara, Sulawesi Utara",SULAWESI UTARA,,Indonesia,,,,0.8817432,123.6434809,https://maps.google.com/?cid=0x0:0xf021fdbdcd1bd434,
supermarket,supermarket,toko murni,"VHJ2+7CQ, Jl. Trans-Sulawesi, Bintauna, Kec. Bintauna, Kabupaten Bolaang Mongondow Utara, Sulawesi Utara","Kabupaten Bolaang Mongondow Utara, Sulawesi Utara",SULAWESI UTARA,,Indonesia,,,,0.8807032,123.5511068,https://maps.google.com/?cid=0x0:0xb9fd88de2b5f8857,
supermarket,supermarket,warung Ebby,"VJJQ+QQP, Sangkub III, Kec. Sangkub, Kabupaten Bolaang Mongondow Utara, Sulawesi Utara","Kabupaten Bolaang Mongondow Utara, Sulawesi Utara",SULAWESI UTARA,,Indonesia,81242049377.0,,,0.8819637,123.639446,https://maps.google.com/?cid=0x0:0x8e40d0b70862b594,
supermarket,Toko bahan makanan,Toko Cipta Karya,"VJJW+C89, Sangkub II, Kec. Sangkub, Kabupaten Bolaang Mongondow Utara, Sulawesi Utara","Kabupaten Bolaang Mongondow Utara, Sulawesi Utara",SULAWESI UTARA,,Indonesia,81287778872.0,,,0.8810424,123.6458642,https://maps.google.com/?cid=0x0:0x6678cd288c6bfda8,
supermarket,Rumah Makan,TEMPAT MAKAN KIYANG,"VJJR+XR5, Jl. Trans-Sulawesi, Sangkub III, Kec. Sangkub, Kabupaten Bolaang Mongondow Utara, Sulawesi Utara","Kabupaten Bolaang Mongondow Utara, Sulawesi Utara",SULAWESI UTARA,,Indonesia,,,,0.8823902,123.6420509,https://maps.google.com/?cid=0x0:0x64d20b22f4484f60,
supermarket,supermarket,Toko Akbar,"VHVQ+93F, Bintauna Pantai, Kec. Bintauna, Kabupaten Bolaang Mongondow Utara, Sulawesi Utara","Kabupaten Bolaang Mongondow Utara, Sulawesi Utara",SULAWESI UTARA,,Indonesia,81243582987.0,,,0.8934428,123.5876838,https://maps.google.com/?cid=0x0:0xc26879dc6c4c8a47,
supermarket,Toko bahan makanan,Toko Sinar Bintang,"VHRQ+W4X, Bintauna Pantai, Kec. Bintauna, Kabupaten Bolaang Mongondow Utara, Sulawesi Utara","Kabupaten Bolaang Mongondow Utara, Sulawesi Utara",SULAWESI UTARA,,Indonesia,,,,0.8923624,123.5878558,https://maps.google.com/?cid=0x0:0xf395a93edd2a2bb7,
supermarket,Toko,Warung Edo,"VHWQ+JJC, Bintauna Pantai, Kec. Bintauna, Kabupaten Bolaang Mongondow Utara, Sulawesi Utara","Kabupaten Bolaang Mongondow Utara, Sulawesi Utara",SULAWESI UTARA,,Indonesia,81346357983.0,,,0.8965633,123.5890135,https://maps.google.com/?cid=0x0:0xf3d34999d316a831,
