Category,Real Category,Business Name,Address,City,State,Postal Code,Country,Phone,Email,Website,Latitude,Longitude,Map Link,Details Link
komplek housing,Dapur Umum,bintauna,"VHJ2+57G, Bunia, Kec. Bintauna, Kabupaten Bolaang Mongondow Utara, Sulawesi Utara","Kabupaten Bolaang Mongondow Utara, Sulawesi Utara",SULAWESI UTARA,,Indonesia,,,,0.8804303,123.550714,https://maps.google.com/?cid=0x0:0xbe09eb5a29207f32,
komplek housing,Komplek perumahan,Bintauna,"VHM5+MGF, Batulintik, Kec. Bintauna, Kabupaten Bolaang Mongondow Utara, Sulawesi Utara","Kabupaten Bolaang Mongondow Utara, Sulawesi Utara",SULAWESI UTARA,,Indonesia,,,,0.8841888,123.5588064,https://maps.google.com/?cid=0x0:0xfe80b09becb1433f,
komplek housing,komplek housing,Kec. Bintauna,"Kabupaten Bolaang Mongondow Utara, Sulawesi Utara","Kabupaten Bolaang Mongondow Utara, Sulawesi Utara",SULAWESI UTARA,,Indonesia,,,,0.8804511,123.5506194,https://maps.google.com/?cid=0x0:0x8b4cfeaf6f8ff4de,
komplek housing,komplek housing,Bolangitang,"Kec. Bolang Itang Bar., Kabupaten Bolaang Mongondow Utara, Sulawesi Utara","Kabupaten Bolaang Mongondow Utara, Sulawesi Utara",SULAWESI UTARA,,Indonesia,,,,0.9037345,123.3107313,https://maps.google.com/?cid=0x0:0xac4d872202262b07,
komplek housing,komplek housing,Kec. Bolang Itang Bar.,"Kabupaten Bolaang Mongondow Utara, Sulawesi Utara","Kabupaten Bolaang Mongondow Utara, Sulawesi Utara",SULAWESI UTARA,,Indonesia,,,,0.9075668,123.3055527,https://maps.google.com/?cid=0x0:0x17cd151ba51a2f1e,
komplek housing,komplek housing,Kec. Bolang Itang Tim.,"Kabupaten Bolaang Mongondow Utara, Sulawesi Utara","Kabupaten Bolaang Mongondow Utara, Sulawesi Utara",SULAWESI UTARA,,Indonesia,,,,0.8798076,123.4530257,https://maps.google.com/?cid=0x0:0x73767b2b7d690727,
komplek housing,Komplek perumahan,Lorong mapanget,"RGGC+PW, Biontong I, Kec. Bolang Itang Tim., Kabupaten Bolaang Mongondow Utara, Sulawesi Utara","Kabupaten Bolaang Mongondow Utara, Sulawesi Utara",SULAWESI UTARA,,Indonesia,,,,0.826788,123.522348,https://maps.google.com/?cid=0x0:0xe672cd46801d1258,
komplek housing,Pembangunan Perumahan,Lorong Gulantu,"RGFC+3XV, Biontong I, Kec. Bolang Itang Tim., Kabupaten Bolaang Mongondow Utara, Sulawesi Utara","Kabupaten Bolaang Mongondow Utara, Sulawesi Utara",SULAWESI UTARA,,Indonesia,,,,0.8227293,123.5224063,https://maps.google.com/?cid=0x0:0xe017988d9fec0afd,
komplek housing,Gedung Apartemen,Sandi Van Gobel,"Jl. pelabuhan No.12, Boroko, Kec. Kaidipang, Kabupaten Bolaang Mongondow Utara, Sulawesi Utara 95765","Boroko, Kec. Kaidipang, Kabupaten Bolaang Mongondow Utara",SULAWESI UTARA,95765.0,Indonesia,,,,0.908115,123.262224,https://maps.google.com/?cid=0x0:0xf0a2391a6b569eb,
komplek housing,Pertanian,Kel.Tommy Van Gobel-Usup,"V8JC+7VF, Ollot I, Kec. Bolang Itang Bar., Kabupaten Bolaang Mongondow Utara, Sulawesi Utara","Kabupaten Bolaang Mongondow Utara, Sulawesi Utara",SULAWESI UTARA,,Indonesia,,,,0.8807097,123.3221536,https://maps.google.com/?cid=0x0:0x1fcc5fb8f4190cfb,
komplek housing,komplek housing,Boroko,"W745+6PX, Boroko, Kec. Kaidipang, Kabupaten Bolaang Mongondow Utara, Sulawesi Utara","Kabupaten Bolaang Mongondow Utara, Sulawesi Utara",SULAWESI UTARA,,Indonesia,,,,0.905617,123.2593522,https://maps.google.com/?cid=0x0:0x3a69f8ff8c0060eb,
komplek housing,Gedung Apartemen,Sandi Van Gobel,"Jl. pelabuhan No.12, Boroko, Kec. Kaidipang, Kabupaten Bolaang Mongondow Utara, Sulawesi Utara 95765","Boroko, Kec. Kaidipang, Kabupaten Bolaang Mongondow Utara",SULAWESI UTARA,95765.0,Indonesia,,,,0.908115,123.262224,https://maps.google.com/?cid=0x0:0xf0a2391a6b569eb,
komplek housing,Pertanian,Kel.Tommy Van Gobel-Usup,"V8JC+7VF, Ollot I, Kec. Bolang Itang Bar., Kabupaten Bolaang Mongondow Utara, Sulawesi Utara","Kabupaten Bolaang Mongondow Utara, Sulawesi Utara",SULAWESI UTARA,,Indonesia,,,,0.8807097,123.3221536,https://maps.google.com/?cid=0x0:0x1fcc5fb8f4190cfb,
komplek housing,komplek housing,Boroko,"W745+6PX, Boroko, Kec. Kaidipang, Kabupaten Bolaang Mongondow Utara, Sulawesi Utara","Kabupaten Bolaang Mongondow Utara, Sulawesi Utara",SULAWESI UTARA,,Indonesia,,,,0.905617,123.2593522,https://maps.google.com/?cid=0x0:0x3a69f8ff8c0060eb,
komplek housing,komplek housing,Kec. Sangkub,"Kabupaten Bolaang Mongondow Utara, Sulawesi Utara","Kabupaten Bolaang Mongondow Utara, Sulawesi Utara",SULAWESI UTARA,,Indonesia,,,,0.8799509,123.6478886,https://maps.google.com/?cid=0x0:0xded44acee8c90687,
komplek housing,Komplek perumahan,sangkub,"VMC3+GH4, Sangkub I, Kec. Sangkub, Kabupaten Bolaang Mongondow Utara, Sulawesi Utara","Kabupaten Bolaang Mongondow Utara, Sulawesi Utara",SULAWESI UTARA,,Indonesia,,,,0.8712559,123.6539405,https://maps.google.com/?cid=0x0:0x986a9cdc8ec38202,
komplek housing,Komplek perumahan,Pancurang,"VMH6+5RV, Jl. Trans-Sulawesi, Sangkub I, Kec. Sangkub, Kabupaten Bolaang Mongondow Utara, Sulawesi Utara 95762","Jl. Trans-Sulawesi, Sangkub I, Kec. Sangkub, Kabupaten Bolaang Mongondow Utara",SULAWESI UTARA,95762.0,Indonesia,,,,0.8779688,123.6621129,https://maps.google.com/?cid=0x0:0x27a3606c448c7c99,
perumahan,Pembangunan Perumahan,KUNAT,"VGHF+R9M, Bunong, Kec. Bintauna, Kabupaten Bolaang Mongondow Utara, Sulawesi Utara","Kabupaten Bolaang Mongondow Utara, Sulawesi Utara",SULAWESI UTARA,,Indonesia,,,,0.8795882,123.5234167,https://maps.google.com/?cid=0x0:0x4f70e0063e7785c3,
perumahan,Dapur Umum,bintauna,"VHJ2+57G, Bunia, Kec. Bintauna, Kabupaten Bolaang Mongondow Utara, Sulawesi Utara","Kabupaten Bolaang Mongondow Utara, Sulawesi Utara",SULAWESI UTARA,,Indonesia,,,,0.8804303,123.550714,https://maps.google.com/?cid=0x0:0xbe09eb5a29207f32,
perumahan,Komplek perumahan,Bintauna Pantai,"VHVQ+MX7, Bintauna Pantai, Kec. Bintauna, Kabupaten Bolaang Mongondow Utara, Sulawesi Utara","Kabupaten Bolaang Mongondow Utara, Sulawesi Utara",SULAWESI UTARA,,Indonesia,81214020359.0,,,0.8939604,123.5890024,https://maps.google.com/?cid=0x0:0x4f00868fd4ce32d1,
perumahan,Komplek perumahan,Mes BSU Bintauna,"VHHM+VGQ, Kopi, Kec. Bintauna, Kabupaten Bolaang Mongondow Utara, Sulawesi Utara","Kabupaten Bolaang Mongondow Utara, Sulawesi Utara",SULAWESI UTARA,,Indonesia,,,,0.8797045,123.5838606,https://maps.google.com/?cid=0x0:0x711983713e6f965,
perumahan,Komplek perumahan,nay,"VGJX+7WJ, Bintauna, Kec. Bintauna, Kabupaten Bolaang Mongondow Utara, Sulawesi Utara","Kabupaten Bolaang Mongondow Utara, Sulawesi Utara",SULAWESI UTARA,,Indonesia,,,,0.8808054,123.549676,https://maps.google.com/?cid=0x0:0x6178ee3a01896ba0,
perumahan,Kantor Keselamatan Publik,"Desa Binuni Kec. Bolangitang Timur, Kab. Bolaang Mongondow Utara","VFMQ+563, Jl. Trans-Sulawesi, Biontong, Kec. Bolang Itang Tim., Kabupaten Bolaang Mongondow Utara, Sulawesi Utara","Kabupaten Bolaang Mongondow Utara, Sulawesi Utara",SULAWESI UTARA,,Indonesia,,,,0.8828966,123.4880578,https://maps.google.com/?cid=0x0:0xc1d2930dc7cb78ac,
perumahan,Komplek perumahan,Ria home,"VGMX+9PP, Talaga, Kec. Bintauna, Kabupaten Bolaang Mongondow Utara, Sulawesi Utara","Kabupaten Bolaang Mongondow Utara, Sulawesi Utara",SULAWESI UTARA,,Indonesia,,,,0.8834674,123.5493359,https://maps.google.com/?cid=0x0:0x6b1d96a9bcf8d8ab,
perumahan,Komplek perumahan,Felisha  Fasyah,"VGHV+CJ9, Jl. Jalur Dua, Vahuta, Kec. Bintauna, Kabupaten Bolaang Mongondow Utara, Sulawesi Utara","Kabupaten Bolaang Mongondow Utara, Sulawesi Utara",SULAWESI UTARA,,Indonesia,81543119752.0,,,0.8782539,123.542635,https://maps.google.com/?cid=0x0:0x6261724b75b69468,
perumahan,Komplek perumahan,Aspol Bintauna,"VHJ4+Q5V, Batulintik, Kec. Bintauna, Kabupaten Bolaang Mongondow Utara, Sulawesi Utara","Kabupaten Bolaang Mongondow Utara, Sulawesi Utara",SULAWESI UTARA,,Indonesia,,,,0.8819864,123.555426,https://maps.google.com/?cid=0x0:0xbd915b34a9a491cf,
perumahan,Komplek perumahan,Bunia dusun 4,"VHH4+JM4, Bunia, Kec. Bintauna, Kabupaten Bolaang Mongondow Utara, Sulawesi Utara","Kabupaten Bolaang Mongondow Utara, Sulawesi Utara",SULAWESI UTARA,,Indonesia,,,,0.879023,123.5567167,https://maps.google.com/?cid=0x0:0x29ea755119f5360a,
perumahan,Komplek perumahan,Nafisa Mentari Datungsolang,"Bunong, Kec. Bintauna, Kabupaten Bolaang Mongondow Utara, Sulawesi Utara","Kabupaten Bolaang Mongondow Utara, Sulawesi Utara",SULAWESI UTARA,,Indonesia,,,,0.8795946,123.5234791,https://maps.google.com/?cid=0x0:0xbd7966f29459ff08,
perumahan,Komplek perumahan,NAZIRAH KAYA,"VGJJ+58V, Kuhanga, Kec. Bintauna, Kabupaten Bolaang Mongondow Utara, Sulawesi Utara","Kabupaten Bolaang Mongondow Utara, Sulawesi Utara",SULAWESI UTARA,,Indonesia,,,,0.8804831,123.5308076,https://maps.google.com/?cid=0x0:0xa6dca301e2aa5349,
perumahan,Komplek perumahan,Fathan binolombangan,"VGJG+6J2, Kuhanga, Kec. Bintauna, Kabupaten Bolaang Mongondow Utara, Sulawesi Utara","Kabupaten Bolaang Mongondow Utara, Sulawesi Utara",SULAWESI UTARA,,Indonesia,82311504038.0,,,0.8805054,123.5265019,https://maps.google.com/?cid=0x0:0x13e728b55b75b8f1,
perumahan,perumahan,Kec. Bintauna,"Kabupaten Bolaang Mongondow Utara, Sulawesi Utara","Kabupaten Bolaang Mongondow Utara, Sulawesi Utara",SULAWESI UTARA,,Indonesia,,,,0.8804511,123.5506194,https://maps.google.com/?cid=0x0:0x8b4cfeaf6f8ff4de,
perumahan,Pembangunan Perumahan,Elin sasamira,"VHWP+5PW, Bintauna Pantai, Kec. Bintauna, Kabupaten Bolaang Mongondow Utara, Sulawesi Utara","Kabupaten Bolaang Mongondow Utara, Sulawesi Utara",SULAWESI UTARA,,Indonesia,,,,0.8954834,123.5868168,https://maps.google.com/?cid=0x0:0x392809269c575a9,
perumahan,Komplek perumahan,MitaGarnuk,"RHW5+9Q, Huntuk, Kec. Bintauna, Kabupaten Bolaang Mongondow Utara, Sulawesi Utara","Kabupaten Bolaang Mongondow Utara, Sulawesi Utara",SULAWESI UTARA,,Indonesia,,,,0.8459841,123.5594388,https://maps.google.com/?cid=0x0:0xc28c430de17dbf5e,
perumahan,Komplek perumahan,Home,"VGJW+CRC Depan Pekuburan Umum, Bintauna, Kec. Bintauna, Kabupaten Bolaang Mongondow Utara, Sulawesi Utara","Kabupaten Bolaang Mongondow Utara, Sulawesi Utara",SULAWESI UTARA,,Indonesia,,,,0.8810635,123.5470174,https://maps.google.com/?cid=0x0:0xb4560036287be7b2,
perumahan,Komplek perumahan,rumah ko KING,"VHVQ+QHF, Bintauna Pantai, Kec. Bintauna, Kabupaten Bolaang Mongondow Utara, Sulawesi Utara","Kabupaten Bolaang Mongondow Utara, Sulawesi Utara",SULAWESI UTARA,,Indonesia,,,,0.8944415,123.5889152,https://maps.google.com/?cid=0x0:0xd1585143b6bf000d,
perumahan,Komplek perumahan,Ketty home,"VHJ2+57G, Bintauna, Kec. Bintauna, Kabupaten Bolaang Mongondow Utara, Sulawesi Utara","Kabupaten Bolaang Mongondow Utara, Sulawesi Utara",SULAWESI UTARA,,Indonesia,,,,0.8804303,123.550714,https://maps.google.com/?cid=0x0:0x6c7bc41074f46cee,
perumahan,Komplek perumahan,Bintauna,"VHM5+MGF, Batulintik, Kec. Bintauna, Kabupaten Bolaang Mongondow Utara, Sulawesi Utara","Kabupaten Bolaang Mongondow Utara, Sulawesi Utara",SULAWESI UTARA,,Indonesia,,,,0.8841888,123.5588064,https://maps.google.com/?cid=0x0:0xfe80b09becb1433f,
perumahan,Komplek perumahan,Rumahku,"VHVP+WW7, Bintauna Pantai, Kec. Bintauna, Kabupaten Bolaang Mongondow Utara, Sulawesi Utara","Kabupaten Bolaang Mongondow Utara, Sulawesi Utara",SULAWESI UTARA,,Indonesia,,,,0.8949554,123.5872613,https://maps.google.com/?cid=0x0:0x4e4a41ffdab3e0b4,
perumahan,Rumah Kaca,Rumah keluarga Endemo,"VHWP+7HG, Bintauna Pantai, Kec. Bintauna, Kabupaten Bolaang Mongondow Utara, Sulawesi Utara","Kabupaten Bolaang Mongondow Utara, Sulawesi Utara",SULAWESI UTARA,,Indonesia,,,,0.8956993,123.5864631,https://maps.google.com/?cid=0x0:0xcb00ed32757dc6d9,
perumahan,Komplek perumahan,"Angga, Sian","VGHH+P4F, Jl. Trans-Sulawesi, Kuhanga, Kec. Bintauna, Kabupaten Bolaang Mongondow Utara, Sulawesi Utara","Kabupaten Bolaang Mongondow Utara, Sulawesi Utara",SULAWESI UTARA,,Indonesia,,,,0.8785955,123.5277227,https://maps.google.com/?cid=0x0:0xedc2fb9e07d4aba8,
perumahan,Komplek perumahan,Home alavha,"VGHX+MHR, Pimpi, Kec. Bintauna, Kabupaten Bolaang Mongondow Utara, Sulawesi Utara","Kabupaten Bolaang Mongondow Utara, Sulawesi Utara",SULAWESI UTARA,,Indonesia,,,,0.8792309,123.5488809,https://maps.google.com/?cid=0x0:0xf988e8b461cf30b4,
perumahan,,Depot air minum olivia kelurahan,"VHJ2+57G, Bintauna, Kec. Bintauna, Kabupaten Bolaang Mongondow Utara, Sulawesi Utara","Kabupaten Bolaang Mongondow Utara, Sulawesi Utara",SULAWESI UTARA,,Indonesia,85256199398.0,,,0.8804303,123.550714,https://maps.google.com/?cid=0x0:0xa694b613d7d3f92d,
perumahan,Pembangunan Perumahan,Rumah Faiqa,"VGMF+3VC, Bunong, Kec. Bintauna, Kabupaten Bolaang Mongondow Utara, Sulawesi Utara","Kabupaten Bolaang Mongondow Utara, Sulawesi Utara",SULAWESI UTARA,,Indonesia,,,,0.8818574,123.5246513,https://maps.google.com/?cid=0x0:0x856d5c9f604a5919,
perumahan,perumahan,Bolangitang,"Kec. Bolang Itang Bar., Kabupaten Bolaang Mongondow Utara, Sulawesi Utara","Kabupaten Bolaang Mongondow Utara, Sulawesi Utara",SULAWESI UTARA,,Indonesia,,,,0.9037345,123.3107313,https://maps.google.com/?cid=0x0:0xac4d872202262b07,
perumahan,Bed >>u0026 Breakfast,Rumah galang,"W824+R8, Bolangitang, Kec. Bolang Itang Bar., Kabupaten Bolaang Mongondow Utara, Sulawesi Utara","Kabupaten Bolaang Mongondow Utara, Sulawesi Utara",SULAWESI UTARA,,Indonesia,,,,0.9020342,123.3049565,https://maps.google.com/?cid=0x0:0x24cab64ce671d51e,
perumahan,Perumahan,Rumah klara,"W825+M96, Bolangitang, Kec. Bolang Itang Bar., Kabupaten Bolaang Mongondow Utara, Sulawesi Utara","Kabupaten Bolaang Mongondow Utara, Sulawesi Utara",SULAWESI UTARA,,Indonesia,,,,0.9014199,123.308466,https://maps.google.com/?cid=0x0:0xfc6dc44cb7c46fff,
perumahan,Komplek perumahan,Lelyanti Van Gobel/patilima/karim,"W855+HWG, Bolangitang I, Kec. Bolang Itang Bar., Kabupaten Bolaang Mongondow Utara, Sulawesi Utara","Kabupaten Bolaang Mongondow Utara, Sulawesi Utara",SULAWESI UTARA,,Indonesia,,,,0.9089468,123.309815,https://maps.google.com/?cid=0x0:0xeac30150bddccf04,
perumahan,Perumahan,Rumah tian,"W835+M77 Rumah tian, Dekat, Bolangitang, Kec. Bolang Itang Bar., Kabupaten Bolaang Mongondow Utara, Sulawesi Utara","Kabupaten Bolaang Mongondow Utara, Sulawesi Utara",SULAWESI UTARA,,Indonesia,85796704560.0,,,0.9041625,123.3081719,https://maps.google.com/?cid=0x0:0xf3e9b6bf4d477848,
perumahan,Komplek perumahan,Rumah keluarga PROF. DR. Hi. H.T. USUP - PATTILIMA,"Jl. Trans-Sulawesi No.12, Jambu Sarang, Kec. Bolang Itang Bar., Kabupaten Bolaang Mongondow Utara, Sulawesi Utara","Kabupaten Bolaang Mongondow Utara, Sulawesi Utara",SULAWESI UTARA,,Indonesia,,,,0.901229,123.3078834,https://maps.google.com/?cid=0x0:0x86478bb3c75e9fc3,
perumahan,Komplek perumahan,MISTER ID,"V8W5+XMV, Jl. Trans-Sulawesi, Jambu Sarang, Kec. Bolang Itang Bar., Kabupaten Bolaang Mongondow Utara, Sulawesi Utara","Kabupaten Bolaang Mongondow Utara, Sulawesi Utara",SULAWESI UTARA,,Indonesia,,,,0.8974933,123.3091828,https://maps.google.com/?cid=0x0:0x844fdb969243e63b,
perumahan,Komplek perumahan,Home sweet home,"V8X8+7H9, Jl. Trans-Sulawesi, Langi, Kec. Bolang Itang Bar., Kabupaten Bolaang Mongondow Utara, Sulawesi Utara","Kabupaten Bolaang Mongondow Utara, Sulawesi Utara",SULAWESI UTARA,,Indonesia,,,,0.898451,123.316443,https://maps.google.com/?cid=0x0:0xfc46e0614ef65922,
perumahan,Komplek perumahan,Rumah Tuan Salman,"Jambu Sarang, Kec. Bolang Itang Bar., Kabupaten Bolaang Mongondow Utara, Sulawesi Utara","Kabupaten Bolaang Mongondow Utara, Sulawesi Utara",SULAWESI UTARA,,Indonesia,85399932333.0,,,0.9009259,123.3080048,https://maps.google.com/?cid=0x0:0x99505031203c3858,
perumahan,Komplek perumahan,Rumah Pak Farid / Bolmagut,"W855+H6, Bolangitang I, Kec. Bolang Itang Bar., Kabupaten Bolaang Mongondow Utara, Sulawesi Utara","Kabupaten Bolaang Mongondow Utara, Sulawesi Utara",SULAWESI UTARA,,Indonesia,,,,0.908988,123.3080766,https://maps.google.com/?cid=0x0:0x67ff62f4e0376a97,
perumahan,Komplek perumahan,Lily nahumpang,"W853+8PC, Jln peapi, Bolangitang I, Kec. Bolang Itang Bar., Kabupaten Bolaang Mongondow Utara, Sulawesi Utara","Kabupaten Bolaang Mongondow Utara, Sulawesi Utara",SULAWESI UTARA,,Indonesia,,,,0.9083086,123.3042733,https://maps.google.com/?cid=0x0:0x4b155acda85093b5,
perumahan,Komplek perumahan,Rumah keluarga suriyani kapiso,"W854+364, Bolangitang I, Kec. Bolang Itang Bar., Kabupaten Bolaang Mongondow Utara, Sulawesi Utara","Kabupaten Bolaang Mongondow Utara, Sulawesi Utara",SULAWESI UTARA,,Indonesia,,,,0.9076342,123.3055859,https://maps.google.com/?cid=0x0:0x90e41ae22933476e,
perumahan,Komplek perumahan,Lihawa kusnadi,"W836+F7X, Bolangitang, Kec. Bolang Itang Bar., Kabupaten Bolaang Mongondow Utara, Sulawesi Utara","Kabupaten Bolaang Mongondow Utara, Sulawesi Utara",SULAWESI UTARA,,Indonesia,,,,0.9037345,123.3107313,https://maps.google.com/?cid=0x0:0xf45bdcda5e695bb7,
perumahan,Komplek perumahan,Jusarang,"Jl. Trans-Sulawesi No.12, Jambu Sarang, Kec. Bolang Itang Bar., Kabupaten Bolaang Mongondow Utara, Sulawesi Utara","Kabupaten Bolaang Mongondow Utara, Sulawesi Utara",SULAWESI UTARA,,Indonesia,,,,0.9016612,123.3077868,https://maps.google.com/?cid=0x0:0x71cb7798acf7d5b7,
perumahan,Komplek perumahan,Lasama pontoh,"W844+WQ7, Bolangitang, Kec. Bolang Itang Bar., Kabupaten Bolaang Mongondow Utara, Sulawesi Utara","Kabupaten Bolaang Mongondow Utara, Sulawesi Utara",SULAWESI UTARA,,Indonesia,,,,0.9072985,123.3068784,https://maps.google.com/?cid=0x0:0x853edcbd5b9575bc,
perumahan,Komplek perumahan,SHINOBI P TAMPA,"V8W9+V34, Jl. Trans-Sulawesi, Bolangitang, Kec. Bolang Itang Bar., Kabupaten Bolaang Mongondow Utara, Sulawesi Utara","Kabupaten Bolaang Mongondow Utara, Sulawesi Utara",SULAWESI UTARA,,Indonesia,,,,0.8971327,123.3177001,https://maps.google.com/?cid=0x0:0x6cf09306592d7ee6,
perumahan,Komplek perumahan,Putra mokodompit,"V8X8+7H9, Jl. Trans-Sulawesi, Langi, Kec. Bolang Itang Bar., Kabupaten Bolaang Mongondow Utara, Sulawesi Utara","Kabupaten Bolaang Mongondow Utara, Sulawesi Utara",SULAWESI UTARA,,Indonesia,,,,0.8981602,123.3164782,https://maps.google.com/?cid=0x0:0x9cac64aca7bc04b7,
perumahan,Komplek perumahan,Yulan's House,"V8X5+FHV, Jambu Sarang, Kec. Bolang Itang Bar., Kabupaten Bolaang Mongondow Utara, Sulawesi Utara","Kabupaten Bolaang Mongondow Utara, Sulawesi Utara",SULAWESI UTARA,,Indonesia,,,,0.899533,123.3088588,https://maps.google.com/?cid=0x0:0x8b7d39100754311c,
perumahan,Komplek perumahan,Tampa Stap,"V8W9+W5C, Jl. Trans-Sulawesi, Langi, Kec. Bolang Itang Bar., Kabupaten Bolaang Mongondow Utara, Sulawesi Utara","Kabupaten Bolaang Mongondow Utara, Sulawesi Utara",SULAWESI UTARA,,Indonesia,,,,0.8973221,123.3178925,https://maps.google.com/?cid=0x0:0xfeba5518d24022c8,
perumahan,perumahan,Kec. Bolang Itang Bar.,"Kabupaten Bolaang Mongondow Utara, Sulawesi Utara","Kabupaten Bolaang Mongondow Utara, Sulawesi Utara",SULAWESI UTARA,,Indonesia,,,,0.9075668,123.3055527,https://maps.google.com/?cid=0x0:0x17cd151ba51a2f1e,
perumahan,Komplek perumahan,rumah POGOGOPITA,"W84M+65X, Iyok, Kec. Bolang Itang Bar., Kabupaten Bolaang Mongondow Utara, Sulawesi Utara","Kabupaten Bolaang Mongondow Utara, Sulawesi Utara",SULAWESI UTARA,,Indonesia,,,,0.9056105,123.3329983,https://maps.google.com/?cid=0x0:0x6f70e444ce416e56,
perumahan,Pembangunan Perumahan,Perumahan Griya Pinagut Lestari,"W779+2Q4, Kuala, Kec. Kaidipang, Kabupaten Bolaang Mongondow Utara, Sulawesi Utara","Kabupaten Bolaang Mongondow Utara, Sulawesi Utara",SULAWESI UTARA,,Indonesia,,,,0.9125003,123.2694381,https://maps.google.com/?cid=0x0:0x5cb3614aa46e6d15,
perumahan,Komplek perumahan,Syafiyyah Lantapa Home,"V8Q8+7G9, Sonuo, Kec. Bolang Itang Bar., Kabupaten Bolaang Mongondow Utara, Sulawesi Utara","Kabupaten Bolaang Mongondow Utara, Sulawesi Utara",SULAWESI UTARA,,Indonesia,,,,0.888174,123.3163454,https://maps.google.com/?cid=0x0:0x74272d684f052ff6,
perumahan,Komplek perumahan,EvaIlyas,"W83Q+6R9, Tote, Kec. Bolang Itang Bar., Kabupaten Bolaang Mongondow Utara, Sulawesi Utara","Kabupaten Bolaang Mongondow Utara, Sulawesi Utara",SULAWESI UTARA,,Indonesia,,,,0.9031113,123.3391101,https://maps.google.com/?cid=0x0:0xad53b2cc1714bf7d,
perumahan,Tujuan Wisata,Keimanga,"V88G+JQP, Ollot II, Kec. Bolang Itang Bar., Kabupaten Bolaang Mongondow Utara, Sulawesi Utara","Kabupaten Bolaang Mongondow Utara, Sulawesi Utara",SULAWESI UTARA,,Indonesia,,,,0.866593,123.3269664,https://maps.google.com/?cid=0x0:0xe0c356473b80351b,
perumahan,Komplek perumahan,NURBAYA TEGELA,"V8HF+HG7, Unnamed Road, Ollot, Kec. Bolang Itang Bar., Kabupaten Bolaang Mongondow Utara, Sulawesi Utara","Kabupaten Bolaang Mongondow Utara, Sulawesi Utara",SULAWESI UTARA,,Indonesia,,,,0.8789013,123.323795,https://maps.google.com/?cid=0x0:0xcbb942f1f7bba4b3,
perumahan,Komplek perumahan,Mikhaila@Home,"V8P8+VG2, Jl ciheran, Sonuo, Kec. Bolang Itang Bar., Kabupaten Bolaang Mongondow Utara, Sulawesi Utara","Kabupaten Bolaang Mongondow Utara, Sulawesi Utara",SULAWESI UTARA,,Indonesia,,,,0.8871373,123.3162681,https://maps.google.com/?cid=0x0:0xa61418a9f1d4d5c7,
perumahan,Komplek perumahan,Bhole Ni Ku,"W75X+C83, Jl. Trans-Sulawesi, Bolangitang I, Kec. Bolang Itang Bar., Kabupaten Bolaang Mongondow Utara, Sulawesi Utara","Kabupaten Bolaang Mongondow Utara, Sulawesi Utara",SULAWESI UTARA,,Indonesia,,,,0.9085016,123.2982945,https://maps.google.com/?cid=0x0:0x324ff2aac23517b1,
perumahan,Komplek perumahan,ISKANDAR ZULKARNAIN TAHIR-MAMONTO,"W823+X5H, Talaga Tomoagu, Kec. Bolang Itang Bar., Kabupaten Bolaang Mongondow Utara, Sulawesi Utara","Kabupaten Bolaang Mongondow Utara, Sulawesi Utara",SULAWESI UTARA,,Indonesia,,,,0.9024375,123.3029844,https://maps.google.com/?cid=0x0:0x8d0841dd4c82126d,
perumahan,perumahan,Kec. Bolang Itang Tim.,"Kabupaten Bolaang Mongondow Utara, Sulawesi Utara","Kabupaten Bolaang Mongondow Utara, Sulawesi Utara",SULAWESI UTARA,,Indonesia,,,,0.8798076,123.4530257,https://maps.google.com/?cid=0x0:0x73767b2b7d690727,
perumahan,Kantor Keselamatan Publik,"Desa Binuni Kec. Bolangitang Timur, Kab. Bolaang Mongondow Utara","VFMQ+563, Jl. Trans-Sulawesi, Biontong, Kec. Bolang Itang Tim., Kabupaten Bolaang Mongondow Utara, Sulawesi Utara","Kabupaten Bolaang Mongondow Utara, Sulawesi Utara",SULAWESI UTARA,,Indonesia,,,,0.8828966,123.4880578,https://maps.google.com/?cid=0x0:0xc1d2930dc7cb78ac,
perumahan,Komplek perumahan,Lorong Teratai,"VFH5+295, Bohabak III, Kec. Bolang Itang Tim., Kabupaten Bolaang Mongondow Utara, Sulawesi Utara","Kabupaten Bolaang Mongondow Utara, Sulawesi Utara",SULAWESI UTARA,,Indonesia,81247008782.0,,,0.8775077,123.4584834,https://maps.google.com/?cid=0x0:0xb14430dccf20c375,
perumahan,Komplek perumahan,Wahyu Igirisa,"VGH2+MXP, Biontong I, Kec. Bolang Itang Tim., Kabupaten Bolaang Mongondow Utara, Sulawesi Utara","Kabupaten Bolaang Mongondow Utara, Sulawesi Utara",SULAWESI UTARA,,Indonesia,,,,0.8791799,123.5019171,https://maps.google.com/?cid=0x0:0x532ae33636e0a855,
perumahan,Komplek perumahan,Rumah Anda mokodoto,"VFJ7+9CJ, Bohabak III, Kec. Bolang Itang Tim., Kabupaten Bolaang Mongondow Utara, Sulawesi Utara","Kabupaten Bolaang Mongondow Utara, Sulawesi Utara",SULAWESI UTARA,,Indonesia,,,,0.88097,123.4635012,https://maps.google.com/?cid=0x0:0x4412ffcbdb48693a,
perumahan,Komplek perumahan,Teling,"RFF4+83V, Bohabak I, Kec. Bolang Itang Tim., Kabupaten Bolaang Mongondow Utara, Sulawesi Utara","Kabupaten Bolaang Mongondow Utara, Sulawesi Utara",SULAWESI UTARA,,Indonesia,,,,0.8233682,123.4551696,https://maps.google.com/?cid=0x0:0xa1da8dbdc97eb19f,
perumahan,Pembangunan Perumahan,Chicy Sondang,"VFQG+4PF, Binjeita II, Kec. Bolang Itang Tim., Kabupaten Bolaang Mongondow Utara, Sulawesi Utara","Kabupaten Bolaang Mongondow Utara, Sulawesi Utara",SULAWESI UTARA,,Indonesia,,,,0.8878119,123.4767852,https://maps.google.com/?cid=0x0:0x114aa30f72341969,
perumahan,Komplek perumahan,Lorong mapanget,"RGGC+PW, Biontong I, Kec. Bolang Itang Tim., Kabupaten Bolaang Mongondow Utara, Sulawesi Utara","Kabupaten Bolaang Mongondow Utara, Sulawesi Utara",SULAWESI UTARA,,Indonesia,,,,0.826788,123.522348,https://maps.google.com/?cid=0x0:0xe672cd46801d1258,
perumahan,Pembangunan Perumahan,Lorong Gulantu,"RGFC+3XV, Biontong I, Kec. Bolang Itang Tim., Kabupaten Bolaang Mongondow Utara, Sulawesi Utara","Kabupaten Bolaang Mongondow Utara, Sulawesi Utara",SULAWESI UTARA,,Indonesia,,,,0.8227293,123.5224063,https://maps.google.com/?cid=0x0:0xe017988d9fec0afd,
perumahan,Kantor Hubungan Masyarakat,Desa Saleo,"VCR2+HJ5, Jl. Trans-Sulawesi, Saleo, Kec. Bolang Itang Tim., Kabupaten Bolaang Mongondow Utara, Sulawesi Utara","Kabupaten Bolaang Mongondow Utara, Sulawesi Utara",SULAWESI UTARA,,Indonesia,,,,0.8913801,123.4015951,https://maps.google.com/?cid=0x0:0x34fff16347828b0,
perumahan,Pembangunan Perumahan,R.MANDJURUNGI,"VFMM+WMF, Jl. Trans-Sulawesi, Binjeita I, Kec. Bolang Itang Tim., Kabupaten Bolaang Mongondow Utara, Sulawesi Utara","Kabupaten Bolaang Mongondow Utara, Sulawesi Utara",SULAWESI UTARA,,Indonesia,,,,0.8848033,123.4841735,https://maps.google.com/?cid=0x0:0x1f65689188cb86b5,
perumahan,Komplek perumahan,Rumah Sekretaris Desa,"VG43+9G, Biontong II, Kec. Bolang Itang Tim., Kabupaten Bolaang Mongondow Utara, Sulawesi Utara","Kabupaten Bolaang Mongondow Utara, Sulawesi Utara",SULAWESI UTARA,,Indonesia,,,,0.8558569,123.5037532,https://maps.google.com/?cid=0x0:0x55457f37c001dc13,
perumahan,Perhimpunan Pengembang Perumahan,Kere- Mamele,"V9RG+CJQ, Mokoditek, Kec. Bolang Itang Tim., Kabupaten Bolaang Mongondow Utara, Sulawesi Utara","Kabupaten Bolaang Mongondow Utara, Sulawesi Utara",SULAWESI UTARA,,Indonesia,,,,0.8910811,123.3766207,https://maps.google.com/?cid=0x0:0xd2c3c15303c6212,
perumahan,Komplek perumahan,Rumah Nurul,"Jl. Trans-Sulawesi, Nunuka, Kec. Bolang Itang Tim., Kabupaten Bolaang Mongondow Utara, Sulawesi Utara","Kabupaten Bolaang Mongondow Utara, Sulawesi Utara",SULAWESI UTARA,,Indonesia,,,,0.8909223,123.3884226,https://maps.google.com/?cid=0x0:0x72ea2dc1a776d38,
perumahan,Komplek perumahan,Nurlinkawindaareros,"V9WF+2VJ, Mokoditek, Kec. Bolang Itang Tim., Kabupaten Bolaang Mongondow Utara, Sulawesi Utara","Kabupaten Bolaang Mongondow Utara, Sulawesi Utara",SULAWESI UTARA,,Indonesia,,,,0.8950855,123.374652,https://maps.google.com/?cid=0x0:0xae088a66f0304037,
perumahan,Komplek perumahan,rumah POGOGOPITA,"W84M+65X, Iyok, Kec. Bolang Itang Bar., Kabupaten Bolaang Mongondow Utara, Sulawesi Utara","Kabupaten Bolaang Mongondow Utara, Sulawesi Utara",SULAWESI UTARA,,Indonesia,,,,0.9056105,123.3329983,https://maps.google.com/?cid=0x0:0x6f70e444ce416e56,
perumahan,Komplek perumahan,RUMAH TEGIAN DOTINGGULO,"VFH3+97F, Bohabak I, Kec. Bolang Itang Tim., Kabupaten Bolaang Mongondow Utara, Sulawesi Utara","Kabupaten Bolaang Mongondow Utara, Sulawesi Utara",SULAWESI UTARA,,Indonesia,,,,0.8784251,123.4531831,https://maps.google.com/?cid=0x0:0x5d3181cfc27bac93,
perumahan,Komplek perumahan,Rumah FIGUR,"VFH3+95C, Bohabak IV, Kec. Bolang Itang Tim., Kabupaten Bolaang Mongondow Utara, Sulawesi Utara","Kabupaten Bolaang Mongondow Utara, Sulawesi Utara",SULAWESI UTARA,,Indonesia,,,,0.878141,123.4529353,https://maps.google.com/?cid=0x0:0xcd9bdc986fb540ee,
perumahan,Komplek perumahan,EvaIlyas,"W83Q+6R9, Tote, Kec. Bolang Itang Bar., Kabupaten Bolaang Mongondow Utara, Sulawesi Utara","Kabupaten Bolaang Mongondow Utara, Sulawesi Utara",SULAWESI UTARA,,Indonesia,,,,0.9031113,123.3391101,https://maps.google.com/?cid=0x0:0xad53b2cc1714bf7d,
perumahan,Pembangunan Perumahan,Desa biontong,"VGM7+M6, Biontong I, Kec. Bolang Itang Tim., Kabupaten Bolaang Mongondow Utara, Sulawesi Utara","Kabupaten Bolaang Mongondow Utara, Sulawesi Utara",SULAWESI UTARA,,Indonesia,,,,0.8841185,123.513009,https://maps.google.com/?cid=0x0:0xc2e0952cf85f823c,
perumahan,Komplek perumahan,Mokoditek,"V9RG+9GX, n, Mokoditek, Kec. Bolang Itang Tim., Kabupaten Bolaang Mongondow Utara, Sulawesi Utara","Kabupaten Bolaang Mongondow Utara, Sulawesi Utara",SULAWESI UTARA,,Indonesia,82393217420.0,,,0.8909959,123.3763458,https://maps.google.com/?cid=0x0:0xa07e8928c9228f6c,
perumahan,Rumah wisata,Shintya Homestay,"V9VF+JGQ, Mokoditek, Kec. Bolang Itang Tim., Kabupaten Bolaang Mongondow Utara, Sulawesi Utara","Kabupaten Bolaang Mongondow Utara, Sulawesi Utara",SULAWESI UTARA,,Indonesia,,,,0.8940773,123.3738621,https://maps.google.com/?cid=0x0:0x4c7a1f60db16f97d,
perumahan,Pertanian,Aprilia Christina kakumboti,"VFQG+68R, Binjeita II, Kec. Bolang Itang Tim., Kabupaten Bolaang Mongondow Utara, Sulawesi Utara","Kabupaten Bolaang Mongondow Utara, Sulawesi Utara",SULAWESI UTARA,,Indonesia,,,,0.88836,123.475306,https://maps.google.com/?cid=0x0:0xdfe119d0d43335fd,
perumahan,Perhimpunan Pengembang Perumahan,Tanah zakaria ponamon,"VCQ7+Q4H, Saleo Satu, Kec. Bolang Itang Tim., Kabupaten Bolaang Mongondow Utara, Sulawesi Utara","Kabupaten Bolaang Mongondow Utara, Sulawesi Utara",SULAWESI UTARA,,Indonesia,,,,0.889565,123.4121754,https://maps.google.com/?cid=0x0:0x3c1019879f504c2b,
perumahan,perumahan,Kec. Kaidipang,"Kabupaten Bolaang Mongondow Utara, Sulawesi Utara","Kabupaten Bolaang Mongondow Utara, Sulawesi Utara",SULAWESI UTARA,,Indonesia,,,,0.9061974,123.2652382,https://maps.google.com/?cid=0x0:0x2e226efafb429867,
perumahan,perumahan,N.K,"W72G+R5F, Kuala Utara, Kec. Kaidipang, Kabupaten Bolaang Mongondow Utara, Sulawesi Utara","Kabupaten Bolaang Mongondow Utara, Sulawesi Utara",SULAWESI UTARA,,Indonesia,,,,0.9020728,123.2754083,https://maps.google.com/?cid=0x0:0x678e54d0bdeb24ce,
perumahan,Pembangunan Perumahan,Perumahan Griya Pinagut Lestari,"W779+2Q4, Kuala, Kec. Kaidipang, Kabupaten Bolaang Mongondow Utara, Sulawesi Utara","Kabupaten Bolaang Mongondow Utara, Sulawesi Utara",SULAWESI UTARA,,Indonesia,,,,0.9125003,123.2694381,https://maps.google.com/?cid=0x0:0x5cb3614aa46e6d15,
perumahan,Komplek perumahan,Keluarga : Nurjaman - Ahmadi,"W65Q+WV5, Inomunga Utara, Kec. Kaidipang, Kabupaten Bolaang Mongondow Utara, Sulawesi Utara","Kabupaten Bolaang Mongondow Utara, Sulawesi Utara",SULAWESI UTARA,,Indonesia,,,,0.9097625,123.2397344,https://maps.google.com/?cid=0x0:0x4e9629fe9798f3d4,
perumahan,Pembangunan Perumahan,Rumah tinggal,"W749+XW3, Boroko Tim., Kec. Kaidipang, Kabupaten Bolaang Mongondow Utara, Sulawesi Utara","Kabupaten Bolaang Mongondow Utara, Sulawesi Utara",SULAWESI UTARA,,Indonesia,,,,0.9081551,123.2700255,https://maps.google.com/?cid=0x0:0x1a94a598a482f60f,
perumahan,Perhimpunan Pengembang Perumahan,Doni,"W6RM+W47, Inomunga Utara, Kec. Kaidipang, Kabupaten Bolaang Mongondow Utara, Sulawesi Utara","Kabupaten Bolaang Mongondow Utara, Sulawesi Utara",SULAWESI UTARA,,Indonesia,,,,0.9422909,123.2327905,https://maps.google.com/?cid=0x0:0x343af201d2e71407,
perumahan,Komplek perumahan,Rumah Ali Mokodompit,"W785+6G6, Boroko, Kec. Kaidipang, Kabupaten Bolaang Mongondow Utara, Sulawesi Utara","Kabupaten Bolaang Mongondow Utara, Sulawesi Utara",SULAWESI UTARA,,Indonesia,,,,0.9155364,123.2587773,https://maps.google.com/?cid=0x0:0xf5abc79c5240c9d9,
perumahan,Pembangunan Perumahan,Queen's Home,"W759+7XP, Boroko Tim., Kec. Kaidipang, Kabupaten Bolaang Mongondow Utara, Sulawesi Utara","Kabupaten Bolaang Mongondow Utara, Sulawesi Utara",SULAWESI UTARA,,Indonesia,,,,0.9082092,123.269962,https://maps.google.com/?cid=0x0:0xc88de27c7106a727,
perumahan,Pembangunan Perumahan,KEDIAMAN,"W767+36X, Boroko, Kec. Kaidipang, Kabupaten Bolaang Mongondow Utara, Sulawesi Utara","Kabupaten Bolaang Mongondow Utara, Sulawesi Utara",SULAWESI UTARA,,Indonesia,,,,0.9102904,123.2633792,https://maps.google.com/?cid=0x0:0x2a9c9a00bd9af21b,
perumahan,Komplek perumahan,Home Indy,"W779+VF8, Boroko, Kec. Kaidipang, Kabupaten Bolaang Mongondow Utara, Sulawesi Utara","Kabupaten Bolaang Mongondow Utara, Sulawesi Utara",SULAWESI UTARA,,Indonesia,,,,0.9146675,123.2686907,https://maps.google.com/?cid=0x0:0x7118d8504ccbb3fe,
perumahan,Pembangunan Perumahan,Anda Guhunga Home,"W73C+39X, Bigo, Kec. Kaidipang, Kabupaten Bolaang Mongondow Utara, Sulawesi Utara","Kabupaten Bolaang Mongondow Utara, Sulawesi Utara",SULAWESI UTARA,,Indonesia,,,,0.9027339,123.2709726,https://maps.google.com/?cid=0x0:0x48c1de6ca75f9aef,
perumahan,Komplek perumahan,Perumahan KPR Blok. 4,"W737+CJ5, Bigo, Kec. Kaidipang, Kabupaten Bolaang Mongondow Utara, Sulawesi Utara","Kabupaten Bolaang Mongondow Utara, Sulawesi Utara",SULAWESI UTARA,,Indonesia,,,,0.9035061,123.2641134,https://maps.google.com/?cid=0x0:0x80a1bf0717c21711,
perumahan,Perhimpunan Pengembang Perumahan,Rumah ismail mokodompis,"V7MH+HW5, Soligir, Kec. Kaidipang, Kabupaten Bolaang Mongondow Utara, Sulawesi Utara","Kabupaten Bolaang Mongondow Utara, Sulawesi Utara",SULAWESI UTARA,,Indonesia,,,,0.883899,123.2798688,https://maps.google.com/?cid=0x0:0xe1bd4fd21733e738,
perumahan,Gedung Apartemen,Zio seluler,"W69X+922, Inomunga Utara, Kec. Kaidipang, Kabupaten Bolaang Mongondow Utara, Sulawesi Utara","Kabupaten Bolaang Mongondow Utara, Sulawesi Utara",SULAWESI UTARA,,Indonesia,82290317911.0,,,0.9183916,123.247525,https://maps.google.com/?cid=0x0:0x17daad0cae7b3a9d,
perumahan,Komplek perumahan,Kos Om Rahim,"W76C+3GQ, Jl. Wisata Indah, Boroko Tim., Kec. Kaidipang, Kabupaten Bolaang Mongondow Utara, Sulawesi Utara","Kabupaten Bolaang Mongondow Utara, Sulawesi Utara",SULAWESI UTARA,,Indonesia,,,,0.9102099,123.2713659,https://maps.google.com/?cid=0x0:0x2a07ff0d04e3ee74,
perumahan,Komplek perumahan,Rumah Syarifa Tyeka,"V7XC+RM5, Jl. Gulantu, North Kuala, Kaidipang, North Bolaang Mongondow Regency, North Sulawesi","Kabupaten Bolaang Mongondow Utara, Sulawesi Utara",SULAWESI UTARA,,Indonesia,,,,0.8999921,123.2718046,https://maps.google.com/?cid=0x0:0x6291bb7f9454e07a,
perumahan,Komplek perumahan,Fathir,"W729+CX6 lorong perumahan, Jl. Gulantu induk, Kuala, Kec. Kaidipang, Kabupaten Bolaang Mongondow Utara, Sulawesi Utara","Kabupaten Bolaang Mongondow Utara, Sulawesi Utara",SULAWESI UTARA,,Indonesia,,,,0.901116,123.2699335,https://maps.google.com/?cid=0x0:0x73bc1fecfd3782fe,
perumahan,Komplek perumahan,Rumah Suriansyah Korompot,"W758+6QH, Boroko Tim., Kec. Kaidipang, Kabupaten Bolaang Mongondow Utara, Sulawesi Utara","Kabupaten Bolaang Mongondow Utara, Sulawesi Utara",SULAWESI UTARA,,Indonesia,,,,0.908052,123.2669878,https://maps.google.com/?cid=0x0:0xea64d647b05938ac,
perumahan,Pembangunan Perumahan,perumahan fila pinagut,"W789+9RF, Boroko, Kec. Kaidipang, Kabupaten Bolaang Mongondow Utara, Sulawesi Utara","Kabupaten Bolaang Mongondow Utara, Sulawesi Utara",SULAWESI UTARA,,Indonesia,,,,0.9159334,123.2695548,https://maps.google.com/?cid=0x0:0x30e76cde2202e0fb,
perumahan,perumahan,LiniHome,"W665+QX, Komus II, Kec. Kaidipang, Kabupaten Bolaang Mongondow Utara, Sulawesi Utara","Kabupaten Bolaang Mongondow Utara, Sulawesi Utara",SULAWESI UTARA,,Indonesia,,,,0.911968,123.209896,https://maps.google.com/?cid=0x0:0xc9581c4d4cf0f2f9,
perumahan,Pembangunan Perumahan,"K,R,B","W769+RH7, Boroko Tim., Kec. Kaidipang, Kabupaten Bolaang Mongondow Utara, Sulawesi Utara","Kabupaten Bolaang Mongondow Utara, Sulawesi Utara",SULAWESI UTARA,,Indonesia,,,,0.9120022,123.2689092,https://maps.google.com/?cid=0x0:0x2af5df828f5d12f9,
perumahan,perumahan,Kec. Pinogaluman,"Kabupaten Bolaang Mongondow Utara, Sulawesi Utara","Kabupaten Bolaang Mongondow Utara, Sulawesi Utara",SULAWESI UTARA,,Indonesia,,,,0.9178578,123.1401469,https://maps.google.com/?cid=0x0:0x4bec49665b3f40dd,
perumahan,Kantor Pemerintah,Perumahan Kantor BPP Pinogaluman,"W48G+7Q8, Tombulang, Kec. Pinogaluman, Kabupaten Bolaang Mongondow Utara, Sulawesi Utara","Kabupaten Bolaang Mongondow Utara, Sulawesi Utara",SULAWESI UTARA,,Indonesia,82167407066.0,,,0.917044,123.1281308,https://maps.google.com/?cid=0x0:0xb0b89d0d00a97012,
perumahan,Perumahan,Perumahan Nelayan,"W4CH+X3V, Tombulang, Kec. Pinogaluman, Kabupaten Bolaang Mongondow Utara, Sulawesi Utara","Kabupaten Bolaang Mongondow Utara, Sulawesi Utara",SULAWESI UTARA,,Indonesia,82194284541.0,,,0.9224975,123.1276863,https://maps.google.com/?cid=0x0:0x2768e3850274ff9e,
perumahan,perumahan,YANTI BLONGKOD,"W4CM+JFX, Tambulang Pantai, Kec. Pinogaluman, Kabupaten Bolaang Mongondow Utara, Sulawesi Utara","Kabupaten Bolaang Mongondow Utara, Sulawesi Utara",SULAWESI UTARA,,Indonesia,,,,0.9216462,123.1336662,https://maps.google.com/?cid=0x0:0x5f77d69e5a8d3176,
perumahan,Perhimpunan Pengembang Perumahan,Rumah,"W542+5PV, Dalapuli Tim., Kec. Pinogaluman, Kabupaten Bolaang Mongondow Utara, Sulawesi Utara","Kabupaten Bolaang Mongondow Utara, Sulawesi Utara",SULAWESI UTARA,,Indonesia,,,,0.9054838,123.1518121,https://maps.google.com/?cid=0x0:0xcb98aff63eedefb5,
perumahan,Perumahan rakyat,Apin Pope,"V4PP+H27, Unnamed Road, Kayuogu, Kec. Pinogaluman, Kabupaten Bolaang Mongondow Utara, Sulawesi Utara 96253","Unnamed Road, Kayuogu, Kec. Pinogaluman, Kabupaten Bolaang Mongondow Utara",SULAWESI UTARA,96253.0,Indonesia,,,,0.8864055,123.1350438,https://maps.google.com/?cid=0x0:0xcdc88da1989c8e87,
perumahan,perumahan,Rumah akila,"W52C+89, Dengi, Kec. Pinogaluman, Kabupaten Bolaang Mongondow Utara, Sulawesi Utara","Kabupaten Bolaang Mongondow Utara, Sulawesi Utara",SULAWESI UTARA,,Indonesia,,,,0.9008287,123.1709644,https://maps.google.com/?cid=0x0:0x842ef95d080be9e0,
perumahan,Perhimpunan Pengembang Perumahan,desa duini,"W53M+66C, Jl. Trans-Sulawesi, Duini, Kec. Pinogaluman, Kabupaten Bolaang Mongondow Utara, Sulawesi Utara 96253","Jl. Trans-Sulawesi, Duini, Kec. Pinogaluman, Kabupaten Bolaang Mongondow Utara",SULAWESI UTARA,96253.0,Indonesia,,,,0.9030365,123.1828412,https://maps.google.com/?cid=0x0:0xd0e2cb6a33fc10c8,
perumahan,Komplek perumahan,Syukri Hulalango (P Komplex),"W4CR+778, Buko, Kec. Pinogaluman, Kabupaten Bolaang Mongondow Utara, Sulawesi Utara","Kabupaten Bolaang Mongondow Utara, Sulawesi Utara",SULAWESI UTARA,,Indonesia,,,,0.9206567,123.1406876,https://maps.google.com/?cid=0x0:0x96d10f2d4cebb53e,
perumahan,Pembangunan Perumahan,UD. ANNISA GALLERY,"W54P+9P5, Jl. Trans-Sulawesi, Tuntung, Kec. Pinogaluman, Kabupaten Bolaang Mongondow Utara, Sulawesi Utara","Kabupaten Bolaang Mongondow Utara, Sulawesi Utara",SULAWESI UTARA,,Indonesia,82259027207.0,,,0.9058987,123.1868484,https://maps.google.com/?cid=0x0:0xa6f4801d4dd43b43,
perumahan,Perhimpunan Pengembang Perumahan,Rumah tinggal,"W43C+JPG, Jl. Trans-Sulawesi, Tontulow, Kec. Pinogaluman, Kabupaten Bolaang Mongondow Utara, Sulawesi Utara 95766","Jl. Trans-Sulawesi, Tontulow, Kec. Pinogaluman, Kabupaten Bolaang Mongondow Utara",SULAWESI UTARA,95766.0,Indonesia,,,,0.9040423,123.121838,https://maps.google.com/?cid=0x0:0xc5df28ef8f4f6ee5,
perumahan,Komplek perumahan,My rumah,"W43G+VM4 kode pos, Tontulow, Kec. Pinogaluman, Kabupaten Bolaang Mongondow Utara, Sulawesi Utara 95766","Tontulow, Kec. Pinogaluman, Kabupaten Bolaang Mongondow Utara",SULAWESI UTARA,95766.0,Indonesia,,,,0.9046336,123.126717,https://maps.google.com/?cid=0x0:0x4f7d33e5b79bb383,
perumahan,Komplek perumahan,Natas,"W534+357, Dalapuli Tim., Kec. Pinogaluman, Kabupaten Bolaang Mongondow Utara, Sulawesi Utara","Kabupaten Bolaang Mongondow Utara, Sulawesi Utara",SULAWESI UTARA,,Indonesia,,,,0.9026506,123.1554248,https://maps.google.com/?cid=0x0:0x7198d0e1e4674977,
perumahan,perumahan,Rumah Pribadi,"W46V+WC2, Jl. Trans-Sulawesi, Dalapuli Bar., Kec. Pinogaluman, Kabupaten Bolaang Mongondow Utara, Sulawesi Utara","Kabupaten Bolaang Mongondow Utara, Sulawesi Utara",SULAWESI UTARA,,Indonesia,,,,0.9122505,123.1435231,https://maps.google.com/?cid=0x0:0x583e3f0e4913cb2c,
perumahan,Kantor Pemerintah,Rumah Kepala Desa Dalapuli Barat,"W48R+6J8, Jl. Trans-Sulawesi, Dalapuli Bar., Kec. Pinogaluman, Kabupaten Bolaang Mongondow Utara, Sulawesi Utara 96253","Jl. Trans-Sulawesi, Dalapuli Bar., Kec. Pinogaluman, Kabupaten Bolaang Mongondow Utara",SULAWESI UTARA,96253.0,Indonesia,,,,0.9156257,123.1415449,https://maps.google.com/?cid=0x0:0x7220fd8365afff8d,
perumahan,Kantor Pemerintah,POMPA AIR PERTANIAN,"W542+243, Dalapuli, Kec. Pinogaluman, Kabupaten Bolaang Mongondow Utara, Sulawesi Utara","Kabupaten Bolaang Mongondow Utara, Sulawesi Utara",SULAWESI UTARA,,Indonesia,,,,0.905,123.1503333,https://maps.google.com/?cid=0x0:0x1c58a4b5e3ca59c,
perumahan,Komplek perumahan,Dewangga rifai tontulow utara,"W46C+2WF, Tontulow Utara, Kec. Pinogaluman, Kabupaten Bolaang Mongondow Utara, Sulawesi Utara","Kabupaten Bolaang Mongondow Utara, Sulawesi Utara",SULAWESI UTARA,,Indonesia,,,,0.9100661,123.1223098,https://maps.google.com/?cid=0x0:0x619fe86108b6c652,
perumahan,Komplek perumahan,Oliv home,"V5X6+5R, Batutajam, Kec. Pinogaluman, Kabupaten Bolaang Mongondow Utara, Sulawesi Utara","Kabupaten Bolaang Mongondow Utara, Sulawesi Utara",SULAWESI UTARA,,Indonesia,,,,0.8979403,123.1620457,https://maps.google.com/?cid=0x0:0xcc5acf24d4b5c173,
perumahan,Komplek perumahan,Rumah Loly Londong Pare,"V5X8+C2F, Batutajam, Kec. Pinogaluman, Kabupaten Bolaang Mongondow Utara, Sulawesi Utara","Kabupaten Bolaang Mongondow Utara, Sulawesi Utara",SULAWESI UTARA,,Indonesia,,,,0.8991415,123.164622,https://maps.google.com/?cid=0x0:0xbfce4a9c5a1f8f28,
perumahan,Pembangunan Perumahan,Dian monoarfa,"V4MP+VV5, Kayuogu, Kec. Pinogaluman, Kabupaten Bolaang Mongondow Utara, Sulawesi Utara 96253","Kayuogu, Kec. Pinogaluman, Kabupaten Bolaang Mongondow Utara",SULAWESI UTARA,96253.0,Indonesia,,,,0.8846403,123.1372351,https://maps.google.com/?cid=0x0:0xb3c88b280c1eca3c,
perumahan,Komplek perumahan,Margareta Mariahi Tanjung Sidupa Dusun 2,"W5XC+2P7, Tj. Sidupa, Kec. Pinogaluman, Kabupaten Bolaang Mongondow Utara, Sulawesi Utara","Kabupaten Bolaang Mongondow Utara, Sulawesi Utara",SULAWESI UTARA,,Indonesia,,,,0.947659,123.1716449,https://maps.google.com/?cid=0x0:0x8c0159e2603f491c,
perumahan,perumahan,Kec. Sangkub,"Kabupaten Bolaang Mongondow Utara, Sulawesi Utara","Kabupaten Bolaang Mongondow Utara, Sulawesi Utara",SULAWESI UTARA,,Indonesia,,,,0.8799509,123.6478886,https://maps.google.com/?cid=0x0:0xded44acee8c90687,
perumahan,Komplek perumahan,Rumah Saya,"VMH2+9H4, Sangkub II, Kec. Sangkub, Kabupaten Bolaang Mongondow Utara, Sulawesi Utara","Kabupaten Bolaang Mongondow Utara, Sulawesi Utara",SULAWESI UTARA,,Indonesia,,,,0.8782394,123.6514685,https://maps.google.com/?cid=0x0:0x31ed862460b16e2b,
perumahan,Perhimpunan Pengembang Perumahan,Dila anggraini,"RMV6+3H2, Sidodadi, Kec. Sangkub, Kabupaten Bolaang Mongondow Utara, Sulawesi Utara","Kabupaten Bolaang Mongondow Utara, Sulawesi Utara",SULAWESI UTARA,,Indonesia,,,,0.8437485,123.6615874,https://maps.google.com/?cid=0x0:0xddde4295313158bf,
perumahan,Komplek perumahan,Ananda Zakaria,"VJG7+99V, Tombolango, Kec. Sangkub, Kabupaten Bolaang Mongondow Utara, Sulawesi Utara","Kabupaten Bolaang Mongondow Utara, Sulawesi Utara",SULAWESI UTARA,,Indonesia,,,,0.8750994,123.613372,https://maps.google.com/?cid=0x0:0x41f0432cd144271d,
perumahan,Komplek perumahan,sangkub,"VMC3+GH4, Sangkub I, Kec. Sangkub, Kabupaten Bolaang Mongondow Utara, Sulawesi Utara","Kabupaten Bolaang Mongondow Utara, Sulawesi Utara",SULAWESI UTARA,,Indonesia,,,,0.8712559,123.6539405,https://maps.google.com/?cid=0x0:0x986a9cdc8ec38202,
perumahan,Komplek perumahan,Rumah sangadi mokusato,"VHXX+5JJ, Jl. Trans-Sulawesi, Busisingo Utara, Kec. Sangkub, Kabupaten Bolaang Mongondow Utara, Sulawesi Utara","Kabupaten Bolaang Mongondow Utara, Sulawesi Utara",SULAWESI UTARA,,Indonesia,,,,0.8978106,123.5989591,https://maps.google.com/?cid=0x0:0xd167f5eb12159a06,
perumahan,Komplek perumahan,Green home,"VJHX+FMR, Sangkub I, Kec. Sangkub, Kabupaten Bolaang Mongondow Utara, Sulawesi Utara","Kabupaten Bolaang Mongondow Utara, Sulawesi Utara",SULAWESI UTARA,,Indonesia,,,,0.8787323,123.6491516,https://maps.google.com/?cid=0x0:0xc152acb9c337d53e,
perumahan,Rumah Kaca,Rumah keluarga Endemo,"VHWP+7HG, Bintauna Pantai, Kec. Bintauna, Kabupaten Bolaang Mongondow Utara, Sulawesi Utara","Kabupaten Bolaang Mongondow Utara, Sulawesi Utara",SULAWESI UTARA,,Indonesia,,,,0.8956993,123.5864631,https://maps.google.com/?cid=0x0:0xcb00ed32757dc6d9,
perumahan,Komplek perumahan,Sompiro rumah (Brayen Mutahang ),"VMG8+WQQ, Jl. Trans-Sulawesi, Sampiro, Kec. Sangkub, Kabupaten Bolaang Mongondow Utara, Sulawesi Utara","Kabupaten Bolaang Mongondow Utara, Sulawesi Utara",SULAWESI UTARA,,Indonesia,,,,0.8773379,123.6669263,https://maps.google.com/?cid=0x0:0x419fc9999fc735a4,
perumahan,Komplek perumahan,Rumah Latif Kasim,"VJHX+X5J, Sangkub II, Kec. Sangkub, Kabupaten Bolaang Mongondow Utara, Sulawesi Utara","Kabupaten Bolaang Mongondow Utara, Sulawesi Utara",SULAWESI UTARA,,Indonesia,,,,0.8799509,123.6478886,https://maps.google.com/?cid=0x0:0x36a8891baea78802,
perumahan,Komplek perumahan,Rumah givan hinur,"VJMR+8PJ, Sangkub II, Kec. Sangkub, Kabupaten Bolaang Mongondow Utara, Sulawesi Utara","Kabupaten Bolaang Mongondow Utara, Sulawesi Utara",SULAWESI UTARA,,Indonesia,,,,0.8833331,123.6417745,https://maps.google.com/?cid=0x0:0x8de5d0a39f7bfb83,
perumahan,Komplek perumahan,Rumah Tegar,"VHM4+7XX, Dusun II, Batulintik, Kec. Bintauna, Kabupaten Bolaang Mongondow Utara, Sulawesi Utara","Kabupaten Bolaang Mongondow Utara, Sulawesi Utara",SULAWESI UTARA,,Indonesia,,,,0.8829952,123.5576655,https://maps.google.com/?cid=0x0:0x4f01012e7313b71d,
perumahan,Komplek perumahan,Gugun dg masenge,"VJG6+M27, Tombolango, Kec. Sangkub, Kabupaten Bolaang Mongondow Utara, Sulawesi Utara","Kabupaten Bolaang Mongondow Utara, Sulawesi Utara",SULAWESI UTARA,,Indonesia,82230801540.0,,,0.8766683,123.6100557,https://maps.google.com/?cid=0x0:0xbde413060b0218ab,
perumahan,Komplek perumahan,Rumah Mbh sukur,"VM34+8M9, Sidodadi, Kec. Sangkub, Kabupaten Bolaang Mongondow Utara, Sulawesi Utara","Kabupaten Bolaang Mongondow Utara, Sulawesi Utara",SULAWESI UTARA,,Indonesia,,,,0.8532991,123.6567371,https://maps.google.com/?cid=0x0:0x376d9121893ce1be,
perumahan,Komplek perumahan,rumah ko KING,"VHVQ+QHF, Bintauna Pantai, Kec. Bintauna, Kabupaten Bolaang Mongondow Utara, Sulawesi Utara","Kabupaten Bolaang Mongondow Utara, Sulawesi Utara",SULAWESI UTARA,,Indonesia,,,,0.8944415,123.5889152,https://maps.google.com/?cid=0x0:0xd1585143b6bf000d,
perumahan,Komplek perumahan,MUHAMMAD GUFRAN DATUNSOLANG HOUSE,"VJJQ+CQ8, Jln. Siswa, Empat, Kecamata, Kec. Sangkub, Kabupaten Bolaang Mongondow Utara, Sulawesi Utara","Kabupaten Bolaang Mongondow Utara, Sulawesi Utara",SULAWESI UTARA,,Indonesia,,,,0.8810343,123.6394435,https://maps.google.com/?cid=0x0:0x5aa255b27f9a96fa,
perumahan,Komplek perumahan,Kapus Home,"VMG9+Q44 dusun 1, Jl. Trans-Sulawesi, Sampiro, Kec. Sangkub, Kabupaten Bolaang Mongondow Utara, Sulawesi Utara","Kabupaten Bolaang Mongondow Utara, Sulawesi Utara",SULAWESI UTARA,,Indonesia,,,,0.8768776,123.6678426,https://maps.google.com/?cid=0x0:0x245255eaf3b4335c,
perumahan,Komplek perumahan,Pancurang,"VMH6+5RV, Jl. Trans-Sulawesi, Sangkub I, Kec. Sangkub, Kabupaten Bolaang Mongondow Utara, Sulawesi Utara 95762","Jl. Trans-Sulawesi, Sangkub I, Kec. Sangkub, Kabupaten Bolaang Mongondow Utara",SULAWESI UTARA,95762.0,Indonesia,,,,0.8779688,123.6621129,https://maps.google.com/?cid=0x0:0x27a3606c448c7c99,
perumahan,Komplek perumahan,Chandra Tabo,"VJV2+W62, Busisingo, Kec. Sangkub, Kabupaten Bolaang Mongondow Utara, Sulawesi Utara","Kabupaten Bolaang Mongondow Utara, Sulawesi Utara",SULAWESI UTARA,,Indonesia,,,,0.8947688,123.6005082,https://maps.google.com/?cid=0x0:0x70ea66be56d03b52,
perumahan,Komplek perumahan,Rumah rio,"RMV5+73Q, Sidodadi, Kec. Sangkub, Kabupaten Bolaang Mongondow Utara, Sulawesi Utara","Kabupaten Bolaang Mongondow Utara, Sulawesi Utara",SULAWESI UTARA,,Indonesia,,,,0.8432236,123.6577297,https://maps.google.com/?cid=0x0:0x1adc058a242324d1,
perumahan,Komplek perumahan,The Mark Lee house,"VJJQ+QQP, Sangkub III, Kec. Sangkub, Kabupaten Bolaang Mongondow Utara, Sulawesi Utara","Kabupaten Bolaang Mongondow Utara, Sulawesi Utara",SULAWESI UTARA,,Indonesia,,,,0.8839593,123.6393226,https://maps.google.com/?cid=0x0:0xdebc805bf124718d,
perumahan,Komplek perumahan,Rumah Rasya (Aca),"VMG3+QCQ, Sangkub I, Kec. Sangkub, Kabupaten Bolaang Mongondow Utara, Sulawesi Utara","Kabupaten Bolaang Mongondow Utara, Sulawesi Utara",SULAWESI UTARA,,Indonesia,,,,0.8771289,123.6541627,https://maps.google.com/?cid=0x0:0xd15b3bb5ce391d72,
